sequenceNumber,corporateNumber,process,correct,updateDate,changeDate,name,nameImageId,kind,prefectureName,cityName,streetNumber,addressImageId,prefectureCode,cityCode,postCode,addressOutside,addressOutsideImageId,closeDate,closeCause,successorCorporateNumber,changeCause,assignmentDate,latest,enName,enPrefectureName,enCityName,enAddressOutside,furigana,hihyoji
5,1010001257851,新規,0,2025-08-20,2025-08-20,Ｔａｋマネジメント株式会社,,株式会社,東京都,千代田区,紀尾井町１番１１号,,13,101,1020094,,,,,,,2025-08-20,1,,,,,タックマネジメント,0
12,1010005040551,新規,0,2025-08-20,2025-08-20,一般社団法人日本ボードゲーム教育協会,,その他の設立登記法人,東京都,千代田区,神田和泉町１番地６－１６ヤマトビル４０５,,13,101,1010024,,,,,,,2025-08-20,1,,,,,ニホンボードゲームキョウイクキョウカイ,0
13,1010101016827,新規,0,2025-08-20,2025-08-20,株式会社Ｓｕｎ　Ｆｌｏｗｅｒ,,株式会社,東京都,八王子市,絹ケ丘１丁目１８番２号,,13,201,1920912,,,,,,,2025-08-20,1,,,,,サンフラワー,0
15,1010401192491,新規,0,2025-08-20,2025-08-20,Ｘ　ＳＴＡＲ　ＣＡＲ　ＣＥＮＴＥＲ株式会社,,株式会社,東京都,港区,愛宕２丁目５番１号愛宕グリーンヒルズＭＯＲＩタワー３８階,,13,103,1050002,,,,,,,2025-08-20,1,,,,,エックススターカーセンター,0
16,1010401192500,新規,0,2025-08-20,2025-08-20,株式会社ｉｎ　ｔｈｅ　ｐｏｃｋｅｔ,,株式会社,東京都,港区,南青山３丁目１番３６号青山丸竹ビル６Ｆ,,13,103,1070062,,,,,,,2025-08-20,1,,,,,インザポケット,0
18,1010403035830,新規,0,2025-08-20,2025-08-20,Ａｎａｂａｔｉｃ　Ｗｉｎｄ　Ｓｕｐｐｏｒｔ　Ｃｏｎｓｕｌｔｉｎｇ合同会社,,合同会社,東京都,港区,南青山２丁目５－１０シャトレー青山３０３号,,13,103,1070062,,,,,,,2025-08-20,1,,,,,アナバチックウィンドサポートコンサルティング,0
20,1010405024609,新規,0,2025-08-20,2025-08-20,一般社団法人英語対応寿司職人・インストラクター協会,,その他の設立登記法人,東京都,港区,北青山１丁目３番１号アールキューブ青山３階,,13,103,1070061,,,,,,,2025-08-20,1,,,,,エイゴタイオウスシショクニンインストラクターキョウカイ,0
34,1011001171860,新規,0,2025-08-20,2025-08-20,株式会社ｃｈａｍｕ,,株式会社,東京都,渋谷区,円山町５番３号ＭＩＥＵＸ渋谷ビル８階,,13,113,1500044,,,,,,,2025-08-20,1,,,,,チャム,0
41,1011301030816,新規,0,2025-08-20,2025-08-20,株式会社ＳＯＪＹＵ,,株式会社,東京都,杉並区,浜田山４丁目１６番２０号,,13,115,1680065,,,,,,,2025-08-20,1,,,,,ソウジュ,0
46,1011401027316,新規,0,2025-08-20,2025-08-20,株式会社さ卯月,,株式会社,東京都,板橋区,大谷口北町７１番１１号,,13,119,1730031,,,,,,,2025-08-20,1,,,,,ソウゲツ,0
47,1011501032430,新規,0,2025-08-20,2025-08-20,株式会社チェケラップ,,株式会社,東京都,北区,赤羽１丁目７番９号赤羽第一葉山ビル４Ｆ,,13,117,1150045,,,,,,,2025-08-20,1,,,,,チェケラップ,0
52,1012403007297,新規,0,2025-08-20,2025-08-20,合同会社Ｔ‐Ｒｅａｌ,,合同会社,東京都,三鷹市,北野４丁目１０－３７,,13,204,1810003,,,,,,,2025-08-20,1,,,,,ティーリアル,0
60,1020001164270,新規,0,2025-08-20,2025-08-20,株式会社Ｓ‐ｔｅｃｈ,,株式会社,神奈川県,横浜市瀬谷区,阿久和南３丁目３０番地２,,14,114,2460026,,,,,,,2025-08-20,1,,,,,エステック,0
61,1020003029091,新規,0,2025-08-20,2025-08-20,合同会社ＳＯＲＡ,,合同会社,神奈川県,横浜市西区,浅間町１丁目４番３号ウィザードビル４０２,,14,103,2200072,,,,,,,2025-08-20,1,,,,,ソラ,0
62,1020003029117,新規,0,2025-08-20,2025-08-20,ｐｒｏｓｐｅｒｏ合同会社,,合同会社,神奈川県,横浜市鶴見区,寺谷２丁目１－１３,,14,101,2300015,,,,,,,2025-08-20,1,,,,,プロスペル,0
66,1021001086050,新規,0,2025-08-20,2025-08-20,株式会社ＧＯＥＮ,,株式会社,神奈川県,茅ヶ崎市,東海岸北４丁目６番４４号イーストコースト雅１０２,,14,207,2530053,,,,,,,2025-08-20,1,,,,,ゴエン,0
76,1030001168163,新規,0,2025-08-20,2025-08-20,株式会社オフィス８６,,株式会社,埼玉県,川口市,川口５丁目９番地３７号ＭＹＳＴ６４号,,11,203,3320015,,,,,,,2025-08-20,1,,,,,オフィスハチロー,0
77,1030001168196,新規,0,2025-08-20,2025-08-20,株式会社マイクリーニング,,株式会社,埼玉県,川越市,田町２３番地３５（サンハイツ川越３０７号室）,,11,201,3501113,,,,,,,2025-08-20,1,,,,,マイクリーニング,0
88,1040001140096,新規,0,2025-08-20,2025-08-20,株式会社アルファ測地,,株式会社,千葉県,旭市,足川１８９７番地１,,12,215,2892522,,,,,,,2025-08-20,1,,,,,アルファソクチ,0
90,1040003028298,新規,0,2025-08-20,2025-08-20,ＫＧソーラー１合同会社,,合同会社,千葉県,市川市,市川南２丁目８番８号,,12,203,2720033,,,,,,,2025-08-20,1,,,,,ケージーソーラーワン,0
92,1050001057109,新規,0,2025-08-20,2025-08-20,華盛株式会社,,株式会社,茨城県,水戸市,栗崎町１５５８番地１,,08,201,3111133,,,,,,,2025-08-20,1,,,,,カセイ,0
93,1050001057133,新規,0,2025-08-20,2025-08-20,ＢＩＧ　ＦＯＲＥＳＴ　ＴＲＡＤＩＮＧ株式会社,,株式会社,茨城県,日立市,十王町友部東１丁目４番地の１５,,08,202,3191303,,,,,,,2025-08-20,1,,,,,ビッグフォレストトレーディング,0
94,1050003009495,新規,0,2025-08-20,2025-08-20,合同会社ファーストペンギン八千代,,合同会社,茨城県,結城郡八千代町,大字菅谷８１３番地３６,,08,521,3003572,,,,,,,2025-08-20,1,,,,,ファーストペンギンヤチヨ,0
95,1050003009504,新規,0,2025-08-20,2025-08-20,合同会社ＨＩＲＯＧＥＮ,,合同会社,茨城県,土浦市,小山田１丁目１０９番地,,08,203,3000846,,,,,,,2025-08-20,1,,,,,ヒロゲン,0
102,1080101025730,新規,0,2025-08-20,2025-08-20,株式会社アルケミー,,株式会社,静岡県,田方郡函南町,間宮６１１番地の３,,22,325,4190123,,,,,,,2025-08-20,1,,,,,アルケミー,0
107,1110001039505,新規,0,2025-08-20,2025-08-20,株式会社Ｒｅｌａ,,株式会社,新潟県,燕市,佐渡５２６３,,15,213,9591228,,,,,,,2025-08-20,1,,,,,リラ,0
115,1120001278936,新規,0,2025-08-20,2025-08-20,株式会社ドリーム企画,,株式会社,大阪府,大阪市淀川区,十三東１丁目２０番１１－９１４号,,27,123,5320023,,,,,,,2025-08-20,1,,,,,ドリームキカク,0
116,1120001278944,新規,0,2025-08-20,2025-08-20,さくら産業株式会社,,株式会社,大阪府,門真市,宮野町１５番１号,,27,223,5710062,,,,,,,2025-08-20,1,,,,,サクラサンギョウ,0
119,1120003030320,新規,0,2025-08-20,2025-08-20,合同会社皆商会,,合同会社,大阪府,大阪市北区,堂島３丁目２番６号堂島ロイヤルビル５１５号,,27,127,5300003,,,,,,,2025-08-20,1,,,,,ミナショウカイ,0
120,1120003030337,新規,0,2025-08-20,2025-08-20,合同会社Ｐｒｏｍｏｌ,,合同会社,大阪府,大阪市西区,新町３丁目１１番２５－２０４号,,27,106,5500013,,,,,,,2025-08-20,1,,,,,プロモル,0
121,1120003030353,新規,0,2025-08-20,2025-08-20,七曜合同会社,,合同会社,大阪府,大阪市西成区,萩之茶屋２丁目６番４号ニューかめや２１２号室,,27,122,5570004,,,,,,,2025-08-20,1,,,,,シチヨウ,0
125,1120901051277,新規,0,2025-08-20,2025-08-20,キャトモズ株式会社,,株式会社,大阪府,吹田市,片山町３丁目１番８－２０１号,,27,205,5640082,,,,,,,2025-08-20,1,,,,,キャトモズ,0
126,1120901051343,新規,0,2025-08-20,2025-08-20,株式会社エムフィールド,,株式会社,大阪府,豊中市,利倉１丁目７番１９号,,27,203,5610845,,,,,,,2025-08-20,1,,,,,エムフィールド,0
133,1130001080275,新規,0,2025-08-20,2025-08-20,株式会社Ｂｅｇｉ,,株式会社,京都府,京都市南区,八条源町１－１,,26,107,6018477,,,,,,,2025-08-20,1,,,,,ベジ,0
134,1130001080317,新規,0,2025-08-20,2025-08-20,サランホーム株式会社,,株式会社,京都府,京都市伏見区,横大路菅本２－１９,,26,109,6128251,,,,,,,2025-08-20,1,,,,,サランホーム,0
135,1130001080390,新規,0,2025-08-20,2025-08-20,株式会社Ｔｒｕｓｔｅｄ　Ｔｅｃｈ　Ｇｌｏｂａｌ,,株式会社,京都府,京都市中京区,両替町通御池下る龍池町４２４番地キョウトホーム御池ビル９Ｆ号室,,26,104,6048176,,,,,,,2025-08-20,1,,,,,トラステッドテックグローバル,0
137,1130003010676,新規,0,2025-08-20,2025-08-20,美和八合同会社,,合同会社,京都府,京都市南区,西九条春日町４８番地１－５０２号室,,26,107,6018413,,,,,,,2025-08-20,1,,,,,ミワワ,0
140,1140001139723,新規,0,2025-08-20,2025-08-20,株式会社神之前,,株式会社,兵庫県,淡路市,岩屋８４６番地,,28,226,6562401,,,,,,,2025-08-20,1,,,,,カミノマエ,0
147,1180001168181,新規,0,2025-08-20,2025-08-20,株式会社ＬＩＶＩＮＧＳＴＡＧＥ,,株式会社,愛知県,海部郡大治町,大字西條字七反田３８番地の６,,23,424,4901144,,,,,,,2025-08-20,1,,,,,リビングステージ,0
148,1180001168248,新規,0,2025-08-20,2025-08-20,株式会社Ｕｌｔｉｍａｔｅ,,株式会社,愛知県,稲沢市,大塚北３丁目９番地,,23,220,4928215,,,,,,,2025-08-20,1,,,,,アルティメット,0
149,1180001168272,新規,0,2025-08-20,2025-08-20,ＦＴＳ　ＩＮＴＥＲＮＡＴＩＯＮＡＬ株式会社,,株式会社,愛知県,名古屋市港区,宝神町字西屋敷１１１３番地司マンション宝神５０２号,,23,111,4550833,,,,,,,2025-08-20,1,,,,,エフティーエスインターナショナル,0
150,1180001168280,新規,0,2025-08-20,2025-08-20,株式会社Ａｌｉｃｅ　Ａｇｅｎｃｙ,,株式会社,愛知県,名古屋市中区,丸の内３丁目１７番６号ナカトウ丸の内ビル５Ｆ,,23,106,4600002,,,,,,,2025-08-20,1,,,,,アリスエージェンシー,0
152,1180003028895,新規,0,2025-08-20,2025-08-20,利峰商事合同会社,,合同会社,愛知県,名古屋市中区,三の丸１丁目１４番７号本丸ビル３１５号室,,23,106,4600001,,,,,,,2025-08-20,1,,,,,リホウショウジ,0
155,1180301040123,新規,0,2025-08-20,2025-08-20,株式会社つばめ,,株式会社,愛知県,豊田市,松平町鵜ヶ瀬澤１１番地,,23,211,4442202,,,,,,,2025-08-20,1,,,,,ツバメ,0
161,1220003004099,新規,0,2025-08-20,2025-08-20,合同会社ＳＯＵＴＨ,,合同会社,石川県,白山市,青葉台２丁目８９－１,,17,210,9240819,,,,,,,2025-08-20,1,,,,,サウス,0
165,1230005009491,新規,0,2025-08-20,2025-08-20,土地家屋調査士法人つむぐ,,その他の設立登記法人,富山県,富山市,田中町１丁目１４番１０号,,16,201,9300985,,,,,,,2025-08-20,1,,,,,ツムグ,0
173,1290001110941,新規,0,2025-08-20,2025-08-20,株式会社ファレノアーキテクトデザイン,,株式会社,福岡県,福岡市南区,老司１丁目３４番９号,,40,134,8111346,,,,,,,2025-08-20,1,,,,,ファレノアーキテクトデザイン,0
174,1290001111106,新規,0,2025-08-20,2025-08-20,株式会社ＡＮＤ　Ｊ’ｓ,,株式会社,福岡県,福岡市南区,五十川２丁目３６番８号,,40,134,8150001,,,,,,,2025-08-20,1,,,,,アンドジェイズ,0
175,1290001111139,新規,0,2025-08-20,2025-08-20,株式会社ＬＩＦＩＸ‐ＹＵＫＩ,,株式会社,福岡県,福岡市早良区,室見１丁目３番４号１０Ｆ,,40,137,8140015,,,,,,,2025-08-20,1,,,,,リフィックスユキ,0
179,1310001019759,新規,0,2025-08-20,2025-08-20,株式会社ｋａｇｕｎｏｗａ,,株式会社,長崎県,長崎市,宝町４番２５－５０１号,,42,201,8500045,,,,,,,2025-08-20,1,,,,,カグノワ,0
186,1330003011175,新規,0,2025-08-20,2025-08-20,くまくまアグリ合同会社,,合同会社,熊本県,球磨郡湯前町,２５９５番地,,43,506,8680600,,,,,,,2025-08-20,1,,,,,クマクマアグリ,0
187,1340001027602,新規,0,2025-08-20,2025-08-20,株式会社ＡＶＡＮＴＧＡＲＤＥ,,株式会社,鹿児島県,奄美市,名瀬長浜町３１－１５－３Ｆ,,46,222,8940036,,,,,,,2025-08-20,1,,,,,アヴァンギャルド,0
192,1360001035669,新規,0,2025-08-20,2025-08-20,株式会社玉城モータース,,株式会社,沖縄県,那覇市,宇栄原５丁目１－４３,,47,201,9010153,,,,,,,2025-08-20,1,,,,,タマキモータース,0
199,1370001052944,新規,0,2025-08-20,2025-08-20,ＤＡＴＥ　ＪＡＰＡＮ株式会社,,株式会社,宮城県,塩竈市,芦畔町１番５号,,04,203,9850012,,,,,,,2025-08-20,1,,,,,ダテジャパン,0
204,1430001095045,新規,0,2025-08-20,2025-08-20,株式会社こころ,,株式会社,北海道,札幌市白石区,東札幌三条５丁目３番８－１４０２号,,01,104,0030003,,,,,,,2025-08-20,1,,,,,ココロ,0
208,1470003002953,新規,0,2025-08-20,2025-08-20,合同会社ＭＩＲＡＬＯ,,合同会社,香川県,小豆郡小豆島町,蒲生３４５－１サンスマイル１０３,,37,324,7614302,,,,,,,2025-08-20,1,,,,,,0
209,1490001011145,新規,0,2025-08-20,2025-08-20,株式会社大協,,株式会社,高知県,高知市,上町５丁目５番３６号,,39,201,7800901,,,,,,,2025-08-20,1,,,,,,0
217,2010001257859,新規,0,2025-08-20,2025-08-20,日本歯科通株式会社,,株式会社,東京都,中央区,銀座６丁目６番１号銀座風月堂ビル５Ｆ,,13,102,1040061,,,,,,,2025-08-20,1,,,,,ニホンシカツウ,0
221,2010101016826,新規,0,2025-08-20,2025-08-20,株式会社紫苑,,株式会社,東京都,八王子市,みつい台２丁目４６番２号,,13,201,1920014,,,,,,,2025-08-20,1,,,,,シオン,0
226,2010401192359,新規,0,2025-08-20,2025-08-20,株式会社五福堂,,株式会社,東京都,港区,六本木７丁目１０番２６号１Ｆ,,13,103,1060032,,,,,,,2025-08-20,1,,,,,ゴフクドウ,0
227,2010401192499,新規,0,2025-08-20,2025-08-20,ＡＲＴＳ‐４株式会社,,株式会社,東京都,港区,港南１丁目２番７０号品川シーズンテラス,,13,103,1080075,,,,,,,2025-08-20,1,,,,,アーツフォー,0
229,2010405024632,新規,0,2025-08-20,2025-08-20,一般社団法人創生機構竹の光,,その他の設立登記法人,東京都,港区,六本木４丁目１２番１１号竹岡ビル５階,,13,103,1060032,,,,,,,2025-08-20,1,,,,,ソウセイキコウタケノヒカリ,0
236,2010601067831,新規,0,2025-08-20,2025-08-20,華普康諾株式会社,,株式会社,東京都,墨田区,向島４丁目１番１－２０４号,,13,107,1310033,,,,,,,2025-08-20,1,,,,,カホコウノウ,0
246,2011001171463,新規,0,2025-08-20,2025-08-20,Ｊａｐａｎ　Ｎｅｘｕｓ　Ｃａｔａｌｙｓｔ株式会社,,株式会社,東京都,渋谷区,渋谷１丁目９番８号,,13,113,1500002,,,,,,,2025-08-20,1,,,,,ジャパンネクサスカタリスト,0
247,2011001171546,新規,0,2025-08-20,2025-08-20,スプリンクル株式会社,,株式会社,東京都,渋谷区,神宮前６丁目２３番４号桑野ビル２階,,13,113,1500001,,,,,,,2025-08-20,1,,,,,スプリンクル,0
248,2011001171843,新規,0,2025-08-20,2025-08-20,ヒロシオカモト株式会社,,株式会社,東京都,目黒区,南３丁目９番５号,,13,110,1520013,,,,,,,2025-08-20,1,,,,,ヒロシオカモト,0
250,2011101112722,新規,0,2025-08-20,2025-08-20,デイリーフレッシュ株式会社,,株式会社,東京都,新宿区,西新宿７丁目１７番７号廣田ビル２Ｆ,,13,104,1600023,,,,,,,2025-08-20,1,,,,,デイリーフレッシュ,0
251,2011103016211,新規,0,2025-08-20,2025-08-20,合同会社館一商事,,合同会社,東京都,新宿区,西新宿３丁目３番１３号西新宿水間ビル２Ｆ,,13,104,1600023,,,,,,,2025-08-20,1,,,,,ダテイチショウジ,0
252,2011103016228,新規,0,2025-08-20,2025-08-20,ＹＳＧ合同会社,,合同会社,東京都,新宿区,西新宿５丁目２番１－２９０５号,,13,104,1600023,,,,,,,2025-08-20,1,,,,,ワイエスジー,0
256,2011301030815,新規,0,2025-08-20,2025-08-20,株式会社安寿,,株式会社,東京都,杉並区,天沼１丁目１－１１,,13,115,1670032,,,,,,,2025-08-20,1,,,,,アンジュ,0
258,2011403004808,新規,0,2025-08-20,2025-08-20,合同会社ＤｉｇｉＮｓｔｕｄｉｏ,,合同会社,東京都,板橋区,南常盤台２丁目１３－６,,13,119,1740072,,,,,,,2025-08-20,1,,,,,デジエヌスタジオ,0
262,2011701028616,新規,0,2025-08-20,2025-08-20,株式会社ＴＨＥ　ＭＯＮＡＲＣＨＹ,,株式会社,東京都,江戸川区,西葛西８丁目１８－１２アクアマリーナ１０１号室,,13,123,1340088,,,,,,,2025-08-20,1,,,,,ザモナーキー,0
268,2011801046567,新規,0,2025-08-20,2025-08-20,アオキフードサービス株式会社,,株式会社,東京都,足立区,足立３丁目３３－３,,13,121,1200015,,,,,,,2025-08-20,1,,,,,アオキフードサービス,0
276,2012703003350,新規,0,2025-08-20,2025-08-20,ＪａｐａｎＥｘ合同会社,,合同会社,東京都,東久留米市,柳窪２丁目１６番９号イーストリッジ２０５,,13,222,2030044,,,,,,,2025-08-20,1,,,,,ジャパネックス,0
277,2012801024182,新規,0,2025-08-20,2025-08-20,株式会社津久井石材,,株式会社,東京都,武蔵村山市,学園５丁目２０番地の３,,13,223,2080011,,,,,,,2025-08-20,1,,,,,ツクイセキザイ,0
284,2020001164468,新規,0,2025-08-20,2025-08-20,株式会社伽藍奈誌,,株式会社,神奈川県,横浜市保土ケ谷区,星川２丁目７番３３号明神台ハイム１０５号,,14,106,2400006,,,,,,,2025-08-20,1,,,,,カラナシ,0
285,2020001164476,新規,0,2025-08-20,2025-08-20,株式会社レモン設備,,株式会社,神奈川県,横浜市南区,永田南２丁目２番１８号,,14,105,2320073,,,,,,,2025-08-20,1,,,,,レモンセツビ,0
288,2020005016946,新規,0,2025-08-20,2025-08-20,一般社団法人獣医療サービス研究会,,その他の設立登記法人,神奈川県,横浜市西区,みなとみらい２丁目２番地１横浜ランドマークプラザ５階Ｒｅｇｕｓ,,14,103,2200012,,,,,,,2025-08-20,1,,,,,ジュウイリョウサービスケンキュウカイ,0
295,2030001168187,新規,0,2025-08-20,2025-08-20,株式会社野村総合コンサルティング,,株式会社,埼玉県,さいたま市南区,太田窪４丁目１４番２０号,,11,108,3360015,,,,,,,2025-08-20,1,,,,,ノムラソウゴウコンサルティング,0
296,2030001168237,新規,0,2025-08-20,2025-08-20,株式会社ＰＡＬＥ　ＯＮＥ,,株式会社,埼玉県,上尾市,本町５丁目８番１５－２０号,,11,219,3620014,,,,,,,2025-08-20,1,,,,,ペールワン,0
305,2030003027432,新規,0,2025-08-20,2025-08-20,ＥＮ・サークル合同会社,,合同会社,埼玉県,川越市,小仙波町４丁目１４番地４カーサ・ビアンカＡ－１０１号室,,11,201,3500036,,,,,,,2025-08-20,1,,,,,エンサークル,0
307,2040001140129,新規,0,2025-08-20,2025-08-20,株式会社羅針盤,,株式会社,千葉県,船橋市,咲が丘４丁目１０番２６号,,12,204,2740807,,,,,,,2025-08-20,1,,,,,ラシンバン,0
309,2040003028289,新規,0,2025-08-20,2025-08-20,江恵興業合同会社,,合同会社,千葉県,千葉市花見川区,三角町６５７－１７－２０３号室,,12,102,2620011,,,,,,,2025-08-20,1,,,,,コウケイコウギョウ,0
310,2040003028306,新規,0,2025-08-20,2025-08-20,合同会社清雅ミラケア,,合同会社,千葉県,松戸市,牧の原１丁目２６番地の１０,,12,207,2702267,,,,,,,2025-08-20,1,,,,,セイガミラケア,0
315,2050001057132,新規,0,2025-08-20,2025-08-20,しょうわ家族株式会社,,株式会社,茨城県,土浦市,荒川本郷２１８番地１７３,,08,203,3000877,,,,,,,2025-08-20,1,,,,,ショウワカゾク,0
321,2080005007717,新規,0,2025-08-20,2025-08-20,一般社団法人フリーランスジャパン,,その他の設立登記法人,静岡県,静岡市葵区,紺屋町８－１金清軒ビル１Ｆ,,22,101,4200852,,,,,,,2025-08-20,1,,,,,フリーランスジャパン,0
343,2120001278803,新規,0,2025-08-20,2025-08-20,株式会社ＬｉＬｏ　Ｈｏｌｄｉｎｇｓ,,株式会社,大阪府,大阪市西区,新町４丁目１７番２２－４０３号,,27,106,5500013,,,,,,,2025-08-20,1,,,,,リロホールディングス,0
346,2120003030311,新規,0,2025-08-20,2025-08-20,合同会社やまと,,合同会社,大阪府,門真市,桑才新町３４番２号,,27,223,5710043,,,,,,,2025-08-20,1,,,,,ヤマト,0
350,2122001039516,新規,0,2025-08-20,2025-08-20,おうちの医療メディカルサポート株式会社,,株式会社,大阪府,四條畷市,塚脇町３－１６,,27,229,5750024,,,,,,,2025-08-20,1,,,,,オウチノイリョウメディカルサポート,0
357,2130005017438,新規,0,2025-08-20,2025-08-20,一般社団法人西加舎,,その他の設立登記法人,京都府,亀岡市,本梅町西加舎五反田１１番地,,26,206,6210255,,,,,,,2025-08-20,1,,,,,ニシカヤ,0
359,2140001139722,新規,0,2025-08-20,2025-08-20,株式会社ブルーテック,,株式会社,兵庫県,明石市,本町２丁目８番２号,,28,203,6730892,,,,,,,2025-08-20,1,,,,,ブルーテック,0
360,2140001139747,新規,0,2025-08-20,2025-08-20,株式会社ＰｏｓｉｔｉｖｅＢｒｏｗ,,株式会社,兵庫県,神戸市中央区,栄町通６丁目１番１８号,,28,110,6500023,,,,,,,2025-08-20,1,,,,,ポジティブブロー,0
366,2180001168107,新規,0,2025-08-20,2025-08-20,株式会社ＨＥＲＡ,,株式会社,愛知県,名古屋市中区,丸の内２丁目１４番３１号ジェムストーン丸の内１０２号室,,23,106,4600002,,,,,,,2025-08-20,1,,,,,ヘラ,0
371,2180003028903,新規,0,2025-08-20,2025-08-20,合同会社ＡＮＫ　ＴＲＡＤＩＮＧ,,合同会社,愛知県,名古屋市中川区,高畑５丁目２５１タカオキ第一ハイツ２０２,,23,110,4540911,,,,,,,2025-08-20,1,,,,,エーエヌケートレーディング,0
372,2180003028911,新規,0,2025-08-20,2025-08-20,Ｓｈｉｎｎｏ　ｎａｉｌ　ｌａｂ合同会社,,合同会社,愛知県,名古屋市天白区,大坪２丁目１８０８－３０５室,,23,116,4680072,,,,,,,2025-08-20,1,,,,,シンノネイルラボ,0
381,2200003006971,新規,0,2025-08-20,2025-08-20,ＲＷ　ＴＲＡＤＩＮＧ合同会社,,合同会社,岐阜県,岐阜市,黒野９９番地の１ぐりむ・ぎほく８号室,,21,201,5011131,,,,,,,2025-08-20,1,,,,,アールダブリュートレーディング,0
382,2210003001947,新規,0,2025-08-20,2025-08-20,クラウド救急合同会社,,合同会社,福井県,坂井市,丸岡町寅国７―２７ファーストレジデンス丸岡２号棟１０２号,,18,210,9100351,,,,,,,2025-08-20,1,,,,,クラウドキュウキュウ,0
390,2260005011510,新規,0,2025-08-20,2025-08-20,医療法人社団みずかわ歯科クリニック,,その他の設立登記法人,岡山県,倉敷市,真備町箭田１１９０番地,,33,202,7101301,,,,,,,2025-08-20,1,,,,,ミズカワシカクリニック,0
393,2290001111146,新規,0,2025-08-20,2025-08-20,株式会社ｈａｒｍｏｎｉｅ,,株式会社,福岡県,福岡市城南区,梅林２丁目１８番８－５０１号,,40,136,8140144,,,,,,,2025-08-20,1,,,,,ハルモニー,0
394,2290001111187,新規,0,2025-08-20,2025-08-20,株式会社ＬＵＵＮＡ,,株式会社,福岡県,久留米市,上津町１６５９－４,,40,203,8300052,,,,,,,2025-08-20,1,,,,,ルーナ,0
402,2320003004749,新規,0,2025-08-20,2025-08-20,合同会社バブルファクター,,合同会社,大分県,大分市,千代町４丁目１番１号第二クボタビル２０３号,,44,201,8700033,,,,,,,2025-08-20,1,,,,,バブルファクター,0
419,2400001017133,新規,0,2025-08-20,2025-08-20,Ａｃｅｔｒｏｎ株式会社,,株式会社,岩手県,八幡平市,安比高原１７０番地６メゾンＡＰＰＩ７－２０３号室,,03,214,0287306,,,,,,,2025-08-20,1,,,,,エーストロン,0
424,2470003002960,新規,0,2025-08-20,2025-08-20,合同会社ＥＳｔａｔｅ,,合同会社,香川県,丸亀市,風袋町１５３番地１,,37,202,7630001,,,,,,,2025-08-20,1,,,,,,0
426,2480003002308,新規,0,2025-08-20,2025-08-20,愛菜合同会社,,合同会社,徳島県,板野郡上板町,七條字栗ノ木前３０番地１,,36,405,7711302,,,,,,,2025-08-20,1,,,,,アイサイ,0
434,3010001257809,新規,0,2025-08-20,2025-08-20,株式会社Ｓｈｉｎｂｌｏｏｍ,,株式会社,東京都,千代田区,神田和泉町１番地６の１６ヤマトビル４０５,,13,101,1010024,,,,,,,2025-08-20,1,,,,,シンブルーム,0
438,3010003048446,新規,0,2025-08-20,2025-08-20,合同会社ＬＳＴ,,合同会社,東京都,中央区,日本橋１丁目４番１号日本橋一丁目ビルディング,,13,102,1030027,,,,,,,2025-08-20,1,,,,,エルエスティー,0
439,3010003048479,新規,0,2025-08-20,2025-08-20,合同会社ＳＣ００８,,合同会社,東京都,千代田区,平河町１丁目６番１５号シルスフィア会計事務所内,,13,101,1020093,,,,,,,2025-08-20,1,,,,,エスシーゼロゼロハチ,0
441,3010005040558,新規,0,2025-08-20,2025-08-20,一般社団法人ＡＤＩＦＪＡＰＡＮ支援機構,,その他の設立登記法人,東京都,中央区,新川２丁目８番８号ＳＮＴ八丁堀ビル４階,,13,102,1040033,,,,,,,2025-08-20,1,,,,,アディフジャパンシエンキコウ,0
442,3010101016825,新規,0,2025-08-20,2025-08-20,ＫＭ株式会社,,株式会社,東京都,八王子市,寺田町３５６－３,,13,201,1930943,,,,,,,2025-08-20,1,,,,,ケーエム,0
448,3010401192218,新規,0,2025-08-20,2025-08-20,株式会社ｒｅｖｏｌｕｔｉｏｎ,,株式会社,東京都,港区,港南３丁目６番２１－４００９,,13,103,1080075,,,,,,,2025-08-20,1,,,,,レボリューション,0
449,3010401192473,新規,0,2025-08-20,2025-08-20,株式会社ＴＣ＆Ｃｏｎｓｕｌｔｉｎｇ,,株式会社,東京都,港区,白金１丁目２番１－Ｅ３８０１号,,13,103,1080072,,,,,,,2025-08-20,1,,,,,ティーシーアンドコンサルティング,0
450,3010401192481,新規,0,2025-08-20,2025-08-20,株式会社ＳＴＥＬＬＡ　ＣＲＥＡＴＩＶＥ,,株式会社,東京都,港区,北青山１丁目３番１号,,13,103,1070061,,,,,,,2025-08-20,1,,,,,ステラクリエイティブ,0
451,3010403035829,新規,0,2025-08-20,2025-08-20,ＢＯＨ合同会社,,合同会社,東京都,港区,海岸２丁目３番２号ＢＬＵＥ８０２,,13,103,1050022,,,,,,,2025-08-20,1,,,,,ビーオーエイチ,0
453,3010501054573,新規,0,2025-08-20,2025-08-20,株式会社ＹＳＬ,,株式会社,東京都,台東区,上野５丁目４番３号１階,,13,106,1100005,,,,,,,2025-08-20,1,,,,,ワイエスエル,0
454,3010601067830,新規,0,2025-08-20,2025-08-20,馥田株式会社,,株式会社,東京都,墨田区,文花１丁目３４番１１－４０９号,,13,107,1310044,,,,,,,2025-08-20,1,,,,,フクダ,0
455,3010703007874,新規,0,2025-08-20,2025-08-20,合同会社ＶＯＲＴＥＣＨ,,合同会社,東京都,品川区,小山２丁目２番４号,,13,109,1420062,,,,,,,2025-08-20,1,,,,,ヴォルテック,0
459,3011001171396,新規,0,2025-08-20,2025-08-20,株式会社１号,,株式会社,東京都,渋谷区,円山町５番３号ＭＩＥＵＸ渋谷ビル８階,,13,113,1500044,,,,,,,2025-08-20,1,,,,,イチゴウ,0
460,3011003022218,新規,0,2025-08-20,2025-08-20,合同会社Ａｓｃｅｎｔ　Ｒｅｃｏｒｄｉｎｇｓ,,合同会社,東京都,目黒区,目黒本町２丁目１３番２５－３０５号,,13,110,1520002,,,,,,,2025-08-20,1,,,,,アセントレコーディングズ,0
461,3011101112622,新規,0,2025-08-20,2025-08-20,株式会社シーハイド,,株式会社,東京都,新宿区,西新宿３丁目３番１３号西新宿水間ビル６階,,13,104,1600023,,,,,,,2025-08-20,1,,,,,シーハイド,0
462,3011101112960,新規,0,2025-08-20,2025-08-20,株式会社Ｍｅｄｉａ　Ｔｅｃｈｎｏｌｏｇｉｅｓ,,株式会社,東京都,新宿区,余丁町１１番地１８,,13,104,1620055,,,,,,,2025-08-20,1,,,,,メディアテクノロジーズ,0
464,3011103016210,新規,0,2025-08-20,2025-08-20,合同会社ＳＩＮＤＨＵ,,合同会社,東京都,新宿区,西新宿４丁目１６番３号,,13,104,1600023,,,,,,,2025-08-20,1,,,,,シンドゥ,0
465,3011301030814,新規,0,2025-08-20,2025-08-20,株式会社あべりんテックラボ,,株式会社,東京都,杉並区,和田１丁目２８番３号ニューハウスＢＡＮ４０３,,13,115,1660012,,,,,,,2025-08-20,1,,,,,アベリンテックラボ,0
468,3011401027339,新規,0,2025-08-20,2025-08-20,株式会社ＡＺ　ｓｔｕｄｉｏ,,株式会社,東京都,板橋区,小豆沢４丁目１４－９－４１０,,13,119,1740051,,,,,,,2025-08-20,1,,,,,アズスタジオ,0
469,3011403004807,新規,0,2025-08-20,2025-08-20,ＳＳＫ合同会社,,合同会社,東京都,板橋区,本町６－３－４２２板橋本町グリーンパーク,,13,119,1730001,,,,,,,2025-08-20,1,,,,,エスエスケー,0
478,3011701028631,新規,0,2025-08-20,2025-08-20,株式会社Ｇｌｉｎｋ,,株式会社,東京都,江戸川区,船堀７丁目１４番１３－９０７号,,13,123,1340091,,,,,,,2025-08-20,1,,,,,ジーリンク,0
486,3020003029073,新規,0,2025-08-20,2025-08-20,合同会社ＺＥＲＯ,,合同会社,神奈川県,川崎市宮前区,犬蔵２丁目４１番７号,,14,136,2160011,,,,,,,2025-08-20,1,,,,,ゼロ,0
487,3020003029206,新規,0,2025-08-20,2025-08-20,ＫＳ企画合同会社,,合同会社,神奈川県,川崎市多摩区,生田５丁目１６番４６号,,14,135,2140038,,,,,,,2025-08-20,1,,,,,ケーエスキカク,0
488,3020005016953,新規,0,2025-08-20,2025-08-20,一般社団法人Ｓｏｕｎｄ　Ａｌｌｉａｎｃｅ,,その他の設立登記法人,神奈川県,横浜市神奈川区,金港町５－１４クアドリフォリオ８階,,14,102,2210056,,,,,,,2025-08-20,1,,,,,,0
495,3030001168211,新規,0,2025-08-20,2025-08-20,ＮＯＷ＆ＭＥ株式会社,,株式会社,埼玉県,さいたま市南区,辻１丁目２番７－５号,00140361,11,108,3360026,,,,,,,2025-08-20,1,,,,,ナウアンドミー,0
496,3030001168244,新規,0,2025-08-20,2025-08-20,ベストサービス株式会社,,株式会社,埼玉県,所沢市,緑町２丁目１３－２日高ビル２階,,11,208,3591111,,,,,,,2025-08-20,1,,,,,ベストサービス,0
497,3030001168252,新規,0,2025-08-20,2025-08-20,Ｔｏｗ　Ｐｌｕｓ株式会社,,株式会社,埼玉県,川口市,戸塚東２丁目８番７号,,11,203,3330802,,,,,,,2025-08-20,1,,,,,トウプラス,0
498,3030001168260,新規,0,2025-08-20,2025-08-20,株式会社コスモス,,株式会社,埼玉県,さいたま市中央区,上峰３丁目７番２８号ユーアイコーポＢ棟１０１号,,11,105,3380014,,,,,,,2025-08-20,1,,,,,コスモス,0
505,3040001140094,新規,0,2025-08-20,2025-08-20,株式会社大野村,,株式会社,千葉県,鎌ケ谷市,東道野辺２丁目７番２９－９号,,12,224,2730115,,,,,,,2025-08-20,1,,,,,オオノムラ,0
506,3040003028288,新規,0,2025-08-20,2025-08-20,合同会社Ｇｒａｃｅ,,合同会社,千葉県,船橋市,坪井東１丁目２番２６号グランディール匠６０５号,,12,204,2740060,,,,,,,2025-08-20,1,,,,,グレイス,0
511,3050001057098,新規,0,2025-08-20,2025-08-20,株式会社ＳＭＫ,,株式会社,茨城県,牛久市,上柏田２丁目８番地２０,,08,219,3001232,,,,,,,2025-08-20,1,,,,,エスエムケイ,0
512,3050001057115,新規,0,2025-08-20,2025-08-20,黒内コミュニティ株式会社,,株式会社,茨城県,つくばみらい市,伊奈東８３番地１,,08,235,3002308,,,,,,,2025-08-20,1,,,,,クロウチコミュニティ,0
513,3050001057123,新規,0,2025-08-20,2025-08-20,株式会社グローリンク,,株式会社,茨城県,守谷市,けやき台１丁目２８番地７,,08,224,3020128,,,,,,,2025-08-20,1,,,,,グローリンク,0
514,3050001057131,新規,0,2025-08-20,2025-08-20,ＴＭホールディングス株式会社,,株式会社,茨城県,神栖市,柳川１６００番地,,08,232,3140252,,,,,,,2025-08-20,1,,,,,ティーエムホールディングス,0
520,3060001038519,新規,0,2025-08-20,2025-08-20,福左イノベーション株式会社,,株式会社,栃木県,宇都宮市,江曽島３丁目７５９番地２,,09,201,3210107,,,,,,,2025-08-20,1,,,,,フクサイノベーション,0
524,3080401028126,新規,0,2025-08-20,2025-08-20,株式会社イマクロ,,株式会社,静岡県,浜松市中央区,下石田町１３６番地,,22,138,4350006,,,,,,,2025-08-20,1,,,,,,0
535,3120001278793,新規,0,2025-08-20,2025-08-20,益循投資株式会社,,株式会社,大阪府,大阪市北区,中之島３丁目１番８号２Ｆ,,27,127,5300005,,,,,,,2025-08-20,1,,,,,エキジュンキャピタル,0
536,3120001278975,新規,0,2025-08-20,2025-08-20,株式会社地域活性化支援機構,,株式会社,大阪府,大阪市浪速区,桜川４丁目７番２６号,,27,111,5560022,,,,,,,2025-08-20,1,,,,,チイキカッセイカシエンキコウ,0
543,3120003030335,新規,0,2025-08-20,2025-08-20,三泰興業合同会社,,合同会社,大阪府,大阪市中央区,南船場１丁目３－１４,,27,128,5420081,,,,,,,2025-08-20,1,,,,,サンタイコウギョウ,0
544,3120003030343,新規,0,2025-08-20,2025-08-20,合同会社ＫＯＳＫ,,合同会社,大阪府,大阪市中央区,西心斎橋２丁目３－７西井ビル４Ｆ,,27,128,5420086,,,,,,,2025-08-20,1,,,,,コースク,0
548,3120101072238,新規,0,2025-08-20,2025-08-20,株式会社匠,,株式会社,大阪府,羽曳野市,野々上５丁目１５番４号,,27,222,5830871,,,,,,,2025-08-20,1,,,,,タクミ,0
549,3120101072295,新規,0,2025-08-20,2025-08-20,ＴＫ　Ｃｏｒｐｏｒａｔｉｏｎ株式会社,,株式会社,大阪府,富田林市,錦織中２丁目１番１６号,,27,214,5840068,,,,,,,2025-08-20,1,,,,,ティーケイコーポレーション,0
550,3120103006631,新規,0,2025-08-20,2025-08-20,アイ不動産開発合同会社,,合同会社,大阪府,泉南市,男里７丁目７番３４号,,27,228,5900526,,,,,,,2025-08-20,1,,,,,アイフドウサンカイハツ,0
551,3120103006648,新規,0,2025-08-20,2025-08-20,漢通合同会社,,合同会社,大阪府,堺市中区,辻之１１７１－６０－２０２,00140354,27,142,5998245,,,,,,,2025-08-20,1,,,,,カンツウ,0
552,3120901051333,新規,0,2025-08-20,2025-08-20,Ｉｓ’クリエイト株式会社,,株式会社,大阪府,豊中市,少路１丁目５番１２－５０７号,,27,203,5600004,,,,,,,2025-08-20,1,,,,,アイズクリエイト,0
553,3120903005808,新規,0,2025-08-20,2025-08-20,合同会社Ｙ．Ｎ　ｆａｃｔｏｒｙ,,合同会社,大阪府,豊中市,今在家町１０番１２号,,27,203,5610842,,,,,,,2025-08-20,1,,,,,ワイエヌファクトリー,0
556,3122001039548,新規,0,2025-08-20,2025-08-20,株式会社ころいろ,,株式会社,大阪府,四條畷市,岡山２丁目１３－４,,27,229,5750002,,,,,,,2025-08-20,1,,,,,コロイロ,0
561,3130003010724,新規,0,2025-08-20,2025-08-20,Ｂｏｏｋｒｉｄｇｅ合同会社,,合同会社,京都府,亀岡市,本梅町平松湯ノ花４番地２,,26,206,6210251,,,,,,,2025-08-20,1,,,,,ブックリッジ,0
579,3180001167917,新規,0,2025-08-20,2025-08-20,株式会社Ｅｄｕｃａｔｉｏｎ,,株式会社,愛知県,名古屋市西区,則武新町４丁目４番１９号スプリングヒル則武１０２,,23,104,4510051,,,,,,,2025-08-20,1,,,,,エデュケーション,0
580,3180001168254,新規,0,2025-08-20,2025-08-20,株式会社イロドリ,,株式会社,愛知県,一宮市,北方町北方字狐塚郷４５番地１,,23,203,4938001,,,,,,,2025-08-20,1,,,,,イロドリ,0
581,3180001168270,新規,0,2025-08-20,2025-08-20,株式会社三昌工業,,株式会社,愛知県,知多市,にしの台１丁目１００番地の５,,23,224,4780055,,,,,,,2025-08-20,1,,,,,サンショウコウギョウ,0
582,3180001168279,新規,0,2025-08-20,2025-08-20,アーサー株式会社,,株式会社,愛知県,名古屋市中区,新栄１丁目４０番８号,,23,106,4600007,,,,,,,2025-08-20,1,,,,,アーサー,0
583,3180001168287,新規,0,2025-08-20,2025-08-20,和渓源株式会社,,株式会社,愛知県,瀬戸市,池田町２０１番地の６,,23,204,4890952,,,,,,,2025-08-20,1,,,,,ワケイゲン,0
585,3180003028902,新規,0,2025-08-20,2025-08-20,合同会社共創未来,,合同会社,愛知県,大府市,江端町５丁目１６７田中ビルＡ,,23,223,4740035,,,,,,,2025-08-20,1,,,,,キョウソウミライ,0
586,3180003028910,新規,0,2025-08-20,2025-08-20,中部電気設備サービス合同会社,,合同会社,愛知県,名古屋市中村区,下米野町１丁目１６番地,,23,105,4530802,,,,,,,2025-08-20,1,,,,,チュウブデンキセツビサービス,0
592,3220001026878,新規,0,2025-08-20,2025-08-20,株式会社ｂｌｏｏｍａｒｋ,,株式会社,石川県,金沢市,高尾台１丁目４８番地,,17,201,9218155,,,,,,,2025-08-20,1,,,,,ブルーマーク,0
603,3250001021298,新規,0,2025-08-20,2025-08-20,株式会社黎,,株式会社,山口県,山口市,旭通り２丁目８－３１ベルエール旭通りカーサＣ,,35,203,7530051,,,,,,,2025-08-20,1,,,,,レイ,0
608,3260003005307,新規,0,2025-08-20,2025-08-20,８８ＢＡＫＥＲＹ合同会社,,合同会社,岡山県,津山市,堀坂２１３－１,,33,203,7081103,,,,,,,2025-08-20,1,,,,,ハチハチベイカリー,0
616,3290001111005,新規,0,2025-08-20,2025-08-20,株式会社ＲＵＭＩＮＵＳ,,株式会社,福岡県,福岡市博多区,博多駅前１丁目２３番２号ＰａｒｋＦｒｏｎｔ博多駅前一丁目５Ｆ－Ｂ,,40,132,8120011,,,,,,,2025-08-20,1,,,,,ルミナス,0
617,3290001111112,新規,0,2025-08-20,2025-08-20,株式会社ダウンビート,,株式会社,福岡県,福岡市早良区,城西３丁目１７番２０－６０７号,,40,137,8140003,,,,,,,2025-08-20,1,,,,,ダウンビート,0
634,3320003004748,新規,0,2025-08-20,2025-08-20,合同会社ｃｈａｒｂｅｌ,,合同会社,大分県,大分市,府内町１丁目３番１８号ポラリス府内１０３,,44,201,8700021,,,,,,,2025-08-20,1,,,,,シャルベル,0
637,3330001033491,新規,0,2025-08-20,2025-08-20,Ｉｎｔｅｇｒｉｔｙ　Ｐａｒｔｎｅｒｓ株式会社,,株式会社,熊本県,菊池郡菊陽町,光の森４丁目１３－１,,43,404,8691108,,,,,,,2025-08-20,1,,,,,インテグリティパートナーズ,0
650,3370005010995,新規,0,2025-08-20,2025-08-20,一般社団法人ナイトライフ安全推進協会,,その他の設立登記法人,宮城県,仙台市青葉区,千代田町４－１２ハピネスコートＫ１１４号室,,04,101,9810936,,,,,,,2025-08-20,1,,,,,ナイトライフアンゼンスイシンキョウカイ,0
656,3400003003519,新規,0,2025-08-20,2025-08-20,合同会社蔵人家,,合同会社,岩手県,盛岡市,大通２丁目６番２１号,,03,201,0200022,,,,,,,2025-08-20,1,,,,,クラトヤ,0
658,3410003004144,新規,0,2025-08-20,2025-08-20,合同会社Ｎｉｘａｃｔ,,合同会社,秋田県,大館市,御成町２丁目１２番１５号パナハイツイーストＤ号,,05,204,0170044,,,,,,,2025-08-20,1,,,,,,0
660,3430001095019,新規,0,2025-08-20,2025-08-20,株式会社ルチルエステート,,株式会社,北海道,苫小牧市,双葉町１丁目１３番３号グランメゾンＫ１０２号室,,01,213,0530045,,,,,,,2025-08-20,1,,,,,ルチルエステート,0
661,3430001095043,新規,0,2025-08-20,2025-08-20,株式会社心光商事,,株式会社,北海道,小樽市,花園１丁目２番２号,,01,203,0470024,,,,,,,2025-08-20,1,,,,,シンコウショウジ,0
662,3430001095051,新規,0,2025-08-20,2025-08-20,株式会社ＳＴＡＹＳ,,株式会社,北海道,札幌市白石区,川北一条３丁目１４番１５号,,01,104,0030851,,,,,,,2025-08-20,1,,,,,ステイズ,0
673,4010001257857,新規,0,2025-08-20,2025-08-20,Ｘｉｎｂａｎｂａｎ　Ｇｌｏｂａｌ　Ｊａｐａｎ株式会社,,株式会社,東京都,中央区,日本橋大伝馬町４番１号福原ビル５階,,13,102,1030011,,,,,,,2025-08-20,1,,,,,シンバンバングローバルジャパン,0
674,4010001257898,新規,0,2025-08-20,2025-08-20,株式会社グロバリス,,株式会社,東京都,中央区,東日本橋２丁目４番４号,,13,102,1030004,,,,,,,2025-08-20,1,,,,,グロバリス,0
676,4010003048478,新規,0,2025-08-20,2025-08-20,合同会社ＳＣ００７,,合同会社,東京都,千代田区,平河町１丁目６番１５号シルスフィア会計事務所内,,13,101,1020093,,,,,,,2025-08-20,1,,,,,エスシーゼロゼロナナ,0
677,4010101016824,新規,0,2025-08-20,2025-08-20,つつじ株式会社,,株式会社,東京都,八王子市,大和田町３丁目１１番２８－５１３号,,13,201,1920045,,,,,,,2025-08-20,1,,,,,ツツジ,0
683,4010401192431,新規,0,2025-08-20,2025-08-20,株式会社ｉＱ　Ｌａｂ,,株式会社,東京都,港区,西新橋２丁目３３番４－５０２号,,13,103,1050003,,,,,,,2025-08-20,1,,,,,アイキューラボ,0
684,4010401192480,新規,0,2025-08-20,2025-08-20,株式会社Ｒｅｇｉｖｉｅ,,株式会社,東京都,港区,浜松町２丁目２番１５号浜松町ダイヤビル２Ｆ,,13,103,1050013,,,,,,,2025-08-20,1,,,,,レジヴィ,0
685,4010401192489,新規,0,2025-08-20,2025-08-20,ＦＯＲＣＥ株式会社,,株式会社,東京都,港区,六本木４丁目９番２－７０４号,,13,103,1060032,,,,,,,2025-08-20,1,,,,,フォース,0
686,4010403035811,新規,0,2025-08-20,2025-08-20,ネクストゲートシティ合同会社,,合同会社,東京都,港区,北青山１丁目３番１号アールキューブ青山３階,,13,103,1070061,,,,,,,2025-08-20,1,,,,,ネクストゲートシティ,0
687,4010405024663,新規,0,2025-08-20,2025-08-20,東新宿ホールディング２一般社団法人,,その他の設立登記法人,東京都,港区,虎ノ門３丁目２２番１０－２０１号,,13,103,1050001,,,,,,,2025-08-20,1,,,,,ヒガシシンジュクホールディングツー,0
690,4010601067805,新規,0,2025-08-20,2025-08-20,株式会社アスフード,,株式会社,東京都,江東区,青海２丁目７番４号ｔｈｅＳＯＨＯ６１０,,13,108,1350064,,,,,,,2025-08-20,1,,,,,アスフード,0
691,4010601067821,新規,0,2025-08-20,2025-08-20,ｃｏｎａｒｕｍ　Ｊａｐａｎ株式会社,,株式会社,東京都,江東区,有明３丁目７番２６号有明フロンティアビルＢ棟９階,,13,108,1350063,,,,,,,2025-08-20,1,,,,,コナルムジャパン,0
692,4010603011752,新規,0,2025-08-20,2025-08-20,合同会社オホスベラーノ,,合同会社,東京都,墨田区,墨田３丁目２６番１４号,,13,107,1310031,,,,,,,2025-08-20,1,,,,,オホスベラーノ,0
695,4010701048110,新規,0,2025-08-20,2025-08-20,株式会社おとさり,,株式会社,東京都,品川区,上大崎３丁目１４番１号中丸ハウスＢ棟,,13,109,1410021,,,,,,,2025-08-20,1,,,,,オトサリ,0
696,4010703007873,新規,0,2025-08-20,2025-08-20,合同会社ＮＯＰＰＯ　ＤＥＳＩＧＮ　ＢＡＳＥ,,合同会社,東京都,品川区,中延１丁目１番２０号,,13,109,1420053,,,,,,,2025-08-20,1,,,,,ノッポデザインベース,0
703,4011001171395,新規,0,2025-08-20,2025-08-20,株式会社ＭＩＮＭＩＮ,,株式会社,東京都,渋谷区,東１丁目２６ー３２ブロード南青ホームズ１０１,,13,113,1500011,,,,,,,2025-08-20,1,,,,,ミンミン,0
704,4011001171412,新規,0,2025-08-20,2025-08-20,株式会社ＦｏｏｄＣｏｎｎｅＸｔｉｏｎ,,株式会社,東京都,渋谷区,道玄坂１丁目１０－８渋谷道玄坂東急ビル,,13,113,1500043,,,,,,,2025-08-20,1,,,,,フードコネクション,0
705,4011001171981,新規,0,2025-08-20,2025-08-20,Ｄｏｎｕｔｓ　Ｏ株式会社,,株式会社,東京都,渋谷区,円山町５番３号ＭＩＥＵＸ渋谷ビル８階,,13,113,1500044,,,,,,,2025-08-20,1,,,,,ドーナツオー,0
707,4011103016218,新規,0,2025-08-20,2025-08-20,ＣＳ岩手矢巾町ＥＳＳ合同会社,,合同会社,東京都,新宿区,西新宿２丁目１番１号新宿三井ビル４３階,,13,104,1600023,,,,,,,2025-08-20,1,,,,,シーエスイワテヤハバチョウイーエスエス,0
711,4012301014509,新規,0,2025-08-20,2025-08-20,株式会社Ｆｉｎｅ　ＨＲ,,株式会社,東京都,町田市,三輪緑山４丁目６番地１２,,13,209,1950055,,,,,,,2025-08-20,1,,,,,ファインエイチアール,0
720,4020001164441,新規,0,2025-08-20,2025-08-20,株式会社Ｐｌｕｍｅ,,株式会社,神奈川県,横浜市神奈川区,三枚町５８６番地１７ガーデンヒルズＣ－１０２号,,14,102,2210862,,,,,,,2025-08-20,1,,,,,プリュム,0
723,4021001086056,新規,0,2025-08-20,2025-08-20,株式会社Ｃａｔａｌｙｓｔ　Ｂａｙ,,株式会社,神奈川県,藤沢市,鵠沼松が岡１丁目６番２３号,,14,205,2510038,,,,,,,2025-08-20,1,,,,,カタリストベイ,0
724,4021001086072,新規,0,2025-08-20,2025-08-20,株式会社Ａｉｌｅ,,株式会社,神奈川県,平塚市,真田３丁目１９番１０号,,14,203,2591206,,,,,,,2025-08-20,1,,,,,エール,0
736,4040001140093,新規,0,2025-08-20,2025-08-20,株式会社ねこ,,株式会社,千葉県,松戸市,本町１７番地の１１芹澤ビル６Ｆ,,12,207,2710091,,,,,,,2025-08-20,1,,,,,ネコ,0
737,4040001140192,新規,0,2025-08-20,2025-08-20,株式会社ハクモーターズ,,株式会社,千葉県,松戸市,五香６丁目１８番５号,,12,207,2702213,,,,,,,2025-08-20,1,,,,,ハクモーターズ,0
740,4040003028304,新規,0,2025-08-20,2025-08-20,合同会社一進,,合同会社,千葉県,四街道市,鹿放ケ丘３１６－１２,,12,228,2840008,,,,,,,2025-08-20,1,,,,,イッシン,0
750,4050001057114,新規,0,2025-08-20,2025-08-20,株式会社ＯｒｉＳｔａｒ,,株式会社,茨城県,稲敷郡阿見町,大字若栗１３０７番地－２１－４号室,,08,443,3000333,,,,,,,2025-08-20,1,,,,,オリスター,0
751,4050001057122,新規,0,2025-08-20,2025-08-20,ＲＫ株式会社,,株式会社,茨城県,取手市,稲１４４３番地１,,08,217,3020026,,,,,,,2025-08-20,1,,,,,アールケー,0
752,4050001057139,新規,0,2025-08-20,2025-08-20,碧株式会社,,株式会社,茨城県,稲敷郡阿見町,うずら野１丁目３７番地１７,,08,443,3000341,,,,,,,2025-08-20,1,,,,,アオ,0
755,4050003009501,新規,0,2025-08-20,2025-08-20,合同会社ｓｉｏｎ,,合同会社,茨城県,笠間市,稲田１７１０番地３,,08,216,3091635,,,,,,,2025-08-20,1,,,,,シオン,0
761,4080401028117,新規,0,2025-08-20,2025-08-20,株式会社Ｌｅａｆ,,株式会社,静岡県,浜松市中央区,有玉南町１８６７－１,,22,138,4313122,,,,,,,2025-08-20,1,,,,,リーフ,0
763,4090001019465,新規,0,2025-08-20,2025-08-20,豊吉商事株式会社,,株式会社,山梨県,甲府市,富竹２丁目２番３号１０２,,19,201,4000049,,,,,,,2025-08-20,1,,,,,トヨヨシショウジ,0
764,4100001038884,新規,0,2025-08-20,2025-08-20,ＮＩ‐ＰＲＯＤＵＣＴ株式会社,,株式会社,長野県,上伊那郡箕輪町,大字中箕輪８８７５番地５,,20,383,3994601,,,,,,,2025-08-20,1,,,,,エヌアイプロダクト,0
781,4120001278768,新規,0,2025-08-20,2025-08-20,ＣＯＧＮＩＮＯＶＡ株式会社,,株式会社,大阪府,大阪市天王寺区,伶人町２－３１ＳｔａｒＯｆｆｉｃｅ大阪天王寺北６０７号室,,27,109,5430061,,,,,,,2025-08-20,1,,,,,コグニノバ,0
782,4120001278818,新規,0,2025-08-20,2025-08-20,Ｍｉｒａｂｅｌｉａ　Ｉｎｆｉｎｉｔｙ　Ｇｒｏｕｐ株式会社,,株式会社,大阪府,大阪市阿倍野区,阿倍野筋１丁目１番４３号あべのハルカス３１階,,27,119,5450052,,,,,,,2025-08-20,1,,,,,ミラベリアインフィニティグループ,0
783,4120001278917,新規,0,2025-08-20,2025-08-20,秒思株式会社,,株式会社,大阪府,大阪市住之江区,御崎５丁目１５番１号－３０１号室,,27,125,5590013,,,,,,,2025-08-20,1,,,,,ビョウシ,0
784,4120001279023,新規,0,2025-08-20,2025-08-20,金菱国際株式会社,,株式会社,大阪府,大阪市北区,菅栄町１０番４－３０１号,,27,127,5300031,,,,,,,2025-08-20,1,,,,,キンリョウコクサイ,0
786,4120003030243,新規,0,2025-08-20,2025-08-20,合同会社中和,,合同会社,大阪府,大阪市東成区,大今里１丁目３１－１２アクセル今里１０２号室,,27,115,5370012,,,,,,,2025-08-20,1,,,,,チュウワ,0
787,4120003030350,新規,0,2025-08-20,2025-08-20,三色合同会社,,合同会社,大阪府,大阪市東住吉区,公園南矢田３丁目１７－２５Ｈｏｂｂｉｅｚ公園南ＩＶ１５号,00140363,27,121,5460024,,,,,,,2025-08-20,1,,,,,サンショク,0
788,4120003030367,新規,0,2025-08-20,2025-08-20,合同会社ＭＰ,,合同会社,大阪府,大阪市西成区,萩之茶屋３丁目６－９ハイツえなみＩＩＡ号室,00140364,27,122,5570004,,,,,,,2025-08-20,1,,,,,エムピー,0
805,4130001080322,新規,0,2025-08-20,2025-08-20,晴章建設株式会社,,株式会社,京都府,長岡京市,長岡３丁目１５番２０号,,26,209,6170823,,,,,,,2025-08-20,1,,,,,セイショウケンセツ,0
808,4140001139720,新規,0,2025-08-20,2025-08-20,Ｎｄｅｘ株式会社,,株式会社,兵庫県,淡路市,岩屋２８９６番地１６,,28,226,6562401,,,,,,,2025-08-20,1,,,,,エヌデックス,0
809,4140001139745,新規,0,2025-08-20,2025-08-20,株式会社開星,,株式会社,兵庫県,明石市,大久保町八木５５６番地,,28,203,6740063,,,,,,,2025-08-20,1,,,,,カイセイ,0
819,4180001168229,新規,0,2025-08-20,2025-08-20,株式会社Ｂｉｌｌｉｏｎ　ＬＩＶＥ,,株式会社,愛知県,名古屋市南区,本星崎町字宮浦５６０番地の３,,23,112,4570056,,,,,,,2025-08-20,1,,,,,ビリリオンライブ,0
820,4180001168237,新規,0,2025-08-20,2025-08-20,森株式会社,,株式会社,愛知県,尾張旭市,東栄町２丁目９番地４オレンジ水野３－Ｃ,,23,226,4880011,,,,,,,2025-08-20,1,,,,,モリ,0
821,4180001168253,新規,0,2025-08-20,2025-08-20,ＳＯＲＡ　ＵＮＤＥＲ　ＷＯＯＤ株式会社,,株式会社,愛知県,長久手市,岩作色金２６番地１,,23,238,4801103,,,,,,,2025-08-20,1,,,,,ソラアンダーウッド,0
822,4180001168278,新規,0,2025-08-20,2025-08-20,株式会社トライモア,,株式会社,愛知県,名古屋市千種区,春岡１丁目４番８号ＥＳＳＥ池下９階,,23,101,4640848,,,,,,,2025-08-20,1,,,,,トライモア,0
823,4180001168286,新規,0,2025-08-20,2025-08-20,めとて株式会社,,株式会社,愛知県,名古屋市名東区,扇町３丁目４番地の１,,23,115,4650076,,,,,,,2025-08-20,1,,,,,メトテ,0
826,4180003028892,新規,0,2025-08-20,2025-08-20,合同会社たけや,,合同会社,愛知県,名古屋市中村区,名駅５丁目１６番１７号,,23,105,4500002,,,,,,,2025-08-20,1,,,,,タケヤ,0
836,4210003001945,新規,0,2025-08-20,2025-08-20,若狭あぐりマシンサポートサービス合同会社,,合同会社,福井県,小浜市,阿納尻第１７号１４番地,,18,204,9170106,,,,,,,2025-08-20,1,,,,,ワカサアグリマシンサポートサービス,0
847,4260001040461,新規,0,2025-08-20,2025-08-20,株式会社ＫＵプランニング,,株式会社,岡山県,津山市,宮脇町７番地２,,33,203,7080047,,,,,,,2025-08-20,1,,,,,ケイユープランニング,0
852,4290001111128,新規,0,2025-08-20,2025-08-20,株式会社Ｒｅｎｏｖｏ,,株式会社,福岡県,福岡市東区,香椎２丁目３３番６号,,40,131,8130011,,,,,,,2025-08-20,1,,,,,レノボ,0
853,4290001111144,新規,0,2025-08-20,2025-08-20,ａｍｉ株式会社,,株式会社,福岡県,福岡市中央区,長浜２丁目２番８－１４０８号,,40,133,8100072,,,,,,,2025-08-20,1,,,,,アミ,0
854,4290001111177,新規,0,2025-08-20,2025-08-20,株式会社クリーンネット,,株式会社,福岡県,福岡市博多区,那珂５丁目７番２９－２０４号,00140362,40,132,8120893,,,,,,,2025-08-20,1,,,,,クリーンネット,0
855,4290001111185,新規,0,2025-08-20,2025-08-20,株式会社シトレ,,株式会社,福岡県,福岡市中央区,長浜２丁目２番２６－２０６号,,40,133,8100072,,,,,,,2025-08-20,1,,,,,シトレ,0
856,4290001111193,新規,0,2025-08-20,2025-08-20,株式会社ヘルシーアップ,,株式会社,福岡県,福岡市中央区,天神４丁目６－２８いちご天神ノースビル７階,,40,133,8100001,,,,,,,2025-08-20,1,,,,,ヘルシーアップ,0
858,4290003017190,新規,0,2025-08-20,2025-08-20,澤山勝合同会社,,合同会社,福岡県,福岡市中央区,平尾１丁目１１番６号３階,,40,133,8100014,,,,,,,2025-08-20,1,,,,,サワヤママサル,0
862,4320003004747,新規,0,2025-08-20,2025-08-20,合同会社ボーテ,,合同会社,大分県,大分市,下郡山の手７番２０号グランシャリオＤ２０１,,44,201,8700961,,,,,,,2025-08-20,1,,,,,ボーテ,0
864,4330001033508,新規,0,2025-08-20,2025-08-20,拓彩ファーム株式会社,,株式会社,熊本県,熊本市南区,海路口町２８番地,,43,104,8614124,,,,,,,2025-08-20,1,,,,,タクサイファーム,0
865,4340001027582,新規,0,2025-08-20,2025-08-20,株式会社スナオ・スローデザイン,,株式会社,鹿児島県,鹿児島市,易居町９－１３Ｈ＆Ｉビル２０１,,46,201,8920815,,,,,,,2025-08-20,1,,,,,スナオスローデザイン,0
879,4360003015179,新規,0,2025-08-20,2025-08-20,合同会社ＩＲＯ,,合同会社,沖縄県,糸満市,字福地４９４番地の４,,47,210,9010345,,,,,,,2025-08-20,1,,,,,イロ,0
883,4370003007258,新規,0,2025-08-20,2025-08-20,合同会社ＢＷＶ,,合同会社,宮城県,仙台市太白区,向山２丁目２‐１２‐５０１,,04,104,9820841,,,,,,,2025-08-20,1,,,,,ビーダブリューブイ,0
888,4410003004143,新規,0,2025-08-20,2025-08-20,合同会社トッププロジェクト,,合同会社,秋田県,秋田市,東通３丁目１１番１３号グランメール２０２,,05,201,0100003,,,,,,,2025-08-20,1,,,,,,0
891,4430001095034,新規,0,2025-08-20,2025-08-20,株式会社フロンティア,,株式会社,北海道,札幌市中央区,南六条西６丁目７番地１,,01,101,0640806,,,,,,,2025-08-20,1,,,,,フロンティア,0
892,4430001095075,新規,0,2025-08-20,2025-08-20,株式会社北建,,株式会社,北海道,美唄市,東四条南５丁目１１番７号,,01,215,0720015,,,,,,,2025-08-20,1,,,,,ホッケン,0
893,4430003017985,新規,0,2025-08-20,2025-08-20,合同会社ＭＯＲＩＭＩＣＨＩ　ＳＨＯＴＥＮ,,合同会社,北海道,苫小牧市,有明町２丁目８番２８号,,01,213,0530812,,,,,,,2025-08-20,1,,,,,モリミチショテン,0
894,4430003017993,新規,0,2025-08-20,2025-08-20,合同会社燈花,,合同会社,北海道,札幌市中央区,南五条西２丁目２番地２サイバーシティビル１２階,,01,101,0640805,,,,,,,2025-08-20,1,,,,,トウカ,0
898,4470001020863,新規,0,2025-08-20,2025-08-20,株式会社ＭＵＧＵＥＴ,,株式会社,香川県,坂出市,加茂町１０４２番地２,,37,203,7620023,,,,,,,2025-08-20,1,,,,,ミュゲ,0
908,5010001257468,新規,0,2025-08-20,2025-08-20,株式会社府中エナジー,,株式会社,東京都,中央区,銀座１丁目１４番７号,,13,102,1040061,,,,,,,2025-08-20,1,,,,,フチュウエナジー,0
909,5010001257749,新規,0,2025-08-20,2025-08-20,株式会社Ｒｉｎｅｓｔｉａ,,株式会社,東京都,千代田区,神田練塀町３番地ベルファース秋葉原１８０７号,,13,101,1010022,,,,,,,2025-08-20,1,,,,,ライネスティア,0
910,5010001257807,新規,0,2025-08-20,2025-08-20,株式会社Ｎｅｘｖｉａ,,株式会社,東京都,中央区,銀座１丁目１２番４号Ｎ＆ＥＢＬＤ．６Ｆ,,13,102,1040061,,,,,,,2025-08-20,1,,,,,ネクスヴィア,0
916,5010401192496,新規,0,2025-08-20,2025-08-20,株式会社Ｂｅｌｌｅａ,,株式会社,東京都,港区,南青山２丁目５番１７号,,13,103,1070062,,,,,,,2025-08-20,1,,,,,ベレア,0
917,5010405024662,新規,0,2025-08-20,2025-08-20,東新宿ホールディング１一般社団法人,,その他の設立登記法人,東京都,港区,虎ノ門３丁目２２番１０－２０１号,,13,103,1050001,,,,,,,2025-08-20,1,,,,,ヒガシシンジュクホールディングワン,0
919,5010501054547,新規,0,2025-08-20,2025-08-20,株式会社ルフェイス,,株式会社,東京都,台東区,東上野２丁目１４番１号マルコーセンタービル７階,,13,106,1100015,,,,,,,2025-08-20,1,,,,,ルフェイス,0
923,5010701048191,新規,0,2025-08-20,2025-08-20,株式会社０,,株式会社,東京都,品川区,東五反田１丁目３番１０号１Ｆ,,13,109,1410022,,,,,,,2025-08-20,1,,,,,ゼロ,0
925,5010703007872,新規,0,2025-08-20,2025-08-20,フォッサシステムズ日本合同会社,,合同会社,東京都,品川区,西五反田１丁目２６番２号五反田サンハイツビル２階,,13,109,1410031,,,,,,,2025-08-20,1,,,,,フォッサシステムズニホン,0
937,5011001171394,新規,0,2025-08-20,2025-08-20,株式会社ＴｈｉｎｋＤｏｇ,,株式会社,東京都,渋谷区,道玄坂１丁目１０番８号渋谷道玄坂東急ビル２Ｆ－Ｃ,,13,113,1500043,,,,,,,2025-08-20,1,,,,,シンクドッグ,0
938,5011001171502,新規,0,2025-08-20,2025-08-20,株式会社ＵＳＨＩＯ．,,株式会社,東京都,渋谷区,神宮前１丁目２番２号,,13,113,1500001,,,,,,,2025-08-20,1,,,,,ウシオ,0
939,5011001171510,新規,0,2025-08-20,2025-08-20,ＴＡＩＲＩＳＥ株式会社,,株式会社,東京都,渋谷区,道玄坂１丁目１０番８号渋谷道玄坂東急ビル２Ｆ－Ｃ,,13,113,1500043,,,,,,,2025-08-20,1,,,,,タイリス,0
940,5011001171725,新規,0,2025-08-20,2025-08-20,株式会社Ｒｅｌｉｅｆ,,株式会社,東京都,渋谷区,神宮前４丁目４番１１号わかば表参道３Ｆ,,13,113,1500001,,,,,,,2025-08-20,1,,,,,リリーフ,0
941,5011003022158,新規,0,2025-08-20,2025-08-20,合同会社ＣＲＡＹＯＮ,,合同会社,東京都,渋谷区,道玄坂１丁目１０番８号渋谷道玄坂東急ビル２Ｆ－Ｃ,,13,113,1500043,,,,,,,2025-08-20,1,,,,,クレヨン,0
942,5011003022224,新規,0,2025-08-20,2025-08-20,ＡＩＫ合同会社,,合同会社,東京都,渋谷区,道玄坂１丁目１０番８号渋谷道玄坂東急ビル２Ｆ－Ｃ,,13,113,1500043,,,,,,,2025-08-20,1,,,,,エーアイケー,0
950,5011103016217,新規,0,2025-08-20,2025-08-20,ＣＳ北海道西春別ＥＳＳ合同会社,,合同会社,東京都,新宿区,西新宿２丁目１番１号新宿三井ビル４３階,,13,104,1600023,,,,,,,2025-08-20,1,,,,,シーエスホッカイドウニシシュンベツイーエスエス,0
956,5011801046622,新規,0,2025-08-20,2025-08-20,株式会社Ｒｅｒｉｓｅ,,株式会社,東京都,足立区,千住１丁目２４番７号石鍋ビル３０１号,,13,121,1200034,,,,,,,2025-08-20,1,,,,,リライズ,0
958,5012301014499,新規,0,2025-08-20,2025-08-20,株式会社ケーズフィールド,,株式会社,東京都,町田市,忠生４丁目１１番地８,,13,209,1940035,,,,,,,2025-08-20,1,,,,,ケーズフィールド,0
963,5012803003826,新規,0,2025-08-20,2025-08-20,合同会社イエスキリスト,,合同会社,東京都,東大和市,立野２丁目１６番地の１１－４階,,13,220,2070021,,,,,,,2025-08-20,1,,,,,イエスキリスト,0
967,5020001164440,新規,0,2025-08-20,2025-08-20,Ｒｉｔｚ株式会社,,株式会社,神奈川県,横浜市西区,浅間町１丁目４番３ウィザード,,14,103,2200072,,,,,,,2025-08-20,1,,,,,リッツ,0
968,5020003029138,新規,0,2025-08-20,2025-08-20,ＳＴＹＬソリューションズ・ジャパン合同会社,,合同会社,神奈川県,横浜市港北区,新横浜２丁目５－１４ＷＩＳＥＮＥＸＴ新横浜３階,,14,109,2220033,,,,,,,2025-08-20,1,,,,,エスティワイエルソリューションズジャパン,0
970,5021001086138,新規,0,2025-08-20,2025-08-20,株式会社ＩＨＫ,,株式会社,神奈川県,藤沢市,本鵠沼１丁目１３番３０号,,14,205,2510028,,,,,,,2025-08-20,1,,,,,アイエイチケイ,0
976,5030001168242,新規,0,2025-08-20,2025-08-20,株式会社漆原電機,,株式会社,埼玉県,春日部市,一ノ割１０８３番地７,,11,214,3440031,,,,,,,2025-08-20,1,,,,,ウルシハラデンキ,0
977,5030001168267,新規,0,2025-08-20,2025-08-20,株式会社耕乃彩,,株式会社,埼玉県,朝霞市,溝沼４丁目１番５５号,,11,227,3510023,,,,,,,2025-08-20,1,,,,,コウノイロ,0
986,5040001140076,新規,0,2025-08-20,2025-08-20,小林株式会社,,株式会社,千葉県,八千代市,八千代台北４丁目１番１４号ナカイ第一ビル４０２号室,,12,221,2760031,,,,,,,2025-08-20,1,,,,,コバヤシ,0
987,5040001140092,新規,0,2025-08-20,2025-08-20,康和福株式会社,,株式会社,千葉県,松戸市,岩瀬２２０番地の７,,12,207,2710076,,,,,,,2025-08-20,1,,,,,コウワフク,0
988,5040001140126,新規,0,2025-08-20,2025-08-20,株式会社咲月,,株式会社,千葉県,四街道市,鹿放ケ丘１１１番地１,,12,228,2840008,,,,,,,2025-08-20,1,,,,,サツキ,0
990,5040003028278,新規,0,2025-08-20,2025-08-20,ゼロ・エージェンシー合同会社,,合同会社,千葉県,柏市,柏３丁目６番１４号増谷第一ビル１Ｆ,,12,217,2770005,,,,,,,2025-08-20,1,,,,,ゼロエージェンシー,0
991,5040003028352,新規,0,2025-08-20,2025-08-20,ＢＳＲ　ＢｉｓＭｉｌｌａｈ合同会社,,合同会社,千葉県,匝瑳市,野手１２０２－４,,12,235,2893181,,,,,,,2025-08-20,1,,,,,ビーエスアールビスミッラー,0
995,5050001057096,新規,0,2025-08-20,2025-08-20,株式会社ＣＴ,,株式会社,茨城県,つくばみらい市,上島２７０番地,,08,235,3002326,,,,,,,2025-08-20,1,,,,,シーティー,0
996,5050001057113,新規,0,2025-08-20,2025-08-20,株式会社ビオトープソリューション,,株式会社,茨城県,つくば市,谷田部６５５６番地１,,08,220,3050861,,,,,,,2025-08-20,1,,,,,ビオトープソリューション,0
1010,5080103003400,新規,0,2025-08-20,2025-08-20,合同会社ヤマテンボシ,,合同会社,静岡県,伊豆市,湯ケ島１１０６番地の２,,22,222,4103206,,,,,,,2025-08-20,1,,,,,ヤマテンボシ,0
1017,5100001038883,新規,0,2025-08-20,2025-08-20,ＲｅＮｅｗ株式会社,,株式会社,長野県,東御市,滋野乙２５１９番地１９,,20,219,3890512,,,,,,,2025-08-20,1,,,,,リニュー,0
1028,5120001278833,新規,0,2025-08-20,2025-08-20,株式会社ＥＮｉｎｇ,,株式会社,大阪府,大阪市福島区,野田３丁目４番１３－２０１号,,27,103,5530005,,,,,,,2025-08-20,1,,,,,イニング,0
1029,5120001278899,新規,0,2025-08-20,2025-08-20,＿之川株式会社,00140357,株式会社,大阪府,大阪市城東区,中浜３丁目２５番１５－４０５号,,27,118,5360024,,,,,,,2025-08-20,1,,,,,キンシセン,0
1030,5120001278916,新規,0,2025-08-20,2025-08-20,株式会社パペリ,,株式会社,大阪府,大阪市住吉区,長居１丁目９番１０号１０２,,27,120,5580003,,,,,,,2025-08-20,1,,,,,パペリ,0
1031,5120001278940,新規,0,2025-08-20,2025-08-20,Ｔｏｔａ　Ｈｏｍｅｓ株式会社,,株式会社,大阪府,大阪市此花区,春日出北３丁目９番４号３階,,27,104,5540021,,,,,,,2025-08-20,1,,,,,トタホームズ,0
1032,5120001278965,新規,0,2025-08-20,2025-08-20,音特尓株式会社,,株式会社,大阪府,大阪市中央区,難波１丁目９番１１号６Ｆ,,27,128,5420076,,,,,,,2025-08-20,1,,,,,オントクジ,0
1035,5120003030291,新規,0,2025-08-20,2025-08-20,バラ園合同会社,,合同会社,大阪府,大阪市東住吉区,山坂１丁目１２番２０号－３０１号室,,27,121,5460035,,,,,,,2025-08-20,1,,,,,バラエン,0
1036,5120003030341,新規,0,2025-08-20,2025-08-20,月和合同会社,,合同会社,大阪府,大阪市西成区,玉出東１丁目７番２３号１０４号室,,27,122,5570043,,,,,,,2025-08-20,1,,,,,ツキワ,0
1056,5130001080247,新規,0,2025-08-20,2025-08-20,株式会社ＲＯＣＫ　ＢＯＴＴＯＭ　ＣＲＥＡＴＩＯＮ,,株式会社,京都府,京都市下京区,綾材木町１９９番地ＳＡＫＩＺＯ堺町ビル４Ｆ,,26,106,6008072,,,,,,,2025-08-20,1,,,,,ロックボトムクリエーション,0
1057,5130001080305,新規,0,2025-08-20,2025-08-20,株式会社ＳＡＮＳＥＩパウロウニア・トメントサ,,株式会社,京都府,京都市下京区,中堂寺南町１３４番地ＫＲＰ２号館２階２０１号室,,26,106,6008813,,,,,,,2025-08-20,1,,,,,サンセイパウロウニアトメントサ,0
1066,5150003003690,新規,0,2025-08-20,2025-08-20,ネクストイノベーション合同会社,,合同会社,奈良県,奈良市,あやめ池南８丁目７番１４号,,29,201,6310033,,,,,,,2025-08-20,1,,,,,ネクストイノベーション,0
1069,5170001018763,新規,0,2025-08-20,2025-08-20,株式会社ＳＨＩＭＡ　ＡＲＣＨ　ＬＩＮＫＳ,,株式会社,和歌山県,和歌山市,黒田１８５－３ＫｅｙＳｉｔｅ５０７,,30,201,6408341,,,,,,,2025-08-20,1,,,,,シマアーチリンクス,0
1074,5180001168236,新規,0,2025-08-20,2025-08-20,株式会社Ｇｒｉｖａｎｃｅ,,株式会社,愛知県,名古屋市中区,栄１丁目３０番１５号荘苑御園３０１,,23,106,4600008,,,,,,,2025-08-20,1,,,,,グリヴァンス,0
1075,5180001168252,新規,0,2025-08-20,2025-08-20,株式会社ローボイス,,株式会社,愛知県,日進市,栄２丁目７０７パールシティー４０１,,23,230,4700113,,,,,,,2025-08-20,1,,,,,ローボイス,0
1076,5180001168269,新規,0,2025-08-20,2025-08-20,ベルツアセットマネジメント株式会社,,株式会社,愛知県,江南市,中奈良町熊野２３２,,23,217,4838256,,,,,,,2025-08-20,1,,,,,ベルツアセットマネジメント,0
1079,5180003028900,新規,0,2025-08-20,2025-08-20,合同会社ｎｉｋｏ　ｌａｂｏ,,合同会社,愛知県,知多市,八幡字里之前４０番地の１,,23,224,4780001,,,,,,,2025-08-20,1,,,,,ニコラボ,0
1087,5190005012067,新規,0,2025-08-20,2025-08-20,一般社団法人離島未来舎,,その他の設立登記法人,三重県,鳥羽市,答志町８２５－１５,,24,211,5170002,,,,,,,2025-08-20,1,,,,,リトウミライシャ,0
1093,5230001021050,新規,0,2025-08-20,2025-08-20,エムズスクエア株式会社,,株式会社,富山県,射水市,三ケ１５２５番地サンビスヤマトクビル５Ｆ,,16,211,9390341,,,,,,,2025-08-20,1,,,,,エムズスクエア,0
1112,5290001111151,新規,0,2025-08-20,2025-08-20,はじめ土地建物株式会社,,株式会社,福岡県,福岡市博多区,住吉４丁目２７番１６－７０１号,,40,132,8120018,,,,,,,2025-08-20,1,,,,,ハジメトチタテモノ,0
1113,5290003017280,新規,0,2025-08-20,2025-08-20,合同会社めぐりフーズ,,合同会社,福岡県,福岡市博多区,博多駅南５丁目７番２８号１０５,,40,132,8120016,,,,,,,2025-08-20,1,,,,,メグリフーズ,0
1114,5320003004746,新規,0,2025-08-20,2025-08-20,Ｓ．Ｉ合同会社,,合同会社,大分県,大分市,大字鶴崎１６３９番地の２,,44,201,8700106,,,,,,,2025-08-20,1,,,,,エスアイ,0
1115,5320005010255,新規,0,2025-08-20,2025-08-20,一般社団法人ベルリン竹田会,,その他の設立登記法人,大分県,竹田市,大字竹田町４９５番地３,,44,208,8780012,,,,,,,2025-08-20,1,,,,,ベルリンタケタカイ,0
1116,5330001033481,新規,0,2025-08-20,2025-08-20,株式会社オザキメンテ,,株式会社,熊本県,天草市,牛深町大池田１５１０番地,,43,215,8631901,,,,,,,2025-08-20,1,,,,,オザキメンテ,0
1117,5330001033507,新規,0,2025-08-20,2025-08-20,株式会社エムデザイン,,株式会社,熊本県,熊本市中央区,水前寺１丁目３２番１５－６０１号,,43,101,8620950,,,,,,,2025-08-20,1,,,,,エムデザイン,0
1125,5360003015178,新規,0,2025-08-20,2025-08-20,Ｋ＆Ｔコンサル合同会社,,合同会社,沖縄県,豊見城市,字与根１５２番地１０,,47,212,9010224,,,,,,,2025-08-20,1,,,,,ケイアンドティ,0
1126,5360003015186,新規,0,2025-08-20,2025-08-20,リバイヴ合同会社,,合同会社,沖縄県,糸満市,字武富１９５番地Ａ号ＴＲＹ武富３０４号室,,47,210,9010311,,,,,,,2025-08-20,1,,,,,リバイヴ,0
1131,5410003004142,新規,0,2025-08-20,2025-08-20,合同会社エニシア,,合同会社,秋田県,秋田市,飯島字長山下７２‐３５７,,05,201,0110911,,,,,,,2025-08-20,1,,,,,,0
1135,5430001095017,新規,0,2025-08-20,2025-08-20,株式会社ＮＯＭＯＡ,,株式会社,北海道,札幌市豊平区,平岸三条７丁目１番２７号平岸スクエアビル９１２号,,01,105,0620933,,,,,,,2025-08-20,1,,,,,ノモア,0
1139,5430003018000,新規,0,2025-08-20,2025-08-20,合同会社ＡＭＫ,,合同会社,北海道,小樽市,清水町１２－３,,01,203,0470045,,,,,,,2025-08-20,1,,,,,エーエムケー,0
1147,5500001026476,新規,0,2025-08-20,2025-08-20,ＣａｒｅＮｅｃｔ株式会社,,株式会社,愛媛県,四国中央市,三島宮川１丁目１０番４号グランドール伊予三島１２０３号,,38,213,7990404,,,,,,,2025-08-20,1,,,,,ケアネクト,0
1161,6010005040555,新規,0,2025-08-20,2025-08-20,一般社団法人ＳＣ００８,,その他の設立登記法人,東京都,千代田区,平河町１丁目６番１５号シルスフィア会計事務所内,,13,101,1020093,,,,,,,2025-08-20,1,,,,,エスシーゼロゼロハチ,0
1162,6010101008134,新規,0,2025-08-20,2025-08-20,イワタプランニング株式会社,,株式会社,東京都,八王子市,鑓水２丁目８３番地２－１３０４,00140293,13,201,1920375,,,,,,,2025-08-20,1,,,,,イワタプランニング,0
1165,6010401192479,新規,0,2025-08-20,2025-08-20,株式会社ゲートライン,,株式会社,東京都,港区,南麻布４丁目１１番３５－５２２号,,13,103,1060047,,,,,,,2025-08-20,1,,,,,ゲートライン,0
1167,6010405024661,新規,0,2025-08-20,2025-08-20,南二条ホールディング２一般社団法人,,その他の設立登記法人,東京都,港区,虎ノ門３丁目２２番１０－２０１号,,13,103,1050001,,,,,,,2025-08-20,1,,,,,ミナミニジョウホールディングツー,0
1171,6010601067828,新規,0,2025-08-20,2025-08-20,想創株式会社,,株式会社,東京都,墨田区,押上１丁目２４番１１－５０２号,,13,107,1310045,,,,,,,2025-08-20,1,,,,,ソウソウ,0
1172,6010701048174,新規,0,2025-08-20,2025-08-20,ＲＢＴＥＣロボット株式会社,,株式会社,東京都,品川区,豊町６丁目１１番９号２１３号室,,13,109,1420042,,,,,,,2025-08-20,1,,,,,ロボテックロボット,0
1183,6011001171435,新規,0,2025-08-20,2025-08-20,ａｒｔｒａｃｔ株式会社,,株式会社,東京都,渋谷区,恵比寿西２丁目８番４号ＥＸ恵比寿西ビル５階,,13,113,1500021,,,,,,,2025-08-20,1,,,,,アートラクト,0
1189,6011203004797,新規,0,2025-08-20,2025-08-20,合同会社小滝橋総合会計事務所,,合同会社,東京都,中野区,東中野５丁目２２番１４－１０７号,,13,114,1640003,,,,,,,2025-08-20,1,,,,,オタキバシソウゴウカイケイジムショ,0
1192,6011403004804,新規,0,2025-08-20,2025-08-20,合同会社栄和ソリューション,,合同会社,東京都,板橋区,赤塚２丁目１－１２下赤塚パンダビル２０４,,13,119,1750092,,,,,,,2025-08-20,1,,,,,エイワソリューション,0
1193,6011405002401,新規,0,2025-08-20,2025-08-20,一般社団法人日本風響協会,,その他の設立登記法人,東京都,板橋区,仲宿２５番７号,,13,119,1730005,,,,,,,2025-08-20,1,,,,,,0
1195,6011601028910,新規,0,2025-08-20,2025-08-20,株式会社ＮＯＡ,,株式会社,東京都,練馬区,上石神井４丁目２７番１２号ポルトベーロ２０１,,13,120,1770044,,,,,,,2025-08-20,1,,,,,ノア,0
1196,6011603004802,新規,0,2025-08-20,2025-08-20,Ｉ．Ｔ．Ｏ合同会社,,合同会社,東京都,練馬区,練馬１丁目２３番３－２０１号,,13,120,1760001,,,,,,,2025-08-20,1,,,,,アイティーオー,0
1198,6011701028637,新規,0,2025-08-20,2025-08-20,株式会社Ｕ＆Ｒ,,株式会社,東京都,江戸川区,平井５丁目５０番５号深野荘１０１,,13,123,1320035,,,,,,,2025-08-20,1,,,,,ユーアンドアール,0
1204,6012305002144,新規,0,2025-08-20,2025-08-20,一般社団法人ＭＡＣＨＩＤＡ　ＭＡＳＪＩＤ,,その他の設立登記法人,東京都,町田市,高ヶ坂３丁目１番２９号,,13,209,1940014,,,,,,,2025-08-20,1,,,,,マチダマスジド,0
1206,6012401043505,新規,0,2025-08-20,2025-08-20,株式会社リラッククナ,,株式会社,東京都,三鷹市,井の頭３丁目９番５号,,13,204,1810001,,,,,,,2025-08-20,1,,,,,リラッククナ,0
1214,6020001164423,新規,0,2025-08-20,2025-08-20,株式会社ＰｅａｋＣｏｒｅ,,株式会社,神奈川県,横浜市西区,北幸２丁目１０番４８号むつみビル３階,,14,103,2200004,,,,,,,2025-08-20,1,,,,,ピークコア,0
1217,6021001086070,新規,0,2025-08-20,2025-08-20,株式会社メリアファーマシー,,株式会社,神奈川県,藤沢市,辻堂５丁目２０番１６号,,14,205,2510047,,,,,,,2025-08-20,1,,,,,メリアファーマシー,0
1219,6021003016455,新規,0,2025-08-20,2025-08-20,合同会社ＳＫＣ,,合同会社,神奈川県,相模原市南区,上鶴間２丁目７番４５－２号,,14,153,2520302,,,,,,,2025-08-20,1,,,,,エスケーシー,0
1224,6030001168233,新規,0,2025-08-20,2025-08-20,株式会社Ｒｅ‐ａｃｔ,,株式会社,埼玉県,川口市,芝下２丁目１６番２０号,,11,203,3330848,,,,,,,2025-08-20,1,,,,,リアクト,0
1229,6040003028293,新規,0,2025-08-20,2025-08-20,ＤＹＤ合同会社,,合同会社,千葉県,富津市,前久保２５４番地４,,12,226,2930004,,,,,,,2025-08-20,1,,,,,ディワイディ,0
1230,6040003028302,新規,0,2025-08-20,2025-08-20,合同会社おかげさま,,合同会社,千葉県,船橋市,夏見台５丁目８番３号,,12,204,2730866,,,,,,,2025-08-20,1,,,,,オカゲサマ,0
1234,6050001057104,新規,0,2025-08-20,2025-08-20,株式会社Ｈｏｍｐｅｔソラ,,株式会社,茨城県,笠間市,平町字本町２０４９番地１,,08,216,3091722,,,,,,,2025-08-20,1,,,,,ホーンペットソラ,0
1235,6050001057120,新規,0,2025-08-20,2025-08-20,株式会社三笠,,株式会社,茨城県,水戸市,三の丸３丁目１１番１号,,08,201,3100011,,,,,,,2025-08-20,1,,,,,ミカサ,0
1236,6050001057137,新規,0,2025-08-20,2025-08-20,グリーンポンド株式会社,,株式会社,茨城県,つくば市,天久保３丁目１０番７号,,08,220,3050005,,,,,,,2025-08-20,1,,,,,グリーンポンド,0
1246,6080003003532,新規,0,2025-08-20,2025-08-20,合同会社ｍｏｍｉｊｉ,,合同会社,静岡県,藤枝市,岡出山３丁目４番８号,,22,214,4260026,,,,,,,2025-08-20,1,,,,,モミジ,0
1258,6120001278816,新規,0,2025-08-20,2025-08-20,株式会社ＩＳＳＯＫ,,株式会社,大阪府,大阪市淀川区,新北野１丁目３－４－７１５号,,27,123,5320025,,,,,,,2025-08-20,1,,,,,イッソク,0
1259,6120001278898,新規,0,2025-08-20,2025-08-20,ウインディ株式会社,,株式会社,大阪府,大阪市福島区,海老江２丁目１０番２２号アクティ福島１－Ｅ号室,,27,103,5530001,,,,,,,2025-08-20,1,,,,,ウインディ,0
1260,6120001278915,新規,0,2025-08-20,2025-08-20,株式会社ＴＯＩ,,株式会社,大阪府,大阪市中央区,南船場４丁目９番１４号第一丸米ビル３０２号,,27,128,5420081,,,,,,,2025-08-20,1,,,,,トイ,0
1261,6120001278964,新規,0,2025-08-20,2025-08-20,株式会社ｔｓｋ．ｃｏｒｐｏｒａｔｉｏｎ,,株式会社,大阪府,大阪市西成区,潮路１丁目６番２７－９０４号,,27,122,5570052,,,,,,,2025-08-20,1,,,,,ティーエスケーコーポレーション,0
1264,6120003030308,新規,0,2025-08-20,2025-08-20,富達建工合同会社,,合同会社,大阪府,大阪市西成区,玉出東１丁目７番２３号１０１号室,,27,122,5570043,,,,,,,2025-08-20,1,,,,,トミタツケンコウ,0
1265,6120003030332,新規,0,2025-08-20,2025-08-20,合同会社ウィズダムメディカルパートナーズ,,合同会社,大阪府,大阪市福島区,福島５丁目９－３－１１０５,,27,103,5530003,,,,,,,2025-08-20,1,,,,,ウィズダムメディカルパートナーズ,0
1266,6120003030340,新規,0,2025-08-20,2025-08-20,Ｈａｌｏｂａｎｄ合同会社,,合同会社,大阪府,大阪市中央区,南本町３丁目２番１１号日幸ビル６ＦＢ号室,,27,128,5410054,,,,,,,2025-08-20,1,,,,,ハロバンド,0
1267,6120003030357,新規,0,2025-08-20,2025-08-20,合同会社ケアステーションひより,,合同会社,大阪府,大阪市東住吉区,公園南矢田４丁目１５番２号ハイグレイド公園南２０３,,27,121,5460024,,,,,,,2025-08-20,1,,,,,ケアステーションヒヨリ,0
1273,6120101072301,新規,0,2025-08-20,2025-08-20,株式会社枡矢工業,,株式会社,大阪府,堺市南区,槇塚台２丁４番８号,,27,145,5900114,,,,,,,2025-08-20,1,,,,,マスヤコウギョウ,0
1275,6120901051330,新規,0,2025-08-20,2025-08-20,株式会社ルミナス,,株式会社,大阪府,吹田市,岸部南２丁目１９番１３号,,27,205,5640011,,,,,,,2025-08-20,1,,,,,ルミナス,0
1276,6120901051339,新規,0,2025-08-20,2025-08-20,株式会社キンカフードサービス,,株式会社,大阪府,吹田市,南金田２丁目１４番８号ルミエール江坂３０１,,27,205,5640044,,,,,,,2025-08-20,1,,,,,キンカフードサービス,0
1281,6122003003284,新規,0,2025-08-20,2025-08-20,合同会社ＹＲ,,合同会社,大阪府,東大阪市,小阪２丁目４番２８－１２０４号,,27,227,5770801,,,,,,,2025-08-20,1,,,,,ワイアール,0
1287,6140001139677,新規,0,2025-08-20,2025-08-20,株式会社Ｒｅｉ,,株式会社,兵庫県,西宮市,泉町１番１１号,,28,204,6620932,,,,,,,2025-08-20,1,,,,,レイ,0
1288,6140001139743,新規,0,2025-08-20,2025-08-20,株式会社世紀星,,株式会社,兵庫県,神戸市長田区,北町１丁目４９番地,,28,106,6530016,,,,,,,2025-08-20,1,,,,,セイキボシ,0
1294,6160005011434,新規,0,2025-08-20,2025-08-20,行政書士法人火災予防法務事務所,,その他の設立登記法人,滋賀県,東近江市,幸町１番４４－４５号,,25,213,5270031,,,,,,,2025-08-20,1,,,,,カサイヨボウホウムジムショ,0
1301,6180001168177,新規,0,2025-08-20,2025-08-20,株式会社ＬＥＶＥＬ,,株式会社,愛知県,清須市,阿原宮前２２６ＫＯＤＡＴＥＸＢ棟,,23,233,4520901,,,,,,,2025-08-20,1,,,,,レベル,0
1302,6180001168219,新規,0,2025-08-20,2025-08-20,丸重機設株式会社,,株式会社,愛知県,小牧市,城山１丁目６番地８－５０８号,,23,219,4850812,,,,,,,2025-08-20,1,,,,,マルジュウキセツ,0
1303,6180001168243,新規,0,2025-08-20,2025-08-20,株式会社喜愛工務店,,株式会社,愛知県,東海市,高横須賀町２丁目３６番地グリーンパーク公家（１０１号）,,23,222,4770037,,,,,,,2025-08-20,1,,,,,キアイコウムテン,0
1304,6180001168251,新規,0,2025-08-20,2025-08-20,株式会社Ｈｏｍｅ＆Ｍｏｒｅ,,株式会社,愛知県,知多市,八幡字新道５９番地の４２０,,23,224,4780001,,,,,,,2025-08-20,1,,,,,ホームアンドモア,0
1305,6180001168276,新規,0,2025-08-20,2025-08-20,株式会社タニ設備,,株式会社,愛知県,名古屋市緑区,大清水西８０２番地の１３,,23,114,4580806,,,,,,,2025-08-20,1,,,,,タニセツビ,0
1310,6180003028874,新規,0,2025-08-20,2025-08-20,ＨＡＬＬＡＬ　ＰＩＺＺＡ　ＩＮＮ合同会社,,合同会社,愛知県,小牧市,小牧１丁目５４２,,23,219,4850041,,,,,,,2025-08-20,1,,,,,ハラールピザイン,0
1311,6180003028899,新規,0,2025-08-20,2025-08-20,合同会社ＸＺＥＲＯ,,合同会社,愛知県,名古屋市中村区,名駅４丁目２４番５号第２森ビル４０１,,23,105,4500002,,,,,,,2025-08-20,1,,,,,エックスゼロ,0
1315,6200001044152,新規,0,2025-08-20,2025-08-20,株式会社天地,,株式会社,岐阜県,多治見市,北小木町３３２番地,,21,204,5070067,,,,,,,2025-08-20,1,,,,,アマツチ,0
1317,6220003004103,新規,0,2025-08-20,2025-08-20,合同会社エフェメラ,,合同会社,石川県,七尾市,松百町７部１０番地７,,17,202,9260841,,,,,,,2025-08-20,1,,,,,エフェメラ,0
1322,6240003007368,新規,0,2025-08-20,2025-08-20,合同会社ＢｉｏＴＲＵＳＴ,,合同会社,広島県,福山市,駅家町近田１２５－８号,,34,207,7210000,,,,,,,2025-08-20,1,,,,,バイオトラスト,0
1327,6280001009494,新規,0,2025-08-20,2025-08-20,株式会社まるっと,,株式会社,島根県,松江市,東出雲町下意東７３８番地１７,,32,201,6990102,,,,,,,2025-08-20,1,,,,,マルット,0
1331,6290001111092,新規,0,2025-08-20,2025-08-20,株式会社ｈｕｎｄｒｅｄ,,株式会社,福岡県,福岡市南区,塩原４丁目２２番２２－１０６号エステート・モア大橋ＩＩ,00140356,40,134,8150032,,,,,,,2025-08-20,1,,,,,ハンドレッド,0
1332,6290001111134,新規,0,2025-08-20,2025-08-20,株式会社ラッシュギア,,株式会社,福岡県,福岡市中央区,天神２丁目２番１２号Ｔ＆Ｊビルディング７階,,40,133,8100001,,,,,,,2025-08-20,1,,,,,ラッシュギア,0
1349,6400003003524,新規,0,2025-08-20,2025-08-20,合同会社リアライズ・コンサルティング,,合同会社,岩手県,盛岡市,東山１丁目２１番３４号シティコート平成Ａ１０１号,,03,201,0200813,,,,,,,2025-08-20,1,,,,,リアライズコンサルティング,0
1353,6430001095040,新規,0,2025-08-20,2025-08-20,株式会社國岡工業,,株式会社,北海道,室蘭市,八丁平５丁目２３番８号,,01,205,0500061,,,,,,,2025-08-20,1,,,,,クニオカコウギョウ,0
1355,6430005015275,新規,0,2025-08-20,2025-08-20,特定非営利活動法人ファザーリング・ジャパン北海道,,その他の設立登記法人,北海道,札幌市厚別区,青葉町７丁目９番１７号,,01,108,0040021,,,,,,,2025-08-20,1,,,,,ファザーリングジャパンホッカイドウ,0
1356,6430005015283,新規,0,2025-08-20,2025-08-20,社会保険労務士法人オフィスミキ,,その他の設立登記法人,北海道,札幌市北区,北三十二条西４丁目３番１２－１０１号,,01,102,0010032,,,,,,,2025-08-20,1,,,,,オフィスミキ,0
1359,6450001014709,新規,0,2025-08-20,2025-08-20,株式会社リトルソルト,,株式会社,北海道,旭川市,春光五条３丁目９番１７号,,01,204,0700875,,,,,,,2025-08-20,1,,,,,リトルソルト,0
1372,7010001257879,新規,0,2025-08-20,2025-08-20,ソラマインズ株式会社,,株式会社,東京都,千代田区,岩本町３丁目４番９号,,13,101,1010032,,,,,,,2025-08-20,1,,,,,ソラマインズ,0
1375,7010003048418,新規,0,2025-08-20,2025-08-20,合同会社エル,,合同会社,東京都,中央区,日本橋室町１丁目１１番１２号日本橋水野ビル７階,,13,102,1030022,,,,,,,2025-08-20,1,,,,,エル,0
1376,7010003048459,新規,0,2025-08-20,2025-08-20,合同会社鶴見港湾開発,,合同会社,東京都,中央区,日本橋１丁目４番１号日本橋一丁目ビルディング,,13,102,1030027,,,,,,,2025-08-20,1,,,,,ツルミコウワンカイハツ,0
1380,7010005040554,新規,0,2025-08-20,2025-08-20,一般社団法人ＳＣ００７,,その他の設立登記法人,東京都,千代田区,平河町１丁目６番１５号シルスフィア会計事務所内,,13,101,1020093,,,,,,,2025-08-20,1,,,,,エスシーゼロゼロナナ,0
1389,7010401192453,新規,0,2025-08-20,2025-08-20,Ｇ＆Ｉ株式会社,,株式会社,東京都,港区,東新橋２丁目１０番１０号,,13,103,1050021,,,,,,,2025-08-20,1,,,,,ジーアンドアイ,0
1392,7010403035759,新規,0,2025-08-20,2025-08-20,キングホーム合同会社,,合同会社,東京都,港区,芝浦４丁目１１－１６－９０４,,13,103,1080023,,,,,,,2025-08-20,1,,,,,キングホーム,0
1393,7010403035791,新規,0,2025-08-20,2025-08-20,合同会社まうんてん,,合同会社,東京都,港区,赤坂３丁目１９－１東京農村ビル４Ｆ,,13,103,1070052,,,,,,,2025-08-20,1,,,,,マウンテン,0
1394,7010403035809,新規,0,2025-08-20,2025-08-20,ＡｎｙＵｐ合同会社,,合同会社,東京都,港区,虎ノ門１丁目１番２１号,,13,103,1050001,,,,,,,2025-08-20,1,,,,,エニアップ,0
1395,7010403035817,新規,0,2025-08-20,2025-08-20,アップスパイラル合同会社,,合同会社,東京都,港区,高輪２丁目５－１０,,13,103,1080074,,,,,,,2025-08-20,1,,,,,アップスパイラル,0
1397,7010405024660,新規,0,2025-08-20,2025-08-20,南二条ホールディング１一般社団法人,,その他の設立登記法人,東京都,港区,虎ノ門３丁目２２番１０－２０１号,,13,103,1050001,,,,,,,2025-08-20,1,,,,,ミナミニジョウホールディングワン,0
1400,7010503007947,新規,0,2025-08-20,2025-08-20,ＥＭＩＲＡ　ＧＲＯＵＰ合同会社,,合同会社,東京都,台東区,上野２丁目１０番８号第５藤井ビルＢ１ＴｈｅＭｏｏｎ,,13,106,1100005,,,,,,,2025-08-20,1,,,,,エミラグループ,0
1401,7010601067793,新規,0,2025-08-20,2025-08-20,雅美インターナショナル株式会社,,株式会社,東京都,江東区,亀戸６丁目５７番２３－１４０７号,,13,108,1360071,,,,,,,2025-08-20,1,,,,,マサミインターナショナル,0
1404,7010701048181,新規,0,2025-08-20,2025-08-20,株式会社Ｈｉｔｏａｓ,,株式会社,東京都,品川区,大崎４丁目８番９号暁荘２０３,,13,109,1410032,,,,,,,2025-08-20,1,,,,,ヒトアス,0
1405,7010703007870,新規,0,2025-08-20,2025-08-20,合同会社プロセスアナリシス,,合同会社,東京都,品川区,東大井２丁目１３番１０－８０３号,,13,109,1400011,,,,,,,2025-08-20,1,,,,,プロセスアナリシス,0
1406,7010703007879,新規,0,2025-08-20,2025-08-20,Ｗｅｂｓｙ合同会社,,合同会社,東京都,品川区,戸越２丁目６番５号ハイツ北上２０２,,13,109,1420041,,,,,,,2025-08-20,1,,,,,ウェブシー,0
1422,7011001171541,新規,0,2025-08-20,2025-08-20,株式会社ＹＯＫＵＢＡＲＩ,,株式会社,東京都,渋谷区,渋谷２丁目２１－１渋谷ヒカリエ３３Ｆ,,13,113,1500002,,,,,,,2025-08-20,1,,,,,ヨクバリ,0
1423,7011001171640,新規,0,2025-08-20,2025-08-20,株式会社Ｋｅｙｓｔｏｎｅ　Ｐｒｉｍｅ　Ｐａｒｔｎｅｒｓ,,株式会社,東京都,渋谷区,神南１丁目２３－１４リージャス渋谷公園通りビル４階,,13,113,1500041,,,,,,,2025-08-20,1,,,,,キーストーンプライムパートナーズ,0
1425,7011005011116,新規,0,2025-08-20,2025-08-20,一般社団法人日本ミャンマー歯科医師衛生士協会,,その他の設立登記法人,東京都,渋谷区,円山町５番２号第二伊藤ビル,,13,113,1500044,,,,,,,2025-08-20,1,,,,,ニホンミャンマーシカイシエイセイシキョウカイ,0
1429,7011101112718,新規,0,2025-08-20,2025-08-20,株式会社ＡＤＡＰＵＴＯ,,株式会社,東京都,新宿区,西新宿３丁目３番１３号西新宿水間ビル２Ｆ,,13,104,1600023,,,,,,,2025-08-20,1,,,,,アダプト,0
1430,7011101112791,新規,0,2025-08-20,2025-08-20,株式会社アーナル,,株式会社,東京都,新宿区,西新宿３丁目３番１３号西新宿水間ビル２Ｆ,,13,104,1600023,,,,,,,2025-08-20,1,,,,,アーナル,0
1433,7011103016215,新規,0,2025-08-20,2025-08-20,合同会社バイヤーズクラブ,,合同会社,東京都,新宿区,余丁町６番１０号メゾンペリエ１０１,,13,104,1620055,,,,,,,2025-08-20,1,,,,,バイヤーズクラブ,0
1434,7011103016248,新規,0,2025-08-20,2025-08-20,合同会社ＴＯＹ企画,,合同会社,東京都,新宿区,高田馬場４丁目１８番１０－２０２号,,13,104,1690075,,,,,,,2025-08-20,1,,,,,トイキカク,0
1435,7011105011528,新規,0,2025-08-20,2025-08-20,一般社団法人明大バスケットボールマネジメント,,その他の設立登記法人,東京都,新宿区,北新宿２丁目６番９－６０２号,,13,104,1690074,,,,,,,2025-08-20,1,,,,,メイダイバスケットボールマネジメント,0
1436,7011203004796,新規,0,2025-08-20,2025-08-20,まるごと片付け合同会社,,合同会社,東京都,中野区,中央１丁目２７－２１、６０５,,13,114,1640011,,,,,,,2025-08-20,1,,,,,,0
1440,7011401027343,新規,0,2025-08-20,2025-08-20,株式会社プロンビエ,,株式会社,東京都,板橋区,桜川２丁目７番９号,,13,119,1740075,,,,,,,2025-08-20,1,,,,,プロンビエ,0
1446,7011501032458,新規,0,2025-08-20,2025-08-20,ＭＥＴＡ　ＬＩＦＥ株式会社,,株式会社,東京都,荒川区,東尾久５丁目７－１０－３０４トーア東尾久マンション,,13,118,1160012,,,,,,,2025-08-20,1,,,,,メタライフ,0
1449,7011603004801,新規,0,2025-08-20,2025-08-20,合同会社超新星,,合同会社,東京都,練馬区,桜台３丁目３２番２０号ピュア桜台１０６,,13,120,1760002,,,,,,,2025-08-20,1,,,,,チョウシンセイ,0
1451,7011803007026,新規,0,2025-08-20,2025-08-20,フライングペンギンネットワークス合同会社,,合同会社,東京都,葛飾区,西亀有１丁目２５番１８－６０１号コスモ西亀有,,13,122,1240002,,,,,,,2025-08-20,1,,,,,フライングペンギンネットワークス,0
1454,7012401043504,新規,0,2025-08-20,2025-08-20,フロム・ウェイスト株式会社,,株式会社,東京都,府中市,浅間町３丁目６番地の１６,,13,206,1830001,,,,,,,2025-08-20,1,,,,,フロムウェイスト,0
1460,7020001164257,新規,0,2025-08-20,2025-08-20,株式会社ＳＯＵＧＯＵ,,株式会社,神奈川県,横浜市青葉区,市ケ尾町１１６１－１４－３Ｆ－Ａ２,,14,117,2250024,,,,,,,2025-08-20,1,,,,,ソウゴウ,0
1461,7020001164265,新規,0,2025-08-20,2025-08-20,株式会社ユニモス,,株式会社,神奈川県,横浜市旭区,若葉台２丁目１９番５０１号,,14,112,2410801,,,,,,,2025-08-20,1,,,,,ユニモス,0
1463,7020003029029,新規,0,2025-08-20,2025-08-20,合同会社Ｔｒａｄｉｃｏ,,合同会社,神奈川県,横浜市西区,北幸２丁目１０番４８号むつみビル３階,,14,103,2200004,,,,,,,2025-08-20,1,,,,,トラディコ,0
1464,7020003029160,新規,0,2025-08-20,2025-08-20,合同会社Ｈａｒｂｉｎｇｅｒ,,合同会社,神奈川県,川崎市中原区,下小田中１丁目７番８－１０６号ウェストマンション,,14,133,2110041,,,,,,,2025-08-20,1,,,,,ハービンジャー,0
1477,7030001168249,新規,0,2025-08-20,2025-08-20,ＩＮＧＬＯＢＡＬ株式会社,,株式会社,埼玉県,熊谷市,上之２１５６－５コーエー上之ビル２０２,,11,202,3600012,,,,,,,2025-08-20,1,,,,,イングローバル,0
1483,7030005022245,新規,0,2025-08-20,2025-08-20,一般社団法人ステップ,,その他の設立登記法人,埼玉県,富士見市,ふじみ野西２丁目１番地１アイムふじみ野タワー東館２４０８,,11,235,3540035,,,,,,,2025-08-20,1,,,,,ステップ,0
1484,7040001140124,新規,0,2025-08-20,2025-08-20,株式会社ＹｏｕＧ,,株式会社,千葉県,千葉市若葉区,桜木８丁目５番１３号,,12,104,2640028,,,,,,,2025-08-20,1,,,,,ユーグ,0
1487,7050001057128,新規,0,2025-08-20,2025-08-20,株式会社コクフダ,,株式会社,茨城県,結城郡八千代町,大字蕗田５３３番地,,08,521,3003553,,,,,,,2025-08-20,1,,,,,コクフダ,0
1488,7050001057136,新規,0,2025-08-20,2025-08-20,Ｓ．Ｈ．Ｒオートトレーディング株式会社,,株式会社,茨城県,小美玉市,西郷地１２２７番地,,08,236,3190102,,,,,,,2025-08-20,1,,,,,エスエイッチアルオートトレーディング,0
1494,7050003009507,新規,0,2025-08-20,2025-08-20,合同会社Ｏｃｅａｎ　Ｂｅａｔ,,合同会社,茨城県,北茨城市,中郷町汐見ケ丘６丁目１２５８番地の１３１,,08,215,3191553,,,,,,,2025-08-20,1,,,,,オーシャンビート,0
1509,7090005007728,新規,0,2025-08-20,2025-08-20,一般社団法人プラブ国際研究所,,その他の設立登記法人,山梨県,北杜市,大泉町西井出８２４０－７０６４,,19,209,4091501,,,,,,,2025-08-20,1,,,,,プラブコクサイケンキュウジョ,0
1532,7120001278947,新規,0,2025-08-20,2025-08-20,翔隆株式会社,,株式会社,大阪府,大阪市阿倍野区,松虫通１丁目３番１１号プレアール松虫２０５号,,27,119,5450043,,,,,,,2025-08-20,1,,,,,ショウリュウ,0
1533,7120001278955,新規,0,2025-08-20,2025-08-20,羽田工業株式会社,,株式会社,大阪府,門真市,三ツ島５丁目４番２０－３０１号,,27,223,5710015,,,,,,,2025-08-20,1,,,,,ハネダコウギョウ,0
1534,7120001279037,新規,0,2025-08-20,2025-08-20,株式会社ＴＲＵＳＴＥＬＬＡ,,株式会社,大阪府,大阪市北区,梅田１丁目２番２号大阪駅前第２ビル１２‐１２,,27,127,5300001,,,,,,,2025-08-20,1,,,,,トラステラ,0
1539,7120003030356,新規,0,2025-08-20,2025-08-20,フラットワン合同会社,,合同会社,大阪府,大阪市此花区,西九条３丁目１０番８号,,27,104,5540012,,,,,,,2025-08-20,1,,,,,フラットワン,0
1540,7120003030364,新規,0,2025-08-20,2025-08-20,ＺｅｎｉｔｈＬｉｎｋ合同会社,,合同会社,大阪府,大阪市北区,梅田１丁目１－３大阪駅前第３ビル２９階１－１－１号室,,27,127,5300001,,,,,,,2025-08-20,1,,,,,ゼニスリンク,0
1545,7120901051404,新規,0,2025-08-20,2025-08-20,株式会社マキシムＨＤ,,株式会社,大阪府,箕面市,桜ケ丘４丁目１７番２０号,,27,220,5620046,,,,,,,2025-08-20,1,,,,,マキシムホールディングス,0
1547,7122001039560,新規,0,2025-08-20,2025-08-20,恒和株式会社,,株式会社,大阪府,東大阪市,北石切町７番３０号１Ｆ,,27,227,5798015,,,,,,,2025-08-20,1,,,,,コウワ,0
1554,7130001080336,新規,0,2025-08-20,2025-08-20,響音堂株式会社,,株式会社,京都府,京都市左京区,浄土寺真如町１７番地リンデンバウム４０６号室,,26,103,6068414,,,,,,,2025-08-20,1,,,,,キョウオンドウ,0
1555,7140001139726,新規,0,2025-08-20,2025-08-20,山本建設株式会社,,株式会社,兵庫県,赤穂市,坂越１６３５番地１２,,28,212,6780172,,,,,,,2025-08-20,1,,,,,ヤマモトケンセツ,0
1558,7140003022467,新規,0,2025-08-20,2025-08-20,えのさか合同会社,,合同会社,兵庫県,神戸市中央区,浜辺通６丁目１番２３－３１０号,,28,110,6510083,,,,,,,2025-08-20,1,,,,,エノサカ,0
1571,7180001168184,新規,0,2025-08-20,2025-08-20,ＭＧキャピタルパートナーズ株式会社,,株式会社,愛知県,名古屋市中区,栄１丁目１３番２３号ＨＡＲＶＥＹ伏見６階,,23,106,4600008,,,,,,,2025-08-20,1,,,,,エムジーキャピタルパートナーズ,0
1572,7180001168201,新規,0,2025-08-20,2025-08-20,ＴＣＦ　ＴＲＵＳＴＩＥ株式会社,,株式会社,愛知県,名古屋市東区,葵１丁目１９番３０号,,23,102,4610004,,,,,,,2025-08-20,1,,,,,ティーシーエフトラスティ,0
1573,7180001168234,新規,0,2025-08-20,2025-08-20,株式会社ＫＩＭＯＹＡ,,株式会社,愛知県,名古屋市東区,葵１丁目２６番１０号,,23,102,4610004,,,,,,,2025-08-20,1,,,,,キモヤ,0
1574,7180001168250,新規,0,2025-08-20,2025-08-20,株式会社Ｗｅｂ　Ａ　Ｌａ　Ｃａｒｔｅ,,株式会社,愛知県,名古屋市中村区,名駅４丁目２４番５号第２森ビル４０１,,23,105,4500002,,,,,,,2025-08-20,1,,,,,ウェブアラカルト,0
1575,7180001168259,新規,0,2025-08-20,2025-08-20,株式会社コーダビアンキ,,株式会社,愛知県,名古屋市西区,児玉３丁目４０番３４号グラン・コート康生通３０１号,,23,104,4510066,,,,,,,2025-08-20,1,,,,,コーダビアンキ,0
1576,7180001168291,新規,0,2025-08-20,2025-08-20,株式会社ネクサス・ライフテック,,株式会社,愛知県,名古屋市熱田区,金山町１丁目１５番１９号－１,,23,109,4560002,,,,,,,2025-08-20,1,,,,,ネクサスライフテック,0
1582,7180003028873,新規,0,2025-08-20,2025-08-20,ＳＵＭＭＥＲ合同会社,,合同会社,愛知県,名古屋市熱田区,野立町２丁目８エクシード野立Ｂ－１号,,23,109,4560066,,,,,,,2025-08-20,1,,,,,サマー,0
1586,7180305009720,新規,0,2025-08-20,2025-08-20,特定非営利活動法人ｌｉｎｋ,,その他の設立登記法人,愛知県,安城市,三河安城本町１丁目２５番地１６,,23,212,4460059,,,,,,,2025-08-20,1,,,,,リンク,0
1594,7210001020283,新規,0,2025-08-20,2025-08-20,株式会社Ｃｏｒｅ　Ｖａｌｕｅ　Ｐａｒｔｎｅｒｓ,,株式会社,福井県,福井市,問屋町１丁目１０番地,,18,201,9188231,,,,,,,2025-08-20,1,,,,,コアバリューパートナーズ,0
1602,7250005009022,新規,0,2025-08-20,2025-08-20,ブレーバル協同組合,,その他の設立登記法人,山口県,下松市,大字笠戸島１５３０番地３８,,35,207,7440001,,,,,,,2025-08-20,1,,,,,ブレーバル,0
1614,7290001111141,新規,0,2025-08-20,2025-08-20,株式会社ＦｉｎｅＴｅｃｈ,,株式会社,福岡県,福岡市早良区,賀茂３丁目２０番２８号,,40,137,8140164,,,,,,,2025-08-20,1,,,,,ファインテック,0
1615,7290001111158,新規,0,2025-08-20,2025-08-20,株式会社アイアンハート,,株式会社,福岡県,福岡市東区,松田１丁目１２番３２号,,40,131,8120064,,,,,,,2025-08-20,1,,,,,アイアンハート,0
1616,7290001111182,新規,0,2025-08-20,2025-08-20,株式会社ＮＵＳＭＩＭＩ,,株式会社,福岡県,福岡市南区,若久６丁目１５番１３号,,40,134,8150042,,,,,,,2025-08-20,1,,,,,ナスミミ,0
1639,7430003017982,新規,0,2025-08-20,2025-08-20,合同会社ＮＯＤＯ,,合同会社,北海道,苫小牧市,末広町３丁目３番４号,,01,213,0530011,,,,,,,2025-08-20,1,,,,,ノド,0
1640,7430003018031,新規,0,2025-08-20,2025-08-20,プロド・タッソ合同会社,,合同会社,北海道,札幌市中央区,南二条西５丁目３１‐１ＲＭＢｌｄ．７０１,,01,101,0600062,,,,,,,2025-08-20,1,,,,,プロドタッソ,0
1641,7440003001705,新規,0,2025-08-20,2025-08-20,合同会社ＲＡＮＮＩ,,合同会社,北海道,函館市,港町１丁目２０番１９号,,01,202,0410821,,,,,,,2025-08-20,1,,,,,ラーニ,0
1644,7470003002956,新規,0,2025-08-20,2025-08-20,Ｆｒａｇｍｅｎｔ　Ｐｒａｃｔｉｃｅ合同会社,,合同会社,香川県,高松市,天神前１０－５高松セントラルスカイビル３Ｆｓｏｕｔｈ,,37,201,7600018,,,,,,,2025-08-20,1,,,,,フラグメントプラクティス,0
1646,7490001011148,新規,0,2025-08-20,2025-08-20,学工業株式会社,,株式会社,高知県,香南市,野市町東野７９４番地３４ワンパースンハイツＢ棟２０２,,39,211,7815213,,,,,,,2025-08-20,1,,,,,マナブコウギョウ,0
1648,7700150131889,新規,0,2025-08-20,2025-08-20,ＲＯＹＡＬ　ＡＵＴＯ　ＬＡＮＫＡ,,外国会社等,千葉県,八街市,上砂１４５－８,,12,230,2891125,スリランカ民主社会主義共和国、マタレ、ピラーヤル・コビル通り３３／１番地,,,,,,2025-08-20,1,,,,,ロイヤルオートランカ,0
1665,8010001257804,新規,0,2025-08-20,2025-08-20,株式会社ダイヤモンドブリッジ,,株式会社,東京都,千代田区,丸の内１丁目１１－１パシフィックセンチュリープレイス１３階,,13,101,1000005,,,,,,,2025-08-20,1,,,,,ダイヤモンドブリッジ,0
1666,8010001257812,新規,0,2025-08-20,2025-08-20,アーシクス株式会社,,株式会社,東京都,千代田区,神田三崎町２丁目１３番５号６階,,13,101,1010061,,,,,,,2025-08-20,1,,,,,アーシクス,0
1667,8010001257829,新規,0,2025-08-20,2025-08-20,株式会社エンバイオ・ネクテス,,株式会社,東京都,千代田区,鍛冶町２丁目２番２号,,13,101,1010044,,,,,,,2025-08-20,1,,,,,エンバイオネクテス,0
1671,8010003048474,新規,0,2025-08-20,2025-08-20,ＦＭＳ合同会社,,合同会社,東京都,千代田区,九段北１丁目１番６－３０１号,,13,101,1020073,,,,,,,2025-08-20,1,,,,,エフエムエス,0
1673,8010005040520,新規,0,2025-08-20,2025-08-20,一般社団法人スムヤドスム,,その他の設立登記法人,東京都,中央区,銀座５丁目１５番８号,,13,102,1040061,,,,,,,2025-08-20,1,,,,,スムヤドスム,0
1679,8010401192469,新規,0,2025-08-20,2025-08-20,株式会社ＺＵＭＩＳＨ,,株式会社,東京都,港区,赤坂２丁目４－１白亜ビルＢ１Ｆ,,13,103,1070052,,,,,,,2025-08-20,1,,,,,ズーミッシュ,0
1686,8010501054560,新規,0,2025-08-20,2025-08-20,株式会社ティミオス,,株式会社,東京都,台東区,上野５丁目１６番１６号天美ビル２階,,13,106,1100005,,,,,,,2025-08-20,1,,,,,ティミオス,0
1688,8010603011749,新規,0,2025-08-20,2025-08-20,Ｔｅａｍ　Ｋ１合同会社,,合同会社,東京都,江東区,門前仲町１丁目４番３号第三仲町ビル７階,,13,108,1350048,,,,,,,2025-08-20,1,,,,,チームケイワン,0
1692,8010701048123,新規,0,2025-08-20,2025-08-20,株式会社ＩＮＦＩＮＩＸ　ＨＯＬＤＩＮＧＳ,,株式会社,東京都,品川区,北品川５丁目１番１８号,,13,109,1410001,,,,,,,2025-08-20,1,,,,,インフィニックスホールディングス,0
1693,8010703007878,新規,0,2025-08-20,2025-08-20,Ｎａｖｏｒａ合同会社,,合同会社,東京都,品川区,北品川５丁目３番１－１８１８号,,13,109,1410001,,,,,,,2025-08-20,1,,,,,ナヴォラ,0
1701,8010901057948,新規,0,2025-08-20,2025-08-20,玉川電機株式会社,,株式会社,東京都,世田谷区,中町５丁目５番８号,,13,112,1580091,,,,,,,2025-08-20,1,,,,,タマガワデンキ,0
1708,8011001171417,新規,0,2025-08-20,2025-08-20,株式会社ＰＡＣＥＲ,,株式会社,東京都,渋谷区,道玄坂１丁目１０番８号渋谷道玄坂東急ビル２Ｆ－Ｃ,,13,113,1500043,,,,,,,2025-08-20,1,,,,,ペイサー,0
1709,8011001171499,新規,0,2025-08-20,2025-08-20,株式会社ＬＡＶＩ　ＪＡＰＡＮ,,株式会社,東京都,渋谷区,渋谷２丁目１９番１５号宮益坂ビルディング６０９,,13,113,1500002,,,,,,,2025-08-20,1,,,,,ラビジャパン,0
1710,8011001171706,新規,0,2025-08-20,2025-08-20,株式会社エネリズム,,株式会社,東京都,渋谷区,道玄坂１丁目１０番８号渋谷道玄坂東急ビル２Ｆ－Ｃ,,13,113,1500043,,,,,,,2025-08-20,1,,,,,エネリズム,0
1711,8011001171945,新規,0,2025-08-20,2025-08-20,株式会社クレストアドバイザーズ,,株式会社,東京都,渋谷区,神南１丁目１１―４ＦＰＧリンクス神南５階,,13,113,1500041,,,,,,,2025-08-20,1,,,,,クレストアドバイザーズ,0
1713,8011003022221,新規,0,2025-08-20,2025-08-20,合同会社Ｙ＆ｃｏｌｌｔｅ,,合同会社,東京都,渋谷区,恵比寿１丁目１５番９号,,13,113,1500013,,,,,,,2025-08-20,1,,,,,ワイアンドコレット,0
1716,8011101112717,新規,0,2025-08-20,2025-08-20,ＷＡＮＣＡ株式会社,,株式会社,東京都,新宿区,西新宿３丁目３－１３西新宿水間ビル６階,,13,104,1600023,,,,,,,2025-08-20,1,,,,,ワンカ,0
1718,8011103016206,新規,0,2025-08-20,2025-08-20,合同会社マスギルド,,合同会社,東京都,新宿区,赤城下町５６番地,,13,104,1620803,,,,,,,2025-08-20,1,,,,,マスギルド,0
1726,8012803003831,新規,0,2025-08-20,2025-08-20,合同会社ＣＵＤＤＬＥ　ＣＲＥＷ,,合同会社,東京都,昭島市,美堀町２丁目６番２０号,,13,207,1960001,,,,,,,2025-08-20,1,,,,,カドルクルー,0
1736,8020001164272,新規,0,2025-08-20,2025-08-20,株式会社藤紅商事,,株式会社,神奈川県,川崎市川崎区,浅田３丁目５－９－２０１,,14,131,2100847,,,,,,,2025-08-20,1,,,,,フジベニショウジ,0
1739,8021001086044,新規,0,2025-08-20,2025-08-20,株式会社ネストパートナーズマネジメント,,株式会社,神奈川県,相模原市南区,若松２丁目１－３２,,14,153,2520334,,,,,,,2025-08-20,1,,,,,ネストパートナーズマネジメント,0
1740,8021001086135,新規,0,2025-08-20,2025-08-20,株式会社村上商事,,株式会社,神奈川県,逗子市,小坪５丁目２３番８号逗子マリーナ８号棟８３２１,,14,208,2490008,,,,,,,2025-08-20,1,,,,,ムラカミショウジ,0
1746,8030001168173,新規,0,2025-08-20,2025-08-20,株式会社テラスケア,,株式会社,埼玉県,朝霞市,根岸台７丁目２２番１６－７号,,11,227,3510005,,,,,,,2025-08-20,1,,,,,テラスケア,0
1747,8030001168223,新規,0,2025-08-20,2025-08-20,ＪＴＮ株式会社,,株式会社,埼玉県,入間市,小谷田１丁目７－８－１０３,,11,225,3580026,,,,,,,2025-08-20,1,,,,,ジェーティーエヌ,0
1754,8030003027443,新規,0,2025-08-20,2025-08-20,ｂｅｓｐｏｋｅ合同会社,,合同会社,埼玉県,草加市,清門２丁目３４－１,,11,221,3400055,,,,,,,2025-08-20,1,,,,,ビスポーク,0
1764,8040003028168,新規,0,2025-08-20,2025-08-20,ＳＡＧＵＮ　ＩＮＴＥＲＮＡＴＩＯＮＡＬ合同会社,,合同会社,千葉県,佐倉市,上志津１６５６番地４,,12,212,2850846,,,,,,,2025-08-20,1,,,,,サグンインターナショナル,0
1769,8050001057093,新規,0,2025-08-20,2025-08-20,株式会社Ｍ＆Ａカンパニー,,株式会社,茨城県,那珂郡東海村,大字舟石川６１１－５,,08,341,3191111,,,,,,,2025-08-20,1,,,,,エムアンドエーカンパニー,0
1770,8050001057110,新規,0,2025-08-20,2025-08-20,株式会社ＧＬＯＷＴＲＩＡＤ,,株式会社,茨城県,笠間市,福田７４５番地,,08,216,3091603,,,,,,,2025-08-20,1,,,,,グロウトライアド,0
1771,8050001057119,新規,0,2025-08-20,2025-08-20,株式会社赤城,,株式会社,茨城県,水戸市,三の丸３丁目１１番１号,,08,201,3100011,,,,,,,2025-08-20,1,,,,,アカギ,0
1772,8050001057135,新規,0,2025-08-20,2025-08-20,株式会社ＥＮ,,株式会社,茨城県,土浦市,並木１丁目２番地２６号皆川第一ビル２０２号,,08,203,3000061,,,,,,,2025-08-20,1,,,,,エン,0
1775,8050003009497,新規,0,2025-08-20,2025-08-20,盛信商事合同会社,,合同会社,茨城県,坂東市,弓田３３４４の１,,08,228,3060607,,,,,,,2025-08-20,1,,,,,セイシンショウジ,0
1776,8050003009506,新規,0,2025-08-20,2025-08-20,合同会社スペステラ,,合同会社,茨城県,土浦市,中７５７番地２,,08,203,3000841,,,,,,,2025-08-20,1,,,,,スペステラ,0
1782,8080101025732,新規,0,2025-08-20,2025-08-20,株式会社トータルワーク,,株式会社,静岡県,沼津市,足高１８３番地の４４,,22,203,4100001,,,,,,,2025-08-20,1,,,,,トータルワーク,0
1784,8080103003397,新規,0,2025-08-20,2025-08-20,クレマチス合同会社,,合同会社,静岡県,三島市,一番町１２番６号,,22,206,4110036,,,,,,,2025-08-20,1,,,,,クレマチス,0
1788,8100003008345,新規,0,2025-08-20,2025-08-20,ネバーアップ合同会社,,合同会社,長野県,佐久市,中込２３３６－１ワークテラス佐久,,20,217,3850051,,,,,,,2025-08-20,1,,,,,ネバーアップ,0
1798,8120001278780,新規,0,2025-08-20,2025-08-20,株式会社Ｎｅｘｔ　ＰＯＴＥＮＴ,,株式会社,大阪府,大阪市北区,本庄東２丁目１６番６号アロンディール本庄東７０２号室,,27,127,5310074,,,,,,,2025-08-20,1,,,,,ネクストポテント,0
1799,8120001278789,新規,0,2025-08-20,2025-08-20,株式会社一十,,株式会社,大阪府,大阪市福島区,鷺洲５丁目１番１５号セレンディップ鷺洲８０２号,,27,103,5530002,,,,,,,2025-08-20,1,,,,,イチジュウ,0
1802,8120003030314,新規,0,2025-08-20,2025-08-20,合同会社わふぅジャパン,,合同会社,大阪府,大阪市都島区,都島本通４丁目２２－１３,,27,102,5340021,,,,,,,2025-08-20,1,,,,,ワフゥジャパン,0
1803,8120003030330,新規,0,2025-08-20,2025-08-20,合同会社ＭＹ,,合同会社,大阪府,大阪市淀川区,新高２丁目１６番４号,,27,123,5320033,,,,,,,2025-08-20,1,,,,,エムワイ,0
1804,8120003030363,新規,0,2025-08-20,2025-08-20,美優トラン合同会社,,合同会社,大阪府,大阪市西成区,萩之茶屋２丁目６番４－２８１号,,27,122,5570004,,,,,,,2025-08-20,1,,,,,ビユウトラン,0
1809,8120101072282,新規,0,2025-08-20,2025-08-20,株式会社ロジックスカイ,,株式会社,大阪府,堺市南区,晴美台２丁３７番１６号,,27,145,5900113,,,,,,,2025-08-20,1,,,,,ロジックスカイ,0
1823,8130001080293,新規,0,2025-08-20,2025-08-20,株式会社壱輝,,株式会社,京都府,京都市右京区,西京極三反田町１７－６,,26,108,6150818,,,,,,,2025-08-20,1,,,,,イッキ,0
1825,8130003010728,新規,0,2025-08-20,2025-08-20,合同会社Ｉｓｍ,,合同会社,京都府,京都市右京区,嵯峨野宮ノ元町５番地７,,26,108,6168315,,,,,,,2025-08-20,1,,,,,イズム,0
1827,8130005017432,新規,0,2025-08-20,2025-08-20,特定非営利活動法人Ｔｅａ　Ｔｏｇｅｔｈｅｒ　ｂｅｙｏｎｄ　Ｂｏｒｄｅｒｓ,,その他の設立登記法人,京都府,京都市北区,小山東花池町２０番地２,,26,101,6038144,,,,,,,2025-08-20,1,,,,,ティートゥゲザービヨンドボーダーズ,0
1831,8140001139725,新規,0,2025-08-20,2025-08-20,株式会社ｍｏｎｏ　ｔｏｏｋ,,株式会社,兵庫県,伊丹市,大鹿５丁目２３,,28,207,6640899,,,,,,,2025-08-20,1,,,,,モノトック,0
1834,8160001026979,新規,0,2025-08-20,2025-08-20,株式会社湖南,,株式会社,滋賀県,草津市,渋川２丁目７番２１号,,25,206,5250026,,,,,,,2025-08-20,1,,,,,コナン,0
1838,8180001167937,新規,0,2025-08-20,2025-08-20,株式会社Ｐｅａｃｅ　ｏｆ　ｍｉｎｄ,,株式会社,愛知県,名古屋市中村区,則武１丁目１３番地１,,23,105,4530014,,,,,,,2025-08-20,1,,,,,ピースオブマインド,0
1839,8180001168241,新規,0,2025-08-20,2025-08-20,アメリゴ・パートナーズ株式会社,,株式会社,愛知県,名古屋市中区,錦３丁目１１番２５号,,23,106,4600003,,,,,,,2025-08-20,1,,,,,アメリゴパートナーズ,0
1840,8180001168258,新規,0,2025-08-20,2025-08-20,株式会社ｏｒｄｅｒ　ｒｏｏｍ,,株式会社,愛知県,名古屋市中村区,名駅４丁目２４番１６号リージャス広小路ガーデンアベニュービジネスセンター３Ｆ・４Ｆ,,23,105,4500002,,,,,,,2025-08-20,1,,,,,オーダールーム,0
1841,8180001168266,新規,0,2025-08-20,2025-08-20,株式会社Ｈｔｗｏ,,株式会社,愛知県,あま市,西今宿郷内一９４‐２シティハイム小関ＩＩ２０１,00140355,23,237,4901104,,,,,,,2025-08-20,1,,,,,エイチツー,0
1845,8180003028889,新規,0,2025-08-20,2025-08-20,ＳＡＫＵＲＡ　ＲＦＣ合同会社,,合同会社,愛知県,名古屋市港区,木場町９番地の３木場南住宅１棟４０１号,,23,111,4550021,,,,,,,2025-08-20,1,,,,,サクラアールエフシー,0
1846,8180003028897,新規,0,2025-08-20,2025-08-20,合同会社夢案,,合同会社,愛知県,一宮市,萩原町西御堂字東赤口５２５番地１６,,23,203,4910365,,,,,,,2025-08-20,1,,,,,,0
1851,8200001044142,新規,0,2025-08-20,2025-08-20,之所株式会社,,株式会社,岐阜県,多治見市,小泉町３丁目８８番地,,21,204,5070073,,,,,,,2025-08-20,1,,,,,シショ,0
1852,8200003006974,新規,0,2025-08-20,2025-08-20,アニマルドーム合同会社,,合同会社,岐阜県,岐阜市,加野１丁目２４－２４,,21,201,5013107,,,,,,,2025-08-20,1,,,,,アニマルドーム,0
1853,8200003006982,新規,0,2025-08-20,2025-08-20,ＷＡＦＡ　ＴＲＡＤＩＮＧ合同会社,,合同会社,岐阜県,多治見市,笠原町富士区３３１４番地の５,,21,204,5070901,,,,,,,2025-08-20,1,,,,,ワファトレーディング,0
1856,8240001065390,新規,0,2025-08-20,2025-08-20,株式会社サードプレイス,,株式会社,広島県,尾道市,因島中庄町３１８０番地１３,,34,205,7222211,,,,,,,2025-08-20,1,,,,,サードプレイス,0
1871,8290001111033,新規,0,2025-08-20,2025-08-20,株式会社ＧＭアセットマネジメント,,株式会社,福岡県,筑紫野市,原田６丁目８番地６（レーベン原田ＳＩＬＶＩＳＴＡ９０１号）,,40,217,8180024,,,,,,,2025-08-20,1,,,,,ジーエムアセットマネジメント,0
1872,8290001111132,新規,0,2025-08-20,2025-08-20,先晶株式会社,,株式会社,福岡県,福岡市博多区,吉塚１丁目１６番７号ステーションサイド吉塚５０３号,,40,132,8120041,,,,,,,2025-08-20,1,,,,,センショウ,0
1873,8290001111140,新規,0,2025-08-20,2025-08-20,株式会社Ｊ＆Ｂパートナーズ,,株式会社,福岡県,福岡市南区,野間１丁目２４番６－１０３号,,40,134,8150041,,,,,,,2025-08-20,1,,,,,ジェイアンドビーパートナーズ,0
1874,8290001111157,新規,0,2025-08-20,2025-08-20,株式会社ビリーブキー,,株式会社,福岡県,福岡市南区,高宮１丁目４番１６号カルム高宮２階,,40,134,8150083,,,,,,,2025-08-20,1,,,,,ビリーブキー,0
1883,8320001021294,新規,0,2025-08-20,2025-08-20,株式会社ＡＣＥ,,株式会社,大分県,大分市,大字荏隈字庄ノ原１６９７番地３,,44,201,8700889,,,,,,,2025-08-20,1,,,,,エース,0
1890,8340001027587,新規,0,2025-08-20,2025-08-20,株式会社ミーツ,,株式会社,鹿児島県,熊毛郡屋久島町,原８８０番地７８,,46,505,8914403,,,,,,,2025-08-20,1,,,,,ミーツ,0
1894,8360005007261,新規,0,2025-08-20,2025-08-20,一般社団法人日本ゆかた普及協会,,その他の設立登記法人,沖縄県,中頭郡北中城村,字喜舎場１３８０－２－１,,47,327,9012311,,,,,,,2025-08-20,1,,,,,ニホンユカタフキュウキョウカイ,0
1900,8380001035512,新規,0,2025-08-20,2025-08-20,株式会社Ｋｎｉｇｈｔ,,株式会社,福島県,いわき市,平字大館３１番地の３３イエローコート大館,,07,204,9708026,,,,,,,2025-08-20,1,,,,,ナイト,0
1903,8420003003173,新規,0,2025-08-20,2025-08-20,合同会社スリーファーム,,合同会社,青森県,弘前市,大字三和字上池神６５番地９,,02,202,0383611,,,,,,,2025-08-20,1,,,,,スリーファーム,0
1906,8430001095039,新規,0,2025-08-20,2025-08-20,株式会社ＢＡＳＥ　ＪＡＮＥ,,株式会社,北海道,札幌市清田区,北野五条１丁目９番４０号,,01,110,0040865,,,,,,,2025-08-20,1,,,,,ベースジェーン,0
1907,8430001095113,新規,0,2025-08-20,2025-08-20,株式会社カムイホーム,,株式会社,北海道,札幌市白石区,菊水一条１丁目２‐３４,,01,104,0030801,,,,,,,2025-08-20,1,,,,,カムイホーム,0
1911,8700150131888,新規,0,2025-08-20,2025-08-20,ＴＯＫＹＯ　ＷＨＥＥＬＳ,,外国会社等,千葉県,八街市,八街ほ９８６－６,,12,230,2891115,スリランカ民主社会主義共和国、マタレ、ピラーヤル・コビル通り６／２号,,,,,,2025-08-20,1,,,,,トウキヨウホイールズ,0
1918,9010003048465,新規,0,2025-08-20,2025-08-20,Ｊｉｎｎｅｘ合同会社,,合同会社,東京都,千代田区,神田和泉町１番地６－１６ヤマトビル４０５,,13,101,1010024,,,,,,,2025-08-20,1,,,,,ジンネクス,0
1921,9010101016828,新規,0,2025-08-20,2025-08-20,株式会社ドラマーズベース,,株式会社,東京都,八王子市,別所１丁目４５番地７レーベンリヴァーレ南大沢４１８号,,13,201,1920363,,,,,,,2025-08-20,1,,,,,ドラマーズベース,0
1922,9010103002628,新規,0,2025-08-20,2025-08-20,合同会社ａｎｄｓｅｅｄｓ,,合同会社,東京都,八王子市,初沢町１３３６番地１,,13,201,1930845,,,,,,,2025-08-20,1,,,,,アンドシーズ,0
1926,9010401192451,新規,0,2025-08-20,2025-08-20,株式会社８ＢＡＳＥ,,株式会社,東京都,港区,北青山１丁目３番１号アールキューブ青山３階,,13,103,1070061,,,,,,,2025-08-20,1,,,,,エイトベイス,0
1927,9010401192476,新規,0,2025-08-20,2025-08-20,株式会社アルム商事,,株式会社,東京都,港区,港南３丁目５番１５号,,13,103,1080075,,,,,,,2025-08-20,1,,,,,アルムショウジ,0
1928,9010401192492,新規,0,2025-08-20,2025-08-20,ＯＦＩ・０１株式会社,,株式会社,東京都,港区,浜松町２丁目４番１号,,13,103,1050013,,,,,,,2025-08-20,1,,,,,オーエフアイゼロイチ,0
1934,9010405024601,新規,0,2025-08-20,2025-08-20,一般社団法人ＳｍａｒｔＤｅｎｔａｌＶｉｓｉｏｎ,,その他の設立登記法人,東京都,港区,新橋６丁目１９－１９アセンド新橋１Ｆ,,13,103,1050004,,,,,,,2025-08-20,1,,,,,スマートデンタルビジョン,0
1938,9010501054543,新規,0,2025-08-20,2025-08-20,株式会社ＢＡＧ　ＭＡＫＥＲＳ　ＴＯＫＹＯ,,株式会社,東京都,台東区,柳橋２丁目１６番１４号,,13,106,1110052,,,,,,,2025-08-20,1,,,,,バッグメイカーズトウキョウ,0
1939,9010501054568,新規,0,2025-08-20,2025-08-20,三隻小熊株式会社,,株式会社,東京都,台東区,松が谷２丁目１５番８号浅草Ｋ２ビル２１２号室,,13,106,1110036,,,,,,,2025-08-20,1,,,,,サンセキショウユウ,0
1940,9010703007869,新規,0,2025-08-20,2025-08-20,合同会社ＫＩＯＫＵ,,合同会社,東京都,品川区,東五反田２丁目１０番１－１１１３号,,13,109,1410022,,,,,,,2025-08-20,1,,,,,キオク,0
1942,9010901057947,新規,0,2025-08-20,2025-08-20,株式会社ｆｌｅｕｒｉｓ,,株式会社,東京都,世田谷区,宮坂１丁目２２番９号,,13,112,1560051,,,,,,,2025-08-20,1,,,,,フルーリ,0
1948,9011001171465,新規,0,2025-08-20,2025-08-20,猫の手株式会社,,株式会社,東京都,渋谷区,西原３丁目１３番１０号,,13,113,1510066,,,,,,,2025-08-20,1,,,,,ネコノテ,0
1949,9011001171515,新規,0,2025-08-20,2025-08-20,株式会社３１３,,株式会社,東京都,渋谷区,渋谷３丁目１－９ＹＡＺＡＷＡビル３階,,13,113,1500002,,,,,,,2025-08-20,1,,,,,スリーワンスリー,0
1950,9011001171894,新規,0,2025-08-20,2025-08-20,株式会社ＦｅｒｔｉＧａｒａｇｅ,,株式会社,東京都,目黒区,東が丘２丁目１３－８,,13,110,1520021,,,,,,,2025-08-20,1,,,,,ファーティガレージ,0
1958,9011103016221,新規,0,2025-08-20,2025-08-20,合同会社四ツ谷みね村,,合同会社,東京都,新宿区,荒木町３－２１宮内ビル２Ｆ,,13,104,1600007,,,,,,,2025-08-20,1,,,,,ヨツヤミネムラ,0
1968,9011601028908,新規,0,2025-08-20,2025-08-20,ＳＤ杉達資本株式会社,,株式会社,東京都,練馬区,関町北５丁目１３－２５－２階２－Ｆ号室,,13,120,1770051,,,,,,,2025-08-20,1,,,,,エスディースギタツシホン,0
1975,9012801024184,新規,0,2025-08-20,2025-08-20,株式会社ルミナス,,株式会社,東京都,立川市,羽衣町２丁目４９番６号,,13,202,1900021,,,,,,,2025-08-20,1,,,,,ルミナス,0
1980,9020001164346,新規,0,2025-08-20,2025-08-20,株式会社コキオン,,株式会社,神奈川県,横浜市青葉区,さつきが丘２２－２６,,14,117,2270053,,,,,,,2025-08-20,1,,,,,コキオン,0
1997,9030003027442,新規,0,2025-08-20,2025-08-20,合同会社レイバーエンズ,,合同会社,埼玉県,所沢市,大字山口３１１番７号ドマーニ１０１,,11,208,3591145,,,,,,,2025-08-20,1,,,,,レイバーエンズ,0
2001,9040001140122,新規,0,2025-08-20,2025-08-20,株式会社ＳＭＡＰハウジング,,株式会社,千葉県,千葉市花見川区,犢橋町６１番地４０,,12,102,2620013,,,,,,,2025-08-20,1,,,,,スマップハウジング,0
2002,9040001140130,新規,0,2025-08-20,2025-08-20,株式会社ＦＡＴＣＡＴ　Ｄｅｓｉｇｎ一級建築士事務所,,株式会社,千葉県,流山市,鰭ケ崎１７１７－６,,12,220,2700161,,,,,,,2025-08-20,1,,,,,ファットキャットデザインイッキュウケンチクジムショ,0
2015,9050001057118,新規,0,2025-08-20,2025-08-20,株式会社障がい者グループホーム凌ノ里,,株式会社,茨城県,水戸市,元石川町２５２３ー１８,,08,201,3100843,,,,,,,2025-08-20,1,,,,,ショウガイシャグループホームリョウノサト,0
2016,9050001057126,新規,0,2025-08-20,2025-08-20,株式会社Ｄｅｌｔａｎａ,,株式会社,茨城県,古河市,柳橋６８３番地３０,,08,204,3060203,,,,,,,2025-08-20,1,,,,,デルタナ,0
2017,9050003009496,新規,0,2025-08-20,2025-08-20,合同会社トッティ,,合同会社,茨城県,水戸市,大工町１丁目６‐１６みなみビル１Ｆ,,08,201,3100031,,,,,,,2025-08-20,1,,,,,トッティ,0
2018,9050003009505,新規,0,2025-08-20,2025-08-20,合同会社ＶＩＣＡＲＺ,,合同会社,茨城県,かすみがうら市,三ツ木３４８番地,,08,230,3000125,,,,,,,2025-08-20,1,,,,,ヴィーカーズ,0
2025,9080001027101,新規,0,2025-08-20,2025-08-20,株式会社ウィズライン,,株式会社,静岡県,静岡市駿河区,敷地１丁目８番７号,,22,102,4228036,,,,,,,2025-08-20,1,,,,,ウィズライン,0
2028,9080103003396,新規,0,2025-08-20,2025-08-20,Ｋｉｙｏｍｉ　Ｅｓｔａｔｅｓ合同会社,,合同会社,静岡県,伊東市,宇佐美字西平３２３６番地１２１,,22,208,4140001,,,,,,,2025-08-20,1,,,,,キヨミエステーツ,0
2030,9090005007726,新規,0,2025-08-20,2025-08-20,一般財団法人圓池園,,その他の設立登記法人,山梨県,韮崎市,円野町上円井２５３３番地,,19,207,4070051,,,,,,,2025-08-20,1,,,,,エンチエン,0
2033,9100005013383,新規,0,2025-08-20,2025-08-20,一般社団法人ＴＯＭＯＴＵＤＥ,,その他の設立登記法人,長野県,上田市,五加７５０番地３,,20,203,3861324,,,,,,,2025-08-20,1,,,,,トモチュード,0
2044,9120001278557,新規,0,2025-08-20,2025-08-20,株式会社Ｎｏ　Ｏｎｅ　Ｎｏｖｕｓ,,株式会社,大阪府,大阪市中央区,南船場３丁目１番１６号５階,,27,128,5420081,,,,,,,2025-08-20,1,,,,,ノーワンノース,0
2045,9120001278805,新規,0,2025-08-20,2025-08-20,ｍｉｔｓｕｂｏｓｈｉ株式会社,,株式会社,大阪府,大阪市北区,堂島１丁目２番２号堂栄ビル本館３階,,27,127,5300003,,,,,,,2025-08-20,1,,,,,ミツボシ,0
2046,9120001278821,新規,0,2025-08-20,2025-08-20,Ｓｈｉｆｔ‐４株式会社,,株式会社,大阪府,大阪市淀川区,西中島３丁目８番１４号犬飼ビル３０３号室,,27,123,5320011,,,,,,,2025-08-20,1,,,,,シフトフォー,0
2047,9120001278846,新規,0,2025-08-20,2025-08-20,亦禅株式会社,,株式会社,大阪府,大阪市東成区,東小橋１丁目１７番３１号－６１０室,,27,115,5370024,,,,,,,2025-08-20,1,,,,,エキゼン,0
2048,9120001278912,新規,0,2025-08-20,2025-08-20,株式会社希林,,株式会社,大阪府,大阪市平野区,長吉長原４丁目１３番２１号ドミール３１－１階,,27,126,5470016,,,,,,,2025-08-20,1,,,,,キリン,0
2049,9120001278953,新規,0,2025-08-20,2025-08-20,株式会社コフレクロス,,株式会社,大阪府,大阪市北区,芝田１丁目４番１７号,,27,127,5300012,,,,,,,2025-08-20,1,,,,,コフレクロス,0
2052,9120003030321,新規,0,2025-08-20,2025-08-20,Ｏｒｉｏｎ　Ｌｉｎｋ合同会社,,合同会社,大阪府,大阪市中央区,本町２丁目３番４号アソルティ本町４階,,27,128,5410053,,,,,,,2025-08-20,1,,,,,オリオンリンク,0
2053,9120003030346,新規,0,2025-08-20,2025-08-20,合同会社Ｋ・ＣＯＭＰＡＮＹ,,合同会社,大阪府,大阪市中央区,高津２丁目４番６号７０４号,,27,128,5420072,,,,,,,2025-08-20,1,,,,,ケイコンパニ,0
2054,9120003030354,新規,0,2025-08-20,2025-08-20,合同会社臼木商事,,合同会社,大阪府,交野市,私市８丁目７番４号,,27,230,5760033,,,,,,,2025-08-20,1,,,,,ウスキショウジ,0
2064,9120901051336,新規,0,2025-08-20,2025-08-20,ヨクシオジャパン株式会社,,株式会社,大阪府,吹田市,豊津町２番１１号第二喜巳ビル,,27,205,5640051,,,,,,,2025-08-20,1,,,,,ヨクシオジャパン,0
2069,9130001080292,新規,0,2025-08-20,2025-08-20,株式会社９,,株式会社,京都府,京都市伏見区,桃山町大島３８番地２桃山南団地２７Ａ－２０３,,26,109,6128006,,,,,,,2025-08-20,1,,,,,ナイン,0
2070,9130001080326,新規,0,2025-08-20,2025-08-20,株式会社髪Ｌａｂ,,株式会社,京都府,京都市中京区,六角通麩屋町西入大黒町９０番地ドルチェヴィータ京都六角３０１号,,26,104,6048073,,,,,,,2025-08-20,1,,,,,カミラボ,0
2071,9130003010677,新規,0,2025-08-20,2025-08-20,インターナショナルアンティーク合同会社,,合同会社,京都府,京都市東山区,古門前通大和大路東入元町３７０番地の１,,26,105,6050089,,,,,,,2025-08-20,1,,,,,インターナショナルアンティーク,0
2077,9140001139749,新規,0,2025-08-20,2025-08-20,株式会社牛肉商石田屋,,株式会社,兵庫県,神戸市中央区,中山手通１丁目１０番５号,,28,110,6500004,,,,,,,2025-08-20,1,,,,,ギュウニクショウイシダヤ,0
2078,9140005027603,新規,0,2025-08-20,2025-08-20,一般社団法人Ｓｔａｎｄ,,その他の設立登記法人,兵庫県,神戸市西区,丸塚２丁目３番２９号ヒューマンビレッジＢ２０２,,28,111,6512143,,,,,,,2025-08-20,1,,,,,スタンド,0
2088,9180001167928,新規,0,2025-08-20,2025-08-20,株式会社ＫＹＴＴ,,株式会社,愛知県,小牧市,藤島町梵天１３６番地１０,,23,219,4850069,,,,,,,2025-08-20,1,,,,,ケイワイティティ,0
2089,9180001168034,新規,0,2025-08-20,2025-08-20,株式会社ＡｐｐＮｏｔｉｏｎ,,株式会社,愛知県,名古屋市中区,栄５丁目１６番１４号新東陽ビル９Ｆ,,23,106,4600008,,,,,,,2025-08-20,1,,,,,アップノーション,0
2090,9180001168190,新規,0,2025-08-20,2025-08-20,株式会社Ｓ　ｓｔｙｌｅ,,株式会社,愛知県,春日井市,西高山町１丁目２番地１６,,23,206,4860911,,,,,,,2025-08-20,1,,,,,エススタイル,0
2091,9180001168240,新規,0,2025-08-20,2025-08-20,株式会社ＥＭＡＸ‐ＰＲＯ,,株式会社,愛知県,一宮市,上祖父江字新田２３番地,,23,203,4940014,,,,,,,2025-08-20,1,,,,,イーマックスプロ,0
2092,9180001168249,新規,0,2025-08-20,2025-08-20,株式会社ＲＬＩＮＯ,,株式会社,愛知県,名古屋市東区,泉１丁目１４－１泉久屋サンコービル７Ｆ,,23,102,4610001,,,,,,,2025-08-20,1,,,,,リノ,0
2093,9180001168257,新規,0,2025-08-20,2025-08-20,サリアラム株式会社,,株式会社,愛知県,名古屋市緑区,南陵４０１番地供給公社桶狭間住宅１０８,,23,114,4580918,,,,,,,2025-08-20,1,,,,,サリアラム,0
2104,9180305009719,新規,0,2025-08-20,2025-08-20,一般社団法人士,,その他の設立登記法人,愛知県,豊橋市,平川本町１丁目５番地の１９,,23,201,4400038,,,,,,,2025-08-20,1,,,,,サムライ,0
2136,9340001027594,新規,0,2025-08-20,2025-08-20,株式会社Ｓｕｎｎｙ　Ｓｐｏｔ,,株式会社,鹿児島県,鹿児島市,和田３丁目３０番３号,,46,201,8910143,,,,,,,2025-08-20,1,,,,,サニースポット,0
2141,9360001035570,新規,0,2025-08-20,2025-08-20,株式会社オーガニック勝山ファーム,,株式会社,沖縄県,名護市,字勝山１２４４番地,,47,209,9050002,,,,,,,2025-08-20,1,,,,,オーガニックカツヤマファーム,0
2146,9370001052953,新規,0,2025-08-20,2025-08-20,株式会社ａｒｔＵ,,株式会社,宮城県,仙台市青葉区,荒巻字青葉３９０番地の７９,,04,101,9800845,,,,,,,2025-08-20,1,,,,,アートユー,0
