sequenceNumber,corporateNumber,process,correct,updateDate,changeDate,name,nameImageId,kind,prefectureName,cityName,streetNumber,addressImageId,prefectureCode,cityCode,postCode,addressOutside,addressOutsideImageId,closeDate,closeCause,successorCorporateNumber,changeCause,assignmentDate,latest,enName,enPrefectureName,enCityName,enAddressOutside,furigana,hihyoji
6,1010001233919,新規,0,2023-03-24,2023-03-24,株式会社五味,,株式会社,東京都,千代田区,神田駿河台２丁目１１番地６,,13,101,1010062,,,,,,,2023-03-24,1,,,,,ゴミ,0
7,1010001233968,新規,0,2023-03-24,2023-03-24,株式会社カレンシステムズ,,株式会社,東京都,文京区,春日２丁目２番６－１１０１号,,13,105,1120003,,,,,,,2023-03-24,1,,,,,カレンシステムズ,0
19,1010403029782,新規,0,2023-03-24,2023-03-24,Ｂｌｉｎｋ　Ｓｕｐｏｔｔｏ合同会社,,合同会社,東京都,港区,元麻布３丁目１番６号,,13,103,1060046,,,,,,,2023-03-24,1,,,,,ブリンクスポット,0
20,1010403029790,新規,0,2023-03-24,2023-03-24,難波黒門合同会社,,合同会社,東京都,港区,元赤坂１丁目１番８号株式会社赤坂国際会計内,,13,103,1070051,,,,,,,2023-03-24,1,,,,,ナンバクロモン,0
21,1010403029799,新規,0,2023-03-24,2023-03-24,ＪＭガンマメンサ１合同会社,,合同会社,東京都,港区,六本木１丁目９番１０号アークヒルズ仙石山森タワー４０階,,13,103,1060032,,,,,,,2023-03-24,1,,,,,ジェイエムガンマメンサワン,0
24,1010603010063,新規,0,2023-03-24,2023-03-24,合同会社ＴＮＫ,,合同会社,東京都,江東区,豊洲４丁目９番１３－３１３号,,13,108,1350061,,,,,,,2023-03-24,1,,,,,ティーエヌケー,0
25,1010603010071,新規,0,2023-03-24,2023-03-24,Ｇｏｒｇｅｏｕｓ　Ｃａｒｅｅｒｓ合同会社,,合同会社,東京都,墨田区,緑２丁目１４番５号アルシオン両国１２０３室,,13,107,1300021,,,,,,,2023-03-24,1,,,,,ゴージャスキャリア,0
28,1010803004484,新規,0,2023-03-24,2023-03-24,合同会社Ｂａｐｅｓｔａ１９９４,,合同会社,東京都,大田区,大森西１丁目１５番１７号３０３,,13,111,1430015,,,,,,,2023-03-24,1,,,,,バペスタイチキュウキュウヨン,0
32,1010901052757,新規,0,2023-03-24,2023-03-24,株式会社ＥＬ　ＰＬＡＴＡＺＯ,,株式会社,東京都,世田谷区,豪徳寺１丁目３３番６号ゼルコバヴィレッジＣ棟２０１,,13,112,1540021,,,,,,,2023-03-24,1,,,,,エルプラターゾ,0
37,1011003016510,新規,0,2023-03-24,2023-03-24,合同会社たびするじかん,,合同会社,東京都,渋谷区,道玄坂１丁目１０番８号渋谷道玄坂東急ビル２Ｆ－Ｃ,,13,113,1500043,,,,,,,2023-03-24,1,,,,,タビスルジカン,0
44,1011201024521,新規,0,2023-03-24,2023-03-24,株式会社ＥＩ４ａ,,株式会社,東京都,中野区,鷺宮１丁目１番５号パティオ鷺宮２０５,,13,114,1650032,,,,,,,2023-03-24,1,,,,,イーアイヨンエー,0
51,1011801042121,新規,0,2023-03-24,2023-03-24,Ｌ＆Ｔ株式会社,,株式会社,東京都,葛飾区,青戸７丁目１３－２０,,13,122,1250062,,,,,,,2023-03-24,1,,,,,エルアンドティー,0
52,1011803005571,新規,0,2023-03-24,2023-03-24,合同会社パロット,,合同会社,東京都,葛飾区,堀切１丁目１４番５号,,13,122,1240006,,,,,,,2023-03-24,1,,,,,パロット,0
55,1012401040309,新規,0,2023-03-24,2023-03-24,株式会社ＩＮＫＡＳＴ,,株式会社,東京都,三鷹市,新川３丁目１８番１号伴賛館１０１－１,,13,204,1810004,,,,,,,2023-03-24,1,,,,,インキャスト,0
56,1012403005895,新規,0,2023-03-24,2023-03-24,合同会社ｏｋｏ,,合同会社,東京都,武蔵野市,中町３丁目８番１‐１２２号,,13,203,1800006,,,,,,,2023-03-24,1,,,,,オーケイオー,0
57,1012701017551,新規,0,2023-03-24,2023-03-24,宮崎堂株式会社,,株式会社,東京都,東久留米市,野火止２丁目９番２号,,13,222,2030041,,,,,,,2023-03-24,1,,,,,ミヤザキドウ,0
62,1013303006554,新規,0,2023-03-24,2023-03-24,金玉合同会社,,合同会社,東京都,豊島区,西池袋２丁目２９－５－１０１,,13,116,1710021,,,,,,,2023-03-24,1,,,,,キンタマ,0
68,1020001150774,新規,0,2023-03-24,2023-03-24,株式会社ジャパンヴァリアブルテクノロジー,,株式会社,神奈川県,川崎市川崎区,塩浜１丁目５番１５号,,14,131,2100826,,,,,,,2023-03-24,1,,,,,ジャパンヴァリアブルテクノロジー,0
69,1020001150782,新規,0,2023-03-24,2023-03-24,ＰＲＯＭＥＴＨＥＵＳ金属株式会社,,株式会社,神奈川県,横浜市中区,山田町４番地フロール山田町第１－１０９号,,14,104,2310036,,,,,,,2023-03-24,1,,,,,プラメシュウスキンゾク,0
74,1020003023581,新規,0,2023-03-24,2023-03-24,合同会社ＭＨＳ,,合同会社,神奈川県,川崎市麻生区,多摩美２丁目１６－２０,,14,137,2150002,,,,,,,2023-03-24,1,,,,,エムエイチエス,0
78,1021001078485,新規,0,2023-03-24,2023-03-24,株式会社ａｐｒｉｌ,,株式会社,神奈川県,海老名市,扇町７番２号１Ｆ,,14,215,2430436,,,,,,,2023-03-24,1,,,,,エイプリル,0
81,1021003012888,新規,0,2023-03-24,2023-03-24,大日本保証合同会社,,合同会社,神奈川県,秦野市,西田原３６２－７,,14,211,2570027,,,,,,,2023-03-24,1,,,,,ダイニッポンホショウ,0
91,1030003021411,新規,0,2023-03-24,2023-03-24,合同会社ｎｅｘｔ,,合同会社,埼玉県,川口市,八幡木２丁目１２番地の２,,11,203,3340012,,,,,,,2023-03-24,1,,,,,ネクスト,0
92,1030003021428,新規,0,2023-03-24,2023-03-24,合同会社加藤会計,,合同会社,埼玉県,さいたま市中央区,本町東６丁目５番１１号,,11,105,3380003,,,,,,,2023-03-24,1,,,,,カトウカイケイ,0
98,1050001052514,新規,0,2023-03-24,2023-03-24,榮峰金属株式会社,,株式会社,茨城県,石岡市,小見１０６２番地１,,08,205,3150104,,,,,,,2023-03-24,1,,,,,エイホウ,0
99,1050001052563,新規,0,2023-03-24,2023-03-24,ＹＵＺＯ　ＡＢＥＹＫＯＯＮ株式会社,,株式会社,茨城県,猿島郡境町,２１６５番地８,,08,546,3060433,,,,,,,2023-03-24,1,,,,,ユーゾーアベークン,0
102,1060001035823,新規,0,2023-03-24,2023-03-24,株式会社あさひコンサルティング坂東,,株式会社,栃木県,小山市,東城南５丁目１番地７,,09,208,3230829,,,,,,,2023-03-24,1,,,,,アサヒコンサルティングバンドウ,0
130,1120001253377,新規,0,2023-03-24,2023-03-24,株式会社スマニコ,,株式会社,大阪府,大阪市中央区,糸屋町２丁目４番２－８０３号,,27,128,5400022,,,,,,,2023-03-24,1,,,,,スマニコ,0
131,1120001253435,新規,0,2023-03-24,2023-03-24,株式会社クリエイトパートナー,,株式会社,大阪府,大阪市淀川区,十三本町１丁目４番２５号十三本町藤井ビル２階,,27,123,5320024,,,,,,,2023-03-24,1,,,,,クリエイトパートナー,0
132,1120001253443,新規,0,2023-03-24,2023-03-24,秋実アセットマネジメント株式会社,,株式会社,大阪府,大阪市中央区,島之内２丁目４－３３－２Ｆ,,27,128,5420082,,,,,,,2023-03-24,1,,,,,アキミアセットマネジメント,0
135,1120003023646,新規,0,2023-03-24,2023-03-24,合同会社ストーク,,合同会社,大阪府,大阪市中央区,瓦町１丁目６番１－４８０２号,,27,128,5410048,,,,,,,2023-03-24,1,,,,,ストーク,0
136,1120003023687,新規,0,2023-03-24,2023-03-24,Ｑｕａｎｔｕｍ　Ｖｅｎｔｕｒａ　Ｊａｐａｎ合同会社,,合同会社,大阪府,大阪市北区,豊崎３丁目１６番１６－１１０１号,,27,127,5310072,,,,,,,2023-03-24,1,,,,,クォンタムヴェンチュラジャパン,0
148,1130003008605,新規,0,2023-03-24,2023-03-24,ＣＯ　ＪＰ　Ｂｒａｎｄｓ合同会社,,合同会社,京都府,京都市山科区,日ノ岡一切経谷町１０－２,,26,110,6078491,,,,,,,2023-03-24,1,,,,,コージェイピーブランド,0
158,1140001129328,新規,0,2023-03-24,2023-03-24,株式会社ノルト,,株式会社,兵庫県,宝塚市,栄町３丁目３－３８宝塚ビル５０１号,00129852,28,214,6650845,,,,,,,2023-03-24,1,,,,,ノルト,0
162,1170001017521,新規,0,2023-03-24,2023-03-24,株式会社Ｅアーネスト,,株式会社,和歌山県,和歌山市,和歌浦東２丁目４番６３号,,30,201,6410021,,,,,,,2023-03-24,1,,,,,イーアーネスト,0
169,1190001030266,新規,0,2023-03-24,2023-03-24,株式会社キクラス,,株式会社,三重県,名張市,蔵持町原出６８１番地１,,24,208,5180752,,,,,,,2023-03-24,1,,,,,キクラス,0
170,1190003004268,新規,0,2023-03-24,2023-03-24,合同会社エイド,,合同会社,三重県,伊勢市,前山町５０３番地９,,24,203,5160044,,,,,,,2023-03-24,1,,,,,エイド,0
184,1260001037758,新規,0,2023-03-24,2023-03-24,株式会社ＨＩＲＯＴＥＫＴ,,株式会社,岡山県,倉敷市,児島稗田町４１９０番地３,,33,202,7110937,,,,,,,2023-03-24,1,,,,,ヒロテクト,0
196,1290001100950,新規,0,2023-03-24,2023-03-24,株式会社サカタ外装工業,,株式会社,福岡県,柳川市,久々原４６番地２,,40,207,8320086,,,,,,,2023-03-24,1,,,,,サカタガイソウコウギョウ,0
197,1290001100975,新規,0,2023-03-24,2023-03-24,株式会社ＶＥＲＭＩＬＬＩＯＮ,,株式会社,福岡県,筑紫野市,岡田１丁目２０番地３,,40,217,8180013,,,,,,,2023-03-24,1,,,,,バーミリオン,0
198,1290001100983,新規,0,2023-03-24,2023-03-24,株式会社セオリツ,,株式会社,福岡県,福岡市中央区,今泉２丁目１番２８号,,40,133,8100021,,,,,,,2023-03-24,1,,,,,セオリツ,0
200,1290003013671,新規,0,2023-03-24,2023-03-24,テラ合同会社,,合同会社,福岡県,嘉麻市,鴨生１９１－１０,,40,227,8200206,,,,,,,2023-03-24,1,,,,,テラ,0
210,1350001018245,新規,0,2023-03-24,2023-03-24,株式会社すもも水産,,株式会社,宮崎県,日南市,南郷町中村甲３０８０番地４６,,45,204,8893202,,,,,,,2023-03-24,1,,,,,スモモスイサン,0
214,1360005006807,新規,0,2023-03-24,2023-03-24,一般社団法人Ｃ‐ＢＲＡＳＳウインドオーケストラ,,その他の設立登記法人,沖縄県,那覇市,小禄１丁目３３番１６号,,47,201,9010152,,,,,,,2023-03-24,1,,,,,シーブラスウインドオーケストラ,0
234,1430003014861,新規,0,2023-03-24,2023-03-24,合同会社２２３,,合同会社,北海道,札幌市豊平区,平岸一条１丁目４番２２－８０３号,,01,105,0620931,,,,,,,2023-03-24,1,,,,,ツツミ,0
238,1490003001755,新規,0,2023-03-24,2023-03-24,合同会社頼矩,,合同会社,高知県,高知市,横浜東町６－２６,,39,201,7810243,,,,,,,2023-03-24,1,,,,,,0
240,1700150114940,新規,0,2023-03-24,2023-03-24,ｓｈｅｎ　ｚｈｅｎ　ｓｈｉ　ｓｈｕｎ　ｔｏｎｇ　ｘｉｎ　ｗｅｉ　ｄｉａｎ　ｚｉ　ｙｏｕ　ｘｉａｎ　ｇｏｎｇ　ｓｉ,,外国会社等,,,,,,,,ｓｈｅｎ　ｚｈｅｎ　ｓｈｉ　ｆｕ　ｔｉａｎ　ｑｕ　ｈｕａ　ｑｉａｎｇ　ｂｅｉ　ｊｉｅ　ｄａｏ　ｆｕ　ｑｉａｎｇ　ｓｈｅ　ｑｕ　ｈｕａ　ｑｉａｎｇ　ｂｅｉ　ｌｕ　１０７８　ｈａｏ　ｘｉａｎ　ｄａｉ　ｚｈｉ　ｃｈｕａｎｇ　Ｂ　ｚｕｏ　１８Ｈ,,,,,,2023-03-24,1,,,,,シンセンシシヨントウシンウイデンシカンパニーリミテツト,0
249,2010001233942,新規,0,2023-03-24,2023-03-24,株式会社ＣＯ２ＯＳ,,株式会社,東京都,千代田区,丸の内１丁目９番１号,,13,101,1000005,,,,,,,2023-03-24,1,,,,,シーオーツーオーエス,0
250,2010001233950,新規,0,2023-03-24,2023-03-24,株式会社ＬＣ　ｍａｙｌｅａｆ,,株式会社,東京都,中央区,銀座１丁目２２番１１号銀座大竹ビジデンス２Ｆ,,13,102,1040061,,,,,,,2023-03-24,1,,,,,エルシーメイリーフ,0
252,2010003040115,新規,0,2023-03-24,2023-03-24,合同会社Ｋ＆Ｓ株投資教室,,合同会社,東京都,千代田区,内神田１丁目１１－１０,,13,101,1010047,,,,,,,2023-03-24,1,,,,,ケーアンドエスカブトウシキョウシツ,0
258,2010401173020,新規,0,2023-03-24,2023-03-24,株式会社ｒｅｓｐｏｉｒ　Ｏｎ　ｐｉｃｎｉｃ,,株式会社,東京都,港区,南青山１丁目１７番１５号,,13,103,1070062,,,,,,,2023-03-24,1,,,,,レスポワールオンピクニック,0
259,2010401173210,新規,0,2023-03-24,2023-03-24,ＯＲＥＧＮＡ株式会社,,株式会社,東京都,港区,六本木４丁目１０番３号第Ｖ大栄ビル５Ｆ,00129850,13,103,1060032,,,,,,,2023-03-24,1,,,,,オレジナ,0
260,2010401173243,新規,0,2023-03-24,2023-03-24,株式会社Ｓｅｃｏｎｄ　Ｅａｒｔｈ,,株式会社,東京都,港区,北青山２丁目７番１３号プラセオ青山ビル３Ｆ,,13,103,1070061,,,,,,,2023-03-24,1,,,,,セカンドアース,0
261,2010401173251,新規,0,2023-03-24,2023-03-24,株式会社ＡＬＦＡ　ＰＭＣ,,株式会社,東京都,港区,新橋４丁目１番１号,,13,103,1050004,,,,,,,2023-03-24,1,,,,,アルファピーエムシー,0
262,2010403029798,新規,0,2023-03-24,2023-03-24,ＪＭアルファメンサ合同会社,,合同会社,東京都,港区,六本木１丁目９番１０号アークヒルズ仙石山森タワー４０階,,13,103,1060032,,,,,,,2023-03-24,1,,,,,ジェイエムアルファメンサ,0
268,2010501050193,新規,0,2023-03-24,2023-03-24,株式会社Ｂｏｎ,,株式会社,東京都,台東区,浅草４丁目２１番８－４０１号ソルフィエスタ浅草,,13,106,1110032,,,,,,,2023-03-24,1,,,,,ボン,0
271,2010601062799,新規,0,2023-03-24,2023-03-24,株式会社アイラボ,,株式会社,東京都,江東区,青海２丁目７番４号,,13,108,1350064,,,,,,,2023-03-24,1,,,,,アイラボ,0
272,2010701044012,新規,0,2023-03-24,2023-03-24,株式会社ＳＩＲＡＳ,,株式会社,東京都,品川区,西五反田５丁目２３番３号ＢＬＯＣＫＳ・ＯＦＦＩＣＥ目黒不動前１０２号室,,13,109,1410031,,,,,,,2023-03-24,1,,,,,シラス,0
280,2010901052748,新規,0,2023-03-24,2023-03-24,株式会社ＲＵＭＩＲＯ,,株式会社,東京都,世田谷区,深沢２丁目１番３号,,13,112,1580081,,,,,,,2023-03-24,1,,,,,ルミーロ,0
281,2010901052764,新規,0,2023-03-24,2023-03-24,株式会社池尻興産,,株式会社,東京都,世田谷区,玉川田園調布１丁目１０番１１号,,13,112,1580085,,,,,,,2023-03-24,1,,,,,イケジリコウサン,0
283,2010903008046,新規,0,2023-03-24,2023-03-24,タイドＰＲ合同会社,,合同会社,東京都,世田谷区,砧１丁目６番１５号砧デュープレックス２０５,,13,112,1570073,,,,,,,2023-03-24,1,,,,,,0
287,2011001153239,新規,0,2023-03-24,2023-03-24,Ｆａｖｏｒ株式会社,,株式会社,東京都,渋谷区,神宮前６丁目２３番４号桑野ビル２階,,13,113,1500001,,,,,,,2023-03-24,1,,,,,フェイバー,0
288,2011001153296,新規,0,2023-03-24,2023-03-24,Ａｌｌ　Ｗｒｉｔｅ株式会社,,株式会社,東京都,渋谷区,渋谷１丁目１－３アミーホール４Ｆ,,13,113,1500002,,,,,,,2023-03-24,1,,,,,オールライト,0
289,2011003016501,新規,0,2023-03-24,2023-03-24,ａｍｏ合同会社,,合同会社,東京都,渋谷区,渋谷３丁目２６－１６,,13,113,1500002,,,,,,,2023-03-24,1,,,,,アモ,0
290,2011003016518,新規,0,2023-03-24,2023-03-24,コンテンツプロデュース合同会社,,合同会社,東京都,渋谷区,神宮前６丁目２３番４号桑野ビル２階,,13,113,1500001,,,,,,,2023-03-24,1,,,,,コンテンツプロデュース,0
296,2011101102252,新規,0,2023-03-24,2023-03-24,株式会社タレンシア,,株式会社,東京都,新宿区,新宿２丁目１２番１３号新宿アントレサロンビル,,13,104,1600022,,,,,,,2023-03-24,1,,,,,タレンシア,0
297,2011101102269,新規,0,2023-03-24,2023-03-24,エンジェルプラス株式会社,,株式会社,東京都,新宿区,上落合２丁目１２－２－２０２,,13,104,1610034,,,,,,,2023-03-24,1,,,,,エンジェルプラス,0
298,2011101102277,新規,0,2023-03-24,2023-03-24,プライム民泊株式会社,,株式会社,東京都,新宿区,新宿２丁目１２番１３号新宿アントレサロンビル２階,,13,104,1600022,,,,,,,2023-03-24,1,,,,,プライムミンパク,0
299,2011105010600,新規,0,2023-03-24,2023-03-24,一般社団法人全日本学生ハンドボール連盟,,その他の設立登記法人,東京都,新宿区,霞ヶ丘町４番２号ＪＡＰＡＮ＿ＳＰＯＲＴ＿ＯＬＹＭＰＩＣ＿ＳＱＵＡＲＥ６階,00129853,13,104,1600013,,,,,,,2023-03-24,1,,,,,ゼンニホンガクセイハンドボールレンメイ,0
304,2011401024997,新規,0,2023-03-24,2023-03-24,京多株式会社,,株式会社,東京都,板橋区,赤塚５丁目１１番の３トップ下赤塚Ｉ２０５室,00129849,13,119,1750092,,,,,,,2023-03-24,1,,,,,キョウタ,0
311,2011803005570,新規,0,2023-03-24,2023-03-24,蔵前光学合同会社,,合同会社,東京都,葛飾区,東金町１丁目４５番１２号ＡＳビル,,13,122,1250041,,,,,,,2023-03-24,1,,,,,クラマエコウガク,0
316,2012401040290,新規,0,2023-03-24,2023-03-24,株式会社イーキューソリューションズ・ジャパン,,株式会社,東京都,多摩市,桜ヶ丘１丁目２３番地の１１,,13,224,2060013,,,,,,,2023-03-24,1,,,,,イーキューソリューションズジャパン,0
321,2013101009139,新規,0,2023-03-24,2023-03-24,株式会社ＳＫＢエンジニアリング,,株式会社,東京都,西多摩郡瑞穂町,南平１丁目７番地１６,,13,303,1901224,,,,,,,2023-03-24,1,,,,,,0
323,2013301050495,新規,0,2023-03-24,2023-03-24,株式会社Ｔｏ‐Ｍ,,株式会社,東京都,豊島区,駒込６丁目３４－４シーフォルム駒込ＩＩ－４０４,00129846,13,116,1700003,,,,,,,2023-03-24,1,,,,,トム,0
329,2020001150773,新規,0,2023-03-24,2023-03-24,株式会社ＳＴＦ,,株式会社,神奈川県,横浜市都筑区,池辺町２６２６番地１シャルマン串田２０１,,14,118,2240053,,,,,,,2023-03-24,1,,,,,エスティーエフ,0
334,2020003023572,新規,0,2023-03-24,2023-03-24,合同会社Ｋｕｍｉ　ＮＡＴＵＲＡＬ,,合同会社,神奈川県,横浜市中区,仲尾台８６番地６,,14,104,2310839,,,,,,,2023-03-24,1,,,,,クミナチュラル,0
335,2021001078484,新規,0,2023-03-24,2023-03-24,株式会社ラパン管理事務所,,株式会社,神奈川県,茅ヶ崎市,萩園１２８５番地１,,14,207,2530071,,,,,,,2023-03-24,1,,,,,ラパンカンリジムショ,0
336,2021001078526,新規,0,2023-03-24,2023-03-24,株式会社グッド・ユーイン,,株式会社,神奈川県,藤沢市,菖蒲沢８９５番地の１,,14,205,2520823,,,,,,,2023-03-24,1,,,,,グッドユーイン,0
341,2030001152926,新規,0,2023-03-24,2023-03-24,株式会社ＬＯＣＯＴＩＭＥ,,株式会社,埼玉県,越谷市,大字弥十郎５６９番地２６,,11,222,3430047,,,,,,,2023-03-24,1,,,,,ロコタイム,0
342,2030001152950,新規,0,2023-03-24,2023-03-24,株式会社はるくう,,株式会社,埼玉県,和光市,白子２丁目１５番１－２０３号メゾン和光台,,11,229,3510101,,,,,,,2023-03-24,1,,,,,ハルクウ,0
343,2030001152959,新規,0,2023-03-24,2023-03-24,株式会社ＭＩＲＡＩＲＩＳ,,株式会社,埼玉県,蕨市,南町３丁目４番１９号,,11,223,3350003,,,,,,,2023-03-24,1,,,,,ミライリス,0
344,2030001152967,新規,0,2023-03-24,2023-03-24,株式会社サイコー,,株式会社,埼玉県,川口市,大字伊刈１３６１番地,,11,203,3330865,,,,,,,2023-03-24,1,,,,,サイコー,0
347,2030005021177,新規,0,2023-03-24,2023-03-24,一般社団法人ＳＴＡＮＤ　ＦＯＲ　ＢＡＳＥＢＡＬＬ川口,,その他の設立登記法人,埼玉県,川口市,大字安行原１８７番地の１３,,11,203,3340057,,,,,,,2023-03-24,1,,,,,スタンドフォーベースボールカワグチ,0
351,2040001127588,新規,0,2023-03-24,2023-03-24,株式会社ＹＯ‐ＳＯＬ,,株式会社,千葉県,千葉市中央区,出洲港３番１号ロイヤルステージ本千葉５１３号,,12,101,2600023,,,,,,,2023-03-24,1,,,,,ヨーソル,0
352,2040001127605,新規,0,2023-03-24,2023-03-24,高洲ホールディングス株式会社,,株式会社,千葉県,市原市,出津西１丁目２番地１５,,12,219,2900043,,,,,,,2023-03-24,1,,,,,タカスホールディングス,0
353,2040001127613,新規,0,2023-03-24,2023-03-24,東洋物産株式会社,,株式会社,千葉県,八千代市,上高野２３０－１－２０２,,12,221,2760022,,,,,,,2023-03-24,1,,,,,トウヨウブッサン,0
354,2040001127638,新規,0,2023-03-24,2023-03-24,株式会社ティー・ツー,,株式会社,千葉県,千葉市中央区,富士見２丁目７番９号富士見ビル６０９号,,12,101,2600015,,,,,,,2023-03-24,1,,,,,ティーツー,0
355,2040003022234,新規,0,2023-03-24,2023-03-24,合同会社ＨＫ企画,,合同会社,千葉県,千葉市中央区,港町２４番９号アイリー千葉１０１号,,12,101,2600831,,,,,,,2023-03-24,1,,,,,エイチケーキカク,0
356,2040003022242,新規,0,2023-03-24,2023-03-24,合同会社マイルスアヘッド,,合同会社,千葉県,千葉市美浜区,打瀬１丁目２－２セントラルパークイーストＧ棟８０１号,,12,106,2610013,,,,,,,2023-03-24,1,,,,,マイルスアヘッド,0
358,2050003007341,新規,0,2023-03-24,2023-03-24,合同会社Ｐｅｃｈｅ,,合同会社,茨城県,水戸市,宮町１丁目２－４ＭＹＭビル３Ｆ、ＢＩＺｃｏｍｆｏｒｔ水戸０６,,08,201,3100015,,,,,,,2023-03-24,1,,,,,ペシェ,0
360,2060001035814,新規,0,2023-03-24,2023-03-24,株式会社ＬＥＳＴＥ,,株式会社,栃木県,那須郡那須町,大字高久丙３２３８－６,,09,407,3250302,,,,,,,2023-03-24,1,,,,,レスチ,0
361,2060001035822,新規,0,2023-03-24,2023-03-24,株式会社Ｎ‐ＴＲＡＮＳ,,株式会社,栃木県,真岡市,八條１０９９番地１,,09,209,3214303,,,,,,,2023-03-24,1,,,,,エヌトランス,0
363,2060005010061,新規,0,2023-03-24,2023-03-24,学校法人栃木シティ学園,,その他の設立登記法人,栃木県,栃木市,岩舟町小野寺２１１３番３,,09,203,3294314,,,,,,,2023-03-24,1,,,,,トチギシティガクエン,0
365,2080101023865,新規,0,2023-03-24,2023-03-24,株式会社Ｒｅｖｉｖａｌ,,株式会社,静岡県,伊豆の国市,古奈３０８番地の１・２Ｆ,,22,225,4102201,,,,,,,2023-03-24,1,,,,,リバイバル,0
367,2100001036246,新規,0,2023-03-24,2023-03-24,ＢｉｚＳｏｌ株式会社,,株式会社,長野県,安曇野市,堀金烏川２４３０番地１０,,20,220,3998211,,,,,,,2023-03-24,1,,,,,ビズソル,0
375,2120001253343,新規,0,2023-03-24,2023-03-24,株式会社ＫＵＮＩＭＩＴＳＵ,,株式会社,大阪府,大阪市都島区,善源寺町２丁目２番６－１０９号,,27,102,5340015,,,,,,,2023-03-24,1,,,,,クニミツ,0
376,2120001253434,新規,0,2023-03-24,2023-03-24,株式会社Ｅｐｉｓｏｄｅ,,株式会社,大阪府,大阪市北区,天満橋１丁目６番１４－９０４号,,27,127,5300042,,,,,,,2023-03-24,1,,,,,エピソード,0
377,2120001253459,新規,0,2023-03-24,2023-03-24,株式会社ナリタインターナショナル,,株式会社,大阪府,大阪市西成区,鶴見橋１丁目６番１９－２０２号,,27,122,5570031,,,,,,,2023-03-24,1,,,,,ナリタインターナショナル,0
382,2120003023686,新規,0,2023-03-24,2023-03-24,合同会社サンライズ,,合同会社,大阪府,大阪市北区,梅田１丁目１－３大阪駅前第３ビル２９階１－１－１号室,,27,127,5300001,,,,,,,2023-03-24,1,,,,,サンライズ,0
387,2120901047290,新規,0,2023-03-24,2023-03-24,株式会社暖しん,,株式会社,大阪府,池田市,豊島北２丁目１１番１４号,,27,204,5630036,,,,,,,2023-03-24,1,,,,,ダンシン,0
388,2120901047299,新規,0,2023-03-24,2023-03-24,株式会社ＴＥＡＫＳ扇屋,,株式会社,大阪府,豊中市,北桜塚４丁目８番１２号,,27,203,5600022,,,,,,,2023-03-24,1,,,,,ティークスオウギヤ,0
394,2130001073922,新規,0,2023-03-24,2023-03-24,西福株式会社,,株式会社,京都府,京都市下京区,花屋町通櫛笥西入薬園町１７０番地２,,26,106,6008823,,,,,,,2023-03-24,1,,,,,ニシフク,0
395,2130003008604,新規,0,2023-03-24,2023-03-24,合同会社京都世良企画,,合同会社,京都府,京都市上京区,東堀川通出水上る三町目１３－３ホーユーコンフォルト二条城前３０１,,26,102,6028056,,,,,,,2023-03-24,1,,,,,キョウトセラキカク,0
399,2140001129533,新規,0,2023-03-24,2023-03-24,株式会社ひびき,,株式会社,兵庫県,尼崎市,大島１丁目５番１１号,,28,202,6600076,,,,,,,2023-03-24,1,,,,,ヒビキ,0
400,2140001129558,新規,0,2023-03-24,2023-03-24,卓盛株式会社,,株式会社,兵庫県,神戸市長田区,高取山町２丁目６番８号,,28,106,6530856,,,,,,,2023-03-24,1,,,,,タクセイ,0
403,2150003002910,新規,0,2023-03-24,2023-03-24,合同会社ベルテック,,合同会社,奈良県,磯城郡田原本町,大字阪手８３８番地の２,,29,363,6360247,,,,,,,2023-03-24,1,,,,,ベルテック,0
405,2160001024914,新規,0,2023-03-24,2023-03-24,株式会社ＯＷＬＡＲＴＳ,,株式会社,滋賀県,長浜市,川道町１８２０番地,,25,203,5260111,,,,,,,2023-03-24,1,,,,,アウルアーツ,0
408,2170003001852,新規,0,2023-03-24,2023-03-24,合同会社ミヤケコーポレーション,,合同会社,和歌山県,和歌山市,新中島７７番地６,,30,201,6410002,,,,,,,2023-03-24,1,,,,,ミヤケコーポレーション,0
416,2190001030265,新規,0,2023-03-24,2023-03-24,ＳＩグループ株式会社,,株式会社,三重県,桑名市,多度町柚井５５番地,,24,205,5110101,,,,,,,2023-03-24,1,,,,,エスアイグループ,0
419,2200005013462,新規,0,2023-03-24,2023-03-24,社会福祉法人真会,,その他の設立登記法人,岐阜県,養老郡養老町,養老公園１２７６番地１,,21,341,5031254,,,,,,,2023-03-24,1,,,,,マコトカイ,0
428,2290003013695,新規,0,2023-03-24,2023-03-24,パワースタートレーディング合同会社,,合同会社,福岡県,福岡市南区,井尻５丁目１９番１号,,40,134,8111302,,,,,,,2023-03-24,1,,,,,パワースタートレーディング,0
445,2350001018244,新規,0,2023-03-24,2023-03-24,延岡脱炭素エネルギーマネジメント株式会社,,株式会社,宮崎県,延岡市,幸町３丁目１０１番地延岡駅西口街区ビル２階,,45,203,8820053,,,,,,,2023-03-24,1,,,,,ノベオカダツタンソエネルギーマネジメント,0
448,2360003012814,新規,0,2023-03-24,2023-03-24,合同会社ＨＡＰＰＹ　ＰＥＡＲＬ,,合同会社,沖縄県,浦添市,仲間３丁目２２番５号たいら園茶山ビル１０２号,,47,208,9012103,,,,,,,2023-03-24,1,,,,,ハッピーパール,0
463,2430003014860,新規,0,2023-03-24,2023-03-24,合同会社アレグリア,,合同会社,北海道,札幌市厚別区,上野幌二条３丁目１３番１７－２０２号,,01,108,0040032,,,,,,,2023-03-24,1,,,,,,0
465,2450001013929,新規,0,2023-03-24,2023-03-24,株式会社溝口工務店,,株式会社,北海道,旭川市,豊岡八条２丁目３番３号,,01,204,0788238,,,,,,,2023-03-24,1,,,,,ミゾグチコウムテン,0
468,2470001019528,新規,0,2023-03-24,2023-03-24,株式会社ｏｎｅｔｈ．,,株式会社,香川県,高松市,東田町１番地１,,37,201,7600058,,,,,,,2023-03-24,1,,,,,ワンス,0
471,2470003002374,新規,0,2023-03-24,2023-03-24,合同会社ＷＩＬＬＥ,,合同会社,香川県,三豊市,豊中町比地大９６５番地１,,37,208,7691501,,,,,,,2023-03-24,1,,,,,ヴィレ,0
483,3010001233859,新規,0,2023-03-24,2023-03-24,株式会社アジィル,,株式会社,東京都,中央区,銀座１丁目２２番１１号銀座大竹ビジデンス２Ｆ,,13,102,1040061,,,,,,,2023-03-24,1,,,,,アジィル,0
484,3010001233900,新規,0,2023-03-24,2023-03-24,株式会社アーバンエス,,株式会社,東京都,文京区,関口１丁目２１番１６号関口マヤビル３Ｆ,,13,105,1120014,,,,,,,2023-03-24,1,,,,,アーバンエス,0
485,3010001233917,新規,0,2023-03-24,2023-03-24,Ｗｏｒｋｏｍｅ株式会社,,株式会社,東京都,千代田区,神田富山町２８－４東昇ビル２階,,13,101,1010043,,,,,,,2023-03-24,1,,,,,ワークコミ,0
486,3010001233925,新規,0,2023-03-24,2023-03-24,株式会社ＲＥＶＯＬＵＴＩＯＮ　ＦＩＮＡＮＣＥ,,株式会社,東京都,千代田区,紀尾井町４番１号,,13,101,1020094,,,,,,,2023-03-24,1,,,,,レボリューションファイナンス,0
487,3010001233933,新規,0,2023-03-24,2023-03-24,萬邦オークション株式会社,,株式会社,東京都,中央区,京橋１丁目６番１３号１Ｆ,,13,102,1040031,,,,,,,2023-03-24,1,,,,,バンポウオークション,0
492,3010003040106,新規,0,2023-03-24,2023-03-24,オニクス合同会社,,合同会社,東京都,千代田区,丸の内３丁目１番１号東京共同会計事務所内,,13,101,1000005,,,,,,,2023-03-24,1,,,,,オニクス,0
493,3010003040139,新規,0,2023-03-24,2023-03-24,合同会社ウィング,,合同会社,東京都,中央区,新川２丁目２１番１０号,,13,102,1040033,,,,,,,2023-03-24,1,,,,,ウィング,0
494,3010003040147,新規,0,2023-03-24,2023-03-24,ＳＹＳＹ合同会社,,合同会社,東京都,千代田区,麹町３丁目２番地１３ＴＨＥ千代田麹町ＴＯＷＥＲ１４０２号,,13,101,1020083,,,,,,,2023-03-24,1,,,,,エスワイエスワイ,0
496,3010005036408,新規,0,2023-03-24,2023-03-24,一般社団法人アロマカウンセリングコーチ協会,,その他の設立登記法人,東京都,中央区,銀座７丁目１５番８号タウンハイツ銀座４０６,,13,102,1040061,,,,,,,2023-03-24,1,,,,,アロマカウンセリングコーチ,0
503,3010401173135,新規,0,2023-03-24,2023-03-24,株式会社ｍａｇｍａ,,株式会社,東京都,港区,芝浦４丁目１９－１－３３０３,,13,103,1080023,,,,,,,2023-03-24,1,,,,,マグマ,0
504,3010401173275,新規,0,2023-03-24,2023-03-24,株式会社ルミエール,,株式会社,東京都,港区,芝浦２丁目６－１１－２７０３号,,13,103,1080023,,,,,,,2023-03-24,1,,,,,ルミエール,0
508,3010501050192,新規,0,2023-03-24,2023-03-24,株式会社緑の道,,株式会社,東京都,台東区,上野桜木１丁目１５番９号レーベンシティオ上野桜木２０１,,13,106,1100002,,,,,,,2023-03-24,1,,,,,ミドリノミチ,0
514,3010701043970,新規,0,2023-03-24,2023-03-24,Ｃｒｅｗ株式会社,,株式会社,東京都,品川区,西五反田４丁目１６番１２号ヴァンベールＩＩ１Ｆ,00129845,13,109,1410031,,,,,,,2023-03-24,1,,,,,クルー,0
515,3010703006637,新規,0,2023-03-24,2023-03-24,合同会社メンタルヘルスケア,,合同会社,東京都,品川区,大崎２丁目９番１－３００９号,,13,109,1410032,,,,,,,2023-03-24,1,,,,,メンタルヘルスケア,0
517,3010901052763,新規,0,2023-03-24,2023-03-24,ＲＡＫＵＤＥＪＩ株式会社,,株式会社,東京都,世田谷区,上馬１丁目３２番２４号ファインステージ三軒茶屋４０２,,13,112,1540011,,,,,,,2023-03-24,1,,,,,ラクデジ,0
522,3011001153155,新規,0,2023-03-24,2023-03-24,株式会社Ｍａｒｋｅｔｉｎｇ　ｔｉｐｓ,,株式会社,東京都,渋谷区,千駄ヶ谷３丁目５５－１５－８０１,,13,113,1510051,,,,,,,2023-03-24,1,,,,,マーケティングティップス,0
523,3011001153279,新規,0,2023-03-24,2023-03-24,株式会社Ｃｅｌｅｓｔｅ,,株式会社,東京都,目黒区,上目黒３丁目８番３号,,13,110,1530051,,,,,,,2023-03-24,1,,,,,,0
528,3011101102251,新規,0,2023-03-24,2023-03-24,株式会社ＦＡＮＴＡＳＩＳＴＡ,,株式会社,東京都,新宿区,西新宿８丁目１３番１号Ｌｉｂｒｅｓ西新宿１０１,,13,104,1600023,,,,,,,2023-03-24,1,,,,,ファンタジスタ,0
529,3011101102268,新規,0,2023-03-24,2023-03-24,株式会社ｄｒｏｐ　ｓｔｉｌｌａ,,株式会社,東京都,新宿区,舟町７舟町ビル３階Ｐ－２５,,13,104,1600006,,,,,,,2023-03-24,1,,,,,ドロップスティラ,0
530,3011101102276,新規,0,2023-03-24,2023-03-24,株式会社ＣＯＤＥ４６３,,株式会社,東京都,新宿区,上落合１丁目３０－１５－８０５,,13,104,1610034,,,,,,,2023-03-24,1,,,,,コードヨンロクサン,0
533,3011301028552,新規,0,2023-03-24,2023-03-24,株式会社Ｇｏｏｄ　Ｍｅａｓｕｒｅ,,株式会社,東京都,杉並区,松庵２丁目２１番２１号,,13,115,1670054,,,,,,,2023-03-24,1,,,,,グッドメジャー,0
537,3011401024996,新規,0,2023-03-24,2023-03-24,株式会社ＢＴＦ,,株式会社,東京都,板橋区,高島平７丁目１０番７号,,13,119,1750082,,,,,,,2023-03-24,1,,,,,ビーティーエフ,0
549,3012401040307,新規,0,2023-03-24,2023-03-24,株式会社音幸舎,,株式会社,東京都,三鷹市,下連雀６丁目６番２９号,,13,204,1810013,,,,,,,2023-03-24,1,,,,,オンコウシャ,0
555,3013305003449,新規,0,2023-03-24,2023-03-24,一般社団法人Ｓ‐ｍｕｚｉｋ　ＰＲＯＤＵＣＴ,,その他の設立登記法人,東京都,豊島区,東池袋１丁目３４番５号いちご東池袋ビル６階,,13,116,1700013,,,,,,,2023-03-24,1,,,,,エスムジークプロダクト,0
566,3021001078533,新規,0,2023-03-24,2023-03-24,ＮＩＮＫ　ＵＰ株式会社,,株式会社,神奈川県,藤沢市,川名２丁目１番２号１Ｆ,,14,205,2510015,,,,,,,2023-03-24,1,,,,,ニンクアップ,0
578,3030001152974,新規,0,2023-03-24,2023-03-24,株式会社Ｙ．Ｄ．Ｋ,,株式会社,埼玉県,新座市,片山１丁目２番１０号,,11,230,3520025,,,,,,,2023-03-24,1,,,,,ワイディーケイ,0
582,3030003021418,新規,0,2023-03-24,2023-03-24,合同会社ｉｎｔｅｒｉｏｒＰＡＴ,,合同会社,埼玉県,八潮市,緑町５丁目６番地７,,11,234,3400808,,,,,,,2023-03-24,1,,,,,インテリアピーエーティー,0
583,3030003021426,新規,0,2023-03-24,2023-03-24,合同会社ＵＭＥＲ　ＴＲＡＤＩＮＧ,,合同会社,埼玉県,加須市,上種足１６８９番地１,,11,210,3470115,,,,,,,2023-03-24,1,,,,,ウマルトレーディング,0
590,3040001127612,新規,0,2023-03-24,2023-03-24,Ｂｌｕｅ　Ｗｈａｌｅ　Ｓｙｓｔｅｍｓ株式会社,,株式会社,千葉県,松戸市,平賀２０９番地の４,,12,207,2700002,,,,,,,2023-03-24,1,,,,,ブルーホエールシステムズ,0
591,3040001127629,新規,0,2023-03-24,2023-03-24,裕機工株式会社,,株式会社,千葉県,柏市,西原６丁目１番５７号,,12,217,2770885,,,,,,,2023-03-24,1,,,,,ユタカキコウ,0
592,3040001127661,新規,0,2023-03-24,2023-03-24,株式会社川村設計企画,,株式会社,千葉県,野田市,吉春１９９番地の１,,12,208,2780042,,,,,,,2023-03-24,1,,,,,カワムラセッケイキカク,0
594,3040003022217,新規,0,2023-03-24,2023-03-24,佐久間建材合同会社,,合同会社,千葉県,君津市,清和市場４８３番地１,,12,225,2921154,,,,,,,2023-03-24,1,,,,,サクマケンザイ,0
595,3040003022233,新規,0,2023-03-24,2023-03-24,合同会社ＴＡリビング,,合同会社,千葉県,船橋市,前原西１丁目３８番１５号,,12,204,2740825,,,,,,,2023-03-24,1,,,,,ティーエーリビング,0
603,3060001035813,新規,0,2023-03-24,2023-03-24,株式会社ｅｔｅｒｎｏ,,株式会社,栃木県,宇都宮市,石井町３４１４－５４モダンクウカン１１２号室,,09,201,3210912,,,,,,,2023-03-24,1,,,,,エテル,0
610,3080101023864,新規,0,2023-03-24,2023-03-24,株式会社ＯＡＳＴＢＬＵＥ,,株式会社,静岡県,沼津市,大岡１９７２番地の６,,22,203,4100022,,,,,,,2023-03-24,1,,,,,オーストブルー,0
611,3080103002767,新規,0,2023-03-24,2023-03-24,ＷＡＫＡＮ合同会社,,合同会社,静岡県,熱海市,網代６２７番地の３２８,,22,205,4130103,,,,,,,2023-03-24,1,,,,,ワカン,0
613,3100001036245,新規,0,2023-03-24,2023-03-24,ＮａｇＬｉｆｅＳｔｙｌｅ株式会社,,株式会社,長野県,諏訪市,大字中洲２３５８番地,,20,206,3920015,,,,,,,2023-03-24,1,,,,,ナグライフスタイル,0
614,3100003006923,新規,0,2023-03-24,2023-03-24,合同会社ａｒ,,合同会社,長野県,諏訪市,四賀赤沼１６９１－１１・１Ｆ,,20,206,,,,,,,,2023-03-24,1,,,,,アール,0
625,3120001253342,新規,0,2023-03-24,2023-03-24,株式会社Ｇｒａｎｄ　Ｏｒｉｅｎｔａｌ　ＨＤ,,株式会社,大阪府,大阪市北区,中崎西２丁目１番９号,,27,127,5300015,,,,,,,2023-03-24,1,,,,,グランドオリエンタルエイチディー,0
626,3120001253417,新規,0,2023-03-24,2023-03-24,株式会社ｂｒｅｅｚｅ,,株式会社,大阪府,大阪市中央区,高津１丁目９番１０号インテリジェンスビル,,27,128,5420072,,,,,,,2023-03-24,1,,,,,ブリーゼ,0
627,3120001253474,新規,0,2023-03-24,2023-03-24,株式会社ホームネクサス,,株式会社,大阪府,大阪市城東区,関目４丁目６番１７号第１ケルンビル,,27,118,5360008,,,,,,,2023-03-24,1,,,,,ホームネクサス,0
637,3120901047298,新規,0,2023-03-24,2023-03-24,株式会社ＡＩＮ,,株式会社,大阪府,高槻市,辻子１丁目１９番１７号,00129858,27,207,5690036,,,,,,,2023-03-24,1,,,,,エーアイエヌ,0
639,3122003002545,新規,0,2023-03-24,2023-03-24,エルエルエフ合同会社,,合同会社,大阪府,大東市,北条６丁目３－２０,,27,218,5740011,,,,,,,2023-03-24,1,,,,,エルエルエフ,0
651,3140001129540,新規,0,2023-03-24,2023-03-24,株式会社明石めで鯛や,,株式会社,兵庫県,明石市,和坂１２番地の７,,28,203,6730012,,,,,,,2023-03-24,1,,,,,アカシメデタイヤ,0
657,3170003001851,新規,0,2023-03-24,2023-03-24,合同会社Ｐｉｎｋ　Ｗｉｎｄ　Ｅｒａ,,合同会社,和歌山県,有田市,宮原町滝川原１５９,,30,204,6490435,,,,,,,2023-03-24,1,,,,,ピンクウインドエラ,0
666,3250005008804,新規,0,2023-03-24,2023-03-24,医療法人さくらぎ循環器・内科クリニック,,その他の設立登記法人,山口県,岩国市,麻里布町７丁目２番１８号,,35,208,7400018,,,,,,,2023-03-24,1,,,,,サクラギジュンカンキナイカクリニック,0
673,3290001100949,新規,0,2023-03-24,2023-03-24,ＭａｋｅｒＫｉｔ株式会社,,株式会社,福岡県,福岡市中央区,今川１丁目２番１２ー５０２号ロマネスク大濠第５,,40,133,8100054,,,,,,,2023-03-24,1,,,,,メーカーキット,0
676,3290003013703,新規,0,2023-03-24,2023-03-24,合同会社Ｃｒｅａｔｉｏｎ＆Ｓａｌｖａｔｉｏｎ,,合同会社,福岡県,福岡市中央区,天神２丁目２番１２号Ｔ＆Ｊビルディング７Ｆ,,40,133,8100001,,,,,,,2023-03-24,1,,,,,クリエイションアンドサルベイション,0
684,3330003009770,新規,0,2023-03-24,2023-03-24,合同会社ＣＨＡＮＴ,,合同会社,熊本県,熊本市中央区,世安１丁目４番１号,,43,101,8600827,,,,,,,2023-03-24,1,,,,,シャンテ,0
686,3340001025447,新規,0,2023-03-24,2023-03-24,株式会社Ｊログデザイン工房樹,,株式会社,鹿児島県,日置市,東市来町養母２５４０番地１,,46,216,8992311,,,,,,,2023-03-24,1,,,,,ジェイログデザインコウボウイツキ,0
712,3700150114939,新規,0,2023-03-24,2023-03-24,ＮＥＸＴＯＲＣＨ　ＩＮＤＵＳＴＲＩＥＳ　ＣＯ．，ＬＴＤ．,,外国会社等,,,,,,,,Ｎｏ．６１，Ｙｕｄｏｎｇ　１ｓｔ　Ｒｏａｄ，Ｄｏｎｇｃｈｅｎｇ　Ｔｏｗｎ，Ｙａｎｇｄｏｎｇ　Ｄｉｓｔｒｉｃｔ，Ｙａｎｇｊｉａｎｇ　Ｃｉｔｙ,,,,,,2023-03-24,1,,,,,ネクストリツチインダストウリーズカンパニーリミテツド,0
719,4010001233882,新規,0,2023-03-24,2023-03-24,株式会社Ｍ＆Ａ総合研究所,,株式会社,東京都,千代田区,丸の内１丁目８番１号丸の内トラストタワーＮ館１８階,,13,101,1000005,,,,,,,2023-03-24,1,,,,,エムアンドエーソウゴウケンキュウジョ,0
720,4010001233916,新規,0,2023-03-24,2023-03-24,株式会社泡勝,,株式会社,東京都,中央区,銀座１丁目１２番４号Ｎ＆ＥＢＬＤ．６Ｆ,,13,102,1040061,,,,,,,2023-03-24,1,,,,,アワカツ,0
721,4010001233924,新規,0,2023-03-24,2023-03-24,株式会社Ａｘｃｒｅａｔｏｒ,,株式会社,東京都,中央区,銀座１丁目２２番１１号銀座大竹ビジデンス２階,,13,102,1040061,,,,,,,2023-03-24,1,,,,,アクリエイター,0
722,4010001233932,新規,0,2023-03-24,2023-03-24,株式会社ＮＹＴＧオーナーズ,,株式会社,東京都,文京区,関口１丁目５番１０号ＡｎｄＷｏｒｋｅｒ神楽坂,,13,105,1120014,,,,,,,2023-03-24,1,,,,,エヌワイティージーオーナーズ,0
724,4010003040146,新規,0,2023-03-24,2023-03-24,合同会社バイオ・メディカル・ラボ,,合同会社,東京都,千代田区,麹町２丁目１０番地３,,13,101,1020083,,,,,,,2023-03-24,1,,,,,バイオメディカルラボ,0
735,4010401173290,新規,0,2023-03-24,2023-03-24,株式会社ＴＭＫＬｉｖｅ,,株式会社,東京都,港区,南青山３丁目１番３６号青山丸竹ビル６Ｆ,,13,103,1070062,,,,,,,2023-03-24,1,,,,,ティーエムケーライブ,0
740,4010701044002,新規,0,2023-03-24,2023-03-24,株式会社ＳＯＬ,,株式会社,東京都,品川区,西五反田３丁目４番１０号目黒ＭＡＲＣレジデンスタワー９０５,,13,109,1410031,,,,,,,2023-03-24,1,,,,,ソル,0
741,4010701044027,新規,0,2023-03-24,2023-03-24,株式会社仁宗,,株式会社,東京都,品川区,大井４丁目２５－４２,,13,109,1400014,,,,,,,2023-03-24,1,,,,,ジンソウ,0
743,4010703006636,新規,0,2023-03-24,2023-03-24,ロータス合同会社,,合同会社,東京都,品川区,西品川２丁目２１番６号,,13,109,1410033,,,,,,,2023-03-24,1,,,,,ロータス,0
751,4011001152833,新規,0,2023-03-24,2023-03-24,株式会社Ｏｕｖｅｒ,,株式会社,東京都,目黒区,青葉台４丁目５－１Ｃｏｔｅｄｅｔｏｋｙｏ３０２,,13,110,1530042,,,,,,,2023-03-24,1,,,,,オーバー,0
752,4011001153261,新規,0,2023-03-24,2023-03-24,株式会社ＴＭ‐Ｂｉｏ,,株式会社,東京都,渋谷区,渋谷２丁目１９－１５宮益坂ビルディング６０９,,13,113,1500002,,,,,,,2023-03-24,1,,,,,ティーエムバイオ,0
753,4011001153344,新規,0,2023-03-24,2023-03-24,株式会社ＣＡＲ　ＡＮＤ　ＹＯＵＲＳ,,株式会社,東京都,目黒区,大橋２丁目２０番８,,13,110,1530044,,,,,,,2023-03-24,1,,,,,カーアンドユアーズ,0
754,4011001153360,新規,0,2023-03-24,2023-03-24,株式会社Ｙ２エナジーグループ,,株式会社,東京都,渋谷区,幡ヶ谷１丁目２番２号京王幡ヶ谷ビル４階,,13,113,1510072,,,,,,,2023-03-24,1,,,,,ワイズエナジーグループ,0
756,4011003016466,新規,0,2023-03-24,2023-03-24,ビットレップジャパン合同会社,,合同会社,東京都,渋谷区,神宮前６丁目２３番４号桑野ビル２階,,13,113,1500001,,,,,,,2023-03-24,1,,,,,ビットレップジャパン,0
759,4011101102259,新規,0,2023-03-24,2023-03-24,株式会社オモトド,,株式会社,東京都,新宿区,西新宿３丁目３番１３号西新宿水間ビル２Ｆ,,13,104,1600023,,,,,,,2023-03-24,1,,,,,オモトド,0
760,4011101102267,新規,0,2023-03-24,2023-03-24,柿の木坂アセットマネジメント株式会社,,株式会社,東京都,新宿区,原町３丁目１５番地１プラウド新宿牛込柳町９０４,,13,104,1620053,,,,,,,2023-03-24,1,,,,,カキノキザカアセットマネジメント,0
764,4011105010598,新規,0,2023-03-24,2023-03-24,一般社団法人ＴＵ１３,,その他の設立登記法人,東京都,新宿区,四谷２丁目９番地１５東京ユナイテッド綜合事務所内,,13,104,1600004,,,,,,,2023-03-24,1,,,,,ティーユージュウサン,0
765,4011201024519,新規,0,2023-03-24,2023-03-24,株式会社サンクチュアリ,,株式会社,東京都,中野区,中野２丁目１９－２リードシー中野ビル３Ｆ,,13,114,1640001,,,,,,,2023-03-24,1,,,,,サンクチュアリ,0
773,4011401024979,新規,0,2023-03-24,2023-03-24,株式会社大高建築,,株式会社,東京都,板橋区,富士見町１４番５号板橋本町オフィス２０４号室,,13,119,1740062,,,,,,,2023-03-24,1,,,,,ダイコウケンチク,0
774,4011401024995,新規,0,2023-03-24,2023-03-24,ＹＭＬコンサル株式会社,,株式会社,東京都,板橋区,常盤台１丁目６２番８号深田コーポ中板橋２０１号室,,13,119,1740071,,,,,,,2023-03-24,1,,,,,ワイエムエルコンサル,0
786,4011801042127,新規,0,2023-03-24,2023-03-24,株式会社Ｍａｒｖｅｌｏｕｓ　Ｖｅｈｉｃｌｅ,,株式会社,東京都,葛飾区,東金町７丁目２１番１１号,,13,122,1250041,,,,,,,2023-03-24,1,,,,,マーヴェラスヴィークル,0
790,4011803005569,新規,0,2023-03-24,2023-03-24,合同会社ＣＯＳＭＯ,,合同会社,東京都,足立区,本木西町１１番１２－１０１号,,13,121,1230856,,,,,,,2023-03-24,1,,,,,コスモ,0
794,4012803003042,新規,0,2023-03-24,2023-03-24,合同会社エムワイエム,,合同会社,東京都,国分寺市,東戸倉２丁目３－３８,,13,214,1850002,,,,,,,2023-03-24,1,,,,,エムワイエム,0
802,4013301050510,新規,0,2023-03-24,2023-03-24,海陸通商株式会社,,株式会社,東京都,豊島区,西池袋５丁目２６番１６号,,13,116,1710021,,,,,,,2023-03-24,1,,,,,カイリクツウショウ,0
811,4020001150796,新規,0,2023-03-24,2023-03-24,株式会社ＳＹＮＵＳ,,株式会社,神奈川県,川崎市中原区,新丸子東２丁目９２４－１６－３０２,,14,133,2110004,,,,,,,2023-03-24,1,,,,,サイナス,0
813,4020003023562,新規,0,2023-03-24,2023-03-24,Ｅｌｆ　Ｔｅｃｈ合同会社,,合同会社,神奈川県,横浜市旭区,中沢１丁目２６番地２９号,,14,112,2410814,,,,,,,2023-03-24,1,,,,,エルフテック,0
823,4030001073336,新規,0,2023-03-24,2023-03-24,広重産業株式会社,,株式会社,埼玉県,川口市,大字辻７６４番地,00129806,11,203,3340004,,,,,,,2023-03-24,1,,,,,ヒロシゲサンギョウ,0
828,4030001152981,新規,0,2023-03-24,2023-03-24,株式会社１８クリエイティット,,株式会社,埼玉県,さいたま市緑区,大字中尾１６５０番地３,,11,109,3360932,,,,,,,2023-03-24,1,,,,,ワンエイトクリエイティット,0
829,4030001152998,新規,0,2023-03-24,2023-03-24,堀竹総業株式会社,,株式会社,埼玉県,加須市,多門寺８１５番地,,11,210,3470012,,,,,,,2023-03-24,1,,,,,ホリタケソウギョウ,0
835,4030003021425,新規,0,2023-03-24,2023-03-24,合同会社ＪＲＫ,,合同会社,埼玉県,新座市,野火止６丁目３番２９号みずほ館１７・４０３号室,,11,230,3520011,,,,,,,2023-03-24,1,,,,,ジェイアールケー,0
838,4040001127594,新規,0,2023-03-24,2023-03-24,Ｇｂｏｒｅ株式会社,,株式会社,千葉県,松戸市,古ケ崎６４－１サンモールＹＡＭＡＺＡＫＩ２０１,,12,207,2710068,,,,,,,2023-03-24,1,,,,,ジーボア,0
839,4040001127636,新規,0,2023-03-24,2023-03-24,株式会社ＨＡＰＰＩＬＩＦＥ,,株式会社,千葉県,鎌ケ谷市,東道野辺３丁目４番３８号,,12,224,2730115,,,,,,,2023-03-24,1,,,,,ハッピーライフ,0
841,4040003022249,新規,0,2023-03-24,2023-03-24,ＭＥＧＡＬＩＮＥ　ＭＯＴＯＲＳ合同会社,,合同会社,千葉県,山武市,松尾町借毛本郷２２８８番地３－Ａ,,12,237,2891537,,,,,,,2023-03-24,1,,,,,メガラインモータース,0
842,4040005021934,新規,0,2023-03-24,2023-03-24,特定非営利活動法人ママのカラダケアＬａｂｏ,,その他の設立登記法人,千葉県,柏市,かやの町１番７０号,,12,217,2770846,,,,,,,2023-03-24,1,,,,,ママノカラダケアラボ,0
844,4050001052560,新規,0,2023-03-24,2023-03-24,ランドアーク株式会社,,株式会社,茨城県,つくば市,吾妻３丁目１３番地１柴原ビル１Ｆ－Ｂ号室,,08,220,3050031,,,,,,,2023-03-24,1,,,,,ランドアーク,0
848,4060001035820,新規,0,2023-03-24,2023-03-24,株式会社月とスパイス,,株式会社,栃木県,鹿沼市,末広町１９１６番地,,09,205,3220038,,,,,,,2023-03-24,1,,,,,ツキトスパイス,0
854,4070003004871,新規,0,2023-03-24,2023-03-24,合同会社グッドライフ,,合同会社,群馬県,前橋市,青梨子町６４４番地１,,10,201,3703573,,,,,,,2023-03-24,1,,,,,グッドライフ,0
858,4080403004751,新規,0,2023-03-24,2023-03-24,合同会社ＹＨＹ,,合同会社,静岡県,浜松市中区,元魚町７１番地の１ラルバディセコンド４０２,,22,131,4328026,,,,,,,2023-03-24,1,,,,,ワイエイチワイ,0
860,4100001036244,新規,0,2023-03-24,2023-03-24,服部企画株式会社,,株式会社,長野県,北佐久郡軽井沢町,大字追分１４４４番地５４,,20,321,3890115,,,,,,,2023-03-24,1,,,,,ハットリキカク,0
861,4100001036252,新規,0,2023-03-24,2023-03-24,株式会社ユウミ,,株式会社,長野県,諏訪郡下諏訪町,４１７７番地,,20,361,3930000,,,,,,,2023-03-24,1,,,,,ユウミ,0
875,4120001253416,新規,0,2023-03-24,2023-03-24,株式会社ＬＯＴＵＳ,,株式会社,大阪府,大阪市生野区,新今里５丁目９番９－２０１号,,27,116,5440001,,,,,,,2023-03-24,1,,,,,ロータス,0
877,4120003023684,新規,0,2023-03-24,2023-03-24,合同会社ＯＤＭ,,合同会社,大阪府,大阪市中央区,南本町４丁目５番７号東亜ビル５階,,27,128,5410054,,,,,,,2023-03-24,1,,,,,オーディーエム,0
890,4122001036817,新規,0,2023-03-24,2023-03-24,株式会社兜サービス,,株式会社,大阪府,東大阪市,川田４丁目３番９号,,27,227,5780905,,,,,,,2023-03-24,1,,,,,カブトサービス,0
892,4122003002544,新規,0,2023-03-24,2023-03-24,合同会社朝吉システムズ,,合同会社,大阪府,東大阪市,西堤１丁目３番２７号サンセット高井田２０３号,,27,227,5770042,,,,,,,2023-03-24,1,,,,,アサキチシステムズ,0
893,4130001073912,新規,0,2023-03-24,2023-03-24,株式会社育星舎ホールディングス,,株式会社,京都府,京都市北区,大将軍川端町９７番地,,26,101,6038332,,,,,,,2023-03-24,1,,,,,イクセイシャホールディングス,0
900,4140001129548,新規,0,2023-03-24,2023-03-24,株式会社ＫＡＲＲＹ,,株式会社,兵庫県,神戸市中央区,元町通３丁目９番４号６階,,28,110,6500022,,,,,,,2023-03-24,1,,,,,キャリー,0
902,4150003002909,新規,0,2023-03-24,2023-03-24,合同会社ａｐｐｒｏｓｅ,,合同会社,奈良県,橿原市,石川町２番地の２ハイム橿原３０１号,,29,205,6340045,,,,,,,2023-03-24,1,,,,,アップローズ,0
903,4170003001850,新規,0,2023-03-24,2023-03-24,合同会社ＫＵＺＵＨＡＲＡＨＤ,,合同会社,和歌山県,和歌山市,打越町３番１４号,,30,201,6410053,,,,,,,2023-03-24,1,,,,,クズハラエイチディー,0
907,4180005020146,新規,0,2023-03-24,2023-03-24,協同組合フレンドリー,,その他の設立登記法人,愛知県,小牧市,大字大草４６６３番地,,23,219,4850802,,,,,,,2023-03-24,1,,,,,フレンドリー,0
908,4180303005658,新規,0,2023-03-24,2023-03-24,Ａｖａｎｃｙ合同会社,,合同会社,愛知県,豊橋市,曙町字測点９６番地１,,23,201,4418151,,,,,,,2023-03-24,1,,,,,アヴァンシー,0
913,4200003005906,新規,0,2023-03-24,2023-03-24,シークレットサービス合同会社,,合同会社,岐阜県,揖斐郡池田町,白鳥５７８番地,,21,404,5032413,,,,,,,2023-03-24,1,,,,,シークレットサービス,0
916,4240001061253,新規,0,2023-03-24,2023-03-24,株式会社ＫＯＵＳＨＩＮ,,株式会社,広島県,広島市安芸区,矢野東４丁目２７番３号,,34,107,7360083,,,,,,,2023-03-24,1,,,,,コウシン,0
920,4250005008803,新規,0,2023-03-24,2023-03-24,一般社団法人日本知的障がい者フットソフトボール連盟,,その他の設立登記法人,山口県,山口市,鋳銭司１０８１２番地１,,35,203,7471221,,,,,,,2023-03-24,1,,,,,ニホンチテキショウガイシャフットソフトボールレンメイ,0
923,4260005011203,新規,0,2023-03-24,2023-03-24,医療法人社団たけだクリニック,,その他の設立登記法人,岡山県,倉敷市,連島町鶴新田１７３０番地３,,33,202,7128006,,,,,,,2023-03-24,1,,,,,タケダクリニック,0
931,4290001100980,新規,0,2023-03-24,2023-03-24,株式会社ＡＫＭホールディングス,,株式会社,福岡県,福岡市東区,千早４丁目１５番１２号４１０号室,,40,131,8130044,,,,,,,2023-03-24,1,,,,,エーケーエムホールディングス,0
932,4290003013702,新規,0,2023-03-24,2023-03-24,合同会社ＺＥＲＯＭＵＵＶ,,合同会社,福岡県,福岡市中央区,大名１丁目８－１８ロイヤルパークス大名４０４,,40,133,8100041,,,,,,,2023-03-24,1,,,,,ゼロムーヴ,0
934,4310003004533,新規,0,2023-03-24,2023-03-24,合同会社セレネ,,合同会社,長崎県,平戸市,岩の上町１０３３番地,,42,207,8595121,,,,,,,2023-03-24,1,,,,,セレネ,0
944,4350001018242,新規,0,2023-03-24,2023-03-24,株式会社Ｓｈｉｎ,,株式会社,宮崎県,小林市,細野７０９番地１２,,45,205,8860004,,,,,,,2023-03-24,1,,,,,シン,0
946,4360003012820,新規,0,2023-03-24,2023-03-24,合同会社ＲＩＴＡＩＳＭ,,合同会社,沖縄県,豊見城市,字豊崎一丁目６０８,,47,212,9010225,,,,,,,2023-03-24,1,,,,,リタイズム,0
947,4360005006804,新規,0,2023-03-24,2023-03-24,一般社団法人龍９の波動,,その他の設立登記法人,沖縄県,那覇市,おもろまち１丁目１－２５,,47,201,9000006,,,,,,,2023-03-24,1,,,,,リュウキュウノハドウ,0
948,4370001049748,新規,0,2023-03-24,2023-03-24,株式会社藤藏,,株式会社,宮城県,仙台市太白区,富沢２丁目１６番１号,,04,104,9820032,,,,,,,2023-03-24,1,,,,,フジクラ,0
949,4370001049756,新規,0,2023-03-24,2023-03-24,菊地商会株式会社,,株式会社,宮城県,角田市,角田字柳町４６番地１４,,04,208,9811505,,,,,,,2023-03-24,1,,,,,キクチショウカイ,0
950,4370003006045,新規,0,2023-03-24,2023-03-24,合同会社タクスル,,合同会社,宮城県,仙台市宮城野区,宮城野２丁目１３－１４宮城野桜ハイツ４０１号,,04,102,9830045,,,,,,,2023-03-24,1,,,,,タクスル,0
972,4430003014850,新規,0,2023-03-24,2023-03-24,合同会社ｍａｄｏｋａ,,合同会社,北海道,札幌市南区,南三十二条西９丁目３－１８－１０１,,01,106,0050032,,,,,,,2023-03-24,1,,,,,マドカ,0
976,4460101007357,新規,0,2023-03-24,2023-03-24,Ｒａｉｓｅホールディングス株式会社,,株式会社,北海道,上川郡清水町,北三条５丁目５番地,,01,636,0890133,,,,,,,2023-03-24,1,,,,,レイズホールディングス,0
977,4460103001523,新規,0,2023-03-24,2023-03-24,合同会社エフプラス,,合同会社,北海道,帯広市,大通南１丁目５番地一番舘ビル２０７号室,,01,207,0800010,,,,,,,2023-03-24,1,,,,,エフプラス,0
978,4470001019526,新規,0,2023-03-24,2023-03-24,株式会社ＰＤＳ,,株式会社,香川県,観音寺市,柞田町甲２４５３番地１０,,37,205,7680040,,,,,,,2023-03-24,1,,,,,ピーディーエス,0
979,4470003002372,新規,0,2023-03-24,2023-03-24,合同会社ＦｏｕｒＳｅａｓｏｎｓ,,合同会社,香川県,高松市,庵治町５９１９番地１,,37,201,7610130,,,,,,,2023-03-24,1,,,,,フォーシーズンズ,0
983,4700150114938,新規,0,2023-03-24,2023-03-24,Ｘｉａｍｅｎａｉｚｈｏｎｇｐｉｎｇｓｈａｎｇｍａｏｙｏｕｘｉａｎｇｏｎｇｓｉ,,外国会社等,,,,,,,,Ｒｏｏｍ　２２０４，Ｎｏ．３２０，Ｌｅｈａｉ　Ｂｅｉｌｉ，Ｊｉｍｅｉ　Ｄｉｓｔｒｉｃｔ，Ｘｉａｍｅｎ,,,,,,2023-03-24,1,,,,,アモイアイゾンピングシヨウボウユウゲンコウシ,0
984,4700150114946,新規,0,2023-03-24,2023-03-24,愛と理,,その他,埼玉県,熊谷市,中西４丁目３－１４,,11,202,3600013,,,,,,,2023-03-24,1,,,,,アイトコトワリ,0
996,5010001233799,新規,0,2023-03-24,2023-03-24,株式会社Ｓｏｕｌ　ｂａｓ,,株式会社,東京都,千代田区,鍛治町１‐５‐４神田ＮＡビル７Ｆ,,13,101,1000000,,,,,,,2023-03-24,1,,,,,ソウルバス,0
997,5010001233915,新規,0,2023-03-24,2023-03-24,株式会社Ｏｖｅｒｆｏｃｕｓ,,株式会社,東京都,千代田区,有楽町１丁目２番２号東宝日比谷ビル９Ｆ,,13,101,1000006,,,,,,,2023-03-24,1,,,,,オーバーフォーカス,0
999,5010003040145,新規,0,2023-03-24,2023-03-24,合同会社ＢＣＪ‐７１,,合同会社,東京都,千代田区,丸の内１丁目１番１号パレスビル５階,,13,101,1000005,,,,,,,2023-03-24,1,,,,,ビーシージェイセブンティーワン,0
1005,5010401173240,新規,0,2023-03-24,2023-03-24,株式会社ＶｉｔａＣａｆｅ　Ｊａｐａｎ,,株式会社,東京都,港区,赤坂３丁目１５番４号赤坂バリ島ビル３階,,13,103,1070052,,,,,,,2023-03-24,1,,,,,ビタカフェジャパン,0
1006,5010401173249,新規,0,2023-03-24,2023-03-24,株式会社ＢＯＮＤ,,株式会社,東京都,港区,南麻布１丁目５番３１号ドゥーエ南麻布４０５号室,,13,103,1060047,,,,,,,2023-03-24,1,,,,,ボンド,0
1007,5010401173257,新規,0,2023-03-24,2023-03-24,株式会社ＷａｎｏＳｏｆｔジャパン,,株式会社,東京都,港区,浜松町２丁目２番１５号浜松町ダイヤビル２階,,13,103,1050013,,,,,,,2023-03-24,1,,,,,ワノソフトジャパン,0
1012,5010501050190,新規,0,2023-03-24,2023-03-24,株式会社ＬＰＷ東京,,株式会社,東京都,台東区,駒形２丁目３番４号,,13,106,1110043,,,,,,,2023-03-24,1,,,,,エルピーダブルトーキョウ,0
1013,5010501050199,新規,0,2023-03-24,2023-03-24,株式会社ＲｅＰｅａｃｅ,,株式会社,東京都,台東区,蔵前４丁目３０番７号タイガービル５５号,,13,106,1110051,,,,,,,2023-03-24,1,,,,,リピース,0
1016,5010603010076,新規,0,2023-03-24,2023-03-24,ＴＳＵＮＡＧＵクリエイト合同会社,,合同会社,東京都,江東区,千田２－１１,,13,108,1350013,,,,,,,2023-03-24,1,,,,,ツナグクリエイト,0
1021,5010701044026,新規,0,2023-03-24,2023-03-24,株式会社ＩＣＣ,,株式会社,東京都,品川区,旗の台６丁目２３番１０－５０２号,,13,109,1420064,,,,,,,2023-03-24,1,,,,,アイシーシー,0
1024,5010801033795,新規,0,2023-03-24,2023-03-24,株式会社キカクムゲン,,株式会社,東京都,大田区,田園調布５丁目３８－７,,13,111,1450071,,,,,,,2023-03-24,1,,,,,キカクムゲン,0
1029,5010901052761,新規,0,2023-03-24,2023-03-24,株式会社建築工房ｔａｋｅ．２４,,株式会社,東京都,世田谷区,深沢４丁目２８番８号シャンブル駒沢１０３,,13,112,1580081,,,,,,,2023-03-24,1,,,,,ケンチクコウボウタケニシ,0
1031,5011001153252,新規,0,2023-03-24,2023-03-24,株式会社Ａｒｋ,,株式会社,東京都,渋谷区,恵比寿西１丁目８－２恵比寿ウエストパレス４１１号室,,13,113,1500021,,,,,,,2023-03-24,1,,,,,アーク,0
1032,5011001153269,新規,0,2023-03-24,2023-03-24,株式会社ＭａｋｅＸ,,株式会社,東京都,渋谷区,道玄坂１丁目１０番８号渋谷道玄坂東急ビル２Ｆ－Ｃ,,13,113,1500043,,,,,,,2023-03-24,1,,,,,メイクエックス,0
1033,5011001153277,新規,0,2023-03-24,2023-03-24,株式会社ＨＡＲＵＬＡＢＯ,,株式会社,東京都,渋谷区,道玄坂１丁目１０番８号渋谷道玄坂東急ビル２Ｆ－Ｃ,,13,113,1500043,,,,,,,2023-03-24,1,,,,,ハルラボ,0
1034,5011001153302,新規,0,2023-03-24,2023-03-24,アンドクリーム株式会社,,株式会社,東京都,渋谷区,神山町１７－３,,13,113,1500047,,,,,,,2023-03-24,1,,,,,アンドクリーム,0
1035,5011001153343,新規,0,2023-03-24,2023-03-24,株式会社本間文筆,,株式会社,東京都,渋谷区,恵比寿２丁目２８番１０号,,13,113,1500013,,,,,,,2023-03-24,1,,,,,ホンマブンピツ,0
1038,5011003016515,新規,0,2023-03-24,2023-03-24,合同会社キャロット,,合同会社,東京都,渋谷区,広尾１丁目１４番１５号クオリア広尾１００１,,13,113,1500012,,,,,,,2023-03-24,1,,,,,キャロット,0
1039,5011005009995,新規,0,2023-03-24,2023-03-24,特定非営利活動法人みんなの未来,,その他の設立登記法人,東京都,渋谷区,千駄ヶ谷３丁目５３番１２号３０１号室,,13,113,1510051,,,,,,,2023-03-24,1,,,,,ミンナノミライ,0
1042,5011101102258,新規,0,2023-03-24,2023-03-24,株式会社エリム,,株式会社,東京都,新宿区,北新宿１丁目１－１６ＪＳビル９０３号室,,13,104,1690074,,,,,,,2023-03-24,1,,,,,エリム,0
1046,5011103012843,新規,0,2023-03-24,2023-03-24,合同会社ＴＬＧ,,合同会社,東京都,新宿区,西新宿８丁目１４番１号,,13,104,1600023,,,,,,,2023-03-24,1,,,,,ティーエルジー,0
1047,5011103012851,新規,0,2023-03-24,2023-03-24,合同会社ＶＩＮＣＩ,,合同会社,東京都,新宿区,西新宿３丁目３番１３号西新宿水間ビル６階,,13,104,1600023,,,,,,,2023-03-24,1,,,,,ヴィンチ,0
1048,5011105010597,新規,0,2023-03-24,2023-03-24,一般社団法人ＴＵ１２,,その他の設立登記法人,東京都,新宿区,四谷２丁目９番地１５東京ユナイテッド綜合事務所内,,13,104,1600004,,,,,,,2023-03-24,1,,,,,ティーユージュウニ,0
1049,5011301028550,新規,0,2023-03-24,2023-03-24,株式会社ＭＯＣＯＰＬＡホールディングス,,株式会社,東京都,杉並区,荻窪５丁目９番９号ペンギン荻窪ビル１階,,13,115,1670051,,,,,,,2023-03-24,1,,,,,モコプラホールディングス,0
1050,5011403003947,新規,0,2023-03-24,2023-03-24,合同会社Ｑｅｓｈｅｔｈ,,合同会社,東京都,板橋区,若木２丁目９番１３号ロジュマン板橋若木Ｉ－３０１,00129851,13,119,1740065,,,,,,,2023-03-24,1,,,,,ケシェット,0
1053,5011703003424,新規,0,2023-03-24,2023-03-24,ＨＯＲＩケアサービス合同会社,,合同会社,東京都,江戸川区,南小岩３丁目２－１２,,13,123,1330056,,,,,,,2023-03-24,1,,,,,ホリケアサービス,0
1058,5012401040305,新規,0,2023-03-24,2023-03-24,株式会社ＰＩＲＡ,,株式会社,東京都,武蔵野市,中町１丁目３８－６,,13,203,1800006,,,,,,,2023-03-24,1,,,,,ピラ,0
1060,5013303006550,新規,0,2023-03-24,2023-03-24,合同会社スカイタワー,,合同会社,東京都,豊島区,巣鴨４丁目２４番２－６０２号,,13,116,1700002,,,,,,,2023-03-24,1,,,,,スカイタワー,0
1068,5020001150787,新規,0,2023-03-24,2023-03-24,アースジャパン株式会社,,株式会社,神奈川県,横浜市泉区,和泉中央南１丁目３９－４０,,14,116,2450023,,,,,,,2023-03-24,1,,,,,アースジャパン,0
1069,5020001150795,新規,0,2023-03-24,2023-03-24,はちのじ株式会社,,株式会社,神奈川県,横浜市戸塚区,舞岡町１０９３番地４モアクレスト戸塚９０５号,,14,110,2440813,,,,,,,2023-03-24,1,,,,,ハチノジ,0
1072,5020003023545,新規,0,2023-03-24,2023-03-24,合同会社ＣＴＮ,,合同会社,神奈川県,横浜市鶴見区,矢向３丁目１５番１５号,,14,101,2300001,,,,,,,2023-03-24,1,,,,,シーティーエヌ,0
1086,5030001152824,新規,0,2023-03-24,2023-03-24,サクラ流通株式会社,,株式会社,埼玉県,羽生市,大字弥勒９９３番地１,,11,216,3480004,,,,,,,2023-03-24,1,,,,,サクラリュウツウ,0
1087,5030001152964,新規,0,2023-03-24,2023-03-24,文西株式会社,,株式会社,埼玉県,川口市,西川口４丁目３番２号,,11,203,3320021,,,,,,,2023-03-24,1,,,,,フミニシ,0
1088,5030001152980,新規,0,2023-03-24,2023-03-24,株式会社楽食,,株式会社,埼玉県,上尾市,大字小敷谷７３０番地の５,,11,219,3620064,,,,,,,2023-03-24,1,,,,,ガクショク,0
1089,5030001152989,新規,0,2023-03-24,2023-03-24,株式会社ＯＫ　Ｂｏｄｙ　ｗｏｒｋｓ,,株式会社,埼玉県,さいたま市緑区,大字上野田４５０番地,,11,109,3360977,,,,,,,2023-03-24,1,,,,,オーケーボディワークス,0
1091,5030003021424,新規,0,2023-03-24,2023-03-24,合同会社ステイブル,,合同会社,埼玉県,川口市,南町１丁目１１－３３,,11,203,3320026,,,,,,,2023-03-24,1,,,,,ステイブル,0
1097,5040001127610,新規,0,2023-03-24,2023-03-24,株式会社樽味商店,,株式会社,千葉県,印西市,別所１０１８番地２,,12,231,2701332,,,,,,,2023-03-24,1,,,,,タルミショウテン,0
1098,5040001127635,新規,0,2023-03-24,2023-03-24,Ｋａｗａｌｅｃ株式会社,,株式会社,千葉県,市川市,北方１丁目２７番４号,,12,203,2720815,,,,,,,2023-03-24,1,,,,,カワレック,0
1099,5040001127643,新規,0,2023-03-24,2023-03-24,株式会社橘果,,株式会社,千葉県,千葉市花見川区,畑町１３５７番地,,12,102,2620018,,,,,,,2023-03-24,1,,,,,キッカ,0
1100,5040003022248,新規,0,2023-03-24,2023-03-24,ＳＡＨＩＲＡ　ＴＲＡＤＩＮＧ合同会社,,合同会社,千葉県,山武市,松尾町借毛本郷２３００番地２－Ａ,,12,237,2891537,,,,,,,2023-03-24,1,,,,,サヒラトレーディング,0
1101,5040003022264,新規,0,2023-03-24,2023-03-24,合同会社坂野,,合同会社,千葉県,千葉市中央区,要町１２－４－２０６,,12,101,2600017,,,,,,,2023-03-24,1,,,,,サカノ,0
1108,5070003004870,新規,0,2023-03-24,2023-03-24,合同会社ライフサポート,,合同会社,群馬県,桐生市,川内町２丁目９８番地の６,,10,203,3760041,,,,,,,2023-03-24,1,,,,,ライフサポート,0
1112,5080101023862,新規,0,2023-03-24,2023-03-24,Ｎｏｒｔｈ　Ｓｔａｒ株式会社,,株式会社,静岡県,下田市,須崎９６１－５,,22,219,4150014,,,,,,,2023-03-24,1,,,,,ノーススター,0
1113,5080102021485,新規,0,2023-03-24,2023-03-24,有限会社スーパー青市,,有限会社,静岡県,賀茂郡南伊豆町,青市１７４０番地,,22,304,4150151,,,,,,,2023-03-24,1,,,,,スーパーアオイチ,0
1114,5080103002765,新規,0,2023-03-24,2023-03-24,Ｌｉｆｅ　Ｓｔｙｌｅ合同会社,,合同会社,静岡県,熱海市,上多賀１０６５－４１４,,22,205,4130101,,,,,,,2023-03-24,1,,,,,ライフスタイル,0
1131,5120001253456,新規,0,2023-03-24,2023-03-24,ＧＵＤＳＵＮパートナーズ株式会社,,株式会社,大阪府,大阪市北区,中崎１丁目１１－１０,,27,127,5300016,,,,,,,2023-03-24,1,,,,,グッサンパートナーズ,0
1135,5120003023683,新規,0,2023-03-24,2023-03-24,合同会社ｔｏｍｏｒｒｏｗ　ａｒｋ,,合同会社,大阪府,大阪市中央区,東心斎橋１丁目１２番３号協栄ビル２０３,,27,128,5420083,,,,,,,2023-03-24,1,,,,,トゥモローアーク,0
1142,5120901047296,新規,0,2023-03-24,2023-03-24,株式会社日本樽産業,,株式会社,大阪府,摂津市,正雀２丁目１０番１０号,,27,224,5660023,,,,,,,2023-03-24,1,,,,,ニホンタルサンギョウ,0
1149,5130001073894,新規,0,2023-03-24,2023-03-24,株式会社Ｈｉｒｏｉ,,株式会社,京都府,京田辺市,三山木北垣内４８番地１サンリット三山木１０１,,26,211,6100313,,,,,,,2023-03-24,1,,,,,ヒロイ,0
1161,5140001129539,新規,0,2023-03-24,2023-03-24,株式会社ＧＲＥＥＮ　ＵＮＩＯＮ,,株式会社,兵庫県,明石市,朝霧南町２丁目３７９１番地の２１,,28,203,6730870,,,,,,,2023-03-24,1,,,,,グリーンユニオン,0
1162,5140001129547,新規,0,2023-03-24,2023-03-24,あかしみらい株式会社,,株式会社,兵庫県,明石市,大久保町谷八木５８０－１６,,28,203,6740062,,,,,,,2023-03-24,1,,,,,アカシミライ,0
1166,5150001026256,新規,0,2023-03-24,2023-03-24,株式会社ＩＮＡＮＴＥ,,株式会社,奈良県,北葛城郡広陵町,大字南郷９６３番地１４,,29,426,6350814,,,,,,,2023-03-24,1,,,,,イナンテ,0
1178,5190001030270,新規,0,2023-03-24,2023-03-24,ＳＴＡＲ　ＬＩＮＥ株式会社,,株式会社,三重県,四日市市,鹿間町４６１－５,,24,202,5121113,,,,,,,2023-03-24,1,,,,,スターライン,0
1179,5190003004272,新規,0,2023-03-24,2023-03-24,３ＮＴ合同会社,,合同会社,三重県,伊勢市,小俣町元町７１２,,24,203,5190503,,,,,,,2023-03-24,1,,,,,スリーエヌティー,0
1182,5200001041092,新規,0,2023-03-24,2023-03-24,株式会社カンチホールディングス,,株式会社,岐阜県,岐阜市,鹿島町６丁目２７番地,,21,201,5008323,,,,,,,2023-03-24,1,,,,,カンチホールディングス,0
1192,5240003006065,新規,0,2023-03-24,2023-03-24,合同会社広島ふとんサービス,,合同会社,広島県,広島市南区,本浦町３９番１７号,,34,103,7340047,,,,,,,2023-03-24,1,,,,,ヒロシマフトンサービス,0
1194,5250001020026,新規,0,2023-03-24,2023-03-24,株式会社Ｈ,,株式会社,山口県,下関市,長府扇町６－３８,,35,201,7520927,,,,,,,2023-03-24,1,,,,,エイチ,0
1199,5260005011202,新規,0,2023-03-24,2023-03-24,医療法人社団ヘリオトロープ,,その他の設立登記法人,岡山県,倉敷市,水島高砂町５－１５,,33,202,7128066,,,,,,,2023-03-24,1,,,,,ヘリオトロープ,0
1219,5320001019647,新規,0,2023-03-24,2023-03-24,株式会社ＧＬＡＮＺ　Ｋｙｏｅｉ,,株式会社,大分県,大分市,二又町３丁目１番１４号Ｋｙｏｅｉビル２Ｆ,,44,201,8700887,,,,,,,2023-03-24,1,,,,,グランツキョーエイ,0
1222,5400003003046,新規,0,2023-03-24,2023-03-24,合同会社ＴＨＲＥＥ　ＢＵＩＬＤ,,合同会社,岩手県,北上市,青柳町２丁目５－３８プラムビル１Ｆ,,03,206,0240031,,,,,,,2023-03-24,1,,,,,スリービルド,0
1224,5430001088672,新規,0,2023-03-24,2023-03-24,株式会社ｃｎｃｔ,,株式会社,北海道,夕張郡長沼町,東８線北５番地,,01,428,0691317,,,,,,,2023-03-24,1,,,,,シーエヌシーティー,0
1227,5460101007356,新規,0,2023-03-24,2023-03-24,株式会社帯広みなぽっけ,,株式会社,北海道,帯広市,西十七条南３７丁目５番地１７,,01,207,0800027,,,,,,,2023-03-24,1,,,,,オビヒロミナポッケ,0
1232,5470005006494,新規,0,2023-03-24,2023-03-24,一般社団法人くくる多度津,,その他の設立登記法人,香川県,仲多度郡多度津町,大通り３番４０号,,37,404,7640005,,,,,,,2023-03-24,1,,,,,ククルタドツ,0
1233,5490001010432,新規,0,2023-03-24,2023-03-24,株式会社コベツサイテキ,,株式会社,高知県,高岡郡津野町,赤木１４４２番地２,,39,411,7850219,,,,,,,2023-03-24,1,,,,,コベツサイテキ,0
1240,5700150114945,新規,0,2023-03-24,2023-03-24,Ｈａｉ　Ｄｉ　Ｌａｏ　Ｈｏｌｄｉｎｇｓ　Ｐｔｅ．Ｌｔｄ．,,外国会社等,,,,,,,,８０　Ｒｏｂｉｎｓｏｎ　Ｒｏａｄ　＃０２－００　Ｓｉｎｇａｐｏｒｅ　０６８８９８,,,,,,2023-03-24,1,,,,,ハイデイラオホールデイングスプライベートリミテツド,0
1256,6010001233848,新規,0,2023-03-24,2023-03-24,Ｅ＆Ｅ技研株式会社,,株式会社,東京都,千代田区,神田多町２丁目２番地１５,,13,101,1010046,,,,,,,2023-03-24,1,,,,,イーアンドイーギケン,0
1257,6010001233906,新規,0,2023-03-24,2023-03-24,株式会社ＴＭＧ,,株式会社,東京都,中央区,銀座１丁目２２番１１号銀座大竹ビジデンス２階,,13,102,1040061,,,,,,,2023-03-24,1,,,,,ティーエムジー,0
1258,6010001233914,新規,0,2023-03-24,2023-03-24,株式会社ＢＣＪ‐７２,,株式会社,東京都,千代田区,丸の内１丁目１番１号パレスビル５階,,13,101,1000005,,,,,,,2023-03-24,1,,,,,ビーシージェイセブンティートゥー,0
1259,6010001233939,新規,0,2023-03-24,2023-03-24,アンドスマイル株式会社,,株式会社,東京都,千代田区,鍛冶町１丁目１０－６,,13,101,1010044,,,,,,,2023-03-24,1,,,,,アンドスマイル,0
1260,6010001233963,新規,0,2023-03-24,2023-03-24,株式会社ユアウィル,,株式会社,東京都,千代田区,九段南１丁目５番６号りそな九段ビル５Ｆ、ＫＳフロア,,13,101,1020074,,,,,,,2023-03-24,1,,,,,ユアウィル,0
1263,6010003040136,新規,0,2023-03-24,2023-03-24,ＷＢＳ合同会社,,合同会社,東京都,中央区,日本橋蛎殻町１丁目１９番３号,,13,102,1030014,,,,,,,2023-03-24,1,,,,,ダブリュービーエス,0
1274,6010401173215,新規,0,2023-03-24,2023-03-24,株式会社トマッティー,,株式会社,東京都,港区,北青山３丁目５番４３号表参道ＬＡＢ２階,,13,103,1070061,,,,,,,2023-03-24,1,,,,,トマッティー,0
1275,6010403029778,新規,0,2023-03-24,2023-03-24,ｃｏｃｉｉ合同会社,,合同会社,東京都,港区,海岸２丁目６番３１号,,13,103,1050022,,,,,,,2023-03-24,1,,,,,コチ,0
1276,6010403029786,新規,0,2023-03-24,2023-03-24,オフィスルリユール合同会社,,合同会社,東京都,港区,南青山２丁目２番１５号,,13,103,1070062,,,,,,,2023-03-24,1,,,,,オフィスルリユール,0
1280,6010703006634,新規,0,2023-03-24,2023-03-24,ハッピーインバウンド合同会社,,合同会社,東京都,品川区,西五反田３丁目１５－６リードシー目黒不動前ビル１－１,,13,109,1410031,,,,,,,2023-03-24,1,,,,,ハッピーインバウンド,0
1281,6010801033803,新規,0,2023-03-24,2023-03-24,株式会社Ｃａｒｔｅｌｌｏ,,株式会社,東京都,大田区,上池台４丁目２－２１サンガーデン２０１,,13,111,1450064,,,,,,,2023-03-24,1,,,,,カルテッロ,0
1283,6010901052760,新規,0,2023-03-24,2023-03-24,株式会社Ｒ’ｏＭ,,株式会社,東京都,世田谷区,三軒茶屋１丁目３１番１－１０３号,,13,112,1540024,,,,,,,2023-03-24,1,,,,,ロム,0
1284,6010903008042,新規,0,2023-03-24,2023-03-24,ＳＫＹ合同会社,,合同会社,東京都,世田谷区,代沢３丁目２４－１９,,13,112,1550032,,,,,,,2023-03-24,1,,,,,スカイ,0
1287,6011001153169,新規,0,2023-03-24,2023-03-24,ＥＺＥＥ　ＰＲＯＤＵＣＴＳ株式会社,,株式会社,東京都,渋谷区,宇田川町３６－６ワールド宇田川ビル６Ｆ,,13,113,1500042,,,,,,,2023-03-24,1,,,,,イージープロダクツ,0
1288,6011001153251,新規,0,2023-03-24,2023-03-24,株式会社ｋｅｙ　Ｒｅｉ　ｊａｚｚ,,株式会社,東京都,渋谷区,千駄ヶ谷３丁目１７－３ＬＡＭＰ北参道２Ｆ,,13,113,1510051,,,,,,,2023-03-24,1,,,,,キーレイジャズ,0
1289,6011001153342,新規,0,2023-03-24,2023-03-24,株式会社パブリックボーダーズ,,株式会社,東京都,渋谷区,道玄坂１丁目１０番８号渋谷道玄坂東急ビル２Ｆ－Ｃ,,13,113,1500043,,,,,,,2023-03-24,1,,,,,パブリックボーダーズ,0
1290,6011003016514,新規,0,2023-03-24,2023-03-24,合同会社ａｖｅｃｔｏｉ,,合同会社,東京都,渋谷区,松濤１丁目７番１０号,,13,113,1500046,,,,,,,2023-03-24,1,,,,,アヴェクトワ,0
1294,6011103012850,新規,0,2023-03-24,2023-03-24,合同会社Ｋ　ＦＵＮＤｓ,,合同会社,東京都,新宿区,住吉町４番６号ニュー岡本ビル５階,,13,104,1620065,,,,,,,2023-03-24,1,,,,,ケーファンズー,0
1296,6011105010596,新規,0,2023-03-24,2023-03-24,一般社団法人ＴＵ１１,,その他の設立登記法人,東京都,新宿区,四谷２丁目９番地１５東京ユナイテッド綜合事務所内,,13,104,1600004,,,,,,,2023-03-24,1,,,,,ティーユージュウイチ,0
1300,6011501029091,新規,0,2023-03-24,2023-03-24,東方株式会社,,株式会社,東京都,北区,堀船３丁目２４番４－４０３号,,13,117,1140004,,,,,,,2023-03-24,1,,,,,トウホウ,0
1303,6011703003423,新規,0,2023-03-24,2023-03-24,太陽合同会社,,合同会社,東京都,江戸川区,鹿骨６丁目５番１０号,,13,123,1330073,,,,,,,2023-03-24,1,,,,,タイヨウ,0
1312,6012401040304,新規,0,2023-03-24,2023-03-24,株式会社さとみ,,株式会社,東京都,府中市,日新町２丁目３０－２０,,13,206,1830036,,,,,,,2023-03-24,1,,,,,サトミ,0
1313,6012403005890,新規,0,2023-03-24,2023-03-24,アクシア合同会社,,合同会社,東京都,武蔵野市,吉祥寺本町１丁目２０番１号吉祥寺永谷シティプラザ１００２,,13,203,1800004,,,,,,,2023-03-24,1,,,,,アクシア,0
1320,6013301050491,新規,0,2023-03-24,2023-03-24,株式会社ＩＳＳＥＩ,,株式会社,東京都,豊島区,要町３丁目４番１５号,,13,116,1710043,,,,,,,2023-03-24,1,,,,,イッセイ,0
1335,6020003023577,新規,0,2023-03-24,2023-03-24,アミテック合同会社,,合同会社,神奈川県,横浜市西区,浅間町１丁目４番３号ウィザードビル４０２,,14,103,2200072,,,,,,,2023-03-24,1,,,,,アミテック,0
1336,6020005015903,新規,0,2023-03-24,2023-03-24,医療法人誠稜会,,その他の設立登記法人,神奈川県,横浜市青葉区,あざみ野１丁目１１番地４みつまるビル１－Ａ,,14,117,2250011,,,,,,,2023-03-24,1,,,,,セイリョウカイ,0
1338,6021001078522,新規,0,2023-03-24,2023-03-24,株式会社ＫＯＫＥＮ,,株式会社,神奈川県,相模原市中央区,淵野辺４丁目２４番１号,,14,152,2520206,,,,,,,2023-03-24,1,,,,,コーケン,0
1342,6021003012891,新規,0,2023-03-24,2023-03-24,合同会社ブリーズパートナー,,合同会社,神奈川県,藤沢市,湘南台６丁目５３番地４号,,14,205,2520804,,,,,,,2023-03-24,1,,,,,ブリーズパートナー,0
1350,6030001152955,新規,0,2023-03-24,2023-03-24,株式会社Ｎ．Ａ　ＴＲＡＤＩＮＧ,,株式会社,埼玉県,行田市,大字斎条４４９番地,,11,206,3610005,,,,,,,2023-03-24,1,,,,,エヌエートレーディング,0
1351,6030001152971,新規,0,2023-03-24,2023-03-24,株式会社ウェルスマイル,,株式会社,埼玉県,さいたま市見沼区,大字大谷１７８０番地１９,,11,104,3370014,,,,,,,2023-03-24,1,,,,,ウェルスマイル,0
1352,6030001152988,新規,0,2023-03-24,2023-03-24,株式会社エクスブライト,,株式会社,埼玉県,熊谷市,小泉１００,,11,202,3600122,,,,,,,2023-03-24,1,,,,,エクスブライト,0
1356,6040001127618,新規,0,2023-03-24,2023-03-24,株式会社ユニコーンジャパン,,株式会社,千葉県,市原市,犬成６５１番地２,,12,219,2900166,,,,,,,2023-03-24,1,,,,,ユニコーンジャパン,0
1357,6040001127650,新規,0,2023-03-24,2023-03-24,株式会社新房総開発,,株式会社,千葉県,四街道市,大日９０１番地１０,,12,228,2840001,,,,,,,2023-03-24,1,,,,,シンボウソウカイハツ,0
1360,6040003022247,新規,0,2023-03-24,2023-03-24,ＴＨＵＦＡＩＬ　ＴＲＡＤＩＮＧ合同会社,,合同会社,千葉県,山武市,上横地３１８１番地１,,12,237,2891313,,,,,,,2023-03-24,1,,,,,トゥファイルトレーディング,0
1365,6050005013227,新規,0,2023-03-24,2023-03-24,医療法人社団小沢眼科会,,その他の設立登記法人,茨城県,笠間市,五平字新地７２番１,,08,216,3091702,,,,,,,2023-03-24,1,,,,,コザワガンカカイ,0
1380,6100001036250,新規,0,2023-03-24,2023-03-24,株式会社ＪＡＰＡＮ　ＢＵＩＬＤ,,株式会社,長野県,埴科郡坂城町,大字坂城字下中川原１０３３３－６,,20,521,3890601,,,,,,,2023-03-24,1,,,,,ジャパンビルド,0
1396,6120001253455,新規,0,2023-03-24,2023-03-24,株式会社川,,株式会社,大阪府,大阪市此花区,西九条３丁目４番７号グレイスハイツＩＩ５０２号,00129847,27,104,5540012,,,,,,,2023-03-24,1,,,,,セン,0
1397,6120001253463,新規,0,2023-03-24,2023-03-24,株式会社テラインターナショナル,,株式会社,大阪府,大阪市淀川区,西宮原１丁目５－３３新大阪飯田ビル１Ｆ,,27,123,5320004,,,,,,,2023-03-24,1,,,,,テラインターナショナル,0
1398,6120001253471,新規,0,2023-03-24,2023-03-24,株式会社ＯＭＹ,,株式会社,大阪府,大阪市東住吉区,中野２丁目４番２６号,,27,121,5460012,,,,,,,2023-03-24,1,,,,,オーエムワイ,0
1402,6120101067177,新規,0,2023-03-24,2023-03-24,Ｃ・Ｂ・Ｌ株式会社,,株式会社,大阪府,河内長野市,喜多町７２９番地の３,,27,216,5860033,,,,,,,2023-03-24,1,,,,,シービーエル,0
1403,6120101067193,新規,0,2023-03-24,2023-03-24,株式会社ｔｓｎ,,株式会社,大阪府,堺市西区,山田４丁２０５６－１,,27,144,5938316,,,,,,,2023-03-24,1,,,,,ティーエスエヌ,0
1414,6140001129546,新規,0,2023-03-24,2023-03-24,株式会社Ｔ．ＭＧＴ,,株式会社,兵庫県,丹波市,山南町坂尻２１３番地,,28,223,6693162,,,,,,,2023-03-24,1,,,,,ティーエムジーティー,0
1417,6140003018879,新規,0,2023-03-24,2023-03-24,ｓｕｋｉｍａ合同会社,,合同会社,兵庫県,川西市,向陽台３丁目５ー５４,,28,217,6660115,,,,,,,2023-03-24,1,,,,,スキマ,0
1421,6150001026255,新規,0,2023-03-24,2023-03-24,株式会社ＦＲＵＯＲ,,株式会社,奈良県,吉野郡天川村,大字洞川５０９番地の１,,29,446,6380431,,,,,,,2023-03-24,1,,,,,フルオール,0
1432,6180003025013,新規,0,2023-03-24,2023-03-24,合同会社中日鑑定,,合同会社,愛知県,名古屋市中区,錦３丁目２２番２４号ＡＴＳ広小路ビル５Ｆ,,23,106,4600003,,,,,,,2023-03-24,1,,,,,チュウニチカンテイ,0
1437,6190003004271,新規,0,2023-03-24,2023-03-24,合同会社Ｌｉｎｋｓ　Ｉｎｔｅｒｎａｔｉｏｎａｌ,,合同会社,三重県,伊勢市,上地町４０６４番地２Ｆ・Ｂ号,,24,203,5160051,,,,,,,2023-03-24,1,,,,,リンクスインターナショナル,0
1439,6190005011803,新規,0,2023-03-24,2023-03-24,特定非営利活動法人三重ソーシャルビジネスファンド,,その他の設立登記法人,三重県,志摩市,阿児町国府２９２０番,,24,215,5170506,,,,,,,2023-03-24,1,,,,,ミエソーシャルビジネスファンド,0
1446,6210005010083,新規,0,2023-03-24,2023-03-24,一般社団法人野草ホリスティック協会,,その他の設立登記法人,福井県,丹生郡越前町,下糸生第６６号１１番地１,,18,423,9160114,,,,,,,2023-03-24,1,,,,,ヤソウホリスティックキョウカイ,0
1450,6240001061243,新規,0,2023-03-24,2023-03-24,株式会社ＨＡＫＩ　ｐｒｏ,,株式会社,広島県,広島市中区,堺町１丁目８番６－１２０２号,,34,101,7300853,,,,,,,2023-03-24,1,,,,,ハキプロ,0
1451,6240001061251,新規,0,2023-03-24,2023-03-24,株式会社アキモトエステート,,株式会社,広島県,広島市中区,寺町２番２８号,,34,101,7300801,,,,,,,2023-03-24,1,,,,,アキモトエステート,0
1453,6240003006072,新規,0,2023-03-24,2023-03-24,合同会社紬,,合同会社,広島県,尾道市,門田町１８－１１,,34,205,7220017,,,,,,,2023-03-24,1,,,,,ツムギ,0
1457,6260005011201,新規,0,2023-03-24,2023-03-24,一般社団法人子育て応援ゆうり,,その他の設立登記法人,岡山県,岡山市南区,浜野２丁目９番１５号,,33,104,7000845,,,,,,,2023-03-24,1,,,,,コソダテオウエンユウリ,0
1463,6290001100962,新規,0,2023-03-24,2023-03-24,株式会社利工業,,株式会社,福岡県,飯塚市,幸袋６６５番,,40,205,8200066,,,,,,,2023-03-24,1,,,,,トシコウギョウ,0
1464,6290001100979,新規,0,2023-03-24,2023-03-24,株式会社レンターズ,,株式会社,福岡県,福津市,津屋崎１丁目６６４番地,,40,224,8113304,,,,,,,2023-03-24,1,,,,,レンターズ,0
1469,6320001019646,新規,0,2023-03-24,2023-03-24,株式会社春き屋,,株式会社,大分県,由布市,挾間町下市２７６番地１,,44,213,8795504,,,,,,,2023-03-24,1,,,,,ハルキヤ,0
1473,6360001031754,新規,0,2023-03-24,2023-03-24,長谷川事務所株式会社,,株式会社,沖縄県,国頭郡恩納村,字真栄田３３７８番地３,,47,311,9040417,,,,,,,2023-03-24,1,,,,,ハセガワジムショ,0
1475,6370001049721,新規,0,2023-03-24,2023-03-24,株式会社メタルテクニカル,,株式会社,宮城県,仙台市泉区,紫山５丁目４０番地の４,,04,105,9813205,,,,,,,2023-03-24,1,,,,,メタルテクニカル,0
1476,6370001049746,新規,0,2023-03-24,2023-03-24,ＫＡＩＮＴＯ仙台株式会社,,株式会社,宮城県,仙台市太白区,あすと長町４丁目２番５８－６０７号,,04,104,9820007,,,,,,,2023-03-24,1,,,,,カイントセンダイ,0
1477,6370001049754,新規,0,2023-03-24,2023-03-24,パワープラス株式会社,,株式会社,宮城県,仙台市若林区,鶴代町６番３号,,04,103,9840001,,,,,,,2023-03-24,1,,,,,パワープラス,0
1487,6410003003770,新規,0,2023-03-24,2023-03-24,合同会社林商会,,合同会社,秋田県,秋田市,広面字小沼古川端３１番地６,,05,201,0100041,,,,,,,2023-03-24,1,,,,,ハヤシショウカイ,0
1503,6700150114944,新規,0,2023-03-24,2023-03-24,ＴＯＰ　ＧＡＩＮ　ＧＬＯＢＡＬ　ＬＩＭＩＴＥＤ,,外国会社等,,,,,,,,ＦＬＡＴ　１８Ａ　１４／Ｆ　ＢＬＫ　Ｃ　ＷＡＨ　ＴＡＴ　ＩＮＤＵＳＴＲＩＡＬ　ＣＥＮＴＲＥ　８－１０　ＷＡＨ　ＳＨＩＮＧ　ＳＴＲＥＥＴ　ＫＷＡＩ　ＣＨＵＮＧ　ＮＴ　ＨＫ　９９９０７７,,,,,,2023-03-24,1,,,,,トツプゲイリミテツド,0
1509,7010001233905,新規,0,2023-03-24,2023-03-24,Ｉｔ　Ｗｏｋａｓｈｉ株式会社,,株式会社,東京都,千代田区,丸の内２丁目２番２号,,13,101,1000005,,,,,,,2023-03-24,1,,,,,イットヲカシ,0
1510,7010001233921,新規,0,2023-03-24,2023-03-24,新広デジタル株式会社,,株式会社,東京都,中央区,銀座１丁目２２番１１号銀座大竹ビジデンス２Ｆ,,13,102,1040061,,,,,,,2023-03-24,1,,,,,シンコウデジタル,0
1511,7010003040135,新規,0,2023-03-24,2023-03-24,ｓａｉ合同会社,,合同会社,東京都,文京区,音羽１丁目２－５菱和パレス音羽３０１,,13,105,1120013,,,,,,,2023-03-24,1,,,,,サイ,0
1512,7010005036412,新規,0,2023-03-24,2023-03-24,早島４ロジスティック特定目的会社,,その他の設立登記法人,東京都,中央区,八重洲２丁目２番１号,,13,102,1040028,,,,,,,2023-03-24,1,,,,,ハヤシマフォーロジスティック,0
1518,7010401173214,新規,0,2023-03-24,2023-03-24,株式会社Ｐｈｏｔｉａ,,株式会社,東京都,港区,南青山３丁目１番３６号青山丸竹ビル６Ｆ,,13,103,1070062,,,,,,,2023-03-24,1,,,,,フォティア,0
1519,7010401173255,新規,0,2023-03-24,2023-03-24,ＧＥＮＥＳＩＳ　ＣＡＰＩＴＡＬ　ＲＥＳＯＵＲＣＥＳ株式会社,,株式会社,東京都,港区,赤坂２丁目１４番５号Ｄａｉｗａ赤坂ビル４階,,13,103,1070052,,,,,,,2023-03-24,1,,,,,ジェネシスキャピタルリソース,0
1520,7010401173263,新規,0,2023-03-24,2023-03-24,株式会社ＪＷ　ＣＯＲＰＯＲＡＴＩＯＮ,,株式会社,東京都,港区,赤坂２丁目２１番８号,,13,103,1070052,,,,,,,2023-03-24,1,,,,,ジェイダブリューコーポレーション,0
1521,7010401173288,新規,0,2023-03-24,2023-03-24,ウェーブネットテクノロジージャパン株式会社,,株式会社,東京都,港区,新橋４丁目２１番３号新橋東急ビル２階２２１号,,13,103,1050004,,,,,,,2023-03-24,1,,,,,ウェーブネットテクノロジージャパン,0
1522,7010403029769,新規,0,2023-03-24,2023-03-24,ＫＲエナジー１号合同会社,,合同会社,東京都,港区,虎ノ門１丁目１６番１６号虎ノ門１丁目ＭＧビル３階ブレイン綜合会計事務所内,,13,103,1050001,,,,,,,2023-03-24,1,,,,,ケーアールエナジーイチゴウ,0
1523,7010403029777,新規,0,2023-03-24,2023-03-24,合同会社イマージオ,,合同会社,東京都,港区,浜松町２丁目２番１５号浜松町ダイヤビル２Ｆ,,13,103,1050013,,,,,,,2023-03-24,1,,,,,イマージオ,0
1524,7010405021922,新規,0,2023-03-24,2023-03-24,一般社団法人暮らしを支える研究所,,その他の設立登記法人,東京都,港区,南青山３丁目１番３６号青山丸竹ビル６Ｆ,,13,103,1070062,,,,,,,2023-03-24,1,,,,,クラシヲササエルケンキュウジョ,0
1525,7010405021930,新規,0,2023-03-24,2023-03-24,一般社団法人グローバルサポート,,その他の設立登記法人,東京都,港区,高輪３丁目１０－２,,13,103,1080074,,,,,,,2023-03-24,1,,,,,グローバルサポート,0
1526,7010505003390,新規,0,2023-03-24,2023-03-24,一般社団法人ＴＯＭ企画,,その他の設立登記法人,東京都,台東区,東上野１丁目２８番９号,,13,106,1100015,,,,,,,2023-03-24,1,,,,,トムキカク,0
1527,7010601062803,新規,0,2023-03-24,2023-03-24,株式会社ＡＬＢＡＴＲＯＳＳ,,株式会社,東京都,墨田区,石原１丁目１番１号藤枝ビル１階,,13,107,1300011,,,,,,,2023-03-24,1,,,,,アルバトロス,0
1534,7010701044024,新規,0,2023-03-24,2023-03-24,株式会社サポナ,,株式会社,東京都,品川区,南品川５丁目１６－７ｋａｒｉｇｏ東京・南品川店１階,,13,109,1400004,,,,,,,2023-03-24,1,,,,,サポナ,0
1554,7011001153275,新規,0,2023-03-24,2023-03-24,株式会社しょくどう,,株式会社,東京都,渋谷区,道玄坂１丁目１６番６号二葉ビル８ｂ,,13,113,1500043,,,,,,,2023-03-24,1,,,,,ショクドウ,0
1555,7011003016496,新規,0,2023-03-24,2023-03-24,合同会社ＥＲＶＩＴＡ,,合同会社,東京都,渋谷区,恵比寿１丁目２１番１４号－４０４号,,13,113,1500013,,,,,,,2023-03-24,1,,,,,エルビータ,0
1556,7011003016505,新規,0,2023-03-24,2023-03-24,Ｓｕｐｅｒｂ　ＡＩ　Ｊａｐａｎ合同会社,,合同会社,東京都,渋谷区,渋谷２丁目１４番１３号,,13,113,1500002,,,,,,,2023-03-24,1,,,,,スパーブエーアイジャパン,0
1562,7011101102248,新規,0,2023-03-24,2023-03-24,株式会社ＺＯＯＬＯＧＹ,,株式会社,東京都,新宿区,西新宿６丁目８番１号,,13,104,1600023,,,,,,,2023-03-24,1,,,,,ズーロジー,0
1563,7011101102280,新規,0,2023-03-24,2023-03-24,株式会社Ｏｕｔｌｉｅｒｓ,,株式会社,東京都,新宿区,西新宿３丁目３番１３号西新宿水間ビル２Ｆ,,13,104,1600023,,,,,,,2023-03-24,1,,,,,アウトライヤーズ,0
1565,7011103012833,新規,0,2023-03-24,2023-03-24,日本アンプル電力合同会社,,合同会社,東京都,新宿区,西新宿８丁目１４番１７号アルテール新宿４０４,,13,104,1600023,,,,,,,2023-03-24,1,,,,,ニホンアンプルデンリョク,0
1566,7011103012858,新規,0,2023-03-24,2023-03-24,合同会社ＰＲＩＭＯ,,合同会社,東京都,新宿区,歌舞伎町１丁目９番１０号Ｋ’ｓビル３階Ｅ号室,,13,104,1600021,,,,,,,2023-03-24,1,,,,,プリモ,0
1567,7011105010595,新規,0,2023-03-24,2023-03-24,一般社団法人ＴＵ１０,,その他の設立登記法人,東京都,新宿区,四谷２丁目９番地１５東京ユナイテッド綜合事務所内,,13,104,1600004,,,,,,,2023-03-24,1,,,,,ティーユーテン,0
1568,7011203004037,新規,0,2023-03-24,2023-03-24,合同会社栄華サポート,,合同会社,東京都,中野区,弥生町５丁目４番１６号,,13,114,1640013,,,,,,,2023-03-24,1,,,,,エイカサポート,0
1574,7011801042124,新規,0,2023-03-24,2023-03-24,株式会社ｏｆｆｉｃｅ　ＭＯＮＯ,,株式会社,東京都,葛飾区,東水元２丁目２９番１２号,,13,122,1250033,,,,,,,2023-03-24,1,,,,,オフィスモノ,0
1579,7012401040311,新規,0,2023-03-24,2023-03-24,株式会社ぐらんぶる,,株式会社,東京都,三鷹市,上連雀７丁目９番１４号－１リブレ武蔵野１０３,,13,204,1810012,,,,,,,2023-03-24,1,,,,,グランブル,0
1595,7020001150785,新規,0,2023-03-24,2023-03-24,株式会社アイエヌユー,,株式会社,神奈川県,横浜市都筑区,加賀原１丁目２４番８－１００２号,,14,118,2240055,,,,,,,2023-03-24,1,,,,,アイエヌユー,0
1600,7020005015902,新規,0,2023-03-24,2023-03-24,医療法人社団フェアスキン,,その他の設立登記法人,神奈川県,横浜市保土ケ谷区,上星川３丁目２番１０号アネックスアリオス２０３号,,14,106,2400042,,,,,,,2023-03-24,1,,,,,フェアスキン,0
1607,7021005012765,新規,0,2023-03-24,2023-03-24,一般社団法人ライフリプランニング協会,,その他の設立登記法人,神奈川県,茅ヶ崎市,白浜町２番３１号,,14,207,2530036,,,,,,,2023-03-24,1,,,,,ライフリプランニングキョウカイ,0
1617,7030001152979,新規,0,2023-03-24,2023-03-24,株式会社ケードット,,株式会社,埼玉県,草加市,氷川町２１１７－１ローズフカミ３０３,,11,221,3400034,,,,,,,2023-03-24,1,,,,,ケードット,0
1618,7030001152995,新規,0,2023-03-24,2023-03-24,株式会社アンプレシオン,,株式会社,埼玉県,三郷市,中央１丁目７番地１２Ｙビル三郷ミッドタワー,,11,237,3410038,,,,,,,2023-03-24,1,,,,,アンプレシオン,0
1628,7040003022238,新規,0,2023-03-24,2023-03-24,合同会社ＥＭＥＬＩＡ　ＩＮＴＥＲＮＡＴＩＯＮＡＬ,,合同会社,千葉県,印西市,中根１７９９番地,,12,231,2702324,,,,,,,2023-03-24,1,,,,,エメリアインターナショナル,0
1629,7040003022246,新規,0,2023-03-24,2023-03-24,合同会社ＨＰＨ　Ｃｒｅａｔｉｏｎｓ,,合同会社,千葉県,浦安市,堀江６丁目５番３２号１０１,,12,227,2790041,,,,,,,2023-03-24,1,,,,,エイチピーエイチクリエーションズ,0
1630,7040003022262,新規,0,2023-03-24,2023-03-24,合同会社ＴＭ’ｓ,,合同会社,千葉県,八千代市,緑が丘１丁目２番地９アクトヒルズ八千代ＩＩ４０２,00129857,12,221,2760049,,,,,,,2023-03-24,1,,,,,ティーエムズ,0
1646,7080003002946,新規,0,2023-03-24,2023-03-24,暦技研合同会社,,合同会社,静岡県,静岡市駿河区,桃園町１１－１,,22,102,4210114,,,,,,,2023-03-24,1,,,,,コヨミギケン,0
1650,7100003006928,新規,0,2023-03-24,2023-03-24,合同会社スマートフィールド,,合同会社,長野県,佐久市,長土呂１２１７番地７,,20,217,3850021,,,,,,,2023-03-24,1,,,,,スマートフィールド,0
1659,7120001253339,新規,0,2023-03-24,2023-03-24,篤君商事株式会社,,株式会社,大阪府,大阪市住之江区,新北島２丁目５番９号,,27,125,5590024,,,,,,,2023-03-24,1,,,,,アツキミショウジ,0
1660,7120001253413,新規,0,2023-03-24,2023-03-24,株式会社ｗｅｅｋｎｄ,,株式会社,大阪府,大阪市中央区,北久宝寺町１丁目１－２アメニティ北久宝寺２０１,,27,128,5410057,,,,,,,2023-03-24,1,,,,,ウィークエンド,0
1664,7120105009703,新規,0,2023-03-24,2023-03-24,一般社団法人ＡＣＴＯＮ,,その他の設立登記法人,大阪府,堺市西区,鶴田町２１番９号,,27,144,5938323,,,,,,,2023-03-24,1,,,,,アクトン,0
1666,7120901047294,新規,0,2023-03-24,2023-03-24,カチカタチ株式会社,,株式会社,大阪府,茨木市,大手町９番２９号大手ビル２０２号室,,27,211,5670883,,,,,,,2023-03-24,1,,,,,カチカタチ,0
1668,7122001036814,新規,0,2023-03-24,2023-03-24,株式会社ｍａｌｃｏ,,株式会社,大阪府,東大阪市,楠根１丁目７番４６号,,27,227,5770006,,,,,,,2023-03-24,1,,,,,マルコ,0
1675,7140001129529,新規,0,2023-03-24,2023-03-24,ＥＳホールディングス株式会社,,株式会社,兵庫県,加古郡稲美町,岡１５１６番地,,28,381,6751113,,,,,,,2023-03-24,1,,,,,イーエスホールディングス,0
1676,7140001129537,新規,0,2023-03-24,2023-03-24,株式会社エスアール,,株式会社,兵庫県,西宮市,上大市４丁目８－４,,28,204,6638003,,,,,,,2023-03-24,1,,,,,エスアール,0
1677,7140003018878,新規,0,2023-03-24,2023-03-24,ジーナンズ合同会社,,合同会社,兵庫県,西宮市,西波止町２番地４ライゼホビー７号,,28,204,6620933,,,,,,,2023-03-24,1,,,,,ジーナンズ,0
1681,7160003002822,新規,0,2023-03-24,2023-03-24,合同会社ＫＥＮマネジメント,,合同会社,滋賀県,米原市,中多良３１９番地,,25,214,5210011,,,,,,,2023-03-24,1,,,,,ケンマネジメント,0
1687,7180003025012,新規,0,2023-03-24,2023-03-24,ＳＴＡＲＴ合同会社,,合同会社,愛知県,常滑市,小倉町１丁目６３番地２,,23,216,4790862,,,,,,,2023-03-24,1,,,,,スタート,0
1691,7190001030269,新規,0,2023-03-24,2023-03-24,株式会社Ａｚａｎ　Ｔｒａｄｉｎｇ,,株式会社,三重県,津市,江戸橋１丁目１２７－２１コーポアポロ２０５,,24,201,5140001,,,,,,,2023-03-24,1,,,,,アザントレーディング,0
1695,7200001041099,新規,0,2023-03-24,2023-03-24,ＭＣ　Ｉｎｔｅｒｎａｔｉｏｎａｌ株式会社,,株式会社,岐阜県,瑞穂市,本田２０２０番地クローバーハウス２０８号室,,21,216,5010236,,,,,,,2023-03-24,1,,,,,エムシーインターナショナル,0
1703,7240001061250,新規,0,2023-03-24,2023-03-24,株式会社ｗａｔｏｕｓ,,株式会社,広島県,東広島市,鏡山２丁目３１３広島大学ＶＢＬ,,34,212,7390046,,,,,,,2023-03-24,1,,,,,ワトアス,0
1715,7290003013699,新規,0,2023-03-24,2023-03-24,合同会社クレス,,合同会社,福岡県,福岡市博多区,東比恵３丁目１８番３－４０１号,,40,132,8120007,,,,,,,2023-03-24,1,,,,,クレス,0
1716,7290801029392,新規,0,2023-03-24,2023-03-24,Ｓｅｎｕｐｅｒ株式会社,,株式会社,福岡県,北九州市小倉北区,下到津２丁目３番１３‐４０２号,,40,106,8030846,,,,,,,2023-03-24,1,,,,,セヌパー,0
1717,7290805009639,新規,0,2023-03-24,2023-03-24,ＮＰＯ法人福岡県子どもアドボカシーセンター,,その他の設立登記法人,福岡県,北九州市小倉南区,徳力４丁目４番７‐１２０６号,,40,107,8020974,,,,,,,2023-03-24,1,,,,,フクオカケンコドモアドボカシーセンター,0
1719,7300005007128,新規,0,2023-03-24,2023-03-24,特定非営利活動法人ＨＯＰＥｓ,,その他の設立登記法人,佐賀県,唐津市,呼子町殿ノ浦１２３番地,,41,202,8470304,,,,,,,2023-03-24,1,,,,,ホープス,0
1720,7310001018326,新規,0,2023-03-24,2023-03-24,株式会社三福,,株式会社,長崎県,佐世保市,母ケ浦町５３番地パティオ母ヶ浦Ａ２０１,,42,202,8580912,,,,,,,2023-03-24,1,,,,,サンフク,0
1743,7700150114943,新規,0,2023-03-24,2023-03-24,ＺｈｅｎｇＺｈｏｕＨｅＸｕｎＤｉａｎＺｉＪｉＳｈｕＹｏｕＸｉａｎＧｏｎｇＳｉ,,外国会社等,,,,,,,,６０７，Ｆｌｏｏｒ　６，Ｕｎｉｔ　１，Ｂｕｉｌｄｉｎｇ　４，Ｎｏ．８，Ｑｉｎｇｏｎｇ　Ｒｏａｄ，Ｊｉｎｓｈｕｉ　Ｄｉｓｔｒｉｃｔ，Ｚｈｅｎｇｚｈｏｕ　Ｃｉｔｙ,,,,,,2023-03-24,1,,,,,テイシユワシユンデンシギジユツユウゲンコウシ,0
1752,8010001233920,新規,0,2023-03-24,2023-03-24,株式会社ディーラボ,,株式会社,東京都,千代田区,神田神保町２丁目２８番地,,13,101,1010051,,,,,,,2023-03-24,1,,,,,ディーラボ,0
1753,8010001233953,新規,0,2023-03-24,2023-03-24,ｓｅｌｅｎａ株式会社,,株式会社,東京都,中央区,日本橋茅場町３丁目７番１１号,,13,102,1030025,,,,,,,2023-03-24,1,,,,,セレナ,0
1755,8010003040076,新規,0,2023-03-24,2023-03-24,Ｄｅｌｕｘｅ　Ｍｅｄｉａ　Ｊａｐａｎ合同会社,,合同会社,東京都,千代田区,永田町２丁目１１番１号山王パークタワー,,13,101,1000014,,,,,,,2023-03-24,1,,,,,デラックスメディアジャパン,0
1756,8010005036411,新規,0,2023-03-24,2023-03-24,早島３ロジスティック特定目的会社,,その他の設立登記法人,東京都,中央区,八重洲２丁目２番１号,,13,102,1040028,,,,,,,2023-03-24,1,,,,,ハヤシマスリーロジスティック,0
1761,8010401173262,新規,0,2023-03-24,2023-03-24,株式会社ＵＬＡＲＮ,,株式会社,東京都,港区,芝浦３丁目２番２９号,,13,103,1080023,,,,,,,2023-03-24,1,,,,,ウラルン,0
1762,8010401173312,新規,0,2023-03-24,2023-03-24,アベニューロード株式会社,,株式会社,東京都,港区,南麻布１丁目２７番３１－３０１号,,13,103,1060047,,,,,,,2023-03-24,1,,,,,アベニューロード,0
1769,8010405021962,新規,0,2023-03-24,2023-03-24,ＪＭガンマメンサ一般社団法人,,その他の設立登記法人,東京都,港区,六本木１丁目９番１０号アークヒルズ仙石山森タワー４０階,,13,103,1060032,,,,,,,2023-03-24,1,,,,,ジェイエムガンマメンサ,0
1771,8010601062793,新規,0,2023-03-24,2023-03-24,株式会社ｉ‐ＳＨＩｎビジネス,,株式会社,東京都,江東区,亀戸９丁目３４番１号,,13,108,1360071,,,,,,,2023-03-24,1,,,,,アイシンビジネス,0
1778,8010701044023,新規,0,2023-03-24,2023-03-24,株式会社Ｐａｌｍａ,,株式会社,東京都,品川区,西五反田３丁目７番６－２２０７号,,13,109,1410031,,,,,,,2023-03-24,1,,,,,パルマ,0
1779,8010803004486,新規,0,2023-03-24,2023-03-24,合同会社ソフィケアカンパニー,,合同会社,東京都,大田区,南馬込２丁目２９番１３号,,13,111,1430025,,,,,,,2023-03-24,1,,,,,ソフィケアカンパニー,0
1781,8010901052759,新規,0,2023-03-24,2023-03-24,株式会社アイジーエー,,株式会社,東京都,世田谷区,粕谷１丁目１１番６号,,13,112,1570063,,,,,,,2023-03-24,1,,,,,アイジーエー,0
1782,8010901052767,新規,0,2023-03-24,2023-03-24,株式会社Ｋ＆Ａ,,株式会社,東京都,世田谷区,等々力１丁目８番８号カーサブランカ５０１,,13,112,1580082,,,,,,,2023-03-24,1,,,,,ケイアンドエー,0
1783,8010903008049,新規,0,2023-03-24,2023-03-24,合同会社ＰＬＵＳクリエイト,,合同会社,東京都,世田谷区,南烏山６丁目１４番１０号,,13,112,1570062,,,,,,,2023-03-24,1,,,,,プラスクリエイト,0
1788,8011001153241,新規,0,2023-03-24,2023-03-24,株式会社セリオインヴェスト,,株式会社,東京都,渋谷区,神南１丁目２３－１４,,13,113,1500041,,,,,,,2023-03-24,1,,,,,セリオインヴェスト,0
1789,8011001153274,新規,0,2023-03-24,2023-03-24,株式会社ＮＡＵＴＡ,,株式会社,東京都,渋谷区,道玄坂１丁目１０番８号渋谷道玄坂東急ビル２Ｆ－Ｃ,,13,113,1500043,,,,,,,2023-03-24,1,,,,,ナウタ,0
1794,8011101102263,新規,0,2023-03-24,2023-03-24,フリーセンス株式会社,,株式会社,東京都,新宿区,中井１丁目２番６号ＡＢＣステーションプラザ新宿中井５０２,,13,104,1610035,,,,,,,2023-03-24,1,,,,,フリーセンス,0
1798,8011105010594,新規,0,2023-03-24,2023-03-24,一般社団法人ＴＵ０９,,その他の設立登記法人,東京都,新宿区,四谷２丁目９番地１５東京ユナイテッド綜合事務所内,,13,104,1600004,,,,,,,2023-03-24,1,,,,,ティーユーゼロナイン,0
1801,8011203004036,新規,0,2023-03-24,2023-03-24,合同会社ヒラメエンターテイメント,,合同会社,東京都,中野区,中野３丁目１７番２号,,13,114,1640001,,,,,,,2023-03-24,1,,,,,ヒラメエンターテイメント,0
1809,8011703003421,新規,0,2023-03-24,2023-03-24,合同会社リバイラル,,合同会社,東京都,江戸川区,西葛西６丁目１３－１４丸清ビル１Ｆ－Ａ,,13,123,1340088,,,,,,,2023-03-24,1,,,,,リバイラル,0
1813,8011801042123,新規,0,2023-03-24,2023-03-24,株式会社ｍ２ｏ,,株式会社,東京都,足立区,椿２丁目１６番１号,,13,121,1230871,,,,,,,2023-03-24,1,,,,,エムツーオー,0
1815,8011805003253,新規,0,2023-03-24,2023-03-24,一般社団法人ｓａｉ‐ｓｅｉ,,その他の設立登記法人,東京都,足立区,千住仲町１８番１４－５０４号,,13,121,1200036,,,,,,,2023-03-24,1,,,,,サイセイ,0
1821,8012403005897,新規,0,2023-03-24,2023-03-24,合同会社ＲＥＳＥＸＩＡ,,合同会社,東京都,府中市,若松町２丁目８番地の１２,,13,206,1830005,,,,,,,2023-03-24,1,,,,,リセシア,0
1839,8020001150776,新規,0,2023-03-24,2023-03-24,株式会社イーストワン・レンタカー,,株式会社,神奈川県,横浜市港北区,新羽町４７８－１ネオス３６－１０２号室,,14,109,2230057,,,,,,,2023-03-24,1,,,,,イーストワンレンタカー,0
1840,8020001150801,新規,0,2023-03-24,2023-03-24,株式会社エクセレンディブ,,株式会社,神奈川県,横浜市中区,不老町１丁目２番地１,,14,104,2310032,,,,,,,2023-03-24,1,,,,,エクセレンディブ,0
1841,8020005015901,新規,0,2023-03-24,2023-03-24,一般社団法人にっぽん福福,,その他の設立登記法人,神奈川県,横浜市西区,北幸２丁目１０番地２８むつみビル３Ｆ,,14,103,2200004,,,,,,,2023-03-24,1,,,,,ニッポンフクフク,0
1852,8030001152978,新規,0,2023-03-24,2023-03-24,株式会社グッドライフモーゲージ,,株式会社,埼玉県,所沢市,大字中新井４４０番地の２,,11,208,3590041,,,,,,,2023-03-24,1,,,,,グッドライフモーゲージ,0
1853,8030001152986,新規,0,2023-03-24,2023-03-24,株式会社六道,,株式会社,埼玉県,さいたま市浦和区,本太１丁目３３番１８号,,11,107,3300052,,,,,,,2023-03-24,1,,,,,リクドウ,0
1858,8030003021421,新規,0,2023-03-24,2023-03-24,合同会社ｍ’ｓ,,合同会社,埼玉県,児玉郡美里町,大字駒衣１５５９番地２,,11,381,3670119,,,,,,,2023-03-24,1,,,,,エムズ,0
1864,8040001127509,新規,0,2023-03-24,2023-03-24,株式会社Ｌｉｆｅ　ｐｒｏｇｒｅｓｓ,,株式会社,千葉県,船橋市,南三咲４丁目９番１４号,,12,204,2740813,,,,,,,2023-03-24,1,,,,,ライフプログレス,0
1865,8040001127590,新規,0,2023-03-24,2023-03-24,株式会社赤とんぼ,,株式会社,千葉県,船橋市,大穴南５丁目２０番１２号,,12,204,2740067,,,,,,,2023-03-24,1,,,,,アカトンボ,0
1866,8040001127624,新規,0,2023-03-24,2023-03-24,株式会社サンファーレ,,株式会社,千葉県,勝浦市,墨名２５８番地,,12,218,2995225,,,,,,,2023-03-24,1,,,,,サンファーレ,0
1867,8040003022237,新規,0,2023-03-24,2023-03-24,ＪＵＧＥＭＵ合同会社,,合同会社,千葉県,松戸市,北松戸３丁目７番地の１ヒルトップハイツ１号室,,12,207,2710063,,,,,,,2023-03-24,1,,,,,ジュゲム,0
1868,8040003022245,新規,0,2023-03-24,2023-03-24,合同会社ＤＭＥＤ,,合同会社,千葉県,佐倉市,染井野３丁目４０番地１１,,12,212,2850831,,,,,,,2023-03-24,1,,,,,ディーエムイーディー,0
1869,8040003022261,新規,0,2023-03-24,2023-03-24,Ａｐｐ　Ｇｌｏｂａｌ合同会社,,合同会社,千葉県,千葉市美浜区,打瀬１丁目２番地２セントラルパーク・イーストＦ棟１３０６号,,12,106,2610013,,,,,,,2023-03-24,1,,,,,アプリグローバル,0
1874,8050003007328,新規,0,2023-03-24,2023-03-24,合同会社Ａｂｙｓｋ,,合同会社,茨城県,土浦市,荒川沖東３丁目９番１８号,,08,203,3000871,,,,,,,2023-03-24,1,,,,,エーバイエスケー,0
1892,8080401026389,新規,0,2023-03-24,2023-03-24,株式会社絆‐ｋｉｚｕｎａ,,株式会社,静岡県,浜松市東区,大島町４２２番地の１,,22,132,4313112,,,,,,,2023-03-24,1,,,,,キズナ,0
1911,8120001253420,新規,0,2023-03-24,2023-03-24,株式会社ＨＳＣ,,株式会社,大阪府,交野市,私部西２丁目１３番１８号,,27,230,5760041,,,,,,,2023-03-24,1,,,,,エイチエスシー,0
1912,8120001253445,新規,0,2023-03-24,2023-03-24,成功株式会社,,株式会社,大阪府,大阪市淀川区,西宮原３丁目３番１号ビジネス第二ニッケンマンション５２０号室,,27,123,5320004,,,,,,,2023-03-24,1,,,,,セイコウ,0
1913,8120001253461,新規,0,2023-03-24,2023-03-24,風土記株式会社,,株式会社,大阪府,大阪市淀川区,東三国４丁目２番７－９０２号,,27,123,5320002,,,,,,,2023-03-24,1,,,,,フドキ,0
1917,8120103005133,新規,0,2023-03-24,2023-03-24,Ｍａｈａｔｏ　Ｃｏｒｐｏｒａｔｉｏｎ合同会社,,合同会社,大阪府,堺市堺区,東雲西町１丁７番１号,,27,141,5900013,,,,,,,2023-03-24,1,,,,,マハトコーポレーション,0
1921,8120901047302,新規,0,2023-03-24,2023-03-24,株式会社鈴木商店,,株式会社,大阪府,箕面市,箕面１丁目１番３８号,,27,220,5620001,,,,,,,2023-03-24,1,,,,,スズキショウテン,0
1925,8130001073917,新規,0,2023-03-24,2023-03-24,廣瀬住建株式会社,,株式会社,京都府,京都市伏見区,竹田真幡木町８５番地ＴＡＫＥＤＡＳＰＡＣＥ２０３号室,,26,109,6128427,,,,,,,2023-03-24,1,,,,,ヒロセジュウケン,0
1931,8140001129511,新規,0,2023-03-24,2023-03-24,ＱｕｒｅＤＡ　Ｒｅｓｅａｒｃｈ株式会社,,株式会社,兵庫県,三田市,学園上ケ原１番,,28,219,6691330,,,,,,,2023-03-24,1,,,,,キュレダリサーチ,0
1932,8140001129536,新規,0,2023-03-24,2023-03-24,株式会社イケダ不動産販売,,株式会社,兵庫県,芦屋市,月若町５番１０－２０３号,,28,206,6590084,,,,,,,2023-03-24,1,,,,,イケダフドウサンハンバイ,0
1941,8180001155487,新規,0,2023-03-24,2023-03-24,マイベト日本株式会社,,株式会社,愛知県,春日井市,勝川町２丁目６番地１４,,23,206,4860945,,,,,,,2023-03-24,1,,,,,マイベトニホン,0
1943,8180005020142,新規,0,2023-03-24,2023-03-24,一般社団法人まつかげ,,その他の設立登記法人,愛知県,名古屋市中村区,鈍池町１丁目３９番地の１,,23,105,4530826,,,,,,,2023-03-24,1,,,,,マツカゲ,0
1945,8190001030268,新規,0,2023-03-24,2023-03-24,株式会社Ｈ＆Ｅサポート,,株式会社,三重県,四日市市,日永１丁目３番１２号,,24,202,5100885,,,,,,,2023-03-24,1,,,,,エイチアンドイーサポート,0
1948,8200001041098,新規,0,2023-03-24,2023-03-24,株式会社マウント,,株式会社,岐阜県,郡上市,明宝畑佐１２４０番地,,21,219,5014306,,,,,,,2023-03-24,1,,,,,マウント,0
1955,8240003006054,新規,0,2023-03-24,2023-03-24,合同会社岡村ＰＥ事務所,,合同会社,広島県,広島市南区,京橋町１番７号アスティ広島京橋ビルディング,,34,103,7320828,,,,,,,2023-03-24,1,,,,,オカムラピーイージムショ,0
1958,8270003001507,新規,0,2023-03-24,2023-03-24,合同会社ＲｅｐＬｉｃＡ,,合同会社,鳥取県,境港市,外江町３１９１番地,,31,204,6840071,,,,,,,2023-03-24,1,,,,,レプリカ,0
1968,8290001100969,新規,0,2023-03-24,2023-03-24,株式会社日本企画,,株式会社,福岡県,福岡市中央区,清川３丁目１２番１－３１７号,,40,133,8100005,,,,,,,2023-03-24,1,,,,,ニホンキカク,0
1969,8290001100977,新規,0,2023-03-24,2023-03-24,株式会社ワールドプレミア,,株式会社,福岡県,久留米市,日吉町８番地１０紺屋町ビル２Ｆ,,40,203,8300017,,,,,,,2023-03-24,1,,,,,ワールドプレミア,0
1972,8290003013681,新規,0,2023-03-24,2023-03-24,合同会社ＮＣ,,合同会社,福岡県,福岡市早良区,原４丁目４番２４－４０５号ルーセントピュアＩＩ,00129844,40,137,8140022,,,,,,,2023-03-24,1,,,,,エヌシー,0
1973,8290003013698,新規,0,2023-03-24,2023-03-24,ＩＭＳ合同会社,,合同会社,福岡県,福岡市博多区,博多駅前３丁目２７－２２,,40,132,8120011,,,,,,,2023-03-24,1,,,,,アイエムエス,0
1975,8290803004368,新規,0,2023-03-24,2023-03-24,合同会社ＫａｎａｍａｒｕＰｌａｎｎｉｎｇ,,合同会社,福岡県,北九州市小倉北区,霧ケ丘１丁目３‐５,,40,106,8020052,,,,,,,2023-03-24,1,,,,,カナマルプランニング,0
1978,8330001030699,新規,0,2023-03-24,2023-03-24,株式会社ＹＧＯＫＵ,,株式会社,熊本県,熊本市東区,健軍１丁目３７番６号,,43,102,8620911,,,,,,,2023-03-24,1,,,,,ワイゴクー,0
1981,8380001033565,新規,0,2023-03-24,2023-03-24,株式会社みんくら,,株式会社,福島県,福島市,荒町３番８号,,07,201,9608042,,,,,,,2023-03-24,1,,,,,ミンクラ,0
1986,8420003002687,新規,0,2023-03-24,2023-03-24,合同会社マサノブフーズ,,合同会社,青森県,青森市,松森１丁目１１番３号,,02,201,0300965,,,,,,,2023-03-24,1,,,,,マサノブフーズ,0
2000,8450005004365,新規,0,2023-03-24,2023-03-24,一般社団法人カミフラノミライ,,その他の設立登記法人,北海道,空知郡上富良野町,丘町１丁目２番９号,,01,460,0710565,,,,,,,2023-03-24,1,,,,,カミフラノミライ,0
2001,8480001012039,新規,0,2023-03-24,2023-03-24,株式会社Ｎａｒｕｔｏ　ＰＲＩＤＥ,,株式会社,徳島県,鳴門市,撫養町大桑島字北ノ浜６７番地Ａ棟,,36,202,7720011,,,,,,,2023-03-24,1,,,,,ナルトプライド,0
2004,8700150114942,新規,0,2023-03-24,2023-03-24,ｄｏｎｇ　ｇｕａｎ　ｓｈｉ　ｌｅ　ｔａｏ　ｄｉａｎ　ｚｉ　ｓｈａｎｇ　ｗｕ　ｙｏｕ　ｘｉａｎ　ｇｏｎｇ　ｓｉ,,外国会社等,,,,,,,,Ｇｕａｎｇ　ｄｏｎｇ　ｓｈｅｎｇ　ｄｏｎｇ　ｇｕａｎ　ｓｈｉ　ｆｅｎｇ　ｇａｎｇ　ｚｈｅｎ　ｄｏｎｇ　ｓｈｅｎ　ｌｕ　ｆｅｎｇ　ｇａｎｇ　ｄｕａｎ　２０６　ｈａｏ　ｆｅｎｇ　ｇａｎｇ　ｔｉａｎ　ａｎ　ｓｈｕ　ｍａ　ｃｈｅｎｇ　６　ｈａｏ　ｌｏｕ　２３０２　ｓｈｉ　０２,,,,,,2023-03-24,1,,,,,トウウンシシラクデンシシヨウムカンパニーリミテツド,0
2013,9010001233548,新規,0,2023-03-24,2023-03-24,株式会社Ａｚｕ,,株式会社,東京都,中央区,銀座１丁目１２番４号Ｎ＆ＥＢＬＤ．６Ｆ,,13,102,1040061,,,,,,,2023-03-24,1,,,,,アズ,0
2014,9010001233944,新規,0,2023-03-24,2023-03-24,ＲｅＥｎｅｒｇｉｘ株式会社,,株式会社,東京都,中央区,日本橋２丁目１５－３日本橋ＨＹビル１０階,,13,102,1030027,,,,,,,2023-03-24,1,,,,,リエナジックス,0
2015,9010001233952,新規,0,2023-03-24,2023-03-24,株式会社はわぺん,,株式会社,東京都,中央区,日本橋久松町４－６－５階,,13,102,1030005,,,,,,,2023-03-24,1,,,,,ハワペン,0
2019,9010003040109,新規,0,2023-03-24,2023-03-24,ＲＵアセットコンサルティング合同会社,,合同会社,東京都,中央区,銀座１丁目１２番４号Ｎ＆ＥＢＬＤ．６Ｆ,,13,102,1040061,,,,,,,2023-03-24,1,,,,,アールユーアセットコンサルティング,0
2022,9010401172734,新規,0,2023-03-24,2023-03-24,株式会社ＫＫＫ,,株式会社,東京都,港区,芝浦４丁目１９番１芝浦アイランドケープタワー４００６号,,13,103,1080023,,,,,,,2023-03-24,1,,,,,ケーケーケー,0
2023,9010403029800,新規,0,2023-03-24,2023-03-24,ＪＭガンマメンサ２合同会社,,合同会社,東京都,港区,六本木１丁目９番１０号アークヒルズ仙石山森タワー４０階,,13,103,1060032,,,,,,,2023-03-24,1,,,,,ジェイエムガンマメンサツー,0
2024,9010405021961,新規,0,2023-03-24,2023-03-24,ＪＭアルファメンサ一般社団法人,,その他の設立登記法人,東京都,港区,六本木１丁目９番１０号アークヒルズ仙石山森タワー４０階,,13,103,1060032,,,,,,,2023-03-24,1,,,,,ジェイエムアルファメンサ,0
2027,9010503006880,新規,0,2023-03-24,2023-03-24,永久茶園合同会社,,合同会社,東京都,台東区,池之端２丁目１番４２号９０２室,,13,106,1100008,,,,,,,2023-03-24,1,,,,,エイキュウチャエン,0
2029,9010701044022,新規,0,2023-03-24,2023-03-24,Ｙａｐ株式会社,,株式会社,東京都,品川区,東品川１丁目３－１５Ｔｈｅ・ＰａｒｋＲｅｘ・ＴＥＮＮＯＺ・Ｔｈｅ・ＤＯＣＫ２Ｆ,,13,109,1400002,,,,,,,2023-03-24,1,,,,,ヤップ,0
2034,9010903008048,新規,0,2023-03-24,2023-03-24,ｆｅｄａｌ合同会社,,合同会社,東京都,世田谷区,弦巻３丁目１３番５号ソウ桜新町ＩＩ２０１,00129848,13,112,1540016,,,,,,,2023-03-24,1,,,,,フェダル,0
2035,9010905004458,新規,0,2023-03-24,2023-03-24,一般社団法人外食ＳＸ,,その他の設立登記法人,東京都,世田谷区,三軒茶屋２丁目１０番１６号,,13,112,1540024,,,,,,,2023-03-24,1,,,,,ガイショクエスエックス,0
2038,9011001153257,新規,0,2023-03-24,2023-03-24,株式会社ＣＡＬＦＡ　ＤＥＳＩＧＮ,,株式会社,東京都,渋谷区,神宮前６丁目２３番４号桑野ビル２階,,13,113,1500001,,,,,,,2023-03-24,1,,,,,カルファデザイン,0
2039,9011001153265,新規,0,2023-03-24,2023-03-24,株式会社クラシア,,株式会社,東京都,渋谷区,道玄坂１丁目２２番８号ユービズ渋谷道玄坂６階,,13,113,1500043,,,,,,,2023-03-24,1,,,,,クラシア,0
2040,9011001153273,新規,0,2023-03-24,2023-03-24,株式会社フレキシブル,,株式会社,東京都,渋谷区,笹塚２丁目４３番１４号,,13,113,1510073,,,,,,,2023-03-24,1,,,,,フレキシブル,0
2041,9011001153323,新規,0,2023-03-24,2023-03-24,株式会社Ｍｕｓｉｃ　Ａｌｌｙ　Ｊａｐａｎ,,株式会社,東京都,渋谷区,恵比寿南２丁目８番１２号,,13,113,1500022,,,,,,,2023-03-24,1,,,,,ミュージックアライジャパン,0
2044,9011101102270,新規,0,2023-03-24,2023-03-24,Ｓｔｅｐ　Ｏｎｅ株式会社,,株式会社,東京都,新宿区,喜久井町３６番地,,13,104,1620044,,,,,,,2023-03-24,1,,,,,ステップワン,0
2045,9011101102279,新規,0,2023-03-24,2023-03-24,株式会社ＴＡＫＥ’ｓ,,株式会社,東京都,新宿区,払方町２０番地１クリオラベルヴィ市ヶ谷１００１,,13,104,1620841,,,,,,,2023-03-24,1,,,,,テイクス,0
2058,9011701026101,新規,0,2023-03-24,2023-03-24,ＮＪ株式会社,,株式会社,東京都,江戸川区,東小岩５丁目２５番１０号,,13,123,1330052,,,,,,,2023-03-24,1,,,,,エヌジェイ,0
2066,9012403005888,新規,0,2023-03-24,2023-03-24,合同会社ＴＬＫ　ＪＡＰＡＮ,,合同会社,東京都,武蔵野市,吉祥寺北町２丁目３番７号パークハウス吉祥寺北町グローヴＩＩ－００１,00129843,13,203,1800001,,,,,,,2023-03-24,1,,,,,ティーエルケージャパン,0
2067,9012403005896,新規,0,2023-03-24,2023-03-24,合同会社ＷＡＬＫ‐ＯＦＦ,,合同会社,東京都,稲城市,若葉台２丁目１番地の１ロイヤルパークス若葉台５１２,,13,225,2060824,,,,,,,2023-03-24,1,,,,,ウォークオフ,0
2079,9020001150775,新規,0,2023-03-24,2023-03-24,株式会社メディテクノソリューションズ,,株式会社,神奈川県,横浜市中区,真砂町３丁目３１番地アクティオーレ７階２号室,,14,104,2310016,,,,,,,2023-03-24,1,,,,,メディテクノソリューションズ,0
2087,9021001078528,新規,0,2023-03-24,2023-03-24,株式会社ｆｕｔｕｒｅ　ａｓｓｉｓｔ,,株式会社,神奈川県,鎌倉市,大船１丁目２２番２５号ヴィコロ２ビル２階,,14,204,2470056,,,,,,,2023-03-24,1,,,,,フューチャーアシスト,0
2099,9030001152960,新規,0,2023-03-24,2023-03-24,Ｈｏｔｔ株式会社,,株式会社,埼玉県,狭山市,狭山台３丁目４番地の２０,,11,215,3501304,,,,,,,2023-03-24,1,,,,,ホット,0
2100,9030001152977,新規,0,2023-03-24,2023-03-24,株式会社浦舟フーズ,,株式会社,埼玉県,さいたま市桜区,西堀４丁目７番１－４０１号,,11,106,3380832,,,,,,,2023-03-24,1,,,,,ウラフネフーズ,0
2101,9030001152985,新規,0,2023-03-24,2023-03-24,株式会社ナージュ,,株式会社,埼玉県,越谷市,赤山本町３－２４ライオンズグローベル越谷ステーションプラザ１２０１号,,11,222,3430808,,,,,,,2023-03-24,1,,,,,ナージュ,0
2103,9030003021429,新規,0,2023-03-24,2023-03-24,合同会社ＡｉｉｉＮ,,合同会社,埼玉県,蓮田市,本町６番１号ブランズシティ蓮田８１４号,,11,238,3490123,,,,,,,2023-03-24,1,,,,,アイーン,0
2112,9040001127615,新規,0,2023-03-24,2023-03-24,株式会社明和住設,,株式会社,千葉県,千葉市中央区,川戸町５００番地３８,,12,101,2600802,,,,,,,2023-03-24,1,,,,,メイワジュウセツ,0
2113,9040001127623,新規,0,2023-03-24,2023-03-24,株式会社ＡＵＴＯ　ＥＭＰＯＲＩＵＭ,,株式会社,千葉県,野田市,桐ケ作４７５番地４,,12,208,2700213,,,,,,,2023-03-24,1,,,,,オートエンポリアム,0
2115,9040003022244,新規,0,2023-03-24,2023-03-24,Ｉｄｅａｌ　Ｉｎｔｅｒｎａｔｉｏｎａｌ合同会社,,合同会社,千葉県,印西市,高西新田１０２番地１,,12,231,2701365,,,,,,,2023-03-24,1,,,,,イデアルインターナショナル,0
2117,9040005021938,新規,0,2023-03-24,2023-03-24,一般社団法人自立生活支援機構,,その他の設立登記法人,千葉県,長生郡一宮町,一宮９８１３番地１,,12,421,2994301,,,,,,,2023-03-24,1,,,,,ジリツセイカツシエンキコウ,0
2126,9080401026388,新規,0,2023-03-24,2023-03-24,株式会社ＤＯＧ　ＬＩＦＥ　ＨＩＰＰＯ,,株式会社,静岡県,袋井市,高尾町２３番地の１９アーバンドゥエル１０１,,22,216,4370027,,,,,,,2023-03-24,1,,,,,ドッグライフヒッポ,0
2145,9120001253436,新規,0,2023-03-24,2023-03-24,株式会社Ｇ．ＧＲＩＴ,,株式会社,大阪府,大阪市北区,天神橋１丁目５番７－１８０１号,,27,127,5300041,,,,,,,2023-03-24,1,,,,,ジーグリット,0
2146,9120001253444,新規,0,2023-03-24,2023-03-24,弘信株式会社,,株式会社,大阪府,大阪市港区,八幡屋３丁目１番２４号,,27,107,5520014,,,,,,,2023-03-24,1,,,,,コウシン,0
2148,9120003023688,新規,0,2023-03-24,2023-03-24,Ｓｔｙｌｅ　Ｃｈｏｉｃｅ　ＬＬＣ合同会社,,合同会社,大阪府,大阪市淀川区,西中島６丁目３－２４－Ｒ４０５,,27,123,5320011,,,,,,,2023-03-24,1,,,,,スタイルチョイスエルエルシー,0
2150,9120103005132,新規,0,2023-03-24,2023-03-24,合同会社ｍｅｉａｉ,,合同会社,大阪府,岸和田市,小松里町１０１４番地の２クレイノやよい１０５号,,27,202,5960821,,,,,,,2023-03-24,1,,,,,メイアイ,0
2152,9120901047292,新規,0,2023-03-24,2023-03-24,クラウドナイン株式会社,,株式会社,大阪府,茨木市,大池１丁目１４番３９号オーソライズ茨木１０１号室,,27,211,5670826,,,,,,,2023-03-24,1,,,,,クラウドナイン,0
2158,9122001036812,新規,0,2023-03-24,2023-03-24,株式会社アンドケイ,,株式会社,大阪府,東大阪市,加納３丁目１番２６号,,27,227,5780901,,,,,,,2023-03-24,1,,,,,アンドケイ,0
2171,9140001129535,新規,0,2023-03-24,2023-03-24,アントラージュ株式会社,,株式会社,兵庫県,神戸市垂水区,旭が丘１丁目８番２３号ヒルトップテラス６Ｆ,,28,108,6550033,,,,,,,2023-03-24,1,,,,,アントラージュ,0
2173,9140003018884,新規,0,2023-03-24,2023-03-24,合同会社ｆｉｖｅＣｏｌｏｒｓ,,合同会社,兵庫県,神戸市垂水区,五色山８丁目１番３９号,,28,108,6550035,,,,,,,2023-03-24,1,,,,,ファイブカラーズ,0
2178,9180001155486,新規,0,2023-03-24,2023-03-24,株式会社Ｓｅｃｉｌ　ｗａｎ　Ｃｏｍｐａｎｙ,,株式会社,愛知県,名古屋市緑区,鳴海町字北浦７２番地の１,,23,114,4580801,,,,,,,2023-03-24,1,,,,,セシルワンカンパニー,0
2181,9180003025010,新規,0,2023-03-24,2023-03-24,合同会社Ｐｒｏｓｓｉｍｏ,,合同会社,愛知県,稲沢市,奥田町山ケ田５１０２番地１０,,23,220,4928233,,,,,,,2023-03-24,1,,,,,プロッシモ,0
2184,9190001030267,新規,0,2023-03-24,2023-03-24,Ｌｉｇｈｔ　Ｗｏｒｋｅｒ株式会社,,株式会社,三重県,桑名市,大字入江葭町１１番地,,24,205,5110000,,,,,,,2023-03-24,1,,,,,ライトワーカー,0
2185,9190003004269,新規,0,2023-03-24,2023-03-24,合同会社Ｃｏｗｌ,,合同会社,三重県,鈴鹿市,若松東１丁目２１番２３号１０２,,24,207,5100225,,,,,,,2023-03-24,1,,,,,カウル,0
2187,9200001041097,新規,0,2023-03-24,2023-03-24,株式会社Ｅｘｉｔｏ　ｔｅｃｈ,,株式会社,岐阜県,美濃加茂市,中部台２丁目１４番地１６ミウラマンション１０３,,21,211,5050038,,,,,,,2023-03-24,1,,,,,エクシトテック,0
2196,9240001061249,新規,0,2023-03-24,2023-03-24,株式会社優綺,,株式会社,広島県,安芸郡府中町,本町３丁目１番７号コーポテラス司１０３,,34,302,7350006,,,,,,,2023-03-24,1,,,,,ユウキ,0
2202,9260001037759,新規,0,2023-03-24,2023-03-24,株式会社ＡＣＭＣ,,株式会社,岡山県,倉敷市,中庄３２０６番地５０,,33,202,7100016,,,,,,,2023-03-24,1,,,,,エーシーエムシー,0
2207,9290001100951,新規,0,2023-03-24,2023-03-24,株式会社セルモエステート,,株式会社,福岡県,福岡市中央区,平尾２丁目１６－７,,40,133,8100014,,,,,,,2023-03-24,1,,,,,セルモエステート,0
2215,9290005018983,新規,0,2023-03-24,2023-03-24,一般社団法人ヒナギク,,その他の設立登記法人,福岡県,福岡市中央区,警固２丁目１６番３０－６０１号,,40,133,8100023,,,,,,,2023-03-24,1,,,,,ヒナギク,0
2218,9300001013251,新規,0,2023-03-24,2023-03-24,株式会社ｅｎ,,株式会社,佐賀県,伊万里市,南波多町府招２６１６番地３０,,41,205,8480015,,,,,,,2023-03-24,1,,,,,エン,0
2219,9310005008668,新規,0,2023-03-24,2023-03-24,一般財団法人地球人,,その他の設立登記法人,長崎県,佐世保市,三川内町２１９番地,,42,202,8593155,,,,,,,2023-03-24,1,,,,,チキュウジン,0
2225,9350003004327,新規,0,2023-03-24,2023-03-24,合同会社橋谷純郎,,合同会社,宮崎県,小林市,北西方２６１８番地,,45,205,8860006,,,,,,,2023-03-24,1,,,,,ハシタニジュンロウ,0
2226,9360003012824,新規,0,2023-03-24,2023-03-24,合同会社サークルチェック,,合同会社,沖縄県,豊見城市,字高嶺４４６番地６６ミオビエント高嶺８０３号,,47,212,9010213,,,,,,,2023-03-24,1,,,,,サークルチェック,0
2231,9370003006049,新規,0,2023-03-24,2023-03-24,リーベ合同会社,,合同会社,宮城県,登米市,迫町北方字大洞１２９－３５,,04,212,9870513,,,,,,,2023-03-24,1,,,,,リーベ,0
2237,9390003002070,新規,0,2023-03-24,2023-03-24,合同会社このりあ,,合同会社,山形県,東田川郡庄内町,松陽１丁目５番地１２,,06,428,9997782,,,,,,,2023-03-24,1,,,,,コノリア,0
2238,9410001013430,新規,0,2023-03-24,2023-03-24,株式会社男鹿まち企画,,株式会社,秋田県,男鹿市,船川港船川字新浜町１番２１,,05,206,0100511,,,,,,,2023-03-24,1,,,,,オガマチキカク,0
2239,9420003002686,新規,0,2023-03-24,2023-03-24,合同会社野呂吉商店,,合同会社,青森県,西津軽郡深浦町,大字驫木字亀ケ崎１１７番地１,,02,323,0382412,,,,,,,2023-03-24,1,,,,,ノロキチショウテン,0
2251,9700150114941,新規,0,2023-03-24,2023-03-24,Ｓｈｅｎｚｈｅｎ　ｓｈｏｕｐｅｉ　Ｔｅｃｈｎｏｌｏｇｙ　Ｃｏ．，Ｌｔｄ,,外国会社等,,,,,,,,８／Ｆ，Ｂｕｉｌｄｉｎｇ　Ａ９　Ｅａｓｔ，Ｌｏｎｇｗａｎｇｍｉａｏ　Ｉｎｄｕｓｔｒｉａｌ，Ｆｕｙｏｎｇ　Ｔｏｗｎ，Ｂａｏａｎ　Ｄｉｓｔｒｉｃｔ，Ｓｈｅｎｚｈｅｎ，Ｇｕａｎｇｄｏｎｇ　Ｐｒｏｖｉｎｃｅ，Ｃｈｉｎａ．,,,,,,2023-03-24,1,,,,,シンセンシユペイテクノロジーカンパニーリミテツド,0
