sequenceNumber,corporateNumber,process,correct,updateDate,changeDate,name,nameImageId,kind,prefectureName,cityName,streetNumber,addressImageId,prefectureCode,cityCode,postCode,addressOutside,addressOutsideImageId,closeDate,closeCause,successorCorporateNumber,changeCause,assignmentDate,latest,enName,enPrefectureName,enCityName,enAddressOutside,furigana,hihyoji
17,1010701025491,登記記録の閉鎖等,0,2022-02-10,2022-02-08,株式会社深紅,,株式会社,東京都,品川区,東五反田５丁目２５番１９号,,13,109,1410022,,,2022-02-08,清算の結了等,,,2015-10-05,1,,,,,シンク,0
31,1011001049132,登記記録の閉鎖等,0,2022-02-10,2022-01-21,株式会社Ｊ２,,株式会社,東京都,渋谷区,幡ヶ谷１丁目８番４号,,13,113,1510072,,,2022-01-21,清算の結了等,,,2015-10-05,1,,,,,ジェイツー,0
63,1012802007476,登記記録の閉鎖等,0,2022-02-10,2022-02-08,有限会社フレックハウジング,,有限会社,東京都,東大和市,清原４丁目１１番地の６,,13,220,2070011,,,2022-02-08,清算の結了等,,,2015-10-05,1,,,,,フレックハウジング,0
70,1020001005053,登記記録の閉鎖等,0,2022-02-10,2022-02-08,株式会社井組自動車工業,,株式会社,神奈川県,横浜市旭区,上川井町５６４番地,,14,112,2410802,,,2022-02-08,清算の結了等,,,2015-10-05,1,,,,,イクミジドウシャコウギョウ,0
78,1020003015876,登記記録の閉鎖等,0,2022-02-10,2022-02-04,ボイジャー合同会社,,合同会社,神奈川県,横浜市栄区,桂台南１丁目２２－２２,,14,115,2470033,,,2022-02-04,清算の結了等,,,2019-04-10,1,,,,,ボイジャー,0
82,1021003008853,登記記録の閉鎖等,0,2022-02-10,2022-02-02,合同会社世宸,,合同会社,神奈川県,伊勢原市,板戸６８２番地の１,,14,214,2591145,,,2022-02-02,清算の結了等,,,2019-11-11,1,,,,,セシン,0
89,1030005018100,登記記録の閉鎖等,0,2022-02-10,2022-02-07,一般社団法人日本Ｄｒ講師業協会,,その他の設立登記法人,東京都,中央区,銀座６丁目１３番１６号銀座ＷａｌｌビルＵＣＦ５階,,13,102,1040061,,,2022-02-07,清算の結了等,,,2016-08-22,1,,,,,ニホンディーアールコウシギョウキョウカイ,0
97,1040003015008,登記記録の閉鎖等,0,2022-02-10,2022-02-03,合同会社アイノモト,,合同会社,千葉県,千葉市中央区,白旗３丁目２５番２５号サン白旗１０１号,,12,101,2600841,,,2022-02-03,清算の結了等,,,2020-03-09,1,,,,,アイノモト,0
108,1060001007665,登記記録の閉鎖等,0,2022-02-10,2022-02-08,株式会社うおたつ,,株式会社,栃木県,宇都宮市,川田町８１０番地２,,09,201,3210111,,,2022-02-08,清算の結了等,,,2015-10-05,1,,,,,ウオタツ,0
119,1100001005854,登記記録の閉鎖等,0,2022-02-10,2022-02-07,南志賀開発株式会社,,株式会社,長野県,上高井郡高山村,大字奥山田字山田入３６８１番３５２,,20,543,3820800,,,2022-02-07,清算の結了等,,,2015-10-05,1,,,,,ミナミシガカイハツ,0
126,1110005006823,登記記録の閉鎖等,0,2022-02-10,2022-02-07,永林寺,,その他の設立登記法人,新潟県,刈羽郡刈羽村,大字油田２７６３番地,,15,504,9450321,,,2022-02-07,清算の結了等,,,2015-10-05,1,,,,,エイリンジ,0
181,1180002046907,登記記録の閉鎖等,0,2022-02-10,2022-02-07,有限会社サンエイ建装,,有限会社,愛知県,名古屋市守山区,大森八龍１丁目２９０４番地,,23,113,4630028,,,2022-02-07,清算の結了等,,,2015-10-05,1,,,,,サンエイケンソウ,0
189,1200001035081,登記記録の閉鎖等,0,2022-02-10,2022-02-07,イオンリチウムエナジー株式会社,,株式会社,岐阜県,岐阜市,金宝町１丁目１番地ＵＴビル４階,,21,201,5008847,,,2022-02-07,合併による解散等,5180001070053,令和４年２月１日名古屋市中区丸の内二丁目１６番３号丸の内Ａ・Ｔビル５階イオンリチウムエナジー株式会社（5180001070053）に合併し解散,2018-04-24,1,,,,,イオンリチウムエナジー,0
234,1380001023151,登記記録の閉鎖等,0,2022-02-10,2022-02-08,株式会社アームズ,,株式会社,福島県,郡山市,字城清水１１番地の１,,07,203,9638842,,,2022-02-08,清算の結了等,,,2015-10-05,1,,,,,,0
244,1390002010825,登記記録の閉鎖等,0,2022-02-10,2022-02-01,有限会社国土運輸,,有限会社,山形県,新庄市,大字福田字福田山７１１番地の３３,,06,205,9960053,,,2022-02-01,清算の結了等,,,2021-02-26,1,,,,,コクドウンユ,0
262,2010001123342,登記記録の閉鎖等,0,2022-02-10,2022-02-01,株式会社ギャルリー三美,,株式会社,東京都,中央区,銀座７丁目５番４号,,13,102,1040061,,,2022-02-01,合併による解散等,4010001041609,令和４年２月１日東京都中央区銀座七丁目５番４号株式会社ギヤルリーためなが（4010001041609）に合併し解散,2015-10-05,1,,,,,ギャルリーサンビ,0
265,2010001195893,登記記録の閉鎖等,0,2022-02-10,2022-02-07,めろんぱん工場株式会社,,株式会社,東京都,中央区,銀座７丁目１３番６号サガミビル２階,,13,102,1040061,,,2022-02-07,清算の結了等,,,2018-10-26,1,,,,,メロンパンコウジョウ,0
269,2010003014176,登記記録の閉鎖等,0,2022-02-10,2022-02-09,グランボワ合同会社,,合同会社,東京都,中央区,銀座１丁目１５番７号ＭＡＣ銀座ビル３階,,13,102,1040061,,,2022-02-09,清算の結了等,,,2015-10-05,1,,,,,グランボワ,0
271,2010005019223,登記記録の閉鎖等,0,2022-02-10,2022-01-21,あべのｎｉｎｉ特定目的会社,,その他の設立登記法人,東京都,千代田区,霞が関３丁目２番６号東京倶楽部ビルディング１１階,,13,101,1000013,,,2022-01-21,清算の結了等,,,2015-10-05,1,,,,,アベノニニ,0
337,2011703002049,登記記録の閉鎖等,0,2022-02-10,2022-02-07,ワイズウッズ・トゥエルブ合同会社,,合同会社,東京都,江戸川区,東小岩３丁目７番１８号,,13,123,1330052,,,2022-02-07,清算の結了等,,,2018-07-27,1,,,,,ワイズウッズトゥエルブ,0
343,2013301023385,登記記録の閉鎖等,0,2022-02-10,2022-02-02,株式会社ルーティン,,株式会社,東京都,豊島区,池袋１丁目２番７－２０２号,,13,116,1700014,,,2022-02-02,清算の結了等,,,2015-10-05,1,,,,,ルーティン,0
345,2013305001701,登記記録の閉鎖等,0,2022-02-10,2022-02-04,特定非営利活動法人実りの会,,その他の設立登記法人,東京都,中野区,中野４丁目３番１号,,13,114,1640001,,,2022-02-04,清算の結了等,,,2015-10-05,1,,,,,ミノリノカイ,0
347,2020001012635,登記記録の閉鎖等,0,2022-02-10,2022-02-08,株式会社大賀商店,,株式会社,神奈川県,横浜市南区,白妙町４丁目５９番地,,14,105,2320023,,,2022-02-08,清算の結了等,,,2015-10-05,1,,,,,オオガショウテン,0
363,2030001050683,登記記録の閉鎖等,0,2022-02-10,2022-02-03,誠信産業株式会社,,株式会社,東京都,港区,麻布台２丁目２番１２号,,13,103,1060041,,,2022-02-03,清算の結了等,,,2015-10-05,1,,,,,セイシンサンギョウ,0
395,2080401012956,登記記録の閉鎖等,0,2022-02-10,2022-02-09,株式会社キング・オールド・エイジ,,株式会社,静岡県,浜松市南区,白羽町６１２番地の１,,22,134,4300846,,,2022-02-09,清算の結了等,,,2015-10-05,1,,,,,キングオールドエイジ,0
406,2110002016114,登記記録の閉鎖等,0,2022-02-10,2022-02-08,有限会社小野石材,,有限会社,新潟県,胎内市,野中２１番地,,15,227,9592627,,,2022-02-08,清算の結了等,,,2015-10-05,1,,,,,オノセキザイ,0
452,2140001050466,登記記録の閉鎖等,0,2022-02-10,2022-02-01,株式会社なにわ松葉,,株式会社,大阪府,大阪市西区,北堀江２丁目１６番１８号,,27,106,5500014,,,2022-02-01,合併による解散等,1120001047531,令和４年２月１日大阪市西区北堀江二丁目１６番１８号株式会社松葉（1120001047531）に合併し解散,2015-10-05,1,,,,,ナニワマツバ,0
458,2180001119670,登記記録の閉鎖等,0,2022-02-10,2022-02-02,Ｓｏｃｉａｌ　Ｂａｌａｎｃｅ　Ｆｏｏｄ株式会社,,株式会社,愛知県,海部郡蟹江町,城１丁目３９６番地,,23,425,4970040,,,2022-02-02,清算の結了等,,,2015-10-05,1,,,,,ソーシャルバランスフード,0
461,2180002056509,登記記録の閉鎖等,0,2022-02-10,2022-02-04,有限会社Ｔ－４－Ｔ,,有限会社,愛知県,名古屋市守山区,鳥羽見１丁目７番３号,,23,113,4630076,,,2022-02-04,清算の結了等,,,2015-10-05,1,,,,,ティーフォーティー,0
464,2180003019043,登記記録の閉鎖等,0,2022-02-10,2022-02-07,合同会社ＭＳ,,合同会社,愛知県,知多市,清水が丘１丁目１３０１番地,,23,224,4780053,,,2022-02-07,清算の結了等,,,2018-06-20,1,,,,,エムエス,0
475,2240001008099,登記記録の閉鎖等,0,2022-02-10,2022-02-08,株式会社日本自動車友の会,,株式会社,広島県,広島市西区,南観音３丁目１番２６号,,34,104,7330035,,,2022-02-08,清算の結了等,,,2015-10-05,1,,,,,ニホンジドウシャトモノカイ,0
502,2320002006366,登記記録の閉鎖等,0,2022-02-10,2022-02-08,有限会社マスビル,,有限会社,大分県,大分市,大字羽屋１８８番地の１,,44,201,8700854,,,2022-02-08,清算の結了等,,,2015-10-05,1,,,,,マスビル,0
508,2360002008631,登記記録の閉鎖等,0,2022-02-10,2022-02-08,有限会社ＳＵＮＬＩＦＥ,,有限会社,沖縄県,那覇市,前島２丁目２番７号上原ビル２階,,47,201,9000016,,,2022-02-08,清算の結了等,,,2015-10-05,1,,,,,サンライフ,0
517,2390002002268,登記記録の閉鎖等,0,2022-02-10,2022-02-09,有限会社樋口設備工業,00084846,有限会社,山形県,山形市,大字灰塚９３３番地の３,,06,201,9902174,,,2022-02-09,清算の結了等,,,2015-10-05,1,,,,,ヒグチセツビコウギョウ,0
536,2500001021810,登記記録の閉鎖等,0,2022-02-10,2022-02-09,御荘園芸株式会社,,株式会社,愛媛県,南宇和郡愛南町,緑乙２５９２番地,,38,506,7984133,,,2022-02-09,清算の結了等,,,2019-01-21,1,,,,,ミショウエンゲイ,0
570,3010802017584,登記記録の閉鎖等,0,2022-02-10,2022-02-01,有限会社ウエイチ企画,,有限会社,東京都,大田区,多摩川２丁目２７番６－４１３号,,13,111,1460095,,,2022-02-01,清算の結了等,,,2015-10-05,1,,,,,ウエイチキカク,0
579,3011102010239,登記記録の閉鎖等,0,2022-02-10,2022-02-04,有限会社はっちゃん,,有限会社,東京都,新宿区,新宿３丁目３５番５号,,13,104,1600022,,,2022-02-04,清算の結了等,,,2015-10-05,1,,,,,ハッチャン,0
606,3020003018308,登記記録の閉鎖等,0,2022-02-10,2022-02-01,合同会社ハイアーライフ,,合同会社,神奈川県,横浜市中区,羽衣町２丁目４番地４エバーズ第８関内ビル６階,,14,104,2310047,,,2022-02-01,清算の結了等,,,2020-08-06,1,,,,,ハイアーライフ,0
609,3021005005013,登記記録の閉鎖等,0,2022-02-10,2022-02-03,医療法人社団杏仁会,,その他の設立登記法人,神奈川県,座間市,入谷５丁目１８８１番５８,,14,216,2520024,,,2022-02-03,清算の結了等,,,2015-10-05,1,,,,,キョウジンカイ,0
613,3030002090769,登記記録の閉鎖等,0,2022-02-10,2022-02-07,有限会社和光,,有限会社,埼玉県,吉川市,大字三輪野江１３８６番地３,,11,243,3420027,,,2022-02-07,清算の結了等,,,2015-10-05,1,,,,,ワコウ,0
630,3050002043361,登記記録の閉鎖等,0,2022-02-10,2022-02-07,有限会社ハシモト,,有限会社,茨城県,筑西市,二木成１９１０番地２,,08,227,3080841,,,2022-02-07,清算の結了等,,,2015-10-05,1,,,,,ハシモト,0
656,3110002023828,登記記録の閉鎖等,0,2022-02-10,2022-02-07,有限会社笹川商店,,有限会社,新潟県,上越市,清里区棚田２６１番地子,,15,222,9430523,,,2022-02-07,清算の結了等,,,2015-10-05,1,,,,,ササガワショウテン,0
662,3120001118289,登記記録の閉鎖等,0,2022-02-10,2022-02-03,株式会社豊栄電設,,株式会社,大阪府,大阪市住吉区,我孫子２丁目１１番２６号,,27,120,5580014,,,2022-02-03,清算の結了等,,,2015-10-05,1,,,,,,0
680,3122001018717,登記記録の閉鎖等,0,2022-02-10,2022-02-08,シミズ・メタルテクノ株式会社,,株式会社,大阪府,八尾市,太田新町５丁目９番地,,27,212,5810039,,,2022-02-08,清算の結了等,,,2015-10-05,1,,,,,シミズメタルテクノ,0
682,3130001040946,登記記録の閉鎖等,0,2022-02-10,2022-02-07,株式会社市之瀬建創,,株式会社,京都府,福知山市,字荒河小字町田１２４７番地の１,,26,201,6200000,,,2022-02-07,清算の結了等,,,2015-10-05,1,,,,,イチノセケンソウ,0
689,3140002011672,登記記録の閉鎖等,0,2022-02-10,2022-02-04,有限会社高田商会,,有限会社,兵庫県,神戸市兵庫区,水木通４丁目２番１９号,,28,105,6520802,,,2022-02-04,清算の結了等,,,2015-10-05,1,,,,,タカダショウカイ,0
694,3150005002593,登記記録の閉鎖等,0,2022-02-10,2022-02-07,農事組合法人池之内農事実行組合,,その他の設立登記法人,奈良県,大和郡山市,池之内町８５番地の７,,29,203,6391027,,,2022-02-07,清算の結了等,,,2015-10-05,1,,,,,イケノウチノウジジッコウクミアイ,0
706,3180302013712,登記記録の閉鎖等,0,2022-02-10,2022-02-08,有限会社長山精機,,有限会社,愛知県,豊川市,上長山町藤八１０番地４,,23,207,4411202,,,2022-02-08,清算の結了等,,,2015-10-05,1,,,,,ナガヤマセイキ,0
710,3200001036879,登記記録の閉鎖等,0,2022-02-10,2022-02-09,株式会社ＯＲＡＮＧＥ　ＧＡＴＥ,,株式会社,岐阜県,岐阜市,細畑４丁目１１番２０号,,21,201,5008238,,,2022-02-09,清算の結了等,,,2019-11-27,1,,,,,オレンジゲート,0
718,3220003003074,登記記録の閉鎖等,0,2022-02-10,2022-02-07,合同会社シンフォニア,,合同会社,石川県,羽咋市,中央町ア１８２番地１,,17,207,9250052,,,2022-02-07,清算の結了等,,,2021-06-28,1,,,,,シンフォニア,0
721,3240005005208,登記記録の閉鎖等,0,2022-02-10,2022-02-09,農事組合法人庄原青木井手水利組合,,その他の設立登記法人,広島県,庄原市,掛田町３６番地,,34,210,7270026,,,2022-02-09,清算の結了等,,,2015-10-05,1,,,,,ショウバラアオキイデスイリクミアイ,0
735,3290002049161,登記記録の閉鎖等,0,2022-02-10,2022-02-01,有限会社新香和,,有限会社,福岡県,久留米市,津福本町４９５番地,,40,203,8300047,,,2022-02-01,合併による解散等,3290001049369,令和４年２月１日福岡県久留米市津福本町４９１番地西日本カレンダー株式会社（3290001049369）に合併し解散,2015-10-05,1,,,,,シンコウワ,0
745,3350002009480,登記記録の閉鎖等,0,2022-02-10,2022-02-09,有限会社丸照青果,,有限会社,宮崎県,宮崎市,大字本郷北方２９８４番地８,,45,201,8800925,,,2022-02-09,清算の結了等,,,2015-10-05,1,,,,,マルショウセイカ,0
746,3350005001303,登記記録の閉鎖等,0,2022-02-10,2022-02-09,医療法人匡済会,,その他の設立登記法人,宮崎県,宮崎市,佐土原町下那珂２５９８番地の４,,45,201,8800212,,,2022-02-09,清算の結了等,,,2015-10-05,1,,,,,キョウサイカイ,0
757,3380005000319,登記記録の閉鎖等,0,2022-02-10,2022-02-08,奥州手延製麺協同組合,00084326,その他の設立登記法人,福島県,福島市,森合字山ノ下１８番地１,,07,201,9608003,,,2022-02-08,清算の結了等,,,2015-10-05,1,,,,,,0
774,3470002016151,登記記録の閉鎖等,0,2022-02-10,2022-02-04,藤村青果有限会社,,有限会社,香川県,観音寺市,南町１丁目１番１－１０２号,,37,205,7680070,,,2022-02-04,清算の結了等,,,2015-10-05,1,,,,,フジムラセイカ,0
785,4010001160409,登記記録の閉鎖等,0,2022-02-10,2022-02-09,ローカルバリュー株式会社,,株式会社,東京都,中央区,日本橋３丁目２番１４号新槇町ビル別館第一１階,,13,102,1030027,,,2022-02-09,清算の結了等,,,2015-10-05,1,,,,,ローカルバリュー,0
800,4010401134870,登記記録の閉鎖等,0,2022-02-10,2022-02-04,Ｍｉｎｔｅｌ株式会社,,株式会社,東京都,港区,赤坂９丁目２番１３号ｎｉｎｅｔｙｔｗｏ１３－２０２号,,13,103,1070052,,,2022-02-04,清算の結了等,,,2017-11-08,1,,,,,ミンテル,0
808,4010405018087,登記記録の閉鎖等,0,2022-02-10,2022-02-03,一般社団法人Ｌｏｎｇ　Ｆｏｒｅｓｔ,,その他の設立登記法人,東京都,港区,虎ノ門３丁目２２番１０－２０１号,,13,103,1050001,,,2022-02-03,清算の結了等,,,2019-09-25,1,,,,,ロングフォレスト,0
820,4010803000299,登記記録の閉鎖等,0,2022-02-10,2022-02-03,合資会社杉山洋装店,,合資会社,東京都,大田区,西蒲田７丁目６２番４号,,13,111,1440051,,,2022-02-03,清算の結了等,,,2015-10-05,1,,,,,スギヤマヨウソウテン,0
854,4013201017592,登記記録の閉鎖等,0,2022-02-10,2022-01-27,株式会社ディレクターズ・オフィス・ケイズ,,株式会社,東京都,目黒区,中町１丁目２５番２５号,,13,110,1530065,,,2022-01-27,清算の結了等,,,2015-10-05,1,,,,,ディレクターズオフィスケイズ,0
857,4013301044958,登記記録の閉鎖等,0,2022-02-10,2022-02-01,株式会社創恒,,株式会社,東京都,豊島区,西池袋１丁目１０番２号日高ビル４０１,,13,116,1710021,,,2022-02-01,清算の結了等,,,2019-12-16,1,,,,,ソウコウ,0
865,4021001013415,登記記録の閉鎖等,0,2022-02-10,2022-02-07,株式会社中谷工務店,,株式会社,神奈川県,相模原市南区,御園５丁目７番３４号,,14,153,2520317,,,2022-02-07,清算の結了等,,,2015-10-05,1,,,,,ナカヤコウムテン,0
868,4021005011448,登記記録の閉鎖等,0,2022-02-10,2022-02-08,特定非営利活動法人種まきネットワーク,,その他の設立登記法人,神奈川県,横浜市旭区,白根２丁目１６番１－２０４号,,14,112,2410005,,,2022-02-08,清算の結了等,,,2018-12-05,1,,,,,タネマキネットワーク,0
879,4040001004810,登記記録の閉鎖等,0,2022-02-10,2022-02-04,千葉電子産業株式会社,,株式会社,千葉県,千葉市若葉区,桜木６丁目２１番２号,,12,104,2640028,,,2022-02-04,清算の結了等,,,2015-10-05,1,,,,,チバデンシサンギョウ,0
885,4040002092177,登記記録の閉鎖等,0,2022-02-10,2022-02-03,有限会社ワールド坂口,,有限会社,千葉県,柏市,北柏１丁目１番地１,,12,217,2770832,,,2022-02-03,清算の結了等,,,2015-10-05,1,,,,,ワールドサカグチ,0
894,4070005009522,登記記録の閉鎖等,0,2022-02-10,2022-02-07,一般社団法人ポテンシャル,,その他の設立登記法人,群馬県,伊勢崎市,太田町１１４６番地７,,10,204,3720006,,,2022-02-07,清算の結了等,,,2018-10-16,1,,,,,ポテンシャル,0
895,4080001023575,登記記録の閉鎖等,0,2022-02-10,2022-02-07,株式会社ＴＫＫ,,株式会社,静岡県,静岡市駿河区,国吉田６丁目６番１４号,,22,102,4228004,,,2022-02-07,清算の結了等,,,2020-06-10,1,,,,,ティケーケー,0
908,4120001145258,登記記録の閉鎖等,0,2022-02-10,2022-02-03,株式会社エヌズプランニング,,株式会社,大阪府,大阪市淀川区,西三国１丁目３２番１号,,27,123,5320006,,,2022-02-03,清算の結了等,,,2015-10-05,1,,,,,エヌズプランニング,0
924,4120002020468,登記記録の閉鎖等,0,2022-02-10,2022-02-08,有限会社原興産,,有限会社,大阪府,大阪市浪速区,日本橋５丁目６番１８号,,27,111,5560005,,,2022-02-08,清算の結了等,,,2015-10-05,1,,,,,ハラコウサン,0
954,4180001040016,登記記録の閉鎖等,0,2022-02-10,2022-02-08,彦坂木材株式会社,,株式会社,愛知県,名古屋市中区,正木２丁目３番２４号,,23,106,4600024,,,2022-02-08,清算の結了等,,,2015-10-05,1,,,,,ヒコサカモクザイ,0
959,4180305000756,登記記録の閉鎖等,0,2022-02-10,2022-02-09,医療法人一心会,,その他の設立登記法人,愛知県,岡崎市,明大寺本町１丁目７番地,,23,202,4440860,,,2022-02-09,清算の結了等,,,2015-10-05,1,,,,,イッシンカイ,0
973,4260005008471,登記記録の閉鎖等,0,2022-02-10,2022-02-03,中倉生産森林組合,,その他の設立登記法人,岡山県,真庭市,日野上４７１５番地,,33,214,7193146,,,2022-02-03,清算の結了等,,,2015-10-05,1,,,,,ナカグラ,0
974,4280002004686,登記記録の閉鎖等,0,2022-02-10,2022-01-28,有限会社山陰ハイネル,,有限会社,島根県,安来市,東赤江町８７５番地２,,32,206,6920016,,,2022-01-28,清算の結了等,,,2015-10-05,1,,,,,サンインハイネル,0
983,4290801027878,登記記録の閉鎖等,0,2022-02-10,2022-02-07,株式会社竜営書店,,株式会社,福岡県,北九州市小倉北区,熊谷１丁目２８番４１号,,40,106,8030864,,,2022-02-07,清算の結了等,,,2021-10-06,1,,,,,リュウエイショテン,0
999,4410001011414,登記記録の閉鎖等,0,2022-02-10,2022-02-07,光エコサービス株式会社,,株式会社,秋田県,北秋田市,米内沢字七曲８４番地３,,05,213,0184301,,,2022-02-07,清算の結了等,,,2017-01-27,1,,,,,ヒカリエコサービス,0
1000,4430001044189,登記記録の閉鎖等,0,2022-02-10,2022-02-07,株式会社中部工機,,株式会社,北海道,苫小牧市,拓勇西町７丁目７番１号,,01,213,0591302,,,2022-02-07,清算の結了等,,,2015-10-05,1,,,,,チュウブコウキ,0
1022,5010403005557,登記記録の閉鎖等,0,2022-02-10,2022-02-07,合同会社ＶＴＦＡブルー,,合同会社,東京都,江戸川区,東小岩３丁目７番１８号,,13,123,1330052,,,2022-02-07,清算の結了等,,,2015-10-05,1,,,,,ヴイティーエフエーブルー,0
1024,5010403021546,登記記録の閉鎖等,0,2022-02-10,2022-02-03,Ｌｏｎｇ　Ｆｏｒｅｓｔ合同会社,,合同会社,東京都,港区,虎ノ門３丁目２２番１０－２０１号,,13,103,1050001,,,2022-02-03,清算の結了等,,,2019-10-03,1,,,,,ロングフォレスト,0
1027,5010405016841,登記記録の閉鎖等,0,2022-02-10,2022-02-04,ＭＡＲＵＭＩ特定目的会社,,その他の設立登記法人,東京都,港区,麻布台２丁目１番２－１４０６号,,13,103,1060041,,,2022-02-04,清算の結了等,,,2018-07-02,1,,,,,マルミ,0
1028,5010405018185,登記記録の閉鎖等,0,2022-02-10,2022-02-03,Ｌｏｎｇ　Ｆｏｒｅｓｔ特定目的会社,,その他の設立登記法人,東京都,港区,虎ノ門３丁目２２番１０－２０１号,,13,103,1050001,,,2022-02-03,清算の結了等,,,2019-10-25,1,,,,,ロングフォレスト,0
1043,5011003010278,登記記録の閉鎖等,0,2022-02-10,2022-01-26,セキュアネット合同会社,,合同会社,東京都,渋谷区,代々木３丁目１番１１号パシフィックスクエア代々木３階,,13,113,1510053,,,2022-01-26,清算の結了等,,,2019-08-23,1,,,,,セキュアネット,0
1046,5011301008486,登記記録の閉鎖等,0,2022-02-10,2022-02-08,株式会社新生ビル管理,,株式会社,東京都,渋谷区,桜丘町２６番１号,,13,113,1500031,,,2022-02-08,清算の結了等,,,2015-10-05,1,,,,,,0
1050,5011601016718,登記記録の閉鎖等,0,2022-02-10,2022-01-28,株式会社Ｋ・Ｔ・Ａ,,株式会社,東京都,練馬区,関町北１丁目２番１４号,,13,120,1770051,,,2022-01-28,清算の結了等,,,2015-10-05,1,,,,,ケーティーエー,0
1056,5012401020760,登記記録の閉鎖等,0,2022-02-10,2022-02-08,株式会社トータルフーズ,,株式会社,東京都,品川区,西五反田２丁目２８番１０号ＦＰ五反田ビル,,13,109,1410031,,,2022-02-08,清算の結了等,,,2015-10-05,1,,,,,トータルフーズ,0
1073,5020001069094,登記記録の閉鎖等,0,2022-02-10,2022-02-08,株式会社カスカワビル,,株式会社,神奈川県,川崎市中原区,木月３丁目１１番３１号,,14,133,2110025,,,2022-02-08,清算の結了等,,,2015-10-05,1,,,,,カスカワビル,0
1075,5020002089447,登記記録の閉鎖等,0,2022-02-10,2022-02-07,有限会社瀬角工業,,有限会社,神奈川県,川崎市高津区,久末４９６番地,,14,134,2130026,,,2022-02-07,清算の結了等,,,2015-10-05,1,,,,,セスミコウギョウ,0
1084,5030001134541,登記記録の閉鎖等,0,2022-02-10,2022-02-08,オプティモグループ株式会社,,株式会社,埼玉県,朝霞市,浜崎１丁目６番１０号,,11,227,3510033,,,2022-02-08,清算の結了等,,,2020-01-07,1,,,,,オプティモグループ,0
1086,5030002034583,登記記録の閉鎖等,0,2022-02-10,2022-02-02,有限会社ヤマユリ薬局,,有限会社,埼玉県,狭山市,根岸２丁目９番１６号,,11,215,3501325,,,2022-02-02,清算の結了等,,,2015-10-05,1,,,,,ヤマユリヤッキョク,0
1087,5030002066858,登記記録の閉鎖等,0,2022-02-10,2022-02-08,有限会社Ｔｈｅｍｉｓ,,有限会社,埼玉県,入間郡三芳町,大字上富４２７番地１１,,11,324,3540045,,,2022-02-08,清算の結了等,,,2015-10-05,1,,,,,テミス,0
1089,5030002082871,登記記録の閉鎖等,0,2022-02-10,2022-02-08,有限会社バイクショップハラグチ,,有限会社,埼玉県,鴻巣市,滝馬室９４６番地の７,,11,217,3650044,,,2022-02-08,清算の結了等,,,2015-10-05,1,,,,,バイクショップハラグチ,0
1102,5080002003385,登記記録の閉鎖等,0,2022-02-10,2022-02-09,有限会社関根商店,,有限会社,静岡県,静岡市葵区,七番町６番地の５,,22,101,4200077,,,2022-02-09,清算の結了等,,,2015-10-05,1,,,,,セキネショウテン,0
1111,5110002006707,登記記録の閉鎖等,0,2022-02-10,2022-02-08,有限会社山木工業,,有限会社,新潟県,新潟市秋葉区,舟戸１丁目２番５号,,15,105,9560116,,,2022-02-08,清算の結了等,,,2015-10-05,1,,,,,ヤマキコウギョウ,0
1128,5120002020228,登記記録の閉鎖等,0,2022-02-10,2022-02-07,有限会社拓新,,有限会社,大阪府,大阪市浪速区,敷津東１丁目４番１４号,,27,111,5560012,,,2022-02-07,清算の結了等,,,2015-10-05,1,,,,,タクシン,0
1163,5180002092963,登記記録の閉鎖等,0,2022-02-10,2022-02-08,有限会社Ｎ・Ｋシステム,,有限会社,三重県,桑名郡木曽岬町,大字富田子３１０番地２７,,24,303,4980813,,,2022-02-08,清算の結了等,,,2015-10-05,1,,,,,エヌケーシステム,0
1174,5240001008071,登記記録の閉鎖等,0,2022-02-10,2022-02-07,日本機電株式会社,,株式会社,広島県,広島市中区,鉄砲町３番４号,,34,101,7300017,,,2022-02-07,清算の結了等,,,2015-10-05,1,,,,,ニホンキデン,0
1227,5490001007008,登記記録の閉鎖等,0,2022-02-10,2022-02-08,株式会社四万十保険事務所,,株式会社,高知県,四万十市,中村京町１丁目１２番地１,,39,210,7870021,,,2022-02-08,清算の結了等,,,2015-10-05,1,,,,,シマントホケンジムショ,0
1232,6010001097260,登記記録の閉鎖等,0,2022-02-10,2022-02-03,株式会社ゴトーボタン,,株式会社,東京都,中央区,東日本橋２丁目１７番２号,,13,102,1030004,,,2022-02-03,清算の結了等,,,2015-10-05,1,,,,,ゴトーボタン,0
1282,6010801001768,登記記録の閉鎖等,0,2022-02-10,2022-02-02,株式会社エムアイシー,,株式会社,東京都,大田区,田園調布２丁目２０番１１号,,13,111,1450071,,,2022-02-02,清算の結了等,,,2015-10-05,1,,,,,エムアイシー,0
1304,6011702010115,登記記録の閉鎖等,0,2022-02-10,2022-02-07,有限会社ブラウニーソフト,,有限会社,東京都,江戸川区,清新町１丁目１番１８－３０６号,,13,123,1340087,,,2022-02-07,清算の結了等,,,2015-10-05,1,,,,,ブラウニーソフト,0
1309,6012801002812,登記記録の閉鎖等,0,2022-02-10,2022-02-04,株式会社キョーワトレンド,,株式会社,東京都,千代田区,神田須田町１丁目２８番４号,,13,101,1010041,,,2022-02-04,合併による解散等,6140001048523,令和４年２月１日兵庫県尼崎市御園町５番地株式会社レゾンディレクション（6140001048523）に合併し解散,2015-10-05,1,,,,,キョーワトレンド,0
1342,6040001034376,登記記録の閉鎖等,0,2022-02-10,2022-02-04,株式会社ミルキーテイメント,,株式会社,千葉県,千葉市美浜区,高浜３丁目１番２－１００５号,,12,106,2610003,,,2022-02-04,清算の結了等,,,2015-10-05,1,,,,,ミルキーテイメント,0
1357,6050002023492,登記記録の閉鎖等,0,2022-02-10,2022-02-07,有限会社トラス,,有限会社,茨城県,つくば市,下広岡７２５番地２８,,08,220,3050042,,,2022-02-07,清算の結了等,,,2015-10-05,1,,,,,トラス,0
1366,6110002032405,登記記録の閉鎖等,0,2022-02-10,2022-02-07,有限会社ライフ商事,,有限会社,新潟県,小千谷市,東栄１丁目８番３９号,,15,208,9470004,,,2022-02-07,清算の結了等,,,2015-10-05,1,,,,,ライフショウジ,0
1369,6120001135117,登記記録の閉鎖等,0,2022-02-10,2022-02-08,株式会社ヒューコム,,株式会社,大阪府,大阪市中央区,瓦町３丁目４番９号,,27,128,5410048,,,2022-02-08,清算の結了等,,,2015-10-05,1,,,,,ヒューコム,0
1417,6140005022301,登記記録の閉鎖等,0,2022-02-10,2022-02-10,特定非営利活動法人おとなの笑学校,,その他の設立登記法人,兵庫県,高砂市,荒井町小松原５丁目６番１５号,,28,216,6760011,,,2022-02-10,清算の結了等,,,2015-10-05,1,,,,,オトナノショウガッコウ,0
1419,6150002002494,登記記録の閉鎖等,0,2022-02-10,2022-02-04,有限会社奈良荘苑,,有限会社,奈良県,奈良市,東紀寺町２丁目１番１１－４０２号,,29,201,6308305,,,2022-02-04,清算の結了等,,,2015-10-05,1,,,,,ナラソウエン,0
1425,6180001019223,登記記録の閉鎖等,0,2022-02-10,2022-02-04,株式会社加納商店,,株式会社,愛知県,名古屋市中川区,西日置１丁目８番３３号,,23,110,4540004,,,2022-02-04,清算の結了等,,,2015-10-05,1,,,,,カノウショウテン,0
1429,6180001078814,登記記録の閉鎖等,0,2022-02-10,2022-02-04,株式会社コウキョエン,,株式会社,愛知県,瀬戸市,北浦町４丁目６番地,,23,204,4890915,,,2022-02-04,清算の結了等,,,2015-10-05,1,,,,,コウキョエン,0
1434,6180003020550,登記記録の閉鎖等,0,2022-02-10,2022-02-07,合同会社グッドスマイル,,合同会社,愛知県,弥富市,鍋平４丁目１６番地５,,23,235,4901406,,,2022-02-07,清算の結了等,,,2019-11-18,1,,,,,グッドスマイル,0
1438,6190001006856,登記記録の閉鎖等,0,2022-02-10,2022-02-09,南勢シャープ販売株式会社,,株式会社,三重県,伊勢市,一之木２丁目１２番４号,,24,203,5160071,,,2022-02-09,清算の結了等,,,2015-10-05,1,,,,,ナンセイシヤープハンバイ,0
1448,6230001008352,登記記録の閉鎖等,0,2022-02-10,2022-02-08,株式会社トラベル企画,,株式会社,富山県,砺波市,大辻６３２番地,00078888,16,208,9391328,,,2022-02-08,清算の結了等,,,2015-10-05,1,,,,,トラベルキカク,0
1499,6460401000183,登記記録の閉鎖等,0,2022-02-10,2022-02-08,株式会社根室新聞社,,株式会社,北海道,根室市,大正町３丁目３番地６,,01,223,0870028,,,2022-02-08,清算の結了等,,,2015-10-05,1,,,,,ネムロシンブンシャ,0
1503,6470002000185,登記記録の閉鎖等,0,2022-02-10,2022-02-02,丸愛石材有限会社,,有限会社,香川県,高松市,庵治町６３９１番地７７,,37,201,7610130,,,2022-02-02,清算の結了等,,,2015-10-05,1,,,,,マルアイセキザイ,0
1506,7010001019420,登記記録の閉鎖等,0,2022-02-10,2022-02-08,アジリティ株式会社,,株式会社,東京都,千代田区,岩本町３丁目８番１６号,,13,101,1010032,,,2022-02-08,合併による解散等,9120001034472,令和４年２月１日東京都江東区福住二丁目５番４号ディエスヴィ・エアーシー株式会社（9120001034472）に合併し解散,2015-10-05,1,Agility Ltd.,Tokyo,"3-8-16, Iwamoto-cho, Chiyoda-ku",,アジリティ,0
1536,7010601054932,登記記録の閉鎖等,0,2022-02-10,2022-02-03,ネクスト株式会社,,株式会社,東京都,江東区,住吉２丁目３番７号イーストＫ’ｓビル,,13,108,1350002,,,2022-02-03,清算の結了等,,,2019-01-23,1,,,,,ネクスト,0
1554,7011101038822,登記記録の閉鎖等,0,2022-02-10,2022-01-31,日商不動産株式会社,,株式会社,東京都,千代田区,内神田１丁目１８番１１－３０８号,,13,101,1010047,,,2022-01-31,清算の結了等,,,2015-10-05,1,,,,,ニッショウフドウサン,0
1567,7011402017491,登記記録の閉鎖等,0,2022-02-10,2022-02-07,有限会社飛翔,,有限会社,東京都,板橋区,東坂下１丁目１０番４号,,13,119,1740042,,,2022-02-07,清算の結了等,,,2015-10-05,1,,,,,,0
1584,7013201006659,登記記録の閉鎖等,0,2022-02-10,2022-01-27,東京サプライ株式会社,,株式会社,東京都,目黒区,下目黒５丁目３番１２号,,13,110,1530064,,,2022-01-27,清算の結了等,,,2015-10-05,1,,,,,トウキョウサプライ,0
1590,7020001113890,登記記録の閉鎖等,0,2022-02-10,2022-02-01,株式会社中央防災ホールディングス,,株式会社,神奈川県,横浜市神奈川区,富家町１番地１３,,14,102,2210821,,,2022-02-01,合併による解散等,3020001023722,令和４年１月３１日横浜市神奈川区富家町１番地１３株式会社中央防災技研（3020001023722）に合併し解散,2015-12-07,1,,,,,チュウオウボウサイホールディングス,0
1595,7021001025052,登記記録の閉鎖等,0,2022-02-10,2022-02-07,株式会社小野田建築設計事務所,,株式会社,神奈川県,大和市,大和南２丁目１０番１４号,,14,213,2420016,,,2022-02-07,清算の結了等,,,2015-10-05,1,,,,,オノダケンチクセッケイジムショ,0
1597,7021005002097,登記記録の閉鎖等,0,2022-02-10,2022-02-07,学校法人材木座学園,,その他の設立登記法人,神奈川県,鎌倉市,材木座６丁目１７番１９号,,14,204,2480013,,,2022-02-07,清算の結了等,,,2015-10-05,1,,,,,ザイモクザガクエン,0
1599,7030001053351,登記記録の閉鎖等,0,2022-02-10,2022-02-07,株式会社リアライズ,,株式会社,埼玉県,春日部市,増富２７０番地１４,,11,214,3440041,,,2022-02-07,清算の結了等,,,2015-10-05,1,,,,,リアライズ,0
1607,7040003013006,登記記録の閉鎖等,0,2022-02-10,2022-02-02,合同会社ヤマモトエージェンシー,,合同会社,千葉県,いすみ市,大原９０５８番地,,12,238,2980004,,,2022-02-02,清算の結了等,,,2019-03-06,1,,,,,ヤマモトエージェンシー,0
1663,7160002011840,登記記録の閉鎖等,0,2022-02-10,2022-02-04,有限会社リビングアート,,有限会社,京都府,向日市,物集女町坂本１１番２号１０５,,26,208,6170001,,,2022-02-04,清算の結了等,,,2015-10-05,1,,,,,リビングアート,0
1671,7180001111020,登記記録の閉鎖等,0,2022-02-10,2022-02-04,株式会社エイチームコネクト,,株式会社,愛知県,名古屋市中村区,名駅３丁目２８番１２号,,23,105,4500002,,,2022-02-04,合併による解散等,1180001111018,令和４年２月１日名古屋市中村区名駅三丁目２８番１２号株式会社エイチーム引越し侍（1180001111018）に合併し解散,2015-10-05,1,,,,,エイチームコネクト,0
1676,7180302026545,登記記録の閉鎖等,0,2022-02-10,2022-02-09,有限会社米由工業,,有限会社,愛知県,西尾市,米津町久手８番地１８,,23,213,4450802,,,2022-02-09,清算の結了等,,,2015-10-05,1,,,,,ヨネヨシコウギョウ,0
1677,7180303002371,登記記録の閉鎖等,0,2022-02-10,2022-02-09,合同会社ＡＪＣ,,合同会社,愛知県,刈谷市,一ツ木町４丁目６番地１３,,23,210,4480003,,,2022-02-09,清算の結了等,,,2015-10-05,1,,,,,エイジェイシー,0
1683,7200001026620,登記記録の閉鎖等,0,2022-02-10,2022-02-07,第一リース白鳥株式会社,,株式会社,岐阜県,郡上市,白鳥町二日町８７５番地の１,,21,219,5015103,,,2022-02-07,清算の結了等,,,2015-10-05,1,,,,,ダイイチリースシロトリ,0
1702,7290005004432,登記記録の閉鎖等,0,2022-02-10,2022-02-08,医療法人遠藤内科クリニック,,その他の設立登記法人,福岡県,福岡市博多区,浦田１丁目５番３１号,,40,132,8120861,,,2022-02-08,清算の結了等,,,2015-10-05,1,,,,,エンドウナイカクリニック,0
1705,7290802011341,登記記録の閉鎖等,0,2022-02-10,2022-02-07,有限会社北九スタッフ,,有限会社,福岡県,北九州市戸畑区,菅原３丁目９番２０－１０５号,,40,105,8040044,,,2022-02-07,清算の結了等,,,2015-10-05,1,,,,,キタキュウスタッフ,0
1706,7310001012634,登記記録の閉鎖等,0,2022-02-10,2022-02-09,株式会社カルミナ,,株式会社,長崎県,佐世保市,島地町１番１号岡本ビル２階,,42,202,8570879,,,2022-02-09,清算の結了等,,,2015-10-05,1,,,,,カルミナ,0
1713,7330002014108,登記記録の閉鎖等,0,2022-02-10,2022-02-07,有限会社アイムシステム,,有限会社,熊本県,熊本市東区,小山５丁目１７番２９号,,43,102,8618045,,,2022-02-07,清算の結了等,,,2015-10-05,1,,,,,アイムシステム,0
1721,7370003004640,登記記録の閉鎖等,0,2022-02-10,2022-02-07,合同会社ＧＲＥＥＮ　ＬＡＢＥＬ,,合同会社,宮城県,岩沼市,下野郷字東北谷地１８番１２号,,04,211,9892421,,,2022-02-07,清算の結了等,,,2019-12-03,1,,,,,グリーンレーベル,0
1726,7380002005639,登記記録の閉鎖等,0,2022-02-10,2022-02-08,有限会社いさみや精肉店,,有限会社,福島県,伊達郡川俣町,字中丁３０番地,,07,308,9601456,,,2022-02-08,清算の結了等,,,2015-10-05,1,,,,,イサミヤセイニクテン,0
1737,7450002011019,登記記録の閉鎖等,0,2022-02-10,2022-02-08,有限会社たぬき屋,,有限会社,北海道,稚内市,中央４丁目２番１７号,,01,214,0970022,,,2022-02-08,清算の結了等,,,2015-10-05,1,,,,,タヌキヤ,0
1748,8010001186929,登記記録の閉鎖等,0,2022-02-10,2022-02-04,株式会社ＳＴＯＣＫ６３,,株式会社,東京都,千代田区,永田町２丁目１２番４号,,13,101,1000014,,,2022-02-04,清算の結了等,,,2017-10-17,1,,,,,ストックロクジュウサン,0
1751,8010003028443,登記記録の閉鎖等,0,2022-02-10,2022-02-04,田子ウインド合同会社,,合同会社,東京都,千代田区,麹町３丁目２番地９,,13,101,1020083,,,2022-02-04,清算の結了等,,,2018-10-11,1,,,,,タッコウインド,0
1765,8010601040758,登記記録の閉鎖等,0,2022-02-10,2022-02-04,ティエヌティ通関サービス合同会社,,合同会社,東京都,江東区,新木場１丁目１２番１０号,,13,108,1360082,,,2022-02-04,清算の結了等,,,2015-10-05,1,,,,,ティエヌティツウカンサービス,0
1767,8010603005222,登記記録の閉鎖等,0,2022-02-10,2022-01-06,合同会社ギリシャ・ガストロノミア,,合同会社,兵庫県,神戸市中央区,港島中町３丁目２番１号６３－１０６号,,28,110,6500046,,,2022-01-06,清算の結了等,,,2015-10-05,1,,,,,ギリシャガストロノミア,0
1802,8011401011890,登記記録の閉鎖等,0,2022-02-10,2022-02-07,株式会社マキア,,株式会社,東京都,板橋区,小豆沢２丁目２１番１５号,,13,119,1740051,,,2022-02-07,合併による解散等,3010001207020,令和４年２月１日東京都千代田区内幸町一丁目３番３号株式会社浅野屋（3010001207020）に合併し解散,2015-10-05,1,,,,,,0
1813,8011802021811,登記記録の閉鎖等,0,2022-02-10,2022-02-10,有限会社環,,有限会社,東京都,足立区,関原２丁目３２番７号,,13,121,1230852,,,2022-02-10,清算の結了等,,,2015-10-05,1,,,,,タマキ,0
1845,8040001085095,登記記録の閉鎖等,0,2022-02-10,2022-02-03,ジンスター株式会社,,株式会社,千葉県,千葉市中央区,本町２丁目４－５ビラホンチョウ１０６,,12,101,2600012,,,2022-02-03,清算の結了等,,,2015-10-05,1,,,,,ジンスター,0
1848,8050001037715,登記記録の閉鎖等,0,2022-02-10,2022-02-07,巴建設株式会社,,株式会社,茨城県,桜川市,真壁町古城１４６番地２,,08,231,3004407,,,2022-02-07,清算の結了等,,,2015-10-05,1,,,,,トモエケンセツ,0
1850,8050002002032,登記記録の閉鎖等,0,2022-02-10,2022-02-07,有限会社瀧江木工所,,有限会社,茨城県,水戸市,見川町２５３７番地の３,,08,201,3100913,,,2022-02-07,清算の結了等,,,2015-10-05,1,,,,,,0
1852,8060001015091,登記記録の閉鎖等,0,2022-02-10,2022-02-09,株式会社栃木交通ツアー,,株式会社,栃木県,下野市,下古山２９８４番地,,09,216,3290502,,,2022-02-09,合併による解散等,3060001015088,令和４年２月１日栃木県下野市下古山２９８４番地栃木交通バス株式会社（3060001015088）に合併し解散,2015-10-05,1,,,,,トチギコウツウツアー,0
1858,8070002002666,登記記録の閉鎖等,0,2022-02-10,2022-02-08,有限会社伸成建設,,有限会社,群馬県,前橋市,上増田町６４１番地,,10,201,3792114,,,2022-02-08,清算の結了等,,,2015-10-05,1,,,,,シンセイケンセツ,0
1869,8110002011266,登記記録の閉鎖等,0,2022-02-10,2022-02-08,有限会社三共建設,,有限会社,新潟県,新潟市西蒲区,和納２５８６番地４,,15,108,9530125,,,2022-02-08,清算の結了等,,,2015-10-05,1,,,,,サンキョウケンセツ,0
1890,8120001212392,登記記録の閉鎖等,0,2022-02-10,2022-02-04,株式会社トラストクリエーション,,株式会社,大阪府,大阪市中央区,久太郎町１丁目６番２１号,,27,128,5410056,,,2022-02-04,清算の結了等,,,2018-04-03,1,,,,,トラストクリエーション,0
1891,8120001235427,登記記録の閉鎖等,0,2022-02-10,2022-02-04,たつみ交通株式会社,,株式会社,大阪府,羽曳野市,はびきの６丁目５番１１号,,27,222,5830872,,,2022-02-04,清算の結了等,,,2021-02-25,1,,,,,タツミコウツウ,0
1895,8120002011158,登記記録の閉鎖等,0,2022-02-10,2022-02-04,有限会社佐藤手帖製造所,,有限会社,大阪府,大阪市西区,京町堀３丁目６番１７号５０２,,27,106,5500003,,,2022-02-04,清算の結了等,,,2015-10-05,1,,,,,サトウテチョウセイゾウショ,0
1902,8120901022453,登記記録の閉鎖等,0,2022-02-10,2022-02-01,株式会社グリーン,,株式会社,大阪府,池田市,桃園１丁目９番３号,,27,204,5630045,,,2022-02-01,清算の結了等,,,2015-10-05,1,,,,,グリーン,0
1920,8140001083312,登記記録の閉鎖等,0,2022-02-10,2022-02-08,株式会社結城,,株式会社,兵庫県,川辺郡猪名川町,白金３丁目１４番地８,,28,301,6660257,,,2022-02-08,清算の結了等,,,2015-10-05,1,,,,,ユウキ,0
1941,8180001101499,登記記録の閉鎖等,0,2022-02-10,2022-02-08,株式会社ディエール,,株式会社,愛知県,名古屋市緑区,鳴子町５丁目８番地の３,,23,114,4580041,,,2022-02-08,清算の結了等,,,2015-10-05,1,,,,,ディエール,0
1968,8250001015188,登記記録の閉鎖等,0,2022-02-10,2022-02-09,山口宇部パワー株式会社,,株式会社,山口県,宇部市,相生町８番１号,,35,202,7550043,,,2022-02-09,清算の結了等,,,2015-10-05,1,,,,,ヤマグチウベパワー,0
1971,8260001031465,登記記録の閉鎖等,0,2022-02-10,2022-02-09,伊杣株式会社,,株式会社,岡山県,倉敷市,児島赤崎１丁目４番４２－８号,,33,202,7110931,,,2022-02-09,清算の結了等,,,2017-11-28,1,,,,,イソマ,0
1973,8260002017769,登記記録の閉鎖等,0,2022-02-10,2022-02-07,有限会社倉敷福田南新聞販売,,有限会社,岡山県,倉敷市,中畝９丁目１３番５号,,33,202,7128051,,,2022-02-07,清算の結了等,,,2015-10-05,1,,,,,クラシキフクダミナミシンブンハンバイ,0
1979,8290001095581,登記記録の閉鎖等,0,2022-02-10,2022-02-07,株式会社ＡＳ,,株式会社,福岡県,福岡市中央区,天神５丁目７番３号福岡天神北ビル６階,,40,133,8100001,,,2022-02-07,合併による解散等,6011101096193,令和４年１月３１日東京都新宿区新宿一丁目８番１号大橋御苑駅ビル７階株式会社アップセール（6011101096193）に合併し解散,2021-12-07,1,,,,,エーエス,0
1986,8290802011101,登記記録の閉鎖等,0,2022-02-10,2022-02-07,有限会社タイガー,,有限会社,福岡県,北九州市小倉南区,津田新町３丁目１６番１６号,,40,107,8000227,,,2022-02-07,清算の結了等,,,2015-10-05,1,,,,,タイガー,0
2000,8360002012396,登記記録の閉鎖等,0,2022-02-10,2022-02-02,有限会社丸高商事,,有限会社,沖縄県,沖縄市,大里１丁目１９番４０号,,47,211,9042163,,,2022-02-02,清算の結了等,,,2015-10-05,1,,,,,マルタカショウジ,0
2001,8360005003558,登記記録の閉鎖等,0,2022-02-10,2022-02-09,特定非営利活動法人女王蜂生産プロジェクト,,その他の設立登記法人,沖縄県,那覇市,安謝１丁目１８－２０,,47,201,9000003,,,2022-02-09,清算の結了等,,,2015-10-05,1,,,,,ジョウオウバチセイサンプロジェクト,0
2017,8400002003119,登記記録の閉鎖等,0,2022-02-10,2022-02-08,有限会社マルセン化工,,有限会社,岩手県,盛岡市,南大通１丁目４番７号,,03,201,0200874,,,2022-02-08,清算の結了等,,,2015-10-05,1,,,,,マルセンカコウ,0
2022,8420002007984,登記記録の閉鎖等,0,2022-02-10,2022-02-07,有限会社ともえクリーニング,,有限会社,青森県,八戸市,大字本鍛冶町４番地,,02,203,0310045,,,2022-02-07,清算の結了等,,,2015-10-05,1,,,,,トモエクリーニング,0
2075,9011002006604,登記記録の閉鎖等,0,2022-02-10,2022-01-27,有限会社鈴長クリーニング,,有限会社,東京都,渋谷区,初台１丁目３７番４号,,13,113,1510061,,,2022-01-27,清算の結了等,,,2015-10-05,1,,,,,スズチョウクリーニング,0
2086,9011602008388,登記記録の閉鎖等,0,2022-02-10,2022-02-07,有限会社平井酒店,,有限会社,東京都,練馬区,氷川台３丁目６番７号,,13,120,1790084,,,2022-02-07,清算の結了等,,,2015-10-05,1,,,,,ヒライサケテン,0
2104,9020001056782,登記記録の閉鎖等,0,2022-02-10,2022-02-08,株式会社オオムラ装芸,,株式会社,神奈川県,横浜市戸塚区,下倉田町１８番地１ブロードスクエア戸塚６２１号,,14,110,2440815,,,2022-02-08,清算の結了等,,,2015-10-05,1,,,,,オオムラソウゲイ,0
2106,9020002080055,登記記録の閉鎖等,0,2022-02-10,2022-02-08,有限会社テクノアート,,有限会社,神奈川県,横浜市金沢区,能見台４丁目１番１十番館２１０号,,14,108,2360057,,,2022-02-08,清算の結了等,,,2015-10-05,1,,,,,テクノアート,0
2116,9040001078453,登記記録の閉鎖等,0,2022-02-10,2022-02-02,株式会社アロム,,株式会社,千葉県,流山市,向小金１丁目３７８番地の１南柏パークハウスＡ－３０３,,12,220,2700143,,,2022-02-02,清算の結了等,,,2015-10-05,1,,,,,アロム,0
2135,9080402005515,登記記録の閉鎖等,0,2022-02-10,2022-02-08,有限会社トミオ技研,,有限会社,静岡県,浜松市南区,三島町１６２６番地の２,,22,134,4300853,,,2022-02-08,清算の結了等,,,2015-10-05,1,,,,,トミオギケン,0
2140,9110001002348,登記記録の閉鎖等,0,2022-02-10,2022-02-08,進栄軽金株式会社,,株式会社,新潟県,新潟市中央区,東幸町１番１８号,,15,103,9500906,,,2022-02-08,清算の結了等,,,2015-10-05,1,,,,,,0
2153,9120102016733,登記記録の閉鎖等,0,2022-02-10,2022-02-07,有限会社喜志興産,,有限会社,大阪府,富田林市,木戸山町７番３６号,,27,214,5840004,,,2022-02-07,清算の結了等,,,2015-10-05,1,,,,,キシコウサン,0
2167,9150003001591,登記記録の閉鎖等,0,2022-02-10,2022-02-07,合同会社エムズ,,合同会社,奈良県,大和高田市,中三倉堂２丁目１１番６０号,,29,202,6350045,,,2022-02-07,清算の結了等,,,2017-04-06,1,,,,,エムズ,0
2171,9180001108766,登記記録の閉鎖等,0,2022-02-10,2022-02-04,株式会社エイチームブライズ,,株式会社,愛知県,名古屋市中村区,名駅３丁目２８番１２号,,23,105,4500002,,,2022-02-04,合併による解散等,1180001111018,令和４年２月１日名古屋市中村区名駅三丁目２８番１２号株式会社エイチーム引越し侍（1180001111018）に合併し解散,2015-10-05,1,,,,,エイチームブライズ,0
2176,9180002012265,登記記録の閉鎖等,0,2022-02-10,2022-02-03,有限会社ネオ,,有限会社,愛知県,名古屋市北区,東水切町２丁目１８番地,,23,103,4620828,,,2022-02-03,清算の結了等,,,2015-10-05,1,,,,,ネオ,0
2194,9240002050218,登記記録の閉鎖等,0,2022-02-10,2022-02-03,有限会社岡本ソーイング,,有限会社,広島県,尾道市,向島町岩子島５９２番地の１,,34,205,7220072,,,2022-02-03,清算の結了等,,,2015-10-05,1,,,,,オカモトソーイング,0
2204,9290001005036,登記記録の閉鎖等,0,2022-02-10,2022-02-03,株式会社エフ・エー・ブイ,,株式会社,福岡県,福岡市早良区,飯倉６丁目２番２号,,40,137,8140161,,,2022-02-03,清算の結了等,,,2015-10-05,1,,,,,エフエーブイ,0
2209,9290002028894,登記記録の閉鎖等,0,2022-02-10,2022-02-03,有限会社ＴＭ３,,有限会社,福岡県,福岡市中央区,天神２丁目１１番３号ソラリアステージＢ１,,40,133,8100001,,,2022-02-03,清算の結了等,,,2015-10-05,1,,,,,ティーエムスリー,0
2217,9310002011237,登記記録の閉鎖等,0,2022-02-10,2022-02-08,有限会社林田組,,有限会社,長崎県,佐世保市,東浜町３３６番地４,,42,202,8571172,,,2022-02-08,清算の結了等,,,2015-10-05,1,,,,,ハヤシダグミ,0
