sequenceNumber,corporateNumber,process,correct,updateDate,changeDate,name,nameImageId,kind,prefectureName,cityName,streetNumber,addressImageId,prefectureCode,cityCode,postCode,addressOutside,addressOutsideImageId,closeDate,closeCause,successorCorporateNumber,changeCause,assignmentDate,latest,enName,enPrefectureName,enCityName,enAddressOutside,furigana,hihyoji
6,1010001243538,新規,0,2024-04-02,2024-04-02,日本松佳株式会社,,株式会社,東京都,文京区,後楽１丁目１番５号後楽園サイドビル７０１号室,,13,105,1120004,,,,,,,2024-04-02,1,,,,,ニホンマツカ,0
7,1010001243595,新規,0,2024-04-02,2024-04-02,株式会社アドバンティアグループ,,株式会社,東京都,千代田区,神田神保町３丁目１２－３神保町スリービル８階,,13,101,1010051,,,,,,,2024-04-02,1,,,,,アドバンティアグループ,0
11,1010003043325,新規,0,2024-04-02,2024-04-02,Ｓ‐Ｐｏｗｅｒ東京１合同会社,,合同会社,東京都,中央区,日本橋１丁目４番１号,,13,102,1030027,,,,,,,2024-04-02,1,,,,,エスパワートウキョウイチ,0
14,1010401181379,新規,0,2024-04-02,2024-04-02,株式会社クサカ・コンストラクション,,株式会社,東京都,港区,麻布十番１丁目２－７ラフィネ麻布十番７０２号,,13,103,1060045,,,,,,,2024-04-02,1,,,,,クサカコンストラクション,0
15,1010401181437,新規,0,2024-04-02,2024-04-02,株式会社Ｓｔｕｄｉｏ　Ａｕｔｕｍｎ,,株式会社,東京都,港区,南青山３丁目１番３６号青山丸竹ビル６Ｆ,,13,103,1070062,,,,,,,2024-04-02,1,,,,,スタジオオータム,0
17,1010603010740,新規,0,2024-04-02,2024-04-02,星野国際合同会社,,合同会社,東京都,墨田区,京島１丁目４３番２号１－Ｄ室,,13,107,1310046,,,,,,,2024-04-02,1,,,,,ホシノコクサイ,0
18,1010801034913,新規,0,2024-04-02,2024-04-02,ＰＧＲ株式会社,,株式会社,東京都,大田区,雪谷大塚町７番１２－９０３号,,13,111,1450067,,,,,,,2024-04-02,1,,,,,ピージーアール,0
19,1010803004897,新規,0,2024-04-02,2024-04-02,合同会社ＡＮＡＳＥＮＳ,,合同会社,東京都,大田区,蒲田３丁目１２番１４号,,13,111,1440052,,,,,,,2024-04-02,1,,,,,アナセンス,0
21,1010901054992,新規,0,2024-04-02,2024-04-02,星野原株式会社,,株式会社,東京都,世田谷区,野沢２丁目３０－３駒沢イン３１６,,13,112,1540003,,,,,,,2024-04-02,1,,,,,ホシノハラ,0
22,1010903008939,新規,0,2024-04-02,2024-04-02,ＹＯＮＯＲＩ合同会社,,合同会社,東京都,世田谷区,下馬１丁目４２－２２,,13,112,1540002,,,,,,,2024-04-02,1,,,,,ヨノリ,0
23,1010903008947,新規,0,2024-04-02,2024-04-02,合同会社ｐａｄｄｌｅ,,合同会社,東京都,世田谷区,代沢１丁目５番１６号,,13,112,1550032,,,,,,,2024-04-02,1,,,,,パドル,0
29,1011001160863,新規,0,2024-04-02,2024-04-02,株式会社アダマス,,株式会社,東京都,渋谷区,幡ヶ谷３丁目８０番１２－１３０４号プラウドフラット渋谷笹塚,00134262,13,113,1510072,,,,,,,2024-04-02,1,,,,,アダマス,0
30,1011001160946,新規,0,2024-04-02,2024-04-02,株式会社ＵＴＳ,,株式会社,東京都,渋谷区,渋谷２丁目１９－１５宮益坂ビルディング６０９,,13,113,1500002,,,,,,,2024-04-02,1,,,,,ユーティーエス,0
31,1011001160970,新規,0,2024-04-02,2024-04-02,株式会社トゥデイズスペシャル,,株式会社,東京都,目黒区,碑文谷５丁目１１番１１号,,13,110,1520003,,,,,,,2024-04-02,1,,,,,トゥデイズスペシャル,0
32,1011001160987,新規,0,2024-04-02,2024-04-02,株式会社５０８,,株式会社,東京都,渋谷区,上原１丁目４７番３号クレール幸３０１,,13,113,1510064,,,,,,,2024-04-02,1,,,,,ゴーマルハチ,0
34,1011003018812,新規,0,2024-04-02,2024-04-02,ビホールド合同会社,,合同会社,東京都,目黒区,下目黒１丁目１番１４号コントラビル７階,,13,110,1530064,,,,,,,2024-04-02,1,,,,,ビホールド,0
41,1011101106675,新規,0,2024-04-02,2024-04-02,株式会社ＲＥＧＲＯＵＰ,,株式会社,東京都,新宿区,西新宿３丁目３番１３号西新宿水間ビル２Ｆ,,13,104,1600023,,,,,,,2024-04-02,1,,,,,リグループ,0
44,1011801043986,新規,0,2024-04-02,2024-04-02,株式会社アップスターツ,,株式会社,東京都,足立区,千住柳町３８番２号,,13,121,1200032,,,,,,,2024-04-02,1,,,,,アップスターツ,0
48,1013303007065,新規,0,2024-04-02,2024-04-02,ＫＪＳ　Ｐｌａｎｎｉｎｇ合同会社,,合同会社,東京都,豊島区,駒込４丁目１４番２０－４０２号,,13,116,1700003,,,,,,,2024-04-02,1,,,,,ケイジェイエスプランニング,0
62,1021001081852,新規,0,2024-04-02,2024-04-02,エル・エス・インフォメーション株式会社,,株式会社,神奈川県,相模原市緑区,橋本５丁目２０番５号,,14,151,2520143,,,,,,,2024-04-02,1,,,,,エルエスインフォメーション,0
69,1030005021608,新規,0,2024-04-02,2024-04-02,建信協同組合,,その他の設立登記法人,埼玉県,さいたま市大宮区,天沼町１丁目６０５番地の６,,11,103,3300834,,,,,,,2024-04-02,1,,,,,ケンシン,0
72,1040001132936,新規,0,2024-04-02,2024-04-02,株式会社優幸,,株式会社,千葉県,佐倉市,王子台３丁目５番地１５太田ビル１０１,,12,212,2850837,,,,,,,2024-04-02,1,,,,,ユウコウ,0
76,1050001054535,新規,0,2024-04-02,2024-04-02,ＡＲＫ株式会社,,株式会社,茨城県,猿島郡境町,陽光台２丁目１８番地９神戸屋ハイツＡ２０１号,,08,546,3060435,,,,,,,2024-04-02,1,,,,,エーアールケー,0
80,1080401027088,新規,0,2024-04-02,2024-04-02,エルピス株式会社,,株式会社,静岡県,浜松市中央区,三方原町４４７番地の４,,22,138,4338105,,,,,,,2024-04-02,1,,,,,エルピス,0
82,1090001018635,新規,0,2024-04-02,2024-04-02,株式会社ゴウケン,,株式会社,山梨県,甲斐市,大下条６１３番地,,19,210,4000126,,,,,,,2024-04-02,1,,,,,ゴウケン,0
100,1120001263582,新規,0,2024-04-02,2024-04-02,トグルキャスト株式会社,,株式会社,大阪府,大阪市淀川区,西中島１丁目１１番１号新大阪サンアールビル南別館３０４号,,27,123,5320011,,,,,,,2024-04-02,1,,,,,トグルキャスト,0
101,1120001263608,新規,0,2024-04-02,2024-04-02,翼棠株式会社,,株式会社,大阪府,大阪市大正区,三軒家西３丁目４番１６号中山ビル１０４４,,27,108,5510001,,,,,,,2024-04-02,1,,,,,ヨクトウ,0
112,1140001133916,新規,0,2024-04-02,2024-04-02,株式会社ＳＨＯ‐ＴＩＭＥ,,株式会社,兵庫県,西宮市,甲子園七番町２２番２７号,,28,204,6638177,,,,,,,2024-04-02,1,,,,,ショータイム,0
114,1140003020352,新規,0,2024-04-02,2024-04-02,合同会社ＤＨＤＱ　ＧＲＯＵＰ,,合同会社,兵庫県,神戸市兵庫区,福原町１９番１８－１０１号,,28,105,6520036,,,,,,,2024-04-02,1,,,,,ディーエイチディーキューグループ,0
116,1140005027008,新規,0,2024-04-02,2024-04-02,医療法人社団えがおのわ,,その他の設立登記法人,兵庫県,神戸市灘区,畑原通３丁目１番１７号,,28,102,6570822,,,,,,,2024-04-02,1,,,,,エガオノワ,0
125,1180001160799,新規,0,2024-04-02,2024-04-02,株式会社八木設備,,株式会社,愛知県,名古屋市守山区,守山２丁目２６番１１号,,23,113,4630067,,,,,,,2024-04-02,1,,,,,ヤギセツビ,0
126,1180001160808,新規,0,2024-04-02,2024-04-02,ＴＭ　ＧＬＯＢＡＬ株式会社,,株式会社,愛知県,名古屋市北区,楠味鋺３丁目３３１６番地,,23,103,4620014,,,,,,,2024-04-02,1,,,,,ティエムグローバル,0
128,1180003026552,新規,0,2024-04-02,2024-04-02,フューチャーテック合同会社,,合同会社,愛知県,知多郡東浦町,大字森岡字祖母懐１５番地の１５,,23,442,4702101,,,,,,,2024-04-02,1,,,,,フューチャーテック,0
134,1200001042334,新規,0,2024-04-02,2024-04-02,株式会社Ｔｚダイニング,,株式会社,岐阜県,岐阜市,市橋４丁目１０番２－１０８号（リオリエント西岐阜Ｓｔａ．）,,21,201,5008381,,,,,,,2024-04-02,1,,,,,ティーズダイニング,0
135,1210003001774,新規,0,2024-04-02,2024-04-02,合同会社コア,,合同会社,福井県,福井市,中央１丁目１１番１１号,,18,201,9100006,,,,,,,2024-04-02,1,,,,,コア,0
137,1220001025898,新規,0,2024-04-02,2024-04-02,株式会社Ｃ‐Ｔｒｕｓｔ,,株式会社,石川県,白山市,藤木町２５７番地５,,17,210,9240832,,,,,,,2024-04-02,1,,,,,シートラスト,0
140,1240001063046,新規,0,2024-04-02,2024-04-02,株式会社Ｈａｃｔ,,株式会社,広島県,安芸郡府中町,八幡４丁目２番３１号,,34,302,7350012,,,,,,,2024-04-02,1,,,,,ハクト,0
143,1240003006606,新規,0,2024-04-02,2024-04-02,なんばアセットマネジメント合同会社,,合同会社,広島県,安芸郡坂町,横浜西１丁目１４番１号,,34,309,7314324,,,,,,,2024-04-02,1,,,,,ナンバアセットマネジメント,0
146,1260001038905,新規,0,2024-04-02,2024-04-02,倉敷青木商店株式会社,,株式会社,岡山県,倉敷市,玉島八島２９２２番地３,,33,202,7138113,,,,,,,2024-04-02,1,,,,,クラシキアオキショウテン,0
150,1290801030439,新規,0,2024-04-02,2024-04-02,ＹＯＹＯ株式会社,,株式会社,福岡県,北九州市八幡西区,折尾４丁目３番４－２０５号,,40,109,8070825,,,,,,,2024-04-02,1,,,,,ヨヨ,0
151,1300003002094,新規,0,2024-04-02,2024-04-02,合同会社Ｋｏａの木,,合同会社,佐賀県,三養基郡みやき町,大字東尾２７５１番地２,,41,346,8490113,,,,,,,2024-04-02,1,,,,,コアノキ,0
154,1310001018926,新規,0,2024-04-02,2024-04-02,株式会社吉雅電器,,株式会社,長崎県,島原市,新山４丁目８８０８番地１,,42,203,8550843,,,,,,,2024-04-02,1,,,,,ヨシマサデンキ,0
158,1330001031910,新規,0,2024-04-02,2024-04-02,株式会社カインドプラス,,株式会社,熊本県,熊本市東区,秋津２丁目１番５－１号,,43,102,8612104,,,,,,,2024-04-02,1,,,,,カインドプラス,0
159,1340001026406,新規,0,2024-04-02,2024-04-02,株式会社七呂建設リフォーム,,株式会社,鹿児島県,鹿児島市,田上７丁目１５番１５号,,46,201,8900034,,,,,,,2024-04-02,1,,,,,シチロケンセツリフォーム,0
160,1340001026414,新規,0,2024-04-02,2024-04-02,薩摩オート株式会社,,株式会社,鹿児島県,日置市,伊集院町下谷口字三破レ４６５７番１,,46,216,8992501,,,,,,,2024-04-02,1,,,,,サツマオート,0
161,1340003004418,新規,0,2024-04-02,2024-04-02,アタッチ合同会社,,合同会社,鹿児島県,鹿児島市,清和４丁目２番４１号,,46,201,8910109,,,,,,,2024-04-02,1,,,,,アタッチ,0
162,1350001018880,新規,0,2024-04-02,2024-04-02,荒木電機株式会社,,株式会社,宮崎県,西都市,大字都於郡町５６０７番地,,45,208,8810105,,,,,,,2024-04-02,1,,,,,アラキデンキ,0
165,1360001033458,新規,0,2024-04-02,2024-04-02,株式会社ＷＯＲＬＤ　ＦＯＯＤＥＸ,,株式会社,沖縄県,那覇市,金城２丁目５番地７ヒルズマンション第二１階,,47,201,9010155,,,,,,,2024-04-02,1,,,,,ワールドフーデックス,0
167,1360003013862,新規,0,2024-04-02,2024-04-02,合同会社ｔｒｕｓｔ,,合同会社,沖縄県,島尻郡与那原町,字東浜９７番地の３Ｆステージ東浜６０５,,47,348,9011304,,,,,,,2024-04-02,1,,,,,トラスト,0
176,1440005002772,新規,0,2024-04-02,2024-04-02,司法書士法人やまびこ事務所,,その他の設立登記法人,北海道,二海郡八雲町,本町８７番地２階,,01,346,0493107,,,,,,,2024-04-02,1,,,,,,0
177,1460101007525,新規,0,2024-04-02,2024-04-02,ＬＡＤＯ株式会社,,株式会社,北海道,帯広市,西二十五条南３丁目２６番地９,,01,207,0802475,,,,,,,2024-04-02,1,,,,,ラド,0
179,1460301005205,新規,0,2024-04-02,2024-04-02,キャピタルイノベーション株式会社,,株式会社,北海道,北見市,とん田西町３０９番地４ＥｖｅｒＰｒｉｍａｒｙ０６　１Ｆ,,01,208,0900834,,,,,,,2024-04-02,1,,,,,キャピタルイノベーション,0
180,1470001020107,新規,0,2024-04-02,2024-04-02,株式会社タガシラ,,株式会社,香川県,綾歌郡宇多津町,浜六番丁８５－１２－６０２,,37,386,7690206,,,,,,,2024-04-02,1,,,,,タガシラ,0
181,1470003002615,新規,0,2024-04-02,2024-04-02,合同会社ＡＸＲＩＳＥ,,合同会社,香川県,高松市,林町１３３６番地６,,37,201,7610301,,,,,,,2024-04-02,1,,,,,アクセライズ,0
184,1500003003213,新規,0,2024-04-02,2024-04-02,合同会社西・水電設備,,合同会社,愛媛県,松山市,森松町４７８番地２０,,38,201,7911113,,,,,,,2024-04-02,1,,,,,ニシスイデンセツビ,0
185,1700150062603,新規,0,2024-04-02,2015-10-09,矢部製茶組合,,その他,熊本県,上益城郡山都町,南田２４５,,43,447,8613546,,,,,,,2015-10-09,1,,,,,ヤベセイチヤクミアイ,0
187,1700150124691,新規,0,2024-04-02,2024-04-02,ＡＵＴＯ　ＭＥＤ　ＬＡＮＫＡ,,外国会社等,茨城県,筑西市,宮後４９番地６９,,08,227,3004503,スリランカ民主社会主義共和国、ウェッラガラ、ゴナガマ,,,,,,2024-04-02,1,,,,,オートメドランカ,0
191,2010001243438,新規,0,2024-04-02,2024-04-02,株式会社Ｐｏｒｔａ,,株式会社,東京都,中央区,日本橋富沢町３番１０号,,13,102,1030006,,,,,,,2024-04-02,1,,,,,ポルタ,0
192,2010001243594,新規,0,2024-04-02,2024-04-02,株式会社アドバンティアホールディングス,,株式会社,東京都,千代田区,神田神保町３丁目１２－３神保町スリービル８階,,13,101,1010051,,,,,,,2024-04-02,1,,,,,アドバンティアホールディングス,0
198,2010401181428,新規,0,2024-04-02,2024-04-02,株式会社Ｆｏｓｕｎ　Ｒｅａｌ　Ｗｏｒｌｄ　Ａｓｓｅｔ,,株式会社,東京都,港区,赤坂２丁目５番１号,,13,103,1070052,,,,,,,2024-04-02,1,,,,,フォースンリアルワールドアセット,0
199,2010403032307,新規,0,2024-04-02,2024-04-02,Ｉｎａｒｉ　Ｍｅｄｉｃａｌ　Ｊａｐａｎ合同会社,,合同会社,東京都,港区,六本木１丁目９番１０号アークヒルズ仙石山森タワー２８階ベーカー＆マッケンジー法律事務所（外国法共同事業）内,,13,103,1060032,,,,,,,2024-04-02,1,,,,,イナリメディカルジャパン,0
200,2010501052017,新規,0,2024-04-02,2024-04-02,株式会社ＭＩＲＡＩ,,株式会社,東京都,台東区,東上野３丁目３６番１０号ヨシイエヒルズ１１０２号室,,13,106,1100015,,,,,,,2024-04-02,1,,,,,ミライ,0
205,2010801034904,新規,0,2024-04-02,2024-04-02,株式会社Ｒ＆Ｈ,,株式会社,東京都,大田区,東雪谷４丁目１９番２－２０７号,,13,111,1450065,,,,,,,2024-04-02,1,,,,,アールアンドエイチ,0
209,2010905004596,新規,0,2024-04-02,2024-04-02,一般社団法人分散型防災データ利活用協議会,,その他の設立登記法人,東京都,世田谷区,北烏山４丁目３６番１４－３１６号,,13,112,1570061,,,,,,,2024-04-02,1,,,,,ブンサンガタボウサイデータリカツヨウキョウギカイ,0
215,2011001160937,新規,0,2024-04-02,2024-04-02,昌岡株式会社,,株式会社,東京都,目黒区,下目黒２丁目２０－２６－５０２ルジェンテ目黒,,13,110,1530064,,,,,,,2024-04-02,1,,,,,マサオカ,0
216,2011001160945,新規,0,2024-04-02,2024-04-02,株式会社Ｓｏｃｋｅｒｓａｌｔ,,株式会社,東京都,渋谷区,道玄坂１丁目１０番８号渋谷道玄坂東急ビル２Ｆ－Ｃ,,13,113,1500043,,,,,,,2024-04-02,1,,,,,ソッカーソルト,0
217,2011001160994,新規,0,2024-04-02,2024-04-02,株式会社ＷＡＮ,,株式会社,東京都,渋谷区,道玄坂１丁目１０番８号渋谷道玄坂東急ビル２Ｆ－Ｃ,,13,113,1500043,,,,,,,2024-04-02,1,,,,,ワン,0
218,2011001161010,新規,0,2024-04-02,2024-04-02,株式会社エバーオウル,,株式会社,東京都,渋谷区,円山町５番１８号道玄坂スクエア７０５,,13,113,1500044,,,,,,,2024-04-02,1,,,,,エバーオウル,0
219,2011005010444,新規,0,2024-04-02,2024-04-02,ＧＪＣＦ１６特定目的会社,,その他の設立登記法人,東京都,渋谷区,広尾１丁目１１番２号嶋本公認会計士事務所気付,,13,113,1500012,,,,,,,2024-04-02,1,,,,,ジージェイシーエフシックスティーン,0
232,2011701027163,新規,0,2024-04-02,2024-04-02,株式会社Ｌｉｂｌｅ,,株式会社,東京都,江戸川区,西葛西５丁目５番１２号長秀ビル１Ｆ,,13,123,1340088,,,,,,,2024-04-02,1,,,,,リブル,0
233,2012405004960,新規,0,2024-04-02,2024-04-02,一般社団法人動物愛護リエゾン協会,,その他の設立登記法人,東京都,小金井市,梶野町３丁目１１番３０号,,13,210,1840002,,,,,,,2024-04-02,1,,,,,ドウブツアイゴリエゾンキョウカイ,0
235,2013301052285,新規,0,2024-04-02,2024-04-02,ＡｍａｎＴｏｋｙｏ株式会社,,株式会社,東京都,豊島区,池袋２丁目３６－５喜せん・浦野共同ビル２Ｆ,,13,116,1710014,,,,,,,2024-04-02,1,,,,,アマントウキョウ,0
236,2013301052293,新規,0,2024-04-02,2024-04-02,ＪＷ　Ｄｅｖｅｌｏｐｍｅｎｔ株式会社,,株式会社,東京都,豊島区,東池袋４丁目８番１号エイチエックスビル,,13,116,1700013,,,,,,,2024-04-02,1,,,,,ジェイダブルデベロップメント,0
237,2013301052302,新規,0,2024-04-02,2024-04-02,株式会社キンセイ,,株式会社,東京都,豊島区,東池袋３丁目２１番２１－１９０８号,,13,116,1700013,,,,,,,2024-04-02,1,,,,,キンセイ,0
239,2013303007072,新規,0,2024-04-02,2024-04-02,イズミ合同会社,,合同会社,東京都,豊島区,西池袋５丁目５－２１－２３１１,,13,116,1710021,,,,,,,2024-04-02,1,,,,,イズミ,0
247,2021001081843,新規,0,2024-04-02,2024-04-02,株式会社ＨｉｇｈＲｉｓｅ,,株式会社,神奈川県,小田原市,栢山１１２１番地４６,,14,206,2500852,,,,,,,2024-04-02,1,,,,,ハイライズ,0
249,2021003014339,新規,0,2024-04-02,2024-04-02,ＨＩＫＡＲＩ　ＴＲＡＤＩＮＧ合同会社,,合同会社,神奈川県,厚木市,山際１－６オリエントハイツＮＯ．５－１０８,,14,212,2430803,,,,,,,2024-04-02,1,,,,,ヒカリトレーディング,0
252,2030001159566,新規,0,2024-04-02,2024-04-02,株式会社Ｂｅｌｌ　Ｆｌａｐ,,株式会社,埼玉県,入間市,大字小谷田１０１番地６,,11,225,3580026,,,,,,,2024-04-02,1,,,,,ベルフラップ,0
253,2030002119478,新規,0,2024-04-02,2024-04-02,有限会社さわや,,有限会社,埼玉県,飯能市,仲町６番８号,,11,209,3570038,,,,,,,2024-04-02,1,,,,,サワヤ,0
254,2030003023935,新規,0,2024-04-02,2024-04-02,合同会社ＡＩＷＯＮ,,合同会社,埼玉県,川口市,北原台３丁目６番２３－１０３号,,11,203,3330815,,,,,,,2024-04-02,1,,,,,アイヲン,0
255,2030005021598,新規,0,2024-04-02,2024-04-02,土地家屋調査士法人藤井事務所,,その他の設立登記法人,埼玉県,志木市,中宗岡１丁目３番３４－２０３号,,11,228,3530002,,,,,,,2024-04-02,1,,,,,フジイジムショ,0
272,2080101024632,新規,0,2024-04-02,2024-04-02,ビッグバン株式会社,,株式会社,静岡県,御殿場市,東田中１丁目１６番１－１０７号メゾン・グッチ,,22,215,4120026,,,,,,,2024-04-02,1,,,,,ビッグバン,0
276,2110001038290,新規,0,2024-04-02,2024-04-02,株式会社キザキ,,株式会社,新潟県,新潟市東区,河渡１丁目３番１８号２号,,15,102,9500024,,,,,,,2024-04-02,1,,,,,キザキ,0
277,2110001038299,新規,0,2024-04-02,2024-04-02,ＵＰＣＹＣＬＥ　Ｔｅｃｈｎｏｌｏｇｉｅｓ株式会社,,株式会社,新潟県,新潟市西区,小新南２丁目１３番２号,,15,107,9502028,,,,,,,2024-04-02,1,,,,,アップサイクルテクノロジーズ,0
284,2120001263557,新規,0,2024-04-02,2024-04-02,徳家物株式会社,00134272,株式会社,大阪府,大阪市生野区,新今里３丁目４番１７号ＯＧビル２０３Ｂ,,27,116,5440001,,,,,,,2024-04-02,1,,,,,トクイエブツ,0
285,2120001263565,新規,0,2024-04-02,2024-04-02,美希国際サービス株式会社,,株式会社,大阪府,大阪市住之江区,安立２丁目９番２４号,,27,125,5590003,,,,,,,2024-04-02,1,,,,,ミキコクサイサービス,0
286,2120001263607,新規,0,2024-04-02,2024-04-02,複才株式会社,,株式会社,大阪府,大阪市東成区,深江北３丁目４番２１号エクラ深江橋２０２Ｂ,,27,115,5370001,,,,,,,2024-04-02,1,,,,,フクサイ,0
287,2120001263648,新規,0,2024-04-02,2024-04-02,高山株式会社,,株式会社,大阪府,大阪市東住吉区,照ケ丘矢田１丁目４番１７ＦＵＧＡ矢田マンション３０２号室,,27,121,5460021,,,,,,,2024-04-02,1,,,,,タカヤマ,0
288,2120001263672,新規,0,2024-04-02,2024-04-02,広成株式会社,,株式会社,大阪府,大阪市浪速区,敷津西２丁目１６－４－４０１,,27,111,5560015,,,,,,,2024-04-02,1,,,,,コウセイ,0
289,2120001263680,新規,0,2024-04-02,2024-04-02,株式会社唯美工房,,株式会社,大阪府,交野市,星田西４丁目１２番ランドクォーレ星田３棟２０６,,27,230,5760015,,,,,,,2024-04-02,1,,,,,タダミコウボウ,0
296,2120101069326,新規,0,2024-04-02,2024-04-02,株式会社Ｓｏｒｉｄ,,株式会社,大阪府,堺市東区,野尻町５４４ネオガレＥＡＳＴ,,27,143,5998116,,,,,,,2024-04-02,1,,,,,ソリド,0
303,2130001076743,新規,0,2024-04-02,2024-04-02,ＲａｄｉｏＮａｎｏ　Ｔｈｅｒａｐｅｕｔｉｃｓ株式会社,,株式会社,京都府,京都市左京区,吉田本町３６番地１,,26,103,6068317,,,,,,,2024-04-02,1,,,,,ラジオナノセラピューティクス,0
312,2140001133915,新規,0,2024-04-02,2024-04-02,匠エンジニアリング株式会社,,株式会社,兵庫県,加古川市,加古川町平野７９番地の３ネオハイツ加古川９０１号,,28,210,6750063,,,,,,,2024-04-02,1,,,,,タクミエンジニアリング,0
318,2140005026999,新規,0,2024-04-02,2024-04-02,医療法人寺倉クリニック,,その他の設立登記法人,兵庫県,尼崎市,昭和通４丁目１３７宝メディカルビル阪神尼崎１Ｆ－１０２号,,28,202,6600881,,,,,,,2024-04-02,1,,,,,テラクラクリニック,0
321,2160001025788,新規,0,2024-04-02,2024-04-02,株式会社ＬＵＦＴ,,株式会社,滋賀県,近江八幡市,武佐町２９０番地１５,,25,204,5230012,,,,,,,2024-04-02,1,,,,,ルフト,0
325,2180001160708,新規,0,2024-04-02,2024-04-02,株式会社Ｏｎｅ建築設計事務所,,株式会社,愛知県,名古屋市緑区,鳥澄２丁目３１６番地,,23,114,4580025,,,,,,,2024-04-02,1,,,,,ワンケンチクセッケイジムショ,0
327,2180301038471,新規,0,2024-04-02,2024-04-02,Ｆａｍｉｌｉｅ株式会社,,株式会社,愛知県,安城市,東栄町２丁目７番４号,,23,212,4460007,,,,,,,2024-04-02,1,,,,,ファミリエ,0
329,2180303006063,新規,0,2024-04-02,2024-04-02,合同会社さくら,,合同会社,愛知県,岡崎市,上地町字赤菱１５番地,,23,202,4440824,,,,,,,2024-04-02,1,,,,,サクラ,0
330,2190003004622,新規,0,2024-04-02,2024-04-02,ＫＭＲ　ＴＲＡＤＩＮＧ　ＪＡＰＡＮ合同会社,,合同会社,三重県,桑名市,多度町大鳥居２４４番地３,,24,205,5110116,,,,,,,2024-04-02,1,,,,,ケーエムアールトレーディングジャパン,0
331,2200001042325,新規,0,2024-04-02,2024-04-02,三好産業株式会社,,株式会社,岐阜県,恵那市,中野方町２６１８,,21,210,5098231,,,,,,,2024-04-02,1,,,,,ミヨシサンギョウ,0
332,2200001042333,新規,0,2024-04-02,2024-04-02,イソザキエステート株式会社,,株式会社,岐阜県,多治見市,太平町４丁目２５番地オーエスヒルズ８０２,,21,204,5070041,,,,,,,2024-04-02,1,,,,,イソザキエステート,0
340,2240003006605,新規,0,2024-04-02,2024-04-02,依莉日中貿易合同会社,,合同会社,広島県,広島市安佐南区,伴東８丁目１０番２３－１号,,34,105,7313164,,,,,,,2024-04-02,1,,,,,イリニッチュウボウエキ,0
341,2250001020598,新規,0,2024-04-02,2024-04-02,ＡＣＵＮＡＳ株式会社,,株式会社,山口県,柳井市,伊保庄１２６７４番地３７,,35,212,7421352,,,,,,,2024-04-02,1,,,,,アクナス,0
342,2260001038912,新規,0,2024-04-02,2024-04-02,株式会社青南鑑定,,株式会社,岡山県,岡山市中区,浜６０４番地３トラストビル４０４号,,33,102,7038256,,,,,,,2024-04-02,1,,,,,セイナンカンテイ,0
344,2280001009151,新規,0,2024-04-02,2024-04-02,株式会社エム・アイ,,株式会社,島根県,松江市,竹矢町１０４３番地,,32,201,6900023,,,,,,,2024-04-02,1,,,,,エムアイ,0
345,2290001105247,新規,0,2024-04-02,2024-04-02,株式会社ＤＡＲＵＭＡ,,株式会社,福岡県,太宰府市,青山３丁目１７番２１号,,40,221,8180121,,,,,,,2024-04-02,1,,,,,ダルマ,0
346,2290001105271,新規,0,2024-04-02,2024-04-02,東洋警備Ｒ＆Ｄ株式会社,,株式会社,福岡県,福岡市博多区,博多駅前１丁目３１番１７号,,40,132,8120011,,,,,,,2024-04-02,1,,,,,トウヨウケイビアールアンドディー,0
347,2290801030438,新規,0,2024-04-02,2024-04-02,達文トレーディング株式会社,,株式会社,福岡県,築上郡築上町,大字臼田６５３番地１,,40,647,8290302,,,,,,,2024-04-02,1,,,,,タツブントレーディング,0
348,2290803004662,新規,0,2024-04-02,2024-04-02,合同会社クルマ,,合同会社,福岡県,北九州市八幡西区,上上津役３丁目６－３ホワイトキャッスル上の原Ｂ－５０３,,40,109,8070072,,,,,,,2024-04-02,1,,,,,クルマ,0
360,2310005008757,新規,0,2024-04-02,2024-04-02,一般社団法人２６聖人聖画等プロジェクト,,その他の設立登記法人,長崎県,長崎市,平和町１１番１９号２０６,,42,201,8528116,,,,,,,2024-04-02,1,,,,,ニジューロクセイジンセイガトウプロジェクト,0
362,2330005010777,新規,0,2024-04-02,2024-04-02,農事組合法人おやつファーム,,その他の設立登記法人,熊本県,上益城郡益城町,大字小谷１３４０番地,,43,443,8612204,,,,,,,2024-04-02,1,,,,,オヤツファーム,0
363,2340001026413,新規,0,2024-04-02,2024-04-02,かのや福動産株式会社,,株式会社,鹿児島県,鹿屋市,古江町６０９番地３４,,46,203,8912321,,,,,,,2024-04-02,1,,,,,カノヤフクドウサン,0
364,2340003004417,新規,0,2024-04-02,2024-04-02,合同会社もっとよくなる,,合同会社,鹿児島県,鹿児島市,上荒田町５１番１－３０８号,,46,201,8900055,,,,,,,2024-04-02,1,,,,,モットヨクナル,0
365,2350001018871,新規,0,2024-04-02,2024-04-02,株式会社ｄａｙｓ,,株式会社,宮崎県,宮崎市,大塚町乱橋４５０６番地４アメニティ大塚ＩＩ１０２号,00134267,45,201,8800951,,,,,,,2024-04-02,1,,,,,デイズ,0
366,2350001018888,新規,0,2024-04-02,2024-04-02,株式会社Ｍ‐ＳＹＳＴＥＭ,,株式会社,宮崎県,北諸県郡三股町,大字樺山５０６０番地コーポソレイユ１０１号室,,45,341,8891901,,,,,,,2024-04-02,1,,,,,エムシステム,0
371,2360001033416,新規,0,2024-04-02,2024-04-02,株式会社アフロボックス,,株式会社,沖縄県,中頭郡北谷町,字桃原６番地１,,47,326,9040104,,,,,,,2024-04-02,1,,,,,アフロボックス,0
376,2370001051128,新規,0,2024-04-02,2024-04-02,株式会社キョーリツ,,株式会社,宮城県,多賀城市,笠神１丁目１４番５０号,,04,209,9850831,,,,,,,2024-04-02,1,,,,,キョーリツ,0
381,2430003016163,新規,0,2024-04-02,2024-04-02,合同会社銀丈龍,,合同会社,北海道,札幌市手稲区,金山一条３丁目１２番６号,,01,109,0060041,,,,,,,2024-04-02,1,,,,,ギンジョーロン,0
388,2700150124518,新規,0,2024-04-02,2024-03-19,レストハウスふじみ,,その他,静岡県,藤枝市,天王町３丁目１３番１２号,,22,214,4260019,,,,,,,2024-03-19,1,,,,,レストハウスフジミ,0
389,2700150124690,新規,0,2024-04-02,2024-04-02,ＭＡＨＡＪＡＮＡ　ＭＯＴＯＲＳ,,外国会社等,千葉県,東金市,二又３３６番地２オフィス３,,12,213,2830004,スリランカ民主社会主義共和国、ノチチヤガマ、メインストリート、Ｎｏ．１３４,,,,,,2024-04-02,1,,,,,マハジヤナモータース,0
396,3010001243461,新規,0,2024-04-02,2024-04-02,株式会社ＭＩＮＯ,,株式会社,東京都,中央区,日本橋小網町１１－５,,13,102,1030016,,,,,,,2024-04-02,1,,,,,ミノ,0
406,3010401181435,新規,0,2024-04-02,2024-04-02,ＭＹ　Ｔｅｃｈ株式会社,,株式会社,東京都,港区,東新橋１丁目２番５号,,13,103,1050021,,,,,,,2024-04-02,1,,,,,マイテック,0
408,3010501051926,新規,0,2024-04-02,2024-04-02,株式会社ハイスペックビー,,株式会社,東京都,台東区,松が谷１丁目４番６号,,13,106,1110036,,,,,,,2024-04-02,1,,,,,ハイスペックビー,0
409,3010601064943,新規,0,2024-04-02,2024-04-02,株式会社シャイニージャパン,,株式会社,東京都,墨田区,亀沢１丁目２１－７バークレイ両国１０２,,13,107,1300014,,,,,,,2024-04-02,1,,,,,シャイニージャパン,0
410,3010603010739,新規,0,2024-04-02,2024-04-02,合同会社ＥＮ‐ＯＦＦＩＣＥ,,合同会社,東京都,江東区,南砂２丁目３番２－１２４２号,,13,108,1360076,,,,,,,2024-04-02,1,,,,,エンオフィス,0
414,3010901054990,新規,0,2024-04-02,2024-04-02,株式会社Ｓｈａｗｎｉｉ,,株式会社,東京都,世田谷区,野沢３丁目３１番７－８０２号,,13,112,1540003,,,,,,,2024-04-02,1,,,,,シャウニー,0
423,3011001160911,新規,0,2024-04-02,2024-04-02,株式会社アンドワン,,株式会社,東京都,渋谷区,神宮前６丁目２３番４号桑野ビル２階,,13,113,1500001,,,,,,,2024-04-02,1,,,,,アンドワン,0
424,3011001160969,新規,0,2024-04-02,2024-04-02,株式会社１２１９,,株式会社,東京都,渋谷区,神宮前１丁目９－３原宿第三コーポ３０１,,13,113,1500001,,,,,,,2024-04-02,1,,,,,イチニイチキュウ,0
425,3011001160985,新規,0,2024-04-02,2024-04-02,株式会社ＳＫＹ,,株式会社,東京都,渋谷区,渋谷３丁目１５番２号ＭＴエステートビル１Ｆ,,13,113,1500002,,,,,,,2024-04-02,1,,,,,スカイ,0
426,3011003018802,新規,0,2024-04-02,2024-04-02,合同会社ＬＩＦＥＸ,,合同会社,東京都,渋谷区,道玄坂１丁目１５番３号,,13,113,1500043,,,,,,,2024-04-02,1,,,,,リフィックス,0
427,3011003018827,新規,0,2024-04-02,2024-04-02,合同会社Ｃ・Ｍ・Ｋ,,合同会社,東京都,渋谷区,渋谷２丁目１９番１５号宮益坂ビルディング６０９,,13,113,1500002,,,,,,,2024-04-02,1,,,,,シーエムケー,0
432,3011501030507,新規,0,2024-04-02,2024-04-02,株式会社オネスト不動産,,株式会社,東京都,北区,志茂３丁目３番３号,,13,117,1150042,,,,,,,2024-04-02,1,,,,,オネストフドウサン,0
441,3013103001324,新規,0,2024-04-02,2024-04-02,ＢＡＮＤｉＳＨ合同会社,,合同会社,東京都,あきる野市,五日市８１１ー１,,13,228,1900164,,,,,,,2024-04-02,1,,,,,バンディッシュ,0
464,3030001159482,新規,0,2024-04-02,2024-04-02,株式会社ＣＪ,,株式会社,埼玉県,坂戸市,花影町２１番地１７,,11,239,3500236,,,,,,,2024-04-02,1,,,,,シージェー,0
467,3030003023950,新規,0,2024-04-02,2024-04-02,合同会社ＳＵＺＵＫＩ,,合同会社,埼玉県,児玉郡上里町,大字大御堂７８０番地１,,11,385,3690315,,,,,,,2024-04-02,1,,,,,スズキ,0
469,3040001132926,新規,0,2024-04-02,2024-04-02,フィニックス株式会社,,株式会社,千葉県,千葉市中央区,本千葉町１番３号千葉プリマビル５階Ｃ号室,,12,101,2600014,,,,,,,2024-04-02,1,,,,,フィニックス,0
472,3040003024659,新規,0,2024-04-02,2024-04-02,合同会社海通フーズ,,合同会社,千葉県,成田市,本三里塚１００１番地４８３,,12,211,2860118,,,,,,,2024-04-02,1,,,,,カイツウフーズ,0
473,3040003024691,新規,0,2024-04-02,2024-04-02,合同会社ＬＳＥ人事総務コンサルティング,,合同会社,千葉県,松戸市,松戸新田３―３―４１９,,12,207,2702241,,,,,,,2024-04-02,1,,,,,エルエスイージンジソウムコンサルティング,0
482,3080001026216,新規,0,2024-04-02,2024-04-02,株式会社ＶＩＬＡ,,株式会社,静岡県,静岡市葵区,両替町２丁目３番１２号千両ビル４Ｆ,,22,101,4200032,,,,,,,2024-04-02,1,,,,,ビラ,0
484,3080101024631,新規,0,2024-04-02,2024-04-02,株式会社ＢｒｉＸ,,株式会社,静岡県,富士市,増川４７３―４,,22,210,4170815,,,,,,,2024-04-02,1,,,,,ブリックス,0
486,3080401027086,新規,0,2024-04-02,2024-04-02,株式会社ヨコタ,,株式会社,静岡県,浜松市中央区,野口町６７６番地,,22,138,4300919,,,,,,,2024-04-02,1,,,,,ヨコタ,0
487,3080401027094,新規,0,2024-04-02,2024-04-02,椎名塗装店株式会社,,株式会社,静岡県,浜松市浜名区,神宮寺町９番２０号,,22,139,4312216,,,,,,,2024-04-02,1,,,,,シイナトソウテン,0
493,3120001263556,新規,0,2024-04-02,2024-04-02,旭東株式会社,,株式会社,大阪府,大阪市東成区,深江北３丁目４番２１号エクラ深江橋６１５Ｄ,,27,115,5370001,,,,,,,2024-04-02,1,,,,,キョクトウ,0
494,3120001263639,新規,0,2024-04-02,2024-04-02,三興萬物株式会社,,株式会社,大阪府,大阪市旭区,生江３丁目４－２０－２Ｃ,,27,117,5350004,,,,,,,2024-04-02,1,,,,,サンコウマンブツ,0
495,3120001263663,新規,0,2024-04-02,2024-04-02,沢楽株式会社,,株式会社,大阪府,大阪市東住吉区,照ケ丘矢田２丁目７番２号淘金ビルＦ号室,,27,121,5460021,,,,,,,2024-04-02,1,,,,,タクラク,0
496,3120001263671,新規,0,2024-04-02,2024-04-02,株式会社オールフレンズ,,株式会社,大阪府,大阪市中央区,高麗橋４丁目５－２高麗橋ウエストビル３階,,27,128,5410043,,,,,,,2024-04-02,1,,,,,オールフレンズ,0
497,3120001263713,新規,0,2024-04-02,2024-04-02,和光株式会社,,株式会社,大阪府,大阪市西成区,萩之茶屋２丁目８－３ハイツニューコンパ１０６号,,27,122,5570004,,,,,,,2024-04-02,1,,,,,ワコウ,0
500,3120101069325,新規,0,2024-04-02,2024-04-02,株式会社ＯＮ,,株式会社,大阪府,堺市美原区,多治井３２番地１,,27,147,5870012,,,,,,,2024-04-02,1,,,,,オン,0
503,3120103005757,新規,0,2024-04-02,2024-04-02,合同会社ＴＥＡＭｇａｌａｘｙ,,合同会社,大阪府,堺市中区,深井清水町３４６８番地,,27,142,5998273,,,,,,,2024-04-02,1,,,,,チームギャラクシー,0
514,3140005026998,新規,0,2024-04-02,2024-04-02,医療法人社団ＦＯＲＺＡ,,その他の設立登記法人,兵庫県,西宮市,門戸荘９番１６号ネオダイキョービル１階,,28,204,6620825,,,,,,,2024-04-02,1,,,,,フォルツァ,0
517,3180001160772,新規,0,2024-04-02,2024-04-02,ＳＥＶＥＮ　ＧＬＯＷＳ株式会社,,株式会社,愛知県,海部郡大治町,大字三本木字堅田１１４番地ラフォーレ堅田１０５,,23,424,4901142,,,,,,,2024-04-02,1,,,,,セブングロース,0
518,3180001160780,新規,0,2024-04-02,2024-04-02,株式会社律,,株式会社,愛知県,名古屋市熱田区,金山町１丁目１５番３号,,23,109,4560002,,,,,,,2024-04-02,1,,,,,リツ,0
519,3180001160797,新規,0,2024-04-02,2024-04-02,Ｊａｐａｎ　Ｐｒｏｐｅｒｔｙ　Ａｇｅｎｃｙ株式会社,,株式会社,愛知県,名古屋市東区,橦木町１丁目２１番地（１３０２号）,,23,102,4610014,,,,,,,2024-04-02,1,,,,,ジャパンプロパティエイジェンシー,0
525,3200001042365,新規,0,2024-04-02,2024-04-02,株式会社エスエスプランニング,,株式会社,岐阜県,岐阜市,岩田西３丁目５３０番地３,,21,201,5013156,,,,,,,2024-04-02,1,,,,,エスエスプランニング,0
536,3240001063044,新規,0,2024-04-02,2024-04-02,株式会社グークプロモーション,,株式会社,広島県,広島市南区,比治山本町１３番６－１０２号,,34,103,7320816,,,,,,,2024-04-02,1,,,,,グークプロモーション,0
540,3250001020589,新規,0,2024-04-02,2024-04-02,株式会社ＭＡＩランド,,株式会社,山口県,山口市,小郡上郷流通センター西９０１番地１２,,35,203,7530872,,,,,,,2024-04-02,1,,,,,マイランド,0
541,3250001020597,新規,0,2024-04-02,2024-04-02,株式会社ひふみ設備,,株式会社,山口県,山口市,下小鯖３４４２番地,,35,203,7530212,,,,,,,2024-04-02,1,,,,,ヒフミセツビ,0
549,3260001038911,新規,0,2024-04-02,2024-04-02,株式会社あるとみ,,株式会社,岡山県,岡山市北区,問屋町９番地１０１タイルビル３Ｆ５,,33,101,7000977,,,,,,,2024-04-02,1,,,,,アルトミ,0
550,3260001038928,新規,0,2024-04-02,2024-04-02,株式会社小林企画,,株式会社,岡山県,岡山市南区,迫川８９５番地２,,33,104,7091211,,,,,,,2024-04-02,1,,,,,コバヤシキカク,0
551,3270003001610,新規,0,2024-04-02,2024-04-02,合同会社Ｌｉｎｋ・Ｎｅｘｔ,,合同会社,鳥取県,米子市,夜見町２５８９番地２,,31,202,6830851,,,,,,,2024-04-02,1,,,,,リンクネクスト,0
559,3290001105246,新規,0,2024-04-02,2024-04-02,株式会社響電通,,株式会社,福岡県,福岡市早良区,野芥８丁目４２番１７号,,40,137,8140171,,,,,,,2024-04-02,1,,,,,ヒビキデンツウ,0
560,3290001105262,新規,0,2024-04-02,2024-04-02,株式会社聖,,株式会社,福岡県,福岡市東区,香椎１丁目１１番１－３０３号,,40,131,8130011,,,,,,,2024-04-02,1,,,,,ヒジリ,0
561,3290001105270,新規,0,2024-04-02,2024-04-02,ＳＴＡＲ　ＬＩＧＨＴ　ｖｉｏｌｅｔ株式会社,,株式会社,福岡県,福岡市博多区,浦田１丁目２５番２号,,40,132,8120861,,,,,,,2024-04-02,1,,,,,スターライトバイオレット,0
565,3290005019335,新規,0,2024-04-02,2024-04-02,一般社団法人スプラウト,,その他の設立登記法人,福岡県,福岡市中央区,渡辺通４丁目６－２０星野ビル７階株式会社コウダプロ内,,40,133,8100004,,,,,,,2024-04-02,1,,,,,スプラウト,0
568,3330001031909,新規,0,2024-04-02,2024-04-02,株式会社古閑ファーム,,株式会社,熊本県,菊池郡菊陽町,沖野３丁目１６番１号,,43,404,8691115,,,,,,,2024-04-02,1,,,,,コガファーム,0
572,3340001026404,新規,0,2024-04-02,2024-04-02,ＮＣかごしま株式会社,,株式会社,鹿児島県,鹿児島市,東千石町２番３０号,,46,201,8920842,,,,,,,2024-04-02,1,,,,,エヌシーカゴシマ,0
573,3340001026412,新規,0,2024-04-02,2024-04-02,Ｉ・Ｂ・Ｆ株式会社,,株式会社,鹿児島県,指宿市,開聞町十町２５８１－５,,46,210,8910400,,,,,,,2024-04-02,1,,,,,アイビーエフ,0
574,3340003004416,新規,0,2024-04-02,2024-04-02,合同会社インテリアリード,,合同会社,鹿児島県,霧島市,福山町福山５１５０－１８６,,46,218,8994501,,,,,,,2024-04-02,1,,,,,インテリアリード,0
575,3350001018870,新規,0,2024-04-02,2024-04-02,株式会社エイトワークス,,株式会社,宮崎県,宮崎市,大字恒久１１８２番地４恒久事務所１Ｆ,,45,201,8800916,,,,,,,2024-04-02,1,,,,,エイトワークス,0
576,3350003004605,新規,0,2024-04-02,2024-04-02,合同会社Ｈｏｏｒａｙ,,合同会社,宮崎県,宮崎市,山崎町井ノ添５２５番地１,,45,201,8800836,,,,,,,2024-04-02,1,,,,,フーレイ,0
579,3360001033431,新規,0,2024-04-02,2024-04-02,金鬼株式会社,,株式会社,沖縄県,那覇市,久茂地３丁目１２番４号ラフテビルＢ１,,47,201,9000015,,,,,,,2024-04-02,1,,,,,キンオニ,0
581,3360003013852,新規,0,2024-04-02,2024-04-02,合同会社ブルーラボ,,合同会社,沖縄県,沖縄市,海邦１丁目７番２５号,,47,211,9042162,,,,,,,2024-04-02,1,,,,,ブルーラボ,0
585,3380003005724,新規,0,2024-04-02,2024-04-02,合同会社Ｂｒｅｅｚｅ　Ｈｏｕｓｅ,,合同会社,福島県,二本松市,木幡字仲山３８６,,07,210,9640203,,,,,,,2024-04-02,1,,,,,ブリーズハウス,0
588,3430001091439,新規,0,2024-04-02,2024-04-02,株式会社ちいさなリフォームハウス,,株式会社,北海道,札幌市豊平区,平岸四条８丁目４番１０－１０５号,,01,105,0620934,,,,,,,2024-04-02,1,,,,,チイサナリフォームハウス,0
590,3430003016154,新規,0,2024-04-02,2024-04-02,合同会社リバモア,,合同会社,北海道,札幌市中央区,宮の森二条７丁目１番４７号宮の森ウルビス１０１号,,01,101,0640952,,,,,,,2024-04-02,1,,,,,リバモア,0
591,3430003016162,新規,0,2024-04-02,2024-04-02,Ｔ３＆Ｓ合同会社,,合同会社,北海道,夕張郡長沼町,本町北１丁目１－１（ながぬまホワイトベース内）,,01,428,0691333,,,,,,,2024-04-02,1,,,,,ティースリーアンドエス,0
598,3470003002613,新規,0,2024-04-02,2024-04-02,合同会社谷口,,合同会社,香川県,さぬき市,長尾西４８４番地３,,37,206,7692302,,,,,,,2024-04-02,1,,,,,タニグチ,0
600,3500001025554,新規,0,2024-04-02,2024-04-02,株式会社ハートプロジェクト,,株式会社,愛媛県,松山市,古川北２丁目８番１１号,,38,201,7900942,,,,,,,2024-04-02,1,,,,,ハートプロジェクト,0
606,4010001243329,新規,0,2024-04-02,2024-04-02,集結テクノロジー株式会社,,株式会社,東京都,千代田区,神田神保町３丁目１０－２１ＡＳＡＫＡＤＯＴＯＷＥＲ８Ｆ,,13,101,1010051,,,,,,,2024-04-02,1,,,,,ジジエテクノロジー,0
607,4010001243576,新規,0,2024-04-02,2024-04-02,株式会社りにあもーど,,株式会社,東京都,中央区,日本橋小舟町１５番１３－４０１号,,13,102,1030024,,,,,,,2024-04-02,1,,,,,リニアモード,0
615,4010401181434,新規,0,2024-04-02,2024-04-02,Ｍｏｒｉ　Ｔｅｃｈ株式会社,,株式会社,東京都,港区,東新橋１丁目２番５号,,13,103,1050021,,,,,,,2024-04-02,1,,,,,モリテック,0
616,4010401181442,新規,0,2024-04-02,2024-04-02,東京ＭＷ株式会社,,株式会社,東京都,港区,北青山２丁目７番１３号プラセオ青山ビル３階,,13,103,1070061,,,,,,,2024-04-02,1,,,,,トウキョウミナトウエスト,0
618,4010405023104,新規,0,2024-04-02,2024-04-02,弁護士法人アストレイ,,その他の設立登記法人,東京都,港区,港南２丁目１６－１品川イーストワンタワー４階,,13,103,1080075,,,,,,,2024-04-02,1,,,,,アストレイ,0
620,4010601064926,新規,0,2024-04-02,2024-04-02,株式会社ＳＵＮＲＩＺＥ．,,株式会社,東京都,江東区,有明１丁目５番２－２９０５号,,13,108,1350063,,,,,,,2024-04-02,1,,,,,サンライズ,0
629,4011001160992,新規,0,2024-04-02,2024-04-02,株式会社ザ・コード,,株式会社,東京都,渋谷区,宇田川町３番７号ヒューリック渋谷公園通りビル５Ｆ－８８,,13,113,1500042,,,,,,,2024-04-02,1,,,,,ザコード,0
630,4011001161000,新規,0,2024-04-02,2024-04-02,株式会社ケーエスシステム測定,,株式会社,東京都,渋谷区,円山町５番５号,,13,113,1500044,,,,,,,2024-04-02,1,,,,,ケーエスシステムソクテイ,0
631,4011003018801,新規,0,2024-04-02,2024-04-02,合同会社Ｖｉｖａｃｅ,,合同会社,東京都,渋谷区,神宮前６丁目２３番４号桑野ビル２階,,13,113,1500001,,,,,,,2024-04-02,1,,,,,ビバーチェ,0
632,4011003018818,新規,0,2024-04-02,2024-04-02,合同会社江原崇夫事務所,,合同会社,東京都,渋谷区,恵比寿西２丁目４番８号ウィンド恵比寿ビル８Ｆ,,13,113,1500021,,,,,,,2024-04-02,1,,,,,エハラタカオジムショ,0
635,4011101106796,新規,0,2024-04-02,2024-04-02,株式会社オーサムクルー,,株式会社,東京都,新宿区,荒木町２２－４８タジマビル３Ｆ,,13,104,1600007,,,,,,,2024-04-02,1,,,,,オーサムクルー,0
641,4011402020333,新規,0,2024-04-02,2024-04-02,有限会社テイワイケイ,,有限会社,東京都,板橋区,志村１丁目３４番７－２０４号,,13,119,1740056,,,,,,,2024-04-02,1,,,,,テイワイケイ,0
642,4011501030489,新規,0,2024-04-02,2024-04-02,ＬＡＷＲＥＮ株式会社,,株式会社,東京都,荒川区,東尾久２丁目２番９号,,13,118,1160012,,,,,,,2024-04-02,1,,,,,ローレン,0
643,4011501030497,新規,0,2024-04-02,2024-04-02,聖元国際株式会社,,株式会社,東京都,北区,西が丘１丁目３１番５－２０１号室,,13,117,1150056,,,,,,,2024-04-02,1,,,,,サイモトコクサイ,0
645,4011603004291,新規,0,2024-04-02,2024-04-02,合同会社オーリンコンサル,,合同会社,東京都,練馬区,豊玉北５丁目１８－５岡田ビル１階,,13,120,1760012,,,,,,,2024-04-02,1,,,,,オーリンコンサル,0
655,4013301052291,新規,0,2024-04-02,2024-04-02,林通ジャパン株式会社,,株式会社,東京都,豊島区,東池袋３丁目１－１サンシャイン６０、４５階,,13,116,1700013,,,,,,,2024-04-02,1,,,,,リンツウジャパン,0
656,4013301052300,新規,0,2024-04-02,2024-04-02,株式会社ライフタイムジャパン,,株式会社,東京都,豊島区,東池袋５丁目７番３号アゼリア東池袋４０１,,13,116,1700013,,,,,,,2024-04-02,1,,,,,ライフタイムジャパン,0
673,4021003014337,新規,0,2024-04-02,2024-04-02,合同会社未来商店,,合同会社,神奈川県,足柄下郡湯河原町,土肥２丁目２―２,,14,384,2590303,,,,,,,2024-04-02,1,,,,,ミライショウテン,0
678,4030001159589,新規,0,2024-04-02,2024-04-02,株式会社Ａｌｔｅｎａ,,株式会社,埼玉県,さいたま市中央区,上落合８丁目１番２０－６０２号,,11,105,3380001,,,,,,,2024-04-02,1,,,,,アルトイーナ,0
679,4030003023900,新規,0,2024-04-02,2024-04-02,合同会社ＳＨＡＢＨＡＩ　ＴＲＡＤＩＮＧ,,合同会社,埼玉県,八潮市,中央３丁目２２番地１５昼間第６ハイツ２０２号室,,11,234,3400816,,,,,,,2024-04-02,1,,,,,シャバイトレーディング,0
695,4080001026215,新規,0,2024-04-02,2024-04-02,株式会社ＣＳＡｉｎｔｅｒｎａｔｉｏｎａｌ,,株式会社,静岡県,静岡市葵区,御幸町３番地の２１,,22,101,4200857,,,,,,,2024-04-02,1,,,,,シーエスエーインターナショナル,0
696,4080101024630,新規,0,2024-04-02,2024-04-02,ＡＶＥＩＬＥ　Ｒｏａｄ　Ｓｅｃｕｒｉｔｙ株式会社,,株式会社,静岡県,沼津市,高島町２１番２０号サンリコービル６０５,,22,203,4100056,,,,,,,2024-04-02,1,,,,,アヴェールロードセキュリティ,0
697,4080103003021,新規,0,2024-04-02,2024-04-02,合同会社クラシック,,合同会社,静岡県,富士市,入山瀬８１４番地の１ホークヒル１０５号,,22,210,4190204,,,,,,,2024-04-02,1,,,,,クラシック,0
698,4080401027085,新規,0,2024-04-02,2024-04-02,株式会社はままつ共創リエゾン奏,,株式会社,静岡県,浜松市中央区,半田山１丁目２０番１号,,22,138,4313125,,,,,,,2024-04-02,1,,,,,ハママツキョウソウリエゾンカナデ,0
699,4080401027093,新規,0,2024-04-02,2024-04-02,株式会社９６１０浜松,,株式会社,静岡県,浜松市中央区,常盤町２番地の４,,22,138,4300917,,,,,,,2024-04-02,1,,,,,クロートハママツ,0
700,4080403004982,新規,0,2024-04-02,2024-04-02,合同会社二瀬川,,合同会社,静岡県,掛川市,二瀬川２番４号,,22,213,4360042,,,,,,,2024-04-02,1,,,,,フタセガワ,0
710,4120001263646,新規,0,2024-04-02,2024-04-02,チップテック株式会社,,株式会社,大阪府,大阪市生野区,巽北１丁目７番３号２０２,00134273,27,116,5440004,,,,,,,2024-04-02,1,,,,,チップテック,0
712,4120003026274,新規,0,2024-04-02,2024-04-02,合同会社グローバルトレイズ,,合同会社,大阪府,大阪市北区,梅田１丁目２番２号大阪駅前第２ビル１２－１２,,27,127,5300001,,,,,,,2024-04-02,1,,,,,グローバルトレイズ,0
728,4130001076717,新規,0,2024-04-02,2024-04-02,株式会社Ａ‐ｒａｉｓｅ,,株式会社,京都府,向日市,物集女町燈篭前２番地の４３,,26,208,6170001,,,,,,,2024-04-02,1,,,,,エーライス,0
729,4130001076733,新規,0,2024-04-02,2024-04-02,富安達株式会社,,株式会社,京都府,京都市中京区,西ノ京船塚町１６－４－１０２,00134266,26,104,6048426,,,,,,,2024-04-02,1,,,,,トミヤスタツ,0
730,4130003009410,新規,0,2024-04-02,2024-04-02,Ｏｆｉｃ合同会社,,合同会社,京都府,京都市伏見区,紙子屋町５５４－１３－１０２,,26,109,6128318,,,,,,,2024-04-02,1,,,,,オフィック,0
739,4140005027013,新規,0,2024-04-02,2024-04-02,医療法人悠誠会,,その他の設立登記法人,兵庫県,神戸市中央区,三宮町１丁目２番１号,,28,110,6500021,,,,,,,2024-04-02,1,,,,,ユウセイカイ,0
742,4170002001018,新規,0,2024-04-02,2024-04-02,有限会社紀伊スクリーン,,有限会社,和歌山県,和歌山市,北野７１７番地,,30,201,6496331,,,,,,,2024-04-02,1,,,,,,0
751,4220001025895,新規,0,2024-04-02,2024-04-02,珠洲リース株式会社,,株式会社,石川県,白山市,福留町４５３番地,,17,210,9240051,,,,,,,2024-04-02,1,,,,,スズリース,0
755,4240001063035,新規,0,2024-04-02,2024-04-02,株式会社Ｓ・ＭｅｔａｌＳｅｒｖｉｃｅ,,株式会社,広島県,広島市安佐南区,毘沙門台１丁目２６番３１号,,34,105,7310152,,,,,,,2024-04-02,1,,,,,エスメタルサービス,0
758,4260001038902,新規,0,2024-04-02,2024-04-02,株式会社永興商事,,株式会社,岡山県,玉野市,玉原２丁目１６番４３号,,33,204,7060014,,,,,,,2024-04-02,1,,,,,エイコウショウジ,0
759,4260001038910,新規,0,2024-04-02,2024-04-02,株式会社ＯＢＳ,,株式会社,岡山県,岡山市南区,藤田６２０番地１３,,33,104,7010221,,,,,,,2024-04-02,1,,,,,オービーエス,0
760,4260001038927,新規,0,2024-04-02,2024-04-02,株式会社カルマ,,株式会社,岡山県,倉敷市,粒浦４０６番地４,,33,202,7100036,,,,,,,2024-04-02,1,,,,,カルマ,0
764,4290001105253,新規,0,2024-04-02,2024-04-02,協同電源株式会社,,株式会社,福岡県,福岡市博多区,博多駅前３丁目４番２５号アクロスキューブ博多駅前,,40,132,8120011,,,,,,,2024-04-02,1,,,,,キョウドウデンゲン,0
771,4320003004326,新規,0,2024-04-02,2024-04-02,Ｖｉａｇｅ　ｌｉｆｅ　ｃｏｍｐａｎｙ合同会社,,合同会社,大分県,臼杵市,大字二王座３８９番地の１マンション・ビラ柳原１０５号,,44,206,8750043,,,,,,,2024-04-02,1,,,,,ビアージュライフカンパニー,0
773,4320005010140,新規,0,2024-04-02,2024-04-02,一般社団法人Ｓａｉｎｔ　Ｈｏｕｓｅ由布院,,その他の設立登記法人,大分県,由布市,湯布院町川北８９４番地６６,,44,213,8795114,,,,,,,2024-04-02,1,,,,,セイントハウスユフイン,0
775,4330001031908,新規,0,2024-04-02,2024-04-02,山王商事株式会社,,株式会社,熊本県,宇土市,旭町１１６番４号,,43,211,8690432,,,,,,,2024-04-02,1,,,,,サンノウショウジ,0
778,4340001026403,新規,0,2024-04-02,2024-04-02,株式会社ＦＷＹ,,株式会社,鹿児島県,鹿児島市,武岡１丁目１０４番１号,,46,201,8900031,,,,,,,2024-04-02,1,,,,,エフダブリューワイ,0
780,4360001033414,新規,0,2024-04-02,2024-04-02,株式会社ラテラル,,株式会社,沖縄県,那覇市,識名２丁目９－２８,,47,201,9020078,,,,,,,2024-04-02,1,,,,,ラテラル,0
781,4360001033447,新規,0,2024-04-02,2024-04-02,株式会社座喜味グループ,,株式会社,沖縄県,宜野湾市,普天間１丁目２７番９－１０６号,,47,205,9012202,,,,,,,2024-04-02,1,,,,,ザキミグループ,0
785,4360003013851,新規,0,2024-04-02,2024-04-02,合同会社ＲＥＡＬ　ＥＡ,,合同会社,沖縄県,那覇市,天久１丁目５番６号アバンセ天久４０３,,47,201,9000005,,,,,,,2024-04-02,1,,,,,リアルイーエー,0
793,4380001034402,新規,0,2024-04-02,2024-04-02,株式会社ＳＴＥＰＸ,,株式会社,福島県,郡山市,大槻町字弥八池南１－４,,07,203,9630201,,,,,,,2024-04-02,1,,,,,ステップエックス,0
806,4700150124020,新規,0,2024-04-02,2024-04-02,Ｚｈｅｊｉａｎｇ　Ｓｏｎｇｋａｎｇ　Ｅｌｅｃｔｒｏｎｉｃｓ　Ｔｅｃｈｎｏｌｏｇｙ　Ｃｏ．，Ｌｔｄ,,外国会社等,,,,,,,,ｓｅｃｏｎｄ　ｐｈｒａｓｅ，ｘｉｘｉ　ｉｎｄｕｓｔｒｉａｌ　ｐａｒｋ　Ｙｕｅｑｉｎｇ　Ｚｈｅｊｉａｎｇ,,,,,,2024-04-02,1,,,,,ジョーァジアーンソーンカーンディエンズーコーァジーヨウシエンゴーンスー,0
807,4700150124689,新規,0,2024-04-02,2024-04-02,ＳＩＧＯＮＧｔｅｃｈ　Ｃｏ．，Ｌｔｄ．,,外国会社等,大阪府,大阪市中央区,今橋２丁目３－１６－４階,,27,128,5410042,大韓民国京畿道城南市盆唐区板橋駅路２２５－２０（三坪洞）,,,,,,2024-04-02,1,,,,,シゴンテツクシーオーエルテイーデイー,0
813,5010001243550,新規,0,2024-04-02,2024-04-02,株式会社ＢｅａｕｔｙＣｙｃｌｏｎｅ,,株式会社,東京都,千代田区,麹町１丁目６番地,,13,101,1020083,,,,,,,2024-04-02,1,,,,,ビューティーサイクロン,0
814,5010003043346,新規,0,2024-04-02,2024-04-02,ＵＩ湖南Ｉ合同会社,,合同会社,東京都,中央区,八丁堀４丁目２番１０号ＡＯＪ税理士法人内,,13,102,1040032,,,,,,,2024-04-02,1,,,,,ユーアイコナンイチ,0
825,5010401181342,新規,0,2024-04-02,2024-04-02,株式会社ユタ会,,株式会社,東京都,港区,虎ノ門１丁目１１番２号虎ノ門平和ビル４０１,,13,103,1050001,,,,,,,2024-04-02,1,,,,,ユタカイ,0
826,5010401181433,新規,0,2024-04-02,2024-04-02,Ｍｉ　Ｔｅｃｈ株式会社,,株式会社,東京都,港区,東新橋１丁目２番５号,,13,103,1050021,,,,,,,2024-04-02,1,,,,,ミーテック,0
827,5010401181499,新規,0,2024-04-02,2024-04-02,株式会社おもテク協会,,株式会社,東京都,港区,西麻布１丁目１５番３号西麻布ＵＯＵ４０２,,13,103,1060031,,,,,,,2024-04-02,1,,,,,オモテクキョウカイ,0
832,5010501052006,新規,0,2024-04-02,2024-04-02,ＭＴ株式会社,,株式会社,東京都,台東区,今戸２丁目１５－３,,13,106,1110024,,,,,,,2024-04-02,1,,,,,エムティー,0
833,5010501052022,新規,0,2024-04-02,2024-04-02,株式会社ケアサポ,,株式会社,東京都,台東区,谷中１丁目２番１２号,,13,106,1100001,,,,,,,2024-04-02,1,,,,,ケアサポ,0
840,5010901054997,新規,0,2024-04-02,2024-04-02,株式会社ａｒｄｔｅｃｈ,,株式会社,東京都,世田谷区,太子堂１丁目１２－２７コンフォートテラス１００５号,,13,112,1540004,,,,,,,2024-04-02,1,,,,,アードテック,0
846,5011001160950,新規,0,2024-04-02,2024-04-02,株式会社バルトゥーン,,株式会社,東京都,渋谷区,渋谷２丁目１９－１５宮益坂ビルディング６０９,,13,113,1500002,,,,,,,2024-04-02,1,,,,,バルトゥーン,0
847,5011001160983,新規,0,2024-04-02,2024-04-02,株式会社可楽,,株式会社,東京都,渋谷区,渋谷２丁目１９－１５宮益坂ビルディング６０９,,13,113,1500002,,,,,,,2024-04-02,1,,,,,カラク,0
848,5011001161016,新規,0,2024-04-02,2024-04-02,株式会社ＴＡＳＣＡＬコンサルティング,,株式会社,東京都,目黒区,上目黒３丁目３６番７－５０６号パークハウス諏訪山ＰＲＥＳＥＮＣＥ,,13,110,1530051,,,,,,,2024-04-02,1,,,,,タスカルコンサルティング,0
849,5011001161024,新規,0,2024-04-02,2024-04-02,株式会社レオ,,株式会社,東京都,渋谷区,代々木１丁目２７番６号,,13,113,1510053,,,,,,,2024-04-02,1,,,,,レオ,0
850,5011003018800,新規,0,2024-04-02,2024-04-02,Ｈ．Ｆ　ＡＬＬＩＡＮＣＥ合同会社,,合同会社,東京都,目黒区,上目黒１丁目１６番１２号,,13,110,1530051,,,,,,,2024-04-02,1,,,,,エイチエフアライアンス,0
851,5011003018833,新規,0,2024-04-02,2024-04-02,ＴＲｏｓｈ合同会社,,合同会社,東京都,渋谷区,千駄ヶ谷５丁目２７番３号やまとビル８階,,13,113,1510051,,,,,,,2024-04-02,1,,,,,ティーロッシュ,0
856,5011101106787,新規,0,2024-04-02,2024-04-02,株式会社建設生産性コンサルティング,,株式会社,東京都,新宿区,西新宿１丁目２５－１新宿センタービル４９階,,13,104,1600023,,,,,,,2024-04-02,1,,,,,ケンセツセイサンセイコンサルティング,0
857,5011105010993,新規,0,2024-04-02,2024-04-02,学校法人おおや学園,,その他の設立登記法人,東京都,新宿区,高田馬場２丁目８番１８号,,13,104,1690075,,,,,,,2024-04-02,1,,,,,オオヤガクエン,0
858,5011201025367,新規,0,2024-04-02,2024-04-02,スマートソリューション株式会社,,株式会社,東京都,中野区,江古田１丁目３４－１９,,13,114,1650022,,,,,,,2024-04-02,1,,,,,スマートソリューション,0
861,5011803006153,新規,0,2024-04-02,2024-04-02,Ｎ２　ＶＩＳＵＡＬ合同会社,,合同会社,東京都,足立区,一ツ家４丁目１２番１２号メンバーズヒル一ツ家Ｂ－１,,13,121,1210075,,,,,,,2024-04-02,1,,,,,エヌトゥービジュアル,0
864,5013101009383,新規,0,2024-04-02,2024-04-02,株式会社フォーティーン,,株式会社,東京都,あきる野市,二宮１０７９番地１０,,13,228,1970814,,,,,,,2024-04-02,1,,,,,,0
865,5013301052299,新規,0,2024-04-02,2024-04-02,株式会社ＦＩＪ２,,株式会社,東京都,豊島区,西池袋５丁目１８番１１号第３愛和ビル５階,,13,116,1710021,,,,,,,2024-04-02,1,,,,,エフアイジェイツー,0
872,5020001156165,新規,0,2024-04-02,2024-04-02,株式会社ＫＩＹＯＴＡＫＡ,,株式会社,神奈川県,横浜市鶴見区,生麦３丁目１０－３－３Ｆ,,14,101,2300052,,,,,,,2024-04-02,1,,,,,,0
882,5021001081832,新規,0,2024-04-02,2024-04-02,Ｍ３イースト株式会社,,株式会社,神奈川県,藤沢市,片瀬海岸１丁目１２番４号,,14,205,2510035,,,,,,,2024-04-02,1,,,,,エムスリーイースト,0
883,5021001081840,新規,0,2024-04-02,2024-04-02,株式会社ＴＹＳファシリティ,,株式会社,神奈川県,足柄下郡箱根町,元箱根１６０番地の２１,,14,382,2500522,,,,,,,2024-04-02,1,,,,,ティーワイエスファシリティ,0
885,5021005013055,新規,0,2024-04-02,2024-04-02,ＷＯＲＬＤ　ＰＬＵＳ協同組合,,その他の設立登記法人,神奈川県,大和市,中央林間４丁目２５番７号,,14,213,2420007,,,,,,,2024-04-02,1,,,,,ワールドプラス,0
886,5030001159497,新規,0,2024-04-02,2024-04-02,ＸＡＮＡＤＯ株式会社,,株式会社,埼玉県,入間郡毛呂山町,大字市場２１３番地,,11,326,3500434,,,,,,,2024-04-02,1,,,,,ザナドゥ,0
892,5040001132908,新規,0,2024-04-02,2024-04-02,ＹＹＴ株式会社,,株式会社,千葉県,佐倉市,臼井田８０９番地７,,12,212,2850861,,,,,,,2024-04-02,1,,,,,ワイワイティー,0
893,5040003024599,新規,0,2024-04-02,2024-04-02,合同会社スマイル体操クラブ,,合同会社,千葉県,茂原市,長尾２３０９－２,,12,210,2970073,,,,,,,2024-04-02,1,,,,,スマイルタイソウクラブ,0
904,5080101024646,新規,0,2024-04-02,2024-04-02,株式会社ＴＫプランニング,,株式会社,静岡県,三島市,本町５－４扇屋ビル１Ｆ,,22,206,4110855,,,,,,,2024-04-02,1,,,,,ティーケープランニング,0
906,5080401027092,新規,0,2024-04-02,2024-04-02,株式会社ＣＩ‐ＴＹ４１,,株式会社,静岡県,浜松市浜名区,小松７８０番地の２未来館２号室,,22,139,4340042,,,,,,,2024-04-02,1,,,,,シティヨンジュウイチ,0
907,5080403004981,新規,0,2024-04-02,2024-04-02,合同会社中部資産管理,,合同会社,静岡県,浜松市中央区,三方原町２２４０番地の１,,22,138,4338105,,,,,,,2024-04-02,1,,,,,チュウブシサンカンリ,0
914,5120001263579,新規,0,2024-04-02,2024-04-02,大辰株式会社,,株式会社,大阪府,大阪市東淀川区,大桐３丁目１０番１８号Ｌｉｖｅｓｐａｃｅ大桐３０３号室,,27,114,5330011,,,,,,,2024-04-02,1,,,,,ダイシン,0
916,5120003026273,新規,0,2024-04-02,2024-04-02,現在合同会社,,合同会社,大阪府,大阪市北区,梅田２丁目５番１３号桜橋第一ビル３０４号,,27,127,5300001,,,,,,,2024-04-02,1,,,,,ゲンザイ,0
922,5130001076716,新規,0,2024-04-02,2024-04-02,萬華荘株式会社,,株式会社,京都府,京都市下京区,東洞院通七条下る東塩小路町５５３番地２,,26,106,6008216,,,,,,,2024-04-02,1,,,,,マンカソウ,0
924,5130003009418,新規,0,2024-04-02,2024-04-02,ｈａｒｕｓｋｙ．合同会社,,合同会社,京都府,長岡京市,神足太田１番地１６,,26,209,6170833,,,,,,,2024-04-02,1,,,,,ハルスカイ,0
929,5140003020274,新規,0,2024-04-02,2024-04-02,ＲＡＭＳＩ合同会社,,合同会社,兵庫県,神戸市中央区,坂口通６丁目３番１７号,,28,110,6510062,,,,,,,2024-04-02,1,,,,,,0
930,5140003020373,新規,0,2024-04-02,2024-04-02,合同会社アット,,合同会社,兵庫県,神戸市西区,伊川谷町有瀬８１２番地の６、２－９０９号,,28,111,6512113,,,,,,,2024-04-02,1,,,,,アット,0
933,5140005027004,新規,0,2024-04-02,2024-04-02,医療法人社団翠藍,,その他の設立登記法人,兵庫県,神戸市西区,王塚台７丁目７８番地,,28,111,6512135,,,,,,,2024-04-02,1,,,,,スイラン,0
937,5180001160795,新規,0,2024-04-02,2024-04-02,株式会社ＡＬＬ　ＩＮ,,株式会社,愛知県,名古屋市中区,新栄１丁目４６番４号カーサビアンカ８０１号,,23,106,4600007,,,,,,,2024-04-02,1,,,,,オールイン,0
938,5180001160820,新規,0,2024-04-02,2024-04-02,株式会社ＶＬＴＲＡ,,株式会社,愛知県,名古屋市中村区,名駅４丁目２４番５号第２森ビル４０１,,23,105,4500002,,,,,,,2024-04-02,1,,,,,ビエレトラ,0
939,5180005020574,新規,0,2024-04-02,2024-04-02,一般社団法人天才のたね,,その他の設立登記法人,愛知県,稲沢市,下津北山１丁目１５番地１４,,23,220,4928094,,,,,,,2024-04-02,1,,,,,テンサイノタネ,0
941,5180303006060,新規,0,2024-04-02,2024-04-02,合同会社遠真州,,合同会社,愛知県,豊川市,曙町１丁目１２番地の１,,23,207,4420015,,,,,,,2024-04-02,1,,,,,トーマス,0
942,5190001031228,新規,0,2024-04-02,2024-04-02,グランディール株式会社,,株式会社,三重県,四日市市,笹川６丁目７番地１０,,24,202,5100944,,,,,,,2024-04-02,1,,,,,グランディール,0
944,5190003004636,新規,0,2024-04-02,2024-04-02,合同会社大安食品,,合同会社,三重県,松阪市,白粉町３９２番地,,24,204,5150076,,,,,,,2024-04-02,1,,,,,ダイヤショクヒン,0
951,5240003006602,新規,0,2024-04-02,2024-04-02,合同会社えむず,,合同会社,広島県,福山市,加茂町字八軒屋２３０－２フォルトゥーナＩ－１０４,00134261,34,207,7202410,,,,,,,2024-04-02,1,,,,,エムズ,0
957,5280005007603,新規,0,2024-04-02,2024-04-02,一般社団法人島根県酪農ヘルパー組合,,その他の設立登記法人,島根県,出雲市,斐川町直江５０３０番地,,32,203,6990631,,,,,,,2024-04-02,1,,,,,シマネケンラクノウヘルパークミアイ,0
960,5290001105244,新規,0,2024-04-02,2024-04-02,あすかの看板店株式会社,,株式会社,福岡県,嘉穂郡桂川町,大字寿命２８番地１,,40,421,8200603,,,,,,,2024-04-02,1,,,,,アスカノカンバンテン,0
961,5290001105252,新規,0,2024-04-02,2024-04-02,株式会社ワタナベ設備,,株式会社,福岡県,飯塚市,口原１６７６番地,,40,205,8201114,,,,,,,2024-04-02,1,,,,,ワタナベセツビ,0
963,5290003015111,新規,0,2024-04-02,2024-04-02,明心堂合同会社,,合同会社,福岡県,福岡市博多区,博多駅前２丁目１７番１４－３０６号,,40,132,8120011,,,,,,,2024-04-02,1,,,,,メイシンドウ,0
965,5290005019333,新規,0,2024-04-02,2024-04-02,一般社団法人アクアブレスヨガ協会,,その他の設立登記法人,福岡県,福岡市南区,大平寺２丁目１７番１５号,,40,134,8111354,,,,,,,2024-04-02,1,,,,,アクアブレスヨガキョウカイ,0
967,5290801030435,新規,0,2024-04-02,2024-04-02,エル・コントラクト株式会社,,株式会社,福岡県,行橋市,大字津積８６３番地,,40,213,8240047,,,,,,,2024-04-02,1,,,,,エルコントラクト,0
976,5320003004325,新規,0,2024-04-02,2024-04-02,合同会社ＨＯＰＥ,,合同会社,大分県,中津市,大字加来３３４番地３,,44,203,8710152,,,,,,,2024-04-02,1,,,,,ホープ,0
977,5330001031907,新規,0,2024-04-02,2024-04-02,株式会社ｔｈｒｅｅ‐ｐｉｅｃｅ‐ｐａｒｔｎｅｒ’ｓ,,株式会社,熊本県,菊池郡菊陽町,大字久保田２７９８番地１９,,43,404,8691103,,,,,,,2024-04-02,1,,,,,スリーピースパートナーズ,0
978,5340005009717,新規,0,2024-04-02,2024-04-02,税理士法人ＳｕＭＩｚｅｉ,,その他の設立登記法人,鹿児島県,鹿児島市,永吉２丁目２８番３号,,46,201,8900023,,,,,,,2024-04-02,1,,,,,スミゼイ,0
981,5350001018869,新規,0,2024-04-02,2024-04-02,株式会社ＫＵＲＯＫＯ,,株式会社,宮崎県,宮崎市,中村東２丁目８番３０号３Ｆ,,45,201,8800904,,,,,,,2024-04-02,1,,,,,クロコ,0
983,5360001033413,新規,0,2024-04-02,2024-04-02,株式会社んみゃーち,,株式会社,沖縄県,宮古島市,平良字狩俣３５８番地１,,47,214,9060002,,,,,,,2024-04-02,1,,,,,ンミャーチ,0
997,5380001034401,新規,0,2024-04-02,2024-04-02,株式会社ＧＡＲＤＥＮ,,株式会社,福島県,郡山市,大町１丁目４番１５号第二増子ビル２Ｆ,,07,203,9638001,,,,,,,2024-04-02,1,,,,,ガーデン,0
998,5410001013772,新規,0,2024-04-02,2024-04-02,株式会社サンケー,,株式会社,秋田県,秋田市,南ケ丘２丁目７番１４号,,05,201,0101409,,,,,,,2024-04-02,1,,,,,サンケー,0
1002,5500001025552,新規,0,2024-04-02,2024-04-02,株式会社大洋丸,,株式会社,愛媛県,今治市,宮窪町宮窪１６７１番地１,,38,202,7942203,,,,,,,2024-04-02,1,,,,,タイヨウマル,0
1003,5700150124688,新規,0,2024-04-02,2024-04-02,Ｓ．Ｍ．Ｍ．ＥＮＴＥＲＰＲＩＳＥＳ,,外国会社等,千葉県,東金市,二又３３６番地２オフィス４,,12,213,2830004,スリランカ民主社会主義共和国、ミヒンタレ、カトゥケリヤワ、カナダラ、Ｎｏ．２,,,,,,2024-04-02,1,,,,,エスエムエムエンタープライズ,0
1021,6010001243442,新規,0,2024-04-02,2024-04-02,株式会社ネオページ,,株式会社,東京都,千代田区,麹町６丁目６番２号番町麹町ビルディング５Ｆ,,13,101,1020083,,,,,,,2024-04-02,1,,,,,ネオページ,0
1022,6010001243582,新規,0,2024-04-02,2024-04-02,正信エナジージャパン株式会社,,株式会社,東京都,中央区,日本橋兜町５－１兜町第一平和ビル３Ｆ,,13,102,1030026,,,,,,,2024-04-02,1,,,,,セイシンエナジージャパン,0
1035,6010401181432,新規,0,2024-04-02,2024-04-02,Ｍｅｔａ　Ｔｏｋｙｏ株式会社,,株式会社,東京都,港区,東新橋１丁目２番５号,,13,103,1050021,,,,,,,2024-04-02,1,,,,,メタトウキョウ,0
1036,6010401181481,新規,0,2024-04-02,2024-04-02,Ｐａｓｑａｌ　Ｊａｐａｎ株式会社,,株式会社,東京都,港区,東麻布１丁目２３番５号ＰＭＣビル２Ｆ,,13,103,1060044,,,,,,,2024-04-02,1,,,,,パスカルジャパン,0
1037,6010403032303,新規,0,2024-04-02,2024-04-02,合同会社ｆｕｎｆ,,合同会社,東京都,港区,南青山３丁目１番３６号青山丸竹ビル６Ｆ,,13,103,1070062,,,,,,,2024-04-02,1,,,,,フュンフ,0
1038,6010403032311,新規,0,2024-04-02,2024-04-02,合同会社ＬＡ　Ｖｅｎｔｕｒｅ　Ｃａｐｉｔａｌ,,合同会社,東京都,港区,北青山２丁目１２番１３号,,13,103,1070061,,,,,,,2024-04-02,1,,,,,エルエーベンチャーキャピタル,0
1044,6010901054996,新規,0,2024-04-02,2024-04-02,株式会社ファーマーズグループ,,株式会社,東京都,世田谷区,池尻３丁目２７－３７,,13,112,1540001,,,,,,,2024-04-02,1,,,,,ファーマーズグループ,0
1051,6011001160941,新規,0,2024-04-02,2024-04-02,株式会社Ｒａｄｂｏｄｙ,,株式会社,東京都,渋谷区,代々木２丁目２３番１号,,13,113,1510053,,,,,,,2024-04-02,1,,,,,ラドボディ,0
1052,6011001160982,新規,0,2024-04-02,2024-04-02,フラワーコンサルティング株式会社,,株式会社,東京都,目黒区,目黒本町５丁目５番１１号,,13,110,1520002,,,,,,,2024-04-02,1,,,,,フラワーコンサルティング,0
1053,6011001160990,新規,0,2024-04-02,2024-04-02,スクラッチシステム株式会社,,株式会社,東京都,渋谷区,渋谷３丁目６番４－６０５号,,13,113,1500002,,,,,,,2024-04-02,1,,,,,スクラッチシステム,0
1054,6011001161015,新規,0,2024-04-02,2024-04-02,小丸開発株式会社,,株式会社,東京都,渋谷区,代官山町１６番２号,,13,113,1500034,,,,,,,2024-04-02,1,,,,,コマルカイハツ,0
1055,6011001161031,新規,0,2024-04-02,2024-04-02,株式会社Ｐｌａｎｔｓ　Ｕｐ,,株式会社,東京都,渋谷区,神宮前６丁目２３番４号桑野ビル２階,,13,113,1500001,,,,,,,2024-04-02,1,,,,,プランツアップ,0
1064,6012401041698,新規,0,2024-04-02,2024-04-02,株式会社イノテックス,,株式会社,東京都,調布市,東つつじケ丘１丁目６番地３ＥＣＬＡＳ１０２,,13,208,1820005,,,,,,,2024-04-02,1,,,,,イノテックス,0
1066,6013101009382,新規,0,2024-04-02,2024-04-02,もりもち株式会社,,株式会社,東京都,青梅市,富岡３丁目１０００番地岩泉荘,,13,205,1980002,,,,,,,2024-04-02,1,,,,,モリモチ,0
1071,6013301052298,新規,0,2024-04-02,2024-04-02,東錦株式会社,,株式会社,東京都,豊島区,西巣鴨４丁目１３番５－６０４号,,13,116,1700001,,,,,,,2024-04-02,1,,,,,トウキン,0
1094,6030001159546,新規,0,2024-04-02,2024-04-02,トモハシ株式会社,,株式会社,埼玉県,川口市,芝２丁目２４番１号竹内マンション３０５室,,11,203,3330866,,,,,,,2024-04-02,1,,,,,トモハシ,0
1095,6030003023964,新規,0,2024-04-02,2024-04-02,合同会社多尾田技術士事務所,,合同会社,埼玉県,さいたま市見沼区,大字南中野７２２番地２８,,11,104,3370042,,,,,,,2024-04-02,1,,,,,タオダギジュツシジムショ,0
1096,6030005021603,新規,0,2024-04-02,2024-04-02,特定非営利活動法人サンワエナジークラブ,,その他の設立登記法人,埼玉県,上尾市,上平中央２丁目２７番２８号,,11,219,3620008,,,,,,,2024-04-02,1,,,,,サンワエナジークラブ,0
1101,6040001132907,新規,0,2024-04-02,2024-04-02,株式会社ＡＣＴ,,株式会社,千葉県,千葉市若葉区,若松町９６０番地５,,12,104,2640021,,,,,,,2024-04-02,1,,,,,アクト,0
1102,6040001132923,新規,0,2024-04-02,2024-04-02,ＧＭ　Ｃｒｅａｔｉｏｎ株式会社,,株式会社,千葉県,野田市,中根８１番地,,12,208,2780031,,,,,,,2024-04-02,1,,,,,ジーエムクリエーション,0
1117,6080401027083,新規,0,2024-04-02,2024-04-02,株式会社ＮＥＷ　ＧＡＴＥ,,株式会社,静岡県,浜松市中央区,三方原町２４００番地の６,,22,138,4338105,,,,,,,2024-04-02,1,,,,,ニューゲイト,0
1118,6080401027091,新規,0,2024-04-02,2024-04-02,株式会社Ｆエデュケーショナル静岡,,株式会社,静岡県,浜松市中央区,野口町２１８番地の６Ｕライフ３０１,,22,138,4300919,,,,,,,2024-04-02,1,,,,,エフエデュケーショナルシズオカ,0
1119,6080403004980,新規,0,2024-04-02,2024-04-02,Ｈ＆Ｆ合同会社,,合同会社,静岡県,浜松市中央区,渡瀬町３４０番地の４ＳＫＹＰＩＥＡ１０２,,22,138,4350036,,,,,,,2024-04-02,1,,,,,エイチアンドエフ,0
1123,6110001038287,新規,0,2024-04-02,2024-04-02,株式会社久富,,株式会社,新潟県,十日町市,明石町１６番地,,15,210,9480046,,,,,,,2024-04-02,1,,,,,ヒサトミ,0
1124,6110003005351,新規,0,2024-04-02,2024-04-02,合同会社プティパ,,合同会社,新潟県,新潟市北区,太夫浜１７９２番地１５,,15,101,9503112,,,,,,,2024-04-02,1,,,,,プティパ,0
1133,6120001263594,新規,0,2024-04-02,2024-04-02,株式会社フォーチュン・エステート,,株式会社,大阪府,大阪市中央区,淡路町３丁目５番１３号,,27,128,5410047,,,,,,,2024-04-02,1,,,,,フォーチュンエステート,0
1134,6120001263636,新規,0,2024-04-02,2024-04-02,株式会社ＮＡＧＩ,,株式会社,大阪府,大阪市北区,堂山町１－５三共梅田ビル６Ｆ６０７号,,27,127,5300027,,,,,,,2024-04-02,1,,,,,ナギ,0
1135,6120001263652,新規,0,2024-04-02,2024-04-02,萬霖国際貿易株式会社,,株式会社,大阪府,大阪市住之江区,粉浜２丁目７番１７－２０２号,,27,125,5590001,,,,,,,2024-04-02,1,,,,,マンリンコクサイボウエキ,0
1136,6120001263710,新規,0,2024-04-02,2024-04-02,明祥株式会社,,株式会社,大阪府,大阪市阿倍野区,天王寺町南３丁目６－９－５０１,,27,119,5450002,,,,,,,2024-04-02,1,,,,,メイショウ,0
1141,6120101069330,新規,0,2024-04-02,2024-04-02,グランドレーベン株式会社,,株式会社,大阪府,堺市西区,浜寺諏訪森町中１丁１番地３,,27,144,5928348,,,,,,,2024-04-02,1,,,,,グランドレーベン,0
1142,6120101069339,新規,0,2024-04-02,2024-04-02,ストーリーズ株式会社,,株式会社,大阪府,南河内郡河南町,大字加納７７７番地の１,,27,382,5850012,,,,,,,2024-04-02,1,,,,,ストーリーズ,0
1152,6140001133886,新規,0,2024-04-02,2024-04-02,エフアンドアイ株式会社,,株式会社,兵庫県,宝塚市,雲雀丘１丁目９番２９号,,28,214,6650805,,,,,,,2024-04-02,1,,,,,エフアンドアイ,0
1153,6140001133894,新規,0,2024-04-02,2024-04-02,株式会社トリプルウィン,,株式会社,兵庫県,神戸市北区,鈴蘭台西町１丁目２０番１５－６０１号,,28,109,6511114,,,,,,,2024-04-02,1,,,,,トリプルウィン,0
1154,6140001133911,新規,0,2024-04-02,2024-04-02,株式会社ＫＤＳ,,株式会社,兵庫県,神戸市垂水区,朝谷町２６番地の１１,,28,108,6550862,,,,,,,2024-04-02,1,,,,,ケーディーエス,0
1155,6140005027003,新規,0,2024-04-02,2024-04-02,一般社団法人こども教育支援機構,,その他の設立登記法人,兵庫県,神戸市中央区,磯辺通４丁目１番５号,,28,110,6510084,,,,,,,2024-04-02,1,,,,,コドモキョウイクシエンキコウ,0
1161,6180001160761,新規,0,2024-04-02,2024-04-02,宏泰金属株式会社,,株式会社,愛知県,名古屋市北区,成願寺１丁目６番６ザ・シーン城北アストロタワー７０７号,,23,103,4620021,,,,,,,2024-04-02,1,,,,,コウタイキンゾク,0
1165,6180301038476,新規,0,2024-04-02,2024-04-02,株式会社高山油圧,,株式会社,愛知県,高浜市,小池町２丁目６番地７,,23,227,4441303,,,,,,,2024-04-02,1,,,,,タカヤマユアツ,0
1166,6190003004635,新規,0,2024-04-02,2024-04-02,合同会社Ｆ＆Ｔ,,合同会社,三重県,松阪市,嬉野神ノ木町１４４８番地２４,,24,204,5152357,,,,,,,2024-04-02,1,,,,,エフアンドティ,0
1167,6200001042338,新規,0,2024-04-02,2024-04-02,株式会社まるぶん塗装,,株式会社,岐阜県,揖斐郡揖斐川町,北方３２１１番地,,21,401,5010601,,,,,,,2024-04-02,1,,,,,マルブントソウ,0
1174,6220003003708,新規,0,2024-04-02,2024-04-02,合同会社ネクサフォース,,合同会社,石川県,金沢市,松村７丁目５０番地４,,17,201,9200348,,,,,,,2024-04-02,1,,,,,ネクサフォース,0
1180,6260001038909,新規,0,2024-04-02,2024-04-02,株式会社Ｍ＆Ｓ,,株式会社,岡山県,倉敷市,天城台３丁目４番２２号,,33,202,7100131,,,,,,,2024-04-02,1,,,,,エムアンドエス,0
1181,6260001038917,新規,0,2024-04-02,2024-04-02,株式会社トラステック,,株式会社,岡山県,総社市,宿１４７９番地４,,33,208,7191161,,,,,,,2024-04-02,1,,,,,トラステック,0
1187,6290001105219,新規,0,2024-04-02,2024-04-02,東恒株式会社,,株式会社,福岡県,朝倉市,板屋１番地１,,40,228,8380027,,,,,,,2024-04-02,1,,,,,トウコウ,0
1189,6290005019332,新規,0,2024-04-02,2024-04-02,一般社団法人クレイン,,その他の設立登記法人,福岡県,福岡市博多区,東比恵２丁目２番１１号,,40,132,8120007,,,,,,,2024-04-02,1,,,,,クレイン,0
1193,6310005008753,新規,0,2024-04-02,2024-04-02,ジパングトレード事業協同組合,,その他の設立登記法人,長崎県,長崎市,鍛冶屋町６番３号４０２,,42,201,8500831,,,,,,,2024-04-02,1,,,,,ジパングトレード,0
1195,6320003004324,新規,0,2024-04-02,2024-04-02,合同会社ＣＩＥＬＩＡ,,合同会社,大分県,中津市,大字大塚５２８番地４,,44,203,8710008,,,,,,,2024-04-02,1,,,,,シエリア,0
1197,6330005010781,新規,0,2024-04-02,2024-04-02,医療法人武秀会,,その他の設立登記法人,熊本県,熊本市東区,長嶺西１丁目６－９５,,43,102,8618037,,,,,,,2024-04-02,1,,,,,ブシュウカイ,0
1198,6350001018868,新規,0,2024-04-02,2024-04-02,株式会社青島クレジット,,株式会社,宮崎県,宮崎市,青島西２丁目８番地１３,,45,201,8892163,,,,,,,2024-04-02,1,,,,,アオシマクレジット,0
1199,6350005006225,新規,0,2024-04-02,2024-04-02,一般社団法人農村支援センターみやざき,,その他の設立登記法人,宮崎県,宮崎市,大字新名爪１２９２番地５,,45,201,8800124,,,,,,,2024-04-02,1,,,,,ノウソンシエンセンターミヤザキ,0
1200,6360001033453,新規,0,2024-04-02,2024-04-02,株式会社玉城空調設備,,株式会社,沖縄県,糸満市,潮崎町３丁目１５番地の１９,,47,210,9010364,,,,,,,2024-04-02,1,,,,,タマシロクウチョウセツビ,0
1201,6360003013858,新規,0,2024-04-02,2024-04-02,ココアヒルズ合同会社,,合同会社,沖縄県,浦添市,字沢岻１４６８番地ココアヒルズＩＩ５０１号,00134263,47,208,9012112,,,,,,,2024-04-02,1,,,,,ココアヒルズ,0
1202,6360003013866,新規,0,2024-04-02,2024-04-02,合同会社ＲＣ,,合同会社,沖縄県,浦添市,城間４丁目１番２号とまとビル２０２,,47,208,9012133,,,,,,,2024-04-02,1,,,,,アールシー,0
1205,6370001051132,新規,0,2024-04-02,2024-04-02,株式会社ｔｈｅｅ,,株式会社,宮城県,仙台市青葉区,宮町４丁目４番５７－４号,,04,101,9800004,,,,,,,2024-04-02,1,,,,,シー,0
1212,6430003016151,新規,0,2024-04-02,2024-04-02,合同会社ビガー,,合同会社,北海道,札幌市手稲区,曙一条１丁目１番２９号,,01,109,0060831,,,,,,,2024-04-02,1,,,,,ビガー,0
1213,6440001009412,新規,0,2024-04-02,2024-04-02,北海道太平洋鉱業株式会社,,株式会社,北海道,北斗市,峩朗５４番地,,01,236,0490136,,,,,,,2024-04-02,1,,,,,ホッカイドウタイヘイヨウコウギョウ,0
1220,6700150124687,新規,0,2024-04-02,2024-04-02,Ｔｒｉｄｏｎ　Ｃｏｒｐｏｒａｔｉｏｎ,,外国会社等,神奈川県,横浜市西区,高島２丁目１１－２スカイメナー横浜５１９,,14,103,2200011,アメリカ合衆国グアム・タムニン・ハーモンインダストリアル・パーク・ＪＬベーカー通り３８０Ｂ,,,,,,2024-04-02,1,,,,,トライドンコーポレーシヨン,0
1221,6700150124695,新規,0,2024-04-02,2024-04-02,ぎふ歴史遺産活用推進協議会,,その他,岐阜県,岐阜市,司町４０番地１,,21,201,5008076,,,,,,,2024-04-02,1,,,,,ギフレキシイサンカツヨウスイシンキョウギカイ,0
1224,7010001243549,新規,0,2024-04-02,2024-04-02,シュララン株式会社,,株式会社,東京都,千代田区,麹町１丁目６番地,,13,101,1020083,,,,,,,2024-04-02,1,,,,,シュララン,0
1234,7010401181407,新規,0,2024-04-02,2024-04-02,株式会社ＲＡＴＥ,,株式会社,東京都,港区,南青山５丁目１７番２号,,13,103,1070062,,,,,,,2024-04-02,1,,,,,レイト,0
1235,7010401181431,新規,0,2024-04-02,2024-04-02,Ｍｅｔａ　Ｊａｐａｎ株式会社,,株式会社,東京都,港区,東新橋１丁目２番５号,,13,103,1050021,,,,,,,2024-04-02,1,,,,,メタジャパン,0
1236,7010401181456,新規,0,2024-04-02,2024-04-02,株式会社パーフェクトスマイル,,株式会社,東京都,港区,南青山５丁目４番１１－３０６号,,13,103,1070062,,,,,,,2024-04-02,1,,,,,パーフェクトスマイル,0
1237,7010501052020,新規,0,2024-04-02,2024-04-02,株式会社オープンビルディング,,株式会社,東京都,台東区,根岸４丁目１３番５号,,13,106,1100003,,,,,,,2024-04-02,1,,,,,オープンビルディング,0
1238,7010601064923,新規,0,2024-04-02,2024-04-02,ＹＩＳＥＩ株式会社,,株式会社,東京都,墨田区,錦糸４丁目２－４チェリーマンション,,13,107,1300013,,,,,,,2024-04-02,1,,,,,イセイ,0
1255,7011001160949,新規,0,2024-04-02,2024-04-02,株式会社おむらいす,,株式会社,東京都,渋谷区,神宮前６丁目２３番６号ＡＳＡＩビル９Ｆ,,13,113,1500001,,,,,,,2024-04-02,1,,,,,オムライス,0
1256,7011001160998,新規,0,2024-04-02,2024-04-02,ロジゲートシステム株式会社,,株式会社,東京都,渋谷区,道玄坂１丁目１０番８号渋谷道玄坂東急ビル２Ｆ－Ｃ,,13,113,1500043,,,,,,,2024-04-02,1,,,,,ロジゲートシステム,0
1257,7011001161022,新規,0,2024-04-02,2024-04-02,株式会社レコフィルム,,株式会社,東京都,渋谷区,道玄坂１丁目１０番８号渋谷道玄坂東急ビル２Ｆ－Ｃ,,13,113,1500043,,,,,,,2024-04-02,1,,,,,レコフィルム,0
1258,7011001161030,新規,0,2024-04-02,2024-04-02,Ｅｎｇｉｎｅｅｒｓ　Ｈｕｂ株式会社,,株式会社,東京都,渋谷区,渋谷２丁目１９－１５宮益坂ビルディング６０９,,13,113,1500002,,,,,,,2024-04-02,1,,,,,エンジニアーズハブ,0
1263,7011101106785,新規,0,2024-04-02,2024-04-02,ドレスコード株式会社,,株式会社,東京都,新宿区,西新宿６丁目３番１号新宿アイランドウイング６階,,13,104,1600023,,,,,,,2024-04-02,1,,,,,ドレスコード,0
1265,7011201025365,新規,0,2024-04-02,2024-04-02,安心株式会社,,株式会社,東京都,中野区,中央４丁目２３－１２,,13,114,1640011,,,,,,,2024-04-02,1,,,,,アンシン,0
1266,7011203004342,新規,0,2024-04-02,2024-04-02,合同会社ＲＪアコモデーションズ,,合同会社,東京都,中野区,本町１丁目２４－３－１２０２,,13,114,1640012,,,,,,,2024-04-02,1,,,,,アールジェイアコモデーションズ,0
1270,7012305002085,新規,0,2024-04-02,2024-04-02,一般社団法人町田かるた協会,,その他の設立登記法人,東京都,町田市,三輪緑山１丁目３番地２緑山ヒルズ４１１,,13,209,1950055,,,,,,,2024-04-02,1,,,,,マチダカルタキョウカイ,0
1274,7013101009381,新規,0,2024-04-02,2024-04-02,ＭＵＫＩ　ＪＡＰＡＮ株式会社,,株式会社,東京都,青梅市,新町８丁目２４番地の５０,,13,205,1980024,,,,,,,2024-04-02,1,,,,,ムキジャパン,0
1281,7021001081839,新規,0,2024-04-02,2024-04-02,ショウナンチルタイム株式会社,,株式会社,神奈川県,藤沢市,片瀬海岸２丁目２０－１２,,14,205,2510035,,,,,,,2024-04-02,1,,,,,ショウナンチルタイム,0
1288,7030001159520,新規,0,2024-04-02,2024-04-02,ｉｄｅａ株式会社,,株式会社,埼玉県,和光市,下新倉４丁目２４番１号フォルトゥーナ・Ｋ３階,,11,229,3510111,,,,,,,2024-04-02,1,,,,,アイデア,0
1289,7030001159529,新規,0,2024-04-02,2024-04-02,株式会社ｐｕｒｅｔｅｔｈ,,株式会社,埼玉県,新座市,東北２丁目３０－２０キャメル４階,,11,230,3520001,,,,,,,2024-04-02,1,,,,,ピュアティス,0
1290,7030001159545,新規,0,2024-04-02,2024-04-02,善順株式会社,,株式会社,埼玉県,大里郡寄居町,大字赤浜１０６,,11,408,3691211,,,,,,,2024-04-02,1,,,,,ゼンジュン,0
1297,7040001132922,新規,0,2024-04-02,2024-04-02,株式会社つむぐ,,株式会社,千葉県,松戸市,東松戸１丁目２１番地の１２ビューテラス１０５号,,12,207,2702225,,,,,,,2024-04-02,1,,,,,ツムグ,0
1303,7050001054554,新規,0,2024-04-02,2024-04-02,株式会社Ｈｏｌｉｄａｙ　Ｋｉｄｓ,,株式会社,茨城県,笠間市,鯉淵６６７８番地１１,,08,216,3091703,,,,,,,2024-04-02,1,,,,,ホリデーキッズ,0
1310,7080401027082,新規,0,2024-04-02,2024-04-02,株式会社サンライズドローン,,株式会社,静岡県,浜松市中央区,板屋町５９６番地グランコートイースト２５・１４０７号,,22,138,4300928,,,,,,,2024-04-02,1,,,,,サンライズドローン,0
1311,7080401027090,新規,0,2024-04-02,2024-04-02,ＴＡＴＳＵＪＩＮ株式会社,,株式会社,静岡県,浜松市浜名区,大平９２１番地の３,,22,139,4340005,,,,,,,2024-04-02,1,,,,,タツジン,0
1318,7120003026288,新規,0,2024-04-02,2024-04-02,合同会社Ｍｏｖｅｏｎ,,合同会社,大阪府,大阪市西淀川区,姫島５丁目７番８号,,27,113,5550033,,,,,,,2024-04-02,1,,,,,ムーブオン,0
1323,7120005024232,新規,0,2024-04-02,2024-04-02,一般社団法人東成区薬剤師会,,その他の設立登記法人,大阪府,大阪市東成区,大今里３丁目１５番２３号岸田ビル３階,,27,115,5370012,,,,,,,2024-04-02,1,,,,,ヒガシナリクヤクザイシカイ,0
1324,7120103005753,新規,0,2024-04-02,2024-04-02,合同会社咲くやこの花,,合同会社,大阪府,堺市北区,百舌鳥赤畑町２丁６５番地１グレイスガーデン三国ヶ丘６０１号室,,27,146,5918037,,,,,,,2024-04-02,1,,,,,サクヤコノハナ,0
1328,7140003020363,新規,0,2024-04-02,2024-04-02,ｍｅｎｏａｎｕｉ合同会社,,合同会社,兵庫県,神戸市垂水区,大町２丁目６番Ａ－３０５号,,28,108,6550014,,,,,,,2024-04-02,1,,,,,メノアヌイ,0
1331,7140005027002,新規,0,2024-04-02,2024-04-02,一般社団法人ラボラトリーオートメーション協会,,その他の設立登記法人,兵庫県,神戸市中央区,港島南町２丁目１番８神戸アイセンター５階,,28,110,6500047,,,,,,,2024-04-02,1,,,,,ラボラトリーオートメーションキョウカイ,0
1334,7160001025791,新規,0,2024-04-02,2024-04-02,株式会社川島裕一建築設計事務所,,株式会社,滋賀県,近江八幡市,鷹飼町４５１番地５（７０５号）,,25,204,5230891,,,,,,,2024-04-02,1,,,,,カワシマユウイチケンチクセッケイジムショ,0
1336,7170001018068,新規,0,2024-04-02,2024-04-02,株式会社Ｄｒｉｐ,,株式会社,和歌山県,和歌山市,和歌浦東３丁目６－１６,,30,201,6410021,,,,,,,2024-04-02,1,,,,,ドリップ,0
1338,7180001160760,新規,0,2024-04-02,2024-04-02,株式会社ＧＨＫ,,株式会社,愛知県,名古屋市中区,栄３丁目３５－２３テトラビルディング５Ｆ,,23,106,4600008,,,,,,,2024-04-02,1,,,,,ジーエイチケー,0
1339,7180301038483,新規,0,2024-04-02,2024-04-02,ＯＶＲＹＡ　ＪＡＰＡＮ株式会社,,株式会社,愛知県,蒲郡市,西浦町西馬相５１番地,,23,214,4430105,,,,,,,2024-04-02,1,,,,,オヴリアジャパン,0
1340,7190003004634,新規,0,2024-04-02,2024-04-02,合同会社スリーＳ,,合同会社,三重県,津市,白山町三ヶ野２０１９番地,,24,201,5152601,,,,,,,2024-04-02,1,,,,,スリーエス,0
1343,7200001042329,新規,0,2024-04-02,2024-04-02,株式会社ＦＡ東海,,株式会社,岐阜県,多治見市,本町３丁目２５番地ヒラクビル２階,,21,204,5070033,,,,,,,2024-04-02,1,,,,,エフエートウカイ,0
1350,7240001063016,新規,0,2024-04-02,2024-04-02,株式会社クラハシホールディングス,,株式会社,広島県,福山市,引野町１丁目１番１号,,34,207,7210942,,,,,,,2024-04-02,1,,,,,クラハシホールディングス,0
1351,7240001063024,新規,0,2024-04-02,2024-04-02,株式会社コア・スピリット,,株式会社,広島県,広島市南区,皆実町３丁目７番１９号,,34,103,7340007,,,,,,,2024-04-02,1,,,,,コアスピリット,0
1353,7240003006609,新規,0,2024-04-02,2024-04-02,竹本管財合同会社,,合同会社,広島県,広島市中区,江波西２丁目８番１６号,,34,101,7300831,,,,,,,2024-04-02,1,,,,,タケモトカンザイ,0
1354,7240005015756,新規,0,2024-04-02,2024-04-02,社会福祉法人リアン,,その他の設立登記法人,広島県,広島市西区,新庄町４１番２７号,,34,104,7330801,,,,,,,2024-04-02,1,,,,,リアン,0
1358,7250005008908,新規,0,2024-04-02,2024-04-02,菊川手延そうめん協同組合,,その他の設立登記法人,山口県,下関市,菊川町大字下大野９７番地１,,35,201,7500312,,,,,,,2024-04-02,1,,,,,キクガワテノベソウメン,0
1363,7270005005580,新規,0,2024-04-02,2024-04-02,一般社団法人日本住宅政策機構,,その他の設立登記法人,鳥取県,米子市,夜見町３０６６番地３２,,31,202,6830851,,,,,,,2024-04-02,1,,,,,ニホンジュウタクセイサクキコウ,0
1370,7290001105135,新規,0,2024-04-02,2024-04-02,株式会社福岡ベジフル,,株式会社,福岡県,福岡市東区,みなと香椎３丁目１番１４号みなと香椎青果物流センター,,40,131,8130019,,,,,,,2024-04-02,1,,,,,フクオカベジフル,0
1371,7290001105250,新規,0,2024-04-02,2024-04-02,株式会社ＳＫサポート,,株式会社,福岡県,福岡市博多区,博多駅東３丁目３番３号,,40,132,8120013,,,,,,,2024-04-02,1,,,,,エスケーサポート,0
1382,7340001026409,新規,0,2024-04-02,2024-04-02,株式会社ｉｓｏｒａ,,株式会社,鹿児島県,姶良市,平松４０９３番地,,46,225,8995652,,,,,,,2024-04-02,1,,,,,イソラ,0
1384,7340005009715,新規,0,2024-04-02,2024-04-02,一般社団法人鹿児島電気管理協会,,その他の設立登記法人,鹿児島県,鹿児島市,桜ヶ丘６丁目５０番地１７,,46,201,8910175,,,,,,,2024-04-02,1,,,,,カゴシマデンキカンリキョウカイ,0
1385,7350001018867,新規,0,2024-04-02,2024-04-02,株式会社武士道,,株式会社,宮崎県,延岡市,野田町４８０８番地３１,,45,203,8820801,,,,,,,2024-04-02,1,,,,,ブシドウ,0
1389,7370001051115,新規,0,2024-04-02,2024-04-02,株式会社えんにちと,,株式会社,宮城県,仙台市太白区,鹿野２丁目１４番１４－３０１号,,04,104,9820023,,,,,,,2024-04-02,1,,,,,エンニチト,0
1390,7370001051131,新規,0,2024-04-02,2024-04-02,ホクシン消毒株式会社,,株式会社,宮城県,仙台市泉区,将監１１丁目４番２１号,,04,105,9813132,,,,,,,2024-04-02,1,,,,,ホクシンショウドク,0
1393,7380001034399,新規,0,2024-04-02,2024-04-02,Ｅ．Ｉ．株式会社,,株式会社,福島県,郡山市,小原田５丁目２０番１９号ファインビュー郡山７０６号,,07,203,9638835,,,,,,,2024-04-02,1,,,,,イーアイ,0
1395,7430001091443,新規,0,2024-04-02,2024-04-02,株式会社シームスアスター,,株式会社,北海道,札幌市中央区,南六条西２３丁目３番１２号,,01,101,0640806,,,,,,,2024-04-02,1,,,,,シームスアスター,0
1396,7430003016159,新規,0,2024-04-02,2024-04-02,合同会社ＷＯＷ,,合同会社,北海道,札幌市南区,常盤一条２丁目６番１５号,,01,106,0050851,,,,,,,2024-04-02,1,,,,,ワオー,0
1402,7500001025542,新規,0,2024-04-02,2024-04-02,株式会社ＤＡＧ　Ｄｅｎｔａｌ　Ｌａｂｏ,,株式会社,愛媛県,松山市,久万ノ台乙２４１番地４,,38,201,7918016,,,,,,,2024-04-02,1,,,,,ダグデンタルラボ,0
1403,7500001025550,新規,0,2024-04-02,2024-04-02,株式会社ＡＴＴ,,株式会社,愛媛県,東温市,志津川南１丁目３番地９,,38,215,7910206,,,,,,,2024-04-02,1,,,,,エイティーティー,0
1407,7700150124406,新規,0,2024-04-02,2024-03-13,ツインシティ整備調整協議会,,その他,神奈川県,横浜市中区,日本大通１,,14,104,2310021,,,,,,,2024-03-13,1,,,,,ツインシテイセイビチヨウセイキヨウギカイ,0
1408,7700150124694,新規,0,2024-04-02,2024-04-02,Ｂｅｌｌｉ　Ｅｃｏｎｏｍｉｃ　Ｓｏｃｉｅｔｙ,,外国会社等,大阪府,大阪市中央区,北久宝寺町４丁目４－１５－２Ｆ,,27,128,5410057,トルクメニスタン国アシガバット市コペットダグ地区１９４６（アンカラ）通り２１番ビル,,,,,,2024-04-02,1,,,,,ベリエコノミツクソサエテイ,0
1411,8010001243060,新規,0,2024-04-02,2024-04-02,株式会社ＣｏｎｎｅｃｔＰｅｔＨｏｓｐｉｔａｌ,,株式会社,東京都,中央区,銀座４丁目１３番１１号松竹倶楽部ビル４Ｆ,,13,102,1040061,,,,,,,2024-04-02,1,,,,,コネクトペットホスピタル,0
1419,8010401181422,新規,0,2024-04-02,2024-04-02,ＭＩＡＮＩ株式会社,,株式会社,東京都,港区,北青山１丁目３番１号アールキューブ青山３階,,13,103,1070061,,,,,,,2024-04-02,1,,,,,ミアーニ,0
1420,8010403032301,新規,0,2024-04-02,2024-04-02,合同会社ライズ,,合同会社,東京都,港区,芝浦３丁目１５番１－２０２号,,13,103,1080023,,,,,,,2024-04-02,1,,,,,ライズ,0
1423,8010801034915,新規,0,2024-04-02,2024-04-02,株式会社トレック,,株式会社,東京都,大田区,仲六郷１丁目２９番８号,,13,111,1440055,,,,,,,2024-04-02,1,,,,,トレック,0
1429,8011001160898,新規,0,2024-04-02,2024-04-02,株式会社ＣＩＥＲＳ,,株式会社,東京都,渋谷区,恵比寿西１丁目３３番６号ＪＰｎｏｉｅ恵比寿西１Ｆ,,13,113,1500021,,,,,,,2024-04-02,1,,,,,シエルス,0
1432,8011003018814,新規,0,2024-04-02,2024-04-02,合同会社ハイペリオンパートナーズ,,合同会社,東京都,渋谷区,元代々木町５３番１１号,,13,113,1510062,,,,,,,2024-04-02,1,,,,,ハイペリオンパートナーズ,0
1433,8011005010447,新規,0,2024-04-02,2024-04-02,一般社団法人出版マーケティング協会,,その他の設立登記法人,東京都,渋谷区,道玄坂１丁目１０番８号渋谷道玄坂東急ビル２Ｆ－Ｃ,,13,113,1500043,,,,,,,2024-04-02,1,,,,,シュッパンマーケティングキョウカイ,0
1436,8011201025364,新規,0,2024-04-02,2024-04-02,高木商業株式会社,,株式会社,東京都,中野区,本町５丁目３７‐２７‐５０４室,,13,114,1640012,,,,,,,2024-04-02,1,,,,,タカギショウギョウ,0
1442,8011601027654,新規,0,2024-04-02,2024-04-02,株式会社東華商事,,株式会社,東京都,練馬区,北町５丁目５－７かぼちゃの馬車平和台Ｖ１０４号室,,13,120,1790081,,,,,,,2024-04-02,1,,,,,トウカショウジ,0
1448,8012401041696,新規,0,2024-04-02,2024-04-02,株式会社佐藤商店,,株式会社,東京都,小金井市,東町４丁目３１番９号,,13,210,1840011,,,,,,,2024-04-02,1,,,,,サトウショウテン,0
1457,8013301052296,新規,0,2024-04-02,2024-04-02,株式会社巣鴨さくら堂,,株式会社,東京都,豊島区,西巣鴨３丁目２１番１０号,,13,116,1700001,,,,,,,2024-04-02,1,,,,,スガモサクラドウ,0
1458,8013303007075,新規,0,2024-04-02,2024-04-02,仕均合同会社,,合同会社,東京都,豊島区,上池袋３丁目４７番９号４Ｆ－７号室,,13,116,1700012,,,,,,,2024-04-02,1,,,,,シキン,0
1461,8020001156550,新規,0,2024-04-02,2024-04-02,株式会社ミズモト,,株式会社,神奈川県,横浜市青葉区,みたけ台３７―１７,,14,117,2270047,,,,,,,2024-04-02,1,,,,,ミズモト,0
1467,8030001159511,新規,0,2024-04-02,2024-04-02,株式会社Ｌ＆Ｍ,,株式会社,埼玉県,狭山市,笹井３丁目５番地１４号,,11,215,3501327,,,,,,,2024-04-02,1,,,,,エルアンドエム,0
1470,8030003023946,新規,0,2024-04-02,2024-04-02,氷菓合同会社,,合同会社,埼玉県,行田市,持田３丁目１５１７番地１０,,11,206,3610056,,,,,,,2024-04-02,1,,,,,ヒョウカ,0
1485,8040001132921,新規,0,2024-04-02,2024-04-02,株式会社アイエス不動産,,株式会社,千葉県,松戸市,日暮１丁目１番６号湯浅ビル３Ｆ,,12,207,2702253,,,,,,,2024-04-02,1,,,,,アイエスフドウサン,0
1487,8040003024670,新規,0,2024-04-02,2024-04-02,合同会社Ｃｌｏｗｎ’ｓ　ｔｏｙ　ｂｏｘ,,合同会社,千葉県,習志野市,谷津４丁目７番１５－５０３号,,12,216,2750026,,,,,,,2024-04-02,1,,,,,クラウンズトイボックス,0
1490,8060002001405,新規,0,2024-04-02,2024-04-02,有限会社今泉住宅,,有限会社,栃木県,宇都宮市,下平出町１０１８番地２１,,09,201,3210903,,,,,,,2024-04-02,1,,,,,イマイズミジュウタク,0
1496,8080101024635,新規,0,2024-04-02,2024-04-02,株式会社ＬＩＴｅＸ,,株式会社,静岡県,富士市,木島５２９番地,,22,210,4213304,,,,,,,2024-04-02,1,,,,,ライテックス,0
1497,8080105006415,新規,0,2024-04-02,2024-04-02,一般社団法人三島市空き家活用ラボ,,その他の設立登記法人,静岡県,三島市,東本町１丁目１０番９号,,22,206,4110831,,,,,,,2024-04-02,1,,,,,ミシマシアキヤカツヨウラボ,0
1502,8100003007487,新規,0,2024-04-02,2024-04-02,合同会社ＺＵＫＵＤＡＳ,,合同会社,長野県,松本市,沢村１丁目１０－２９宮下ビル２Ｆ,,20,202,3900877,,,,,,,2024-04-02,1,,,,,ズクダス,0
1503,8100005013153,新規,0,2024-04-02,2024-04-02,一般社団法人Ｆａｍｉｌｙ,,その他の設立登記法人,長野県,安曇野市,明科七貴５５９２番地１０,,20,220,3997104,,,,,,,2024-04-02,1,,,,,ファミリー,0
1505,8110001038285,新規,0,2024-04-02,2024-04-02,新潟メタル株式会社,,株式会社,新潟県,上越市,頸城区西福島１０２６‐２８,,15,222,9420147,,,,,,,2024-04-02,1,,,,,ニイガタメタル,0
1517,8120001263221,新規,0,2024-04-02,2024-04-02,株式会社ＫＯ．ＳＵ．ＭＡ,,株式会社,大阪府,大阪市淀川区,宮原１丁目１９番１０号,,27,123,5320003,,,,,,,2024-04-02,1,,,,,コスマ,0
1521,8120101069329,新規,0,2024-04-02,2024-04-02,株式会社シンキ,,株式会社,大阪府,富田林市,桜ケ丘町１５番１－５０８号,,27,214,5840084,,,,,,,2024-04-02,1,,,,,シンキ,0
1527,8130001076721,新規,0,2024-04-02,2024-04-02,株式会社ブルームケア,,株式会社,京都府,京都市左京区,下鴨神殿町１７番地,,26,103,6060835,,,,,,,2024-04-02,1,,,,,ブルームケア,0
1528,8130003009407,新規,0,2024-04-02,2024-04-02,合同会社丹波の里山,,合同会社,京都府,船井郡京丹波町,橋詰大野７１番地３,,26,407,6220200,,,,,,,2024-04-02,1,,,,,タンバノサトヤマ,0
1535,8140001133884,新規,0,2024-04-02,2024-04-02,Ｌｕｃｋ株式会社,,株式会社,兵庫県,姫路市,飾磨区妻鹿９８７番地２８,,28,201,6728031,,,,,,,2024-04-02,1,,,,,ラック,0
1536,8140001133892,新規,0,2024-04-02,2024-04-02,株式会社ｔａｔｏｅ,,株式会社,兵庫県,加西市,鴨谷町２１３番地,,28,220,6752444,,,,,,,2024-04-02,1,,,,,タトエ,0
1538,8140003020321,新規,0,2024-04-02,2024-04-02,合同会社Ｇ・ＤＲＩＶＥ,,合同会社,兵庫県,神戸市中央区,下山手通２丁目１３番３号建創ビル９階,,28,110,6500011,,,,,,,2024-04-02,1,,,,,ジードライブ,0
1539,8140003020362,新規,0,2024-04-02,2024-04-02,フラメンタ合同会社,,合同会社,兵庫県,神戸市東灘区,御影２丁目７－１５,,28,101,6580047,,,,,,,2024-04-02,1,,,,,フラメンタ,0
1540,8140005027018,新規,0,2024-04-02,2024-04-02,一般社団法人キャリア教育たかぎごや,,その他の設立登記法人,兵庫県,西宮市,甲東園１丁目１番６,,28,204,6620812,,,,,,,2024-04-02,1,,,,,キャリアキョウイクタカギゴヤ,0
1548,8180001160818,新規,0,2024-04-02,2024-04-02,株式会社ＯＵＲ．,,株式会社,愛知県,名古屋市中川区,長須賀２丁目１１０６番地の１,,23,110,4540994,,,,,,,2024-04-02,1,,,,,アワー,0
1550,8180005020571,新規,0,2024-04-02,2024-04-02,一般社団法人ｔｅ　ｔｏ　ｔｅ,,その他の設立登記法人,愛知県,名古屋市東区,東桜２丁目３番７号東カン名古屋キャステール３１７号室,,23,102,4610005,,,,,,,2024-04-02,1,,,,,テトテ,0
1562,8260001038907,新規,0,2024-04-02,2024-04-02,株式会社Ｋ．Ｂ．ＥＳＴＡ,,株式会社,岡山県,岡山市北区,一宮１１５６番地９,,33,101,7011211,,,,,,,2024-04-02,1,,,,,ケイビーエスタ,0
1569,8290001105258,新規,0,2024-04-02,2024-04-02,株式会社Ｃｈｉｃ．ｌｙ,,株式会社,福岡県,福岡市南区,高木２丁目１９番４－５０５号,,40,134,8150004,,,,,,,2024-04-02,1,,,,,シークリー,0
1570,8290003015141,新規,0,2024-04-02,2024-04-02,原田内装合同会社,,合同会社,福岡県,福岡市南区,南大橋２丁目３１番４号,,40,134,8150034,,,,,,,2024-04-02,1,,,,,ハラダナイソウ,0
1576,8310003004760,新規,0,2024-04-02,2024-04-02,やました事務所合同会社,,合同会社,長崎県,長崎市,西山３丁目２０番２号,,42,201,8500001,,,,,,,2024-04-02,1,,,,,ヤマシタジムショ,0
1580,8360001033427,新規,0,2024-04-02,2024-04-02,株式会社まーさん企画,,株式会社,沖縄県,糸満市,字糸満２２７５番地,,47,210,9010361,,,,,,,2024-04-02,1,,,,,マーサンキカク,0
1581,8360001033451,新規,0,2024-04-02,2024-04-02,株式会社ＴＨＥＧＡＲＤＥＮ,,株式会社,沖縄県,中頭郡読谷村,字波平３番地１レジデンスｔｏｍｙ３Ｄ,,47,324,9040322,,,,,,,2024-04-02,1,,,,,ザガーデン,0
1591,8450003002461,新規,0,2024-04-02,2024-04-02,合同会社カルフ,,合同会社,北海道,深川市,幌内１４８８番地１,,01,228,0740145,,,,,,,2024-04-02,1,,,,,カルフ,0
1593,8490001010735,新規,0,2024-04-02,2024-04-02,株式会社ＲＤ,,株式会社,高知県,高知市,塚ノ原１５０番地８,,39,201,7800952,,,,,,,2024-04-02,1,,,,,アールディー,0
1596,8700150124693,新規,0,2024-04-02,2024-04-02,Ａ．Ａ．ＥＮＴＥＲＰＲＩＳＥＳ,,外国会社等,千葉県,東金市,二又３３６番地２オフィス５,,12,213,2830004,スリランカ民主社会主義共和国、キャンディ、アンバテンナ、クドゥゴラ、Ｎｏ．３３,,,,,,2024-04-02,1,,,,,エーエーエンタープライズ,0
1607,9010001243571,新規,0,2024-04-02,2024-04-02,ＷＥＡＬＴＨ　Ｍａｎａｇｅｍｅｎｔ株式会社,,株式会社,東京都,千代田区,丸の内３丁目４番１号新国際ビル８階８２２区,,13,101,1000005,,,,,,,2024-04-02,1,,,,,ウエルスマネジメント,0
1608,9010001243596,新規,0,2024-04-02,2024-04-02,株式会社イノヴァレ,,株式会社,東京都,中央区,勝どき６丁目３番２－５６０４号,,13,102,1040054,,,,,,,2024-04-02,1,,,,,イノヴァレ,0
1616,9010403032333,新規,0,2024-04-02,2024-04-02,合同会社ｎｎｍ,,合同会社,東京都,港区,芝４丁目７―６芝ビルディング７０４,,13,103,1080014,,,,,,,2024-04-02,1,,,,,エヌエヌエム,0
1626,9010901054993,新規,0,2024-04-02,2024-04-02,株式会社エーエスケー,,株式会社,東京都,世田谷区,宮坂２丁目１２番３号,,13,112,1560051,,,,,,,2024-04-02,1,,,,,エーエスケー,0
1627,9010903008931,新規,0,2024-04-02,2024-04-02,仲一合同会社,,合同会社,東京都,世田谷区,上馬２丁目２７－２１ウェストイン三軒茶屋２０４,,13,112,1540011,,,,,,,2024-04-02,1,,,,,チュウイチ,0
1628,9011001160823,新規,0,2024-04-02,2024-04-02,株式会社Ｌｏｓｋａ,,株式会社,東京都,目黒区,下目黒１丁目１番１４号コノトラビル７Ｆ,,13,110,1530064,,,,,,,2024-04-02,1,,,,,ロスカ,0
1629,9011001160856,新規,0,2024-04-02,2024-04-02,株式会社ＩＳＣａｒｅｅｒ,,株式会社,東京都,渋谷区,渋谷１丁目１－１１サン青山ビル２階,,13,113,1500002,,,,,,,2024-04-02,1,,,,,アイエスキャリア,0
1630,9011001160922,新規,0,2024-04-02,2024-04-02,ＺＹＮＸ株式会社,,株式会社,東京都,渋谷区,神南１丁目３番１－１５０１号,,13,113,1500041,,,,,,,2024-04-02,1,,,,,ジンクス,0
1631,9011001160947,新規,0,2024-04-02,2024-04-02,株式会社ＣＡＮＤＹ,,株式会社,東京都,渋谷区,代々木３丁目３６番８号,,13,113,1510053,,,,,,,2024-04-02,1,,,,,キャンディ,0
1632,9011001160963,新規,0,2024-04-02,2024-04-02,株式会社Ｗｒｏｎｇ,,株式会社,東京都,渋谷区,桜丘町１８－４二宮ビル１Ｆ－５２,,13,113,1500031,,,,,,,2024-04-02,1,,,,,ウロング,0
1633,9011001160971,新規,0,2024-04-02,2024-04-02,株式会社ＡｐｒｏＮ,,株式会社,東京都,渋谷区,神宮前１丁目９－３原宿第３コーポ４０２,,13,113,1500001,,,,,,,2024-04-02,1,,,,,エプロン,0
1634,9011001160988,新規,0,2024-04-02,2024-04-02,株式会社新コーポレーション,,株式会社,東京都,渋谷区,恵比寿西２丁目８番４号ＥＸ恵比寿西ビル５階,,13,113,1500021,,,,,,,2024-04-02,1,,,,,シンコーポレーション,0
1635,9011001161012,新規,0,2024-04-02,2024-04-02,株式会社ＯＦＦＩＣＥ　ＫＡＭＯ,,株式会社,東京都,目黒区,上目黒３丁目３１番２２－４０１号,,13,110,1530051,,,,,,,2024-04-02,1,,,,,オフィスカモ,0
1638,9011003018763,新規,0,2024-04-02,2024-04-02,大場合同会社,,合同会社,東京都,渋谷区,代々木２丁目２７番１８－３０２号,,13,113,1510053,,,,,,,2024-04-02,1,,,,,オオバ,0
1639,9011003018813,新規,0,2024-04-02,2024-04-02,合同会社ＭＵＯ,,合同会社,東京都,渋谷区,猿楽町１１番３－３０７号,,13,113,1500033,,,,,,,2024-04-02,1,,,,,ミュオ,0
1641,9011101106767,新規,0,2024-04-02,2024-04-02,株式会社たまいちコネクト,,株式会社,東京都,新宿区,西新宿７丁目５番５号Ｐｌａｚａ西新宿ＵＣＦ４０６,,13,104,1600023,,,,,,,2024-04-02,1,,,,,タマイチコネクト,0
1642,9011201025371,新規,0,2024-04-02,2024-04-02,株式会社ＡＤ　ｃｒｏｗｎ,,株式会社,東京都,中野区,野方５丁目３３番９号ＣＯＭＰＯＳＩＴＥ野方４０１,,13,114,1650027,,,,,,,2024-04-02,1,,,,,アドクラウン,0
1644,9011303005115,新規,0,2024-04-02,2024-04-02,合同会社ＳＫ企画,,合同会社,東京都,杉並区,下高井戸２丁目２０番７号,,13,115,1680073,,,,,,,2024-04-02,1,,,,,エスケーキカク,0
1647,9011501030501,新規,0,2024-04-02,2024-04-02,ステラ株式会社,,株式会社,東京都,荒川区,荒川４丁目３１番１２号,,13,118,1160002,,,,,,,2024-04-02,1,,,,,ステラ,0
1655,9012405004962,新規,0,2024-04-02,2024-04-02,特定非営利活動法人つどいの家,,その他の設立登記法人,東京都,小金井市,緑町３丁目１２番２５号ベルメゾン桜上水２０２,,13,210,1840003,,,,,,,2024-04-02,1,,,,,ヅドイノイエ,0
1681,9030003023929,新規,0,2024-04-02,2024-04-02,ＴＨ　Ｔｒａｄｉｎｇ合同会社,,合同会社,埼玉県,狭山市,大字堀兼字上榛２４１１番地２,,11,215,3501312,,,,,,,2024-04-02,1,,,,,ティーエイチトレーディング,0
1684,9040001132937,新規,0,2024-04-02,2024-04-02,藤山商事株式会社,,株式会社,千葉県,市川市,湊新田１丁目６－１０－１０２,,12,203,2720132,,,,,,,2024-04-02,1,,,,,フジヤマショウジ,0
1689,9050001054536,新規,0,2024-04-02,2024-04-02,株式会社ＰＡＳＷＡＬ　ＩＮＴＥＲＮＡＴＩＯＮＡＬ,,株式会社,茨城県,古河市,東山田５８１番地８フラップタウンＣ－１４、２階Ｃ号室,,08,204,3060112,,,,,,,2024-04-02,1,,,,,パスワルインタナショナル,0
1693,9050003008250,新規,0,2024-04-02,2024-04-02,利根警備合同会社,,合同会社,茨城県,龍ケ崎市,川原代町６２５３ウッドテック２階,,08,208,3010005,,,,,,,2024-04-02,1,,,,,トネケイビ,0
1700,9080101024634,新規,0,2024-04-02,2024-04-02,安全プランナー静岡株式会社,,株式会社,静岡県,御殿場市,川島田１１５７番地の５,,22,215,4120045,,,,,,,2024-04-02,1,,,,,アンゼンプランナーシズオカ,0
1701,9080101024650,新規,0,2024-04-02,2024-04-02,株式会社トクショー,,株式会社,静岡県,御殿場市,萩原４４番地の２,,22,215,4120042,,,,,,,2024-04-02,1,,,,,トクショー,0
1703,9080401027089,新規,0,2024-04-02,2024-04-02,株式会社ＳＫＤ,,株式会社,静岡県,掛川市,金城１１１番地,,22,213,4360073,,,,,,,2024-04-02,1,,,,,エスケーディー,0
1708,9110001038292,新規,0,2024-04-02,2024-04-02,株式会社クリエイティブＡＸ,,株式会社,新潟県,新潟市中央区,幸西４丁目３番５号,,15,103,9500908,,,,,,,2024-04-02,1,,,,,クリエイティブアックス,0
1715,9120001263575,新規,0,2024-04-02,2024-04-02,株式会社Ｓｈｅｌｂｙ,,株式会社,大阪府,大阪市北区,天神橋７丁目１番１６－１１０７号,,27,127,5310041,,,,,,,2024-04-02,1,,,,,シェルビー,0
1716,9120001263690,新規,0,2024-04-02,2024-04-02,株式会社Ｖｉｅｗ　Ｒｈｙｔｈｍ,,株式会社,大阪府,大阪市中央区,久太郎町２丁目５－１９トライハードビル,,27,128,5410056,,,,,,,2024-04-02,1,,,,,ビューリズム,0
1720,9120005024230,新規,0,2024-04-02,2024-04-02,一般社団法人ＡＩ・ＤＸリスキリング協会,,その他の設立登記法人,大阪府,大阪市福島区,福島８丁目１－７,,27,103,5530003,,,,,,,2024-04-02,1,,,,,エーアイディーエックスリスキリングキョウカイ,0
1721,9120005024239,新規,0,2024-04-02,2024-04-02,社会保険労務士法人ポルタ・ペルタ,,その他の設立登記法人,大阪府,大阪市天王寺区,上本町５丁目２番１１号上六新興産ビル９０７号室,,27,109,5430001,,,,,,,2024-04-02,1,,,,,ポルタペルタ,0
1722,9120005024247,新規,0,2024-04-02,2024-04-02,ＪＲ西日本グループ人事ＳＳＣ社会保険労務士法人,,その他の設立登記法人,大阪府,大阪市北区,芝田２丁目４番２４号,,27,127,5300012,,,,,,,2024-04-02,1,,,,,,0
1724,9120105009841,新規,0,2024-04-02,2024-04-02,一般社団法人ｐｕｒｅ　ｓｎｏｗ,,その他の設立登記法人,大阪府,堺市堺区,三国ヶ丘御幸通１０－１,,27,141,5900028,,,,,,,2024-04-02,1,,,,,ピュアスノー,0
1725,9120901048976,新規,0,2024-04-02,2024-04-02,株式会社ツインズ,,株式会社,大阪府,豊中市,新千里西町１丁目１番１０－５１０号,,27,203,5600083,,,,,,,2024-04-02,1,,,,,ツインズ,0
1730,9130001076720,新規,0,2024-04-02,2024-04-02,きょうと事業再生債権回収株式会社,,株式会社,京都府,京都市下京区,烏丸通松原上る薬師前町７００番地,,26,106,6008416,,,,,,,2024-04-02,1,,,,,キョウトジギョウサイセイサイケンカイシュウ,0
1731,9130001076745,新規,0,2024-04-02,2024-04-02,株式会社クリテ・ドット・ピーオー,,株式会社,京都府,京都市右京区,西院寿町１９番地,,26,108,6150033,,,,,,,2024-04-02,1,,,,,クリテドットピーオー,0
1737,9140003020345,新規,0,2024-04-02,2024-04-02,合同会社蒼暖の凪,,合同会社,兵庫県,神戸市東灘区,本山中町３丁目８番２２号,,28,101,6580016,,,,,,,2024-04-02,1,,,,,ソウダンノナギ,0
1742,9180001160445,新規,0,2024-04-02,2024-04-02,株式会社ＫＩＥＮ,,株式会社,愛知県,名古屋市中区,栄３丁目７－４トーシンサクラビル１０Ｆ,,23,106,4600008,,,,,,,2024-04-02,1,,,,,キエン,0
1743,9180001160775,新規,0,2024-04-02,2024-04-02,株式会社工藤工務店,,株式会社,愛知県,あま市,新居屋郷４番地４,,23,237,4901105,,,,,,,2024-04-02,1,,,,,クドウコウムテン,0
1744,9180001160800,新規,0,2024-04-02,2024-04-02,株式会社ＧＭブライト,,株式会社,愛知県,津島市,新開町１丁目３３番地１,,23,208,4960071,,,,,,,2024-04-02,1,,,,,ジーエムブライト,0
1745,9180301038473,新規,0,2024-04-02,2024-04-02,株式会社ｉＭｅｔａｌ,,株式会社,愛知県,岡崎市,北野町字花本３２番地,,23,202,4440951,,,,,,,2024-04-02,1,,,,,アイメタル,0
1747,9210001019704,新規,0,2024-04-02,2024-04-02,株式会社ＣＡＩＷＡ,,株式会社,福井県,福井市,堀ノ宮１丁目７２０番地‐１０３号,,18,201,9100032,,,,,,,2024-04-02,1,,,,,カイワ,0
1749,9250001020591,新規,0,2024-04-02,2024-04-02,山口グリーンエネルギー株式会社,,株式会社,山口県,山口市,大内御堀４９６番地,,35,203,7530214,,,,,,,2024-04-02,1,,,,,ヤマグチグリーンエネルギー,0
1753,9260002026067,新規,0,2024-04-02,2024-04-02,有限会社八木向陽堂,,有限会社,岡山県,井原市,美星町三山１０７０番地,,33,207,7141406,,,,,,,2024-04-02,1,,,,,ヤギコウヨウドウ,0
1757,9280001009145,新規,0,2024-04-02,2024-04-02,株式会社イクシス,,株式会社,島根県,安来市,島田町１１３７番地１,,32,206,6920024,,,,,,,2024-04-02,1,,,,,イクシス,0
1760,9290001105273,新規,0,2024-04-02,2024-04-02,株式会社Ｓｔａｒ‐Ｓｅｖｅｎ,,株式会社,福岡県,福岡市南区,大橋１丁目４番５号ニーズビル３Ｆ,,40,134,8150033,,,,,,,2024-04-02,1,,,,,スターセブン,0
1768,9330001014420,新規,0,2024-04-02,2024-04-02,株式会社マック,,株式会社,熊本県,水俣市,南福寺９９４番地１０,,43,205,8670023,,,,,,,2024-04-02,1,,,,,マック,0
1769,9340001026407,新規,0,2024-04-02,2024-04-02,株式会社ヴェテリナ,,株式会社,鹿児島県,鹿児島市,広木３丁目１０番７号,,46,201,8900037,,,,,,,2024-04-02,1,,,,,ヴェテリナ,0
1770,9340001026423,新規,0,2024-04-02,2024-04-02,株式会社ボックスロジ,,株式会社,鹿児島県,鹿児島市,紫原６丁目１－１８,,46,201,8900082,,,,,,,2024-04-02,1,,,,,ボックスロジ,0
1774,9360003013855,新規,0,2024-04-02,2024-04-02,ＵＰ　ＢＥＡＴ合同会社,,合同会社,沖縄県,那覇市,首里赤田町２丁目４４番地,,47,201,9030813,,,,,,,2024-04-02,1,,,,,アップビート,0
1785,9470001020108,新規,0,2024-04-02,2024-04-02,株式会社ｅｘｉｔ‐ｇｒｏｗ,,株式会社,香川県,高松市,田町１２番地７ダブルス和田１Ｆ,,37,201,7600053,,,,,,,2024-04-02,1,,,,,イグジットグロウ,0
1787,9500001025549,新規,0,2024-04-02,2024-04-02,株式会社Ａｏｉエステート,,株式会社,愛媛県,松山市,東石井６丁目１４番２０号,,38,201,7900932,,,,,,,2024-04-02,1,,,,,アオイエステート,0
1789,9700150124692,新規,0,2024-04-02,2024-04-02,Ｒ．Ｍ．ＭＯＴＯＲＳ　ＴＲＡＤＩＮＧ,,外国会社等,千葉県,東金市,二又３３６番地２オフィス６,,12,213,2830004,スリランカ民主社会主義共和国、クリヤピティヤ、エトゥガハコトゥワ、ディブルンポラ、Ｎｏ．１２／Ａ,,,,,,2024-04-02,1,,,,,アールエムモーターストレーデイング,0
