sequenceNumber,corporateNumber,process,correct,updateDate,changeDate,name,nameImageId,kind,prefectureName,cityName,streetNumber,addressImageId,prefectureCode,cityCode,postCode,addressOutside,addressOutsideImageId,closeDate,closeCause,successorCorporateNumber,changeCause,assignmentDate,latest,enName,enPrefectureName,enCityName,enAddressOutside,furigana,hihyoji
28,1010602021284,登記記録の閉鎖等,0,2025-05-12,2025-05-02,有限会社モトキ,,有限会社,東京都,墨田区,東向島５丁目１６番２０号,,13,107,1310032,,,2025-05-02,清算の結了等,,,2024-07-11,1,,,,,,0
52,1011701024962,登記記録の閉鎖等,0,2025-05-12,2025-04-14,株式会社豊茂,,株式会社,東京都,新宿区,西新宿６丁目２５番８－３０６号,,13,104,1600023,,,2025-04-14,清算の結了等,,,2022-01-11,1,,,,,トヨモ,0
69,1020001087802,登記記録の閉鎖等,0,2025-05-12,2025-04-21,株式会社先見の明,,株式会社,神奈川県,川崎市中原区,新丸子東１丁目７９１－３朝日サンライズ多摩川８０２号,,14,133,2110004,,,2025-04-21,清算の結了等,,,2015-10-05,1,,,,,センケンノメイ,0
76,1020001137458,登記記録の閉鎖等,0,2025-05-12,2025-04-21,リラク＆ビューティー株式会社,,株式会社,神奈川県,横浜市神奈川区,鶴屋町２丁目１０番９号田中ビル２階,,14,102,2210835,,,2025-04-21,合併による解散等,5020001104256,令和７年４月２０日横浜市神奈川区鶴屋町二丁目１０番９号田中ビル２階ハワイアンフォレストＳｐａ株式会社（5020001104256）に合併し解散,2020-09-01,1,,,,,リラクアンドビューティー,0
89,1020002103500,登記記録の閉鎖等,0,2025-05-12,2025-05-01,有限会社タシロ,,有限会社,神奈川県,川崎市川崎区,鋼管通２丁目１８番５号,,14,131,2100852,,,2025-05-01,清算の結了等,,,2015-10-05,1,,,,,タシロ,0
90,1020003008285,登記記録の閉鎖等,0,2025-05-12,2025-05-07,メディクル株式会社,,株式会社,大阪府,大阪市北区,曾根崎２丁目１２番７号,,27,127,5300057,,,2025-05-07,合併による解散等,2010401143717,令和７年５月１日大阪市北区曽根崎二丁目１２番７号株式会社トライト（2010401143717）に合併し解散,2015-10-05,1,,,,,メディクル,0
107,1030002094012,登記記録の閉鎖等,0,2025-05-12,2025-05-01,有限会社エクセレント,,有限会社,埼玉県,入間郡毛呂山町,大字滝ノ入１０４番地９,,11,326,3500456,,,2025-05-01,清算の結了等,,,2015-10-05,1,,,,,エクセレント,0
124,1050002010339,登記記録の閉鎖等,0,2025-05-12,2025-04-30,有限会社野村燃料,,有限会社,茨城県,笠間市,鯉渕６５２７番地７５,,08,216,3091600,,,2025-04-30,清算の結了等,,,2015-10-05,1,,,,,ノムラネンリョウ,0
135,1080005003238,登記記録の閉鎖等,0,2025-05-12,2025-05-02,農事組合法人吉原共同製茶組合,,その他の設立登記法人,静岡県,静岡市清水区,吉原１６６６番地,,22,103,4240111,,,2025-05-02,清算の結了等,,,2015-10-05,1,,,,,ヨシワラキョウドウセイチャクミアイ,0
138,1100001028161,登記記録の閉鎖等,0,2025-05-12,2025-05-07,株式会社ＧＯＲＫＨＡＬＩ,,株式会社,長野県,松本市,本庄２丁目６番２号,,20,202,3900814,,,2025-05-07,清算の結了等,,,2015-10-05,1,,,,,ゴルカリ,0
141,1110001014656,登記記録の閉鎖等,0,2025-05-12,2025-04-21,株式会社プロスター,,株式会社,新潟県,燕市,八王寺２４８２番地,,15,213,9591264,,,2025-04-21,合併による解散等,4110001032135,令和７年４月２１日新潟県燕市八王寺２４８２番地株式会社アクロス（4110001032135）に合併し解散,2015-10-05,1,,,,,プロスター,0
143,1120001134494,登記記録の閉鎖等,0,2025-05-12,2025-04-21,株式会社グローバルスタッフ,,株式会社,大阪府,大阪市西区,立売堀２丁目１番１１号,,27,106,5500012,,,2025-04-21,清算の結了等,,,2015-10-05,1,,,,,グローバルスタッフ,0
179,1120901047481,登記記録の閉鎖等,0,2025-05-12,2025-04-23,伏尾建設工業株式会社,,株式会社,大阪府,豊中市,走井１丁目２１番７号,,27,203,5610891,,,2025-04-23,清算の結了等,,,2023-05-08,1,,,,,フシオケンセツコウギョウ,0
193,1130001049758,登記記録の閉鎖等,0,2025-05-12,2025-05-07,株式会社オフィス内藤,,株式会社,京都府,京都市左京区,下鴨中川原町２４番地の３,,26,103,6060811,,,2025-05-07,清算の結了等,,,2015-10-05,1,,,,,オフィスナイトウ,0
208,1160001003225,登記記録の閉鎖等,0,2025-05-12,2025-05-01,さん寿株式会社,,株式会社,滋賀県,大津市,中央２丁目２番２２号ニューバラビル１階,,25,201,5200043,,,2025-05-01,合併による解散等,9160002004363,令和７年５月１日滋賀県大津市浜大津一丁目１番１３号株式会社ハン六キャピタル（9160002004363）に合併し解散,2015-10-05,1,,,,,サンジュ,0
231,1190002005242,登記記録の閉鎖等,0,2025-05-12,2025-05-01,有限会社ニュー波,,有限会社,三重県,熊野市,飛鳥町野口２６９番地,,24,212,5194565,,,2025-05-01,清算の結了等,,,2015-10-05,1,,,,,ニューナミ,0
232,1190002012718,登記記録の閉鎖等,0,2025-05-12,2025-04-30,有限会社若葉,,有限会社,三重県,伊賀市,西条５９７番地の２,,24,216,5180014,,,2025-04-30,清算の結了等,,,2015-10-05,1,,,,,ワカバ,0
251,1290001027161,登記記録の閉鎖等,0,2025-05-12,2025-04-25,株式会社シュール,,株式会社,福岡県,福岡市西区,内浜１丁目７番１号,,40,135,8190005,,,2025-04-25,清算の結了等,,,2015-10-05,1,,,,,シュール,0
252,1290001084822,登記記録の閉鎖等,0,2025-05-12,2025-04-25,株式会社美和コーポレーション,,株式会社,福岡県,福岡市南区,横手３丁目５番１号,,40,134,8111311,,,2025-04-25,清算の結了等,,,2019-04-05,1,,,,,ミワコーポレーション,0
266,1290803004309,登記記録の閉鎖等,0,2025-05-12,2025-05-08,合同会社ＲＳ工業,,合同会社,福岡県,北九州市若松区,北湊町５番４５－５０３号,,40,103,8080027,,,2025-05-08,清算の結了等,,,2023-01-18,1,,,,,アールエスコウギョウ,0
286,1390002003432,登記記録の閉鎖等,0,2025-05-12,2025-04-25,有限会社蔵王の詩本舗,,有限会社,山形県,山形市,大字漆山字二ツ段２１１３番２,,06,201,9902161,,,2025-04-25,清算の結了等,,,2015-10-05,1,,,,,ザオウノウタホンポ,0
294,1430002001118,登記記録の閉鎖等,0,2025-05-12,2025-05-01,有限会社あべ塗工,,有限会社,北海道,札幌市西区,西野四条９丁目２番１３号,,01,107,0630034,,,2025-05-01,清算の結了等,,,2015-10-05,1,,,,,アベトコウ,0
326,2010005035195,登記記録の閉鎖等,0,2025-05-12,2025-05-08,特定非営利活動法人アクト・フォー,,その他の設立登記法人,東京都,千代田区,永田町２丁目１７番１１－６０９号,,13,101,1000014,,,2025-05-08,清算の結了等,,,2022-07-05,1,,,,,アクトフォー,0
340,2010501029428,登記記録の閉鎖等,0,2025-05-12,2025-04-16,株式会社神田科学,,株式会社,東京都,台東区,駒形２丁目２番９号,,13,106,1110043,,,2025-04-16,清算の結了等,,,2015-10-05,1,,,,,カンダカガク,0
341,2010501048915,登記記録の閉鎖等,0,2025-05-12,2025-04-16,株式会社ＥＣユニコーン,,株式会社,東京都,台東区,台東３丁目５番１０号,,13,106,1100016,,,2025-04-16,清算の結了等,,,2022-06-07,1,,,,,イーシーユニコーン,0
368,2011601013511,登記記録の閉鎖等,0,2025-05-12,2025-05-01,日本酸素株式会社,,株式会社,東京都,練馬区,早宮２丁目８番７号,,13,120,1790085,,,2025-05-01,清算の結了等,,,2015-10-05,1,,,,,ニホンサンソ,0
375,2011801041163,登記記録の閉鎖等,0,2025-05-12,2025-05-02,株式会社ＡＳＸＥＥＤ,,株式会社,東京都,葛飾区,堀切５丁目４番３－２０２号,,13,122,1240006,,,2025-05-02,清算の結了等,,,2022-08-19,1,,,,,アスシード,0
387,2020001115735,登記記録の閉鎖等,0,2025-05-12,2025-04-21,株式会社高久設備,00106381,株式会社,神奈川県,横浜市神奈川区,羽沢町１０５７番地３,,14,102,2210863,,,2025-04-21,清算の結了等,,,2016-04-12,1,,,,,,0
397,2020003019991,登記記録の閉鎖等,0,2025-05-12,2025-05-01,ミイ合同会社,,合同会社,神奈川県,川崎市川崎区,駅前本町１８番１号メルスサイトー７０２,,14,131,2100007,,,2025-05-01,清算の結了等,,,2021-06-15,1,,,,,ミイ,0
398,2020003020900,登記記録の閉鎖等,0,2025-05-12,2025-04-25,合同会社鈴鹿ＥＲＩ１号,,合同会社,神奈川県,横浜市港北区,新横浜２丁目５番地２新横浜Ｕ・Ｕビル５階,,14,109,2220033,,,2025-04-25,清算の結了等,,,2021-12-06,1,,,,,スズカイーアールアイイチゴウ,0
410,2030002110569,登記記録の閉鎖等,0,2025-05-12,2025-05-02,有限会社城東美工,,有限会社,埼玉県,川口市,戸塚鋏町１４－１,,11,203,3330805,,,2025-05-02,清算の結了等,,,2015-10-05,1,,,,,ジョウトウビコウ,0
440,2060002012341,登記記録の閉鎖等,0,2025-05-12,2025-04-30,有限会社矢野農産,,有限会社,栃木県,さくら市,穂積５７４番地,,09,214,3291403,,,2025-04-30,清算の結了等,,,2015-10-05,1,,,,,ヤノノウサン,0
452,2100001032591,登記記録の閉鎖等,0,2025-05-12,2025-05-02,株式会社ＲＣＩ,,株式会社,長野県,飯田市,江戸町１丁目１３番地,,20,205,3950015,,,2025-05-02,清算の結了等,,,2019-10-07,1,,,,,アールシーアイ,0
456,2120001035700,登記記録の閉鎖等,0,2025-05-12,2025-04-21,チハラ産業株式会社,,株式会社,大阪府,大阪市福島区,福島４丁目２番７６号,,27,103,5530003,,,2025-04-21,清算の結了等,,,2015-10-05,1,,,,,チハラサンギョウ,0
462,2120001231811,登記記録の閉鎖等,0,2025-05-12,2025-05-02,株式会社ソレイユ,,株式会社,大阪府,大阪市西淀川区,千舟１丁目３番１２号,,27,113,5550013,,,2025-05-02,清算の結了等,,,2020-09-16,1,,,,,ソレイユ,0
487,2120005023965,登記記録の閉鎖等,0,2025-05-12,2025-04-22,一般社団法人職人の継手,,その他の設立登記法人,大阪府,大阪市北区,梅田１丁目１１番４号大阪駅前第４ビル９階９２３－１６８０号,,27,127,5300001,,,2025-04-22,清算の結了等,,,2023-10-30,1,,,,,ショクニンノツナギテ,0
489,2120101058691,登記記録の閉鎖等,0,2025-05-12,2025-05-01,株式会社ハートリー,,株式会社,大阪府,藤井寺市,北岡１丁目７番９号,,27,226,5830035,,,2025-05-01,清算の結了等,,,2018-08-29,1,,,,,ハートリー,0
498,2122001023528,登記記録の閉鎖等,0,2025-05-12,2025-05-02,株式会社アン・ニュアージュ,,株式会社,大阪府,東大阪市,中野２丁目９番２４号,,27,227,5780913,,,2025-05-02,清算の結了等,,,2015-10-05,1,,,,,アンニュアージュ,0
533,2180301024595,登記記録の閉鎖等,0,2025-05-12,2025-04-30,株式会社オールインワン,,株式会社,愛知県,安城市,三河安城南町１丁目５番地４ガーデンヒルズ三河安城ＶＩＰ１４０１,,23,212,4460058,,,2025-04-30,清算の結了等,,,2015-10-05,1,,,,,オールインワン,0
579,2350003002403,登記記録の閉鎖等,0,2025-05-12,2025-04-14,合同会社ＡＳＴ,,合同会社,宮崎県,都城市,郡元４丁目２４番地３,,45,202,8850018,,,2025-04-14,清算の結了等,,,2015-10-05,1,,,,,エーエスティー,0
598,2400502000959,登記記録の閉鎖等,0,2025-05-12,2025-04-21,株式会社つむらや商事,,株式会社,岩手県,一関市,真柴字的場８番地５,,03,209,0210901,,,2025-04-21,清算の結了等,,,2015-10-05,1,,,,,ツムラヤショウジ,0
615,2450002001453,登記記録の閉鎖等,0,2025-05-12,2025-05-07,有限会社神田ウッディング,,有限会社,北海道,旭川市,末広六条７丁目１０番１２号,,01,204,0718136,,,2025-05-07,清算の結了等,,,2015-10-05,1,,,,,カンダウッディング,0
652,3010901012016,登記記録の閉鎖等,0,2025-05-12,2025-04-07,株式会社目黒企画,,株式会社,東京都,港区,南青山２丁目２番１５号,,13,103,1070062,,,2025-04-07,清算の結了等,,,2015-10-05,1,,,,,メグロキカク,0
654,3011001072693,登記記録の閉鎖等,0,2025-05-12,2025-05-07,マックスプレミアム株式会社,,株式会社,東京都,世田谷区,奥沢５丁目３８番８号マックステラス自由が丘３階,,13,112,1580083,,,2025-05-07,清算の結了等,,,2015-10-05,1,,,,,マックスプレミアム,0
666,3011201011435,登記記録の閉鎖等,0,2025-05-12,2025-04-21,株式会社赤門ガレージ,,株式会社,千葉県,松戸市,中金杉５丁目１１５番地の１９,,12,207,2700007,,,2025-04-21,清算の結了等,,,2015-10-05,1,,,,,アカモンガレージ,0
675,3013301031718,登記記録の閉鎖等,0,2025-05-12,2025-04-18,株式会社立教ファシリティマネジメント,,株式会社,東京都,豊島区,西池袋５丁目１０番５号,,13,116,1710021,,,2025-04-18,合併による解散等,3013301015407,令和７年４月１日東京都豊島区西池袋五丁目１０番５号株式会社立教企画（3013301015407）に合併し解散,2015-10-05,1,,,,,リッキョウファシリティマネジメント,0
678,3020001067117,登記記録の閉鎖等,0,2025-05-12,2025-04-21,株式会社溝口電商,,株式会社,神奈川県,川崎市高津区,新作１丁目２１番１３号,,14,134,2130014,,,2025-04-21,清算の結了等,,,2015-10-05,1,,,,,ミゾノクチデンショウ,0
681,3020001135889,登記記録の閉鎖等,0,2025-05-12,2025-04-21,株式会社ロスジェネ・マネジメント,,株式会社,神奈川県,川崎市多摩区,枡形３丁目３番３号カミニート１０５,,14,135,2140032,,,2025-04-21,清算の結了等,,,2020-04-21,1,,,,,ロスジェネマネジメント,0
700,3021002004439,登記記録の閉鎖等,0,2025-05-12,2025-05-09,有限会社藤沢昭電社,,有限会社,神奈川県,藤沢市,藤沢６２番地,,14,205,2510052,,,2025-05-09,清算の結了等,,,2015-10-05,1,,,,,フジサワショウデンシャ,0
721,3040001119304,登記記録の閉鎖等,0,2025-05-12,2025-04-18,株式会社ジオ・プランニング,,株式会社,千葉県,千葉市花見川区,検見川町３丁目３０２番地３－２０２,,12,102,2620023,,,2025-04-18,清算の結了等,,,2021-07-12,1,,,,,ジオプランニング,0
731,3050001001493,登記記録の閉鎖等,0,2025-05-12,2025-05-01,大栄商事株式会社,,株式会社,茨城県,水戸市,見和２丁目２４０番地の１シャトーアトラス１０６,,08,201,3100911,,,2025-05-01,合併による解散等,3050001003267,令和７年５月１日茨城県水戸市見和二丁目２４２番地の１株式会社アトラス（3050001003267）に合併し解散,2015-10-05,1,,,,,ダイエイショウジ,0
733,3050001011154,登記記録の閉鎖等,0,2025-05-12,2025-05-02,株式会社こわたり,,株式会社,茨城県,稲敷郡美浦村,大字木原４９４番地１,,08,442,3000421,,,2025-05-02,合併による解散等,3040001071182,令和７年４月１日東京都渋谷区道玄坂二丁目２５番１２号道玄坂通４階株式会社金宝堂（3040001071182）に合併し解散,2015-10-05,1,,,,,コワタリ,0
738,3050002023388,登記記録の閉鎖等,0,2025-05-12,2025-04-25,有限会社ビッグウエスト,,有限会社,茨城県,つくば市,妻木２９番地２,,08,220,3050028,,,2025-04-25,合併による解散等,4050001015583,令和７年４月２５日茨城県つくば市妻木２９番地の２恵友技工株式会社（4050001015583）に合併し解散,2015-10-05,1,,,,,ビッグウエスト,0
746,3070002000055,登記記録の閉鎖等,0,2025-05-12,2025-05-07,有限会社青木屋肉店,,有限会社,群馬県,前橋市,千代田町５丁目５番５号,,10,201,3710022,,,2025-05-07,清算の結了等,,,2015-10-05,1,,,,,アオキヤニクテン,0
754,3090002003444,登記記録の閉鎖等,0,2025-05-12,2025-04-25,有限会社旅館明治,,有限会社,山梨県,甲府市,湯村３丁目１０番１４号,,19,201,4000073,,,2025-04-25,清算の結了等,,,2015-10-05,1,,,,,リョカンメイジ,0
762,3100003003061,登記記録の閉鎖等,0,2025-05-12,2025-05-07,合資会社大和,,合資会社,長野県,飯田市,中央通り１丁目１０番地,,20,205,3950041,,,2025-05-07,清算の結了等,,,2015-10-05,1,,,,,ヤマト,0
763,3110001031022,登記記録の閉鎖等,0,2025-05-12,2025-05-02,エムテック株式会社,,株式会社,埼玉県,本庄市,若泉２丁目７番２３号,,11,211,3670055,,,2025-05-02,清算の結了等,,,2015-10-20,1,,,,,エムテック,0
772,3120001261725,登記記録の閉鎖等,0,2025-05-12,2025-04-21,株式会社ＡＤＮＯＶＡＲＥ,,株式会社,大阪府,大阪市中央区,南船場３丁目２－２２おおきに南船場ビル２０５,,27,128,5420081,,,2025-04-21,清算の結了等,,,2024-01-26,1,,,,,アドノバーレ,0
797,3120005018535,登記記録の閉鎖等,0,2025-05-12,2025-05-08,一般社団法人ＲＨＳ癒しビト学び舎,,その他の設立登記法人,大阪府,大阪市西区,南堀江１丁目１６番９号ＭＩＲＡＢＥＬＬＳＯＵＴＨ３１１号室,,27,106,5500015,,,2025-05-08,清算の結了等,,,2016-03-03,1,,,,,アールエイチエスイヤシビトマナビシャ,0
798,3120101027679,登記記録の閉鎖等,0,2025-05-12,2025-05-01,光亜産業株式会社,,株式会社,大阪府,大阪狭山市,大野台７丁目２０番９号,,27,231,5890023,,,2025-05-01,清算の結了等,,,2015-10-05,1,,,,,コウアサンギョウ,0
799,3120101063600,登記記録の閉鎖等,0,2025-05-12,2025-05-07,株式会社シンフク,,株式会社,大阪府,泉佐野市,高松東１丁目１０番３７号泉佐野センタービル５階,,27,213,5980012,,,2025-05-07,合併による解散等,8120101059222,令和７年５月１日奈良県橿原市中曽司町１９４番地の６、２階株式会社鶴（8120101059222）に合併し解散,2021-05-12,1,,,,,シンフク,0
806,3120901027787,登記記録の閉鎖等,0,2025-05-12,2025-04-25,株式会社三興,,株式会社,大阪府,吹田市,垂水町３丁目２５番１１号,,27,205,5640062,,,2025-04-25,清算の結了等,,,2015-10-05,1,,,,,,0
823,3140005020225,登記記録の閉鎖等,0,2025-05-12,2025-04-21,公益財団法人神戸いきいき勤労財団,,その他の設立登記法人,兵庫県,神戸市中央区,江戸町１０４番地,,28,110,6500033,,,2025-04-21,合併による解散等,5140005005389,令和７年４月１日神戸市中央区東川崎町一丁目８番４号公益財団法人こうべ産業・就労支援財団（5140005005389）に合併し解散,2015-10-05,1,,,,,コウベイキイキキンロウザイダン,0
824,3150001008306,登記記録の閉鎖等,0,2025-05-12,2025-05-07,ホープフル・モンスター株式会社,,株式会社,奈良県,奈良市,芝辻町２丁目９番１５,00042858,29,201,6308114,,,2025-05-07,清算の結了等,,,2015-10-05,1,,,,,ホープフルモンスター,0
828,3160001001094,登記記録の閉鎖等,0,2025-05-12,2025-05-07,スギエ工業株式会社,,株式会社,滋賀県,大津市,観音寺３番２号,,25,201,5200032,,,2025-05-07,清算の結了等,,,2015-10-05,1,,,,,スギエコウギョウ,0
845,3210002014131,登記記録の閉鎖等,0,2025-05-12,2025-05-02,有限会社松本魚問屋,,有限会社,福井県,大飯郡高浜町,三明１号３８番地,,18,481,9192229,,,2025-05-02,清算の結了等,,,2015-10-05,1,,,,,マツモトウオドンヤ,0
851,3240001061717,登記記録の閉鎖等,0,2025-05-12,2025-05-07,株式会社ＮＮＷ,,株式会社,広島県,広島市佐伯区,五日市５丁目１０番１７号２０１号室,,34,108,7315127,,,2025-05-07,清算の結了等,,,2023-06-23,1,,,,,エヌエヌダブリュ,0
865,3290001053998,登記記録の閉鎖等,0,2025-05-12,2025-04-25,西山商事株式会社,,株式会社,福岡県,大牟田市,浜町２番地の２,,40,202,8360021,,,2025-04-25,清算の結了等,,,2015-10-05,1,,,,,ニシヤマショウジ,0
873,3300002005146,登記記録の閉鎖等,0,2025-05-12,2025-05-07,有限会社Ｐ．Ａ．Ｚ,,有限会社,佐賀県,佐賀市,諸富町大字為重８９番地１,,41,201,8402102,,,2025-05-07,清算の結了等,,,2015-10-05,1,,,,,ピーエーゼット,0
875,3310002018246,登記記録の閉鎖等,0,2025-05-12,2025-05-07,有津屋有限会社,,有限会社,長崎県,南島原市,有家町原尾２９６９番地６,,42,214,8592123,,,2025-05-07,合併による解散等,2310001009767,令和７年５月１日長崎県南島原市有家町原尾２９６７番地第一商事株式会社（2310001009767）に合併し解散,2015-10-05,1,,,,,アリツヤ,0
879,3330001023798,登記記録の閉鎖等,0,2025-05-12,2025-04-30,株式会社ヤマニ,,株式会社,熊本県,上益城郡甲佐町,大字中横田２４９番地,,43,444,8614623,,,2025-04-30,清算の結了等,,,2017-03-03,1,,,,,ヤマニ,0
889,3350001000449,登記記録の閉鎖等,0,2025-05-12,2025-04-30,株式会社木花水産,,株式会社,宮崎県,宮崎市,大塚町池ノ内１１９０番地５,,45,201,8800951,,,2025-04-30,清算の結了等,,,2015-10-05,1,,,,,,0
910,3370005002935,登記記録の閉鎖等,0,2025-05-12,2025-04-23,特定非営利活動法人働くお母さんと子どもを支援する会,,その他の設立登記法人,宮城県,仙台市泉区,八乙女中央１丁目１番１７号－９０６号,,04,105,9813135,,,2025-04-23,清算の結了等,,,2015-10-05,1,,,,,,0
918,3390001017530,登記記録の閉鎖等,0,2025-05-12,2025-04-16,株式会社ＰｉＰｏｔａｌ,,株式会社,宮城県,仙台市青葉区,国分町１丁目４番９号,,04,101,9800803,,,2025-04-16,清算の結了等,,,2024-02-26,1,,,,,ピポタル,0
950,4010005036225,登記記録の閉鎖等,0,2025-05-12,2025-05-08,ＬＦ物流ファンドスリー一般社団法人,,その他の設立登記法人,東京都,千代田区,丸の内１丁目４番１号東京共同会計事務所内,,13,101,1000005,,,2025-05-08,清算の結了等,,,2023-02-07,1,,,,,エルエフブツリュウファンドスリー,0
953,4010401089982,登記記録の閉鎖等,0,2025-05-12,2025-04-07,株式会社プレミア,,株式会社,東京都,港区,西麻布３丁目２番９号サンライズ六本木４階Ｂ号室,,13,103,1060031,,,2025-04-07,清算の結了等,,,2015-10-05,1,,,,,プレミア,0
954,4010401103256,登記記録の閉鎖等,0,2025-05-12,2025-05-08,ドクターズモバイル株式会社,,株式会社,東京都,渋谷区,恵比寿西２丁目２番６号恵比寿ファイブビル３０８号室,,13,113,1500021,,,2025-05-08,合併による解散等,1010001222847,令和７年４月１日東京都港区虎ノ門三丁目２番２号株式会社イノシア（1010001222847）に合併し解散,2015-10-05,1,,,,,ドクターズモバイル,0
977,4011001136638,登記記録の閉鎖等,0,2025-05-12,2025-05-08,株式会社リラクシング,,株式会社,東京都,渋谷区,鶯谷町８番１０号代官山トゥエルブ２Ｂ,,13,113,1500032,,,2025-05-08,合併による解散等,9030001117047,令和７年５月１日埼玉県さいたま市大宮区大門町二丁目５番地株式会社キーリス（9030001117047）に合併し解散,2020-10-28,1,,,,,リラクシング,0
1007,4011801030461,登記記録の閉鎖等,0,2025-05-12,2025-05-07,株式会社シー＆シー,,株式会社,東京都,葛飾区,東堀切２丁目２４番１０号,,13,122,1240004,,,2025-05-07,清算の結了等,,,2015-10-05,1,,,,,シーアンドシー,0
1013,4012701017870,登記記録の閉鎖等,0,2025-05-12,2025-05-01,株式会社エターナル,,株式会社,東京都,東村山市,本町２丁目２１番地３－３０５,,13,213,1890014,,,2025-05-01,清算の結了等,,,2023-10-06,1,,,,,エターナル,0
1019,4013202001331,登記記録の閉鎖等,0,2025-05-12,2025-04-04,有限会社エムキューブディベロップ,,有限会社,東京都,目黒区,碑文谷５丁目９番１９－３０１号,,13,110,1520003,,,2025-04-04,清算の結了等,,,2015-10-05,1,,,,,エムキューブディベロップ,0
1020,4013301031717,登記記録の閉鎖等,0,2025-05-12,2025-04-18,株式会社立教オフィスマネジメント,,株式会社,東京都,豊島区,西池袋５丁目１０番５号,,13,116,1710021,,,2025-04-18,合併による解散等,3013301015407,令和７年４月１日東京都豊島区西池袋五丁目１０番５号株式会社立教企画（3013301015407）に合併し解散,2015-10-05,1,,,,,リッキョウオフィスマネジメント,0
1023,4020001069847,登記記録の閉鎖等,0,2025-05-12,2025-04-21,東栄精機株式会社,,株式会社,神奈川県,川崎市中原区,上小田中２丁目３８番１４号,,14,133,2110053,,,2025-04-21,清算の結了等,,,2015-10-05,1,,,,,トウエイセイキ,0
1070,4070002028715,登記記録の閉鎖等,0,2025-05-12,2025-05-01,有限会社金山地所,,有限会社,群馬県,太田市,内ケ島町３４９番地２,,10,205,3730813,,,2025-05-01,清算の結了等,,,2015-10-05,1,,,,,カナヤマチショ,0
1091,4120001194214,登記記録の閉鎖等,0,2025-05-12,2025-04-11,ケーイーフューエルインターナショナル株式会社,,株式会社,大阪府,大阪市北区,中之島３丁目６番１６号,,27,127,5300005,,,2025-04-11,合併による解散等,3120001059632,令和７年４月１日大阪市北区中之島三丁目６番１６号関西電力株式会社（3120001059632）に合併し解散,2015-11-06,1,,,,,ケーイーフューエルインターナショナル,0
1112,4120002048435,登記記録の閉鎖等,0,2025-05-12,2025-04-21,有限会社ウイット,,有限会社,大阪府,大阪市中央区,船場中央３丁目２－８－２２９船場センタービル８号館２階,,27,128,5410055,,,2025-04-21,清算の結了等,,,2015-10-05,1,,,,,ウイット,0
1116,4120101020773,登記記録の閉鎖等,0,2025-05-12,2025-05-01,株式会社トップスコーポレーション,,株式会社,大阪府,堺市北区,南花田町３３番地の６,,27,146,5918011,,,2025-05-01,合併による解散等,9120101004565,令和７年５月１日大阪府堺市北区南花田町３３番地の６株式会社東和（9120101004565）に合併し解散,2015-10-05,1,,,,,トップスコーポレーション,0
1117,4120101021846,登記記録の閉鎖等,0,2025-05-12,2025-05-01,株式会社ラ・フォレ,,株式会社,大阪府,堺市美原区,大保３５番地,,27,147,5870001,,,2025-05-01,清算の結了等,,,2015-10-05,1,,,,,ラフォレ,0
1129,4140001084339,登記記録の閉鎖等,0,2025-05-12,2025-05-01,ファーレ株式会社,,株式会社,大阪府,大阪市中央区,平野町１丁目７番６号,,27,128,5410046,,,2025-05-01,合併による解散等,2010001014327,令和７年４月１日東京都千代田区大手町二丁目２番１号極東貿易株式会社（2010001014327）に合併し解散,2015-10-05,1,,,,,ファーレ,0
1130,4140001107685,登記記録の閉鎖等,0,2025-05-12,2025-05-07,ＶｉＳｐｏｔ株式会社,,株式会社,兵庫県,神戸市中央区,港島南町６丁目３番５号,,28,110,6500047,,,2025-05-07,合併による解散等,1160001002490,令和７年５月１日滋賀県草津市野路東七丁目４番３８号タカラバイオ株式会社（1160001002490）に合併し解散,2017-10-04,1,,,,,バイスポット,0
1149,4170001000524,登記記録の閉鎖等,0,2025-05-12,2025-05-08,オートスタッフ和歌山株式会社,,株式会社,和歌山県,和歌山市,小豆島４０番地２,,30,201,6496336,,,2025-05-08,合併による解散等,6120001063243,令和７年５月１日大阪府守口市八雲東町一丁目２１番１０号近畿いすゞ自動車販売株式会社（6120001063243）に合併し解散,2015-10-05,1,,,,,,0
1160,4180001160350,登記記録の閉鎖等,0,2025-05-12,2025-05-01,株式会社シック,,株式会社,愛知県,名古屋市熱田区,一番２丁目３４番６号,,23,109,4560053,,,2025-05-01,清算の結了等,,,2024-03-07,1,,,,,シック,0
1170,4180302002763,登記記録の閉鎖等,0,2025-05-12,2025-05-01,有限会社萬正,,有限会社,愛知県,岡崎市,稲熊町字４丁目８８番地,,23,202,4440071,,,2025-05-01,清算の結了等,,,2015-10-05,1,,,,,マンショウ,0
1183,4240001046205,登記記録の閉鎖等,0,2025-05-12,2025-05-08,株式会社松正組,,株式会社,広島県,広島市東区,馬木１丁目１８番地の２,,34,102,7320031,,,2025-05-08,清算の結了等,,,2015-10-05,1,,,,,マツショウグミ,0
1185,4250001000045,登記記録の閉鎖等,0,2025-05-12,2025-05-01,入交電設株式会社,,株式会社,山口県,山口市,今井町４番５号,,35,203,7530055,,,2025-05-01,清算の結了等,,,2015-10-05,1,,,,,イリマジリデンセツ,0
1206,4290002051843,登記記録の閉鎖等,0,2025-05-12,2025-04-25,有限会社藤野電器商会,,有限会社,福岡県,小郡市,祇園１丁目２番地の１０,,40,216,8380144,,,2025-04-25,清算の結了等,,,2015-10-05,1,,,,,フジノデンキショウカイ,0
1214,4310001017719,登記記録の閉鎖等,0,2025-05-12,2025-05-07,Ｍ＆Ａグッドサービス株式会社,,株式会社,長崎県,佐世保市,白岳町１６６－１１秋月ビル２０１,,42,202,8571164,,,2025-05-07,清算の結了等,,,2022-02-21,1,,,,,エムアンドエーグッドサービス,0
1233,4370001015931,登記記録の閉鎖等,0,2025-05-12,2025-04-24,株式会社インフィニクス,,株式会社,宮城県,仙台市青葉区,一番町１丁目４番１号５階Ｃ１室,,04,101,9800811,,,2025-04-24,清算の結了等,,,2015-10-05,1,,,,,インフィニクス,0
1240,4400002002454,登記記録の閉鎖等,0,2025-05-12,2025-05-02,有限会社西舘硝子店,,有限会社,岩手県,盛岡市,上田４丁目２０番３５号,,03,201,0200066,,,2025-05-02,清算の結了等,,,2015-10-05,1,,,,,ニシダテガラステン,0
1252,4470001008000,登記記録の閉鎖等,0,2025-05-12,2025-05-01,株式会社ビアン,,株式会社,香川県,綾歌郡宇多津町,浜三番丁３７番地３,,37,386,7690203,,,2025-05-01,清算の結了等,,,2015-10-05,1,,,,,ビアン,0
1258,5010001137380,登記記録の閉鎖等,0,2025-05-12,2025-05-02,成長戦略株式会社,,株式会社,東京都,中央区,八重洲２丁目２番１号,,13,102,1040028,,,2025-05-02,合併による解散等,5120001180782,令和７年４月１日大阪市中央区北浜四丁目４番１０号株式会社船井総合研究所（5120001180782）に合併し解散,2015-10-05,1,,,,,セイチョウセンリャク,0
1272,5010005030111,登記記録の閉鎖等,0,2025-05-12,2025-04-30,一般社団法人ＲＬＳ,,その他の設立登記法人,東京都,中央区,銀座２丁目１０番８号マニエラ銀座ビル４階ブリッジ・シー会計事務所内,,13,102,1040061,,,2025-04-30,清算の結了等,,,2019-05-08,1,,,,,アールエルエス,0
1273,5010005037494,登記記録の閉鎖等,0,2025-05-12,2025-05-08,ＪＤ２一般社団法人,,その他の設立登記法人,東京都,千代田区,丸の内１丁目４番１号東京共同会計事務所内,,13,101,1000005,,,2025-05-08,清算の結了等,,,2023-11-10,1,,,,,ジェイディーツー,0
1277,5010401164553,登記記録の閉鎖等,0,2025-05-12,2025-04-16,株式会社風光る,,株式会社,東京都,千代田区,神田美土代町３番地４ニュー楓ビル１階,,13,101,1010053,,,2025-04-16,清算の結了等,,,2021-12-22,1,,,,,カゼヒカル,0
1289,5010805002499,登記記録の閉鎖等,0,2025-05-12,2025-04-22,一般社団法人こうじや文化村,,その他の設立登記法人,東京都,大田区,西糀谷４丁目３番１０号,,13,111,1440034,,,2025-04-22,清算の結了等,,,2017-09-22,1,,,,,コウジヤブンカムラ,0
1290,5010901042705,登記記録の閉鎖等,0,2025-05-12,2025-05-08,株式会社リア夢プロジェクト,,株式会社,東京都,世田谷区,深沢６丁目４番１２号,,13,112,1580081,,,2025-05-08,清算の結了等,,,2018-09-19,1,,,,,リアユメプロジェクト,0
1327,5013303005866,登記記録の閉鎖等,0,2025-05-12,2025-04-18,合同会社ＴＵＮＩ,,合同会社,東京都,豊島区,要町１丁目１７番８号,,13,116,1710043,,,2025-04-18,清算の結了等,,,2021-10-20,1,,,,,トゥーニ,0
1339,5020002070407,登記記録の閉鎖等,0,2025-05-12,2025-04-21,有限会社エヌ・システム,,有限会社,神奈川県,横浜市港南区,港南３丁目３６番７号,,14,111,2330003,,,2025-04-21,清算の結了等,,,2015-10-05,1,,,,,エヌシステム,0
1349,5030001089843,登記記録の閉鎖等,0,2025-05-12,2025-05-02,株式会社松本材木店,,株式会社,埼玉県,日高市,大字南平沢３７９番地,,11,242,3501206,,,2025-05-02,清算の結了等,,,2015-10-05,1,,,,,マツモトザイモクテン,0
1380,5070002030934,登記記録の閉鎖等,0,2025-05-12,2025-05-01,有限会社ホワイト急便館林,,有限会社,群馬県,邑楽郡邑楽町,大字篠塚２７７３番地の３,,10,525,3700615,,,2025-05-01,清算の結了等,,,2025-04-01,1,,,,,ホワイトキュウビンタテバヤシ,0
1384,5090002011271,登記記録の閉鎖等,0,2025-05-12,2025-04-30,ニッショーコンビニエンス有限会社,,有限会社,山梨県,甲州市,塩山竹森１４２０番地,,19,213,4040051,,,2025-04-30,清算の結了等,,,2015-10-05,1,,,,,ニッショーコンビニエンス,0
1431,5122003001537,登記記録の閉鎖等,0,2025-05-12,2025-05-07,合同会社ダイヒートテック,,合同会社,大阪府,東大阪市,渋川町１丁目８番１５号英山方,,27,227,5770836,,,2025-05-07,清算の結了等,,,2018-07-27,1,,,,,ダイヒートテック,0
1434,5130002010756,登記記録の閉鎖等,0,2025-05-12,2025-05-07,有限会社京洛庵,,有限会社,京都府,京都市南区,吉祥院定成町６番地１,,26,107,6018322,,,2025-05-07,清算の結了等,,,2015-10-05,1,,,,,,0
1445,5180001036194,登記記録の閉鎖等,0,2025-05-12,2025-05-01,材惣エステート株式会社,,株式会社,愛知県,名古屋市中区,錦１丁目１番２号,,23,106,4600003,,,2025-05-01,合併による解散等,1180002031339,令和７年５月１日名古屋市中区錦一丁目１番２号株式会社鈴木興産（1180002031339）に合併し解散,2015-10-05,1,,,,,ザイソウエステート,0
1465,5220002006200,登記記録の閉鎖等,0,2025-05-12,2025-05-07,有限会社吉幸電気工事,,有限会社,石川県,金沢市,高岡町１０番６号,,17,201,9200864,,,2025-05-07,清算の結了等,,,2015-10-05,1,,,,,ヨシコウデンキコウジ,0
1467,5230005004381,登記記録の閉鎖等,0,2025-05-12,2025-04-01,社会福祉法人滑川南部福祉会,,その他の設立登記法人,富山県,滑川市,本江３０８番地５,,16,206,9360824,,,2025-04-01,合併による解散等,6230005004380,令和７年４月１日富山県滑川市小林６９番地社会福祉法人毅行福祉会（6230005004380）に合併し解散,2015-10-05,1,,,,,ナメリカワナンブフクシカイ,0
1471,5240005014512,登記記録の閉鎖等,0,2025-05-12,2025-05-08,特定非営利活動法人ＳＹＬ,,その他の設立登記法人,広島県,呉市,畝原町１番２３号,,34,202,7370061,,,2025-05-08,清算の結了等,,,2017-11-30,1,,,,,トクテイヒエイリホウジンエスワイエル,0
1478,5290001026184,登記記録の閉鎖等,0,2025-05-12,2025-04-25,株式会社保険総研ジャパン,,株式会社,福岡県,福岡市早良区,原７丁目２６－１７,,40,137,8140022,,,2025-04-25,清算の結了等,,,2015-10-05,1,,,,,ホケンソウケンジャパン,0
1497,5320002016412,登記記録の閉鎖等,0,2025-05-12,2025-05-07,有限会社エトウ釣具,,有限会社,大分県,佐伯市,池船町１７番２６号,,44,205,8760833,,,2025-05-07,清算の結了等,,,2015-10-05,1,,,,,,0
1515,5380002034482,登記記録の閉鎖等,0,2025-05-12,2025-04-30,有限会社アイデア工房,,有限会社,福島県,河沼郡会津坂下町,大字束原字前田６８番地,,07,421,9696524,,,2025-04-30,清算の結了等,,,2015-10-05,1,,,,,アイデアコウボウ,0
1535,5470001007125,登記記録の閉鎖等,0,2025-05-12,2025-05-01,株式会社賃貸ネットワーク,,株式会社,香川県,高松市,多肥下町１５４８番地１,,37,201,7618075,,,2025-05-01,合併による解散等,2470002008059,令和７年５月１日香川県高松市上天神町６５４番地１株式会社経営政策研究所（2470002008059）に合併し解散,2015-10-05,1,,,,,チンタイネットワーク,0
1539,6010001187128,登記記録の閉鎖等,0,2025-05-12,2025-04-16,シンワクリエイト株式会社,,株式会社,東京都,中央区,銀座７丁目４番１２号,,13,102,1040061,,,2025-04-16,清算の結了等,,,2017-10-24,1,,,,,シンワクリエイト,0
1556,6010402006522,登記記録の閉鎖等,0,2025-05-12,2025-04-07,有限会社しもじま,,有限会社,東京都,港区,赤坂５丁目２番４５号,,13,103,1070052,,,2025-04-07,清算の結了等,,,2015-10-05,1,,,,,シモジマ,0
1571,6011003015796,登記記録の閉鎖等,0,2025-05-12,2025-04-07,合同会社アクルカール,,合同会社,東京都,渋谷区,神宮前６丁目２３番地４号桑野ビル２Ｆ,,13,113,1500001,,,2025-04-07,清算の結了等,,,2022-11-28,1,,,,,アクルカール,0
1590,6011603001816,登記記録の閉鎖等,0,2025-05-12,2025-04-28,Ｅｄｕ　Ｈｉｖｅ合同会社,,合同会社,東京都,練馬区,豊玉上２丁目１５番９号オリンピックマンション８階,,13,120,1760011,,,2025-04-28,清算の結了等,,,2016-04-12,1,,,,,,0
1597,6011801022060,登記記録の閉鎖等,0,2025-05-12,2025-04-16,株式会社環境エネルギー総合研究所,,株式会社,東京都,中央区,銀座５丁目１５番１号,,13,102,1040061,,,2025-04-16,清算の結了等,,,2015-10-05,1,,,,,カンキョウエネルギーソウゴウケンキュウショ,0
1616,6020002039863,登記記録の閉鎖等,0,2025-05-12,2025-05-01,有限会社福田ストアー,,有限会社,神奈川県,横浜市鶴見区,駒岡５丁目２２番９,,14,101,2300071,,,2025-05-01,清算の結了等,,,2015-10-05,1,,,,,フクダストアー,0
1621,6020003026068,登記記録の閉鎖等,0,2025-05-12,2025-04-21,合同会社ＩＵＣ,,合同会社,神奈川県,横浜市神奈川区,金港町５－１４クアドリフォリオ８階,,14,102,2210056,,,2025-04-21,清算の結了等,,,2024-05-10,1,,,,,アイユーシー,0
1634,6040001059448,登記記録の閉鎖等,0,2025-05-12,2025-04-11,萬平サービス株式会社,,株式会社,千葉県,茂原市,東部台２丁目２２番地９,,12,210,2970015,,,2025-04-11,清算の結了等,,,2015-10-05,1,,,,,マンペイサービス,0
1647,6050002037476,登記記録の閉鎖等,0,2025-05-12,2025-05-01,吉田海洋測量有限会社,,有限会社,茨城県,取手市,藤代８３０番地の５,,08,217,3001512,,,2025-05-01,清算の結了等,,,2015-10-05,1,,,,,ヨシダカイヨウソクリョウ,0
1664,6120001025805,登記記録の閉鎖等,0,2025-05-12,2025-04-18,株式会社ルーシー,,株式会社,大阪府,大阪市北区,豊崎３丁目９番７号ＩＺＵＭＩビル５階,,27,127,5310072,,,2025-04-18,清算の結了等,,,2015-10-05,1,,,,,ルーシー,0
1667,6120001203889,登記記録の閉鎖等,0,2025-05-12,2025-04-18,株式会社橋本不動産事務所,,株式会社,大阪府,大阪市西区,北堀江１丁目１番７号四ツ橋日生ビル７０９,,27,106,5500014,,,2025-04-18,清算の結了等,,,2017-02-23,1,,,,,,0
1670,6120001248554,登記記録の閉鎖等,0,2025-05-12,2025-04-24,株式会社クボタデータグラウンド,,株式会社,大阪府,大阪市浪速区,敷津東１丁目２番４７号,,27,111,5560012,,,2025-04-24,清算の結了等,,,2022-09-02,1,,,,,クボタデータグラウンド,0
1689,6120002082119,登記記録の閉鎖等,0,2025-05-12,2025-05-07,有限会社華蓮,,有限会社,大阪府,大阪市中央区,高津３丁目７番１３号,,27,128,5420072,,,2025-05-07,清算の結了等,,,2015-10-05,1,,,,,カレン,0
1695,6120103006059,登記記録の閉鎖等,0,2025-05-12,2025-05-01,オアシス合同会社,,合同会社,大阪府,岸和田市,春木旭町３８－１－２０３号,,27,202,5960005,,,2025-05-01,清算の結了等,,,2024-09-19,1,,,,,オアシス,0
1699,6120901019468,登記記録の閉鎖等,0,2025-05-12,2025-04-25,株式会社河西喜昇堂,,株式会社,大阪府,池田市,栄本町２番１０号,,27,204,5630058,,,2025-04-25,清算の結了等,,,2015-10-05,1,,,,,,0
1715,6140005022961,登記記録の閉鎖等,0,2025-05-12,2025-04-30,一般社団法人エナジーオブヴィクトリー,,その他の設立登記法人,兵庫県,神戸市東灘区,深江北町３丁目９番１１号,,28,101,6580013,,,2025-04-30,清算の結了等,,,2016-05-10,1,,,,,エナジーオブヴィクトリー,0
1718,6170002000827,登記記録の閉鎖等,0,2025-05-12,2025-05-07,有限会社オフイスほづみ,,有限会社,和歌山県,和歌山市,湊５８３番地,,30,201,6408404,,,2025-05-07,清算の結了等,,,2015-10-05,1,,,,,オフィスホズミ,0
1734,6180002090867,登記記録の閉鎖等,0,2025-05-12,2025-05-01,有限会社サムグリーン,,有限会社,愛知県,弥富市,平島町喜右味名３１番地４,,23,235,4980025,,,2025-05-01,清算の結了等,,,2015-10-05,1,,,,,サムグリーン,0
1735,6180003010989,登記記録の閉鎖等,0,2025-05-12,2025-04-30,合名会社横井秋製陶所,,合名会社,愛知県,瀬戸市,東拝戸町４８番地,,23,204,4890027,,,2025-04-30,清算の結了等,,,2015-10-05,1,,,,,ヨコイアキセイトウショ,0
1744,6180302009030,登記記録の閉鎖等,0,2025-05-12,2025-05-01,有限会社ニエダ,,有限会社,愛知県,豊橋市,井原町４８番地の２,,23,201,4400025,,,2025-05-01,清算の結了等,,,2015-10-05,1,,,,,ニエダ,0
1749,6190002005733,登記記録の閉鎖等,0,2025-05-12,2025-05-01,有限会社くろだ薬局,,有限会社,三重県,尾鷲市,上野町７５３番地３５,,24,209,5193653,,,2025-05-01,清算の結了等,,,2015-10-05,1,,,,,クロダヤッキョク,0
1766,6260001019140,登記記録の閉鎖等,0,2025-05-12,2025-04-24,金附鉱業株式会社,,株式会社,岡山県,新見市,正田１８２の１０番地,,33,210,7180013,,,2025-04-24,清算の結了等,,,2015-10-05,1,,,,,カナツキコウギョウ,0
1792,6320001018573,登記記録の閉鎖等,0,2025-05-12,2025-04-30,株式会社グッドアール,,株式会社,大分県,大分市,府内町３丁目８番１１号,,44,201,8700021,,,2025-04-30,清算の結了等,,,2021-09-07,1,,,,,グッドアール,0
1813,6370002008172,登記記録の閉鎖等,0,2025-05-12,2025-04-23,有限会社東岡園,,有限会社,宮城県,仙台市宮城野区,宮城野３丁目１番１１号,,04,102,9830045,,,2025-04-23,清算の結了等,,,2015-10-05,1,,,,,トウコウエン,0
1819,6380001017058,登記記録の閉鎖等,0,2025-05-12,2025-04-30,株式会社ティアラ,,株式会社,福島県,郡山市,富田東３丁目２１３番地,,07,203,9638047,,,2025-04-30,清算の結了等,,,2015-10-05,1,,,,,ティアラ,0
1826,6400001013426,登記記録の閉鎖等,0,2025-05-12,2025-04-21,株式会社サンケン興業,,株式会社,岩手県,一関市,東山町長坂字柴宿７番地１０４,,03,209,0290302,,,2025-04-21,清算の結了等,,,2016-10-28,1,,,,,サンケンコウギョウ,0
1827,6410001005166,登記記録の閉鎖等,0,2025-05-12,2025-05-08,株式会社栄田,,株式会社,秋田県,にかほ市,象潟町小滝字麻針堰１４番地,,05,214,0180153,,,2025-05-08,清算の結了等,,,2015-10-05,1,,,,,サカエダ,0
1837,6430002041687,登記記録の閉鎖等,0,2025-05-12,2025-05-01,有限会社ナツミ,,有限会社,北海道,札幌市白石区,南郷通２丁目北２番１－８０６号,,01,104,0030023,,,2025-05-01,清算の結了等,,,2015-10-05,1,,,,,ナツミ,0
1840,6430003015624,登記記録の閉鎖等,0,2025-05-12,2025-04-24,合同会社ももたろ,,合同会社,北海道,札幌市北区,北三十二条西１０丁目１番１０－２０１号,,01,102,0010032,,,2025-04-24,清算の結了等,,,2023-11-22,1,,,,,モモタロ,0
1859,7010003029616,登記記録の閉鎖等,0,2025-05-12,2025-04-16,ＯｆｆｉｃｅＧｒａｃｅ合同会社,,合同会社,東京都,千代田区,神田佐久間河岸５５号地,,13,101,1010026,,,2025-04-16,清算の結了等,,,2019-04-05,1,,,,,オフィスグレース,0
1877,7010501035850,登記記録の閉鎖等,0,2025-05-12,2025-04-16,Ｓｈｉｎｗａ　Ｍａｒｋｅｔ株式会社,,株式会社,東京都,中央区,銀座７丁目４番１２号,,13,102,1040061,,,2025-04-16,清算の結了等,,,2015-10-05,1,,,,,シンワマーケット,0
1884,7010603007616,登記記録の閉鎖等,0,2025-05-12,2025-05-07,合同会社ｂｒｉｄｇｅ,,合同会社,東京都,江東区,有明１丁目４番１１号,,13,108,1350063,,,2025-05-07,合併による解散等,2010703003057,令和７年４月３日東京都渋谷区神宮前六丁目２３番４号桑野ビル２階合同会社Ｆｉｒｓｔ　Ｓｔｅｐ（2010703003057）に合併し解散,2019-01-07,1,,,,,ブリッジ,0
1892,7011001038864,登記記録の閉鎖等,0,2025-05-12,2025-04-07,カシオエステート株式会社,,株式会社,東京都,渋谷区,本町１丁目６番２号,,13,113,1510071,,,2025-04-07,合併による解散等,4011001030015,令和７年４月１日東京都渋谷区本町一丁目６番２号カシオ計算機株式会社（4011001030015）に合併し解散,2015-10-05,1,,,,,カシオエステート,0
1908,7011103013006,登記記録の閉鎖等,0,2025-05-12,2025-04-14,Ｓｕｎｒｉｓｅ合同会社,,合同会社,東京都,新宿区,榎町３４－３榎町ビル７階－１６室,,13,104,1620806,,,2025-04-14,清算の結了等,,,2023-05-09,1,,,,,サンライズ,0
1909,7011103013105,登記記録の閉鎖等,0,2025-05-12,2025-04-14,石田合同会社,,合同会社,東京都,新宿区,上落合３丁目１５－１６－３０１,,13,104,1610034,,,2025-04-14,清算の結了等,,,2023-06-02,1,,,,,イシダ,0
1949,7021005001272,登記記録の閉鎖等,0,2025-05-12,2025-04-25,医療法人社団海琉会,,その他の設立登記法人,神奈川県,藤沢市,亀井野２丁目１番１１号２Ｆ,,14,205,2520813,,,2025-04-25,清算の結了等,,,2015-10-05,1,,,,,カイリュウカイ,0
1958,7040001016497,登記記録の閉鎖等,0,2025-05-12,2025-04-21,日本幸栄産業株式会社,,株式会社,千葉県,習志野市,津田沼５丁目１１番１３号,,12,216,2750016,,,2025-04-21,清算の結了等,,,2015-10-05,1,,,,,ニホンコウエイサンギョウ,0
1961,7040002046345,登記記録の閉鎖等,0,2025-05-12,2025-04-17,新松戸流山インターネット有限会社,,有限会社,千葉県,松戸市,新松戸７丁目２２１番地サンライトパストラル五番街Ｄ－１４０５,,12,207,2700034,,,2025-04-17,清算の結了等,,,2015-10-05,1,,,,,シンマツドナガレヤマインターネット,0
1983,7090003000370,登記記録の閉鎖等,0,2025-05-12,2025-04-25,合同会社コンフォート,,合同会社,山梨県,甲府市,国母３丁目４番２５号Ｃ棟,,19,201,4000043,,,2025-04-25,清算の結了等,,,2015-10-05,1,,,,,,0
1991,7120001133978,登記記録の閉鎖等,0,2025-05-12,2025-05-07,株式会社インフォコム西日本,,株式会社,大阪府,大阪市中央区,久太郎町１丁目６番２９号,,27,128,5410056,,,2025-05-07,合併による解散等,1010501028249,令和７年４月１日東京都台東区池之端一丁目２番１８号インフォコムテクノロジーズ株式会社（1010501028249）に合併し解散,2015-10-05,1,,,,,インフォコムニシニホン,0
1992,7120001146220,登記記録の閉鎖等,0,2025-05-12,2025-04-18,和建築工務株式会社,,株式会社,大阪府,大阪市都島区,都島中通３丁目４－１３,,27,102,5340022,,,2025-04-18,清算の結了等,,,2015-10-05,1,,,,,カズケンチクコウム,0
2062,7200003001101,登記記録の閉鎖等,0,2025-05-12,2025-05-07,合資会社寿熔接工業所,,合資会社,岐阜県,各務原市,テクノプラザ３丁目６番地,,21,213,5090109,,,2025-05-07,清算の結了等,,,2015-10-05,1,,,,,コトブキヨウセツコウギョウショ,0
2063,7220001009458,登記記録の閉鎖等,0,2025-05-12,2025-05-07,株式会社宮崎自動車サービス,,株式会社,石川県,白山市,八田中町１１０４番地１,,17,210,9240002,,,2025-05-07,清算の結了等,,,2015-10-05,1,,,,,ミヤザキジドウシャサービス,0
2071,7240001036698,登記記録の閉鎖等,0,2025-05-12,2025-05-02,石信砂利株式会社,,株式会社,広島県,安芸郡海田町,栄町２番１０号,,34,304,7360043,,,2025-05-02,合併による解散等,8240001045376,令和７年４月３０日広島市安芸区矢野東五丁目１６番２７号株式会社石信フィナンシャルグループ（8240001045376）に合併し解散,2015-10-05,1,,,,,セキシンジャリ,0
2084,7290002030687,登記記録の閉鎖等,0,2025-05-12,2025-04-25,有限会社大紘物産,,有限会社,福岡県,福岡市東区,筥松新町４番２０－７０６号,,40,131,8120067,,,2025-04-25,清算の結了等,,,2015-10-05,1,,,,,ダイコウブッサン,0
2110,7370002012396,登記記録の閉鎖等,0,2025-05-12,2025-04-21,有限会社ティ・エム・プランニング,,有限会社,宮城県,仙台市青葉区,国見ケ丘２丁目２８番地の６,,04,101,9893201,,,2025-04-21,清算の結了等,,,2015-10-05,1,,,,,ティエムプランニング,0
2111,7370102000169,登記記録の閉鎖等,0,2025-05-12,2025-04-23,有限会社菊地商事,,有限会社,宮城県,柴田郡柴田町,西船迫４丁目５番地１０５,,04,323,9891622,,,2025-04-23,清算の結了等,,,2015-10-05,1,,,,,キクチショウジ,0
2112,7380001000954,登記記録の閉鎖等,0,2025-05-12,2025-05-01,株式会社東北寝装開発センター,,株式会社,福島県,福島市,笹木野字大金谷南３番地の１,,07,201,9608057,,,2025-05-01,清算の結了等,,,2015-10-05,1,,,,,トウホクシンソウカイハツセンター,0
2114,7380002004285,登記記録の閉鎖等,0,2025-05-12,2025-05-01,有限会社神野建築店,,有限会社,福島県,福島市,笹木野字鎌古屋４１番地の２,,07,201,9608057,,,2025-05-01,清算の結了等,,,2015-10-05,1,,,,,ジンノケンチクテン,0
2139,8010001059523,登記記録の閉鎖等,0,2025-05-12,2025-04-15,株式会社ヤマガタ,,株式会社,東京都,中央区,築地４丁目３番１２号秀和第二築地レジデンス２０１号室,,13,102,1040045,,,2025-04-15,清算の結了等,,,2015-10-05,1,,,,,ヤマガタ,0
2144,8010001235512,登記記録の閉鎖等,0,2025-05-12,2025-04-17,株式会社ＢＲパートナーズ,,株式会社,東京都,千代田区,富士見１丁目３－１１富士見デュープレックスＢ’ｓ４Ｆ,,13,101,1020071,,,2025-04-17,清算の結了等,,,2023-05-22,1,,,,,ビーアールパートナーズ,0
2151,8010003037064,登記記録の閉鎖等,0,2025-05-12,2025-04-16,六本木リアルティ・ツー合同会社,,合同会社,東京都,中央区,日本橋１丁目４番１号,,13,102,1030027,,,2025-04-16,清算の結了等,,,2022-02-24,1,,,,,ロッポンギリアルティツー,0
2153,8010005013682,登記記録の閉鎖等,0,2025-05-12,2025-04-22,特定非営利活動法人幼い難民を考える会,,その他の設立登記法人,東京都,台東区,台東１丁目１２番１１号青木ビル３階Ｂ室,,13,106,1100016,,,2025-04-22,清算の結了等,,,2015-10-05,1,,,,,オサナイナンミンヲカンガエルカイ,0
2210,8020001146725,登記記録の閉鎖等,0,2025-05-12,2025-04-21,株式会社Ｐａｌｅｔｔｅ,,株式会社,神奈川県,川崎市宮前区,神木本町４丁目１１番４号,,14,136,2160031,,,2025-04-21,清算の結了等,,,2022-06-02,1,,,,,パレット,0
2236,8030002056955,登記記録の閉鎖等,0,2025-05-12,2025-05-08,有限会社大朋,,有限会社,埼玉県,桶川市,東２丁目９番７号,,11,231,3630013,,,2025-05-08,清算の結了等,,,2015-10-05,1,,,,,オオトモ,0
2256,8050002013896,登記記録の閉鎖等,0,2025-05-12,2025-05-01,有限会社和晃,,有限会社,茨城県,土浦市,若松町５番２８号,,08,203,3000063,,,2025-05-01,清算の結了等,,,2015-10-05,1,,,,,ワコウ,0
2266,8070002020949,登記記録の閉鎖等,0,2025-05-12,2025-05-07,有限会社マルセイ薬品,,有限会社,群馬県,佐波郡玉村町,大字板井８２４番地の５,,10,464,3701135,,,2025-05-07,清算の結了等,,,2015-10-05,1,,,,,マルセイヤクヒン,0
2267,8080002003036,登記記録の閉鎖等,0,2025-05-12,2025-05-02,有限会社スリーエス事務所,,有限会社,静岡県,静岡市駿河区,小鹿１丁目４４番１５号,,22,102,4228021,,,2025-05-02,清算の結了等,,,2015-10-05,1,,,,,スリーエスジムショ,0
2273,8100002019450,登記記録の閉鎖等,0,2025-05-12,2025-05-02,有限会社扇屋薬局,,有限会社,長野県,松本市,中央１丁目１番４号,,20,202,3900811,,,2025-05-02,清算の結了等,,,2015-10-05,1,,,,,オオギヤヤッキョク,0
2317,8120003020166,登記記録の閉鎖等,0,2025-05-12,2025-04-22,合同会社エルプロジェクト,,合同会社,大阪府,大阪市北区,梅田１丁目２番２号大阪駅前第２ビル２階５－６号室,,27,127,5300001,,,2025-04-22,清算の結了等,,,2021-09-07,1,,,,,エルプロジェクト,0
2321,8120101001720,登記記録の閉鎖等,0,2025-05-12,2025-05-08,近畿鋼業株式会社,,株式会社,大阪府,八尾市,老原９丁目１２６番地,,27,212,5810092,,,2025-05-08,清算の結了等,,,2015-10-05,1,,,,,キンキコウギョウ,0
2324,8120102000614,登記記録の閉鎖等,0,2025-05-12,2025-05-01,有限会社上田工業所,,有限会社,大阪府,堺市堺区,熊野町東３丁２番１８号,,27,141,5900946,,,2025-05-01,合併による解散等,2120101004943,令和７年５月１日大阪府堺市堺区熊野町東三丁２番１８号株式会社ウエダ（2120101004943）に合併し解散,2015-10-05,1,,,,,ウエダコウギョウショ,0
2358,8180001118816,登記記録の閉鎖等,0,2025-05-12,2025-05-01,株式会社匠,,株式会社,愛知県,名古屋市千種区,大島町４丁目１番地,,23,101,4640833,,,2025-05-01,清算の結了等,,,2015-10-05,1,,,,,タクミ,0
2386,8240002007532,登記記録の閉鎖等,0,2025-05-12,2025-05-07,有限会社新制企画,,有限会社,広島県,広島市中区,昭和町６番２４－１０１号,,34,101,7300046,,,2025-05-07,清算の結了等,,,2015-10-05,1,,,,,シンセイキカク,0
2391,8260001028874,登記記録の閉鎖等,0,2025-05-12,2025-04-24,株式会社Ａｓｓｅｍｂｌｙ,,株式会社,岡山県,岡山市北区,富田町２丁目９番１号２Ｆ,,33,101,7000816,,,2025-04-24,清算の結了等,,,2015-10-09,1,,,,,アッセンブリー,0
2407,8290002033656,登記記録の閉鎖等,0,2025-05-12,2025-04-24,有限会社香椎自動車,,有限会社,福岡県,古賀市,青柳７６７番地,,40,223,8113134,,,2025-04-24,清算の結了等,,,2015-10-05,1,,,,,カシイジドウシャ,0
2416,8300005005213,登記記録の閉鎖等,0,2025-05-12,2025-05-07,医療法人河野整形外科医院,,その他の設立登記法人,佐賀県,唐津市,二タ子３丁目１４番８号,,41,202,8470861,,,2025-05-07,清算の結了等,,,2015-10-05,1,,,,,コウノセイケイゲカイイン,0
2420,8320001009579,登記記録の閉鎖等,0,2025-05-12,2025-05-07,亀屋興産株式会社,,株式会社,大分県,豊後大野市,三重町市場５０７番地,,44,212,8797131,,,2025-05-07,清算の結了等,,,2015-10-05,1,,,,,,0
2439,8370002019481,登記記録の閉鎖等,0,2025-05-12,2025-04-24,エーゼット輸送有限会社,,有限会社,宮城県,仙台市宮城野区,鶴巻１丁目４番１２号,,04,102,9830024,,,2025-04-24,清算の結了等,,,2015-10-05,1,,,,,エーゼットユソウ,0
2464,9010001062526,登記記録の閉鎖等,0,2025-05-12,2025-04-16,ＵＩＮ株式会社,,株式会社,東京都,千代田区,丸の内３丁目４番１号,,13,101,1000005,,,2025-04-16,清算の結了等,,,2015-10-05,1,,,,,ユーアイエヌ,0
2491,9010901009683,登記記録の閉鎖等,0,2025-05-12,2025-05-02,ハセケン建設株式会社,,株式会社,東京都,世田谷区,野沢２丁目１番６号,,13,112,1540003,,,2025-05-02,清算の結了等,,,2015-10-05,1,,,,,ハセケンケンセツ,0
2493,9010901051917,登記記録の閉鎖等,0,2025-05-12,2025-04-07,株式会社ＭＡＤＹ,,株式会社,東京都,港区,赤坂２丁目５番８号ヒューリックＪＰ赤坂ビルＳＰＡＣＥＳ赤坂３Ｆ,,13,103,1070052,,,2025-04-07,清算の結了等,,,2022-11-08,1,,,,,マディー,0
2504,9011101064437,登記記録の閉鎖等,0,2025-05-12,2025-04-14,株式会社Ａ＆Ｐ,,株式会社,東京都,新宿区,北新宿４丁目２８番８号ＮＢＭビル４階,,13,104,1690074,,,2025-04-14,清算の結了等,,,2015-10-05,1,,,,,エーアンドピー,0
2524,9013301045885,登記記録の閉鎖等,0,2025-05-12,2025-04-18,株式会社エン・サポート,,株式会社,東京都,豊島区,南池袋４丁目１９番６号日の出ビル３０２,,13,116,1710022,,,2025-04-18,清算の結了等,,,2020-07-08,1,,,,,エンサポート,0
2533,9020002074412,登記記録の閉鎖等,0,2025-05-12,2025-05-01,有限会社伊藤電気大和工場,,有限会社,神奈川県,横浜市泉区,中田北３丁目３３番３７号,,14,116,2450012,,,2025-05-01,清算の結了等,,,2015-10-05,1,,,,,イトウデンキヤマトコウジョウ,0
2565,9040001001555,登記記録の閉鎖等,0,2025-05-12,2025-04-15,株式会社川口建築設計事務所,,株式会社,千葉県,市原市,ちはら台西２丁目６番地１,,12,219,2900143,,,2025-04-15,清算の結了等,,,2015-10-05,1,,,,,カワグチケンチクセッケイジムショ,0
2573,9040002037937,登記記録の閉鎖等,0,2025-05-12,2025-04-21,有限会社さつまメディカル・サービス,,有限会社,千葉県,鎌ケ谷市,中佐津間２丁目１８６番１３,,12,224,2730135,,,2025-04-21,清算の結了等,,,2015-10-05,1,,,,,サツマメディカルサービス,0
2585,9070002027398,登記記録の閉鎖等,0,2025-05-12,2025-05-01,有限会社マルミマシナリ,,有限会社,群馬県,高崎市,金古町１７１６番地,,10,202,3703511,,,2025-05-01,合併による解散等,6070001009458,令和７年５月１日群馬県高崎市金古町１７１６番地株式会社清水インダストリー（6070001009458）に合併し解散,2015-10-05,1,,,,,マルミマシナリ,0
2587,9080101004693,登記記録の閉鎖等,0,2025-05-12,2025-05-01,天城建設株式会社,,株式会社,静岡県,伊豆市,土肥７０２番地の１,,22,222,4103302,,,2025-05-01,清算の結了等,,,2015-10-05,1,,,,,アマギケンセツ,0
2599,9120001022989,登記記録の閉鎖等,0,2025-05-12,2025-05-02,関西ハウズイング株式会社,00027802,株式会社,大阪府,堺市北区,百舌鳥赤畑町２丁４７番２０１号,,27,146,5918037,,,2025-05-02,清算の結了等,,,2015-10-05,1,,,,,カンサイハウズイング,0
2603,9120001100299,登記記録の閉鎖等,0,2025-05-12,2025-05-01,株式会社エイト・コーポレーション,,株式会社,大阪府,大阪市中央区,南船場１丁目１２番１３号,,27,128,5420081,,,2025-05-01,合併による解散等,4120001089174,令和７年５月１日大阪市中央区南船場一丁目１２番１３号株式会社ベルハウス（4120001089174）に合併し解散,2015-10-05,1,,,,,エイトコーポレーション,0
2606,9120001145559,登記記録の閉鎖等,0,2025-05-12,2025-04-18,株式会社アクア,,株式会社,大阪府,大阪市中央区,本町橋２－１５,,27,128,5400029,,,2025-04-18,清算の結了等,,,2015-10-05,1,,,,,,0
2629,9120002048967,登記記録の閉鎖等,0,2025-05-12,2025-04-18,有限会社プロデュース,,有限会社,大阪府,大阪市北区,豊崎３丁目９番７号ＩＺＵＭＩビル５階,,27,127,5310072,,,2025-04-18,清算の結了等,,,2015-10-05,1,,,,,プロデュース,0
2647,9122001023224,登記記録の閉鎖等,0,2025-05-12,2025-05-07,株式会社ファースト,,株式会社,大阪府,八尾市,沼４丁目８７－１,,27,212,5810036,,,2025-05-07,清算の結了等,,,2015-10-05,1,,,,,ファースト,0
2648,9122002002920,登記記録の閉鎖等,0,2025-05-12,2025-05-07,有限会社大光金属,,有限会社,大阪府,東大阪市,花園東町２丁目６番８号,,27,227,5780931,,,2025-05-07,清算の結了等,,,2015-10-05,1,,,,,,0
2661,9160003001608,登記記録の閉鎖等,0,2025-05-12,2025-05-07,合同会社ななや,,合同会社,滋賀県,大津市,雄琴１丁目４番２７号,,25,201,5200101,,,2025-05-07,清算の結了等,,,2018-01-12,1,,,,,ナナヤ,0
2692,9240001039146,登記記録の閉鎖等,0,2025-05-12,2025-05-07,大徳商事株式会社,,株式会社,広島県,尾道市,桜町８番１６号,,34,205,7220011,,,2025-05-07,清算の結了等,,,2015-10-05,1,,,,,ダイトクショウジ,0
2699,9260001018949,登記記録の閉鎖等,0,2025-05-12,2025-04-25,丸仁安藤商事株式会社,,株式会社,岡山県,高梁市,南町１６７番地の３,,33,209,7160033,,,2025-04-25,清算の結了等,,,2015-10-05,1,,,,,マルニアンドウショウジ,0
2709,9290001094970,登記記録の閉鎖等,0,2025-05-12,2025-04-25,名田植物園株式会社,,株式会社,福岡県,筑紫野市,大字阿志岐１１０８番地３,,40,217,8180011,,,2025-04-25,清算の結了等,,,2021-10-13,1,,,,,ナタショクブツエン,0
2718,9290002054866,登記記録の閉鎖等,0,2025-05-12,2025-04-28,有限会社荒木一級建築士事務所,,有限会社,福岡県,大牟田市,有明町１丁目４番地の４,,40,202,8360842,,,2025-04-28,清算の結了等,,,2015-10-05,1,,,,,アラキイッキュウケンチクシジムショ,0
2722,9310003003695,登記記録の閉鎖等,0,2025-05-12,2025-05-09,合同会社ＮＳプラン,,合同会社,長崎県,五島市,玉之浦町中須５６２－３,,42,211,8530505,,,2025-05-09,清算の結了等,,,2019-07-12,1,,,,,エヌエスプラン,0
2743,9370001001522,登記記録の閉鎖等,0,2025-05-12,2025-04-24,株式会社伊澤工業,,株式会社,宮城県,仙台市太白区,中田町字杉ノ下１番地の２４,,04,104,9811103,,,2025-04-24,清算の結了等,,,2015-10-05,1,,,,,イサワコウギョウ,0
2748,9370801001523,登記記録の閉鎖等,0,2025-05-12,2025-04-23,ケイズ・ネックス株式会社,,株式会社,宮城県,名取市,高舘熊野堂字五反田４８番地の１,,04,207,9811241,,,2025-04-23,清算の結了等,,,2015-10-05,1,,,,,,0
2752,9400001007771,登記記録の閉鎖等,0,2025-05-12,2025-04-21,二戸ロイヤルパレス株式会社,,株式会社,岩手県,二戸市,福岡字長嶺３５番地,,03,213,0286101,,,2025-04-21,清算の結了等,,,2015-10-05,1,,,,,ニノヘロイヤルパレス,0
2772,9450002012832,登記記録の閉鎖等,0,2025-05-12,2025-05-02,有限会社モンレェーブ,,有限会社,北海道,紋別市,幸町６丁目２番２０号,,01,219,0940005,,,2025-05-02,清算の結了等,,,2015-10-05,1,,,,,モンレェーブ,0
2777,9480001009637,登記記録の閉鎖等,0,2025-05-12,2025-05-02,株式会社マイウェイ,,株式会社,徳島県,徳島市,中吉野町１丁目７９番地１,,36,201,7700804,,,2025-05-02,清算の結了等,,,2016-04-27,1,,,,,マイウェイ,0
2778,9480002002392,登記記録の閉鎖等,0,2025-05-12,2025-05-02,有限会社島村食堂,,有限会社,徳島県,徳島市,八万町大坪２４８番地の４４,,36,201,7708079,,,2025-05-02,清算の結了等,,,2015-10-05,1,,,,,シマムラショクドウ,0
