sequenceNumber,corporateNumber,process,correct,updateDate,changeDate,name,nameImageId,kind,prefectureName,cityName,streetNumber,addressImageId,prefectureCode,cityCode,postCode,addressOutside,addressOutsideImageId,closeDate,closeCause,successorCorporateNumber,changeCause,assignmentDate,latest,enName,enPrefectureName,enCityName,enAddressOutside,furigana,hihyoji
8,1010001236723,新規,0,2023-07-07,2023-07-07,株式会社ｄｏ　ｇｅｎｉｃ,,株式会社,東京都,中央区,京橋２丁目７番８号ＦＰＧｌｉｎｋｓＫＹＯＢＡＳＨＩ４階,,13,102,1040031,,,,,,,2023-07-07,1,,,,,ドゥージェニック,0
9,1010001236748,新規,0,2023-07-07,2023-07-07,株式会社ＭＩＲＡＣＬＥ,,株式会社,東京都,中央区,銀座１丁目２２番１１号銀座大竹ビジデンス２Ｆ,,13,102,1040061,,,,,,,2023-07-07,1,,,,,ミラクル,0
12,1010005036905,新規,0,2023-07-07,2023-07-07,一般社団法人共立グループ共済会,,その他の設立登記法人,東京都,千代田区,九段南１丁目６番５号,,13,101,1020074,,,,,,,2023-07-07,1,,,,,キョウリツグループキョウサイカイ,0
18,1010401175488,新規,0,2023-07-07,2023-07-07,株式会社ＣＴＫアセットマネジメント,,株式会社,東京都,港区,六本木１丁目９番１８－１４０１号,,13,103,1060032,,,,,,,2023-07-07,1,,,,,シーティーケイアセットマネジメント,0
20,1010403030427,新規,0,2023-07-07,2023-07-07,ＢｒｏｏｋＧａｒｔｈ合同会社,,合同会社,東京都,港区,港南２丁目１６番１号品川イーストワンタワー４階,,13,103,1080075,,,,,,,2023-07-07,1,,,,,ブルックガース,0
21,1010403030443,新規,0,2023-07-07,2023-07-07,ＴＸ３号合同会社,,合同会社,東京都,港区,浜松町２丁目２番１５号浜松町ダイヤビル２Ｆ,,13,103,1050013,,,,,,,2023-07-07,1,,,,,ティーエックスサンゴウ,0
23,1010501050731,新規,0,2023-07-07,2023-07-07,株式会社ＯＧＲＥ,,株式会社,東京都,台東区,浅草橋５丁目８－５ＡＳＴＩＬＥ秋葉原５０２,,13,106,1110053,,,,,,,2023-07-07,1,,,,,オーガ,0
24,1010601063377,新規,0,2023-07-07,2023-07-07,株式会社ドライブマイカー,,株式会社,東京都,墨田区,両国３丁目２３番１０号,,13,107,1300026,,,,,,,2023-07-07,1,,,,,ドライブマイカー,0
25,1010601063393,新規,0,2023-07-07,2023-07-07,ＳＩＧＮＡ株式会社,,株式会社,東京都,江東区,豊洲５丁目６番２９－１９１１号,,13,108,1350061,,,,,,,2023-07-07,1,,,,,シグナ,0
36,1010903008303,新規,0,2023-07-07,2023-07-07,合同会社メディカルトラフィック,,合同会社,東京都,世田谷区,太子堂１丁目１２番２７コンフォートテラス１００５,,13,112,1540004,,,,,,,2023-07-07,1,,,,,メディカルトラフィック,0
40,1011001155450,新規,0,2023-07-07,2023-07-07,ＪＩＮＥＮ株式会社,,株式会社,東京都,渋谷区,上原１丁目３－９,,13,113,1510064,,,,,,,2023-07-07,1,,,,,ジネン,0
41,1011001155491,新規,0,2023-07-07,2023-07-07,株式会社ｔｅｍａｒｉｓ,,株式会社,東京都,渋谷区,道玄坂１丁目１０番８号渋谷道玄坂東急ビル２階Ｃ,,13,113,1500043,,,,,,,2023-07-07,1,,,,,テマリス,0
45,1011101103490,新規,0,2023-07-07,2023-07-07,株式会社ＢｅａｒＢｅｅ,,株式会社,東京都,新宿区,下落合２丁目２２番２４号ザ・サンメゾン目白近衛町エルド１０４,,13,104,1610033,,,,,,,2023-07-07,1,,,,,ベアービー,0
46,1011101103499,新規,0,2023-07-07,2023-07-07,Ｃｏｒｐｏｒａｔｅ　Ｓｅｃｒｅｔａｒｉａｌ　Ｓｅｒｖｉｃｅｓ株式会社,,株式会社,東京都,新宿区,西新宿１丁目２０番３号,,13,104,1600023,,,,,,,2023-07-07,1,,,,,コーポレートセクレタリアルサービシズ,0
47,1011101103516,新規,0,2023-07-07,2023-07-07,株式会社ランドリーアクト,,株式会社,東京都,新宿区,神楽坂３丁目４番地神楽坂山本ビル６階,,13,104,1620825,,,,,,,2023-07-07,1,,,,,ランドリーアクト,0
48,1011101103524,新規,0,2023-07-07,2023-07-07,サザンセレクト株式会社,,株式会社,東京都,新宿区,西新宿３丁目３番１３号西新宿水間ビル６階,,13,104,1600023,,,,,,,2023-07-07,1,,,,,サザンセレクト,0
49,1011103013226,新規,0,2023-07-07,2023-07-07,Ｅｌｅｇａｎｚａ　Ｍｏｄｅ合同会社,,合同会社,東京都,新宿区,高田馬場３丁目１４番２号佐成屋ビル３階,,13,104,1690075,,,,,,,2023-07-07,1,,,,,エレガンスモード,0
50,1011105010709,新規,0,2023-07-07,2023-07-07,一般社団法人応用行動科学研究所,,その他の設立登記法人,東京都,新宿区,早稲田鶴巻町５６７番地細田ビル３Ｆ,,13,104,1620041,,,,,,,2023-07-07,1,,,,,,0
53,1011303004818,新規,0,2023-07-07,2023-07-07,合同会社和顔愛語,,合同会社,東京都,杉並区,阿佐谷北５丁目１３番１０号,,13,115,1660001,,,,,,,2023-07-07,1,,,,,ワゲンアイゴ,0
63,1011801042666,新規,0,2023-07-07,2023-07-07,株式会社イトウケンチク,,株式会社,東京都,足立区,柳原１丁目２０番１９号,,13,121,1200022,,,,,,,2023-07-07,1,,,,,イトウケンチク,0
64,1011801042674,新規,0,2023-07-07,2023-07-07,ＮＮＮ株式会社,,株式会社,東京都,足立区,扇２丁目７番９－１０５号アリーズメドウ,,13,121,1230873,,,,,,,2023-07-07,1,,,,,トリプルエヌ,0
65,1012303001846,新規,0,2023-07-07,2023-07-07,合同会社グッドギアジャパン,,合同会社,東京都,町田市,成瀬が丘３丁目２０番地２０,,13,209,1940011,,,,,,,2023-07-07,1,,,,,グッドギアジャパン,0
69,1013101009206,新規,0,2023-07-07,2023-07-07,株式会社タツミプルーフ,,株式会社,東京都,西多摩郡瑞穂町,南平２丁目３１番地１０,,13,303,1901224,,,,,,,2023-07-07,1,,,,,タツミプルーフ,0
75,1013301051008,新規,0,2023-07-07,2023-07-07,株式会社だんだん,,株式会社,東京都,豊島区,西池袋３丁目６番２号ハイライフ五岳２０３号,,13,116,1710021,,,,,,,2023-07-07,1,,,,,ダンダン,0
76,1013301051016,新規,0,2023-07-07,2023-07-07,株式会社ＺＥＮＢ　ＭＡＲＫＥＴＩＮＧ,,株式会社,東京都,豊島区,池袋２丁目４０番１３号,,13,116,1710014,,,,,,,2023-07-07,1,,,,,ゼンブマーケティング,0
77,1013303006694,新規,0,2023-07-07,2023-07-07,Ｒ．Ｊ　ＢＲＯＴＨＥＲＳ合同会社,,合同会社,東京都,豊島区,長崎５丁目７番７号エクセル東長崎３０３,,13,116,1710051,,,,,,,2023-07-07,1,,,,,,0
86,1020001152358,新規,0,2023-07-07,2023-07-07,株式会社ニューウェーブ神奈川,,株式会社,神奈川県,横浜市泉区,新橋町１１４９番地７,,14,116,2450009,,,,,,,2023-07-07,1,,,,,ニューウェーブカナガワ,0
87,1020001152366,新規,0,2023-07-07,2023-07-07,株式会社コンフィーエステート,,株式会社,神奈川県,川崎市宮前区,馬絹４丁目２６番４１－５０６号クオス宮崎台,,14,136,2160035,,,,,,,2023-07-07,1,,,,,コンフィーエステート,0
89,1020003024175,新規,0,2023-07-07,2023-07-07,合同会社Ｆｉｆｔｙ　Ｗｏｒｋｅｒ,,合同会社,神奈川県,横浜市緑区,北八朔町１０９５番地,,14,113,2260021,,,,,,,2023-07-07,1,,,,,フィフティーワーカー,0
91,1021001079467,新規,0,2023-07-07,2023-07-07,株式会社フレキ・オン・デマンド,,株式会社,神奈川県,平塚市,長持２６９番地１１,,14,203,2591217,,,,,,,2023-07-07,1,,,,,フレキオンデマンド,0
92,1021001079500,新規,0,2023-07-07,2023-07-07,ソジョウ・カンパニー株式会社,,株式会社,神奈川県,鎌倉市,大町１丁目９番２２号,,14,204,2480007,,,,,,,2023-07-07,1,,,,,ソジョウカンパニー,0
93,1021001079517,新規,0,2023-07-07,2023-07-07,株式会社ＴＲＩＮＩＴＹ,,株式会社,神奈川県,綾瀬市,小園１２０３番地１サニーコート栗原１０１,,14,218,2521121,,,,,,,2023-07-07,1,,,,,トリニティ,0
109,1040001129098,新規,0,2023-07-07,2023-07-07,株式会社ｇｒｅｅｎ,,株式会社,千葉県,印西市,原１丁目２番地ビッグホップガーデンモール印西１階,,12,231,2701335,,,,,,,2023-07-07,1,,,,,グリーン,0
110,1040001129107,新規,0,2023-07-07,2023-07-07,株式会社ＫＩＮＥ,,株式会社,千葉県,旭市,仁玉１９８８番地１,,12,215,2892525,,,,,,,2023-07-07,1,,,,,キネ,0
111,1040001129123,新規,0,2023-07-07,2023-07-07,株式会社ＹＨＰ,,株式会社,千葉県,千葉市美浜区,打瀬３丁目６番地ミラマール３番館７０３号,,12,106,2610013,,,,,,,2023-07-07,1,,,,,ワイエイチピー,0
112,1040001129131,新規,0,2023-07-07,2023-07-07,北総台地株式会社,,株式会社,千葉県,成田市,玉造２丁目１６番地４,,12,211,2860011,,,,,,,2023-07-07,1,,,,,ホクソウダイチ,0
115,1040003022912,新規,0,2023-07-07,2023-07-07,合同会社光河商会,,合同会社,千葉県,成田市,押畑１６８１,,12,211,2860845,,,,,,,2023-07-07,1,,,,,ミツカワショウカイ,0
117,1050001053124,新規,0,2023-07-07,2023-07-07,株式会社じぶんの,,株式会社,茨城県,水戸市,酒門町２９７６番地の２６,,08,201,3100841,,,,,,,2023-07-07,1,,,,,ジブンノ,0
122,1060003004636,新規,0,2023-07-07,2023-07-07,合同会社ＳＯＲＡ‐ＵＭＩ,,合同会社,栃木県,足利市,江川町３丁目１番地５,,09,202,3260067,,,,,,,2023-07-07,1,,,,,ソラウミ,0
130,1080003003009,新規,0,2023-07-07,2023-07-07,合同会社ソーシャルワークオフィスハヤサカ,,合同会社,静岡県,静岡市駿河区,向敷地５丁目４番１１号,,22,102,4210101,,,,,,,2023-07-07,1,,,,,ソーシャルワークオフィスハヤサカ,0
134,1080103002843,新規,0,2023-07-07,2023-07-07,ミニマックスコンサルティング合同会社,,合同会社,静岡県,富士市,厚原２２２４番地の８,,22,210,4190201,,,,,,,2023-07-07,1,,,,,ミニマックスコンサルティング,0
136,1080401026585,新規,0,2023-07-07,2023-07-07,浜名重建株式会社,,株式会社,静岡県,浜松市浜北区,中条３９８番地の１,,22,136,4340043,,,,,,,2023-07-07,1,,,,,ハマナジュウケン,0
137,1090001018197,新規,0,2023-07-07,2023-07-07,大月のびのびファーム株式会社,,株式会社,山梨県,大月市,笹子町白野８５２番地１,,19,206,4010023,,,,,,,2023-07-07,1,,,,,オオツキノビノビファーム,0
138,1100001036569,新規,0,2023-07-07,2023-07-07,株式会社ｉｎｎｏｖａｔｉｏｎ　Ｈａｎｇｅｒ,,株式会社,長野県,中野市,大字豊津２４０８番地,,20,211,3892101,,,,,,,2023-07-07,1,,,,,イノベーションハンガー,0
140,1100003007097,新規,0,2023-07-07,2023-07-07,合同会社ネイチャーコード,,合同会社,長野県,大町市,平２９０４番地４,,20,212,3980001,,,,,,,2023-07-07,1,,,,,ネイチャーコード,0
143,1110003005109,新規,0,2023-07-07,2023-07-07,ｉｍｐｒｏｖｅｍｅｎｔ合同会社,,合同会社,新潟県,三条市,上保内乙８８８番地２,,15,204,9550022,,,,,,,2023-07-07,1,,,,,インプルーヴメント,0
156,1120001256033,新規,0,2023-07-07,2023-07-07,中昇株式会社,,株式会社,大阪府,大阪市旭区,今市１丁目２－５カルム千林３０６号室,,27,117,5350011,,,,,,,2023-07-07,1,,,,,チュウショウ,0
157,1120001256289,新規,0,2023-07-07,2023-07-07,株式会社ＫＯＲＩＮ’Ｓプレイス,,株式会社,大阪府,大阪市住吉区,万代６丁目１８番１５号,,27,120,5580055,,,,,,,2023-07-07,1,,,,,コリンズプレイス,0
158,1120001256314,新規,0,2023-07-07,2023-07-07,株式会社オクムラリペア,,株式会社,大阪府,大阪市城東区,鴫野西５丁目１２番３１－３０５号,,27,118,5360014,,,,,,,2023-07-07,1,,,,,オクムラリペア,0
159,1120003024413,新規,0,2023-07-07,2023-07-07,ＲｏｉＧｒｏｕｐ合同会社,,合同会社,大阪府,大阪市中央区,南船場４丁目１０－５南船場ＳＯＨＯビル７０２,,27,128,5420081,,,,,,,2023-07-07,1,,,,,ロワグループ,0
167,1120101067842,新規,0,2023-07-07,2023-07-07,株式会社ＦＯＲＴＵＮＡ,,株式会社,大阪府,泉佐野市,大西１丁目１７－４,,27,213,5980043,,,,,,,2023-07-07,1,,,,,フォルトゥナ,0
172,1120103005305,新規,0,2023-07-07,2023-07-07,合同会社焼雲,,合同会社,大阪府,岸和田市,松風町１３番５８号春木ｗｏｒｋｓｐａｃｅ２０１号室,,27,202,5960021,,,,,,,2023-07-07,1,,,,,ショウウン,0
176,1120901047754,新規,0,2023-07-07,2023-07-07,株式会社リアックスインターナショナル,,株式会社,大阪府,箕面市,稲６丁目１３番６号,,27,220,5620015,,,,,,,2023-07-07,1,,,,,リアックスインターナショナル,0
177,1120903004729,新規,0,2023-07-07,2023-07-07,翼合同会社,,合同会社,大阪府,吹田市,清和園町２３番９号,,27,205,5640039,,,,,,,2023-07-07,1,,,,,ツバサ,0
179,1122001037140,新規,0,2023-07-07,2023-07-07,株式会社ＳｂｙＮ,,株式会社,大阪府,東大阪市,今米２丁目４番８号,,27,227,5780903,,,,,,,2023-07-07,1,,,,,エスバイエヌ,0
183,1130001074640,新規,0,2023-07-07,2023-07-07,株式会社ＭＴＩ,,株式会社,京都府,京田辺市,河原食田６番地レインボービル１Ｆ,,26,211,6100361,,,,,,,2023-07-07,1,,,,,エムティアイ,0
184,1130001074657,新規,0,2023-07-07,2023-07-07,株式会社岡本電設,,株式会社,京都府,京都市右京区,西京極浜ノ本町２８番地,,26,108,6150873,,,,,,,2023-07-07,1,,,,,オカモトデンセツ,0
185,1130001074673,新規,0,2023-07-07,2023-07-07,株式会社ＣＯＮＣＥＰＴ　ＷＯＲＫＳ,,株式会社,京都府,京都市伏見区,醍醐古道町１２番地１０,,26,109,6011316,,,,,,,2023-07-07,1,,,,,コンセプトワークス,0
186,1130003008828,新規,0,2023-07-07,2023-07-07,合同会社鴨屋,,合同会社,京都府,京都市東山区,大和大路通七条下る三丁目上池田町５４６番地１,,26,105,6050000,,,,,,,2023-07-07,1,,,,,カモヤ,0
187,1130005016820,新規,0,2023-07-07,2023-07-07,医療法人大原クリニック,,その他の設立登記法人,京都府,城陽市,寺田今堀１５２番地３８,,26,207,6100121,,,,,,,2023-07-07,1,,,,,オオハラクリニック,0
190,1140003019279,新規,0,2023-07-07,2023-07-07,合同会社橋本地所,,合同会社,兵庫県,加古川市,尾上町安田８０１番地,,28,210,6750021,,,,,,,2023-07-07,1,,,,,ハシモトチショ,0
191,1140003019287,新規,0,2023-07-07,2023-07-07,合同会社ノマ,,合同会社,兵庫県,神戸市中央区,浪花町５６ＫＩＰ内,,28,110,6500035,,,,,,,2023-07-07,1,,,,,ノマ,0
193,1160001025153,新規,0,2023-07-07,2023-07-07,トップ農機株式会社,,株式会社,滋賀県,野洲市,吉川２７４６番地２,,25,210,5240201,,,,,,,2023-07-07,1,,,,,トップノウキ,0
204,1180001156995,新規,0,2023-07-07,2023-07-07,株式会社ＮＹ,,株式会社,愛知県,名古屋市守山区,向台２丁目８０３番地,,23,113,4630036,,,,,,,2023-07-07,1,,,,,エヌワイ,0
206,1180003025447,新規,0,2023-07-07,2023-07-07,サミティ合同会社,,合同会社,愛知県,一宮市,宮地１丁目８番２２号,,23,203,4910915,,,,,,,2023-07-07,1,,,,,サミティ,0
210,1190005011840,新規,0,2023-07-07,2023-07-07,医療法人ＴＭＤ,,その他の設立登記法人,三重県,鈴鹿市,地子町８１４番地の３３,,24,207,5130821,,,,,,,2023-07-07,1,,,,,ティエムディ,0
212,1200001041468,新規,0,2023-07-07,2023-07-07,株式会社Ｄ‐Ｔｉｅｃｏ,,株式会社,岐阜県,岐阜市,吉野町６丁目１４番地,,21,201,5008844,,,,,,,2023-07-07,1,,,,,ディーティエコ,0
213,1200001041476,新規,0,2023-07-07,2023-07-07,株式会社新康プレス工業所,,株式会社,岐阜県,関市,東志摩７５１番地,,21,205,5013218,,,,,,,2023-07-07,1,,,,,シンコウプレスコウギョウショ,0
219,1240001061776,新規,0,2023-07-07,2023-07-07,翔和商事株式会社,,株式会社,広島県,東広島市,八本松町米満１０２０６番地１８２,,34,212,7390133,,,,,,,2023-07-07,1,,,,,ショウワショウジ,0
220,1260001038104,新規,0,2023-07-07,2023-07-07,Ｓｋｙ　Ｂｌｕｅ株式会社,,株式会社,岡山県,岡山市南区,福成１丁目１７６番地５Ａ２０１,,33,104,7028022,,,,,,,2023-07-07,1,,,,,スカイブルー,0
223,1290001102204,新規,0,2023-07-07,2023-07-07,株式会社いいとも,,株式会社,福岡県,糟屋郡志免町,向ヶ丘１丁目１１番１６号,,40,343,8112247,,,,,,,2023-07-07,1,,,,,イイトモ,0
225,1290803004457,新規,0,2023-07-07,2023-07-07,迫キャピタル合同会社,,合同会社,福岡県,北九州市小倉南区,葛原３丁目３番３号,,40,107,8000251,,,,,,,2023-07-07,1,,,,,サコキャピタル,0
226,1310001018505,新規,0,2023-07-07,2023-07-07,志賀屋株式会社,,株式会社,長崎県,壱岐市,郷ノ浦町本村触５２８番地２,,42,210,8115133,,,,,,,2023-07-07,1,,,,,シカヤ,0
227,1330001031010,新規,0,2023-07-07,2023-07-07,株式会社ラクロワ,,株式会社,熊本県,熊本市北区,飛田４丁目６番１５０,,43,105,8615514,,,,,,,2023-07-07,1,,,,,ラクロワ,0
228,1330001031019,新規,0,2023-07-07,2023-07-07,株式会社Ｓ・Ｔ工業,,株式会社,熊本県,熊本市中央区,岡田町１４番５号４０１,,43,101,8620958,,,,,,,2023-07-07,1,,,,,エスティーコウギョウ,0
232,1360001032220,新規,0,2023-07-07,2023-07-07,株式会社琉球青果,,株式会社,沖縄県,島尻郡八重瀬町,字安里１３５４,,47,362,9010514,,,,,,,2023-07-07,1,,,,,リュウキュウセイカ,0
237,1370001050147,新規,0,2023-07-07,2023-07-07,株式会社Ａテック,,株式会社,宮城県,東松島市,大曲字堰の内南３０－１６５,,04,214,9810502,,,,,,,2023-07-07,1,,,,,エーテック,0
261,1500001025044,新規,0,2023-07-07,2023-07-07,株式会社ｃｏｐｅ　ａｚｉｅｎｄｅ,,株式会社,愛媛県,松山市,小坂１丁目７番４号コーポイズミ２０３号,,38,201,7900963,,,,,,,2023-07-07,1,,,,,コペアジェンデ,0
262,1700150118297,新規,0,2023-07-07,2023-07-07,Ｏｃｔｏｂｅｒ　Ｔｅｃｈｎｏｌｏｇｙ　ＣＯ．，Ｌｉｍｉｔｅｄ,,外国会社等,,,,,,,,ＵＮＩＴ　２，２２／Ｆ．，ＲＩＣＨＭＯＮＤ　ＣＯＭＭ．ＢＬＤＧ．，１０９　ＡＲＧＹＬＥ　ＳＴＲＥＥＴ，ＭＯＮＧＫＯＫ，ＫＯＷＬＯＯＮ，ＨＯＮＧ　ＫＯＮＧ　９９９０７７,,,,,,2023-07-07,1,,,,,オクトーバーテクノロジーカンパニーリミテッド,0
263,1700150118306,新規,0,2023-07-07,2023-07-07,ＧｕａｎｇＺｈｏｕＸｉＪｉｎＳｈａｎｇＭａｏＹｏｕＸｉａｎＧｏｎｇＳｉ,,外国会社等,,,,,,,,ｚｅｎｇｃｈｅｎｇｑｕｘｉｎｔａｎｇｚｈｅｎｎｉｕｚａｉｃｈｅｎｇｅｒｌｕ７ｈａｏ１２０２ｆａｎｇ　ｇｕａｎｇｚｈｏｕｓｈｉ　ｇｕａｎｇｄｏｎｇｓｈｅｎｇ　５１１３００　ＣＮ,,,,,,2023-07-07,1,,,,,グァンジョウシージンシャンマオヨウシェンゴンスー,0
264,1700150118314,新規,0,2023-07-07,2023-07-07,Ｓｈｅｎｚｈｅｎｓｈｉ　ｈｅｎｉｕ　ｍｏｘｉｎｇｐｅｉｊｉａｎ　ｙｏｕｘｉａｎｇｏｎｇｓｉ－Ｗｅｎｃｈａｏ,,外国会社等,,,,,,,,ｌｏｎｇｇａｎｇｑｕｌｏｎｇｇａｎｇｊｉｅｄａｏｌｏｎｇｄｏｎｇｓｈｅｑｕｘｉａｊｉｎｇｙｉｃｕｎ２ｘｉａｎｇ６ｈａｏ　ｓｈｅｎｚｈｅｎ　ｇｕａｎｇｄｏｎｇ　ＣＮ,,,,,,2023-07-07,1,,,,,シェンゼェシヘニュモシンペイジャンユウゲンコウシーウェンチァオ,0
265,1700150118322,新規,0,2023-07-07,2023-07-07,ＤｉｎｇＸｉｎｇＭｉｎｇＲｕｉ　Ｓｈｅｎｚｈｅｎ　Ｅ－ｃｏｍｍｅｒｃｅ　Ｃｏ．，Ｌｔｄ．,,外国会社等,,,,,,,,Ｒｏｏｍ　６１２，Ｙｕａｎｚｈｅｎｇ　ＩＯＴ　Ｉｎｄｕｓｔｒｉａｌ　Ｐａｒｋ，４０１２　Ｗｕｈｅ　Ａｖｅｎｕｅ，Ｂａｎｔｉａｎ，Ｌｏｎｇｇａｎｇ，Ｓｈｅｎｚｈｅｎ，Ｃｈｉｎａ,,,,,,2023-07-07,1,,,,,ディンシンミンルイシンセンイーコマースカンパニーリミテッド,0
266,1700150118339,新規,0,2023-07-07,2023-07-07,ＴＩＡＮＪＩＮ　ＮＡＮＤＵＡＮＫＥＪＩ　ＹＯＵＸＩＡＮＧＯＮＧＳＩ,,外国会社等,,,,,,,,ＪＩＮＺＨＯＮＧＲＯＡＤ　ＮＯ．３６９９　Ｃ１－４１２　ＤＯＮＧＬＩＱＵ　ＴＩＡＮＪＩＮ,,,,,,2023-07-07,1,,,,,テンチンナンドゥアンケジユウゲンコウシ,0
267,1700150118347,新規,0,2023-07-07,2023-07-07,ｇｕａｎｇｚｈｏｕｓｈｉｆａｎｙｕｎｈａｎｋｅｊｉｙｏｕｘｉａｎｇｏｎｇｓｉ,,外国会社等,,,,,,,,ｔｉａｎｈｅｑｕｔｉａｎｈｅｌｕ２４２ｈａｏ　１１０３ｆａｎｇＥ０１　ｊｉｎｘｉａｎｂａｎｇｏｎｇｙｏｎｇｔｕ　ｇｕａｎｇｚｈｏｕｓｈｉ　ｇｕａｎｇｄｏｎｇｓｈｅｎｇ,,,,,,2023-07-07,1,,,,,コウシュウシハンウンカンカギユウゲンコウシ,0
268,1700150118355,新規,0,2023-07-07,2023-07-07,Ｈａｎｇｚｈｏｕ　Ｅｘｃｅｌｌｅｎｃｅ　Ｂｌｕｅ　Ｗｈａｌｅ　ＣＢＥＣ　Ｃｏ．，ＬＴＤ,,外国会社等,,,,,,,,Ｓｈａｎｇｃｈｅｎｇ　Ｄｉｓｔｒｉｃｔ　Ｔｏｎｇｘｉｅ　Ｒｏａｄ　１２７９　Ｒｏｏｍ　９０４－２，Ｂｕｉｌｄｉｎｇ　１４，Ｘｉｚｉ　Ｗｉｓｄｏｍ　Ｉｎｄｕｓｔｒｉａｌ　Ｐａｒｋ　Ｈａｎｇｚｈｏｕ　Ｚｈｅｊｉａｎｇ　３１０００９　ＣＮ,,,,,,2023-07-07,1,,,,,コウシユウエクセレンブルーウエイルシービーイーシーカンパニーリミテツド,0
269,1700150118363,新規,0,2023-07-07,2023-07-07,ｓｈｅｎｚｈｅｎｓｈｉ　ｈｅｈｅｓｈｅｎｇｋｅｊｉ　ｙｏｕｘｉａｎｇｏｎｇｓｉ,,外国会社等,,,,,,,,Ｂａｎｔｉａｎ　Ｓｔｒｅｅｔ，Ｚｈｏｎｇｈａｉ　Ｙｕｅｌａｎｇｙｕａｎ，Ｂｕｉｌｄｉｎｇ１，１－７－１０Ｄ　Ｓｈｅｎｚｈｅｎ／ｌｏｎｇｇａｎｇ　Ｇｕａｎｇｄｏｎｇ　Ｃｈｉｎａ,,,,,,2023-07-07,1,,,,,シンセンシヘヘセンケジユウゲンコウシ,0
270,1700150118371,新規,0,2023-07-07,2023-07-07,Ｆｉｎｔｏｋｅｉ　ｓ．ｒ．ｏ．,,外国会社等,,,,,,,,Ｍａｓａｒｙｋｏｖａ　４０９／２６　Ｂｒｎｏ　６０２　００　Ｃｚｅｃｈ　Ｒｅｐｕｂｌｉｃ,,,,,,2023-07-07,1,,,,,フィントケイエスアールオー,0
275,2010001236631,新規,0,2023-07-07,2023-07-07,株式会社サイテック,,株式会社,東京都,千代田区,丸の内１丁目１番３号日本生命丸の内ガーデンタワー３階,,13,101,1000005,,,,,,,2023-07-07,1,,,,,サイテック,0
276,2010001236689,新規,0,2023-07-07,2023-07-07,ゼロイチスタンダード株式会社,,株式会社,東京都,中央区,銀座７丁目１６番７号花蝶ビル３階,,13,102,1040061,,,,,,,2023-07-07,1,,,,,ゼロイチスタンダード,0
277,2010001236747,新規,0,2023-07-07,2023-07-07,株式会社グローバル・ファイナンス,,株式会社,東京都,中央区,銀座１丁目１２番４号Ｎ＆Ｅ・ＢＬＤ．６Ｆ,,13,102,1040061,,,,,,,2023-07-07,1,,,,,グローバルファイナンス,0
278,2010003041063,新規,0,2023-07-07,2023-07-07,岩手滝沢ソーラーパワー合同会社,,合同会社,東京都,中央区,日本橋１丁目４番１号日本橋一丁目ビルディング,,13,102,1030027,,,,,,,2023-07-07,1,,,,,イワテタキザワソーラーパワー,0
284,2010401175314,新規,0,2023-07-07,2023-07-07,Ｔ‐ＧＬＯＢＡＬ　ＴＥＣＨＮＯＬＯＧＹ株式会社,,株式会社,東京都,港区,港南２丁目１６番４号品川グランドセントラルタワー８階,,13,103,1080075,,,,,,,2023-07-07,1,,,,,ティーグローバルテクノジー,0
285,2010401175578,新規,0,2023-07-07,2023-07-07,九州長崎ＩＲ株式会社,,株式会社,東京都,港区,南青山２丁目２番１５号,,13,103,1070062,,,,,,,2023-07-07,1,,,,,キュウシュウナガサキアイアール,0
289,2010403030442,新規,0,2023-07-07,2023-07-07,サステイナブルエネルギー１合同会社,,合同会社,東京都,港区,芝公園２丁目２番１０号中和ビル３階,,13,103,1050011,,,,,,,2023-07-07,1,,,,,サステイナブルエネルギーワン,0
290,2010405022297,新規,0,2023-07-07,2023-07-07,一般社団法人現代奏造Ｔｏｋｙｏ,,その他の設立登記法人,東京都,港区,赤坂２丁目２０番１６号第３村嶋ビル３０２オフィスＫＡＴＯ合同会社内,,13,103,1070052,,,,,,,2023-07-07,1,,,,,ゲンダイソウゾウトウキョウ,0
291,2010601063376,新規,0,2023-07-07,2023-07-07,株式会社ビコーズ,,株式会社,東京都,墨田区,両国３丁目２３番１０号,,13,107,1300026,,,,,,,2023-07-07,1,,,,,ビコーズ,0
298,2010901053341,新規,0,2023-07-07,2023-07-07,ホットウォーターアズアサービス株式会社,,株式会社,東京都,世田谷区,祖師谷１丁目２１番１１号♯０２,,13,112,1570072,,,,,,,2023-07-07,1,,,,,ホットウォーターアズアサービス,0
299,2010901053374,新規,0,2023-07-07,2023-07-07,株式会社ＤＩＡＬＩＶＥ,,株式会社,東京都,世田谷区,千歳台３丁目７番１２号,,13,112,1570071,,,,,,,2023-07-07,1,,,,,ディアライブ,0
300,2010903008293,新規,0,2023-07-07,2023-07-07,合同会社フレンズ,,合同会社,東京都,世田谷区,尾山台１丁目１０番６号,,13,112,1580086,,,,,,,2023-07-07,1,,,,,フレンズ,0
302,2011001155499,新規,0,2023-07-07,2023-07-07,ストランドパートナーズ株式会社,,株式会社,東京都,渋谷区,広尾１丁目１１番５－５０９号,,13,113,1500012,,,,,,,2023-07-07,1,,,,,ストランドパートナーズ,0
303,2011001155516,新規,0,2023-07-07,2023-07-07,株式会社ＲＵＳＯ,,株式会社,東京都,渋谷区,円山町５番５号Ｎａｖｉ渋谷Ｖ３階,,13,113,1500044,,,,,,,2023-07-07,1,,,,,ルソ,0
304,2011001155524,新規,0,2023-07-07,2023-07-07,株式会社やさいの日,,株式会社,東京都,渋谷区,道玄坂１丁目１０番８号渋谷道玄坂東急ビル２Ｆ－Ｃ,,13,113,1500043,,,,,,,2023-07-07,1,,,,,ヤサイノヒ,0
305,2011001155549,新規,0,2023-07-07,2023-07-07,株式会社アポロ,,株式会社,東京都,目黒区,青葉台１丁目３０番４－３０４号,,13,110,1530042,,,,,,,2023-07-07,1,,,,,アポロ,0
312,2011101103465,新規,0,2023-07-07,2023-07-07,株式会社シーエール,,株式会社,東京都,新宿区,歌舞伎町２丁目４６番３号,,13,104,1600021,,,,,,,2023-07-07,1,,,,,シーエール,0
313,2011101103481,新規,0,2023-07-07,2023-07-07,ＦＸ　ｓｏｆｔｗａｒｅ開発株式会社,,株式会社,東京都,新宿区,歌舞伎町２丁目２５番８号－２１４,,13,104,1600021,,,,,,,2023-07-07,1,,,,,エフエクスソフトウェアカイハツ,0
314,2011101103515,新規,0,2023-07-07,2023-07-07,株式会社ランドリーサムテック,,株式会社,東京都,新宿区,神楽坂３丁目４番地神楽坂山本ビル６階,,13,104,1620825,,,,,,,2023-07-07,1,,,,,ランドリーサムテック,0
317,2011103013225,新規,0,2023-07-07,2023-07-07,合同会社ガーデンヒルズ,,合同会社,東京都,新宿区,荒木町１０番地３０コムロンド四谷荒木町２０１,,13,104,1600007,,,,,,,2023-07-07,1,,,,,ガーデンヒルズ,0
322,2011301028850,新規,0,2023-07-07,2023-07-07,株式会社ＦＡＳＨＩＯＮ　Ｘ,,株式会社,東京都,杉並区,永福４丁目２０番２０号,,13,115,1680064,,,,,,,2023-07-07,1,,,,,ファッションエックス,0
324,2011303004825,新規,0,2023-07-07,2023-07-07,ＯＮＥＳＴＯ合同会社,,合同会社,東京都,杉並区,和泉４丁目１７番１６号Ｂ棟１０３,,13,115,1680063,,,,,,,2023-07-07,1,,,,,オネスト,0
328,2011401025252,新規,0,2023-07-07,2023-07-07,ＰＩＧ防災株式会社,,株式会社,東京都,板橋区,中丸町１７番１１－１００３号,,13,119,1730026,,,,,,,2023-07-07,1,,,,,ピーアイジーボウサイ,0
330,2011501029491,新規,0,2023-07-07,2023-07-07,株式会社ケイアール,,株式会社,東京都,荒川区,西日暮里２丁目２５番１号ステーションガーデンタワー１階,,13,118,1160013,,,,,,,2023-07-07,1,,,,,ケイアール,0
334,2011801042665,新規,0,2023-07-07,2023-07-07,株式会社武井工務店,,株式会社,東京都,足立区,花畑６丁目２８番１６号フランドールタック２０２,,13,121,1210061,,,,,,,2023-07-07,1,,,,,タケイコウムテン,0
335,2011801042673,新規,0,2023-07-07,2023-07-07,株式会社北東製作所,,株式会社,東京都,足立区,西新井６丁目２９番１６号,,13,121,1230841,,,,,,,2023-07-07,1,,,,,ホクトウセイサクショ,0
337,2012301013512,新規,0,2023-07-07,2023-07-07,株式会社一式,,株式会社,東京都,町田市,本町田３４５０番地２５２,,13,209,1940032,,,,,,,2023-07-07,1,,,,,イッシキ,0
341,2012303001845,新規,0,2023-07-07,2023-07-07,合同会社オフィスキノシタ,,合同会社,東京都,町田市,小川５丁目１５番２８号,,13,209,1940003,,,,,,,2023-07-07,1,,,,,オフィスキノシタ,0
347,2020001152332,新規,0,2023-07-07,2023-07-07,株式会社グラブ,,株式会社,神奈川県,横浜市中区,桜木町１丁目１０１番地１クロスゲート７階,,14,104,2310062,,,,,,,2023-07-07,1,,,,,グラブ,0
348,2020001152365,新規,0,2023-07-07,2023-07-07,株式会社ニコニコエステート,,株式会社,神奈川県,横浜市都筑区,仲町台１丁目２７－２０プラザ仲町台,,14,118,2240041,,,,,,,2023-07-07,1,,,,,ニコニコエステート,0
349,2020001152373,新規,0,2023-07-07,2023-07-07,ＳＯＺＯ　Ａｒｔｓ株式会社,,株式会社,神奈川県,川崎市幸区,鹿島田１丁目１６番３７－１０１号,,14,132,2120058,,,,,,,2023-07-07,1,,,,,ソーゾーアーツ,0
350,2020001152423,新規,0,2023-07-07,2023-07-07,株式会社Ｃ．Ｓ．Ｒ,,株式会社,神奈川県,横浜市戸塚区,上倉田町１５７６番地１０,,14,110,2440816,,,,,,,2023-07-07,1,,,,,シーエスアール,0
351,2020003024166,新規,0,2023-07-07,2023-07-07,合同会社トライアドエージェント,,合同会社,神奈川県,川崎市宮前区,土橋３丁目２１番地５,,14,136,2160005,,,,,,,2023-07-07,1,,,,,トライアドエージェント,0
354,2021001079508,新規,0,2023-07-07,2023-07-07,株式会社ブルーアイランド,,株式会社,神奈川県,藤沢市,善行坂１丁目９番１１号,,14,205,2510876,,,,,,,2023-07-07,1,,,,,ブルーアイランド,0
355,2021001079516,新規,0,2023-07-07,2023-07-07,ＡＶＡＮ化成株式会社,,株式会社,神奈川県,藤沢市,羽鳥１丁目３番１１号,,14,205,2510056,,,,,,,2023-07-07,1,,,,,エイバンカセイ,0
356,2021001079524,新規,0,2023-07-07,2023-07-07,株式会社ｃｌｏｖｅｒ　ＧＥＡＲ,,株式会社,神奈川県,小田原市,飯泉４８７番地の１,,14,206,2500863,,,,,,,2023-07-07,1,,,,,クローバーギア,0
361,2021003013282,新規,0,2023-07-07,2023-07-07,ＳＮＫＲＳＡＬＡＲＭ合同会社,,合同会社,神奈川県,足柄下郡湯河原町,吉浜６８６番地の１９,,14,384,2590312,,,,,,,2023-07-07,1,,,,,スニーカーズアラーム,0
371,2030001154732,新規,0,2023-07-07,2023-07-07,株式会社ＧＲＡＶＩＴＹ,,株式会社,埼玉県,さいたま市大宮区,桜木町２丁目３番地大宮マルイ７階,,11,103,3300854,,,,,,,2023-07-07,1,,,,,グラビティ,0
372,2030001154807,新規,0,2023-07-07,2023-07-07,エイヴサイテク株式会社,,株式会社,埼玉県,志木市,本町５丁目２３番２４号第３本吉ビル４階４１０号,,11,228,3530004,,,,,,,2023-07-07,1,,,,,エイヴサイテク,0
377,2040001129097,新規,0,2023-07-07,2023-07-07,株式会社Ｏ・Ｄ・Ｃ,,株式会社,千葉県,船橋市,坪井東３丁目１０番１号３０７,,12,204,2740060,,,,,,,2023-07-07,1,,,,,オーディーシー,0
378,2040001129106,新規,0,2023-07-07,2023-07-07,株式会社ｓｋｒｒｔｘ２,,株式会社,千葉県,船橋市,三咲６丁目３０番２号,,12,204,2740812,,,,,,,2023-07-07,1,,,,,スクスク,0
379,2040001129130,新規,0,2023-07-07,2023-07-07,株式会社牧野,,株式会社,千葉県,市原市,潤井戸１９７９番地８９,,12,219,2900171,,,,,,,2023-07-07,1,,,,,マキノ,0
380,2040001129139,新規,0,2023-07-07,2023-07-07,株式会社ＦＡＣＴＯＲＹ　Ｓ,,株式会社,千葉県,柏市,高田６０番地１４ブルックヒルズＩＩ－２０２号,00131098,12,217,2770861,,,,,,,2023-07-07,1,,,,,ファクトリーエス,0
387,2060001036135,新規,0,2023-07-07,2023-07-07,株式会社ノースヴィズ,,株式会社,栃木県,那須塩原市,東三島２丁目８６番地３９,,09,213,3292751,,,,,,,2023-07-07,1,,,,,ノースヴィズ,0
388,2060003004635,新規,0,2023-07-07,2023-07-07,合同会社ＳＶＣ,,合同会社,栃木県,宇都宮市,宮みらい２番２１号センチュリー宇都宮弐番館１９０１号,,09,201,3210969,,,,,,,2023-07-07,1,,,,,エスブイシー,0
393,2070001040607,新規,0,2023-07-07,2023-07-07,株式会社Ｓｏｌ　Ｈｏｍｅ,,株式会社,群馬県,高崎市,西横手町４５９番地６８,,10,202,3700021,,,,,,,2023-07-07,1,,,,,ソルホーム,0
398,2070003005021,新規,0,2023-07-07,2023-07-07,かなで商店合同会社,,合同会社,群馬県,館林市,堀工町１８６３番地の３,,10,207,3740033,,,,,,,2023-07-07,1,,,,,,0
403,2080103002842,新規,0,2023-07-07,2023-07-07,合同会社ティープラスワン,,合同会社,静岡県,駿東郡長泉町,南一色１８６番地の１,,22,342,4110932,,,,,,,2023-07-07,1,,,,,ティープラスワン,0
405,2080401026576,新規,0,2023-07-07,2023-07-07,株式会社三木商,,株式会社,静岡県,浜松市南区,倉松町３９５５番地の１,,22,134,4328064,,,,,,,2023-07-07,1,,,,,ミキショウ,0
406,2080401026584,新規,0,2023-07-07,2023-07-07,株式会社Ｔ’ｚデンタル,,株式会社,静岡県,磐田市,富丘８５８番地１,,22,211,4380803,,,,,,,2023-07-07,1,,,,,ティーズデンタル,0
411,2100003007096,新規,0,2023-07-07,2023-07-07,合同会社ｎｉｃｏｍｏ,,合同会社,長野県,長野市,戸隠豊岡１０３５６－１,,20,201,3814102,,,,,,,2023-07-07,1,,,,,ニコモ,0
412,2110001037664,新規,0,2023-07-07,2023-07-07,株式会社信越機械,,株式会社,新潟県,三条市,桜木町１２番３８号２０６,,15,204,9550844,,,,,,,2023-07-07,1,,,,,シンエツキカイ,0
421,2120001256222,新規,0,2023-07-07,2023-07-07,大阪相続総合相談所株式会社,,株式会社,大阪府,大阪市平野区,加美東４丁目７番１１号,,27,126,5470002,,,,,,,2023-07-07,1,,,,,オオサカソウゾクソウゴウソウダンショ,0
422,2120001256255,新規,0,2023-07-07,2023-07-07,株式会社有政,,株式会社,大阪府,大阪市東住吉区,今川６丁目３番３１号,,27,121,5460003,,,,,,,2023-07-07,1,,,,,ユウセイ,0
423,2120001256263,新規,0,2023-07-07,2023-07-07,ない株式会社,,株式会社,大阪府,大阪市淀川区,十三本町１丁目１６番１９号ゴトービル５Ｆ,,27,123,5320024,,,,,,,2023-07-07,1,,,,,ナイ,0
424,2120001256305,新規,0,2023-07-07,2023-07-07,株式会社水交社,,株式会社,大阪府,大阪市西区,京町堀１丁目３番１号ワイズビスタビル４階,,27,106,5500003,,,,,,,2023-07-07,1,,,,,スイコウシャ,0
427,2120003024437,新規,0,2023-07-07,2023-07-07,合同会社Ｒｉｔａ　Ｅｎｔｅｒｔａｉｎｍｅｎｔ,,合同会社,大阪府,大阪市中央区,島之内２丁目１４番２９－７０１号,,27,128,5420082,,,,,,,2023-07-07,1,,,,,リタエンターテイメント,0
428,2120003024453,新規,0,2023-07-07,2023-07-07,合同会社トータルサポート,,合同会社,大阪府,寝屋川市,萱島桜園町８‐１７‐１０１,,27,215,5720828,,,,,,,2023-07-07,1,,,,,トータルサポート,0
440,2120901047753,新規,0,2023-07-07,2023-07-07,エイトフロンティア株式会社,,株式会社,大阪府,池田市,石橋２丁目１４番８号,,27,204,5630032,,,,,,,2023-07-07,1,,,,,エイトフロンティア,0
441,2120903004728,新規,0,2023-07-07,2023-07-07,合同会社愛願,,合同会社,大阪府,高槻市,梶原４丁目７番１６号,,27,207,5690091,,,,,,,2023-07-07,1,,,,,アイウィッシュ,0
445,2130001074664,新規,0,2023-07-07,2023-07-07,株式会社Ｂｕｏｎ　ａｍｏｒ,,株式会社,京都府,京都市伏見区,竹田段川原町２４９番地,,26,109,6128414,,,,,,,2023-07-07,1,,,,,ボンナムール,0
446,2130001074672,新規,0,2023-07-07,2023-07-07,株式会社錦悦,,株式会社,京都府,京都市南区,東九条南石田町９４－１,,26,107,6018033,,,,,,,2023-07-07,1,,,,,キンエツ,0
454,2140005026677,新規,0,2023-07-07,2023-07-07,一般社団法人ネクストゼロ,,その他の設立登記法人,兵庫県,丹波市,市島町北奥５３番地,,28,223,6694312,,,,,,,2023-07-07,1,,,,,ネクストゼロ,0
456,2150003002992,新規,0,2023-07-07,2023-07-07,合同会社ｍａｈｉｒｏ,,合同会社,奈良県,奈良市,三松ヶ丘１０番１３号,,29,201,6310075,,,,,,,2023-07-07,1,,,,,マヒロ,0
457,2150003003000,新規,0,2023-07-07,2023-07-07,合同会社Ｐｅａｃｅ　Ｈｏｍｅ,,合同会社,奈良県,北葛城郡上牧町,葛城台１丁目６番８号,,29,424,6390215,,,,,,,2023-07-07,1,,,,,ピースホーム,0
459,2160001025152,新規,0,2023-07-07,2023-07-07,株式会社ＡＮＧＥＬ,,株式会社,滋賀県,大津市,大萱１丁目１４番５号,,25,201,5202144,,,,,,,2023-07-07,1,,,,,エンジェル,0
466,2180001156986,新規,0,2023-07-07,2023-07-07,株式会社ひろせ,,株式会社,愛知県,名古屋市南区,豊４丁目１７番１２号,,23,112,4570863,,,,,,,2023-07-07,1,,,,,ヒロセ,0
467,2180001156994,新規,0,2023-07-07,2023-07-07,株式会社ｒｕｎｓｔａｒ,,株式会社,愛知県,津島市,神尾町字野中３４番地,,23,208,4960013,,,,,,,2023-07-07,1,,,,,ランスター,0
468,2180001157002,新規,0,2023-07-07,2023-07-07,株式会社タスクアール,,株式会社,愛知県,稲沢市,竹腰中町９９番地,,23,220,4928286,,,,,,,2023-07-07,1,,,,,タスクアール,0
469,2180001157010,新規,0,2023-07-07,2023-07-07,株式会社フロンティスト,,株式会社,愛知県,名古屋市中村区,名駅南１丁目１２－９グランスクエア名駅南３階,,23,105,4500003,,,,,,,2023-07-07,1,,,,,フロンティスト,0
470,2180001157043,新規,0,2023-07-07,2023-07-07,株式会社ＤＣＩ,,株式会社,愛知県,小牧市,大字三ツ渕１５６９－３,,23,219,4850075,,,,,,,2023-07-07,1,,,,,ディーシーアイ,0
471,2180001157051,新規,0,2023-07-07,2023-07-07,株式会社マイルストーンコンサルティング,,株式会社,愛知県,尾張旭市,東大道町原田２６７２番地２９６,,23,226,4880801,,,,,,,2023-07-07,1,,,,,マイルストーンコンサルティング,0
477,2180003025438,新規,0,2023-07-07,2023-07-07,合同会社ＲＯＯＫＩＥ,,合同会社,愛知県,名古屋市中区,栄５丁目８番３２号ミスターワシントンビル６０２号,,23,106,4600008,,,,,,,2023-07-07,1,,,,,ルーキー,0
478,2180003025462,新規,0,2023-07-07,2023-07-07,合同会社プロネーシス,,合同会社,愛知県,名古屋市天白区,塩釜口１丁目１５１‐１リブレア名城大前２０１,,23,116,4680073,,,,,,,2023-07-07,1,,,,,プロネーシス,0
480,2190001030554,新規,0,2023-07-07,2023-07-07,株式会社ＡＳＸ　ＭＯＴＯＲＳ,,株式会社,三重県,四日市市,小牧町７３８番地２,,24,202,5121303,,,,,,,2023-07-07,1,,,,,エーエスエックスモータース,0
481,2190001030562,新規,0,2023-07-07,2023-07-07,ＫＩＫＵＡＲＴ株式会社,,株式会社,三重県,伊賀市,西湯舟３１６番地の１,,24,216,5181301,,,,,,,2023-07-07,1,,,,,キクアート,0
485,2200001041459,新規,0,2023-07-07,2023-07-07,株式会社一久造園,,株式会社,岐阜県,土岐市,泉町久尻１１６８番地の６,,21,212,5095142,,,,,,,2023-07-07,1,,,,,イチキュウゾウエン,0
486,2200001041475,新規,0,2023-07-07,2023-07-07,縁建築株式会社,,株式会社,岐阜県,岐阜市,福富笠海道７１番地,,21,201,5012561,,,,,,,2023-07-07,1,,,,,エンケンチク,0
487,2220001025492,新規,0,2023-07-07,2023-07-07,株式会社山下左官,,株式会社,石川県,小松市,島町ル３１番地,,17,203,9230303,,,,,,,2023-07-07,1,,,,,ヤマシタサカン,0
491,2240001061759,新規,0,2023-07-07,2023-07-07,Ｓｔａｒ　Ｃｒｅａｔｉｖｅ株式会社,,株式会社,広島県,尾道市,久保町２０７９番地４,,34,205,7220042,,,,,,,2023-07-07,1,,,,,スタークリエイティブ,0
492,2240001061783,新規,0,2023-07-07,2023-07-07,ジーアイコムテック株式会社,,株式会社,広島県,広島市安佐北区,落合南１丁目３５番１８－４号,,34,106,7391732,,,,,,,2023-07-07,1,,,,,ジーアイコムテック,0
499,2260001038103,新規,0,2023-07-07,2023-07-07,株式会社Ｔ．Ｔカンパニー,,株式会社,岡山県,倉敷市,児島赤崎３丁目７番４１－１号,,33,202,7110931,,,,,,,2023-07-07,1,,,,,ティードットティーカンパニー,0
501,2280001008970,新規,0,2023-07-07,2023-07-07,株式会社ＫＡＱＵＤＯ,,株式会社,島根県,松江市,学園２丁目２８番２５号,,32,201,6900825,,,,,,,2023-07-07,1,,,,,カクド,0
502,2280001008979,新規,0,2023-07-07,2023-07-07,株式会社ブルコーポレーション,,株式会社,島根県,松江市,西川津町３６６番地２４,,32,201,6900823,,,,,,,2023-07-07,1,,,,,ブルコーポレーション,0
506,2290001102186,新規,0,2023-07-07,2023-07-07,株式会社コネックト,,株式会社,福岡県,福岡市博多区,吉塚６丁目５番２５－８０５号,,40,132,8120041,,,,,,,2023-07-07,1,,,,,コネックト,0
507,2290001102194,新規,0,2023-07-07,2023-07-07,森戸設計株式会社,,株式会社,福岡県,福岡市中央区,小笹３丁目１２－８－９０１,,40,133,8100033,,,,,,,2023-07-07,1,,,,,モリトセッケイ,0
508,2290001102203,新規,0,2023-07-07,2023-07-07,株式会社ＡＢＦ先進治療コンシェル,,株式会社,福岡県,福岡市中央区,大名１丁目１番１５号,,40,133,8100041,,,,,,,2023-07-07,1,,,,,エービーエフセンシンチリョウコンシェル,0
509,2290001102211,新規,0,2023-07-07,2023-07-07,株式会社Ｋａ‐Ｌ．ｏｒ,,株式会社,福岡県,福岡市中央区,大名１丁目１１番４号,,40,133,8100041,,,,,,,2023-07-07,1,,,,,カエルドットオーアール,0
510,2290003014099,新規,0,2023-07-07,2023-07-07,合同会社みくりや事務所,,合同会社,福岡県,福岡市南区,塩原３丁目８番２８号,,40,134,8150032,,,,,,,2023-07-07,1,,,,,ミクリヤジムショ,0
513,2290005019088,新規,0,2023-07-07,2023-07-07,農事組合法人ＭＡＲＵＮＩ・ＢＡＴＡＫＥ,,その他の設立登記法人,福岡県,糸島市,志摩東貝塚７１２番地１,,40,230,8191324,,,,,,,2023-07-07,1,,,,,,0
516,2290801029686,新規,0,2023-07-07,2023-07-07,Ｓキャリアワーク株式会社,,株式会社,福岡県,田川市,桜町１４番３３号,,40,206,8260021,,,,,,,2023-07-07,1,,,,,エスキャリアワーク,0
517,2290803004456,新規,0,2023-07-07,2023-07-07,合同会社ＹＳオフィス,,合同会社,福岡県,遠賀郡水巻町,中央９番２６号ドラーゴ２Ｆ,,40,382,8070023,,,,,,,2023-07-07,1,,,,,ワイエスオフィス,0
524,2310001018504,新規,0,2023-07-07,2023-07-07,株式会社セグチ,,株式会社,長崎県,長崎市,西海町１９２６番地１ノイグランツ弐番館２０２,,42,201,8513101,,,,,,,2023-07-07,1,,,,,セグチ,0
527,2320001019856,新規,0,2023-07-07,2023-07-07,Ｎ．Ｒｉｓｅ．株式会社,,株式会社,大分県,大分市,王子中町１０番２０号,,44,201,8700006,,,,,,,2023-07-07,1,,,,,エヌライズ,0
529,2320003004121,新規,0,2023-07-07,2023-07-07,合同会社コンセント,,合同会社,大分県,大分市,岩田町２丁目１番２２号,,44,201,8700936,,,,,,,2023-07-07,1,,,,,コンセント,0
530,2330001031018,新規,0,2023-07-07,2023-07-07,株式会社ロア薬局,,株式会社,熊本県,熊本市中央区,水前寺４丁目５２番５１号,,43,101,8620950,,,,,,,2023-07-07,1,,,,,ロアヤッキョク,0
531,2330001031026,新規,0,2023-07-07,2023-07-07,ＳＬリーディング株式会社,,株式会社,熊本県,熊本市南区,出仲間１丁目４番１号４０５,,43,104,8620963,,,,,,,2023-07-07,1,,,,,エスエルリーディング,0
534,2350001018434,新規,0,2023-07-07,2023-07-07,株式会社けやき,,株式会社,宮崎県,日向市,東郷町坪谷１８５番地１,,45,206,8830211,,,,,,,2023-07-07,1,,,,,ケヤキ,0
538,2370001050138,新規,0,2023-07-07,2023-07-07,株式会社Ｍ＆Ｍディレクションズ,,株式会社,宮城県,仙台市青葉区,一番町３丁目１番１号,,04,101,9800811,,,,,,,2023-07-07,1,,,,,エムアンドエムディレクションズ,0
539,2380001033835,新規,0,2023-07-07,2023-07-07,株式会社佐藤興業,,株式会社,福島県,喜多方市,関柴町平林字政所１６１０番地５,,07,208,9660016,,,,,,,2023-07-07,1,,,,,サトウコウギョウ,0
547,2410003003816,新規,0,2023-07-07,2023-07-07,合同会社ＡＫＡＳＩ,,合同会社,秋田県,湯沢市,字中野１０５番地１９,,05,207,0120041,,,,,,,2023-07-07,1,,,,,アカシ,0
552,2470001019692,新規,0,2023-07-07,2023-07-07,株式会社ＮＯＲＩＳ,,株式会社,香川県,東かがわ市,松原４７５番地４,,37,207,7692702,,,,,,,2023-07-07,1,,,,,ノリス,0
556,2490003001795,新規,0,2023-07-07,2023-07-07,あき輝ｖｉｌｌａｇｅ合同会社,,合同会社,高知県,安芸市,川北甲５３５１番地１７,,39,203,7840043,,,,,,,2023-07-07,1,,,,,アキカガヤキビレッジ,0
561,2700150118296,新規,0,2023-07-07,2023-07-07,ｓｈｅｎｚｈｅｎｓｈｉ　ｈａｎｍａｊｉｎｇｍｉｋｅｊｉ　ｙｏｕｘｉａｎｇｏｎｇｓｉ,,外国会社等,,,,,,,,ｂａｏａｎｑｕ　ｓｈｉｙａｎｊｉｅｄａｏ　ｌａｎｇｘｉｎｓｈｅｑｕ　ｚｈｏｕｓｈｉｌｕ　ｗａｎｄａｇｏｎｇｙｅｑｕ　Ｂｄｏｎｇ　２ｃｅｎｇ　Ａｄａｎｙｕａｎ　ｓｈｅｎｚｈｅｎｓｈｉ　ｇｕａｎｇｄｏｎｇｓｈｅｎｇ　５１８０００ＣＮ,,,,,,2023-07-07,1,,,,,シンセンシハンマジンミケジユウゲンコウシ,0
562,2700150118305,新規,0,2023-07-07,2023-07-07,ｔｉａｎｊｉｎｇｕｏｌｉａｎｙｉｘｉｎｓｈａｎｇｍａｏｙｏｕｘｉａｎｇｏｎｇｓｉ,,外国会社等,,,,,,,,Ｔｉａｎｊｉｎ　Ｐｉｌｏｔ　Ｆｒｅｅ　Ｔｒａｄｅ　Ｚｏｎｅ　Ａｉｒｐｏｒｔ　Ｅｃｏｎｏｍｉｃ　Ｚｏｎｅ　Ｎｏ．８２　Ｗｅｓｔ　Ｓｅｃｏｎｄ　Ｒｏａｄ，Ｌｉ　Ｃｏｍｍｅｒｃｉａｌ　Ｂｕｉｌｄｉｎｇ　２０１－１００５　Ｔｉａｎｊｉｎｓｈｉ　３０００００　ＣＮ,,,,,,2023-07-07,1,,,,,ティェンジングオリェンイーシンシャンマオヨウシェンゴンスー,0
563,2700150118313,新規,0,2023-07-07,2023-07-07,Ｚｈｉｙｕｎ　Ｔｉｍｅｓ　Ｔｅｃｈｎｏｌｏｇｙ　Ｃｏ．，Ｌｉｍｉｔｅｄ,,外国会社等,,,,,,,,ＦＬＡＴ／ＲＭ　Ａ　１２／Ｆ　ＺＪ　３００，３００　ＬＯＣＫＨＡＲＴ　ＲＯＡＤ，ＷＡＮ　ＣＨＡＩ　ＨＫ,,,,,,2023-07-07,1,,,,,ジユンタイムズテクノロジーカンパニーリミテッド,0
564,2700150118321,新規,0,2023-07-07,2023-07-07,Ｇｕａｎｇｚｈｏｕ　Ｓｈｅｎｄｉｎｇ　Ｏｕｔｄｏｏｒ＆Ｓｐｏｒｔｓ　Ｇｏｏｄｓ　Ｃｏ．，Ｌｔｄ．,,外国会社等,,,,,,,,Ｒｏｏｍ　５０９　Ｋａｉｓｈｅｎｇ　Ｉｎｔｅｒｎａｔｉｏｎａｌ　Ｐｌａｚａ　Ｎｏ．２２１　Ｘｉｃｈａ　Ｒｏａｄ，Ｂａｉｙｕｎ　Ｄｉｓｔｒｉｃｔ　Ｇｕａｎｇｚｈｏｕ，Ｇｕａｎｇｄｏｎｇ，Ｃｈｉｎａ,,,,,,2023-07-07,1,,,,,ゴンジョウシェンディングアウトドアアンドスポーツグッズカンパニーリミテッド,0
565,2700150118338,新規,0,2023-07-07,2023-07-07,Ｄｏｎｇｇｕａｎｓｈｉ　ｈｏｎｇｆａｙｕｎｄａｋｅｊｉ　ｙｏｕｘｉａｎｇｏｎｇｓｉ,,外国会社等,,,,,,,,Ｒｏｏｍ　２１０５，Ｂｕｉｌｄｉｎｇ　１，Ｎｏ．１７　Ｙｉｎｇｂｉｎ　Ａｖｅｎｕｅ，Ｔａｎｇｘｉａ　Ｔｏｗｎ，Ｄｏｎｇｇｕａｎ　Ｃｉｔｙ，Ｇｕａｎｇｄｏｎｇ　Ｐｒｏｖｉｎｃｅ，Ｃｈｉｎａ,,,,,,2023-07-07,1,,,,,ドングゥアンシホンファユェンダケジユウゲンコウシ,0
566,2700150118346,新規,0,2023-07-07,2023-07-07,Ｂｏｔａｏｊｉａｙｅ（Ｂｅｉｊｉｎｇ）Ｓａｎｉｔａｒｙ　Ｗａｒｅ　Ｃｏ．，Ｌｔｄ,,外国会社等,,,,,,,,Ｌｖｊｉａｙｉｎｇ　１５ｔｈ　Ｂｒｉｇａｄｅ，Ｓｈｉｂａｌｉｄｉａｎ，Ｃｈａｏｙａｎｇ　Ｄｉｓｔｒｉｃｔ，Ｂｅｉｊｉｎｇ，Ｃｈｉｎａ,,,,,,2023-07-07,1,,,,,ボータオジャーイエベイジンウェイイーヨウシエンゴンスー,0
567,2700150118354,新規,0,2023-07-07,2023-07-07,ｓｈａｎｘｉｊｉｎｙａｏｍａｏｙｉｙｏｕｘｉａｎｇｏｎｇｓｉ,,外国会社等,,,,,,,,ｚｈｕａｎｘｉｎｇｚｏｎｇｈｅｇａｉｇｅｓｈｉｆａｎｑｕｘｕｅｆｕｃｈａｎｙｅｙｕａｎｊｉｎｙａｎｇｊｉｅ２０２ｈａｏｄｏｎｇｙｕｅｇｕａｎｇｃｈａｎｇ４ｈａｏｌｏｕ１４１３　ｔａｉｙｕａｎｓｈｉ　Ｓｈａｎｘｉｓｈｅｎｇ　０３００００　ＣＮ,,,,,,2023-07-07,1,,,,,サンセイキンヨウボウエキユウゲンコウシ,0
568,2700150118362,新規,0,2023-07-07,2023-07-07,ｓｈｅｎｚｈｅｎｓｈｉ　ｈｕｉｙｉｃｈｕａｎｇ　ｋｅｊｉ　ｙｏｕｘｉａｎｇｏｎｇｓｉ,,外国会社等,,,,,,,,ｌｏｎｇｇａｎｇｑｕｂａｎｔｉａｎｊｉｅｄａｏ　ｘｉｎｈｅｊｉｅｓｉｘｉａｎｇ１７ｈａｏ８０１　ｓｈｅｎｚｈｅｎ　ｇｕａｎｇｄｏｎｇ　Ｃｈｉｎａ,,,,,,2023-07-07,1,,,,,シェンゼェンシフイイチゥアンケジユウゲンコウシ,0
569,2700150118370,新規,0,2023-07-07,2023-07-07,Ｓｈｅｎｚｈｅｎ　Ｗｅｉ　Ｊｉｎｇ　Ｄｉａｎｚｉ　Ｓｈａｎｇｗｕ　Ｙｏｕｘｉａｎｇｏｎｇｓｉ,,外国会社等,,,,,,,,Ｇｕａｎｇｘｉａｎｘｉａｏｑｕ　２－３１１　Ｂａｇｕａ　３ｒｄ　Ｒｏａｄ，Ｙｕａｎｌｉｎｇ　Ｓｔｒｅｅｔ，Ｆｕｔｉａｎ　Ｄｉｓｔｒｉｃｔ　Ｓｈｅｎｚｈｅｎ　Ｇｕａｎｇｄｏｎｇ　Ｃｈｉｎａ,,,,,,2023-07-07,1,,,,,シンセンウェイジンデンシシャンウユウゲンコウシ,0
580,3010005036903,新規,0,2023-07-07,2023-07-07,エスティキョウト一般社団法人,,その他の設立登記法人,東京都,千代田区,丸の内３丁目１番１号東京共同会計事務所内,,13,101,1000005,,,,,,,2023-07-07,1,,,,,エスティキョウト,0
581,3010005036928,新規,0,2023-07-07,2023-07-07,一般社団法人ＩＳＴ,,その他の設立登記法人,東京都,中央区,日本橋１丁目４番１号日本橋一丁目ビルディング,,13,102,1030027,,,,,,,2023-07-07,1,,,,,アイエスティー,0
588,3010403030433,新規,0,2023-07-07,2023-07-07,ＳＴＯＮＥ　ＳＴＲＥＥＴ　ＴＯＫＹＯ合同会社,,合同会社,東京都,港区,元麻布３丁目１番６号,,13,103,1060046,,,,,,,2023-07-07,1,,,,,ストーンストリートトーキョウ,0
590,3010601063375,新規,0,2023-07-07,2023-07-07,株式会社アヘッド,,株式会社,東京都,江東区,深川２丁目９番５号Ａ・Ｋビル４０３,,13,108,1350033,,,,,,,2023-07-07,1,,,,,アヘッド,0
591,3010601063383,新規,0,2023-07-07,2023-07-07,ｓｐｉｎ株式会社,,株式会社,東京都,墨田区,立花４丁目１７番１８－１０１号,,13,107,1310043,,,,,,,2023-07-07,1,,,,,スピン,0
600,3010801034119,新規,0,2023-07-07,2023-07-07,株式会社ハイテクノライズ,,株式会社,東京都,大田区,大森西４丁目１７番３５号,,13,111,1430015,,,,,,,2023-07-07,1,,,,,ハイテクノライズ,0
603,3010901053365,新規,0,2023-07-07,2023-07-07,株式会社ソトニ,,株式会社,東京都,世田谷区,玉川３丁目４１番１０号１０３,,13,112,1580094,,,,,,,2023-07-07,1,,,,,ソトニ,0
604,3010901053373,新規,0,2023-07-07,2023-07-07,株式会社健伸,,株式会社,東京都,世田谷区,桜丘２丁目８－１０フォンティーヌ桜丘２０２,,13,112,1560054,,,,,,,2023-07-07,1,,,,,ケンシン,0
606,3010903008292,新規,0,2023-07-07,2023-07-07,合同会社ＢｏＥ,,合同会社,東京都,世田谷区,砧３丁目９番２９－２０５号,,13,112,1570073,,,,,,,2023-07-07,1,,,,,ビーオーイー,0
611,3011001155341,新規,0,2023-07-07,2023-07-07,株式会社Ｃｏｄｅｓｙｎｃ,,株式会社,東京都,渋谷区,恵比寿３丁目２６－１５コリーヌ恵比寿１０５,,13,113,1500013,,,,,,,2023-07-07,1,,,,,コードシンク,0
612,3011001155523,新規,0,2023-07-07,2023-07-07,株式会社ループス,,株式会社,東京都,渋谷区,神泉町１０番１５－３０１号,,13,113,1500045,,,,,,,2023-07-07,1,,,,,ループス,0
613,3011003017127,新規,0,2023-07-07,2023-07-07,Ｄａｗｎｉｎｇ合同会社,,合同会社,東京都,目黒区,洗足１丁目８番９号,,13,110,1520012,,,,,,,2023-07-07,1,,,,,ドーウィング,0
615,3011101103456,新規,0,2023-07-07,2023-07-07,ＷＨＤＣアクロディア株式会社,,株式会社,東京都,新宿区,愛住町２２番地,,13,104,1600005,,,,,,,2023-07-07,1,,,,,ダブリューエイチディーシィーアクロディア,0
616,3011101103489,新規,0,2023-07-07,2023-07-07,株式会社ＶＥＮＵＳ,,株式会社,東京都,新宿区,下落合１丁目１１番６号ＺＯＯＭ高田馬場２０７,,13,104,1610033,,,,,,,2023-07-07,1,,,,,ヴィーナス,0
617,3011101103514,新規,0,2023-07-07,2023-07-07,株式会社ランドリーエムズ,,株式会社,東京都,新宿区,神楽坂３丁目４番地神楽坂山本ビル６階,,13,104,1620825,,,,,,,2023-07-07,1,,,,,ランドリーエムズ,0
618,3011103013216,新規,0,2023-07-07,2023-07-07,調和地所合同会社,,合同会社,東京都,新宿区,大久保２丁目１７番１７号,,13,104,1690072,,,,,,,2023-07-07,1,,,,,チョウワジショ,0
621,3011201024759,新規,0,2023-07-07,2023-07-07,株式会社ＳＡＮＺＥＮ,,株式会社,東京都,中野区,中野２丁目１８－１０－６０３,,13,114,1640001,,,,,,,2023-07-07,1,,,,,サンゼン,0
628,3011301028841,新規,0,2023-07-07,2023-07-07,株式会社ＩＮ,,株式会社,東京都,杉並区,井草３丁目２６番１３号,,13,115,1670021,,,,,,,2023-07-07,1,,,,,アイエヌ,0
629,3011303004824,新規,0,2023-07-07,2023-07-07,ＭＭ５合同会社,,合同会社,東京都,杉並区,井草５丁目９番４号,,13,115,1670021,,,,,,,2023-07-07,1,,,,,エムエムファイブ,0
630,3011401025251,新規,0,2023-07-07,2023-07-07,かしわコンサルティング株式会社,,株式会社,東京都,板橋区,高島平１丁目６１番１１号ベルファミーユ２０１,,13,119,1750082,,,,,,,2023-07-07,1,,,,,カシワコンサルティング,0
632,3011601026958,新規,0,2023-07-07,2023-07-07,株式会社ワトモンジュ経営,,株式会社,東京都,練馬区,桜台１丁目１番１０－７０４号,,13,120,1760002,,,,,,,2023-07-07,1,,,,,ワトモンジュケイエイ,0
634,3011801042664,新規,0,2023-07-07,2023-07-07,株式会社ＲｅＳＴＡＲＴ,,株式会社,東京都,足立区,西新井栄町２丁目１８番１５号,,13,121,1230843,,,,,,,2023-07-07,1,,,,,リスタート,0
635,3011801042672,新規,0,2023-07-07,2023-07-07,鈴木エステート株式会社,,株式会社,東京都,足立区,興野２丁目１７番４号,,13,121,1230844,,,,,,,2023-07-07,1,,,,,スズキエステート,0
636,3012301013511,新規,0,2023-07-07,2023-07-07,株式会社ヤマト,,株式会社,東京都,町田市,原町田６丁目１７番２１号デュオステージ町田ＭＡＸＩＶ９０５,,13,209,1940013,,,,,,,2023-07-07,1,,,,,ヤマト,0
639,3012401040703,新規,0,2023-07-07,2023-07-07,株式会社ＣＯＮＮＥＣＴ,,株式会社,東京都,武蔵野市,吉祥寺南町１丁目３１番２号,,13,203,1800003,,,,,,,2023-07-07,1,,,,,コネクト,0
640,3012401040711,新規,0,2023-07-07,2023-07-07,株式会社ＰＴＮＳホールディングス,,株式会社,東京都,調布市,飛田給２丁目１５番地２,,13,208,1820036,,,,,,,2023-07-07,1,,,,,ピーティーエヌエスホールディングス,0
643,3012403006058,新規,0,2023-07-07,2023-07-07,合同会社ｏａｓｉｓ,,合同会社,東京都,稲城市,矢野口３７５０番地の１９アートフル矢野口駅前ビル地下１階,,13,225,2060812,,,,,,,2023-07-07,1,,,,,オアシス,0
648,3013301051014,新規,0,2023-07-07,2023-07-07,ＧＮＧ創投株式会社,,株式会社,東京都,豊島区,東池袋４丁目８番１号エイチエックスビルＢ１０３,,13,116,1700013,,,,,,,2023-07-07,1,,,,,ジエヌジソウトウ,0
653,3020001152315,新規,0,2023-07-07,2023-07-07,株式会社平澤自動車,,株式会社,神奈川県,横浜市中区,本牧原１３番１－５０５号,,14,104,2310821,,,,,,,2023-07-07,1,,,,,ヒラサワジドウシャ,0
654,3020001152364,新規,0,2023-07-07,2023-07-07,ＺＺＴ株式会社,,株式会社,神奈川県,川崎市中原区,上小田中６丁目１０番１－４０１号,,14,133,2110053,,,,,,,2023-07-07,1,,,,,ゼットゼットティー,0
655,3020001152380,新規,0,2023-07-07,2023-07-07,株式会社ミチサク,,株式会社,神奈川県,川崎市麻生区,高石６丁目１９番１０号,,14,137,2150003,,,,,,,2023-07-07,1,,,,,ミチサク,0
656,3020001152389,新規,0,2023-07-07,2023-07-07,株式会社ＹＢＦ,,株式会社,神奈川県,横浜市西区,浅間町１丁目４番３号ウィザードビル４０２,,14,103,2200072,,,,,,,2023-07-07,1,,,,,ワイビーエフ,0
657,3020001152397,新規,0,2023-07-07,2023-07-07,ヨシダＣＳ株式会社,,株式会社,神奈川県,横浜市戸塚区,戸塚町１８６２番地６２,,14,110,2440003,,,,,,,2023-07-07,1,,,,,ヨシダシーエス,0
659,3020003024116,新規,0,2023-07-07,2023-07-07,憶重慶合同会社,,合同会社,神奈川県,横浜市中区,野毛町３丁目１２５如意閣１階,,14,104,2310064,,,,,,,2023-07-07,1,,,,,イージュウケイ,0
660,3020003024157,新規,0,2023-07-07,2023-07-07,ＨＡＢＡＴＨ合同会社,,合同会社,神奈川県,横浜市港北区,下田町３丁目３１番５－２号,,14,109,2230064,,,,,,,2023-07-07,1,,,,,ハバス,0
661,3020003024198,新規,0,2023-07-07,2023-07-07,合同会社トラストサイクル,,合同会社,神奈川県,横浜市旭区,中希望が丘１０６－１７,,14,112,2410825,,,,,,,2023-07-07,1,,,,,トラストサイクル,0
663,3021001079498,新規,0,2023-07-07,2023-07-07,湘南企画株式会社,,株式会社,神奈川県,相模原市南区,相模大野７丁目１８番３－２０８号,,14,153,2520303,,,,,,,2023-07-07,1,,,,,ショウナンキカク,0
664,3021001079523,新規,0,2023-07-07,2023-07-07,株式会社ＲＥＡＳＯＮＡＢＬＥ,,株式会社,神奈川県,藤沢市,辻堂西海岸１丁目５番１－３２５号,,14,205,2510046,,,,,,,2023-07-07,1,,,,,リーズナブル,0
665,3021001079531,新規,0,2023-07-07,2023-07-07,株式会社ＣＨＫ,,株式会社,神奈川県,相模原市南区,相模台３丁目１１番２１号,,14,153,2520321,,,,,,,2023-07-07,1,,,,,シーエイチケー,0
671,3030001154806,新規,0,2023-07-07,2023-07-07,株式会社ＮＡＧＡＯ,,株式会社,埼玉県,本庄市,児玉町児玉２１２９番地１,,11,211,3670212,,,,,,,2023-07-07,1,,,,,ナガオ,0
679,3040001129096,新規,0,2023-07-07,2023-07-07,株式会社ＤＲＬＬＩＭＩＯＮ　Ｔｈｅ　Ａｒｔ　Ｃｒｅｗ,,株式会社,千葉県,袖ケ浦市,長浦駅前３丁目１番地８,,12,229,2990246,,,,,,,2023-07-07,1,,,,,ドリミオンザアートクルー,0
680,3040001129105,新規,0,2023-07-07,2023-07-07,株式会社エージーオー,,株式会社,千葉県,千葉市緑区,越智町５４１番地,,12,105,2670055,,,,,,,2023-07-07,1,,,,,エージーオー,0
681,3040001129121,新規,0,2023-07-07,2023-07-07,株式会社コンタクト,,株式会社,千葉県,印西市,武西学園台３丁目１１番地２９,,12,231,2701355,,,,,,,2023-07-07,1,,,,,コンタクト,0
682,3040001129138,新規,0,2023-07-07,2023-07-07,嘉興株式会社,,株式会社,千葉県,松戸市,古ケ崎２丁目３０８７番地の１,,12,207,2710068,,,,,,,2023-07-07,1,,,,,ヨシコウ,0
687,3040003022902,新規,0,2023-07-07,2023-07-07,ＢＵＺＺ合同会社,,合同会社,千葉県,船橋市,上山町３丁目５２４番地１９,,12,204,2730046,,,,,,,2023-07-07,1,,,,,バズ,0
688,3040003022910,新規,0,2023-07-07,2023-07-07,合同会社ＴＡＳＵＫＩ,,合同会社,千葉県,市川市,菅野４丁目１７－２,,12,203,2720824,,,,,,,2023-07-07,1,,,,,タスキ,0
690,3050001053080,新規,0,2023-07-07,2023-07-07,株式会社Ｉ＆Ｍ,,株式会社,茨城県,つくば市,君島２０３番地,,08,220,3004233,,,,,,,2023-07-07,1,,,,,アイアンドエム,0
691,3050001053097,新規,0,2023-07-07,2023-07-07,株式会社リクゼン,,株式会社,茨城県,水戸市,河和田町３８９１番地１０５,,08,201,3114153,,,,,,,2023-07-07,1,,,,,リクゼン,0
695,3060001036134,新規,0,2023-07-07,2023-07-07,株式会社コレクトプラン,,株式会社,栃木県,宇都宮市,下砥上町１５５２番地３,,09,201,3200852,,,,,,,2023-07-07,1,,,,,コレクトプラン,0
696,3060003004634,新規,0,2023-07-07,2023-07-07,合同会社Ｌｉｅｎ,,合同会社,栃木県,宇都宮市,ゆいの杜７丁目３０番２１号,,09,201,3213226,,,,,,,2023-07-07,1,,,,,リアン,0
715,3080101024103,新規,0,2023-07-07,2023-07-07,株式会社ＧＡＤ,,株式会社,静岡県,伊豆市,上白岩４６３番地の１,,22,222,4102502,,,,,,,2023-07-07,1,,,,,ジーエーディー,0
725,3100001036567,新規,0,2023-07-07,2023-07-07,株式会社おこめカンパニー,,株式会社,長野県,松本市,大字寿豊丘２２１番地１,,20,202,3990021,,,,,,,2023-07-07,1,,,,,オコメカンパニー,0
729,3100003007079,新規,0,2023-07-07,2023-07-07,合同会社根岸商事,,合同会社,長野県,長野市,松岡２丁目２２番２３号,,20,201,3810026,,,,,,,2023-07-07,1,,,,,ネギシショウジ,0
730,3100003007095,新規,0,2023-07-07,2023-07-07,合同会社ｔｒｅｎｔｏｔｔｏ３８,,合同会社,長野県,上高井郡高山村,大字高井４３１１番地１,,20,543,3820800,,,,,,,2023-07-07,1,,,,,トレントットサンジュウハチ,0
744,3120001256155,新規,0,2023-07-07,2023-07-07,久明株式会社,,株式会社,大阪府,大阪市西淀川区,御幣島６丁目１６番１７号１Ｆ,,27,113,5550012,,,,,,,2023-07-07,1,,,,,キュウメイ,0
748,3120005023709,新規,0,2023-07-07,2023-07-07,グリーンハイツ十三管理組合法人,,その他の設立登記法人,大阪府,大阪市淀川区,十三本町３丁目６番２７号,,27,123,5320024,,,,,,,2023-07-07,1,,,,,グリーンハイツジュウソウ,0
749,3120005023717,新規,0,2023-07-07,2023-07-07,行政書士法人ＴＳＵＮＡＩＬＥ　ＰＡＲＴＮＥＲＳ,,その他の設立登記法人,大阪府,大阪市中央区,今橋２丁目３番２１号今橋藤浪ビル４階,,27,128,5410042,,,,,,,2023-07-07,1,,,,,ツナイルパートナーズ,0
755,3130001074663,新規,0,2023-07-07,2023-07-07,株式会社Ｈｏｎｄａ・ＧＳ　Ｙｕａｓａ　ＥＶ　Ｂａｔｔｅｒｙ　Ｒ＆Ｄ,,株式会社,京都府,京都市南区,吉祥院西ノ庄猪之馬場町１番地,,26,107,6018310,,,,,,,2023-07-07,1,,,,,ホンダジーエスユアサイーブイバッテリーアールアンドディー,0
756,3130003008834,新規,0,2023-07-07,2023-07-07,合同会社ＴｅｅＥｓ,,合同会社,京都府,京田辺市,田辺中央３丁目３番地９シークビル３階,,26,211,6100334,,,,,,,2023-07-07,1,,,,,ティーエス,0
762,3140001130787,新規,0,2023-07-07,2023-07-07,ＪｕｓｔＣｕｂｅ株式会社,,株式会社,兵庫県,神戸市東灘区,御影２丁目２１－９,,28,101,6580047,,,,,,,2023-07-07,1,,,,,ジャストキューブ,0
767,3160001025151,新規,0,2023-07-07,2023-07-07,株式会社ＦＬＥＸ,,株式会社,滋賀県,大津市,大将軍３丁目１０番１２号ホワイトレーク１０３,,25,201,5202145,,,,,,,2023-07-07,1,,,,,フレックス,0
769,3170001017676,新規,0,2023-07-07,2023-07-07,株式会社ＲＲＯＳＥ,,株式会社,和歌山県,和歌山市,つつじが丘６丁目５番地９,,30,201,6400115,,,,,,,2023-07-07,1,,,,,ダブルローズ,0
773,3180001157050,新規,0,2023-07-07,2023-07-07,ＤｅｅＮ　Ｔｅｃｈｎｏｌｏｇｙ株式会社,,株式会社,愛知県,名古屋市中区,千代田３丁目１－７,,23,106,4600012,,,,,,,2023-07-07,1,,,,,ディーンテクノロジー,0
777,3180003025437,新規,0,2023-07-07,2023-07-07,合同会社ＹＵ,,合同会社,愛知県,名古屋市中村区,塩池町３丁目９番１号,,23,105,4530032,,,,,,,2023-07-07,1,,,,,ワイユー,0
778,3180003025445,新規,0,2023-07-07,2023-07-07,合同会社信和クリーニング,,合同会社,愛知県,海部郡大治町,大字八ツ屋字山畔７０番地の１,,23,424,4901133,,,,,,,2023-07-07,1,,,,,シンワクリーニング,0
782,3180305009492,新規,0,2023-07-07,2023-07-07,一般社団法人岡崎空き家管理協会,,その他の設立登記法人,愛知県,岡崎市,根石町３２番地,,23,202,4440013,,,,,,,2023-07-07,1,,,,,オカザキアキヤカンリキョウカイ,0
790,3200001041425,新規,0,2023-07-07,2023-07-07,株式会社橋本葬祭,,株式会社,岐阜県,可児市,下恵土１丁目１６番地,,21,214,5090209,,,,,,,2023-07-07,1,,,,,ハシモトソウサイ,0
797,3220003003545,新規,0,2023-07-07,2023-07-07,ペンギンキックス合同会社,,合同会社,石川県,金沢市,西金沢３丁目４１４番地２号,,17,201,9218054,,,,,,,2023-07-07,1,,,,,ペンギンキックス,0
802,3240001061766,新規,0,2023-07-07,2023-07-07,株式会社ＭＬＴ,,株式会社,広島県,福山市,駅家町大字坊寺２１４番地１,,34,207,7201144,,,,,,,2023-07-07,1,,,,,エムエルティー,0
811,3260003004358,新規,0,2023-07-07,2023-07-07,合同会社芳賀霊苑管理事務所,,合同会社,岡山県,岡山市北区,芳賀３８１９番地１,,33,101,7011221,,,,,,,2023-07-07,1,,,,,ハガレイエンカリジムショ,0
812,3280001008986,新規,0,2023-07-07,2023-07-07,株式会社ＳＡＩＤＯ,,株式会社,島根県,松江市,殿町５８番地古井ビル２Ｆ,,32,201,6900887,,,,,,,2023-07-07,1,,,,,サイド,0
815,3280003001741,新規,0,2023-07-07,2023-07-07,ハーモニックフィールド合同会社,,合同会社,島根県,出雲市,今市町３９６‐３シーエスエービル３Ｆ,,32,203,6930001,,,,,,,2023-07-07,1,,,,,ハーモニックフィールド,0
816,3290001102128,新規,0,2023-07-07,2023-07-07,株式会社樂都ソーティング,,株式会社,福岡県,福岡市博多区,美野島３丁目８－１美野島シティビル２０２,,40,132,8120017,,,,,,,2023-07-07,1,,,,,,0
817,3290001102193,新規,0,2023-07-07,2023-07-07,株式会社壯和,,株式会社,福岡県,福岡市中央区,荒戸１丁目１１番１０ー３０２号,,40,133,8100062,,,,,,,2023-07-07,1,,,,,ソウワ,0
818,3290001102202,新規,0,2023-07-07,2023-07-07,株式会社十全不動産,,株式会社,福岡県,福岡市南区,市崎１丁目２番８－１５５号,,40,134,8150084,,,,,,,2023-07-07,1,,,,,ジュウゼンフドウサン,0
821,3290002035599,新規,0,2023-07-07,2023-07-07,有限会社市来製作所,,有限会社,福岡県,古賀市,今の庄３丁目１番１７号,,40,223,8113117,,,,,,,2023-07-07,1,,,,,,0
825,3290801029677,新規,0,2023-07-07,2023-07-07,株式会社豊月コーポレーション,,株式会社,福岡県,田川市,大字伊田５１０番地,,40,206,8250002,,,,,,,2023-07-07,1,,,,,トヨツキコーポレーション,0
828,3290803004455,新規,0,2023-07-07,2023-07-07,合同会社ケアプランセンター倫,,合同会社,福岡県,北九州市小倉南区,湯川新町２丁目１－９,,40,107,8000256,,,,,,,2023-07-07,1,,,,,ケアプランセンターリン,0
829,3300001013356,新規,0,2023-07-07,2023-07-07,ＮＥＯ　ＡＳＩＡ　ＪＡＰＡＮ株式会社,,株式会社,佐賀県,佐賀市,多布施４丁目１番４５号,,41,201,8400842,,,,,,,2023-07-07,1,,,,,ネオアジアジャパン,0
830,3300003001986,新規,0,2023-07-07,2023-07-07,佳佳食品合同会社,,合同会社,佐賀県,佐賀市,新郷本町４番２２号,,41,201,8400017,,,,,,,2023-07-07,1,,,,,ヨシヨシショクヒン,0
835,3330001031009,新規,0,2023-07-07,2023-07-07,津浦ゴルフアリーナ株式会社,,株式会社,熊本県,熊本市北区,津浦町３１番１号,,43,105,8600088,,,,,,,2023-07-07,1,,,,,ツウラゴルフアリーナ,0
836,3330001031017,新規,0,2023-07-07,2023-07-07,東祈株式会社,,株式会社,熊本県,熊本市中央区,下通１丁目３番８号下通ＮＳビル６Ｆ,,43,101,8600807,,,,,,,2023-07-07,1,,,,,,0
837,3330001031033,新規,0,2023-07-07,2023-07-07,株式会社Ｒｅ　ｒｏｏｍ,,株式会社,熊本県,熊本市北区,植木町上古閑７８‐４,,43,105,8610152,,,,,,,2023-07-07,1,,,,,リルーム,0
838,3330001031041,新規,0,2023-07-07,2023-07-07,株式会社ＯＫＩＫＵＭＡ,,株式会社,熊本県,熊本市東区,健軍１丁目３７番６号,,43,102,8620911,,,,,,,2023-07-07,1,,,,,オキクマ,0
839,3330003009903,新規,0,2023-07-07,2023-07-07,合同会社天青,,合同会社,熊本県,熊本市中央区,神水本町８番２５号,,43,101,8620955,,,,,,,2023-07-07,1,,,,,テンセイ,0
842,3340003004176,新規,0,2023-07-07,2023-07-07,合同会社カーモス,,合同会社,鹿児島県,鹿児島市,和田２丁目３３番１２号,,46,201,8910143,,,,,,,2023-07-07,1,,,,,カーモス,0
843,3350001018433,新規,0,2023-07-07,2023-07-07,株式会社テクノエンジニアリング,,株式会社,宮崎県,宮崎市,大字新名爪字谷廻４０９０番地１４,,45,201,8800124,,,,,,,2023-07-07,1,,,,,テクノエンジニアリング,0
845,3370003006186,新規,0,2023-07-07,2023-07-07,合同会社カノンコーポレーション,,合同会社,宮城県,多賀城市,八幡３丁目１３番１６号,,04,209,9850874,,,,,,,2023-07-07,1,,,,,カノンコーポレーション,0
846,3370003006194,新規,0,2023-07-07,2023-07-07,合同会社庄司ハイツ,,合同会社,宮城県,仙台市宮城野区,東仙台１丁目６番２７号,,04,102,9830833,,,,,,,2023-07-07,1,,,,,ショウジハイツ,0
851,3380001033834,新規,0,2023-07-07,2023-07-07,株式会社Ｚｅｒｏ　Ｐｌｕｓ,,株式会社,福島県,会津若松市,西七日町３番３号,,07,202,9650045,,,,,,,2023-07-07,1,,,,,ゼロプラス,0
875,3460001005809,新規,0,2023-07-07,2023-07-07,株式会社ＮＥ,,株式会社,北海道,川上郡弟子屈町,泉３丁目１３番１４号,,01,665,0883212,,,,,,,2023-07-07,1,,,,,エヌイー,0
876,3460301005161,新規,0,2023-07-07,2023-07-07,株式会社ＨＯＰＰＯ　Ｖｉｓｉｏｎａｒｙ,,株式会社,北海道,北見市,北一条西１丁目１６番地ＳｔｕｄｙＳｐａｃｅ１０１ビル,,01,208,0900041,,,,,,,2023-07-07,1,,,,,ホッポウビジョナリー,0
877,3470001019700,新規,0,2023-07-07,2023-07-07,株式会社ＧＩＦＴ,,株式会社,香川県,丸亀市,田村町１７８０番地１,,37,202,7630071,,,,,,,2023-07-07,1,,,,,ギフト,0
879,3500001025042,新規,0,2023-07-07,2023-07-07,株式会社リーフスタイル管理,,株式会社,愛媛県,新居浜市,上原３丁目８－４５,,38,205,7920046,,,,,,,2023-07-07,1,,,,,,0
880,3500001025050,新規,0,2023-07-07,2023-07-07,イチコウ株式会社,,株式会社,愛媛県,松山市,北斎院町９４４番地アルカンシェルＡ１０１号,,38,201,7918031,,,,,,,2023-07-07,1,,,,,イチコウ,0
884,3700150118295,新規,0,2023-07-07,2023-07-07,ｄｏｎｇｇｕａｎｓｈｉ　ｃｈｕａｎｇｓｈｉｄａｉｊｉｓｈｕ　ｙｏｕｘｉａｎｇｏｎｇｓｉ,,外国会社等,,,,,,,,ｄｏｎｇｃｈｅｎｇｊｉｅｄａｏｇｕａｎｌｏｎｇｌｕｄｏｎｇｃｈｅｎｇｄｕａｎ７８ｈａｏ　３ｄｏｎｇ　３３５５ｓｈｉ　ｄｏｎｇｇｕａｎｓｈｉ　ｄｏｎｇｃｈｅｎｇｑｕ　ｇｕａｎｇｄｏｎｇｓｈｅｎｇ　５１８０５５ＣＮ,,,,,,2023-07-07,1,,,,,ドングアンシチュアンシダイジシュユウゲンコウシ,0
885,3700150118304,新規,0,2023-07-07,2023-07-07,Ｓｈｅｎｚｈｅｎ　Ｌｕｚｈｉｙｉｎ　Ｋｅｊｉ　Ｙｏｕｘｉａｎ　Ｇｏｎｇｓｉ,,外国会社等,,,,,,,,２０１，Ｂｕｉｌｄｉｎｇ　１３，Ｄａｙｕｎ　Ｓｏｆｔｗａｒｅ　Ｔｏｗｎ，８２８８，Ｌｏｎｇｇａｎｇ　Ａｖｅｎｕｅ　Ｈｅａｏ　Ｃｏｍｍｕｎｉｔｙ，Ｙｕａｎｓｈａｎ　Ｓｔｒｅｅｔ，Ｌｏｎｇｇａｎｇ　Ｄｉｓｔｒｉｃｔ　Ｓｈｅｎｚｈｅｎ　Ｇｕａｎｇｄｏｎｇ　０７５５－５１８０００　ＣＮ,,,,,,2023-07-07,1,,,,,シェンジェンルジーインカージヨウシェンゴンスー,0
886,3700150118312,新規,0,2023-07-07,2023-07-07,Ｑｕａｎｚｈｏｕ　ＳｕＢｅｎ　Ｓｕｐｐｌｙ　Ｃｈａｉｎ　Ｃｏ．，ＬＴＤ．,,外国会社等,,,,,,,,Ｒｍ．１５０４，９　ｂｕｉｌｄ，Ｘｉａｎｄｅ　Ｑｕａｔｅｒ，Ｎｏ．１８，Ｘｉａｘｕ　Ｌａｎｅ　Ｈａｉｄｏｎｇ　Ｃｏｍｍｕｎｉｔｙ，Ａｎｈａｉ　Ｔｏｗｎ，Ｊｉｎｊｉａｎｇ　Ｃｉｔｙ　Ｑｕａｎｚｈｏｕ　Ｃｉｔｙ　Ｆｕｊｉａｎ　Ｐｒｏｖｉｎｃｅ　３６２２００　ＣＮ,,,,,,2023-07-07,1,,,,,ツェンゾォウスベンサプライチェインカンパニーリミテッド,0
887,3700150118337,新規,0,2023-07-07,2023-07-07,ＳｈｅｎＺｈｅｎ　ＧｉｎｇＹｉ　Ｅ－Ｂｕｓｉｎｅｓｓ　Ｃｏ．Ｌｔｄ．,,外国会社等,,,,,,,,ＲＭ５０３，ＢａｉＷａｎｇ　Ｒ＆Ｄ　Ｂｕｉｌｄｉｎｇ，Ｎｏ５１６８，ＳｈａＨｅ　Ｗｅｓｔ　Ｒｏａｄ，ＸｉＬｉ，Ｎａｎｓｈａｎ　ｄｉｓｔｒｉｃｔ　ＳｈｅｎＺｈｅｎ　ＧｕａｎｇＤｏｎｇ　ＣＮ,,,,,,2023-07-07,1,,,,,シンセンジンイイービジネスカンパニーリミテッド,0
888,3700150118345,新規,0,2023-07-07,2023-07-07,ｎｉｎｇｂｏｄｏｎｇｃｈｅｎｇｍａｏｙｉｙｏｕｘｉａｎｇｏｎｇｓｉ,,外国会社等,,,,,,,,ｚｈｅｊｉａｎｇ　ｎｉｎｇｂｏ　ｂａｏｓｈｕｉｑｕ　ｘｉｎｇｙｅｄａｄａｏ　２－Ａ８１２ｓｈｉ,,,,,,2023-07-07,1,,,,,ニンボードンチョンマオイーヨウシエンゴンスー,0
889,3700150118353,新規,0,2023-07-07,2023-07-07,ｆｕｚｈｏｕｘｉｎｇｇｕａｎｇｓｈａｎｓｈａｎｍａｏｙｉｙｏｕｘｉａｎｇｏｎｇｓｉ,,外国会社等,,,,,,,,ｆｕｊｉａｎｓｈｅｎｇｆｕｚｈｏｕｓｈｉｆｕｑｉｎｇｓｈｉｈｏｎｇｌｕｊｉｅｄａｏｚｈｏｎｇｌｉａｎｃｈｅｎｇ３ｈａｏｌｏｕ１２０１ｓｈｉ,,,,,,2023-07-07,1,,,,,フクシユウスターライトトレーデイングカンパニーリミテツド,0
895,4010001236621,新規,0,2023-07-07,2023-07-07,株式会社ｋ‐ｃｌｅｉｖｅ,,株式会社,東京都,文京区,本駒込６丁目１５－９フォレスタ六義園４Ｆ,,13,105,1130021,,,,,,,2023-07-07,1,,,,,ケイクレイブ,0
896,4010001236679,新規,0,2023-07-07,2023-07-07,銀和株式会社,,株式会社,東京都,中央区,日本橋茅場町３丁目７番１１号,,13,102,1030025,,,,,,,2023-07-07,1,,,,,ギンワ,0
897,4010001236695,新規,0,2023-07-07,2023-07-07,Ｗｅｌｌｅｌｌ　Ｊａｐａｎ株式会社,,株式会社,東京都,文京区,本郷３丁目４２番５号,,13,105,1130033,,,,,,,2023-07-07,1,,,,,ウェルエルジャパン,0
900,4010005036902,新規,0,2023-07-07,2023-07-07,一般社団法人ＳＳ,,その他の設立登記法人,東京都,千代田区,丸の内３丁目１番１号東京共同会計事務所内,,13,101,1000005,,,,,,,2023-07-07,1,,,,,エスエス,0
906,4010401175378,新規,0,2023-07-07,2023-07-07,株式会社アルファスコープ,,株式会社,東京都,港区,新橋２丁目２０－１５,,13,103,1050004,,,,,,,2023-07-07,1,,,,,アルファスコープ,0
907,4010401175485,新規,0,2023-07-07,2023-07-07,日の出１０号株式会社,,株式会社,東京都,港区,海岸１丁目７番１号,,13,103,1050022,,,,,,,2023-07-07,1,,,,,ヒノデジュウゴウ,0
908,4010401175568,新規,0,2023-07-07,2023-07-07,株式会社ワインベスト,,株式会社,東京都,港区,六本木４丁目１２番１２号,,13,103,1060032,,,,,,,2023-07-07,1,,,,,ワインベスト,0
910,4010403030432,新規,0,2023-07-07,2023-07-07,合同会社リディーム,,合同会社,東京都,港区,赤坂４丁目２番３号,,13,103,1070052,,,,,,,2023-07-07,1,,,,,リディーム,0
913,4010601063341,新規,0,2023-07-07,2023-07-07,Ｃｒｏｗｎ　Ｔｅｃｈｎｏｌｏｇｉｅｓ　Ｊａｐａｎ株式会社,,株式会社,東京都,墨田区,横川１丁目１６－３,,13,107,1300003,,,,,,,2023-07-07,1,,,,,クラウンテクノロジーズジャパン,0
914,4010601063390,新規,0,2023-07-07,2023-07-07,株式会社ＢＡＩ,,株式会社,東京都,墨田区,錦糸１丁目７番９号江上ビル１０１,,13,107,1300013,,,,,,,2023-07-07,1,,,,,ビーエーアイ,0
917,4010701044547,新規,0,2023-07-07,2023-07-07,株式会社野の葉,,株式会社,東京都,品川区,平塚２丁目１番１号,,13,109,1420051,,,,,,,2023-07-07,1,,,,,ノノハ,0
920,4010801034126,新規,0,2023-07-07,2023-07-07,株式会社拓進防水工業,,株式会社,東京都,大田区,中馬込１丁目１５番２３号マンションホワイトバレー１Ｆ,,13,111,1430027,,,,,,,2023-07-07,1,,,,,タクシンボウスイコウギョウ,0
922,4010901053331,新規,0,2023-07-07,2023-07-07,ＨＫＯ．ｄｅｓｉｇｎ株式会社,,株式会社,東京都,世田谷区,池尻３丁目１７－４－２０１,,13,112,1540001,,,,,,,2023-07-07,1,,,,,エイチケーオーデザイン,0
923,4010901053380,新規,0,2023-07-07,2023-07-07,経営デザインコンサルティングオフィス株式会社,,株式会社,東京都,世田谷区,祖師谷１丁目３２番５号,,13,112,1570072,,,,,,,2023-07-07,1,,,,,ケイエイデザインコンサルティングオフィス,0
925,4010903008300,新規,0,2023-07-07,2023-07-07,萬聖合同会社,,合同会社,東京都,世田谷区,経堂４丁目３６番６号,,13,112,1560052,,,,,,,2023-07-07,1,,,,,マンセイ,0
929,4011001155464,新規,0,2023-07-07,2023-07-07,株式会社Ｇｌｕｃｋ,,株式会社,東京都,目黒区,青葉台１丁目２９－６ライオンズマンション中目黒２０５,,13,110,1530042,,,,,,,2023-07-07,1,,,,,グリュック,0
930,4011001155514,新規,0,2023-07-07,2023-07-07,株式会社ｅｌｅｖｅｎ,,株式会社,東京都,渋谷区,渋谷２丁目２１番１号,,13,113,1500002,,,,,,,2023-07-07,1,,,,,イレブン,0
931,4011003017126,新規,0,2023-07-07,2023-07-07,３Ｒメディカルデバイス合同会社,,合同会社,東京都,渋谷区,渋谷２丁目１９－１５宮益坂ビルディング６０９,,13,113,1500002,,,,,,,2023-07-07,1,,,,,スリーアールメディカルデバイス,0
936,4011101103496,新規,0,2023-07-07,2023-07-07,株式会社アートプライス,,株式会社,東京都,新宿区,西早稲田１丁目１３番１２号,,13,104,1690051,,,,,,,2023-07-07,1,,,,,アートプライス,0
937,4011101103513,新規,0,2023-07-07,2023-07-07,株式会社一穂,,株式会社,東京都,新宿区,新宿６丁目２９番３－８階,,13,104,1600022,,,,,,,2023-07-07,1,,,,,イチホ,0
939,4011103013215,新規,0,2023-07-07,2023-07-07,合同会社ＧＲＡＣＥ,,合同会社,東京都,新宿区,大久保２丁目１７番１７号,,13,104,1690072,,,,,,,2023-07-07,1,,,,,グレイス,0
940,4011103013223,新規,0,2023-07-07,2023-07-07,Ｌｅｉｚｅ合同会社,,合同会社,東京都,新宿区,高田馬場２丁目１６番２号土屋ビル５Ｆ,,13,104,1690075,,,,,,,2023-07-07,1,,,,,レイズ,0
945,4011303004823,新規,0,2023-07-07,2023-07-07,合同会社ＰＲＯ,,合同会社,東京都,杉並区,和泉１丁目３３番１８－１０１号ルクレ代田橋,,13,115,1680063,,,,,,,2023-07-07,1,,,,,プロ,0
947,4011401025250,新規,0,2023-07-07,2023-07-07,綿菓子旅行株式会社,,株式会社,東京都,板橋区,板橋２丁目９－９－５０２,,13,119,1730004,,,,,,,2023-07-07,1,,,,,ワタガシリョコウ,0
951,4011801042639,新規,0,2023-07-07,2023-07-07,株式会社ヒューマンサポート探偵事務所,,株式会社,東京都,足立区,日ノ出町３５番１３号デュエット北千住マキア１０７,,13,121,1200021,,,,,,,2023-07-07,1,,,,,ヒューマンサポートタンテイジムショ,0
952,4011801042655,新規,0,2023-07-07,2023-07-07,株式会社Ｔ．Ｌ,,株式会社,東京都,葛飾区,亀有２丁目６８番５号,,13,122,1250061,,,,,,,2023-07-07,1,,,,,,0
953,4011801042671,新規,0,2023-07-07,2023-07-07,株式会社ＢＹＨ,,株式会社,東京都,足立区,小台１丁目１６番１２－２０５号,,13,121,1200046,,,,,,,2023-07-07,1,,,,,ビーワイエイチ,0
954,4012301013510,新規,0,2023-07-07,2023-07-07,株式会社スガイ工務店,,株式会社,東京都,町田市,三輪町４１８番地５,,13,209,1950054,,,,,,,2023-07-07,1,,,,,スガイコウムテン,0
960,4013301051013,新規,0,2023-07-07,2023-07-07,株式会社コレカラ,,株式会社,東京都,豊島区,目白４丁目１２－３イントランス目白ヒルズ２０１,,13,116,1710031,,,,,,,2023-07-07,1,,,,,コレカラ,0
971,4020001152272,新規,0,2023-07-07,2023-07-07,株式会社柏原剛,,株式会社,神奈川県,横浜市都筑区,富士見が丘６番１号,,14,118,2240051,,,,,,,2023-07-07,1,,,,,カシハラツヨシ,0
972,4020001152438,新規,0,2023-07-07,2023-07-07,株式会社Ｔｈｒｅｅ　Ａｉｒｓ,,株式会社,神奈川県,横浜市港北区,菊名６丁目１９番１５号第二齋藤荘１０３,,14,109,2220011,,,,,,,2023-07-07,1,,,,,スリーエアーズ,0
974,4020003024164,新規,0,2023-07-07,2023-07-07,ＧＴＬＡ合同会社,,合同会社,神奈川県,川崎市高津区,久地１丁目１番２８号,,14,134,2130032,,,,,,,2023-07-07,1,,,,,ジーティーエルエー,0
975,4020003024172,新規,0,2023-07-07,2023-07-07,合同会社テックインフィニティ,,合同会社,神奈川県,横浜市西区,北幸１丁目１１番１号水信ビル７階,,14,103,2200004,,,,,,,2023-07-07,1,,,,,テックインフィニティ,0
977,4021001079506,新規,0,2023-07-07,2023-07-07,ｅｃｒｉ株式会社,,株式会社,神奈川県,鎌倉市,稲村ガ崎５丁目３０番５号,,14,204,2480024,,,,,,,2023-07-07,1,,,,,エクリ,0
979,4021003013289,新規,0,2023-07-07,2023-07-07,合同会社ケーアシスト,,合同会社,神奈川県,相模原市中央区,相模原４丁目４番２３－９０２号,,14,152,2520231,,,,,,,2023-07-07,1,,,,,ケーアシスト,0
986,4030001154763,新規,0,2023-07-07,2023-07-07,株式会社実興業,,株式会社,埼玉県,児玉郡神川町,大字下阿久原１１９番地,,11,383,3670311,,,,,,,2023-07-07,1,,,,,ミノルコウギョウ,0
987,4030001154805,新規,0,2023-07-07,2023-07-07,株式会社シャインプレイス,,株式会社,埼玉県,さいたま市緑区,東浦和２丁目４８番地３,,11,109,3360926,,,,,,,2023-07-07,1,,,,,シャインプレイス,0
988,4030001154838,新規,0,2023-07-07,2023-07-07,株式会社浪漫,,株式会社,埼玉県,坂戸市,三光町４９番地１３グリーンエイト坂戸５０３号室,,11,239,3500235,,,,,,,2023-07-07,1,,,,,ロマン,0
989,4030003022092,新規,0,2023-07-07,2023-07-07,合同会社ＥＫＩＴ,,合同会社,埼玉県,さいたま市緑区,大字三室９８０番地２２,,11,109,3360911,,,,,,,2023-07-07,1,,,,,イーキット,0
997,4040001129095,新規,0,2023-07-07,2023-07-07,ＮＴプランニング株式会社,,株式会社,千葉県,浦安市,美浜４丁目５番１号,,12,227,2790011,,,,,,,2023-07-07,1,,,,,エヌティプランニング,0
998,4040001129104,新規,0,2023-07-07,2023-07-07,株式会社Ｄｕｖａ,,株式会社,千葉県,鴨川市,東町１４５８番地２エムワールドコーポ１－Ｂ,,12,223,2960041,,,,,,,2023-07-07,1,,,,,ドユーヴア,0
999,4040001129112,新規,0,2023-07-07,2023-07-07,株式会社モア,,株式会社,千葉県,松戸市,胡録台３３１番地の１,,12,207,2710075,,,,,,,2023-07-07,1,,,,,モア,0
1000,4040001129120,新規,0,2023-07-07,2023-07-07,使えるニュース株式会社,,株式会社,千葉県,市川市,中国分５丁目１１番６号,,12,203,2720835,,,,,,,2023-07-07,1,,,,,ツカエルニュース,0
1001,4040001129129,新規,0,2023-07-07,2023-07-07,株式会社ククナ,,株式会社,千葉県,市川市,行徳駅前１丁目２１番１号,,12,203,2720133,,,,,,,2023-07-07,1,,,,,ククナ,0
1002,4040001129145,新規,0,2023-07-07,2023-07-07,株式会社白龍建設,,株式会社,千葉県,印西市,竹袋１７５５番地２２,,12,231,2701325,,,,,,,2023-07-07,1,,,,,ハクリュウケンセツ,0
1005,4040003022901,新規,0,2023-07-07,2023-07-07,合同会社日幸,,合同会社,千葉県,船橋市,前原西６丁目６番４０－２０５号,,12,204,2740825,,,,,,,2023-07-07,1,,,,,ニッコウ,0
1006,4040003022926,新規,0,2023-07-07,2023-07-07,トライボロジーサービス合同会社,,合同会社,千葉県,市原市,ちはら台東２丁目２－１３,,12,219,2900141,,,,,,,2023-07-07,1,,,,,トライボロジーサービス,0
1008,4050001053096,新規,0,2023-07-07,2023-07-07,株式会社ＥｕｒｏＧａｒａｇｅ,,株式会社,茨城県,小美玉市,張星４９７番地１７,,08,236,3190133,,,,,,,2023-07-07,1,,,,,ユーロガレージ,0
1014,4060001036141,新規,0,2023-07-07,2023-07-07,株式会社ｒｏｏｔ６４,,株式会社,栃木県,宇都宮市,中央２丁目５番１２号,,09,201,3200806,,,,,,,2023-07-07,1,,,,,ルートロクジュウヨン,0
1017,4070001040605,新規,0,2023-07-07,2023-07-07,株式会社Ｍ’ｓ,,株式会社,群馬県,安中市,安中２丁目１１番２３号,,10,211,3790116,,,,,,,2023-07-07,1,,,,,エムズ,0
1018,4070001040613,新規,0,2023-07-07,2023-07-07,陶舎夢わらべっこ株式会社,,株式会社,群馬県,前橋市,元総社町９４０番地１１,,10,201,3710846,,,,,,,2023-07-07,1,,,,,トウシャユメワラベッコ,0
1022,4080001025704,新規,0,2023-07-07,2023-07-07,株式会社Ｓｏｌａ,,株式会社,静岡県,島田市,横井３丁目２０番１７の２号,,22,209,4270024,,,,,,,2023-07-07,1,,,,,ソラ,0
1023,4080001025720,新規,0,2023-07-07,2023-07-07,株式会社ＷＩＮＧ,,株式会社,静岡県,静岡市葵区,人宿町２丁目１番地の２－８０１号,,22,101,4200037,,,,,,,2023-07-07,1,,,,,ウイング,0
1032,4080401026582,新規,0,2023-07-07,2023-07-07,ＡＣＥ　ＬＥＡＤＩＮＧ株式会社,,株式会社,静岡県,浜松市南区,寺脇町３７１番地の１,,22,134,4300841,,,,,,,2023-07-07,1,,,,,エースリーディング,0
1038,4110001037679,新規,0,2023-07-07,2023-07-07,株式会社ブレス,,株式会社,新潟県,新潟市中央区,美咲町１丁目４番１５号,,15,103,9500954,,,,,,,2023-07-07,1,,,,,ブレス,0
1042,4120001256212,新規,0,2023-07-07,2023-07-07,株式会社グロリオサ,,株式会社,大阪府,大阪市中央区,宗右衛門町１番１２号宗右衛門町セントラルビル４階Ｅ号室,,27,128,5420084,,,,,,,2023-07-07,1,,,,,グロリオサ,0
1043,4120001256286,新規,0,2023-07-07,2023-07-07,株式会社山屋,,株式会社,大阪府,守口市,佐太中町５丁目９番９号１０１号室,,27,209,5700002,,,,,,,2023-07-07,1,,,,,ヤマヤ,0
1044,4120001256360,新規,0,2023-07-07,2023-07-07,ＭＢＥ株式会社,,株式会社,大阪府,大阪市中央区,北浜東２番１６号千歳第２ビル２階,,27,128,5400031,,,,,,,2023-07-07,1,,,,,エムビーイー,0
1047,4120003024419,新規,0,2023-07-07,2023-07-07,合同会社Ｌ‐ｌｉｎｅ,,合同会社,大阪府,大阪市中央区,久太郎町１丁目３番７号カスタリア堺筋本町１１０８,,27,128,5410056,,,,,,,2023-07-07,1,,,,,エルライン,0
1048,4120003024435,新規,0,2023-07-07,2023-07-07,合同会社セキュア,,合同会社,大阪府,大阪市阿倍野区,阪南町３丁目２９番１号マンションささき１０２号,,27,119,5450021,,,,,,,2023-07-07,1,,,,,セキュア,0
1050,4120005023716,新規,0,2023-07-07,2023-07-07,一般社団法人日本食品安全健康協会,,その他の設立登記法人,大阪府,大阪市住之江区,西加賀屋２丁目３番２７－３０３号,,27,125,5590016,,,,,,,2023-07-07,1,,,,,ニホンショクヒンアンゼンケンコウキョウカイ,0
1055,4130001074621,新規,0,2023-07-07,2023-07-07,株式会社Ｂｅｌ　Ａｎｇｅ,,株式会社,京都府,八幡市,橋本新石１０番地６,,26,210,6148332,,,,,,,2023-07-07,1,,,,,ベルアンジュ,0
1056,4130001074638,新規,0,2023-07-07,2023-07-07,株式会社みやこホールディングス,,株式会社,京都府,京都市南区,上鳥羽南中ノ坪町４０番地,,26,107,6018188,,,,,,,2023-07-07,1,,,,,ミヤコホールディングス,0
1057,4130001074654,新規,0,2023-07-07,2023-07-07,株式会社石建,,株式会社,京都府,京丹後市,大宮町奥大野６００番地,,26,212,6292531,,,,,,,2023-07-07,1,,,,,イシケン,0
1058,4130001074679,新規,0,2023-07-07,2023-07-07,株式会社ポンティリンク,,株式会社,京都府,京都市中京区,紙屋町３６４－１－２Ｆ,,26,104,6048024,,,,,,,2023-07-07,1,,,,,ポンティリンク,0
1065,4140001130794,新規,0,2023-07-07,2023-07-07,株式会社清松,,株式会社,兵庫県,尼崎市,水堂町４丁目１８番１４号,,28,202,6610026,,,,,,,2023-07-07,1,,,,,セイショウ,0
1069,4180001156976,新規,0,2023-07-07,2023-07-07,株式会社よしだ,,株式会社,愛知県,名古屋市千種区,田代町字四観音道西１４番地１７,,23,101,4640052,,,,,,,2023-07-07,1,,,,,ヨシダ,0
1070,4180001157009,新規,0,2023-07-07,2023-07-07,大脇ランデックス株式会社,,株式会社,愛知県,名古屋市東区,筒井３丁目１８番１８号,,23,102,4610003,,,,,,,2023-07-07,1,,,,,オオワキランデックス,0
1071,4180001157017,新規,0,2023-07-07,2023-07-07,株式会社ＫｏＤｕｃｋＹａ,,株式会社,愛知県,名古屋市中区,大須４丁目２番５５号,,23,106,4600011,,,,,,,2023-07-07,1,,,,,コダックヤ,0
1074,4180003025444,新規,0,2023-07-07,2023-07-07,合同会社川江電設,,合同会社,愛知県,尾張旭市,狩宿新町２丁目５４番地２,,23,226,4880022,,,,,,,2023-07-07,1,,,,,カワエデンセツ,0
1076,4180005020278,新規,0,2023-07-07,2023-07-07,一般社団法人アスター,,その他の設立登記法人,愛知県,名古屋市中区,栄４丁目１４番６号,,23,106,4600008,,,,,,,2023-07-07,1,,,,,アスター,0
1079,4200005013502,新規,0,2023-07-07,2023-07-07,一般社団法人ＫＴ,,その他の設立登記法人,岐阜県,羽島郡岐南町,三宅８丁目１３７番地,,21,302,5016002,,,,,,,2023-07-07,1,,,,,ケイティ,0
1080,4210001019378,新規,0,2023-07-07,2023-07-07,株式会社いやしＳｔｕｄｉｏ,,株式会社,福井県,敦賀市,白銀町７－１５吉田ビル１階,,18,202,9140054,,,,,,,2023-07-07,1,,,,,イヤシスタジオ,0
1086,4260001038076,新規,0,2023-07-07,2023-07-07,株式会社あかつき,,株式会社,岡山県,倉敷市,下津井１丁目１６番１９号,,33,202,7110927,,,,,,,2023-07-07,1,,,,,アカツキ,0
1087,4260001038101,新規,0,2023-07-07,2023-07-07,株式会社ペスカ,,株式会社,岡山県,岡山市南区,藤田８８６番地１,,33,104,7010221,,,,,,,2023-07-07,1,,,,,ペスカ,0
1089,4280001008977,新規,0,2023-07-07,2023-07-07,フクダホールディングス株式会社,,株式会社,島根県,出雲市,斐川町沖洲１０８０番地,,32,203,6990551,,,,,,,2023-07-07,1,,,,,フクダホールディングス,0
1090,4290001102201,新規,0,2023-07-07,2023-07-07,株式会社アリコ,,株式会社,福岡県,福岡市中央区,天神３丁目１６番１５号サンヨービル７Ｆ,,40,133,8100001,,,,,,,2023-07-07,1,,,,,アリコ,0
1093,4290003014114,新規,0,2023-07-07,2023-07-07,合同会社サリーレ,,合同会社,福岡県,福岡市東区,下原３丁目２８番１６－２０４号,,40,131,8130002,,,,,,,2023-07-07,1,,,,,サリーレ,0
1097,4290801029676,新規,0,2023-07-07,2023-07-07,株式会社ｉｄｅａｔｅ,,株式会社,福岡県,北九州市小倉北区,紺屋町２番５号,,40,106,8020081,,,,,,,2023-07-07,1,,,,,アイディエイト,0
1103,4320001019870,新規,0,2023-07-07,2023-07-07,株式会社Ｊ‐ＬＩＮＥ,,株式会社,大分県,大分市,大字三佐７９３番１,,44,201,8700108,,,,,,,2023-07-07,1,,,,,ジェイライン,0
1104,4330001031024,新規,0,2023-07-07,2023-07-07,株式会社熊本ゴルフ倶楽部,,株式会社,熊本県,熊本市東区,新生２丁目２３番１８号,,43,102,8620908,,,,,,,2023-07-07,1,,,,,クマモトゴルフクラブ,0
1105,4330003009902,新規,0,2023-07-07,2023-07-07,合同会社ティール,,合同会社,熊本県,熊本市中央区,神水本町８番２５号,,43,101,8620955,,,,,,,2023-07-07,1,,,,,ティール,0
1109,4340001025702,新規,0,2023-07-07,2023-07-07,創信商事株式会社,,株式会社,鹿児島県,鹿児島市,西谷山１丁目１番２－３０７号,,46,201,8910117,,,,,,,2023-07-07,1,,,,,ソウシンショウジ,0
1112,4350001018432,新規,0,2023-07-07,2023-07-07,株式会社Ｔ・Ｅ・Ｃ,,株式会社,宮崎県,宮崎市,大字新名爪字谷廻４０９０番地１４,,45,201,8800124,,,,,,,2023-07-07,1,,,,,テック,0
1115,4370001050144,新規,0,2023-07-07,2023-07-07,株式会社Ｍテック川名,,株式会社,宮城県,多賀城市,伝上山３丁目２２番１３号,,04,209,9850872,,,,,,,2023-07-07,1,,,,,エムテックカワナ,0
1117,4370005010656,新規,0,2023-07-07,2023-07-07,税理士法人ＴＡＸＥＬ,,その他の設立登記法人,宮城県,仙台市青葉区,本町２丁目１４番２７号,,04,101,9800014,,,,,,,2023-07-07,1,,,,,タクセル,0
1120,4380003005509,新規,0,2023-07-07,2023-07-07,合同会社ＢＹＢＳコーチング,,合同会社,福島県,福島市,大森字石田２４番地の３,,07,201,9601101,,,,,,,2023-07-07,1,,,,,ビーワイビーエスコーチング,0
1127,4420001018326,新規,0,2023-07-07,2023-07-07,株式会社天間ファーム,,株式会社,青森県,上北郡七戸町,字中野８２番地２３,,02,402,0392826,,,,,,,2023-07-07,1,,,,,テンマファーム,0
1138,4470001019699,新規,0,2023-07-07,2023-07-07,株式会社花岡農産,,株式会社,香川県,仲多度郡まんのう町,真野１６５１番地１１,,37,406,7660025,,,,,,,2023-07-07,1,,,,,ハナオカノウサン,0
1140,4700150118294,新規,0,2023-07-07,2023-07-07,ｇｕａｎｇｚｈｏｕ　ｗｅｉｓｈｉｚｈｉｎｅｎｇｋｅｊｉ　ｙｏｕｘｉａｎｇｏｎｇｓｉ,,外国会社等,,,,,,,,Ｇｕａｎｇｄｏｎｇｓｈｅｎｇ，Ｇｕａｎｇｚｈｏｕｓｈｉ，Ｈｕａｄｕｑｕ，Ｘｉｎｈｕａｊｉｅｈｕｉｊｉｎｇｘｉｙｉｊｉｅ１ｈａｏ，１５２５ｓｈｉ　５１０８００　ＣＮ,,,,,,2023-07-07,1,,,,,グアンゾォウウェイシジネンケジユウゲンコウシ,0
1141,4700150118303,新規,0,2023-07-07,2023-07-07,ｎｉｎｇ　ｂｏ　ｙｕ　ｔａｉ　ｄｉａｎ　ｚｉ　ｓｈａｎｇ　ｗｕ　ｙｏｕ　ｘｉａｎ　ｇｏｎｇ　ｓｉ,,外国会社等,,,,,,,,Ｊｉａｎｇｂｅｉ　Ｄｉｓｔｒｉｃｔ　Ｒｏｏｍｓ　１７－１－１１，Ｂｕｉｌｄｉｎｇ　３，６７７，６８５，ａｎｄ　６８７　Ｃｈａｎｇｘｉｎｇ　Ｒｏａｄ　ｎｉｎｇｂｏ　ｚｈｅｊｉａｎｇ　３１５０３３　ＣＮ,,,,,,2023-07-07,1,,,,,ニンボーユィタイディエンズーシャンウヨウシェンゴンスー,0
1142,4700150118311,新規,0,2023-07-07,2023-07-07,ｎｉｎｇｂｏ　ｘｉｎｄｉｎｇｍａｏｙｉ　ｙｏｕｘｉａｎｇｏｎｇｓｉ,,外国会社等,,,,,,,,ｚｈｅｊｉａｎｇｓｈｅｎｇｚｈｕａｎｇｓｈｉｊｉｅｄａｏｔｏｎｇｘｉｎｌｕｎａｎｃｅｙｉｈａｏｌｕｘｉｃｅ　ｚｈｅｎｈａｉ　ｚｈｅｊｉａｎｇ,,,,,,2023-07-07,1,,,,,ニンボシンディンマオイユウゲンコウシ,0
1143,4700150118336,新規,0,2023-07-07,2023-07-07,Ｓｈｅｎｚｈｅｎｓｈｉ　Ｑｉｎｇｑｉｋｅｊｉ　ｙｏｕｘｉａｎｇｏｎｇｓｉ,,外国会社等,,,,,,,,Ｓｈｅｎｚｈｅｎｓｈｉ　Ｌｏｎｇｇａｎｇｑｕ　Ｎａｎｗａｎｊｉｅｄａｏ　Ｊｉｎｇｍｉｎｘｉｎｃｈｅｎｇ　Ｂ　Ｚｕｏ　１０２１　Ｓｈｅｎｚｈｅｎ　Ｇｕａｎｇｄｏｎｇ　ＣＮ,,,,,,2023-07-07,1,,,,,シンセンシチンチケジユウゲンコウシ,0
1144,4700150118344,新規,0,2023-07-07,2023-07-07,Ａｍｅｒｉｃａｎ　Ｇｏｏｄ　ｐａｒｔｎｅｒ　Ｓｐｏｒｔｓ　Ａｃｃｅｓｓｏｒｉｅｓ　ＩＮＣ,,外国会社等,,,,,,,,３６　Ｓｏｕｔｈ　１８ｔｈ　Ａｖｅｎｕｅ，Ｓｕｉｔｅ　Ａ，Ｂｒｉｇｈｔｏｎ　ＣＯ，８０６０１，Ｕｎｉｔｅｄ　Ｓｔａｔｅｓ,,,,,,2023-07-07,1,,,,,アメリカングッドパートナースポーツアクセサリーインク,0
1145,4700150118352,新規,0,2023-07-07,2023-07-07,Ｘｉａｍｅｎ　Ｌａｉｌｉａｎｇ　Ｅ－ｃｏｍｍｅｒｃｅ　Ｃｏ．，Ｌｔｄ．,,外国会社等,,,,,,,,Ｕｎｉｔ　１７０４－３，ＮＯ．８　Ｃｈｅｎｇｙｉ　Ｎｏｒｔｈ　Ｓｔ．，Ｐｈａｓｅ　３　ｏｆ　Ｓｏｆｔｗａｒｅ　Ｐａｒｋ，Ｘｉａｍｅｎ　３６１０２１　ＣＮ,,,,,,2023-07-07,1,,,,,アモイライリアンイーコマースカンパニーリミテツド,0
1146,4700150118369,新規,0,2023-07-07,2023-07-07,ｈａｎｇｚｈｏｕ　ｌｉｎｕｏｓｈｉｘｕｎｋｅｊｉ　ｙｏｕｘｉａｎｇｏｎｇｓｉ,,外国会社等,,,,,,,,ＷｕＣｈａｎｇＤａＤａｏ，１８１　ｈａｏ，８　ｚｈｕａｎｇ，５０１－４　ｓｈｉ　ＹｕＨａｎｇＱｕ　ＨａｎｇＺｈｏｕＳｈｉ　ＺｈｅＪｉａｎｇＳｈｅｎｇ　Ｃｈｉｎａ,,,,,,2023-07-07,1,,,,,ハンゾォウリンノシスゥンケジユウゲンコウシ,0
1150,5010001236546,新規,0,2023-07-07,2023-07-07,株式会社みつわ経営,,株式会社,東京都,中央区,日本橋本石町４丁目４番１２号,,13,102,1030021,,,,,,,2023-07-07,1,,,,,ミツワケイエイ,0
1153,5010003041052,新規,0,2023-07-07,2023-07-07,合同会社Ｄｅｅｐ　Ｄｅｓｉｇｎｅｒ,,合同会社,東京都,中央区,銀座１丁目２２番１１号銀座大竹ビジデンス２Ｆ,,13,102,1040061,,,,,,,2023-07-07,1,,,,,ディープデザイナー,0
1155,5010005036901,新規,0,2023-07-07,2023-07-07,一般社団法人フォーカルセラピージャパン,,その他の設立登記法人,東京都,中央区,銀座１丁目５番８号ＧｉｎｚａＷｉｌｌｏｗＡｖｅｎｕｅＢＬＤＧ８Ｆ,,13,102,1040061,,,,,,,2023-07-07,1,,,,,フォーカルセラピージャパン,0
1158,5010401175484,新規,0,2023-07-07,2023-07-07,日の出９号株式会社,,株式会社,東京都,港区,海岸１丁目７番１号,,13,103,1050022,,,,,,,2023-07-07,1,,,,,ヒノデキュウゴウ,0
1159,5010501050728,新規,0,2023-07-07,2023-07-07,株式会社Ｈ．Ｉ．Ｍ　ＣＲＡＦＴ,,株式会社,東京都,台東区,台東４丁目８番１号,,13,106,1100016,,,,,,,2023-07-07,1,,,,,ヒムクラフト,0
1163,5010601063381,新規,0,2023-07-07,2023-07-07,パーソルワークスイッチコンサルティング株式会社,,株式会社,東京都,江東区,豊洲３丁目２番２０号,,13,108,1350061,,,,,,,2023-07-07,1,,,,,パーソルワークスイッチコンサルティング,0
1169,5010703006759,新規,0,2023-07-07,2023-07-07,東五反田会計合同会社,,合同会社,東京都,品川区,東五反田１丁目１０番１１,,13,109,1410022,,,,,,,2023-07-07,1,,,,,ヒガシゴタンダカイケイ,0
1173,5010901053339,新規,0,2023-07-07,2023-07-07,ＬＡＺＯ．ＡＲＣＨＩＴＥＣＴＳ株式会社,,株式会社,東京都,世田谷区,南烏山６丁目２９番２号プラタナスタカサゴ４０１,,13,112,1570062,,,,,,,2023-07-07,1,,,,,ラソアーキテクツ,0
1174,5010901053355,新規,0,2023-07-07,2023-07-07,Ｏｈｍｉ株式会社,,株式会社,東京都,世田谷区,赤堤４丁目２－１０カーサベルデス２０５号室,,13,112,1560044,,,,,,,2023-07-07,1,,,,,オウミ,0
1175,5010903008290,新規,0,2023-07-07,2023-07-07,Ｔ・ＦＡＭＩＬＩＡＲ合同会社,,合同会社,東京都,世田谷区,松原６丁目３３番３－２０１号,,13,112,1560043,,,,,,,2023-07-07,1,,,,,ティファミリア,0
1176,5010903008299,新規,0,2023-07-07,2023-07-07,合同会社とと,,合同会社,東京都,世田谷区,松原４丁目３７番１９号,,13,112,1560043,,,,,,,2023-07-07,1,,,,,トト,0
1184,5011001155546,新規,0,2023-07-07,2023-07-07,株式会社ｃｌｕｔｃｈ,,株式会社,東京都,渋谷区,代々木１丁目２５番５号ＢＩＺＳＭＡＲＴ代々木,,13,113,1510053,,,,,,,2023-07-07,1,,,,,クラッチ,0
1185,5011001155554,新規,0,2023-07-07,2023-07-07,三和ファサード・ラボ株式会社,,株式会社,東京都,渋谷区,代々木３丁目２８番６号,,13,113,1510053,,,,,,,2023-07-07,1,,,,,サンワファサードラボ,0
1187,5011003017133,新規,0,2023-07-07,2023-07-07,Ｋｅｎｊｏ　Ｇｒｏｕｐ合同会社,,合同会社,東京都,渋谷区,広尾５丁目４番１２号大成鋼機ビル５階,,13,113,1500012,,,,,,,2023-07-07,1,,,,,ケンジョーグループ,0
1190,5011101103479,新規,0,2023-07-07,2023-07-07,株式会社ＫＥＥＰＷＩＮ,,株式会社,東京都,新宿区,西新宿３丁目２番７号,,13,104,1600023,,,,,,,2023-07-07,1,,,,,キープウィン,0
1191,5011101103487,新規,0,2023-07-07,2023-07-07,株式会社ＪＩＮＣＯＳＴＥＣＨ,,株式会社,東京都,新宿区,大久保２丁目２番１２号ＶＯＲＴ東新宿７０２号室,,13,104,1690072,,,,,,,2023-07-07,1,,,,,ジンコステック,0
1192,5011101103504,新規,0,2023-07-07,2023-07-07,株式会社ＴＨＩＮＫ　ｉ,,株式会社,東京都,新宿区,新宿１丁目３６番２号新宿第七葉山ビル３階,,13,104,1600022,,,,,,,2023-07-07,1,,,,,シンクアイ,0
1194,5011105010713,新規,0,2023-07-07,2023-07-07,社会保険労務士法人エミフル,,その他の設立登記法人,東京都,新宿区,西新宿１丁目１９番８号,,13,104,1600023,,,,,,,2023-07-07,1,,,,,エミフル,0
1197,5011301028848,新規,0,2023-07-07,2023-07-07,株式会社ＦＲＥＥＤ,,株式会社,東京都,杉並区,西荻北２丁目３０－１６,,13,115,1670042,,,,,,,2023-07-07,1,,,,,フリード,0
1207,5011801042662,新規,0,2023-07-07,2023-07-07,株式会社美装屋,,株式会社,東京都,葛飾区,東堀切１丁目１５番９－４０１号,,13,122,1240004,,,,,,,2023-07-07,1,,,,,ビソウヤ,0
1211,5012401040684,新規,0,2023-07-07,2023-07-07,ＳＨ‐ＲＤ　Ｂｅａｕｔｙ株式会社,,株式会社,東京都,武蔵野市,中町３丁目３番２－４０２室,,13,203,1800006,,,,,,,2023-07-07,1,,,,,エスエイチアルディビューティー,0
1219,5020001152387,新規,0,2023-07-07,2023-07-07,株式会社ゆうエステート,,株式会社,神奈川県,横浜市泉区,緑園３丁目４番地１１,,14,116,2450002,,,,,,,2023-07-07,1,,,,,ユウエステート,0
1220,5020001152404,新規,0,2023-07-07,2023-07-07,株式会社ｓｏｕ,,株式会社,神奈川県,横浜市青葉区,あざみ野南２丁目１－４－１１７,,14,117,2250012,,,,,,,2023-07-07,1,,,,,ソウ,0
1224,5021001079463,新規,0,2023-07-07,2023-07-07,株式会社ＳＯＵＬＮＯＴＥ,,株式会社,神奈川県,相模原市南区,相模大野５丁目３３番４号,,14,153,2520303,,,,,,,2023-07-07,1,,,,,ソウルノート,0
1225,5021001079505,新規,0,2023-07-07,2023-07-07,株式会社アキヤワークス,,株式会社,神奈川県,横須賀市,岩戸３丁目３６番１８号,,14,201,2390844,,,,,,,2023-07-07,1,,,,,アキヤワークス,0
1226,5021001079521,新規,0,2023-07-07,2023-07-07,プログレスファクトリー株式会社,,株式会社,神奈川県,茅ヶ崎市,東海岸南３丁目８－３１－２０３パークハイム茅ヶ崎東海岸南,,14,207,2530054,,,,,,,2023-07-07,1,,,,,プログレスファクトリー,0
1236,5030001154721,新規,0,2023-07-07,2023-07-07,株式会社ナルミ,,株式会社,埼玉県,新座市,石神５丁目５番３号,,11,230,3520033,,,,,,,2023-07-07,1,,,,,ナルミ,0
1237,5030001154820,新規,0,2023-07-07,2023-07-07,株式会社トウチュウカソウ,,株式会社,埼玉県,川口市,西川口１丁目２３番４号西川口ロイヤルビル５Ｂ,,11,203,3320021,,,,,,,2023-07-07,1,,,,,トウチュウカソウ,0
1244,5040001129094,新規,0,2023-07-07,2023-07-07,株式会社成光タイヤ商会,,株式会社,千葉県,八街市,八街い１８４番地８,,12,230,2891143,,,,,,,2023-07-07,1,,,,,セイコウタイヤショウカイ,0
1245,5040001129128,新規,0,2023-07-07,2023-07-07,株式会社新栄レヂボン,,株式会社,千葉県,船橋市,栄町２丁目４番地１４号１Ｆ,,12,204,2730018,,,,,,,2023-07-07,1,,,,,シンエイレヂボン,0
1246,5040001129136,新規,0,2023-07-07,2023-07-07,株式会社さかなドリーム,,株式会社,千葉県,館山市,湊４９３番地１９レアージュ館山オーシャンタワー１３０３,,12,205,2940054,,,,,,,2023-07-07,1,,,,,サカナドリーム,0
1248,5040003022900,新規,0,2023-07-07,2023-07-07,合同会社松永管理,,合同会社,千葉県,市川市,原木２丁目６番１７号,,12,203,2720004,,,,,,,2023-07-07,1,,,,,マツナガカンリ,0
1249,5040003022909,新規,0,2023-07-07,2023-07-07,ＥＹＥ　ＪＡＣＫ合同会社,,合同会社,千葉県,船橋市,芝山３丁目２９番２６－３０１号,,12,204,2740816,,,,,,,2023-07-07,1,,,,,アイジャック,0
1250,5040003022917,新規,0,2023-07-07,2023-07-07,沁舫商事合同会社,,合同会社,千葉県,市川市,南八幡４丁目６－４ＹＭＫ本八幡ビル３Ｆ,,12,203,2720023,,,,,,,2023-07-07,1,,,,,シンホウショウジ,0
1252,5050001053079,新規,0,2023-07-07,2023-07-07,スペースエントリー株式会社,,株式会社,茨城県,つくば市,小野川１２番地３５,,08,220,3050053,,,,,,,2023-07-07,1,,,,,スペースエントリー,0
1253,5050001053087,新規,0,2023-07-07,2023-07-07,株式会社Ｈ＆Ｒ貿易,,株式会社,茨城県,常総市,豊岡町乙１２３４番地１９－２Ｆ,,08,211,3030041,,,,,,,2023-07-07,1,,,,,エイチアンドアールボウエキ,0
1254,5050001053095,新規,0,2023-07-07,2023-07-07,株式会社ウララファーム,,株式会社,茨城県,土浦市,菅谷町１３０５番地１２,,08,203,3000021,,,,,,,2023-07-07,1,,,,,ウララファーム,0
1255,5060001036132,新規,0,2023-07-07,2023-07-07,株式会社ちびうま団,,株式会社,栃木県,栃木市,都賀町富張９９９番地１,,09,203,3280102,,,,,,,2023-07-07,1,,,,,チビウマダン,0
1260,5070005010140,新規,0,2023-07-07,2023-07-07,税理士法人福田会計,,その他の設立登記法人,群馬県,桐生市,東１丁目１３番３９号,,10,203,3760034,,,,,,,2023-07-07,1,,,,,フクダカイケイ,0
1261,5080001025703,新規,0,2023-07-07,2023-07-07,株式会社アイワクリエイツ,,株式会社,静岡県,静岡市葵区,伝馬町６番地の１,,22,101,4200858,,,,,,,2023-07-07,1,,,,,アイワクリエイツ,0
1269,5100003007093,新規,0,2023-07-07,2023-07-07,合同会社Ｆａｌｃｏｎ,,合同会社,長野県,上田市,上武石堀之内河原４５６－１,,20,203,3860508,,,,,,,2023-07-07,1,,,,,ファルコン,0
1276,5120001256211,新規,0,2023-07-07,2023-07-07,株式会社ＥＮＴＥＲ　ＴＨＥ　ＰＯＣＫＥＴ,,株式会社,大阪府,大阪市阿倍野区,旭町１丁目１番１７号サンビル３Ｆ,,27,119,5450051,,,,,,,2023-07-07,1,,,,,エンターザポケット,0
1277,5120001256277,新規,0,2023-07-07,2023-07-07,株式会社ＯｆｆＳｈｏｒｅ,,株式会社,大阪府,大阪市西区,南堀江３丁目９番１４号,,27,106,5500015,,,,,,,2023-07-07,1,,,,,オフショア,0
1282,5120003024426,新規,0,2023-07-07,2023-07-07,合同会社あさり,,合同会社,大阪府,大阪市浪速区,塩草３丁目３－２２－７０１,,27,111,5560024,,,,,,,2023-07-07,1,,,,,アサリ,0
1283,5120003024434,新規,0,2023-07-07,2023-07-07,Ｖａｇｕｅｌｙ合同会社,,合同会社,大阪府,大阪市北区,梅田１丁目２番２号大阪駅前第２ビル１２－１２,,27,127,5300001,,,,,,,2023-07-07,1,,,,,ベイグリー,0
1284,5120005023707,新規,0,2023-07-07,2023-07-07,一般社団法人日本ビルマ救援センター,,その他の設立登記法人,大阪府,大阪市城東区,森之宮２丁目２番８－６０９号,,27,118,5360025,,,,,,,2023-07-07,1,,,,,ニホンビルマキュウエンセンター,0
1285,5120101067855,新規,0,2023-07-07,2023-07-07,株式会社ＳＵＮ,,株式会社,大阪府,高石市,東羽衣３丁目９番１４号,,27,225,5920003,,,,,,,2023-07-07,1,,,,,サン,0
1287,5120901047759,新規,0,2023-07-07,2023-07-07,株式会社総合ディスパッチ,,株式会社,大阪府,茨木市,目垣３丁目６番５号,,27,211,5670836,,,,,,,2023-07-07,1,,,,,ソウゴウディスパッチ,0
1290,5130001074661,新規,0,2023-07-07,2023-07-07,株式会社岸田奈美事務所,,株式会社,京都府,京都市中京区,御幸町通三条下る海老屋町３２３番地３,,26,104,6048076,,,,,,,2023-07-07,1,,,,,キシダナミジムショ,0
1297,5140001130793,新規,0,2023-07-07,2023-07-07,シャーロック株式会社,,株式会社,兵庫県,神戸市東灘区,御影３丁目２－１１－４,,28,101,6580047,,,,,,,2023-07-07,1,,,,,シャーロック,0
1304,5180001156983,新規,0,2023-07-07,2023-07-07,株式会社ＩＭＩパートナーズ,,株式会社,愛知県,名古屋市熱田区,切戸町３丁目７番地の１,,23,109,4560076,,,,,,,2023-07-07,1,,,,,アイエムアイパートナーズ,0
1305,5180001156991,新規,0,2023-07-07,2023-07-07,株式会社Ｐ．Ｓ,,株式会社,愛知県,名古屋市中村区,西米野町１丁目７５番地の５,,23,105,4530812,,,,,,,2023-07-07,1,,,,,ピーエス,0
1306,5180001157016,新規,0,2023-07-07,2023-07-07,株式会社若松,,株式会社,愛知県,名古屋市千種区,橋本町１丁目６２番地の１,,23,101,4640035,,,,,,,2023-07-07,1,,,,,ワカマツ,0
1307,5180001157024,新規,0,2023-07-07,2023-07-07,株式会社タテノ測量,,株式会社,愛知県,海部郡大治町,大字三本木字村部６９番地,,23,424,4901142,,,,,,,2023-07-07,1,,,,,タテノソクリョウ,0
1308,5180003025443,新規,0,2023-07-07,2023-07-07,合同会社山潤,,合同会社,愛知県,尾張旭市,三郷町陶栄５番地１,,23,226,4880016,,,,,,,2023-07-07,1,,,,,ヤマジュン,0
1312,5180305009490,新規,0,2023-07-07,2023-07-07,行政書士法人ａｍ,,その他の設立登記法人,愛知県,岡崎市,牧御堂町字水洗３８番地１,,23,202,4440205,,,,,,,2023-07-07,1,,,,,アム,0
1315,5200001041472,新規,0,2023-07-07,2023-07-07,フェローインターステラ株式会社,,株式会社,岐阜県,可児市,下切２７３１番地９,,21,214,5090245,,,,,,,2023-07-07,1,,,,,フェローインターステラ,0
1316,5200005013501,新規,0,2023-07-07,2023-07-07,一般社団法人地域共育推進支援協会,,その他の設立登記法人,岐阜県,岐阜市,薮田南３丁目７番２０号,,21,201,5008384,,,,,,,2023-07-07,1,,,,,チイキキョウイクスイシンシエンキョウカイ,0
1319,5210001019377,新規,0,2023-07-07,2023-07-07,株式会社ＹＥＬＬＯＷ　ＳＰＩＣＥ　ＬＡＢＯ,,株式会社,福井県,福井市,順化１丁目１５番２９号,,18,201,9100023,,,,,,,2023-07-07,1,,,,,イエロースパイスラボ,0
1322,5230001019904,新規,0,2023-07-07,2023-07-07,株式会社ＭＡＤＯ,,株式会社,富山県,富山市,南田町１丁目４番３号花水木ノ庭Ｆ,,16,201,9300056,,,,,,,2023-07-07,1,,,,,マド,0
1334,5280001008976,新規,0,2023-07-07,2023-07-07,津和野総合研究所株式会社,,株式会社,島根県,鹿足郡津和野町,森村ロ１１８番地,,32,501,6995604,,,,,,,2023-07-07,1,,,,,ツワノソウゴウケンキュウジョ,0
1336,5290001102159,新規,0,2023-07-07,2023-07-07,株式会社Ｔ＆Ｋ,,株式会社,福岡県,福岡市東区,水谷１丁目１５番２６号,,40,131,8130041,,,,,,,2023-07-07,1,,,,,ティアンドケイ,0
1337,5290001102167,新規,0,2023-07-07,2023-07-07,株式会社吉田企画,,株式会社,福岡県,福岡市東区,香椎照葉４丁目２番２－２１０号,,40,131,8130017,,,,,,,2023-07-07,1,,,,,ヨシダキカク,0
1339,5290003014113,新規,0,2023-07-07,2023-07-07,合同会社Ｃｓａｈｍ,,合同会社,福岡県,久留米市,津福本町１６９３番地３１２,,40,203,8300047,,,,,,,2023-07-07,1,,,,,チャム,0
1343,5320001019878,新規,0,2023-07-07,2023-07-07,Ｍ’ｓＰａｒｔｎｅｒｓ株式会社,,株式会社,大分県,中津市,大字東浜５６３番地１,,44,203,8710006,,,,,,,2023-07-07,1,,,,,エムズパートナーズ,0
1345,5330001031015,新規,0,2023-07-07,2023-07-07,株式会社ＫＳＣ,,株式会社,熊本県,熊本市南区,江越２丁目２２番７号,,43,104,8600834,,,,,,,2023-07-07,1,,,,,ケイエスシー,0
1346,5330001031031,新規,0,2023-07-07,2023-07-07,株式会社サラスバティ,,株式会社,熊本県,熊本市南区,近見１丁目３番３２号森香ビル,,43,104,8614101,,,,,,,2023-07-07,1,,,,,サラスバティ,0
1347,5330003009901,新規,0,2023-07-07,2023-07-07,合同会社天草蝶鮫,,合同会社,熊本県,天草市,五和町城河原１丁目２８００番地１,,43,215,8632114,,,,,,,2023-07-07,1,,,,,アマクサチョウザメ,0
1350,5340003004174,新規,0,2023-07-07,2023-07-07,合同会社インテリアＮＡＯ,,合同会社,鹿児島県,鹿児島市,坂之上８丁目３５番１８号,,46,201,8910150,,,,,,,2023-07-07,1,,,,,インテリアナオ,0
1363,5400001016297,新規,0,2023-07-07,2023-07-07,株式会社エスピーワイ,,株式会社,岩手県,奥州市,江刺愛宕字宿１６４番地８,,03,215,0231131,,,,,,,2023-07-07,1,,,,,エスピーワイ,0
1373,5420001018317,新規,0,2023-07-07,2023-07-07,株式会社清瀬,,株式会社,青森県,八戸市,大字鷹匠小路１２番地１,,02,203,0310034,,,,,,,2023-07-07,1,,,,,キヨセ,0
1377,5430003015261,新規,0,2023-07-07,2023-07-07,縁力設計合同会社,,合同会社,北海道,石狩市,緑苑台東三条３丁目２５９番地２,,01,235,0613223,,,,,,,2023-07-07,1,,,,,エンリキセッケイ,0
1378,5470001019698,新規,0,2023-07-07,2023-07-07,Ｆ‐ＬＩＮＥ株式会社,,株式会社,香川県,仲多度郡多度津町,寿町２番２７号,,37,404,7640025,,,,,,,2023-07-07,1,,,,,エフライン,0
1379,5490001010531,新規,0,2023-07-07,2023-07-07,株式会社リトル・ファイブ,,株式会社,高知県,高知市,春野町西分１１８０番地,,39,201,7810304,,,,,,,2023-07-07,1,,,,,リトルファイブ,0
1380,5500001025049,新規,0,2023-07-07,2023-07-07,株式会社平井住宅設備,,株式会社,愛媛県,大洲市,新谷乙３０８番地１,,38,207,7950071,,,,,,,2023-07-07,1,,,,,ヒライジュウタクセツビ,0
1385,5700150118293,新規,0,2023-07-07,2023-07-07,ＳＨＥＮＺＨＥＮＳＨＩ　ＺＨＯＮＧＱＩＮＧ　ＸＩＮＸＩＫＥＪＩ　ＹＯＵＸＩＡＮＧＯＮＧＳＩ　Ｃｏ．，Ｌｔｄ,,外国会社等,,,,,,,,ｂａｏ　ａｎ　ｑｕ　ｓｏｎｇ　ｇａｎｇ　ｊｉｅ　ｄａｏ　ｈｏｎｇ　ｘｉｎｇ　ｓｈｅ　ｑｕ　ｗｅｎ　ｗｕ　ｘｉ　ｌｕ　ｊｉｎ　ｆｕ　ｙａ　ｙｕａｎ　２　ｄｏｎｇ　１００５　ｓｈｅｎｚｈｅｎ　ｇｕａｎｇｄｏｎｇ　５１８０００ＣＮ,,,,,,2023-07-07,1,,,,,シェンゼェンシヂョンチンシンシケジヨウシェンゴンスーカンパニーリミテッド,0
1386,5700150118302,新規,0,2023-07-07,2023-07-07,ｃｈｅｎｇｄｕ　ｚｈｉ　ｘｉｎ　ｋｅ　ｊｉ　ｙｏｕ　ｘｉａｎ　ｇｏｎｇ　ｓｉ,,外国会社等,,,,,,,,ｚｈｏｎｇｇｕｏ（ｓｉｃｈｕａｎ）ｚｉ　ｙｏｕ　ｍａｏ　ｙｉ　ｓｈｉ　ｙａｎ　ｑｕ　ｃｈｅｎｇｄｕ　ｇａｏｘｉｎｑｕ　ｔｉａｎｈｕａｙｉｌｕ　９９ｈａｏ　３ｄｏｎｇ　５ｃｅｎｇ　５０１ｈａｏ　Ｃｈｅｎｇｄｕ　Ｓｉｃｈｕａｎ　６１００００　ＣＮ,,,,,,2023-07-07,1,,,,,チョンドウジーシンカージヨウシェンゴンスー,0
1387,5700150118310,新規,0,2023-07-07,2023-07-07,ＬｉａｎＹｕｎＧａｎｇ　ＣｈｅｎＹｅＱｉＹｅＧｕａｎＬｉＺｉＸｕｎ　ＹｏｕＸｉａｎＺｅＲｅｎＧｏｎｇＳｉ,,外国会社等,,,,,,,,Ｒｏｏｍ　３２１，Ｂｕｉｌｄｉｎｇ　２，Ｎｏ．２８　Ｈａｉｌｉａｎ　Ｗｅｓｔ　Ｒｏａｄ，Ｈａｉｚｈｏｕ　Ｄｉｓｔ　Ｌｉａｎｙｕｎｇａｎｇ　Ｃｉｔｙ　Ｊｉａｎｇｓｕ　Ｐｒｏｖｉｎｃｅ,,,,,,2023-07-07,1,,,,,レンユンガンチェンイェチイェグァンリジスンユウゲンゼンレンコウシ,0
1388,5700150118335,新規,0,2023-07-07,2023-07-07,ｙａｎｇｍｉｎｇｄｉａｎｚｉｓｈａｎｇｗｕ（ｔｉａｎｊｉｎ）ｙｏｕｘｉａｎｇｏｎｇｓｉ,,外国会社等,,,,,,,,ｔｉａｎｊｉｎｓｈｉ　ｂｉｎｈａｉｘｉｎｑｕ　ｈａｎｇｚｈｏｕｄａｏｊｉｅｄａｏ　ｘｉｓｈｕｎｘｉｎｙｕａｎ１１－９－５０１　Ｃｈｉｎａ,,,,,,2023-07-07,1,,,,,ヤンミンデンシシャンウテンチンユウゲンコウシ,0
1389,5700150118343,新規,0,2023-07-07,2023-07-07,ｚｈｅ　ｊｉａｎｇ　ｆｅｉ　ｄｉ　ｓａｎ　ｗｅｉ　ｋｅ　ｊｉ　ｙｏｕ　ｘｉａｎ　ｇｏｎｇ　ｓｉ,,外国会社等,,,,,,,,Ｄｏｎｇｙａｎ　Ｖｉｌｌａｇｅ，Ｓｈａｎｇｗａｎｇ　Ｓｔｒｅｅｔ　Ｎｏ．３５４，Ｓｈａｎｇｗａｎｇ　Ｅａｓｔ　Ｒｏａｄ，Ｗｅｎｚｈｏｕ　Ｃｉｔｙ，Ｒｕｉａｎ　Ｃｉｔｙ　ＺＨＥＪＩＡＮＧ　Ｃｈｉｎａ,,,,,,2023-07-07,1,,,,,ゼジャンフェイディサンウェイケジユウゲンコウシ,0
1390,5700150118351,新規,0,2023-07-07,2023-07-07,ＥｘｔＣｏｍｆｏｒｔ　Ｉｎｔｅｒｎａｔｉｏｎａｌ　Ｇｒｏｕｐ　Ｃｏ．Ｌｉｍｉｔｅｄ,,外国会社等,,,,,,,,ＵＮＩＴ　２５０８Ａ　２５／Ｆ　ＢＡＮＫ　ＯＦ　ＡＭＥＲＩＣＡ　ＴＯＷＥＲ　１２　ＨＡＲＣＯＵＲＴ　ＲＯＡＤ　ＣＥＮＴＲＡＬ　Ｈｏｎｇ　Ｋｏｎｇ,,,,,,2023-07-07,1,,,,,キョクテキカキョユウゲンコウシ,0
1391,5700150118368,新規,0,2023-07-07,2023-07-07,Ｓｈｅｎ　Ｚｈｅｎ　Ｓｈｉ　Ｙｕ　Ｍａｉ　Ｙｉ　Ｍａｏ　Ｙｉ　Ｙｏｕ　Ｘｉａｎ　Ｇｏｎｇ　Ｓｉ,,外国会社等,,,,,,,,Ｓｈｅｎ　Ｚｈｅｎ　Ｓｈｉ　Ｌｏｎｇ　Ｇａｎｇ　Ｑｕ　Ｌｏｎｇ　Ｇａｎｇ　Ｊｉｅ　Ｄａｏ　Ｌｏｎｇ　Ｇａｎｇ　Ｄａ　Ｄａｏ（Ｌｏｎｇ　Ｇａｎｇ　Ｄｕａｎ）４００１　Ｈａｏ　Ｌｏｎｇ　Ｃｈｅｎｇ　Ｓｈａｎｇ　Ｙｅ　Ｚｈｏｎｇ　Ｘｉｎ　Ａ６１７　Ｃｈｉｎａ,,,,,,2023-07-07,1,,,,,シンセンシユマイイマオイユウゲンコウシ,0
1398,6010001236644,新規,0,2023-07-07,2023-07-07,仲和プロパティマネジメント株式会社,,株式会社,東京都,中央区,京橋３丁目４番１号高井ビル３Ｆ,,13,102,1040031,,,,,,,2023-07-07,1,,,,,チュウワプロパティマネジメント,0
1399,6010003041051,新規,0,2023-07-07,2023-07-07,合同会社ＯＫＤ,,合同会社,東京都,千代田区,鍛冶町２丁目７番２号,,13,101,1010044,,,,,,,2023-07-07,1,,,,,オーケーディー,0
1400,6010003041068,新規,0,2023-07-07,2023-07-07,ユナイテッドパワーズ合同会社,,合同会社,東京都,中央区,銀座１丁目２２番１１号銀座大竹ビジデンス２Ｆ,,13,102,1040061,,,,,,,2023-07-07,1,,,,,ユナイテッドパワーズ,0
1403,6010005036900,新規,0,2023-07-07,2023-07-07,特定非営利活動法人ＡＹＡ,,その他の設立登記法人,東京都,中央区,日本橋兜町６番５号,,13,102,1030026,,,,,,,2023-07-07,1,,,,,アヤ,0
1404,6010005036909,新規,0,2023-07-07,2023-07-07,一般財団法人山田ゼミナール,,その他の設立登記法人,東京都,千代田区,丸の内１丁目８番１号丸の内トラストタワーＮ館,,13,101,1000005,,,,,,,2023-07-07,1,,,,,ヤマダゼミナール,0
1415,6010401175442,新規,0,2023-07-07,2023-07-07,ＭＥＮＴＲＵＳＴ株式会社,,株式会社,東京都,港区,芝３丁目３４番１－２４０５号,,13,103,1050014,,,,,,,2023-07-07,1,,,,,メントラスト,0
1416,6010401175509,新規,0,2023-07-07,2023-07-07,エム・アイ・アールホールディングス株式会社,,株式会社,東京都,港区,芝２丁目１番３３号第三渡辺ビル１０階,,13,103,1050014,,,,,,,2023-07-07,1,,,,,エムアイアールホールディングス,0
1422,6010501050669,新規,0,2023-07-07,2023-07-07,遠方数字株式会社,,株式会社,東京都,台東区,松が谷２丁目１５番８号浅草Ｋ２ビル４０９号室,,13,106,1110036,,,,,,,2023-07-07,1,,,,,エンポウスウジ,0
1425,6010701044520,新規,0,2023-07-07,2023-07-07,株式会社ＵＳＥＮ　ＴＲＵＳＴ,,株式会社,東京都,品川区,上大崎３丁目１番１号,,13,109,1410021,,,,,,,2023-07-07,1,,,,,ユウセントラスト,0
1435,6011001155495,新規,0,2023-07-07,2023-07-07,株式会社Ｆｏｏｄ　ＨＥＲＯｅｓ,,株式会社,東京都,目黒区,中根２丁目５番１５－５０１号,,13,110,1520031,,,,,,,2023-07-07,1,,,,,フードヒーローズ,0
1436,6011001155537,新規,0,2023-07-07,2023-07-07,ｉＩＴＯ株式会社,,株式会社,東京都,渋谷区,神宮前１丁目２番７号林ビル２Ｆ,,13,113,1500001,,,,,,,2023-07-07,1,,,,,アイイト,0
1439,6011101103486,新規,0,2023-07-07,2023-07-07,ウインライド株式会社,,株式会社,東京都,新宿区,新宿１丁目３１番１９号,,13,104,1600022,,,,,,,2023-07-07,1,,,,,ウインライド,0
1440,6011101103503,新規,0,2023-07-07,2023-07-07,ＯＮＥＧＲＯＸ株式会社,,株式会社,東京都,新宿区,西新宿３丁目３番１３号西新宿水間ビル６階,,13,104,1600023,,,,,,,2023-07-07,1,,,,,ワングロックス,0
1441,6011105010712,新規,0,2023-07-07,2023-07-07,一般社団法人全日本教育材料連合会,,その他の設立登記法人,東京都,新宿区,西新宿３丁目３番１３号西新宿水間ビル２Ｆ,,13,104,1600023,,,,,,,2023-07-07,1,,,,,ゼンニホンキョウイクザイリョウレンゴウカイ,0
1442,6011201024756,新規,0,2023-07-07,2023-07-07,株式会社ブシロードワークス,,株式会社,東京都,中野区,中央１丁目３８番１号,,13,114,1640011,,,,,,,2023-07-07,1,,,,,ブシロードワークス,0
1444,6011301028847,新規,0,2023-07-07,2023-07-07,株式会社Ｅｄｉｖｕｌｅ,,株式会社,東京都,杉並区,阿佐谷北２丁目１２番９号,,13,115,1660001,,,,,,,2023-07-07,1,,,,,エディブル,0
1447,6011303004813,新規,0,2023-07-07,2023-07-07,合同会社Ｇ．Ｏ．Ａ．Ｔ,,合同会社,東京都,杉並区,下高井戸２丁目１－１０イヤシロチ１６号室,,13,115,1680073,,,,,,,2023-07-07,1,,,,,ゴート,0
1448,6011303004821,新規,0,2023-07-07,2023-07-07,ＣＩＥＬ合同会社,,合同会社,東京都,杉並区,松ノ木３丁目２４－１０,,13,115,1660014,,,,,,,2023-07-07,1,,,,,,0
1456,6011801042678,新規,0,2023-07-07,2023-07-07,株式会社チェリッシュファーム,,株式会社,東京都,葛飾区,小菅４丁目７番１号,,13,122,1240001,,,,,,,2023-07-07,1,,,,,チェリッシュファーム,0
1458,6011803005724,新規,0,2023-07-07,2023-07-07,合同会社ハニルフレンズ,,合同会社,東京都,葛飾区,東四つ木２丁目７－１センターパレス５０２号,,13,122,1240014,,,,,,,2023-07-07,1,,,,,ハニルフレンズ,0
1473,6020001152378,新規,0,2023-07-07,2023-07-07,ディボートセルフ株式会社,,株式会社,神奈川県,横浜市金沢区,富岡西６丁目２７番１５号,,14,108,2360052,,,,,,,2023-07-07,1,,,,,ディボートセルフ,0
1474,6020001152394,新規,0,2023-07-07,2023-07-07,株式会社ｍａｔｔ　ｗｏｒｋｓ,,株式会社,神奈川県,横浜市鶴見区,北寺尾４丁目３０番９－１号,,14,101,2300074,,,,,,,2023-07-07,1,,,,,マットワークス,0
1475,6020003024162,新規,0,2023-07-07,2023-07-07,合同会社ＯＲＩＶＥＲ　ＳＴＹＬＥ,,合同会社,神奈川県,横浜市緑区,十日市場町８６５番地２１,,14,113,2260025,,,,,,,2023-07-07,1,,,,,オリバースタイル,0
1476,6020003024204,新規,0,2023-07-07,2023-07-07,合同会社ソフトラボ,,合同会社,神奈川県,横浜市港北区,新吉田東１丁目２０―８,,14,109,2230058,,,,,,,2023-07-07,1,,,,,ソフトラボ,0
1477,6021001079495,新規,0,2023-07-07,2023-07-07,株式会社ホープ・エバー,,株式会社,神奈川県,厚木市,水引２丁目８番３８－１４０１号,,14,212,2430004,,,,,,,2023-07-07,1,,,,,ホープエバー,0
1478,6021001079504,新規,0,2023-07-07,2023-07-07,株式会社ＭＹホーム,,株式会社,神奈川県,横須賀市,長井１丁目２５番２７号,,14,201,2380316,,,,,,,2023-07-07,1,,,,,エムワイホーム,0
1479,6021001079520,新規,0,2023-07-07,2023-07-07,株式会社サニーサイド,,株式会社,神奈川県,三浦郡葉山町,一色６１０番地の１５,,14,301,2400111,,,,,,,2023-07-07,1,,,,,サニーサイド,0
1481,6030001154753,新規,0,2023-07-07,2023-07-07,株式会社ＱＱｎａｎａ,,株式会社,埼玉県,川口市,大字芝２７９１番地の５,,11,203,3330866,,,,,,,2023-07-07,1,,,,,キューキューナナ,0
1482,6030001154786,新規,0,2023-07-07,2023-07-07,株式会社真政,,株式会社,埼玉県,蓮田市,西新宿４丁目３８番地８,,11,238,3490141,,,,,,,2023-07-07,1,,,,,シンセイ,0
1487,6040001129093,新規,0,2023-07-07,2023-07-07,株式会社ソライド,,株式会社,千葉県,浦安市,舞浜３丁目３０番１号,,12,227,2790031,,,,,,,2023-07-07,1,,,,,ソライド,0
1488,6040001129102,新規,0,2023-07-07,2023-07-07,株式会社Ｋ・クールｍｉｙａｔａ,,株式会社,千葉県,野田市,関宿台町２６６４番地,,12,208,2700202,,,,,,,2023-07-07,1,,,,,ケークールミヤタ,0
1489,6040001129119,新規,0,2023-07-07,2023-07-07,株式会社リフィックス,,株式会社,千葉県,市川市,国府台４丁目５番４９－１０２号（グレーシャス国府台）,,12,203,2720827,,,,,,,2023-07-07,1,,,,,リフィックス,0
1490,6040001129127,新規,0,2023-07-07,2023-07-07,株式会社Ｍａｈａｌｏワークス,,株式会社,千葉県,船橋市,藤原１丁目２１番５号,,12,204,2730047,,,,,,,2023-07-07,1,,,,,マハロワークス,0
1491,6040001129135,新規,0,2023-07-07,2023-07-07,株式会社ｓｕｉ,,株式会社,千葉県,浦安市,当代島１丁目２７番１４号,,12,227,2790001,,,,,,,2023-07-07,1,,,,,スイ,0
1492,6040001129143,新規,0,2023-07-07,2023-07-07,株式会社ｉｌｌｏｇｉｃａｌ,,株式会社,千葉県,長生郡一宮町,一宮１００５９番地３,,12,421,2994301,,,,,,,2023-07-07,1,,,,,イロジカル,0
1501,6040003022899,新規,0,2023-07-07,2023-07-07,合同会社バラシヤ,,合同会社,千葉県,我孫子市,天王台４丁目１４番１７－Ｅ１０３号,,12,222,2701143,,,,,,,2023-07-07,1,,,,,バラシヤ,0
1502,6040003022916,新規,0,2023-07-07,2023-07-07,合同会社ＭＳＪａｐａｎ,,合同会社,千葉県,市川市,田尻５丁目１１－１０－６０６,,12,203,2720014,,,,,,,2023-07-07,1,,,,,エムエスジャパン,0
1506,6050001053086,新規,0,2023-07-07,2023-07-07,空飛ぶ株式会社,,株式会社,茨城県,猿島郡境町,大字若林２３６２番地,,08,546,3060417,,,,,,,2023-07-07,1,,,,,ソラトブ,0
1510,6060001036131,新規,0,2023-07-07,2023-07-07,株式会社Ｓｕｎｎｙ　ｓｉｄｅ,,株式会社,栃木県,宇都宮市,今泉町３０２０－１,,09,201,3210962,,,,,,,2023-07-07,1,,,,,サニーサイド,0
1511,6060003004631,新規,0,2023-07-07,2023-07-07,にじいろ紹介合同会社,,合同会社,栃木県,小山市,大字大川島３４０－３,,09,208,3230058,,,,,,,2023-07-07,1,,,,,ニジイロショウカイ,0
1512,6060005010116,新規,0,2023-07-07,2023-07-07,税理士法人らいと,,その他の設立登記法人,栃木県,宇都宮市,栄町６番１６号栄町ビル４階東,,09,201,3200024,,,,,,,2023-07-07,1,,,,,ライト,0
1520,6070003005018,新規,0,2023-07-07,2023-07-07,合同会社Ｍ＆Ｙプランニング,,合同会社,群馬県,高崎市,八島町８２番１１号,,10,202,3700849,,,,,,,2023-07-07,1,,,,,エムアンドワイプランニング,0
1521,6070003005026,新規,0,2023-07-07,2023-07-07,合同会社やまもと保険ＡＧＴ,,合同会社,群馬県,館林市,赤生田町２１６,,10,207,3740013,,,,,,,2023-07-07,1,,,,,ヤマモトホケンエージィティー,0
1532,6100001036556,新規,0,2023-07-07,2023-07-07,株式会社Ｋ‐ＴＥＣＨ,,株式会社,長野県,松本市,大字笹賀４３３４番地４,,20,202,3990033,,,,,,,2023-07-07,1,,,,,ケイテック,0
1533,6100001036564,新規,0,2023-07-07,2023-07-07,株式会社琥陽,,株式会社,長野県,長野市,大字穂保６８６番地１,,20,201,3810003,,,,,,,2023-07-07,1,,,,,コハル,0
1534,6100003007084,新規,0,2023-07-07,2023-07-07,合同会社案在企画室,,合同会社,長野県,長野市,屋敷田３９２番地７３,,20,201,3810055,,,,,,,2023-07-07,1,,,,,アンザイキカクシツ,0
1546,6120001256210,新規,0,2023-07-07,2023-07-07,株式会社ＧＯＨ,,株式会社,大阪府,大阪市大正区,三軒家東６丁目１番５号ＫｅｙＷｅｓｔＢＬＤＧ．,,27,108,5510002,,,,,,,2023-07-07,1,,,,,ゴー,0
1554,6120901047741,新規,0,2023-07-07,2023-07-07,株式会社常蒼舎,,株式会社,大阪府,吹田市,南金田１丁目２番３号,,27,205,5640044,,,,,,,2023-07-07,1,,,,,ジョウソウシャ,0
1555,6120901047758,新規,0,2023-07-07,2023-07-07,株式会社ＺＥＫＡ,,株式会社,大阪府,豊中市,新千里東町３丁目３番１２０－４１４号,,27,203,5600082,,,,,,,2023-07-07,1,,,,,ゼカ,0
1560,6122003002625,新規,0,2023-07-07,2023-07-07,ＫＩ会計マネジメント合同会社,,合同会社,大阪府,柏原市,大県２丁目５番９－４０２号エクセル昴,,27,221,5820018,,,,,,,2023-07-07,1,,,,,ケーアイカイケイマネジメント,0
1561,6130001074652,新規,0,2023-07-07,2023-07-07,株式会社Ｓｉｍｉｚ,,株式会社,京都府,京丹後市,網野町網野３９番地２階,,26,212,6293101,,,,,,,2023-07-07,1,,,,,シミズ,0
1562,6130001074660,新規,0,2023-07-07,2023-07-07,株式会社らくゆう舎,,株式会社,京都府,京都市上京区,五辻通浄福寺西入一色町２７番地２メガロコープ西陣Ｂー５７１号,00131101,26,102,6028471,,,,,,,2023-07-07,1,,,,,ラクユウシャ,0
1563,6130003008831,新規,0,2023-07-07,2023-07-07,Ｓ‐ＳＴＹＬＥ合同会社,,合同会社,京都府,舞鶴市,鹿原西町２００番地の２０,,26,202,6250013,,,,,,,2023-07-07,1,,,,,エススタイル,0
1569,6140001130792,新規,0,2023-07-07,2023-07-07,株式会社ココロ,,株式会社,兵庫県,尼崎市,南塚口町８丁目５０番１０号南塚口アベニュー３０１号室,,28,202,6610012,,,,,,,2023-07-07,1,,,,,ココロ,0
1575,6160001025149,新規,0,2023-07-07,2023-07-07,滋賀のすけ株式会社,,株式会社,滋賀県,湖南市,吉永１８７番地９,,25,211,5203222,,,,,,,2023-07-07,1,,,,,シガノスケ,0
1583,6180001156966,新規,0,2023-07-07,2023-07-07,株式会社マキノセ工業,,株式会社,愛知県,一宮市,赤見４丁目４番６－２号,,23,203,4910023,,,,,,,2023-07-07,1,,,,,マキノセコウギョウ,0
1584,6180001156990,新規,0,2023-07-07,2023-07-07,株式会社Ｗｉｎｔｅｒ,,株式会社,愛知県,名古屋市中区,栄４丁目３番７号シエルブルー栄４０７号室,,23,106,4600008,,,,,,,2023-07-07,1,,,,,ウィンター,0
1585,6180001156999,新規,0,2023-07-07,2023-07-07,アット・ライフ株式会社,,株式会社,愛知県,名古屋市西区,玉池町２１２番地,,23,104,4520812,,,,,,,2023-07-07,1,,,,,アットライフ,0
1587,6180005020284,新規,0,2023-07-07,2023-07-07,医療法人忠眞會,,その他の設立登記法人,愛知県,海部郡蟹江町,桜４丁目３５番地,,23,425,4970038,,,,,,,2023-07-07,1,,,,,タダザネカイ,0
1591,6190001030542,新規,0,2023-07-07,2023-07-07,株式会社ハンエイＨＤ,,株式会社,三重県,鈴鹿市,下大久保町北山崎９７１番地,,24,207,5131123,,,,,,,2023-07-07,1,,,,,ハンエイホールディングス,0
1597,6220001025489,新規,0,2023-07-07,2023-07-07,株式会社山剛,,株式会社,石川県,加賀市,山田町タ２４番地,,17,206,9220431,,,,,,,2023-07-07,1,,,,,ヤマタケ,0
1602,6230003002048,新規,0,2023-07-07,2023-07-07,合同会社木津,,合同会社,富山県,射水市,大門１３６番地２,,16,211,9390232,,,,,,,2023-07-07,1,,,,,キヅ,0
1603,6240001061739,新規,0,2023-07-07,2023-07-07,Ｐｕｒｅ　Ｉｎ　Ｅａｒｔｈ株式会社,,株式会社,広島県,広島市中区,白島九軒町１０番５号,,34,101,7300003,,,,,,,2023-07-07,1,,,,,ピュアインアース,0
1611,6280001008983,新規,0,2023-07-07,2023-07-07,株式会社建政,,株式会社,島根県,松江市,八雲町平原１８１８番地２０,,32,201,6902105,,,,,,,2023-07-07,1,,,,,ケンセイ,0
1617,6290001102174,新規,0,2023-07-07,2023-07-07,株式会社ヒサダヤホールディングス,,株式会社,福岡県,糸島市,二丈松国３２８番地６,,40,230,8191627,,,,,,,2023-07-07,1,,,,,ヒサダヤホールディングス,0
1618,6290001102208,新規,0,2023-07-07,2023-07-07,株式会社Ｍ＆不動産,,株式会社,福岡県,福岡市博多区,博多駅東１丁目１番３３号博多近代ビル７階Ｋ１－８号室,,40,132,8120013,,,,,,,2023-07-07,1,,,,,エムアンドフドウサン,0
1622,6290005019084,新規,0,2023-07-07,2023-07-07,一般社団法人ＣＡＲＥプラス,,その他の設立登記法人,福岡県,福岡市西区,生の松原１丁目２４番２号,,40,135,8190055,,,,,,,2023-07-07,1,,,,,ケアプラス,0
1624,6290801029658,新規,0,2023-07-07,2023-07-07,丸八社中株式会社,,株式会社,福岡県,田川市,新町１２－９シャガールＴ１０１,,40,206,8250016,,,,,,,2023-07-07,1,,,,,マルハチシャチュウ,0
1626,6310003004597,新規,0,2023-07-07,2023-07-07,合同会社ヒロテックラボラトリー,,合同会社,長崎県,佐世保市,天神５丁目１９番２１号山口アパート２０３,,42,202,8571174,,,,,,,2023-07-07,1,,,,,ヒロテックラボラトリー,0
1627,6330001031006,新規,0,2023-07-07,2023-07-07,Ｈｕｍａｎ　ｓｕｐｐｏｒｔ　ｌｉｆｅ株式会社,,株式会社,熊本県,熊本市東区,平山町３３３１番地１７,,43,102,8618012,,,,,,,2023-07-07,1,,,,,ヒューマンサポートライフ,0
1628,6330001031014,新規,0,2023-07-07,2023-07-07,ＩＮＮＯＳセミコンダクター株式会社,,株式会社,熊本県,熊本市中央区,水前寺公園２８番４７号コーポ嘉悦３０１,,43,101,8620956,,,,,,,2023-07-07,1,,,,,イノスセミコンダクター,0
1629,6330001031022,新規,0,2023-07-07,2023-07-07,株式会社猪嶌建築工房,,株式会社,熊本県,熊本市北区,鶴羽田町１０４１番地４８,,43,105,8615513,,,,,,,2023-07-07,1,,,,,イジマケンチクコウボウ,0
1630,6330003009900,新規,0,2023-07-07,2023-07-07,合同会社ＭＫ,,合同会社,熊本県,熊本市中央区,新市街１番２８号,,43,101,8600803,,,,,,,2023-07-07,1,,,,,エムケー,0
1631,6330005010674,新規,0,2023-07-07,2023-07-07,一般社団法人熊本県鳶土工業連合会,,その他の設立登記法人,熊本県,菊池郡菊陽町,大字原水上大谷３８０５番地,,43,404,8691102,,,,,,,2023-07-07,1,,,,,クマモトケントビドコウギョウレンゴウカイ,0
1633,6340001025683,新規,0,2023-07-07,2023-07-07,株式会社ＡＭＹ,,株式会社,鹿児島県,薩摩川内市,中郷４丁目４８番地,,46,215,8950072,,,,,,,2023-07-07,1,,,,,エイミー,0
1635,6370001050126,新規,0,2023-07-07,2023-07-07,株式会社栄和,,株式会社,宮城県,仙台市泉区,明石南１丁目３番地の１,,04,105,9813101,,,,,,,2023-07-07,1,,,,,エイワ,0
1663,6470001019689,新規,0,2023-07-07,2023-07-07,株式会社ａｃｒｏ,,株式会社,香川県,坂出市,加茂町１１０４番地７,,37,203,7620023,,,,,,,2023-07-07,1,,,,,アクロ,0
1671,6700150118292,新規,0,2023-07-07,2023-07-07,Ｙｉｗｕ　Ｈｅｊｉ　Ｅ－Ｃｏｍｍｅｒｃｅ　Ｃｏ．，Ｌｔｄ,,外国会社等,,,,,,,,ＪＩＡＮＧ　ＤＯＮＧ　ＪＩＥ　ＤＡＯ　ＪＩＡＮＧ　ＤＯＮＧ　ＮＡＮ　ＬＵ　１２２　ＨＡＯ　３　ＬＯＵ　ＪＩＮ　ＨＵＡ　ＳＨＩ　ＹＩ　ＷＵ　ＳＨＩ　ＺＨＥ　ＪＩＡＮＧ　ＳＨＥＮＧ　３２２０００　ＣＮ,,,,,,2023-07-07,1,,,,,イウヘジイーコマースカンパニーリミテッド,0
1672,6700150118301,新規,0,2023-07-07,2023-07-07,ｓｈｅｎｚｈｅｎｂｉｊｉａｓｕｏｄｉａｎｚｉｙｏｕｘｉａｎｇｏｎｇｓｉ,,外国会社等,,,,,,,,８２８８，Ｌｏｎｇｇａｎｇ　Ａｖｅｎｕｅ，Ｈｅ’ａｏ　Ｃｏｍｍｕｎｉｔｙ，Ｙｕａｎｓｈａｎ　Ｓｔｒｅｅｔ，Ｌｏｎｇｇａｎｇ　Ｄｉｓｔｒｉｃｔ，Ｓｈｅｎｚｈｅｎ　Ｂｕｉｌｄｉｎｇ　１０５，Ｂｕｉｌｄｉｎｇ　１３，Ｕｎｉｖｅｒｓｉａｄｅ　Ｓｏｆｔｗａｒｅ　Ｔｏｗｎ　Ｓｈｅｎｚｈｅｎ　５１８１１５　ＣＮ,,,,,,2023-07-07,1,,,,,シェンジェンビージャアスオディエンズーヨウシェンゴンスー,0
1673,6700150118342,新規,0,2023-07-07,2023-07-07,ＳｈｅｎＺｈｅｎＳｈｉ　ＢａｉＳｉｋａ　ＭａｏＹｉ　ＹｏｕＸｉａｎＧｏｎｇＳｉ,,外国会社等,,,,,,,,Ｒｏｏｍ　３２８，Ｂｕｉｌｄｉｎｇ　５，Ｎｏ．１，Ｓａｎｈｅ　Ｒｏａｄ，Ｇａｏｆｅｎｇ　Ｃｏｍｍｕｎｉｔｙ　Ｌｏｎｇｈｕａ　ｄｉｓｔｒｉｃｔ　Ｓｈｅｎｚｈｅｎ　ＧｕａｎｇＤｏｎｇ　Ｃｈｉｎａ,,,,,,2023-07-07,1,,,,,シンセンシバイシカマオイユウゲンコウシ,0
1674,6700150118350,新規,0,2023-07-07,2023-07-07,Ｓｈｉｊｉｈａｎｍｅｉ（Ｔｉａｎｊｉｎ）Ｅ－ｃｏｍｍｅｒｃｅ　Ｃｏ．，Ｌｔｄ,,外国会社等,,,,,,,,Ｒｏｏｍ　５－５０２－１５　Ｂｕｉｌｄｉｎｇ　Ｗａｎｘｉｎｚｈａｏｓｈａｎｇｚｈｏｎｇｘｉｎ　Ｊｉｎｂｉｎｄａｄａｏ　Ａｎｄ　Ｔｉａｎｓｈａｎｎａｎｌｕ　Ｊｉａｏｋｏｕ　ＤｏｎｇＬｉ　Ｄｉｓｔｒｉｃｔ　Ｔｉａｎｊｉｎ,,,,,,2023-07-07,1,,,,,シジハンメイテンシンイーコマースカンパニーリミテツド,0
1675,6700150118359,新規,0,2023-07-07,2023-07-07,Ｚｈａｎｕｏ　Ｔｅｃｈｎｏｌｏｇｙ　Ｃｏ．，Ｌｉｍｉｔｅｄ,,外国会社等,,,,,,,,ＦＬＡＴ　Ｂ，９／Ｆ，ＭＥＧＡ　ＣＵＢＥ，ＮＯ．８　ＷＡＮＧ　ＫＷＯＮＧ　ＲＯＡＤ，ＫＯＷＬＯＯＮ，Ｈｏｎｇ　Ｋｏｎｇ,,,,,,2023-07-07,1,,,,,ザヌオテクノロジーカンパニーリミテッド,0
1676,6700150118367,新規,0,2023-07-07,2023-07-07,Ｓｈｅｎ　Ｚｈｅｎ　Ｓｈｉ　Ｙａｎｇ　Ｑｉ　Ｈａｏ　Ｋｅ　Ｊｉ　Ｙｏｕ　Ｘｉａｎ　Ｇｏｎｇ　Ｓｉ,,外国会社等,,,,,,,,Ｌｏｎｇ　Ｇａｎｇ　Ｑｕ　Ｎａｎ　Ｗａｎ　Ｊｉｅ　Ｄａｏ　Ｆｕ　Ｊｉｎｇ　Ｈｕａ　Ｙｕａｎ　４　Ｄｏｎｇ　１８０３　Ｓｈｅｎ　Ｚｈｅｎ　Ｇｕａｎｇ　Ｄｏｎｇ　Ｃｈｉｎａ,,,,,,2023-07-07,1,,,,,シンセンシヤンチハオケジユウゲンコウシ,0
1680,7010001236668,新規,0,2023-07-07,2023-07-07,株式会社ミズヒロ,,株式会社,東京都,千代田区,四番町４－９ＳＴＫ内,,13,101,1020081,,,,,,,2023-07-07,1,,,,,ミズヒロ,0
1681,7010001236676,新規,0,2023-07-07,2023-07-07,株式会社プロトキャット,,株式会社,東京都,中央区,日本橋小網町１１－５,,13,102,1030016,,,,,,,2023-07-07,1,,,,,プロトキャット,0
1682,7010001236684,新規,0,2023-07-07,2023-07-07,株式会社クロスフューズ,,株式会社,東京都,中央区,日本橋室町１丁目１１番１２号日本橋水野ビル７階,,13,102,1030022,,,,,,,2023-07-07,1,,,,,クロスフューズ,0
1683,7010001236701,新規,0,2023-07-07,2023-07-07,ＲＩＣＥ　ＲＯＢＯＴＩＣＳ株式会社,,株式会社,東京都,中央区,新川１丁目１６番７号,,13,102,1040033,,,,,,,2023-07-07,1,,,,,ライスロボティクス,0
1696,7010401175334,新規,0,2023-07-07,2023-07-07,株式会社ＲＡＤＩＡ,,株式会社,東京都,港区,南青山１丁目２６番１号,,13,103,1070062,,,,,,,2023-07-07,1,,,,,ラディア,0
1697,7010401175458,新規,0,2023-07-07,2023-07-07,Ｍｉｘｅｄ　Ｍａｎａｇｅ株式会社,,株式会社,東京都,港区,南青山３丁目１番３６号青山丸竹ビル６Ｆ,,13,103,1070062,,,,,,,2023-07-07,1,,,,,ミクストマネージ,0
1698,7010401175466,新規,0,2023-07-07,2023-07-07,株式会社ｇａｒａｖａｇｎｅ．,,株式会社,東京都,港区,南青山３丁目１番３６号青山丸竹ビル６Ｆ,,13,103,1070062,,,,,,,2023-07-07,1,,,,,ガラバーニュ,0
1699,7010401175540,新規,0,2023-07-07,2023-07-07,パシフィコ・アグリ株式会社,,株式会社,東京都,港区,六本木３丁目２番１号六本木グランドタワー,,13,103,1060032,,,,,,,2023-07-07,1,,,,,パシフィコアグリ,0
1700,7010403030454,新規,0,2023-07-07,2023-07-07,合同会社アゼリア,,合同会社,東京都,港区,麻布台２丁目１番２－１００１号,,13,103,1060041,,,,,,,2023-07-07,1,,,,,アゼリア,0
1703,7010501050718,新規,0,2023-07-07,2023-07-07,興成株式会社,,株式会社,東京都,台東区,上野６丁目７－１６川久保ビル８０６,,13,106,1100005,,,,,,,2023-07-07,1,,,,,コウセイ,0
1718,7010901053353,新規,0,2023-07-07,2023-07-07,株式会社アプリシェイト,,株式会社,東京都,世田谷区,北沢２丁目２９－２下北沢フェニキアビル３０１号室,,13,112,1550031,,,,,,,2023-07-07,1,,,,,アプリシェイト,0
1727,7011001155511,新規,0,2023-07-07,2023-07-07,株式会社ボジェラー,,株式会社,東京都,渋谷区,道玄坂１丁目１０番８号渋谷道玄坂東急ビル２Ｆ－Ｃ,,13,113,1500043,,,,,,,2023-07-07,1,,,,,ボジェラー,0
1728,7011001155528,新規,0,2023-07-07,2023-07-07,株式会社デジライズ,,株式会社,東京都,目黒区,青葉台３丁目１番１号－９０１号室,,13,110,1530042,,,,,,,2023-07-07,1,,,,,デジライズ,0
1729,7011101103477,新規,0,2023-07-07,2023-07-07,株式会社ＹＭＡリサーチ＆コンサルティング,,株式会社,東京都,新宿区,高田馬場４丁目２番２９号,,13,104,1690075,,,,,,,2023-07-07,1,,,,,ワイエムエーリサーチアンドコンサルティング,0
1730,7011101103485,新規,0,2023-07-07,2023-07-07,ネクストソリューションズ株式会社,,株式会社,東京都,新宿区,西新宿３丁目３番１３号西新宿水間ビル２Ｆ,,13,104,1600023,,,,,,,2023-07-07,1,,,,,,0
1731,7011101103502,新規,0,2023-07-07,2023-07-07,東方株式会社,,株式会社,東京都,新宿区,西新宿６丁目１５－１,,13,104,1600023,,,,,,,2023-07-07,1,,,,,トウホウ,0
1734,7011301028846,新規,0,2023-07-07,2023-07-07,株式会社ＬＩＮＫ　ＵＰ,,株式会社,東京都,杉並区,上井草３丁目１５番２５号,,13,115,1670023,,,,,,,2023-07-07,1,,,,,リンクアップ,0
1736,7011303004820,新規,0,2023-07-07,2023-07-07,合同会社トミタワークス,,合同会社,東京都,杉並区,梅里１丁目２番２２号,,13,115,1660011,,,,,,,2023-07-07,1,,,,,トミタワークス,0
1737,7011503005676,新規,0,2023-07-07,2023-07-07,合同会社ＨＧ,,合同会社,東京都,北区,中里２丁目２番７号山武ビル２０８号,,13,117,1140015,,,,,,,2023-07-07,1,,,,,エイチジー,0
1740,7011801042669,新規,0,2023-07-07,2023-07-07,株式会社猪鹿蝶,,株式会社,東京都,足立区,新田３丁目３６番２１号,,13,121,1230865,,,,,,,2023-07-07,1,,,,,イノシカチョウ,0
1744,7011803005723,新規,0,2023-07-07,2023-07-07,合同会社ＴＯＫＹＯ　ＨＯＭＥ,,合同会社,東京都,葛飾区,堀切５丁目１９番２号,,13,122,1240006,,,,,,,2023-07-07,1,,,,,トウキョウホーム,0
1753,7013303006697,新規,0,2023-07-07,2023-07-07,合同会社とみいち,,合同会社,東京都,豊島区,南池袋１丁目１６－１５ダイヤゲート池袋４・５階,,13,116,1710022,,,,,,,2023-07-07,1,,,,,トミイチ,0
1757,7020001152360,新規,0,2023-07-07,2023-07-07,株式会社みらいコネクト,,株式会社,神奈川県,横浜市中区,簑沢８７番地１１,,14,104,2310856,,,,,,,2023-07-07,1,,,,,ミライコネクト,0
1758,7020001152369,新規,0,2023-07-07,2023-07-07,株式会社禮信,,株式会社,神奈川県,川崎市麻生区,栗木台５丁目１０番２号,,14,137,2150032,,,,,,,2023-07-07,1,,,,,ライシン,0
1759,7020001152385,新規,0,2023-07-07,2023-07-07,株式会社フェアプラン,,株式会社,神奈川県,横浜市都筑区,茅ケ崎中央２１番７号コントレイル１Ｆ・２Ｆ,,14,118,2240032,,,,,,,2023-07-07,1,,,,,フェアプラン,0
1760,7020003024120,新規,0,2023-07-07,2023-07-07,合同会社宮崎文化教育研究所,,合同会社,神奈川県,横浜市瀬谷区,宮沢２丁目６番６号,,14,114,2460038,,,,,,,2023-07-07,1,,,,,ミヤザキブンカキョウイクケンキュウショ,0
1761,7020003024145,新規,0,2023-07-07,2023-07-07,合同会社Ｓｉｇｍａ,,合同会社,神奈川県,川崎市川崎区,中島３丁目１７－１,,14,131,2100806,,,,,,,2023-07-07,1,,,,,シグマ,0
1762,7020003024161,新規,0,2023-07-07,2023-07-07,エトワールアミューズメント合同会社,,合同会社,神奈川県,横浜市西区,浅間町１丁目４番３号ウィザードビル４０２,,14,103,2200072,,,,,,,2023-07-07,1,,,,,エトワールアミューズメント,0
1763,7021001079486,新規,0,2023-07-07,2023-07-07,カカ星球株式会社,,株式会社,神奈川県,海老名市,扇町１４番４号グレーシアタワーズ１００５,,14,215,2430436,,,,,,,2023-07-07,1,,,,,カカセイキュウ,0
1764,7021001079503,新規,0,2023-07-07,2023-07-07,株式会社エコフィールド,,株式会社,神奈川県,横須賀市,平作１丁目１６番７号,,14,201,2380032,,,,,,,2023-07-07,1,,,,,エコフィールド,0
1766,7021003013286,新規,0,2023-07-07,2023-07-07,原田産業合同会社,,合同会社,神奈川県,茅ヶ崎市,小桜町４番１８号,,14,207,2530016,,,,,,,2023-07-07,1,,,,,ハラダサンギョウ,0
1767,7021003013294,新規,0,2023-07-07,2023-07-07,ＫＵＢＯＴＥＣＨ合同会社,,合同会社,神奈川県,相模原市緑区,川尻１６３５番３号,,14,151,2520111,,,,,,,2023-07-07,1,,,,,クボテック,0
1775,7030001154711,新規,0,2023-07-07,2023-07-07,株式会社人和情報システム,,株式会社,埼玉県,蕨市,中央１丁目１７番４０号２０６室,,11,223,3350004,,,,,,,2023-07-07,1,,,,,ジンワジョウホウシステム,0
1785,7040001129076,新規,0,2023-07-07,2023-07-07,株式会社国松興業,,株式会社,千葉県,印西市,大森７７２番地７,,12,231,2701327,,,,,,,2023-07-07,1,,,,,クニマツコウギョウ,0
1786,7040001129101,新規,0,2023-07-07,2023-07-07,株式会社Ｖ．Ｎ．Ｆ　Ｉｎｔｅｒａｃｔｉｏｎ,,株式会社,千葉県,千葉市中央区,星久喜町９６５番地３,,12,101,2600808,,,,,,,2023-07-07,1,,,,,ブイエヌエフインタラクション,0
1787,7040001129126,新規,0,2023-07-07,2023-07-07,株式会社Ｔ．Ｗ．ｎｅｏ,,株式会社,千葉県,千葉市中央区,中央２丁目７番１０号シャンボール千葉中央１０４号,,12,101,2600013,,,,,,,2023-07-07,1,,,,,ティーダブリュネオ,0
1788,7040001129134,新規,0,2023-07-07,2023-07-07,Ｊ．Ｙ．ＨＯＰＥ株式会社,,株式会社,千葉県,千葉市若葉区,大宮台６丁目７番４号,,12,104,2640015,,,,,,,2023-07-07,1,,,,,ジェイワイホープ,0
1789,7040001129142,新規,0,2023-07-07,2023-07-07,株式会社３Ｒ’ｓ,,株式会社,千葉県,柏市,中原１丁目２８番２３号,,12,217,2770085,,,,,,,2023-07-07,1,,,,,スリーアールズ,0
1793,7040003022915,新規,0,2023-07-07,2023-07-07,鶴爺ほーるでぃんぐす合同会社,,合同会社,千葉県,大網白里市,季美の森南２丁目６番地５,,12,239,2993241,,,,,,,2023-07-07,1,,,,,ツルジイホールディングス,0
1795,7050005013291,新規,0,2023-07-07,2023-07-07,一般社団法人常陸国出雲大社崇敬会,,その他の設立登記法人,茨城県,笠間市,福原２００６番地,,08,216,3091634,,,,,,,2023-07-07,1,,,,,ヒタチノクニイズモタイシャスウケイカイ,0
1796,7060001036130,新規,0,2023-07-07,2023-07-07,株式会社ＡＹＡＮ　ＴＲＡＤＩＮＧ,,株式会社,栃木県,小山市,大字東野田３６０番地,,09,208,3230817,,,,,,,2023-07-07,1,,,,,アヤントレーディング,0
1799,7070001040610,新規,0,2023-07-07,2023-07-07,株式会社ａｅ　ｃｏｍｐａｎｙ,,株式会社,群馬県,高崎市,下佐野町１０４７番地８,,10,202,3700855,,,,,,,2023-07-07,1,,,,,エーイーカンパニー,0
1804,7080001025718,新規,0,2023-07-07,2023-07-07,株式会社ＳＴＭ,,株式会社,静岡県,静岡市駿河区,小鹿７１４－１モアクレスト小鹿１０１号室,,22,102,4228021,,,,,,,2023-07-07,1,,,,,エスティエム,0
1806,7080401026588,新規,0,2023-07-07,2023-07-07,株式会社ミサ・ワークス,,株式会社,静岡県,浜松市中区,神田町１６６番地の１,,22,131,4328047,,,,,,,2023-07-07,1,,,,,ミサワークス,0
1815,7100001036555,新規,0,2023-07-07,2023-07-07,株式会社ｍｉｒ,,株式会社,長野県,上田市,材木町１丁目６番１３号－１０９号,,20,203,3860014,,,,,,,2023-07-07,1,,,,,ミール,0
1816,7100001036563,新規,0,2023-07-07,2023-07-07,株式会社アローズ,,株式会社,長野県,安曇野市,豊科高家５２２５番地８,,20,220,3998204,,,,,,,2023-07-07,1,,,,,アローズ,0
1818,7110001037676,新規,0,2023-07-07,2023-07-07,株式会社４Ｌ３,,株式会社,新潟県,上越市,西城町２丁目６番１１号,,15,222,9430834,,,,,,,2023-07-07,1,,,,,ヨンエルサン,0
1834,7120001256250,新規,0,2023-07-07,2023-07-07,フルーツノカタチ株式会社,,株式会社,大阪府,大阪市中央区,松屋町２番１０－１５０９号,,27,128,5420067,,,,,,,2023-07-07,1,,,,,フルーツノカタチ,0
1838,7120003024432,新規,0,2023-07-07,2023-07-07,合同会社エスケイタウン,,合同会社,大阪府,大阪市浪速区,恵美須西１丁目３番４号坂本ビル,,27,111,5560003,,,,,,,2023-07-07,1,,,,,エスケイタウン,0
1839,7120003024440,新規,0,2023-07-07,2023-07-07,合同会社ＭＩＲＵ,,合同会社,大阪府,大阪市浪速区,恵美須東３丁目２番６号１階,,27,111,5560002,,,,,,,2023-07-07,1,,,,,ミル,0
1840,7120003024481,新規,0,2023-07-07,2023-07-07,合同会社Ｆｅｌｉｃｉｃｒｏ,,合同会社,大阪府,大阪市北区,梅田１丁目２番２号大阪駅前第２ビル１２‐１２,,27,127,5300001,,,,,,,2023-07-07,1,,,,,フェリシクロ,0
1849,7120101067845,新規,0,2023-07-07,2023-07-07,株式会社南工務店,,株式会社,大阪府,岸和田市,地蔵浜町７番１号,,27,202,5960015,,,,,,,2023-07-07,1,,,,,ミナミコウムテン,0
1852,7120103005316,新規,0,2023-07-07,2023-07-07,合同会社ＯＺ住まいる,,合同会社,大阪府,堺市東区,北野田１０８４番地ベルヒル北野田１１９,,27,143,5998123,,,,,,,2023-07-07,1,,,,,オズスマイル,0
1855,7120901047757,新規,0,2023-07-07,2023-07-07,株式会社Ｍ＆Ａ,,株式会社,大阪府,豊中市,本町３丁目１１番１２号,,27,203,5600021,,,,,,,2023-07-07,1,,,,,エムアンドエー,0
1856,7120903004723,新規,0,2023-07-07,2023-07-07,合同会社ヒロシマ,,合同会社,大阪府,茨木市,東中条町１２番４１－７０４,,27,211,5670885,,,,,,,2023-07-07,1,,,,,ヒロシマ,0
1862,7130001074676,新規,0,2023-07-07,2023-07-07,木津川農林株式会社,,株式会社,京都府,木津川市,市坂幣羅坂３８番地,,26,214,6190213,,,,,,,2023-07-07,1,,,,,キヅガワノウリン,0
1865,7130003008830,新規,0,2023-07-07,2023-07-07,合同会社綴屋,,合同会社,京都府,京都市北区,大森西町５８番地,,26,101,6010144,,,,,,,2023-07-07,1,,,,,ツヅルヤ,0
1870,7140001130809,新規,0,2023-07-07,2023-07-07,株式会社ビーエス創建,,株式会社,兵庫県,明石市,魚住町西岡２３０８番地の１０,,28,203,6740084,,,,,,,2023-07-07,1,,,,,ビーエスソウケン,0
1882,7180001156965,新規,0,2023-07-07,2023-07-07,株式会社ＩＧホールディングス,,株式会社,愛知県,名古屋市南区,豊２丁目１３番２７号,,23,112,4570863,,,,,,,2023-07-07,1,,,,,イグナーツホールディングス,0
1883,7180001157006,新規,0,2023-07-07,2023-07-07,株式会社ペットワン,,株式会社,愛知県,名古屋市千種区,豊年町一丁目１番１２号,,23,101,4640076,,,,,,,2023-07-07,1,,,,,ペットワン,0
1884,7180001157014,新規,0,2023-07-07,2023-07-07,ＲｉｎｇＪａｐａｎ株式会社,,株式会社,愛知県,名古屋市中村区,名駅４丁目２４番５号第２森ビル４０１,,23,105,4500002,,,,,,,2023-07-07,1,,,,,リングジャパン,0
1885,7180001157022,新規,0,2023-07-07,2023-07-07,株式会社ＴＨＳ,,株式会社,愛知県,名古屋市東区,葵３丁目３番８号サンアピック６０５,,23,102,4610004,,,,,,,2023-07-07,1,,,,,ティーエイチエス,0
1886,7180001157030,新規,0,2023-07-07,2023-07-07,樹産業株式会社,,株式会社,愛知県,あま市,下萱津五反田４番地アムールグリシーヌ２０３号,,23,237,4901114,,,,,,,2023-07-07,1,,,,,イツキサンギョウ,0
1887,7180001157055,新規,0,2023-07-07,2023-07-07,株式会社雅電設,,株式会社,愛知県,名古屋市瑞穂区,太田町１丁目３番地の９,,23,108,4670874,,,,,,,2023-07-07,1,,,,,ミヤビデンセツ,0
1889,7180003025458,新規,0,2023-07-07,2023-07-07,合同会社整体院創一,,合同会社,愛知県,名古屋市西区,枇杷島１丁目１７番４号,,23,104,4510053,,,,,,,2023-07-07,1,,,,,セイタイインソウイチ,0
1893,7180305009489,新規,0,2023-07-07,2023-07-07,医療法人山口歯科,,その他の設立登記法人,愛知県,豊橋市,前田町１丁目７番地の１８,,23,201,4400814,,,,,,,2023-07-07,1,,,,,ヤマグチシカ,0
1896,7200001041470,新規,0,2023-07-07,2023-07-07,株式会社ＲＯＹＡＬＣＥＮＴＵＲＹ,,株式会社,岐阜県,揖斐郡揖斐川町,三輪１４６９－１,,21,401,5010619,,,,,,,2023-07-07,1,,,,,ロイヤルセンチュリー,0
1898,7220001025488,新規,0,2023-07-07,2023-07-07,株式会社ウエダ商事,,株式会社,石川県,加賀市,大聖寺法華坊町４４番地の２２,,17,206,9220033,,,,,,,2023-07-07,1,,,,,ウエダショウジ,0
1902,7230003002047,新規,0,2023-07-07,2023-07-07,富ノ山合同会社,,合同会社,富山県,富山市,清水町７丁目１番４号,,16,201,9300036,,,,,,,2023-07-07,1,,,,,トミノヤマ,0
1904,7240001061754,新規,0,2023-07-07,2023-07-07,アマザキ内装株式会社,,株式会社,広島県,東広島市,西条町御薗宇２８３０番地７,,34,212,7390024,,,,,,,2023-07-07,1,,,,,アマザキナイソウ,0
1906,7240005015608,新規,0,2023-07-07,2023-07-07,一般社団法人相続遺言サポートかえで,,その他の設立登記法人,広島県,広島市西区,東観音町１１番１４号,,34,104,7330032,,,,,,,2023-07-07,1,,,,,ソウゾクユイゴンサポートカエデ,0
1910,7250003003299,新規,0,2023-07-07,2023-07-07,合同会社ＫＩＫＵＴＥＩ,,合同会社,山口県,岩国市,麻里布町４丁目１９番２７－１４０１号,,35,208,7400018,,,,,,,2023-07-07,1,,,,,キクテイ,0
1913,7260001038098,新規,0,2023-07-07,2023-07-07,株式会社ウォール・クリエイト,,株式会社,岡山県,岡山市中区,平井３丁目９００番地８,,33,102,7038282,,,,,,,2023-07-07,1,,,,,ウォールクリエイト,0
1918,7280001008982,新規,0,2023-07-07,2023-07-07,グランディア赤名峠株式会社,,株式会社,島根県,飯石郡飯南町,下来島２５９９番１,,32,386,6903402,,,,,,,2023-07-07,1,,,,,グランディアアカナトウゲ,0
1923,7290001102165,新規,0,2023-07-07,2023-07-07,株式会社ＫＣ,,株式会社,福岡県,福岡市博多区,店屋町１－３１博多アーバンスクエア２階,,40,132,8120025,,,,,,,2023-07-07,1,,,,,ケーシー,0
1924,7290001102173,新規,0,2023-07-07,2023-07-07,株式会社ヒサダヤフーズ,,株式会社,福岡県,糸島市,二丈松国３２８番地６,,40,230,8191627,,,,,,,2023-07-07,1,,,,,ヒサダヤフーズ,0
1925,7290001102198,新規,0,2023-07-07,2023-07-07,株式会社アクティブｐｌｕｓ,,株式会社,福岡県,大野城市,南ケ丘３丁目１７番８号,,40,219,8160964,,,,,,,2023-07-07,1,,,,,アクティブプラス,0
1926,7290001102215,新規,0,2023-07-07,2023-07-07,株式会社ＢＲスペース,,株式会社,福岡県,福岡市城南区,片江５丁目３３番１４号,,40,136,8140142,,,,,,,2023-07-07,1,,,,,ビーアールスペース,0
1927,7290003014111,新規,0,2023-07-07,2023-07-07,合同会社アシスト,,合同会社,福岡県,福岡市博多区,板付７丁目３番５号,,40,132,8120888,,,,,,,2023-07-07,1,,,,,アシスト,0
1929,7290005019083,新規,0,2023-07-07,2023-07-07,一般社団法人イーケア,,その他の設立登記法人,福岡県,福岡市西区,内浜２丁目１－１７－１０１,,40,135,8190005,,,,,,,2023-07-07,1,,,,,イーケア,0
1931,7290801029665,新規,0,2023-07-07,2023-07-07,株式会社ＧＯＮ,,株式会社,福岡県,中間市,大字垣生１４８７番地,,40,215,8090001,,,,,,,2023-07-07,1,,,,,ジーオーエヌ,0
1932,7290801029673,新規,0,2023-07-07,2023-07-07,株式会社藤沢産機,,株式会社,福岡県,遠賀郡遠賀町,大字虫生津１６６６番地,,40,384,8114321,,,,,,,2023-07-07,1,,,,,フジサワサンキ,0
1938,7330001031013,新規,0,2023-07-07,2023-07-07,株式会社ＹＵ‐ＡＩ,,株式会社,熊本県,熊本市中央区,坪井６丁目５番７号,,43,101,8600863,,,,,,,2023-07-07,1,,,,,ユウアイ,0
1939,7330001031021,新規,0,2023-07-07,2023-07-07,株式会社ＫＵＭＡＴＯＲＡ,,株式会社,熊本県,熊本市東区,長嶺南１丁目５番６号,,43,102,8618039,,,,,,,2023-07-07,1,,,,,クマトラ,0
1940,7330003009899,新規,0,2023-07-07,2023-07-07,ＫＴＴ合同会社,,合同会社,熊本県,八代市,東陽町河俣２５２４番地,,43,202,8694303,,,,,,,2023-07-07,1,,,,,ケイティティ,0
1941,7330003009908,新規,0,2023-07-07,2023-07-07,合同会社ＵＵＬ,,合同会社,熊本県,熊本市東区,健軍３丁目５２番１２号２階,,43,102,8620911,,,,,,,2023-07-07,1,,,,,ウール,0
1947,7340001025690,新規,0,2023-07-07,2023-07-07,株式会社ライト,,株式会社,鹿児島県,霧島市,国分郡田５７７番地１,,46,218,8994305,,,,,,,2023-07-07,1,,,,,ライト,0
1948,7340001025699,新規,0,2023-07-07,2023-07-07,元田土木工業株式会社,,株式会社,鹿児島県,姶良市,西餅田５６１番地１コーポ松元１０３,,46,225,8995431,,,,,,,2023-07-07,1,,,,,モトダドボクコウギョウ,0
1953,7370001050141,新規,0,2023-07-07,2023-07-07,株式会社シトラケア,,株式会社,宮城県,亘理郡亘理町,字道田西６６番地６クレールヴィラ１０２,,04,361,9892351,,,,,,,2023-07-07,1,,,,,シトラケア,0
1956,7380003005506,新規,0,2023-07-07,2023-07-07,合同会社とみずる,,合同会社,福島県,須賀川市,小倉字桐久保６０番地,,07,207,9620712,,,,,,,2023-07-07,1,,,,,トミズル,0
1959,7400001016304,新規,0,2023-07-07,2023-07-07,さくら美建株式会社,,株式会社,岩手県,北上市,立花２７地割１７１番地,,03,206,0240043,,,,,,,2023-07-07,1,,,,,サクラビケン,0
1962,7420003002754,新規,0,2023-07-07,2023-07-07,合同会社なかむら,,合同会社,青森県,八戸市,小中野２丁目６番１０号,,02,203,0310802,,,,,,,2023-07-07,1,,,,,ナカムラ,0
1971,7430003015210,新規,0,2023-07-07,2023-07-07,合同会社高希,,合同会社,北海道,札幌市中央区,北一条西１６丁目１番地３,,01,101,0600001,,,,,,,2023-07-07,1,,,,,コウキ,0
1972,7450005004374,新規,0,2023-07-07,2023-07-07,特定非営利活動法人ＯＩＤＥ,,その他の設立登記法人,北海道,上川郡和寒町,字三笠１５９番地７５,,01,464,0980111,,,,,,,2023-07-07,1,,,,,オイデ,0
1973,7460101007404,新規,0,2023-07-07,2023-07-07,株式会社溝口機工,,株式会社,北海道,帯広市,清流東２丁目５番地１,,01,207,0800871,,,,,,,2023-07-07,1,,,,,ミゾグチキコウ,0
1974,7470001019688,新規,0,2023-07-07,2023-07-07,株式会社優拓,,株式会社,香川県,丸亀市,中府町５丁目７番５－５０１号サーパス城西,,37,202,7630033,,,,,,,2023-07-07,1,,,,,ユウタク,0
1976,7490001010521,新規,0,2023-07-07,2023-07-07,株式会社アズコンテック,,株式会社,高知県,高知市,種崎７２８番地７,,39,201,7810113,,,,,,,2023-07-07,1,,,,,アズコンテック,0
1977,7500001025055,新規,0,2023-07-07,2023-07-07,株式会社１０１トレーディング,,株式会社,愛媛県,松山市,桑原７丁目２番２６号,,38,201,7900911,,,,,,,2023-07-07,1,,,,,イチマルイチトレーディング,0
1978,7700150118300,新規,0,2023-07-07,2023-07-07,ｓｈｅｎｚｈｅｎ　ｃｈｅｇｕ　ｋｅｊｉ　ｙｏｕｘｉａｎ　ｇｏｎｇｓｉ,,外国会社等,,,,,,,,ｓｈａｎｇｊｉｎｇ　ｓｈｅｑｕ　ｙｕｚｈｏｎｇｌｕ　１０ｈａｏ　ｆｅｉｆａｎｋｏｎｇｊｉａｎｇｅ　８１１　ｌｏｎｇｇａｎｇｑｕ　ｌｏｎｇｃｈｅｎｇ　ｊｉｅｄａｏ　ｓｈｅｎｚｈｅｎ　ｇｕａｎｇｄｏｎｇ　５１８１７２　ＣＮ,,,,,,2023-07-07,1,,,,,シェンジェンチョーグゥカージヨウシェンゴンスー,0
1979,7700150118309,新規,0,2023-07-07,2023-07-07,Ｊｉａｎｇｘｉ　Ｍｉｎｇｈｅ　Ｉｎｔｅｒｎａｔｉｏｎａｌ　Ｔｒａｄｅ　Ｃｏ．，Ｌｔｄ．,,外国会社等,,,,,,,,１３７０　Ｊｉｎｇｇａｎｇｓｈａｎ　Ａｖｅｎｕｅ，Ｘｉｈｕ　Ｄｉｓｔｒｉｃｔ　１７ｔｈ　Ｆｌｏｏｒ，Ｍａｎａｇｅｍｅｎｔ　Ｏｆｆｉｃｅ，Ｎａｎｃｈａｎｇ　Ｅｃｏｎｏｍｉｃ　ａｎｄ　Ｔｒａｄｅ　Ｂ　Ｎａｎｃｈａｎｇ　Ｊｉａｎｇｘｉ　３３００００　ＣＮ,,,,,,2023-07-07,1,,,,,ジャンシミンヘインターナショナルトレードカンパニーリミテッド,0
1980,7700150118317,新規,0,2023-07-07,2023-07-07,Ｄｏｎｇｇｕａｎ　Ｃｉｔｙ　Ｙｕｌｏｎｇ　Ｉｎｄｕｓｔｒｉａｌ　Ｃｏ．，ＬＴＤ,,外国会社等,,,,,,,,Ｄｏｎｇｋｅｎｇ　Ｔｏｗｎ，Ｋｅｎｇｍｅｉ　Ｖｉｌｌａｇｅ，Ｓｅｃｏｎｄ　Ｗａｌｋｉｎｇ　Ｓｔｒｅｅｔ，Ｎｏ．６０，Ｓｅｃｏｎｄ　Ｆｌｏｏｒ，Ｄｏｎｇｇｕａｎ，Ｇｕａｎｇｄｏｎｇ，Ｃｈｉｎａ,,,,,,2023-07-07,1,,,,,ドンガンシティユロンインダストリアルカンパニーリミテッド,0
1981,7700150118358,新規,0,2023-07-07,2023-07-07,ＨＹＴＴＯ　ＬＩＭＩＴＥＤ,,外国会社等,,,,,,,,１２／Ｆ　ＡＴ　ＴＯＷＥＲ　１８０　ＥＬＥＣＴＲＩＣ　ＲＤ　ＮＯＲＴＨ　ＰＯＩＮＴ　Ｈｏｎｇ　Ｋｏｎｇ,,,,,,2023-07-07,1,,,,,ハイットリミテッド,0
1982,7700150118366,新規,0,2023-07-07,2023-07-07,Ｓｈａｎｇｈａｉ　Ｓｉｙｕａｎ　Ｔｒａｄｉｎｇ　Ｃｏ．，Ｌｔｄ,,外国会社等,,,,,,,,Ｑｉｎｇｐｕｑｕ．Ｂａｉｈｅｚｈｅｎ　Ｗａｉｑｉｎｇｓｏｎｇｇｏｎｇｌｕ３５６０ｈａｏ　１ｈａｏｌｏｕ　２ｃｅｎｇ　Ｆｑｕ　２０６５ｓｈｉ　Ｓｈａｎｇｈａｉ　Ｓｈａｎｇｈａｉ　Ｃｈｉｎａ,,,,,,2023-07-07,1,,,,,シャンハイシユェントゥレイディングカンパニーリミテッド,0
1990,8010001236683,新規,0,2023-07-07,2023-07-07,福猫物語株式会社,,株式会社,東京都,中央区,銀座１丁目１２－４Ｎ＆ＥＢＬＤ．７階,,13,102,1040061,,,,,,,2023-07-07,1,,,,,フクネコモノガタリ,0
1991,8010001236700,新規,0,2023-07-07,2023-07-07,株式会社Ｓａｎｔａ　Ｓｕｎｒｉｓｅ,,株式会社,東京都,文京区,大塚４丁目８番９号ドルフベルク大塚１０３,,13,105,1120012,,,,,,,2023-07-07,1,,,,,サンタサンライズ,0
1994,8010005036907,新規,0,2023-07-07,2023-07-07,一般社団法人日本石綿対策技術協会,,その他の設立登記法人,東京都,千代田区,神田神保町２丁目２番地３１ヒューリック神保町ビル４階,,13,101,1010051,,,,,,,2023-07-07,1,,,,,ニホンイシワタタイサクギジュツキョウカイ,0
1998,8010401175382,新規,0,2023-07-07,2023-07-07,Ｂｅｌｒｏｓｅ　Ｎｏｒｄｉｃ株式会社,,株式会社,東京都,港区,海岸１丁目２番２０号汐留ビルディング３階,,13,103,1050022,,,,,,,2023-07-07,1,,,,,ベルローズノルディック,0
1999,8010401175457,新規,0,2023-07-07,2023-07-07,スタディーシステムズ株式会社,,株式会社,東京都,港区,三田２丁目１０番５－８０３号,,13,103,1080073,,,,,,,2023-07-07,1,,,,,スタディーシステムズ,0
2000,8010401175481,新規,0,2023-07-07,2023-07-07,株式会社香林,,株式会社,東京都,港区,西麻布１丁目１２番６号,,13,103,1060031,,,,,,,2023-07-07,1,,,,,コウリン,0
2002,8010403030429,新規,0,2023-07-07,2023-07-07,ＧＰＳＳ１０合同会社,,合同会社,東京都,港区,芝２丁目５番１０号芝公園ＮＤビル６階,,13,103,1050014,,,,,,,2023-07-07,1,,,,,ジーピーエスエステン,0
2004,8010501050733,新規,0,2023-07-07,2023-07-07,株式会社ネクストステージ,,株式会社,東京都,台東区,根岸３丁目２１番５号クレストコート根岸柳通り３０４,,13,106,1100003,,,,,,,2023-07-07,1,,,,,ネクストステージ,0
2005,8010603010239,新規,0,2023-07-07,2023-07-07,隅田屋貿易合同会社,,合同会社,東京都,墨田区,東駒形１丁目６番１号,,13,107,1300005,,,,,,,2023-07-07,1,,,,,スミダヤボウエキ,0
2026,8011001155477,新規,0,2023-07-07,2023-07-07,株式会社ＭＵＳＥ,,株式会社,東京都,渋谷区,渋谷２丁目１９－１５宮益坂ビルディング６０９,,13,113,1500002,,,,,,,2023-07-07,1,,,,,ミューズ,0
2027,8011001155493,新規,0,2023-07-07,2023-07-07,株式会社らくがきちょう,,株式会社,東京都,渋谷区,渋谷２丁目１９－１５宮益坂ビルディング６０９,,13,113,1500002,,,,,,,2023-07-07,1,,,,,ラクガキチョウ,0
2028,8011001155527,新規,0,2023-07-07,2023-07-07,株式会社ＫＩＺＡＳＨＩコンサルティング,,株式会社,東京都,渋谷区,本町２丁目４１番６号アロース３０１,,13,113,1510071,,,,,,,2023-07-07,1,,,,,キザシコンサルティング,0
2033,8011101103492,新規,0,2023-07-07,2023-07-07,株式会社ＥＡＲＴＨ,,株式会社,東京都,新宿区,荒木町１０番地３０コムロンド四谷荒木町２０１,,13,104,1600007,,,,,,,2023-07-07,1,,,,,アース,0
2034,8011101103501,新規,0,2023-07-07,2023-07-07,株式会社リーガル・リノベーション,,株式会社,東京都,新宿区,西新宿５丁目２５番１４号,,13,104,1600023,,,,,,,2023-07-07,1,,,,,リーガルリノベーション,0
2037,8011103013228,新規,0,2023-07-07,2023-07-07,合同会社イイトコドリ,,合同会社,東京都,新宿区,西新宿３丁目３番１３号西新宿水間ビル６階,,13,104,1600023,,,,,,,2023-07-07,1,,,,,イイトコドリ,0
2038,8011105010719,新規,0,2023-07-07,2023-07-07,行政書士法人Ｊａｐａｎ　Ｅｘｐｅｒｔ　Ｉｍｍｉｇｒａｔｉｏｎ　Ｌａｗ　Ｆｉｒｍ,,その他の設立登記法人,東京都,新宿区,新宿４丁目３番３１号,,13,104,1600022,,,,,,,2023-07-07,1,,,,,ジャパンエキスパートイミグレーションローファーム,0
2039,8011201024762,新規,0,2023-07-07,2023-07-07,株式会社ＭＫＹコーポレーション,,株式会社,東京都,中野区,弥生町２丁目４１番４号,,13,114,1640013,,,,,,,2023-07-07,1,,,,,エムケイワイコーポレーション,0
2043,8011401025255,新規,0,2023-07-07,2023-07-07,株式会社Ｍ‐ＮＥＸＴ,,株式会社,東京都,板橋区,大山金井町４７番５－４０５号,,13,119,1730024,,,,,,,2023-07-07,1,,,,,エムネクスト,0
2046,8011503005675,新規,0,2023-07-07,2023-07-07,合同会社Ｎ‐Ｒａｎｄ,,合同会社,東京都,荒川区,東日暮里５丁目７番３－９０２号,,13,118,1160014,,,,,,,2023-07-07,1,,,,,エヌランド,0
2053,8011803005722,新規,0,2023-07-07,2023-07-07,合同会社Ｌ’ｈｏｒｔｅｎｓｉａ,,合同会社,東京都,足立区,西新井５丁目１４番８号,,13,121,1230841,,,,,,,2023-07-07,1,,,,,ロートンシア,0
2066,8020001152392,新規,0,2023-07-07,2023-07-07,永林株式会社,,株式会社,神奈川県,横浜市港北区,日吉本町１丁目３番１２号,,14,109,2230062,,,,,,,2023-07-07,1,,,,,エイリン,0
2071,8021001079485,新規,0,2023-07-07,2023-07-07,株式会社スリーアプラス,,株式会社,神奈川県,横須賀市,若松町３丁目６番地,,14,201,2380007,,,,,,,2023-07-07,1,,,,,スリーアプラス,0
2072,8021001079510,新規,0,2023-07-07,2023-07-07,株式会社魚翔,,株式会社,神奈川県,横須賀市,大矢部２丁目１３番１６－８号,,14,201,2380024,,,,,,,2023-07-07,1,,,,,ウオショウ,0
2073,8021001079519,新規,0,2023-07-07,2023-07-07,株式会社ＴＹＣ,,株式会社,神奈川県,平塚市,寺田縄５８番地１,,14,203,2591215,,,,,,,2023-07-07,1,,,,,ティーワイシー,0
2074,8021001079527,新規,0,2023-07-07,2023-07-07,株式会社マイリスト,,株式会社,神奈川県,横須賀市,三春町２丁目９番９号,,14,201,2380014,,,,,,,2023-07-07,1,,,,,マイリスト,0
2075,8021003013285,新規,0,2023-07-07,2023-07-07,合同会社はせ川,,合同会社,神奈川県,横須賀市,グリーンハイツ２番３－２号,,14,201,2390846,,,,,,,2023-07-07,1,,,,,ハセガワ,0
2076,8021003013293,新規,0,2023-07-07,2023-07-07,ＭＫ住建合同会社,,合同会社,神奈川県,三浦郡葉山町,一色１８９１番地の１８,,14,301,2400111,,,,,,,2023-07-07,1,,,,,エムケージュウケン,0
2078,8030001154768,新規,0,2023-07-07,2023-07-07,株式会社キグミル,,株式会社,埼玉県,さいたま市大宮区,天沼町２丁目１３５番地ＬＭ大宮天沼１０１号,,11,103,3300834,,,,,,,2023-07-07,1,,,,,キグミル,0
2082,8040001128903,新規,0,2023-07-07,2023-07-07,株式会社大畠稜司建築設計事務所,,株式会社,千葉県,松戸市,常盤平陣屋前１番１３号,,12,207,2702265,,,,,,,2023-07-07,1,,,,,オオハタリョウジケンチクセッケイジムショ,0
2083,8040001129100,新規,0,2023-07-07,2023-07-07,株式会社小堀瓦店,,株式会社,千葉県,印西市,草深１６７７番地６０,,12,231,2701337,,,,,,,2023-07-07,1,,,,,コボリカワラテン,0
2084,8040001129125,新規,0,2023-07-07,2023-07-07,株式会社ＰＬＡＮ　ＤＩＭＥＮＳＩＯＮ,,株式会社,千葉県,市川市,中国分３丁目６番９号,,12,203,2720835,,,,,,,2023-07-07,1,,,,,プランディメンション,0
2085,8040001129133,新規,0,2023-07-07,2023-07-07,株式会社エヌシー,,株式会社,千葉県,野田市,上花輪１１５２番地の２,,12,208,2780033,,,,,,,2023-07-07,1,,,,,エヌシー,0
2086,8040001129141,新規,0,2023-07-07,2023-07-07,日進ジャパン株式会社,,株式会社,千葉県,流山市,加１丁目１１番地アルス流山２０６,,12,220,2700176,,,,,,,2023-07-07,1,,,,,ニッシンジャパン,0
2090,8040003022906,新規,0,2023-07-07,2023-07-07,合同会社クラブハイマウンテン,,合同会社,千葉県,浦安市,堀江４丁目８番１－１１１号,,12,227,2790041,,,,,,,2023-07-07,1,,,,,クラブハイマウンテン,0
2093,8060001036138,新規,0,2023-07-07,2023-07-07,株式会社有本農園,,株式会社,栃木県,那須郡那須町,大字寺子乙３２１５番地２,,09,407,3293215,,,,,,,2023-07-07,1,,,,,アリモトノウエン,0
2095,8060003004638,新規,0,2023-07-07,2023-07-07,ブリッジワークス合同会社,,合同会社,栃木県,宇都宮市,西川田南１丁目７番４号,,09,201,3210155,,,,,,,2023-07-07,1,,,,,ブリッジワークス,0
2113,8080401026562,新規,0,2023-07-07,2023-07-07,株式会社ｐｈａｓｅ　ｂｕｌｌ,,株式会社,静岡県,浜松市中区,鴨江３丁目５番９号,,22,131,4328023,,,,,,,2023-07-07,1,,,,,フェーズブル,0
2116,8100001036554,新規,0,2023-07-07,2023-07-07,アクアネット株式会社,,株式会社,長野県,上田市,常入１丁目１５番１１号,,20,203,3860015,,,,,,,2023-07-07,1,,,,,アクアネット,0
2117,8100001036570,新規,0,2023-07-07,2023-07-07,アグリフードグローバル株式会社,,株式会社,長野県,諏訪郡富士見町,富士見３７８５番地３,,20,362,3990211,,,,,,,2023-07-07,1,,,,,アグリフードグローバル,0
2130,8120001256233,新規,0,2023-07-07,2023-07-07,株式会社ビークルデベロップメント,,株式会社,大阪府,大阪市中央区,安堂寺町２丁目６番１１－２５０４号,,27,128,5420061,,,,,,,2023-07-07,1,,,,,ビークルデベロップメント,0
2131,8120001256282,新規,0,2023-07-07,2023-07-07,株式会社ＬａｕｇｈＳｈａｒｉｎｇ,,株式会社,大阪府,大阪市浪速区,日本橋３丁目８番１２号,,27,111,5560005,,,,,,,2023-07-07,1,,,,,ラフシェアリング,0
2132,8120001256290,新規,0,2023-07-07,2023-07-07,レガトス株式会社,,株式会社,大阪府,大阪市西区,新町１丁目３３番１ＯＮＥＳＨＩＮＭＡＣＨＩ６０１,,27,106,5500013,,,,,,,2023-07-07,1,,,,,レガトス,0
2136,8120003024398,新規,0,2023-07-07,2023-07-07,りらいふリーガルオフィス合同会社,,合同会社,大阪府,大阪市中央区,南船場１丁目３－１４ストークビル南船場３０６,,27,128,5420081,,,,,,,2023-07-07,1,,,,,リライフリーガルオフィス,0
2145,8130001074634,新規,0,2023-07-07,2023-07-07,株式会社ＧＲＡＮＤ,,株式会社,京都府,京都市中京区,釜座町２２ストークビル三条烏丸２０３,,26,104,6040000,,,,,,,2023-07-07,1,,,,,グランド,0
2146,8130005016814,新規,0,2023-07-07,2023-07-07,一般財団法人高専インフラメンテナンス人材育成推進機構,,その他の設立登記法人,京都府,舞鶴市,字白屋２３４番地,,26,202,6250016,,,,,,,2023-07-07,1,,,,,コウセンインフラメンテナンスジンザイイクセイスイシンキコウ,0
2160,8160001025139,新規,0,2023-07-07,2023-07-07,株式会社ティコネクト,,株式会社,滋賀県,大津市,下阪本３丁目１２番７３号,,25,201,5200105,,,,,,,2023-07-07,1,,,,,ティコネクト,0
2161,8160001025147,新規,0,2023-07-07,2023-07-07,Ａｔｅｌｉｅｒ　Ｋｅｙ‐ｍｅｎ株式会社,,株式会社,滋賀県,東近江市,宮井町３６３番地,,25,213,5291564,,,,,,,2023-07-07,1,,,,,アトリエキーメン,0
2162,8160001025155,新規,0,2023-07-07,2023-07-07,ファースト工業株式会社,,株式会社,滋賀県,大津市,木戸１０３番地の１２,,25,201,5200514,,,,,,,2023-07-07,1,,,,,ファーストコウギョウ,0
2168,8180001156931,新規,0,2023-07-07,2023-07-07,友諠社貿易株式会社,,株式会社,愛知県,稲沢市,北島町戸杁３５番地３,,23,220,4928411,,,,,,,2023-07-07,1,,,,,ユウギシャボウエキ,0
2169,8180001156989,新規,0,2023-07-07,2023-07-07,株式会社ウチダ,,株式会社,愛知県,名古屋市南区,豊４丁目１７番１２号,,23,112,4570863,,,,,,,2023-07-07,1,,,,,ウチダ,0
2170,8180001156997,新規,0,2023-07-07,2023-07-07,株式会社石原工業,,株式会社,愛知県,一宮市,大和町妙興寺字八町２３番地２,,23,203,4910922,,,,,,,2023-07-07,1,,,,,イシハラコウギョウ,0
2171,8180001157013,新規,0,2023-07-07,2023-07-07,中川テクノス株式会社,,株式会社,愛知県,名古屋市中川区,大塩町３丁目６番地,,23,110,4540863,,,,,,,2023-07-07,1,,,,,ナカガワテクノス,0
2172,8180001157021,新規,0,2023-07-07,2023-07-07,ａｍｐ株式会社,,株式会社,愛知県,清須市,阿原角の城１１１番地,,23,233,4520901,,,,,,,2023-07-07,1,,,,,アンプ,0
2173,8180001157038,新規,0,2023-07-07,2023-07-07,東海住建株式会社,,株式会社,愛知県,名古屋市東区,東桜２丁目３番７号東カン名古屋キャステール,,23,102,4610005,,,,,,,2023-07-07,1,,,,,トウカイジュウケン,0
2174,8180001157046,新規,0,2023-07-07,2023-07-07,株式会社プロシード,,株式会社,愛知県,名古屋市西区,大野木４丁目１９３番地佃マンション１Ｂ,,23,104,4520803,,,,,,,2023-07-07,1,,,,,プロシード,0
2178,8180003025440,新規,0,2023-07-07,2023-07-07,合同会社麺屋玉ぐすく,,合同会社,愛知県,名古屋市千種区,今池１丁目６番８号ブルースタービル１Ｆ,,23,101,4640850,,,,,,,2023-07-07,1,,,,,メンヤタマグスク,0
2179,8180301037534,新規,0,2023-07-07,2023-07-07,株式会社ジーアイ,,株式会社,愛知県,蒲郡市,西浦町川東２９番１,,23,214,4430105,,,,,,,2023-07-07,1,,,,,ジーアイ,0
2186,8220001025487,新規,0,2023-07-07,2023-07-07,株式会社くろき動物病院,,株式会社,石川県,加賀市,作見町ヘの４番地の１,,17,206,9220423,,,,,,,2023-07-07,1,,,,,クロキドウブツビョウイン,0
2187,8220001025495,新規,0,2023-07-07,2023-07-07,株式会社ＥＤＡ,,株式会社,石川県,金沢市,増泉２丁目２２番２７号,,17,201,9218025,,,,,,,2023-07-07,1,,,,,イーディーエー,0
2193,8230001019901,新規,0,2023-07-07,2023-07-07,株式会社建設マネジメント北陸西,,株式会社,富山県,富山市,中市１丁目５番２６号,,16,201,9398005,,,,,,,2023-07-07,1,,,,,ケンセツマネジメントホクリクニシ,0
2197,8240001061761,新規,0,2023-07-07,2023-07-07,英工業株式会社,,株式会社,広島県,尾道市,瀬戸田町荻２５１６番地２,,34,205,7222403,,,,,,,2023-07-07,1,,,,,ヒデコウギョウ,0
2204,8260001038097,新規,0,2023-07-07,2023-07-07,株式会社ＫＹＯＥＩ,,株式会社,岡山県,倉敷市,連島町鶴新田３１８７番地１,,33,202,7128006,,,,,,,2023-07-07,1,,,,,キョウエイ,0
2205,8260003004361,新規,0,2023-07-07,2023-07-07,合同会社Ｃｏ‐Ｃｒｅａｔｉｏｎ,,合同会社,岡山県,苫田郡鏡野町,円宗寺１０００－４,,33,606,7080321,,,,,,,2023-07-07,1,,,,,コクリエーション,0
2214,8290801029680,新規,0,2023-07-07,2023-07-07,武末興産株式会社,,株式会社,福岡県,北九州市八幡西区,永犬丸西町２丁目４番１２号,,40,109,8070852,,,,,,,2023-07-07,1,,,,,タケスエコウサン,0
2221,8330001031004,新規,0,2023-07-07,2023-07-07,ＤＲＵＮＫ株式会社,,株式会社,熊本県,熊本市南区,平成２丁目５番１１号ＤＫビル,,43,104,8600833,,,,,,,2023-07-07,1,,,,,ドランク,0
2222,8330001031012,新規,0,2023-07-07,2023-07-07,株式会社松田電設,,株式会社,熊本県,阿蘇市,一の宮町宮地５６１番地,,43,214,8692612,,,,,,,2023-07-07,1,,,,,マツダデンセツ,0
2223,8340001025707,新規,0,2023-07-07,2023-07-07,株式会社アクオ,,株式会社,鹿児島県,鹿児島市,自由ヶ丘２丁目２１番１７号,,46,201,8910106,,,,,,,2023-07-07,1,,,,,アクオ,0
2229,8380001033838,新規,0,2023-07-07,2023-07-07,株式会社りえぞん,,株式会社,福島県,福島市,笹木野字大金谷６０番地の１ベルコーポ吾妻Ｂ２０１,,07,201,9608057,,,,,,,2023-07-07,1,,,,,,0
2232,8390001017294,新規,0,2023-07-07,2023-07-07,株式会社ｋｏｈａｋ,,株式会社,山形県,鶴岡市,羽黒町後田字東４７番地,,06,203,9970157,,,,,,,2023-07-07,1,,,,,コハク,0
2236,8400001016303,新規,0,2023-07-07,2023-07-07,リンク株式会社,,株式会社,岩手県,紫波郡紫波町,犬吠森字境１４５番地４,,03,321,0283312,,,,,,,2023-07-07,1,,,,,リンク,0
2240,8410001013530,新規,0,2023-07-07,2023-07-07,株式会社仲谷設計,,株式会社,秋田県,秋田市,御所野地蔵田５丁目１４番８号,,05,201,0101413,,,,,,,2023-07-07,1,,,,,ナカヤセッケイ,0
2243,8420001018330,新規,0,2023-07-07,2023-07-07,株式会社つがる空冷サービス,,株式会社,青森県,弘前市,大字清水森字下川原２番地１２５,,02,202,0368113,,,,,,,2023-07-07,1,,,,,ツガルクウレイサービス,0
2248,8450003002354,新規,0,2023-07-07,2023-07-07,ｇｒｅｅｎ　ｐｅａｃｅ不動産合同会社,,合同会社,北海道,旭川市,旭神三条４丁目７番９号,,01,204,0788373,,,,,,,2023-07-07,1,,,,,グリーンピースフドウサン,0
2249,8460101007403,新規,0,2023-07-07,2023-07-07,株式会社Ａｌｔｒｕｉｓｍ,,株式会社,北海道,帯広市,西十四条北１丁目２番地３５,,01,207,0800044,,,,,,,2023-07-07,1,,,,,アルトルイズム,0
2250,8500001025046,新規,0,2023-07-07,2023-07-07,株式会社シンセイ,,株式会社,愛媛県,伊予市,上野６３６番地３,,38,210,7993103,,,,,,,2023-07-07,1,,,,,シンセイ,0
2251,8700150118299,新規,0,2023-07-07,2023-07-07,ｓｈｅｎｚｈｅｎｙｉｆｅｉｃｈｉｋｅｊｉｙｏｕｘｉａｎｇｏｎｇｓｉ,,外国会社等,,,,,,,,Ｃｈａｎｇｘｉｎｇ　Ｒｏａｄ，Ｈｕｉｌｏｎｇｐｕ　Ｃｏｍｍｕｎｉｔｙ，Ｌｏｎｇｃｈｅｎｇ　Ｓｔｒｅｅｔ　Ａ２０１，Ｂｕｉｌｄｉｎｇ　１４，Ｃｅｎｔｒａｌ　Ｊｏｙ　Ｃｉｔｙ　Ｓｈｅｎｚｈｅｎ　Ｌｏｎｇｇａｎｇ　Ｇｕａｎｇｄｏｎｇ　５１８０００　ＣＮ,,,,,,2023-07-07,1,,,,,シェンジェンイーフェイチーカージヨウシェンゴンスー,0
2252,8700150118308,新規,0,2023-07-07,2023-07-07,Ｚｈｕｈａｉ　Ｈａｎ　Ｌｉ　Ｋｅ　Ｊｉ　Ｙｏｕ　Ｘｉａｎ　Ｇｏｎｇ　Ｓｉ,,外国会社等,,,,,,,,ｑｉａｎ　ｓｈａｎ　ｊｉｎ　ｊｉ　ｌｕ　３０６　ｈａｏ　１　ｄｏｎｇ　ｃｈａｎｇ　ｆａｎｇ　ｓａｎ　ｌｏｕ　３１３－４　ｚｈｕ　ｈａｉ　ｇｕａｎｇ　ｄｏｎｇ　５１９０００ＣＮ,,,,,,2023-07-07,1,,,,,ズハイハンリケジユウゲンコウシ,0
2253,8700150118316,新規,0,2023-07-07,2023-07-07,ＳＨＥＮＺＨＥＮＸＩＮＬＩＡＮＹＩＨＵＡ　ＹＯＵＸＩＡＮＧＯＮＧＳＩ,,外国会社等,,,,,,,,Ｂ２ｕｎｉｔ，ｙｕｈｏｎｇｇｏｎｇｙｅｙｕａｎ，ｓｈａｊｉｎｇ，ｂａｏａｎ，ｓｈｅｎｚｈｅｎ，ｇｕａｎｇｄｏｎｇ　Ｃｈｉｎａ,,,,,,2023-07-07,1,,,,,シンセンシンリャンイフアユウゲンコウシ,0
2254,8700150118332,新規,0,2023-07-07,2023-07-07,ｊｉａｘｉｎｇｓｈｉｓｉｇｏｎｇｆａｎｇｆｕｚｈｕａｎｇｙｏｕｘｉａｎｇｏｎｇｓｉ,,外国会社等,,,,,,,,Ｒｏｏｍ３０１，３ｒｄ　Ｆｌｏｏｒ，Ｂｕｉｌｄｉｎｇ１，Ｎｏ．３９Ｍｉｎｇｙａｎｇ　Ｒｏａｄ　Ｊｉａｘｉｎｇ　Ｅｃｏｎｏｍｉｃ　ａｎｄ　Ｔｅｃｈｎｏｌｏｇｉｃａｌ　Ｄｅｖｅｌｏｐｍｅｎｔ　Ｚｏｎｅ　Ｚｈｅｊｉａｎｇ　Ｐｒｏｖｉｎｃｅ　３１４００１　ＣＮ,,,,,,2023-07-07,1,,,,,ジャーシンシースーゴンファンフージュワンヨウシエンゴンスー,0
2255,8700150118340,新規,0,2023-07-07,2023-07-07,Ｇｕａｎｇｚｈｏｕ　Ｙｏｕｗｅｉ　Ｉｎｎｏｖａｔｉｖｅ　ｔｅｃｈｎｏｌｏｇｙ　Ｃｏ．，Ｌｔｄ．,,外国会社等,,,,,,,,Ｎｏ．１３－３，Ｇｕａｎｌｕ　Ｉｎｄｕｓｔｒｉａｌ　Ｐａｒｋ　Ｊｉｎｚｈｏｎｇ　Ａｖｅｎｕｅ，Ｘｉｕｑｕａｎ　Ｓｔｒｅｅｔ　Ｈｕａｄｕ　Ｄｉｓｔｒｉｃｔ，Ｇｕａｎｇｚｈｏｕ　Ｇｕａｎｇｄｏｎｇ　ＣＮ,,,,,,2023-07-07,1,,,,,グゥアンゾォウヨウウェイイノベイティブテクノロジーカンパニーリミテッド,0
2256,8700150118349,新規,0,2023-07-07,2023-07-07,ＳｈｉＨｕａＣｈｕａｎｇ（Ｔｉａｎｊｉｎ）Ｔｒａｄｉｎｇ　Ｃｏ．，Ｌｔｄ,,外国会社等,,,,,,,,Ｒｏｏｍ　ＮＯ．２０２９　Ａ８　Ｈａｏ　ＫｏｎｇＧａｎｇＧｕｏＪｉ　ＺｏｎｇＢｕＪｉＤｉ　Ａ　Ｑｕ，ＨａｎｇＳｈｕａｎｇ　Ｒｏａｄ　ＤｏｎｇＬｉ　Ｄｉｓｔｒｉｃｔ　ＴｉａｎＪｉｎ,,,,,,2023-07-07,1,,,,,シーフアチユアンテンシントレーデイングカンパニーリミテツド,0
2257,8700150118357,新規,0,2023-07-07,2023-07-07,ＨＯＮＧＫＯＮＧ　ＲＥＤＴＩＮＧ　ＴＥＣＨＮＯＬＯＧＹ　ＣＯ　ＬＩＭＩＴＥＤ,,外国会社等,,,,,,,,２－１６　ＦＡ　ＹＵＡＮ　ＳＴ　ＲＭ　２９０２，２９／Ｆ　ＨＯ　ＫＩＮＧ　ＣＯＭＭ　ＣＴＲ　ＭＯＮＧＫＯＫ　ＫＬＮ　ＨＯＮＧ　ＫＯＮＧ,,,,,,2023-07-07,1,,,,,ホンコンレッドティングテクノロジーカンパニーリミテッド,0
2258,8700150118365,新規,0,2023-07-07,2023-07-07,ＡＩＲＵＩＭＥＩ　ＭＡＯＹＩＹＯＵＸＩＡＮＧＯＮＧＳＩ,,外国会社等,,,,,,,,ＳＨＩＮＡＮＱＵ　ＺＨＡＮＧＺＨＯＵＥＲＬＵ　１９ＨＡＯ　ＡＺＵＯ　３０２－３０　ＱＩＮＧＤＡＯ　ＳＨＡＮＤＯＮＧ　ＣＨＩＮＡ,,,,,,2023-07-07,1,,,,,アイルイメイマオイユウゲンコウシ,0
2266,9010001236583,新規,0,2023-07-07,2023-07-07,株式会社ＡＴＺ,,株式会社,東京都,中央区,日本橋２丁目２番３号ＲＩＳＨＥビルＵＣＦ４階,,13,102,1030027,,,,,,,2023-07-07,1,,,,,エーティーゼット,0
2267,9010001236674,新規,0,2023-07-07,2023-07-07,株式会社コードナー,,株式会社,東京都,千代田区,西神田２丁目７－６川合ビル３Ｆ,,13,101,1010065,,,,,,,2023-07-07,1,,,,,コードナー,0
2268,9010001236690,新規,0,2023-07-07,2023-07-07,ダバージャパン株式会社,,株式会社,東京都,千代田区,丸の内１丁目８番３号丸の内トラストタワー本館２０階,,13,101,1000005,,,,,,,2023-07-07,1,,,,,ダバージャパン,0
2269,9010001236699,新規,0,2023-07-07,2023-07-07,株式会社ＬＡＧＯＯＮ,,株式会社,東京都,中央区,八丁堀４丁目８番１号,,13,102,1040032,,,,,,,2023-07-07,1,,,,,ラグーン,0
2271,9010003041049,新規,0,2023-07-07,2023-07-07,合同会社Ｌｉｆｅ　Ｖｉｓｉｏｎ　Ｄｅｓｉｇｎ,,合同会社,東京都,千代田区,丸の内１丁目１番３号３階,,13,101,1000005,,,,,,,2023-07-07,1,,,,,ライフヴィジョンデザイン,0
2272,9010003041073,新規,0,2023-07-07,2023-07-07,Ｌｉａ　Ｆｉｌｍ合同会社,,合同会社,東京都,千代田区,神田小川町３丁目２８番１３号ラフィネ御茶ノ水７０７号,,13,101,1010052,,,,,,,2023-07-07,1,,,,,リアフィルム,0
2274,9010005036930,新規,0,2023-07-07,2023-07-07,一般社団法人ＫＯＦ,,その他の設立登記法人,東京都,中央区,日本橋１丁目４番１号日本橋一丁目ビルディング,,13,102,1030027,,,,,,,2023-07-07,1,,,,,ケイオーエフ,0
2275,9010101015706,新規,0,2023-07-07,2023-07-07,鯉和企画株式会社,,株式会社,東京都,八王子市,諏訪町３４３番地１６,,13,201,1930812,,,,,,,2023-07-07,1,,,,,コイワキカク,0
2276,9010103002173,新規,0,2023-07-07,2023-07-07,丸山仮設合同会社,,合同会社,東京都,八王子市,館町２３００番地２４０,,13,201,1930944,,,,,,,2023-07-07,1,,,,,マルヤマカセツ,0
2286,9010401175489,新規,0,2023-07-07,2023-07-07,株式会社ドライビングスタジオ,,株式会社,東京都,港区,南青山３丁目１番３６号青山丸竹ビル６Ｆ,,13,103,1070062,,,,,,,2023-07-07,1,,,,,ドライビングスタジオ,0
2287,9010403030428,新規,0,2023-07-07,2023-07-07,ＳＢＩ地域開発合同会社,,合同会社,東京都,港区,六本木１丁目６番１号,,13,103,1060032,,,,,,,2023-07-07,1,,,,,エスビーアイチイキカイハツ,0
2290,9010601063394,新規,0,2023-07-07,2023-07-07,株式会社ＡＥＡ　Ｉｎｔｅｒｎａｔｉｏｎａｌ　Ｂｕｓｉｎｅｓｓ　Ｃｏｎｓｕｌｔｉｎｇ,,株式会社,東京都,墨田区,東駒形２丁目２番地１３－４０５室,,13,107,1300005,,,,,,,2023-07-07,1,,,,,エーイーエーインターナショナルビジネスコンサルティング,0
2315,9011101103475,新規,0,2023-07-07,2023-07-07,株式会社パラベラム,,株式会社,東京都,新宿区,西新宿３丁目３番１３号西新宿水間ビル６階,,13,104,1600023,,,,,,,2023-07-07,1,,,,,パラベラム,0
2316,9011101103491,新規,0,2023-07-07,2023-07-07,ＧＯＬＩＡ株式会社,,株式会社,東京都,新宿区,歌舞伎町２丁目１９－１３－ＡＳＫビル６階,,13,104,1600021,,,,,,,2023-07-07,1,,,,,ゴリア,0
2317,9011101103500,新規,0,2023-07-07,2023-07-07,株式会社榊月,,株式会社,東京都,新宿区,歌舞伎町２丁目３３番１号第６トーアビル５０６,,13,104,1600021,,,,,,,2023-07-07,1,,,,,サカキ,0
2318,9011103013219,新規,0,2023-07-07,2023-07-07,Ｓｔａｒ　Ｓｔｒｅａｍｉｎｇ合同会社,,合同会社,東京都,新宿区,左門町１７番地６,,13,104,1600017,,,,,,,2023-07-07,1,,,,,スターストリーミング,0
2320,9011303004819,新規,0,2023-07-07,2023-07-07,ＬＱＴ合同会社,,合同会社,東京都,杉並区,大宮１丁目３番２３号ロークワットコート永福５０１,,13,115,1680061,,,,,,,2023-07-07,1,,,,,エルキュウティ,0
2321,9011305002911,新規,0,2023-07-07,2023-07-07,特定非営利活動法人スタッフ・ステージ,,その他の設立登記法人,東京都,杉並区,高井戸東３丁目１７番８号,,13,115,1680072,,,,,,,2023-07-07,1,,,,,スタッフステージ,0
2329,9011701026398,新規,0,2023-07-07,2023-07-07,ＨＩＲＯ株式会社,,株式会社,東京都,江戸川区,中葛西８丁目２２番８号,,13,123,1340083,,,,,,,2023-07-07,1,,,,,ヒロ,0
2331,9011801042667,新規,0,2023-07-07,2023-07-07,株式会社テクノトラスト,,株式会社,東京都,葛飾区,亀有３丁目４９番１－９０４号ザ・レジデンス東京イースト,,13,122,1250061,,,,,,,2023-07-07,1,,,,,テクノトラスト,0
2332,9011801042675,新規,0,2023-07-07,2023-07-07,株式会社エスシートラベル,,株式会社,東京都,足立区,舎人１丁目１７番１７号,,13,121,1210831,,,,,,,2023-07-07,1,,,,,エスシートラベル,0
2338,9012401040714,新規,0,2023-07-07,2023-07-07,アダプトワークス株式会社,,株式会社,東京都,調布市,多摩川１丁目１０番地２９,,13,208,1820025,,,,,,,2023-07-07,1,,,,,アダプトワークス,0
2346,9020001152334,新規,0,2023-07-07,2023-07-07,株式会社山二プラスチック,,株式会社,神奈川県,横浜市瀬谷区,宮沢４丁目１４番地１３,,14,114,2460038,,,,,,,2023-07-07,1,,,,,ヤマニプラスチック,0
2347,9020001152350,新規,0,2023-07-07,2023-07-07,株式会社中村建設,,株式会社,神奈川県,川崎市川崎区,浅田３丁目１０－９,,14,131,2100847,,,,,,,2023-07-07,1,,,,,ナカムラケンセツ,0
2348,9020001152375,新規,0,2023-07-07,2023-07-07,株式会社ＴＮＫ,,株式会社,神奈川県,横浜市青葉区,市ケ尾町１１７４番地３３,,14,117,2250024,,,,,,,2023-07-07,1,,,,,ティーエヌケィ,0
2349,9020001152409,新規,0,2023-07-07,2023-07-07,株式会社モチヅキ,,株式会社,神奈川県,川崎市高津区,下作延７丁目２４番２５号,,14,134,2130033,,,,,,,2023-07-07,1,,,,,モチヅキ,0
2350,9020003023946,新規,0,2023-07-07,2023-07-07,久田ソフトウェア開発合同会社,,合同会社,神奈川県,横浜市中区,桜木町２丁目２港陽ビル４Ｆ,,14,104,2310062,,,,,,,2023-07-07,1,,,,,クダソフトウェアカイハツ,0
2351,9020003024151,新規,0,2023-07-07,2023-07-07,合同会社ＤＥＬＴＡ,,合同会社,神奈川県,横浜市都筑区,川和町６１－１２,,14,118,2240057,,,,,,,2023-07-07,1,,,,,デルタ,0
2357,9021001079476,新規,0,2023-07-07,2023-07-07,株式会社森本企画,,株式会社,神奈川県,厚木市,上依知１６７０番地９,,14,212,2430801,,,,,,,2023-07-07,1,,,,,モリモトキカク,0
2358,9021001079534,新規,0,2023-07-07,2023-07-07,株式会社Ｈ‐ＯＮＥ　Ｇｒｏｕｐ,,株式会社,神奈川県,相模原市南区,古淵４丁目２３番３号,,14,153,2520344,,,,,,,2023-07-07,1,,,,,エイチワングループ,0
2359,9021001079542,新規,0,2023-07-07,2023-07-07,株式会社秦建設,,株式会社,神奈川県,相模原市中央区,千代田３丁目５番４号,,14,152,2520237,,,,,,,2023-07-07,1,,,,,ハタケンセツ,0
2361,9021003013284,新規,0,2023-07-07,2023-07-07,合同会社Ｆｉｎａｎｃｉａｌ　ａｎｄ　Ｃａｒｅｅｒ　Ｐｌａｎｎｅｒ　ｆｏｒ　Ｖｅｔ,,合同会社,神奈川県,平塚市,御殿４丁目１６－１４,,14,203,2540061,,,,,,,2023-07-07,1,,,,,ファイナンシャルアンドキャリアプランナーフォーベット,0
2362,9021003013292,新規,0,2023-07-07,2023-07-07,合同会社ゼウス,,合同会社,神奈川県,足柄下郡箱根町,仙石原１２４６番地の１６７,,14,382,2500631,,,,,,,2023-07-07,1,,,,,ゼウス,0
2369,9030001154767,新規,0,2023-07-07,2023-07-07,株式会社ｉｌｍｏｄｏ,,株式会社,埼玉県,南埼玉郡宮代町,本田１丁目５番２２号,,11,442,3450827,,,,,,,2023-07-07,1,,,,,イルモード,0
2370,9030001154817,新規,0,2023-07-07,2023-07-07,株式会社西大,,株式会社,埼玉県,北葛飾郡松伏町,大字大川戸３１１４番１,,11,465,3430106,,,,,,,2023-07-07,1,,,,,ニシダイ,0
2376,9040001129099,新規,0,2023-07-07,2023-07-07,千葉陶芸ラボ株式会社,,株式会社,千葉県,船橋市,古和釜町５９７番地９,,12,204,2740061,,,,,,,2023-07-07,1,,,,,チバトウゲイラボ,0
2377,9040001129108,新規,0,2023-07-07,2023-07-07,ＷＯＲＬＤ　ＬＩＮＫＳ株式会社,,株式会社,千葉県,野田市,船形４７５２番地１１,,12,208,2700233,,,,,,,2023-07-07,1,,,,,ワールドリンクス,0
2378,9040001129124,新規,0,2023-07-07,2023-07-07,株式会社エアメイク,,株式会社,千葉県,市川市,東国分１丁目２番１５号,,12,203,2720833,,,,,,,2023-07-07,1,,,,,エアメイク,0
2379,9040001129140,新規,0,2023-07-07,2023-07-07,株式会社ホゲータ,,株式会社,千葉県,千葉市中央区,中央３丁目１８番３号加瀬ビル７０２,,12,101,2600013,,,,,,,2023-07-07,1,,,,,ホゲータ,0
2382,9040003022913,新規,0,2023-07-07,2023-07-07,合同会社ＮＵＶＯ,,合同会社,千葉県,四街道市,つくし座１丁目１７番５号,,12,228,2840026,,,,,,,2023-07-07,1,,,,,ヌーボ,0
2386,9050001053117,新規,0,2023-07-07,2023-07-07,株式会社ブリィス,,株式会社,茨城県,水戸市,青柳町５５６番地,,08,201,3100004,,,,,,,2023-07-07,1,,,,,ブリィス,0
2390,9060001036129,新規,0,2023-07-07,2023-07-07,ティーテクス株式会社,,株式会社,栃木県,真岡市,長田１丁目１２番地８,,09,209,3214364,,,,,,,2023-07-07,1,,,,,ティーテクス,0
2392,9060003004637,新規,0,2023-07-07,2023-07-07,合同会社平山商会,,合同会社,栃木県,那須塩原市,東豊浦２３番地１１５泉ハイツＡ１０１,,09,213,3250022,,,,,,,2023-07-07,1,,,,,ヒラヤマショウカイ,0
2393,9070001040617,新規,0,2023-07-07,2023-07-07,ＬａｄｙＢｉｒｄ株式会社,,株式会社,群馬県,渋川市,渋川２６２７番地２,,10,208,3770008,,,,,,,2023-07-07,1,,,,,レディーバード,0
2399,9080005007545,新規,0,2023-07-07,2023-07-07,税理士法人笠原会計事務所,,その他の設立登記法人,静岡県,藤枝市,藤岡５丁目１５番２０号,,22,214,4260006,,,,,,,2023-07-07,1,,,,,カサハラカイケイジムショ,0
2402,9080401026586,新規,0,2023-07-07,2023-07-07,金子商店株式会社,,株式会社,静岡県,浜松市東区,大島町６７５番地の１,,22,132,4313112,,,,,,,2023-07-07,1,,,,,カネコショウテン,0
2404,9100001036561,新規,0,2023-07-07,2023-07-07,株式会社こころ,,株式会社,長野県,北安曇郡池田町,大字会染７８４５番地７,,20,481,3998602,,,,,,,2023-07-07,1,,,,,ココロ,0
2426,9120001256166,新規,0,2023-07-07,2023-07-07,科霖納株式会社,,株式会社,大阪府,大阪市東淀川区,相川３丁目３番９号北野第２ハイツ１Ｂ,,27,114,5330007,,,,,,,2023-07-07,1,,,,,カリンノウ,0
2427,9120001256257,新規,0,2023-07-07,2023-07-07,株式会社ｍｅｅｔｓ,,株式会社,大阪府,大阪市阿倍野区,阿倍野筋１丁目１番４３号あべのハルカス３１階,,27,119,5450052,,,,,,,2023-07-07,1,,,,,ミーツ,0
2428,9120001256265,新規,0,2023-07-07,2023-07-07,大象株式会社,,株式会社,大阪府,門真市,寿町２０番２６－２０１号,,27,223,5710032,,,,,,,2023-07-07,1,,,,,ダイゾウ,0
2429,9120001256281,新規,0,2023-07-07,2023-07-07,ＴＭＸ株式会社,,株式会社,大阪府,大阪市浪速区,日本橋東３丁目１５番１号,,27,111,5560006,,,,,,,2023-07-07,1,,,,,ティーエムエックス,0
2430,9120001256298,新規,0,2023-07-07,2023-07-07,株式会社Ｓｍｉｌｅ,,株式会社,大阪府,大阪市平野区,平野東１丁目１－２７クレセントファーム２０２,,27,126,5470043,,,,,,,2023-07-07,1,,,,,スマイル,0
2431,9120001256315,新規,0,2023-07-07,2023-07-07,株式会社ニューゲート,,株式会社,大阪府,大阪市中央区,東心斎橋１丁目８番１１－１９０２号,,27,128,5420083,,,,,,,2023-07-07,1,,,,,ニューゲート,0
2432,9120003024422,新規,0,2023-07-07,2023-07-07,いつみ合同会社,,合同会社,大阪府,大阪市西成区,花園南１丁目１３番１０号,,27,122,5570015,,,,,,,2023-07-07,1,,,,,イツミ,0
2434,9120005023711,新規,0,2023-07-07,2023-07-07,一般社団法人韓国文化奨学会,,その他の設立登記法人,大阪府,大阪市北区,中崎２丁目４番２号大阪韓国人会館３階,,27,127,5300016,,,,,,,2023-07-07,1,,,,,カンコクブンカショウガクカイ,0
2438,9120101067827,新規,0,2023-07-07,2023-07-07,株式会社松浦左官,,株式会社,大阪府,貝塚市,脇浜４丁目２０番９号,,27,208,5970073,,,,,,,2023-07-07,1,,,,,マツウラサカン,0
2439,9120101067843,新規,0,2023-07-07,2023-07-07,株式会社美宝建,,株式会社,大阪府,高石市,羽衣２丁目４番１－０１６号,,27,225,5920002,,,,,,,2023-07-07,1,,,,,ビホウケン,0
2444,9130001074666,新規,0,2023-07-07,2023-07-07,ＢＩＧ　ＳＨＩＮＩＮＧ株式会社,,株式会社,京都府,京都市山科区,勧修寺柴山８番地１７４,,26,110,6078242,,,,,,,2023-07-07,1,,,,,ビッグシャイニング,0
2445,9130001074674,新規,0,2023-07-07,2023-07-07,株式会社Ｕ’ｓＴＥＣＨ,,株式会社,京都府,京都市山科区,東野竹田１０番地１３９,,26,110,6078151,,,,,,,2023-07-07,1,,,,,ユーズテック,0
2448,9130005016821,新規,0,2023-07-07,2023-07-07,医療法人社団浦田歯科クリニック,,その他の設立登記法人,京都府,亀岡市,河原町２３０番地１０,,26,206,6210803,,,,,,,2023-07-07,1,,,,,ウラタシカクリニック,0
2456,9140003019271,新規,0,2023-07-07,2023-07-07,Ｍｕｓｕｂｉｉ合同会社,,合同会社,兵庫県,西脇市,富田町１番地,,28,213,6770018,,,,,,,2023-07-07,1,,,,,ムスビ,0
2461,9160001025154,新規,0,2023-07-07,2023-07-07,川南林業株式会社,,株式会社,滋賀県,東近江市,川南町８３３番地,,25,213,5211203,,,,,,,2023-07-07,1,,,,,カワミナミリンギョウ,0
2465,9180001156971,新規,0,2023-07-07,2023-07-07,ファイナンシャルアドバイザー株式会社,,株式会社,愛知県,一宮市,三条字小辰己２０番地１,,23,203,4940003,,,,,,,2023-07-07,1,,,,,ファイナンシャルアドバイザー,0
2466,9180001156988,新規,0,2023-07-07,2023-07-07,ライフクリエイト株式会社,,株式会社,愛知県,名古屋市緑区,鳴丘１丁目２７１７番地,,23,114,4580005,,,,,,,2023-07-07,1,,,,,ライフクリエイト,0
2467,9180001156996,新規,0,2023-07-07,2023-07-07,株式会社ＰＲＵＳＴ　ＴＥＲＲＡＣＥ,,株式会社,愛知県,名古屋市中区,丸の内３丁目２０番２２号,,23,106,4600002,,,,,,,2023-07-07,1,,,,,プラストテラス,0
2468,9180001157012,新規,0,2023-07-07,2023-07-07,株式会社豊ベンディングサポート,,株式会社,愛知県,東海市,名和町西萌山３０番地の６,,23,222,4760002,,,,,,,2023-07-07,1,,,,,トヨベンディングサポート,0
2469,9180001157020,新規,0,2023-07-07,2023-07-07,株式会社竹田嘉兵衛商店,,株式会社,愛知県,名古屋市緑区,有松１８０３番地,,23,114,4580924,,,,,,,2023-07-07,1,,,,,タケダカヘエショウテン,0
2471,9180003025448,新規,0,2023-07-07,2023-07-07,合同会社ＳＱａｒｔ,,合同会社,愛知県,名古屋市中村区,亀島１丁目９番８号（ＫａｍｅｚｉｍａＲｅｓｉｄｅｎｃｅ４Ａ号）,,23,105,4530013,,,,,,,2023-07-07,1,,,,,スクアート,0
2479,9220001025494,新規,0,2023-07-07,2023-07-07,株式会社吉田商事,,株式会社,石川県,金沢市,池田町四番丁２番地アプレ池田町１号室,,17,201,9200986,,,,,,,2023-07-07,1,,,,,,0
2480,9220003003548,新規,0,2023-07-07,2023-07-07,合同会社かばやき屋,,合同会社,石川県,金沢市,金石北１丁目１番１号,,17,201,9200338,,,,,,,2023-07-07,1,,,,,カバヤキヤ,0
2485,9230001019909,新規,0,2023-07-07,2023-07-07,株式会社ＣＷＰ,,株式会社,富山県,富山市,駒見３７２番地４１,,16,201,9300895,,,,,,,2023-07-07,1,,,,,シーダブルピー,0
2492,9260003004360,新規,0,2023-07-07,2023-07-07,合同会社トライアーチ,,合同会社,岡山県,岡山市中区,倉富８２番地４,,33,102,7038264,,,,,,,2023-07-07,1,,,,,トライアーチ,0
2498,9290003014118,新規,0,2023-07-07,2023-07-07,エフォート合同会社,,合同会社,福岡県,福岡市博多区,博多駅前１丁目２３番２号ＰａｒｋＦｒｏｎｔ博多駅前１丁目５Ｆ－Ｂ,,40,132,8120011,,,,,,,2023-07-07,1,,,,,エフォート,0
2499,9290005019081,新規,0,2023-07-07,2023-07-07,一般社団法人ＵＮＩＴＥＤ　ＦＵＫＵＯＫＡ,,その他の設立登記法人,福岡県,福岡市博多区,東比恵２丁目２４番１号,,40,132,8120007,,,,,,,2023-07-07,1,,,,,ユナイテッドフクオカ,0
2505,9310005008692,新規,0,2023-07-07,2023-07-07,ＮＰＯ法人グリーンブライト,,その他の設立登記法人,長崎県,長崎市,三重田町５２９番地,,42,201,8512203,,,,,,,2023-07-07,1,,,,,グリーンブライト,0
2506,9320001019874,新規,0,2023-07-07,2023-07-07,株式会社ＨＵＧＫＵＭＵ,,株式会社,大分県,大分市,大道町２丁目３番１２号,,44,201,8700822,,,,,,,2023-07-07,1,,,,,ハグクム,0
2507,9330001031003,新規,0,2023-07-07,2023-07-07,株式会社ＦＮＫ,,株式会社,熊本県,菊池郡菊陽町,大字原水１３２８番地１３プラネスト菊陽３０１号,,43,404,8691102,,,,,,,2023-07-07,1,,,,,エフエヌケー,0
2508,9330001031036,新規,0,2023-07-07,2023-07-07,株式会社ロイエステート,,株式会社,熊本県,熊本市中央区,水前寺４丁目５２番４４号３Ｆ,,43,101,8620950,,,,,,,2023-07-07,1,,,,,ロイエステート,0
2509,9330003009906,新規,0,2023-07-07,2023-07-07,大アンド管理合同会社,,合同会社,熊本県,熊本市中央区,中央街４番２２号,,43,101,8600802,,,,,,,2023-07-07,1,,,,,,0
2515,9350001018428,新規,0,2023-07-07,2023-07-07,株式会社岡崎畜産,00131103,株式会社,宮崎県,児湯郡都農町,大字川北２０２１０番地２４,,45,406,8891201,,,,,,,2023-07-07,1,,,,,オカザキチクサン,0
2516,9350001018436,新規,0,2023-07-07,2023-07-07,株式会社Ｙｏｂｉｒｉｎ,,株式会社,宮崎県,日南市,吾田西３丁目１２－１４,,45,204,8892536,,,,,,,2023-07-07,1,,,,,ヨビリン,0
2545,9470001019678,新規,0,2023-07-07,2023-07-07,株式会社Ｂｅｔｈａｎ,,株式会社,香川県,仲多度郡琴平町,五條５６３番地１,,37,403,7660003,,,,,,,2023-07-07,1,,,,,ビーサン,0
2546,9470001019686,新規,0,2023-07-07,2023-07-07,株式会社綾建装,,株式会社,香川県,高松市,国分寺町新名１６６９番地５,,37,201,7690104,,,,,,,2023-07-07,1,,,,,アヤケンソウ,0
2548,9500001025045,新規,0,2023-07-07,2023-07-07,株式会社勢和工業,,株式会社,愛媛県,松山市,勝岡町９１番地２グランペールＩＩ２０１号,00131099,38,201,7992661,,,,,,,2023-07-07,1,,,,,セイワコウギョウ,0
2550,9700150118298,新規,0,2023-07-07,2023-07-07,Ｓｈａｎｇｈａｉｙｉｋｕａｎｓｈｉｙｅｙｏｕｘｉａｎｇｏｎｇｓｉ,,外国会社等,,,,,,,,ｈｕａｊｉａｎｇｌｕ１２９ｎｏｎｇ７ｈａｏＪ２１０ｓｈｉ　ＪｉａｄｉｎｇｑｕＪｉａｎｇｑｉａｏｚｈｅｎ　Ｓｈａｎｇｈａｉ　２０１８０３　ＣＮ,,,,,,2023-07-07,1,,,,,シャンハイイークァンシーイエヨウシェンゴンスー,0
2551,9700150118307,新規,0,2023-07-07,2023-07-07,ＴＩＣＡＲＶＥ　ＴＥＣＨＮＯＬＯＧＹ　ＣＯＭＰＡＮＹ　ＬＩＭＩＴＥＤ,,外国会社等,,,,,,,,ＲＭ０９，２７／Ｆ　ＨＯ　ＫＩＮＧ　ＣＯＭＭ　ＣＴＲ　２－１６　ＦＡ　ＹＵＥＮ　ＳＴ　ＭＯＮＧＫＯＫ　ＫＬ　ＨＯＮＧ　ＫＯＮＧ　９９９０７７,,,,,,2023-07-07,1,,,,,テカーブテクノロジーカンパニーリミテッド,0
2552,9700150118315,新規,0,2023-07-07,2023-07-07,ｎｉｎｇｂｏ　ｇｕｉｈｕｏｙｕｅｑｉ　ｙｏｕｘｉａｎｇｏｎｇｓｉ,,外国会社等,,,,,,,,ｇａｏｘｉｎｑｕ　ｑｉｎｇｙｉｌｕ　６６ｈａｏ　０４４ｚｈｕａｎｇ　３０１－６３ｓｈｉ　ｎｉｎｇｂｏｓｈｉ　ｚｈｅｊｉａｎｇｓｈｅｎｇ,,,,,,2023-07-07,1,,,,,ニンボグゥイホユェチユウゲンコウシ,0
2553,9700150118323,新規,0,2023-07-07,2023-07-07,Ｓｈｅｎｚｈｅｎ　Ａｎｐｕｌｅ　Ｔｅｃｈｎｏｌｏｇｙ　Ｃｏ．，Ｌｔｄ,,外国会社等,,,,,,,,Ｕｎｉｔ　１４１６，ＢＬＤＧ　２０，１０６８　Ｎａｎｈａｉ　Ａｖｅｎｕｅ，Ｚｈａｏｓｈａｎｇ　Ｊｉｅｄａｏ，Ｎａｎｓｈａｎ　Ｄｉｓｔｒｉｃｔ，Ｓｈｅｎｚｈｅｎ，Ｃｈｉｎａ,,,,,,2023-07-07,1,,,,,シンセンアンプレテクノロジーカンパニーリミテッド,0
2554,9700150118331,新規,0,2023-07-07,2023-07-07,ｓｈｅｎｚｈｅｎｓｈｉ　ｊｉｎｙｉｃｈｅｎｇｋｅｊｉｙｏｕｘｉａｎｇｏｎｇｓｉ,,外国会社等,,,,,,,,ｌｕｏｈｕｑｕｎａｎｈｕｊｉｅｄａｏｊｉａｎａｎｓｈｅｑｕ　ｙａｎｈｅｎａｎｌｕ１１８５ｈａｏｊｉｎｈｕａｄａｓｈａ２５０１　ｓｈｅｎｚｈｅｎｓｈｉ　ｇｕａｎｇｄｏｎｇｓｈｅｎｇ　５１８００１　ＣＮ,,,,,,2023-07-07,1,,,,,シェンジェンシージンイーションコージーヨウシエンゴンスー,0
2555,9700150118348,新規,0,2023-07-07,2023-07-07,ＨｕａＸｉａＣｕｉＦａｎｇ（Ｔｉａｎｊｉｎ）Ｅ－ｃｏｍｍｅｒｃｅ　Ｃｏ．，Ｌｔｄ,,外国会社等,,,,,,,,Ｒｏｏｍ　ＮＯ．３２０１　Ｂｕｉｌｄｉｎｇ　ＮＯ．５　Ｂ　Ｑｕ　ＷａｎＸｉｎ　Ｓｔｒｅｅｔ　ＴｏｎｇＱｉｎｇ　Ｒｏａｄ　ＤｏｎｇＬｉ　Ｄｉｓｔｒｉｃｔ　ＴｉａｎＪｉｎ,,,,,,2023-07-07,1,,,,,フアシヤクイフアンテンシンイーコマースカンパニーリミテツド,0
2556,9700150118356,新規,0,2023-07-07,2023-07-07,Ｓｈｅｎｚｈｅｎｓｈｉ　Ｍｉｎｇｙａｏ　Ｄｉａｎｚｉｓｈａｎｇｗｕ　Ｙｏｕｘｉａｎ　Ｇｏｎｇｓｉ,,外国会社等,,,,,,,,ｌｏｎｇ　ｈｕａ　ｊｉｅ　ｄａｏ　ｓａｎ　ｌｉａｎ　ｓｈｅ　ｑｕ　ｌｉａｎ　ｂｕ　ｌｕ　１１１　ｈａｏ　２　ｄｏｎｇ　３１５，ｌｏｎｇｈｕａ　Ｄｉｓｔｒｉｃｔ，ｓｈｅｎｚｈｅｎ　Ｃｉｔｙ，ｇｕａｎｇｄｏｎｇ　Ｐｒｏｖｉｎｃｅ,,,,,,2023-07-07,1,,,,,シンセンシミンギャオデンシショウムユウゲンコウシ,0
2557,9700150118364,新規,0,2023-07-07,2023-07-07,ｓｈｅｎ　ｚｈｅｎ　ｓｈｉ　ｓｈａｎｇ　ｍａｉ　ｋｅ　ｊｉ　ｙｏｕ　ｘｉａｎ　ｇｏｎｇ　ｓｉ,,外国会社等,,,,,,,,ｙｕａｎ　ｆｅｎ　ｊｉｎ　ｙｕａｎ　ｄａ　ｓｈａ　Ｂ　ｚｕｏ　１５０５　ｄａ　ｌａｎｇ　ｊｉｅ　ｄａｏ，ｌｏｎｇ　ｈｕａ　ｑｕ　ｓｈｅｎｚｈｅｎ　ｇｕａｎｇ　ｄｏｎｇ　Ｃｈｉｎａ,,,,,,2023-07-07,1,,,,,シンセンシシャンマイケジユウゲンコウシ,0
