sequenceNumber,corporateNumber,process,correct,updateDate,changeDate,name,nameImageId,kind,prefectureName,cityName,streetNumber,addressImageId,prefectureCode,cityCode,postCode,addressOutside,addressOutsideImageId,closeDate,closeCause,successorCorporateNumber,changeCause,assignmentDate,latest,enName,enPrefectureName,enCityName,enAddressOutside,furigana,hihyoji
4,1010001252101,新規,0,2025-02-19,2025-02-19,株式会社Ｈｏｋａｎグループ,,株式会社,東京都,中央区,日本橋茅場町１丁目８番１号,,13,102,1030025,,,,,,,2025-02-19,1,,,,,ホカングループ,0
5,1010001252373,新規,0,2025-02-19,2025-02-19,日本ＴＵＪ旅行株式会社,,株式会社,東京都,千代田区,神田佐久間町２丁目１８番地１秋葉原ＳＴＮフロント１０階,,13,101,1010025,,,,,,,2025-02-19,1,,,,,ニホンティーユージェーリョコウ,0
8,1010003046451,新規,0,2025-02-19,2025-02-19,ＴＣ１３合同会社,,合同会社,東京都,中央区,京橋２丁目１２番６号ＡＯＪ税理士法人内,,13,102,1040031,,,,,,,2025-02-19,1,,,,,ティーシーサーティーン,0
9,1010003046484,新規,0,2025-02-19,2025-02-19,合同会社イーラ,,合同会社,東京都,文京区,本郷５丁目１番１６号,,13,105,1130033,,,,,,,2025-02-19,1,,,,,イーラ,0
16,1010005039577,新規,0,2025-02-19,2025-02-19,一般社団法人絆,,その他の設立登記法人,東京都,千代田区,平河町１丁目７番７号,,13,101,1020093,,,,,,,2025-02-19,1,,,,,キズナ,0
17,1010005039593,新規,0,2025-02-19,2025-02-19,一般社団法人横浜レジデンス,,その他の設立登記法人,東京都,中央区,京橋２丁目７番１９号,,13,102,1040031,,,,,,,2025-02-19,1,,,,,ヨコハマレジデンス,0
31,1010401187822,新規,0,2025-02-19,2025-02-19,双瑞環境日本株式会社,,株式会社,東京都,港区,芝大門２丁目６番６号ＶＯＲＴ芝大門８０２,,13,103,1050012,,,,,,,2025-02-19,1,,,,,スンルイカンキョウニホン,0
32,1010401188283,新規,0,2025-02-19,2025-02-19,ドリームアドバンス株式会社,,株式会社,東京都,港区,北青山１丁目３番１号アールキューブ青山３階,,13,103,1070061,,,,,,,2025-02-19,1,,,,,ドリームアドバンス,0
33,1010401188366,新規,0,2025-02-19,2025-02-19,株式会社ＡＶＥＮＤＥＲ,,株式会社,東京都,港区,北青山１丁目３番１号アールキューブ青山３Ｆ,,13,103,1070061,,,,,,,2025-02-19,1,,,,,アベンダー,0
36,1010403034386,新規,0,2025-02-19,2025-02-19,合同会社モンブラン,,合同会社,東京都,港区,虎ノ門３丁目１８－１２ステュディオ７１１号,,13,103,1050001,,,,,,,2025-02-19,1,,,,,モンブラン,0
37,1010403034436,新規,0,2025-02-19,2025-02-19,Ｚ．Ｍ．Ｍ．Ｔｒａｄｉｎｇ合同会社,,合同会社,東京都,港区,三田１丁目７番１－５０８号,,13,103,1080073,,,,,,,2025-02-19,1,,,,,ゼットエムエムトレーディング,0
39,1010501053610,新規,0,2025-02-19,2025-02-19,ＣＯＲＮＰＲＯ株式会社,,株式会社,東京都,台東区,三筋１丁目９番４号三筋クレセント４階,,13,106,1110055,,,,,,,2025-02-19,1,,,,,コーンプロ,0
49,1010803005284,新規,0,2025-02-19,2025-02-19,合同会社押鐘サイエンスラボ,,合同会社,東京都,大田区,上池台１丁目２７番１１号,,13,111,1450064,,,,,,,2025-02-19,1,,,,,オシカネサイエンスラボ,0
50,1010901056832,新規,0,2025-02-19,2025-02-19,株式会社グランドビレッジ,,株式会社,東京都,世田谷区,下馬５丁目４１－１５－２０２,,13,112,1540002,,,,,,,2025-02-19,1,,,,,,0
66,1011101110677,新規,0,2025-02-19,2025-02-19,株式会社ＯＮ　ＮＯＢＬＥ,,株式会社,東京都,新宿区,西新宿７丁目１９番１４－８０２号,,13,104,1600023,,,,,,,2025-02-19,1,,,,,オンノーブル,0
67,1011101110685,新規,0,2025-02-19,2025-02-19,ジャパンインバウンドプラス株式会社,,株式会社,東京都,新宿区,西新宿１丁目２６－２新宿野村ビル,,13,104,1600023,,,,,,,2025-02-19,1,,,,,ジャパンインバウンドプラス,0
68,1011101110702,新規,0,2025-02-19,2025-02-19,株式会社トゥエルブライズ,,株式会社,東京都,新宿区,西新宿６丁目５番１号新宿アイランドタワー２階,,13,104,1600023,,,,,,,2025-02-19,1,,,,,トゥエルブライズ,0
75,1011701028063,新規,0,2025-02-19,2025-02-19,株式会社ソエルテ,,株式会社,東京都,江戸川区,中央１丁目２５－６,,13,123,1320021,,,,,,,2025-02-19,1,,,,,ソエルテ,0
81,1012301014263,新規,0,2025-02-19,2025-02-19,株式会社遊歩堂,,株式会社,東京都,町田市,金森東２丁目１１番２８号カーサフェリーチェ１０２,,13,209,1940015,,,,,,,2025-02-19,1,,,,,ユウホドウ,0
83,1012701018707,新規,0,2025-02-19,2025-02-19,株式会社Ｒｅ．Ｓｔａｒｔ,,株式会社,東京都,西東京市,谷戸町１丁目２０番２２号,,13,229,1880001,,,,,,,2025-02-19,1,,,,,リスタート,0
84,1012701018715,新規,0,2025-02-19,2025-02-19,株式会社ＥＺＥＲ,,株式会社,東京都,東久留米市,新川町１丁目７番６号,,13,222,2030013,,,,,,,2025-02-19,1,,,,,エゼル,0
85,1012703003203,新規,0,2025-02-19,2025-02-19,合同会社ＫＵＡＳ,,合同会社,東京都,西東京市,緑町３丁目７番１３号,,13,229,1880002,,,,,,,2025-02-19,1,,,,,クーアス,0
90,1012803003631,新規,0,2025-02-19,2025-02-19,合同会社輝良,,合同会社,東京都,立川市,錦町１丁目２番８,,13,202,1900022,,,,,,,2025-02-19,1,,,,,テルヨシ,0
95,1013301053796,新規,0,2025-02-19,2025-02-19,株式会社水未来研究所,,株式会社,東京都,豊島区,西巣鴨３丁目１５番１６－１００２号,,13,116,1700001,,,,,,,2025-02-19,1,,,,,ミズミライケンキュウショ,0
96,1013301053805,新規,0,2025-02-19,2025-02-19,株式会社はるか,,株式会社,東京都,豊島区,北大塚３丁目１３番６－１０８号,,13,116,1700004,,,,,,,2025-02-19,1,,,,,ハルカ,0
98,1013303007544,新規,0,2025-02-19,2025-02-19,美禾合同会社,,合同会社,東京都,豊島区,高田３丁目１１番１９号ヴィラオートヴァーグＢ１,,13,116,1710033,,,,,,,2025-02-19,1,,,,,ビカ,0
110,1020001161400,新規,0,2025-02-19,2025-02-19,株式会社我如古設備,,株式会社,神奈川県,川崎市川崎区,浅田４丁目１番９号,,14,131,2100847,,,,,,,2025-02-19,1,,,,,ガネコセツビ,0
111,1020001161532,新規,0,2025-02-19,2025-02-19,株式会社Ｇｒｅｅ’ｎ,,株式会社,神奈川県,川崎市幸区,新小倉２番７－８１６号,,14,132,2120031,,,,,,,2025-02-19,1,,,,,グリーン,0
112,1020001161540,新規,0,2025-02-19,2025-02-19,株式会社Ｔｓｕｋｕｙｏｍｉ,,株式会社,神奈川県,横浜市瀬谷区,宮沢４丁目１８番地８,,14,114,2460038,,,,,,,2025-02-19,1,,,,,ツクヨミ,0
117,1020003027888,新規,0,2025-02-19,2025-02-19,Ｒｅｓｏｎａｔｅ　Ｗｏｒｌｄｗｉｄｅ合同会社,,合同会社,神奈川県,横浜市中区,尾上町４丁目５７番地横浜尾上町ビルディング８階,,14,104,2310015,,,,,,,2025-02-19,1,,,,,リゾネートワールドワイド,0
120,1021001084483,新規,0,2025-02-19,2025-02-19,株式会社ハヤオプランニング,,株式会社,神奈川県,藤沢市,藤沢４丁目５番３号３Ｆ,,14,205,2510052,,,,,,,2025-02-19,1,,,,,ハヤオプランニング,0
124,1021003015602,新規,0,2025-02-19,2025-02-19,ＳＮＯＷ合同会社,,合同会社,神奈川県,横須賀市,野比３丁目３３－６－１０１,,14,201,2390841,,,,,,,2025-02-19,1,,,,,スノー,0
126,1030001164897,新規,0,2025-02-19,2025-02-19,株式会社ウェルファーム,,株式会社,埼玉県,熊谷市,上根５０１番地,,11,202,3600217,,,,,,,2025-02-19,1,,,,,ウェルファーム,0
139,1040001137373,新規,0,2025-02-19,2025-02-19,株式会社ＡＳＴ,,株式会社,千葉県,八千代市,ゆりのき台６丁目１６－４０６,,12,221,2760042,,,,,,,2025-02-19,1,,,,,,0
144,1040003026896,新規,0,2025-02-19,2025-02-19,合同会社三里コイン,,合同会社,千葉県,佐倉市,西志津３丁目２７番１２号,,12,212,2850845,,,,,,,2025-02-19,1,,,,,サンリコイン,0
145,1040003026905,新規,0,2025-02-19,2025-02-19,合同会社ＫＲＢ企画,,合同会社,千葉県,浦安市,東野２丁目９番１０号,,12,227,2790042,,,,,,,2025-02-19,1,,,,,ケーアールビーキカク,0
150,1050003009033,新規,0,2025-02-19,2025-02-19,ＴＵＥ　ＮＨＩ合同会社,,合同会社,茨城県,古河市,磯部１６番地６ビレッジハウス総和２－５０６号,,08,204,3060225,,,,,,,2025-02-19,1,,,,,ツェニ,0
156,1080001026762,新規,0,2025-02-19,2025-02-19,株式会社Ｂｕｉｌｄ　ＷＯＲＫＳ　Ｌａｂ,,株式会社,静岡県,静岡市駿河区,南安倍３丁目１２番４号,,22,102,4228054,,,,,,,2025-02-19,1,,,,,ビルドワークスラボ,0
166,1100001038318,新規,0,2025-02-19,2025-02-19,株式会社オップラ,,株式会社,長野県,千曲市,大字上徳間１６０６番地１,,20,218,3890805,,,,,,,2025-02-19,1,,,,,オップラ,0
168,1100003007997,新規,0,2025-02-19,2025-02-19,合同会社めぐる,,合同会社,長野県,小諸市,大字大久保２１６９番地２２,,20,208,3840071,,,,,,,2025-02-19,1,,,,,メグル,0
180,1120001272988,新規,0,2025-02-19,2025-02-19,株式会社ガンテック,,株式会社,大阪府,大阪市西区,千代崎１丁目４番１１－６０４号,,27,106,5500023,,,,,,,2025-02-19,1,,,,,ガンテック,0
181,1120001273020,新規,0,2025-02-19,2025-02-19,株式会社にゃんダフル,,株式会社,大阪府,大阪市中央区,西心斎橋２丁目４－８大喜ビル５階,00138052,27,128,5420086,,,,,,,2025-02-19,1,,,,,ニャンダフル,0
182,1120001273029,新規,0,2025-02-19,2025-02-19,株式会社ヤンバル毛織,,株式会社,大阪府,大阪市淀川区,東三国１丁目３番１０号,,27,123,5320002,,,,,,,2025-02-19,1,,,,,ヤンバルケオリ,0
183,1120001273053,新規,0,2025-02-19,2025-02-19,株式会社ＪＣＣ,,株式会社,大阪府,大阪市都島区,友渕町１丁目４番２－２２０１号,,27,102,5340016,,,,,,,2025-02-19,1,,,,,ジェーシーシー,0
184,1120001273061,新規,0,2025-02-19,2025-02-19,株式会社Ｉ　ＡＭ　ＳＰＡ,,株式会社,大阪府,大阪市都島区,東野田町２丁目３番１２－９０１号,,27,102,5340024,,,,,,,2025-02-19,1,,,,,アイアムスパ,0
188,1120003028653,新規,0,2025-02-19,2025-02-19,合同会社ＨＯＰＥ,,合同会社,大阪府,大阪市西区,西本町１丁目１１番１１号エスリード西本町１２０４号室,,27,106,5500005,,,,,,,2025-02-19,1,,,,,ホープ,0
194,1120901050460,新規,0,2025-02-19,2025-02-19,株式会社野原兄弟社,,株式会社,大阪府,箕面市,箕面７丁目８番３３号,,27,220,5620001,,,,,,,2025-02-19,1,,,,,ノハラキョウダイシャ,0
199,1130001079004,新規,0,2025-02-19,2025-02-19,あおはる株式会社,,株式会社,京都府,京都市上京区,寺町通今出川上る立本寺前町７８番地,,26,102,6020831,,,,,,,2025-02-19,1,,,,,アオハル,0
203,1140001137438,新規,0,2025-02-19,2025-02-19,株式会社ＡＧＲ,,株式会社,兵庫県,神戸市中央区,生田町１丁目４番２４号ヨシオカビル５Ｆ,,28,110,6510092,,,,,,,2025-02-19,1,,,,,エージーアール,0
204,1140001137487,新規,0,2025-02-19,2025-02-19,Ｃｒａｆｔｍａｎｓ‐Ｆａｒｍ株式会社,,株式会社,兵庫県,宝塚市,玉瀬字大岩谷１番地６８,,28,214,6691231,,,,,,,2025-02-19,1,,,,,クラフトマンズファーム,0
210,1140003021689,新規,0,2025-02-19,2025-02-19,合同会社Ｕｎｄｅｒｗｏｒｌｄ　Ｊａｐａｎ,,合同会社,兵庫県,神戸市中央区,磯辺通１丁目１番１８号カサベラ国際プラザビル７０７号室,,28,110,6510084,,,,,,,2025-02-19,1,,,,,アンダーワールドジャパン,0
211,1150003003496,新規,0,2025-02-19,2025-02-19,ホープ合同会社,,合同会社,奈良県,磯城郡田原本町,大字阪手４８２番地の４号の２,,29,363,6360247,,,,,,,2025-02-19,1,,,,,ホープ,0
212,1150003003505,新規,0,2025-02-19,2025-02-19,合同会社ＵＧ,,合同会社,奈良県,大和郡山市,矢田山町６３番地３,,29,203,6391055,,,,,,,2025-02-19,1,,,,,ユージー,0
215,1170003002166,新規,0,2025-02-19,2025-02-19,合資会社ここみ,,合資会社,和歌山県,西牟婁郡上富田町,朝来３３３５番地の１,,30,404,6492105,,,,,,,2025-02-19,1,,,,,ココミ,0
223,1180001165435,新規,0,2025-02-19,2025-02-19,株式会社ＨｉＡＩ,,株式会社,愛知県,名古屋市中区,丸の内３丁目６番２５号イトザキビル５Ｆ,,23,106,4600002,,,,,,,2025-02-19,1,,,,,ハイエーアイ,0
224,1180001165501,新規,0,2025-02-19,2025-02-19,ＭＩＬＨＥＡＲＴ株式会社,,株式会社,愛知県,名古屋市天白区,原５丁目２１０１番地平針南住宅２棟５０３号,,23,116,4680015,,,,,,,2025-02-19,1,,,,,ミルハート,0
225,1180001165526,新規,0,2025-02-19,2025-02-19,株式会社ＤＥＳＴＩＮＹ,,株式会社,愛知県,名古屋市港区,惟信町２丁目４１番地グランドステージＮＡＫＡＮＯ１０１号,,23,111,4550823,,,,,,,2025-02-19,1,,,,,ディスティニー,0
228,1180003028012,新規,0,2025-02-19,2025-02-19,ラインスタッフ合同会社,,合同会社,愛知県,名古屋市緑区,鶴が沢１丁目１０１徳重セントラルビル１０１号,,23,114,4580814,,,,,,,2025-02-19,1,,,,,ラインスタッフ,0
231,1180303006460,新規,0,2025-02-19,2025-02-19,合同会社ＲＵＨＥ,,合同会社,愛知県,高浜市,湯山町３丁目２番地５,,23,227,4441332,,,,,,,2025-02-19,1,,,,,ルーエ,0
233,1190001032015,新規,0,2025-02-19,2025-02-19,株式会社エフジーセントラル,,株式会社,三重県,津市,白塚町４６２５番地２,,24,201,5140101,,,,,,,2025-02-19,1,,,,,エフジーセントラルカ,0
243,1240001064531,新規,0,2025-02-19,2025-02-19,株式会社イーグル,,株式会社,広島県,広島市西区,楠木町２丁目１０番１８号,,34,104,7330002,,,,,,,2025-02-19,1,,,,,イーグル,0
244,1240001064548,新規,0,2025-02-19,2025-02-19,株式会社スミックス,,株式会社,広島県,尾道市,新浜２丁目２番２１号,,34,205,7220014,,,,,,,2025-02-19,1,,,,,スミックス,0
249,1270001009153,新規,0,2025-02-19,2025-02-19,株式会社Ｃｏｎｎｉｅ　Ｓｔｕｄｉｏ,,株式会社,鳥取県,岩美郡岩美町,大字田後４７９番,,31,302,6810071,,,,,,,2025-02-19,1,,,,,コニースタジオ,0
254,1290001109001,新規,0,2025-02-19,2025-02-19,株式会社Ｊ．Ｓ,,株式会社,福岡県,福津市,津屋崎１丁目３１番１９号,,40,224,8113304,,,,,,,2025-02-19,1,,,,,ジェイエス,0
255,1290001109018,新規,0,2025-02-19,2025-02-19,株式会社Ｖｏｌｅｒ,,株式会社,福岡県,久留米市,田主丸町田主丸３７３番地１２,,40,203,8391233,,,,,,,2025-02-19,1,,,,,ヴォレ,0
256,1290001109034,新規,0,2025-02-19,2025-02-19,祐真明設備工業株式会社,,株式会社,福岡県,古賀市,谷山１０８２番地１ブランハイツＡ２０３号,,40,223,8113125,,,,,,,2025-02-19,1,,,,,ユウシンアイセツビコウギョウ,0
258,1290003016443,新規,0,2025-02-19,2025-02-19,合同会社アドサポート,,合同会社,福岡県,福岡市博多区,博多駅前１丁目２３番２号ＰａｒｋＦｒｏｎｔ博多駅前１丁目５Ｆ－Ｂ,,40,132,8120011,,,,,,,2025-02-19,1,,,,,アドサポート,0
259,1290005019650,新規,0,2025-02-19,2025-02-19,ＮＰＯ法人国際書画印研究会,,その他の設立登記法人,福岡県,福岡市西区,愛宕南１丁目７番７－２０３号,,40,135,8190007,,,,,,,2025-02-19,1,,,,,コクサイションガインケンキュウカイ,0
263,1290801031288,新規,0,2025-02-19,2025-02-19,株式会社ＳＳＫ,,株式会社,福岡県,北九州市若松区,大字安屋２３２３番地,,40,103,8080124,,,,,,,2025-02-19,1,,,,,エスエスケー,0
266,1310003004949,新規,0,2025-02-19,2025-02-19,合同会社優芯,,合同会社,長崎県,諫早市,天満町４９番１３号,,42,204,8540006,,,,,,,2025-02-19,1,,,,,ユウシン,0
268,1330003010805,新規,0,2025-02-19,2025-02-19,合同会社クラスワン,,合同会社,熊本県,熊本市中央区,国府２丁目１２番６１号,,43,101,8620949,,,,,,,2025-02-19,1,,,,,クラスワン,0
269,1330003010854,新規,0,2025-02-19,2025-02-19,合同会社すいぜんじ,,合同会社,熊本県,熊本市中央区,水前寺３丁目７番１１－１００４号,,43,101,8620950,,,,,,,2025-02-19,1,,,,,スイゼンジ,0
270,1340001027123,新規,0,2025-02-19,2025-02-19,株式会社一隅,,株式会社,鹿児島県,志布志市,有明町野神１７５０番地,,46,221,8997512,,,,,,,2025-02-19,1,,,,,イチグウ,0
272,1340005009811,新規,0,2025-02-19,2025-02-19,一般社団法人奄美群島インバウンド協議会,,その他の設立登記法人,鹿児島県,奄美市,名瀬入舟町５番６号,,46,222,8940034,,,,,,,2025-02-19,1,,,,,アマミグントウインバウンドキョウギカイ,0
279,1370001052259,新規,0,2025-02-19,2025-02-19,株式会社ＳＫ　ＲＥＮＴ,,株式会社,宮城県,仙台市若林区,上飯田１丁目２１番６号,,04,103,9840838,,,,,,,2025-02-19,1,,,,,エスケーレント,0
280,1370001052283,新規,0,2025-02-19,2025-02-19,株式会社アルファエンジニアリング,,株式会社,宮城県,仙台市青葉区,国見ケ丘５丁目３９番２０号,,04,101,9893201,,,,,,,2025-02-19,1,,,,,アルファエンジニアリング,0
281,1380001035097,新規,0,2025-02-19,2025-02-19,株式会社ＪＪＭＬ,,株式会社,福島県,郡山市,西ノ内２丁目１９番１０号,,07,203,9638022,,,,,,,2025-02-19,1,,,,,ジャジャマル,0
287,1410003004047,新規,0,2025-02-19,2025-02-19,合同会社ＡＺＩＺＯＬＩＯＵＳ,,合同会社,秋田県,男鹿市,脇本脇本字後野２７番地１０,,05,206,0100342,,,,,,,2025-02-19,1,,,,,アジゾリウス,0
288,1430001093726,新規,0,2025-02-19,2025-02-19,パーペチュアル・ショー株式会社,,株式会社,北海道,札幌市豊平区,中の島一条４丁目６番２号富田ビル３Ｆ右,,01,105,0620921,,,,,,,2025-02-19,1,,,,,パーペチュアルショー,0
295,1460001005975,新規,0,2025-02-19,2025-02-19,株式会社ザ・グレージング白糠,,株式会社,北海道,白糠郡白糠町,工業団地３丁目１番地１,,01,668,0880569,,,,,,,2025-02-19,1,,,,,ザグレージングシラヌカ,0
296,1460401001269,新規,0,2025-02-19,2025-02-19,サンバイロ根室株式会社,,株式会社,北海道,根室市,光洋町２丁目３０番地株式会社テラジマ内,,01,223,0870004,,,,,,,2025-02-19,1,,,,,サンバイロネムロ,0
297,1470001020585,新規,0,2025-02-19,2025-02-19,株式会社Ｖｉｓｉｏｎａｒｙ　Ａｃｃｏｕｎｔｉｎｇ,,株式会社,香川県,丸亀市,土居町３丁目１１番２０－５号,,37,202,7630012,,,,,,,2025-02-19,1,,,,,ビジョナリーアカウンティング,0
299,1470005006606,新規,0,2025-02-19,2025-02-19,一般社団法人タカマチプラス,,その他の設立登記法人,香川県,高松市,鶴市町６８６番地１,,37,201,7618032,,,,,,,2025-02-19,1,,,,,,0
306,1500001026141,新規,0,2025-02-19,2025-02-19,株式会社松尾商会,,株式会社,愛媛県,松山市,南白水３丁目８番１５,,38,201,7910114,,,,,,,2025-02-19,1,,,,,マツオショウカイ,0
309,1700150129229,新規,0,2025-02-19,2025-02-19,ＬＵＸＣＡＲ　ＩＮＴＥＲＮＡＴＩＯＮＡＬ,,外国会社等,千葉県,山武市,成東２８８８番地７オフィス３,,12,237,2891326,スリランカ民主社会主義共和国、ヤティヤナ、カダウェッドゥワ、ピーラロード,,,,,,2025-02-19,1,,,,,ラツクスカーインターナシヨナル,0
318,2010001252323,新規,0,2025-02-19,2025-02-19,株式会社オンヌリ,,株式会社,東京都,千代田区,鍛冶町１丁目１０番６号ＢＩＺ・ＳＭＡＲＴ神田３０２号室,,13,101,1010044,,,,,,,2025-02-19,1,,,,,オンヌリ,0
319,2010001252331,新規,0,2025-02-19,2025-02-19,株式会社千ヶ滝開発,,株式会社,東京都,中央区,銀座１丁目１２番４号Ｎ＆ＥＢＬＤ．６Ｆ,,13,102,1040061,,,,,,,2025-02-19,1,,,,,センガタキカイハツ,0
320,2010001252348,新規,0,2025-02-19,2025-02-19,株式会社ヴァルタス,,株式会社,東京都,中央区,銀座１丁目１２番４号Ｎ＆ＥＢＬＤ．７階,,13,102,1040061,,,,,,,2025-02-19,1,,,,,ヴァルタス,0
321,2010001252364,新規,0,2025-02-19,2025-02-19,株式会社ライズ,,株式会社,東京都,中央区,銀座１丁目２２番１１号銀座大竹ビジデンス２Ｆ,,13,102,1040061,,,,,,,2025-02-19,1,,,,,ライズ,0
322,2010001252372,新規,0,2025-02-19,2025-02-19,株式会社相模重工業,,株式会社,東京都,文京区,千石４丁目１４番９号,,13,105,1120011,,,,,,,2025-02-19,1,,,,,サガミジュウコウギョウ,0
323,2010001252397,新規,0,2025-02-19,2025-02-19,株式会社ＴＳＵＮＡＧ,,株式会社,東京都,中央区,日本橋浜町２丁目５５番２号ＢｅｓｐｏｋｅＡｐａｒｔｍｅｎｔｓ日本橋浜町３Ｆ,,13,102,1030007,,,,,,,2025-02-19,1,,,,,ツナグ,0
324,2010001252447,新規,0,2025-02-19,2025-02-19,株式会社イーサンファウンデーション,,株式会社,東京都,千代田区,富士見２丁目１０番３－２１０１号,,13,101,1020071,,,,,,,2025-02-19,1,,,,,イーサンファウンデーション,0
325,2010003046459,新規,0,2025-02-19,2025-02-19,礎２合同会社,,合同会社,東京都,千代田区,永田町２丁目４番８号,,13,101,1000014,,,,,,,2025-02-19,1,,,,,イシズエツー,0
326,2010003046467,新規,0,2025-02-19,2025-02-19,合同会社ファイナルチャンス,,合同会社,東京都,中央区,勝どき３丁目２番３－３０１号,,13,102,1040054,,,,,,,2025-02-19,1,,,,,ファイナルチャンス,0
329,2010005039584,新規,0,2025-02-19,2025-02-19,一般社団法人全日本執事協会,,その他の設立登記法人,東京都,中央区,銀座１丁目１２－４Ｎ＆ＥＢＬＤ．７階,,13,102,1040061,,,,,,,2025-02-19,1,,,,,ゼンニホンシツジキョウカイ,0
332,2010401188258,新規,0,2025-02-19,2025-02-19,スーパーグッドエクスチェンジ株式会社,,株式会社,東京都,港区,赤坂２丁目１４－５Ｄａｉｗａ赤坂ビル４Ｆ,,13,103,1070052,,,,,,,2025-02-19,1,,,,,スーパーグッドエクスチェンジ,0
333,2010401188316,新規,0,2025-02-19,2025-02-19,株式会社ＬＩＮＣ,,株式会社,東京都,港区,南青山２丁目３番３号パークコート青山ザタワー７０３,,13,103,1070062,,,,,,,2025-02-19,1,,,,,リンク,0
334,2010401188324,新規,0,2025-02-19,2025-02-19,株式会社ＶＡＲＩＱＵＥＳＴ,,株式会社,東京都,港区,芝公園１丁目３番８号,,13,103,1050011,,,,,,,2025-02-19,1,,,,,ヴァリクエスト,0
335,2010401188365,新規,0,2025-02-19,2025-02-19,株式会社ＬＲ,,株式会社,東京都,港区,麻布十番３丁目８－４麻布Ｋ’ｓビル４Ｆ,,13,103,1060045,,,,,,,2025-02-19,1,,,,,エルアール,0
338,2010403034427,新規,0,2025-02-19,2025-02-19,合同会社ＪＭＣ　ＴＲＵＳＴ,,合同会社,東京都,港区,赤坂６丁目４番１８号,,13,103,1070052,,,,,,,2025-02-19,1,,,,,ジェイエムシートラスト,0
339,2010403034443,新規,0,2025-02-19,2025-02-19,ＫＹＯ合同会社,,合同会社,東京都,港区,白金１丁目２５番２０－８０５号,,13,103,1080072,,,,,,,2025-02-19,1,,,,,ケーワイオー,0
342,2010503007729,新規,0,2025-02-19,2025-02-19,合同会社ヤマト,,合同会社,東京都,台東区,上野５丁目１３番１号,,13,106,1100005,,,,,,,2025-02-19,1,,,,,ヤマト,0
343,2010601066800,新規,0,2025-02-19,2025-02-19,株式会社上苑,,株式会社,東京都,墨田区,業平５丁目３番１４号,,13,107,1300002,,,,,,,2025-02-19,1,,,,,ジョウエン,0
344,2010601066809,新規,0,2025-02-19,2025-02-19,株式会社ＰＲＯＳＰＥＲＡ,,株式会社,東京都,墨田区,押上１丁目５２―９,,13,107,1310045,,,,,,,2025-02-19,1,,,,,プロスペラ,0
368,2011201026137,新規,0,2025-02-19,2025-02-19,株式会社つむぎ途,,株式会社,東京都,中野区,中央１丁目５０番１７ー９０３号,,13,114,1640011,,,,,,,2025-02-19,1,,,,,ツムギト,0
372,2011501031720,新規,0,2025-02-19,2025-02-19,元貞株式会社,,株式会社,東京都,北区,豊島２丁目１０番６号創益企画ビル１階３号室,,13,117,1140003,,,,,,,2025-02-19,1,,,,,ゲンテイ,0
373,2011501031729,新規,0,2025-02-19,2025-02-19,ＤＯＬＯＮＹＥＮ株式会社,,株式会社,東京都,北区,赤羽３丁目２６番９号,,13,117,1150045,,,,,,,2025-02-19,1,,,,,ドルオンエン,0
378,2012401042790,新規,0,2025-02-19,2025-02-19,ピースフルリノベイト株式会社,,株式会社,東京都,多摩市,関戸１丁目１１－３桜ヶ丘プラザビル５Ｆ,,13,224,2060011,,,,,,,2025-02-19,1,,,,,ピースフルリノベイト,0
379,2012401042799,新規,0,2025-02-19,2025-02-19,株式会社人と空間,,株式会社,東京都,府中市,紅葉丘２丁目２５－９,,13,206,1830004,,,,,,,2025-02-19,1,,,,,ヒトトクウカン,0
380,2012701018706,新規,0,2025-02-19,2025-02-19,テクサーブ株式会社,,株式会社,東京都,東村山市,秋津町４丁目２８番地２,,13,213,1890001,,,,,,,2025-02-19,1,,,,,テクサーブ,0
382,2012801023746,新規,0,2025-02-19,2025-02-19,昭和の森スマイルケア株式会社,,株式会社,東京都,昭島市,代官山３丁目１番１号,,13,207,1960005,,,,,,,2025-02-19,1,,,,,ショウワノモリスマイルケア,0
383,2012803003639,新規,0,2025-02-19,2025-02-19,合同会社一癸商会,,合同会社,東京都,立川市,高松町３丁目８番地３ファーレ立川パークホームズ３０１,,13,202,1900011,,,,,,,2025-02-19,1,,,,,,0
385,2020001161382,新規,0,2025-02-19,2025-02-19,クリエイティブマテリアルズサイエンス株式会社,,株式会社,神奈川県,横浜市西区,北幸１丁目１１番１号水信ビル７階,,14,103,2200004,,,,,,,2025-02-19,1,,,,,クリエイティブマテリアルズサイエンス,0
386,2020001161498,新規,0,2025-02-19,2025-02-19,株式会社ＹＳプロジェクト,,株式会社,神奈川県,横浜市神奈川区,高島台１８番地１７,,14,102,2210833,,,,,,,2025-02-19,1,,,,,ワイエスプロジェクト,0
387,2020001161515,新規,0,2025-02-19,2025-02-19,株式会社鶴見総合葬祭,,株式会社,神奈川県,横浜市鶴見区,仲通３丁目７３番地１２,,14,101,2300042,,,,,,,2025-02-19,1,,,,,ツルミソウゴウソウサイ,0
388,2020003027821,新規,0,2025-02-19,2025-02-19,合同会社ｚｅｎｏｖａ,,合同会社,神奈川県,横浜市西区,浅間町１丁目４－３ウィザードビル４０２,,14,103,2200072,,,,,,,2025-02-19,1,,,,,ゼノバ,0
391,2021001084482,新規,0,2025-02-19,2025-02-19,株式会社アツギバイオ,,株式会社,神奈川県,厚木市,旭町１丁目１６番４号,,14,212,2430014,,,,,,,2025-02-19,1,,,,,アツギバイオ,0
392,2021001084499,新規,0,2025-02-19,2025-02-19,ＮＧＩ株式会社,,株式会社,神奈川県,愛甲郡愛川町,中津４９２番地の３ＦｒｅｅｄｏｍＧａｒａｇｅＩＸ１０１,00138061,14,401,2430303,,,,,,,2025-02-19,1,,,,,エヌジーアイ,0
395,2021003015601,新規,0,2025-02-19,2025-02-19,イコジン合同会社,,合同会社,神奈川県,横須賀市,芦名２丁目２６番３０号,,14,201,2400104,,,,,,,2025-02-19,1,,,,,イコジン,0
400,2030001164979,新規,0,2025-02-19,2025-02-19,株式会社ＮＥＳＲＩＮ工業,,株式会社,埼玉県,川口市,西青木３丁目４番７号ボヌールビル２０３号,,11,203,3320035,,,,,,,2025-02-19,1,,,,,ネスリンコウギョウ,0
405,2030003026137,新規,0,2025-02-19,2025-02-19,ＴＧＢ＆Ｃｉｒｃｌｅ．合同会社,,合同会社,埼玉県,草加市,手代２丁目３０番３号,,11,221,3400021,,,,,,,2025-02-19,1,,,,,ティージービーアンドサークルドット,0
406,2030003026145,新規,0,2025-02-19,2025-02-19,合同会社Ｃｏｎｔｉｎｅｎｔａｌ　Ｓｐｏｏｎ,,合同会社,埼玉県,越谷市,レイクタウン７丁目２３番地４,,11,222,3430828,,,,,,,2025-02-19,1,,,,,コンチネンタルスプーン,0
409,2040001137422,新規,0,2025-02-19,2025-02-19,株式会社夕焼け,,株式会社,千葉県,習志野市,津田沼５丁目９番６－１０２号,,12,216,2750016,,,,,,,2025-02-19,1,,,,,ユウヤケ,0
410,2040001137439,新規,0,2025-02-19,2025-02-19,株式会社ＲＵＮＡ,,株式会社,千葉県,市川市,富浜２丁目１６番１８－１０２号,,12,203,2720115,,,,,,,2025-02-19,1,,,,,ルナ,0
411,2040001137463,新規,0,2025-02-19,2025-02-19,株式会社パンセ,,株式会社,千葉県,浦安市,高洲７丁目１番１－１３０１号,,12,227,2790023,,,,,,,2025-02-19,1,,,,,パンセ,0
414,2040003026895,新規,0,2025-02-19,2025-02-19,合同会社小倉コイン,,合同会社,千葉県,佐倉市,西志津３丁目２７番１２号,,12,212,2850845,,,,,,,2025-02-19,1,,,,,オグラコイン,0
418,2050001056200,新規,0,2025-02-19,2025-02-19,株式会社ＤＯＩＮＧ,,株式会社,茨城県,那珂市,菅谷３０１２番地７,,08,226,3110105,,,,,,,2025-02-19,1,,,,,ドゥーイング,0
420,2050003009016,新規,0,2025-02-19,2025-02-19,合同会社ＷｔＷｏ,,合同会社,茨城県,ひたちなか市,表町一丁目４番勝田ビル２Ｆ,,08,221,3120047,,,,,,,2025-02-19,1,,,,,,0
421,2050003009032,新規,0,2025-02-19,2025-02-19,合同会社Ｒｉｚｅ　Ｎｅｘｔ,,合同会社,茨城県,つくば市,東２丁目９－１０－Ｂ１０２,,08,220,3050046,,,,,,,2025-02-19,1,,,,,ライズネクスト,0
427,2060001037901,新規,0,2025-02-19,2025-02-19,株式会社日光あおい農縁,,株式会社,栃木県,日光市,岩崎１２９２番地１,,09,206,3211104,,,,,,,2025-02-19,1,,,,,ニッコウアオイノウエン,0
435,2080001026761,新規,0,2025-02-19,2025-02-19,株式会社Ｂクリーン静岡,,株式会社,静岡県,静岡市葵区,北安東４丁目２６番１４号,,22,101,4200881,,,,,,,2025-02-19,1,,,,,ビークリーンシズオカ,0
438,2080103003254,新規,0,2025-02-19,2025-02-19,合同会社あぱらぎ,,合同会社,静岡県,富士宮市,大宮町３１番地の７号,,22,207,4180066,,,,,,,2025-02-19,1,,,,,アパラギ,0
440,2080401027756,新規,0,2025-02-19,2025-02-19,株式会社Ｃ＆Ｃ,,株式会社,静岡県,磐田市,見付６０１４番地１シャトレ七番館４０３,,22,211,4380086,,,,,,,2025-02-19,1,,,,,シーアンドシー,0
443,2100003007996,新規,0,2025-02-19,2025-02-19,合同会社信州あづみ野エステート,,合同会社,長野県,松本市,大字岡田町１６４番地１,,20,202,3900315,,,,,,,2025-02-19,1,,,,,シンシュウアヅミノエステート,0
456,2120001272839,新規,0,2025-02-19,2025-02-19,株式会社サークルケア,,株式会社,大阪府,大阪市北区,同心２丁目１番２８－１３０３号,,27,127,5300035,,,,,,,2025-02-19,1,,,,,サークルケア,0
457,2120001272962,新規,0,2025-02-19,2025-02-19,株式会社ｆｕｊｉｎａｂｅ,,株式会社,大阪府,大阪市中央区,南本町３丁目４番１２号ギャラリー本町１階,,27,128,5410054,,,,,,,2025-02-19,1,,,,,フジナベ,0
458,2120001273077,新規,0,2025-02-19,2025-02-19,有米株式会社,,株式会社,大阪府,大阪市淀川区,木川西１丁目６番２７号,,27,123,5320013,,,,,,,2025-02-19,1,,,,,ユウミ,0
459,2120003028677,新規,0,2025-02-19,2025-02-19,ジュピター合同会社,,合同会社,大阪府,寝屋川市,高柳５丁目５１番１号,,27,215,5720051,,,,,,,2025-02-19,1,,,,,ジュピター,0
461,2120101071083,新規,0,2025-02-19,2025-02-19,株式会社わん,,株式会社,大阪府,堺市堺区,南三国ヶ丘町４丁６番２２号,,27,141,5900023,,,,,,,2025-02-19,1,,,,,ワン,0
462,2120101071109,新規,0,2025-02-19,2025-02-19,株式会社ｔｏ‐スタイル,,株式会社,大阪府,堺市西区,北条町１丁１番２号,,27,144,5938302,,,,,,,2025-02-19,1,,,,,トゥースタイル,0
466,2120905006689,新規,0,2025-02-19,2025-02-19,一般社団法人日本風姿花伝,,その他の設立登記法人,大阪府,豊中市,新千里東町１丁目１番２－５１０１号,,27,203,5600082,,,,,,,2025-02-19,1,,,,,ニホンフウシカデン,0
470,2130001079003,新規,0,2025-02-19,2025-02-19,株式会社ムラカミ建設,,株式会社,京都府,宇治市,広野町新成田１００番地の１４８,,26,204,6110031,,,,,,,2025-02-19,1,,,,,ムラカミケンセツ,0
471,2130001079028,新規,0,2025-02-19,2025-02-19,ＳＴホールディングス株式会社,,株式会社,京都府,宇治市,槇島町五才田１８番地２,,26,204,6110041,,,,,,,2025-02-19,1,,,,,エスティーホールディングス,0
474,2140001137445,新規,0,2025-02-19,2025-02-19,雄輝株式会社,,株式会社,兵庫県,尼崎市,南塚口町８丁目１６番２８号アグレアーブル塚口１０２,,28,202,6610012,,,,,,,2025-02-19,1,,,,,ユウキ,0
475,2140001137453,新規,0,2025-02-19,2025-02-19,株式会社Ｓ‐ＡＣＴ,,株式会社,兵庫県,神戸市西区,白水１丁目３２番１３号,,28,111,6512129,,,,,,,2025-02-19,1,,,,,エスアクト,0
476,2140001137461,新規,0,2025-02-19,2025-02-19,株式会社ｌｉｌｙ,,株式会社,兵庫県,神戸市長田区,海運町５丁目１番２６－６０２号,,28,106,6530052,,,,,,,2025-02-19,1,,,,,リリー,0
477,2140001137486,新規,0,2025-02-19,2025-02-19,株式会社マツオ塗装店,,株式会社,兵庫県,神戸市垂水区,舞子坂３丁目７番５０号,,28,108,6550044,,,,,,,2025-02-19,1,,,,,マツオトソウテン,0
480,2140003021671,新規,0,2025-02-19,2025-02-19,合同会社ＳＩＥＮＤＯ,,合同会社,兵庫県,神戸市垂水区,歌敷山３丁目５番９号,,28,108,6550037,,,,,,,2025-02-19,1,,,,,シエンドウ,0
482,2160001026547,新規,0,2025-02-19,2025-02-19,株式会社Ｓｏｌａｒｉｓ,,株式会社,滋賀県,彦根市,中藪町６６０番地１８,,25,202,5220051,,,,,,,2025-02-19,1,,,,,ソラリス,0
483,2160003003404,新規,0,2025-02-19,2025-02-19,合同会社永倉不動産,,合同会社,滋賀県,甲賀市,信楽町長野１０５３番７,,25,209,5291851,,,,,,,2025-02-19,1,,,,,ナガクラフドウサン,0
484,2170001018502,新規,0,2025-02-19,2025-02-19,株式会社Ｍ．Ｔ　Ｎｅｘｕｓ,,株式会社,和歌山県,岩出市,清水２３１番地の１８,,30,209,6496227,,,,,,,2025-02-19,1,,,,,エムティーネクサス,0
490,2180001165467,新規,0,2025-02-19,2025-02-19,株式会社Ｔ’ｓ,,株式会社,愛知県,名古屋市北区,清水２丁目４番１７号,,23,103,4620844,,,,,,,2025-02-19,1,,,,,ティーズ,0
491,2180001165483,新規,0,2025-02-19,2025-02-19,株式会社ｏｆｆｉｃｅＫＡＫＵＤＡ,,株式会社,愛知県,名古屋市中村区,並木２丁目２８５番地,,23,105,4530856,,,,,,,2025-02-19,1,,,,,オフィスカクダ,0
492,2180001165491,新規,0,2025-02-19,2025-02-19,株式会社ＡＬＳｌａｔｉｏｎ,,株式会社,愛知県,名古屋市守山区,小幡３丁目１８番１７号,,23,113,4630011,,,,,,,2025-02-19,1,,,,,アルスレーション,0
493,2180001165500,新規,0,2025-02-19,2025-02-19,はないろ株式会社,,株式会社,愛知県,常滑市,字萱苅口１５番地の２、３０１号,,23,216,4790063,,,,,,,2025-02-19,1,,,,,ハナイロ,0
494,2180001165509,新規,0,2025-02-19,2025-02-19,株式会社西川商事,,株式会社,愛知県,清須市,春日白弓４１番地,,23,233,4520962,,,,,,,2025-02-19,1,,,,,ニシカワショウジ,0
495,2180002012461,新規,0,2025-02-19,2025-02-19,有限会社富士センター,,有限会社,愛知県,名古屋市北区,柳原２丁目２番２１号,,23,103,4620845,,,,,,,2025-02-19,1,,,,,フジセンター,0
499,2180301039528,新規,0,2025-02-19,2025-02-19,株式会社アドワン,,株式会社,愛知県,豊橋市,多米中町１丁目４番地２９,,23,201,4400027,,,,,,,2025-02-19,1,,,,,アドワン,0
500,2180301039536,新規,0,2025-02-19,2025-02-19,株式会社まごころダイコー,,株式会社,愛知県,知立市,東上重原１丁目６６番地,,23,225,4720054,,,,,,,2025-02-19,1,,,,,マゴコロダイコー,0
502,2190001032014,新規,0,2025-02-19,2025-02-19,株式会社ＪＡＰＡＮ　ＡＵＴＯ　ＰＬＡＮＴ,,株式会社,三重県,桑名市,大字東方字古川３１４６番,,24,205,5110811,,,,,,,2025-02-19,1,,,,,ジャパンオートプラント,0
504,2200001043439,新規,0,2025-02-19,2025-02-19,株式会社大和豊製,,株式会社,岐阜県,岐阜市,椿洞４２５番地６９,,21,201,5020801,,,,,,,2025-02-19,1,,,,,ヤマトホウセイ,0
505,2200001043447,新規,0,2025-02-19,2025-02-19,株式会社フロンティア,,株式会社,岐阜県,大垣市,島町５９番地６,,21,202,5030996,,,,,,,2025-02-19,1,,,,,フロンティア,0
510,2240005015901,新規,0,2025-02-19,2025-02-19,医療法人如水会,,その他の設立登記法人,広島県,広島市中区,紙屋町２丁目３番２０号３階３０１,,34,101,7300031,,,,,,,2025-02-19,1,,,,,ジョスイカイ,0
516,2270005005627,新規,0,2025-02-19,2025-02-19,医療法人ｌｏｈｅｎ,,その他の設立登記法人,鳥取県,鳥取市,雲山２０８番地１７,,31,201,6800862,,,,,,,2025-02-19,1,,,,,ロウエン,0
525,2290001109000,新規,0,2025-02-19,2025-02-19,株式会社ＮＯＩ　ＳＴＹＬＥ,,株式会社,福岡県,福岡市博多区,寿町２丁目５番１２号,,40,132,8120884,,,,,,,2025-02-19,1,,,,,ノイスタイル,0
526,2290001109009,新規,0,2025-02-19,2025-02-19,キラナエステート株式会社,,株式会社,福岡県,福岡市中央区,赤坂３丁目９番１８－３０１号,,40,133,8100042,,,,,,,2025-02-19,1,,,,,キラナエステート,0
527,2290001109017,新規,0,2025-02-19,2025-02-19,シゲオカファイターズ株式会社,,株式会社,福岡県,うきは市,吉井町屋部４２９番地２,,40,225,8391331,,,,,,,2025-02-19,1,,,,,シゲオカファイターズ,0
528,2290001109041,新規,0,2025-02-19,2025-02-19,株式会社ＰＪＯ,,株式会社,福岡県,福岡市中央区,大手門３丁目５－１８－１Ｆ,,40,133,8100074,,,,,,,2025-02-19,1,,,,,ピージェイオー,0
530,2290003016426,新規,0,2025-02-19,2025-02-19,合同会社ひなび,,合同会社,福岡県,久留米市,善導寺町与田１４９番地４,,40,203,8390823,,,,,,,2025-02-19,1,,,,,ヒナビ,0
533,2290801031287,新規,0,2025-02-19,2025-02-19,株式会社フーズリンク,,株式会社,福岡県,鞍手郡鞍手町,大字中山１５２１番地,,40,402,8071312,,,,,,,2025-02-19,1,,,,,フーズリンク,0
538,2310003004948,新規,0,2025-02-19,2025-02-19,合同会社フルートフル,,合同会社,長崎県,島原市,天神元町乙４９４番地１,,42,203,8550883,,,,,,,2025-02-19,1,,,,,フルートフル,0
546,2330001032899,新規,0,2025-02-19,2025-02-19,株式会社プランディル,,株式会社,熊本県,熊本市東区,桜木３丁目１番２６号,,43,102,8612101,,,,,,,2025-02-19,1,,,,,プランディル,0
547,2330003010804,新規,0,2025-02-19,2025-02-19,合同会社かぼちゃ,,合同会社,熊本県,熊本市南区,田迎１丁目６－５６－１,,43,104,8620962,,,,,,,2025-02-19,1,,,,,カボチャ,0
548,2330003010853,新規,0,2025-02-19,2025-02-19,合同会社９ｎｉｎｅ　Ｓｔａｔｅｓ,,合同会社,熊本県,熊本市東区,御領１丁目２－５０Ｃ２０２,,43,102,8618035,,,,,,,2025-02-19,1,,,,,ナインステイツ,0
549,2340001027122,新規,0,2025-02-19,2025-02-19,株式会社エコー,,株式会社,鹿児島県,霧島市,国分中央２丁目４番１３号,,46,218,8994332,,,,,,,2025-02-19,1,,,,,エコー,0
550,2340001027130,新規,0,2025-02-19,2025-02-19,株式会社湧水町おこしエネルギー,,株式会社,鹿児島県,姶良郡湧水町,木場６３５４番地３,,46,452,8996201,,,,,,,2025-02-19,1,,,,,ユウスイマチオコシエネルギー,0
558,2360003014694,新規,0,2025-02-19,2025-02-19,合同会社ＳＴＯＲＹ　ＷＯＲＫＳ,,合同会社,沖縄県,浦添市,仲西１丁目２－５ネクステージカメリア２－４０５,,47,208,9012125,,,,,,,2025-02-19,1,,,,,ストーリーワークス,0
564,2370001052274,新規,0,2025-02-19,2025-02-19,株式会社Ｓｉｎｇｕｌａｒｔｅｃｈ,,株式会社,宮城県,仙台市宮城野区,福室２丁目８番１７－３１４号,,04,102,9830005,,,,,,,2025-02-19,1,,,,,シンギュラルテック,0
569,2420001019020,新規,0,2025-02-19,2025-02-19,株式会社Ｔａｗｗｅｌ,,株式会社,青森県,平川市,猿賀浅井１０１番地１１,,02,210,0360242,,,,,,,2025-02-19,1,,,,,タウウェル,0
570,2420003003071,新規,0,2025-02-19,2025-02-19,合同会社つしま商事,,合同会社,青森県,青森市,大字大野字前田６４―２２,,02,201,0300852,,,,,,,2025-02-19,1,,,,,ツシマショウジ,0
573,2430001093725,新規,0,2025-02-19,2025-02-19,株式会社ＨＩＹＯＲＩ,,株式会社,北海道,札幌市北区,麻生町５丁目８番地２０麻生ロイヤルハイツ６０６号室,,01,102,0010045,,,,,,,2025-02-19,1,,,,,ヒヨリ,0
577,2430005015155,新規,0,2025-02-19,2025-02-19,特定非営利活動法人みらいえ,,その他の設立登記法人,北海道,札幌市西区,八軒三条東４丁目８番２０号,,01,107,0630863,,,,,,,2025-02-19,1,,,,,ミライエ,0
579,2460001005974,新規,0,2025-02-19,2025-02-19,株式会社瑠璃式,,株式会社,北海道,釧路市,知人町５－１２,,01,206,0850844,,,,,,,2025-02-19,1,,,,,ルリシキ,0
583,2490001010971,新規,0,2025-02-19,2025-02-19,株式会社ロハスバディー,,株式会社,高知県,高知市,鴨部１丁目６番１２号,,39,201,7808052,,,,,,,2025-02-19,1,,,,,ロハスバディー,0
585,2700150129228,新規,0,2025-02-19,2025-02-19,ＦＡＳＴ　ＭＯＴＯＲＳ　ＥＮＴＥＲＰＲＩＳＥＳ,,外国会社等,千葉県,山武郡横芝光町,宮川１６１５番地９オフィスＤ,,12,410,2891727,スリランカ民主社会主義共和国、コロンボ１０、パンチカウェタロード、Ｎｏ．１０４Ｄ,,,,,,2025-02-19,1,,,,,フアーストモータースエンタープライズ,0
597,3010001252322,新規,0,2025-02-19,2025-02-19,Ｃｌａｒｉｏｎ　Ｅｖｅｎｔｓ　Ｊａｐａｎ株式会社,,株式会社,東京都,千代田区,丸の内１丁目８番３号丸の内トラストタワー本館２０階,,13,101,1000005,,,,,,,2025-02-19,1,,,,,クラリオンイベンツジャパン,0
598,3010001252347,新規,0,2025-02-19,2025-02-19,田津真株式会社,,株式会社,東京都,文京区,小石川１丁目５番１－３７１２号,,13,105,1120002,,,,,,,2025-02-19,1,,,,,タズマ,0
599,3010001252363,新規,0,2025-02-19,2025-02-19,株式会社わんダフルライフ,,株式会社,東京都,中央区,湊２丁目１１－１シティタワー銀座東ＳＯＨＯ４２４,,13,102,1040043,,,,,,,2025-02-19,1,,,,,ワンダフルライフ,0
600,3010001252371,新規,0,2025-02-19,2025-02-19,東京力巨電梯株式会社,,株式会社,東京都,文京区,千石４丁目１４番９号,,13,105,1120011,,,,,,,2025-02-19,1,,,,,トウキョウリキキョデンテイ,0
601,3010001252438,新規,0,2025-02-19,2025-02-19,ＦＩＴＳジャパン株式会社,,株式会社,東京都,千代田区,丸の内２丁目２番１号岸本ビル７階ｘＬＩＮＫ７２１号室,,13,101,1000005,,,,,,,2025-02-19,1,,,,,エフアイティーエスジャパン,0
602,3010001252454,新規,0,2025-02-19,2025-02-19,海宝株式会社,,株式会社,東京都,中央区,銀座８丁目１４番５号銀座ＫＭビル５階,,13,102,1040061,,,,,,,2025-02-19,1,,,,,カイホウ,0
603,3010001252470,新規,0,2025-02-19,2025-02-19,マギランジャパン株式会社,,株式会社,東京都,文京区,春日２丁目１４番９号ＳＰＩＣＥ３Ｆ,,13,105,1120003,,,,,,,2025-02-19,1,,,,,マギランジャパン,0
606,3010003046458,新規,0,2025-02-19,2025-02-19,礎１合同会社,,合同会社,東京都,千代田区,永田町２丁目４番８号,,13,101,1000014,,,,,,,2025-02-19,1,,,,,イシズエワン,0
607,3010003046490,新規,0,2025-02-19,2025-02-19,合同会社葵,,合同会社,東京都,中央区,銀座１丁目２２番１１号銀座大竹ビジデンス２Ｆ,,13,102,1040061,,,,,,,2025-02-19,1,,,,,アオイ,0
608,3010005039575,新規,0,2025-02-19,2025-02-19,一般社団法人みらいファンド,,その他の設立登記法人,東京都,中央区,日本橋茅場町１丁目９番４号長寿ビル３Ｆ,,13,102,1030025,,,,,,,2025-02-19,1,,,,,ミライファンド,0
609,3010005039591,新規,0,2025-02-19,2025-02-19,国際金融標準啓発推進事務局一般社団法人,,その他の設立登記法人,東京都,中央区,日本橋茅場町１丁目８－１,,13,102,1030025,,,,,,,2025-02-19,1,,,,,コクサイキンユウヒョウジュンケイハツスイシンジムキョク,0
623,3010403034392,新規,0,2025-02-19,2025-02-19,合同会社八百コミュニケーションズ,,合同会社,東京都,港区,港南２丁目１５－１品川インターシティＡ棟２８階,,13,103,1080075,,,,,,,2025-02-19,1,,,,,ヤオコミュニケーションズ,0
624,3010403034442,新規,0,2025-02-19,2025-02-19,合同会社Ｃｌａｒａ,,合同会社,東京都,港区,北青山１丁目８番４号アールキューブ青山３階,,13,103,1070061,,,,,,,2025-02-19,1,,,,,クララ,0
625,3010403034450,新規,0,2025-02-19,2025-02-19,合同会社ｓｏ　ａｒｅ　ｗｅ,,合同会社,東京都,港区,南青山３丁目１番３６号青山丸竹ビル６Ｆ,,13,103,1070062,,,,,,,2025-02-19,1,,,,,ソーアーウィ,0
628,3010601066799,新規,0,2025-02-19,2025-02-19,株式会社スピノ,,株式会社,東京都,墨田区,千歳３丁目９番９－２０２号,,13,107,1300025,,,,,,,2025-02-19,1,,,,,スピノ,0
629,3010601066808,新規,0,2025-02-19,2025-02-19,株式会社アークコネクト,,株式会社,東京都,墨田区,八広６丁目３７番２号,,13,107,1310041,,,,,,,2025-02-19,1,,,,,アークコネクト,0
632,3010703007577,新規,0,2025-02-19,2025-02-19,合同会社ＬｉＣｏＬｏＲ,,合同会社,東京都,品川区,東品川４丁目１１番３６－２７１９号,,13,109,1400002,,,,,,,2025-02-19,1,,,,,エルアイカラー,0
639,3011005010880,新規,0,2025-02-19,2025-02-19,一般社団法人児童生徒のデータプライバシー協会,,その他の設立登記法人,東京都,渋谷区,道玄坂１丁目１０番８号渋谷道玄坂東急ビル２Ｆ－Ｃ,,13,113,1500043,,,,,,,2025-02-19,1,,,,,ジドウセイトノデータプライバシーキョウカイ,0
644,3011101110667,新規,0,2025-02-19,2025-02-19,株式会社ＣＯＲＥＤＺ,,株式会社,東京都,新宿区,市谷田町３丁目８番市ヶ谷科学技術イノベーションセンタービル２階,,13,104,1620843,,,,,,,2025-02-19,1,,,,,コアーズ,0
645,3011101110691,新規,0,2025-02-19,2025-02-19,株式会社芳芳珠宝甄選,,株式会社,東京都,新宿区,百人町２丁目２６番５－８０２号,,13,104,1690073,,,,,,,2025-02-19,1,,,,,ファンファンジュエリーセレクション,0
648,3011103015550,新規,0,2025-02-19,2025-02-19,合同会社ＲＲＲ,,合同会社,東京都,新宿区,歌舞伎町２丁目４２－１３アゼリア東広ビル５１２,,13,104,1600021,,,,,,,2025-02-19,1,,,,,アールアールアール,0
661,3011801045659,新規,0,2025-02-19,2025-02-19,株式会社ｍｉｎｄ　ｃｏｎｎｅｃｔｓ,,株式会社,東京都,足立区,千住旭町３８－１東京千住アネックス４０４－２,,13,121,1200026,,,,,,,2025-02-19,1,,,,,マインドコネクツ,0
663,3012701018713,新規,0,2025-02-19,2025-02-19,株式会社ＡＲＸ,,株式会社,東京都,西東京市,東町３丁目９番１４号,,13,229,2020012,,,,,,,2025-02-19,1,,,,,アークス,0
664,3012801023753,新規,0,2025-02-19,2025-02-19,株式会社Ｗ　ＪＡＰＡＮ,,株式会社,東京都,立川市,上砂町５丁目１３－１５,,13,202,1900032,,,,,,,2025-02-19,1,,,,,ダブリュージャパン,0
665,3013301053803,新規,0,2025-02-19,2025-02-19,株式会社スカイ,,株式会社,東京都,豊島区,東池袋１丁目４３番１０－２１０号,,13,116,1700013,,,,,,,2025-02-19,1,,,,,スカイ,0
671,3020001161423,新規,0,2025-02-19,2025-02-19,株式会社育脳芸術協会,,株式会社,神奈川県,横浜市西区,北幸２丁目１０番４８号むつみビル３階,,14,103,2200004,,,,,,,2025-02-19,1,,,,,イクノウゲイジュツキョウカイ,0
672,3020001161480,新規,0,2025-02-19,2025-02-19,ＢＭＦＰ株式会社,,株式会社,神奈川県,横浜市金沢区,釜利谷西３丁目４５番１０号,,14,108,2360046,,,,,,,2025-02-19,1,,,,,ビーエムエフピー,0
673,3020001161497,新規,0,2025-02-19,2025-02-19,株式会社横濱建設,,株式会社,神奈川県,横浜市西区,みなとみらい２丁目２－１,,14,103,2200012,,,,,,,2025-02-19,1,,,,,ヨコハマケンセツ,0
674,3020003027878,新規,0,2025-02-19,2025-02-19,合同会社Ｋ‐ｆａｃｔｏｒｙ,,合同会社,神奈川県,横浜市栄区,笠間４丁目９番１－６０３号,,14,115,2470006,,,,,,,2025-02-19,1,,,,,ケイファクトリー,0
675,3020003027894,新規,0,2025-02-19,2025-02-19,合同会社ＯＫＵＴＡＧＯＮ,,合同会社,神奈川県,川崎市麻生区,万福寺３丁目９－１５,,14,137,2150004,,,,,,,2025-02-19,1,,,,,オクタゴン,0
677,3021001084507,新規,0,2025-02-19,2025-02-19,株式会社Ａｔｅｎ,,株式会社,神奈川県,鎌倉市,常盤２１５―１２,,14,204,2480022,,,,,,,2025-02-19,1,,,,,アテン,0
681,3030001164904,新規,0,2025-02-19,2025-02-19,株式会社ぽんぽこケア,,株式会社,埼玉県,草加市,弁天６丁目２番１５号,,11,221,3400004,,,,,,,2025-02-19,1,,,,,ポンポコケア,0
682,3030001164953,新規,0,2025-02-19,2025-02-19,株式会社あいたく,,株式会社,埼玉県,戸田市,下前１丁目１１番２０－２４０号,,11,224,3350016,,,,,,,2025-02-19,1,,,,,アイタク,0
684,3030003026160,新規,0,2025-02-19,2025-02-19,合同会社ホイスコーレの森,,合同会社,埼玉県,所沢市,大字本郷１１０５番地の１ゼファー所沢ペップスパーク７０３,,11,208,3590022,,,,,,,2025-02-19,1,,,,,ホイスコーレノモリ,0
685,3030003026169,新規,0,2025-02-19,2025-02-19,合同会社ぱやしっぽ,,合同会社,埼玉県,東松山市,大字石橋１３３７―１,,11,212,3550072,,,,,,,2025-02-19,1,,,,,パヤシッポ,0
691,3040001137438,新規,0,2025-02-19,2025-02-19,株式会社ブラックシップ,,株式会社,千葉県,船橋市,西船７丁目８番１７－４０７号,,12,204,2730031,,,,,,,2025-02-19,1,,,,,ブラックシップ,0
692,3040001137446,新規,0,2025-02-19,2025-02-19,株式会社ＰＭＰ不動産,,株式会社,千葉県,白井市,けやき台２丁目７番４棟３０３号,,12,232,2701433,,,,,,,2025-02-19,1,,,,,ピーエムピーフドウサン,0
693,3040001137462,新規,0,2025-02-19,2025-02-19,株式会社ウインスカイ・２１,,株式会社,千葉県,成田市,ウイング土屋２５４番地,,12,211,2860029,,,,,,,2025-02-19,1,,,,,,0
694,3040001137479,新規,0,2025-02-19,2025-02-19,株式会社ＦＡＴＴＡＨ,,株式会社,千葉県,四街道市,鹿放ケ丘２８５番地８,,12,228,2840008,,,,,,,2025-02-19,1,,,,,ファター,0
696,3040003026853,新規,0,2025-02-19,2025-02-19,合同会社アライズ,,合同会社,千葉県,佐倉市,石川６３５番地２,,12,212,2850813,,,,,,,2025-02-19,1,,,,,アライズ,0
697,3040003026894,新規,0,2025-02-19,2025-02-19,合同会社井野コイン,,合同会社,千葉県,佐倉市,西志津３丁目２７番１２号,,12,212,2850845,,,,,,,2025-02-19,1,,,,,イノコイン,0
698,3040003026911,新規,0,2025-02-19,2025-02-19,コスタウェル合同会社,,合同会社,千葉県,松戸市,六実４丁目１０番地の１横一ビル２階Ｄ号室,,12,207,2702204,,,,,,,2025-02-19,1,,,,,,0
706,3080101025324,新規,0,2025-02-19,2025-02-19,株式会社ＭＥＤＩＮＡ,,株式会社,静岡県,御殿場市,西田中２８２番地の１、２０５,,22,215,4120027,,,,,,,2025-02-19,1,,,,,メディナ,0
709,3090001019144,新規,0,2025-02-19,2025-02-19,株式会社グローズ,,株式会社,山梨県,笛吹市,春日居町小松５５８番地４,,19,211,4060004,,,,,,,2025-02-19,1,,,,,グローズ,0
717,3110005017190,新規,0,2025-02-19,2025-02-19,一般社団法人つなぐ,,その他の設立登記法人,新潟県,上越市,春日新田２丁目７番２５号,,15,222,9420061,,,,,,,2025-02-19,1,,,,,ツナグ,0
724,3120001273002,新規,0,2025-02-19,2025-02-19,株式会社海と大地,,株式会社,大阪府,大阪市中央区,南本町２丁目３番１２号ＥＤＧＥ本町３階,,27,128,5410054,,,,,,,2025-02-19,1,,,,,ウミトダイチ,0
725,3120001273027,新規,0,2025-02-19,2025-02-19,株式会社ヴェロザ,,株式会社,大阪府,門真市,小路町９－６,,27,223,5710058,,,,,,,2025-02-19,1,,,,,ヴェロザ,0
726,3120001273092,新規,0,2025-02-19,2025-02-19,株式会社カクハイ,,株式会社,大阪府,大阪市中央区,宗右衛門町４番６号平の家ビル４０１号,,27,128,5420084,,,,,,,2025-02-19,1,,,,,カクハイ,0
730,3120003028651,新規,0,2025-02-19,2025-02-19,ティアーベル合同会社,,合同会社,大阪府,大阪市浪速区,幸町２丁目２番４０号グラスホッパー２０１号,,27,111,5560021,,,,,,,2025-02-19,1,,,,,ティアーベル,0
731,3120003028676,新規,0,2025-02-19,2025-02-19,合同会社ｃｏｌｏｒｆｕｌ　ｓｍｉｌｅ,,合同会社,大阪府,大阪市福島区,海老江８丁目３番１３号,,27,103,5530001,,,,,,,2025-02-19,1,,,,,カラフルスマイル,0
735,3120101071082,新規,0,2025-02-19,2025-02-19,チル月株式会社,,株式会社,大阪府,泉佐野市,南泉ケ丘１丁目２番２０号,,27,213,5980073,,,,,,,2025-02-19,1,,,,,チルツキ,0
736,3120101071099,新規,0,2025-02-19,2025-02-19,株式会社Ａｖｅｎｉｒ,,株式会社,大阪府,堺市中区,土塔町６６番地１２,,27,142,5998234,,,,,,,2025-02-19,1,,,,,アヴニール,0
737,3120101071108,新規,0,2025-02-19,2025-02-19,株式会社ｔ．ａ．Ｃｒｅａｔｅ,,株式会社,大阪府,和泉市,いぶき野３丁目６－３－５０５,,27,219,5940041,,,,,,,2025-02-19,1,,,,,ティーエークリエイト,0
740,3120105009970,新規,0,2025-02-19,2025-02-19,一般財団法人加藤記念財団,,その他の設立登記法人,大阪府,堺市美原区,大饗２６７番地５,,27,147,5870063,,,,,,,2025-02-19,1,,,,,カトウキネンザイダン,0
743,3130001079002,新規,0,2025-02-19,2025-02-19,株式会社ｃｈａｒｍ,,株式会社,京都府,京都市右京区,梅津中村町３４番地２２,,26,108,6150916,,,,,,,2025-02-19,1,,,,,チャーム,0
744,3130001079010,新規,0,2025-02-19,2025-02-19,株式会社Ｏｎｅ　Ｒｏｐｅ,,株式会社,京都府,京都市南区,東九条上殿田町１番地エンブレム京紋７０５号,,26,107,6018002,,,,,,,2025-02-19,1,,,,,ワンロープ,0
745,3130001079035,新規,0,2025-02-19,2025-02-19,株式会社ＬＬＦ,,株式会社,京都府,京都市左京区,修学院北沮沢町１２番地４１,,26,103,6068032,,,,,,,2025-02-19,1,,,,,エルエルエフ,0
749,3140001137460,新規,0,2025-02-19,2025-02-19,株式会社Ｐ‐ＣＡＲＳ,,株式会社,兵庫県,神戸市東灘区,魚崎浜町２７－２１－３Ｆ,,28,101,6580024,,,,,,,2025-02-19,1,,,,,ピーカーズ,0
750,3140001137477,新規,0,2025-02-19,2025-02-19,株式会社イノーヴァ,,株式会社,兵庫県,神戸市西区,狩場台１丁目５０番地の２７,,28,111,6512272,,,,,,,2025-02-19,1,,,,,イノーヴァ,0
751,3140003021670,新規,0,2025-02-19,2025-02-19,合同会社経営者プレミアムワイン会,,合同会社,兵庫県,西宮市,甲陽園西山町１４番６０号,,28,204,6620017,,,,,,,2025-02-19,1,,,,,ケイエイシャプレミアムワインカイ,0
752,3140003021679,新規,0,2025-02-19,2025-02-19,合同会社Ｍａｒｉｎｅ　Ｆａｃｔｏｒｙ,,合同会社,兵庫県,尼崎市,南塚口町２丁目７番１－１１０９号,,28,202,6610012,,,,,,,2025-02-19,1,,,,,マリンファクトリー,0
754,3140005027377,新規,0,2025-02-19,2025-02-19,一般社団法人チャンスメーカーズ,,その他の設立登記法人,兵庫県,小野市,小田町３２０９番地,,28,218,6751301,,,,,,,2025-02-19,1,,,,,チャンスメーカーズ,0
758,3180001165466,新規,0,2025-02-19,2025-02-19,株式会社マネリテ,,株式会社,愛知県,名古屋市名東区,高針原１丁目３０３番地,,23,115,4650073,,,,,,,2025-02-19,1,,,,,マネリテ,0
759,3180001165482,新規,0,2025-02-19,2025-02-19,株式会社香月,,株式会社,愛知県,春日井市,瑞穂通４丁目５０番地,,23,206,4860845,,,,,,,2025-02-19,1,,,,,カツキ,0
760,3180001165499,新規,0,2025-02-19,2025-02-19,株式会社みらいせ,,株式会社,愛知県,瀬戸市,南山町１丁目１９７番地の９,,23,204,4890986,,,,,,,2025-02-19,1,,,,,ミライセ,0
761,3180001165516,新規,0,2025-02-19,2025-02-19,株式会社ＭａｓｈＧａｔｅ,,株式会社,愛知県,北名古屋市,弥勒寺東２丁目１１２番地ユーフォリアＩ１０１号,00138063,23,234,4810031,,,,,,,2025-02-19,1,,,,,マッシュゲート,0
762,3180001165524,新規,0,2025-02-19,2025-02-19,株式会社アルク不動産,,株式会社,愛知県,清須市,春日県３３番地２,,23,233,4520962,,,,,,,2025-02-19,1,,,,,アルクフドウサン,0
763,3180001165532,新規,0,2025-02-19,2025-02-19,株式会社ＬＭＢ,,株式会社,愛知県,名古屋市中区,錦２丁目９番６号,,23,106,4600003,,,,,,,2025-02-19,1,,,,,エルエムビー,0
764,3180001165540,新規,0,2025-02-19,2025-02-19,エスアールエム株式会社,,株式会社,愛知県,名古屋市西区,名駅２丁目４番１９号,,23,104,4510045,,,,,,,2025-02-19,1,,,,,エスアールエム,0
771,3180301039527,新規,0,2025-02-19,2025-02-19,株式会社ひなた不動産,,株式会社,愛知県,安城市,三河安城南町１丁目１５番地８サンテラス三河安城６階,,23,212,4460058,,,,,,,2025-02-19,1,,,,,ヒナタフドウサン,0
772,3180301039535,新規,0,2025-02-19,2025-02-19,株式会社ティーワーク,,株式会社,愛知県,岡崎市,六名本町２番地２２,,23,202,4440854,,,,,,,2025-02-19,1,,,,,ティーワーク,0
774,3190001032005,新規,0,2025-02-19,2025-02-19,株式会社アミューズフード,,株式会社,三重県,松阪市,大黒田町６３２番地,,24,204,5150063,,,,,,,2025-02-19,1,,,,,アミューズフード,0
778,3200001043446,新規,0,2025-02-19,2025-02-19,ＮＯＶＡ　ＪＡＰＡＮ株式会社,,株式会社,岐阜県,下呂市,小坂町小坂町１８番地８,,21,220,5093104,,,,,,,2025-02-19,1,,,,,ノヴァジャパン,0
784,3240003007073,新規,0,2025-02-19,2025-02-19,合同会社ぽこぽこ,,合同会社,広島県,呉市,三条４丁目３番５号,,34,202,7370821,,,,,,,2025-02-19,1,,,,,ポコポコ,0
802,3290001108975,新規,0,2025-02-19,2025-02-19,Ｎａｔｉｖｅ　Ｊａｐａｎ株式会社,,株式会社,福岡県,福岡市東区,青葉５丁目１３－５,,40,131,8130025,,,,,,,2025-02-19,1,,,,,ネイティブジャパン,0
803,3290001109016,新規,0,2025-02-19,2025-02-19,株式会社ＳＨ‐ＧＬＯＢＡＬ,,株式会社,福岡県,福岡市南区,井尻４丁目４５番３９号,,40,134,8111302,,,,,,,2025-02-19,1,,,,,エスエイチグローバル,0
804,3290001109040,新規,0,2025-02-19,2025-02-19,株式会社たまむし,,株式会社,福岡県,福岡市博多区,博多駅前１丁目２３－２ＰａｒｋＦｒｏｎｔ博多駅前１丁目５Ｆ,,40,132,8120011,,,,,,,2025-02-19,1,,,,,タマムシ,0
808,3290003016433,新規,0,2025-02-19,2025-02-19,合同会社ＥＮＫＳ　ＬＩＮＫ,,合同会社,福岡県,糟屋郡志免町,石橋台２－６・２Ｆ,,40,343,8112203,,,,,,,2025-02-19,1,,,,,エンクスリンク,0
815,3290805009808,新規,0,2025-02-19,2025-02-19,医療法人おくなが脳神経外科クリニック,,その他の設立登記法人,福岡県,行橋市,中央２丁目１０番１６号,,40,213,8240005,,,,,,,2025-02-19,1,,,,,オクナガノウシンケイゲカクリニック,0
835,3370001052265,新規,0,2025-02-19,2025-02-19,ＫＲＮ株式会社,,株式会社,宮城県,仙台市青葉区,本町１丁目１４番２４佐藤ビル３０２,,04,101,9800014,,,,,,,2025-02-19,1,,,,,ケーアールエヌ,0
836,3370005010913,新規,0,2025-02-19,2025-02-19,一般社団法人いきいきライフ協会杜の都,,その他の設立登記法人,宮城県,仙台市若林区,中倉１丁目１１番２号,,04,103,9840821,,,,,,,2025-02-19,1,,,,,イキイキライフキョウカイモリノミヤコ,0
841,3380003005963,新規,0,2025-02-19,2025-02-19,合同会社磐梯広房,,合同会社,福島県,会津若松市,飯盛３丁目３－３４,,07,202,9650007,,,,,,,2025-02-19,1,,,,,バンダイコウボウ,0
844,3430001093724,新規,0,2025-02-19,2025-02-19,株式会社Ｔ‐ＳＱＵＡＲＥ,,株式会社,北海道,札幌市清田区,北野四条４丁目１８番９号,,01,110,0040864,,,,,,,2025-02-19,1,,,,,ティースクエア,0
847,3450001014538,新規,0,2025-02-19,2025-02-19,ｆａｒｍｅｒｓ‐Ｋ株式会社,,株式会社,北海道,士別市,温根別町南五線１８７６番地１１,,01,220,0950181,,,,,,,2025-02-19,1,,,,,ファーマーズケイ,0
848,3462501001023,新規,0,2025-02-19,2025-02-19,株式会社ＨＥＲＯ’ｓ,,株式会社,北海道,標津郡中標津町,東十条北９丁目１番地２３,,01,692,0861050,,,,,,,2025-02-19,1,,,,,ヒーローズ,0
852,3470003002811,新規,0,2025-02-19,2025-02-19,合同会社Ｒｅｊｏｉｎ　Ｅｄｇｅ,,合同会社,香川県,三豊市,仁尾町仁尾甲１３４８－１,,37,208,7691408,,,,,,,2025-02-19,1,,,,,リジョインエッジ,0
858,3700150129227,新規,0,2025-02-19,2025-02-19,ＡＵＴＯ　ＤＡＲＴ　ＥＮＴＥＲＰＲＩＳＥＳ,,外国会社等,千葉県,山武市,成東２８８８番地７オフィス２,,12,237,2891326,スリランカ民主社会主義共和国、２１０００、マタレ、メインストリート、Ｎｏ．９６／３,,,,,,2025-02-19,1,,,,,オートダートエンタープライズ,0
862,4010001252239,新規,0,2025-02-19,2025-02-19,株式会社Ｍａｒｕｙａｍａ　Ｅｘｃｌｕｓｉｖｅ,,株式会社,東京都,中央区,日本橋兜町７番１号,,13,102,1030026,,,,,,,2025-02-19,1,,,,,マルヤマエクスクルーシブ,0
863,4010001252346,新規,0,2025-02-19,2025-02-19,３５８安田事務所株式会社,,株式会社,東京都,千代田区,九段南２丁目５番３号サクレ九段上３０１号,,13,101,1020074,,,,,,,2025-02-19,1,,,,,サンゴハチヤスダジムショ,0
864,4010001252387,新規,0,2025-02-19,2025-02-19,Ｆａｉｔｈ株式会社,,株式会社,東京都,中央区,日本橋人形町１丁目２番１２－１００１号,,13,102,1030013,,,,,,,2025-02-19,1,,,,,フェイス,0
865,4010003046424,新規,0,2025-02-19,2025-02-19,合同会社ＫＲＦ１１２,,合同会社,東京都,千代田区,内幸町２丁目１番６号,,13,101,1000011,,,,,,,2025-02-19,1,,,,,ケイアールエフヒャクジュウニ,0
866,4010003046457,新規,0,2025-02-19,2025-02-19,合同会社ＷＭＦ,,合同会社,東京都,中央区,日本橋室町１丁目１１－１２日本橋清水ビル７階,,13,102,1030022,,,,,,,2025-02-19,1,,,,,ワールドマネージメントフラクタル,0
867,4010003046481,新規,0,2025-02-19,2025-02-19,合同会社Ｂ．Ｏ．Ｙ,,合同会社,東京都,中央区,銀座１丁目１２番４号,,13,102,1040061,,,,,,,2025-02-19,1,,,,,ボイ,0
870,4010101016519,新規,0,2025-02-19,2025-02-19,株式会社株価最大化総合研究所,,株式会社,東京都,八王子市,館町５３７番地２５,,13,201,1930944,,,,,,,2025-02-19,1,,,,,カブカサイダイカソウゴウケンキュウジョ,0
873,4010401188322,新規,0,2025-02-19,2025-02-19,株式会社ミヤ,,株式会社,東京都,港区,港南２丁目７番１９号,,13,103,1080075,,,,,,,2025-02-19,1,,,,,ミヤ,0
874,4010401188339,新規,0,2025-02-19,2025-02-19,株式会社Ａｍｏｏｌｙａ,,株式会社,東京都,港区,南青山２丁目２番１５号ウィン青山９４２,,13,103,1070062,,,,,,,2025-02-19,1,,,,,アムーリャ,0
879,4010501053665,新規,0,2025-02-19,2025-02-19,遠見株式会社,,株式会社,東京都,台東区,松が谷２丁目１５番８号浅草Ｋ２ビル４０２号室,,13,106,1110036,,,,,,,2025-02-19,1,,,,,トオミ,0
882,4010603011389,新規,0,2025-02-19,2025-02-19,合同会社藤木商事,,合同会社,東京都,墨田区,堤通１丁目１７番１０号,,13,107,1310034,,,,,,,2025-02-19,1,,,,,フジキショウジ,0
884,4010701047244,新規,0,2025-02-19,2025-02-19,Ｂｕｚｚｈｉｌｌｓ株式会社,,株式会社,東京都,品川区,東五反田１丁目１９番４号,,13,109,1410022,,,,,,,2025-02-19,1,,,,,バズヒルズ,0
885,4010701047285,新規,0,2025-02-19,2025-02-19,ＴＡＫＡＭＡコーポレーション株式会社,,株式会社,東京都,品川区,北品川５丁目３番１－３００９号,,13,109,1410001,,,,,,,2025-02-19,1,,,,,タカマコーポレーション,0
907,4011001167773,新規,0,2025-02-19,2025-02-19,株式会社Ａ　ＳＴＵＤＩＯ,,株式会社,東京都,渋谷区,神南１丁目１１－４ＦＰＧリンクス神南５階,,13,113,1500041,,,,,,,2025-02-19,1,,,,,エーススタジオ,0
912,4011003021012,新規,0,2025-02-19,2025-02-19,合同会社Ｇｅｎｔｒｉｘ,,合同会社,東京都,目黒区,下目黒１丁目１番１４号コノトラビル７Ｆ,,13,110,1530064,,,,,,,2025-02-19,1,,,,,ジェントリックス,0
924,4011101110674,新規,0,2025-02-19,2025-02-19,株式会社縁家,,株式会社,東京都,新宿区,新宿１丁目３２－３－１３０３,,13,104,1600022,,,,,,,2025-02-19,1,,,,,エンヤ,0
925,4011103015533,新規,0,2025-02-19,2025-02-19,合同会社まぐはし堂,,合同会社,東京都,新宿区,市谷仲之町２番３２号仲之町ヒルズ３０２,,13,104,1620064,,,,,,,2025-02-19,1,,,,,マグハシドウ,0
927,4011201026127,新規,0,2025-02-19,2025-02-19,株式会社さくらホールディングス,,株式会社,東京都,中野区,上鷺宮１丁目２５番２５号,,13,114,1650031,,,,,,,2025-02-19,1,,,,,サクラホールディングス,0
928,4011401026827,新規,0,2025-02-19,2025-02-19,株式会社アンティークリカー,,株式会社,東京都,板橋区,南町２３番９号ロイヤルヒルズ３０５,,13,119,1730027,,,,,,,2025-02-19,1,,,,,アンティークリカー,0
929,4011403004624,新規,0,2025-02-19,2025-02-19,合同会社ララポコ,,合同会社,東京都,板橋区,南町３２番６号,,13,119,1730027,,,,,,,2025-02-19,1,,,,,ララポコ,0
933,4011701028077,新規,0,2025-02-19,2025-02-19,ＥＭＣエンジニアリング株式会社,,株式会社,東京都,江戸川区,西葛西６丁目１７番６号,,13,123,1340088,,,,,,,2025-02-19,1,,,,,イーエムシーエンジニアリング,0
936,4011801045658,新規,0,2025-02-19,2025-02-19,株式会社琥蘭,,株式会社,東京都,足立区,江北６丁目５番１５号,,13,121,1230872,,,,,,,2025-02-19,1,,,,,クラン,0
940,4012403006981,新規,0,2025-02-19,2025-02-19,合同会社トラストライン,,合同会社,東京都,府中市,小柳町４丁目１番地の５ヒュッテＴＡＭＡ２０１,,13,206,1830013,,,,,,,2025-02-19,1,,,,,トラストライン,0
943,4012703003200,新規,0,2025-02-19,2025-02-19,合同会社Ｃａｐｓｅｌｌａ,,合同会社,東京都,小平市,美園町１丁目３０番１号,,13,211,1870041,,,,,,,2025-02-19,1,,,,,カプセラ,0
949,4013301053802,新規,0,2025-02-19,2025-02-19,株式会社ＴＴ,,株式会社,東京都,豊島区,雑司が谷２丁目２１番８号,,13,116,1710032,,,,,,,2025-02-19,1,,,,,ティーティー,0
951,4020001161372,新規,0,2025-02-19,2025-02-19,一株式会社,,株式会社,神奈川県,横浜市中区,桜木町１丁目１番７号ヒューリックみなとみらい１０階,,14,104,2310062,,,,,,,2025-02-19,1,,,,,ハジメ,0
952,4020001161513,新規,0,2025-02-19,2025-02-19,トライアングル株式会社,,株式会社,神奈川県,川崎市多摩区,西生田３丁目２０番２７号,,14,135,2140037,,,,,,,2025-02-19,1,,,,,トライアングル,0
953,4020001161521,新規,0,2025-02-19,2025-02-19,株式会社小松造園,,株式会社,神奈川県,川崎市高津区,溝口３丁目７番５号,,14,134,2130001,,,,,,,2025-02-19,1,,,,,コマツゾウエン,0
954,4020001161554,新規,0,2025-02-19,2025-02-19,株式会社エムエーワークス,,株式会社,神奈川県,横浜市港北区,綱島西２丁目１２番１０号サンモール綱島２Ｆ,,14,109,2230053,,,,,,,2025-02-19,1,,,,,エムエーワークス,0
964,4021003015599,新規,0,2025-02-19,2025-02-19,合同会社Ｂｌｕｅ,,合同会社,神奈川県,逗子市,沼間４丁目３番１６号,,14,208,2490004,,,,,,,2025-02-19,1,,,,,ブルー,0
965,4021005013279,新規,0,2025-02-19,2025-02-19,一般社団法人日本ウエットスーツ工業会,,その他の設立登記法人,神奈川県,平塚市,四之宮２丁目４番３５号,,14,203,2540014,,,,,,,2025-02-19,1,,,,,ニホンウエットスーツコウギョウカイ,0
969,4030003026119,新規,0,2025-02-19,2025-02-19,アドセツビ合同会社,,合同会社,埼玉県,幸手市,中１丁目６－１７,,11,240,3400115,,,,,,,2025-02-19,1,,,,,アドセツビ,0
970,4030003026127,新規,0,2025-02-19,2025-02-19,野藝合同会社,,合同会社,埼玉県,川口市,芝中田１丁目２３－１４クリアハウス川口１０２号室,,11,203,3330847,,,,,,,2025-02-19,1,,,,,ノゲ,0
977,4040001137420,新規,0,2025-02-19,2025-02-19,株式会社ＬＡＵＲＥＮ　ＮＥＬＳＯＮ,,株式会社,千葉県,千葉市緑区,誉田町２丁目２１番地１４４９,,12,105,2660005,,,,,,,2025-02-19,1,,,,,ローレンネルソン,0
978,4040001137437,新規,0,2025-02-19,2025-02-19,株式会社ＴＳ美浜,,株式会社,千葉県,千葉市美浜区,真砂３丁目１７番４棟１１０６号,,12,106,2610011,,,,,,,2025-02-19,1,,,,,ティーエスミハマ,0
979,4040001137461,新規,0,2025-02-19,2025-02-19,株式会社ＤＨ２,,株式会社,千葉県,柏市,花野井７４９番地の２,,12,217,2770812,,,,,,,2025-02-19,1,,,,,ディーエイチツー,0
980,4040003026893,新規,0,2025-02-19,2025-02-19,合同会社大網コイン,,合同会社,千葉県,佐倉市,西志津３丁目２７番１２号,,12,212,2850845,,,,,,,2025-02-19,1,,,,,オオアミコイン,0
981,4040003026919,新規,0,2025-02-19,2025-02-19,印内定吉合同会社,,合同会社,千葉県,船橋市,印内２丁目３番２６号,,12,204,2730039,,,,,,,2025-02-19,1,,,,,インナイサダキチ,0
982,4050001056198,新規,0,2025-02-19,2025-02-19,株式会社デンソーパーツ井坂,,株式会社,茨城県,常陸太田市,真弓町字西江下１０４４番１,,08,212,3130022,,,,,,,2025-02-19,1,,,,,デンソーパーツイサカ,0
991,4080101025323,新規,0,2025-02-19,2025-02-19,キャピタルマネジメントＰＩＣＯ株式会社,,株式会社,静岡県,富士市,柳島１４９番１号,,22,210,4160932,,,,,,,2025-02-19,1,,,,,キャピタルマネジメントピコ,0
1001,4090001019143,新規,0,2025-02-19,2025-02-19,株式会社ＬａＭｅｎｔｅ,,株式会社,山梨県,甲府市,朝日２丁目１７番１２号,,19,201,4000025,,,,,,,2025-02-19,1,,,,,ラメンテ,0
1013,4120001272977,新規,0,2025-02-19,2025-02-19,ＳＧＬ株式会社,,株式会社,大阪府,大阪市中央区,船場中央３丁目１－７船場センタービル７号館,,27,128,5410055,,,,,,,2025-02-19,1,,,,,エスジーエル,0
1014,4120001273034,新規,0,2025-02-19,2025-02-19,株式会社フィーラック,,株式会社,大阪府,寝屋川市,平池町３３番１号,,27,215,5720839,,,,,,,2025-02-19,1,,,,,フィーラック,0
1015,4120001273109,新規,0,2025-02-19,2025-02-19,株式会社Ｎ・Ｈ,,株式会社,大阪府,寝屋川市,御幸東町１３番１０号,,27,215,5720055,,,,,,,2025-02-19,1,,,,,エヌエイチ,0
1020,4120003028650,新規,0,2025-02-19,2025-02-19,合同会社ＬＩＦＥ,,合同会社,大阪府,大阪市中央区,島之内１丁目２１－１９,,27,128,5420082,,,,,,,2025-02-19,1,,,,,ライフ,0
1028,4130001079001,新規,0,2025-02-19,2025-02-19,ＭＡＫＥ　ＮＥＷ株式会社,,株式会社,京都府,京都市下京区,石不動之町６９２番地２,,26,106,6008047,,,,,,,2025-02-19,1,,,,,メイクニュー,0
1033,4140001137451,新規,0,2025-02-19,2025-02-19,株式会社Ｍａｉｓｏｎ　Ａｐｐｌｅ,,株式会社,兵庫県,神戸市中央区,山本通５丁目３番１５－１２０４号,,28,110,6500003,,,,,,,2025-02-19,1,,,,,メゾンアップル,0
1034,4140001137468,新規,0,2025-02-19,2025-02-19,株式会社時恒,,株式会社,兵庫県,姫路市,飾磨区妻鹿３７３番地,,28,201,6728031,,,,,,,2025-02-19,1,,,,,トキツネ,0
1036,4160001026553,新規,0,2025-02-19,2025-02-19,株式会社ＥＬＥＢＶＥＮ,,株式会社,滋賀県,東近江市,綺田町４１８,,25,213,5291503,,,,,,,2025-02-19,1,,,,,イレブン,0
1044,4180001165457,新規,0,2025-02-19,2025-02-19,株式会社ＭＡＸ,,株式会社,愛知県,名古屋市中区,三の丸１丁目１４番７号本丸ビル３０９号室,,23,106,4600001,,,,,,,2025-02-19,1,,,,,マックス,0
1045,4180001165465,新規,0,2025-02-19,2025-02-19,株式会社名順,,株式会社,愛知県,名古屋市中村区,名駅５丁目２０－６ロータリーオフィス１ｓｔ１階,,23,105,4500002,,,,,,,2025-02-19,1,,,,,メイジュン,0
1046,4180001165473,新規,0,2025-02-19,2025-02-19,株式会社ことぶきロックサービス,,株式会社,愛知県,名古屋市中村区,中村町６丁目５８番地の２,,23,105,4530053,,,,,,,2025-02-19,1,,,,,コトブキロックサービス,0
1047,4180001165507,新規,0,2025-02-19,2025-02-19,株式会社エンプラン,,株式会社,愛知県,尾張旭市,印場元町２丁目３番地６,,23,226,4880840,,,,,,,2025-02-19,1,,,,,エンプラン,0
1048,4180001165515,新規,0,2025-02-19,2025-02-19,株式会社ＳＫＡＩＰ,,株式会社,愛知県,名古屋市瑞穂区,市丘町１丁目６３番地の１,,23,108,4670063,,,,,,,2025-02-19,1,,,,,スカイプ,0
1049,4180001165523,新規,0,2025-02-19,2025-02-19,株式会社Ｒｅａｌｅ,,株式会社,愛知県,名古屋市中村区,名駅３丁目２２番４号名駅前みどりビル,,23,105,4500002,,,,,,,2025-02-19,1,,,,,レアレ,0
1050,4180001165548,新規,0,2025-02-19,2025-02-19,株式会社ｔｈｅｏｎｅｓ,,株式会社,愛知県,名古屋市中区,栄４丁目１３－１８栄スパークビル３ｂ,,23,106,4600008,,,,,,,2025-02-19,1,,,,,ジワンズ,0
1051,4180003028018,新規,0,2025-02-19,2025-02-19,合同会社Ｓｅｅｋｖｉｂｅ,,合同会社,愛知県,名古屋市名東区,名東本通４丁目４４番地（ＣＩＴＹパル６０２号）,,23,115,4650087,,,,,,,2025-02-19,1,,,,,シークバイブ,0
1053,4180301039534,新規,0,2025-02-19,2025-02-19,株式会社Ｂｌｕｅ　Ｍｏｏｎ,,株式会社,愛知県,刈谷市,一ツ木町５丁目２８番地２,,23,210,4480003,,,,,,,2025-02-19,1,,,,,ブルームーン,0
1054,4180303006458,新規,0,2025-02-19,2025-02-19,合同会社ＮＹＵＢＥＥ,,合同会社,愛知県,豊川市,長沢町大覚８３９番地,,23,207,4410203,,,,,,,2025-02-19,1,,,,,ニュービー,0
1069,4260001039925,新規,0,2025-02-19,2025-02-19,株式会社ＴＭ　ＮＥＸＴ,,株式会社,岡山県,岡山市中区,江並１３５番地４９,,33,102,7028004,,,,,,,2025-02-19,1,,,,,ティエムネクスト,0
1071,4290001108982,新規,0,2025-02-19,2025-02-19,貝島炭礦株式会社,,株式会社,福岡県,福岡市中央区,天神２丁目８番３８号,,40,133,8100001,,,,,,,2025-02-19,1,,,,,カイジマタンコウ,0
1072,4290001108999,新規,0,2025-02-19,2025-02-19,株式会社ＯＮＥ　ＴＲＵＳＴ,,株式会社,福岡県,福岡市博多区,中洲４丁目７番８号ラ・パピヨンビル２ＦＡ号室,,40,132,8100801,,,,,,,2025-02-19,1,,,,,ワントラスト,0
1073,4290001109048,新規,0,2025-02-19,2025-02-19,Ｍｅｍｂｅｒ　ｓｈｏｐ株式会社,,株式会社,福岡県,福岡市東区,千早５丁目１５－１７－２０２,,40,131,8130044,,,,,,,2025-02-19,1,,,,,メンバーショップ,0
1076,4290003016408,新規,0,2025-02-19,2025-02-19,ｎｅｘｔクリエイティブ合同会社,,合同会社,福岡県,福岡市中央区,天神１丁目９番１７号福岡天神フコク生命ビル１５階,,40,133,8100001,,,,,,,2025-02-19,1,,,,,ネクストクリエイティブ,0
1077,4290003016432,新規,0,2025-02-19,2025-02-19,合同会社ＭｅｄｉＫｙｕ,,合同会社,福岡県,福岡市中央区,薬院４丁目１３番６２－１６０３号,,40,133,8100022,,,,,,,2025-02-19,1,,,,,メディキュー,0
1080,4290801031285,新規,0,2025-02-19,2025-02-19,株式会社エレコス,,株式会社,福岡県,北九州市小倉北区,宇佐町１丁目５番１２号１Ｆ,,40,106,8020016,,,,,,,2025-02-19,1,,,,,エレコス,0
1085,4320001020952,新規,0,2025-02-19,2025-02-19,株式会社ＹＷＣ,,株式会社,大分県,津久見市,門前町４番４号,,44,207,8792456,,,,,,,2025-02-19,1,,,,,ワイダブリューシー,0
1087,4320003004581,新規,0,2025-02-19,2025-02-19,合同会社おおいた源兵衛,,合同会社,大分県,大分市,田中町２丁目７番３号,,44,201,8700852,,,,,,,2025-02-19,1,,,,,オオイタゲンベエ,0
1089,4330001032897,新規,0,2025-02-19,2025-02-19,株式会社ｓａｒｉｉ,,株式会社,熊本県,天草郡苓北町,志岐３８２番地１,,43,531,8632503,,,,,,,2025-02-19,1,,,,,サリー,0
1090,4330003010802,新規,0,2025-02-19,2025-02-19,合同会社仲原外装,,合同会社,熊本県,上益城郡甲佐町,大字中横田２９０番地１,,43,444,8614623,,,,,,,2025-02-19,1,,,,,ナカハラガイソウ,0
1091,4330003010851,新規,0,2025-02-19,2025-02-19,服部合同会社,,合同会社,熊本県,熊本市中央区,黒髪１丁目９番３１号,,43,101,8600862,,,,,,,2025-02-19,1,,,,,ハットリ,0
1093,4340001027129,新規,0,2025-02-19,2025-02-19,株式会社早崎自動車,00138050,株式会社,鹿児島県,薩摩川内市,入来町浦之名７８９４番地２,,46,215,8951402,,,,,,,2025-02-19,1,,,,,ハヤサキジドウシャ,0
1094,4340003004753,新規,0,2025-02-19,2025-02-19,合同会社平電工,,合同会社,鹿児島県,鹿児島市,田上６丁目２２番１９号,,46,201,8900034,,,,,,,2025-02-19,1,,,,,タイラデンコウ,0
1095,4350001019406,新規,0,2025-02-19,2025-02-19,株式会社Ｒｅｓｔａ宮崎,,株式会社,宮崎県,宮崎市,潮見町７７番地５,,45,201,8800862,,,,,,,2025-02-19,1,,,,,リスタミヤザキ,0
1097,4360005007174,新規,0,2025-02-19,2025-02-19,一般社団法人沖縄樹木医会,,その他の設立登記法人,沖縄県,島尻郡南風原町,字大名９５番地１（沖縄県森林組合連合会内）,,47,350,9011101,,,,,,,2025-02-19,1,,,,,オキナワジュモクイカイ,0
1099,4370003006945,新規,0,2025-02-19,2025-02-19,経理Ｒｅｓｃｕｅ合同会社,,合同会社,宮城県,仙台市太白区,中田５丁目２―６０―１００５,,04,104,9811104,,,,,,,2025-02-19,1,,,,,ケイリレスキュー,0
1104,4380001035094,新規,0,2025-02-19,2025-02-19,株式会社ＸＦＯＲＴ,,株式会社,福島県,郡山市,芳賀３丁目６番３７号,,07,203,9638813,,,,,,,2025-02-19,1,,,,,エクスフォート,0
1109,4430001093731,新規,0,2025-02-19,2025-02-19,オーバードライブ株式会社,,株式会社,北海道,札幌市東区,北二十一条東２３丁目１番２５号,,01,103,0650021,,,,,,,2025-02-19,1,,,,,オーバードライブ,0
1113,4460005001588,新規,0,2025-02-19,2025-02-19,一般社団法人ｓｅｔｔｅｎ,,その他の設立登記法人,北海道,川上郡弟子屈町,鈴蘭５丁目３番９号,,01,665,0883202,,,,,,,2025-02-19,1,,,,,セッテン,0
1114,4460101007670,新規,0,2025-02-19,2025-02-19,帯広かわにし協同運輸株式会社,,株式会社,北海道,帯広市,川西町西２線６１番地１１,,01,207,0891182,,,,,,,2025-02-19,1,,,,,オビヒロカワニシキョウドウウンユ,0
1117,4490003001983,新規,0,2025-02-19,2025-02-19,合同会社楓,,合同会社,高知県,南国市,蛍が丘１丁目１番地１南国オフィスパークセンター３０８－０６,,39,204,7830060,,,,,,,2025-02-19,1,,,,,カエデ,0
1118,4500001026147,新規,0,2025-02-19,2025-02-19,株式会社Ｌｅ　Ｌｉｅｎ,,株式会社,愛媛県,松山市,土居田町４９５番地１,,38,201,7900056,,,,,,,2025-02-19,1,,,,,ルリアン,0
1119,4500003003441,新規,0,2025-02-19,2025-02-19,合同会社こちや,,合同会社,愛媛県,松山市,西長戸町乙９７６番地１３,,38,201,7918017,,,,,,,2025-02-19,1,,,,,コチヤ,0
1121,4700150129226,新規,0,2025-02-19,2025-02-19,ＧＬＯＢＥ　ＡＳＩＡ　ＰＲＩＶＡＴＥ　ＬＩＭＩＴＥＤ,,外国会社等,千葉県,東金市,上武射田９１８番地１,,12,213,2830011,スリランカ民主社会主義共和国、キャンディ、アクラナ、ブルゴホテンナ、Ｎｏ．４７／２,,,,,,2025-02-19,1,,,,,グローブアジアプライベートリミテツド,0
1125,5010001252295,新規,0,2025-02-19,2025-02-19,マジメワークス株式会社,,株式会社,東京都,中央区,日本橋室町１丁目１１番１２号日本橋水野ビル７階,,13,102,1030022,,,,,,,2025-02-19,1,,,,,マジメワークス,0
1126,5010001252469,新規,0,2025-02-19,2025-02-19,株式会社オフィスムジカ,,株式会社,東京都,中央区,銀座７丁目１３番６号サガミビル２階,,13,102,1040061,,,,,,,2025-02-19,1,,,,,オフィスムジカ,0
1128,5010003046456,新規,0,2025-02-19,2025-02-19,デジタル・グループ合同会社,,合同会社,東京都,千代田区,丸の内２丁目１番１号明治生命館７階ディーエルエイ・パイパー東京パートナーシップ外国法共同事業法律事務所内,,13,101,1000005,,,,,,,2025-02-19,1,,,,,デジタルグループ,0
1129,5010003046464,新規,0,2025-02-19,2025-02-19,合同会社ＶＩＣＴＯＲＹ　ＳＵＣＣＥＳＳ,,合同会社,東京都,千代田区,内神田３丁目１９番７号神田北口駅前ビル３階,,13,101,1010047,,,,,,,2025-02-19,1,,,,,ビクトリーサクセス,0
1131,5010005039615,新規,0,2025-02-19,2025-02-19,一般社団法人ＳＣ００５,,その他の設立登記法人,東京都,千代田区,平河町１丁目６番１５号シルスフィア会計事務所内,,13,101,1020093,,,,,,,2025-02-19,1,,,,,エスシーゼロゼロゴ,0
1142,5010401188354,新規,0,2025-02-19,2025-02-19,グルース株式会社,,株式会社,東京都,港区,芝４丁目１番２３号,,13,103,1080014,,,,,,,2025-02-19,1,,,,,グルース,0
1145,5010405024068,新規,0,2025-02-19,2025-02-19,特定非営利活動法人ＢＲＯＣＣＯＬＩ,,その他の設立登記法人,東京都,港区,東新橋２丁目３番１７－１７０３号,,13,103,1050021,,,,,,,2025-02-19,1,,,,,ブロッコリ,0
1150,5010601066797,新規,0,2025-02-19,2025-02-19,株式会社Ｌｉｇｈｔｓ　Ｕｐ,,株式会社,東京都,墨田区,京島１丁目８番８号,,13,107,1310046,,,,,,,2025-02-19,1,,,,,ライツアップ,0
1152,5010801035858,新規,0,2025-02-19,2025-02-19,株式会社ゴルフストレージ,,株式会社,東京都,大田区,羽田１丁目１３番１,,13,111,1440043,,,,,,,2025-02-19,1,,,,,ゴルフストレージ,0
1155,5010901056837,新規,0,2025-02-19,2025-02-19,株式会社栄香,,株式会社,東京都,世田谷区,赤堤３丁目２１番１７号,,13,112,1560044,,,,,,,2025-02-19,1,,,,,エイコウ,0
1162,5011001167764,新規,0,2025-02-19,2025-02-19,株式会社Ｂｌｏｏｍ,,株式会社,東京都,渋谷区,恵比寿西２丁目８番４号ＥＸ恵比寿西ビル５階,,13,113,1500021,,,,,,,2025-02-19,1,,,,,ブルーム,0
1167,5011101110707,新規,0,2025-02-19,2025-02-19,株式会社Ｒ．Ｐスタジオ,,株式会社,東京都,新宿区,西新宿４丁目８番２７号,,13,104,1600023,,,,,,,2025-02-19,1,,,,,アールピースタジオ,0
1169,5011103015549,新規,0,2025-02-19,2025-02-19,合同会社ＴＨＥ　ＥＹＥＢＲＯＷ東日本,,合同会社,東京都,新宿区,西新宿７丁目１０番１０号西村ビル７Ｆ,,13,104,1600023,,,,,,,2025-02-19,1,,,,,ザアイブロウヒガシニホン,0
1170,5011201026118,新規,0,2025-02-19,2025-02-19,株式会社Ｇｅｎｔｌｅ　Ｎｅｓｔ,,株式会社,東京都,中野区,新井１丁目４番４号パサージュ３０６,,13,114,1650026,,,,,,,2025-02-19,1,,,,,ジェントルネスト,0
1177,5011301030366,新規,0,2025-02-19,2025-02-19,株式会社ＡＳＬ,,株式会社,東京都,杉並区,成田西３丁目１２番２７号,,13,115,1660016,,,,,,,2025-02-19,1,,,,,エーエスエル,0
1178,5011303005424,新規,0,2025-02-19,2025-02-19,合同会社ＭｍＫ,,合同会社,東京都,杉並区,清水２丁目１７番３－２０５号,,13,115,1670033,,,,,,,2025-02-19,1,,,,,エムエムケー,0
1179,5011405002377,新規,0,2025-02-19,2025-02-19,一般社団法人Ｄｏｌａｋｈａ　Ｓａｍａｊ　Ｊａｐａｎ,,その他の設立登記法人,東京都,板橋区,西台１丁目４６番５号,,13,119,1740045,,,,,,,2025-02-19,1,,,,,ドラカサマズジャパン,0
1184,5011701028076,新規,0,2025-02-19,2025-02-19,株式会社ＳＡＳＡＭＯ,,株式会社,東京都,江戸川区,一之江８丁目１３番９－８０５号,,13,123,1320024,,,,,,,2025-02-19,1,,,,,ササモ,0
1187,5011801045665,新規,0,2025-02-19,2025-02-19,株式会社ＴＳ工業,,株式会社,東京都,葛飾区,東新小岩８丁目２９番７号,,13,122,1240023,,,,,,,2025-02-19,1,,,,,ティエスコウギョウ,0
1191,5012303002114,新規,0,2025-02-19,2025-02-19,合同会社ＫＵＲＥ４,,合同会社,東京都,町田市,原町田２丁目１４番１３号シャトレー町田ガーデン４１５,,13,209,1940013,,,,,,,2025-02-19,1,,,,,クレヨン,0
1193,5012701018711,新規,0,2025-02-19,2025-02-19,ＳＴＥＰ　ＪＡＰＡＮ株式会社,,株式会社,東京都,小平市,学園西町２丁目１１番２１号,,13,211,1870045,,,,,,,2025-02-19,1,,,,,ステップジャパン,0
1194,5012803003636,新規,0,2025-02-19,2025-02-19,宮崎楽器合同会社,,合同会社,東京都,国立市,東１丁目１４番１５号２Ｆ,,13,215,1860002,,,,,,,2025-02-19,1,,,,,ミヤザキガッキ,0
1197,5013301053792,新規,0,2025-02-19,2025-02-19,株式会社小山工務店,,株式会社,東京都,豊島区,長崎４丁目１３－２チャックス３０３,,13,116,1710051,,,,,,,2025-02-19,1,,,,,コヤマコウムテン,0
1209,5020001161363,新規,0,2025-02-19,2025-02-19,株式会社Ｍ＆Ｐプランニング,,株式会社,神奈川県,横浜市港北区,箕輪町１丁目２４番１１号梅ヶ枝ビル,,14,109,2230051,,,,,,,2025-02-19,1,,,,,エムアンドピープランニング,0
1210,5020001161512,新規,0,2025-02-19,2025-02-19,株式会社輝,,株式会社,神奈川県,横浜市瀬谷区,阿久和南４丁目５番地１ライオンズマンション第２・６０４,,14,114,2460026,,,,,,,2025-02-19,1,,,,,ヒカリ,0
1211,5020001161529,新規,0,2025-02-19,2025-02-19,株式会社ハイブリッヂ,,株式会社,神奈川県,川崎市中原区,下小田中３丁目３番２３－１０４号,,14,133,2110041,,,,,,,2025-02-19,1,,,,,ハイブリッヂ,0
1216,5020003027835,新規,0,2025-02-19,2025-02-19,合同会社ＯｆｆｉｃｅＭａｙｙ,,合同会社,神奈川県,横浜市鶴見区,馬場２丁目２４番１７－２号,,14,101,2300076,,,,,,,2025-02-19,1,,,,,オフィスメイ,0
1217,5020003027884,新規,0,2025-02-19,2025-02-19,ｙ’ｓエンジニア合同会社,,合同会社,神奈川県,川崎市麻生区,王禅寺西６丁目１０番２５号クレスト柿生１０２,,14,137,2150017,,,,,,,2025-02-19,1,,,,,ワイズエンジニア,0
1218,5020003027892,新規,0,2025-02-19,2025-02-19,シンライ合同会社,,合同会社,神奈川県,横浜市中区,初音町２丁目４２番地和昌レジデンス２０２,,14,104,2310053,,,,,,,2025-02-19,1,,,,,シンライ,0
1222,5030001164919,新規,0,2025-02-19,2025-02-19,株式会社ＧＡ　Ｒｏｂｏｔｉｃｓ,,株式会社,埼玉県,川口市,緑町８番２４号,,11,203,3320027,,,,,,,2025-02-19,1,,,,,ジーエーロボティクス,0
1223,5030001164951,新規,0,2025-02-19,2025-02-19,株式会社ＶＯＬＴＥＸ,,株式会社,埼玉県,上尾市,大字上１２５０番地１,,11,219,3620001,,,,,,,2025-02-19,1,,,,,ボルテックス,0
1227,5030003026019,新規,0,2025-02-19,2025-02-19,合同会社ザッツターザン,,合同会社,埼玉県,さいたま市見沼区,大字小深作６６２番地３,,11,104,3370005,,,,,,,2025-02-19,1,,,,,ザッツターザン,0
1231,5040001137436,新規,0,2025-02-19,2025-02-19,株式会社ＲＯＣＫＴＡＩＬ,,株式会社,千葉県,市川市,田尻４丁目１０番２０号,,12,203,2720014,,,,,,,2025-02-19,1,,,,,ロックテール,0
1232,5040001137444,新規,0,2025-02-19,2025-02-19,株式会社エンズアーク企画,,株式会社,千葉県,習志野市,藤崎４丁目２番１６号,,12,216,2750017,,,,,,,2025-02-19,1,,,,,エンズアークキカク,0
1233,5040001137452,新規,0,2025-02-19,2025-02-19,株式会社ウッドストリート,,株式会社,千葉県,柏市,中新宿３丁目１６番３８－２号,,12,217,2770066,,,,,,,2025-02-19,1,,,,,ウッドストリート,0
1238,5040003026892,新規,0,2025-02-19,2025-02-19,合同会社都町コイン,,合同会社,千葉県,佐倉市,西志津３丁目２７番１２号,,12,212,2850845,,,,,,,2025-02-19,1,,,,,ミヤコチョウコイン,0
1239,5040003026901,新規,0,2025-02-19,2025-02-19,ＩＮＣ合同会社,,合同会社,千葉県,館山市,佐野３６１番地の１８７,,12,205,2940225,,,,,,,2025-02-19,1,,,,,アイエヌシー,0
1240,5040003026918,新規,0,2025-02-19,2025-02-19,合同会社大強,,合同会社,千葉県,船橋市,西船４丁目１９番８号朝日ビル１Ｆ,,12,204,2730031,,,,,,,2025-02-19,1,,,,,ダイキョウ,0
1245,5050003008915,新規,0,2025-02-19,2025-02-19,合同会社Ｈｉｃｋ,,合同会社,茨城県,久慈郡大子町,大字浅川４３３,,08,364,3193541,,,,,,,2025-02-19,1,,,,,ヒック,0
1249,5070001042633,新規,0,2025-02-19,2025-02-19,惠氏株式会社,,株式会社,群馬県,利根郡みなかみ町,湯原９５３番地１,,10,449,3791617,,,,,,,2025-02-19,1,,,,,エス,0
1251,5070005010355,新規,0,2025-02-19,2025-02-19,一般社団法人健康寿命推進協会,,その他の設立登記法人,群馬県,館林市,足次町３２９－１,,10,207,3740073,,,,,,,2025-02-19,1,,,,,ケンコウジュミョウスイシンキョウカイ,0
1256,5100001038306,新規,0,2025-02-19,2025-02-19,株式会社ケイシロウ,,株式会社,長野県,北佐久郡軽井沢町,大字長倉３０１８番地３,,20,321,3890111,,,,,,,2025-02-19,1,,,,,ケイシロウ,0
1260,5110001039055,新規,0,2025-02-19,2025-02-19,株式会社マツザワ,,株式会社,新潟県,新潟市江南区,茅野山２丁目６番３５号,,15,104,9500144,,,,,,,2025-02-19,1,,,,,マツザワ,0
1266,5120001272943,新規,0,2025-02-19,2025-02-19,株式会社仁達,,株式会社,大阪府,大阪市西成区,南津守７丁目１番１６－１０６室,,27,122,5570063,,,,,,,2025-02-19,1,,,,,ジンタツ,0
1267,5120001272976,新規,0,2025-02-19,2025-02-19,ＵＫＮ株式会社,,株式会社,大阪府,大阪市中央区,船場中央３丁目１－７船場センタービル７号館,,27,128,5410055,,,,,,,2025-02-19,1,,,,,ユーケイエヌ,0
1268,5120001273000,新規,0,2025-02-19,2025-02-19,ディーコン株式会社,,株式会社,大阪府,大阪市福島区,福島７丁目１番１０号ＷｉＺｆｕｋｕｓｈｉｍａ２階,,27,103,5530003,,,,,,,2025-02-19,1,,,,,ディーコン,0
1269,5120001273017,新規,0,2025-02-19,2025-02-19,株式会社ｓｔｙｌｅ,,株式会社,大阪府,寝屋川市,石津東町２９番５－２階Ｃ号,,27,215,5720027,,,,,,,2025-02-19,1,,,,,スタイル,0
1270,5120001273025,新規,0,2025-02-19,2025-02-19,株式会社ＳＵＧＯ　ＤＥＳＩＧＮ,,株式会社,大阪府,大阪市北区,芝田２丁目２番１３号,,27,127,5300012,,,,,,,2025-02-19,1,,,,,スーゴデザイン,0
1271,5120001273041,新規,0,2025-02-19,2025-02-19,株式会社ＴＭ,,株式会社,大阪府,大阪市中央区,南船場３丁目２番２２号おおきに南船場ビル２０５,,27,128,5420081,,,,,,,2025-02-19,1,,,,,ティーエム,0
1272,5120001273058,新規,0,2025-02-19,2025-02-19,瑞思株式会社,,株式会社,大阪府,大阪市天王寺区,伶人町２－３１ＳｔａｒＯｆｆｉｃｅ大阪天王寺北７０９号室,,27,109,5430061,,,,,,,2025-02-19,1,,,,,ズイシ,0
1274,5120003028666,新規,0,2025-02-19,2025-02-19,ｒｅｌａｔｉｏｎ５５．合同会社,,合同会社,大阪府,大阪市福島区,福島２丁目１０番１９－４１８号,,27,103,5530003,,,,,,,2025-02-19,1,,,,,リレーションゴーゴー,0
1275,5120003028674,新規,0,2025-02-19,2025-02-19,合同会社Ｙ,,合同会社,大阪府,大阪市中央区,東心斎橋１丁目１９番１８号シンサイドビル３０２号,,27,128,5420083,,,,,,,2025-02-19,1,,,,,ワイ,0
1276,5120003028682,新規,0,2025-02-19,2025-02-19,合同会社エグゼディアイージー,,合同会社,大阪府,大阪市中央区,内本町１丁目１番５－４０７号,,27,128,5400026,,,,,,,2025-02-19,1,,,,,エグゼディアイージー,0
1277,5120003028690,新規,0,2025-02-19,2025-02-19,合同会社Ａｒｔｆｉｌｌ,,合同会社,大阪府,大阪市北区,梅田１丁目１－３大阪駅前第３ビル２９階１－１－１号室,,27,127,5300001,,,,,,,2025-02-19,1,,,,,アートフィル,0
1278,5120101071080,新規,0,2025-02-19,2025-02-19,シーライド株式会社,,株式会社,大阪府,泉北郡忠岡町,高月北１丁目５番１０－１２号,,27,341,5950801,,,,,,,2025-02-19,1,,,,,シーライド,0
1279,5120101071089,新規,0,2025-02-19,2025-02-19,株式会社メディカクラフト,,株式会社,大阪府,泉佐野市,日根野４０７７番地の３,,27,213,5980021,,,,,,,2025-02-19,1,,,,,メディカクラフト,0
1281,5120903005558,新規,0,2025-02-19,2025-02-19,箕面デニッシュ合同会社,,合同会社,大阪府,箕面市,桜４丁目１３番１１号,,27,220,5620041,,,,,,,2025-02-19,1,,,,,ミノオデニッシュ,0
1285,5130001078992,新規,0,2025-02-19,2025-02-19,株式会社Ａｌｌｅｒｇｏ,,株式会社,京都府,京都市北区,小山下総町５３番地９コルネリオビル１Ｆ,,26,101,6038151,,,,,,,2025-02-19,1,,,,,アレゴ,0
1291,5140001137459,新規,0,2025-02-19,2025-02-19,株式会社ａｔｏｗａ,,株式会社,兵庫県,神戸市中央区,八雲通３丁目３番１５号１Ｆ,,28,110,6510078,,,,,,,2025-02-19,1,,,,,アトワ,0
1294,5140003021677,新規,0,2025-02-19,2025-02-19,合同会社ｓｉａ,,合同会社,兵庫県,姫路市,阿保甲８６２番地６,,28,201,6700944,,,,,,,2025-02-19,1,,,,,シア,0
1295,5140003021685,新規,0,2025-02-19,2025-02-19,かや合同会社,,合同会社,兵庫県,西宮市,羽衣町４番１６号静マンション１階,,28,204,6620051,,,,,,,2025-02-19,1,,,,,カヤ,0
1301,5180001165456,新規,0,2025-02-19,2025-02-19,イディオムスミス株式会社,,株式会社,愛知県,名古屋市瑞穂区,初日町１丁目３５番地,,23,108,4670028,,,,,,,2025-02-19,1,,,,,イディオムスミス,0
1302,5180001165464,新規,0,2025-02-19,2025-02-19,ＲＴＴ株式会社,,株式会社,愛知県,名古屋市北区,清水３丁目１８番２６号,,23,103,4620844,,,,,,,2025-02-19,1,,,,,アールティーティー,0
1303,5180001165472,新規,0,2025-02-19,2025-02-19,弥栄ホールディングス株式会社,,株式会社,愛知県,清須市,西枇杷島町古城１丁目２０番地１５,,23,233,4520001,,,,,,,2025-02-19,1,,,,,ヤエイホールディングス,0
1304,5180001165489,新規,0,2025-02-19,2025-02-19,株式会社ナナイロカンパニー,,株式会社,愛知県,名古屋市中区,丸の内２丁目１８番５号サン・マルノウチビル５０１号,,23,106,4600002,,,,,,,2025-02-19,1,,,,,ナナイロカンパニー,0
1305,5180001165514,新規,0,2025-02-19,2025-02-19,株式会社エヴァンス,,株式会社,愛知県,愛西市,元赤目町川並３０９番地１,,23,232,4968045,,,,,,,2025-02-19,1,,,,,エヴァンス,0
1306,5180001165530,新規,0,2025-02-19,2025-02-19,株式会社Ｄｉｖｅｒｚ,,株式会社,愛知県,名古屋市中区,千代田２丁目１９－２０トーカンマンション鶴舞３０７,,23,106,4600012,,,,,,,2025-02-19,1,,,,,ダイバーズ,0
1307,5180001165539,新規,0,2025-02-19,2025-02-19,株式会社ＳＯＰＨＩＡ,,株式会社,愛知県,名古屋市中村区,烏森町６丁目１１８番地１,,23,105,4530855,,,,,,,2025-02-19,1,,,,,ソフィア,0
1308,5180001165547,新規,0,2025-02-19,2025-02-19,株式会社ＦｕｎｇｒｙＢａｓｅ,,株式会社,愛知県,名古屋市守山区,大屋敷９番１５号,,23,113,4630016,,,,,,,2025-02-19,1,,,,,ファングリーベース,0
1310,5180301039525,新規,0,2025-02-19,2025-02-19,株式会社眞喜商事,,株式会社,愛知県,西尾市,一色町一色前新田１５２番地１,,23,213,4440423,,,,,,,2025-02-19,1,,,,,シンキショウジ,0
1311,5180301039533,新規,0,2025-02-19,2025-02-19,海川・ＨＣＲＦ株式会社,,株式会社,愛知県,田原市,大久保町仲原２０７番地４６,,23,231,4413426,,,,,,,2025-02-19,1,,,,,ウミカワエイチシーアールエフ,0
1320,5210001020062,新規,0,2025-02-19,2025-02-19,株式会社とととと,,株式会社,福井県,敦賀市,色浜３１号２番地,,18,202,9140844,,,,,,,2025-02-19,1,,,,,トトトト,0
1328,5240005015898,新規,0,2025-02-19,2025-02-19,医療法人壽宝羅会,,その他の設立登記法人,広島県,広島市佐伯区,千同２丁目１番３５号,,34,108,7315141,,,,,,,2025-02-19,1,,,,,ズボラカイ,0
1331,5260003005065,新規,0,2025-02-19,2025-02-19,合同会社マルス,,合同会社,岡山県,岡山市東区,西大寺射越３３９番地１フェコラ１０１号,,33,103,7048121,,,,,,,2025-02-19,1,,,,,マルス,0
1339,5290001108973,新規,0,2025-02-19,2025-02-19,株式会社ＭＩＲＥＯ,,株式会社,福岡県,福岡市中央区,荒戸１丁目３番２０号３Ａ,,40,133,8100062,,,,,,,2025-02-19,1,,,,,ミレオ,0
1340,5290001109006,新規,0,2025-02-19,2025-02-19,遠方株式会社,,株式会社,福岡県,福岡市西区,姪の浜４丁目１７番４号ローラン姪浜ＩＩ１０４,00138049,40,135,8190002,,,,,,,2025-02-19,1,,,,,エンポウ,0
1341,5290001109014,新規,0,2025-02-19,2025-02-19,株式会社かんざき,,株式会社,福岡県,福岡市中央区,平和３丁目１８番１４－１０１号Ｄ－ｒｏｏｍ平和,,40,133,8100016,,,,,,,2025-02-19,1,,,,,カンザキ,0
1342,5290001109063,新規,0,2025-02-19,2025-02-19,株式会社タクト不動産,,株式会社,福岡県,福岡市南区,高宮５丁目３番９号６０１号室,,40,134,8150083,,,,,,,2025-02-19,1,,,,,タクトフドウサン,0
1344,5290003016415,新規,0,2025-02-19,2025-02-19,西日本蓄電池事業合同会社,,合同会社,福岡県,福岡市博多区,博多駅南２丁目１番９号,,40,132,8120016,,,,,,,2025-02-19,1,,,,,ニシニホンチクデンチジギョウ,0
1345,5290003016423,新規,0,2025-02-19,2025-02-19,合同会社Ａｓｓｅｍｂｌｅ,,合同会社,福岡県,福岡市博多区,博多駅前１丁目２３番２号ＰａｒｋＦｒｏｎｔ博多駅前一丁目５－Ｂ,,40,132,8120011,,,,,,,2025-02-19,1,,,,,アッセンブル,0
1346,5290003016431,新規,0,2025-02-19,2025-02-19,リリースタイル合同会社,,合同会社,福岡県,福岡市西区,愛宕４丁目２番４５－８１０号,,40,135,8190015,,,,,,,2025-02-19,1,,,,,リリースタイル,0
1351,5320001020943,新規,0,2025-02-19,2025-02-19,株式会社ヒタカ,,株式会社,大分県,別府市,駅前町１３番１号,,44,202,8740935,,,,,,,2025-02-19,1,,,,,ヒタカ,0
1353,5320003004580,新規,0,2025-02-19,2025-02-19,合同会社ぺんた,,合同会社,大分県,大分市,仲西町１丁目６番１２号,,44,201,8700135,,,,,,,2025-02-19,1,,,,,ペンタ,0
1356,5330001032896,新規,0,2025-02-19,2025-02-19,株式会社フォーライク,,株式会社,熊本県,熊本市中央区,下通１丁目１２－２７下通ビル５Ｆ,,43,101,8600807,,,,,,,2025-02-19,1,,,,,フォーライク,0
1357,5330003010850,新規,0,2025-02-19,2025-02-19,合同会社ＤＯＴＳ,,合同会社,熊本県,熊本市南区,良町１丁目６番２８号,,43,104,8620969,,,,,,,2025-02-19,1,,,,,ドッツ,0
1359,5340003004752,新規,0,2025-02-19,2025-02-19,合同会社ＫＥＮ,,合同会社,鹿児島県,南さつま市,加世田益山５４９２番地,,46,220,8971125,,,,,,,2025-02-19,1,,,,,ケン,0
1361,5370001052271,新規,0,2025-02-19,2025-02-19,上杉不動産株式会社,,株式会社,宮城県,仙台市青葉区,上杉４丁目４番２０－２０５号,,04,101,9800011,,,,,,,2025-02-19,1,,,,,カミスギフドウサン,0
1364,5400001016941,新規,0,2025-02-19,2025-02-19,株式会社ＮＡソリューションズ,,株式会社,岩手県,奥州市,水沢太日通り１丁目８番３５号,,03,215,0230827,,,,,,,2025-02-19,1,,,,,エヌエイソリューションズ,0
1368,5420001019026,新規,0,2025-02-19,2025-02-19,株式会社ワンストップ,,株式会社,青森県,青森市,青葉３丁目１－４,,02,201,0300846,,,,,,,2025-02-19,1,,,,,,0
1369,5430001093722,新規,0,2025-02-19,2025-02-19,アークロード株式会社,,株式会社,北海道,札幌市清田区,平岡五条６丁目２番１２号,,01,110,0040875,,,,,,,2025-02-19,1,,,,,アークロード,0
1372,5450003002605,新規,0,2025-02-19,2025-02-19,Ｒ＆Ｓ合同会社,,合同会社,北海道,旭川市,末広東三条７丁目１番１３号,,01,204,0718123,,,,,,,2025-02-19,1,,,,,アールアンドエス,0
1378,5500001026146,新規,0,2025-02-19,2025-02-19,株式会社ＧＵＲＡＮＤ．ｓ,,株式会社,愛媛県,伊予郡松前町,大字筒井９２１番地１,,38,401,7913120,,,,,,,2025-02-19,1,,,,,グランド,0
1386,6010001252336,新規,0,2025-02-19,2025-02-19,ワンデジファクタリング株式会社,,株式会社,東京都,千代田区,麹町４丁目５番地２０号ＫＳビルディング,,13,101,1020083,,,,,,,2025-02-19,1,,,,,ワンデジファクタリング,0
1387,6010001252410,新規,0,2025-02-19,2025-02-19,ＹＲホールディングス株式会社,,株式会社,東京都,中央区,新川２丁目１５番７－１２０２号,,13,102,1040033,,,,,,,2025-02-19,1,,,,,ワイアールホールディングス,0
1388,6010001252427,新規,0,2025-02-19,2025-02-19,ＳｃｒｅｅｎＷｒｉｅｒｓ．Ｊａｐａｎ株式会社,,株式会社,東京都,千代田区,神田小川町３丁目２８－１３ラフィネお茶の水１１０７,,13,101,1010052,,,,,,,2025-02-19,1,,,,,スクリーンライターズジャパン,0
1389,6010001252476,新規,0,2025-02-19,2025-02-19,新日成株式会社,,株式会社,東京都,中央区,勝どき４丁目６番１号,,13,102,1040054,,,,,,,2025-02-19,1,,,,,シンニッセイ,0
1391,6010003046439,新規,0,2025-02-19,2025-02-19,合同会社京橋ＯＮＥ,,合同会社,東京都,中央区,日本橋１丁目４番１号日本橋一丁目ビルディング,,13,102,1030027,,,,,,,2025-02-19,1,,,,,キョウバシワン,0
1392,6010003046447,新規,0,2025-02-19,2025-02-19,サステナブルローンファンド３３号合同会社,,合同会社,東京都,中央区,京橋２丁目１２番６号ＡＯＪ税理士法人内,,13,102,1040031,,,,,,,2025-02-19,1,,,,,サステナブルローンファンドサンジュウサンゴウ,0
1393,6010003046455,新規,0,2025-02-19,2025-02-19,合同会社ＮＵ‐１１,,合同会社,東京都,中央区,京橋２丁目１２番６号ＡＯＪ税理士法人内,,13,102,1040031,,,,,,,2025-02-19,1,,,,,エヌユーイレブン,0
1394,6010003046471,新規,0,2025-02-19,2025-02-19,金山アセット合同会社,,合同会社,東京都,中央区,勝どき３丁目３－１３－９１０,,13,102,1040054,,,,,,,2025-02-19,1,,,,,カネヤマアセット,0
1396,6010005039614,新規,0,2025-02-19,2025-02-19,ＮＲ　ＧＣＲＥＩＴ　ＪＰ一般社団法人,,その他の設立登記法人,東京都,千代田区,丸の内２丁目３番２号郵船ビルアルタードムス・ジャパン株式会社内,,13,101,1000005,,,,,,,2025-02-19,1,,,,,エヌアールジーシーアールイーアイティージェーピー,0
1397,6010103002515,新規,0,2025-02-19,2025-02-19,合同会社ＫＡＲＳ,,合同会社,東京都,八王子市,平町５０４番地４,,13,201,1920022,,,,,,,2025-02-19,1,,,,,カース,0
1410,6010401188221,新規,0,2025-02-19,2025-02-19,株式会社アイ・ケイ・ジェイ,,株式会社,東京都,港区,新橋４丁目１４番１新橋ＡＵＮＢＬＤＧ４階,,13,103,1050004,,,,,,,2025-02-19,1,,,,,アイケイジェイ,0
1414,6010405024067,新規,0,2025-02-19,2025-02-19,特定非営利活動法人ボネキープ,,その他の設立登記法人,東京都,港区,南青山６丁目７番５－４１２号,,13,103,1070062,,,,,,,2025-02-19,1,,,,,ボネキープ,0
1415,6010405024091,新規,0,2025-02-19,2025-02-19,弁護士法人虎門中央法律事務所,,その他の設立登記法人,東京都,港区,虎ノ門１丁目１番１８号ヒューリック虎ノ門ビル,,13,103,1050001,,,,,,,2025-02-19,1,,,,,トラノモンチュウオウホウリツジムショ,0
1416,6010501053630,新規,0,2025-02-19,2025-02-19,株式会社ザ・ヘッドホールディングス,,株式会社,東京都,台東区,蔵前３丁目１番９号,,13,106,1110051,,,,,,,2025-02-19,1,,,,,ザヘッドホールディングス,0
1417,6010501053647,新規,0,2025-02-19,2025-02-19,三金商事株式会社,,株式会社,東京都,台東区,浅草橋１丁目２３－１１マサキビル１Ｆ,,13,106,1110053,,,,,,,2025-02-19,1,,,,,サンキンショウジ,0
1418,6010501053663,新規,0,2025-02-19,2025-02-19,ＷＡＬＲＵＳ　ＣＲＥＡＴＥ株式会社,,株式会社,東京都,台東区,北上野２丁目２５番９号－２０８号室,,13,106,1100014,,,,,,,2025-02-19,1,,,,,ワルラスクリエィト,0
1419,6010503007733,新規,0,2025-02-19,2025-02-19,合同会社柴田綜合研究所,,合同会社,東京都,台東区,西浅草２丁目１８番１２号,,13,106,1110035,,,,,,,2025-02-19,1,,,,,シバタソウゴウケンキュウジョ,0
1423,6010601066796,新規,0,2025-02-19,2025-02-19,吉建ホールディングス株式会社,,株式会社,東京都,江東区,東陽２丁目２番４号,,13,108,1350016,,,,,,,2025-02-19,1,,,,,ヨシケンホールディングス,0
1431,6010901056852,新規,0,2025-02-19,2025-02-19,Ｓｉｎｇｕｌａｒｉｔｙ　ＡＩ株式会社,,株式会社,東京都,世田谷区,祖師谷３丁目１１番１―９０５,,13,112,1570072,,,,,,,2025-02-19,1,,,,,シンギュラリティエーアイ,0
1432,6010903009684,新規,0,2025-02-19,2025-02-19,ウィズメンター合同会社,,合同会社,東京都,世田谷区,桜上水４丁目１番Ｅ棟６０７号,,13,112,1560045,,,,,,,2025-02-19,1,,,,,ウィズメンター,0
1453,6011101110689,新規,0,2025-02-19,2025-02-19,株式会社Ｘｅｎｏ　Ｃｏｒｅ,,株式会社,東京都,新宿区,新宿５丁目１８番２０号ルックハイツ新宿８０３号室,,13,104,1600022,,,,,,,2025-02-19,1,,,,,ゼノコア,0
1454,6011101110697,新規,0,2025-02-19,2025-02-19,株式会社ぜろいち,,株式会社,東京都,新宿区,横寺町４１－４モデリアブリュット神楽坂１０３,,13,104,1620831,,,,,,,2025-02-19,1,,,,,ゼロイチ,0
1457,6011201026133,新規,0,2025-02-19,2025-02-19,ＳＵＮＯプロダクション株式会社,,株式会社,東京都,中野区,新井５丁目３３‐５興和ハイツ３０３,,13,114,1650026,,,,,,,2025-02-19,1,,,,,スノプロダクション,0
1458,6011303005423,新規,0,2025-02-19,2025-02-19,合同会社フルール,,合同会社,東京都,杉並区,成田東５丁目１５番１０－４０１号プロスペクト荻窪,,13,115,1660015,,,,,,,2025-02-19,1,,,,,フルール,0
1459,6011405002376,新規,0,2025-02-19,2025-02-19,特定非営利活動法人東京福祉タクシー,,その他の設立登記法人,東京都,板橋区,徳丸１丁目３７番１６号,,13,119,1750083,,,,,,,2025-02-19,1,,,,,トウキョウフクシタクシー,0
1466,6011603004612,新規,0,2025-02-19,2025-02-19,合同会社ＨＩｔｏ,,合同会社,東京都,練馬区,西大泉５丁目２１番２４号,,13,120,1780065,,,,,,,2025-02-19,1,,,,,ハイト,0
1468,6011703004132,新規,0,2025-02-19,2025-02-19,ベタービータ合同会社,,合同会社,東京都,江戸川区,東小岩４丁目２３番７号,,13,123,1330052,,,,,,,2025-02-19,1,,,,,ベタービータ,0
1469,6011801045664,新規,0,2025-02-19,2025-02-19,株式会社ｋｏｎｊａｃ　ｔｒａｖｅｌ,,株式会社,東京都,足立区,堀之内１丁目３－２０－２０８,,13,121,1230874,,,,,,,2025-02-19,1,,,,,コンジャクトラベル,0
1474,6012301014259,新規,0,2025-02-19,2025-02-19,株式会社ＡＬＬ　ＥＳＴＡＴＥ,,株式会社,東京都,町田市,原町田４丁目１８番５号ドミールＩＳ３０１,,13,209,1940013,,,,,,,2025-02-19,1,,,,,オールエステート,0
1476,6012401042787,新規,0,2025-02-19,2025-02-19,みなとみらい・カストディ・サービシーズ株式会社,,株式会社,東京都,三鷹市,下連雀３丁目４４番１３－１００５号,,13,204,1810013,,,,,,,2025-02-19,1,,,,,ミナトミライカストディサービシーズ,0
1477,6012401042795,新規,0,2025-02-19,2025-02-19,ＮＯＤＥＬ　ｄｅｓｉｇｎ株式会社,,株式会社,東京都,調布市,菊野台２丁目１４番地２８号ＧａｒａｇｅｌｓｔＫｉｋｕｎｏｄａｉ,,13,208,1820007,,,,,,,2025-02-19,1,,,,,ノデルデザイン,0
1478,6012701018710,新規,0,2025-02-19,2025-02-19,株式会社ハレレアオペレーション,,株式会社,東京都,小平市,花小金井南町１丁目１５番８号,,13,211,1870003,,,,,,,2025-02-19,1,,,,,ハレレアオペレーション,0
1486,6020001161404,新規,0,2025-02-19,2025-02-19,株式会社ＹＭＤａ楽,,株式会社,神奈川県,川崎市多摩区,三田１丁目２８－２ライブリー三田３０７号室,,14,135,2140034,,,,,,,2025-02-19,1,,,,,ワイエムディェィラク,0
1488,6020003027875,新規,0,2025-02-19,2025-02-19,合同会社Ｙｏｒｉｍｉｃｈｉ,,合同会社,神奈川県,横浜市神奈川区,金港町５－１４クアドリフォリオ８階,,14,102,2210056,,,,,,,2025-02-19,1,,,,,ヨリミチ,0
1489,6020003027883,新規,0,2025-02-19,2025-02-19,合同会社財クラフトリサーチ,,合同会社,神奈川県,川崎市幸区,堀川町７２番地２１ラゾーナ川崎レジデンスＲ－２０７,,14,132,2120013,,,,,,,2025-02-19,1,,,,,ザイクラフトリサーチ,0
1495,6021005013277,新規,0,2025-02-19,2025-02-19,特定非営利活動法人おたすけ工房,,その他の設立登記法人,神奈川県,逗子市,桜山８丁目１０番２７号,,14,208,2490005,,,,,,,2025-02-19,1,,,,,オヤスケコウボウ,0
1501,6030001164942,新規,0,2025-02-19,2025-02-19,株式会社ＲＵＢＹ,,株式会社,埼玉県,幸手市,大字円藤内３２番地１,,11,240,3400104,,,,,,,2025-02-19,1,,,,,ルビー,0
1504,6030003026117,新規,0,2025-02-19,2025-02-19,Ａｒｙａ　Ｔａｒａ合同会社,,合同会社,埼玉県,久喜市,南１丁目８番１６号,,11,232,3460004,,,,,,,2025-02-19,1,,,,,アリヤタラ,0
1505,6030003026125,新規,0,2025-02-19,2025-02-19,いちごいちえん合同会社,,合同会社,埼玉県,所沢市,狭山ケ丘１丁目２９８０番地４１,,11,208,3591161,,,,,,,2025-02-19,1,,,,,イチゴイチエン,0
1510,6040001137443,新規,0,2025-02-19,2025-02-19,株式会社丸八管理,,株式会社,千葉県,流山市,大字鰭ケ崎１７３５番地,,12,220,2700161,,,,,,,2025-02-19,1,,,,,マルハチカンリ,0
1511,6040001137451,新規,0,2025-02-19,2025-02-19,株式会社Ｌｉｅｎ　ｈｏｌｄｉｎｇｓ,,株式会社,千葉県,我孫子市,中峠台３３番地の５中峠ハイツＥ－２棟２０３号,,12,222,2701128,,,,,,,2025-02-19,1,,,,,リアンホールディングス,0
1512,6040001137476,新規,0,2025-02-19,2025-02-19,株式会社ｅｆｆｏｒｔ,,株式会社,千葉県,柏市,豊四季６０８番地１ヴェル・クレージュ１０６号,,12,217,2770863,,,,,,,2025-02-19,1,,,,,エフォート,0
1513,6040001137484,新規,0,2025-02-19,2025-02-19,マイズホールディングス株式会社,,株式会社,千葉県,船橋市,丸山４丁目４６番１２号,,12,204,2730048,,,,,,,2025-02-19,1,,,,,マイズホールディングス,0
1515,6040003026891,新規,0,2025-02-19,2025-02-19,合同会社印西コイン,,合同会社,千葉県,佐倉市,西志津３丁目２７番１２号,,12,212,2850845,,,,,,,2025-02-19,1,,,,,インザイコイン,0
1517,6040005022666,新規,0,2025-02-19,2025-02-19,一般社団法人シオンワード２１,,その他の設立登記法人,千葉県,山武郡芝山町,新井田１６８番地１,,12,409,2891625,,,,,,,2025-02-19,1,,,,,シオンワードニジュウイチ,0
1523,6060001037922,新規,0,2025-02-19,2025-02-19,株式会社三光ファーム,,株式会社,栃木県,足利市,瑞穂野町６８２番地３,,09,202,3260323,,,,,,,2025-02-19,1,,,,,サンコウファーム,0
1525,6060003005431,新規,0,2025-02-19,2025-02-19,合同会社Ｃｌｉｍｂ,,合同会社,栃木県,宇都宮市,馬場通り３丁目４番１２号インペリアル宇都宮５０２号室,,09,201,3200026,,,,,,,2025-02-19,1,,,,,クライム,0
1532,6080101025321,新規,0,2025-02-19,2025-02-19,株式会社キイムス,,株式会社,静岡県,富士市,今泉３５１３番地の８,,22,210,4170001,,,,,,,2025-02-19,1,,,,,キイムス,0
1541,6120001272208,新規,0,2025-02-19,2025-02-19,株式会社ｐｌａｉｓｉｒ‐ｅ,,株式会社,大阪府,大阪市中央区,玉造１丁目６番１３号,,27,128,5400004,,,,,,,2025-02-19,1,,,,,プレジールイー,0
1542,6120001272686,新規,0,2025-02-19,2025-02-19,長久健康科技株式会社,,株式会社,大阪府,大阪市淀川区,十三本町１丁目９番２０－３０６号,,27,123,5320024,,,,,,,2025-02-19,1,,,,,チョウキュウケンコウカギ,0
1543,6120001272918,新規,0,2025-02-19,2025-02-19,株式会社ＸＩＮ,,株式会社,大阪府,大阪市北区,芝田２丁目１番１８号西阪急ビル１階,,27,127,5300012,,,,,,,2025-02-19,1,,,,,シン,0
1544,6120001272983,新規,0,2025-02-19,2025-02-19,株式会社旭東ソリューションズ,,株式会社,大阪府,大阪市北区,西天満５丁目９番３号,,27,127,5300047,,,,,,,2025-02-19,1,,,,,キョクトウソリューションズ,0
1545,6120001272991,新規,0,2025-02-19,2025-02-19,株式会社真和,,株式会社,大阪府,大阪市東成区,大今里南１丁目９番４号,,27,115,5370013,,,,,,,2025-02-19,1,,,,,シンワ,0
1546,6120001273032,新規,0,2025-02-19,2025-02-19,株式会社ＦＩＲＳＴ,,株式会社,大阪府,大阪市大正区,北恩加島１丁目８番１－１１２号,,27,108,5510033,,,,,,,2025-02-19,1,,,,,ファースト,0
1547,6120001273040,新規,0,2025-02-19,2025-02-19,Ｑｄｅｒ　Ｊａｐａｎ株式会社,,株式会社,大阪府,大阪市阿倍野区,阿倍野筋１丁目１番４３号あべのハルカス３１Ｆ,,27,119,5450052,,,,,,,2025-02-19,1,,,,,キューダージャパン,0
1548,6120001273049,新規,0,2025-02-19,2025-02-19,株式会社クロスギア,,株式会社,大阪府,大阪市北区,梅田１丁目２番２号大阪駅前第２ビル１２－１２,,27,127,5300001,,,,,,,2025-02-19,1,,,,,クロスギア,0
1549,6120001273098,新規,0,2025-02-19,2025-02-19,伯楽株式会社,,株式会社,大阪府,大阪市住之江区,浜口西１丁目１３番１５－３０３号,,27,125,5590006,,,,,,,2025-02-19,1,,,,,ハクラク,0
1552,6120003028657,新規,0,2025-02-19,2025-02-19,合同会社Ｒｏｙａｌ　Ｅｍｐｉｒｅ,,合同会社,大阪府,大阪市西成区,鶴見橋２丁目５番１８号,,27,122,5570031,,,,,,,2025-02-19,1,,,,,ロイヤルエンパイヤ,0
1555,6120101071088,新規,0,2025-02-19,2025-02-19,株式会社プロテレコムズ,,株式会社,大阪府,岸和田市,春木泉町１０番２４－３０７号,,27,202,5960035,,,,,,,2025-02-19,1,,,,,プロテレコムズ,0
1558,6120901050464,新規,0,2025-02-19,2025-02-19,株式会社ＢａＴＯＮ　ＯＲＧＡＮＩＣ,,株式会社,大阪府,箕面市,箕面６丁目１番３４号箕面レジデンス１０１号,,27,220,5620001,,,,,,,2025-02-19,1,,,,,バトンオーガニック,0
1559,6120901050472,新規,0,2025-02-19,2025-02-19,ＦＫ企画株式会社,,株式会社,大阪府,茨木市,丑寅２丁目７－２３－１１６,,27,211,5670877,,,,,,,2025-02-19,1,,,,,エフケーキカク,0
1568,6130001079008,新規,0,2025-02-19,2025-02-19,株式会社ＨＯＴ警備保障,,株式会社,京都府,京都市伏見区,淀樋爪町２５９番地２,00138054,26,109,6130901,,,,,,,2025-02-19,1,,,,,ホットケイビホショウ,0
1569,6130001079024,新規,0,2025-02-19,2025-02-19,金秋農業株式会社,,株式会社,京都府,京都市伏見区,向島新上林９５番地,,26,109,6128152,,,,,,,2025-02-19,1,,,,,キンシュウノウギョウ,0
1575,6140001137433,新規,0,2025-02-19,2025-02-19,株式会社Ｍ・Ｉ設計企画,,株式会社,兵庫県,川辺郡猪名川町,林田字乾廻２０番地,,28,301,6660226,,,,,,,2025-02-19,1,,,,,エムアイセッケイキカク,0
1576,6140001137441,新規,0,2025-02-19,2025-02-19,株式会社千寿,,株式会社,兵庫県,神戸市西区,玉津町今津５０７番地の４,,28,111,6512128,,,,,,,2025-02-19,1,,,,,センジュ,0
1577,6140001137458,新規,0,2025-02-19,2025-02-19,株式会社Ｍａｋｅ　Ｐｅｏｐｌｅ　Ｈａｐｐｙ,,株式会社,兵庫県,加古郡播磨町,新島３番地,,28,382,6750155,,,,,,,2025-02-19,1,,,,,メイクピープルハッピー,0
1580,6140003021676,新規,0,2025-02-19,2025-02-19,合同会社ナルト,,合同会社,兵庫県,神戸市長田区,東尻池町４丁目１番２３号,,28,106,6530022,,,,,,,2025-02-19,1,,,,,ナルト,0
1582,6150001027889,新規,0,2025-02-19,2025-02-19,株式会社シジュウカラ,,株式会社,奈良県,北葛城郡広陵町,大字南２７６番地２,,29,426,6350818,,,,,,,2025-02-19,1,,,,,シジュウカラ,0
1583,6150005009669,新規,0,2025-02-19,2025-02-19,一般社団法人コンプライアンス戦略研究所,,その他の設立登記法人,奈良県,奈良市,高天町３８番地５佐川ビル４０１号室,,29,201,6308241,,,,,,,2025-02-19,1,,,,,コンプライアンスセンリャクケンキュウショ,0
1589,6180001165496,新規,0,2025-02-19,2025-02-19,株式会社どんどこ団,,株式会社,愛知県,名古屋市東区,葵１丁目７番１７号,,23,102,4610004,,,,,,,2025-02-19,1,,,,,ドンドコダン,0
1590,6180001165505,新規,0,2025-02-19,2025-02-19,株式会社Ｌｅａｄ　ＦＣ,,株式会社,愛知県,名古屋市東区,武平町５丁目１番地名古屋栄ビルディング９階,,23,102,4610008,,,,,,,2025-02-19,1,,,,,リードエフシー,0
1591,6180001165521,新規,0,2025-02-19,2025-02-19,株式会社Ａ‐ｃｌａｎ,,株式会社,愛知県,岩倉市,大市場町郷廻３５５番地２,,23,228,4820002,,,,,,,2025-02-19,1,,,,,エークラン,0
1592,6180001165538,新規,0,2025-02-19,2025-02-19,株式会社ｗｈａｌｅ　ｔａｉｌ,,株式会社,愛知県,岩倉市,大市場町郷前２２０番地１,,23,228,4820002,,,,,,,2025-02-19,1,,,,,ホエールテール,0
1593,6180001165546,新規,0,2025-02-19,2025-02-19,株式会社マンボック,,株式会社,愛知県,名古屋市西区,上名古屋４丁目１２番１４号,,23,104,4510025,,,,,,,2025-02-19,1,,,,,マンボック,0
1599,6180301039524,新規,0,2025-02-19,2025-02-19,ＨＯＰＥ　Ｒｅｔａｉｌｅｒ株式会社,,株式会社,愛知県,豊田市,金谷町３丁目６３番地１１,,23,211,4710876,,,,,,,2025-02-19,1,,,,,ホープリテーラー,0
1603,6190003004940,新規,0,2025-02-19,2025-02-19,合同会社ＶＭＳ　ＬＡＮＫＡ,,合同会社,三重県,桑名市,大字東汰上５３９番地１,,24,205,5110806,,,,,,,2025-02-19,1,,,,,ブイエムエスランカ,0
1605,6200001043443,新規,0,2025-02-19,2025-02-19,株式会社カントリーサイド,,株式会社,岐阜県,可児市,土田２５４８－３,,21,214,5090206,,,,,,,2025-02-19,1,,,,,カントリーサイド,0
1606,6200001043451,新規,0,2025-02-19,2025-02-19,株式会社ｋａｃｈｉ,,株式会社,岐阜県,岐阜市,芥見大船２丁目１６２番地,,21,201,5013114,,,,,,,2025-02-19,1,,,,,カチ,0
1612,6240001064551,新規,0,2025-02-19,2025-02-19,株式会社東和,,株式会社,広島県,尾道市,古浜町１９番３号,,34,205,7220002,,,,,,,2025-02-19,1,,,,,トウワ,0
1613,6240003007079,新規,0,2025-02-19,2025-02-19,ディサイド合同会社,,合同会社,広島県,広島市中区,東千田町１丁目１番６１号,,34,101,7300053,,,,,,,2025-02-19,1,,,,,ディサイド,0
1615,6250001021007,新規,0,2025-02-19,2025-02-19,株式会社Ｒｉｔａ‐Ｈｅａｒｔ,,株式会社,山口県,下関市,新垢田南町１丁目１４番１０,,35,201,7510842,,,,,,,2025-02-19,1,,,,,リタハート,0
1620,6260001039915,新規,0,2025-02-19,2025-02-19,株式会社Ｔ‐ビルド,,株式会社,岡山県,倉敷市,茶屋町早沖１６４６番地５,,33,202,7101102,,,,,,,2025-02-19,1,,,,,ティービルド,0
1621,6260001039923,新規,0,2025-02-19,2025-02-19,株式会社ライトソウケン,,株式会社,岡山県,岡山市南区,阿津２１５９番地,,33,104,7028015,,,,,,,2025-02-19,1,,,,,ライトソウケン,0
1623,6260003005064,新規,0,2025-02-19,2025-02-19,合同会社よつば工業,,合同会社,岡山県,倉敷市,帯高６１７番地８プレジール帯高Ｂ２０１,,33,202,7100023,,,,,,,2025-02-19,1,,,,,ヨツバコウギョウ,0
1630,6290001109013,新規,0,2025-02-19,2025-02-19,株式会社ＺＥＲＯ　ＬＩＮＥ,,株式会社,福岡県,糟屋郡粕屋町,原町４丁目３番１号,,40,349,8112307,,,,,,,2025-02-19,1,,,,,ゼロライン,0
1631,6290003016406,新規,0,2025-02-19,2025-02-19,ＴＫＭ合同会社,,合同会社,福岡県,太宰府市,五条４丁目１－１９サン五条２階２０３号室,,40,221,8180125,,,,,,,2025-02-19,1,,,,,ティーケーエム,0
1632,6290003016430,新規,0,2025-02-19,2025-02-19,合同会社Ｔ‐ｈｅｉｍ８,,合同会社,福岡県,飯塚市,花瀬１０２番地３２,,40,205,8200045,,,,,,,2025-02-19,1,,,,,ティハイムエイト,0
1633,6290003016439,新規,0,2025-02-19,2025-02-19,合同会社城山観光持株会,,合同会社,福岡県,福岡市中央区,大名２丁目１１番２１号,,40,133,8100041,,,,,,,2025-02-19,1,,,,,シロヤマカンコウモチカブカイ,0
1640,6320001020942,新規,0,2025-02-19,2025-02-19,株式会社ユウソウシステム,,株式会社,大分県,大分市,三川上２丁目６番１５号,,44,201,8700143,,,,,,,2025-02-19,1,,,,,ユウソウシステム,0
1644,6350001019404,新規,0,2025-02-19,2025-02-19,株式会社早水の杜,,株式会社,宮崎県,都城市,早水町４５０３番地９５,,45,202,8850016,,,,,,,2025-02-19,1,,,,,ハヤミズノモリ,0
1648,6370001052262,新規,0,2025-02-19,2025-02-19,株式会社ＳＨ　Ｈｏｌｄｉｎｇｓ,,株式会社,宮城県,仙台市宮城野区,蒲生３丁目１,,04,102,9830002,,,,,,,2025-02-19,1,,,,,エスエイチホールディングス,0
1649,6370003006943,新規,0,2025-02-19,2025-02-19,合同会社吾圓堂,,合同会社,宮城県,仙台市宮城野区,榴岡１丁目７番１５－３１１号,,04,102,9830852,,,,,,,2025-02-19,1,,,,,ゴエンドウ,0
1652,6380001035101,新規,0,2025-02-19,2025-02-19,株式会社土の絆,,株式会社,福島県,二本松市,太田字砂屋登１２,,07,210,9640111,,,,,,,2025-02-19,1,,,,,ツチノキズナ,0
1653,6390001017882,新規,0,2025-02-19,2025-02-19,株式会社キミヲテラス,,株式会社,山形県,山形市,幸町２番９号,,06,201,9900038,,,,,,,2025-02-19,1,,,,,キミヲテラス,0
1654,6400003003400,新規,0,2025-02-19,2025-02-19,ライズヒル合同会社,,合同会社,岩手県,盛岡市,下飯岡１７地割１４番地,,03,201,0200853,,,,,,,2025-02-19,1,,,,,ライズヒル,0
1673,6440003001664,新規,0,2025-02-19,2025-02-19,合同会社ｆｉｋａｔｅｃ．,,合同会社,北海道,函館市,花園町２４番２１号,,01,202,0410843,,,,,,,2025-02-19,1,,,,,フィーカテック,0
1676,6470001020589,新規,0,2025-02-19,2025-02-19,株式会社福歓,,株式会社,香川県,三豊市,豊中町本山乙字四ッ足西７３０番１,,37,208,7691505,,,,,,,2025-02-19,1,,,,,フクカン,0
1680,6500001026153,新規,0,2025-02-19,2025-02-19,株式会社カチカチヤマワークス,,株式会社,愛媛県,松山市,桑原１丁目５番４－２号,,38,201,7900911,,,,,,,2025-02-19,1,,,,,カチカチヤマワークス,0
1682,6500005008767,新規,0,2025-02-19,2025-02-19,一般社団法人ＮｉＣＯｐｌｕｓ,,その他の設立登記法人,愛媛県,西条市,神拝甲２４７番地２,,38,206,7930041,,,,,,,2025-02-19,1,,,,,ニコプラス,0
1689,7010001252319,新規,0,2025-02-19,2025-02-19,株式会社フォーセット,,株式会社,東京都,中央区,新川１丁目２６番９号新川イワデビル３階,,13,102,1040033,,,,,,,2025-02-19,1,,,,,フォーセット,0
1690,7010001252327,新規,0,2025-02-19,2025-02-19,ＷＨＪ株式会社,,株式会社,東京都,千代田区,二番町１番地２－番町ハイム４０４号室,,13,101,1020084,,,,,,,2025-02-19,1,,,,,ダブリューエイチジェイ,0
1691,7010001252351,新規,0,2025-02-19,2025-02-19,株式会社ＷＡＮＯＹＡＤＯ,,株式会社,東京都,中央区,佃１丁目１１番７－２２０１号,,13,102,1040051,,,,,,,2025-02-19,1,,,,,,0
1692,7010001252426,新規,0,2025-02-19,2025-02-19,株式会社ＧＬＯＣＡＬ　ＤＯＯＲ　ＢＵＳＩＮＥＳＳ,,株式会社,東京都,中央区,銀座１丁目１２番４号Ｎ＆Ｅ．ＢＬＤ．６階,,13,102,1040061,,,,,,,2025-02-19,1,,,,,グローカルドアビジネス,0
1693,7010001252491,新規,0,2025-02-19,2025-02-19,スリーリミット株式会社,,株式会社,東京都,文京区,白山１丁目６番４－Ａ１１,,13,105,1130001,,,,,,,2025-02-19,1,,,,,スリーリミット,0
1697,7010003046446,新規,0,2025-02-19,2025-02-19,サステナブルローンファンド３２号合同会社,,合同会社,東京都,中央区,京橋２丁目１２番６号ＡＯＪ税理士法人内,,13,102,1040031,,,,,,,2025-02-19,1,,,,,サステナブルローンファンドサンジュウニゴウ,0
1698,7010003046454,新規,0,2025-02-19,2025-02-19,合同会社ＣＣＦ３号,,合同会社,東京都,中央区,京橋２丁目１２番６号ＡＯＪ税理士法人内,,13,102,1040031,,,,,,,2025-02-19,1,,,,,シーシーエフサンゴウ,0
1699,7010003046479,新規,0,2025-02-19,2025-02-19,盛嘉合同会社,,合同会社,東京都,中央区,新川２丁目１２－１８沢田ビル,,13,102,1040033,,,,,,,2025-02-19,1,,,,,モリヨシ,0
1700,7010005039613,新規,0,2025-02-19,2025-02-19,ＮＲ　ＧＣＲＥＩＴ　ＪＰ特定目的会社,,その他の設立登記法人,東京都,千代田区,丸の内２丁目３番２号郵船ビルアルタードムス・ジャパン株式会社内,,13,101,1000005,,,,,,,2025-02-19,1,,,,,エヌアールジーシーアールイーアイティージェーピー,0
1707,7010401188212,新規,0,2025-02-19,2025-02-19,株式会社ＡｇＬａｂ,,株式会社,東京都,港区,赤坂７丁目１１番７号赤坂栗原ビル２階,,13,103,1070052,,,,,,,2025-02-19,1,,,,,エージーラボ,0
1708,7010401188278,新規,0,2025-02-19,2025-02-19,株式会社勇羽,,株式会社,東京都,港区,虎ノ門３丁目１４番１－７０５号,,13,103,1050001,,,,,,,2025-02-19,1,,,,,ユウ,0
1709,7010401188294,新規,0,2025-02-19,2025-02-19,株式会社ＳＥＬＥＮＥ,,株式会社,東京都,港区,赤坂３丁目２１番５号三銀ビル１階１０５,,13,103,1070052,,,,,,,2025-02-19,1,,,,,セレネ,0
1710,7010401188311,新規,0,2025-02-19,2025-02-19,株式会社ＴＬＰ,,株式会社,東京都,港区,赤坂２丁目１７番６５－２０４号,,13,103,1070052,,,,,,,2025-02-19,1,,,,,ティーエルピー,0
1717,7010403034422,新規,0,2025-02-19,2025-02-19,合同会社皐月,,合同会社,東京都,港区,北青山１丁目３番１号アールキューブ青山３階,,13,103,1070061,,,,,,,2025-02-19,1,,,,,サツキ,0
1722,7010601066795,新規,0,2025-02-19,2025-02-19,株式会社ＥＬＩＮＩ,,株式会社,東京都,江東区,富岡１丁目２４番１１号,,13,108,1350047,,,,,,,2025-02-19,1,,,,,エリーニ,0
1723,7010601066804,新規,0,2025-02-19,2025-02-19,株式会社イズミバンク,,株式会社,東京都,江東区,牡丹３丁目２４－６－６０２,,13,108,1350046,,,,,,,2025-02-19,1,,,,,イズミバンク,0
1726,7010703007581,新規,0,2025-02-19,2025-02-19,合同会社ＯｂｉＴｏｒｉ,,合同会社,東京都,品川区,大崎５丁目９番３号ラフィネ大崎１２０３,,13,109,1410032,,,,,,,2025-02-19,1,,,,,オーバイトーリ,0
1729,7010901056835,新規,0,2025-02-19,2025-02-19,株式会社Ｎｏｅｕｅ．,,株式会社,東京都,世田谷区,砧２丁目１９番１３号円ハイツ２０１,,13,112,1570073,,,,,,,2025-02-19,1,,,,,ヌー,0
1742,7011101110688,新規,0,2025-02-19,2025-02-19,株式会社ＳＳＺホールディングス,,株式会社,東京都,新宿区,西新宿２丁目４番１号新宿ＮＳビル,,13,104,1600023,,,,,,,2025-02-19,1,,,,,エスエスゼットホールディングス,0
1743,7011101110705,新規,0,2025-02-19,2025-02-19,株式会社ツーエース,,株式会社,東京都,新宿区,新宿１丁目１４番３号,,13,104,1600022,,,,,,,2025-02-19,1,,,,,ツーエース,0
1744,7011103015547,新規,0,2025-02-19,2025-02-19,日中立成合同会社,,合同会社,東京都,新宿区,西新宿７丁目２番６号西新宿Ｋ－１ビル３階,,13,104,1600023,,,,,,,2025-02-19,1,,,,,ニッチュウリッセイ,0
1745,7011301030364,新規,0,2025-02-19,2025-02-19,ドラマチック株式会社,,株式会社,東京都,杉並区,阿佐谷南１丁目３５番９号ＭＨビル２Ｆ,,13,115,1660004,,,,,,,2025-02-19,1,,,,,ドラマチック,0
1746,7011303005422,新規,0,2025-02-19,2025-02-19,ＫＹＲパートナーズ合同会社,,合同会社,東京都,杉並区,高井戸西２丁目７番８号,,13,115,1680071,,,,,,,2025-02-19,1,,,,,ケイワイアールパートナーズ,0
1747,7011305003028,新規,0,2025-02-19,2025-02-19,一般社団法人テニスビジネス活性化委員会,,その他の設立登記法人,東京都,杉並区,高井戸西２丁目１４番３２号武蔵野ローンテニスクラブ内,,13,115,1680071,,,,,,,2025-02-19,1,,,,,テニスビジネスカッセイカイインカイ,0
1748,7011401026832,新規,0,2025-02-19,2025-02-19,株式会社マダン,,株式会社,東京都,板橋区,大谷口上町４１番２号,,13,119,1730032,,,,,,,2025-02-19,1,,,,,マダン,0
1751,7011601028414,新規,0,2025-02-19,2025-02-19,株式会社えぬ,,株式会社,東京都,練馬区,春日町４丁目３７－３５,,13,120,1790074,,,,,,,2025-02-19,1,,,,,エヌ,0
1756,7012301014266,新規,0,2025-02-19,2025-02-19,株式会社Ｃｏｃｏｎ,,株式会社,東京都,町田市,小山町７４８－１６,,13,209,1940212,,,,,,,2025-02-19,1,,,,,ココン,0
1771,7020001161403,新規,0,2025-02-19,2025-02-19,株式会社千秋軒,,株式会社,神奈川県,横浜市西区,浅間町１丁目４番３号ウィザードビル４０２,,14,103,2200072,,,,,,,2025-02-19,1,,,,,センシュウケン,0
1772,7020001161485,新規,0,2025-02-19,2025-02-19,株式会社ＰＡＸ,,株式会社,神奈川県,川崎市中原区,市ノ坪３８４番地１クレッセント武蔵小杉グランデイズ壱番館８０１,,14,133,2110016,,,,,,,2025-02-19,1,,,,,パックス,0
1773,7020001161510,新規,0,2025-02-19,2025-02-19,Ｒ＆Ｋ株式会社,,株式会社,神奈川県,横浜市港北区,錦が丘１１番１９号シャルム菊名１Ｆ,,14,109,2220013,,,,,,,2025-02-19,1,,,,,アールアンドケー,0
1774,7020001161527,新規,0,2025-02-19,2025-02-19,ＢｅＳｏｌ株式会社,,株式会社,神奈川県,横浜市瀬谷区,橋戸３丁目６２番地７コーポエス・アイ・シーＩ２０３,00138053,14,114,2460037,,,,,,,2025-02-19,1,,,,,ビーソル,0
1775,7020001161551,新規,0,2025-02-19,2025-02-19,株式会社ａｘｅｓ,,株式会社,神奈川県,横浜市南区,榎町２丁目６４番地セントラル蒔田マンション３０６,,14,105,2320044,,,,,,,2025-02-19,1,,,,,アクシーズ,0
1776,7020003027833,新規,0,2025-02-19,2025-02-19,合同会社横浜エクステリア,,合同会社,神奈川県,横浜市南区,永田北１丁目２７番２１号,,14,105,2320071,,,,,,,2025-02-19,1,,,,,ヨコハマエクステリア,0
1777,7020003027874,新規,0,2025-02-19,2025-02-19,合同会社ユーコーポレーション,,合同会社,神奈川県,横浜市鶴見区,本町通４丁目１７２番地の２,,14,101,2300048,,,,,,,2025-02-19,1,,,,,ユーコーポレーション,0
1793,7040001137442,新規,0,2025-02-19,2025-02-19,株式会社ムーセン,,株式会社,千葉県,船橋市,前原西２丁目４３－１０、３Ｆ,,12,204,2740825,,,,,,,2025-02-19,1,,,,,ムーセン,0
1794,7040001137459,新規,0,2025-02-19,2025-02-19,ミホ工業東関東株式会社,,株式会社,千葉県,野田市,谷津９７５番地１谷津工場Ｂ１０１,,12,208,2780046,,,,,,,2025-02-19,1,,,,,ミホコウギョウヒガシカントウ,0
1801,7040003026890,新規,0,2025-02-19,2025-02-19,合同会社Ｅｓｐａｄａ,,合同会社,千葉県,我孫子市,天王台４丁目５番６３号,,12,222,2701143,,,,,,,2025-02-19,1,,,,,エスパーダ,0
1802,7040003026899,新規,0,2025-02-19,2025-02-19,オリエンタルマネジメント合同会社,,合同会社,千葉県,浦安市,今川２丁目６番２１号,,12,227,2790022,,,,,,,2025-02-19,1,,,,,オリエンタルマネジメント,0
1806,7050001056187,新規,0,2025-02-19,2025-02-19,エスアールティー株式会社,,株式会社,茨城県,下妻市,皆葉１２０４番地６,,08,210,3040822,,,,,,,2025-02-19,1,,,,,エスアールティー,0
1807,7050001056195,新規,0,2025-02-19,2025-02-19,株式会社ＧｒａｚｉＥｓｔａｔｅ,,株式会社,茨城県,水戸市,元吉田町１６２６番地の４,,08,201,3100836,,,,,,,2025-02-19,1,,,,,グラッツエステート,0
1809,7050003009036,新規,0,2025-02-19,2025-02-19,ＪＡＰＡＮ　ＧＲＯＵＰ合同会社,,合同会社,茨城県,結城市,大字中１６２番地２号棟,,08,207,3070013,,,,,,,2025-02-19,1,,,,,ジャパングループ,0
1810,7050003009044,新規,0,2025-02-19,2025-02-19,３Ｖ　Ａｕｔｏｍｏｔｉｖｅ合同会社,,合同会社,茨城県,坂東市,寺久１３５４番地１１,,08,228,3060656,,,,,,,2025-02-19,1,,,,,スリーブイオートモーティブ,0
1816,7070001042631,新規,0,2025-02-19,2025-02-19,株式会社タクト,,株式会社,群馬県,太田市,内ケ島町９１３番地４,,10,205,3730813,,,,,,,2025-02-19,1,,,,,タクト,0
1827,7100001038312,新規,0,2025-02-19,2025-02-19,株式会社トラビスジャパン,,株式会社,長野県,上伊那郡箕輪町,大字中箕輪８２９５番地５,,20,383,3994601,,,,,,,2025-02-19,1,,,,,トラビスジャパン,0
1830,7100005013294,新規,0,2025-02-19,2025-02-19,一般社団法人国産ジビエ認証機構,,その他の設立登記法人,長野県,諏訪市,大字四賀２３１５－５飯島Ｔビル２階,,20,206,3920012,,,,,,,2025-02-19,1,,,,,コクサンジビエニンショウキコウ,0
1831,7110001039061,新規,0,2025-02-19,2025-02-19,株式会社ＳＵＩＫＥＮ,,株式会社,新潟県,阿賀野市,上黒瀬１０６番地,,15,223,9592116,,,,,,,2025-02-19,1,,,,,スイケン,0
1846,7120001272867,新規,0,2025-02-19,2025-02-19,Ｊｅｓｓｉｅ．Ｗ　Ｓｔｕｄｉｏ株式会社,,株式会社,大阪府,大阪市淀川区,十三本町１丁目９番２０－３０５号,,27,123,5320024,,,,,,,2025-02-19,1,,,,,ジェシーダブリュースタジオ,0
1847,7120001272933,新規,0,2025-02-19,2025-02-19,株式会社新田興業,,株式会社,大阪府,枚方市,長尾家具町２丁目２２０８番地の８,,27,210,5730102,,,,,,,2025-02-19,1,,,,,ニッタコウギョウ,0
1848,7120001272974,新規,0,2025-02-19,2025-02-19,早稲田商事株式会社,,株式会社,大阪府,大阪市住之江区,南港北２丁目１番１０号ＡＴＣビルＩＴＭ棟４階Ｎ－２ＲｏｏｍＣ,,27,125,5590034,,,,,,,2025-02-19,1,,,,,ワセダショウジ,0
1849,7120001272982,新規,0,2025-02-19,2025-02-19,株式会社ロマンティス,,株式会社,大阪府,大阪市城東区,今福東２丁目４番３泰平コーポ３０７号室,,27,118,5360002,,,,,,,2025-02-19,1,,,,,ロマンティス,0
1850,7120001273015,新規,0,2025-02-19,2025-02-19,株式会社Ｈｉｇｈｓｅｎｓｅ,,株式会社,大阪府,大阪市都島区,都島本通３丁目２１番９号,,27,102,5340021,,,,,,,2025-02-19,1,,,,,ハイセンス,0
1851,7120001273023,新規,0,2025-02-19,2025-02-19,株式会社クラッチ,,株式会社,大阪府,門真市,元町７－１５サイレントワン１－Ｂ,,27,223,5710057,,,,,,,2025-02-19,1,,,,,クラッチ,0
1852,7120001273064,新規,0,2025-02-19,2025-02-19,株式会社Ｂｏｎｄ１,,株式会社,大阪府,大阪市東住吉区,今林４丁目１５番２７号２－１０１号,,27,121,5460001,,,,,,,2025-02-19,1,,,,,ボンドワン,0
1854,7120003028607,新規,0,2025-02-19,2025-02-19,ＭＥＨＬＭＡＮ　ＭＩＣＨＡＥＬ合同会社,,合同会社,大阪府,大阪市阿倍野区,万代１丁目５番２８号シャーメゾンセオ帝塚山２０１号,,27,119,5450036,,,,,,,2025-02-19,1,,,,,メルマンマイケル,0
1856,7120101071095,新規,0,2025-02-19,2025-02-19,大伍建設株式会社,,株式会社,大阪府,堺市東区,草尾７６８番地３オニシビル３０３号,,27,143,5998127,,,,,,,2025-02-19,1,,,,,ダイゴケンセツ,0
1872,7130001079007,新規,0,2025-02-19,2025-02-19,株式会社ｕｂｕｌｉｎ,,株式会社,京都府,京都市北区,上賀茂岩ケ垣内町１２番地３,,26,101,6038053,,,,,,,2025-02-19,1,,,,,ウブリン,0
1873,7130001079031,新規,0,2025-02-19,2025-02-19,株式会社ＮＳワークス,,株式会社,京都府,京丹後市,峰山町荒山２２８４番地,,26,212,6270004,,,,,,,2025-02-19,1,,,,,エヌエスワークス,0
1874,7130003010217,新規,0,2025-02-19,2025-02-19,Ｋｕｍｏｇａｍｉ合同会社,,合同会社,京都府,京都市中京区,西ノ京御輿岡町２３番地６,,26,104,6048451,,,,,,,2025-02-19,1,,,,,クモガミ,0
1877,7140001137424,新規,0,2025-02-19,2025-02-19,株式会社かみかぜ水産,,株式会社,兵庫県,豊岡市,気比４６０１番地,,28,209,6696124,,,,,,,2025-02-19,1,,,,,カミカゼスイサン,0
1878,7140001137449,新規,0,2025-02-19,2025-02-19,リンゲージ株式会社,,株式会社,兵庫県,神戸市東灘区,深江北町３丁目９番２８号ルサンク甲南４０９,,28,101,6580013,,,,,,,2025-02-19,1,,,,,リンゲージ,0
1879,7140001137465,新規,0,2025-02-19,2025-02-19,株式会社Ｗｉｎ,,株式会社,兵庫県,尼崎市,善法寺町１０番５号,,28,202,6610973,,,,,,,2025-02-19,1,,,,,ウイン,0
1882,7140003021675,新規,0,2025-02-19,2025-02-19,Ｉｎｎｏｖａｔｉｏｎ　ＯＮＤ関西合同会社,,合同会社,兵庫県,加古川市,新神野６丁目２１番１３号,,28,210,6750008,,,,,,,2025-02-19,1,,,,,イノベーションオーエヌディーカンサイ,0
1886,7150001027871,新規,0,2025-02-19,2025-02-19,株式会社ｅｎ,,株式会社,奈良県,大和高田市,旭南町２番２－４１９号,,29,202,6350035,,,,,,,2025-02-19,1,,,,,エン,0
1894,7180001165454,新規,0,2025-02-19,2025-02-19,東京瑞蘭生物研究所株式会社,,株式会社,愛知県,名古屋市西区,菊井２丁目２０番１７号名駅岐山ビル１Ｆ,,23,104,4510044,,,,,,,2025-02-19,1,,,,,トウキョウズイランセイブツケンキュウジョ,0
1895,7180001165470,新規,0,2025-02-19,2025-02-19,ｙａｍａｔｏ建設株式会社,,株式会社,愛知県,春日井市,追進町３丁目８０番地,,23,206,4860952,,,,,,,2025-02-19,1,,,,,ヤマトケンセツ,0
1896,7180001165479,新規,0,2025-02-19,2025-02-19,ＪＣ　Ｒｅａｌ　Ｅｓｔａｔｅ株式会社,,株式会社,愛知県,名古屋市中区,錦１丁目１８番２４号,,23,106,4600003,,,,,,,2025-02-19,1,,,,,ジェイシーリアルエステイト,0
1897,7180001165487,新規,0,2025-02-19,2025-02-19,有松未来創造株式会社,,株式会社,愛知県,名古屋市緑区,有松２３０６番地,,23,114,4580924,,,,,,,2025-02-19,1,,,,,アリマツミライソウゾウ,0
1898,7180001165504,新規,0,2025-02-19,2025-02-19,株式会社ＬＤＣ．,,株式会社,愛知県,清須市,西枇杷島町古城２丁目１６番地６,,23,233,4520001,,,,,,,2025-02-19,1,,,,,エルディーシー,0
1899,7180003028015,新規,0,2025-02-19,2025-02-19,合同会社Ｈ＆Ｍ　Ｒｉｓｅ,,合同会社,愛知県,あま市,石作北浦１７０番地１,,23,237,4901102,,,,,,,2025-02-19,1,,,,,エイチアンドエムライズ,0
1900,7180003028023,新規,0,2025-02-19,2025-02-19,合同会社オフィスＫＳＫ,,合同会社,愛知県,名古屋市中区,栄３丁目２２番２８号グランシャリオ栄５０４号,,23,106,4600008,,,,,,,2025-02-19,1,,,,,オフィスケイエスケイ,0
1904,7180301039523,新規,0,2025-02-19,2025-02-19,株式会社コアラドライブ安城,,株式会社,愛知県,安城市,北山崎町北浦５０番地,,23,212,4460011,,,,,,,2025-02-19,1,,,,,コアラドライブアンジョウ,0
1908,7200001043442,新規,0,2025-02-19,2025-02-19,株式会社マコト工業,,株式会社,岐阜県,大垣市,野口１丁目１０３番地,,21,202,5030985,,,,,,,2025-02-19,1,,,,,マコトコウギョウ,0
1925,7290001108996,新規,0,2025-02-19,2025-02-19,株式会社グラフル,,株式会社,福岡県,福岡市中央区,天神２丁目２番１２号Ｔ＆Ｊビルディング７Ｆ,,40,133,8100001,,,,,,,2025-02-19,1,,,,,グラフル,0
1926,7290001109004,新規,0,2025-02-19,2025-02-19,株式会社ワイズ建装,,株式会社,福岡県,糟屋郡志免町,別府北１丁目１３番１－１１０７号,,40,343,8112233,,,,,,,2025-02-19,1,,,,,ワイズケンソウ,0
1927,7290001109012,新規,0,2025-02-19,2025-02-19,株式会社春海デザイン,,株式会社,福岡県,福岡市中央区,大名２丁目１０番４号シャンボール大名Ｄ棟５０６号,,40,133,8100041,,,,,,,2025-02-19,1,,,,,ハルミデザイン,0
1928,7290001109020,新規,0,2025-02-19,2025-02-19,ｉＴｒａｄｅ株式会社,,株式会社,福岡県,福岡市中央区,天神２丁目２番１２号Ｔ＆Ｊビルディング７Ｆ,,40,133,8100001,,,,,,,2025-02-19,1,,,,,アイトレード,0
1929,7290001109029,新規,0,2025-02-19,2025-02-19,株式会社ストーンビレッジ,,株式会社,福岡県,福岡市東区,馬出５丁目３４番４号,,40,131,8120054,,,,,,,2025-02-19,1,,,,,ストーンビレッジ,0
1930,7290001109053,新規,0,2025-02-19,2025-02-19,ＴｒｅＳｅｔｔｅ株式会社,,株式会社,福岡県,福岡市中央区,薬院２丁目１７番２３－３０４号,,40,133,8100022,,,,,,,2025-02-19,1,,,,,トレセッテ,0
1931,7290003016446,新規,0,2025-02-19,2025-02-19,合同会社Ｒ＆Ｕ,,合同会社,福岡県,福岡市南区,横手１丁目１４－１４,,40,134,8111311,,,,,,,2025-02-19,1,,,,,アールアンドユー,0
1941,7320003004579,新規,0,2025-02-19,2025-02-19,合同会社ＲＯＯＭ　ＣＲＵＩＳＩＮＧ,,合同会社,大分県,大分市,南春日町５番２４号,,44,201,8700815,,,,,,,2025-02-19,1,,,,,ルームクルージング,0
1944,7330003010849,新規,0,2025-02-19,2025-02-19,合同会社ソウ,,合同会社,熊本県,熊本市北区,飛田４丁目４番１５号,,43,105,8615514,,,,,,,2025-02-19,1,,,,,ソウ,0
1946,7340005009814,新規,0,2025-02-19,2025-02-19,社会福祉法人陽樹会,,その他の設立登記法人,鹿児島県,鹿児島市,川上町４６番地,,46,201,8920875,,,,,,,2025-02-19,1,,,,,ヨウジュカイ,0
1949,7360003014707,新規,0,2025-02-19,2025-02-19,合同会社金善建装,,合同会社,沖縄県,宮古島市,平良字下里１１０６番地１,,47,214,9060013,,,,,,,2025-02-19,1,,,,,キンゼンケンソウ,0
1950,7370001052253,新規,0,2025-02-19,2025-02-19,株式会社猫神神社,,株式会社,宮城県,伊具郡丸森町,大内字大平２５番地,,04,341,9812501,,,,,,,2025-02-19,1,,,,,ネコガミジンジャ,0
1951,7370003006942,新規,0,2025-02-19,2025-02-19,合同会社Ｋ’ｓ　Ｃｏｍｐａｎｙ,,合同会社,宮城県,仙台市宮城野区,榴岡３丁目９－２０－７０６,,04,102,9830852,,,,,,,2025-02-19,1,,,,,ケーズカンパニー,0
1957,7400001016948,新規,0,2025-02-19,2025-02-19,株式会社風と土,,株式会社,岩手県,北上市,大通り２丁目６番１１―６０４号,,03,206,0240061,,,,,,,2025-02-19,1,,,,,カゼトツチ,0
1958,7420001019016,新規,0,2025-02-19,2025-02-19,Ｋｉｒａｂｉ　Ｊａｐａｎ株式会社,,株式会社,青森県,八戸市,桜ケ丘２丁目２３番１７号,,02,203,0310834,,,,,,,2025-02-19,1,,,,,キラビジャパン,0
1959,7420001019024,新規,0,2025-02-19,2025-02-19,株式会社スプリング,,株式会社,青森県,八戸市,柏崎１丁目６番６号,,02,203,0310081,,,,,,,2025-02-19,1,,,,,スプリング,0
1979,8010001252334,新規,0,2025-02-19,2025-02-19,株式会社ドウラク,,株式会社,東京都,中央区,日本橋兜町１７番１号日本橋ロイヤルプラザ７０６,,13,102,1030026,,,,,,,2025-02-19,1,,,,,ドウラク,0
1980,8010001252342,新規,0,2025-02-19,2025-02-19,株式会社トランプ,,株式会社,東京都,中央区,京橋２丁目７番８号,,13,102,1040031,,,,,,,2025-02-19,1,,,,,トランプ,0
1981,8010001252350,新規,0,2025-02-19,2025-02-19,ラペティ株式会社,,株式会社,東京都,中央区,日本橋本町１丁目４番１号２階,,13,102,1030023,,,,,,,2025-02-19,1,,,,,ラペティ,0
1982,8010001252359,新規,0,2025-02-19,2025-02-19,株式会社ＹｏｕｒＳａｋｅ,,株式会社,東京都,中央区,銀座１丁目１２番４号Ｎ＆ＥＢＬＤ．６Ｆ,,13,102,1040061,,,,,,,2025-02-19,1,,,,,ユアサケ,0
1983,8010001252375,新規,0,2025-02-19,2025-02-19,ＭＩＴＯ　ＬＡＢ　ＪＡＰＡＮ株式会社,,株式会社,東京都,中央区,日本橋富沢町１１番１９号ＳＯＨＯ３０－１００１号,,13,102,1030006,,,,,,,2025-02-19,1,,,,,ミトラブジャパン,0
1984,8010001252409,新規,0,2025-02-19,2025-02-19,ＪＯＹ　Ｂｉｒｄｓ株式会社,,株式会社,東京都,千代田区,内神田１丁目１８番１１号東京ロイヤルプラザ１０１５号,,13,101,1010047,,,,,,,2025-02-19,1,,,,,ジョイバーズ,0
1985,8010001252458,新規,0,2025-02-19,2025-02-19,伸株式会社,,株式会社,東京都,千代田区,麹町１丁目８,,13,101,1020083,,,,,,,2025-02-19,1,,,,,シン,0
1986,8010001252466,新規,0,2025-02-19,2025-02-19,株式会社グリーティア,,株式会社,東京都,中央区,晴海５丁目５番２－３０４号,,13,102,1040053,,,,,,,2025-02-19,1,,,,,グリーティア,0
1988,8010003046453,新規,0,2025-02-19,2025-02-19,ＡＩ６合同会社,,合同会社,東京都,中央区,京橋２丁目１２番６号ＡＯＪ税理士法人内,,13,102,1040031,,,,,,,2025-02-19,1,,,,,エーアイシックス,0
2007,8010403034347,新規,0,2025-02-19,2025-02-19,ＴＵＬＩＰ　ＭＡＮＩＡ合同会社,,合同会社,東京都,港区,浜松町２丁目２番１５号浜松町ダイヤビル２Ｆ,,13,103,1050013,,,,,,,2025-02-19,1,,,,,チューリップマニア,0
2008,8010403034421,新規,0,2025-02-19,2025-02-19,合同会社Ｓ＆Ｔ,,合同会社,東京都,港区,赤坂４丁目１３－１,,13,103,1070052,,,,,,,2025-02-19,1,,,,,エスアンドティー,0
2031,8011103015562,新規,0,2025-02-19,2025-02-19,合同会社はたらくねこ,,合同会社,東京都,新宿区,新宿２丁目１２番１３号,,13,104,1600022,,,,,,,2025-02-19,1,,,,,ハタラクネコ,0
2035,8011201026131,新規,0,2025-02-19,2025-02-19,Ｂｙ３株式会社,,株式会社,東京都,中野区,中野３丁目３４番３２号,,13,114,1640001,,,,,,,2025-02-19,1,,,,,バイスリー,0
2038,8011301030363,新規,0,2025-02-19,2025-02-19,株式会社ワカモノリサーチ,,株式会社,東京都,杉並区,阿佐谷南３丁目４８番１２号,,13,115,1660004,,,,,,,2025-02-19,1,,,,,ワカモノリサーチ,0
2039,8011401026831,新規,0,2025-02-19,2025-02-19,浅忠株式会社,,株式会社,東京都,板橋区,常盤台２丁目１５番９号,,13,119,1740071,,,,,,,2025-02-19,1,,,,,アサチュウ,0
2041,8011405002374,新規,0,2025-02-19,2025-02-19,一般社団法人月久科学振興,,その他の設立登記法人,東京都,板橋区,加賀２丁目１１－１,,13,119,1730003,,,,,,,2025-02-19,1,,,,,ツキクカガクシンコウ,0
2044,8011501031731,新規,0,2025-02-19,2025-02-19,株式会社ＬｉＭｏｒｅ,,株式会社,東京都,北区,浮間３丁目６番１３－１０５号,,13,117,1150051,,,,,,,2025-02-19,1,,,,,リモア,0
2045,8011603004610,新規,0,2025-02-19,2025-02-19,才知合同会社,,合同会社,東京都,練馬区,関町南４丁目１７番３－１０１号,,13,120,1770053,,,,,,,2025-02-19,1,,,,,サイチ,0
2047,8011801045646,新規,0,2025-02-19,2025-02-19,株式会社リンデンコーポレーション,,株式会社,東京都,葛飾区,亀有３丁目１４番９号プリムロウズ島田６０１号,,13,122,1250061,,,,,,,2025-02-19,1,,,,,リンデンコーポレーション,0
2049,8011803006679,新規,0,2025-02-19,2025-02-19,ｒａｂｂｙ　ｐｌａｎｔ合同会社,,合同会社,東京都,足立区,足立４丁目３３－１ＺＫＹビル３０５号,,13,121,1200015,,,,,,,2025-02-19,1,,,,,ラビプラント,0
2050,8012401042793,新規,0,2025-02-19,2025-02-19,株式会社レアカノア,,株式会社,東京都,多摩市,関戸４丁目８番地の１１サンクレイドル聖蹟桜ヶ丘レジデンス８０６,,13,224,2060011,,,,,,,2025-02-19,1,,,,,レアカノア,0
2053,8012703003205,新規,0,2025-02-19,2025-02-19,合同会社バレニア,,合同会社,東京都,小平市,回田町２４７番地の８ヴィラあかねＣ－２０２,,13,211,1870013,,,,,,,2025-02-19,1,,,,,バレニア,0
2058,8013301053781,新規,0,2025-02-19,2025-02-19,株式会社Ｅａｓｙ　Ｐｅａｓｙ,,株式会社,東京都,豊島区,高松３丁目１２番１号,,13,116,1710042,,,,,,,2025-02-19,1,,,,,イージーピージー,0
2063,8020001161443,新規,0,2025-02-19,2025-02-19,株式会社龍将,,株式会社,神奈川県,横浜市南区,庚台８８番地４－２０５,,14,105,2320008,,,,,,,2025-02-19,1,,,,,リュウショウ,0
2064,8020001161501,新規,0,2025-02-19,2025-02-19,株式会社エヌスタイル,,株式会社,神奈川県,川崎市宮前区,菅生２丁目２８番１２号,,14,136,2160015,,,,,,,2025-02-19,1,,,,,エヌスタイル,0
2065,8020001161526,新規,0,2025-02-19,2025-02-19,株式会社楓の風メディカルマネジメント,,株式会社,神奈川県,横浜市神奈川区,鶴屋町３丁目３２番地１３,,14,102,2210835,,,,,,,2025-02-19,1,,,,,カエデノカゼメディカルマネジメント,0
2076,8040001137391,新規,0,2025-02-19,2025-02-19,株式会社きぼうインターナショナル,,株式会社,千葉県,船橋市,芝山４丁目５－２シンフォニア弐番館１０１,,12,204,2740816,,,,,,,2025-02-19,1,,,,,キボウインターナショナル,0
2077,8040001137441,新規,0,2025-02-19,2025-02-19,株式会社アスファルター,,株式会社,千葉県,旭市,新町１０３６番地４,,12,215,2892501,,,,,,,2025-02-19,1,,,,,アスファルター,0
2078,8040001137458,新規,0,2025-02-19,2025-02-19,株式会社Ｋｒｏｎｏｓ,,株式会社,千葉県,夷隅郡御宿町,上布施３０３９番地,,12,443,2995111,,,,,,,2025-02-19,1,,,,,クロノス,0
2081,8040003026907,新規,0,2025-02-19,2025-02-19,合同会社ＪＭＳ．,,合同会社,千葉県,木更津市,羽鳥野５丁目１１番１号,,12,206,2920819,,,,,,,2025-02-19,1,,,,,ジェイエムエス,0
2083,8050003009035,新規,0,2025-02-19,2025-02-19,Ａｍａｚｉｎｇ合同会社,,合同会社,茨城県,土浦市,神立中央３丁目３－４－２Ｆ,,08,203,3000011,,,,,,,2025-02-19,1,,,,,アメージング,0
2084,8050005013563,新規,0,2025-02-19,2025-02-19,社会福祉法人きなり,,その他の設立登記法人,茨城県,筑西市,玉戸１２８９番地３８,,08,227,3080847,,,,,,,2025-02-19,1,,,,,キナリ,0
2085,8060001037929,新規,0,2025-02-19,2025-02-19,株式会社ＫＩＹＯＳＨＩ　ＪＡＰＡＮ,,株式会社,栃木県,下都賀郡野木町,大字南赤塚２３４７番地６,,09,364,3290112,,,,,,,2025-02-19,1,,,,,キヨシジャパン,0
2087,8080102000049,新規,0,2025-02-19,2025-02-19,青木冷熱工業有限会社,,有限会社,静岡県,沼津市,三枚橋町４番１７号,,22,203,4100037,,,,,,,2025-02-19,1,,,,,アオキレイネツコウギョウ,0
2095,8100001038311,新規,0,2025-02-19,2025-02-19,株式会社永原,,株式会社,長野県,塩尻市,大字宗賀４８９番地３,,20,215,3996461,,,,,,,2025-02-19,1,,,,,ナガハラ,0
2103,8120001273030,新規,0,2025-02-19,2025-02-19,株式会社ＧＰコンサルティング,,株式会社,大阪府,大阪市福島区,海老江３丁目２３番４３－１００３号,,27,103,5530001,,,,,,,2025-02-19,1,,,,,ジーピーコンサルティング,0
2104,8120001273063,新規,0,2025-02-19,2025-02-19,株式会社Ｖａｌｕｅ,,株式会社,大阪府,守口市,大枝東町５番１０号,,27,209,5700036,,,,,,,2025-02-19,1,,,,,バリュー,0
2107,8120003028663,新規,0,2025-02-19,2025-02-19,合同会社ＢａｎｄｅＸ,,合同会社,大阪府,枚方市,東船橋２丁目２番６号,,27,210,5731115,,,,,,,2025-02-19,1,,,,,バンデックス,0
2110,8120005024801,新規,0,2025-02-19,2025-02-19,一般社団法人ともメディカル管理センター,,その他の設立登記法人,大阪府,寝屋川市,石津中町３４番２２号,,27,215,5720026,,,,,,,2025-02-19,1,,,,,トモメディカルカンリセンター,0
2113,8120101071086,新規,0,2025-02-19,2025-02-19,株式会社ミヤムラ,,株式会社,大阪府,南河内郡河南町,大字一須賀５８１番地,,27,382,5850002,,,,,,,2025-02-19,1,,,,,ミヤムラ,0
2114,8120101071094,新規,0,2025-02-19,2025-02-19,株式会社アドバンステック,,株式会社,大阪府,松原市,岡３丁目９番２７号,,27,217,5800014,,,,,,,2025-02-19,1,,,,,アドバンステック,0
2125,8130003010216,新規,0,2025-02-19,2025-02-19,旺盛合同会社,,合同会社,京都府,京田辺市,河原北口４３番地３・５０９,,26,211,6100361,,,,,,,2025-02-19,1,,,,,オウセイ,0
2126,8130005017291,新規,0,2025-02-19,2025-02-19,一般社団法人Ｇｌｏｃａｌ　Ｓｏｌｕｔｉｏｎｓ　ｆｒｏｍ　Ｃｌａｓｓｒｏｏｍ,,その他の設立登記法人,京都府,久世郡久御山町,藤和田馬場崎野２２番地７,,26,322,6130044,,,,,,,2025-02-19,1,,,,,グローカルソリューションズフロムクラスルーム,0
2127,8140001137423,新規,0,2025-02-19,2025-02-19,株式会社プレイス,,株式会社,兵庫県,西宮市,樋之池町１０番１５号,,28,204,6620084,,,,,,,2025-02-19,1,,,,,プレイス,0
2128,8140001137448,新規,0,2025-02-19,2025-02-19,ＴＣ　Ｈｏｍｅ　Ｌａｂｏ株式会社,,株式会社,兵庫県,芦屋市,大東町９番１－６０５号,,28,206,6590023,,,,,,,2025-02-19,1,,,,,ティーシーホームラボ,0
2130,8140003021674,新規,0,2025-02-19,2025-02-19,合同会社ｋｏｍａｋｉｃｈｉ,,合同会社,兵庫県,姫路市,大津区天神町１丁目４１番地１,,28,201,6711131,,,,,,,2025-02-19,1,,,,,コマキチ,0
2132,8150001027879,新規,0,2025-02-19,2025-02-19,株式会社だからこそ,,株式会社,奈良県,北葛城郡王寺町,王寺１丁目２番１０号２Ｆ,,29,425,6360002,,,,,,,2025-02-19,1,,,,,ダカラコソ,0
2133,8150001027887,新規,0,2025-02-19,2025-02-19,青空キャンパーズ株式会社,,株式会社,奈良県,奈良市,秋篠町５７５番地１９,,29,201,6310811,,,,,,,2025-02-19,1,,,,,ソラキャンパーズ,0
2134,8160005011374,新規,0,2025-02-19,2025-02-19,一般社団法人栗東引退競走馬支援協会,,その他の設立登記法人,滋賀県,栗東市,荒張３４１,,25,208,5203003,,,,,,,2025-02-19,1,,,,,リットウインタイキョウソウバシエンキョウカイ,0
2135,8180001165486,新規,0,2025-02-19,2025-02-19,株式会社Ａ・Ｔ・Ｒ,,株式会社,愛知県,春日井市,瑞穂通１丁目３０番地瑞穂荘１号,,23,206,4860845,,,,,,,2025-02-19,1,,,,,エーティーアール,0
2136,8180001165494,新規,0,2025-02-19,2025-02-19,株式会社ｅｌｅｖｅｎ,,株式会社,愛知県,東海市,名和町１丁目８５番地ＡＲＭＯＵＲ　ＨＯＵＳＥ３０１,,23,222,4760002,,,,,,,2025-02-19,1,,,,,イレブン,0
2137,8180001165511,新規,0,2025-02-19,2025-02-19,株式会社ＯＧＡＺＯＮ,,株式会社,愛知県,一宮市,多加木２丁目４番３７号,,23,203,4910837,,,,,,,2025-02-19,1,,,,,オガゾン,0
2138,8180001165528,新規,0,2025-02-19,2025-02-19,株式会社Ｍ’ｓ,,株式会社,愛知県,名古屋市中村区,豊国通１丁目１８番地トワエ豊国ビル４階,,23,105,4530834,,,,,,,2025-02-19,1,,,,,エムズ,0
2142,8180301039522,新規,0,2025-02-19,2025-02-19,名古屋総合サポート株式会社,,株式会社,愛知県,豊田市,渋谷町２丁目５６番地１,,23,211,4710808,,,,,,,2025-02-19,1,,,,,ナゴヤソウゴウサポート,0
2143,8180301039530,新規,0,2025-02-19,2025-02-19,株式会社Ｎ’ｓレインディア,,株式会社,愛知県,豊橋市,東田町１５２番地,,23,201,4400048,,,,,,,2025-02-19,1,,,,,エヌズレインディア,0
2144,8180301039539,新規,0,2025-02-19,2025-02-19,パランテ人材サポート株式会社,,株式会社,愛知県,碧南市,伊勢町１丁目７７番地,,23,209,4470837,,,,,,,2025-02-19,1,,,,,パランテジンザイサポート,0
2145,8190001031992,新規,0,2025-02-19,2025-02-19,永勝株式会社,,株式会社,三重県,松阪市,久保町１８４３番地１０９メゾンドフルールＩ１０５号室,00138060,24,204,5150044,,,,,,,2025-02-19,1,,,,,エイショウ,0
2146,8190001032009,新規,0,2025-02-19,2025-02-19,西玲株式会社,,株式会社,三重県,いなべ市,藤原町古田１４７３番地１,,24,214,5110521,,,,,,,2025-02-19,1,,,,,セイリン,0
2150,8200001043441,新規,0,2025-02-19,2025-02-19,株式会社宮島精肉店,,株式会社,岐阜県,多治見市,姫町１丁目５８番地の５２,,21,204,5070061,,,,,,,2025-02-19,1,,,,,ミヤジマセイニクテン,0
2151,8200003006702,新規,0,2025-02-19,2025-02-19,ウィノウ合同会社,,合同会社,岐阜県,多治見市,大針町６５５番地の１１９,,21,204,5070062,,,,,,,2025-02-19,1,,,,,ウィノウ,0
2153,8220001026394,新規,0,2025-02-19,2025-02-19,ＦｕｔｕｒｅＲｅａｄｙ　Ｅｄｕｃａｔｉｏｎ株式会社,,株式会社,石川県,加賀市,大聖寺八間道６５番地加賀市イノベーションセンター,,17,206,9220057,,,,,,,2025-02-19,1,,,,,フューチャーレディーエデュケーション,0
2166,8250003003653,新規,0,2025-02-19,2025-02-19,はなさき合同会社,,合同会社,山口県,宇部市,開４丁目１６番４１－３号,,35,202,7550096,,,,,,,2025-02-19,1,,,,,ハナサキ,0
2173,8260001039921,新規,0,2025-02-19,2025-02-19,クロスバウンダリーズジャパン株式会社,,株式会社,岡山県,岡山市北区,中山下１丁目１１番１５号新田第１ビル４０２,,33,101,7000821,,,,,,,2025-02-19,1,,,,,クロスバウンダリーズジャパン,0
2179,8290001108987,新規,0,2025-02-19,2025-02-19,株式会社茶屋暁,,株式会社,福岡県,糸島市,志摩新町２１番地３－１Ｆ,,40,230,8191333,,,,,,,2025-02-19,1,,,,,チャヤアカツキ,0
2180,8290001109011,新規,0,2025-02-19,2025-02-19,株式会社本職舎,,株式会社,福岡県,糟屋郡篠栗町,和田２丁目３番２８号,,40,342,8112414,,,,,,,2025-02-19,1,,,,,ホンショクシャ,0
2181,8290001109044,新規,0,2025-02-19,2025-02-19,株式会社一志,,株式会社,福岡県,大野城市,畑ケ坂１丁目８番１０号,,40,219,8160982,,,,,,,2025-02-19,1,,,,,イッシン,0
2182,8290001109060,新規,0,2025-02-19,2025-02-19,株式会社出口不動産,,株式会社,福岡県,飯塚市,新立岩８－４０ロマネスクニュー飯塚５０２号,,40,205,8200004,,,,,,,2025-02-19,1,,,,,デグチフドウサン,0
2185,8320001020949,新規,0,2025-02-19,2025-02-19,岩崎保温株式会社,00138055,株式会社,大分県,大分市,小中島１丁目２番１１号,,44,201,8700114,,,,,,,2025-02-19,1,,,,,イワサキホオン,0
2186,8320003004578,新規,0,2025-02-19,2025-02-19,合同会社スタリオン日田,,合同会社,大分県,日田市,大字東有田５６９番地,,44,204,8770000,,,,,,,2025-02-19,1,,,,,スタリオンヒタ,0
2190,8330001032893,新規,0,2025-02-19,2025-02-19,株式会社ダンライフ,,株式会社,熊本県,熊本市東区,保田窪本町４番３２号,,43,102,8620925,,,,,,,2025-02-19,1,,,,,ダンライフ,0
2193,8340001027117,新規,0,2025-02-19,2025-02-19,株式会社ダンデンキ,,株式会社,鹿児島県,鹿児島市,川上町７６３番地１,,46,201,8920875,,,,,,,2025-02-19,1,,,,,ダンデンキ,0
2197,8360001034805,新規,0,2025-02-19,2025-02-19,株式会社和こう不動産,,株式会社,沖縄県,那覇市,銘苅１丁目３番６号Ａー１,,47,201,9000004,,,,,,,2025-02-19,1,,,,,ワコウフドウサン,0
2199,8360003014706,新規,0,2025-02-19,2025-02-19,合同会社Ｚｉｔａｎ,,合同会社,沖縄県,糸満市,字糸満１８３番地Ｂ１階,,47,210,9010361,,,,,,,2025-02-19,1,,,,,ジタン,0
2200,8370001052244,新規,0,2025-02-19,2025-02-19,株式会社量り売りの学校,,株式会社,宮城県,大崎市,岩出山下野目字大下１７０番地の１,,04,215,9896412,,,,,,,2025-02-19,1,,,,,ハカリウリノガッコウ,0
2202,8380001035099,新規,0,2025-02-19,2025-02-19,株式会社福大,,株式会社,福島県,福島市,八木田字神明１４９番地の１,,07,201,9608164,,,,,,,2025-02-19,1,,,,,フクダイ,0
2203,8380003005959,新規,0,2025-02-19,2025-02-19,合同会社ＧＳ企画,,合同会社,福島県,白河市,風神下３７番地２,,07,205,9610861,,,,,,,2025-02-19,1,,,,,ジーエスキカク,0
2206,8400003003398,新規,0,2025-02-19,2025-02-19,合同会社ぶしがみ,,合同会社,岩手県,花巻市,下小舟渡１番地,,03,205,0250063,,,,,,,2025-02-19,1,,,,,ブシガミ,0
2210,8420001019023,新規,0,2025-02-19,2025-02-19,株式会社Ｏｆｆｉｃｅ　Ｔｏｙｏ,,株式会社,青森県,三沢市,東町４丁目４番地１号,,02,207,0330034,,,,,,,2025-02-19,1,,,,,オフィストヨ,0
2212,8430001093703,新規,0,2025-02-19,2025-02-19,株式会社ミカサホールディングス,,株式会社,北海道,日高郡新ひだか町,静内末広町３丁目１番５１号,,01,610,0560026,,,,,,,2025-02-19,1,,,,,ミカサホールディングス,0
2214,8430003017305,新規,0,2025-02-19,2025-02-19,合同会社橘,,合同会社,北海道,札幌市豊平区,西岡四条８丁目４番１号,,01,105,0620034,,,,,,,2025-02-19,1,,,,,タチバナ,0
2222,8500001026143,新規,0,2025-02-19,2025-02-19,株式会社３６９,,株式会社,愛媛県,今治市,野間甲１０５番地,,38,202,7940082,,,,,,,2025-02-19,1,,,,,ミロク,0
2235,9010001252408,新規,0,2025-02-19,2025-02-19,サンバスク・キャピタル株式会社,,株式会社,東京都,中央区,京橋１丁目２番５号京橋ＴＤビル７Ｆ,,13,102,1040031,,,,,,,2025-02-19,1,,,,,サンバスクキャピタル,0
2236,9010001252416,新規,0,2025-02-19,2025-02-19,ＫＬＫＧロジスティックスホールディングス株式会社,,株式会社,東京都,千代田区,内幸町２丁目１番１号,,13,101,1000011,,,,,,,2025-02-19,1,,,,,ケーエルケージーロジスティックスホールディングス,0
2237,9010001252424,新規,0,2025-02-19,2025-02-19,株式会社ｔｅｍａｒｉｋａ,,株式会社,東京都,千代田区,麹町６丁目６番地２番町麹町ビルディング５Ｆ,,13,101,1020083,,,,,,,2025-02-19,1,,,,,テマリカ,0
2238,9010001252432,新規,0,2025-02-19,2025-02-19,株式会社Ｌ＆Ｌ,,株式会社,東京都,中央区,銀座１丁目１２番４号Ｎ＆ＥＢＬＤ．６Ｆ,,13,102,1040061,,,,,,,2025-02-19,1,,,,,エルアンドエル,0
2239,9010001252440,新規,0,2025-02-19,2025-02-19,ふじさん株式会社,,株式会社,東京都,中央区,日本橋人形町１丁目１２番１１－２００４号,,13,102,1030013,,,,,,,2025-02-19,1,,,,,フジサン,0
2240,9010001252449,新規,0,2025-02-19,2025-02-19,株式会社メディトラベル,,株式会社,東京都,千代田区,神田三崎町２丁目１５番４号ＪＬＢグランエクリュ水道橋６Ｆ,,13,101,1010061,,,,,,,2025-02-19,1,,,,,メディトラベル,0
2246,9010003046452,新規,0,2025-02-19,2025-02-19,ＡＩ５合同会社,,合同会社,東京都,中央区,京橋２丁目１２番６号ＡＯＪ税理士法人内,,13,102,1040031,,,,,,,2025-02-19,1,,,,,エーアイファイブ,0
2247,9010005039586,新規,0,2025-02-19,2025-02-19,一般社団法人八重洲総合研究所,,その他の設立登記法人,東京都,千代田区,丸の内１丁目９番２号,,13,101,1000005,,,,,,,2025-02-19,1,,,,,ヤエスソウゴウケンキュウジョ,0
2256,9010401188334,新規,0,2025-02-19,2025-02-19,株式会社トヨルカ,,株式会社,東京都,港区,西新橋２丁目４－３プロス西新橋ビル７０８,,13,103,1050003,,,,,,,2025-02-19,1,,,,,トヨルカ,0
2257,9010401188342,新規,0,2025-02-19,2025-02-19,株式会社東京ベビーケア,,株式会社,東京都,港区,南青山２丁目１４－１３ハイムスズキＩ２階,00138056,13,103,1070062,,,,,,,2025-02-19,1,,,,,トウキョウベビーケア,0
2264,9010801035862,新規,0,2025-02-19,2025-02-19,株式会社ＡＭＲＡＰ,,株式会社,東京都,大田区,中馬込１丁目５－１３,,13,111,1430027,,,,,,,2025-02-19,1,,,,,アムラップ,0
2272,9011003021057,新規,0,2025-02-19,2025-02-19,ＳＳＫ４６合同会社,,合同会社,東京都,渋谷区,神宮前６丁目２３番４号桑野ビル２階,,13,113,1500001,,,,,,,2025-02-19,1,,,,,エスエスケイフォーティーシックス,0
2276,9011101110678,新規,0,2025-02-19,2025-02-19,株式会社ＥＡＺＹ　ＳＯＬＵＴＩＯＮＳ,,株式会社,東京都,新宿区,百人町１丁目７番３号第二富士電工ビル２０５号室,,13,104,1690073,,,,,,,2025-02-19,1,,,,,イージーソリューション,0
2277,9011101110686,新規,0,2025-02-19,2025-02-19,株式会社アトレイズ,,株式会社,東京都,新宿区,西新宿１丁目２６番２号新宿野村ビル３２階,,13,104,1600023,,,,,,,2025-02-19,1,,,,,アトレイズ,0
2278,9011101110703,新規,0,2025-02-19,2025-02-19,株式会社ワイズウルフ,,株式会社,東京都,新宿区,新宿２丁目１２番１３号新宿アントレサロンビル２階,,13,104,1600022,,,,,,,2025-02-19,1,,,,,ワイズウルフ,0
2282,9011103015553,新規,0,2025-02-19,2025-02-19,合同会社ＲＮＡ,,合同会社,東京都,新宿区,若松町７番１－４１０号,,13,104,1620056,,,,,,,2025-02-19,1,,,,,アールエヌエー,0
2283,9011403004628,新規,0,2025-02-19,2025-02-19,合同会社相談ホットライン,,合同会社,東京都,板橋区,徳丸４丁目２３番１４号トーキョーベータ東武練馬６－２０１,,13,119,1750083,,,,,,,2025-02-19,1,,,,,ソウダンホットライン,0
2284,9011501031722,新規,0,2025-02-19,2025-02-19,三石株式会社,,株式会社,東京都,荒川区,東日暮里１丁目１６－１モンシェール三ノ輪３０５,,13,118,1160014,,,,,,,2025-02-19,1,,,,,サンセキ,0
2285,9011501031730,新規,0,2025-02-19,2025-02-19,株式会社ポジティブ．トーキョー,,株式会社,東京都,北区,志茂２丁目３７番７号,,13,117,1150042,,,,,,,2025-02-19,1,,,,,,0
2287,9011701028072,新規,0,2025-02-19,2025-02-19,ハービーランド株式会社,,株式会社,東京都,江戸川区,南小岩８丁目８番５号レオ小岩３Ｆ,,13,123,1330056,,,,,,,2025-02-19,1,,,,,ハービーランド,0
2294,9012401042768,新規,0,2025-02-19,2025-02-19,株式会社Ｏｆｆｉｃｅ　Ｃ＆Ｇ,,株式会社,東京都,三鷹市,下連雀８丁目１０番３－６０３号,,13,204,1810013,,,,,,,2025-02-19,1,,,,,オフィスシーアンドジー,0
2297,9012703003204,新規,0,2025-02-19,2025-02-19,合同会社ａｏａ,,合同会社,東京都,西東京市,保谷町２丁目３番１０号,,13,229,2020015,,,,,,,2025-02-19,1,,,,,エーオーエー,0
2299,9012803003632,新規,0,2025-02-19,2025-02-19,合同会社ｓｗａｎ　ｐｒｏｊｅｃｔ,,合同会社,東京都,国立市,東１丁目１５－２２,,13,215,1860002,,,,,,,2025-02-19,1,,,,,スワンプロジェクト,0
2300,9013301053789,新規,0,2025-02-19,2025-02-19,株式会社Ｒｕｂｙ　Ｌａｎｄ,,株式会社,東京都,豊島区,池袋２丁目７８番８号若葉ハイツ３０２号,,13,116,1710014,,,,,,,2025-02-19,1,,,,,ルビーランド,0
2305,9020001161525,新規,0,2025-02-19,2025-02-19,ビリオンエネルギー株式会社,,株式会社,神奈川県,川崎市中原区,新丸子東３丁目４４７番８号ｅｓｔａＶＩＶＯ武蔵小杉,,14,133,2110004,,,,,,,2025-02-19,1,,,,,ビリオンエネルギー,0
2306,9020001161541,新規,0,2025-02-19,2025-02-19,株式会社ケイズ・オフィス,,株式会社,神奈川県,横浜市港北区,新吉田東４丁目４番３－２０３号,,14,109,2230058,,,,,,,2025-02-19,1,,,,,ケイズオフィス,0
2310,9020003027880,新規,0,2025-02-19,2025-02-19,ＳＨＩ合同会社,,合同会社,神奈川県,横浜市中区,元浜町３丁目２３番地プロスタイル横浜馬車道１００３号室,,14,104,2310004,,,,,,,2025-02-19,1,,,,,エスエイチアイ,0
2313,9021001084492,新規,0,2025-02-19,2025-02-19,株式会社ＡＫＳＨ,,株式会社,神奈川県,伊勢原市,串橋１０１番地の１３,,14,214,2591136,,,,,,,2025-02-19,1,,,,,アクシュ,0
2316,9021003015603,新規,0,2025-02-19,2025-02-19,合同会社イージーダーブ,,合同会社,神奈川県,逗子市,桜山４丁目１４番地４４号,,14,208,2490005,,,,,,,2025-02-19,1,,,,,イージーダーブ,0
2321,9030001164840,新規,0,2025-02-19,2025-02-19,明赫株式会社,,株式会社,埼玉県,狭山市,新狭山２丁目１９－９－２０１,,11,215,3501331,,,,,,,2025-02-19,1,,,,,メイカク,0
2322,9030003026155,新規,0,2025-02-19,2025-02-19,合同会社ロシェナ,,合同会社,埼玉県,比企郡嵐山町,むさし台２丁目３－１４,,11,342,3550216,,,,,,,2025-02-19,1,,,,,ロシェナ,0
2329,9040001137432,新規,0,2025-02-19,2025-02-19,株式会社Ｏ．ｈａｎａ,,株式会社,千葉県,安房郡鋸南町,元名４４７番地,,12,463,2991901,,,,,,,2025-02-19,1,,,,,オハナ,0
2330,9040001137457,新規,0,2025-02-19,2025-02-19,株式会社湯浅電設,,株式会社,千葉県,松戸市,根木内１２２番地の４,,12,207,2700011,,,,,,,2025-02-19,1,,,,,ユアサデンセツ,0
2331,9040001137465,新規,0,2025-02-19,2025-02-19,株式会社Ｍｉｒａｉ‐ｅ,,株式会社,千葉県,松戸市,六実２丁目５２番地の４,,12,207,2702204,,,,,,,2025-02-19,1,,,,,ミライエ,0
2332,9040001137473,新規,0,2025-02-19,2025-02-19,株式会社９９９ファーム,,株式会社,千葉県,香取市,一ノ分目１０２４番地,,12,236,2890301,,,,,,,2025-02-19,1,,,,,スリーナインファーム,0
2335,9040003026897,新規,0,2025-02-19,2025-02-19,エレックプロ合同会社,,合同会社,千葉県,千葉市稲毛区,天台６丁目９番１号,,12,103,2630016,,,,,,,2025-02-19,1,,,,,エレックプロ,0
2344,9080001026763,新規,0,2025-02-19,2025-02-19,株式会社菅原組,,株式会社,静岡県,静岡市駿河区,大和２丁目２番２７号,,22,102,4228077,,,,,,,2025-02-19,1,,,,,スガワラグミ,0
2346,9080101025319,新規,0,2025-02-19,2025-02-19,ボンボニエール株式会社,,株式会社,静岡県,駿東郡長泉町,中土狩６１２－７,,22,342,4110942,,,,,,,2025-02-19,1,,,,,ボンボニエール,0
2350,9100001038310,新規,0,2025-02-19,2025-02-19,株式会社Ｍｉｎａｓ,,株式会社,長野県,上田市,下之郷３７５番地１シェーナーヴァルトＡ２０１号,,20,203,3861211,,,,,,,2025-02-19,1,,,,,ミナス,0
2365,9120001272997,新規,0,2025-02-19,2025-02-19,株式会社ポスト,,株式会社,大阪府,大阪市中央区,南船場１丁目６番１２号,,27,128,5420081,,,,,,,2025-02-19,1,,,,,ポスト,0
2366,9120001273013,新規,0,2025-02-19,2025-02-19,Ｊｏｍａ株式会社,,株式会社,大阪府,枚方市,楠葉美咲２丁目７番１２号,,27,210,5731112,,,,,,,2025-02-19,1,,,,,ジョマ,0
2367,9120001273021,新規,0,2025-02-19,2025-02-19,株式会社ＣＲＥＳＣ,,株式会社,大阪府,守口市,南寺方東通４丁目１１番３号,,27,209,5700043,,,,,,,2025-02-19,1,,,,,クレスク,0
2370,9120003028621,新規,0,2025-02-19,2025-02-19,ネクストソリューションズ合同会社,,合同会社,大阪府,大阪市平野区,加美西１丁目８番５号,,27,126,5470005,,,,,,,2025-02-19,1,,,,,ネクストソリューションズ,0
2371,9120003028654,新規,0,2025-02-19,2025-02-19,ＲＵＣＨＩＴ合同会社,,合同会社,大阪府,大阪市都島区,中野町４丁目１８－１,,27,102,5340027,,,,,,,2025-02-19,1,,,,,ルチット,0
2376,9120005024800,新規,0,2025-02-19,2025-02-19,一般社団法人えがお,,その他の設立登記法人,大阪府,大阪市生野区,田島６丁目７－３,,27,116,5440011,,,,,,,2025-02-19,1,,,,,エガオ,0
2382,9130003010207,新規,0,2025-02-19,2025-02-19,合同会社ＮＡＫＡＴＳＵＫＡ,,合同会社,京都府,京都市南区,東九条西明田町９２番地,,26,107,6018045,,,,,,,2025-02-19,1,,,,,ナカツカ,0
2383,9130005017290,新規,0,2025-02-19,2025-02-19,一般財団法人医療コミュニケーション能力検定協会,,その他の設立登記法人,京都府,京都市中京区,高倉通御池上る柊町５８３番地２,,26,104,6040826,,,,,,,2025-02-19,1,,,,,イリョウコミュニケーションノウリョクケンテイキョウカイ,0
2392,9140001137439,新規,0,2025-02-19,2025-02-19,株式会社ＭＭワン,,株式会社,兵庫県,芦屋市,親王塚町３－１６－１０１,,28,206,6590016,,,,,,,2025-02-19,1,,,,,エムエムワン,0
2393,9140001137455,新規,0,2025-02-19,2025-02-19,株式会社アイケーユー,,株式会社,兵庫県,芦屋市,大原町８番２－２階Ａ,,28,206,6590092,,,,,,,2025-02-19,1,,,,,アイケーユー,0
2394,9140001137488,新規,0,2025-02-19,2025-02-19,株式会社創場パートナーズ,,株式会社,兵庫県,芦屋市,茶屋之町２－２４,,28,206,6590067,,,,,,,2025-02-19,1,,,,,ソウバパートナーズ,0
2398,9140003021681,新規,0,2025-02-19,2025-02-19,合同会社ｍｉｍｏｓａ,,合同会社,兵庫県,神戸市北区,小倉台６丁目３１番地の２６,,28,109,6511211,,,,,,,2025-02-19,1,,,,,ミモザ,0
2400,9160001026549,新規,0,2025-02-19,2025-02-19,金子ホールディングス株式会社,,株式会社,滋賀県,大津市,丸の内町２番２３号,,25,201,5200813,,,,,,,2025-02-19,1,,,,,カネコホールディングス,0
2402,9170003002167,新規,0,2025-02-19,2025-02-19,大唐合同会社,,合同会社,和歌山県,和歌山市,有本５５４番地３、１０１号室,,30,201,6408390,,,,,,,2025-02-19,1,,,,,ダイトウ,0
2406,9180001165460,新規,0,2025-02-19,2025-02-19,ａｙ株式会社,,株式会社,愛知県,名古屋市中村区,名駅４丁目８番２６号エニシオ名駅１６階,,23,105,4500002,,,,,,,2025-02-19,1,,,,,アイ,0
2407,9180001165469,新規,0,2025-02-19,2025-02-19,株式会社ＧＡＫＵ,,株式会社,愛知県,愛西市,諸桑町郷城１９８番地２,,23,232,4968005,,,,,,,2025-02-19,1,,,,,ガク,0
2408,9180001165477,新規,0,2025-02-19,2025-02-19,株式会社ＡＬＳ,,株式会社,愛知県,あま市,森５丁目６番地１０,,23,237,4901107,,,,,,,2025-02-19,1,,,,,エイエルエス,0
2409,9180001165485,新規,0,2025-02-19,2025-02-19,株式会社野村建装,,株式会社,愛知県,名古屋市守山区,金屋２丁目３１番地,,23,113,4630072,,,,,,,2025-02-19,1,,,,,ノムラケンソウ,0
2410,9180001165493,新規,0,2025-02-19,2025-02-19,株式会社アイム,,株式会社,愛知県,半田市,浜田町２丁目７番地の２,,23,205,4750805,,,,,,,2025-02-19,1,,,,,アイム,0
2411,9180001165502,新規,0,2025-02-19,2025-02-19,ＨａｍａＤｅｎ株式会社,,株式会社,愛知県,名古屋市中区,錦１丁目１８番２４号いちご伏見ビル３Ｆ,,23,106,4600003,,,,,,,2025-02-19,1,,,,,ハマデン,0
2412,9180001165519,新規,0,2025-02-19,2025-02-19,株式会社ＫＡＲＥＮ,,株式会社,愛知県,名古屋市北区,中切町４丁目６８番地の２,,23,103,4620051,,,,,,,2025-02-19,1,,,,,カレン,0
2413,9180001165527,新規,0,2025-02-19,2025-02-19,株式会社ＳＥＩＫＯ,,株式会社,愛知県,あま市,森８丁目１５番地１,,23,237,4901107,,,,,,,2025-02-19,1,,,,,セイコ,0
2417,9180301039538,新規,0,2025-02-19,2025-02-19,株式会社ＩＴＯ　ｓａｌｅｓ＆ｔｒａｄｉｎｇ,,株式会社,愛知県,岡崎市,大門５丁目９番地１,,23,202,4442135,,,,,,,2025-02-19,1,,,,,イトウセールスアンドトレイディング,0
2418,9200001043449,新規,0,2025-02-19,2025-02-19,株式会社ＹＯＵ　ＰＬＡＮＮＩＮＧ,,株式会社,岐阜県,瑞穂市,牛牧８４５番地８,,21,216,5010234,,,,,,,2025-02-19,1,,,,,ユープランニング,0
2419,9200003006701,新規,0,2025-02-19,2025-02-19,合同会社Ｙｏｌｏ,,合同会社,岐阜県,岐阜市,薮田東２丁目２番１号,,21,201,5008382,,,,,,,2025-02-19,1,,,,,ヨロ,0
2428,9260001039912,新規,0,2025-02-19,2025-02-19,株式会社ＤＸＸＸ,,株式会社,岡山県,岡山市北区,大供本町７０８番地７Ｋ３０１,,33,101,7000911,,,,,,,2025-02-19,1,,,,,ディークロス,0
2429,9260003005061,新規,0,2025-02-19,2025-02-19,コトラト合同会社,,合同会社,岡山県,井原市,高屋町５丁目１６番地８,,33,207,7150024,,,,,,,2025-02-19,1,,,,,コトラト,0
2438,9290001109002,新規,0,2025-02-19,2025-02-19,株式会社Ｒｏｏｍｙ＆ｃｏ．,,株式会社,福岡県,福岡市中央区,天神３丁目１番１３－５０１号,,40,133,8100001,,,,,,,2025-02-19,1,,,,,ルーミーアンドコー,0
2440,9290003016444,新規,0,2025-02-19,2025-02-19,Ｇｏｏｄ　Ｃｏｎｎｅｃｔｉｏｎ合同会社,,合同会社,福岡県,福岡市中央区,春吉３丁目２３番２７－４０７号,,40,133,8100003,,,,,,,2025-02-19,1,,,,,グッドコネクション,0
2441,9310001019454,新規,0,2025-02-19,2025-02-19,三和協賛株式会社,,株式会社,長崎県,北松浦郡佐々町,神田免１２１番地２８,,42,391,8570336,,,,,,,2025-02-19,1,,,,,サンワキョウサン,0
2442,9330003010847,新規,0,2025-02-19,2025-02-19,合同会社ＴＡＭＡＲＩ,,合同会社,熊本県,熊本市中央区,花畑町１１番２０号水田ビル３階,,43,101,8600806,,,,,,,2025-02-19,1,,,,,タマリ,0
2447,9360001034804,新規,0,2025-02-19,2025-02-19,株式会社ランドバブル,,株式会社,沖縄県,糸満市,西崎町３丁目１８番地コーポ加島２０１号,,47,210,9010306,,,,,,,2025-02-19,1,,,,,ランドバブル,0
2457,9400003003397,新規,0,2025-02-19,2025-02-19,合同会社コンフォート,,合同会社,岩手県,盛岡市,盛岡駅前通１４番６号,,03,201,0200034,,,,,,,2025-02-19,1,,,,,コンフォート,0
2460,9430001093702,新規,0,2025-02-19,2025-02-19,株式会社洸伸,,株式会社,北海道,千歳市,朝日町４丁目２５番地,,01,224,0660043,,,,,,,2025-02-19,1,,,,,コウシン,0
2461,9430003017304,新規,0,2025-02-19,2025-02-19,ＳＧＬ合同会社,,合同会社,北海道,札幌市北区,北二十四条西３丁目１番１号イーコート２４　１Ｆ,,01,102,0010024,,,,,,,2025-02-19,1,,,,,エスジーエル,0
2466,9480003002235,新規,0,2025-02-19,2025-02-19,合同会社Ｆｉｎｅ　ｄｅ　Ｆｉｔ,,合同会社,徳島県,板野郡藍住町,勝瑞字西勝地８８番地１,,36,403,7711270,,,,,,,2025-02-19,1,,,,,ファインデフィット,0
