sequenceNumber,corporateNumber,process,correct,updateDate,changeDate,name,nameImageId,kind,prefectureName,cityName,streetNumber,addressImageId,prefectureCode,cityCode,postCode,addressOutside,addressOutsideImageId,closeDate,closeCause,successorCorporateNumber,changeCause,assignmentDate,latest,enName,enPrefectureName,enCityName,enAddressOutside,furigana,hihyoji
8,1010001243554,新規,0,2024-04-03,2024-04-03,ｍｉｉｎａ株式会社,,株式会社,東京都,中央区,日本橋室町１丁目１１番１２号日本橋水野ビル,,13,102,1030022,,,,,,,2024-04-03,1,,,,,ミイナ,0
9,1010001243604,新規,0,2024-04-03,2024-04-03,ＡＢ５Ａ２４０２株式会社,,株式会社,東京都,千代田区,丸の内２丁目４番１号,,13,101,1000005,,,,,,,2024-04-03,1,,,,,エービーゴエーニイヨンゼロニイ,0
10,1010001243620,新規,0,2024-04-03,2024-04-03,ｉＳｋｉｌｌ株式会社,,株式会社,東京都,中央区,日本橋室町３丁目２－１日本橋室町三井タワー７階,,13,102,1030022,,,,,,,2024-04-03,1,,,,,アイスキル,0
11,1010003043374,新規,0,2024-04-03,2024-04-03,合同会社ＰＦデネブ,,合同会社,東京都,千代田区,平河町１丁目６番１５号シルスフィア会計事務所内,,13,101,1020093,,,,,,,2024-04-03,1,,,,,ピーエフデネブ,0
12,1010101016075,新規,0,2024-04-03,2024-04-03,株式会社ももの樹,,株式会社,東京都,八王子市,七国２丁目１６番１４号ソレイユ４０１号,,13,201,1920919,,,,,,,2024-04-03,1,,,,,モモノキ,0
19,1010401181412,新規,0,2024-04-03,2024-04-03,ＩＰレスキュー株式会社,,株式会社,東京都,港区,赤坂４丁目８番１９号赤坂フロントタウン３階,,13,103,1070052,,,,,,,2024-04-03,1,,,,,アイピイレスキュー,0
24,1010603010749,新規,0,2024-04-03,2024-04-03,合同会社枯朽,,合同会社,東京都,墨田区,横川２丁目１３番９号第二杉本ビル１０１,,13,107,1300003,,,,,,,2024-04-03,1,,,,,コキュウ,0
36,1011001161011,新規,0,2024-04-03,2024-04-03,ＫＹＬＡ株式会社,,株式会社,東京都,渋谷区,神宮前６丁目２３番４号桑野ビル２階,,13,113,1500001,,,,,,,2024-04-03,1,,,,,カイラ,0
37,1011001161044,新規,0,2024-04-03,2024-04-03,Ｍｅａｎｉｎｇｆｕｌ　Ｏｕｔｃｏｍｅ　Ｃｏｎｓｕｌｔｉｎｇ株式会社,,株式会社,東京都,渋谷区,富ヶ谷２丁目１１番１２号クリケットヒル富ヶ谷４０３,,13,113,1510063,,,,,,,2024-04-03,1,,,,,ミーニングフルアウトカムコンサルティング,0
38,1011001161085,新規,0,2024-04-03,2024-04-03,株式会社ＦＯＯＤ＆ＣＩＴＹ,,株式会社,東京都,目黒区,碑文谷４丁目２４－２,,13,110,1520003,,,,,,,2024-04-03,1,,,,,フードアンドシティ,0
39,1011003018829,新規,0,2024-04-03,2024-04-03,合同会社ＥＲ５,,合同会社,東京都,渋谷区,道玄坂１丁目１０番８号渋谷道玄坂東急ビル２Ｆ－Ｃ,,13,113,1500043,,,,,,,2024-04-03,1,,,,,イーアールファイブ,0
40,1011003018837,新規,0,2024-04-03,2024-04-03,合同会社ぽてぽてランド,,合同会社,東京都,目黒区,五本木１丁目２６番１６号ＭＡＲＫＰｌａｃｅ五本木２０２,,13,110,1530053,,,,,,,2024-04-03,1,,,,,ポテポテランド,0
41,1011101106733,新規,0,2024-04-03,2024-04-03,Ｗｏｎｄｅｒｆｕｌ株式会社,,株式会社,東京都,新宿区,新宿１丁目６番８号－３Ｆ,,13,104,1600022,,,,,,,2024-04-03,1,,,,,ワンダフル,0
42,1011101106808,新規,0,2024-04-03,2024-04-03,株式会社ワンライフ,,株式会社,東京都,新宿区,西新宿６丁目５番１号新宿アイランドタワー２階,,13,104,1600023,,,,,,,2024-04-03,1,,,,,ワンライフ,0
43,1011101106816,新規,0,2024-04-03,2024-04-03,あさぎ株式会社,,株式会社,東京都,新宿区,高田馬場４丁目１８番１０号,,13,104,1690075,,,,,,,2024-04-03,1,,,,,アサギ,0
45,1011105010989,新規,0,2024-04-03,2024-04-03,一般社団法人フュージョンエネルギー産業協議会,,その他の設立登記法人,東京都,新宿区,箪笥町４３,,13,104,1620833,,,,,,,2024-04-03,1,,,,,フュージョンエネルギーサンギョウキョウギカイ,0
47,1011201025370,新規,0,2024-04-03,2024-04-03,明和商事株式会社,,株式会社,東京都,中野区,弥生町２丁目３７番３号,,13,114,1640013,,,,,,,2024-04-03,1,,,,,メイワショウジ,0
48,1011201025379,新規,0,2024-04-03,2024-04-03,株式会社福原設備,,株式会社,東京都,中野区,若宮１丁目１９番７号,,13,114,1650033,,,,,,,2024-04-03,1,,,,,フクハラセツビ,0
52,1011501030509,新規,0,2024-04-03,2024-04-03,益豊株式会社,,株式会社,東京都,荒川区,東日暮里４丁目２２番１２号,,13,118,1160014,,,,,,,2024-04-03,1,,,,,エキトヨ,0
53,1011603004294,新規,0,2024-04-03,2024-04-03,合同会社園,,合同会社,東京都,練馬区,練馬４丁目３１－１７,,13,120,1760001,,,,,,,2024-04-03,1,,,,,エン,0
56,1011701027164,新規,0,2024-04-03,2024-04-03,有明製薬株式会社,,株式会社,東京都,江戸川区,松島３丁目１４番７－２１０号若林ビル,,13,123,1320031,,,,,,,2024-04-03,1,,,,,アリアケセイヤク,0
63,1012403006489,新規,0,2024-04-03,2024-04-03,合同会社Ｂａｂｙｂａｎｋ,,合同会社,東京都,府中市,本宿町４丁目５番地の２０,,13,206,1830032,,,,,,,2024-04-03,1,,,,,ベイビーバンク,0
64,1012703002948,新規,0,2024-04-03,2024-04-03,ｍｏｇｉｌｏｘ合同会社,,合同会社,東京都,東久留米市,滝山１丁目２－７,,13,222,2030033,,,,,,,2024-04-03,1,,,,,モジロックス,0
67,1012801023078,新規,0,2024-04-03,2024-04-03,株式会社ＥＣＸＩＡ‐ＯＮＥ,,株式会社,東京都,国立市,東１丁目１５番地の１１、４４８ビル３階,,13,215,1860002,,,,,,,2024-04-03,1,,,,,エクシアワン,0
68,1013101009387,新規,0,2024-04-03,2024-04-03,株式会社風神,,株式会社,東京都,青梅市,河辺町５丁目３番地９,,13,205,1980036,,,,,,,2024-04-03,1,,,,,フウジン,0
69,1013103001326,新規,0,2024-04-03,2024-04-03,合同会社ｓｅｉｚａｎ,,合同会社,東京都,福生市,大字福生１０１５番地２４エクセルシオール福生５０１号室,,13,218,1970011,,,,,,,2024-04-03,1,,,,,,0
73,1020001156474,新規,0,2024-04-03,2024-04-03,Ｒｅｉｚ株式会社,,株式会社,神奈川県,横浜市泉区,中田東２丁目１番１号,,14,116,2450013,,,,,,,2024-04-03,1,,,,,ライツ,0
74,1020001156540,新規,0,2024-04-03,2024-04-03,株式会社プラヤコーポレーション,,株式会社,神奈川県,川崎市川崎区,小田栄１丁目１３番１号,,14,131,2100843,,,,,,,2024-04-03,1,,,,,プラヤコーポレーション,0
75,1020001156557,新規,0,2024-04-03,2024-04-03,株式会社Ｓｌｉｍ＆Ｆａｔ,,株式会社,神奈川県,横浜市西区,浅間町１丁目４番３号ウィザードビル４０２,,14,103,2200072,,,,,,,2024-04-03,1,,,,,スリムファット,0
79,1020003025850,新規,0,2024-04-03,2024-04-03,合同会社ｏｃｔａ８．ｎｅｔ,,合同会社,神奈川県,横浜市西区,浅間町１丁目４番３号ウィザードビル４０２,,14,103,2200072,,,,,,,2024-04-03,1,,,,,オクタエイトドットネット,0
82,1021001081910,新規,0,2024-04-03,2024-04-03,株式会社ＳＥＩＷＡ　ＨＯＵＳＥ,,株式会社,神奈川県,茅ヶ崎市,萩園２５６７番地１,,14,207,2530071,,,,,,,2024-04-03,1,,,,,セイワハウス,0
84,1021003014331,新規,0,2024-04-03,2024-04-03,ＳＨＡＮ　ＴＲＡＤＥＲＳ合同会社,,合同会社,神奈川県,愛甲郡愛川町,中津３８５８番地の１－２０１,,14,401,2430303,,,,,,,2024-04-03,1,,,,,シャントレーダーズ,0
89,1030001159484,新規,0,2024-04-03,2024-04-03,株式会社三雄,,株式会社,埼玉県,入間市,春日町１丁目８番２０－３０２号,,11,225,3580006,,,,,,,2024-04-03,1,,,,,ミオ,0
90,1030001159518,新規,0,2024-04-03,2024-04-03,株式会社ミライコンパス,,株式会社,埼玉県,越谷市,弥生町３番２５号,,11,222,3430816,,,,,,,2024-04-03,1,,,,,ミライコンパス,0
91,1030001159542,新規,0,2024-04-03,2024-04-03,株式会社我謝,,株式会社,埼玉県,川口市,上青木５丁目２１番１２号新田ハイツ１０２,,11,203,3330844,,,,,,,2024-04-03,1,,,,,ガジャ,0
93,1030003023944,新規,0,2024-04-03,2024-04-03,合同会社Ｒａｙ　Ｃａｒｅｅｒ,,合同会社,埼玉県,草加市,氷川町２１１１番地６レーベンハイム草加ステーションビュー４０８号,,11,221,3400034,,,,,,,2024-04-03,1,,,,,レイキャリア,0
94,1030003023952,新規,0,2024-04-03,2024-04-03,合同会社会社Ｔｏｍａｒｉ,,合同会社,埼玉県,川口市,大字木曽呂５０６番地の９,,11,203,3330831,,,,,,,2024-04-03,1,,,,,トマリ,0
101,1040003024685,新規,0,2024-04-03,2024-04-03,合同会社ハマダサービス,,合同会社,千葉県,野田市,山崎１６３９番地の１２,,12,208,2780022,,,,,,,2024-04-03,1,,,,,ハマダサービス,0
107,1050001054527,新規,0,2024-04-03,2024-04-03,株式会社ＦＵＤＥＮ,,株式会社,茨城県,つくば市,吉沼１１１７番地,,08,220,3002617,,,,,,,2024-04-03,1,,,,,フデン,0
112,1050003008233,新規,0,2024-04-03,2024-04-03,リアルホーム合同会社,,合同会社,茨城県,つくば市,二の宮４丁目８番地１ガーデンコート筑波１００８,,08,220,3050051,,,,,,,2024-04-03,1,,,,,リアルホーム,0
113,1050005013421,新規,0,2024-04-03,2024-04-03,ハレルヤ行政書士法人,,その他の設立登記法人,茨城県,古河市,本町１丁目１０番４号,,08,204,3060023,,,,,,,2024-04-03,1,,,,,ハレルヤ,0
116,1060001036978,新規,0,2024-04-03,2024-04-03,株式会社ＧＲＥＥＤＹ,,株式会社,栃木県,小山市,大字小宅５０４番地１,,09,208,3230001,,,,,,,2024-04-03,1,,,,,グリーディ,0
124,1070001041589,新規,0,2024-04-03,2024-04-03,株式会社歩荷隊,,株式会社,群馬県,利根郡片品村,大字土出１５０,,10,443,3780412,,,,,,,2024-04-03,1,,,,,,0
134,1080105006413,新規,0,2024-04-03,2024-04-03,特定非営利活動法人ＮＰＯ甲斐犬銀谷,,その他の設立登記法人,静岡県,伊豆の国市,奈古谷２２２８番地の４４２,,22,225,4102132,,,,,,,2024-04-03,1,,,,,エヌピーオーカイケンギンヤ,0
135,1080401027105,新規,0,2024-04-03,2024-04-03,株式会社Ｍａｐｌｅ　Ｌａｎｄ,,株式会社,静岡県,磐田市,見付３９０６番地４,,22,211,4380086,,,,,,,2024-04-03,1,,,,,メープルランド,0
136,1100001037336,新規,0,2024-04-03,2024-04-03,株式会社ＲＡＮＡＫＩ,,株式会社,長野県,東筑摩郡山形村,６８６５番地イ号,,20,450,3901301,,,,,,,2024-04-03,1,,,,,ラナキ,0
140,1100003007477,新規,0,2024-04-03,2024-04-03,合同会社信州アスパラの里,,合同会社,長野県,上伊那郡南箕輪村,９７５３番地４,,20,385,3994511,,,,,,,2024-04-03,1,,,,,アスパラノサト,0
145,1120001263624,新規,0,2024-04-03,2024-04-03,株式会社ＲＥシステムズ,,株式会社,大阪府,大阪市中央区,南船場２丁目１０－２１日宝サンキュ－ビル２０３,,27,128,5420081,,,,,,,2024-04-03,1,,,,,アールイーシステムズ,0
146,1120001263707,新規,0,2024-04-03,2024-04-03,シウンポット株式会社,,株式会社,大阪府,大阪市北区,梅田１丁目３番１号大阪駅前第一ビル５階ＲＯＹＡＬＯＦＦＩＣＥ内,,27,127,5300001,,,,,,,2024-04-03,1,,,,,シウンポット,0
147,1120001263723,新規,0,2024-04-03,2024-04-03,株式会社サルバス,,株式会社,大阪府,枚方市,磯島南町１５番１－７２９号,,27,210,5731186,,,,,,,2024-04-03,1,,,,,サルバス,0
149,1120003026277,新規,0,2024-04-03,2024-04-03,合同会社なごみ,,合同会社,大阪府,枚方市,津田東町２丁目１２番１５号,,27,210,5730122,,,,,,,2024-04-03,1,,,,,ナゴミ,0
150,1120003026302,新規,0,2024-04-03,2024-04-03,合同会社ＵＣＬａｂ,,合同会社,大阪府,大阪市北区,大深町１‐１ＷｅＷｏｒｋＬＩＮＫＳＵＭＥＤＡ８Ｊａｐａｎ,,27,127,5300011,,,,,,,2024-04-03,1,,,,,ユーシーラボ,0
151,1120101069343,新規,0,2024-04-03,2024-04-03,株式会社メディカル久世,,株式会社,大阪府,堺市中区,平井６９９番地１４,,27,142,5998251,,,,,,,2024-04-03,1,,,,,メディカルクゼ,0
153,1120901048983,新規,0,2024-04-03,2024-04-03,株式会社竹下,,株式会社,大阪府,茨木市,鮎川３丁目１９番１７号,,27,211,5670831,,,,,,,2024-04-03,1,,,,,タケシタ,0
163,1130001076736,新規,0,2024-04-03,2024-04-03,株式会社司工業,,株式会社,京都府,宇治市,槇島町北内６１番地１０,,26,204,6110041,,,,,,,2024-04-03,1,,,,,ツカサコウギョウ,0
165,1130003009405,新規,0,2024-04-03,2024-04-03,合同会社リラックスナース,,合同会社,京都府,京田辺市,大住女谷４番地５メロディーハイム松井山手ヒルズビュー３１０号,,26,211,6100343,,,,,,,2024-04-03,1,,,,,リラックスナース,0
166,1130003009413,新規,0,2024-04-03,2024-04-03,合同会社ｍｏｆＬＡＢ,,合同会社,京都府,京都市中京区,西ノ京円町１８番地６,,26,104,6048463,,,,,,,2024-04-03,1,,,,,モフラボ,0
172,1150001027175,新規,0,2024-04-03,2024-04-03,株式会社大和美装,,株式会社,奈良県,奈良市,東九条町２０２番地の１７,,29,201,6308144,,,,,,,2024-04-03,1,,,,,ダイワビソウ,0
173,1150001027183,新規,0,2024-04-03,2024-04-03,株式会社ライフプロテクト,,株式会社,奈良県,橿原市,菖蒲町４丁目２９番１０号,,29,205,6340042,,,,,,,2024-04-03,1,,,,,ライフプロテクト,0
176,1170001018073,新規,0,2024-04-03,2024-04-03,株式会社三井住宅サービス,,株式会社,和歌山県,海南市,鳥居３２６番地,,30,202,6420033,,,,,,,2024-04-03,1,,,,,ミツイジュウタクサービス,0
179,1180001160782,新規,0,2024-04-03,2024-04-03,株式会社Ｅサポート,,株式会社,愛知県,名古屋市緑区,大高町字己新田１０３番地の１,,23,114,4598001,,,,,,,2024-04-03,1,,,,,イーサポート,0
180,1180001160816,新規,0,2024-04-03,2024-04-03,株式会社イチミリ,,株式会社,愛知県,名古屋市中村区,太閤通９丁目８－２Ｃｏｒａｌ９　５０２,,23,105,4530811,,,,,,,2024-04-03,1,,,,,イチミリ,0
181,1180005020586,新規,0,2024-04-03,2024-04-03,一般社団法人Ｍｅｒａｋｉ,,その他の設立登記法人,愛知県,名古屋市守山区,川西１丁目２２１番地の２,,23,113,4630080,,,,,,,2024-04-03,1,,,,,メラキ,0
183,1190001031248,新規,0,2024-04-03,2024-04-03,株式会社大玉ホールディングス,,株式会社,三重県,伊勢市,通町字中浜５７５番地,,24,203,5160012,,,,,,,2024-04-03,1,,,,,オオダマホールディングス,0
185,1200001042342,新規,0,2024-04-03,2024-04-03,チャンコン・ジャパン株式会社,,株式会社,岐阜県,揖斐郡大野町,大字下磯２３１番地１,,21,403,5010532,,,,,,,2024-04-03,1,,,,,チャンコンジャパン,0
186,1200001042359,新規,0,2024-04-03,2024-04-03,デルタテックラボラトリ株式会社,,株式会社,岐阜県,大垣市,今宿６丁目５２番地１６ソフトピアジャパンドリーム・コア４１３,,21,202,5030807,,,,,,,2024-04-03,1,,,,,デルタテックラボラトリ,0
192,1230001020279,新規,0,2024-04-03,2024-04-03,株式会社バームクーヘン,,株式会社,富山県,富山市,上冨居２丁目２６番２７号２Ｂ,,16,201,9300835,,,,,,,2024-04-03,1,,,,,バームクーヘン,0
193,1240001063021,新規,0,2024-04-03,2024-04-03,株式会社ＳＫスリーランス,,株式会社,広島県,広島市中区,舟入本町１１番１０－２号第１８友建ビル１Ｆ,,34,101,7300843,,,,,,,2024-04-03,1,,,,,エスケイスリーランス,0
195,1260001038913,新規,0,2024-04-03,2024-04-03,株式会社セファテクノロジー岡山,,株式会社,岡山県,浅口郡里庄町,大字新庄字金山６０６９番地,,33,445,7190302,,,,,,,2024-04-03,1,,,,,セファテクノロジーオカヤマ,0
196,1260001038921,新規,0,2024-04-03,2024-04-03,株式会社輝,,株式会社,岡山県,岡山市北区,津高台２丁目２０２７番地９,,33,101,7011151,,,,,,,2024-04-03,1,,,,,ヒカリ,0
197,1270003001612,新規,0,2024-04-03,2024-04-03,合同会社みちくさ,,合同会社,鳥取県,日野郡江府町,大字佐川９０８番地３,,31,403,6894431,,,,,,,2024-04-03,1,,,,,ミチクサ,0
201,1290801030447,新規,0,2024-04-03,2024-04-03,みらいフードサービス株式会社,,株式会社,福岡県,北九州市戸畑区,北鳥旗町６番２７号,,40,105,8040075,,,,,,,2024-04-03,1,,,,,ミライフードサービス,0
202,1290801030455,新規,0,2024-04-03,2024-04-03,株式会社３Ｈ,,株式会社,福岡県,宮若市,乙野６７５番地１　４階,,40,226,8220131,,,,,,,2024-04-03,1,,,,,スリーエイチ,0
203,1290803004671,新規,0,2024-04-03,2024-04-03,合同会社大桜,,合同会社,福岡県,北九州市小倉北区,古船場町８－１３　１０４号２Ｆ,,40,106,8020082,,,,,,,2024-04-03,1,,,,,オオザクラ,0
210,1310003004759,新規,0,2024-04-03,2024-04-03,合同会社大利,,合同会社,長崎県,佐世保市,船越町３８８番地,,42,202,8571231,,,,,,,2024-04-03,1,,,,,ダイリ,0
211,1310005008758,新規,0,2024-04-03,2024-04-03,一般社団法人大村東彼歯科医師会,,その他の設立登記法人,長崎県,大村市,本町４５８－２プラットおおむら５階,,42,205,8560832,,,,,,,2024-04-03,1,,,,,オオムラトウヒシカイシカイ,0
213,1340001026422,新規,0,2024-04-03,2024-04-03,株式会社濱正,,株式会社,鹿児島県,鹿児島市,下荒田２丁目１番１－５０７号,,46,201,8900056,,,,,,,2024-04-03,1,,,,,ハママサ,0
214,1350001018872,新規,0,2024-04-03,2024-04-03,株式会社ファンデイズ,,株式会社,宮崎県,日南市,梅ケ浜２丁目１番２６－５号,,45,204,8870017,,,,,,,2024-04-03,1,,,,,ファンデイズ,0
219,1360001033433,新規,0,2024-04-03,2024-04-03,株式会社Ｇｏ‐ｅｎ,,株式会社,沖縄県,沖縄市,古謝津嘉山町２９番３号美里ハイツ３０２,,47,211,9042166,,,,,,,2024-04-03,1,,,,,ゴエン,0
220,1360001033441,新規,0,2024-04-03,2024-04-03,株式会社五月,,株式会社,沖縄県,宮古島市,下地字川満８７９番地,,47,214,9060301,,,,,,,2024-04-03,1,,,,,サツキ,0
223,1370001051129,新規,0,2024-04-03,2024-04-03,株式会社ＰｒｏＳｍａ,,株式会社,宮城県,仙台市青葉区,本町１丁目６番２３号,,04,101,9800014,,,,,,,2024-04-03,1,,,,,プロスマ,0
224,1370001051137,新規,0,2024-04-03,2024-04-03,株式会社スイネット,,株式会社,宮城県,仙台市太白区,柳生６丁目１３番地の２０,,04,104,9811106,,,,,,,2024-04-03,1,,,,,スイネット,0
228,1380001034405,新規,0,2024-04-03,2024-04-03,さとう果樹園株式会社,,株式会社,福島県,福島市,飯坂町中野字栃窪４０番地,,07,201,9600261,,,,,,,2024-04-03,1,,,,,サトウカジュエン,0
234,1430003016164,新規,0,2024-04-03,2024-04-03,雪道合同会社,,合同会社,北海道,札幌市北区,北十九条西６丁目１番２５－５０３号,,01,102,0010019,,,,,,,2024-04-03,1,,,,,セツドウ,0
235,1450001014267,新規,0,2024-04-03,2024-04-03,株式会社ＫＦＳ,,株式会社,北海道,旭川市,一条通６丁目３８番地４４,,01,204,0700031,,,,,,,2024-04-03,1,,,,,ケーエフエス,0
243,1500001025548,新規,0,2024-04-03,2024-04-03,株式会社アートアトリエ,,株式会社,愛媛県,松山市,東垣生町４１５番地２５,,38,201,7918043,,,,,,,2024-04-03,1,,,,,アートアトリエ,0
244,1500001025556,新規,0,2024-04-03,2024-04-03,株式会社００６９,,株式会社,愛媛県,松山市,府中２３０番地,,38,201,7992435,,,,,,,2024-04-03,1,,,,,ダブルオーロック,0
261,2010001243636,新規,0,2024-04-03,2024-04-03,グリーンアクション株式会社,,株式会社,東京都,文京区,湯島３丁目６番１号全国家電会館,,13,105,1130034,,,,,,,2024-04-03,1,,,,,グリーンアクション,0
271,2010403032348,新規,0,2024-04-03,2024-04-03,合同会社ＹｈＳ,,合同会社,東京都,港区,南青山２番１５号ウィン青山９４２,,13,103,1050000,,,,,,,2024-04-03,1,,,,,ワイエイチエス,0
273,2010501052025,新規,0,2024-04-03,2024-04-03,常元株式会社,,株式会社,東京都,台東区,上野３丁目１９番１号３Ｆ,,13,106,1100005,,,,,,,2024-04-03,1,,,,,ジョウゲン,0
274,2010503007398,新規,0,2024-04-03,2024-04-03,合同会社ＹＴＫ,,合同会社,東京都,台東区,西浅草３丁目２２番３号,,13,106,1110035,,,,,,,2024-04-03,1,,,,,ワイティーケー,0
279,2010703007116,新規,0,2024-04-03,2024-04-03,合同会社ＧＡＧＡ,,合同会社,東京都,品川区,北品川１丁目２番１０－９０２号,,13,109,1400001,,,,,,,2024-04-03,1,,,,,ガガ,0
285,2011001161043,新規,0,2024-04-03,2024-04-03,株式会社ＡＺＳ,,株式会社,東京都,渋谷区,恵比寿２丁目８－１３ａｃｃｅｓｓＢＬＤ恵比寿１階,,13,113,1500013,,,,,,,2024-04-03,1,,,,,エーゼットエス,0
286,2011001161068,新規,0,2024-04-03,2024-04-03,株式会社ミツカルプロフェッショナル,,株式会社,東京都,渋谷区,恵比寿南３丁目１番１号いちご恵比寿グリーングラス,,13,113,1500022,,,,,,,2024-04-03,1,,,,,ミツカルプロフェッショナル,0
291,2011003018828,新規,0,2024-04-03,2024-04-03,合同会社ＥＲ２,,合同会社,東京都,渋谷区,道玄坂１丁目１０番８号渋谷道玄坂東急ビル２Ｆ－Ｃ,,13,113,1500043,,,,,,,2024-04-03,1,,,,,イーアールツー,0
294,2011101106798,新規,0,2024-04-03,2024-04-03,ｃｅｌｌｍｏｘａ株式会社,,株式会社,東京都,新宿区,新宿２丁目１２番１３号,,13,104,1600022,,,,,,,2024-04-03,1,,,,,セルモクサ,0
296,2011203004347,新規,0,2024-04-03,2024-04-03,ＫＡＬＭ　Ｃａｐｉｔａｌ合同会社,,合同会社,東京都,中野区,中央１丁目１番６号,,13,114,1640011,,,,,,,2024-04-03,1,,,,,カームキャピタル,0
299,2011301029535,新規,0,2024-04-03,2024-04-03,株式会社ケーエスエイチ,,株式会社,東京都,杉並区,高井戸西１丁目１３番１３号,,13,115,1680071,,,,,,,2024-04-03,1,,,,,ケーエスエイチ,0
308,2012403006488,新規,0,2024-04-03,2024-04-03,ｉ．Ｌｅａｎ合同会社,,合同会社,東京都,府中市,住吉町１丁目３番地の４２,,13,206,1830034,,,,,,,2024-04-03,1,,,,,アイリーン,0
309,2012801023077,新規,0,2024-04-03,2024-04-03,Ｓｏａｒ株式会社,,株式会社,東京都,国立市,東１丁目４－１５国立ＫＴビル６Ｆ,,13,215,1860002,,,,,,,2024-04-03,1,,,,,ソア,0
311,2013101009386,新規,0,2024-04-03,2024-04-03,株式会社縁トラスト,,株式会社,東京都,福生市,大字熊川９６５番地８,,13,218,1970003,,,,,,,2024-04-03,1,,,,,エントラスト,0
312,2013103001325,新規,0,2024-04-03,2024-04-03,合同会社田野倉,,合同会社,東京都,あきる野市,油平１番地８,,13,228,1970827,,,,,,,2024-04-03,1,,,,,タノクラ,0
317,2020001156556,新規,0,2024-04-03,2024-04-03,ＡＲＡｉ’ｓ株式会社,,株式会社,神奈川県,横浜市港南区,港南中央通１４番１７－６０２号,,14,111,2330004,,,,,,,2024-04-03,1,,,,,アライズ,0
322,2020005016343,新規,0,2024-04-03,2024-04-03,医療法人社団Ｉｒｉｅ,,その他の設立登記法人,神奈川県,川崎市幸区,北加瀬２丁目１１番３号コトニアガーデン新川崎Ｓ棟２階,,14,132,2120057,,,,,,,2024-04-03,1,,,,,アイリー,0
327,2021001081851,新規,0,2024-04-03,2024-04-03,株式会社すずき急便,,株式会社,神奈川県,横須賀市,吉井４丁目３０番５号,,14,201,2390804,,,,,,,2024-04-03,1,,,,,,0
331,2030001159541,新規,0,2024-04-03,2024-04-03,株式会社道,,株式会社,埼玉県,草加市,西町４９７番地２,,11,221,3400035,,,,,,,2024-04-03,1,,,,,ミチ,0
334,2030003023943,新規,0,2024-04-03,2024-04-03,コーラル合同会社,,合同会社,埼玉県,南埼玉郡宮代町,大字須賀１８７２番地７,,11,442,3450831,,,,,,,2024-04-03,1,,,,,コーラル,0
335,2030003023951,新規,0,2024-04-03,2024-04-03,合同会社ＲＥＶＥ,,合同会社,埼玉県,白岡市,上野田４７７番地６,,11,246,3490221,,,,,,,2024-04-03,1,,,,,レーヴ,0
341,2050001054526,新規,0,2024-04-03,2024-04-03,株式会社アーチ,,株式会社,茨城県,小美玉市,羽鳥２７３８番地６４３,,08,236,3190123,,,,,,,2024-04-03,1,,,,,アーチ,0
343,2050005013420,新規,0,2024-04-03,2024-04-03,特定非営利活動法人ＴＩＧＥＲ　ＧＲＯＵＰ　ＯＦ　ＰＯＫＨＡＲＡ　ＮＥＰＡＬ　ＪＡＰＡＮ,,その他の設立登記法人,茨城県,牛久市,南１丁目１番地３５,,08,219,3001222,,,,,,,2024-04-03,1,,,,,タイガルグループオブポカラネパールジャパン,0
345,2060001036969,新規,0,2024-04-03,2024-04-03,ラオックスＥＣストラテジー株式会社,,株式会社,栃木県,栃木市,岩舟町静戸３４３番１,,09,203,3294305,,,,,,,2024-04-03,1,,,,,ラオックスイーシーストラテジー,0
346,2060005010185,新規,0,2024-04-03,2024-04-03,医療法人すずき内科・循環器科,,その他の設立登記法人,栃木県,下野市,薬師寺２４８９番地１０,,09,216,3290431,,,,,,,2024-04-03,1,,,,,スズキナイカジュンカンキカ,0
350,2070003005343,新規,0,2024-04-03,2024-04-03,合同会社ツバメキ,,合同会社,群馬県,渋川市,赤城町樽４０１,,10,208,3791127,,,,,,,2024-04-03,1,,,,,ツバメキ,0
351,2070003005351,新規,0,2024-04-03,2024-04-03,ＧＵＮＧＯ合同会社,,合同会社,群馬県,太田市,泉町１５２３番地１,,10,205,3730845,,,,,,,2024-04-03,1,,,,,グンゴ,0
352,2070005010242,新規,0,2024-04-03,2024-04-03,ＮＰＯ法人きなね,,その他の設立登記法人,群馬県,前橋市,岩神町１丁目２２番７号,,10,201,3710035,,,,,,,2024-04-03,1,,,,,,0
353,2080001026217,新規,0,2024-04-03,2024-04-03,株式会社ＲＯＣＡ,,株式会社,静岡県,静岡市駿河区,有東１丁目６番１０号,,22,102,4228032,,,,,,,2024-04-03,1,,,,,ロカ,0
356,2080103003023,新規,0,2024-04-03,2024-04-03,三井アセット合同会社,,合同会社,静岡県,沼津市,桃里４３１番地の１エンゼルハイム桃里８１４号,,22,203,4100315,,,,,,,2024-04-03,1,,,,,,0
357,2080401027087,新規,0,2024-04-03,2024-04-03,株式会社鈴木建工,,株式会社,静岡県,周智郡森町,中川５３番地の８,,22,461,4370223,,,,,,,2024-04-03,1,,,,,スズキケンコウ,0
358,2080401027095,新規,0,2024-04-03,2024-04-03,ベルツワークス株式会社,,株式会社,静岡県,浜松市中央区,上新屋町２３１番地の６コーポまつもと南,,22,138,4350053,,,,,,,2024-04-03,1,,,,,ベルツワークス,0
359,2080401027104,新規,0,2024-04-03,2024-04-03,株式会社つがやみかん,,株式会社,静岡県,浜松市浜名区,三ヶ日町大谷３０４番地の５,,22,139,4311407,,,,,,,2024-04-03,1,,,,,ツガヤミカン,0
363,2080403004984,新規,0,2024-04-03,2024-04-03,合同会社ＸＥＮＯ,,合同会社,静岡県,菊川市,大石５６３番地モダンタイムスＡ－１０１,,22,224,4371524,,,,,,,2024-04-03,1,,,,,ゼノ,0
369,2100005013167,新規,0,2024-04-03,2024-04-03,司法書士法人峯村共同事務所,,その他の設立登記法人,長野県,長野市,大字東和田７８４番地１司ビル２階,,20,201,3810038,,,,,,,2024-04-03,1,,,,,ミネムラキョウドウジムショ,0
376,2120001263623,新規,0,2024-04-03,2024-04-03,株式会社ＫＩ,,株式会社,大阪府,大阪市中央区,道修町１丁目４番６号,,27,128,5410045,,,,,,,2024-04-03,1,,,,,ケーアイ,0
377,2120001263838,新規,0,2024-04-03,2024-04-03,株式会社オールドストーン,,株式会社,大阪府,大阪市天王寺区,上汐３丁目３番２４号ＳＵＮ’ｓビル４Ｆ,,27,109,5430002,,,,,,,2024-04-03,1,,,,,オールドストーン,0
379,2120003026284,新規,0,2024-04-03,2024-04-03,合同会社ＣＭＭ,,合同会社,大阪府,大阪市旭区,大宮５丁目１６番１号大阪工業大学内,,27,117,5350002,,,,,,,2024-04-03,1,,,,,シーエムエム,0
380,2120003026301,新規,0,2024-04-03,2024-04-03,Ｙｅｓ　Ｈａｐｐｙ合同会社,,合同会社,大阪府,大阪市西成区,橘１丁目４番１４号,,27,122,5570051,,,,,,,2024-04-03,1,,,,,イェスハッピー,0
382,2120005024237,新規,0,2024-04-03,2024-04-03,一般財団法人センコーみらい財団,,その他の設立登記法人,大阪府,大阪市中央区,備後町２丁目６番８号,,27,128,5410051,,,,,,,2024-04-03,1,,,,,センコーミライザイダン,0
383,2120101069342,新規,0,2024-04-03,2024-04-03,ケーティーアセットマネジメント株式会社,,株式会社,大阪府,高石市,高砂２丁目５番地,,27,225,5920001,,,,,,,2024-04-03,1,,,,,ケーティーアセットマネジメント,0
385,2120901048982,新規,0,2024-04-03,2024-04-03,株式会社ＭＩＮＯＨ　ＢＥＥＲ　ＷＡＲＥＨＯＵＳＥ,,株式会社,大阪府,箕面市,牧落３丁目１４番１８号,,27,220,5620004,,,,,,,2024-04-03,1,,,,,ミノオビールウェアハウス,0
386,2120903005107,新規,0,2024-04-03,2024-04-03,合同会社うな紀,,合同会社,大阪府,茨木市,永代町４番１１９号,,27,211,5670816,,,,,,,2024-04-03,1,,,,,ウナキ,0
387,2122001037973,新規,0,2024-04-03,2024-04-03,株式会社ユライフ,,株式会社,大阪府,東大阪市,小若江３丁目６番９号,,27,227,5770818,,,,,,,2024-04-03,1,,,,,ユライフ,0
388,2122003002851,新規,0,2024-04-03,2024-04-03,合同会社上阪,,合同会社,大阪府,東大阪市,上小阪３丁目９番４号,,27,227,5770806,,,,,,,2024-04-03,1,,,,,カミサカ,0
398,2130001076693,新規,0,2024-04-03,2024-04-03,大丸総合商事株式会社,,株式会社,京都府,福知山市,土師新町１丁目１１１番地,,26,201,6200855,,,,,,,2024-04-03,1,,,,,ダイマルソウゴウショウジ,0
399,2130001076702,新規,0,2024-04-03,2024-04-03,株式会社三樹工務店,,株式会社,京都府,京都市伏見区,日野谷寺町３１番地１７,,26,109,6011406,,,,,,,2024-04-03,1,,,,,ミツギコウムテン,0
400,2130001076719,新規,0,2024-04-03,2024-04-03,株式会社藤井組,,株式会社,京都府,京都市伏見区,醍醐新町裏町１２番地レオ中臣２１４号,,26,109,6011326,,,,,,,2024-04-03,1,,,,,フジイグミ,0
405,2140001133907,新規,0,2024-04-03,2024-04-03,株式会社インフィニティ,,株式会社,兵庫県,姫路市,四郷町明田９３４番地３５,,28,201,6710245,,,,,,,2024-04-03,1,,,,,インフィニティ,0
407,2140005027015,新規,0,2024-04-03,2024-04-03,医療法人社団博愛恵秀会,,その他の設立登記法人,兵庫県,神戸市中央区,元町通７丁目１番１７号,,28,110,6500022,,,,,,,2024-04-03,1,,,,,ハクアイケイシュウカイ,0
408,2150001027190,新規,0,2024-04-03,2024-04-03,株式会社白ゆり,,株式会社,奈良県,奈良市,左京３丁目１８番地の２０,,29,201,6310801,,,,,,,2024-04-03,1,,,,,シラユリ,0
410,2160001025796,新規,0,2024-04-03,2024-04-03,株式会社山田農園,,株式会社,滋賀県,守山市,今浜町２４０５番地,,25,207,5240101,,,,,,,2024-04-03,1,,,,,ヤマダノウエン,0
418,2180001160815,新規,0,2024-04-03,2024-04-03,株式会社グロウケア・コンサルティング,,株式会社,愛知県,一宮市,木曽川町黒田七ノ通り２７３番地２,,23,203,4930001,,,,,,,2024-04-03,1,,,,,グロウケアコンサルティング,0
421,2190005011922,新規,0,2024-04-03,2024-04-03,一般社団法人田宮寺共同体,,その他の設立登記法人,三重県,度会郡玉城町,田宮寺４４９番地,,24,461,5190434,,,,,,,2024-04-03,1,,,,,タミヤジキョウドウタイ,0
423,2200001042341,新規,0,2024-04-03,2024-04-03,株式会社中部企画,,株式会社,岐阜県,岐阜市,水主町１丁目１５５番地６,,21,201,5008259,,,,,,,2024-04-03,1,,,,,チュウブキカク,0
424,2200001042358,新規,0,2024-04-03,2024-04-03,株式会社ナーゴ,,株式会社,岐阜県,岐阜市,福富天神前３０６番地１,,21,201,5012566,,,,,,,2024-04-03,1,,,,,ナーゴ,0
425,2200003006286,新規,0,2024-04-03,2024-04-03,合同会社ＴＹ,,合同会社,岐阜県,安八郡安八町,城４丁目４６番地,,21,383,5030127,,,,,,,2024-04-03,1,,,,,ティーワイ,0
426,2200003006294,新規,0,2024-04-03,2024-04-03,Ａｕｔｏ　Ｇｌｏｂｅ合同会社,,合同会社,岐阜県,美濃加茂市,西町７丁目３１３番地,,21,211,5050046,,,,,,,2024-04-03,1,,,,,オートグローブ,0
427,2200005013594,新規,0,2024-04-03,2024-04-03,特定非営利活動法人ＥＧＯ　ｓｏｃｃｅｒ　ｓｃｈｏｏｌ,,その他の設立登記法人,岐阜県,羽島市,上中町長間２９７１番地１,,21,209,5016311,,,,,,,2024-04-03,1,,,,,イージーオーサッカースクール,0
433,2230001020278,新規,0,2024-04-03,2024-04-03,株式会社ＫＡＳＥＩ,,株式会社,富山県,富山市,向新庄町４丁目１１番２号,,16,201,9300916,,,,,,,2024-04-03,1,,,,,カセイ,0
435,2240001063029,新規,0,2024-04-03,2024-04-03,株式会社ｔｉｍ．Ｋ,,株式会社,広島県,広島市安佐北区,亀山６丁目３７番１６号,,34,106,7310231,,,,,,,2024-04-03,1,,,,,ティムドットケー,0
436,2240001063037,新規,0,2024-04-03,2024-04-03,株式会社こだま会計,,株式会社,広島県,広島市中区,白島北町３番１４号,,34,101,7300001,,,,,,,2024-04-03,1,,,,,コダマカイケイ,0
437,2240001063053,新規,0,2024-04-03,2024-04-03,塚本工業株式会社,,株式会社,広島県,福山市,高西町１丁目５番１３－８号,,34,207,7290106,,,,,,,2024-04-03,1,,,,,ツカモトコウギョウ,0
440,2240003006613,新規,0,2024-04-03,2024-04-03,前原ダンドリー合同会社,,合同会社,広島県,三原市,大和町下徳良２９４４,,34,204,7291406,,,,,,,2024-04-03,1,,,,,マエバラダンドリー,0
444,2270001008947,新規,0,2024-04-03,2024-04-03,あっちゃん株式会社,,株式会社,鳥取県,鳥取市,宮谷３９３番地７,,31,201,6801412,,,,,,,2024-04-03,1,,,,,アッチャン,0
450,2290801030446,新規,0,2024-04-03,2024-04-03,株式会社ＤＯＢＥＡ,,株式会社,福岡県,北九州市小倉北区,赤坂海岸４番６号,,40,106,8020031,,,,,,,2024-04-03,1,,,,,ドビア,0
451,2290801030454,新規,0,2024-04-03,2024-04-03,株式会社双星,,株式会社,福岡県,遠賀郡岡垣町,旭台２丁目１４番８号,,40,383,8114215,,,,,,,2024-04-03,1,,,,,ソウセイ,0
452,2290801030462,新規,0,2024-04-03,2024-04-03,株式会社ウエルウイル,,株式会社,福岡県,北九州市小倉北区,高坊１丁目１番４号,,40,106,8020053,,,,,,,2024-04-03,1,,,,,ウエルウイル,0
453,2290803004670,新規,0,2024-04-03,2024-04-03,合同会社ヤマテ,,合同会社,福岡県,北九州市小倉南区,山手３丁目１５番４６号,,40,107,8020982,,,,,,,2024-04-03,1,,,,,ヤマテ,0
454,2290803004679,新規,0,2024-04-03,2024-04-03,合同会社盛久,,合同会社,福岡県,北九州市戸畑区,中原西１丁目９番１４号,,40,105,8040011,,,,,,,2024-04-03,1,,,,,モリヒサ,0
456,2300001013670,新規,0,2024-04-03,2024-04-03,株式会社ＲＡＶＥＮ,,株式会社,佐賀県,唐津市,鏡２５３０,,41,202,8470022,,,,,,,2024-04-03,1,,,,,レイブン,0
458,2310001018925,新規,0,2024-04-03,2024-04-03,株式会社ＡＩＫＡＷＡ,,株式会社,長崎県,長崎市,琴海村松町７１８番地１,,42,201,8513102,,,,,,,2024-04-03,1,,,,,アイカワ,0
459,2310001018933,新規,0,2024-04-03,2024-04-03,株式会社トクトミ電気,,株式会社,長崎県,西彼杵郡時津町,久留里郷３５９番地１,,42,308,8512107,,,,,,,2024-04-03,1,,,,,トクトミデンキ,0
462,2320003004328,新規,0,2024-04-03,2024-04-03,カウバイ合同会社,,合同会社,大分県,別府市,大字南立石１１５９番地の５,,44,202,8740000,,,,,,,2024-04-03,1,,,,,,0
466,2340001026405,新規,0,2024-04-03,2024-04-03,株式会社Ｋ．Ｅ．Ｐ,,株式会社,鹿児島県,鹿児島市,伊敷２丁目１４番１０号,,46,201,8900008,,,,,,,2024-04-03,1,,,,,ケーイーピー,0
470,2360001033432,新規,0,2024-04-03,2024-04-03,株式会社ｉＥｎａ,,株式会社,沖縄県,中頭郡中城村,字南上原６１５番地７Ｍａ．サンセヴェリア４１６号,,47,328,9012424,,,,,,,2024-04-03,1,,,,,イーナ,0
471,2360001033440,新規,0,2024-04-03,2024-04-03,ダイヤクリーンアップ株式会社,,株式会社,沖縄県,中頭郡嘉手納町,字嘉手納５２４番地１５,,47,325,9040203,,,,,,,2024-04-03,1,,,,,ダイヤクリーンアップ,0
474,2370003006550,新規,0,2024-04-03,2024-04-03,合同会社ちくらる,,合同会社,宮城県,仙台市若林区,六丁の目中町３１－９－２０１,,04,103,9840012,,,,,,,2024-04-03,1,,,,,チクラル,0
478,2390003002226,新規,0,2024-04-03,2024-04-03,デジタル生活開発合同会社,,合同会社,山形県,米沢市,東大通２丁目４番３６号,,06,202,9920024,,,,,,,2024-04-03,1,,,,,デジタルセイカツカイハツ,0
479,2410003003907,新規,0,2024-04-03,2024-04-03,秋田浮体式洋上風力合同会社,,合同会社,秋田県,由利本荘市,一番堰１８１番地,,05,210,0150852,,,,,,,2024-04-03,1,,,,,アキタフタイシキヨウジョウフウリョク,0
483,2430001091448,新規,0,2024-04-03,2024-04-03,株式会社Ｏｎｅ,,株式会社,北海道,札幌市北区,屯田八条８丁目１３番２５号,,01,102,0020858,,,,,,,2024-04-03,1,,,,,ワン,0
485,2440001009416,新規,0,2024-04-03,2024-04-03,株式会社Ｇｒｅｅｎ樹,,株式会社,北海道,亀田郡七飯町,大川１丁目３番８号,,01,337,0411122,,,,,,,2024-04-03,1,,,,,グリーンジュ,0
486,2450001014266,新規,0,2024-04-03,2024-04-03,株式会社松建,,株式会社,北海道,旭川市,豊岡十一条６丁目２番２７号,,01,204,0788241,,,,,,,2024-04-03,1,,,,,マツケン,0
489,2470001020114,新規,0,2024-04-03,2024-04-03,株式会社ＫＯＨＡＫＵ,,株式会社,香川県,高松市,瓦町１丁目１３番１０号,,37,201,7600052,,,,,,,2024-04-03,1,,,,,コハク,0
490,2480001012432,新規,0,2024-04-03,2024-04-03,株式会社徳島芝本商会,,株式会社,徳島県,鳴門市,撫養町黒崎字宮津１１８番地１４,,36,202,7720001,,,,,,,2024-04-03,1,,,,,トクシマシバモトショウカイ,0
494,2500001025547,新規,0,2024-04-03,2024-04-03,株式会社Ｑｕａｌｉｔｙ,,株式会社,愛媛県,松山市,畑寺１丁目１１番４２号,,38,201,7900913,,,,,,,2024-04-03,1,,,,,クオリティー,0
495,2500001025555,新規,0,2024-04-03,2024-04-03,株式会社まある,,株式会社,愛媛県,松山市,湯渡町７番８号,,38,201,7900862,,,,,,,2024-04-03,1,,,,,マアル,0
509,3010001243494,新規,0,2024-04-03,2024-04-03,株式会社ＣＹＢＥＲ　ＢＥＡＣＨ,,株式会社,東京都,中央区,銀座１丁目２２番１１号,,13,102,1040061,,,,,,,2024-04-03,1,,,,,サイバービーチ,0
510,3010001243585,新規,0,2024-04-03,2024-04-03,株式会社ｋａｇａｒｉ　ｄｅｓｉｇｎ,,株式会社,東京都,中央区,銀座１丁目１２番４号７階,,13,102,1040061,,,,,,,2024-04-03,1,,,,,カガリデザイン,0
511,3010001243619,新規,0,2024-04-03,2024-04-03,株式会社ソリューションサービス,,株式会社,東京都,中央区,銀座１丁目１２番４号Ｎ＆Ｅ・ＢＬＤ．７階,,13,102,1040061,,,,,,,2024-04-03,1,,,,,ソリューションサービス,0
515,3010101016065,新規,0,2024-04-03,2024-04-03,株式会社Ｗｅｌｌｓｈｉｐ,,株式会社,東京都,八王子市,下柚木２丁目１３番５号ツインコートフォルクス１０１号室,,13,201,1920372,,,,,,,2024-04-03,1,,,,,ウェルシップ,0
520,3010401181410,新規,0,2024-04-03,2024-04-03,ＧＹＭＡＤ株式会社,,株式会社,東京都,港区,港南２丁目３－１号大信秋山ビル３階,,13,103,1080075,,,,,,,2024-04-03,1,,,,,ジマド,0
521,3010401181443,新規,0,2024-04-03,2024-04-03,株式会社ディジタルランドグループジャパン,,株式会社,東京都,港区,西新橋１丁目２番９号日比谷セントラルビル１４階,,13,103,1050003,,,,,,,2024-04-03,1,,,,,ディジタルランドグループジャパン,0
527,3010403032330,新規,0,2024-04-03,2024-04-03,カルフ合同会社,,合同会社,東京都,港区,南青山２丁目２番１５号ウイン青山９４２,,13,103,1070062,,,,,,,2024-04-03,1,,,,,カルフ,0
528,3010503007397,新規,0,2024-04-03,2024-04-03,Ａｒｃｒａｆｔ合同会社,,合同会社,東京都,台東区,上野３丁目１６番２号,,13,106,1100005,,,,,,,2024-04-03,1,,,,,アールクラフト,0
529,3010601064935,新規,0,2024-04-03,2024-04-03,株式会社りそな不動産投資顧問,,株式会社,東京都,江東区,木場１丁目５番２５号,,13,108,1350042,,,,,,,2024-04-03,1,,,,,リソナフドウサントウシコモン,0
532,3010701045769,新規,0,2024-04-03,2024-04-03,株式会社ＤＲＯＮＥ　ＳＫＹ　ＳＥＲＶＩＣＥ,,株式会社,東京都,品川区,西五反田１丁目２６番２号,,13,109,1410031,,,,,,,2024-04-03,1,,,,,ドローンスカイサービス,0
533,3010801034911,新規,0,2024-04-03,2024-04-03,株式会社コスモス,,株式会社,東京都,大田区,東六郷１丁目１番３－７０２号,,13,111,1440046,,,,,,,2024-04-03,1,,,,,コスモス,0
536,3010901055007,新規,0,2024-04-03,2024-04-03,株式会社まなか,,株式会社,東京都,世田谷区,桜１丁目５０番１７号,,13,112,1560053,,,,,,,2024-04-03,1,,,,,マナカ,0
538,3011001161034,新規,0,2024-04-03,2024-04-03,ＪＳＣパートナーズ株式会社,,株式会社,東京都,目黒区,中央町２丁目３０番４号,,13,110,1520001,,,,,,,2024-04-03,1,,,,,ジェイエスシーパートナーズ,0
539,3011001161083,新規,0,2024-04-03,2024-04-03,株式会社ＭＵＣ　ＧＡＭＥＳ,,株式会社,東京都,渋谷区,神泉町２０－２１クロスシー渋谷神泉ビル,,13,113,1500045,,,,,,,2024-04-03,1,,,,,ムックゲームス,0
548,3011101106632,新規,0,2024-04-03,2024-04-03,株式会社ＮＯＲＴＨ　ＶＩＬＬＡＧＥ新宿,,株式会社,東京都,新宿区,新宿３丁目２３番４号新宿黒澤ビル４階,,13,104,1600022,,,,,,,2024-04-03,1,,,,,ノースビレッジシンジュク,0
549,3011101106764,新規,0,2024-04-03,2024-04-03,ＳＴＭ株式会社,,株式会社,東京都,新宿区,早稲田鶴巻町５１８番地３階,,13,104,1620041,,,,,,,2024-04-03,1,,,,,エスティーエム,0
550,3011101106797,新規,0,2024-04-03,2024-04-03,株式会社さくら会,,株式会社,東京都,新宿区,高田馬場１丁目３４番２－４０１号,,13,104,1690075,,,,,,,2024-04-03,1,,,,,サクラカイ,0
551,3011203004346,新規,0,2024-04-03,2024-04-03,合同会社ＫＲＦ,,合同会社,東京都,中野区,新井１丁目１６－１４ＣＩＣＡＤＡＮＡＫＡＮＯ２０３,,13,114,1650026,,,,,,,2024-04-03,1,,,,,ケーアールエフ,0
558,3011501030523,新規,0,2024-04-03,2024-04-03,株式会社マルヨシ管理,,株式会社,東京都,荒川区,荒川７丁目４６番１－１０３号,,13,118,1160002,,,,,,,2024-04-03,1,,,,,マルヨシカンリ,0
560,3011601027659,新規,0,2024-04-03,2024-04-03,株式会社ＵＭ　ｄｅｓｉｇｎ　ｓｔｕｄｉｏ,,株式会社,東京都,練馬区,練馬１丁目２０－８日建練馬ビル２Ｆ,,13,120,1760001,,,,,,,2024-04-03,1,,,,,ユーエムデザインスタジオ,0
562,3011603004292,新規,0,2024-04-03,2024-04-03,合同会社ＣＡコンサルティング,,合同会社,東京都,練馬区,下石神井５丁目１１番１３号,,13,120,1770042,,,,,,,2024-04-03,1,,,,,シーエーコンサルティング,0
568,3012303001968,新規,0,2024-04-03,2024-04-03,合同会社イシイ商会,,合同会社,東京都,町田市,南大谷８２－１,,13,209,1940031,,,,,,,2024-04-03,1,,,,,イシイショウカイ,0
570,3012403006487,新規,0,2024-04-03,2024-04-03,合同会社イマジン,,合同会社,東京都,狛江市,岩戸北４丁目１６番３－４号,,13,219,2010004,,,,,,,2024-04-03,1,,,,,イマジン,0
572,3013101009385,新規,0,2024-04-03,2024-04-03,株式会社良空,,株式会社,東京都,青梅市,師岡町２丁目１６番地の１イストワール２０４,,13,205,1980031,,,,,,,2024-04-03,1,,,,,リョウクウ,0
575,3020001156464,新規,0,2024-04-03,2024-04-03,株式会社ＫＡＩＨＯ,,株式会社,神奈川県,横浜市中区,桜木町１丁目１０１番地１クロスゲート７階,,14,104,2310062,,,,,,,2024-04-03,1,,,,,カイホ,0
576,3020001156480,新規,0,2024-04-03,2024-04-03,株式会社横浜総建,,株式会社,神奈川県,横浜市瀬谷区,阿久和南１丁目２９番地２８,,14,114,2460026,,,,,,,2024-04-03,1,,,,,ヨコハマソウケン,0
578,3020003025849,新規,0,2024-04-03,2024-04-03,クアジュ合同会社,,合同会社,神奈川県,横浜市磯子区,汐見台２丁目５－１１ヒルコートテラス横浜汐見台Ｄ２０２,,14,107,2350022,,,,,,,2024-04-03,1,,,,,クアジュ,0
583,3021001081834,新規,0,2024-04-03,2024-04-03,株式会社エムビー,,株式会社,神奈川県,茅ヶ崎市,美住町１６－３８,,14,207,2530023,,,,,,,2024-04-03,1,,,,,エムビー,0
587,3030001159516,新規,0,2024-04-03,2024-04-03,株式会社和かば,,株式会社,埼玉県,所沢市,松葉町２６番１７号,,11,208,3590044,,,,,,,2024-04-03,1,,,,,ワカバ,0
588,3030001159549,新規,0,2024-04-03,2024-04-03,株式会社翔瑛,,株式会社,埼玉県,東松山市,神明町２丁目１８－１８,,11,212,3550021,,,,,,,2024-04-03,1,,,,,ショウエイ,0
590,3030003023942,新規,0,2024-04-03,2024-04-03,合同会社ＯＫ設計,,合同会社,埼玉県,深谷市,東方２７３２番地４,,11,218,3660041,,,,,,,2024-04-03,1,,,,,オーケーセッケイ,0
603,3050005013428,新規,0,2024-04-03,2024-04-03,一般社団法人みんなの居場所なかよし,,その他の設立登記法人,茨城県,ひたちなか市,大字馬渡３８３６番地９,,08,221,3120012,,,,,,,2024-04-03,1,,,,,,0
604,3060001036968,新規,0,2024-04-03,2024-04-03,宮原電気株式会社,,株式会社,栃木県,鹿沼市,千渡１９６４番地５４,,09,205,3220002,,,,,,,2024-04-03,1,,,,,ミヤハラデンキ,0
605,3060001036984,新規,0,2024-04-03,2024-04-03,ＩＮｆｉｎｉｔｙ株式会社,,株式会社,栃木県,河内郡上三川町,大字上蒲生２２０３番地１０,,09,301,3290617,,,,,,,2024-04-03,1,,,,,インフィニティ,0
610,3070001041570,新規,0,2024-04-03,2024-04-03,株式会社ＦＬＯＷＬＩＳＨ　ＧＵＮＭＡ,,株式会社,群馬県,前橋市,天川原町２丁目２２５番地２５,,10,201,3710803,,,,,,,2024-04-03,1,,,,,フローリッシュグンマ,0
612,3070003005350,新規,0,2024-04-03,2024-04-03,合同会社手づくりアイス工房じぇら２１,,合同会社,群馬県,富岡市,富岡２６３８番地１,,10,210,3702316,,,,,,,2024-04-03,1,,,,,テヅクリアイスコウボウジェラニジュウイチ,0
614,3080101024648,新規,0,2024-04-03,2024-04-03,株式会社８０ＳＫＩＰホールディングス,,株式会社,静岡県,三島市,徳倉１丁目１６番３６号,,22,206,4110044,,,,,,,2024-04-03,1,,,,,ハチマルスキップホールディングス,0
615,3080401027103,新規,0,2024-04-03,2024-04-03,株式会社アクト,,株式会社,静岡県,浜松市中央区,佐鳴台２丁目５番３０号プリンスコート佐鳴台Ａ棟,,22,138,4328021,,,,,,,2024-04-03,1,,,,,アクト,0
617,3080403004983,新規,0,2024-04-03,2024-04-03,合同会社開拓,,合同会社,静岡県,湖西市,古見１１９２番地,,22,221,4310442,,,,,,,2024-04-03,1,,,,,カイタク,0
618,3090001018633,新規,0,2024-04-03,2024-04-03,株式会社ＳＥＣＯＮＤＣＨＯＯＳＥ,,株式会社,山梨県,甲府市,小瀬町６８番地６,,19,201,4000836,,,,,,,2024-04-03,1,,,,,セカンドチューズ,0
638,3120001263572,新規,0,2024-04-03,2024-04-03,株式会社マトセック,,株式会社,大阪府,大阪市中央区,平野町２丁目３－７アーバンエース北浜ビル１階ＳＹＮＴＨ３０１号室,,27,128,5410046,,,,,,,2024-04-03,1,,,,,マトセック,0
642,3120003026259,新規,0,2024-04-03,2024-04-03,合同会社ＭＩＺＵＫＡＲＡ,,合同会社,大阪府,大阪市北区,梅田１丁目２番２号大阪駅前第２ビル１２－１２,,27,127,5300001,,,,,,,2024-04-03,1,,,,,ミズカラ,0
646,3122003002850,新規,0,2024-04-03,2024-04-03,合同会社ちゃんす,,合同会社,大阪府,東大阪市,中小阪５丁目６番２１号セジュール八戸ノ里１０５号室,,27,227,5770804,,,,,,,2024-04-03,1,,,,,チャンス,0
651,3130001076701,新規,0,2024-04-03,2024-04-03,株式会社ｅｎｔｏ,,株式会社,京都府,京都市下京区,朱雀宝蔵町４４,,26,106,6008846,,,,,,,2024-04-03,1,,,,,エント,0
660,3140001133914,新規,0,2024-04-03,2024-04-03,株式会社石山皮革製作所,,株式会社,兵庫県,三田市,富士が丘２丁目９番地１０７,,28,219,6691547,,,,,,,2024-04-03,1,,,,,イシヤマヒカクセイサクジョ,0
661,3140001133939,新規,0,2024-04-03,2024-04-03,株式会社ＦＵＲＴＨＥＲ　ＵＰ,,株式会社,兵庫県,揖保郡太子町,太田１４３３番地４,,28,464,6711511,,,,,,,2024-04-03,1,,,,,ファーザーアップ,0
662,3140001133971,新規,0,2024-04-03,2024-04-03,株式会社中西工業,,株式会社,兵庫県,加古郡稲美町,中村１４３２－１,,28,381,6751122,,,,,,,2024-04-03,1,,,,,ナカニシコウギョウ,0
664,3150003003214,新規,0,2024-04-03,2024-04-03,ｄｈｋ合同会社,,合同会社,奈良県,奈良市,西ノ京町２５４－６,,29,201,6308042,,,,,,,2024-04-03,1,,,,,,0
666,3160003003147,新規,0,2024-04-03,2024-04-03,合同会社快晴,,合同会社,滋賀県,東近江市,八日市清水２丁目２番１０号ｃａｓａＷｏｏｄ・Ｉ・２０１号室,00134277,25,213,5270018,,,,,,,2024-04-03,1,,,,,カイセイ,0
668,3180001160764,新規,0,2024-04-03,2024-04-03,株式会社ＥＩＧＨＴ,,株式会社,愛知県,大府市,柊山町３丁目３４９番地,,23,223,4740053,,,,,,,2024-04-03,1,,,,,エイト,0
669,3180001160789,新規,0,2024-04-03,2024-04-03,株式会社ＤＨＳ,,株式会社,愛知県,名古屋市西区,長先町８７番地,,23,104,4520838,,,,,,,2024-04-03,1,,,,,ディーエッチエス,0
670,3180001160830,新規,0,2024-04-03,2024-04-03,株式会社Ａｃｔ,,株式会社,愛知県,名古屋市中区,上前津２丁目９番地１６号ビラ三秀６０１号,,23,106,4600013,,,,,,,2024-04-03,1,,,,,アクト,0
671,3180001160847,新規,0,2024-04-03,2024-04-03,株式会社ＭＥＣ,,株式会社,愛知県,春日井市,神屋町１９７２番地１,,23,206,4800304,,,,,,,2024-04-03,1,,,,,メック,0
673,3180003026559,新規,0,2024-04-03,2024-04-03,ＹＮＳ企画合同会社,,合同会社,愛知県,知多市,新知台１丁目６番地の１０,,23,224,4780064,,,,,,,2024-04-03,1,,,,,ワイエヌエスキカク,0
679,3200001042332,新規,0,2024-04-03,2024-04-03,ＴＳＡ株式会社,,株式会社,岐阜県,多治見市,小田町６丁目１番地,,21,204,5070023,,,,,,,2024-04-03,1,,,,,ティーエスエー,0
680,3200001042340,新規,0,2024-04-03,2024-04-03,エスプラス株式会社,,株式会社,岐阜県,美濃加茂市,西町２丁目５５番地,,21,211,5050046,,,,,,,2024-04-03,1,,,,,エスプラス,0
681,3200001042349,新規,0,2024-04-03,2024-04-03,株式会社なまずや丸の内,,株式会社,岐阜県,羽島市,江吉良町１９１番地,,21,209,5016236,,,,,,,2024-04-03,1,,,,,ナマズヤマツノウチ,0
684,3220001025913,新規,0,2024-04-03,2024-04-03,株式会社ＫＢＣ,,株式会社,石川県,金沢市,鳴和１丁目１４番１号,,17,201,9200804,,,,,,,2024-04-03,1,,,,,ケービーシー,0
685,3220003003719,新規,0,2024-04-03,2024-04-03,合同会社ランクス,,合同会社,石川県,河北郡津幡町,字北中条１１号１０１番,,17,361,9290342,,,,,,,2024-04-03,1,,,,,ランクス,0
689,3240001063036,新規,0,2024-04-03,2024-04-03,株式会社ＨＩＳＵＩ,,株式会社,広島県,広島市東区,戸坂数甲２丁目９番７－１０１号,,34,102,7320017,,,,,,,2024-04-03,1,,,,,ヒスイ,0
690,3240001063052,新規,0,2024-04-03,2024-04-03,株式会社和広,,株式会社,広島県,広島市西区,三篠町３丁目７番１９号,,34,104,7330003,,,,,,,2024-04-03,1,,,,,ワコウ,0
692,3240003006604,新規,0,2024-04-03,2024-04-03,合同会社ＫＭ企画,,合同会社,広島県,尾道市,向東町９７１番地８,,34,205,7220062,,,,,,,2024-04-03,1,,,,,ケイエムキカク,0
700,3290001105279,新規,0,2024-04-03,2024-04-03,株式会社たつみ企画,,株式会社,福岡県,大牟田市,大字倉永３３４１番地１,,40,202,8370906,,,,,,,2024-04-03,1,,,,,タツミキカク,0
703,3290801030445,新規,0,2024-04-03,2024-04-03,株式会社小倉設備設計,,株式会社,福岡県,北九州市小倉北区,米町１丁目２番２６号日幸北九州ビル６階,,40,106,8020003,,,,,,,2024-04-03,1,,,,,コクラセツビセッケイ,0
704,3290801030453,新規,0,2024-04-03,2024-04-03,株式会社クマガイ,,株式会社,福岡県,北九州市小倉南区,中貫１丁目１２番１９号,,40,107,8000237,,,,,,,2024-04-03,1,,,,,クマガイ,0
705,3290801030461,新規,0,2024-04-03,2024-04-03,株式会社創友,,株式会社,福岡県,北九州市八幡西区,陣原２丁目１番８号,,40,109,8070821,,,,,,,2024-04-03,1,,,,,ソウユウ,0
706,3290803004678,新規,0,2024-04-03,2024-04-03,平松合同会社,,合同会社,福岡県,遠賀郡遠賀町,大字浅木５４８－３,,40,384,8114312,,,,,,,2024-04-03,1,,,,,ヒラマツ,0
708,3310001018932,新規,0,2024-04-03,2024-04-03,株式会社ＫＯＵＥＩ　ＳＥＡＬ,,株式会社,長崎県,佐世保市,大和町９９８番地２,,42,202,8571165,,,,,,,2024-04-03,1,,,,,コウエイシール,0
709,3320001020383,新規,0,2024-04-03,2024-04-03,海道株式会社,,株式会社,大分県,中津市,大字是則１１６２番地１,,44,203,8710003,,,,,,,2024-04-03,1,,,,,カイドウ,0
710,3320003004327,新規,0,2024-04-03,2024-04-03,合同会社入舟荘,,合同会社,大分県,別府市,大字鉄輪７６０番地,,44,202,8740000,,,,,,,2024-04-03,1,,,,,イリフネソウ,0
714,3340001026420,新規,0,2024-04-03,2024-04-03,株式会社長里商事,,株式会社,鹿児島県,日置市,東市来町長里１８２６番地６,,46,216,8992202,,,,,,,2024-04-03,1,,,,,ナガサトショウジ,0
717,3360001033456,新規,0,2024-04-03,2024-04-03,株式会社Ｃｒｉｆｕｆｕ,,株式会社,沖縄県,那覇市,小禄１丁目３０番５２号,,47,201,9010152,,,,,,,2024-04-03,1,,,,,クリフフ,0
721,3360003013860,新規,0,2024-04-03,2024-04-03,松島学童クラブ合同会社,,合同会社,沖縄県,那覇市,古島２丁目８番地１４,,47,201,9020061,,,,,,,2024-04-03,1,,,,,,0
729,3430001091430,新規,0,2024-04-03,2024-04-03,祐信総合調査株式会社,00134278,株式会社,北海道,札幌市中央区,南三条西９丁目９９９番地７,,01,101,0600063,,,,,,,2024-04-03,1,,,,,,0
730,3430001091447,新規,0,2024-04-03,2024-04-03,株式会社ＪＳウェルフェア,,株式会社,北海道,札幌市白石区,北郷三条７丁目７番１号,,01,104,0030833,,,,,,,2024-04-03,1,,,,,ジェーエスウェルフェア,0
731,3430001091488,新規,0,2024-04-03,2024-04-03,株式会社ＹＯＫＯＹＡＭＡ,,株式会社,北海道,札幌市北区,篠路町上篠路８１番地８,,01,102,0028052,,,,,,,2024-04-03,1,,,,,ヨコヤマ,0
733,3450001014265,新規,0,2024-04-03,2024-04-03,株式会社Ｊ　Ｃｌｅａｎ＆Ｍａｉｎｔｅｎａｎｃｅ,,株式会社,北海道,富良野市,字東鳥沼の１,,01,229,0760041,,,,,,,2024-04-03,1,,,,,ジェイクリーンアンドメンテナンス,0
734,3450001014273,新規,0,2024-04-03,2024-04-03,株式会社アソシエイツ,,株式会社,北海道,旭川市,六条通８丁目３６番２５号,,01,204,0700036,,,,,,,2024-04-03,1,,,,,アソシエイツ,0
736,3450005004403,新規,0,2024-04-03,2024-04-03,一般社団法人森の輪,,その他の設立登記法人,北海道,旭川市,北門町９丁目北海道教育大学旭川校馬場拓也研究室,,01,204,0700825,,,,,,,2024-04-03,1,,,,,モリノワ,0
740,3460003000989,新規,0,2024-04-03,2024-04-03,合同会社ＦＪ　Ｃａｔｔｌｅ　Ｂｒｉｇｈｔｓ,,合同会社,北海道,厚岸郡厚岸町,光栄２４７番地,,01,662,0881129,,,,,,,2024-04-03,1,,,,,エフジェーキャトルブライツ,0
748,3500003003211,新規,0,2024-04-03,2024-04-03,合同会社昭電興業社,,合同会社,愛媛県,八幡浜市,松柏丁３８８番地９,,38,204,7960010,,,,,,,2024-04-03,1,,,,,ショウデンコウギョウシャ,0
759,4010001243584,新規,0,2024-04-03,2024-04-03,株式会社ｇｒｏｗ,,株式会社,東京都,中央区,銀座１丁目１２番４号Ｎ＆Ｅ－ＢＬＤ．７階,,13,102,1040061,,,,,,,2024-04-03,1,,,,,グロウ,0
760,4010001243592,新規,0,2024-04-03,2024-04-03,新光株式会社,,株式会社,東京都,中央区,日本橋室町１丁目１１番１２号日本橋水野ビル７階,,13,102,1030022,,,,,,,2024-04-03,1,,,,,シンコウ,0
761,4010001243618,新規,0,2024-04-03,2024-04-03,株式会社エフピーリファイン,,株式会社,東京都,中央区,京橋１丁目３－２モリイチビル４階,,13,102,1040031,,,,,,,2024-04-03,1,,,,,エフピーリファイン,0
765,4010101016072,新規,0,2024-04-03,2024-04-03,アイアンフォード株式会社,,株式会社,東京都,八王子市,南陽台３丁目２１番１０号,,13,201,1920371,,,,,,,2024-04-03,1,,,,,アイアンフォード,0
772,4010401181459,新規,0,2024-04-03,2024-04-03,株式会社ｍｉｄｏｋｏｒｏ,,株式会社,東京都,港区,南青山３丁目１番３６号青山丸竹ビル６Ｆ,,13,103,1070062,,,,,,,2024-04-03,1,,,,,ミドコロ,0
773,4010401181574,新規,0,2024-04-03,2024-04-03,株式会社Ｐｌａｔｉｎｕｍ,,株式会社,東京都,港区,三田３丁目４番３号,,13,103,1080073,,,,,,,2024-04-03,1,,,,,プラチナ,0
775,4010501052048,新規,0,2024-04-03,2024-04-03,東京メトロアセットマネジメント株式会社,,株式会社,東京都,台東区,上野３丁目１番２号,,13,106,1100005,,,,,,,2024-04-03,1,,,,,トウキョウメトロアセットマネジメント,0
776,4010601064942,新規,0,2024-04-03,2024-04-03,株式会社デモリション・ワン,,株式会社,東京都,江東区,豊洲１丁目３番２－２４０１号,,13,108,1350061,,,,,,,2024-04-03,1,,,,,デモリションワン,0
782,4010605004309,新規,0,2024-04-03,2024-04-03,一般社団法人中南大学校友会,,その他の設立登記法人,東京都,江東区,東雲１丁目５番１８－２０５号,,13,108,1350062,,,,,,,2024-04-03,1,,,,,チュウナンダイガクコウユウカイ,0
786,4010901054981,新規,0,2024-04-03,2024-04-03,株式会社コールドレコーズ,,株式会社,東京都,世田谷区,上馬２丁目１４番１号横溝ビル１階,,13,112,1540011,,,,,,,2024-04-03,1,,,,,コールドレコーズ,0
787,4010901054998,新規,0,2024-04-03,2024-04-03,株式会社ｘｔｈｉｎｋ,,株式会社,東京都,世田谷区,深沢２丁目１番１１号,,13,112,1580081,,,,,,,2024-04-03,1,,,,,シンク,0
788,4010901055014,新規,0,2024-04-03,2024-04-03,株式会社石井,,株式会社,東京都,世田谷区,奥沢３丁目２４番１５号,,13,112,1580083,,,,,,,2024-04-03,1,,,,,イシイ,0
791,4010905004594,新規,0,2024-04-03,2024-04-03,一般社団法人ＦＬＥＸＩＢＬＥ,,その他の設立登記法人,東京都,世田谷区,経堂３丁目２７番２号,,13,112,1560052,,,,,,,2024-04-03,1,,,,,フレキシブル,0
795,4011001160984,新規,0,2024-04-03,2024-04-03,株式会社Ｂｅｅ　Ｌｉｆｅ,,株式会社,東京都,目黒区,上目黒３丁目４２番７－２０５号,,13,110,1530051,,,,,,,2024-04-03,1,,,,,ビーライフ,0
798,4011101106763,新規,0,2024-04-03,2024-04-03,株式会社ＡＬＦＡ　ＬＡＮＤ,,株式会社,東京都,新宿区,西新宿４丁目１１番２０号,,13,104,1600023,,,,,,,2024-04-03,1,,,,,アルファランド,0
799,4011203004345,新規,0,2024-04-03,2024-04-03,合同会社Ｈ２,,合同会社,東京都,中野区,新井１丁目１５番１２－２０２号,,13,114,1650026,,,,,,,2024-04-03,1,,,,,エイチツー,0
804,4011501030506,新規,0,2024-04-03,2024-04-03,Ｆｌａｕｒ株式会社,,株式会社,東京都,荒川区,荒川３丁目４７番５号,,13,118,1160002,,,,,,,2024-04-03,1,,,,,フラワー,0
809,4011801044008,新規,0,2024-04-03,2024-04-03,万家歓株式会社,,株式会社,東京都,足立区,千住桜木２丁目６－４,,13,121,1200045,,,,,,,2024-04-03,1,,,,,マンカカン,0
811,4011803006154,新規,0,2024-04-03,2024-04-03,Ｔ＆Ｄ合同会社,,合同会社,東京都,葛飾区,新小岩１丁目５６番５号,,13,122,1240024,,,,,,,2024-04-03,1,,,,,ティーアンドディー,0
812,4012301013857,新規,0,2024-04-03,2024-04-03,株式会社ハルニレ,,株式会社,東京都,町田市,原町田４丁目１０番２０号,,13,209,1940013,,,,,,,2024-04-03,1,,,,,ハルニレ,0
813,4012303001967,新規,0,2024-04-03,2024-04-03,ダイアローグ・コミュニケーションズ合同会社,,合同会社,東京都,町田市,玉川学園１丁目１９番２６号,,13,209,1940041,,,,,,,2024-04-03,1,,,,,ダイアローグコミュニケーションズ,0
814,4012403006486,新規,0,2024-04-03,2024-04-03,合同会社田村英樹事務所,,合同会社,東京都,調布市,菊野台３丁目５３番地１１９,,13,208,1820007,,,,,,,2024-04-03,1,,,,,タムラヒデキジムショ,0
818,4013101009384,新規,0,2024-04-03,2024-04-03,株式会社そうや,,株式会社,東京都,あきる野市,引田１３番地６３,,13,228,1970834,,,,,,,2024-04-03,1,,,,,ソウヤ,0
819,4020001156372,新規,0,2024-04-03,2024-04-03,株式会社ＫＥＹ　ＢＬＥＮＤ,,株式会社,神奈川県,川崎市多摩区,堰３丁目１９番３－３０２号ロワジール多摩川,,14,135,2140022,,,,,,,2024-04-03,1,,,,,キーブレンド,0
820,4020001156488,新規,0,2024-04-03,2024-04-03,ＭＡＸ株式会社,,株式会社,神奈川県,横浜市神奈川区,子安通３丁目３４７番地１６プレシス横濱新子安９１５号,,14,102,2210021,,,,,,,2024-04-03,1,,,,,マックス,0
822,4021001081833,新規,0,2024-04-03,2024-04-03,株式会社九洲ファルマラボ,,株式会社,神奈川県,藤沢市,村岡東２丁目２６番地の１湘南ヘルスイノベーションパーク居室番号：Ｃ１１Ｍ－４３２０,,14,205,2510012,,,,,,,2024-04-03,1,,,,,キュウシュウファルマラボ,0
825,4021003014329,新規,0,2024-04-03,2024-04-03,合同会社シーエス,,合同会社,神奈川県,相模原市南区,南台４丁目１６－４メゾン相模原２０６号室,,14,153,2520314,,,,,,,2024-04-03,1,,,,,シーエス,0
828,4030001159366,新規,0,2024-04-03,2024-04-03,株式会社ＬＡＮＤＷＥＬＬ,,株式会社,埼玉県,入間郡三芳町,大字藤久保２４７番地８,,11,324,3540041,,,,,,,2024-04-03,1,,,,,ランドウェル,0
829,4030001159564,新規,0,2024-04-03,2024-04-03,株式会社中村造園,,株式会社,埼玉県,上尾市,大字畔吉８９６番地１０,,11,219,3620065,,,,,,,2024-04-03,1,,,,,ナカムラゾウエン,0
833,4050001054557,新規,0,2024-04-03,2024-04-03,株式会社クツカケ,,株式会社,茨城県,古河市,女沼１５２７番地１５,,08,204,3060226,,,,,,,2024-04-03,1,,,,,クツカケ,0
840,4050005013427,新規,0,2024-04-03,2024-04-03,一般社団法人ひたち風の谷,,その他の設立登記法人,茨城県,日立市,白銀町２丁目２２番３２号,,08,202,3170056,,,,,,,2024-04-03,1,,,,,ヒタチカゼノタニ,0
842,4060003005012,新規,0,2024-04-03,2024-04-03,合同会社ＫＯＢＡＹＡＳＨＩ,,合同会社,栃木県,那須郡那珂川町,小口１２４３番地,,09,411,3240618,,,,,,,2024-04-03,1,,,,,コバヤシ,0
844,4070003005333,新規,0,2024-04-03,2024-04-03,合同会社Ｍｏｏｒｉｎｇ,,合同会社,群馬県,太田市,飯田町１００６番地１ＳＫビル２Ｆ,,10,205,3730851,,,,,,,2024-04-03,1,,,,,ムーリング,0
850,4080401027102,新規,0,2024-04-03,2024-04-03,株式会社Ｆｒｉｅｄｅｎ,,株式会社,静岡県,掛川市,小鷹町２８番地,,22,213,4360045,,,,,,,2024-04-03,1,,,,,フリーデン,0
851,4090001018624,新規,0,2024-04-03,2024-04-03,株式会社永関建築,,株式会社,山梨県,甲府市,池田２丁目８番４号,,19,201,4000062,,,,,,,2024-04-03,1,,,,,ナガセキケンチク,0
852,4100003007490,新規,0,2024-04-03,2024-04-03,合同会社ＤＡＯデザイナーハル,,合同会社,長野県,長野市,南千歳１丁目２２番地６,,20,201,3800823,,,,,,,2024-04-03,1,,,,,ダオデザイナーハル,0
858,4120001263662,新規,0,2024-04-03,2024-04-03,信通貿易株式会社,,株式会社,大阪府,大阪市東住吉区,照ケ丘矢田１丁目４番１７号３０１号室,,27,121,5460021,,,,,,,2024-04-03,1,,,,,シンツウボウエキ,0
859,4120001263679,新規,0,2024-04-03,2024-04-03,株式会社Ｌｉｎｋ　Ｕｐ,,株式会社,大阪府,大阪市中央区,船場中央１丁目３番２号船場センタービル２号館１０１大阪デザインセンター内,,27,128,5410055,,,,,,,2024-04-03,1,,,,,リンクアップ,0
860,4120001263712,新規,0,2024-04-03,2024-04-03,株式会社アンロック,,株式会社,大阪府,大阪市福島区,海老江１丁目５番３０―１６２８号,,27,103,5530001,,,,,,,2024-04-03,1,,,,,アンロック,0
861,4120001263729,新規,0,2024-04-03,2024-04-03,株式会社大阪とんかつ,,株式会社,大阪府,大阪市西区,京町堀１丁目１７番９号,,27,106,5500003,,,,,,,2024-04-03,1,,,,,オオサカトンカツ,0
865,4120003026266,新規,0,2024-04-03,2024-04-03,合同会社ａｎｔ,,合同会社,大阪府,大阪市阿倍野区,昭和町２丁目１４番１３号,,27,119,5450011,,,,,,,2024-04-03,1,,,,,アント,0
866,4120005024251,新規,0,2024-04-03,2024-04-03,社会保険労務士法人ＪＩＭＣＲＥＡＴＥ,,その他の設立登記法人,大阪府,大阪市中央区,谷町３丁目６番４号,,27,128,5400012,,,,,,,2024-04-03,1,,,,,ジムクリエイト,0
869,4120101069340,新規,0,2024-04-03,2024-04-03,株式会社ダイセツ工業,,株式会社,大阪府,南河内郡千早赤阪村,大字森屋７０１番地１,,27,383,5850044,,,,,,,2024-04-03,1,,,,,ダイセツコウギョウ,0
870,4120101069357,新規,0,2024-04-03,2024-04-03,株式会社Ｇｌａｎｚ,,株式会社,大阪府,富田林市,久野喜台２丁目３－１３９－４０７,,27,214,5840074,,,,,,,2024-04-03,1,,,,,グランツ,0
871,4120103005756,新規,0,2024-04-03,2024-04-03,ＪＡＰ合同会社,,合同会社,大阪府,大阪狭山市,山本南１０４,,27,231,5890033,,,,,,,2024-04-03,1,,,,,ジェーエーピー,0
872,4120105009838,新規,0,2024-04-03,2024-04-03,一般社団法人ｃｈｉｌｄ　ｗｒｅａｔｈ　ｃｏｍｐａｎｙ,,その他の設立登記法人,大阪府,富田林市,津々山台２丁目８番１号エステートＩＩＩ２０２,00134282,27,214,5840086,,,,,,,2024-04-03,1,,,,,チャイルドリースカンパニー,0
874,4120901048997,新規,0,2024-04-03,2024-04-03,株式会社Ｓｔａｒｌｉｇｈｔ　ｈｅａｌｔｈｃａｒｅ,,株式会社,大阪府,高槻市,上田辺町２番１４号,,27,207,5690805,,,,,,,2024-04-03,1,,,,,スターライトヘルスケア,0
881,4130001076725,新規,0,2024-04-03,2024-04-03,株式会社Ｋ．Ｋ,,株式会社,京都府,宇治市,伊勢田町井尻７１番地の３４,,26,204,6110043,,,,,,,2024-04-03,1,,,,,ケーケー,0
882,4130003009419,新規,0,2024-04-03,2024-04-03,合同会社＿和,00134276,合同会社,京都府,京都市左京区,南禅寺北ノ坊町２０番地３,,26,103,6068446,,,,,,,2024-04-03,1,,,,,キンワ,0
883,4130003009427,新規,0,2024-04-03,2024-04-03,Ｐｉｏｎｉｒａ　Ｓｏｌｕｔｉｏｎｓ合同会社,,合同会社,京都府,宇治市,莵道平町６０番地の７３,,26,204,6110013,,,,,,,2024-04-03,1,,,,,ピオニラソリューションズ,0
886,4140001133970,新規,0,2024-04-03,2024-04-03,株式会社Ｋ‐Ｐｌａｎｎｉｎｇ,,株式会社,兵庫県,神戸市須磨区,桜木町２丁目４番１５号,,28,107,6540066,,,,,,,2024-04-03,1,,,,,ケープランニング,0
892,4140005026997,新規,0,2024-04-03,2024-04-03,特定非営利活動法人つどう場こうべ,,その他の設立登記法人,兵庫県,神戸市中央区,港島中町６丁目２番地の１神戸パークシティ１号棟８０７号,,28,110,6500046,,,,,,,2024-04-03,1,,,,,,0
894,4150003003213,新規,0,2024-04-03,2024-04-03,合同会社ＳＬＯＷ　ＨＯＵＳＥ,,合同会社,奈良県,奈良市,上三条町１番地の５,,29,201,6308228,,,,,,,2024-04-03,1,,,,,スローハウス,0
895,4160001025794,新規,0,2024-04-03,2024-04-03,サンライズ企画株式会社,,株式会社,滋賀県,野洲市,小篠原２７１番地３,,25,210,5202331,,,,,,,2024-04-03,1,,,,,サンライズキカク,0
897,4170005007078,新規,0,2024-04-03,2024-04-03,一般社団法人ソーシャルインクルージョンパートナーズ,,その他の設立登記法人,和歌山県,紀の川市,古和田２６８番地２,,30,208,6496432,,,,,,,2024-04-03,1,,,,,ソーシャルインクルージョンパートナーズ,0
906,4180001160755,新規,0,2024-04-03,2024-04-03,株式会社ＡＲＥＡ,,株式会社,愛知県,名古屋市昭和区,川名山町１１４番地,,23,107,4660827,,,,,,,2024-04-03,1,,,,,エリア,0
907,4180001160805,新規,0,2024-04-03,2024-04-03,株式会社エボリューション,,株式会社,愛知県,名古屋市中区,松原２丁目１番２２号メゾン・ド・セティエーヌ８０３号室,,23,106,4600017,,,,,,,2024-04-03,1,,,,,エボリューション,0
914,4190003004637,新規,0,2024-04-03,2024-04-03,合同会社ＭＬＳ,,合同会社,三重県,津市,広明町３６６番地大川ビル６階,,24,201,5140006,,,,,,,2024-04-03,1,,,,,エムエルエス,0
917,4200001042331,新規,0,2024-04-03,2024-04-03,ＭＫ株式会社,,株式会社,岐阜県,多治見市,小田町６丁目１番地,,21,204,5070023,,,,,,,2024-04-03,1,,,,,エムケー,0
918,4200001042356,新規,0,2024-04-03,2024-04-03,株式会社テン,,株式会社,岐阜県,各務原市,那加日新町６丁目３番地オフィス２１,,21,213,5040945,,,,,,,2024-04-03,1,,,,,テン,0
922,4230001020276,新規,0,2024-04-03,2024-04-03,株式会社アイトミ,,株式会社,富山県,富山市,婦中町千里３３８番地１,,16,201,9392622,,,,,,,2024-04-03,1,,,,,アイトミ,0
923,4230001020284,新規,0,2024-04-03,2024-04-03,株式会社天狗平山荘,,株式会社,富山県,中新川郡立山町,芦峅寺８０番地,,16,323,9301406,,,,,,,2024-04-03,1,,,,,テングダイラサンソウ,0
928,4240001063027,新規,0,2024-04-03,2024-04-03,株式会社サンコーリース,,株式会社,広島県,広島市南区,東雲１丁目２番１７号,,34,103,7340022,,,,,,,2024-04-03,1,,,,,サンコーリース,0
930,4240003006611,新規,0,2024-04-03,2024-04-03,ｏｈａｎａ合同会社,,合同会社,広島県,広島市中区,薬研堀４番１４号,,34,101,7300027,,,,,,,2024-04-03,1,,,,,オハナ,0
931,4240005015759,新規,0,2024-04-03,2024-04-03,医療法人安佐南在宅・痛みのクリニック,,その他の設立登記法人,広島県,広島市安佐南区,川内２丁目２０番２１号,,34,105,7310102,,,,,,,2024-04-03,1,,,,,アサミナミザイタクイタミノクリニック,0
941,4290801030444,新規,0,2024-04-03,2024-04-03,株式会社ファンキーフルーツ,,株式会社,福岡県,北九州市八幡東区,枝光２丁目７番１０号,,40,108,8050002,,,,,,,2024-04-03,1,,,,,ファンキーフルーツ,0
942,4290801030452,新規,0,2024-04-03,2024-04-03,株式会社リンテック,,株式会社,福岡県,北九州市小倉北区,吉野町１３番１－１３０１号,,40,106,8020085,,,,,,,2024-04-03,1,,,,,リンテック,0
943,4290801030460,新規,0,2024-04-03,2024-04-03,株式会社ＫＩＤＯホールディングス,,株式会社,福岡県,田川郡香春町,大字鏡山１７１番地３,,40,601,8221402,,,,,,,2024-04-03,1,,,,,キドホールディングス,0
944,4290801030469,新規,0,2024-04-03,2024-04-03,アスト建設株式会社,,株式会社,福岡県,直方市,大字上頓野２１９３番地１の１２,,40,204,8220003,,,,,,,2024-04-03,1,,,,,アストケンセツ,0
945,4290803004677,新規,0,2024-04-03,2024-04-03,合同会社ＪＥＭ,,合同会社,福岡県,遠賀郡遠賀町,大字浅木５４８－３,,40,384,8114312,,,,,,,2024-04-03,1,,,,,ジェム,0
946,4300001013669,新規,0,2024-04-03,2024-04-03,株式会社向学社,,株式会社,佐賀県,唐津市,浦６１８２番地２,,41,202,8470124,,,,,,,2024-04-03,1,,,,,コウガクシャ,0
948,4310001018931,新規,0,2024-04-03,2024-04-03,株式会社力建,,株式会社,長崎県,佐世保市,日宇町２７３６番地６　１９号,,42,202,8571151,,,,,,,2024-04-03,1,,,,,リキケン,0
951,4320001020382,新規,0,2024-04-03,2024-04-03,株式会社Ｙ＆Ｋ,,株式会社,大分県,由布市,湯布院町川上３０５６番地１モトヤマビル１Ｆ,,44,213,8795102,,,,,,,2024-04-03,1,,,,,ワイアンドケー,0
953,4340001026411,新規,0,2024-04-03,2024-04-03,株式会社辻工業,00134286,株式会社,鹿児島県,姶良市,加治木町木田２７４６番地２,,46,225,8995241,,,,,,,2024-04-03,1,,,,,ツジコウギョウ,0
956,4360001033422,新規,0,2024-04-03,2024-04-03,株式会社ＮＴＴドコモ損保設立準備,,株式会社,沖縄県,名護市,字久志５４７番地５,,47,209,9052173,,,,,,,2024-04-03,1,,,,,エヌティティドコモソンポセツリツジュンビ,0
957,4360001033455,新規,0,2024-04-03,2024-04-03,株式会社ＯＦＦＩＣＥＹＡＫＩＳＨＩＮ,,株式会社,沖縄県,島尻郡南風原町,字兼城１２８番地エンネ・グランデ２０２,,47,350,9011111,,,,,,,2024-04-03,1,,,,,オフィスヤキシン,0
958,4360001033463,新規,0,2024-04-03,2024-04-03,株式会社ミーテック,,株式会社,沖縄県,浦添市,西原４丁目１７番４号エステートハッチＩＩ１０２号,00134281,47,208,9012101,,,,,,,2024-04-03,1,,,,,ミーテック,0
961,4360003013868,新規,0,2024-04-03,2024-04-03,合同会社コダマカンパニー,,合同会社,沖縄県,那覇市,久茂地２丁目１２番９号プラネットビル５－Ｂ,,47,201,9000015,,,,,,,2024-04-03,1,,,,,コダマカンパニー,0
965,4390001017562,新規,0,2024-04-03,2024-04-03,株式会社ＴＲＹ,,株式会社,山形県,米沢市,窪田町窪田１４３５番地１３,,06,202,9920003,,,,,,,2024-04-03,1,,,,,トライ,0
971,4430001091446,新規,0,2024-04-03,2024-04-03,株式会社エイトパーキング,,株式会社,北海道,札幌市白石区,東札幌二条５丁目６番６号,,01,104,0030002,,,,,,,2024-04-03,1,,,,,エイトパーキング,0
972,4440001009414,新規,0,2024-04-03,2024-04-03,株式会社時塗装工業所,,株式会社,北海道,函館市,赤川町５５９番地４０,,01,202,0410804,,,,,,,2024-04-03,1,,,,,トキトソウコウギョウショ,0
974,4460001005881,新規,0,2024-04-03,2024-04-03,株式会社丸潤設計事務所,,株式会社,北海道,釧路市,新栄町９番１０号,,01,206,0850032,,,,,,,2024-04-03,1,,,,,マルジュンセッケイジムショ,0
978,4490001010739,新規,0,2024-04-03,2024-04-03,株式会社ＨＫ,,株式会社,高知県,高知市,葛島３丁目５番１４号,,39,201,7818121,,,,,,,2024-04-03,1,,,,,エイチケイ,0
993,5010003043354,新規,0,2024-04-03,2024-04-03,合同会社ＣＲＹＳＴＡＬＩＦＥ,,合同会社,東京都,中央区,銀座１丁目２２番１１号銀座大竹ビジデンス２Ｆ,,13,102,1040061,,,,,,,2024-04-03,1,,,,,クリスタライフ,0
995,5010103002326,新規,0,2024-04-03,2024-04-03,合同会社けやき商会,,合同会社,東京都,八王子市,散田町５丁目１９－２,,13,201,1930832,,,,,,,2024-04-03,1,,,,,ケヤキショウカイ,0
1003,5010401181417,新規,0,2024-04-03,2024-04-03,株式会社Ｎｅｘｔ　Ｐｏｉｎｔ,,株式会社,東京都,港区,芝浦４丁目１５－１－７０４,,13,103,1080023,,,,,,,2024-04-03,1,,,,,ネクストポイント,0
1004,5010401181615,新規,0,2024-04-03,2024-04-03,Ｂａｋｕ株式会社,,株式会社,東京都,港区,虎ノ門４丁目３番１号城山トラストタワー東京赤坂法律事務所内,,13,103,1050001,,,,,,,2024-04-03,1,,,,,バク,0
1009,5010601064941,新規,0,2024-04-03,2024-04-03,株式会社Ｒｉｖｅｅｒ,,株式会社,東京都,江東区,有明２丁目１番３－３１０８号,,13,108,1350063,,,,,,,2024-04-03,1,,,,,リバー,0
1010,5010601064958,新規,0,2024-04-03,2024-04-03,株式会社エムストア,,株式会社,東京都,江東区,亀戸３丁目６０番１７号,,13,108,1360071,,,,,,,2024-04-03,1,,,,,エムストア,0
1011,5010603010753,新規,0,2024-04-03,2024-04-03,合同会社ＳｔａｒＲｅａｌ,,合同会社,東京都,江東区,有明１丁目５番２－２２０５号,,13,108,1350063,,,,,,,2024-04-03,1,,,,,スターリアル,0
1022,5011001161049,新規,0,2024-04-03,2024-04-03,株式会社イノベーターズ・ブレイン,,株式会社,東京都,渋谷区,恵比寿西２丁目８番４号ＥＸ恵比寿西ビル５階,,13,113,1500021,,,,,,,2024-04-03,1,,,,,イノベーターズブレイン,0
1023,5011001161065,新規,0,2024-04-03,2024-04-03,株式会社日本セールスセンター,,株式会社,東京都,渋谷区,道玄坂１丁目１０番８号渋谷道玄坂東急ビル２Ｆ―Ｃ,,13,113,1500043,,,,,,,2024-04-03,1,,,,,ニホンセールスセンター,0
1024,5011001161073,新規,0,2024-04-03,2024-04-03,株式会社リトルワンダーエンターテイメント,,株式会社,東京都,渋谷区,渋谷２丁目１９―１５宮益坂ビルディング６０９,,13,113,1500002,,,,,,,2024-04-03,1,,,,,リトルワンダーエンターテイメント,0
1028,5011003018841,新規,0,2024-04-03,2024-04-03,合同会社ｍａｒｕｋｏｒｏ,,合同会社,東京都,渋谷区,宇田川町３－７ヒューリック渋谷公園通りビル５Ｆ－８９,,13,113,1500042,,,,,,,2024-04-03,1,,,,,マルコロ,0
1034,5011101106663,新規,0,2024-04-03,2024-04-03,タロウロボティクス株式会社,,株式会社,東京都,新宿区,中落合２丁目８番２４－１０１号,,13,104,1610032,,,,,,,2024-04-03,1,,,,,タロウロボティクス,0
1035,5011101106804,新規,0,2024-04-03,2024-04-03,株式会社エグジビションコーディネート,,株式会社,東京都,新宿区,西早稲田１丁目２２番３号,,13,104,1690051,,,,,,,2024-04-03,1,,,,,エグジビションコーディネート,0
1036,5011103014286,新規,0,2024-04-03,2024-04-03,合同会社ＯＮＥ　ＷＡＹ　ＳＹＳＴＥＭ,,合同会社,東京都,新宿区,西新宿３丁目３番１３号西新宿水間ビル６階,,13,104,1600023,,,,,,,2024-04-03,1,,,,,ワンウェイシステム,0
1037,5011201025375,新規,0,2024-04-03,2024-04-03,シコーエンジニアリング株式会社,,株式会社,東京都,中野区,大和町１丁目１２番４号,,13,114,1650034,,,,,,,2024-04-03,1,,,,,シコーエンジニアリング,0
1038,5011203004344,新規,0,2024-04-03,2024-04-03,Ｍ．Ｊ．Ｍｅｌｉｏｒａ合同会社,,合同会社,東京都,中野区,上鷺宮４丁目６番１８－４０９号,,13,114,1650031,,,,,,,2024-04-03,1,,,,,エムジェイメリオラ,0
1039,5011205002593,新規,0,2024-04-03,2024-04-03,一般社団法人中野グループバレエ協会,,その他の設立登記法人,東京都,中野区,東中野４丁目９番２５号,,13,114,1640003,,,,,,,2024-04-03,1,,,,,ナカノグループバレエキョウカイ,0
1043,5011401025976,新規,0,2024-04-03,2024-04-03,株式会社ＣＯＣＯＬＩＮＯ,,株式会社,東京都,板橋区,南常盤台１丁目１１－６レフア南常盤台１０１号室,,13,119,1740072,,,,,,,2024-04-03,1,,,,,ココリノ,0
1044,5011405002286,新規,0,2024-04-03,2024-04-03,一般社団法人日本思秋期総合研究機構,,その他の設立登記法人,東京都,板橋区,前野町５丁目１７番３－３１２号カーサ常盤台,,13,119,1740063,,,,,,,2024-04-03,1,,,,,ニホンシシュウキソウゴウケンキュウキコウ,0
1049,5011801044007,新規,0,2024-04-03,2024-04-03,株式会社ＫＳ商事,,株式会社,東京都,足立区,鹿浜５丁目２２－１９,,13,121,1230864,,,,,,,2024-04-03,1,,,,,ケイエスショウジ,0
1052,5012303001966,新規,0,2024-04-03,2024-04-03,合同会社ＹＳコンサルティング,,合同会社,東京都,町田市,中町４丁目１２番２号３,,13,209,1940021,,,,,,,2024-04-03,1,,,,,ワイエスコンサルティング,0
1055,5012405004966,新規,0,2024-04-03,2024-04-03,一般社団法人Ｋａｎｏａ,,その他の設立登記法人,東京都,武蔵野市,桜堤２丁目８番５５－１０８号,,13,203,1800021,,,,,,,2024-04-03,1,,,,,カノア,0
1057,5012801023082,新規,0,2024-04-03,2024-04-03,株式会社Ｙｙ,,株式会社,東京都,国分寺市,本多５丁目８番１号まるゆビル１１１,,13,214,1850011,,,,,,,2024-04-03,1,,,,,ワイワイ,0
1058,5012805003262,新規,0,2024-04-03,2024-04-03,一般社団法人ざ・さーどぷれいす,,その他の設立登記法人,東京都,立川市,富士見町２丁目２１番５号ドウエルパークウエスト１０２号,,13,202,1900013,,,,,,,2024-04-03,1,,,,,ザサードプレイス,0
1071,5030001159480,新規,0,2024-04-03,2024-04-03,Ｇ．Ｒインターナショナル株式会社,,株式会社,埼玉県,春日部市,大場１６３１番地１０,,11,214,3440021,,,,,,,2024-04-03,1,,,,,ジードットアールインターナショナル,0
1072,5030001159522,新規,0,2024-04-03,2024-04-03,ビジュアライズ株式会社,,株式会社,埼玉県,所沢市,弥生町１７５５番地の５６,,11,208,3590043,,,,,,,2024-04-03,1,,,,,ビジュアライズ,0
1073,5030001159555,新規,0,2024-04-03,2024-04-03,株式会社まごころ,,株式会社,埼玉県,秩父市,近戸町３番５号,,11,207,3680052,,,,,,,2024-04-03,1,,,,,マゴコロ,0
1076,5030003023866,新規,0,2024-04-03,2024-04-03,合同会社Ｔｏｒｃｈ総研,,合同会社,埼玉県,飯能市,美杉台４丁目３－１６,,11,209,3570041,,,,,,,2024-04-03,1,,,,,トーチソウケン,0
1077,5030003023940,新規,0,2024-04-03,2024-04-03,合同会社ステラ,,合同会社,埼玉県,所沢市,西所沢２丁目１番１３ガーデンパーク西所沢３０２号,,11,208,3591144,,,,,,,2024-04-03,1,,,,,ステラ,0
1078,5030003023957,新規,0,2024-04-03,2024-04-03,タカノメディア合同会社,,合同会社,埼玉県,和光市,新倉２丁目１９番７０－３０５号,,11,229,3510115,,,,,,,2024-04-03,1,,,,,タカノメディア,0
1079,5030005021604,新規,0,2024-04-03,2024-04-03,一般社団法人あんぷ,,その他の設立登記法人,埼玉県,三郷市,戸ケ崎１丁目３８番１号,,11,237,3410044,,,,,,,2024-04-03,1,,,,,アンプ,0
1094,5070001041560,新規,0,2024-04-03,2024-04-03,株式会社ＮＨコンサルティング,,株式会社,群馬県,桐生市,宮前町２丁目７番８号,,10,203,3760046,,,,,,,2024-04-03,1,,,,,エヌエイチコンサルティング,0
1095,5070001041577,新規,0,2024-04-03,2024-04-03,株式会社楽造,,株式会社,群馬県,高崎市,中里見町６０５番地２,,10,202,3703344,,,,,,,2024-04-03,1,,,,,ラクゾウ,0
1096,5070001041585,新規,0,2024-04-03,2024-04-03,株式会社ＨＡＭＤＡＮ　ＩＮＴＥＲＮＡＴＩＯＮＡＬ,,株式会社,群馬県,前橋市,粕川町女渕１８６番地８,,10,201,3710214,,,,,,,2024-04-03,1,,,,,ハムダンインターナショナル,0
1097,5070005010248,新規,0,2024-04-03,2024-04-03,あい社会保険労務士法人,,その他の設立登記法人,群馬県,佐波郡玉村町,大字上茂木１３８番地,,10,464,3701122,,,,,,,2024-04-03,1,,,,,アイ,0
1102,5080401027084,新規,0,2024-04-03,2024-04-03,エムライン企画株式会社,,株式会社,静岡県,浜松市中央区,大瀬町２３２７番地の２,,22,138,4313113,,,,,,,2024-04-03,1,,,,,エムラインキカク,0
1115,5120001263686,新規,0,2024-04-03,2024-04-03,株式会社Ｋ＆Ｅ　ＩＮＴＥＲＮＡＴＩＯＮＡＬ,,株式会社,大阪府,大阪市西区,北堀江１丁目６番２号サンワールドビル,,27,106,5500014,,,,,,,2024-04-03,1,,,,,ケイアンドイーインターナショナル,0
1116,5120001263694,新規,0,2024-04-03,2024-04-03,株式会社ＡＭＦＣ　Ｊａｐａｎ,,株式会社,大阪府,大阪市中央区,安土町２丁目３番１３号大阪国際ビルディング,,27,128,5410052,,,,,,,2024-04-03,1,,,,,エーエムエフシージャパン,0
1119,5120003026067,新規,0,2024-04-03,2024-04-03,Ｐｒｅｓｅｒ合同会社,,合同会社,大阪府,大阪市中央区,島之内２丁目５－５朝日プラザ道頓堀東１０５,,27,128,5420082,,,,,,,2024-04-03,1,,,,,プリサー,0
1120,5120003026257,新規,0,2024-04-03,2024-04-03,合同会社Ｈ＆Ｒ,,合同会社,大阪府,大阪市大正区,三軒家東４丁目１－６－１４０８,,27,108,5510002,,,,,,,2024-04-03,1,,,,,エイチアンドアール,0
1125,5120005024250,新規,0,2024-04-03,2024-04-03,一般社団法人枚方市介護支援専門員連絡協議会,,その他の設立登記法人,大阪府,枚方市,尊延寺３丁目５番２７号,,27,210,5730112,,,,,,,2024-04-03,1,,,,,ヒラカタシカイゴシエンセンモンインレンラクキョウギカイ,0
1128,5120901048996,新規,0,2024-04-03,2024-04-03,株式会社まさお工務店,,株式会社,大阪府,箕面市,稲２丁目２番３４号１Ｆ,,27,220,5620015,,,,,,,2024-04-03,1,,,,,マサオコウムテン,0
1129,5120903005112,新規,0,2024-04-03,2024-04-03,合同会社ＮＡＴＳ,,合同会社,大阪府,吹田市,新芦屋下１９番１４号,,27,205,5650803,,,,,,,2024-04-03,1,,,,,ナッツ,0
1130,5122001037970,新規,0,2024-04-03,2024-04-03,株式会社Ａｍｂｉｔｉｏｕｓ,,株式会社,大阪府,八尾市,東本町２丁目３番２号,,27,212,5810004,,,,,,,2024-04-03,1,,,,,アンビシャス,0
1131,5122003002849,新規,0,2024-04-03,2024-04-03,清元合同会社,,合同会社,大阪府,東大阪市,高井田本通７丁目７番１４号,,27,227,5770066,,,,,,,2024-04-03,1,,,,,セイゲン,0
1143,5160001025802,新規,0,2024-04-03,2024-04-03,株式会社しがぎんエナジー,,株式会社,滋賀県,大津市,浜町１番３８号,,25,201,5200041,,,,,,,2024-04-03,1,,,,,シガギンエナジー,0
1145,5170003002014,新規,0,2024-04-03,2024-04-03,合同会社真心都,,合同会社,和歌山県,和歌山市,和歌浦中３丁目５番５号,,30,201,6410025,,,,,,,2024-04-03,1,,,,,マコト,0
1148,5180001160639,新規,0,2024-04-03,2024-04-03,株式会社エス,,株式会社,愛知県,名古屋市緑区,鳴子町１丁目８１番地の１,,23,114,4580041,,,,,,,2024-04-03,1,,,,,エス,0
1149,5180001160812,新規,0,2024-04-03,2024-04-03,株式会社ＡＱＸＩＡ,,株式会社,愛知県,名古屋市東区,葵１丁目１７番１４号,,23,102,4610004,,,,,,,2024-04-03,1,,,,,アクシア,0
1150,5180001160829,新規,0,2024-04-03,2024-04-03,ＫＵＧＩＰＲＯＤＵＣＥ株式会社,,株式会社,愛知県,名古屋市中川区,好本町３丁目３９番地,,23,110,4540825,,,,,,,2024-04-03,1,,,,,クギプロデュース,0
1151,5180001160845,新規,0,2024-04-03,2024-04-03,アベニュー株式会社,,株式会社,愛知県,名古屋市中村区,豊国通２丁目２３番地１コーポ豊国１Ｆ,,23,105,4530834,,,,,,,2024-04-03,1,,,,,アベニュー,0
1152,5180001160861,新規,0,2024-04-03,2024-04-03,株式会社３ＫＳ,,株式会社,愛知県,名古屋市千種区,茶屋が坂１丁目７番１０号,,23,101,4640092,,,,,,,2024-04-03,1,,,,,スリーケーエス,0
1158,5180003026573,新規,0,2024-04-03,2024-04-03,Ｍ．Ｂ　Ｔｒａｄｉｎｇ合同会社,,合同会社,愛知県,あま市,七宝町鯰橋８丁目１５番地１イーストコート七宝１０１号室,,23,237,4970015,,,,,,,2024-04-03,1,,,,,エムビートレーディング,0
1166,5190005011928,新規,0,2024-04-03,2024-04-03,一般社団法人ＵＳＧソフトテニスクラブ,,その他の設立登記法人,三重県,鈴鹿市,郡山町２００４番地の４１,,24,207,5100263,,,,,,,2024-04-03,1,,,,,ユーエスジーソフトテニスクラブ,0
1168,5200001042355,新規,0,2024-04-03,2024-04-03,株式会社ＯＮＥ‐ＣＯＮＮＥＣＴ,,株式会社,岐阜県,羽島市,竹鼻町飯柄１６７番地１０,,21,209,5016233,,,,,,,2024-04-03,1,,,,,ワンコネクト,0
1169,5200001042363,新規,0,2024-04-03,2024-04-03,株式会社シシガミカンパニー,,株式会社,岐阜県,加茂郡東白川村,越原９７６番地１０,,21,507,5091301,,,,,,,2024-04-03,1,,,,,シシガミカンパニー,0
1170,5200003006291,新規,0,2024-04-03,2024-04-03,合同会社ＴｒｉＢＡＬ,,合同会社,岐阜県,各務原市,上中屋町１丁目１８６番地,,21,213,5040926,,,,,,,2024-04-03,1,,,,,トライバル,0
1174,5220003003717,新規,0,2024-04-03,2024-04-03,Ｈ．Ｆ．Ｔ合同会社,,合同会社,石川県,金沢市,吉原町ハ１９番地１,,17,201,9203114,,,,,,,2024-04-03,1,,,,,エイチエフティー,0
1175,5230001020275,新規,0,2024-04-03,2024-04-03,株式会社ＳＡＳ,,株式会社,富山県,滑川市,堀江４６番地３,,16,206,9360846,,,,,,,2024-04-03,1,,,,,エスエーエス,0
1176,5240001063026,新規,0,2024-04-03,2024-04-03,株式会社宮本建設,,株式会社,広島県,呉市,広小坪１丁目３０番９号,,34,202,7370137,,,,,,,2024-04-03,1,,,,,ミヤモトケンセツ,0
1177,5240001063034,新規,0,2024-04-03,2024-04-03,株式会社広大研,,株式会社,広島県,広島市東区,若草町１０番１４号,,34,102,7320053,,,,,,,2024-04-03,1,,,,,ヒロダイケン,0
1178,5240001063050,新規,0,2024-04-03,2024-04-03,株式会社Ｓｍｅｅｔ,,株式会社,広島県,廿日市市,地御前３丁目１９番５１号地御前ロジュマン２０３,,34,213,7380042,,,,,,,2024-04-03,1,,,,,スミート,0
1186,5260001038926,新規,0,2024-04-03,2024-04-03,株式会社Ｌａ　ｃｕｒａ,,株式会社,岡山県,岡山市南区,内尾４１０番地１０,,33,104,7010212,,,,,,,2024-04-03,1,,,,,ラクーラ,0
1187,5260005011334,新規,0,2024-04-03,2024-04-03,一般社団法人地域を元気にする研究所,,その他の設立登記法人,岡山県,津山市,日本原６０番地１,,33,203,7081204,,,,,,,2024-04-03,1,,,,,チイキヲゲンキニスルケンキュウショ,0
1194,5290801030443,新規,0,2024-04-03,2024-04-03,株式会社Ｇｅｏｓｔａｃｋ,,株式会社,福岡県,北九州市小倉北区,泉台４丁目７番１５号,,40,106,8030842,,,,,,,2024-04-03,1,,,,,ジオスタック,0
1195,5290801030451,新規,0,2024-04-03,2024-04-03,軽鉄・ボードテック株式会社,,株式会社,福岡県,北九州市八幡西区,割子川２丁目６番１６号,,40,109,8060064,,,,,,,2024-04-03,1,,,,,ケイテツボードテック,0
1196,5300001013668,新規,0,2024-04-03,2024-04-03,株式会社ＴＲＡＣＥ,,株式会社,佐賀県,鳥栖市,東町３丁目９２０番地３,,41,203,8410035,,,,,,,2024-04-03,1,,,,,トレイス,0
1197,5300001013676,新規,0,2024-04-03,2024-04-03,株式会社サンリツ西日本,,株式会社,佐賀県,鳥栖市,弥生が丘２丁目１５０番地３２,,41,203,8410005,,,,,,,2024-04-03,1,,,,,サンリツニシニホン,0
1200,5310003004763,新規,0,2024-04-03,2024-04-03,合同会社貞方工建,,合同会社,長崎県,五島市,籠淵町２２３７番２,,42,211,8530041,,,,,,,2024-04-03,1,,,,,サダカタコウケン,0
1201,5310005008754,新規,0,2024-04-03,2024-04-03,一般社団法人つくしんぼうクラブ,,その他の設立登記法人,長崎県,西彼杵郡時津町,野田郷２番地,,42,308,8512104,,,,,,,2024-04-03,1,,,,,ツクシンボウクラブ,0
1202,5330001031931,新規,0,2024-04-03,2024-04-03,株式会社ＳＯＵＫＥＮ,,株式会社,熊本県,熊本市北区,清水新地１丁目１番１０３－４号,,43,105,8618075,,,,,,,2024-04-03,1,,,,,ソウケン,0
1206,5340001026402,新規,0,2024-04-03,2024-04-03,株式会社岩元建装,,株式会社,鹿児島県,西之表市,西之表９２９８番地３,,46,213,8913101,,,,,,,2024-04-03,1,,,,,イワモトケンソウ,0
1207,5340001026419,新規,0,2024-04-03,2024-04-03,株式会社ハッピー・エンディング,,株式会社,鹿児島県,薩摩川内市,五代町１９７８番地１０,,46,215,8950066,,,,,,,2024-04-03,1,,,,,ハッピーエンディング,0
1208,5340001026427,新規,0,2024-04-03,2024-04-03,株式会社ＺＥＡＬＥＸ,,株式会社,鹿児島県,鹿児島市,谷山中央２丁目４７７番地１,,46,201,8910141,,,,,,,2024-04-03,1,,,,,ジーレクス,0
1209,5350001018877,新規,0,2024-04-03,2024-04-03,株式会社Ｊｓ　ｏｎｅ．,,株式会社,宮崎県,延岡市,出北３丁目１７番１３号,,45,203,8820856,,,,,,,2024-04-03,1,,,,,ジェイエスワン,0
1210,5350005006226,新規,0,2024-04-03,2024-04-03,一般社団法人宮崎オープンシティ推進協議会,,その他の設立登記法人,宮崎県,宮崎市,橘通西１丁目１番１号,,45,201,8800001,,,,,,,2024-04-03,1,,,,,ミヤザキオープンシティスイシンキョウギカイ,0
1211,5360001033462,新規,0,2024-04-03,2024-04-03,株式会社ＩＬＬＭＡＴＩＣ　ＳＴＡＲ,,株式会社,沖縄県,中頭郡北谷町,北谷１丁目２番地１ララプレイスリゾート北谷３０２,,47,326,9040116,,,,,,,2024-04-03,1,,,,,イルマティックスター,0
1214,5370001051117,新規,0,2024-04-03,2024-04-03,株式会社Ｆ‐ＡＴＥ,,株式会社,宮城県,仙台市若林区,今泉２丁目５番５１号ベルグラン今泉ＩＩＩ－１０２,00134283,04,103,9840835,,,,,,,2024-04-03,1,,,,,エフエイト,0
1215,5370001051133,新規,0,2024-04-03,2024-04-03,株式会社イタミテック,,株式会社,宮城県,名取市,愛の杜１丁目１２番地の１１,,04,207,9811230,,,,,,,2024-04-03,1,,,,,イタミテック,0
1216,5370003006548,新規,0,2024-04-03,2024-04-03,合同会社フォレストスターズ,,合同会社,宮城県,仙台市太白区,大野田１丁目６番４６号,,04,104,9820014,,,,,,,2024-04-03,1,,,,,フォレストスターズ,0
1218,5420001018663,新規,0,2024-04-03,2024-04-03,大村エンターテインメントマネージメント株式会社,,株式会社,青森県,三戸郡三戸町,大字六日町３０番地,,02,441,0390144,,,,,,,2024-04-03,1,,,,,オオムラエンターテインメントマネージメント,0
1224,5430001091420,新規,0,2024-04-03,2024-04-03,株式会社ファミリーケア翔,,株式会社,北海道,札幌市北区,北二十四条西６丁目２番２－１００１号,,01,102,0010024,,,,,,,2024-04-03,1,,,,,ファミリーケアショウ,0
1230,5450001014271,新規,0,2024-04-03,2024-04-03,株式会社澤工業,,株式会社,北海道,旭川市,神楽岡十一条５丁目１番１７号,,01,204,0788321,,,,,,,2024-04-03,1,,,,,サワコウギョウ,0
1232,5470001020111,新規,0,2024-04-03,2024-04-03,株式会社クリフ,,株式会社,香川県,三豊市,豊中町本山乙１４３番地６,,37,208,7691505,,,,,,,2024-04-03,1,,,,,クリフ,0
1237,5500005008693,新規,0,2024-04-03,2024-04-03,一般社団法人愛媛県設備設計事務所協会,,その他の設立登記法人,愛媛県,松山市,二番町４丁目１番地５,,38,201,7900002,,,,,,,2024-04-03,1,,,,,エヒメケンセツビセッケイジムショキョウカイ,0
1249,6010001243590,新規,0,2024-04-03,2024-04-03,株式会社ＣｌｅａｒＡＷｏｒｋ,,株式会社,東京都,文京区,目白台１丁目１７番８号,,13,105,1120015,,,,,,,2024-04-03,1,,,,,クリアワーク,0
1250,6010001243616,新規,0,2024-04-03,2024-04-03,株式会社Ｅｌｉｔｅ,,株式会社,東京都,中央区,日本橋富沢町１１－６英守東京ビル６階,,13,102,1030006,,,,,,,2024-04-03,1,,,,,エリート,0
1263,6010501052021,新規,0,2024-04-03,2024-04-03,Ｒｉｃｈｇｏ株式会社,,株式会社,東京都,台東区,今戸２丁目１５－３,,13,106,1110024,,,,,,,2024-04-03,1,,,,,リッチゴー,0
1265,6010503007394,新規,0,2024-04-03,2024-04-03,Ｍｏｒｎｉｎｇ合同会社,,合同会社,東京都,台東区,台東２丁目３１番１０第２掛川ビル１０２号,,13,106,1100016,,,,,,,2024-04-03,1,,,,,モーニング,0
1270,6010601064957,新規,0,2024-04-03,2024-04-03,株式会社フラッツ,,株式会社,東京都,江東区,扇橋１丁目８番９号,,13,108,1350011,,,,,,,2024-04-03,1,,,,,フラッツ,0
1272,6010603010744,新規,0,2024-04-03,2024-04-03,ＭＯＤ合同会社,,合同会社,東京都,墨田区,横網２丁目１５番７号,,13,107,1300015,,,,,,,2024-04-03,1,,,,,モッド,0
1273,6010603010752,新規,0,2024-04-03,2024-04-03,合同会社エムティーキャピタル,,合同会社,東京都,江東区,深川１丁目１番２号シャンボール門前仲町２階１８号室,,13,108,1350033,,,,,,,2024-04-03,1,,,,,エムティーキャピタル,0
1276,6010803004884,新規,0,2024-04-03,2024-04-03,ｅｓｐｌａｎｅｔ合同会社,,合同会社,東京都,大田区,下丸子４丁目４番９号,,13,111,1460092,,,,,,,2024-04-03,1,,,,,エスプラネット,0
1277,6010803004901,新規,0,2024-04-03,2024-04-03,合同会社キングダム,,合同会社,東京都,大田区,大森本町２丁目４－９ビバハイムＢ００２,,13,111,1430011,,,,,,,2024-04-03,1,,,,,キングダム,0
1283,6011001161080,新規,0,2024-04-03,2024-04-03,株式会社ｚｏｗ　ｆｉｌｍｓ,,株式会社,東京都,渋谷区,桜丘町２３番１７号シティコート桜丘４０８,,13,113,1500031,,,,,,,2024-04-03,1,,,,,ゾウフィルムズ,0
1284,6011001161097,新規,0,2024-04-03,2024-04-03,ＱＥＤ株式会社,,株式会社,東京都,渋谷区,渋谷２丁目１９－１５宮益坂ビルディング６０９,,13,113,1500002,,,,,,,2024-04-03,1,,,,,キューイーディー,0
1285,6011003018849,新規,0,2024-04-03,2024-04-03,合同会社ＲＩＣＥ,,合同会社,東京都,渋谷区,代々木１丁目５７－２ドルミ代々木１２０４,,13,113,1510053,,,,,,,2024-04-03,1,,,,,ライス,0
1286,6011005010449,新規,0,2024-04-03,2024-04-03,医療法人社団ＹＭＤ,,その他の設立登記法人,東京都,渋谷区,本町２丁目１９番１号ディスカス若杉１Ｆ号室,,13,113,1510071,,,,,,,2024-04-03,1,,,,,ワイエムディー,0
1288,6011101106811,新規,0,2024-04-03,2024-04-03,久福日本株式会社,,株式会社,東京都,新宿区,四谷４丁目１番地小島ビル４０１,,13,104,1600004,,,,,,,2024-04-03,1,,,,,ヒサフクニホン,0
1292,6011203004343,新規,0,2024-04-03,2024-04-03,Ｒｕｐｉｎａ合同会社,,合同会社,東京都,中野区,中央２丁目３７番１０号,,13,114,1640011,,,,,,,2024-04-03,1,,,,,ルピナ,0
1299,6011501030504,新規,0,2024-04-03,2024-04-03,開誠文旅株式会社,,株式会社,東京都,荒川区,東日暮里３丁目３５－３,,13,118,1160014,,,,,,,2024-04-03,1,,,,,カイセイブンリョ,0
1300,6011501030512,新規,0,2024-04-03,2024-04-03,ＴＲＡＮＳＴＥＣＨ　ＬＥＤ　ＴＥＣＨＮＯＬＯＧＹ株式会社,,株式会社,東京都,荒川区,町屋３丁目１－１３－３０１,,13,118,1160001,,,,,,,2024-04-03,1,,,,,トランステックエルイーディーテクノロジー,0
1301,6011601027664,新規,0,2024-04-03,2024-04-03,Ｂｅｓｔ　Ｈｏｒｉｚｏｎ　Ｊａｐａｎ株式会社,,株式会社,東京都,練馬区,関町北５丁目６番７号関町マンション３０２Ｂ,,13,120,1770051,,,,,,,2024-04-03,1,,,,,ベストホライゾンジャパン,0
1304,6011801043998,新規,0,2024-04-03,2024-04-03,ＨＷＬ株式会社,,株式会社,東京都,足立区,大谷田２丁目２２番８－３０５号,,13,121,1200001,,,,,,,2024-04-03,1,,,,,エイチダブリューエル,0
1311,6012403006484,新規,0,2024-04-03,2024-04-03,アマテラス合同会社,,合同会社,東京都,武蔵野市,西久保２丁目２０番１１－４０１号エクセレントシティ,,13,203,1800013,,,,,,,2024-04-03,1,,,,,アマテラス,0
1312,6012701018181,新規,0,2024-04-03,2024-04-03,株式会社コミュニティー,,株式会社,東京都,小平市,花小金井南町３丁目３５番２４号,,13,211,1870003,,,,,,,2024-04-03,1,,,,,,0
1314,6012705002396,新規,0,2024-04-03,2024-04-03,一般社団法人国際人材支援機構ＪＡＰＡＮ,,その他の設立登記法人,東京都,小平市,花小金井南町２丁目５番１４号,,13,211,1870003,,,,,,,2024-04-03,1,,,,,コクサイジンザイシエンキコウジャパン,0
1316,6012801023081,新規,0,2024-04-03,2024-04-03,株式会社ＡＯＮＩＺＩ,,株式会社,東京都,日野市,栄町３丁目７番地の１７,,13,212,1910001,,,,,,,2024-04-03,1,,,,,アオニジ,0
1319,6020001156544,新規,0,2024-04-03,2024-04-03,株式会社Ｓｔａｙ企画,,株式会社,神奈川県,横浜市青葉区,荏田町２３６２番地３ライオンズマンション江田第３－１０４号,,14,117,2250013,,,,,,,2024-04-03,1,,,,,ステイキカク,0
1325,6030001159496,新規,0,2024-04-03,2024-04-03,株式会社永澤建設,,株式会社,埼玉県,川口市,朝日２丁目２６番３号Ａｐｉｌａ１０５号,,11,203,3320001,,,,,,,2024-04-03,1,,,,,ナガサワケンセツ,0
1326,6030001159538,新規,0,2024-04-03,2024-04-03,株式会社Ｋ‐Ｑｕａｌｉｔｙ,,株式会社,埼玉県,秩父郡皆野町,大字皆野８３５番地２,,11,362,3691412,,,,,,,2024-04-03,1,,,,,ケイクオリティ,0
1329,6030005021611,新規,0,2024-04-03,2024-04-03,医療法人博文会,,その他の設立登記法人,埼玉県,さいたま市大宮区,桜木町１丁目２６８番地エイコービル３階,,11,103,3300854,,,,,,,2024-04-03,1,,,,,ハクブンカイ,0
1335,6040005022336,新規,0,2024-04-03,2024-04-03,一般社団法人囲碁普及活動支援協会,,その他の設立登記法人,千葉県,八千代市,大学町２丁目７番１８号,,12,221,2760003,,,,,,,2024-04-03,1,,,,,イゴフキュウカツドウシエンキョウカイ,0
1342,6060001036965,新規,0,2024-04-03,2024-04-03,株式会社昇和,,株式会社,栃木県,那須郡那須町,大字高久丙字一ツ椴道下１１８８番地７３,,09,407,3250302,,,,,,,2024-04-03,1,,,,,ショウワ,0
1343,6060001036981,新規,0,2024-04-03,2024-04-03,株式会社Ｓｈｉｍｍｙ’ｓ,,株式会社,栃木県,宇都宮市,白沢町１５４１番地８,,09,201,3291102,,,,,,,2024-04-03,1,,,,,シミーズ,0
1346,6070001041576,新規,0,2024-04-03,2024-04-03,株式会社孫太郎むらさき,,株式会社,群馬県,高崎市,上中居町１７０５番地,,10,202,3700851,,,,,,,2024-04-03,1,,,,,マゴタロウムラサキ,0
1347,6070001041584,新規,0,2024-04-03,2024-04-03,Ｅ‐ＳＴＥＥＬ株式会社,,株式会社,群馬県,前橋市,広瀬町２丁目１０番地１１グランシャリオ３０２号,,10,201,3710812,,,,,,,2024-04-03,1,,,,,イースチール,0
1348,6070003005323,新規,0,2024-04-03,2024-04-03,合同会社ｋｉｄｓ　ｈｏｕｓｅ,,合同会社,群馬県,前橋市,文京町１丁目３２番７‐８０１号ホーユウパレス前橋文京町,,10,201,3710801,,,,,,,2024-04-03,1,,,,,キッズハウス,0
1349,6070003005348,新規,0,2024-04-03,2024-04-03,Ｌｉｂｅｒｔｙ　Ｄｒａｆｔｉｎｇ合同会社,,合同会社,群馬県,高崎市,上並榎町１６７番地２,,10,202,3700801,,,,,,,2024-04-03,1,,,,,リバティドラフティング,0
1355,6080101024637,新規,0,2024-04-03,2024-04-03,株式会社Ｇｒａｎｄ　ｃｕｂｅ,,株式会社,静岡県,富士宮市,田中町５４７番地の１,,22,207,4180075,,,,,,,2024-04-03,1,,,,,グランドキューブ,0
1356,6080101024653,新規,0,2024-04-03,2024-04-03,株式会社ＥａｇｌｅＬａｎｄ,,株式会社,静岡県,富士宮市,山宮２３９６－８,,22,207,4180111,,,,,,,2024-04-03,1,,,,,イーグルランド,0
1366,6120001263685,新規,0,2024-04-03,2024-04-03,株式会社Ｓ’ａｎｄ,,株式会社,大阪府,大阪市浪速区,芦原２丁目１番２－８０３号,,27,111,5560029,,,,,,,2024-04-03,1,,,,,エスアンド,0
1367,6120001263693,新規,0,2024-04-03,2024-04-03,Ｇ＆Ｙジャパン株式会社,,株式会社,大阪府,大阪市生野区,巽北１丁目２１番２９号１１１６号室,00134275,27,116,5440004,,,,,,,2024-04-03,1,,,,,ジーアンドワイジャパン,0
1370,6120003026306,新規,0,2024-04-03,2024-04-03,ＮＥＸＴ合同会社,,合同会社,大阪府,大阪市北区,梅田１丁目２番２号大阪駅前第２ビル２階５‐６号室,,27,127,5300001,,,,,,,2024-04-03,1,,,,,ネクスト,0
1372,6120101069322,新規,0,2024-04-03,2024-04-03,株式会社Ｂｕｄｄｙ,,株式会社,大阪府,堺市中区,土塔町３１４５番地,,27,142,5998234,,,,,,,2024-04-03,1,,,,,バディー,0
1373,6120101069347,新規,0,2024-04-03,2024-04-03,株式会社大星電設,,株式会社,大阪府,堺市堺区,中之町東２丁１番１８－３０５号,,27,141,5900956,,,,,,,2024-04-03,1,,,,,ダイセイデンセツ,0
1375,6120901048995,新規,0,2024-04-03,2024-04-03,株式会社ｅｎｉｆ,,株式会社,大阪府,吹田市,垂水町１丁目５５番９号,,27,205,5640062,,,,,,,2024-04-03,1,,,,,エニフ,0
1385,6130001076715,新規,0,2024-04-03,2024-04-03,株式会社Ｔ　ｇｉｖｅｒ,,株式会社,京都府,京都市左京区,上高野川原町２４番地４,,26,103,6060061,,,,,,,2024-04-03,1,,,,,ティーギバー,0
1389,6140003020389,新規,0,2024-04-03,2024-04-03,ハイゲイト合同会社,,合同会社,兵庫県,宝塚市,山手台西４丁目１４番１８号,,28,214,6650886,,,,,,,2024-04-03,1,,,,,ハイゲイト,0
1390,6140005027011,新規,0,2024-04-03,2024-04-03,一般社団法人神港ジュニアバレーボールクラブ,,その他の設立登記法人,兵庫県,神戸市中央区,山本通４丁目１９番２０号,,28,110,6500003,,,,,,,2024-04-03,1,,,,,シンコウジュニアバレーボールクラブ,0
1393,6160003003160,新規,0,2024-04-03,2024-04-03,Ｔ．Ｆｏｒｅｓｔ合同会社,,合同会社,滋賀県,近江八幡市,北津田町４８２番地１,,25,204,5230087,,,,,,,2024-04-03,1,,,,,ティフォレスト,0
1398,6180001160794,新規,0,2024-04-03,2024-04-03,株式会社Ｔｓｕｍｕｇｕ,,株式会社,愛知県,名古屋市中区,大須４丁目２番５５号大丸ビル５Ｆ,,23,106,4600011,,,,,,,2024-04-03,1,,,,,ツムグ,0
1399,6180001160803,新規,0,2024-04-03,2024-04-03,株式会社ＳＡＰ,,株式会社,愛知県,名古屋市北区,丸新町３０番地フレンドリービル２Ｆ,,23,103,4620063,,,,,,,2024-04-03,1,,,,,エスエーピー,0
1400,6180001160811,新規,0,2024-04-03,2024-04-03,株式会社アオリ,,株式会社,愛知県,一宮市,丹羽字北屋敷１４６４番地１ロイヤルハイツ丹羽３０３号,,23,203,4910083,,,,,,,2024-04-03,1,,,,,アオリ,0
1401,6180001160836,新規,0,2024-04-03,2024-04-03,株式会社Ｌｕｘ,,株式会社,愛知県,名古屋市東区,泉１丁目５番２５号,,23,102,4610001,,,,,,,2024-04-03,1,,,,,ルクス,0
1402,6180005020573,新規,0,2024-04-03,2024-04-03,特定非営利活動法人稲沢ＦＵＮｓ,,その他の設立登記法人,愛知県,稲沢市,大塚南４丁目４０番地,,23,220,4928214,,,,,,,2024-04-03,1,,,,,イナザワファンズ,0
1410,6190001031243,新規,0,2024-04-03,2024-04-03,株式会社ハイエナ,,株式会社,三重県,松阪市,駅部田町４５７番地３４,,24,204,5150045,,,,,,,2024-04-03,1,,,,,ハイエナ,0
1413,6200001042354,新規,0,2024-04-03,2024-04-03,株式会社コームラホールディングス,,株式会社,岐阜県,岐阜市,北一色８丁目７番２８号,,21,201,5008227,,,,,,,2024-04-03,1,,,,,コームラホールディングス,0
1420,6230001020282,新規,0,2024-04-03,2024-04-03,ｔａｌｋＯＮＥ株式会社,,株式会社,富山県,南砺市,立野原東１５１４番地１８,,16,210,9391835,,,,,,,2024-04-03,1,,,,,トークワン,0
1424,6240001063025,新規,0,2024-04-03,2024-04-03,株式会社安井工業,,株式会社,広島県,廿日市市,対厳山３丁目１５番１４号,,34,213,7390402,,,,,,,2024-04-03,1,,,,,ヤスイコウギョウ,0
1425,6240001063033,新規,0,2024-04-03,2024-04-03,エムケイ商事株式会社,,株式会社,広島県,竹原市,下野町３２６８番地,,34,203,7250012,,,,,,,2024-04-03,1,,,,,エムケイショウジ,0
1426,6240001063041,新規,0,2024-04-03,2024-04-03,株式会社透昇,,株式会社,広島県,福山市,南今津町１３３番地,,34,207,7290115,,,,,,,2024-04-03,1,,,,,トウショウ,0
1431,6280001009148,新規,0,2024-04-03,2024-04-03,株式会社川輝屋,,株式会社,島根県,出雲市,稲岡町３３３番地１,,32,203,6930071,,,,,,,2024-04-03,1,,,,,カワキヤ,0
1436,6290001105284,新規,0,2024-04-03,2024-04-03,ＢＵＩＬＤ　ＵＰ株式会社,,株式会社,福岡県,嘉穂郡桂川町,大字土師２２７０番地８５,,40,421,8200607,,,,,,,2024-04-03,1,,,,,ビルドアップ,0
1439,6290801030442,新規,0,2024-04-03,2024-04-03,ＩＺＵＭＩ　ＴＲＯＰＨＹ株式会社,,株式会社,福岡県,北九州市小倉南区,城野１丁目１１番１０号,,40,107,8020802,,,,,,,2024-04-03,1,,,,,イズミトロフィー,0
1440,6290801030450,新規,0,2024-04-03,2024-04-03,株式会社叶工業,,株式会社,福岡県,北九州市小倉北区,中井５丁目７番１－１０２号,,40,106,8030836,,,,,,,2024-04-03,1,,,,,カノウコウギョウ,0
1441,6290801030459,新規,0,2024-04-03,2024-04-03,株式会社裕興業,,株式会社,福岡県,直方市,大字頓野２６１０番地１,,40,204,8220002,,,,,,,2024-04-03,1,,,,,ユウコウギョウ,0
1442,6290801030467,新規,0,2024-04-03,2024-04-03,株式会社ヒューワンハウス,,株式会社,福岡県,北九州市小倉北区,篠崎５丁目２６番７号,,40,106,8030861,,,,,,,2024-04-03,1,,,,,ヒューワンハウス,0
1443,6290803004667,新規,0,2024-04-03,2024-04-03,合同会社リビングアシスト,,合同会社,福岡県,北九州市八幡西区,黒崎２丁目３番１５号,,40,109,8060021,,,,,,,2024-04-03,1,,,,,リビングアシスト,0
1444,6290803004675,新規,0,2024-04-03,2024-04-03,合同会社Ａｌａｎ,,合同会社,福岡県,北九州市若松区,下原町６番２８号,,40,103,8080005,,,,,,,2024-04-03,1,,,,,アラン,0
1447,6310001018938,新規,0,2024-04-03,2024-04-03,株式会社ＦＡＮＧＲＯＷ,,株式会社,長崎県,長崎市,ダイヤランド３丁目３７番１０号,,42,201,8500963,,,,,,,2024-04-03,1,,,,,ファングロウ,0
1452,6340001026401,新規,0,2024-04-03,2024-04-03,株式会社新協リース,,株式会社,鹿児島県,大島郡和泊町,大字和泊１７９番地１,,46,533,8919112,,,,,,,2024-04-03,1,,,,,シンキョウリース,0
1455,6340005009716,新規,0,2024-04-03,2024-04-03,南薩地区生コンクリート協同組合,,その他の設立登記法人,鹿児島県,南九州市,知覧町郡４８１０番地３２,,46,223,8970302,,,,,,,2024-04-03,1,,,,,ナンサツチクナマコンクリート,0
1457,6350003004610,新規,0,2024-04-03,2024-04-03,Ｓｃｈｉｃｋｓａｌ合同会社,,合同会社,宮崎県,児湯郡都農町,大字川北３６１３番地７,,45,406,8891201,,,,,,,2024-04-03,1,,,,,シックザール,0
1458,6360001033429,新規,0,2024-04-03,2024-04-03,株式会社メイキ,,株式会社,沖縄県,那覇市,古波蔵１丁目２０番３４号,,47,201,9000024,,,,,,,2024-04-03,1,,,,,メイキ,0
1459,6360001033437,新規,0,2024-04-03,2024-04-03,沖縄セールスパートナー株式会社,,株式会社,沖縄県,那覇市,古島２丁目５番地１０サントピア古島４０１,,47,201,9020061,,,,,,,2024-04-03,1,,,,,オキナワセールスパートナー,0
1462,6370003006547,新規,0,2024-04-03,2024-04-03,合同会社まんまはうす,,合同会社,宮城県,仙台市太白区,長町５丁目５―３６レスポワール長町１０１,,04,104,9820011,,,,,,,2024-04-03,1,,,,,マンマハウス,0
1469,6410005006573,新規,0,2024-04-03,2024-04-03,一般社団法人リエゾン,,その他の設立登記法人,秋田県,にかほ市,象潟町字太郎島４７番地２,,05,214,0180128,,,,,,,2024-04-03,1,,,,,リエゾン,0
1470,6430001091444,新規,0,2024-04-03,2024-04-03,株式会社拓真プランニング,,株式会社,北海道,札幌市白石区,菊水九条３丁目５－１９キャッスルニッコー４階,,01,104,0030809,,,,,,,2024-04-03,1,,,,,タクマプランニング,0
1471,6430001091460,新規,0,2024-04-03,2024-04-03,株式会社ＳＴＣＦ,,株式会社,北海道,札幌市東区,本町二条１０丁目２番３５号,,01,103,0650042,,,,,,,2024-04-03,1,,,,,エスティーシーエフ,0
1472,6430001091477,新規,0,2024-04-03,2024-04-03,株式会社北海道きなり,,株式会社,北海道,札幌市中央区,南二条西２２丁目１番３９号１階Ｃ号室,,01,101,0640802,,,,,,,2024-04-03,1,,,,,ホッカイドウキナリ,0
1476,6430003016176,新規,0,2024-04-03,2024-04-03,合同会社ＳＷＡＮ　ＧＲＯＵＰ,,合同会社,北海道,札幌市中央区,南三条西３丁目１１番地Ｎ－ＭＥＳＳＥ５Ｆ,,01,101,0600063,,,,,,,2024-04-03,1,,,,,スワングループ,0
1480,6490001010737,新規,0,2024-04-03,2024-04-03,株式会社しまんとリバーズ,,株式会社,高知県,四万十市,竹島１８９番地,,39,210,7870151,,,,,,,2024-04-03,1,,,,,シマントリバーズ,0
1492,7010001243581,新規,0,2024-04-03,2024-04-03,東京トライマー物産株式会社,,株式会社,東京都,中央区,日本橋小伝馬町一丁目７番地,00134237,13,102,1030000,,,,,,,2024-04-03,1,,,,,トウキョウトライマーブッサン,0
1494,7010003043385,新規,0,2024-04-03,2024-04-03,ハミングバードマーケティング合同会社,,合同会社,東京都,中央区,銀座１丁目１２－４Ｎ＆Ｅ－ＢＬＤ．７階,,13,102,1040061,,,,,,,2024-04-03,1,,,,,ハミングバードマーケティング,0
1502,7010401181415,新規,0,2024-04-03,2024-04-03,３Ｍ‐ｉｎｔｅｌ株式会社,,株式会社,東京都,港区,虎ノ門４丁目３－１城山トラストタワー２１Ｆ,,13,103,1050001,,,,,,,2024-04-03,1,,,,,スリーエムインテル,0
1506,7010501052004,新規,0,2024-04-03,2024-04-03,たると株式会社,,株式会社,東京都,台東区,池之端４丁目２０－５,,13,106,1100008,,,,,,,2024-04-03,1,,,,,タルト,0
1507,7010501052045,新規,0,2024-04-03,2024-04-03,株式会社ＢＩＲＤ　ＩＮ　ＴＨＥ　ＳＫＹ,,株式会社,東京都,台東区,浅草１丁目１３番５号井門浅草すしや通りビル,,13,106,1110032,,,,,,,2024-04-03,1,,,,,バードインザスカイ,0
1508,7010501052053,新規,0,2024-04-03,2024-04-03,株式会社Ｙ２ｊｅｗｅｌｒｙ,,株式会社,東京都,台東区,北上野１丁目１５番５－４０３号,,13,106,1100014,,,,,,,2024-04-03,1,,,,,ワイツージュエリー,0
1514,7010901054995,新規,0,2024-04-03,2024-04-03,株式会社碧,,株式会社,東京都,世田谷区,八幡山３丁目２５番１０号,,13,112,1560056,,,,,,,2024-04-03,1,,,,,アオ,0
1515,7010901055003,新規,0,2024-04-03,2024-04-03,株式会社ＡＩＢＥ,,株式会社,東京都,世田谷区,上用賀２丁目５番２－１１０号,,13,112,1580098,,,,,,,2024-04-03,1,,,,,アイベ,0
1516,7010903008925,新規,0,2024-04-03,2024-04-03,合同会社ＮＯＢＡ,,合同会社,東京都,世田谷区,若林２丁目２８番１２号,,13,112,1540023,,,,,,,2024-04-03,1,,,,,ノバ,0
1517,7010903008941,新規,0,2024-04-03,2024-04-03,合同会社ミレケア,,合同会社,東京都,世田谷区,若林１丁目４０－１２－１０１,,13,112,1540023,,,,,,,2024-04-03,1,,,,,ミレケア,0
1522,7011001161071,新規,0,2024-04-03,2024-04-03,株式会社ｉ７ｙ,,株式会社,東京都,渋谷区,渋谷２丁目１９―１５宮益坂ビルディング６０９,,13,113,1500002,,,,,,,2024-04-03,1,,,,,アイセブンワイ,0
1524,7011003018831,新規,0,2024-04-03,2024-04-03,合同会社ＥＲ４,,合同会社,東京都,渋谷区,道玄坂１丁目１０番８号渋谷道玄坂東急ビル２Ｆ－Ｃ,,13,113,1500043,,,,,,,2024-04-03,1,,,,,イーアールフォー,0
1529,7011101106802,新規,0,2024-04-03,2024-04-03,株式会社リステック,,株式会社,東京都,新宿区,新宿２丁目１３番６号光亜ビル８階,,13,104,1600022,,,,,,,2024-04-03,1,,,,,リステック,0
1530,7011101106819,新規,0,2024-04-03,2024-04-03,株式会社福井コンサルティング,,株式会社,東京都,新宿区,袋町５番地１ＦＡＲＯ神楽坂１階,,13,104,1620828,,,,,,,2024-04-03,1,,,,,フクイコンサルティング,0
1534,7011201025373,新規,0,2024-04-03,2024-04-03,株式会社ＢＢＢ,,株式会社,東京都,中野区,弥生町２丁目２５番１３号永島壱号ビル２０２号室,,13,114,1640013,,,,,,,2024-04-03,1,,,,,ビービービー,0
1544,7011701027175,新規,0,2024-04-03,2024-04-03,株式会社ＭＥＺＡＳＫＹ,,株式会社,東京都,江戸川区,南葛西１丁目１５－７－７０１,,13,123,1340085,,,,,,,2024-04-03,1,,,,,メザスカイ,0
1550,7011801044005,新規,0,2024-04-03,2024-04-03,Ｄｅｅｐ　Ｍｅｔａ株式会社,,株式会社,東京都,葛飾区,新小岩３丁目２９－７ＫＡＫＵＲＥＯＦＦＩＣＥ新小岩１０１号室,,13,122,1240024,,,,,,,2024-04-03,1,,,,,ディープメタ,0
1551,7011801044013,新規,0,2024-04-03,2024-04-03,株式会社Ｄｅｅｐａｔｈ,,株式会社,東京都,葛飾区,東金町３丁目１７－１０ＫＢＳ－Ｂ６,,13,122,1250041,,,,,,,2024-04-03,1,,,,,ディーパス,0
1553,7012301013854,新規,0,2024-04-03,2024-04-03,隆躍商社株式会社,,株式会社,東京都,町田市,南大谷８２－１三徳２階Ａ室,,13,209,1940031,,,,,,,2024-04-03,1,,,,,リュウヤクショウシャ,0
1554,7012401041697,新規,0,2024-04-03,2024-04-03,株式会社千家ホーム,,株式会社,東京都,府中市,天神町３丁目７番地の２７,,13,206,1830053,,,,,,,2024-04-03,1,,,,,センケホーム,0
1560,7020001156502,新規,0,2024-04-03,2024-04-03,株式会社ＯＤＡＳ,,株式会社,神奈川県,横浜市旭区,二俣川１丁目２番地１－８０１,,14,112,2410821,,,,,,,2024-04-03,1,,,,,オーダス,0
1561,7020001156519,新規,0,2024-04-03,2024-04-03,株式会社名坂,,株式会社,神奈川県,横浜市都筑区,茅ケ崎中央１７番２１,,14,118,2240032,,,,,,,2024-04-03,1,,,,,ナサカ,0
1562,7020001156543,新規,0,2024-04-03,2024-04-03,株式会社Ｔ＆Ｅ,,株式会社,神奈川県,横浜市青葉区,美しが丘３丁目６０番地５６,,14,117,2250002,,,,,,,2024-04-03,1,,,,,ティーアンドイー,0
1566,7020003025878,新規,0,2024-04-03,2024-04-03,合同会社ＴＨＹＭ,,合同会社,神奈川県,川崎市中原区,井田１丁目１８番１７号,,14,133,2110035,,,,,,,2024-04-03,1,,,,,ティーエイチワイエム,0
1572,7021001081830,新規,0,2024-04-03,2024-04-03,株式会社ＡＢ,,株式会社,神奈川県,中郡二宮町,緑が丘２丁目２番地の３,,14,342,2590132,,,,,,,2024-04-03,1,,,,,エイビー,0
1576,7021003014326,新規,0,2024-04-03,2024-04-03,合同会社Ｊ‐ＭＡＫ,,合同会社,神奈川県,藤沢市,湘南台２丁目１番地の６－７０１,,14,205,2520804,,,,,,,2024-04-03,1,,,,,ジェイマック,0
1585,7030001159470,新規,0,2024-04-03,2024-04-03,友和株式会社,,株式会社,埼玉県,川口市,芝新町４番８号ＵＲＢＡＮＦＯＲＵＭ蕨０２４号,,11,203,3330851,,,,,,,2024-04-03,1,,,,,トモカズ,0
1586,7030001159578,新規,0,2024-04-03,2024-04-03,株式会社上尾クリーンサービス,,株式会社,埼玉県,上尾市,井戸木３丁目１９番地４２,,11,219,3620071,,,,,,,2024-04-03,1,,,,,アゲオクリーンサービス,0
1587,7030001159586,新規,0,2024-04-03,2024-04-03,株式会社Ｙ’ｓアート,,株式会社,埼玉県,越谷市,大字小曽川２６９番地１,,11,222,3430802,,,,,,,2024-04-03,1,,,,,ワイズアート,0
1589,7030003023939,新規,0,2024-04-03,2024-04-03,合同会社ＲＵＢＹ,,合同会社,埼玉県,さいたま市南区,南浦和２丁目３６番１６号田中ビル４０６号,,11,108,3360017,,,,,,,2024-04-03,1,,,,,ルビー,0
1604,7050005013424,新規,0,2024-04-03,2024-04-03,医療法人ジャスト,,その他の設立登記法人,茨城県,日立市,久慈町３丁目４０番８号,,08,202,3191222,,,,,,,2024-04-03,1,,,,,ジャスト,0
1608,7070001041567,新規,0,2024-04-03,2024-04-03,株式会社吉川工業,,株式会社,群馬県,伊勢崎市,豊城町２６０６番地１,,10,204,3720012,,,,,,,2024-04-03,1,,,,,ヨシカワコウギョウ,0
1609,7070001041575,新規,0,2024-04-03,2024-04-03,伊香保街づくり株式会社,,株式会社,群馬県,渋川市,伊香保町伊香保７５番地４,,10,208,3770102,,,,,,,2024-04-03,1,,,,,イカホマチヅクリ,0
1610,7070001041583,新規,0,2024-04-03,2024-04-03,株式会社三啓エステート,,株式会社,群馬県,前橋市,元総社町１２３９番地１１,,10,201,3710846,,,,,,,2024-04-03,1,,,,,,0
1613,7080005007596,新規,0,2024-04-03,2024-04-03,一般社団法人日本ライフパートナーズ協会・静岡支部,,その他の設立登記法人,静岡県,静岡市駿河区,中原７４３番地の１サイテックビル３階,,22,102,4228058,,,,,,,2024-04-03,1,,,,,ニホンライフパートナーズキョウカイシズオカシブ,0
1627,7110001038294,新規,0,2024-04-03,2024-04-03,株式会社雪花,,株式会社,新潟県,新潟市中央区,古町通９番町１４８１番地１,,15,103,9518063,,,,,,,2024-04-03,1,,,,,ユキハナ,0
1633,7120001263668,新規,0,2024-04-03,2024-04-03,株式会社旭龍丸,,株式会社,大阪府,大阪市中央区,西心斎橋２丁目１８番２号,,27,128,5420086,,,,,,,2024-04-03,1,,,,,キョクリュウマル,0
1634,7120001263734,新規,0,2024-04-03,2024-04-03,澤峰株式会社,,株式会社,大阪府,大阪市東住吉区,住道矢田９丁目９番２８号,,27,121,5460022,,,,,,,2024-04-03,1,,,,,サワミネ,0
1636,7120003026214,新規,0,2024-04-03,2024-04-03,合同会社Ｓｕｎ‐Ｂｅａｒ,,合同会社,大阪府,大阪市平野区,瓜破２－１－６５ミタカホーム８番４１３号,,27,126,5470000,,,,,,,2024-04-03,1,,,,,サンベアー,0
1637,7120101069313,新規,0,2024-04-03,2024-04-03,藏トータルソリューションズ株式会社,,株式会社,大阪府,松原市,岡６丁目６番２５号,,27,217,5800014,,,,,,,2024-04-03,1,,,,,クラトータルソリューションズ,0
1639,7120105009843,新規,0,2024-04-03,2024-04-03,一般社団法人太子町観光協会,,その他の設立登記法人,大阪府,南河内郡太子町,大字山田１７９９番地,,27,381,5830992,,,,,,,2024-04-03,1,,,,,タイシチョウカンコウキョウカイ,0
1644,7122001037977,新規,0,2024-04-03,2024-04-03,株式会社Ｒｅｌｉｅｒ,,株式会社,大阪府,八尾市,太田４丁目２７番１号,,27,212,5810037,,,,,,,2024-04-03,1,,,,,ルリエ,0
1659,7140001133992,新規,0,2024-04-03,2024-04-03,株式会社くらし工房,,株式会社,兵庫県,神戸市長田区,浪松町２丁目２番１８号２階,,28,106,6530055,,,,,,,2024-04-03,1,,,,,クラシコウボウ,0
1661,7150001027194,新規,0,2024-04-03,2024-04-03,株式会社芳岡モータース,,株式会社,奈良県,宇陀郡御杖村,大字神末７０５番地,,29,386,6331301,,,,,,,2024-04-03,1,,,,,ヨシオカモータース,0
1662,7180001160785,新規,0,2024-04-03,2024-04-03,株式会社ＴＯＰ　ＲＡＮＫ,,株式会社,愛知県,名古屋市中村区,名駅３丁目１３番２８号名駅セブンスタービル３０５,,23,105,4500002,,,,,,,2024-04-03,1,,,,,トップランク,0
1663,7180001160793,新規,0,2024-04-03,2024-04-03,ＴＰ　ＬＡＮＫＡ株式会社,,株式会社,愛知県,犬山市,大字犬山字西古券３３０番地,,23,215,4840085,,,,,,,2024-04-03,1,,,,,ティーピーランカ,0
1664,7180001160802,新規,0,2024-04-03,2024-04-03,さいしき堂株式会社,,株式会社,愛知県,名古屋市西区,八筋町１２１番地の３,,23,104,4520815,,,,,,,2024-04-03,1,,,,,サイシキドウ,0
1665,7180001160810,新規,0,2024-04-03,2024-04-03,株式会社ｙｕａｒａｎｓｕ,,株式会社,愛知県,一宮市,貴船２丁目１２番１３号ナビシティ貴船４０５号室,,23,203,4910037,,,,,,,2024-04-03,1,,,,,ユアランス,0
1666,7180001160819,新規,0,2024-04-03,2024-04-03,名竜株式会社,,株式会社,愛知県,名古屋市中村区,向島町５丁目５番１,,23,105,4530838,,,,,,,2024-04-03,1,,,,,メイリュウ,0
1669,7180003026596,新規,0,2024-04-03,2024-04-03,合同会社ＫＯＵＢＯＵ,,合同会社,愛知県,春日井市,押沢台４丁目１６番地１,,23,206,4870005,,,,,,,2024-04-03,1,,,,,コウボウ,0
1678,7200001042337,新規,0,2024-04-03,2024-04-03,株式会社ＲＴＭ,,株式会社,岐阜県,大垣市,小泉町１３７番地,,21,202,5030816,,,,,,,2024-04-03,1,,,,,アールティーエム,0
1679,7200001042353,新規,0,2024-04-03,2024-04-03,株式会社天国床屋,,株式会社,岐阜県,岐阜市,早田栄町４丁目３３番地,,21,201,5020847,,,,,,,2024-04-03,1,,,,,テンゴクトコヤ,0
1680,7220003003715,新規,0,2024-04-03,2024-04-03,合同会社ウエテック,,合同会社,石川県,金沢市,三口新町４丁目６番２８号,,17,201,9200944,,,,,,,2024-04-03,1,,,,,ウエテック,0
1681,7240001063040,新規,0,2024-04-03,2024-04-03,株式会社松永技建,,株式会社,広島県,広島市西区,東観音町２４－８タガシラビル１０２,,34,104,7330032,,,,,,,2024-04-03,1,,,,,マツナガギケン,0
1682,7240001063049,新規,0,2024-04-03,2024-04-03,エディックス株式会社,,株式会社,広島県,広島市西区,井口明神３丁目７番２０号,,34,104,7330841,,,,,,,2024-04-03,1,,,,,エディックス,0
1686,7260001038908,新規,0,2024-04-03,2024-04-03,株式会社前嶋ＨＤ,,株式会社,岡山県,岡山市南区,福成２丁目２２番３号,,33,104,7028022,,,,,,,2024-04-03,1,,,,,マエジマエイチディ,0
1687,7260001038916,新規,0,2024-04-03,2024-04-03,株式会社フロス,,株式会社,岡山県,笠岡市,笠岡２４１８番地９谷水ビル１Ｆ,,33,205,7140081,,,,,,,2024-04-03,1,,,,,フロス,0
1688,7260001038932,新規,0,2024-04-03,2024-04-03,株式会社ＯＨＡＮＡ,,株式会社,岡山県,倉敷市,中畝９丁目２番６号,,33,202,7128051,,,,,,,2024-04-03,1,,,,,オハナ,0
1691,7290003015118,新規,0,2024-04-03,2024-04-03,合同会社チューリップ,,合同会社,福岡県,福岡市中央区,六本松２丁目１１番１－５０３号ベローザ六本松,,40,133,8100044,,,,,,,2024-04-03,1,,,,,チューリップ,0
1697,7330003010304,新規,0,2024-04-03,2024-04-03,合同会社Ｂｏｄｙ　ｃｏｌｏｒ,,合同会社,熊本県,熊本市南区,城南町さんさん１丁目５番地１１,,43,104,8614206,,,,,,,2024-04-03,1,,,,,ボディカラー,0
1700,7350001018883,新規,0,2024-04-03,2024-04-03,心奏Ｏｆｆｉｃｅ株式会社,,株式会社,宮崎県,宮崎市,大橋１丁目５５番地,,45,201,8800022,,,,,,,2024-04-03,1,,,,,カナデオフィス,0
1702,7360001033460,新規,0,2024-04-03,2024-04-03,株式会社宮商,,株式会社,沖縄県,浦添市,牧港５丁目２２番５号,,47,208,9012131,,,,,,,2024-04-03,1,,,,,ミヤショウ,0
1705,7370003006554,新規,0,2024-04-03,2024-04-03,合同会社ｙｏｒｏｚ,,合同会社,宮城県,仙台市青葉区,上愛子字北原道上３１－２５,,04,101,9893124,,,,,,,2024-04-03,1,,,,,ヨロズ,0
1709,7430001091402,新規,0,2024-04-03,2024-04-03,ヌヌカ株式会社,,株式会社,北海道,札幌市東区,北三十七条東１０丁目２－１１,,01,103,0070837,,,,,,,2024-04-03,1,,,,,ヌヌカ,0
1710,7430001091451,新規,0,2024-04-03,2024-04-03,株式会社ｍｙｒｉａｄｍｉｒｒｏｒ,,株式会社,北海道,札幌市中央区,宮ケ丘１丁目１－４５,,01,101,0640959,,,,,,,2024-04-03,1,,,,,ミリアドミラー,0
1714,7430005014953,新規,0,2024-04-03,2024-04-03,一般社団法人ミリオンサニー,,その他の設立登記法人,北海道,札幌市清田区,清田一条４丁目３番６０号,,01,110,0040841,,,,,,,2024-04-03,1,,,,,ミリオンサニー,0
1717,7440001009411,新規,0,2024-04-03,2024-04-03,株式会社森の響き,,株式会社,北海道,茅部郡森町,字白川５９番地,,01,345,0492307,,,,,,,2024-04-03,1,,,,,モリノヒビキ,0
1721,7480003002113,新規,0,2024-04-03,2024-04-03,プリージア合同会社,,合同会社,徳島県,徳島市,大谷町新堤１６番地１７,,36,201,7708031,,,,,,,2024-04-03,1,,,,,プリージア,0
1743,8010001243127,新規,0,2024-04-03,2024-04-03,海豊嘉祥物流日本株式会社,,株式会社,東京都,中央区,京橋２丁目２番１号京橋エドグラン１６階,,13,102,1040031,,,,,,,2024-04-03,1,,,,,カイホカショウブツリュウニホン,0
1747,8010003043351,新規,0,2024-04-03,2024-04-03,合同会社アイコワーカー,,合同会社,東京都,文京区,本郷３丁目２２番９号ＧＳハイム御茶ノ水６０２号,,13,105,1130033,,,,,,,2024-04-03,1,,,,,アイコワーカー,0
1756,8010401181447,新規,0,2024-04-03,2024-04-03,Ｃｅｓａｒｅ　Ａｔｔｏｌｉｎｉ　Ｊａｐａｎ株式会社,,株式会社,東京都,港区,赤坂１丁目１２番１２号榎坂ビル３階,,13,103,1070052,,,,,,,2024-04-03,1,,,,,チェザーレアットリーニジャパン,0
1761,8010501052044,新規,0,2024-04-03,2024-04-03,株式会社ジオ設計,,株式会社,東京都,台東区,上野７丁目３番９号アルベルゴ上野１１０９号室,,13,106,1100005,,,,,,,2024-04-03,1,,,,,ジオセッケイ,0
1762,8010501052052,新規,0,2024-04-03,2024-04-03,株式会社サニーペットクリニック,,株式会社,東京都,台東区,東上野１丁目２２番１２号荒井ビル１Ｆ,,13,106,1100015,,,,,,,2024-04-03,1,,,,,サニーペットクリニック,0
1763,8010601064947,新規,0,2024-04-03,2024-04-03,株式会社トータル・プレイス,,株式会社,東京都,江東区,高橋２番４－２０１号,,13,108,1350005,,,,,,,2024-04-03,1,,,,,トータルプレイス,0
1765,8010603010750,新規,0,2024-04-03,2024-04-03,合同会社キズナブリッジ,,合同会社,東京都,墨田区,緑３丁目１５番６－３０１号,,13,107,1300021,,,,,,,2024-04-03,1,,,,,キズナブリッジ,0
1769,8010901055002,新規,0,2024-04-03,2024-04-03,株式会社ＣＯＣ,,株式会社,東京都,世田谷区,奥沢１丁目２３番１８号,,13,112,1580083,,,,,,,2024-04-03,1,,,,,シーオーシー,0
1775,8011001160964,新規,0,2024-04-03,2024-04-03,株式会社ヒラガナ,,株式会社,東京都,目黒区,中目黒２丁目７番７－４０３号レジディア中目黒ＩＩＩ,00134280,13,110,1530061,,,,,,,2024-04-03,1,,,,,ヒラガナ,0
1776,8011001161046,新規,0,2024-04-03,2024-04-03,株式会社モリミチ,,株式会社,東京都,渋谷区,初台２丁目３１番９－２０１号,,13,113,1510061,,,,,,,2024-04-03,1,,,,,モリミチ,0
1777,8011001161120,新規,0,2024-04-03,2024-04-03,ＯＮＥ　ＴＯ株式会社,,株式会社,東京都,渋谷区,東１丁目２６－３２拓新ビル４Ｆ,,13,113,1500011,,,,,,,2024-04-03,1,,,,,ワンツー,0
1778,8011001161137,新規,0,2024-04-03,2024-04-03,株式会社ＡＴｏＸ,,株式会社,東京都,渋谷区,恵比寿２丁目３３番１３－３０３号,,13,113,1500013,,,,,,,2024-04-03,1,,,,,エートゥーエックス,0
1780,8011003018830,新規,0,2024-04-03,2024-04-03,合同会社ＥＲ３,,合同会社,東京都,渋谷区,道玄坂１丁目１０番８号渋谷道玄坂東急ビル２Ｆ－Ｃ,,13,113,1500043,,,,,,,2024-04-03,1,,,,,イーアールスリー,0
1787,8011103014283,新規,0,2024-04-03,2024-04-03,合同会社Ｍｙ　ｈａｓｈ,,合同会社,東京都,新宿区,西新宿３丁目３番２３－１２０５番,,13,104,1600023,,,,,,,2024-04-03,1,,,,,マイハッシュ,0
1788,8011103014291,新規,0,2024-04-03,2024-04-03,旭東コンサルティング合同会社,,合同会社,東京都,新宿区,西新宿３丁目９－１４インタービルディング,,13,104,1600023,,,,,,,2024-04-03,1,,,,,キョクトウコンサルティング,0
1789,8011105010990,新規,0,2024-04-03,2024-04-03,ＮＰＯ法人Ｖａｌｕｅ　Ｆｏｒ　Ｔｉｍｅ,,その他の設立登記法人,東京都,新宿区,北新宿２丁目２番１９号,,13,104,1690074,,,,,,,2024-04-03,1,,,,,,0
1790,8011201025372,新規,0,2024-04-03,2024-04-03,株式会社アプリシエイト,,株式会社,東京都,中野区,中野５丁目１７番５号,,13,114,1640001,,,,,,,2024-04-03,1,,,,,アプリシエイト,0
1791,8011203004341,新規,0,2024-04-03,2024-04-03,合同会社アートスタジオｉｒｏｋａ,,合同会社,東京都,中野区,本町２丁目１３番１３－４０１号,,13,114,1640012,,,,,,,2024-04-03,1,,,,,アートスタジオイロカ,0
1797,8011401025973,新規,0,2024-04-03,2024-04-03,歳逸株式会社,,株式会社,東京都,板橋区,板橋１丁目４６番２－３０６号シャロン新板橋,,13,119,1730004,,,,,,,2024-04-03,1,,,,,サイイツ,0
1799,8011501030502,新規,0,2024-04-03,2024-04-03,株式会社みつあみ,,株式会社,東京都,北区,神谷１丁目３３－１４,,13,117,1150043,,,,,,,2024-04-03,1,,,,,ミツアミ,0
1801,8011701000511,新規,0,2024-04-03,2024-04-03,株式会社伊勢崎組,,株式会社,東京都,江戸川区,西葛西６丁目２２番１８号,,13,123,1340088,,,,,,,2024-04-03,1,,,,,イセザキグミ,0
1807,8011801044012,新規,0,2024-04-03,2024-04-03,浄心国際株式会社,,株式会社,東京都,葛飾区,四つ木２丁目６番２２－４０２号,,13,122,1240011,,,,,,,2024-04-03,1,,,,,ジョウシンコクサイ,0
1808,8011801044020,新規,0,2024-04-03,2024-04-03,株式会社イーグル,,株式会社,東京都,足立区,東保木間２丁目６番１６号,,13,121,1210063,,,,,,,2024-04-03,1,,,,,イーグル,0
1809,8011805003352,新規,0,2024-04-03,2024-04-03,医療法人社団智愛詩会,,その他の設立登記法人,東京都,葛飾区,新宿６丁目２番１５号シティテラスモール金町,,13,122,1250051,,,,,,,2024-04-03,1,,,,,チアイノウタカイ,0
1814,8012701018188,新規,0,2024-04-03,2024-04-03,株式会社ＪＳＧｒｏｕｐ,,株式会社,東京都,東久留米市,小山２丁目７番２４号,,13,222,2030051,,,,,,,2024-04-03,1,,,,,ジェイエスグループ,0
1828,8020001156484,新規,0,2024-04-03,2024-04-03,株式会社パワーネット,,株式会社,神奈川県,横浜市保土ケ谷区,新井町１９２番地７,,14,106,2400053,,,,,,,2024-04-03,1,,,,,パワーネット,0
1829,8020001156542,新規,0,2024-04-03,2024-04-03,株式会社Ｆｒｅｎｃｈ　Ｐａｉｎｔ,,株式会社,神奈川県,横浜市青葉区,奈良２丁目１０－８クレール２０６,,14,117,2270038,,,,,,,2024-04-03,1,,,,,フレンチペイント,0
1833,8020003025836,新規,0,2024-04-03,2024-04-03,ＧＬＵＯＮ合同会社,,合同会社,神奈川県,横浜市戸塚区,川上町２３４番地１ザ・パークハウス東戸塚１０６号,,14,110,2440805,,,,,,,2024-04-03,1,,,,,グルーオン,0
1834,8020003025844,新規,0,2024-04-03,2024-04-03,合同会社Ｔ‐ｆｏｒｗａｒｄ,,合同会社,神奈川県,川崎市高津区,久末１９８７番地１,,14,134,2130026,,,,,,,2024-04-03,1,,,,,ティーフォワード,0
1835,8020005016338,新規,0,2024-04-03,2024-04-03,医療法人社団モンビルクリニック,,その他の設立登記法人,神奈川県,横浜市磯子区,東町１５番３２号モンビル根岸２０４号,,14,107,2350005,,,,,,,2024-04-03,1,,,,,モンビルクリニック,0
1841,8021001081838,新規,0,2024-04-03,2024-04-03,株式会社プロモート,,株式会社,神奈川県,相模原市緑区,橋本３丁目４番１５号Ｍ－６－４０２,,14,151,2520143,,,,,,,2024-04-03,1,,,,,プロモート,0
1844,8021003014325,新規,0,2024-04-03,2024-04-03,ＡＳＩＡ　ＪＡＰＡＮ合同会社,,合同会社,神奈川県,綾瀬市,蓼川１丁目１２番１０号,,14,218,2521105,,,,,,,2024-04-03,1,,,,,アジアジャパン,0
1845,8021005013060,新規,0,2024-04-03,2024-04-03,医療法人社団蒼某会,,その他の設立登記法人,神奈川県,藤沢市,柄沢５６３番地１,,14,205,2510003,,,,,,,2024-04-03,1,,,,,ソウボウカイ,0
1851,8030001159552,新規,0,2024-04-03,2024-04-03,株式会社ＮＯＩ,,株式会社,埼玉県,新座市,野寺３丁目１番２６－１号,,11,230,3520034,,,,,,,2024-04-03,1,,,,,ノイ,0
1852,8030001159585,新規,0,2024-04-03,2024-04-03,株式会社中西建設,,株式会社,埼玉県,蕨市,錦町３丁目３番４３号,,11,223,3350005,,,,,,,2024-04-03,1,,,,,ナカニシケンセツ,0
1853,8030001159593,新規,0,2024-04-03,2024-04-03,株式会社ナオ電工,,株式会社,埼玉県,さいたま市南区,松本２丁目２２番１７－９号,,11,108,3360035,,,,,,,2024-04-03,1,,,,,ナオデンコウ,0
1856,8030003023954,新規,0,2024-04-03,2024-04-03,ピカッとジャパン合同会社,,合同会社,埼玉県,川口市,芝東町６―６,,11,203,3330867,,,,,,,2024-04-03,1,,,,,ピカットジャパン,0
1859,8040003024679,新規,0,2024-04-03,2024-04-03,久喜総合開発合同会社,,合同会社,千葉県,千葉市中央区,末広１丁目６番１２－１０２号,,12,101,2600843,,,,,,,2024-04-03,1,,,,,クキソウゴウカイハツ,0
1860,8050001054545,新規,0,2024-04-03,2024-04-03,株式会社ＭＲＣ,,株式会社,茨城県,猿島郡五霞町,大字元栗橋７４２５番地,,08,542,3060313,,,,,,,2024-04-03,1,,,,,エムアールシー,0
1862,8050003008227,新規,0,2024-04-03,2024-04-03,肆肆壱陸合同会社,,合同会社,茨城県,古河市,上辺見４７５番地９,,08,204,3060234,,,,,,,2024-04-03,1,,,,,ヨンヨンイチロク,0
1865,8060001036971,新規,0,2024-04-03,2024-04-03,ラオックス・ビジネスサポート株式会社,,株式会社,栃木県,栃木市,岩舟町静戸３４３番１,,09,203,3294305,,,,,,,2024-04-03,1,,,,,ラオックスビジネスサポート,0
1867,8070001041558,新規,0,2024-04-03,2024-04-03,オール電工ホールディングス株式会社,,株式会社,群馬県,前橋市,上小出町３丁目１番地５,,10,201,3710037,,,,,,,2024-04-03,1,,,,,オールデンコウホールディングス,0
1868,8070001041566,新規,0,2024-04-03,2024-04-03,株式会社シンデン,,株式会社,群馬県,前橋市,下新田町３３８番地,,10,201,3710822,,,,,,,2024-04-03,1,,,,,シンデン,0
1869,8070001041582,新規,0,2024-04-03,2024-04-03,株式会社大谷電機,,株式会社,群馬県,前橋市,端気町２５１番地,,10,201,3710133,,,,,,,2024-04-03,1,,,,,オオタニデンキ,0
1870,8070001041590,新規,0,2024-04-03,2024-04-03,株式会社ハコビヤ,,株式会社,群馬県,前橋市,荒子町９３９番地４,,10,201,3792106,,,,,,,2024-04-03,1,,,,,ハコビヤ,0
1871,8070003005338,新規,0,2024-04-03,2024-04-03,Ｓｕｆｉｙａｎ　Ｔｒａｄｉｎｇ合同会社,,合同会社,群馬県,邑楽郡千代田町,大字下中森７２９番地１,,10,523,3700724,,,,,,,2024-04-03,1,,,,,,0
1873,8080005007595,新規,0,2024-04-03,2024-04-03,特定非営利活動法人日本アドネイチャー協会,,その他の設立登記法人,静岡県,藤枝市,志太２丁目７番１０号,,22,214,4260071,,,,,,,2024-04-03,1,,,,,ニホンアドネイチャーキョウカイ,0
1875,8080101024643,新規,0,2024-04-03,2024-04-03,エレンジャア株式会社,,株式会社,静岡県,田方郡函南町,畑毛２２７番地の１４,,22,325,4190111,,,,,,,2024-04-03,1,,,,,エレンジャア,0
1878,8080103003026,新規,0,2024-04-03,2024-04-03,マエムキ合同会社,,合同会社,静岡県,沼津市,井出２０６６番地の１,,22,203,4100319,,,,,,,2024-04-03,1,,,,,マエムキ,0
1880,8080401027098,新規,0,2024-04-03,2024-04-03,株式会社庭や心花,,株式会社,静岡県,磐田市,赤池１６５番地,,22,211,4380824,,,,,,,2024-04-03,1,,,,,ニワヤコハナ,0
1883,8110001038302,新規,0,2024-04-03,2024-04-03,株式会社ＡＯＧ,,株式会社,新潟県,新潟市東区,竹尾２丁目１５番１１号,,15,102,9500862,,,,,,,2024-04-03,1,,,,,エーオージー,0
1890,8120001263725,新規,0,2024-04-03,2024-04-03,パーソナルカラー診断のＣＯＬＯＲＳ株式会社,,株式会社,大阪府,大阪市北区,梅田１丁目２－２大阪駅前第２ビル１２－１２,,27,127,5300001,,,,,,,2024-04-03,1,,,,,パーソナルカラーシンダンノカラーズ,0
1891,8120003026238,新規,0,2024-04-03,2024-04-03,合同会社希望,,合同会社,大阪府,大阪市淀川区,西宮原２丁目５－４６－１１１８,,27,123,5320004,,,,,,,2024-04-03,1,,,,,キボウ,0
1892,8120101069312,新規,0,2024-04-03,2024-04-03,株式会社オートマック,,株式会社,大阪府,堺市北区,中百舌鳥町３丁３４４番地の１,,27,146,5918023,,,,,,,2024-04-03,1,,,,,オートマック,0
1894,8120105009842,新規,0,2024-04-03,2024-04-03,司法書士法人あすか法務事務所,,その他の設立登記法人,大阪府,泉佐野市,下瓦屋２丁目２番７７号,,27,213,5980062,,,,,,,2024-04-03,1,,,,,アスカホウムジムショ,0
1895,8120901048993,新規,0,2024-04-03,2024-04-03,株式会社ＭａＫｉＡ,,株式会社,大阪府,吹田市,五月が丘南２８番２６号,,27,205,5650832,,,,,,,2024-04-03,1,,,,,マキア,0
1898,8122001037976,新規,0,2024-04-03,2024-04-03,株式会社Ｍクラフト,,株式会社,大阪府,東大阪市,下小阪２丁目２番１６号,,27,227,5770803,,,,,,,2024-04-03,1,,,,,エムクラフト,0
1903,8130001076746,新規,0,2024-04-03,2024-04-03,株式会社Ｊ‐ＢＡＳＥ,,株式会社,京都府,京都市伏見区,下鳥羽但馬町１６４番地藤林倉庫２号,,26,109,6128208,,,,,,,2024-04-03,1,,,,,ジェイベース,0
1904,8130005017052,新規,0,2024-04-03,2024-04-03,一般社団法人ＵＮＬＥＡＲＮ,,その他の設立登記法人,京都府,京都市中京区,西ノ京千本御池上ル北聖町２４新二条ビル,,26,104,6040000,,,,,,,2024-04-03,1,,,,,アンラーン,0
1905,8140001133959,新規,0,2024-04-03,2024-04-03,ｗｅｅｄｉｎｇ　ｍａｎａｇｅｍｅｎｔ株式会社,,株式会社,兵庫県,赤穂市,尾崎２５９１番地２,,28,212,6780221,,,,,,,2024-04-03,1,,,,,ウィーディングマネジメント,0
1906,8140001133975,新規,0,2024-04-03,2024-04-03,株式会社Ｔｏｄｏｗｅｌｌ,,株式会社,兵庫県,神戸市灘区,琵琶町３丁目３番１０号,,28,102,6570041,,,,,,,2024-04-03,1,,,,,トドウェル,0
1907,8140003020387,新規,0,2024-04-03,2024-04-03,セレニティー合同会社,,合同会社,兵庫県,芦屋市,翠ケ丘町１３番１１号,,28,206,6590014,,,,,,,2024-04-03,1,,,,,セレニティー,0
1910,8150001027185,新規,0,2024-04-03,2024-04-03,株式会社ゴールドプレジャー,,株式会社,奈良県,奈良市,茗荷町３９番地,,29,201,6302175,,,,,,,2024-04-03,1,,,,,ゴールドプレジャー,0
1911,8150001027193,新規,0,2024-04-03,2024-04-03,株式会社マツカワ,,株式会社,奈良県,香芝市,真美ヶ丘２丁目１番６号片岡第一ビル２Ｆ－Ｅ号室,,29,210,6390223,,,,,,,2024-04-03,1,,,,,マツカワ,0
1912,8160001025799,新規,0,2024-04-03,2024-04-03,株式会社トラフィックサポート,,株式会社,滋賀県,栗東市,川辺２８０番地３,,25,208,5203014,,,,,,,2024-04-03,1,,,,,トラフィックサポート,0
1915,8180001160768,新規,0,2024-04-03,2024-04-03,Ｉ’ＢＵＫＩ　ＲＯＣＫ株式会社,,株式会社,愛知県,名古屋市中区,錦３丁目１７番２８号,,23,106,4600003,,,,,,,2024-04-03,1,,,,,イブキロック,0
1916,8180001160776,新規,0,2024-04-03,2024-04-03,株式会社リチョイス,,株式会社,愛知県,名古屋市中村区,名駅３丁目４番１０号アルティメイト名駅１ｓｔ２階,,23,105,4500002,,,,,,,2024-04-03,1,,,,,リチョイス,0
1917,8180001160801,新規,0,2024-04-03,2024-04-03,株式会社おとか,,株式会社,愛知県,名古屋市東区,泉１丁目１９番１０号,,23,102,4610001,,,,,,,2024-04-03,1,,,,,オトカ,0
1918,8180003026538,新規,0,2024-04-03,2024-04-03,合同会社ｉｉｍｏｎｏ,,合同会社,愛知県,知多市,佐布里字筒井４５番地,,23,224,4780015,,,,,,,2024-04-03,1,,,,,イイモノ,0
1919,8180003026570,新規,0,2024-04-03,2024-04-03,鷹平合同会社,,合同会社,愛知県,名古屋市東区,芳野３丁目５番１２号,,23,102,4610027,,,,,,,2024-04-03,1,,,,,タカヒラ,0
1920,8180003026579,新規,0,2024-04-03,2024-04-03,ＡＲＣＨＩＴ．Ｄｅｓｉｇｎ合同会社,,合同会社,愛知県,春日井市,堀ノ内町２丁目４番地１９,,23,206,4860829,,,,,,,2024-04-03,1,,,,,アーキットデザイン,0
1921,8180003026587,新規,0,2024-04-03,2024-04-03,合同会社龍エンタープライズ,,合同会社,愛知県,名古屋市北区,平手町１丁目３４の１０,,23,103,4620057,,,,,,,2024-04-03,1,,,,,リュウエンタープライズ,0
1922,8180303006066,新規,0,2024-04-03,2024-04-03,合同会社三遠テラビア,,合同会社,愛知県,豊橋市,曲尺手町１５９番地,,23,201,4400803,,,,,,,2024-04-03,1,,,,,サンエンテラビア,0
1925,8200001042336,新規,0,2024-04-03,2024-04-03,ＥＳＴＡＴＥ株式会社,,株式会社,岐阜県,岐阜市,徹明通２丁目１８番地ライオンズ岐阜プレミスト１１０６号,,21,201,5008879,,,,,,,2024-04-03,1,,,,,エステート,0
1926,8200001042344,新規,0,2024-04-03,2024-04-03,ＯＲＡＮＧＥ株式会社,,株式会社,岐阜県,岐阜市,加納菱野町３０番地ＳｔａｔｉｏｎＶｉｅｗ加納２０２号,,21,201,5008479,,,,,,,2024-04-03,1,,,,,オレンジ,0
1933,8220001025900,新規,0,2024-04-03,2024-04-03,株式会社石のニシタニ,,株式会社,石川県,金沢市,三池町１０番地６,,17,201,9200802,,,,,,,2024-04-03,1,,,,,イシノニシタニ,0
1939,8240001062966,新規,0,2024-04-03,2024-04-03,株式会社ファストレーン,,株式会社,広島県,安芸郡海田町,日の出町２番４８－７０１号,,34,304,7360035,,,,,,,2024-04-03,1,,,,,ファストレーン,0
1940,8240001063023,新規,0,2024-04-03,2024-04-03,株式会社Ｙ．Ｔ．Ｇ,,株式会社,広島県,安芸郡熊野町,呉地５丁目３２番１０号,,34,307,7314222,,,,,,,2024-04-03,1,,,,,ワイティージー,0
1943,8250001020592,新規,0,2024-04-03,2024-04-03,株式会社ｙａｋｕｓｈｉｎ,,株式会社,山口県,周南市,大字徳山５６８５番地の１２,,35,215,7450851,,,,,,,2024-04-03,1,,,,,ヤクシン,0
1949,8290801030449,新規,0,2024-04-03,2024-04-03,株式会社ＩＳ‐Ｙ,,株式会社,福岡県,北九州市小倉北区,泉台２丁目２１番１０号,,40,106,8030842,,,,,,,2024-04-03,1,,,,,アイエスワイ,0
1952,8300001013673,新規,0,2024-04-03,2024-04-03,株式会社北原農機,,株式会社,佐賀県,神埼市,神埼町姉川２１７８番地,,41,210,8420014,,,,,,,2024-04-03,1,,,,,キタハラノウキ,0
1953,8310001018928,新規,0,2024-04-03,2024-04-03,株式会社太陽トランスポート,,株式会社,長崎県,東彼杵郡東彼杵町,蔵本郷１８３２番地１,,42,321,8593808,,,,,,,2024-04-03,1,,,,,タイヨウトランスポート,0
1954,8310001018936,新規,0,2024-04-03,2024-04-03,株式会社いつき,,株式会社,長崎県,東彼杵郡波佐見町,湯無田郷８８０番地,,42,323,8593702,,,,,,,2024-04-03,1,,,,,イツキ,0
1959,8340001026408,新規,0,2024-04-03,2024-04-03,株式会社しんせん,,株式会社,鹿児島県,鹿児島市,中山町６０８５番地１,,46,201,8910105,,,,,,,2024-04-03,1,,,,,シンセン,0
1960,8340001026416,新規,0,2024-04-03,2024-04-03,ドリーム株式会社,,株式会社,鹿児島県,大島郡瀬戸内町,大字古仁屋字松江１０番地１５,,46,525,8941505,,,,,,,2024-04-03,1,,,,,ドリーム,0
1964,8350001018866,新規,0,2024-04-03,2024-04-03,株式会社吉野工務店,,株式会社,宮崎県,児湯郡新富町,大字新田５５７６番地,,45,402,8891406,,,,,,,2024-04-03,1,,,,,ヨシノコウムテン,0
1967,8360001033435,新規,0,2024-04-03,2024-04-03,株式会社ＢＩＧ,,株式会社,沖縄県,中頭郡中城村,字南上原６１５番地７Ｍａ．サンセヴェリア４１６号,,47,328,9012424,,,,,,,2024-04-03,1,,,,,ビッグ,0
1974,8430003016166,新規,0,2024-04-03,2024-04-03,合同会社ＳＫＰ,,合同会社,北海道,北広島市,輪厚５３５－２９０,,01,234,0611264,,,,,,,2024-04-03,1,,,,,エスケーピー,0
1976,8440001009410,新規,0,2024-04-03,2024-04-03,亀田不動産株式会社,,株式会社,北海道,函館市,堀川町５番１６号,,01,202,0400025,,,,,,,2024-04-03,1,,,,,カメダフドウサン,0
1977,8440005002774,新規,0,2024-04-03,2024-04-03,しりうち地域づくり協同組合,,その他の設立登記法人,北海道,上磯郡知内町,字重内２１番地１,,01,333,0491103,,,,,,,2024-04-03,1,,,,,シリウチチイキヅクリ,0
1978,8450001014269,新規,0,2024-04-03,2024-04-03,株式会社ＣＯＢＩＮ　ＤＥＳＩＧＮ,,株式会社,北海道,旭川市,永山十三条２丁目１番１５号,,01,204,0798423,,,,,,,2024-04-03,1,,,,,コビンデザイン,0
1980,8460301005207,新規,0,2024-04-03,2024-04-03,株式会社バックス,,株式会社,北海道,北見市,北進町２丁目１－１５,,01,208,0900052,,,,,,,2024-04-03,1,,,,,バックス,0
1981,8460305002010,新規,0,2024-04-03,2024-04-03,一般社団法人オホーツクねこの会,,その他の設立登記法人,北海道,北見市,中央三輪４丁目４９４番地３９,,01,208,0900837,,,,,,,2024-04-03,1,,,,,オホーツクネコノカイ,0
1982,8490001010743,新規,0,2024-04-03,2024-04-03,株式会社川上建築,,株式会社,高知県,高知市,青柳町６４番地５,,39,201,7810813,,,,,,,2024-04-03,1,,,,,カワカミケンチク,0
1984,8500003003215,新規,0,2024-04-03,2024-04-03,合同会社雄美装,,合同会社,愛媛県,西条市,朔日市７９４番地８,,38,206,7930027,,,,,,,2024-04-03,1,,,,,ユウビソウ,0
1992,9010001243506,新規,0,2024-04-03,2024-04-03,株式会社ＩＰＰＩＮ,,株式会社,東京都,中央区,銀座２丁目１３番１６－３０１号,,13,102,1040061,,,,,,,2024-04-03,1,,,,,イッピン,0
1993,9010001243704,新規,0,2024-04-03,2024-04-03,ＦｒｏｎｔＡｃｔ株式会社,,株式会社,東京都,中央区,新川１丁目１７番２４号ＮＭＦ茅場町ビル５階,,13,102,1040033,,,,,,,2024-04-03,1,,,,,フロンタクト,0
2003,9010401181405,新規,0,2024-04-03,2024-04-03,株式会社ＢｌｕｅＡＩ,,株式会社,東京都,港区,南青山３丁目１番３６号青山丸竹ビル６Ｆ,,13,103,1070062,,,,,,,2024-04-03,1,,,,,ブルーエーアイ,0
2004,9010401181446,新規,0,2024-04-03,2024-04-03,株式会社ＤＩＣ,,株式会社,東京都,港区,新橋３丁目８番８号リバティ８ビル,,13,103,1050004,,,,,,,2024-04-03,1,,,,,ディーアイシー,0
2006,9010501052043,新規,0,2024-04-03,2024-04-03,株式会社レオスター,,株式会社,東京都,台東区,東上野２丁目１３番８号,,13,106,1100015,,,,,,,2024-04-03,1,,,,,レオスター,0
2011,9010601064946,新規,0,2024-04-03,2024-04-03,ｉＵｅスポーツ株式会社,,株式会社,東京都,墨田区,文花１丁目１８番１３号,,13,107,1310044,,,,,,,2024-04-03,1,,,,,アイユーイースポーツ,0
2012,9010603010741,新規,0,2024-04-03,2024-04-03,合同会社ＨＡＢＯ　ＡＮＤ　ＬＩＬＹ,,合同会社,東京都,墨田区,亀沢１丁目２３番１０号,,13,107,1300014,,,,,,,2024-04-03,1,,,,,ハボアンドリリー,0
2015,9010901055001,新規,0,2024-04-03,2024-04-03,株式会社ＳＡＮＢＩＴＳ,,株式会社,東京都,世田谷区,玉川台２丁目３番１８号,,13,112,1580096,,,,,,,2024-04-03,1,,,,,サンビッツ,0
2018,9011001160996,新規,0,2024-04-03,2024-04-03,株式会社ＣＯＶＡ,,株式会社,東京都,渋谷区,渋谷２丁目１９―１５宮益坂ビルディング６０９,,13,113,1500002,,,,,,,2024-04-03,1,,,,,コバ,0
2019,9011001161053,新規,0,2024-04-03,2024-04-03,株式会社ＫＥＣＡＫ,,株式会社,東京都,渋谷区,恵比寿西２丁目８番４号,,13,113,1500021,,,,,,,2024-04-03,1,,,,,ケチャ,0
2020,9011001161078,新規,0,2024-04-03,2024-04-03,株式会社Ｚ,,株式会社,東京都,渋谷区,道玄坂１丁目１０番８号渋谷道玄坂東急ビル２Ｆ－Ｃ,,13,113,1500043,,,,,,,2024-04-03,1,,,,,ゼット,0
2021,9011001161086,新規,0,2024-04-03,2024-04-03,株式会社ステラディベロップメント,,株式会社,東京都,渋谷区,渋谷３丁目１１－２渋谷パインビルＢ１,,13,113,1500002,,,,,,,2024-04-03,1,,,,,ステラディベロップメント,0
2024,9011003018838,新規,0,2024-04-03,2024-04-03,プロジェクト・ラーテル合同会社,,合同会社,東京都,目黒区,三田２丁目１番５－２０２号,,13,110,1530062,,,,,,,2024-04-03,1,,,,,プロジェクトラーテル,0
2029,9011101106809,新規,0,2024-04-03,2024-04-03,ティーソル株式会社,,株式会社,東京都,新宿区,新宿７丁目１２番１号新宿平和ビル１階,,13,104,1600022,,,,,,,2024-04-03,1,,,,,ティーソル,0
2031,9011103014274,新規,0,2024-04-03,2024-04-03,合同会社コンフォート和心,,合同会社,東京都,新宿区,住吉町８番２２号２階,,13,104,1620065,,,,,,,2024-04-03,1,,,,,コンフォートワシン,0
2035,9011401025972,新規,0,2024-04-03,2024-04-03,株式会社ＪＩＪＩ,,株式会社,東京都,板橋区,大山金井町４３番１２号ＭａｙｆａｉｒＡｐａｒｔｍｅｎｔ３０８,,13,119,1730024,,,,,,,2024-04-03,1,,,,,ジジ,0
2038,9011403004322,新規,0,2024-04-03,2024-04-03,夏雲サウンド合同会社,,合同会社,東京都,板橋区,徳丸２丁目２４番２０号ラシクラス東武練馬２０２,,13,119,1750083,,,,,,,2024-04-03,1,,,,,ナツグモサウンド,0
2041,9011503006004,新規,0,2024-04-03,2024-04-03,ＺＨＹＨ合同会社,,合同会社,東京都,荒川区,町屋３丁目１８番１２号ＮＤビル２０６,,13,118,1160001,,,,,,,2024-04-03,1,,,,,ゼットエイチワイエイチ,0
2043,9011601027661,新規,0,2024-04-03,2024-04-03,株式会社訪看総合研究所,,株式会社,東京都,練馬区,関町南４丁目１９番６号,,13,120,1770053,,,,,,,2024-04-03,1,,,,,ホウカンソウゴウケンキュウジョ,0
2051,9011803006158,新規,0,2024-04-03,2024-04-03,合同会社ＳＤＬドライバーズ,,合同会社,東京都,足立区,千住宮元町１２－１２－８０１ｔｒｉａｓ２１２,,13,121,1200043,,,,,,,2024-04-03,1,,,,,エスディーエルドライバーズ,0
2054,9013101009388,新規,0,2024-04-03,2024-04-03,株式会社ＫＳ電工,,株式会社,東京都,あきる野市,上代継２２６番地１,,13,228,1970832,,,,,,,2024-04-03,1,,,,,ケイエスデンコウ,0
2064,9020001156491,新規,0,2024-04-03,2024-04-03,株式会社Ｓａｋｕｒａｂａｓｅ　ｔｈｅ　Ｅａｒｔｈ,,株式会社,神奈川県,川崎市多摩区,登戸２８１５番地１,,14,135,2140014,,,,,,,2024-04-03,1,,,,,サクラベースジアース,0
2065,9020001156517,新規,0,2024-04-03,2024-04-03,株式会社ｅｃＬＡＴ,,株式会社,神奈川県,横浜市栄区,鍛冶ケ谷町４５２番地３６９,,14,115,2470003,,,,,,,2024-04-03,1,,,,,エクラット,0
2079,9030003023920,新規,0,2024-04-03,2024-04-03,アーバンロック合同会社,,合同会社,埼玉県,川越市,大字小室４９９番地１,,11,201,3501106,,,,,,,2024-04-03,1,,,,,アーバンロック,0
2080,9030003023953,新規,0,2024-04-03,2024-04-03,ｍａ　ｍｅｒｅ合同会社,,合同会社,埼玉県,さいたま市見沼区,大字御蔵７５１－１３,,11,104,3370033,,,,,,,2024-04-03,1,,,,,,0
2081,9030005021609,新規,0,2024-04-03,2024-04-03,一般社団法人チームリオン,,その他の設立登記法人,埼玉県,北本市,北本３丁目４１番地３カルム北本１－２０２,,11,233,3640006,,,,,,,2024-04-03,1,,,,,チームリオン,0
2082,9030005021617,新規,0,2024-04-03,2024-04-03,医療法人社団ゆずるクリニック,,その他の設立登記法人,埼玉県,さいたま市南区,南浦和２丁目４４番７号ピュアプレジール２階２０１号室,,11,108,3360017,,,,,,,2024-04-03,1,,,,,ユズルクリニック,0
2102,9060001036979,新規,0,2024-04-03,2024-04-03,株式会社啓造,,株式会社,栃木県,宇都宮市,昭和２丁目４番９号,,09,201,3200032,,,,,,,2024-04-03,1,,,,,ケイゾウ,0
2112,9070001041573,新規,0,2024-04-03,2024-04-03,株式会社ＦＬＣｓ,,株式会社,群馬県,太田市,金山町１４番１８－Ｂ号,,10,205,3730027,,,,,,,2024-04-03,1,,,,,エフエルシーズ,0
2114,9070003005345,新規,0,2024-04-03,2024-04-03,合同会社ブルーキャッツスタジオ,,合同会社,群馬県,前橋市,富士見町時沢６７５番地８,,10,201,3710104,,,,,,,2024-04-03,1,,,,,ブルーキャッツスタジオ,0
2115,9070003005353,新規,0,2024-04-03,2024-04-03,合同会社ＳＯＢＡＮＩ,,合同会社,群馬県,前橋市,問屋町２丁目１０番地１８,,10,201,3710855,,,,,,,2024-04-03,1,,,,,ソバニ,0
2116,9080003003166,新規,0,2024-04-03,2024-04-03,合同会社ＬＦＲＳ,,合同会社,静岡県,静岡市葵区,七間町５－６北村屋ビル２ＦＢ,,22,101,4200035,,,,,,,2024-04-03,1,,,,,ルフェルス,0
2118,9080101024642,新規,0,2024-04-03,2024-04-03,株式会社ＫＴ興業,,株式会社,静岡県,沼津市,下香貫柿原２８３４番地の１９,,22,203,4100822,,,,,,,2024-04-03,1,,,,,ケイティコウギョウ,0
2119,9080401027106,新規,0,2024-04-03,2024-04-03,ＹＴＫ株式会社,,株式会社,静岡県,浜松市中央区,安新町３４１番地の２,,22,138,4350005,,,,,,,2024-04-03,1,,,,,ワイティーケー,0
2122,9090001018636,新規,0,2024-04-03,2024-04-03,株式会社ＫＯＵＩＣＨＩ,,株式会社,山梨県,甲府市,緑が丘１丁目２番２０号,,19,201,4000008,,,,,,,2024-04-03,1,,,,,コウイチ,0
2124,9100001037337,新規,0,2024-04-03,2024-04-03,株式会社コプレイスアーキテクツ,,株式会社,長野県,上水内郡飯綱町,大字黒川１２５１番地,,20,590,3891214,,,,,,,2024-04-03,1,,,,,コプレイスアーキテクツ,0
2131,9110001038301,新規,0,2024-04-03,2024-04-03,株式会社グラナージ,,株式会社,新潟県,新潟市東区,牡丹山４丁目１５番８号,,15,102,9500872,,,,,,,2024-04-03,1,,,,,グラナージ,0
2136,9120001263724,新規,0,2024-04-03,2024-04-03,株式会社Ｄａｙｓ,,株式会社,大阪府,大阪市北区,梅田１丁目２－２大阪駅前第２ビル１２－１２,,27,127,5300001,,,,,,,2024-04-03,1,,,,,デイズ,0
2137,9120001263781,新規,0,2024-04-03,2024-04-03,株式会社シグマ,,株式会社,大阪府,大阪市住吉区,殿辻２丁目２番８号,00134287,27,120,5580042,,,,,,,2024-04-03,1,,,,,シグマ,0
2142,9120003026261,新規,0,2024-04-03,2024-04-03,合同会社ＭＩＲＡＩ,,合同会社,大阪府,大阪市中央区,大手前１丁目７番３１号ＯＭＭ１階ＳｅｒｖｉｃｅＯｆｆｉｃｅＷ天満橋,,27,128,5400008,,,,,,,2024-04-03,1,,,,,ミライ,0
2144,9120101069328,新規,0,2024-04-03,2024-04-03,株式会社Ｌｉｎｅ,,株式会社,大阪府,泉大津市,板原町１丁目３番４０号,,27,206,5950033,,,,,,,2024-04-03,1,,,,,ライン,0
2145,9120101069336,新規,0,2024-04-03,2024-04-03,株式会社Ｎ．Ｄ．Ｒ,,株式会社,大阪府,貝塚市,三ツ松７０４番地３,,27,208,5970105,,,,,,,2024-04-03,1,,,,,エヌデーアール,0
2146,9120101069352,新規,0,2024-04-03,2024-04-03,阪南ファーム株式会社,,株式会社,大阪府,堺市堺区,松屋大和川通２丁２２番地１６,,27,141,5900902,,,,,,,2024-04-03,1,,,,,ハンナンファーム,0
2150,9120903005109,新規,0,2024-04-03,2024-04-03,合同会社ケー・アイ・ディー,,合同会社,大阪府,高槻市,芝生町２丁目６４番５号,,27,207,5690823,,,,,,,2024-04-03,1,,,,,ケーアイディー,0
2154,9122001037967,新規,0,2024-04-03,2024-04-03,株式会社六和,,株式会社,大阪府,東大阪市,渋川町２丁目９番１９号,,27,227,5770836,,,,,,,2024-04-03,1,,,,,ロクワ,0
2155,9122001037983,新規,0,2024-04-03,2024-04-03,株式会社ハルト,,株式会社,大阪府,東大阪市,西石切町１丁目９番２号,,27,227,5798013,,,,,,,2024-04-03,1,,,,,ハルト,0
2157,9130001076729,新規,0,2024-04-03,2024-04-03,株式会社ＴＲＳ,,株式会社,京都府,京都市伏見区,竹田内畑町２０７番地,,26,109,6128423,,,,,,,2024-04-03,1,,,,,ティーアールエス,0
2163,9140001133883,新規,0,2024-04-03,2024-04-03,株式会社ｍｅｒｖｉ,,株式会社,兵庫県,伊丹市,大鹿２丁目７０番地１,,28,207,6640899,,,,,,,2024-04-03,1,,,,,メルヴィ,0
2164,9140001133974,新規,0,2024-04-03,2024-04-03,株式会社ＢＩＷＡＢＯＷ,,株式会社,兵庫県,尼崎市,東難波町５丁目２６番６号,,28,202,6600892,,,,,,,2024-04-03,1,,,,,ビワボウ,0
2165,9140003020386,新規,0,2024-04-03,2024-04-03,合同会社ＹＵＳＨＩＮ,,合同会社,兵庫県,姫路市,夢前町置本７７番地６,,28,201,6712122,,,,,,,2024-04-03,1,,,,,ユウシン,0
2166,9140005027000,新規,0,2024-04-03,2024-04-03,医療法人白銀会,,その他の設立登記法人,兵庫県,伊丹市,山田５丁目３番３号,,28,207,6640874,,,,,,,2024-04-03,1,,,,,シラガネカイ,0
2167,9150001027184,新規,0,2024-04-03,2024-04-03,株式会社一番ホーム,,株式会社,奈良県,生駒郡斑鳩町,興留４丁目３－１６,,29,344,6360123,,,,,,,2024-04-03,1,,,,,イチバンホーム,0
2168,9150001027192,新規,0,2024-04-03,2024-04-03,株式会社ＴＡＫＥ　ＣＯＲＰＯＲＡＴＩＯＮ,,株式会社,奈良県,磯城郡田原本町,大字阪手７２７－１３,,29,363,6360247,,,,,,,2024-04-03,1,,,,,テイクコーポレーション,0
2177,9180001160809,新規,0,2024-04-03,2024-04-03,ｉＬｉｎｋ株式会社,,株式会社,愛知県,一宮市,浅井町江森字森前３２番地１ナビウッディ一宮２０９,,23,203,4910114,,,,,,,2024-04-03,1,,,,,アイリンク,0
2178,9180001160866,新規,0,2024-04-03,2024-04-03,株式会社ＲｕｔｉＲｕｓ,,株式会社,愛知県,東海市,名和町石塚１２番地の１,,23,222,4760002,,,,,,,2024-04-03,1,,,,,ルティルス,0
2180,9180003026561,新規,0,2024-04-03,2024-04-03,Ｂｅａｕｔ合同会社,,合同会社,愛知県,江南市,布袋下山町北５３番地５,,23,217,4838147,,,,,,,2024-04-03,1,,,,,ビュート,0
2181,9180003026578,新規,0,2024-04-03,2024-04-03,ＦＯＲＴＵＮＡＴＥ合同会社,,合同会社,愛知県,名古屋市中川区,花塚町４丁目５８番地の１,,23,110,4540052,,,,,,,2024-04-03,1,,,,,フォーチュネイト,0
2182,9180003026586,新規,0,2024-04-03,2024-04-03,合同会社ＳＨ,,合同会社,愛知県,名古屋市中区,錦３丁目１７番１０号錦三ビル８Ｆ,,23,106,4600003,,,,,,,2024-04-03,1,,,,,エスエイチ,0
2186,9190001031240,新規,0,2024-04-03,2024-04-03,株式会社ユタカ招事,,株式会社,三重県,松阪市,垣鼻町４７９番地６,,24,204,5150033,,,,,,,2024-04-03,1,,,,,ユタカショウジ,0
2192,9200001042335,新規,0,2024-04-03,2024-04-03,ＡＡＭ株式会社,,株式会社,岐阜県,瑞穂市,本田１１５２番地２,,21,216,5010236,,,,,,,2024-04-03,1,,,,,アーム,0
2193,9200001042343,新規,0,2024-04-03,2024-04-03,ＴＡＴＳＵＭＩホールディングス株式会社,,株式会社,岐阜県,揖斐郡大野町,大字下磯４７２番地１,,21,403,5010532,,,,,,,2024-04-03,1,,,,,タツミホールディングス,0
2194,9200003006288,新規,0,2024-04-03,2024-04-03,合同会社大和建装,,合同会社,岐阜県,大垣市,和合本町２丁目５０３番地２,,21,202,5030005,,,,,,,2024-04-03,1,,,,,ヤマトケンソウ,0
2196,9210001019712,新規,0,2024-04-03,2024-04-03,株式会社エムスト,,株式会社,福井県,越前市,高瀬１丁目２０番１９号,,18,209,9150832,,,,,,,2024-04-03,1,,,,,エムスト,0
2198,9220001025899,新規,0,2024-04-03,2024-04-03,株式会社岩佐工業,,株式会社,石川県,加賀市,湖城町２丁目２３１番地,,17,206,9220413,,,,,,,2024-04-03,1,,,,,イワサコウギョウ,0
2199,9220003003696,新規,0,2024-04-03,2024-04-03,合同会社ＧＯＯＤ　ＢＲＥＡＴＨ,,合同会社,石川県,金沢市,藤江南３丁目２,,17,201,9200346,,,,,,,2024-04-03,1,,,,,グッドブレス,0
2200,9220005008826,新規,0,2024-04-03,2024-04-03,一般社団法人ときめき輝く金沢,,その他の設立登記法人,石川県,金沢市,小坂町北１７３番地ベルサイユ１０８号,,17,201,9200811,,,,,,,2024-04-03,1,,,,,トキメキカガヤクカナザワ,0
2204,9240001063006,新規,0,2024-04-03,2024-04-03,玉井商事株式会社,,株式会社,広島県,東広島市,河内町小田字平盛３６２１番地,,34,212,7392207,,,,,,,2024-04-03,1,,,,,タマイショウジ,0
2205,9240001063022,新規,0,2024-04-03,2024-04-03,Ｂｏｎｄ．ｃｏｒｐｏｒａｔｉｏｎ株式会社,,株式会社,広島県,広島市南区,京橋町１０番２３－５０１号,,34,103,7320828,,,,,,,2024-04-03,1,,,,,ボンドコーポレーション,0
2206,9240001063030,新規,0,2024-04-03,2024-04-03,株式会社Ｍ’ｓベース,,株式会社,広島県,広島市安佐南区,緑井１丁目１８番２３号,,34,105,7310103,,,,,,,2024-04-03,1,,,,,エムズベース,0
2208,9240003006607,新規,0,2024-04-03,2024-04-03,合同会社まるいし,,合同会社,広島県,福山市,東深津町５丁目５番１号,,34,207,7210974,,,,,,,2024-04-03,1,,,,,マルイシ,0
2211,9260001038914,新規,0,2024-04-03,2024-04-03,株式会社ジー・オー・ジー,,株式会社,岡山県,岡山市北区,表町１丁目７番１号魚田ビル１Ｆ,,33,101,7000822,,,,,,,2024-04-03,1,,,,,ジーオージー,0
2212,9260001038922,新規,0,2024-04-03,2024-04-03,株式会社リライト,,株式会社,岡山県,岡山市北区,下中野３３４－１１０日商ビル２０２号,,33,101,7000973,,,,,,,2024-04-03,1,,,,,リライト,0
2213,9260001038939,新規,0,2024-04-03,2024-04-03,株式会社ルリカケス,,株式会社,岡山県,英田郡西粟倉村,大字影石９９０番地１,,33,643,7070503,,,,,,,2024-04-03,1,,,,,ルリカケス,0
2216,9280003001827,新規,0,2024-04-03,2024-04-03,合同会社Ａｒｃｈ,,合同会社,島根県,益田市,遠田町１７２３番地１,,32,204,6993676,,,,,,,2024-04-03,1,,,,,アーチ,0
2222,9300001013672,新規,0,2024-04-03,2024-04-03,株式会社樋口総建,00134274,株式会社,佐賀県,神埼市,千代田町姉９９５番地２,,41,210,8420052,,,,,,,2024-04-03,1,,,,,ヒグチソウケン,0
2223,9300003002095,新規,0,2024-04-03,2024-04-03,合同会社ＧＰＥＣ,,合同会社,佐賀県,杵島郡白石町,大字福富１２５３番地２,,41,425,8490401,,,,,,,2024-04-03,1,,,,,ジーペック,0
2224,9310001018927,新規,0,2024-04-03,2024-04-03,株式会社グリースハウゼナガセ,,株式会社,長崎県,長崎市,目覚町１４－１５浜ビル１階,,42,201,8528105,,,,,,,2024-04-03,1,,,,,グリースハウゼナガセ,0
2225,9310001018935,新規,0,2024-04-03,2024-04-03,株式会社エイタツオート,,株式会社,長崎県,諫早市,貝津町９０３番地１,,42,204,8540063,,,,,,,2024-04-03,1,,,,,エイタツオート,0
2226,9310005008759,新規,0,2024-04-03,2024-04-03,医療法人社団三峰会,,その他の設立登記法人,長崎県,佐世保市,常盤町５番５号サンクル三番館１０７号室,,42,202,8570053,,,,,,,2024-04-03,1,,,,,サンポウカイ,0
2230,9330001031911,新規,0,2024-04-03,2024-04-03,株式会社大劇八代店,,株式会社,熊本県,八代市,永碇町１１０１番地１,,43,202,8660885,,,,,,,2024-04-03,1,,,,,タイゲキヤツシロテン,0
2234,9350001018873,新規,0,2024-04-03,2024-04-03,株式会社ゼンシン,,株式会社,宮崎県,延岡市,伊形町５１７４番地３リヴィエールＩ２０１,00134279,45,203,8890503,,,,,,,2024-04-03,1,,,,,ゼンシン,0
2235,9350001018881,新規,0,2024-04-03,2024-04-03,株式会社ＷＥＬＬ　ＵＰ　ＨＩＮＡＴＡ,,株式会社,宮崎県,日南市,吾田東１丁目６番５５号,,45,204,8870041,,,,,,,2024-04-03,1,,,,,ウェルアップヒナタ,0
2236,9350003004608,新規,0,2024-04-03,2024-04-03,合同会社日高牧場,00134288,合同会社,宮崎県,児湯郡新富町,大字新田２１６２７番地１,,45,402,8891406,,,,,,,2024-04-03,1,,,,,ヒダカボクジョウ,0
2238,9360001033434,新規,0,2024-04-03,2024-04-03,株式会社ゆないと,,株式会社,沖縄県,沖縄市,海邦２丁目３番２２号,,47,211,9042162,,,,,,,2024-04-03,1,,,,,ユナイト,0
2239,9360001033442,新規,0,2024-04-03,2024-04-03,株式会社ｈｉｔｏｔｏ　ｇｒｏｕｐ,,株式会社,沖縄県,那覇市,字安謝１０４番地３丸進コーポ１０２号,,47,201,9000003,,,,,,,2024-04-03,1,,,,,ヒトトグループ,0
2245,9370001051138,新規,0,2024-04-03,2024-04-03,株式会社こころメモリー,,株式会社,宮城県,仙台市青葉区,川平５丁目４番地の３０キャピタル中山３階,,04,101,9810954,,,,,,,2024-04-03,1,,,,,ココロメモリー,0
2246,9370001051146,新規,0,2024-04-03,2024-04-03,株式会社ウィズ,,株式会社,宮城県,仙台市青葉区,上杉３丁目３番２１号,,04,101,9800011,,,,,,,2024-04-03,1,,,,,ウィズ,0
2247,9370003006552,新規,0,2024-04-03,2024-04-03,合同会社日澤邦幸徴収実務研究舎,,合同会社,宮城県,大崎市,古川旭１丁目４番２６号,,04,215,9896117,,,,,,,2024-04-03,1,,,,,ヒサワクニユキチョウシュウジツムケンキュウシャ,0
2252,9410003003909,新規,0,2024-04-03,2024-04-03,合同会社竹内農林,,合同会社,秋田県,湯沢市,上院内字荒町１８番地２,,05,207,0190111,,,,,,,2024-04-03,1,,,,,タケウチノウリン,0
2254,9430001091433,新規,0,2024-04-03,2024-04-03,株式会社ポロサ,,株式会社,北海道,札幌市中央区,円山西町１丁目５番１２号,,01,101,0640944,,,,,,,2024-04-03,1,,,,,ポロサ,0
2257,9430003016165,新規,0,2024-04-03,2024-04-03,義三合同会社,,合同会社,北海道,北広島市,共栄町１丁目４番地４,,01,234,0611113,,,,,,,2024-04-03,1,,,,,ヨシミ,0
2258,9440005002773,新規,0,2024-04-03,2024-04-03,一般社団法人まなびのもり,,その他の設立登記法人,北海道,茅部郡森町,字姫川１１－１３株式会社ハルキ内,,01,345,0492306,,,,,,,2024-04-03,1,,,,,マナビノモリ,0
2259,9460001005885,新規,0,2024-04-03,2024-04-03,株式会社エーテック,,株式会社,北海道,釧路市,大楽毛南２丁目２番３２号,,01,206,0840915,,,,,,,2024-04-03,1,,,,,エーテック,0
2264,9460301005206,新規,0,2024-04-03,2024-04-03,株式会社建築舎たかはし,,株式会社,北海道,北見市,高砂町４番１号,,01,208,0900017,,,,,,,2024-04-03,1,,,,,ケンチクシャタカハシ,0
2266,9470001020124,新規,0,2024-04-03,2024-04-03,百十四共創投資株式会社,,株式会社,香川県,高松市,亀井町７番地の１５,,37,201,7600050,,,,,,,2024-04-03,1,,,,,ヒャクジュウシキョウソウトウシ,0
2274,9500003003214,新規,0,2024-04-03,2024-04-03,合同会社森村工業,,合同会社,愛媛県,松山市,越智３丁目９番１号プラザグリーンＭ・Ｓ４０１号,,38,201,7900933,,,,,,,2024-04-03,1,,,,,モリムラコウギョウ,0
