sequenceNumber,corporateNumber,process,correct,updateDate,changeDate,name,nameImageId,kind,prefectureName,cityName,streetNumber,addressImageId,prefectureCode,cityCode,postCode,addressOutside,addressOutsideImageId,closeDate,closeCause,successorCorporateNumber,changeCause,assignmentDate,latest,enName,enPrefectureName,enCityName,enAddressOutside,furigana,hihyoji
10,1010001247027,新規,0,2024-08-02,2024-08-02,Ｗｏｎｄｅｒ　Ｆｕｓｉｏｎ株式会社,,株式会社,東京都,中央区,銀座１丁目１２番４号Ｎ＆ＥＢＬＤ．７階,,13,102,1040061,,,,,,,2024-08-02,1,,,,,ワンダーフュージョン,0
11,1010001247043,新規,0,2024-08-02,2024-08-02,株式会社ネチュラ,,株式会社,東京都,中央区,銀座１丁目１２－４Ｎ＆ＥＢＬＤ．７階,,13,102,1040061,,,,,,,2024-08-02,1,,,,,ネチュラ,0
12,1010001247150,新規,0,2024-08-02,2024-08-02,株式会社しのみ屋,,株式会社,東京都,中央区,銀座１丁目１２―４Ｎ＆ＥＢＬＤ．７階,,13,102,1040061,,,,,,,2024-08-02,1,,,,,シノミヤ,0
13,1010005038579,新規,0,2024-08-02,2024-08-02,ＧＬＰ東海名和ロジスティック特定目的会社,,その他の設立登記法人,東京都,中央区,八重洲２丁目２番１号,,13,102,1040028,,,,,,,2024-08-02,1,,,,,ジーエルピートウカイナワロジスティック,0
19,1010401184142,新規,0,2024-08-02,2024-08-02,株式会社ＤＩＺＯＮＥ,,株式会社,東京都,港区,北青山１丁目３番１号アールキューブ青山３階,,13,103,1070061,,,,,,,2024-08-02,1,,,,,ディゾーン,0
20,1010401184175,新規,0,2024-08-02,2024-08-02,株式会社ＰＩＬＩＣＡ,,株式会社,東京都,港区,高輪１丁目２６番１２号,,13,103,1080074,,,,,,,2024-08-02,1,,,,,ピリカ,0
21,1010401184191,新規,0,2024-08-02,2024-08-02,株式会社ｋｉ‐ｚｕ‐ｎａ,,株式会社,東京都,港区,虎ノ門４丁目１番１号神谷町トラストタワー２３Ｆ,,13,103,1050001,,,,,,,2024-08-02,1,,,,,キズナ,0
22,1010403033140,新規,0,2024-08-02,2024-08-02,ＭＡＲＵ　Ｔｏ合同会社,,合同会社,東京都,港区,東新橋１丁目１０番１－３３１１号,,13,103,1050021,,,,,,,2024-08-02,1,,,,,マルト,0
23,1010403033157,新規,0,2024-08-02,2024-08-02,Ｉｎｔｅｇｒｉｔｙ　Ｐａｒｔｎｅｒ合同会社,,合同会社,東京都,港区,白金１丁目２５番２１－１１０４号,,13,103,1080072,,,,,,,2024-08-02,1,,,,,インテグリティパートナー,0
26,1010601065679,新規,0,2024-08-02,2024-08-02,株式会社ひなちか,,株式会社,東京都,墨田区,横川２丁目１６番７号,,13,107,1300003,,,,,,,2024-08-02,1,,,,,ヒナチカ,0
27,1010601065687,新規,0,2024-08-02,2024-08-02,日星株式会社,,株式会社,東京都,江東区,南砂４丁目１０番４号・３０２,,13,108,1360076,,,,,,,2024-08-02,1,,,,,ニッセイ,0
28,1010603011004,新規,0,2024-08-02,2024-08-02,合同会社アスモハレル,,合同会社,東京都,江東区,辰巳１丁目６番１０号９１１号室,,13,108,1350053,,,,,,,2024-08-02,1,,,,,アスモハレル,0
30,1010701046323,新規,0,2024-08-02,2024-08-02,民泊ｃａｍｐ株式会社,,株式会社,東京都,品川区,戸越１丁目２０番１２号,,13,109,1420041,,,,,,,2024-08-02,1,,,,,ミンパクキャンプ,0
31,1010703007281,新規,0,2024-08-02,2024-08-02,合同会社梵,,合同会社,東京都,品川区,上大崎３丁目３－９秀和目黒駅前レジデンス１０１９,,13,109,1410021,,,,,,,2024-08-02,1,,,,,ボン,0
36,1010901055727,新規,0,2024-08-02,2024-08-02,株式会社ＪａｐａｎＮａｎｎｙ．,,株式会社,東京都,世田谷区,北烏山１丁目２５－２,,13,112,1570061,,,,,,,2024-08-02,1,,,,,ジャパンナニー,0
42,1011003019769,新規,0,2024-08-02,2024-08-02,合同会社ケイ・システム,,合同会社,東京都,渋谷区,道玄坂１丁目１０番８号渋谷道玄坂東急ビル２Ｆ‐Ｃ,,13,113,1500043,,,,,,,2024-08-02,1,,,,,ケイシステム,0
46,1011101108184,新規,0,2024-08-02,2024-08-02,株式会社Ｘｔｒｅｍｅ,,株式会社,東京都,新宿区,西新宿３丁目３番１３号西新宿水間ビル２Ｆ,,13,104,1600023,,,,,,,2024-08-02,1,,,,,エクストリーム,0
48,1011205002614,新規,0,2024-08-02,2024-08-02,一般社団法人日本エビデンスベーストマーケティング研究機構,,その他の設立登記法人,東京都,中野区,東中野４丁目３０番９号,,13,114,1640003,,,,,,,2024-08-02,1,,,,,ニホンエビデンスベーストマーケティングケンキュウキコウ,0
51,1011301029890,新規,0,2024-08-02,2024-08-02,エンリッチーズ株式会社,,株式会社,東京都,杉並区,永福２丁目４４番１号,,13,115,1680064,,,,,,,2024-08-02,1,,,,,エンリッチーズ,0
53,1011401026318,新規,0,2024-08-02,2024-08-02,株式会社Ｃ．Ｂ,,株式会社,東京都,板橋区,桜川２丁目１番５号ＴＯＫＹＯβ上板橋１２－１０５,,13,119,1740075,,,,,,,2024-08-02,1,,,,,シービー,0
57,1011603004410,新規,0,2024-08-02,2024-08-02,合同会社青葉アシスト,,合同会社,東京都,練馬区,豊玉北４丁目２２番１号津久井コロニー４０１,,13,120,1760012,,,,,,,2024-08-02,1,,,,,アオバアシスト,0
58,1011701027503,新規,0,2024-08-02,2024-08-02,株式会社Ｓｅａ’Ｓｏｎｇ,,株式会社,東京都,江戸川区,西葛西２丁目１６番２４－４０３号,,13,123,1340088,,,,,,,2024-08-02,1,,,,,シーソング,0
59,1011701027511,新規,0,2024-08-02,2024-08-02,株式会社Ｍｅ＆Ｙｏｕ,,株式会社,東京都,江戸川区,中葛西３丁目３５番４号,,13,123,1340083,,,,,,,2024-08-02,1,,,,,ミーアンドユー,0
60,1011703003931,新規,0,2024-08-02,2024-08-02,合同会社ＭＦＤ,,合同会社,東京都,江戸川区,北小岩５丁目２０番１２号,,13,123,1330051,,,,,,,2024-08-02,1,,,,,エムエフディー,0
67,1012401042156,新規,0,2024-08-02,2024-08-02,株式会社Ｉｎｆｉｎｉｔｅ,,株式会社,東京都,府中市,美好町３丁目１２番地の１３,,13,206,1830045,,,,,,,2024-08-02,1,,,,,インフィニット,0
68,1012403006695,新規,0,2024-08-02,2024-08-02,合同会社倉田翔立税務会計事務所,,合同会社,東京都,三鷹市,中原２丁目２５番２０号,,13,204,1810005,,,,,,,2024-08-02,1,,,,,クラタショウタゼイムカイケイジムショ,0
69,1012405005027,新規,0,2024-08-02,2024-08-02,特定非営利活動法人日本文化芸術交流機構,,その他の設立登記法人,東京都,武蔵野市,吉祥寺南町１丁目４番１号井の頭ビル６Ｆ６０６号室,,13,203,1800003,,,,,,,2024-08-02,1,,,,,ニホンブンカゲイジュツコウリュウキコウ,0
70,1012801023367,新規,0,2024-08-02,2024-08-02,株式会社ＯＮＥＵＰ,,株式会社,東京都,武蔵村山市,大南３丁目１２６番地１号ディアコートＣ棟１０２号,,13,223,2080013,,,,,,,2024-08-02,1,,,,,ワンアップ,0
77,1020001158314,新規,0,2024-08-02,2024-08-02,株式会社ＭＩＫＡＩ　ＩＮＴＥＲＮＡＴＩＯＮＡＬ　ＴＲＡＤＩＮＧ,,株式会社,神奈川県,横浜市保土ケ谷区,天王町１丁目２２番地１２－２０４号,,14,106,2400003,,,,,,,2024-08-02,1,,,,,ミカイインターナショナルトレーディング,0
80,1021001082867,新規,0,2024-08-02,2024-08-02,株式会社ネクストアーツ,,株式会社,神奈川県,愛甲郡愛川町,春日台１丁目６番地の２,,14,401,2430302,,,,,,,2024-08-02,1,,,,,ネクストアーツ,0
81,1021001082883,新規,0,2024-08-02,2024-08-02,株式会社ｔａｒｉｍｉ,,株式会社,神奈川県,藤沢市,長後２６２７－２,,14,205,2520801,,,,,,,2024-08-02,1,,,,,タリミ,0
84,1021003014835,新規,0,2024-08-02,2024-08-02,合同会社エースセンチュリー,,合同会社,神奈川県,横須賀市,粟田２丁目２９番４号,,14,201,2390845,,,,,,,2024-08-02,1,,,,,エースセンチュリー,0
88,1030001161647,新規,0,2024-08-02,2024-08-02,心宅株式会社,,株式会社,埼玉県,川口市,並木２丁目３９番１－１４０１号レーベン川口並木ＶＥＲＴＥＡ,,11,203,3320034,,,,,,,2024-08-02,1,,,,,シンタク,0
89,1030001161705,新規,0,2024-08-02,2024-08-02,恒潤株式会社,,株式会社,埼玉県,朝霞市,本町１丁目１５－１４Ｔ＆Ｋビル３０４,,11,227,3510011,,,,,,,2024-08-02,1,,,,,コウジュン,0
90,1030001161746,新規,0,2024-08-02,2024-08-02,株式会社ｏｕｔｓｉｄｅ,,株式会社,埼玉県,さいたま市南区,大字大谷口２３０５番地１アドバンスＭ－１５－３０１号室,,11,108,3360042,,,,,,,2024-08-02,1,,,,,アウトサイド,0
91,1030001161770,新規,0,2024-08-02,2024-08-02,株式会社どかん,,株式会社,埼玉県,所沢市,くすのき台１丁目１３－２ガーデンシティ所沢２Ｆ,,11,208,3590037,,,,,,,2024-08-02,1,,,,,ドカン,0
92,1030001161804,新規,0,2024-08-02,2024-08-02,株式会社デル,,株式会社,埼玉県,さいたま市桜区,田島５丁目１４番５－２－３０７号,,11,106,3380837,,,,,,,2024-08-02,1,,,,,デル,0
94,1030003024819,新規,0,2024-08-02,2024-08-02,合同会社伽藍工作室,,合同会社,埼玉県,川口市,戸塚東４丁目２５番１４号ジュネスモール１０３号,,11,203,3330802,,,,,,,2024-08-02,1,,,,,ガランコウサクシツ,0
95,1030003024843,新規,0,2024-08-02,2024-08-02,鴻朝合同会社,,合同会社,埼玉県,飯能市,本町１９番２号ＫＩＶ－Ｗｅｌｆａｒｅ会館飯能８号室,,11,209,3570032,,,,,,,2024-08-02,1,,,,,ホンチョウ,0
96,1030005021789,新規,0,2024-08-02,2024-08-02,一般社団法人月と太陽の食卓,,その他の設立登記法人,埼玉県,加須市,戸川２２７番地３,,11,210,3470051,,,,,,,2024-08-02,1,,,,,ツキトタイヨウノショクタク,0
100,1040001134742,新規,0,2024-08-02,2024-08-02,株式会社ママドリ,,株式会社,千葉県,八千代市,緑が丘西２丁目１２番地２シティハウス八千代緑が丘１３１３,,12,221,2760040,,,,,,,2024-08-02,1,,,,,ママドリ,0
101,1040001134750,新規,0,2024-08-02,2024-08-02,株式会社Ｂｌｕｅ　Ａｒｒｏｗｓ,,株式会社,千葉県,千葉市中央区,弁天１丁目１５－３リードシー千葉駅前ビルＢ１Ｆ,,12,101,2600045,,,,,,,2024-08-02,1,,,,,ブルーアローズ,0
105,1040003025519,新規,0,2024-08-02,2024-08-02,グッドライフ合同会社,,合同会社,千葉県,千葉市若葉区,大宮町２４６３番地,,12,104,2640016,,,,,,,2024-08-02,1,,,,,グッドライフ,0
106,1040003025543,新規,0,2024-08-02,2024-08-02,合同会社ＮＡＹＵＴＡ,,合同会社,千葉県,浦安市,東野２丁目１５番２６号,,12,227,2790042,,,,,,,2024-08-02,1,,,,,ナユタ,0
112,1060001037357,新規,0,2024-08-02,2024-08-02,ひとくみ株式会社,,株式会社,栃木県,下野市,上古山２１４４－２,,09,216,3290501,,,,,,,2024-08-02,1,,,,,ヒトクミ,0
119,1070001042042,新規,0,2024-08-02,2024-08-02,株式会社ＩＫＥ産業,,株式会社,群馬県,館林市,東美園町７番地の１８,,10,207,3740031,,,,,,,2024-08-02,1,,,,,,0
120,1070001042050,新規,0,2024-08-02,2024-08-02,Ｎｉｒｖａｎａ　Ｃｏｒｐｏｒａｔｉｏｎ株式会社,,株式会社,群馬県,高崎市,八千代町４丁目１３番９号,,10,202,3700861,,,,,,,2024-08-02,1,,,,,ニルバナコーポレーション,0
123,1070003005526,新規,0,2024-08-02,2024-08-02,合同会社ＳＰＬＡＳＨ,,合同会社,群馬県,太田市,石橋町１０４３－４,,10,205,3730007,,,,,,,2024-08-02,1,,,,,,0
126,1080101024939,新規,0,2024-08-02,2024-08-02,株式会社山光,,株式会社,静岡県,熱海市,上多賀９６３－８,,22,205,4130101,,,,,,,2024-08-02,1,,,,,ヤマコウ,0
127,1080105006446,新規,0,2024-08-02,2024-08-02,一般社団法人沼津・駿河湾観光協会,,その他の設立登記法人,静岡県,沼津市,五月町５番１１号,,22,203,4100044,,,,,,,2024-08-02,1,,,,,ヌマヅスルガワンカンコウキョウカイ,0
128,1080401027352,新規,0,2024-08-02,2024-08-02,株式会社ゆかり圧送,,株式会社,静岡県,浜松市浜名区,中瀬２０２番地の１,,22,139,4340012,,,,,,,2024-08-02,1,,,,,ユカリアッソウ,0
129,1080405007656,新規,0,2024-08-02,2024-08-02,一般社団法人Ａｔｔｒａｃｔｉｖｅ,,その他の設立登記法人,静岡県,浜松市中央区,有玉台２丁目３１番３号,,22,138,4313126,,,,,,,2024-08-02,1,,,,,アトラクティブ,0
133,1090001018841,新規,0,2024-08-02,2024-08-02,荒輝株式会社,,株式会社,山梨県,富士吉田市,富士見１丁目３番１号,,19,202,4030009,,,,,,,2024-08-02,1,,,,,アラキ,0
134,1100001037690,新規,0,2024-08-02,2024-08-02,株式会社花岡機設,,株式会社,長野県,岡谷市,湖畔４丁目３番５１－８号,,20,204,3940034,,,,,,,2024-08-02,1,,,,,ハナオカキセツ,0
136,1100003007683,新規,0,2024-08-02,2024-08-02,ＭＡＲＵＭＡＲＵ合同会社,,合同会社,長野県,下高井郡野沢温泉村,大字豊郷９４３７番地２,,20,563,3892502,,,,,,,2024-08-02,1,,,,,マルマル,0
141,1110005017119,新規,0,2024-08-02,2024-08-02,一般社団法人ＫＳＷＣにいがた,,その他の設立登記法人,新潟県,加茂市,幸町１丁目１番１０号,,15,209,9591313,,,,,,,2024-08-02,1,,,,,ケーエスダブリューシーニイガタ,0
151,1120001267294,新規,0,2024-08-02,2024-08-02,株式会社ＭＡＧ,,株式会社,大阪府,大阪市北区,中崎３丁目４番２２－６０５号室,,27,127,5300016,,,,,,,2024-08-02,1,,,,,マグ,0
152,1120001267303,新規,0,2024-08-02,2024-08-02,株式会社Ｓｃｈｏｎ,,株式会社,大阪府,大阪市中央区,南久宝寺町４丁目６番９－６０３号,,27,128,5410058,,,,,,,2024-08-02,1,,,,,シューン,0
153,1120001267311,新規,0,2024-08-02,2024-08-02,株式会社レーニス１００１,,株式会社,大阪府,大阪市北区,東天満１丁目１０番１２号,,27,127,5300044,,,,,,,2024-08-02,1,,,,,レーニスイチマルマルイチ,0
154,1120001267336,新規,0,2024-08-02,2024-08-02,ＡＩ　Ａｇｅｎｃｙ株式会社,,株式会社,大阪府,大阪市北区,堂山町１番５号三共梅田ビル８Ｆ,,27,127,5300027,,,,,,,2024-08-02,1,,,,,エーアイエージェンシー,0
155,1120001267369,新規,0,2024-08-02,2024-08-02,株式会社ＳＴＡＲＴＫＥＹ,,株式会社,大阪府,大阪市北区,梅田１丁目１１番４号,,27,127,5300001,,,,,,,2024-08-02,1,,,,,スタートキー,0
156,1120001267402,新規,0,2024-08-02,2024-08-02,株式会社ＨＲハーモニー,,株式会社,大阪府,大阪市北区,梅田１丁目２番２号大阪駅前第２ビル１２－１２,,27,127,5300001,,,,,,,2024-08-02,1,,,,,エイチアールハーモニー,0
157,1120001267419,新規,0,2024-08-02,2024-08-02,木木株式会社,,株式会社,大阪府,大阪市港区,南市岡１丁目８番２２号内田文化２０１Ｄ,,27,107,5520011,,,,,,,2024-08-02,1,,,,,キキ,0
158,1120001267435,新規,0,2024-08-02,2024-08-02,白兎グラシア株式会社,,株式会社,大阪府,大阪市東淀川区,東中島１丁目２０番１２号ユニゾーン新大阪６０３,,27,114,5330033,,,,,,,2024-08-02,1,,,,,ハクトグラシア,0
164,1120003027168,新規,0,2024-08-02,2024-08-02,合同会社多田,,合同会社,大阪府,大阪市中央区,南本町４丁目５番７号東亜ビル６０６,,27,128,5410054,,,,,,,2024-08-02,1,,,,,タダ,0
165,1120003027184,新規,0,2024-08-02,2024-08-02,ＢＩＧ合同会社,,合同会社,大阪府,大阪市住吉区,我孫子２丁目１１番１３－３０３号,,27,120,5580014,,,,,,,2024-08-02,1,,,,,ビッグ,0
166,1120003027201,新規,0,2024-08-02,2024-08-02,ＳＴＡＲ合同会社,,合同会社,大阪府,大阪市住吉区,千躰１丁目４－３８－６０１,,27,120,5580047,,,,,,,2024-08-02,1,,,,,スター,0
173,1120101070086,新規,0,2024-08-02,2024-08-02,株式会社ＶＦグローバル,,株式会社,大阪府,岸和田市,稲葉町１７０９番地の１,,27,202,5960103,,,,,,,2024-08-02,1,,,,,ブイエフグローバル,0
174,1120101070094,新規,0,2024-08-02,2024-08-02,株式会社ＭＯＳＴＶＡ,,株式会社,大阪府,堺市西区,鳳中町５丁１８２番地２、２０２号,,27,144,5938327,,,,,,,2024-08-02,1,,,,,モストバ,0
175,1120101070111,新規,0,2024-08-02,2024-08-02,株式会社Ｒｅ’Ｄｅｎｔ,,株式会社,大阪府,堺市西区,上野芝町５丁６－３８－２,,27,144,5938301,,,,,,,2024-08-02,1,,,,,リデント,0
177,1120901049544,新規,0,2024-08-02,2024-08-02,Ｂｅｌｉｅｖｅ‐Ｘ株式会社,,株式会社,大阪府,吹田市,山田西３丁目５３番１号,,27,205,5650824,,,,,,,2024-08-02,1,,,,,ビリーブエックス,0
178,1122001038304,新規,0,2024-08-02,2024-08-02,株式会社ＳＥＶＥＮ　ＨＯＵＳＥ,,株式会社,大阪府,東大阪市,大蓮東５丁目２１番１０号,,27,227,5770824,,,,,,,2024-08-02,1,,,,,セブンハウス,0
179,1122001038337,新規,0,2024-08-02,2024-08-02,株式会社チェンジアップ,,株式会社,大阪府,東大阪市,川俣１丁目１４番２８号グランシアター高井田１００４号,,27,227,5770063,,,,,,,2024-08-02,1,,,,,チェンジアップ,0
180,1122005003774,新規,0,2024-08-02,2024-08-02,一般社団法人大阪スパインコンサルティング,,その他の設立登記法人,大阪府,大東市,赤井２丁目１８番１７号,,27,218,5740046,,,,,,,2024-08-02,1,,,,,オオサカスパインコンサルティング,0
185,1130001077552,新規,0,2024-08-02,2024-08-02,株式会社ノア,,株式会社,京都府,京都市右京区,嵯峨北堀町２０－１２－３－９,,26,108,6168367,,,,,,,2024-08-02,1,,,,,ノア,0
186,1130001077610,新規,0,2024-08-02,2024-08-02,株式会社成佳,,株式会社,京都府,京都市東山区,本町１丁目４１－５０５,,26,105,6050981,,,,,,,2024-08-02,1,,,,,ナリヨシ,0
187,1130001077627,新規,0,2024-08-02,2024-08-02,＿太集団日本株式会社,00135790,株式会社,京都府,京都市下京区,中堂寺北町３３番地４７－３０３号,,26,106,6008812,,,,,,,2024-08-02,1,,,,,パタイシュウダンニホン,0
193,1140001135292,新規,0,2024-08-02,2024-08-02,株式会社ＧＥＡＲ,,株式会社,兵庫県,姫路市,豊富町豊富２４０６番地８,,28,201,6792123,,,,,,,2024-08-02,1,,,,,ギア,0
194,1140001135318,新規,0,2024-08-02,2024-08-02,株式会社白季,,株式会社,兵庫県,神戸市中央区,琴ノ緒町５丁目３番５号グリーンシャポービル地下１階００１号室,,28,110,6510094,,,,,,,2024-08-02,1,,,,,シキ,0
195,1140001135326,新規,0,2024-08-02,2024-08-02,株式会社アルファｐｌｕｓ,,株式会社,兵庫県,神戸市東灘区,岡本３丁目５番１６号１・２階,,28,101,6580072,,,,,,,2024-08-02,1,,,,,アルファプラス,0
196,1140001135425,新規,0,2024-08-02,2024-08-02,ココロユタカ株式会社,,株式会社,兵庫県,尼崎市,西本町８丁目３４８－７オズレジデンス尼崎２０２,,28,202,6600874,,,,,,,2024-08-02,1,,,,,ココロユタカ,0
200,1140003020922,新規,0,2024-08-02,2024-08-02,合同会社エヌジェイケイ企画,,合同会社,兵庫県,神戸市中央区,磯辺通１丁目１番１８号カサベラ国際プラザビル７０７号室,,28,110,6510084,,,,,,,2024-08-02,1,,,,,エヌジェイケイキカク,0
202,1160001026119,新規,0,2024-08-02,2024-08-02,ＬＡＢトグル株式会社,,株式会社,滋賀県,近江八幡市,玉屋町７番地,,25,204,5230831,,,,,,,2024-08-02,1,,,,,エルエービートグル,0
204,1170001018239,新規,0,2024-08-02,2024-08-02,南紀オレンジレンタ株式会社,,株式会社,和歌山県,田辺市,上の山１丁目１２番１３号,,30,206,6460061,,,,,,,2024-08-02,1,,,,,ナンキオレンジレンタ,0
205,1170001018247,新規,0,2024-08-02,2024-08-02,株式会社ブルジュ・ハリファ,,株式会社,和歌山県,和歌山市,新在家１３８番地３,,30,201,6408345,,,,,,,2024-08-02,1,,,,,ブルジュハリファ,0
210,1180001162580,新規,0,2024-08-02,2024-08-02,株式会社悠ケア,,株式会社,愛知県,春日井市,勝川町８丁目３番地２２,,23,206,4860945,,,,,,,2024-08-02,1,,,,,ユウケア,0
211,1180001162655,新規,0,2024-08-02,2024-08-02,株式会社オーガスタ,,株式会社,愛知県,名古屋市中区,丸の内３丁目９番６号ル・シェモア久屋大通公園６０４,,23,106,4600002,,,,,,,2024-08-02,1,,,,,オーガスタ,0
212,1180001162688,新規,0,2024-08-02,2024-08-02,株式会社天,,株式会社,愛知県,名古屋市熱田区,金山町２丁目２番１６号,,23,109,4560002,,,,,,,2024-08-02,1,,,,,テン,0
216,1180003027121,新規,0,2024-08-02,2024-08-02,カイン合同会社,,合同会社,愛知県,東海市,荒尾町下油田３４番地の１,,23,222,4760003,,,,,,,2024-08-02,1,,,,,カイン,0
217,1180003027146,新規,0,2024-08-02,2024-08-02,合同会社ＷｅｂＴｅｃｈ,,合同会社,愛知県,一宮市,木曽川町玉ノ井字俣江田１９番地,,23,203,4930004,,,,,,,2024-08-02,1,,,,,ウェブテック,0
218,1180003027154,新規,0,2024-08-02,2024-08-02,合同会社ＳＥＬＶＩＳＩＯＮ,,合同会社,愛知県,名古屋市中区,千代田２丁目１０番７号－２０７号,,23,106,4600012,,,,,,,2024-08-02,1,,,,,セルビジョン,0
219,1180003027162,新規,0,2024-08-02,2024-08-02,合同会社ミクテクノロジー,,合同会社,愛知県,東海市,名和町寝覚２１６番地ユーハウス名和東（８０５号）,,23,222,4760002,,,,,,,2024-08-02,1,,,,,ミクテクノロジー,0
227,1220001026129,新規,0,2024-08-02,2024-08-02,株式会社ＷＡＪＯＹ,,株式会社,石川県,金沢市,彦三町１丁目２‐１,,17,201,9200901,,,,,,,2024-08-02,1,,,,,ワジョイ,0
228,1220001026137,新規,0,2024-08-02,2024-08-02,株式会社ラポール,,株式会社,石川県,金沢市,示野町ニ６１番地１,,17,201,9200059,,,,,,,2024-08-02,1,,,,,ラポール,0
231,1230003002267,新規,0,2024-08-02,2024-08-02,合同会社春一番,,合同会社,富山県,富山市,新庄北町１９番１７‐１０２号,,16,201,9300997,,,,,,,2024-08-02,1,,,,,ハルイチバン,0
232,1230005009401,新規,0,2024-08-02,2024-08-02,一般社団法人富山県政官民教育協力機構,,その他の設立登記法人,富山県,富山市,中田１丁目２番３５号,,16,201,9318453,,,,,,,2024-08-02,1,,,,,トヤマケンセイカンミンキョウイクキョウリョクキコウ,0
234,1240001063632,新規,0,2024-08-02,2024-08-02,株式会社ｒａｄｉａｎｃｅ,,株式会社,広島県,広島市中区,流川町４番１４号１階,,34,101,7300028,,,,,,,2024-08-02,1,,,,,ラディアンス,0
236,1250001020748,新規,0,2024-08-02,2024-08-02,株式会社Ｍｅｔａ　Ｙａｍａｇｕｃｈｉ,,株式会社,山口県,山口市,宮島町５番１３号,,35,203,7530043,,,,,,,2024-08-02,1,,,,,メタヤマグチ,0
238,1250003003544,新規,0,2024-08-02,2024-08-02,合同会社リプロ,,合同会社,山口県,周南市,新町２丁目２６番地,,35,215,7450017,,,,,,,2024-08-02,1,,,,,リプロ,0
241,1260001039333,新規,0,2024-08-02,2024-08-02,株式会社ＭＯＲＩＹＡ鉢木,,株式会社,岡山県,倉敷市,船穂町船穂２６５６番地１アトリエ・リゾート２１－２０３号,,33,202,7100261,,,,,,,2024-08-02,1,,,,,,0
243,1260003004839,新規,0,2024-08-02,2024-08-02,合同会社ふく,,合同会社,岡山県,岡山市北区,西古松２丁目２６番２２号,,33,101,7000927,,,,,,,2024-08-02,1,,,,,フク,0
256,1290005019477,新規,0,2024-08-02,2024-08-02,一般社団法人ＪＯＨＮ,,その他の設立登記法人,福岡県,福岡市城南区,樋井川３丁目５番１１号,,40,136,8140153,,,,,,,2024-08-02,1,,,,,ジョン,0
265,1320001020633,新規,0,2024-08-02,2024-08-02,株式会社ゆとり不動産,,株式会社,大分県,大分市,新川町１丁目１１番１５号,,44,201,8700016,,,,,,,2024-08-02,1,,,,,ユトリフドウサン,0
266,1320001020641,新規,0,2024-08-02,2024-08-02,月の和不動産株式会社,,株式会社,大分県,大分市,東春日町７番１３号,,44,201,8700037,,,,,,,2024-08-02,1,,,,,ツキノワフドウサン,0
272,1360001034002,新規,0,2024-08-02,2024-08-02,株式会社ＥＮＩＳＨＩ,,株式会社,沖縄県,うるま市,字赤道１７４番地５・２Ｆ,,47,213,9042245,,,,,,,2024-08-02,1,,,,,エニシ,0
275,1370001051566,新規,0,2024-08-02,2024-08-02,Ｔ３Ｂｅａｕｔｙ株式会社,,株式会社,宮城県,仙台市宮城野区,榴岡４丁目１番８号,,04,102,9830852,,,,,,,2024-08-02,1,,,,,ティースリービューティー,0
276,1400003003306,新規,0,2024-08-02,2024-08-02,小原商事合同会社,,合同会社,岩手県,北上市,和賀町岩崎１５地割２３番地,,03,206,0240321,,,,,,,2024-08-02,1,,,,,オバラショウジ,0
277,1420003002966,新規,0,2024-08-02,2024-08-02,仙珠合同会社,,合同会社,青森県,三沢市,大字三沢字前平６２番地８号プチ・ソレイユＡ,,02,207,0330022,,,,,,,2024-08-02,1,,,,,センジュ,0
280,1430003016643,新規,0,2024-08-02,2024-08-02,レンファ合同会社,,合同会社,北海道,千歳市,北斗２丁目１４番２０号,,01,224,0660073,,,,,,,2024-08-02,1,,,,,レンファ,0
281,1440001009474,新規,0,2024-08-02,2024-08-02,株式会社とりさんのめぐみ,,株式会社,北海道,亀田郡七飯町,鳴川４丁目３番８号,,01,337,0411112,,,,,,,2024-08-02,1,,,,,トリサンノメグミ,0
288,1500001025779,新規,0,2024-08-02,2024-08-02,株式会社Ｐｅｒ　ｔｅ,,株式会社,愛媛県,宇和島市,吉田町白浦１５２９番地１,,38,203,7993741,,,,,,,2024-08-02,1,,,,,ペルテ,0
290,1700150126639,新規,0,2024-08-02,2024-08-02,Ａｚａｂｕ　Ｍａｎａｇｅｍｅｎｔ　Ｈｏｌｄｉｎｇｓ　Ｌｉｍｉｔｅｄ,,外国会社等,,,,,,,,Ｗｉｃｋｈａｍｓ　Ｃａｙ　ＩＩ，Ｒｏａｄ　Ｔｏｗｎ，Ｔｏｒｔｏｌａ，ＶＧ１１１０，Ｂｒｉｔｉｓｈ　Ｖｉｒｇｉｎ　Ｉｓｌａｎｄｓ,00135713,,,,,2024-08-02,1,,,,,アザブマネージメントホールデイングスリミテツド,0
291,1700150126647,新規,0,2024-08-02,2024-08-02,ＪＡＩ　Ｉｎｃ．,,外国会社等,,,,,,,,６８００　Ｓａｎｔａ　Ｔｅｒｅｓａ　Ｂｌｖｄ，Ｓｔｅ　１７５　Ｓａｎ　Ｊｏｓｅ，ＣＡ　９５１４８，ＵＳＡ,,,,,,2024-08-02,1,,,,,ジエイエイアイインク,0
311,2010401184125,新規,0,2024-08-02,2024-08-02,株式会社ＭＳＫ,,株式会社,東京都,港区,西新橋１丁目２２番４号ＳｐａｃｅＲ３Ｆ,,13,103,1050003,,,,,,,2024-08-02,1,,,,,エムエスケー,0
314,2010501052693,新規,0,2024-08-02,2024-08-02,株式会社ＡＣＡＬＡ,,株式会社,東京都,台東区,根岸２丁目１５番１号,,13,106,1100003,,,,,,,2024-08-02,1,,,,,アカラ,0
315,2010501052702,新規,0,2024-08-02,2024-08-02,株式会社ＴＢＴ,,株式会社,東京都,台東区,清川１丁目３１番７－６０２号デラモット浅草エスト,,13,106,1110022,,,,,,,2024-08-02,1,,,,,ティービィティ,0
316,2010503007539,新規,0,2024-08-02,2024-08-02,サイエンスＥＣ合同会社,,合同会社,東京都,台東区,上野３丁目１６番２号天翔オフィス上野末広町５Ｆ,,13,106,1100005,,,,,,,2024-08-02,1,,,,,サイエンスイーシー,0
320,2010601065686,新規,0,2024-08-02,2024-08-02,株式会社エスカリンク,,株式会社,東京都,墨田区,東向島４丁目４３番６号,,13,107,1310032,,,,,,,2024-08-02,1,,,,,エスカリンク,0
321,2010701046355,新規,0,2024-08-02,2024-08-02,株式会社ＷｉＮ,,株式会社,東京都,品川区,西五反田５丁目２４番３号,,13,109,1410031,,,,,,,2024-08-02,1,,,,,ウィン,0
325,2010803005044,新規,0,2024-08-02,2024-08-02,ＬＥＸＩＮ　ＪＡＰＡＮ合同会社,,合同会社,東京都,大田区,仲六郷２丁目４１番８号,,13,111,1440055,,,,,,,2024-08-02,1,,,,,レシンジャパン,0
327,2010901055742,新規,0,2024-08-02,2024-08-02,ワイエス・コンサルティング株式会社,,株式会社,東京都,世田谷区,弦巻１丁目３５番５号,,13,112,1540016,,,,,,,2024-08-02,1,,,,,ワイエスコンサルティング,0
330,2011101108167,新規,0,2024-08-02,2024-08-02,和風新月株式会社,,株式会社,東京都,新宿区,高田馬場１丁目３１番８－１１２０号高田馬場ダイカンプラザ,,13,104,1690075,,,,,,,2024-08-02,1,,,,,ワフウシンゲツ,0
331,2011101108183,新規,0,2024-08-02,2024-08-02,株式会社Ｊ　Ａｓｐｉｒｅ,,株式会社,東京都,新宿区,新宿１丁目３１番５－８０３号,,13,104,1600022,,,,,,,2024-08-02,1,,,,,ジェイアスパイア,0
332,2011101108191,新規,0,2024-08-02,2024-08-02,陽和テクノロジー株式会社,,株式会社,東京都,新宿区,山吹町１３０－５,,13,104,1620801,,,,,,,2024-08-02,1,,,,,ヨウワテクノロジー,0
336,2011103014735,新規,0,2024-08-02,2024-08-02,合同会社Ｆｅｅｌ　Ｇｏｏｄ　Ｃｏｎｓｕｌｔｉｎｇ,,合同会社,東京都,新宿区,市谷加賀町２丁目５番２２－２０２号,,13,104,1620062,,,,,,,2024-08-02,1,,,,,フィールグッドコンサルティング,0
337,2011103014768,新規,0,2024-08-02,2024-08-02,合同会社はりとて,,合同会社,東京都,新宿区,北新宿１丁目８番２１号鴨石ビル,,13,104,1690074,,,,,,,2024-08-02,1,,,,,ハリトテ,0
340,2011201025691,新規,0,2024-08-02,2024-08-02,ｓｉｎａｐｓｅ株式会社,,株式会社,東京都,中野区,中央１丁目１２番７号,,13,114,1640011,,,,,,,2024-08-02,1,,,,,シナプス,0
341,2011205002613,新規,0,2024-08-02,2024-08-02,一般社団法人いきいきライフ協会中野,,その他の設立登記法人,東京都,中野区,中野４丁目１０番２号中野セントラルパークサウス２階,,13,114,1640001,,,,,,,2024-08-02,1,,,,,イキイキライフキョウカイナカノ,0
348,2011601027932,新規,0,2024-08-02,2024-08-02,Ｒ１ＳＥ　ＯＮＥ株式会社,,株式会社,東京都,練馬区,西大泉４丁目９－１４レオネクストプラシード２０１,,13,120,1780065,,,,,,,2024-08-02,1,,,,,ライズワン,0
351,2011803006370,新規,0,2024-08-02,2024-08-02,龍海合同会社,,合同会社,東京都,葛飾区,堀切７丁目２７番７号名橋ビル３０５号室,,13,122,1240006,,,,,,,2024-08-02,1,,,,,リュウカイ,0
353,2012301014023,新規,0,2024-08-02,2024-08-02,株式会社専ら,,株式会社,東京都,町田市,中町１丁目４番２号,,13,209,1940021,,,,,,,2024-08-02,1,,,,,モッパラ,0
354,2012401042155,新規,0,2024-08-02,2024-08-02,株式会社ミタカツアー,,株式会社,東京都,三鷹市,下連雀３丁目８番１５号,,13,204,1810013,,,,,,,2024-08-02,1,,,,,ミタカツアー,0
356,2012405005026,新規,0,2024-08-02,2024-08-02,一般社団法人パンテオン王立名誉守護委員会日本支部,,その他の設立登記法人,東京都,武蔵野市,御殿山１丁目１１番１２－４４１号吉祥寺御殿山ＨＯＵＳＥ,,13,203,1800005,,,,,,,2024-08-02,1,,,,,パンテオンオウリツメイヨシュゴイインカイニホンシブ,0
361,2020001158263,新規,0,2024-08-02,2024-08-02,株式会社ウィルグループホールディングス,,株式会社,神奈川県,横浜市都筑区,北山田３丁目１２番１３号アルテミス１階,,14,118,2240021,,,,,,,2024-08-02,1,,,,,ウィルグループホールディングス,0
362,2020001158313,新規,0,2024-08-02,2024-08-02,株式会社Ｌｉｅｎ,,株式会社,神奈川県,横浜市青葉区,美しが丘５丁目３４－２－３０９,,14,117,2250002,,,,,,,2024-08-02,1,,,,,リアン,0
363,2020001158503,新規,0,2024-08-02,2024-08-02,Ｌｉｂｅｒｔｙ　Ｆｏｒｃｅ株式会社,,株式会社,神奈川県,横浜市西区,戸部町５丁目１８０番地１,,14,103,2200042,,,,,,,2024-08-02,1,,,,,リバティーフォース,0
370,2021001082890,新規,0,2024-08-02,2024-08-02,Ａｒｉａ　Ｒｉｋａ株式会社,,株式会社,神奈川県,足柄下郡真鶴町,真鶴４５１番１０号シェアオフィス月光堂,,14,383,2590201,,,,,,,2024-08-02,1,,,,,アリアリカ,0
376,2030001161662,新規,0,2024-08-02,2024-08-02,株式会社五色の雲,,株式会社,埼玉県,川越市,新宿町１丁目１５番地５,,11,201,3501124,,,,,,,2024-08-02,1,,,,,ゴシキノクモ,0
377,2030001161679,新規,0,2024-08-02,2024-08-02,株式会社シライシ工務店,,株式会社,埼玉県,川越市,大字下松原４９１番地３,,11,201,3501153,,,,,,,2024-08-02,1,,,,,シライシコウムテン,0
378,2030001161687,新規,0,2024-08-02,2024-08-02,株式会社ＢＥ　ＭＡＲＫＳ,,株式会社,埼玉県,さいたま市中央区,上落合５丁目１１－１６,,11,105,3380001,,,,,,,2024-08-02,1,,,,,ビーマークス,0
379,2030001161695,新規,0,2024-08-02,2024-08-02,株式会社ｃｏｃｏ‐ｂｉｚ,,株式会社,埼玉県,所沢市,くすのき台１丁目１３番２号,,11,208,3590037,,,,,,,2024-08-02,1,,,,,ココビズ,0
380,2030001161737,新規,0,2024-08-02,2024-08-02,株式会社ＨＺＱ,,株式会社,埼玉県,越谷市,蒲生西町１丁目２番１５号,,11,222,3430835,,,,,,,2024-08-02,1,,,,,エイチゼットキュー,0
381,2030003024850,新規,0,2024-08-02,2024-08-02,永盛合同会社,,合同会社,埼玉県,川口市,大字小谷場４８８－２１,,11,203,3330857,,,,,,,2024-08-02,1,,,,,エイセイ,0
385,2040001134816,新規,0,2024-08-02,2024-08-02,株式会社タイガー・ウィングズ,,株式会社,千葉県,印西市,東の原３丁目１番地８３,,12,231,2701336,,,,,,,2024-08-02,1,,,,,タイガーウィングズ,0
391,2040003025534,新規,0,2024-08-02,2024-08-02,コンテンツア合同会社,,合同会社,千葉県,船橋市,湊町２丁目１５番１５－２０１号,,12,204,2730011,,,,,,,2024-08-02,1,,,,,コンテンツア,0
395,2050003008562,新規,0,2024-08-02,2024-08-02,合同会社ＩＫＮＥＴ,,合同会社,茨城県,鹿嶋市,大字志崎１１３番地７,,08,222,3112207,,,,,,,2024-08-02,1,,,,,アイケーエヌイーティ,0
398,2060001037331,新規,0,2024-08-02,2024-08-02,沢口運輸株式会社,,株式会社,栃木県,足利市,大前町１１３２番地１,,09,202,3260845,,,,,,,2024-08-02,1,,,,,サワグチウンユ,0
399,2060001037356,新規,0,2024-08-02,2024-08-02,Ａ‐ＴＥＣ株式会社,,株式会社,栃木県,下都賀郡壬生町,落合１丁目２３番１５号,,09,361,3210218,,,,,,,2024-08-02,1,,,,,エイテック,0
400,2060003005179,新規,0,2024-08-02,2024-08-02,合同会社ドリームカンパニー,,合同会社,栃木県,宇都宮市,東峰町３４４１番地６２,,09,201,3210944,,,,,,,2024-08-02,1,,,,,ドリームカンパニー,0
405,2070001042041,新規,0,2024-08-02,2024-08-02,株式会社ＫＤ自動車,,株式会社,群馬県,沼田市,利根町追貝１０７８番地１,,10,206,3780303,,,,,,,2024-08-02,1,,,,,ケイディージドウシャ,0
408,2080005007634,新規,0,2024-08-02,2024-08-02,税理士法人はまかぜ,,その他の設立登記法人,静岡県,静岡市駿河区,池田１９４１番地の１１,,22,102,4228005,,,,,,,2024-08-02,1,,,,,ハマカゼ,0
410,2080101024938,新規,0,2024-08-02,2024-08-02,株式会社吉田塗装,,株式会社,静岡県,沼津市,蛇松町１８９３－１２,,22,203,4100842,,,,,,,2024-08-02,1,,,,,ヨシダトソウ,0
411,2080403005066,新規,0,2024-08-02,2024-08-02,合同会社ポラリス,,合同会社,静岡県,浜松市中央区,松島町４９４番地の２,,22,138,4300834,,,,,,,2024-08-02,1,,,,,ポラリス,0
414,2090001018840,新規,0,2024-08-02,2024-08-02,株式会社Ｅｘｃｏｌｏｖｉｔａ,,株式会社,山梨県,中央市,山之神３６２４番地７野中産恵ビル２－Ａ,,19,214,4093845,,,,,,,2024-08-02,1,,,,,エクスコロビタ,0
416,2090003002611,新規,0,2024-08-02,2024-08-02,Ｐ‐Ｂａ‐Ｖ合同会社,,合同会社,山梨県,笛吹市,春日居町鎮目６６１番地５,,19,211,4060015,,,,,,,2024-08-02,1,,,,,ピーバービー,0
432,2120001267269,新規,0,2024-08-02,2024-08-02,株式会社倉,,株式会社,大阪府,大阪市西区,南堀江３丁目１０番８－２０１号,,27,106,5500015,,,,,,,2024-08-02,1,,,,,クラ,0
433,2120001267302,新規,0,2024-08-02,2024-08-02,株式会社ＡＳＭＩＬＥ,,株式会社,大阪府,大阪市城東区,成育２丁目４番１４号,,27,118,5360007,,,,,,,2024-08-02,1,,,,,アスミル,0
434,2120001267310,新規,0,2024-08-02,2024-08-02,株式会社ＧＨＴ,,株式会社,大阪府,大阪市北区,梅田１丁目２番２号大阪駅前第２ビル１２－１２,,27,127,5300001,,,,,,,2024-08-02,1,,,,,ジーエイチティー,0
435,2120001267384,新規,0,2024-08-02,2024-08-02,ミライビルド株式会社,,株式会社,大阪府,大阪市淀川区,野中北１丁目１番６９号,,27,123,5320034,,,,,,,2024-08-02,1,,,,,ミライビルド,0
436,2120001267418,新規,0,2024-08-02,2024-08-02,株式会社８６８,,株式会社,大阪府,大阪市生野区,鶴橋２丁目１６番１５号,,27,116,5440031,,,,,,,2024-08-02,1,,,,,ハチロクハチ,0
437,2120001267434,新規,0,2024-08-02,2024-08-02,株式会社デルタ,,株式会社,大阪府,大阪市天王寺区,上本町５丁目４番１１－５０８号,,27,109,5430001,,,,,,,2024-08-02,1,,,,,デルタ,0
438,2120001267450,新規,0,2024-08-02,2024-08-02,ｍｋｎマネジメント株式会社,,株式会社,大阪府,大阪市北区,天満２丁目１２番３号ヴィレッジリバー南森町３Ｆ,,27,127,5300043,,,,,,,2024-08-02,1,,,,,エムケーエヌマネジメント,0
445,2120003027209,新規,0,2024-08-02,2024-08-02,合同会社堀江ブースト,,合同会社,大阪府,大阪市中央区,南船場４丁目１０番５号南船場ＳＯＨＯビル７０２号,,27,128,5420081,,,,,,,2024-08-02,1,,,,,ホリエブースト,0
449,2120101070085,新規,0,2024-08-02,2024-08-02,株式会社いろは造園土木,,株式会社,大阪府,高石市,取石３丁目９番５１号,,27,225,5920013,,,,,,,2024-08-02,1,,,,,イロハゾウエンドボク,0
451,2122001038311,新規,0,2024-08-02,2024-08-02,株式会社Ｆ‐ＣＲＡＦＴ,,株式会社,大阪府,八尾市,沼４丁目１１番地,,27,212,5810036,,,,,,,2024-08-02,1,,,,,エフクラフト,0
452,2122001038336,新規,0,2024-08-02,2024-08-02,ピンポイント・カー株式会社,,株式会社,大阪府,東大阪市,足代北２丁目７番２－１３０４号,,27,227,5770058,,,,,,,2024-08-02,1,,,,,ピンポイントカー,0
453,2130001077584,新規,0,2024-08-02,2024-08-02,株式会社ＭＫＲ‐Ｂ,,株式会社,京都府,亀岡市,南つつじケ丘大葉台２丁目１５－７,,26,206,6210846,,,,,,,2024-08-02,1,,,,,エムケーアールビー,0
454,2130001077618,新規,0,2024-08-02,2024-08-02,株式会社Ｍａｒｃｈ,,株式会社,京都府,京都市伏見区,醍醐大構町７番地ディークラディア醍醐駅前７１７,,26,109,6011366,,,,,,,2024-08-02,1,,,,,マーチ,0
461,2140001135325,新規,0,2024-08-02,2024-08-02,株式会社Ｌｉｅｎ,,株式会社,兵庫県,姫路市,別所町北宿８３０番地２２,,28,201,6710223,,,,,,,2024-08-02,1,,,,,リアン,0
462,2140001135333,新規,0,2024-08-02,2024-08-02,Ｙ’ｓステージ株式会社,,株式会社,兵庫県,神戸市灘区,大内通１丁目５番７－２０５号,,28,102,6570833,,,,,,,2024-08-02,1,,,,,ワイズステージ,0
463,2140001135358,新規,0,2024-08-02,2024-08-02,ＹＭＣ株式会社,,株式会社,兵庫県,加古川市,平岡町新在家２丁目２７７番地の８,,28,210,6750101,,,,,,,2024-08-02,1,,,,,ワイエムシー,0
464,2140001135374,新規,0,2024-08-02,2024-08-02,株式会社カーケミカルサポート,,株式会社,兵庫県,尼崎市,杭瀬南新町４丁目４番８－２１２号,,28,202,6600822,,,,,,,2024-08-02,1,,,,,カーケミカルサポート,0
465,2140001135416,新規,0,2024-08-02,2024-08-02,株式会社モリモーター,,株式会社,兵庫県,西宮市,上甲子園５丁目６番１４号,,28,204,6638114,,,,,,,2024-08-02,1,,,,,モリモーター,0
468,2150001027471,新規,0,2024-08-02,2024-08-02,ＴｅａｍＣｒｅａｔｉｖｅ株式会社,,株式会社,奈良県,北葛城郡王寺町,王寺２丁目６－１２服部ビル１Ｆ,,29,425,6360002,,,,,,,2024-08-02,1,,,,,チームクリエイティブ,0
471,2170005007096,新規,0,2024-08-02,2024-08-02,医療法人優真会,,その他の設立登記法人,和歌山県,和歌山市,次郎丸１６７番地の２,,30,201,6408444,,,,,,,2024-08-02,1,,,,,ユウシンカイ,0
482,2180001162514,新規,0,2024-08-02,2024-08-02,コネクトワールド株式会社,,株式会社,愛知県,名古屋市中区,千代田４丁目９番３号リアライズ鶴舞南ＩＩ２０１号室,00135775,23,106,4600012,,,,,,,2024-08-02,1,,,,,コネクトワールド,0
483,2180001162613,新規,0,2024-08-02,2024-08-02,Ｂｕｚｚプラント設計株式会社,,株式会社,愛知県,稲沢市,増田南町１０８番地１,,23,220,4928427,,,,,,,2024-08-02,1,,,,,バズプラントセッケイ,0
484,2180001162621,新規,0,2024-08-02,2024-08-02,株式会社池上山,,株式会社,愛知県,名古屋市東区,白壁３丁目２７番１５号１階,,23,102,4610011,,,,,,,2024-08-02,1,,,,,イケガミヤマ,0
485,2180001162654,新規,0,2024-08-02,2024-08-02,株式会社Ｃｏｌｏｎ,,株式会社,愛知県,名古屋市東区,葵２丁目３番１５号,,23,102,4610004,,,,,,,2024-08-02,1,,,,,コロン,0
486,2180001162662,新規,0,2024-08-02,2024-08-02,株式会社古山建築,,株式会社,愛知県,名古屋市守山区,八剣２丁目１９０３番地,,23,113,4630022,,,,,,,2024-08-02,1,,,,,フルヤマケンチク,0
487,2180001162695,新規,0,2024-08-02,2024-08-02,西日本ソーシング株式会社,,株式会社,愛知県,名古屋市中村区,名駅南２丁目７番８号ナゴヤザタワー５０２号,,23,105,4500003,,,,,,,2024-08-02,1,,,,,ニシニホンソーシング,0
494,2180003027153,新規,0,2024-08-02,2024-08-02,表参道ＲＥＰＰ７合同会社,,合同会社,愛知県,春日井市,岩成台７丁目１０番地８,,23,206,4870033,,,,,,,2024-08-02,1,,,,,オモテサンドウアールイーピーピーセブン,0
499,2190001031536,新規,0,2024-08-02,2024-08-02,ＡＢＤＵＬＬＡＨ　ＩＮＴＥＲＮＡＴＩＯＮＡＬ株式会社,,株式会社,三重県,桑名市,多度町力尾１０７３番地１,,24,205,5110125,,,,,,,2024-08-02,1,,,,,アブドゥラインターナショナル,0
500,2190001031544,新規,0,2024-08-02,2024-08-02,株式会社Ｒｉｏｎグループ,,株式会社,三重県,松阪市,愛宕町１丁目２５番地１フェイスビル愛宕町１３－３,00135792,24,204,5150037,,,,,,,2024-08-02,1,,,,,リオングループ,0
502,2220001026128,新規,0,2024-08-02,2024-08-02,株式会社こばやし電工設備,,株式会社,石川県,七尾市,光陽台３４番地１３,,17,202,9260177,,,,,,,2024-08-02,1,,,,,コバヤシデンコウセツビ,0
507,2250001020755,新規,0,2024-08-02,2024-08-02,株式会社周防製作所,,株式会社,山口県,下松市,大字末武上５０７番地１１,,35,207,7440024,,,,,,,2024-08-02,1,,,,,スオウセイサクショ,0
509,2250003003551,新規,0,2024-08-02,2024-08-02,合同会社ルミネール,,合同会社,山口県,周南市,新清光台２丁目７番３号,,35,215,7450643,,,,,,,2024-08-02,1,,,,,ルミネール,0
513,2260001039324,新規,0,2024-08-02,2024-08-02,株式会社ＴＭＣクレセント,,株式会社,岡山県,瀬戸内市,邑久町山田庄２００番地１,,33,212,7014246,,,,,,,2024-08-02,1,,,,,ティーエムシークレセント,0
517,2260005011394,新規,0,2024-08-02,2024-08-02,医療法人社団新幣清和会,,その他の設立登記法人,岡山県,倉敷市,西中新田２０番地１,,33,202,7100833,,,,,,,2024-08-02,1,,,,,シンヘイセイワカイ,0
519,2280003001874,新規,0,2024-08-02,2024-08-02,合同会社黄昏企画,,合同会社,島根県,松江市,国屋町５９２番地３レークマンション６０５号室,,32,201,6900859,,,,,,,2024-08-02,1,,,,,タソガレキカク,0
527,2310001019139,新規,0,2024-08-02,2024-08-02,株式会社あいずケアレントパートナーズ,,株式会社,長崎県,佐世保市,山県町６番３号,,42,202,8570878,,,,,,,2024-08-02,1,,,,,アイズケアレントパートナーズ,0
529,2330001032313,新規,0,2024-08-02,2024-08-02,株式会社プリマ,,株式会社,熊本県,合志市,幾久富１９０９－２４７武蔵野台ハイツ１０２,,43,216,8611112,,,,,,,2024-08-02,1,,,,,プリマ,0
530,2330003010507,新規,0,2024-08-02,2024-08-02,合同会社ｋｉｔｏ,,合同会社,熊本県,熊本市中央区,琴平２丁目４番１０号,,43,101,8600813,,,,,,,2024-08-02,1,,,,,キト,0
531,2340001026677,新規,0,2024-08-02,2024-08-02,久居カンパニー株式会社,,株式会社,鹿児島県,奄美市,笠利町和野４７４,,46,222,8940000,,,,,,,2024-08-02,1,,,,,ヒサイカンパニー,0
534,2350003004721,新規,0,2024-08-02,2024-08-02,合同会社太陽の里,,合同会社,宮崎県,延岡市,出北４丁目２４３７番地,,45,203,8820856,,,,,,,2024-08-02,1,,,,,タイヨウノサト,0
535,2360001034026,新規,0,2024-08-02,2024-08-02,株式会社ビューティアカデミー,,株式会社,沖縄県,那覇市,首里山川町１丁目６８番地４階,,47,201,9030825,,,,,,,2024-08-02,1,,,,,ビューティアカデミー,0
538,2370001051581,新規,0,2024-08-02,2024-08-02,株式会社ＡｒｉＺ,,株式会社,宮城県,仙台市太白区,東郡山２丁目１２番２７号,,04,104,9820006,,,,,,,2024-08-02,1,,,,,アリーズ,0
539,2370003006708,新規,0,2024-08-02,2024-08-02,合同会社ＩＲＨＡＭ　ＩＮＴＥＲＮＡＴＩＯＮＡＬ,,合同会社,宮城県,黒川郡大郷町,大松沢字東宮６番地,,04,422,9813501,,,,,,,2024-08-02,1,,,,,イルハムインターナショナル,0
545,2410001013899,新規,0,2024-08-02,2024-08-02,株式会社ＴＯ‐Ｓ,,株式会社,秋田県,能代市,元町１０番１号２Ｆ,,05,202,0160831,,,,,,,2024-08-02,1,,,,,ティーオーエス,0
547,2430001092355,新規,0,2024-08-02,2024-08-02,株式会社ずっとみんなの森,,株式会社,北海道,札幌市北区,北三十五条西８丁目１番２５号,,01,102,0010035,,,,,,,2024-08-02,1,,,,,ズットミンナノモリ,0
552,2470003002688,新規,0,2024-08-02,2024-08-02,合同会社ＶＯＩＣＥ,,合同会社,香川県,高松市,川島東町５６２番地３,,37,201,7610443,,,,,,,2024-08-02,1,,,,,ヴォイス,0
558,2700150126646,新規,0,2024-08-02,2024-08-02,建陞投資股分有限公司,,外国会社等,,,,,,,,台湾台北市中正区博愛路７６号８階,,,,,,2024-08-02,1,,,,,ケンシヨウトウシコフンユウゲンコウシ,0
564,3010001247058,新規,0,2024-08-02,2024-08-02,株式会社エイト,,株式会社,東京都,中央区,八丁堀３丁目１７番１３号,,13,102,1040032,,,,,,,2024-08-02,1,,,,,エイト,0
565,3010001247099,新規,0,2024-08-02,2024-08-02,株式会社メスメルハーツ,,株式会社,東京都,千代田区,神田和泉町１番６－１６ヤマトビル４０５,,13,101,1010024,,,,,,,2024-08-02,1,,,,,メスメルハーツ,0
566,3010001247124,新規,0,2024-08-02,2024-08-02,株式会社セイミー,,株式会社,東京都,千代田区,神田神保町２丁目３２番地金子ビル２０６,,13,101,1010051,,,,,,,2024-08-02,1,,,,,セイミー,0
567,3010001247149,新規,0,2024-08-02,2024-08-02,Ｇａｔｈｅｒ株式会社,,株式会社,東京都,中央区,日本橋室町１丁目１１番１２号日本橋水野ビル７階,,13,102,1030022,,,,,,,2024-08-02,1,,,,,ギャザー,0
572,3010005038585,新規,0,2024-08-02,2024-08-02,ＹＦ　ＪＲＥ　Ｄ特定目的会社,,その他の設立登記法人,東京都,千代田区,霞が関３丁目２番５号,,13,101,1000013,,,,,,,2024-08-02,1,,,,,ワイエフジェーアールイーディー,0
573,3010101016263,新規,0,2024-08-02,2024-08-02,株式会社ＮＥＷ　ＨＯＭＥ,,株式会社,東京都,八王子市,元本郷町３丁目１５番８号,,13,201,1920051,,,,,,,2024-08-02,1,,,,,,0
574,3010101016271,新規,0,2024-08-02,2024-08-02,Ｌｉｆｅｆｏｒｃｅ　Ｊａｐａｎ株式会社,,株式会社,東京都,八王子市,大和田町６丁目１４番５－１１０号,,13,201,1920045,,,,,,,2024-08-02,1,,,,,ライフフォースジャパン,0
579,3010401184124,新規,0,2024-08-02,2024-08-02,株式会社初心,,株式会社,東京都,港区,西麻布２丁目２５番１８号麻布パレスビル５Ｆ５０３,,13,103,1060031,,,,,,,2024-08-02,1,,,,,ショシン,0
580,3010401184140,新規,0,2024-08-02,2024-08-02,株式会社ＯｗｌＡｓｓｅｔ,,株式会社,東京都,港区,浜松町２丁目２番１５号浜松町ダイヤビル２Ｆ,,13,103,1050013,,,,,,,2024-08-02,1,,,,,アウルアセット,0
581,3010401184157,新規,0,2024-08-02,2024-08-02,株式会社ＦＯＲ,,株式会社,東京都,港区,南青山２丁目１４番１４号フロムファースト南青山１０４,,13,103,1070062,,,,,,,2024-08-02,1,,,,,フォー,0
583,3010403033139,新規,0,2024-08-02,2024-08-02,Ｅ３合同会社,,合同会社,東京都,港区,南青山３丁目１２－３アコルソ６０３号,,13,103,1070062,,,,,,,2024-08-02,1,,,,,イーサン,0
585,3010501052692,新規,0,2024-08-02,2024-08-02,株式会社サンパパハウス,,株式会社,東京都,台東区,台東２丁目３２番１０－３０４号,,13,106,1100016,,,,,,,2024-08-02,1,,,,,サンパパハウス,0
589,3010701046346,新規,0,2024-08-02,2024-08-02,株式会社ＴＥＣ‐８ホールディングス,,株式会社,東京都,品川区,東大井５丁目７番１０号,,13,109,1400011,,,,,,,2024-08-02,1,,,,,テックエイトホールディングス,0
590,3010701046354,新規,0,2024-08-02,2024-08-02,株式会社Ｔｈｅ　ＯＮＥ　ＢＩＴＥ,,株式会社,東京都,品川区,西五反田２丁目２２－１２グレンドール五反田５０３,,13,109,1410031,,,,,,,2024-08-02,1,,,,,ザワンバイト,0
594,3010803005043,新規,0,2024-08-02,2024-08-02,シンセア合同会社,,合同会社,東京都,大田区,田園調布南１７番３－２０２号,,13,111,1450076,,,,,,,2024-08-02,1,,,,,シンセア,0
595,3010901055733,新規,0,2024-08-02,2024-08-02,株式会社アンドリット,,株式会社,東京都,世田谷区,八幡山１丁目１２番１６号,,13,112,1560056,,,,,,,2024-08-02,1,,,,,アンドリット,0
596,3010901055741,新規,0,2024-08-02,2024-08-02,株式会社２ｎｄタッチ,,株式会社,東京都,世田谷区,南烏山５丁目１番２７号,,13,112,1570062,,,,,,,2024-08-02,1,,,,,セカンドタッチ,0
601,3011001163856,新規,0,2024-08-02,2024-08-02,株式会社ＣＯＣＬＬＹ’Ｓ,,株式会社,東京都,渋谷区,神宮前６丁目２３番４号桑野ビル２階,,13,113,1500001,,,,,,,2024-08-02,1,,,,,コックリーズ,0
608,3011101108182,新規,0,2024-08-02,2024-08-02,商啓法律コンサルティング株式会社,,株式会社,東京都,新宿区,百人町１丁目１８－８大久保カドビル２Ｆ－ＬｉｎｋＳｐａｃｅＳ０２,,13,104,1690073,,,,,,,2024-08-02,1,,,,,ショウケイホウリツコンサルティング,0
609,3011101108224,新規,0,2024-08-02,2024-08-02,虹糸紡ぎの家株式会社,,株式会社,東京都,新宿区,歌舞伎町２丁目３番２１－４０６号,,13,104,1600021,,,,,,,2024-08-02,1,,,,,ニジイトツムギノイエ,0
610,3011101108240,新規,0,2024-08-02,2024-08-02,株式会社ＤＭＴ,,株式会社,東京都,新宿区,歌舞伎町２丁目３０番１４号三経８２ビル５階,,13,104,1600021,,,,,,,2024-08-02,1,,,,,ディーエムティー,0
611,3011101108249,新規,0,2024-08-02,2024-08-02,株式会社Ｔｏｒｓｉｏｎ,,株式会社,東京都,新宿区,荒木町３番地田村ビル,,13,104,1600007,,,,,,,2024-08-02,1,,,,,トーション,0
612,3011103014750,新規,0,2024-08-02,2024-08-02,合同会社エヌ・エー・オー・ソリューションズ,,合同会社,東京都,新宿区,西早稲田２丁目１４番３号キュービックコート西早稲田２０２,,13,104,1690051,,,,,,,2024-08-02,1,,,,,エヌエーオーソリューションズ,0
616,3011603004409,新規,0,2024-08-02,2024-08-02,合同会社Ｐｉｅｃｅ‐Ｐｉｌｅ,,合同会社,東京都,練馬区,石神井町４丁目１５－１０,,13,120,1770041,,,,,,,2024-08-02,1,,,,,ピースパイル,0
624,3012401042154,新規,0,2024-08-02,2024-08-02,株式会社ＩＴＦＬ,,株式会社,東京都,府中市,寿町１丁目４番地１７,,13,206,1830056,,,,,,,2024-08-02,1,,,,,アイティーエフエル,0
632,3013303007245,新規,0,2024-08-02,2024-08-02,合同会社Ｂｒｉｇｈｔ　Ｗａｙ,,合同会社,東京都,豊島区,南大塚３丁目２－９新大塚ＹＫビル２０２号室,,13,116,1700005,,,,,,,2024-08-02,1,,,,,ブライトウェイ,0
637,3020001158345,新規,0,2024-08-02,2024-08-02,定令商事株式会社,,株式会社,神奈川県,横浜市港北区,箕輪町２丁目６番１７－１２１号,,14,109,2230051,,,,,,,2024-08-02,1,,,,,テイリョウショウジ,0
649,3021001082857,新規,0,2024-08-02,2024-08-02,株式会社ＫＩＲＥＩ一級建築士事務所,,株式会社,神奈川県,足柄上郡大井町,上大井４番地４,,14,362,2580016,,,,,,,2024-08-02,1,,,,,キレイイッキュウケンチクシジムショ,0
650,3021001082873,新規,0,2024-08-02,2024-08-02,株式会社ワシャチ,,株式会社,神奈川県,横須賀市,長瀬１丁目１０番２号森コーポＩＩ１０２,00135778,14,201,2390826,,,,,,,2024-08-02,1,,,,,ワシャチ,0
652,3021005013164,新規,0,2024-08-02,2024-08-02,秀和平塚レジデンス管理組合法人,,その他の設立登記法人,神奈川県,平塚市,田村３丁目１番３４－１１４号,,14,203,2540013,,,,,,,2024-08-02,1,,,,,シュウワヒラツカレジデンス,0
655,3030001161678,新規,0,2024-08-02,2024-08-02,株式会社レオワールド,,株式会社,埼玉県,川越市,大字笠幡３２９４番地４,,11,201,3501175,,,,,,,2024-08-02,1,,,,,レオワールド,0
656,3030001161711,新規,0,2024-08-02,2024-08-02,株式会社マルクテ,,株式会社,埼玉県,入間市,宮寺３０８３番地３,,11,225,3580014,,,,,,,2024-08-02,1,,,,,マルクテ,0
658,3030003024800,新規,0,2024-08-02,2024-08-02,まあと合同会社,,合同会社,埼玉県,吉川市,美南３丁目７番地１４,,11,243,3420038,,,,,,,2024-08-02,1,,,,,マアト,0
659,3030003024825,新規,0,2024-08-02,2024-08-02,合同会社ｅ‐Ｄｒｅａｍ,,合同会社,埼玉県,羽生市,大字中岩瀬７５７番地１,,11,216,3480046,,,,,,,2024-08-02,1,,,,,イードリーム,0
665,3040001134823,新規,0,2024-08-02,2024-08-02,株式会社池畑笑店,,株式会社,千葉県,佐倉市,稲荷台２丁目１－１アースライト臼井２０１,,12,212,2850864,,,,,,,2024-08-02,1,,,,,イケハタショウテン,0
667,3040003025509,新規,0,2024-08-02,2024-08-02,ジェイビューティー合同会社,,合同会社,千葉県,松戸市,秋山２３１番地の３,,12,207,2702223,,,,,,,2024-08-02,1,,,,,ジェイビューティー,0
668,3040003025517,新規,0,2024-08-02,2024-08-02,合同会社石井興業,,合同会社,千葉県,茂原市,吉井上２０２番地,,12,210,2994122,,,,,,,2024-08-02,1,,,,,イシイコウギョウ,0
677,3060001037355,新規,0,2024-08-02,2024-08-02,株式会社新光建設,,株式会社,栃木県,栃木市,旭町３番２７号,,09,203,3280035,,,,,,,2024-08-02,1,,,,,シンコウケンセツ,0
678,3060003005178,新規,0,2024-08-02,2024-08-02,合同会社ＣＲＯＷＮＳ,,合同会社,栃木県,小山市,大字平和１７１番地５,,09,208,3290212,,,,,,,2024-08-02,1,,,,,クラウンズ,0
679,3060005010226,新規,0,2024-08-02,2024-08-02,一般社団法人もっぷ．ｃｏｍｐａｎｙ,,その他の設立登記法人,栃木県,那須塩原市,鍋掛１４２９番地３６,,09,213,3250013,,,,,,,2024-08-02,1,,,,,モップカンパニー,0
685,3080101024937,新規,0,2024-08-02,2024-08-02,株式会社Ｂｌｅｓｓ,,株式会社,静岡県,富士市,富士町１７番８号,,22,210,4160915,,,,,,,2024-08-02,1,,,,,ブレス,0
692,3090001018831,新規,0,2024-08-02,2024-08-02,ｅｎｅｒｇｙＳｏｌｕｔｉｏｎｓ株式会社,,株式会社,山梨県,南都留郡富士河口湖町,船津４６０３番地５,,19,430,4010301,,,,,,,2024-08-02,1,,,,,エネルギーソリューションズ,0
712,3120001267210,新規,0,2024-08-02,2024-08-02,株式会社木子,,株式会社,大阪府,大阪市中央区,瓦町４丁目３番１４－７１８号,,27,128,5410048,,,,,,,2024-08-02,1,,,,,キゴ,0
713,3120001267301,新規,0,2024-08-02,2024-08-02,株式会社ＬＯＯＴ,,株式会社,大阪府,大阪市西区,新町１丁目２番１３号,,27,106,5500013,,,,,,,2024-08-02,1,,,,,ルート,0
714,3120001267342,新規,0,2024-08-02,2024-08-02,ＬＩＥＮ　ＦＯＲＴ　ＩＮＫ．株式会社,,株式会社,大阪府,大阪市中央区,谷町１丁目３番１９号大手前エストビル２階,,27,128,5400012,,,,,,,2024-08-02,1,,,,,リアンフォールインク,0
715,3120001267391,新規,0,2024-08-02,2024-08-02,株式会社ミーティア,,株式会社,大阪府,大阪市北区,梅田２丁目５番１３号,,27,127,5300001,,,,,,,2024-08-02,1,,,,,ミーティア,0
716,3120001267417,新規,0,2024-08-02,2024-08-02,株式会社暁エステート,,株式会社,大阪府,大阪市中央区,東心斎橋２丁目８番１９号,,27,128,5420083,,,,,,,2024-08-02,1,,,,,アカツキエステート,0
721,3120003027182,新規,0,2024-08-02,2024-08-02,合同会社芽吹く,,合同会社,大阪府,大阪市中央区,森ノ宮中央１丁目２５－１８アーデン森之宮８０５,,27,128,5400003,,,,,,,2024-08-02,1,,,,,メブク,0
722,3120101070068,新規,0,2024-08-02,2024-08-02,ラディアントアロー株式会社,,株式会社,大阪府,堺市美原区,南余部２９７―９,,27,147,5870052,,,,,,,2024-08-02,1,,,,,ラディアントアロー,0
723,3120103005988,新規,0,2024-08-02,2024-08-02,まる交通合同会社,,合同会社,大阪府,堺市南区,逆瀬川１００７番地７,,27,145,5900123,,,,,,,2024-08-02,1,,,,,マルコウツウ,0
724,3120901049550,新規,0,2024-08-02,2024-08-02,株式会社三翔設備,,株式会社,大阪府,高槻市,明野町１０番１６号,,27,207,5690082,,,,,,,2024-08-02,1,,,,,サンショウセツビ,0
726,3122001038319,新規,0,2024-08-02,2024-08-02,株式会社フューチャーライズ,,株式会社,大阪府,東大阪市,永和２丁目２４－８,,27,227,5770809,,,,,,,2024-08-02,1,,,,,フューチャーライズ,0
734,3130001077575,新規,0,2024-08-02,2024-08-02,株式会社Ｊａｐｏｔｏｒｏｎｉｃ,,株式会社,京都府,京都市下京区,玉津島町２９４番地,,26,106,6008427,,,,,,,2024-08-02,1,,,,,ジャポトロニック,0
735,3130001077633,新規,0,2024-08-02,2024-08-02,株式会社Ｓｍｉｌｅ　Ｗｏｏｄ　Ｔｏｙｓ,,株式会社,京都府,木津川市,木津清水２７番１８,,26,214,6190214,,,,,,,2024-08-02,1,,,,,スマイルウッドトイズ,0
739,3140001135324,新規,0,2024-08-02,2024-08-02,株式会社Ｍｅｇａｍｉ,,株式会社,兵庫県,西宮市,西平町１８番８号,,28,204,6620093,,,,,,,2024-08-02,1,,,,,メガミ,0
740,3140001135332,新規,0,2024-08-02,2024-08-02,株式会社ＣＲＥＡＲ,,株式会社,兵庫県,尼崎市,久々知西町１丁目１１番６－４０６号,,28,202,6610978,,,,,,,2024-08-02,1,,,,,クレアール,0
741,3140001135373,新規,0,2024-08-02,2024-08-02,株式会社リアンキャトル前田,,株式会社,兵庫県,西宮市,北昭和町１０番１３号,,28,204,6620833,,,,,,,2024-08-02,1,,,,,リアンキャトルマエダ,0
749,3140003020887,新規,0,2024-08-02,2024-08-02,合同会社ＢＥＮＴＥＮ,,合同会社,兵庫県,淡路市,志筑２２０１番地１１,,28,226,6562131,,,,,,,2024-08-02,1,,,,,ベンテン,0
751,3140005027170,新規,0,2024-08-02,2024-08-02,一般社団法人Ｓｕｓｔａｉｎａ　Ｃｏｕｔｕｒｅ　ａｕ　ＪＡＰＯＮ,,その他の設立登記法人,兵庫県,姫路市,白銀町８番地,,28,201,6700902,,,,,,,2024-08-02,1,,,,,サステナクチュールオジャポン,0
752,3150001027479,新規,0,2024-08-02,2024-08-02,ヨシダ運送株式会社,,株式会社,奈良県,大和高田市,東雲町１番３３号,,29,202,6350017,,,,,,,2024-08-02,1,,,,,ヨシダウンソウ,0
754,3160001026133,新規,0,2024-08-02,2024-08-02,株式会社Ｌａｍｂｄａ,,株式会社,滋賀県,米原市,多和田１２８３,,25,214,5210081,,,,,,,2024-08-02,1,,,,,ラムダ,0
755,3170005007095,新規,0,2024-08-02,2024-08-02,医療法人カイナ,,その他の設立登記法人,和歌山県,和歌山市,小雑賀１５８番地,,30,201,6410007,,,,,,,2024-08-02,1,,,,,カイナ,0
760,3180001162587,新規,0,2024-08-02,2024-08-02,株式会社ヨコタテクノトラスト,,株式会社,愛知県,名古屋市西区,山木１丁目１６６番地,,23,104,4520833,,,,,,,2024-08-02,1,,,,,ヨコタテクノトラスト,0
761,3180001162612,新規,0,2024-08-02,2024-08-02,株式会社孝美,,株式会社,愛知県,丹羽郡扶桑町,大字南山名字前ノ浦５１－１,,23,362,4800105,,,,,,,2024-08-02,1,,,,,タカミ,0
762,3180001162620,新規,0,2024-08-02,2024-08-02,ＦＩＲＳＴ　ＬＩＮＥ株式会社,,株式会社,愛知県,名古屋市北区,大蔵町３３番地,,23,103,4620858,,,,,,,2024-08-02,1,,,,,ファーストライン,0
763,3180003027136,新規,0,2024-08-02,2024-08-02,合同会社ＧＯ　ＩＮ　ＳＴＹＬＥ,,合同会社,愛知県,清須市,春日鳥出１番地１,,23,233,4520962,,,,,,,2024-08-02,1,,,,,ゴーインスタイル,0
764,3180003027144,新規,0,2024-08-02,2024-08-02,ＳＡＩＳＡＩ合同会社,,合同会社,愛知県,名古屋市中村区,名駅３丁目４－１０アルティメイト名駅１ｓｔ２階,,23,105,4500002,,,,,,,2024-08-02,1,,,,,サイサイ,0
766,3190001031535,新規,0,2024-08-02,2024-08-02,株式会社づくりインフィニティ,,株式会社,三重県,伊賀市,広瀬７３４番地,,24,216,5181426,,,,,,,2024-08-02,1,,,,,ヅクリインフィニティ,0
772,3220001026135,新規,0,2024-08-02,2024-08-02,庭工株式会社,,株式会社,石川県,能美市,松が岡５丁目３８番地,,17,211,9231225,,,,,,,2024-08-02,1,,,,,ニワク,0
773,3220005008872,新規,0,2024-08-02,2024-08-02,一般社団法人環日本海ゴルフ協会,,その他の設立登記法人,石川県,金沢市,問屋町２丁目３１番地,,17,201,9200061,,,,,,,2024-08-02,1,,,,,カンニホンカイゴルフキョウカイ,0
778,3240001063639,新規,0,2024-08-02,2024-08-02,株式会社ＺＡＢＥＥ,,株式会社,広島県,東広島市,八本松東７丁目１１番４３号,,34,212,7390142,,,,,,,2024-08-02,1,,,,,ザビー,0
782,3250001020746,新規,0,2024-08-02,2024-08-02,吉川商事株式会社,,株式会社,山口県,下関市,綾羅木新町２丁目１４番１０号,,35,201,7510865,,,,,,,2024-08-02,1,,,,,ヨシカワショウジ,0
788,3260001039323,新規,0,2024-08-02,2024-08-02,株式会社ｎｏｍａｄｌａｂ,,株式会社,岡山県,岡山市北区,磨屋町３－１０・２Ｆ・ＴＯＧＩＴＯＧＩ,,33,101,7000826,,,,,,,2024-08-02,1,,,,,ノマドラボ,0
790,3260003004837,新規,0,2024-08-02,2024-08-02,合同会社ＭＯＮＡＬＩＺＡ,,合同会社,岡山県,倉敷市,水島西常盤町７－８エール館７（４Ｆ－Ｃ）,,33,202,7128059,,,,,,,2024-08-02,1,,,,,モナリザ,0
794,3280003001873,新規,0,2024-08-02,2024-08-02,合同会社ｔａｎａｋａ　ｒｅｃｒｕｉｔｍｅｎｔ　ｃｏｎｓｕｌｔｉｎｇ　ｆｉｒｍ,,合同会社,島根県,出雲市,塩冶有原町１丁目４２番地８０１号,,32,203,6930023,,,,,,,2024-08-02,1,,,,,タナカリクルートメントコンサルティングファーム,0
802,3290801030750,新規,0,2024-08-02,2024-08-02,株式会社ＤＴフレンズ,,株式会社,福岡県,北九州市八幡西区,折尾４丁目２９番３５－１１０５号,,40,109,8070825,,,,,,,2024-08-02,1,,,,,ディーティーフレンズ,0
805,3290803004802,新規,0,2024-08-02,2024-08-02,合同会社若松ＳＳ,,合同会社,福岡県,北九州市若松区,北浜１丁目４番１０号,,40,103,8080023,,,,,,,2024-08-02,1,,,,,ワカマツエスエス,0
817,3340001026692,新規,0,2024-08-02,2024-08-02,Ｙ’ｓホールディングス株式会社,,株式会社,鹿児島県,西之表市,東町４９番地,,46,213,8913113,,,,,,,2024-08-02,1,,,,,ワイズホールディングス,0
824,3370001051572,新規,0,2024-08-02,2024-08-02,株式会社煌大,,株式会社,宮城県,遠田郡涌谷町,字刈萱町１６番地１カーサピアッツァＩＩ２０１,00135781,04,501,9870164,,,,,,,2024-08-02,1,,,,,コウダイ,0
825,3370001051580,新規,0,2024-08-02,2024-08-02,株式会社なごみはうすぷらす,,株式会社,宮城県,柴田郡柴田町,西船迫４丁目１番地７１,,04,323,9891622,,,,,,,2024-08-02,1,,,,,ナゴミハウスプラス,0
827,3400001016745,新規,0,2024-08-02,2024-08-02,株式会社アグリサポート岩手,,株式会社,岩手県,滝沢市,後２６８番地１５９,,03,216,0200601,,,,,,,2024-08-02,1,,,,,アグリサポートイワテ,0
828,3410003003963,新規,0,2024-08-02,2024-08-02,合同会社ｔｉｋｉｉ,,合同会社,秋田県,秋田市,八橋南１丁目１１番３６号,,05,201,0100976,,,,,,,2024-08-02,1,,,,,ティキ,0
833,3430001092379,新規,0,2024-08-02,2024-08-02,株式会社カリムス,,株式会社,北海道,札幌市白石区,南郷通１丁目南３－１６－１０２,,01,104,0030022,,,,,,,2024-08-02,1,,,,,カリムス,0
834,3430001092387,新規,0,2024-08-02,2024-08-02,株式会社わいわいＧ,,株式会社,北海道,札幌市豊平区,旭町２丁目１‐１５グランヒル学園前１００３号,,01,105,0620911,,,,,,,2024-08-02,1,,,,,ワイワイジー,0
835,3430001092395,新規,0,2024-08-02,2024-08-02,株式会社リカレンス,,株式会社,北海道,札幌市豊平区,月寒東二条１６丁目１１番２３号,,01,105,0620052,,,,,,,2024-08-02,1,,,,,リカレンス,0
837,3450001014380,新規,0,2024-08-02,2024-08-02,株式会社カムイオート,,株式会社,北海道,旭川市,忠和三条８丁目１番３号,,01,204,0708043,,,,,,,2024-08-02,1,,,,,カムイオート,0
838,3470003002687,新規,0,2024-08-02,2024-08-02,シュヴァルラパン合同会社,,合同会社,香川県,丸亀市,川西町南７３３番地４,,37,202,7630092,,,,,,,2024-08-02,1,,,,,シュヴァルラパン,0
842,3490001010830,新規,0,2024-08-02,2024-08-02,株式会社ＳＨＫ　ＧＲＯＵＰ,,株式会社,高知県,高知市,中水道５番２９号,,39,201,7800044,,,,,,,2024-08-02,1,,,,,エスエイチケーグループ,0
843,3490005006949,新規,0,2024-08-02,2024-08-02,一般社団法人四万十食肉公社,,その他の設立登記法人,高知県,四万十市,不破出来島２０５８番地１,,39,210,7870017,,,,,,,2024-08-02,1,,,,,シマントショクニクコウシャ,0
850,3700150126488,新規,0,2024-08-02,2024-07-22,焼津青少年の家主催事業実行委員会,,その他,静岡県,焼津市,石津２２５９－４０８,,22,212,4250041,,,,,,,2024-07-22,1,,,,,ヤイヅセイシヨウネンノイエシユサイジギヨウジツコウイインカイ,0
851,3700150126645,新規,0,2024-08-02,2024-08-02,光台集団有限公司,,外国会社等,,,,,,,,ＲＭ３０５，３Ｆ，ＨＥＷＬＥＴＴ　ＣＥＮＴＲＥ，５４　ＨＯＩ　ＹＵＥＮ　ＲＤ，ＫＷＵＮ　ＴＯＮＧ，ＫＬＮ，ＨＯＮＧ　ＫＯＮＧ,,,,,,2024-08-02,1,,,,,コウダイシユウダンユウゲンコウシ,0
863,4010001246983,新規,0,2024-08-02,2024-08-02,株式会社Ｂｏｒｎ　Ｔｏ　Ｃｙｃｌｅ,,株式会社,東京都,千代田区,丸の内１丁目８－３丸の内トラストタワー本館２０階,,13,101,1000005,,,,,,,2024-08-02,1,,,,,ボーントゥサイクル,0
864,4010001247131,新規,0,2024-08-02,2024-08-02,株式会社ビー,,株式会社,東京都,中央区,晴海５丁目４－４－１６０４,,13,102,1040053,,,,,,,2024-08-02,1,,,,,ビー,0
865,4010003044452,新規,0,2024-08-02,2024-08-02,イーフィ合同会社,,合同会社,東京都,千代田区,神田神保町２丁目３４番地１,,13,101,1010051,,,,,,,2024-08-02,1,,,,,イーフィ,0
876,4010401184065,新規,0,2024-08-02,2024-08-02,株式会社ＡＭＡＥＢＩ,,株式会社,東京都,港区,東麻布１丁目２９－１３,,13,103,1060044,,,,,,,2024-08-02,1,,,,,アマエビ,0
877,4010401184156,新規,0,2024-08-02,2024-08-02,株式会社Ａｉｋｕ　Ｗｏｏ,,株式会社,東京都,港区,東麻布２丁目１５番１号アバンセ麻布,,13,103,1060044,,,,,,,2024-08-02,1,,,,,アイクー,0
878,4010401184180,新規,0,2024-08-02,2024-08-02,東和商会株式会社,,株式会社,東京都,港区,新橋２丁目２０番１５号新橋駅前ビル１号館３０５,,13,103,1050004,,,,,,,2024-08-02,1,,,,,トウワショウカイ,0
879,4010401184214,新規,0,2024-08-02,2024-08-02,株式会社ＭＯＢ,,株式会社,東京都,港区,赤坂９丁目６番３９号レジデンスタワー乃木坂９０４,,13,103,1070052,,,,,,,2024-08-02,1,,,,,モブ,0
881,4010403033162,新規,0,2024-08-02,2024-08-02,合同会社ミラボ,,合同会社,東京都,港区,麻布十番２丁目１３番９号クレスト麻布３０１,,13,103,1060045,,,,,,,2024-08-02,1,,,,,ミラボ,0
883,4010405023467,新規,0,2024-08-02,2024-08-02,ＫＩＣ春日部３特定目的会社,,その他の設立登記法人,東京都,港区,南青山４丁目２１番２６号リュエル青山Ｃ棟Ｂ１細谷総合会計事務所内,,13,103,1070062,,,,,,,2024-08-02,1,,,,,ケイアイシーカスカベスリー,0
885,4010501052700,新規,0,2024-08-02,2024-08-02,株式会社オーシャンネットワーク,,株式会社,東京都,台東区,三筋１丁目４番１－４０２号ライオンズプラザ蔵前,,13,106,1110055,,,,,,,2024-08-02,1,,,,,オーシャンネットワーク,0
890,4010601065643,新規,0,2024-08-02,2024-08-02,ＦｕｋｕｍａｎＪａｐａｎ株式会社,,株式会社,東京都,江東区,永代１丁目１５番２－９０５号,,13,108,1350034,,,,,,,2024-08-02,1,,,,,フクマンジャパン,0
891,4010601065684,新規,0,2024-08-02,2024-08-02,株式会社ｍｏｏｏ‐ｕｐ,,株式会社,東京都,墨田区,菊川３丁目２１－６菊川グリーンハイツ２０８,,13,107,1300024,,,,,,,2024-08-02,1,,,,,ムーアップ,0
893,4010701046345,新規,0,2024-08-02,2024-08-02,株式会社ケー・アイ・ジー・アソシエイト,,株式会社,東京都,品川区,東五反田４丁目１０番９号シャトレー五反田２Ｆ,,13,109,1410022,,,,,,,2024-08-02,1,,,,,ケーアイジーアソシエイト,0
894,4010701046361,新規,0,2024-08-02,2024-08-02,郵船ロジスティクスグローバルマネジメント株式会社,,株式会社,東京都,品川区,東品川４丁目１２番４号,,13,109,1400002,,,,,,,2024-08-02,1,,,,,ユウセンロジスティクスグローバルマネジメント,0
905,4011101108198,新規,0,2024-08-02,2024-08-02,ステイドリームグループ株式会社,,株式会社,東京都,新宿区,西新宿６丁目５番１号新宿アイランドタワー２階,,13,104,1600023,,,,,,,2024-08-02,1,,,,,ステイドリームグループ,0
906,4011101108280,新規,0,2024-08-02,2024-08-02,株式会社Ｆａｉｒｂｅｅ,,株式会社,東京都,新宿区,荒木町９番地ＬＡＰｉＳＰＡＲＫ四谷三丁目４０３,,13,104,1600007,,,,,,,2024-08-02,1,,,,,フェアビー,0
912,4011601027922,新規,0,2024-08-02,2024-08-02,藤遠商事株式会社,,株式会社,東京都,練馬区,旭町１丁目８番１号,,13,120,1790071,,,,,,,2024-08-02,1,,,,,トウエンショウジ,0
924,4012401042145,新規,0,2024-08-02,2024-08-02,株式会社ゲレンデ,,株式会社,東京都,三鷹市,井口３丁目３番３１号,,13,204,1810011,,,,,,,2024-08-02,1,,,,,ゲレンデ,0
930,4012801023372,新規,0,2024-08-02,2024-08-02,株式会社ＣＵＤＤＬＥ　ＵＰ,,株式会社,東京都,武蔵村山市,三ツ木２丁目４４番２６号ドミール１０２,,13,223,2080032,,,,,,,2024-08-02,1,,,,,カドルアップ,0
941,4020001158286,新規,0,2024-08-02,2024-08-02,宝田グローバルアドバイザーズ株式会社,,株式会社,神奈川県,川崎市中原区,新丸子東３丁目１３０１番地Ｇ２２０１,,14,133,2110004,,,,,,,2024-08-02,1,,,,,タカラダグローバルアドバイザーズ,0
942,4020001158303,新規,0,2024-08-02,2024-08-02,株式会社ナレッジ・ハブ,,株式会社,神奈川県,横浜市西区,浅間町１丁目４番地３ウィザードビル４０２,,14,103,2200072,,,,,,,2024-08-02,1,,,,,ナレッジハブ,0
943,4020001158427,新規,0,2024-08-02,2024-08-02,株式会社タクエーホールディングス,,株式会社,神奈川県,横浜市中区,吉田町４８番地,,14,104,2310041,,,,,,,2024-08-02,1,,,,,タクエーホールディングス,0
945,4021001082864,新規,0,2024-08-02,2024-08-02,株式会社辻風,,株式会社,神奈川県,茅ヶ崎市,堤５２番４,,14,207,2530006,,,,,,,2024-08-02,1,,,,,ツジカゼ,0
946,4021001082897,新規,0,2024-08-02,2024-08-02,株式会社オフィス湘南,,株式会社,神奈川県,茅ヶ崎市,浜竹４丁目７番１６号,,14,207,2530021,,,,,,,2024-08-02,1,,,,,オフィスショウナン,0
951,4030001161660,新規,0,2024-08-02,2024-08-02,株式会社ＧＬＯＷ,,株式会社,埼玉県,川越市,大字笠幡１０２０番地,,11,201,3501175,,,,,,,2024-08-02,1,,,,,グロウ,0
952,4030001161702,新規,0,2024-08-02,2024-08-02,株式会社和楽創生,,株式会社,埼玉県,さいたま市見沼区,春岡２丁目５番地３４,,11,104,3370008,,,,,,,2024-08-02,1,,,,,ワラクソウセイ,0
953,4030001161710,新規,0,2024-08-02,2024-08-02,株式会社恵建材,,株式会社,埼玉県,秩父市,番場町１１番１号サンウッド東和６０２,,11,207,3680041,,,,,,,2024-08-02,1,,,,,メグミケンザイ,0
954,4030001161735,新規,0,2024-08-02,2024-08-02,株式会社南富企画,,株式会社,埼玉県,さいたま市浦和区,仲町１丁目１１番１３号,,11,107,3300062,,,,,,,2024-08-02,1,,,,,ナンプキカク,0
955,4030001161743,新規,0,2024-08-02,2024-08-02,ＡＴ株式会社,,株式会社,埼玉県,越谷市,蒲生寿町１７番地１４号蒲生ローヤルコーポ１０２,,11,222,3430836,,,,,,,2024-08-02,1,,,,,エイティー,0
956,4030003024824,新規,0,2024-08-02,2024-08-02,Ｃａｒｅｅｒ‐Ｄｅｓｉｇｎ合同会社,,合同会社,埼玉県,川越市,大字大仙波３６７番地３,,11,201,3500032,,,,,,,2024-08-02,1,,,,,キャリアデザイン,0
957,4030003024849,新規,0,2024-08-02,2024-08-02,合同会社カラー,,合同会社,埼玉県,大里郡寄居町,大字西ノ入字後山４０２番５５,,11,408,3691225,,,,,,,2024-08-02,1,,,,,カラー,0
963,4040001134772,新規,0,2024-08-02,2024-08-02,株式会社Ｍｙ　Ｃｈａｒｍ,,株式会社,千葉県,船橋市,浜町１丁目２８番１５号,,12,204,2730012,,,,,,,2024-08-02,1,,,,,マイチャーム,0
964,4040001134780,新規,0,2024-08-02,2024-08-02,株式会社テクノナイト,,株式会社,千葉県,市川市,妙典５丁目１３番３３号,,12,203,2720111,,,,,,,2024-08-02,1,,,,,テクノナイト,0
965,4040001134789,新規,0,2024-08-02,2024-08-02,株式会社あどえもん,,株式会社,千葉県,松戸市,二十世紀が丘美野里町１５－１,,12,207,2710081,,,,,,,2024-08-02,1,,,,,アドエモン,0
966,4040001134814,新規,0,2024-08-02,2024-08-02,株式会社２８コーティング,,株式会社,千葉県,銚子市,三門町４５２,,12,202,2880851,,,,,,,2024-08-02,1,,,,,ニハチコーティング,0
967,4040001134822,新規,0,2024-08-02,2024-08-02,株式会社Ｗｅｌｙ,,株式会社,千葉県,船橋市,二宮２丁目１７番１４－１０１,,12,204,2740823,,,,,,,2024-08-02,1,,,,,ウィーリー,0
976,4040003025524,新規,0,2024-08-02,2024-08-02,合同会社テクノアーク,,合同会社,千葉県,旭市,萬力２１６,,12,215,2890517,,,,,,,2024-08-02,1,,,,,テクノアーク,0
977,4040003025557,新規,0,2024-08-02,2024-08-02,合同会社スタンドフラワー,,合同会社,千葉県,千葉市稲毛区,稲毛東３丁目１６番４号スプリングスクエア４００号,,12,103,2630031,,,,,,,2024-08-02,1,,,,,スタンドフラワー,0
981,4050003008577,新規,0,2024-08-02,2024-08-02,ＡＵＴＯ　ＨＵＢ　ＡＳＩＡ合同会社,,合同会社,茨城県,筑西市,甲３１０番地,,08,227,3080021,,,,,,,2024-08-02,1,,,,,オートハブアジア,0
983,4070001042048,新規,0,2024-08-02,2024-08-02,株式会社いつき創研,,株式会社,群馬県,富岡市,七日市８１番地８,,10,210,3702343,,,,,,,2024-08-02,1,,,,,イツキソウケン,0
984,4070001042056,新規,0,2024-08-02,2024-08-02,株式会社Ｆ‐ドリームタウン,,株式会社,群馬県,佐波郡玉村町,大字南玉７８８番地１,,10,464,3701111,,,,,,,2024-08-02,1,,,,,,0
992,4080101024936,新規,0,2024-08-02,2024-08-02,株式会社プロシード,,株式会社,静岡県,駿東郡清水町,徳倉９８６番地の５,,22,341,4110917,,,,,,,2024-08-02,1,,,,,プロシード,0
994,4090001018830,新規,0,2024-08-02,2024-08-02,ＭｕｌｅｓｏｆｔＳｏｌｕｔｉｏｎｓ株式会社,,株式会社,山梨県,南都留郡富士河口湖町,船津４６０３番地５,,19,430,4010301,,,,,,,2024-08-02,1,,,,,ミュールソフトソリューションズ,0
995,4100003007680,新規,0,2024-08-02,2024-08-02,合同会社ＨＥＬＥＮ,,合同会社,長野県,佐久市,中込３１３３番地２アリエス佐久３０８号,,20,217,3850051,,,,,,,2024-08-02,1,,,,,ヘレン,0
1008,4120001267267,新規,0,2024-08-02,2024-08-02,ＭＤ　ＢＡＳＥ株式会社,,株式会社,大阪府,枚方市,岡南町１１－１９ハウスゲートビル３０２号,,27,210,5730033,,,,,,,2024-08-02,1,,,,,エムディベース,0
1009,4120001267283,新規,0,2024-08-02,2024-08-02,株式会社ｉｄｅａｌ　Ｃｏｎｎｅｃｔ,,株式会社,大阪府,大阪市北区,梅田１丁目１－３大阪駅前第３ビル２９階１－１－１号室,,27,127,5300001,,,,,,,2024-08-02,1,,,,,アイディールコネクト,0
1010,4120001267291,新規,0,2024-08-02,2024-08-02,株式会社イブロスター,,株式会社,大阪府,大阪市北区,東天満２丁目１０番３１号第９田渕ビル６０１,,27,127,5300044,,,,,,,2024-08-02,1,,,,,イブロスター,0
1011,4120001267325,新規,0,2024-08-02,2024-08-02,株式会社ｉＴｅｃｈゼミ,,株式会社,大阪府,大阪市西区,南堀江１丁目２１－４ＪＳビル３階,,27,106,5500015,,,,,,,2024-08-02,1,,,,,アイテックゼミ,0
1012,4120001267341,新規,0,2024-08-02,2024-08-02,株式会社ＵＡ,,株式会社,大阪府,大阪市西淀川区,柏里１丁目５番３号,,27,113,5550022,,,,,,,2024-08-02,1,,,,,ユーエー,0
1013,4120001267382,新規,0,2024-08-02,2024-08-02,株式会社ＪＳＥＬＦ,,株式会社,大阪府,大阪市西区,千代崎１丁目３番４号永野ビル２階,,27,106,5500023,,,,,,,2024-08-02,1,,,,,ジゼルフ,0
1014,4120001267432,新規,0,2024-08-02,2024-08-02,株式会社日崎商事,,株式会社,大阪府,大阪市生野区,新今里２丁目１１番７号ＩＭＡＺＡＴＯハイツ２０１号,,27,116,5440001,,,,,,,2024-08-02,1,,,,,ヒザキショウジ,0
1015,4120001267440,新規,0,2024-08-02,2024-08-02,ティースリー株式会社,,株式会社,大阪府,大阪市港区,田中１丁目１３－５,,27,107,5520005,,,,,,,2024-08-02,1,,,,,ティースリー,0
1021,4120003027165,新規,0,2024-08-02,2024-08-02,合同会社キタニ,,合同会社,大阪府,守口市,南寺方東通４丁目１４番１５号、１０６号室,,27,209,5700043,,,,,,,2024-08-02,1,,,,,キタニ,0
1022,4120003027207,新規,0,2024-08-02,2024-08-02,合同会社ＥＵＰＨＯＲＩＡ,,合同会社,大阪府,大阪市淀川区,塚本２丁目１４番５－５０１号,,27,123,5320026,,,,,,,2024-08-02,1,,,,,ユーフォリア,0
1026,4120101070083,新規,0,2024-08-02,2024-08-02,株式会社ＮＥＸＴ　ＬＩＮＥ,,株式会社,大阪府,大阪狭山市,池尻中１丁目２６番１３号,,27,231,5890007,,,,,,,2024-08-02,1,,,,,ネクストライン,0
1028,4120103005987,新規,0,2024-08-02,2024-08-02,合同会社チューリップ,,合同会社,大阪府,堺市中区,福田９００番地２１,,27,142,5998241,,,,,,,2024-08-02,1,,,,,チューリップ,0
1029,4120901049467,新規,0,2024-08-02,2024-08-02,株式会社双葉,,株式会社,大阪府,茨木市,西太田町３０番１８号,,27,211,5670015,,,,,,,2024-08-02,1,,,,,フタバ,0
1030,4120903005294,新規,0,2024-08-02,2024-08-02,合同会社Ｌａｓｔ　Ｖａｎｐｕｉｓｈ,,合同会社,大阪府,箕面市,半町３丁目１３－２８－４０１,,27,220,5620044,,,,,,,2024-08-02,1,,,,,ラストバンプイシュ,0
1034,4122001038318,新規,0,2024-08-02,2024-08-02,株式会社ＹＢ　ＣＯＭＰＡＮＹ,,株式会社,大阪府,東大阪市,荒本新町８番２７号,,27,227,5770022,,,,,,,2024-08-02,1,,,,,ワイビーカンパニー,0
1035,4122001038326,新規,0,2024-08-02,2024-08-02,翔真株式会社,,株式会社,大阪府,大東市,平野屋２丁目３番１３号,,27,218,5740022,,,,,,,2024-08-02,1,,,,,ショウマ,0
1036,4122003002949,新規,0,2024-08-02,2024-08-02,Ｃｈｉｎｏｉｓｅ合同会社,,合同会社,大阪府,東大阪市,森河内西２丁目３６番２８号,,27,227,5770061,,,,,,,2024-08-02,1,,,,,シノワ,0
1038,4130001077558,新規,0,2024-08-02,2024-08-02,株式会社ＭＯＲＥ,,株式会社,京都府,京都市右京区,西院月双町５７番地エステムコート京都西院４１９号,,26,108,6150054,,,,,,,2024-08-02,1,,,,,モア,0
1039,4130001077608,新規,0,2024-08-02,2024-08-02,株式会社ＳＴＡＲ　Ｒｅｖｉｖｅ,,株式会社,京都府,城陽市,寺田宮ノ谷５番地の１５４,,26,207,6100121,,,,,,,2024-08-02,1,,,,,スターリバイブ,0
1041,4130003009757,新規,0,2024-08-02,2024-08-02,ＴＭ・ＮＥＸＴ合同会社,,合同会社,京都府,京田辺市,山手東２丁目３番地Ｃ－４０２号,,26,211,6100357,,,,,,,2024-08-02,1,,,,,ティエムネクスト,0
1049,4140001135323,新規,0,2024-08-02,2024-08-02,株式会社福井タイル,,株式会社,兵庫県,神戸市長田区,寺池町３丁目２番１号,,28,106,6530804,,,,,,,2024-08-02,1,,,,,フクイタイル,0
1050,4140001135331,新規,0,2024-08-02,2024-08-02,株式会社エスクラシック,,株式会社,兵庫県,加東市,南山４丁目４番地１８,,28,228,6731341,,,,,,,2024-08-02,1,,,,,エスクラシック,0
1051,4140001135372,新規,0,2024-08-02,2024-08-02,神戸総建株式会社,,株式会社,兵庫県,姫路市,勝原区朝日谷２７９番地８,,28,201,6711204,,,,,,,2024-08-02,1,,,,,カンベソウケン,0
1052,4140001135380,新規,0,2024-08-02,2024-08-02,株式会社ワダイ,,株式会社,兵庫県,姫路市,南今宿８－３０－７０４号,,28,201,6700054,,,,,,,2024-08-02,1,,,,,ワダイ,0
1053,4140001135389,新規,0,2024-08-02,2024-08-02,一安心株式会社,,株式会社,兵庫県,川西市,湯山台２丁目４４番地の１１,,28,217,6660137,,,,,,,2024-08-02,1,,,,,ヒトアンシン,0
1055,4140003020894,新規,0,2024-08-02,2024-08-02,Ａ．Ｓ．Ｐｕｒｉａ合同会社,,合同会社,兵庫県,宝塚市,中山五月台３丁目２１－１５,,28,214,6650871,,,,,,,2024-08-02,1,,,,,エーエスプリア,0
1056,4140003020911,新規,0,2024-08-02,2024-08-02,合同会社アクア,,合同会社,兵庫県,神戸市東灘区,住吉本町３丁目１２番４－５０４号,,28,101,6580051,,,,,,,2024-08-02,1,,,,,アクア,0
1067,4180001162545,新規,0,2024-08-02,2024-08-02,株式会社ＨＡＬ　ＡＩＲ　ＳＹＳＴＥＭ,,株式会社,愛知県,春日井市,春見町３９番地２ダノイ２０１,,23,206,4860837,,,,,,,2024-08-02,1,,,,,ハルエアーシステム,0
1068,4180001162594,新規,0,2024-08-02,2024-08-02,株式会社Ｗｏｒｋ　Ｓｐａｃｅ　ｎｉｃｏ,,株式会社,愛知県,一宮市,多加木１丁目３０番５号エクセル多加木１０２号室,,23,203,4910837,,,,,,,2024-08-02,1,,,,,ワークスペースニコ,0
1069,4180001162611,新規,0,2024-08-02,2024-08-02,株式会社Ｎｏｌｌ・Ｌｉｃｏ,,株式会社,愛知県,名古屋市東区,出来町２丁目８番８号－３０５,,23,102,4610032,,,,,,,2024-08-02,1,,,,,ノルリコ,0
1070,4180001162628,新規,0,2024-08-02,2024-08-02,株式会社元町コマース,,株式会社,愛知県,名古屋市中区,千代田２丁目１９番２０号トーカンマンション鶴舞３０７号,,23,106,4600012,,,,,,,2024-08-02,1,,,,,モトマチコマース,0
1071,4180001162636,新規,0,2024-08-02,2024-08-02,株式会社ココフル,,株式会社,愛知県,半田市,南末広町１２５番地の９,,23,205,4750853,,,,,,,2024-08-02,1,,,,,ココフル,0
1072,4180001162644,新規,0,2024-08-02,2024-08-02,ＡＴＴＡＣＫＳ株式会社,,株式会社,愛知県,清須市,須ケ口１３番地，１４番地,,23,233,4520905,,,,,,,2024-08-02,1,,,,,アタックス,0
1073,4180001162677,新規,0,2024-08-02,2024-08-02,株式会社そーれ,,株式会社,愛知県,名古屋市中区,栄４丁目９番１０号愛信プラザ,,23,106,4600008,,,,,,,2024-08-02,1,,,,,ソーレ,0
1074,4180001162735,新規,0,2024-08-02,2024-08-02,株式会社Ｔｉａｎ,,株式会社,愛知県,名古屋市港区,九番町３丁目３番地３,,23,111,4550008,,,,,,,2024-08-02,1,,,,,チアン,0
1100,4240001063646,新規,0,2024-08-02,2024-08-02,株式会社ＬａｕｒｅｌＬｉｆｅ,,株式会社,広島県,広島市中区,吉島東３丁目１番１３号第１住田マンション１０１号室,,34,101,7300822,,,,,,,2024-08-02,1,,,,,ローレルライフ,0
1106,4260001039322,新規,0,2024-08-02,2024-08-02,株式会社Ｐｅｒｃｅｐｔ,,株式会社,岡山県,岡山市北区,中山下１丁目１１番１５号新田第１ビル４０２,,33,101,7000821,,,,,,,2024-08-02,1,,,,,パーセプト,0
1108,4270001009019,新規,0,2024-08-02,2024-08-02,株式会社椿原,,株式会社,鳥取県,米子市,米原９丁目９番２２号,,31,202,6830804,,,,,,,2024-08-02,1,,,,,ツバキハラ,0
1123,4310001019137,新規,0,2024-08-02,2024-08-02,株式会社Ｙｏｒａｔｔｏ,,株式会社,長崎県,長崎市,大黒町１０番１０号ＫｏＫｏＲｏビル６１４４号室,,42,201,8500057,,,,,,,2024-08-02,1,,,,,ヨラット,0
1127,4320001020639,新規,0,2024-08-02,2024-08-02,裕栄工業株式会社,,株式会社,大分県,大分市,大字猪野５８０番地の７,,44,201,8700134,,,,,,,2024-08-02,1,,,,,ユウエイコウギョウ,0
1128,4320003004433,新規,0,2024-08-02,2024-08-02,合同会社柴田りか二級建築士事務所,,合同会社,大分県,佐伯市,大字鶴望４９４５番地,,44,205,8760012,,,,,,,2024-08-02,1,,,,,シバタリカニキュウケンチクシジムショ,0
1129,4320003004441,新規,0,2024-08-02,2024-08-02,合同会社ＣＲＥＥＴＥ,,合同会社,大分県,臼杵市,大字藤河内２２９２番地の１,,44,206,8750081,,,,,,,2024-08-02,1,,,,,クリート,0
1130,4330001032294,新規,0,2024-08-02,2024-08-02,株式会社ぐっどらっく,,株式会社,熊本県,熊本市南区,城南町舞原５９番地８,,43,104,8614214,,,,,,,2024-08-02,1,,,,,グッドラック,0
1131,4330005010817,新規,0,2024-08-02,2024-08-02,一般社団法人くま川鉄道管理機構,,その他の設立登記法人,熊本県,球磨郡あさぎり町,免田東１７７４番地,,43,514,8680408,,,,,,,2024-08-02,1,,,,,クマガワテツドウカンリキコウ,0
1134,4340001026700,新規,0,2024-08-02,2024-08-02,株式会社ホームサポート,,株式会社,鹿児島県,鹿児島市,田上町４３４９－１,,46,201,8900035,,,,,,,2024-08-02,1,,,,,ホームサポート,0
1137,4340003004555,新規,0,2024-08-02,2024-08-02,ＲＤＦ合同会社,,合同会社,鹿児島県,西之表市,西之表１０４１０番地２,,46,213,8913101,,,,,,,2024-08-02,1,,,,,アールディーエフ,0
1142,4360005007083,新規,0,2024-08-02,2024-08-02,ＮＰＯ法人ＥＣＣＯＭ八重山,,その他の設立登記法人,沖縄県,石垣市,字大浜３３３番地１・４０６,,47,207,9070001,,,,,,,2024-08-02,1,,,,,エコムヤエヤマ,0
1144,4370003006697,新規,0,2024-08-02,2024-08-02,Ａ　ＪＡＰＡＮ合同会社,,合同会社,宮城県,仙台市青葉区,錦ケ丘３丁目８番地の２２,,04,101,9893123,,,,,,,2024-08-02,1,,,,,エージャパン,0
1155,4400001016744,新規,0,2024-08-02,2024-08-02,株式会社リペアサービス,,株式会社,岩手県,奥州市,前沢あすか通１丁目５番地１３,,03,215,0294209,,,,,,,2024-08-02,1,,,,,リペアサービス,0
1156,4410003003962,新規,0,2024-08-02,2024-08-02,合同会社ＥＹＥ‐ＯＳ,,合同会社,秋田県,秋田市,御所野地蔵田４丁目７番１６号,,05,201,0101413,,,,,,,2024-08-02,1,,,,,アイオーエス,0
1163,4430001092386,新規,0,2024-08-02,2024-08-02,株式会社大巧,,株式会社,北海道,苫小牧市,字錦岡１８２番地の３,,01,213,0591275,,,,,,,2024-08-02,1,,,,,ダイコウ,0
1169,4460103001639,新規,0,2024-08-02,2024-08-02,合同会社アドバンス,,合同会社,北海道,帯広市,西一条南１８丁目１３第２ＨＤＫビル５０１号室,,01,207,0800011,,,,,,,2024-08-02,1,,,,,アドバンス,0
1171,4470001020319,新規,0,2024-08-02,2024-08-02,株式会社リボーン・プラス１,,株式会社,香川県,観音寺市,観音寺町甲３１３０番地１,,37,205,7680060,,,,,,,2024-08-02,1,,,,,リボーンプラスワン,0
1176,4700150126644,新規,0,2024-08-02,2024-08-02,ｈａｉｎａｎｘｉｎｐｕｌａｓｈａｎｇｍａｏｙｏｕｘｉａｎｇｏｎｇｓｉ,,外国会社等,,,,,,,,ｈａｉ　ｎａｎ　ｓｈｅｎｇ　ｈａｉ　ｋｏｕ　ｓｈｉ　ｍｅｉ　ｌａｎ　ｑｕ　ｒｅｎ　ｍｉｎ　ｄａ　ｄａｏ　２６ｈａｏ　ｊｉ　ｘｉｎ　ｇｕａｎｇ　ｃｈａｎｇ　ｊｉ　ｘｉａｎｇ　ｇｅ　１０Ｃｓｈｉ　ｑｉ　ｆｕ　ｚｈｏｎｇ　ｃｈｕａｎｇ　ｋｏｎｇ　ｊｉａｎ　Ｄ０９ｈａｏ,,,,,,2024-08-02,1,,,,,ハイナンシンプーラーシヤンマオヨウシエンゴンスー,0
1177,4700150126652,新規,0,2024-08-02,2024-08-02,ＲＡＮＤＥＷＡ　ＥＮＴＥＲＰＲＩＳＥＳ,,外国会社等,神奈川県,藤沢市,葛原１４０－１７,,14,205,2520822,スリランカ民主社会主義共和国ピラスサ、マダワ、ラクスミワテュタ,,,,,,2024-08-02,1,,,,,ランデワエンタープライセス,0
1187,5010001247072,新規,0,2024-08-02,2024-08-02,株式会社Ｂｒｏｃａ,,株式会社,東京都,文京区,本郷６丁目２５番１４号,,13,105,1130033,,,,,,,2024-08-02,1,,,,,ブローカ,0
1188,5010001247089,新規,0,2024-08-02,2024-08-02,株式会社ＨＵＢ,,株式会社,東京都,中央区,築地２丁目１２番１６号ＥＡＳＴ・ＧＩＮＺＡビル４Ｆ,,13,102,1040045,,,,,,,2024-08-02,1,,,,,ハブ,0
1190,5010003044344,新規,0,2024-08-02,2024-08-02,ＬＥＶＥＣＨＹファンド１８号合同会社,,合同会社,東京都,千代田区,紀尾井町３－８第２紀尾井町ビル９０１アクシス綜合会計事務所内,,13,101,1020094,,,,,,,2024-08-02,1,,,,,レベチーファンドジュウハチゴウ,0
1191,5010003044492,新規,0,2024-08-02,2024-08-02,合同会社Ｅマネジメント,,合同会社,東京都,千代田区,大手町２丁目１番１号,,13,101,1000004,,,,,,,2024-08-02,1,,,,,イーマネジメント,0
1199,5010401184031,新規,0,2024-08-02,2024-08-02,株式会社Ｓｕｎ,,株式会社,東京都,港区,高輪２丁目１４－２０高輪フラッツ１０４号室,,13,103,1080074,,,,,,,2024-08-02,1,,,,,サン,0
1200,5010401184122,新規,0,2024-08-02,2024-08-02,株式会社３６９ｐｏｎ,,株式会社,東京都,港区,六本木３丁目１３番１０号ＫＯＤＡビル地下１階,,13,103,1060032,,,,,,,2024-08-02,1,,,,,ミルクポン,0
1201,5010401184163,新規,0,2024-08-02,2024-08-02,株式会社ＥＴＥＲＮＡＬ　ＡＧＥＮＣＹ,,株式会社,東京都,港区,赤坂４丁目８番１９号赤坂フロントタウン３階,,13,103,1070052,,,,,,,2024-08-02,1,,,,,エターナルエージェンシー,0
1202,5010401184188,新規,0,2024-08-02,2024-08-02,株式会社ＯＭＥＧＡ　ＤＩＭＥＮＳＩＯＮ,,株式会社,東京都,港区,南青山３丁目１番３６号青山丸竹ビル６Ｆ,,13,103,1070062,,,,,,,2024-08-02,1,,,,,,0
1213,5010601065626,新規,0,2024-08-02,2024-08-02,株式会社新島嶼出版社,,株式会社,東京都,江東区,三好４丁目６－１８ラサール１ビル４０１号,,13,108,1350022,,,,,,,2024-08-02,1,,,,,シントウショシュッパンシャ,0
1214,5010601065659,新規,0,2024-08-02,2024-08-02,株式会社Ｏｈｙａ　Ｐｒｏｄｕｃｔｉｏｎ,,株式会社,東京都,江東区,平野２丁目１１番５－９０３号,,13,108,1350023,,,,,,,2024-08-02,1,,,,,オーヤプロダクション,0
1215,5010601065675,新規,0,2024-08-02,2024-08-02,株式会社ＵＮＡＧＩ,,株式会社,東京都,墨田区,京島１丁目３５番９－２２０４号,,13,107,1310046,,,,,,,2024-08-02,1,,,,,ウナギ,0
1216,5010603011009,新規,0,2024-08-02,2024-08-02,合同会社Ｑｕｏｋｋａ　Ｊａｐａｎ,,合同会社,東京都,江東区,猿江１丁目２１―３―２０５,,13,108,1350003,,,,,,,2024-08-02,1,,,,,クオッカジャパン,0
1222,5010803005041,新規,0,2024-08-02,2024-08-02,ｔｕ　ｃｈｒｏｍｅ　ｖｉｅ合同会社,,合同会社,東京都,大田区,大森南１丁目２２番１１号,,13,111,1430013,,,,,,,2024-08-02,1,,,,,テュクロムヴィ,0
1225,5011001163862,新規,0,2024-08-02,2024-08-02,株式会社目黒物産,,株式会社,東京都,目黒区,碑文谷２丁目９‐２リリー１０４,,13,110,1520003,,,,,,,2024-08-02,1,,,,,メグロブッサン,0
1238,5011401026314,新規,0,2024-08-02,2024-08-02,株式会社鈴丸,,株式会社,東京都,板橋区,中板橋２５番９号Ｍｉｓｏｎｏ１Ｆ,,13,119,1730016,,,,,,,2024-08-02,1,,,,,スズマル,0
1241,5011601027946,新規,0,2024-08-02,2024-08-02,株式会社Ｆｒｏｅｖｏ,,株式会社,東京都,練馬区,春日町３丁目１２番１３号,,13,120,1790074,,,,,,,2024-08-02,1,,,,,フロエボ,0
1242,5011603004407,新規,0,2024-08-02,2024-08-02,ｇｒａｓｓ合同会社,,合同会社,東京都,練馬区,旭町１丁目３４－１１,,13,120,1790071,,,,,,,2024-08-02,1,,,,,グラス,0
1243,5011603004415,新規,0,2024-08-02,2024-08-02,合同会社山口,,合同会社,東京都,練馬区,関町北１丁目１０番１７号,,13,120,1770051,,,,,,,2024-08-02,1,,,,,ヤマグチ,0
1247,5011803006376,新規,0,2024-08-02,2024-08-02,ＴＨマネジメント合同会社,,合同会社,東京都,葛飾区,堀切４丁目２８－４,,13,122,1240006,,,,,,,2024-08-02,1,,,,,ティーエイチマネジメント,0
1254,5012401042152,新規,0,2024-08-02,2024-08-02,株式会社ポストテック,,株式会社,東京都,武蔵野市,御殿山２丁目１７番１３号御殿山ハウスＡ１０１,,13,203,1800005,,,,,,,2024-08-02,1,,,,,ポストテック,0
1255,5012405005023,新規,0,2024-08-02,2024-08-02,ＰＬＡＴＨＯＭＥ労働者協同組合,,その他の設立登記法人,東京都,狛江市,東野川４丁目９－１１,,13,219,2010002,,,,,,,2024-08-02,1,,,,,プラットホーム,0
1256,5012703003059,新規,0,2024-08-02,2024-08-02,合同会社プラアティット,,合同会社,東京都,西東京市,下保谷３丁目７－２５,,13,229,2020004,,,,,,,2024-08-02,1,,,,,プラアティット,0
1257,5012801023371,新規,0,2024-08-02,2024-08-02,株式会社Ｃａｓｕａｌｌｙ,,株式会社,東京都,日野市,神明１丁目６番地の２０,,13,212,1910016,,,,,,,2024-08-02,1,,,,,カジュアリー,0
1268,5020001158302,新規,0,2024-08-02,2024-08-02,株式会社スペースツリー,,株式会社,神奈川県,横浜市戸塚区,上品濃１３番２１号,,14,110,2440806,,,,,,,2024-08-02,1,,,,,スペースツリー,0
1270,5020003026564,新規,0,2024-08-02,2024-08-02,ＡｓＨＩ合同会社,,合同会社,神奈川県,横浜市鶴見区,鶴見中央１丁目３１番２２－１８０８号,,14,101,2300051,,,,,,,2024-08-02,1,,,,,アシ,0
1274,5021001082830,新規,0,2024-08-02,2024-08-02,株式会社和久田産業,,株式会社,神奈川県,相模原市緑区,橋本６丁目２番２－２７０６号,,14,151,2520143,,,,,,,2024-08-02,1,,,,,ワクタサンギョウ,0
1280,5021003014848,新規,0,2024-08-02,2024-08-02,合同会社コーシンテクノ,,合同会社,神奈川県,藤沢市,稲荷１丁目９－１４－１２,,14,205,2510862,,,,,,,2024-08-02,1,,,,,コーシンテクノ,0
1288,5030001161734,新規,0,2024-08-02,2024-08-02,Ｌｉｎｏ　Ｃｒｅａｔｅ株式会社,,株式会社,埼玉県,越谷市,神明町３丁目２５６番地３,,11,222,3430805,,,,,,,2024-08-02,1,,,,,リノクリエイト,0
1289,5030001161742,新規,0,2024-08-02,2024-08-02,Ｏｌｄ　Ｖｉｌｌａｇｅ株式会社,,株式会社,埼玉県,さいたま市中央区,鈴谷４丁目１６－５－Ｃ１０１,,11,105,3380013,,,,,,,2024-08-02,1,,,,,オールドビレッジ,0
1290,5030001161767,新規,0,2024-08-02,2024-08-02,株式会社ｖｉａｎｅ,,株式会社,埼玉県,さいたま市大宮区,仲町３丁目１１８番地宮下ビル２Ｆ,,11,103,3300845,,,,,,,2024-08-02,1,,,,,ヴィアナ,0
1294,5030003024823,新規,0,2024-08-02,2024-08-02,Ａｍｂｉｔｉｏｎ合同会社,,合同会社,埼玉県,熊谷市,下奈良４４８番地２,,11,202,3600802,,,,,,,2024-08-02,1,,,,,アンビション,0
1295,5030003024831,新規,0,2024-08-02,2024-08-02,正和建設合同会社,,合同会社,埼玉県,越谷市,大字南荻島３８０３番地４,,11,222,3430804,,,,,,,2024-08-02,1,,,,,セイワケンセツ,0
1299,5040001134458,新規,0,2024-08-02,2024-08-02,株式会社ビーバー,,株式会社,千葉県,印旛郡酒々井町,酒々井１６５５－３（セリエＫ１０１）,,12,322,2850927,,,,,,,2024-08-02,1,,,,,ビーバー,0
1300,5040001134747,新規,0,2024-08-02,2024-08-02,同和株式会社,,株式会社,千葉県,千葉市若葉区,野呂町７８７番地ニューオオタニ１０１,,12,104,2650053,,,,,,,2024-08-02,1,,,,,ドウワ,0
1301,5040001134788,新規,0,2024-08-02,2024-08-02,株式会社リングッド,,株式会社,千葉県,千葉市緑区,誉田町２丁目２４番地２３誉田セントラルビレッジ５０１号,,12,105,2660005,,,,,,,2024-08-02,1,,,,,リングッド,0
1302,5040001134805,新規,0,2024-08-02,2024-08-02,ケーエン株式会社,,株式会社,千葉県,柏市,柏２２７番地１４,,12,217,2770005,,,,,,,2024-08-02,1,,,,,ケーエン,0
1305,5040003025507,新規,0,2024-08-02,2024-08-02,合同会社藤拓,,合同会社,千葉県,千葉市中央区,南町２丁目１８番１６号,,12,101,2600842,,,,,,,2024-08-02,1,,,,,トウタク,0
1306,5040003025523,新規,0,2024-08-02,2024-08-02,合同会社カインドライト,,合同会社,千葉県,千葉市若葉区,大宮町２３４４番地３,,12,104,2640016,,,,,,,2024-08-02,1,,,,,カインドライト,0
1309,5050001055158,新規,0,2024-08-02,2024-08-02,株式会社Ｙ．Ｓ．Ｋ,,株式会社,茨城県,古河市,長左エ門新田９３７番地８,,08,204,3060103,,,,,,,2024-08-02,1,,,,,ワイエスケー,0
1320,5060003005176,新規,0,2024-08-02,2024-08-02,リコス合同会社,,合同会社,栃木県,小山市,犬塚８丁目１６番地１６クレメントＡ２０２,,09,208,3230811,,,,,,,2024-08-02,1,,,,,リコス,0
1330,5090003002609,新規,0,2024-08-02,2024-08-02,合同会社ＬＥＡＳＡ,,合同会社,山梨県,山梨市,大野５２７番地３,,19,205,4050016,,,,,,,2024-08-02,1,,,,,リアザー,0
1332,5100001037695,新規,0,2024-08-02,2024-08-02,株式会社やまいちファーム,,株式会社,長野県,長野市,篠ノ井会２７７番地,,20,201,3888004,,,,,,,2024-08-02,1,,,,,ヤマイチファーム,0
1343,5120001267258,新規,0,2024-08-02,2024-08-02,株式会社ＴＥＡＭ　ＲＡＰｉＳ,,株式会社,大阪府,大阪市西区,北堀江１丁目６番８号５階,,27,106,5500014,,,,,,,2024-08-02,1,,,,,チームラピス,0
1344,5120001267274,新規,0,2024-08-02,2024-08-02,株式会社Ｌｅｇｒｏ,,株式会社,大阪府,大阪市福島区,鷺洲２丁目１０番５号－１０１号,,27,103,5530002,,,,,,,2024-08-02,1,,,,,レグロ,0
1345,5120001267308,新規,0,2024-08-02,2024-08-02,株式会社アーバンリビルド,,株式会社,大阪府,大阪市北区,東天満２丁目９番４号千代田ビル東館７階７３４号,,27,127,5300044,,,,,,,2024-08-02,1,,,,,アーバンリビルド,0
1349,5120003027156,新規,0,2024-08-02,2024-08-02,合同会社エスポワール,,合同会社,大阪府,大阪市浪速区,戎本町１丁目６番１１－４０１号,,27,111,5560013,,,,,,,2024-08-02,1,,,,,エスポワール,0
1350,5120003027164,新規,0,2024-08-02,2024-08-02,ＦＩＹＡ３ＤＣＧ合同会社,,合同会社,大阪府,大阪市北区,梅田１丁目１‐３大阪駅前第３ビル２９階１‐１‐１号室,,27,127,5300001,,,,,,,2024-08-02,1,,,,,フィヤスリーディーシージー,0
1351,5120003027189,新規,0,2024-08-02,2024-08-02,カムイコーポレーション合同会社,,合同会社,大阪府,門真市,北巣本町３１－１８,,27,223,5710073,,,,,,,2024-08-02,1,,,,,カムイコーポレーション,0
1353,5120005024473,新規,0,2024-08-02,2024-08-02,ミライ税理士法人,,その他の設立登記法人,大阪府,大阪市中央区,谷町１丁目３番１９号,,27,128,5400012,,,,,,,2024-08-02,1,,,,,ミライ,0
1354,5120101070082,新規,0,2024-08-02,2024-08-02,株式会社ＲＫＲ,,株式会社,大阪府,羽曳野市,野７７番地１リーアルマンション４０１号,,27,222,5830884,,,,,,,2024-08-02,1,,,,,アールケイアール,0
1356,5120105009894,新規,0,2024-08-02,2024-08-02,一般社団法人日本テニス共創協会,,その他の設立登記法人,大阪府,堺市北区,北花田町２丁５１番地,,27,146,5918002,,,,,,,2024-08-02,1,,,,,ニホンテニスキョウソウキョウカイ,0
1358,5120903005293,新規,0,2024-08-02,2024-08-02,Ａｔ．Ｔｒａｃｙ合同会社,,合同会社,大阪府,高槻市,松が丘２丁目２７番２号,,27,207,5691031,,,,,,,2024-08-02,1,,,,,アットトレイシィ,0
1360,5122001038317,新規,0,2024-08-02,2024-08-02,株式会社Ｒｅ．ｍｕｓｅ,,株式会社,大阪府,八尾市,北本町４丁目９番１８号,,27,212,5810802,,,,,,,2024-08-02,1,,,,,リミューズ,0
1362,5122003002956,新規,0,2024-08-02,2024-08-02,合同会社ＳＣＨＡＴＴＥＮ,,合同会社,大阪府,大東市,三箇１丁目２２番１４号,,27,218,5740077,,,,,,,2024-08-02,1,,,,,シャッテン,0
1367,5130001077565,新規,0,2024-08-02,2024-08-02,株式会社ＭＡＴＳＵＲＩ,,株式会社,京都府,京都市上京区,下丸屋町４９９エースコート下立売２０９号室,,26,102,6020000,,,,,,,2024-08-02,1,,,,,マツリ,0
1368,5130001077581,新規,0,2024-08-02,2024-08-02,匠心株式会社,,株式会社,京都府,京都市右京区,太秦安井馬塚町１８ハルモニア１０２号室,00135780,26,108,6168077,,,,,,,2024-08-02,1,,,,,ショウシン,0
1371,5130005017154,新規,0,2024-08-02,2024-08-02,一般社団法人日本アサーション協会,,その他の設立登記法人,京都府,京都市下京区,四条通室町東入函谷鉾町１０１アーバンネット四条烏丸ビル６Ｆ,,26,106,6008009,,,,,,,2024-08-02,1,,,,,ニホンアサーションキョウカイ,0
1376,5140001135322,新規,0,2024-08-02,2024-08-02,株式会社ＩＮＯＫＥＹ,,株式会社,兵庫県,小野市,大島町３９６番地の２,,28,218,6751334,,,,,,,2024-08-02,1,,,,,イノキー,0
1377,5140001135347,新規,0,2024-08-02,2024-08-02,株式会社ＳＴＥＬＬＡ,,株式会社,兵庫県,神戸市東灘区,岡本１丁目６番１４号,,28,101,6580072,,,,,,,2024-08-02,1,,,,,ステラ,0
1378,5140001135388,新規,0,2024-08-02,2024-08-02,株式会社おけや,,株式会社,兵庫県,三木市,大村７１１番地,,28,215,6730404,,,,,,,2024-08-02,1,,,,,オケヤ,0
1379,5140003020893,新規,0,2024-08-02,2024-08-02,合同会社ＦＲＩＥＤＥＮＡＵ,,合同会社,兵庫県,神戸市中央区,八幡通４丁目２番１２号カサベラＦＲＩＩビル１０階,00135774,28,110,6510085,,,,,,,2024-08-02,1,,,,,フリーデナウ,0
1380,5140003020927,新規,0,2024-08-02,2024-08-02,合同会社ＳＡＰＩＥＮＳ,,合同会社,兵庫県,尼崎市,西昆陽２丁目４０番４－１０６号,,28,202,6610047,,,,,,,2024-08-02,1,,,,,サピエンス,0
1381,5150001027469,新規,0,2024-08-02,2024-08-02,株式会社ＹＡＧＹＵ,,株式会社,奈良県,大和郡山市,北鍛冶町２２番地,,29,203,6391165,,,,,,,2024-08-02,1,,,,,ヤギュウ,0
1382,5150001027477,新規,0,2024-08-02,2024-08-02,株式会社ベストスペース,,株式会社,奈良県,橿原市,石原田町２２５番地の１３,,29,205,6340014,,,,,,,2024-08-02,1,,,,,ベストスペース,0
1383,5150003003328,新規,0,2024-08-02,2024-08-02,Ａ　ｐｌｕｓ合同会社,,合同会社,奈良県,天理市,岩室町２１３番地,,29,204,6320076,,,,,,,2024-08-02,1,,,,,エープラス,0
1385,5160005011328,新規,0,2024-08-02,2024-08-02,一般社団法人ＯＬＥＡ,,その他の設立登記法人,滋賀県,彦根市,大藪町２７４－３１,,25,202,5220053,,,,,,,2024-08-02,1,,,,,オレア,0
1396,5180001162569,新規,0,2024-08-02,2024-08-02,宏盛源株式会社,,株式会社,愛知県,稲沢市,一色下方町３６０番地,,23,220,4928365,,,,,,,2024-08-02,1,,,,,コウセイゲン,0
1397,5180001162610,新規,0,2024-08-02,2024-08-02,エン株式会社,,株式会社,愛知県,名古屋市瑞穂区,明前町１０番９号,,23,108,4670852,,,,,,,2024-08-02,1,,,,,エン,0
1398,5180001162619,新規,0,2024-08-02,2024-08-02,株式会社福吉海産,,株式会社,愛知県,知多郡南知多町,大字豊浜字新居１１番地の１,,23,445,4703412,,,,,,,2024-08-02,1,,,,,フクヨシカイサン,0
1399,5180001162643,新規,0,2024-08-02,2024-08-02,ヒューマングロース株式会社,,株式会社,愛知県,名古屋市中区,錦１丁目４－１６ＫＤＸ日銀前ビル６階,,23,106,4600003,,,,,,,2024-08-02,1,,,,,ヒューマングロース,0
1400,5180001162684,新規,0,2024-08-02,2024-08-02,株式会社幸明,,株式会社,愛知県,名古屋市天白区,島田黒石６１１番地,,23,116,4680028,,,,,,,2024-08-02,1,,,,,コウメイ,0
1404,5180003027134,新規,0,2024-08-02,2024-08-02,Ｎｅｗ．ＬＩＦＥ　Ｇｒｏｕｐ合同会社,,合同会社,愛知県,名古屋市中村区,名駅４丁目２４番５号第２森ビル４０１,,23,105,4500002,,,,,,,2024-08-02,1,,,,,ニューライフグループ,0
1411,5180301038898,新規,0,2024-08-02,2024-08-02,出雲殿ホールディングス株式会社,,株式会社,愛知県,豊田市,小坂本町２丁目４３番地１,,23,211,4710034,,,,,,,2024-08-02,1,,,,,イズモデンホールディングス,0
1412,5180301038907,新規,0,2024-08-02,2024-08-02,株式会社Ｎ‐ＨＡＰＰＩＮＥＳ,,株式会社,愛知県,豊川市,松久町１丁目５０番地１,,23,207,4420874,,,,,,,2024-08-02,1,,,,,エヌハピネス,0
1413,5180301038923,新規,0,2024-08-02,2024-08-02,株式会社トリイホールディングス,,株式会社,愛知県,安城市,安城町西広畔９５番地,,23,212,4460026,,,,,,,2024-08-02,1,,,,,トリイホールディングス,0
1416,5180305009598,新規,0,2024-08-02,2024-08-02,Ｓ　Ｄｅ‐ＳＩＧＮ税理士法人,,その他の設立登記法人,愛知県,豊川市,小田渕町下垂５７，５８合併番地,,23,207,4420844,,,,,,,2024-08-02,1,,,,,エスデザイン,0
1424,5230001020473,新規,0,2024-08-02,2024-08-02,アクアワークス株式会社,,株式会社,富山県,魚津市,道坂４５５番地,,16,204,9370031,,,,,,,2024-08-02,1,,,,,アクアワークス,0
1435,5260003004835,新規,0,2024-08-02,2024-08-02,合同会社Ｔａｔｕｙａ,,合同会社,岡山県,玉野市,槌ケ原１０９９番地５,,33,204,7060141,,,,,,,2024-08-02,1,,,,,タツヤ,0
1444,5290801030757,新規,0,2024-08-02,2024-08-02,株式会社ホワイトヴィスタ,,株式会社,福岡県,北九州市八幡西区,下上津役２丁目１８番３９号,,40,109,8070075,,,,,,,2024-08-02,1,,,,,ホワイトヴィスタ,0
1456,5320001020646,新規,0,2024-08-02,2024-08-02,株式会社町屋,,株式会社,大分県,由布市,湯布院町川北７７０番地４,,44,213,8795114,,,,,,,2024-08-02,1,,,,,マチヤ,0
1457,5330001032302,新規,0,2024-08-02,2024-08-02,株式会社ａｍｉｎｏｅｌ　ｂｅａｕｔｙ　ａｃａｄｅｍｙ,,株式会社,熊本県,熊本市中央区,新大江１丁目１７番２０－６０２号,,43,101,8620972,,,,,,,2024-08-02,1,,,,,アミノエルビューティーアカデミー,0
1458,5330001032310,新規,0,2024-08-02,2024-08-02,株式会社とりたつ,,株式会社,熊本県,熊本市中央区,黒髪５丁目２番２７号,,43,101,8600862,,,,,,,2024-08-02,1,,,,,トリタツ,0
1459,5330003010512,新規,0,2024-08-02,2024-08-02,合同会社セルフケアセラピイ,,合同会社,熊本県,上益城郡益城町,大字宮園６１９番地１２,,43,443,8612241,,,,,,,2024-08-02,1,,,,,セルフケアセラピイ,0
1463,5360001034015,新規,0,2024-08-02,2024-08-02,株式会社ＴＡＩＲＩＮ,,株式会社,沖縄県,浦添市,伊祖２丁目５番８号,,47,208,9012132,,,,,,,2024-08-02,1,,,,,タイリン,0
1469,5370001051570,新規,0,2024-08-02,2024-08-02,株式会社Ｎ‐Ｓｔｙｌｅ,,株式会社,宮城県,黒川郡大和町,吉岡字車東１４番地,,04,421,9813621,,,,,,,2024-08-02,1,,,,,エヌスタイル,0
1470,5370001051579,新規,0,2024-08-02,2024-08-02,株式会社リアルハッピー,,株式会社,宮城県,仙台市宮城野区,宮城野１丁目１２番７号２Ｆ,,04,102,9830045,,,,,,,2024-08-02,1,,,,,リアルハッピー,0
1471,5370001051587,新規,0,2024-08-02,2024-08-02,株式会社一粒喜,,株式会社,宮城県,栗原市,志波姫刈敷治郎２０８番地,,04,213,9895601,,,,,,,2024-08-02,1,,,,,イッキ,0
1475,5370003006705,新規,0,2024-08-02,2024-08-02,アイテラス合同会社,,合同会社,宮城県,塩竈市,梅の宮１番２２号,,04,203,9850077,,,,,,,2024-08-02,1,,,,,アイテラス,0
1479,5380001034698,新規,0,2024-08-02,2024-08-02,株式会社ＮＥＷ　ＡＩＲ,,株式会社,福島県,郡山市,喜久田町字赤沼向３番地の１４,,07,203,9630551,,,,,,,2024-08-02,1,,,,,ニューエアー,0
1484,5410001013896,新規,0,2024-08-02,2024-08-02,株式会社ｉｃｈｉｅ,,株式会社,秋田県,雄勝郡羽後町,床舞字新処５０番地１,,05,463,0121133,,,,,,,2024-08-02,1,,,,,イチエ,0
1487,5430001092352,新規,0,2024-08-02,2024-08-02,Ｆｌｕｆｆｙ　Ｓｅｅｄ株式会社,,株式会社,北海道,札幌市中央区,南一条西１６丁目１番地３２３春野ビル３Ｆ,,01,101,0600061,,,,,,,2024-08-02,1,,,,,フラッフィーシード,0
1491,5430005015037,新規,0,2024-08-02,2024-08-02,特定非営利活動法人Ｎｏｒｔｈ　ＯＵＴＤＯＯＲ　ｃｏｎｎｅｃｔ野窓,,その他の設立登記法人,北海道,勇払郡安平町,遠浅７１１番地７,,01,585,0591433,,,,,,,2024-08-02,1,,,,,ノースアウトドアコネクトノマド,0
1497,5700150057038,新規,0,2024-08-02,2015-10-09,日本労働組合総連合会　愛媛県連合会,,その他,愛媛県,松山市,宮田町１３２－１四国ろうきん松山ビル内,,38,201,7900066,,,,,,,2015-10-09,1,,,,,ニツポンロウドウクミアイソウレンゴウカイエヒメケンレンゴウカイ,0
1498,5700150126643,新規,0,2024-08-02,2024-08-02,Ｚｈｏｎｇｓｈａｎ　Ｔｏｎｇｈｏｎｇ　Ｈｏｍｅ　Ａｐｐｌｉａｎｃｅｓ　Ｃｏ．，Ｌｔｄ,,外国会社等,,,,,,,,ｚｈｏｎｇ　ｓｈａｎ　ｓｈｉ　ｈｕｏ　ｊｕ　ｋａｉ　ｆａ　ｑｕ　ｊｉａｎｇ　ｌｉｎｇ　ｘｉ　ｌｕ　２ｈａｏ　４ｚｈｕａｎｇ　５ｃｅｎｇ　Ｂｑｕ　４４９,,,,,,2024-08-02,1,,,,,ジヨンシヤントンホンジヤーヨンデイエンチーヨウシエンゴンスー,0
1507,6010001247047,新規,0,2024-08-02,2024-08-02,株式会社ストックバリューズ,,株式会社,東京都,中央区,日本橋２丁目１番３号,,13,102,1030027,,,,,,,2024-08-02,1,,,,,ストックバリューズ,0
1508,6010001247096,新規,0,2024-08-02,2024-08-02,株式会社ＢＥ　ＹＯＵ,,株式会社,東京都,中央区,銀座１丁目２２番１１号銀座大竹ビジデンス２Ｆ,,13,102,1040061,,,,,,,2024-08-02,1,,,,,ビィユー,0
1509,6010001247204,新規,0,2024-08-02,2024-08-02,トパーズ・リージョナル１Ｃ株式会社,,株式会社,東京都,千代田区,有楽町１丁目７番１号有楽町電気ビルヂング北館８階,,13,101,1000006,,,,,,,2024-08-02,1,,,,,トパーズリージョナルイチシー,0
1514,6010003044343,新規,0,2024-08-02,2024-08-02,ＬＥＶＥＣＨＹファンド１７号合同会社,,合同会社,東京都,千代田区,紀尾井町３－８第２紀尾井町ビル９０１アクシス綜合会計事務所内,,13,101,1020094,,,,,,,2024-08-02,1,,,,,レベチーファンドジュウナナゴウ,0
1515,6010003044491,新規,0,2024-08-02,2024-08-02,合同会社クリーンエナジー１号,,合同会社,東京都,中央区,湊１丁目１４番１９号５階,,13,102,1040043,,,,,,,2024-08-02,1,,,,,クリーンエナジーイチゴウ,0
1516,6010003044500,新規,0,2024-08-02,2024-08-02,合同会社東京優春サービス,,合同会社,東京都,文京区,小石川１丁目５番１－２７１４号,,13,105,1120002,,,,,,,2024-08-02,1,,,,,トウキョウユウシュンサービス,0
1517,6010003044517,新規,0,2024-08-02,2024-08-02,Ｂｏｌｄ　Ｃａｐｉｔａｌ合同会社,,合同会社,東京都,中央区,銀座２丁目１０番８号マニエラ銀座ビル４階,,13,102,1040061,,,,,,,2024-08-02,1,,,,,ボールドキャピタル,0
1518,6010003044525,新規,0,2024-08-02,2024-08-02,Ａｄａ東東京１‐３合同会社,,合同会社,東京都,中央区,八重洲２丁目２番１号,,13,102,1040028,,,,,,,2024-08-02,1,,,,,エイダヒガシトウキョウイチノサン,0
1527,6010401184138,新規,0,2024-08-02,2024-08-02,株式会社キイロテントウ,,株式会社,東京都,港区,浜松町２丁目４－１－１７Ｆ,,13,103,1050013,,,,,,,2024-08-02,1,,,,,キイロテントウ,0
1528,6010401184146,新規,0,2024-08-02,2024-08-02,Ｍｅｔａｌｉｔｈ　Ｃａｐｉｔａｌ　Ｇｒｏｕｐ株式会社,,株式会社,東京都,港区,元麻布３丁目２番２０号,,13,103,1060046,,,,,,,2024-08-02,1,,,,,メタリスキャピタルグループ,0
1529,6010401184162,新規,0,2024-08-02,2024-08-02,株式会社Ｃｌｉｖｉａ,,株式会社,東京都,港区,麻布十番２丁目１２番４号,,13,103,1060045,,,,,,,2024-08-02,1,,,,,クリビア,0
1530,6010401184179,新規,0,2024-08-02,2024-08-02,ＲｅＺｅａｒｌ株式会社,,株式会社,東京都,港区,北青山１丁目３番１号アールキューブ青山３階,,13,103,1070061,,,,,,,2024-08-02,1,,,,,リゼアール,0
1531,6010401184212,新規,0,2024-08-02,2024-08-02,株式会社薫,,株式会社,東京都,港区,南青山３丁目１番３６号青山丸竹ビル６Ｆ,,13,103,1070062,,,,,,,2024-08-02,1,,,,,カオリ,0
1538,6010601065690,新規,0,2024-08-02,2024-08-02,清淙株式会社,,株式会社,東京都,江東区,扇橋１丁目２番９号２０２室,,13,108,1350011,,,,,,,2024-08-02,1,,,,,セイソウ,0
1539,6010603011008,新規,0,2024-08-02,2024-08-02,合同会社あんずどう,,合同会社,東京都,墨田区,江東橋１丁目１４番４号第二井野ビル１階,,13,107,1300022,,,,,,,2024-08-02,1,,,,,アンズドウ,0
1542,6010901055730,新規,0,2024-08-02,2024-08-02,株式会社ホヌカンパニー,,株式会社,東京都,世田谷区,桜３丁目２番１０号桜クリーンキャッスル,,13,112,1560053,,,,,,,2024-08-02,1,,,,,ホヌカンパニー,0
1545,6011001163853,新規,0,2024-08-02,2024-08-02,株式会社ＢｕｌｌＶａｌｌｅｙ,,株式会社,東京都,渋谷区,幡ヶ谷３丁目３９番１２号渋谷ウェストビル１階,,13,113,1510072,,,,,,,2024-08-02,1,,,,,ブルバレー,0
1568,6011601027961,新規,0,2024-08-02,2024-08-02,新川開発株式会社,,株式会社,東京都,練馬区,上石神井４丁目１１－１５,,13,120,1770044,,,,,,,2024-08-02,1,,,,,ニイカワカイハツ,0
1574,6011801044625,新規,0,2024-08-02,2024-08-02,株式会社ＴＯＫＩＴＳＵＫＡＺＥ,,株式会社,東京都,足立区,西竹の塚２丁目６番２号２Ｆ,,13,121,1210822,,,,,,,2024-08-02,1,,,,,トキツカゼ,0
1587,6020001158292,新規,0,2024-08-02,2024-08-02,株式会社渡田,,株式会社,神奈川県,横浜市神奈川区,金港町５－１４クアドリフォリオ８階,,14,102,2210056,,,,,,,2024-08-02,1,,,,,ワタリダ,0
1588,6020001158301,新規,0,2024-08-02,2024-08-02,アベリアン株式会社,,株式会社,神奈川県,横浜市神奈川区,片倉４丁目５番８－１０６号,,14,102,2210865,,,,,,,2024-08-02,1,,,,,アベリアン,0
1589,6020001158417,新規,0,2024-08-02,2024-08-02,といろ株式会社,,株式会社,神奈川県,横浜市磯子区,岡村２丁目９番１１号,,14,107,2350021,,,,,,,2024-08-02,1,,,,,トイロ,0
1590,6020001158490,新規,0,2024-08-02,2024-08-02,株式会社のんびり,,株式会社,神奈川県,横浜市港北区,大曽根１丁目２０番２号,,14,109,2220003,,,,,,,2024-08-02,1,,,,,ノンビリ,0
1592,6021001082870,新規,0,2024-08-02,2024-08-02,株式会社タキガワアンドアソシエイツ,,株式会社,神奈川県,鎌倉市,梶原３丁目８番１４－２号,,14,204,2470063,,,,,,,2024-08-02,1,,,,,タキガワアンドアソシエイツ,0
1602,6030001161667,新規,0,2024-08-02,2024-08-02,トモテック株式会社,,株式会社,埼玉県,吉川市,大字川藤５４４番地２,,11,243,3420005,,,,,,,2024-08-02,1,,,,,トモテック,0
1603,6030001161691,新規,0,2024-08-02,2024-08-02,株式会社ゼッエムキュ,,株式会社,埼玉県,志木市,柏町４丁目７番７号,,11,228,3530007,,,,,,,2024-08-02,1,,,,,ゼッエムキュ,0
1604,6030001161700,新規,0,2024-08-02,2024-08-02,株式会社蔵一,,株式会社,埼玉県,川口市,大字安行原１９５３番地の３,,11,203,3340057,,,,,,,2024-08-02,1,,,,,クライチ,0
1605,6030001161717,新規,0,2024-08-02,2024-08-02,株式会社スプレイド,,株式会社,埼玉県,春日部市,中央１丁目１０番地１２,,11,214,3440067,,,,,,,2024-08-02,1,,,,,スプレイド,0
1607,6030003024822,新規,0,2024-08-02,2024-08-02,スクワット合同会社,,合同会社,埼玉県,桶川市,鴨川１丁目８番１３号ライオンズマンション桶川５０２号,,11,231,3630024,,,,,,,2024-08-02,1,,,,,スクワット,0
1608,6030003024830,新規,0,2024-08-02,2024-08-02,合同会社ミル,,合同会社,埼玉県,さいたま市緑区,東浦和４丁目１番地２５ＥＸビルＩＩＩ（２０１号室）,00135777,11,109,3360926,,,,,,,2024-08-02,1,,,,,ミル,0
1609,6030003024839,新規,0,2024-08-02,2024-08-02,合同会社ＶＥＲＴＥＸ,,合同会社,埼玉県,川口市,差間２丁目２－１７ユートピア２０２,,11,203,3330816,,,,,,,2024-08-02,1,,,,,ヴァーテックス,0
1610,6030003024847,新規,0,2024-08-02,2024-08-02,合同会社ＫｉｎｇＢｏｂ,,合同会社,埼玉県,川越市,大字藤間１０６５番地１プリンシパル１０２号室,,11,201,3501142,,,,,,,2024-08-02,1,,,,,キングボブ,0
1611,6030003024855,新規,0,2024-08-02,2024-08-02,ＣＡＢＡＮＡ　ＪＡＰＡＮ合同会社,,合同会社,埼玉県,草加市,中根２丁目１１－４０サンハイツ２０５,,11,221,3400005,,,,,,,2024-08-02,1,,,,,カバナジャパン,0
1619,6040001134738,新規,0,2024-08-02,2024-08-02,徳川株式会社,00135779,株式会社,千葉県,大網白里市,みずほ台１丁目１５番地４,,12,239,2993234,,,,,,,2024-08-02,1,,,,,トクガワ,0
1620,6040001134779,新規,0,2024-08-02,2024-08-02,株式会社ａｔｅｌｉｅｒ　Ｆ,,株式会社,千葉県,千葉市稲毛区,長沼原町３１７番地１ヴィルフォーレ稲毛４番館８０２号,,12,103,2630001,,,,,,,2024-08-02,1,,,,,アトリエエフ,0
1621,6040001134804,新規,0,2024-08-02,2024-08-02,株式会社Ｉ’ｍ　Ｃ,,株式会社,千葉県,市川市,堀之内３丁目１７－２８リバティーヒル弐番館,,12,203,2720837,,,,,,,2024-08-02,1,,,,,アイムシー,0
1629,6040003025448,新規,0,2024-08-02,2024-08-02,合同会社ＧＡＩＤＯ,,合同会社,千葉県,八街市,富山１３４４－２３,,12,230,2891141,,,,,,,2024-08-02,1,,,,,ガイド,0
1630,6040003025522,新規,0,2024-08-02,2024-08-02,合同会社Ｈｚ,,合同会社,千葉県,船橋市,八木が谷３丁目１１－３－２,,12,204,2740802,,,,,,,2024-08-02,1,,,,,ヘルツ,0
1632,6050001055165,新規,0,2024-08-02,2024-08-02,小口総業株式会社,,株式会社,茨城県,つくば市,下河原崎３６９番地,,08,220,3002662,,,,,,,2024-08-02,1,,,,,コグチソウギョウ,0
1637,6060001037344,新規,0,2024-08-02,2024-08-02,株式会社ルート,,株式会社,栃木県,下野市,小金井１丁目３４－７,,09,216,3290414,,,,,,,2024-08-02,1,,,,,ルート,0
1641,6060003005175,新規,0,2024-08-02,2024-08-02,合同会社カケザンメディカル,,合同会社,栃木県,宇都宮市,下戸祭１丁目１２番７号サンハイツ大渕ＩＩ３０７,00135791,09,201,3200055,,,,,,,2024-08-02,1,,,,,カケザンメディカル,0
1646,6070005010305,新規,0,2024-08-02,2024-08-02,群馬セキュリティ協同組合,,その他の設立登記法人,群馬県,渋川市,半田１８９２番地－Ａ,,10,208,3770004,,,,,,,2024-08-02,1,,,,,,0
1650,6080101024934,新規,0,2024-08-02,2024-08-02,株式会社ｗｈｉｔｅ　ｒａｖｅｎ,,株式会社,静岡県,沼津市,下香貫石原１３１７、２Ｆ,,22,203,4100822,,,,,,,2024-08-02,1,,,,,ホワイトレイヴン,0
1652,6080401027348,新規,0,2024-08-02,2024-08-02,株式会社ジアスモータース,,株式会社,静岡県,磐田市,寺谷８４４番地,,22,211,4380006,,,,,,,2024-08-02,1,,,,,ジアスモータース,0
1653,6080401027364,新規,0,2024-08-02,2024-08-02,株式会社伊藤商店,,株式会社,静岡県,浜松市中央区,葵東２丁目６番１２号,,22,138,4338114,,,,,,,2024-08-02,1,,,,,イトウショウテン,0
1658,6100003007679,新規,0,2024-08-02,2024-08-02,合同会社ＨＩＳＴＯＩＲＥ,,合同会社,長野県,小諸市,大字滋野甲３６５７番地３,,20,208,3840809,,,,,,,2024-08-02,1,,,,,イストワール,0
1664,6120001267208,新規,0,2024-08-02,2024-08-02,奈光株式会社,,株式会社,大阪府,大阪市阿倍野区,松崎町２丁目１－２８近鉄松崎町ビル３Ｆ１６号室,,27,119,5450053,,,,,,,2024-08-02,1,,,,,ナコウ,0
1665,6120001267240,新規,0,2024-08-02,2024-08-02,Ｂｅｌｌｅ　ｖｉｅ株式会社,,株式会社,大阪府,大阪市東成区,大今里南２丁目６番１２号４Ｆ,,27,115,5370013,,,,,,,2024-08-02,1,,,,,ベルヴィー,0
1666,6120001267315,新規,0,2024-08-02,2024-08-02,Ｊｅｎｎｅ株式会社,,株式会社,大阪府,大阪市北区,中之島６丁目１番３８－１１０３号,,27,127,5300005,,,,,,,2024-08-02,1,,,,,ジェンヌ,0
1667,6120001267380,新規,0,2024-08-02,2024-08-02,株式会社ＭＯＮＴＩＣＯＲＡ,,株式会社,大阪府,大阪市中央区,平野町１丁目６番６－４０４号,,27,128,5410046,,,,,,,2024-08-02,1,,,,,モンティコラ,0
1668,6120001267397,新規,0,2024-08-02,2024-08-02,日昇株式会社,,株式会社,大阪府,大阪市浪速区,日本橋５丁目７番１８号浪速区五丁目ビル４階,,27,111,5560005,,,,,,,2024-08-02,1,,,,,ニッショウ,0
1669,6120001267414,新規,0,2024-08-02,2024-08-02,株式会社ＨｉｇｈｅｒＡｄｓ,,株式会社,大阪府,大阪市生野区,生野西２丁目１－３３Ｒｅ：ＺＯＮＥ天王寺寺田町０１－３０３号室,,27,116,5440024,,,,,,,2024-08-02,1,,,,,ハイヤーアズ,0
1670,6120001267422,新規,0,2024-08-02,2024-08-02,株式会社Ｓｏｕｔｈａｎｄ　Ｖｉｏｌｉｎ,,株式会社,大阪府,大阪市北区,豊崎３丁目３番１４号豊崎ビル,,27,127,5310072,,,,,,,2024-08-02,1,,,,,サウザンドバイオリン,0
1671,6120001267439,新規,0,2024-08-02,2024-08-02,ＳＴＡＲＲＹ　ＨＯＬＤＩＮＧ株式会社,,株式会社,大阪府,大阪市港区,田中１丁目１３－５,,27,107,5520005,,,,,,,2024-08-02,1,,,,,スターリーホールディング,0
1673,6120003027171,新規,0,2024-08-02,2024-08-02,Ｂｅｌｌ．Ｓｔｏｒｅ合同会社,,合同会社,大阪府,大阪市浪速区,幸町２丁目２番４０号グラスホッパー２０１,,27,111,5560021,,,,,,,2024-08-02,1,,,,,ベルドットストア,0
1674,6120005024464,新規,0,2024-08-02,2024-08-02,一般社団法人エステサロンオーナーズ協会,,その他の設立登記法人,大阪府,大阪市平野区,加美鞍作１丁目１１－９ガーデンハイツ加美Ａ棟１１０２号室,,27,126,5470004,,,,,,,2024-08-02,1,,,,,エステサロンオーナーズキョウカイ,0
1675,6120005024472,新規,0,2024-08-02,2024-08-02,一般社団法人経営対話推進機構,,その他の設立登記法人,大阪府,大阪市城東区,蒲生１丁目１２番５号,,27,118,5360016,,,,,,,2024-08-02,1,,,,,ケイエイタイワスイシンキコウ,0
1681,6122001038340,新規,0,2024-08-02,2024-08-02,株式会社Ａｒｒｉｖａｌ,,株式会社,大阪府,東大阪市,衣摺４丁目３番１２号ストレリチアジャンセア２０２,,27,227,5770827,,,,,,,2024-08-02,1,,,,,アライバル,0
1688,6130001077580,新規,0,2024-08-02,2024-08-02,中和株式会社,,株式会社,京都府,京都市中京区,壬生森前町１４－３和家ビル２０１室,,26,104,6048831,,,,,,,2024-08-02,1,,,,,チュウワ,0
1694,6140001135288,新規,0,2024-08-02,2024-08-02,株式会社創美社,,株式会社,兵庫県,川西市,けやき坂４丁目２３番地の５,,28,217,6660145,,,,,,,2024-08-02,1,,,,,ソウビシャ,0
1695,6140001135346,新規,0,2024-08-02,2024-08-02,米谷クリエイト株式会社,,株式会社,兵庫県,宝塚市,米谷１丁目３番１９号,,28,214,6650831,,,,,,,2024-08-02,1,,,,,マイタニクリエイト,0
1696,6140001135362,新規,0,2024-08-02,2024-08-02,キングアソシエイト株式会社,,株式会社,兵庫県,尼崎市,南武庫之荘６丁目３番２５－１号,,28,202,6610033,,,,,,,2024-08-02,1,,,,,キングアソシエイト,0
1697,6140001135370,新規,0,2024-08-02,2024-08-02,株式会社ＡＫ会計企画,,株式会社,兵庫県,川西市,花屋敷１丁目７番３号,,28,217,6660035,,,,,,,2024-08-02,1,,,,,エーケーカイケイキカク,0
1698,6140001135429,新規,0,2024-08-02,2024-08-02,ＮＯＤＯ株式会社,,株式会社,兵庫県,神戸市中央区,波止場町６番８号篠崎倉庫２Ｆ－Ａ,,28,110,6500042,,,,,,,2024-08-02,1,,,,,ノード,0
1701,6140003020892,新規,0,2024-08-02,2024-08-02,合同会社ＭＣｏｎｎｅｃｔ,,合同会社,兵庫県,神戸市中央区,山本通３丁目１４番８号,,28,110,6500003,,,,,,,2024-08-02,1,,,,,エムコネクト,0
1702,6150001027468,新規,0,2024-08-02,2024-08-02,株式会社森田ソリューションワークス,,株式会社,奈良県,奈良市,油阪町４５６番地第２森田ビル４Ｆ,,29,201,6308247,,,,,,,2024-08-02,1,,,,,モリタソリューションワークス,0
1703,6160001026130,新規,0,2024-08-02,2024-08-02,株式会社ＬＩＮＫ　ＣＯＮＮＥＣＴ,,株式会社,滋賀県,彦根市,後三条町６０８番地３,,25,202,5220086,,,,,,,2024-08-02,1,,,,,リンクコネクト,0
1705,6170003002087,新規,0,2024-08-02,2024-08-02,合同会社ＵＲＡＮＵＳ,,合同会社,和歌山県,田辺市,明洋３丁目２１番７号,,30,206,6460062,,,,,,,2024-08-02,1,,,,,ウラヌス,0
1714,6180001162584,新規,0,2024-08-02,2024-08-02,株式会社素意,,株式会社,愛知県,大府市,北崎町４丁目２０９番地の５,,23,223,4740002,,,,,,,2024-08-02,1,,,,,ソイ,0
1715,6180001162626,新規,0,2024-08-02,2024-08-02,株式会社ｔｏＧｏ,,株式会社,愛知県,名古屋市中川区,富田町大字千音寺字市場下屋敷３８４０番地の２ラシーネカメリア１０２号,,23,110,4540971,,,,,,,2024-08-02,1,,,,,トウゴウ,0
1716,6180001162675,新規,0,2024-08-02,2024-08-02,株式会社ＲＡＫＵ,,株式会社,愛知県,名古屋市天白区,元植田３丁目１１１０番地の１,,23,116,4680009,,,,,,,2024-08-02,1,,,,,ラク,0
1718,6180003027133,新規,0,2024-08-02,2024-08-02,犬山ファーム合同会社,,合同会社,愛知県,犬山市,大字木津字池ノ上４０２番地１,,23,215,4840079,,,,,,,2024-08-02,1,,,,,イヌヤマファーム,0
1723,6180303006209,新規,0,2024-08-02,2024-08-02,ＰＯＲＵ合同会社,,合同会社,愛知県,額田郡幸田町,大字芦谷字福田１４４番地,,23,501,4440116,,,,,,,2024-08-02,1,,,,,ポル,0
1727,6190001031540,新規,0,2024-08-02,2024-08-02,株式会社ＫＳＫ,,株式会社,三重県,三重郡川越町,大字当新田３７９番地１サンプレイスＭＡ棟１０１,,24,344,5108111,,,,,,,2024-08-02,1,,,,,ケーエスケー,0
1728,6200001042775,新規,0,2024-08-02,2024-08-02,株式会社ＳＹホールディングス,,株式会社,岐阜県,羽島市,正木町曲利３４番地１,,21,209,5016227,,,,,,,2024-08-02,1,,,,,エスワイホールディングス,0
1732,6220003003807,新規,0,2024-08-02,2024-08-02,合同会社ＣＬＣＯ,,合同会社,石川県,金沢市,浅野本町２丁目２２番６号,,17,201,9200841,,,,,,,2024-08-02,1,,,,,クルコ,0
1734,6230003002262,新規,0,2024-08-02,2024-08-02,合同会社亜美,,合同会社,富山県,高岡市,常国２２５１,,16,202,9391251,,,,,,,2024-08-02,1,,,,,ツグミ,0
1737,6240001063636,新規,0,2024-08-02,2024-08-02,株式会社ＹＳ,,株式会社,広島県,広島市安佐北区,可部３丁目３９番３１号,,34,106,7310221,,,,,,,2024-08-02,1,,,,,ワイエス,0
1738,6240001063652,新規,0,2024-08-02,2024-08-02,株式会社ベルストラード,,株式会社,広島県,広島市中区,上八丁堀８番２８－２５０３号,,34,101,7300012,,,,,,,2024-08-02,1,,,,,ベルストラード,0
1741,6250003003548,新規,0,2024-08-02,2024-08-02,合同会社ＥＮＩＳＨＩ,,合同会社,山口県,周南市,藤ヶ台１丁目３番３号,,35,215,7450618,,,,,,,2024-08-02,1,,,,,エニシ,0
1745,6260001039320,新規,0,2024-08-02,2024-08-02,株式会社ＴＡＤ,,株式会社,岡山県,岡山市中区,円山２１６番地の６５,,33,102,7038271,,,,,,,2024-08-02,1,,,,,ティーエーディー,0
1746,6260001039329,新規,0,2024-08-02,2024-08-02,株式会社Ｒｅａｌｉｚｅ,,株式会社,岡山県,赤磐市,桜が丘東３丁目３番地５９１,,33,213,7090721,,,,,,,2024-08-02,1,,,,,リアライズ,0
1752,6290005019456,新規,0,2024-08-02,2024-08-02,さくら行政書士法人,,その他の設立登記法人,福岡県,福岡市南区,塩原３丁目８番２８号ケイエスビル２階,,40,134,8150032,,,,,,,2024-08-02,1,,,,,サクラ,0
1759,6310001019143,新規,0,2024-08-02,2024-08-02,株式会社ブルーテラス,,株式会社,長崎県,諫早市,森山町田尻１９６０番地,,42,204,8540204,,,,,,,2024-08-02,1,,,,,,0
1762,6330001032301,新規,0,2024-08-02,2024-08-02,株式会社ｍｏｍｅｎｔ,,株式会社,熊本県,熊本市東区,下江津２丁目５番４６号,,43,102,8620960,,,,,,,2024-08-02,1,,,,,モーメント,0
1763,6330003010503,新規,0,2024-08-02,2024-08-02,合同会社ＭＯＴＯＤＡ　ＤＥＳＩＧＮ,,合同会社,熊本県,玉名市,玉名２５７番地１,,43,206,8650005,,,,,,,2024-08-02,1,,,,,モトダデザイン,0
1769,6360001033998,新規,0,2024-08-02,2024-08-02,アルク株式会社,,株式会社,沖縄県,沖縄市,仲宗根町２－１－２Ｆ,,47,211,9040014,,,,,,,2024-08-02,1,,,,,アルク,0
1770,6360001034039,新規,0,2024-08-02,2024-08-02,株式会社スリールデザイン,,株式会社,沖縄県,中頭郡読谷村,字高志保１２７６番地１,,47,324,9040323,,,,,,,2024-08-02,1,,,,,スリールデザイン,0
1774,6380003005829,新規,0,2024-08-02,2024-08-02,合同会社ＨＩＣ,,合同会社,福島県,郡山市,字大名艮１番地の７プレミスト郡山ＳｔａｔｉｏｎＣｒｏｓｓ４０５号,,07,203,9638007,,,,,,,2024-08-02,1,,,,,エイチアイシー,0
1775,6400001016742,新規,0,2024-08-02,2024-08-02,株式会社ｆｌｏｗ,,株式会社,岩手県,盛岡市,永井２０地割１番地７,,03,201,0200834,,,,,,,2024-08-02,1,,,,,フロー,0
1781,6410001013895,新規,0,2024-08-02,2024-08-02,株式会社ＨＡＬ,,株式会社,秋田県,仙北市,角館町田町上丁５２番地１,,05,215,0140311,,,,,,,2024-08-02,1,,,,,ハル,0
1783,6420003002961,新規,0,2024-08-02,2024-08-02,合同会社テロワール,,合同会社,青森県,むつ市,小川町１丁目１３番１号,,02,208,0350071,,,,,,,2024-08-02,1,,,,,テロワール,0
1785,6430001092376,新規,0,2024-08-02,2024-08-02,株式会社優特不動産,,株式会社,北海道,札幌市中央区,南一条西１１丁目３２７番地６ワンズ南一条ビル３Ｆ,,01,101,0600061,,,,,,,2024-08-02,1,,,,,ユウトクフドウサン,0
1786,6430001092418,新規,0,2024-08-02,2024-08-02,南北商事株式会社,,株式会社,北海道,虻田郡倶知安町,北一条西１丁目１番地１０,,01,400,0440051,,,,,,,2024-08-02,1,,,,,ナンボクショウジ,0
1790,6430005015044,新規,0,2024-08-02,2024-08-02,社会保険労務士法人まっちん,,その他の設立登記法人,北海道,余市郡余市町,大川町６丁目９２番６号ラ・トゥールにれの木通り４０７号,,01,408,0460004,,,,,,,2024-08-02,1,,,,,マッチン,0
1791,6450001014378,新規,0,2024-08-02,2024-08-02,株式会社藤本車体,,株式会社,北海道,旭川市,神居七条２丁目２番１７号,,01,204,0708017,,,,,,,2024-08-02,1,,,,,フジモトシャタイ,0
1792,6450005004417,新規,0,2024-08-02,2024-08-02,一般社団法人ふとひらく,,その他の設立登記法人,北海道,上川郡下川町,北町１８２番地,,01,468,0981212,,,,,,,2024-08-02,1,,,,,フトヒラク,0
1795,6470001020317,新規,0,2024-08-02,2024-08-02,株式会社Ｎｅｔｗｏｒｋ‐Ｐｒｉｍｅｒ,,株式会社,香川県,高松市,春日町片田１６４２番地１,,37,201,7610101,,,,,,,2024-08-02,1,,,,,ネットワークプライマー,0
1796,6470001020325,新規,0,2024-08-02,2024-08-02,株式会社公絆工業,,株式会社,香川県,高松市,香西西町３４２番地１,,37,201,7618015,,,,,,,2024-08-02,1,,,,,コウキコウギョウ,0
1799,6480003002163,新規,0,2024-08-02,2024-08-02,合同会社カルマー,,合同会社,徳島県,板野郡北島町,北村字三町地６０番地２,,36,402,7710201,,,,,,,2024-08-02,1,,,,,カルマー,0
1801,6700150126642,新規,0,2024-08-02,2024-08-02,Ｚｈｕ　Ｈａｉ　Ｚｈｅｎ　Ｓｈｉ　Ｄａ　Ｋｅ　Ｊｉ　Ｙｏｕ　Ｘｉａｎ　Ｇｏｎｇ　Ｓｉ,,外国会社等,,,,,,,,ｚｈｕ　ｈａｉ　ｓｈｉ　ｇａｏ　ｘｉｎ　ｑｕ　ｔａｎｇ　ｊｉａ　ｗａｎ　ｚｈｅｎ　ｑｉｎｇ　１　ｂｅｉ　ｌｕ　３８８８ｈａｏ　５０１－０７－０２４ｈａｏ（ｊｉ　ｚｈｏｎｇ　ｂａｎ　ｇｏｎｇ　ｑｕ）,,,,,,2024-08-02,1,,,,,ジユーハイジエンシーダーコージーヨウシエンゴンスー,0
1802,6700150126650,新規,0,2024-08-02,2024-08-02,ＡＴ　ＰＡＲＴＮＥＲ　ＧＰ　ＩＩＩ　Ｃｏ．,00135714,外国会社等,,,,,,,,１９０　Ｅｌｇｉｎ　Ａｖｅｎｕｅ，Ｇｅｏｒｇｅ　Ｔｏｗｎ，Ｇｒａｎｄ　Ｃａｙｍａｎ　ＫＹ１－９００８，Ｃａｙｍａｎ　Ｉｓｌａｎｄｓ,,,,,,2024-08-02,1,,,,,エーテイパートナーズジーピースリーコーポレーシヨン,0
1808,7010001246956,新規,0,2024-08-02,2024-08-02,日京恒楷株式会社,,株式会社,東京都,中央区,日本橋室町１丁目１１番１２号日本橋水野ビル７階,,13,102,1030022,,,,,,,2024-08-02,1,,,,,ニッケイコウカイ,0
1809,7010001247070,新規,0,2024-08-02,2024-08-02,ティエラソフト株式会社,,株式会社,東京都,千代田区,神田佐久間町１丁目８番４号アルテール秋葉原７０８,,13,101,1010025,,,,,,,2024-08-02,1,,,,,ティエラソフト,0
1810,7010001247104,新規,0,2024-08-02,2024-08-02,株式会社ＡＴ,,株式会社,東京都,中央区,銀座１丁目２２番１１号,,13,102,1040061,,,,,,,2024-08-02,1,,,,,エーティー,0
1816,7010003044342,新規,0,2024-08-02,2024-08-02,ＬＥＶＥＣＨＹファンド１６号合同会社,,合同会社,東京都,千代田区,紀尾井町３－８第２紀尾井町ビル９０１アクシス綜合会計事務所内,,13,101,1020094,,,,,,,2024-08-02,1,,,,,レベチーファンドジュウロクゴウ,0
1817,7010003044524,新規,0,2024-08-02,2024-08-02,Ａｄａ東東京１‐２合同会社,,合同会社,東京都,中央区,八重洲２丁目２番１号,,13,102,1040028,,,,,,,2024-08-02,1,,,,,エイダヒガシトウキョウイチノニ,0
1825,7010401184145,新規,0,2024-08-02,2024-08-02,ＢＡＬＡＬＡＩＣＡ株式会社,,株式会社,東京都,港区,南青山６丁目１番３２号南青ハイツ６０４,,13,103,1070062,,,,,,,2024-08-02,1,,,,,バラライカ,0
1826,7010401184153,新規,0,2024-08-02,2024-08-02,株式会社ＡｘｉａＺコンサルティング,,株式会社,東京都,港区,麻布十番２丁目２０番７号ＢＩＲＴＨＷＯＲＫ麻布十番,,13,103,1060045,,,,,,,2024-08-02,1,,,,,アクシアズコンサルティング,0
1827,7010401184178,新規,0,2024-08-02,2024-08-02,株式会社ホスポート,,株式会社,東京都,港区,北青山３丁目１０番２号栄友ビル２０１,,13,103,1070061,,,,,,,2024-08-02,1,,,,,ホスポート,0
1828,7010401184203,新規,0,2024-08-02,2024-08-02,株式会社ｇｉｆｔｅｄ,,株式会社,東京都,港区,高輪４丁目２３番６－７０８号,,13,103,1080074,,,,,,,2024-08-02,1,,,,,ギフテッド,0
1829,7010401184302,新規,0,2024-08-02,2024-08-02,株式会社Ｚｉｌｌｉｏｎ　Ｔｅｃｈｎｏｌｏｇｙ,,株式会社,東京都,港区,虎ノ門１丁目１－２１虎ノ門実業会館新館５Ｆ,,13,103,1050001,,,,,,,2024-08-02,1,,,,,,0
1832,7010503007534,新規,0,2024-08-02,2024-08-02,セーフセットジャパン合同会社,,合同会社,東京都,台東区,浅草橋２丁目１７番２－３０２号,,13,106,1110053,,,,,,,2024-08-02,1,,,,,セーフセットジャパン,0
1835,7010603010999,新規,0,2024-08-02,2024-08-02,合同会社ＡＶＥＬＩコンサルティング,,合同会社,東京都,江東区,三好３丁目３番１６号セントヒルズ木場公園２０２,,13,108,1350022,,,,,,,2024-08-02,1,,,,,アベリーコンサルティング,0
1836,7010603011007,新規,0,2024-08-02,2024-08-02,常在洗浄合同会社,,合同会社,東京都,江東区,北砂６丁目２０番１９号プレミールノア５０１,,13,108,1360073,,,,,,,2024-08-02,1,,,,,ジョウザイセンジョウ,0
1848,7010901055738,新規,0,2024-08-02,2024-08-02,株式会社Ｆｏｒｃｅｍａｒｔ,,株式会社,東京都,世田谷区,北沢２丁目１１番１５号ミカン下北Ａ街区４階,,13,112,1550031,,,,,,,2024-08-02,1,,,,,フォースマート,0
1859,7011101108220,新規,0,2024-08-02,2024-08-02,株式会社Ｐ・ＡＬ,,株式会社,東京都,新宿区,新宿２丁目１２－１３号新宿アントレサロンビル,,13,104,1600022,,,,,,,2024-08-02,1,,,,,ピーエーエル,0
1860,7011101108253,新規,0,2024-08-02,2024-08-02,奥田ファシリティエンジニアリング株式会社,,株式会社,東京都,新宿区,高田馬場２丁目１７番３号,,13,104,1690075,,,,,,,2024-08-02,1,,,,,オクダファシリティエンジニアリング,0
1861,7011101108294,新規,0,2024-08-02,2024-08-02,Ａｎｇｅ株式会社,,株式会社,東京都,新宿区,歌舞伎町２丁目２５番１１号兼六第五ビル１Ｆ,,13,104,1600021,,,,,,,2024-08-02,1,,,,,アンジュ,0
1862,7011103014714,新規,0,2024-08-02,2024-08-02,合同会社ＰＲＯＳＴ,,合同会社,東京都,新宿区,歌舞伎町２丁目３－２１明治通りビル４０６,,13,104,1600021,,,,,,,2024-08-02,1,,,,,プロスト,0
1865,7011401026320,新規,0,2024-08-02,2024-08-02,桜和株式会社,,株式会社,東京都,板橋区,高島平８丁目１５番１０号パレット高島平４３３,,13,119,1750082,,,,,,,2024-08-02,1,,,,,オウワ,0
1873,7011803006374,新規,0,2024-08-02,2024-08-02,合同会社一徹工業,,合同会社,東京都,足立区,新田３丁目２番１６号グランドスクエア５０６,,13,121,1230865,,,,,,,2024-08-02,1,,,,,イッテツコウギョウ,0
1877,7012403006698,新規,0,2024-08-02,2024-08-02,ＴｒａｎｃｅＭｅｄ合同会社,,合同会社,東京都,調布市,菊野台２丁目５７番地３,,13,208,1820007,,,,,,,2024-08-02,1,,,,,トランスメッド,0
1878,7012405005021,新規,0,2024-08-02,2024-08-02,一般社団法人マザー・シーズ,,その他の設立登記法人,東京都,武蔵野市,緑町２丁目４番１２－４１６号,,13,203,1800012,,,,,,,2024-08-02,1,,,,,マザーシーズ,0
1890,7020001158283,新規,0,2024-08-02,2024-08-02,ｔｏｗａｌｉｓｔ株式会社,,株式会社,神奈川県,横浜市西区,高島２丁目１０－１３横浜東口ビル９Ｆ,,14,103,2200011,,,,,,,2024-08-02,1,,,,,トワリスト,0
1891,7020001158291,新規,0,2024-08-02,2024-08-02,株式会社アイシン,,株式会社,神奈川県,横浜市保土ケ谷区,桜ケ丘２丁目３番２２－２号,,14,106,2400011,,,,,,,2024-08-02,1,,,,,アイシン,0
1892,7020001158300,新規,0,2024-08-02,2024-08-02,ＡＵＴＯ　ＬＯＶＥＲＳ株式会社,,株式会社,神奈川県,川崎市高津区,久末５２１番地１６,,14,134,2130026,,,,,,,2024-08-02,1,,,,,オートラバーズ,0
1893,7020001158309,新規,0,2024-08-02,2024-08-02,ＳＡＫＵＲＡ　ＳＨＩＰＰＩＮＧ株式会社,,株式会社,神奈川県,横浜市西区,霞ケ丘６８番地２,,14,103,2200035,,,,,,,2024-08-02,1,,,,,サクラシッピング,0
1894,7020001158382,新規,0,2024-08-02,2024-08-02,株式会社ＸＴＥＲＲＡ,,株式会社,神奈川県,横浜市西区,一丁目４番３号ウィザードビル４０２,,14,103,2200000,,,,,,,2024-08-02,1,,,,,エクステラ,0
1898,7021001082829,新規,0,2024-08-02,2024-08-02,株式会社金龍,,株式会社,神奈川県,伊勢原市,上粕屋２７３番地の２秋山第２ハイツ１０５号,,14,214,2591141,,,,,,,2024-08-02,1,,,,,キンリュウ,0
1899,7021003014838,新規,0,2024-08-02,2024-08-02,メイブンワークス合同会社,,合同会社,神奈川県,茅ヶ崎市,東海岸南１丁目７番２号,,14,207,2530054,,,,,,,2024-08-02,1,,,,,メイブンワークス,0
1900,7021003014846,新規,0,2024-08-02,2024-08-02,Ｙ　ｉｎ　Ｔｏｋｙｏ合同会社,,合同会社,神奈川県,相模原市南区,上鶴間本町４丁目４３番２６号,,14,153,2520318,,,,,,,2024-08-02,1,,,,,ワイイントウキョウ,0
1906,7030001161658,新規,0,2024-08-02,2024-08-02,株式会社縁結び,,株式会社,埼玉県,白岡市,小久喜１１８５番地－１１,,11,246,3490217,,,,,,,2024-08-02,1,,,,,エンムスビ,0
1907,7030001161666,新規,0,2024-08-02,2024-08-02,株式会社ＺＥＮ,,株式会社,埼玉県,幸手市,大字円藤内３８９,,11,240,3400104,,,,,,,2024-08-02,1,,,,,ゼン,0
1908,7030001161690,新規,0,2024-08-02,2024-08-02,株式会社日想社,,株式会社,埼玉県,所沢市,小手指町５丁目２番地の１ヴィルヌーブ小手指７０４,,11,208,3591141,,,,,,,2024-08-02,1,,,,,ニッソウシャ,0
1909,7030001161716,新規,0,2024-08-02,2024-08-02,株式会社Ｇｒａｎｄｅｕｒ,,株式会社,埼玉県,さいたま市緑区,大字大間木１９６３番地３,,11,109,3360923,,,,,,,2024-08-02,1,,,,,グランディール,0
1916,7030003024838,新規,0,2024-08-02,2024-08-02,合同会社ＴＯＭＯＫＯ,,合同会社,埼玉県,川口市,大字東本郷１４９７番地の２１,,11,203,3340063,,,,,,,2024-08-02,1,,,,,トモコ,0
1917,7030003024862,新規,0,2024-08-02,2024-08-02,合同会社土田商事,,合同会社,埼玉県,越谷市,レイクタウン６丁目３５番地７ロイジェントパークスレイクタウンＩＩＩ－Ｈ２１０,00135776,11,222,3430828,,,,,,,2024-08-02,1,,,,,ツチダショウジ,0
1918,7030005021791,新規,0,2024-08-02,2024-08-02,一般社団法人ラフェスタエンターテイメント,,その他の設立登記法人,埼玉県,川越市,大字木野目１４３０番地２－２０３,,11,201,3500016,,,,,,,2024-08-02,1,,,,,ラフェスタエンターテイメント,0
1924,7040001134745,新規,0,2024-08-02,2024-08-02,株式会社ＢＥ　ＦＲＥＥ,,株式会社,千葉県,船橋市,習志野台２丁目２６番１１号メゾンセイコー２０１号,,12,204,2740063,,,,,,,2024-08-02,1,,,,,ビーフリー,0
1929,7040003025521,新規,0,2024-08-02,2024-08-02,ビクトリーメディカル合同会社,,合同会社,千葉県,千葉市中央区,新町４番地７クレインヒルズ２Ｆ,,12,101,2600028,,,,,,,2024-08-02,1,,,,,ビクトリーメディカル,0
1931,7050001055164,新規,0,2024-08-02,2024-08-02,株式会社テクサポ,,株式会社,茨城県,つくば市,台町２丁目１５番地９,,08,220,3050868,,,,,,,2024-08-02,1,,,,,テクサポ,0
1938,7060001037368,新規,0,2024-08-02,2024-08-02,ＳＢ．ＰＬＵＳ株式会社,,株式会社,栃木県,宇都宮市,陽東３丁目１８番３２号,,09,201,3210904,,,,,,,2024-08-02,1,,,,,エスビープラス,0
1940,7060003005182,新規,0,2024-08-02,2024-08-02,合同会社Ｂｒｉｇｈｔ,,合同会社,栃木県,宇都宮市,下栗町７５１番地６グリーンフォレスト５１０,,09,201,3210923,,,,,,,2024-08-02,1,,,,,ブライト,0
1942,7070001042029,新規,0,2024-08-02,2024-08-02,株式会社ＳＧＲ,,株式会社,群馬県,高崎市,下之城町１０１１番地６,,10,202,3700854,,,,,,,2024-08-02,1,,,,,エスジーアール,0
1943,7070001042045,新規,0,2024-08-02,2024-08-02,株式会社中島製作所,,株式会社,群馬県,前橋市,上細井町１９６５番地４,,10,201,3710051,,,,,,,2024-08-02,1,,,,,ナカジマセイサクジョ,0
1946,7070003005529,新規,0,2024-08-02,2024-08-02,合同会社はっとり,,合同会社,群馬県,太田市,石橋町８３３番地６,,10,205,3730007,,,,,,,2024-08-02,1,,,,,ハットリ,0
1952,7080401027355,新規,0,2024-08-02,2024-08-02,株式会社ｂｒａｎｃｈ,,株式会社,静岡県,浜松市中央区,肴町３１７番地の４,,22,138,4300932,,,,,,,2024-08-02,1,,,,,ブランチ,0
1953,7080401027363,新規,0,2024-08-02,2024-08-02,株式会社Ｋｏ・ｌｌｅｃｔ,,株式会社,静岡県,浜松市中央区,入野町９１５７番地の７松本ビル１Ｆ,,22,138,4328061,,,,,,,2024-08-02,1,,,,,コレクト,0
1957,7100001037693,新規,0,2024-08-02,2024-08-02,株式会社ＮＯＳＵ,,株式会社,長野県,佐久市,長土呂５１６番地１２,,20,217,3850021,,,,,,,2024-08-02,1,,,,,ノス,0
1958,7100003007678,新規,0,2024-08-02,2024-08-02,合同会社まると,,合同会社,長野県,松本市,大手３丁目３番９号ＮＴＴ東日本松本大名町ビル１Ｆ,,20,202,3900874,,,,,,,2024-08-02,1,,,,,マルト,0
1959,7100003007711,新規,0,2024-08-02,2024-08-02,合同会社久田利,,合同会社,長野県,上伊那郡宮田村,７８７６,,20,388,3994301,,,,,,,2024-08-02,1,,,,,クダリ,0
1983,7120001267108,新規,0,2024-08-02,2024-08-02,ＢＥ　ＫＯＢＥ株式会社,,株式会社,大阪府,大阪市浪速区,難波中３丁目９番３－３０４号,,27,111,5560011,,,,,,,2024-08-02,1,,,,,ビーコーベ,0
1984,7120001267248,新規,0,2024-08-02,2024-08-02,株式会社ＮｏＫａ,,株式会社,大阪府,大阪市東淀川区,下新庄６丁目１３番２６号,,27,114,5330021,,,,,,,2024-08-02,1,,,,,ノカ,0
1985,7120001267272,新規,0,2024-08-02,2024-08-02,株式会社ＬＯＴＵＳ,,株式会社,大阪府,大阪市中央区,日本橋１丁目１７番１７号ピカソ日本一ビル６０４号室,,27,128,5420073,,,,,,,2024-08-02,1,,,,,ロータス,0
1986,7120001267314,新規,0,2024-08-02,2024-08-02,株式会社ハービル,,株式会社,大阪府,枚方市,北中振３丁目１８番１２号中振３ライゼホビー１４,,27,210,5730064,,,,,,,2024-08-02,1,,,,,ハービル,0
1987,7120001267363,新規,0,2024-08-02,2024-08-02,金木株式会社,,株式会社,大阪府,大阪市浪速区,稲荷２丁目７－１５シティライフ・コム６０３号室,,27,111,5560023,,,,,,,2024-08-02,1,,,,,カネキ,0
1988,7120001267371,新規,0,2024-08-02,2024-08-02,ｊｔ　ｈｏｍｅ株式会社,,株式会社,大阪府,大阪市浪速区,日本橋東１丁目８番２号１階,,27,111,5560006,,,,,,,2024-08-02,1,,,,,ジェイティーホーム,0
1989,7120001267396,新規,0,2024-08-02,2024-08-02,富山株式会社,,株式会社,大阪府,大阪市港区,市岡２丁目２番４号,,27,107,5520012,,,,,,,2024-08-02,1,,,,,トヤマ,0
1990,7120001267405,新規,0,2024-08-02,2024-08-02,平川株式会社,,株式会社,大阪府,大阪市城東区,東中浜９丁目８番２６号１０３号室,,27,118,5360023,,,,,,,2024-08-02,1,,,,,ヒラカワ,0
1991,7120001267413,新規,0,2024-08-02,2024-08-02,大有株式会社,,株式会社,大阪府,大阪市中央区,本町３丁目３－９－９Ｆ,,27,128,5410053,,,,,,,2024-08-02,1,,,,,ダイユウ,0
1992,7120001267421,新規,0,2024-08-02,2024-08-02,株式会社ＷＥＬＬＶＩＳＩＯＮ,,株式会社,大阪府,大阪市北区,西天満４丁目１番１５号西天満内藤ビル６０２号,,27,127,5300047,,,,,,,2024-08-02,1,,,,,ウェルヴィジョン,0
1993,7120001267438,新規,0,2024-08-02,2024-08-02,株式会社ＲＡＹＶＥＮ,,株式会社,大阪府,枚方市,片鉾本町２６－７サンエース片鉾ビル３１０,,27,210,5731157,,,,,,,2024-08-02,1,,,,,レイブン,0
1994,7120001267446,新規,0,2024-08-02,2024-08-02,ブレイントラスト株式会社,,株式会社,大阪府,大阪市中央区,淡路町１丁目６番９号,,27,128,5410047,,,,,,,2024-08-02,1,,,,,ブレイントラスト,0
2003,7120103005992,新規,0,2024-08-02,2024-08-02,小緑興業合同会社,,合同会社,大阪府,堺市美原区,平尾２２２－１,,27,147,5870022,,,,,,,2024-08-02,1,,,,,コミドリコウギョウ,0
2005,7120903005291,新規,0,2024-08-02,2024-08-02,合同会社ＯＫＵＲＯ,,合同会社,大阪府,高槻市,松が丘３丁目１番８号,,27,207,5691031,,,,,,,2024-08-02,1,,,,,オクロ,0
2009,7122001038323,新規,0,2024-08-02,2024-08-02,株式会社ひまりか,,株式会社,大阪府,八尾市,佐堂町２丁目２番４４号,,27,212,5810816,,,,,,,2024-08-02,1,,,,,ヒマリカ,0
2010,7130001077588,新規,0,2024-08-02,2024-08-02,株式会社ＴＦ加工,,株式会社,京都府,京都市伏見区,横大路下三栖里ノ内１２４番５,,26,109,6128236,,,,,,,2024-08-02,1,,,,,ティーエフカコウ,0
2011,7130001077621,新規,0,2024-08-02,2024-08-02,株式会社尚建工業,,株式会社,京都府,京都市山科区,小山鎮守町２９－１０,,26,110,6078116,,,,,,,2024-08-02,1,,,,,ナオケンコウギョウ,0
2018,7140001135171,新規,0,2024-08-02,2024-08-02,エコベニ株式会社,,株式会社,兵庫県,神戸市北区,花山中尾台１丁目１４番地の８,,28,109,6511202,,,,,,,2024-08-02,1,,,,,エコベニ,0
2019,7140001135262,新規,0,2024-08-02,2024-08-02,株式会社ＬＩＡＮ,,株式会社,兵庫県,小野市,天神町１０４８番地の４,,28,218,6751316,,,,,,,2024-08-02,1,,,,,リアン,0
2020,7140001135386,新規,0,2024-08-02,2024-08-02,株式会社ｈＮＫ,,株式会社,兵庫県,明石市,桜町５－１０ヴェルビュ桜町４０７号室,,28,203,6730885,,,,,,,2024-08-02,1,,,,,エイチエヌケイ,0
2023,7140003020883,新規,0,2024-08-02,2024-08-02,合同会社ＡＬＴＥＮＡ,,合同会社,兵庫県,西宮市,上甲子園４丁目１１番１－５０５号,,28,204,6638114,,,,,,,2024-08-02,1,,,,,アルテナ,0
2024,7140003020891,新規,0,2024-08-02,2024-08-02,合同会社Ｋ．Ｓ．Ｆａｃｔｏｒｙ,,合同会社,兵庫県,西宮市,甲陽園日之出町６番４９－６０３号,,28,204,6620014,,,,,,,2024-08-02,1,,,,,ケイエスファクトリー,0
2025,7140003020900,新規,0,2024-08-02,2024-08-02,レイグロウ合同会社,,合同会社,兵庫県,伊丹市,荻野４丁目６８番地１,,28,207,6640002,,,,,,,2024-08-02,1,,,,,レイグロウ,0
2026,7140003020925,新規,0,2024-08-02,2024-08-02,合同会社ファインケア,,合同会社,兵庫県,明石市,二見町東二見２０２３－８,,28,203,6740092,,,,,,,2024-08-02,1,,,,,ファインケア,0
2037,7180001162583,新規,0,2024-08-02,2024-08-02,株式会社サワムラ電気工事,,株式会社,愛知県,名古屋市守山区,永森町２５４番地－１０３,,23,113,4630086,,,,,,,2024-08-02,1,,,,,サワムラデンキコウジ,0
2038,7180001162600,新規,0,2024-08-02,2024-08-02,株式会社ＡｓｔｒａｄＡ,,株式会社,愛知県,江南市,布袋町西５１番地,,23,217,4838237,,,,,,,2024-08-02,1,,,,,アストラーダ,0
2039,7180001162625,新規,0,2024-08-02,2024-08-02,株式会社アイマーカー,,株式会社,愛知県,名古屋市南区,豊田５丁目１５番３号宝マンションサザンスクエア弐番館１２８号,,23,112,4570841,,,,,,,2024-08-02,1,,,,,アイマーカー,0
2040,7180001162682,新規,0,2024-08-02,2024-08-02,株式会社ミューオフィス,,株式会社,愛知県,名古屋市西区,那古野１丁目３５番３号,,23,104,4510042,,,,,,,2024-08-02,1,,,,,ミューオフィス,0
2043,7180003027140,新規,0,2024-08-02,2024-08-02,合同会社ｈｙｋ,,合同会社,愛知県,名古屋市中区,葵１丁目２２－１４村上ビル２０１号,,23,106,4600006,,,,,,,2024-08-02,1,,,,,エイチワイケイ,0
2044,7180003027149,新規,0,2024-08-02,2024-08-02,Ｓｈｉａｗａｓｅ　ｂａｓｅ合同会社,,合同会社,愛知県,名古屋市瑞穂区,岳見町６丁目３５－３２,,23,108,4670043,,,,,,,2024-08-02,1,,,,,シアワセベース,0
2045,7180003027157,新規,0,2024-08-02,2024-08-02,合同会社ＴＡＴＵＫＩ,,合同会社,愛知県,春日井市,小野町１丁目７番地シャルムＢ２０１号,,23,206,4860926,,,,,,,2024-08-02,1,,,,,タツキ,0
2046,7180003027165,新規,0,2024-08-02,2024-08-02,合同会社ＳＲ,,合同会社,愛知県,名古屋市西区,名西２丁目３０番３号－１,,23,104,4510064,,,,,,,2024-08-02,1,,,,,エスアール,0
2048,7180005020721,新規,0,2024-08-02,2024-08-02,特定非営利活動法人タンポポ,,その他の設立登記法人,愛知県,名古屋市名東区,香流１丁目８１３番地,,23,115,4650005,,,,,,,2024-08-02,1,,,,,タンポポ,0
2053,7180303006208,新規,0,2024-08-02,2024-08-02,合同会社寅の子,,合同会社,愛知県,豊橋市,東岩田２丁目２２番地１０,,23,201,4400033,,,,,,,2024-08-02,1,,,,,トラノコ,0
2057,7220001026131,新規,0,2024-08-02,2024-08-02,小川産業株式会社,,株式会社,石川県,金沢市,北町乙６０番地１北町三和ビル４０１号,,17,201,9200055,,,,,,,2024-08-02,1,,,,,オガワサンギョウ,0
2058,7220001026148,新規,0,2024-08-02,2024-08-02,株式会社エバーテクノロジー,,株式会社,石川県,金沢市,寺地２丁目１５番５号,,17,201,9218178,,,,,,,2024-08-02,1,,,,,エバーテクノロジー,0
2063,7240001063635,新規,0,2024-08-02,2024-08-02,株式会社マリモソーシャルソリューションズ,,株式会社,広島県,広島市西区,庚午北１丁目１７番２３号,,34,104,7330821,,,,,,,2024-08-02,1,,,,,マリモソーシャルソリューションズ,0
2073,7290803004807,新規,0,2024-08-02,2024-08-02,合同会社Ｈ．ｃｒｅａｔｅ,,合同会社,福岡県,北九州市八幡西区,永犬丸３丁目１５番４－６０７号,,40,109,8070851,,,,,,,2024-08-02,1,,,,,エイチクリエイト,0
2074,7300001013848,新規,0,2024-08-02,2024-08-02,株式会社フロンティアＫ,,株式会社,佐賀県,伊万里市,二里町中里甲４６７番地１,,41,205,8480034,,,,,,,2024-08-02,1,,,,,フロンティアケイ,0
2078,7320001020636,新規,0,2024-08-02,2024-08-02,株式会社カズフジ,,株式会社,大分県,佐伯市,蒲江大字蒲江浦３９０５番地,,44,205,8762401,,,,,,,2024-08-02,1,,,,,カズフジ,0
2079,7320001020644,新規,0,2024-08-02,2024-08-02,大分リアルエステート株式会社,,株式会社,大分県,大分市,三川上３丁目３番３２号,,44,201,8700143,,,,,,,2024-08-02,1,,,,,オオイタリアルエステート,0
2081,7330003010502,新規,0,2024-08-02,2024-08-02,合同会社ＯｎｅＫｉｎｄ,,合同会社,熊本県,熊本市中央区,出水６丁目４３番８号,,43,101,8620941,,,,,,,2024-08-02,1,,,,,ワンカインド,0
2094,7370001051569,新規,0,2024-08-02,2024-08-02,株式会社コマツ屋,,株式会社,宮城県,気仙沼市,唐桑町上鮪立１５０番地１,,04,205,9880572,,,,,,,2024-08-02,1,,,,,コマツヤ,0
2105,7420003002960,新規,0,2024-08-02,2024-08-02,合同会社ＧＤＨＳ,,合同会社,青森県,弘前市,大字小比内２丁目１番地１,,02,202,0368102,,,,,,,2024-08-02,1,,,,,ジーディーエイチエス,0
2115,7430005015043,新規,0,2024-08-02,2024-08-02,一般社団法人オタモイ開発協議会,,その他の設立登記法人,北海道,小樽市,稲穂２丁目２２番１号,,01,203,0470032,,,,,,,2024-08-02,1,,,,,オタモイカイハツキョウギカイ,0
2120,7500001025781,新規,0,2024-08-02,2024-08-02,株式会社松山工装,,株式会社,愛媛県,松山市,堀江町甲１０６９番地７,,38,201,7992651,,,,,,,2024-08-02,1,,,,,マツヤマコウソウ,0
2123,7700150126641,新規,0,2024-08-02,2024-08-02,Ｓｈｉｎｓｅｎ　Ｉｎｖｅｓｔｍｅｎｔ　Ｈｏｌｄｉｎｇｓ　Ｌｉｍｉｔｅｄ,,外国会社等,,,,,,,,Ｗｉｃｋｈａｍｓ　Ｃａｙ　２，Ｒｏａｄ　Ｔｏｗｎ，Ｔｏｒｔｏｌａ，Ｂｒｉｔｉｓｈ　Ｖｉｒｇｉｎ　Ｉｓｌａｎｄｓ,,,,,,2024-08-02,1,,,,,シンセンインベストメントホールデイングスリミテツド,0
2133,8010001247012,新規,0,2024-08-02,2024-08-02,株式会社ＲＩＳＥ,,株式会社,東京都,中央区,日本橋兜町１７番１日本橋ロイヤルプラザ７０２,,13,102,1030026,,,,,,,2024-08-02,1,,,,,ライズ,0
2134,8010001247136,新規,0,2024-08-02,2024-08-02,株式会社イシン・ホテルズ・マネジメント,,株式会社,東京都,中央区,銀座１丁目２番３号,,13,102,1040061,,,,,,,2024-08-02,1,,,,,イシンホテルズマネジメント,0
2138,8010003044523,新規,0,2024-08-02,2024-08-02,Ａｄａ東東京１‐１合同会社,,合同会社,東京都,中央区,八重洲２丁目２番１号,,13,102,1040028,,,,,,,2024-08-02,1,,,,,エイダヒガシトウキョウイチノイチ,0
2139,8010003044531,新規,0,2024-08-02,2024-08-02,下厚崎ひかり蓄電合同会社,,合同会社,東京都,千代田区,丸の内１丁目４番１号東京共同会計事務所内,,13,101,1000005,,,,,,,2024-08-02,1,,,,,シモアツサキヒカリチクデン,0
2140,8010005038589,新規,0,2024-08-02,2024-08-02,赤坂東京パートナーズ税理士法人,,その他の設立登記法人,東京都,千代田区,有楽町１丁目１３番２号第一生命日比谷ファースト１２階,,13,101,1000006,,,,,,,2024-08-02,1,,,,,アカサカトウキョウパートナーズ,0
2152,8010401184136,新規,0,2024-08-02,2024-08-02,株式会社Ａｖｅｎｉｒｌ,,株式会社,東京都,港区,南青山３丁目１番３６号青山丸竹ビル６Ｆ,,13,103,1070062,,,,,,,2024-08-02,1,,,,,アヴェニール,0
2153,8010403033150,新規,0,2024-08-02,2024-08-02,グラン・シャリオ合同会社,,合同会社,東京都,港区,芝浦４丁目２２番１－２１１０号,,13,103,1080023,,,,,,,2024-08-02,1,,,,,グランシャリオ,0
2154,8010501052671,新規,0,2024-08-02,2024-08-02,株式会社カレカノ,,株式会社,東京都,台東区,松が谷１丁目１４番１０号Ｒｏｏｍ３２８－１０１,,13,106,1110036,,,,,,,2024-08-02,1,,,,,カレカノ,0
2156,8010503007533,新規,0,2024-08-02,2024-08-02,吉沢家合同会社,,合同会社,東京都,台東区,根岸４丁目８番２－８０１号スプレスター上野根岸,,13,106,1100003,,,,,,,2024-08-02,1,,,,,ヨシザワケ,0
2165,8010801035293,新規,0,2024-08-02,2024-08-02,株式会社ハール工業,,株式会社,東京都,大田区,大森南２丁目７番２１号,,13,111,1430013,,,,,,,2024-08-02,1,,,,,ハールコウギョウ,0
2167,8010901055737,新規,0,2024-08-02,2024-08-02,株式会社シュプール,,株式会社,東京都,世田谷区,下馬６丁目３１番１１号,,13,112,1540002,,,,,,,2024-08-02,1,,,,,シュプール,0
2174,8011001163827,新規,0,2024-08-02,2024-08-02,カイゼンカク株式会社,,株式会社,東京都,渋谷区,渋谷２丁目７－１４・ＶＯＲＴＡＯＹＡＭＡ・４０３,,13,113,1500002,,,,,,,2024-08-02,1,,,,,カイゼンカク,0
2175,8011001163843,新規,0,2024-08-02,2024-08-02,株式会社ＬａｄＣｒｅｓｔ,,株式会社,東京都,渋谷区,神宮前６丁目２３番４号桑野ビル２Ｆ,,13,113,1500001,,,,,,,2024-08-02,1,,,,,ラドクレスト,0
2176,8011003019754,新規,0,2024-08-02,2024-08-02,ライチ合同会社,,合同会社,東京都,渋谷区,猿楽町２６‐２ＳＡＲＵＧＡＫＵ・Ｃ棟Ｂ１Ｆ,,13,113,1500033,,,,,,,2024-08-02,1,,,,,ライチ,0
2182,8011101108285,新規,0,2024-08-02,2024-08-02,株式会社ウィナプス,,株式会社,東京都,新宿区,北新宿４丁目２０番２－２０３号,,13,104,1690074,,,,,,,2024-08-02,1,,,,,ウィナプス,0
2184,8011103014770,新規,0,2024-08-02,2024-08-02,Ａｓｈｌｅｙ合同会社,,合同会社,東京都,新宿区,新宿５丁目１２―１０デュオスカーラ新宿３０２,,13,104,1600022,,,,,,,2024-08-02,1,,,,,アシュリー,0
2185,8011201025686,新規,0,2024-08-02,2024-08-02,株式会社ＦｕｎＳｐａｒｋ,,株式会社,東京都,中野区,東中野１丁目１番２号プライマリービル３Ｆ,,13,114,1640003,,,,,,,2024-08-02,1,,,,,ファンスパーク,0
2186,8011201025694,新規,0,2024-08-02,2024-08-02,星辰科創株式会社,,株式会社,東京都,中野区,江古田４丁目３０番１９－１０９号,,13,114,1650022,,,,,,,2024-08-02,1,,,,,セイシンカソウ,0
2188,8011303005248,新規,0,2024-08-02,2024-08-02,寺子屋ホームステイ合同会社,,合同会社,東京都,杉並区,高円寺北１丁目２０－１４－２０１,,13,115,1660002,,,,,,,2024-08-02,1,,,,,,0
2197,8011603004404,新規,0,2024-08-02,2024-08-02,合同会社ＭＩＳＵＺＵ,,合同会社,東京都,練馬区,三原台２丁目５－２－２０１,,13,120,1770031,,,,,,,2024-08-02,1,,,,,ミスズ,0
2202,8012403006697,新規,0,2024-08-02,2024-08-02,合同会社ＶＩＳＩＯ,,合同会社,東京都,狛江市,東野川２丁目２２番２２号ブラティーク・ラフィネ１０１,,13,219,2010002,,,,,,,2024-08-02,1,,,,,ヴィシオ,0
2205,8012703003064,新規,0,2024-08-02,2024-08-02,合同会社ＯＫ　ＰＬＡＮＮＩＮＧ,,合同会社,東京都,小平市,学園東町２丁目４－７,,13,211,1870043,,,,,,,2024-08-02,1,,,,,オーケープランニング,0
2206,8012803003468,新規,0,2024-08-02,2024-08-02,Ｔｒｕｎｋ　Ｇｒｉｄ合同会社,,合同会社,東京都,国立市,北１丁目３番の１１国立デュープレックスＩ－２０５,,13,215,1860001,,,,,,,2024-08-02,1,,,,,トランクグリッド,0
2213,8020001158258,新規,0,2024-08-02,2024-08-02,株式会社曜興,,株式会社,神奈川県,横浜市西区,伊勢町２丁目１０１ＯＭＯＲＩビル３Ｆ,,14,103,2200045,,,,,,,2024-08-02,1,,,,,,0
2214,8020001158266,新規,0,2024-08-02,2024-08-02,三貝株式会社,,株式会社,神奈川県,川崎市川崎区,本町２丁目１１番地２４－１０２号室,,14,131,2100001,,,,,,,2024-08-02,1,,,,,ミカイ,0
2221,8021001082852,新規,0,2024-08-02,2024-08-02,株式会社Ｓｅｒｅｎｄｉｐｉｔｙ,,株式会社,神奈川県,鎌倉市,小町２丁目１２番３５号,,14,204,2480006,,,,,,,2024-08-02,1,,,,,セレンディピティー,0
2222,8021001082885,新規,0,2024-08-02,2024-08-02,福井土木株式会社,,株式会社,神奈川県,足柄下郡湯河原町,吉浜２６９番地の４,,14,384,2590312,,,,,,,2024-08-02,1,,,,,フクイドボク,0
2225,8030001161665,新規,0,2024-08-02,2024-08-02,株式会社Ｈｅａｒｔｙ　Ｎｅｘｔ,,株式会社,埼玉県,さいたま市緑区,大字中尾２６５９番地１４,,11,109,3360932,,,,,,,2024-08-02,1,,,,,ハーティネクスト,0
2226,8030001161673,新規,0,2024-08-02,2024-08-02,ＡＬＯＨＡ　ＭＯＴＯＲ株式会社,,株式会社,埼玉県,所沢市,大字亀ケ谷４４７,,11,208,3590014,,,,,,,2024-08-02,1,,,,,アロハモーター,0
2227,8030001161715,新規,0,2024-08-02,2024-08-02,株式会社営業支援Ａｃｃｅｐｔ,,株式会社,埼玉県,所沢市,東狭山ケ丘３丁目２８４１番地の１７,,11,208,3591106,,,,,,,2024-08-02,1,,,,,エイギョウシエンアクセプト,0
2228,8030001161731,新規,0,2024-08-02,2024-08-02,株式会社クマサービス,,株式会社,埼玉県,富士見市,東みずほ台４丁目１６番地１４,,11,235,3540015,,,,,,,2024-08-02,1,,,,,クマサービス,0
2229,8030001161764,新規,0,2024-08-02,2024-08-02,冨田建築株式会社,,株式会社,埼玉県,坂戸市,大字赤尾２０３０番地５,,11,239,3500201,,,,,,,2024-08-02,1,,,,,トミタケンチク,0
2230,8030001161772,新規,0,2024-08-02,2024-08-02,Ｙ．Ｍ．Ｏコンサルタント株式会社,,株式会社,埼玉県,さいたま市南区,南本町２丁目２２－７,,11,108,3360018,,,,,,,2024-08-02,1,,,,,ワイエムオーコンサルタント,0
2237,8030003024746,新規,0,2024-08-02,2024-08-02,ＮＳ工業合同会社,,合同会社,埼玉県,北葛飾郡杉戸町,杉戸２丁目１０－１７,,11,464,3450036,,,,,,,2024-08-02,1,,,,,エヌエスコウギョウ,0
2238,8030003024829,新規,0,2024-08-02,2024-08-02,合同会社国語力研究所,,合同会社,埼玉県,さいたま市西区,西大宮３丁目５４番１９号,,11,101,3310078,,,,,,,2024-08-02,1,,,,,コクゴリョクケンキュウショ,0
2243,8040001134785,新規,0,2024-08-02,2024-08-02,株式会社永翔,,株式会社,千葉県,柏市,篠籠田６７０番地３バージェ・リーオ２０１号,,12,217,2770862,,,,,,,2024-08-02,1,,,,,エイショウ,0
2244,8040001134819,新規,0,2024-08-02,2024-08-02,株式会社すみれマネジメント,,株式会社,千葉県,千葉市中央区,中央２丁目５－１千葉中央ツインビル２号館７階ＣＨＩＢＡ－ＬＡＢＯ,,12,101,2600013,,,,,,,2024-08-02,1,,,,,スミレマネジメント,0
2251,8040003025529,新規,0,2024-08-02,2024-08-02,合同会社ＪｏｙＲｉｓｅ,,合同会社,千葉県,柏市,中央町七丁目２６番地,,12,217,2770021,,,,,,,2024-08-02,1,,,,,ジョイライズ,0
2252,8040005022458,新規,0,2024-08-02,2024-08-02,シーブレス管理組合法人,,その他の設立登記法人,千葉県,千葉市美浜区,幸町１丁目１番１号,,12,106,2610001,,,,,,,2024-08-02,1,,,,,シーブレス,0
2254,8050001055163,新規,0,2024-08-02,2024-08-02,株式会社ケアサポートすず,,株式会社,茨城県,石岡市,東田中４７８番地１,,08,205,3150034,,,,,,,2024-08-02,1,,,,,ケアサポートスズ,0
2255,8050001055171,新規,0,2024-08-02,2024-08-02,株式会社キングスジャパン,,株式会社,茨城県,かすみがうら市,上佐谷１５４２番地１,,08,230,3150065,,,,,,,2024-08-02,1,,,,,キングスジャパン,0
2259,8060001037359,新規,0,2024-08-02,2024-08-02,株式会社ＳＫ　ＳＴＹＬＥ,,株式会社,栃木県,宇都宮市,インターパーク３丁目１４－１,,09,201,3210118,,,,,,,2024-08-02,1,,,,,エスケイスタイル,0
2262,8060003005173,新規,0,2024-08-02,2024-08-02,合同会社うさみみ,,合同会社,栃木県,栃木市,大平町西水代１９７７,,09,203,3294423,,,,,,,2024-08-02,1,,,,,ウサミミ,0
2263,8060003005181,新規,0,2024-08-02,2024-08-02,合同会社クリバラ,,合同会社,栃木県,足利市,堀込町２４６１番地１２,,09,202,3260831,,,,,,,2024-08-02,1,,,,,クリバラ,0
2266,8070001042044,新規,0,2024-08-02,2024-08-02,株式会社エイシーサポート,,株式会社,群馬県,伊勢崎市,韮塚町４１４番地３,,10,204,3720813,,,,,,,2024-08-02,1,,,,,エイシーサポート,0
2270,8080101024940,新規,0,2024-08-02,2024-08-02,株式会社ＡＬＬ,,株式会社,静岡県,伊豆の国市,原木７１９－１９,,22,225,4102124,,,,,,,2024-08-02,1,,,,,オール,0
2277,8090001018835,新規,0,2024-08-02,2024-08-02,株式会社フィッシュ＆チップス,,株式会社,山梨県,北杜市,高根町箕輪２４５３－１コンフォート高根２０１,,19,209,4080012,,,,,,,2024-08-02,1,,,,,フィッシュアンドチップス,0
2279,8100001037692,新規,0,2024-08-02,2024-08-02,株式会社ベストライフ,,株式会社,長野県,長野市,大字南長野南県町６５６番地,,20,201,3800836,,,,,,,2024-08-02,1,,,,,ベストライフ,0
2303,8120001267222,新規,0,2024-08-02,2024-08-02,優力特株式会社,,株式会社,大阪府,大阪市北区,本庄東２丁目２番２６－１００５号,,27,127,5310074,,,,,,,2024-08-02,1,,,,,ユリト,0
2304,8120001267255,新規,0,2024-08-02,2024-08-02,ｅｍｅｉ株式会社,,株式会社,大阪府,大阪市西区,靱本町２丁目２番１７号ＲＥ－００６・２Ｆ,,27,106,5500004,,,,,,,2024-08-02,1,,,,,エメイ,0
2305,8120001267296,新規,0,2024-08-02,2024-08-02,株式会社あま味屋,,株式会社,大阪府,大阪市西区,新町１丁目８番２０号ＫＡＤＯＭＯＲＩビル１階,,27,106,5500013,,,,,,,2024-08-02,1,,,,,アマミヤ,0
2306,8120001267346,新規,0,2024-08-02,2024-08-02,株式会社ＬＩＧＡＲＥ,,株式会社,大阪府,大阪市北区,梅田１丁目２番２号大阪駅前第２ビル１２－１２,,27,127,5300001,,,,,,,2024-08-02,1,,,,,リガーレ,0
2307,8120001267404,新規,0,2024-08-02,2024-08-02,株式会社栄耀,,株式会社,大阪府,大阪市浪速区,敷津西２丁目１３番２号,,27,111,5560015,,,,,,,2024-08-02,1,,,,,エイヨウ,0
2308,8120003027186,新規,0,2024-08-02,2024-08-02,オリーブ合同会社,,合同会社,大阪府,大阪市北区,梅田１丁目１－３－２３０７,,27,127,5300001,,,,,,,2024-08-02,1,,,,,オリーブ,0
2309,8120003027228,新規,0,2024-08-02,2024-08-02,合同会社さくら企画,,合同会社,大阪府,大阪市北区,天満２丁目１‐３２‐１００１,,27,127,5300043,,,,,,,2024-08-02,1,,,,,サクラキカク,0
2311,8120005024454,新規,0,2024-08-02,2024-08-02,一般社団法人ｓｍｃ,,その他の設立登記法人,大阪府,大阪市北区,曾根崎２丁目１５番１６号,,27,127,5300057,,,,,,,2024-08-02,1,,,,,エスエムシー,0
2315,8120101070096,新規,0,2024-08-02,2024-08-02,株式会社ＭＫＹ,,株式会社,大阪府,松原市,北新町５丁目１１５番地の１１,,27,217,5800025,,,,,,,2024-08-02,1,,,,,エムケーワイ,0
2316,8120103005983,新規,0,2024-08-02,2024-08-02,合同会社石丸興業,,合同会社,大阪府,和泉市,府中町６丁目１４番地の４０,,27,219,5940071,,,,,,,2024-08-02,1,,,,,イシマルコウギョウ,0
2317,8120103005991,新規,0,2024-08-02,2024-08-02,合同会社ＶＥＲＩＴＡＳ,,合同会社,大阪府,堺市堺区,市之町西１丁２番６号バローレ市之町２０２号,,27,141,5900951,,,,,,,2024-08-02,1,,,,,ヴェリタス,0
2319,8120903005290,新規,0,2024-08-02,2024-08-02,アトリエイシイ合同会社,,合同会社,大阪府,高槻市,浦堂３丁目１５番２号,,27,207,5691027,,,,,,,2024-08-02,1,,,,,アトリエイシイ,0
2321,8122001038339,新規,0,2024-08-02,2024-08-02,株式会社ジーマ,,株式会社,大阪府,東大阪市,長堂１丁目８番３７－１０４号,,27,227,5770056,,,,,,,2024-08-02,1,,,,,ジーマ,0
2323,8130001077579,新規,0,2024-08-02,2024-08-02,株式会社ＲＥＡ,,株式会社,京都府,京都市山科区,御陵中内町３８番地７３,,26,110,6078414,,,,,,,2024-08-02,1,,,,,レア,0
2324,8130001077604,新規,0,2024-08-02,2024-08-02,株式会社円直,,株式会社,京都府,京都市右京区,龍安寺西ノ川町１２番地,,26,108,6168016,,,,,,,2024-08-02,1,,,,,エンナオ,0
2325,8130001077629,新規,0,2024-08-02,2024-08-02,株式会社Ｆ．Ｌ．Ｄ．,,株式会社,京都府,京都市中京区,壬生相合町３３番地１八千代ビル１Ｆ,,26,104,6048812,,,,,,,2024-08-02,1,,,,,エフエルディー,0
2326,8140001135294,新規,0,2024-08-02,2024-08-02,株式会社ｉｍｍｙｕａ,,株式会社,兵庫県,姫路市,田寺東２丁目２９番１６号,,28,201,6700081,,,,,,,2024-08-02,1,,,,,イミュア,0
2327,8140001135303,新規,0,2024-08-02,2024-08-02,ＨＡＲＵＴＯ株式会社,,株式会社,兵庫県,尼崎市,東難波町４丁目１８番３２－９０６号,,28,202,6600892,,,,,,,2024-08-02,1,,,,,ハルト,0
2328,8140001135427,新規,0,2024-08-02,2024-08-02,株式会社ヘルス＆クラッシー,,株式会社,兵庫県,姫路市,御立中１丁目１番２１号,,28,201,6700073,,,,,,,2024-08-02,1,,,,,ヘルスアンドクラッシー,0
2331,8140003020924,新規,0,2024-08-02,2024-08-02,Ｂｕｄｄｈａ　ｂｒａｎｄ合同会社,,合同会社,兵庫県,西宮市,甲陽園東山町７番８号,,28,204,6620012,,,,,,,2024-08-02,1,,,,,ブッダブランド,0
2335,8140005027174,新規,0,2024-08-02,2024-08-02,社会保険労務士法人ａｉ労務サポート,,その他の設立登記法人,兵庫県,芦屋市,大原町５番４号竹内ビル３Ｆ,,28,206,6590092,,,,,,,2024-08-02,1,,,,,エーアイロウムサポート,0
2338,8160001026129,新規,0,2024-08-02,2024-08-02,株式会社ＯＲＩＧＩＮ,,株式会社,滋賀県,彦根市,後三条町６０８番地３,,25,202,5220086,,,,,,,2024-08-02,1,,,,,オリジン,0
2339,8160003003258,新規,0,2024-08-02,2024-08-02,西邑システムズ合同会社,,合同会社,滋賀県,長浜市,錦織町３３２番地,,25,203,5260101,,,,,,,2024-08-02,1,,,,,ニシムラシステムズ,0
2342,8170001018249,新規,0,2024-08-02,2024-08-02,株式会社ＣａｒＡｕｔｏヤマダ,,株式会社,和歌山県,紀の川市,東野６７番地１,,30,208,6496542,,,,,,,2024-08-02,1,,,,,カーオートヤマダ,0
2349,8180001162442,新規,0,2024-08-02,2024-08-02,株式会社心リーガルサポート東京,,株式会社,愛知県,名古屋市中村区,椿町１４番１３号,,23,105,4530015,,,,,,,2024-08-02,1,,,,,ココロリーガルサポートトウキョウ,0
2350,8180001162608,新規,0,2024-08-02,2024-08-02,株式会社Ｆｏｏｄ　Ｈａｃｋｅｒ,,株式会社,愛知県,名古屋市南区,星崎１丁目２４０番地６,,23,112,4570064,,,,,,,2024-08-02,1,,,,,フードハッカー,0
2351,8180001162624,新規,0,2024-08-02,2024-08-02,啓真株式会社,,株式会社,愛知県,名古屋市港区,港楽３丁目１番１５号,,23,111,4550014,,,,,,,2024-08-02,1,,,,,ハルマ,0
2352,8180001162632,新規,0,2024-08-02,2024-08-02,株式会社ＯＮＮＥ,,株式会社,愛知県,海部郡大治町,大字三本木字西之川１７３番地の４,,23,424,4901142,,,,,,,2024-08-02,1,,,,,オン,0
2353,8180001162640,新規,0,2024-08-02,2024-08-02,株式会社恵組,,株式会社,愛知県,尾張旭市,庄中町１丁目４番地２２,,23,226,4880838,,,,,,,2024-08-02,1,,,,,メグミ,0
2354,8180001162715,新規,0,2024-08-02,2024-08-02,株式会社ケイワイエフ,,株式会社,愛知県,名古屋市中村区,沖田町１５２番地の５,,23,105,4530825,,,,,,,2024-08-02,1,,,,,ケイワイエフ,0
2358,8180003027131,新規,0,2024-08-02,2024-08-02,合同会社ｍｅｗｎ,,合同会社,愛知県,名古屋市名東区,にじが丘３丁目５０－３,,23,115,4650078,,,,,,,2024-08-02,1,,,,,ミュン,0
2359,8180003027148,新規,0,2024-08-02,2024-08-02,合同会社飯田海藻,,合同会社,愛知県,知多郡南知多町,大字豊浜字新居１１番地の１,,23,445,4703412,,,,,,,2024-08-02,1,,,,,イイダカイソウ,0
2373,8220001026130,新規,0,2024-08-02,2024-08-02,株式会社Ｉ・ＬＡＮＤ,,株式会社,石川県,金沢市,片町１丁目１番２８号,,17,201,9200981,,,,,,,2024-08-02,1,,,,,アイランド,0
2374,8220001026147,新規,0,2024-08-02,2024-08-02,株式会社真直,,株式会社,石川県,小松市,本江町ヘ５０番地,,17,203,9230841,,,,,,,2024-08-02,1,,,,,マッスグ,0
2376,8230001020479,新規,0,2024-08-02,2024-08-02,株式会社ＰＵＭＰ　ＵＰ,,株式会社,富山県,富山市,加納６５０番地１,,16,201,9392245,,,,,,,2024-08-02,1,,,,,パンプアップ,0
2381,8250003003546,新規,0,2024-08-02,2024-08-02,合同会社ＯＫＡＺＡＫＩ,,合同会社,山口県,岩国市,平田３丁目７０番３号,,35,208,7410072,,,,,,,2024-08-02,1,,,,,オカザキ,0
2384,8260003004840,新規,0,2024-08-02,2024-08-02,喜勝コーポレーション合同会社,,合同会社,岡山県,岡山市東区,可知３丁目８番１０号２０８,,33,103,7048173,,,,,,,2024-08-02,1,,,,,キショウコーポレーション,0
2393,8300001013847,新規,0,2024-08-02,2024-08-02,株式会社ＮＯＶＡ　ＴＥＣＨ,,株式会社,佐賀県,佐賀市,鍋島町大字八戸溝３４０番地１,,41,201,8490932,,,,,,,2024-08-02,1,,,,,ノヴァテック,0
2394,8310001019141,新規,0,2024-08-02,2024-08-02,株式会社ＫＡＮＺＡＫＩ．ＦＴ,,株式会社,長崎県,南島原市,有家町石田１３３２番地,,42,214,8592121,,,,,,,2024-08-02,1,,,,,カンザキエフティ,0
2398,8330003010484,新規,0,2024-08-02,2024-08-02,リプロマックス合同会社,,合同会社,熊本県,熊本市北区,龍田陳内２丁目７番７号,,43,105,8618005,,,,,,,2024-08-02,1,,,,,リプロマックス,0
2401,8340005009763,新規,0,2024-08-02,2024-08-02,一般社団法人ＡＴＵＣＨＩ学園,,その他の設立登記法人,鹿児島県,日置市,伊集院町徳重５９６番地４,,46,216,8992502,,,,,,,2024-08-02,1,,,,,アツチガクエン,0
2404,8360001034029,新規,0,2024-08-02,2024-08-02,株式会社かりゆし道,,株式会社,沖縄県,那覇市,牧志３丁目１－１,,47,201,9000013,,,,,,,2024-08-02,1,,,,,カリユシドウ,0
2407,8370001051568,新規,0,2024-08-02,2024-08-02,株式会社ＹＵＧＯ,,株式会社,宮城県,仙台市青葉区,花京院１丁目１番５２号朝日プラザ花京院５０１号,,04,101,9800013,,,,,,,2024-08-02,1,,,,,ユーゴ,0
2412,8420005007916,新規,0,2024-08-02,2024-08-02,一般社団法人自治会サポートセンター,,その他の設立登記法人,青森県,青森市,港町１丁目１９番４号２階,,02,201,0300901,,,,,,,2024-08-02,1,,,,,ジチカイサポートセンター,0
2415,8430001092399,新規,0,2024-08-02,2024-08-02,株式会社Ｈｏｋｕｓｈｉｎ　Ｓｙｓｔｅｍｓ,,株式会社,北海道,札幌市中央区,南三条東２丁目１番地,,01,101,0600053,,,,,,,2024-08-02,1,,,,,ホクシンシステムズ,0
2417,8430003016661,新規,0,2024-08-02,2024-08-02,合同会社ケイウンソウ,,合同会社,北海道,札幌市西区,八軒六条西２丁目１番２４号,,01,107,0630846,,,,,,,2024-08-02,1,,,,,ケイウンソウ,0
2424,8470001020323,新規,0,2024-08-02,2024-08-02,株式会社有馬,,株式会社,香川県,さぬき市,長尾東９４４番地４,,37,206,7692301,,,,,,,2024-08-02,1,,,,,アリマ,0
2426,8500001025780,新規,0,2024-08-02,2024-08-02,株式会社ｗｉｔｈ　ｇｏｏｄ　ｌｉｆｅ,,株式会社,愛媛県,松山市,南斎院町７３７番地６,,38,201,7918032,,,,,,,2024-08-02,1,,,,,ウィズグッドライフ,0
2429,8700150126640,新規,0,2024-08-02,2024-08-02,Ｆｒｅｅｐｉｋ　Ｃｏｍｐａｎｙ，Ｓ．Ｌ．Ｕ．,,外国会社等,,,,,,,,Ｃａｌｌｅ　Ｍｏｌｉｎａ　Ｌａｒｉｏ　Ｎ１３　Ｐｌａｎｔａ　５，２９０１５，Ｍａｌａｇａ,,,,,,2024-08-02,1,,,,,フリーピツクカンパニーエスエルユー,0
2430,8700150126649,新規,0,2024-08-02,2024-08-02,ＴＨＲＥＥ　ＯＡＳＩＳ　ＣＯＭＰＡＮＹ　ＬＩＭＩＴＥＤ,,外国会社等,,,,,,,,Ｖｉｓｔｒａ　Ｃｏｒｐｏｒａｔｅ　Ｓｅｒｖｉｃｅｓ　Ｃｅｎｔｒｅ，Ｗｉｃｋｈａｍｓ　Ｃａｙ　ＩＩ，Ｒｏａｄ　Ｔｏｗｎ，Ｔｏｒｔｏｌａ，ＢＶＩ,,,,,,2024-08-02,1,,,,,スリーオアシスカンパニーリミテイツド,0
2436,9010001247060,新規,0,2024-08-02,2024-08-02,株式会社Ｌａｕｒｅｌ,,株式会社,東京都,千代田区,神田小川町３丁目２番地チェスターコート御茶ノ水１３０２号,,13,101,1010052,,,,,,,2024-08-02,1,,,,,ローレル,0
2437,9010001247102,新規,0,2024-08-02,2024-08-02,株式会社ＯＴＫ,,株式会社,東京都,中央区,月島１丁目９番１５号,,13,102,1040052,,,,,,,2024-08-02,1,,,,,オーティーケー,0
2438,9010001247168,新規,0,2024-08-02,2024-08-02,株式会社ＫＡＴＡＮＡ　Ｆｉｔｎｅｓｓ,,株式会社,東京都,千代田区,神田和泉町１番地６－１６ヤマトビル４０５,,13,101,1010024,,,,,,,2024-08-02,1,,,,,カタナフィットネス,0
2439,9010003044497,新規,0,2024-08-02,2024-08-02,合同会社ＭＡＮＤＩＥＳ,,合同会社,東京都,千代田区,岩本町１丁目５番１３号,,13,101,1010032,,,,,,,2024-08-02,1,,,,,マンディーズ,0
2440,9010003044514,新規,0,2024-08-02,2024-08-02,合同会社東京リアルティ,,合同会社,東京都,中央区,銀座４丁目１２番１５号歌舞伎座タワー,,13,102,1040061,,,,,,,2024-08-02,1,,,,,トウキョウリアルティ,0
2441,9010003044522,新規,0,2024-08-02,2024-08-02,合同会社ＣＤＢ,,合同会社,東京都,千代田区,一ツ橋２丁目６番３号アクシスインベストメントアドバイザーズ株式会社内,,13,101,1010003,,,,,,,2024-08-02,1,,,,,シーディービー,0
2443,9010005038588,新規,0,2024-08-02,2024-08-02,Ｂ‐ＦＬＡＧ一般社団法人,,その他の設立登記法人,東京都,千代田区,神田神保町１丁目１１番地さくら綜合事務所内,,13,101,1010051,,,,,,,2024-08-02,1,,,,,ビーフラッグ,0
2444,9010101016266,新規,0,2024-08-02,2024-08-02,愛厨易株式会社,,株式会社,東京都,八王子市,天神町２－１０パレ・ドール八王子４０２号室,,13,201,1920074,,,,,,,2024-08-02,1,,,,,アイチュウイ,0
2448,9010401184127,新規,0,2024-08-02,2024-08-02,株式会社Ｎａｎｔｅｓ,,株式会社,東京都,港区,港南３丁目９番３３－２５０３号,,13,103,1080075,,,,,,,2024-08-02,1,,,,,ナント,0
2449,9010401184135,新規,0,2024-08-02,2024-08-02,日本プレシャスマテリアルズ株式会社,,株式会社,東京都,港区,西新橋１丁目２番９号日比谷セントラルビル,,13,103,1050003,,,,,,,2024-08-02,1,,,,,ニホンプレシャスマテリアルズ,0
2450,9010401184168,新規,0,2024-08-02,2024-08-02,ＣＯＰＡ‐ＤＡＴＡ　ＪＡＰＡＮ株式会社,,株式会社,東京都,港区,赤坂１丁目１１番４４号赤坂インターシティ５階ＦｏｒｖｉｓＭａｚａｒｓＪａｐａｎ株式会社内,,13,103,1070052,,,,,,,2024-08-02,1,,,,,コパデータジャパン,0
2451,9010401184176,新規,0,2024-08-02,2024-08-02,株式会社ＢＩＪＯＵ,,株式会社,東京都,港区,高輪１丁目２６番１２号,,13,103,1080074,,,,,,,2024-08-02,1,,,,,ビジュー,0
2452,9010401184192,新規,0,2024-08-02,2024-08-02,株式会社Ｅａｓｔａｒ　Ｃｏｍｐａｎｙ,,株式会社,東京都,港区,北青山３丁目６番７号青山パラシオタワー１１Ｆ,,13,103,1070061,,,,,,,2024-08-02,1,,,,,イースターカンパニー,0
2457,9010501052712,新規,0,2024-08-02,2024-08-02,株式会社ｎａｔｕｒｉｑｕｅ,,株式会社,東京都,台東区,谷中３丁目１１番１４号,,13,106,1100001,,,,,,,2024-08-02,1,,,,,ナチュリーク,0
2459,9010601065688,新規,0,2024-08-02,2024-08-02,株式会社太田ペイント,,株式会社,東京都,江東区,森下４丁目１７番４号ハイツ吉田１Ｆ,,13,108,1350004,,,,,,,2024-08-02,1,,,,,オオタペイント,0
2460,9010801035292,新規,0,2024-08-02,2024-08-02,株式会社４ａｃｅｓｃｈａｒａｃｔｅｒ,,株式会社,東京都,大田区,大森西５丁目１番４号,,13,111,1430015,,,,,,,2024-08-02,1,,,,,フォーエースキャラクター,0
2462,9010905004648,新規,0,2024-08-02,2024-08-02,一般社団法人大手印文化センター,,その他の設立登記法人,東京都,世田谷区,成城２丁目３５番１１号,,13,112,1570066,,,,,,,2024-08-02,1,,,,,ダイシュインブンカセンター,0
2466,9011001163842,新規,0,2024-08-02,2024-08-02,ペースメーカーズ株式会社,,株式会社,東京都,渋谷区,笹塚２丁目４０番５号,,13,113,1510073,,,,,,,2024-08-02,1,,,,,ペースメーカーズ,0
2467,9011003019687,新規,0,2024-08-02,2024-08-02,合同会社コトロミ,,合同会社,東京都,渋谷区,笹塚２丁目４番３号５０３,,13,113,1510073,,,,,,,2024-08-02,1,,,,,コトロミ,0
2470,9011101108193,新規,0,2024-08-02,2024-08-02,株式会社レープル,,株式会社,東京都,新宿区,新宿１丁目３４番１１－７０３号室,,13,104,1600022,,,,,,,2024-08-02,1,,,,,レープル,0
2471,9011101108268,新規,0,2024-08-02,2024-08-02,株式会社高橋音響,,株式会社,東京都,新宿区,西新宿３丁目３番１３号西新宿水間ビル２Ｆ,,13,104,1600023,,,,,,,2024-08-02,1,,,,,タカハシオンキョウ,0
2473,9011201025693,新規,0,2024-08-02,2024-08-02,株式会社ＴＥＲＡＣＯＹＡ,,株式会社,東京都,中野区,東中野１丁目３２‐６大滝ビル３Ｆ,,13,114,1640003,,,,,,,2024-08-02,1,,,,,テラコヤ,0
2474,9011203004456,新規,0,2024-08-02,2024-08-02,合同会社ＰＪデータ,,合同会社,東京都,中野区,南台４丁目４１番１－２０１号,,13,114,1640014,,,,,,,2024-08-02,1,,,,,ピージェイデータ,0
2479,9011601027950,新規,0,2024-08-02,2024-08-02,七三株式会社,,株式会社,東京都,練馬区,関町北５丁目１３－２５－Ｂ号室,,13,120,1770051,,,,,,,2024-08-02,1,,,,,シチサン,0
2487,9011803006372,新規,0,2024-08-02,2024-08-02,Ｋ．Ｒコンサルティング合同会社,,合同会社,東京都,葛飾区,南水元１丁目３０番１８号,,13,122,1250035,,,,,,,2024-08-02,1,,,,,ケーアールコンサルティング,0
2488,9012403006696,新規,0,2024-08-02,2024-08-02,合同会社ＶＩＶＯ,,合同会社,東京都,府中市,分梅町１丁目１０番地の１０カーサ府中２０２,,13,206,1830033,,,,,,,2024-08-02,1,,,,,ヴィーヴォ,0
2492,9020001158307,新規,0,2024-08-02,2024-08-02,ＧＲＥＥＮ　ＬＩＦＥ　ＤＥＳＩＧＮ株式会社,,株式会社,神奈川県,横浜市瀬谷区,本郷１丁目４１番地２,,14,114,2460015,,,,,,,2024-08-02,1,,,,,グリーンライフデザイン,0
2501,9030001161664,新規,0,2024-08-02,2024-08-02,株式会社甲辰産業,,株式会社,埼玉県,蓮田市,大字閏戸３７０番地１,,11,238,3490133,,,,,,,2024-08-02,1,,,,,コウシンサンギョウ,0
2502,9030001161739,新規,0,2024-08-02,2024-08-02,巧縁株式会社,,株式会社,埼玉県,草加市,氷川町２３－６,,11,221,3400034,,,,,,,2024-08-02,1,,,,,コウエン,0
2503,9030001161747,新規,0,2024-08-02,2024-08-02,中村商事株式会社,,株式会社,埼玉県,さいたま市南区,根岸４丁目４番１１－３号,,11,108,3360024,,,,,,,2024-08-02,1,,,,,ナカムラショウジ,0
2504,9030001161771,新規,0,2024-08-02,2024-08-02,萩元株式会社,,株式会社,埼玉県,富士見市,大字水子４６４２番地５,,11,235,3540011,,,,,,,2024-08-02,1,,,,,ハギモト,0
2505,9030001161788,新規,0,2024-08-02,2024-08-02,株式会社ワンクローバー,,株式会社,埼玉県,さいたま市大宮区,三橋１丁目４２０番地３,,11,103,3300856,,,,,,,2024-08-02,1,,,,,ワンクローバー,0
2506,9030001161796,新規,0,2024-08-02,2024-08-02,Ｓｕｎｒｉｓｅ株式会社,,株式会社,埼玉県,和光市,白子３丁目２４番７８号,,11,229,3510101,,,,,,,2024-08-02,1,,,,,サンライズ,0
2507,9030001161821,新規,0,2024-08-02,2024-08-02,株式会社ＧＥＮ,,株式会社,埼玉県,所沢市,大字下安松５４５番地の１,,11,208,3590024,,,,,,,2024-08-02,1,,,,,ゲン,0
2509,9030003024836,新規,0,2024-08-02,2024-08-02,合同会社ＹＵＲＥＥ,,合同会社,埼玉県,さいたま市浦和区,領家２丁目２番１３号２,,11,107,3300072,,,,,,,2024-08-02,1,,,,,ユリー,0
2517,9040001134784,新規,0,2024-08-02,2024-08-02,株式会社ＲＥ　ｈｏｍｅ,,株式会社,千葉県,市川市,南大野２丁目１７番２５号,,12,203,2720804,,,,,,,2024-08-02,1,,,,,アールイーホーム,0
2520,9040003025528,新規,0,2024-08-02,2024-08-02,合同会社キッチンカー王国,,合同会社,千葉県,柏市,あけぼの４丁目７番２０号長谷川荘１Ｃ号,,12,217,2770841,,,,,,,2024-08-02,1,,,,,キッチンカーオウコク,0
2521,9040003025536,新規,0,2024-08-02,2024-08-02,合同会社こねっと,,合同会社,千葉県,船橋市,湊町２丁目８番４０－１１０２号,,12,204,2730011,,,,,,,2024-08-02,1,,,,,コネット,0
2526,9060001037366,新規,0,2024-08-02,2024-08-02,株式会社ＬＩＧ,,株式会社,栃木県,足利市,板倉町１７０６番地５,,09,202,3260102,,,,,,,2024-08-02,1,,,,,リグ,0
2528,9060003005180,新規,0,2024-08-02,2024-08-02,さくらアセット合同会社,,合同会社,栃木県,宇都宮市,下栗町２９２３番地１０,,09,201,3210923,,,,,,,2024-08-02,1,,,,,サクラアセット,0
2531,9070001042043,新規,0,2024-08-02,2024-08-02,株式会社グランガレージ,,株式会社,群馬県,太田市,山之神町２３４番地５,,10,205,3792302,,,,,,,2024-08-02,1,,,,,グランガレージ,0
2546,9080401027353,新規,0,2024-08-02,2024-08-02,株式会社Ｄｅｃｅｍ,,株式会社,静岡県,浜松市中央区,原島町３８８番地の１,,22,138,4350047,,,,,,,2024-08-02,1,,,,,デケム,0
2553,9100001037691,新規,0,2024-08-02,2024-08-02,株式会社ｇｒｏｖｅ,,株式会社,長野県,上田市,古安曽２６７５番地１,,20,203,3861213,,,,,,,2024-08-02,1,,,,,グローブ,0
2571,9120001267196,新規,0,2024-08-02,2024-08-02,瑩佳株式会社,,株式会社,大阪府,大阪市浪速区,桜川２丁目２番２５－４０２号,,27,111,5560022,,,,,,,2024-08-02,1,,,,,エイカ,0
2572,9120001267287,新規,0,2024-08-02,2024-08-02,ミカタ不動産管理株式会社,,株式会社,大阪府,大阪市城東区,今福西６丁目２番１－１３２０号,,27,118,5360004,,,,,,,2024-08-02,1,,,,,ミカタフドウサンカンリ,0
2573,9120001267304,新規,0,2024-08-02,2024-08-02,株式会社ワコー,,株式会社,大阪府,寝屋川市,高柳２丁目１４番９号,,27,215,5720051,,,,,,,2024-08-02,1,,,,,ワコー,0
2574,9120001267345,新規,0,2024-08-02,2024-08-02,林六ホールディングス株式会社,,株式会社,大阪府,大阪市中央区,南船場４丁目１１番２８号,,27,128,5420081,,,,,,,2024-08-02,1,,,,,ハヤシロクホールディングス,0
2575,9120001267378,新規,0,2024-08-02,2024-08-02,株式会社三喜堂,00135783,株式会社,大阪府,大阪市港区,港晴３丁目１６番１４号,,27,107,5520023,,,,,,,2024-08-02,1,,,,,サンキドウ,0
2576,9120001267394,新規,0,2024-08-02,2024-08-02,株式会社ＤＡ,,株式会社,大阪府,大阪市西成区,潮路１丁目６番５号,,27,122,5570052,,,,,,,2024-08-02,1,,,,,ディーエー,0
2577,9120001267403,新規,0,2024-08-02,2024-08-02,ＳＡＫＵＲＡ株式会社,,株式会社,大阪府,大阪市中央区,北久宝寺町３丁目６番１号本町南ガーデンシティ７階,,27,128,5410057,,,,,,,2024-08-02,1,,,,,サクラ,0
2578,9120001267428,新規,0,2024-08-02,2024-08-02,株式会社おむすび,,株式会社,大阪府,大阪市阿倍野区,晴明通１２番３１号,,27,119,5450032,,,,,,,2024-08-02,1,,,,,オムスビ,0
2579,9120001267469,新規,0,2024-08-02,2024-08-02,株式会社ＦＯＲＥＳＴ　ＫＩＮＧ,,株式会社,大阪府,大阪市住吉区,墨江３丁目２番１６号,,27,120,5580043,,,,,,,2024-08-02,1,,,,,フォレストキング,0
2584,9120003027202,新規,0,2024-08-02,2024-08-02,合同会社ＡＱＵＡ　ＴＲＡＶＥＬ,,合同会社,大阪府,大阪市北区,西天満３丁目２番４号大三ビル３０２号,,27,127,5300047,,,,,,,2024-08-02,1,,,,,アクアトラベル,0
2585,9120003027210,新規,0,2024-08-02,2024-08-02,合同会社Ｔｈｒｅｅ　Ｒｉｎｇｓ,,合同会社,大阪府,大阪市中央区,備後町３丁目４番８号フクエイビル３０３号,,27,128,5410051,,,,,,,2024-08-02,1,,,,,スリーリングス,0
2589,9120101070095,新規,0,2024-08-02,2024-08-02,株式会社玄三,,株式会社,大阪府,松原市,北新町１丁目４番５－３０６号,,27,217,5800025,,,,,,,2024-08-02,1,,,,,ゲンゾウ,0
2597,9120901049512,新規,0,2024-08-02,2024-08-02,株式会社琴セキュリティー,,株式会社,大阪府,高槻市,野田２丁目１番４号,,27,207,5690013,,,,,,,2024-08-02,1,,,,,コトセキュリティー,0
2598,9120901049545,新規,0,2024-08-02,2024-08-02,株式会社ａｌｍｉｇｈｔｙ,,株式会社,大阪府,高槻市,高槻町１１番７号２０９,,27,207,5690803,,,,,,,2024-08-02,1,,,,,オールマイティー,0
2601,9130001077628,新規,0,2024-08-02,2024-08-02,株式会社ＫＳＫ工業,,株式会社,京都府,宇治市,伊勢田町新中ノ荒３０－８,,26,204,6110043,,,,,,,2024-08-02,1,,,,,ケーエスケーコウギョウ,0
2607,9140001135302,新規,0,2024-08-02,2024-08-02,ハイパーステラ株式会社,,株式会社,兵庫県,神戸市東灘区,住吉東町３丁目１５番１９号,,28,101,6580052,,,,,,,2024-08-02,1,,,,,ハイパーステラ,0
2608,9140001135426,新規,0,2024-08-02,2024-08-02,ＹＳＫネクスト株式会社,,株式会社,兵庫県,神戸市兵庫区,三川口町１丁目２番７号,,28,105,6520815,,,,,,,2024-08-02,1,,,,,ワイエスケイネクスト,0
2612,9150001027465,新規,0,2024-08-02,2024-08-02,株式会社ＳＭＩＬＥ,,株式会社,奈良県,奈良市,菅原町５９３番地,,29,201,6310842,,,,,,,2024-08-02,1,,,,,スマイル,0
2613,9160001026128,新規,0,2024-08-02,2024-08-02,株式会社Ｋｒｅｉｓ,,株式会社,滋賀県,彦根市,後三条町６０８番地３,,25,202,5220086,,,,,,,2024-08-02,1,,,,,クライス,0
2614,9160003003257,新規,0,2024-08-02,2024-08-02,合同会社ツキウロ,,合同会社,滋賀県,栗東市,安養寺６丁目５番４－１０５号,,25,208,5203015,,,,,,,2024-08-02,1,,,,,ツキウロ,0
2622,9180001162532,新規,0,2024-08-02,2024-08-02,ミライノホールディングス株式会社,,株式会社,愛知県,清須市,春日長久寺６１番地,,23,233,4520962,,,,,,,2024-08-02,1,,,,,ミライノホールディングス,0
2623,9180001162565,新規,0,2024-08-02,2024-08-02,株式会社Ｂｒｏ,,株式会社,愛知県,名古屋市緑区,鳴海町字山下６３番地の１,,23,114,4580801,,,,,,,2024-08-02,1,,,,,ブロー,0
2624,9180001162607,新規,0,2024-08-02,2024-08-02,株式会社ＭＰＷＯＲＫＳ,,株式会社,愛知県,犬山市,大字犬山字相生５９番地２３,,23,215,4840081,,,,,,,2024-08-02,1,,,,,エムピーワークス,0
2625,9180001162615,新規,0,2024-08-02,2024-08-02,株式会社Ｇｌｏｗ　Ａｄ,,株式会社,愛知県,名古屋市中村区,名駅３丁目４番１０号アルティメイト名駅１ｓｔ２階,,23,105,4500002,,,,,,,2024-08-02,1,,,,,グロウエーディー,0
2626,9180001162648,新規,0,2024-08-02,2024-08-02,株式会社サウスイースト,,株式会社,愛知県,名古屋市港区,土古町４丁目６２番地の３,,23,111,4550068,,,,,,,2024-08-02,1,,,,,サウスイースト,0
2627,9180001162706,新規,0,2024-08-02,2024-08-02,株式会社Ｏｒａ,,株式会社,愛知県,名古屋市中区,錦３丁目１３番３２号,,23,106,4600003,,,,,,,2024-08-02,1,,,,,オラ,0
2628,9180001162722,新規,0,2024-08-02,2024-08-02,株式会社ａｂｕｎｄａｎｔ,,株式会社,愛知県,愛知郡東郷町,大字春木字東羽根穴２２９２番地１,,23,302,4700162,,,,,,,2024-08-02,1,,,,,アバンダント,0
2632,9180003027147,新規,0,2024-08-02,2024-08-02,合同会社レインボー,,合同会社,愛知県,犬山市,大字上野字大野１７７－１,,23,215,4840077,,,,,,,2024-08-02,1,,,,,レインボー,0
2633,9180003027163,新規,0,2024-08-02,2024-08-02,グッド・ファーザー合同会社,,合同会社,愛知県,名古屋市中川区,西伏屋３丁目４０１番地伏屋第一住宅２棟２１２号,,23,110,4540982,,,,,,,2024-08-02,1,,,,,グッドファーザー,0
2635,9180301038911,新規,0,2024-08-02,2024-08-02,シナジーブライトン株式会社,,株式会社,愛知県,刈谷市,半城土中町１丁目２１番地４・Ｄ号,,23,210,4480805,,,,,,,2024-08-02,1,,,,,シナジーブライトン,0
2636,9180303006214,新規,0,2024-08-02,2024-08-02,合同会社Ｓｕｉｈｅｉ船,,合同会社,愛知県,豊田市,高崎町野末１番地１,,23,211,4710048,,,,,,,2024-08-02,1,,,,,スイヘイセン,0
2638,9190001031538,新規,0,2024-08-02,2024-08-02,株式会社千恵,,株式会社,三重県,鳥羽市,鳥羽１丁目１７番２‐１２号,,24,211,5170011,,,,,,,2024-08-02,1,,,,,チエ,0
2643,9230001020478,新規,0,2024-08-02,2024-08-02,日本海ＨＤ株式会社,,株式会社,富山県,富山市,下堀６番地５,,16,201,9398055,,,,,,,2024-08-02,1,,,,,ニホンカイエイチディー,0
2651,9240003006788,新規,0,2024-08-02,2024-08-02,アンロウアー合同会社,,合同会社,広島県,府中市,中須町１２６９番地２,,34,208,7260012,,,,,,,2024-08-02,1,,,,,アンロウアー,0
2656,9260001039334,新規,0,2024-08-02,2024-08-02,株式会社エヌクラフト,,株式会社,岡山県,倉敷市,玉島柏島６０８８番地５,,33,202,7138123,,,,,,,2024-08-02,1,,,,,エヌクラフト,0
2657,9260001039342,新規,0,2024-08-02,2024-08-02,株式会社ＭＯＤＥＲＮ　ＲＥ‐Ｈｏｍｅ,,株式会社,岡山県,岡山市東区,中川町３１６番地１３,,33,103,7048176,,,,,,,2024-08-02,1,,,,,モダンリフォーム,0
2659,9270001009022,新規,0,2024-08-02,2024-08-02,株式会社ワタナベ工務店,,株式会社,鳥取県,鳥取市,卯垣２丁目２４８番地,,31,201,6800074,,,,,,,2024-08-02,1,,,,,ワタナベコウムテン,0
2660,9280001009228,新規,0,2024-08-02,2024-08-02,ｔｒａｉｙｓ株式会社,,株式会社,島根県,安来市,南十神町３２―９,,32,206,6920022,,,,,,,2024-08-02,1,,,,,トライス,0
2665,9290803004805,新規,0,2024-08-02,2024-08-02,合同会社ＡＴＴｉｃ,,合同会社,福岡県,遠賀郡岡垣町,海老津１丁目２―３,,40,383,8114231,,,,,,,2024-08-02,1,,,,,アティック,0
2669,9320001020626,新規,0,2024-08-02,2024-08-02,株式会社ＳＡＫＵＲＡ,,株式会社,大分県,中津市,大字大貞字中ノ林３８３番地７４,,44,203,8710153,,,,,,,2024-08-02,1,,,,,サクラ,0
2670,9320001020642,新規,0,2024-08-02,2024-08-02,株式会社ニッチオンハート,,株式会社,大分県,由布市,挾間町古野１７８番地１６,,44,213,8795511,,,,,,,2024-08-02,1,,,,,ニッチオンハート,0
2674,9330003010500,新規,0,2024-08-02,2024-08-02,合同会社産学連携推進センター,,合同会社,熊本県,熊本市北区,植木町上古閑７６－７,,43,105,8610152,,,,,,,2024-08-02,1,,,,,サンガクレンケイスイシンセンター,0
2675,9330005010812,新規,0,2024-08-02,2024-08-02,一般社団法人天草拓心高等学校マリン校舎教育振興会,,その他の設立登記法人,熊本県,天草郡苓北町,富岡３７５７番地,,43,531,8632507,,,,,,,2024-08-02,1,,,,,アマクサタクシンコウトウガッコウマリンコウシャキョウイクシンコウカイ,0
2677,9340001026679,新規,0,2024-08-02,2024-08-02,Ｂａｍｂｏｏ株式会社,,株式会社,鹿児島県,枕崎市,汐見町２１７番地,,46,204,8980002,,,,,,,2024-08-02,1,,,,,バンブー,0
2678,9340001026695,新規,0,2024-08-02,2024-08-02,株式会社未来,,株式会社,鹿児島県,鹿児島市,坂元町４３番地１１号,,46,201,8920862,,,,,,,2024-08-02,1,,,,,ミライ,0
2684,9360003014192,新規,0,2024-08-02,2024-08-02,合同会社ＳＳ,,合同会社,沖縄県,那覇市,松山２丁目１番１８号４階４－ＣＤ,,47,201,9000032,,,,,,,2024-08-02,1,,,,,エスエス,0
2685,9370001051567,新規,0,2024-08-02,2024-08-02,株式会社及川舗設工業,,株式会社,宮城県,仙台市太白区,西の平１丁目１５番１７－２号,,04,104,9820825,,,,,,,2024-08-02,1,,,,,オイカワホセツコウギョウ,0
2686,9370001051575,新規,0,2024-08-02,2024-08-02,株式会社ＭＦＵ,,株式会社,宮城県,仙台市青葉区,一番町３丁目３番１４号芭蕉の辻ビル３階,,04,101,9800811,,,,,,,2024-08-02,1,,,,,エムエフユー,0
2689,9380001034694,新規,0,2024-08-02,2024-08-02,株式会社アサヒ金属,,株式会社,福島県,郡山市,日和田町高倉字杉下１６番地の６,,07,203,9630531,,,,,,,2024-08-02,1,,,,,アサヒキンゾク,0
2699,9390003002269,新規,0,2024-08-02,2024-08-02,合同会社Ｒｅｆｉｘ,,合同会社,山形県,酒田市,米島字上広面８番地,,06,204,9998421,,,,,,,2024-08-02,1,,,,,リフィックス,0
2701,9420001018809,新規,0,2024-08-02,2024-08-02,ベルワイズホールディングス株式会社,,株式会社,青森県,三沢市,新町３丁目３１番地２２０１号,,02,207,0330062,,,,,,,2024-08-02,1,,,,,ベルワイズホールディングス,0
2702,9420001018817,新規,0,2024-08-02,2024-08-02,株式会社セフィロト,,株式会社,青森県,五所川原市,大字新宮字岡田１１３番地２,,02,205,0370081,,,,,,,2024-08-02,1,,,,,セフィロト,0
2712,9500001025771,新規,0,2024-08-02,2024-08-02,株式会社Ｋキャピタルマネジメント,,株式会社,愛媛県,宇和島市,元結掛１丁目３番１５号,,38,203,7980072,,,,,,,2024-08-02,1,,,,,ケイキャピタルマネジメント,0
2714,9700150126648,新規,0,2024-08-02,2024-08-02,ＴＷＯ　ＯＡＳＩＳ　ＣＯＭＰＡＮＹ　ＬＩＭＩＴＥＤ,,外国会社等,,,,,,,,Ｖｉｓｔｒａ　Ｃｏｒｐｏｒａｔｅ　Ｓｅｒｖｉｃｅｓ　Ｃｅｎｔｒｅ，Ｗｉｃｋｈａｍｓ　Ｃａｙ　ＩＩ，Ｒｏａｄ　Ｔｏｗｎ，Ｔｏｒｔｏｌａ，ＢＶＩ,,,,,,2024-08-02,1,,,,,ツーオアシスカンパニーリミテイツド,0
