sequenceNumber,corporateNumber,process,correct,updateDate,changeDate,name,nameImageId,kind,prefectureName,cityName,streetNumber,addressImageId,prefectureCode,cityCode,postCode,addressOutside,addressOutsideImageId,closeDate,closeCause,successorCorporateNumber,changeCause,assignmentDate,latest,enName,enPrefectureName,enCityName,enAddressOutside,furigana,hihyoji
8,1010001247910,新規,0,2024-09-03,2024-09-03,栄和建設株式会社,,株式会社,東京都,中央区,勝どき１丁目３番１号,,13,102,1040054,,,,,,,2024-09-03,1,,,,,エイワケンセツ,0
9,1010001247943,新規,0,2024-09-03,2024-09-03,株式会社みらい商事,,株式会社,東京都,中央区,晴海５丁目６番２－３０１号,,13,102,1040053,,,,,,,2024-09-03,1,,,,,ミライショウジ,0
15,1010005038744,新規,0,2024-09-03,2024-09-03,一般社団法人ＮＫＰ　Ａｓｓｏｃｉａｔｉｏｎ,,その他の設立登記法人,東京都,中央区,日本橋箱崎町３２番３－４１２号,,13,102,1030015,,,,,,,2024-09-03,1,,,,,エヌケーピーアソシエーション,0
16,1010005038760,新規,0,2024-09-03,2024-09-03,一般社団法人ＧＨ,,その他の設立登記法人,東京都,千代田区,神田錦町１丁目２１番１号,,13,101,1010054,,,,,,,2024-09-03,1,,,,,ジーエイチ,0
26,1010401184844,新規,0,2024-09-03,2024-09-03,ｓｉｍｐｌｙＢｒａｎｄ株式会社,,株式会社,東京都,港区,南青山２丁目２－８ＤＦビル１０階１００６Ａ号室,,13,103,1070062,,,,,,,2024-09-03,1,,,,,シンプリーブランド,0
27,1010401184877,新規,0,2024-09-03,2024-09-03,ＤＩグローバルインベスターズ株式会社,,株式会社,東京都,港区,新橋２丁目１２番５号,,13,103,1050004,,,,,,,2024-09-03,1,,,,,ディーアイグローバルインベスターズ,0
28,1010403033330,新規,0,2024-09-03,2024-09-03,合同会社ＪＡＳＭＩＮＥ,,合同会社,東京都,港区,赤坂３丁目１１番１９号,,13,103,1070052,,,,,,,2024-09-03,1,,,,,ジャスミン,0
38,1010801035358,新規,0,2024-09-03,2024-09-03,株式会社ＤＧ　Ｔａｋａｓｈｉｍａ,,株式会社,東京都,大田区,平和島６丁目１番１号,,13,111,1430006,,,,,,,2024-09-03,1,,,,,ディージータカシマ,0
50,1011001164410,新規,0,2024-09-03,2024-09-03,株式会社アレグロス,,株式会社,東京都,渋谷区,渋谷１丁目７番１号,,13,113,1500002,,,,,,,2024-09-03,1,,,,,アレグロス,0
53,1011003019918,新規,0,2024-09-03,2024-09-03,合同会社ラフ・ファースト,,合同会社,東京都,渋谷区,道玄坂１丁目１０番８号渋谷道玄坂東急ビル２Ｆ－Ｃ,,13,113,1500043,,,,,,,2024-09-03,1,,,,,ラフファースト,0
54,1011003019926,新規,0,2024-09-03,2024-09-03,ＵＣｏｎｎｅｃｔ合同会社,,合同会社,東京都,渋谷区,道玄坂１丁目１０番８号渋谷道玄坂東急ビル２Ｆ－Ｃ,,13,113,1500043,,,,,,,2024-09-03,1,,,,,ユーコネクト,0
58,1011101108531,新規,0,2024-09-03,2024-09-03,株式会社タキオン,,株式会社,東京都,新宿区,四谷４丁目２７番地１八重洲新宿御苑ビル３Ｆ,,13,104,1600004,,,,,,,2024-09-03,1,,,,,タキオン,0
59,1011101108655,新規,0,2024-09-03,2024-09-03,株式会社ＷＡＲＬＤ,,株式会社,東京都,新宿区,新宿７丁目２６番１１－１６０２号,,13,104,1600022,,,,,,,2024-09-03,1,,,,,ワールド,0
60,1011103014868,新規,0,2024-09-03,2024-09-03,バルザック１合同会社,,合同会社,東京都,新宿区,四谷４丁目３２番８号ＹＫＢサニービル６階,,13,104,1600004,,,,,,,2024-09-03,1,,,,,バルザックワン,0
62,1011301029957,新規,0,2024-09-03,2024-09-03,株式会社ＤＥＥＰＵ,,株式会社,東京都,杉並区,阿佐谷南３丁目１番１９号横川ビル１０３号室,,13,115,1660004,,,,,,,2024-09-03,1,,,,,ディープ,0
66,1011501031102,新規,0,2024-09-03,2024-09-03,Ｓｏｕｎｄｂｏｘ株式会社,,株式会社,東京都,荒川区,南千住３丁目２７－２浅草ビルＤ号室,,13,118,1160003,,,,,,,2024-09-03,1,,,,,サウンドボックス,0
84,1020001158826,新規,0,2024-09-03,2024-09-03,株式会社新川商事,,株式会社,神奈川県,横浜市南区,三春台６６番地１９,,14,105,2320002,,,,,,,2024-09-03,1,,,,,シンガワショウジ,0
85,1020001158933,新規,0,2024-09-03,2024-09-03,株式会社エムズ,,株式会社,神奈川県,横浜市神奈川区,羽沢南２丁目２０番７号,,14,102,2210866,,,,,,,2024-09-03,1,,,,,エムズ,0
87,1020003026808,新規,0,2024-09-03,2024-09-03,ｇｅｍｉｎａ合同会社,,合同会社,神奈川県,横浜市緑区,十日市場町１２５８番地十日市場ヒルタウン７－２号棟４０２号,,14,113,2260025,,,,,,,2024-09-03,1,,,,,ジェミナ,0
88,1020003026832,新規,0,2024-09-03,2024-09-03,合同会社Ａｎｅｌａ,,合同会社,神奈川県,横浜市中区,長者町４丁目１０番地１０,,14,104,2310033,,,,,,,2024-09-03,1,,,,,アネラ,0
112,1040001135154,新規,0,2024-09-03,2024-09-03,株式会社スピカ,,株式会社,千葉県,浦安市,今川２丁目１５番３８号サンライズ今川ビルディング１Ｆ,,12,227,2790022,,,,,,,2024-09-03,1,,,,,スピカ,0
113,1040001135212,新規,0,2024-09-03,2024-09-03,ＫＹＫ株式会社,,株式会社,千葉県,柏市,松ケ崎１１７０番地２２０,,12,217,2770835,,,,,,,2024-09-03,1,,,,,ケーワイケー,0
119,1040003025725,新規,0,2024-09-03,2024-09-03,合同会社ＡＣＥ,,合同会社,千葉県,市原市,泉台３丁目２４番地２,,12,219,2990114,,,,,,,2024-09-03,1,,,,,エース,0
120,1040003025741,新規,0,2024-09-03,2024-09-03,合同会社エスケー,,合同会社,千葉県,柏市,高田１０７５－１７－３０４,,12,217,2770861,,,,,,,2024-09-03,1,,,,,エスケー,0
121,1050001055343,新規,0,2024-09-03,2024-09-03,カゼニモマケズ株式会社,,株式会社,茨城県,水戸市,見川２丁目８５番地の２５,,08,201,3100912,,,,,,,2024-09-03,1,,,,,カゼニモマケズ,0
141,1090001018882,新規,0,2024-09-03,2024-09-03,株式会社初聚,,株式会社,山梨県,南都留郡山中湖村,山中８６５番地の１８２,,19,425,4010501,,,,,,,2024-09-03,1,,,,,ショシュウ,0
157,1120001268227,新規,0,2024-09-03,2024-09-03,アールリバー株式会社,,株式会社,大阪府,交野市,星田山手３丁目９番５号,,27,230,5760014,,,,,,,2024-09-03,1,,,,,アールリバー,0
158,1120001268235,新規,0,2024-09-03,2024-09-03,株式会社延田アミューズメント,,株式会社,大阪府,大阪市中央区,心斎橋筋２丁目１番６号,,27,128,5420085,,,,,,,2024-09-03,1,,,,,ノブタアミューズメント,0
159,1120001268243,新規,0,2024-09-03,2024-09-03,株式会社フォレスト,,株式会社,大阪府,大阪市天王寺区,味原町１３番９号,,27,109,5430023,,,,,,,2024-09-03,1,,,,,フォレスト,0
160,1120001268276,新規,0,2024-09-03,2024-09-03,株式会社Ｏｃｔｙｅｌ,,株式会社,大阪府,大阪市鶴見区,鶴見３丁目５番２－１８０３号,,27,124,5380053,,,,,,,2024-09-03,1,,,,,オクティエル,0
165,1120103006039,新規,0,2024-09-03,2024-09-03,合同会社ＡＳＵＫＡ,,合同会社,大阪府,岸和田市,河合町８２４番地,,27,202,5960113,,,,,,,2024-09-03,1,,,,,アスカ,0
167,1120901049701,新規,0,2024-09-03,2024-09-03,株式会社ＳＯＮＡＮ,,株式会社,大阪府,箕面市,新稲４丁目１３番１２号,,27,220,5620005,,,,,,,2024-09-03,1,,,,,ソナン,0
171,1130003009826,新規,0,2024-09-03,2024-09-03,合同会社柚弘,,合同会社,京都府,京都市下京区,七条通油小路東入大黒町２２７番地第２キョートビル４０２,,26,106,6008223,,,,,,,2024-09-03,1,,,,,ユヅコウ,0
179,1140001135648,新規,0,2024-09-03,2024-09-03,株式会社須磨浦カーゴ,,株式会社,兵庫県,神戸市須磨区,多井畑南町１－１－１１１０,,28,107,6540132,,,,,,,2024-09-03,1,,,,,スマウラカーゴ,0
182,1140003021004,新規,0,2024-09-03,2024-09-03,合同会社アントワープヘアデザイン,,合同会社,兵庫県,宝塚市,伊孑志３丁目１２番４０号,,28,214,6650033,,,,,,,2024-09-03,1,,,,,アントワープヘアデザイン,0
183,1140003021012,新規,0,2024-09-03,2024-09-03,合同会社Ｏｌｉｖｉａ,,合同会社,兵庫県,西宮市,岡田山６－３５,,28,204,6620827,,,,,,,2024-09-03,1,,,,,オリビィア,0
185,1140005027197,新規,0,2024-09-03,2024-09-03,一般社団法人日本真言宗協会,,その他の設立登記法人,兵庫県,姫路市,飾東町八重畑１４０１番地,,28,201,6710208,,,,,,,2024-09-03,1,,,,,ニホンシンゴンシュウキョウカイ,0
186,1150003003356,新規,0,2024-09-03,2024-09-03,合同会社Ｌｉｖｅ　ｕｐｐｐ,,合同会社,奈良県,奈良市,学園朝日元町２丁目５２９番地の３エクセルハイツ学園前朝日元町Ｂ－４１１号,,29,201,6310015,,,,,,,2024-09-03,1,,,,,リブアップ,0
188,1160003003272,新規,0,2024-09-03,2024-09-03,合同会社国分地所,,合同会社,滋賀県,大津市,国分１丁目３８番３号,,25,201,5200844,,,,,,,2024-09-03,1,,,,,コクブジショ,0
191,1170001018296,新規,0,2024-09-03,2024-09-03,株式会社ウォッシュマイル,,株式会社,和歌山県,和歌山市,榎原２１９番地６,,30,201,6408434,,,,,,,2024-09-03,1,,,,,ウォッシュマイル,0
203,1180301039009,新規,0,2024-09-03,2024-09-03,株式会社大原土建,,株式会社,愛知県,安城市,上条町西浦３３番地１,,23,212,4460023,,,,,,,2024-09-03,1,,,,,オオハラドケン,0
207,1200001042879,新規,0,2024-09-03,2024-09-03,株式会社タクミテクノ,,株式会社,岐阜県,多治見市,若松町１丁目１１番地,,21,204,5070053,,,,,,,2024-09-03,1,,,,,タクミテクノ,0
213,1240001063764,新規,0,2024-09-03,2024-09-03,ミカドテラス株式会社,,株式会社,広島県,呉市,仁方本町３丁目７番１２号,,34,202,7370152,,,,,,,2024-09-03,1,,,,,ミカドテラス,0
214,1240001063772,新規,0,2024-09-03,2024-09-03,株式会社ＦＳＧ,,株式会社,広島県,安芸郡海田町,蟹原２丁目１２番２０号,,34,304,7360022,,,,,,,2024-09-03,1,,,,,エフエスジー,0
217,1240003006829,新規,0,2024-09-03,2024-09-03,ＣＢＹ合同会社,,合同会社,広島県,廿日市市,桜尾２丁目２番５０－８０９号,,34,213,7380004,,,,,,,2024-09-03,1,,,,,シービーワイ,0
218,1240003006837,新規,0,2024-09-03,2024-09-03,合同会社ＴＡＣＫ,,合同会社,広島県,廿日市市,上平良４００番地８,,34,213,7380026,,,,,,,2024-09-03,1,,,,,タック,0
222,1260001039399,新規,0,2024-09-03,2024-09-03,株式会社ＣｒａｆｔＺｏｎｅ,,株式会社,岡山県,岡山市北区,中山下１丁目１１番１５号新田第１ビル４０２,,33,101,7000821,,,,,,,2024-09-03,1,,,,,クラフトゾーン,0
228,1290001107095,新規,0,2024-09-03,2024-09-03,株式会社福岡ＷＡＤＡＣＨＩエステート,,株式会社,福岡県,福岡市東区,箱崎１丁目４番１０－３０６号,,40,131,8120053,,,,,,,2024-09-03,1,,,,,フクオカワダチエステート,0
229,1290001107129,新規,0,2024-09-03,2024-09-03,株式会社ＤＥＬＴＡ　ＢＡＳＥＢＡＬＬ　ＣＬＵＢ,,株式会社,福岡県,福岡市中央区,天神３丁目１４番３１号天神リンデンビル３階,,40,133,8100001,,,,,,,2024-09-03,1,,,,,デルタベースボールクラブ,0
235,1320003004460,新規,0,2024-09-03,2024-09-03,合同会社田島商店,,合同会社,大分県,大分市,下郡山の手４番２４号,,44,201,8700961,,,,,,,2024-09-03,1,,,,,タシマショウテン,0
240,1340003004582,新規,0,2024-09-03,2024-09-03,合同会社ＥＡＳＴ,,合同会社,鹿児島県,鹿児島市,平川町１３４１番地８,,46,201,8910133,,,,,,,2024-09-03,1,,,,,イースト,0
257,1400005008443,新規,0,2024-09-03,2024-09-03,特定非営利活動法人やさしいまちづくり・いわて,,その他の設立登記法人,岩手県,盛岡市,緑が丘２丁目２番１８号,,03,201,0200117,,,,,,,2024-09-03,1,,,,,ヤサシイマチヅクリイワテ,0
258,1430001092579,新規,0,2024-09-03,2024-09-03,ｙｏｕ＆Ｉパートナー株式会社,,株式会社,北海道,札幌市東区,北四十五条東７丁目５番２６号,,01,103,0070845,,,,,,,2024-09-03,1,,,,,ユーアンドアイパートナー,0
259,1430003016750,新規,0,2024-09-03,2024-09-03,ｓｉｒｏ合同会社,,合同会社,北海道,札幌市中央区,南一条西２８丁目１番３－６０５号,,01,101,0640801,,,,,,,2024-09-03,1,,,,,シロ,0
265,1480001012581,新規,0,2024-09-03,2024-09-03,ＫＰｅａｋｓ株式会社,,株式会社,徳島県,勝浦郡上勝町,大字福原字川北１００番１,,36,302,7714501,,,,,,,2024-09-03,1,,,,,ケーピークス,0
274,1700150126770,新規,0,2024-09-03,2024-08-16,瀬戸内市幼稚園教育研究会,,その他,岡山県,瀬戸内市,邑久町山田庄７３６邑久幼稚園,,33,212,7014246,,,,,,,2024-08-16,1,,,,,セトウチシヨウチエンキヨウイクケンキユウカイ,0
275,1700150126985,新規,0,2024-09-03,2024-09-03,ＲＲＲ　ＭＯＴＯＲＳ,,外国会社等,千葉県,八街市,東吉田７２５番地オフィス２１号,,12,230,2891114,スリランカ民主社会主義共和国、カルムナイ、レストハウスロード、Ｎｏ．２１２,,,,,,2024-09-03,1,,,,,アールアールアールモータース,0
276,1700150126993,新規,0,2024-09-03,2024-09-03,ＦＩＸ　ＥＮＴＥＲＰＲＩＳＥＳ,,外国会社等,千葉県,八街市,八街ほ９３７番地７サニーフラット富士見１０２,,12,230,2891115,スリランカ民主社会主義共和国、キャンディ、カトゥガストタ、マダワラロード、Ｎｏ．２１１,,,,,,2024-09-03,1,,,,,フイツクスエンタープライズ,0
277,1700150127001,新規,0,2024-09-03,2024-09-03,ＥＸＴＲＥＡＭＥ　ＡＵＴＯ　ＳＯＬＵＴＩＯＮ,,外国会社等,千葉県,山武市,木原２０３１番地２１－１Ｂ,,12,237,2891212,スリランカ民主社会主義共和国、アクラナ、マタレロード、Ｎｏ．３６６／１Ａ,,,,,,2024-09-03,1,,,,,エクストリームオートソリユーシヨン,0
278,1700150127018,新規,0,2024-09-03,2024-09-03,Ｓｅｅｋｉｎｇ　Ａｌｐｈａ　ＬＴＤ,,外国会社等,,,,,,,,Ｈａｎａｓｉｉｍ　４７，Ｒａ’ａｎａｎａ，ＩＳＲＡＥＬ,,,,,,2024-09-03,1,,,,,シークアルフアエルテイーデイー,0
287,2010001247991,新規,0,2024-09-03,2024-09-03,株式会社ＴＡＯ　Ｅｎｔｅｒｔａｉｎｍｅｎｔ,,株式会社,東京都,中央区,日本橋１－４－１日本橋一丁目三井ビルディング５階０５室,,13,102,1030000,,,,,,,2024-09-03,1,,,,,タオエンターテイメント,0
296,2010105002293,新規,0,2024-09-03,2024-09-03,一般社団法人生協ネットワーク２１,,その他の設立登記法人,東京都,八王子市,大和田町２丁目１９番２０号,,13,201,1920045,,,,,,,2024-09-03,1,,,,,セイキョウネットワークニジュウイチ,0
301,2010401184760,新規,0,2024-09-03,2024-09-03,株式会社らりる,,株式会社,東京都,港区,芝浦４丁目２２番１,,13,103,1080023,,,,,,,2024-09-03,1,,,,,ラリル,0
302,2010401184810,新規,0,2024-09-03,2024-09-03,株式会社グローブ,,株式会社,東京都,港区,芝公園１丁目８番２０号Ｈ＿Ｏ芝公園８０６号室,00136160,13,103,1050011,,,,,,,2024-09-03,1,,,,,グローブ,0
303,2010401184843,新規,0,2024-09-03,2024-09-03,株式会社ＳＥＤＹ＆Ｃｏ,,株式会社,東京都,港区,芝５丁目３２－１２シャーメゾンステージ田町,,13,103,1080014,,,,,,,2024-09-03,1,,,,,セディアンドコー,0
304,2010401184868,新規,0,2024-09-03,2024-09-03,株式会社ルート,,株式会社,東京都,港区,南青山３丁目１番３６号青山丸竹ビル６Ｆ,,13,103,1070062,,,,,,,2024-09-03,1,,,,,ルート,0
305,2010403033338,新規,0,2024-09-03,2024-09-03,スジョン・ジャパン・インターナショナル合同会社,,合同会社,東京都,港区,浜松町２丁目７番１７号イーグル浜松町天翔オフィス浜松町大門１０階１００６号室,,13,103,1050013,,,,,,,2024-09-03,1,,,,,スジョンジャパンインターナショナル,0
306,2010403033346,新規,0,2024-09-03,2024-09-03,Ｂｅｒｂｉｅ　Ｈｏｌｄｉｎｇｓ２合同会社,,合同会社,東京都,港区,西新橋１丁目１番１号ＥＰコンサルティングサービス内,,13,103,1050003,,,,,,,2024-09-03,1,,,,,ベルビーホールディングスツー,0
309,2010405023493,新規,0,2024-09-03,2024-09-03,一般社団法人日本映像職能連合,,その他の設立登記法人,東京都,港区,六本木７丁目３番２２号六本木やまうちビル２階,,13,103,1060032,,,,,,,2024-09-03,1,,,,,ニホンエイゾウショクノウレンゴウ,0
311,2010703007330,新規,0,2024-09-03,2024-09-03,ＭＫＷコンサルティング合同会社,,合同会社,東京都,品川区,上大崎３丁目１－２－２４０９,,13,109,1410021,,,,,,,2024-09-03,1,,,,,エムケーダブリューコンサルティング,0
314,2010803005085,新規,0,2024-09-03,2024-09-03,ＴＡＲＡ合同会社,,合同会社,東京都,大田区,蒲田４丁目５番６号プロスペリアビル３０３,,13,111,1440052,,,,,,,2024-09-03,1,,,,,タラ,0
328,2011001164260,新規,0,2024-09-03,2024-09-03,ＥＳＴＲＥＬＡ　ＨＯＬＤＩＮＧＳ株式会社,,株式会社,東京都,目黒区,南３丁目２番１－３２３号,,13,110,1520013,,,,,,,2024-09-03,1,,,,,エストレーラホールディングス,0
330,2011003019909,新規,0,2024-09-03,2024-09-03,ＩＴｗｅｎｔｙ　Ｍａｔｅｒｉａｌ合同会社,,合同会社,東京都,渋谷区,千駄ヶ谷３丁目１２－１９アピカ原宿４０３号,,13,113,1510051,,,,,,,2024-09-03,1,,,,,アイトウェンティマテリアル,0
331,2011003019925,新規,0,2024-09-03,2024-09-03,合同会社創英,,合同会社,東京都,目黒区,三田２丁目１０番７５号恵比寿ガーデン１００２,,13,110,1530062,,,,,,,2024-09-03,1,,,,,ソウエイ,0
332,2011005010667,新規,0,2024-09-03,2024-09-03,ＲＥＡＸ司法書士法人,,その他の設立登記法人,東京都,渋谷区,渋谷２丁目１６番５号宮益坂プレイス渋谷１２階,,13,113,1500002,,,,,,,2024-09-03,1,,,,,リアックス,0
337,2011103014867,新規,0,2024-09-03,2024-09-03,地域共創合同会社,,合同会社,東京都,新宿区,四谷４丁目３２番８号ＹＫＢサニービル６階,,13,104,1600004,,,,,,,2024-09-03,1,,,,,チイキキョウソウ,0
338,2011103014875,新規,0,2024-09-03,2024-09-03,合同会社はなう,,合同会社,東京都,新宿区,袋町６番地１プラウド神楽坂ヒルトップ６０１,,13,104,1620828,,,,,,,2024-09-03,1,,,,,ハナウ,0
342,2011403004493,新規,0,2024-09-03,2024-09-03,合同会社ＭＥＹＵＫＯ,,合同会社,東京都,板橋区,幸町１－１２ベルグレード大山８０１,,13,119,1730034,,,,,,,2024-09-03,1,,,,,メユコ,0
351,2011805003390,新規,0,2024-09-03,2024-09-03,ダイヤ税理士法人,,その他の設立登記法人,東京都,葛飾区,亀有５丁目２８番１１号ジュネスサンプレイス２０１号,,13,122,1250061,,,,,,,2024-09-03,1,,,,,ダイヤ,0
353,2012705002417,新規,0,2024-09-03,2024-09-03,医療法人社団ＧｏｏｄＳｉｄｅ,,その他の設立登記法人,東京都,東久留米市,本町２丁目３番１号ハイツ東久留米２１０,,13,222,2030053,,,,,,,2024-09-03,1,,,,,グッドサイド,0
354,2012803003498,新規,0,2024-09-03,2024-09-03,Ｍｉｘｔｕｒｅ合同会社,,合同会社,東京都,立川市,砂川町８丁目４５番地３４,,13,202,1900031,,,,,,,2024-09-03,1,,,,,ミクスチャー,0
355,2013105001851,新規,0,2024-09-03,2024-09-03,医療法人社団藍花会,,その他の設立登記法人,東京都,青梅市,新町２丁目１６番地の２,,13,205,1980024,,,,,,,2024-09-03,1,,,,,アイバナカイ,0
361,2020001158874,新規,0,2024-09-03,2024-09-03,ＡＣＲＯＳＳ　ＴＨＥ　ＰＯＮＤ株式会社,,株式会社,神奈川県,横浜市中区,桜木町１丁目１－７ヒューリックみなとみらい１０階,,14,104,2310062,,,,,,,2024-09-03,1,,,,,アクロスザポンド,0
362,2020001158908,新規,0,2024-09-03,2024-09-03,株式会社Ｕｎｏｏ,,株式会社,神奈川県,川崎市高津区,新作２丁目１１番９－５０４号パルテール梶ヶ谷,,14,134,2130014,,,,,,,2024-09-03,1,,,,,ユーエヌオーオー,0
363,2020001158973,新規,0,2024-09-03,2024-09-03,東興株式会社,,株式会社,神奈川県,横浜市神奈川区,子安通３丁目３６０番地１サンマリーナ新子安８０２号,,14,102,2210021,,,,,,,2024-09-03,1,,,,,トウコウ,0
367,2021001083138,新規,0,2024-09-03,2024-09-03,株式会社ＴＪ　ＯＮＥ,,株式会社,神奈川県,相模原市中央区,淵野辺４丁目３４番５号,,14,152,2520206,,,,,,,2024-09-03,1,,,,,ティージェイワン,0
368,2021001083154,新規,0,2024-09-03,2024-09-03,株式会社ＤＩＡ,,株式会社,神奈川県,平塚市,明石町２４－２５ライオンズプラザ平塚１０２,,14,203,2540042,,,,,,,2024-09-03,1,,,,,ディア,0
370,2021003014966,新規,0,2024-09-03,2024-09-03,合同会社コタニ板金,,合同会社,神奈川県,横須賀市,長沢１丁目３０番３号,,14,201,2390842,,,,,,,2024-09-03,1,,,,,コタニバンキン,0
375,2030001161877,新規,0,2024-09-03,2024-09-03,五田商事株式会社,,株式会社,埼玉県,川口市,芝園町３番４－７４２号,,11,203,3330853,,,,,,,2024-09-03,1,,,,,ゴダショウジ,0
379,2040001135194,新規,0,2024-09-03,2024-09-03,株式会社ＭＹＴＣ,,株式会社,千葉県,市川市,河原１１番１３号,,12,203,2720101,,,,,,,2024-09-03,1,,,,,エムワイティーシー,0
380,2040001135211,新規,0,2024-09-03,2024-09-03,株式会社ファースト,,株式会社,千葉県,市原市,泉台３丁目２４番地２,,12,219,2990114,,,,,,,2024-09-03,1,,,,,ファースト,0
385,2040003025732,新規,0,2024-09-03,2024-09-03,合同会社エースカンパニー,,合同会社,千葉県,習志野市,奏の杜１丁目１４番１３－４０３号,,12,216,2750028,,,,,,,2024-09-03,1,,,,,エースカンパニー,0
389,2050001055350,新規,0,2024-09-03,2024-09-03,株式会社八と八,,株式会社,茨城県,つくば市,吾妻１丁目５－７ダイワロイネットホテルつくばビル２階,,08,220,3050031,,,,,,,2024-09-03,1,,,,,ヤトヤ,0
396,2070001042132,新規,0,2024-09-03,2024-09-03,株式会社望心,,株式会社,群馬県,前橋市,青柳町７４番地８,,10,201,3710056,,,,,,,2024-09-03,1,,,,,モコ,0
402,2080001026472,新規,0,2024-09-03,2024-09-03,株式会社正宗,,株式会社,静岡県,静岡市駿河区,北丸子１丁目２６番１１－２０１号,,22,102,4210106,,,,,,,2024-09-03,1,,,,,マサムネ,0
403,2080101024979,新規,0,2024-09-03,2024-09-03,株式会社富士見製作所,,株式会社,静岡県,富士宮市,山本４７５番地の１,,22,207,4180023,,,,,,,2024-09-03,1,,,,,フジミセイサクショ,0
420,2120001268226,新規,0,2024-09-03,2024-09-03,株式会社ＧｅａｒＰｌｕｓ,,株式会社,大阪府,大阪市東住吉区,中野４丁目１３番３１号２Ｆ,,27,121,5460012,,,,,,,2024-09-03,1,,,,,ギアプラス,0
421,2120001268242,新規,0,2024-09-03,2024-09-03,ＰＯＬＥＳＴＡＲ　ＨＯＬＤＩＮＧＳ　ＪＡＰＡＮ株式会社,,株式会社,大阪府,大阪市中央区,瓦町２丁目３番８号,,27,128,5410048,,,,,,,2024-09-03,1,,,,,ポールスターホールディングスジャパン,0
424,2120003027415,新規,0,2024-09-03,2024-09-03,合同会社大地の詩,,合同会社,大阪府,大阪市中央区,玉造１丁目２４番２２－２０４号,,27,128,5400004,,,,,,,2024-09-03,1,,,,,ダイチノウタ,0
428,2120101070226,新規,0,2024-09-03,2024-09-03,株式会社みはら,,株式会社,大阪府,堺市美原区,木材通４丁目８番１３号,,27,147,5870042,,,,,,,2024-09-03,1,,,,,ミハラ,0
443,2140001135688,新規,0,2024-09-03,2024-09-03,株式会社ドットホリック,,株式会社,兵庫県,神戸市中央区,磯上通８丁目１番２９号カサベラビルＣ＆Ｍ４０３号室,,28,110,6510086,,,,,,,2024-09-03,1,,,,,ドットホリック,0
445,2150001027538,新規,0,2024-09-03,2024-09-03,ＭＴＯ株式会社,,株式会社,奈良県,北葛城郡広陵町,大字三吉２４８番地７,,29,426,6350823,,,,,,,2024-09-03,1,,,,,エムティオ,0
449,2170001018295,新規,0,2024-09-03,2024-09-03,株式会社ＭＩＳＴＯ,,株式会社,和歌山県,岩出市,中島１１８９番地の１,,30,209,6496245,,,,,,,2024-09-03,1,,,,,ミスト,0
467,2180301039016,新規,0,2024-09-03,2024-09-03,株式会社吉隆メタル,00136158,株式会社,愛知県,西尾市,吉良町富田市子野５８番地１,,23,213,4440525,,,,,,,2024-09-03,1,,,,,ヨシタカメタル,0
468,2180303006253,新規,0,2024-09-03,2024-09-03,合同会社ＲＥＡＭ,,合同会社,愛知県,豊田市,栄町５丁目１４番地１０,,23,211,4710066,,,,,,,2024-09-03,1,,,,,リアム,0
473,2190001031610,新規,0,2024-09-03,2024-09-03,株式会社ＡＣ　ＰＲＯＪＥＣＴ,,株式会社,三重県,松阪市,中町１８５７番地４‐１Ｆ,,24,204,5150083,,,,,,,2024-09-03,1,,,,,エーシープロジェクト,0
478,2200001042886,新規,0,2024-09-03,2024-09-03,株式会社バイパス,,株式会社,岐阜県,大垣市,平町６７０番地２,,21,202,5030841,,,,,,,2024-09-03,1,,,,,バイパス,0
489,2220001026185,新規,0,2024-09-03,2024-09-03,株式会社ドライブ,,株式会社,石川県,小松市,津波倉町ヲ３４番地,,17,203,9230313,,,,,,,2024-09-03,1,,,,,ドライブ,0
499,2240001063747,新規,0,2024-09-03,2024-09-03,株式会社Ｆｉｎｅ,,株式会社,広島県,広島市佐伯区,観音台３丁目７番２５号,,34,108,7315157,,,,,,,2024-09-03,1,,,,,ファイン,0
500,2240001063763,新規,0,2024-09-03,2024-09-03,株式会社ＨＭ,,株式会社,広島県,広島市東区,光町２丁目９番２２－６０２号,,34,102,7320052,,,,,,,2024-09-03,1,,,,,エイチエム,0
501,2240001063771,新規,0,2024-09-03,2024-09-03,株式会社彩建美工,,株式会社,広島県,広島市東区,矢賀新町４丁目４番２０－３０１号,,34,102,7320044,,,,,,,2024-09-03,1,,,,,サイケンビコウ,0
504,2240003006836,新規,0,2024-09-03,2024-09-03,合同会社ＩＦ,,合同会社,広島県,東広島市,黒瀬町菅田１０３１２－４,,34,212,7392624,,,,,,,2024-09-03,1,,,,,アイエフ,0
512,2260001039415,新規,0,2024-09-03,2024-09-03,株式会社Ｒ４,,株式会社,岡山県,岡山市中区,藤崎１８３番地２２,,33,102,7028006,,,,,,,2024-09-03,1,,,,,アールフォー,0
525,2290001107144,新規,0,2024-09-03,2024-09-03,株式会社華瑞,,株式会社,福岡県,福岡市博多区,美野島３丁目２２番４４号,,40,132,8120017,,,,,,,2024-09-03,1,,,,,カズイ,0
528,2290003015733,新規,0,2024-09-03,2024-09-03,かおり合同会社,,合同会社,福岡県,福岡市中央区,天神３丁目７－２２サヴォイテンジンスクワイヤー２０２,,40,133,8100001,,,,,,,2024-09-03,1,,,,,カオリ,0
537,2340005009769,新規,0,2024-09-03,2024-09-03,一般社団法人鹿児島木の家工務店協会,,その他の設立登記法人,鹿児島県,鹿児島市,谷山港１丁目２番４号図南木材株式会社内,,46,201,8910131,,,,,,,2024-09-03,1,,,,,カゴシマキノイエコウムテンキョウカイ,0
542,2360003014232,新規,0,2024-09-03,2024-09-03,合同会社Ｂｉｓｅｎｃｈｕ．,,合同会社,沖縄県,名護市,字屋部３１２－６,,47,209,9050007,,,,,,,2024-09-03,1,,,,,ビセンチュドット,0
555,2480001012580,新規,0,2024-09-03,2024-09-03,株式会社阿波住宅,,株式会社,徳島県,美馬郡つるぎ町,貞光字西山５７番地の２,,36,468,7794102,,,,,,,2024-09-03,1,,,,,,0
571,2700150126992,新規,0,2024-09-03,2024-09-03,ＡＲＡＳＨ　ＥＮＴＥＲＰＲＩＳＥＳ,,外国会社等,千葉県,八街市,砂５５番地９オフィス７号,,12,230,2891121,スリランカ民主社会主義共和国、バンダラガマ、アトゥルガマ、バムヌムッラ、Ｎｏ．３９５,,,,,,2024-09-03,1,,,,,アラシユエンタープライズ,0
572,2700150127000,新規,0,2024-09-03,2024-09-03,ＡＮＴＯＮ　ＴＲＡＤＥＲＳ,,外国会社等,千葉県,大網白里市,細草３１７４番地４,,12,239,2993211,スリランカ民主社会主義共和国、キャンディ、ペラデニヤロード、Ｎｏ．２１／１／Ａ,,,,,,2024-09-03,1,,,,,アントントレーダース,0
573,2700150127009,新規,0,2024-09-03,2024-09-03,耀鼎企業有限公司,,外国会社等,,,,,,,,台北市大同區民樂街７９號２樓,,,,,,2024-09-03,1,,,,,ヨウテイキギヨウユウゲンガイシヤ,0
574,2700150127017,新規,0,2024-09-03,2024-09-03,ＨＡＪＡ　ＭＯＴＯＲＳ,,外国会社等,神奈川県,綾瀬市,大上６丁目７－１５ミオンさがみ野Ｂ棟２０４,,14,218,2521104,スリランカ民主社会主義共和国、ポロンナルワ、カドルウラ、ベティカロロード、９１９／０１番,,,,,,2024-09-03,1,,,,,ハジヤモータス,0
581,3010001247900,新規,0,2024-09-03,2024-09-03,雅心水集団株式会社,,株式会社,東京都,中央区,銀座６丁目１３番１６号銀座ＷａｌｌビルＵＣＦ５０１,,13,102,1040061,,,,,,,2024-09-03,1,,,,,ガシンスイシュウダン,0
582,3010001247974,新規,0,2024-09-03,2024-09-03,株式会社ｉＮＫＯＤＥ　ＪＡＰＡＮ,,株式会社,東京都,千代田区,麹町４丁目４番地４,,13,101,1020083,,,,,,,2024-09-03,1,,,,,インコードジャパン,0
583,3010001247982,新規,0,2024-09-03,2024-09-03,株式会社Ｖｉｔａｌｉｚａｒ,,株式会社,東京都,千代田区,神田須田町１丁目７番８号ＶＯＲＴ秋葉原ＩＶ－２Ｆ,00136153,13,101,1010041,,,,,,,2024-09-03,1,,,,,ビタリザ,0
584,3010001247990,新規,0,2024-09-03,2024-09-03,株式会社ＳＴコンサルティング,,株式会社,東京都,中央区,月島１丁目５番１－１４０６号,,13,102,1040052,,,,,,,2024-09-03,1,,,,,エスティーコンサルティング,0
586,3010003044775,新規,0,2024-09-03,2024-09-03,ワラク・シップ・ホールディング合同会社,,合同会社,東京都,中央区,京橋２丁目２番１号,,13,102,1040031,,,,,,,2024-09-03,1,,,,,ワラクシップホールディング,0
597,3010401184578,新規,0,2024-09-03,2024-09-03,株式会社ローピクト,,株式会社,東京都,港区,海岸１丁目１番１号,,13,103,1050022,,,,,,,2024-09-03,1,,,,,ローピクト,0
598,3010401184850,新規,0,2024-09-03,2024-09-03,株式会社スマートスペース,,株式会社,東京都,港区,西新橋２丁目８番１４号宝栄西新橋ビル５０２,,13,103,1050003,,,,,,,2024-09-03,1,,,,,スマートスペース,0
599,3010401184900,新規,0,2024-09-03,2024-09-03,株式会社宮川工務店,,株式会社,東京都,港区,六本木５丁目２番６号ＴＫビル７階,,13,103,1060032,,,,,,,2024-09-03,1,,,,,ミヤカワコウムテン,0
601,3010403033287,新規,0,2024-09-03,2024-09-03,合同会社レジデンスアセットソリューション１号,,合同会社,東京都,港区,港南２丁目１５番３号,,13,103,1080075,,,,,,,2024-09-03,1,,,,,レジデンスアセットソリューションイチゴウ,0
602,3010403033329,新規,0,2024-09-03,2024-09-03,合同会社えな,,合同会社,東京都,港区,南青山３丁目１番３６号青山丸竹ビル６Ｆ,,13,103,1070062,,,,,,,2024-09-03,1,,,,,エナ,0
603,3010403033337,新規,0,2024-09-03,2024-09-03,Ｓｉｍ　Ｊａｐａｎ合同会社,,合同会社,東京都,港区,南青山３丁目１－３６青山丸竹ビル６Ｆ,,13,103,1070062,,,,,,,2024-09-03,1,,,,,シムジャパン,0
604,3010403033345,新規,0,2024-09-03,2024-09-03,Ｂｅｒｂｉｅ　Ｈｏｌｄｉｎｇｓ合同会社,,合同会社,東京都,港区,西新橋１丁目１番１号ＥＰコンサルティングサービス内,,13,103,1050003,,,,,,,2024-09-03,1,,,,,ベルビーホールディングス,0
607,3010405023484,新規,0,2024-09-03,2024-09-03,社会保険労務士法人ブルズサポート,,その他の設立登記法人,東京都,港区,麻布永坂町１番地麻布パークサイドビル２階,,13,103,1060043,,,,,,,2024-09-03,1,,,,,ブルズサポート,0
611,3010503007562,新規,0,2024-09-03,2024-09-03,サバービアスタイル合同会社,,合同会社,東京都,台東区,元浅草１丁目６番地１２,,13,106,1110041,,,,,,,2024-09-03,1,,,,,サバービアスタイル,0
617,3010803005084,新規,0,2024-09-03,2024-09-03,ａｇｒｅａｂｌｅ合同会社,,合同会社,東京都,大田区,大森本町２丁目３１－７コーポあづま１０１,,13,111,1430011,,,,,,,2024-09-03,1,,,,,アグレアーブル,0
619,3011001164375,新規,0,2024-09-03,2024-09-03,株式会社ＯＵＴＳ,,株式会社,東京都,渋谷区,恵比寿１丁目１５番９号日宝恵比寿ビル４０３,,13,113,1500013,,,,,,,2024-09-03,1,,,,,アウツ,0
620,3011001164409,新規,0,2024-09-03,2024-09-03,株式会社いんく,,株式会社,東京都,渋谷区,道玄坂１丁目１０番８号渋谷道玄坂東急ビル２Ｆ－Ｃ,,13,113,1500043,,,,,,,2024-09-03,1,,,,,インク,0
629,3011201025765,新規,0,2024-09-03,2024-09-03,株式会社ステイアライブ,,株式会社,東京都,中野区,鷺宮３丁目３７番１３号,,13,114,1650032,,,,,,,2024-09-03,1,,,,,ステイアライブ,0
631,3011501031109,新規,0,2024-09-03,2024-09-03,株式会社ＧＲＡＣＥ,,株式会社,東京都,荒川区,東尾久６丁目１７番１－１０６号,,13,118,1160012,,,,,,,2024-09-03,1,,,,,グレイス,0
634,3011701027583,新規,0,2024-09-03,2024-09-03,ＧＯＯＤＳＵＮ株式会社,,株式会社,東京都,江戸川区,南小岩３丁目５番１３号Ｅ＆Ｓ１０１,,13,123,1330056,,,,,,,2024-09-03,1,,,,,グッドサン,0
638,3011803006428,新規,0,2024-09-03,2024-09-03,Ｇｏｎｄａｌ　Ｔｒａｄｉｎｇ合同会社,,合同会社,東京都,足立区,西新井本町１丁目２７番２６号,,13,121,1230845,,,,,,,2024-09-03,1,,,,,ゴンダルトレーディング,0
639,3011803006436,新規,0,2024-09-03,2024-09-03,東京ライフスタイルホールディングス合同会社,,合同会社,東京都,足立区,花畑６丁目１９番１７号,,13,121,1210061,,,,,,,2024-09-03,1,,,,,トウキョウライフスタイルホールディングス,0
640,3012401042245,新規,0,2024-09-03,2024-09-03,株式会社ＷＡＲＰ,,株式会社,東京都,三鷹市,大沢５丁目１２番２４号,,13,204,1810015,,,,,,,2024-09-03,1,,,,,ワープ,0
641,3012401042253,新規,0,2024-09-03,2024-09-03,株式会社意匠,,株式会社,東京都,多摩市,中沢２丁目３－１ライオンズマンション多摩センター３０２号,,13,224,2060036,,,,,,,2024-09-03,1,,,,,,0
643,3013101009501,新規,0,2024-09-03,2024-09-03,株式会社Ｒｉｎｏ．Ｉｎｃ,,株式会社,東京都,福生市,牛浜８６番地１牛浜駅前マンション３０１,,13,218,1970024,,,,,,,2024-09-03,1,,,,,,0
655,3020001158857,新規,0,2024-09-03,2024-09-03,株式会社マナビプレイス,,株式会社,神奈川県,川崎市中原区,上小田中６丁目２１－６エフビル５階,,14,133,2110053,,,,,,,2024-09-03,1,,,,,マナビプレイス,0
656,3020001158881,新規,0,2024-09-03,2024-09-03,株式会社青山,,株式会社,神奈川県,横浜市緑区,十日市場町９００番地１２ライオンズマンション十日市場第２、２０５号,,14,113,2260025,,,,,,,2024-09-03,1,,,,,アオヤマ,0
662,3021001083145,新規,0,2024-09-03,2024-09-03,株式会社千石屋,,株式会社,神奈川県,厚木市,田村町５番３２号,,14,212,2430016,,,,,,,2024-09-03,1,,,,,センゴクヤ,0
668,3021003014940,新規,0,2024-09-03,2024-09-03,合同会社ビアンサ,,合同会社,神奈川県,伊勢原市,東大竹７１４－２１,,14,214,2591133,,,,,,,2024-09-03,1,,,,,ビアンサ,0
679,3040001135202,新規,0,2024-09-03,2024-09-03,株式会社Ｋ‐ＡＸＩＳ,,株式会社,千葉県,市川市,湊新田２丁目３番１０号－３０１,,12,203,2720132,,,,,,,2024-09-03,1,,,,,ケーアクシス,0
680,3040001135219,新規,0,2024-09-03,2024-09-03,株式会社アイ・ドット,,株式会社,千葉県,千葉市美浜区,中瀬２丁目６番地１,,12,106,2610023,,,,,,,2024-09-03,1,,,,,アイドット,0
684,3040003025723,新規,0,2024-09-03,2024-09-03,合同会社鈴,,合同会社,千葉県,千葉市中央区,大森町５１４番地１４０,,12,101,2600811,,,,,,,2024-09-03,1,,,,,スズ,0
689,3060005010242,新規,0,2024-09-03,2024-09-03,一般社団法人全国葬技協会,,その他の設立登記法人,栃木県,宇都宮市,下岡本町３７２８－８,,09,201,3291104,,,,,,,2024-09-03,1,,,,,ゼンコクソウギキョウカイ,0
691,3080401027409,新規,0,2024-09-03,2024-09-03,株式会社大石,,株式会社,静岡県,浜松市中央区,西浅田１丁目１０番３６号,,22,138,4328045,,,,,,,2024-09-03,1,,,,,オオイシ,0
706,3120001268051,新規,0,2024-09-03,2024-09-03,株式会社Ｕ＆Ｓパートナーズ,,株式会社,大阪府,大阪市生野区,新今里１丁目２０番１２号オズレジデンス今里ＩＩＩ７０２号,00136159,27,116,5440001,,,,,,,2024-09-03,1,,,,,ユーアンドエスパートナーズ,0
707,3120001268191,新規,0,2024-09-03,2024-09-03,株式会社小西設備,,株式会社,大阪府,大阪市生野区,巽中４丁目２番４０号,00136167,27,116,5440013,,,,,,,2024-09-03,1,,,,,コニシセツビ,0
708,3120001268217,新規,0,2024-09-03,2024-09-03,株式会社ＺＯＯ,,株式会社,大阪府,大阪市福島区,大開１丁目１５番２４－３０５号,,27,103,5530007,,,,,,,2024-09-03,1,,,,,ズー,0
709,3120001268225,新規,0,2024-09-03,2024-09-03,ＲＩＸ検査株式会社,,株式会社,大阪府,大阪市淀川区,西中島３丁目２０番８号,,27,123,5320011,,,,,,,2024-09-03,1,,,,,リックスケンサ,0
710,3120001268258,新規,0,2024-09-03,2024-09-03,双瀧株式会社,,株式会社,大阪府,大阪市西成区,萩之茶屋１丁目１２－７万葉ビル１２６号室,,27,122,5570004,,,,,,,2024-09-03,1,,,,,ソウロウ,0
713,3120101070241,新規,0,2024-09-03,2024-09-03,株式会社縁,,株式会社,大阪府,泉北郡忠岡町,忠岡北２丁目１１番２７号,,27,341,5950811,,,,,,,2024-09-03,1,,,,,エン,0
720,3130001077848,新規,0,2024-09-03,2024-09-03,ＦＬＴ株式会社,,株式会社,京都府,宇治市,五ケ庄芝ノ東１５番地の３７,,26,204,6110011,,,,,,,2024-09-03,1,,,,,エフエルティ,0
721,3130001077856,新規,0,2024-09-03,2024-09-03,アヌラバイオ株式会社,,株式会社,京都府,京都市左京区,吉田上大路町１９番地６,,26,103,6068312,,,,,,,2024-09-03,1,,,,,アヌラバイオ,0
723,3150001027537,新規,0,2024-09-03,2024-09-03,株式会社心境ファミリー,,株式会社,奈良県,宇陀市,榛原笠間２３７７番地,,29,212,6330245,,,,,,,2024-09-03,1,,,,,シンキョウファミリー,0
725,3160003003279,新規,0,2024-09-03,2024-09-03,合同会社メンタルケア,,合同会社,滋賀県,大津市,大萱１丁目１８番３４号,,25,201,5202144,,,,,,,2024-09-03,1,,,,,メンタルケア,0
738,3180303006252,新規,0,2024-09-03,2024-09-03,合同会社ＢＩＢＲＩＸ,,合同会社,愛知県,豊橋市,西岩田１丁目６番地１０,,23,201,4400831,,,,,,,2024-09-03,1,,,,,ビブリックス,0
750,3210001019899,新規,0,2024-09-03,2024-09-03,株式会社土田舎,,株式会社,福井県,鯖江市,北中町３０６番地,,18,207,9161237,,,,,,,2024-09-03,1,,,,,ツチダヤ,0
758,3240001063770,新規,0,2024-09-03,2024-09-03,株式会社Ｇｒｅｅｎ　Ｓｕｐｐｏｒｔ広島,,株式会社,広島県,山県郡北広島町,長笹１３４５番地,,34,369,7311713,,,,,,,2024-09-03,1,,,,,グリーンサポートヒロシマ,0
759,3240001063779,新規,0,2024-09-03,2024-09-03,株式会社ＭＩＮＡＭＯ,,株式会社,広島県,広島市中区,南竹屋町１番２０－３０３号,,34,101,7300049,,,,,,,2024-09-03,1,,,,,ミナモ,0
760,3240003006835,新規,0,2024-09-03,2024-09-03,合同会社ＭＡＳＵＩ,,合同会社,広島県,廿日市市,串戸１丁目１４番５号,,34,213,7380033,,,,,,,2024-09-03,1,,,,,マスイ,0
767,3270001009044,新規,0,2024-09-03,2024-09-03,アイスクライム株式会社,,株式会社,鳥取県,東伯郡琴浦町,大字美好１０,,31,371,6892354,,,,,,,2024-09-03,1,,,,,アイスクライム,0
768,3270003001668,新規,0,2024-09-03,2024-09-03,合同会社ＯＮＥ．ＢＡＳＥ,,合同会社,鳥取県,八頭郡八頭町,門尾２４－９,,31,329,6800422,,,,,,,2024-09-03,1,,,,,ワンベース,0
775,3290001107143,新規,0,2024-09-03,2024-09-03,株式会社Ｃａｒ‐ｔｒｕｓｔ,,株式会社,福岡県,糸島市,末永４８４番地１,,40,230,8191572,,,,,,,2024-09-03,1,,,,,カートラスト,0
779,3320001020689,新規,0,2024-09-03,2024-09-03,株式会社拝,,株式会社,大分県,玖珠郡九重町,大字右田３０４９番地の１,,44,461,8794601,,,,,,,2024-09-03,1,,,,,オガミ,0
780,3320001020697,新規,0,2024-09-03,2024-09-03,彩瑛プラント工業株式会社,,株式会社,大分県,大分市,東津留２丁目１７番９号ウイングアイ５０５,,44,201,8700934,,,,,,,2024-09-03,1,,,,,,0
784,3330001032436,新規,0,2024-09-03,2024-09-03,株式会社ＡＫＡ,,株式会社,熊本県,熊本市中央区,新市街３番７号アクアビル地下１階,,43,101,8600803,,,,,,,2024-09-03,1,,,,,エイケイエイ,0
809,3430001092577,新規,0,2024-09-03,2024-09-03,株式会社ｈｅｍｉｔｅｃｈ,,株式会社,北海道,札幌市中央区,北四条東２丁目１番地岩崎ビル３階,,01,101,0600034,,,,,,,2024-09-03,1,,,,,ヘミテック,0
810,3430001092610,新規,0,2024-09-03,2024-09-03,株式会社ＳＨＩＮＥ運送,,株式会社,北海道,札幌市北区,新琴似十二条３丁目１番７号,,01,102,0010912,,,,,,,2024-09-03,1,,,,,シャインウンソウ,0
812,3430005015055,新規,0,2024-09-03,2024-09-03,一般社団法人マスタードシードクリスチャン教会‐札幌,,その他の設立登記法人,北海道,札幌市中央区,北五条西２４丁目１ー８ー５０３,,01,101,0600005,,,,,,,2024-09-03,1,,,,,マスタードシードクリスチャンキョウカイサッポロ,0
825,3700150126744,新規,0,2024-09-03,2024-08-16,コスモ浅草雷門管理組合,,その他,東京都,台東区,雷門２丁目１８番５,,13,106,1110034,,,,,,,2024-08-16,1,,,,,コスモアサクサカミナリモンカンリクミアイ,0
826,3700150126991,新規,0,2024-09-03,2024-09-03,Ｄ．Ｔ．ＭＯＴＯＲＳ,,外国会社等,千葉県,八街市,砂５５番地９オフィス８号,,12,230,2891121,スリランカ民主社会主義共和国、キャンディ、アンクンブラ、パッレガマ、Ｎｏ．２２８／２／Ａ,,,,,,2024-09-03,1,,,,,デイーテイーモータース,0
827,3700150127008,新規,0,2024-09-03,2024-09-03,ＮＥＸＧＥＮ　ＡＵＴＯ　ＰＡＲＴＳ＆ＶＥＨＩＣＬＥＳ,,外国会社等,千葉県,山武市,木原２０３１番地２１－１Ｃ,,12,237,2891212,スリランカ民主社会主義共和国、アクラナ、ドゥヌウィラロード、Ｎｏ．８５３／Ａ,,,,,,2024-09-03,1,,,,,ネクスゲンオートパーツアンドヴエイクルズ,0
828,3700150127016,新規,0,2024-09-03,2024-09-03,ＰＥＡＮＵＴ　ＡＩ株式会社,,外国会社等,埼玉県,和光市,新倉１丁目３４番５０号,,11,229,3510115,大韓民国ソウル特別市瑞草区江南大路３０９，１０１２（瑞草洞、コリアビジネスセンター）,,,,,,2024-09-03,1,,,,,ピーナツツエーアイ,0
834,4010001247940,新規,0,2024-09-03,2024-09-03,株式会社論語と算盤,,株式会社,東京都,中央区,八丁堀３丁目２４番１－６１３号,,13,102,1040032,,,,,,,2024-09-03,1,,,,,ロンゴトソロバン,0
835,4010001247957,新規,0,2024-09-03,2024-09-03,ＬＡＣ株式会社,,株式会社,東京都,千代田区,神田神保町１丁目２４番１－１２０５号,,13,101,1010051,,,,,,,2024-09-03,1,,,,,エルエーシー,0
836,4010001247965,新規,0,2024-09-03,2024-09-03,ＱＵＥＥＮ株式会社,,株式会社,東京都,千代田区,神田神保町２丁目３４－１鳴海ビル２１８号,,13,101,1010051,,,,,,,2024-09-03,1,,,,,クイーン,0
837,4010001247973,新規,0,2024-09-03,2024-09-03,株式会社クローバー,,株式会社,東京都,文京区,千石４丁目１４番９号,,13,105,1120011,,,,,,,2024-09-03,1,,,,,クローバー,0
838,4010001248006,新規,0,2024-09-03,2024-09-03,Ｙｏｓｅｇｉ　ＡＩ株式会社,,株式会社,東京都,中央区,銀座１丁目２２番１１号銀座大竹ビジデンス２Ｆ,,13,102,1040061,,,,,,,2024-09-03,1,,,,,ヨセギエーアイ,0
844,4010003044758,新規,0,2024-09-03,2024-09-03,Ｃａｓａ合同会社,,合同会社,東京都,千代田区,丸の内１丁目４番１号東京共同会計事務所内,,13,101,1000005,,,,,,,2024-09-03,1,,,,,カーサ,0
845,4010003044766,新規,0,2024-09-03,2024-09-03,合同会社ｗｅｓｔｓｉｄｅ,,合同会社,東京都,中央区,日本橋箱崎町４番８－８０４号,,13,102,1030015,,,,,,,2024-09-03,1,,,,,ウェストサイド,0
863,4010401184817,新規,0,2024-09-03,2024-09-03,ＴＮ天鳥株式会社,,株式会社,東京都,港区,芝４丁目７－６－４０６,,13,103,1080014,,,,,,,2024-09-03,1,,,,,ティーエヌアマドリ,0
865,4010403033311,新規,0,2024-09-03,2024-09-03,合同会社三島商事,,合同会社,東京都,港区,芝４丁目１８番４－１００１号,,13,103,1080014,,,,,,,2024-09-03,1,,,,,ミシマショウジ,0
866,4010403033344,新規,0,2024-09-03,2024-09-03,Ｅｐｈｅｓｕｓ　Ｈｏｌｄｉｎｇｓ２合同会社,,合同会社,東京都,港区,西新橋１丁目１番１号ＥＰコンサルティングサービス内,,13,103,1050003,,,,,,,2024-09-03,1,,,,,エフェソスホールディングスツー,0
875,4010703007329,新規,0,2024-09-03,2024-09-03,ｉｃｅｂｌｕｅ合同会社,,合同会社,東京都,品川区,東大井３丁目２２番３－５２０号,,13,109,1400011,,,,,,,2024-09-03,1,,,,,アイスブルー,0
886,4011001164259,新規,0,2024-09-03,2024-09-03,ニチハク商事株式会社,,株式会社,東京都,目黒区,碑文谷５丁目２－５Ｔ＆Ａビル５Ｆ,,13,110,1520003,,,,,,,2024-09-03,1,,,,,ニチハクショウジ,0
887,4011001164267,新規,0,2024-09-03,2024-09-03,Ｂｉｚ　ｐｌａｎｎｉｎｇ株式会社,,株式会社,東京都,目黒区,下目黒１丁目１番１４号コノトラビル７Ｆ,,13,110,1530064,,,,,,,2024-09-03,1,,,,,ビズプランニング,0
888,4011001164309,新規,0,2024-09-03,2024-09-03,ＢＯＲＴＡＬＡ　ＴＯＫＹＯ株式会社,,株式会社,東京都,渋谷区,本町３丁目４９番１７－６０７号ザ・パークワンズ渋谷本町,,13,113,1510071,,,,,,,2024-09-03,1,,,,,ボルタラトウキョウ,0
889,4011001164374,新規,0,2024-09-03,2024-09-03,株式会社ＳＣＫＳ,,株式会社,東京都,渋谷区,元代々木町２８番４号－３０１,,13,113,1510062,,,,,,,2024-09-03,1,,,,,エスシーケーエス,0
890,4011001164382,新規,0,2024-09-03,2024-09-03,メタサーチ株式会社,,株式会社,東京都,渋谷区,神宮前６丁目２８番９号東武ビル３Ｆ・５Ｆ・６Ｆ,,13,113,1500001,,,,,,,2024-09-03,1,,,,,メタサーチ,0
891,4011001164408,新規,0,2024-09-03,2024-09-03,株式会社ＭＵＳＩＣ　ＦＡＭＩＬＹ,,株式会社,東京都,目黒区,目黒２丁目１４番１３号,,13,110,1530063,,,,,,,2024-09-03,1,,,,,ミュージックファミリー,0
892,4011001164416,新規,0,2024-09-03,2024-09-03,株式会社ＫＯＨ’Ｓ　ＬＩＣＫ　ＣＵＲＲＯ,,株式会社,東京都,渋谷区,神宮前５丁目７番１３号ＫＯＨホーリーランド表参道,,13,113,1500001,,,,,,,2024-09-03,1,,,,,コウズリッククロ,0
893,4011001164424,新規,0,2024-09-03,2024-09-03,株式会社ＡＰＯＹＯＮ,,株式会社,東京都,渋谷区,桜丘町２３番１７号シティコート桜丘４０８,,13,113,1500031,,,,,,,2024-09-03,1,,,,,アポヨン,0
894,4011003019915,新規,0,2024-09-03,2024-09-03,ＳＴＵＴＳ．合同会社,,合同会社,東京都,目黒区,青葉台２丁目１２番３号西郷山マンション４Ｃ,,13,110,1530042,,,,,,,2024-09-03,1,,,,,スタツ,0
896,4011101108628,新規,0,2024-09-03,2024-09-03,ファイブスター株式会社,,株式会社,東京都,新宿区,西新宿１丁目２０番３号西新宿高木ビル８Ｆ,,13,104,1600023,,,,,,,2024-09-03,1,,,,,ファイブスター,0
899,4011103014873,新規,0,2024-09-03,2024-09-03,合同会社ブルーデイジー,,合同会社,東京都,新宿区,百人町２丁目１６番２０－３０１号,,13,104,1690073,,,,,,,2024-09-03,1,,,,,ブルーデイジー,0
904,4011403004491,新規,0,2024-09-03,2024-09-03,合同会社ドレイド,,合同会社,東京都,板橋区,四葉２丁目２８番１５号シティハイムヒルズ四葉ＩＩ２０２,00136156,13,119,1750084,,,,,,,2024-09-03,1,,,,,ドレイド,0
907,4011501031108,新規,0,2024-09-03,2024-09-03,株式会社ＳＮＡＸ,,株式会社,東京都,荒川区,町屋４丁目１４番１号１階,,13,118,1160001,,,,,,,2024-09-03,1,,,,,スナクス,0
908,4011502007230,新規,0,2024-09-03,2024-09-03,有限会社内田屋酒店,,有限会社,東京都,荒川区,西尾久２丁目４番１８号,,13,118,1160011,,,,,,,2024-09-03,1,,,,,,0
909,4011503006207,新規,0,2024-09-03,2024-09-03,ＳＯＮＧ　ＤＡ　ＣＥＮＴＵＲＹ合同会社,,合同会社,東京都,北区,岸町２丁目１０－１８,,13,117,1140021,,,,,,,2024-09-03,1,,,,,ソンダセンチュリー,0
917,4012705002415,新規,0,2024-09-03,2024-09-03,特定非営利活動法人街の保健室,,その他の設立登記法人,東京都,東村山市,恩多町４丁目８番地６,,13,213,1890011,,,,,,,2024-09-03,1,,,,,マチノホケンシツ,0
918,4012801023430,新規,0,2024-09-03,2024-09-03,日本総合ケアサービス株式会社,,株式会社,東京都,日野市,三沢２丁目３番地の６百草園マンション３０１,,13,212,1910032,,,,,,,2024-09-03,1,,,,,ニホンソウゴウケアサービス,0
919,4013101009500,新規,0,2024-09-03,2024-09-03,株式会社ハイイロチョッキリ,,株式会社,東京都,あきる野市,小中野５６番地２,,13,228,1900165,,,,,,,2024-09-03,1,,,,,ハイイロチョッキリ,0
926,4020001158971,新規,0,2024-09-03,2024-09-03,株式会社みなと,,株式会社,神奈川県,横浜市神奈川区,七島町１１３番地５,,14,102,2210061,,,,,,,2024-09-03,1,,,,,ミナト,0
927,4020001158988,新規,0,2024-09-03,2024-09-03,株式会社エデリー,,株式会社,神奈川県,横浜市都筑区,仲町台１丁目７－１８ビュロー仲町台３０４,,14,118,2240041,,,,,,,2024-09-03,1,,,,,エデリー,0
933,4020003026805,新規,0,2024-09-03,2024-09-03,合同会社ｄｙｎａｍｏ,,合同会社,神奈川県,横浜市金沢区,並木１丁目１４－４－１０２,,14,108,2360005,,,,,,,2024-09-03,1,,,,,ダイナモ,0
934,4020003026821,新規,0,2024-09-03,2024-09-03,合同会社レッド,,合同会社,神奈川県,川崎市麻生区,上麻生３丁目２２番６－３１５号,,14,137,2150021,,,,,,,2024-09-03,1,,,,,レッド,0
943,4021001083136,新規,0,2024-09-03,2024-09-03,株式会社Ｍ＆Ｍ,,株式会社,神奈川県,鎌倉市,雪ノ下１丁目４番２６号,,14,204,2480005,,,,,,,2024-09-03,1,,,,,エムアンドエム,0
945,4021003014972,新規,0,2024-09-03,2024-09-03,合同会社アイケー資産管理,,合同会社,神奈川県,横須賀市,追浜東町３丁目７１番地,,14,201,2370063,,,,,,,2024-09-03,1,,,,,アイケーシサンカンリ,0
963,4050001055349,新規,0,2024-09-03,2024-09-03,株式会社ロバストアクシス,,株式会社,茨城県,笠間市,笠間１８２６番地５ステップハウス２・２０１号室,,08,216,3091611,,,,,,,2024-09-03,1,,,,,ロバストアクシス,0
970,4070003005572,新規,0,2024-09-03,2024-09-03,合同会社テクノ電装藤岡,,合同会社,群馬県,藤岡市,藤岡９０６番地,,10,209,3750024,,,,,,,2024-09-03,1,,,,,テクノデンソウフジオカ,0
990,4120001268174,新規,0,2024-09-03,2024-09-03,隣株式会社,,株式会社,大阪府,大阪市中央区,西心斎橋２丁目１０番１０号,,27,128,5420086,,,,,,,2024-09-03,1,,,,,トナリ,0
991,4120001268208,新規,0,2024-09-03,2024-09-03,株式会社法人駆け込み寺,,株式会社,大阪府,大阪市中央区,北久宝寺町１丁目２番１－６０４号,,27,128,5410057,,,,,,,2024-09-03,1,,,,,ホウジンカケコミデラ,0
992,4120001268281,新規,0,2024-09-03,2024-09-03,株式会社ノアワークス,,株式会社,大阪府,大阪市中央区,上本町西２丁目６番６号,,27,128,5420062,,,,,,,2024-09-03,1,,,,,ノアワークス,0
995,4120003027215,新規,0,2024-09-03,2024-09-03,合同会社ミハルステーション,,合同会社,大阪府,大阪市此花区,島屋１丁目１－１５シティホームＫＥＮ１０２,,27,104,5540024,,,,,,,2024-09-03,1,,,,,ミハルステーション,0
997,4120005024524,新規,0,2024-09-03,2024-09-03,税理士法人花音・井上会計事務所,,その他の設立登記法人,大阪府,大阪市旭区,大宮２丁目２６番２３号,,27,117,5350002,,,,,,,2024-09-03,1,,,,,カノンイノウエカイケイジムショ,0
999,4120901049715,新規,0,2024-09-03,2024-09-03,株式会社仲田屋,,株式会社,大阪府,高槻市,古曽部町２丁目１５番１－１２１号,,27,207,5691115,,,,,,,2024-09-03,1,,,,,ナカタヤ,0
1002,4130001077871,新規,0,2024-09-03,2024-09-03,株式会社ベア・フルート,,株式会社,京都府,京都市上京区,大宮通上立売上る樋之口町２５９番地１階店舗,,26,102,6028425,,,,,,,2024-09-03,1,,,,,ベアフルート,0
1007,4140001135694,新規,0,2024-09-03,2024-09-03,Ｂｅ　ｓｉｄｅ　ｙｏｕ株式会社,,株式会社,兵庫県,神戸市須磨区,須磨浦通４丁目５番１７－３０３号,,28,107,6540055,,,,,,,2024-09-03,1,,,,,ビーサイドユー,0
1011,4150001027536,新規,0,2024-09-03,2024-09-03,株式会社Ｃｏｎｑｕｅｒｏｒ,,株式会社,奈良県,奈良市,中町２２３２番地,,29,201,6310052,,,,,,,2024-09-03,1,,,,,コンカー,0
1012,4150001027544,新規,0,2024-09-03,2024-09-03,ＭＩＳＡＳＡＧＩ株式会社,,株式会社,奈良県,奈良市,山陵町５８７－５,,29,201,6310803,,,,,,,2024-09-03,1,,,,,ミササギ,0
1013,4160003003278,新規,0,2024-09-03,2024-09-03,合同会社ＭＩＲＩＨＵＭＩ,,合同会社,滋賀県,湖南市,岩根１０９８－１アウローラ湖南２０２号室,,25,211,5203252,,,,,,,2024-09-03,1,,,,,モリフミ,0
1023,4180005020749,新規,0,2024-09-03,2024-09-03,ＫＳＬ協同組合,,その他の設立登記法人,愛知県,名古屋市中川区,西伏屋２丁目４０４番地,,23,110,4540982,,,,,,,2024-09-03,1,,,,,ケーエスエル,0
1031,4240003006834,新規,0,2024-09-03,2024-09-03,明元素ササキ経営合同会社,,合同会社,広島県,広島市中区,十日市町２丁目９番８－２０３号,,34,101,7300805,,,,,,,2024-09-03,1,,,,,メイゲンソササキケイエイ,0
1033,4240005015817,新規,0,2024-09-03,2024-09-03,医療法人きらきらこどもクリニック,,その他の設立登記法人,広島県,安芸郡海田町,窪町１番２３号ＪＲ海田市駅ＮＫビル２階,,34,304,7360046,,,,,,,2024-09-03,1,,,,,キラキラコドモクリニック,0
1038,4260001039421,新規,0,2024-09-03,2024-09-03,株式会社ＴＯＲＣＨ．,,株式会社,岡山県,岡山市北区,西古松２丁目３番３－２０５号,,33,101,7000927,,,,,,,2024-09-03,1,,,,,トーチ,0
1039,4280001009249,新規,0,2024-09-03,2024-09-03,株式会社アップデート,,株式会社,島根県,松江市,朝日町４９８番地,,32,201,6900003,,,,,,,2024-09-03,1,,,,,アップデート,0
1041,4290001107076,新規,0,2024-09-03,2024-09-03,株式会社Ｇｉｆｔ,,株式会社,福岡県,久留米市,山川安居野３丁目６番３号,,40,203,8390812,,,,,,,2024-09-03,1,,,,,ギフト,0
1042,4290001107118,新規,0,2024-09-03,2024-09-03,株式会社Ｓｈａｌｏｍ,,株式会社,福岡県,福岡市中央区,天神４丁目６－２８天神ファーストビル７階,,40,133,8100001,,,,,,,2024-09-03,1,,,,,シャローム,0
1043,4290001107126,新規,0,2024-09-03,2024-09-03,株式会社ホースパークＨｉｌｏ,,株式会社,福岡県,福津市,西福間５丁目２２番１号,,40,224,8113219,,,,,,,2024-09-03,1,,,,,ホースパークヒロ,0
1044,4290001107134,新規,0,2024-09-03,2024-09-03,株式会社オルテンシア,,株式会社,福岡県,福岡市早良区,田隈２丁目２９番２号,,40,137,8140174,,,,,,,2024-09-03,1,,,,,オルテンシア,0
1045,4290001107142,新規,0,2024-09-03,2024-09-03,株式会社ＨＧＣ,,株式会社,福岡県,福岡市城南区,別府２丁目１５番３号,,40,136,8140104,,,,,,,2024-09-03,1,,,,,エイチジーシー,0
1046,4290001107150,新規,0,2024-09-03,2024-09-03,Ｗａｖｅ　Ｅｎｅｒｇｙ　Ｉｎｎｏｖａｔｉｏｎ株式会社,,株式会社,福岡県,福岡市中央区,今泉２丁目５番１１号カンファービル３Ｆ－Ｂ,,40,133,8100021,,,,,,,2024-09-03,1,,,,,ウェーブエナジーイノベーション,0
1047,4290001107167,新規,0,2024-09-03,2024-09-03,Ｖｉｖｉｄ　Ｖｉｄｓ株式会社,,株式会社,福岡県,福岡市中央区,平尾２丁目５番１６－９０８号,,40,133,8100014,,,,,,,2024-09-03,1,,,,,ビビッドビッツ,0
1051,4290003015756,新規,0,2024-09-03,2024-09-03,合同会社ＦＩＶＥ・Ｇ,,合同会社,福岡県,大牟田市,大字歴木４４番地１,,40,202,8370924,,,,,,,2024-09-03,1,,,,,ファイブジー,0
1052,4290005019499,新規,0,2024-09-03,2024-09-03,一般社団法人ＴＨＥ　ＪＡＭ,,その他の設立登記法人,福岡県,糟屋郡宇美町,光正寺２丁目１４－１７Ａ１０１,,40,341,8112123,,,,,,,2024-09-03,1,,,,,ザジャム,0
1054,4290801030849,新規,0,2024-09-03,2024-09-03,株式会社ＩＷＡＴＡ,,株式会社,福岡県,北九州市小倉北区,弁天町５番８号,,40,106,8030856,,,,,,,2024-09-03,1,,,,,イワタ,0
1058,4320001020696,新規,0,2024-09-03,2024-09-03,株式会社マルベリーフィールドコネクション,,株式会社,大分県,大分市,高江南１丁目１番地の４,,44,201,8701118,,,,,,,2024-09-03,1,,,,,マルベリーフィールドコネクション,0
1072,4370001051687,新規,0,2024-09-03,2024-09-03,株式会社田村電気管理事務所,,株式会社,宮城県,仙台市青葉区,錦ケ丘８丁目２番地の１,,04,101,9893123,,,,,,,2024-09-03,1,,,,,タムラデンキカンリジムショ,0
1085,4430001092584,新規,0,2024-09-03,2024-09-03,株式会社ＭＯＭＯＡ,,株式会社,北海道,札幌市厚別区,上野幌三条５丁目２番１５号,,01,108,0040033,,,,,,,2024-09-03,1,,,,,モモア,0
1086,4430001092601,新規,0,2024-09-03,2024-09-03,株式会社サンワ,,株式会社,北海道,札幌市東区,東苗穂六条３丁目１０番３号,,01,103,0070806,,,,,,,2024-09-03,1,,,,,サンワ,0
1095,4700150126990,新規,0,2024-09-03,2024-09-03,ＳＵＮＳＴＡＲ　ＬＡＮＫＡ　ＭＯＴＯＲＳ,,外国会社等,千葉県,八街市,砂５５番地９オフィス８号,,12,230,2891121,スリランカ民主社会主義共和国、ウェレッラガマ、ミーガスデニヤ、ワララゲダラ、Ｎｏ．１７０／Ａ,,,,,,2024-09-03,1,,,,,サンスターランカモータース,0
1096,4700150126999,新規,0,2024-09-03,2024-09-03,台灣濾器股斌有限公司,00136152,外国会社等,,,,,,,,台北市中山區南京東路三段１６８號２樓之２,,,,,,2024-09-03,1,,,,,タイワンロキコブンユウゲンコウシ,0
1097,4700150127007,新規,0,2024-09-03,2024-09-03,株式会社オーロステクノロジー,,外国会社等,東京都,千代田区,麹町３丁目７番８号麹町山口ビル３０１号,,13,101,1020083,大韓民国京幾道華城市東灘産団６ギル１５－２３（防橋洞）,,,,,,2024-09-03,1,,,,,カブシキガイシヤオーロステクノロジー,0
1098,4700150127015,新規,0,2024-09-03,2024-09-03,福建閑庭貿易有限公司,,外国会社等,,,,,,,,中国福建省晋江市和平中路１１０－３３号,,,,,,2024-09-03,1,,,,,フツケンカンテイボウエキユウゲンコウシ,0
1099,5010001007261,新規,0,2024-09-03,2024-09-03,株式会社マールイ,,株式会社,東京都,文京区,本郷５丁目２９番１３号,,13,105,1130033,,,,,,,2024-09-03,1,,,,,マールイ,0
1106,5010001247931,新規,0,2024-09-03,2024-09-03,ＰＳＩ　ＣＲＯ　Ｊａｐａｎ株式会社,,株式会社,東京都,中央区,日本橋茅場町１丁目１３番２１号阪神ビル６階,,13,102,1030025,,,,,,,2024-09-03,1,,,,,ピーエスアイシーアールオージャパン,0
1107,5010001247948,新規,0,2024-09-03,2024-09-03,高晟株式会社,,株式会社,東京都,千代田区,岩本町２丁目１７－４－３Ｄ,,13,101,1010032,,,,,,,2024-09-03,1,,,,,コウセイ,0
1108,5010001247964,新規,0,2024-09-03,2024-09-03,新誠株式会社,,株式会社,東京都,千代田区,永田町２丁目１１番１号山王パークタワー５階トラスティーズ・コンサルティングＬＬＰ内,,13,101,1000014,,,,,,,2024-09-03,1,,,,,シンマコト,0
1109,5010001247972,新規,0,2024-09-03,2024-09-03,株式会社ＯＭＯＲＯ　ＢＯＯＫｓ,,株式会社,東京都,中央区,銀座６丁目６番１号銀座風月堂ビル５階,,13,102,1040061,,,,,,,2024-09-03,1,,,,,オモロブックス,0
1112,5010003044757,新規,0,2024-09-03,2024-09-03,合同会社マディパドル,,合同会社,東京都,中央区,湊２丁目１１－１シティタワー銀座東１６１４,,13,102,1040043,,,,,,,2024-09-03,1,,,,,マディパドル,0
1113,5010005038740,新規,0,2024-09-03,2024-09-03,一般社団法人フレーベル子育ちラボ,,その他の設立登記法人,東京都,文京区,本駒込６丁目１４番９号,,13,105,1130021,,,,,,,2024-09-03,1,,,,,フレーベルコソダチラボ,0
1114,5010005038765,新規,0,2024-09-03,2024-09-03,一般社団法人ＷＳ１,,その他の設立登記法人,東京都,千代田区,永田町２丁目１７番５号,,13,101,1000014,,,,,,,2024-09-03,1,,,,,ダブリュエスワン,0
1123,5010401184799,新規,0,2024-09-03,2024-09-03,株式会社ＮＴＴ　ＡＩ‐ＣＩＸ,,株式会社,東京都,港区,港南１丁目２番７０号,,13,103,1080075,,,,,,,2024-09-03,1,,,,,エヌティーティーエーアイシックス,0
1125,5010403033343,新規,0,2024-09-03,2024-09-03,Ｅｐｈｅｓｕｓ　Ｈｏｌｄｉｎｇｓ合同会社,,合同会社,東京都,港区,西新橋１丁目１番１号ＥＰコンサルティングサービス内,,13,103,1050003,,,,,,,2024-09-03,1,,,,,エフェソスホールディングス,0
1126,5010403033368,新規,0,2024-09-03,2024-09-03,合同会社一宮,,合同会社,東京都,港区,南青山２丁目２番１５－８２５号,,13,103,1070062,,,,,,,2024-09-03,1,,,,,イチノミヤ,0
1127,5010503007560,新規,0,2024-09-03,2024-09-03,合同会社カミムラ,,合同会社,東京都,台東区,浅草橋１丁目１２番１－２０２号,,13,106,1110053,,,,,,,2024-09-03,1,,,,,カミムラ,0
1131,5010603011058,新規,0,2024-09-03,2024-09-03,ミィア合同会社,,合同会社,東京都,江東区,東陽４丁目１番２号大朋ビル７０１,,13,108,1350016,,,,,,,2024-09-03,1,,,,,ミィア,0
1132,5010605004373,新規,0,2024-09-03,2024-09-03,医療法人社団ＧＯ　ａｌｌｉａｎｃｅ,,その他の設立登記法人,東京都,江東区,豊洲５丁目２番１２号豊洲ＢＡＹＳＩＤＥクリニックビル７階,,13,108,1350061,,,,,,,2024-09-03,1,,,,,ジーオーアライアンス,0
1133,5010703007328,新規,0,2024-09-03,2024-09-03,合同会社ｋｕｐｕ,,合同会社,東京都,品川区,小山２丁目５－４エムプルミエ４０４,,13,109,1420062,,,,,,,2024-09-03,1,,,,,クプ,0
1134,5010801035362,新規,0,2024-09-03,2024-09-03,株式会社安政,,株式会社,東京都,大田区,蒲田４丁目４２番３－４０４号,,13,111,1440052,,,,,,,2024-09-03,1,,,,,アンセイ,0
1145,5011001164290,新規,0,2024-09-03,2024-09-03,株式会社蘭心,,株式会社,東京都,渋谷区,富ヶ谷１丁目１４番１４号４階,,13,113,1510063,,,,,,,2024-09-03,1,,,,,ランシン,0
1146,5011001164299,新規,0,2024-09-03,2024-09-03,株式会社ドーナツレコード,,株式会社,東京都,渋谷区,神宮前５丁目６番４号Ｐａｔｈ表参道Ｃ棟３階,,13,113,1500001,,,,,,,2024-09-03,1,,,,,ドーナツレコード,0
1147,5011001164373,新規,0,2024-09-03,2024-09-03,ＦｌｕｖＪａｐａｎ株式会社,,株式会社,東京都,渋谷区,広尾５丁目４番１６号,,13,113,1500012,,,,,,,2024-09-03,1,,,,,フラブジャパン,0
1148,5011001164415,新規,0,2024-09-03,2024-09-03,ａｍｂｉｔｉｏｎ株式会社,,株式会社,東京都,渋谷区,恵比寿１丁目１９番１９号恵比寿ビジネスタワー１０階,,13,113,1500013,,,,,,,2024-09-03,1,,,,,アンビション,0
1152,5011005010648,新規,0,2024-09-03,2024-09-03,一般社団法人日本フローラルフォームアート協会,,その他の設立登記法人,東京都,目黒区,碑文谷３丁目８番２３号,,13,110,1520003,,,,,,,2024-09-03,1,,,,,ニホンフローラルフォームアートキョウカイ,0
1163,5011103014823,新規,0,2024-09-03,2024-09-03,マツウラ合同会社,,合同会社,東京都,新宿区,市谷台町６番１１号ＰＡＳＥＯ市谷台町ＩＩ３０３号室,00136155,13,104,1620066,,,,,,,2024-09-03,1,,,,,マツウラ,0
1164,5011103014872,新規,0,2024-09-03,2024-09-03,合同会社Ｈｉ　Ｌｉｆｅ,,合同会社,東京都,新宿区,北新宿１丁目２３番１７－５０３号,,13,104,1690074,,,,,,,2024-09-03,1,,,,,ハイライフ,0
1165,5011105011141,新規,0,2024-09-03,2024-09-03,医療法人社団ＢＲＡＶＥ,,その他の設立登記法人,東京都,新宿区,若葉２丁目１２番２モンヴェール四ツ谷１０２,,13,104,1600011,,,,,,,2024-09-03,1,,,,,ブレイブ,0
1167,5011203004476,新規,0,2024-09-03,2024-09-03,ＢＩＹＡＮＳＨ合同会社,,合同会社,東京都,中野区,江原町１丁目２７番７－７３１号,,13,114,1650023,,,,,,,2024-09-03,1,,,,,ビヤンス,0
1172,5011401026396,新規,0,2024-09-03,2024-09-03,株式会社甲辰社,,株式会社,東京都,板橋区,新河岸３丁目１３番１号,,13,119,1750081,,,,,,,2024-09-03,1,,,,,コウシンシャ,0
1173,5011403004490,新規,0,2024-09-03,2024-09-03,合同会社ＴＷＯ　ＷＡＹ,,合同会社,東京都,板橋区,中板橋２１番１－３０５号,,13,119,1730016,,,,,,,2024-09-03,1,,,,,トゥーウェイ,0
1174,5011703003952,新規,0,2024-09-03,2024-09-03,ＹＤＨ合同会社,,合同会社,東京都,江戸川区,南小岩７丁目２２－１－１５０６アルファグランデ小岩スカイファースト,,13,123,1330056,,,,,,,2024-09-03,1,,,,,ワイディエイチ,0
1177,5012401042243,新規,0,2024-09-03,2024-09-03,株式会社ヤギナオト,,株式会社,東京都,稲城市,東長沼２４３２番地ＬＡＮＡ南山ＩＩＩ２０１,00136169,13,225,2060802,,,,,,,2024-09-03,1,,,,,ヤギナオト,0
1178,5012401042251,新規,0,2024-09-03,2024-09-03,株式会社スカイリミット,,株式会社,東京都,三鷹市,上連雀４丁目１０番１３―２０３号,,13,204,1810012,,,,,,,2024-09-03,1,,,,,,0
1188,5020001158995,新規,0,2024-09-03,2024-09-03,株式会社グランウェア,,株式会社,神奈川県,横浜市中区,寿町１丁目１－１１興和ビル５０２号室,,14,104,2310026,,,,,,,2024-09-03,1,,,,,グランウェア,0
1202,5020003026812,新規,0,2024-09-03,2024-09-03,合同会社ＳＤＣコスモ,,合同会社,神奈川県,川崎市多摩区,菅２丁目１３番１号,,14,135,2140001,,,,,,,2024-09-03,1,,,,,エスディシーコスモ,0
1225,5040001135191,新規,0,2024-09-03,2024-09-03,順尹株式会社,,株式会社,千葉県,船橋市,前原西５丁目４番１１号,,12,204,2740825,,,,,,,2024-09-03,1,,,,,ジュンイン,0
1228,5040005022469,新規,0,2024-09-03,2024-09-03,特定非営利活動法人日本宇宙航空医療支援協会,,その他の設立登記法人,千葉県,千葉市中央区,千葉港８番２号ブラウシア１４１５号,,12,101,2600026,,,,,,,2024-09-03,1,,,,,ニホンウチュウコウクウイリョウシエンキョウカイ,0
1229,5040005022485,新規,0,2024-09-03,2024-09-03,一般社団法人わかば,,その他の設立登記法人,千葉県,長生郡白子町,剃金９６２番地１８,,12,424,2994203,,,,,,,2024-09-03,1,,,,,ワカバ,0
1240,5080101024984,新規,0,2024-09-03,2024-09-03,康利蓮株式会社,,株式会社,静岡県,伊東市,岡１３９１－２７、１０２号室,,22,208,4140055,,,,,,,2024-09-03,1,,,,,コウリレン,0
1244,5080401027423,新規,0,2024-09-03,2024-09-03,株式会社Ｃｒｅｓｃｅｒｅ,,株式会社,静岡県,浜松市中央区,西伊場町６１番１９号,,22,138,4328038,,,,,,,2024-09-03,1,,,,,クレシェーレ,0
1246,5090001018887,新規,0,2024-09-03,2024-09-03,八甲ファシリティ株式会社,,株式会社,山梨県,南都留郡忍野村,忍草１２５０番地３,,19,424,4010511,,,,,,,2024-09-03,1,,,,,ハチコウファシリティ,0
1257,5120001268099,新規,0,2024-09-03,2024-09-03,株式会社バズビジョン,,株式会社,大阪府,大阪市福島区,玉川１丁目１番３６－２００５号,,27,103,5530004,,,,,,,2024-09-03,1,,,,,バズビジョン,0
1258,5120001268207,新規,0,2024-09-03,2024-09-03,株式会社自営業者会計支援センター,,株式会社,大阪府,大阪市中央区,北久宝寺町１丁目２番１－６０４号,,27,128,5410057,,,,,,,2024-09-03,1,,,,,ジエイギョウシャカイケイシエンセンター,0
1259,5120001268248,新規,0,2024-09-03,2024-09-03,クレアス商事株式会社,,株式会社,大阪府,大阪市西成区,松３丁目１番３８号１０１室,,27,122,5570034,,,,,,,2024-09-03,1,,,,,クレアスショウジ,0
1260,5120001268264,新規,0,2024-09-03,2024-09-03,株式会社ＢＬＥＣＥ,,株式会社,大阪府,大阪市北区,豊崎１丁目２番１０号,,27,127,5310072,,,,,,,2024-09-03,1,,,,,ブレイス,0
1263,5120003027445,新規,0,2024-09-03,2024-09-03,月合同会社,,合同会社,大阪府,大阪市平野区,加美南１丁目８番１５号,,27,126,5470003,,,,,,,2024-09-03,1,,,,,ツキ,0
1275,5122001038416,新規,0,2024-09-03,2024-09-03,株式会社高田建設,00136168,株式会社,大阪府,東大阪市,西岩田１丁目１０番９号,,27,227,5780947,,,,,,,2024-09-03,1,,,,,タカダケンセツ,0
1286,5140001135644,新規,0,2024-09-03,2024-09-03,株式会社ＳＴＳ,,株式会社,兵庫県,西宮市,小曽根町２丁目４－７－４４３号室,,28,204,6638122,,,,,,,2024-09-03,1,,,,,エスティーエス,0
1290,5150001027543,新規,0,2024-09-03,2024-09-03,株式会社八尾高等学院,,株式会社,奈良県,生駒市,小平尾町２２５番地１,,29,209,6300226,,,,,,,2024-09-03,1,,,,,ヤオコウトウガクイン,0
1304,5180005020748,新規,0,2024-09-03,2024-09-03,特定非営利活動法人八兵衛,,その他の設立登記法人,愛知県,瀬戸市,坂上町５７６番地,,23,204,4890977,,,,,,,2024-09-03,1,,,,,ハチベエ,0
1308,5180303006250,新規,0,2024-09-03,2024-09-03,ライゼ会計コンサルティング合同会社,,合同会社,愛知県,豊橋市,駅前大通３丁目３８番地,,23,201,4400888,,,,,,,2024-09-03,1,,,,,ライゼカイケイコンサルティング,0
1310,5190001031599,新規,0,2024-09-03,2024-09-03,株式会社トライテック,,株式会社,三重県,四日市市,小林町３０２６番地２,,24,202,5100946,,,,,,,2024-09-03,1,,,,,トライテック,0
1328,5270003001666,新規,0,2024-09-03,2024-09-03,合同会社ＢｅＪｏｉｎｔ,,合同会社,鳥取県,八頭郡八頭町,宮谷２６２番地７,,31,329,6800463,,,,,,,2024-09-03,1,,,,,ビージョイント,0
1334,5290001107083,新規,0,2024-09-03,2024-09-03,株式会社ＦｅｌｉｚＡｇｒｉ,,株式会社,福岡県,大川市,大字小保５２１－１,,40,212,8310041,,,,,,,2024-09-03,1,,,,,フェリーズアグリ,0
1335,5290001107141,新規,0,2024-09-03,2024-09-03,株式会社コンセプト,,株式会社,福岡県,福岡市中央区,白金１丁目１７番３４－１００２号,,40,133,8100012,,,,,,,2024-09-03,1,,,,,コンセプト,0
1338,5290003015771,新規,0,2024-09-03,2024-09-03,合同会社ＭＩＹＡＶＩ,,合同会社,福岡県,福岡市東区,水谷２丁目５３番１－１９０５号ＭＪＲＴｈｅＣＨＩＨＡＹＡ,,40,131,8130041,,,,,,,2024-09-03,1,,,,,ミヤビ,0
1340,5290801030848,新規,0,2024-09-03,2024-09-03,株式会社ＴＡＡＧ,,株式会社,福岡県,北九州市小倉南区,大字道原２２６－１１,,40,107,8030266,,,,,,,2024-09-03,1,,,,,ティーエージ,0
1341,5300003002173,新規,0,2024-09-03,2024-09-03,合同会社防犯ネット佐賀,,合同会社,佐賀県,佐賀市,若宮２丁目１２－２３,,41,201,8490926,,,,,,,2024-09-03,1,,,,,ボウハンネットサガ,0
1342,5320001020687,新規,0,2024-09-03,2024-09-03,株式会社ＹＳ工房,,株式会社,大分県,由布市,湯布院町川南１５９６－１,,44,213,8795103,,,,,,,2024-09-03,1,,,,,ワイエスコウボウ,0
1343,5330001032426,新規,0,2024-09-03,2024-09-03,株式会社丸創建,,株式会社,熊本県,熊本市北区,楠７丁目３番３号,,43,105,8618003,,,,,,,2024-09-03,1,,,,,マルソウケン,0
1344,5350002010247,新規,0,2024-09-03,2024-09-03,有限会社大晃建設,,有限会社,宮崎県,児湯郡木城町,大字高城３８５７番地,,45,404,8840101,,,,,,,2024-09-03,1,,,,,ダイコウケンセツ,0
1348,5360003014270,新規,0,2024-09-03,2024-09-03,合同会社寿企画,,合同会社,沖縄県,中頭郡北谷町,美浜１丁目３番地２・２Ｆ,,47,326,9040115,,,,,,,2024-09-03,1,,,,,コトブキキカク,0
1356,5370003006713,新規,0,2024-09-03,2024-09-03,合同会社ＳｔｕｄｉｏＣｌｅｗ,,合同会社,宮城県,富谷市,成田５丁目２０番地１７,,04,216,9813341,,,,,,,2024-09-03,1,,,,,スタジオクルー,0
1371,5430001092600,新規,0,2024-09-03,2024-09-03,株式会社アセル,,株式会社,北海道,札幌市白石区,北郷二条２丁目６番１７号,,01,104,0030832,,,,,,,2024-09-03,1,,,,,アセル,0
1389,5500003003317,新規,0,2024-09-03,2024-09-03,合同会社栄潤,,合同会社,愛媛県,今治市,大三島町野々江５７０４番地,,38,202,7941306,,,,,,,2024-09-03,1,,,,,エイジュン,0
1390,5700150126998,新規,0,2024-09-03,2024-09-03,ＥＸＰＯ　ＴＲＡＤＥＲＳ,,外国会社等,千葉県,佐倉市,大篠塚２７７番地オフィス－１Ａ,,12,212,2850806,スリランカ民主社会主義共和国、キャンディ、アクラナ、ドダムゴラ、Ｎｏ．４０８,,,,,,2024-09-03,1,,,,,エクスポトレーダーズ,0
1391,5700150127006,新規,0,2024-09-03,2024-09-03,ＭＡＣＨＯ　ＭＯＴＯＲＳ,,外国会社等,千葉県,大網白里市,細草３１７４番地６,,12,239,2993211,スリランカ民主社会主義共和国、キャンディ、アクラナ、ヒングルムドゥナロード、Ｎｏ．２７７／Ａ,,,,,,2024-09-03,1,,,,,マチヨモータース,0
1392,5700150127014,新規,0,2024-09-03,2024-09-03,ＷＰ　Ｃｏｍｐａｎｙ　ＬＬＣ,,外国会社等,,,,,,,,１３０１　Ｋ　Ｓｔ．　ＮＷ　Ｗａｓｈｉｎｇｔｏｎ，　ＤＣ　２００７１,,,,,,2024-09-03,1,,,,,ダブリユーピーカンパニーエルエルシー,0
1393,5700150127022,新規,0,2024-09-03,2024-09-03,ニセコ・マネージメント・ピーティーワイ・リミテッド,,外国会社等,,,,,,,,オーストラリア連邦、ニューサウスウェールズ州、ブロンテ、ブロンテロード３６８,,,,,,2024-09-03,1,,,,,ニセコマネージメントピーテイーワイリミテツド,0
1400,6010001247823,新規,0,2024-09-03,2024-09-03,株式会社向陽ＭＤＣ,,株式会社,東京都,千代田区,九段南１丁目５番６号りそな九段ビル５階ＫＳフロア,,13,101,1020074,,,,,,,2024-09-03,1,,,,,コウヨウエムディーシー,0
1401,6010001247955,新規,0,2024-09-03,2024-09-03,株式会社寿司健,,株式会社,東京都,中央区,銀座７丁目１１番６号ＧＩＮＺＡ・ＩＳＯＮＯビル２階,,13,102,1040061,,,,,,,2024-09-03,1,,,,,スシタケル,0
1402,6010001247963,新規,0,2024-09-03,2024-09-03,株式会社Ｄｉｉ　Ｃｏｎｓｅｎｔｅｓ,,株式会社,東京都,中央区,銀座１丁目１２番４号Ｎ＆ＥＢＬＤ,,13,102,1040061,,,,,,,2024-09-03,1,,,,,ディーコンセンテス,0
1416,6010401184798,新規,0,2024-09-03,2024-09-03,株式会社リブキャリア,,株式会社,東京都,港区,白金台５丁目１８－２プラチナワイズ３Ｆ,,13,103,1080071,,,,,,,2024-09-03,1,,,,,リブキャリア,0
1417,6010401184856,新規,0,2024-09-03,2024-09-03,株式会社ＡＢＬＯＯＭ,,株式会社,東京都,港区,南青山２丁目２番１５号ウィン青山１２１４号,,13,103,1070062,,,,,,,2024-09-03,1,,,,,アブルーム,0
1418,6010403033318,新規,0,2024-09-03,2024-09-03,合同会社爽建不動産,,合同会社,東京都,港区,高輪２丁目１２番４３－２０４号,,13,103,1080074,,,,,,,2024-09-03,1,,,,,ソウケンフドウサン,0
1428,6010701046483,新規,0,2024-09-03,2024-09-03,ＢｉｚＸ株式会社,,株式会社,東京都,品川区,荏原２丁目３－１０－１００１,,13,109,1420063,,,,,,,2024-09-03,1,,,,,ビズエックス,0
1438,6011001164389,新規,0,2024-09-03,2024-09-03,株式会社ＴｈｒｉｖｅｓＡｘｉｓ,,株式会社,東京都,渋谷区,恵比寿西２丁目１９番９号フランセスビル,,13,113,1500021,,,,,,,2024-09-03,1,,,,,スライブスアクシス,0
1439,6011003019913,新規,0,2024-09-03,2024-09-03,合同会社ｍａｒｏ,,合同会社,東京都,渋谷区,笹塚１丁目４８番１９－１２０４号,,13,113,1510073,,,,,,,2024-09-03,1,,,,,マロ,0
1444,6011101108626,新規,0,2024-09-03,2024-09-03,株式会社ＭＴＭ,,株式会社,東京都,新宿区,百人町１丁目２２番１７号,,13,104,1690073,,,,,,,2024-09-03,1,,,,,エムティーエム,0
1445,6011101108642,新規,0,2024-09-03,2024-09-03,報徳コンサルティング株式会社,,株式会社,東京都,新宿区,高田馬場４丁目２２番２３号,,13,104,1690075,,,,,,,2024-09-03,1,,,,,ホウトクコンサルティング,0
1450,6011103014871,新規,0,2024-09-03,2024-09-03,バルザック４合同会社,,合同会社,東京都,新宿区,四谷４丁目３２番８号ＹＫＢサニービル６階,,13,104,1600004,,,,,,,2024-09-03,1,,,,,バルザックフォー,0
1451,6011201025762,新規,0,2024-09-03,2024-09-03,Ｄ．Ｗライオン株式会社,,株式会社,東京都,中野区,南台３丁目４４番２号シルクガーデン南台１０５,,13,114,1640014,,,,,,,2024-09-03,1,,,,,ディーダブリュウライオン,0
1452,6011203004475,新規,0,2024-09-03,2024-09-03,Ｔ＆Ｍ合同会社,,合同会社,東京都,中野区,丸山２丁目１６番２号パルコーポ秀１Ａ,,13,114,1650021,,,,,,,2024-09-03,1,,,,,ティーアンドエム,0
1453,6011303005274,新規,0,2024-09-03,2024-09-03,ＦＩＳＯＳＳ合同会社,,合同会社,東京都,杉並区,西荻南１丁目１２－１４－２０３,,13,115,1670053,,,,,,,2024-09-03,1,,,,,フィソス,0
1456,6011801044798,新規,0,2024-09-03,2024-09-03,株式会社ＺＯＩ２ｎｄ,,株式会社,東京都,足立区,六町３丁目８番地４２号エルネスタＧ,,13,121,1210073,,,,,,,2024-09-03,1,,,,,ゾイセカンド,0
1462,6012801023429,新規,0,2024-09-03,2024-09-03,株式会社ＨＯＰＥ,,株式会社,東京都,東大和市,中央２丁目８３６番地の１,,13,220,2070015,,,,,,,2024-09-03,1,,,,,ホープ,0
1465,6013301053057,新規,0,2024-09-03,2024-09-03,株式会社日本コミュニケーションアカデミー,,株式会社,東京都,豊島区,雑司が谷３丁目７番１号１階,,13,116,1710032,,,,,,,2024-09-03,1,,,,,ニホンコミュニケーションアカデミー,0
1468,6013303007283,新規,0,2024-09-03,2024-09-03,ＮＩＲＶＡＮＡ合同会社,,合同会社,東京都,豊島区,池袋３丁目３４番３号坂下グリーンハイツ２０２号,,13,116,1710014,,,,,,,2024-09-03,1,,,,,ニルヴァーナ,0
1477,6020001158747,新規,0,2024-09-03,2024-09-03,ＲＥＡＬＭ株式会社,,株式会社,神奈川県,横浜市港北区,新横浜１丁目１９－１５アールケー・プラザ新横浜８０１,,14,109,2220033,,,,,,,2024-09-03,1,,,,,レルム,0
1478,6020001158904,新規,0,2024-09-03,2024-09-03,騰雲株式会社,,株式会社,神奈川県,川崎市川崎区,小川町１６－１７ＭＦプラザ４０９,,14,131,2100023,,,,,,,2024-09-03,1,,,,,トウウン,0
1479,6020001158945,新規,0,2024-09-03,2024-09-03,ＣｈｒｏｎｏＴｅｃｈ株式会社,,株式会社,神奈川県,川崎市川崎区,小川町１６－１７ＭＦプラザ５０５,,14,131,2100023,,,,,,,2024-09-03,1,,,,,クロノテック,0
1482,6020003026794,新規,0,2024-09-03,2024-09-03,合同会社州福,,合同会社,神奈川県,横浜市中区,花咲町２丁目６６－３,,14,104,2310063,,,,,,,2024-09-03,1,,,,,シュウフク,0
1483,6020003026803,新規,0,2024-09-03,2024-09-03,Ｆｒｏｍ　Ｄｏｗｎｔｏｗｎ合同会社,,合同会社,神奈川県,横浜市神奈川区,金港町五丁目１４クアドリフォリオ８階,,14,102,2210056,,,,,,,2024-09-03,1,,,,,フロムダウンタウン,0
1484,6020003026828,新規,0,2024-09-03,2024-09-03,合同会社トリガー,,合同会社,神奈川県,川崎市川崎区,旭町１丁目１７番３号,,14,131,2100808,,,,,,,2024-09-03,1,,,,,トリガー,0
1493,6021003014970,新規,0,2024-09-03,2024-09-03,合同会社Ｋｏｓｈｉ＆ｓｏｎ,,合同会社,神奈川県,鎌倉市,大船３丁目４番１－６０１号,,14,204,2470056,,,,,,,2024-09-03,1,,,,,コシアンドサン,0
1509,6040001135216,新規,0,2024-09-03,2024-09-03,ＤＴＡ　ＧＲＯＵＰ株式会社,,株式会社,千葉県,柏市,日立台２丁目２番５号,,12,217,2770083,,,,,,,2024-09-03,1,,,,,ディティエーグループ,0
1513,6040003025662,新規,0,2024-09-03,2024-09-03,合同会社ＳＡＴＯＲＵ,,合同会社,千葉県,千葉市稲毛区,園生町１３１２番地１ルネサンスアリーナ稲毛７０２号,,12,103,2630051,,,,,,,2024-09-03,1,,,,,サトル,0
1514,6040003025720,新規,0,2024-09-03,2024-09-03,Ａ．Ｄ　ＴＲＡＤＩＮＧ合同会社,,合同会社,千葉県,八街市,東吉田８９番地２０,,12,230,2891114,,,,,,,2024-09-03,1,,,,,エイディートレーディング,0
1515,6040003025737,新規,0,2024-09-03,2024-09-03,合同会社マスターズ,,合同会社,千葉県,船橋市,東船橋７丁目６番４号,,12,204,2730002,,,,,,,2024-09-03,1,,,,,マスターズ,0
1517,6040005022484,新規,0,2024-09-03,2024-09-03,一般財団法人オリエンタルランド子どものハピネス財団,,その他の設立登記法人,千葉県,浦安市,美浜１丁目８番１号,,12,227,2790011,,,,,,,2024-09-03,1,,,,,オリエンタルランドコドモノハピネスザイダン,0
1520,6050001055330,新規,0,2024-09-03,2024-09-03,株式会社飯田土建,,株式会社,茨城県,古河市,前林９０３番地,,08,204,3060216,,,,,,,2024-09-03,1,,,,,イイダドケン,0
1521,6050003008658,新規,0,2024-09-03,2024-09-03,合同会社シェアスポーツ,,合同会社,茨城県,神栖市,太田５９９－１,,08,232,3140254,,,,,,,2024-09-03,1,,,,,シェアスポーツ,0
1526,6080401027414,新規,0,2024-09-03,2024-09-03,株式会社ｉｃｏＮｅｃＴ,,株式会社,静岡県,浜松市中央区,小沢渡町５２１番地,,22,138,4328063,,,,,,,2024-09-03,1,,,,,アイコネクト,0
1543,6120001268172,新規,0,2024-09-03,2024-09-03,株式会社鵬翼,,株式会社,大阪府,大阪市大正区,泉尾１丁目１０番１号,,27,108,5510031,,,,,,,2024-09-03,1,,,,,ホウヨク,0
1544,6120001268197,新規,0,2024-09-03,2024-09-03,ＨＡ共同購買株式会社,,株式会社,大阪府,大阪市都島区,都島本通１丁目１１番２０号,,27,102,5340021,,,,,,,2024-09-03,1,,,,,エイチエーキョウドウコウバイ,0
1545,6120001268222,新規,0,2024-09-03,2024-09-03,東建築株式会社,,株式会社,大阪府,大阪市西区,九条南４丁目４番地５,,27,106,5500025,,,,,,,2024-09-03,1,,,,,アズマケンチク,0
1546,6120001268230,新規,0,2024-09-03,2024-09-03,株式会社Ｓｏｌｅ産業,,株式会社,大阪府,大阪市中央区,南本町４丁目５番７号,,27,128,5410054,,,,,,,2024-09-03,1,,,,,ソーレサンギョウ,0
1547,6120001268239,新規,0,2024-09-03,2024-09-03,株式会社富士商事,,株式会社,大阪府,大阪市生野区,巽東２丁目８－２６ベルンガーデン巽１０１,00136154,27,116,5440014,,,,,,,2024-09-03,1,,,,,フジショウジ,0
1548,6120001268255,新規,0,2024-09-03,2024-09-03,ＳＫＹ　ＬＩＦＥ株式会社,,株式会社,大阪府,大阪市西区,南堀江１丁目２４番１７号,,27,106,5500015,,,,,,,2024-09-03,1,,,,,スカイライフ,0
1549,6120001268263,新規,0,2024-09-03,2024-09-03,株式会社ＬＵＭＩＥＲＵ,,株式会社,大阪府,大阪市天王寺区,悲田院町１番９－５０１号,,27,109,5430055,,,,,,,2024-09-03,1,,,,,ルミエール,0
1550,6120001268271,新規,0,2024-09-03,2024-09-03,株式会社ファストレンタルリース,,株式会社,大阪府,大阪市中央区,北新町４番１号谷町プラザビル７０１,,27,128,5400023,,,,,,,2024-09-03,1,,,,,ファストレンタルリース,0
1556,6120005024522,新規,0,2024-09-03,2024-09-03,社会保険労務士法人あすは,,その他の設立登記法人,大阪府,大阪市北区,西天満２丁目６番８号堂島ビルヂング８１４号,,27,127,5300047,,,,,,,2024-09-03,1,,,,,アスハ,0
1558,6120101070239,新規,0,2024-09-03,2024-09-03,株式会社メイト,,株式会社,大阪府,河内長野市,野作町１４番１０号,,27,216,5860023,,,,,,,2024-09-03,1,,,,,メイト,0
1567,6140003021024,新規,0,2024-09-03,2024-09-03,Ｇｌａｄ．Ｉ合同会社,,合同会社,兵庫県,神戸市北区,緑町２丁目２－１１地下１階,,28,109,6511221,,,,,,,2024-09-03,1,,,,,グラッドアイ,0
1568,6140003021032,新規,0,2024-09-03,2024-09-03,合同会社クリプトファーム,,合同会社,兵庫県,豊岡市,但東町高龍寺１９６,,28,209,6680333,,,,,,,2024-09-03,1,,,,,クリプトファーム,0
1569,6150001027542,新規,0,2024-09-03,2024-09-03,中垣製麺株式会社,,株式会社,奈良県,山辺郡山添村,大字切幡６６６番地,,29,322,6302234,,,,,,,2024-09-03,1,,,,,ナカガキセイメン,0
1594,6200001042882,新規,0,2024-09-03,2024-09-03,株式会社イシダテック,,株式会社,岐阜県,郡上市,美並町上田１６０７番地,,21,219,5014101,,,,,,,2024-09-03,1,,,,,イシダテック,0
1612,6290001107132,新規,0,2024-09-03,2024-09-03,株式会社三和,,株式会社,福岡県,福岡市中央区,天神２丁目３番１０号３Ｆ,,40,133,8100001,,,,,,,2024-09-03,1,,,,,サンワ,0
1614,6290003015754,新規,0,2024-09-03,2024-09-03,ＲｅＧｒｏｗｔｈ合同会社,,合同会社,福岡県,福岡市博多区,豊１丁目６－２５－１０５,,40,132,8120042,,,,,,,2024-09-03,1,,,,,リグロース,0
1629,6360001034138,新規,0,2024-09-03,2024-09-03,株式会社比嘉正尚,,株式会社,沖縄県,沖縄市,上地４丁目１８番３号２Ｆ,,47,211,9040031,,,,,,,2024-09-03,1,,,,,ヒガマサナオ,0
1630,6360001034146,新規,0,2024-09-03,2024-09-03,株式会社日進興業,,株式会社,沖縄県,沖縄市,高原２丁目４番４０号サニーハイツ高原２０８,,47,211,9042171,,,,,,,2024-09-03,1,,,,,ニッシンコウギョウ,0
1640,6400001016775,新規,0,2024-09-03,2024-09-03,株式会社ソシオサーベイ,,株式会社,岩手県,一関市,藤沢町増沢字日当６９番地１,,03,209,0293401,,,,,,,2024-09-03,1,,,,,ソシオサーベイ,0
1644,6430001092599,新規,0,2024-09-03,2024-09-03,株式会社Ａｍｏｒｅ,,株式会社,北海道,札幌市白石区,東札幌二条５丁目７番７号ＡＲＢＲＥｄｅＳＯＬＥＩＬ３０１号室,,01,104,0030002,,,,,,,2024-09-03,1,,,,,アモーレ,0
1659,6490005006954,新規,0,2024-09-03,2024-09-03,一般社団法人市川ファーム,,その他の設立登記法人,高知県,須崎市,多ノ郷甲８００番地２,,39,206,7850030,,,,,,,2024-09-03,1,,,,,,0
1663,6500001025857,新規,0,2024-09-03,2024-09-03,人財バンクＳ・Ｅ・Ａ株式会社,,株式会社,愛媛県,松山市,本町６丁目１１番地１,,38,201,7900811,,,,,,,2024-09-03,1,,,,,ジンザイバンクエスイーエー,0
1665,6700150126196,新規,0,2024-09-03,2024-09-03,ＤｕｎＣｈｅｎｇ（Ｓｈｅｎｚｈｅｎ）Ｔｅｃｈｎｏｌｏｇｙ　Ｃｏ．，Ｌｔｄ,,外国会社等,,,,,,,,ｇｕａｎｇｄｏｎｇｓｈｅｎｚｈｅｎｓｈｉｂａｏａｎｑｕｘｉｎｑｉａｏｊｉｅｄａｏｈｕａｎｇｐｕｓｈｅｑｕｓｈａｎｇｎａｎｄｏｎｇｌｕ１２８ｈａｏ４ｈａｏｃｈａｎｇｆａｎｇｌｉｕｃｅｎｇ,,,,,,2024-09-03,1,,,,,ドウンチヨンシエンジエンコージーヨウシエンゴンスー,0
1666,6700150126989,新規,0,2024-09-03,2024-09-03,ＡＭＩＬＡ　ＥＮＴＥＲＰＲＩＳＥＳ,,外国会社等,千葉県,八街市,砂５５番地９オフィス６号,,12,230,2891121,スリランカ民主社会主義共和国、クルネガラ、メインストリート、Ｎｏ．３６／１／Ａ,,,,,,2024-09-03,1,,,,,アミラエンタープライズ,0
1667,6700150126997,新規,0,2024-09-03,2024-09-03,ＫＡＩＲＲＡＮ　ＡＵＴＯ,,外国会社等,千葉県,八街市,砂５５番地９オフィス５,,12,230,2891121,スリランカ民主社会主義共和国、ワッテガマ、ウダテンナ、Ｎｏ．１２／１,,,,,,2024-09-03,1,,,,,カイツランオート,0
1668,6700150127005,新規,0,2024-09-03,2024-09-03,ＳＵＰＥＲ　ＭＯＴＯＲＳ,,外国会社等,千葉県,山武市,麻生新田８５番地１オフィス７号,,12,237,2891203,スリランカ民主社会主義共和国、キャンディ、マハイヤワ、Ｎｏ．５５／Ａ,,,,,,2024-09-03,1,,,,,スーパーモータース,0
1669,6700150127013,新規,0,2024-09-03,2024-09-03,ＭＯＮＡＣＯ　ＥＮＴＥＲＰＲＩＳＥＳ,,外国会社等,神奈川県,厚木市,下荻野１３５３番地５－２０１,,14,212,2430203,スリランカ民主社会主義共和国、ハンデッサ、ミーワルデニヤ、Ｎｏ．１８６／Ｂ,,,,,,2024-09-03,1,,,,,モナコエンタープライズ,0
1670,6700150127021,新規,0,2024-09-03,2024-09-03,Ｃａｐｓｔｏｎｅ　Ｊａｐａｎ　Ｌｉｍｉｔｅｄ,,外国会社等,東京都,港区,愛宕２丁目３番１号愛宕グリーンヒルズフォレストタワー３１１,,13,103,1050002,英国領ケイマン諸島、グランド・ケイマン、ジョージ・タウン、エルギン・アベニュー１９０、ウォーカーズ・コーポレート・リミテッド内,,,,,,2024-09-03,1,,,,,キヤツプストーンジヤパンリミテツド,0
1676,7010001247970,新規,0,2024-09-03,2024-09-03,達勝株式会社,,株式会社,東京都,中央区,京橋２丁目２番１号京橋エドグラン２６階,,13,102,1040031,,,,,,,2024-09-03,1,,,,,タツショウ,0
1685,7010003044747,新規,0,2024-09-03,2024-09-03,合同会社オブノＢＥＳＳ,,合同会社,東京都,千代田区,二番町３番地１１ＶＯＲＴ二番町５階,,13,101,1020084,,,,,,,2024-09-03,1,,,,,オブノベス,0
1686,7010003044796,新規,0,2024-09-03,2024-09-03,合同会社Ｒｅｆｌａｄ,,合同会社,東京都,千代田区,神田佐久間町２丁目１８番地１秋葉原ＳＴＮフロント１０階,,13,101,1010025,,,,,,,2024-09-03,1,,,,,リフラッド,0
1697,7010401184806,新規,0,2024-09-03,2024-09-03,株式会社星灯,,株式会社,東京都,港区,海岸１丁目２番３号汐留芝離宮ビルディング２１階,,13,103,1050022,,,,,,,2024-09-03,1,,,,,セイラ,0
1698,7010401184839,新規,0,2024-09-03,2024-09-03,株式会社Ｆｏｒｔｕｎａ,,株式会社,東京都,港区,麻布十番２丁目１６番１１号,,13,103,1060045,,,,,,,2024-09-03,1,,,,,フォルトゥーナ,0
1699,7010401184847,新規,0,2024-09-03,2024-09-03,株式会社Ｔａｍｏｓａｎ,,株式会社,東京都,港区,西新橋３丁目１７番１号,,13,103,1050003,,,,,,,2024-09-03,1,,,,,タモサン,0
1703,7010601065847,新規,0,2024-09-03,2024-09-03,みかづきコンサルティング株式会社,,株式会社,東京都,江東区,永代２丁目１５―３,,13,108,1350034,,,,,,,2024-09-03,1,,,,,ミカヅキコンサルティング,0
1704,7010601065855,新規,0,2024-09-03,2024-09-03,株式会社ＧＯＯＤ　ＬＵＣＫ,,株式会社,東京都,江東区,豊洲１丁目２番３９号パークアクシス豊洲４１５,,13,108,1350061,,,,,,,2024-09-03,1,,,,,グッドラック,0
1711,7010703007326,新規,0,2024-09-03,2024-09-03,ＤＥＯＬ　ＴＲＡＤＩＮＧ合同会社,,合同会社,東京都,品川区,東品川４丁目１２番８号品川シーサイドイーストタワー１５階,,13,109,1400002,,,,,,,2024-09-03,1,,,,,デオルトレーディング,0
1712,7010802021509,新規,0,2024-09-03,2024-09-03,有限会社京一工業,,有限会社,東京都,大田区,本羽田２丁目８番５号,,13,111,1440044,,,,,,,2024-09-03,1,,,,,,0
1720,7011001164371,新規,0,2024-09-03,2024-09-03,ＩｎＢｒｅｅｚｅ株式会社,,株式会社,東京都,渋谷区,神宮前５丁目２３番６号ベーレン神宮前２Ａ,,13,113,1500001,,,,,,,2024-09-03,1,,,,,インブリーズ,0
1721,7011001164438,新規,0,2024-09-03,2024-09-03,株式会社アパラボ,,株式会社,東京都,渋谷区,千駄ヶ谷２丁目３９‐３千駄ヶ谷ホリタン３０４,,13,113,1510051,,,,,,,2024-09-03,1,,,,,アパラボ,0
1729,7011103014838,新規,0,2024-09-03,2024-09-03,ＨＳＪ合同会社,,合同会社,東京都,新宿区,河田町３番５１－１３０１号,,13,104,1620054,,,,,,,2024-09-03,1,,,,,エイチエスジェイ,0
1730,7011103014862,新規,0,2024-09-03,2024-09-03,合同会社Ｋ,,合同会社,東京都,新宿区,西新宿６丁目１５番１号,,13,104,1600023,,,,,,,2024-09-03,1,,,,,ケイ,0
1731,7011103014870,新規,0,2024-09-03,2024-09-03,バルザック３合同会社,,合同会社,東京都,新宿区,四谷４丁目３２番８号ＹＫＢサニービル６階,,13,104,1600004,,,,,,,2024-09-03,1,,,,,バルザックスリー,0
1733,7011201025761,新規,0,2024-09-03,2024-09-03,銀和株式会社,,株式会社,東京都,中野区,江古田４丁目３０番１９－１０４号,,13,114,1650022,,,,,,,2024-09-03,1,,,,,ギンワ,0
1738,7011501031105,新規,0,2024-09-03,2024-09-03,株式会社Ｆｏｒ　ｌｅａｒｎｅｒ,,株式会社,東京都,北区,赤羽１丁目５８番１１－９０３号ディアレイシャス赤羽,,13,117,1150045,,,,,,,2024-09-03,1,,,,,フォーラーナー,0
1751,7013303007282,新規,0,2024-09-03,2024-09-03,合同会社日中通信,,合同会社,東京都,豊島区,西池袋１丁目２９番１４号オリエント池袋４０９号,,13,116,1710021,,,,,,,2024-09-03,1,,,,,ニッチュウツウシン,0
1753,7020001158787,新規,0,2024-09-03,2024-09-03,企業改革コンサルティング株式会社,,株式会社,神奈川県,川崎市麻生区,はるひ野３丁目２番１０号,,14,137,2150036,,,,,,,2024-09-03,1,,,,,キギョウカイカクコンサルティング,0
1754,7020001158903,新規,0,2024-09-03,2024-09-03,株式会社一寸法史,,株式会社,神奈川県,川崎市多摩区,菅稲田堤２丁目５番５３号,,14,135,2140003,,,,,,,2024-09-03,1,,,,,イッスンボウシ,0
1755,7020001158944,新規,0,2024-09-03,2024-09-03,広洋株式会社,,株式会社,神奈川県,横浜市中区,太田町６丁目８６番地オーパ・リバージュ９０６,,14,104,2310011,,,,,,,2024-09-03,1,,,,,ヒロミ,0
1757,7020003026810,新規,0,2024-09-03,2024-09-03,ブライトレーザー・ジャパン合同会社,,合同会社,神奈川県,横浜市中区,尾上町４丁目５７横浜尾上町ビルディング８Ｆ,,14,104,2310015,,,,,,,2024-09-03,1,,,,,ブライトレーザージャパン,0
1758,7020003026819,新規,0,2024-09-03,2024-09-03,合同会社ＷｅｅＦｅｅＳ,,合同会社,神奈川県,横浜市中区,桜木町１丁目１０１番地１クロスゲート７階,,14,104,2310062,,,,,,,2024-09-03,1,,,,,ウィーフィーズ,0
1759,7020003026835,新規,0,2024-09-03,2024-09-03,Ｖｅｓｌｏｔ合同会社,,合同会社,神奈川県,川崎市高津区,溝口３丁目７番１０号,,14,134,2130001,,,,,,,2024-09-03,1,,,,,ヴェスロット,0
1762,7021001083141,新規,0,2024-09-03,2024-09-03,玲子株式会社,,株式会社,神奈川県,相模原市南区,新磯野２丁目１－５東成ビル２０１号室,,14,153,2520325,,,,,,,2024-09-03,1,,,,,レイコ,0
1781,7040001135090,新規,0,2024-09-03,2024-09-03,株式会社ＡＴＡＲＡＳＨＩ,,株式会社,千葉県,松戸市,松戸１３０７－１松戸ビル１３Ｆ,,12,207,2710092,,,,,,,2024-09-03,1,,,,,,0
1782,7040001135215,新規,0,2024-09-03,2024-09-03,株式会社ｙｏｎｏｂｉ,,株式会社,千葉県,柏市,若柴１７８番地４柏の葉キャンパス１４８街区２ショップ＆オフィス棟６階,,12,217,2770871,,,,,,,2024-09-03,1,,,,,ヨノビ,0
1788,7040003025728,新規,0,2024-09-03,2024-09-03,合同会社Ｋｕｋｕｎａ,,合同会社,千葉県,船橋市,田喜野井６丁目３５番４号,,12,204,2740073,,,,,,,2024-09-03,1,,,,,ククナ,0
1789,7040005022483,新規,0,2024-09-03,2024-09-03,アクセル土地家屋調査士法人,,その他の設立登記法人,千葉県,柏市,柏７丁目８番９号,,12,217,2770005,,,,,,,2024-09-03,1,,,,,アクセル,0
1794,7050001055346,新規,0,2024-09-03,2024-09-03,株式会社ＳＡＮ　ＴＲＵＳＴ,,株式会社,茨城県,神栖市,波崎７３２７番地５,,08,232,3140408,,,,,,,2024-09-03,1,,,,,サントラスト,0
1797,7060001037442,新規,0,2024-09-03,2024-09-03,株式会社こめと豆,,株式会社,栃木県,那須烏山市,下川井２１２８番地,,09,215,3210504,,,,,,,2024-09-03,1,,,,,コメトマメ,0
1802,7070001042128,新規,0,2024-09-03,2024-09-03,株式会社ＹＴＧ,,株式会社,群馬県,前橋市,六供町１丁目１２番地１,,10,201,3710804,,,,,,,2024-09-03,1,,,,,ワイティージー,0
1811,7080401027413,新規,0,2024-09-03,2024-09-03,株式会社ティースリーセントラル,,株式会社,静岡県,浜松市中央区,富塚町２２６２番地の１３,,22,138,4328002,,,,,,,2024-09-03,1,,,,,ティースリーセントラル,0
1824,7120001267388,新規,0,2024-09-03,2024-09-03,株式会社アロー,,株式会社,大阪府,枚方市,桜丘町４８番５号－６,,27,210,5730018,,,,,,,2024-09-03,1,,,,,アロー,0
1825,7120001267958,新規,0,2024-09-03,2024-09-03,株式会社ＲＥＶＥ　ＨＯＬＤＩＮＧＳ,,株式会社,大阪府,大阪市中央区,本町２丁目６番１０号,,27,128,5410053,,,,,,,2024-09-03,1,,,,,レイブホールディングス,0
1826,7120001268122,新規,0,2024-09-03,2024-09-03,株式会社オー・ビー・エス,,株式会社,大阪府,大阪市中央区,北浜２丁目２番２２号,,27,128,5410041,,,,,,,2024-09-03,1,,,,,オービーエス,0
1827,7120001268130,新規,0,2024-09-03,2024-09-03,ＣＯＭＡＤＯ株式会社,,株式会社,大阪府,大阪市阿倍野区,阿倍野筋１丁目１番４３号あべのハルカス３１階,,27,119,5450052,,,,,,,2024-09-03,1,,,,,コマド,0
1828,7120001268238,新規,0,2024-09-03,2024-09-03,株式会社ＯＰＴＩＭＡ　ＬＥＬＡ,,株式会社,大阪府,大阪市港区,磯路２丁目１１番３－２０１号,,27,107,5520003,,,,,,,2024-09-03,1,,,,,オプティマレラ,0
1831,7120003027402,新規,0,2024-09-03,2024-09-03,ＳＭＫコミュニティ合同会社,,合同会社,大阪府,大阪市東住吉区,東田辺２丁目１４番３１号３０１号,,27,121,5460032,,,,,,,2024-09-03,1,,,,,エスエムケーコミュニティ,0
1846,7140001135667,新規,0,2024-09-03,2024-09-03,株式会社Ｒｐｌｕｓ,,株式会社,兵庫県,神戸市中央区,磯上通４丁目１番２３－７０８号,,28,110,6510086,,,,,,,2024-09-03,1,,,,,アールプラス,0
1847,7140001135683,新規,0,2024-09-03,2024-09-03,株式会社ＴＨＯＬ,,株式会社,兵庫県,神戸市中央区,磯辺通１丁目１番地１８号カサベラ国際プラザビル７０７,,28,110,6510084,,,,,,,2024-09-03,1,,,,,ソール,0
1849,7140003021015,新規,0,2024-09-03,2024-09-03,合同会社一僖,,合同会社,兵庫県,加東市,河高２４１９番地３,,28,228,6790221,,,,,,,2024-09-03,1,,,,,,0
1877,7200005013656,新規,0,2024-09-03,2024-09-03,医療法人ＴＯＳＩＬ,,その他の設立登記法人,岐阜県,大垣市,築捨町２丁目９４番地,,21,202,5030854,,,,,,,2024-09-03,1,,,,,トーシル,0
1883,7240001063767,新規,0,2024-09-03,2024-09-03,ひろぎんワールドビジネス株式会社,,株式会社,広島県,広島市中区,紙屋町２丁目１番２２号,,34,101,7300031,,,,,,,2024-09-03,1,,,,,ヒロギンワールドビジネス,0
1884,7240001063775,新規,0,2024-09-03,2024-09-03,ＢＭＳ株式会社,,株式会社,広島県,福山市,加茂町字芦原４０２番地１,,34,207,7202417,,,,,,,2024-09-03,1,,,,,ビーエムエス,0
1886,7260001039419,新規,0,2024-09-03,2024-09-03,株式会社一心内装,,株式会社,岡山県,岡山市南区,洲崎３丁目１１－１３,,33,104,7028042,,,,,,,2024-09-03,1,,,,,イッシンナイソウ,0
1887,7260001039427,新規,0,2024-09-03,2024-09-03,ミスターサービスＧＲ株式会社,,株式会社,岡山県,岡山市南区,古新田１１５３番６号,,33,104,7010203,,,,,,,2024-09-03,1,,,,,ミスターサービスグループ,0
1889,7260005011398,新規,0,2024-09-03,2024-09-03,特定非営利活動法人いざなみ,,その他の設立登記法人,岡山県,高梁市,正宗町２０３５番地,,33,209,7160037,,,,,,,2024-09-03,1,,,,,イザナミ,0
1894,7290001107081,新規,0,2024-09-03,2024-09-03,ＩＲＩＳＡ株式会社,,株式会社,福岡県,福岡市中央区,天神２丁目２番１２号Ｔ＆Ｊビルディング７Ｆ,,40,133,8100001,,,,,,,2024-09-03,1,,,,,イリサ,0
1895,7290001107131,新規,0,2024-09-03,2024-09-03,株式会社エムフロンティア,,株式会社,福岡県,筑紫野市,大字山家１３１８番地１,,40,217,8180003,,,,,,,2024-09-03,1,,,,,エムフロンティア,0
1901,7290801030846,新規,0,2024-09-03,2024-09-03,株式会社エクセ,,株式会社,福岡県,北九州市戸畑区,千防３丁目３番２５号,,40,105,8040081,,,,,,,2024-09-03,1,,,,,エクセ,0
1903,7310001019191,新規,0,2024-09-03,2024-09-03,さけむら工業株式会社,,株式会社,長崎県,諫早市,貝津町２７８９番地,,42,204,8540063,,,,,,,2024-09-03,1,,,,,サケムラコウギョウ,0
1905,7320001020693,新規,0,2024-09-03,2024-09-03,株式会社ラポールコフ,,株式会社,大分県,別府市,石垣西１丁目３番２７号,,44,202,8740910,,,,,,,2024-09-03,1,,,,,ラポールコフ,0
1910,7330001032416,新規,0,2024-09-03,2024-09-03,熊本和光同塵発展株式会社,,株式会社,熊本県,熊本市中央区,花畑町１番１４号Ａ＆ＭＨＡＮＡＢＡＴＡ３０１号,,43,101,8600806,,,,,,,2024-09-03,1,,,,,クマモトワコウドウジンハッテン,0
1912,7340001026771,新規,0,2024-09-03,2024-09-03,株式会社Ｌｉａｎ,,株式会社,鹿児島県,姶良市,東餅田２５４番地１,,46,225,8995421,,,,,,,2024-09-03,1,,,,,リアン,0
1915,7360001034129,新規,0,2024-09-03,2024-09-03,株式会社沖縄盛栄開発,,株式会社,沖縄県,浦添市,当山２丁目３１番１４号１Ｆ,,47,208,9012104,,,,,,,2024-09-03,1,,,,,オキナワセイエイカイハツ,0
1916,7360001034137,新規,0,2024-09-03,2024-09-03,株式会社ｏｓ,,株式会社,沖縄県,中頭郡読谷村,字宇座１８６１残波リゾートアクティビティパーク内,,47,324,9040328,,,,,,,2024-09-03,1,,,,,オーエス,0
1924,7420001005610,新規,0,2024-09-03,2024-09-03,上沢食品工業株式会社,,株式会社,青森県,八戸市,城下４丁目１番２９号,,02,203,0310072,,,,,,,2024-09-03,1,,,,,,0
1927,7430001092581,新規,0,2024-09-03,2024-09-03,株式会社札幌システム,,株式会社,北海道,札幌市豊平区,西岡五条１３丁目１２番１５号,,01,105,0620035,,,,,,,2024-09-03,1,,,,,サッポロシステム,0
1928,7430001092598,新規,0,2024-09-03,2024-09-03,株式会社ヤマモトエンジニアリング,,株式会社,北海道,石狩市,緑苑台東三条１丁目９３番地,,01,235,0613223,,,,,,,2024-09-03,1,,,,,ヤマモトエンジニアリング,0
1942,7500001025856,新規,0,2024-09-03,2024-09-03,愛媛リバブル株式会社,,株式会社,愛媛県,松山市,萱町６丁目２０番地８,,38,201,7900813,,,,,,,2024-09-03,1,,,,,エヒメリバブル,0
1944,7700150126963,新規,0,2024-09-03,2024-09-03,箕面市川合・山之口土地区画整理組合,,その他,大阪府,箕面市,粟生間谷東２丁目２６番１５号,,27,220,5620022,,,,,,,2024-09-03,1,,,,,ミノオシカワイヤマノグチトチクカクセイリクミアイ,0
1945,7700150126988,新規,0,2024-09-03,2024-09-03,ＴＨＥＪＡＮ　ＣＯＮＳＴＲＵＣＴＩＯＮＳ,,外国会社等,千葉県,八街市,東吉田７２５番地ビジネスオフィス２４号,,12,230,2891114,スリランカ民主社会主義共和国、マタレ、ワラウウェ、エラムドゥゴッレ、Ｎｏ．１３６Ａ,,,,,,2024-09-03,1,,,,,テジヤンコンストラクシヨンズ,0
1946,7700150126996,新規,0,2024-09-03,2024-09-03,ＶＥＨＩＣＬＥ　ＳＷＡＰ　ＰＶＴ　ＬＴＤ,,外国会社等,千葉県,八街市,東吉田７２５番地ビジネスオフィス２７号,,12,230,2891114,スリランカ民主社会主義共和国、ガンポラ、カハタピティヤ、キャンディロード、Ｎｏ．３６１／１,,,,,,2024-09-03,1,,,,,ヴエイクルスワツププライベートリミテツド,0
1947,7700150127004,新規,0,2024-09-03,2024-09-03,ＴＡＫ　ＰＯ　ＭＡＮＵＦＡＣＴＯＲＹ　ＬＩＭＩＴＥＤ,,外国会社等,,,,,,,,Ｆｌａｔ　Ｂ，１１／Ｆ．，Ｇｌｅｅ　Ｉｎｄｕｓｔｒｉａｌ　Ｂｕｉｌｄｉｎｇ７７－８１　Ｃｈａｉ　Ｗａｎ　Ｋｏｋ　Ｓｔｒｅｅｔ　Ｔｓｕｅｎ　Ｗａｎ，Ｎ．Ｔ．,,,,,,2024-09-03,1,,,,,タクポーマニユフアクトリーリミテツド,0
1948,7700150127012,新規,0,2024-09-03,2024-09-03,ＨｏｎｇＫｏｎｇ　ＧＳＲ　ＴｅｃｈｎｏｌｏｇｙＬｉｍｉｔｅｄ,,外国会社等,東京都,豊島区,高松２丁目３２番５号,,13,116,1710042,中華人民共和国香港特別行政区九龍旺角花園街２－１６好景商業中心２１０３号室,,,,,,2024-09-03,1,,,,,ホンコンジーエスアールテクノロジーリミテツド,0
1949,7700150127020,新規,0,2024-09-03,2024-09-03,Ｓ．Ｍ．ＧＲＡＮＤ　ＴＲＡＤＩＮＧ　ＣＯＭＰＡＮＹ　ＰＶＴ　ＬＴＤ,,外国会社等,千葉県,佐倉市,大篠塚２７７番地オフィス７,,12,212,2850806,スリランカ民主社会主義共和国、キャンディ、アクラナ、ブルゴホテンナ、Ｎｏ．３２２／２,,,,,,2024-09-03,1,,,,,エスエムグランドトレーデイングカンパニープライベートリミテツド,0
1956,8010001247912,新規,0,2024-09-03,2024-09-03,Ｙｗｏｒｋｓ株式会社,,株式会社,東京都,文京区,向丘１丁目１２番５号富岡ビル３０２,,13,105,1130023,,,,,,,2024-09-03,1,,,,,ワイワークス,0
1957,8010001247953,新規,0,2024-09-03,2024-09-03,株式会社ＨＵＩＯＮＥ,,株式会社,東京都,文京区,千石４丁目２６番２号ＳＡＮＳＡＮ千石ビル４Ｂ０１,,13,105,1120011,,,,,,,2024-09-03,1,,,,,フィーワン,0
1958,8010001247961,新規,0,2024-09-03,2024-09-03,デザイン建築設計事務所株式会社,,株式会社,東京都,千代田区,東神田２丁目７番４号,,13,101,1010031,,,,,,,2024-09-03,1,,,,,デザインケンチクセッケイジムショ,0
1968,8010401184813,新規,0,2024-09-03,2024-09-03,株式会社ＯｐｅｎＨｅａｒｔ,,株式会社,東京都,港区,虎ノ門１丁目１７－１虎ノ門ヒルズビジネスタワー１５階,,13,103,1050001,,,,,,,2024-09-03,1,,,,,オープンハート,0
1969,8010401184846,新規,0,2024-09-03,2024-09-03,株式会社Ｔａｍｏｓａｎ　Ｍａｎａｇｅｍｅｎｔ,,株式会社,東京都,港区,西新橋３丁目１７番１号,,13,103,1050003,,,,,,,2024-09-03,1,,,,,タモサンマネジメント,0
1971,8010405023488,新規,0,2024-09-03,2024-09-03,一般社団法人不動産流通,,その他の設立登記法人,東京都,港区,赤坂６丁目１９番４０号,,13,103,1070052,,,,,,,2024-09-03,1,,,,,フドウサンリュウツウ,0
1977,8010701046465,新規,0,2024-09-03,2024-09-03,株式会社ＪａｍＯｎ,,株式会社,東京都,品川区,西五反田２丁目９－７ドルミ五反田アンメゾン４０７号,,13,109,1410031,,,,,,,2024-09-03,1,,,,,ジャムオン,0
1979,8010803005088,新規,0,2024-09-03,2024-09-03,合同会社ｔｈｕｍｂｎａｉｌ,,合同会社,東京都,大田区,蒲田５丁目２１－１３ペガサスステーションプラザ蒲田Ｂ２Ｆ－３５,,13,111,1440052,,,,,,,2024-09-03,1,,,,,サムネイル,0
1989,8011001164313,新規,0,2024-09-03,2024-09-03,Ｋｏｈａｄａ　Ｈｏｌｄｉｎｇｓ株式会社,,株式会社,東京都,渋谷区,広尾５丁目１３Ａ＆ＢＡｒｉｓｔｏ広尾,,13,113,1500012,,,,,,,2024-09-03,1,,,,,コハダホールディングス,0
1990,8011001164379,新規,0,2024-09-03,2024-09-03,株式会社ＥＢＴ,,株式会社,東京都,渋谷区,恵比寿西１丁目３６番２号,,13,113,1500021,,,,,,,2024-09-03,1,,,,,イービーティー,0
1991,8011001164395,新規,0,2024-09-03,2024-09-03,株式会社Ｓｏｒａ,,株式会社,東京都,渋谷区,南平台町１５番１,,13,113,1500036,,,,,,,2024-09-03,1,,,,,ソラ,0
1992,8011001164412,新規,0,2024-09-03,2024-09-03,株式会社Ｂｌｏｏｍ,,株式会社,東京都,渋谷区,神宮前２丁目１３－７日光パレス外苑５０３,,13,113,1500001,,,,,,,2024-09-03,1,,,,,ブルーム,0
1993,8011001164429,新規,0,2024-09-03,2024-09-03,Ｔｒｉ　Ｖ．株式会社,,株式会社,東京都,渋谷区,千駄ヶ谷４丁目３番３号,,13,113,1510051,,,,,,,2024-09-03,1,,,,,トライブ,0
1994,8011001164445,新規,0,2024-09-03,2024-09-03,株式会社１ｔｏ１０,,株式会社,東京都,渋谷区,道玄坂１丁目１０番８号渋谷道玄坂東急ビル２Ｆ－Ｃ,,13,113,1500043,,,,,,,2024-09-03,1,,,,,ワントゥーテン,0
1995,8011001164461,新規,0,2024-09-03,2024-09-03,株式会社ゴールデンレコード,,株式会社,東京都,渋谷区,道玄坂２丁目１１番１号ＪＭＦビル渋谷０３－５階,,13,113,1500043,,,,,,,2024-09-03,1,,,,,ゴールデンレコード,0
1998,8011003019903,新規,0,2024-09-03,2024-09-03,合同会社Ｎｅｘｔ　ｆｏｒｃｅ,,合同会社,東京都,渋谷区,恵比寿西２丁目４番８号ウィンド恵比寿ビル８Ｆ,,13,113,1500021,,,,,,,2024-09-03,1,,,,,ネクストフォース,0
2005,8011101108624,新規,0,2024-09-03,2024-09-03,株式会社エヌケーブレインコンサルティング,,株式会社,東京都,新宿区,上落合３丁目８番２５－１００２号,,13,104,1610034,,,,,,,2024-09-03,1,,,,,エヌケーブレインコンサルティング,0
2009,8011105011139,新規,0,2024-09-03,2024-09-03,一般社団法人ＲＡＩＯＮ　ＣＡＰＩＴＡＬ２,,その他の設立登記法人,東京都,新宿区,大久保１丁目４番２０号,,13,104,1690072,,,,,,,2024-09-03,1,,,,,ライオンキャピタルツー,0
2013,8011401026377,新規,0,2024-09-03,2024-09-03,東京達永株式会社,,株式会社,東京都,板橋区,大和町６番１２号板橋本町ビル,,13,119,1730012,,,,,,,2024-09-03,1,,,,,トウキョウタツエイ,0
2017,8011801044788,新規,0,2024-09-03,2024-09-03,株式会社Ｔｈｒｅｅ　Ｓ,,株式会社,東京都,足立区,入谷４丁目１番１号,,13,121,1210836,,,,,,,2024-09-03,1,,,,,スリーエス,0
2020,8012401042232,新規,0,2024-09-03,2024-09-03,株式会社セブン,,株式会社,東京都,武蔵野市,吉祥寺本町２丁目５番１０号,,13,203,1800004,,,,,,,2024-09-03,1,,,,,セブン,0
2021,8012401042240,新規,0,2024-09-03,2024-09-03,Ｂｉｓｍｕｔｈ株式会社,,株式会社,東京都,調布市,調布ケ丘２丁目４－１,,13,208,1820021,,,,,,,2024-09-03,1,,,,,ビスマス,0
2024,8012801023427,新規,0,2024-09-03,2024-09-03,株式会社池袋クラウド会計事務所,,株式会社,東京都,立川市,栄町６丁目８番地の５５,,13,202,1900003,,,,,,,2024-09-03,1,,,,,イケブクロクラウドカイケイジムショ,0
2025,8012801023435,新規,0,2024-09-03,2024-09-03,株式会社安心スタッフ,,株式会社,東京都,東大和市,上北台１丁目４番１３号,,13,220,2070023,,,,,,,2024-09-03,1,,,,,アンシンスタッフ,0
2030,8020001158992,新規,0,2024-09-03,2024-09-03,株式会社大貴ホールディングス,,株式会社,神奈川県,川崎市宮前区,水沢１丁目１番１号,,14,136,2160012,,,,,,,2024-09-03,1,,,,,ダイタカホールディングス,0
2034,8020003026818,新規,0,2024-09-03,2024-09-03,ＥＭＡ広告合同会社,,合同会社,神奈川県,横浜市港北区,高田西３丁目２０番３号,,14,109,2230066,,,,,,,2024-09-03,1,,,,,イーエムエーコウコク,0
2039,8021001083090,新規,0,2024-09-03,2024-09-03,株式会社Ｗｏｒｋ４,,株式会社,神奈川県,藤沢市,鵠沼石上２丁目５番１号３Ｆ－Ｃ,,14,205,2510025,,,,,,,2024-09-03,1,,,,,ワークフォー,0
2043,8030001162259,新規,0,2024-09-03,2024-09-03,行田羽生ハイトラスト株式会社,,株式会社,埼玉県,行田市,桜町１丁目６番１０号,,11,206,3610022,,,,,,,2024-09-03,1,,,,,ギョウダハニュウハイトラスト,0
2044,8030001162267,新規,0,2024-09-03,2024-09-03,株式会社ＰＥＴＬＩＮＫ,,株式会社,埼玉県,入間市,宮寺２６７９番地１,,11,225,3580014,,,,,,,2024-09-03,1,,,,,ペットリンク,0
2045,8030001162283,新規,0,2024-09-03,2024-09-03,株式会社三浦工業,,株式会社,埼玉県,八潮市,大字木曽根１５８４番地１１,,11,234,3400813,,,,,,,2024-09-03,1,,,,,ミウラコウギョウ,0
2056,8040001135230,新規,0,2024-09-03,2024-09-03,福祉パーソナルケア株式会社,,株式会社,千葉県,佐倉市,井野１９８,,12,212,2850855,,,,,,,2024-09-03,1,,,,,フクシパーソナルケア,0
2064,8070001042110,新規,0,2024-09-03,2024-09-03,ＴＯＹＯアセット株式会社,,株式会社,群馬県,北群馬郡吉岡町,大字大久保５８２,,10,345,3703602,,,,,,,2024-09-03,1,,,,,トーヨーアセット,0
2065,8070001042127,新規,0,2024-09-03,2024-09-03,ＡＩプランニング株式会社,,株式会社,群馬県,桐生市,新里町武井３７９番地４,,10,203,3760123,,,,,,,2024-09-03,1,,,,,エイアイプランニング,0
2073,8080101024973,新規,0,2024-09-03,2024-09-03,フィーチャーアソシエーション株式会社,,株式会社,静岡県,富士市,鈴川本町１１番４５号,,22,210,4170011,,,,,,,2024-09-03,1,,,,,,0
2074,8080401027420,新規,0,2024-09-03,2024-09-03,Ｈ．Ｉ．Ｔ．Ｏ．コンサルティング株式会社,,株式会社,静岡県,浜松市中央区,半田山５丁目２３番８号,,22,138,4313125,,,,,,,2024-09-03,1,,,,,エイチアイティーオーコンサルティング,0
2075,8090001018884,新規,0,2024-09-03,2024-09-03,株式会社ｗｅｄｄｉｎｇ　ｎｏｒｍ．,,株式会社,山梨県,南都留郡富士河口湖町,長浜２１０９番地６,,19,430,4010331,,,,,,,2024-09-03,1,,,,,ウェディングノーム,0
2077,8100001037825,新規,0,2024-09-03,2024-09-03,株式会社ＭＡＫＩＢＩＴＯ,,株式会社,長野県,松本市,大字笹賀５１１７番地５,,20,202,3990033,,,,,,,2024-09-03,1,,,,,マキビト,0
2088,8120001268088,新規,0,2024-09-03,2024-09-03,株式会社ＡＭＡＴＥＬ,,株式会社,大阪府,大阪市北区,梅田１丁目２番２号大阪駅前第２ビル１２－１２,,27,127,5300001,,,,,,,2024-09-03,1,,,,,アマテル,0
2089,8120001268245,新規,0,2024-09-03,2024-09-03,耕詮株式会社,,株式会社,大阪府,大阪市福島区,福島５丁目６番１６号ラグザ大阪２Ｆ,,27,103,5530003,,,,,,,2024-09-03,1,,,,,コウセン,0
2090,8120001268261,新規,0,2024-09-03,2024-09-03,株式会社ＢＥＬＩＦＥＨＯＭＥ,,株式会社,大阪府,大阪市旭区,高殿４丁目１５番１１号,,27,117,5350031,,,,,,,2024-09-03,1,,,,,ビライフホーム,0
2092,8120003027450,新規,0,2024-09-03,2024-09-03,ｔｅｌｍｏ合同会社,,合同会社,大阪府,大阪市住之江区,南港北２丁目１番１０号,,27,125,5590034,,,,,,,2024-09-03,1,,,,,テルモ,0
2094,8120101070237,新規,0,2024-09-03,2024-09-03,株式会社ＯＢＡＲＡ不動産,,株式会社,大阪府,和泉市,いぶき野４丁目１番３号３０４,,27,219,5940041,,,,,,,2024-09-03,1,,,,,オバラフドウサン,0
2095,8120103006040,新規,0,2024-09-03,2024-09-03,合同会社ＧＲＡＮＤ　Ｋ,,合同会社,大阪府,堺市堺区,北瓦町１丁５番１２号,,27,141,5900076,,,,,,,2024-09-03,1,,,,,グランケー,0
2103,8130003009811,新規,0,2024-09-03,2024-09-03,合同会社欣温,,合同会社,京都府,京都市下京区,松原通烏丸西入ル玉津島町２９４番地,,26,106,6000000,,,,,,,2024-09-03,1,,,,,シンオン,0
2104,8130003009828,新規,0,2024-09-03,2024-09-03,合同会社Ｈｉｙｏｒｉ,,合同会社,京都府,宇治市,神明宮北２番地の２２,,26,204,6110025,,,,,,,2024-09-03,1,,,,,ヒヨリ,0
2108,8140001135682,新規,0,2024-09-03,2024-09-03,えごま農園株式会社,,株式会社,兵庫県,加古川市,平岡町新在家２３８９番地,,28,210,6750101,,,,,,,2024-09-03,1,,,,,エゴマノウエン,0
2140,8200001042880,新規,0,2024-09-03,2024-09-03,株式会社ＩＫＭ,,株式会社,岐阜県,関市,肥田瀬４０８４番地,,21,205,5013911,,,,,,,2024-09-03,1,,,,,アイケーエム,0
2147,8230001020512,新規,0,2024-09-03,2024-09-03,株式会社ＰＵＢＵＰ,,株式会社,富山県,富山市,新桜町２番２６号アルペン村新桜町ビル１Ｆ,,16,201,9300005,,,,,,,2024-09-03,1,,,,,パバップ,0
2160,8290001107114,新規,0,2024-09-03,2024-09-03,株式会社ＲｅｓｅａｒｃｈｅｒＲｅａｃｈｅｓ,,株式会社,福岡県,大野城市,紫台１０番１９号,,40,219,8160954,,,,,,,2024-09-03,1,,,,,リサーチャーリーチーズ,0
2161,8290001107130,新規,0,2024-09-03,2024-09-03,株式会社ＭａＱ,,株式会社,福岡県,福岡市中央区,舞鶴３丁目６番１号,,40,133,8100073,,,,,,,2024-09-03,1,,,,,マック,0
2164,8290003015777,新規,0,2024-09-03,2024-09-03,合同会社Ａｔｅｌｉｅｒ　Ｃｒｅａｔｉｏｎ,,合同会社,福岡県,福岡市東区,千早５丁目５－４３－９０３,,40,131,8130044,,,,,,,2024-09-03,1,,,,,アトリエクリエーション,0
2169,8320001020692,新規,0,2024-09-03,2024-09-03,株式会社ＫＡＮ工業,,株式会社,大分県,別府市,大字鶴見１５００番地の３５２,,44,202,8740840,,,,,,,2024-09-03,1,,,,,カンコウギョウ,0
2172,8330003010542,新規,0,2024-09-03,2024-09-03,合同会社ＭＴＯ,,合同会社,熊本県,人吉市,瓦屋町１６５３番地９,,43,203,8680025,,,,,,,2024-09-03,1,,,,,エムティーオー,0
2176,8360001034136,新規,0,2024-09-03,2024-09-03,株式会社リュウェル,,株式会社,沖縄県,那覇市,おもろまち４丁目１９番１号ルカフおもろまち４Ｆ,,47,201,9000006,,,,,,,2024-09-03,1,,,,,リュウェル,0
2177,8360001034144,新規,0,2024-09-03,2024-09-03,アシストリンクス株式会社,,株式会社,沖縄県,浦添市,勢理客２丁目１番２０号ラ・ホープ５０５,,47,208,9012122,,,,,,,2024-09-03,1,,,,,アシストリンクス,0
2180,8360005007096,新規,0,2024-09-03,2024-09-03,一般社団法人プラスワンライフ,,その他の設立登記法人,沖縄県,浦添市,牧港４丁目１０番１－１１０２,,47,208,9012131,,,,,,,2024-09-03,1,,,,,プラスワンライフ,0
2182,8380001034753,新規,0,2024-09-03,2024-09-03,株式会社根古弥商事,,株式会社,福島県,郡山市,香久池２丁目１６番６号,,07,203,9638833,,,,,,,2024-09-03,1,,,,,,0
2185,8390003002278,新規,0,2024-09-03,2024-09-03,合同会社在宅ケアサービスえーる,,合同会社,山形県,鶴岡市,湯田川乙１０７－３,,06,203,9970752,,,,,,,2024-09-03,1,,,,,ザイタクケアサービスエール,0
2189,8430001092597,新規,0,2024-09-03,2024-09-03,株式会社橋本興業,,株式会社,北海道,札幌市豊平区,西岡四条７丁目４番１９号,,01,105,0620034,,,,,,,2024-09-03,1,,,,,ハシモトコウギョウ,0
2190,8430001092614,新規,0,2024-09-03,2024-09-03,株式会社ホープ,,株式会社,北海道,夕張郡由仁町,熊本６２３番地１,,01,427,0691136,,,,,,,2024-09-03,1,,,,,ホープ,0
2192,8470001020364,新規,0,2024-09-03,2024-09-03,株式会社アヤメクオン,,株式会社,香川県,高松市,下田井町２４８番地４,,37,201,7610313,,,,,,,2024-09-03,1,,,,,アヤメクオン,0
2211,8700150126252,新規,0,2024-09-03,2024-09-03,ＡＺＵＲＥ　ＢＡＹ　ＩＮＴＥＲＮＡＴＩＯＮＡＬ　ＬＩＭＩＴＥＤ,,外国会社等,,,,,,,,Ｗｉｃｋｈａｍｓ　Ｃａｙ　ＩＩ，　Ｒｏａｄ　Ｔｏｗｎ，　Ｔｏｒｔｏｌａ，　ＶＧ１１１０，　Ｂｒｉｔｉｓｈ　Ｖｉｒｇｉｎ　Ｉｓｌａｎｄｓ,00136165,,,,,2024-09-03,1,,,,,アズールベイインターナシヨナルリミテツド,0
2212,8700150126525,新規,0,2024-09-03,2024-07-23,折松共有林組合,,その他,福島県,いわき市,遠野町上根本字折松８８－１,,07,204,9720252,,,,,,,2024-07-23,1,,,,,オリマツキヨウユウリンクミアイ,0
2213,8700150126772,新規,0,2024-09-03,2024-08-16,四谷税理士政治連盟,,その他,東京都,新宿区,四谷３丁目７－６ＮＫ第８ビル２階,,13,104,1600004,,,,,,,2024-08-16,1,,,,,ヨツヤゼイリシセイジレンメイ,0
2214,8700150126987,新規,0,2024-09-03,2024-09-03,ＭＡＫＫＡＲ　ＰＬＡＺＡ,,外国会社等,千葉県,八街市,東吉田７２５番地オフィス２３号,,12,230,2891114,スリランカ民主社会主義共和国、カルムナイ１４、メインストリート、Ｎｏ．５９５,,,,,,2024-09-03,1,,,,,マツカルプラザ,0
2215,8700150126995,新規,0,2024-09-03,2024-09-03,ＦＵＪＩＳＡＷＡ　ＬＡＮＫＡ　ＥＮＴＥＲＰＲＩＳＥＳ,,外国会社等,千葉県,佐倉市,大篠塚２７７番地,,12,212,2850806,スリランカ民主社会主義共和国、キャンディ、クンダサレ、マハワスタ、２１－２,,,,,,2024-09-03,1,,,,,フジサワランカエンタープライズ,0
2216,8700150127003,新規,0,2024-09-03,2024-09-03,Ｂ．Ｇ．Ｃｏｎｓｔｒｕｃｔｉｏｎ,,外国会社等,東京都,練馬区,春日町２丁目１－１７春日町ハイム１０１,,13,120,1790074,ネパール国、バグマティ洲、カトマンズ群、カトマンズ大都市３５区コテシュワルマハデヴスタン,,,,,,2024-09-03,1,,,,,ビジコンストラクシヨン,0
2217,8700150127011,新規,0,2024-09-03,2024-09-03,ＮＥＷ　ＬＵＣＫＹ　ＣＵＳＨＩＯＮ　ＷＯＲＫＳ,,外国会社等,茨城県,稲敷郡美浦村,大字布佐１４８２－４９,,08,442,3000427,スリランカ民主社会主義共和国、タンブッテガマ、クイーンジャンクション,,,,,,2024-09-03,1,,,,,ニユーラツキークツシヨンワークス,0
2223,9010001247928,新規,0,2024-09-03,2024-09-03,ＣＹコミュニケーションズ株式会社,,株式会社,東京都,千代田区,四番町１番地８四番町セントラルシティハウス６０１号,,13,101,1020081,,,,,,,2024-09-03,1,,,,,シーワイコミュニケーションズ,0
2224,9010001247952,新規,0,2024-09-03,2024-09-03,北陸エナジーソリューション株式会社,,株式会社,東京都,中央区,銀座８丁目１４番９号,,13,102,1040061,,,,,,,2024-09-03,1,,,,,ホクリクエナジーソリューション,0
2225,9010001247960,新規,0,2024-09-03,2024-09-03,Ｕ‐ｋｏｋａ株式会社,,株式会社,東京都,中央区,日本橋室町１丁目１１番１２号日本橋水野ビル７Ｆ,,13,102,1030022,,,,,,,2024-09-03,1,,,,,ユーコーカ,0
2228,9010003044794,新規,0,2024-09-03,2024-09-03,ＡＭＡＭＩ合同会社,,合同会社,東京都,中央区,銀座１丁目１２番４号Ｎ＆Ｅ－ＢＬＤ．６Ｆ,,13,102,1040061,,,,,,,2024-09-03,1,,,,,アマミ,0
2231,9010005038761,新規,0,2024-09-03,2024-09-03,一般社団法人脳力検定協会,,その他の設立登記法人,東京都,中央区,日本橋富沢町１６番６号,,13,102,1030006,,,,,,,2024-09-03,1,,,,,ノウリョクケンテイキョウカイ,0
2241,9010401184696,新規,0,2024-09-03,2024-09-03,株式会社ＳＨＩＮ,,株式会社,東京都,港区,南青山２丁目２番１５号,,13,103,1070062,,,,,,,2024-09-03,1,,,,,シン,0
2242,9010401184812,新規,0,2024-09-03,2024-09-03,ＴＴＣ株式会社,,株式会社,東京都,港区,赤坂２丁目２１－４天翔赤坂ＡＮＮＥＸビル５階５１０号室,,13,103,1070052,,,,,,,2024-09-03,1,,,,,ティーティーシー,0
2243,9010401184853,新規,0,2024-09-03,2024-09-03,商事株式会社,,株式会社,東京都,港区,白金４丁目３番２２号３０２,,13,103,1080072,,,,,,,2024-09-03,1,,,,,ショウジ,0
2247,9010405023512,新規,0,2024-09-03,2024-09-03,ＳＲ　Ｓｔｒｕｃｔｕｒａｌ　Ｃｏｒｅ特定目的会社,,その他の設立登記法人,東京都,港区,虎ノ門５丁目１番４号,,13,103,1050001,,,,,,,2024-09-03,1,,,,,エスアールストラクチュアルコア,0
2249,9010601065853,新規,0,2024-09-03,2024-09-03,株式会社空木,,株式会社,東京都,墨田区,業平４丁目８番１０－１０２号,,13,107,1300002,,,,,,,2024-09-03,1,,,,,ウツギ,0
2252,9010803005079,新規,0,2024-09-03,2024-09-03,ダブルムーン合同会社,,合同会社,東京都,大田区,西馬込２丁目５－２西馬込テラスコート１０１,,13,111,1430026,,,,,,,2024-09-03,1,,,,,ダブルムーン,0
2257,9011001164246,新規,0,2024-09-03,2024-09-03,Ｈａｎｙｕｎ　Ｉｎｔｅｒｎａｔｉｏｎａｌ株式会社,,株式会社,東京都,渋谷区,富ヶ谷１丁目１４番１４号３階・４階,,13,113,1510063,,,,,,,2024-09-03,1,,,,,ハンユンインターナショナル,0
2258,9011001164320,新規,0,2024-09-03,2024-09-03,テイルウィンドメディア株式会社,,株式会社,東京都,渋谷区,神宮前６丁目２３番４号桑野ビル２階,,13,113,1500001,,,,,,,2024-09-03,1,,,,,テイルウィンドメディア,0
2259,9011001164403,新規,0,2024-09-03,2024-09-03,株式会社Ａｎｙｂｏｄｙ,,株式会社,東京都,渋谷区,渋谷２丁目１９番１５号宮益坂ビルディング６０９,,13,113,1500002,,,,,,,2024-09-03,1,,,,,エニバディ,0
2268,9011103014860,新規,0,2024-09-03,2024-09-03,Ｃｏｎｆｉｄｅｎｃｅ合同会社,,合同会社,東京都,新宿区,新小川町９番１０－１０４号,,13,104,1620814,,,,,,,2024-09-03,1,,,,,コンフィダンス,0
2269,9011103014869,新規,0,2024-09-03,2024-09-03,バルザック２合同会社,,合同会社,東京都,新宿区,四谷４丁目３２番８号ＹＫＢサニービル６階,,13,104,1600004,,,,,,,2024-09-03,1,,,,,バルザックツー,0
2270,9011105011138,新規,0,2024-09-03,2024-09-03,一般社団法人ＲＡＩＯＮ　ＣＡＰＩＴＡＬ１,,その他の設立登記法人,東京都,新宿区,大久保１丁目４番２０号,,13,104,1690072,,,,,,,2024-09-03,1,,,,,ライオンキャピタルワン,0
2273,9011503006210,新規,0,2024-09-03,2024-09-03,スマイルファミリー合同会社,,合同会社,東京都,北区,上十条４丁目１番２４号,,13,117,1140034,,,,,,,2024-09-03,1,,,,,スマイルファミリー,0
2275,9011701027586,新規,0,2024-09-03,2024-09-03,株式会社ＴＭホールディングス,,株式会社,東京都,江戸川区,西一之江４丁目９番２８号,,13,123,1320023,,,,,,,2024-09-03,1,,,,,ティーエムホールディングス,0
2280,9011801044804,新規,0,2024-09-03,2024-09-03,株式会社コムシー,,株式会社,東京都,足立区,六町１丁目１２番３７号,,13,121,1210073,,,,,,,2024-09-03,1,,,,,コムシー,0
2283,9013101009504,新規,0,2024-09-03,2024-09-03,株式会社松陽リーデック,,株式会社,東京都,あきる野市,二宮１０５５番地４,,13,228,1970814,,,,,,,2024-09-03,1,,,,,ショウヨウリーデック,0
2291,9020001159032,新規,0,2024-09-03,2024-09-03,ケイエスビルド株式会社,,株式会社,神奈川県,横浜市港北区,新横浜３丁目１９番１１号,,14,109,2220033,,,,,,,2024-09-03,1,,,,,ケイエスビルド,0
2296,9020003026800,新規,0,2024-09-03,2024-09-03,陽太合同会社,,合同会社,神奈川県,川崎市高津区,久地２丁目２番１７－３０１号マンションエナジー,,14,134,2130032,,,,,,,2024-09-03,1,,,,,ヨウタ,0
2299,9020005016519,新規,0,2024-09-03,2024-09-03,一般社団法人Ｓｉｇｎａｔｕｒｅ　ＧＹＭ,,その他の設立登記法人,神奈川県,横浜市西区,老松町２９番地,,14,103,2200032,,,,,,,2024-09-03,1,,,,,シグネチャージム,0
2313,9030001162241,新規,0,2024-09-03,2024-09-03,八山株式会社,,株式会社,埼玉県,さいたま市緑区,東浦和４丁目２７番地２,,11,109,3360926,,,,,,,2024-09-03,1,,,,,ハッサン,0
2334,9050001055344,新規,0,2024-09-03,2024-09-03,株式会社スペイル,,株式会社,茨城県,つくば市,上郷９２６番地,,08,220,3002645,,,,,,,2024-09-03,1,,,,,スペイル,0
2344,9080401027411,新規,0,2024-09-03,2024-09-03,株式会社エムディーケー,,株式会社,静岡県,浜松市中央区,有玉北町１３００番地,,22,138,4313121,,,,,,,2024-09-03,1,,,,,エムディーケー,0
2346,9090001018883,新規,0,2024-09-03,2024-09-03,株式会社Ｅｓｓｅｎｔｉａｌ,,株式会社,山梨県,甲府市,大里町１７３６番地アートスペース２０２号,,19,201,4000053,,,,,,,2024-09-03,1,,,,,エッセンシャル,0
2349,9100003007759,新規,0,2024-09-03,2024-09-03,合同会社Ｏｒｉｅｎｔａｌ　Ｌａｎｄ,,合同会社,長野県,北安曇郡白馬村,大字北城字平川入２９４２番地８,,20,485,3999301,,,,,,,2024-09-03,1,,,,,オリエンタルランド,0
2359,9120001268211,新規,0,2024-09-03,2024-09-03,株式会社法人会計支援センター,,株式会社,大阪府,大阪市中央区,北久宝寺町１丁目２番１－６０４号,,27,128,5410057,,,,,,,2024-09-03,1,,,,,ホウジンカイケイシエンセンター,0
2360,9120001268236,新規,0,2024-09-03,2024-09-03,株式会社ＦＯＲＧＥ,,株式会社,大阪府,大阪市北区,梅田１丁目１－３大阪駅前第３ビル２９階１－１－１号室,,27,127,5300001,,,,,,,2024-09-03,1,,,,,フォージ,0
2361,9120001268244,新規,0,2024-09-03,2024-09-03,株式会社ＮＵＷＯＲＫＳ,,株式会社,大阪府,大阪市西区,西本町１丁目１２番１９－４１０号,,27,106,5500005,,,,,,,2024-09-03,1,,,,,ニューワークス,0
2362,9120001268252,新規,0,2024-09-03,2024-09-03,株式会社オリーバーズ,,株式会社,大阪府,大阪市北区,大淀南２丁目６番４号ＳＡＧＡＷＡビル４０１号,,27,127,5310075,,,,,,,2024-09-03,1,,,,,オリーバーズ,0
2363,9120001268260,新規,0,2024-09-03,2024-09-03,株式会社ＡＰＥＸ　ＳＲＩ　ＬＡＮＫＡ　ＧＥＭＳ,,株式会社,大阪府,大阪市中央区,南久宝寺町１丁目７番１０号シャンクレール南久宝寺１００３号,,27,128,5410058,,,,,,,2024-09-03,1,,,,,アペックススリランカジェムス,0
2364,9120001268269,新規,0,2024-09-03,2024-09-03,株式会社ＡＫＳ,,株式会社,大阪府,大阪市北区,天神橋３丁目１番３４号,,27,127,5300041,,,,,,,2024-09-03,1,,,,,エーケーエス,0
2374,9122003002985,新規,0,2024-09-03,2024-09-03,ＶＴＣ合同会社,,合同会社,大阪府,東大阪市,日下町６丁目２番２５号,,27,227,5798003,,,,,,,2024-09-03,1,,,,,ベテセ,0
2376,9130001077850,新規,0,2024-09-03,2024-09-03,株式会社一日一笑,,株式会社,京都府,長岡京市,長岡１丁目１３番１５号吉川ビル２Ｆ,,26,209,6170823,,,,,,,2024-09-03,1,,,,,イチニチイッショウ,0
2385,9140003021038,新規,0,2024-09-03,2024-09-03,合同会社赤石発,,合同会社,兵庫県,明石市,鍛治屋町４－１４スリーナインビル６０２,,28,203,6730884,,,,,,,2024-09-03,1,,,,,アカシハツ,0
2386,9140005027198,新規,0,2024-09-03,2024-09-03,一般社団法人元栄海四丁目町内会,,その他の設立登記法人,兵庫県,神戸市中央区,栄町通４丁目３番１２号,,28,110,6500023,,,,,,,2024-09-03,1,,,,,ゲンエイカイヨンチョウメチョウナイカイ,0
2390,9160001026193,新規,0,2024-09-03,2024-09-03,株式会社ｏｎｅ　ｗｏｒｌｄ,,株式会社,滋賀県,草津市,新堂町７５番地３,,25,206,5250013,,,,,,,2024-09-03,1,,,,,ワンワールド,0
2407,9190001031587,新規,0,2024-09-03,2024-09-03,株式会社下市屋商店,,株式会社,三重県,熊野市,木本町４９３番地,,24,212,5194323,,,,,,,2024-09-03,1,,,,,シモイチヤショウテン,0
2409,9200003006486,新規,0,2024-09-03,2024-09-03,合同会社さつきプラス,,合同会社,岐阜県,可児市,今渡１３４８番地１,,21,214,5090207,,,,,,,2024-09-03,1,,,,,サツキプラス,0
2422,9240001063773,新規,0,2024-09-03,2024-09-03,株式会社咲電設,,株式会社,広島県,広島市安佐南区,山本新町５丁目１８番２７号,,34,105,7310139,,,,,,,2024-09-03,1,,,,,サクデンセツ,0
2428,9260001039425,新規,0,2024-09-03,2024-09-03,株式会社三木工業,,株式会社,岡山県,岡山市北区,下石井１丁目１－１７アクロスキューブビル２階,,33,101,7000907,,,,,,,2024-09-03,1,,,,,ミキコウギョウ,0
2429,9260003004880,新規,0,2024-09-03,2024-09-03,合同会社Ａｔｅｌｉｅｒ　ＫＴ　Ｍｏｔｉｆ,,合同会社,岡山県,勝田郡奈義町,広岡８３３,,33,623,7081324,,,,,,,2024-09-03,1,,,,,アトリエケイティモチーフ,0
2430,9270001009047,新規,0,2024-09-03,2024-09-03,株式会社ＫＭ,,株式会社,鳥取県,鳥取市,河原町稲常９２１番地,,31,201,6801203,,,,,,,2024-09-03,1,,,,,ケイエム,0
2443,9290001107096,新規,0,2024-09-03,2024-09-03,株式会社筥崎ＷＡＤＡＣＨＩプロパティ,,株式会社,福岡県,福岡市東区,箱崎１丁目４番１０－３０６号,,40,131,8120053,,,,,,,2024-09-03,1,,,,,ハコザキワダチプロパティ,0
2444,9290001107121,新規,0,2024-09-03,2024-09-03,株式会社Ｒａｙ　ａｉｌｅ,,株式会社,福岡県,春日市,日の出町４丁目１９番地１・２０１号,,40,218,8160873,,,,,,,2024-09-03,1,,,,,レイエール,0
2445,9290001107138,新規,0,2024-09-03,2024-09-03,田中農園株式会社,,株式会社,福岡県,糸島市,二丈松末西１丁目７番１号,,40,230,8191617,,,,,,,2024-09-03,1,,,,,タナカノウエン,0
2446,9290001107146,新規,0,2024-09-03,2024-09-03,株式会社ＷａＶｅ’Ｓ,,株式会社,福岡県,春日市,上白水１丁目８８番地,,40,218,8160844,,,,,,,2024-09-03,1,,,,,ウェイブス,0
2448,9290003015776,新規,0,2024-09-03,2024-09-03,合同会社ＳＥＩ,,合同会社,福岡県,糸島市,板持４１番地１２,,40,230,8191101,,,,,,,2024-09-03,1,,,,,エスイーアイ,0
2455,9320001020700,新規,0,2024-09-03,2024-09-03,龍南ホールディングス株式会社,,株式会社,大分県,大分市,青崎１丁目２番３６号,,44,201,8700278,,,,,,,2024-09-03,1,,,,,リュウナンホールディングス,0
2461,9330005010820,新規,0,2024-09-03,2024-09-03,特定非営利活動法人Ｕｎｔｒｅｅ,,その他の設立登記法人,熊本県,熊本市東区,長嶺南４丁目１１－３６－５０２,,43,102,8618039,,,,,,,2024-09-03,1,,,,,アンツリー,0
2471,9360003014242,新規,0,2024-09-03,2024-09-03,合同会社ＴＡＫＡＫＯ,,合同会社,沖縄県,那覇市,西１丁目５－１－３０２,,47,201,9000036,,,,,,,2024-09-03,1,,,,,タカコ,0
2481,9420003002983,新規,0,2024-09-03,2024-09-03,合同会社Ｅｓｔｒｅｌｌａ,,合同会社,青森県,八戸市,東白山台３丁目１０番３号ニュータウンハイツＡ１０２,,02,203,0391111,,,,,,,2024-09-03,1,,,,,エストレージャ,0
2491,9470003002707,新規,0,2024-09-03,2024-09-03,合同会社Ａｃｅ,,合同会社,香川県,小豆郡小豆島町,片城甲４４番地２４７,,37,324,7614431,,,,,,,2024-09-03,1,,,,,エース,0
2494,9500003003321,新規,0,2024-09-03,2024-09-03,合同会社Ｋｉｅ＆Ｃｏ,,合同会社,愛媛県,松山市,平和通１丁目５番地３５,,38,201,7900807,,,,,,,2024-09-03,1,,,,,キエアンドコウ,0
2495,9700150126986,新規,0,2024-09-03,2024-09-03,ＡＳＩＡＮ　ＭＯＴＯＲＳ,,外国会社等,千葉県,八街市,東吉田７２５番地オフィス２２号,,12,230,2891114,スリランカ民主社会主義共和国、ポロンナルワ、カドゥルウェラ、サウマイルジャンクション、Ｎｏ．８３５,,,,,,2024-09-03,1,,,,,アジアンモータース,0
2496,9700150126994,新規,0,2024-09-03,2024-09-03,Ｙ．Ｇ．ＥＮＴＥＲＰＲＩＳＥＳ　ＰＶＴ　ＬＴＤ,,外国会社等,千葉県,八街市,東吉田７２５番地ビジネスオフィス２６号,,12,230,2891114,スリランカ民主社会主義共和国、ガンポラ、ボタラピティヤ、デワラジャマワタ、Ｎｏ．４／３７,,,,,,2024-09-03,1,,,,,ワイジーエンタープライズプライベートリミテツド,0
2497,9700150127002,新規,0,2024-09-03,2024-09-03,ＣＨＯＩＣＥ　ＭＯＴＯＲ　ＷＯＲＬＤ,,外国会社等,千葉県,大網白里市,細草３１７４番地３,,12,239,2993211,スリランカ民主社会主義共和国、キャンディ、バトゥゴダ、ディワナワッタ、Ｎｏ．３７０／Ａ,,,,,,2024-09-03,1,,,,,チヨイスモーターワールド,0
2498,9700150127010,新規,0,2024-09-03,2024-09-03,ＣＡＲ　ＺＯＮＥ　ＥＮＴＥＲＰＲＩＳＥＳ,,外国会社等,茨城県,日立市,金沢町４丁目６０オフィス－Ｃ,,08,202,3160015,スリランカ民主社会主義共和国、クルネーガレ、コロンボロード、Ｎｏ．１１５,,,,,,2024-09-03,1,,,,,カーゾーンエンタープライセス,0
2499,9700150127019,新規,0,2024-09-03,2024-09-03,新大阪コーポラス・八光ビルマンション敷地売却組合,,その他,大阪府,大阪市淀川区,西宮原１丁目８－１４,,27,123,5320004,,,,,,,2024-09-03,1,,,,,シンオオサカコーポラスハツコウビルマンシヨンシキチバイキヤククミアイ,0
