sequenceNumber,corporateNumber,process,correct,updateDate,changeDate,name,nameImageId,kind,prefectureName,cityName,streetNumber,addressImageId,prefectureCode,cityCode,postCode,addressOutside,addressOutsideImageId,closeDate,closeCause,successorCorporateNumber,changeCause,assignmentDate,latest,enName,enPrefectureName,enCityName,enAddressOutside,furigana,hihyoji
39,1011003011420,登記記録の閉鎖等,0,2023-08-08,2023-08-02,合同会社ＳＣＳ,,合同会社,東京都,渋谷区,代々木３丁目３７番５号たかの友梨レインボービル,,13,113,1510053,,,2023-08-02,合併による解散等,1011001072869,令和５年８月１日東京都新宿区百人町一丁目１１番２５号株式会社Ｇ．Ｐホールディング（1011001072869）に合併し解散,2020-07-20,1,,,,,エスシーエス,0
44,1011101092164,登記記録の閉鎖等,0,2023-08-08,2023-08-04,株式会社Ｃｒａｚｅ,,株式会社,東京都,調布市,布田１丁目１５番地９エスポワール・ヴェール３０２,,13,208,1820024,,,2023-08-04,清算の結了等,,,2020-08-17,1,,,,,クレイズ,0
46,1011103007343,登記記録の閉鎖等,0,2023-08-08,2023-08-04,Ｍａｓｔａｒエナジー合同会社,,合同会社,東京都,新宿区,新小川町１番１４号,,13,104,1620814,,,2023-08-04,合併による解散等,9010403017078,令和５年７月３１日東京都港区芝公園二丁目２番１０号中和ビル３階ＧＰＳＳ４合同会社（9010403017078）に合併し解散,2017-09-14,1,,,,,マスターエナジー,0
65,1012402017165,登記記録の閉鎖等,0,2023-08-08,2023-08-07,有限会社たか,,有限会社,東京都,武蔵野市,西久保１丁目１０番２号,,13,203,1800013,,,2023-08-07,清算の結了等,,,2015-10-05,1,,,,,,0
70,1013301021407,登記記録の閉鎖等,0,2023-08-08,2023-08-03,株式会社すがもびと,,株式会社,東京都,豊島区,巣鴨３丁目２８番７号,,13,116,1700002,,,2023-08-03,清算の結了等,,,2015-10-05,1,,,,,スガモビト,0
92,1030002069781,登記記録の閉鎖等,0,2023-08-08,2023-07-12,有限会社トーヨー,,有限会社,埼玉県,南埼玉郡宮代町,字道佛７４９番地７５,,11,442,3450811,,,2023-07-12,清算の結了等,,,2015-10-05,1,,,,,トーヨー,0
113,1040002084680,登記記録の閉鎖等,0,2023-08-08,2023-07-12,有限会社豊自動車工業,,有限会社,千葉県,旭市,井戸野２５４９番地の１,,12,215,2892531,,,2023-07-12,清算の結了等,,,2015-10-05,1,,,,,ユタカジドウシャコウギョウ,0
115,1040005012663,登記記録の閉鎖等,0,2023-08-08,2023-07-14,農事組合法人ＳＵＮファーム富浦,,その他の設立登記法人,千葉県,旭市,中谷里２５２３番地の１,,12,215,2892523,,,2023-07-14,清算の結了等,,,2015-10-05,1,,,,,サンファームトミウラ,0
139,1110002010539,登記記録の閉鎖等,0,2023-08-08,2023-07-31,有限会社荒木電気,,有限会社,新潟県,新潟市北区,内沼丁８００番地１,,15,101,9503333,,,2023-07-31,清算の結了等,,,2015-10-05,1,,,,,アラキデンキ,0
146,1120001247222,登記記録の閉鎖等,0,2023-08-08,2023-08-01,二次資源電力株式会社,,株式会社,大阪府,大阪市中央区,瓦町４丁目３－７ＶＯＲＴ御堂筋本町５０３号,,27,128,5410048,,,2023-08-01,合併による解散等,6120001244017,令和５年８月１日大阪市中央区瓦町４－３－７ＶＯＲＴ御堂筋本町５０３号二次資源ホールディングス株式会社（6120001244017）に合併し解散,2022-07-06,1,,,,,ニジシゲンデンリョク,0
181,1170002011580,登記記録の閉鎖等,0,2023-08-08,2023-08-01,有限会社南紀,,有限会社,和歌山県,新宮市,徐福１丁目２番１７号,,30,207,6470020,,,2023-08-01,合併による解散等,1170001011383,令和５年８月１日和歌山県新宮市新町三丁目２番地の１３育栄不動産株式会社（1170001011383）に合併し解散,2015-10-05,1,,,,,ナンキ,0
196,1190005001024,登記記録の閉鎖等,0,2023-08-08,2023-06-29,日蓮宗小山教会,,その他の設立登記法人,三重県,津市,一志町小山８６４番地,,24,201,5152514,,,2023-06-29,合併による解散等,9190005000943,令和５年６月２９日三重県津市久居寺町１２３６番地本妙寺（9190005000943）に合併し解散,2015-10-05,1,,,,,,0
208,1230005007215,登記記録の閉鎖等,0,2023-08-08,2023-07-31,医療法人社団織田歯科医院,,その他の設立登記法人,富山県,射水市,草岡町２丁目８番地の３,,16,211,9330225,,,2023-07-31,清算の結了等,,,2015-10-05,1,,,,,オダシカイイン,0
209,1240001031630,登記記録の閉鎖等,0,2023-08-08,2023-08-03,株式会社サンシティ,,株式会社,広島県,福山市,今津町１番３１号,,34,207,7290111,,,2023-08-03,清算の結了等,,,2015-10-05,1,,,,,サンシティ,0
216,1240002030623,登記記録の閉鎖等,0,2023-08-08,2023-07-27,有限会社広島吉舎まむし養殖センター,,有限会社,広島県,三次市,吉舎町海田原５１６番地の１,,34,209,7294205,,,2023-07-27,清算の結了等,,,2015-10-05,1,,,,,,0
220,1250002008040,登記記録の閉鎖等,0,2023-08-08,2023-07-31,有限会社アプライズ,,有限会社,山口県,下関市,長府満珠町４８番４号,,35,201,7520947,,,2023-07-31,清算の結了等,,,2015-10-05,1,,,,,アプライズ,0
262,1390001010207,登記記録の閉鎖等,0,2023-08-08,2023-08-02,株式会社和装センター,,株式会社,山形県,米沢市,城南２丁目４番１７号,,06,202,9920038,,,2023-08-02,清算の結了等,,,2015-10-05,1,,,,,ワソウセンター,0
267,1430001022503,登記記録の閉鎖等,0,2023-08-08,2023-07-21,株式会社フィール,,株式会社,北海道,札幌市豊平区,平岸四条９丁目７番２０号,,01,105,0620934,,,2023-07-21,清算の結了等,,,2015-10-05,1,,,,,フィール,0
268,1430001077555,登記記録の閉鎖等,0,2023-08-08,2023-07-18,北星ウッドテック株式会社,,株式会社,北海道,札幌市南区,藤野一条８丁目３番３号,,01,106,0612281,,,2023-07-18,清算の結了等,,,2018-10-16,1,,,,,ホクセイウッドテック,0
285,1490002004635,登記記録の閉鎖等,0,2023-08-08,2023-08-04,有限会社平和瓦,,有限会社,高知県,高知市,介良乙３０１５番地３,,39,201,7815106,,,2023-08-04,清算の結了等,,,2015-10-05,1,,,,,ヘイワガワラ,0
297,2010005013804,登記記録の閉鎖等,0,2023-08-08,2023-07-26,一般社団法人食感性コミュニケーションズ,,その他の設立登記法人,東京都,文京区,千駄木４丁目２４番７号トーアマンション１階,,13,105,1130022,,,2023-07-26,清算の結了等,,,2015-10-05,1,,,,,ショクカンセイコミュニケーションズ,0
325,2011002002642,登記記録の閉鎖等,0,2023-08-08,2023-08-03,有限会社神山ハイム,,有限会社,東京都,渋谷区,神山町２４番９号,,13,113,1500047,,,2023-08-03,清算の結了等,,,2015-10-05,1,,,,,カミヤマハイム,0
326,2011003012764,登記記録の閉鎖等,0,2023-08-08,2023-08-02,株式会社ユニコーン,,株式会社,東京都,渋谷区,代々木３丁目３７番５号,,13,113,1510053,,,2023-08-02,合併による解散等,1011001072869,令和５年８月１日東京都新宿区百人町一丁目１１番２５号株式会社Ｇ．Ｐホールディング（1011001072869）に合併し解散,2021-05-21,1,,,,,ユニコーン,0
332,2011102021484,登記記録の閉鎖等,0,2023-08-08,2023-08-04,有限会社バンテックコーポレーション,,有限会社,東京都,新宿区,新宿６丁目７番１８号新井ビル２階Ｂ号,,13,104,1600022,,,2023-08-04,清算の結了等,,,2015-10-05,1,,,,,バンテックコーポレーション,0
354,2020002106700,登記記録の閉鎖等,0,2023-08-08,2023-07-26,有限会社エイユー,,有限会社,神奈川県,横浜市鶴見区,尻手１丁目４番１９号,,14,101,2300003,,,2023-07-26,清算の結了等,,,2015-10-05,1,,,,,エイユー,0
361,2021002056290,登記記録の閉鎖等,0,2023-08-08,2023-07-31,有限会社中井コーティング,,有限会社,神奈川県,足柄上郡中井町,久所３１７番地,,14,361,2590142,,,2023-07-31,清算の結了等,,,2015-10-05,1,,,,,ナカイコーティング,0
371,2040001075374,登記記録の閉鎖等,0,2023-08-08,2023-07-12,株式会社成幸,,株式会社,千葉県,いすみ市,国府台８４７番地,,12,238,2980112,,,2023-07-12,清算の結了等,,,2015-10-05,1,,,,,セイコウ,0
381,2050002019973,登記記録の閉鎖等,0,2023-08-08,2023-08-02,滝本運送有限会社,,有限会社,茨城県,坂東市,長谷１８４４番地の４,,08,228,3060642,,,2023-08-02,清算の結了等,,,2015-10-05,1,,,,,タキモトウンソウ,0
382,2050002032803,登記記録の閉鎖等,0,2023-08-08,2023-08-02,有限会社マーカーズスタイル,,有限会社,茨城県,日立市,金沢町２丁目２８番６号,,08,202,3160015,,,2023-08-02,清算の結了等,,,2015-10-05,1,,,,,マーカーズスタイル,0
390,2080001002250,登記記録の閉鎖等,0,2023-08-08,2023-08-04,株式会社杉山鶏卵,,株式会社,静岡県,静岡市葵区,銭座町５５番地,,22,101,4200842,,,2023-08-04,清算の結了等,,,2015-10-05,1,,,,,スギヤマケイラン,0
393,2080101006119,登記記録の閉鎖等,0,2023-08-08,2023-08-03,株式会社平田屋,,株式会社,静岡県,三島市,平成台７番地,,22,206,4110042,,,2023-08-03,合併による解散等,4180001106840,令和５年７月３１日名古屋市中区栄二丁目４番１８号岡谷鋼機ビルディング１階株式会社オールハーツ・カンパニー（4180001106840）に合併し解散,2015-10-05,1,,,,,ヒラタヤ,0
407,2110002029702,登記記録の閉鎖等,0,2023-08-08,2023-07-28,有限会社今井電機,,有限会社,新潟県,長岡市,朝日３６番地子,,15,202,9495412,,,2023-07-28,清算の結了等,,,2015-10-05,1,,,,,イマイデンキ,0
410,2120001205443,登記記録の閉鎖等,0,2023-08-08,2023-08-04,株式会社プラミング,,株式会社,大阪府,大阪市西区,靱本町１丁目１８番２２号,,27,106,5500004,,,2023-08-04,合併による解散等,3180002051764,令和５年８月１日愛知県北名古屋市井瀬木高畑１６２番地株式会社熊澤工業（3180002051764）に合併し解散,2017-05-10,1,,,,,プラミング,0
431,2140001076404,登記記録の閉鎖等,0,2023-08-08,2023-08-01,歯車協同熱処理工業株式会社,,株式会社,兵庫県,加西市,下宮木町７５０番地の１,,28,220,6752105,,,2023-08-01,清算の結了等,,,2015-10-05,1,,,,,ハグルマキョウドウネツショリコウギョウ,0
445,2160002010517,登記記録の閉鎖等,0,2023-08-08,2023-08-04,有限会社きよし堂薬局,,有限会社,滋賀県,近江八幡市,鷹飼町５４７番地の２,,25,204,5230891,,,2023-08-04,清算の結了等,,,2015-10-05,1,,,,,キヨシドウヤッキョク,0
466,2190002009738,登記記録の閉鎖等,0,2023-08-08,2023-07-25,有限会社丸天産業,,有限会社,三重県,伊勢市,楠部町乙９９番地,,24,203,5160014,,,2023-07-25,清算の結了等,,,2015-10-05,1,,,,,マルテンサンギョウ,0
471,2200002024124,登記記録の閉鎖等,0,2023-08-08,2023-08-02,有限会社山久,,有限会社,岐阜県,中津川市,加子母４３３番地,,21,206,5080421,,,2023-08-02,清算の結了等,,,2015-10-05,1,,,,,ヤマヒサ,0
473,2200002027309,登記記録の閉鎖等,0,2023-08-08,2023-08-02,有限会社呑や,,有限会社,岐阜県,下呂市,森１２２５番地の２,,21,220,5092202,,,2023-08-02,清算の結了等,,,2015-10-05,1,,,,,ノミヤ,0
487,2270002002404,登記記録の閉鎖等,0,2023-08-08,2023-07-28,岩美清掃有限会社,,有限会社,鳥取県,岩美郡岩美町,大字高山６２番地１,,31,302,6810061,,,2023-07-28,清算の結了等,,,2015-10-05,1,,,,,イワミセイソウ,0
508,2340002004962,登記記録の閉鎖等,0,2023-08-08,2023-08-02,有限会社秀作,,有限会社,鹿児島県,鹿児島市,下竜尾町１４番２号,,46,201,8920852,,,2023-08-02,清算の結了等,,,2015-10-05,1,,,,,シュウサク,0
528,2400502000380,登記記録の閉鎖等,0,2023-08-08,2023-07-18,有限会社新城電機工業所,,有限会社,岩手県,一関市,山目字館６７番地６２,,03,209,0210061,,,2023-07-18,清算の結了等,,,2015-10-05,1,,,,,シンジョウデンキコウギョウショ,0
539,2460302004592,登記記録の閉鎖等,0,2023-08-08,2023-08-04,有限会社ヤマイチ造船所,,有限会社,北海道,網走市,駒場南７丁目９番８号,,01,211,0930035,,,2023-08-04,清算の結了等,,,2015-10-05,1,,,,,ヤマイチゾウセンジョ,0
555,3010001107419,登記記録の閉鎖等,0,2023-08-08,2023-07-28,株式会社スクエアクリエイト,,株式会社,東京都,千代田区,神田岩本町１番地,,13,101,1010033,,,2023-07-28,清算の結了等,,,2015-10-05,1,,,,,スクエアクリエイト,0
558,3010001146458,登記記録の閉鎖等,0,2023-08-08,2023-07-31,株式会社オージーダブリュー,,株式会社,東京都,中央区,銀座７丁目１３番５号,,13,102,1040061,,,2023-07-31,清算の結了等,,,2015-10-05,1,,,,,オージーダブリュー,0
585,3010401105237,登記記録の閉鎖等,0,2023-08-08,2023-07-26,芝浦構造計画株式会社,,株式会社,東京都,大田区,西馬込２丁目１９番１７号,,13,111,1430026,,,2023-07-26,清算の結了等,,,2015-10-05,1,,,,,シバウラコウゾウケイカク,0
586,3010401108594,登記記録の閉鎖等,0,2023-08-08,2023-07-28,トリロジー・ジャパン株式会社,,株式会社,東京都,千代田区,霞が関３丁目２番５号霞が関ビル４階隼あすか法律事務所,,13,101,1000013,,,2023-07-28,清算の結了等,,,2015-10-05,1,,,,,トリロジージャパン,0
663,3021002069928,登記記録の閉鎖等,0,2023-08-08,2023-07-14,有限会社ミナガワメディカル,,有限会社,神奈川県,横須賀市,船越町４丁目５２番地,,14,201,2370076,,,2023-07-14,清算の結了等,,,2015-10-05,1,,,,,ミナガワメディカル,0
676,3030002018175,登記記録の閉鎖等,0,2023-08-08,2023-07-13,有限会社ルブティックジャパン,,有限会社,埼玉県,さいたま市中央区,本町東２丁目８番１号,,11,105,3380003,,,2023-07-13,清算の結了等,,,2015-10-05,1,,,,,ルブティックジャパン,0
684,3040002064210,登記記録の閉鎖等,0,2023-08-08,2023-07-13,有限会社熱システム,,有限会社,千葉県,佐倉市,山崎１８０番地１佐倉グリーンコープ２１０号,,12,212,2850011,,,2023-07-13,清算の結了等,,,2015-10-05,1,,,,,,0
704,3070001024303,登記記録の閉鎖等,0,2023-08-08,2023-08-03,株式会社寿々島,,株式会社,群馬県,前橋市,紅雲町１丁目１５番２１号,,10,201,3710025,,,2023-08-03,清算の結了等,,,2015-10-05,1,,,,,ジュジュジマ,0
708,3080001001383,登記記録の閉鎖等,0,2023-08-08,2023-08-01,株式会社現代包装,,株式会社,静岡県,静岡市駿河区,小鹿３丁目１番５８号,,22,102,4228021,,,2023-08-01,合併による解散等,4080001003255,令和５年８月１日静岡市駿河区小鹿三丁目１番５８号株式会社タカラ・エムシー（4080001003255）に合併し解散,2015-10-05,1,,,,,ゲンダイホウソウ,0
714,3080403003201,登記記録の閉鎖等,0,2023-08-08,2023-08-04,合同会社青い鳥牧場,,合同会社,静岡県,磐田市,大原１８７番地,,22,211,4371211,,,2023-08-04,清算の結了等,,,2015-12-04,1,,,,,アオイトリボクジョウ,0
751,3120905004519,登記記録の閉鎖等,0,2023-08-08,2023-08-02,特定非営利活動法人日本国際交流協会,,その他の設立登記法人,兵庫県,西宮市,甲陽園本庄町５番１６号,,28,204,6620015,,,2023-08-02,清算の結了等,,,2015-10-05,1,,,,,ニホンコクサイコウリュウキョウカイ,0
771,3150002003553,登記記録の閉鎖等,0,2023-08-08,2023-08-03,有限会社ライズ建築事務所,,有限会社,奈良県,奈良市,西九条町３丁目１１番地の１３,,29,201,6308453,,,2023-08-03,清算の結了等,,,2015-10-05,1,,,,,,0
780,3180301000050,登記記録の閉鎖等,0,2023-08-08,2023-08-01,株式会社アイチオフリン,,株式会社,愛知県,岡崎市,大平町字杉本１番地１,,23,202,4440007,,,2023-08-01,合併による解散等,5180301000049,令和５年８月１日愛知県岡崎市大平町字杉本１番地１あいち印刷株式会社（5180301000049）に合併し解散,2015-10-05,1,,,,,アイチオフリン,0
787,3180302003614,登記記録の閉鎖等,0,2023-08-08,2023-07-28,有限会社安形板金工作所,,有限会社,愛知県,岡崎市,樫山町字茱＿蔓４１番地１,00074885,23,202,4443622,,,2023-07-28,清算の結了等,,,2015-10-05,1,,,,,アガタバンキンコウサクショ,0
803,3240002033070,登記記録の閉鎖等,0,2023-08-08,2023-08-03,有限会社新東亜鈩製作所,,有限会社,広島県,呉市,仁方桟橋通１５１１番地,,34,202,7370154,,,2023-08-03,清算の結了等,,,2015-10-05,1,,,,,シントウアヤスリセイサクショ,0
808,3280001002452,登記記録の閉鎖等,0,2023-08-08,2023-08-02,株式会社堀口商店,,株式会社,島根県,安来市,安来町１５８９番地,,32,206,6920011,,,2023-08-02,清算の結了等,,,2015-10-05,1,,,,,ホリグチショウテン,0
809,3280002011700,登記記録の閉鎖等,0,2023-08-08,2023-07-31,有限会社嵐谷石油,,有限会社,島根県,仁多郡奥出雲町,大呂４４８番地５,,32,343,6991802,,,2023-07-31,清算の結了等,,,2015-10-05,1,,,,,アラシダニセキユ,0
846,3380001030864,登記記録の閉鎖等,0,2023-08-08,2023-08-01,株式会社駒屋,,株式会社,福島県,福島市,御山字三本松７番地の１,,07,201,9608252,,,2023-08-01,清算の結了等,,,2020-04-15,1,,,,,コマヤ,0
856,3430001022484,登記記録の閉鎖等,0,2023-08-08,2023-07-19,北海道ニチベイ株式会社,,株式会社,北海道,札幌市白石区,中央三条６丁目３２番地,,01,104,0030013,,,2023-07-19,清算の結了等,,,2015-10-05,1,,,,,ホッカイドウニチベイ,0
892,4010401054887,登記記録の閉鎖等,0,2023-08-08,2023-07-11,春陽汽船株式会社,,株式会社,東京都,港区,西新橋１丁目１０番２号,,13,103,1050003,,,2023-07-11,合併による解散等,1010401043323,令和５年７月１日東京都港区西新橋一丁目１０番２号川近シップマネージメント株式会社（1010401043323）に合併し解散,2015-10-05,1,,,,,シュンヨウキセン,0
909,4010601060710,登記記録の閉鎖等,0,2023-08-08,2023-07-12,株式会社ＴＫＳ,,株式会社,埼玉県,入間郡三芳町,大字藤久保２４６－４,,11,324,3540041,,,2023-07-12,清算の結了等,,,2022-02-22,1,,,,,ティーケーエス,0
911,4010701035224,登記記録の閉鎖等,0,2023-08-08,2023-07-25,株式会社Ａｒｃｒｅｖｅ　Ｊａｐａｎ,,株式会社,京都府,京都市南区,上鳥羽北花名町９番地,,26,107,6018127,,,2023-07-25,清算の結了等,,,2018-01-22,1,,,,,アークレーヴジャパン,0
922,4011001137702,登記記録の閉鎖等,0,2023-08-08,2023-08-02,株式会社Ｌｏｏｋ　Ａｇａｉｎ,,株式会社,東京都,渋谷区,桜丘町４番１５号,,13,113,1500031,,,2023-08-02,清算の結了等,,,2020-12-25,1,,,,,ルックアゲイン,0
938,4011702007039,登記記録の閉鎖等,0,2023-08-08,2023-08-07,有限会社丹工務店,,有限会社,東京都,江戸川区,鹿骨４丁目１１番１１号,,13,123,1330073,,,2023-08-07,清算の結了等,,,2015-10-05,1,,,,,タンコウムテン,0
940,4011801007162,登記記録の閉鎖等,0,2023-08-08,2023-08-04,キタカク彫刻株式会社,,株式会社,東京都,足立区,梅島３丁目１３番８号,,13,121,1210816,,,2023-08-04,清算の結了等,,,2015-10-05,1,,,,,キタカクチョウコク,0
948,4013202007056,登記記録の閉鎖等,0,2023-08-08,2023-08-02,有限会社ルチカ,,有限会社,東京都,目黒区,鷹番３丁目１９番２号,,13,110,1520004,,,2023-08-02,清算の結了等,,,2015-10-05,1,,,,,ルチカ,0
957,4020001146282,登記記録の閉鎖等,0,2023-08-08,2023-07-25,横浜富士商事株式会社,,株式会社,神奈川県,横浜市中区,桜木町１丁目１０１番地１クロスゲート７階,,14,104,2310062,,,2023-07-25,清算の結了等,,,2022-05-09,1,,,,,ヨコハマフジショウジ,0
964,4020003020163,登記記録の閉鎖等,0,2023-08-08,2023-07-26,スマータックトレイディング合同会社,,合同会社,神奈川県,横浜市港北区,鳥山町４０８番地の４,,14,109,2220035,,,2023-07-26,清算の結了等,,,2021-07-12,1,,,,,スマータックトレイディング,0
974,4021001068698,登記記録の閉鎖等,0,2023-08-08,2023-08-02,株式会社ＢＩＮＷＡＮ,,株式会社,東京都,目黒区,大橋２丁目４－８ＮＫ渋谷コータース２０１,,13,110,1530044,,,2023-08-02,清算の結了等,,,2019-12-03,1,,,,,ビンワン,0
976,4021002002821,登記記録の閉鎖等,0,2023-08-08,2023-08-02,有限会社鈴木圧送,,有限会社,神奈川県,藤沢市,片瀬２丁目２１番２１号,,14,205,2510032,,,2023-08-02,清算の結了等,,,2015-10-05,1,,,,,スズキアッソウ,0
980,4030001096683,登記記録の閉鎖等,0,2023-08-08,2023-07-14,株式会社建匠,,株式会社,埼玉県,川口市,大字木曽呂９９６番地の１,,11,203,3330831,,,2023-07-14,清算の結了等,,,2015-10-05,1,,,,,ケンショウ,0
990,4030003012473,登記記録の閉鎖等,0,2023-08-08,2023-07-12,合同会社ＳＥＩＷＡ,,合同会社,埼玉県,和光市,南１丁目２１番８２－６０９号アーベイン和光南,,11,229,3510104,,,2023-07-12,清算の結了等,,,2018-10-01,1,,,,,セイワ,0
1003,4040002093638,登記記録の閉鎖等,0,2023-08-08,2023-07-14,有限会社西村,,有限会社,千葉県,柏市,南柏中央１－４君塚ビル２０１号,,12,217,2770075,,,2023-07-14,清算の結了等,,,2015-10-05,1,,,,,ニシムラ,0
1005,4040003012976,登記記録の閉鎖等,0,2023-08-08,2023-07-14,合同会社未来Ｒｅ．デザイン,,合同会社,千葉県,千葉市緑区,あすみが丘４丁目３９番地７－６０４,,12,105,2670066,,,2023-07-14,清算の結了等,,,2019-02-26,1,,,,,ミライリデザイン,0
1013,4060003004047,登記記録の閉鎖等,0,2023-08-08,2023-07-24,合同会社ＭＲＹ,,合同会社,栃木県,日光市,下鉢石町９５２－３,,09,206,3211403,,,2023-07-24,清算の結了等,,,2022-04-20,1,,,,,エムアールワイ,0
1016,4060005009416,登記記録の閉鎖等,0,2023-08-08,2023-07-25,農事組合法人さくら市エリアンサス生産組合,,その他の設立登記法人,栃木県,さくら市,喜連川１０９５番地４,,09,214,3291412,,,2023-07-25,清算の結了等,,,2018-02-09,1,,,,,サクラシエリアンサス,0
1023,4070002004781,登記記録の閉鎖等,0,2023-08-08,2023-07-31,有限会社ポーレン,,有限会社,群馬県,前橋市,広瀬町２丁目２番地の１５,,10,201,3710812,,,2023-07-31,清算の結了等,,,2015-10-05,1,,,,,ポーレン,0
1027,4080102004565,登記記録の閉鎖等,0,2023-08-08,2023-08-04,有限会社山川商店,,有限会社,静岡県,裾野市,須山５８４番地の６,,22,220,4101231,,,2023-08-04,清算の結了等,,,2015-10-05,1,,,,,ヤマカワショウテン,0
1058,4140003017081,登記記録の閉鎖等,0,2023-08-08,2023-08-03,岩元商い合同会社,,合同会社,兵庫県,姫路市,香寺町中仁野７０－１３,,28,201,6792143,,,2023-08-03,清算の結了等,,,2021-12-09,1,,,,,イワモトアキナイ,0
1092,4230002012990,登記記録の閉鎖等,0,2023-08-08,2023-08-03,有限会社テクノ・サービス,,有限会社,富山県,氷見市,中央町１５番６号,,16,205,9350011,,,2023-08-03,清算の結了等,,,2015-10-05,1,,,,,テクノサービス,0
1139,4360001028843,登記記録の閉鎖等,0,2023-08-08,2023-08-02,株式会社ＡＤＤ　ＣＢＤ,,株式会社,沖縄県,那覇市,牧志３丁目２番１号,,47,201,9000013,,,2023-08-02,清算の結了等,,,2021-05-31,1,,,,,アドシービーディー,0
1146,4380002025516,登記記録の閉鎖等,0,2023-08-08,2023-08-02,有限会社花見,,有限会社,福島県,いわき市,小名浜字船引場１３番地の７,,07,204,9718101,,,2023-08-02,清算の結了等,,,2015-10-05,1,,,,,ハナミ,0
1149,4380002034252,登記記録の閉鎖等,0,2023-08-08,2023-08-02,有限会社渡部タンス店,,有限会社,福島県,河沼郡会津坂下町,字市中二番甲３６３７番地１１,,07,421,9696543,,,2023-08-02,清算の結了等,,,2015-10-05,1,,,,,ワタナベタンステン,0
1150,4390001010906,登記記録の閉鎖等,0,2023-08-08,2023-07-28,株式会社アトリエ・モンスター,,株式会社,山形県,米沢市,万世町梓山５５１９番地の３２,,06,202,9921122,,,2023-07-28,清算の結了等,,,2015-10-05,1,,,,,アトリエモンスター,0
1154,4420001011405,登記記録の閉鎖等,0,2023-08-08,2023-07-27,柏崎興業株式会社,,株式会社,青森県,十和田市,大字三本木字上平１５９番地１１,,02,206,0340001,,,2023-07-27,清算の結了等,,,2015-10-05,1,,,,,カシワザキコウギョウ,0
1169,4440002005833,登記記録の閉鎖等,0,2023-08-08,2023-08-02,有限会社ハニカム,,有限会社,北海道,函館市,港町１丁目１９番２１号,,01,202,0410821,,,2023-08-02,清算の結了等,,,2015-10-05,1,,,,,ハニカム,0
1185,5010001059591,登記記録の閉鎖等,0,2023-08-08,2023-07-28,株式会社薬事新報社,,株式会社,東京都,中央区,日本橋小伝馬町４番２号,,13,102,1030001,,,2023-07-28,清算の結了等,,,2015-10-05,1,,,,,ヤクジシンポウシャ,0
1204,5010403016678,登記記録の閉鎖等,0,2023-08-08,2023-07-31,合同会社ＴＡＫＵＭＩ　ＷＯＲＫＳ,,合同会社,東京都,世田谷区,経堂５丁目３５－１２,,13,112,1560052,,,2023-07-31,清算の結了等,,,2017-05-31,1,,,,,タクミワークス,0
1235,5011301024822,登記記録の閉鎖等,0,2023-08-08,2023-08-03,株式会社Ｒｅｎｔｅｅ,,株式会社,東京都,杉並区,方南２丁目１０番１４号,,13,115,1680062,,,2023-08-03,合併による解散等,3011101075836,令和５年７月２６日東京都新宿区西新宿七丁目２０番１６号株式会社世界地所（3011101075836）に合併し解散,2019-02-21,1,,,,,レンティー,0
1248,5011802013175,登記記録の閉鎖等,0,2023-08-08,2023-08-04,有限会社三京電機工業,,有限会社,東京都,足立区,辰沼２丁目７番１５号,,13,121,1210054,,,2023-08-04,清算の結了等,,,2015-10-05,1,,,,,サンキョウデンキコウギョウ,0
1274,5030001049269,登記記録の閉鎖等,0,2023-08-08,2023-07-13,株式会社長葭内装,,株式会社,埼玉県,志木市,中宗岡２丁目２１番３２号,,11,228,3530002,,,2023-07-13,清算の結了等,,,2015-10-05,1,,,,,ナガヨシナイソウ,0
1275,5030001054459,登記記録の閉鎖等,0,2023-08-08,2023-07-12,株式会社小鷹絲店,,株式会社,埼玉県,川越市,六軒町１丁目１１番地５,,11,201,3500041,,,2023-07-12,清算の結了等,,,2015-10-05,1,,,,,オダカイトテン,0
1276,5030001150596,登記記録の閉鎖等,0,2023-08-08,2023-07-03,愛得先端材料株式会社,,株式会社,埼玉県,越谷市,レイクタウン５丁目１２番地２－８３０,,11,222,3430828,,,2023-07-03,清算の結了等,,,2022-10-18,1,,,,,アイトクセンタンザイリョウ,0
1291,5040001103322,登記記録の閉鎖等,0,2023-08-08,2023-08-04,株式会社ＬＩＦＥ　ＳＴＹＬＥ,,株式会社,東京都,江戸川区,平井４丁目１１番９号三井ビル２階,,13,123,1320035,,,2023-08-04,清算の結了等,,,2018-01-29,1,,,,,ライフスタイル,0
1311,5070002018120,登記記録の閉鎖等,0,2023-08-08,2023-08-03,有限会社アグリバイオテック,,有限会社,群馬県,藤岡市,立石８４１番地８,,10,209,3750002,,,2023-08-03,清算の結了等,,,2015-10-05,1,,,,,アグリバイオテック,0
1324,5100003006194,登記記録の閉鎖等,0,2023-08-08,2023-08-01,ＬＡＲＣＥＬ合同会社,,合同会社,長野県,松本市,野溝西１丁目６－２９のみぞビル,,20,202,3990006,,,2023-08-01,清算の結了等,,,2021-08-04,1,,,,,ラーセル,0
1361,5140001094238,登記記録の閉鎖等,0,2023-08-08,2023-08-01,株式会社アップターン,,株式会社,兵庫県,姫路市,日出町３丁目７番地２姫路シティハイツ３０３,,28,201,6700942,,,2023-08-01,清算の結了等,,,2015-10-05,1,,,,,アップターン,0
1371,5150001010053,登記記録の閉鎖等,0,2023-08-08,2023-08-04,株式会社ＤＩＣＥ,,株式会社,奈良県,桜井市,大字大泉５６３番地の１,,29,206,6330076,,,2023-08-04,清算の結了等,,,2015-10-05,1,,,,,,0
1383,5180301012192,登記記録の閉鎖等,0,2023-08-08,2023-07-28,株式会社市埜設備,,株式会社,愛知県,岡崎市,牧平町字柿木田３９番地１,,23,202,4443624,,,2023-07-28,清算の結了等,,,2015-10-05,1,,,,,イチノセツビ,0
1398,5240001037657,登記記録の閉鎖等,0,2023-08-08,2023-08-03,株式会社福山鯉城学院,,株式会社,広島県,福山市,西深津町６丁目１番１９－１２号,,34,207,7210975,,,2023-08-03,清算の結了等,,,2015-10-05,1,,,,,フクヤマリジョウガクイン,0
1436,5300002009500,登記記録の閉鎖等,0,2023-08-08,2023-08-04,有限会社甘木ツーリスト,,有限会社,佐賀県,三養基郡基山町,けやき台４丁目１４番地４,,41,341,8410205,,,2023-08-04,清算の結了等,,,2015-10-05,1,,,,,アマギツーリスト,0
1444,5330001021214,登記記録の閉鎖等,0,2023-08-08,2023-08-01,株式会社うまかな・よかなホールディングス,,株式会社,熊本県,熊本市北区,植木町滴水６９番地２,,43,105,8610133,,,2023-08-01,合併による解散等,4330002019324,令和５年８月１日熊本市北区植木町滴水８８番地株式会社山田興業（4330002019324）に合併し解散,2015-10-05,1,,,,,ウマカナヨカナホールディングス,0
1460,5380002009261,登記記録の閉鎖等,0,2023-08-08,2023-08-03,有限会社コナン,,有限会社,福島県,郡山市,田村町細田字時内７２番地の１,,07,203,9631152,,,2023-08-03,清算の結了等,,,2015-10-05,1,,,,,コナン,0
1481,5430005002720,登記記録の閉鎖等,0,2023-08-08,2023-07-19,パシフィック札幌第一マンション管理組合法人,,その他の設立登記法人,北海道,札幌市中央区,南二条西１２丁目３２３番地１８,,01,101,0600062,,,2023-07-19,清算の結了等,,,2015-10-05,1,,,,,パシフィックサッポロダイイチマンション,0
1487,5460002001012,登記記録の閉鎖等,0,2023-08-08,2023-08-04,有限会社人力舎,,有限会社,北海道,釧路郡釧路町,中央７丁目１９番地,,01,661,0880606,,,2023-08-04,清算の結了等,,,2015-10-05,1,,,,,ジンリキシャ,0
1500,5490002002478,登記記録の閉鎖等,0,2023-08-08,2023-08-04,ジョインハンズ有限会社,,有限会社,高知県,高知市,桜井町１丁目４番１５号,,39,201,7800821,,,2023-08-04,清算の結了等,,,2015-10-05,1,,,,,ジョインハンズ,0
1521,6010001203405,登記記録の閉鎖等,0,2023-08-08,2023-08-01,株式会社ＯＮＯＤＥＲＡヘルスケアサービス,,株式会社,東京都,千代田区,大手町１丁目１番３号,,13,101,1000004,,,2023-08-01,合併による解散等,9010001222939,令和５年８月１日東京都千代田区大手町一丁目１番３号株式会社ＯＮＯＤＥＲＡメディカルテクノロジー（9010001222939）に合併し解散,2019-08-21,1,,,,,オノデラヘルスケアサービス,0
1528,6010002007425,登記記録の閉鎖等,0,2023-08-08,2023-07-28,有限会社飯田ビル,,有限会社,東京都,千代田区,飯田橋３丁目７番７号,,13,101,1020072,,,2023-07-28,清算の結了等,,,2015-10-05,1,,,,,イイダビル,0
1559,6010801000836,登記記録の閉鎖等,0,2023-08-08,2023-08-01,株式会社池持,,株式会社,東京都,大田区,東糀谷３丁目３番２４号,,13,111,1440033,,,2023-08-01,合併による解散等,9010801006954,令和５年８月１日東京都大田区東糀谷三丁目３番２４号タカコウ株式会社（9010801006954）に合併し解散,2015-10-05,1,,,,,イケモチ,0
1570,6011001148532,登記記録の閉鎖等,0,2023-08-08,2023-08-02,Ｔｈｉｒｔｙ　ｎｉｎｅ株式会社,,株式会社,東京都,渋谷区,恵比寿西１丁目２番１号,,13,113,1500021,,,2023-08-02,清算の結了等,,,2022-07-07,1,,,,,サーティナイン,0
1578,6011101024732,登記記録の閉鎖等,0,2023-08-08,2023-08-01,株式会社ソワン・エフ,,株式会社,東京都,新宿区,西新宿６丁目１４番１号新宿グリーンタワービル,,13,104,1600023,,,2023-08-01,合併による解散等,6120001047089,令和５年８月１日東京都新宿区西新宿六丁目１４－１新宿グリーンタワービル１５階株式会社フヨウサキナ（6120001047089）に合併し解散,2015-10-05,1,,,,,ソワンエフ,0
1593,6011705000294,登記記録の閉鎖等,0,2023-08-08,2023-08-04,親永ばね協同組合,,その他の設立登記法人,東京都,江戸川区,鹿骨１丁目１０番６号,,13,123,1330073,,,2023-08-04,清算の結了等,,,2015-10-05,1,,,,,,0
1605,6020001048725,登記記録の閉鎖等,0,2023-08-08,2023-07-26,株式会社秋元設計,,株式会社,神奈川県,横浜市緑区,上山２丁目２２番３４号,,14,113,2260012,,,2023-07-26,清算の結了等,,,2015-10-05,1,,,,,アキモトセッケイ,0
1651,6100002017803,登記記録の閉鎖等,0,2023-08-08,2023-08-02,有限会社小川プラスチック,,有限会社,長野県,中野市,大字岩船１番地,,20,211,3830041,,,2023-08-02,清算の結了等,,,2015-10-05,1,,,,,オガワプラスチック,0
1654,6110002022026,登記記録の閉鎖等,0,2023-08-08,2023-07-31,有限会社鈴木電器,,有限会社,新潟県,岩船郡関川村,大字下関６３９番地１,,15,581,9593265,,,2023-07-31,清算の結了等,,,2015-10-05,1,,,,,スズキデンキ,0
1699,6140005023464,登記記録の閉鎖等,0,2023-08-08,2023-08-03,特定非営利活動法人子育て応援隊スマイルキッズ,,その他の設立登記法人,兵庫県,姫路市,勝原区宮田６４８番地,,28,201,6711213,,,2023-08-03,清算の結了等,,,2017-04-05,1,,,,,コソダテオウエンタイスマイルキッズ,0
1700,6150005005908,登記記録の閉鎖等,0,2023-08-08,2023-08-02,倭印刷協同組合,,その他の設立登記法人,奈良県,葛城市,柿本６３番地１,,29,211,6392111,,,2023-08-02,清算の結了等,,,2015-10-05,1,,,,,ヤマトインサツ,0
1704,6160005000164,登記記録の閉鎖等,0,2023-08-08,2023-08-04,一般財団法人滋賀県教育会館,,その他の設立登記法人,滋賀県,大津市,梅林１丁目４番１５号,,25,201,5200051,,,2023-08-04,清算の結了等,,,2015-10-05,1,,,,,シガケンキョウイクカイカン,0
1709,6180002088317,登記記録の閉鎖等,0,2023-08-08,2023-08-04,有限会社知多コンタクト,,有限会社,愛知県,知多市,八幡字蔵池６６番地の６,,23,224,4780001,,,2023-08-04,清算の結了等,,,2015-10-05,1,,,,,チタコンタクト,0
1720,6190001020213,登記記録の閉鎖等,0,2023-08-08,2023-07-24,ＮａＮａ・コミュニケーション株式会社,,株式会社,三重県,名張市,百合が丘東９番町２５４番地,,24,208,5180479,,,2023-07-24,清算の結了等,,,2015-10-05,1,,,,,ナナコミュニケーション,0
1723,6200001024179,登記記録の閉鎖等,0,2023-08-08,2023-07-06,株式会社丹羽久,,株式会社,岐阜県,恵那市,長島町中野６０４番地の１,,21,210,5097205,,,2023-07-06,合併による解散等,2010401138832,令和５年５月３１日東京都港区愛宕二丁目５番１号愛宕グリーンヒルズＭＯＲＩタワー株式会社ＮＳＳＫ　Ｃ－Ｈ　Ｄ（2010401138832）に合併し解散,2015-10-05,1,,,,,ニワキュウ,0
1725,6200002019186,登記記録の閉鎖等,0,2023-08-08,2023-08-02,美濃創芸有限会社,,有限会社,岐阜県,美濃市,蕨生６７７番地,,21,207,5013788,,,2023-08-02,清算の結了等,,,2015-10-05,1,,,,,ミノソウゲイ,0
1733,6240001031345,登記記録の閉鎖等,0,2023-08-08,2023-08-03,塚本繊維株式会社,,株式会社,広島県,福山市,芦田町大字福田６０２番地の３,00000389,34,207,7201264,,,2023-08-03,清算の結了等,,,2015-10-05,1,,,,,ツカモトセンイ,0
1734,6240001033201,登記記録の閉鎖等,0,2023-08-08,2023-08-02,株式会社トータルパーツ,,株式会社,広島県,福山市,津之郷町大字津之郷１０４２番地の２,,34,207,7200841,,,2023-08-02,清算の結了等,,,2015-10-05,1,,,,,トータルパーツ,0
1739,6240002038298,登記記録の閉鎖等,0,2023-08-08,2023-08-02,有限会社エイチアンドエイサナップ,,有限会社,広島県,廿日市市,地御前１丁目１５番１３号,,34,213,7380042,,,2023-08-02,清算の結了等,,,2015-10-05,1,,,,,エイチアンドエイサナップ,0
1746,6250002010578,登記記録の閉鎖等,0,2023-08-08,2023-07-27,有限会社久谷建築,,有限会社,山口県,下関市,清末鞍馬３丁目１番２６号,,35,201,7501153,,,2023-07-27,清算の結了等,,,2015-10-05,1,,,,,,0
1812,6450001005559,登記記録の閉鎖等,0,2023-08-08,2023-07-14,クオーツ株式会社,,株式会社,北海道,旭川市,東光九条７丁目４番１０号,,01,204,0788349,,,2023-07-14,清算の結了等,,,2015-10-05,1,,,,,クオーツ,0
1827,7010001178679,登記記録の閉鎖等,0,2023-08-08,2023-07-31,株式会社ＺＥＮ,,株式会社,東京都,千代田区,麹町１丁目１０番地１,,13,101,1020083,,,2023-07-31,清算の結了等,,,2016-09-30,1,,,,,ゼン,0
1833,7010005023096,登記記録の閉鎖等,0,2023-08-08,2023-08-01,一般社団法人相続オールインワン,,その他の設立登記法人,東京都,中央区,日本橋蛎殻町１丁目５番２号,,13,102,1030014,,,2023-08-01,清算の結了等,,,2015-10-05,1,,,,,ソウゾクオールインワン,0
1835,7010102004957,登記記録の閉鎖等,0,2023-08-08,2023-08-07,有限会社中川整骨院,,有限会社,東京都,八王子市,絹ケ丘２丁目４８番４号,,13,201,1920912,,,2023-08-07,清算の結了等,,,2015-10-05,1,,,,,,0
1875,7011601003821,登記記録の閉鎖等,0,2023-08-08,2023-08-03,高橋自動車株式会社,00056087,株式会社,東京都,練馬区,豊玉中２丁目８番５号,,13,120,1760013,,,2023-08-03,清算の結了等,,,2015-10-05,1,,,,,タカハシジドウシャ,0
1884,7020001024551,登記記録の閉鎖等,0,2023-08-08,2023-07-26,三ツ沢科学株式会社,,株式会社,神奈川県,横浜市神奈川区,三ツ沢中町６番１２号,,14,102,2210851,,,2023-07-26,清算の結了等,,,2015-10-05,1,,,,,ミツザワカガク,0
1893,7020005013385,登記記録の閉鎖等,0,2023-08-08,2023-07-25,一般社団法人ＷＩＳＴＡ　Ｊａｐａｎ,,その他の設立登記法人,神奈川県,横浜市西区,みなとみらい３丁目６番４号みなとみらいビジネススクエア１０階,,14,103,2200012,,,2023-07-25,清算の結了等,,,2017-11-29,1,,,,,ウィスタジャパン,0
1905,7030001091582,登記記録の閉鎖等,0,2023-08-08,2023-07-13,株式会社フェニックスコンピューター,,株式会社,埼玉県,秩父市,寺尾１５３０番地,,11,207,3680056,,,2023-07-13,清算の結了等,,,2015-10-05,1,,,,,フェニックスコンピューター,0
1938,7070002005752,登記記録の閉鎖等,0,2023-08-08,2023-08-03,有限会社吉田石油自販,,有限会社,群馬県,前橋市,富田町８０４番地の３,,10,201,3792161,,,2023-08-03,清算の結了等,,,2015-10-05,1,,,,,ヨシダセキユジハン,0
1948,7100003006465,登記記録の閉鎖等,0,2023-08-08,2023-07-31,合同会社ｆａｒｍＺＥＲＱ,,合同会社,長野県,中野市,大字西条８９５番地７,,20,211,3830042,,,2023-07-31,清算の結了等,,,2022-03-17,1,,,,,ファームゼルク,0
1954,7120001003594,登記記録の閉鎖等,0,2023-08-08,2023-08-07,新和木材株式会社,,株式会社,大阪府,大阪市西成区,岸里東２丁目１番９号,,27,122,5570042,,,2023-08-07,清算の結了等,,,2015-10-05,1,,,,,シンワモクザイ,0
1955,7120001112858,登記記録の閉鎖等,0,2023-08-08,2023-08-02,三協プラス工業株式会社,,株式会社,大阪府,大阪市淀川区,西中島１丁目１１番１６号,,27,123,5320011,,,2023-08-02,清算の結了等,,,2015-10-05,1,,,,,サンキョウプラス,0
1971,7120901043054,登記記録の閉鎖等,0,2023-08-08,2023-08-01,二次資源建設株式会社,,株式会社,大阪府,大阪市中央区,瓦町４丁目３－７ＶＯＲＴ御堂筋本町５０３号,,27,128,5410048,,,2023-08-01,合併による解散等,6120001244017,令和５年８月１日大阪市中央区瓦町４－３－７ＶＯＲＴ御堂筋本町５０３号二次資源ホールディングス株式会社（6120001244017）に合併し解散,2020-08-05,1,,,,,ニジシゲンケンセツ,0
1981,7130001069296,登記記録の閉鎖等,0,2023-08-08,2023-07-21,ＧＥＮＩＵＳ　ＰＡＲＴＮＥＲＳ株式会社,,株式会社,京都府,綴喜郡井手町,大字井手小字段ノ下１番地の４,,26,343,6100302,,,2023-07-21,清算の結了等,,,2021-05-14,1,,,,,ジーニアスパートナーズ,0
2006,7160001015990,登記記録の閉鎖等,0,2023-08-08,2023-08-04,株式会社ＹＫテクノシステム,,株式会社,滋賀県,守山市,勝部２丁目１番２２－３号,,25,207,5240041,,,2023-08-04,清算の結了等,,,2015-10-05,1,,,,,ワイケーテクノシステム,0
2007,7160001016130,登記記録の閉鎖等,0,2023-08-08,2023-08-04,株式会社ラポール,,株式会社,滋賀県,守山市,守山６丁目１－５,,25,207,5240022,,,2023-08-04,清算の結了等,,,2015-10-05,1,,,,,ラポール,0
2008,7160001018275,登記記録の閉鎖等,0,2023-08-08,2023-08-03,株式会社ＫＳパートナーズ,,株式会社,滋賀県,大津市,浜大津１丁目２番４号生美屋ビル２０４号室,,25,201,5200047,,,2023-08-03,清算の結了等,,,2015-10-05,1,,,,,ケーエスパートナーズ,0
2038,7190005000053,登記記録の閉鎖等,0,2023-08-08,2023-07-31,高野団地管理組合法人,,その他の設立登記法人,三重県,津市,一志町高野１６０番地の１９９,,24,201,5152504,,,2023-07-31,清算の結了等,,,2015-10-05,1,,,,,タカノ,0
2042,7200002004344,登記記録の閉鎖等,0,2023-08-08,2023-08-04,有限会社松久,,有限会社,岐阜県,岐阜市,八代２丁目１０番１５号,,21,201,5020812,,,2023-08-04,清算の結了等,,,2015-10-05,1,,,,,マツヒサ,0
2045,7220001022320,登記記録の閉鎖等,0,2023-08-08,2023-08-03,株式会社ダンボールワン,,株式会社,石川県,金沢市,鞍月４丁目１３３番地,,17,201,9208203,,,2023-08-03,合併による解散等,9010401089631,令和５年８月１日東京都品川区上大崎二丁目２４番９号ラクスル株式会社（9010401089631）に合併し解散,2018-06-05,1,,,,,ダンボールワン,0
2065,7290001031819,登記記録の閉鎖等,0,2023-08-08,2023-07-26,芝浦アイティー株式会社,,株式会社,福岡県,福岡市城南区,東油山１丁目２３番２号,,40,136,8140155,,,2023-07-26,清算の結了等,,,2015-10-05,1,,,,,シバウラアイティー,0
2088,7310003003128,登記記録の閉鎖等,0,2023-08-08,2023-08-02,あさひ商店合同会社,,合同会社,長崎県,北松浦郡佐々町,口石免１３００番地１,,42,391,8570352,,,2023-08-02,清算の結了等,,,2016-04-22,1,,,,,アサヒショウテン,0
2096,7340001016541,登記記録の閉鎖等,0,2023-08-08,2023-08-01,株式会社美ごしか,,株式会社,鹿児島県,姶良市,東餅田１００５Ｃ１０３,,46,225,8995421,,,2023-08-01,清算の結了等,,,2015-10-05,1,,,,,ミゴシカ,0
2104,7370001003743,登記記録の閉鎖等,0,2023-08-08,2023-07-31,南材高架下開発株式会社,,株式会社,宮城県,仙台市若林区,南小泉字八軒小路６番地の１,,04,103,9840827,,,2023-07-31,清算の結了等,,,2015-10-05,1,,,,,ナンザイコウカカカイハツ,0
2107,7380002027071,登記記録の閉鎖等,0,2023-08-08,2023-08-02,有限会社ヤマノ機工,,有限会社,福島県,いわき市,平下神谷字下川原５８番地の３,,07,204,9700101,,,2023-08-02,清算の結了等,,,2015-10-05,1,,,,,ヤマノキコウ,0
2109,7390002013822,登記記録の閉鎖等,0,2023-08-08,2023-08-02,アサヒライフライン有限会社,,有限会社,山形県,東置賜郡高畠町,大字福沢１０３１番地の２,,06,381,9992174,,,2023-08-02,清算の結了等,,,2015-10-05,1,,,,,アサヒライフライン,0
2121,7460102003303,登記記録の閉鎖等,0,2023-08-08,2023-08-03,有限会社マイルド,,有限会社,北海道,中川郡幕別町,札内新北町７６番地４,,01,643,0890533,,,2023-08-03,清算の結了等,,,2015-10-05,1,,,,,,0
2148,8010701030329,登記記録の閉鎖等,0,2023-08-08,2023-07-11,株式会社ＲＯＳＥＳコンサルティング,,株式会社,神奈川県,横浜市西区,岡野１丁目４番１号１０２,,14,103,2200073,,,2023-07-11,合併による解散等,5010701023590,令和５年６月３０日神奈川県横浜市西区岡野一丁目４番１号１０２株式会社ＲＯＳＥＳ（5010701023590）に合併し解散,2015-10-05,1,,,,,ローゼズコンサルティング,0
2163,8011101063183,登記記録の閉鎖等,0,2023-08-08,2023-08-04,株式会社ＫＩ　Ｇｌｏｂａｌ　Ｏｐｅｒａｔｉｏｎｓ,,株式会社,東京都,新宿区,神楽坂６丁目４２番地,,13,104,1620825,,,2023-08-04,清算の結了等,,,2015-10-05,1,,,,,ケーアイグローバルオペレーションズ,0
2172,8011501020494,登記記録の閉鎖等,0,2023-08-08,2023-07-12,株式会社日中キャリア,,株式会社,東京都,港区,浜松町１丁目１７番３号シダフォレスト浜松町４階,,13,103,1050013,,,2023-07-12,清算の結了等,,,2015-10-05,1,,,,,ニッチュウキャリア,0
2185,8020001072343,登記記録の閉鎖等,0,2023-08-08,2023-07-26,株式会社川井屋,,株式会社,神奈川県,川崎市川崎区,追分町６番９号,,14,131,2100835,,,2023-07-26,清算の結了等,,,2015-10-05,1,,,,,カワイヤ,0
2189,8020001120738,登記記録の閉鎖等,0,2023-08-08,2023-07-31,株式会社ラクシヨ,,株式会社,東京都,中央区,新川１丁目１０番８号,,13,102,1040033,,,2023-07-31,清算の結了等,,,2017-04-13,1,,,,,ラクシヨ,0
2215,8030002001432,登記記録の閉鎖等,0,2023-08-08,2023-07-06,有限会社石丸商店,,有限会社,埼玉県,さいたま市大宮区,桜木町２丁目４０３番地,,11,103,3300854,,,2023-07-06,清算の結了等,,,2015-10-05,1,,,,,イシマルショウテン,0
2230,8060001014572,登記記録の閉鎖等,0,2023-08-08,2023-07-25,株式会社ナカジマ,,株式会社,栃木県,小山市,中央町２丁目１番２号,,09,208,3230023,,,2023-07-25,清算の結了等,,,2015-10-05,1,,,,,ナカジマ,0
2238,8080101014628,登記記録の閉鎖等,0,2023-08-08,2023-08-03,株式会社海南荘,,株式会社,静岡県,賀茂郡東伊豆町,奈良本９８６番地の２,,22,301,4130302,,,2023-08-03,清算の結了等,,,2015-10-05,1,,,,,カイナンソウ,0
2241,8100002006374,登記記録の閉鎖等,0,2023-08-08,2023-08-01,新町製材有限会社,,有限会社,長野県,長野市,信州新町新町９３０番地,,20,201,3812405,,,2023-08-01,清算の結了等,,,2015-10-05,1,,,,,シンマチセイザイ,0
2245,8120001083611,登記記録の閉鎖等,0,2023-08-08,2023-08-02,大松興産株式会社,,株式会社,大阪府,大阪市天王寺区,石ケ辻町１７番１４－６０４号,00127446,27,109,5430031,,,2023-08-02,清算の結了等,,,2015-10-05,1,,,,,ダイマツコウサン,0
2265,8120901029250,登記記録の閉鎖等,0,2023-08-08,2023-08-01,株式会社豊中電鍍工業,,株式会社,大阪府,豊中市,庄本町４丁目５番７号,,27,203,5610835,,,2023-08-01,清算の結了等,,,2015-10-05,1,,,,,トヨナカデントコウギョウ,0
2273,8130002026948,登記記録の閉鎖等,0,2023-08-08,2023-08-03,宮井電設有限会社,,有限会社,京都府,宇治市,伊勢田町中山８５番地の２８,,26,204,6110043,,,2023-08-03,清算の結了等,,,2015-10-05,1,,,,,ミヤイデンセツ,0
2274,8130002031691,登記記録の閉鎖等,0,2023-08-08,2023-07-27,有限会社マルヒデ・カーゴ・サービス,,有限会社,京都府,八幡市,八幡三本橋６０番２２ハイツふいく１１０号室,,26,210,6148093,,,2023-07-27,清算の結了等,,,2015-10-05,1,,,,,マルヒデカーゴサービス,0
2292,8170002001286,登記記録の閉鎖等,0,2023-08-08,2023-08-04,有限会社久保商店,,有限会社,和歌山県,和歌山市,西浜１６６０番地４０１,,30,201,6410036,,,2023-08-04,清算の結了等,,,2015-10-05,1,,,,,クボショウテン,0
2307,8200002013427,登記記録の閉鎖等,0,2023-08-08,2023-08-02,有限会社富田紙器,,有限会社,岐阜県,安八郡安八町,外善光３３４６番地,,21,383,5030129,,,2023-08-02,清算の結了等,,,2015-10-05,1,,,,,トミダシキ,0
2334,8270002005401,登記記録の閉鎖等,0,2023-08-08,2023-07-31,有限会社牛田,,有限会社,鳥取県,米子市,皆生５丁目３番５０号,,31,202,6830003,,,2023-07-31,清算の結了等,,,2015-10-05,1,,,,,ウシダ,0
2367,8380001009912,登記記録の閉鎖等,0,2023-08-08,2023-08-01,株式会社安田組,,株式会社,福島県,本宮市,高木字金瀬３２番地５,,07,214,9691101,,,2023-08-01,清算の結了等,,,2015-10-05,1,,,,,ヤスダグミ,0
2378,8470002000712,登記記録の閉鎖等,0,2023-08-08,2023-08-04,有限会社アートギャラリー桃山,,有限会社,香川県,高松市,御坊町１０番地８,,37,201,7600044,,,2023-08-04,清算の結了等,,,2015-10-05,1,,,,,アートギャラリーモモヤマ,0
2383,8480001000134,登記記録の閉鎖等,0,2023-08-08,2023-08-01,株式会社アイケイディー,,株式会社,徳島県,徳島市,新町橋１丁目１１番地,,36,201,7700904,,,2023-08-01,合併による解散等,2480001000189,令和５年８月１日徳島市新町橋一丁目１１番地株式会社池田時計店（2480001000189）に合併し解散,2015-10-05,1,,,,,アイケイディ,0
2405,9010005031849,登記記録の閉鎖等,0,2023-08-08,2023-08-01,ＴＦＪ４一般社団法人,,その他の設立登記法人,東京都,中央区,八丁堀４丁目２番１０号ＡＯＪ税理士法人内,,13,102,1040032,,,2023-08-01,清算の結了等,,,2020-05-21,1,,,,,ティーエフジェイフォー,0
2410,9010401101296,登記記録の閉鎖等,0,2023-08-08,2023-07-28,株式会社Ｅｉｎｅ　Ｌｉｅｂｅ,,株式会社,東京都,中央区,入船２丁目８番５－１１０２号,,13,102,1040042,,,2023-07-28,清算の結了等,,,2015-10-05,1,,,,,,0
2415,9010403007252,登記記録の閉鎖等,0,2023-08-08,2023-07-28,フレクセラ・ソフトウェア合同会社,,合同会社,東京都,中央区,日本橋３丁目９番１号日本橋三丁目スクエア１１階,,13,102,1030027,,,2023-07-28,清算の結了等,,,2015-10-05,1,,,,,フレクセラソフトウェア,0
2430,9010801021648,登記記録の閉鎖等,0,2023-08-08,2023-08-03,株式会社アローエンターテイメント,,株式会社,東京都,大田区,池上３丁目３番１号,,13,111,1460082,,,2023-08-03,合併による解散等,1122001019980,令和５年７月２７日大阪府八尾市天王寺屋二丁目６８番地富士開発株式会社（1122001019980）に合併し解散,2015-10-05,1,,,,,アローエンターテイメント,0
2434,9011001108772,登記記録の閉鎖等,0,2023-08-08,2023-07-18,ＫＩＲＩＨＡＲＥ株式会社,,株式会社,神奈川県,横浜市金沢区,西柴１丁目７番１３号,,14,108,2360017,,,2023-07-18,清算の結了等,,,2015-12-21,1,,,,,キリハレ,0
2437,9011001126023,登記記録の閉鎖等,0,2023-08-08,2023-07-11,株式会社ＲＯＳＥＳエンタテインメント,,株式会社,神奈川県,横浜市西区,岡野１丁目４番１号１０２,,14,103,2200073,,,2023-07-11,合併による解散等,5010701023590,令和５年６月３０日神奈川県横浜市西区岡野一丁目４番１号１０２株式会社ＲＯＳＥＳ（5010701023590）に合併し解散,2019-01-10,1,,,,,ローゼズエンタテインメント,0
2456,9011601023883,登記記録の閉鎖等,0,2023-08-08,2023-08-03,Ｓｏｕｌｇａｔｅ　Ｊａｐａｎ株式会社,,株式会社,東京都,練馬区,豊玉北５丁目２９番４号井門練馬ビル６階税理士法人経営サポートプラスアルファ内,,13,120,1760012,,,2023-08-03,清算の結了等,,,2020-01-06,1,,,,,ソウルゲートジャパン,0
2465,9013102007556,登記記録の閉鎖等,0,2023-08-08,2023-08-03,有限会社エヌ工業,,有限会社,東京都,西多摩郡日の出町,大字平井１３８９番地,,13,305,1900182,,,2023-08-03,清算の結了等,,,2015-10-05,1,,,,,エヌコウギョウ,0
2486,9030001130487,登記記録の閉鎖等,0,2023-08-08,2023-07-18,株式会社クオーレ,,株式会社,埼玉県,川口市,大字道合３２番地,,11,203,3330835,,,2023-07-18,清算の結了等,,,2019-04-22,1,,,,,クオーレ,0
2497,9040001055626,登記記録の閉鎖等,0,2023-08-08,2023-07-14,日本樹脂株式会社,,株式会社,千葉県,市原市,青柳２丁目１１番地４,,12,219,2990102,,,2023-07-14,清算の結了等,,,2015-10-05,1,,,,,ニホンジュシ,0
2498,9040001075335,登記記録の閉鎖等,0,2023-08-08,2023-07-12,株式会社いすみ,,株式会社,千葉県,いすみ市,国府台８４５番地,,12,238,2980112,,,2023-07-12,清算の結了等,,,2015-10-05,1,,,,,イスミ,0
2504,9050001030867,登記記録の閉鎖等,0,2023-08-08,2023-07-31,株式会社パークサイド都,,株式会社,茨城県,守谷市,大木４９４番地の１,,08,224,3020107,,,2023-07-31,清算の結了等,,,2015-10-05,1,,,,,パークサイドミヤコ,0
2519,9080001003580,登記記録の閉鎖等,0,2023-08-08,2023-08-01,株式会社ディナーサービスコーポレーション,,株式会社,静岡県,静岡市駿河区,小鹿３丁目１番５８号,,22,102,4228021,,,2023-08-01,合併による解散等,4080001003255,令和５年８月１日静岡市駿河区小鹿三丁目１番５８号株式会社タカラ・エムシー（4080001003255）に合併し解散,2015-10-05,1,,,,,ディナーサービスコーポレーション,0
2525,9080401015837,登記記録の閉鎖等,0,2023-08-08,2023-08-04,株式会社シュバイツア技研,,株式会社,静岡県,磐田市,大原８８５番地,,22,211,4371211,,,2023-08-04,清算の結了等,,,2015-10-05,1,,,,,シュバイツアギケン,0
2535,9100002021348,登記記録の閉鎖等,0,2023-08-08,2023-08-01,有限会社メディアム,,有限会社,長野県,松本市,蟻ケ崎４丁目１１番４６号,,20,202,3900861,,,2023-08-01,清算の結了等,,,2015-10-05,1,,,,,メディアム,0
2537,9100002036288,登記記録の閉鎖等,0,2023-08-08,2023-07-31,有限会社小池建設,,有限会社,長野県,下伊那郡下條村,睦沢７４８４番地,,20,411,3992101,,,2023-07-31,清算の結了等,,,2015-10-05,1,,,,,コイケケンセツ,0
2539,9120001021231,登記記録の閉鎖等,0,2023-08-08,2023-07-31,日進交通株式会社,,株式会社,大阪府,大阪市平野区,加美鞍作２丁目３番２号,,27,126,5470004,,,2023-07-31,合併による解散等,5120001179916,令和５年７月３１日大阪市平野区加美鞍作一丁目８番１号株式会社新日本ツーリスト（5120001179916）に合併し解散,2015-10-05,1,,,,,ニッシンコウツウ,0
2548,9120001247223,登記記録の閉鎖等,0,2023-08-08,2023-08-01,環境不動産株式会社,,株式会社,大阪府,大阪市中央区,瓦町４丁目３－７ＶＯＲＴ御堂筋本町５０３号,,27,128,5410048,,,2023-08-01,合併による解散等,6120001244017,令和５年８月１日大阪市中央区瓦町４－３－７ＶＯＲＴ御堂筋本町５０３号二次資源ホールディングス株式会社（6120001244017）に合併し解散,2022-07-06,1,,,,,カンキョウフドウサン,0
2574,9140002015049,登記記録の閉鎖等,0,2023-08-08,2023-07-31,有限会社東栄弥,,有限会社,兵庫県,芦屋市,宮川町２番１２号,,28,206,6590063,,,2023-07-31,清算の結了等,,,2015-10-05,1,,,,,ヒガシサカエヤ,0
2577,9150005002118,登記記録の閉鎖等,0,2023-08-08,2023-07-24,医療法人メディカル．ウエルフェアー,,その他の設立登記法人,京都府,木津川市,州見台７丁目１番地２８,,26,214,6190216,,,2023-07-24,清算の結了等,,,2015-10-05,1,,,,,メディカルウェルフェアー,0
2586,9180005011272,登記記録の閉鎖等,0,2023-08-08,2023-07-03,社会福祉法人たけのこ福祉会,,その他の設立登記法人,愛知県,江南市,松竹町切野９４番地,,23,217,4838351,,,2023-07-03,合併による解散等,7180005009657,令和５年７月３日愛知県一宮市木曽川町内割田一の通り１２番地３社会福祉法人きそがわ福祉会（7180005009657）に合併し解散,2015-10-05,1,,,,,タケノコフクシカイ,0
2606,9240001002005,登記記録の閉鎖等,0,2023-08-08,2023-08-04,株式会社オフィスティ,,株式会社,広島県,広島市西区,高須台３丁目１８番２０号,,34,104,7330876,,,2023-08-04,清算の結了等,,,2015-10-05,1,,,,,オフィスティ,0
2619,9250002000782,登記記録の閉鎖等,0,2023-08-08,2023-07-25,有限会社ジョイ,,有限会社,山口県,山口市,小郡黄金町１番１号,,35,203,7540021,,,2023-07-25,清算の結了等,,,2015-10-05,1,,,,,ジョイ,0
2620,9250002010427,登記記録の閉鎖等,0,2023-08-08,2023-07-28,有限会社野村コンタクトレンズ,,有限会社,山口県,下関市,綾羅木本町４丁目１０番１８号,,35,201,7510849,,,2023-07-28,清算の結了等,,,2015-10-05,1,,,,,ノムラコンタクトレンズ,0
2648,9320001017770,登記記録の閉鎖等,0,2023-08-08,2023-08-02,株式会社五感応用工学研究所,,株式会社,大分県,臼杵市,大字佐志生５１５４番地１,,44,206,8750001,,,2023-08-02,清算の結了等,,,2020-07-02,1,,,,,ゴカンオウヨウコウガクケンキュウジョ,0
2650,9330001007531,登記記録の閉鎖等,0,2023-08-08,2023-07-24,大吉重量株式会社,,株式会社,熊本県,熊本市中央区,三郎１丁目７番１８号,,43,101,8620922,,,2023-07-24,清算の結了等,,,2015-10-05,1,,,,,ダイキチジュウリョウ,0
2654,9340005009135,登記記録の閉鎖等,0,2023-08-08,2023-08-02,医療法人悠全会,,その他の設立登記法人,鹿児島県,鹿児島市,中央町２３番地２１－２Ｆ,,46,201,8900053,,,2023-08-02,清算の結了等,,,2020-03-30,1,,,,,ユウゼンカイ,0
2663,9380002019934,登記記録の閉鎖等,0,2023-08-08,2023-08-03,有限会社末広建設,,有限会社,福島県,須賀川市,栄町１１４番地,,07,207,9620858,,,2023-08-03,清算の結了等,,,2015-10-05,1,,,,,スエヒロケンセツ,0
2678,9430003010548,登記記録の閉鎖等,0,2023-08-08,2023-07-14,合同会社５－１,,合同会社,北海道,札幌市中央区,南四条西１６丁目１番２０号,,01,101,0640804,,,2023-07-14,合併による解散等,5430003010345,令和５年６月１日札幌市中央区南六条西十六丁目１－２０ＢＡＡＡＮ合同会社（5430003010345）に合併し解散,2019-06-14,1,,,,,ゴトイチ,0
