sequenceNumber,corporateNumber,process,correct,updateDate,changeDate,name,nameImageId,kind,prefectureName,cityName,streetNumber,addressImageId,prefectureCode,cityCode,postCode,addressOutside,addressOutsideImageId,closeDate,closeCause,successorCorporateNumber,changeCause,assignmentDate,latest,enName,enPrefectureName,enCityName,enAddressOutside,furigana,hihyoji
2,1010001190838,登記記録の閉鎖等,0,2024-09-12,2024-08-30,ＶＳテック株式会社,,株式会社,東京都,中央区,日本橋蛎殻町１丁目１１番１号,,13,102,1030014,,,2024-08-30,清算の結了等,,,2018-04-10,1,,,,,ブイエステック,0
12,1010005032474,登記記録の閉鎖等,0,2024-09-12,2024-09-05,ＲＡＩＮＢＯＷ　ＢＬＯＳＳＯＭ特定目的会社,,その他の設立登記法人,東京都,中央区,銀座１丁目６番１１号土志田ビルディング３Ｆ,,13,102,1040061,,,2024-09-05,清算の結了等,,,2020-11-04,1,,,,,レインボーブロッサム,0
18,1010401100537,登記記録の閉鎖等,0,2024-09-12,2024-08-22,株式会社サニーストラテジックマネジメント,,株式会社,東京都,港区,南青山２丁目２番１５号ウイン青山１３０２,,13,103,1070062,,,2024-08-22,清算の結了等,,,2015-10-05,1,,,,,,0
54,1011502007019,登記記録の閉鎖等,0,2024-09-12,2024-09-09,有限会社和泉工芸,,有限会社,東京都,荒川区,荒川１丁目４８番５号,,13,118,1160002,,,2024-09-09,清算の結了等,,,2015-10-05,1,,,,,ワイズミコウゲイ,0
64,1012301006062,登記記録の閉鎖等,0,2024-09-12,2024-09-06,株式会社翔建,,株式会社,東京都,町田市,金森東３丁目１４番２４号,,13,209,1940015,,,2024-09-06,清算の結了等,,,2015-10-05,1,,,,,ショウケン,0
65,1012403001886,登記記録の閉鎖等,0,2024-09-12,2024-09-05,エスアール合同会社,,合同会社,東京都,国立市,東１丁目１５番地の２２,,13,215,1860002,,,2024-09-05,清算の結了等,,,2015-10-05,1,,,,,,0
83,1021001014622,登記記録の閉鎖等,0,2024-09-12,2024-09-11,株式会社ブラン,,株式会社,神奈川県,相模原市南区,上鶴間本町７丁目１１番２－４０４号,,14,153,2520318,,,2024-09-11,清算の結了等,,,2015-10-05,1,,,,,ブラン,0
99,1050001041681,登記記録の閉鎖等,0,2024-09-12,2024-08-20,株式会社ＮＡＮＤＡ　ＪＡＰＡＮ,,株式会社,東京都,港区,六本木１丁目９番１０号アークヒルズ仙石山森タワー２８Ｆベーカー＆マッケンジー法律事務所（外国法共同事業）内,,13,103,1060032,,,2024-08-20,清算の結了等,,,2016-10-07,1,,,,,ナンダジャパン,0
102,1050002010875,登記記録の閉鎖等,0,2024-09-12,2024-09-06,有限会社新生,,有限会社,茨城県,土浦市,桜町２丁目５番１２号,,08,203,3000037,,,2024-09-06,合併による解散等,8010501033226,令和６年８月３０日東京都台東区千束四丁目１８番１号株式会社トゥルース（8010501033226）に合併し解散,2015-10-05,1,,,,,シンセイ,0
116,1120001042433,登記記録の閉鎖等,0,2024-09-12,2024-09-10,関西金属株式会社,,株式会社,大阪府,大阪市西区,川口２丁目８番１３号,,27,106,5500021,,,2024-09-10,清算の結了等,,,2015-10-05,1,,,,,カンサイキンゾク,0
132,1120901013624,登記記録の閉鎖等,0,2024-09-12,2024-09-06,株式会社ママフル,,株式会社,大阪府,吹田市,南吹田５丁目２４番１０号,,27,205,5640043,,,2024-09-06,清算の結了等,,,2015-10-05,1,,,,,ママフル,0
153,1140002015056,登記記録の閉鎖等,0,2024-09-12,2024-09-06,有限会社統一企業,,有限会社,兵庫県,神戸市中央区,上筒井通１丁目６番１１号,,28,110,6510061,,,2024-09-06,清算の結了等,,,2015-10-05,1,,,,,トウイツキギョウ,0
170,1180301037788,登記記録の閉鎖等,0,2024-09-12,2024-09-02,ハタス株式会社,,株式会社,愛知県,刈谷市,熊野町４丁目７５番地１,,23,210,4480831,,,2024-09-02,合併による解散等,2180301016683,令和６年９月１日愛知県刈谷市熊野町四丁目７５番地１ハタスパートナー株式会社（2180301016683）に合併し解散,2023-09-07,1,,,,,ハタス,0
183,1250002004106,登記記録の閉鎖等,0,2024-09-12,2024-09-10,有限会社阿蘇ソーイング,,有限会社,山口県,宇部市,大字際波２４２０番地,,35,202,7590207,,,2024-09-10,合併による解散等,2360001006438,令和６年８月３１日岡山県倉敷市児島田の口一丁目３番４４号アクシーズ株式会社（2360001006438）に合併し解散,2015-10-05,1,,,,,アソソーイング,0
188,1260002027345,登記記録の閉鎖等,0,2024-09-12,2024-09-06,有限会社丸吉鉄筋工業,,有限会社,岡山県,新見市,高尾５２０番地,,33,210,7180003,,,2024-09-06,清算の結了等,,,2015-10-05,1,,,,,マルヨシテッキンコウギョウ,0
207,1370402000287,登記記録の閉鎖等,0,2024-09-12,2024-09-03,有限会社みやぎ地域販売協会,,有限会社,宮城県,登米市,米山町中津山字粟ケ崎２７番地,,04,212,9870331,,,2024-09-03,清算の結了等,,,2015-10-05,1,,,,,ミヤギチイキハンバイキョウカイ,0
216,1430002006018,登記記録の閉鎖等,0,2024-09-12,2024-09-06,有限会社教育資料刊行会,,有限会社,北海道,札幌市中央区,南一条西１６丁目１番地３２３,,01,101,0600061,,,2024-09-06,清算の結了等,,,2015-10-05,1,,,,,キョウイクシリョウカンコウカイ,0
227,1500001010368,登記記録の閉鎖等,0,2024-09-12,2024-09-09,株式会社リプロ,,株式会社,愛媛県,新居浜市,御蔵町３０番地,,38,205,7920047,,,2024-09-09,清算の結了等,,,2015-10-05,1,,,,,,0
235,2010003035692,登記記録の閉鎖等,0,2024-09-12,2024-08-30,ＳＡＭプロジェクト１号合同会社,,合同会社,東京都,中央区,新川２丁目２７番１号,,13,102,1040033,,,2024-08-30,清算の結了等,,,2021-08-31,1,,,,,,0
242,2010401121904,登記記録の閉鎖等,0,2024-09-12,2024-09-09,Ｍｕｓｅ　Ｉｎｔｅｒｎａｔｉｏｎａｌ株式会社,,株式会社,東京都,中央区,銀座３丁目２番１１号,,13,102,1040061,,,2024-09-09,合併による解散等,4120003009683,令和６年９月１日大阪市中央区平野町二丁目６番４号三休橋平野町ビル３階株式会社ｍｕｓｅ（4120003009683）に合併し解散,2015-12-14,1,,,,,ミューズインターナショナル,0
256,2010405015045,登記記録の閉鎖等,0,2024-09-12,2024-08-21,特定非営利活動法人全国贈与相続無料相談会,,その他の設立登記法人,東京都,港区,西新橋２丁目１５番１７号レインボービル２階,,13,103,1050003,,,2024-08-21,清算の結了等,,,2016-08-22,1,,,,,ゼンコクゾウヨソウゾクムリョウソウダンカイ,0
257,2010405020152,登記記録の閉鎖等,0,2024-09-12,2024-08-21,税理士法人ダブルウッドパートナーズ,,その他の設立登記法人,東京都,港区,三田１丁目３番４０号,,13,103,1080073,,,2024-08-21,清算の結了等,,,2021-09-03,1,,,,,ダブルウッドパートナーズ,0
258,2010501014702,登記記録の閉鎖等,0,2024-09-12,2024-09-06,株式会社旅荘八重,,株式会社,東京都,台東区,根岸１丁目５番７号,,13,106,1100003,,,2024-09-06,清算の結了等,,,2015-10-05,1,,,,,リョソウヤエ,0
268,2010601002821,登記記録の閉鎖等,0,2024-09-12,2024-09-09,株式会社島田商店,,株式会社,東京都,中野区,江原町３丁目３５番８－５０２号,,13,114,1650023,,,2024-09-09,清算の結了等,,,2015-10-05,1,,,,,シマダショウテン,0
270,2010602018230,登記記録の閉鎖等,0,2024-09-12,2024-09-10,有限会社比呂貴,,有限会社,東京都,墨田区,緑３丁目９番５号,,13,107,1300021,,,2024-09-10,清算の結了等,,,2015-10-05,1,,,,,ヒロキ,0
272,2010701028683,登記記録の閉鎖等,0,2024-09-12,2024-09-06,株式会社ＳＴＬデザイン,,株式会社,東京都,品川区,南大井６丁目１３番３号第２新開発ビル５階,,13,109,1400013,,,2024-09-06,合併による解散等,3470001006797,令和６年９月１日香川県木田郡三木町井上５４５番地１ニューデンタルリサーチ株式会社（3470001006797）に合併し解散,2015-10-05,1,,,,,エスティーエルデザイン,0
274,2010702001978,登記記録の閉鎖等,0,2024-09-12,2024-09-05,有限会社カシワ製作所,,有限会社,東京都,品川区,荏原４丁目６番１９号,,13,109,1420063,,,2024-09-05,清算の結了等,,,2015-10-05,1,,,,,カシワセイサクショ,0
280,2011001110652,登記記録の閉鎖等,0,2024-09-12,2024-08-27,Ｔｈｏｕｓａｎｄ　Ｊａｐａｎ株式会社,,株式会社,東京都,目黒区,青葉台３丁目２１番１５号,,13,110,1530042,,,2024-08-27,清算の結了等,,,2016-04-27,1,,,,,サウザンドジャパン,0
292,2011005008315,登記記録の閉鎖等,0,2024-09-12,2024-08-21,カモハ特定目的会社,,その他の設立登記法人,東京都,渋谷区,広尾１丁目１１番２号嶋本公認会計士事務所気付,,13,113,1500012,,,2024-08-21,清算の結了等,,,2019-10-09,1,,,,,カモハ,0
307,2011301020535,登記記録の閉鎖等,0,2024-09-12,2024-09-03,株式会社魚耕,,株式会社,東京都,杉並区,上荻１丁目１４番１２号,,13,115,1670043,,,2024-09-03,合併による解散等,1011301000819,令和６年９月１日東京都杉並区上荻一丁目１４番１２号株式会社魚耕（1011301000819）に合併し解散,2015-10-05,1,,,,,ウオコウ,0
309,2011402005501,登記記録の閉鎖等,0,2024-09-12,2024-09-05,大和不動産管理有限会社,,有限会社,東京都,板橋区,高島平９丁目３番８号,,13,119,1750082,,,2024-09-05,清算の結了等,,,2015-10-05,1,,,,,ヤマトフドウサンカンリ,0
310,2011501014122,登記記録の閉鎖等,0,2024-09-12,2024-09-10,株式会社ネオグローバル,,株式会社,東京都,北区,神谷２丁目７番２号,,13,117,1150043,,,2024-09-10,清算の結了等,,,2015-10-05,1,,,,,ネオグローバル,0
314,2011801014598,登記記録の閉鎖等,0,2024-09-12,2024-09-06,株式会社ピーエーピー,,株式会社,東京都,足立区,新田２丁目５番１７号,,13,121,1230865,,,2024-09-06,清算の結了等,,,2015-10-05,1,,,,,ピーエーピー,0
319,2020001063785,登記記録の閉鎖等,0,2024-09-12,2024-08-30,株式会社インプレッションズ,,株式会社,神奈川県,川崎市多摩区,登戸３３９８番地１,,14,135,2140014,,,2024-08-30,清算の結了等,,,2015-10-05,1,,,,,インプレッションズ,0
353,2040002068798,登記記録の閉鎖等,0,2024-09-12,2024-09-05,有限会社宮島産業,,有限会社,千葉県,袖ケ浦市,蔵波２９３９番地,,12,229,2990243,,,2024-09-05,清算の結了等,,,2015-10-05,1,,,,,ミヤジマサンギョウ,0
362,2050002031342,登記記録の閉鎖等,0,2024-09-12,2024-09-04,有限会社ブルーバード学園ビル,,有限会社,茨城県,日立市,助川町１丁目８番１５号,,08,202,3170065,,,2024-09-04,清算の結了等,,,2015-10-05,1,,,,,ブルーバードガクエンビル,0
366,2060002038881,登記記録の閉鎖等,0,2024-09-12,2024-09-04,有限会社カネマン木材工業,,有限会社,栃木県,佐野市,飯田町５３１番地５,,09,204,3270825,,,2024-09-04,清算の結了等,,,2015-10-05,1,,,,,カネマンモクザイコウギョウ,0
369,2100003004845,登記記録の閉鎖等,0,2024-09-12,2024-09-03,合同会社岸野,,合同会社,長野県,小県郡長和町,古町１８９１番地３５,,20,350,3860603,,,2024-09-03,清算の結了等,,,2017-12-12,1,,,,,キシノ,0
387,2120102003176,登記記録の閉鎖等,0,2024-09-12,2024-09-10,有限会社ティエム物産,,有限会社,大阪府,堺市西区,浜寺元町２丁１６２番地,,27,144,5928343,,,2024-09-10,清算の結了等,,,2015-10-05,1,,,,,ティエムブッサン,0
389,2120902015379,登記記録の閉鎖等,0,2024-09-12,2024-09-09,有限会社勝栄堂,,有限会社,大阪府,箕面市,箕面６丁目３番１号,,27,220,5620001,,,2024-09-09,清算の結了等,,,2015-10-05,1,,,,,ショウエイドウ,0
395,2140001033553,登記記録の閉鎖等,0,2024-09-12,2024-09-09,西宮配達商事株式会社,,株式会社,兵庫県,神戸市東灘区,向洋町東４丁目１６番地,,28,101,6580031,,,2024-09-09,清算の結了等,,,2015-10-05,1,,,,,,0
397,2140001085314,登記記録の閉鎖等,0,2024-09-12,2024-09-04,株式会社クワムラ,,株式会社,兵庫県,淡路市,浅野南２０６番地,,28,226,6561741,,,2024-09-04,清算の結了等,,,2015-10-05,1,,,,,クワムラ,0
404,2140001133477,登記記録の閉鎖等,0,2024-09-12,2024-09-06,株式会社森田ビジネス,,株式会社,兵庫県,川西市,一庫１丁目２番６号,,28,217,6660153,,,2024-09-06,清算の結了等,,,2024-03-15,1,,,,,モリタビジネス,0
406,2140002051018,登記記録の閉鎖等,0,2024-09-12,2024-09-10,有限会社マルナカ,,有限会社,兵庫県,姫路市,呉服町２０番地,,28,201,6700923,,,2024-09-10,清算の結了等,,,2015-10-05,1,,,,,マルナカ,0
407,2150001007309,登記記録の閉鎖等,0,2024-09-12,2024-09-06,株式会社エイム,,株式会社,奈良県,天理市,杣之内町９０４番地,,29,204,6320032,,,2024-09-06,清算の結了等,,,2015-10-05,1,,,,,エイム,0
410,2170001001094,登記記録の閉鎖等,0,2024-09-12,2024-09-11,株式会社ケイ・カンパニー,,株式会社,和歌山県,和歌山市,関戸４丁目３番４０３号,,30,201,6410035,,,2024-09-11,清算の結了等,,,2015-10-05,1,,,,,ケイカンパニー,0
416,2180002026866,登記記録の閉鎖等,0,2024-09-12,2024-09-03,有限会社レ・ミルポア,,有限会社,愛知県,名古屋市緑区,青山２丁目２２９番地,,23,114,4580833,,,2024-09-03,清算の結了等,,,2015-10-05,1,,,,,レミルポア,0
417,2180003013475,登記記録の閉鎖等,0,2024-09-12,2024-09-02,伊藤商事合名会社,,合名会社,愛知県,津島市,高屋敷町１０番地,,23,208,4960822,,,2024-09-02,清算の結了等,,,2015-10-05,1,,,,,イトウショウジ,0
418,2180003016783,登記記録の閉鎖等,0,2024-09-12,2024-09-04,ＪｏＹＦｕＬ’Ｓ合同会社,,合同会社,愛知県,稲沢市,小沢１丁目８番７号,,23,220,4928212,,,2024-09-04,清算の結了等,,,2015-12-18,1,,,,,ジョイフルズ,0
424,2180301017302,登記記録の閉鎖等,0,2024-09-12,2024-09-02,ハタスビルダー株式会社,,株式会社,愛知県,刈谷市,熊野町４丁目７５番地１,,23,210,4480831,,,2024-09-02,合併による解散等,2180301016683,令和６年９月１日愛知県刈谷市熊野町四丁目７５番地１ハタスパートナー株式会社（2180301016683）に合併し解散,2015-10-05,1,,,,,ハタスビルダー,0
440,2220003001095,登記記録の閉鎖等,0,2024-09-12,2024-08-23,水野商事合資会社,,合資会社,石川県,鹿島郡中能登町,新庄レ．２８番地,,17,407,9291712,,,2024-08-23,清算の結了等,,,2015-10-05,1,,,,,ミズノショウジ,0
447,2270003001132,登記記録の閉鎖等,0,2024-09-12,2024-09-02,合同会社Ａｓｔｍｙ,,合同会社,鳥取県,米子市,和田町３４４４－１８,,31,202,6830102,,,2024-09-02,清算の結了等,,,2019-04-16,1,,,,,アストミー,0
450,2290001045030,登記記録の閉鎖等,0,2024-09-12,2024-08-07,株式会社ファミリー・不動産買取販売,,株式会社,福岡県,福岡市中央区,天神５丁目７番１号,,40,133,8100001,,,2024-08-07,清算の結了等,,,2015-10-05,1,,,,,ファミリーフドウサンカイトリハンバイ,0
453,2320001004239,登記記録の閉鎖等,0,2024-09-12,2024-09-10,フオス商事株式会社,,株式会社,大分県,大分市,田中町２丁目１１番３号,,44,201,8700852,,,2024-09-10,清算の結了等,,,2015-10-05,1,,,,,フオスショウジ,0
455,2340001015060,登記記録の閉鎖等,0,2024-09-12,2024-09-09,東林業株式会社,,株式会社,鹿児島県,志布志市,志布志町帖３７３４番地,,46,221,8997102,,,2024-09-09,清算の結了等,,,2015-10-05,1,,,,,ヒガシリンギョウ,0
465,2380002010412,登記記録の閉鎖等,0,2024-09-12,2024-09-02,有限会社タウンイトウ,,有限会社,福島県,郡山市,亀田１丁目５５番６号,,07,203,9638033,,,2024-09-02,清算の結了等,,,2015-10-05,1,,,,,タウンイトウ,0
470,2410002011927,登記記録の閉鎖等,0,2024-09-12,2024-09-06,有限会社六郷プラニング,,有限会社,秋田県,仙北郡美郷町,野中字下明子２７８番地２,,05,434,0191402,,,2024-09-06,清算の結了等,,,2015-10-05,1,,,,,ロクゴウプラニング,0
480,2500005000678,登記記録の閉鎖等,0,2024-09-12,2024-09-09,医療法人佐々木整形外科,,その他の設立登記法人,愛媛県,松山市,余戸南５丁目４番１号,,38,201,7900047,,,2024-09-09,清算の結了等,,,2015-10-05,1,,,,,ササキセイケイゲカ,0
492,3010002012163,登記記録の閉鎖等,0,2024-09-12,2024-08-20,有限会社玉井屋,,有限会社,神奈川県,横浜市港北区,樽町２丁目３番１０－３０１号,00111536,14,109,2220001,,,2024-08-20,清算の結了等,,,2015-10-05,1,,,,,タマイヤ,0
500,3010401077360,登記記録の閉鎖等,0,2024-09-12,2024-09-04,株式会社ＧＲＡＮＤ　ＲＯＹＡＬ　ｇｒｅｅｎ,,株式会社,千葉県,鴨川市,上小原４４３番地１,,12,223,2960103,,,2024-09-04,合併による解散等,7040001103650,令和６年９月１日千葉県鴨川市上小原４４３番地１株式会社苗目（7040001103650）に合併し解散,2015-10-05,1,,,,,グランドロイヤルグリーン,0
502,3010401161115,登記記録の閉鎖等,0,2024-09-12,2024-08-21,株式会社ＧｅｍＳｈｉｐ,,株式会社,東京都,港区,西麻布２丁目２４番３１－５０４号,,13,103,1060031,,,2024-08-21,清算の結了等,,,2021-06-28,1,,,,,ジェムシップ,0
511,3010403014205,登記記録の閉鎖等,0,2024-09-12,2024-08-30,ナチュラルエナジー株式会社,,株式会社,東京都,千代田区,内神田３丁目２番９号ＳＰビル１階,,13,101,1010047,,,2024-08-30,清算の結了等,,,2015-12-21,1,,,,,ナチュラルエナジー,0
514,3010403031175,登記記録の閉鎖等,0,2024-09-12,2024-08-21,Ｋｅｒｎｅｌ日本合同会社,,合同会社,東京都,港区,芝浦３丁目１番２１号,,13,103,1080023,,,2024-08-21,清算の結了等,,,2023-10-16,1,,,,,カーネルニホン,0
524,3010701033492,登記記録の閉鎖等,0,2024-09-12,2024-09-05,株式会社ＥＡＳＴ　ｈｏｓｐｉｔａｌｉｔｉｅｓ,,株式会社,東京都,品川区,西五反田７丁目７番２号,,13,109,1410031,,,2024-09-05,清算の結了等,,,2016-12-26,1,,,,,,0
543,3011301020534,登記記録の閉鎖等,0,2024-09-12,2024-09-03,株式会社海洋魚耕,,株式会社,東京都,杉並区,上荻１丁目１４番１２号,,13,115,1670043,,,2024-09-03,合併による解散等,1011301000819,令和６年９月１日東京都杉並区上荻一丁目１４番１２号株式会社魚耕（1011301000819）に合併し解散,2015-10-05,1,,,,,カイヨウウオコウ,0
548,3011801038506,登記記録の閉鎖等,0,2024-09-12,2024-09-06,アステール株式会社,,株式会社,東京都,足立区,花畑３丁目３４番１号,,13,121,1210061,,,2024-09-06,清算の結了等,,,2020-12-11,1,,,,,アステール,0
569,3020002101766,登記記録の閉鎖等,0,2024-09-12,2024-08-26,有限会社　中央保険サービス,,有限会社,神奈川県,川崎市幸区,神明町２丁目８番地１４,,14,132,2120022,,,2024-08-26,清算の結了等,,,2015-10-05,1,,,,,チュウオウホケンサービス,0
573,3030001010546,登記記録の閉鎖等,0,2024-09-12,2024-09-05,株式会社吉広商事,,株式会社,埼玉県,さいたま市西区,大字佐知川６８９番地８,,11,101,3310064,,,2024-09-05,清算の結了等,,,2015-10-05,1,,,,,キッコウショウジ,0
609,3090002010424,登記記録の閉鎖等,0,2024-09-12,2024-09-06,日向運送有限会社,,有限会社,山梨県,都留市,朝日曽雌１５０２番地,,19,204,4020015,,,2024-09-06,清算の結了等,,,2015-10-05,1,,,,,ヒナタウンソウ,0
610,3090002011711,登記記録の閉鎖等,0,2024-09-12,2024-09-06,有限会社長田鈑金自動車工場,,有限会社,山梨県,富士吉田市,上吉田６丁目７番１８号,,19,202,4030005,,,2024-09-06,清算の結了等,,,2015-10-05,1,,,,,オサダバンキンジドウシャコウジョウ,0
611,3110001026468,登記記録の閉鎖等,0,2024-09-12,2024-09-02,新潟総合開発株式会社,,株式会社,新潟県,南魚沼市,塩沢３０番地２,,15,226,9496408,,,2024-09-02,合併による解散等,9011502000882,令和６年７月１７日新潟県南魚沼市塩沢２９番地７株式会社ＳＫホールディングス（9011502000882）に合併し解散,2015-10-05,1,,,,,ニイガタソウゴウカイハツ,0
644,3180001110141,登記記録の閉鎖等,0,2024-09-12,2024-09-03,株式会社Ｒｅｖｅ,,株式会社,愛知県,名古屋市西区,則武新町４丁目４番３号,,23,104,4510051,,,2024-09-03,清算の結了等,,,2015-10-05,1,,,,,レーヴ,0
645,3180001110496,登記記録の閉鎖等,0,2024-09-12,2024-09-10,株式会社リンクス西日本,,株式会社,大阪府,大阪市淀川区,宮原３丁目５番２４号新大阪第一生命ビルディング２Ｆ,,27,123,5320003,,,2024-09-10,合併による解散等,9020001038005,令和６年８月３１日東京都品川区上大崎二丁目２４番９号アイケイビルディング５階株式会社リンクス（9020001038005）に合併し解散,2015-10-05,1,,,,,リンクスニシニホン,0
649,3180002084566,登記記録の閉鎖等,0,2024-09-12,2024-09-04,有限会社安だつ工務店,,有限会社,愛知県,大府市,柊山町７丁目３６３番地,,23,223,4740053,,,2024-09-04,清算の結了等,,,2015-10-05,1,,,,,アンダツコウムテン,0
650,3180002087767,登記記録の閉鎖等,0,2024-09-12,2024-09-03,有限会社杉山商事,,有限会社,愛知県,東海市,富木島町伏見３丁目１１番地の１４,,23,222,4760012,,,2024-09-03,清算の結了等,,,2015-10-05,1,,,,,スギヤマショウジ,0
660,3220002007241,登記記録の閉鎖等,0,2024-09-12,2024-09-02,有限会社テクノエース,,有限会社,石川県,金沢市,西念１丁目２番２６号駅西北邦ビル３階,,17,201,9200024,,,2024-09-02,清算の結了等,,,2015-10-05,1,,,,,テクノエース,0
669,3280002007525,登記記録の閉鎖等,0,2024-09-12,2024-09-11,大田電工有限会社,,有限会社,島根県,大田市,大田町吉永１５６３番地５,,32,205,6940063,,,2024-09-11,清算の結了等,,,2015-10-05,1,,,,,オオダデンコウ,0
678,3310002008874,登記記録の閉鎖等,0,2024-09-12,2024-09-05,有限会社みかんコミュニケーションズ,,有限会社,長崎県,長崎市,元船町２番８号,,42,201,8500035,,,2024-09-05,清算の結了等,,,2015-10-05,1,,,,,ミカンコミュニケーションズ,0
691,3440003001403,登記記録の閉鎖等,0,2024-09-12,2024-09-04,合同会社グッドフォロー,,合同会社,北海道,函館市,戸倉町１５番２０号ビラミカエル３　１０５号,,01,202,0420953,,,2024-09-04,清算の結了等,,,2021-07-09,1,,,,,グッドフォロー,0
694,3460103001243,登記記録の閉鎖等,0,2024-09-12,2024-09-10,吾弥太仁合同会社,,合同会社,京都府,京都市伏見区,桃山町遠山１０３‐３プリマヴェーラ桃山３０２,,26,109,6128012,,,2024-09-10,清算の結了等,,,2019-10-17,1,,,,,ゴヤタジ,0
702,3500001015654,登記記録の閉鎖等,0,2024-09-12,2024-09-10,広見食品株式会社,,株式会社,愛媛県,北宇和郡鬼北町,大字出目２１３３番地１,,38,488,7981332,,,2024-09-10,清算の結了等,,,2015-10-05,1,,,,,ヒロミショクヒン,0
703,3500001017072,登記記録の閉鎖等,0,2024-09-12,2024-09-06,ジーアイＥＨＩＭＥ株式会社,,株式会社,愛媛県,今治市,徳重１００番地１,,38,202,7940863,,,2024-09-06,清算の結了等,,,2015-10-05,1,,,,,ジーアイエヒメ,0
742,4010405021652,登記記録の閉鎖等,0,2024-09-12,2024-08-21,宇治田原ファシリティ２一般社団法人,,その他の設立登記法人,東京都,港区,六本木１丁目６番１号泉ガーデンタワー,,13,103,1060032,,,2024-08-21,清算の結了等,,,2022-12-05,1,,,,,ウジタワラファシリティツー,0
767,4011305002651,登記記録の閉鎖等,0,2024-09-12,2024-09-03,ＮＰＯ法人杉並芸術振興会,,その他の設立登記法人,東京都,杉並区,成田東３丁目１７番３２号,,13,115,1660015,,,2024-09-03,清算の結了等,,,2020-06-03,1,,,,,スギナミゲイジュツシンコウカイ,0
768,4011402006679,登記記録の閉鎖等,0,2024-09-12,2024-09-05,有限会社中田ブラシ,,有限会社,東京都,板橋区,赤塚５丁目１０番４号,00066187,13,119,1750092,,,2024-09-05,清算の結了等,,,2015-10-05,1,,,,,ナカタブラシ,0
784,4020001061861,登記記録の閉鎖等,0,2024-09-12,2024-08-28,株式会社三庫,,株式会社,神奈川県,横浜市港南区,上大岡西１丁目１３番２６号,,14,111,2330002,,,2024-08-28,清算の結了等,,,2015-10-05,1,,,,,ミツクラ,0
797,4020005015178,登記記録の閉鎖等,0,2024-09-12,2024-08-30,メゾン緑ヶ丘管理組合法人,,その他の設立登記法人,神奈川県,横浜市中区,本牧緑ケ丘４６番地１メゾン緑ヶ丘管理事務室,,14,104,2310832,,,2024-08-30,清算の結了等,,,2021-08-31,1,,,,,メゾンミドリガオカ,0
816,4040002004958,登記記録の閉鎖等,0,2024-09-12,2024-09-05,有限会社薩摩大建土地,,有限会社,千葉県,千葉市中央区,白旗３丁目２７番２号,,12,101,2600841,,,2024-09-05,清算の結了等,,,2015-10-05,1,,,,,サツマダイケントチ,0
818,4050002011788,登記記録の閉鎖等,0,2024-09-12,2024-09-04,有限会社高橋工業,00022737,有限会社,茨城県,土浦市,並木２丁目１１番１８号,,08,203,3000061,,,2024-09-04,清算の結了等,,,2015-10-05,1,,,,,タカハシコウギョウ,0
836,4100002015718,登記記録の閉鎖等,0,2024-09-12,2024-09-03,有限会社上北化学,,有限会社,長野県,東御市,常田７９番地３,,20,219,3890515,,,2024-09-03,清算の結了等,,,2015-10-05,1,,,,,ジョウホクカガク,0
848,4120002077426,登記記録の閉鎖等,0,2024-09-12,2024-09-09,有限会社出口,,有限会社,大阪府,枚方市,出口４丁目５２番１号,,27,210,5730065,,,2024-09-09,合併による解散等,8140002033092,令和６年９月１日東京都品川区北品川五丁目３番１号パークシティ大崎ザタワー２９Ｆ１３号株式会社ファブール（8140002033092）に合併し解散,2015-10-05,1,,,,,デグチ,0
860,4130001020047,登記記録の閉鎖等,0,2024-09-12,2024-09-09,エヌ・ティ・ティ・システム技研株式会社,,株式会社,京都府,京都市中京区,壬生賀陽御所町三丁目１番地,00035739,26,104,6048811,,,2024-09-09,合併による解散等,2010001095739,令和６年９月１日東京都中央区日本橋本町四丁目８番１４号東京コンピュータサービス株式会社（2010001095739）に合併し解散,2015-10-05,1,,,,,エヌティティシステムギケン,0
861,4130003007967,登記記録の閉鎖等,0,2024-09-12,2024-09-09,合同会社シャ・キャリコ,,合同会社,京都府,京都市伏見区,新中町７１５番地,,26,109,6128215,,,2024-09-09,清算の結了等,,,2022-06-10,1,,,,,シャキャリコ,0
863,4140001024781,登記記録の閉鎖等,0,2024-09-12,2024-09-09,株式会社メンヒル,,株式会社,兵庫県,神戸市東灘区,御影石町２丁目６番３４号,,28,101,6580045,,,2024-09-09,清算の結了等,,,2015-10-05,1,,,,,メンヒル,0
870,4140003013601,登記記録の閉鎖等,0,2024-09-12,2024-09-06,合同会社Ｓｔｒｏｎｇ　Ｒｅａｌ　Ｅｓｔａｔｅ４,,合同会社,兵庫県,神戸市中央区,江戸町９６番地ストロングビルディング,,28,110,6500033,,,2024-09-06,清算の結了等,,,2019-01-16,1,,,,,ストロングリアルエステートフォー,0
873,4160002005580,登記記録の閉鎖等,0,2024-09-12,2024-09-11,有限会社サンサンサンマル,,有限会社,滋賀県,甲賀市,甲南町希望ケ丘本町２丁目２５０１番地の９３,,25,209,5203332,,,2024-09-11,清算の結了等,,,2015-10-05,1,,,,,サンサンサンマル,0
880,4180002069376,登記記録の閉鎖等,0,2024-09-12,2024-09-03,有限会社武山介護プランニング,,有限会社,愛知県,小牧市,外堀１丁目１８８番地,,23,219,4850039,,,2024-09-03,清算の結了等,,,2015-10-05,1,,,,,タケヤマカイゴプランニング,0
896,4250002020199,登記記録の閉鎖等,0,2024-09-12,2024-09-09,有限会社山口アウトドアスポーツネットワーク,,有限会社,山口県,岩国市,錦町広瀬５７７２番地３,,35,208,7400724,,,2024-09-09,清算の結了等,,,2015-10-05,1,,,,,ヤマグチアウトドアスポーツネットワーク,0
903,4270005002201,登記記録の閉鎖等,0,2024-09-12,2024-09-10,医療法人板倉整形脳外科医院,,その他の設立登記法人,鳥取県,八頭郡八頭町,郡家５９５番地５,,31,329,6800461,,,2024-09-10,清算の結了等,,,2015-10-05,1,,,,,イタクラセイケイノウゲカイイン,0
905,4290001090149,登記記録の閉鎖等,0,2024-09-12,2024-08-06,株式会社スグマタネ,,株式会社,福岡県,春日市,惣利６丁目１２７,,40,218,8160813,,,2024-08-06,清算の結了等,,,2020-09-15,1,,,,,スグマタネ,0
917,4340001016610,登記記録の閉鎖等,0,2024-09-12,2024-09-06,株式会社奄美大和太陽いっぱい,,株式会社,鹿児島県,大島郡大和村,大字志戸勘３８６番地,,46,523,8943213,,,2024-09-06,清算の結了等,,,2015-10-05,1,,,,,アマミヤマトタイヨウイッパイ,0
919,4340003004448,登記記録の閉鎖等,0,2024-09-12,2024-09-09,合同会社ゆらおうあまみ,,合同会社,鹿児島県,大島郡瀬戸内町,大字阿木名４４６－１シャトー渡辺Ａ－１０２,,46,525,8941511,,,2024-09-09,清算の結了等,,,2024-04-23,1,,,,,ユラオウアマミ,0
920,4350005005633,登記記録の閉鎖等,0,2024-09-12,2024-08-16,一般社団法人開発創生サービス,,その他の設立登記法人,宮崎県,延岡市,土々呂町４丁目４２９１番地,,45,203,8890513,,,2024-08-16,清算の結了等,,,2016-08-25,1,,,,,カイハツソウセイサービス,0
932,4430002012640,登記記録の閉鎖等,0,2024-09-12,2024-09-05,有限会社田村商事,,有限会社,北海道,札幌市豊平区,月寒東二条３丁目１０番１３号,,01,105,0620052,,,2024-09-05,清算の結了等,,,2015-10-05,1,,,,,タムラショウジ,0
935,4450001005478,登記記録の閉鎖等,0,2024-09-12,2024-09-04,株式会社アジアンコミニュケーションズ,,株式会社,北海道,旭川市,緑が丘五条３丁目２番地の２１,,01,204,0788305,,,2024-09-04,清算の結了等,,,2015-10-05,1,,,,,アジアンコミニュケーションズ,0
952,5010002047158,登記記録の閉鎖等,0,2024-09-12,2024-08-22,有限会社ハイブリッヂ・オペレーション,,有限会社,東京都,港区,東麻布３丁目２番１号,,13,103,1060044,,,2024-08-22,清算の結了等,,,2015-10-05,1,,,,,ハイブリッジオペレーション,0
956,5010401067954,登記記録の閉鎖等,0,2024-09-12,2024-09-02,株式会社ワイズリビング,,株式会社,東京都,港区,赤坂２丁目１６番５号,,13,103,1070052,,,2024-09-02,合併による解散等,5010401058474,令和６年９月１日東京都港区赤坂二丁目１６番５号株式会社ＢＩＧサービス（5010401058474）に合併し解散,2015-10-05,1,,,,,ワイズリビング,0
958,5010401136222,登記記録の閉鎖等,0,2024-09-12,2024-08-21,株式会社ハヤルカ,,株式会社,東京都,港区,六本木７丁目７番７号,,13,103,1060032,,,2024-08-21,清算の結了等,,,2018-02-13,1,,,,,ハヤルカ,0
966,5010405011909,登記記録の閉鎖等,0,2024-09-12,2024-09-06,一般社団法人ＣＨメザニンホールディングス,,その他の設立登記法人,東京都,中央区,銀座２丁目１０番８号マニエラ銀座ビル４階,,13,102,1040061,,,2024-09-06,清算の結了等,,,2015-10-05,1,,,,,シーエイチメザニンホールディングス,0
1010,5012302001356,登記記録の閉鎖等,0,2024-09-12,2024-09-05,有限会社勝見商事,,有限会社,東京都,町田市,南成瀬６丁目４番地１８ペアシティーＤ－８,,13,209,1940045,,,2024-09-05,清算の結了等,,,2015-10-05,1,,,,,,0
1020,5020001023464,登記記録の閉鎖等,0,2024-09-12,2024-08-09,株式会社須藤事務所,,株式会社,神奈川県,横浜市神奈川区,鶴屋町３丁目３１番５号久保田ビル７階,,14,102,2210835,,,2024-08-09,合併による解散等,7020001039104,令和６年８月１日横浜市神奈川区鶴屋町三丁目３１番５号久保田ビル７階株式会社須藤事務所（7020001039104）に合併し解散,2015-10-05,1,,,,,スドウジムショ,0
1032,5020003018586,登記記録の閉鎖等,0,2024-09-12,2024-08-14,合同会社ＰＵＭＰ,,合同会社,神奈川県,川崎市高津区,溝口２丁目７番１８号ＫＴビーンズ３０５号,,14,134,2130001,,,2024-08-14,清算の結了等,,,2020-10-06,1,,,,,パンプ,0
1048,5030002047528,登記記録の閉鎖等,0,2024-09-12,2024-09-06,戸田水道工業有限会社,,有限会社,埼玉県,八潮市,中央１丁目１２番地８,,11,234,3400816,,,2024-09-06,清算の結了等,,,2015-10-05,1,,,,,トダスイドウコウギョウ,0
1050,5040001037058,登記記録の閉鎖等,0,2024-09-12,2024-09-05,ムトウ化工紙株式会社,,株式会社,千葉県,松戸市,根本１９９番地,,12,207,2710077,,,2024-09-05,清算の結了等,,,2015-10-05,1,,,,,ムトウカコウシ,0
1068,5120001041778,登記記録の閉鎖等,0,2024-09-12,2024-09-09,エヌ・ティ・ティ・システム技研株式会社,,株式会社,大阪府,大阪市西区,西本町１丁目１１番９号,,27,106,5500005,,,2024-09-09,合併による解散等,2010001095739,令和６年９月１日東京都中央区日本橋本町四丁目８番１４号東京コンピュータサービス株式会社（2010001095739）に合併し解散,2015-10-05,1,,,,,エヌティティシステムギケン,0
1075,5120101040192,登記記録の閉鎖等,0,2024-09-12,2024-09-06,丸泉タオル株式会社,,株式会社,大阪府,泉佐野市,中庄２５７番地,,27,213,5980002,,,2024-09-06,清算の結了等,,,2015-10-05,1,,,,,マルセンタオル,0
1086,5140001028963,登記記録の閉鎖等,0,2024-09-12,2024-09-10,株式会社扶桑ファシリティーズ,,株式会社,兵庫県,神戸市灘区,大石東町５丁目８番１号,,28,102,6570043,,,2024-09-10,清算の結了等,,,2015-10-05,1,,,,,フソウファシリティーズ,0
1088,5140001039787,登記記録の閉鎖等,0,2024-09-12,2024-09-09,株式会社興和,,株式会社,兵庫県,相生市,大島町３番１５号,,28,208,6780052,,,2024-09-09,清算の結了等,,,2015-10-05,1,,,,,コウワ,0
1090,5140003013600,登記記録の閉鎖等,0,2024-09-12,2024-09-06,合同会社Ｓｔｒｏｎｇ　Ｒｅａｌ　Ｅｓｔａｔｅ３,,合同会社,兵庫県,神戸市中央区,江戸町９６番地ストロングビルディング,,28,110,6500033,,,2024-09-06,清算の結了等,,,2019-01-16,1,,,,,ストロングリアルエステートスリー,0
1094,5150001011159,登記記録の閉鎖等,0,2024-09-12,2024-09-10,株式会社米藤商店,,株式会社,奈良県,磯城郡田原本町,６３８番地,,29,363,6360300,,,2024-09-10,清算の結了等,,,2015-10-05,1,,,,,コメトウショウテン,0
1102,5180002034081,登記記録の閉鎖等,0,2024-09-12,2024-09-03,有限会社州茂,,有限会社,愛知県,名古屋市守山区,新守西５１１番地,,23,113,4630069,,,2024-09-03,清算の結了等,,,2015-10-05,1,,,,,クニシゲ,0
1105,5180301032835,登記記録の閉鎖等,0,2024-09-12,2024-09-04,株式会社ＪＤ企画,,株式会社,愛知県,豊橋市,花中町３０番地１２,,23,201,4418032,,,2024-09-04,清算の結了等,,,2019-08-06,1,,,,,ジェイディーキカク,0
1122,5250001018978,登記記録の閉鎖等,0,2024-09-12,2024-09-05,株式会社優拓通商,,株式会社,山口県,柳井市,伊陸７２９番地,,35,212,7420201,,,2024-09-05,清算の結了等,,,2021-07-07,1,,,,,ユウタクツウショウ,0
1125,5290001016747,登記記録の閉鎖等,0,2024-09-12,2024-08-06,松本製本株式会社,,株式会社,福岡県,福岡市博多区,千代５丁目１７番１号,,40,132,8120044,,,2024-08-06,清算の結了等,,,2015-10-05,1,,,,,マツモトセイホン,0
1126,5290001062163,登記記録の閉鎖等,0,2024-09-12,2024-07-11,株式会社筑前キャステック,,株式会社,福岡県,福岡市東区,原田１丁目４７番１６－５０８号,,40,131,8120063,,,2024-07-11,清算の結了等,,,2015-10-05,1,,,,,チクゼンキャステック,0
1128,5290002000733,登記記録の閉鎖等,0,2024-09-12,2024-08-07,富動物病院有限会社,,有限会社,福岡県,福岡市西区,横浜１丁目４５番５号,,40,135,8190166,,,2024-08-07,清算の結了等,,,2015-10-05,1,,,,,トミドウブツビョウイン,0
1144,5410003000447,登記記録の閉鎖等,0,2024-09-12,2024-09-05,合資会社文次,,合資会社,秋田県,秋田市,大町５丁目１番１４号,,05,201,0100921,,,2024-09-05,清算の結了等,,,2015-10-05,1,,,,,ブンジ,0
1149,5460001000527,登記記録の閉鎖等,0,2024-09-12,2024-09-09,株式会社釧路林自工,,株式会社,北海道,釧路市,鳥取南７丁目２番地１７,,01,206,0840905,,,2024-09-09,合併による解散等,2430001013609,令和６年９月１日札幌市白石区本通十一丁目南７番９号林興業株式会社（2430001013609）に合併し解散,2015-10-05,1,,,,,クシロハヤシジコウ,0
1153,5500001005942,登記記録の閉鎖等,0,2024-09-12,2024-09-06,株式会社ＳＴ企画,,株式会社,愛媛県,松山市,南吉田町１８６１番地１１,,38,201,7918042,,,2024-09-06,清算の結了等,,,2015-10-05,1,,,,,エスティーキカク,0
1158,6010001226876,登記記録の閉鎖等,0,2024-09-12,2024-08-30,株式会社ＮｕｒｓｅＤｏｏｒｓ,,株式会社,東京都,千代田区,丸の内２丁目３－２郵船ビルディング１階,,13,101,1000005,,,2024-08-30,清算の結了等,,,2022-05-26,1,,,,,ナースドアーズ,0
1168,6010002047157,登記記録の閉鎖等,0,2024-09-12,2024-08-22,有限会社ピーアイエム,,有限会社,東京都,港区,東麻布３丁目２番１号,,13,103,1060044,,,2024-08-22,清算の結了等,,,2015-10-05,1,,,,,ピーアイエム,0
1186,6010403028359,登記記録の閉鎖等,0,2024-09-12,2024-08-21,大阪ロジスティクス２合同会社,,合同会社,東京都,港区,六本木１丁目６番１号泉ガーデンタワー,,13,103,1060032,,,2024-08-21,清算の結了等,,,2022-09-02,1,,,,,オオサカロジスティクスツー,0
1192,6010405022302,登記記録の閉鎖等,0,2024-09-12,2024-09-02,アーキス外国法事務弁護士法人,,その他の設立登記法人,東京都,港区,六本木６丁目１０番１号六本木ヒルズ森タワー２３階（Ｗ１１７－Ｗ１２４）,,13,103,1060032,,,2024-09-02,清算の結了等,,,2023-07-05,1,,,,,アーキス,0
1194,6010501018749,登記記録の閉鎖等,0,2024-09-12,2024-09-09,エスカム株式会社,,株式会社,東京都,台東区,東上野６丁目１０番８号,,13,106,1100015,,,2024-09-09,清算の結了等,,,2015-10-05,1,,,,,エスカム,0
1208,6010902025757,登記記録の閉鎖等,0,2024-09-12,2024-09-09,有限会社ハンズオン,,有限会社,東京都,世田谷区,祖師谷３丁目２８番２メゾンドシルキーＡ号,,13,112,1570072,,,2024-09-09,清算の結了等,,,2015-10-05,1,,,,,,0
1227,6011201012414,登記記録の閉鎖等,0,2024-09-12,2024-09-10,株式会社ソレイマン,,株式会社,東京都,中野区,弥生町４丁目２番１５号,,13,114,1640013,,,2024-09-10,清算の結了等,,,2015-10-05,1,,,,,ソレイマン,0
1229,6011401003709,登記記録の閉鎖等,0,2024-09-12,2024-09-05,八潮清算株式会社,,株式会社,埼玉県,八潮市,中央２丁目１０番地２,,11,234,3400816,,,2024-09-05,清算の結了等,,,2015-10-05,1,,,,,ヤシオセイサン,0
1237,6011701002253,登記記録の閉鎖等,0,2024-09-12,2024-09-09,川崎運送株式会社,00056393,株式会社,東京都,江戸川区,西葛西１丁目２番５号,,13,123,1340088,,,2024-09-09,清算の結了等,,,2015-10-05,1,,,,,カワサキウンソウ,0
1249,6020001076412,登記記録の閉鎖等,0,2024-09-12,2024-08-28,株式会社マタハリーゲーミング,,株式会社,神奈川県,川崎市幸区,堀川町５８０番地１６,,14,132,2120013,,,2024-08-28,清算の結了等,,,2015-10-05,1,,,,,マタハリーゲーミング,0
1253,6020001112745,登記記録の閉鎖等,0,2024-09-12,2024-08-30,株式会社船本技研,,株式会社,神奈川県,横浜市港北区,下田町５丁目３７番１７－３０２号,,14,109,2230064,,,2024-08-30,清算の結了等,,,2015-10-05,1,,,,,フナモトギケン,0
1270,6021002006556,登記記録の閉鎖等,0,2024-09-12,2024-09-10,有限会社湘南機工,,有限会社,神奈川県,藤沢市,羽鳥２丁目１７番１４－４０２号,,14,205,2510056,,,2024-09-10,清算の結了等,,,2015-10-05,1,,,,,ショウナンキコウ,0
1276,6030001133575,登記記録の閉鎖等,0,2024-09-12,2024-09-06,株式会社メタルマニア,,株式会社,埼玉県,さいたま市中央区,上落合２丁目３番２号,,11,105,3380001,,,2024-09-06,清算の結了等,,,2019-11-06,1,,,,,メタルマニア,0
1287,6040001131727,登記記録の閉鎖等,0,2024-09-12,2024-09-05,縁の庭株式会社,,株式会社,千葉県,成田市,花崎町８１６ラ・エント成田５Ｆ,,12,211,2860033,,,2024-09-05,清算の結了等,,,2024-01-15,1,,,,,エンノニワ,0
1292,6040002095896,登記記録の閉鎖等,0,2024-09-12,2024-09-05,有限会社ケルン,,有限会社,千葉県,柏市,柏３丁目１番１－１４０２号,,12,217,2770005,,,2024-09-05,清算の結了等,,,2015-10-05,1,,,,,ケルン,0
1295,6050001007042,登記記録の閉鎖等,0,2024-09-12,2024-09-06,株式会社ＨＩＹ,,株式会社,茨城県,ひたちなか市,阿字ケ浦町２１８番地の３,,08,221,3111201,,,2024-09-06,清算の結了等,,,2015-10-05,1,,,,,エイチアイワイ,0
1300,6060003003294,登記記録の閉鎖等,0,2024-09-12,2024-09-04,テックインターナショナル合同会社,,合同会社,栃木県,宇都宮市,天神２丁目４番３９号,,09,201,3200816,,,2024-09-04,清算の結了等,,,2020-02-14,1,,,,,テックインターナショナル,0
1301,6070001028862,登記記録の閉鎖等,0,2024-09-12,2024-09-10,株式会社ＥＸ－ｃｅｌ　Ａｕｔｏ　Ｇａｒａｇｅ,,株式会社,群馬県,前橋市,天川大島町２丁目１４番地１６,,10,201,3792154,,,2024-09-10,清算の結了等,,,2015-10-05,1,,,,,エクセルオートガレージ,0
1303,6070005010156,登記記録の閉鎖等,0,2024-09-12,2024-09-10,一般社団法人全国障害者就労支援機構,,その他の設立登記法人,群馬県,吾妻郡東吾妻町,大字郷原６９３番地１,,10,429,3770811,,,2024-09-10,清算の結了等,,,2023-08-07,1,,,,,ゼンコクショウガイシャシュウロウシエンキコウ,0
1306,6080101014043,登記記録の閉鎖等,0,2024-09-12,2024-09-09,株式会社みつばち自動車,,株式会社,静岡県,伊東市,吉田３９６番地,,22,208,4140051,,,2024-09-09,清算の結了等,,,2015-10-05,1,,,,,,0
1322,6120001152310,登記記録の閉鎖等,0,2024-09-12,2024-09-10,株式会社石川数学塾大阪,,株式会社,大阪府,寝屋川市,香里新町２９番１３号,,27,215,5720085,,,2024-09-10,清算の結了等,,,2015-10-05,1,,,,,イシカワスウガクジュクオオサカ,0
1331,6120002049860,登記記録の閉鎖等,0,2024-09-12,2024-09-10,有限会社橋本合成工業所,,有限会社,大阪府,大阪市東住吉区,山坂５丁目１４番７－１１１１号,,27,121,5460035,,,2024-09-10,清算の結了等,,,2015-10-05,1,,,,,ハシモトゴウセイコウギョウショ,0
1349,6140001026454,登記記録の閉鎖等,0,2024-09-12,2024-09-06,株式会社神戸建装社,,株式会社,兵庫県,神戸市長田区,苅藻島町３丁目５番２４号,,28,106,6530033,,,2024-09-06,清算の結了等,,,2015-10-05,1,,,,,コウベケンソウシャ,0
1350,6140001097388,登記記録の閉鎖等,0,2024-09-12,2024-09-09,株式会社Ｍ＆Ｍコーポレーション,,株式会社,兵庫県,西宮市,川西町１５番６号－２０１,,28,204,6620951,,,2024-09-09,清算の結了等,,,2015-10-05,1,,,,,,0
1352,6140001101711,登記記録の閉鎖等,0,2024-09-12,2024-09-09,販促計画株式会社,,株式会社,兵庫県,神戸市須磨区,東落合３丁目３６番１５号,,28,107,6540152,,,2024-09-09,清算の結了等,,,2016-04-14,1,,,,,ハンソクケイカク,0
1355,6140001133457,登記記録の閉鎖等,0,2024-09-12,2024-09-06,株式会社森田アセット,,株式会社,兵庫県,川西市,一庫１丁目２番６号,,28,217,6660153,,,2024-09-06,清算の結了等,,,2024-03-15,1,,,,,モリタアセット,0
1357,6140003013252,登記記録の閉鎖等,0,2024-09-12,2024-09-09,合同会社Ｓｌｉｄｅ,,合同会社,兵庫県,姫路市,駅前町２２９,,28,201,6700927,,,2024-09-09,清算の結了等,,,2018-08-17,1,,,,,スライド,0
1360,6180001030948,登記記録の閉鎖等,0,2024-09-12,2024-09-03,株式会社曽我工務店,,株式会社,愛知県,名古屋市中村区,中村本町３丁目６９番地,,23,105,4530828,,,2024-09-03,清算の結了等,,,2015-10-05,1,,,,,ソガコウムテン,0
1381,6250001008549,登記記録の閉鎖等,0,2024-09-12,2024-09-06,株式会社オフィス・ハーツ,,株式会社,山口県,美祢市,大嶺町東分３７２番地５村田ビル２０２,,35,213,7592212,,,2024-09-06,清算の結了等,,,2015-10-05,1,,,,,オフィスハーツ,0
1383,6250002017846,登記記録の閉鎖等,0,2024-09-12,2024-09-09,有限会社沖本建設,,有限会社,山口県,岩国市,御庄３丁目１０２番地の１４,,35,208,7410083,,,2024-09-09,清算の結了等,,,2015-10-05,1,,,,,オキモトケンセツ,0
1403,6400002004465,登記記録の閉鎖等,0,2024-09-12,2024-09-02,有限会社岩開プランニング,,有限会社,岩手県,盛岡市,天昌寺町２番６号,,03,201,0200137,,,2024-09-02,合併による解散等,3400001000113,令和６年９月１日岩手県盛岡市上堂三丁目１８番３３号株式会社岩手開発測量設計（3400001000113）に合併し解散,2015-10-05,1,,,,,イワカイプランニング,0
1417,7010001088762,登記記録の閉鎖等,0,2024-09-12,2024-09-05,ロワ・ペリューク株式会社,,株式会社,東京都,中央区,銀座３丁目１２番１７号,,13,102,1040061,,,2024-09-05,清算の結了等,,,2015-10-05,1,,,,,ロワペリューク,0
1418,7010001127529,登記記録の閉鎖等,0,2024-09-12,2024-09-09,ヘルシーライフ株式会社,,株式会社,東京都,中央区,日本橋小伝馬町１５番１８,,13,102,1030001,,,2024-09-09,合併による解散等,1430001044308,令和６年９月１日北海道恵庭市恵み野北三丁目１番１３日生バイオ株式会社（1430001044308）に合併し解散,2015-10-05,1,,,,,ヘルシーライフ,0
1419,7010001127751,登記記録の閉鎖等,0,2024-09-12,2024-09-11,株式会社アミティエ,,株式会社,東京都,墨田区,千歳２丁目１０番３号,,13,107,1300025,,,2024-09-11,清算の結了等,,,2015-10-05,1,,,,,アミティエ,0
1422,7010001215226,登記記録の閉鎖等,0,2024-09-12,2024-08-27,エス・ティ・エ株式会社,,株式会社,東京都,千代田区,神田佐久間町１丁目８番４号アルテール秋葉原７０８,,13,101,1010025,,,2024-08-27,清算の結了等,,,2021-02-16,1,,,,,エスティエ,0
1475,7011302006082,登記記録の閉鎖等,0,2024-09-12,2024-09-09,有限会社帝王電業社,,有限会社,東京都,世田谷区,南烏山３丁目１３番２２号３０１,,13,112,1570062,,,2024-09-09,清算の結了等,,,2015-10-05,1,,,,,テイオウデンギョウシャ,0
1481,7011502009224,登記記録の閉鎖等,0,2024-09-12,2024-09-09,有限会社鈴木地銅店,,有限会社,東京都,荒川区,東尾久１丁目３５番９号,,13,118,1160012,,,2024-09-09,清算の結了等,,,2015-10-05,1,,,,,スズキジドウテン,0
1488,7011701001329,登記記録の閉鎖等,0,2024-09-12,2024-09-04,朝日紙工株式会社,,株式会社,東京都,江戸川区,平井７丁目１９番５号,,13,123,1320035,,,2024-09-04,清算の結了等,,,2015-10-05,1,,,,,アサヒシコウ,0
1489,7011703001178,登記記録の閉鎖等,0,2024-09-12,2024-09-06,合同会社ｇｕａｒｄｉａｎｓ,,合同会社,東京都,江戸川区,平井１丁目１６番２４号,,13,123,1320035,,,2024-09-06,清算の結了等,,,2015-10-05,1,,,,,ガーディアンズ,0
1491,7011802010212,登記記録の閉鎖等,0,2024-09-12,2024-09-06,有限会社ヱーケー社,,有限会社,東京都,足立区,千住東１丁目１１番９号,,13,121,1200025,,,2024-09-06,清算の結了等,,,2015-10-05,1,,,,,エーケーシャ,0
1520,7021002036346,登記記録の閉鎖等,0,2024-09-12,2024-09-11,有限会社中村工芸,,有限会社,神奈川県,愛甲郡愛川町,三増１３８３番地１,,14,401,2430308,,,2024-09-11,清算の結了等,,,2015-10-05,1,,,,,ナカムラコウゲイ,0
1535,7040001082548,登記記録の閉鎖等,0,2024-09-12,2024-08-01,エドワード・ルイス株式会社,,株式会社,千葉県,千葉市緑区,おゆみ野中央１丁目１２番地２５６,,12,105,2660032,,,2024-08-01,合併による解散等,6040003009822,令和６年８月１日千葉市緑区おゆみ野中央一丁目１２番地２５６合同会社市川プロパティ（6040003009822）に合併し解散,2015-10-05,1,,,,,エドワードルイス,0
1537,7040001085328,登記記録の閉鎖等,0,2024-09-12,2024-09-04,株式会社嘉瀬工務店,,株式会社,千葉県,鎌ケ谷市,中沢１３３７番地,,12,224,2730118,,,2024-09-04,清算の結了等,,,2015-10-05,1,,,,,カセコウムテン,0
1547,7050001027502,登記記録の閉鎖等,0,2024-09-12,2024-09-05,株式会社常竜,,株式会社,茨城県,取手市,駒場３丁目６番１０号,,08,217,3020027,,,2024-09-05,清算の結了等,,,2015-10-05,1,,,,,ジョウリュウ,0
1551,7050003007675,登記記録の閉鎖等,0,2024-09-12,2024-09-05,合同会社サイゴン,,合同会社,茨城県,下妻市,本城町２丁目１９番地,,08,210,3040064,,,2024-09-05,清算の結了等,,,2023-07-31,1,,,,,サイゴン,0
1566,7080401001401,登記記録の閉鎖等,0,2024-09-12,2024-09-11,株式会社ポストアンドビーム,,株式会社,静岡県,浜松市浜名区,細江町気賀８３７７番地の１,,22,139,4311305,,,2024-09-11,清算の結了等,,,2015-10-05,1,,,,,ポストアンドビーム,0
1567,7080401005253,登記記録の閉鎖等,0,2024-09-12,2024-09-05,株式会社三浦製毛,,株式会社,静岡県,浜松市中央区,南浅田２丁目１９番１号,,22,138,4328044,,,2024-09-05,清算の結了等,,,2015-10-05,1,,,,,ミウラセイモウ,0
1573,7080405004887,登記記録の閉鎖等,0,2024-09-12,2024-09-05,医療法人社団阿部クリニック,,その他の設立登記法人,静岡県,御前崎市,池新田３５４３番地,,22,223,4371612,,,2024-09-05,清算の結了等,,,2015-10-05,1,,,,,アベクリニック,0
1594,7120901002943,登記記録の閉鎖等,0,2024-09-12,2024-09-09,株式会社ダイトーウイング,,株式会社,大阪府,吹田市,豊津町１４番１２号,,27,205,5640051,,,2024-09-09,清算の結了等,,,2015-10-05,1,,,,,ダイトーウイング,0
1602,7140001077843,登記記録の閉鎖等,0,2024-09-12,2024-09-04,株式会社ミヤケコーポレーション,,株式会社,兵庫県,姫路市,飾磨区阿成植木１０４０番地３,,28,201,6728030,,,2024-09-04,清算の結了等,,,2015-10-05,1,,,,,ミヤケコーポレーション,0
1606,7140002000432,登記記録の閉鎖等,0,2024-09-12,2024-08-29,有限会社三樂,,有限会社,兵庫県,芦屋市,宮塚町１５番５号,,28,206,6590062,,,2024-08-29,清算の結了等,,,2015-10-05,1,,,,,,0
1609,7170001000827,登記記録の閉鎖等,0,2024-09-12,2024-09-11,株式会社きたかわ商店,,株式会社,和歌山県,和歌山市,東紺屋町７７番地,,30,201,6408115,,,2024-09-11,清算の結了等,,,2015-10-05,1,,,,,キタカワショウテン,0
1631,7260002011392,登記記録の閉鎖等,0,2024-09-12,2024-09-04,有限会社キューブ,,有限会社,岡山県,赤磐市,町苅田２７３番地,,33,213,7012222,,,2024-09-04,清算の結了等,,,2015-10-05,1,,,,,キューブ,0
1636,7290001086953,登記記録の閉鎖等,0,2024-09-12,2024-08-02,株式会社レリッシュ,,株式会社,福岡県,糟屋郡志免町,田富２丁目４番１０号,,40,343,8112204,,,2024-08-02,清算の結了等,,,2019-10-30,1,,,,,レリッシュ,0
1639,7290002011134,登記記録の閉鎖等,0,2024-09-12,2024-08-06,重弘興産有限会社,,有限会社,福岡県,福岡市中央区,鳥飼３丁目１１番１２号,,40,133,8100053,,,2024-08-06,清算の結了等,,,2015-10-05,1,,,,,シゲヒロコウサン,0
1646,7340001002871,登記記録の閉鎖等,0,2024-09-12,2024-09-06,田田産業株式会社,,株式会社,鹿児島県,鹿児島市,平川町３８６７の１,,46,201,8910133,,,2024-09-06,清算の結了等,,,2015-10-05,1,,,,,デンデンサンギョウ,0
1651,7350005001002,登記記録の閉鎖等,0,2024-09-12,2024-09-09,医療法人むつみ会,,その他の設立登記法人,宮崎県,宮崎市,別府町４番３０号,,45,201,8800802,,,2024-09-09,清算の結了等,,,2015-10-05,1,,,,,ムツミカイ,0
1661,7420005007693,登記記録の閉鎖等,0,2024-09-12,2024-09-03,一般社団法人未来貢献塾ＧＬＩ,,その他の設立登記法人,青森県,八戸市,大字糠塚字柳ノ下３番地３,,02,203,0310022,,,2024-09-03,清算の結了等,,,2020-06-04,1,,,,,ミライコウケンジュクジーエルアイ,0
1669,7430005010746,登記記録の閉鎖等,0,2024-09-12,2024-09-06,公益社団法人北海道農業改良普及協会,,その他の設立登記法人,北海道,札幌市中央区,北三条西７丁目１番地,,01,101,0600003,,,2024-09-06,清算の結了等,,,2015-10-05,1,,,,,ホッカイドウノウギョウカイリョウフキュウキョウカイ,0
1704,8010501049148,登記記録の閉鎖等,0,2024-09-12,2024-09-10,株式会社プロップイチムラ,,株式会社,東京都,台東区,浅草橋１丁目９番１６号日東ビル９階,,13,106,1110053,,,2024-09-10,清算の結了等,,,2022-07-26,1,,,,,プロップイチムラ,0
1708,8010701015585,登記記録の閉鎖等,0,2024-09-12,2024-09-05,株式会社エイ・ジー・アイ,,株式会社,東京都,品川区,南大井１丁目１０番９号斎藤ビル１階,,13,109,1400013,,,2024-09-05,清算の結了等,,,2015-10-05,1,,,,,エイジーアイ,0
1714,8011001006812,登記記録の閉鎖等,0,2024-09-12,2024-08-20,株式会社クロイツクリイゲル,,株式会社,東京都,港区,海岸３丁目２０番２０号,,13,103,1080022,,,2024-08-20,清算の結了等,,,2015-10-05,1,,,,,クロイツクリイゲル,0
1739,8011801033931,登記記録の閉鎖等,0,2024-09-12,2024-09-06,株式会社イノマサ,,株式会社,東京都,足立区,古千谷本町１丁目６番２０号,,13,121,1210832,,,2024-09-06,清算の結了等,,,2017-10-06,1,,,,,イノマサ,0
1744,8012701009014,登記記録の閉鎖等,0,2024-09-12,2024-09-04,株式会社ＧＯＡ,,株式会社,東京都,小平市,小川東町５丁目１８番８号,,13,211,1870031,,,2024-09-04,清算の結了等,,,2015-10-05,1,,,,,ゴア,0
1748,8013301028098,登記記録の閉鎖等,0,2024-09-12,2024-09-09,株式会社オフィストゥルーワン,,株式会社,東京都,豊島区,南長崎５丁目２番１６号,,13,116,1710052,,,2024-09-09,清算の結了等,,,2015-10-05,1,,,,,オフィストゥルーワン,0
1762,8020002041603,登記記録の閉鎖等,0,2024-09-12,2024-08-30,有限会社エムアンドアール,,有限会社,神奈川県,横浜市港南区,港南台８丁目３番９号,,14,111,2340054,,,2024-08-30,清算の結了等,,,2015-10-05,1,,,,,エムアンドアール,0
1763,8020002047443,登記記録の閉鎖等,0,2024-09-12,2024-08-30,有限会社ヘアーサロンヘンミ,,有限会社,神奈川県,横浜市磯子区,上中里町３５６番地,,14,107,2350042,,,2024-08-30,清算の結了等,,,2015-10-05,1,,,,,ヘアーサロンヘンミ,0
1766,8020002085930,登記記録の閉鎖等,0,2024-09-12,2024-08-29,有限会社エレックス,,有限会社,神奈川県,川崎市宮前区,東有馬３丁目３番２号,,14,136,2160002,,,2024-08-29,清算の結了等,,,2015-10-05,1,,,,,エレックス,0
1773,8030001071922,登記記録の閉鎖等,0,2024-09-12,2024-09-05,株式会社みどり住販,,株式会社,埼玉県,比企郡滑川町,みなみ野２丁目１１番地５,,11,341,3550814,,,2024-09-05,清算の結了等,,,2015-10-05,1,,,,,ミドリジュウハン,0
1785,8030005008557,登記記録の閉鎖等,0,2024-09-12,2024-09-04,医療法人行定病院,,その他の設立登記法人,埼玉県,川越市,脇田本町４番地１３,,11,201,3501123,,,2024-09-04,清算の結了等,,,2015-10-05,1,,,,,ユキサダビョウイン,0
1792,8040005019883,登記記録の閉鎖等,0,2024-09-12,2024-09-05,特定非営利活動法人ＯＨＡＮＡ会,,その他の設立登記法人,千葉県,我孫子市,新木野３丁目３番１１号,,12,222,2701114,,,2024-09-05,清算の結了等,,,2018-02-28,1,,,,,オハナカイ,0
1806,8080401011829,登記記録の閉鎖等,0,2024-09-12,2024-09-05,株式会社グレイドワン,,株式会社,静岡県,浜松市中央区,半田町１６９３番地２,,22,138,4313124,,,2024-09-05,清算の結了等,,,2015-10-05,1,,,,,グレイドワン,0
1831,8120101048282,登記記録の閉鎖等,0,2024-09-12,2024-09-10,株式会社竹内コーポレーション,,株式会社,大阪府,松原市,西野々１丁目６番１１号,,27,217,5800004,,,2024-09-10,清算の結了等,,,2015-10-05,1,,,,,タケウチコーポレーション,0
1846,8140003013218,登記記録の閉鎖等,0,2024-09-12,2024-09-09,合同会社Ｓｃｉｖｏｌｏ,,合同会社,兵庫県,姫路市,駅前町２２９,,28,201,6700927,,,2024-09-09,清算の結了等,,,2018-08-03,1,,,,,シーボロ,0
1851,8150005003538,登記記録の閉鎖等,0,2024-09-12,2024-09-09,特定非営利活動法人アート寺子屋,,その他の設立登記法人,奈良県,天理市,柳本町１４７９番地,,29,204,6320052,,,2024-09-09,清算の結了等,,,2015-10-05,1,,,,,アートテラコヤ,0
1857,8180002066931,登記記録の閉鎖等,0,2024-09-12,2024-09-02,有限会社ネオチューブ,,有限会社,愛知県,春日井市,坂下町３丁目６５２番地の５,,23,206,4800305,,,2024-09-02,清算の結了等,,,2015-10-05,1,,,,,ネオチューブ,0
1862,8180302014227,登記記録の閉鎖等,0,2024-09-12,2024-09-04,有限会社豊屋布団店,,有限会社,愛知県,豊川市,西本町２５番地,,23,207,4420034,,,2024-09-04,清算の結了等,,,2015-10-05,1,,,,,ユタカヤフトンテン,0
1871,8220003002740,登記記録の閉鎖等,0,2024-09-12,2024-09-05,合同会社Ｔ．Ｍ,,合同会社,石川県,金沢市,米泉町６丁目５０番地５,,17,201,9218044,,,2024-09-05,清算の結了等,,,2020-02-04,1,,,,,ティードットエム,0
1880,8260002003109,登記記録の閉鎖等,0,2024-09-12,2024-09-04,有限会社玉扇,,有限会社,岡山県,岡山市中区,浜３７２番地１,,33,102,7038256,,,2024-09-04,清算の結了等,,,2015-10-05,1,,,,,ギョクセン,0
1881,8260002028568,登記記録の閉鎖等,0,2024-09-12,2024-09-04,有限会社末田工業所,,有限会社,岡山県,津山市,川崎５４１番地,,33,203,7080841,,,2024-09-04,清算の結了等,,,2015-10-05,1,,,,,スエダコウギョウショ,0
1883,8260005006513,登記記録の閉鎖等,0,2024-09-12,2024-09-06,県北上下水道協同組合,,その他の設立登記法人,岡山県,津山市,山北７６０番地の５,,33,203,7080004,,,2024-09-06,清算の結了等,,,2015-10-05,1,,,,,ケンホクジョウゲスイドウ,0
1888,8290002034159,登記記録の閉鎖等,0,2024-09-12,2024-08-05,有限会社美珠企販,,有限会社,福岡県,福津市,花見の里１丁目１０番２５号,,40,224,8113215,,,2024-08-05,清算の結了等,,,2015-10-05,1,,,,,ビジュキハン,0
1893,8290801016968,登記記録の閉鎖等,0,2024-09-12,2024-09-02,株式会社原田興産,,株式会社,福岡県,田川郡福智町,神崎５３番地１,,40,610,8221202,,,2024-09-02,合併による解散等,3290801010612,令和６年９月１日北九州市八幡西区東鳴水一丁目２番７号株式会社原田興産（3290801010612）に合併し解散,2015-10-05,1,,,,,ハラダコウサン,0
1899,8310005006417,登記記録の閉鎖等,0,2024-09-12,2024-09-06,協同組合アクト,,その他の設立登記法人,長崎県,松浦市,志佐町浦免１８０７番地,,42,208,8594501,,,2024-09-06,清算の結了等,,,2015-10-05,1,,,,,アクト,0
1903,8330003008974,登記記録の閉鎖等,0,2024-09-12,2024-09-03,合同会社スポ農Ｌａｂ,,合同会社,熊本県,上益城郡益城町,大字小池１６１１－１,,43,443,8612223,,,2024-09-03,清算の結了等,,,2021-07-12,1,,,,,スポノウラボ,0
1905,8340001021573,登記記録の閉鎖等,0,2024-09-12,2024-09-06,株式会社八十八農園,,株式会社,鹿児島県,垂水市,海潟１４５０番地イ号,,46,214,8912101,,,2024-09-06,清算の結了等,,,2018-11-02,1,,,,,ヤソヤノウエン,0
1908,8350001004619,登記記録の閉鎖等,0,2024-09-12,2024-09-09,株式会社ウィズダム,,株式会社,宮崎県,宮崎市,新別府町前浜１４０１番地２８１,,45,201,8800834,,,2024-09-09,清算の結了等,,,2015-10-05,1,,,,,ウィズダム,0
1923,8400001004274,登記記録の閉鎖等,0,2024-09-12,2024-09-02,株式会社アリメント,,株式会社,岩手県,紫波郡矢巾町,大字広宮沢第３地割７７番地３,,03,322,0283621,,,2024-09-02,清算の結了等,,,2015-10-05,1,,,,,アリメント,0
1936,8500001014800,登記記録の閉鎖等,0,2024-09-12,2024-09-06,株式会社ママイ,,株式会社,愛媛県,四国中央市,上分町４４２番地１,,38,213,7990121,,,2024-09-06,合併による解散等,2220001008745,令和６年９月１日石川県白山市松本町２５１２番地株式会社クスリのアオキ（2220001008745）に合併し解散,2015-10-05,1,,,,,ママイ,0
1937,8500001023917,登記記録の閉鎖等,0,2024-09-12,2024-09-06,ヘスジャパン株式会社,,株式会社,愛媛県,西条市,朔日市２２番地１,,38,206,7930027,,,2024-09-06,清算の結了等,,,2022-01-11,1,,,,,ヘスジャパン,0
1941,8500002023627,登記記録の閉鎖等,0,2024-09-12,2024-09-10,有限会社広見鶏卵,,有限会社,愛媛県,北宇和郡鬼北町,大字出目２１４７番地１,,38,488,7981332,,,2024-09-10,清算の結了等,,,2015-10-05,1,,,,,ヒロミケイラン,0
1960,9010401157116,登記記録の閉鎖等,0,2024-09-12,2024-08-21,株式会社Ｐｒｅｍｉｅｒ,,株式会社,東京都,港区,南青山５丁目８番１１号,,13,103,1070062,,,2024-08-21,清算の結了等,,,2020-12-14,1,,,,,プレミエ,0
1977,9010601042621,登記記録の閉鎖等,0,2024-09-12,2024-09-10,株式会社フードプランナー,,株式会社,東京都,墨田区,緑１丁目２番４－５０１号,,13,107,1300021,,,2024-09-10,清算の結了等,,,2015-10-05,1,,,,,フードプランナー,0
2021,9013103000535,登記記録の閉鎖等,0,2024-09-12,2024-09-11,合同会社いちごケア,,合同会社,東京都,福生市,志茂１８７番地,,13,218,1970023,,,2024-09-11,清算の結了等,,,2015-10-05,1,,,,,,0
2029,9020001078372,登記記録の閉鎖等,0,2024-09-12,2024-08-30,株式会社オメガセキュリティ,,株式会社,神奈川県,川崎市宮前区,白幡台１丁目１５番地８クレドール宮前平４０６,,14,136,2160025,,,2024-08-30,清算の結了等,,,2015-10-05,1,,,,,オメガセキュリティ,0
2030,9020001141493,登記記録の閉鎖等,0,2024-09-12,2024-08-28,株式会社グロースエアー,,株式会社,神奈川県,川崎市麻生区,栗平１丁目３番４号,,14,137,2150031,,,2024-08-28,清算の結了等,,,2021-05-28,1,,,,,グロースエアー,0
2036,9020002023162,登記記録の閉鎖等,0,2024-09-12,2024-08-26,有限会社インテリア峰,,有限会社,神奈川県,横浜市保土ケ谷区,宮田町１丁目５番７号,,14,106,2400002,,,2024-08-26,清算の結了等,,,2015-10-05,1,,,,,インテリアミネ,0
2050,9030001114903,登記記録の閉鎖等,0,2024-09-12,2024-09-06,株式会社ホワイト,,株式会社,埼玉県,川口市,南町１丁目４番４号,,11,203,3320026,,,2024-09-06,清算の結了等,,,2016-06-15,1,,,,,ホワイト,0
2061,9040003022707,登記記録の閉鎖等,0,2024-09-12,2024-09-04,合同会社サーフサイドヴィラ,,合同会社,千葉県,印西市,船尾１４６７番地４３,,12,231,2701345,,,2024-09-04,清算の結了等,,,2023-05-29,1,,,,,サーフサイドヴィラ,0
2068,9050002008854,登記記録の閉鎖等,0,2024-09-12,2024-09-06,株式会社ひたちフーズ,,株式会社,茨城県,ひたちなか市,阿字ケ浦町２１５番地の１,,08,221,3111201,,,2024-09-06,清算の結了等,,,2015-10-05,1,,,,,ヒタチフーズ,0
2074,9080101008240,登記記録の閉鎖等,0,2024-09-12,2024-09-05,エフケイ産業株式会社,,株式会社,静岡県,富士市,五貫島８１４番地,,22,210,4160946,,,2024-09-05,合併による解散等,1080101008041,令和６年９月１日静岡県富士市五貫島８１４番地株式会社アクト（1080101008041）に合併し解散,2015-10-05,1,,,,,エフケイサンギョウ,0
2075,9080102003810,登記記録の閉鎖等,0,2024-09-12,2024-09-09,有限会社蘭契社書店,,有限会社,静岡県,沼津市,本字松下七反田９０７番地２３,,22,203,4100867,,,2024-09-09,清算の結了等,,,2015-10-05,1,,,,,ランケイシャショテン,0
2128,9180002014939,登記記録の閉鎖等,0,2024-09-12,2024-09-03,有限会社宮本鈑金工業,,有限会社,愛知県,名古屋市南区,阿原町５１番地,,23,112,4570063,,,2024-09-03,清算の結了等,,,2015-10-05,1,,,,,ミヤモトバンキンコウギョウ,0
2136,9180301037789,登記記録の閉鎖等,0,2024-09-12,2024-09-02,ハタスエネルギー株式会社,,株式会社,愛知県,刈谷市,熊野町４丁目７５番地１,,23,210,4480831,,,2024-09-02,合併による解散等,2180301016683,令和６年９月１日愛知県刈谷市熊野町四丁目７５番地１ハタスパートナー株式会社（2180301016683）に合併し解散,2023-09-07,1,,,,,ハタスエネルギー,0
2137,9200002002593,登記記録の閉鎖等,0,2024-09-12,2024-09-10,有限会社総合企画,,有限会社,岐阜県,岐阜市,鏡島２０６４番地,,21,201,5010111,,,2024-09-10,清算の結了等,,,2015-10-05,1,,,,,ソウゴウキカク,0
2139,9210001000977,登記記録の閉鎖等,0,2024-09-12,2024-09-10,北村商事株式会社,,株式会社,福井県,福井市,御幸４丁目７番７号,,18,201,9100854,,,2024-09-10,清算の結了等,,,2015-10-05,1,,,,,キタムラショウジ,0
2143,9250001017142,登記記録の閉鎖等,0,2024-09-12,2024-09-10,株式会社タクミソーイング,,株式会社,山口県,宇部市,大字際波２４２０番地,,35,202,7590207,,,2024-09-10,合併による解散等,2360001006438,令和６年８月３１日岡山県倉敷市児島田の口一丁目３番４４号アクシーズ株式会社（2360001006438）に合併し解散,2018-05-25,1,,,,,タクミソーイング,0
2148,9290001032468,登記記録の閉鎖等,0,2024-09-12,2024-08-07,株式会社藤秀,,株式会社,福岡県,福岡市東区,多の津１丁目４番７号,,40,131,8130034,,,2024-08-07,清算の結了等,,,2015-10-05,1,,,,,フジヒデ,0
2161,9330002020005,登記記録の閉鎖等,0,2024-09-12,2024-09-06,有限会社藏本電工,,有限会社,熊本県,上益城郡益城町,大字小谷１２７８番地,,43,443,8612204,,,2024-09-06,清算の結了等,,,2015-10-05,1,,,,,クラモトデンコウ,0
2175,9370001007296,登記記録の閉鎖等,0,2024-09-12,2024-09-09,エヌ・ティ・ティ・システムサポート株式会社,,株式会社,宮城県,仙台市青葉区,二日町五丁目２９番地,,04,101,9800802,,,2024-09-09,合併による解散等,2010001095739,令和６年９月１日東京都中央区日本橋本町四丁目８番１４号東京コンピュータサービス株式会社（2010001095739）に合併し解散,2015-10-05,1,,,,,,0
2182,9400001013357,登記記録の閉鎖等,0,2024-09-12,2024-09-02,株式会社ロインズ,,株式会社,岩手県,紫波郡矢巾町,大字広宮沢第３地割４０９番地,,03,322,0283621,,,2024-09-02,清算の結了等,,,2016-09-06,1,,,,,ロインズ,0
2189,9430001029821,登記記録の閉鎖等,0,2024-09-12,2024-09-02,株式会社タマインターナショナル,,株式会社,北海道,札幌市中央区,北三条西２４丁目２番１２号,,01,101,0640823,,,2024-09-02,合併による解散等,2430001010341,令和６年９月１日札幌市中央区北三条西二十四丁目２番１２号チームタマ株式会社（2430001010341）に合併し解散,2015-10-05,1,,,,,タマインターナショナル,0
2192,9430001079222,登記記録の閉鎖等,0,2024-09-12,2024-09-05,株式会社ＡＬＢＡ　ＧＡＴＥ,,株式会社,北海道,札幌市中央区,北一条西１９丁目１番地７円山表参道小川ビル５Ｆ,,01,101,0600001,,,2024-09-05,清算の結了等,,,2019-06-24,1,,,,,アルバゲート,0
