sequenceNumber,corporateNumber,process,correct,updateDate,changeDate,name,nameImageId,kind,prefectureName,cityName,streetNumber,addressImageId,prefectureCode,cityCode,postCode,addressOutside,addressOutsideImageId,closeDate,closeCause,successorCorporateNumber,changeCause,assignmentDate,latest,enName,enPrefectureName,enCityName,enAddressOutside,furigana,hihyoji
2,1010001231476,新規,0,2022-12-14,2022-12-14,株式会社ＫＵＵ建築設計事務所,,株式会社,東京都,文京区,千駄木２丁目４７番５号,,13,105,1130022,,,,,,,2022-12-14,1,,,,,ケイユーユーケンチクセッケイジムショ,0
3,1010001231484,新規,0,2022-12-14,2022-12-14,ＩＦＣＨＯＲ　Ｊａｐａｎ株式会社,,株式会社,東京都,千代田区,丸の内２丁目３番２号,,13,101,1000005,,,,,,,2022-12-14,1,,,,,イフコールジャパン,0
4,1010001231501,新規,0,2022-12-14,2022-12-14,株式会社山野井,,株式会社,東京都,中央区,湊３丁目１１番５－８０１号,,13,102,1040043,,,,,,,2022-12-14,1,,,,,ヤマノイ,0
5,1010001231575,新規,0,2022-12-14,2022-12-14,株式会社リッチポート,,株式会社,東京都,中央区,日本橋蛎殻町２丁目１１番２号オートエックス工藤ビル４Ｆ,,13,102,1030014,,,,,,,2022-12-14,1,,,,,リッチポート,0
6,1010001231583,新規,0,2022-12-14,2022-12-14,株式会社スワン,,株式会社,東京都,千代田区,神田駿河台３丁目７番地９,,13,101,1010062,,,,,,,2022-12-14,1,,,,,スワン,0
9,1010003039273,新規,0,2022-12-14,2022-12-14,合同会社ホロクサミドリ,,合同会社,東京都,中央区,銀座１丁目１２番４号Ｎ＆ＥＢＬＤ．６Ｆ,,13,102,1040061,,,,,,,2022-12-14,1,,,,,ホロクサミドリ,0
10,1010101015457,新規,0,2022-12-14,2022-12-14,株式会社ＴＫＧ,,株式会社,東京都,八王子市,北野町５２１番地５,,13,201,1920906,,,,,,,2022-12-14,1,,,,,ティーケージー,0
14,1010401171280,新規,0,2022-12-14,2022-12-14,株式会社企画プロ,,株式会社,東京都,港区,芝浦１丁目６番４１号,,13,103,1050023,,,,,,,2022-12-14,1,,,,,キカクプロ,0
15,1010401171355,新規,0,2022-12-14,2022-12-14,株式会社日本電力調達ソリューション,,株式会社,東京都,港区,新橋３丁目９番１０号天翔新橋ビル２０１,,13,103,1050004,,,,,,,2022-12-14,1,,,,,ニホンデンリョクチョウタツソリューション,0
16,1010401171363,新規,0,2022-12-14,2022-12-14,株式会社ＫＩＤＯＬＩＮ　Ｂｅｅ,,株式会社,東京都,港区,三田３丁目１番２３号,,13,103,1080073,,,,,,,2022-12-14,1,,,,,キドーリンビー,0
20,1010503006814,新規,0,2022-12-14,2022-12-14,マリーナ合同会社,,合同会社,東京都,台東区,蔵前１丁目５－５－３０３,,13,106,1110051,,,,,,,2022-12-14,1,,,,,マリーナ,0
24,1010803004385,新規,0,2022-12-14,2022-12-14,九如合同会社,,合同会社,東京都,大田区,西糀谷１丁目９番１６－３０３号,,13,111,1440034,,,,,,,2022-12-14,1,,,,,キュウジョ,0
39,1011001151441,新規,0,2022-12-14,2022-12-14,株式会社ＥＯＴＥ,,株式会社,東京都,渋谷区,西原２丁目１１番８号,,13,113,1510066,,,,,,,2022-12-14,1,,,,,オート,0
40,1011001151482,新規,0,2022-12-14,2022-12-14,株式会社ｎｅｎａｒｏ,,株式会社,東京都,渋谷区,道玄坂１丁目１０－８,,13,113,1500043,,,,,,,2022-12-14,1,,,,,ネナロ,0
42,1011003015917,新規,0,2022-12-14,2022-12-14,合同会社つまみ細工花びら,,合同会社,東京都,渋谷区,恵比寿２丁目２８番１０号秀ビル２５９２,,13,113,1500013,,,,,,,2022-12-14,1,,,,,ツマミザイクハナビラ,0
43,1011005009867,新規,0,2022-12-14,2022-12-14,一般社団法人ＪＡＰＡＮ　ＦＡＣＴ　ＦＥＳ　ＰＲＯＪＥＣＴ,,その他の設立登記法人,東京都,渋谷区,恵比寿西１丁目３３番１４号,,13,113,1500021,,,,,,,2022-12-14,1,,,,,ジャパンファクトフェスプロジェクト,0
47,1011101101164,新規,0,2022-12-14,2022-12-14,Ｍｏｍｅｎｔｕｍ　Ｗｏｒｌｄｗｉｄｅ　Ｍｏｖｅｒｓ株式会社,,株式会社,東京都,新宿区,西新宿３丁目３－１３西新宿水間ビル６Ｆ,,13,104,1600023,,,,,,,2022-12-14,1,,,,,モメンタムワールドワイドムーバース,0
49,1011201024281,新規,0,2022-12-14,2022-12-14,明住化學工業株式会社,,株式会社,東京都,中野区,沼袋町１９５番地,,13,114,1640000,,,,,,,2022-12-14,1,,,,,メイジュウカガクコウギョウ,0
54,1011401024759,新規,0,2022-12-14,2022-12-14,株式会社代理販売ドットコム,,株式会社,東京都,板橋区,板橋３丁目３９－１０－Ｂ０１,,13,119,1730004,,,,,,,2022-12-14,1,,,,,ダイリハンバイドットコム,0
58,1012305002033,新規,0,2022-12-14,2022-12-14,一般社団法人ドナーリンク・ジャパン,,その他の設立登記法人,東京都,町田市,森野１丁目３６番２号,,13,209,1940022,,,,,,,2022-12-14,1,,,,,ドナーリンクジャパン,0
63,1012703002601,新規,0,2022-12-14,2022-12-14,合同会社おひさま,,合同会社,東京都,東村山市,青葉町１丁目４番地１５,,13,213,1890002,,,,,,,2022-12-14,1,,,,,オヒサマ,0
64,1013101009073,新規,0,2022-12-14,2022-12-14,株式会社Ｔｏｍｍｙ　Ｈｏｍｅ,,株式会社,東京都,青梅市,本町１６３番地の１１,,13,205,1980083,,,,,,,2022-12-14,1,,,,,トミーホーム,0
80,1030001151417,新規,0,2022-12-14,2022-12-14,株式会社マツモクリエイト,,株式会社,埼玉県,川口市,北原台１丁目１３番５号シャルム東川口壱番館６０３,,11,203,3330815,,,,,,,2022-12-14,1,,,,,マツモクリエイト,0
81,1030001151425,新規,0,2022-12-14,2022-12-14,株式会社Ｍ＆Ｍ,,株式会社,埼玉県,三郷市,戸ケ崎３丁目４０７番地９,,11,237,3410044,,,,,,,2022-12-14,1,,,,,エムアンドエム,0
82,1030001151441,新規,0,2022-12-14,2022-12-14,株式会社寅の子,,株式会社,埼玉県,さいたま市見沼区,大字大谷１５４８番地２９,,11,104,3370014,,,,,,,2022-12-14,1,,,,,トラノコ,0
83,1030001151458,新規,0,2022-12-14,2022-12-14,株式会社ＲＥＩＫＡ,,株式会社,埼玉県,川口市,南鳩ヶ谷２丁目２８番１９号,,11,203,3340013,,,,,,,2022-12-14,1,,,,,レイカ,0
84,1030001151490,新規,0,2022-12-14,2022-12-14,ブレインソフト株式会社,,株式会社,埼玉県,さいたま市浦和区,岸町１丁目４番２３－１０号,,11,107,3300064,,,,,,,2022-12-14,1,,,,,ブレインソフト,0
92,1040001126228,新規,0,2022-12-14,2022-12-14,株式会社昭和の森ハウス,,株式会社,千葉県,大網白里市,季美の森南５丁目１９番地１７,,12,239,2993241,,,,,,,2022-12-14,1,,,,,ショウワノモリハウス,0
101,1050001052101,新規,0,2022-12-14,2022-12-14,株式会社オフ,,株式会社,茨城県,水戸市,城南１丁目３番２７号小祝ビルＢ棟２階,,08,201,3100803,,,,,,,2022-12-14,1,,,,,オフ,0
102,1050003007086,新規,0,2022-12-14,2022-12-14,合同会社ソレイユ,,合同会社,茨城県,つくば市,松野木１３５番地１ハッピーヒルズ１０８,,08,220,3050056,,,,,,,2022-12-14,1,,,,,ソレイユ,0
107,1060003004347,新規,0,2022-12-14,2022-12-14,合同会社燕建設,,合同会社,栃木県,小山市,大字喜沢２７３番地４クレーネ４,,09,208,3230014,,,,,,,2022-12-14,1,,,,,ツバメケンセツ,0
109,1070001039906,新規,0,2022-12-14,2022-12-14,ＨＫＫ国際人材派遣株式会社,,株式会社,群馬県,太田市,新井町５２３番９号渡辺ビル２０１,,10,205,3730852,,,,,,,2022-12-14,1,,,,,エイチケーケーコクサイジンザイハケン,0
112,1070005010061,新規,0,2022-12-14,2022-12-14,医療法人社団Ｂｌｕｅ,,その他の設立登記法人,群馬県,太田市,別所町２８番地１,,10,205,3730041,,,,,,,2022-12-14,1,,,,,ブルー,0
113,1080001025343,新規,0,2022-12-14,2022-12-14,株式会社ＳＡＫＡＮＥ,,株式会社,静岡県,榛原郡吉田町,住吉３７５０番地の２,,22,424,4210301,,,,,,,2022-12-14,1,,,,,サカネ,0
114,1080001025351,新規,0,2022-12-14,2022-12-14,株式会社エヌチャーム,,株式会社,静岡県,静岡市駿河区,池田２２８２－６,,22,102,4228005,,,,,,,2022-12-14,1,,,,,エヌチャーム,0
124,1100001035967,新規,0,2022-12-14,2022-12-14,株式会社久保瓦店,,株式会社,長野県,須坂市,大字日滝１０５番地１,,20,207,3820000,,,,,,,2022-12-14,1,,,,,クボカワラテン,0
125,1100003006818,新規,0,2022-12-14,2022-12-14,合同会社いいやさ,,合同会社,長野県,下高井郡木島平村,大字上木島３８５３番地２ダイアパレス木島平６２８,,20,562,3892303,,,,,,,2022-12-14,1,,,,,イイヤサ,0
126,1100005012946,新規,0,2022-12-14,2022-12-14,特定非営利活動法人ｗａｔｅｒｆｌｏｗｓ　ｉｎｔｅｒｎａｔｉｏｎａｌ,,その他の設立登記法人,長野県,北佐久郡御代田町,大字草越１１７３番地１８４６,,20,323,3890202,,,,,,,2022-12-14,1,,,,,ウォーターフローズインターナショナル,0
139,1120001251050,新規,0,2022-12-14,2022-12-14,ヘムズ株式会社,,株式会社,大阪府,守口市,竹町１番１９号,,27,209,5700086,,,,,,,2022-12-14,1,,,,,ヘムズ,0
147,1120003023084,新規,0,2022-12-14,2022-12-14,メイトリーエンコネクト合同会社,,合同会社,大阪府,大阪市北区,梅田１丁目２番２号大阪駅前第２ビル１２－１２,,27,127,5300001,,,,,,,2022-12-14,1,,,,,メイトリーエンコネクト,0
149,1120101066679,新規,0,2022-12-14,2022-12-14,株式会社ＫＣ,,株式会社,大阪府,堺市東区,大美野１７２番地２２,,27,143,5998126,,,,,,,2022-12-14,1,,,,,ケーシー,0
152,1120901046855,新規,0,2022-12-14,2022-12-14,株式会社柿原工務店,,株式会社,大阪府,吹田市,佐井寺１丁目１３番３－１０２号,,27,205,5650836,,,,,,,2022-12-14,1,,,,,カキハラコウムテン,0
153,1120901046871,新規,0,2022-12-14,2022-12-14,株式会社ＡＮＯＮＩＣＡＬ,,株式会社,大阪府,茨木市,庄２丁目２５番５号ネバーランド茨木リラシア９０５,,27,211,5670806,,,,,,,2022-12-14,1,,,,,アノニカル,0
155,1120903004415,新規,0,2022-12-14,2022-12-14,ＳＫＹ＆ＥＡＲＴＨ合同会社,,合同会社,大阪府,茨木市,東奈良３丁目１６番３６号,,27,211,5670861,,,,,,,2022-12-14,1,,,,,スカイアンドアース,0
157,1130001073295,新規,0,2022-12-14,2022-12-14,株式会社Ｇｒｅｅｎ　Ｗｏｒｋｓ懋芽,,株式会社,京都府,京都市右京区,西院西今田町１０番地,,26,108,6150003,,,,,,,2022-12-14,1,,,,,グリーンワークスボガ,0
162,1140001128404,新規,0,2022-12-14,2022-12-14,株式会社はるまる,,株式会社,兵庫県,神戸市東灘区,御影山手１丁目７番１－２０３号,,28,101,6580065,,,,,,,2022-12-14,1,,,,,ハルマル,0
167,1170001017406,新規,0,2022-12-14,2022-12-14,フラッツ・フリー株式会社,,株式会社,和歌山県,和歌山市,岩橋８０３番地,,30,201,6408301,,,,,,,2022-12-14,1,,,,,フラッツフリー,0
168,1170003001804,新規,0,2022-12-14,2022-12-14,合同会社湯原,,合同会社,和歌山県,橋本市,岸上３５９番地の３,,30,203,6480085,,,,,,,2022-12-14,1,,,,,ユハラ,0
171,1180001154207,新規,0,2022-12-14,2022-12-14,株式会社エヌツーエステート,,株式会社,愛知県,名古屋市天白区,鴻の巣２丁目４１１番地,,23,116,4680003,,,,,,,2022-12-14,1,,,,,エヌツーエステート,0
175,1180301036914,新規,0,2022-12-14,2022-12-14,株式会社Ｓｍｉｌｅ　Ａｔｈｌｅｔｅ,,株式会社,愛知県,豊田市,白山町二ツ坂２９番地１,,23,211,4710056,,,,,,,2022-12-14,1,,,,,スマイルアスリート,0
176,1180305009420,新規,0,2022-12-14,2022-12-14,一般社団法人日本福祉事業経営者協会,,その他の設立登記法人,愛知県,豊橋市,草間町字二本松５番地１,,23,201,4418141,,,,,,,2022-12-14,1,,,,,ニホンフクシジギョウケイエイシャキョウカイ,0
185,1200001040759,新規,0,2022-12-14,2022-12-14,株式会社下野,,株式会社,岐阜県,大垣市,墨俣町上宿３７０番地,,21,202,5030103,,,,,,,2022-12-14,1,,,,,シモノ,0
186,1200001040767,新規,0,2022-12-14,2022-12-14,栄光堂商事株式会社,,株式会社,岐阜県,養老郡養老町,船附１１７１番地１,,21,341,5031382,,,,,,,2022-12-14,1,,,,,エイコウドウショウジ,0
187,1200001040775,新規,0,2022-12-14,2022-12-14,株式会社長月,,株式会社,岐阜県,羽島市,福寿町本郷２１１８番地１,,21,209,5016254,,,,,,,2022-12-14,1,,,,,ナガツキ,0
190,1200005013422,新規,0,2022-12-14,2022-12-14,医療法人ＥＬＭＳ,,その他の設立登記法人,岐阜県,岐阜市,須賀１丁目５番地１,,21,201,5008289,,,,,,,2022-12-14,1,,,,,エルムス,0
191,1210003001592,新規,0,2022-12-14,2022-12-14,ｍｏｔｉｏｎ合同会社,,合同会社,福井県,坂井市,春江町江留中第１０号８番地,,18,210,9190412,,,,,,,2022-12-14,1,,,,,モーション,0
194,1240001060778,新規,0,2022-12-14,2022-12-14,株式会社オーネットシナジー,,株式会社,広島県,広島市中区,大手町３丁目１３番１８号,,34,101,7300051,,,,,,,2022-12-14,1,,,,,オーネットシナジー,0
195,1240001060786,新規,0,2022-12-14,2022-12-14,株式会社Ｃ３,,株式会社,広島県,広島市中区,流川町３番２－６０２号,,34,101,7300028,,,,,,,2022-12-14,1,,,,,シースリー,0
196,1240001060794,新規,0,2022-12-14,2022-12-14,株式会社Ａｎｓｗｅｒ,,株式会社,広島県,福山市,鞆町後地１４１１番地５,,34,207,7200202,,,,,,,2022-12-14,1,,,,,アンサー,0
204,1260001037493,新規,0,2022-12-14,2022-12-14,株式会社アースフィールド,,株式会社,岡山県,勝田郡勝央町,岡５６番地２,,33,622,7094311,,,,,,,2022-12-14,1,,,,,アースフィールド,0
214,1310005008650,新規,0,2022-12-14,2022-12-14,社会福祉法人湧命会,,その他の設立登記法人,長崎県,佐世保市,常盤町２番３号,,42,202,8570053,,,,,,,2022-12-14,1,,,,,ユウメイカイ,0
215,1330001030383,新規,0,2022-12-14,2022-12-14,株式会社Ｄｒｅａｍ　Ｍａｋｉｎｇ　Ｃａｒｅ　Ｓｅｒｖｉｃｅ,,株式会社,熊本県,熊本市北区,津浦町３０番５４号,,43,105,8600088,,,,,,,2022-12-14,1,,,,,ドリームメイキングケアサービス,0
216,1330001030391,新規,0,2022-12-14,2022-12-14,株式会社Ｆｉｒｓｔ,,株式会社,熊本県,熊本市中央区,出水６丁目４１番５２号ルミエール出水２０７,,43,101,8620941,,,,,,,2022-12-14,1,,,,,ファースト,0
217,1330001030400,新規,0,2022-12-14,2022-12-14,株式会社エンジンズ,,株式会社,熊本県,熊本市中央区,水道町８番１７号三島ビル１Ｆ,,43,101,8600844,,,,,,,2022-12-14,1,,,,,エンジンズ,0
220,1330003009624,新規,0,2022-12-14,2022-12-14,合同会社ＬＩＧカンパニー,,合同会社,熊本県,八代市,興善寺町３４番地,,43,202,8694614,,,,,,,2022-12-14,1,,,,,リグカンパニー,0
222,1340003003997,新規,0,2022-12-14,2022-12-14,合同会社チームぐるぐる,,合同会社,鹿児島県,熊毛郡屋久島町,平内６２２番地３,,46,505,8914406,,,,,,,2022-12-14,1,,,,,チームグルグル,0
228,1370001049370,新規,0,2022-12-14,2022-12-14,株式会社ハンズ不動産,,株式会社,宮城県,仙台市若林区,石名坂７番地加藤ビル２０１,,04,103,9840063,,,,,,,2022-12-14,1,,,,,ハンズフドウサン,0
233,1400001016086,新規,0,2022-12-14,2022-12-14,株式会社柿野塗装,,株式会社,岩手県,盛岡市,高松２丁目３番１８号,,03,201,0200114,,,,,,,2022-12-14,1,,,,,カキノトソウ,0
240,1460001005752,新規,0,2022-12-14,2022-12-14,株式会社古山新聞店,,株式会社,北海道,厚岸郡厚岸町,松葉３丁目５番地,,01,662,0881116,,,,,,,2022-12-14,1,,,,,フルヤマシンブンテン,0
243,1460301005114,新規,0,2022-12-14,2022-12-14,株式会社創粋,,株式会社,北海道,北見市,とん田西町２９９番地１５ＪｏＣａｐｐｕｃｃｉｎｏ２－Ｃ号,,01,208,0900834,,,,,,,2022-12-14,1,,,,,ソウスイ,0
245,1480001011947,新規,0,2022-12-14,2022-12-14,株式会社ＡｋｉＤＥＮＫＩ,,株式会社,徳島県,徳島市,国府町府中６０７番地の４３,,36,201,7793122,,,,,,,2022-12-14,1,,,,,アキデンキ,0
246,1490001010361,新規,0,2022-12-14,2022-12-14,株式会社八潮商事,,株式会社,高知県,高知市,九反田５番８号,,39,201,7810832,,,,,,,2022-12-14,1,,,,,ヤシオショウジ,0
247,1500001024649,新規,0,2022-12-14,2022-12-14,株式会社エスエフキー,,株式会社,愛媛県,宇和島市,築地町１丁目２番１２号東雲マンション４０４,,38,203,7980005,,,,,,,2022-12-14,1,,,,,エスエフキー,0
248,1500001024657,新規,0,2022-12-14,2022-12-14,株式会社龍河,,株式会社,愛媛県,新居浜市,立川町４１９－１,,38,205,7920846,,,,,,,2022-12-14,1,,,,,リュウカワ,0
250,1700150113389,新規,0,2022-12-14,2022-12-14,Ｎｏｍｉｎａ（Ｎｏ．１３６６）Ｌｉｍｉｔｅｄ,,外国会社等,東京都,千代田区,霞が関３丁目２－６東京倶楽部ビルディング６階　ロイズジャパン株式会社内,,13,101,1000013,Ｏｎｅ　Ｌｉｍｅ　Ｓｔｒｅｅｔ　Ｌｏｎｄｏｎ　ＥＣ３Ｍ　７ＨＡ　ＵＫ,,,,,,2022-12-14,1,,,,,ノミナナンバーワンスリーシツクスシツクスリミテツド,0
252,2010001231475,新規,0,2022-12-14,2022-12-14,優詩株式会社,,株式会社,東京都,中央区,晴海２丁目２番４２－２３０６号,,13,102,1040053,,,,,,,2022-12-14,1,,,,,ユウシ,0
253,2010001231558,新規,0,2022-12-14,2022-12-14,株式会社スプレンデオ,,株式会社,東京都,千代田区,麹町２丁目１０－３,,13,101,1020083,,,,,,,2022-12-14,1,,,,,スプレンデオ,0
254,2010001231574,新規,0,2022-12-14,2022-12-14,株式会社日本経営研究所,,株式会社,東京都,千代田区,丸の内３丁目２－２丸の内二重橋ビル２Ｆ,,13,101,1000005,,,,,,,2022-12-14,1,,,,,ニホンケイエイケンキュウジョ,0
255,2010003039306,新規,0,2022-12-14,2022-12-14,合同会社Ｊｕｗｅｅｌ,,合同会社,東京都,中央区,月島３丁目１６番１－７０４号,,13,102,1040052,,,,,,,2022-12-14,1,,,,,ユウェール,0
256,2010003039330,新規,0,2022-12-14,2022-12-14,合同会社ＡＲＹ,,合同会社,東京都,文京区,本郷１丁目２７番８号,,13,105,1130033,,,,,,,2022-12-14,1,,,,,アリー,0
257,2010101015456,新規,0,2022-12-14,2022-12-14,株式会社Ｍｉｌｃｌｏｗｎ,,株式会社,東京都,八王子市,北野台３丁目２９番１５号,,13,201,1920913,,,,,,,2022-12-14,1,,,,,ミルクラウン,0
262,2010401171338,新規,0,2022-12-14,2022-12-14,株式会社ＡＬＩＣＯＲＮ,,株式会社,東京都,港区,芝浦３丁目１７番１１号天翔オフィス田町３０２,,13,103,1080023,,,,,,,2022-12-14,1,,,,,アリコーン,0
265,2010405021662,新規,0,2022-12-14,2022-12-14,スマートハイムシティ西千葉団地管理組合法人,,その他の設立登記法人,東京都,港区,虎ノ門２丁目１０－４,,13,103,1050001,,,,,,,2022-12-14,1,,,,,スマートハイムシティニシチバダンチ,0
268,2010501049748,新規,0,2022-12-14,2022-12-14,株式会社Ａｖｅｎｏｉｒ,,株式会社,東京都,台東区,上野６丁目７番１６号川久保ビル,,13,106,1100005,,,,,,,2022-12-14,1,,,,,アヴノワール,0
281,2010901052129,新規,0,2022-12-14,2022-12-14,株式会社スリーエムワーク,,株式会社,東京都,世田谷区,桜新町２丁目４番１５号,,13,112,1540015,,,,,,,2022-12-14,1,,,,,スリーエムワーク,0
282,2010901052145,新規,0,2022-12-14,2022-12-14,株式会社ＡＲＴＯＹＳ,,株式会社,東京都,世田谷区,太子堂５丁目２２－１２クアンドＢ,,13,112,1540004,,,,,,,2022-12-14,1,,,,,,0
283,2010901052161,新規,0,2022-12-14,2022-12-14,株式会社ｍｅｍｅＵＰ,,株式会社,東京都,世田谷区,大蔵２丁目５－１０－６０２,,13,112,1570074,,,,,,,2022-12-14,1,,,,,,0
291,2011001151408,新規,0,2022-12-14,2022-12-14,株式会社ＷＴＳ,,株式会社,東京都,渋谷区,笹塚２丁目１７－２,,13,113,1510073,,,,,,,2022-12-14,1,,,,,ダブリュティエス,0
292,2011001151457,新規,0,2022-12-14,2022-12-14,コミット株式会社,,株式会社,東京都,目黒区,洗足１丁目２８番９号,,13,110,1520012,,,,,,,2022-12-14,1,,,,,コミット,0
293,2011003015916,新規,0,2022-12-14,2022-12-14,合同会社Ｂｏｎｈｅｕｒ,,合同会社,東京都,渋谷区,恵比寿南３丁目７番３号ミュール代官山４Ｆ,,13,113,1500022,,,,,,,2022-12-14,1,,,,,ボヌール,0
295,2011101101147,新規,0,2022-12-14,2022-12-14,フューチャーライン株式会社,,株式会社,東京都,新宿区,四谷４丁目２番地１,,13,104,1600004,,,,,,,2022-12-14,1,,,,,フューチャーライン,0
296,2011101101155,新規,0,2022-12-14,2022-12-14,Ｈ．Ｕ．ＰＯＣｋｅＴ株式会社,,株式会社,東京都,新宿区,西新宿２丁目１番１号,,13,104,1600023,,,,,,,2022-12-14,1,,,,,エイチユーポケット,0
311,2012401039960,新規,0,2022-12-14,2022-12-14,ＬｅＣｏプロパティー株式会社,,株式会社,東京都,武蔵野市,吉祥寺東町２丁目３５番１１号,,13,203,1800002,,,,,,,2022-12-14,1,,,,,レコプロパティ,0
313,2012405004812,新規,0,2022-12-14,2022-12-14,一般社団法人全日本がん脱毛医療アートメイク,,その他の設立登記法人,東京都,府中市,押立町５丁目７番４７号,,13,206,1830012,,,,,,,2022-12-14,1,,,,,ゼンニホンガンダツモウイリョウアートメイク,0
314,2012701017393,新規,0,2022-12-14,2022-12-14,メタキッズ株式会社,,株式会社,東京都,東久留米市,小山１丁目１７番１２号,,13,222,2030051,,,,,,,2022-12-14,1,,,,,メタキッズ,0
315,2012703002600,新規,0,2022-12-14,2022-12-14,合同会社Ｇｏｂｕｕｎｏ,,合同会社,東京都,小平市,上水本町３丁目１６番６８号,,13,211,1870022,,,,,,,2022-12-14,1,,,,,ゴブーノ,0
316,2012801022021,新規,0,2022-12-14,2022-12-14,ＦＵＴＩＬＵＳ　ＴＥＣＨ株式会社,,株式会社,東京都,立川市,栄町４丁目２３番地の１渡邊ビル２Ｆ,,13,202,1900003,,,,,,,2022-12-14,1,,,,,フューチラステック,0
343,2030003020742,新規,0,2022-12-14,2022-12-14,合同会社１Ｌｉｆｅ　ｎｏ　ｒｅｇｒｅｔ,,合同会社,埼玉県,越谷市,レイクタウン１丁目２４番地３１,,11,222,3430828,,,,,,,2022-12-14,1,,,,,ワンライフノーリグレット,0
357,2040003021467,新規,0,2022-12-14,2022-12-14,合同会社森,,合同会社,千葉県,香取郡多古町,南玉造１６５４番地１０４,,12,347,2892325,,,,,,,2022-12-14,1,,,,,モリ,0
358,2040003021483,新規,0,2022-12-14,2022-12-14,合同会社アグリテック,,合同会社,千葉県,白井市,根４３８番地,,12,232,2701431,,,,,,,2022-12-14,1,,,,,アグリテック,0
360,2050001052100,新規,0,2022-12-14,2022-12-14,株式会社朝日堂,,株式会社,茨城県,東茨城郡大洗町,桜道４５８番地,,08,309,3111307,,,,,,,2022-12-14,1,,,,,アサヒドウ,0
361,2050001052109,新規,0,2022-12-14,2022-12-14,株式会社ＣｉＥＬ,,株式会社,茨城県,笠間市,吉岡２５９番地２８,,08,216,3190203,,,,,,,2022-12-14,1,,,,,シエル,0
363,2050003007085,新規,0,2022-12-14,2022-12-14,合同会社ｈａ．Ｒｕ．,,合同会社,茨城県,水戸市,元吉田町８４８番地１ヘルプリバーＩＩＩ２０２,00128782,08,201,3100836,,,,,,,2022-12-14,1,,,,,ハル,0
364,2060001035533,新規,0,2022-12-14,2022-12-14,株式会社井上ｗｏｒｋｓ,,株式会社,栃木県,宇都宮市,鶴田町３１１番地８,,09,201,3200851,,,,,,,2022-12-14,1,,,,,イノウエワークス,0
365,2060003004346,新規,0,2022-12-14,2022-12-14,合同会社Ｌｉｎｏ,,合同会社,栃木県,下都賀郡壬生町,元町１８番３４号,,09,361,3210223,,,,,,,2022-12-14,1,,,,,リノ,0
366,2070005010060,新規,0,2022-12-14,2022-12-14,医療法人三水会,,その他の設立登記法人,群馬県,前橋市,住吉町２丁目１２番５号,,10,201,3710021,,,,,,,2022-12-14,1,,,,,サンスイカイ,0
377,2110001037177,新規,0,2022-12-14,2022-12-14,株式会社Ｔ．Ｍワークス,,株式会社,新潟県,南魚沼郡湯沢町,大字土樽１８１番地１－３１３号,00128785,15,461,9496103,,,,,,,2022-12-14,1,,,,,ティーエムワークス,0
393,2120001251033,新規,0,2022-12-14,2022-12-14,株式会社タキカワ,,株式会社,大阪府,大阪市大正区,泉尾７丁目９番１号,,27,108,5510031,,,,,,,2022-12-14,1,,,,,タキカワ,0
405,2120003023067,新規,0,2022-12-14,2022-12-14,ｊｏｌｉｅ　ｓａｉｓｏｎ合同会社,,合同会社,大阪府,大阪市中央区,内平野町１丁目２－４Ｇ－ｓｔｙｌｅ天満橋７０１,,27,128,5400037,,,,,,,2022-12-14,1,,,,,ジョリセゾン,0
406,2120003023075,新規,0,2022-12-14,2022-12-14,ＡＣＴＩプロジェクト合同会社,,合同会社,大阪府,大阪市中央区,内本町１丁目１番５号４Ｆ,,27,128,5400026,,,,,,,2022-12-14,1,,,,,アクティプロジェクト,0
411,2120101066678,新規,0,2022-12-14,2022-12-14,株式会社光建設,,株式会社,大阪府,貝塚市,名越７６８番地１４,,27,208,5970042,,,,,,,2022-12-14,1,,,,,ヒカルケンセツ,0
412,2120103004966,新規,0,2022-12-14,2022-12-14,合同会社ＭＥＤＧＥＮｉＣ,,合同会社,大阪府,貝塚市,麻生中４９２番地,,27,208,5970081,,,,,,,2022-12-14,1,,,,,メドジェニック,0
416,2120901046854,新規,0,2022-12-14,2022-12-14,株式会社スリーディール,,株式会社,大阪府,高槻市,花林苑２２番２５号,,27,207,5691018,,,,,,,2022-12-14,1,,,,,スリーディール,0
417,2120903004414,新規,0,2022-12-14,2022-12-14,合同会社ＲＡＤＩＡＳ,,合同会社,大阪府,茨木市,南春日丘７丁目３番２７号の７,,27,211,5670046,,,,,,,2022-12-14,1,,,,,ラディアス,0
419,2122001036496,新規,0,2022-12-14,2022-12-14,株式会社Ｗｏｒｌｄ,,株式会社,大阪府,東大阪市,新上小阪１４－２８－２０２,,27,227,5770813,,,,,,,2022-12-14,1,,,,,ワールド,0
424,2130001073294,新規,0,2022-12-14,2022-12-14,株式会社デアルンデアル,,株式会社,京都府,京都市中京区,御幸町通夷川上る松本町５７８番地３,,26,104,6040982,,,,,,,2022-12-14,1,,,,,デアルンデアル,0
428,2140001128411,新規,0,2022-12-14,2022-12-14,株式会社ノーバチュール,,株式会社,兵庫県,神戸市中央区,北長狭通４丁目２－１９,,28,110,6500012,,,,,,,2022-12-14,1,,,,,ノーバチュール,0
439,2160001024699,新規,0,2022-12-14,2022-12-14,株式会社リーベ,,株式会社,滋賀県,草津市,青地町４０１番地６,,25,206,5250041,,,,,,,2022-12-14,1,,,,,リーベ,0
444,2180001154197,新規,0,2022-12-14,2022-12-14,株式会社オザケン,,株式会社,愛知県,江南市,小杁町一色４６番地,,23,217,4838414,,,,,,,2022-12-14,1,,,,,オザケン,0
445,2180001154214,新規,0,2022-12-14,2022-12-14,株式会社アズサ,,株式会社,愛知県,名古屋市西区,児玉３丁目１７番１０号,,23,104,4510066,,,,,,,2022-12-14,1,,,,,アズサ,0
450,2200001040758,新規,0,2022-12-14,2022-12-14,株式会社ＳＥＩＷＡ,,株式会社,岐阜県,岐阜市,西中島１丁目２番１２号,,21,201,5020916,,,,,,,2022-12-14,1,,,,,セイワ,0
451,2200001040766,新規,0,2022-12-14,2022-12-14,栄光堂ファクトリー株式会社,,株式会社,岐阜県,大垣市,浅草４丁目６２番地,,21,202,5030947,,,,,,,2022-12-14,1,,,,,エイコウドウファクトリー,0
453,2200003005767,新規,0,2022-12-14,2022-12-14,ＮＡＭＶＩＥＴ合同会社,,合同会社,岐阜県,岐阜市,鏡島２０８５番地３,,21,201,5010111,,,,,,,2022-12-14,1,,,,,ナムベト,0
454,2200005013421,新規,0,2022-12-14,2022-12-14,一般社団法人ＡＩｌａｂ,,その他の設立登記法人,岐阜県,本巣市,北野３１４番地１,,21,218,5010403,,,,,,,2022-12-14,1,,,,,エーアイラボ,0
456,2210001019181,新規,0,2022-12-14,2022-12-14,株式会社コサキ建設,,株式会社,福井県,福井市,文京１丁目１６番２９号リバティドゥール文京１０７,,18,201,9100017,,,,,,,2022-12-14,1,,,,,コサキケンセツ,0
457,2210003001591,新規,0,2022-12-14,2022-12-14,ＬＩＢＲＡ合同会社,,合同会社,福井県,福井市,豊岡１丁目１１番１０号斉藤第３ハイツ２０２,,18,201,9100027,,,,,,,2022-12-14,1,,,,,ライブラ,0
460,2220001025179,新規,0,2022-12-14,2022-12-14,株式会社学育,,株式会社,石川県,金沢市,黒田１丁目１９１番地,,17,201,9218051,,,,,,,2022-12-14,1,,,,,ガクイク,0
462,2230001019634,新規,0,2022-12-14,2022-12-14,株式会社ＴＯＳＵＭＯライフスタイル,,株式会社,富山県,富山市,城北町２番３６号,,16,201,9300854,,,,,,,2022-12-14,1,,,,,トスモライフスタイル,0
465,2260001037484,新規,0,2022-12-14,2022-12-14,株式会社リアクト,,株式会社,岡山県,倉敷市,林４３５番地１４,,33,202,7100142,,,,,,,2022-12-14,1,,,,,リアクト,0
468,2290001099893,新規,0,2022-12-14,2022-12-14,株式会社ＷＭ,,株式会社,福岡県,福岡市中央区,天神３丁目４番８号,,40,133,8100001,,,,,,,2022-12-14,1,,,,,ダブルエム,0
469,2290001099910,新規,0,2022-12-14,2022-12-14,株式会社ティーエービーサービス,,株式会社,福岡県,福岡市博多区,博多駅東２丁目１５番１１号,,40,132,8120013,,,,,,,2022-12-14,1,,,,,ティーエービーサービス,0
473,2290805009610,新規,0,2022-12-14,2022-12-14,特定非営利活動法人ひびきの杜,,その他の設立登記法人,福岡県,北九州市若松区,大字安瀬６４番１０２,,40,103,8080022,,,,,,,2022-12-14,1,,,,,ヒビキノモリ,0
481,2330001030390,新規,0,2022-12-14,2022-12-14,株式会社ＧＪプロデュース,,株式会社,熊本県,合志市,栄３７９４番地１２６,,43,216,8611113,,,,,,,2022-12-14,1,,,,,ジージェープロデュース,0
482,2330001030399,新規,0,2022-12-14,2022-12-14,株式会社Ｌｇａ,,株式会社,熊本県,熊本市北区,龍田陳内３丁目２２番２８号,,43,105,8618005,,,,,,,2022-12-14,1,,,,,エルジーエー,0
494,2330005010595,新規,0,2022-12-14,2022-12-14,一般社団法人ＫＵＲＵＭＩ,,その他の設立登記法人,熊本県,合志市,豊岡２０５２番地６５,,43,216,8611115,,,,,,,2022-12-14,1,,,,,クルミ,0
499,2340003003996,新規,0,2022-12-14,2022-12-14,合同会社新福会,,合同会社,鹿児島県,鹿屋市,新川町１６８番地１,,46,203,8930015,,,,,,,2022-12-14,1,,,,,シンフクカイ,0
500,2350001018079,新規,0,2022-12-14,2022-12-14,株式会社ＡＱＵＡ,,株式会社,宮崎県,宮崎市,清水２丁目７番１０号,,45,201,8800021,,,,,,,2022-12-14,1,,,,,アクア,0
501,2350001018087,新規,0,2022-12-14,2022-12-14,株式会社ステラ,,株式会社,宮崎県,宮崎市,東宮１丁目２８６番地,,45,201,8800928,,,,,,,2022-12-14,1,,,,,ステラ,0
510,2370003005916,新規,0,2022-12-14,2022-12-14,Ｃ‐Ｓｉｄｅｓ合同会社,,合同会社,宮城県,仙台市青葉区,本町１丁目５番２８号カーニープレイス仙台駅前通６０３号室,,04,101,9800014,,,,,,,2022-12-14,1,,,,,シーサイド,0
514,2390005008980,新規,0,2022-12-14,2022-12-14,一般社団法人ＹＡＭＡＧＡＴＡ　ＡＴＨＬＥＴＥ　ＬＡＢ．,,その他の設立登記法人,山形県,東置賜郡高畠町,大字時沢１２５６番地の１　２０３号室,,06,381,9920341,,,,,,,2022-12-14,1,,,,,ヤマガタアスリートラボ,0
522,2450003002277,新規,0,2022-12-14,2022-12-14,合同会社マキタ住設,,合同会社,北海道,空知郡中富良野町,字中富良野東１線北十五号,,01,461,0710771,,,,,,,2022-12-14,1,,,,,マキタジュウセツ,0
527,2470003002309,新規,0,2022-12-14,2022-12-14,合同会社ｈｉｋａｒｉ,,合同会社,香川県,高松市,鬼無町佐藤６５番地１,,37,201,7618023,,,,,,,2022-12-14,1,,,,,ヒカリ,0
528,2480005006934,新規,0,2022-12-14,2022-12-14,医療法人メディカルケア,,その他の設立登記法人,徳島県,小松島市,中田町字新開４８番地,,36,203,7730015,,,,,,,2022-12-14,1,,,,,メディカルケア,0
529,2500001024656,新規,0,2022-12-14,2022-12-14,株式会社ｔｈｙ　ｐｌｕｓ,,株式会社,愛媛県,松山市,土居田町１４３番地３,,38,201,7900056,,,,,,,2022-12-14,1,,,,,ジープラス,0
544,3010001231557,新規,0,2022-12-14,2022-12-14,株式会社ｆｒｅｑｕｅｎｔ,,株式会社,東京都,千代田区,飯田橋４丁目５番１１号,,13,101,1020072,,,,,,,2022-12-14,1,,,,,フリークウェント,0
548,3010005035913,新規,0,2022-12-14,2022-12-14,一般社団法人映像実演者支援機構,,その他の設立登記法人,東京都,千代田区,六番町６番地４,,13,101,1020085,,,,,,,2022-12-14,1,,,,,エイゾウジツエンシャシエンキコウ,0
549,3010101015455,新規,0,2022-12-14,2022-12-14,株式会社アップ・フィールド,,株式会社,東京都,八王子市,東中野１０３２番地５８,,13,201,1920351,,,,,,,2022-12-14,1,,,,,アップフィールド,0
556,3010401171329,新規,0,2022-12-14,2022-12-14,株式会社インテグリアマネジメントサービス,,株式会社,東京都,港区,芝大門１丁目１０番１１号芝大門センタービル１０階,,13,103,1050012,,,,,,,2022-12-14,1,,,,,インテグリアマネジメントサービス,0
564,3010503006812,新規,0,2022-12-14,2022-12-14,合同会社Ｓｃｉ　Ｄａｔａ,,合同会社,東京都,台東区,竜泉３丁目１２－５パレステージ上野入谷６０３,,13,106,1100012,,,,,,,2022-12-14,1,,,,,サイデータ,0
573,3010901052136,新規,0,2022-12-14,2022-12-14,ＮＥＯ株式会社,,株式会社,東京都,世田谷区,玉川３丁目２０番２号マノア玉川第３ビル５０１号,,13,112,1580094,,,,,,,2022-12-14,1,,,,,ネオ,0
574,3010901052152,新規,0,2022-12-14,2022-12-14,株式会社杉田写真事務所,,株式会社,東京都,世田谷区,中町５丁目９番５－１０４号,,13,112,1580091,,,,,,,2022-12-14,1,,,,,,0
579,3011003015907,新規,0,2022-12-14,2022-12-14,合同会社Ｓｔｕｄｉｏ　Ｑｕｉｌｔｏ,,合同会社,東京都,渋谷区,神宮前６丁目２３番４号桑野ビル２階,,13,113,1500001,,,,,,,2022-12-14,1,,,,,スタジオキルト,0
582,3011101101154,新規,0,2022-12-14,2022-12-14,株式会社幸家,,株式会社,東京都,新宿区,新宿１丁目３０番５号,,13,104,1600022,,,,,,,2022-12-14,1,,,,,サチヤ,0
589,3012301013247,新規,0,2022-12-14,2022-12-14,株式会社エーライズ,,株式会社,東京都,町田市,金森４丁目７番１号,,13,209,1940012,,,,,,,2022-12-14,1,,,,,エーライズ,0
592,3012703002599,新規,0,2022-12-14,2022-12-14,ＨＲ‐ｉコンサルティング合同会社,,合同会社,東京都,清瀬市,竹丘３丁目１０番２８号,,13,221,2040023,,,,,,,2022-12-14,1,,,,,エイチアールアイコンサルティング,0
594,3012801022012,新規,0,2022-12-14,2022-12-14,株式会社ＡＫＩＮＡ,,株式会社,東京都,国分寺市,本多５丁目２９番８号,,13,214,1850011,,,,,,,2022-12-14,1,,,,,アッキーナ,0
595,3012801022020,新規,0,2022-12-14,2022-12-14,ＦＵＴＩＬＵＳ　ＥＮＴＥＲＴＡＩＮＭＥＮＴ株式会社,,株式会社,東京都,立川市,栄町４丁目２３番地の１渡邊ビル２Ｆ,,13,202,1900003,,,,,,,2022-12-14,1,,,,,フューチラスエンターテインメント,0
598,3013303006404,新規,0,2022-12-14,2022-12-14,桜圭貿易合同会社,,合同会社,東京都,豊島区,巣鴨３丁目２８番７号,,13,116,1700002,,,,,,,2022-12-14,1,,,,,オウケイボウエキ,0
605,3020003022879,新規,0,2022-12-14,2022-12-14,合同会社とわさん,,合同会社,神奈川県,横浜市港南区,港南台１丁目３２番８号,,14,111,2340054,,,,,,,2022-12-14,1,,,,,トワサン,0
607,3021001077700,新規,0,2022-12-14,2022-12-14,ハーモニー株式会社,,株式会社,神奈川県,海老名市,下今泉４丁目２－１４グランツ海老名１Ｆ,,14,215,2430435,,,,,,,2022-12-14,1,,,,,ハーモニー,0
617,3030001151480,新規,0,2022-12-14,2022-12-14,株式会社Ｏｆｆｉｃｅ８８,,株式会社,埼玉県,大里郡寄居町,大字富田３７０１番地１,,11,408,3691216,,,,,,,2022-12-14,1,,,,,オフィスエイティエイト,0
622,3030005021093,新規,0,2022-12-14,2022-12-14,一般社団法人笑顔ひなた介護福祉協会,,その他の設立登記法人,埼玉県,さいたま市大宮区,三橋４丁目６７３番地６,,11,103,3300856,,,,,,,2022-12-14,1,,,,,エガオヒナタカイゴフクシキョウカイ,0
630,3040001126192,新規,0,2022-12-14,2022-12-14,得尚科技株式会社,,株式会社,千葉県,柏市,大津ケ丘１丁目５６番５号暁第二ビル３階,,12,217,2770921,,,,,,,2022-12-14,1,,,,,トクショウカギ,0
632,3040003021474,新規,0,2022-12-14,2022-12-14,Ａ＆Ｃライフカンパニー合同会社,,合同会社,千葉県,船橋市,本町６丁目４番８号３０４号室,,12,204,2730005,,,,,,,2022-12-14,1,,,,,エーアンドシーライフカンパニー,0
635,3050001052090,新規,0,2022-12-14,2022-12-14,株式会社ＲＡＳＡＮ　ＴＲＡＤＩＮＧ,,株式会社,茨城県,結城市,大字江川新宿２０２０番地７５,,08,207,3070042,,,,,,,2022-12-14,1,,,,,ラサントレーディング,0
636,3050001052099,新規,0,2022-12-14,2022-12-14,株式会社ＲＥＢＡＳＥ,,株式会社,茨城県,水戸市,吉沢町８４４番地の４７,,08,201,3100845,,,,,,,2022-12-14,1,,,,,リベース,0
637,3050003007084,新規,0,2022-12-14,2022-12-14,恐竜合同会社,,合同会社,茨城県,稲敷市,柴崎６６５７番地６,,08,229,3001412,,,,,,,2022-12-14,1,,,,,キョウリュウ,0
640,3060001035532,新規,0,2022-12-14,2022-12-14,株式会社ルターム,,株式会社,栃木県,宇都宮市,海道町３５０番地１,,09,201,3210971,,,,,,,2022-12-14,1,,,,,ルターム,0
646,3080001025341,新規,0,2022-12-14,2022-12-14,株式会社ＫＳカンパニー,,株式会社,静岡県,静岡市駿河区,下島１４１番地の１,,22,102,4228037,,,,,,,2022-12-14,1,,,,,ケイエスカンパニー,0
656,3120001250991,新規,0,2022-12-14,2022-12-14,Ｏｚ　ＪＡＰＡＮ株式会社,,株式会社,大阪府,大阪市北区,野崎町６番８号トレックノース梅田ビル１１階,,27,127,5300055,,,,,,,2022-12-14,1,,,,,オズジャパン,0
657,3120001251040,新規,0,2022-12-14,2022-12-14,きぐるみ花月株式会社,,株式会社,大阪府,大阪市此花区,梅香３丁目３２番１３号,,27,104,5540013,,,,,,,2022-12-14,1,,,,,キグルミカゲツ,0
662,3120003023074,新規,0,2022-12-14,2022-12-14,合同会社ウィッシュテイル,,合同会社,大阪府,枚方市,山之上５丁目４９番３７号,,27,210,5730047,,,,,,,2022-12-14,1,,,,,ウィッシュテイル,0
667,3120101066660,新規,0,2022-12-14,2022-12-14,株式会社ＡＣＣＯ,,株式会社,大阪府,堺市南区,檜尾７８６番地３,,27,145,5900142,,,,,,,2022-12-14,1,,,,,アッコ,0
668,3120101066669,新規,0,2022-12-14,2022-12-14,ティール株式会社,,株式会社,大阪府,富田林市,山手町６番１１号,,27,214,5840047,,,,,,,2022-12-14,1,,,,,ティール,0
669,3120103004973,新規,0,2022-12-14,2022-12-14,合同会社グラシス,,合同会社,大阪府,貝塚市,麻生中１０３７番地８,,27,208,5970081,,,,,,,2022-12-14,1,,,,,グラシス,0
670,3120903004421,新規,0,2022-12-14,2022-12-14,ＳＥＮＲＩ　ＴＲＡＤＩＮＧ合同会社,,合同会社,大阪府,豊中市,東泉丘４丁目１番２－５０４号,,27,203,5610861,,,,,,,2022-12-14,1,,,,,センリトレーディング,0
671,3122001036495,新規,0,2022-12-14,2022-12-14,株式会社ＫＯＴＯ,,株式会社,大阪府,東大阪市,花園西町１丁目１７番１３号,,27,227,5780936,,,,,,,2022-12-14,1,,,,,コト,0
675,3130001073260,新規,0,2022-12-14,2022-12-14,豊久株式会社,,株式会社,京都府,京都市下京区,西松屋町５７１番地１－２０３号,,26,106,6000000,,,,,,,2022-12-14,1,,,,,トヨヒサ,0
676,3130001073269,新規,0,2022-12-14,2022-12-14,株式会社ＴＤＹ,,株式会社,京都府,久世郡久御山町,森村東３６３番地１,,26,322,6130024,,,,,,,2022-12-14,1,,,,,ティーディーワイ,0
677,3130001073277,新規,0,2022-12-14,2022-12-14,エーバリュー株式会社,,株式会社,京都府,京都市下京区,七条御所ノ内中町４６番地,,26,106,6008862,,,,,,,2022-12-14,1,,,,,エーバリュー,0
680,3140001128385,新規,0,2022-12-14,2022-12-14,明神マシロ建工株式会社,,株式会社,兵庫県,神戸市北区,藤原台南町４丁目２８番１１－１０３号,,28,109,6511303,,,,,,,2022-12-14,1,,,,,メイシンマシロケンコウ,0
681,3140001128419,新規,0,2022-12-14,2022-12-14,株式会社ＢＲＥＡＫ　ＯＵＴ,,株式会社,兵庫県,加古郡稲美町,草谷１番地の１６,,28,381,6751102,,,,,,,2022-12-14,1,,,,,ブレイクアウト,0
684,3140003018477,新規,0,2022-12-14,2022-12-14,合同会社アドバンス,,合同会社,兵庫県,相生市,山手１丁目１６２－２,,28,208,6780001,,,,,,,2022-12-14,1,,,,,アドバンス,0
691,3170001017412,新規,0,2022-12-14,2022-12-14,Ｅ‐ＭＯＴＩＯＮ株式会社,,株式会社,和歌山県,田辺市,新庄町３３５３－９ＳＯＨＯ１０５,,30,206,6460011,,,,,,,2022-12-14,1,,,,,イーモーション,0
695,3180005020023,新規,0,2022-12-14,2022-12-14,一般社団法人ひだまり,,その他の設立登記法人,愛知県,春日井市,如意申町６丁目３番地１３,,23,206,4860918,,,,,,,2022-12-14,1,,,,,ヒダマリ,0
700,3190001030017,新規,0,2022-12-14,2022-12-14,総合防災ナカテック株式会社,,株式会社,三重県,鈴鹿市,算所５丁目１４番２１号,,24,207,5130806,,,,,,,2022-12-14,1,,,,,ソウゴウボウサイナカテック,0
713,3240001060776,新規,0,2022-12-14,2022-12-14,株式会社Ｆ‐Ｐｌｕｓ,,株式会社,広島県,福山市,曙町４丁目２番３０号,00128796,34,207,7210952,,,,,,,2022-12-14,1,,,,,エフプラス,0
714,3240001060784,新規,0,2022-12-14,2022-12-14,株式会社Ｌｉｎｋ,,株式会社,広島県,福山市,霞町３丁目２番１８号,,34,207,7200812,,,,,,,2022-12-14,1,,,,,リンク,0
715,3240001060801,新規,0,2022-12-14,2022-12-14,株式会社共生,,株式会社,広島県,福山市,山手町６丁目４－２５－７,,34,207,7200092,,,,,,,2022-12-14,1,,,,,キョウセイ,0
722,3260001037491,新規,0,2022-12-14,2022-12-14,株式会社小室建設,,株式会社,岡山県,岡山市北区,田中１６８番地１１４,,33,101,7000951,,,,,,,2022-12-14,1,,,,,コムロケンセツ,0
727,3280003001675,新規,0,2022-12-14,2022-12-14,合同会社スクナキャン,,合同会社,島根県,松江市,西茶町４０番地１３,,32,201,6900845,,,,,,,2022-12-14,1,,,,,,0
729,3290001099884,新規,0,2022-12-14,2022-12-14,株式会社チカミチラボ,,株式会社,福岡県,福岡市中央区,薬院１丁目２番２号ｙｍｋ薬院２０３ＴＭＳ,,40,133,8100022,,,,,,,2022-12-14,1,,,,,チカミチラボ,0
730,3290001099926,新規,0,2022-12-14,2022-12-14,株式会社ａｓｓｅｔ,,株式会社,福岡県,福岡市博多区,金の隈２丁目２番２４号,,40,132,8120863,,,,,,,2022-12-14,1,,,,,アセット,0
731,3290001099934,新規,0,2022-12-14,2022-12-14,Ｆｕｋ株式会社,,株式会社,福岡県,福岡市中央区,天神４丁目６番２８号天神ファーストビル７階,,40,133,8100001,,,,,,,2022-12-14,1,,,,,フック,0
732,3290003013315,新規,0,2022-12-14,2022-12-14,合同会社夢工房,,合同会社,福岡県,福岡市南区,曰佐４丁目１２番４号,,40,134,8111313,,,,,,,2022-12-14,1,,,,,ユメコウボウ,0
733,3290005018873,新規,0,2022-12-14,2022-12-14,社会保険労務士法人ＴＡＣ,,その他の設立登記法人,福岡県,福岡市南区,横手１丁目１３番２号,,40,134,8111311,,,,,,,2022-12-14,1,,,,,タック,0
741,3320003003972,新規,0,2022-12-14,2022-12-14,合同会社くるり,,合同会社,大分県,大分市,東津留１丁目１０番１２号東津留ビル,,44,201,8700934,,,,,,,2022-12-14,1,,,,,クルリ,0
743,3330001030381,新規,0,2022-12-14,2022-12-14,あんしんトラスト株式会社,,株式会社,熊本県,人吉市,中青井町３１０番地１,,43,203,8680008,,,,,,,2022-12-14,1,,,,,アンシントラスト,0
747,3340005009537,新規,0,2022-12-14,2022-12-14,一般社団法人ｔｕｎａ,,その他の設立登記法人,鹿児島県,いちき串木野市,旭町７９番地,,46,219,8960015,,,,,,,2022-12-14,1,,,,,ツナ,0
748,3350001018078,新規,0,2022-12-14,2022-12-14,株式会社北山産業,,株式会社,宮崎県,延岡市,牧町４７９８番地,,45,203,8820023,,,,,,,2022-12-14,1,,,,,キタヤマサンギョウ,0
749,3350001018086,新規,0,2022-12-14,2022-12-14,株式会社良建設,,株式会社,宮崎県,宮崎市,清武町今泉甲３６６７番地１５,,45,201,8891602,,,,,,,2022-12-14,1,,,,,ヨシケンセツ,0
751,3350005006120,新規,0,2022-12-14,2022-12-14,特定非営利活動法人Ｄｅｐｏｒｔａｒｅ　Ｍｉｙａｚａｋｉ,,その他の設立登記法人,宮崎県,宮崎市,大字小松１０７４番地２,,45,201,8802112,,,,,,,2022-12-14,1,,,,,デポルターレミヤザキ,0
752,3370001049369,新規,0,2022-12-14,2022-12-14,株式会社吉成,,株式会社,宮城県,仙台市泉区,北中山２丁目４１番地の４,,04,105,9813215,,,,,,,2022-12-14,1,,,,,ヨシナリ,0
763,3460003000931,新規,0,2022-12-14,2022-12-14,合同会社ｉｎｎ,,合同会社,北海道,釧路市,新釧路町１０番１号ラスティ３０２,,01,206,0850002,,,,,,,2022-12-14,1,,,,,イン,0
764,3460301005112,新規,0,2022-12-14,2022-12-14,株式会社アトモス,,株式会社,北海道,北見市,幸町７丁目３番４号,,01,208,0900036,,,,,,,2022-12-14,1,,,,,アトモス,0
765,3460403000242,新規,0,2022-12-14,2022-12-14,合同会社賢,,合同会社,北海道,根室市,敷島町２丁目５５番地,,01,223,0870026,,,,,,,2022-12-14,1,,,,,ケン,0
768,3470003002308,新規,0,2022-12-14,2022-12-14,合同会社ツルの家,,合同会社,香川県,高松市,勅使町６９３番地１,,37,201,7618058,,,,,,,2022-12-14,1,,,,,ツルノイエ,0
770,3480003001903,新規,0,2022-12-14,2022-12-14,合同会社ＣＲＡＦＴＳＭＡＮ,,合同会社,徳島県,徳島市,西須賀町葛島７番地２０,,36,201,7708024,,,,,,,2022-12-14,1,,,,,クラフトマン,0
771,3480005006933,新規,0,2022-12-14,2022-12-14,一般社団法人浪漫の里管理組合,,その他の設立登記法人,徳島県,鳴門市,鳴門町高島字中島１０４番地５３,,36,202,7720051,,,,,,,2022-12-14,1,,,,,ロマンノサトカンリクミアイ,0
772,3500001024647,新規,0,2022-12-14,2022-12-14,株式会社ＴＡＳＵＫＩ,,株式会社,愛媛県,新居浜市,寿町１２番１２号,,38,205,7920822,,,,,,,2022-12-14,1,,,,,タスキ,0
778,4010001231548,新規,0,2022-12-14,2022-12-14,株式会社ボーテエタネール,,株式会社,東京都,千代田区,外神田４丁目１４番２号東京タイムズタワー１００６号,,13,101,1010021,,,,,,,2022-12-14,1,,,,,ボーテエタネール,0
779,4010001231614,新規,0,2022-12-14,2022-12-14,イマジミックス株式会社,,株式会社,東京都,中央区,銀座１丁目２２番１１号２階,,13,102,1040061,,,,,,,2022-12-14,1,,,,,イマジミックス,0
783,4010003039320,新規,0,2022-12-14,2022-12-14,合同会社Ｓｈｉｚｋｅｅ,,合同会社,東京都,文京区,白山４丁目３６番１６－２０１号,,13,105,1120001,,,,,,,2022-12-14,1,,,,,シズキー,0
784,4010003039337,新規,0,2022-12-14,2022-12-14,Ｂｅｌ　Ｃｉｅｌｏ合同会社,,合同会社,東京都,中央区,銀座７丁目１３番２１号銀座ｓｉｎｒｏｋｕｓｙｕビル２階,,13,102,1040061,,,,,,,2022-12-14,1,,,,,ベルシエロ,0
788,4010005035904,新規,0,2022-12-14,2022-12-14,一般社団法人ビーアイオー,,その他の設立登記法人,東京都,小笠原村,父島字小曲,,13,421,1002101,,,,,,,2022-12-14,1,,,,,ビーアイオー,0
789,4010005035912,新規,0,2022-12-14,2022-12-14,行政書士法人みどり法務事務所,,その他の設立登記法人,東京都,千代田区,九段南２丁目２番３号,,13,101,1020074,,,,,,,2022-12-14,1,,,,,ミドリホウムジムショ,0
792,4010105002192,新規,0,2022-12-14,2022-12-14,特定非営利活動法人おさふく,,その他の設立登記法人,東京都,八王子市,打越町２００１番地１６田代ビル４階,,13,201,1920911,,,,,,,2022-12-14,1,,,,,オサフク,0
796,4010405021660,新規,0,2022-12-14,2022-12-14,一般社団法人食品科学技術機構,,その他の設立登記法人,東京都,港区,南青山２丁目２番１５号,,13,103,1070062,,,,,,,2022-12-14,1,,,,,ショクヒンカガクギジュツキコウ,0
798,4010501049746,新規,0,2022-12-14,2022-12-14,株式会社ＡＧＰホールディングス,,株式会社,東京都,台東区,花川戸１丁目１０番１４号ＬＡＳＰＡＣＩＯ浅草スカイビューレジデンス１００１,,13,106,1110033,,,,,,,2022-12-14,1,,,,,エージーピーホールディングス,0
808,4010705003458,新規,0,2022-12-14,2022-12-14,特定非営利活動法人膠原病・リウマチ・血管炎サポートネットワーク,,その他の設立登記法人,東京都,品川区,西五反田１丁目２６番２号五反田サンハイツビル９１１,,13,109,1410031,,,,,,,2022-12-14,1,,,,,コウゲンビョウリウマチケッカンエンサポートネットワーク,0
811,4010901052135,新規,0,2022-12-14,2022-12-14,ミンナトリエ株式会社,,株式会社,東京都,世田谷区,上馬５丁目１５番１５号,,13,112,1540011,,,,,,,2022-12-14,1,,,,,ミンナトリエ,0
812,4010901052151,新規,0,2022-12-14,2022-12-14,株式会社ＰＩＦ,,株式会社,東京都,世田谷区,北沢４丁目２７番１０号,,13,112,1550031,,,,,,,2022-12-14,1,,,,,ピーアイエフ,0
820,4011101101178,新規,0,2022-12-14,2022-12-14,株式会社Ｎｕｄｅ,,株式会社,東京都,新宿区,新宿１丁目３６番２号新宿第七葉山ビル３Ｆ,,13,104,1600022,,,,,,,2022-12-14,1,,,,,ヌード,0
821,4011101101194,新規,0,2022-12-14,2022-12-14,大満仁治力株式会社,,株式会社,東京都,新宿区,中井２丁目２０番９号,,13,104,1610035,,,,,,,2022-12-14,1,,,,,ダイマンジンチリョク,0
823,4011201024295,新規,0,2022-12-14,2022-12-14,株式会社ｄｏｗｅｌｌ,,株式会社,東京都,中野区,若宮３丁目５６番９号フォレストガーデン鷺宮Ｉ－１０１,00128799,13,114,1650033,,,,,,,2022-12-14,1,,,,,ドゥエル,0
829,4011803005429,新規,0,2022-12-14,2022-12-14,合同会社ＨＣ,,合同会社,東京都,葛飾区,新小岩４丁目３１番７－２０４号,,13,122,1240024,,,,,,,2022-12-14,1,,,,,エイチシー,0
830,4012303001760,新規,0,2022-12-14,2022-12-14,ザフラッグ・オクタス・コンサルティング合同会社,,合同会社,東京都,町田市,原町田１丁目４番７－１５０４号,,13,209,1940013,,,,,,,2022-12-14,1,,,,,ザフラッグオクタスコンサルティング,0
832,4012403005736,新規,0,2022-12-14,2022-12-14,合同会社Ｓｏｃｉａｌ　Ｇｏｏｄ　Ｂａｓｅ,,合同会社,東京都,狛江市,岩戸南２丁目１７番３号,,13,219,2010005,,,,,,,2022-12-14,1,,,,,ソーシャルグッドベイス,0
837,4020001149343,新規,0,2022-12-14,2022-12-14,株式会社オリガミデンチャー,,株式会社,神奈川県,横浜市青葉区,市ケ尾町１１６９番地１３号,,14,117,2250024,,,,,,,2022-12-14,1,,,,,オリガミデンチャー,0
838,4020001149401,新規,0,2022-12-14,2022-12-14,株式会社メティスコム,,株式会社,神奈川県,横浜市西区,みなとみらい２丁目２番１号横浜ランドマークプラザ５Ｆ,,14,103,2200012,,,,,,,2022-12-14,1,,,,,メティスコム,0
841,4020005015772,新規,0,2022-12-14,2022-12-14,特定非営利活動法人ハートフル・ポート,,その他の設立登記法人,神奈川県,横浜市旭区,南希望が丘５８番地,,14,112,2410824,,,,,,,2022-12-14,1,,,,,ハートフルポート,0
852,4030001151463,新規,0,2022-12-14,2022-12-14,株式会社ＳＥＥＤＯ,,株式会社,埼玉県,川越市,脇田新町１番地８,,11,201,3501121,,,,,,,2022-12-14,1,,,,,シード,0
853,4030001151488,新規,0,2022-12-14,2022-12-14,株式会社よつ葉,,株式会社,埼玉県,さいたま市北区,櫛引町２丁目９２番地,,11,102,3310825,,,,,,,2022-12-14,1,,,,,ヨツバ,0
857,4030003020732,新規,0,2022-12-14,2022-12-14,合同会社バルーン,,合同会社,埼玉県,越谷市,神明町１丁目１４８番地１５,,11,222,3430805,,,,,,,2022-12-14,1,,,,,バルーン,0
858,4030003020740,新規,0,2022-12-14,2022-12-14,合同会社Ｌａｎｃｅ　Ｏｎｅ,,合同会社,埼玉県,川越市,脇田本町５番地５ライオンズ川越プレミアフォート６０２号室,,11,201,3501123,,,,,,,2022-12-14,1,,,,,ランスワン,0
869,4070001039911,新規,0,2022-12-14,2022-12-14,株式会社ＡＣコンサルティング,,株式会社,群馬県,高崎市,菅谷町１１２９番地２,,10,202,3703522,,,,,,,2022-12-14,1,,,,,エーシーコンサルティング,0
872,4080001025349,新規,0,2022-12-14,2022-12-14,養生仙薬研究所株式会社,,株式会社,静岡県,藤枝市,瀬戸ノ谷１３０７８,,22,214,4260131,,,,,,,2022-12-14,1,,,,,ヨウジョウセンヤクケンキュウジョ,0
873,4080401026203,新規,0,2022-12-14,2022-12-14,株式会社樹商業,,株式会社,静岡県,浜松市南区,芳川町２２５番地,,22,134,4300813,,,,,,,2022-12-14,1,,,,,イツキショウギョウ,0
876,4100001035956,新規,0,2022-12-14,2022-12-14,株式会社ＴＡＮＥＢＩ,,株式会社,長野県,南佐久郡佐久穂町,大字海瀬３７０５番地,,20,309,3840503,,,,,,,2022-12-14,1,,,,,タネビ,0
877,4100001035964,新規,0,2022-12-14,2022-12-14,株式会社Ｔ‐ｃｏｎｎｅｃｔ,,株式会社,長野県,飯田市,鼎一色２３７番地８,,20,205,3950805,,,,,,,2022-12-14,1,,,,,ティーコネクト,0
895,4120001251015,新規,0,2022-12-14,2022-12-14,株式会社アズハウジング,,株式会社,大阪府,守口市,寺方錦通３丁目１１番５号,,27,209,5700042,,,,,,,2022-12-14,1,,,,,アズハウジング,0
896,4120001251106,新規,0,2022-12-14,2022-12-14,総研株式会社,,株式会社,大阪府,大阪市平野区,背戸口１丁目２０番１６－Ｂ号,,27,126,5470034,,,,,,,2022-12-14,1,,,,,ソウケン,0
903,4120003023065,新規,0,2022-12-14,2022-12-14,合同会社ケイエムオフィス,,合同会社,大阪府,大阪市中央区,谷町４丁目４－１７－１００２,,27,128,5400012,,,,,,,2022-12-14,1,,,,,ケイエムオフィス,0
904,4120003023073,新規,0,2022-12-14,2022-12-14,合同会社Ｈａｐｐｙ　Ｓｌｅｅｐ,,合同会社,大阪府,大阪市中央区,安堂寺町２丁目６－１４松屋町ＭＴビル７階Ｍｅｔｒｏ,,27,128,5420061,,,,,,,2022-12-14,1,,,,,ハッピースリープ,0
911,4120901046860,新規,0,2022-12-14,2022-12-14,株式会社リープフォワード,,株式会社,大阪府,茨木市,永代町４番２１１号,,27,211,5670816,,,,,,,2022-12-14,1,,,,,リープフォワード,0
912,4120901046869,新規,0,2022-12-14,2022-12-14,株式会社ｐｕｐａ,,株式会社,大阪府,吹田市,竹見台４丁目５番８－１０９号,,27,205,5650863,,,,,,,2022-12-14,1,,,,,ピューパ,0
913,4122001036503,新規,0,2022-12-14,2022-12-14,株式会社ＳＨＩＮＳＥＩ,,株式会社,大阪府,八尾市,長池町５丁目３番地の２,,27,212,5810836,,,,,,,2022-12-14,1,,,,,シンセイ,0
917,4130001073276,新規,0,2022-12-14,2022-12-14,株式会社五十六不動産,,株式会社,京都府,京都市東山区,今熊野池田町６０－８,,26,105,6050965,,,,,,,2022-12-14,1,,,,,イソロクフドウサン,0
934,4140001128418,新規,0,2022-12-14,2022-12-14,株式会社ＯＭＩ,,株式会社,兵庫県,赤穂郡上郡町,井上１７７－６,,28,481,6781251,,,,,,,2022-12-14,1,,,,,オーエムアイ,0
936,4140005026403,新規,0,2022-12-14,2022-12-14,一般社団法人日本文化海外サポートセンター,,その他の設立登記法人,兵庫県,姫路市,飯田３丁目２５０番地２,,28,201,6700974,,,,,,,2022-12-14,1,,,,,ニホンブンカカイガイサポートセンター,0
937,4150001026026,新規,0,2022-12-14,2022-12-14,株式会社原田,,株式会社,奈良県,磯城郡田原本町,大字千代１０１０番地の２,,29,363,6360246,,,,,,,2022-12-14,1,,,,,ハラダ,0
940,4170001017411,新規,0,2022-12-14,2022-12-14,株式会社Ｌｅｓ　Ｌｉｅｎ,,株式会社,和歌山県,和歌山市,美園町４丁目７０番地,,30,201,6408331,,,,,,,2022-12-14,1,,,,,レリヤン,0
949,4180001154229,新規,0,2022-12-14,2022-12-14,株式会社ｃｒｅａｔｅ,,株式会社,愛知県,海部郡蟹江町,本町５丁目１００番地ニューシティ蟹江一番館５０９号,,23,425,4970034,,,,,,,2022-12-14,1,,,,,クリエイト,0
955,4180003024603,新規,0,2022-12-14,2022-12-14,合同会社グライト,,合同会社,愛知県,一宮市,瀬部字川原７番地１,,23,203,4910001,,,,,,,2022-12-14,1,,,,,グライト,0
956,4180303005542,新規,0,2022-12-14,2022-12-14,マツデン合同会社,,合同会社,愛知県,豊川市,野口町道下５５番地の２,,23,207,4420851,,,,,,,2022-12-14,1,,,,,マツデン,0
958,4190001030016,新規,0,2022-12-14,2022-12-14,株式会社大戸ホールディングス,,株式会社,三重県,松阪市,高須町３８６６番地１０,,24,204,5150104,,,,,,,2022-12-14,1,,,,,オオトホールディングス,0
959,4200001040756,新規,0,2022-12-14,2022-12-14,株式会社Ｌｉｘ,,株式会社,岐阜県,中津川市,手賀野６５１番地の７,,21,206,5080015,,,,,,,2022-12-14,1,,,,,リックス,0
960,4200001040764,新規,0,2022-12-14,2022-12-14,株式会社クリエイティブファーマーズ,,株式会社,岐阜県,恵那市,上矢作町４２４０番地,,21,210,5097521,,,,,,,2022-12-14,1,,,,,クリエイティブファーマーズ,0
961,4200001040772,新規,0,2022-12-14,2022-12-14,株式会社ＫＫメディカル,,株式会社,岐阜県,瑞浪市,一色町２丁目１３２番地,,21,208,5096124,,,,,,,2022-12-14,1,,,,,ケイケイメディカル,0
965,4220003003412,新規,0,2022-12-14,2022-12-14,合同会社東藤事務所,,合同会社,石川県,金沢市,駅西新町１丁目３８番４号トロワ・ヴィラージュ５０２号,,17,201,9200027,,,,,,,2022-12-14,1,,,,,トウドウジムショ,0
967,4230001019632,新規,0,2022-12-14,2022-12-14,株式会社ボーテヌールプロダクト,,株式会社,富山県,小矢部市,胡麻島１７５番地３,,16,209,9320105,,,,,,,2022-12-14,1,,,,,ボーテヌールプロダクト,0
973,4260001037499,新規,0,2022-12-14,2022-12-14,株式会社エスアイシー,,株式会社,岡山県,倉敷市,連島３丁目２番２２号小野ビル２０３号室,,33,202,7128012,,,,,,,2022-12-14,1,,,,,エスアイシー,0
979,4280003001674,新規,0,2022-12-14,2022-12-14,合同会社薄紅,,合同会社,島根県,出雲市,平田町１７０８番地１平田ショッピングセンターＶｉＶＡ２階,,32,203,6910001,,,,,,,2022-12-14,1,,,,,ウスベニ,0
980,4290001099891,新規,0,2022-12-14,2022-12-14,ＴＡＰ株式会社,,株式会社,福岡県,福岡市中央区,薬院３丁目１６番２７号６Ｆ,,40,133,8100022,,,,,,,2022-12-14,1,,,,,タップ,0
981,4290001099917,新規,0,2022-12-14,2022-12-14,株式会社トーヨーコネクト,,株式会社,福岡県,福岡市博多区,吉塚４丁目３番２８号,,40,132,8120041,,,,,,,2022-12-14,1,,,,,トーヨーコネクト,0
985,4330001030389,新規,0,2022-12-14,2022-12-14,株式会社ＦＩＮＥ,,株式会社,熊本県,天草市,南新町１０番地８,,43,215,8630031,,,,,,,2022-12-14,1,,,,,ファイン,0
986,4330001030397,新規,0,2022-12-14,2022-12-14,株式会社ＴＡＮＡＢＥ,,株式会社,熊本県,熊本市東区,若葉５丁目５－１,,43,102,8612103,,,,,,,2022-12-14,1,,,,,タナベ,0
996,4370001049351,新規,0,2022-12-14,2022-12-14,株式会社ＹＯＵＲＳ,,株式会社,宮城県,仙台市太白区,柳生２丁目１０番地１,,04,104,9811106,,,,,,,2022-12-14,1,,,,,ユアーズ,0
997,4370001049368,新規,0,2022-12-14,2022-12-14,株式会社アイマコネクト,,株式会社,宮城県,仙台市宮城野区,福室４丁目３番２０号,,04,102,9830005,,,,,,,2022-12-14,1,,,,,アイマコネクト,0
1022,4470003002307,新規,0,2022-12-14,2022-12-14,合同会社ＭＭＫ,,合同会社,香川県,高松市,多肥上町１４０６番地１０,,37,201,7618076,,,,,,,2022-12-14,1,,,,,エムエムケー,0
1023,4480003001902,新規,0,2022-12-14,2022-12-14,合同会社Ｗｉｓｔｅｒｉａ,,合同会社,徳島県,徳島市,沖浜東３丁目６６,,36,201,7708053,,,,,,,2022-12-14,1,,,,,ウィステリア,0
1026,4500001024646,新規,0,2022-12-14,2022-12-14,株式会社セントラルエステート,,株式会社,愛媛県,松山市,河原町９番地２,,38,201,7900013,,,,,,,2022-12-14,1,,,,,セントラルエステート,0
1027,4500001024654,新規,0,2022-12-14,2022-12-14,株式会社長崎ホールディングス,,株式会社,愛媛県,松山市,来住町１４８２番地１,,38,201,7911102,,,,,,,2022-12-14,1,,,,,ナガサキホールディングス,0
1039,5010001231522,新規,0,2022-12-14,2022-12-14,ｐｅｇｇｉｎｇ株式会社,,株式会社,東京都,千代田区,神田平河町１番地第３東ビル５階,,13,101,1010027,,,,,,,2022-12-14,1,,,,,ペギング,0
1040,5010001231530,新規,0,2022-12-14,2022-12-14,ｗａｌｔｓｕ株式会社,,株式会社,東京都,中央区,勝どき５丁目５－１４－１３１２,,13,102,1040054,,,,,,,2022-12-14,1,,,,,ワルツ,0
1042,5010003039328,新規,0,2022-12-14,2022-12-14,ＲＳコンサル合同会社,,合同会社,東京都,中央区,銀座１丁目２２番１１号銀座大竹ビジデンス２階,,13,102,1040061,,,,,,,2022-12-14,1,,,,,アールエスコンサル,0
1043,5010005035903,新規,0,2022-12-14,2022-12-14,一般社団法人Ｂｅｄｒｙｋ,,その他の設立登記法人,東京都,文京区,本郷６丁目１９番１４号玉泉館ＩＩ２０１,00128798,13,105,1130033,,,,,,,2022-12-14,1,,,,,ベドリック,0
1044,5010101015453,新規,0,2022-12-14,2022-12-14,株式会社ＳＭＫ,,株式会社,東京都,八王子市,北野町５７４－１グランドフォーラム北野１０３,,13,201,1920906,,,,,,,2022-12-14,1,,,,,エスエムケー,0
1045,5010103002045,新規,0,2022-12-14,2022-12-14,合同会社Ｒｏｕｎｄ　Ｒｏｂｉｎ,,合同会社,東京都,八王子市,大和田町５丁目２４番３号パークマンション２０３号,,13,201,1920045,,,,,,,2022-12-14,1,,,,,ラウンドロビン,0
1050,5010401171392,新規,0,2022-12-14,2022-12-14,株式会社ＭＡ　ｄｅｓｉｇｎ,,株式会社,東京都,港区,北青山３丁目５番１４号６階,,13,103,1070061,,,,,,,2022-12-14,1,,,,,マデザイン,0
1054,5010403029151,新規,0,2022-12-14,2022-12-14,海保ソーラー合同会社,,合同会社,東京都,港区,六本木４丁目３番１１－１２３号,,13,103,1060032,,,,,,,2022-12-14,1,,,,,カイホソーラー,0
1061,5010901052126,新規,0,2022-12-14,2022-12-14,株式会社ＴＵＲＡＲＡ,,株式会社,東京都,世田谷区,三軒茶屋２丁目４３番２号,,13,112,1540024,,,,,,,2022-12-14,1,,,,,ツララ,0
1069,5011001151462,新規,0,2022-12-14,2022-12-14,株式会社ｂａｌｌ　ｐｏｏｌ,,株式会社,東京都,目黒区,目黒本町４丁目１７番１４号ヘーベルメゾン目黒本町ＣＥＮＴＲＡＬ－２０５,,13,110,1520002,,,,,,,2022-12-14,1,,,,,ボールプール,0
1070,5011001151470,新規,0,2022-12-14,2022-12-14,株式会社ＮＥＷＰＡＲＫ,,株式会社,東京都,目黒区,碑文谷５丁目２番５号Ｔ＆Ａビル５階,,13,110,1520003,,,,,,,2022-12-14,1,,,,,ニューパーク,0
1071,5011003015905,新規,0,2022-12-14,2022-12-14,くらしＬＡＢＯ合同会社,,合同会社,東京都,渋谷区,神宮前６丁目２３番４号桑野ビル２階,,13,113,1500001,,,,,,,2022-12-14,1,,,,,クラシラボ,0
1072,5011003015913,新規,0,2022-12-14,2022-12-14,合同会社ＴＮＢ,,合同会社,東京都,目黒区,五本木３丁目１５番１号エンブレム学芸大２０１,,13,110,1530053,,,,,,,2022-12-14,1,,,,,ティーエヌビー,0
1079,5011101101152,新規,0,2022-12-14,2022-12-14,株式会社８０８,,株式会社,東京都,新宿区,西新宿３丁目７－１新宿パークタワーＮ３０Ｆ,,13,104,1600023,,,,,,,2022-12-14,1,,,,,パルゴンパル,0
1081,5011201024294,新規,0,2022-12-14,2022-12-14,株式会社ヘメロカリス,,株式会社,東京都,中野区,中央３丁目１番３－５０７号,,13,114,1640011,,,,,,,2022-12-14,1,,,,,ヘメロカリス,0
1094,5011803005428,新規,0,2022-12-14,2022-12-14,合同会社Ｌｉｖｅ　ｗｉｔｈ　Ｌａｂ,,合同会社,東京都,足立区,足立４丁目１０番１０号,,13,121,1200015,,,,,,,2022-12-14,1,,,,,ライヴウィズラブ,0
1099,5012403005735,新規,0,2022-12-14,2022-12-14,ＢＡＵＭ合同会社,,合同会社,東京都,小金井市,貫井南町２丁目４番１２号,,13,210,1840014,,,,,,,2022-12-14,1,,,,,バウム,0
1102,5013303006410,新規,0,2022-12-14,2022-12-14,合同会社アヴニール,,合同会社,東京都,豊島区,駒込３丁目２０番１号,,13,116,1700003,,,,,,,2022-12-14,1,,,,,アヴニール,0
1113,5021001077698,新規,0,2022-12-14,2022-12-14,スローライフカンパニー株式会社,,株式会社,神奈川県,藤沢市,羽鳥３丁目１番８～Ｓ７０３号,,14,205,2510056,,,,,,,2022-12-14,1,,,,,スローライフカンパニー,0
1114,5021001077707,新規,0,2022-12-14,2022-12-14,株式会社Ｇｒａｓｓ　Ｆａｍｉｌｙ．,,株式会社,神奈川県,海老名市,中央１丁目１６番３１号Ａ＆ＮＩビル１Ｆ,,14,215,2430432,,,,,,,2022-12-14,1,,,,,グラスファミリー,0
1121,5030001151446,新規,0,2022-12-14,2022-12-14,株式会社関根建設,,株式会社,埼玉県,さいたま市見沼区,大字東門前３７０番地,,11,104,3370016,,,,,,,2022-12-14,1,,,,,セキネケンセツ,0
1122,5030001151487,新規,0,2022-12-14,2022-12-14,株式会社ＲＳさいたま,,株式会社,埼玉県,さいたま市北区,本郷町７１２番地２,,11,102,3310802,,,,,,,2022-12-14,1,,,,,アールエスサイタマ,0
1129,5030003020756,新規,0,2022-12-14,2022-12-14,＿蕊合同会社,00128788,合同会社,埼玉県,戸田市,中町１丁目６－２西部第二コーポ４０６号室,,11,224,3350012,,,,,,,2022-12-14,1,,,,,キンズイ,0
1140,5040001126166,新規,0,2022-12-14,2022-12-14,株式会社ＤＩＣ,,株式会社,千葉県,八千代市,米本２５４３－２,,12,221,2760015,,,,,,,2022-12-14,1,,,,,ディーアイーシー,0
1141,5040001126199,新規,0,2022-12-14,2022-12-14,株式会社秋葉商店,,株式会社,千葉県,勝浦市,守谷６０番地,,12,218,2995244,,,,,,,2022-12-14,1,,,,,アキバショウテン,0
1142,5040001126208,新規,0,2022-12-14,2022-12-14,株式会社ＹＳＴ,,株式会社,千葉県,千葉市花見川区,作新台８丁目５番７号,,12,102,2620045,,,,,,,2022-12-14,1,,,,,ワイエスティー,0
1147,5040003021472,新規,0,2022-12-14,2022-12-14,ＶＩＳＩＯＮ　ｘ　ＶＩＳＩＯＮ合同会社,,合同会社,千葉県,柏市,松ケ崎２４７番地６栗林クレス３０３号,,12,217,2770835,,,,,,,2022-12-14,1,,,,,ビジョンビジョン,0
1149,5050001052089,新規,0,2022-12-14,2022-12-14,株式会社ｍｉｌｋ,,株式会社,茨城県,ひたちなか市,はしかべ１丁目１３番２６号ルーチェ２０１,,08,221,3120054,,,,,,,2022-12-14,1,,,,,ミルク,0
1150,5060001035530,新規,0,2022-12-14,2022-12-14,株式会社Ｍ’ｓファクトリー,,株式会社,栃木県,那須塩原市,鍋掛１０８４番地４９８,,09,213,3250013,,,,,,,2022-12-14,1,,,,,エムズファクトリー,0
1154,5070001039919,新規,0,2022-12-14,2022-12-14,株式会社スターエデン,,株式会社,群馬県,佐波郡玉村町,大字樋越１５５番地６,,10,464,3701103,,,,,,,2022-12-14,1,,,,,スターエデン,0
1157,5080103002708,新規,0,2022-12-14,2022-12-14,合同会社ｙｃｕｂｅ　ｄｅｓｉｇｎ,,合同会社,静岡県,熱海市,田原本町９番１号,,22,205,4130011,,,,,,,2022-12-14,1,,,,,ワイキューブデザイン,0
1159,5080405007504,新規,0,2022-12-14,2022-12-14,サニーヒルズ団地管理組合法人,,その他の設立登記法人,静岡県,浜松市中区,富塚町３４５９番地の１７,,22,131,4328002,,,,,,,2022-12-14,1,,,,,サニーヒルズ,0
1160,5100001035971,新規,0,2022-12-14,2022-12-14,株式会社一二,,株式会社,長野県,諏訪市,大字四賀１９４２番地１,,20,206,3920012,,,,,,,2022-12-14,1,,,,,イチニ,0
1162,5100005012950,新規,0,2022-12-14,2022-12-14,ローヤルシティ長野信大前管理組合法人,,その他の設立登記法人,長野県,長野市,大字西長野４番地１ローヤルシティ長野信大前内,,20,201,3800871,,,,,,,2022-12-14,1,,,,,ローヤルシティナガノシンダイマエ,0
1173,5120001250949,新規,0,2022-12-14,2022-12-14,株式会社北牧,,株式会社,大阪府,枚方市,養父丘１丁目９番５号,,27,210,5731134,,,,,,,2022-12-14,1,,,,,キタマキ,0
1174,5120001251022,新規,0,2022-12-14,2022-12-14,株式会社シニアアントレ,,株式会社,大阪府,大阪市中央区,谷町２丁目７番４号,,27,128,5400012,,,,,,,2022-12-14,1,,,,,シニアアントレ,0
1175,5120003023080,新規,0,2022-12-14,2022-12-14,合同会社Ｐｌｕｓ　Ａｔｌａｓ,,合同会社,大阪府,大阪市中央区,常盤町２丁目２番１０－１００７号,,27,128,5400028,,,,,,,2022-12-14,1,,,,,プラスアトラス,0
1176,5120003023089,新規,0,2022-12-14,2022-12-14,合同会社クリエイティブパートナーズ,,合同会社,大阪府,大阪市生野区,桃谷２丁目２５番１４号,,27,116,5440034,,,,,,,2022-12-14,1,,,,,クリエイティブパートナーズ,0
1178,5120101066667,新規,0,2022-12-14,2022-12-14,株式会社Ｆ１保険サービス,,株式会社,大阪府,泉大津市,我孫子６０１番地,,27,206,5950031,,,,,,,2022-12-14,1,,,,,エフワンホケンサービス,0
1179,5120103004963,新規,0,2022-12-14,2022-12-14,アオゾラ銘板合同会社,,合同会社,大阪府,堺市北区,北花田町２丁４番地１－９０４号,,27,146,5918002,,,,,,,2022-12-14,1,,,,,アオゾラメイバン,0
1183,5120901046868,新規,0,2022-12-14,2022-12-14,株式会社さとなび,,株式会社,大阪府,豊中市,緑丘１丁目２１番２号,,27,203,5600002,,,,,,,2022-12-14,1,,,,,サトナビ,0
1186,5122001036493,新規,0,2022-12-14,2022-12-14,株式会社ＳｉｎＬｉｎＧｒｏｕｐ,,株式会社,大阪府,東大阪市,玉串町西３丁目２番３７号,,27,227,5780934,,,,,,,2022-12-14,1,,,,,シンリングループ,0
1187,5122001036502,新規,0,2022-12-14,2022-12-14,株式会社Ｌｉｂｅｒａ,,株式会社,大阪府,東大阪市,小若江４丁目７番５号,,27,227,5770818,,,,,,,2022-12-14,1,,,,,リベラ,0
1190,5130001073267,新規,0,2022-12-14,2022-12-14,株式会社茶と,,株式会社,京都府,京都市北区,紫竹上梅ノ木町６６番地１,,26,101,6038179,,,,,,,2022-12-14,1,,,,,チャト,0
1196,5140001128383,新規,0,2022-12-14,2022-12-14,株式会社日航商店,,株式会社,兵庫県,神戸市西区,森友１丁目１１８番地,,28,111,6512132,,,,,,,2022-12-14,1,,,,,ニッコウショウテン,0
1197,5140001128425,新規,0,2022-12-14,2022-12-14,株式会社スマイル,,株式会社,兵庫県,川辺郡猪名川町,上野字釜床２０,,28,301,6660244,,,,,,,2022-12-14,1,,,,,スマイル,0
1203,5150003002833,新規,0,2022-12-14,2022-12-14,合同会社Ｆｉｎｄ　Ｆｕｔｕｒｅ,,合同会社,奈良県,香芝市,下田西１丁目１２４－１－２Ｆ,,29,210,6390231,,,,,,,2022-12-14,1,,,,,ファインドフューチャー,0
1204,5150003002841,新規,0,2022-12-14,2022-12-14,合同会社ＴＫＭＲ,,合同会社,奈良県,奈良市,二名３丁目１０８９番地の１０,,29,201,6310072,,,,,,,2022-12-14,1,,,,,ティーケーエムアール,0
1205,5150005009447,新規,0,2022-12-14,2022-12-14,一般社団法人ポジティブサポート,,その他の設立登記法人,奈良県,奈良市,西大寺本町５番３－７０２号,,29,201,6310816,,,,,,,2022-12-14,1,,,,,ポジティブサポート,0
1207,5170001017410,新規,0,2022-12-14,2022-12-14,株式会社千香音．ｆｉｒｍ,,株式会社,和歌山県,日高郡みなべ町,山内９８９－３,,30,391,6450012,,,,,,,2022-12-14,1,,,,,チカネドットファーム,0
1223,5200001040763,新規,0,2022-12-14,2022-12-14,株式会社エム・デンキ,,株式会社,岐阜県,大垣市,三津屋町４丁目１４７１番地１,,21,202,5030012,,,,,,,2022-12-14,1,,,,,エムデンキ,0
1228,5240001060790,新規,0,2022-12-14,2022-12-14,株式会社カドヤ企画,,株式会社,広島県,広島市東区,牛田本町１丁目８番１７号,,34,102,7320066,,,,,,,2022-12-14,1,,,,,カドヤキカク,0
1229,5240001060799,新規,0,2022-12-14,2022-12-14,株式会社二葉会,,株式会社,広島県,広島市中区,猫屋町３番１－９０３号,,34,101,7300852,,,,,,,2022-12-14,1,,,,,フタバカイ,0
1240,5290001099825,新規,0,2022-12-14,2022-12-14,フェニックス・ハイテック・イノベーション株式会社,,株式会社,福岡県,糸島市,川原８３６－８雷山の森Ｃ－５７,,40,230,8191574,,,,,,,2022-12-14,1,,,,,フェニックスハイテックイノベーション,0
1241,5290001099890,新規,0,2022-12-14,2022-12-14,株式会社ＵＮＩＳＯＮ,,株式会社,福岡県,福岡市博多区,銀天町３丁目１番２３号,,40,132,8120879,,,,,,,2022-12-14,1,,,,,ユニゾン,0
1242,5290001099908,新規,0,2022-12-14,2022-12-14,株式会社ショウインホールディングス,,株式会社,福岡県,福岡市博多区,下川端町３番１号博多リバレイン１０Ｆ,,40,132,8120027,,,,,,,2022-12-14,1,,,,,ショウインホールディングス,0
1243,5290001099932,新規,0,2022-12-14,2022-12-14,株式会社Ｎｅｌｔｚ,,株式会社,福岡県,福岡市東区,香椎照葉５丁目１番１１－７０５号,,40,131,8130017,,,,,,,2022-12-14,1,,,,,ネルツ,0
1247,5290801029122,新規,0,2022-12-14,2022-12-14,株式会社宝石総合科学研究所,,株式会社,福岡県,遠賀郡岡垣町,海老津駅南３丁目５番１号,,40,383,8114238,,,,,,,2022-12-14,1,,,,,ホウセキソウゴウカガクケンキュウショ,0
1253,5310003004490,新規,0,2022-12-14,2022-12-14,合同会社ヒューマンサイエンス,,合同会社,長崎県,大村市,諏訪２丁目５００番地３０,,42,205,8560024,,,,,,,2022-12-14,1,,,,,ヒューマンサイエンス,0
1258,5330001030396,新規,0,2022-12-14,2022-12-14,株式会社Ｏｈａｎａファーム,,株式会社,熊本県,熊本市西区,小島下町５０４１番地,,43,103,8615284,,,,,,,2022-12-14,1,,,,,オハナファーム,0
1259,5330001030405,新規,0,2022-12-14,2022-12-14,株式会社ミノモ創建,,株式会社,熊本県,熊本市中央区,本荘町６４５番地,,43,101,8600816,,,,,,,2022-12-14,1,,,,,ミノモソウケン,0
1264,5340001025239,新規,0,2022-12-14,2022-12-14,株式会社インナービレッジ,,株式会社,鹿児島県,西之表市,西之表１６８１２番地３４,,46,213,8913101,,,,,,,2022-12-14,1,,,,,インナービレッジ,0
1266,5350001018084,新規,0,2022-12-14,2022-12-14,株式会社ロイ,,株式会社,宮崎県,宮崎市,堀川町９３番地１,,45,201,8800873,,,,,,,2022-12-14,1,,,,,ロイ,0
1269,5360003012547,新規,0,2022-12-14,2022-12-14,東上鮮魚合同会社,,合同会社,沖縄県,那覇市,字宇栄原４９６番地,,47,201,9010153,,,,,,,2022-12-14,1,,,,,トウジョウセンギョ,0
1272,5370001049367,新規,0,2022-12-14,2022-12-14,株式会社ＡＭＣＯ,,株式会社,宮城県,仙台市青葉区,五橋１丁目１番５０－２２０２号,,04,101,9800022,,,,,,,2022-12-14,1,,,,,アムコ,0
1279,5390001017099,新規,0,2022-12-14,2022-12-14,株式会社わたなべ,,株式会社,山形県,鶴岡市,野田目字家ノ腰４１番地２,,06,203,9997636,,,,,,,2022-12-14,1,,,,,ワタナベ,0
1299,5460103001497,新規,0,2022-12-14,2022-12-14,合同会社あしょろチーズ工房,,合同会社,北海道,足寄郡足寄町,中矢６７３番地４,,01,647,0893873,,,,,,,2022-12-14,1,,,,,アショロチーズコウボウ,0
1302,5470001019368,新規,0,2022-12-14,2022-12-14,十全建設株式会社,,株式会社,香川県,高松市,今里町２丁目４０番地７,,37,201,7600078,,,,,,,2022-12-14,1,,,,,,0
1303,5470001019376,新規,0,2022-12-14,2022-12-14,株式会社ＭＥＬＢＩＲＤＳ＆Ｃｏ．,,株式会社,香川県,高松市,天神前１０番５号高松セントラルスカイビルディング３ＦＳｏｕｔｈ,,37,201,7600018,,,,,,,2022-12-14,1,,,,,メルバーズアンドカンパニー,0
1306,5470003002306,新規,0,2022-12-14,2022-12-14,合同会社ＫＡＮＡＲＵ,,合同会社,香川県,高松市,香川町川東下６５３番地３,,37,201,7611705,,,,,,,2022-12-14,1,,,,,カナル,0
1308,5480003001901,新規,0,2022-12-14,2022-12-14,合同会社ヨシノ清掃社,,合同会社,徳島県,阿波市,吉野町西条字地免１４９番地３,,36,206,7711402,,,,,,,2022-12-14,1,,,,,ヨシノセイソウシャ,0
1310,5500005008545,新規,0,2022-12-14,2022-12-14,医療法人七色心療クリニック,,その他の設立登記法人,愛媛県,松山市,味酒町１丁目３番地四国ガス第２ビル１階,,38,201,7900814,,,,,,,2022-12-14,1,,,,,ナナイロシンリョウクリニック,0
1318,6010001231323,新規,0,2022-12-14,2022-12-14,株式会社マグナリープ,,株式会社,東京都,千代田区,九段南１丁目５番６号りそな九段ビル５階ＫＳフロア,,13,101,1020074,,,,,,,2022-12-14,1,,,,,マグナリープ,0
1319,6010001231397,新規,0,2022-12-14,2022-12-14,ｌｉＬＣＯＲＥ株式会社,,株式会社,東京都,中央区,銀座１丁目１２番４号Ｎ＆ＥＢＬＤ．６Ｆ,,13,102,1040061,,,,,,,2022-12-14,1,,,,,リルコア,0
1320,6010001231579,新規,0,2022-12-14,2022-12-14,ＡＳＩＫＡ株式会社,,株式会社,東京都,中央区,銀座１丁目２２番１１号２階,,13,102,1040061,,,,,,,2022-12-14,1,,,,,アシカ,0
1324,6010103002044,新規,0,2022-12-14,2022-12-14,合同会社エイトセール,,合同会社,東京都,八王子市,千人町１丁目８番２号リシェール２０２号,,13,201,1930835,,,,,,,2022-12-14,1,,,,,エイトセール,0
1329,6010401171276,新規,0,2022-12-14,2022-12-14,株式会社リージョナルスタイルサポート,,株式会社,東京都,港区,東新橋２丁目４番１号,,13,103,1050021,,,,,,,2022-12-14,1,,,,,リージョナルスタイルサポート,0
1330,6010401171334,新規,0,2022-12-14,2022-12-14,株式会社Ｔｏ　ｂｅ,,株式会社,東京都,港区,西麻布３丁目１３番１０,,13,103,1060031,,,,,,,2022-12-14,1,,,,,トゥービー,0
1331,6010401171375,新規,0,2022-12-14,2022-12-14,ティーエムディー株式会社,,株式会社,東京都,港区,南青山２丁目２番１５号,,13,103,1070062,,,,,,,2022-12-14,1,,,,,ティーエムディー,0
1332,6010403029134,新規,0,2022-12-14,2022-12-14,ＰＮホールディングス合同会社,,合同会社,東京都,港区,港南１丁目２番７０号,,13,103,1080075,,,,,,,2022-12-14,1,,,,,ピーエヌホールディングス,0
1342,6010801033522,新規,0,2022-12-14,2022-12-14,オゼウィル株式会社,,株式会社,東京都,大田区,大森西４丁目１６番２号エンゼルハイム大森第６、４０９号室,,13,111,1430015,,,,,,,2022-12-14,1,,,,,オゼウィル,0
1353,6011005009870,新規,0,2022-12-14,2022-12-14,弁護士法人アネフォート法律事務所,,その他の設立登記法人,東京都,渋谷区,千駄ヶ谷５丁目１３番１８号オフィスコート代々木Ｂ７,,13,113,1510051,,,,,,,2022-12-14,1,,,,,,0
1355,6011101101176,新規,0,2022-12-14,2022-12-14,株式会社Ｉｒｏｄｏｒｉ　ｏｆｆｉｃｅ,,株式会社,東京都,新宿区,四谷坂町１１番５－１０２号,,13,104,1600002,,,,,,,2022-12-14,1,,,,,イロドリオフィス,0
1356,6011103012495,新規,0,2022-12-14,2022-12-14,シロップ合同会社,,合同会社,東京都,新宿区,西新宿７丁目１番１２号,,13,104,1600023,,,,,,,2022-12-14,1,,,,,シロップ,0
1362,6011403003847,新規,0,2022-12-14,2022-12-14,合同会社ｓｈｉｅｎ,,合同会社,東京都,板橋区,大谷口北町６０番１－２０１号,,13,119,1730031,,,,,,,2022-12-14,1,,,,,シエン,0
1370,6011801041671,新規,0,2022-12-14,2022-12-14,株式会社スピカ,,株式会社,東京都,足立区,舎人２丁目１４番７号,,13,121,1210831,,,,,,,2022-12-14,1,,,,,スピカ,0
1373,6011803005427,新規,0,2022-12-14,2022-12-14,利達合同会社,,合同会社,東京都,足立区,伊興５丁目９－１４第一田村コーポ２０５号室,,13,121,1210823,,,,,,,2022-12-14,1,,,,,リタツ,0
1375,6012401039965,新規,0,2022-12-14,2022-12-14,株式会社ｍｏｔｙ,,株式会社,東京都,武蔵野市,吉祥寺東町２丁目２０番９号,,13,203,1800002,,,,,,,2022-12-14,1,,,,,モティー,0
1405,6030001151453,新規,0,2022-12-14,2022-12-14,ライフネットソーラー株式会社,,株式会社,埼玉県,さいたま市西区,大字佐知川５８２番地４,,11,101,3310064,,,,,,,2022-12-14,1,,,,,ライフネットソーラー,0
1406,6030001151494,新規,0,2022-12-14,2022-12-14,株式会社ＣＡＲＥＭＡＮ,,株式会社,埼玉県,飯能市,大字前ヶ貫２５８番地１９,,11,209,3570043,,,,,,,2022-12-14,1,,,,,ケアマン,0
1417,6060001035538,新規,0,2022-12-14,2022-12-14,株式会社ＨｅｍｐＨｅｍｐ,,株式会社,栃木県,那須塩原市,石林５３９番地４,,09,213,3292711,,,,,,,2022-12-14,1,,,,,ヘンプヘンプ,0
1425,6080001025330,新規,0,2022-12-14,2022-12-14,Ｕｐｔｅｍｐｏ株式会社,,株式会社,静岡県,島田市,元島田９３８５番地の４,,22,209,4270057,,,,,,,2022-12-14,1,,,,,アップテンポ,0
1426,6080103002707,新規,0,2022-12-14,2022-12-14,ライフエイト合同会社,,合同会社,静岡県,富士宮市,大岩１８５７番地の２,,22,207,4180013,,,,,,,2022-12-14,1,,,,,ライフエイト,0
1428,6080405007503,新規,0,2022-12-14,2022-12-14,一般社団法人寺院サポート葵,,その他の設立登記法人,静岡県,浜松市浜北区,内野２５５２番地,,22,136,4340044,,,,,,,2022-12-14,1,,,,,ジインサポートアオイ,0
1443,6120001251038,新規,0,2022-12-14,2022-12-14,琳達株式会社,,株式会社,大阪府,大阪市中央区,谷町７丁目３－４,,27,128,5420012,,,,,,,2022-12-14,1,,,,,リンタ,0
1444,6120001251062,新規,0,2022-12-14,2022-12-14,株式会社スレスタ,,株式会社,大阪府,大阪市住之江区,浜口東２丁目１番１１号,,27,125,5590002,,,,,,,2022-12-14,1,,,,,スレスタ,0
1449,6120005023350,新規,0,2022-12-14,2022-12-14,主聖霊教会,,その他の設立登記法人,大阪府,大阪市都島区,中野町３丁目５番３号都島Ｗビル,,27,102,5340027,,,,,,,2022-12-14,1,,,,,シュセイレイキョウカイ,0
1452,6120901046859,新規,0,2022-12-14,2022-12-14,ＴＫＧコンサルティング株式会社,,株式会社,大阪府,吹田市,豊津町１番１８号エクラート江坂ビル３Ｆ,,27,205,5640051,,,,,,,2022-12-14,1,,,,,ティーケージーコンサルティング,0
1464,6140001128408,新規,0,2022-12-14,2022-12-14,株式会社アイジーユー,,株式会社,兵庫県,洲本市,五色町鳥飼上９４３－３,,28,205,6561342,,,,,,,2022-12-14,1,,,,,アイジーユー,0
1465,6140001128416,新規,0,2022-12-14,2022-12-14,株式会社ＲＵＲＡＬ,,株式会社,兵庫県,淡路市,大谷１４６７番地４,,28,226,6562224,,,,,,,2022-12-14,1,,,,,ルーラル,0
1466,6140001128424,新規,0,2022-12-14,2022-12-14,株式会社ＨＡＫＵ,,株式会社,兵庫県,川辺郡猪名川町,上野字釜床２０,,28,301,6660244,,,,,,,2022-12-14,1,,,,,ハク,0
1469,6140003018441,新規,0,2022-12-14,2022-12-14,合同会社あおいそら,,合同会社,兵庫県,神戸市北区,有野町唐櫃１９２番地の２,,28,109,6511331,,,,,,,2022-12-14,1,,,,,アオイソラ,0
1473,6150003002840,新規,0,2022-12-14,2022-12-14,合同会社ととも,,合同会社,奈良県,生駒市,山崎新町４番３３－１０３号,,29,209,6300255,,,,,,,2022-12-14,1,,,,,トトモ,0
1475,6160001024704,新規,0,2022-12-14,2022-12-14,株式会社サンライズテクノ,,株式会社,滋賀県,彦根市,竹ケ鼻町１５５番地２２,,25,202,5220044,,,,,,,2022-12-14,1,,,,,サンライズテクノ,0
1476,6160003002757,新規,0,2022-12-14,2022-12-14,合同会社タナカ運送,,合同会社,滋賀県,栗東市,坊袋５６－１１,,25,208,5203023,,,,,,,2022-12-14,1,,,,,タナカウンソウ,0
1480,6180001154219,新規,0,2022-12-14,2022-12-14,株式会社ＴＲＫＳ,,株式会社,愛知県,海部郡大治町,大字西條字南井口５８番地,,23,424,4901144,,,,,,,2022-12-14,1,,,,,ティーアールケーエス,0
1493,6200003005763,新規,0,2022-12-14,2022-12-14,合同会社ｉｍａｒｇｅ　ｈａｉｒ,,合同会社,岐阜県,下呂市,森９０３番地１２,,21,220,5092202,,,,,,,2022-12-14,1,,,,,イマージヘアー,0
1494,6210001019186,新規,0,2022-12-14,2022-12-14,株式会社ＫＢＴ,,株式会社,福井県,鯖江市,水落町３丁目４番３４号,,18,207,9160022,,,,,,,2022-12-14,1,,,,,ケイビーティー,0
1506,6240003005925,新規,0,2022-12-14,2022-12-14,合同会社Ｋ‐ｐｌｕｓ,,合同会社,広島県,広島市西区,高須１丁目３番３４－４０２号,,34,104,7330871,,,,,,,2022-12-14,1,,,,,ケイプラス,0
1509,6280001008843,新規,0,2022-12-14,2022-12-14,アセットリンク株式会社,,株式会社,島根県,松江市,千鳥町２６番地２,,32,201,6900852,,,,,,,2022-12-14,1,,,,,アセットリンク,0
1517,6290001099931,新規,0,2022-12-14,2022-12-14,株式会社ＪＢ,,株式会社,福岡県,福岡市博多区,東那珂１丁目１８番２７号５階,,40,132,8120892,,,,,,,2022-12-14,1,,,,,ジェイビー,0
1521,6300001013163,新規,0,2022-12-14,2022-12-14,株式会社ねこまめ,,株式会社,佐賀県,鳥栖市,元町１２２３番地１エバーライフ鳥栖２－４０６,,41,203,8410051,,,,,,,2022-12-14,1,,,,,ネコマメ,0
1527,6330001030404,新規,0,2022-12-14,2022-12-14,株式会社三榮社,,株式会社,熊本県,熊本市東区,健軍本町５２番３号ティエルハイム２Ｆ,,43,102,8620910,,,,,,,2022-12-14,1,,,,,サンエイシャ,0
1532,6350001018083,新規,0,2022-12-14,2022-12-14,株式会社ＡＬＬ　ＫＩＲＥＩ,,株式会社,宮崎県,都城市,松元町８街区３号千日ビル１Ｆ,,45,202,8850077,,,,,,,2022-12-14,1,,,,,オールキレイ,0
1537,6360003012546,新規,0,2022-12-14,2022-12-14,合同会社カーサポートｐｉｅｃｅ,,合同会社,沖縄県,うるま市,字具志川１３７３番地３,,47,213,9042223,,,,,,,2022-12-14,1,,,,,カーサポートピース,0
1559,6470001019359,新規,0,2022-12-14,2022-12-14,株式会社スペース設計,,株式会社,香川県,丸亀市,郡家町１７８２番地２,,37,202,7630093,,,,,,,2022-12-14,1,,,,,スペースセッケイ,0
1560,6470001019375,新規,0,2022-12-14,2022-12-14,株式会社シバ設計,,株式会社,香川県,高松市,松縄町１０７５番地３１労住協不動産センタービル２０２号室,,37,201,7600079,,,,,,,2022-12-14,1,,,,,シバセッケイ,0
1561,6470003002305,新規,0,2022-12-14,2022-12-14,合同会社ＫＨ浜商,,合同会社,香川県,高松市,十川西町６３番地４,,37,201,7610433,,,,,,,2022-12-14,1,,,,,ケイエイチハマショウ,0
1565,6490003001718,新規,0,2022-12-14,2022-12-14,合同会社ｔｓｕｍｕｇｉ,,合同会社,高知県,高知市,横内３０３－１－１０３,,39,201,7800964,,,,,,,2022-12-14,1,,,,,ツムギ,0
1571,6700150113392,新規,0,2022-12-14,2022-12-14,エアプレミア株式会社,,外国会社等,東京都,千代田区,神田須田町２丁目２５ＧＹＢ秋葉原,,13,101,1010041,大韓民国ソウル特別市江西区空港大路２４８、４階（麻谷洞）,,,,,,2022-12-14,1,,,,,エアプレミアカブシキガイシヤ,0
1582,7010001231495,新規,0,2022-12-14,2022-12-14,株式会社ファームス,,株式会社,東京都,中央区,銀座１丁目１２ー４Ｎ＆ＥＢＬＤ．７階,,13,102,1040061,,,,,,,2022-12-14,1,,,,,ファームス,0
1583,7010001231520,新規,0,2022-12-14,2022-12-14,Ｍ＆Ａスターキャリア株式会社,,株式会社,東京都,中央区,銀座１丁目１２番４号Ｎ＆ＥＢＬＤ．６Ｆ,,13,102,1040061,,,,,,,2022-12-14,1,,,,,エムアンドエースターキャリア,0
1584,7010001231545,新規,0,2022-12-14,2022-12-14,株式会社ＮａｒｒａｔｉｖｅＦｏｏｔ,,株式会社,東京都,中央区,日本橋小舟町９番２号ソレイユビル３階,,13,102,1030024,,,,,,,2022-12-14,1,,,,,ナラティブフット,0
1585,7010001231611,新規,0,2022-12-14,2022-12-14,オーネストホールディングス株式会社,,株式会社,東京都,文京区,本郷４丁目３７番１７号,,13,105,1130033,,,,,,,2022-12-14,1,,,,,オーネストホールディングス,0
1602,7010401171242,新規,0,2022-12-14,2022-12-14,株式会社ＫＩＧ,,株式会社,東京都,港区,元赤坂１丁目１番１６号,,13,103,1070051,,,,,,,2022-12-14,1,,,,,ケーアイジー,0
1603,7010401171358,新規,0,2022-12-14,2022-12-14,株式会社ＮＡＥＣＯ,,株式会社,東京都,港区,芝大門２丁目２番１１号泉芝大門ビル２階,,13,103,1050012,,,,,,,2022-12-14,1,,,,,ネイコ,0
1604,7010403029109,新規,0,2022-12-14,2022-12-14,Ａｉｒ　Ｌａｂ合同会社,,合同会社,東京都,港区,港南２丁目３番１号,,13,103,1080075,,,,,,,2022-12-14,1,,,,,エアーラボ,0
1613,7010801033513,新規,0,2022-12-14,2022-12-14,サーパス株式会社,,株式会社,東京都,大田区,南六郷２丁目２４番２２号,,13,111,1440045,,,,,,,2022-12-14,1,,,,,サーパス,0
1614,7010901052132,新規,0,2022-12-14,2022-12-14,株式会社グローバルプレイ,,株式会社,東京都,世田谷区,弦巻１丁目１７番１１号,,13,112,1540016,,,,,,,2022-12-14,1,,,,,グローバルプレイ,0
1615,7010901052140,新規,0,2022-12-14,2022-12-14,株式会社ＮＡＴＲＡ,,株式会社,東京都,世田谷区,中町４丁目５番１４号,,13,112,1580091,,,,,,,2022-12-14,1,,,,,ナトラ,0
1616,7010901052149,新規,0,2022-12-14,2022-12-14,株式会社デュアル,,株式会社,東京都,世田谷区,砧４丁目３０番１４号,,13,112,1570073,,,,,,,2022-12-14,1,,,,,,0
1617,7010903007836,新規,0,2022-12-14,2022-12-14,合同会社Ｔｉｇｒｅ　ｐｏｒｔｅ,,合同会社,東京都,世田谷区,北沢２丁目２７番１３号平野ハウス３Ｆ,,13,112,1550031,,,,,,,2022-12-14,1,,,,,ティーグルポルテ,0
1622,7011003015903,新規,0,2022-12-14,2022-12-14,Ｊａｐａｎｅｓｅ　Ｃａｒ　Ｅｘｐｏｒｔｓ　Ｃｏｍｐａｎｙ合同会社,,合同会社,東京都,渋谷区,桜丘町２６番１号セルリアンタワー１５階,,13,113,1500031,,,,,,,2022-12-14,1,,,,,ジャパニーズカーエクスポーツカンパニー,0
1623,7011101101159,新規,0,2022-12-14,2022-12-14,株式会社ＴＡＮＥ,,株式会社,東京都,新宿区,新宿６丁目１７番１７号,,13,104,1600022,,,,,,,2022-12-14,1,,,,,タネ,0
1624,7011101101183,新規,0,2022-12-14,2022-12-14,株式会社ＮＥＷ　ＳＴＡＲＴ,,株式会社,東京都,新宿区,新宿５丁目１８番２０号ルックハイツ新宿８０３号,,13,104,1600022,,,,,,,2022-12-14,1,,,,,ニュースタート,0
1627,7011503005395,新規,0,2022-12-14,2022-12-14,合同会社ＡＣＥ,,合同会社,東京都,北区,桐ケ丘２丁目１１番３８－３０５号,,13,117,1150054,,,,,,,2022-12-14,1,,,,,エース,0
1629,7011601026434,新規,0,2022-12-14,2022-12-14,株式会社立民工業,,株式会社,東京都,練馬区,石神井町５丁目７番２３号,,13,120,1770041,,,,,,,2022-12-14,1,,,,,タツミコウギョウ,0
1632,7011801041670,新規,0,2022-12-14,2022-12-14,東京迅馳株式会社,,株式会社,東京都,足立区,竹の塚２丁目２９番１３号,,13,121,1210813,,,,,,,2022-12-14,1,,,,,トウキョウセントリーノ,0
1634,7011803005418,新規,0,2022-12-14,2022-12-14,ＪＴＣ合同会社,,合同会社,東京都,足立区,千住５丁目２０番２３号,,13,121,1200034,,,,,,,2022-12-14,1,,,,,ジェイティシー,0
1638,7012401039964,新規,0,2022-12-14,2022-12-14,株式会社ａｏｎｏ,,株式会社,東京都,武蔵野市,境４丁目１番２４－２０３号,,13,203,1800022,,,,,,,2022-12-14,1,,,,,アオノ,0
1644,7013301050061,新規,0,2022-12-14,2022-12-14,株式会社ｒｅｌａｔｉｏｎｓｈｉｐ,,株式会社,東京都,豊島区,上池袋３丁目３４番１１－５０６号,,13,116,1700012,,,,,,,2022-12-14,1,,,,,リレーションシップ,0
1659,7021001077663,新規,0,2022-12-14,2022-12-14,株式会社Ｎトレード,,株式会社,神奈川県,藤沢市,本鵠沼３丁目６番３号,,14,205,2510028,,,,,,,2022-12-14,1,,,,,エヌトレード,0
1660,7021001077696,新規,0,2022-12-14,2022-12-14,トレーナーズラボ株式会社,,株式会社,神奈川県,藤沢市,辻堂新町１丁目１－２クロスポイント湘南５Ｆ,,14,205,2510042,,,,,,,2022-12-14,1,,,,,トレーナーズラボ,0
1661,7021001077705,新規,0,2022-12-14,2022-12-14,かまくらアカウンティング株式会社,,株式会社,神奈川県,鎌倉市,津１０５０－９１,,14,204,2480032,,,,,,,2022-12-14,1,,,,,カマクラアカウンティング,0
1664,7021003012503,新規,0,2022-12-14,2022-12-14,合同会社ｓｔａｋｅ,,合同会社,神奈川県,藤沢市,大庭５０５６番地の４・１－４号棟４０８３号室,,14,205,2510861,,,,,,,2022-12-14,1,,,,,ステイク,0
1672,7030001151460,新規,0,2022-12-14,2022-12-14,株式会社オオタプロデュース,,株式会社,埼玉県,戸田市,大字新曽３９７番地（メゾンサファイア３０２号室）,,11,224,3350021,,,,,,,2022-12-14,1,,,,,オオタプロデュース,0
1675,7030002125257,新規,0,2022-12-14,2022-12-14,有限会社男衾商事,,有限会社,埼玉県,大里郡寄居町,大字今市７７０番地２,,11,408,3691214,,,,,,,2022-12-14,1,,,,,,0
1678,7030003020630,新規,0,2022-12-14,2022-12-14,合同会社つばくら文藝企画,,合同会社,埼玉県,所沢市,西所沢１丁目１５番１２－８０９号,,11,208,3591144,,,,,,,2022-12-14,1,,,,,ツバクラブンゲイキカク,0
1679,7030003020754,新規,0,2022-12-14,2022-12-14,合同会社ツーフォー,,合同会社,埼玉県,坂戸市,大字塚越１００７番地１,,11,239,3500209,,,,,,,2022-12-14,1,,,,,ツーフォー,0
1684,7040001126164,新規,0,2022-12-14,2022-12-14,グリーンライフ株式会社,,株式会社,千葉県,千葉市稲毛区,小深町１０８番地１,,12,103,2630003,,,,,,,2022-12-14,1,,,,,グリーンライフ,0
1687,7050001052104,新規,0,2022-12-14,2022-12-14,株式会社アベル工業,,株式会社,茨城県,ひたちなか市,西十三奉行１１３８１番地３,,08,221,3111206,,,,,,,2022-12-14,1,,,,,アベルコウギョウ,0
1688,7050003007089,新規,0,2022-12-14,2022-12-14,合同会社ブライトピュア,,合同会社,茨城県,那珂郡東海村,白方中央２丁目６番３２号,,08,341,3191109,,,,,,,2022-12-14,1,,,,,ブライトピュア,0
1689,7060001035529,新規,0,2022-12-14,2022-12-14,株式会社ＶｉＶｉ‐ＵＰ,,株式会社,栃木県,小山市,城東７丁目６番１１号第７Ｋ２ビル１０２号室,,09,208,3230807,,,,,,,2022-12-14,1,,,,,ヴィヴィアップ,0
1690,7060001035537,新規,0,2022-12-14,2022-12-14,株式会社ＲＣｏｎｎｅｃｔ,,株式会社,栃木県,宇都宮市,本町６番１０号泉町ステラビル６階,,09,201,3200033,,,,,,,2022-12-14,1,,,,,アールコネクト,0
1693,7070005010064,新規,0,2022-12-14,2022-12-14,医療法人大山クリニック,,その他の設立登記法人,群馬県,前橋市,山王町２丁目２０番地１６,,10,201,3792123,,,,,,,2022-12-14,1,,,,,オオヤマクリニック,0
1694,7080001025346,新規,0,2022-12-14,2022-12-14,ＳＫＢホールディング株式会社,,株式会社,静岡県,静岡市駿河区,豊田３丁目１番３５号,,22,102,4228027,,,,,,,2022-12-14,1,,,,,エスケービーホールディング,0
1697,7080101023687,新規,0,2022-12-14,2022-12-14,株式会社藤和,,株式会社,静岡県,裾野市,平松２３４番地の３,,22,220,4101127,,,,,,,2022-12-14,1,,,,,トウワ,0
1698,7080103002706,新規,0,2022-12-14,2022-12-14,合同会社ＮＫＴＳ,,合同会社,静岡県,沼津市,北高島町５番７号,,22,203,4100054,,,,,,,2022-12-14,1,,,,,エヌケーティーエス,0
1700,7080401026200,新規,0,2022-12-14,2022-12-14,株式会社ＴＡＬ,,株式会社,静岡県,浜松市中区,法枝町７５番地の３,,22,131,4328053,,,,,,,2022-12-14,1,,,,,タル,0
1704,7100005012949,新規,0,2022-12-14,2022-12-14,一般社団法人Ｏｒｉ絲,,その他の設立登記法人,長野県,北安曇郡松川村,５７２１番地８０６,,20,482,3998501,,,,,,,2022-12-14,1,,,,,オリイト,0
1705,7110001037180,新規,0,2022-12-14,2022-12-14,新潟機械株式会社,,株式会社,新潟県,新潟市東区,桃山町２丁目１３２番地１,,15,102,9500051,,,,,,,2022-12-14,1,,,,,ニイガタキカイ,0
1715,7120001251037,新規,0,2022-12-14,2022-12-14,株式会社マークス,,株式会社,大阪府,大阪市中央区,平野町２丁目５番８号センチュリービル,,27,128,5410046,,,,,,,2022-12-14,1,,,,,マークス,0
1716,7120001251061,新規,0,2022-12-14,2022-12-14,株式会社ＬｅｇａＫｎｏｃｋ,,株式会社,大阪府,大阪市東淀川区,東中島４丁目１番２３－３０３号,,27,114,5330033,,,,,,,2022-12-14,1,,,,,レガノック,0
1720,7120101066665,新規,0,2022-12-14,2022-12-14,Ｙｏｓｓｙｎｏ株式会社,,株式会社,大阪府,堺市堺区,向陵東町３丁１番１５号３０１号室,,27,141,5900025,,,,,,,2022-12-14,1,,,,,ヨッシーノ,0
1721,7120101066673,新規,0,2022-12-14,2022-12-14,株式会社大津酸素商会,,株式会社,大阪府,泉大津市,松之浜町２丁目３番５号,,27,206,5950072,,,,,,,2022-12-14,1,,,,,オオツサンソショウカイ,0
1722,7120101066681,新規,0,2022-12-14,2022-12-14,Ｓ‐ＫＤＫ株式会社,,株式会社,大阪府,松原市,田井城１丁目６－２２－５Ｆ－Ｃ,,27,217,5800044,,,,,,,2022-12-14,1,,,,,エスキデック,0
1725,7120901046858,新規,0,2022-12-14,2022-12-14,株式会社Ｒｅｔｈｒｅｅ,,株式会社,大阪府,吹田市,豊津町１５番１３第２サニーハイツ１０２号室,,27,205,5640051,,,,,,,2022-12-14,1,,,,,リスリー,0
1740,7140001128217,新規,0,2022-12-14,2022-12-14,インテリア山崎株式会社,00128794,株式会社,兵庫県,姫路市,花田町上原田２１番地２,,28,201,6710251,,,,,,,2022-12-14,1,,,,,インテリアヤマサキ,0
1741,7140001128431,新規,0,2022-12-14,2022-12-14,株式会社アジアンブリッジアンドコミュニケーションズ,,株式会社,兵庫県,西宮市,門戸岡田町７番２９号,,28,204,6620826,,,,,,,2022-12-14,1,,,,,アジアンブリッジアンドコミュニケーションズ,0
1744,7140003018457,新規,0,2022-12-14,2022-12-14,合同会社Ｂｅｓｉｄｅ,,合同会社,兵庫県,神戸市須磨区,道正台１丁目３－６リブコートフェリス須磨妙法寺７１６,,28,107,6540122,,,,,,,2022-12-14,1,,,,,ビサイド,0
1745,7140003018473,新規,0,2022-12-14,2022-12-14,合同会社Ｒｅｇｕｌｕｓ,,合同会社,兵庫県,明石市,鷹匠町５－２,,28,203,6730848,,,,,,,2022-12-14,1,,,,,レグルス,0
1747,7150001026015,新規,0,2022-12-14,2022-12-14,フラタニティワークス株式会社,,株式会社,奈良県,生駒市,東菜畑１丁目１６５番地１２２,,29,209,6300215,,,,,,,2022-12-14,1,,,,,フラタニティワークス,0
1748,7160001024711,新規,0,2022-12-14,2022-12-14,Ｂｅｙｏｎｄ　Ｙｏｕ株式会社,,株式会社,滋賀県,守山市,梅田町８５‐７今プラス内,,25,207,5240037,,,,,,,2022-12-14,1,,,,,ビヨンドユー,0
1750,7160003002756,新規,0,2022-12-14,2022-12-14,合同会社湖都会計事務所,,合同会社,滋賀県,大津市,中央３丁目１番２７号,,25,201,5200043,,,,,,,2022-12-14,1,,,,,コトカイケイジムショ,0
1755,7180001154127,新規,0,2022-12-14,2022-12-14,株式会社グロース,,株式会社,愛知県,春日井市,神屋町２２９８番地１６６,,23,206,4800304,,,,,,,2022-12-14,1,,,,,グロース,0
1766,7200001040761,新規,0,2022-12-14,2022-12-14,株式会社エターナルクラス,,株式会社,岐阜県,可児市,久々利１６９４番地２,,21,214,5090224,,,,,,,2022-12-14,1,,,,,エターナルクラス,0
1767,7200005013425,新規,0,2022-12-14,2022-12-14,医療法人相嘉会,,その他の設立登記法人,岐阜県,岐阜市,則武中１丁目２５番地１,,21,201,5020932,,,,,,,2022-12-14,1,,,,,アイカカイ,0
1768,7210001019185,新規,0,2022-12-14,2022-12-14,株式会社ｔｅｃ．ｔｅｃ,,株式会社,福井県,越前市,本多１丁目１番１号,,18,209,9150811,,,,,,,2022-12-14,1,,,,,テックテック,0
1771,7220001025174,新規,0,2022-12-14,2022-12-14,株式会社ユアスタイルハウス,,株式会社,石川県,河北郡内灘町,字宮坂３字６番地５,,17,365,9200264,,,,,,,2022-12-14,1,,,,,ユアスタイルハウス,0
1775,7240001060789,新規,0,2022-12-14,2022-12-14,株式会社カメヒロ塗装,,株式会社,広島県,広島市安佐北区,大林２丁目１３番２７号,,34,106,7310201,,,,,,,2022-12-14,1,,,,,カメヒロトソウ,0
1777,7240003005932,新規,0,2022-12-14,2022-12-14,山もと山もと合同会社,,合同会社,広島県,広島市中区,流川町５－１９カサブランカビル２Ｆ,,34,101,7300028,,,,,,,2022-12-14,1,,,,,ヤマモトヤマモト,0
1783,7280001008842,新規,0,2022-12-14,2022-12-14,ＯｎｅＳｔｏｒｙＨｏｍｅ株式会社,,株式会社,島根県,松江市,玉湯町玉造９８２番地１ドルチェＩＩ１０２,00128783,32,201,6990201,,,,,,,2022-12-14,1,,,,,ワンストーリーホーム,0
1793,7290001099889,新規,0,2022-12-14,2022-12-14,株式会社Ｓｈｉｎｙ　Ｐｌｕｓ,,株式会社,福岡県,福岡市西区,姪浜駅南２丁目１５番１号,,40,135,8190006,,,,,,,2022-12-14,1,,,,,シャイニープラス,0
1794,7290001099922,新規,0,2022-12-14,2022-12-14,株式会社ＨｔｏＯ,,株式会社,福岡県,福岡市中央区,那の川２丁目１１番１０－１２０５号,,40,133,8100015,,,,,,,2022-12-14,1,,,,,エイチトゥーオー,0
1797,7290801029095,新規,0,2022-12-14,2022-12-14,株式会社ＧｏｏＧｏｏＬｉｎｋ,,株式会社,福岡県,北九州市小倉北区,浅野３丁目８番１号ＡＩＭビル６階,,40,106,8020001,,,,,,,2022-12-14,1,,,,,グーグーリンク,0
1803,7310002007765,新規,0,2022-12-14,2022-12-14,有限会社ティーエスエル井手,,有限会社,長崎県,西彼杵郡時津町,浦郷２８０番地２,,42,308,8512105,,,,,,,2022-12-14,1,,,,,ティーエスエルイデ,0
1807,7330001030386,新規,0,2022-12-14,2022-12-14,株式会社Ｃａｒｅ’Ｌ,,株式会社,熊本県,上益城郡嘉島町,大字上仲間１７７０番地５,,43,442,8613107,,,,,,,2022-12-14,1,,,,,ケアル,0
1808,7330001030394,新規,0,2022-12-14,2022-12-14,株式会社コレクト測量設計,,株式会社,熊本県,熊本市東区,小山３丁目８番１０１号,,43,102,8618045,,,,,,,2022-12-14,1,,,,,コレクトソクリョウセッケイ,0
1812,7330003009627,新規,0,2022-12-14,2022-12-14,Ｇｒｅｅｎｅｓｔ合同会社,,合同会社,熊本県,山鹿市,古閑１１３９番地３,,43,208,8610533,,,,,,,2022-12-14,1,,,,,グリーネスト,0
1818,7360001031308,新規,0,2022-12-14,2022-12-14,株式会社ＲＯＡＲ,,株式会社,沖縄県,うるま市,字江洲５３８－１,,47,213,9042244,,,,,,,2022-12-14,1,,,,,ロアー,0
1820,7360003012545,新規,0,2022-12-14,2022-12-14,合同会社イコールステイタス,,合同会社,沖縄県,中頭郡中城村,字南上原４０９番地１、Ｆ２、１２５街区８－１画地,,47,328,9012424,,,,,,,2022-12-14,1,,,,,イコールステイタス,0
1823,7370001049365,新規,0,2022-12-14,2022-12-14,株式会社Ｋｓｐｌａｃｅ,,株式会社,宮城県,仙台市太白区,東中田３丁目２６番４１号,,04,104,9811107,,,,,,,2022-12-14,1,,,,,ケーズプレイス,0
1825,7370003005911,新規,0,2022-12-14,2022-12-14,合同会社ＷａｎｔＲｅａｃｈ,,合同会社,宮城県,仙台市若林区,荒井７丁目２８－１ファミールエセナＤ２０３,,04,103,9840032,,,,,,,2022-12-14,1,,,,,ウォントリーチ,0
1841,7430001088035,新規,0,2022-12-14,2022-12-14,株式会社五鉄工業,,株式会社,北海道,札幌市東区,北四十七条東１５丁目３番２６－１０１号,,01,103,0070847,,,,,,,2022-12-14,1,,,,,ゴテツコウギョウ,0
1842,7430003014550,新規,0,2022-12-14,2022-12-14,合同会社サンニセコ,,合同会社,北海道,虻田郡ニセコ町,字富士見１６４番地３７,,01,395,0481501,,,,,,,2022-12-14,1,,,,,サンニセコ,0
1844,7440003001498,新規,0,2022-12-14,2022-12-14,合同会社コラサル函館,,合同会社,北海道,函館市,高松町５７５番地１８０,,01,202,0420952,,,,,,,2022-12-14,1,,,,,コラサルハコダテ,0
1845,7460101007296,新規,0,2022-12-14,2022-12-14,株式会社Ｇｒｉｚｚｌｙ,,株式会社,北海道,河西郡芽室町,東三条南２丁目８番地１レオパレスメムロ１０６号室,,01,637,0820053,,,,,,,2022-12-14,1,,,,,グリズリー,0
1847,7490001010356,新規,0,2022-12-14,2022-12-14,株式会社ランタン不動産,,株式会社,高知県,高知市,西秦泉寺３９２番地１１,,39,201,7800033,,,,,,,2022-12-14,1,,,,,ランタンフドウサン,0
1848,7500001024643,新規,0,2022-12-14,2022-12-14,株式会社プライド,,株式会社,愛媛県,西条市,周布３７９番地３,,38,206,7991371,,,,,,,2022-12-14,1,,,,,プライド,0
1849,7500001024651,新規,0,2022-12-14,2022-12-14,ＣＲＡＦＴＷＯＲＫＳ株式会社,,株式会社,愛媛県,松山市,正円寺３丁目５番４４－１号,,38,201,7900904,,,,,,,2022-12-14,1,,,,,クラフトワークス,0
1859,7700150113391,新規,0,2022-12-14,2022-12-14,ＨＵＡＷＥＩ　ＳＥＲＶＩＣＥＳ（ＨＯＮＧ　ＫＯＮＧ）ＣＯ．，ＬＩＭＩＴＥＤ,,外国会社等,,,,,,,,ＲＯＯＭ　０３　９／Ｆ　ＴＯＷＥＲ　６，ＴＨＥ　ＧＡＴＥＷＡＹ　ＮＯ．９　ＣＡＮＴＯＮ　ＲＯＡＤ，ＴＳＩＭＳＨＡＴＳＵＩ，ＫＬ，ＨＯＮＧ　ＫＯＮＧ,,,,,,2022-12-14,1,,,,,フアーウエイサービシーズホンコンシーオーリミテツド,0
1861,8010001231189,新規,0,2022-12-14,2022-12-14,振華生命科技株式会社,,株式会社,東京都,中央区,日本橋蛎殻町１丁目１９－９ルート蛎殻町ビル６Ｆ,,13,102,1030014,,,,,,,2022-12-14,1,,,,,シンカセイメイカギ,0
1862,8010001231503,新規,0,2022-12-14,2022-12-14,株式会社ＥＴＥ,,株式会社,東京都,中央区,日本橋小舟町８－１３,,13,102,1030024,,,,,,,2022-12-14,1,,,,,イーティーイー,0
1863,8010001231528,新規,0,2022-12-14,2022-12-14,株式会社イーチ,,株式会社,東京都,中央区,東日本橋２丁目２８番４号日本橋ＣＥＴビル２階,,13,102,1030004,,,,,,,2022-12-14,1,,,,,イーチ,0
1864,8010001231544,新規,0,2022-12-14,2022-12-14,株式会社ＫＥＮＢＯＵ,,株式会社,東京都,中央区,築地６丁目２４番５号,,13,102,1040045,,,,,,,2022-12-14,1,,,,,ケンボー,0
1866,8010003039317,新規,0,2022-12-14,2022-12-14,合同会社フェリシア,,合同会社,東京都,中央区,銀座１丁目２０番９号岡崎ビル,,13,102,1040061,,,,,,,2022-12-14,1,,,,,フェリシア,0
1868,8010005035909,新規,0,2022-12-14,2022-12-14,一般社団法人日本美術文化協会,,その他の設立登記法人,東京都,中央区,銀座１丁目１２番４号Ｎ＆ＥＢＬＤ．６Ｆ,,13,102,1040061,,,,,,,2022-12-14,1,,,,,ニホンビジュツブンカキョウカイ,0
1871,8010103002042,新規,0,2022-12-14,2022-12-14,合同会社ｋａｋｋａ,,合同会社,東京都,八王子市,松木３２番地６レクセルマンション京王堀之内５０３号,,13,201,1920362,,,,,,,2022-12-14,1,,,,,カッカ,0
1877,8010405021665,新規,0,2022-12-14,2022-12-14,行政書士法人橋本会計,,その他の設立登記法人,東京都,港区,芝浦３丁目１３番３号芝浦ＳＥＣビル３０１号室,,13,103,1080023,,,,,,,2022-12-14,1,,,,,ハシモトカイケイ,0
1879,8010503006816,新規,0,2022-12-14,2022-12-14,合同会社ブルーム,,合同会社,東京都,台東区,元浅草１丁目６番１２号,,13,106,1110041,,,,,,,2022-12-14,1,,,,,ブルーム,0
1882,8010603009900,新規,0,2022-12-14,2022-12-14,ジェイワイ・エステート合同会社,,合同会社,東京都,江東区,東雲１丁目９番４号,,13,108,1350062,,,,,,,2022-12-14,1,,,,,ジェイワイエステート,0
1884,8010701043611,新規,0,2022-12-14,2022-12-14,フィニッシュブロー株式会社,,株式会社,東京都,品川区,勝島１丁目１番１号東京ＳＲＣビルＢ館４階,,13,109,1400012,,,,,,,2022-12-14,1,,,,,フィニッシュブロー,0
1885,8010801033512,新規,0,2022-12-14,2022-12-14,株式会社日本トメチ塗料,,株式会社,東京都,大田区,新蒲田１丁目１２番６号,,13,111,1440054,,,,,,,2022-12-14,1,,,,,ニホントメチトリョウ,0
1886,8010803004387,新規,0,2022-12-14,2022-12-14,合同会社ケセラセラ,,合同会社,東京都,大田区,西蒲田７丁目６番７号,,13,111,1440051,,,,,,,2022-12-14,1,,,,,ケセラセラ,0
1895,8011001151492,新規,0,2022-12-14,2022-12-14,株式会社ティンカティンカ,,株式会社,東京都,目黒区,目黒２丁目１０番４号,,13,110,1530063,,,,,,,2022-12-14,1,,,,,ティンカティンカ,0
1898,8011005009869,新規,0,2022-12-14,2022-12-14,社会保険労務士法人島事務所,,その他の設立登記法人,東京都,渋谷区,神宮前６丁目１９番１６号越一ビル６０３,,13,113,1500001,,,,,,,2022-12-14,1,,,,,シマジムショ,0
1901,8011101101109,新規,0,2022-12-14,2022-12-14,株式会社ＡＶＥ,,株式会社,東京都,新宿区,歌舞伎町１丁目１２番１３号,,13,104,1600021,,,,,,,2022-12-14,1,,,,,エイブ,0
1902,8011101101158,新規,0,2022-12-14,2022-12-14,株式会社キルヒアイス,,株式会社,東京都,新宿区,西新宿７丁目４番７号イマス浜田ビル５階,,13,104,1600023,,,,,,,2022-12-14,1,,,,,キルヒアイス,0
1904,8011201024291,新規,0,2022-12-14,2022-12-14,芸臻服飾株式会社,,株式会社,東京都,中野区,江古田４丁目２５番３－１０４室,,13,114,1650022,,,,,,,2022-12-14,1,,,,,ゲイシンフクショク,0
1905,8011203003962,新規,0,2022-12-14,2022-12-14,ＤＩＶＥＲＴＩ合同会社,,合同会社,東京都,中野区,中央４丁目１番３号ボニータ新中野ビル５０１,,13,114,1640011,,,,,,,2022-12-14,1,,,,,ディベルティ,0
1907,8011501028752,新規,0,2022-12-14,2022-12-14,高尾不動産株式会社,,株式会社,東京都,荒川区,東尾久２丁目２２番１３号,,13,118,1160012,,,,,,,2022-12-14,1,,,,,タカオフドウサン,0
1911,8011701025847,新規,0,2022-12-14,2022-12-14,株式会社レガーロプラス,,株式会社,東京都,江戸川区,中葛西３丁目３６番５号アユミビル１Ｆ,,13,123,1340083,,,,,,,2022-12-14,1,,,,,レガーロプラス,0
1912,8012401039963,新規,0,2022-12-14,2022-12-14,株式会社Ｋｉｌｉｋａ　Ｃｏｌｌｅｃｔｉｏｎ,,株式会社,東京都,武蔵野市,御殿山１丁目７番４号オープンレジデンシア吉祥寺御殿山４０３,,13,203,1800005,,,,,,,2022-12-14,1,,,,,キリカコレクション,0
1913,8013101009075,新規,0,2022-12-14,2022-12-14,株式会社リバイブ,,株式会社,東京都,西多摩郡瑞穂町,大字殿ケ谷７９１番地サンパークＫＯＭＩＮＥ１１８号室,,13,303,1901212,,,,,,,2022-12-14,1,,,,,リバイブ,0
1927,8021001077695,新規,0,2022-12-14,2022-12-14,株式会社ラ・フォンテーヌ,,株式会社,神奈川県,茅ヶ崎市,浜竹２丁目８番５９－３７号,,14,207,2530021,,,,,,,2022-12-14,1,,,,,ラフォンテーヌ,0
1928,8021001077704,新規,0,2022-12-14,2022-12-14,株式会社茅波之家,,株式会社,神奈川県,茅ヶ崎市,元町１１－１３,,14,207,2530043,,,,,,,2022-12-14,1,,,,,カヤナミノイエ,0
1932,8021003012510,新規,0,2022-12-14,2022-12-14,合同会社かわせみふくし舎,,合同会社,神奈川県,横須賀市,汐見台２丁目３番１８号,,14,201,2380054,,,,,,,2022-12-14,1,,,,,カワセミフクシシャ,0
1938,8030001151451,新規,0,2022-12-14,2022-12-14,スパークサービス株式会社,,株式会社,埼玉県,さいたま市大宮区,下町３丁目７番地１Ｆ１３１２号,,11,103,3300844,,,,,,,2022-12-14,1,,,,,スパークサービス,0
1939,8030001151501,新規,0,2022-12-14,2022-12-14,株式会社アースエコロジー,,株式会社,埼玉県,朝霞市,本町２丁目４番１８－５０１号,,11,227,3510011,,,,,,,2022-12-14,1,,,,,アースエコロジー,0
1946,8030003020729,新規,0,2022-12-14,2022-12-14,合同会社アカツキ商会,,合同会社,埼玉県,さいたま市大宮区,桜木町２丁目３番地大宮マルイ７階,,11,103,3300854,,,,,,,2022-12-14,1,,,,,アカツキショウカイ,0
1947,8030003020761,新規,0,2022-12-14,2022-12-14,Ａｋｉｒａｋａ　Ｉｎｔｅｒｎａｔｉｏｎａｌ合同会社,,合同会社,埼玉県,川越市,月吉町９番地（３－２０１号室）,,11,201,3500825,,,,,,,2022-12-14,1,,,,,アキラカインターナショナル,0
1958,8050001052111,新規,0,2022-12-14,2022-12-14,ＴＳサポート株式会社,,株式会社,茨城県,水戸市,若宮２丁目７番１８号シャルマン若宮Ｓ１０１号,,08,201,3100013,,,,,,,2022-12-14,1,,,,,ティーエスサポート,0
1960,8060001035528,新規,0,2022-12-14,2022-12-14,株式会社Ｇｒａｂｅａｗ,,株式会社,栃木県,宇都宮市,三番町１番１７号２Ｆ,,09,201,3200814,,,,,,,2022-12-14,1,,,,,グラビュー,0
1961,8060003004349,新規,0,2022-12-14,2022-12-14,合同会社ＫＭＧ,,合同会社,栃木県,足利市,山下町１５６８番地,,09,202,3260846,,,,,,,2022-12-14,1,,,,,ケーエムジー,0
1962,8070003004752,新規,0,2022-12-14,2022-12-14,合同会社ＭａｎｈＳｅｖｅｎ　ＪＰ,,合同会社,群馬県,邑楽郡大泉町,西小泉５丁目１２番３４号,,10,524,3700517,,,,,,,2022-12-14,1,,,,,マインセブンジーピー,0
1963,8070005010063,新規,0,2022-12-14,2022-12-14,医療法人ゆら皮膚科クリニック,,その他の設立登記法人,群馬県,太田市,由良町９３番地４,,10,205,3730036,,,,,,,2022-12-14,1,,,,,ユラヒフカクリニック,0
1964,8080003002912,新規,0,2022-12-14,2022-12-14,合同会社縁,,合同会社,静岡県,静岡市駿河区,高松１丁目５－４６,,22,102,4228034,,,,,,,2022-12-14,1,,,,,エン,0
1966,8080101023686,新規,0,2022-12-14,2022-12-14,株式会社ｎａｎａｋｏ　ｒｅｓｏｒｔ,,株式会社,静岡県,熱海市,海光町４番１０号,,22,205,4130003,,,,,,,2022-12-14,1,,,,,ナナコリゾート,0
1968,8100001035969,新規,0,2022-12-14,2022-12-14,土屋ＦＡＲＭ株式会社,,株式会社,長野県,長野市,三輪１丁目１６番２０号,,20,201,3800803,,,,,,,2022-12-14,1,,,,,ツチヤファーム,0
1982,8120001250970,新規,0,2022-12-14,2022-12-14,明成株式会社,,株式会社,大阪府,大阪市住之江区,西加賀屋２丁目１２－１８住吉ハイツ３０２号室,,27,125,5590016,,,,,,,2022-12-14,1,,,,,メイセイ,0
1984,8120005023340,新規,0,2022-12-14,2022-12-14,一般社団法人小林エステート,,その他の設立登記法人,大阪府,枚方市,香里ケ丘３丁目６番地の３,,27,210,5730084,,,,,,,2022-12-14,1,,,,,コバヤシエステート,0
1988,8120903004417,新規,0,2022-12-14,2022-12-14,合同会社暁継絆,,合同会社,大阪府,高槻市,辻子１丁目２８番１１号,00128784,27,207,5690036,,,,,,,2022-12-14,1,,,,,アカツキ,0
2003,8130001073264,新規,0,2022-12-14,2022-12-14,株式会社ＡＸＩＳ,,株式会社,京都府,京都市下京区,仏光寺通烏丸東入上柳町３３１番地タカノハスクエアＴＨＥＨＵＢ四条烏丸３３５号室,,26,106,6008099,,,,,,,2022-12-14,1,,,,,アクシス,0
2005,8130005016649,新規,0,2022-12-14,2022-12-14,一般社団法人都食堂,,その他の設立登記法人,京都府,京都市中京区,烏丸通姉小路下る場之町５９２番地メディナ烏丸御池４階,,26,104,6048172,,,,,,,2022-12-14,1,,,,,ミヤコショクドウ,0
2012,8140001128372,新規,0,2022-12-14,2022-12-14,株式会社マンションみらい設計,,株式会社,兵庫県,西宮市,段上町５丁目２－３１ディレスティア西宮仁川５０１号室,,28,204,6638006,,,,,,,2022-12-14,1,,,,,マンションミライセッケイ,0
2013,8140001128422,新規,0,2022-12-14,2022-12-14,株式会社テムウェル,,株式会社,兵庫県,神戸市中央区,磯上通６丁目１番１７号,,28,110,6510086,,,,,,,2022-12-14,1,,,,,テムウェル,0
2016,8150001026014,新規,0,2022-12-14,2022-12-14,株式会社ＢＵＤＤＹ,,株式会社,奈良県,桜井市,大字吉備６２８番地の８,,29,206,6330065,,,,,,,2022-12-14,1,,,,,バディ,0
2020,8150003002839,新規,0,2022-12-14,2022-12-14,合同会社夢の力,,合同会社,奈良県,宇陀市,榛原榛見が丘１丁目１５番地の１１,,29,212,6330257,,,,,,,2022-12-14,1,,,,,ユメノチカラ,0
2023,8160003002755,新規,0,2022-12-14,2022-12-14,合同会社あおい,,合同会社,滋賀県,近江八幡市,日吉野町７７５番地９,,25,204,5230033,,,,,,,2022-12-14,1,,,,,アオイ,0
2030,8180001154175,新規,0,2022-12-14,2022-12-14,株式会社ＦＡＲ　ＦＲＯＭ　ＨＥＲＥ,,株式会社,愛知県,常滑市,白山町１丁目５２番地,,23,216,4790824,,,,,,,2022-12-14,1,,,,,ファーフロムヒアー,0
2031,8180001154183,新規,0,2022-12-14,2022-12-14,株式会社Ｃｏｎｎｅｃｔ　Ｔｒｅｅ,,株式会社,愛知県,名古屋市名東区,高柳町３０８番地,,23,115,4650034,,,,,,,2022-12-14,1,,,,,コネクトツリー,0
2038,8190001030020,新規,0,2022-12-14,2022-12-14,センコーアドバンスホールディングス株式会社,,株式会社,三重県,四日市市,中川原２丁目５番２３号,,24,202,5100833,,,,,,,2022-12-14,1,,,,,センコーアドバンスホールディングス,0
2039,8190003004170,新規,0,2022-12-14,2022-12-14,合同会社七平,,合同会社,三重県,伊勢市,二見町荘３４３番地１,,24,203,5190606,,,,,,,2022-12-14,1,,,,,シチベイ,0
2041,8200001040769,新規,0,2022-12-14,2022-12-14,株式会社ＢＥＬＬＤ,,株式会社,岐阜県,大垣市,墨俣町二ツ木２６４番地４,,21,202,5030105,,,,,,,2022-12-14,1,,,,,ベルド,0
2043,8210003001594,新規,0,2022-12-14,2022-12-14,ｎｕｌｌ合同会社,,合同会社,福井県,小浜市,谷田部第１９号１０番地の１,,18,204,9170031,,,,,,,2022-12-14,1,,,,,ナル,0
2048,8220001025173,新規,0,2022-12-14,2022-12-14,株式会社ＳＴ,,株式会社,石川県,加賀市,山中温泉東町２丁目ヘ１番地,,17,206,9220114,,,,,,,2022-12-14,1,,,,,エスティ,0
2051,8240001060796,新規,0,2022-12-14,2022-12-14,株式会社ＮＳＰ　ＬＡＶＯ,,株式会社,広島県,福山市,御幸町大字下岩成２７番地１１,,34,207,7200002,,,,,,,2022-12-14,1,,,,,エヌエスピーラボ,0
2057,8260003004122,新規,0,2022-12-14,2022-12-14,合同会社ＡＳ　ＷＥＬＬ,,合同会社,岡山県,勝田郡奈義町,滝本１５６４番地４,,33,623,7081325,,,,,,,2022-12-14,1,,,,,アズウェル,0
2066,8290001099913,新規,0,2022-12-14,2022-12-14,株式会社ＭＡＲＩＫＥＡ,,株式会社,福岡県,福岡市早良区,百道浜１丁目４番１６－２０１号,,40,137,8140001,,,,,,,2022-12-14,1,,,,,マリケア,0
2067,8290001099938,新規,0,2022-12-14,2022-12-14,グローバライズジャパン株式会社,,株式会社,福岡県,糟屋郡久山町,大字久原４０８３番地,,40,348,8112501,,,,,,,2022-12-14,1,,,,,グローバライズジャパン,0
2069,8290003013302,新規,0,2022-12-14,2022-12-14,ｂｌｕｅ　ｅｌｅｐｈａｎｔ合同会社,,合同会社,福岡県,福岡市博多区,中洲５丁目１‐２２松月堂ビル４階,,40,132,8100801,,,,,,,2022-12-14,1,,,,,ブルーエレファント,0
2070,8290003013319,新規,0,2022-12-14,2022-12-14,ＭＩＮ　ＭＩＮ合同会社,,合同会社,福岡県,福岡市博多区,吉塚５丁目１－３－１松屋ビル２０１号,,40,132,8120041,,,,,,,2022-12-14,1,,,,,ミンミン,0
2081,8330001030385,新規,0,2022-12-14,2022-12-14,株式会社ＫＯ２,,株式会社,熊本県,熊本市東区,戸島西１丁目２５番２２号Ｂ４,,43,102,8618043,,,,,,,2022-12-14,1,,,,,コーツー,0
2086,8350001018081,新規,0,2022-12-14,2022-12-14,株式会社フィードラボ,,株式会社,宮崎県,宮崎市,大字赤江字飛江田９７８番地１６,,45,201,8800912,,,,,,,2022-12-14,1,,,,,フィードラボ,0
2096,8370001049372,新規,0,2022-12-14,2022-12-14,株式会社イナバテック,,株式会社,宮城県,仙台市青葉区,木町通２丁目６番５３号,,04,101,9800801,,,,,,,2022-12-14,1,,,,,イナバテック,0
2097,8370003005919,新規,0,2022-12-14,2022-12-14,合同会社いけだマネジメント,,合同会社,宮城県,仙台市青葉区,南吉成５丁目１０番地の９,,04,101,9893204,,,,,,,2022-12-14,1,,,,,イケダマネジメント,0
2106,8430001088018,新規,0,2022-12-14,2022-12-14,株式会社ＬＡＮＤ　ＨＯＵＳＥ,,株式会社,北海道,札幌市白石区,本通９丁目北４－１,,01,104,0030027,,,,,,,2022-12-14,1,,,,,ランドハウス,0
2110,8430003014541,新規,0,2022-12-14,2022-12-14,合同会社克建ホーム,,合同会社,北海道,苫小牧市,宮の森町１丁目５番３１号,,01,213,0530844,,,,,,,2022-12-14,1,,,,,カツケンホーム,0
2113,8470001019381,新規,0,2022-12-14,2022-12-14,Ａ・ｅｓ株式会社,,株式会社,香川県,高松市,新北町２７番２０号１階,,37,201,7600001,,,,,,,2022-12-14,1,,,,,エーイーエス,0
2115,8490001010355,新規,0,2022-12-14,2022-12-14,株式会社地域商社こうち,,株式会社,高知県,高知市,堺町２番２４号,,39,201,7800834,,,,,,,2022-12-14,1,,,,,チイキショウシャコウチ,0
2117,8500001024650,新規,0,2022-12-14,2022-12-14,株式会社伊藤設備,,株式会社,愛媛県,新居浜市,宮原町１１番８号,,38,205,7920833,,,,,,,2022-12-14,1,,,,,イトウセツビ,0
2118,8500003002935,新規,0,2022-12-14,2022-12-14,合同会社Ｔｅｎ　Ｓｔｏｋｅｄ,,合同会社,愛媛県,松山市,味酒町２丁目９番地１７橋本測量設計ビル２Ｆ,,38,201,7900814,,,,,,,2022-12-14,1,,,,,テンストーク,0
2119,8500005008542,新規,0,2022-12-14,2022-12-14,医療法人たるみこどもの杜クリニック,,その他の設立登記法人,愛媛県,松山市,樽味２丁目８番１０号,,38,201,7900905,,,,,,,2022-12-14,1,,,,,タルミコドモノモリクリニック,0
2121,8700150113390,新規,0,2022-12-14,2022-12-14,Ｌｅｓ　Ｍｉｌｌｓ　Ｍｅｄｉａ　Ｌｉｍｉｔｅｄ,,外国会社等,,,,,,,,２２　Ｃｅｎｔｒｅ　Ｓｔｒｅｅｔ，Ａｕｃｋｌａｎｄ　１０１０，Ｎｅｗ　Ｚｅａｌａｎｄ,,,,,,2022-12-14,1,,,,,レズミルズメデイアリミテツド,0
2127,9010001231485,新規,0,2022-12-14,2022-12-14,株式会社新世界,,株式会社,東京都,中央区,新川２丁目１０番１－２５１０号,,13,102,1040033,,,,,,,2022-12-14,1,,,,,シンセカイ,0
2128,9010001231493,新規,0,2022-12-14,2022-12-14,株式会社千代田ホールディングス,,株式会社,東京都,千代田区,内神田１丁目４番２号,,13,101,1010047,,,,,,,2022-12-14,1,,,,,チヨダホールディングス,0
2131,9010101015458,新規,0,2022-12-14,2022-12-14,株式会社花音,,株式会社,東京都,八王子市,元八王子町３丁目２２６８番地５,,13,201,1930826,,,,,,,2022-12-14,1,,,,,カノン,0
2132,9010103002041,新規,0,2022-12-14,2022-12-14,合同会社ケイズネクスト,,合同会社,東京都,八王子市,七国４丁目１０番２号,,13,201,1920919,,,,,,,2022-12-14,1,,,,,ケイズネクスト,0
2143,9010803004386,新規,0,2022-12-14,2022-12-14,合同会社Ｉ‐Ｆｅａｔｈｅｒ,,合同会社,東京都,大田区,東雪谷２丁目３１番３号,,13,111,1450065,,,,,,,2022-12-14,1,,,,,アイフェザー,0
2146,9010901052130,新規,0,2022-12-14,2022-12-14,株式会社ＣｈａｉｎＦｏｒｃｅ,,株式会社,東京都,世田谷区,代田５丁目１０番１６号２０２,,13,112,1550033,,,,,,,2022-12-14,1,,,,,チェーンフォース,0
2155,9011001151442,新規,0,2022-12-14,2022-12-14,株式会社ダブリュー,,株式会社,東京都,渋谷区,恵比寿１丁目１９番１９号,,13,113,1500013,,,,,,,2022-12-14,1,,,,,ダブリュー,0
2156,9011001151483,新規,0,2022-12-14,2022-12-14,株式会社ＣＩＴＲＵＳ,,株式会社,東京都,渋谷区,渋谷２丁目１９－１５－６０９,,13,113,1500002,,,,,,,2022-12-14,1,,,,,シトラス,0
2159,9011005009876,新規,0,2022-12-14,2022-12-14,一般社団法人つまみ細工検定協会,,その他の設立登記法人,東京都,渋谷区,恵比寿２丁目２８番１０号秀ビル２５９２,,13,113,1500013,,,,,,,2022-12-14,1,,,,,ツマミザイクケンテイキョウカイ,0
2164,9011503005393,新規,0,2022-12-14,2022-12-14,合同会社うえの,,合同会社,東京都,北区,岩淵町２６番１１－４０２号,,13,117,1150041,,,,,,,2022-12-14,1,,,,,ウエノ,0
2168,9011701025862,新規,0,2022-12-14,2022-12-14,特殊立体東京株式会社,,株式会社,東京都,江戸川区,松江７丁目２５番１６号,,13,123,1320025,,,,,,,2022-12-14,1,,,,,トクシュリッタイトウキョウ,0
2169,9011701025870,新規,0,2022-12-14,2022-12-14,銀海国際株式会社,,株式会社,東京都,江戸川区,春江町５丁目５番地１３号益友第三ビル５０２号室,,13,123,1340003,,,,,,,2022-12-14,1,,,,,ギンカイコクサイ,0
2170,9012401039962,新規,0,2022-12-14,2022-12-14,株式会社ＫＳＣＯ,,株式会社,東京都,府中市,浅間町２丁目３番地の２－３０５,,13,206,1830001,,,,,,,2022-12-14,1,,,,,ケイエスシーオー,0
2171,9012401039970,新規,0,2022-12-14,2022-12-14,株式会社アイコネクト,,株式会社,東京都,多摩市,愛宕４丁目１９番地１２,,13,224,2060041,,,,,,,2022-12-14,1,,,,,アイコネクト,0
2174,9013103001194,新規,0,2022-12-14,2022-12-14,ヒラヤマ合同会社,,合同会社,東京都,福生市,大字熊川２１８番地２,,13,218,1970003,,,,,,,2022-12-14,1,,,,,ヒラヤマ,0
2197,9021001077694,新規,0,2022-12-14,2022-12-14,池住建設株式会社,,株式会社,神奈川県,相模原市緑区,二本松３丁目４５番１８号,,14,151,2520137,,,,,,,2022-12-14,1,,,,,イケズミケンセツ,0
2204,9030001151426,新規,0,2022-12-14,2022-12-14,株式会社Ｈａｐｐｉｅｓｔ　Ｓｈａｒｅ,,株式会社,埼玉県,川越市,岸町１丁目３１番地７０コーポ岸町１０１号室,,11,201,3501131,,,,,,,2022-12-14,1,,,,,ハピエストシェア,0
2219,9040001126195,新規,0,2022-12-14,2022-12-14,株式会社葵会ウズベキスタン,,株式会社,千葉県,我孫子市,本町１丁目１番２号,,12,222,2701151,,,,,,,2022-12-14,1,,,,,アオイカイウズベキスタン,0
2222,9050001052085,新規,0,2022-12-14,2022-12-14,ミューホールディングス株式会社,,株式会社,茨城県,筑西市,嘉家佐和２１０１番地,,08,227,3080837,,,,,,,2022-12-14,1,,,,,ミューホールディングス,0
2226,9060001035519,新規,0,2022-12-14,2022-12-14,ＬＡマイスターホールディングス株式会社,,株式会社,栃木県,下野市,柴２９０番地１,,09,216,3290412,,,,,,,2022-12-14,1,,,,,エルエーマイスターホールディングス,0
2227,9060001035535,新規,0,2022-12-14,2022-12-14,株式会社ＳＨＩＲＯ,,株式会社,栃木県,宇都宮市,元今泉７丁目１０－１ＨＩＢＩＫＩ２０２,,09,201,3210954,,,,,,,2022-12-14,1,,,,,シロ,0
2229,9060003004348,新規,0,2022-12-14,2022-12-14,合同会社ニバンテ,,合同会社,栃木県,鹿沼市,下田町２丁目１０７７番地６,,09,205,3220036,,,,,,,2022-12-14,1,,,,,ニバンテ,0
2233,9070001039915,新規,0,2022-12-14,2022-12-14,ルラール・イノベーション株式会社,,株式会社,群馬県,高崎市,綿貫町１４８２番地１,,10,202,3701207,,,,,,,2022-12-14,1,,,,,ルラールイノベーション,0
2235,9070005010062,新規,0,2022-12-14,2022-12-14,医療法人社団ひかり,,その他の設立登記法人,群馬県,北群馬郡吉岡町,大字大久保１１２番地２,,10,345,3703602,,,,,,,2022-12-14,1,,,,,ヒカリ,0
2237,9080001025352,新規,0,2022-12-14,2022-12-14,ゆうゆうハウジング株式会社,,株式会社,静岡県,静岡市駿河区,国吉田１丁目１６番５号ラウレア２０２,,22,102,4228004,,,,,,,2022-12-14,1,,,,,ユウユウハウジング,0
2239,9080003002911,新規,0,2022-12-14,2022-12-14,ＳＤＳ合同会社,,合同会社,静岡県,静岡市葵区,川辺町２丁目１番６号,,22,101,4200043,,,,,,,2022-12-14,1,,,,,エスディーエス,0
2242,9100001035968,新規,0,2022-12-14,2022-12-14,株式会社インテンス,,株式会社,長野県,上高井郡高山村,大字高井２１１０番地２,,20,543,3820800,,,,,,,2022-12-14,1,,,,,インテンス,0
2248,9110005016880,新規,0,2022-12-14,2022-12-14,農事組合法人栖吉,,その他の設立登記法人,新潟県,長岡市,栖吉町２７４３番地,,15,202,9400821,,,,,,,2022-12-14,1,,,,,スヨシ,0
2260,9120001251035,新規,0,2022-12-14,2022-12-14,株式会社ＭＵＳＥ　ＳＯＵＮＤ,,株式会社,大阪府,大阪市北区,本庄東２丁目１２番９号サンプラザ北４０３号室,,27,127,5310074,,,,,,,2022-12-14,1,,,,,ミューズサウンド,0
2265,9120003023060,新規,0,2022-12-14,2022-12-14,ＨＮ合同会社,,合同会社,大阪府,大阪市浪速区,恵美須東２丁目２番８－６０７号,,27,111,5560002,,,,,,,2022-12-14,1,,,,,エイチエヌ,0
2266,9120003023069,新規,0,2022-12-14,2022-12-14,Ｍｕｒｐｈｙ合同会社,,合同会社,大阪府,大阪市西区,南堀江１丁目１６－１１ＲＥ００８－９Ｆ,,27,106,5500015,,,,,,,2022-12-14,1,,,,,マーフィー,0
2267,9120003023077,新規,0,2022-12-14,2022-12-14,合同会社ＤＥＬＳＯＬＥ,,合同会社,大阪府,大阪市西区,新町１丁目６番２３号,,27,106,5500013,,,,,,,2022-12-14,1,,,,,デルソーレ,0
2268,9120003023085,新規,0,2022-12-14,2022-12-14,エピファニーワークス合同会社,,合同会社,大阪府,大阪市浪速区,難波中２丁目１０－５２－１７０３,,27,111,5560011,,,,,,,2022-12-14,1,,,,,エピファニーワークス,0
2270,9120903004416,新規,0,2022-12-14,2022-12-14,合同会社ＶＥＣＴＡ,,合同会社,大阪府,豊中市,新千里南町２丁目９番１－７１７号,,27,203,5600084,,,,,,,2022-12-14,1,,,,,ヴェクタ,0
2272,9122001036498,新規,0,2022-12-14,2022-12-14,株式会社Ｇｌｏｂａｌ　Ｃａｒｅ・ＪＡＰＡＮ,,株式会社,大阪府,東大阪市,長堂１丁目２番９号ロフティー１番館５Ｂ号,,27,227,5770056,,,,,,,2022-12-14,1,,,,,グローバルケアジャパン,0
2275,9130001073263,新規,0,2022-12-14,2022-12-14,株式会社Ｙｏｓｈｉｋａ．,,株式会社,京都府,京都市東山区,常盤町１６４白川ビル６階,,26,105,6050079,,,,,,,2022-12-14,1,,,,,ヨシカドット,0
2283,9140001128355,新規,0,2022-12-14,2022-12-14,株式会社ねじまき鳥,,株式会社,兵庫県,豊岡市,但東町矢根１０７６,,28,209,6680302,,,,,,,2022-12-14,1,,,,,ネジマキドリ,0
2285,9160001024701,新規,0,2022-12-14,2022-12-14,スリーグッド株式会社,,株式会社,滋賀県,近江八幡市,鷹飼町北４丁目１３番地２、３０８号,,25,204,5230896,,,,,,,2022-12-14,1,,,,,スリーグッド,0
2287,9160005011150,新規,0,2022-12-14,2022-12-14,一般社団法人甲賀市国際交流協会,,その他の設立登記法人,滋賀県,甲賀市,水口町水口６０５３,,25,209,5280005,,,,,,,2022-12-14,1,,,,,コウカシコクサイコウリュウキョウカイ,0
2288,9170001017407,新規,0,2022-12-14,2022-12-14,株式会社ワダカ工業,,株式会社,和歌山県,和歌山市,毛見１０９４番地３,,30,201,6410014,,,,,,,2022-12-14,1,,,,,ワダカコウギョウ,0
2298,9180001154182,新規,0,2022-12-14,2022-12-14,Ｂ＆Ｙ株式会社,,株式会社,愛知県,名古屋市北区,会所町１４５番地（Ａ棟）,,23,103,4620061,,,,,,,2022-12-14,1,,,,,ビーアンドワイ,0
2302,9180305009421,新規,0,2022-12-14,2022-12-14,医療法人ＳＥＡＢＬＵＥ,,その他の設立登記法人,愛知県,西尾市,新渡場町大西９番地１,,23,213,4450077,,,,,,,2022-12-14,1,,,,,シーブルー,0
2305,9220001025172,新規,0,2022-12-14,2022-12-14,株式会社ＦＩＥＬＤＳ,,株式会社,石川県,金沢市,瓢箪町１２番３３号,,17,201,9200845,,,,,,,2022-12-14,1,,,,,フィールズ,0
2309,9230003001947,新規,0,2022-12-14,2022-12-14,倶利伽羅合同会社,,合同会社,富山県,富山市,婦中町中名１６６７番地１,,16,201,9392741,,,,,,,2022-12-14,1,,,,,クリカラ,0
2312,9240001060787,新規,0,2022-12-14,2022-12-14,株式会社ムラカミ,,株式会社,広島県,広島市東区,矢賀新町１丁目６番２９号,,34,102,7320044,,,,,,,2022-12-14,1,,,,,ムラカミ,0
2313,9240001060795,新規,0,2022-12-14,2022-12-14,ＭＡＫＯＴＯ株式会社,,株式会社,広島県,広島市安佐南区,大塚西１丁目８番１２号,,34,105,7313167,,,,,,,2022-12-14,1,,,,,マコト,0
2314,9240001060812,新規,0,2022-12-14,2022-12-14,株式会社西広島サーティーン,,株式会社,広島県,広島市西区,己斐中１丁目３番１３号,,34,104,7330813,,,,,,,2022-12-14,1,,,,,サーティーン,0
2323,9280001008840,新規,0,2022-12-14,2022-12-14,株式会社Ｌｉｆｅ‐Ｘ,,株式会社,島根県,松江市,大輪町４１８－２,,32,201,6900882,,,,,,,2022-12-14,1,,,,,ライフエックス,0
2329,9290003013318,新規,0,2022-12-14,2022-12-14,合同会社ラーニングボヤージュＭ,,合同会社,福岡県,福岡市博多区,博多駅前１丁目２３番１号ＰａｒｋＦｒｏｎｔ博多駅前一丁目５Ｆ－Ｂ,,40,132,8120011,,,,,,,2022-12-14,1,,,,,ラーニングボヤージュエム,0
2330,9290005018876,新規,0,2022-12-14,2022-12-14,一般社団法人ワーカーズ・コレクティブシーズ,,その他の設立登記法人,福岡県,福岡市東区,多の津１丁目１７番２号,,40,131,8130034,,,,,,,2022-12-14,1,,,,,ワーカーズコレクティブシーズ,0
2331,9290801029127,新規,0,2022-12-14,2022-12-14,株式会社ヒート,,株式会社,福岡県,北九州市八幡西区,光貞台１丁目３番２５－８０１号,,40,109,8070805,,,,,,,2022-12-14,1,,,,,ヒート,0
2334,9300001013160,新規,0,2022-12-14,2022-12-14,株式会社ケアラボ,,株式会社,佐賀県,佐賀市,若楠１丁目２番１号,,41,201,8490928,,,,,,,2022-12-14,1,,,,,ケアラボ,0
2337,9310003004495,新規,0,2022-12-14,2022-12-14,合同会社ｐｏｒｄｏ,,合同会社,長崎県,長崎市,出島町５番３号村川ビル　２－Ｄ,,42,201,8500862,,,,,,,2022-12-14,1,,,,,ポルド,0
2340,9330001030392,新規,0,2022-12-14,2022-12-14,ＥｉｇｈｔｙＷａｌｋ株式会社,,株式会社,熊本県,熊本市中央区,出水８丁目２－１９,,43,101,8620941,,,,,,,2022-12-14,1,,,,,エイティウォーク,0
2341,9330003009625,新規,0,2022-12-14,2022-12-14,合同会社Ａｉｌｅ,,合同会社,熊本県,熊本市東区,花立６丁目９番９５号,,43,102,8620918,,,,,,,2022-12-14,1,,,,,アイル,0
2343,9350005006123,新規,0,2022-12-14,2022-12-14,一般社団法人美療矯正協会,,その他の設立登記法人,宮崎県,宮崎市,清武町加納乙１３８－１,,45,201,8891605,,,,,,,2022-12-14,1,,,,,ビリョウキョウセイキョウカイ,0
2345,9360001031314,新規,0,2022-12-14,2022-12-14,株式会社Ａ　ｃｒａｆｔ,,株式会社,沖縄県,那覇市,久茂地１丁目４番１５号,,47,201,9000015,,,,,,,2022-12-14,1,,,,,エースクラフト,0
2350,9370001049371,新規,0,2022-12-14,2022-12-14,株式会社建築工房ぷろろーぐ,,株式会社,宮城県,仙台市泉区,館３丁目４２番地の１,,04,105,9813214,,,,,,,2022-12-14,1,,,,,ケンチクコウボウプロローグ,0
2352,9370005010577,新規,0,2022-12-14,2022-12-14,一般社団法人東北,,その他の設立登記法人,宮城県,仙台市青葉区,国分町３丁目８番１７－９０３号,,04,101,9800803,,,,,,,2022-12-14,1,,,,,トウホク,0
2358,9380001033325,新規,0,2022-12-14,2022-12-14,ＦＤＳ東北株式会社,,株式会社,福島県,大沼郡会津美里町,字本郷道上１番地,,07,447,9696164,,,,,,,2022-12-14,1,,,,,エフディーエストウホク,0
2365,9430001088000,新規,0,2022-12-14,2022-12-14,ｕｐｄａｔｅ株式会社,,株式会社,北海道,伊達市,竹原町１１番地１６,,01,233,0520011,,,,,,,2022-12-14,1,,,,,アップデイト,0
2368,9460001005753,新規,0,2022-12-14,2022-12-14,株式会社Ｆｉｒｓｔ,,株式会社,北海道,厚岸郡浜中町,西円朱別西１８線１４番地,,01,663,0881370,,,,,,,2022-12-14,1,,,,,ファースト,0
2370,9470003002310,新規,0,2022-12-14,2022-12-14,合同会社ＬａＳｙＳｃｏｄｅ,,合同会社,香川県,丸亀市,三条町１１６２番地１,,37,202,7630094,,,,,,,2022-12-14,1,,,,,ラシスコード,0
2376,9500001024641,新規,0,2022-12-14,2022-12-14,株式会社藤熱学,,株式会社,愛媛県,西条市,北条１０７０番地１,,38,206,7991354,,,,,,,2022-12-14,1,,,,,フジネツガク,0
