sequenceNumber,corporateNumber,process,correct,updateDate,changeDate,name,nameImageId,kind,prefectureName,cityName,streetNumber,addressImageId,prefectureCode,cityCode,postCode,addressOutside,addressOutsideImageId,closeDate,closeCause,successorCorporateNumber,changeCause,assignmentDate,latest,enName,enPrefectureName,enCityName,enAddressOutside,furigana,hihyoji
3,1010001244841,新規,0,2024-05-17,2024-05-17,株式会社レイズコンサルティング,,株式会社,東京都,中央区,銀座１丁目１２番４号Ｎ＆Ｅ、ＢＬＤ．６Ｆ,,13,102,1040061,,,,,,,2024-05-17,1,,,,,レイズコンサルティング,0
4,1010001244924,新規,0,2024-05-17,2024-05-17,ＣＯＲＥ　ＰＯＷＥＲ　Ｊａｐａｎ株式会社,,株式会社,東京都,千代田区,霞が関３丁目２番６号東京倶楽部ビルディング１１階,,13,101,1000013,,,,,,,2024-05-17,1,,,,,コアパワージャパン,0
5,1010001244940,新規,0,2024-05-17,2024-05-17,株式会社ｂｒｕｓｈ　ｕｐ,,株式会社,東京都,中央区,銀座１丁目２２番１１号銀座大竹ビジデンス２Ｆ,,13,102,1040061,,,,,,,2024-05-17,1,,,,,ブラッシュアップ,0
6,1010001244973,新規,0,2024-05-17,2024-05-17,広景株式会社,,株式会社,東京都,文京区,白山１丁目６－４文京ＶｅｎｔｕｒｅＢａｓｅＡ０６,,13,105,1130001,,,,,,,2024-05-17,1,,,,,コウケイ,0
13,1010101016141,新規,0,2024-05-17,2024-05-17,ＴＷＯ　ＦＡＣＥ株式会社,,株式会社,東京都,八王子市,大和田町５丁目３番１３号青木コーポ２０３号,,13,201,1920045,,,,,,,2024-05-17,1,,,,,トゥーフェイス,0
23,1010401182435,新規,0,2024-05-17,2024-05-17,株式会社エムザスＩＩ,,株式会社,東京都,港区,西麻布３丁目８番２－１７０２号,,13,103,1060031,,,,,,,2024-05-17,1,,,,,エムザスツー,0
24,1010401182501,新規,0,2024-05-17,2024-05-17,株式会社ＯＮＥ　ＥＸＥ,,株式会社,東京都,港区,東新橋２丁目１１番７号,,13,103,1050021,,,,,,,2024-05-17,1,,,,,ワンエグゼ,0
28,1010403032646,新規,0,2024-05-17,2024-05-17,合同会社Ｏｐｐｏｒｔｕｎｉｔｙ,,合同会社,東京都,港区,南青山２丁目２番１５号,,13,103,1070062,,,,,,,2024-05-17,1,,,,,オポチュニティ,0
29,1010405023255,新規,0,2024-05-17,2024-05-17,千葉日の出一般社団法人,,その他の設立登記法人,東京都,港区,元赤坂１丁目１番８号株式会社赤坂国際会計内,,13,103,1070051,,,,,,,2024-05-17,1,,,,,チバヒノデ,0
30,1010501052281,新規,0,2024-05-17,2024-05-17,キーアイテム株式会社,,株式会社,東京都,台東区,東上野３丁目１８番１号ＴＨＥ・ＢＬＯＯＭ・ＵＥＮＯ２０３,,13,106,1100015,,,,,,,2024-05-17,1,,,,,キーアイテム,0
33,1010601065183,新規,0,2024-05-17,2024-05-17,白水株式会社,,株式会社,東京都,墨田区,墨田３丁目２４番３号福々荘２０３号室,,13,107,1310031,,,,,,,2024-05-17,1,,,,,ハクスイ,0
34,1010601065200,新規,0,2024-05-17,2024-05-17,Ｔａｔｔｏｏｃｌａｓｓ株式会社,,株式会社,東京都,墨田区,文花１丁目１８－１３,,13,107,1310044,,,,,,,2024-05-17,1,,,,,タトゥークラス,0
35,1010601065209,新規,0,2024-05-17,2024-05-17,株式会社ＫＩＺＵＮＡ,,株式会社,東京都,江東区,大島８丁目６番３号,,13,108,1360072,,,,,,,2024-05-17,1,,,,,キズナ,0
36,1010603010807,新規,0,2024-05-17,2024-05-17,合同会社ＰｒｉｍｅＰａｇｅ,,合同会社,東京都,江東区,深川２丁目８番１７号町田マンション４０３,,13,108,1350033,,,,,,,2024-05-17,1,,,,,プライムページ,0
37,1010801035060,新規,0,2024-05-17,2024-05-17,株式会社ＡＹＬＥ,,株式会社,東京都,大田区,大森西６丁目１７番１７号,,13,111,1430015,,,,,,,2024-05-17,1,,,,,エール,0
53,1011003019083,新規,0,2024-05-17,2024-05-17,合同会社ＡＩ．ＤＥ＆Ｉ　ＤＡＯ,,合同会社,東京都,渋谷区,恵比寿西２丁目８番４号ＥＸ恵比寿西ビル５階,,13,113,1500021,,,,,,,2024-05-17,1,,,,,アイデイダオ,0
58,1011101107319,新規,0,2024-05-17,2024-05-17,溢安株式会社,,株式会社,東京都,新宿区,西新宿５丁目５番１－５３０７号,,13,104,1600023,,,,,,,2024-05-17,1,,,,,イアン,0
59,1011101107376,新規,0,2024-05-17,2024-05-17,ＳＪ　Ｆ＆Ｂ株式会社,,株式会社,東京都,新宿区,大久保１丁目１５番８号大久保１丁目ビル,,13,104,1690072,,,,,,,2024-05-17,1,,,,,エスジェーエフアンドビー,0
62,1011103014422,新規,0,2024-05-17,2024-05-17,合同会社スタンド,,合同会社,東京都,新宿区,西新宿３丁目３番１３号西新宿水間ビル２Ｆ,,13,104,1600023,,,,,,,2024-05-17,1,,,,,スタンド,0
63,1011201025478,新規,0,2024-05-17,2024-05-17,株式会社鈴音,,株式会社,東京都,中野区,東中野１丁目５５番２－１５０１号,,13,114,1640003,,,,,,,2024-05-17,1,,,,,スズネ,0
70,1011701027271,新規,0,2024-05-17,2024-05-17,Ｗｉｇｗａｇ株式会社,,株式会社,東京都,江戸川区,中葛西１丁目３５－９－２階,,13,123,1340083,,,,,,,2024-05-17,1,,,,,ウィッグワグ,0
76,1011803006248,新規,0,2024-05-17,2024-05-17,合同会社ＣＦ,,合同会社,東京都,足立区,青井１丁目１２－１,,13,121,1200012,,,,,,,2024-05-17,1,,,,,シーエフ,0
82,1012803003400,新規,0,2024-05-17,2024-05-17,ＴＥＴＵＴＯ合同会社,,合同会社,東京都,武蔵村山市,大南５丁目１番地の２６２,,13,223,2080013,,,,,,,2024-05-17,1,,,,,テツト,0
106,1020003026122,新規,0,2024-05-17,2024-05-17,合同会社Ｔ＆ＣＯ．,,合同会社,神奈川県,横浜市泉区,和泉町４８７５－１,,14,116,2450016,,,,,,,2024-05-17,1,,,,,ティーアンドコー,0
107,1020003026130,新規,0,2024-05-17,2024-05-17,合同会社横浜グループ,,合同会社,神奈川県,横浜市保土ケ谷区,西谷２丁目３番６号カーザフェリーチェ横浜西谷１０３号,,14,106,2400054,,,,,,,2024-05-17,1,,,,,ヨコハマグループ,0
108,1020003026139,新規,0,2024-05-17,2024-05-17,ＩＣキャピタル合同会社,,合同会社,神奈川県,横浜市中区,桜木町１丁目１番地７ヒューリックみなとみらい１０階,,14,104,2310062,,,,,,,2024-05-17,1,,,,,アイシーキャピタル,0
112,1021001082272,新規,0,2024-05-17,2024-05-17,株式会社ＳＮＣ,,株式会社,神奈川県,相模原市緑区,下九沢１６５６－１６,,14,151,2520134,,,,,,,2024-05-17,1,,,,,エスエヌシー,0
113,1021003014513,新規,0,2024-05-17,2024-05-17,合同会社まさえもん,,合同会社,神奈川県,逗子市,桜山１丁目３番１５号,,14,208,2490005,,,,,,,2024-05-17,1,,,,,マサエモン,0
114,1021003014521,新規,0,2024-05-17,2024-05-17,合同会社プリドーン,,合同会社,神奈川県,藤沢市,辻堂新町１丁目１９番１７号ＥＳＭＥＲＡＬＤＡ・ＳＨＯＮＡＮ３０１,,14,205,2510042,,,,,,,2024-05-17,1,,,,,プリドーン,0
118,1030001160401,新規,0,2024-05-17,2024-05-17,株式会社ＫＵＢＯ．ＤＵＣＴ,,株式会社,埼玉県,白岡市,西３丁目７番１３,,11,246,3490205,,,,,,,2024-05-17,1,,,,,クボダクト,0
119,1030001160418,新規,0,2024-05-17,2024-05-17,株式会社ＲＩＳＥ,,株式会社,埼玉県,川越市,大字的場１８６１番地３,,11,201,3501101,,,,,,,2024-05-17,1,,,,,ライズ,0
120,1030001160426,新規,0,2024-05-17,2024-05-17,アドクリーン株式会社,,株式会社,埼玉県,さいたま市見沼区,東大宮３丁目３番２２号,,11,104,3370051,,,,,,,2024-05-17,1,,,,,アドクリーン,0
121,1030001160434,新規,0,2024-05-17,2024-05-17,Ｎ’ｓ　ｓｏｌｕｔｉｏｎ株式会社,,株式会社,埼玉県,久喜市,南４丁目９番１号,,11,232,3460004,,,,,,,2024-05-17,1,,,,,エヌズソリューション,0
122,1030001160442,新規,0,2024-05-17,2024-05-17,リバティーコンサルティング株式会社,,株式会社,埼玉県,鴻巣市,本町５丁目１番９－５０２号エクレール鴻巣,,11,217,3650038,,,,,,,2024-05-17,1,,,,,リバティーコンサルティング,0
131,1040001133620,新規,0,2024-05-17,2024-05-17,株式会社エスプロジェクト,,株式会社,千葉県,船橋市,西船４丁目３１番１５号,,12,204,2730031,,,,,,,2024-05-17,1,,,,,エスプロジェクト,0
134,1040005022365,新規,0,2024-05-17,2024-05-17,一般社団法人おふくろ食堂みや,,その他の設立登記法人,千葉県,千葉市若葉区,金親町４３５番地４１,,12,104,2640001,,,,,,,2024-05-17,1,,,,,オフクロショクドウミヤ,0
142,1060003005080,新規,0,2024-05-17,2024-05-17,ＡＴＴＡ　ＩＮＴＥＲＮＡＴＩＯＮＡＬ合同会社,,合同会社,栃木県,日光市,瀬尾字本郷沢２９４６番２,,09,206,3211264,,,,,,,2024-05-17,1,,,,,アッタインターナショナル,0
146,1070003005419,新規,0,2024-05-17,2024-05-17,合同会社ｊａｓ　ｍｉｎｅ,,合同会社,群馬県,高崎市,浜尻町９４６番地１１,,10,202,3700005,,,,,,,2024-05-17,1,,,,,ジャスマイン,0
156,1110001038424,新規,0,2024-05-17,2024-05-17,株式会社Ｌｅａｆ,,株式会社,新潟県,長岡市,青葉台２丁目９番地１２,,15,202,9402145,,,,,,,2024-05-17,1,,,,,リーフ,0
164,1120001264944,新規,0,2024-05-17,2024-05-17,株式会社Ｆｏｒｔｕｎａ,,株式会社,大阪府,大阪市淀川区,西中島３丁目１７番５号,,27,123,5320011,,,,,,,2024-05-17,1,,,,,フォルトゥナ,0
165,1120001264960,新規,0,2024-05-17,2024-05-17,Ｅｃｈｏ株式会社,,株式会社,大阪府,大阪市西区,南堀江１丁目２６番２７号南堀江スカイハイツ１１０３号,,27,106,5500015,,,,,,,2024-05-17,1,,,,,エコー,0
166,1120001264969,新規,0,2024-05-17,2024-05-17,株式会社Ｏｆｆｉｃｅ　ＡＮＩ,,株式会社,大阪府,大阪市城東区,成育３丁目９番１２－４０３号,,27,118,5360007,,,,,,,2024-05-17,1,,,,,オフィスアニ,0
167,1120001264977,新規,0,2024-05-17,2024-05-17,日本阪連株式会社,,株式会社,大阪府,大阪市西区,境川２丁目２番３３－３０１号,,27,106,5500024,,,,,,,2024-05-17,1,,,,,ニホンハンレン,0
168,1120001264985,新規,0,2024-05-17,2024-05-17,東航株式会社,,株式会社,大阪府,大阪市中央区,本町３丁目３－９－９Ｆ,,27,128,5410053,,,,,,,2024-05-17,1,,,,,トウコウ,0
169,1120001264993,新規,0,2024-05-17,2024-05-17,福煕株式会社,,株式会社,大阪府,大阪市中央区,瓦屋町１丁目１０番１０号メディカル瓦屋町２０３号室,,27,128,5420066,,,,,,,2024-05-17,1,,,,,フクキ,0
170,1120001265018,新規,0,2024-05-17,2024-05-17,株式会社ＮＡＮＡ,,株式会社,大阪府,大阪市中央区,高津３丁目１番６－６０６号,,27,128,5420072,,,,,,,2024-05-17,1,,,,,ナナ,0
171,1120001265042,新規,0,2024-05-17,2024-05-17,株式会社ＢＧ,,株式会社,大阪府,大阪市浪速区,元町１丁目７番２１号,,27,111,5560016,,,,,,,2024-05-17,1,,,,,ビージー,0
175,1120003026608,新規,0,2024-05-17,2024-05-17,合同会社マードゥルガ,,合同会社,大阪府,大阪市西区,江戸堀１丁目２３番３１号,,27,106,5500002,,,,,,,2024-05-17,1,,,,,マードゥルガ,0
176,1120003026624,新規,0,2024-05-17,2024-05-17,合同会社安國企画,,合同会社,大阪府,大阪市東住吉区,杭全８丁目６番２１号,,27,121,5460002,,,,,,,2024-05-17,1,,,,,ヤスクニキカク,0
177,1120005024320,新規,0,2024-05-17,2024-05-17,一般社団法人不老長美協会,,その他の設立登記法人,大阪府,大阪市中央区,南船場４丁目６番１５号,,27,128,5420081,,,,,,,2024-05-17,1,,,,,フロウチョウビキョウカイ,0
181,1120901049156,新規,0,2024-05-17,2024-05-17,加勢株式会社,,株式会社,大阪府,高槻市,上土室１丁目２番１８号,,27,207,5691044,,,,,,,2024-05-17,1,,,,,カセ,0
182,1120901049180,新規,0,2024-05-17,2024-05-17,株式会社Ｔ‐ｗｏｒｋｓ,,株式会社,大阪府,摂津市,鳥飼本町５丁目７番２５号,,27,224,5660052,,,,,,,2024-05-17,1,,,,,ティーワークス,0
184,1122001038106,新規,0,2024-05-17,2024-05-17,株式会社リレーション,,株式会社,大阪府,東大阪市,金岡４丁目４番１４号,,27,227,5770823,,,,,,,2024-05-17,1,,,,,リレーション,0
185,1122001038114,新規,0,2024-05-17,2024-05-17,株式会社松川建設,,株式会社,大阪府,大東市,北条７丁目６番９号,,27,218,5740011,,,,,,,2024-05-17,1,,,,,マツカワケンセツ,0
186,1122001038122,新規,0,2024-05-17,2024-05-17,株式会社ＳＦＴ,,株式会社,大阪府,大東市,御供田５丁目６番２３号,,27,218,5740025,,,,,,,2024-05-17,1,,,,,エスエフティー,0
191,1130001077057,新規,0,2024-05-17,2024-05-17,株式会社Ｏｄｙｓｓｅｙ,,株式会社,京都府,京都市上京区,西町三丁目９５番地３,,26,102,6020956,,,,,,,2024-05-17,1,,,,,オデッセイ,0
192,1130001077065,新規,0,2024-05-17,2024-05-17,株式会社ルチルクリエイション,,株式会社,京都府,長岡京市,調子２丁目１番１７号,,26,209,6170844,,,,,,,2024-05-17,1,,,,,ルチルクリエイション,0
193,1130001077073,新規,0,2024-05-17,2024-05-17,里白文化株式会社,,株式会社,京都府,京都市右京区,嵯峨野神ノ木町１７－１０,,26,108,6168317,,,,,,,2024-05-17,1,,,,,リバイブンカ,0
198,1140001134419,新規,0,2024-05-17,2024-05-17,ランドマリス株式会社,,株式会社,兵庫県,宝塚市,中山桜台４丁目９番１０号,,28,214,6650877,,,,,,,2024-05-17,1,,,,,ランドマリス,0
199,1140001134443,新規,0,2024-05-17,2024-05-17,株式会社ＴＳＵＮＡＧＵ,,株式会社,兵庫県,三木市,口吉川町里脇８２１番地の１,,28,215,6730751,,,,,,,2024-05-17,1,,,,,ツナグ,0
200,1140001134451,新規,0,2024-05-17,2024-05-17,株式会社中村,,株式会社,兵庫県,神戸市須磨区,須磨寺町４丁目５番９－７０３号,,28,107,6540071,,,,,,,2024-05-17,1,,,,,ナカムラ,0
201,1140001134484,新規,0,2024-05-17,2024-05-17,株式会社ＳＫＫＹ,,株式会社,兵庫県,神戸市東灘区,鴨子ヶ原２丁目８番１３号,,28,101,6580064,,,,,,,2024-05-17,1,,,,,スカイ,0
202,1140001134492,新規,0,2024-05-17,2024-05-17,株式会社スカイ,,株式会社,兵庫県,三木市,福井２１４２番地の２,,28,215,6730433,,,,,,,2024-05-17,1,,,,,スカイ,0
206,1150001027282,新規,0,2024-05-17,2024-05-17,株式会社Ｍａｒｓｈａｌ,,株式会社,奈良県,橿原市,西池尻町１５１番地の２７,,29,205,6340821,,,,,,,2024-05-17,1,,,,,マーシャル,0
216,1180001161475,新規,0,2024-05-17,2024-05-17,株式会社Ｅｌｅｐｈａｎｔ,,株式会社,愛知県,名古屋市守山区,市場１５番２１号,,23,113,4630075,,,,,,,2024-05-17,1,,,,,エレファント,0
217,1180001161491,新規,0,2024-05-17,2024-05-17,株式会社楽間,,株式会社,愛知県,名古屋市熱田区,新尾頭１丁目３番１号サンクレーア金山１４０２号,,23,109,4560018,,,,,,,2024-05-17,1,,,,,ラクマ,0
228,1180005020628,新規,0,2024-05-17,2024-05-17,ＮＰＯ法人いるから,,その他の設立登記法人,愛知県,名古屋市天白区,原５丁目２５１１番地の４,,23,116,4680015,,,,,,,2024-05-17,1,,,,,イルカラ,0
229,1180301038646,新規,0,2024-05-17,2024-05-17,株式会社マルミヤ,,株式会社,愛知県,豊田市,上郷町市場７４番地１,,23,211,4701218,,,,,,,2024-05-17,1,,,,,マルミヤ,0
231,1190001031355,新規,0,2024-05-17,2024-05-17,株式会社Ｏｒｅｋｏ,,株式会社,三重県,四日市市,大字六呂見５１０番地１,,24,202,5100881,,,,,,,2024-05-17,1,,,,,オレコ,0
234,1200003006345,新規,0,2024-05-17,2024-05-17,合同会社ＧＯＡＴ　ＦＡＲＭ,,合同会社,岐阜県,岐阜市,野一色２丁目５番地１５,,21,201,5008226,,,,,,,2024-05-17,1,,,,,ゴートファーム,0
238,1210003001790,新規,0,2024-05-17,2024-05-17,合同会社シチラク,,合同会社,福井県,坂井市,春江町江留上新町９５番地,,18,210,9190465,,,,,,,2024-05-17,1,,,,,シチラク,0
239,1220001026013,新規,0,2024-05-17,2024-05-17,花丸電工株式会社,,株式会社,石川県,金沢市,高畠２丁目３６番地２,,17,201,9218001,,,,,,,2024-05-17,1,,,,,ハナマルデンコウ,0
243,1220003003753,新規,0,2024-05-17,2024-05-17,合同会社馬場ホールディングス,,合同会社,石川県,白山市,旭丘１丁目１番地,,17,210,9240004,,,,,,,2024-05-17,1,,,,,ババホールディングス,0
247,1230001020353,新規,0,2024-05-17,2024-05-17,株式会社射水,,株式会社,富山県,高岡市,福岡町矢部５３４番地１,,16,202,9390125,,,,,,,2024-05-17,1,,,,,イミズ,0
253,1240001063211,新規,0,2024-05-17,2024-05-17,株式会社坂本商事,,株式会社,広島県,福山市,神辺町字上御領６２３番地,,34,207,7202111,,,,,,,2024-05-17,1,,,,,サカモトショウジ,0
254,1240001063236,新規,0,2024-05-17,2024-05-17,株式会社ＨＮＫ,,株式会社,広島県,広島市安芸区,阿戸町７８３番地１,,34,107,7314231,,,,,,,2024-05-17,1,,,,,エイチエヌケー,0
255,1240001063244,新規,0,2024-05-17,2024-05-17,ＥＮＴＥＣＨ株式会社,,株式会社,広島県,三原市,和田１丁目１０番１１号,,34,204,7230041,,,,,,,2024-05-17,1,,,,,エンテック,0
258,1240003006671,新規,0,2024-05-17,2024-05-17,合同会社テラックス,,合同会社,広島県,広島市安佐南区,緑井３丁目１７－１６,,34,105,7310103,,,,,,,2024-05-17,1,,,,,テラックス,0
259,1250003003503,新規,0,2024-05-17,2024-05-17,ワイジーテクノ合同会社,,合同会社,山口県,宇部市,東本町２丁目１２－１０レジデンス東本町１０３号,,35,202,7550028,,,,,,,2024-05-17,1,,,,,ワイジーテクノ,0
260,1260001039069,新規,0,2024-05-17,2024-05-17,株式会社大翔,,株式会社,岡山県,笠岡市,九番町１番地２６,,33,205,7140096,,,,,,,2024-05-17,1,,,,,ダイショウ,0
261,1260001039077,新規,0,2024-05-17,2024-05-17,株式会社Ｐａｌｌｅｔ,,株式会社,岡山県,倉敷市,福田町福田２３９７番地４グレース・フレーシュ１０２,,33,202,7128041,,,,,,,2024-05-17,1,,,,,パレット,0
270,1290801030579,新規,0,2024-05-17,2024-05-17,株式会社ＣＨＯＷＡ,,株式会社,福岡県,北九州市八幡西区,永犬丸南町４丁目７番１６号加藤方,,40,109,8070845,,,,,,,2024-05-17,1,,,,,チョウワ,0
281,1330001032082,新規,0,2024-05-17,2024-05-17,株式会社ＯＫＩＮ,,株式会社,熊本県,宇土市,松原町３１３番地１,,43,211,8690407,,,,,,,2024-05-17,1,,,,,オキン,0
282,1330003010375,新規,0,2024-05-17,2024-05-17,合同会社ときん,,合同会社,熊本県,熊本市中央区,出水５丁目１７番５０号,,43,101,8620941,,,,,,,2024-05-17,1,,,,,トキン,0
285,1340001026513,新規,0,2024-05-17,2024-05-17,株式会社はこぶね,,株式会社,鹿児島県,姶良市,加治木町木田５３４８番地６６７,,46,225,8995241,,,,,,,2024-05-17,1,,,,,ハコブネ,0
287,1340003004483,新規,0,2024-05-17,2024-05-17,合同会社ＰＡＩＮＴ　ＳＨＯＰ　ＫＯＬＯＲＳ,,合同会社,鹿児島県,出水市,上知識町４７１番地,,46,208,8990212,,,,,,,2024-05-17,1,,,,,ペイントショップカラーズ,0
289,1360001033672,新規,0,2024-05-17,2024-05-17,株式会社オースリー,,株式会社,沖縄県,宮古島市,平良字西里２４０－２－５Ｆ,,47,214,9060012,,,,,,,2024-05-17,1,,,,,オースリー,0
293,1360003013978,新規,0,2024-05-17,2024-05-17,合同会社栄翔,,合同会社,沖縄県,那覇市,字小禄９１２番地,,47,201,9010152,,,,,,,2024-05-17,1,,,,,エイト,0
294,1370003006618,新規,0,2024-05-17,2024-05-17,イチＧＯＥＮ合同会社,,合同会社,宮城県,仙台市泉区,南光台南２丁目３番１５号,,04,105,9818002,,,,,,,2024-05-17,1,,,,,イチゴエン,0
302,1430001091829,新規,0,2024-05-17,2024-05-17,ロアエージェント株式会社,,株式会社,北海道,札幌市北区,麻生町２丁目１番２８号フレグランス麻生１階,,01,102,0010045,,,,,,,2024-05-17,1,,,,,ロアエージェント,0
304,1430003016338,新規,0,2024-05-17,2024-05-17,合同会社レイドバック,,合同会社,北海道,登別市,常盤町１丁目４２番地４,,01,230,0590011,,,,,,,2024-05-17,1,,,,,レイドバック,0
306,1450001014309,新規,0,2024-05-17,2024-05-17,しずＫＴＥＣ株式会社,,株式会社,北海道,士別市,東二条北３丁目１７番地,,01,220,0950002,,,,,,,2024-05-17,1,,,,,シズケイテック,0
307,1460003000999,新規,0,2024-05-17,2024-05-17,合同会社イレンカ,,合同会社,北海道,釧路郡釧路町,曙４丁目７番地１１,,01,661,0880616,,,,,,,2024-05-17,1,,,,,イレンカ,0
310,1480005007025,新規,0,2024-05-17,2024-05-17,一般社団法人遊山箱文化保存協会,,その他の設立登記法人,徳島県,徳島市,南昭和町１丁目３９－１,,36,201,7700944,,,,,,,2024-05-17,1,,,,,ユサンバコブンカホゾンキョウカイ,0
311,1500001025639,新規,0,2024-05-17,2024-05-17,やま吉総合サービス株式会社,,株式会社,愛媛県,四国中央市,寒川町３７番地１,,38,213,7990431,,,,,,,2024-05-17,1,,,,,ヤマヨシソウゴウサービス,0
328,2010001244964,新規,0,2024-05-17,2024-05-17,株式会社ベルノックスフィルムズ,,株式会社,東京都,千代田区,富士見２丁目１３番３号,,13,101,1020071,,,,,,,2024-05-17,1,,,,,ベルノックスフィルムズ,0
329,2010001244972,新規,0,2024-05-17,2024-05-17,ＰＲＯＴＥＣＨ株式会社,,株式会社,東京都,文京区,本郷１丁目５番７号三洋ビル４８号,,13,105,1130033,,,,,,,2024-05-17,1,,,,,プロテック,0
330,2010001244980,新規,0,2024-05-17,2024-05-17,株式会社Ｗｉｚｎｅｓｓ,,株式会社,東京都,中央区,銀座１丁目１２－４Ｎ＆ＥＢＬＤ．７階,,13,102,1040061,,,,,,,2024-05-17,1,,,,,ウィズネス,0
343,2010401182302,新規,0,2024-05-17,2024-05-17,Ｉｎｉｔｉｕｍ株式会社,,株式会社,東京都,港区,芝５丁目２９－１０クロスオフィス三田６０７,,13,103,1080014,,,,,,,2024-05-17,1,,,,,イニティウム,0
347,2010405023254,新規,0,2024-05-17,2024-05-17,なんば南ホテル一般社団法人,,その他の設立登記法人,東京都,港区,六本木１丁目６番１号泉ガーデンタワー１２階,,13,103,1060032,,,,,,,2024-05-17,1,,,,,ナンバミナミホテル,0
355,2010603010839,新規,0,2024-05-17,2024-05-17,合同会社Ｍａｈｏ,,合同会社,東京都,墨田区,立花２丁目１８番７号,,13,107,1310043,,,,,,,2024-05-17,1,,,,,マホ,0
356,2010701045992,新規,0,2024-05-17,2024-05-17,ＮＡＮＩＭＯ株式会社,,株式会社,東京都,品川区,東品川４丁目１２番８号品川シーサイドイーストタワー１５階,,13,109,1400002,,,,,,,2024-05-17,1,,,,,ナニモ,0
359,2010803004954,新規,0,2024-05-17,2024-05-17,合同会社ＫＡＥＮ,,合同会社,東京都,大田区,鵜の木２丁目１５番２号栄ビル１階,,13,111,1460091,,,,,,,2024-05-17,1,,,,,カエン,0
360,2010901055305,新規,0,2024-05-17,2024-05-17,株式会社ＫＮＹＣ,,株式会社,東京都,世田谷区,新町２丁目２８番２－２０１号,,13,112,1540014,,,,,,,2024-05-17,1,,,,,ケーエヌワイシー,0
363,2010903009060,新規,0,2024-05-17,2024-05-17,里山蓄電合同会社,,合同会社,東京都,世田谷区,太子堂２丁目１７－５佐藤ビル３階,,13,112,1540004,,,,,,,2024-05-17,1,,,,,サトヤマチクデン,0
368,2011003019108,新規,0,2024-05-17,2024-05-17,合同会社Ｎｅｘｔａｒｔ,,合同会社,東京都,渋谷区,恵比寿西２丁目４番８号ウィンド恵比寿ビル８Ｆ,,13,113,1500021,,,,,,,2024-05-17,1,,,,,ネクスタート,0
371,2011005010510,新規,0,2024-05-17,2024-05-17,一般社団法人谷中のおかって,,その他の設立登記法人,東京都,渋谷区,千駄ヶ谷３丁目１５番３号,,13,113,1510051,,,,,,,2024-05-17,1,,,,,ヤナカノオカッテ,0
379,2011101107359,新規,0,2024-05-17,2024-05-17,株式会社トップオーシャン,,株式会社,東京都,新宿区,西新宿３丁目３－１３西新宿水間ビル３Ｆ,,13,104,1600023,,,,,,,2024-05-17,1,,,,,トップオーシャン,0
383,2011201025477,新規,0,2024-05-17,2024-05-17,株式会社Ｃｕｄｄｙｓ,,株式会社,東京都,中野区,松が丘２丁目１０番１５号トリニテＲ３０２,,13,114,1650024,,,,,,,2024-05-17,1,,,,,カディーズ,0
389,2011503006068,新規,0,2024-05-17,2024-05-17,合同会社ハヴラウール,,合同会社,東京都,北区,志茂５丁目２０番１４号,,13,117,1150042,,,,,,,2024-05-17,1,,,,,ハヴラウール,0
394,2011801044240,新規,0,2024-05-17,2024-05-17,瑛心株式会社,,株式会社,東京都,足立区,西保木間２丁目２２－２ライオンズスクエア竹ノ塚１０５,,13,121,1210812,,,,,,,2024-05-17,1,,,,,エイト,0
395,2011803006247,新規,0,2024-05-17,2024-05-17,ペトテル合同会社,,合同会社,東京都,足立区,千住緑町２丁目１５番７号,,13,121,1200044,,,,,,,2024-05-17,1,,,,,ペトテル,0
396,2012301013909,新規,0,2024-05-17,2024-05-17,株式会社ＴＯＰ　ＴＥＡＭ,,株式会社,東京都,町田市,金森６丁目１８番３３号,,13,209,1940012,,,,,,,2024-05-17,1,,,,,トップチーム,0
399,2012403006562,新規,0,2024-05-17,2024-05-17,小春日和合同会社,,合同会社,東京都,狛江市,西野川４丁目３３番７号ベルローズ２０３号室,,13,219,2010001,,,,,,,2024-05-17,1,,,,,コハルビヨリ,0
413,2021001082247,新規,0,2024-05-17,2024-05-17,ＫＡＴＯ通信株式会社,,株式会社,神奈川県,足柄上郡松田町,松田庶子７３３番地１,,14,363,2580004,,,,,,,2024-05-17,1,,,,,カトウツウシン,0
414,2021001082255,新規,0,2024-05-17,2024-05-17,株式会社すみごころ,,株式会社,神奈川県,大和市,中央林間４丁目１０番１４－５０１号,,14,213,2420007,,,,,,,2024-05-17,1,,,,,スミゴコロ,0
418,2021003014512,新規,0,2024-05-17,2024-05-17,合同会社ウィンドベル,,合同会社,神奈川県,小田原市,国府津２４９４番地の１７,,14,206,2560812,,,,,,,2024-05-17,1,,,,,ウィンドベル,0
419,2021003014520,新規,0,2024-05-17,2024-05-17,合同会社Ｖｅｎｔｏ,,合同会社,神奈川県,茅ヶ崎市,甘沼１１６９番地３,,14,207,2530004,,,,,,,2024-05-17,1,,,,,ベント,0
421,2030001160301,新規,0,2024-05-17,2024-05-17,喜旋株式会社,,株式会社,埼玉県,北本市,北本１丁目７１ＴＫビル１階,,11,233,3640006,,,,,,,2024-05-17,1,,,,,キセン,0
422,2030001160359,新規,0,2024-05-17,2024-05-17,株式会社Ｓｍｉｌｅ,,株式会社,埼玉県,草加市,新栄１丁目１２番地２７,,11,221,3400056,,,,,,,2024-05-17,1,,,,,スマイル,0
423,2030001160400,新規,0,2024-05-17,2024-05-17,株式会社中村建設,,株式会社,埼玉県,秩父郡皆野町,大字下田野２５４番地２,,11,362,3691413,,,,,,,2024-05-17,1,,,,,ナカムラケンセツ,0
424,2030001160409,新規,0,2024-05-17,2024-05-17,無添加建築設計株式会社,,株式会社,埼玉県,蕨市,中央３丁目１６番９号,,11,223,3350004,,,,,,,2024-05-17,1,,,,,ムテンカケンチクセッケイ,0
425,2030001160417,新規,0,2024-05-17,2024-05-17,株式会社リアルワークス,,株式会社,埼玉県,さいたま市浦和区,針ヶ谷２丁目１番１７号,,11,107,3300075,,,,,,,2024-05-17,1,,,,,リアルワークス,0
426,2030001160441,新規,0,2024-05-17,2024-05-17,株式会社福澤苑総合商事,,株式会社,埼玉県,越谷市,大字上間久里八反田２９６番６,,11,222,3430043,,,,,,,2024-05-17,1,,,,,フクザワエンソウゴウショウジ,0
427,2030001160490,新規,0,2024-05-17,2024-05-17,向日葵株式会社,,株式会社,埼玉県,草加市,神明１丁目９番地２６－６番,,11,221,3400012,,,,,,,2024-05-17,1,,,,,ヒマワリ,0
432,2030003024314,新規,0,2024-05-17,2024-05-17,合同会社ＩＣＨＩＫＯ,,合同会社,埼玉県,川口市,原町９番６号,,11,203,3320025,,,,,,,2024-05-17,1,,,,,イチコ,0
436,2040001133636,新規,0,2024-05-17,2024-05-17,株式会社花まる商店,,株式会社,千葉県,千葉市中央区,川崎町５１番地１,,12,101,2600835,,,,,,,2024-05-17,1,,,,,ハナマルショウテン,0
443,2040003024833,新規,0,2024-05-17,2024-05-17,合同会社本能,,合同会社,千葉県,八街市,榎戸４０７番地６７,,12,230,2891106,,,,,,,2024-05-17,1,,,,,ホンノウ,0
444,2040003025006,新規,0,2024-05-17,2024-05-17,合同会社ＤＳＫ,,合同会社,千葉県,松戸市,南花島２丁目３５番地の２メゾンアレンヌ２０５号,,12,207,2710065,,,,,,,2024-05-17,1,,,,,ディーエスケー,0
445,2040003025014,新規,0,2024-05-17,2024-05-17,ペットサロンみーしゃ合同会社,,合同会社,千葉県,野田市,山崎７３８番地の３,,12,208,2780022,,,,,,,2024-05-17,1,,,,,ペットサロンミーシャ,0
450,2070001041761,新規,0,2024-05-17,2024-05-17,ＲＭＫ株式会社,,株式会社,群馬県,高崎市,上中居町１６３９－８,,10,202,3700851,,,,,,,2024-05-17,1,,,,,アールエムケー,0
453,2080003003197,新規,0,2024-05-17,2024-05-17,合同会社Ａｉｍｅｒ,,合同会社,静岡県,静岡市葵区,両替町２丁目５－２１ウィッシュビル４Ｆ,,22,101,4200032,,,,,,,2024-05-17,1,,,,,アイミー,0
458,2080401027186,新規,0,2024-05-17,2024-05-17,株式会社Ｌｅｎ,,株式会社,静岡県,浜松市中央区,田町３２３番地の６Ｙ２ビルＢ１,,22,138,4300944,,,,,,,2024-05-17,1,,,,,レン,0
461,2100003007550,新規,0,2024-05-17,2024-05-17,Ｗｅｌｃｏｍｅ　Ｎｏｚａｗａ合同会社,,合同会社,長野県,下高井郡野沢温泉村,大字豊郷９７５３番地９,,20,563,3892502,,,,,,,2024-05-17,1,,,,,ウェルカムノザワ,0
464,2110001038415,新規,0,2024-05-17,2024-05-17,ｏｎｅｎａＲｅ株式会社,,株式会社,新潟県,新潟市秋葉区,東島１３３番４８,,15,105,9560841,,,,,,,2024-05-17,1,,,,,ワンナリ,0
465,2110001038423,新規,0,2024-05-17,2024-05-17,ＮＳＵホールディングス株式会社,,株式会社,新潟県,新潟市江南区,茗荷谷６７９番地５,,15,104,9500114,,,,,,,2024-05-17,1,,,,,エヌエスユーホールディングス,0
483,2120001264943,新規,0,2024-05-17,2024-05-17,ＢＥＬＬＯＳＨＯＰ株式会社,,株式会社,大阪府,大阪市北区,梅田１丁目３番１号大阪駅前第一ビル５階５－２号ＲＯＹＡＬＯＦＦＩＣＥ内,,27,127,5300001,,,,,,,2024-05-17,1,,,,,ベロショップ,0
484,2120001264951,新規,0,2024-05-17,2024-05-17,ＴＯＮＮＹ　ＡＮＤ　ＪＥＮＮＹ株式会社,,株式会社,大阪府,大阪市大正区,三軒家西１丁目１５－４,,27,108,5510001,,,,,,,2024-05-17,1,,,,,トニーアンドジェニー,0
485,2120001264976,新規,0,2024-05-17,2024-05-17,日昇株式会社,,株式会社,大阪府,大阪市中央区,北久宝寺町１丁目５番６－５０４号,,27,128,5410057,,,,,,,2024-05-17,1,,,,,ニッショウ,0
486,2120001264984,新規,0,2024-05-17,2024-05-17,ＢＩＴＦＵＮ株式会社,,株式会社,大阪府,大阪市中央区,南本町２丁目３－１２ＥＤＧＥ本町３Ｆ,,27,128,5410054,,,,,,,2024-05-17,1,,,,,ビットファン,0
487,2120001265000,新規,0,2024-05-17,2024-05-17,レック・ウエスト株式会社,,株式会社,大阪府,大阪市北区,野崎町７－１６関西フエルトビル２Ｆ,,27,127,5300055,,,,,,,2024-05-17,1,,,,,レックウエスト,0
488,2120001265074,新規,0,2024-05-17,2024-05-17,株式会社ｍａｒｖｅｌｏｕｓ,,株式会社,大阪府,大阪市浪速区,日本橋西１丁目８番１８号,,27,111,5560004,,,,,,,2024-05-17,1,,,,,マーベラス,0
489,2120001265090,新規,0,2024-05-17,2024-05-17,株式会社ワイズリー,,株式会社,大阪府,大阪市西区,北堀江１丁目１番７号四ツ橋日生ビル７０７号室,,27,106,5500014,,,,,,,2024-05-17,1,,,,,ワイズリー,0
490,2120001265108,新規,0,2024-05-17,2024-05-17,ＳＴＡＲＤＵＳＴ株式会社,,株式会社,大阪府,大阪市淀川区,新高１丁目８番３１号,,27,123,5320033,,,,,,,2024-05-17,1,,,,,スターダスト,0
491,2120001265124,新規,0,2024-05-17,2024-05-17,株式会社岩見鉄工所,,株式会社,大阪府,大阪市此花区,春日出南２丁目４番１３号,,27,104,5540023,,,,,,,2024-05-17,1,,,,,イワミテッコウショ,0
494,2120003026598,新規,0,2024-05-17,2024-05-17,合同会社ＤＭＫ,,合同会社,大阪府,大阪市中央区,谷町４丁目４番１５号谷四プラザ３０１号,,27,128,5400012,,,,,,,2024-05-17,1,,,,,ディーエムケー,0
495,2120003026607,新規,0,2024-05-17,2024-05-17,合同会社Ａｍｅｔｒｉｎｅ,,合同会社,大阪府,大阪市中央区,本町橋５番２－２０２号,,27,128,5400029,,,,,,,2024-05-17,1,,,,,アメトリン,0
496,2120003026615,新規,0,2024-05-17,2024-05-17,ＶａｕｌｔＫ合同会社,,合同会社,大阪府,大阪市福島区,福島６丁目１１番１３－９２１号,,27,103,5530003,,,,,,,2024-05-17,1,,,,,ヴォルトケイ,0
501,2122001038105,新規,0,2024-05-17,2024-05-17,株式会社ベースライン,,株式会社,大阪府,東大阪市,若江南町２丁目９番４０号,,27,227,5780943,,,,,,,2024-05-17,1,,,,,ベースライン,0
504,2130001077072,新規,0,2024-05-17,2024-05-17,株式会社ケーランド,,株式会社,京都府,京都市伏見区,向島本丸町５４番地５５,,26,109,6128112,,,,,,,2024-05-17,1,,,,,ケーランド,0
505,2130001077089,新規,0,2024-05-17,2024-05-17,Ｓａｍｕｒａｉ　Ａｒｃ．株式会社,,株式会社,京都府,京都市伏見区,久我石原町２番２５－２０２号,,26,109,6128491,,,,,,,2024-05-17,1,,,,,サムライアーク,0
516,2140001134450,新規,0,2024-05-17,2024-05-17,株式会社ラービリッド,,株式会社,兵庫県,西宮市,羽衣町７－３０夙川グリーンタウン３階,,28,204,6620051,,,,,,,2024-05-17,1,,,,,ラービリッド,0
517,2140001134459,新規,0,2024-05-17,2024-05-17,ＭＩＮＡＭＩ　Ｓ’ＴＩＬＥ株式会社,,株式会社,兵庫県,姫路市,北平野南の町２番１２号,,28,201,6700887,,,,,,,2024-05-17,1,,,,,ミナミスタイル,0
518,2140001134467,新規,0,2024-05-17,2024-05-17,アイキッズマーケティング株式会社,,株式会社,兵庫県,神戸市中央区,栄町通４丁目３番５号,,28,110,6500023,,,,,,,2024-05-17,1,,,,,アイキッズマーケティング,0
524,2150003003256,新規,0,2024-05-17,2024-05-17,合同会社ＡＤＳアクロバットダンススタジオ,,合同会社,奈良県,生駒市,辻町３９０番地１フェリス東生駒２階,00134793,29,209,6300212,,,,,,,2024-05-17,1,,,,,エーディーエスアクロバットダンススタジオ,0
529,2160005011306,新規,0,2024-05-17,2024-05-17,薬王院,,その他の設立登記法人,滋賀県,大津市,里６丁目２４番９号,,25,201,5202276,,,,,,,2024-05-17,1,,,,,ヤクオウイン,0
531,2170001018147,新規,0,2024-05-17,2024-05-17,株式会社Ｂ‐Ｔｒｅｅ,,株式会社,和歌山県,和歌山市,直川１２３３番地７,,30,201,6408481,,,,,,,2024-05-17,1,,,,,ビートゥリー,0
537,2180001161490,新規,0,2024-05-17,2024-05-17,株式会社サンキン企画,,株式会社,愛知県,名古屋市東区,葵１丁目２６番１０号,,23,102,4610004,,,,,,,2024-05-17,1,,,,,サンキンキカク,0
538,2180001161499,新規,0,2024-05-17,2024-05-17,株式会社ｔｒｉｕｍｐｈ,,株式会社,愛知県,半田市,向山町２丁目９８－１,,23,205,4750084,,,,,,,2024-05-17,1,,,,,トライアンフ,0
539,2180001161598,新規,0,2024-05-17,2024-05-17,株式会社ディーズクリエイト,,株式会社,愛知県,東海市,富木島町東山田７番地の２１１,,23,222,4760011,,,,,,,2024-05-17,1,,,,,ディーズクリエイト,0
544,2180003026782,新規,0,2024-05-17,2024-05-17,合同会社ＩｎｆｉＰｏｔｅｎｓａｂｌｅ,,合同会社,愛知県,名古屋市西区,名駅２丁目３４番１７号セントラル名古屋１１０１号,,23,104,4510045,,,,,,,2024-05-17,1,,,,,インフィポテンシブル,0
545,2180003026790,新規,0,2024-05-17,2024-05-17,合同会社フクシマ,,合同会社,愛知県,小牧市,篠岡１丁目１番地１９,,23,219,4850815,,,,,,,2024-05-17,1,,,,,フクシマ,0
556,2220003003752,新規,0,2024-05-17,2024-05-17,合同会社Ｎ’ｓ８,,合同会社,石川県,金沢市,此花町５番６号ライフ金沢第１ビル６０１Ａ,,17,201,9200852,,,,,,,2024-05-17,1,,,,,エヌズエイト,0
560,2230003002209,新規,0,2024-05-17,2024-05-17,ワイルズ合同会社,,合同会社,富山県,氷見市,栄町１９番１８号センチュリーハイツさかえ３－Ｃ号室,,16,205,9350005,,,,,,,2024-05-17,1,,,,,ワイルズ,0
562,2240001063202,新規,0,2024-05-17,2024-05-17,ＫＯＢＡホーム株式会社,,株式会社,広島県,福山市,野上町１丁目９番８号,,34,207,7200815,,,,,,,2024-05-17,1,,,,,コバホーム,0
563,2240001063219,新規,0,2024-05-17,2024-05-17,株式会社ＦＵＪＩＴＡ,,株式会社,広島県,福山市,坪生町６丁目４－２４－６（Ｆ２）,,34,207,7210903,,,,,,,2024-05-17,1,,,,,フジタ,0
564,2240001063243,新規,0,2024-05-17,2024-05-17,株式会社ＭＣｎｉｃ,,株式会社,広島県,広島市安佐南区,川内６丁目４１番１９－２０１号,,34,105,7310102,,,,,,,2024-05-17,1,,,,,エムシニック,0
566,2240003006670,新規,0,2024-05-17,2024-05-17,合同会社はなえむ,,合同会社,広島県,福山市,新市町大字新市２１２番地１,,34,207,7293103,,,,,,,2024-05-17,1,,,,,ハナエム,0
575,2260001039068,新規,0,2024-05-17,2024-05-17,株式会社ライフマモリー,,株式会社,岡山県,岡山市南区,箕島２９６番地２,,33,104,7010206,,,,,,,2024-05-17,1,,,,,ライフマモリー,0
582,2280001009184,新規,0,2024-05-17,2024-05-17,株式会社藤乃屋,,株式会社,島根県,出雲市,今市町１３００番地,,32,203,6930001,,,,,,,2024-05-17,1,,,,,フジノヤ,0
590,2290001105651,新規,0,2024-05-17,2024-05-17,三番木木株式会社,,株式会社,福岡県,福岡市城南区,西片江２丁目５番１０号,,40,136,8140141,,,,,,,2024-05-17,1,,,,,,0
597,2320001020459,新規,0,2024-05-17,2024-05-17,株式会社美月不動産,,株式会社,大分県,大分市,大字羽田６１番地の３,,44,201,8700942,,,,,,,2024-05-17,1,,,,,ミヅキフドウサン,0
602,2330001032073,新規,0,2024-05-17,2024-05-17,株式会社一二三建設,,株式会社,熊本県,玉名市,大浜町５０９番地２,,43,206,8650055,,,,,,,2024-05-17,1,,,,,ヒフミケンセツ,0
603,2330001032081,新規,0,2024-05-17,2024-05-17,株式会社縁,,株式会社,熊本県,熊本市東区,長嶺東５丁目１４番４３号,,43,102,8618038,,,,,,,2024-05-17,1,,,,,エニシ,0
604,2330003010374,新規,0,2024-05-17,2024-05-17,合同会社ＮａｎｄＲ,,合同会社,熊本県,熊本市西区,上熊本１丁目９－１７－８１４アトラス上熊本,,43,103,8600079,,,,,,,2024-05-17,1,,,,,エヌアンドアール,0
606,2340001026504,新規,0,2024-05-17,2024-05-17,株式会社ワイエイチ・コーポレーション,,株式会社,鹿児島県,鹿児島市,東開町３番地７０,,46,201,8910115,,,,,,,2024-05-17,1,,,,,ワイエイチコーポレーション,0
607,2360001033688,新規,0,2024-05-17,2024-05-17,株式会社琉球エイペック,,株式会社,沖縄県,那覇市,久茂地２丁目２番２号タイムスビル２Ｆ,,47,201,9000015,,,,,,,2024-05-17,1,,,,,リュウキュウエイペック,0
608,2360001033696,新規,0,2024-05-17,2024-05-17,ＴＨＥ株式会社,,株式会社,沖縄県,中頭郡西原町,字我謝１１５番地ドリームパレス我謝２０２号,,47,329,9030112,,,,,,,2024-05-17,1,,,,,ティーエッチイー,0
610,2360003013977,新規,0,2024-05-17,2024-05-17,合同会社五勇士ユカーラ,,合同会社,沖縄県,宮古島市,下地字上地３３１番地３,,47,214,9060304,,,,,,,2024-05-17,1,,,,,ゴユウシユカーラ,0
611,2360003013985,新規,0,2024-05-17,2024-05-17,合同会社Ｔ．Ｔ‐Ｌｉｆｅ,,合同会社,沖縄県,宜野湾市,宜野湾１丁目１６番９号,,47,205,9012211,,,,,,,2024-05-17,1,,,,,ティーティーライフ,0
621,2400003003271,新規,0,2024-05-17,2024-05-17,ＡｃｔＡｒｋｅ合同会社,,合同会社,岩手県,大船渡市,大船渡町字明神前１５２番地３４,,03,203,0220002,,,,,,,2024-05-17,1,,,,,アクトアルケ,0
631,2430001091753,新規,0,2024-05-17,2024-05-17,株式会社プロム,,株式会社,北海道,苫小牧市,泉町１丁目１番１１号,,01,213,0530047,,,,,,,2024-05-17,1,,,,,プロム,0
632,2430001091828,新規,0,2024-05-17,2024-05-17,きよきサービス株式会社,,株式会社,北海道,札幌市白石区,菊水上町一条１丁目１００番地２５タイムプラザ５０１号,,01,104,0030811,,,,,,,2024-05-17,1,,,,,キヨキサービス,0
633,2430001091836,新規,0,2024-05-17,2024-05-17,伴クリエーション株式会社,,株式会社,北海道,札幌市豊平区,月寒東三条５丁目１番１４号,,01,105,0620053,,,,,,,2024-05-17,1,,,,,バンクリエーション,0
634,2430001091844,新規,0,2024-05-17,2024-05-17,株式会社しん,,株式会社,北海道,札幌市南区,簾舞四条６丁目２番３号,,01,106,0612264,,,,,,,2024-05-17,1,,,,,シン,0
645,2460003000998,新規,0,2024-05-17,2024-05-17,ＹＯＳＨＩＫＩ商事合同会社,,合同会社,北海道,釧路市,新富士町５丁目１番７号,,01,206,0840904,,,,,,,2024-05-17,1,,,,,ヨシキショウジ,0
646,2460101007549,新規,0,2024-05-17,2024-05-17,株式会社八木牧場,,株式会社,北海道,河東郡鹿追町,瓜幕西３１線２３番地,,01,634,0810341,,,,,,,2024-05-17,1,,,,,ヤギボクジョウ,0
648,2470001020205,新規,0,2024-05-17,2024-05-17,ＹＭＲ電建株式会社,,株式会社,香川県,高松市,木太町４６８５番地３,,37,201,7600080,,,,,,,2024-05-17,1,,,,,ワイエムアールデンケン,0
649,2480001012473,新規,0,2024-05-17,2024-05-17,株式会社本物屋,,株式会社,徳島県,徳島市,問屋町５３番地,,36,201,7708056,,,,,,,2024-05-17,1,,,,,ホンモノヤ,0
652,2500001025646,新規,0,2024-05-17,2024-05-17,えひめ食農デザイン株式会社,,株式会社,愛媛県,今治市,延喜乙５５番地９,,38,202,7940084,,,,,,,2024-05-17,1,,,,,エヒメショクノウデザイン,0
656,2700150125466,新規,0,2024-05-17,2024-05-17,小舟渡土地改良区,,その他,福井県,吉田郡永平寺町,栗住波１－１,,18,322,9101314,,,,,,,2024-05-17,1,,,,,コブナトトチカイリヨウク,0
666,3010001244872,新規,0,2024-05-17,2024-05-17,客船研究所株式会社,,株式会社,東京都,中央区,京橋２丁目８番１号,,13,102,1040031,,,,,,,2024-05-17,1,,,,,キャクセンケンキュウジョ,0
667,3010001244988,新規,0,2024-05-17,2024-05-17,株式会社グローバルリンク,,株式会社,東京都,中央区,銀座１丁目１２―４Ｎ＆ＥＢＬＤ．７階,,13,102,1040061,,,,,,,2024-05-17,1,,,,,グローバルリンク,0
671,3010003043736,新規,0,2024-05-17,2024-05-17,合同会社ＴＳ１,,合同会社,東京都,千代田区,永田町２丁目１７番５号,,13,101,1000014,,,,,,,2024-05-17,1,,,,,ティーエスワン,0
684,3010401182466,新規,0,2024-05-17,2024-05-17,株式会社コリアテックＪＰ,,株式会社,東京都,港区,南青山１丁目１番１号新青山ビル東館７階,,13,103,1070062,,,,,,,2024-05-17,1,,,,,コリアテックジェーピー,0
689,3010403032636,新規,0,2024-05-17,2024-05-17,合同会社Ｂｅｃｏｒａｔｔａ,,合同会社,東京都,港区,南青山２丁目２－１５ＷｉｎＡｏｙａｍａビルＵＣＦ６階,,13,103,1070062,,,,,,,2024-05-17,1,,,,,ベコラッタ,0
690,3010405023220,新規,0,2024-05-17,2024-05-17,一般社団法人日本サウナビルダーズ協会,,その他の設立登記法人,東京都,港区,六本木６丁目１０番１号六本木ヒルズ森タワー１６Ｆ,,13,103,1060032,,,,,,,2024-05-17,1,,,,,ニホンサウナビルダーズキョウカイ,0
695,3010501052296,新規,0,2024-05-17,2024-05-17,展示会サポート株式会社,,株式会社,東京都,台東区,台東１丁目２１番４号,,13,106,1100016,,,,,,,2024-05-17,1,,,,,テンジカイサポート,0
696,3010503007447,新規,0,2024-05-17,2024-05-17,合同会社アルパカチーム,,合同会社,東京都,台東区,清川２丁目２６番１０‐５０１号,,13,106,1110022,,,,,,,2024-05-17,1,,,,,アルパカチーム,0
699,3010601065198,新規,0,2024-05-17,2024-05-17,嘉祺株式会社,,株式会社,東京都,墨田区,向島４丁目１番１－２１５号,,13,107,1310033,,,,,,,2024-05-17,1,,,,,カキ,0
710,3010901055304,新規,0,2024-05-17,2024-05-17,株式会社ｂｙ　Ｅｔｈｉｃ．,,株式会社,東京都,世田谷区,宮坂３丁目５１番３－５０４号,,13,112,1560051,,,,,,,2024-05-17,1,,,,,バイエシック,0
724,3011103014429,新規,0,2024-05-17,2024-05-17,合同会社Ｍ４,,合同会社,東京都,新宿区,西新宿３丁目３番１３号西新宿水間ビル６階,,13,104,1600023,,,,,,,2024-05-17,1,,,,,エムフォー,0
730,3011403004385,新規,0,2024-05-17,2024-05-17,合同会社アイナ,,合同会社,東京都,板橋区,大山町３０番８－２０４号,,13,119,1730023,,,,,,,2024-05-17,1,,,,,アイナ,0
735,3011801044248,新規,0,2024-05-17,2024-05-17,株式会社サン・ワークス,,株式会社,東京都,葛飾区,新小岩３丁目１０番１０号,,13,122,1240024,,,,,,,2024-05-17,1,,,,,サンワークス,0
739,3012401041866,新規,0,2024-05-17,2024-05-17,ユナイト株式会社,,株式会社,東京都,多摩市,永山６丁目１０番２号,,13,224,2060025,,,,,,,2024-05-17,1,,,,,ユナイト,0
740,3012401041890,新規,0,2024-05-17,2024-05-17,Ｂｒｅａｄ＆Ｄｏｇｓ株式会社,,株式会社,東京都,三鷹市,下連雀３丁目３５番１号Ｎ・Ｅ・ＯＣＩＴＹＭＩＴＡＫＡ６Ｆ,,13,204,1810013,,,,,,,2024-05-17,1,,,,,ブレッドアンドドッグズ,0
742,3012403006561,新規,0,2024-05-17,2024-05-17,合同会社ＮＩＢＥ,,合同会社,東京都,三鷹市,井口５丁目６番１０号,,13,204,1810011,,,,,,,2024-05-17,1,,,,,ニベ,0
743,3012703002995,新規,0,2024-05-17,2024-05-17,エコール合同会社,,合同会社,東京都,西東京市,向台町１丁目７番６１号,,13,229,1880013,,,,,,,2024-05-17,1,,,,,,0
747,3013101009419,新規,0,2024-05-17,2024-05-17,株式会社はぐる,,株式会社,東京都,あきる野市,伊奈２６１番地２,,13,228,1900142,,,,,,,2024-05-17,1,,,,,ハグル,0
748,3013105001842,新規,0,2024-05-17,2024-05-17,一般社団法人日本生活サポート連絡会,,その他の設立登記法人,東京都,福生市,本町１９番地４メディケア１９４－１０２号室,,13,218,1970022,,,,,,,2024-05-17,1,,,,,ニホンセイカツサポートレンラクカイ,0
753,3020001157248,新規,0,2024-05-17,2024-05-17,株式会社スマートハウジング,,株式会社,神奈川県,横浜市西区,中央２丁目１１番１２号,,14,103,2200051,,,,,,,2024-05-17,1,,,,,スマートハウジング,0
757,3021001082246,新規,0,2024-05-17,2024-05-17,株式会社こばやし,,株式会社,神奈川県,藤沢市,辻堂１丁目１番１８号,,14,205,2510047,,,,,,,2024-05-17,1,,,,,コバヤシ,0
758,3021001082254,新規,0,2024-05-17,2024-05-17,株式会社大栄,,株式会社,神奈川県,横須賀市,平作１丁目１０番３号２０１,,14,201,2380032,,,,,,,2024-05-17,1,,,,,ダイエイ,0
762,3021003014511,新規,0,2024-05-17,2024-05-17,合同会社Ｉｔ’ｓ　ＯＫ,,合同会社,神奈川県,茅ヶ崎市,東海岸北３丁目１１番１０－５号,,14,207,2530053,,,,,,,2024-05-17,1,,,,,イッツオケ,0
763,3021003014528,新規,0,2024-05-17,2024-05-17,合同会社ＦＵＪＩ,,合同会社,神奈川県,海老名市,大谷北３丁目１３番６８号,,14,215,2430419,,,,,,,2024-05-17,1,,,,,フジ,0
768,3030001160390,新規,0,2024-05-17,2024-05-17,株式会社アートメイク・ジャパン,,株式会社,埼玉県,川口市,芝下２丁目２３番３１号,,11,203,3330848,,,,,,,2024-05-17,1,,,,,アートメイクジャパン,0
769,3030001160399,新規,0,2024-05-17,2024-05-17,株式会社ＡＭＣプラント,,株式会社,埼玉県,川口市,元郷５丁目２０番１８号第一幸亀ビル１０２号室,,11,203,3320011,,,,,,,2024-05-17,1,,,,,エイエムシープラント,0
770,3030001160416,新規,0,2024-05-17,2024-05-17,株式会社美女木コアラ,,株式会社,埼玉県,戸田市,美女木７丁目１７番地の９三宝荘２０１号室,,11,224,3350031,,,,,,,2024-05-17,1,,,,,ビジョギコアラ,0
771,3030001160440,新規,0,2024-05-17,2024-05-17,株式会社バディクラフト,,株式会社,埼玉県,さいたま市桜区,道場１丁目１番７号,,11,106,3380835,,,,,,,2024-05-17,1,,,,,バディクラフト,0
772,3030001160449,新規,0,2024-05-17,2024-05-17,トリップアドベンチャー株式会社,,株式会社,埼玉県,久喜市,本町４丁目５番２１－４号,,11,232,3460005,,,,,,,2024-05-17,1,,,,,トリップアドベンチャー,0
773,3030001160465,新規,0,2024-05-17,2024-05-17,関東技解株式会社,,株式会社,埼玉県,川口市,柳崎５丁目１９番４５号パークハイツ２０１号,,11,203,3330861,,,,,,,2024-05-17,1,,,,,カントウギカイ,0
774,3030001160473,新規,0,2024-05-17,2024-05-17,株式会社天和,,株式会社,埼玉県,川口市,並木３丁目１３番４号ダイトービル２番館７０２号,,11,203,3320034,,,,,,,2024-05-17,1,,,,,テンワ,0
777,3030003024313,新規,0,2024-05-17,2024-05-17,合同会社Ｍ‐５,,合同会社,埼玉県,さいたま市南区,文蔵２丁目８番１号６０７,,11,108,3360025,,,,,,,2024-05-17,1,,,,,エムファイブ,0
782,3040001133619,新規,0,2024-05-17,2024-05-17,ＡＴ‐ＪＡＰＡＮ株式会社,,株式会社,千葉県,千葉市中央区,旭町１－１６－１０１号室,,12,101,2600002,,,,,,,2024-05-17,1,,,,,エーティージャパン,0
783,3040001133643,新規,0,2024-05-17,2024-05-17,株式会社地総,,株式会社,千葉県,千葉市花見川区,幕張本郷２丁目４１番１０号,,12,102,2620033,,,,,,,2024-05-17,1,,,,,チソウ,0
787,3050001054789,新規,0,2024-05-17,2024-05-17,株式会社雅組,,株式会社,茨城県,水戸市,平須町２０２３番地の５,,08,201,3100853,,,,,,,2024-05-17,1,,,,,ミヤビグミ,0
788,3060001037090,新規,0,2024-05-17,2024-05-17,株式会社藤木工業,,株式会社,栃木県,足利市,小俣町９１２番地２Ｏｌｉｖｅ１０３,,09,202,3260141,,,,,,,2024-05-17,1,,,,,フジキコウギョウ,0
789,3060001037099,新規,0,2024-05-17,2024-05-17,Ｗｅｘｓｉｔｅ株式会社,,株式会社,栃木県,宇都宮市,城東２丁目１９－２３,,09,201,3210935,,,,,,,2024-05-17,1,,,,,ウェクサイト,0
790,3060001037116,新規,0,2024-05-17,2024-05-17,看護マネジメント協会株式会社,,株式会社,栃木県,宇都宮市,西川田本町２丁目６番１８号,,09,201,3210158,,,,,,,2024-05-17,1,,,,,カンゴマネジメントキョウカイ,0
798,3070001041760,新規,0,2024-05-17,2024-05-17,株式会社ＤＳＳ,,株式会社,群馬県,高崎市,新保町４００番地,,10,202,3700018,,,,,,,2024-05-17,1,,,,,ディーエスエス,0
802,3080101024755,新規,0,2024-05-17,2024-05-17,株式会社ａｎｄＧ,,株式会社,静岡県,富士市,石坂４３６番地の１,,22,210,4170862,,,,,,,2024-05-17,1,,,,,アンドジー,0
803,3080101024763,新規,0,2024-05-17,2024-05-17,ＬａｍＤａｔａ株式会社,,株式会社,静岡県,富士市,川成新町１６,,22,210,4160955,,,,,,,2024-05-17,1,,,,,ラムデータ,0
814,3110003005395,新規,0,2024-05-17,2024-05-17,合同会社タローズ,,合同会社,新潟県,柏崎市,鯨波２丁目３－２７,,15,205,9450855,,,,,,,2024-05-17,1,,,,,タローズ,0
815,3110005017100,新規,0,2024-05-17,2024-05-17,行政書士法人ながい事務所,,その他の設立登記法人,新潟県,三条市,東裏館３丁目１番６６－１号,,15,204,9550081,,,,,,,2024-05-17,1,,,,,ナガイジムショ,0
824,3120001264736,新規,0,2024-05-17,2024-05-17,株式会社オリーブワークス,,株式会社,大阪府,大阪市鶴見区,浜３丁目９番４０号ケイテラス１階,,27,124,5380035,,,,,,,2024-05-17,1,,,,,オリーブワークス,0
825,3120001264959,新規,0,2024-05-17,2024-05-17,株式会社匠の会計,,株式会社,大阪府,大阪市北区,万歳町３番１２号萬栄ビル２０１号室,,27,127,5300028,,,,,,,2024-05-17,1,,,,,タクミノカイケイ,0
826,3120001265040,新規,0,2024-05-17,2024-05-17,株式会社ノエルコーポレーション,,株式会社,大阪府,大阪市西区,新町１丁目６番２２号新町新興産ビル６－Ｃ,,27,106,5500013,,,,,,,2024-05-17,1,,,,,ノエルコーポレーション,0
828,3120003026606,新規,0,2024-05-17,2024-05-17,合同会社コーストブック,,合同会社,大阪府,大阪市東淀川区,北江口４丁目３番２７－２１１号,,27,114,5330002,,,,,,,2024-05-17,1,,,,,コーストブック,0
829,3120003026614,新規,0,2024-05-17,2024-05-17,スフィアベル合同会社,,合同会社,大阪府,大阪市浪速区,湊町２丁目２番１０－２３０４号,,27,111,5560017,,,,,,,2024-05-17,1,,,,,スフィアベル,0
832,3120105009855,新規,0,2024-05-17,2024-05-17,ＮＰＯ法人キッズ・シルバープレイス,,その他の設立登記法人,大阪府,高石市,高師浜４丁目９番３２号,,27,225,5920004,,,,,,,2024-05-17,1,,,,,キッズシルバープレイス,0
833,3120901049179,新規,0,2024-05-17,2024-05-17,株式会社Ｅ．ｅｓｔａｔｅ,,株式会社,大阪府,豊中市,服部元町１丁目８番１号,,27,203,5610851,,,,,,,2024-05-17,1,,,,,イーエステート,0
839,3130001077055,新規,0,2024-05-17,2024-05-17,株式会社ＣＬＯＶＥＲ,,株式会社,京都府,京都市西京区,上桂森下町１番地２３４,,26,111,6158225,,,,,,,2024-05-17,1,,,,,クローバー,0
843,3130003009568,新規,0,2024-05-17,2024-05-17,合同会社無盡藏,,合同会社,京都府,京都市左京区,一乗寺出口町５２番地１,,26,103,6068164,,,,,,,2024-05-17,1,,,,,ムジンゾウ,0
844,3130005017098,新規,0,2024-05-17,2024-05-17,一般社団法人日本ローズパレード後援会,,その他の設立登記法人,京都府,京都市左京区,岡崎東福ノ川町１０番地,,26,103,6068321,,,,,,,2024-05-17,1,,,,,ニッポンローズパレードコウエンカイ,0
849,3140003020598,新規,0,2024-05-17,2024-05-17,合同会社ＳＵＮ　ＬＩＮＥ,,合同会社,兵庫県,宍粟市,山崎町加生３９７番地２,,28,227,6712570,,,,,,,2024-05-17,1,,,,,サンライン,0
853,3160001025928,新規,0,2024-05-17,2024-05-17,株式会社眞川,,株式会社,滋賀県,米原市,世継１０２７番地,,25,214,5210064,,,,,,,2024-05-17,1,,,,,マガワ,0
854,3160001025936,新規,0,2024-05-17,2024-05-17,マネジメント・オブ・テクノロジ株式会社,,株式会社,滋賀県,大津市,仰木の里東８丁目１２番１号,,25,201,5200248,,,,,,,2024-05-17,1,,,,,マネジメントオブテクノロジ,0
856,3170001018138,新規,0,2024-05-17,2024-05-17,株式会社徳栄,,株式会社,和歌山県,東牟婁郡串本町,上野山２２５番地,,30,428,6494114,,,,,,,2024-05-17,1,,,,,トクエイ,0
857,3170001018146,新規,0,2024-05-17,2024-05-17,株式会社青貝建築,,株式会社,和歌山県,日高郡日高川町,大字滝頭２２番地,,30,392,6441241,,,,,,,2024-05-17,1,,,,,アオガイケンチク,0
863,3180001161291,新規,0,2024-05-17,2024-05-17,株式会社Ｋエステイト,,株式会社,愛知県,名古屋市中区,金山４丁目３番２号,,23,106,4600022,,,,,,,2024-05-17,1,,,,,ケーエステイト,0
864,3180001161507,新規,0,2024-05-17,2024-05-17,株式会社Ｂｉｒｉ　Ｂｉｒｉ,,株式会社,愛知県,名古屋市中区,門前町５番２７号,,23,106,4600018,,,,,,,2024-05-17,1,,,,,ビリビリ,0
866,3180003026732,新規,0,2024-05-17,2024-05-17,合同会社Ｎａｒｒｏｗｓ,,合同会社,愛知県,名古屋市中村区,烏森町１丁目７４番地エスポワール３　１０１号室,,23,105,4530855,,,,,,,2024-05-17,1,,,,,ナロウズ,0
867,3180003026765,新規,0,2024-05-17,2024-05-17,春日井環境アレルギー対策センター合同会社,,合同会社,愛知県,春日井市,大泉寺町１２１番２,,23,206,4860812,,,,,,,2024-05-17,1,,,,,カスガイカンキョウアレルギータイサクセンター,0
868,3180003026773,新規,0,2024-05-17,2024-05-17,合同会社ＭＫＦ,,合同会社,愛知県,春日井市,高森台７丁目５－９,,23,206,4870032,,,,,,,2024-05-17,1,,,,,エムケーエフ,0
871,3180301038652,新規,0,2024-05-17,2024-05-17,株式会社Ｔｏｍｏｒｒｏｗ,,株式会社,愛知県,蒲郡市,竹島町４番１２号,,23,214,4430031,,,,,,,2024-05-17,1,,,,,トゥモロー,0
875,3190001031353,新規,0,2024-05-17,2024-05-17,株式会社ロジクルライン,,株式会社,三重県,伊賀市,山神８０３番地１,,24,216,5180016,,,,,,,2024-05-17,1,,,,,ロジクルライン,0
881,3200001042522,新規,0,2024-05-17,2024-05-17,株式会社長村工務店,,株式会社,岐阜県,岐阜市,六条北１丁目８番地,,21,201,5008359,,,,,,,2024-05-17,1,,,,,オサムラコウムテン,0
884,3220003003751,新規,0,2024-05-17,2024-05-17,坂口電気合同会社,,合同会社,石川県,金沢市,弓取町５８番地２,,17,201,9200215,,,,,,,2024-05-17,1,,,,,サカグチデンキ,0
885,3230001020351,新規,0,2024-05-17,2024-05-17,株式会社ミライ設計,,株式会社,富山県,富山市,東石金町１０番２１号,,16,201,9300964,,,,,,,2024-05-17,1,,,,,ミライセッケイ,0
886,3230003002208,新規,0,2024-05-17,2024-05-17,合同会社Ｐｅｒｉｄｏｔ,,合同会社,富山県,高岡市,能町南２丁目３０番地３,,16,202,9330005,,,,,,,2024-05-17,1,,,,,,0
891,3240001063242,新規,0,2024-05-17,2024-05-17,株式会社ソララ,,株式会社,広島県,広島市中区,猫屋町４番１３号,,34,101,7300852,,,,,,,2024-05-17,1,,,,,ソララ,0
896,3250003003501,新規,0,2024-05-17,2024-05-17,合同会社海坊二,,合同会社,山口県,宇部市,明治町２丁目２－５,,35,202,7550013,,,,,,,2024-05-17,1,,,,,ウミボウズ,0
899,3260001039083,新規,0,2024-05-17,2024-05-17,株式会社ＲＰＨ,,株式会社,岡山県,岡山市東区,西大寺射越３６１番地４,,33,103,7048121,,,,,,,2024-05-17,1,,,,,アールピーエイチ,0
904,3270001008979,新規,0,2024-05-17,2024-05-17,株式会社ＪＯＹ,,株式会社,鳥取県,米子市,皆生温泉３丁目６番１６号,,31,202,6830001,,,,,,,2024-05-17,1,,,,,ジョイ,0
905,3270003001627,新規,0,2024-05-17,2024-05-17,合同会社ＬｉｎＫ,,合同会社,鳥取県,米子市,宗像４６５番地９,,31,202,6830017,,,,,,,2024-05-17,1,,,,,リンク,0
908,3290001105790,新規,0,2024-05-17,2024-05-17,株式会社どんぐり不動産,,株式会社,福岡県,福岡市博多区,店屋町２番２９号ｉＧＳ博多ビルｉＧｒｏｗｔｈＳｈｉｐ７１７,,40,132,8120025,,,,,,,2024-05-17,1,,,,,ドングリフドウサン,0
910,3290803004728,新規,0,2024-05-17,2024-05-17,合同会社グリーン,,合同会社,福岡県,北九州市門司区,大里桃山町１０番２２号,,40,101,8000033,,,,,,,2024-05-17,1,,,,,グリーン,0
911,3310001019022,新規,0,2024-05-17,2024-05-17,株式会社ＴＧ浜町ビル,,株式会社,長崎県,長崎市,岡町９番１号,,42,201,8528115,,,,,,,2024-05-17,1,,,,,ティージーハママチビル,0
913,3320001020466,新規,0,2024-05-17,2024-05-17,株式会社ＳＨＩＮＥ,,株式会社,大分県,大分市,碩田町３丁目１－１オフィスニューガイア大分北,,44,201,8700048,,,,,,,2024-05-17,1,,,,,シャイン,0
915,3330003010373,新規,0,2024-05-17,2024-05-17,合同会社東和商会,,合同会社,熊本県,熊本市西区,上熊本２丁目８番２２号ホワイトステージ上熊本４０５,,43,103,8600079,,,,,,,2024-05-17,1,,,,,トウワショウカイ,0
919,3360001033670,新規,0,2024-05-17,2024-05-17,株式会社俊工業,,株式会社,沖縄県,中頭郡中城村,字当間４３番地,,47,328,9012406,,,,,,,2024-05-17,1,,,,,トシコウギョウ,0
920,3360001033687,新規,0,2024-05-17,2024-05-17,株式会社Ｒａｉｎｂｏｗ　Ｃｏｒａｌ,,株式会社,沖縄県,那覇市,字安里３８８－９７デイブレイク２０１,,47,201,9020067,,,,,,,2024-05-17,1,,,,,レインボーコーラル,0
922,3360003013984,新規,0,2024-05-17,2024-05-17,沖縄スカイデザイン合同会社,,合同会社,沖縄県,沖縄市,宮里４丁目１７番５号,,47,211,9042165,,,,,,,2024-05-17,1,,,,,オキナワスカイデザイン,0
927,3380001034535,新規,0,2024-05-17,2024-05-17,株式会社くろべえ,,株式会社,福島県,白河市,新白河１丁目５９番地１,,07,205,9610856,,,,,,,2024-05-17,1,,,,,クロベエ,0
930,3400003003270,新規,0,2024-05-17,2024-05-17,合同会社ＷＥＢ３工務店,,合同会社,岩手県,盛岡市,西青山１丁目１０－７,,03,201,0200132,,,,,,,2024-05-17,1,,,,,ウェブスリーコウムテン,0
939,3430001091827,新規,0,2024-05-17,2024-05-17,株式会社白石エース,,株式会社,北海道,札幌市白石区,北郷五条４丁目２番２号,,01,104,0030835,,,,,,,2024-05-17,1,,,,,シロイシエース,0
940,3430001091835,新規,0,2024-05-17,2024-05-17,株式会社ひらめきしゅうたくん,,株式会社,北海道,岩見沢市,駒園７丁目２番７号,,01,210,0680834,,,,,,,2024-05-17,1,,,,,ヒラメキシュウタクン,0
944,3460003000997,新規,0,2024-05-17,2024-05-17,釧興開発合同会社,,合同会社,北海道,釧路市,興津５丁目２９番４号,,01,206,0850811,,,,,,,2024-05-17,1,,,,,センコウカイハツ,0
947,3480001012472,新規,0,2024-05-17,2024-05-17,株式会社ミライブ,,株式会社,徳島県,阿南市,畭町新はり７６番地８,,36,204,7740003,,,,,,,2024-05-17,1,,,,,ミライブ,0
949,3490001010772,新規,0,2024-05-17,2024-05-17,株式会社ＫＯＫＯ,,株式会社,高知県,高知市,大川筋１丁目７－３０,,39,201,7800052,,,,,,,2024-05-17,1,,,,,ココ,0
952,3500001025645,新規,0,2024-05-17,2024-05-17,株式会社ＬＵＮＥ,,株式会社,愛媛県,伊予郡砥部町,原町１８６番地６,,38,402,7912116,,,,,,,2024-05-17,1,,,,,ルネ,0
955,3700150125465,新規,0,2024-05-17,2024-05-17,ＰＡＴＨＩＲＡＮＡ　ＥＮＴＥＲＰＲＩＳＥＳ,,外国会社等,愛知県,名古屋市中村区,長筬町３丁目５２番地マンション山田２５号,,23,105,4530839,スリランカ民主社会主義共和国ルワンウェラ、アングルウェラ、ワラワッタ、Ｂ３５２／４Ｃ,,,,,,2024-05-17,1,,,,,パテイラナエンタープライシス,0
957,4010001244822,新規,0,2024-05-17,2024-05-17,志遠株式会社,,株式会社,東京都,千代田区,神田神保町１丁目１８番１１志遠４０１号室,,13,101,1010051,,,,,,,2024-05-17,1,,,,,シエン,0
958,4010001244839,新規,0,2024-05-17,2024-05-17,株式会社ａｎｄ　ｍｏｔｈｅｒ,,株式会社,東京都,中央区,東日本橋３丁目３番１７号,,13,102,1030004,,,,,,,2024-05-17,1,,,,,アンドマザー,0
962,4010003043677,新規,0,2024-05-17,2024-05-17,縁ＫＫ合同会社,,合同会社,東京都,中央区,銀座１丁目１２―４Ｎ＆ＥＢＬＤ．７階,,13,102,1040061,,,,,,,2024-05-17,1,,,,,エンケーケー,0
963,4010003043735,新規,0,2024-05-17,2024-05-17,合同会社白井バイオガス発電所,,合同会社,東京都,千代田区,永田町２丁目１７番５号,,13,101,1000014,,,,,,,2024-05-17,1,,,,,シロイバイオガスハツデンショ,0
965,4010101016147,新規,0,2024-05-17,2024-05-17,株式会社Ｅｉｇｈｔ,,株式会社,東京都,八王子市,打越町１６４３番地,,13,201,1920911,,,,,,,2024-05-17,1,,,,,エイト,0
967,4010401182440,新規,0,2024-05-17,2024-05-17,株式会社エムザスＶＩＩ,,株式会社,東京都,港区,西麻布３丁目８番２－１７０２号,,13,103,1060031,,,,,,,2024-05-17,1,,,,,エムザスセブン,0
970,4010403032635,新規,0,2024-05-17,2024-05-17,Ｂｕｙａｎｄｓｈｉｐ　Ｊａｐａｎ合同会社,,合同会社,東京都,港区,新橋４丁目３１番３号第３名和ビル５０５号室,,13,103,1050004,,,,,,,2024-05-17,1,,,,,バイアンドシップジャパン,0
971,4010403032643,新規,0,2024-05-17,2024-05-17,合同会社エタナ,,合同会社,東京都,港区,南青山３丁目１番３６号青山丸竹ビル６階,,13,103,1070062,,,,,,,2024-05-17,1,,,,,エタナ,0
976,4010603010837,新規,0,2024-05-17,2024-05-17,カラスデンキ合同会社,,合同会社,東京都,江東区,平野３丁目２番２－４０３号,,13,108,1350023,,,,,,,2024-05-17,1,,,,,カラスデンキ,0
979,4010701045990,新規,0,2024-05-17,2024-05-17,株式会社コレッテ,,株式会社,東京都,品川区,西五反田１丁目１７－１－４０１,,13,109,1410031,,,,,,,2024-05-17,1,,,,,コレッテ,0
981,4010801035066,新規,0,2024-05-17,2024-05-17,株式会社ＫＡＥＮ,,株式会社,東京都,大田区,大森西５丁目１０番７号豊田ビル１階,,13,111,1430015,,,,,,,2024-05-17,1,,,,,カエン,0
982,4010803004952,新規,0,2024-05-17,2024-05-17,ｃｒｏｗ　ａｎｄ　ｗｏｏｌ合同会社,,合同会社,東京都,大田区,西六郷１丁目１２番２２－５１２号,,13,111,1440056,,,,,,,2024-05-17,1,,,,,クロウアンドウール,0
985,4010903009067,新規,0,2024-05-17,2024-05-17,合同会社ＴＲＩＧＧＥＲ,,合同会社,東京都,世田谷区,野沢４丁目１１番５号,,13,112,1540003,,,,,,,2024-05-17,1,,,,,トリガー,0
996,4011101107373,新規,0,2024-05-17,2024-05-17,はな族株式会社,,株式会社,東京都,新宿区,高田馬場１丁目２９－７スカイパレスビル６０２,,13,104,1690075,,,,,,,2024-05-17,1,,,,,ハナゾク,0
997,4011101107381,新規,0,2024-05-17,2024-05-17,株式会社カムトト,,株式会社,東京都,新宿区,１－３６－２新宿第七葉山ビル３Ｆ,,13,104,1600000,,,,,,,2024-05-17,1,,,,,カムトト,0
998,4011103014428,新規,0,2024-05-17,2024-05-17,合同会社エムケイテック,,合同会社,東京都,新宿区,高田馬場３丁目２－１４－３２０,,13,104,1690075,,,,,,,2024-05-17,1,,,,,エムケイテック,0
1007,4011403004384,新規,0,2024-05-17,2024-05-17,合同会社かなぶんファクトリ,,合同会社,東京都,板橋区,徳丸３丁目２２番１８号４２５,,13,119,1750083,,,,,,,2024-05-17,1,,,,,カナブンファクトリ,0
1011,4011601027765,新規,0,2024-05-17,2024-05-17,株式会社色トリドリ,,株式会社,東京都,練馬区,豊玉北１丁目２番６号,,13,120,1760012,,,,,,,2024-05-17,1,,,,,イロトリドリ,0
1015,4011705001831,新規,0,2024-05-17,2024-05-17,一般社団法人東京都デフバスケットボール協会,,その他の設立登記法人,東京都,江戸川区,篠崎町３丁目２７番１６号,,13,123,1330061,,,,,,,2024-05-17,1,,,,,トウキョウトデフバスケットボールキョウカイ,0
1017,4011801044247,新規,0,2024-05-17,2024-05-17,株式会社ＨａＬＵ,,株式会社,東京都,葛飾区,細田４丁目２２番１８号,,13,122,1240021,,,,,,,2024-05-17,1,,,,,ハル,0
1018,4012301013915,新規,0,2024-05-17,2024-05-17,株式会社Ｒａｙ,,株式会社,東京都,町田市,森野１丁目３６番２号セレステ町田２１８,,13,209,1940022,,,,,,,2024-05-17,1,,,,,,0
1019,4012303001991,新規,0,2024-05-17,2024-05-17,合同会社エムアイ,,合同会社,東京都,町田市,原町田２丁目７番７号１Ｍ・ＩＲｅｓｉｄｅｎｃｅ５０１,,13,209,1940013,,,,,,,2024-05-17,1,,,,,エムアイ,0
1028,4012801023174,新規,0,2024-05-17,2024-05-17,株式会社ｇｃｍ,,株式会社,東京都,国立市,谷保５８７５番地の９,,13,215,1860011,,,,,,,2024-05-17,1,,,,,ジーシーエム,0
1029,4012805003271,新規,0,2024-05-17,2024-05-17,行政書士法人ＴＡＭＡアドバイザリー,,その他の設立登記法人,東京都,立川市,曙町２丁目８番３０号７階,,13,202,1900012,,,,,,,2024-05-17,1,,,,,タマアドバイザリー,0
1033,4020001157271,新規,0,2024-05-17,2024-05-17,美美達株式会社,,株式会社,神奈川県,横浜市青葉区,千草台１３番地１,,14,117,2270051,,,,,,,2024-05-17,1,,,,,ミミダツ,0
1039,4020003026128,新規,0,2024-05-17,2024-05-17,合同会社グリーンテラス,,合同会社,神奈川県,川崎市川崎区,日ノ出１丁目１５番１８号,,14,131,2100824,,,,,,,2024-05-17,1,,,,,グリーンテラス,0
1040,4020003026136,新規,0,2024-05-17,2024-05-17,ＥＬＦＩ　Ｍｕｓｉｃ　Ｇｒａｖｉｔｙ合同会社,,合同会社,神奈川県,川崎市中原区,井田杉山町９－２,,14,133,2110036,,,,,,,2024-05-17,1,,,,,エルフィミュージックグラヴィティ,0
1048,4021003014519,新規,0,2024-05-17,2024-05-17,合同会社Ｂｒｉｌｉａｎｔ,,合同会社,神奈川県,厚木市,中町３丁目１２番６号第２８明智ビル３０３号室,,14,212,2430018,,,,,,,2024-05-17,1,,,,,ブリリアント,0
1051,4030001160407,新規,0,2024-05-17,2024-05-17,株式会社Ｎｅｅｄ’ｓ　Ｐｒｏ,,株式会社,埼玉県,川口市,大字前野宿３２１番地の７,,11,203,3340065,,,,,,,2024-05-17,1,,,,,ニーズプロ,0
1052,4030001160423,新規,0,2024-05-17,2024-05-17,株式会社ＷＯＮＤＥＲＦＵＬ　ＮＥＳＴ,,株式会社,埼玉県,さいたま市浦和区,領家１丁目６番１号,,11,107,3300072,,,,,,,2024-05-17,1,,,,,ワンダフルネスト,0
1053,4030001160448,新規,0,2024-05-17,2024-05-17,富士利商事株式会社,,株式会社,埼玉県,さいたま市見沼区,大字東宮下５５２－８,,11,104,3370012,,,,,,,2024-05-17,1,,,,,フジリショウジ,0
1054,4030001160472,新規,0,2024-05-17,2024-05-17,坤達国際株式会社,,株式会社,埼玉県,志木市,下宗岡２丁目１８－１５,,11,228,3530003,,,,,,,2024-05-17,1,,,,,コンタツコクサイ,0
1067,4040003025004,新規,0,2024-05-17,2024-05-17,合同会社Ａｋｉｒａ,,合同会社,千葉県,市川市,市川１丁目２－１２ケイエムビル６０１,,12,203,2720034,,,,,,,2024-05-17,1,,,,,アキラ,0
1077,4080001026314,新規,0,2024-05-17,2024-05-17,エムイージー株式会社,,株式会社,静岡県,静岡市葵区,伝馬町１０番地の１０パーセル伝馬１０１,,22,101,4200858,,,,,,,2024-05-17,1,,,,,エムイージー,0
1079,4080003003204,新規,0,2024-05-17,2024-05-17,キャリアビジョンパートナーズ合同会社,,合同会社,静岡県,静岡市駿河区,中原８８８番地７,,22,102,4228058,,,,,,,2024-05-17,1,,,,,キャリアビジョンパートナーズ,0
1081,4080101024754,新規,0,2024-05-17,2024-05-17,株式会社ｂｅｌｌ　ｗｏｏｄ,,株式会社,静岡県,裾野市,御宿４９１番地の８,,22,220,4101107,,,,,,,2024-05-17,1,,,,,ベルウッド,0
1082,4080101024762,新規,0,2024-05-17,2024-05-17,株式会社響蔵,,株式会社,静岡県,沼津市,下香貫楊原５３０番地６,,22,203,4100822,,,,,,,2024-05-17,1,,,,,,0
1092,4100003007540,新規,0,2024-05-17,2024-05-17,合同会社カルダスグループ,,合同会社,長野県,中野市,大字新保１０５０－１,,20,211,3830036,,,,,,,2024-05-17,1,,,,,カルダスグループ,0
1094,4110003005394,新規,0,2024-05-17,2024-05-17,ＡＲＰ合同会社,,合同会社,新潟県,五泉市,赤海３丁目１番地２３号,,15,218,9591821,,,,,,,2024-05-17,1,,,,,エイアールピー,0
1106,4120001264891,新規,0,2024-05-17,2024-05-17,株式会社城北堂ＪＡＰＡＮ,,株式会社,大阪府,大阪市中央区,内平野町２丁目３番１号ＳＴＵＤＩＯ６４ビル４０１号室,,27,128,5400037,,,,,,,2024-05-17,1,,,,,ソンブクダンジャパン,0
1107,4120001264982,新規,0,2024-05-17,2024-05-17,株式会社リアースラボ,,株式会社,大阪府,大阪市中央区,南本町２丁目３－１２ＥＤＧＥ本町３Ｆ,,27,128,5410054,,,,,,,2024-05-17,1,,,,,リアースラボ,0
1108,4120001264999,新規,0,2024-05-17,2024-05-17,株式会社ノグチ,,株式会社,大阪府,大阪市天王寺区,国分町１３番８号３Ｆ,,27,109,5430044,,,,,,,2024-05-17,1,,,,,ノグチ,0
1109,4120001265015,新規,0,2024-05-17,2024-05-17,耀騰株式会社,,株式会社,大阪府,大阪市生野区,巽西３丁目８番４号１０１室,00134799,27,116,5440012,,,,,,,2024-05-17,1,,,,,ヨウトウ,0
1110,4120001265031,新規,0,2024-05-17,2024-05-17,株式会社エビス,,株式会社,大阪府,大阪市淀川区,西三国４丁目１３番９号サニーレジデンスＦ１０２,,27,123,5320006,,,,,,,2024-05-17,1,,,,,エビス,0
1111,4120001265048,新規,0,2024-05-17,2024-05-17,株式会社ｉｌｏｃａｋｅ,,株式会社,大阪府,大阪市北区,野崎町１番２２号日宝扇町ビル１０３,,27,127,5300055,,,,,,,2024-05-17,1,,,,,アイエルオーケーキ,0
1112,4120001265122,新規,0,2024-05-17,2024-05-17,株式会社ＨＯＭＡＲＥ,,株式会社,大阪府,大阪市天王寺区,玉造元町２番３２－２０２号,,27,109,5430014,,,,,,,2024-05-17,1,,,,,ホマレ,0
1113,4120001265139,新規,0,2024-05-17,2024-05-17,株式会社プレファム,,株式会社,大阪府,大阪市北区,梅田１丁目２番２号大阪駅前第２ビル１２－１２,,27,127,5300001,,,,,,,2024-05-17,1,,,,,プレファム,0
1117,4120003026571,新規,0,2024-05-17,2024-05-17,合同会社ＨＡＲＩＫＡ,,合同会社,大阪府,大阪市西区,北堀江１丁目１－２３四ツ橋養田ビル３階Ｂ号室,,27,106,5500014,,,,,,,2024-05-17,1,,,,,ハリカ,0
1118,4120003026605,新規,0,2024-05-17,2024-05-17,合同会社三光,,合同会社,大阪府,大阪市北区,西天満５丁目９番１０号,,27,127,5300047,,,,,,,2024-05-17,1,,,,,サンコウ,0
1119,4120003026613,新規,0,2024-05-17,2024-05-17,合同会社ＡＲＫ,,合同会社,大阪府,大阪市西区,立売堀４丁目５番１１－１０２号,,27,106,5500012,,,,,,,2024-05-17,1,,,,,エーアールケー,0
1120,4120003026621,新規,0,2024-05-17,2024-05-17,金輝合同会社,,合同会社,大阪府,大阪市東淀川区,小松１丁目１０番１８号ＪＰアパートメント東淀川ＩＩ２階Ａ－３号,00134797,27,114,5330004,,,,,,,2024-05-17,1,,,,,キンキ,0
1121,4120101069596,新規,0,2024-05-17,2024-05-17,株式会社ｍｉｎｅ,,株式会社,大阪府,大阪狭山市,西山台３丁目２番５号,,27,231,5890022,,,,,,,2024-05-17,1,,,,,マイン,0
1127,4120901049178,新規,0,2024-05-17,2024-05-17,Ｇｏｏｄ　Ｓｔａｇｅ株式会社,,株式会社,大阪府,豊中市,長興寺北１丁目４番３２号,,27,203,5610875,,,,,,,2024-05-17,1,,,,,グッドステージ,0
1129,4122001038103,新規,0,2024-05-17,2024-05-17,株式会社エイトアイランズ,,株式会社,大阪府,東大阪市,高井田西６丁目１番１９号,,27,227,5770067,,,,,,,2024-05-17,1,,,,,エイトアイランズ,0
1139,4140001134440,新規,0,2024-05-17,2024-05-17,株式会社オリベイト,,株式会社,兵庫県,神戸市垂水区,松風台１丁目１０番５号,,28,108,6550871,,,,,,,2024-05-17,1,,,,,オリベイト,0
1140,4140001134449,新規,0,2024-05-17,2024-05-17,株式会社テン商事,,株式会社,兵庫県,朝来市,物部１５２番地,,28,225,6793401,,,,,,,2024-05-17,1,,,,,テンショウジ,0
1141,4140001134481,新規,0,2024-05-17,2024-05-17,ＤＡＡＮ株式会社,,株式会社,兵庫県,神戸市東灘区,御影本町６丁目３番４－２号,,28,101,6580046,,,,,,,2024-05-17,1,,,,,,0
1142,4140003020597,新規,0,2024-05-17,2024-05-17,合同会社コービージャパン,,合同会社,兵庫県,神戸市中央区,下山手通５丁目１番－５アクシア下山手４０２,,28,110,6500011,,,,,,,2024-05-17,1,,,,,コービージャパン,0
1144,4160001025919,新規,0,2024-05-17,2024-05-17,商馳貿易株式会社,,株式会社,滋賀県,大津市,和邇今宿字南浅後４７番,,25,201,5200524,,,,,,,2024-05-17,1,,,,,ショウチボウエキ,0
1145,4160001025927,新規,0,2024-05-17,2024-05-17,淡海アセット株式会社,,株式会社,滋賀県,大津市,松陽３丁目６番３号,,25,201,5202135,,,,,,,2024-05-17,1,,,,,オウミアセット,0
1146,4160001025935,新規,0,2024-05-17,2024-05-17,株式会社フィルドール,,株式会社,滋賀県,大津市,朝日が丘２丁目４番２３号,,25,201,5200052,,,,,,,2024-05-17,1,,,,,フィルドール,0
1159,4180001161472,新規,0,2024-05-17,2024-05-17,株式会社ＹＭコーポレーション,,株式会社,愛知県,名古屋市中村区,太閤１丁目３番１６号ＧＤ名駅ビル３階,,23,105,4530801,,,,,,,2024-05-17,1,,,,,ワイエムコーポレーション,0
1160,4180001161514,新規,0,2024-05-17,2024-05-17,蓬莱商事株式会社,,株式会社,愛知県,名古屋市港区,正徳町２丁目６２番地の１,,23,111,4550075,,,,,,,2024-05-17,1,,,,,ホウライショウジ,0
1164,4180003026789,新規,0,2024-05-17,2024-05-17,Ｓ＆Ｓ　Ｔｒａｄｉｎｇ合同会社,,合同会社,愛知県,稲沢市,横地６丁目２１番地,,23,220,4928266,,,,,,,2024-05-17,1,,,,,エスアンドエストレーディング,0
1166,4180301038651,新規,0,2024-05-17,2024-05-17,株式会社ＵＫ,,株式会社,愛知県,豊田市,西岡町保ケ山６２番地４,,23,211,4730936,,,,,,,2024-05-17,1,,,,,ユーケイ,0
1168,4190001031352,新規,0,2024-05-17,2024-05-17,株式会社トラストライズ,,株式会社,三重県,三重郡川越町,大字豊田一色４９８番地６,,24,344,5108123,,,,,,,2024-05-17,1,,,,,トラストライズ,0
1169,4190001031360,新規,0,2024-05-17,2024-05-17,株式会社永江工業,,株式会社,三重県,四日市市,大字西阿倉川２６５番地１アクラコートＤ,,24,202,5100812,,,,,,,2024-05-17,1,,,,,ナガエコウギョウ,0
1173,4200003006350,新規,0,2024-05-17,2024-05-17,合同会社たべものや,,合同会社,岐阜県,岐阜市,又丸津島１１番地２,,21,201,5011156,,,,,,,2024-05-17,1,,,,,タベモノヤ,0
1182,4230001020350,新規,0,2024-05-17,2024-05-17,株式会社ＫＩＤＯＨ,,株式会社,富山県,富山市,清水元町１番１４号,,16,201,9300034,,,,,,,2024-05-17,1,,,,,キドウ,0
1184,4230003002207,新規,0,2024-05-17,2024-05-17,合同会社ＰＡＫ北陸,,合同会社,富山県,射水市,片口高場１３３番地,,16,211,9340036,,,,,,,2024-05-17,1,,,,,パークホクリク,0
1188,4240001063225,新規,0,2024-05-17,2024-05-17,株式会社ＣＲＥＳＴ,,株式会社,広島県,福山市,藤江町３４４４番地,,34,207,7200543,,,,,,,2024-05-17,1,,,,,クレスト,0
1189,4240003006669,新規,0,2024-05-17,2024-05-17,Ｂ３合同会社,,合同会社,広島県,広島市安佐南区,祇園１丁目６番２１－１０１号,,34,105,7310138,,,,,,,2024-05-17,1,,,,,ビースリー,0
1190,4250001020654,新規,0,2024-05-17,2024-05-17,ＴＳ‐ＮＥＸＴ株式会社,,株式会社,山口県,山口市,宮野上１５６８番８,,35,203,7530001,,,,,,,2024-05-17,1,,,,,ティーエスネクスト,0
1192,4260001039082,新規,0,2024-05-17,2024-05-17,株式会社アルカナ,,株式会社,岡山県,岡山市東区,西大寺上２丁目６番５８－８号,,33,103,7048112,,,,,,,2024-05-17,1,,,,,アルカナ,0
1200,4290803004727,新規,0,2024-05-17,2024-05-17,ｂａｓａｒａ合同会社,,合同会社,福岡県,鞍手郡鞍手町,大字八尋１６８６番地６,,40,402,8071308,,,,,,,2024-05-17,1,,,,,バサラ,0
1202,4310001019021,新規,0,2024-05-17,2024-05-17,株式会社ココカラスマイル,,株式会社,長崎県,諫早市,幸町２－１８コーポまつもと１０５,,42,204,8540022,,,,,,,2024-05-17,1,,,,,ココカラスマイル,0
1212,4350003004645,新規,0,2024-05-17,2024-05-17,合同会社昊土,,合同会社,宮崎県,宮崎市,大字富吉４７４２番地３,,45,201,8802114,,,,,,,2024-05-17,1,,,,,ヒロト,0
1213,4350005006235,新規,0,2024-05-17,2024-05-17,一般社団法人てげてげらいふ,,その他の設立登記法人,宮崎県,宮崎市,神宮西２丁目１５０番地,,45,201,8800033,,,,,,,2024-05-17,1,,,,,テゲテゲライフ,0
1216,4360001033686,新規,0,2024-05-17,2024-05-17,ルアナモビリティ株式会社,,株式会社,沖縄県,宮古島市,平良字西里４６５－１,,47,214,9060012,,,,,,,2024-05-17,1,,,,,ルアナモビリティ,0
1219,4360003013983,新規,0,2024-05-17,2024-05-17,合同会社万代,,合同会社,沖縄県,中頭郡読谷村,字喜名２１７番地１,,47,324,9040302,,,,,,,2024-05-17,1,,,,,マンダイ,0
1224,4370005010788,新規,0,2024-05-17,2024-05-17,一般社団法人ＲＢメディカル,,その他の設立登記法人,宮城県,仙台市青葉区,国分町２丁目１５番１６号６階,,04,101,9800803,,,,,,,2024-05-17,1,,,,,アールビーメディカル,0
1228,4380001034550,新規,0,2024-05-17,2024-05-17,株式会社Ｂｒｏｓ．,,株式会社,福島県,郡山市,駅前１丁目１１番１０号,,07,203,9638002,,,,,,,2024-05-17,1,,,,,ブロス,0
1230,4380003005764,新規,0,2024-05-17,2024-05-17,合同会社ユニバーサルテラス,,合同会社,福島県,福島市,春日町１番２７号,,07,201,9608116,,,,,,,2024-05-17,1,,,,,ユニバーサルテラス,0
1240,4430001091826,新規,0,2024-05-17,2024-05-17,株式会社みやび,,株式会社,北海道,札幌市中央区,南五条西３丁目１０番ニュ－すすきのビル４階,,01,101,0640805,,,,,,,2024-05-17,1,,,,,ミヤビ,0
1243,4430003016335,新規,0,2024-05-17,2024-05-17,合同会社サニー,,合同会社,北海道,小樽市,見晴町７番２５号,,01,203,0470263,,,,,,,2024-05-17,1,,,,,サニー,0
1247,4470001020203,新規,0,2024-05-17,2024-05-17,株式会社ジュリア不動産,,株式会社,香川県,高松市,牟礼町牟礼３７２０番地１３５,,37,201,7610121,,,,,,,2024-05-17,1,,,,,ジュリアフドウサン,0
1254,4500001025644,新規,0,2024-05-17,2024-05-17,株式会社Ｕ‐Ｓｕｐｐｏｒｔ,,株式会社,愛媛県,松山市,内宮町２０４１番地１内宮団地１棟５８号,,38,201,7992654,,,,,,,2024-05-17,1,,,,,ユーサポート,0
1257,4700150125464,新規,0,2024-05-17,2024-05-17,ＡＸＥＬ　ＭＹＡＮＭＡＲ　Ｃｏ．，Ｌｔｄ．,,外国会社等,広島県,広島市中区,鶴見町２番１９号９Ｆ,,34,101,7300045,ミャンマー国、マンダレー市、チャンエイタゼン区、６５ｔｈ角、３０通り、４階、Ａ－４番,,,,,,2024-05-17,1,,,,,アクセルミヤンマーカンパニーリミテツド,0
1272,5010403032618,新規,0,2024-05-17,2024-05-17,合同会社ｍｉｎｎｉｅ　ｍｅ,,合同会社,東京都,港区,六本木５丁目１６－５インペリアル六本木フォーラム１号館４０３号室,,13,103,1060032,,,,,,,2024-05-17,1,,,,,ミニーミー,0
1273,5010403032634,新規,0,2024-05-17,2024-05-17,なんば南ホテル合同会社,,合同会社,東京都,港区,六本木１丁目６番１号泉ガーデンタワー１２階,,13,103,1060032,,,,,,,2024-05-17,1,,,,,ナンバミナミホテル,0
1274,5010403032642,新規,0,2024-05-17,2024-05-17,合同会社Ｃｏｕｌｅｕｒ,,合同会社,東京都,港区,芝２丁目２９番８－３０６,,13,103,1050014,,,,,,,2024-05-17,1,,,,,クルール,0
1276,5010501052286,新規,0,2024-05-17,2024-05-17,株式会社Ｋｙｏ,,株式会社,東京都,台東区,橋場１丁目２２番５号,,13,106,1110023,,,,,,,2024-05-17,1,,,,,キョウ,0
1280,5010601065205,新規,0,2024-05-17,2024-05-17,マースインファクト株式会社,,株式会社,東京都,墨田区,本所１丁目１６－４－２０３号ウィル・リベール両国,,13,107,1300004,,,,,,,2024-05-17,1,,,,,マースインファクト,0
1281,5010603010844,新規,0,2024-05-17,2024-05-17,ＴＮＴ合同会社,,合同会社,東京都,江東区,東陽１丁目１７番１０号,,13,108,1350016,,,,,,,2024-05-17,1,,,,,ティーエヌティー,0
1283,5010903009066,新規,0,2024-05-17,2024-05-17,ＭＳＧ　ｓｔｕｄｉｏ合同会社,,合同会社,東京都,世田谷区,宇奈根２丁目５－２－１０４,,13,112,1570068,,,,,,,2024-05-17,1,,,,,エムエスジースタジオ,0
1297,5011001162154,新規,0,2024-05-17,2024-05-17,エンタシンク株式会社,,株式会社,東京都,渋谷区,神宮前６丁目２３番４号桑野ビル２階,,13,113,1500001,,,,,,,2024-05-17,1,,,,,エンタシンク,0
1299,5011003019162,新規,0,2024-05-17,2024-05-17,ａｇａｄａｇａ合同会社,,合同会社,東京都,渋谷区,恵比寿西２丁目４番８号ウィンド恵比寿ビル８Ｆ,,13,113,1500021,,,,,,,2024-05-17,1,,,,,アガダガ,0
1300,5011005010508,新規,0,2024-05-17,2024-05-17,一般社団法人メイクアップバスト協会,,その他の設立登記法人,東京都,渋谷区,神宮前４丁目９番２号Ｎ－１ｃｏｕｒｔ１Ｆ,,13,113,1500001,,,,,,,2024-05-17,1,,,,,メイクアップバストキョウカイ,0
1308,5011403004383,新規,0,2024-05-17,2024-05-17,ｉｎｔｅｒｒａｃｔｉｖｅ合同会社,,合同会社,東京都,板橋区,新河岸１丁目３番４－１０４号,,13,119,1750081,,,,,,,2024-05-17,1,,,,,インターラクティブ,0
1313,5011601027723,新規,0,2024-05-17,2024-05-17,株式会社エン・ジャパニーズ,,株式会社,東京都,練馬区,石神井町４丁目１２番３１号,,13,120,1770041,,,,,,,2024-05-17,1,,,,,エンジャパニーズ,0
1317,5011801044246,新規,0,2024-05-17,2024-05-17,株式会社ＡＳ国際ツーリスト,,株式会社,東京都,足立区,東保木間２丁目２０番１１号,,13,121,1210063,,,,,,,2024-05-17,1,,,,,エーエスコクサイツーリスト,0
1320,5011803006244,新規,0,2024-05-17,2024-05-17,思希合同会社,,合同会社,東京都,葛飾区,堀切７丁目２７－７名橋ビル４０３,,13,122,1240006,,,,,,,2024-05-17,1,,,,,シキ,0
1321,5012301013914,新規,0,2024-05-17,2024-05-17,株式会社リノプライム,,株式会社,東京都,町田市,相原町４８０番地１３１,,13,209,1940211,,,,,,,2024-05-17,1,,,,,リノプライム,0
1323,5012401041872,新規,0,2024-05-17,2024-05-17,株式会社Ｔ．Ｆ　Ｃｏｒｐｏｒａｔｉｏｎ,,株式会社,東京都,三鷹市,北野４丁目８番４１号ラヴィエベル三鷹１０１,,13,204,1810003,,,,,,,2024-05-17,1,,,,,ティーエフコーポレーション,0
1324,5012403006551,新規,0,2024-05-17,2024-05-17,リハフレンズ大山金井合同会社,,合同会社,東京都,武蔵野市,境２丁目４－３スヤマ武蔵野一階,,13,203,1800022,,,,,,,2024-05-17,1,,,,,リハフレンズオオヤマカナイ,0
1328,5012801023165,新規,0,2024-05-17,2024-05-17,祥茂涌東京株式会社,,株式会社,東京都,昭島市,もくせいの杜２丁目１２番１３号,,13,207,1960035,,,,,,,2024-05-17,1,,,,,ショウモヨウトウキョウ,0
1330,5012803003396,新規,0,2024-05-17,2024-05-17,合同会社ユーティリティ,,合同会社,東京都,立川市,西砂町６丁目６２番地の１１,,13,202,1900034,,,,,,,2024-05-17,1,,,,,ユーティリティ,0
1331,5012803003405,新規,0,2024-05-17,2024-05-17,灰ＥＮＤ合同会社,,合同会社,東京都,日野市,神明１丁目１１―９ＥＭＩＮＥＮＴＥ神明１０３号,,13,212,1910016,,,,,,,2024-05-17,1,,,,,ハイエンド,0
1338,5020001157238,新規,0,2024-05-17,2024-05-17,株式会社タナカマンガラボ,,株式会社,神奈川県,川崎市中原区,市ノ坪４４９番地３・５１６,,14,133,2110016,,,,,,,2024-05-17,1,,,,,タナカマンガラボ,0
1342,5020003026135,新規,0,2024-05-17,2024-05-17,合同会社フォルトナバイク,,合同会社,神奈川県,横浜市港北区,新横浜２丁目１５－１２共立新横浜ビル２階,,14,109,2220033,,,,,,,2024-05-17,1,,,,,フォルトナバイク,0
1346,5021001082236,新規,0,2024-05-17,2024-05-17,株式会社オカヒロ,,株式会社,神奈川県,相模原市緑区,東橋本４丁目９番１４号,,14,151,2520144,,,,,,,2024-05-17,1,,,,,オカヒロ,0
1347,5021001082244,新規,0,2024-05-17,2024-05-17,株式会社もくれん,,株式会社,神奈川県,小田原市,栢山３６１５番地の５,,14,206,2500852,,,,,,,2024-05-17,1,,,,,モクレン,0
1348,5021001082252,新規,0,2024-05-17,2024-05-17,株式会社器,,株式会社,神奈川県,高座郡寒川町,岡田３丁目２０番１－１号,,14,321,2530105,,,,,,,2024-05-17,1,,,,,ウツワ,0
1349,5021003014526,新規,0,2024-05-17,2024-05-17,合同会社羊,,合同会社,神奈川県,藤沢市,藤沢３丁目３番２８号,,14,205,2510052,,,,,,,2024-05-17,1,,,,,ヒツジ,0
1358,5030001160380,新規,0,2024-05-17,2024-05-17,株式会社Ｍｏｉ　Ｌｉｆｅ,,株式会社,埼玉県,川口市,戸塚２丁目１３番１９号グランドールＩＩ２０１,00134794,11,203,3330811,,,,,,,2024-05-17,1,,,,,モアライフ,0
1359,5030001160397,新規,0,2024-05-17,2024-05-17,株式会社匠,,株式会社,埼玉県,狭山市,根岸２丁目８番７号,,11,215,3501325,,,,,,,2024-05-17,1,,,,,タクミ,0
1360,5030001160406,新規,0,2024-05-17,2024-05-17,株式会社ハイトス・リース・トラスト,,株式会社,埼玉県,川越市,大字山田１９７０番地ＦＯＲＥＳＴＨＩＬＬＳ１０２,,11,201,3500822,,,,,,,2024-05-17,1,,,,,ハイトスリーストラスト,0
1361,5030001160414,新規,0,2024-05-17,2024-05-17,宮谷自然科学研究所株式会社,,株式会社,埼玉県,和光市,白子２丁目１７番３５－６０１号ライオンズマンション和光,,11,229,3510101,,,,,,,2024-05-17,1,,,,,ミヤタニシゼンカガクケンキュウジョ,0
1362,5030001160422,新規,0,2024-05-17,2024-05-17,株式会社２６,,株式会社,埼玉県,戸田市,新曽南２丁目１５‐７,,11,224,3350026,,,,,,,2024-05-17,1,,,,,トゥーシックス,0
1363,5030001160439,新規,0,2024-05-17,2024-05-17,株式会社ネクエス,,株式会社,埼玉県,さいたま市大宮区,東町１丁目１７１番地,,11,103,3300841,,,,,,,2024-05-17,1,,,,,ネクエス,0
1368,5030003024303,新規,0,2024-05-17,2024-05-17,合同会社ＬｉｅＮ,,合同会社,埼玉県,新座市,畑中１丁目６番１８号ロイヤルハイツＢ２０５号室,,11,230,3520012,,,,,,,2024-05-17,1,,,,,リアン,0
1375,5040001133468,新規,0,2024-05-17,2024-05-17,トランスポーターホールディングス株式会社,,株式会社,千葉県,市川市,新井２丁目１８番１３号,,12,203,2720144,,,,,,,2024-05-17,1,,,,,トランスポーターホールディングス,0
1376,5040001133625,新規,0,2024-05-17,2024-05-17,株式会社ＫＡＮＣＨＡＮ,,株式会社,千葉県,柏市,明原２丁目９番４８号－１０３号,,12,217,2770843,,,,,,,2024-05-17,1,,,,,カンチャン,0
1382,5050003008378,新規,0,2024-05-17,2024-05-17,河野合同会社,,合同会社,茨城県,つくば市,倉掛１０３７番地６,,08,220,3050024,,,,,,,2024-05-17,1,,,,,コウノ,0
1387,5060001037097,新規,0,2024-05-17,2024-05-17,株式会社ＩＭＡＩＺＵＭＩ　ＴＲＡＤＩＮＧ,,株式会社,栃木県,足利市,久保田町１１５番地２,,09,202,3260324,,,,,,,2024-05-17,1,,,,,イマイズミトレーディング,0
1390,5070001041759,新規,0,2024-05-17,2024-05-17,株式会社ハシモト,,株式会社,群馬県,館林市,堀工町１９００番地の２１７,,10,207,3740033,,,,,,,2024-05-17,1,,,,,ハシモト,0
1392,5070003005423,新規,0,2024-05-17,2024-05-17,合同会社ディレクションズ,,合同会社,群馬県,前橋市,下石倉町１４番地６,,10,201,3710842,,,,,,,2024-05-17,1,,,,,ディレクションズ,0
1393,5080001026313,新規,0,2024-05-17,2024-05-17,株式会社ファースト,,株式会社,静岡県,静岡市駿河区,東新田３丁目１７－２,,22,102,4210112,,,,,,,2024-05-17,1,,,,,,0
1398,5080401027191,新規,0,2024-05-17,2024-05-17,クレスホールディングス株式会社,,株式会社,静岡県,浜松市中央区,鴨江３丁目３７番３号,,22,138,4328023,,,,,,,2024-05-17,1,,,,,クレスホールディングス,0
1402,5110001038412,新規,0,2024-05-17,2024-05-17,本田電機株式会社,,株式会社,新潟県,長岡市,与板町江西３丁目３番２１号,,15,202,9402406,,,,,,,2024-05-17,1,,,,,ホンダデンキ,0
1406,5120001264940,新規,0,2024-05-17,2024-05-17,株式会社ちょあっぷ,,株式会社,大阪府,大阪市都島区,都島中通２丁目１６番１７号ひふみ荘１号,,27,102,5340022,,,,,,,2024-05-17,1,,,,,チョアップ,0
1407,5120001264957,新規,0,2024-05-17,2024-05-17,エフアイティー株式会社,,株式会社,大阪府,大阪市住之江区,粉浜２丁目１番１３号ツイン一番館１階,,27,125,5590001,,,,,,,2024-05-17,1,,,,,エフアイティー,0
1408,5120001264981,新規,0,2024-05-17,2024-05-17,株式会社サイファークリエイション,,株式会社,大阪府,寝屋川市,八坂町１４番１６－２０２号,,27,215,5720838,,,,,,,2024-05-17,1,,,,,サイファークリエイション,0
1409,5120001264998,新規,0,2024-05-17,2024-05-17,株式会社ＭＳ,,株式会社,大阪府,大阪市天王寺区,国分町１３番８号グリーンヒル３階,,27,109,5430044,,,,,,,2024-05-17,1,,,,,エムエス,0
1411,5120003026595,新規,0,2024-05-17,2024-05-17,合同会社ＤｒａｇｏｎＭａｒｋｅｔ,,合同会社,大阪府,大阪市浪速区,桜川４丁目１２－２６－６１２,,27,111,5560022,,,,,,,2024-05-17,1,,,,,ドラゴンマーケット,0
1416,5120005024325,新規,0,2024-05-17,2024-05-17,社会保険労務士法人ゆうき事務所,,その他の設立登記法人,大阪府,大阪市中央区,本町２丁目３番４号４Ｆ,,27,128,5410053,,,,,,,2024-05-17,1,,,,,ユウキジムショ,0
1419,5120101069538,新規,0,2024-05-17,2024-05-17,株式会社ＦＯＲＥＳＩＧＨＴ,,株式会社,大阪府,河内長野市,大師町１５番３号,,27,216,5860041,,,,,,,2024-05-17,1,,,,,フォーサイト,0
1420,5120101069629,新規,0,2024-05-17,2024-05-17,トータルメンテナンス株式会社,,株式会社,大阪府,堺市南区,美木多上９５１番地７８,,27,145,5900136,,,,,,,2024-05-17,1,,,,,トータルメンテナンス,0
1428,5122001038119,新規,0,2024-05-17,2024-05-17,株式会社ＣＨＵ‐ＫＩ,,株式会社,大阪府,八尾市,楽音寺１丁目６９番地,,27,212,5810853,,,,,,,2024-05-17,1,,,,,チューキ,0
1429,5130001076947,新規,0,2024-05-17,2024-05-17,ＪｎＪ株式会社,,株式会社,京都府,京都市東山区,弓矢町５０番地１・１０１室,,26,105,6050817,,,,,,,2024-05-17,1,,,,,ジェイエヌジェイ,0
1430,5130001077045,新規,0,2024-05-17,2024-05-17,株式会社越川,,株式会社,京都府,京都市中京区,西ノ京伯楽町１４－５１コーポ杉２０５号,,26,104,6048452,,,,,,,2024-05-17,1,,,,,コシカワ,0
1435,5130003009566,新規,0,2024-05-17,2024-05-17,ＧＬＴ合同会社,,合同会社,京都府,京都市下京区,朱雀宝蔵町４４番地協栄ビル２階京都朱雀スタジオ,,26,106,6008846,,,,,,,2024-05-17,1,,,,,ジーエルティー,0
1442,5140001134448,新規,0,2024-05-17,2024-05-17,株式会社ＦｏｏＤｅｌｉｇｈｔｆｕｌ,,株式会社,兵庫県,神戸市長田区,西代通１丁目５番５号,,28,106,6530844,,,,,,,2024-05-17,1,,,,,フーディライトフル,0
1443,5140001134456,新規,0,2024-05-17,2024-05-17,株式会社ディール,,株式会社,兵庫県,姫路市,広畑区長町１丁目８０番地３武本ビル４０２,,28,201,6711125,,,,,,,2024-05-17,1,,,,,ディール,0
1444,5140001134472,新規,0,2024-05-17,2024-05-17,株式会社ＲＢ　Ｄｉｒｅｃｔｉｏｎ,,株式会社,兵庫県,尼崎市,塚口町１丁目１５番１３－１０１号,,28,202,6610002,,,,,,,2024-05-17,1,,,,,アールビーディレクション,0
1445,5140001134480,新規,0,2024-05-17,2024-05-17,株式会社Ｓｐｅｒａｎｚａ　Ａｒｔ,,株式会社,兵庫県,神戸市兵庫区,湊山町７番１号,,28,105,6520012,,,,,,,2024-05-17,1,,,,,エスペランサアート,0
1450,5160003003194,新規,0,2024-05-17,2024-05-17,合同会社１２,,合同会社,滋賀県,大津市,朝日が丘２丁目１０番５６号,,25,201,5200052,,,,,,,2024-05-17,1,,,,,イチニ,0
1451,5170001018144,新規,0,2024-05-17,2024-05-17,株式会社ラディアンスタウン,,株式会社,和歌山県,和歌山市,ト半町３１番地,,30,201,6400000,,,,,,,2024-05-17,1,,,,,ラディアンスタウン,0
1458,5180001161439,新規,0,2024-05-17,2024-05-17,株式会社ＥＰＳ,,株式会社,愛知県,名古屋市千種区,北千種１丁目４番１０号ｋｉｗｉａｐａｒｔｍｅｎｔＣ号,,23,101,4640083,,,,,,,2024-05-17,1,,,,,イーピーエス,0
1459,5180001161488,新規,0,2024-05-17,2024-05-17,株式会社ＪＵＮＹＡ,,株式会社,愛知県,名古屋市西区,八筋町３３７番地,,23,104,4520815,,,,,,,2024-05-17,1,,,,,ジュンヤ,0
1460,5180001161505,新規,0,2024-05-17,2024-05-17,Ｓａｓｋｅｎ　Ｔｅｃｈｎｏｌｏｇｉｅｓ　Ｊａｐａｎ株式会社,,株式会社,愛知県,名古屋市中村区,名駅３丁目２８番１２号,,23,105,4500002,,,,,,,2024-05-17,1,,,,,サスケンテクノロジーズジャパン,0
1461,5180001161538,新規,0,2024-05-17,2024-05-17,株式会社大河内工業,,株式会社,愛知県,名古屋市南区,豊田５丁目１５番３号,,23,112,4570841,,,,,,,2024-05-17,1,,,,,オオコウチコウギョウ,0
1462,5180001161554,新規,0,2024-05-17,2024-05-17,株式会社ａｒｅａ,,株式会社,愛知県,名古屋市東区,相生町７８番地主税ビル３Ｃ,,23,102,4610012,,,,,,,2024-05-17,1,,,,,エリア,0
1470,5180003026796,新規,0,2024-05-17,2024-05-17,ユニバーサルリープ合同会社,,合同会社,愛知県,名古屋市中区,錦３丁目２２－２４ＡＴＳ広小路ビル６階,,23,106,4600003,,,,,,,2024-05-17,1,,,,,ユニバーサルリープ,0
1472,5180005020632,新規,0,2024-05-17,2024-05-17,税理士法人坂本会計事務所,,その他の設立登記法人,愛知県,名古屋市熱田区,金山町１丁目５番２号,,23,109,4560002,,,,,,,2024-05-17,1,,,,,サカモトカイケイジムショ,0
1474,5180301038650,新規,0,2024-05-17,2024-05-17,Ｎ‐Ｆａｃｉｌｉｔｙ株式会社,,株式会社,愛知県,西尾市,伊藤町宮前１番地１０,,23,213,4450806,,,,,,,2024-05-17,1,,,,,エヌファシリティー,0
1480,5200001042512,新規,0,2024-05-17,2024-05-17,株式会社ＳＰＥＣ,,株式会社,岐阜県,多治見市,十九田町２丁目７２番地の１,,21,204,5070039,,,,,,,2024-05-17,1,,,,,スペック,0
1485,5220001025993,新規,0,2024-05-17,2024-05-17,株式会社Ｅｌｅｖｅｎカンパニー,,株式会社,石川県,加賀市,作見町カ１３５番地,,17,206,9220423,,,,,,,2024-05-17,1,,,,,イレブンカンパニー,0
1488,5230005009389,新規,0,2024-05-17,2024-05-17,一般社団法人トヤマチミライ,,その他の設立登記法人,富山県,富山市,桜町１丁目１番６１号,,16,201,9300003,,,,,,,2024-05-17,1,,,,,トヤマチミライ,0
1489,5240001063232,新規,0,2024-05-17,2024-05-17,株式会社山陽設備,,株式会社,広島県,広島市中区,東平塚町１２番２１号３０３号室,,34,101,7300025,,,,,,,2024-05-17,1,,,,,サンヨウセツビ,0
1490,5240001063240,新規,0,2024-05-17,2024-05-17,株式会社アイスティシ,,株式会社,広島県,豊田郡大崎上島町,東野字堂鼻３６３８番地,,34,431,7250231,,,,,,,2024-05-17,1,,,,,アイスティシ,0
1496,5260001039073,新規,0,2024-05-17,2024-05-17,株式会社ＸＤスタディ,,株式会社,岡山県,津山市,山北４６３番地７,,33,203,7080004,,,,,,,2024-05-17,1,,,,,エックスディスタディ,0
1497,5260001039081,新規,0,2024-05-17,2024-05-17,株式会社ＲＥ‐ＳＴＹＬＥ,,株式会社,岡山県,岡山市中区,原尾島２丁目３番２６号,,33,102,7038235,,,,,,,2024-05-17,1,,,,,リスタイル,0
1498,5280003001847,新規,0,2024-05-17,2024-05-17,合同会社真工,,合同会社,島根県,出雲市,矢野町６５４番地８,,32,203,6930058,,,,,,,2024-05-17,1,,,,,シンコウ,0
1511,5310003004796,新規,0,2024-05-17,2024-05-17,合同会社ヴルストイワナガ,,合同会社,長崎県,西彼杵郡長与町,高田郷１６７７－６,,42,307,8512127,,,,,,,2024-05-17,1,,,,,ヴルストイワナガ,0
1516,5320003004366,新規,0,2024-05-17,2024-05-17,ＧＲＯＵＰ　ＳＡＴＯ合同会社,,合同会社,大分県,別府市,元町５番２６号,,44,202,8740944,,,,,,,2024-05-17,1,,,,,グループサトウ,0
1517,5330001032079,新規,0,2024-05-17,2024-05-17,株式会社大井商店,,株式会社,熊本県,熊本市中央区,神水本町６番２０号,,43,101,8620955,,,,,,,2024-05-17,1,,,,,オオイショウテン,0
1518,5340001026501,新規,0,2024-05-17,2024-05-17,幸栄株式会社,,株式会社,鹿児島県,薩摩川内市,宮崎町２８６４番地１３,,46,215,8950013,,,,,,,2024-05-17,1,,,,,コウエイ,0
1520,5350001018968,新規,0,2024-05-17,2024-05-17,株式会社ＡＩＤ,,株式会社,宮崎県,宮崎市,清武町加納乙２５６－２７,,45,201,8891605,,,,,,,2024-05-17,1,,,,,エーアイディー,0
1521,5360001033669,新規,0,2024-05-17,2024-05-17,株式会社ＴＲＹ,,株式会社,沖縄県,うるま市,字塩屋８６番地１,,47,213,9042231,,,,,,,2024-05-17,1,,,,,トライ,0
1522,5360001033677,新規,0,2024-05-17,2024-05-17,株式会社ＲＵＢＹＯＮ,,株式会社,沖縄県,沖縄市,中央１丁目３３番１５号島田アパート３０３号,,47,211,9040004,,,,,,,2024-05-17,1,,,,,ルビオン,0
1523,5360001033685,新規,0,2024-05-17,2024-05-17,株式会社ココワオキナワ,,株式会社,沖縄県,中頭郡中城村,字添石３１１番地,,47,328,9012404,,,,,,,2024-05-17,1,,,,,ココワオキナワ,0
1524,5360003013974,新規,0,2024-05-17,2024-05-17,合同会社大,,合同会社,沖縄県,島尻郡南風原町,字兼城６６７番地３サンライズ桃原２０１,,47,350,9011111,,,,,,,2024-05-17,1,,,,,ダイ,0
1525,5360003013982,新規,0,2024-05-17,2024-05-17,合同会社ＬＢＣ,,合同会社,沖縄県,名護市,宮里１丁目９番２１－１号,,47,209,9050011,,,,,,,2024-05-17,1,,,,,エルビーシー,0
1526,5360003013990,新規,0,2024-05-17,2024-05-17,合同会社ＯＫＭ,,合同会社,沖縄県,中頭郡北谷町,北前１丁目２０番地３アーバンハンビー３０２,,47,326,9040117,,,,,,,2024-05-17,1,,,,,オーケーエム,0
1534,5380003005763,新規,0,2024-05-17,2024-05-17,ＷＡＬＫ合同会社,,合同会社,福島県,いわき市,小名浜岡小名字馬上前１１番地の７,,07,204,9718151,,,,,,,2024-05-17,1,,,,,ウォーク,0
1538,5400005008415,新規,0,2024-05-17,2024-05-17,一般社団法人及川管財,,その他の設立登記法人,岩手県,釜石市,甲子町第３地割３９番地７,,03,211,0260055,,,,,,,2024-05-17,1,,,,,オイカワカンザイ,0
1547,5430001091825,新規,0,2024-05-17,2024-05-17,長谷川．ＫＫ株式会社,,株式会社,北海道,北広島市,西の里東４丁目１３番地１０,,01,234,0611105,,,,,,,2024-05-17,1,,,,,ハセガワドットケーケー,0
1548,5430001091833,新規,0,2024-05-17,2024-05-17,株式会社Ｎｏｒｔｈ　Ｏｃｅａｎ　Ｗａｙ,,株式会社,北海道,札幌市手稲区,前田十条１５丁目５番２６号,,01,109,0060820,,,,,,,2024-05-17,1,,,,,ノースオーシャンウェイ,0
1550,5450001014321,新規,0,2024-05-17,2024-05-17,株式会社ＳＤＫ,,株式会社,北海道,旭川市,東二条２丁目４番１０号,,01,204,0700022,,,,,,,2024-05-17,1,,,,,エスディーケー,0
1554,5460103001621,新規,0,2024-05-17,2024-05-17,合同会社キルト,,合同会社,北海道,帯広市,西十六条南５丁目２１番１５号コーポアルクＩＩ２０５,00134808,01,207,0800026,,,,,,,2024-05-17,1,,,,,キルト,0
1564,5500003003250,新規,0,2024-05-17,2024-05-17,合同会社オールドリバー,,合同会社,愛媛県,新居浜市,坂井町３丁目１１番４８号アルファスマート新居浜駅９０４号,,38,205,7920812,,,,,,,2024-05-17,1,,,,,オールドリバー,0
1565,5700150125463,新規,0,2024-05-17,2024-05-17,ＤＧ　ＦＵＴＵＲＥＴＥＣＨ　ＩＮＤＩＡ　ＰＲＩＶＡＴＥ　ＬＩＭＩＴＥＤ,,外国会社等,東京都,渋谷区,恵比寿南３丁目５番７号,,13,113,1500022,インド国４１１００４マハラシュトラ州プネ、ニアマラツワダカレッジ、シバジナガール８４６通り、オフィス５号,,,,,,2024-05-17,1,,,,,デイージーフユーチヤーテツクインデイアプライベートリミテツド,0
1573,6010001244779,新規,0,2024-05-17,2024-05-17,ジャム株式会社,,株式会社,東京都,千代田区,神田錦町２丁目４－１３錦和ビル５階,,13,101,1010054,,,,,,,2024-05-17,1,,,,,ジャム,0
1574,6010001244861,新規,0,2024-05-17,2024-05-17,株式会社明治座プロモーション,,株式会社,東京都,中央区,日本橋浜町２丁目３１番１号,,13,102,1030007,,,,,,,2024-05-17,1,,,,,メイジザプロモーション,0
1575,6010001244969,新規,0,2024-05-17,2024-05-17,Ａｇｒｉｉｔ株式会社,,株式会社,東京都,中央区,銀座１丁目１２番４号Ｎ＆ＥＢＬＤ．７階,,13,102,1040061,,,,,,,2024-05-17,1,,,,,アグリット,0
1580,6010003043758,新規,0,2024-05-17,2024-05-17,合同会社ＡＬＬ　Ｓｔａｒ　Ａｓｓｅｔ　Ｍａｇｉｃ,,合同会社,東京都,中央区,日本橋箱崎町１５－６イーストワン箱崎４Ｆ,,13,102,1030015,,,,,,,2024-05-17,1,,,,,オールスターアセットマジック,0
1582,6010103002358,新規,0,2024-05-17,2024-05-17,となりのトトや合同会社,,合同会社,東京都,八王子市,西寺方町９１８番地１,,13,201,1920153,,,,,,,2024-05-17,1,,,,,トナリノトトヤ,0
1592,6010401182439,新規,0,2024-05-17,2024-05-17,株式会社エムザスＶＩ,,株式会社,東京都,港区,西麻布３丁目８番２－１７０２号,,13,103,1060031,,,,,,,2024-05-17,1,,,,,エムザスシックス,0
1593,6010401182463,新規,0,2024-05-17,2024-05-17,株式会社シルバーリフォームセンター,,株式会社,東京都,港区,赤坂４丁目１番２号シントミ赤坂一ツ木ビル６階,,13,103,1070052,,,,,,,2024-05-17,1,,,,,シルバーリフォームセンター,0
1597,6010403032591,新規,0,2024-05-17,2024-05-17,合同会社おくりえ,,合同会社,東京都,港区,南青山２丁目２番１５号,,13,103,1070062,,,,,,,2024-05-17,1,,,,,オクリエ,0
1598,6010403032633,新規,0,2024-05-17,2024-05-17,Ｗａｒｂｕｒｇ　Ｐｉｎｃｕｓ　Ｊａｐａｎ合同会社,,合同会社,東京都,港区,元麻布３丁目１番６号,,13,103,1060046,,,,,,,2024-05-17,1,,,,,ウォーバーグピンカスジャパン,0
1599,6010501052277,新規,0,2024-05-17,2024-05-17,梵綾株式会社,,株式会社,東京都,台東区,台東３丁目５番１０号－１０２－２Ｒ,,13,106,1100016,,,,,,,2024-05-17,1,,,,,フウリン,0
1600,6010501052293,新規,0,2024-05-17,2024-05-17,株式会社パウスマイル,,株式会社,東京都,台東区,松が谷３丁目１２番４号マスヤビル,,13,106,1110036,,,,,,,2024-05-17,1,,,,,パウスマイル,0
1601,6010503007444,新規,0,2024-05-17,2024-05-17,合同会社サクラボ,,合同会社,東京都,台東区,蔵前２丁目１番２８号,,13,106,1110051,,,,,,,2024-05-17,1,,,,,サクラボ,0
1602,6010505003524,新規,0,2024-05-17,2024-05-17,弁護士法人ましも法律事務所,,その他の設立登記法人,東京都,台東区,東上野１丁目１３番１５号アーバントップビル７階,,13,106,1100015,,,,,,,2024-05-17,1,,,,,マシモホウリツジムショ,0
1607,6010603010851,新規,0,2024-05-17,2024-05-17,合同会社シュガーラッシュ,,合同会社,東京都,江東区,東陽１丁目５－７コアハマヨシ４０３,,13,108,1350016,,,,,,,2024-05-17,1,,,,,シュガーラッシュ,0
1616,6010701045980,新規,0,2024-05-17,2024-05-17,株式会社ＯＮＥ’ｓ,,株式会社,東京都,品川区,大崎４丁目１３番８号,,13,109,1410032,,,,,,,2024-05-17,1,,,,,ワンズ,0
1617,6010701045989,新規,0,2024-05-17,2024-05-17,坤寧株式会社,,株式会社,東京都,品川区,東大井２丁目２３番１号名人亭ビル２階,,13,109,1400011,,,,,,,2024-05-17,1,,,,,コンネイ,0
1622,6010903009065,新規,0,2024-05-17,2024-05-17,合同会社Ａ・Ｃ・プロスパー,,合同会社,東京都,世田谷区,大蔵５丁目２０番１号コモレビ大蔵Ｍ１０２,,13,112,1570074,,,,,,,2024-05-17,1,,,,,エーシープロスパー,0
1628,6011001162095,新規,0,2024-05-17,2024-05-17,Ｂａｃｋ　Ｔｏ　Ｏｎｅ株式会社,,株式会社,東京都,渋谷区,道玄坂１丁目１０番８号渋谷道玄坂東急ビル２Ｆ－Ｃ,,13,113,1500043,,,,,,,2024-05-17,1,,,,,バックトゥワン,0
1629,6011001162137,新規,0,2024-05-17,2024-05-17,株式会社ネットＫＥＮ,,株式会社,東京都,渋谷区,富ヶ谷２丁目４３番１５号山崎ビル４Ｆ,,13,113,1510063,,,,,,,2024-05-17,1,,,,,ネットケン,0
1634,6011101107371,新規,0,2024-05-17,2024-05-17,株式会社トキオグループホールディングス,,株式会社,東京都,新宿区,西新宿４丁目２４番１６号,,13,104,1600023,,,,,,,2024-05-17,1,,,,,トキオグループホールディングス,0
1635,6011101107396,新規,0,2024-05-17,2024-05-17,株式会社Ｃａｍｅｌｉａ,,株式会社,東京都,新宿区,新宿２丁目１５番２号３Ｆ,,13,104,1600022,,,,,,,2024-05-17,1,,,,,カメリア,0
1636,6011103014442,新規,0,2024-05-17,2024-05-17,合同会社ソラネス,,合同会社,東京都,新宿区,市谷田町３丁目８番地,,13,104,1620843,,,,,,,2024-05-17,1,,,,,ソラネス,0
1645,6011801044237,新規,0,2024-05-17,2024-05-17,株式会社ファイブレッズ,,株式会社,東京都,葛飾区,東金町１丁目４４－１金町ＴＶビル１階,,13,122,1250041,,,,,,,2024-05-17,1,,,,,ファイブレッズ,0
1646,6011801044245,新規,0,2024-05-17,2024-05-17,株式会社ｏｎｅ　ａｎｄ　ｏｎｌｙ　Ｍ,,株式会社,東京都,葛飾区,西亀有１丁目２５番１８号－７０３号室,,13,122,1240002,,,,,,,2024-05-17,1,,,,,ワンアンドオンリーエム,0
1647,6012403006550,新規,0,2024-05-17,2024-05-17,リハフレンズ小平合同会社,,合同会社,東京都,武蔵野市,境２丁目４－３スヤマ武蔵野一階,,13,203,1800022,,,,,,,2024-05-17,1,,,,,リハフレンズコダイラ,0
1648,6012403006567,新規,0,2024-05-17,2024-05-17,合同会社加藤映像,,合同会社,東京都,調布市,下石原１丁目２７番地３マコトビル２０１,,13,208,1820034,,,,,,,2024-05-17,1,,,,,カトウエイゾウ,0
1649,6012803003404,新規,0,2024-05-17,2024-05-17,合同会社Ｒ．Ｙ．Ｇ．,,合同会社,東京都,国分寺市,本町２丁目７番２号,,13,214,1850012,,,,,,,2024-05-17,1,,,,,アールワイジー,0
1657,6020001157278,新規,0,2024-05-17,2024-05-17,株式会社タイヨー,,株式会社,神奈川県,横浜市神奈川区,金港町５番地１４クアドリフォリオ８階,,14,102,2210056,,,,,,,2024-05-17,1,,,,,タイヨー,0
1658,6020001157286,新規,0,2024-05-17,2024-05-17,株式会社美光’Ｓ,,株式会社,神奈川県,横浜市西区,浅間町１丁目４番３号ウィザードビル４０２,,14,103,2200072,,,,,,,2024-05-17,1,,,,,ビコウズ,0
1667,6021001082243,新規,0,2024-05-17,2024-05-17,株式会社アヴニプレッセ,,株式会社,神奈川県,小田原市,鴨宮２５１番地の４,,14,206,2500874,,,,,,,2024-05-17,1,,,,,アヴニプレッセ,0
1668,6021001082251,新規,0,2024-05-17,2024-05-17,ｍｅｗｎｅｓｓ株式会社,,株式会社,神奈川県,相模原市南区,上鶴間本町１丁目４２番１２－６０１号,,14,153,2520318,,,,,,,2024-05-17,1,,,,,ミューネス,0
1670,6021003014525,新規,0,2024-05-17,2024-05-17,ＮＯＡ合同会社,,合同会社,神奈川県,大和市,大和南２丁目１番５号,,14,213,2420016,,,,,,,2024-05-17,1,,,,,ノア,0
1671,6021005013112,新規,0,2024-05-17,2024-05-17,一般社団法人日本車いすバスケットボールアカデミー,,その他の設立登記法人,神奈川県,相模原市中央区,横山台２丁目３３番１号サンヒルズ横山台１０２,,14,152,2520241,,,,,,,2024-05-17,1,,,,,ニホンクルマイスバスケットボールアカデミー,0
1679,6030001160413,新規,0,2024-05-17,2024-05-17,株式会社郷電鉄,,株式会社,埼玉県,所沢市,林３丁目５２４番地の６７,,11,208,3591167,,,,,,,2024-05-17,1,,,,,ゴウデンテツ,0
1681,6030003024302,新規,0,2024-05-17,2024-05-17,合同会社永井商事,,合同会社,埼玉県,坂戸市,溝端町９番地（９－１０２）,,11,239,3500274,,,,,,,2024-05-17,1,,,,,ナガイショウジ,0
1682,6030003024310,新規,0,2024-05-17,2024-05-17,合同会社ＫＩＮＡＴＯ,,合同会社,埼玉県,さいたま市岩槻区,美園東１丁目１１－２１,,11,110,3390028,,,,,,,2024-05-17,1,,,,,キナト,0
1683,6030005021685,新規,0,2024-05-17,2024-05-17,一般社団法人チャイルドグロース,,その他の設立登記法人,埼玉県,川口市,差間１丁目７番３２号,,11,203,3330816,,,,,,,2024-05-17,1,,,,,チャイルドグロース,0
1689,6040001133574,新規,0,2024-05-17,2024-05-17,株式会社山崎農園,00134795,株式会社,千葉県,印西市,白幡１１８番地,,12,231,2701366,,,,,,,2024-05-17,1,,,,,ヤマザキノウエン,0
1692,6040003025002,新規,0,2024-05-17,2024-05-17,合同会社ＷＩＬＬＥ,,合同会社,千葉県,千葉市中央区,矢作町２７２番地８,,12,101,2600851,,,,,,,2024-05-17,1,,,,,ヴィレ,0
1700,6070001041758,新規,0,2024-05-17,2024-05-17,株式会社トミーファーム,,株式会社,群馬県,吾妻郡長野原町,大字長野原１２９５－３２,,10,424,3771304,,,,,,,2024-05-17,1,,,,,トミーファーム,0
1701,6080001026312,新規,0,2024-05-17,2024-05-17,株式会社ＢｅＣａｔｉｏｎ,,株式会社,静岡県,牧之原市,仁田８３５番地,,22,226,4210413,,,,,,,2024-05-17,1,,,,,ビーケイション,0
1703,6080101024760,新規,0,2024-05-17,2024-05-17,株式会社松建工業,,株式会社,静岡県,富士市,永田北町１１番３０号,,22,210,4170058,,,,,,,2024-05-17,1,,,,,マツケンコウギョウ,0
1710,6090001018713,新規,0,2024-05-17,2024-05-17,山梨急行株式会社,,株式会社,山梨県,甲府市,富竹４丁目２番２６号,,19,201,4000049,,,,,,,2024-05-17,1,,,,,ヤマナシキュウコウ,0
1711,6100001037447,新規,0,2024-05-17,2024-05-17,株式会社ＣＡＲＩＮＧ　ＨＥＡＬＴＨ　ＨＯＭＥ,,株式会社,長野県,飯田市,鼎下山２７０番地１,,20,205,3950803,,,,,,,2024-05-17,1,,,,,ケアリングヘルスホーム,0
1724,6120001264948,新規,0,2024-05-17,2024-05-17,株式会社けんしろう,,株式会社,大阪府,大阪市北区,梅田１丁目１番３号大阪駅前第３ビル２９階１－１－１号室,,27,127,5300001,,,,,,,2024-05-17,1,,,,,ケンシロウ,0
1725,6120001264980,新規,0,2024-05-17,2024-05-17,株式会社Ｈａｎａ　Ｈｏｕｓｉｎｇ,,株式会社,大阪府,大阪市都島区,高倉町２丁目８番７号,,27,102,5340011,,,,,,,2024-05-17,1,,,,,ハナハウジング,0
1726,6120001265013,新規,0,2024-05-17,2024-05-17,和光エステート株式会社,,株式会社,大阪府,大阪市西成区,萩之茶屋２丁目５番２５号,,27,122,5570004,,,,,,,2024-05-17,1,,,,,ワコウエステート,0
1727,6120001265021,新規,0,2024-05-17,2024-05-17,樹株式会社,,株式会社,大阪府,大阪市中央区,船場中央２丁目１番４号船場センタービル４号館地下一階Ｂ１０８ＲＯＹＡＬＯＦＦＩＣＥ内,,27,128,5410055,,,,,,,2024-05-17,1,,,,,キ,0
1728,6120001265046,新規,0,2024-05-17,2024-05-17,ＤＯＪＩＭＡ　ＬＡＤＩＥＳ　ＭＡＮＡＧＥＭＥＮＴ株式会社,,株式会社,大阪府,大阪市北区,堂島２丁目３番７号シンコービル５階,,27,127,5300003,,,,,,,2024-05-17,1,,,,,ドウジマレディースマネジメント,0
1729,6120001265054,新規,0,2024-05-17,2024-05-17,株式会社ＫＵＲＡＧＥ,,株式会社,大阪府,大阪市中央区,内淡路町２丁目４番１０号グランダム内淡路１１０２,,27,128,5400038,,,,,,,2024-05-17,1,,,,,クラゲ,0
1730,6120001265062,新規,0,2024-05-17,2024-05-17,株式会社アットナチュラル,,株式会社,大阪府,大阪市中央区,南船場３丁目２番２２号おおきに南船場ビル２０５,,27,128,5420081,,,,,,,2024-05-17,1,,,,,アットナチュラル,0
1731,6120001265153,新規,0,2024-05-17,2024-05-17,株式会社ＴＭＰ,,株式会社,大阪府,大阪市西区,江戸堀２丁目１番１号江戸堀センタービルＢ１Ｆ,,27,106,5500002,,,,,,,2024-05-17,1,,,,,ティーエムピー,0
1737,6120003026611,新規,0,2024-05-17,2024-05-17,芸佳合同会社,,合同会社,大阪府,大阪市西成区,玉出東１丁目７－２３－１０１号室,,27,122,5570043,,,,,,,2024-05-17,1,,,,,ゲイカ,0
1738,6120005024324,新規,0,2024-05-17,2024-05-17,一般社団法人メディカル研究所,,その他の設立登記法人,大阪府,大阪市北区,梅田１丁目８番１６号ヒルトンプラザイースト５階,,27,127,5300001,,,,,,,2024-05-17,1,,,,,メディカルケンキュウジョ,0
1741,6120101069578,新規,0,2024-05-17,2024-05-17,菜歐株式会社,,株式会社,大阪府,阪南市,貝掛６３番３号シーサイド貝掛Ｂ棟１１０室,,27,232,5990231,,,,,,,2024-05-17,1,,,,,ナオウ,0
1742,6120101069594,新規,0,2024-05-17,2024-05-17,株式会社みなくる薬局,,株式会社,大阪府,堺市北区,金岡町５１８－１－３０１,,27,146,5918022,,,,,,,2024-05-17,1,,,,,ミナクルヤッキョク,0
1743,6120101069611,新規,0,2024-05-17,2024-05-17,株式会社福くる,,株式会社,大阪府,堺市北区,北長尾町２丁２番２４－３０２号,,27,146,5918043,,,,,,,2024-05-17,1,,,,,フククル,0
1747,6120901049176,新規,0,2024-05-17,2024-05-17,モササポート株式会社,,株式会社,大阪府,箕面市,小野原東２丁目１０番１３０号,,27,220,5620031,,,,,,,2024-05-17,1,,,,,モササポート,0
1749,6122001038118,新規,0,2024-05-17,2024-05-17,株式会社ジャパンシンチャン,,株式会社,大阪府,東大阪市,新家西町２０番２１号,,27,227,5770028,,,,,,,2024-05-17,1,,,,,ジャパンシンチャン,0
1754,6130003009573,新規,0,2024-05-17,2024-05-17,合同会社ＹＭＰ,,合同会社,京都府,京都市下京区,七条通油小路東入大黒町２２７番地第２キョートビル４０２,,26,106,6008223,,,,,,,2024-05-17,1,,,,,ワイエムピー,0
1757,6140001134397,新規,0,2024-05-17,2024-05-17,株式会社ＯＲ７５８,,株式会社,兵庫県,神戸市西区,南別府１丁目１番地の１,,28,111,6512116,,,,,,,2024-05-17,1,,,,,オーアールナナゴーハチ,0
1758,6140001134422,新規,0,2024-05-17,2024-05-17,株式会社エースナノ,,株式会社,兵庫県,神戸市中央区,浪花町５６番地起業プラザひょうご内,,28,110,6500035,,,,,,,2024-05-17,1,,,,,エースナノ,0
1759,6140001134455,新規,0,2024-05-17,2024-05-17,株式会社ｋｅｉ　ｔｅｃ,,株式会社,兵庫県,神戸市灘区,大内通６丁目１番１８号,,28,102,6570833,,,,,,,2024-05-17,1,,,,,ケイテック,0
1760,6140003020595,新規,0,2024-05-17,2024-05-17,合同会社五感,,合同会社,兵庫県,姫路市,駅前町３３８ＷＡＴビル６Ｆ,,28,201,6700927,,,,,,,2024-05-17,1,,,,,ゴカン,0
1761,6140005027085,新規,0,2024-05-17,2024-05-17,一般社団法人ヴィープラスクリニック,,その他の設立登記法人,兵庫県,伊丹市,瑞穂町６丁目４４番地１Ｆ,,28,207,6640013,,,,,,,2024-05-17,1,,,,,ヴィープラスクリニック,0
1762,6150003003260,新規,0,2024-05-17,2024-05-17,合同会社インタレスト,,合同会社,奈良県,奈良市,三条町４７５松田ビル２Ｆ,,29,201,6308244,,,,,,,2024-05-17,1,,,,,インタレスト,0
1765,6160003003193,新規,0,2024-05-17,2024-05-17,合同会社ＰＲＯＪＥＣＴ　ＫＮＩＧＨＴ,,合同会社,滋賀県,蒲生郡日野町,大字山本７６７－７,,25,383,5291651,,,,,,,2024-05-17,1,,,,,プロジェクトナイト,0
1775,6180001161421,新規,0,2024-05-17,2024-05-17,株式会社１ｓｔ　ｓｕｐｐｏｒｔ,,株式会社,愛知県,名古屋市北区,黒川本通３番地５５マーブルミニ１０２号,,23,103,4620000,,,,,,,2024-05-17,1,,,,,ファーストサポート,0
1776,6180001161487,新規,0,2024-05-17,2024-05-17,株式会社ピーク,,株式会社,愛知県,津島市,大坪町字壺里１５番地,,23,208,4960012,,,,,,,2024-05-17,1,,,,,ピーク,0
1777,6180001161553,新規,0,2024-05-17,2024-05-17,石田工業株式会社,,株式会社,愛知県,名古屋市東区,泉２丁目１１番４号４０２号,,23,102,4610001,,,,,,,2024-05-17,1,,,,,イシダコウギョウ,0
1784,6180303006126,新規,0,2024-05-17,2024-05-17,合同会社国経,,合同会社,愛知県,豊橋市,西岩田４丁目３番地１６－２号,,23,201,4400831,,,,,,,2024-05-17,1,,,,,コッケイ,0
1785,6190001031359,新規,0,2024-05-17,2024-05-17,株式会社岡本重建機,,株式会社,三重県,北牟婁郡紀北町,長島７９２番地１,,24,543,5193205,,,,,,,2024-05-17,1,,,,,オカモトジュウケンキ,0
1786,6190003004684,新規,0,2024-05-17,2024-05-17,ＹＨＳ合同会社,,合同会社,三重県,四日市市,浜田町１４番１０号シャンピア・スズキ４０２,,24,202,5100067,,,,,,,2024-05-17,1,,,,,ワイエイチエス,0
1789,6220001026009,新規,0,2024-05-17,2024-05-17,株式会社Ｒ,,株式会社,石川県,金沢市,南新保町ヌ２１２,,17,201,9200064,,,,,,,2024-05-17,1,,,,,アール,0
1790,6230001020349,新規,0,2024-05-17,2024-05-17,株式会社ミライスタコンサルティング,,株式会社,富山県,富山市,水橋上条新町１０番地９,,16,201,9390558,,,,,,,2024-05-17,1,,,,,ミライスタコンサルティング,0
1793,6240001063223,新規,0,2024-05-17,2024-05-17,株式会社雄心工業,,株式会社,広島県,広島市南区,皆実町４丁目３番４４－５号,,34,103,7340007,,,,,,,2024-05-17,1,,,,,ユウシンコウギョウ,0
1797,6260001039064,新規,0,2024-05-17,2024-05-17,株式会社ＳＡＷＭＩＹＡ,,株式会社,岡山県,勝田郡勝央町,植月北１８７１番地,,33,622,7094331,,,,,,,2024-05-17,1,,,,,ソウミヤ,0
1799,6260003004685,新規,0,2024-05-17,2024-05-17,合同会社ＳＳＯ,,合同会社,岡山県,岡山市北区,津高１９６－２１,,33,101,7011152,,,,,,,2024-05-17,1,,,,,エスエスオー,0
1800,6270001008984,新規,0,2024-05-17,2024-05-17,株式会社Ｉｓｌａｎｄ　Ｖｉｌｌａｇｅ,,株式会社,鳥取県,鳥取市,吉成１丁目２番２０号,,31,201,6800864,,,,,,,2024-05-17,1,,,,,アイランドビレッジ,0
1803,6290003015317,新規,0,2024-05-17,2024-05-17,合同会社熊本開発,,合同会社,福岡県,福岡市中央区,天神１丁目９番１７号福岡天神フコク生命ビル１５階,,40,133,8100001,,,,,,,2024-05-17,1,,,,,クマモトカイハツ,0
1806,6290005019407,新規,0,2024-05-17,2024-05-17,一般社団法人いと経営学舎,,その他の設立登記法人,福岡県,糸島市,前原西４丁目５－２８有田クリニック２Ｆ,,40,230,8191117,,,,,,,2024-05-17,1,,,,,イトケイエイガクシャ,0
1810,6320001020463,新規,0,2024-05-17,2024-05-17,中元電設株式会社,,株式会社,大分県,中津市,大字永添１４１５番地４,,44,203,8710162,,,,,,,2024-05-17,1,,,,,ナカモトデンセツ,0
1812,6320003004349,新規,0,2024-05-17,2024-05-17,合同会社なぶと,,合同会社,大分県,佐伯市,城南町７番５号,,44,205,8760834,,,,,,,2024-05-17,1,,,,,ナブト,0
1817,6350003004651,新規,0,2024-05-17,2024-05-17,生目住宅合同会社,,合同会社,宮崎県,宮崎市,大字小松３００３番地１,,45,201,8802112,,,,,,,2024-05-17,1,,,,,イキメジュウタク,0
1818,6360001033668,新規,0,2024-05-17,2024-05-17,株式会社隆仁工業,,株式会社,沖縄県,うるま市,石川伊波８２０番地１（Ａ棟）,,47,213,9041115,,,,,,,2024-05-17,1,,,,,リュウジンコウギョウ,0
1836,6420001018737,新規,0,2024-05-17,2024-05-17,高谷商事株式会社,,株式会社,青森県,十和田市,西六番町２番５５－７号,,02,206,0340038,,,,,,,2024-05-17,1,,,,,タカヤショウジ,0
1840,6430003016325,新規,0,2024-05-17,2024-05-17,とんかつ屋方合同会社,,合同会社,北海道,札幌市中央区,南二条西１９丁目２９１－６７サードアベニュー１階,,01,101,0600062,,,,,,,2024-05-17,1,,,,,トンカツヤカタ,0
1842,6440001009437,新規,0,2024-05-17,2024-05-17,株式会社スリーライク,,株式会社,北海道,函館市,本町３２番２７号ソシアルケイオービル２階,,01,202,0400011,,,,,,,2024-05-17,1,,,,,スリーライク,0
1848,6480001012478,新規,0,2024-05-17,2024-05-17,丸尾左官株式会社,,株式会社,徳島県,吉野川市,鴨島町上浦３２６番地,,36,205,7760037,,,,,,,2024-05-17,1,,,,,マルオサカン,0
1864,7010001244885,新規,0,2024-05-17,2024-05-17,株式会社ＢＯＮＡＦＩＤＥ,,株式会社,東京都,中央区,銀座３丁目４番１７号ギンザオプティカ９Ｆ,,13,102,1040061,,,,,,,2024-05-17,1,,,,,ボナファイド,0
1865,7010001244976,新規,0,2024-05-17,2024-05-17,Ｙｅｌｌｏｗ　Ｌｅａｐ株式会社,,株式会社,東京都,中央区,築地２丁目７番１２－１１０５号,,13,102,1040045,,,,,,,2024-05-17,1,,,,,イエローリープ,0
1867,7010003043773,新規,0,2024-05-17,2024-05-17,リリィ合同会社,,合同会社,東京都,千代田区,丸の内１丁目１１番１号パシフィックセンチュリープレイス丸の内８階,,13,101,1000005,,,,,,,2024-05-17,1,,,,,リリィ,0
1878,7010401182438,新規,0,2024-05-17,2024-05-17,株式会社エムザスＶ,,株式会社,東京都,港区,西麻布３丁目８番２－１７０２号,,13,103,1060031,,,,,,,2024-05-17,1,,,,,エムザスファイブ,0
1879,7010401182553,新規,0,2024-05-17,2024-05-17,株式会社エポックスター,,株式会社,東京都,港区,芝５丁目２９番２０号,,13,103,1080014,,,,,,,2024-05-17,1,,,,,エポックスター,0
1888,7010603010842,新規,0,2024-05-17,2024-05-17,ミトンズ合同会社,,合同会社,東京都,墨田区,立花５丁目３番９号,,13,107,1310043,,,,,,,2024-05-17,1,,,,,ミトンズ,0
1893,7010801035055,新規,0,2024-05-17,2024-05-17,株式会社Ｈａｋｕ,,株式会社,東京都,大田区,山王２丁目９番１２－３０６号,,13,111,1430023,,,,,,,2024-05-17,1,,,,,ハク,0
1897,7010903009064,新規,0,2024-05-17,2024-05-17,合同会社Ａｌｖａｈ,,合同会社,東京都,世田谷区,豪徳寺１丁目２５番１８号ベルローズ豪徳寺２０２,,13,112,1540021,,,,,,,2024-05-17,1,,,,,アルバ,0
1910,7011001162094,新規,0,2024-05-17,2024-05-17,株式会社ＷＨａＺ,,株式会社,東京都,渋谷区,神宮前３丁目２７番１９号,,13,113,1500001,,,,,,,2024-05-17,1,,,,,ワッツ,0
1916,7011103014433,新規,0,2024-05-17,2024-05-17,ＬＩＢＳＩＬ合同会社,,合同会社,東京都,新宿区,西新宿４丁目１８番１号デューク西新宿５０１,,13,104,1600023,,,,,,,2024-05-17,1,,,,,リブシル,0
1917,7011201025480,新規,0,2024-05-17,2024-05-17,株式会社オープンシェアトレード,,株式会社,東京都,中野区,沼袋３丁目３０番１０号,,13,114,1650025,,,,,,,2024-05-17,1,,,,,オープンシェアトレード,0
1921,7011401026097,新規,0,2024-05-17,2024-05-17,株式会社テクノザウルス,,株式会社,東京都,板橋区,常盤台２丁目１６－１,,13,119,1740071,,,,,,,2024-05-17,1,,,,,テクノザウルス,0
1923,7011403004381,新規,0,2024-05-17,2024-05-17,合同会社ＦＥＬＥＺＡ‐Ｓ,,合同会社,東京都,板橋区,坂下３丁目８番５－２０１号ドミールコクサン,,13,119,1740043,,,,,,,2024-05-17,1,,,,,フェレザエス,0
1926,7011801044252,新規,0,2024-05-17,2024-05-17,株式会社ＨＳ　ＰＬＡＮＮＩＮＧ,,株式会社,東京都,足立区,中央本町５丁目３番７－１２０９号,,13,121,1210011,,,,,,,2024-05-17,1,,,,,エイチエスプランニング,0
1927,7011803006250,新規,0,2024-05-17,2024-05-17,合同会社ＡＸＩＡ,,合同会社,東京都,葛飾区,青戸５丁目８番１４号小島ビル３０１号,,13,122,1250062,,,,,,,2024-05-17,1,,,,,アクシア,0
1931,7012301013912,新規,0,2024-05-17,2024-05-17,Ｃｉｔｙ　Ｄｅｎｔ株式会社,,株式会社,東京都,町田市,中町３丁目４番１号ヴォーヌン中町１Ｆ,,13,209,1940021,,,,,,,2024-05-17,1,,,,,シティデント,0
1932,7012303001989,新規,0,2024-05-17,2024-05-17,合同会社ライオン,,合同会社,東京都,町田市,本町田２５３３番地公社住宅ハ１－３１３,,13,209,1940032,,,,,,,2024-05-17,1,,,,,ライオン,0
1935,7012703002991,新規,0,2024-05-17,2024-05-17,Ｎａｍｉ合同会社,,合同会社,東京都,西東京市,泉町２丁目１７番１８－Ｂ１０１号,,13,229,2020011,,,,,,,2024-05-17,1,,,,,ナミ,0
1937,7012803003403,新規,0,2024-05-17,2024-05-17,合同会社忍,,合同会社,東京都,国分寺市,本町２丁目７番２号,,13,214,1850012,,,,,,,2024-05-17,1,,,,,シノブ,0
1950,7020001157252,新規,0,2024-05-17,2024-05-17,株式会社ＣＯＮＳＴＲＡＤ,,株式会社,神奈川県,横浜市西区,浅間町１丁目４番３号ウィザードビル４０２,,14,103,2200072,,,,,,,2024-05-17,1,,,,,コンストラッド,0
1955,7020003026117,新規,0,2024-05-17,2024-05-17,合同会社カットハウスさぎぬま,,合同会社,神奈川県,川崎市宮前区,鷺沼１丁目１１番地１－１０６,,14,136,2160004,,,,,,,2024-05-17,1,,,,,カットハウスサギヌマ,0
1957,7021001082275,新規,0,2024-05-17,2024-05-17,株式会社Ｔ．Ｏ．Ｐ空調サービス,,株式会社,神奈川県,厚木市,妻田西３丁目５番１７号サンハイツ１０３号,,14,212,2430815,,,,,,,2024-05-17,1,,,,,トップクウチョウサービス,0
1960,7021003014508,新規,0,2024-05-17,2024-05-17,合同会社ニュー,,合同会社,神奈川県,平塚市,根坂間２１４番地２階,,14,203,2540904,,,,,,,2024-05-17,1,,,,,ニュー,0
1961,7021003014516,新規,0,2024-05-17,2024-05-17,合同会社Ａｇｒｉｉｎａ＆ＡｇｒｉｏＯ,,合同会社,神奈川県,平塚市,西八幡２丁目１５番７号,,14,203,2540073,,,,,,,2024-05-17,1,,,,,アグリィナアンドアグリオ,0
1962,7021003014524,新規,0,2024-05-17,2024-05-17,合同会社ＳａＴｅ,,合同会社,神奈川県,横須賀市,久里浜３丁目２１番７号,,14,201,2390831,,,,,,,2024-05-17,1,,,,,サテ,0
1967,7030001160404,新規,0,2024-05-17,2024-05-17,株式会社スポラフ,,株式会社,埼玉県,さいたま市緑区,美園１丁目２２番地１４,,11,109,3360967,,,,,,,2024-05-17,1,,,,,スポラフ,0
1968,7030001160412,新規,0,2024-05-17,2024-05-17,株式会社Ｌ’ｅｖｏ,,株式会社,埼玉県,鴻巣市,上会下４３６番地１,,11,217,3650012,,,,,,,2024-05-17,1,,,,,レヴォ,0
1970,7030003024318,新規,0,2024-05-17,2024-05-17,ＧｏＺ‐Ｃｌｏｕｄ合同会社,,合同会社,埼玉県,坂戸市,三光町４３番地１１,,11,239,3500235,,,,,,,2024-05-17,1,,,,,ゴズークラウド,0
1971,7030003024334,新規,0,2024-05-17,2024-05-17,リーベルト合同会社,,合同会社,埼玉県,さいたま市南区,根岸３丁目１９―２―１,,11,108,3360024,,,,,,,2024-05-17,1,,,,,リーベルト,0
1978,7040001133648,新規,0,2024-05-17,2024-05-17,株式会社富楽ファイン,,株式会社,千葉県,東金市,東新宿１２番地５富楽ビル３０１,,12,213,2830006,,,,,,,2024-05-17,1,,,,,フラクファイン,0
1979,7040001133656,新規,0,2024-05-17,2024-05-17,株式会社ＥＬＥリノベーション,,株式会社,千葉県,千葉市花見川区,南花園２丁目５－４須山ビル５０１号,,12,102,2620022,,,,,,,2024-05-17,1,,,,,エレリノベーション,0
2000,7070001041757,新規,0,2024-05-17,2024-05-17,株式会社春丹,,株式会社,群馬県,高崎市,上中居町３７５番地３ＤＴビル１－Ａ,,10,202,3700851,,,,,,,2024-05-17,1,,,,,シュンタン,0
2003,7070003005421,新規,0,2024-05-17,2024-05-17,合同会社くしくんち,,合同会社,群馬県,利根郡みなかみ町,後閑９３８番地１,,10,449,3791305,,,,,,,2024-05-17,1,,,,,クシクンチ,0
2018,7110001038410,新規,0,2024-05-17,2024-05-17,株式会社Ｓｅｒｅｎｄｉｐ,,株式会社,新潟県,南魚沼市,塩沢１２００番地,,15,226,9496408,,,,,,,2024-05-17,1,,,,,セレンディップ,0
2024,7120001264856,新規,0,2024-05-17,2024-05-17,株式会社スタッフサポート,,株式会社,大阪府,大阪市中央区,安土町２丁目２番１５号３階,,27,128,5410052,,,,,,,2024-05-17,1,,,,,スタッフサポート,0
2025,7120001264872,新規,0,2024-05-17,2024-05-17,株式会社ＶｉｓｉｏｎＣａｓｔ,,株式会社,大阪府,大阪市北区,豊崎１丁目５－９サンセール豊崎１００３号室,,27,127,5310072,,,,,,,2024-05-17,1,,,,,ビジョンキャスト,0
2026,7120001264955,新規,0,2024-05-17,2024-05-17,株式会社シュバル,,株式会社,大阪府,大阪市西区,南堀江３丁目４番１５－１１０１号,,27,106,5500015,,,,,,,2024-05-17,1,,,,,シュバル,0
2027,7120001264963,新規,0,2024-05-17,2024-05-17,株式会社むじょるにあ,,株式会社,大阪府,大阪市北区,中之島６丁目１番３８号,,27,127,5300005,,,,,,,2024-05-17,1,,,,,ムジョルニア,0
2028,7120001264971,新規,0,2024-05-17,2024-05-17,株式会社Ｇ＆Ｇ,,株式会社,大阪府,大阪市東淀川区,豊新４丁目１６番２０－１０２号,,27,114,5330014,,,,,,,2024-05-17,1,,,,,ジーアンドジー,0
2029,7120001265004,新規,0,2024-05-17,2024-05-17,活緻設計株式会社,,株式会社,大阪府,大阪市中央区,船場中央２丁目１番４号船場センタービル４号館地下一階Ｂ１０８ＲＯＹＡＬＯＦＦＩＣＥ内,,27,128,5410055,,,,,,,2024-05-17,1,,,,,カツチセッケイ,0
2030,7120001265020,新規,0,2024-05-17,2024-05-17,真唯美株式会社,,株式会社,大阪府,大阪市此花区,春日出中１丁目１番９５号－２０１,,27,104,5540022,,,,,,,2024-05-17,1,,,,,マユミ,0
2031,7120001265029,新規,0,2024-05-17,2024-05-17,株式会社正建,,株式会社,大阪府,大阪市中央区,高津１丁目４番１号,,27,128,5420072,,,,,,,2024-05-17,1,,,,,ショウケン,0
2032,7120001265037,新規,0,2024-05-17,2024-05-17,英雄興産株式会社,,株式会社,大阪府,大阪市北区,天満１丁目５番２号,,27,127,5300043,,,,,,,2024-05-17,1,,,,,エイユウコウサン,0
2036,7120003026602,新規,0,2024-05-17,2024-05-17,ＧＯＧＯ合同会社,,合同会社,大阪府,大阪市港区,市岡２丁目２番４号,,27,107,5520012,,,,,,,2024-05-17,1,,,,,ゴーゴー,0
2038,7120005024323,新規,0,2024-05-17,2024-05-17,一般社団法人フットセラピスト協会,,その他の設立登記法人,大阪府,大阪市淀川区,西中島４丁目８番４－９０４号,,27,123,5320011,,,,,,,2024-05-17,1,,,,,フットセラピストキョウカイ,0
2040,7120101069627,新規,0,2024-05-17,2024-05-17,株式会社ＡＮＩＡＳ,,株式会社,大阪府,羽曳野市,野４８６番地４,,27,222,5830884,,,,,,,2024-05-17,1,,,,,アニアス,0
2044,7120901049175,新規,0,2024-05-17,2024-05-17,株式会社吹田建物管理,,株式会社,大阪府,吹田市,片山町１丁目３０番２３号,,27,205,5640082,,,,,,,2024-05-17,1,,,,,スイタタテモノカンリ,0
2045,7120901049183,新規,0,2024-05-17,2024-05-17,株式会社Ｋｎｏｗｌｅｄｇｅ　Ｏｎｅ,,株式会社,大阪府,豊中市,三国１丁目６番１５号,,27,203,5610822,,,,,,,2024-05-17,1,,,,,ナレッジワン,0
2046,7120903005176,新規,0,2024-05-17,2024-05-17,合同会社Ｓａｋｕｃｉｋｕ,,合同会社,大阪府,箕面市,今宮４丁目１４番６４号,,27,220,5620033,,,,,,,2024-05-17,1,,,,,サクチク,0
2048,7120905006610,新規,0,2024-05-17,2024-05-17,一般社団法人ウミソラ,,その他の設立登記法人,大阪府,池田市,豊島北２丁目６番４号,,27,204,5630036,,,,,,,2024-05-17,1,,,,,ウミソラ,0
2053,7122003002888,新規,0,2024-05-17,2024-05-17,プレジール合同会社,,合同会社,大阪府,四條畷市,雁屋南町２０－４４,,27,229,5750036,,,,,,,2024-05-17,1,,,,,プレジール,0
2059,7130005017094,新規,0,2024-05-17,2024-05-17,一般社団法人日本テクニカルイングリッシュ協会,,その他の設立登記法人,京都府,京都市下京区,中堂寺南町１３４番地,,26,106,6008813,,,,,,,2024-05-17,1,,,,,ニホンテクニカルイングリッシュキョウカイ,0
2062,7140001134413,新規,0,2024-05-17,2024-05-17,株式会社エスペーロ・ホールディングス,,株式会社,兵庫県,姫路市,青山北２丁目３３番１２号,,28,201,6712221,,,,,,,2024-05-17,1,,,,,エスペーロホールディングス,0
2063,7140001134446,新規,0,2024-05-17,2024-05-17,株式会社高丸商工,,株式会社,兵庫県,神戸市西区,伊川谷町上脇１００６番地の１３３,,28,111,6512105,,,,,,,2024-05-17,1,,,,,タカマルショウコウ,0
2065,7140003020594,新規,0,2024-05-17,2024-05-17,合同会社ＢＡＬ　ＴＷＯ,,合同会社,兵庫県,姫路市,飾磨区構４丁目１３８－１,,28,201,6728071,,,,,,,2024-05-17,1,,,,,バルツー,0
2068,7140005027084,新規,0,2024-05-17,2024-05-17,一般社団法人ｆｏｒＡ,,その他の設立登記法人,兵庫県,尼崎市,武庫之荘１丁目１０番１号７０１,,28,202,6610035,,,,,,,2024-05-17,1,,,,,フォーエー,0
2070,7170003002045,新規,0,2024-05-17,2024-05-17,山芝プラム合同会社,,合同会社,和歌山県,海草郡紀美野町,動木５４３番地,,30,304,6401131,,,,,,,2024-05-17,1,,,,,ヤマシバプラム,0
2076,7180001161420,新規,0,2024-05-17,2024-05-17,カウントアップ株式会社,,株式会社,愛知県,名古屋市昭和区,折戸町５丁目３番地,,23,107,4660858,,,,,,,2024-05-17,1,,,,,カウントアップ,0
2077,7180001161503,新規,0,2024-05-17,2024-05-17,株式会社ミリネヤンコプチャン,,株式会社,愛知県,名古屋市東区,泉１丁目２１番２９号ＩＺＵＭＩ桜鈴館１０２,,23,102,4610001,,,,,,,2024-05-17,1,,,,,ミリネヤンコプチャン,0
2085,7180003026670,新規,0,2024-05-17,2024-05-17,合同会社テイル,,合同会社,愛知県,名古屋市中区,新栄町２丁目３－１８プレサンスＴＨＥ新栄２０２,,23,106,4600004,,,,,,,2024-05-17,1,,,,,テイル,0
2086,7180003026778,新規,0,2024-05-17,2024-05-17,合同会社キャリートモ,,合同会社,愛知県,名古屋市緑区,武路町３１０９番地,,23,114,4580917,,,,,,,2024-05-17,1,,,,,キャリートモ,0
2087,7180005020630,新規,0,2024-05-17,2024-05-17,リリーハイツ瑞穂管理組合法人,,その他の設立登記法人,愛知県,名古屋市瑞穂区,師長町１番地２,,23,108,4670061,,,,,,,2024-05-17,1,,,,,リリーハイツミズホ,0
2090,7180301038649,新規,0,2024-05-17,2024-05-17,株式会社ＫＮＮＤ,,株式会社,愛知県,豊橋市,新栄町字汐焼８番地１５,,23,201,4418016,,,,,,,2024-05-17,1,,,,,ケイエヌエヌディー,0
2092,7180303006125,新規,0,2024-05-17,2024-05-17,合同会社仙臺興業,,合同会社,愛知県,新城市,平井字原３２番地２,,23,221,4411362,,,,,,,2024-05-17,1,,,,,センダイコウギョウ,0
2103,7210001019763,新規,0,2024-05-17,2024-05-17,村井メガネ店株式会社,,株式会社,福井県,福井市,大手３丁目１番１３号大手門ビル１階,,18,201,9100005,,,,,,,2024-05-17,1,,,,,ムライメガネテン,0
2105,7220001026008,新規,0,2024-05-17,2024-05-17,株式会社ホワイトクリーン,,株式会社,石川県,河北郡津幡町,井上の荘２丁目１５０番地,,17,361,9290335,,,,,,,2024-05-17,1,,,,,ホワイトクリーン,0
2106,7220005008852,新規,0,2024-05-17,2024-05-17,一般社団法人ハピ猫サークル白山,,その他の設立登記法人,石川県,白山市,徳丸町１４１番地３,,17,210,9240804,,,,,,,2024-05-17,1,,,,,ハピネコサークルハクサン,0
2107,7230001020348,新規,0,2024-05-17,2024-05-17,株式会社吉永建設,,株式会社,富山県,富山市,四ツ葉町６番１６号,,16,201,9300841,,,,,,,2024-05-17,1,,,,,ヨシナガケンセツ,0
2108,7240001063222,新規,0,2024-05-17,2024-05-17,株式会社メタルワークス,,株式会社,広島県,福山市,高美台１６番１９号,,34,207,7200024,,,,,,,2024-05-17,1,,,,,メタルワークス,0
2109,7240001063230,新規,0,2024-05-17,2024-05-17,株式会社エム工業,,株式会社,広島県,福山市,神村町１７１７番地,,34,207,7290112,,,,,,,2024-05-17,1,,,,,エムコウギョウ,0
2110,7240001063247,新規,0,2024-05-17,2024-05-17,株式会社ブルーＲ,,株式会社,広島県,廿日市市,大野９６０番地３２,,34,213,7390488,,,,,,,2024-05-17,1,,,,,ブルーアール,0
2112,7260001039071,新規,0,2024-05-17,2024-05-17,ケーステクノ株式会社,,株式会社,岡山県,倉敷市,真備町川辺７２９番地１３,,33,202,7101313,,,,,,,2024-05-17,1,,,,,ケーステクノ,0
2118,7270001008983,新規,0,2024-05-17,2024-05-17,株式会社伯耆の風,,株式会社,鳥取県,米子市,目久美町９７番地３,,31,202,6830035,,,,,,,2024-05-17,1,,,,,ホウキノカゼ,0
2124,7290001105713,新規,0,2024-05-17,2024-05-17,株式会社あけぼの,,株式会社,福岡県,大野城市,曙町２丁目１番４４号,00134796,40,219,8160934,,,,,,,2024-05-17,1,,,,,アケボノ,0
2125,7290001105721,新規,0,2024-05-17,2024-05-17,株式会社Ｍ＆Ｍ　ＦＡＣＴＯＲＹ,,株式会社,福岡県,三井郡大刀洗町,大字山隈４０２－１,,40,503,8301226,,,,,,,2024-05-17,1,,,,,エムアンドエムファクトリー,0
2126,7290001105746,新規,0,2024-05-17,2024-05-17,株式会社ＲＩＶＥＲ　ＲＵＮ,,株式会社,福岡県,福岡市博多区,豊２丁目４番７０号,,40,132,8120042,,,,,,,2024-05-17,1,,,,,リバーラン,0
2128,7290801030573,新規,0,2024-05-17,2024-05-17,株式会社ｂｙ　ＴＨＡＮＸ,,株式会社,福岡県,北九州市小倉北区,西港町１５番地,,40,106,8030801,,,,,,,2024-05-17,1,,,,,バイサンクス,0
2134,7310003004794,新規,0,2024-05-17,2024-05-17,合同会社ＡＰＥＸ,,合同会社,長崎県,長崎市,長浦町３３８１番地,,42,201,8513212,,,,,,,2024-05-17,1,,,,,エーペックス,0
2141,7340001026508,新規,0,2024-05-17,2024-05-17,杉山工業株式会社,,株式会社,鹿児島県,鹿児島市,西伊敷５丁目１５番１４号,,46,201,8911202,,,,,,,2024-05-17,1,,,,,スギヤマコウギョウ,0
2142,7340001026516,新規,0,2024-05-17,2024-05-17,株式会社縁,,株式会社,鹿児島県,鹿児島市,紫原１丁目３５番１５－２０１号,,46,201,8900082,,,,,,,2024-05-17,1,,,,,エン,0
2147,7350003004650,新規,0,2024-05-17,2024-05-17,合同会社まえむら,,合同会社,宮崎県,都城市,花繰町３街区９号高橋花繰貸家２,,45,202,8850037,,,,,,,2024-05-17,1,,,,,マエムラ,0
2148,7360001033667,新規,0,2024-05-17,2024-05-17,株式会社琉球Ｋａｆｕｕ,,株式会社,沖縄県,中頭郡読谷村,字宇座１８６１番地,,47,324,9040328,,,,,,,2024-05-17,1,,,,,リュウキュウカフー,0
2149,7360001033691,新規,0,2024-05-17,2024-05-17,株式会社フォーエバー,,株式会社,沖縄県,名護市,字為又１０５４番地２,,47,209,9050005,,,,,,,2024-05-17,1,,,,,フォーエバー,0
2156,7380003005761,新規,0,2024-05-17,2024-05-17,合同会社ｍｏｏｎ,,合同会社,福島県,郡山市,八山田５丁目２９６番地１,,07,203,9638052,,,,,,,2024-05-17,1,,,,,ムーン,0
2168,7430001091798,新規,0,2024-05-17,2024-05-17,株式会社あびらエナジー,,株式会社,北海道,勇払郡安平町,早来北町４８番地２,,01,585,0591506,,,,,,,2024-05-17,1,,,,,アビラエナジー,0
2169,7430001091831,新規,0,2024-05-17,2024-05-17,株式会社ＣＲＥＣＯ,,株式会社,北海道,札幌市中央区,大通東９丁目９９番地１－８０８号,,01,101,0600041,,,,,,,2024-05-17,1,,,,,クレコ,0
2170,7430003016349,新規,0,2024-05-17,2024-05-17,合同会社道の上,,合同会社,北海道,札幌市中央区,南十九条西１６丁目５番１０－１３０３号,,01,101,0640919,,,,,,,2024-05-17,1,,,,,ミチノウエ,0
2180,7500003003249,新規,0,2024-05-17,2024-05-17,合同会社ミロク,,合同会社,愛媛県,西条市,小松町南川甲４８番地５,,38,206,7991102,,,,,,,2024-05-17,1,,,,,ミロク,0
2186,8010001244934,新規,0,2024-05-17,2024-05-17,株式会社ＶＤＷメディカルコスメ,,株式会社,東京都,中央区,銀座１丁目２２番１１号銀座大竹ビジデンス２Ｆ,,13,102,1040061,,,,,,,2024-05-17,1,,,,,ブイディーダブリューメディカルコスメ,0
2187,8010001244983,新規,0,2024-05-17,2024-05-17,株式会社医科歯科経営研究所,,株式会社,東京都,中央区,銀座１丁目１２番４号Ｎ＆ＥＢＬＤ．７階,,13,102,1040061,,,,,,,2024-05-17,1,,,,,イカシカケイエイケンキュウジョ,0
2196,8010005038317,新規,0,2024-05-17,2024-05-17,ＪＰ　Ｓｅｔａｇａｙａ１一般社団法人,,その他の設立登記法人,東京都,千代田区,平河町１丁目６番１５号シルスフィア会計事務所内,,13,101,1020093,,,,,,,2024-05-17,1,,,,,ジェイピーセタガヤワン,0
2197,8010005038325,新規,0,2024-05-17,2024-05-17,一般社団法人スプリングＲ２,,その他の設立登記法人,東京都,千代田区,丸の内３丁目１番１号東京共同会計事務所内,,13,101,1000005,,,,,,,2024-05-17,1,,,,,スプリングアールツー,0
2205,8010401182437,新規,0,2024-05-17,2024-05-17,株式会社エムザスＩＶ,,株式会社,東京都,港区,西麻布３丁目８番２－１７０２号,,13,103,1060031,,,,,,,2024-05-17,1,,,,,エムザスフォー,0
2206,8010401182552,新規,0,2024-05-17,2024-05-17,株式会社クロスサイト,,株式会社,東京都,港区,芝５丁目２９番２０号,,13,103,1080014,,,,,,,2024-05-17,1,,,,,クロスサイト,0
2209,8010501052275,新規,0,2024-05-17,2024-05-17,克鋭恩商事株式会社,,株式会社,東京都,台東区,東上野３丁目２１番７福井ビル４０２室,,13,106,1100015,,,,,,,2024-05-17,1,,,,,カツエイオンショウジ,0
2210,8010501052283,新規,0,2024-05-17,2024-05-17,伝承株式会社,,株式会社,東京都,台東区,台東１丁目２４番９号ブライト秋葉原Ｂ１Ｆ,,13,106,1100016,,,,,,,2024-05-17,1,,,,,デンショウ,0
2211,8010601065210,新規,0,2024-05-17,2024-05-17,株式会社葉〆,,株式会社,東京都,江東区,富岡１丁目１番８号,,13,108,1350047,,,,,,,2024-05-17,1,,,,,ハジメ,0
2212,8010603010833,新規,0,2024-05-17,2024-05-17,合同会社ＮＰ３,,合同会社,東京都,墨田区,業平４丁目１２－５－７０１,,13,107,1300002,,,,,,,2024-05-17,1,,,,,エヌピーサン,0
2213,8010603010841,新規,0,2024-05-17,2024-05-17,融和合同会社,,合同会社,東京都,江東区,亀戸６丁目５０‐５,,13,108,1360071,,,,,,,2024-05-17,1,,,,,ユウワ,0
2219,8010703007176,新規,0,2024-05-17,2024-05-17,合同会社スターセールズ,,合同会社,東京都,品川区,平塚２丁目４番２６号リビオメゾン戸越銀座１００４,,13,109,1420051,,,,,,,2024-05-17,1,,,,,スターセールズ,0
2224,8010903009063,新規,0,2024-05-17,2024-05-17,ＡＴＬＳ合同会社,,合同会社,東京都,世田谷区,三軒茶屋２丁目１７番１１－１００１,,13,112,1540024,,,,,,,2024-05-17,1,,,,,アトラス,0
2238,8011103014440,新規,0,2024-05-17,2024-05-17,まる合同会社,,合同会社,東京都,新宿区,西新宿６丁目２０番７－８１３号,,13,104,1600023,,,,,,,2024-05-17,1,,,,,マル,0
2243,8011501030691,新規,0,2024-05-17,2024-05-17,株式会社アソードゲームス,,株式会社,東京都,荒川区,西日暮里１丁目２３－８山本ハイツ１０３,,13,118,1160013,,,,,,,2024-05-17,1,,,,,アソードゲームス,0
2245,8011801044210,新規,0,2024-05-17,2024-05-17,ＭＦＧ株式会社,,株式会社,東京都,葛飾区,亀有３丁目１３番２善ビル６１７号,,13,122,1250061,,,,,,,2024-05-17,1,,,,,エムエフジー,0
2246,8011801044243,新規,0,2024-05-17,2024-05-17,株式会社太陽工業,,株式会社,東京都,足立区,六木１丁目１０番２号,,13,121,1210052,,,,,,,2024-05-17,1,,,,,タイヨウコウギョウ,0
2250,8012701018262,新規,0,2024-05-17,2024-05-17,株式会社ＴＯＰ　ＲＵＮＮＥＲ,,株式会社,東京都,東久留米市,中央町６丁目８番３９号,,13,222,2030054,,,,,,,2024-05-17,1,,,,,トップランナー,0
2251,8012803003402,新規,0,2024-05-17,2024-05-17,合同会社Ｗｅｌｌ‐ｂｅｉｎｇ,,合同会社,東京都,昭島市,緑町４丁目２－１７－２０２,,13,207,1960004,,,,,,,2024-05-17,1,,,,,,0
2257,8020001157251,新規,0,2024-05-17,2024-05-17,河合建築株式会社,,株式会社,神奈川県,横浜市鶴見区,東寺尾３丁目７番１４－４０５号,,14,101,2300077,,,,,,,2024-05-17,1,,,,,カワイケンチク,0
2258,8020001157268,新規,0,2024-05-17,2024-05-17,株式会社０３８,,株式会社,神奈川県,横浜市港北区,日吉６丁目５番１４号メゾンアイレット１０２号,,14,109,2230061,,,,,,,2024-05-17,1,,,,,オソバ,0
2271,8021001082258,新規,0,2024-05-17,2024-05-17,株式会社ＶＣ　ＮＯＶＥＬ,,株式会社,神奈川県,藤沢市,湘南台４丁目５番地の１２第二弥生ハイツ１０１,,14,205,2520804,,,,,,,2024-05-17,1,,,,,ヴィシーノーベル,0
2272,8021005013110,新規,0,2024-05-17,2024-05-17,一般社団法人自然環境管理サポートセンター,,その他の設立登記法人,神奈川県,伊勢原市,東成瀬３１番１９,,14,214,2591117,,,,,,,2024-05-17,1,,,,,シゼンカンキョウカンリサポートセンター,0
2276,8030001160411,新規,0,2024-05-17,2024-05-17,株式会社島田建設,,株式会社,埼玉県,さいたま市西区,大字島根１６６番地３,,11,101,3310054,,,,,,,2024-05-17,1,,,,,シマダケンセツ,0
2277,8030001160436,新規,0,2024-05-17,2024-05-17,株式会社ティーエスアールＨＤ,,株式会社,埼玉県,さいたま市北区,宮原町１丁目８１５番地３,,11,102,3310812,,,,,,,2024-05-17,1,,,,,ティーエスアールホールディングス,0
2281,8030003024135,新規,0,2024-05-17,2024-05-17,合同会社Ｓｈｉｋａ,,合同会社,埼玉県,所沢市,西所沢２丁目３番１０－３０６号,,11,208,3591144,,,,,,,2024-05-17,1,,,,,シカ,0
2287,8040001133630,新規,0,2024-05-17,2024-05-17,株式会社ＡＪ,,株式会社,千葉県,千葉市花見川区,花園２丁目８番８号グランレーベ石孝１０１号,,12,102,2620025,,,,,,,2024-05-17,1,,,,,エージェイ,0
2290,8040005022359,新規,0,2024-05-17,2024-05-17,一般社団法人つながりラボ,,その他の設立登記法人,千葉県,佐倉市,城１８８番１６５,,12,212,2850815,,,,,,,2024-05-17,1,,,,,ツナガリラボ,0
2299,8060001037103,新規,0,2024-05-17,2024-05-17,株式会社ＫＤＫ,,株式会社,栃木県,宇都宮市,北一の沢町８番６号,,09,201,3200048,,,,,,,2024-05-17,1,,,,,ケイディーケイ,0
2301,8060003005074,新規,0,2024-05-17,2024-05-17,長豊合同会社,,合同会社,栃木県,塩谷郡塩谷町,大字熊ノ木１１８３－２９,,09,384,3292213,,,,,,,2024-05-17,1,,,,,チョウホウ,0
2302,8070001041756,新規,0,2024-05-17,2024-05-17,輝建株式会社,,株式会社,群馬県,沼田市,井土上町２０８番地１,,10,206,3780035,,,,,,,2024-05-17,1,,,,,コウケン,0
2304,8070003005420,新規,0,2024-05-17,2024-05-17,合同会社ＡＬＡＩＮ,,合同会社,群馬県,前橋市,千代田町５丁目１３番１７号,,10,201,3710022,,,,,,,2024-05-17,1,,,,,アラン,0
2305,8080001026310,新規,0,2024-05-17,2024-05-17,株式会社ふぉーゆー薬局,,株式会社,静岡県,静岡市駿河区,中島４８２番地の１ザ・エンブル・サウス静岡２０３号,,22,102,4228046,,,,,,,2024-05-17,1,,,,,フォーユーヤッキョク,0
2306,8080005007612,新規,0,2024-05-17,2024-05-17,特定非営利活動法人しずおか音楽文化支援協議会,,その他の設立登記法人,静岡県,静岡市葵区,呉服町１丁目３０番地札の辻クロス６０６号,,22,101,4200031,,,,,,,2024-05-17,1,,,,,シズオカオンガクブンカシエンキョウギカイ,0
2312,8080403005011,新規,0,2024-05-17,2024-05-17,合同会社プライムリンク,,合同会社,静岡県,浜松市中央区,中沢町４３番１４号,,22,138,4300904,,,,,,,2024-05-17,1,,,,,プライムリンク,0
2315,8100003007537,新規,0,2024-05-17,2024-05-17,合同会社Ｃｏｍ‐ｔａｃｔ,,合同会社,長野県,茅野市,城山１－４,,20,214,3910004,,,,,,,2024-05-17,1,,,,,コムタクト,0
2325,8120001264888,新規,0,2024-05-17,2024-05-17,大元株式会社,,株式会社,大阪府,大阪市東成区,大今里西３丁目１８番２２－２０５号,,27,115,5370014,,,,,,,2024-05-17,1,,,,,ダイゲン,0
2326,8120001264913,新規,0,2024-05-17,2024-05-17,ＰＥＲＬＥ株式会社,,株式会社,大阪府,大阪市北区,中津１丁目６番２９－２６０３号,,27,127,5310071,,,,,,,2024-05-17,1,,,,,ペルル,0
2327,8120001264962,新規,0,2024-05-17,2024-05-17,株式会社全正恵,,株式会社,大阪府,大阪市生野区,巽北１丁目７番３号２０１号室,00134792,27,116,5440004,,,,,,,2024-05-17,1,,,,,ゼンセイケイ,0
2328,8120001264979,新規,0,2024-05-17,2024-05-17,ＰｅｔＳｎｏｗｙ株式会社,,株式会社,大阪府,大阪市中央区,平野町１丁目６番８－７０８号,,27,128,5410046,,,,,,,2024-05-17,1,,,,,ペットスノーイー,0
2329,8120001265069,新規,0,2024-05-17,2024-05-17,株式会社ＴＭＴ,,株式会社,大阪府,大阪市浪速区,難波中１丁目９番１０号８階,,27,111,5560011,,,,,,,2024-05-17,1,,,,,ティーエムティー,0
2330,8120001265135,新規,0,2024-05-17,2024-05-17,ゴールドハウス株式会社,,株式会社,大阪府,大阪市住吉区,万代４丁目１３番１５号,,27,120,5580055,,,,,,,2024-05-17,1,,,,,ゴールドハウス,0
2333,8120003026618,新規,0,2024-05-17,2024-05-17,合同会社ＴＭＲ,,合同会社,大阪府,守口市,梅町１１－５号１０３号室,,27,209,5700087,,,,,,,2024-05-17,1,,,,,ティーエムアール,0
2334,8120005024330,新規,0,2024-05-17,2024-05-17,特定非営利活動法人Ｆｕｔｕｒｅ　Ｅｄｕｃａｔｉｏｎ　Ｓｕｐｐｏｒｔ,,その他の設立登記法人,大阪府,大阪市北区,西天満１丁目２番５号,,27,127,5300047,,,,,,,2024-05-17,1,,,,,フューチャーエデュケーションサポート,0
2341,8120101069551,新規,0,2024-05-17,2024-05-17,株式会社南珠,,株式会社,大阪府,堺市中区,深井清水町１８０４番地１６,,27,142,5998273,,,,,,,2024-05-17,1,,,,,ナンジュ,0
2348,8120901049182,新規,0,2024-05-17,2024-05-17,株式会社シダーワン,,株式会社,大阪府,豊中市,東泉丘２丁目１４番２０－５０６号,,27,203,5610861,,,,,,,2024-05-17,1,,,,,シダーワン,0
2353,8130001077083,新規,0,2024-05-17,2024-05-17,谷口林業株式会社,,株式会社,京都府,京都市右京区,太秦安井北御所町６番地の１,,26,108,6168064,,,,,,,2024-05-17,1,,,,,タニグチリンギョウ,0
2356,8140001134445,新規,0,2024-05-17,2024-05-17,Ｍテクノロジー株式会社,,株式会社,兵庫県,神戸市西区,伊川谷町前開１０４３－１,,28,111,6512108,,,,,,,2024-05-17,1,,,,,エムテクノロジー,0
2361,8140003020593,新規,0,2024-05-17,2024-05-17,合同会社ＢＡＬ　ＯＮＥ,,合同会社,兵庫県,姫路市,神子岡前３丁目１１－１５ハビテーション今宿１Ｆ,,28,201,6700055,,,,,,,2024-05-17,1,,,,,バルワン,0
2364,8150003003250,新規,0,2024-05-17,2024-05-17,壮有幸産合同会社,,合同会社,奈良県,香芝市,真美ヶ丘７丁目１１番１８号,,29,210,6390223,,,,,,,2024-05-17,1,,,,,ソウユウコウサン,0
2366,8160001025923,新規,0,2024-05-17,2024-05-17,株式会社ＳＵＮＲＩＳＥ,,株式会社,滋賀県,大津市,今堅田２丁目２５番３５号,,25,201,5200241,,,,,,,2024-05-17,1,,,,,サンライズ,0
2367,8160005011309,新規,0,2024-05-17,2024-05-17,特定非営利活動法人湖族の郷,,その他の設立登記法人,滋賀県,大津市,本堅田５丁目９番１５号,,25,201,5200242,,,,,,,2024-05-17,1,,,,,コゾクノサト,0
2368,8170001018141,新規,0,2024-05-17,2024-05-17,株式会社イホリ,,株式会社,和歌山県,和歌山市,中島５－５,,30,201,6410006,,,,,,,2024-05-17,1,,,,,イホリ,0
2369,8170003002044,新規,0,2024-05-17,2024-05-17,合同会社スモールテック,,合同会社,和歌山県,海南市,下津町方２１３番地４５,,30,202,6490111,,,,,,,2024-05-17,1,,,,,スモールテック,0
2378,8180001161485,新規,0,2024-05-17,2024-05-17,株式会社Ｕｐ　ｄａｔｅ,,株式会社,愛知県,江南市,今市場町高根８３番地ＢＡＲＰｉｅｃｅ２Ｆ,,23,217,4838183,,,,,,,2024-05-17,1,,,,,アップデート,0
2379,8180001161502,新規,0,2024-05-17,2024-05-17,株式会社きらり研究所,,株式会社,愛知県,名古屋市中区,栄２丁目２番１号広小路伏見中駒ビル５階,,23,106,4600008,,,,,,,2024-05-17,1,,,,,キラリケンキュウショ,0
2391,8180301038648,新規,0,2024-05-17,2024-05-17,株式会社山本工業,,株式会社,愛知県,豊橋市,三ノ輪町５丁目３番地２,,23,201,4400838,,,,,,,2024-05-17,1,,,,,ヤマモトコウギョウ,0
2393,8190001031357,新規,0,2024-05-17,2024-05-17,株式会社ＳＨＯＷ,,株式会社,三重県,四日市市,楠町本郷１６１９番地１４,,24,202,5100106,,,,,,,2024-05-17,1,,,,,ショウ,0
2396,8200003006347,新規,0,2024-05-17,2024-05-17,合同会社キャリアの相談室ムコリッタ,,合同会社,岐阜県,高山市,西之一色町１丁目７２イエロームーン２Ｆ,,21,203,5060031,,,,,,,2024-05-17,1,,,,,キャリアノソウダンシツムコリッタ,0
2403,8240001063213,新規,0,2024-05-17,2024-05-17,株式会社ＨＡＫＵＳＥＮ,,株式会社,広島県,広島市佐伯区,三筋２丁目７番４１‐５０３号,,34,108,7315144,,,,,,,2024-05-17,1,,,,,ハクセン,0
2404,8240001063221,新規,0,2024-05-17,2024-05-17,コムセック株式会社,,株式会社,広島県,福山市,駅家町大字江良１１番地１,,34,207,7201141,,,,,,,2024-05-17,1,,,,,コムセック,0
2405,8240001063246,新規,0,2024-05-17,2024-05-17,株式会社グローバルフィールド,,株式会社,広島県,廿日市市,佐方２丁目３番２７号,,34,213,7380001,,,,,,,2024-05-17,1,,,,,グローバルフィールド,0
2408,8240003006665,新規,0,2024-05-17,2024-05-17,合同会社ＭＩＢＵＲＯ,,合同会社,広島県,広島市安佐南区,相田２丁目１５番３１－１０１号,,34,105,7310141,,,,,,,2024-05-17,1,,,,,ミブロ,0
2411,8260001039070,新規,0,2024-05-17,2024-05-17,ＡＲＲＯＷ　ｅｘｐｒｅｓｓ株式会社,,株式会社,岡山県,浅口郡里庄町,大字里見５９７６番地３,,33,445,7190301,,,,,,,2024-05-17,1,,,,,アロウエクスプレス,0
2421,8290003015265,新規,0,2024-05-17,2024-05-17,合同会社Ｃｏｎｎｅｃｔ７,,合同会社,福岡県,福岡市中央区,天神２丁目３番１０号天神パインクレスト７１９号,,40,133,8100001,,,,,,,2024-05-17,1,,,,,コネクトセブン,0
2422,8290003015323,新規,0,2024-05-17,2024-05-17,合同会社ＲＣＴ,,合同会社,福岡県,福岡市博多区,千代１丁目７番１－１３０４号リアン・シエル・ブルー東公園,,40,132,8120044,,,,,,,2024-05-17,1,,,,,アールシーティー,0
2427,8310001019018,新規,0,2024-05-17,2024-05-17,株式会社ナナイロ,,株式会社,長崎県,大村市,木場１丁目１０３６番地１４,,42,205,8560046,,,,,,,2024-05-17,1,,,,,ナナイロ,0
2428,8320003004371,新規,0,2024-05-17,2024-05-17,合同会社別府はなみずき,,合同会社,大分県,別府市,大字鉄輪２７５番地の１,,44,202,8740000,,,,,,,2024-05-17,1,,,,,ベップハナミズキ,0
2429,8330001032084,新規,0,2024-05-17,2024-05-17,株式会社Ｈ・Ｍラボ,,株式会社,熊本県,熊本市東区,若葉６丁目３番３８号,,43,102,8612103,,,,,,,2024-05-17,1,,,,,エイチエムラボ,0
2430,8330005010796,新規,0,2024-05-17,2024-05-17,一般社団法人Ｋ．Ｕ．Ｍ．Ａｔｈｌｅｔｉｃｓ,,その他の設立登記法人,熊本県,球磨郡錦町,大字西３６０４番地４２,,43,501,8680303,,,,,,,2024-05-17,1,,,,,ケーユーエムアスレチックス,0
2438,8360001033666,新規,0,2024-05-17,2024-05-17,株式会社八和企画,,株式会社,沖縄県,石垣市,字石垣１４９５番地,,47,207,9070023,,,,,,,2024-05-17,1,,,,,ハチワキカク,0
2439,8360001033699,新規,0,2024-05-17,2024-05-17,株式会社シティホームズ沖縄,,株式会社,沖縄県,那覇市,久茂地１丁目４番８号,,47,201,9000015,,,,,,,2024-05-17,1,,,,,シティホームズオキナワ,0
2441,8370003006594,新規,0,2024-05-17,2024-05-17,トリニティ・イノベーション合同会社,,合同会社,宮城県,仙台市青葉区,大町２丁目２－２ヴィラフォレスタ６０１,,04,101,9800804,,,,,,,2024-05-17,1,,,,,トリニティイノベーション,0
2447,8380001034547,新規,0,2024-05-17,2024-05-17,株式会社ＥＫブライト,,株式会社,福島県,岩瀬郡鏡石町,中央１１６番地,,07,342,9690404,,,,,,,2024-05-17,1,,,,,イーケーブライト,0
2455,8410003003926,新規,0,2024-05-17,2024-05-17,合同会社はまや,,合同会社,秋田県,潟上市,天王字下浜山１５６番２,,05,211,0100201,,,,,,,2024-05-17,1,,,,,ハマヤ,0
2456,8420001018727,新規,0,2024-05-17,2024-05-17,株式会社セキュリティトラスト,,株式会社,青森県,八戸市,小中野８丁目６番２０号,,02,203,0310802,,,,,,,2024-05-17,1,,,,,セキュリティトラスト,0
2459,8430001091830,新規,0,2024-05-17,2024-05-17,株式会社スレッド,,株式会社,北海道,札幌市東区,北二十一条東１９丁目１番１３号,,01,103,0650021,,,,,,,2024-05-17,1,,,,,スレッド,0
2461,8430003016348,新規,0,2024-05-17,2024-05-17,インセクテック合同会社,,合同会社,北海道,札幌市東区,苗穂町１２丁目１番１号,,01,103,0650043,,,,,,,2024-05-17,1,,,,,インセクテック,0
2465,8460001005903,新規,0,2024-05-17,2024-05-17,株式会社ヴェックス,,株式会社,北海道,川上郡標茶町,字阿歴内原野基線１３５番地１９,,01,664,0882272,,,,,,,2024-05-17,1,,,,,ヴェックス,0
2467,8470001020208,新規,0,2024-05-17,2024-05-17,株式会社スパーキー,,株式会社,香川県,香川郡直島町,１９１５番地,,37,364,7613110,,,,,,,2024-05-17,1,,,,,スパーキー,0
2468,8480001012476,新規,0,2024-05-17,2024-05-17,株式会社ＳＧ設備,,株式会社,徳島県,阿波市,阿波町居屋敷８６番地１,,36,206,7711705,,,,,,,2024-05-17,1,,,,,エスジーセツビ,0
2471,8500001025640,新規,0,2024-05-17,2024-05-17,株式会社栄彩,,株式会社,愛媛県,松山市,福音寺町７４３番地,,38,201,7900921,,,,,,,2024-05-17,1,,,,,エイサイ,0
2472,8500003003248,新規,0,2024-05-17,2024-05-17,ＤＯＣＵ合同会社,,合同会社,愛媛県,上浮穴郡久万高原町,菅生２番耕地１３２６番地１,,38,386,7911205,,,,,,,2024-05-17,1,,,,,ドキュ,0
2478,9010001244891,新規,0,2024-05-17,2024-05-17,株式会社ＴＡＧ,,株式会社,東京都,中央区,東日本橋２丁目２８番４号日本橋ＣＥＴビル２階,,13,102,1030004,,,,,,,2024-05-17,1,,,,,タグ,0
2479,9010001244900,新規,0,2024-05-17,2024-05-17,株式会社Ｊｉｎａ,,株式会社,東京都,中央区,日本橋本石町４丁目５－８京央会館３階ル．ヲ号室,,13,102,1030021,,,,,,,2024-05-17,1,,,,,ジーナ,0
2480,9010001244925,新規,0,2024-05-17,2024-05-17,ペイシャンスゴルフクラブ株式会社,,株式会社,東京都,中央区,銀座１丁目６番１１号土志田ビルディング３Ｆ,,13,102,1040061,,,,,,,2024-05-17,1,,,,,ペイシャンスゴルフクラブ,0
2481,9010001244933,新規,0,2024-05-17,2024-05-17,Ｐａｒａｐｈｒａｓｅ株式会社,,株式会社,東京都,中央区,銀座１丁目１２－４Ｎ＆ＥＢＬＤ．７Ｆ,,13,102,1040061,,,,,,,2024-05-17,1,,,,,パラフレイズ,0
2482,9010001244966,新規,0,2024-05-17,2024-05-17,株式会社御山グループ,,株式会社,東京都,中央区,築地２丁目２番８号Ｍ．Ｂａｌａｎｃｅ＋ＧｉｎｚａＥａｓｔ５階,,13,102,1040045,,,,,,,2024-05-17,1,,,,,ミヤマグループ,0
2483,9010001244974,新規,0,2024-05-17,2024-05-17,ＡＤＴ株式会社,,株式会社,東京都,千代田区,外神田１丁目１番１３号万世橋出張所・区民館５階ＣＴＩＢ５０１,,13,101,1010021,,,,,,,2024-05-17,1,,,,,エーディーティー,0
2485,9010003043714,新規,0,2024-05-17,2024-05-17,Ｓｏｎｇ合同会社,,合同会社,東京都,中央区,京橋３丁目１番１号１４階,,13,102,1040031,,,,,,,2024-05-17,1,,,,,ソング,0
2486,9010005038316,新規,0,2024-05-17,2024-05-17,サムライ特定目的会社,,その他の設立登記法人,東京都,千代田区,霞が関３丁目２番６号東京倶楽部ビルディング１１階,,13,101,1000013,,,,,,,2024-05-17,1,,,,,サムライ,0
2492,9010401182270,新規,0,2024-05-17,2024-05-17,株式会社ＭＡＶＩＥ,,株式会社,東京都,港区,東麻布３丁目７番１３号ＭＤ麻布１Ｆ,,13,103,1060044,,,,,,,2024-05-17,1,,,,,メヴィー,0
2493,9010401182436,新規,0,2024-05-17,2024-05-17,株式会社エムザスＩＩＩ,,株式会社,東京都,港区,西麻布３丁目８番２－１７０２号,,13,103,1060031,,,,,,,2024-05-17,1,,,,,エムザススリー,0
2494,9010401182519,新規,0,2024-05-17,2024-05-17,株式会社Ｎ３,,株式会社,東京都,港区,芝浦４丁目１０番１－２０１６号,,13,103,1080023,,,,,,,2024-05-17,1,,,,,エヌスリー,0
2497,9010501052258,新規,0,2024-05-17,2024-05-17,株式会社ネクサライズコンサルティング,,株式会社,東京都,台東区,北上野２丁目２０番１４－７０３号ドラゴンマンション上野壱番館,,13,106,1100014,,,,,,,2024-05-17,1,,,,,ネクサライズコンサルティング,0
2498,9010501052290,新規,0,2024-05-17,2024-05-17,Ｍｏｆｕｈｙｇｇｅ株式会社,,株式会社,東京都,台東区,西浅草２丁目１７番５号ラシクラス西浅草２０１,,13,106,1110035,,,,,,,2024-05-17,1,,,,,モフヒュッゲ,0
2499,9010503007441,新規,0,2024-05-17,2024-05-17,ＵＲＢＡＮ２８　Ｊａｐａｎ合同会社,,合同会社,東京都,台東区,東上野３丁目１８番１号ＴＨＥＢＬＯＯＭＵＥＮＯ３０６号室,,13,106,1100015,,,,,,,2024-05-17,1,,,,,アーバンニジュウハチジャパン,0
2507,9010903009070,新規,0,2024-05-17,2024-05-17,ＣＩＣＡＤＡ合同会社,,合同会社,東京都,世田谷区,上北沢４丁目２０番２６－３０１号,,13,112,1560057,,,,,,,2024-05-17,1,,,,,シカダ,0
2509,9010905004623,新規,0,2024-05-17,2024-05-17,一般社団法人ウェルエイジングデザインｒａｆｔｅｌ,,その他の設立登記法人,東京都,世田谷区,船橋１丁目３０番１４号,,13,112,1560055,,,,,,,2024-05-17,1,,,,,ウェルエイジングデザインラフテル,0
2517,9011101107146,新規,0,2024-05-17,2024-05-17,ＶＣＴ株式会社,,株式会社,東京都,新宿区,新宿３丁目１１－１２,,13,104,1600022,,,,,,,2024-05-17,1,,,,,ブイシーティー,0
2518,9011101107352,新規,0,2024-05-17,2024-05-17,株式会社Ｅ‐ＺＰ,,株式会社,東京都,新宿区,西新宿３丁目３番１３号西新宿水間ビル６階,,13,104,1600023,,,,,,,2024-05-17,1,,,,,イーゼットピー,0
2519,9011101107369,新規,0,2024-05-17,2024-05-17,株式会社５１５０,,株式会社,東京都,新宿区,西新宿４丁目２９番１０－１０４号エクセル１,,13,104,1600023,,,,,,,2024-05-17,1,,,,,フィフティーワンフィフティー,0
2520,9011201025462,新規,0,2024-05-17,2024-05-17,株式会社３Ｓ　Ｕｎｌｉｍｉｔｅｄ,,株式会社,東京都,中野区,鷺宮５丁目２０番１５号,,13,114,1650032,,,,,,,2024-05-17,1,,,,,スリーエスアンリミテッド,0
2521,9011201025479,新規,0,2024-05-17,2024-05-17,ＬＯＣＡＳ株式会社,,株式会社,東京都,中野区,若宮２丁目５番２号コートハウス都立家政２０４,,13,114,1650033,,,,,,,2024-05-17,1,,,,,ロカス,0
2526,9011401026095,新規,0,2024-05-17,2024-05-17,株式会社融栄建託,,株式会社,東京都,板橋区,大山東町３２－１８ルイ・ステージ大山１１０１,,13,119,1730014,,,,,,,2024-05-17,1,,,,,ユウエイケンタク,0
2528,9011501030625,新規,0,2024-05-17,2024-05-17,株式会社バンブースト,,株式会社,東京都,北区,浮間１丁目１番１４号リムジンビル２１６,,13,117,1150051,,,,,,,2024-05-17,1,,,,,バンブースト,0
2532,9011603004345,新規,0,2024-05-17,2024-05-17,合同会社ＨＯＮＤＡ不動産,,合同会社,東京都,練馬区,高松１丁目４２番１８－４０１号,,13,120,1790075,,,,,,,2024-05-17,1,,,,,ホンダフドウサン,0
2537,9011803006249,新規,0,2024-05-17,2024-05-17,ごちそう屋合同会社,,合同会社,東京都,足立区,舎人６丁目５番１１号,,13,121,1210831,,,,,,,2024-05-17,1,,,,,ゴチソウヤ,0
2547,9012803003401,新規,0,2024-05-17,2024-05-17,まんまるあーす合同会社,,合同会社,東京都,国立市,東２丁目１７番地の８１,,13,215,1860002,,,,,,,2024-05-17,1,,,,,マンマルアース,0
2558,9020001157291,新規,0,2024-05-17,2024-05-17,Ｈｉｇｈ　Ｌｉｆｅ　Ｇｒｏｕｐ株式会社,,株式会社,神奈川県,川崎市宮前区,小台２丁目８番地１０フェリス宮前平ＩＩ３０２,00134798,14,136,2160007,,,,,,,2024-05-17,1,,,,,ハイライフグループ,0
2564,9020003026123,新規,0,2024-05-17,2024-05-17,合同会社ヤマモト,,合同会社,神奈川県,横浜市旭区,今宿東町７３０マスコットヒルズ五番館１０２号,,14,112,2410032,,,,,,,2024-05-17,1,,,,,ヤマモト,0
2566,9021001082199,新規,0,2024-05-17,2024-05-17,株式会社ハレオンナ,,株式会社,神奈川県,茅ヶ崎市,中海岸１丁目１－６３－３Ｆ,,14,207,2530055,,,,,,,2024-05-17,1,,,,,ハレオンナ,0
2577,9030001160393,新規,0,2024-05-17,2024-05-17,ルミエールラウンジ株式会社,,株式会社,埼玉県,ふじみ野市,霞ケ丘３丁目１番２４棟９０６号,,11,245,3560006,,,,,,,2024-05-17,1,,,,,ルミエールラウンジ,0
2578,9030001160435,新規,0,2024-05-17,2024-05-17,株式会社ＳＡＮＳ,,株式会社,埼玉県,八潮市,大瀬６丁目９番７号ＩＫビル４０２,,11,234,3400822,,,,,,,2024-05-17,1,,,,,サンズ,0
2581,9030003024299,新規,0,2024-05-17,2024-05-17,Ｊｏｕｒｎａｌｉｓｍ　Ｅｄｇｅ合同会社,,合同会社,埼玉県,川口市,元郷１丁目１３番１０号,,11,203,3320011,,,,,,,2024-05-17,1,,,,,ジャーナリズムエッジ,0
2582,9030003024332,新規,0,2024-05-17,2024-05-17,合同会社シロのある暮らし,,合同会社,埼玉県,行田市,桜町３丁目１６番１９号,,11,206,3610022,,,,,,,2024-05-17,1,,,,,シロノアルクラシ,0
2589,9040001054818,新規,0,2024-05-17,2024-05-17,株式会社吉野重機,00134750,株式会社,千葉県,市原市,北国分寺台５丁目５番地２０,,12,219,2900071,,,,,,,2024-05-17,1,,,,,ヨシノジュウキ,0
2591,9040001133530,新規,0,2024-05-17,2024-05-17,ＣＳ　ＴＲＡＤＩＮＧ株式会社,,株式会社,千葉県,山武市,松尾町山室字宮小路２３２番６,,12,237,2891501,,,,,,,2024-05-17,1,,,,,シーエストレーディング,0
2592,9040001133646,新規,0,2024-05-17,2024-05-17,エナジースタッフ東北東関東株式会社,,株式会社,千葉県,千葉市中央区,中央港１丁目９番５号,,12,101,2600024,,,,,,,2024-05-17,1,,,,,エナジースタッフトウホクヒガシカントウ,0
2595,9050001054775,新規,0,2024-05-17,2024-05-17,株式会社Ｃ＆Ｔｃｏｍｐａｎｙ,,株式会社,茨城県,つくばみらい市,谷井田２１７８番地３,,08,235,3002337,,,,,,,2024-05-17,1,,,,,シーアンドティカンパニー,0
2597,9060001037110,新規,0,2024-05-17,2024-05-17,株式会社Ｋａｚｅ,,株式会社,栃木県,宇都宮市,鶴田町１３３－２４,,09,201,3200851,,,,,,,2024-05-17,1,,,,,カゼ,0
2602,9070001041763,新規,0,2024-05-17,2024-05-17,ＪＫＴ株式会社,,株式会社,群馬県,高崎市,倉賀野町４１０６番地１,,10,202,3701201,,,,,,,2024-05-17,1,,,,,ジェイケイティ,0
2604,9080101024758,新規,0,2024-05-17,2024-05-17,ミンフィニティ株式会社,,株式会社,静岡県,沼津市,大手町１丁目１番３号沼津産業ビル９Ｆ,,22,203,4100801,,,,,,,2024-05-17,1,,,,,ミンフィニティ,0
2614,9100001037444,新規,0,2024-05-17,2024-05-17,石坂建築株式会社,,株式会社,長野県,上田市,御所２０５番地２,,20,203,3860033,,,,,,,2024-05-17,1,,,,,イシザカケンチク,0
2616,9110003005398,新規,0,2024-05-17,2024-05-17,合同会社アップデート,,合同会社,新潟県,上越市,南城町４丁目２番４４号,,15,222,9430837,,,,,,,2024-05-17,1,,,,,アップデート,0
2628,9120001264755,新規,0,2024-05-17,2024-05-17,株式会社プレステージパートナーズ,,株式会社,大阪府,大阪市天王寺区,東高津町１１番７号上本町グランディムビル８０３,,27,109,5430021,,,,,,,2024-05-17,1,,,,,プレステージパートナーズ,0
2629,9120001264945,新規,0,2024-05-17,2024-05-17,帝冠株式会社,,株式会社,大阪府,大阪市北区,天満４丁目１４番４号ストーク天神ハイム１００２号,,27,127,5300043,,,,,,,2024-05-17,1,,,,,テイカン,0
2630,9120001265002,新規,0,2024-05-17,2024-05-17,日新バス株式会社,,株式会社,大阪府,大阪市中央区,船場中央２丁目３－６－２０９号,,27,128,5410055,,,,,,,2024-05-17,1,,,,,ニッシンバス,0
2631,9120001265084,新規,0,2024-05-17,2024-05-17,株式会社エボシ,,株式会社,大阪府,大阪市西区,南堀江４丁目８番２－８０８号,,27,106,5500015,,,,,,,2024-05-17,1,,,,,エボシ,0
2632,9120001265092,新規,0,2024-05-17,2024-05-17,そよかぜ株式会社,,株式会社,大阪府,大阪市淀川区,西宮原２丁目６番１６号,,27,123,5320004,,,,,,,2024-05-17,1,,,,,ソヨカゼ,0
2636,9120005024321,新規,0,2024-05-17,2024-05-17,一般社団法人ＡｍｏＲｕｓＴ,,その他の設立登記法人,大阪府,大阪市北区,中津２丁目８番Ｃ－１３１６号,,27,127,5310071,,,,,,,2024-05-17,1,,,,,アモラスト,0
2639,9120101069617,新規,0,2024-05-17,2024-05-17,株式会社原出建築事務所,,株式会社,大阪府,堺市東区,引野町１丁７番地１４２,,27,143,5998104,,,,,,,2024-05-17,1,,,,,ハラデケンチクジムショ,0
2645,9122001038098,新規,0,2024-05-17,2024-05-17,訪問看護ステーションＦａｍｉｌｌｙ株式会社,,株式会社,大阪府,大東市,新町２－１６メゾンベル４０１,,27,218,5740037,,,,,,,2024-05-17,1,,,,,ホウモンカンゴステーションファミリー,0
2654,9140001134460,新規,0,2024-05-17,2024-05-17,株式会社ビーブライト,,株式会社,兵庫県,西宮市,丸橋町４番８号,,28,204,6620831,,,,,,,2024-05-17,1,,,,,ビーブライト,0
2655,9140001134485,新規,0,2024-05-17,2024-05-17,株式会社まくり,,株式会社,兵庫県,尼崎市,武庫之荘本町３丁目２０番２６－１０３号,,28,202,6610031,,,,,,,2024-05-17,1,,,,,マクリ,0
2658,9140005027082,新規,0,2024-05-17,2024-05-17,一般社団法人日本カレーうどん協会,,その他の設立登記法人,兵庫県,西宮市,山口町下山口４丁目１０番２２号,,28,204,6511412,,,,,,,2024-05-17,1,,,,,ニホンカレーウドンキョウカイ,0
2662,9160001025930,新規,0,2024-05-17,2024-05-17,株式会社藤野総合防災,,株式会社,滋賀県,犬上郡豊郷町,大字高野瀬５２３番地２,,25,441,5291173,,,,,,,2024-05-17,1,,,,,フジノソウゴウボウサイ,0
2663,9160005011308,新規,0,2024-05-17,2024-05-17,一般社団法人ＦＳＫインターナショナル,,その他の設立登記法人,滋賀県,高島市,今津町今津２２９番地,,25,212,5201621,,,,,,,2024-05-17,1,,,,,エフエスケイインターナショナル,0
2673,9180001161443,新規,0,2024-05-17,2024-05-17,株式会社Ｗｈｏｌｅｎｅｓｓ,,株式会社,愛知県,名古屋市中村区,名駅３丁目４－１０アルティメイト名駅１ｓｔ２階,,23,105,4500002,,,,,,,2024-05-17,1,,,,,ホールネス,0
2674,9180001161492,新規,0,2024-05-17,2024-05-17,株式会社ＹＵＳＰＯ,,株式会社,愛知県,愛西市,東保町東河原５５１番地,,23,232,4960912,,,,,,,2024-05-17,1,,,,,ユースポ,0
2675,9180001161625,新規,0,2024-05-17,2024-05-17,株式会社Ｕｎｉｃｏ,,株式会社,愛知県,名古屋市西区,赤城町１２４－２,,23,104,4520813,,,,,,,2024-05-17,1,,,,,ユニコ,0
2680,9180003026719,新規,0,2024-05-17,2024-05-17,Ｋｅｎｂｉ合同会社,,合同会社,愛知県,名古屋市中区,千代田２丁目２５番１３号ダイアパレス上前津３０３号,,23,106,4600012,,,,,,,2024-05-17,1,,,,,ケンビ,0
2681,9180003026743,新規,0,2024-05-17,2024-05-17,合同会社スターブルホールディングス,,合同会社,愛知県,名古屋市中区,栄４丁目１６番１０号カスタリア栄９０４号,,23,106,4600008,,,,,,,2024-05-17,1,,,,,スターブルホールディングス,0
2682,9180003026784,新規,0,2024-05-17,2024-05-17,合同会社居守不動産,,合同会社,愛知県,名古屋市熱田区,四番１丁目６－２６ヴィラロイヤル４０１号,,23,109,4560051,,,,,,,2024-05-17,1,,,,,イモリフドウサン,0
2683,9180301038647,新規,0,2024-05-17,2024-05-17,株式会社Ｋ‐ｔｒｅｅ,,株式会社,愛知県,碧南市,緑町３丁目１１１番地,,23,209,4470041,,,,,,,2024-05-17,1,,,,,ケーツリー,0
2685,9190005011949,新規,0,2024-05-17,2024-05-17,一般社団法人環境とこどものみらい総合研究所,,その他の設立登記法人,三重県,松阪市,船江町７９１番地４６,,24,204,5150812,,,,,,,2024-05-17,1,,,,,カンキョウトコドモノミライソウゴウケンキュウショ,0
2687,9200001042509,新規,0,2024-05-17,2024-05-17,株式会社ヤネスト,,株式会社,岐阜県,可児郡御嵩町,中２５１４番地３,,21,521,5050121,,,,,,,2024-05-17,1,,,,,ヤネスト,0
2688,9200001042525,新規,0,2024-05-17,2024-05-17,株式会社ハッピーロード,,株式会社,岐阜県,郡上市,八幡町相生１１０６番地９,,21,219,5014236,,,,,,,2024-05-17,1,,,,,ハッピーロード,0
2690,9210003001791,新規,0,2024-05-17,2024-05-17,ＦＵＬＬＢＥＴ合同会社,,合同会社,福井県,福井市,二の宮４丁目１番１０号,,18,201,9100015,,,,,,,2024-05-17,1,,,,,フルベット,0
2691,9220003003754,新規,0,2024-05-17,2024-05-17,合同会社Ａ’Ｍ　ｎｅｔ,,合同会社,石川県,小松市,南陽町１番地１６９南陽ハイツ２０１号室,,17,203,9230328,,,,,,,2024-05-17,1,,,,,エーエムネット,0
2694,9230003002210,新規,0,2024-05-17,2024-05-17,合同会社Ｏｓｅｋｋａｉ,,合同会社,富山県,射水市,東太閤山２丁目２２番地,,16,211,9390319,,,,,,,2024-05-17,1,,,,,オセッカイ,0
2697,9240001063220,新規,0,2024-05-17,2024-05-17,株式会社Ｚｅｎ,,株式会社,広島県,尾道市,御調町神１５１－１０,,34,205,7220341,,,,,,,2024-05-17,1,,,,,ゼン,0
2698,9240001063229,新規,0,2024-05-17,2024-05-17,株式会社ＹＫ,,株式会社,広島県,広島市佐伯区,楽々園４丁目１番１４号,,34,108,7315136,,,,,,,2024-05-17,1,,,,,ワイケイ,0
2707,9290001105620,新規,0,2024-05-17,2024-05-17,株式会社リッチトランク,,株式会社,福岡県,福岡市西区,石丸２丁目３４番４号,,40,135,8190025,,,,,,,2024-05-17,1,,,,,リッチトランク,0
2708,9290003015297,新規,0,2024-05-17,2024-05-17,合同会社ＧＯＯＤ,,合同会社,福岡県,福岡市早良区,次郎丸２丁目２８－６,,40,137,8140165,,,,,,,2024-05-17,1,,,,,グッド,0
2709,9290801030563,新規,0,2024-05-17,2024-05-17,九州良順株式会社,,株式会社,福岡県,北九州市門司区,吉志１丁目２７番８号,,40,101,8000114,,,,,,,2024-05-17,1,,,,,キュウシュウリョウジュン,0
2712,9320001020469,新規,0,2024-05-17,2024-05-17,株式会社Ｇ１Ｂ２,,株式会社,大分県,別府市,上原町７番３１号,,44,202,8740829,,,,,,,2024-05-17,1,,,,,ジーワンビーツー,0
2714,9330001032075,新規,0,2024-05-17,2024-05-17,城南商事株式会社,,株式会社,熊本県,水俣市,昭和町２丁目４番１７号１Ｆ,,43,205,8670051,,,,,,,2024-05-17,1,,,,,ジョウナンショウジ,0
2717,9340001026506,新規,0,2024-05-17,2024-05-17,株式会社双葉テック,,株式会社,鹿児島県,鹿児島市,田上台３丁目６７番１号,,46,201,8900036,,,,,,,2024-05-17,1,,,,,フタバテック,0
2722,9360001033665,新規,0,2024-05-17,2024-05-17,株式会社カノウリゾート,,株式会社,沖縄県,那覇市,首里石嶺町２丁目４４番地８,,47,201,9030804,,,,,,,2024-05-17,1,,,,,カノウリゾート,0
2723,9360001033698,新規,0,2024-05-17,2024-05-17,株式会社ＡｒａｈａＳｔｙｌｅ,,株式会社,沖縄県,中頭郡北谷町,北前１丁目２０番７号,,47,326,9040117,,,,,,,2024-05-17,1,,,,,アラハスタイル,0
2724,9370005010783,新規,0,2024-05-17,2024-05-17,一般社団法人南三陸ひとｔｏｍｏｎｉ,,その他の設立登記法人,宮城県,本吉郡南三陸町,歌津字皿貝４３番地１５,,04,606,9880467,,,,,,,2024-05-17,1,,,,,ミナミサンリクヒトトモニ,0
2741,9430001091838,新規,0,2024-05-17,2024-05-17,株式会社グレートエンタープライズ,,株式会社,北海道,札幌市北区,新琴似町７９１番地,,01,102,0010915,,,,,,,2024-05-17,1,,,,,グレートエンタープライズ,0
2742,9430003016330,新規,0,2024-05-17,2024-05-17,合同会社デアルマ,,合同会社,北海道,札幌市豊平区,平岸三条１８丁目４番３２－３０７号,,01,105,0620933,,,,,,,2024-05-17,1,,,,,デアルマ,0
2743,9430003016339,新規,0,2024-05-17,2024-05-17,合同会社ソルブ,,合同会社,北海道,室蘭市,御前水町３丁目９番１３号,,01,205,0510002,,,,,,,2024-05-17,1,,,,,ソルブ,0
2748,9470001020198,新規,0,2024-05-17,2024-05-17,株式会社スプラ,,株式会社,香川県,高松市,伏石町１５９６番地５フィアスプロ三条３Ｆ,,37,201,7618071,,,,,,,2024-05-17,1,,,,,スプラ,0
2749,9470001020215,新規,0,2024-05-17,2024-05-17,株式会社Ｌｕｄｅｎｓ,,株式会社,香川県,高松市,仏生山町甲１８３３番地１２,,37,201,7618078,,,,,,,2024-05-17,1,,,,,ルーデンス,0
2753,9480001012475,新規,0,2024-05-17,2024-05-17,株式会社フードセンター,,株式会社,徳島県,徳島市,川内町上別宮東５４番地の５,,36,201,7710126,,,,,,,2024-05-17,1,,,,,フードセンター,0
2754,9490003001888,新規,0,2024-05-17,2024-05-17,まるっと合同会社,,合同会社,高知県,高知市,北秦泉寺７５８番地１２,,39,201,7800022,,,,,,,2024-05-17,1,,,,,マルット,0
2757,9500001025631,新規,0,2024-05-17,2024-05-17,株式会社心愛,,株式会社,愛媛県,今治市,大西町脇甲３７８番地,,38,202,7992206,,,,,,,2024-05-17,1,,,,,ココア,0
2758,9500003003247,新規,0,2024-05-17,2024-05-17,合同会社カンナ,,合同会社,愛媛県,松山市,小坂４丁目６番４２号,,38,201,7900963,,,,,,,2024-05-17,1,,,,,カンナ,0
