sequenceNumber,corporateNumber,process,correct,updateDate,changeDate,name,nameImageId,kind,prefectureName,cityName,streetNumber,addressImageId,prefectureCode,cityCode,postCode,addressOutside,addressOutsideImageId,closeDate,closeCause,successorCorporateNumber,changeCause,assignmentDate,latest,enName,enPrefectureName,enCityName,enAddressOutside,furigana,hihyoji
16,1010005036566,新規,0,2023-04-25,2023-04-25,一般社団法人日越ＩＴコミュニケーター連盟,,その他の設立登記法人,東京都,中央区,日本橋小伝馬町１４番７号レジェンド小伝馬町８０４号,,13,102,1030001,,,,,,,2023-04-25,1,,,,,ニチエツアイティーコミュニケーターレンメイ,0
17,1010103002115,新規,0,2023-04-25,2023-04-25,ＫＡＩ＆ＷＥＩ合同会社,,合同会社,東京都,八王子市,子安町１丁目４８番９号２０２号室,,13,201,1920904,,,,,,,2023-04-25,1,,,,,カイアンドウェイ,0
24,1010403029907,新規,0,2023-04-25,2023-04-25,合同会社ａｒｋ,,合同会社,東京都,港区,南青山２丁目２番１５号,,13,103,1070062,,,,,,,2023-04-25,1,,,,,アーク,0
31,1010601063006,新規,0,2023-04-25,2023-04-25,株式会社Ｇｒａｎｄ　Ｆｕ　Ｐｏｔ,,株式会社,東京都,墨田区,両国３丁目１６－４両国ＳＳビル４階,,13,107,1300026,,,,,,,2023-04-25,1,,,,,グランフポット,0
33,1010703006671,新規,0,2023-04-25,2023-04-25,合同会社ＮＴＭ,,合同会社,東京都,品川区,小山３丁目５－２－１３０３,,13,109,1420062,,,,,,,2023-04-25,1,,,,,エヌティーエム,0
45,1011001153438,新規,0,2023-04-25,2023-04-25,株式会社ＡＲＣＹＥＬＬ,,株式会社,東京都,渋谷区,神宮前６丁目２３番４号桑野ビル２階,,13,113,1500001,,,,,,,2023-04-25,1,,,,,アークエール,0
46,1011001154048,新規,0,2023-04-25,2023-04-25,株式会社石井企画,,株式会社,東京都,渋谷区,道玄坂１丁目２０番８号寿パークビル４Ｆ,,13,113,1500043,,,,,,,2023-04-25,1,,,,,イシイキカク,0
48,1011003016725,新規,0,2023-04-25,2023-04-25,デザイン・キューブ合同会社,,合同会社,東京都,渋谷区,道玄坂１丁目１６－６二葉ビル８ｂ,,13,113,1500043,,,,,,,2023-04-25,1,,,,,デザインキューブ,0
49,1011003016733,新規,0,2023-04-25,2023-04-25,Ｇｉｎｇｅｒ合同会社,,合同会社,東京都,渋谷区,道玄坂１丁目１０番８号渋谷道玄坂東急ビル２Ｆ－Ｃ,,13,113,1500043,,,,,,,2023-04-25,1,,,,,ジンジャー,0
57,1011303004735,新規,0,2023-04-25,2023-04-25,合同会社アスティ,,合同会社,東京都,杉並区,高円寺北２丁目８番１０号,,13,115,1660002,,,,,,,2023-04-25,1,,,,,アスティ,0
60,1011501029212,新規,0,2023-04-25,2023-04-25,株式会社ＳＥＣＯＮＤ　ＩＮＤＵＳＴＲＹ,,株式会社,東京都,北区,王子５丁目８番１－７０１号,,13,117,1140002,,,,,,,2023-04-25,1,,,,,セカンドインダストリー,0
61,1011501029220,新規,0,2023-04-25,2023-04-25,福井株式会社,,株式会社,東京都,荒川区,南千住３丁目２７－２浅草ビル,,13,118,1160003,,,,,,,2023-04-25,1,,,,,フクイ,0
65,1012401040473,新規,0,2023-04-25,2023-04-25,株式会社三木商会,,株式会社,東京都,調布市,調布ケ丘３丁目１番地２,,13,208,1820021,,,,,,,2023-04-25,1,,,,,ミキショウカイ,0
70,1012703002691,新規,0,2023-04-25,2023-04-25,合同会社平山,,合同会社,東京都,清瀬市,松山１丁目１３－３,,13,221,2040022,,,,,,,2023-04-25,1,,,,,ヒラヤマ,0
77,1020001151228,新規,0,2023-04-25,2023-04-25,株式会社Ｋ‐Ｓｍｉｌｅ,,株式会社,神奈川県,横浜市西区,東ケ丘１５番地６,,14,103,2200033,,,,,,,2023-04-25,1,,,,,,0
78,1020001151310,新規,0,2023-04-25,2023-04-25,株式会社ＰＬＡＣＥ,,株式会社,神奈川県,川崎市川崎区,東田町４番地１６－３０２,,14,131,2100005,,,,,,,2023-04-25,1,,,,,プレイス,0
85,1021001078824,新規,0,2023-04-25,2023-04-25,ＭＣ　ＴＯＫＹＯ株式会社,,株式会社,神奈川県,座間市,相模が丘３丁目３４番２８号,,14,216,2520001,,,,,,,2023-04-25,1,,,,,エムシートウキョウ,0
86,1021001078840,新規,0,2023-04-25,2023-04-25,ｉｎｎｏｃｅｎｔ　ｓｈｏｎａｎ株式会社,,株式会社,神奈川県,藤沢市,辻堂新町１丁目３－１３,,14,205,2510042,,,,,,,2023-04-25,1,,,,,イノセントショウナン,0
96,1040001128075,新規,0,2023-04-25,2023-04-25,株式会社ＡＯＴＧ,,株式会社,千葉県,柏市,花野井８０４番地６,,12,217,2770812,,,,,,,2023-04-25,1,,,,,エーオーティージー,0
103,1050001052745,新規,0,2023-04-25,2023-04-25,株式会社安達牧場,,株式会社,茨城県,笠間市,押辺２７２８番地３,,08,216,3190205,,,,,,,2023-04-25,1,,,,,アダチボクジョウ,0
110,1070001040368,新規,0,2023-04-25,2023-04-25,株式会社車屋,,株式会社,群馬県,太田市,沖野町２６１番地２,,10,205,3730045,,,,,,,2023-04-25,1,,,,,クルマヤ,0
117,1080005007536,新規,0,2023-04-25,2023-04-25,一般社団法人まんまる,,その他の設立登記法人,静岡県,静岡市駿河区,稲川３丁目５番３－９０２号,,22,102,4228062,,,,,,,2023-04-25,1,,,,,マンマル,0
118,1080101023916,新規,0,2023-04-25,2023-04-25,じもとカンパニー株式会社,,株式会社,静岡県,沼津市,市場町２１‐２,,22,203,4100831,,,,,,,2023-04-25,1,,,,,ジモトカンパニー,0
122,1080403004779,新規,0,2023-04-25,2023-04-25,恋合同会社,,合同会社,静岡県,浜松市中区,田町２３１－８プレイスワン田町６０２,,22,131,4300944,,,,,,,2023-04-25,1,,,,,コイ,0
133,1110003005034,新規,0,2023-04-25,2023-04-25,りそうの合同会社,,合同会社,新潟県,新潟市西区,寺尾西５丁目１０番１３号,,15,107,9502064,,,,,,,2023-04-25,1,,,,,リソウノ,0
138,1120001254227,新規,0,2023-04-25,2023-04-25,株式会社補助金名人,,株式会社,大阪府,大阪市中央区,高津１丁目８番６号,,27,128,5420072,,,,,,,2023-04-25,1,,,,,ホジョキンメイジン,0
139,1120001254276,新規,0,2023-04-25,2023-04-25,グローバルニューエア株式会社,,株式会社,大阪府,大阪市西区,本田４丁目１番７号４階,,27,106,5500022,,,,,,,2023-04-25,1,,,,,グローバルニューエア,0
140,1120001254334,新規,0,2023-04-25,2023-04-25,Ｔｏｒａｙ株式会社,,株式会社,大阪府,大阪市中央区,本町橋２－２３－１２３１,,27,128,5400029,,,,,,,2023-04-25,1,,,,,トライ,0
141,1120001254359,新規,0,2023-04-25,2023-04-25,辰光文創株式会社,,株式会社,大阪府,大阪市天王寺区,悲田院町９－１７阪和ビル４０３号室,,27,109,5430055,,,,,,,2023-04-25,1,,,,,シンコウブンソウ,0
142,1120001254375,新規,0,2023-04-25,2023-04-25,カナイ建設株式会社,,株式会社,大阪府,大阪市東成区,中本５丁目２番１２号,,27,115,5370022,,,,,,,2023-04-25,1,,,,,カナイケンセツ,0
143,1120001254391,新規,0,2023-04-25,2023-04-25,永益株式会社,,株式会社,大阪府,大阪市東淀川区,西淡路２丁目１４番４号Ｔ‘ｓＣＵＢＥ東淀川１０１号室,,27,114,5330031,,,,,,,2023-04-25,1,,,,,エイエキ,0
144,1120001254409,新規,0,2023-04-25,2023-04-25,株式会社エムワイツー,,株式会社,大阪府,大阪市西成区,花園北２丁目８番２号,,27,122,5570016,,,,,,,2023-04-25,1,,,,,エムワイツー,0
149,1120003023902,新規,0,2023-04-25,2023-04-25,合同会社ＣＡＮ,,合同会社,大阪府,大阪市東住吉区,今川４丁目２２番４号,,27,121,5460003,,,,,,,2023-04-25,1,,,,,キャン,0
150,1120003023919,新規,0,2023-04-25,2023-04-25,合同会社ウォルド,,合同会社,大阪府,大阪市港区,磯路３丁目１７番１７－２０２,,27,107,5520003,,,,,,,2023-04-25,1,,,,,ウォルド,0
151,1120003023943,新規,0,2023-04-25,2023-04-25,合同会社Ｊ・Ｓ,,合同会社,大阪府,大阪市平野区,瓜破４丁目１－４７ヴィクトワール坂野１０３号,,27,126,5470024,,,,,,,2023-04-25,1,,,,,ジェイエス,0
153,1120103005197,新規,0,2023-04-25,2023-04-25,合同会社関西慶生会,,合同会社,大阪府,松原市,天美我堂６丁目４番１７号,,27,217,5800026,,,,,,,2023-04-25,1,,,,,カンサイケイセイカイ,0
156,1122001036919,新規,0,2023-04-25,2023-04-25,栄電設株式会社,,株式会社,大阪府,東大阪市,森河内西１丁目１７番１４号,,27,227,5770061,,,,,,,2023-04-25,1,,,,,サカエデンセツ,0
157,1122003002571,新規,0,2023-04-25,2023-04-25,ユニオン合同会社,,合同会社,大阪府,東大阪市,長栄寺２番１２号Ｔｓｕｎａｇａｒｕビル５Ｆ,,27,227,5770055,,,,,,,2023-04-25,1,,,,,ユニオン,0
173,1140001129889,新規,0,2023-04-25,2023-04-25,サナハ株式会社,,株式会社,兵庫県,西宮市,今津山中町１２番６号,,28,204,6638211,,,,,,,2023-04-25,1,,,,,サナハ,0
174,1140001129922,新規,0,2023-04-25,2023-04-25,シティインベストメント株式会社,,株式会社,兵庫県,西宮市,松生町７番２２号,,28,204,6620076,,,,,,,2023-04-25,1,,,,,シティインベストメント,0
175,1140001129930,新規,0,2023-04-25,2023-04-25,株式会社ＫＳエンジニアリング,,株式会社,兵庫県,高砂市,神爪１丁目１６番６号,,28,216,6760808,,,,,,,2023-04-25,1,,,,,ケイエスエンジニアリング,0
181,1140003019015,新規,0,2023-04-25,2023-04-25,Ｚｅｓｂｏｎ合同会社,,合同会社,兵庫県,神戸市中央区,相生町４丁目３番１３－３０５号,,28,110,6500025,,,,,,,2023-04-25,1,,,,,ゼッスボン,0
184,1150001026342,新規,0,2023-04-25,2023-04-25,株式会社マイホーム,,株式会社,奈良県,橿原市,葛本町１８７番地の１１,,29,205,6340007,,,,,,,2023-04-25,1,,,,,マイホーム,0
187,1170001017570,新規,0,2023-04-25,2023-04-25,ＹＳＳＨＯＰ株式会社,,株式会社,和歌山県,伊都郡かつらぎ町,大字中飯降１１２２番地の１セレノ・カーサＢ２０２号室,,30,341,6497112,,,,,,,2023-04-25,1,,,,,ワイエスショップ,0
194,1180001156013,新規,0,2023-04-25,2023-04-25,株式会社ネオ・フレンズ,,株式会社,愛知県,名古屋市中川区,荒子１丁目１１２番地,,23,110,4540869,,,,,,,2023-04-25,1,,,,,ネオフレンズ,0
205,1200001041229,新規,0,2023-04-25,2023-04-25,株式会社わかば,,株式会社,岐阜県,瑞穂市,祖父江４６－２７フローラルＭＡＳＵＺＡＷＡ３０１号,,21,216,5010225,,,,,,,2023-04-25,1,,,,,ワカバ,0
228,1290001101271,新規,0,2023-04-25,2023-04-25,ＹＣ株式会社,,株式会社,福岡県,福岡市博多区,吉塚６丁目３番７号２階,,40,132,8120041,,,,,,,2023-04-25,1,,,,,ワイシー,0
229,1290003013829,新規,0,2023-04-25,2023-04-25,ＨＤ合同会社,,合同会社,福岡県,福岡市東区,筥松２丁目８－８マキシム筥松２０６号,,40,131,8120061,,,,,,,2023-04-25,1,,,,,エイチディー,0
231,1290805009652,新規,0,2023-04-25,2023-04-25,医療法人笑運舎,,その他の設立登記法人,福岡県,北九州市戸畑区,汐井町１番１号戸畑駅２Ｆ,,40,105,8040067,,,,,,,2023-04-25,1,,,,,ショウウンシャ,0
232,1310001018380,新規,0,2023-04-25,2023-04-25,株式会社藤村,,株式会社,長崎県,佐世保市,島瀬町３番２４－１３０５号,,42,202,8570806,,,,,,,2023-04-25,1,,,,,フジムラ,0
240,1330001030788,新規,0,2023-04-25,2023-04-25,株式会社Ｍｓ’ｓ,,株式会社,熊本県,熊本市東区,江津３丁目４番３号,,43,102,8620942,,,,,,,2023-04-25,1,,,,,ミスズ,0
241,1330001030796,新規,0,2023-04-25,2023-04-25,株式会社人吉火薬,,株式会社,熊本県,球磨郡山江村,大字山田乙１７２８番地の８６,,43,512,8680092,,,,,,,2023-04-25,1,,,,,ヒトヨシカヤク,0
249,1340001025531,新規,0,2023-04-25,2023-04-25,株式会社Ａｒｓ建築事務所,,株式会社,鹿児島県,鹿児島市,清水町１４番１９号２０３号室,,46,201,8920802,,,,,,,2023-04-25,1,,,,,アルスケンチクジムショ,0
256,1360001031924,新規,0,2023-04-25,2023-04-25,タピックＣＲＥ株式会社,,株式会社,沖縄県,沖縄市,比屋根２丁目１５番１号,,47,211,9042173,,,,,,,2023-04-25,1,,,,,タピックセル,0
259,1370001049882,新規,0,2023-04-25,2023-04-25,株式会社ＬＡＸＸＩＳ,,株式会社,宮城県,仙台市青葉区,本町１丁目５番２８号カーニープレイス仙台駅前通６０３号室,,04,101,9800014,,,,,,,2023-04-25,1,,,,,ラクシス,0
262,1380001033638,新規,0,2023-04-25,2023-04-25,アサカ建設株式会社,,株式会社,福島県,郡山市,大槻町字針生前田１１７番地の６,,07,203,9630201,,,,,,,2023-04-25,1,,,,,アサカケンセツ,0
272,1410001013470,新規,0,2023-04-25,2023-04-25,株式会社児玉冷菓,,株式会社,秋田県,男鹿市,角間崎字百目木３０番地,,05,206,0100422,,,,,,,2023-04-25,1,,,,,コダマレイカ,0
276,1430001088916,新規,0,2023-04-25,2023-04-25,株式会社Ｈａｒｅｒｅａ,,株式会社,北海道,札幌市豊平区,西岡五条１４丁目２４番１０号,,01,105,0620035,,,,,,,2023-04-25,1,,,,,ハレレア,0
277,1430001088924,新規,0,2023-04-25,2023-04-25,ツノダデザイン株式会社,,株式会社,北海道,札幌市中央区,北一条西２丁目１１番１号,,01,101,0600001,,,,,,,2023-04-25,1,,,,,ツノダデザイン,0
278,1430003014960,新規,0,2023-04-25,2023-04-25,合同会社ＳＹＮＥ,,合同会社,北海道,札幌市中央区,宮の森二条１７丁目１３番１号,,01,101,0640952,,,,,,,2023-04-25,1,,,,,サイン,0
279,1440003001520,新規,0,2023-04-25,2023-04-25,エイチエムトレード合同会社,,合同会社,北海道,北斗市,東浜２丁目４号２番地,,01,236,0490122,,,,,,,2023-04-25,1,,,,,エイチエムトレード,0
286,1700150115708,新規,0,2023-04-25,2023-04-25,ＹＡＭＡＨＥＩ　ＴＲＡＩＮＩＮＧ　ＡＮＤ　ＡＳＳＥＳＳＭＥＮＴ　ＣＥＮＴＥＲ　ＣＯＲＰＯＲＡＴＩＯＮ,,外国会社等,愛知県,海部郡蟹江町,舟入４丁目２１８番地,,23,425,4970048,フィリピン共和国マニラ首都圏第２区サンファンサン・マウリシオバティス市１０,,,,,,2023-04-25,1,,,,,ヤマヘイトレーニングアンドアセスメントセンターコーポレーシヨン,0
287,1700150115716,新規,0,2023-04-25,2023-04-25,ｓｈｅｎｚｈｅｎｓｈｉ　ｊｉｍｏｋｅｃｈｕａｎｘｉｎ　ｙｏｕｘｉａｎｇｏｎｇｓｉ,,外国会社等,,,,,,,,ｓｈｅｎｚｈｅｎｓｈｉ　ｌｏｎｇｈｕａｑｕ　ｇｕａｎｈｕｊｉｅｄａｏ　ｌｕｈｕｓｈｅｑｕ　ｚｈａｏｓｈａｎｇｇｕａｎｙｕａｎ　７ｄｏｎｇ　ｓａｎｄａｎｙｕａｎ５０２　ｓｈｅｎｚｈｅｎｓｈｉ　ｇｕａｎｇｄｏｎｇｓｈｅｎｇ,,,,,,2023-04-25,1,,,,,シンセンシジモケチュアンシンユウゲンコウシ,0
288,1700150115724,新規,0,2023-04-25,2023-04-25,ｓｈｅｎｚｈｅｎ　ｓｈｉ　ｄｏｎｇｆａｎｇ　ｆｅｎｇｈｕｏｌｕｎ　ｘｉｎｘｉｋｅｊｉ　Ｃｏ．，Ｌｔｄ,,外国会社等,,,,,,,,Ｒｏｏｍ　６０１，Ｂｕｉｌｄｉｎｇ　１７，Ｎｏ．Ａ３，４ｔｈ　Ｉｎｄｕｓｔｒｉａｌ　Ｚｏｎｅ，Ｈｅｓｈｕｉｋｏ　Ｃｏｍｍｕｎｉｔｙ，Ｍａｔｉａｎ　Ｓｔｒｅｅｔ，Ｇｕａｎｇｍｉｎｇ　Ｄｉｓｔｒｉｃｔ，Ｓｈｅｎｚｈｅｎ,,,,,,2023-04-25,1,,,,,シェンヂェンシドンファンフェンホルンシンシケジカンパニーリミテッド,0
289,1700150115732,新規,0,2023-04-25,2023-04-25,Ｓｈｅｎｚｈｅｎ　Ｐｅｎｇｈｏｎｇｄａ　Ｔｅｃｈｎｏｌｏｇｙ　Ｃｏ．，Ｌｔｄ．,,外国会社等,,,,,,,,６０２（６３１），Ｗｅｓｔ　Ｂｌｏｃｋ，６ｔｈ　Ｆｌｏｏｒ，Ｔｉａｎ’ａｎ　Ｉｎｎｏｖａｔｉｏｎ　ａｎｄ　Ｔｅｃｈｎｏｌｏｇｙ　Ｐｌａｚａ（Ｐｈａｓｅ　ＩＩ），Ｉｎｔｅｒｓｅｃｔｉｏｎ　ｏｆ　Ｂｉｎｈｅ　Ｒｏａｄ　ａｎｄ　Ｘｉａｎｇｍｉｈｕ　Ｒｏａｄ，Ｔｉａｎ’ａｎ　Ｃｏｍｍｕｎｉｔｙ，Ｓｈａｔｏｕ　Ｓｔｒｅｅｔ，Ｆｕｔｉａｎ　Ｄｉｓｔｒｉｃｔ，Ｓｈｅｎｚｈｅｎ,00130229,,,,,2023-04-25,1,,,,,シェンジェンシーポンホンダーコージーヨウシエンゴンスー,0
297,2010001234833,新規,0,2023-04-25,2023-04-25,株式会社Ｔｉｅｒ　Ｏｎｅ　Ｅｎｔｅｒｔａｉｎｍｅｎｔ　Ｊａｐａｎ,,株式会社,東京都,中央区,日本橋３丁目２番１４号,,13,102,1030027,,,,,,,2023-04-25,1,,,,,ティアワンエンターテインメントジャパン,0
309,2010401173953,新規,0,2023-04-25,2023-04-25,株式会社繋,,株式会社,東京都,港区,赤坂４丁目８番１９号赤坂フロントタウン３階,,13,103,1070052,,,,,,,2023-04-25,1,,,,,ケイ,0
310,2010401173978,新規,0,2023-04-25,2023-04-25,株式会社コーチャブル,,株式会社,東京都,港区,南青山３丁目１番３６号青山丸竹ビル６Ｆ,,13,103,1070062,,,,,,,2023-04-25,1,,,,,コーチャブル,0
313,2010501050359,新規,0,2023-04-25,2023-04-25,株式会社グリーンオニオン,,株式会社,東京都,台東区,元浅草１丁目６番地１２号ＧＯＧＯオフィス御徒町８２６号室,,13,106,1110041,,,,,,,2023-04-25,1,,,,,グリーンオニオン,0
317,2010601063005,新規,0,2023-04-25,2023-04-25,株式会社ノマドクリエイティブ,,株式会社,東京都,墨田区,押上２丁目２０番２－６０１号,,13,107,1310045,,,,,,,2023-04-25,1,,,,,ノマドクリエイティブ,0
321,2010703006670,新規,0,2023-04-25,2023-04-25,ＨＩＫＡＲＩ電気合同会社,,合同会社,東京都,品川区,旗の台３丁目３番１９号,,13,109,1420064,,,,,,,2023-04-25,1,,,,,ヒカリデンキ,0
335,2011001154006,新規,0,2023-04-25,2023-04-25,株式会社ＡＩ　ＶＯＬＴ,,株式会社,東京都,渋谷区,道玄坂１丁目１０番８号渋谷道玄坂東急ビル２Ｆ－Ｃ,,13,113,1500043,,,,,,,2023-04-25,1,,,,,エーアイボルト,0
336,2011001154047,新規,0,2023-04-25,2023-04-25,株式会社石井興業,,株式会社,東京都,渋谷区,道玄坂１丁目２０番８号寿パークビル４Ｆ,,13,113,1500043,,,,,,,2023-04-25,1,,,,,イシイコウギョウ,0
337,2011001154055,新規,0,2023-04-25,2023-04-25,ルーダス株式会社,,株式会社,東京都,渋谷区,道玄坂１丁目１０番８号渋谷道玄坂東急ビル２Ｆ－Ｃ,,13,113,1500043,,,,,,,2023-04-25,1,,,,,ルーダス,0
338,2011001154063,新規,0,2023-04-25,2023-04-25,株式会社ＺＥＵＳ,,株式会社,東京都,目黒区,中町１丁目２６番１１－４０６号コスモリード学芸大学,,13,110,1530065,,,,,,,2023-04-25,1,,,,,ゼウス,0
339,2011003016625,新規,0,2023-04-25,2023-04-25,ＭＡ　ＳＴＡＲ合同会社,,合同会社,東京都,渋谷区,神宮前６丁目２３番４号桑野ビル２Ｆ,,13,113,1500001,,,,,,,2023-04-25,1,,,,,,0
344,2011101102558,新規,0,2023-04-25,2023-04-25,ＴＵ株式会社,,株式会社,東京都,新宿区,横寺町３７番地９,,13,104,1620831,,,,,,,2023-04-25,1,,,,,ティーユー,0
345,2011101102640,新規,0,2023-04-25,2023-04-25,株式会社ＭＯＤＥＳＴ　Ｒｅａｌｔｙ,,株式会社,東京都,新宿区,新宿１丁目６番１１号,,13,104,1600022,,,,,,,2023-04-25,1,,,,,モデストリアルティ,0
347,2011103012986,新規,0,2023-04-25,2023-04-25,ＣＨＯＫＫＡＮ　ＤＥＳＩＧＮＳ合同会社,,合同会社,東京都,新宿区,大京町１３番地７Ｔ’ｓｇａｒｄｅｎ信濃町１０１,,13,104,1600015,,,,,,,2023-04-25,1,,,,,チョッカンデザインズ,0
353,2011201024537,新規,0,2023-04-25,2023-04-25,株式会社フロンティア,,株式会社,東京都,中野区,東中野４丁目２番２１号フレシュールサンク３０１,,13,114,1640003,,,,,,,2023-04-25,1,,,,,フロンティア,0
354,2011201024603,新規,0,2023-04-25,2023-04-25,虹と満月と株式会社,,株式会社,東京都,中野区,若宮１丁目３５－２,,13,114,1650033,,,,,,,2023-04-25,1,,,,,ニジトマンゲツト,0
358,2011303004734,新規,0,2023-04-25,2023-04-25,Ｍｉｇｒａ合同会社,,合同会社,東京都,杉並区,善福寺１丁目１８－２０,,13,115,1670041,,,,,,,2023-04-25,1,,,,,ミグラ,0
359,2011401025079,新規,0,2023-04-25,2023-04-25,プロフウェイ株式会社,,株式会社,東京都,板橋区,前野町４丁目５８－１０見次パークマンション２０２,,13,119,1740063,,,,,,,2023-04-25,1,,,,,プロフウェイ,0
365,2012301013413,新規,0,2023-04-25,2023-04-25,株式会社ＭＯＨＡＮＡＫ,,株式会社,東京都,町田市,玉川学園３丁目１０番４号３,,13,209,1940041,,,,,,,2023-04-25,1,,,,,モハナック,0
368,2013101009155,新規,0,2023-04-25,2023-04-25,株式会社リンクジャパン,,株式会社,東京都,羽村市,小作台１丁目２１番地１１,,13,227,2050001,,,,,,,2023-04-25,1,,,,,リンクジャパン,0
371,2013301050628,新規,0,2023-04-25,2023-04-25,株式会社Ｋ．Ｏ．ｔｅｃｈ,,株式会社,東京都,豊島区,南池袋３丁目１３番５号４階,,13,116,1710022,,,,,,,2023-04-25,1,,,,,ケーオーテック,0
380,2020003023820,新規,0,2023-04-25,2023-04-25,合同会社Ｂ　Ｌｉｎｋ,,合同会社,神奈川県,横浜市港北区,綱島西１丁目１ー１２,,14,109,2230053,,,,,,,2023-04-25,1,,,,,ビーリンク,0
383,2020005015964,新規,0,2023-04-25,2023-04-25,一般社団法人構造生物学研究室,,その他の設立登記法人,神奈川県,横浜市旭区,二俣川１丁目４３番地２８グレーシア二俣川７０４,,14,112,2410821,,,,,,,2023-04-25,1,,,,,コウゾウセイブツガクケンキュウシツ,0
387,2021001078823,新規,0,2023-04-25,2023-04-25,株式会社ＫＹＯＥＩ,,株式会社,神奈川県,茅ヶ崎市,東海岸北５丁目８番１８号,,14,207,2530053,,,,,,,2023-04-25,1,,,,,キョウエイ,0
390,2021003013019,新規,0,2023-04-25,2023-04-25,合同会社生活サポート西浦賀,,合同会社,神奈川県,横須賀市,西浦賀３丁目３４番２０号,,14,201,2390824,,,,,,,2023-04-25,1,,,,,セイカツサポートニシウラガ,0
391,2021005012803,新規,0,2023-04-25,2023-04-25,一般社団法人ＡＳＨＩＧＡＲＡ　ＯＮ　ＤＥＭＡＮＤ,,その他の設立登記法人,神奈川県,足柄上郡松田町,松田惣領２０７８番地,,14,363,2580003,,,,,,,2023-04-25,1,,,,,アシガラオンデマンド,0
402,2030001153577,新規,0,2023-04-25,2023-04-25,株式会社アクロス,,株式会社,埼玉県,熊谷市,玉井１１４番地６,,11,202,3600853,,,,,,,2023-04-25,1,,,,,アクロス,0
414,2040003022473,新規,0,2023-04-25,2023-04-25,合同会社Ｊａｎｅ,,合同会社,千葉県,佐倉市,上志津１６３７番地１志津グリーンハイツ２号棟－Ｂ,,12,212,2850846,,,,,,,2023-04-25,1,,,,,ジェイン,0
417,2050001052744,新規,0,2023-04-25,2023-04-25,ＤＴＳフィンテックラボ株式会社,,株式会社,茨城県,取手市,ゆめみ野５丁目２１番１７号－１階,,08,217,3020039,,,,,,,2023-04-25,1,,,,,ディーティーエスフィンテックラボ,0
421,2060001035938,新規,0,2023-04-25,2023-04-25,ＭＵＭＲＡ　ＴＲＡＤＩＮＧ株式会社,,株式会社,栃木県,小山市,神鳥谷２丁目１３番２号いずみコーポ１０１,,09,208,3230034,,,,,,,2023-04-25,1,,,,,ムムラトレーディング,0
428,2090001018097,新規,0,2023-04-25,2023-04-25,ＲｅＬｏｃａｌ株式会社,,株式会社,山梨県,北杜市,小淵沢町上笹尾２５３８番地１９眺望の里１０１,,19,209,4080041,,,,,,,2023-04-25,1,,,,,リローカル,0
429,2090003002306,新規,0,2023-04-25,2023-04-25,合同会社ＬＡＶＩＤＡ,,合同会社,山梨県,甲府市,里吉４丁目８番２７号メソンドジュピテール３０３,,19,201,4000822,,,,,,,2023-04-25,1,,,,,ラヴィダ,0
446,2120001254317,新規,0,2023-04-25,2023-04-25,いぶき設備株式会社,,株式会社,大阪府,枚方市,出口２丁目２４番８号２番,,27,210,5730065,,,,,,,2023-04-25,1,,,,,イブキセツビ,0
447,2120001254333,新規,0,2023-04-25,2023-04-25,山海グローバル株式会社,,株式会社,大阪府,大阪市西区,阿波座１丁目１１番１７号,,27,106,5500011,,,,,,,2023-04-25,1,,,,,サンカイグローバル,0
448,2120001254341,新規,0,2023-04-25,2023-04-25,株式会社Ｆｅｌｉａｒｅ,,株式会社,大阪府,大阪市中央区,西心斎橋１丁目１３番１８号,,27,128,5420086,,,,,,,2023-04-25,1,,,,,フェリアーレ,0
449,2120001254358,新規,0,2023-04-25,2023-04-25,益美株式会社,,株式会社,大阪府,大阪市天王寺区,悲田院町９－１７阪和ビル４０２,,27,109,5430055,,,,,,,2023-04-25,1,,,,,エキビ,0
450,2120001254366,新規,0,2023-04-25,2023-04-25,レントエステート株式会社,,株式会社,大阪府,大阪市阿倍野区,昭和町５丁目１２番２２号,,27,119,5450011,,,,,,,2023-04-25,1,,,,,レントエステート,0
451,2120001254399,新規,0,2023-04-25,2023-04-25,株式会社ＶＥＣ,,株式会社,大阪府,大阪市平野区,加美東３丁目９番２３号,,27,126,5470002,,,,,,,2023-04-25,1,,,,,ヴェック,0
452,2120001254408,新規,0,2023-04-25,2023-04-25,株式会社Ｎｏｎ　ａｖｅｒａｇｅ,,株式会社,大阪府,大阪市北区,芝田２丁目８－１１共栄ビル３Ｆ,,27,127,5300012,,,,,,,2023-04-25,1,,,,,ノンアベレージ,0
458,2120003023835,新規,0,2023-04-25,2023-04-25,合同会社ＡＳＰ,,合同会社,大阪府,大阪市北区,大淀中３丁目５－２７－１００６,,27,127,5310076,,,,,,,2023-04-25,1,,,,,エーエスピー,0
459,2120003023918,新規,0,2023-04-25,2023-04-25,春望君合同会社,,合同会社,大阪府,大阪市生野区,巽北２丁目１１番１４号２０１号室,00130241,27,116,5440004,,,,,,,2023-04-25,1,,,,,シュンボウクン,0
460,2120003023926,新規,0,2023-04-25,2023-04-25,合同会社横山企画,,合同会社,大阪府,大阪市旭区,生江３丁目１３－５－４０２,,27,117,5350004,,,,,,,2023-04-25,1,,,,,ヨコヤマキカク,0
461,2120003023934,新規,0,2023-04-25,2023-04-25,合同会社アステップ,,合同会社,大阪府,大阪市住吉区,苅田３丁目１３‐１２‐１０６,,27,120,5580011,,,,,,,2023-04-25,1,,,,,アステップ,0
464,2120103005196,新規,0,2023-04-25,2023-04-25,合同会社一幸,,合同会社,大阪府,松原市,天美我堂７丁目４９３－４,,27,217,5800026,,,,,,,2023-04-25,1,,,,,イッコウ,0
466,2120903004604,新規,0,2023-04-25,2023-04-25,合同会社よろづ庵,,合同会社,大阪府,高槻市,南平台１丁目２５番２２号,,27,207,5691042,,,,,,,2023-04-25,1,,,,,ヨロヅアン,0
470,2122001036918,新規,0,2023-04-25,2023-04-25,株式会社アール・フィールド,,株式会社,大阪府,東大阪市,今米１丁目５番１４号,,27,227,5780903,,,,,,,2023-04-25,1,,,,,アールフィールド,0
473,2130001074193,新規,0,2023-04-25,2023-04-25,エステックジャパン株式会社,,株式会社,京都府,京田辺市,大住八河原７０番,,26,211,6100343,,,,,,,2023-04-25,1,,,,,エステックジャパン,0
487,2140003019006,新規,0,2023-04-25,2023-04-25,ＳＡＮＫＵＲＯ合同会社,,合同会社,兵庫県,神戸市兵庫区,大開通１丁目１－１６ＲＯＣＫＹ大開１０１号,,28,105,6520803,,,,,,,2023-04-25,1,,,,,サンクロ,0
489,2150001026341,新規,0,2023-04-25,2023-04-25,株式会社ＫＡＣＨＡ,,株式会社,奈良県,生駒市,上町１０９８番地４,,29,209,6300131,,,,,,,2023-04-25,1,,,,,カチャ,0
508,2180005020197,新規,0,2023-04-25,2023-04-25,ＮＰＯ法人ナチュラルスクールランチアクション,,その他の設立登記法人,愛知県,あま市,甚目寺流３６番地,,23,237,4901111,,,,,,,2023-04-25,1,,,,,ナチュラルスクールランチアクション,0
518,2200001041228,新規,0,2023-04-25,2023-04-25,株式会社ＴＲＩＮＩＴＹ,,株式会社,岐阜県,岐阜市,北鶉２丁目９番地３ペットシャトー１０２号,,21,201,5008287,,,,,,,2023-04-25,1,,,,,トリニティ,0
527,2240001061420,新規,0,2023-04-25,2023-04-25,株式会社センノ,,株式会社,広島県,広島市中区,大手町１丁目１－２０相生橋ビル７階Ａ号室,,34,101,7300051,,,,,,,2023-04-25,1,,,,,センノ,0
531,2250003003262,新規,0,2023-04-25,2023-04-25,ＴＡ合同会社,,合同会社,山口県,下関市,竹崎町２丁目３番９号山田ビル２階,,35,201,7500025,,,,,,,2023-04-25,1,,,,,,0
532,2260001037889,新規,0,2023-04-25,2023-04-25,株式会社ブルネンシュタイン,,株式会社,岡山県,倉敷市,中庄１３８０番地４,,33,202,7100016,,,,,,,2023-04-25,1,,,,,ブルネンシュタイン,0
538,2290001101304,新規,0,2023-04-25,2023-04-25,ＧＬＥＡＰ株式会社,,株式会社,福岡県,福岡市博多区,博多駅前２丁目１－１,,40,132,8120011,,,,,,,2023-04-25,1,,,,,グリープ,0
539,2290001101312,新規,0,2023-04-25,2023-04-25,株式会社ＵＳＨＩＯマネジメント,,株式会社,福岡県,福岡市博多区,博多駅南２丁目１１番１３号,,40,132,8120016,,,,,,,2023-04-25,1,,,,,ウシオマネジメント,0
554,2330001030787,新規,0,2023-04-25,2023-04-25,株式会社アークス,,株式会社,熊本県,宇土市,松山町３２２４番地５,,43,211,8690416,,,,,,,2023-04-25,1,,,,,アークス,0
568,2370001049881,新規,0,2023-04-25,2023-04-25,株式会社ｅｄｇｅ　ｃｏｎｎｅｃｔｉｏｎ,,株式会社,宮城県,多賀城市,山王字掃下し１１番地の３ソレイユ１０２,,04,209,9850852,,,,,,,2023-04-25,1,,,,,エッジコネクション,0
584,2430001088931,新規,0,2023-04-25,2023-04-25,株式会社ＧｒｏｗＭａｐ,,株式会社,北海道,札幌市北区,篠路町上篠路３４３番地１６１,,01,102,0028052,,,,,,,2023-04-25,1,,,,,グローマップ,0
589,2700150115698,新規,0,2023-04-25,2023-04-25,ＨＡＫＡＭ　ＥＮＴＥＲＰＲＩＳＥＳ,,外国会社等,神奈川県,厚木市,妻田北２丁目９番１１号山口アパート２Ｆ,,14,212,2430812,スリランカ民主社会主義共和国ノースウエスタン州クルネガラ、カルガムワ、ワルヤポラロード１１４,,,,,,2023-04-25,1,,,,,ハカムエンタープライズ,0
590,2700150115723,新規,0,2023-04-25,2023-04-25,ｙｉｎｇｃｈｅｎｇｓｈｉ　ｈｅｎｇｓｈｅｎｇｄｉａｎｚｉｋｅｊｉ　ｙｏｕｘｉａｎｇｏｎｇｓｉ,,外国会社等,,,,,,,,ｙｉｎｇｃｈｅｎｇｓｈｉ　ｃｈａｎｇｊｉｎｇｄａｄａｏ　ｙｉｂｅｉｈａｉｓｈａｎｙｉｎｇｚｈｉｃｈｅｎｇ　２９ｚｈｕａｎｇ　１ｄａｎｙｕａｎ　１３０３ｈａｏｆａｎｇ　ｘｉａｏｇａｎｓｈｉ　ｈｕｂｅｉｓｈｅｎｇ,,,,,,2023-04-25,1,,,,,インセンシヘンセンディンジケジユウゲンコウシ,0
591,2700150115731,新規,0,2023-04-25,2023-04-25,ｙａｎｔａｉｆａｎｚｈｅｎｊｉｎｃｈｕｋｏｕｙｏｕｘｉａｎｇｏｎｇｓｉ,,外国会社等,,,,,,,,Ｎｏ．１８０９，Ｂｕｉｌｄｉｎｇ　１，Ｆｕｒａｏ　Ｃｅｎｔｅｒ，Ｎｏ．２００，Ｙａｎｔａｉ　Ａｒｅａ，Ｃｈｉｎａ（Ｓｈａｎｄｏｎｇ）Ｐｉｌｏｔ　Ｆｒｅｅ　Ｔｒａｄｅ　Ｚｏｎｅ,,,,,,2023-04-25,1,,,,,イエンタイファンジェンジンチューコウヨウシエンゴンスー,0
597,3010001234782,新規,0,2023-04-25,2023-04-25,ＦＬＡＤ株式会社,,株式会社,東京都,中央区,日本橋兜町１７番地２号兜町第６葉山ビル４階,,13,102,1030026,,,,,,,2023-04-25,1,,,,,フラッド,0
598,3010003040444,新規,0,2023-04-25,2023-04-25,合同会社ＭＡＹＯ,,合同会社,東京都,文京区,本郷４丁目１６番６号文京区本郷四丁目ビル天翔オフィス後楽園６０７号室,,13,105,1130033,,,,,,,2023-04-25,1,,,,,マヨ,0
607,3010401174001,新規,0,2023-04-25,2023-04-25,Ｇｒｏｗ株式会社,,株式会社,東京都,港区,芝大門１丁目１０番１１号芝大門センタービル１０Ｆ,,13,103,1050012,,,,,,,2023-04-25,1,,,,,グロー,0
616,3010903008103,新規,0,2023-04-25,2023-04-25,合同会社Ｇｒｅｅｎ,,合同会社,東京都,世田谷区,南烏山３丁目２２番１４－８０２号,,13,112,1570062,,,,,,,2023-04-25,1,,,,,,0
623,3011001154038,新規,0,2023-04-25,2023-04-25,株式会社アーティファクトリー,,株式会社,東京都,渋谷区,神宮前６丁目２３番４号桑野ビル２階,,13,113,1500001,,,,,,,2023-04-25,1,,,,,アーティファクトリー,0
624,3011001154046,新規,0,2023-04-25,2023-04-25,株式会社石井総業,,株式会社,東京都,渋谷区,道玄坂１丁目２０番８号寿パークビル４Ｆ,,13,113,1500043,,,,,,,2023-04-25,1,,,,,,0
629,3011101102516,新規,0,2023-04-25,2023-04-25,ＴｏｕｒＢｏｘ　Ｊａｐａｎ株式会社,,株式会社,東京都,新宿区,西新宿３丁目３番１３号西新宿水間ビル２Ｆ,,13,104,1600023,,,,,,,2023-04-25,1,,,,,ツアーボックスジャパン,0
630,3011101102615,新規,0,2023-04-25,2023-04-25,株式会社日建ファクトリー,,株式会社,東京都,新宿区,新宿２丁目１２番１３号新宿アントレサロンビル２階,,13,104,1600022,,,,,,,2023-04-25,1,,,,,ニッケンファクトリー,0
632,3011103012944,新規,0,2023-04-25,2023-04-25,ＬＩＢＥＲＴＡ合同会社,,合同会社,東京都,新宿区,北新宿２丁目２２－１－３０８,,13,104,1690074,,,,,,,2023-04-25,1,,,,,リベルタ,0
633,3011103012985,新規,0,2023-04-25,2023-04-25,ＤＥＶＥ‐ＬＩＢＡ合同会社,,合同会社,東京都,新宿区,西新宿３丁目３番－１３号西新宿水間ビル６階,,13,104,1600023,,,,,,,2023-04-25,1,,,,,デベリバ,0
638,3011203004065,新規,0,2023-04-25,2023-04-25,フィフス合同会社,,合同会社,東京都,中野区,新井２丁目２８番３号エスセナーリオ中野４０３号室,,13,114,1650026,,,,,,,2023-04-25,1,,,,,フィフス,0
640,3011501029219,新規,0,2023-04-25,2023-04-25,株式会社白い神,,株式会社,東京都,荒川区,南千住３丁目２７－２浅草ビル,,13,118,1160003,,,,,,,2023-04-25,1,,,,,シロイカミ,0
643,3011703003442,新規,0,2023-04-25,2023-04-25,合同会社ＳＥＮＫＹＡＫＵ　ＢＡＮＲＡＩプロダクション,,合同会社,東京都,江戸川区,江戸川５丁目１４番地,,13,123,1340013,,,,,,,2023-04-25,1,,,,,センキャクバンライプロダクション,0
648,3011801042301,新規,0,2023-04-25,2023-04-25,株式会社サントネ,,株式会社,東京都,足立区,新田１丁目１１－１王子神谷ビル３０２号室,,13,121,1230865,,,,,,,2023-04-25,1,,,,,サントネ,0
650,3012401040471,新規,0,2023-04-25,2023-04-25,株式会社ＳＡＮＪＵＧＯ,,株式会社,東京都,武蔵野市,吉祥寺本町１丁目１３番２号５階,,13,203,1800004,,,,,,,2023-04-25,1,,,,,サンジュゴ,0
653,3012801022301,新規,0,2023-04-25,2023-04-25,株式会社Ｆ‐Ｂｒｉｃｋｓ,,株式会社,東京都,国分寺市,本町３丁目１４番１８号,,13,214,1850012,,,,,,,2023-04-25,1,,,,,エフブリックス,0
655,3013301050627,新規,0,2023-04-25,2023-04-25,株式会社グロスティー,,株式会社,東京都,豊島区,東池袋２丁目２２番１号,,13,116,1700013,,,,,,,2023-04-25,1,,,,,グロスティー,0
656,3013301050635,新規,0,2023-04-25,2023-04-25,株式会社日成研,,株式会社,東京都,豊島区,南池袋１丁目９番１８号,,13,116,1710022,,,,,,,2023-04-25,1,,,,,ニッセイケン,0
657,3013303006593,新規,0,2023-04-25,2023-04-25,合同会社ＡＳＡ　ＪＡＰＡＮ,,合同会社,東京都,豊島区,池袋３丁目３４番７号ビジネスパーク池袋２階,,13,116,1710014,,,,,,,2023-04-25,1,,,,,アサジャパン,0
662,3020001151300,新規,0,2023-04-25,2023-04-25,クランプ株式会社,,株式会社,神奈川県,横浜市南区,山谷９２番地,,14,105,2320036,,,,,,,2023-04-25,1,,,,,クランプ,0
667,3020003023778,新規,0,2023-04-25,2023-04-25,翔輝トレーディング合同会社,,合同会社,神奈川県,川崎市川崎区,貝塚１丁目４番１８－５０１号,,14,131,2100014,,,,,,,2023-04-25,1,,,,,ショウキトレーディング,0
668,3020003023803,新規,0,2023-04-25,2023-04-25,合同会社ＹＰ商店,,合同会社,神奈川県,横浜市都筑区,牛久保西４丁目１３番１８号,,14,118,2240015,,,,,,,2023-04-25,1,,,,,ワイピーショウテン,0
669,3020003023811,新規,0,2023-04-25,2023-04-25,レピオス・ソリューションズ合同会社,,合同会社,神奈川県,川崎市多摩区,登戸２４３２－１ＢｌｕｅＷａｔｅｒビル７Ｆ,,14,135,2140014,,,,,,,2023-04-25,1,,,,,レピオスソリューションズ,0
674,3021005012793,新規,0,2023-04-25,2023-04-25,一般社団法人日本ゆたかなまちづくり研究会,,その他の設立登記法人,神奈川県,小田原市,東町１丁目１番１９号ベルシオン神谷　１０１号室,,14,206,2500003,,,,,,,2023-04-25,1,,,,,ニホンユタカナマチヅクリケンキュウカイ,0
684,3030001153361,新規,0,2023-04-25,2023-04-25,株式会社ラフテル,,株式会社,埼玉県,所沢市,北所沢町２２１９－３パテラ新所沢２０２,,11,208,3590046,,,,,,,2023-04-25,1,,,,,ラフテル,0
685,3030001153527,新規,0,2023-04-25,2023-04-25,株式会社ｂｏｎｄ　ｇｒｏｕｐ　ｈｏｌｄｉｎｇｓ,,株式会社,埼玉県,さいたま市桜区,栄和４丁目１番１号,,11,106,3380823,,,,,,,2023-04-25,1,,,,,ボンドグループホールディングス,0
690,3030003021624,新規,0,2023-04-25,2023-04-25,加賀ホールディングス合同会社,,合同会社,埼玉県,熊谷市,冑山６６８番地,,11,202,3690104,,,,,,,2023-04-25,1,,,,,カガホールディングス,0
695,3040001128098,新規,0,2023-04-25,2023-04-25,博洋株式会社,,株式会社,千葉県,千葉市美浜区,真砂１丁目３番６号コーポマイウェイＢ－１０２号,,12,106,2610011,,,,,,,2023-04-25,1,,,,,ハクヨウ,0
696,3040001128123,新規,0,2023-04-25,2023-04-25,株式会社ＦＥＤＥＬＴＡ,,株式会社,千葉県,市川市,鬼高３丁目１３番２－８０６号,,12,203,2720015,,,,,,,2023-04-25,1,,,,,フェデルタ,0
699,3040003022472,新規,0,2023-04-25,2023-04-25,Ｍａｓａｈｉｒｏ　Ｈａｙａｓｈｉ　ＬＩＦＥＳＡＶＩＮＧ合同会社,,合同会社,千葉県,夷隅郡御宿町,須賀４８８番地１ビューパレー御宿１１０５,,12,443,2995106,,,,,,,2023-04-25,1,,,,,マサヒロハヤシライフセービング,0
705,3050001052735,新規,0,2023-04-25,2023-04-25,株式会社Ｂフォレスト,,株式会社,茨城県,つくば市,学園南２丁目４番地３レーベン研究学園ＮＥＸＩＯ１０１１号,,08,220,3050818,,,,,,,2023-04-25,1,,,,,ビーフォレスト,0
710,3060001035937,新規,0,2023-04-25,2023-04-25,石井エンジニアリング株式会社,,株式会社,栃木県,足利市,大月町３４０番地３,,09,202,3260005,,,,,,,2023-04-25,1,,,,,イシイエンジニアリング,0
713,3070001040366,新規,0,2023-04-25,2023-04-25,株式会社熊井戸製作所,,株式会社,群馬県,甘楽郡甘楽町,大字天引７２５番地２,,10,384,3702217,,,,,,,2023-04-25,1,,,,,クマイドセイサクショ,0
718,3080401026451,新規,0,2023-04-25,2023-04-25,株式会社ルシアーレ,,株式会社,静岡県,浜松市中区,肴町３２２番地の２０浜松松竹ビル７階７０８号室,,22,131,4300932,,,,,,,2023-04-25,1,,,,,ルシアーレ,0
734,3120001254316,新規,0,2023-04-25,2023-04-25,株式会社阿辻創業,00130242,株式会社,大阪府,大阪市生野区,巽北３丁目３番１８号パークミライエ１０１号室,00130243,27,116,5440004,,,,,,,2023-04-25,1,,,,,アツジソウギョウ,0
735,3120001254324,新規,0,2023-04-25,2023-04-25,株式会社サイスタ,,株式会社,大阪府,大阪市北区,西天満４丁目３番４号,,27,127,5300047,,,,,,,2023-04-25,1,,,,,サイスタ,0
736,3120001254340,新規,0,2023-04-25,2023-04-25,株式会社Ｊｏｐｏ　Ｕｎｌｉｍｉｔｅｄ　Ｃｏｎｓｕｍｅｒ　Ｇｏｏｄｓ　Ｔｒａｄｉｎｇ,,株式会社,大阪府,大阪市中央区,南船場１丁目３番１６－７０２号,,27,128,5420081,,,,,,,2023-04-25,1,,,,,ジョポアンリミテッドコンシューマーグッズトレーディング,0
739,3120003023917,新規,0,2023-04-25,2023-04-25,合同会社９８’ｈｏｕｓｅ,,合同会社,大阪府,大阪市生野区,中川３丁目４番１７号１Ｆ,,27,116,5440005,,,,,,,2023-04-25,1,,,,,キューハチハウス,0
740,3120003023941,新規,0,2023-04-25,2023-04-25,Ｈｏｐｅｓ　Ｂｒｏｔｈｅｒｓ合同会社,,合同会社,大阪府,大阪市西区,立売堀６丁目８番６－１４０８号,,27,106,5500012,,,,,,,2023-04-25,1,,,,,ホープスブラザーズ,0
741,3120005023584,新規,0,2023-04-25,2023-04-25,一般社団法人真美会,,その他の設立登記法人,大阪府,大阪市北区,梅田２丁目５番８号千代田ビル西別館１０階,,27,127,5300001,,,,,,,2023-04-25,1,,,,,シンビカイ,0
746,3120101067428,新規,0,2023-04-25,2023-04-25,株式会社コトブキ,,株式会社,大阪府,富田林市,若松町西２丁目１４０１番地５,,27,214,5840025,,,,,,,2023-04-25,1,,,,,コトブキ,0
747,3120101067436,新規,0,2023-04-25,2023-04-25,株式会社ＳＡＮＳＥＩ,,株式会社,大阪府,藤井寺市,岡２丁目７番６７号第一セイワビル２０４号,,27,226,5830027,,,,,,,2023-04-25,1,,,,,サンセイ,0
754,3120903004611,新規,0,2023-04-25,2023-04-25,合同会社Ｎａｎｉｗａ　Ｉｎｆｏｒｍａｔｉｃａ,,合同会社,大阪府,茨木市,若草町４－２５ＤＡＩＷＡ・ＲＥＳＩＤＥＮＣＥ・ＩＢＡＲＡＫＩ１００２号,,27,211,5670875,,,,,,,2023-04-25,1,,,,,ナニワインフォマティカ,0
776,3140001129953,新規,0,2023-04-25,2023-04-25,株式会社Ｌｕｃｋ　Ｍｏｖｅ,,株式会社,兵庫県,西宮市,瓦林町３１番３６号,,28,204,6638107,,,,,,,2023-04-25,1,,,,,ラックムーブ,0
777,3140001129961,新規,0,2023-04-25,2023-04-25,株式会社さん,,株式会社,兵庫県,神戸市東灘区,本庄町２丁目１１番１６号,,28,101,6580012,,,,,,,2023-04-25,1,,,,,サン,0
807,3180301037340,新規,0,2023-04-25,2023-04-25,株式会社ＮＫＳ,,株式会社,愛知県,豊橋市,飯村町字西山２５番地１６２,,23,201,4400833,,,,,,,2023-04-25,1,,,,,エヌケーエス,0
816,3240001061411,新規,0,2023-04-25,2023-04-25,株式会社サポート,,株式会社,広島県,広島市安佐南区,大町東３丁目２番３７号,,34,105,7310124,,,,,,,2023-04-25,1,,,,,サポート,0
817,3240003006109,新規,0,2023-04-25,2023-04-25,せとうち経営相談合同会社,,合同会社,広島県,福山市,神辺町字下御領６４２番地１,,34,207,7202117,,,,,,,2023-04-25,1,,,,,セトウチケイエイソウダン,0
822,3250003003261,新規,0,2023-04-25,2023-04-25,合同会社宇部経営コンサルタント事務所,,合同会社,山口県,宇部市,寿町２丁目１番１３号,,35,202,7550032,,,,,,,2023-04-25,1,,,,,ウベケイエイコンサルタントジムショ,0
824,3260001037888,新規,0,2023-04-25,2023-04-25,株式会社オフィスガオ,,株式会社,岡山県,岡山市北区,神田町１丁目１３番４号（９０１）,,33,101,7000935,,,,,,,2023-04-25,1,,,,,オフィスガオ,0
826,3280003001725,新規,0,2023-04-25,2023-04-25,合同会社雲ニノル,,合同会社,島根県,松江市,灘町１－４３日発ビル４Ｆ,,32,201,6900065,,,,,,,2023-04-25,1,,,,,クモニノル,0
831,3290003013835,新規,0,2023-04-25,2023-04-25,合同会社アンドハナ,,合同会社,福岡県,糸島市,志摩小金丸１９４１番地１,,40,230,8191323,,,,,,,2023-04-25,1,,,,,アンドハナ,0
832,3290003013843,新規,0,2023-04-25,2023-04-25,Ｒａｐｏｎｅｃｔ．ｓ合同会社,,合同会社,福岡県,福岡市中央区,薬院３丁目８番１６－１７０２号グランドメゾン薬院ザ・タワーレジデンス,,40,133,8100022,,,,,,,2023-04-25,1,,,,,ラポネクトエス,0
841,3330001030811,新規,0,2023-04-25,2023-04-25,株式会社ＮＡＧＡＴＡ,,株式会社,熊本県,人吉市,上永野町７４２番地,,43,203,8680073,,,,,,,2023-04-25,1,,,,,ナガタ,0
849,3360001031831,新規,0,2023-04-25,2023-04-25,株式会社ＴＭエージェンシー,,株式会社,沖縄県,那覇市,久茂地３丁目２２－１日高ビル４階,,47,201,9000015,,,,,,,2023-04-25,1,,,,,ティエムエージェンシー,0
857,3370001049880,新規,0,2023-04-25,2023-04-25,株式会社ＴＭＫ,,株式会社,宮城県,仙台市宮城野区,平成１丁目１３番２７号コーポＫ１０３,,04,102,9830037,,,,,,,2023-04-25,1,,,,,ティーエムケイ,0
860,3380005012702,新規,0,2023-04-25,2023-04-25,一般社団法人オリーブを育てる会,,その他の設立登記法人,福島県,いわき市,久之浜町末続字代１４－１,,07,204,9790331,,,,,,,2023-04-25,1,,,,,オリーブヲソダテルカイ,0
867,3420001018236,新規,0,2023-04-25,2023-04-25,大畑産業株式会社,,株式会社,青森県,むつ市,大畑町湯坂下１０４番地,,02,208,0394401,,,,,,,2023-04-25,1,,,,,,0
871,3430001088930,新規,0,2023-04-25,2023-04-25,株式会社藤美建設,,株式会社,北海道,札幌市豊平区,月寒東五条１６丁目１２番３２号,,01,105,0620055,,,,,,,2023-04-25,1,,,,,フジミケンセツ,0
873,3430003014967,新規,0,2023-04-25,2023-04-25,合同会社らんど工房,,合同会社,北海道,札幌市東区,北二十七条東９丁目１番６号,,01,103,0650027,,,,,,,2023-04-25,1,,,,,ランドコウボウ,0
884,3700150115706,新規,0,2023-04-25,2023-04-25,ＮＵＷＡＮ　ＩＮＴＥＲＮＡＴＩＯＮＡＬ　ＰＲＩＶＡＴＥ　ＬＩＭＩＴＥＤ,,外国会社等,栃木県,小山市,東間々田１丁目７－１８グリーンゲイブルズＢ棟１０１号,,09,208,3290206,スリランカ民主社会主義共和国ホーマーガマ、ハイレベルロード、７８Ａ,,,,,,2023-04-25,1,,,,,ヌワンインターナシヨナルプライベートリミテツド,0
885,3700150115722,新規,0,2023-04-25,2023-04-25,ｇｕａｎｇｄｏｎｇ　ｈａｉｘｉｎｇｚｈｉｊｉａｋｅｊｉ　ｙｏｕｘｉａｎｇｏｎｇｓｉ,,外国会社等,,,,,,,,Ｆｌｏｏｒ　１，Ｂｕｉｌｄｉｎｇ　８，Ｃｈｕａｎｇｘｉｎ　Ａｒｅａ　Ａ，Ｓｉｎｏ－Ｇｅｒｍａｎ　Ｍｅｔａｌ　Ｅｃｏ－ｃｉｔｙ，Ｊｉｅｄｏｎｇ　Ｄｉｓｔｒｉｃｔ　Ｊｉｅｙａｎｇ　Ｇｕａｎｇｄｏｎｇ,,,,,,2023-04-25,1,,,,,カントンハイシンチジャケジユウゲンコウシ,0
886,3700150115730,新規,0,2023-04-25,2023-04-25,Ｓｈｅｎｚｈｅｎ　Ｙｕｎｑｉ　Ｓｕｐｐｌｙ　Ｃｈａｉｎ　Ｍａｎａｇｅｍｅｎｔ　Ｃｏ．，Ｌｔｄ．,,外国会社等,,,,,,,,４７－１－８０５，Ｔａｉｐｉｎｇ　Ｒｏａｄ，ＡＩ　Ｌｉａｎ　ｃｏｍｍｕｎｉｔｙ　Ｌｏｎｇｃｈｅｎｇ　ｓｔｒｅｅｔ，Ｌｏｎｇｇａｎｇ　Ｄｉｓｔｒｉｃｔ　ＳｈｅｎＺｈｅｎ　ＧｕａｎｇＤｏｎｇ　５１８０００　ＣＮ,,,,,,2023-04-25,1,,,,,シェンジェンシーインイーゴンインリエングワンリーヨウシエンゴンスー,0
896,4010001234699,新規,0,2023-04-25,2023-04-25,株式会社ＬＥＧＡＭＥ,,株式会社,東京都,中央区,八丁堀４丁目８番１号,,13,102,1040032,,,,,,,2023-04-25,1,,,,,レガーメ,0
897,4010001234781,新規,0,2023-04-25,2023-04-25,みずほクリーン株式会社,,株式会社,東京都,中央区,日本橋３丁目８番１３号華蓮日本橋ビル２階,,13,102,1030027,,,,,,,2023-04-25,1,,,,,ミズホクリーン,0
899,4010005036547,新規,0,2023-04-25,2023-04-25,一般社団法人日本きもの文化伝承推進機構,,その他の設立登記法人,東京都,文京区,目白台１丁目２３番６－４０１号,,13,105,1120015,,,,,,,2023-04-25,1,,,,,ニホンキモノブンカデンショウスイシンキコウ,0
903,4010401173943,新規,0,2023-04-25,2023-04-25,株式会社ヘルメンス,,株式会社,東京都,港区,新橋４丁目２１番３号,,13,103,1050004,,,,,,,2023-04-25,1,,,,,ヘルメンス,0
904,4010401173951,新規,0,2023-04-25,2023-04-25,トレックラブスジャパン株式会社,,株式会社,東京都,港区,虎ノ門１丁目１７番１号虎の門ヒルズビジネスタワー１６階５５号室,,13,103,1050001,,,,,,,2023-04-25,1,,,,,トレックラブスジャパン,0
906,4010501050357,新規,0,2023-04-25,2023-04-25,株式会社ＭＣＦサポート,,株式会社,東京都,台東区,千束３丁目２９番１号ライジングプレイス浅草参番館２０１,,13,106,1110031,,,,,,,2023-04-25,1,,,,,エムシーエフサポート,0
907,4010503006968,新規,0,2023-04-25,2023-04-25,合同会社ＳＰＡＲＫＬＥ,,合同会社,東京都,台東区,台東１丁目２５番１２－１３０４号アクシス台東,,13,106,1100016,,,,,,,2023-04-25,1,,,,,スパークル,0
908,4010603010119,新規,0,2023-04-25,2023-04-25,合同会社みらいリーフ,,合同会社,東京都,墨田区,墨田１丁目１４番２０号,,13,107,1310031,,,,,,,2023-04-25,1,,,,,ミライリーフ,0
910,4010701044167,新規,0,2023-04-25,2023-04-25,株式会社パブリック電力,,株式会社,東京都,品川区,上大崎３丁目１番１号目黒セントラルスクエア１５階,,13,109,1410021,,,,,,,2023-04-25,1,,,,,パブリックデンリョク,0
911,4010801033879,新規,0,2023-04-25,2023-04-25,株式会社愛楽会,,株式会社,東京都,大田区,田園調布２丁目４番１０号,,13,111,1450071,,,,,,,2023-04-25,1,,,,,アイラクカイ,0
918,4011001154045,新規,0,2023-04-25,2023-04-25,株式会社石井ホールディングス,,株式会社,東京都,渋谷区,道玄坂１丁目２０番８号寿パークビル４Ｆ,,13,113,1500043,,,,,,,2023-04-25,1,,,,,イシイホールディングス,0
919,4011001154061,新規,0,2023-04-25,2023-04-25,株式会社ライズ,,株式会社,東京都,渋谷区,本町２丁目２番７号,,13,113,1510071,,,,,,,2023-04-25,1,,,,,ライズ,0
920,4011003016722,新規,0,2023-04-25,2023-04-25,合同会社Ｂｒｏｃｃｏ,,合同会社,東京都,渋谷区,神宮前６丁目２３番４号桑野ビル２階,,13,113,1500001,,,,,,,2023-04-25,1,,,,,ブロッコ,0
921,4011003016730,新規,0,2023-04-25,2023-04-25,Ｓｏｌａｒｉｓ　Ｗｏｒｋｓ合同会社,,合同会社,東京都,渋谷区,渋谷２丁目１９－１５宮益坂ビルディング６０９,,13,113,1500002,,,,,,,2023-04-25,1,,,,,ソラリスワークス,0
925,4011101102622,新規,0,2023-04-25,2023-04-25,どこでもドア国際株式会社,,株式会社,東京都,新宿区,百人町２丁目１番４５号赤煉瓦２３５,,13,104,1690073,,,,,,,2023-04-25,1,,,,,ドコデモドアコクサアイ,0
926,4011101102630,新規,0,2023-04-25,2023-04-25,ＬＭ株式会社,,株式会社,東京都,新宿区,新宿５丁目４番１９ピアース新宿三丁目１３０１,,13,104,1600022,,,,,,,2023-04-25,1,,,,,エルエム,0
927,4011101102663,新規,0,2023-04-25,2023-04-25,株式会社サキュラス,,株式会社,東京都,新宿区,新宿１丁目２４番７号ルネ御苑プラザ１１２０,,13,104,1600022,,,,,,,2023-04-25,1,,,,,,0
939,4011501029218,新規,0,2023-04-25,2023-04-25,株式会社Ｌｕｐｕｓ,,株式会社,東京都,荒川区,西日暮里１丁目１８番３号ル・リオン５０４号室,,13,118,1160013,,,,,,,2023-04-25,1,,,,,ルプス,0
944,4011801042300,新規,0,2023-04-25,2023-04-25,徳天商事株式会社,,株式会社,東京都,足立区,栗原３丁目２６番１号２Ｆ,,13,121,1230842,,,,,,,2023-04-25,1,,,,,トクテンショウジ,0
946,4012401040462,新規,0,2023-04-25,2023-04-25,株式会社ＡＴＨＥＮＡ　ＵＮＩＴＥＤ,,株式会社,東京都,武蔵野市,吉祥寺北町４丁目１１番２号,,13,203,1800001,,,,,,,2023-04-25,1,,,,,アテナユナイテッド,0
947,4012401040470,新規,0,2023-04-25,2023-04-25,株式会社ＢＡＭＢＩ,,株式会社,東京都,武蔵野市,吉祥寺南町３丁目２７番２２号,,13,203,1800003,,,,,,,2023-04-25,1,,,,,バンビ,0
948,4012403005942,新規,0,2023-04-25,2023-04-25,合同会社ＣＨＡＲＬＥＳ　ＷＡＩＮ,,合同会社,東京都,調布市,調布ケ丘１丁目５番地１号西１１号館プレインキュベーションルーム,,13,208,1820021,,,,,,,2023-04-25,1,,,,,チヤールズウエイン,0
955,4013301050618,新規,0,2023-04-25,2023-04-25,Ｆｒｅｅｌｙ株式会社,,株式会社,東京都,豊島区,西池袋３丁目１５－６－３０８,,13,116,1710021,,,,,,,2023-04-25,1,,,,,フリーリー,0
957,4013303006601,新規,0,2023-04-25,2023-04-25,ＲＨＡＤＡ．ＫＲＩＳＨＮＡ合同会社,,合同会社,東京都,豊島区,東池袋２丁目１３番３号コーポ清和３０２号,,13,116,1700013,,,,,,,2023-04-25,1,,,,,ラダクリスナ,0
958,4013305003464,新規,0,2023-04-25,2023-04-25,一般社団法人日本河北総商会,,その他の設立登記法人,東京都,豊島区,西池袋５丁目５番２１号,,13,116,1710021,,,,,,,2023-04-25,1,,,,,ニホンカホクソウショウカイ,0
963,4020001151308,新規,0,2023-04-25,2023-04-25,株式会社ＦＤＣ,,株式会社,神奈川県,横浜市都筑区,あゆみが丘３番３０－３０４号シェリールあゆみが丘,,14,118,2240016,,,,,,,2023-04-25,1,,,,,エフディーシー,0
969,4021001078838,新規,0,2023-04-25,2023-04-25,株式会社Ｓ＆Ｓ,,株式会社,神奈川県,足柄上郡大井町,金子１１２番地１,,14,362,2580019,,,,,,,2023-04-25,1,,,,,エスアンドエス,0
970,4021003013025,新規,0,2023-04-25,2023-04-25,合同会社クライム,,合同会社,神奈川県,相模原市南区,西大沼２丁目１番２６号,,14,153,2520332,,,,,,,2023-04-25,1,,,,,クライム,0
981,4030003021607,新規,0,2023-04-25,2023-04-25,合同会社Ｒｕｓｈ　ｂｂｉｔ,,合同会社,埼玉県,さいたま市岩槻区,南平野３丁目１－２６,,11,110,3390051,,,,,,,2023-04-25,1,,,,,ラッシュビット,0
1005,4080401026450,新規,0,2023-04-25,2023-04-25,株式会社Ｓｔｏｎｅ　Ｂｉｇ,,株式会社,静岡県,浜松市中区,鍛冶町１００番地の１Ｂ１Ｆ,,22,131,4300933,,,,,,,2023-04-25,1,,,,,ストーンビック,0
1011,4100005013000,新規,0,2023-04-25,2023-04-25,一般社団法人日本人の健康をつくる住宅断熱リフォーム推進協議会,,その他の設立登記法人,長野県,長野市,南千歳１丁目３番地７守谷第一ビルディング２階３号,,20,201,3800823,,,,,,,2023-04-25,1,,,,,ニホンジンノケンコウヲツクルジュウタクダンネツリフォームスイシンキョウギカイ,0
1026,4120001254273,新規,0,2023-04-25,2023-04-25,世和株式会社,,株式会社,大阪府,大阪市生野区,小路東２丁目１６番３１号,,27,116,5440003,,,,,,,2023-04-25,1,,,,,セワ,0
1027,4120001254323,新規,0,2023-04-25,2023-04-25,株式会社致輝,,株式会社,大阪府,大阪市西成区,山王２丁目１３番２２号津住３０１,,27,122,5570001,,,,,,,2023-04-25,1,,,,,チキ,0
1028,4120001254389,新規,0,2023-04-25,2023-04-25,株式会社グリーンベース,,株式会社,大阪府,大阪市生野区,小路東４丁目３番２０号,,27,116,5440003,,,,,,,2023-04-25,1,,,,,グリーンベース,0
1030,4120003023908,新規,0,2023-04-25,2023-04-25,ＧＮＧ合同会社,,合同会社,大阪府,大阪市鶴見区,焼野１丁目南１１番３号ＧＲビル２Ｆ・Ａ１,,27,124,5380037,,,,,,,2023-04-25,1,,,,,ジーエヌジー,0
1033,4120101067435,新規,0,2023-04-25,2023-04-25,株式会社Ｓａｌｕｓ,,株式会社,大阪府,河内長野市,加賀田１６８０番地の５６０,,27,216,5860071,,,,,,,2023-04-25,1,,,,,サルース,0
1038,4120903004610,新規,0,2023-04-25,2023-04-25,ハヌル大阪合同会社,,合同会社,大阪府,摂津市,鳥飼下３丁目３５－１５,,27,224,5660071,,,,,,,2023-04-25,1,,,,,ハヌルオオサカ,0
1049,4140001129903,新規,0,2023-04-25,2023-04-25,ユニバーサルグリーン株式会社,,株式会社,兵庫県,三木市,吉川町山上１３８番地の１,,28,215,6731128,,,,,,,2023-04-25,1,,,,,ユニバーサルグリーン,0
1050,4140001129936,新規,0,2023-04-25,2023-04-25,株式会社ワイシーアイ,,株式会社,兵庫県,南あわじ市,阿那賀１４６７番地４,,28,224,6560661,,,,,,,2023-04-25,1,,,,,ワイシーアイ,0
1053,4140003019012,新規,0,2023-04-25,2023-04-25,合同会社デルタ,,合同会社,兵庫県,芦屋市,六麓荘町１１番５号,,28,206,6590011,,,,,,,2023-04-25,1,,,,,デルタ,0
1058,4160003002858,新規,0,2023-04-25,2023-04-25,合同会社ＹＡＥｐｌｕｓ,,合同会社,滋賀県,甲賀市,水口町北脇１１２７,,25,209,5280057,,,,,,,2023-04-25,1,,,,,ヤエプラス,0
1071,4190001030346,新規,0,2023-04-25,2023-04-25,株式会社リード・ミエ,,株式会社,三重県,松阪市,桂瀬町１５４番地４,,24,204,5151104,,,,,,,2023-04-25,1,,,,,リードミエ,0
1072,4190001030354,新規,0,2023-04-25,2023-04-25,株式会社タートルランド不動産,,株式会社,三重県,四日市市,野田２丁目３番３２号,,24,202,5100815,,,,,,,2023-04-25,1,,,,,タートルランドフドウサン,0
1077,4200001041226,新規,0,2023-04-25,2023-04-25,株式会社樹デザイン事務所,,株式会社,岐阜県,岐阜市,出屋敷７６番地,,21,201,5012501,,,,,,,2023-04-25,1,,,,,イツキデザインジムショ,0
1078,4200001041234,新規,0,2023-04-25,2023-04-25,株式会社はる不動産,,株式会社,岐阜県,岐阜市,菅生７丁目１番２４号,,21,201,5020914,,,,,,,2023-04-25,1,,,,,ハルフドウサン,0
1083,4220001025375,新規,0,2023-04-25,2023-04-25,株式会社金沢八匠,,株式会社,石川県,金沢市,西金沢３丁目５３１番地,,17,201,9218054,,,,,,,2023-04-25,1,,,,,カナザワハッショウ,0
1085,4220003003503,新規,0,2023-04-25,2023-04-25,合同会社澤田食品安全サポート,,合同会社,石川県,七尾市,矢田町４号１２番地７,,17,202,9260014,,,,,,,2023-04-25,1,,,,,サワダショクヒンアンゼンサポート,0
1089,4240001061419,新規,0,2023-04-25,2023-04-25,株式会社じおぷれ,,株式会社,広島県,広島市東区,山根町２３番８号,,34,102,7320048,,,,,,,2023-04-25,1,,,,,ジオプレ,0
1091,4240005015569,新規,0,2023-04-25,2023-04-25,一般社団法人Ｈｉｒｏｓｈｉｍａ　Ｗｅｂ３協会,,その他の設立登記法人,広島県,広島市中区,広瀬北町３番１１号,,34,101,7300803,,,,,,,2023-04-25,1,,,,,ヒロシマウェブスリーキョウカイ,0
1096,4260001037887,新規,0,2023-04-25,2023-04-25,アクアリース株式会社,,株式会社,岡山県,岡山市東区,古都宿９４番地１７,,33,103,7038212,,,,,,,2023-04-25,1,,,,,アクアリース,0
1097,4260003004290,新規,0,2023-04-25,2023-04-25,Ｒｕｃｃｉ合同会社,,合同会社,岡山県,岡山市北区,問屋町９－１０１タイルビル３Ｆ,,33,101,7000977,,,,,,,2023-04-25,1,,,,,ルッチ,0
1101,4290001101302,新規,0,2023-04-25,2023-04-25,株式会社正和,,株式会社,福岡県,福岡市城南区,梅林２丁目２６番１５－２０１号,,40,136,8140144,,,,,,,2023-04-25,1,,,,,セイワ,0
1102,4290001101327,新規,0,2023-04-25,2023-04-25,マホガニー株式会社,,株式会社,福岡県,福岡市中央区,渡辺通２丁目９－１６－３０２,,40,133,8100004,,,,,,,2023-04-25,1,,,,,マホガニー,0
1103,4290003013834,新規,0,2023-04-25,2023-04-25,合同会社ａｒｅｔｅ,,合同会社,福岡県,福津市,福間駅東２丁目２－２０－５０１,,40,224,8113208,,,,,,,2023-04-25,1,,,,,アレテー,0
1105,4300005007139,新規,0,2023-04-25,2023-04-25,一般社団法人祐徳奉賛会,,その他の設立登記法人,佐賀県,鹿島市,古枝甲１６３９番地３－１０１号,,41,207,8491321,,,,,,,2023-04-25,1,,,,,ユウトクホウサンカイ,0
1109,4310003004558,新規,0,2023-04-25,2023-04-25,合同会社コンビビアリティ長崎,,合同会社,長崎県,長崎市,京泊３丁目２９番７－１０２号,,42,201,8512211,,,,,,,2023-04-25,1,,,,,コンビビアリティ,0
1113,4330001030777,新規,0,2023-04-25,2023-04-25,京本株式会社,,株式会社,熊本県,菊池市,隈府４３５－１２菊池プラザ２階Ｉ室,00130244,43,210,8611331,,,,,,,2023-04-25,1,,,,,キョウモト,0
1114,4330001030785,新規,0,2023-04-25,2023-04-25,株式会社インフィニエンス,,株式会社,熊本県,熊本市中央区,辛島町８番２１号,,43,101,8600804,,,,,,,2023-04-25,1,,,,,インフィニエンス,0
1115,4330001030802,新規,0,2023-04-25,2023-04-25,畑のソムリエ株式会社,,株式会社,熊本県,八代市,郡築一番町２５６番地３,,43,202,8660024,,,,,,,2023-04-25,1,,,,,ハタケノソムリエ,0
1116,4330001030810,新規,0,2023-04-25,2023-04-25,株式会社テクノブレイク,,株式会社,熊本県,熊本市南区,刈草１丁目１番２０－３０８号サンデンハイツ近見,,43,104,8614134,,,,,,,2023-04-25,1,,,,,テクノブレイク,0
1124,4370001049871,新規,0,2023-04-25,2023-04-25,株式会社心花堂,00130240,株式会社,宮城県,仙台市青葉区,西花苑１丁目２１番１５号,,04,101,9820262,,,,,,,2023-04-25,1,,,,,トキメキドウ,0
1131,4390001017240,新規,0,2023-04-25,2023-04-25,株式会社さくらんぼ電工,,株式会社,山形県,寒河江市,字道生１８５番地,,06,206,9910007,,,,,,,2023-04-25,1,,,,,サクランボデンコウ,0
1136,4430001088913,新規,0,2023-04-25,2023-04-25,株式会社ＴＳＵＫＡＭ,,株式会社,北海道,札幌市手稲区,曙五条１丁目２番７号,00130251,01,109,0060835,,,,,,,2023-04-25,1,,,,,ツカム,0
1137,4430001088938,新規,0,2023-04-25,2023-04-25,ビック足場株式会社,,株式会社,北海道,札幌市西区,西野二条７丁目５番２１号,,01,107,0630032,,,,,,,2023-04-25,1,,,,,ビックアシバ,0
1141,4430003014966,新規,0,2023-04-25,2023-04-25,日興物産合同会社,,合同会社,北海道,札幌市白石区,菊水元町十条１丁目４番７号,,01,104,0030830,,,,,,,2023-04-25,1,,,,,ニッコウブッサン,0
1146,4470001019583,新規,0,2023-04-25,2023-04-25,Ｍ・Ｃ開発株式会社,,株式会社,香川県,丸亀市,広島町青木字南１１７７番地２,,37,202,7630105,,,,,,,2023-04-25,1,,,,,エムシーカイハツ,0
1148,4500001024893,新規,0,2023-04-25,2023-04-25,ねこじゃらテクネ株式会社,,株式会社,愛媛県,東温市,田窪１５１２－１,,38,215,7910212,,,,,,,2023-04-25,1,,,,,ネコジャラテクネ,0
1149,4700150115705,新規,0,2023-04-25,2023-04-25,Ｋｒｉｓｈａ　Ｈａｎｄｉｃｒａｆｔ　Ｐｖｔ．Ｌｔｄ．,,外国会社等,東京都,練馬区,石神井町２丁目１１番９号平間荘２０５,,13,120,1770041,ネパール国ラリトプル郡マハラクシュミ市６号,,,,,,2023-04-25,1,,,,,クリシヤハンデイクラフトプライベートリミテツド,0
1150,4700150115713,新規,0,2023-04-25,2023-04-25,ＦＩＲＳＴ　ＡＵＴＯ　ＰＴＹ　ＬＴＤ,,外国会社等,千葉県,山武郡横芝光町,木戸６８３６番地２－２,,12,410,2891726,レソト王国、マセル１００、ボインヤトソ、クベトソアナ,,,,,,2023-04-25,1,,,,,フアーストオートピーテイワイエルテイデイ,0
1151,4700150115721,新規,0,2023-04-25,2023-04-25,Ｎａｎｃｈａｎｇ　Ｚｈｏｎｇｃａｎｇｊｉｓｈｉ　Ｅ－ｃｏｍｍｅｒｃｅ　Ｃｏ，．Ｌｔｄ,,外国会社等,,,,,,,,Ｎａｔｉｏｎａｌ　Ｕｎｉｖｅｒｓｉｔｙ　Ｔｅｃｈｎｏｌｏｇｙ　Ｂｕｉｌｄｉｎｇ，Ｈｕｏｊｕ　５ｔｈ　Ｎｏ．８９９　２ｎｄ　ｆｌｏｏｒ，Ｎｏ．１６　Ｎａｎｃｈａｎｇ　Ｊｉａｎｇｘｉ,,,,,,2023-04-25,1,,,,,ナンチャンゾンチァンジシイーコンマスカンパニーリミテッド,0
1162,5010001234327,新規,0,2023-04-25,2023-04-25,株式会社ＴＩＣ,,株式会社,東京都,千代田区,九段南１丁目５－６りそな九段ビル５ＦＫＳフロア,,13,101,1020074,,,,,,,2023-04-25,1,,,,,ティーアイシー,0
1163,5010001234789,新規,0,2023-04-25,2023-04-25,ケーディービーアイ株式会社,,株式会社,東京都,千代田区,紀尾井町３番２９号,,13,101,1020094,,,,,,,2023-04-25,1,,,,,ケーディービーアイ,0
1167,5010005036562,新規,0,2023-04-25,2023-04-25,一般社団法人キャリア問題研究会,,その他の設立登記法人,東京都,千代田区,神田三崎町３丁目５番９天翔水道橋ビル,,13,101,1010061,,,,,,,2023-04-25,1,,,,,キャリアモンダイケンキュウカイ,0
1171,5010401173975,新規,0,2023-04-25,2023-04-25,株式会社高嶺,,株式会社,東京都,港区,赤坂３丁目２１番１０号赤坂青明会館４Ｆ,00130239,13,103,1070052,,,,,,,2023-04-25,1,,,,,タカネ,0
1172,5010401173991,新規,0,2023-04-25,2023-04-25,ＡＩＶｙ株式会社,,株式会社,東京都,港区,愛宕２丁目５番１号愛宕グリーンヒルズＭＯＲＩタワー３４Ｆ,,13,103,1050002,,,,,,,2023-04-25,1,,,,,アイビー,0
1174,5010603010118,新規,0,2023-04-25,2023-04-25,ＡＡ　ＣＯＮＳＵＬＴＡＮＣＹ合同会社,,合同会社,東京都,江東区,大島３丁目３２番１２－８０２号,,13,108,1360072,,,,,,,2023-04-25,1,,,,,エイエイコンサルタンシー,0
1177,5010801033878,新規,0,2023-04-25,2023-04-25,株式会社八財,,株式会社,東京都,大田区,大森東５丁目３０番６号ピュアコスモス２０４,,13,111,1430012,,,,,,,2023-04-25,1,,,,,ヤザイ,0
1183,5011001154036,新規,0,2023-04-25,2023-04-25,株式会社ＭＡＮＩＫＮＯＷＬＥＤＧＥ,,株式会社,東京都,渋谷区,道玄坂１丁目１０番８号渋谷道玄坂東急ビル２Ｆ－Ｃ,,13,113,1500043,,,,,,,2023-04-25,1,,,,,マニナレッジ,0
1184,5011001154044,新規,0,2023-04-25,2023-04-25,株式会社Ｔトリム,,株式会社,東京都,渋谷区,渋谷１丁目１９番１８－８０５号,,13,113,1500002,,,,,,,2023-04-25,1,,,,,ティートリム,0
1186,5011005010037,新規,0,2023-04-25,2023-04-25,特定非営利活動法人ＬＩＣＨＴ,,その他の設立登記法人,東京都,渋谷区,千駄ヶ谷１丁目７番８号千駄ヶ谷尾澤ビルＢ１,,13,113,1510051,,,,,,,2023-04-25,1,,,,,リヒト,0
1192,5011103012991,新規,0,2023-04-25,2023-04-25,合同会社ＹＪ＆Ｃｏ．,,合同会社,東京都,新宿区,市谷薬王寺町５８市谷春日３０３,,13,104,1620063,,,,,,,2023-04-25,1,,,,,ワイジェイアンドシィオードット,0
1197,5011501029217,新規,0,2023-04-25,2023-04-25,日本汀蘭藥妝株式会社,,株式会社,東京都,荒川区,南千住３丁目２７－２浅草ビル,,13,118,1160003,,,,,,,2023-04-25,1,,,,,ニホンテイランヤクショウ,0
1198,5011501029225,新規,0,2023-04-25,2023-04-25,株式会社ＭＪＫ　ＪＡＰＡＮ,,株式会社,東京都,北区,西ケ原２丁目８番１－４０７号,,13,117,1140024,,,,,,,2023-04-25,1,,,,,エムジェーケージャパン,0
1200,5011503005579,新規,0,2023-04-25,2023-04-25,コクウ合同会社,,合同会社,東京都,北区,神谷３丁目２２番５号,,13,117,1150043,,,,,,,2023-04-25,1,,,,,コクウ,0
1202,5011801042290,新規,0,2023-04-25,2023-04-25,株式会社ＡＴＬＡＳＤＥＳＩＧＮ,,株式会社,東京都,葛飾区,西亀有３丁目２番１５号,,13,122,1250002,,,,,,,2023-04-25,1,,,,,アトラスデザイン,0
1208,5012401040461,新規,0,2023-04-25,2023-04-25,株式会社ＭＧファクトリー,,株式会社,東京都,小金井市,貫井南町５丁目１５番４号,,13,210,1840014,,,,,,,2023-04-25,1,,,,,エムジーファクトリー,0
1211,5012803003066,新規,0,2023-04-25,2023-04-25,合同会社ＢＡＬＬ．,,合同会社,東京都,立川市,柴崎町３丁目９番２号コトリンク３Ｆ,,13,202,1900023,,,,,,,2023-04-25,1,,,,,ボール,0
1226,5021001078787,新規,0,2023-04-25,2023-04-25,株式会社ＢＳＴ,,株式会社,神奈川県,座間市,相模が丘５丁目２５番１８,,14,216,2520001,,,,,,,2023-04-25,1,,,,,ビーエスティー,0
1227,5021001078795,新規,0,2023-04-25,2023-04-25,株式会社ＨＡＲＭＡ　ＴＲＡＤＩＮＧ　ＪＡＰＡＮ,,株式会社,神奈川県,相模原市南区,相模台２丁目２番２号ガーデンヒルＩＩ３階フェルゴ内,00130245,14,153,2520321,,,,,,,2023-04-25,1,,,,,ハルマトレーディングジャパン,0
1243,5030005021224,新規,0,2023-04-25,2023-04-25,特定非営利活動法人フォーケアラーズ,,その他の設立登記法人,埼玉県,草加市,谷塚上町４６６番地２１,,11,221,3400024,,,,,,,2023-04-25,1,,,,,フォーケアラーズ,0
1248,5040001128088,新規,0,2023-04-25,2023-04-25,東昇株式会社,,株式会社,千葉県,船橋市,南本町２１番１６号,,12,204,2730004,,,,,,,2023-04-25,1,,,,,トウショウ,0
1250,5040005021966,新規,0,2023-04-25,2023-04-25,グローバル人材支援協同組合,,その他の設立登記法人,千葉県,柏市,加賀３丁目１８番１２号,,12,217,2770051,,,,,,,2023-04-25,1,,,,,グローバルジンザイシエン,0
1254,5050001052733,新規,0,2023-04-25,2023-04-25,侑駿株式会社,,株式会社,茨城県,つくばみらい市,山王新田２１０番地３,,08,235,3002332,,,,,,,2023-04-25,1,,,,,,0
1256,5060005010083,新規,0,2023-04-25,2023-04-25,一般社団法人なーす舎移動する保健室,,その他の設立登記法人,栃木県,下野市,祇園２丁目１８番１ダイアパレス２番館１０５号,00130238,09,216,3290434,,,,,,,2023-04-25,1,,,,,ナースシャイドウスルホケンシツ,0
1257,5070003004920,新規,0,2023-04-25,2023-04-25,ＰＬＵＳ８４合同会社,,合同会社,群馬県,桐生市,相生町３丁目字宿１３番地の１,,10,203,3760011,,,,,,,2023-04-25,1,,,,,プラスエイティフォー,0
1259,5080101023953,新規,0,2023-04-25,2023-04-25,株式会社ＧＬＧＰ,,株式会社,静岡県,熱海市,渚町５番１号２階,,22,205,4130014,,,,,,,2023-04-25,1,,,,,ジーエルジーピー,0
1261,5090001018094,新規,0,2023-04-25,2023-04-25,株式会社Ｓ　Ｆｉｅｌｄ,,株式会社,山梨県,中巨摩郡昭和町,西条７３０番地１,,19,384,4093866,,,,,,,2023-04-25,1,,,,,エスフィールド,0
1262,5100003006995,新規,0,2023-04-25,2023-04-25,ハーヴェスト合同会社,,合同会社,長野県,松本市,大字笹賀２９０８－６,,20,202,3990033,,,,,,,2023-04-25,1,,,,,ハーヴェスト,0
1279,5120001254215,新規,0,2023-04-25,2023-04-25,楷弘株式会社,,株式会社,大阪府,大阪市大正区,三軒家西３丁目４番１６号中山ビル３０５Ｂ,,27,108,5510001,,,,,,,2023-04-25,1,,,,,カイコウ,0
1280,5120001254272,新規,0,2023-04-25,2023-04-25,株式会社ＭＥＴＥＯＲＡ,,株式会社,大阪府,大阪市中央区,南船場４丁目１０番５号南船場ＳＯＨＯビル７０２,,27,128,5420081,,,,,,,2023-04-25,1,,,,,メテオーラ,0
1281,5120001254371,新規,0,2023-04-25,2023-04-25,Ｌｉｋｅ商事株式会社,,株式会社,大阪府,大阪市浪速区,大国２丁目１８番１３号サンシャイン大国１Ｆ,,27,111,5560014,,,,,,,2023-04-25,1,,,,,ライクショウジ,0
1282,5120001254388,新規,0,2023-04-25,2023-04-25,株式会社アクセス・ワン,,株式会社,大阪府,大阪市西淀川区,佃４丁目８番６号ラ・カーサ・フェリス１階,,27,113,5550001,,,,,,,2023-04-25,1,,,,,アクセスワン,0
1285,5120003023923,新規,0,2023-04-25,2023-04-25,大和合同会社,,合同会社,大阪府,大阪市港区,弁天１丁目３番１３号,,27,107,5520007,,,,,,,2023-04-25,1,,,,,ヤマト,0
1286,5120003023931,新規,0,2023-04-25,2023-04-25,中和工業合同会社,,合同会社,大阪府,大阪市西淀川区,中島１丁目２３番２６４号,,27,113,5550041,,,,,,,2023-04-25,1,,,,,チュウワコウギョウ,0
1289,5120103005193,新規,0,2023-04-25,2023-04-25,ＴＨＲＥＥ　ＳＴＡＲ　ＴＲＡＤＩＮＧ合同会社,,合同会社,大阪府,和泉市,春木町９１９番１,,27,219,5941141,,,,,,,2023-04-25,1,,,,,スリースタートレーディング,0
1290,5120901047453,新規,0,2023-04-25,2023-04-25,株式会社知伝徒,,株式会社,大阪府,摂津市,千里丘東４丁目５番５号,,27,224,5660011,,,,,,,2023-04-25,1,,,,,タヌキ,0
1297,5130001074109,新規,0,2023-04-25,2023-04-25,株式会社クレアスト,,株式会社,京都府,京都市南区,久世中久世町１丁目１１４番地シャーメゾンルミエールＬ２０１,,26,107,6018213,,,,,,,2023-04-25,1,,,,,クレアスト,0
1301,5140001129951,新規,0,2023-04-25,2023-04-25,株式会社かさね,,株式会社,兵庫県,西宮市,甲子園町１８番８号,,28,204,6638152,,,,,,,2023-04-25,1,,,,,カサネ,0
1305,5170001017567,新規,0,2023-04-25,2023-04-25,株式会社魁,,株式会社,和歌山県,和歌山市,中之島１５３１番地,,30,201,6408392,,,,,,,2023-04-25,1,,,,,サキガケ,0
1331,5200001041225,新規,0,2023-04-25,2023-04-25,株式会社Ｖｏｉｃｅ,,株式会社,岐阜県,岐阜市,溝口上７７番地,,21,201,5012557,,,,,,,2023-04-25,1,,,,,ヴォイス,0
1332,5200001041233,新規,0,2023-04-25,2023-04-25,株式会社リノベＧＩＦＵ,,株式会社,岐阜県,安八郡安八町,東結１１６７番地,,21,383,5030112,,,,,,,2023-04-25,1,,,,,リノベギフ,0
1338,5240001061418,新規,0,2023-04-25,2023-04-25,株式会社Ｔ’ａｎｓ,,株式会社,広島県,福山市,坪生町２丁目２番１号,,34,207,7210903,,,,,,,2023-04-25,1,,,,,ティーアンズ,0
1339,5240003006115,新規,0,2023-04-25,2023-04-25,合同会社ＰＥＲＩ　ＣＡＦＥ,,合同会社,広島県,福山市,駅家町大字助元１４８番地４,,34,207,7202524,,,,,,,2023-04-25,1,,,,,ペリカフェ,0
1343,5260001037886,新規,0,2023-04-25,2023-04-25,株式会社ジェイワイジェイ,,株式会社,岡山県,岡山市北区,旭本町１番３５号,,33,101,7000865,,,,,,,2023-04-25,1,,,,,ジェイワイジェイ,0
1346,5290003013833,新規,0,2023-04-25,2023-04-25,合同会社ＭＯＮＣｓ,,合同会社,福岡県,古賀市,舞の里２丁目２番４号,,40,223,8113114,,,,,,,2023-04-25,1,,,,,,0
1355,5310001018385,新規,0,2023-04-25,2023-04-25,株式会社ヤマサキエンジニア,,株式会社,長崎県,長崎市,愛宕１丁目５番２５号,,42,201,8500822,,,,,,,2023-04-25,1,,,,,ヤマサキエンジニア,0
1365,5340003004109,新規,0,2023-04-25,2023-04-25,合同会社コラボプランニング,,合同会社,鹿児島県,姶良市,東餅田３８４６番地２４,,46,225,8995421,,,,,,,2023-04-25,1,,,,,コラボプランニング,0
1370,5360005006836,新規,0,2023-04-25,2023-04-25,うるま金城水産事業協同組合,,その他の設立登記法人,沖縄県,うるま市,勝連浜１１番地,,47,213,9042315,,,,,,,2023-04-25,1,,,,,ウルマキンジョウスイサン,0
1379,5410005006517,新規,0,2023-04-25,2023-04-25,農事組合法人福野集落ファーム,,その他の設立登記法人,秋田県,男鹿市,野石字上李台８４番地,,05,206,0100401,,,,,,,2023-04-25,1,,,,,フクノシュウラクファーム,0
1384,5430001088912,新規,0,2023-04-25,2023-04-25,株式会社ＮｅｘｔＡｓｉａ　Ｅｄｕｃａｔｉｏｎ,,株式会社,北海道,札幌市中央区,宮の森二条１１丁目１番５号,,01,101,0640952,,,,,,,2023-04-25,1,,,,,ネクストアジアエデュケーション,0
1385,5430001088920,新規,0,2023-04-25,2023-04-25,株式会社ジール工業,,株式会社,北海道,札幌市北区,篠路七条３丁目２番２４号,,01,102,0028027,,,,,,,2023-04-25,1,,,,,ジールコウギョウ,0
1386,5430001088929,新規,0,2023-04-25,2023-04-25,株式会社Ａｉ　Ｌｉｋｅｓ,,株式会社,北海道,札幌市豊平区,中の島二条４丁目１番３号,,01,105,0620922,,,,,,,2023-04-25,1,,,,,アイライクス,0
1389,5430003014965,新規,0,2023-04-25,2023-04-25,合同会社スタン,,合同会社,北海道,札幌市南区,澄川四条３丁目５番１３号ウエルス澄川１階,,01,106,0050004,,,,,,,2023-04-25,1,,,,,スタン,0
1395,5470003002405,新規,0,2023-04-25,2023-04-25,合同会社横山,,合同会社,香川県,観音寺市,村黒町２３０番地１県営常磐団地２９棟０４号,,37,205,7680013,,,,,,,2023-04-25,1,,,,,ヨコヤマ,0
1397,5490001010465,新規,0,2023-04-25,2023-04-25,株式会社ＷＩＮ,,株式会社,高知県,高知市,鴨部１丁目１９番１２いく代ビル１０１号,,39,201,7808052,,,,,,,2023-04-25,1,,,,,ウィン,0
1402,5500001024892,新規,0,2023-04-25,2023-04-25,株式会社Ｍｒ．ＮＩＡＧＥＭＡＮ,,株式会社,愛媛県,松山市,東長戸２丁目３番９号,,38,201,7918005,,,,,,,2023-04-25,1,,,,,ミスターニアゲマン,0
1404,5700150115704,新規,0,2023-04-25,2023-04-25,ＳＯＯＲＩＹＡ　ＥＮＴＥＲＰＲＩＳＥＳ,,外国会社等,千葉県,香取郡神崎町,神崎本宿１１３１－１０－２０３号室,,12,342,2890221,スリランカ民主社会主義共和国、アンバラントタ、デイヒガハランダ、４７６／６／１,,,,,,2023-04-25,1,,,,,スーリヤエンタープライズ,0
1405,5700150115712,新規,0,2023-04-25,2023-04-25,Ｈａｒｄｏｆｆ　Ｔｒａｄｉｎｇ　Ｐｒｉｖａｔｅ　Ｌｉｍｉｔｅｄ,,外国会社等,千葉県,大網白里市,細草１４１２番地１Ａ,,12,239,2993211,スリランカ民主社会主義共和国カンディ、アクラナ、メイン通、スイスコンプレックス、１階、１６０／２,,,,,,2023-04-25,1,,,,,ハードオフトレーデイングプライベートリミテツド,0
1406,5700150115720,新規,0,2023-04-25,2023-04-25,Ｓｈｅｎｚｈｅｎ　Ｘｉｎｘｉｎ　Ｔｅｃｈｎｏｌｏｇｙ　Ｃｏ．，Ｌｔｄ,,外国会社等,,,,,,,,１０１，Ｆｌｏｏｒ　１，Ｂｕｉｌｄｉｎｇ　Ｂ，３０３　Ｎｏｒｔｈ　Ｐｉｎｇｊｉ　Ａｖｅｎｕｅ，Ｐｉｎｇｈｕ　Ｓｔｒｅｅｔ，Ｌｏｎｇｇａｎｇ　Ｄｉｓｔｒｉｃｔ，Ｓｈｅｎｚｈｅｎ　Ｃｉｔｙ　Ｇｕａｎｇｄｏｎｇ　Ｐｒｏｖｉｎｃｅ,,,,,,2023-04-25,1,,,,,シンセンシンシンテクノロジーカンパニーリミテッド,0
1407,5700150115729,新規,0,2023-04-25,2023-04-25,ＸｉａＭｅｎ　ＨｕａＮａＬｉ　ＳｈｕＭａ　ＫｅＪｉ　ＹｏｕＸｉａｎＧｏｎｇｓｉ,,外国会社等,,,,,,,,ＪｉＭｅｉ　ＧｕａｎＫｏｕ　ＬｉｎＬｉｎＣｕｎ　ＬｉＬｉｎＳｈｅ　ＮＯ．７７３　４ｔｈ　ＸｉａＭｅｎ　ＦｕＪｉａｎ　ＣＮ,,,,,,2023-04-25,1,,,,,シャーメンフアナリシュマケジユウゲンコウシ,0
1433,6010501050355,新規,0,2023-04-25,2023-04-25,株式会社ライフ,,株式会社,東京都,台東区,上野６丁目８番１９号,,13,106,1100005,,,,,,,2023-04-25,1,,,,,ライフ,0
1440,6010903008125,新規,0,2023-04-25,2023-04-25,叶願合同会社,,合同会社,東京都,世田谷区,太子堂２丁目１７―５,,13,112,1540004,,,,,,,2023-04-25,1,,,,,カナッテイル,0
1445,6011001153994,新規,0,2023-04-25,2023-04-25,トータルシステム株式会社,,株式会社,東京都,渋谷区,神泉町１０番１５号,,13,113,1500045,,,,,,,2023-04-25,1,,,,,トータルシステム,0
1446,6011001154002,新規,0,2023-04-25,2023-04-25,株式会社１９８８,,株式会社,東京都,渋谷区,道玄坂１丁目１０番８号渋谷道玄坂東急ビル２Ｆ－Ｃ,,13,113,1500043,,,,,,,2023-04-25,1,,,,,イチキュウハチハチ,0
1447,6011001154027,新規,0,2023-04-25,2023-04-25,ＴＡＫＥＯＦＦ株式会社,,株式会社,東京都,渋谷区,神宮前４丁目２６－２８－２Ｆ,,13,113,1500001,,,,,,,2023-04-25,1,,,,,テイクオフ,0
1448,6011001154035,新規,0,2023-04-25,2023-04-25,ＩＬＬＵＭＩＮＡＴＥ株式会社,,株式会社,東京都,渋谷区,代々木２丁目４４番２－１０１号,,13,113,1510053,,,,,,,2023-04-25,1,,,,,イルミネート,0
1449,6011101102637,新規,0,2023-04-25,2023-04-25,株式会社Ｄ‐ｒｅｃｔｏｒ,,株式会社,東京都,新宿区,西新宿６丁目５－１新宿アイランドタワー７階,,13,104,1600023,,,,,,,2023-04-25,1,,,,,ディレクター,0
1454,6011403003979,新規,0,2023-04-25,2023-04-25,合同会社ビッグバンミュージック,,合同会社,東京都,板橋区,前野町６丁目１４番５号,,13,119,1740063,,,,,,,2023-04-25,1,,,,,ビッグバンミュージック,0
1455,6011503005578,新規,0,2023-04-25,2023-04-25,ショウリ企画合同会社,,合同会社,東京都,北区,豊島６丁目８番１２－５０１号カーサー竹矢,,13,117,1140003,,,,,,,2023-04-25,1,,,,,ショウリキカク,0
1456,6011505002549,新規,0,2023-04-25,2023-04-25,一般社団法人日本オアシス,,その他の設立登記法人,東京都,荒川区,東日暮里６丁目６－１６モナーク東日暮里６０２号,,13,118,1160014,,,,,,,2023-04-25,1,,,,,ニホンオアシス,0
1465,6012401040452,新規,0,2023-04-25,2023-04-25,株式会社ベルビューコンサルティング,,株式会社,東京都,府中市,小柳町６丁目２１番地の１３,,13,206,1830013,,,,,,,2023-04-25,1,,,,,ベルビューコンサルティング,0
1466,6012401040460,新規,0,2023-04-25,2023-04-25,株式会社ｈａｒｋ,,株式会社,東京都,府中市,小柳町２丁目４５番地の７ミオカステーロ府中小柳町４０４,,13,206,1830013,,,,,,,2023-04-25,1,,,,,ハルク,0
1480,6020003023718,新規,0,2023-04-25,2023-04-25,合同会社ＤＮライフ,,合同会社,神奈川県,横浜市緑区,中山１丁目２７番６号シロタ中山ハイツＡ棟２０３,,14,113,2260019,,,,,,,2023-04-25,1,,,,,ディーエヌライフ,0
1484,6030001153524,新規,0,2023-04-25,2023-04-25,ウェルネスセンス株式会社,,株式会社,埼玉県,さいたま市大宮区,桜木町４丁目８０番地１,,11,103,3300854,,,,,,,2023-04-25,1,,,,,ウェルネスセンス,0
1488,6040001128070,新規,0,2023-04-25,2023-04-25,株式会社共栄商会,,株式会社,千葉県,船橋市,宮本２丁目１２番１０号,,12,204,2730003,,,,,,,2023-04-25,1,,,,,キョウエイショウカイ,0
1489,6040001128120,新規,0,2023-04-25,2023-04-25,株式会社ＬＳＯＮＥ,,株式会社,千葉県,千葉市中央区,星久喜町１１５７－４８－２０３,,12,101,2600808,,,,,,,2023-04-25,1,,,,,,0
1493,6040003022420,新規,0,2023-04-25,2023-04-25,合同会社ＬＩＦＩＸ,,合同会社,千葉県,市川市,塩焼４丁目５番３１－１０１号,,12,203,2720114,,,,,,,2023-04-25,1,,,,,リフィックス,0
1497,6040005021973,新規,0,2023-04-25,2023-04-25,一般社団法人日本きょうだい福祉協会,,その他の設立登記法人,千葉県,松戸市,東松戸２丁目２７番地１,,12,207,2702225,,,,,,,2023-04-25,1,,,,,ニホンキョウダイフクシキョウカイ,0
1510,6080101023952,新規,0,2023-04-25,2023-04-25,株式会社浪漫造形所,,株式会社,静岡県,伊東市,池６１５番地１２４,,22,208,4130234,,,,,,,2023-04-25,1,,,,,ロマンゾウケイジョ,0
1511,6080103002789,新規,0,2023-04-25,2023-04-25,合同会社イノベーションサポーツ,,合同会社,静岡県,三島市,沢地３１番地の４,,22,206,4110043,,,,,,,2023-04-25,1,,,,,イノベーションサポーツ,0
1515,6080403004774,新規,0,2023-04-25,2023-04-25,合同会社ＳＩＬＶＡ自動車Ｔｒａｄｉｎｇ,,合同会社,静岡県,袋井市,岡崎１９８８西棟,,22,216,4371312,,,,,,,2023-04-25,1,,,,,シルヴァジドウシャトレーディング,0
1518,6090001018077,新規,0,2023-04-25,2023-04-25,株式会社アンフェア,,株式会社,山梨県,甲府市,千塚２丁目１６番１号,00130246,19,201,4000074,,,,,,,2023-04-25,1,,,,,アンフェア,0
1537,6120001254189,新規,0,2023-04-25,2023-04-25,株式会社アルパカ,,株式会社,大阪府,大阪市北区,梅田１丁目１－３大阪駅前第３ビル２９階１－１－１号室,,27,127,5300001,,,,,,,2023-04-25,1,,,,,アルパカ,0
1538,6120001254313,新規,0,2023-04-25,2023-04-25,株式会社こねくと,,株式会社,大阪府,大阪市生野区,巽西２丁目１４番１３号,00130236,27,116,5440012,,,,,,,2023-04-25,1,,,,,コネクト,0
1539,6120001254354,新規,0,2023-04-25,2023-04-25,オーエスティ株式会社,,株式会社,大阪府,大阪市西区,北堀江１丁目２２番１４号,,27,106,5500014,,,,,,,2023-04-25,1,,,,,オーエスティ,0
1540,6120001254362,新規,0,2023-04-25,2023-04-25,隠武株式会社,,株式会社,大阪府,大阪市港区,弁天２丁目１４番２５号中野ビル３階Ｂ－５号室,,27,107,5520007,,,,,,,2023-04-25,1,,,,,インブ,0
1541,6120001254404,新規,0,2023-04-25,2023-04-25,太乙株式会社,,株式会社,大阪府,大阪市中央区,瓦屋町２丁目１０－１４第３天偉ビル３Ｆ室,,27,128,5420066,,,,,,,2023-04-25,1,,,,,タイイツ,0
1542,6120003023930,新規,0,2023-04-25,2023-04-25,合同会社ゼログループ,,合同会社,大阪府,大阪市浪速区,日本橋５丁目１２－３ＯｓａｋａＭｅｔｏｒｏ恵比寿町ビル７Ｆ－２０,,27,111,5560005,,,,,,,2023-04-25,1,,,,,ゼログループ,0
1559,6140001129901,新規,0,2023-04-25,2023-04-25,株式会社クラフトペイント,,株式会社,兵庫県,神戸市北区,八多町附物１７８３番地,,28,109,6511343,,,,,,,2023-04-25,1,,,,,クラフトペイント,0
1560,6140001129967,新規,0,2023-04-25,2023-04-25,株式会社サントンサービス,,株式会社,兵庫県,神戸市須磨区,道正台１丁目１番３－４０７号,,28,107,6540122,,,,,,,2023-04-25,1,,,,,サントンサービス,0
1564,6170001017566,新規,0,2023-04-25,2023-04-25,株式会社ＯＫＩＫＥＮ,,株式会社,和歌山県,和歌山市,吉原２５２番地,,30,201,6400331,,,,,,,2023-04-25,1,,,,,オキケン,0
1575,6180003025153,新規,0,2023-04-25,2023-04-25,ＪＯＳＨ合同会社,,合同会社,愛知県,春日井市,高座台２丁目２番地２、１０３号棟４０１号室,,23,206,4870017,,,,,,,2023-04-25,1,,,,,ジョス,0
1584,6200003005937,新規,0,2023-04-25,2023-04-25,ｍｉｎｄｅｖ　ｓｏｌｕｔｉｏｎｓ合同会社,,合同会社,岐阜県,岐阜市,東鶉４丁目５１番地１０,,21,201,5008281,,,,,,,2023-04-25,1,,,,,ミンデブソリューションズ,0
1590,6240001061417,新規,0,2023-04-25,2023-04-25,株式会社ｆａｚｅｏｎｅ,,株式会社,広島県,福山市,昭和町６番１号,,34,207,7200808,,,,,,,2023-04-25,1,,,,,フェーズワン,0
1591,6250003003259,新規,0,2023-04-25,2023-04-25,合同会社ゆのＧ農園,,合同会社,山口県,周南市,大字湯野３４５０番地,,35,215,7451132,,,,,,,2023-04-25,1,,,,,ユノグリーンノウエン,0
1592,6250005008818,新規,0,2023-04-25,2023-04-25,一般社団法人山口ＥＡＰグループ,,その他の設立登記法人,山口県,山口市,平井３９１－２－１０２,,35,203,7530831,,,,,,,2023-04-25,1,,,,,ヤマグチイーエーピーグループ,0
1594,6260003004264,新規,0,2023-04-25,2023-04-25,合同会社泉商会,,合同会社,岡山県,倉敷市,西富井６２９―５０,,33,202,7100845,,,,,,,2023-04-25,1,,,,,イズミショウカイ,0
1595,6260003004289,新規,0,2023-04-25,2023-04-25,合同会社ＷＥＬＬ‐ＢＥＩＮＧ５ＩＫＡＳＡ,,合同会社,岡山県,笠岡市,金浦５０番地３２,,33,205,7140057,,,,,,,2023-04-25,1,,,,,ウィルビーイングファイブイカサ,0
1598,6290001101259,新規,0,2023-04-25,2023-04-25,株式会社スズタン,,株式会社,福岡県,福岡市中央区,大濠２丁目１０番２０号大濠パークホームズ１０３号,,40,133,8100052,,,,,,,2023-04-25,1,,,,,スズタン,0
1602,6290801029492,新規,0,2023-04-25,2023-04-25,株式会社裕翔,,株式会社,福岡県,京都郡苅田町,京町１丁目１０番地３（芙蓉ロイヤルハイツＢ１０１）,,40,621,8000351,,,,,,,2023-04-25,1,,,,,ユウショウ,0
1603,6290803004403,新規,0,2023-04-25,2023-04-25,合同会社Ｎｏｖｅｍｂｅｒ,,合同会社,福岡県,北九州市若松区,高須北１丁目７番１３号,,40,103,8080147,,,,,,,2023-04-25,1,,,,,ノベンバー,0
1605,6310003004556,新規,0,2023-04-25,2023-04-25,合同会社ｓｉｅｒｒａ,,合同会社,長崎県,長崎市,浜平２丁目１番３７号,,42,201,8500041,,,,,,,2023-04-25,1,,,,,シエラ,0
1607,6320001019712,新規,0,2023-04-25,2023-04-25,株式会社ＭＫリース,,株式会社,大分県,大分市,公園通り４丁目８番地の５,,44,201,8700173,,,,,,,2023-04-25,1,,,,,エムケイリース,0
1608,6320001019720,新規,0,2023-04-25,2023-04-25,株式会社Ｗａｙｓホールディングス,,株式会社,大分県,大分市,中央町２丁目２番６号,,44,201,8700035,,,,,,,2023-04-25,1,,,,,ウェイズホールディングス,0
1611,6340001025527,新規,0,2023-04-25,2023-04-25,株式会社うむい,,株式会社,鹿児島県,奄美市,名瀬大熊町３５番地１７,,46,222,8940009,,,,,,,2023-04-25,1,,,,,ウムイ,0
1616,6370003006101,新規,0,2023-04-25,2023-04-25,合同会社友,,合同会社,宮城県,多賀城市,浮島字高原１７６番地の１アイリス高原Ｂ２０２,,04,209,9850861,,,,,,,2023-04-25,1,,,,,トモ,0
1623,6380003005449,新規,0,2023-04-25,2023-04-25,サン・アール合同会社,,合同会社,福島県,いわき市,四倉町駒込字久原８８番地,,07,204,9790227,,,,,,,2023-04-25,1,,,,,サンアール,0
1625,6390001017239,新規,0,2023-04-25,2023-04-25,株式会社環境内水面資源研究所,,株式会社,山形県,鶴岡市,羽黒町市野山字山王林１２５番地１,,06,203,9970123,,,,,,,2023-04-25,1,,,,,カンキョウナイスイメンシゲンケンキュウジョ,0
1638,6480003001966,新規,0,2023-04-25,2023-04-25,合同会社ＫＭＳＴ,,合同会社,徳島県,勝浦郡上勝町,大字旭字中村９番地田野々住宅Ｆ－１,,36,302,7714502,,,,,,,2023-04-25,1,,,,,ケーエムエスティー,0
1650,6700150115703,新規,0,2023-04-25,2023-04-25,ＰＲＡＲＴＨＡＮＡ　ＥＮＴＥＲＰＲＩＳＥＳ,,外国会社等,千葉県,香取郡神崎町,神崎本宿１１３１－１０－２０１号室,,12,342,2890221,スリランカ民主社会主義共和国、アンバラントタ、ティッサロード、１４９／３,,,,,,2023-04-25,1,,,,,プラルタナーエンタープライス,0
1651,6700150115711,新規,0,2023-04-25,2023-04-25,ＬＳＡ　Ｊａｐａｎ．　Ｉｎｃ．,,外国会社等,神奈川県,川崎市川崎区,貝塚２丁目２番地３－１３０１号,,14,131,2100014,アメリカ合衆国デラウェア州ニューアーク市バークスデイル・プロフェッショナル・センター１１３番,,,,,,2023-04-25,1,,,,,エルエスエージヤパンインク,0
1652,6700150115728,新規,0,2023-04-25,2023-04-25,Ｚｈｏｎｇｓｈａｎ　Ｋａｉｘｉｎｇ　Ｔｅｃｈｎｏｌｏｇｙ　Ｃｏ．，Ｌｔｄ．,,外国会社等,,,,,,,,ｙｏｎｇｍｏｃｕｎ，ｑｉａｎｙａｎｇｙｉｌｕ２１ｈａｏ，ｗｅｉｄａｋｅｃｈｕａｎｇｙｕａｎ　Ａｄｏｎｇ３ｃｅｎｇ３０７ｈａｏ，７５ｋａ　Ｚｈｏｎｇｓｈａｎｓｈｉ，ｓａｎｘｉａｎｇｚｈｅｎ　Ｇｕａｎｇｄｏｎｇｓｈｅｎｇ,,,,,,2023-04-25,1,,,,,ゾンサンカイシンテクノロジーカンパニーリミテッド,0
1660,7010001234779,新規,0,2023-04-25,2023-04-25,株式会社エヌピット,,株式会社,東京都,千代田区,平河町２丁目１２番８号アール平河町２０３,,13,101,1020093,,,,,,,2023-04-25,1,,,,,エヌピット,0
1665,7010003040432,新規,0,2023-04-25,2023-04-25,合同会社Ｃｏｚｎｏｒｉａｒｚ,,合同会社,東京都,千代田区,九段南１丁目５番６号りそな九段ビル５階ＫＳフロア,,13,101,1020074,,,,,,,2023-04-25,1,,,,,コズノリアーズ,0
1677,7010401173973,新規,0,2023-04-25,2023-04-25,株式会社スタートアップキャピタル,,株式会社,東京都,港区,南青山１丁目１５番９号第４５興和ビル,,13,103,1070062,,,,,,,2023-04-25,1,,,,,スタートアップキャピタル,0
1680,7010403029967,新規,0,2023-04-25,2023-04-25,合同会社ＥＧ,,合同会社,東京都,港区,浜松町２丁目２番地１５浜松町ダイヤビル２Ｆ,,13,103,1050013,,,,,,,2023-04-25,1,,,,,イージー,0
1689,7010901052925,新規,0,2023-04-25,2023-04-25,株式会社ＩＮＯ‐Ｂ‐ＩＮＣ,,株式会社,東京都,世田谷区,等々力１丁目１６番１４号,,13,112,1580082,,,,,,,2023-04-25,1,,,,,イノベーターインク,0
1691,7010903008099,新規,0,2023-04-25,2023-04-25,合同会社淀光ＢＳ,,合同会社,東京都,世田谷区,南烏山４丁目７番１２号,,13,112,1570062,,,,,,,2023-04-25,1,,,,,ヨドコウビーエス,0
1702,7011001154018,新規,0,2023-04-25,2023-04-25,株式会社Ｌｉｎｋ,,株式会社,東京都,渋谷区,円山町５番５号Ｎａｖｉ渋谷Ｖ３階,,13,113,1500044,,,,,,,2023-04-25,1,,,,,リンク,0
1707,7011101102669,新規,0,2023-04-25,2023-04-25,株式会社ＯＲＡ,,株式会社,東京都,新宿区,高田馬場４丁目２３番２９号竹村ビル３Ｂ号室,,13,104,1690075,,,,,,,2023-04-25,1,,,,,オアエイ,0
1709,7011201024607,新規,0,2023-04-25,2023-04-25,Ａｎｙｒｏｕｔｅｓ株式会社,,株式会社,東京都,中野区,中央５丁目３１－１０－３０６,,13,114,1640011,,,,,,,2023-04-25,1,,,,,エニルート,0
1711,7011403003978,新規,0,2023-04-25,2023-04-25,＿楽合同会社,00130250,合同会社,東京都,板橋区,蓮根２丁目３１番２３号－３０１,,13,119,1740046,,,,,,,2023-04-25,1,,,,,キンラク,0
1713,7011501029207,新規,0,2023-04-25,2023-04-25,株式会社勝陽,,株式会社,東京都,荒川区,西尾久２丁目３７－５,,13,118,1160011,,,,,,,2023-04-25,1,,,,,ショウヨウ,0
1714,7011501029215,新規,0,2023-04-25,2023-04-25,ＥＣＩＳ株式会社,,株式会社,東京都,北区,志茂３丁目４３番１６－６２０号,,13,117,1150042,,,,,,,2023-04-25,1,,,,,イーシス,0
1720,7012405004857,新規,0,2023-04-25,2023-04-25,一般社団法人ベルビュースポーツアカデミー,,その他の設立登記法人,東京都,府中市,小柳町６丁目２１番地の１３,,13,206,1830013,,,,,,,2023-04-25,1,,,,,ベルビュースポーツアカデミー,0
1724,7012801022297,新規,0,2023-04-25,2023-04-25,株式会社Ｍ＆Ｈマネジメント,,株式会社,東京都,立川市,若葉町３丁目３６番地の３６,,13,202,1900001,,,,,,,2023-04-25,1,,,,,エムアンドエイチマネジメント,0
1737,7020003023790,新規,0,2023-04-25,2023-04-25,合同会社クラウンエステート,,合同会社,神奈川県,横浜市青葉区,すすき野１丁目６番地１３,,14,117,2250021,,,,,,,2023-04-25,1,,,,,クラウンエステート,0
1739,7021001078819,新規,0,2023-04-25,2023-04-25,株式会社小笠原ウエルディング,,株式会社,神奈川県,平塚市,四之宮３丁目２６番１９号,,14,203,2540014,,,,,,,2023-04-25,1,,,,,オガサワラウエルディング,0
1740,7021001078843,新規,0,2023-04-25,2023-04-25,株式会社満新建設,,株式会社,神奈川県,綾瀬市,寺尾本町１丁目１５番３６号ベルンカステル２０５,,14,218,2521133,,,,,,,2023-04-25,1,,,,,ミツシンケンセツ,0
1743,7030001153589,新規,0,2023-04-25,2023-04-25,株式会社ライエスト,,株式会社,埼玉県,朝霞市,朝志ケ丘２丁目１１番３号シェスタープレイス２０１,,11,227,3510035,,,,,,,2023-04-25,1,,,,,ライエスト,0
1748,7040001128012,新規,0,2023-04-25,2023-04-25,株式会社Ｑ‐Ｌｉｎｋ,,株式会社,千葉県,船橋市,本町６丁目１８－１９第３山中ビル４０１号室,,12,204,2730005,,,,,,,2023-04-25,1,,,,,キューリンク,0
1749,7040001128103,新規,0,2023-04-25,2023-04-25,ＴＡＮＩＸ株式会社,,株式会社,千葉県,野田市,堤根８４番地の５,,12,208,2780021,,,,,,,2023-04-25,1,,,,,タニックス,0
1755,7040003022469,新規,0,2023-04-25,2023-04-25,Ｐｏｖｉｔ合同会社,,合同会社,千葉県,柏市,末広町４－５金子ビルＡ棟２階Ｂ号室,,12,217,2770842,,,,,,,2023-04-25,1,,,,,ポヴィット,0
1756,7040003022477,新規,0,2023-04-25,2023-04-25,ＪＥＴＥＣＨ合同会社,,合同会社,千葉県,富里市,十倉８６９番地１７,,12,233,2860212,,,,,,,2023-04-25,1,,,,,ジェテッヒ,0
1757,7040005021972,新規,0,2023-04-25,2023-04-25,特定非営利活動法人緑と海とサーフィンと子供達,,その他の設立登記法人,千葉県,長生郡一宮町,東浪見７５２５番１５,,12,421,2994303,,,,,,,2023-04-25,1,,,,,ミドリトウミトサーフィントコドモタチ,0
1761,7050003007452,新規,0,2023-04-25,2023-04-25,ＥＸＥＥＤ合同会社,,合同会社,茨城県,つくば市,六斗１０１１－３,,08,220,3001258,,,,,,,2023-04-25,1,,,,,エクシード,0
1765,7060001035925,新規,0,2023-04-25,2023-04-25,株式会社とちのわ,,株式会社,栃木県,下都賀郡壬生町,大字壬生丁１２７番地２,,09,361,3210216,,,,,,,2023-04-25,1,,,,,トチノワ,0
1779,7080401026448,新規,0,2023-04-25,2023-04-25,株式会社ＨＡＲＵ,,株式会社,静岡県,御前崎市,池新田４４７３番地の９,,22,223,4371612,,,,,,,2023-04-25,1,,,,,ハル,0
1784,7100003006993,新規,0,2023-04-25,2023-04-25,ヌクイネ合同会社,,合同会社,長野県,中野市,大字立ケ花２２１番地１,,20,211,3830054,,,,,,,2023-04-25,1,,,,,ヌクイネ,0
1796,7120001254329,新規,0,2023-04-25,2023-04-25,株式会社鴨川,,株式会社,大阪府,大阪市北区,大深町３－４０－２８０９,,27,127,5300011,,,,,,,2023-04-25,1,,,,,カモガワ,0
1797,7120001254403,新規,0,2023-04-25,2023-04-25,株式会社銀龍,,株式会社,大阪府,大阪市中央区,瓦屋町２丁目１０－１４第３天偉ビル３Ｅ室,,27,128,5420066,,,,,,,2023-04-25,1,,,,,ギンリュウ,0
1799,7120003023905,新規,0,2023-04-25,2023-04-25,合同会社信玄,,合同会社,大阪府,寝屋川市,木田元宮１丁目１８番２３号（１０２号）,,27,215,5720822,,,,,,,2023-04-25,1,,,,,シンゲン,0
1800,7120003023913,新規,0,2023-04-25,2023-04-25,合同会社マリン,,合同会社,大阪府,大阪市西区,九条３丁目１９番７号,,27,106,5500027,,,,,,,2023-04-25,1,,,,,マリン,0
1801,7120003023921,新規,0,2023-04-25,2023-04-25,合同会社ＫＫＳ,,合同会社,大阪府,大阪市西区,新町３丁目１３番１８－８０２号,,27,106,5500013,,,,,,,2023-04-25,1,,,,,ケイケイエス,0
1809,7130001074123,新規,0,2023-04-25,2023-04-25,株式会社ＬＵＣＫ　ＬＩＮＥ　Ｘ３６９,,株式会社,京都府,京都市南区,久世東土川町２６０番地１３モダンコートＷＥＳＴ２０３,,26,107,6018204,,,,,,,2023-04-25,1,,,,,ラックラインクロスミロク,0
1812,7140001129933,新規,0,2023-04-25,2023-04-25,株式会社プロケン,,株式会社,兵庫県,芦屋市,朝日ケ丘町２７番７号,,28,206,6590012,,,,,,,2023-04-25,1,,,,,プロケン,0
1816,7170003001864,新規,0,2023-04-25,2023-04-25,Ｈａｐｐｙ　Ａｒｔ合同会社,,合同会社,和歌山県,日高郡日高川町,大字和佐２０６６番地３３,,30,392,6491443,,,,,,,2023-04-25,1,,,,,ハッピーアート,0
1831,7180005020201,新規,0,2023-04-25,2023-04-25,一般社団法人熱田雲見会,,その他の設立登記法人,愛知県,名古屋市瑞穂区,駒場町７丁目１７番地,,23,108,4670807,,,,,,,2023-04-25,1,,,,,アツタクモミカイ,0
1836,7200001041231,新規,0,2023-04-25,2023-04-25,株式会社クリニカル・コネクト,,株式会社,岐阜県,羽島郡岐南町,徳田西１丁目６６番地１,,21,302,5016017,,,,,,,2023-04-25,1,,,,,クリニカルコネクト,0
1843,7220001025372,新規,0,2023-04-25,2023-04-25,宝達物産株式会社,,株式会社,石川県,金沢市,横川２丁目２０８番地サテライト９０‐Ａ,,17,201,9218163,,,,,,,2023-04-25,1,,,,,ホウダツブッサン,0
1849,7250003003266,新規,0,2023-04-25,2023-04-25,合同会社ほどほどに頑張る,,合同会社,山口県,下関市,田中町９番１号,,35,201,7500008,,,,,,,2023-04-25,1,,,,,ホドホドニガンバル,0
1859,7260005011217,新規,0,2023-04-25,2023-04-25,一般社団法人岡山県西部古民家再生協会,,その他の設立登記法人,岡山県,井原市,芳井町東三原２６４番地,,33,207,7142341,,,,,,,2023-04-25,1,,,,,オカヤマケンセイブコミンカサイセイキョウカイ,0
1862,7270003001516,新規,0,2023-04-25,2023-04-25,合同会社Ｕｎｉｖｅｒｓａｌｌｙ　Ｄｅｌｉｇｈｔ,,合同会社,鳥取県,鳥取市,美萩野２丁目３１７,,31,201,6890202,,,,,,,2023-04-25,1,,,,,ユニバーサリーディライト,0
1870,7290005019018,新規,0,2023-04-25,2023-04-25,一般社団法人Ｂａｂｙ’ｓ　ｂｒｅａｔｈ,,その他の設立登記法人,福岡県,福岡市城南区,茶山５丁目２３番３号,,40,136,8140111,,,,,,,2023-04-25,1,,,,,ベイビーズブレス,0
1874,7290801029491,新規,0,2023-04-25,2023-04-25,株式会社ＯＤＯ,,株式会社,福岡県,北九州市八幡西区,折尾３丁目８番３６号,,40,109,8070825,,,,,,,2023-04-25,1,,,,,オーディーオー,0
1878,7310001018375,新規,0,2023-04-25,2023-04-25,株式会社ヨシカゲ,,株式会社,長崎県,佐世保市,若葉町７－３２－１０２号室,,42,202,8570833,,,,,,,2023-04-25,1,,,,,ヨシカゲ,0
1880,7310003004555,新規,0,2023-04-25,2023-04-25,あすなろ合同会社,,合同会社,長崎県,長崎市,滑石２丁目１９番３６号,,42,201,8528061,,,,,,,2023-04-25,1,,,,,,0
1883,7330001030774,新規,0,2023-04-25,2023-04-25,株式会社ななころび農園,,株式会社,熊本県,上益城郡山都町,井無田１３５２番地２,,43,447,8613832,,,,,,,2023-04-25,1,,,,,,0
1890,7370001049877,新規,0,2023-04-25,2023-04-25,株式会社Ｉｍｐｒｅｓｓｉｖｅ　Ｆｏｏｄ,,株式会社,宮城県,仙台市太白区,長町５丁目２番６号森民ビル２Ｆ－Ａ区画,,04,104,9820011,,,,,,,2023-04-25,1,,,,,インプレッシブフード,0
1891,7370003006109,新規,0,2023-04-25,2023-04-25,Ｂｅｅ合同会社,,合同会社,宮城県,仙台市青葉区,土樋１丁目６番２３号,,04,101,9800065,,,,,,,2023-04-25,1,,,,,ビー,0
1903,7430001088919,新規,0,2023-04-25,2023-04-25,株式会社ガナール,,株式会社,北海道,札幌市東区,東苗穂十条２丁目１５番６号,,01,103,0070810,,,,,,,2023-04-25,1,,,,,ガナール,0
1904,7430001088927,新規,0,2023-04-25,2023-04-25,株式会社トキエノ,,株式会社,北海道,札幌市南区,藤野二条４丁目４番１６号,,01,106,0612282,,,,,,,2023-04-25,1,,,,,トキエノ,0
1905,7430001088935,新規,0,2023-04-25,2023-04-25,株式会社ＨＩＴＭＡＲＫＥＴ,,株式会社,北海道,札幌市中央区,大通西８丁目２番地,,01,101,0600042,,,,,,,2023-04-25,1,,,,,ヒットマーケット,0
1912,7700150115710,新規,0,2023-04-25,2023-04-25,ＫＩＷＩ　ＥＮＴＥＲＰＲＩＳＥＳ,,外国会社等,千葉県,山武市,上横地４１４４－９６,,12,237,2891313,スリランカ民主社会主義共和国、アクラナ、ワラガスヒンナ、ＮＯ．２４８,,,,,,2023-04-25,1,,,,,キウイエンタープライセス,0
1913,7700150115719,新規,0,2023-04-25,2023-04-25,Ｄｏｎｇｇｕａｎｓｈｉ　Ｍｕｓｉｎ　Ｅ－ｂｕｓｉｎｅｓｓ　ｃｏ．，Ｌｔｄ,,外国会社等,,,,,,,,Ｃｈａｎｇｐｉｎｇｚｈｅｎ，ｂａｎｓｈｉｂｅｉｑｕ，ｙｉｊｉｅ，４８ｈａｏ，５０６ｓｈｉ（ｊｉｑｕｎｚｈｕｃｅ）Ｄｏｎｇｇｕａｎ　Ｇｕａｎｇｄｏｎｇ,,,,,,2023-04-25,1,,,,,ドングァンシムシンイービジネスカンパニーリミテッド,0
1914,7700150115727,新規,0,2023-04-25,2023-04-25,Ｓｈｅｎｚｈｅｎ　Ｆｏｒｅｓｉｇｈｔ　Ｔｅｃｈｎｏｌｏｇｙ　Ｃｏ．，Ｌｔｄ,,外国会社等,,,,,,,,３ｒｄ　Ｆｌｏｏｒ，Ｂｕｉｌｄｉｎｇ　１０，Ａｏｈｕａ　Ｉｎｄｕｓｔｒｉａｌ　Ｚｏｎｅ，Ｇａｏｆｅｎｇ　Ｃｏｍｍｕｎｉｔｙ，Ｄａｌａｎｇ　Ｓｔｒｅｅｔ，Ｌｏｎｇｈｕａ　Ｄｉｓｔｒｉｃｔ，Ｓｈｅｎｚｈｅｎ，Ｇｕａｎｇｄｏｎｇ,,,,,,2023-04-25,1,,,,,シンセンフォーサイトテクノロジーカンパニーリミテッド,0
1923,8010001234737,新規,0,2023-04-25,2023-04-25,ＤｙｎａＬｏｇｉ株式会社,,株式会社,東京都,千代田区,岩本町２丁目１２番６号レジディア神田岩本町ＩＩ３０３号室,00130237,13,101,1010032,,,,,,,2023-04-25,1,,,,,ダイナロジ,0
1924,8010001234786,新規,0,2023-04-25,2023-04-25,Ｒｉｎｄ株式会社,,株式会社,東京都,中央区,日本橋１丁目２番地１０号,,13,102,1030027,,,,,,,2023-04-25,1,,,,,リンド,0
1928,8010003040431,新規,0,2023-04-25,2023-04-25,ディーズ合同会社,,合同会社,東京都,中央区,銀座１丁目１２番４号Ｎ＆ＥＢＬＤ．６Ｆ,,13,102,1040061,,,,,,,2023-04-25,1,,,,,ディーズ,0
1929,8010003040456,新規,0,2023-04-25,2023-04-25,合同会社Ｐｌｕｓ　Ｅｉｇｈｔ,,合同会社,東京都,文京区,小石川５丁目４１番８号,,13,105,1120002,,,,,,,2023-04-25,1,,,,,プラスエイト,0
1936,8010401173989,新規,0,2023-04-25,2023-04-25,株式会社ＯＮＢＲＩＤＧＥ,,株式会社,東京都,港区,芝浦３丁目１７番１１号天翔田町ビル３階３０９号室,,13,103,1080023,,,,,,,2023-04-25,1,,,,,オンブリッジ,0
1938,8010405022028,新規,0,2023-04-25,2023-04-25,一般社団法人港区介護事業者連絡協議会,,その他の設立登記法人,東京都,港区,六本木３丁目１６番３５号イースト六本木７０４,,13,103,1060032,,,,,,,2023-04-25,1,,,,,ミナトクカイゴジギョウシャレンラクキョウギカイ,0
1940,8010501050353,新規,0,2023-04-25,2023-04-25,株式会社ノライヌ,,株式会社,東京都,台東区,上野７丁目８番１５－２０３号フェルクルール上野駅前,,13,106,1100005,,,,,,,2023-04-25,1,,,,,ノライヌ,0
1959,8010901052932,新規,0,2023-04-25,2023-04-25,株式会社ｎｙｕ,,株式会社,東京都,世田谷区,代田６丁目３３番８号,,13,112,1550033,,,,,,,2023-04-25,1,,,,,ニュー,0
1970,8011003016669,新規,0,2023-04-25,2023-04-25,合同会社ベストヒーロー,,合同会社,東京都,渋谷区,恵比寿２丁目２７－２３ヒルトップハウス恵比寿２０６号,,13,113,1500013,,,,,,,2023-04-25,1,,,,,ベストヒーロー,0
1971,8011005010042,新規,0,2023-04-25,2023-04-25,一般社団法人Ｔｈｅ　ｃｏｓｐｌｅ　ｄａｙ,,その他の設立登記法人,東京都,渋谷区,恵比寿１丁目２３－２１ヤマトハイツ６０５,,13,113,1500013,,,,,,,2023-04-25,1,,,,,ザコスプルデイ,0
1979,8011101102619,新規,0,2023-04-25,2023-04-25,株式会社ＰＥＯＮＹ,,株式会社,東京都,新宿区,西新宿５丁目８番２号ガラ・グランディ西新宿７０８,,13,104,1600023,,,,,,,2023-04-25,1,,,,,ピオニー,0
1980,8011101102627,新規,0,2023-04-25,2023-04-25,株式会社Ａｒｃｈｅｌｏｎ,,株式会社,東京都,新宿区,高田馬場３丁目４６－２０－３階,,13,104,1690075,,,,,,,2023-04-25,1,,,,,アーケロン,0
1986,8011103012980,新規,0,2023-04-25,2023-04-25,合同会社パティオス,,合同会社,東京都,新宿区,西新宿８丁目１２－１サンパレス新宿８０２,,13,104,1600023,,,,,,,2023-04-25,1,,,,,パティオス,0
1987,8011103012989,新規,0,2023-04-25,2023-04-25,合同会社ＬＳＴ　Ｐａｒｔｎｅｒｓ,,合同会社,東京都,新宿区,西新宿３丁目３番１３号西新宿水間ビル６階,,13,104,1600023,,,,,,,2023-04-25,1,,,,,エルエスティーパートナーズ,0
1988,8011201024606,新規,0,2023-04-25,2023-04-25,株式会社南種子未来総合研究所,,株式会社,東京都,中野区,新井１丁目９番１２号ロイヤルパーク中野１０１,,13,114,1650026,,,,,,,2023-04-25,1,,,,,ミナミタネミライソウゴウケンキュウジョ,0
1990,8011301028630,新規,0,2023-04-25,2023-04-25,フィンファイ株式会社,,株式会社,東京都,杉並区,善福寺２丁目２１番１６号,,13,115,1670041,,,,,,,2023-04-25,1,,,,,フィンファイ,0
1991,8011501029214,新規,0,2023-04-25,2023-04-25,株式会社はなまる,,株式会社,東京都,北区,志茂２丁目３３番１４－１２０１号,,13,117,1150042,,,,,,,2023-04-25,1,,,,,ハナマル,0
1994,8012401040459,新規,0,2023-04-25,2023-04-25,Ａｗｉｎ株式会社,,株式会社,東京都,三鷹市,下連雀３丁目４２番１３号２０７室,,13,204,1810013,,,,,,,2023-04-25,1,,,,,アウイン,0
1995,8012401040475,新規,0,2023-04-25,2023-04-25,株式会社クライズ,,株式会社,東京都,府中市,新町２丁目６２番地の４ＮＯ６,,13,206,1830052,,,,,,,2023-04-25,1,,,,,クライズ,0
1996,8012403005955,新規,0,2023-04-25,2023-04-25,合同会社ｌｉｖｅ,,合同会社,東京都,府中市,新町１丁目６７－２,,13,206,1830052,,,,,,,2023-04-25,1,,,,,リブ,0
2010,8020003023781,新規,0,2023-04-25,2023-04-25,Ｖｉｓｉｏｎ　Ｒｏａｄ合同会社,,合同会社,神奈川県,横浜市神奈川区,幸ケ谷１２番地５プラウド横浜幸ケ谷２０７号,,14,102,2210051,,,,,,,2023-04-25,1,,,,,ヴィジョンロード,0
2018,8021005012797,新規,0,2023-04-25,2023-04-25,医療法人松が枝町歯科クリニック,,その他の設立登記法人,神奈川県,相模原市南区,松が枝町１５番８号,,14,153,2520313,,,,,,,2023-04-25,1,,,,,マツガエチョウシカクリニック,0
2023,8030001153522,新規,0,2023-04-25,2023-04-25,株式会社サンユー印刷,,株式会社,埼玉県,さいたま市桜区,桜田３丁目６番１号,,11,106,3380833,,,,,,,2023-04-25,1,,,,,サンユーインサツ,0
2024,8030001153547,新規,0,2023-04-25,2023-04-25,敬也衛株式会社,,株式会社,埼玉県,さいたま市北区,櫛引町２丁目４９９番地２日建プリムローズ大宮８０５号室,,11,102,3310825,,,,,,,2023-04-25,1,,,,,ケイヤエイ,0
2037,8040001128069,新規,0,2023-04-25,2023-04-25,株式会社Ｒｏｙａｌ　Ｆａｃｔｏｒｙ　Ｓｈｉｎｙａ,,株式会社,千葉県,千葉市若葉区,若松町７１２番地３,,12,104,2640021,,,,,,,2023-04-25,1,,,,,ロイヤルファクトリーシンヤ,0
2057,8060001035940,新規,0,2023-04-25,2023-04-25,ＣＳＭ商事株式会社,,株式会社,栃木県,下野市,下古山６２番地,,09,216,3290502,,,,,,,2023-04-25,1,,,,,シーエスエムショウジ,0
2059,8070003004918,新規,0,2023-04-25,2023-04-25,合同会社バングラエクスプレス,,合同会社,群馬県,みどり市,笠懸町鹿２２７７－３,,10,212,3792313,,,,,,,2023-04-25,1,,,,,,0
2066,8100003006992,新規,0,2023-04-25,2023-04-25,ユウスケサトウ合同会社,,合同会社,長野県,伊那市,西箕輪２８７８－１,,20,209,3994501,,,,,,,2023-04-25,1,,,,,ユウスケサトウ,0
2080,8120001254237,新規,0,2023-04-25,2023-04-25,株式会社トリオンマネジメント,,株式会社,大阪府,大阪市港区,弁天５丁目６番１１号,,27,107,5520007,,,,,,,2023-04-25,1,,,,,トリオンマネジメント,0
2081,8120001254344,新規,0,2023-04-25,2023-04-25,ベネット株式会社,,株式会社,大阪府,大阪市中央区,谷町７丁目３番４－２１５号Ｃ,,27,128,5420012,,,,,,,2023-04-25,1,,,,,ベネット,0
2082,8120001254369,新規,0,2023-04-25,2023-04-25,ＫＯＧＯ株式会社,,株式会社,大阪府,大阪市浪速区,日本橋５丁目６番４号,,27,111,5560005,,,,,,,2023-04-25,1,,,,,コゴ,0
2083,8120001254402,新規,0,2023-04-25,2023-04-25,株式会社がもじん,,株式会社,大阪府,大阪市西区,江之子島２丁目１番３７－３９０６号,,27,106,5500006,,,,,,,2023-04-25,1,,,,,ガモジン,0
2087,8120003023937,新規,0,2023-04-25,2023-04-25,ＲｅｔａＬｕｃｅ合同会社,,合同会社,大阪府,大阪市港区,弁天４丁目７－９,,27,107,5520007,,,,,,,2023-04-25,1,,,,,リテルーチェ,0
2090,8120105009719,新規,0,2023-04-25,2023-04-25,一般社団法人ＷＩＬＬ,,その他の設立登記法人,大阪府,和泉市,鶴山台４丁目５番１３号,,27,219,5940013,,,,,,,2023-04-25,1,,,,,ウィル,0
2102,8130001074188,新規,0,2023-04-25,2023-04-25,Ｓｅｒｖｉｃｅ　ＰＲ　Ｊａｐａｎ株式会社,,株式会社,京都府,京都市中京区,柳馬場通三条上る油屋町１００番地ロートレック中京３０１,,26,104,6048103,,,,,,,2023-04-25,1,,,,,サービスピーアールジャパン,0
2107,8130003008680,新規,0,2023-04-25,2023-04-25,合同会社ＯｍＩ企画,,合同会社,京都府,京都市北区,小山元町２２番地プリュジュール北山１Ｆ,,26,101,6038112,,,,,,,2023-04-25,1,,,,,オーエムアイキカク,0
2108,8130005016756,新規,0,2023-04-25,2023-04-25,一般社団法人京都府トライアスロン協会,,その他の設立登記法人,京都府,京都市南区,吉祥院向田東町１番地２,,26,107,6018308,,,,,,,2023-04-25,1,,,,,キョウトフトライアスロンキョウカイ,0
2117,8140001129924,新規,0,2023-04-25,2023-04-25,兵庫県民球団株式会社,,株式会社,兵庫県,神戸市中央区,栄町通５丁目２番１９号,,28,110,6500023,,,,,,,2023-04-25,1,,,,,ヒョウゴケンミンキュウダン,0
2118,8140001129932,新規,0,2023-04-25,2023-04-25,株式会社カーショップスリーエイト,,株式会社,兵庫県,加古郡稲美町,北山３０５番地の１,,28,381,6751121,,,,,,,2023-04-25,1,,,,,カーショップスリーエイト,0
2119,8140001129949,新規,0,2023-04-25,2023-04-25,株式会社縁樹,,株式会社,兵庫県,たつの市,神岡町東觜崎１１３番地,,28,229,6794109,,,,,,,2023-04-25,1,,,,,エンジュ,0
2120,8140001129957,新規,0,2023-04-25,2023-04-25,エストレーディング株式会社,,株式会社,兵庫県,西宮市,獅子ケ口町３番２２－２０２号,,28,204,6620026,,,,,,,2023-04-25,1,,,,,エストレーディング,0
2126,8150001026352,新規,0,2023-04-25,2023-04-25,株式会社Ｎｏｅｌ　ａｎｄ．,,株式会社,奈良県,奈良市,中ノ川町６３８番地,,29,201,6308201,,,,,,,2023-04-25,1,,,,,ノエルアンド,0
2127,8150003002946,新規,0,2023-04-25,2023-04-25,ＣＯＴＯ合同会社,,合同会社,奈良県,香芝市,良福寺２９１番地１,,29,210,6390235,,,,,,,2023-04-25,1,,,,,コト,0
2154,8200001041222,新規,0,2023-04-25,2023-04-25,株式会社ＭＫ,,株式会社,岐阜県,可児市,今渡１６１９番地３０９,,21,214,5090207,,,,,,,2023-04-25,1,,,,,エムケー,0
2168,8250001020064,新規,0,2023-04-25,2023-04-25,あおば建設株式会社,,株式会社,山口県,山口市,青葉台１４－１５,,35,203,7530012,,,,,,,2023-04-25,1,,,,,アオバケンセツ,0
2172,8260003004287,新規,0,2023-04-25,2023-04-25,合同会社５０８,,合同会社,岡山県,岡山市北区,大供表町７番２２号ラフィーネ大供６０５,,33,101,7000912,,,,,,,2023-04-25,1,,,,,ゴマルハチ,0
2173,8280001008924,新規,0,2023-04-25,2023-04-25,ＨＡＭＡＹＡ株式会社,,株式会社,島根県,出雲市,大社町杵築南１２２１番地１,,32,203,6990711,,,,,,,2023-04-25,1,,,,,ハマヤ,0
2175,8280005007550,新規,0,2023-04-25,2023-04-25,一般社団法人山陰飲食の会,,その他の設立登記法人,島根県,松江市,東津田町１１４３番地２,,32,201,6900011,,,,,,,2023-04-25,1,,,,,サンインインショクノカイ,0
2179,8290001101216,新規,0,2023-04-25,2023-04-25,Ｓｈｉｎｙｕ株式会社,,株式会社,福岡県,福岡市中央区,天神４丁目６番２８号天神ファーストビル７階,,40,133,8100001,,,,,,,2023-04-25,1,,,,,シンユウ,0
2180,8290001101298,新規,0,2023-04-25,2023-04-25,株式会社興梠工業,,株式会社,福岡県,福岡市城南区,長尾１丁目４－１８－１Ｆ,,40,136,8140123,,,,,,,2023-04-25,1,,,,,コウロギコウギョウ,0
2182,8290005019025,新規,0,2023-04-25,2023-04-25,一般社団法人相続サポートセンター家守会,,その他の設立登記法人,福岡県,福岡市南区,横手１丁目１３番２号,,40,134,8111311,,,,,,,2023-04-25,1,,,,,ソウゾクサポートセンターヤモリカイ,0
2183,8290801029490,新規,0,2023-04-25,2023-04-25,株式会社リード,,株式会社,福岡県,北九州市八幡西区,東筑２丁目３番２４号,,40,109,8070832,,,,,,,2023-04-25,1,,,,,リード,0
2186,8300001013277,新規,0,2023-04-25,2023-04-25,株式会社みらい太洋資源,,株式会社,佐賀県,伊万里市,伊万里町甲５９０番地,,41,205,8480047,,,,,,,2023-04-25,1,,,,,ミライタイヨウシゲン,0
2194,8330001030807,新規,0,2023-04-25,2023-04-25,才電工業株式会社,,株式会社,熊本県,熊本市東区,戸島西４丁目１番８２号,,43,102,8618043,,,,,,,2023-04-25,1,,,,,サイデンコウギョウ,0
2204,8370001049884,新規,0,2023-04-25,2023-04-25,ＡＳＡＤ　ＴＲＡＤＩＮＧ株式会社,,株式会社,宮城県,仙台市青葉区,子平町１０番３１号フルセビル４Ｂ,,04,101,9810944,,,,,,,2023-04-25,1,,,,,アサドトレーディング,0
2216,8380005012706,新規,0,2023-04-25,2023-04-25,ＯＦＷマンパワーサービス事業協同組合,,その他の設立登記法人,福島県,郡山市,水門町２４８番地の１６,,07,203,9638815,,,,,,,2023-04-25,1,,,,,,0
2230,8430001088918,新規,0,2023-04-25,2023-04-25,株式会社大成商産,,株式会社,北海道,札幌市西区,平和二条７丁目１番２０号１０３,,01,107,0630022,,,,,,,2023-04-25,1,,,,,タイセイショウサン,0
2231,8430001088926,新規,0,2023-04-25,2023-04-25,株式会社ＭＲ工業,,株式会社,北海道,札幌市西区,八軒七条西４丁目２番３０－２０５号,,01,107,0630847,,,,,,,2023-04-25,1,,,,,エムアールコウギョウ,0
2232,8430001088983,新規,0,2023-04-25,2023-04-25,蒙泰株式会社,,株式会社,北海道,小樽市,潮見台２丁目４番１号,,01,203,0470002,,,,,,,2023-04-25,1,,,,,モウタイ,0
2233,8430003014962,新規,0,2023-04-25,2023-04-25,合同会社ｍｅｃｃｏ,,合同会社,北海道,札幌市北区,北二十九条西４丁目２番１　２１１号室,,01,102,0010029,,,,,,,2023-04-25,1,,,,,メッコ,0
2236,8460301005140,新規,0,2023-04-25,2023-04-25,株式会社メグリス,,株式会社,北海道,網走郡大空町,女満別西四条５丁目１番２７号,,01,564,0992324,,,,,,,2023-04-25,1,,,,,メグリス,0
2243,8700150115701,新規,0,2023-04-25,2023-04-25,ＷＩＣＫＲＡＭＡＳＩＮＧＨＥ　ＥＮＴＥＲＰＲＩＳＥＳ,,外国会社等,千葉県,香取郡神崎町,神崎本宿１１３１－１０－１０２号室,,12,342,2890221,スリランカ民主社会主義共和国、ハンバントタ、イヌシリロード,,,,,,2023-04-25,1,,,,,ウイツクラマシンゲエンタープライセス,0
2244,8700150115718,新規,0,2023-04-25,2023-04-25,Ｓｈｅｎｚｈｅｎ　ｔｉａｎｂｅｉ　Ｔｅｃｈｎｏｌｏｇｙ　Ｃｏ．，Ｌｔｄ,,外国会社等,,,,,,,,ｓｈｅｎｚｈｅｎｓｈｉ　ｌｏｎｇｈｕａｑｕ　ｌｏｎｇｈｕａｊｉｅｄａｏ　ｆｕｋａｎｇｓｈｅｑｕ　ｄｏｎｇｈｕａｎｅｒｌｕ６５ｈａｏ　ｄｅｍｅｉｇｏｎｇｙｅｚｈｏｎｇｘｉｎＡ４ｄｏｎｇ２ｃｅｎｇ２０１,,,,,,2023-04-25,1,,,,,シンセンティンベイテクノロジーカンパニーリミテッド,0
2245,8700150115726,新規,0,2023-04-25,2023-04-25,ＳＨＥＮＺＨＥＮＳＨＩ　ＨＯＮＧＬＩＳＨＥＮＧ　ＹＯＵＪＩＢＯＬＩＺＨＩＰＩＮ　Ｃｏ．，Ｌｔｄ,,外国会社等,,,,,,,,ｇｕｉｙｕａｎ　ｒｏａｄ，ｇｕｉｙｕａｎ　ｓｔｒｅｅｔ　２Ｈ，Ｂ　ｂｕｉｌｄｉｎｇ　ｌｕｏｈｕ　ｓｈｅｎｚｈｅｎ,,,,,,2023-04-25,1,,,,,シンセンシホンリセンユウジボリジピンカンパニーリミテッド,0
2265,9010003040439,新規,0,2023-04-25,2023-04-25,ＬＥＶＥＣＨＹファンド２号合同会社,,合同会社,東京都,千代田区,紀尾井町３－８第２紀尾井町ビル９０１アクシス綜合会計事務所内,,13,101,1020094,,,,,,,2023-04-25,1,,,,,レベチーファンドニゴウ,0
2266,9010005036559,新規,0,2023-04-25,2023-04-25,特定目的会社Ａｌｌ　Ｓｕｎ,,その他の設立登記法人,東京都,千代田区,霞が関３丁目２番５号,,13,101,1000013,,,,,,,2023-04-25,1,,,,,オールサン,0
2275,9010503006963,新規,0,2023-04-25,2023-04-25,合同会社ＮＣコーポレーション,,合同会社,東京都,台東区,寿２丁目３－６中山ビル３０１,,13,106,1110042,,,,,,,2023-04-25,1,,,,,エヌシーコーポレーション,0
2278,9010601062999,新規,0,2023-04-25,2023-04-25,株式会社ブリスクワン,,株式会社,東京都,江東区,豊洲４丁目１１－３５－２０２,,13,108,1350061,,,,,,,2023-04-25,1,,,,,ブリスクワン,0
2284,9010801033882,新規,0,2023-04-25,2023-04-25,株式会社スレファ,,株式会社,東京都,大田区,南六郷１丁目２８番２０号,,13,111,1440045,,,,,,,2023-04-25,1,,,,,スレファ,0
2288,9010903008122,新規,0,2023-04-25,2023-04-25,合同会社Ｐｏｔプロダクション,,合同会社,東京都,世田谷区,喜多見８丁目６番２号,,13,112,1570067,,,,,,,2023-04-25,1,,,,,ポットプロダクション,0
2297,9011001153975,新規,0,2023-04-25,2023-04-25,株式会社Ｓｔｏｎｅｚ,,株式会社,東京都,目黒区,中央町２丁目８番７号,,13,110,1520001,,,,,,,2023-04-25,1,,,,,ストーンズ,0
2298,9011001154040,新規,0,2023-04-25,2023-04-25,株式会社ｂｌｏｓｓｏｍ,,株式会社,東京都,渋谷区,本町１丁目７番１６－１３０６号,,13,113,1510071,,,,,,,2023-04-25,1,,,,,ブロッサム,0
2305,9011105010643,新規,0,2023-04-25,2023-04-25,一般社団法人全日本子ども金融教育協会,,その他の設立登記法人,東京都,新宿区,新宿１丁目３６－２新宿第七葉山ビル３Ｆ,,13,104,1600022,,,,,,,2023-04-25,1,,,,,ゼンニホンコドモキンユウキョウイクキョウカイ,0
2306,9011203004068,新規,0,2023-04-25,2023-04-25,合同会社ＬｉｆｅＳｔａｓｈ,,合同会社,東京都,中野区,上高田３丁目１－１０ＢＣＩＴＹＡＰＡＲＴＭＥＮＴＮＡＫＡＮＯＥＡＳＴ６０３,,13,114,1640002,,,,,,,2023-04-25,1,,,,,ライフスタッシュ,0
2307,9011301028654,新規,0,2023-04-25,2023-04-25,株式会社ＱｕａＬｉｆｅ,,株式会社,東京都,杉並区,久我山５丁目２２－２,,13,115,1680082,,,,,,,2023-04-25,1,,,,,クアライフ,0
2309,9011401025080,新規,0,2023-04-25,2023-04-25,澤碩ＢＣ‐ｔｅｃ株式会社,,株式会社,東京都,板橋区,中板橋２０番６号ＰＡＯ中板橋４０２号室,,13,119,1730016,,,,,,,2023-04-25,1,,,,,サワジャクビーシーテック,0
2312,9011501029213,新規,0,2023-04-25,2023-04-25,南山婆ジャパン株式会社,,株式会社,東京都,北区,浮間２丁目２番７－３０５号,,13,117,1150051,,,,,,,2023-04-25,1,,,,,ナンサンポジャパン,0
2314,9011703003445,新規,0,2023-04-25,2023-04-25,合同会社ａｄｖａｎｃｅ,,合同会社,東京都,江戸川区,上一色２丁目１６－２２,,13,123,1330041,,,,,,,2023-04-25,1,,,,,アドバンス,0
2316,9011801042270,新規,0,2023-04-25,2023-04-25,株式会社ＫＹＯＥＩ,,株式会社,東京都,足立区,古千谷本町２丁目７番１０号,,13,121,1210832,,,,,,,2023-04-25,1,,,,,キョウエイ,0
2317,9011801042304,新規,0,2023-04-25,2023-04-25,株式会社大和エステイト,,株式会社,東京都,足立区,舎人１丁目１７番８号,,13,121,1210831,,,,,,,2023-04-25,1,,,,,ダイワエステイト,0
2318,9012801022304,新規,0,2023-04-25,2023-04-25,株式会社ａｎｄ３,,株式会社,東京都,国立市,西１丁目４番地の２,,13,215,1860005,,,,,,,2023-04-25,1,,,,,アンドスリー,0
2322,9013301050621,新規,0,2023-04-25,2023-04-25,國華株式会社,,株式会社,東京都,豊島区,池袋２丁目２３番３－９Ｆ,,13,116,1710014,,,,,,,2023-04-25,1,,,,,コッカ,0
2323,9013301050638,新規,0,2023-04-25,2023-04-25,ＵＤＡＴＡ株式会社,,株式会社,東京都,豊島区,東池袋１丁目３４番５号いちご東池袋ビル６階,,13,116,1700013,,,,,,,2023-04-25,1,,,,,ユーデータ,0
2338,9021005012796,新規,0,2023-04-25,2023-04-25,宗教法人照天神社,,その他の設立登記法人,神奈川県,相模原市緑区,中野１１５２番地２,,14,151,2520157,,,,,,,2023-04-25,1,,,,,テルテンジンジャ,0
2344,9030001153521,新規,0,2023-04-25,2023-04-25,株式会社Ｍｕｋｕ‐ｓｔｕｄｉｏ,,株式会社,埼玉県,飯能市,大字原市場７２８番地３,,11,209,3570124,,,,,,,2023-04-25,1,,,,,ムクスタジオ,0
2354,9040001128101,新規,0,2023-04-25,2023-04-25,株式会社心輝,,株式会社,千葉県,八千代市,下市場２丁目８番３３号,,12,221,2760026,,,,,,,2023-04-25,1,,,,,シンキ,0
2356,9040003022450,新規,0,2023-04-25,2023-04-25,ＳＬＭジャパン合同会社,,合同会社,千葉県,白井市,堀込１丁目３番１０棟１０６号,,12,232,2701424,,,,,,,2023-04-25,1,,,,,エスエルエムジャパン,0
2364,9050001052738,新規,0,2023-04-25,2023-04-25,株式会社Ｐａｌａｍｅｓ,,株式会社,茨城県,つくば市,吾妻２丁目５番地１つくば市産業振興センター,,08,220,3050031,,,,,,,2023-04-25,1,,,,,パラメス,0
2365,9050001052746,新規,0,2023-04-25,2023-04-25,ＦＨ　ＴＲＡＤＩＮＧ株式会社,,株式会社,茨城県,結城市,大字結城９８５７番地３－１０２号,,08,207,3070001,,,,,,,2023-04-25,1,,,,,エフエイチトレーディング,0
2381,9090005007560,新規,0,2023-04-25,2023-04-25,特定非営利活動法人ＣＯＣＯＫＡＲＡ,,その他の設立登記法人,山梨県,甲府市,大里町４０６０番地１,,19,201,4000053,,,,,,,2023-04-25,1,,,,,ココカラ,0
2399,9120001254376,新規,0,2023-04-25,2023-04-25,淘理家株式会社,,株式会社,大阪府,大阪市住吉区,長居１丁目３番４－４０３号,,27,120,5580003,,,,,,,2023-04-25,1,,,,,トウリカ,0
2400,9120001254384,新規,0,2023-04-25,2023-04-25,株式会社ａｒｉｓｅ,,株式会社,大阪府,大阪市中央区,淡路町３丁目３番２－２９０６号,,27,128,5410047,,,,,,,2023-04-25,1,,,,,アライズ,0
2411,9120103005198,新規,0,2023-04-25,2023-04-25,合同会社ミヨシ電機,,合同会社,大阪府,阪南市,自然田１５２２番地１０,,27,232,5990212,,,,,,,2023-04-25,1,,,,,ミヨシデンキ,0
2414,9120901047441,新規,0,2023-04-25,2023-04-25,株式会社ＡＤＫ電気,,株式会社,大阪府,高槻市,天川新町１０番２８号,,27,207,5690027,,,,,,,2023-04-25,1,,,,,エイディケイデンキ,0
2425,9130001074121,新規,0,2023-04-25,2023-04-25,株式会社ＧＲＩＤ,,株式会社,京都府,京都市右京区,梅津南町２７－１グランドゥール廣田４０３,,26,108,6150915,,,,,,,2023-04-25,1,,,,,グリッド,0
2432,9140001129923,新規,0,2023-04-25,2023-04-25,株式会社花実かざり,,株式会社,兵庫県,神戸市北区,花山台１３番２２号,,28,109,6511205,,,,,,,2023-04-25,1,,,,,カミカザリ,0
2434,9140003019024,新規,0,2023-04-25,2023-04-25,合同会社ＳＢＫ,,合同会社,兵庫県,神戸市中央区,下山手通５丁目６番１６－１５０３号,,28,110,6500011,,,,,,,2023-04-25,1,,,,,エスビーケー,0
2436,9150001026343,新規,0,2023-04-25,2023-04-25,株式会社新基,,株式会社,奈良県,香芝市,今泉８２２番地６,,29,210,6390264,,,,,,,2023-04-25,1,,,,,シンキ,0
2454,9200005013480,新規,0,2023-04-25,2023-04-25,一般社団法人星月,,その他の設立登記法人,岐阜県,美濃加茂市,川合町３丁目１番２０号,,21,211,5050022,,,,,,,2023-04-25,1,,,,,セイゲツ,0
2465,9260001037890,新規,0,2023-04-25,2023-04-25,株式会社Ｔｈｒｅｅ　Ｃｒｅａｔｉｏｎ,,株式会社,岡山県,総社市,総社２５６６番地７,,33,208,7191126,,,,,,,2023-04-25,1,,,,,スリークリエイション,0
2468,9280001008923,新規,0,2023-04-25,2023-04-25,株式会社オアシス,,株式会社,島根県,益田市,あけぼの西町３番地１４,,32,204,6980025,,,,,,,2023-04-25,1,,,,,オアシス,0
2471,9290001101306,新規,0,2023-04-25,2023-04-25,株式会社レジリエンステラ,,株式会社,福岡県,福岡市博多区,冷泉町１０－２３博多冷泉町ビル２階,,40,132,8120039,,,,,,,2023-04-25,1,,,,,レジリエンステラ,0
2476,9300001013276,新規,0,2023-04-25,2023-04-25,株式会社みみ,,株式会社,佐賀県,佐賀市,富士町大字上熊川３１５番地１,,41,201,8400512,,,,,,,2023-04-25,1,,,,,ミミ,0
2478,9310001018373,新規,0,2023-04-25,2023-04-25,株式会社レインボーブライト,,株式会社,長崎県,佐世保市,松浦町５番１号,,42,202,8570052,,,,,,,2023-04-25,1,,,,,レインボーブライト,0
2493,9360003012915,新規,0,2023-04-25,2023-04-25,合同会社ＳＥＮ,,合同会社,沖縄県,沖縄市,古謝津嘉山町１７番１９号,,47,211,9042166,,,,,,,2023-04-25,1,,,,,セン,0
2515,9430001088917,新規,0,2023-04-25,2023-04-25,ＴＲＩＫＥＳ株式会社,,株式会社,北海道,札幌市白石区,北郷八条７丁目２番１号,,01,104,0030838,,,,,,,2023-04-25,1,,,,,トライクス,0
2516,9430001088925,新規,0,2023-04-25,2023-04-25,株式会社瑞兆,,株式会社,北海道,札幌市白石区,北郷三条１３丁目１番１１号,,01,104,0030833,,,,,,,2023-04-25,1,,,,,ズイチョウ,0
2519,9430003014961,新規,0,2023-04-25,2023-04-25,合同会社ＫＩＤＳＦＩＬＭ　Ｊａｐａｎ,,合同会社,北海道,札幌市北区,屯田七条１１丁目１２番１９号,,01,102,0020857,,,,,,,2023-04-25,1,,,,,キッズフィルムジャパン,0
2524,9700150115700,新規,0,2023-04-25,2023-04-25,ＭＦ６ＣＯ．ＬＴＤ,,外国会社等,東京都,千代田区,一番町２２番地４一番町館１階,,13,101,1020082,英国リンウッドハウス、３７３－３７５ステーションロード、ハロー、ミドルセックスＨＡ１、２ＡＷ,,,,,,2023-04-25,1,,,,,エムエフシツクスカンパニーリミテツド,0
2525,9700150115725,新規,0,2023-04-25,2023-04-25,Ｈｅｎｇｙａｎｇｓｈｉ　Ｍｉｎｇｚｈａｏ　ｄｉａｎｚｉｓｈａｎｇｗｕ　ｙｏｕｘｉａｎｇｏｎｇｓｉ,,外国会社等,,,,,,,,Ｎｏ．２４０１，Ｂｕｉｌｄｉｎｇ　１０，Ｊｉｎ　Ｙａｎ　Ｘｉａｎｇ　Ｌｏｎｇ　Ｈｕａ　Ｙｕａｎ，Ｎｏ．３　Ｏｕｔｅｒ　Ｒｉｎｇ　Ｒｏａｄ，Ｈｉｇｈ－Ｔｅｃｈ　Ｚｏｎｅ,,,,,,2023-04-25,1,,,,,ヘンヤンシミンジャオデンシショウムユウゲンコウシ,0
