sequenceNumber,corporateNumber,process,correct,updateDate,changeDate,name,nameImageId,kind,prefectureName,cityName,streetNumber,addressImageId,prefectureCode,cityCode,postCode,addressOutside,addressOutsideImageId,closeDate,closeCause,successorCorporateNumber,changeCause,assignmentDate,latest,enName,enPrefectureName,enCityName,enAddressOutside,furigana,hihyoji
15,1010003041452,新規,0,2023-08-23,2023-08-23,合同会社Ｉｎｆｉｎｉｔａｍ,,合同会社,東京都,文京区,千駄木５丁目１４番７号,,13,105,1130022,,,,,,,2023-08-23,1,,,,,インフィニタム,0
23,1010401176651,新規,0,2023-08-23,2023-08-23,レガリアル株式会社,,株式会社,東京都,港区,北青山１丁目３番１号アールキューブ青山３階,,13,103,1070061,,,,,,,2023-08-23,1,,,,,レガリアル,0
24,1010401176676,新規,0,2023-08-23,2023-08-23,株式会社ギディア,,株式会社,東京都,港区,三田１丁目４番２８号三田国際ビル１１階,,13,103,1080073,,,,,,,2023-08-23,1,,,,,ギディア,0
30,1010405022439,新規,0,2023-08-23,2023-08-23,ジャパン・イワキ特定目的会社,,その他の設立登記法人,東京都,港区,虎ノ門３丁目２２番１０－２０１号,,13,103,1050001,,,,,,,2023-08-23,1,,,,,ジャパンイワキ,0
34,1010701044748,新規,0,2023-08-23,2023-08-23,ランディ精工株式会社,,株式会社,東京都,品川区,東五反田５丁目２２番３７号,,13,109,1410022,,,,,,,2023-08-23,1,,,,,ランディセイコウ,0
39,1010903008402,新規,0,2023-08-23,2023-08-23,シェベルコンサルティング合同会社,,合同会社,東京都,世田谷区,深沢４丁目２３番１０号,,13,112,1580081,,,,,,,2023-08-23,1,,,,,シェベルコンサルティング,0
44,1011101104118,新規,0,2023-08-23,2023-08-23,アス・キャピタル・パートナーズ株式会社,,株式会社,東京都,新宿区,西早稲田３丁目１２－３ファイブ早稲田３０６,,13,104,1690051,,,,,,,2023-08-23,1,,,,,アスキャピタルパートナーズ,0
52,1011601027074,新規,0,2023-08-23,2023-08-23,株式会社翰晟貿易,,株式会社,東京都,練馬区,豊玉上２丁目２３－４アークス練馬１０２号室,,13,120,1760011,,,,,,,2023-08-23,1,,,,,カンションボウエキ,0
53,1011603004030,新規,0,2023-08-23,2023-08-23,ＶＪＰｌｕｓ合同会社,,合同会社,東京都,練馬区,富士見台３丁目３３－２１,,13,120,1770034,,,,,,,2023-08-23,1,,,,,ビジプラス,0
54,1011701026546,新規,0,2023-08-23,2023-08-23,株式会社モモ,,株式会社,東京都,江戸川区,中葛西２丁目９番９号,,13,123,1340083,,,,,,,2023-08-23,1,,,,,モモ,0
61,1012403006134,新規,0,2023-08-23,2023-08-23,起翔天結合同会社,,合同会社,東京都,調布市,布田１丁目４９番地１６,,13,208,1820024,,,,,,,2023-08-23,1,,,,,キショウテンケツ,0
71,1021003013498,新規,0,2023-08-23,2023-08-23,合同会社セレンディップ,,合同会社,神奈川県,南足柄市,沼田１４５番地１０,,14,217,2500115,,,,,,,2023-08-23,1,,,,,セレンディップ,0
80,1030001155327,新規,0,2023-08-23,2023-08-23,株式会社ユナイト,,株式会社,埼玉県,川口市,大字芝５３７４番地の１６,,11,203,3330866,,,,,,,2023-08-23,1,,,,,ユナイト,0
81,1030001155384,新規,0,2023-08-23,2023-08-23,株式会社中村商店,,株式会社,埼玉県,川口市,栄町２丁目１番１６号,,11,203,3320017,,,,,,,2023-08-23,1,,,,,ナカムラショウテン,0
84,1030003022285,新規,0,2023-08-23,2023-08-23,青春合同会社,,合同会社,埼玉県,鶴ヶ島市,大字藤金８８０番地８プラザドゥヘルメス１０１号,,11,241,3502206,,,,,,,2023-08-23,1,,,,,アオハル,0
85,1030003022293,新規,0,2023-08-23,2023-08-23,こしがや社会福祉ラボ合同会社,,合同会社,埼玉県,越谷市,七左町１丁目１７５番地１,,11,222,3430851,,,,,,,2023-08-23,1,,,,,コシガヤシャカイフクシラボ,0
88,1040001129775,新規,0,2023-08-23,2023-08-23,株式会社ＰＶ　Ｃｒａｆｔ,,株式会社,千葉県,印西市,木下南２丁目１４番地３５,,12,231,2701328,,,,,,,2023-08-23,1,,,,,ピーブイクラフト,0
89,1040003023175,新規,0,2023-08-23,2023-08-23,合同会社柊木,,合同会社,千葉県,八街市,榎戸６８４番地５０ニッセキアパートメントＩＩＩ１０１,00131627,12,230,2891106,,,,,,,2023-08-23,1,,,,,ヒイラギ,0
98,1070001014644,新規,0,2023-08-23,2023-08-23,株式会社住工産業,,株式会社,群馬県,伊勢崎市,間野谷町５９１番地,,10,204,3792201,,,,,,,2023-08-23,1,,,,,ジュウコウサンギョウ,0
102,1080101024179,新規,0,2023-08-23,2023-08-23,株式会社村橋塗装,,株式会社,静岡県,駿東郡長泉町,下土狩１１２８番地の２６,,22,342,4110943,,,,,,,2023-08-23,1,,,,,ムラハシトソウ,0
107,1080403004853,新規,0,2023-08-23,2023-08-23,合同会社ＴＭＧカンパニー,,合同会社,静岡県,磐田市,平間１２７４番地１５８,,22,211,4380203,,,,,,,2023-08-23,1,,,,,ティーエムジーカンパニー,0
112,1110001037789,新規,0,2023-08-23,2023-08-23,株式会社メソッドラボ,,株式会社,新潟県,新潟市西区,寺尾北１丁目３番８号,,15,107,9502061,,,,,,,2023-08-23,1,,,,,メソッドラボ,0
125,1120001257543,新規,0,2023-08-23,2023-08-23,フカタ株式会社,,株式会社,大阪府,門真市,江端町９番２６号,,27,223,5710012,,,,,,,2023-08-23,1,,,,,フカタ,0
126,1120003024776,新規,0,2023-08-23,2023-08-23,合同会社ファイス,,合同会社,大阪府,寝屋川市,平池町８‐５,,27,215,5720839,,,,,,,2023-08-23,1,,,,,ファイス,0
132,1122001037297,新規,0,2023-08-23,2023-08-23,株式会社Ｐｒｏｓｂｉｚ,,株式会社,大阪府,東大阪市,森河内東２丁目１１番３６号ソリエベーネ２０７,,27,227,5770062,,,,,,,2023-08-23,1,,,,,プロスビズ,0
141,1130005016853,新規,0,2023-08-23,2023-08-23,一般社団法人Ｌｉｎｋｅｄ　Ａｒｔｉｓａｎ,,その他の設立登記法人,京都府,亀岡市,曽我部町法貴寺縄壱３８番地１,,26,206,6210026,,,,,,,2023-08-23,1,,,,,リンクドアルチザン,0
161,1180001157597,新規,0,2023-08-23,2023-08-23,株式会社ＰＵＺＺＬＥ,,株式会社,愛知県,愛知郡東郷町,大字春木字清水ケ根２２２番地１,,23,302,4700162,,,,,,,2023-08-23,1,,,,,パズル,0
163,1180003025653,新規,0,2023-08-23,2023-08-23,合同会社ウィルアチーヴメント,,合同会社,愛知県,名古屋市昭和区,駒方町２丁目４７番地,,23,107,4660832,,,,,,,2023-08-23,1,,,,,ウィルアチーヴメント,0
170,1200001041625,新規,0,2023-08-23,2023-08-23,株式会社ＨｕｂＯｎｅ,,株式会社,岐阜県,中津川市,福岡２２９０番地２５,,21,206,5080203,,,,,,,2023-08-23,1,,,,,ハブワン,0
175,1260001038252,新規,0,2023-08-23,2023-08-23,株式会社ＭＩＮＥ設計,,株式会社,岡山県,倉敷市,五日市８５１番地１１,,33,202,7100041,,,,,,,2023-08-23,1,,,,,マインセッケイ,0
184,1310001018570,新規,0,2023-08-23,2023-08-23,株式会社さくらそう,,株式会社,長崎県,東彼杵郡川棚町,下組郷７５２番地９,,42,322,8593615,,,,,,,2023-08-23,1,,,,,サクラソウ,0
185,1310003004627,新規,0,2023-08-23,2023-08-23,合同会社葉港,,合同会社,長崎県,佐世保市,矢岳町１２番１９号サンライズ矢岳２０２号室,,42,202,8570047,,,,,,,2023-08-23,1,,,,,ヨウコウ,0
186,1320001019956,新規,0,2023-08-23,2023-08-23,株式会社翔和,,株式会社,大分県,大分市,高江南２丁目２２番１０号,,44,201,8701118,,,,,,,2023-08-23,1,,,,,ショウワ,0
187,1330001031183,新規,0,2023-08-23,2023-08-23,株式会社まるあい,,株式会社,熊本県,菊池郡大津町,大字平川１０６９番地３,,43,403,8691231,,,,,,,2023-08-23,1,,,,,マルアイ,0
193,1360001032451,新規,0,2023-08-23,2023-08-23,株式会社エムスタイルリフォーム琉球,,株式会社,沖縄県,宜野湾市,野嵩２丁目２番１号ＲａｆｆｉｎｅＮｕｄａｋｉ２０３号,,47,205,9012203,,,,,,,2023-08-23,1,,,,,エムスタイルリフォームリュウキュウ,0
194,1370001050320,新規,0,2023-08-23,2023-08-23,株式会社テイクケア,,株式会社,宮城県,石巻市,相野谷字飯野川町７３番地,,04,202,9860101,,,,,,,2023-08-23,1,,,,,テイクケア,0
198,1410003003833,新規,0,2023-08-23,2023-08-23,ＡＫＢＡＲ　ＣＯＲＰＯＲＡＴＩＯＮ合同会社,,合同会社,秋田県,大館市,花岡町字小坪川５９番地１大館オフィスビルＡ－１号,,05,204,0170005,,,,,,,2023-08-23,1,,,,,アケバルコーポレーション,0
206,1460101007426,新規,0,2023-08-23,2023-08-23,株式会社奥野農場,,株式会社,北海道,河西郡芽室町,坂の上８線２７番地３,,01,637,0820075,,,,,,,2023-08-23,1,,,,,オクノノウジョウ,0
214,1700150116739,新規,0,2023-08-23,2023-08-23,Ｓｈａｎｇｈａｉ　Ｚｈｉｇｕ　Ｔｒａｄｉｎｇ　Ｃｏ．，Ｌｔｄ．,,外国会社等,,,,,,,,ｓｈａｎｇ　ｈａｉ　ｓｈｉ　ｂａｏ　ｓｈａｎ　ｑｕ　ｊｉｎ　ｌｅ　ｌｕ　９４７　ｈａｏ　２　ｚｈｕａｎｇ,,,,,,2023-08-23,1,,,,,シャンハイチコボウエキユウゲンコウシ,0
215,1700150118990,新規,0,2023-08-23,2023-08-14,日本改革党,,その他,東京都,豊島区,南大塚２丁目１１－１０－３Ｆ,,13,116,1700005,,,,,,,2023-08-14,1,,,,,ニホンカイカクトウ,0
216,1700150119196,新規,0,2023-08-23,2023-08-23,ｑｉｎｇｃｈｕｙｕｌａｎｔｉａｎｊｉｎ　ｗａｎｇｌｕｏｋｅｊｉ　ｙｏｕｘｉａｎｇｏｎｇｓｉ,,外国会社等,,,,,,,,２－３－１０１，Ｚｏｎｅ　Ｅ，Ｂｉｓｈｕｉｊｉａｙｕａｎ，Ｚｈｏｎｇｂｅｉ，Ｘｉｑｉｎｇ　Ｄｉｓｔｒｉｃｔ，Ｔｉａｎｊｉｎ,,,,,,2023-08-23,1,,,,,チンチュユランテンシンワンルオカギユウゲンコウシ,0
220,2010001237927,新規,0,2023-08-23,2023-08-23,株式会社グローバルビュー,,株式会社,東京都,中央区,築地３丁目２番２－７０２号,,13,102,1040045,,,,,,,2023-08-23,1,,,,,グローバルビュー,0
225,2010003041220,新規,0,2023-08-23,2023-08-23,合同会社ＮｅｕＤｅｓｉｇｎＬａｂ,,合同会社,東京都,文京区,本郷４丁目１５番２号第２ＭＳ本郷３０１,,13,105,1130033,,,,,,,2023-08-23,1,,,,,ニューデザインラボ,0
226,2010003041451,新規,0,2023-08-23,2023-08-23,ソーラーペタル合同会社,,合同会社,東京都,中央区,八丁堀４丁目２番１０号ＡＯＪ税理士法人内,,13,102,1040032,,,,,,,2023-08-23,1,,,,,ソーラーペタル,0
227,2010003041492,新規,0,2023-08-23,2023-08-23,合同会社ＭＥＩＳＯＮＧ,,合同会社,東京都,中央区,銀座１丁目１２番４号Ｎ＆Ｅ．ＢＬＤ．６Ｆ,,13,102,1040061,,,,,,,2023-08-23,1,,,,,メイソン,0
233,2010401176576,新規,0,2023-08-23,2023-08-23,三吉株式会社,,株式会社,東京都,港区,赤坂９丁目１番７号２５９号室,,13,103,1070052,,,,,,,2023-08-23,1,,,,,サンキチ,0
234,2010401176642,新規,0,2023-08-23,2023-08-23,Ｇｏｌｄｂｉｒｄ株式会社,,株式会社,東京都,港区,芝浦２丁目９番１－１３０６号,,13,103,1080023,,,,,,,2023-08-23,1,,,,,ゴールドバード,0
235,2010401176659,新規,0,2023-08-23,2023-08-23,株式会社ミスティ,,株式会社,東京都,港区,白金台４丁目１９－５,,13,103,1080071,,,,,,,2023-08-23,1,,,,,ミスティ,0
238,2010405022438,新規,0,2023-08-23,2023-08-23,ジャパン・バンダイ特定目的会社,,その他の設立登記法人,東京都,港区,虎ノ門３丁目２２番１０－２０１号,,13,103,1050001,,,,,,,2023-08-23,1,,,,,ジャパンバンダイ,0
240,2010701044739,新規,0,2023-08-23,2023-08-23,株式会社ＮＦＹ２,,株式会社,東京都,品川区,東五反田１丁目１２番５号秀栄ビル７階,,13,109,1410022,,,,,,,2023-08-23,1,,,,,エヌエフワイツー,0
255,2011001156497,新規,0,2023-08-23,2023-08-23,株式会社ケース面接Ｑｕｅｓｔ,,株式会社,東京都,渋谷区,渋谷２丁目１９－１５宮益坂ビルディング６０９,,13,113,1500002,,,,,,,2023-08-23,1,,,,,ケースメンセツクエスト,0
256,2011001156514,新規,0,2023-08-23,2023-08-23,株式会社Ｅｍｉｒｉａ,,株式会社,東京都,渋谷区,道玄坂１丁目１０番８号渋谷道玄坂東急ビル２Ｆ－Ｃ,,13,113,1500043,,,,,,,2023-08-23,1,,,,,エミリア,0
259,2011101104091,新規,0,2023-08-23,2023-08-23,株式会社Ｌｉｎｋｓ,,株式会社,東京都,新宿区,早稲田鶴巻町５７４－２２ＭＢＳビル２階,,13,104,1620041,,,,,,,2023-08-23,1,,,,,リンクス,0
260,2011101104109,新規,0,2023-08-23,2023-08-23,株式会社クラウドウィング,,株式会社,東京都,新宿区,新宿２丁目１２番１３号新宿アントレサロンビル２階,,13,104,1600022,,,,,,,2023-08-23,1,,,,,クラウドウィング,0
261,2011101104117,新規,0,2023-08-23,2023-08-23,株式会社日本補助金・融資支援センター,,株式会社,東京都,新宿区,西新宿３丁目３番１３号西新宿水間ビル６階,,13,104,1600023,,,,,,,2023-08-23,1,,,,,ニホンホジョキンユウシシエンセンター,0
271,2011401025384,新規,0,2023-08-23,2023-08-23,Ｂｅｔｔｅｒ　Ｌｉｎｋ株式会社,,株式会社,東京都,板橋区,徳丸６丁目１３－１２－１０３号室,,13,119,1750083,,,,,,,2023-08-23,1,,,,,ベターリンク,0
273,2011701026545,新規,0,2023-08-23,2023-08-23,東日本ハウジング株式会社,,株式会社,東京都,江戸川区,本一色１丁目３３－１８フローレンスＩ３０１,00131621,13,123,1330044,,,,,,,2023-08-23,1,,,,,ヒガシニホンハウジング,0
276,2011803005793,新規,0,2023-08-23,2023-08-23,合同会社テラットワ,,合同会社,東京都,葛飾区,東水元１丁目１７番１８号,,13,122,1250033,,,,,,,2023-08-23,1,,,,,テラットワ,0
279,2012401040910,新規,0,2023-08-23,2023-08-23,株式会社リブラ,,株式会社,東京都,稲城市,百村１１２５番地岡方,,13,225,2060804,,,,,,,2023-08-23,1,,,,,リブラ,0
280,2012701017807,新規,0,2023-08-23,2023-08-23,株式会社Ｗｅｓ＆Ｃｏｍ,,株式会社,東京都,西東京市,東町３丁目１１番２－４１０号,,13,229,2020012,,,,,,,2023-08-23,1,,,,,ウェスアンドコム,0
284,2013301051246,新規,0,2023-08-23,2023-08-23,株式会社ＬＦＨ,,株式会社,東京都,豊島区,池袋２丁目３７番２号,,13,116,1710014,,,,,,,2023-08-23,1,,,,,エルエフエイチ,0
285,2013301051262,新規,0,2023-08-23,2023-08-23,弘毅株式会社,,株式会社,東京都,豊島区,池袋１丁目１３番１４号,,13,116,1700014,,,,,,,2023-08-23,1,,,,,コウキ,0
287,2020001072679,新規,0,2023-08-23,2023-08-23,熊谷建設株式会社,,株式会社,神奈川県,川崎市川崎区,浜町１丁目２番７号,,14,131,2100851,,,,,,,2023-08-23,1,,,,,クマガイケンセツ,0
296,2020001153099,新規,0,2023-08-23,2023-08-23,株式会社横浜オリーブ,,株式会社,神奈川県,横浜市緑区,鴨居町２５４８番地１号－２階,,14,113,2260004,,,,,,,2023-08-23,1,,,,,ヨコハマオリーブ,0
297,2020001153108,新規,0,2023-08-23,2023-08-23,株式会社サンコネクト,,株式会社,神奈川県,川崎市川崎区,駅前本町１１番２川崎フロンティアビル４階,,14,131,2100007,,,,,,,2023-08-23,1,,,,,サンコネクト,0
299,2020003024430,新規,0,2023-08-23,2023-08-23,合同会社エルムブリッジ,,合同会社,神奈川県,横浜市西区,北幸２丁目１０番地２８むつみビル３Ｆ,,14,103,2200004,,,,,,,2023-08-23,1,,,,,エルムブリッジ,0
300,2020005016095,新規,0,2023-08-23,2023-08-23,一般社団法人全国訪問看護経営研究協会,,その他の設立登記法人,神奈川県,横浜市中区,野毛町２丁目９０桜木町スカイハイツ４０５,,14,104,2310064,,,,,,,2023-08-23,1,,,,,ゼンコクホウモンカンゴケイエイケンキュウキョウカイ,0
305,2021003013480,新規,0,2023-08-23,2023-08-23,合同会社ｒｈｙｔｈｍ　ｅｃｈｏ　ｎｏｉｓｅ,,合同会社,神奈川県,茅ヶ崎市,平和町１０－９コーポ平和２０３,,14,207,2530024,,,,,,,2023-08-23,1,,,,,リズムエコーノイズ,0
306,2021003013489,新規,0,2023-08-23,2023-08-23,合同会社Ｍ＆Ｈサポート,,合同会社,神奈川県,厚木市,妻田西３丁目１４番６号,,14,212,2430815,,,,,,,2023-08-23,1,,,,,エムアンドエイチサポート,0
309,2030001155235,新規,0,2023-08-23,2023-08-23,株式会社ＹＡＫＡＢＥ’Ｓ,,株式会社,埼玉県,さいたま市西区,宮前町６３３－２９,,11,101,3310046,,,,,,,2023-08-23,1,,,,,ヤカベズ,0
310,2030001155326,新規,0,2023-08-23,2023-08-23,株式会社ＰＡＮＳＨＡＲＥ,,株式会社,埼玉県,白岡市,新白岡１丁目１番地３,,11,246,3490212,,,,,,,2023-08-23,1,,,,,パンシェア,0
311,2030001155342,新規,0,2023-08-23,2023-08-23,株式会社ＧＩＲＡＳＯＬＥ　ＭＵＳＩＣ　ＯＦＦＩＣＥ,,株式会社,埼玉県,さいたま市見沼区,春岡３丁目４７番地８,,11,104,3370008,,,,,,,2023-08-23,1,,,,,ジラソーレミュージックオフィス,0
312,2030001155367,新規,0,2023-08-23,2023-08-23,株式会社伊藤,,株式会社,埼玉県,川口市,芝園町３番１－８２７号,,11,203,3330853,,,,,,,2023-08-23,1,,,,,イトウ,0
313,2030001155391,新規,0,2023-08-23,2023-08-23,株式会社エーケーアイ,,株式会社,埼玉県,春日部市,六軒町２１８番地カーサ・グリーチネＩＩ－１０２,00131634,11,214,3440012,,,,,,,2023-08-23,1,,,,,エーケーアイ,0
314,2030001155516,新規,0,2023-08-23,2023-08-23,株式会社藤世工業,,株式会社,埼玉県,熊谷市,永井太田６２８番地,,11,202,3600237,,,,,,,2023-08-23,1,,,,,フジセコウギョウ,0
316,2030003022292,新規,0,2023-08-23,2023-08-23,合同会社ＥＮＴＥＲＴＡＩＮ,,合同会社,埼玉県,熊谷市,箱田１丁目１５番１１号,,11,202,3600014,,,,,,,2023-08-23,1,,,,,エンターテイン,0
317,2030003022359,新規,0,2023-08-23,2023-08-23,チカラキャリアジャヤ合同会社,,合同会社,埼玉県,熊谷市,弥藤吾９９０番地９６,,11,202,3600203,,,,,,,2023-08-23,1,,,,,チカラキャリアジャヤ,0
325,2040001129766,新規,0,2023-08-23,2023-08-23,願い株式会社,,株式会社,千葉県,成田市,川上２４５番地１６８０,,12,211,2870244,,,,,,,2023-08-23,1,,,,,ネガイ,0
326,2040001129774,新規,0,2023-08-23,2023-08-23,株式会社ｉｄｌｅ,,株式会社,千葉県,流山市,おおたかの森北２丁目５番地の２ビアン・ゼルコバ１０５,,12,220,2700119,,,,,,,2023-08-23,1,,,,,アイドル,0
327,2040001129799,新規,0,2023-08-23,2023-08-23,株式会社マニフィック,,株式会社,千葉県,我孫子市,本町２丁目２番９号,,12,222,2701151,,,,,,,2023-08-23,1,,,,,マニフィック,0
338,2040003023158,新規,0,2023-08-23,2023-08-23,合同会社スケダチサービス,,合同会社,千葉県,千葉市若葉区,みつわ台３丁目９番８号,,12,104,2640032,,,,,,,2023-08-23,1,,,,,スケダチサービス,0
341,2040005022100,新規,0,2023-08-23,2023-08-23,農事組合法人山崎営農組合,,その他の設立登記法人,千葉県,匝瑳市,入山崎５３３番地,,12,235,2892161,,,,,,,2023-08-23,1,,,,,ヤマザキエイノウクミアイ,0
342,2050001053338,新規,0,2023-08-23,2023-08-23,株式会社米川電気管理事務所,,株式会社,茨城県,東茨城郡茨城町,大字小幡２００３－２,,08,302,3113157,,,,,,,2023-08-23,1,,,,,ヨネカワデンキカンリジムショ,0
344,2050003007746,新規,0,2023-08-23,2023-08-23,ＴＯＷ‐ＣＯＮＮＥＣＴ合同会社,,合同会社,茨城県,古河市,尾崎４７４８―３２,,08,204,3060101,,,,,,,2023-08-23,1,,,,,トウコネクト,0
345,2050005013313,新規,0,2023-08-23,2023-08-23,一般社団法人訪問看護サポートシステム研究会,,その他の設立登記法人,茨城県,土浦市,西根西１丁目７番９号,,08,203,3000848,,,,,,,2023-08-23,1,,,,,ホウモンカンゴサポートシステムケンキュウカイ,0
357,2110003005140,新規,0,2023-08-23,2023-08-23,Ｗａｌｄｅｎ合同会社,,合同会社,新潟県,十日町市,蒲生宮之脇１９６７,,15,210,9421534,,,,,,,2023-08-23,1,,,,,ウォールデン,0
365,2120001257468,新規,0,2023-08-23,2023-08-23,株式会社プラスオン,,株式会社,大阪府,大阪市北区,梅田１丁目２番２号大阪駅前第２ビル１２－１２,,27,127,5300001,,,,,,,2023-08-23,1,,,,,プラスオン,0
366,2120001257542,新規,0,2023-08-23,2023-08-23,里田実業株式会社,,株式会社,大阪府,大阪市西区,北堀江２丁目４番１１号サンライズビル１０２４,,27,106,5500014,,,,,,,2023-08-23,1,,,,,サトダジツギョウ,0
367,2120001257583,新規,0,2023-08-23,2023-08-23,株式会社ＤＡＩＴＥＣ,,株式会社,大阪府,寝屋川市,点野５丁目４番３０号,,27,215,5720077,,,,,,,2023-08-23,1,,,,,ダイテック,0
370,2120003024742,新規,0,2023-08-23,2023-08-23,合同会社Ｗｏｒｌｄ　Ｔｒｅｓｕｒｅｓ,,合同会社,大阪府,大阪市中央区,本町橋５番１７－６０２号,,27,128,5400029,,,,,,,2023-08-23,1,,,,,ワールドトレジャーズ,0
371,2120003024759,新規,0,2023-08-23,2023-08-23,合同会社ブーススペース,,合同会社,大阪府,大阪市北区,天神橋１丁目１６番２－３０２号,,27,127,5300041,,,,,,,2023-08-23,1,,,,,ブーススペース,0
385,2122001037296,新規,0,2023-08-23,2023-08-23,株式会社ぱなけあ,,株式会社,大阪府,東大阪市,吉田６丁目２番５８号,,27,227,5780924,,,,,,,2023-08-23,1,,,,,パナケア,0
391,2130001075010,新規,0,2023-08-23,2023-08-23,株式会社ＦＵ＆ＦＯ,,株式会社,京都府,京都市下京区,中堂寺前町４９８番地トラストビル１階,,26,106,6008362,,,,,,,2023-08-23,1,,,,,フーアンドフー,0
392,2130001075068,新規,0,2023-08-23,2023-08-23,株式会社ＢＩＷＡＲＡＩＴＯ８２１,,株式会社,京都府,京都市伏見区,醍醐外山街道町２５番地８,,26,109,6011345,,,,,,,2023-08-23,1,,,,,ビワライトハッピャクニジュウイチ,0
396,2130003008926,新規,0,2023-08-23,2023-08-23,別所エナジー合同会社,,合同会社,京都府,京都市左京区,花脊別所町８７７番地,,26,103,6011105,,,,,,,2023-08-23,1,,,,,ベッショエナジー,0
402,2140001131233,新規,0,2023-08-23,2023-08-23,ＳＯＵＬＬＯＧＩＣ株式会社,,株式会社,兵庫県,神戸市灘区,高徳町１丁目２番１３－３１１号,,28,102,6570025,,,,,,,2023-08-23,1,,,,,ソウルロジック,0
403,2140001131332,新規,0,2023-08-23,2023-08-23,株式会社かえり,,株式会社,兵庫県,神戸市中央区,雲井通４丁目２番１－３０１号,,28,110,6510096,,,,,,,2023-08-23,1,,,,,カエリ,0
404,2140001131357,新規,0,2023-08-23,2023-08-23,株式会社ＦＵＪＩＴＯＫＵ,,株式会社,兵庫県,神戸市垂水区,上高丸１丁目１番３号,,28,108,6550017,,,,,,,2023-08-23,1,,,,,フジトク,0
414,2180001157704,新規,0,2023-08-23,2023-08-23,ＥＬホールディングス株式会社,,株式会社,愛知県,愛西市,西條町大池５７番地１,,23,232,4960913,,,,,,,2023-08-23,1,,,,,イーエルホールディングス,0
418,2180003025652,新規,0,2023-08-23,2023-08-23,合同会社旅と絵,,合同会社,愛知県,名古屋市千種区,清住町２丁目３１番地の１３,,23,101,4640034,,,,,,,2023-08-23,1,,,,,タビトエ,0
428,2200003006055,新規,0,2023-08-23,2023-08-23,ＡＳＬＡＭ　ＴＲＡＤＩＮＧ合同会社,,合同会社,岐阜県,岐阜市,黒野９９－１（ぐりむ・ぎほく２号室）,,21,201,5011131,,,,,,,2023-08-23,1,,,,,アスラムトレーディング,0
435,2240003006258,新規,0,2023-08-23,2023-08-23,合同会社インベストメント,,合同会社,広島県,広島市東区,中山南１丁目１６－１４－３１５,,34,102,7320024,,,,,,,2023-08-23,1,,,,,インベストメント,0
440,2260001038251,新規,0,2023-08-23,2023-08-23,ヤスダ薬局株式会社,,株式会社,岡山県,岡山市北区,野田屋町１丁目１１－１－２００６,,33,101,7000815,,,,,,,2023-08-23,1,,,,,ヤスダヤッキョク,0
441,2260003004400,新規,0,2023-08-23,2023-08-23,ｒｉｃｈｅｓｓｅ合同会社,,合同会社,岡山県,岡山市中区,門田屋敷３丁目４‐６サンライト門田屋敷５０３,,33,102,7038275,,,,,,,2023-08-23,1,,,,,リシェッス,0
445,2290003014272,新規,0,2023-08-23,2023-08-23,便利屋マサミ合同会社,,合同会社,福岡県,福岡市博多区,博多駅前１丁目２３番２号ＰａｒｋＦｒｏｎｔ博多駅前１丁目５Ｆ－Ｂ,,40,132,8120011,,,,,,,2023-08-23,1,,,,,ベンリヤマサミ,0
446,2290803004489,新規,0,2023-08-23,2023-08-23,合同会社キミドリ,,合同会社,福岡県,直方市,大字山部５２１番地８,,40,204,8220034,,,,,,,2023-08-23,1,,,,,キミドリ,0
450,2320001019963,新規,0,2023-08-23,2023-08-23,株式会社博陽,,株式会社,大分県,大分市,大字曲６１１番地の１３,,44,201,8700946,,,,,,,2023-08-23,1,,,,,ハクヨウ,0
451,2330001031182,新規,0,2023-08-23,2023-08-23,株式会社麗ホールディングス,,株式会社,熊本県,上益城郡御船町,大字豊秋１７９５番地１,,43,441,8613131,,,,,,,2023-08-23,1,,,,,レイホールディングス,0
454,2350003004424,新規,0,2023-08-23,2023-08-23,合同会社蕾,,合同会社,宮崎県,宮崎市,大字島之内９２１３番地３５,,45,201,8800121,,,,,,,2023-08-23,1,,,,,ツボミ,0
457,2360001032450,新規,0,2023-08-23,2023-08-23,株式会社ＡＰＯＬＬＯＮ,,株式会社,沖縄県,那覇市,牧志２丁目３番２０号アーバンコアビル１階,,47,201,9000013,,,,,,,2023-08-23,1,,,,,アポロン,0
462,2370003006253,新規,0,2023-08-23,2023-08-23,合同会社Ｃａｎａａｎ　ｅｓｔａｔｅ,,合同会社,宮城県,仙台市太白区,日本平４４番１２号,,04,104,9820221,,,,,,,2023-08-23,1,,,,,カナンエステート,0
465,2380001033934,新規,0,2023-08-23,2023-08-23,株式会社ファースト,,株式会社,福島県,郡山市,本町２丁目５番１０号－１Ｆ,,07,203,9638871,,,,,,,2023-08-23,1,,,,,ファースト,0
468,2410001013577,新規,0,2023-08-23,2023-08-23,ＡＺＨＡＲ．ＴＲＡＤＩＮＧ株式会社,,株式会社,秋田県,男鹿市,払戸字小堤下千間１０番地,,05,206,0100431,,,,,,,2023-08-23,1,,,,,アザールトレーディング,0
471,2430001089797,新規,0,2023-08-23,2023-08-23,アース株式会社,,株式会社,北海道,白老郡白老町,栄町２丁目４番１６号,,01,578,0590914,,,,,,,2023-08-23,1,,,,,アース,0
473,2430003015371,新規,0,2023-08-23,2023-08-23,合同会社ＨＭＤＲ,,合同会社,北海道,札幌市豊平区,平岸五条７丁目１番２号,,01,105,0620935,,,,,,,2023-08-23,1,,,,,エイチエムディーアール,0
475,2460001005818,新規,0,2023-08-23,2023-08-23,株式会社フューネ,,株式会社,北海道,川上郡弟子屈町,泉２丁目１番３２号,,01,665,0883212,,,,,,,2023-08-23,1,,,,,フューネ,0
481,2500001025150,新規,0,2023-08-23,2023-08-23,株式会社壱真,,株式会社,愛媛県,今治市,郷桜井４丁目３番６７号,,38,202,7991523,,,,,,,2023-08-23,1,,,,,イッシン,0
483,2700150119195,新規,0,2023-08-23,2023-08-23,ｄｏｎｇｇｕａｎ　ｘｉｎｍａｎｔｉａｎｋｅｊｉ　ｙｏｕｘｉａｎｇｏｎｇｓｉ,,外国会社等,,,,,,,,ｇｕａｎｇｄｏｎｇｓｈｅｎｇｄｏｎｇｇｕａｎｓｈｉｔａｎｇｓｈａｚｈｅｎｌｉｎｃｕｎｘｉｈｕｇｏｎｇｙｅ　ｅｒｌｕ１ｈａｏ２ｄｏｎｇ１０２ｓｈｉ,,,,,,2023-08-23,1,,,,,トウカンシンマンテェンカギユウゲンコウシ,0
484,2700150119229,新規,0,2023-08-23,2023-08-23,Ｚｈｕ　ｈａｉ　ｙｉｎｇ　ｓｈｕ　ｓｈａｎｇ　ｍａｏ　ｙｏｕ　ｘｉａｎ　ｇｏｎｇ　ｓｉ,,外国会社等,,,,,,,,Ｈｅｎｇ　ｑｉｎ　ｘｉｎ　ｑｕ　ｙａｎｇ　ｈｕａｎ　ｃｕｎ　６８　ｈａｏ　ｄｉ　ｓａｎ　ｃｅｎｇ　Ｚｈｕ　ｈａｉ,,,,,,2023-08-23,1,,,,,シュカイインシュシャンマオユウゲンコウシ,0
490,3010003041384,新規,0,2023-08-23,2023-08-23,ｕｎｒｅ合同会社,,合同会社,東京都,中央区,銀座１丁目１２－４Ｎ＆Ｅ．ＢＬＤ．７階,,13,102,1040061,,,,,,,2023-08-23,1,,,,,アンリ,0
491,3010003041442,新規,0,2023-08-23,2023-08-23,合同会社栃木ソーラーホールディングス,,合同会社,東京都,千代田区,九段北３丁目２番４号,,13,101,1020073,,,,,,,2023-08-23,1,,,,,トチギソーラーホールディングス,0
492,3010003041450,新規,0,2023-08-23,2023-08-23,ソーラーパルム合同会社,,合同会社,東京都,中央区,八丁堀４丁目２番１０号ＡＯＪ税理士法人内,,13,102,1040032,,,,,,,2023-08-23,1,,,,,ソーラーパルム,0
493,3010003041459,新規,0,2023-08-23,2023-08-23,アプリキャット合同会社,,合同会社,東京都,文京区,大塚５丁目４０番２０号,,13,105,1120012,,,,,,,2023-08-23,1,,,,,アプリキャット,0
494,3010003041491,新規,0,2023-08-23,2023-08-23,合同会社ほっこりテック,,合同会社,東京都,中央区,日本橋兜町１７番２号兜町第６葉山ビル４階,,13,102,1030026,,,,,,,2023-08-23,1,,,,,ホッコリテック,0
499,3010401176451,新規,0,2023-08-23,2023-08-23,株式会社八芳園交流コンテンツプロデュース,,株式会社,東京都,港区,白金台１丁目１番６号,,13,103,1080071,,,,,,,2023-08-23,1,,,,,ハッポウエンコウリュウコンテンツプロデュース,0
502,3010403030739,新規,0,2023-08-23,2023-08-23,合同会社ポルタ,,合同会社,東京都,港区,港南３丁目６番２１－６０７号,,13,103,1080075,,,,,,,2023-08-23,1,,,,,ポルタ,0
503,3010405022437,新規,0,2023-08-23,2023-08-23,ソーラーマクスウェルホールディングス一般社団法人,,その他の設立登記法人,東京都,港区,西新橋１丁目２番９号メンターキャピタル税理士法人内,,13,103,1050003,,,,,,,2023-08-23,1,,,,,ソーラーマクスウェルホールディングス,0
511,3010901053662,新規,0,2023-08-23,2023-08-23,千・インターナショナル株式会社,,株式会社,東京都,世田谷区,上野毛２丁目５番８号上野毛ホーム２０１,,13,112,1580093,,,,,,,2023-08-23,1,,,,,センインターナショナル,0
512,3010901053687,新規,0,2023-08-23,2023-08-23,株式会社ＴＡＮＯ,,株式会社,東京都,世田谷区,三軒茶屋２丁目４８番１４号,,13,112,1540024,,,,,,,2023-08-23,1,,,,,タノ,0
513,3010901053695,新規,0,2023-08-23,2023-08-23,富士くじらＩＴ株式会社,,株式会社,東京都,世田谷区,池尻３丁目５番３４号コーポＫ１０２,,13,112,1540001,,,,,,,2023-08-23,1,,,,,フジクジラアイティー,0
519,3011001156496,新規,0,2023-08-23,2023-08-23,株式会社ジェネレイティブ,,株式会社,東京都,渋谷区,道玄坂１丁目１０番８号渋谷道玄坂東急ビル２Ｆ－Ｃ,,13,113,1500043,,,,,,,2023-08-23,1,,,,,ジェネレイティブ,0
522,3011003017416,新規,0,2023-08-23,2023-08-23,合同会社ＹｏｕＬｉｋｅ,,合同会社,東京都,目黒区,八雲５丁目３番２０号,,13,110,1520023,,,,,,,2023-08-23,1,,,,,ユーライク,0
527,3011101104108,新規,0,2023-08-23,2023-08-23,株式会社ショーとショート,,株式会社,東京都,新宿区,西新宿３丁目３番１３号西新宿水間ビル６階,,13,104,1600023,,,,,,,2023-08-23,1,,,,,ショートショート,0
532,3011701026544,新規,0,2023-08-23,2023-08-23,株式会社Ｒｏｏｍｓ,,株式会社,東京都,江戸川区,南小岩３丁目１７番４号,,13,123,1330056,,,,,,,2023-08-23,1,,,,,ルームズ,0
534,3011801042912,新規,0,2023-08-23,2023-08-23,Ｓｅｃｏｎｄ　Ｎａｔｕｒｅ株式会社,,株式会社,東京都,足立区,舎人５丁目２７番１６号,,13,121,1210831,,,,,,,2023-08-23,1,,,,,セカンドネイチャー,0
538,3012403006132,新規,0,2023-08-23,2023-08-23,合同会社真栄,,合同会社,東京都,三鷹市,中原４丁目３５番２０号,,13,204,1810005,,,,,,,2023-08-23,1,,,,,シンエイ,0
539,3012803003167,新規,0,2023-08-23,2023-08-23,合同会社ＷＩＮ,,合同会社,東京都,立川市,上砂町５丁目７１－１１レインボー上砂１０１号室,,13,202,1900032,,,,,,,2023-08-23,1,,,,,ウィン,0
549,3020001153073,新規,0,2023-08-23,2023-08-23,ジャパンセールスマネジメント株式会社,,株式会社,神奈川県,横浜市港南区,下永谷３丁目４８番１１号,,14,111,2330016,,,,,,,2023-08-23,1,,,,,ジャパンセールスマネジメント,0
550,3020001153107,新規,0,2023-08-23,2023-08-23,ユルドゥズ株式会社,,株式会社,神奈川県,横浜市鶴見区,鶴見中央５丁目９番６－３０９号,,14,101,2300051,,,,,,,2023-08-23,1,,,,,ユルドゥズ,0
553,3020003024413,新規,0,2023-08-23,2023-08-23,合同会社ＣＲＵＺ　ＦＡＤＥ,,合同会社,神奈川県,川崎市川崎区,駅前本町１１番地２川崎フロンティアビル４階,,14,131,2100007,,,,,,,2023-08-23,1,,,,,クルスフェード,0
562,3030001155333,新規,0,2023-08-23,2023-08-23,株式会社いよな,,株式会社,埼玉県,北葛飾郡杉戸町,高野台南１丁目１番地１３,,11,464,3450046,,,,,,,2023-08-23,1,,,,,イヨナ,0
563,3030001155399,新規,0,2023-08-23,2023-08-23,株式会社Ｎｅｘｔ　Ｌｅａｐ　Ｐｌｕｓ,,株式会社,埼玉県,さいたま市大宮区,桜木町２丁目３番地,,11,103,3300854,,,,,,,2023-08-23,1,,,,,ネクストリーププラス,0
568,3030003022300,新規,0,2023-08-23,2023-08-23,合同会社Ｒａｄｅｅ,,合同会社,埼玉県,志木市,下宗岡２丁目１６番９号,,11,228,3530003,,,,,,,2023-08-23,1,,,,,ラディー,0
569,3030003022333,新規,0,2023-08-23,2023-08-23,Ｙ．Ｉ合同会社,,合同会社,埼玉県,さいたま市西区,大字佐知川１２９５番地１,,11,101,3310064,,,,,,,2023-08-23,1,,,,,ワイドットアイ,0
573,3040001129773,新規,0,2023-08-23,2023-08-23,株式会社ＧＢＬ,,株式会社,千葉県,千葉市緑区,おゆみ野４丁目１番地１２コーポラス・エス１０１号,,12,105,2660031,,,,,,,2023-08-23,1,,,,,ジービーエル,0
576,3050001053295,新規,0,2023-08-23,2023-08-23,ＴＬｉｆｅ　Ｊａｐａｎ株式会社,,株式会社,茨城県,水戸市,平須町１９３４番地の１,,08,201,3100853,,,,,,,2023-08-23,1,,,,,ティライフジャパン,0
599,3120001257351,新規,0,2023-08-23,2023-08-23,株式会社アイズ,,株式会社,大阪府,大阪市北区,梅田１丁目２番２号大阪駅前第２ビル１２－１２,,27,127,5300001,,,,,,,2023-08-23,1,,,,,アイズ,0
600,3120001257459,新規,0,2023-08-23,2023-08-23,亞洲心人力資源株式会社,,株式会社,大阪府,大阪市西成区,山王１丁目１１番４号２Ｆ,,27,122,5570001,,,,,,,2023-08-23,1,,,,,アシュウシンジンリキシゲン,0
601,3120001257525,新規,0,2023-08-23,2023-08-23,株式会社ＰＬＵＳ　ＦＵＮ　ＡＣＡＤＥＭＹ,,株式会社,大阪府,大阪市中央区,島之内１丁目３番２０－４０４号,,27,128,5420082,,,,,,,2023-08-23,1,,,,,プラスファンアカデミー,0
602,3120001257541,新規,0,2023-08-23,2023-08-23,株式会社アクセストータルグループ,,株式会社,大阪府,大阪市大正区,泉尾４丁目３番２３号,,27,108,5510031,,,,,,,2023-08-23,1,,,,,アクセストータルグループ,0
604,3120003024758,新規,0,2023-08-23,2023-08-23,合同会社Ｍｏｎｏ‐ｈｙｐｈｅＮ,,合同会社,大阪府,守口市,大日町３丁目１０－８,,27,209,5700003,,,,,,,2023-08-23,1,,,,,モノハイフン,0
606,3120005023840,新規,0,2023-08-23,2023-08-23,一般社団法人アジア経済文化交流促進協会,,その他の設立登記法人,大阪府,大阪市阿倍野区,文の里１丁目８―１７ワイエスビル３Ｆ,,27,119,5450004,,,,,,,2023-08-23,1,,,,,アジアケイザイブンカコウリュウソクシンキョウカイ,0
608,3120903004792,新規,0,2023-08-23,2023-08-23,合同会社Ｔａｇａｍｉ,,合同会社,大阪府,豊中市,庄内東町２丁目６－３,,27,203,5610831,,,,,,,2023-08-23,1,,,,,タガミ,0
610,3122001037295,新規,0,2023-08-23,2023-08-23,株式会社Ｓｉｘｔｙ　Ｔｈｒｅｅ,,株式会社,大阪府,東大阪市,長堂１丁目２６番２１号,,27,227,5770056,,,,,,,2023-08-23,1,,,,,シックスティースリー,0
629,3140001131348,新規,0,2023-08-23,2023-08-23,株式会社ノムラ電気,,株式会社,兵庫県,宝塚市,光明町６番９号,,28,214,6650045,,,,,,,2023-08-23,1,,,,,ノムラデンキ,0
631,3140003019450,新規,0,2023-08-23,2023-08-23,クラフトジャパン合同会社,,合同会社,兵庫県,神戸市灘区,永手町５丁目７番８号第３六甲センタービル２階,,28,102,6570027,,,,,,,2023-08-23,1,,,,,クラフトジャパン,0
632,3140003019467,新規,0,2023-08-23,2023-08-23,合同会社ＸＪカンパニー,,合同会社,兵庫県,宝塚市,中筋山手７丁目１番２－１０３号,,28,214,6650875,,,,,,,2023-08-23,1,,,,,エックスジェーカンパニー,0
633,3150001026670,新規,0,2023-08-23,2023-08-23,株式会社ｃａｌｍｅ　ｃｌｏｓｅｔ,,株式会社,奈良県,奈良市,三条町４７５番地,,29,201,6308244,,,,,,,2023-08-23,1,,,,,カルムクローゼット,0
638,3180001157703,新規,0,2023-08-23,2023-08-23,株式会社火の鳥,,株式会社,愛知県,一宮市,森本１丁目２番１６号,,23,203,4910831,,,,,,,2023-08-23,1,,,,,ヒノトリ,0
639,3180001157728,新規,0,2023-08-23,2023-08-23,株式会社ＨＩＭＡＲＩ,,株式会社,愛知県,名古屋市天白区,植田３丁目１２０６番地,,23,116,4680051,,,,,,,2023-08-23,1,,,,,ヒマリ,0
640,3180001157736,新規,0,2023-08-23,2023-08-23,株式会社ＷＩＳＨ,,株式会社,愛知県,名古屋市千種区,西山元町２丁目３５番地,,23,101,4640063,,,,,,,2023-08-23,1,,,,,ウィッシュ,0
672,3240005015628,新規,0,2023-08-23,2023-08-23,土地家屋調査士法人山本合同事務所,,その他の設立登記法人,広島県,東広島市,西条西本町２１番３５号プライム西本町２Ｆ－７,,34,212,7390043,,,,,,,2023-08-23,1,,,,,ヤマモトゴウドウジムショ,0
674,3250005008853,新規,0,2023-08-23,2023-08-23,一般社団法人むれらぼ,,その他の設立登記法人,山口県,防府市,大字牟礼８２０番地１,,35,206,7470004,,,,,,,2023-08-23,1,,,,,ムレラボ,0
679,3260001038250,新規,0,2023-08-23,2023-08-23,第一警備保障株式会社,,株式会社,岡山県,岡山市北区,今３丁目１番３５号,,33,101,7000975,,,,,,,2023-08-23,1,,,,,ダイイチケイビホショウ,0
685,3290001102755,新規,0,2023-08-23,2023-08-23,昂態生命力株式会社,,株式会社,福岡県,福岡市西区,愛宕２丁目１０番４－２０１号パンルネックス・ディア室見,,40,135,8190015,,,,,,,2023-08-23,1,,,,,コウタイセイメイリョク,0
690,3320001019962,新規,0,2023-08-23,2023-08-23,株式会社オリヴィオ,,株式会社,大分県,大分市,今津留１丁目８番１５号第５三幸興産ビル,,44,201,8700938,,,,,,,2023-08-23,1,,,,,オリヴィオ,0
691,3330001031173,新規,0,2023-08-23,2023-08-23,株式会社ベータワン,,株式会社,熊本県,熊本市北区,武蔵ケ丘６丁目７番１３号本田ハイツＢ２０５,,43,105,8618001,,,,,,,2023-08-23,1,,,,,ベータワン,0
698,3370005010673,新規,0,2023-08-23,2023-08-23,一般社団法人Ｓｍｉｌｅ　Ｆａｃｔｏｒｙ,,その他の設立登記法人,宮城県,亘理郡亘理町,逢隈鹿島字弥陀内４６番地１９ファミールＫ２０２,,04,361,9892371,,,,,,,2023-08-23,1,,,,,スマイルファクトリー,0
703,3430001089805,新規,0,2023-08-23,2023-08-23,株式会社アクアウェルフェア,,株式会社,北海道,札幌市西区,八軒十条東４丁目２番１８号アクア八軒東ビル,,01,107,0630870,,,,,,,2023-08-23,1,,,,,アクアウェルフェア,0
704,3430001089821,新規,0,2023-08-23,2023-08-23,株式会社べあ,,株式会社,北海道,札幌市厚別区,大谷地西６丁目４番１１－２号,,01,108,0040042,,,,,,,2023-08-23,1,,,,,ベア,0
705,3430003015370,新規,0,2023-08-23,2023-08-23,合同会社アルテミスサポートサービス,,合同会社,北海道,札幌市中央区,南五条西１丁目１番１２号,,01,101,0640805,,,,,,,2023-08-23,1,,,,,アルテミスサポートサービス,0
708,3470001019774,新規,0,2023-08-23,2023-08-23,株式会社ほぬ,,株式会社,香川県,高松市,飯田町９９－９パストラル飯田２号地,,37,201,7618033,,,,,,,2023-08-23,1,,,,,ホヌ,0
710,3500003003087,新規,0,2023-08-23,2023-08-23,合同会社ｍｉｃＴ庄内,,合同会社,愛媛県,新居浜市,庄内町２丁目８番２１号,,38,205,7920811,,,,,,,2023-08-23,1,,,,,ミックティーショウナイ,0
713,3700150119194,新規,0,2023-08-23,2023-08-23,Ｓｈａｎｇｈａｉ　Ｊｉｕｃｈｅｎｇｊｉｕ　Ｔｒａｄｉｎｇ　Ｃｏ．，Ｌｔｄ,,外国会社等,,,,,,,,Ｒｏｏｍ　Ｃ１２２，４ｔｈ　Ｆｌｏｏｒ，Ｎｏ．１５００，Ｔｉｎｇｗｅｉ　Ｒｏａｄ，Ｊｉｎｓｈａｎ　Ｄｉｓｔｒｉｃｔ，Ｓｈａｎｙａｎｇ　Ｔｏｗｎ　Ｓｈａｎｇｈａｉ,,,,,,2023-08-23,1,,,,,シャンハイジュチェンジュトレーディングカンパニーリミテッド,0
714,3700150119228,新規,0,2023-08-23,2023-08-23,Ｇｕａｎｇｚｈｏｕ　ｄｅｆｅｉｋｅｘｕｅｙｉｑｉ　ｙｏｕｘｉａｎｇｏｎｇｓｉ,,外国会社等,,,,,,,,ＪｉｎｓｈａｎｃｕｎＨｕａｃｈｕａｎｇＤｏｎｇｍａｎＣｈａｎｙｅｙｕａｎＥｒｑｉ２０Ｈａｏ４ＬｏｕＺｉｂｉａｎｈａｏ４－００７，ＳｈｉｑｉＺｈｅｎ，Ｐａｎｙｕｑｕ，Ｇｕａｎｇｚｈｏｕｓｈｉ,,,,,,2023-08-23,1,,,,,グゥアンゾォウデフェイケシゥエイチユウゲンコウシ,0
719,4010001237355,新規,0,2023-08-23,2023-08-23,株式会社Ｈ＆Ｂ,,株式会社,東京都,千代田区,富士見２丁目１０番３－３３０７号,,13,101,1020071,,,,,,,2023-08-23,1,,,,,エイチアンドビー,0
720,4010003041441,新規,0,2023-08-23,2023-08-23,ｉプロパティ１４合同会社,,合同会社,東京都,千代田区,永田町２丁目１４番２号－３階スリーアイズキャピタル株式会社内,,13,101,1000014,,,,,,,2023-08-23,1,,,,,アイプロパティフォーティーン,0
721,4010003041466,新規,0,2023-08-23,2023-08-23,モエコネクト合同会社,,合同会社,東京都,千代田区,神田和泉町１番地６－１６ヤマトビル４０５,,13,101,1010024,,,,,,,2023-08-23,1,,,,,モエコネクト,0
722,4010003041490,新規,0,2023-08-23,2023-08-23,合同会社余裕堂,,合同会社,東京都,中央区,湊３丁目１３番８号２０３号室,,13,102,1040043,,,,,,,2023-08-23,1,,,,,ヨユウドウ,0
723,4010005037157,新規,0,2023-08-23,2023-08-23,ＧＬＰ厚木酒井ロジスティック特定目的会社,,その他の設立登記法人,東京都,中央区,八重洲２丁目２番１号,,13,102,1040028,,,,,,,2023-08-23,1,,,,,ジーエルピーアツギサカイロジスティック,0
726,4010401176657,新規,0,2023-08-23,2023-08-23,ブリステック株式会社,,株式会社,東京都,港区,南青山３丁目１番３６号青山丸竹ビル６Ｆ,,13,103,1070062,,,,,,,2023-08-23,1,,,,,ブリステック,0
727,4010401176731,新規,0,2023-08-23,2023-08-23,株式会社ＫＰ,,株式会社,東京都,港区,北青山３丁目５番１０号,,13,103,1070061,,,,,,,2023-08-23,1,,,,,ケーピー,0
730,4010403030705,新規,0,2023-08-23,2023-08-23,ハッピースマイル合同会社,,合同会社,東京都,港区,芝２丁目２２番９号コンシェリア芝公園マスターズヴィラ７０１,,13,103,1050014,,,,,,,2023-08-23,1,,,,,ハッピースマイル,0
733,4010405022411,新規,0,2023-08-23,2023-08-23,一般社団法人榮誠会,,その他の設立登記法人,東京都,港区,三田２丁目４番３号ＴＨＥＣＯＮＯＥ三田綱町２０１,,13,103,1080073,,,,,,,2023-08-23,1,,,,,エイセイカイ,0
741,4010703006826,新規,0,2023-08-23,2023-08-23,合同会社ビムライン,,合同会社,東京都,品川区,東品川３丁目７－３－６０４,,13,109,1400002,,,,,,,2023-08-23,1,,,,,ビムライン,0
747,4010901053678,新規,0,2023-08-23,2023-08-23,株式会社紀尾井町不動産鑑定,,株式会社,東京都,世田谷区,砧２丁目１９番１４号ファミール砧３０２号室,,13,112,1570073,,,,,,,2023-08-23,1,,,,,キオイチョウフドウサンカンテイ,0
748,4010901053686,新規,0,2023-08-23,2023-08-23,株式会社ｔｈｅＰＩＸＥＬ,,株式会社,東京都,世田谷区,桜丘１丁目４番８号,,13,112,1560054,,,,,,,2023-08-23,1,,,,,ザピクセル,0
754,4011001156529,新規,0,2023-08-23,2023-08-23,株式会社ミメーシス,,株式会社,東京都,渋谷区,渋谷２丁目１９番１５－６０９号宮益坂ビルディング,,13,113,1500002,,,,,,,2023-08-23,1,,,,,ミメーシス,0
755,4011003017415,新規,0,2023-08-23,2023-08-23,合同会社ＡｃｔｉｏｎＭｉｎｄ,,合同会社,東京都,渋谷区,神宮前６丁目２３番４号桑野ビル２階,,13,113,1500001,,,,,,,2023-08-23,1,,,,,アクションマインド,0
767,4011703003573,新規,0,2023-08-23,2023-08-23,Ｍｉｄｓｕｍｍｅｒ合同会社,,合同会社,東京都,江戸川区,西小岩３丁目７番７号,,13,123,1330057,,,,,,,2023-08-23,1,,,,,ミッドサマー,0
777,4012803003166,新規,0,2023-08-23,2023-08-23,合同会社星光,,合同会社,東京都,立川市,上砂町５丁目７１－１１レインボー上砂１０１号室,,13,202,1900032,,,,,,,2023-08-23,1,,,,,セイコウ,0
786,4020003024412,新規,0,2023-08-23,2023-08-23,合同会社ＯＮＥ　ＳＴＥＰ,,合同会社,神奈川県,横浜市青葉区,鴨志田町１９５番地２,,14,117,2270033,,,,,,,2023-08-23,1,,,,,ワンステップ,0
790,4021003013487,新規,0,2023-08-23,2023-08-23,Ｍａｋｅ　ｔｈｅ　Ｆｕｔｕｒｅ合同会社,,合同会社,神奈川県,平塚市,紅谷町１５番地６号３０１号室,,14,203,2540043,,,,,,,2023-08-23,1,,,,,メイクザフューチャー,0
791,4021003013495,新規,0,2023-08-23,2023-08-23,合同会社ひらめキ,,合同会社,神奈川県,鎌倉市,御成町１３番４０号－ヒラソル鎌倉１階Ａ,,14,204,2480012,,,,,,,2023-08-23,1,,,,,ヒラメキ,0
797,4030001155282,新規,0,2023-08-23,2023-08-23,株式会社ＰＡＲＡＤＯＲ,,株式会社,埼玉県,さいたま市大宮区,桜木町２丁目３番地大宮マルイ７階,,11,103,3300854,,,,,,,2023-08-23,1,,,,,パラドール,0
798,4030001155299,新規,0,2023-08-23,2023-08-23,株式会社一島建設,,株式会社,埼玉県,富士見市,大字下南畑５番地１３,,11,235,3540004,,,,,,,2023-08-23,1,,,,,イチシマケンセツ,0
799,4030001155365,新規,0,2023-08-23,2023-08-23,ＢＥＳＴ株式会社,,株式会社,埼玉県,蕨市,錦町６丁目２－１９,,11,223,3350005,,,,,,,2023-08-23,1,,,,,ベスト,0
800,4030001155407,新規,0,2023-08-23,2023-08-23,株式会社ＭＡＲＵ,,株式会社,埼玉県,比企郡小川町,大字小川７２８番地２０,,11,343,3550321,,,,,,,2023-08-23,1,,,,,マル,0
802,4030003022340,新規,0,2023-08-23,2023-08-23,合同会社小林管理,,合同会社,埼玉県,さいたま市中央区,八王子４丁目８番１３号,,11,105,3380006,,,,,,,2023-08-23,1,,,,,コバヤシカンリ,0
812,4040001129764,新規,0,2023-08-23,2023-08-23,株式会社穏,,株式会社,千葉県,流山市,おおたかの森北１丁目２番地の３クオン流山おおたかの森１３１１,,12,220,2700119,,,,,,,2023-08-23,1,,,,,オン,0
813,4040001129772,新規,0,2023-08-23,2023-08-23,株式会社ｗｅｌｌｓｔｏｎｅ,,株式会社,千葉県,館山市,北条１７１３番地５,,12,205,2940045,,,,,,,2023-08-23,1,,,,,ウェルストーン,0
814,4040001129797,新規,0,2023-08-23,2023-08-23,株式会社Ｓ．Ｔ．Ｇ,,株式会社,千葉県,野田市,木野崎１６５０番地１９,,12,208,2780002,,,,,,,2023-08-23,1,,,,,エスティージー,0
832,4100001036681,新規,0,2023-08-23,2023-08-23,株式会社将建,,株式会社,長野県,下伊那郡下條村,睦沢６９６５番地７７,,20,411,3992101,,,,,,,2023-08-23,1,,,,,ショウケン,0
843,4120001257417,新規,0,2023-08-23,2023-08-23,株式会社クローバー,,株式会社,大阪府,大阪市城東区,関目４丁目１４番９－６３５号,,27,118,5360008,,,,,,,2023-08-23,1,,,,,クローバー,0
844,4120001257524,新規,0,2023-08-23,2023-08-23,新日全株式会社,,株式会社,大阪府,大阪市天王寺区,大道２丁目３番１９号,,27,109,5430052,,,,,,,2023-08-23,1,,,,,シンニチゼン,0
845,4120001257540,新規,0,2023-08-23,2023-08-23,株式会社Ｔｕｌｉｐｅ,,株式会社,大阪府,大阪市北区,曾根崎１丁目４番６号,,27,127,5300057,,,,,,,2023-08-23,1,,,,,チュリップ,0
849,4120003024740,新規,0,2023-08-23,2023-08-23,マナコンサルティング合同会社,,合同会社,大阪府,大阪市北区,梅田１丁目２番２号大阪駅前第２ビル１２－１２,,27,127,5300001,,,,,,,2023-08-23,1,,,,,マナコンサルティング,0
850,4120003024773,新規,0,2023-08-23,2023-08-23,ウエストジャパンベンチャーズ合同会社,,合同会社,大阪府,大阪市北区,長柄東２丁目１－２１－９０９,,27,127,5310063,,,,,,,2023-08-23,1,,,,,ウエストジャパンベンチャーズ,0
854,4120901047966,新規,0,2023-08-23,2023-08-23,ＳＷＡＮ株式会社,,株式会社,大阪府,茨木市,北春日丘３丁目５番９号,,27,211,5670048,,,,,,,2023-08-23,1,,,,,スワン,0
857,4122001037286,新規,0,2023-08-23,2023-08-23,株式会社ホワイトパール,,株式会社,大阪府,東大阪市,長田東３丁目３番４５号,,27,227,5770012,,,,,,,2023-08-23,1,,,,,ホワイトパール,0
858,4122001037303,新規,0,2023-08-23,2023-08-23,株式会社林部旅行プランニングサービス,,株式会社,大阪府,柏原市,旭ケ丘３丁目１番８１号,,27,221,5820026,,,,,,,2023-08-23,1,,,,,ハヤシベリョコウプランニングサービス,0
863,4130001075009,新規,0,2023-08-23,2023-08-23,株式会社レガーロ,,株式会社,京都府,京都市北区,小山上総町１０番地８,,26,101,6038143,,,,,,,2023-08-23,1,,,,,レガーロ,0
865,4130003008924,新規,0,2023-08-23,2023-08-23,ＫＰ合同会社,,合同会社,京都府,京都市南区,東九条西明田町５７番地,,26,107,6018045,,,,,,,2023-08-23,1,,,,,ケーピー,0
866,4130003008932,新規,0,2023-08-23,2023-08-23,合同会社ＣｈｏｍＣｈｏｍ,,合同会社,京都府,京都市下京区,朱雀宝蔵町４４番地,,26,106,6008846,,,,,,,2023-08-23,1,,,,,チョムチョム,0
873,4140001131322,新規,0,2023-08-23,2023-08-23,株式会社アルファ,,株式会社,兵庫県,明石市,中崎２丁目４番１－５２１号,,28,203,6730883,,,,,,,2023-08-23,1,,,,,アルファ,0
874,4140001131339,新規,0,2023-08-23,2023-08-23,株式会社黒電,,株式会社,兵庫県,加東市,高岡１７３番地,,28,228,6790222,,,,,,,2023-08-23,1,,,,,クロデン,0
880,4160003002965,新規,0,2023-08-23,2023-08-23,合同会社ＤＫＫ,,合同会社,滋賀県,大津市,苗鹿３丁目６番３号オリーブ３Ｆ,,25,201,5200102,,,,,,,2023-08-23,1,,,,,ディーケーケー,0
883,4180001157702,新規,0,2023-08-23,2023-08-23,オールフォーワン株式会社,,株式会社,愛知県,名古屋市守山区,下志段味２丁目５０５番地,,23,113,4630003,,,,,,,2023-08-23,1,,,,,オールフォーワン,0
884,4180001157719,新規,0,2023-08-23,2023-08-23,株式会社ＲＮパートナーズ,,株式会社,愛知県,名古屋市中区,大須４丁目２番５８号大和ビル６Ｆ,,23,106,4600011,,,,,,,2023-08-23,1,,,,,アールエヌパートナーズ,0
885,4180001157727,新規,0,2023-08-23,2023-08-23,ＬＦグループ株式会社,,株式会社,愛知県,名古屋市天白区,平針台１丁目７０３番地,,23,116,4680030,,,,,,,2023-08-23,1,,,,,エルエフグループ,0
887,4180003025650,新規,0,2023-08-23,2023-08-23,合同会社ＬｏＬ,,合同会社,愛知県,愛知郡東郷町,北山台１丁目１０番地２０,,23,302,4700152,,,,,,,2023-08-23,1,,,,,ロル,0
892,4220001025573,新規,0,2023-08-23,2023-08-23,株式会社ＹＣホーム,,株式会社,石川県,白山市,日向町ニ３４番地３,,17,210,9202146,,,,,,,2023-08-23,1,,,,,ワイシーホーム,0
904,4240005015635,新規,0,2023-08-23,2023-08-23,一般社団法人虹いろ,,その他の設立登記法人,広島県,呉市,中通２丁目７番３号５０４号室,,34,202,7370046,,,,,,,2023-08-23,1,,,,,,0
907,4270002002336,新規,0,2023-08-23,2023-08-23,有限会社リョウユウ企画,,有限会社,鳥取県,鳥取市,栄町７２５番地,,31,201,6800831,,,,,,,2023-08-23,1,,,,,リョウユウキカク,0
912,4290001102762,新規,0,2023-08-23,2023-08-23,株式会社Ｊ＆Ｂ　ＣＯＮＮＥＣＴ,,株式会社,福岡県,福岡市中央区,春吉３丁目２４番１号,,40,133,8100003,,,,,,,2023-08-23,1,,,,,ジェーアンドビーコネクト,0
913,4290005019136,新規,0,2023-08-23,2023-08-23,一般社団法人猷仁会,,その他の設立登記法人,福岡県,福岡市早良区,南庄１丁目２１番１６号,,40,137,8140031,,,,,,,2023-08-23,1,,,,,ユウジンカイ,0
919,4330001031180,新規,0,2023-08-23,2023-08-23,山下商事株式会社,,株式会社,熊本県,宇土市,走潟町１３５４番地１,,43,211,8690404,,,,,,,2023-08-23,1,,,,,ヤマシタショウジ,0
920,4330001031189,新規,0,2023-08-23,2023-08-23,株式会社ＧＡＮ,,株式会社,熊本県,阿蘇郡南阿蘇村,大字河陰３９６３番地６,,43,433,8691411,,,,,,,2023-08-23,1,,,,,ガン,0
925,4360001032449,新規,0,2023-08-23,2023-08-23,ＭＹ　ＩＮＶＥＳＴＭＥＮＴ株式会社,,株式会社,沖縄県,中頭郡北谷町,字浜川１６０番地ブルーサファイア１０１号室,,47,326,9040112,,,,,,,2023-08-23,1,,,,,エムワイインベストメント,0
929,4370001050326,新規,0,2023-08-23,2023-08-23,株式会社果然,,株式会社,宮城県,仙台市青葉区,愛子中央２丁目１３番２号,,04,101,9893128,,,,,,,2023-08-23,1,,,,,カゼン,0
933,4380001033924,新規,0,2023-08-23,2023-08-23,株式会社さんゆう,,株式会社,福島県,郡山市,西田町鬼生田字前田２３６番地の１,,07,203,9630921,,,,,,,2023-08-23,1,,,,,サンユウ,0
934,4380001033940,新規,0,2023-08-23,2023-08-23,株式会社白河曽根農公園,,株式会社,福島県,白河市,白坂字愛宕山１４７番地１６１,,07,205,9610835,,,,,,,2023-08-23,1,,,,,シラカワソネノウコウエン,0
936,4390001017356,新規,0,2023-08-23,2023-08-23,株式会社伝統野菜とその仲間たち,,株式会社,山形県,山形市,城北町１丁目２３番１６号,,06,201,9900825,,,,,,,2023-08-23,1,,,,,デントウヤサイトソノナカマタチ,0
959,4480001012190,新規,0,2023-08-23,2023-08-23,株式会社ＫＥＩＹＡ,,株式会社,徳島県,美馬市,美馬町字喜来市７１番地１,,36,207,7712106,,,,,,,2023-08-23,1,,,,,ケイヤ,0
963,4500001025149,新規,0,2023-08-23,2023-08-23,ＳＫＨ株式会社,,株式会社,愛媛県,四国中央市,具定町４５４番地の１,,38,213,7990423,,,,,,,2023-08-23,1,,,,,エスケイエイチ,0
964,4700150119193,新規,0,2023-08-23,2023-08-23,Ｓｈｅｎｚｈｅｎ　Ｒｕｉｃｈａｎｇ　Ｘｉｎｐｅｎｇ　Ｔｅｃｈｎｏｌｏｇｙ　Ｃｏ．，Ｌｔｄ,,外国会社等,,,,,,,,７０１，Ｂｕｉｌｄｉｎｇ　３，Ｈｅ　Ｇｕ　Ｓｈａｎ　Ｈｕｉ　Ｃｈｅｎｇ，Ｎｏ．３５，Ｇｕａｎｇｔｉａｎ　Ｒｏａｄ，Ｓｏｎｇｇａｎｇ　Ｙａｎｌｕｏ　Ｓｔｒｅｅｔ，Ｂａｏ’ａｎ　Ｄｉｓｔｒｉｃｔ，Ｓｈｅｎｚｈｅｎ,,,,,,2023-08-23,1,,,,,シェンジェンシールイチャンシンポンコージーヨウシエンゴンスー,0
965,4700150119202,新規,0,2023-08-23,2023-08-23,ｎｉｎｇｂｏ　ｙａｎｏｕｊｉｎｃｈｕｋｏｕ　ｙｏｕｘｉａｎｇｏｎｇｓｉ,,外国会社等,,,,,,,,ｃｉｘｉｓｈｉｚｈｏｕｘｉａｎｇｚｈｅｎｈｕａｎｃｈｅｎｇｂｅｉｌｕ１１８５ｈａｏ　ｎｉｎｇｂｏ　ｚｈｅｊｉａｎｇ,,,,,,2023-08-23,1,,,,,ニンボイェンオウジンツコオユウゲンコウシ,0
966,4700150119227,新規,0,2023-08-23,2023-08-23,ｓｈｅｎｚｈｅｎ　ｊｕｄｉｎｇｚｉｄｏｎｇｈｕａｋｅｊｉ　ｙｏｕｘｉａｎｇｏｎｇｓｉ,,外国会社等,,,,,,,,ｚｈｏｎｇ　ｘｉｎｇ　ｌｕ　ｙｕ　ｌｉａｎ　ｇｕａｎｇ　ｌｕ　ｊｉａｏ　ｈｕｉ　ｃｈｕ　ｃｈｅｎｇ　ｓｈｉ　ｓｈａｎ　ｈａｉ　ｚｈｏｎｇ　ｘｉｎ　Ｃ　ｄｏｎｇ　ｓａｎ　ｌｏｕ　ｌｏｎｇ　ｇａｎｇ　ｑｕ　ｂａｎ　ｔｉａｎ　ｊｉｅ　ｄａｏ　ｓｈｅｎ　ｚｈｅｎ　ｓｈｉ,,,,,,2023-08-23,1,,,,,シンセンジュディンジドンホウァカギユウゲンコウシ,0
976,5010001237866,新規,0,2023-08-23,2023-08-23,恩紀資産管理株式会社,,株式会社,東京都,千代田区,永田町２丁目９番６号,,13,101,1000014,,,,,,,2023-08-23,1,,,,,オンキシサンカンリ,0
978,5010003041449,新規,0,2023-08-23,2023-08-23,ソーラーアカシア合同会社,,合同会社,東京都,中央区,八丁堀４丁目２番１０号ＡＯＪ税理士法人内,,13,102,1040032,,,,,,,2023-08-23,1,,,,,ソーラーアカシア,0
979,5010003041473,新規,0,2023-08-23,2023-08-23,合同会社中山屋,,合同会社,東京都,中央区,日本橋２－１－３アーバンネット日本橋二丁目ビル１０階,,13,102,1030000,,,,,,,2023-08-23,1,,,,,ナカヤマヤ,0
981,5010005037156,新規,0,2023-08-23,2023-08-23,黒岩ホスピタリティ５特定目的会社,,その他の設立登記法人,東京都,千代田区,丸の内３丁目１番１号東京共同会計事務所内,,13,101,1000005,,,,,,,2023-08-23,1,,,,,クロイワホスピタリティファイブ,0
984,5010401176648,新規,0,2023-08-23,2023-08-23,Ｙ’ｓＥｐｉｃ株式会社,,株式会社,東京都,港区,東新橋２丁目１番６号,,13,103,1050021,,,,,,,2023-08-23,1,,,,,ワイズエピック,0
987,5010403030662,新規,0,2023-08-23,2023-08-23,合同会社Ｆａｎｉｃｈｅ　ａｎｄ　Ａｓｓｏｃｉａｔｅｓ,,合同会社,東京都,港区,北青山１丁目３番１号アールキューブ青山３階,,13,103,1070061,,,,,,,2023-08-23,1,,,,,ファニッチアンドアソシエイツ,0
988,5010405022369,新規,0,2023-08-23,2023-08-23,一般社団法人地方創生スペシャリスト協会,,その他の設立登記法人,東京都,港区,高輪４丁目２３番６－９０６号,,13,103,1080074,,,,,,,2023-08-23,1,,,,,チホウソウセイスペシャリストキョウカイ,0
989,5010405022435,新規,0,2023-08-23,2023-08-23,ソーラーガウスホールディングス一般社団法人,,その他の設立登記法人,東京都,港区,西新橋１丁目２番９号メンターキャピタル税理士法人内,,13,103,1050003,,,,,,,2023-08-23,1,,,,,ソーラーガウスホールディングス,0
993,5010703006833,新規,0,2023-08-23,2023-08-23,合同会社マンガ工場,,合同会社,東京都,品川区,北品川５丁目１４番５号Ａｌｂａ御殿山ＩＩ－１０２,00131625,13,109,1410001,,,,,,,2023-08-23,1,,,,,マンガコウジョウ,0
995,5010901053693,新規,0,2023-08-23,2023-08-23,株式会社ＨＹＰＥＲ　ＶＡＣＡＮＴ,,株式会社,東京都,世田谷区,松原３丁目３９番２９－８０５号,,13,112,1560043,,,,,,,2023-08-23,1,,,,,ハイパーベイカント,0
996,5010903008398,新規,0,2023-08-23,2023-08-23,合同会社ＦＡＣＥ　Ｉｎｃ．,,合同会社,東京都,世田谷区,梅丘３丁目１４番１５号,,13,112,1540022,,,,,,,2023-08-23,1,,,,,フェイスインク,0
997,5010903008407,新規,0,2023-08-23,2023-08-23,合同会社ＳＡ＆Ｅコンサルティング,,合同会社,東京都,世田谷区,玉堤２丁目１２番１７号,,13,112,1580087,,,,,,,2023-08-23,1,,,,,エスエーアンドイーコンサルティング,0
998,5011001013365,新規,0,2023-08-23,2023-08-23,泰明商事株式会社,,株式会社,東京都,渋谷区,渋谷４丁目２番２７号,,13,113,1500002,,,,,,,2023-08-23,1,,,,,,0
1007,5011101104089,新規,0,2023-08-23,2023-08-23,株式会社ＴＳＳ,,株式会社,東京都,新宿区,西新宿３丁目３番１３号西新宿水間ビル２Ｆ,,13,104,1600023,,,,,,,2023-08-23,1,,,,,ティーエスエス,0
1008,5011101104097,新規,0,2023-08-23,2023-08-23,ＭＩＲＡＩＨＥ株式会社,,株式会社,東京都,新宿区,歌舞伎町２丁目２５番８号－２１４,,13,104,1600021,,,,,,,2023-08-23,1,,,,,ミライヘ,0
1010,5011203004154,新規,0,2023-08-23,2023-08-23,合同会社荒井商事,,合同会社,東京都,中野区,中野５丁目５８－９ソシアルビル山田２０２,,13,114,1640001,,,,,,,2023-08-23,1,,,,,アライショウジ,0
1012,5011303004888,新規,0,2023-08-23,2023-08-23,合同会社敬愛設計,,合同会社,東京都,杉並区,梅里１丁目１９－１１シャンボール南高円寺９０３号室,,13,115,1660011,,,,,,,2023-08-23,1,,,,,ケイアイセッケイ,0
1014,5011501029679,新規,0,2023-08-23,2023-08-23,株式会社大元,,株式会社,東京都,荒川区,西尾久８丁目４４番３０－１１０６号,,13,118,1160011,,,,,,,2023-08-23,1,,,,,ダイゲン,0
1016,5011601027070,新規,0,2023-08-23,2023-08-23,株式会社ＡＣ　ＷＥＬＬ,,株式会社,東京都,練馬区,北町８丁目３４番１０－３０６号,,13,120,1790081,,,,,,,2023-08-23,1,,,,,エーシーウェル,0
1021,5011803005799,新規,0,2023-08-23,2023-08-23,合同会社Ｃｐｌａｎｎｉｎｇ,,合同会社,東京都,足立区,平野２丁目９番１５号,,13,121,1210076,,,,,,,2023-08-23,1,,,,,シープランニング,0
1023,5012401040908,新規,0,2023-08-23,2023-08-23,株式会社彩美,,株式会社,東京都,府中市,四谷４丁目４２番地の２１ルナ・エトワール府中３０３,,13,206,1830035,,,,,,,2023-08-23,1,,,,,サイビ,0
1025,5012703002779,新規,0,2023-08-23,2023-08-23,合同会社ＡＧＮＥＳＳ,,合同会社,東京都,小平市,学園東町１丁目１６番３４号,,13,211,1870043,,,,,,,2023-08-23,1,,,,,アグネス,0
1027,5012801022588,新規,0,2023-08-23,2023-08-23,株式会社シャイニングスター,,株式会社,東京都,立川市,錦町１丁目４番４号サニービル２階Ｃｓ－１７７,,13,202,1900022,,,,,,,2023-08-23,1,,,,,シャイニングスター,0
1031,5013301051251,新規,0,2023-08-23,2023-08-23,小川株式会社,,株式会社,東京都,豊島区,池袋本町４丁目２６番１号テラス池袋本町３階,,13,116,1700011,,,,,,,2023-08-23,1,,,,,オガワ,0
1039,5020001153096,新規,0,2023-08-23,2023-08-23,株式会社ＲｅＣｒｏｓｓ,,株式会社,神奈川県,横浜市中区,長者町３丁目８－１３ＴＫ関内プラザビル３０３Ｂ,,14,104,2310033,,,,,,,2023-08-23,1,,,,,リクロス,0
1042,5020003024411,新規,0,2023-08-23,2023-08-23,合同会社ＮＩＮＥ　Ｂｌｏｃｋｓ,,合同会社,神奈川県,川崎市川崎区,駅前本町１１番地２川崎フロンティアビル４階,,14,131,2100007,,,,,,,2023-08-23,1,,,,,ナインブロックス,0
1048,5030001155389,新規,0,2023-08-23,2023-08-23,株式会社ケイシステム,,株式会社,埼玉県,川越市,大字藤間１１２８番地９３,,11,201,3501142,,,,,,,2023-08-23,1,,,,,ケイシステム,0
1050,5030003022447,新規,0,2023-08-23,2023-08-23,Ｏｌｉｖｅ　Ｇｏａｔ合同会社,,合同会社,埼玉県,さいたま市大宮区,堀の内町２丁目２６４番地８,,11,103,3300804,,,,,,,2023-08-23,1,,,,,オリーブゴート,0
1054,5040001129739,新規,0,2023-08-23,2023-08-23,株式会社ｆｉｎｅｓｓｅ,,株式会社,千葉県,市川市,市川１丁目１０－１５Ｂｌｏｏｍｓｔａｇｅ市川１階,,12,203,2720034,,,,,,,2023-08-23,1,,,,,フィネス,0
1061,5050003007735,新規,0,2023-08-23,2023-08-23,ｍａｋｏ’ｓキッチン合同会社,,合同会社,茨城県,水戸市,住吉町２４２－３,,08,201,3100844,,,,,,,2023-08-23,1,,,,,マコズキッチン,0
1066,5060001036280,新規,0,2023-08-23,2023-08-23,株式会社宮測建,,株式会社,栃木県,宇都宮市,新里町丁１６４６番地５,,09,201,3212118,,,,,,,2023-08-23,1,,,,,ミヤソッケン,0
1076,5110001037793,新規,0,2023-08-23,2023-08-23,株式会社ＮＳＰ,,株式会社,新潟県,新潟市南区,保坂１１１番地１,,15,106,9501233,,,,,,,2023-08-23,1,,,,,エヌエスピー,0
1081,5120001257523,新規,0,2023-08-23,2023-08-23,株式会社ａｐｐａｒａｒｅ　ＭＤ,,株式会社,大阪府,大阪市北区,天満橋１丁目３番８号ＡＸＩＳＬＩＦＥＨＩＧＡＳＩＴＥＮＭＡ３０１号,,27,127,5300042,,,,,,,2023-08-23,1,,,,,アッパラーレエムディ,0
1082,5120001257531,新規,0,2023-08-23,2023-08-23,ＫｉｎｇＣｏｒｅ株式会社,,株式会社,大阪府,大阪市中央区,淡路町１丁目４番１５号ＲＩＣＯＴＴＯ,,27,128,5410047,,,,,,,2023-08-23,1,,,,,キングコア,0
1083,5120003024748,新規,0,2023-08-23,2023-08-23,Ａｌｅｘａ　Ｃｏｒｐｏｒａｔｉｏｎ合同会社,,合同会社,大阪府,大阪市生野区,桃谷１丁目１０－３１,,27,116,5440034,,,,,,,2023-08-23,1,,,,,アレクサコーポレーション,0
1084,5120003024756,新規,0,2023-08-23,2023-08-23,合同会社きずなグループ縁,,合同会社,大阪府,大阪市東淀川区,南江口３丁目３番２７号クリエオーレ南江口２０２号,,27,114,5330003,,,,,,,2023-08-23,1,,,,,キズナグループエン,0
1085,5120005023839,新規,0,2023-08-23,2023-08-23,一般財団法人桃陰奨学財団,,その他の設立登記法人,大阪府,大阪市阿倍野区,三明町２丁目４番２３号,,27,119,5450005,,,,,,,2023-08-23,1,,,,,トウインショウガクザイダン,0
1098,5130001075024,新規,0,2023-08-23,2023-08-23,株式会社ＫＲＹ,,株式会社,京都府,京都市右京区,嵯峨朝日町１１番地ルミエール嵐山４１４,,26,108,6168343,,,,,,,2023-08-23,1,,,,,ケーアールワイ,0
1104,5140001131338,新規,0,2023-08-23,2023-08-23,フェリス株式会社,,株式会社,兵庫県,三木市,吉川町水上１３９８番地の１,,28,215,6731244,,,,,,,2023-08-23,1,,,,,フェリス,0
1105,5140001131354,新規,0,2023-08-23,2023-08-23,株式会社Ｎ　Ｃｏ．,,株式会社,兵庫県,芦屋市,業平町６番３３－２０２号,,28,206,6590068,,,,,,,2023-08-23,1,,,,,エヌカンパニー,0
1113,5140003019465,新規,0,2023-08-23,2023-08-23,合同会社マクロビオール,,合同会社,兵庫県,加古川市,加古川町篠原町１３番地３加古川まるいビル１Ｆ,,28,210,6750065,,,,,,,2023-08-23,1,,,,,マクロビオール,0
1114,5150001026669,新規,0,2023-08-23,2023-08-23,株式会社ＥＳ工業,,株式会社,奈良県,奈良市,都祁友田町１８４５番地,00131638,29,201,6320246,,,,,,,2023-08-23,1,,,,,イーエスコウギョウ,0
1121,5180001157734,新規,0,2023-08-23,2023-08-23,ＫＡＹＡ　ＪＬＣ株式会社,,株式会社,愛知県,名古屋市西区,名駅２丁目１４番１１号オープンレジデンシア名古屋駅ＴＨＥ　ＣＯＵＲＴ２０１号,,23,104,4510045,,,,,,,2023-08-23,1,,,,,カヤジャルシー,0
1122,5180001157742,新規,0,2023-08-23,2023-08-23,谷山パートナーズ株式会社,,株式会社,愛知県,名古屋市中村区,則武２丁目１４番１１号名駅富士ビルＣ－５１,,23,105,4530014,,,,,,,2023-08-23,1,,,,,タニヤマパートナーズ,0
1131,5190001030675,新規,0,2023-08-23,2023-08-23,株式会社パーソナック分割準備会社,,株式会社,三重県,津市,あのつ台１丁目６番地８,,24,201,5140131,,,,,,,2023-08-23,1,,,,,パーソナックブンカツジュンビカイシャ,0
1132,5190001030683,新規,0,2023-08-23,2023-08-23,株式会社奥工業,,株式会社,三重県,津市,豊が丘４丁目１３番１１号,,24,201,5142222,,,,,,,2023-08-23,1,,,,,オクコウギョウ,0
1135,5210003001688,新規,0,2023-08-23,2023-08-23,さんく合同会社,,合同会社,福井県,越前市,向陽町１８５番地の３,,18,209,9150874,,,,,,,2023-08-23,1,,,,,サンク,0
1137,5240001062028,新規,0,2023-08-23,2023-08-23,ミラボ株式会社,,株式会社,広島県,東広島市,八本松飯田８丁目４番８０－２１号,,34,212,7390146,,,,,,,2023-08-23,1,,,,,ミラボ,0
1144,5290001102753,新規,0,2023-08-23,2023-08-23,株式会社和,,株式会社,福岡県,大川市,大字三丸８２８番地,,40,212,8310026,,,,,,,2023-08-23,1,,,,,ナゴミ,0
1145,5290001102761,新規,0,2023-08-23,2023-08-23,株式会社ＴＢ　Ｃｒｅａｔｉｏｎ,,株式会社,福岡県,福岡市東区,下原４丁目１９番１５－３０１号光陽マンション下原,,40,131,8130002,,,,,,,2023-08-23,1,,,,,ティビークリエーション,0
1148,5290801029808,新規,0,2023-08-23,2023-08-23,株式会社サンユー,,株式会社,福岡県,北九州市小倉南区,葛原本町５丁目９番２号,,40,107,8000253,,,,,,,2023-08-23,1,,,,,サンユー,0
1150,5310001018550,新規,0,2023-08-23,2023-08-23,武田建設株式会社,,株式会社,長崎県,長崎市,若葉町１－２２第６三光ビル２階,,42,201,8528137,,,,,,,2023-08-23,1,,,,,タケダケンセツ,0
1160,5360001032448,新規,0,2023-08-23,2023-08-23,株式会社海宝,,株式会社,沖縄県,糸満市,西崎２丁目２４番７号,,47,210,9010305,,,,,,,2023-08-23,1,,,,,カイホウ,0
1161,5360003013231,新規,0,2023-08-23,2023-08-23,合同会社Ｓｉｅｓｔａ,,合同会社,沖縄県,宮古島市,平良字西里９７３－１７,,47,214,9060012,,,,,,,2023-08-23,1,,,,,シエスタ,0
1166,5380002036339,新規,0,2023-08-23,2023-08-23,有限会社ファンデーション,,有限会社,福島県,郡山市,安積町笹川字北向６番地の２２,,07,203,9630102,,,,,,,2023-08-23,1,,,,,ファンデーション,0
1167,5380003005549,新規,0,2023-08-23,2023-08-23,Ｃｏｎｎｅｃｔ合同会社,,合同会社,福島県,伊達郡川俣町,大字鶴沢字中山５番地,,07,308,9601406,,,,,,,2023-08-23,1,,,,,コネクト,0
1177,5430001089828,新規,0,2023-08-23,2023-08-23,Ａｒｔ．Ｅｖｏｌｖｅ株式会社,,株式会社,北海道,札幌市豊平区,西岡二条１０丁目５番３７号,,01,105,0620032,,,,,,,2023-08-23,1,,,,,アートエボルブ,0
1180,5430003015377,新規,0,2023-08-23,2023-08-23,合同会社スピカ,,合同会社,北海道,札幌市中央区,南一条西１０丁目４番地１６８ほくえビル４階,,01,101,0600061,,,,,,,2023-08-23,1,,,,,スピカ,0
1188,5500005008636,新規,0,2023-08-23,2023-08-23,一般社団法人Ｕｍａｓｈｉｍａ　Ｂａｓｅ,,その他の設立登記法人,愛媛県,今治市,馬島甲１０７０番地,,38,202,7992123,,,,,,,2023-08-23,1,,,,,ウマシマベイス,0
1189,5700150055693,新規,0,2023-08-23,2015-10-09,来島郷の会,,その他,島根県,飯石郡飯南町,下来島７０７－２,,32,386,6903402,,,,,,,2015-10-09,1,,,,,キジマサトノカイ,0
1190,5700150119201,新規,0,2023-08-23,2023-08-23,ＺｈｏｎｇＳｈａｎ　Ｓｈｕｙａｎｇ　Ｔｒａｄｉｎｇ　Ｃｏ．，Ｌｔｄ．,,外国会社等,,,,,,,,ＺＨＯＮＧ　ＳＨＡＮ　ＳＨＩ　ＤＯＮＧ　ＱＵ　ＣＨＡ　ＱＩＡＯ　ＬＵ　１９　ＨＡＯ　ＧＵＡＮＧ　ＣＡＩ　ＦＵ　ＨＵＡ　ＹＵＡＮ　４　ＬＯＵ　４０１　ＫＡ,,,,,,2023-08-23,1,,,,,ゾンサンスヤントゥレイディングカンパニーリミテッド,0
1191,5700150119226,新規,0,2023-08-23,2023-08-23,Ｓｈｅｎｚｈｅｎ　Ｓｉｙｕａｎ　Ｅｌｅｃｔｒｏｎｉｃ　Ｔｅｃｈｎｏｌｏｇｙ　Ｃｏ．，Ｌｔｄ,,外国会社等,,,,,,,,Ｎｏ．１００６，Ｈｕａｆｕ　Ｒｏａｄ，Ｈｕａｑｉａｎｇｂｅｉ　Ｓｔｒｅｅｔ，Ｆｕｔｉａｎ　Ｄｉｓｔｒｉｃｔ　Ｈａｎｇｄｕ　Ｂｕｉｌｄｉｎｇ　１４５９　Ｓｈｅｎｚｈｅｎ,,,,,,2023-08-23,1,,,,,シンセンスユアンイレクトゥロニックテクノロジーカンパニーリミテッド,0
1197,6010001237840,新規,0,2023-08-23,2023-08-23,株式会社イブセラ,,株式会社,東京都,千代田区,大手町１丁目５番１号大手町ファーストスクエアイーストタワー４階,,13,101,1000004,,,,,,,2023-08-23,1,,,,,イブセラ,0
1198,6010001237857,新規,0,2023-08-23,2023-08-23,日本持続可能エネルギー株式会社,,株式会社,東京都,千代田区,外神田１丁目２番６号産広美工ビル４階,,13,101,1010021,,,,,,,2023-08-23,1,,,,,ニホンジゾクカノウエネルギー,0
1199,6010001237865,新規,0,2023-08-23,2023-08-23,株式会社ＣＵＵＳＯＯ,,株式会社,東京都,文京区,本駒込５丁目５番５号ハイブリッジ２Ａ,,13,105,1130021,,,,,,,2023-08-23,1,,,,,クウソウ,0
1200,6010001237873,新規,0,2023-08-23,2023-08-23,株式会社ＲＯＯＴＡＧＥ,,株式会社,東京都,中央区,新富２丁目２番１３号,,13,102,1040041,,,,,,,2023-08-23,1,,,,,ルーテイジ,0
1201,6010001237898,新規,0,2023-08-23,2023-08-23,Ｗｉｔｈｍａｌホールディングス株式会社,,株式会社,東京都,千代田区,丸の内２丁目１番１号明治安田生命ビル２１階,,13,101,1000005,,,,,,,2023-08-23,1,,,,,ウィズマルホールディングス,0
1202,6010003041448,新規,0,2023-08-23,2023-08-23,ソーラーアイビー合同会社,,合同会社,東京都,中央区,八丁堀４丁目２番１０号ＡＯＪ税理士法人内,,13,102,1040032,,,,,,,2023-08-23,1,,,,,ソーラーアイビー,0
1203,6010003041456,新規,0,2023-08-23,2023-08-23,ＳＧＥＴ笠間バイオマス合同会社,,合同会社,東京都,千代田区,丸の内３丁目１番１号東京共同会計事務所内,,13,101,1000005,,,,,,,2023-08-23,1,,,,,エスゲットカサマバイオマス,0
1204,6010003041464,新規,0,2023-08-23,2023-08-23,宇部ＭＬ合同会社,,合同会社,東京都,中央区,八丁堀４丁目２番１０号ＡＯＪ税理士法人内,,13,102,1040032,,,,,,,2023-08-23,1,,,,,ウベエムエル,0
1205,6010005037155,新規,0,2023-08-23,2023-08-23,一般社団法人さがみはら投資事業,,その他の設立登記法人,東京都,千代田区,丸の内３丁目１番１号東京共同会計事務所内,,13,101,1000005,,,,,,,2023-08-23,1,,,,,サガミハラトウシジギョウ,0
1216,6010401176639,新規,0,2023-08-23,2023-08-23,Ｔｒａｄｉｎｇ　Ｐａｔｈ株式会社,,株式会社,東京都,港区,浜松町１丁目２７番１７号三和ビル４階プレミアムオフィス浜松町４２３,,13,103,1050013,,,,,,,2023-08-23,1,,,,,トレーディングパス,0
1217,6010403030769,新規,0,2023-08-23,2023-08-23,合同会社Ｒａｍｓｅｙ,,合同会社,東京都,港区,南青山３丁目１番３６号青山丸竹ビル６Ｆ,,13,103,1070062,,,,,,,2023-08-23,1,,,,,ラムジー,0
1218,6010403030777,新規,0,2023-08-23,2023-08-23,合同会社サングリーンフィールド,,合同会社,東京都,港区,白金２丁目５番１０号,,13,103,1080072,,,,,,,2023-08-23,1,,,,,サングリーンフィールド,0
1220,6010405022228,新規,0,2023-08-23,2023-08-23,一般社団法人ニコラスプラチナ倶楽部,,その他の設立登記法人,東京都,港区,南青山２丁目１７－３モーリンビル４Ｆ,,13,103,1070062,,,,,,,2023-08-23,1,,,,,ニコラスプラチナクラブ,0
1221,6010405022376,新規,0,2023-08-23,2023-08-23,一般社団法人ＳＢＭラボ,,その他の設立登記法人,東京都,港区,六本木６丁目４番１号,,13,103,1060032,,,,,,,2023-08-23,1,,,,,エスビーエムラボ,0
1222,6010405022434,新規,0,2023-08-23,2023-08-23,ソーラーオイラーホールディングス一般社団法人,,その他の設立登記法人,東京都,港区,西新橋１丁目２番９号メンターキャピタル税理士法人内,,13,103,1050003,,,,,,,2023-08-23,1,,,,,ソーラーオイラーホールディングス,0
1236,6010901053692,新規,0,2023-08-23,2023-08-23,株式会社フクシマ,,株式会社,東京都,世田谷区,北沢１丁目３０番１２号,,13,112,1550031,,,,,,,2023-08-23,1,,,,,フクシマ,0
1240,6011001156493,新規,0,2023-08-23,2023-08-23,株式会社グローカルライフキャリア,,株式会社,東京都,渋谷区,道玄坂１丁目１８番３号,,13,113,1500043,,,,,,,2023-08-23,1,,,,,グローカルライフキャリア,0
1241,6011003017405,新規,0,2023-08-23,2023-08-23,ＣＡＭＰ合同会社,,合同会社,東京都,渋谷区,鉢山町３番９号,,13,113,1500035,,,,,,,2023-08-23,1,,,,,キャンプ,0
1251,6011401025389,新規,0,2023-08-23,2023-08-23,從叢株式会社,00131639,株式会社,東京都,板橋区,熊野町１８番７グレースコート大山４０２,,13,119,1730025,,,,,,,2023-08-23,1,,,,,ソウソウ,0
1253,6011501029678,新規,0,2023-08-23,2023-08-23,日中商務コンサルタント株式会社,,株式会社,東京都,荒川区,西尾久８丁目４４番３０－１１０６号,,13,118,1160011,,,,,,,2023-08-23,1,,,,,ニッチュウショウムコンサルタント,0
1254,6011503005727,新規,0,2023-08-23,2023-08-23,老山東中華物産合同会社,,合同会社,東京都,荒川区,南千住１丁目４５番１０－１０２号,,13,118,1160003,,,,,,,2023-08-23,1,,,,,ロウサントウチュウカブッサン,0
1256,6011603004034,新規,0,2023-08-23,2023-08-23,ＢＨＲアソシエイツ合同会社,,合同会社,東京都,練馬区,貫井３丁目２６番７号,,13,120,1760021,,,,,,,2023-08-23,1,,,,,ビーエイチアールアソシエイツ,0
1259,6011803005798,新規,0,2023-08-23,2023-08-23,合同会社Ｕｎｉｃｏｒｎ　Ｉｎｔｅｒｎａｔｉｏｎａｌ,,合同会社,東京都,足立区,千住宮元町１１－１０,,13,121,1200043,,,,,,,2023-08-23,1,,,,,ユニコーンインターナショナル,0
1265,6012401040907,新規,0,2023-08-23,2023-08-23,株式会社ＦＬＩＮＫ,,株式会社,東京都,稲城市,矢野口３０９４－５,,13,225,2060812,,,,,,,2023-08-23,1,,,,,エフリンク,0
1272,6013301051259,新規,0,2023-08-23,2023-08-23,株式会社ＦＩＧＯ,,株式会社,東京都,豊島区,南池袋２丁目３０番１８号,,13,116,1710022,,,,,,,2023-08-23,1,,,,,フィーゴ,0
1280,6020001153079,新規,0,2023-08-23,2023-08-23,株式会社Ｙｏｋｏｈａｍａ　Ｒｅｕｎｉｏｎ,,株式会社,神奈川県,横浜市南区,中村町５丁目３１６番地１５３,,14,105,2320033,,,,,,,2023-08-23,1,,,,,ヨコハマリユニオン,0
1281,6020001153087,新規,0,2023-08-23,2023-08-23,永信株式会社,,株式会社,神奈川県,横浜市中区,寿町１丁目２番地３コスモシティ横浜石川町６１２号室,,14,104,2310026,,,,,,,2023-08-23,1,,,,,エイシン,0
1282,6020001153112,新規,0,2023-08-23,2023-08-23,株式会社アベソル,,株式会社,神奈川県,川崎市川崎区,殿町１丁目１０番１１－２０２号リバーサイドビル,,14,131,2100821,,,,,,,2023-08-23,1,,,,,アベソル,0
1290,6021001080008,新規,0,2023-08-23,2023-08-23,サントム株式会社,,株式会社,神奈川県,横須賀市,小矢部３丁目４番５－５０１号,,14,201,2380026,,,,,,,2023-08-23,1,,,,,サントム,0
1301,6030001155495,新規,0,2023-08-23,2023-08-23,ＹＫ　ＴＲＵＳＴ株式会社,,株式会社,埼玉県,三郷市,ピアラシティ２丁目１５番地２０ｋａ‐ｂｂｙ・ｂａｓｅ・Ａ,,11,237,3410050,,,,,,,2023-08-23,1,,,,,ワイケートラスト,0
1303,6030003022306,新規,0,2023-08-23,2023-08-23,合同会社ＳＭＷ,,合同会社,埼玉県,新座市,新堀２丁目５番９号メゾン武蔵野２０２号室,,11,230,3520032,,,,,,,2023-08-23,1,,,,,エスエムダブリュ,0
1311,6040001129754,新規,0,2023-08-23,2023-08-23,株式会社シャインロコ,,株式会社,千葉県,印西市,木下東２丁目２番地１９,,12,231,2701323,,,,,,,2023-08-23,1,,,,,シャインロコ,0
1312,6040001129770,新規,0,2023-08-23,2023-08-23,株式会社Ｆｕｔｕｒｅ　Ｄｅｓｉｇｎ,,株式会社,千葉県,流山市,おおたかの森北３丁目２８番地の６,,12,220,2700119,,,,,,,2023-08-23,1,,,,,フューチャーデザイン,0
1314,6040003023154,新規,0,2023-08-23,2023-08-23,クェンクェン合同会社,,合同会社,千葉県,習志野市,大久保２丁目９番２１号レオパレスアフロディーテ１０１号,,12,216,2750011,,,,,,,2023-08-23,1,,,,,クェンクェン,0
1315,6050001053334,新規,0,2023-08-23,2023-08-23,株式会社ＭＯＬＬＡ　Ｅｎｔｅｒｐｒｉｓｅ,,株式会社,茨城県,猿島郡境町,１７７５番地,,08,546,3060433,,,,,,,2023-08-23,1,,,,,モラエンタープライズ,0
1328,6090001018259,新規,0,2023-08-23,2023-08-23,株式会社大日,,株式会社,山梨県,富士吉田市,上吉田４５１０番地の１８,,19,202,4030005,,,,,,,2023-08-23,1,,,,,ダイニチ,0
1330,6110001037792,新規,0,2023-08-23,2023-08-23,株式会社テンペスト,,株式会社,新潟県,北蒲原郡聖籠町,大字藤寄２６１番地,,15,307,9570127,,,,,,,2023-08-23,1,,,,,テンペスト,0
1345,6120001257506,新規,0,2023-08-23,2023-08-23,ＮＣイノベーション株式会社,,株式会社,大阪府,大阪市此花区,梅香２丁目１１番９号,,27,104,5540013,,,,,,,2023-08-23,1,,,,,エヌシーイノベーション,0
1346,6120001257522,新規,0,2023-08-23,2023-08-23,ＢｏｎｉＭａｒ株式会社,,株式会社,大阪府,大阪市此花区,高見１丁目４番５５－１１１号,,27,104,5540001,,,,,,,2023-08-23,1,,,,,ボニマール,0
1347,6120001257530,新規,0,2023-08-23,2023-08-23,株式会社リライク,,株式会社,大阪府,大阪市中央区,上汐１丁目４番１０－３０１号,,27,128,5420064,,,,,,,2023-08-23,1,,,,,リライク,0
1348,6120001257547,新規,0,2023-08-23,2023-08-23,三友株式会社,,株式会社,大阪府,大阪市中央区,南船場１丁目４番２１－１４０１号,,27,128,5420081,,,,,,,2023-08-23,1,,,,,サンユウ,0
1349,6120001257596,新規,0,2023-08-23,2023-08-23,株式会社Ｖａｌｕｅ,,株式会社,大阪府,大阪市淀川区,宮原２丁目９－１－５階－Ａ号,,27,123,5320003,,,,,,,2023-08-23,1,,,,,バリュー,0
1355,6120003024755,新規,0,2023-08-23,2023-08-23,合同会社ＭＡＺ,,合同会社,大阪府,大阪市北区,梅田１丁目２番２号大阪駅前第２ビル１２－１２,,27,127,5300001,,,,,,,2023-08-23,1,,,,,マッツ,0
1356,6120105009753,新規,0,2023-08-23,2023-08-23,一般社団法人オールジャパンＵＡＶフェスティバル運営事務局,,その他の設立登記法人,大阪府,堺市北区,中百舌鳥町２丁３４番地,,27,146,5918023,,,,,,,2023-08-23,1,,,,,オールジャパンユーエイブイフェスティバルウンエイジムキョク,0
1361,6122001037292,新規,0,2023-08-23,2023-08-23,株式会社ＡＶＡＮ,,株式会社,大阪府,東大阪市,俊徳町１丁目３番２３号,,27,227,5770831,,,,,,,2023-08-23,1,,,,,アバン,0
1378,6140001131345,新規,0,2023-08-23,2023-08-23,株式会社メテオリート,,株式会社,兵庫県,神戸市長田区,若松町３丁目２番１５－１０５号,,28,106,6530038,,,,,,,2023-08-23,1,,,,,メテオリート,0
1379,6140001131353,新規,0,2023-08-23,2023-08-23,株式会社Ｋ‐ＥＯＳ,,株式会社,兵庫県,神戸市中央区,磯辺通１丁目１番１８号カサベラ国際プラザビル７０７号室,,28,110,6510084,,,,,,,2023-08-23,1,,,,,ケイオス,0
1381,6140003019464,新規,0,2023-08-23,2023-08-23,合同会社Ｐｅｎｔｏ．,,合同会社,兵庫県,豊岡市,日高町八代２０１,,28,209,6695339,,,,,,,2023-08-23,1,,,,,ペント,0
1382,6160003002963,新規,0,2023-08-23,2023-08-23,合同会社ケイアンドケイ,,合同会社,滋賀県,大津市,苗鹿３丁目６番３号オリーブ３Ｆ,,25,201,5200102,,,,,,,2023-08-23,1,,,,,ケイアンドケイ,0
1388,6180001157460,新規,0,2023-08-23,2023-08-23,株式会社Ｗｅｒ,,株式会社,愛知県,名古屋市中村区,名駅３番２６－８号,,23,105,4530000,,,,,,,2023-08-23,1,,,,,ウェール,0
1390,6180003025649,新規,0,2023-08-23,2023-08-23,合同会社ＬＢＳ,,合同会社,愛知県,名古屋市中村区,日比津町４丁目１８番２号,,23,105,4530061,,,,,,,2023-08-23,1,,,,,エルビーエス,0
1397,6190005011860,新規,0,2023-08-23,2023-08-23,日本ワークトレナー協同組合,,その他の設立登記法人,三重県,伊賀市,玉瀧字里出５７０５番地,,24,216,5181322,,,,,,,2023-08-23,1,,,,,ニホンワークトレナー,0
1400,6220001025571,新規,0,2023-08-23,2023-08-23,株式会社ＴＳ建設,,株式会社,石川県,金沢市,鱗町１０９番地１サンハイツ２０１号室,,17,201,9200971,,,,,,,2023-08-23,1,,,,,ティーエスケンセツ,0
1403,6240001062027,新規,0,2023-08-23,2023-08-23,株式会社そわか商会,,株式会社,広島県,福山市,引野町６３７番地１０,,34,207,7210942,,,,,,,2023-08-23,1,,,,,,0
1405,6260001005339,新規,0,2023-08-23,2023-08-23,バーテックス株式会社,,株式会社,岡山県,岡山市北区,牟佐池尻７０－１,,33,101,7012141,,,,,,,2023-08-23,1,,,,,バーテックス,0
1408,6290001102760,新規,0,2023-08-23,2023-08-23,ＦＯＭ株式会社,,株式会社,福岡県,福岡市中央区,薬院３丁目１３－２６コーポ平田２０２号室,,40,133,8100022,,,,,,,2023-08-23,1,,,,,フォム,0
1412,6290003014260,新規,0,2023-08-23,2023-08-23,Ｌｏｃａｌｉｓｅｄ　Ｊａｐａｎ合同会社,,合同会社,福岡県,福岡市博多区,冷泉町２番９号クレアランドマーク３０５号室,,40,132,8120039,,,,,,,2023-08-23,1,,,,,ローカライズドジャパン,0
1414,6290801029807,新規,0,2023-08-23,2023-08-23,株式会社シーバース,,株式会社,福岡県,北九州市八幡西区,屋敷１丁目６番８号,,40,109,8060006,,,,,,,2023-08-23,1,,,,,シーバース,0
1415,6330001031187,新規,0,2023-08-23,2023-08-23,株式会社ＧＲＡＣＥ,,株式会社,熊本県,熊本市南区,南高江６丁目８番２６号,,43,104,8614106,,,,,,,2023-08-23,1,,,,,グレイス,0
1420,6340003004223,新規,0,2023-08-23,2023-08-23,合同会社柁の木,,合同会社,鹿児島県,姶良市,西宮島町６番地１３,,46,225,8995433,,,,,,,2023-08-23,1,,,,,カジノキ,0
1424,6360001032447,新規,0,2023-08-23,2023-08-23,株式会社エス・ティプランニング沖縄,,株式会社,沖縄県,那覇市,字小禄１８３１番地１,,47,201,9010152,,,,,,,2023-08-23,1,,,,,エスティプランニングオキナワ,0
1425,6360001032455,新規,0,2023-08-23,2023-08-23,株式会社ＣＥＯＬ　Ａｃａｄｅｍｙ　ＪＡＰＡＮ,,株式会社,沖縄県,名護市,東江１丁目６番２１号シエロビアント東江名護シティ６０３号,,47,209,9050021,,,,,,,2023-08-23,1,,,,,セオルアカデミージャパン,0
1428,6360003013230,新規,0,2023-08-23,2023-08-23,合同会社ＨＥＮＴ,,合同会社,沖縄県,石垣市,字石垣４１６番地３コーポラス崎山２０２号室,,47,207,9070023,,,,,,,2023-08-23,1,,,,,ヘント,0
1441,6430001089785,新規,0,2023-08-23,2023-08-23,株式会社Ｓ　ｐｌｕｓ　ｋｉｔｃｈｅｎ,,株式会社,北海道,札幌市中央区,北三条東５丁目５番地,,01,101,0600033,,,,,,,2023-08-23,1,,,,,エスプラスキッチン,0
1443,6430003015368,新規,0,2023-08-23,2023-08-23,合同会社新陽パートナーズ,,合同会社,北海道,札幌市中央区,大通西１５丁目２番地１ラスコム１５ビル３階,,01,101,0600042,,,,,,,2023-08-23,1,,,,,シンヨウパートナーズ,0
1447,6490003001809,新規,0,2023-08-23,2023-08-23,合同会社天蒼,,合同会社,高知県,高知市,介良乙１０２５－１５,,39,201,7815106,,,,,,,2023-08-23,1,,,,,テンソウ,0
1449,6700150119200,新規,0,2023-08-23,2023-08-23,ｓｈｅｎ　ｚｈｅｎ　ｓｈｉ　ｍｉ　ｓｉ　ｍａｏ　ｆｕ　ｓｈｉ　ｙｏｕ　ｘｉａｎ　ｇｏｎｇ　ｓｉ,,外国会社等,,,,,,,,ＨｕａｎｇＭａｂｕ　Ｃｏｍｍｕｎｉｔｙ，ＬｅＺｈｕｊｉａｏ，Ｈｏｎｇｚｈｕ　Ｕｎｉｔ　Ｂ，２／Ｆ，Ｄ　Ｂｌｄｇ，ＹｏｕｎｇＱｉ　Ｔｅｃｈｎｏｌｏｇｙ　Ｉｎｄｕｓｔｒｙ　ＳｈｅｎＺｈｅｎ，ＢａｏＡｎ，Ｘｉｘｉａｎｇ,,,,,,2023-08-23,1,,,,,シンセンシミスマオフシユウゲンコウシ,0
1450,6700150119233,新規,0,2023-08-23,2023-08-23,ｓｈｅｎｚｈｅｎ　ｒｕｉｗｅｉｋｅｊｉ　ｙｏｕｘｉａｎｚｅｒｅｎｇｏｇｎｓｉ,,外国会社等,,,,,,,,ｓｈｅｎｚｈｅｎｓｈｉｎａｎｓｈａｎｑｕｎａｎｔｏｕｊｉｅｄａｏｄａｗａｎｇｓｈａｎｓｈｅｑｕｔａｏｙｕａｎｌｕ８ｈａｏｔｉａｎｘｉａｇｕｏｊｉｚｈｏｎｇｘｉｎＢｚｕｏ１５１６（ｒｕｚｈｕｓｈｅｎｚｈｅｎｓｈｉｘｉｎｇｙｕｔａｉｓｈａｎｇｗｕｍｉｓｈｕｙｏｕｘｉａｎｇｏｎｇｓｉ）,,,,,,2023-08-23,1,,,,,シンセンルイウェイカギユウゲンゼレンコウシ,0
1457,7010001237872,新規,0,2023-08-23,2023-08-23,株式会社沖縄アドベンチャートラベル,,株式会社,東京都,中央区,日本橋３丁目１番４号７０１号,,13,102,1030027,,,,,,,2023-08-23,1,,,,,オキナワアドベンチャートラベル,0
1458,7010001237889,新規,0,2023-08-23,2023-08-23,日晴株式会社,,株式会社,東京都,中央区,新富１丁目７番５－７０２号,,13,102,1040041,,,,,,,2023-08-23,1,,,,,ニッセイ,0
1461,7010003041447,新規,0,2023-08-23,2023-08-23,スズハリソーラー合同会社,,合同会社,東京都,中央区,八丁堀４丁目２番１０号ＡＯＪ税理士法人内,,13,102,1040032,,,,,,,2023-08-23,1,,,,,スズハリソーラー,0
1462,7010005037121,新規,0,2023-08-23,2023-08-23,一般社団法人脱炭素推進協議会,,その他の設立登記法人,東京都,中央区,八重洲１丁目５番１５号田中八重洲ビル２Ｆ,,13,102,1030028,,,,,,,2023-08-23,1,,,,,ダツタンソスイシンキョウギカイ,0
1463,7010005037154,新規,0,2023-08-23,2023-08-23,エスティアタミ一般社団法人,,その他の設立登記法人,東京都,千代田区,丸の内３丁目１番１号東京共同会計事務所内,,13,101,1000005,,,,,,,2023-08-23,1,,,,,エスティアタミ,0
1464,7010101015781,新規,0,2023-08-23,2023-08-23,株式会社イノウエ企画,,株式会社,東京都,八王子市,久保山町２丁目３９－１１,,13,201,1920023,,,,,,,2023-08-23,1,,,,,イノウエキカク,0
1474,7010401176530,新規,0,2023-08-23,2023-08-23,株式会社バリー,,株式会社,東京都,港区,六本木５丁目１６番５－２０３号,,13,103,1060032,,,,,,,2023-08-23,1,,,,,バリー,0
1475,7010401176638,新規,0,2023-08-23,2023-08-23,株式会社サイクツ,,株式会社,東京都,港区,芝大門２丁目１番１７号朝川ビル３階,,13,103,1050012,,,,,,,2023-08-23,1,,,,,サイクツ,0
1477,7010403030784,新規,0,2023-08-23,2023-08-23,Ｍｏｒｉｙａ合同会社,,合同会社,東京都,港区,西新橋１丁目２２番５号６階,,13,103,1050003,,,,,,,2023-08-23,1,,,,,モリヤ,0
1479,7010501050932,新規,0,2023-08-23,2023-08-23,株式会社九安,,株式会社,東京都,台東区,台東２丁目２２－３藤和シティホームズ台東御徒町ウエルブライト６０３,,13,106,1100016,,,,,,,2023-08-23,1,,,,,クヤス,0
1488,7010703006831,新規,0,2023-08-23,2023-08-23,合同会社ｇｒｏｗｉｎｇ　ｕｐ,,合同会社,東京都,品川区,北品川１丁目１－１５北品川２１ビル,,13,109,1400001,,,,,,,2023-08-23,1,,,,,グロウィングアップ,0
1490,7010905004518,新規,0,2023-08-23,2023-08-23,一般社団法人開運科学実践研究所,,その他の設立登記法人,東京都,世田谷区,上馬２丁目６番１０号,,13,112,1540011,,,,,,,2023-08-23,1,,,,,カイウンカガクジッセンケンキュウショ,0
1494,7011001156526,新規,0,2023-08-23,2023-08-23,株式会社ｉｎｓｉｄｅ　ａｎｄ　ｏｕｔ,,株式会社,東京都,渋谷区,神宮前１丁目４番２０号パークコート神宮前４４４,,13,113,1500001,,,,,,,2023-08-23,1,,,,,インサイドアンドアウト,0
1501,7011603004033,新規,0,2023-08-23,2023-08-23,加拉夏合同会社,,合同会社,東京都,練馬区,関町北５丁目６番７号関町マンション３０２Ｇ,,13,120,1770051,,,,,,,2023-08-23,1,,,,,カラカ,0
1503,7011803005797,新規,0,2023-08-23,2023-08-23,スター合同会社,,合同会社,東京都,葛飾区,お花茶屋２丁目２－５ＴＯＰお花茶屋４０３,,13,122,1240003,,,,,,,2023-08-23,1,,,,,スター,0
1509,7012801022545,新規,0,2023-08-23,2023-08-23,立川金融株式会社,,株式会社,東京都,立川市,曙町１丁目２４番１号,00131575,13,202,1900012,,,,,,,2023-08-23,1,,,,,,0
1510,7012801022586,新規,0,2023-08-23,2023-08-23,ＲＩＮＴＥＣ株式会社,,株式会社,東京都,日野市,大字日野５９７０番地の１２,,13,212,1910012,,,,,,,2023-08-23,1,,,,,リンテック,0
1517,7020001153111,新規,0,2023-08-23,2023-08-23,株式会社ＳｕｎＨｕｔ,,株式会社,神奈川県,横浜市青葉区,美しが丘西３丁目３３番地１,,14,117,2250001,,,,,,,2023-08-23,1,,,,,サンハット,0
1518,7020003024426,新規,0,2023-08-23,2023-08-23,ＦＷＭ合同会社,,合同会社,神奈川県,横浜市神奈川区,神大寺１丁目３４－１３－４０１,,14,102,2210801,,,,,,,2023-08-23,1,,,,,エフダブルエム,0
1522,7021001080007,新規,0,2023-08-23,2023-08-23,スマイルデザイン株式会社,,株式会社,神奈川県,横須賀市,公郷町２丁目２,,14,201,2380022,,,,,,,2023-08-23,1,,,,,スマイルデザイン,0
1527,7021003013492,新規,0,2023-08-23,2023-08-23,合同会社ＥＮＴＡＩＮ,,合同会社,神奈川県,藤沢市,辻堂６丁目２１番６号,,14,205,2510047,,,,,,,2023-08-23,1,,,,,エンテイン,0
1532,7030001155338,新規,0,2023-08-23,2023-08-23,株式会社ｔｅｎｔ　ｓｐａｃｅ,,株式会社,埼玉県,比企郡小川町,大字角山３２３,,11,343,3550316,,,,,,,2023-08-23,1,,,,,テントスペース,0
1537,7030003022288,新規,0,2023-08-23,2023-08-23,合同会社４Ｃワークス,,合同会社,埼玉県,八潮市,緑町２丁目８番地２グリーンパーク第３八潮３１１号室,,11,234,3400808,,,,,,,2023-08-23,1,,,,,フォーシーワークス,0
1544,7040001129720,新規,0,2023-08-23,2023-08-23,新澤株式会社,,株式会社,千葉県,千葉市若葉区,加曽利町１５９５－１・６号室,,12,104,2640017,,,,,,,2023-08-23,1,,,,,シンザワ,0
1545,7040001129786,新規,0,2023-08-23,2023-08-23,せせらぎの通り道株式会社,,株式会社,千葉県,流山市,松ケ丘２丁目３３６番地８５号,,12,220,2700141,,,,,,,2023-08-23,1,,,,,セセラギノトオリミチ,0
1548,7040003023178,新規,0,2023-08-23,2023-08-23,合同会社エース,,合同会社,千葉県,八街市,榎戸６８４番地５０ニッセキアパートメントＩＩＩ１０１,00131630,12,230,2891106,,,,,,,2023-08-23,1,,,,,エース,0
1552,7040005022095,新規,0,2023-08-23,2023-08-23,一般社団法人Ｍａｒａｖｉｌｌｏｓｏ,,その他の設立登記法人,千葉県,佐倉市,西ユーカリが丘７丁目７番地５,,12,212,2850850,,,,,,,2023-08-23,1,,,,,マラビジョソ,0
1554,7050003007741,新規,0,2023-08-23,2023-08-23,ＨＡＲＳＨＡＮＡ　ＥＮＴＥＲＰＲＩＳＥＳ合同会社,,合同会社,茨城県,古河市,中田新田９９番地１１古河市中田新田貸家,,08,204,3060054,,,,,,,2023-08-23,1,,,,,ハルシャナエンタープライゼス,0
1558,7060005010123,新規,0,2023-08-23,2023-08-23,一般社団法人Ｒ＆Ｉホールディングス,,その他の設立登記法人,栃木県,那須塩原市,沓掛２丁目１７番８号,,09,213,3293133,,,,,,,2023-08-23,1,,,,,アールアンドアイホールディングス,0
1569,7100001036712,新規,0,2023-08-23,2023-08-23,株式会社オネスト,,株式会社,長野県,小諸市,市町３丁目９番１号ビレッジハウス向田１号棟２０２,,20,208,3840033,,,,,,,2023-08-23,1,,,,,オネスト,0
1579,7120001257488,新規,0,2023-08-23,2023-08-23,優発展株式会社,,株式会社,大阪府,大阪市生野区,生野西４丁目１２－３ハイツ西村２０５号室,,27,116,5440024,,,,,,,2023-08-23,1,,,,,ユウハッテン,0
1580,7120001257521,新規,0,2023-08-23,2023-08-23,栢盈株式会社,,株式会社,大阪府,大阪市港区,池島２丁目３番１３－１０２号,,27,107,5520015,,,,,,,2023-08-23,1,,,,,ハクエイ,0
1581,7120001257546,新規,0,2023-08-23,2023-08-23,株式会社建プロデュース,,株式会社,大阪府,寝屋川市,川勝町９－１４,,27,215,5720015,,,,,,,2023-08-23,1,,,,,ケンプロデュース,0
1582,7120001257562,新規,0,2023-08-23,2023-08-23,株式会社カラフルピット,,株式会社,大阪府,大阪市城東区,放出西１丁目１番２２号,,27,118,5360011,,,,,,,2023-08-23,1,,,,,カラフルピット,0
1587,7120003024754,新規,0,2023-08-23,2023-08-23,合同会社ＹＹ,,合同会社,大阪府,大阪市中央区,淡路町３丁目５番１３号創建ビル３階,,27,128,5410047,,,,,,,2023-08-23,1,,,,,ワイワイ,0
1594,7120901047971,新規,0,2023-08-23,2023-08-23,株式会社ｍｙｎｉｃｏ,,株式会社,大阪府,吹田市,藤白台２丁目２３番５－１０１号,,27,205,5650873,,,,,,,2023-08-23,1,,,,,ミニコ,0
1596,7122001037300,新規,0,2023-08-23,2023-08-23,株式会社Ｆｅｒｎａ,,株式会社,大阪府,東大阪市,御厨５丁目２番１９号,,27,227,5770032,,,,,,,2023-08-23,1,,,,,フェルナ,0
1602,7130001074916,新規,0,2023-08-23,2023-08-23,ｎｅｗＡｇｅ株式会社,,株式会社,京都府,城陽市,寺田大谷１００番地の３４,,26,207,6100121,,,,,,,2023-08-23,1,,,,,ニューエイジ,0
1603,7130001075006,新規,0,2023-08-23,2023-08-23,株式会社アットクルー,,株式会社,京都府,城陽市,平川茶屋裏２９－１セントレジデンス大久保７０２,,26,207,6100101,,,,,,,2023-08-23,1,,,,,アットクルー,0
1604,7130001075022,新規,0,2023-08-23,2023-08-23,三洋アンドカンパニー株式会社,,株式会社,京都府,京都市右京区,宇多野福王子町８番地,,26,108,6168208,,,,,,,2023-08-23,1,,,,,サンヨウアンドカンパニー,0
1605,7130001075030,新規,0,2023-08-23,2023-08-23,株式会社福井電設,,株式会社,京都府,京都市西京区,山田北山田町１０番地セジュール蘭Ａ棟１０６号,,26,111,6158267,,,,,,,2023-08-23,1,,,,,フクイデンセツ,0
1610,7140001131344,新規,0,2023-08-23,2023-08-23,Ｒ．Ｉ株式会社,,株式会社,兵庫県,加古川市,東神吉町神吉６５１番地の９８,,28,210,6750057,,,,,,,2023-08-23,1,,,,,アールドットアイ,0
1621,7180001157708,新規,0,2023-08-23,2023-08-23,株式会社ハイム,,株式会社,愛知県,名古屋市中村区,岩塚町字郷中１番地,,23,105,4530862,,,,,,,2023-08-23,1,,,,,ハイム,0
1622,7180001157724,新規,0,2023-08-23,2023-08-23,株式会社ＢＯＬＴ,,株式会社,愛知県,名古屋市中区,金山４丁目３番７号中洋ビル４Ｄ,,23,106,4600022,,,,,,,2023-08-23,1,,,,,ボルト,0
1623,7180001157732,新規,0,2023-08-23,2023-08-23,アレンジ株式会社,,株式会社,愛知県,名古屋市守山区,大字上志段味字東谷２０８６番地の２６９,,23,113,4630001,,,,,,,2023-08-23,1,,,,,アレンジ,0
1633,7210001019433,新規,0,2023-08-23,2023-08-23,株式会社佐々木電気,,株式会社,福井県,福井市,渕町第４３号４７番地１２,,18,201,9188026,,,,,,,2023-08-23,1,,,,,ササキデンキ,0
1639,7240001062018,新規,0,2023-08-23,2023-08-23,株式会社ひまわり石油,,株式会社,広島県,福山市,本郷町８１５番地１,,34,207,7290252,,,,,,,2023-08-23,1,,,,,ヒマワリセキユ,0
1644,7280001009023,新規,0,2023-08-23,2023-08-23,株式会社スタンダードプロモーション,,株式会社,島根県,浜田市,長沢町４５３番地８,,32,202,6970023,,,,,,,2023-08-23,1,,,,,スタンダードプロモーション,0
1654,7290005019125,新規,0,2023-08-23,2023-08-23,ＮＰＯ法人成年後見安心サポートネット久留米,,その他の設立登記法人,福岡県,久留米市,城南町１６番５号,,40,203,8300022,,,,,,,2023-08-23,1,,,,,セイネンコウケンアンシンサポートネットクルメ,0
1655,7290801029806,新規,0,2023-08-23,2023-08-23,株式会社鳥羽商店,,株式会社,福岡県,北九州市門司区,柳原町６番１２号,,40,101,8000036,,,,,,,2023-08-23,1,,,,,トバショウテン,0
1662,7330005010681,新規,0,2023-08-23,2023-08-23,一般社団法人エンジェル,,その他の設立登記法人,熊本県,球磨郡錦町,大字一武２６５９－２４,,43,501,8680302,,,,,,,2023-08-23,1,,,,,エンジェル,0
1664,7340003004222,新規,0,2023-08-23,2023-08-23,合同会社中塩屋,,合同会社,鹿児島県,鹿児島市,平川町２５１６番地２,,46,201,8910133,,,,,,,2023-08-23,1,,,,,,0
1665,7360001032454,新規,0,2023-08-23,2023-08-23,株式会社Ｔｅｅ　ｈｏｌｄｉｎｇｓ,,株式会社,沖縄県,那覇市,前島３丁目８－７、４Ｆ,,47,201,9000016,,,,,,,2023-08-23,1,,,,,ティーホールディングス,0
1666,7360003013205,新規,0,2023-08-23,2023-08-23,合同会社ＷＩＬＬ　Ｐｏｃｋｅｔ,,合同会社,沖縄県,宜野湾市,大謝名４丁目２４－１４いちごハウス２０５号,,47,205,9012225,,,,,,,2023-08-23,1,,,,,ウィルポケット,0
1680,7430001089826,新規,0,2023-08-23,2023-08-23,株式会社ＥＣＯＧＲＯＷ,,株式会社,北海道,札幌市中央区,南五条西４丁目１３番地,,01,101,0640805,,,,,,,2023-08-23,1,,,,,エコグロウ,0
1694,7700150119199,新規,0,2023-08-23,2023-08-23,Ｓｈｅｎｚｈｅｎ　Ｃｈａｎｇ　Ｆｕｙｕａｎ　Ｔｒａｄｉｎｇ　ＣＯ．，Ｌｔｄ,,外国会社等,,,,,,,,ｌｏｎｇｇａｎｇｑｕｐｉｎｇｈｕｊｉｅｄａｏｐｉｎｇｈｕｓｈｅｑｕｆｕｍｉｎｇｏｎｇｙｅｑｕ１７ｄｏｎｇ２０２　ｓｈｅｎｚｈｅｎｓｈｉ,,,,,,2023-08-23,1,,,,,シンセンチャンフユアントレーディングカンパニーリミテッド,0
1695,7700150119232,新規,0,2023-08-23,2023-08-23,Ｑｕａｎｚｈｏｕ　Ｔｏｕｗｅｉ　Ｉｍｐｏｒｔ　ａｎｄ　Ｅｘｐｏｒｔ　Ｔｒａｄｅ　Ｃｏ．，Ｌｔｄ,,外国会社等,,,,,,,,Ｒｏｏｍ　４１０，Ｂｕｉｌｄｉｎｇ　１０，Ｃｒｏｓｓ－ｂｏｒｄｅｒ　Ｓｅｒｖｉｃｅ　Ｃｅｎｔｅｒ　ｏｆ　Ｃｒｏｓｓ－ｂｏｒｄｅｒ　Ｅ－ｃｏｍｍｅｒｃｅ　Ｐａｒｋ，　Ｎｏ．１８　Ｘｉａｎｇｂｉｎ　Ｓｔｒｅｅｔ，Ｄｏｎｇｈａｉ　Ｓｔｒｅｅｔ，Ｆｅｎｇｚｅ　Ｄｉｓｔｒｉｃｔ，Ｑｕａｎｚｈｏｕ　Ｃｉｔｙ，Ｆｕｊｉａｎ　Ｐｒｏｖｉｎｃｅ,,,,,,2023-08-23,1,,,,,センシュウトウェイインポートアンドエクスポートトレードカンパニーリミテッド,0
1703,8010001237764,新規,0,2023-08-23,2023-08-23,株式会社ヒカリッチフードサイエンス,,株式会社,東京都,中央区,日本橋久松町１３番３,,13,102,1030005,,,,,,,2023-08-23,1,,,,,ヒカリッチフードサイエンス,0
1704,8010001237822,新規,0,2023-08-23,2023-08-23,株式会社ヤマト,,株式会社,東京都,中央区,銀座１丁目１２番４号Ｎ＆Ｅ・ＢＬＤ．７階,,13,102,1040061,,,,,,,2023-08-23,1,,,,,ヤマト,0
1705,8010001237839,新規,0,2023-08-23,2023-08-23,株式会社装幀新井,,株式会社,東京都,千代田区,神田神保町１丁目４０番１号,,13,101,1010051,,,,,,,2023-08-23,1,,,,,ソウテイアライ,0
1706,8010001237871,新規,0,2023-08-23,2023-08-23,株式会社本州木材,,株式会社,東京都,中央区,銀座５丁目１２番８号,,13,102,1040061,,,,,,,2023-08-23,1,,,,,ホンシュウモクザイ,0
1707,8010001237888,新規,0,2023-08-23,2023-08-23,高達技術ビジネス株式会社,,株式会社,東京都,中央区,佃１丁目９番１３号北東棟２０１,,13,102,1040051,,,,,,,2023-08-23,1,,,,,コウタツギジュツビジネス,0
1708,8010001237905,新規,0,2023-08-23,2023-08-23,ブランダー株式会社,,株式会社,東京都,中央区,日本橋室町１丁目１１番１２号,,13,102,1030022,,,,,,,2023-08-23,1,,,,,ブランダー,0
1709,8010001237913,新規,0,2023-08-23,2023-08-23,株式会社ＳＴＵＤＩＯ　ＷＩＮＥＳ,,株式会社,東京都,中央区,日本橋３丁目２番１４号新槇町ビル別館第一２階,,13,102,1030027,,,,,,,2023-08-23,1,,,,,スタジオワインズ,0
1712,8010003041438,新規,0,2023-08-23,2023-08-23,合同会社ＮＥＫＩ,,合同会社,東京都,千代田区,神田岩本町１番地,,13,101,1010033,,,,,,,2023-08-23,1,,,,,ネキ,0
1713,8010003041454,新規,0,2023-08-23,2023-08-23,合同会社オルタナ２６,,合同会社,東京都,千代田区,丸の内３丁目１番１号東京共同会計事務所内,,13,101,1000005,,,,,,,2023-08-23,1,,,,,オルタナトゥエンティシックス,0
1714,8010003041495,新規,0,2023-08-23,2023-08-23,ＱＵＷＯＬ合同会社,,合同会社,東京都,中央区,銀座１丁目２２番１１号銀座大竹ビジデンス２Ｆ,,13,102,1040061,,,,,,,2023-08-23,1,,,,,クウォル,0
1722,8010401176257,新規,0,2023-08-23,2023-08-23,株式会社ｗａｎｏｂｉ一級建築士事務所,,株式会社,東京都,港区,南青山４丁目２番４号,,13,103,1070062,,,,,,,2023-08-23,1,,,,,ワノビイッキュウケンチクシジムショ,0
1723,8010401176678,新規,0,2023-08-23,2023-08-23,株式会社ジャデル,,株式会社,東京都,港区,赤坂１丁目３番１５号,,13,103,1070052,,,,,,,2023-08-23,1,,,,,ジャデル,0
1724,8010403030775,新規,0,2023-08-23,2023-08-23,合同会社ＴＦＴエステート,,合同会社,東京都,港区,北青山１丁目３番１号アールキューブ青山３階,,13,103,1070061,,,,,,,2023-08-23,1,,,,,ティーエフティーエステート,0
1735,8010703006830,新規,0,2023-08-23,2023-08-23,合同会社晨源,,合同会社,東京都,品川区,南大井２丁目１２番１－６０８号,,13,109,1400013,,,,,,,2023-08-23,1,,,,,シンゲン,0
1740,8010903008404,新規,0,2023-08-23,2023-08-23,合同会社スリーベット,,合同会社,東京都,世田谷区,弦巻２丁目２－９アーバンフラッツ弦巻１０１,,13,112,1540016,,,,,,,2023-08-23,1,,,,,スリーベット,0
1752,8011101103971,新規,0,2023-08-23,2023-08-23,ＡＩＭ株式会社,,株式会社,東京都,新宿区,若松町３８番１９号ビュートピネ早稲田１０６,,13,104,1620056,,,,,,,2023-08-23,1,,,,,エイム,0
1756,8011202011215,新規,0,2023-08-23,2023-08-23,有限会社東京ゴールド,,有限会社,東京都,中野区,弥生町１丁目１９番５号,,13,114,1640013,,,,,,,2023-08-23,1,,,,,,0
1765,8011603004032,新規,0,2023-08-23,2023-08-23,合同会社ＴＫ　Ｓｏｕｒｃｅ,,合同会社,東京都,練馬区,上石神井４丁目３番２３号フェニックスビル４０８,,13,120,1770044,,,,,,,2023-08-23,1,,,,,ティケイソース,0
1768,8011801042924,新規,0,2023-08-23,2023-08-23,株式会社リアサンズ,,株式会社,東京都,葛飾区,新宿３丁目２７番１７号,,13,122,1250051,,,,,,,2023-08-23,1,,,,,リアサンズ,0
1774,8012303001864,新規,0,2023-08-23,2023-08-23,ワイケー商会合同会社,,合同会社,東京都,町田市,金井１丁目２３番５号,,13,209,1950072,,,,,,,2023-08-23,1,,,,,ワイケーショウカイ,0
1791,8020003024409,新規,0,2023-08-23,2023-08-23,合同会社チップレイ,,合同会社,神奈川県,横浜市中区,元町４丁目１６８ＢＩＺｃｏｍｆｏｒｔ元町ビルＢ１Ｆ,,14,104,2310861,,,,,,,2023-08-23,1,,,,,チップレイ,0
1792,8020003024417,新規,0,2023-08-23,2023-08-23,横浜ＳＢＩ合同会社,,合同会社,神奈川県,横浜市港北区,岸根町４６２－１０,,14,109,2220034,,,,,,,2023-08-23,1,,,,,ヨコハマエスビーアイ,0
1796,8021001080014,新規,0,2023-08-23,2023-08-23,株式会社杉原興業,,株式会社,神奈川県,相模原市緑区,名倉１１２８番地１１,,14,151,2520187,,,,,,,2023-08-23,1,,,,,スギハラコウギョウ,0
1798,8021003013491,新規,0,2023-08-23,2023-08-23,合同会社ｔｅｎ‐Ｔｒｕｓｔ,,合同会社,神奈川県,厚木市,三田２５２１－１－１０２,,14,212,2430211,,,,,,,2023-08-23,1,,,,,テントラスト,0
1806,8030001155320,新規,0,2023-08-23,2023-08-23,株式会社雷神建設,,株式会社,埼玉県,川口市,芝下３丁目１０番１９号,,11,203,3330848,,,,,,,2023-08-23,1,,,,,ライジンケンセツ,0
1809,8030003022304,新規,0,2023-08-23,2023-08-23,ＲＥＭ合同会社,,合同会社,埼玉県,加須市,北下新井１０４番地２,,11,210,3491134,,,,,,,2023-08-23,1,,,,,アールイーエム,0
1810,8030003022345,新規,0,2023-08-23,2023-08-23,合同会社オッタントット,,合同会社,埼玉県,さいたま市中央区,上落合６丁目１７番２２－８０２号,,11,105,3380001,,,,,,,2023-08-23,1,,,,,オッタントット,0
1814,8040001129769,新規,0,2023-08-23,2023-08-23,株式会社ヘルプデスクジャパン,,株式会社,千葉県,松戸市,松戸１２９５番地の２,,12,207,2710092,,,,,,,2023-08-23,1,,,,,ヘルプデスクジャパン,0
1820,8040003023177,新規,0,2023-08-23,2023-08-23,合同会社林檎,,合同会社,千葉県,八街市,榎戸６８４番地５０ニッセキアパートメントＩＩＩ１０１,00131629,12,230,2891106,,,,,,,2023-08-23,1,,,,,リンゴ,0
1828,8080001025816,新規,0,2023-08-23,2023-08-23,コスモピアハイテック株式会社,,株式会社,静岡県,静岡市葵区,栄町５番地の１,,22,101,4200859,,,,,,,2023-08-23,1,,,,,コスモピアハイテック,0
1839,8110001037790,新規,0,2023-08-23,2023-08-23,株式会社梅澤建設,,株式会社,新潟県,新潟市中央区,堀之内南１丁目２１番３号,,15,103,9500982,,,,,,,2023-08-23,1,,,,,ウメザワケンセツ,0
1852,8120001257553,新規,0,2023-08-23,2023-08-23,株式会社Ａ’ｚｉｇ　ｓｔｕｄｉｏ,,株式会社,大阪府,大阪市西区,北堀江１丁目１０番２号クレストギザ３Ｆ,,27,106,5500014,,,,,,,2023-08-23,1,,,,,エーズィグステューディオ,0
1859,8130001074972,新規,0,2023-08-23,2023-08-23,株式会社ＭＩＴＵＫＩ,,株式会社,京都府,京都市伏見区,竹田内畑町２６９－４,,26,109,6128423,,,,,,,2023-08-23,1,,,,,ミツキ,0
1863,8130003008920,新規,0,2023-08-23,2023-08-23,合同会社モーションＨ,,合同会社,京都府,相楽郡精華町,光台４丁目３－１６,,26,366,6190237,,,,,,,2023-08-23,1,,,,,モーションエイチ,0
1866,8140001131343,新規,0,2023-08-23,2023-08-23,株式会社エコリングＣＳ,,株式会社,兵庫県,姫路市,飾磨区恵美酒２１３番地,,28,201,6728057,,,,,,,2023-08-23,1,,,,,エコリングシーエス,0
1868,8140003019462,新規,0,2023-08-23,2023-08-23,バンクシア合同会社,,合同会社,兵庫県,尼崎市,東桜木町１４４番地,,28,202,6600864,,,,,,,2023-08-23,1,,,,,バンクシア,0
1869,8140003019470,新規,0,2023-08-23,2023-08-23,Ａｓａｖ　Ｒｅｓｅａｒｃｈ合同会社,,合同会社,兵庫県,神戸市須磨区,神撫町４丁目３番４６号,,28,107,6540003,,,,,,,2023-08-23,1,,,,,エイエスヴィリサーチ,0
1875,8170001017746,新規,0,2023-08-23,2023-08-23,株式会社Ｍｅ,,株式会社,和歌山県,伊都郡かつらぎ町,大字三谷１６１５番地,,30,341,6497133,,,,,,,2023-08-23,1,,,,,ミー,0
1880,8180003025622,新規,0,2023-08-23,2023-08-23,楽知合同会社,,合同会社,愛知県,名古屋市緑区,神の倉３丁目９７番地,,23,114,4580812,,,,,,,2023-08-23,1,,,,,ラクチ,0
1881,8180003025639,新規,0,2023-08-23,2023-08-23,合同会社Ｉ・Ｔ,,合同会社,愛知県,名古屋市中区,新栄１丁目３１番１５号３Ａ,,23,106,4600007,,,,,,,2023-08-23,1,,,,,アイティ,0
1892,8200001041627,新規,0,2023-08-23,2023-08-23,株式会社Ｏｆｆｉｃｅ尊大,,株式会社,岐阜県,関市,西本郷通４丁目２番７号,,21,205,5013803,,,,,,,2023-08-23,1,,,,,オフィスタカヒロ,0
1893,8210001019432,新規,0,2023-08-23,2023-08-23,株式会社ボンエイジェンシー,,株式会社,福井県,福井市,円山１丁目６０１番社会福祉法人町屋福祉会内２階,,18,201,9188207,,,,,,,2023-08-23,1,,,,,ボンエイジェンシー,0
1899,8250005008849,新規,0,2023-08-23,2023-08-23,一般社団法人ＬＯＨＡＳ　Ｂｅａｒ,,その他の設立登記法人,山口県,熊毛郡田布施町,大字麻郷３０３６番地１３,,35,343,7421513,,,,,,,2023-08-23,1,,,,,ロハスベアー,0
1906,8290001102610,新規,0,2023-08-23,2023-08-23,インフィニティ・オルボアール株式会社,,株式会社,福岡県,糸島市,前原東２丁目１１番２号福井ビル１Ｆ,,40,230,8191119,,,,,,,2023-08-23,1,,,,,インフィニティオルボアール,0
1907,8290001102759,新規,0,2023-08-23,2023-08-23,株式会社Ｆｏｒｔｕｎｅ　Ｈｉｌｌ,,株式会社,福岡県,福岡市博多区,中洲５丁目１－２２松月堂ビル４Ｆ,,40,132,8100801,,,,,,,2023-08-23,1,,,,,フォーチュンヒル,0
1915,8310001018572,新規,0,2023-08-23,2023-08-23,株式会社トイカテック,,株式会社,長崎県,諫早市,小船越町７２６番地１７－２０２,,42,204,8540062,,,,,,,2023-08-23,1,,,,,トイカテック,0
1920,8330001031185,新規,0,2023-08-23,2023-08-23,株式会社ノースビル,,株式会社,熊本県,合志市,須屋１６２６番地１６２,,43,216,8611102,,,,,,,2023-08-23,1,,,,,ノースビル,0
1921,8340001025839,新規,0,2023-08-23,2023-08-23,株式会社Ｅ．Ｊ．Ｉ．,,株式会社,鹿児島県,鹿児島市,下荒田３丁目１７番２４－１２０２号,,46,201,8900056,,,,,,,2023-08-23,1,,,,,イージェイアイ,0
1924,8350001018528,新規,0,2023-08-23,2023-08-23,株式会社まるきた工務店,,株式会社,宮崎県,宮崎市,日ノ出町３５番地,,45,201,8800856,,,,,,,2023-08-23,1,,,,,マルキタコウムテン,0
1925,8350003004419,新規,0,2023-08-23,2023-08-23,合同会社１ｏｎ１,,合同会社,宮崎県,北諸県郡三股町,大字樺山３２６０番地なごみタウンＣ棟,,45,341,8891901,,,,,,,2023-08-23,1,,,,,ワンオーワン,0
1926,8360003013229,新規,0,2023-08-23,2023-08-23,合同会社ｎａｈａ‐ｄｅ．ａｓｏｂｕ,,合同会社,沖縄県,那覇市,字安里８０番地７,,47,201,9020067,,,,,,,2023-08-23,1,,,,,ナハデアソブ,0
1931,8400001016352,新規,0,2023-08-23,2023-08-23,Ａｌｋｕ株式会社,,株式会社,岩手県,盛岡市,南仙北１丁目１１番１７号,,03,201,0200863,,,,,,,2023-08-23,1,,,,,アルク,0
1934,8400003003134,新規,0,2023-08-23,2023-08-23,合同会社プラタナス,,合同会社,岩手県,一関市,千厩町千厩字町２０番地,00131623,03,209,0290803,,,,,,,2023-08-23,1,,,,,プラタナス,0
1942,8430001089668,新規,0,2023-08-23,2023-08-23,株式会社カネマン近藤商店,,株式会社,北海道,札幌市中央区,北七条西２２丁目３番２８号,,01,101,0600007,,,,,,,2023-08-23,1,,,,,カネマンコンドウショウテン,0
1943,8430001089825,新規,0,2023-08-23,2023-08-23,株式会社おでん,,株式会社,北海道,勇払郡厚真町,字上厚真１８番地の１,,01,581,0591741,,,,,,,2023-08-23,1,,,,,オデン,0
1947,8430003015267,新規,0,2023-08-23,2023-08-23,合同会社札幌医療コンサルティング,,合同会社,北海道,札幌市豊平区,月寒中央通１０丁目６－１８,,01,105,0620020,,,,,,,2023-08-23,1,,,,,サッポロイリョウコンサルティング,0
1958,8700150119198,新規,0,2023-08-23,2023-08-23,Ｓｈｅｎｚｈｅｎｓｈｉ　ｈａｏｆｅｎｇｊｉｎｇｍｉｄｉａｎｚｉ　ｙｏｕｘｉａｎｇｏｎｇｓｉ,,外国会社等,,,,,,,,ｇｕａｎｇｍｉｎｇｘｉｎｑｕ　ｇｏｎｇｍｉｎｇｊｉｅｄａｏｊｉａｎｇｓｈｉｓｈｅｑｕ　ｊｉａｎｇｓｈｉｄｉｙｉｇｏｎｇｙｅｑｕ１９ｄｏｎｇｗｕｌｏｕＣｑｕ　ｓｈｅｎｚｈｅｎｓｈｉ,,,,,,2023-08-23,1,,,,,シンセンシハオフェンジンミデンシユウゲンコウシ,0
1959,8700150119231,新規,0,2023-08-23,2023-08-23,ＳＨＥＮＺＨＥＮ　ＳＨＩ　ＡＮ　ＲＵＩＸＩＮ　ＴＥＣＨＮＯＬＯＧＹ　ＣＯ　ＬＴＤ,,外国会社等,,,,,,,,３０１，Ｂｕｉｌｄｉｎｇ　４，Ｈｏｎｇｈｕｉ　Ｉｎｄｕｓｔｒｉａｌ　Ｚｏｎｅ，Ｎｏ．２　Ｌｉｕｘｉａｎｓｈａｎ　Ｒｏａｄ，Ｚｏｎｅ　６８，Ｘｉｎｇｄｏｎｇ　Ｃｏｍｍｕｎｉｔｙ，Ｘｉｎ’ａｎ　Ｓｔｒｅｅｔ，Ｓｈｅｎｚｈｅｎ，Ｇｕａｎｇｄｏｎｇ,,,,,,2023-08-23,1,,,,,シンセンシアンルイシンテクノロジーカンパニーリミテッド,0
1967,9010001237763,新規,0,2023-08-23,2023-08-23,株式会社ＳＶ＆Ｃｏ．,,株式会社,東京都,千代田区,神田和泉町１番地６－１６ヤマトビル４０５,,13,101,1010024,,,,,,,2023-08-23,1,,,,,エスブイアンドコー,0
1968,9010001237838,新規,0,2023-08-23,2023-08-23,Ｌａｂ　Ｃｏｍｍｕｎｉｃａｔｉｏ株式会社,,株式会社,東京都,千代田区,五番町１２番地６,,13,101,1020076,,,,,,,2023-08-23,1,,,,,ラボコムニカチオ,0
1969,9010001237870,新規,0,2023-08-23,2023-08-23,株式会社Ｒｉｃｈ　Ｕｎｉｖｅｒｓｅ,,株式会社,東京都,中央区,東日本橋２丁目２８番４号日本橋ＣＥＴビル２階,,13,102,1030004,,,,,,,2023-08-23,1,,,,,リッチユニバース,0
1973,9010003041453,新規,0,2023-08-23,2023-08-23,合同会社やまと,,合同会社,東京都,千代田区,内神田３丁目７－１神田ＭＮビル２階,,13,101,1010047,,,,,,,2023-08-23,1,,,,,ヤマト,0
1974,9010003041486,新規,0,2023-08-23,2023-08-23,京ラボ合同会社,,合同会社,東京都,中央区,京橋２丁目１１番３号８０１,,13,102,1040031,,,,,,,2023-08-23,1,,,,,キョウラボ,0
1975,9010005037152,新規,0,2023-08-23,2023-08-23,東京建物ロジスティクスリート投資法人,,その他の設立登記法人,東京都,中央区,八重洲１丁目４番１６号,,13,102,1030028,,,,,,,2023-08-23,1,,,,,トウキョウタテモノロジスティクスリート,0
1977,9010401176693,新規,0,2023-08-23,2023-08-23,ＪＳＭＣ株式会社,,株式会社,東京都,港区,六本木１丁目６番１号,,13,103,1060032,,,,,,,2023-08-23,1,,,,,ジェイエスエムシー,0
1985,9010501050930,新規,0,2023-08-23,2023-08-23,株式会社ＴＯＮ,,株式会社,東京都,台東区,千束４丁目３１番１０号,,13,106,1110031,,,,,,,2023-08-23,1,,,,,ティーオーエヌ,0
1992,9010903008403,新規,0,2023-08-23,2023-08-23,合同会社マヌカセンス,,合同会社,東京都,世田谷区,上馬２丁目２１番７―３０３,,13,112,1540011,,,,,,,2023-08-23,1,,,,,マヌカセンス,0
1996,9011001156516,新規,0,2023-08-23,2023-08-23,株式会社ＹＯＬＩ,,株式会社,東京都,渋谷区,道玄坂１丁目１０番８号渋谷道玄坂東急ビル２Ｆ－Ｃ,,13,113,1500043,,,,,,,2023-08-23,1,,,,,ヨリ,0
1997,9011003017419,新規,0,2023-08-23,2023-08-23,Ｍｅｔａ　Ｇｕｉｌｄ　Ｓｐａｃｅ合同会社,,合同会社,東京都,目黒区,東山１丁目１２－８ビューノ東山３０１,,13,110,1530043,,,,,,,2023-08-23,1,,,,,メタギルドスペース,0
2000,9011101104119,新規,0,2023-08-23,2023-08-23,株式会社ＩＡＭ　ＣＡＴ,,株式会社,東京都,新宿区,河田町３番５１号河田町ガーデンクラブフロア３７０８号,,13,104,1620054,,,,,,,2023-08-23,1,,,,,アイアムキャット,0
2003,9011301028919,新規,0,2023-08-23,2023-08-23,サポート株式会社,,株式会社,東京都,杉並区,和田３丁目３１番１２号,,13,115,1660012,,,,,,,2023-08-23,1,,,,,サポート,0
2006,9011403004090,新規,0,2023-08-23,2023-08-23,合同会社エイコード,,合同会社,東京都,板橋区,幸町５番１３－１２０１号,,13,119,1730034,,,,,,,2023-08-23,1,,,,,エイコード,0
2010,9011503005716,新規,0,2023-08-23,2023-08-23,ＲＡＳＨＥＤＡ　ＩＮＴＥＲＮＡＴＩＯＮＡＬ合同会社,,合同会社,東京都,北区,東十条４丁目８番１３号澤田ビル２０３号室,,13,117,1140001,,,,,,,2023-08-23,1,,,,,ラシェダインターナショナル,0
2012,9011701026539,新規,0,2023-08-23,2023-08-23,株式会社グリーンストリート,,株式会社,東京都,江戸川区,一之江１丁目６番１１号,,13,123,1320024,,,,,,,2023-08-23,1,,,,,グリーンストリート,0
2014,9011801042931,新規,0,2023-08-23,2023-08-23,インタレスト株式会社,,株式会社,東京都,足立区,舎人１丁目１２番１７号,,13,121,1210831,,,,,,,2023-08-23,1,,,,,インタレスト,0
2018,9012403006135,新規,0,2023-08-23,2023-08-23,しもやま商店合同会社,,合同会社,東京都,稲城市,東長沼３１０７番地の５－１１０３号,,13,225,2060802,,,,,,,2023-08-23,1,,,,,シモヤマショウテン,0
2023,9013202011136,新規,0,2023-08-23,2023-08-23,有限会社エー・エム,,有限会社,東京都,目黒区,東が丘２丁目１４番２４号,,13,110,1520021,,,,,,,2023-08-23,1,,,,,エーエム,0
2024,9013301051248,新規,0,2023-08-23,2023-08-23,昌達株式会社,,株式会社,東京都,豊島区,南大塚２丁目１１番１０号ミモザビル３階,,13,116,1700005,,,,,,,2023-08-23,1,,,,,ショウタツ,0
2028,9020003024416,新規,0,2023-08-23,2023-08-23,トラスト合同会社,,合同会社,神奈川県,横浜市中区,福富町西通１番地７セントレー横浜関内９０６号室,,14,104,2310042,,,,,,,2023-08-23,1,,,,,トラスト,0
2039,9021003013499,新規,0,2023-08-23,2023-08-23,ソリダリテ合同会社,,合同会社,神奈川県,相模原市南区,大野台６丁目４番１－８１２号,,14,153,2520331,,,,,,,2023-08-23,1,,,,,ソリダリテ,0
2046,9030001155393,新規,0,2023-08-23,2023-08-23,株式会社バタフライ,,株式会社,埼玉県,さいたま市北区,宮原町３丁目４３２番地２岸ビル１階,,11,102,3310812,,,,,,,2023-08-23,1,,,,,バタフライ,0
2047,9030001155410,新規,0,2023-08-23,2023-08-23,Ｓｔａｒ　Ｓｋｙ株式会社,,株式会社,埼玉県,さいたま市大宮区,吉敷町１丁目６４番地１－１４０６号,,11,103,3300843,,,,,,,2023-08-23,1,,,,,スタースカイ,0
2048,9030001155427,新規,0,2023-08-23,2023-08-23,株式会社ツールサービス,,株式会社,埼玉県,北本市,荒井３丁目３４６番地,,11,233,3640026,,,,,,,2023-08-23,1,,,,,ツールサービス,0
2052,9030003022294,新規,0,2023-08-23,2023-08-23,合同会社オーツービルド,,合同会社,埼玉県,さいたま市見沼区,大字中川４３４番地１パークプラザＢ棟２０１,,11,104,3370043,,,,,,,2023-08-23,1,,,,,オーツービルド,0
2053,9030003022328,新規,0,2023-08-23,2023-08-23,東生合同会社,,合同会社,埼玉県,川口市,西川口３丁目１５－２０－７０１北町ハイツ,,11,203,3320021,,,,,,,2023-08-23,1,,,,,トウセイ,0
2054,9030003022336,新規,0,2023-08-23,2023-08-23,合同会社コネクトレンジ,,合同会社,埼玉県,朝霞市,泉水１丁目７番４３ー４０５号,,11,227,3510024,,,,,,,2023-08-23,1,,,,,コネクトレンジ,0
2069,9040003023176,新規,0,2023-08-23,2023-08-23,合同会社虹色,,合同会社,千葉県,八街市,榎戸６８４番地５０ニッセキアパートメントＩＩＩ１０１,00131628,12,230,2891106,,,,,,,2023-08-23,1,,,,,ニジイロ,0
2071,9050001053331,新規,0,2023-08-23,2023-08-23,日輪商事株式会社,,株式会社,茨城県,北茨城市,磯原町磯原２丁目２０６番地,,08,215,3191541,,,,,,,2023-08-23,1,,,,,ニチリンショウジ,0
2075,9060002019710,新規,0,2023-08-23,2023-08-23,有限会社小川製作所,,有限会社,栃木県,鹿沼市,玉田町５７３番地,,09,205,3220072,,,,,,,2023-08-23,1,,,,,オガワセイサクショ,0
2078,9080003003042,新規,0,2023-08-23,2023-08-23,ライジングＫ合同会社,,合同会社,静岡県,静岡市葵区,東町１番地の２ポレスター静岡ランドマークスクエア１００３号,,22,101,4200836,,,,,,,2023-08-23,1,,,,,ライジングケイ,0
2080,9080403004854,新規,0,2023-08-23,2023-08-23,Ａａｉｒａ　Ｔｒａｄｉｎｇ合同会社,,合同会社,静岡県,浜松市東区,龍光町２３３番地,,22,132,4350029,,,,,,,2023-08-23,1,,,,,アイラトレーディング,0
2089,9120001257437,新規,0,2023-08-23,2023-08-23,東方テクニカル株式会社,,株式会社,大阪府,大阪市西成区,太子２丁目３番１５号,,27,122,5570002,,,,,,,2023-08-23,1,,,,,トウホウテクニカル,0
2090,9120001257544,新規,0,2023-08-23,2023-08-23,株式会社誠翔築炉,,株式会社,大阪府,大阪市大正区,泉尾２丁目２３番７号,,27,108,5510031,,,,,,,2023-08-23,1,,,,,セイショウチクロ,0
2091,9120001257552,新規,0,2023-08-23,2023-08-23,株式会社ＥＮＣＡ,,株式会社,大阪府,大阪市此花区,春日出南２丁目５番３３号,,27,104,5540023,,,,,,,2023-08-23,1,,,,,エンカ,0
2092,9120001257577,新規,0,2023-08-23,2023-08-23,株式会社フォトバース,,株式会社,大阪府,大阪市北区,梅田１丁目１－３大阪駅前第３ビル２９階１－１－１号室,,27,127,5300001,,,,,,,2023-08-23,1,,,,,フォトバース,0
2102,9120103005396,新規,0,2023-08-23,2023-08-23,３Ｍｏｎｋｅｙｓ合同会社,,合同会社,大阪府,泉大津市,戎町８－４,,27,206,5950041,,,,,,,2023-08-23,1,,,,,スリーモンキーズ,0
2104,9120901012362,新規,0,2023-08-23,2023-08-23,株式会社ＮＥＯＭＡＸバリオ,,株式会社,大阪府,三島郡島本町,江川２丁目１５番１７号,,27,301,6180013,,,,,,,2023-08-23,1,,,,,ネオマックスバリオ,0
2106,9122001037307,新規,0,2023-08-23,2023-08-23,株式会社ほうれんそう,,株式会社,大阪府,八尾市,郡川４丁目１８０番地,,27,212,5810872,,,,,,,2023-08-23,1,,,,,ホウレンソウ,0
2115,9130001075012,新規,0,2023-08-23,2023-08-23,Ｈｅａｒｔ‐ｅａｒｔＨ株式会社,,株式会社,京都府,向日市,上植野町北ノ田１６番地１３,,26,208,6170006,,,,,,,2023-08-23,1,,,,,ハートアース,0
2121,9140001131350,新規,0,2023-08-23,2023-08-23,株式会社ＲＯＫＯＢＥ,,株式会社,兵庫県,神戸市中央区,磯上通８丁目１－２９－４０３,,28,110,6510086,,,,,,,2023-08-23,1,,,,,ロコベ,0
2124,9170001017745,新規,0,2023-08-23,2023-08-23,ＥＡＳＴ　ＳＴＡＲ　ＴＥＣＨＮＯＬＯＧＹ株式会社,,株式会社,和歌山県,岩出市,中黒２２７番地の６,,30,209,6496248,,,,,,,2023-08-23,1,,,,,イーストスターテクノロジー,0
2129,9180001157739,新規,0,2023-08-23,2023-08-23,株式会社中村耐火,,株式会社,愛知県,小牧市,中央１丁目３３５ステージ中央５０１,,23,219,4850029,,,,,,,2023-08-23,1,,,,,ナカムラタイカ,0
2141,9200001041626,新規,0,2023-08-23,2023-08-23,株式会社フルレバ,,株式会社,岐阜県,岐阜市,琴塚３丁目２１番１１号,00131636,21,201,5008222,,,,,,,2023-08-23,1,,,,,フルレバ,0
2146,9220001025569,新規,0,2023-08-23,2023-08-23,エム・ストリーム株式会社,,株式会社,石川県,羽咋市,兵庫町カ２５番地１１,,17,207,9250046,,,,,,,2023-08-23,1,,,,,エムストリーム,0
2154,9270003001555,新規,0,2023-08-23,2023-08-23,Ｂ・ＳＡＩクロス合同会社,,合同会社,鳥取県,米子市,富益町８２－２４,,31,202,6830103,,,,,,,2023-08-23,1,,,,,ビサイクロス,0
2161,9330001031192,新規,0,2023-08-23,2023-08-23,株式会社高山,00131626,株式会社,熊本県,菊池市,重味１４２番地,,43,210,8611682,,,,,,,2023-08-23,1,,,,,コウヤマ,0
2171,9360003013228,新規,0,2023-08-23,2023-08-23,Ｃｉｇｎａｌｓ合同会社,,合同会社,沖縄県,沖縄市,中央１丁目１６番９号ギークハウス沖縄,,47,211,9040004,,,,,,,2023-08-23,1,,,,,シグナルズ,0
2177,9410005006538,新規,0,2023-08-23,2023-08-23,米代東部苗木生産協同組合,,その他の設立登記法人,秋田県,大館市,比内町新館字屋布１０５番地,,05,204,0185712,,,,,,,2023-08-23,1,,,,,,0
2181,9430001089824,新規,0,2023-08-23,2023-08-23,株式会社テクニカル美装,,株式会社,北海道,札幌市白石区,菊水元町二条２丁目４番１－２０６号,,01,104,0030822,,,,,,,2023-08-23,1,,,,,テクニカルビソウ,0
2187,9460101007427,新規,0,2023-08-23,2023-08-23,株式会社ＮＥＳＰＯ,,株式会社,北海道,帯広市,西十八条南５丁目１３番地５ラヴィータＣ号室,,01,207,0800028,,,,,,,2023-08-23,1,,,,,ネスポ,0
2194,9700150119197,新規,0,2023-08-23,2023-08-23,ＳＨＥＮＺＨＥＮＳＨＩ　ＷＡＮＳＨＥＮＧＧＵＯＪＩＭＡＯＹＩ　ＹＯＵＸＩＡＮＧＯＮＧＳＩ,,外国会社等,,,,,,,,ＳＨＥＮＺＨＥＮＳＨＩ　ＬＯＮＧＨＵＡＸＩＮＱＵ　ＬＯＮＧＨＵＡＪＩＥＤＡＯ　ＳＨＡＮＧＹＯＵＳＯＮＧＣＵＮ　ＳＨＡＮＧＹＯＵＧＯＮＧＧＵＡＮ　１８０１,,,,,,2023-08-23,1,,,,,シンセンシワンセンゴオジマオイユウゲンコウシ,0
2195,9700150119230,新規,0,2023-08-23,2023-08-23,ＧｕｉＤｏｎｇＸｉａｎ　ＫａＤｅｎＳｈｏｕＤａｉ　ＹｏｕＸｉａｎＧｏｎｇＳｉ,,外国会社等,,,,,,,,ＧｕｉＤｏｎｇＸｉａｎ　ＯｕＪｉａｎｇＺｈｅｎ　ＯｕＣａｉＣｕｎ　ＬｕｏＪｉａＺｕ,,,,,,2023-08-23,1,,,,,グゥイドンシェンカデンソオダイユウゲンコウシ,0
