sequenceNumber,corporateNumber,process,correct,updateDate,changeDate,name,nameImageId,kind,prefectureName,cityName,streetNumber,addressImageId,prefectureCode,cityCode,postCode,addressOutside,addressOutsideImageId,closeDate,closeCause,successorCorporateNumber,changeCause,assignmentDate,latest,enName,enPrefectureName,enCityName,enAddressOutside,furigana,hihyoji
4,1010001224380,新規,0,2022-02-08,2022-02-08,株式会社日本中央研修会,,株式会社,東京都,千代田区,平河町２丁目８番１０号,,13,101,1020093,,,,,,,2022-02-08,1,,,,,ニホンチュウオウケンシュウカイ,0
31,1010401165423,新規,0,2022-02-08,2022-02-08,株式会社ＢＨＤ,,株式会社,東京都,港区,南麻布２丁目２－１３,,13,103,1060047,,,,,,,2022-02-08,1,,,,,ビーエイチディ,0
32,1010401165456,新規,0,2022-02-08,2022-02-08,ＩＣＯＮ　Ｄｉｇｉｔａｌ　Ａｇｅｎｃｙ株式会社,,株式会社,東京都,港区,赤坂３丁目９番２号Ｎｏ．Ｒ赤坂見附８階,,13,103,1070052,,,,,,,2022-02-08,1,,,,,アイコンデジタルエージェンシー,0
33,1010403027035,新規,0,2022-02-08,2022-02-08,合同会社リアルゴールド,,合同会社,東京都,港区,港南３丁目７番１０－１６０４号,,13,103,1080075,,,,,,,2022-02-08,1,,,,,リアルゴールド,0
34,1010403027051,新規,0,2022-02-08,2022-02-08,ＲＢソーラーエーリス合同会社,,合同会社,東京都,港区,虎ノ門３丁目２２番１０－２０１号,,13,103,1050001,,,,,,,2022-02-08,1,,,,,アールビーソーラーエーリス,0
36,1010405020673,新規,0,2022-02-08,2022-02-08,ＲＢソーラーリオホールディングス一般社団法人,,その他の設立登記法人,東京都,港区,虎ノ門３丁目２２番１０－２０１号,,13,103,1050001,,,,,,,2022-02-08,1,,,,,アールビーソーラーリオホールディングス,0
49,1010601060647,新規,0,2022-02-08,2022-02-08,株式会社ホライズンアカウンティング,,株式会社,東京都,江東区,有明３丁目５番７号ＴＯＣ有明イーストタワー７階,,13,108,1350063,,,,,,,2022-02-08,1,,,,,ホライズンアカウンティング,0
54,1011001145534,新規,0,2022-02-08,2022-02-08,株式会社クリエイト・コンサルティング,,株式会社,東京都,渋谷区,神南１丁目１２番１４号,,13,113,1500041,,,,,,,2022-02-08,1,,,,,クリエイトコンサルティング,0
55,1011001145542,新規,0,2022-02-08,2022-02-08,株式会社ヘニオス,,株式会社,東京都,渋谷区,桜丘町２３番１７号シティコート桜丘４０８,,13,113,1500031,,,,,,,2022-02-08,1,,,,,ヘニオス,0
56,1011001145567,新規,0,2022-02-08,2022-02-08,株式会社レットビット,,株式会社,東京都,渋谷区,渋谷２丁目１９番１５号宮益坂ビルディング６０９,,13,113,1500002,,,,,,,2022-02-08,1,,,,,レットビット,0
62,1011101097741,新規,0,2022-02-08,2022-02-08,株式会社ＲＡＭＩ,,株式会社,東京都,新宿区,新小川町５番４号ＮＩＣビル３階,,13,104,1620814,,,,,,,2022-02-08,1,,,,,,0
67,1011201023606,新規,0,2022-02-08,2022-02-08,株式会社ＨＥＸＥＬ　ＭＡＮＡＧＥＭＥＮＴ,,株式会社,東京都,中野区,中央１丁目４４番８号,,13,114,1640011,,,,,,,2022-02-08,1,,,,,ヘクセルマネジメント,0
77,1011403003562,新規,0,2022-02-08,2022-02-08,合同会社Ｋｉｎｄｗｏｒｄｓ,,合同会社,東京都,板橋区,南常盤台１丁目１１番６号レフア南常盤台１０１,,13,119,1740072,,,,,,,2022-02-08,1,,,,,カインドワーズ,0
80,1011501027736,新規,0,2022-02-08,2022-02-08,株式会社俊美,,株式会社,東京都,荒川区,南千住７丁目７番２号,,13,118,1160003,,,,,,,2022-02-08,1,,,,,シュンビ,0
83,1011701025036,新規,0,2022-02-08,2022-02-08,株式会社リルームプロ,,株式会社,東京都,江戸川区,東葛西９丁目１２番８ー３０１号,,13,123,1340084,,,,,,,2022-02-08,1,,,,,リルームプロ,0
86,1011803004961,新規,0,2022-02-08,2022-02-08,栄盛合同会社,,合同会社,東京都,足立区,島根２丁目３０番１８号１Ｆ,,13,121,1210815,,,,,,,2022-02-08,1,,,,,エイセイ,0
96,1020001145114,新規,0,2022-02-08,2022-02-08,株式会社ホープフルライフ,,株式会社,神奈川県,横浜市青葉区,あざみ野１丁目８番３号,,14,117,2250011,,,,,,,2022-02-08,1,,,,,ホープフルライフ,0
97,1020001145139,新規,0,2022-02-08,2022-02-08,株式会社ＬＴＰ,,株式会社,神奈川県,横浜市西区,北幸１丁目１１番１号水信ビル７階,,14,103,2200004,,,,,,,2022-02-08,1,,,,,,0
98,1020001145163,新規,0,2022-02-08,2022-02-08,株式会社マルミ美装工芸,,株式会社,神奈川県,横浜市泉区,上飯田町９４９－２ヒルスミキいずみ中央別棟２階,,14,116,2450018,,,,,,,2022-02-08,1,,,,,マルミビソウコウゲイ,0
112,1030001146706,新規,0,2022-02-08,2022-02-08,株式会社ＧｉｆｔＦｒｏｍ,,株式会社,埼玉県,ふじみ野市,川崎２丁目１番地１５,,11,245,3560001,,,,,,,2022-02-08,1,,,,,ギフトフロム,0
113,1030001146722,新規,0,2022-02-08,2022-02-08,株式会社ヒナイズム,,株式会社,埼玉県,さいたま市大宮区,土手町１丁目２番ＪＡ共済埼玉ビル２階,,11,103,3300801,,,,,,,2022-02-08,1,,,,,ヒナイズム,0
114,1030001146730,新規,0,2022-02-08,2022-02-08,株式会社サクラシステムズ,,株式会社,埼玉県,所沢市,東所沢和田２丁目１７番地の１０－４０２,,11,208,3590023,,,,,,,2022-02-08,1,,,,,サクラシステムズ,0
115,1030001146739,新規,0,2022-02-08,2022-02-08,株式会社コネクテッドマインド,,株式会社,埼玉県,越谷市,大字増林４５７２番地１,,11,222,3430011,,,,,,,2022-02-08,1,,,,,コネクテッドマインド,0
118,1030003018820,新規,0,2022-02-08,2022-02-08,サロンドスポーツ合同会社,,合同会社,埼玉県,上尾市,浅間台４丁目１１－１３,,11,219,3620073,,,,,,,2022-02-08,1,,,,,サロンドスポーツ,0
127,1040003019462,新規,0,2022-02-08,2022-02-08,合同会社ＮＥＯマイライフ,,合同会社,千葉県,市川市,堀之内５丁目２３番５号,,12,203,2720837,,,,,,,2022-02-08,1,,,,,ネオマイライフ,0
130,1070005009946,新規,0,2022-02-08,2022-02-08,マキ行政書士法人,,その他の設立登記法人,群馬県,前橋市,総社町総社１２２９番地３,,10,201,3710852,,,,,,,2022-02-08,1,,,,,マキ,0
136,1100001035042,新規,0,2022-02-08,2022-02-08,株式会社Ｊｕｎｋａｎみらい,,株式会社,長野県,伊那市,高遠町小原５８６番地１,,20,209,3960215,,,,,,,2022-02-08,1,,,,,ジュンカンミライ,0
140,1100005012822,新規,0,2022-02-08,2022-02-08,一般社団法人諏訪流儀,,その他の設立登記法人,長野県,諏訪市,大字中洲４２１番地,,20,206,3920015,,,,,,,2022-02-08,1,,,,,スワリュウギ,0
158,1120001242834,新規,0,2022-02-08,2022-02-08,株式会社ＮＹ,,株式会社,大阪府,大阪市福島区,鷺洲１丁目２番８－５０２号,,27,103,5530002,,,,,,,2022-02-08,1,,,,,エヌワイ,0
159,1120001243601,新規,0,2022-02-08,2022-02-08,株式会社エムエーアール,,株式会社,大阪府,寝屋川市,新家１丁目５番１２号,,27,215,5720812,,,,,,,2022-02-08,1,,,,,エムエーアール,0
160,1120001243700,新規,0,2022-02-08,2022-02-08,株式会社アップフィールド,,株式会社,大阪府,大阪市西成区,南津守１丁目１番７号,,27,122,5570063,,,,,,,2022-02-08,1,,,,,アップフィールド,0
161,1120001243733,新規,0,2022-02-08,2022-02-08,株式会社ダイナモ,,株式会社,大阪府,大阪市淀川区,十三元今里２丁目７番１０号２Ｆ,,27,123,5320028,,,,,,,2022-02-08,1,,,,,ダイナモ,0
165,1120003021105,新規,0,2022-02-08,2022-02-08,エイトリアルエステート合同会社,,合同会社,大阪府,大阪市淀川区,西三国３丁目９番１９号,,27,123,5320006,,,,,,,2022-02-08,1,,,,,エイトリアルエステート,0
169,1120101065053,新規,0,2022-02-08,2022-02-08,株式会社文化遺産情報研究所,,株式会社,大阪府,泉南郡熊取町,南山の手台１８－１,,27,361,5900453,,,,,,,2022-02-08,1,,,,,ブンカイサンジョウホウケンキュウジョ,0
172,1122001035573,新規,0,2022-02-08,2022-02-08,ＴＭ株式会社,,株式会社,大阪府,東大阪市,柏田西２丁目１８番２０号,,27,227,5770835,,,,,,,2022-02-08,1,,,,,ティーエム,0
177,1130003007739,新規,0,2022-02-08,2022-02-08,合同会社ＨＡＪＩＭＥ,,合同会社,京都府,城陽市,平川長筬１２番地の２９,,26,207,6100101,,,,,,,2022-02-08,1,,,,,ハジメ,0
184,1140003017324,新規,0,2022-02-08,2022-02-08,Ｒトレード合同会社,,合同会社,兵庫県,宝塚市,清荒神１丁目２番９－１０４号,,28,214,6650836,,,,,,,2022-02-08,1,,,,,アールトレード,0
186,1140005026034,新規,0,2022-02-08,2022-02-08,一般社団法人地域病院活性化機構,,その他の設立登記法人,兵庫県,神戸市中央区,浜辺通５丁目１番１４号神戸商工貿易センタービル８１１号室,,28,110,6510083,,,,,,,2022-02-08,1,,,,,チイキビョウインカッセイカキコウ,0
200,1180001149875,新規,0,2022-02-08,2022-02-08,株式会社ＭＡＧ．Ｕプランニング,,株式会社,愛知県,春日井市,石尾台３丁目１番地６,,23,206,4870006,,,,,,,2022-02-08,1,,,,,マグプランニング,0
201,1180001149900,新規,0,2022-02-08,2022-02-08,株式会社中村建設,,株式会社,愛知県,名古屋市守山区,瀬古東１丁目２４３番地,,23,113,4630090,,,,,,,2022-02-08,1,,,,,ナカムラケンセツ,0
202,1180001149917,新規,0,2022-02-08,2022-02-08,ナナマルハチ株式会社,,株式会社,愛知県,春日井市,浅山町４丁目６番３１号,,23,206,4860857,,,,,,,2022-02-08,1,,,,,ナナマルハチ,0
203,1180001149925,新規,0,2022-02-08,2022-02-08,株式会社Ｔｕｄｏ　ｄｅ　ｂｏｍ,,株式会社,愛知県,名古屋市北区,織部町１番地の１４,,23,103,4620864,,,,,,,2022-02-08,1,,,,,トゥードジボン,0
213,1190001029110,新規,0,2022-02-08,2022-02-08,ＴＲＡＮ　ＮＧＵＹＥＮ株式会社,,株式会社,三重県,桑名市,大字東方３３４番地１サンローヤル桑名１０６号,,24,205,5110811,,,,,,,2022-02-08,1,,,,,チャングエン,0
216,1190003003897,新規,0,2022-02-08,2022-02-08,合同会社Ｈ．Ｒ．Ｄ．,,合同会社,三重県,桑名市,大字西方小谷２４１１番地,,24,205,5110864,,,,,,,2022-02-08,1,,,,,エイッチアールディ,0
218,1200001039735,新規,0,2022-02-08,2022-02-08,和想健株式会社,,株式会社,岐阜県,岐阜市,中西郷１丁目１９番地１３,,21,201,5011177,,,,,,,2022-02-08,1,,,,,ワソケン,0
224,1240001059300,新規,0,2022-02-08,2022-02-08,株式会社旅人,,株式会社,広島県,安芸郡府中町,石井城１丁目５番３１号,,34,302,7350007,,,,,,,2022-02-08,1,,,,,タビト,0
240,1290001096363,新規,0,2022-02-08,2022-02-08,株式会社タノプロ,,株式会社,福岡県,福岡市西区,姪の浜２丁目１３番１４号石橋ビル１０１号室,,40,135,8190002,,,,,,,2022-02-08,1,,,,,タノプロ,0
242,1290003012129,新規,0,2022-02-08,2022-02-08,合同会社ＨＡＮＤＡ,,合同会社,福岡県,小郡市,三沢１２５－４７,,40,216,8380106,,,,,,,2022-02-08,1,,,,,ハンダ,0
265,1360003011791,新規,0,2022-02-08,2022-02-08,合同会社Ｓｗａｎ　Ａｃａｄｅｍｙ,,合同会社,沖縄県,浦添市,牧港５丁目５番５－６０６号グランシャリオ,,47,208,9012131,,,,,,,2022-02-08,1,,,,,スワンアカデミー,0
301,2010401165414,新規,0,2022-02-08,2022-02-08,ＡＧ株式会社,,株式会社,東京都,港区,芝３丁目６番９号,,13,103,1050014,,,,,,,2022-02-08,1,,,,,エージー,0
302,2010401165496,新規,0,2022-02-08,2022-02-08,株式会社リーテックリゾート,,株式会社,東京都,港区,新橋２丁目１３番６号,,13,103,1050004,,,,,,,2022-02-08,1,,,,,リーテックリゾート,0
305,2010403027042,新規,0,2022-02-08,2022-02-08,合同会社Ｔｅｌｌ,,合同会社,東京都,港区,浜松町２丁目２番１５号,,13,103,1050013,,,,,,,2022-02-08,1,,,,,テル,0
306,2010403027050,新規,0,2022-02-08,2022-02-08,ＲＢソーラーリブラ合同会社,,合同会社,東京都,港区,虎ノ門３丁目２２番１０－２０１号,,13,103,1050001,,,,,,,2022-02-08,1,,,,,アールビーソーラーリブラ,0
308,2010405020664,新規,0,2022-02-08,2022-02-08,一般社団法人寿東会,,その他の設立登記法人,東京都,港区,西麻布１丁目１１番６号８階,,13,103,1060031,,,,,,,2022-02-08,1,,,,,ジュトウカイ,0
309,2010405020672,新規,0,2022-02-08,2022-02-08,ＲＢソーラートーラスホールディングス一般社団法人,,その他の設立登記法人,東京都,港区,虎ノ門３丁目２２番１０－２０１号,,13,103,1050001,,,,,,,2022-02-08,1,,,,,アールビーソーラートーラスホールディングス,0
314,2010603009385,新規,0,2022-02-08,2022-02-08,エスケイテクノ合同会社,,合同会社,東京都,墨田区,石原４丁目１２番２号,,13,107,1300011,,,,,,,2022-02-08,1,,,,,エスケイテクノ,0
316,2010701042197,新規,0,2022-02-08,2022-02-08,株式会社ＵＱＩＹＯ,,株式会社,東京都,品川区,西大井６丁目１３番２０号ＺＥＳＴＹ西大井４０３,,13,109,1400015,,,,,,,2022-02-08,1,,,,,ウキヨ,0
323,2010905004258,新規,0,2022-02-08,2022-02-08,特定非営利活動法人親子サポート一本の樹,,その他の設立登記法人,東京都,世田谷区,新町１丁目３２番１２号,,13,112,1540014,,,,,,,2022-02-08,1,,,,,オヤコサポートイッポンノキ,0
331,2011001145509,新規,0,2022-02-08,2022-02-08,株式会社ＪＹＡＭ,,株式会社,東京都,渋谷区,宇田川町３番７号ヒューリック渋谷公園通りビル５Ｆ－２８,,13,113,1500042,,,,,,,2022-02-08,1,,,,,ジェーワイエーエム,0
334,2011003014158,新規,0,2022-02-08,2022-02-08,合同会社デルフィ,,合同会社,東京都,渋谷区,円山町５番５号,,13,113,1500044,,,,,,,2022-02-08,1,,,,,デルフィ,0
346,2012301012877,新規,0,2022-02-08,2022-02-08,株式会社ＳＮＯＷＨＥＲＥ,,株式会社,東京都,町田市,南町田３丁目３６番２５号,,13,209,1940005,,,,,,,2022-02-08,1,,,,,スノーウェア,0
347,2012403005234,新規,0,2022-02-08,2022-02-08,合同会社ドット,,合同会社,東京都,多摩市,豊ヶ丘１丁目４４－４３,,13,224,2060031,,,,,,,2022-02-08,1,,,,,ドット,0
349,2013101008842,新規,0,2022-02-08,2022-02-08,株式会社Ｓｓｉｍａホールディングス,,株式会社,東京都,西多摩郡日の出町,大字平井１５番地１０,,13,305,1900182,,,,,,,2022-02-08,1,,,,,シーマホールディングス,0
361,2020001145138,新規,0,2022-02-08,2022-02-08,株式会社キューエスエス,,株式会社,神奈川県,横浜市都筑区,川和町１２２０番地Ａ－１０２号,,14,118,2240057,,,,,,,2022-02-08,1,,,,,キューエスエス,0
362,2020001145146,新規,0,2022-02-08,2022-02-08,騰運株式会社,,株式会社,神奈川県,川崎市川崎区,池田１丁目２番１６－７０１号,,14,131,2100022,,,,,,,2022-02-08,1,,,,,トウウン,0
363,2020001145162,新規,0,2022-02-08,2022-02-08,株式会社ピックユー,,株式会社,神奈川県,横浜市青葉区,梅が丘１１番地３ラヴィーン梅が丘２０１,,14,117,2270052,,,,,,,2022-02-08,1,,,,,ピックユー,0
367,2020003021262,新規,0,2022-02-08,2022-02-08,合同会社ブレイブ,,合同会社,神奈川県,横浜市金沢区,柴町３４３番地７,,14,108,2360012,,,,,,,2022-02-08,1,,,,,ブレイブ,0
368,2020005015378,新規,0,2022-02-08,2022-02-08,特定非営利活動法人こどものじかん,,その他の設立登記法人,神奈川県,横浜市鶴見区,佃野町１９－３－２０１,,14,101,2300061,,,,,,,2022-02-08,1,,,,,コドモノジカン,0
373,2021003011369,新規,0,2022-02-08,2022-02-08,合同会社Ｏｆｆｉｃｅ　Ｇ,,合同会社,神奈川県,藤沢市,打戻２５７９番地１,,14,205,2520824,,,,,,,2022-02-08,1,,,,,オフィスジー,0
380,2030001146713,新規,0,2022-02-08,2022-02-08,株式会社夢,,株式会社,埼玉県,鶴ヶ島市,大字脚折１３９８－４４シティパレス脚折１５、１０６号,,11,241,3502213,,,,,,,2022-02-08,1,,,,,ユメ,0
383,2040001122168,新規,0,2022-02-08,2022-02-08,株式会社コクア,,株式会社,千葉県,千葉市若葉区,小倉町８４５番地１号,,12,104,2640007,,,,,,,2022-02-08,1,,,,,コクア,0
385,2040003019445,新規,0,2022-02-08,2022-02-08,合同会社ＮＲ,,合同会社,千葉県,船橋市,夏見台３丁目５番１８号,,12,204,2730866,,,,,,,2022-02-08,1,,,,,エヌアール,0
386,2040003019461,新規,0,2022-02-08,2022-02-08,合同会社ＬＵＸ,,合同会社,千葉県,千葉市中央区,栄町１９番６号小沼ビル２階,,12,101,2600016,,,,,,,2022-02-08,1,,,,,ラックス,0
392,2070001038923,新規,0,2022-02-08,2022-02-08,株式会社ＡＲＡＩＳＥ,,株式会社,群馬県,高崎市,連雀町１０４番地ＳＵＺＵＭＥ・ＢＬＤＧ４Ｆ・Ｃ－１号室,,10,202,3700826,,,,,,,2022-02-08,1,,,,,アライズ,0
402,2100003006387,新規,0,2022-02-08,2022-02-08,合同会社Ｓｔｅｐ　Ｆｏｒｗａｒｄ,,合同会社,長野県,上伊那郡南箕輪村,３９８－１メロウカーサＢ２０２,,20,385,3994511,,,,,,,2022-02-08,1,,,,,ステップフォワード,0
407,2110001036419,新規,0,2022-02-08,2022-02-08,株式会社マモル屋根外装板金,,株式会社,新潟県,柏崎市,南半田１４番７号,,15,205,9450813,,,,,,,2022-02-08,1,,,,,マモルヤネガイソウバンキン,0
414,2120001243740,新規,0,2022-02-08,2022-02-08,ＰＥＥＬ　Ｌａｂ株式会社,,株式会社,大阪府,大阪市中央区,南船場２丁目３番６号第一住建長堀橋駅前ビル２階,,27,128,5420081,,,,,,,2022-02-08,1,,,,,ピールラボ,0
418,2120003021087,新規,0,2022-02-08,2022-02-08,合同会社ノコノコ,,合同会社,大阪府,大阪市北区,中崎西１丁目８番３号,,27,127,5300015,,,,,,,2022-02-08,1,,,,,ノコノコ,0
423,2120101065052,新規,0,2022-02-08,2022-02-08,株式会社ＳＴＹＬＵＳ,,株式会社,大阪府,堺市堺区,向陵東町３丁８番１－３０１号,,27,141,5900025,,,,,,,2022-02-08,1,,,,,スタイラス,0
426,2120901045550,新規,0,2022-02-08,2022-02-08,株式会社村上電気,,株式会社,大阪府,高槻市,古曽部町２丁目１０番１０－６０８号,,27,207,5691115,,,,,,,2022-02-08,1,,,,,ムラカミデンキ,0
445,2140001124798,新規,0,2022-02-08,2022-02-08,株式会社アイボリーライフ,,株式会社,兵庫県,西宮市,上甲子園４丁目８番９号,,28,204,6638114,,,,,,,2022-02-08,1,,,,,アイボリーライフ,0
452,2140005026033,新規,0,2022-02-08,2022-02-08,一般社団法人ｂｅｌｌｅ　ｖｉｅ,,その他の設立登記法人,兵庫県,神戸市東灘区,御影中町２丁目１番１６号,,28,101,6580054,,,,,,,2022-02-08,1,,,,,ベルヴィ,0
462,2200003005453,新規,0,2022-02-08,2022-02-08,合同会社飛祥運送,,合同会社,岐阜県,下呂市,萩原町尾崎９５８番地１２２,,21,220,5092508,,,,,,,2022-02-08,1,,,,,ヒショウウンソウ,0
488,2330005010463,新規,0,2022-02-08,2022-02-08,一般社団法人ひかわツーリズムクラブ,,その他の設立登記法人,熊本県,八代郡氷川町,高塚１３３６番地１,,43,468,8694802,,,,,,,2022-02-08,1,,,,,ヒカワツーリズムクラブ,0
491,2340001024490,新規,0,2022-02-08,2022-02-08,Ｔｅａｍｓ　ｆｏｏｄｓ株式会社,,株式会社,鹿児島県,鹿児島市,与次郎２丁目６番７－４０２号,,46,201,8900062,,,,,,,2022-02-08,1,,,,,チームズフーズ,0
495,2360001029975,新規,0,2022-02-08,2022-02-08,株式会社丸英産業,,株式会社,沖縄県,石垣市,字新川２２５３番地,,47,207,9070024,,,,,,,2022-02-08,1,,,,,マルエイサンギョウ,0
496,2360001029983,新規,0,2022-02-08,2022-02-08,株式会社シマトミ不動産,,株式会社,沖縄県,宮古島市,平良字下里１３８２番地５,,47,214,9060013,,,,,,,2022-02-08,1,,,,,シマトミフドウサン,0
497,2360003011790,新規,0,2022-02-08,2022-02-08,合同会社読谷モバイル,,合同会社,沖縄県,中頭郡読谷村,字高志保１３１７番地Ｙ’ｓヴューテラス１０２号,,47,324,9040323,,,,,,,2022-02-08,1,,,,,ヨミタンモバイル,0
500,2380001032556,新規,0,2022-02-08,2022-02-08,株式会社Ｇｌｉｔｔｅｒ　ｌｉｆｅ　＆　Ｃｏ．,,株式会社,福島県,白河市,新白河１丁目９番１０,,07,205,9610856,,,,,,,2022-02-08,1,,,,,グリッターライフアンドカンパニー,0
501,2380001032564,新規,0,2022-02-08,2022-02-08,ＭＩＹＡＢＩ・Ｔ＆Ｈ株式会社,,株式会社,福島県,福島市,本内字南町裏１５番地の３,,07,201,9600103,,,,,,,2022-02-08,1,,,,,ミヤビティーアンドエイチ,0
516,2460301005039,新規,0,2022-02-08,2022-02-08,株式会社はなプラス,,株式会社,北海道,北見市,桜町６丁目１番地１,,01,208,0900804,,,,,,,2022-02-08,1,,,,,ハナプラス,0
518,2470003002127,新規,0,2022-02-08,2022-02-08,Ｖａｌｕｈａｎｃｅ創匯合同会社,,合同会社,香川県,高松市,木太町３６２８番地２長村マンション３０３,,37,201,7600080,,,,,,,2022-02-08,1,,,,,バリューハンスソウワイ,0
519,2480003001788,新規,0,2022-02-08,2022-02-08,合同会社太陽,,合同会社,徳島県,小松島市,櫛渕町字中田１３１番地,00125655,36,203,7730018,,,,,,,2022-02-08,1,,,,,タイヨウ,0
522,2490001010113,新規,0,2022-02-08,2022-02-08,ひととコネクト株式会社,,株式会社,高知県,高知市,新屋敷２丁目１番２２号,,39,201,7800911,,,,,,,2022-02-08,1,,,,,ヒトトコネクト,0
532,3010001224379,新規,0,2022-02-08,2022-02-08,東京インキュベーション株式会社,,株式会社,東京都,中央区,日本橋１丁目４番１号,,13,102,1030027,,,,,,,2022-02-08,1,,,,,トウキョウインキュベーション,0
533,3010001224445,新規,0,2022-02-08,2022-02-08,株式会社Ｔｅｓｏｒｏ　ｄａｔａ,,株式会社,東京都,中央区,日本橋蛎殻町１丁目６番１号第３彦田ビル３階,,13,102,1030014,,,,,,,2022-02-08,1,,,,,テソロデータ,0
535,3010003036970,新規,0,2022-02-08,2022-02-08,ＭＩＲＲＯＲ　ＣＵＢＥ合同会社,,合同会社,東京都,千代田区,九段南１丁目５番６号りそな九段ビル５ＦＫＳフロア,,13,101,1020074,,,,,,,2022-02-08,1,,,,,ミラーキューブ,0
536,3010005034576,新規,0,2022-02-08,2022-02-08,一般社団法人デジタルトラスト協議会,,その他の設立登記法人,東京都,千代田区,内幸町１丁目３番１号,,13,101,1000011,,,,,,,2022-02-08,1,,,,,デジタルトラストキョウギカイ,0
544,3010401165413,新規,0,2022-02-08,2022-02-08,株式会社オロ,,株式会社,東京都,港区,芝３丁目６番９号,,13,103,1050014,,,,,,,2022-02-08,1,,,,,オロ,0
545,3010401165446,新規,0,2022-02-08,2022-02-08,Ｍａｎｕｋａ　Ｄｏｃｔｏｒ　Ｊａｐａｎ株式会社,,株式会社,東京都,港区,南麻布３丁目１９番２３号オーク南麻布ビル２階,,13,103,1060047,,,,,,,2022-02-08,1,,,,,マヌカドクタージャパン,0
552,3010703006109,新規,0,2022-02-08,2022-02-08,合同会社クロワッサン,,合同会社,東京都,品川区,西大井１丁目１４－１０ＦＡＲＥ西大井４０２,,13,109,1400015,,,,,,,2022-02-08,1,,,,,クロワッサン,0
559,3010901050321,新規,0,2022-02-08,2022-02-08,浦野商事株式会社,,株式会社,東京都,世田谷区,代田６丁目１４番３号,,13,112,1550033,,,,,,,2022-02-08,1,,,,,ウラノショウジ,0
563,3011001145400,新規,0,2022-02-08,2022-02-08,株式会社ＷＲＷ,,株式会社,東京都,渋谷区,千駄ヶ谷３丁目４番２４－２０３,,13,113,1510051,,,,,,,2022-02-08,1,,,,,ダブルアールダブル,0
564,3011001145540,新規,0,2022-02-08,2022-02-08,株式会社ＭｅＷｅ,,株式会社,東京都,渋谷区,代々木１丁目４５番１号日商代々木ビルＢ１Ｆ,,13,113,1510053,,,,,,,2022-02-08,1,,,,,ミーウィー,0
568,3011003014124,新規,0,2022-02-08,2022-02-08,合同会社Ｎｅｘｔ　ｇｅｎｅｒａｔｉｏｎ,,合同会社,東京都,渋谷区,神宮前６丁目２３番４号桑野ビル２Ｆ,,13,113,1500001,,,,,,,2022-02-08,1,,,,,ネクストジェネレーション,0
585,3011601025729,新規,0,2022-02-08,2022-02-08,浜田電工株式会社,,株式会社,東京都,練馬区,北町１丁目４４番３－５０６号,,13,120,1790081,,,,,,,2022-02-08,1,,,,,ハマダデンコウ,0
588,3011701025034,新規,0,2022-02-08,2022-02-08,株式会社湾岸荷役輸送,,株式会社,東京都,江戸川区,東葛西６丁目１５番１－２０５号,,13,123,1340084,,,,,,,2022-02-08,1,,,,,ワンガンニエキユソウ,0
591,3011805003142,新規,0,2022-02-08,2022-02-08,一般社団法人アイヌルヤキーン,,その他の設立登記法人,東京都,足立区,谷中３丁目１６番６号,,13,121,1200006,,,,,,,2022-02-08,1,,,,,アイヌルヤキーン,0
592,3012301012876,新規,0,2022-02-08,2022-02-08,株式会社東京芝生メンテナンス,,株式会社,東京都,町田市,南町田１丁目１１番１１号,,13,209,1940005,,,,,,,2022-02-08,1,,,,,トウキョウシバフメンテナンス,0
594,3012401038838,新規,0,2022-02-08,2022-02-08,ウィンタッチ株式会社,,株式会社,東京都,府中市,清水が丘３丁目２６番３号ピアクレスト２０５室,,13,206,1830015,,,,,,,2022-02-08,1,,,,,ウィンタッチ,0
602,3020001145120,新規,0,2022-02-08,2022-02-08,ＴＴ株式会社,,株式会社,神奈川県,横浜市戸塚区,汲沢町３７６番地４０,,14,110,2450062,,,,,,,2022-02-08,1,,,,,ティーティー,0
603,3020001145137,新規,0,2022-02-08,2022-02-08,株式会社ｋｙｌｅ７,,株式会社,神奈川県,横浜市西区,北幸１丁目１１番１号水信ビル７階,,14,103,2200004,,,,,,,2022-02-08,1,,,,,カイルセブン,0
604,3020001145145,新規,0,2022-02-08,2022-02-08,株式会社Ａｌｅｘ,,株式会社,神奈川県,横浜市港北区,樽町２丁目１２－３７,,14,109,2220001,,,,,,,2022-02-08,1,,,,,アレックス,0
605,3020001145161,新規,0,2022-02-08,2022-02-08,株式会社ＳＯＵエデュケイション,,株式会社,神奈川県,横浜市西区,高島２丁目１０番１３号横浜東口ビル９０８,,14,103,2200011,,,,,,,2022-02-08,1,,,,,エスオーユーエデュケイション,0
610,3020003021253,新規,0,2022-02-08,2022-02-08,合同会社Ｖｅｒｄｅ　ｍａｒｅ,,合同会社,神奈川県,川崎市高津区,二子２丁目１６－１,,14,134,2130002,,,,,,,2022-02-08,1,,,,,ヴェルデマーレ,0
611,3020003021278,新規,0,2022-02-08,2022-02-08,合同会社和,,合同会社,神奈川県,横浜市西区,みなとみらい４丁目１０－２ＭＭｔｏｗｅｒｓｔｈｅｓｏｕｔｈ３００５号室,,14,103,2200012,,,,,,,2022-02-08,1,,,,,ナゴミ,0
619,3021003011368,新規,0,2022-02-08,2022-02-08,合同会社ｕｔａｔａｎｅ,,合同会社,神奈川県,横須賀市,長井６丁目１０－１,,14,201,2380316,,,,,,,2022-02-08,1,,,,,ウタタネ,0
620,3030001146712,新規,0,2022-02-08,2022-02-08,株式会社ＢＩＭ　ＩＮＴＥＲＮＡＴＩＯＮＡＬ,,株式会社,埼玉県,鶴ヶ島市,大字上広谷１３２－９かすみコーポ２０２,,11,241,3502203,,,,,,,2022-02-08,1,,,,,ビムインターナショナル,0
621,3030001146729,新規,0,2022-02-08,2022-02-08,株式会社ｍａｆ,,株式会社,埼玉県,所沢市,泉町１８４２番地の２８,,11,208,3591112,,,,,,,2022-02-08,1,,,,,マフ,0
623,3030003018819,新規,0,2022-02-08,2022-02-08,合同会社ワンブレイク,,合同会社,埼玉県,草加市,手代１丁目１８番３５号,,11,221,3400021,,,,,,,2022-02-08,1,,,,,ワンブレイク,0
626,3040001122076,新規,0,2022-02-08,2022-02-08,株式会社Ｗ＆Ｉディベロップメント,,株式会社,千葉県,佐倉市,西志津５丁目８番１号,,12,212,2850845,,,,,,,2022-02-08,1,,,,,ダブリューアンドアイディベロップメント,0
627,3040001122126,新規,0,2022-02-08,2022-02-08,株式会社なたね工房,,株式会社,千葉県,千葉市花見川区,西小中台２番２０号２０４号室,,12,102,2620016,,,,,,,2022-02-08,1,,,,,ナタネコウボウ,0
628,3040003019460,新規,0,2022-02-08,2022-02-08,合同会社ＳＭＣ,,合同会社,千葉県,市川市,幸２丁目１－１－３０８,,12,203,2720123,,,,,,,2022-02-08,1,,,,,エスエムシー,0
630,3050001050598,新規,0,2022-02-08,2022-02-08,株式会社コネクト,,株式会社,茨城県,東茨城郡城里町,大字錫高野２６３０－２０１,,08,310,3114335,,,,,,,2022-02-08,1,,,,,コネクト,0
631,3050003006359,新規,0,2022-02-08,2022-02-08,合同会社黒龍’Ｈｙｂｒｉｄ　Ｉｎｃ．,,合同会社,茨城県,取手市,谷中５８２番地１０,,08,217,3001532,,,,,,,2022-02-08,1,,,,,コクリュウハイブリッドインク,0
639,3100001035049,新規,0,2022-02-08,2022-02-08,株式会社ＳＥＩＥＩ,,株式会社,長野県,塩尻市,大字柿沢５３２番地,,20,215,3990722,,,,,,,2022-02-08,1,,,,,セイエイ,0
653,3120001243723,新規,0,2022-02-08,2022-02-08,株式会社Ｍｔ．Ｓｕｎ,,株式会社,大阪府,大阪市北区,天満１丁目１２番８－６０１号,,27,127,5300043,,,,,,,2022-02-08,1,,,,,マウントサン,0
664,3120901045558,新規,0,2022-02-08,2022-02-08,株式会社ノーヴィス,,株式会社,大阪府,豊中市,上新田２丁目２４番２５－４０１号,,27,203,5600085,,,,,,,2022-02-08,1,,,,,ノーヴィス,0
665,3120903004025,新規,0,2022-02-08,2022-02-08,北摂厚生合同会社,,合同会社,大阪府,豊中市,永楽荘３丁目１番１２号,,27,203,5600051,,,,,,,2022-02-08,1,,,,,ホクセツコウセイ,0
682,3140005026032,新規,0,2022-02-08,2022-02-08,一般社団法人ナガイマネジメント事務所,,その他の設立登記法人,兵庫県,芦屋市,船戸町５番２６号マリアキャリーヌビル,,28,206,6590093,,,,,,,2022-02-08,1,,,,,ナガイマネジメントジムショ,0
687,3180001149907,新規,0,2022-02-08,2022-02-08,株式会社ベルテックスワン,,株式会社,愛知県,名古屋市天白区,福池１丁目３０２番地－２０２号,,23,116,4680049,,,,,,,2022-02-08,1,,,,,ベルテックスワン,0
705,3240001059307,新規,0,2022-02-08,2022-02-08,株式会社キンキホーム総合管理,,株式会社,広島県,広島市中区,西十日市町８番６号２階,,34,101,7300806,,,,,,,2022-02-08,1,,,,,キンキホームソウゴウカンリ,0
720,3290001096353,新規,0,2022-02-08,2022-02-08,株式会社ゴルフランドウエスト,,株式会社,福岡県,太宰府市,観世音寺１丁目１８番２７号,,40,221,8180101,,,,,,,2022-02-08,1,,,,,ゴルフランドウエスト,0
730,3310005008582,新規,0,2022-02-08,2022-02-08,一般社団法人日本占術鑑定士協会,,その他の設立登記法人,長崎県,長崎市,浜町９番２号,,42,201,8500853,,,,,,,2022-02-08,1,,,,,ニホンセンジュツカンテイシキョウカイ,0
738,3330005010462,新規,0,2022-02-08,2022-02-08,一般社団法人フリージア熊本,,その他の設立登記法人,熊本県,熊本市東区,西原１丁目９番６号,,43,102,8618029,,,,,,,2022-02-08,1,,,,,フリージアクマモト,0
742,3340005009405,新規,0,2022-02-08,2022-02-08,一般社団法人日本フードスプレッド協会,,その他の設立登記法人,鹿児島県,出水市,汐見町３７８番地,,46,208,8990136,,,,,,,2022-02-08,1,,,,,ニホンフードスプレッドキョウカイ,0
744,3360001029990,新規,0,2022-02-08,2022-02-08,株式会社ヨコタ電工,,株式会社,沖縄県,那覇市,字国場９４６番地,,47,201,9020075,,,,,,,2022-02-08,1,,,,,ヨコタデンコウ,0
750,3380001032563,新規,0,2022-02-08,2022-02-08,株式会社あらた,,株式会社,福島県,西白河郡泉崎村,大字泉崎字上狐山１２番地１,,07,464,9690101,,,,,,,2022-02-08,1,,,,,アラタ,0
753,3430001085969,新規,0,2022-02-08,2022-02-08,株式会社ホームリンク,,株式会社,北海道,札幌市東区,北二十二条東８丁目２番２号カーサ雅フロンティア美香保２０３号,,01,103,0650022,,,,,,,2022-02-08,1,,,,,ホームリンク,0
755,3450001013614,新規,0,2022-02-08,2022-02-08,株式会社米農民,,株式会社,北海道,旭川市,旭町一条２０丁目２１７３番地の１００,,01,204,0700831,,,,,,,2022-02-08,1,,,,,マイノウミン,0
760,3470001018966,新規,0,2022-02-08,2022-02-08,株式会社ＲＩＳＥ,,株式会社,香川県,坂出市,川津町３６５１番地１０,,37,203,7620025,,,,,,,2022-02-08,1,,,,,ライズ,0
783,4010001223537,新規,0,2022-02-08,2022-02-08,株式会社がんゲノム研究所,,株式会社,東京都,中央区,築地７丁目１８番２８－１１３５号,,13,102,1040045,,,,,,,2022-02-08,1,,,,,,0
790,4010005034567,新規,0,2022-02-08,2022-02-08,一般社団法人ＷＨＩＴＥ,,その他の設立登記法人,東京都,千代田区,霞が関３丁目２番５号,,13,101,1000013,,,,,,,2022-02-08,1,,,,,ホワイト,0
798,4010401165429,新規,0,2022-02-08,2022-02-08,ＬＳ－ＳＨＩＰ第２７号株式会社,,株式会社,東京都,港区,六本木１丁目６番１号,,13,103,1060032,,,,,,,2022-02-08,1,,,,,エルエスシップダイニジュウナナゴウ,0
799,4010401165445,新規,0,2022-02-08,2022-02-08,ＪＯＩＮ－ＩＮ　ＪＡＰＡＮ　ＰＲＯＰＥＲＴＹ株式会社,,株式会社,東京都,港区,赤坂２丁目１２－２１ディアシティ赤坂西館２０６,,13,103,1070052,,,,,,,2022-02-08,1,,,,,ジョインエンジャパンプロパティー,0
801,4010403027049,新規,0,2022-02-08,2022-02-08,ＲＢソーラーリオ合同会社,,合同会社,東京都,港区,虎ノ門３丁目２２番１０－２０１号,,13,103,1050001,,,,,,,2022-02-08,1,,,,,アールビーソーラーリオ,0
802,4010501048434,新規,0,2022-02-08,2022-02-08,株式会社ＩＮＧ,,株式会社,東京都,台東区,寿３丁目２０－７－１０１,,13,106,1110042,,,,,,,2022-02-08,1,,,,,アイエヌジー,0
803,4010503006497,新規,0,2022-02-08,2022-02-08,Ｔｏｙ・Ｃａｒｇｏ合同会社,,合同会社,東京都,台東区,千束３丁目２７番１２－１１０５号ジェノヴィア浅草ＩＩスカイガーデン,00125657,13,106,1110031,,,,,,,2022-02-08,1,,,,,トイカーゴ,0
819,4011001145481,新規,0,2022-02-08,2022-02-08,株式会社ｆａｂｉ,,株式会社,東京都,渋谷区,道玄坂２丁目１５番１号ノア道玄坂９１５,,13,113,1500043,,,,,,,2022-02-08,1,,,,,ファビ,0
820,4011001145548,新規,0,2022-02-08,2022-02-08,株式会社エススラッシュ,,株式会社,東京都,渋谷区,神宮前２丁目３４番１７号住友不動産原宿ビル,,13,113,1500001,,,,,,,2022-02-08,1,,,,,エススラッシュ,0
824,4011101097763,新規,0,2022-02-08,2022-02-08,株式会社ジェットストリーム,,株式会社,東京都,新宿区,西新宿３丁目３番１３号西新宿水間ビル６階,,13,104,1600023,,,,,,,2022-02-08,1,,,,,ジェットストリーム,0
837,4011701025033,新規,0,2022-02-08,2022-02-08,ＴＧテック株式会社,,株式会社,東京都,江戸川区,東小松川１丁目８番１３－４０３号,,13,123,1320033,,,,,,,2022-02-08,1,,,,,ティージーテック,0
846,4012301012875,新規,0,2022-02-08,2022-02-08,株式会社エルシア,,株式会社,東京都,町田市,原町田５丁目３番６号クレールＴＰ２０１,,13,209,1940013,,,,,,,2022-02-08,1,,,,,エルシア,0
847,4012303001637,新規,0,2022-02-08,2022-02-08,合同会社環境地建,,合同会社,東京都,町田市,原町田２丁目４番３号,,13,209,1940013,,,,,,,2022-02-08,1,,,,,カンキョウチケン,0
849,4012401038845,新規,0,2022-02-08,2022-02-08,株式会社ｉｃｈｉｉｂａ,,株式会社,東京都,調布市,調布ケ丘１丁目５番１号西１１号館,,13,208,1820021,,,,,,,2022-02-08,1,,,,,イチバ,0
851,4012701016922,新規,0,2022-02-08,2022-02-08,株式会社輝紀,,株式会社,東京都,東村山市,青葉町２丁目２２番地５３,,13,213,1890002,,,,,,,2022-02-08,1,,,,,キキ,0
858,4013303006023,新規,0,2022-02-08,2022-02-08,合同会社ＯＣ,,合同会社,東京都,豊島区,北大塚１丁目２７番６号,,13,116,1700004,,,,,,,2022-02-08,1,,,,,オーシー,0
863,4020001145061,新規,0,2022-02-08,2022-02-08,株式会社裕豊,,株式会社,神奈川県,川崎市多摩区,東三田３丁目６－２３フォレスト三田４０９号,,14,135,2140033,,,,,,,2022-02-08,1,,,,,ユウホウ,0
864,4020001145086,新規,0,2022-02-08,2022-02-08,ＫＤＫアカデミー株式会社,,株式会社,神奈川県,川崎市多摩区,中野島５丁目２番３９－５０６号,,14,135,2140012,,,,,,,2022-02-08,1,,,,,,0
865,4020001145128,新規,0,2022-02-08,2022-02-08,株式会社ＤＭＣファスナーズ,,株式会社,神奈川県,横浜市中区,山手町３１番地１山手町ハイム３０３号室,,14,104,2310862,,,,,,,2022-02-08,1,,,,,ディーエムシーファスナーズ,0
866,4020001145144,新規,0,2022-02-08,2022-02-08,株式会社ＣＨＡＴＯＮ,,株式会社,神奈川県,横浜市保土ケ谷区,狩場町２６番地９５,,14,106,2400025,,,,,,,2022-02-08,1,,,,,シャトン,0
867,4020001145160,新規,0,2022-02-08,2022-02-08,ネクストテラス株式会社,,株式会社,神奈川県,川崎市多摩区,登戸２４３２番地１ＢｌｕｅｗａｔｅｒＢｕｉｌｄｉｎｇ６Ｆ,,14,135,2140014,,,,,,,2022-02-08,1,,,,,ネクストテラス,0
868,4020003021260,新規,0,2022-02-08,2022-02-08,ＴＫＬ合同会社,,合同会社,神奈川県,川崎市川崎区,本町１丁目３番地３,,14,131,2100001,,,,,,,2022-02-08,1,,,,,ティーケーエル,0
873,4021001075109,新規,0,2022-02-08,2022-02-08,株式会社ミライへ,,株式会社,神奈川県,大和市,中央林間２丁目９－５,,14,213,2420007,,,,,,,2022-02-08,1,,,,,ミライヘ,0
880,4030001146414,新規,0,2022-02-08,2022-02-08,株式会社ＭＡＫＡＶＥＬＩ,,株式会社,埼玉県,草加市,氷川町２１７３番１１－２０７号,,11,221,3400034,,,,,,,2022-02-08,1,,,,,マキャベリー,0
881,4030001146744,新規,0,2022-02-08,2022-02-08,ベコ株式会社,,株式会社,埼玉県,川口市,芝下２丁目２３番９号,,11,203,3330848,,,,,,,2022-02-08,1,,,,,ベコ,0
882,4030003018818,新規,0,2022-02-08,2022-02-08,太郎農園合同会社,,合同会社,埼玉県,加須市,不動岡５２０番地,,11,210,3470054,,,,,,,2022-02-08,1,,,,,タロウノウエン,0
890,4050001050597,新規,0,2022-02-08,2022-02-08,ＨＹＳ株式会社,,株式会社,茨城県,猿島郡五霞町,大字小手指２５３０番地,,08,542,3060315,,,,,,,2022-02-08,1,,,,,エイチワイエス,0
902,4100001035048,新規,0,2022-02-08,2022-02-08,ＫＯＳＨＩルミエール株式会社,,株式会社,長野県,松本市,大字里山辺３７０１番地,,20,202,3900221,,,,,,,2022-02-08,1,,,,,コシルミエール,0
913,4120001243706,新規,0,2022-02-08,2022-02-08,株式会社ａｎｏｓｓｙ,,株式会社,大阪府,大阪市中央区,南船場４丁目１０番５号南船場ＳＯＨＯビル７０２,,27,128,5420081,,,,,,,2022-02-08,1,,,,,アノッシイ,0
914,4120001243714,新規,0,2022-02-08,2022-02-08,株式会社工営,,株式会社,大阪府,大阪市北区,豊崎１丁目１１番２５号,,27,127,5310072,,,,,,,2022-02-08,1,,,,,コウエイ,0
915,4120001243730,新規,0,2022-02-08,2022-02-08,株式会社ボルト,,株式会社,大阪府,大阪市北区,西天満５丁目９－１０－３０４号,,27,127,5300047,,,,,,,2022-02-08,1,,,,,ボルト,0
920,4120101065050,新規,0,2022-02-08,2022-02-08,日昇産業株式会社,,株式会社,大阪府,泉北郡忠岡町,忠岡北１丁目８番１８号,,27,341,5950811,,,,,,,2022-02-08,1,,,,,ニッショウサンギョウ,0
922,4120901045581,新規,0,2022-02-08,2022-02-08,株式会社ＡＺ企画,,株式会社,大阪府,茨木市,天王２丁目７番１７号サンエイビル２階,,27,211,5670876,,,,,,,2022-02-08,1,,,,,アズキカク,0
923,4120905006282,新規,0,2022-02-08,2022-02-08,一般社団法人全国モータースポーツ推進協会,,その他の設立登記法人,大阪府,池田市,渋谷１丁目３番２１号,,27,204,5630028,,,,,,,2022-02-08,1,,,,,ゼンコクモータースポーツスイシンキョウカイ,0
927,4130001071098,新規,0,2022-02-08,2022-02-08,株式会社中道内装,,株式会社,京都府,長岡京市,井ノ内南内畑２７番地１０,,26,209,6170813,,,,,,,2022-02-08,1,,,,,ナカミチナイソウ,0
936,4140001124796,新規,0,2022-02-08,2022-02-08,株式会社神戸シティ鑑定舎,,株式会社,兵庫県,神戸市東灘区,森北町６丁目６番２２号,,28,101,6580001,,,,,,,2022-02-08,1,,,,,コウベシティカンテイシャ,0
938,4150001025309,新規,0,2022-02-08,2022-02-08,株式会社Ａｌｌ　ｆｏｒ　ｏｎｅ,,株式会社,奈良県,大和高田市,大字市場７３７番地４,,29,202,6350074,,,,,,,2022-02-08,1,,,,,オールフォーワン,0
939,4150001025317,新規,0,2022-02-08,2022-02-08,株式会社ホクト,,株式会社,奈良県,五條市,五條１丁目４番１９号,,29,207,6370042,,,,,,,2022-02-08,1,,,,,ホクト,0
940,4160001023988,新規,0,2022-02-08,2022-02-08,株式会社ジェイオーイー,,株式会社,滋賀県,湖南市,菩提寺北４丁目４番６号,,25,211,5203246,,,,,,,2022-02-08,1,,,,,ジェイオーイー,0
941,4160003002494,新規,0,2022-02-08,2022-02-08,合同会社縁起,,合同会社,滋賀県,草津市,西大路町８番１４号,,25,206,5250037,,,,,,,2022-02-08,1,,,,,エンギ,0
951,4180001149872,新規,0,2022-02-08,2022-02-08,日和株式会社,,株式会社,愛知県,豊明市,阿野町稲葉７３番地８,,23,229,4701144,,,,,,,2022-02-08,1,,,,,ヒヨリ,0
952,4180001149906,新規,0,2022-02-08,2022-02-08,株式会社日本計測機器リース,,株式会社,愛知県,名古屋市西区,中小田井２丁目１９５番地フローラタウン６０１号,,23,104,4520822,,,,,,,2022-02-08,1,,,,,ニホンケイソクキキリース,0
957,4180003023448,新規,0,2022-02-08,2022-02-08,合同会社ＧＬＡＮＺ,,合同会社,愛知県,名古屋市北区,上飯田南町２丁目３７番地,,23,103,4620804,,,,,,,2022-02-08,1,,,,,ゴドウガイシャグランツ,0
970,4220003003206,新規,0,2022-02-08,2022-02-08,合同会社ＩＯＡ,,合同会社,石川県,金沢市,久安１丁目４３９番地,,17,201,9218164,,,,,,,2022-02-08,1,,,,,アイオーエー,0
973,4230001019228,新規,0,2022-02-08,2022-02-08,株式会社ＭＪプロモート,,株式会社,富山県,富山市,長附４００番地１５,,16,201,9392255,,,,,,,2022-02-08,1,,,,,エムジェープロモート,0
985,4290001096369,新規,0,2022-02-08,2022-02-08,ＪＰＮ　ＩＮＶＥＳＴＭＥＮＴ　ＭＡＮＡＧＥＭＥＮＴ株式会社,,株式会社,福岡県,福岡市博多区,榎田１丁目２番１８－２０４号,,40,132,8120004,,,,,,,2022-02-08,1,,,,,ジャパンインベストメントマネジメント,0
991,4300001012803,新規,0,2022-02-08,2022-02-08,株式会社日當リ,,株式会社,佐賀県,佐賀市,大和町大字尼寺２５７８番地１ユメックスマンション大和ＩＩ９０３号,00125662,41,201,8400201,,,,,,,2022-02-08,1,,,,,ヒアタリ,0
999,4340003003706,新規,0,2022-02-08,2022-02-08,合同会社Ｌｉｆｅ　Ｓｔａｇｅ,,合同会社,鹿児島県,鹿児島市,西田２丁目２０番８号山野ビル５０３,,46,201,8900046,,,,,,,2022-02-08,1,,,,,ライフステージ,0
1000,4340005009395,新規,0,2022-02-08,2022-02-08,一般社団法人アマミアンエコシステム,,その他の設立登記法人,鹿児島県,大島郡龍郷町,幾里７０番地１７,,46,527,8940332,,,,,,,2022-02-08,1,,,,,アマミアンエコシステム,0
1010,4380001032562,新規,0,2022-02-08,2022-02-08,株式会社ＬＩＮＫ,,株式会社,福島県,郡山市,大槻町字針生９８番地,,07,203,9630201,,,,,,,2022-02-08,1,,,,,リンク,0
1017,4430001085968,新規,0,2022-02-08,2022-02-08,ザ・ファーストボンド株式会社,,株式会社,北海道,札幌市中央区,南一条東５丁目７番地１グレートヒル大通１５０１号,,01,101,0600051,,,,,,,2022-02-08,1,,,,,ザファーストボンド,0
1018,4460103001424,新規,0,2022-02-08,2022-02-08,合同会社ＦＵＪＩＷＡ,,合同会社,北海道,帯広市,西八条南９丁目１２－５,,01,207,0800018,,,,,,,2022-02-08,1,,,,,フジワ,0
1034,5010001224410,新規,0,2022-02-08,2022-02-08,株式会社語り路,,株式会社,東京都,中央区,銀座１丁目２２番１１号銀座大竹ビジデンス２階,,13,102,1040061,,,,,,,2022-02-08,1,,,,,カタリジ,0
1036,5010005034558,新規,0,2022-02-08,2022-02-08,榊特定目的会社,,その他の設立登記法人,東京都,千代田区,霞が関３丁目２番５号,,13,101,1000013,,,,,,,2022-02-08,1,,,,,サカキ,0
1049,5010401165428,新規,0,2022-02-08,2022-02-08,ＬＳ－ＳＨＩＰ第２８号株式会社,,株式会社,東京都,港区,六本木１丁目６番１号,,13,103,1060032,,,,,,,2022-02-08,1,,,,,エルエスシップダイニジュウハチゴウ,0
1050,5010401165444,新規,0,2022-02-08,2022-02-08,ＢＭＳ　Ｊａｐａｎ株式会社,,株式会社,東京都,港区,南麻布３丁目１９番２３号オーク南麻布ビル２階,,13,103,1060047,,,,,,,2022-02-08,1,,,,,ビーエムエスジャパン,0
1052,5010403026990,新規,0,2022-02-08,2022-02-08,Ｒｅｔｈｉｎｋ合同会社,,合同会社,東京都,港区,南青山２丁目２番１５号ウィン青山９４２,,13,103,1070062,,,,,,,2022-02-08,1,,,,,リシンク,0
1053,5010403027048,新規,0,2022-02-08,2022-02-08,ＲＢソーラートーラス合同会社,,合同会社,東京都,港区,虎ノ門３丁目２２番１０－２０１号,,13,103,1050001,,,,,,,2022-02-08,1,,,,,アールビーソーラートーラス,0
1054,5010405020678,新規,0,2022-02-08,2022-02-08,ＵＩ　Ｋｏｎａｎ　Ｋａｎｓａｉ２一般社団法人,,その他の設立登記法人,東京都,港区,元赤坂１丁目１番７号,,13,103,1070051,,,,,,,2022-02-08,1,,,,,ユーアイコナンカンサイツー,0
1056,5010501048425,新規,0,2022-02-08,2022-02-08,ＫＱＳＣｌｏｕｄ株式会社,,株式会社,東京都,台東区,清川２丁目８番９号２階,,13,106,1110022,,,,,,,2022-02-08,1,,,,,キュッスクラウド,0
1061,5010601060619,新規,0,2022-02-08,2022-02-08,株式会社ｗａｌｋｉｅ－ｔａｌｋｉｅ,,株式会社,東京都,江東区,亀戸５丁目２６番５号,,13,108,1360071,,,,,,,2022-02-08,1,,,,,ウォーキートーキー,0
1062,5010603009382,新規,0,2022-02-08,2022-02-08,合同会社墨田印刷所,,合同会社,東京都,墨田区,八広５丁目３番１５号,,13,107,1310041,,,,,,,2022-02-08,1,,,,,スミダインサツジョ,0
1075,5011001145497,新規,0,2022-02-08,2022-02-08,株式会社Ｑｕｅｔｚａｌ,,株式会社,東京都,渋谷区,神宮前３丁目２０－９ｗａｖｅビル３Ｆ,,13,113,1500001,,,,,,,2022-02-08,1,,,,,ケツァール,0
1076,5011001145539,新規,0,2022-02-08,2022-02-08,株式会社ビタミンＷ,,株式会社,東京都,渋谷区,円山町１０番１３号フラット円山３－Ｂ,,13,113,1500044,,,,,,,2022-02-08,1,,,,,ビタミンワタル,0
1078,5011003013891,新規,0,2022-02-08,2022-02-08,合同会社クナド,,合同会社,東京都,渋谷区,代々木３丁目１３－１０代々木三丁目事務所Ｂ２０１,,13,113,1510053,,,,,,,2022-02-08,1,,,,,クナド,0
1079,5011003014139,新規,0,2022-02-08,2022-02-08,合同会社コンサルＫ,,合同会社,東京都,渋谷区,代官山町８番７号Ｄａｉｗａ代官山ビル,,13,113,1500034,,,,,,,2022-02-08,1,,,,,コンサルケイ,0
1081,5011101097746,新規,0,2022-02-08,2022-02-08,ＫＤＳ株式会社,,株式会社,東京都,新宿区,西新宿７丁目５番５号Ｐｌａｚａ西新宿ＵＣＦ４０６,,13,104,1600023,,,,,,,2022-02-08,1,,,,,ケーディーエス,0
1083,5011201023619,新規,0,2022-02-08,2022-02-08,株式会社ユナイトワークス,,株式会社,東京都,中野区,中野４丁目３番１－６０６号,,13,114,1640001,,,,,,,2022-02-08,1,,,,,ユナイトワークス,0
1086,5011403003559,新規,0,2022-02-08,2022-02-08,合同会社ｃａｒｏ,,合同会社,東京都,板橋区,東新町１丁目３４番９号,,13,119,1740074,,,,,,,2022-02-08,1,,,,,カーロ,0
1089,5011501027732,新規,0,2022-02-08,2022-02-08,周藤産業株式会社,,株式会社,東京都,北区,豊島１丁目６番９号中村ビル４０２号,,13,117,1140003,,,,,,,2022-02-08,1,,,,,シュウトウサンギョウ,0
1090,5011503005067,新規,0,2022-02-08,2022-02-08,合同会社泰夫,,合同会社,東京都,北区,浮間３丁目１８番２号望月荘２０２号,,13,117,1150051,,,,,,,2022-02-08,1,,,,,ヤスオ,0
1091,5011601025727,新規,0,2022-02-08,2022-02-08,株式会社ＥＰ－ｒｅｙ,,株式会社,東京都,練馬区,早宮１丁目４２番８号,,13,120,1790085,,,,,,,2022-02-08,1,,,,,イーピーレイ,0
1094,5011701025040,新規,0,2022-02-08,2022-02-08,株式会社ＡＫＩＹＡ,,株式会社,東京都,江戸川区,松江２丁目９番１４号,,13,123,1320025,,,,,,,2022-02-08,1,,,,,アキヤ,0
1102,5012401038836,新規,0,2022-02-08,2022-02-08,株式会社ＯＡＴＨ,,株式会社,東京都,武蔵野市,吉祥寺本町２丁目３１番６号,,13,203,1800004,,,,,,,2022-02-08,1,,,,,オース,0
1119,5020001145119,新規,0,2022-02-08,2022-02-08,株式会社ＵＬＵ,,株式会社,神奈川県,横浜市泉区,緑園７丁目３番地２,,14,116,2450002,,,,,,,2022-02-08,1,,,,,ウル,0
1120,5020001145143,新規,0,2022-02-08,2022-02-08,株式会社ヴァルキリー,,株式会社,神奈川県,横浜市中区,羽衣町２丁目８番地１パークハビオ６０１,,14,104,2310047,,,,,,,2022-02-08,1,,,,,ヴァルキリー,0
1124,5020003021276,新規,0,2022-02-08,2022-02-08,合同会社アクロシード,,合同会社,神奈川県,横浜市旭区,本宿町１０５番地５０,,14,112,2410023,,,,,,,2022-02-08,1,,,,,アクロシード,0
1126,5021001075132,新規,0,2022-02-08,2022-02-08,継志株式会社,,株式会社,神奈川県,中郡大磯町,国府本郷９０番地,,14,341,2590111,,,,,,,2022-02-08,1,,,,,ケイシ,0
1127,5021003011382,新規,0,2022-02-08,2022-02-08,合同会社美田,,合同会社,神奈川県,相模原市南区,南台５丁目１７番７号,,14,153,2520314,,,,,,,2022-02-08,1,,,,,ビデン,0
1130,5030001146710,新規,0,2022-02-08,2022-02-08,ＳＣＨＡＦＴ株式会社,,株式会社,埼玉県,羽生市,東６丁目６番地８東６丁目倉庫付事務所１０２号室,,11,216,3480052,,,,,,,2022-02-08,1,,,,,シャフト,0
1131,5030001146743,新規,0,2022-02-08,2022-02-08,株式会社桐宗工業,,株式会社,埼玉県,鴻巣市,境７９番地１５,,11,217,3650013,,,,,,,2022-02-08,1,,,,,キリムネコウギョウ,0
1143,5040003019442,新規,0,2022-02-08,2022-02-08,合同会社ＳＵＭＩＴＨ　ＥＮＴＥＲＰＲＩＳＥＳ,,合同会社,千葉県,香取郡神崎町,郡１３０７番地１－１０６,,12,342,2890202,,,,,,,2022-02-08,1,,,,,スミツトエンタープライズ,0
1144,5050001050596,新規,0,2022-02-08,2022-02-08,株式会社ＳＨＥＮ　ＲＯＹＡＬ,,株式会社,茨城県,坂東市,長須１５９３番地,,08,228,3060645,,,,,,,2022-02-08,1,,,,,,0
1165,5110001036424,新規,0,2022-02-08,2022-02-08,株式会社Ｔ－Ｂｅｔｚ,,株式会社,新潟県,新潟市西区,青山１丁目１７番１５号,,15,107,9502002,,,,,,,2022-02-08,1,,,,,ティーベッツ,0
1173,5120001243663,新規,0,2022-02-08,2022-02-08,株式会社コプロス,,株式会社,大阪府,大阪市西区,新町３丁目５番１０－１１０６号,,27,106,5500013,,,,,,,2022-02-08,1,,,,,コプロス,0
1174,5120001243688,新規,0,2022-02-08,2022-02-08,株式会社福さん,,株式会社,大阪府,大阪市城東区,今福西１丁目９－７,,27,118,5360004,,,,,,,2022-02-08,1,,,,,フクサン,0
1178,5120003021101,新規,0,2022-02-08,2022-02-08,酸熱ラボ合同会社,,合同会社,大阪府,大阪市北区,神山町９－５,,27,127,5300026,,,,,,,2022-02-08,1,,,,,サンネツラボ,0
1194,5130003007611,新規,0,2022-02-08,2022-02-08,Ｍｙ　Ｒｅｂｅｌ　Ｒｅｂｅｌｓ合同会社,,合同会社,京都府,京都市上京区,芦山寺通大宮西入東社町３２７番地,00125656,26,102,6028417,,,,,,,2022-02-08,1,,,,,マイレベルレベルズ,0
1195,5130003007743,新規,0,2022-02-08,2022-02-08,合同会社Ｗｉｎｎｅｒ　Ｇｌｏｂａｌ１号,,合同会社,京都府,京都市南区,東九条室町２３番地,,26,107,6018001,,,,,,,2022-02-08,1,,,,,ウィナーグローバルイチゴウ,0
1205,5140001124738,新規,0,2022-02-08,2022-02-08,株式会社ハーリー企画ＫＯＢＥ,,株式会社,兵庫県,神戸市兵庫区,下沢通１丁目４番６号,,28,105,6520047,,,,,,,2022-02-08,1,,,,,ハーリーキカクコウベ,0
1206,5140001124861,新規,0,2022-02-08,2022-02-08,ｆｉｄａ株式会社,,株式会社,兵庫県,西宮市,老松町１１番２３－３０５号,,28,204,6620085,,,,,,,2022-02-08,1,,,,,フィーダ,0
1207,5140003017312,新規,0,2022-02-08,2022-02-08,合同会社そら,,合同会社,兵庫県,高砂市,今市２丁目１３番３８号,,28,216,6760003,,,,,,,2022-02-08,1,,,,,ソラ,0
1208,5140003017337,新規,0,2022-02-08,2022-02-08,Ｄｉｐｔｉｅ合同会社,,合同会社,兵庫県,神戸市灘区,日尾町２丁目２－１１六甲第２ビル３階北,,28,102,6570029,,,,,,,2022-02-08,1,,,,,ディプティー,0
1222,5180001149913,新規,0,2022-02-08,2022-02-08,株式会社ＴＮＭＳ,,株式会社,愛知県,名古屋市守山区,瀬古東３丁目６０３番地の１,,23,113,4630090,,,,,,,2022-02-08,1,,,,,ティーエヌエムエス,0
1223,5180001149921,新規,0,2022-02-08,2022-02-08,リベラル株式会社,,株式会社,愛知県,名古屋市港区,大西２丁目１２０番地の２,,23,111,4550861,,,,,,,2022-02-08,1,,,,,リベラル,0
1253,5260001036509,新規,0,2022-02-08,2022-02-08,株式会社ＴＲＳ,,株式会社,岡山県,岡山市北区,大元上町１２番地１２号,,33,101,7000925,,,,,,,2022-02-08,1,,,,,ティーアールエス,0
1269,5340003003705,新規,0,2022-02-08,2022-02-08,合同会社心,,合同会社,鹿児島県,鹿児島市,武２丁目１３－１２日高アパート１０１号,,46,201,8900045,,,,,,,2022-02-08,1,,,,,シン,0
1271,5350001017573,新規,0,2022-02-08,2022-02-08,株式会社Ｎ工房,,株式会社,宮崎県,都城市,丸谷町４０５３番地３,,45,202,8851105,,,,,,,2022-02-08,1,,,,,エヌコウボウ,0
1296,5460103001423,新規,0,2022-02-08,2022-02-08,合同会社からーず,,合同会社,北海道,帯広市,西二十三条南４丁目４３番地２３,,01,207,0802473,,,,,,,2022-02-08,1,,,,,,0
1300,5500001023993,新規,0,2022-02-08,2022-02-08,株式会社ハピネス,,株式会社,愛媛県,西条市,壬生川４４８－１,,38,206,7991341,,,,,,,2022-02-08,1,,,,,ハピネス,0
1310,5700150106711,新規,0,2022-02-08,2022-01-19,みやま学童クラブ,,その他,和歌山県,日高郡日高川町,大字川原河２３０,,30,392,6441201,,,,,,,2022-01-19,1,,,,,ミヤマガクドウクラブ,0
1321,6010001224459,新規,0,2022-02-08,2022-02-08,Ｒ．Ｌａｂ株式会社,,株式会社,東京都,文京区,本郷４丁目１－１菊花ビル７０１,,13,105,1130033,,,,,,,2022-02-08,1,,,,,アールラボ,0
1322,6010003036968,新規,0,2022-02-08,2022-02-08,合同会社ＬＯＧＩ　ＦＬＡＧ５号,,合同会社,東京都,中央区,日本橋１丁目４番１号,,13,102,1030027,,,,,,,2022-02-08,1,,,,,ロジフラッグゴゴウ,0
1330,6010401165419,新規,0,2022-02-08,2022-02-08,ＣＡＰＸＬＥ株式会社,,株式会社,東京都,港区,南青山５丁目１０番２号,,13,103,1070062,,,,,,,2022-02-08,1,,,,,カプセル,0
1333,6010501048424,新規,0,2022-02-08,2022-02-08,株式会社ＦＯＣＵＳ,,株式会社,東京都,台東区,台東１丁目２７番１１号やわらぎビル２階,,13,106,1100016,,,,,,,2022-02-08,1,,,,,フォーカス,0
1337,6010601060642,新規,0,2022-02-08,2022-02-08,ＫＮＫｒｅｓｅａｒｃｈ株式会社,,株式会社,東京都,墨田区,江東橋３丁目３番４号江東橋スクエアビル３階,,13,107,1300022,,,,,,,2022-02-08,1,,,,,ケイエヌケイリサーチ,0
1367,6011001145488,新規,0,2022-02-08,2022-02-08,ステージストリート株式会社,,株式会社,東京都,渋谷区,松濤１丁目２８－２,,13,113,1500046,,,,,,,2022-02-08,1,,,,,ステージストリート,0
1368,6011001145579,新規,0,2022-02-08,2022-02-08,ＶＩＬＡ　ＢＵＳＩＮＥＳＳ株式会社,,株式会社,東京都,渋谷区,代々木１丁目３０番１５－６０６号,,13,113,1510053,,,,,,,2022-02-08,1,,,,,ヴィラビジネス,0
1374,6011101097745,新規,0,2022-02-08,2022-02-08,ルビートレーディング株式会社,,株式会社,東京都,新宿区,西新宿３丁目３番１３号西新宿水間ビル６階,,13,104,1600023,,,,,,,2022-02-08,1,,,,,ルビートレーディング,0
1375,6011105010134,新規,0,2022-02-08,2022-02-08,一般財団法人サステイナブル・スポーツ奨学財団,,その他の設立登記法人,東京都,新宿区,市谷田町３丁目１３番地神楽ビル３階,,13,104,1620843,,,,,,,2022-02-08,1,,,,,サステイナブルスポーツショウガクザイダン,0
1376,6011301027543,新規,0,2022-02-08,2022-02-08,株式会社岸上構造事務所,,株式会社,東京都,杉並区,永福１丁目３８番１４号,,13,115,1680064,,,,,,,2022-02-08,1,,,,,キシノウエコウゾウジムショ,0
1382,6011503005066,新規,0,2022-02-08,2022-02-08,合同会社ＫＡＮＧＥＮ,,合同会社,東京都,北区,東十条５丁目４番７号２階,,13,117,1140001,,,,,,,2022-02-08,1,,,,,カンゲン,0
1386,6012301012873,新規,0,2022-02-08,2022-02-08,株式会社ＦＵＮＮＯＶＡ,,株式会社,東京都,町田市,南町田５丁目６番２３号,,13,209,1940005,,,,,,,2022-02-08,1,,,,,ファノーバ,0
1387,6012303001635,新規,0,2022-02-08,2022-02-08,合同会社Ｅ＆Ｍ　Ｇａｒｄｅｎｉｎｇ,,合同会社,東京都,町田市,成瀬８丁目１９番１１号,,13,209,1940044,,,,,,,2022-02-08,1,,,,,イーアンドエムガーデニング,0
1392,6012803002694,新規,0,2022-02-08,2022-02-08,合同会社リアルエステート渡辺,,合同会社,東京都,国立市,西２丁目２１番地の４１アドバンス国立３０２,,13,215,1860005,,,,,,,2022-02-08,1,,,,,リアルエステートワタナベ,0
1403,6020001144978,新規,0,2022-02-08,2022-02-08,株式会社ネオコラボ,,株式会社,神奈川県,横浜市都筑区,茅ケ崎東１丁目１番６－８０５号,,14,118,2240033,,,,,,,2022-02-08,1,,,,,ネオコラボ,0
1404,6020001145126,新規,0,2022-02-08,2022-02-08,株式会社インテクストラ,,株式会社,神奈川県,横浜市中区,日本大通７番地合人社横浜日本大通７ビル,,14,104,2310021,,,,,,,2022-02-08,1,,,,,インテクストラ,0
1405,6020001145150,新規,0,2022-02-08,2022-02-08,株式会社ネクストナレッジ,,株式会社,神奈川県,横浜市西区,北幸１丁目１１番１号水信ビル７階,,14,103,2200004,,,,,,,2022-02-08,1,,,,,ネクストナレッジ,0
1406,6020001145167,新規,0,2022-02-08,2022-02-08,株式会社ｒｉｃｈｗｉｎ,,株式会社,神奈川県,横浜市金沢区,町屋町１７番８－２０６号,,14,108,2360022,,,,,,,2022-02-08,1,,,,,リッチウィン,0
1417,6021003011365,新規,0,2022-02-08,2022-02-08,合同会社ロングライド,,合同会社,神奈川県,藤沢市,片瀬海岸３丁目２４番２０号２階,,14,205,2510035,,,,,,,2022-02-08,1,,,,,ロングライド,0
1425,6030001146742,新規,0,2022-02-08,2022-02-08,ＲＳＲ株式会社,,株式会社,埼玉県,川口市,西川口４丁目１４－２３ともえハイツＡ１０５,,11,203,3320021,,,,,,,2022-02-08,1,,,,,アールエスアール,0
1426,6030003018816,新規,0,2022-02-08,2022-02-08,合同会社ブルーノ,,合同会社,埼玉県,熊谷市,曙町２丁目１４番地サンクレイドル熊谷曙町４０４号,,11,202,3600033,,,,,,,2022-02-08,1,,,,,ブルーノ,0
1446,6100001035054,新規,0,2022-02-08,2022-02-08,株式会社ちくま商社,,株式会社,長野県,千曲市,大字森１０２７番地５,,20,218,3870005,,,,,,,2022-02-08,1,,,,,チクマショウシャ,0
1453,6120001243687,新規,0,2022-02-08,2022-02-08,株式会社５９Ｇｒｏｗ,,株式会社,大阪府,守口市,八雲中町２丁目７番１２号,,27,209,5700005,,,,,,,2022-02-08,1,,,,,ゴーキューグロウ,0
1454,6120001243720,新規,0,2022-02-08,2022-02-08,株式会社イイカレント,,株式会社,大阪府,大阪市東住吉区,鷹合１丁目２１－２７,,27,121,5460014,,,,,,,2022-02-08,1,,,,,イーカレント,0
1455,6120001243729,新規,0,2022-02-08,2022-02-08,太谷株式会社,,株式会社,大阪府,大阪市生野区,勝山南４丁目２番１５号,,27,116,5440021,,,,,,,2022-02-08,1,,,,,フトタニ,0
1456,6120001243737,新規,0,2022-02-08,2022-02-08,株式会社ＣＵＢＥ,,株式会社,大阪府,大阪市中央区,瓦屋町３丁目２番２０－１１０４号,,27,128,5420066,,,,,,,2022-02-08,1,,,,,キューブ,0
1457,6120001243745,新規,0,2022-02-08,2022-02-08,株式会社ＧＵコーポレーション,,株式会社,大阪府,大阪市淀川区,西宮原２丁目７番３８号新大阪西浦ビル５Ｆ,,27,123,5320004,,,,,,,2022-02-08,1,,,,,ジーユーコーポレーション,0
1460,6120003021075,新規,0,2022-02-08,2022-02-08,合同会社牽牛,,合同会社,大阪府,大阪市北区,梅田１丁目１１番４号大阪駅前第４ビル９階９２３－１６２５号,,27,127,5300001,,,,,,,2022-02-08,1,,,,,ケンギュウ,0
1463,6120903004022,新規,0,2022-02-08,2022-02-08,合同会社ウェブラビット,,合同会社,大阪府,茨木市,片桐町１３－１１,,27,211,5670819,,,,,,,2022-02-08,1,,,,,ウェブラビット,0
1470,6130005016378,新規,0,2022-02-08,2022-02-08,一般社団法人ＫＹＯＴＯ　ＫＩＬＮ,,その他の設立登記法人,京都府,京都市東山区,清水１丁目２８７番地,,26,105,6050862,,,,,,,2022-02-08,1,,,,,キョウトキルン,0
1480,6140001124811,新規,0,2022-02-08,2022-02-08,武江商事株式会社,,株式会社,兵庫県,神戸市長田区,駒ケ林町１丁目１６番６号,,28,106,6530043,,,,,,,2022-02-08,1,,,,,タケエショウジ,0
1483,6150003002618,新規,0,2022-02-08,2022-02-08,合同会社ＴＨＯ,,合同会社,奈良県,奈良市,左京５丁目３番地の３２,,29,201,6310801,,,,,,,2022-02-08,1,,,,,ティーエイチオー,0
1485,6170003001683,新規,0,2022-02-08,2022-02-08,ＲＥ開発合同会社,,合同会社,和歌山県,海南市,鳥居５０６番地１,,30,202,6420033,,,,,,,2022-02-08,1,,,,,アールイーカイハツ,0
1490,6180001149846,新規,0,2022-02-08,2022-02-08,株式会社Ｚｅｒｏｘｙ,,株式会社,愛知県,名古屋市緑区,曽根３丁目１７０３番地,,23,114,4580035,,,,,,,2022-02-08,1,,,,,ゼロクシー,0
1491,6180001149904,新規,0,2022-02-08,2022-02-08,株式会社ぷりず夢ホールディングス,,株式会社,愛知県,春日井市,東野町５丁目１番地５,,23,206,4860817,,,,,,,2022-02-08,1,,,,,プリズムホールディングス,0
1492,6180001149912,新規,0,2022-02-08,2022-02-08,株式会社ＵＰｓｅｔ,,株式会社,愛知県,名古屋市中区,丸の内２丁目１３番１６号丸の内スクエア４０３号,,23,106,4600002,,,,,,,2022-02-08,1,,,,,アップセット,0
1499,6180003023479,新規,0,2022-02-08,2022-02-08,合同会社ゼロ,,合同会社,愛知県,あま市,新居屋榎坪７４番地,,23,237,4901105,,,,,,,2022-02-08,1,,,,,ゼロ,0
1507,6240001059304,新規,0,2022-02-08,2022-02-08,株式会社関億,,株式会社,広島県,広島市中区,堺町１丁目５番１０－１０２号,,34,101,7300853,,,,,,,2022-02-08,1,,,,,セキオク,0
1508,6240001059312,新規,0,2022-02-08,2022-02-08,株式会社ホクヨシ,,株式会社,広島県,広島市中区,南千田西町１番３２号,,34,101,7300055,,,,,,,2022-02-08,1,,,,,ホクヨシ,0
1520,6290003012124,新規,0,2022-02-08,2022-02-08,合同会社Ｍ＆Ｈ,,合同会社,福岡県,大牟田市,大字久福木３番地５,,40,202,8370915,,,,,,,2022-02-08,1,,,,,エムアンドエイチ,0
1521,6290005018557,新規,0,2022-02-08,2022-02-08,ＮＰＯ法人ベルク,,その他の設立登記法人,福岡県,久留米市,北野町中７０１番地３,,40,203,8301113,,,,,,,2022-02-08,1,,,,,ベルク,0
1526,6290801028239,新規,0,2022-02-08,2022-02-08,ミモザ保険サービス株式会社,,株式会社,福岡県,北九州市八幡西区,市瀬３丁目７番４１号,,40,109,8060063,,,,,,,2022-02-08,1,,,,,ミモザホケンサービス,0
1527,6290801028247,新規,0,2022-02-08,2022-02-08,株式会社Ｔｏｉｌｅ,,株式会社,福岡県,北九州市小倉北区,大手町５番２３－３０１号,,40,106,8030814,,,,,,,2022-02-08,1,,,,,トワル,0
1530,6290805009524,新規,0,2022-02-08,2022-02-08,特定非営利活動法人北九州自立支援センター南風,,その他の設立登記法人,福岡県,北九州市小倉南区,朽網東２丁目１５番１０号,,40,107,8000232,,,,,,,2022-02-08,1,,,,,キタキュウシュウジリツシエンセンターミナミカゼ,0
1537,6340003003704,新規,0,2022-02-08,2022-02-08,合同会社カーム,,合同会社,鹿児島県,鹿児島市,荒田２丁目４５番２２号,,46,201,8900054,,,,,,,2022-02-08,1,,,,,カーム,0
1559,6430003013611,新規,0,2022-02-08,2022-02-08,合同会社あるぱか,,合同会社,北海道,札幌市中央区,北六条西２０丁目１番７－４０１号,,01,101,0600006,,,,,,,2022-02-08,1,,,,,アルパカ,0
1567,6500001023992,新規,0,2022-02-08,2022-02-08,株式会社煌産業,,株式会社,愛媛県,今治市,喜田村７丁目４番３３号,,38,202,7991502,,,,,,,2022-02-08,1,,,,,コウサンギョウ,0
1569,6700150060346,新規,0,2022-02-08,2015-10-09,筑後市自家用自動車協会,,その他,福岡県,筑後市,大字山ノ井３４１－６,,40,211,8330031,,,,,,,2015-10-09,1,,,,,チクゴシジカヨウジドウシヤキヨウカイ,0
1595,7010401165401,新規,0,2022-02-08,2022-02-08,ＫＡＩＬＩ株式会社,,株式会社,東京都,港区,東麻布２丁目１５番２号,,13,103,1060044,,,,,,,2022-02-08,1,,,,,カイリ,0
1596,7010401165418,新規,0,2022-02-08,2022-02-08,トータルメディアプラン株式会社,,株式会社,東京都,港区,南青山２丁目２番１５号ウィン青山９４２,,13,103,1070062,,,,,,,2022-02-08,1,,,,,トータルメディアプラン,0
1597,7010401165434,新規,0,2022-02-08,2022-02-08,株式会社ＣＨＯＣＯＴＴＯ,,株式会社,東京都,港区,南麻布２丁目５番２１号イデア南麻布７階,,13,103,1060047,,,,,,,2022-02-08,1,,,,,チョコット,0
1598,7010401165442,新規,0,2022-02-08,2022-02-08,株式会社空,,株式会社,東京都,港区,西新橋２丁目３３番４号プレイアデ虎ノ門１００１,,13,103,1050003,,,,,,,2022-02-08,1,,,,,クウ,0
1603,7010403027054,新規,0,2022-02-08,2022-02-08,ＵＩ　Ｋｏｎａｎ　Ｋａｎｓａｉ２合同会社,,合同会社,東京都,港区,元赤坂１丁目１番７号,,13,103,1070051,,,,,,,2022-02-08,1,,,,,ユーアイコナンカンサイツー,0
1604,7010405020676,新規,0,2022-02-08,2022-02-08,ＲＢソーラーアクエリアスホールディングス一般社団法人,,その他の設立登記法人,東京都,港区,虎ノ門３丁目２２番１０－２０１号,,13,103,1050001,,,,,,,2022-02-08,1,,,,,アールビーソーラーアクエリアスホールディングス,0
1622,7011001145495,新規,0,2022-02-08,2022-02-08,株式会社インフィニティＣＣ,,株式会社,東京都,渋谷区,道玄坂１丁目１５－３プリメーラ道玄坂４１２号,,13,113,1500043,,,,,,,2022-02-08,1,,,,,インフィニティシーシー,0
1623,7011001145512,新規,0,2022-02-08,2022-02-08,株式会社ｖａｓｐｅｘ,,株式会社,東京都,渋谷区,恵比寿西１丁目８番２号恵比寿ウエストパレス４１２,,13,113,1500021,,,,,,,2022-02-08,1,,,,,バスペクス,0
1624,7011001145537,新規,0,2022-02-08,2022-02-08,株式会社スイ,,株式会社,東京都,渋谷区,代々木１丁目１０番１ー２０１号,,13,113,1510053,,,,,,,2022-02-08,1,,,,,スイ,0
1626,7011003014120,新規,0,2022-02-08,2022-02-08,合同会社Ｌｉｂ,,合同会社,東京都,目黒区,上目黒３丁目６番２２号シティーコープ平沼４０２号,,13,110,1530051,,,,,,,2022-02-08,1,,,,,リブ,0
1629,7011101097752,新規,0,2022-02-08,2022-02-08,株式会社ＩＮＡホールディングス,,株式会社,東京都,新宿区,歌舞伎町２丁目１９番５号,,13,104,1600021,,,,,,,2022-02-08,1,,,,,アイエヌエーホールディングス,0
1630,7011103011422,新規,0,2022-02-08,2022-02-08,合同会社ＦＯＵＲＳＩＤＥ,,合同会社,東京都,新宿区,余丁町５番７号,,13,104,1620055,,,,,,,2022-02-08,1,,,,,フォーサイド,0
1635,7011503005065,新規,0,2022-02-08,2022-02-08,合同会社メザセル,,合同会社,東京都,北区,上十条３丁目１７番７号,,13,117,1140034,,,,,,,2022-02-08,1,,,,,メザセル,0
1636,7011505002449,新規,0,2022-02-08,2022-02-08,一般社団法人Ｔｒｅｅ　ｏｆ　Ｌｉｆｅ　Ｊａｐａｎ,,その他の設立登記法人,東京都,北区,中里３丁目１４番２０号,,13,117,1140015,,,,,,,2022-02-08,1,,,,,トゥリーオブライフジャパン,0
1648,7013301048650,新規,0,2022-02-08,2022-02-08,株式会社オコスモ,,株式会社,東京都,豊島区,東池袋３丁目１１番９号下総屋ビル６０１号室,,13,116,1700013,,,,,,,2022-02-08,1,,,,,オコスモ,0
1651,7020001145117,新規,0,2022-02-08,2022-02-08,株式会社ゼロアセッション,,株式会社,神奈川県,横浜市中区,羽衣町２丁目５番地１２,,14,104,2310047,,,,,,,2022-02-08,1,,,,,ゼロアセッション,0
1652,7020001145133,新規,0,2022-02-08,2022-02-08,株式会社ｎｅｂｅｎ　ｂｅｒｇ,,株式会社,神奈川県,横浜市中区,翁町２丁目８－１５グラマシー横濱関内３０６,,14,104,2310028,,,,,,,2022-02-08,1,,,,,ノーベンベルグ,0
1653,7020001145141,新規,0,2022-02-08,2022-02-08,株式会社桜,,株式会社,神奈川県,横浜市旭区,笹野台４丁目６２番２１号,,14,112,2410816,,,,,,,2022-02-08,1,,,,,サクラ,0
1654,7020001145158,新規,0,2022-02-08,2022-02-08,株式会社オフィス３６０,,株式会社,神奈川県,横浜市都筑区,荏田東１丁目９番３２－２号,,14,118,2240006,,,,,,,2022-02-08,1,,,,,オフィスサンビャクロクジュウ,0
1656,7020003021258,新規,0,2022-02-08,2022-02-08,ＱＧ企画合同会社,,合同会社,神奈川県,川崎市高津区,久地４丁目１８－１０溝の口北パークホームズ２０７号,,14,134,2130032,,,,,,,2022-02-08,1,,,,,キュウジーキカク,0
1657,7020003021266,新規,0,2022-02-08,2022-02-08,Ｊｓｍｉｌｅ合同会社,,合同会社,神奈川県,横浜市中区,桜木町１丁目１０１番地１クロスゲート７階,,14,104,2310062,,,,,,,2022-02-08,1,,,,,ジェイスマイル,0
1666,7021003011364,新規,0,2022-02-08,2022-02-08,合同会社ｐｌａｎＢ,,合同会社,神奈川県,伊勢原市,石田２８８番地の４,,14,214,2591116,,,,,,,2022-02-08,1,,,,,プランビー,0
1675,7030001146725,新規,0,2022-02-08,2022-02-08,株式会社町田工業,,株式会社,埼玉県,幸手市,大字上高野１０８８番地３,,11,240,3400155,,,,,,,2022-02-08,1,,,,,マチダコウギョウ,0
1686,7040001122163,新規,0,2022-02-08,2022-02-08,斎藤商会株式会社,,株式会社,千葉県,鎌ケ谷市,鎌ケ谷７丁目１０番３６号,,12,224,2730105,,,,,,,2022-02-08,1,,,,,サイトウショウカイ,0
1687,7040001122171,新規,0,2022-02-08,2022-02-08,Ｔホールディングス株式会社,,株式会社,千葉県,佐倉市,城２７１番地４,,12,212,2850815,,,,,,,2022-02-08,1,,,,,ティーホールディングス,0
1694,7040003019457,新規,0,2022-02-08,2022-02-08,合同会社Ｈｕｎｇｒｙ,,合同会社,千葉県,柏市,藤心５丁目１５－１０,,12,217,2770034,,,,,,,2022-02-08,1,,,,,ハングリー,0
1700,7050005013011,新規,0,2022-02-08,2022-02-08,弁護士法人中田勝也法律事務所,,その他の設立登記法人,茨城県,つくば市,榎戸６７０番地,,08,220,3050853,,,,,,,2022-02-08,1,,,,,ナカダカツヤホウリツジムショ,0
1705,7080103002516,新規,0,2022-02-08,2022-02-08,合同会社メタワークス,,合同会社,静岡県,富士市,大淵８８４４,,22,210,4170801,,,,,,,2022-02-08,1,,,,,メタワークス,0
1709,7100001035053,新規,0,2022-02-08,2022-02-08,株式会社グアムホテルマネジメント,,株式会社,長野県,北佐久郡軽井沢町,大字長倉２１４８番地,,20,321,3890111,,,,,,,2022-02-08,1,,,,,グアムホテルマネジメント,0
1724,7120001243653,新規,0,2022-02-08,2022-02-08,株式会社回福,,株式会社,大阪府,大阪市城東区,鴫野東２丁目２３番１１号,,27,118,5360013,,,,,,,2022-02-08,1,,,,,カイフク,0
1725,7120001243736,新規,0,2022-02-08,2022-02-08,レインボーリクルートメント株式会社,,株式会社,大阪府,大阪市中央区,南船場１丁目３－２７,,27,128,5420081,,,,,,,2022-02-08,1,,,,,レインボーリクルートメント,0
1726,7120001243752,新規,0,2022-02-08,2022-02-08,株式会社フアンコス,,株式会社,大阪府,大阪市生野区,勝山北５丁目６番５号,,27,116,5440033,,,,,,,2022-02-08,1,,,,,フアンコス,0
1731,7120003021082,新規,0,2022-02-08,2022-02-08,合同会社Ｔプランニング,,合同会社,大阪府,大阪市阿倍野区,松崎町２丁目３番８号,,27,119,5450053,,,,,,,2022-02-08,1,,,,,ティープランニング,0
1740,7122001035568,新規,0,2022-02-08,2022-02-08,株式会社イオキベ,,株式会社,大阪府,東大阪市,弥生町１４番４０号,,27,227,5798026,,,,,,,2022-02-08,1,,,,,イオキベ,0
1741,7130001071021,新規,0,2022-02-08,2022-02-08,株式会社コロン,,株式会社,京都府,京都市北区,大宮田尻町８０－１０２号,,26,101,6038838,,,,,,,2022-02-08,1,,,,,コロン,0
1742,7130001071062,新規,0,2022-02-08,2022-02-08,株式会社京都・長原農産,00125653,株式会社,京都府,亀岡市,千歳町千歳辻４３番地３,00125654,26,206,6210002,,,,,,,2022-02-08,1,,,,,キョウトナガハラノウサン,0
1745,7140001124810,新規,0,2022-02-08,2022-02-08,株式会社あさの文具,,株式会社,兵庫県,川西市,小花１丁目９番１号,,28,217,6660015,,,,,,,2022-02-08,1,,,,,アサノブング,0
1748,7140003017310,新規,0,2022-02-08,2022-02-08,合同会社ロータス,,合同会社,兵庫県,神戸市東灘区,向洋町中５丁目６番２－５０２号,,28,101,6580032,,,,,,,2022-02-08,1,,,,,ロータス,0
1754,7170001016971,新規,0,2022-02-08,2022-02-08,株式会社ヴァイオスプラスＥ,,株式会社,和歌山県,紀の川市,桃山町調月２８２６番地,,30,208,6496112,,,,,,,2022-02-08,1,,,,,ヴァイオスプラスイー,0
1761,7180001149845,新規,0,2022-02-08,2022-02-08,株式会社農楽,,株式会社,愛知県,名古屋市中川区,好本町１丁目１１番地,,23,110,4540825,,,,,,,2022-02-08,1,,,,,ノウラク,0
1762,7180001149894,新規,0,2022-02-08,2022-02-08,ＲＥＥＡＲＴＨ　ＩＮＦＩＮＩＴＹ株式会社,,株式会社,愛知県,春日井市,八光町４丁目９１番地１,,23,206,4860916,,,,,,,2022-02-08,1,,,,,リアースインフィニティ,0
1763,7180001149903,新規,0,2022-02-08,2022-02-08,株式会社ｒａｉｓｅ　ｔｈｅ　ｓｔａｇｅ,,株式会社,愛知県,名古屋市中川区,尾頭橋１丁目１番３５号,,23,110,4540012,,,,,,,2022-02-08,1,,,,,レイズザステージ,0
1764,7180001149928,新規,0,2022-02-08,2022-02-08,株式会社Ｋ‐ｉｚｍ９,,株式会社,愛知県,名古屋市中区,新栄３丁目１６番８号,,23,106,4600007,,,,,,,2022-02-08,1,,,,,ケーズナイン,0
1769,7180003023478,新規,0,2022-02-08,2022-02-08,合同会社春榎,,合同会社,愛知県,名古屋市千種区,池下町２丁目６３番地の２５グランドメゾン池下ザ・タワー３３０５,,23,101,4640066,,,,,,,2022-02-08,1,,,,,ハルエノキ,0
1772,7180301035910,新規,0,2022-02-08,2022-02-08,株式会社結訪問介護事業所,,株式会社,愛知県,刈谷市,板倉町２丁目８番地１３,,23,210,4480801,,,,,,,2022-02-08,1,,,,,ユイホウモンカイゴジギョウショ,0
1796,7240005015319,新規,0,2022-02-08,2022-02-08,一般社団法人びんごモノづくり村,,その他の設立登記法人,広島県,福山市,駅家町倉光３７５番地１,,34,207,7210000,,,,,,,2022-02-08,1,,,,,ビンゴモノヅクリムラ,0
1798,7250001019388,新規,0,2022-02-08,2022-02-08,株式会社アドバンス,,株式会社,山口県,下関市,上新地町３丁目１番２１号,,35,201,7500061,,,,,,,2022-02-08,1,,,,,アドバンス,0
1801,7260001036507,新規,0,2022-02-08,2022-02-08,株式会社Ｋ・スリー,,株式会社,岡山県,岡山市東区,升田５３７番地１,,33,103,7048163,,,,,,,2022-02-08,1,,,,,ケイスリー,0
1809,7290803004055,新規,0,2022-02-08,2022-02-08,合同会社Ｙ．Ｓサポート,,合同会社,福岡県,北九州市若松区,片山３丁目１－３７,,40,103,8080106,,,,,,,2022-02-08,1,,,,,ワイエスサポート,0
1813,7330001029429,新規,0,2022-02-08,2022-02-08,株式会社ＬＵＣＫ,,株式会社,熊本県,荒尾市,金山２１番地,,43,204,8640162,,,,,,,2022-02-08,1,,,,,ラック,0
1820,7350003004023,新規,0,2022-02-08,2022-02-08,合同会社さわらび,,合同会社,宮崎県,日向市,平野町１丁目５番地,,45,206,8830002,,,,,,,2022-02-08,1,,,,,サワラビ,0
1823,7360001029979,新規,0,2022-02-08,2022-02-08,株式会社琉球セレーノ,,株式会社,沖縄県,那覇市,久米１丁目２番９号,,47,201,9000033,,,,,,,2022-02-08,1,,,,,リュウキュウセレーノ,0
1824,7360001029987,新規,0,2022-02-08,2022-02-08,株式会社Ｋリゾート,,株式会社,沖縄県,石垣市,字大川２５８番地,,47,207,9070022,,,,,,,2022-02-08,1,,,,,ケーリゾート,0
1838,7390003001925,新規,0,2022-02-08,2022-02-08,コトブキＩＦＡ合同会社,,合同会社,山形県,山形市,大字漆山３０５６番地の１０,,06,201,9902161,,,,,,,2022-02-08,1,,,,,コトブキアイエフエイ,0
1841,7420003002449,新規,0,2022-02-08,2022-02-08,合同会社弘前さくら食器,,合同会社,青森県,弘前市,大字桔梗野４丁目２番地１アバンティ桔梗野２０２号,,02,202,0368227,,,,,,,2022-02-08,1,,,,,ヒロサキサクラショッキ,0
1848,7430001085957,新規,0,2022-02-08,2022-02-08,株式会社チョイスモータース,,株式会社,北海道,北広島市,新富町西３丁目１番地３ウィズユー観光ビル西１Ｆ－Ｂ,,01,234,0611127,,,,,,,2022-02-08,1,,,,,チョイスモータース,0
1849,7430001085965,新規,0,2022-02-08,2022-02-08,株式会社北港水産,,株式会社,北海道,札幌市豊平区,美園三条４丁目３番１０号,,01,105,0620003,,,,,,,2022-02-08,1,,,,,ホッコウスイサン,0
1856,7470001018962,新規,0,2022-02-08,2022-02-08,株式会社佐々木悠ファーム,,株式会社,香川県,仲多度郡まんのう町,炭所西３３９７番地,,37,406,7660017,,,,,,,2022-02-08,1,,,,,ササキヒロファーム,0
1871,8010001224374,新規,0,2022-02-08,2022-02-08,Ｋｅｅｎｏｎ　Ｒｏｂｏｔｉｃｓ株式会社,,株式会社,東京都,千代田区,神田三崎町３丁目６番１３号,,13,101,1010061,,,,,,,2022-02-08,1,,,,,キーンオンロボティクス,0
1872,8010001224432,新規,0,2022-02-08,2022-02-08,株式会社ＫＥＩＹＯ建設,,株式会社,東京都,中央区,日本橋本町４丁目１２番１６号中尾ビル６階,,13,102,1030023,,,,,,,2022-02-08,1,,,,,ケイヨーケンセツ,0
1884,8010401165409,新規,0,2022-02-08,2022-02-08,株式会社エル・イー・オー,,株式会社,東京都,港区,東麻布１丁目２８番２号,,13,103,1060044,,,,,,,2022-02-08,1,,,,,エルイーオー,0
1885,8010401165417,新規,0,2022-02-08,2022-02-08,株式会社ＴｈｉｎｋＧｏｏｄ,,株式会社,東京都,港区,南麻布３丁目２０番１号５階,,13,103,1060047,,,,,,,2022-02-08,1,,,,,シンクグッド,0
1886,8010403027053,新規,0,2022-02-08,2022-02-08,ＣＥＪＶ合同会社,,合同会社,東京都,港区,港南２丁目１５番１号品川インターシティＡ棟２８階,,13,103,1080075,,,,,,,2022-02-08,1,,,,,シーイージェイブイ,0
1887,8010405020659,新規,0,2022-02-08,2022-02-08,社会保険労務士法人グレイス,,その他の設立登記法人,東京都,港区,芝大門１丁目１番３５号,,13,103,1050012,,,,,,,2022-02-08,1,,,,,グレイス,0
1888,8010405020675,新規,0,2022-02-08,2022-02-08,ＲＢソーラーエーリスホールディングス一般社団法人,,その他の設立登記法人,東京都,港区,虎ノ門３丁目２２番１０－２０１号,,13,103,1050001,,,,,,,2022-02-08,1,,,,,アールビーソーラーエーリスホールディングス,0
1892,8010601060632,新規,0,2022-02-08,2022-02-08,株式会社コミプラス,,株式会社,東京都,墨田区,本所２丁目１８番２号１Ｆ,,13,107,1300004,,,,,,,2022-02-08,1,,,,,コミプラス,0
1893,8010601060640,新規,0,2022-02-08,2022-02-08,株式会社ＲＨ,,株式会社,東京都,墨田区,八広４丁目２２番３号,,13,107,1310041,,,,,,,2022-02-08,1,,,,,アールエイチ,0
1897,8010701042183,新規,0,2022-02-08,2022-02-08,ジョーシス株式会社,,株式会社,東京都,品川区,上大崎２丁目２４番９号,,13,109,1410021,,,,,,,2022-02-08,1,,,,,ジョーシス,0
1905,8010901050300,新規,0,2022-02-08,2022-02-08,株式会社Ｌｏｒｄ　ｏｆ　ｔｈｅ　Ｉｓｌｅｓ,,株式会社,東京都,世田谷区,北沢２丁目３４番１１号リアンビル２Ｆ,,13,112,1550031,,,,,,,2022-02-08,1,,,,,ロードオブジアイルズ,0
1906,8010901050325,新規,0,2022-02-08,2022-02-08,株式会社ＡＭＡＮＥ,,株式会社,東京都,世田谷区,池尻３丁目２８番２１号,,13,112,1540001,,,,,,,2022-02-08,1,,,,,アマネ,0
1915,8011001145494,新規,0,2022-02-08,2022-02-08,ＳＡＣＨＵ株式会社,,株式会社,東京都,渋谷区,恵比寿南３丁目１番５号４０１,,13,113,1500022,,,,,,,2022-02-08,1,,,,,サチュウ,0
1916,8011001145503,新規,0,2022-02-08,2022-02-08,株式会社ＮｏＲｕｓｈ,,株式会社,東京都,渋谷区,渋谷２丁目１９－１５宮益坂ビルディング６０９,,13,113,1500002,,,,,,,2022-02-08,1,,,,,ノーラッシュ,0
1917,8011001145544,新規,0,2022-02-08,2022-02-08,株式会社ＷＡＶＥ　ＨＩ,,株式会社,東京都,目黒区,東山３丁目１６－２神興ＩＩビル２Ｆ,00125658,13,110,1530043,,,,,,,2022-02-08,1,,,,,ウェイブハイ,0
1920,8011005009423,新規,0,2022-02-08,2022-02-08,一般社団法人Ｌａｕｑｈｔｅｒ,,その他の設立登記法人,東京都,渋谷区,恵比寿３丁目１－４モンシャトー恵比寿２０６,,13,113,1500013,,,,,,,2022-02-08,1,,,,,ラクター,0
1926,8011103011446,新規,0,2022-02-08,2022-02-08,合同会社ＶＩＳＩＯＮＵＮＬＩＭＩＴＥＤ,,合同会社,東京都,新宿区,西新宿３丁目３－１３西新宿水間ビル６Ｆ,,13,104,1600023,,,,,,,2022-02-08,1,,,,,ヴィジョンアンリミテッド,0
1930,8011501027738,新規,0,2022-02-08,2022-02-08,富承会株式会社,,株式会社,東京都,北区,東十条５丁目３番４－４０３号,,13,117,1140001,,,,,,,2022-02-08,1,,,,,トミショウカイ,0
1931,8011603003521,新規,0,2022-02-08,2022-02-08,満生資産管理合同会社,,合同会社,東京都,練馬区,貫井２丁目６番９号,,13,120,1760021,,,,,,,2022-02-08,1,,,,,マンセイシサンカンリ,0
1941,8013305003304,新規,0,2022-02-08,2022-02-08,日立プラントサービス労働組合,,その他の設立登記法人,東京都,豊島区,東池袋３丁目１番１号,,13,116,1700013,,,,,,,2022-02-08,1,,,,,ヒタチプラントサービス,0
1955,8020001145124,新規,0,2022-02-08,2022-02-08,株式会社ＴＥＣ,,株式会社,神奈川県,横浜市神奈川区,片倉１丁目１３番４－１０２号,,14,102,2210865,,,,,,,2022-02-08,1,,,,,テック,0
1962,8020003021257,新規,0,2022-02-08,2022-02-08,合同会社メディオギャラリー,,合同会社,神奈川県,横浜市中区,本牧和田２２－２４,,14,104,2310827,,,,,,,2022-02-08,1,,,,,メディオギャラリー,0
1963,8020003021273,新規,0,2022-02-08,2022-02-08,合同会社ＰＵＬＩＯ,,合同会社,神奈川県,横浜市保土ケ谷区,法泉２丁目９番１７号,,14,106,2400032,,,,,,,2022-02-08,1,,,,,プリオ,0
1964,8020003021281,新規,0,2022-02-08,2022-02-08,ステラマリスジャパン合同会社,,合同会社,神奈川県,横浜市青葉区,美しが丘１丁目１３番地１０吉村ビル１０７号,,14,117,2250002,,,,,,,2022-02-08,1,,,,,ステラマリスジャパン,0
1980,8030003018806,新規,0,2022-02-08,2022-02-08,Ｂｉｔ合同会社,,合同会社,埼玉県,川口市,本町４丁目７番４－１１０４号,,11,203,3320012,,,,,,,2022-02-08,1,,,,,ビット,0
1985,8040003019456,新規,0,2022-02-08,2022-02-08,合同会社ＴＫシステムズ,,合同会社,千葉県,八千代市,村上２０１９番地２２,,12,221,2760028,,,,,,,2022-02-08,1,,,,,ティーケーシステムズ,0
1987,8060005009949,新規,0,2022-02-08,2022-02-08,一般財団法人両毛育英奨学基金会,,その他の設立登記法人,栃木県,足利市,福居町１１１１－５－Ａ１００４,,09,202,3260338,,,,,,,2022-02-08,1,,,,,リョウモウイクエイショウガクキキンカイ,0
2000,8100001035028,新規,0,2022-02-08,2022-02-08,株式会社工藤食品,,株式会社,長野県,茅野市,金沢木船４７１２番地１,,20,214,3910012,,,,,,,2022-02-08,1,,,,,クドウショクヒン,0
2001,8100001035052,新規,0,2022-02-08,2022-02-08,株式会社銚子ホテルマネジメント,,株式会社,長野県,北佐久郡軽井沢町,大字長倉２１４８番地,,20,321,3890111,,,,,,,2022-02-08,1,,,,,チョウシホテルマネジメント,0
2003,8100003006398,新規,0,2022-02-08,2022-02-08,合同会社ミユ,,合同会社,長野県,茅野市,湖東８１１１番地１,,20,214,3910211,,,,,,,2022-02-08,1,,,,,ミユ,0
2004,8100003006407,新規,0,2022-02-08,2022-02-08,ドリームテック合同会社,,合同会社,長野県,安曇野市,豊科１０５５番地６,,20,220,3998205,,,,,,,2022-02-08,1,,,,,ドリームテック,0
2016,8120001243636,新規,0,2022-02-08,2022-02-08,株式会社ウエストカレント,,株式会社,大阪府,大阪市北区,万歳町４番１２号浪速ビル西館２Ｆ,,27,127,5300028,,,,,,,2022-02-08,1,,,,,ウエストカレント,0
2017,8120001243660,新規,0,2022-02-08,2022-02-08,株式会社Ｉ・Ｃｒａｆｔ,,株式会社,大阪府,守口市,大日町４丁目５番１８号,,27,209,5700003,,,,,,,2022-02-08,1,,,,,アイクラフト,0
2018,8120001243727,新規,0,2022-02-08,2022-02-08,株式会社ＤＥＲ　ＨＯＰＥ,,株式会社,大阪府,大阪市天王寺区,茶臼山町１－５令康ビル５Ｆ,,27,109,5430063,,,,,,,2022-02-08,1,,,,,ディアホープ,0
2019,8120003021098,新規,0,2022-02-08,2022-02-08,合同会社ＧＬＩＴＴＧＥ,,合同会社,大阪府,大阪市平野区,平野馬場１丁目１９番９号,,27,126,5470048,,,,,,,2022-02-08,1,,,,,グリッジ,0
2023,8120101065055,新規,0,2022-02-08,2022-02-08,ホヌパートナーズ株式会社,,株式会社,大阪府,阪南市,箱作２８７８番地の１０,,27,232,5990232,,,,,,,2022-02-08,1,,,,,ホヌパートナーズ,0
2024,8120103004564,新規,0,2022-02-08,2022-02-08,合同会社くうねるあそぶワークス,,合同会社,大阪府,松原市,高見の里１丁目１番５－４０９号,,27,217,5800021,,,,,,,2022-02-08,1,,,,,クウネルアソブワークス,0
2027,8120903004029,新規,0,2022-02-08,2022-02-08,ＮｕＯｖＡ　ＳＦｉｄａ合同会社,,合同会社,大阪府,箕面市,牧落１丁目２番７号,,27,220,5620004,,,,,,,2022-02-08,1,,,,,ヌオーヴァスフィーダ,0
2031,8130001071103,新規,0,2022-02-08,2022-02-08,鐵電工株式会社,,株式会社,京都府,宇治市,小倉町堀池２８番地の５,,26,204,6110042,,,,,,,2022-02-08,1,,,,,テツデンコウ,0
2040,8140001124735,新規,0,2022-02-08,2022-02-08,株式会社ＮＡＫＡＳＨＩＭＡ,,株式会社,兵庫県,加古川市,別府町石町２２番地の１,,28,210,6750127,,,,,,,2022-02-08,1,,,,,ナカシマ,0
2041,8140001124850,新規,0,2022-02-08,2022-02-08,株式会社ゆみき建設,,株式会社,兵庫県,高砂市,米田町米田３１５番地の８,,28,216,6760805,,,,,,,2022-02-08,1,,,,,ユミキケンセツ,0
2048,8150001025321,新規,0,2022-02-08,2022-02-08,株式会社丸山不動産販売,,株式会社,奈良県,奈良市,大宮町７丁目２番１５号,,29,201,6308115,,,,,,,2022-02-08,1,,,,,マルヤマフドウサンハンバイ,0
2049,8150003002608,新規,0,2022-02-08,2022-02-08,合同会社ＩＮＦＩＮＩＴＹ,,合同会社,奈良県,天理市,山田町２２０番地,,29,204,6320121,,,,,,,2022-02-08,1,,,,,インフィニティ,0
2055,8180001149885,新規,0,2022-02-08,2022-02-08,高伸工業株式会社,,株式会社,愛知県,春日井市,出川町４丁目１４番地１４,,23,206,4870025,,,,,,,2022-02-08,1,,,,,コウシンコウギョウ,0
2056,8180001149893,新規,0,2022-02-08,2022-02-08,Ｍｏｄｅｎａ　Ｄｅｓｉｇｎ株式会社,,株式会社,愛知県,一宮市,若竹１丁目１２番２号,,23,203,4910832,,,,,,,2022-02-08,1,,,,,モデナデザイン,0
2057,8180001149910,新規,0,2022-02-08,2022-02-08,株式会社ＢＥＡＮＳソリューション,,株式会社,愛知県,名古屋市中川区,柳川町２０番５号ライオンズマンション八熊通３０５号,,23,110,4540014,,,,,,,2022-02-08,1,,,,,ビーンズソリューション,0
2058,8180001149919,新規,0,2022-02-08,2022-02-08,株式会社Ｓ．Ｈ．Ｂ,,株式会社,愛知県,名古屋市瑞穂区,田辺通２丁目２７番地,,23,108,4670027,,,,,,,2022-02-08,1,,,,,エスエイチビー,0
2059,8180001149935,新規,0,2022-02-08,2022-02-08,株式会社Ｌｉｋｅｌｙ,,株式会社,愛知県,名古屋市瑞穂区,密柑山町１丁目１２番地の２三旺マンション密柑山１０３号,,23,108,4670041,,,,,,,2022-02-08,1,,,,,ライクリー,0
2062,8180003023477,新規,0,2022-02-08,2022-02-08,ＮＡＹＡＮ・ＨＡＬＡＬ・ＦＯＯＤ合同会社,,合同会社,愛知県,名古屋市中村区,名駅南３丁目１０番７号ＬＥ・ＣＯＣＯＮ名駅南２Ｆ,,23,105,4500003,,,,,,,2022-02-08,1,,,,,ナヤンハラルフード,0
2075,8240001059310,新規,0,2022-02-08,2022-02-08,株式会社ＳＩＳＵ,,株式会社,広島県,広島市中区,富士見町１６番４－８０３号,,34,101,7300043,,,,,,,2022-02-08,1,,,,,シス,0
2082,8260001036506,新規,0,2022-02-08,2022-02-08,株式会社ＣＨＲ,,株式会社,岡山県,岡山市北区,蕃山町４番１８号,,33,101,7000818,,,,,,,2022-02-08,1,,,,,シーエイチアール,0
2087,8290001096373,新規,0,2022-02-08,2022-02-08,株式会社タイセイ,,株式会社,福岡県,福岡市東区,香椎台５丁目３０番２２号,,40,131,8130014,,,,,,,2022-02-08,1,,,,,タイセイ,0
2100,8360001029986,新規,0,2022-02-08,2022-02-08,株式会社金城電器,,株式会社,沖縄県,名護市,東江４丁目２１番５号,,47,209,9050021,,,,,,,2022-02-08,1,,,,,キンジョウデンキ,0
2109,8380001032567,新規,0,2022-02-08,2022-02-08,トラバー株式会社,,株式会社,福島県,いわき市,平鎌田字石切場３大橋ハイツ１０６,,07,204,9708023,,,,,,,2022-02-08,1,,,,,トラバー,0
2114,8420001017737,新規,0,2022-02-08,2022-02-08,株式会社ファンタスティックエンターテイメント,,株式会社,青森県,青森市,大字滝沢字下川原１番地,,02,201,0393524,,,,,,,2022-02-08,1,,,,,ファンタスティックエンターテイメント,0
2120,8430001085972,新規,0,2022-02-08,2022-02-08,株式会社Ｅ．Ｕ,,株式会社,北海道,札幌市白石区,本郷通７丁目北１番１号,,01,104,0030025,,,,,,,2022-02-08,1,,,,,イードットユー,0
2128,8700150106997,新規,0,2022-02-08,2022-02-08,ＯＲＣＨＩＤ　ＬＡＮＫＡ　ＨＯＬＤＩＮＧＳ　ＰＲＩＶＡＴＥ　ＬＩＭＩＴＥＤ,,外国会社等,千葉県,香取市,一ノ分目３６９５番地３,,12,236,2890301,スリランカ民主社会主義共和国、キャンディ、アクラナ、ドダンゴラ、２３３－Ｂ,,,,,,2022-02-08,1,,,,,オルチドランカホールデイングスプライベートリミテツド,0
2142,9010401165416,新規,0,2022-02-08,2022-02-08,株式会社ＮＥＯ　ＯＮＥ,,株式会社,東京都,港区,東新橋１丁目１０番１号,,13,103,1050021,,,,,,,2022-02-08,1,,,,,ネオワン,0
2143,9010401165424,新規,0,2022-02-08,2022-02-08,造りき株式会社,,株式会社,東京都,港区,白金１丁目１７－１－２０１３,,13,103,1080072,,,,,,,2022-02-08,1,,,,,ゾウリキ,0
2145,9010403026839,新規,0,2022-02-08,2022-02-08,合同会社ボヌール,,合同会社,東京都,港区,芝１丁目１２番１７号,,13,103,1050014,,,,,,,2022-02-08,1,,,,,ボヌール,0
2146,9010403027052,新規,0,2022-02-08,2022-02-08,ＲＢソーラーアクエリアス合同会社,,合同会社,東京都,港区,虎ノ門３丁目２２番１０－２０１号,,13,103,1050001,,,,,,,2022-02-08,1,,,,,アールビーソーラーアクエリアス,0
2149,9010405020666,新規,0,2022-02-08,2022-02-08,一般社団法人マグネシウムエネルギー基金協会,,その他の設立登記法人,東京都,港区,新橋２丁目５番６号,,13,103,1050004,,,,,,,2022-02-08,1,,,,,マグネシウムエネルギーキキンキョウカイ,0
2150,9010405020674,新規,0,2022-02-08,2022-02-08,ＲＢソーラーリブラホールディングス一般社団法人,,その他の設立登記法人,東京都,港区,虎ノ門３丁目２２番１０－２０１号,,13,103,1050001,,,,,,,2022-02-08,1,,,,,アールビーソーラーリブラホールディングス,0
2154,9010601060648,新規,0,2022-02-08,2022-02-08,株式会社ケビネ,,株式会社,東京都,江東区,扇橋２丁目１番１１号ベルハイツ４０１,,13,108,1350011,,,,,,,2022-02-08,1,,,,,ケビネ,0
2156,9010701042182,新規,0,2022-02-08,2022-02-08,ノバセル株式会社,,株式会社,東京都,品川区,上大崎２丁目２４番９号,,13,109,1410021,,,,,,,2022-02-08,1,,,,,ノバセル,0
2161,9010903007140,新規,0,2022-02-08,2022-02-08,江ノ菱合同会社,,合同会社,東京都,世田谷区,上馬４丁目３２－３,,13,112,1540011,,,,,,,2022-02-08,1,,,,,エノビシ,0
2166,9011001145485,新規,0,2022-02-08,2022-02-08,株式会社Ｔａｘ　Ｐｏｉｎｔ,,株式会社,東京都,渋谷区,代々木１丁目３０番１５号天翔代々木ビルＳ２０６,,13,113,1510053,,,,,,,2022-02-08,1,,,,,タックスポイント,0
2168,9011101097742,新規,0,2022-02-08,2022-02-08,福祉バンク株式会社,,株式会社,東京都,新宿区,西新宿３丁目３番１３号西新宿水間ビル６階,,13,104,1600023,,,,,,,2022-02-08,1,,,,,フクシバンク,0
2169,9011103011445,新規,0,2022-02-08,2022-02-08,合同会社四谷事務所,,合同会社,東京都,新宿区,四谷１丁目２番地６アーバンビルサカス３Ｆ,,13,104,1600004,,,,,,,2022-02-08,1,,,,,ヨツヤジムショ,0
2184,9011803004962,新規,0,2022-02-08,2022-02-08,合同会社ウェルストーン造園,,合同会社,東京都,葛飾区,奥戸９丁目１５－５－３０３,,13,122,1240022,,,,,,,2022-02-08,1,,,,,ウェルストーンゾウエン,0
2191,9012401038840,新規,0,2022-02-08,2022-02-08,株式会社エヌファースト,,株式会社,東京都,武蔵野市,吉祥寺本町２丁目１２番２号,,13,203,1800004,,,,,,,2022-02-08,1,,,,,エヌファースト,0
2194,9013301048599,新規,0,2022-02-08,2022-02-08,新勝利株式会社,,株式会社,東京都,豊島区,池袋本町１丁目１７番４号ウィン池袋８０６号室,,13,116,1700011,,,,,,,2022-02-08,1,,,,,シンショウリ,0
2195,9013301048657,新規,0,2022-02-08,2022-02-08,三和株式会社,,株式会社,東京都,豊島区,長崎３丁目２４番１５－２０１号,,13,116,1710051,,,,,,,2022-02-08,1,,,,,サンワ,0
2198,9013303006027,新規,0,2022-02-08,2022-02-08,合同会社ＨＩＫＥＮ,,合同会社,東京都,豊島区,北大塚１丁目２２番８号,,13,116,1700004,,,,,,,2022-02-08,1,,,,,ヒケン,0
2210,9020001145123,新規,0,2022-02-08,2022-02-08,Ｇａｍｉｎｇ　Ｈｏｕｓｅ株式会社,,株式会社,神奈川県,横浜市西区,平沼１丁目１４番２０－４１０号,,14,103,2200023,,,,,,,2022-02-08,1,,,,,ゲーミングハウス,0
2219,9030001146723,新規,0,2022-02-08,2022-02-08,株式会社湯口,,株式会社,埼玉県,所沢市,北中２丁目１５７番地の９,,11,208,3591101,,,,,,,2022-02-08,1,,,,,ユグチ,0
2223,9040001122161,新規,0,2022-02-08,2022-02-08,フライアス株式会社,,株式会社,千葉県,船橋市,北本町２丁目３３番１０号,,12,204,2730864,,,,,,,2022-02-08,1,,,,,フライアス,0
2224,9040003019439,新規,0,2022-02-08,2022-02-08,ＡＫＡＬＡ合同会社,,合同会社,千葉県,柏市,十余二２５４番地３１,,12,217,2770872,,,,,,,2022-02-08,1,,,,,アカラ,0
2225,9040003019455,新規,0,2022-02-08,2022-02-08,合同会社ｏｎｃｅ,,合同会社,千葉県,八千代市,下市場２丁目１－１９ハイネス勝田台弐番館２０４,,12,221,2760026,,,,,,,2022-02-08,1,,,,,ワンス,0
2226,9050003006353,新規,0,2022-02-08,2022-02-08,合同会社ｏｒ　ｓｔｙｌｅ,,合同会社,茨城県,水戸市,鯉淵町３４１８番地５０,,08,201,3190323,,,,,,,2022-02-08,1,,,,,オレスタイル,0
2227,9050003006361,新規,0,2022-02-08,2022-02-08,ＡＩＫグローバルコンサルティング合同会社,,合同会社,茨城県,つくば市,天久保１丁目１１番１１号ヴィレッタつくば天久保Ｄ棟Ｄ１,,08,220,3050005,,,,,,,2022-02-08,1,,,,,エーアイケーグローバルコンサルティング,0
2230,9070001038933,新規,0,2022-02-08,2022-02-08,テック北関東サービス株式会社,,株式会社,群馬県,邑楽郡千代田町,大字新福寺９９３番地１,,10,523,3700505,,,,,,,2022-02-08,1,,,,,テックキタカントウサービス,0
2234,9080101023090,新規,0,2022-02-08,2022-02-08,株式会社ＡＳＳＨ,,株式会社,静岡県,沼津市,高島町３‐１ホクサン駿河ビル,,22,203,4100056,,,,,,,2022-02-08,1,,,,,アッシュ,0
2237,9100001035051,新規,0,2022-02-08,2022-02-08,株式会社星秀園,,株式会社,長野県,上田市,仁古田４３２番地１,,20,203,3861544,,,,,,,2022-02-08,1,,,,,セイシュウエン,0
2244,9120001243726,新規,0,2022-02-08,2022-02-08,株式会社ダイムス,,株式会社,大阪府,大阪市生野区,小路２丁目２６番２オーナーズマンション７０７号,,27,116,5440002,,,,,,,2022-02-08,1,,,,,ダイムス,0
2245,9120001243750,新規,0,2022-02-08,2022-02-08,株式会社ＢＩＧ　ＢＯＯＭ,,株式会社,大阪府,寝屋川市,長栄寺町４番１号２０３号室,,27,215,5720061,,,,,,,2022-02-08,1,,,,,ビックブーン,0
2251,9120003021056,新規,0,2022-02-08,2022-02-08,合同会社イフル,,合同会社,大阪府,大阪市北区,菅栄町２番１８号タナベハイツ７０３号室,,27,127,5300031,,,,,,,2022-02-08,1,,,,,イフル,0
2252,9120003021064,新規,0,2022-02-08,2022-02-08,ワンセルフ合同会社,,合同会社,大阪府,大阪市北区,大淀南２丁目６番８リーガル北梅田２０２号,,27,127,5310075,,,,,,,2022-02-08,1,,,,,ワンセルフ,0
2253,9120003021106,新規,0,2022-02-08,2022-02-08,合同会社ＯＳＹプランニング,,合同会社,大阪府,大阪市中央区,島之内１丁目７番２１号,,27,128,5420082,,,,,,,2022-02-08,1,,,,,オーエスワイプランニング,0
2254,9120005022770,新規,0,2022-02-08,2022-02-08,医療法人令賀会,,その他の設立登記法人,大阪府,大阪市東淀川区,大道南３丁目１４番４号,,27,114,5330012,,,,,,,2022-02-08,1,,,,,レイガカイ,0
2255,9120005022779,新規,0,2022-02-08,2022-02-08,医療法人吉春会,,その他の設立登記法人,大阪府,大阪市中央区,西心斎橋１丁目１番１０号プレリー心斎橋ビル７階,,27,128,5420086,,,,,,,2022-02-08,1,,,,,ヨシハルカイ,0
2260,9120901045577,新規,0,2022-02-08,2022-02-08,株式会社ｉｅｎａ,,株式会社,大阪府,豊中市,中桜塚４丁目１４番１３号,,27,203,5610881,,,,,,,2022-02-08,1,,,,,イエナ,0
2265,9130001070789,新規,0,2022-02-08,2022-02-08,ＴＩＣソリューション株式会社,,株式会社,京都府,京都市中京区,壬生神明町１番地１８－３０９,,26,104,6048861,,,,,,,2022-02-08,1,,,,,ティーアイシーソリューション,0
2266,9130001071093,新規,0,2022-02-08,2022-02-08,天野ホールディングス株式会社,,株式会社,京都府,京都市伏見区,横大路芝生４３－６,,26,109,6128246,,,,,,,2022-02-08,1,,,,,アマノホールディングス,0
2267,9130001071102,新規,0,2022-02-08,2022-02-08,株式会社京蝶,,株式会社,京都府,京都市南区,唐橋花園町６５番地１０,,26,107,6018465,,,,,,,2022-02-08,1,,,,,キョウチョウ,0
2280,9140001124800,新規,0,2022-02-08,2022-02-08,株式会社ＣＳ‐ＬＩＮＥ,,株式会社,兵庫県,神戸市長田区,西尻池町２丁目３番６号フォレスト１－１０２号,,28,106,6530031,,,,,,,2022-02-08,1,,,,,シーエスライン,0
2290,9180003023484,新規,0,2022-02-08,2022-02-08,合同会社アイカン,,合同会社,愛知県,名古屋市千種区,香流橋２丁目１番４０号（ユーステージ香流参番館３０６号）,,23,101,4640002,,,,,,,2022-02-08,1,,,,,アイカン,0
2292,9180301035909,新規,0,2022-02-08,2022-02-08,株式会社ムラセ銅器,,株式会社,愛知県,岡崎市,羽根町字小豆坂１５１番地,,23,202,4440814,,,,,,,2022-02-08,1,,,,,ムラセドウキ,0
2293,9190001029111,新規,0,2022-02-08,2022-02-08,株式会社リアルエステートプラザ,,株式会社,三重県,伊勢市,勢田町４９番地４５,,24,203,5160035,,,,,,,2022-02-08,1,,,,,リアルエステートプラザ,0
2318,9290001096372,新規,0,2022-02-08,2022-02-08,東極株式会社,,株式会社,福岡県,福岡市博多区,美野島２丁目３－１９－５０２,,40,132,8120017,,,,,,,2022-02-08,1,,,,,トウキョク,0
2326,9320003003694,新規,0,2022-02-08,2022-02-08,合同会社ｍｏｔｔａｉ,,合同会社,大分県,大分市,西大道１丁目１番６３号第５大成ビル１０５,,44,201,8700820,,,,,,,2022-02-08,1,,,,,モッタイ,0
2331,9330001029435,新規,0,2022-02-08,2022-02-08,株式会社ＲＥＤ,,株式会社,熊本県,阿蘇郡南阿蘇村,大字河陰３７７７番地２,,43,433,8691411,,,,,,,2022-02-08,1,,,,,レッド,0
2335,9360003011784,新規,0,2022-02-08,2022-02-08,合同会社ＡＰＯＲＯ,,合同会社,沖縄県,宜野湾市,志真志３丁目７番１２－２０９号,,47,205,9012213,,,,,,,2022-02-08,1,,,,,アポロ,0
2337,9370003005579,新規,0,2022-02-08,2022-02-08,ツジケンキサービス合同会社,,合同会社,宮城県,仙台市青葉区,本町１丁目５番２８－６０３号カーニープレイス仙台駅前通,,04,101,9800014,,,,,,,2022-02-08,1,,,,,ツジケンキサービス,0
2341,9380003005099,新規,0,2022-02-08,2022-02-08,合同会社マヌシ,,合同会社,福島県,郡山市,喜久田町字寺久保２３番地の２２２寺久保サンシャイン２０１号,,07,203,9630551,,,,,,,2022-02-08,1,,,,,マヌシ,0
2343,9400001015774,新規,0,2022-02-08,2022-02-08,株式会社ＵＮＩＬＡＢＡ,,株式会社,岩手県,奥州市,江刺岩谷堂字下苗代沢６４６番地１,,03,215,0231101,,,,,,,2022-02-08,1,,,,,ユニラバ,0
2351,9430001085971,新規,0,2022-02-08,2022-02-08,株式会社マウントフジビュー,,株式会社,北海道,札幌市西区,西野七条３丁目１番２７号,,01,107,0630037,,,,,,,2022-02-08,1,,,,,マウントフジビュー,0
2362,9500005008459,新規,0,2022-02-08,2022-02-08,ＮＰＯ法人久万高原湯あみベース,,その他の設立登記法人,愛媛県,松山市,歩行町１丁目１２番地２クレアセトル歩行町８０１号,,38,201,7900801,,,,,,,2022-02-08,1,,,,,クマコウゲンユアミベース,0
