sequenceNumber,corporateNumber,process,correct,updateDate,changeDate,name,nameImageId,kind,prefectureName,cityName,streetNumber,addressImageId,prefectureCode,cityCode,postCode,addressOutside,addressOutsideImageId,closeDate,closeCause,successorCorporateNumber,changeCause,assignmentDate,latest,enName,enPrefectureName,enCityName,enAddressOutside,furigana,hihyoji
6,1010001223044,新規,0,2021-12-15,2021-12-15,東京ロジスティクスコンサルティング株式会社,,株式会社,東京都,千代田区,丸の内１丁目８番３号丸の内トラストタワー本館２０階,,13,101,1000005,,,,,,,2021-12-15,1,,,,,トウキョウロジスティクスコンサルティング,0
7,1010001223250,新規,0,2021-12-15,2021-12-15,メイ日本株式会社,,株式会社,東京都,千代田区,九段南２丁目３番２５号,,13,101,1020074,,,,,,,2021-12-15,1,,,,,メイニッポン,0
8,1010001223267,新規,0,2021-12-15,2021-12-15,株式会社Ｅｍｏｔｉｏｎａｌ　Ｐｉｃｔｕｒｅｓ,,株式会社,東京都,千代田区,麹町６丁目４番地１６ＥＳＣＡＬＩＥＲ麹町４Ｆ,,13,101,1020083,,,,,,,2021-12-15,1,,,,,エモーショナルピクチャーズ,0
11,1010003036535,新規,0,2021-12-15,2021-12-15,ジェイコアレジ４合同会社７,,合同会社,東京都,千代田区,丸の内３丁目１番１号東京共同会計事務所内,,13,101,1000005,,,,,,,2021-12-15,1,,,,,ジェイコアレジフォーナナ,0
12,1010003036551,新規,0,2021-12-15,2021-12-15,ＳＳＲＣ合同会社,,合同会社,東京都,中央区,銀座７丁目５－４,,13,102,1040061,,,,,,,2021-12-15,1,,,,,エスエスアールシー,0
18,1010401164433,新規,0,2021-12-15,2021-12-15,株式会社ＯＡＳＹＳ－ＳＯＦＴ,,株式会社,東京都,港区,新橋５丁目２２号３号ル・グラシエルＢＬＤＧ．３－２階（北）,,13,103,1050004,,,,,,,2021-12-15,1,,,,,オアシスソフト,0
20,1010501048214,新規,0,2021-12-15,2021-12-15,株式会社エムティービー,,株式会社,東京都,台東区,浅草橋２丁目１６番８号,,13,106,1110053,,,,,,,2021-12-15,1,,,,,エムティービー,0
21,1010501048222,新規,0,2021-12-15,2021-12-15,株式会社ミライ,,株式会社,東京都,台東区,根岸５丁目２４－４－９０３,,13,106,1100003,,,,,,,2021-12-15,1,,,,,ミライ,0
40,1011001144478,新規,0,2021-12-15,2021-12-15,株式会社Ｍｅｔａ　Ｈｅｒｏｅｓ,,株式会社,東京都,目黒区,下目黒１丁目８番１号目黒アルコタワー７Ｆ,,13,110,1530064,,,,,,,2021-12-15,1,,,,,メタヒーローズ,0
41,1011001144544,新規,0,2021-12-15,2021-12-15,株式会社マンドリーム,,株式会社,東京都,渋谷区,道玄坂２丁目１７－３ＳＧビルＢ１階,,13,113,1500043,,,,,,,2021-12-15,1,,,,,マンドリーム,0
42,1011001144552,新規,0,2021-12-15,2021-12-15,株式会社ＲＥＩ,,株式会社,東京都,渋谷区,元代々木町１０番８号関ビル１階,,13,113,1510062,,,,,,,2021-12-15,1,,,,,レイ,0
43,1011001144577,新規,0,2021-12-15,2021-12-15,株式会社Ｋ・Ｍグローバル,,株式会社,東京都,渋谷区,広尾５丁目１４番２号,,13,113,1500012,,,,,,,2021-12-15,1,,,,,ケーエムグローバル,0
44,1011001144593,新規,0,2021-12-15,2021-12-15,株式会社ＩｎＮＯｗｔ,,株式会社,東京都,渋谷区,神宮前５丁目４７番１０号ＯＤ表参道ビル４階,,13,113,1500001,,,,,,,2021-12-15,1,,,,,インアウト,0
45,1011003013879,新規,0,2021-12-15,2021-12-15,合同会社Ｒｅｖｅｒｓｅ　Ｔｏｎｅ,,合同会社,東京都,渋谷区,神宮前６丁目２３番４号桑野ビル２階,,13,113,1500001,,,,,,,2021-12-15,1,,,,,リバーストーン,0
51,1011101097188,新規,0,2021-12-15,2021-12-15,株式会社Ｆｒｏｎｔ　Ｆｌｉｐ,,株式会社,東京都,新宿区,西新宿３丁目３番地１３号西新宿水間ビル６階,,13,104,1600023,,,,,,,2021-12-15,1,,,,,フロントフリップ,0
57,1011203003713,新規,0,2021-12-15,2021-12-15,合同会社マライヒ,,合同会社,東京都,中野区,東中野５丁目２３番１６関東小滝橋第三マンション４０５号,,13,114,1640003,,,,,,,2021-12-15,1,,,,,マライヒ,0
65,1011501027570,新規,0,2021-12-15,2021-12-15,株式会社すしログ,,株式会社,東京都,北区,滝野川３丁目８番１号,,13,117,1140023,,,,,,,2021-12-15,1,,,,,スシログ,0
76,1013303005952,新規,0,2021-12-15,2021-12-15,シャルムアール合同会社,,合同会社,東京都,豊島区,南大塚３丁目４２番８号Ｎビル２０１,,13,116,1700005,,,,,,,2021-12-15,1,,,,,シャルムアール,0
89,1020003020975,新規,0,2021-12-15,2021-12-15,合同会社ｍａ－ｔａｋｅ,,合同会社,神奈川県,横浜市戸塚区,汲沢４丁目３６番１２－１０１号,,14,110,2450061,,,,,,,2021-12-15,1,,,,,マテイク,0
92,1021001074749,新規,0,2021-12-15,2021-12-15,株式会社Ｓｕｂｎａ,,株式会社,神奈川県,厚木市,長谷１３０１番地２,,14,212,2430036,,,,,,,2021-12-15,1,,,,,サブナ,0
93,1021001074765,新規,0,2021-12-15,2021-12-15,株式会社専科グループ,,株式会社,神奈川県,伊勢原市,桜台２丁目１番２７号,,14,214,2591132,,,,,,,2021-12-15,1,,,,,センカグループ,0
94,1021005012390,新規,0,2021-12-15,2021-12-15,医療法人湘養会,,その他の設立登記法人,神奈川県,茅ヶ崎市,浜竹３丁目３番１４号,,14,207,2530021,,,,,,,2021-12-15,1,,,,,ショウヨウカイ,0
97,1030001145815,新規,0,2021-12-15,2021-12-15,株式会社ＷＡＫＵ建築,,株式会社,埼玉県,入間市,扇町屋１丁目８番１４号２,,11,225,3580022,,,,,,,2021-12-15,1,,,,,ワクケンチク,0
98,1030001145831,新規,0,2021-12-15,2021-12-15,株式会社ときわインターナショナルジャパン,,株式会社,埼玉県,鴻巣市,生出塚２丁目６番１４号,,11,217,3650033,,,,,,,2021-12-15,1,,,,,トキワインターナショナルジャパン,0
103,1030003018481,新規,0,2021-12-15,2021-12-15,合同会社ＳＨＩＭＡ,,合同会社,埼玉県,草加市,松原２丁目３番５－１００１号,,11,221,3400041,,,,,,,2021-12-15,1,,,,,シマ,0
105,1030005020650,新規,0,2021-12-15,2021-12-15,特定非営利活動法人みさと,,その他の設立登記法人,埼玉県,三郷市,早稲田１丁目１４－１コスモスクエア１０２号,,11,237,3410018,,,,,,,2021-12-15,1,,,,,ミサト,0
112,1040001121360,新規,0,2021-12-15,2021-12-15,フォースナイン株式会社,,株式会社,千葉県,我孫子市,布佐８５６番地,,12,222,2701101,,,,,,,2021-12-15,1,,,,,フォースナイン,0
113,1040001121369,新規,0,2021-12-15,2021-12-15,株式会社クリーンエース,,株式会社,千葉県,柏市,酒井根３丁目２２番４号,,12,217,2770053,,,,,,,2021-12-15,1,,,,,クリーンエース,0
114,1040001121377,新規,0,2021-12-15,2021-12-15,株式会社ファースト・エムズ,,株式会社,千葉県,船橋市,高根町２７１３番地１０,,12,204,2740817,,,,,,,2021-12-15,1,,,,,ファーストエムズ,0
115,1040001121393,新規,0,2021-12-15,2021-12-15,バッシュファイバー株式会社,,株式会社,千葉県,我孫子市,布施２３７３番地の２,,12,222,2701162,,,,,,,2021-12-15,1,,,,,バッシュファイバー,0
118,1040003019132,新規,0,2021-12-15,2021-12-15,合同会社グラスネット,,合同会社,千葉県,我孫子市,船戸１丁目９番８号,,12,222,2701158,,,,,,,2021-12-15,1,,,,,グラスネット,0
120,1050001050294,新規,0,2021-12-15,2021-12-15,株式会社菅生商会,,株式会社,茨城県,稲敷郡美浦村,大字花見塚８１３番地５,,08,442,3000418,,,,,,,2021-12-15,1,,,,,スガオショウカイ,0
123,1050003006261,新規,0,2021-12-15,2021-12-15,合同会社すまいる,,合同会社,茨城県,石岡市,東石岡５丁目４番５３号,,08,205,3150037,,,,,,,2021-12-15,1,,,,,スマイル,0
126,1060001034379,新規,0,2021-12-15,2021-12-15,株式会社ＫＩＫＫＯＵＪＩＮ　ＨＯＬＤＩＮＧＳ,,株式会社,栃木県,鹿沼市,茂呂５７１番地４,,09,205,3220026,,,,,,,2021-12-15,1,,,,,キッコウジンホールディングス,0
127,1060001034387,新規,0,2021-12-15,2021-12-15,Ａｌｋｕ株式会社,,株式会社,栃木県,栃木市,薗部町２丁目６番１９－１号,,09,203,3280074,,,,,,,2021-12-15,1,,,,,アルク,0
129,1060003003902,新規,0,2021-12-15,2021-12-15,合同会社スポーツジムラッキーパンチ,,合同会社,栃木県,宇都宮市,中岡本町２７７１番地３３,,09,201,3291105,,,,,,,2021-12-15,1,,,,,スポーツジムラッキーパンチ,0
135,1080001024634,新規,0,2021-12-15,2021-12-15,静岡運輸株式会社,,株式会社,静岡県,静岡市葵区,北安東５丁目２４番１６－６号,,22,101,4200881,,,,,,,2021-12-15,1,,,,,シズオカウンユ,0
139,1080105006198,新規,0,2021-12-15,2021-12-15,ＮＰＯ法人富士山ウォーキングごみ拾い,,その他の設立登記法人,静岡県,富士市,富士町５番１号,,22,210,4160915,,,,,,,2021-12-15,1,,,,,フジサンウォーキングゴミヒロイ,0
140,1090001017323,新規,0,2021-12-15,2021-12-15,株式会社エバーフロー,,株式会社,山梨県,中巨摩郡昭和町,西条２３３１番地５,,19,384,4093866,,,,,,,2021-12-15,1,,,,,エバーフロー,0
143,1100001034894,新規,0,2021-12-15,2021-12-15,株式会社アリモータース,,株式会社,長野県,塩尻市,大字広丘堅石２１４６番地３６４百瀬ハイツ５,,20,215,3990705,,,,,,,2021-12-15,1,,,,,アリモータース,0
156,1120001242487,新規,0,2021-12-15,2021-12-15,株式会社ＴＴＢ,,株式会社,大阪府,大阪市浪速区,日本橋東１丁目６番７号,,27,111,5560006,,,,,,,2021-12-15,1,,,,,ティーティービー,0
157,1120001242495,新規,0,2021-12-15,2021-12-15,株式会社西来造園,,株式会社,大阪府,大阪市旭区,太子橋３丁目１３番１８号,,27,117,5350001,,,,,,,2021-12-15,1,,,,,サイライゾウエン,0
158,1120001242529,新規,0,2021-12-15,2021-12-15,スバキリ商店株式会社,,株式会社,大阪府,大阪市平野区,平野東１丁目８番６号,,27,126,5470043,,,,,,,2021-12-15,1,,,,,スバキリショウテン,0
162,1120003020643,新規,0,2021-12-15,2021-12-15,合同会社ペルル,,合同会社,大阪府,大阪市中央区,平野町２丁目５－８－２Ｆ,,27,128,5410046,,,,,,,2021-12-15,1,,,,,ペルル,0
163,1120003020759,新規,0,2021-12-15,2021-12-15,合同会社Ｓｐｅｃｕｌａｔｉｖｅ　Ｓｉｘ　Ｄｅｓｉｇｎｓ,,合同会社,大阪府,大阪市東淀川区,豊新３丁目４番２４号豊新ハイツ２２号,,27,114,5330014,,,,,,,2021-12-15,1,,,,,スペキュラティブシックスデザインズ,0
164,1120003020775,新規,0,2021-12-15,2021-12-15,合同会社ルーツ,,合同会社,大阪府,大阪市住吉区,長居２丁目２番８号サクセス長居５Ｅ号,,27,120,5580003,,,,,,,2021-12-15,1,,,,,ルーツ,0
170,1120901045337,新規,0,2021-12-15,2021-12-15,株式会社ｎｏｎ　ｄｅｓｉｇｎ,,株式会社,大阪府,三島郡島本町,百山２２番１－９０６号,,27,301,6180021,,,,,,,2021-12-15,1,,,,,ノンデザイン,0
171,1120901045353,新規,0,2021-12-15,2021-12-15,株式会社前進,,株式会社,大阪府,豊中市,東豊中町３丁目１１１番地の１２,,27,203,5600003,,,,,,,2021-12-15,1,,,,,ゼンシン,0
172,1120903003945,新規,0,2021-12-15,2021-12-15,Ｋａｒｕｔｅ－Ｓｈｉｍｕ合同会社,,合同会社,大阪府,豊中市,西緑丘３丁目１５番３９号,,27,203,5600005,,,,,,,2021-12-15,1,,,,,カルテシム,0
181,1140001124205,新規,0,2021-12-15,2021-12-15,株式会社ＲＩ,,株式会社,兵庫県,神戸市灘区,箕岡通４丁目６番１６号,,28,102,6570812,,,,,,,2021-12-15,1,,,,,アールアイ,0
182,1140005025952,新規,0,2021-12-15,2021-12-15,医療法人社団弘々会,,その他の設立登記法人,兵庫県,神戸市長田区,西尻池町２丁目３－６フォレストワン１Ｆ,,28,106,6530031,,,,,,,2021-12-15,1,,,,,コウコウカイ,0
192,1180001149108,新規,0,2021-12-15,2021-12-15,株式会社マーケティング・プロダクト・ファクトリー,,株式会社,愛知県,名古屋市中区,大須１丁目７番１４号パークＩＭビル２Ｆ,,23,106,4600011,,,,,,,2021-12-15,1,,,,,マーケティングプロダクトファクトリー,0
193,1180001149124,新規,0,2021-12-15,2021-12-15,ＫＳ　ＲＥＡＬ　ＥＳＴＡＴＥ株式会社,,株式会社,愛知県,稲沢市,高御堂２丁目３番１９号,,23,220,4928213,,,,,,,2021-12-15,1,,,,,ケイズリアルエステイト,0
198,1180005019562,新規,0,2021-12-15,2021-12-15,医療法人双英会,,その他の設立登記法人,愛知県,一宮市,時之島字四ツ辻２番地,00125141,23,203,4910002,,,,,,,2021-12-15,1,,,,,ソウエイカイ,0
199,1180301035718,新規,0,2021-12-15,2021-12-15,株式会社メリアボーテ,,株式会社,愛知県,豊田市,御幸本町２丁目２０３番地４,,23,211,4730901,,,,,,,2021-12-15,1,,,,,メリアボーテ,0
200,1180301035726,新規,0,2021-12-15,2021-12-15,カトウデザイン株式会社,,株式会社,愛知県,刈谷市,半城土中町２丁目２７番地７,,23,210,4480805,,,,,,,2021-12-15,1,,,,,カトウデザイン,0
213,1230003001772,新規,0,2021-12-15,2021-12-15,合同会社ｐｌａｎ‐Ａ　ＴＯＹＡＭＡ,,合同会社,富山県,富山市,大泉中町１番１号,,16,201,9398095,,,,,,,2021-12-15,1,,,,,プランエートヤマ,0
231,1290001095720,新規,0,2021-12-15,2021-12-15,田中工業株式会社,,株式会社,福岡県,八女郡広川町,大字日吉１１６４番地５３,,40,544,8340111,,,,,,,2021-12-15,1,,,,,タナカコウギョウ,0
232,1290001095729,新規,0,2021-12-15,2021-12-15,梵株式会社,,株式会社,福岡県,福岡市博多区,比恵町１－１８－８１０,,40,132,8120014,,,,,,,2021-12-15,1,,,,,ソヨギ,0
242,1350003003988,新規,0,2021-12-15,2021-12-15,合同会社Ｐｒｏｐ,,合同会社,宮崎県,宮崎市,新別府町２１１番地５ニューライフ新別府１０５,,45,201,8800834,,,,,,,2021-12-15,1,,,,,プロップ,0
257,1430001085566,新規,0,2021-12-15,2021-12-15,株式会社モナークイノベーション,,株式会社,北海道,小樽市,朝里２丁目２番８号,,01,203,0470151,,,,,,,2021-12-15,1,,,,,モナークイノベーション,0
258,1430001085590,新規,0,2021-12-15,2021-12-15,株式会社アール,,株式会社,北海道,札幌市東区,北二十五条東３丁目２番１３号,,01,103,0650025,,,,,,,2021-12-15,1,,,,,アール,0
261,1460101007104,新規,0,2021-12-15,2021-12-15,株式会社山田敏明牧場,,株式会社,北海道,中川郡幕別町,字糠内６６４番地,,01,643,0890786,,,,,,,2021-12-15,1,,,,,ヤマダトシアキボクジョウ,0
263,1470001018869,新規,0,2021-12-15,2021-12-15,株式会社三木建築工房,,株式会社,香川県,坂出市,王越町乃生１４４０番地４,,37,203,7620013,,,,,,,2021-12-15,1,,,,,ミキケンチクコウボウ,0
278,2010001222953,新規,0,2021-12-15,2021-12-15,ＶａｎＮｅｓｓ株式会社,,株式会社,東京都,中央区,勝どき６丁目３番１－５１８号,,13,102,1040054,,,,,,,2021-12-15,1,,,,,バンネス,0
279,2010001223266,新規,0,2021-12-15,2021-12-15,株式会社東京電力タイムレスキャピタルＳＰＣ２号,,株式会社,東京都,千代田区,内幸町１丁目２番２号,,13,101,1000011,,,,,,,2021-12-15,1,,,,,トウキョウデンリョクタイムレスキャピタルエスピーシーニゴウ,0
280,2010001223290,新規,0,2021-12-15,2021-12-15,株式会社ＩＣコーポレーション,,株式会社,東京都,中央区,日本橋蛎殻町２丁目１３番６号,,13,102,1030014,,,,,,,2021-12-15,1,,,,,アイシーコーポレーション,0
283,2010003036534,新規,0,2021-12-15,2021-12-15,ジェイコアレジ４合同会社６,,合同会社,東京都,千代田区,丸の内３丁目１番１号東京共同会計事務所内,,13,101,1000005,,,,,,,2021-12-15,1,,,,,ジェイコアレジフォーロク,0
284,2010003036559,新規,0,2021-12-15,2021-12-15,合同会社リベロ,,合同会社,東京都,千代田区,六番町１１－７－３０１,,13,101,1020085,,,,,,,2021-12-15,1,,,,,リベロ,0
285,2010003036567,新規,0,2021-12-15,2021-12-15,ウェルネス・デザイン合同会社,,合同会社,東京都,千代田区,神田三崎町３丁目５－９天翔水道橋ビル２階２１１号室,,13,101,1010061,,,,,,,2021-12-15,1,,,,,ウェルネスデザイン,0
291,2010401164440,新規,0,2021-12-15,2021-12-15,株式会社Ｌｉｍ,,株式会社,東京都,港区,芝４丁目１８番９号,,13,103,1080014,,,,,,,2021-12-15,1,,,,,リム,0
292,2010401164457,新規,0,2021-12-15,2021-12-15,コーリング株式会社,,株式会社,東京都,港区,東新橋２丁目７番３号昭和アステック１号館,,13,103,1050021,,,,,,,2021-12-15,1,,,,,コーリング,0
296,2010501048213,新規,0,2021-12-15,2021-12-15,株式会社アディショナル,,株式会社,東京都,台東区,浅草１丁目３２番７号,,13,106,1110032,,,,,,,2021-12-15,1,,,,,アディショナル,0
299,2010601060381,新規,0,2021-12-15,2021-12-15,株式会社ｗａｔａｓｓｏ,,株式会社,東京都,江東区,東陽２丁目３番１６－３０３号,,13,108,1350016,,,,,,,2021-12-15,1,,,,,ワタッソ,0
300,2010603009303,新規,0,2021-12-15,2021-12-15,合同会社ルスツテンボス,,合同会社,東京都,江東区,白河２丁目１２番３－１４０５号,,13,108,1350021,,,,,,,2021-12-15,1,,,,,ルスツテンボス,0
306,2010901050000,新規,0,2021-12-15,2021-12-15,株式会社ＤＡＮＧＲＩ,,株式会社,東京都,世田谷区,尾山台１丁目３番１８号,,13,112,1580086,,,,,,,2021-12-15,1,,,,,ダングリ,0
307,2010903007015,新規,0,2021-12-15,2021-12-15,合同会社アルンカ,,合同会社,東京都,世田谷区,玉川田園調布２丁目１０番１１号,,13,112,1580085,,,,,,,2021-12-15,1,,,,,アルンカ,0
308,2010903007023,新規,0,2021-12-15,2021-12-15,合同会社スリービー・ワークス,,合同会社,東京都,世田谷区,池尻３丁目１８－１２,,13,112,1540001,,,,,,,2021-12-15,1,,,,,スリービーワークス,0
316,2011001144601,新規,0,2021-12-15,2021-12-15,株式会社フィオーレ関西,,株式会社,東京都,渋谷区,神宮前３丁目１４番１７号赤須ビルＢ１Ｆ,,13,113,1500001,,,,,,,2021-12-15,1,,,,,フィオーレカンサイ,0
320,2011003013878,新規,0,2021-12-15,2021-12-15,Ｙ’ｓ　Ｐａｒｔｎｅｒｓ合同会社,,合同会社,東京都,渋谷区,南平台町５番３－４１４号,,13,113,1500036,,,,,,,2021-12-15,1,,,,,ワイズパートナーズ,0
323,2011101097229,新規,0,2021-12-15,2021-12-15,株式会社アクティブ,,株式会社,東京都,新宿区,新宿７丁目１９番２号メゾンドボナール２０２,,13,104,1600022,,,,,,,2021-12-15,1,,,,,アクティブ,0
328,2011203003712,新規,0,2021-12-15,2021-12-15,合同会社オフィス荒木,,合同会社,東京都,中野区,本町１丁目２３番１０号中根ハイム５０２,,13,114,1640012,,,,,,,2021-12-15,1,,,,,オフィスアラキ,0
331,2011301027423,新規,0,2021-12-15,2021-12-15,株式会社ブルラッシュ,,株式会社,東京都,杉並区,堀ノ内２丁目３１番２－６０２号,,13,115,1660013,,,,,,,2021-12-15,1,,,,,ブルラッシュ,0
333,2011303004247,新規,0,2021-12-15,2021-12-15,合同会社９＆９,,合同会社,東京都,杉並区,堀ノ内１丁目１０番５－３０２号,,13,115,1660013,,,,,,,2021-12-15,1,,,,,キューアンドキュー,0
342,2011601025606,新規,0,2021-12-15,2021-12-15,ライフジェンス株式会社,,株式会社,東京都,練馬区,錦１丁目１３番８号,,13,120,1790082,,,,,,,2021-12-15,1,,,,,ライフジェンス,0
348,2011801040058,新規,0,2021-12-15,2021-12-15,三源株式会社,,株式会社,東京都,足立区,千住２丁目３９永野コーポ１０１,,13,121,1200034,,,,,,,2021-12-15,1,,,,,サンゲン,0
349,2011801040066,新規,0,2021-12-15,2021-12-15,成田株式会社,,株式会社,東京都,足立区,神明南２丁目１７番２５号,,13,121,1210057,,,,,,,2021-12-15,1,,,,,ナリタ,0
359,2013301048424,新規,0,2021-12-15,2021-12-15,株式会社Ｆ－Ｌｉｎｋｓ,,株式会社,東京都,豊島区,池袋本町１丁目２１－３,,13,116,1700011,,,,,,,2021-12-15,1,,,,,エフリンクス,0
369,2020001144305,新規,0,2021-12-15,2021-12-15,アイパス経営コンサルティング株式会社,,株式会社,神奈川県,横浜市西区,北幸１丁目１１－５相鉄ＫＳビル９階,,14,103,2200004,,,,,,,2021-12-15,1,,,,,アイパスケイエイコンサルティング,0
370,2020001144346,新規,0,2021-12-15,2021-12-15,株式会社ＫＩＣＫ,,株式会社,神奈川県,横浜市青葉区,美しが丘西２丁目２０番地３３,,14,117,2250001,,,,,,,2021-12-15,1,,,,,キック,0
372,2020003020990,新規,0,2021-12-15,2021-12-15,合同会社Ｋ－２,,合同会社,神奈川県,横浜市青葉区,新石川４丁目２０番地１５－６０２,,14,117,2250003,,,,,,,2021-12-15,1,,,,,ケーツー,0
375,2021001074756,新規,0,2021-12-15,2021-12-15,株式会社Ｕｎｉｓｏｎ,,株式会社,神奈川県,藤沢市,弥勒寺３丁目１１番１２号,,14,205,2510016,,,,,,,2021-12-15,1,,,,,ユニゾン,0
381,2030001145814,新規,0,2021-12-15,2021-12-15,株式会社ＭＡＫＡ,,株式会社,埼玉県,春日部市,内牧１６７５番地１,,11,214,3440051,,,,,,,2021-12-15,1,,,,,マカ,0
382,2030001145822,新規,0,2021-12-15,2021-12-15,株式会社オーウェル,,株式会社,埼玉県,草加市,金明町８０３番地１１,,11,221,3400052,,,,,,,2021-12-15,1,,,,,オーウェル,0
383,2030001145871,新規,0,2021-12-15,2021-12-15,株式会社Ｃ－ＬＩＦＥ,,株式会社,埼玉県,狭山市,大字上奥富７８２番地の１,,11,215,3501333,,,,,,,2021-12-15,1,,,,,シーライフ,0
389,2030003018480,新規,0,2021-12-15,2021-12-15,Ｅｎｃｈａｎｔ合同会社,,合同会社,埼玉県,川口市,芝西２丁目１３番７号,,11,203,3330855,,,,,,,2021-12-15,1,,,,,エンチャント,0
394,2040001121310,新規,0,2021-12-15,2021-12-15,アークアロー株式会社,,株式会社,千葉県,八千代市,緑が丘西６丁目５番地１７,,12,221,2760040,,,,,,,2021-12-15,1,,,,,アークアロー,0
395,2040001121351,新規,0,2021-12-15,2021-12-15,平野板金株式会社,,株式会社,千葉県,いすみ市,山田７１９３番地,,12,238,2980025,,,,,,,2021-12-15,1,,,,,ヒラノバンキン,0
396,2040001121384,新規,0,2021-12-15,2021-12-15,ＪＢＭ株式会社,,株式会社,千葉県,習志野市,谷津１丁目１５番２２－２０１３号,,12,216,2750026,,,,,,,2021-12-15,1,,,,,ジェイビーエム,0
397,2040001121392,新規,0,2021-12-15,2021-12-15,株式会社グリッチ,,株式会社,千葉県,香取市,野田１７０９番地１４,,12,236,2890314,,,,,,,2021-12-15,1,,,,,グリッチ,0
402,2040003019131,新規,0,2021-12-15,2021-12-15,合同会社ＡＡＲＩＵＳ,,合同会社,千葉県,山武市,雨坪字東台６５番２１,,12,237,2891213,,,,,,,2021-12-15,1,,,,,アーリウス,0
407,2060001034378,新規,0,2021-12-15,2021-12-15,君島電工株式会社,,株式会社,栃木県,日光市,森友１５６１番地１,,09,206,3212335,,,,,,,2021-12-15,1,,,,,キミジマデンコウ,0
408,2060001034386,新規,0,2021-12-15,2021-12-15,株式会社ヒライシ,,株式会社,栃木県,芳賀郡芳賀町,大字下延生４７２番地２,,09,345,3213312,,,,,,,2021-12-15,1,,,,,ヒライシ,0
412,2060003003901,新規,0,2021-12-15,2021-12-15,合同会社Ｂｅｌｌｅ　Ｓｏｉｅ,,合同会社,栃木県,宇都宮市,一条４丁目３番１５号,,09,201,3200821,,,,,,,2021-12-15,1,,,,,ベルソワ,0
421,2090003002009,新規,0,2021-12-15,2021-12-15,合同会社ＦＵＲＵＹＡ　ＳＴＡＹ,,合同会社,山梨県,富士吉田市,下吉田３丁目１０番２号,,19,202,4030004,,,,,,,2021-12-15,1,,,,,フルヤステイ,0
423,2100001034885,新規,0,2021-12-15,2021-12-15,株式会社アート・アイズ,,株式会社,長野県,伊那市,日影５６３６番地４,,20,209,3960009,,,,,,,2021-12-15,1,,,,,アートアイズ,0
424,2100001034893,新規,0,2021-12-15,2021-12-15,株式会社ＡＹＵ,,株式会社,長野県,長野市,大字大豆島９３２番地３,,20,201,3810022,,,,,,,2021-12-15,1,,,,,アユ,0
427,2110003004654,新規,0,2021-12-15,2021-12-15,合同会社ＡＭＳトレーディング,,合同会社,新潟県,新潟市北区,松栄町１４６２番地１,,15,101,9503113,,,,,,,2021-12-15,1,,,,,エーエムエストレーディング,0
432,2120001242528,新規,0,2021-12-15,2021-12-15,株式会社ＲＩＤＥ,,株式会社,大阪府,寝屋川市,秦町１７番１０号,,27,215,5720848,,,,,,,2021-12-15,1,,,,,ライド,0
433,2120001242536,新規,0,2021-12-15,2021-12-15,株式会社ＯＫ,,株式会社,大阪府,大阪市中央区,松屋町３番２３－２００７号,,27,128,5420067,,,,,,,2021-12-15,1,,,,,オーケー,0
434,2120001242544,新規,0,2021-12-15,2021-12-15,株式会社Ｄｅｓｉｇｎｅｄ　Ｂｙ　Ｊａｐａｎ,,株式会社,大阪府,大阪市北区,芝田１丁目１番４号阪急ターミナルビル１６Ｆ,,27,127,5300012,,,,,,,2021-12-15,1,,,,,デザインドバイジャパン,0
435,2120001242560,新規,0,2021-12-15,2021-12-15,Ｆｏｒｅｓｔ株式会社,,株式会社,大阪府,大阪市北区,扇町２丁目６番１７－８０７号,,27,127,5300025,,,,,,,2021-12-15,1,,,,,フォレスト,0
436,2120003020774,新規,0,2021-12-15,2021-12-15,Ｋｉｎｇ　Ｇａｒｄｅｎ合同会社,,合同会社,大阪府,大阪市淀川区,宮原１丁目１６番３３－６０２号,,27,123,5320003,,,,,,,2021-12-15,1,,,,,キングガーデン,0
444,2122005003591,新規,0,2021-12-15,2021-12-15,一般社団法人えいとす,,その他の設立登記法人,大阪府,東大阪市,昭和町３番２号,,27,227,5798046,,,,,,,2021-12-15,1,,,,,エイトス,0
446,2130001070721,新規,0,2021-12-15,2021-12-15,株式会社Ｇｒｅｅｎ　Ｏｃｅａｎ,,株式会社,京都府,宇治市,羽拍子町１番地の１０,,26,204,6110027,,,,,,,2021-12-15,1,,,,,グリーンオーシャン,0
447,2130003007639,新規,0,2021-12-15,2021-12-15,合同会社ｍｉｎａｔｏ,,合同会社,京都府,京都市下京区,松原通東洞院東入本燈籠町１３番地１,,26,106,6008086,,,,,,,2021-12-15,1,,,,,ミナト,0
453,2140001124179,新規,0,2021-12-15,2021-12-15,株式会社ＴＭＳ,,株式会社,兵庫県,西宮市,雲井町７番８号,,28,204,6620064,,,,,,,2021-12-15,1,,,,,ティーエムエス,0
459,2140003017109,新規,0,2021-12-15,2021-12-15,合同会社今中,,合同会社,兵庫県,加古川市,平岡町一色西２丁目２３４番地の４,,28,210,6750117,,,,,,,2021-12-15,1,,,,,イマナカ,0
460,2140005025951,新規,0,2021-12-15,2021-12-15,一般社団法人ひょうご憩の宿,,その他の設立登記法人,兵庫県,神戸市中央区,下山手通６丁目３番２８号,,28,110,6500011,,,,,,,2021-12-15,1,,,,,ヒョウゴイコイノヤド,0
463,2150003002555,新規,0,2021-12-15,2021-12-15,合同会社ＹＯＳＨＩＦＯＯＤＡＮＤＤＲＩＮＫ,,合同会社,奈良県,吉野郡天川村,大字洞川４９１－５,,29,446,6380431,,,,,,,2021-12-15,1,,,,,ヨシフーズアンドドリンク,0
464,2160001023874,新規,0,2021-12-15,2021-12-15,株式会社ｏｎｅ測量,,株式会社,滋賀県,彦根市,小泉町２８５番地２３,,25,202,5220043,,,,,,,2021-12-15,1,,,,,ワンソクリョウ,0
474,2180001149098,新規,0,2021-12-15,2021-12-15,株式会社ＩＮＯＫＡＺＵ,,株式会社,愛知県,名古屋市名東区,貴船１丁目３２８番地,,23,115,4650058,,,,,,,2021-12-15,1,,,,,イノカズ,0
475,2180001149107,新規,0,2021-12-15,2021-12-15,株式会社新原総合事務所,,株式会社,愛知県,名古屋市天白区,表山１丁目３０１番地,,23,116,4680069,,,,,,,2021-12-15,1,,,,,ニイハラソウゴウジムショ,0
476,2180001149115,新規,0,2021-12-15,2021-12-15,ＫＫホールディングス株式会社,,株式会社,愛知県,名古屋市中川区,中野本町２丁目２８番地,,23,110,4540047,,,,,,,2021-12-15,1,,,,,ケイケイホールディングス,0
477,2180001149123,新規,0,2021-12-15,2021-12-15,株式会社カベヤ,,株式会社,愛知県,名古屋市守山区,大字中志段味字大洞口２７３３番地の８,,23,113,4630002,,,,,,,2021-12-15,1,,,,,カベヤ,0
481,2180003023292,新規,0,2021-12-15,2021-12-15,合同会社ヴェルデ,,合同会社,愛知県,名古屋市西区,浄心本通３丁目３０番地の１アーバンドエル庄内通１１１４号,,23,104,4510073,,,,,,,2021-12-15,1,,,,,ヴェルデ,0
482,2180005019553,新規,0,2021-12-15,2021-12-15,一般社団法人健康診断管理協会,,その他の設立登記法人,愛知県,名古屋市天白区,土原１丁目２２０番地,,23,116,4680026,,,,,,,2021-12-15,1,,,,,ケンコウシンダンカンリキョウカイ,0
483,2180005019561,新規,0,2021-12-15,2021-12-15,リンクサポート協同組合,,その他の設立登記法人,愛知県,春日井市,神明町１６番地２,,23,206,4860942,,,,,,,2021-12-15,1,,,,,リンクサポート,0
491,2200001039536,新規,0,2021-12-15,2021-12-15,株式会社シータートルズ,,株式会社,岐阜県,岐阜市,加納本町６丁目３６番地４,,21,201,5008474,,,,,,,2021-12-15,1,,,,,シータートルズ,0
494,2210001018729,新規,0,2021-12-15,2021-12-15,ＮＭＣ株式会社,,株式会社,福井県,福井市,稲多元町３の４番地,,18,201,9100154,,,,,,,2021-12-15,1,,,,,エヌエムシー,0
495,2220001024593,新規,0,2021-12-15,2021-12-15,株式会社Ｍｉｚｍ　Ｌａｎｄｓｃａｐｅ　Ａｒｃｈｉｔｅｃｔｓ,,株式会社,石川県,能美市,松が岡２丁目２６番地,,17,211,9231225,,,,,,,2021-12-15,1,,,,,ミズムランドスケープアーキテクツ,0
496,2220005008618,新規,0,2021-12-15,2021-12-15,一般社団法人セベラルプランニング,,その他の設立登記法人,石川県,金沢市,新神田４丁目８番１６号,,17,201,9218013,,,,,,,2021-12-15,1,,,,,セベラルプランニング,0
501,2240003005400,新規,0,2021-12-15,2021-12-15,Ｐｏｕｒｖｏｕｓ合同会社,,合同会社,広島県,広島市西区,三篠町２丁目１９番７－４０１号,,34,104,7330003,,,,,,,2021-12-15,1,,,,,プールブ,0
509,2290001095711,新規,0,2021-12-15,2021-12-15,株式会社ノーブル,,株式会社,福岡県,福岡市中央区,薬院３丁目１１番３号,,40,133,8100022,,,,,,,2021-12-15,1,,,,,ノーブル,0
511,2290003011939,新規,0,2021-12-15,2021-12-15,ＴＮワーク合同会社,,合同会社,福岡県,春日市,松ヶ丘３丁目１９５－６,,40,218,8160843,,,,,,,2021-12-15,1,,,,,ティエヌワーク,0
514,2290801028077,新規,0,2021-12-15,2021-12-15,株式会社ＨＢＳＣ,,株式会社,福岡県,北九州市八幡東区,前田２丁目１２番１－７０３号,,40,108,8050069,,,,,,,2021-12-15,1,,,,,エイチビーエスシー,0
527,2350001017469,新規,0,2021-12-15,2021-12-15,株式会社光商事,,株式会社,宮崎県,西臼杵郡日之影町,大字岩井川３６８０番地２１,,45,442,8820402,,,,,,,2021-12-15,1,,,,,ヒカリショウジ,0
534,2360001029769,新規,0,2021-12-15,2021-12-15,株式会社ｅｓ,,株式会社,沖縄県,那覇市,銘苅３丁目４番１７号,,47,201,9000004,,,,,,,2021-12-15,1,,,,,エス,0
546,2390001016715,新規,0,2021-12-15,2021-12-15,朝岡重機株式会社,,株式会社,山形県,米沢市,塩井町塩野６５８番地の１０,,06,202,9920042,,,,,,,2021-12-15,1,,,,,アサオカジュウキ,0
554,2430001085598,新規,0,2021-12-15,2021-12-15,株式会社Ｋａｍａｈｅｌｅ,,株式会社,北海道,札幌市東区,東雁来十一条４丁目１番５号,,01,103,0070031,,,,,,,2021-12-15,1,,,,,カマヘレ,0
557,2440001008995,新規,0,2021-12-15,2021-12-15,株式会社Ｗｉｌｄ　Ｂｏｒｎ,,株式会社,北海道,函館市,堀川町３１－８,,01,202,0400025,,,,,,,2021-12-15,1,,,,,ワイルドボーン,0
561,2460101007103,新規,0,2021-12-15,2021-12-15,株式会社コジマ,,株式会社,北海道,帯広市,西十八条北１丁目３番地,,01,207,0800048,,,,,,,2021-12-15,1,,,,,コジマ,0
585,3010003036525,新規,0,2021-12-15,2021-12-15,ＳＴＯＲＭＩ合同会社,,合同会社,東京都,千代田区,丸の内２丁目３番２号郵船ビルディング１階,,13,101,1000005,,,,,,,2021-12-15,1,,,,,ストーミ,0
586,3010003036533,新規,0,2021-12-15,2021-12-15,ジェイコアレジ４合同会社５,,合同会社,東京都,千代田区,丸の内３丁目１番１号東京共同会計事務所内,,13,101,1000005,,,,,,,2021-12-15,1,,,,,ジェイコアレジフォーゴ,0
587,3010003036558,新規,0,2021-12-15,2021-12-15,エネみらい富谷バイオマス合同会社,,合同会社,東京都,千代田区,神田三崎町２丁目２０番７号水道橋西口会館２階,,13,101,1010061,,,,,,,2021-12-15,1,,,,,エネミライトミヤバイオマス,0
588,3010003036574,新規,0,2021-12-15,2021-12-15,合同会社ヤナカ,,合同会社,東京都,中央区,銀座６丁目１２番１２号,,13,102,1040061,,,,,,,2021-12-15,1,,,,,ヤナカ,0
595,3010401164448,新規,0,2021-12-15,2021-12-15,株式会社Ｃｏｍｅｔ　Ｓｔｕｄｉｏ,,株式会社,東京都,港区,南青山２丁目４－１６ＧＯＯＤＷＩＬＬ青山３Ｆ,,13,103,1070062,,,,,,,2021-12-15,1,,,,,,0
596,3010401164456,新規,0,2021-12-15,2021-12-15,久慈洋上風力発電株式会社,,株式会社,東京都,港区,新橋６丁目１７番２１号住友不動産御成門駅前ビル１０階,,13,103,1050004,,,,,,,2021-12-15,1,,,,,クジヨウジョウフウリョクハツデン,0
598,3010601060389,新規,0,2021-12-15,2021-12-15,株式会社レモンサワー,,株式会社,東京都,江東区,三好２丁目６番１０号,,13,108,1350022,,,,,,,2021-12-15,1,,,,,レモンサワー,0
608,3011001144559,新規,0,2021-12-15,2021-12-15,ＡＴＴＥ株式会社,,株式会社,東京都,渋谷区,神宮前６丁目２３番４号桑野ビル２階,,13,113,1500001,,,,,,,2021-12-15,1,,,,,アテ,0
609,3011001144591,新規,0,2021-12-15,2021-12-15,株式会社ＭＩＳＭ,,株式会社,東京都,渋谷区,代々木１丁目５８番２号,,13,113,1510053,,,,,,,2021-12-15,1,,,,,ミズム,0
610,3011001144600,新規,0,2021-12-15,2021-12-15,株式会社フィオーレ関東,,株式会社,東京都,渋谷区,神宮前３丁目１４番１７号赤須ビルＢ１Ｆ,,13,113,1500001,,,,,,,2021-12-15,1,,,,,フィオーレカントウ,0
617,3011003013869,新規,0,2021-12-15,2021-12-15,合同会社リトルガールブルー,,合同会社,東京都,渋谷区,神山町３８番４号欅館Ｃ－１０２,,13,113,1500047,,,,,,,2021-12-15,1,,,,,リトルガールブルー,0
628,3011301027422,新規,0,2021-12-15,2021-12-15,株式会社アサヒ,,株式会社,東京都,杉並区,阿佐谷北３丁目１番１３号,,13,115,1660001,,,,,,,2021-12-15,1,,,,,アサヒ,0
630,3011303004246,新規,0,2021-12-15,2021-12-15,合同会社Ａ＆Ｇファーマコンサル,,合同会社,東京都,杉並区,高井戸東２丁目９番１８号,,13,115,1680072,,,,,,,2021-12-15,1,,,,,エーアンドジーファーマコンサル,0
631,3011501027569,新規,0,2021-12-15,2021-12-15,株式会社城山書房,,株式会社,東京都,北区,王子２丁目１５番８号ＭＹＳビル５Ｆ,,13,117,1140002,,,,,,,2021-12-15,1,,,,,シロヤマショボウ,0
632,3011503005003,新規,0,2021-12-15,2021-12-15,合同会社優来屋,,合同会社,東京都,荒川区,東日暮里２丁目４４番１号ミオカステーロ東日暮里６０１,,13,118,1160014,,,,,,,2021-12-15,1,,,,,ユウライヤ,0
637,3011603003468,新規,0,2021-12-15,2021-12-15,Ｆ’ｓファクトリー合同会社,,合同会社,東京都,練馬区,石神井台４丁目５番１４－２０９号,,13,120,1770045,,,,,,,2021-12-15,1,,,,,エフズファクトリー,0
638,3011701024903,新規,0,2021-12-15,2021-12-15,株式会社吉波商事,,株式会社,東京都,江戸川区,一之江４丁目９番１２－１３０２号,,13,123,1320024,,,,,,,2021-12-15,1,,,,,ヨシナミショウジ,0
639,3011701024911,新規,0,2021-12-15,2021-12-15,エスユーエヌ株式会社,,株式会社,東京都,江戸川区,清新町１丁目２番１－１１０５号,,13,123,1340087,,,,,,,2021-12-15,1,,,,,エスユーエヌ,0
647,3011801040057,新規,0,2021-12-15,2021-12-15,株式会社あっちこっち,,株式会社,東京都,足立区,千住旭町１１番６－５０５号,,13,121,1200026,,,,,,,2021-12-15,1,,,,,アッチコッチ,0
648,3011801040073,新規,0,2021-12-15,2021-12-15,株式会社Ｂｕｌｌ　Ｆｉｒｓｔ,,株式会社,東京都,足立区,日ノ出町１６番６号バルコンソア１０３,,13,121,1200021,,,,,,,2021-12-15,1,,,,,ブルファースト,0
654,3012403005159,新規,0,2021-12-15,2021-12-15,アイランドインターナショナル合同会社,,合同会社,東京都,三鷹市,下連雀４丁目１６番３９－１０４号,,13,204,1810013,,,,,,,2021-12-15,1,,,,,アイランドインターナショナル,0
662,3013301048415,新規,0,2021-12-15,2021-12-15,ＲＥＳＴＡＲ　ＰＲＯＰＥＲＴＩＥＳ株式会社,,株式会社,東京都,豊島区,南池袋２丁目３５番１号３階,,13,116,1710022,,,,,,,2021-12-15,1,,,,,リスタープロパティーズ,0
663,3013301048423,新規,0,2021-12-15,2021-12-15,株式会社ＧＮコーポレーション,,株式会社,東京都,豊島区,東池袋３丁目１１番７号,,13,116,1700013,,,,,,,2021-12-15,1,,,,,ジーエヌコーポレーション,0
668,3020001144262,新規,0,2021-12-15,2021-12-15,株式会社テイク,,株式会社,神奈川県,横浜市青葉区,荏子田２丁目６番地４６,,14,117,2250005,,,,,,,2021-12-15,1,,,,,テイク,0
669,3020001144320,新規,0,2021-12-15,2021-12-15,株式会社シナガワ,,株式会社,神奈川県,川崎市川崎区,扇町５番７号,,14,131,2100867,,,,,,,2021-12-15,1,,,,,シナガワ,0
670,3020001144337,新規,0,2021-12-15,2021-12-15,株式会社陽だまり,,株式会社,神奈川県,横浜市鶴見区,矢向５丁目１１－２７、２階,,14,101,2300001,,,,,,,2021-12-15,1,,,,,ヒダマリ,0
671,3020001144353,新規,0,2021-12-15,2021-12-15,株式会社ササオカ建装,,株式会社,神奈川県,川崎市麻生区,王禅寺西６丁目９番１９号,,14,137,2150017,,,,,,,2021-12-15,1,,,,,ササオカケンソウ,0
681,3021001074739,新規,0,2021-12-15,2021-12-15,ＳＳＳ株式会社,,株式会社,神奈川県,相模原市南区,相模大野７丁目６番８号,,14,153,2520303,,,,,,,2021-12-15,1,,,,,エスエスエス,0
682,3021001074755,新規,0,2021-12-15,2021-12-15,株式会社Ｔｅｃｔｕｒｅ,,株式会社,神奈川県,平塚市,宝町６番１８号原ビル１階,,14,203,2540034,,,,,,,2021-12-15,1,,,,,テクチャー,0
684,3021003011178,新規,0,2021-12-15,2021-12-15,合同会社羽山通信,,合同会社,神奈川県,藤沢市,村岡東３丁目１７番地の１ソレイユ湘南ＩＩＡ１０１,00125138,14,205,2510012,,,,,,,2021-12-15,1,,,,,パヤマツウシン,0
685,3021005012389,新規,0,2021-12-15,2021-12-15,医療法人積陽会,,その他の設立登記法人,神奈川県,海老名市,本郷２２０９番地の２,,14,215,2430417,,,,,,,2021-12-15,1,,,,,セキヨウカイ,0
689,3030001145813,新規,0,2021-12-15,2021-12-15,株式会社ＲＩＰ－ＯＦＦ,,株式会社,埼玉県,さいたま市緑区,美園５丁目４７番地９,,11,109,3360967,,,,,,,2021-12-15,1,,,,,リップオフ,0
690,3030001145821,新規,0,2021-12-15,2021-12-15,株式会社夏本商社,,株式会社,埼玉県,上尾市,浅間台１丁目１８番地２１,,11,219,3620073,,,,,,,2021-12-15,1,,,,,ナツモトショウシャ,0
691,3030001145854,新規,0,2021-12-15,2021-12-15,株式会社エンセンド,,株式会社,埼玉県,川口市,中青木１丁目１番３４号,,11,203,3320032,,,,,,,2021-12-15,1,,,,,エンセンド,0
697,3030003018496,新規,0,2021-12-15,2021-12-15,合同会社絶好調,,合同会社,埼玉県,春日部市,備後東２丁目２１番２－３号,,11,214,3440032,,,,,,,2021-12-15,1,,,,,ゼッコウチョウ,0
704,3040001121350,新規,0,2021-12-15,2021-12-15,株式会社栄徳ファーマシー,,株式会社,千葉県,市川市,東菅野１丁目６番１９号シーダーヒルズ１Ｆ,,12,203,2720823,,,,,,,2021-12-15,1,,,,,エイトクファーマシー,0
705,3040001121359,新規,0,2021-12-15,2021-12-15,株式会社リセット,,株式会社,千葉県,八千代市,吉橋８４４番地１,,12,221,2760047,,,,,,,2021-12-15,1,,,,,リセット,0
706,3040001121367,新規,0,2021-12-15,2021-12-15,株式会社Ｇｒｉｔ,,株式会社,千葉県,流山市,おおたかの森西１丁目２番地の５,,12,220,2700128,,,,,,,2021-12-15,1,,,,,グリット,0
707,3040001121391,新規,0,2021-12-15,2021-12-15,株式会社日本資源リサイクル,,株式会社,千葉県,八街市,朝日３２３番地１６,,12,230,2891101,,,,,,,2021-12-15,1,,,,,ニホンシゲンリサイクル,0
715,3040003019130,新規,0,2021-12-15,2021-12-15,グリーンレーベル合同会社,,合同会社,千葉県,船橋市,宮本１丁目２０番１０号サンカント・オラージュ船橋６０１号,,12,204,2730003,,,,,,,2021-12-15,1,,,,,グリーンレーベル,0
716,3050001050292,新規,0,2021-12-15,2021-12-15,株式会社小井戸商事,,株式会社,茨城県,土浦市,神立町１７２５番地,,08,203,3000013,,,,,,,2021-12-15,1,,,,,コイドショウジ,0
719,3060001034385,新規,0,2021-12-15,2021-12-15,株式会社Ｓ　ｑｕａｌｉｔｙ,,株式会社,栃木県,宇都宮市,砂田町１５５４番地１８,,09,201,3210113,,,,,,,2021-12-15,1,,,,,エスクオリティー,0
738,3110001036269,新規,0,2021-12-15,2021-12-15,株式会社クリアプライム,,株式会社,新潟県,新潟市江南区,早通１丁目１０番１１号アプリコットＢ２０３号,,15,104,9500168,,,,,,,2021-12-15,1,,,,,クリアプライム,0
754,3120001242320,新規,0,2021-12-15,2021-12-15,ウェブ・コネクト株式会社,,株式会社,大阪府,大阪市北区,芝田２丁目８－１１共栄ビル３Ｆ,,27,127,5300012,,,,,,,2021-12-15,1,,,,,ウェブコネクト,0
755,3120001242493,新規,0,2021-12-15,2021-12-15,ＣＲＡ環境リサイクル株式会社,,株式会社,大阪府,大阪市港区,港晴２丁目６番１３号エムハイツ３０２号室,,27,107,5520023,,,,,,,2021-12-15,1,,,,,シーアールエーカンキョウリサイクル,0
756,3120001242510,新規,0,2021-12-15,2021-12-15,株式会社布,,株式会社,大阪府,大阪市住吉区,南住吉３丁目４番２４号,,27,120,5580041,,,,,,,2021-12-15,1,,,,,ヌノ,0
757,3120001242527,新規,0,2021-12-15,2021-12-15,株式会社Ｔ＆Ｔ,,株式会社,大阪府,大阪市北区,西天満４丁目３番１１号西天満フクエビル８０２号室,,27,127,5300047,,,,,,,2021-12-15,1,,,,,ティーアンドティー,0
758,3120001242535,新規,0,2021-12-15,2021-12-15,株式会社リモ,,株式会社,大阪府,門真市,三ツ島５丁目１７番１２号,,27,223,5710015,,,,,,,2021-12-15,1,,,,,リモ,0
759,3120001242543,新規,0,2021-12-15,2021-12-15,株式会社ゴッドハンド,,株式会社,大阪府,大阪市福島区,福島１丁目１番４８－１７０７号,,27,103,5530003,,,,,,,2021-12-15,1,,,,,ゴッドハンド,0
772,3120903003943,新規,0,2021-12-15,2021-12-15,合同会社村やん,,合同会社,大阪府,豊能郡能勢町,野間出野２１９番地の１,,27,322,5630134,,,,,,,2021-12-15,1,,,,,ムラヤン,0
780,3130001070720,新規,0,2021-12-15,2021-12-15,五次元株式会社,,株式会社,京都府,向日市,鶏冠井町草田１番地の８８,,26,208,6170004,,,,,,,2021-12-15,1,,,,,ゴジゲン,0
786,3140001124161,新規,0,2021-12-15,2021-12-15,株式会社上原産業医事務所,,株式会社,兵庫県,西宮市,相生町９番３５－２０１号,,28,204,6620063,,,,,,,2021-12-15,1,,,,,ウエハラサンギョウイジムショ,0
787,3140001124203,新規,0,2021-12-15,2021-12-15,モノサポ株式会社,,株式会社,兵庫県,神戸市長田区,菅原通６丁目７番地の１,,28,106,6530015,,,,,,,2021-12-15,1,,,,,モノサポ,0
789,3140003017074,新規,0,2021-12-15,2021-12-15,合同会社ＷＡＮ,,合同会社,兵庫県,加古川市,別府町新野辺２２２４番地マストコート新野辺Ａ－２０２号,,28,210,6750131,,,,,,,2021-12-15,1,,,,,ワン,0
790,3140003017108,新規,0,2021-12-15,2021-12-15,Ａｎｎａｐｕｒｎａ　ｇｒｏｕｐ合同会社,,合同会社,兵庫県,神戸市兵庫区,荒田町３丁目４番１０号,,28,105,6520032,,,,,,,2021-12-15,1,,,,,アンナプルナグループ,0
791,3150001025169,新規,0,2021-12-15,2021-12-15,三洋ホールディングス株式会社,,株式会社,奈良県,香芝市,旭ケ丘１丁目９番地１０,,29,210,6390266,,,,,,,2021-12-15,1,,,,,サンヨウホールディングス,0
792,3150005009358,新規,0,2021-12-15,2021-12-15,特定非営利活動法人教職員のふれあい広場・相談の会,,その他の設立登記法人,奈良県,奈良市,芝辻町４丁目２番地４号田村ビル６０１号室,00125143,29,201,6308114,,,,,,,2021-12-15,1,,,,,キョウショクインノフレアイヒロバソウダンノカイ,0
803,3180001149097,新規,0,2021-12-15,2021-12-15,ＮＩＴＯＲＯ株式会社,,株式会社,愛知県,名古屋市天白区,井口２丁目９０１番地の２,,23,116,4680052,,,,,,,2021-12-15,1,,,,,ニトロ,0
804,3180001149122,新規,0,2021-12-15,2021-12-15,ＣＬＯＡＫ　ＢＡＮＫ株式会社,,株式会社,愛知県,名古屋市守山区,小幡常燈１３番８号,,23,113,4630047,,,,,,,2021-12-15,1,,,,,クロークバンク,0
805,3180001149130,新規,0,2021-12-15,2021-12-15,株式会社パオ王寺,,株式会社,愛知県,名古屋市守山区,幸心２丁目１３３８番地,,23,113,4630079,,,,,,,2021-12-15,1,,,,,パオオウジ,0
806,3180001149139,新規,0,2021-12-15,2021-12-15,株式会社ネクティブ,,株式会社,愛知県,名古屋市千種区,千種通７丁目２５番地の１,,23,101,4640855,,,,,,,2021-12-15,1,,,,,ネクティブ,0
810,3180003023283,新規,0,2021-12-15,2021-12-15,ｈｏｐｅ合同会社,,合同会社,愛知県,一宮市,木曽川町黒田字酉新田東ノ切４１番地サンハウス木曽川９Ｇ,,23,203,4930001,,,,,,,2021-12-15,1,,,,,ホープ,0
813,3180005019552,新規,0,2021-12-15,2021-12-15,医療法人ＨＯＳＨＩＧＡＯＫＡ　ＯＲＴＨＯＤＯＮＴＩＣＳ　ＣＬＩＮＩＣ,,その他の設立登記法人,愛知県,名古屋市千種区,井上町４９番地１名古屋星ヶ丘ビル３階,,23,101,4640026,,,,,,,2021-12-15,1,,,,,ホシガオカオルソドンティックスクリニック,0
831,3250001019301,新規,0,2021-12-15,2021-12-15,ＪＢ　Ｍａｎａｇｅｍｅｎｔ株式会社,,株式会社,山口県,周南市,中央町２番８号,,35,215,7460016,,,,,,,2021-12-15,1,,,,,ジェイビーマネジメント,0
840,3290003011913,新規,0,2021-12-15,2021-12-15,ＢＡＮＳＯ合同会社,,合同会社,福岡県,福岡市博多区,東月隈４丁目７番１－１号,,40,132,8120854,,,,,,,2021-12-15,1,,,,,バンソウ,0
841,3290003011938,新規,0,2021-12-15,2021-12-15,合同会社ｔｒｏｎｃｏ,,合同会社,福岡県,久留米市,国分町１９０７－１０－２０２,,40,203,8390863,,,,,,,2021-12-15,1,,,,,トロンコ,0
860,3360001029768,新規,0,2021-12-15,2021-12-15,株式会社ＦＯＧＯ　ＧＲＯＵＰ,,株式会社,沖縄県,中頭郡北谷町,字美浜８番地１０,,47,326,9040115,,,,,,,2021-12-15,1,,,,,フォゴグループ,0
864,3370001047942,新規,0,2021-12-15,2021-12-15,株式会社ＨＩＲＯ,,株式会社,宮城県,登米市,中田町石森字加賀野２丁目５番地１８,,04,212,9870601,,,,,,,2021-12-15,1,,,,,ヒロ,0
868,3380003005071,新規,0,2021-12-15,2021-12-15,山下商店合同会社,,合同会社,福島県,福島市,栄町７番３３号,,07,201,9608031,,,,,,,2021-12-15,1,,,,,ヤマシタショウテン,0
872,3390005008930,新規,0,2021-12-15,2021-12-15,特定非営利活動法人安部権内家保存会,,その他の設立登記法人,山形県,西村山郡河北町,谷地己８２２番地,,06,321,9993511,,,,,,,2021-12-15,1,,,,,アベゴンナイケホゾンカイ,0
874,3420001017675,新規,0,2021-12-15,2021-12-15,株式会社飛内商店,,株式会社,青森県,むつ市,宇田町１２番４号,,02,208,0350092,,,,,,,2021-12-15,1,,,,,トビナイショウテン,0
880,3430001085589,新規,0,2021-12-15,2021-12-15,株式会社北心総建,,株式会社,北海道,札幌市中央区,南二十条西１３丁目１番３７－５０５号,,01,101,0640920,,,,,,,2021-12-15,1,,,,,ホクシンソウケン,0
889,3470001018867,新規,0,2021-12-15,2021-12-15,丸福株式会社,,株式会社,香川県,綾歌郡宇多津町,大字東分１９３３番地,,37,386,7690213,,,,,,,2021-12-15,1,,,,,マルフク,0
891,3480001011581,新規,0,2021-12-15,2021-12-15,株式会社ａｎｄ,,株式会社,徳島県,板野郡北島町,中村字野畑１４番４,,36,402,7710203,,,,,,,2021-12-15,1,,,,,アンド,0
892,3500001023871,新規,0,2021-12-15,2021-12-15,株式会社Ｓａｎｔａｆｅ,,株式会社,愛媛県,松山市,平井町甲１６３９番地５,,38,201,7910243,,,,,,,2021-12-15,1,,,,,サンタフェ,0
900,4010001223248,新規,0,2021-12-15,2021-12-15,株式会社プピッラ,,株式会社,東京都,中央区,東日本橋３丁目３番８号,,13,102,1030004,,,,,,,2021-12-15,1,,,,,プピッラ,0
904,4010003036532,新規,0,2021-12-15,2021-12-15,ジェイコアレジ４合同会社４,,合同会社,東京都,千代田区,丸の内３丁目１番１号東京共同会計事務所内,,13,101,1000005,,,,,,,2021-12-15,1,,,,,ジェイコアレジフォーヨン,0
905,4010003036549,新規,0,2021-12-15,2021-12-15,Ｈプロジェクト合同会社,,合同会社,東京都,文京区,本郷４丁目６番１２号,,13,105,1130033,,,,,,,2021-12-15,1,,,,,エイチプロジェクト,0
906,4010003036557,新規,0,2021-12-15,2021-12-15,エネみらい佐野バイオマス合同会社,,合同会社,東京都,千代田区,神田三崎町２丁目２０番７号水道橋西口会館２階,,13,101,1010061,,,,,,,2021-12-15,1,,,,,エネミライサノバイオマス,0
907,4010003036565,新規,0,2021-12-15,2021-12-15,スクイーズ合同会社,,合同会社,東京都,千代田区,九段南１丁目５番６号りそな九段ビル５Ｆ,,13,101,1020074,,,,,,,2021-12-15,1,,,,,スクイーズ,0
908,4010005034311,新規,0,2021-12-15,2021-12-15,一般社団法人竜昇,,その他の設立登記法人,東京都,中央区,日本橋本町３丁目１番６号,,13,102,1030023,,,,,,,2021-12-15,1,,,,,リュウショウ,0
919,4010401164455,新規,0,2021-12-15,2021-12-15,洋野洋上風力発電株式会社,,株式会社,東京都,港区,新橋６丁目１７番２１号住友不動産御成門駅前ビル１０階,,13,103,1050004,,,,,,,2021-12-15,1,,,,,ヒロノヨウジョウフウリョクハツデン,0
920,4010401164463,新規,0,2021-12-15,2021-12-15,ケージ株式会社,,株式会社,東京都,港区,元麻布３丁目１番６号ＢＬＩＮＫ,,13,103,1060046,,,,,,,2021-12-15,1,,,,,ケージ,0
923,4010403026711,新規,0,2021-12-15,2021-12-15,合同会社ラ・アトレ新原高木開発,,合同会社,東京都,港区,海岸１丁目９番１８号,,13,103,1050022,,,,,,,2021-12-15,1,,,,,ラアトレシンバルタカギカイハツ,0
927,4010701041932,新規,0,2021-12-15,2021-12-15,株式会社グランデスト,,株式会社,東京都,品川区,東品川３丁目８番８－８１１号,,13,109,1400002,,,,,,,2021-12-15,1,,,,,グランデスト,0
932,4010901049957,新規,0,2021-12-15,2021-12-15,株式会社Ｏｆｆｉｃｅ　ＯＨＫＵＲＡ,,株式会社,東京都,世田谷区,上用賀３丁目１８番１６号上用賀タウンホーム２１４,,13,112,1580098,,,,,,,2021-12-15,1,,,,,オフィスオオクラ,0
933,4010901049998,新規,0,2021-12-15,2021-12-15,株式会社ｅＬｅｃｋ,,株式会社,東京都,世田谷区,松原１丁目３２番,,13,112,1560043,,,,,,,2021-12-15,1,,,,,エレック,0
934,4010903007013,新規,0,2021-12-15,2021-12-15,合同会社Ｔｓｐｏｒｔｓ,,合同会社,東京都,世田谷区,赤堤５丁目２８－１２,,13,112,1560044,,,,,,,2021-12-15,1,,,,,ティースポーツ,0
935,4010903007021,新規,0,2021-12-15,2021-12-15,合同会社グローカルリアルティ,,合同会社,東京都,世田谷区,船橋７丁目２５番３－１０２号,,13,112,1560055,,,,,,,2021-12-15,1,,,,,グローカルリアルティ,0
939,4011001144558,新規,0,2021-12-15,2021-12-15,株式会社ＮＦＴ,,株式会社,東京都,渋谷区,神宮前６丁目２３－４桑野ビル２Ｆ,,13,113,1500001,,,,,,,2021-12-15,1,,,,,エヌエフティー,0
940,4011001144590,新規,0,2021-12-15,2021-12-15,株式会社Ｌｉｎｐｌｅ,,株式会社,東京都,渋谷区,神宮前５丁目４７番１０号ＯＤ表参道ビル４階,,13,113,1500001,,,,,,,2021-12-15,1,,,,,リンプル,0
941,4011001144599,新規,0,2021-12-15,2021-12-15,株式会社Ｔｏｉ．,,株式会社,東京都,渋谷区,千駄ヶ谷３丁目４１番７号千駄ヶ谷デュープレックスリズ,,13,113,1510051,,,,,,,2021-12-15,1,,,,,トイ,0
946,4011101097219,新規,0,2021-12-15,2021-12-15,株式会社ＪＯＹＮＥＲ,,株式会社,東京都,新宿区,新宿２丁目１５番１２号高峰ビル４Ｂ,,13,104,1600022,,,,,,,2021-12-15,1,,,,,ジョイナー,0
947,4011103011276,新規,0,2021-12-15,2021-12-15,合同会社ＬｏｇＳｉｘ,,合同会社,東京都,新宿区,西新宿７丁目５番９－１１１１号,,13,104,1600023,,,,,,,2021-12-15,1,,,,,ログシックス,0
948,4011103011292,新規,0,2021-12-15,2021-12-15,Ｌａｌａｓプロダクション合同会社,,合同会社,東京都,新宿区,新宿１丁目２番１号新宿御苑前マンション３０１号室,,13,104,1600022,,,,,,,2021-12-15,1,,,,,ララズプロダクション,0
952,4011301027421,新規,0,2021-12-15,2021-12-15,株式会社Ｐｒｏｊｅｃｔ　ＤＳ,,株式会社,東京都,杉並区,天沼２丁目４２番２６号セボンフォンテーヌ荻窪Ｓ１２１,,13,115,1670032,,,,,,,2021-12-15,1,,,,,プロジェクトディーエス,0
955,4011503005002,新規,0,2021-12-15,2021-12-15,合同会社ＳＳＷＳＯ,,合同会社,東京都,荒川区,東日暮里２丁目３５番１４号,,13,118,1160014,,,,,,,2021-12-15,1,,,,,エスエスダブリューエスオー,0
957,4011701024902,新規,0,2021-12-15,2021-12-15,株式会社森緑園,,株式会社,東京都,江戸川区,船堀７丁目５番１６号,,13,123,1340091,,,,,,,2021-12-15,1,,,,,シンリョクエン,0
958,4011701024910,新規,0,2021-12-15,2021-12-15,株式会社ＨＯＦ,,株式会社,東京都,江戸川区,南篠崎町５丁目１０－２０,,13,123,1330065,,,,,,,2021-12-15,1,,,,,ホーフ,0
960,4011703003029,新規,0,2021-12-15,2021-12-15,合同会社スタートエコー,,合同会社,東京都,江戸川区,南篠崎町４丁目１１番１－２０５号,,13,123,1330065,,,,,,,2021-12-15,1,,,,,スタートエコー,0
961,4011801040056,新規,0,2021-12-15,2021-12-15,株式会社宮本工業,,株式会社,東京都,足立区,西保木間２丁目１２番２４号,,13,121,1210812,,,,,,,2021-12-15,1,,,,,ミヤモトコウギョウ,0
965,4012401038647,新規,0,2021-12-15,2021-12-15,株式会社Ｆｏｃｕｓ　Ｖｉｌｌａｇｅ,,株式会社,東京都,武蔵野市,関前４丁目７番１５号,,13,203,1800014,,,,,,,2021-12-15,1,,,,,フォーカスヴィレッジ,0
971,4013301048414,新規,0,2021-12-15,2021-12-15,株式会社ｍｏｎｏｑｒｏ,,株式会社,東京都,豊島区,南池袋２丁目８番１号角田ビル３Ｆ,,13,116,1710022,,,,,,,2021-12-15,1,,,,,モノクロ,0
976,4020001144352,新規,0,2021-12-15,2021-12-15,株式会社ハッピーエンジン,,株式会社,神奈川県,横浜市中区,元町４丁目１７２番地,,14,104,2310861,,,,,,,2021-12-15,1,,,,,ハッピーエンジン,0
977,4020001144360,新規,0,2021-12-15,2021-12-15,株式会社萬泰,,株式会社,神奈川県,横浜市南区,井土ケ谷上町１９－１８,,14,105,2320051,,,,,,,2021-12-15,1,,,,,ヨロズヤス,0
982,4020003020980,新規,0,2021-12-15,2021-12-15,合同会社ポラリス,,合同会社,神奈川県,横浜市都筑区,茅ケ崎南５丁目１３番１４－１号,,14,118,2240037,,,,,,,2021-12-15,1,,,,,ポラリス,0
989,4021001074738,新規,0,2021-12-15,2021-12-15,株式会社コタニテック湘南,,株式会社,神奈川県,藤沢市,大鋸２丁目８番５号,,14,205,2510002,,,,,,,2021-12-15,1,,,,,コタニテックショウナン,0
990,4021001074754,新規,0,2021-12-15,2021-12-15,株式会社ＭＩＲＥＩ,,株式会社,神奈川県,藤沢市,弥勒寺３丁目１４番６号,,14,205,2510016,,,,,,,2021-12-15,1,,,,,ミレイ,0
999,4030001145804,新規,0,2021-12-15,2021-12-15,株式会社鈴山薬局,,株式会社,埼玉県,さいたま市中央区,下落合２丁目２０番１－２号,,11,105,3380002,,,,,,,2021-12-15,1,,,,,スズヤマヤッキョク,0
1000,4030001145820,新規,0,2021-12-15,2021-12-15,株式会社常誠建設工業,,株式会社,埼玉県,熊谷市,上之３４１７番地１,,11,202,3600012,,,,,,,2021-12-15,1,,,,,ジョウセイケンセツコウギョウ,0
1001,4030001145829,新規,0,2021-12-15,2021-12-15,株式会社鈴,,株式会社,埼玉県,富士見市,西みずほ台１丁目１７番地１４,,11,235,3540018,,,,,,,2021-12-15,1,,,,,リン,0
1002,4030001145845,新規,0,2021-12-15,2021-12-15,株式会社まーくる,,株式会社,埼玉県,所沢市,有楽町２番１０号,,11,208,3591117,,,,,,,2021-12-15,1,,,,,マークル,0
1003,4030001145853,新規,0,2021-12-15,2021-12-15,長谷川移設株式会社,,株式会社,埼玉県,深谷市,山河７４８番地２,,11,218,3690217,,,,,,,2021-12-15,1,,,,,ハセガワイセツ,0
1004,4030001145861,新規,0,2021-12-15,2021-12-15,株式会社Ｉｎｎｏｖａｔｉｏｎ,,株式会社,埼玉県,久喜市,久喜中央４丁目５番７号,,11,232,3460003,,,,,,,2021-12-15,1,,,,,イノベーション,0
1011,4030003018495,新規,0,2021-12-15,2021-12-15,エム・エー・トレーディング合同会社,,合同会社,埼玉県,八潮市,大字伊勢野３７５番地７,,11,234,3400821,,,,,,,2021-12-15,1,,,,,エムエートレーディング,0
1017,4040001121374,新規,0,2021-12-15,2021-12-15,株式会社ＢＲＥＧ,,株式会社,千葉県,旭市,鎌数１０５５２番地６,,12,215,2892505,,,,,,,2021-12-15,1,,,,,ブレグ,0
1018,4040001121390,新規,0,2021-12-15,2021-12-15,株式会社ＺＥＲＯ,,株式会社,千葉県,船橋市,本町４丁目４１番１９号,,12,204,2730005,,,,,,,2021-12-15,1,,,,,ゼロ,0
1021,4040003019121,新規,0,2021-12-15,2021-12-15,合同会社こはる日和,,合同会社,千葉県,館山市,高井１７５７番地の１,,12,205,2940041,,,,,,,2021-12-15,1,,,,,,0
1026,4050003006259,新規,0,2021-12-15,2021-12-15,合同会社ＮＯＫＯＮＯＫＯ,,合同会社,茨城県,結城市,大字結城６９４４－１,,08,207,3070001,,,,,,,2021-12-15,1,,,,,,0
1028,4060001034376,新規,0,2021-12-15,2021-12-15,株式会社エコ,,株式会社,栃木県,塩谷郡塩谷町,大字船生１６５番地,,09,384,3292441,,,,,,,2021-12-15,1,,,,,エコ,0
1035,4080003002701,新規,0,2021-12-15,2021-12-15,合同会社アグレッシブ,,合同会社,静岡県,静岡市葵区,両替町２丁目２番地の２,,22,101,4200032,,,,,,,2021-12-15,1,,,,,アグレッシブ,0
1046,4110001036268,新規,0,2021-12-15,2021-12-15,株式会社ササキカデン,,株式会社,新潟県,五泉市,村松乙２２８番地,,15,218,9591705,,,,,,,2021-12-15,1,,,,,ササキカデン,0
1059,4120001242443,新規,0,2021-12-15,2021-12-15,シルクドリバー株式会社,,株式会社,大阪府,大阪市北区,豊崎３丁目１９番３号,,27,127,5310072,,,,,,,2021-12-15,1,,,,,シルクドリバー,0
1060,4120001242492,新規,0,2021-12-15,2021-12-15,株式会社Ｃｈａｌｌｅｎｇｅｒｓ＆ｃｏ,,株式会社,大阪府,大阪市大正区,千島３丁目５番１０号,,27,108,5510003,,,,,,,2021-12-15,1,,,,,チャレンジャーズアンドコー,0
1061,4120001242501,新規,0,2021-12-15,2021-12-15,あおぞら株式会社,,株式会社,大阪府,大阪市中央区,農人橋２丁目１番３１号第六松屋ビル１２３７号,,27,128,5400011,,,,,,,2021-12-15,1,,,,,アオゾラ,0
1062,4120001242518,新規,0,2021-12-15,2021-12-15,株式会社Ｓｅｗａｒｄ,,株式会社,大阪府,大阪市北区,鶴野町３番９－２２１０号,,27,127,5300014,,,,,,,2021-12-15,1,,,,,スワード,0
1063,4120001242526,新規,0,2021-12-15,2021-12-15,Ｆｏｒｃｅ株式会社,,株式会社,大阪府,大阪市中央区,東心斎橋１丁目３－１０－５Ｆ,,27,128,5420083,,,,,,,2021-12-15,1,,,,,フォース,0
1064,4120001242534,新規,0,2021-12-15,2021-12-15,株式会社ココロの保健室,,株式会社,大阪府,大阪市北区,梅田１丁目１－３大阪駅前第３ビル２９階１－１－１号室,,27,127,5300001,,,,,,,2021-12-15,1,,,,,ココロノホケンシツ,0
1067,4120003020772,新規,0,2021-12-15,2021-12-15,ＰＡＭ２合同会社,,合同会社,大阪府,大阪市浪速区,日本橋東１丁目４番１０号パークサイドタケウチ３０２,,27,111,5560006,,,,,,,2021-12-15,1,,,,,パンツ,0
1071,4120901045342,新規,0,2021-12-15,2021-12-15,知音株式会社,,株式会社,大阪府,池田市,石橋１丁目２３番１３号,,27,204,5630032,,,,,,,2021-12-15,1,,,,,チオン,0
1072,4120901045350,新規,0,2021-12-15,2021-12-15,株式会社ＭＯＴＯＮ,,株式会社,大阪府,高槻市,大手町５番２９号ｃｏｐｐｅ－１,,27,207,5690078,,,,,,,2021-12-15,1,,,,,モトン,0
1085,4140001124193,新規,0,2021-12-15,2021-12-15,株式会社Ｓｈｏｗ　ｍｕｓｔ　ｇｏ　ｏｎ,,株式会社,兵庫県,宝塚市,大成町１０番３０号,,28,214,6650055,,,,,,,2021-12-15,1,,,,,ショーマストゴーオン,0
1086,4140001124202,新規,0,2021-12-15,2021-12-15,麻吹ホールディングス株式会社,,株式会社,兵庫県,芦屋市,親王塚町８番１０号,00125146,28,206,6590016,,,,,,,2021-12-15,1,,,,,アサブキホールディングス,0
1087,4140003017098,新規,0,2021-12-15,2021-12-15,合同会社廣松商会,,合同会社,兵庫県,神戸市西区,南別府３丁目１１番地の５,,28,111,6512116,,,,,,,2021-12-15,1,,,,,ヒロマツショウカイ,0
1088,4140003017107,新規,0,2021-12-15,2021-12-15,合同会社オフホワイト,,合同会社,兵庫県,揖保郡太子町,東保４８１番地３,,28,464,6711524,,,,,,,2021-12-15,1,,,,,オフホワイト,0
1092,4150001025176,新規,0,2021-12-15,2021-12-15,Ｈａｐｐｉｅｃｅ株式会社,,株式会社,奈良県,橿原市,大軽町４９番地の１,,29,205,6340044,,,,,,,2021-12-15,1,,,,,ハピース,0
1102,4180001149113,新規,0,2021-12-15,2021-12-15,株式会社古川ルーフ,,株式会社,愛知県,稲沢市,下津本郷町６番地２,,23,220,4928071,,,,,,,2021-12-15,1,,,,,フルカワルーフ,0
1103,4180001149170,新規,0,2021-12-15,2021-12-15,株式会社ＮＲＴ　ＪＡＰＡＮ,,株式会社,愛知県,弥富市,東末広１丁目６０番２,,23,235,4980063,,,,,,,2021-12-15,1,,,,,エヌアールティジャパン,0
1109,4180003023290,新規,0,2021-12-15,2021-12-15,合同会社トミヒロアーツ,,合同会社,愛知県,名古屋市中川区,八剱町２丁目５２番地,,23,110,4540054,,,,,,,2021-12-15,1,,,,,トミヒロアーツ,0
1112,4180303005195,新規,0,2021-12-15,2021-12-15,合同会社１７０,,合同会社,愛知県,豊橋市,松葉町２丁目４２番地２,,23,201,4400897,,,,,,,2021-12-15,1,,,,,イチナナマル,0
1116,4190003003845,新規,0,2021-12-15,2021-12-15,アフターユー合同会社,,合同会社,三重県,名張市,桔梗が丘西１番町３５番地,,24,208,5180641,,,,,,,2021-12-15,1,,,,,アフターユー,0
1130,4280003001559,新規,0,2021-12-15,2021-12-15,合同会社里山インストール,,合同会社,島根県,大田市,温泉津町上村２７１番地,,32,205,6992513,,,,,,,2021-12-15,1,,,,,サトヤマインストール,0
1140,4320001018781,新規,0,2021-12-15,2021-12-15,株式会社新日本不動産,,株式会社,大分県,別府市,大字亀川１１６９番地の１６,,44,202,8740000,,,,,,,2021-12-15,1,,,,,シンニホンフドウサン,0
1145,4360001029759,新規,0,2021-12-15,2021-12-15,株式会社たわだ工業,,株式会社,沖縄県,島尻郡与那原町,字東浜８９番地の５９,,47,348,9011304,,,,,,,2021-12-15,1,,,,,タワダコウギョウ,0
1148,4360003011649,新規,0,2021-12-15,2021-12-15,サイクルワークス合同会社,,合同会社,沖縄県,那覇市,寄宮１丁目１２番９号,,47,201,9020064,,,,,,,2021-12-15,1,,,,,サイクルワークス,0
1149,4360003011657,新規,0,2021-12-15,2021-12-15,農地所有適格法人合同会社ゆがふ,,合同会社,沖縄県,石垣市,字石垣１７７６番地５,,47,207,9070023,,,,,,,2021-12-15,1,,,,,ユガフ,0
1156,4380005012511,新規,0,2021-12-15,2021-12-15,農事組合法人くまがわスマートファーム,,その他の設立登記法人,福島県,双葉郡大熊町,大字野上字秋葉台６３８番地,,07,545,9791307,,,,,,,2021-12-15,1,,,,,クマガワスマートファーム,0
1165,4430001085588,新規,0,2021-12-15,2021-12-15,株式会社未来包装研究所,,株式会社,北海道,札幌市豊平区,月寒東二条５丁目６番８号,,01,105,0620052,,,,,,,2021-12-15,1,,,,,ミライホウソウケンキュウショ,0
1166,4430003013456,新規,0,2021-12-15,2021-12-15,ライフバリューデザイン合同会社,,合同会社,北海道,札幌市白石区,南郷通１０丁目北１番８－１０１号,,01,104,0030023,,,,,,,2021-12-15,1,,,,,ライフバリューデザイン,0
1167,4440003001435,新規,0,2021-12-15,2021-12-15,合同会社Ｖｉｖｏｔｔｅａ,,合同会社,北海道,函館市,中道２丁目６番１８号１０６号室,,01,202,0410853,,,,,,,2021-12-15,1,,,,,ビボッティー,0
1176,5010001223222,新規,0,2021-12-15,2021-12-15,ＫＨ株式会社,,株式会社,東京都,文京区,湯島３丁目１番４号,,13,105,1130034,,,,,,,2021-12-15,1,,,,,ケーエイチ,0
1177,5010001223247,新規,0,2021-12-15,2021-12-15,株式会社ＡＣＴＡＲＩＳＥ,,株式会社,東京都,千代田区,九段南１丁目５番６号りそな九段ビル５階ＫＳフロア,,13,101,1020074,,,,,,,2021-12-15,1,,,,,アクトアライズ,0
1178,5010001223271,新規,0,2021-12-15,2021-12-15,株式会社みんなのビール,,株式会社,東京都,文京区,本郷４丁目９－２向山ビル,,13,105,1130033,,,,,,,2021-12-15,1,,,,,ミンナノビール,0
1179,5010001223296,新規,0,2021-12-15,2021-12-15,株式会社文京本郷不動産鑑定,,株式会社,東京都,文京区,本郷１丁目２８番２９号,,13,105,1130033,,,,,,,2021-12-15,1,,,,,ブンキョウホンゴウフドウサンカンテイ,0
1181,5010003036531,新規,0,2021-12-15,2021-12-15,ジェイコアレジ４合同会社３,,合同会社,東京都,千代田区,丸の内３丁目１番１号東京共同会計事務所内,,13,101,1000005,,,,,,,2021-12-15,1,,,,,ジェイコアレジフォーサン,0
1182,5010003036548,新規,0,2021-12-15,2021-12-15,合同会社ラビットＨＯＵＳＥ,,合同会社,東京都,中央区,銀座１丁目２２番１１号銀座大竹ビジデンス２階,,13,102,1040061,,,,,,,2021-12-15,1,,,,,ラビットハウス,0
1183,5010003036556,新規,0,2021-12-15,2021-12-15,エネみらい十日町バイオマス合同会社,,合同会社,東京都,千代田区,神田三崎町２丁目２０番７号水道橋西口会館２階,,13,101,1010061,,,,,,,2021-12-15,1,,,,,エネミライトオカマチバイオマス,0
1184,5010003036564,新規,0,2021-12-15,2021-12-15,Ｃａｒｐｅ　Ｄｉｅｍ　Ｃｏｍｍｕｎｉｃａｔｉｏｎｓ合同会社,,合同会社,東京都,千代田区,神田鍛冶町３丁目７番２１号天翔神田駅前ビル８階８０６号室,,13,101,1010045,,,,,,,2021-12-15,1,,,,,カルペディエムコミュニケーションズ,0
1187,5010101014983,新規,0,2021-12-15,2021-12-15,ＳＨＰパークス株式会社,,株式会社,東京都,八王子市,南大沢２丁目２２２番地１５,,13,201,1920364,,,,,,,2021-12-15,1,,,,,エスエイチピーパークス,0
1193,5010401164405,新規,0,2021-12-15,2021-12-15,株式会社Ｇａｃｋ,,株式会社,東京都,港区,赤坂４丁目３－２７,,13,103,1070052,,,,,,,2021-12-15,1,,,,,ガック,0
1194,5010401164438,新規,0,2021-12-15,2021-12-15,株式会社１８２６,,株式会社,東京都,港区,芝浦４丁目２０番２－３５０８号,,13,103,1080023,,,,,,,2021-12-15,1,,,,,イチハチニイロク,0
1195,5010401164446,新規,0,2021-12-15,2021-12-15,株式会社ＵＬＴＹＳ,,株式会社,東京都,港区,元赤坂１丁目７－２０メットライフ元赤坂ウエスト５階,,13,103,1070051,,,,,,,2021-12-15,1,,,,,,0
1197,5010403026693,新規,0,2021-12-15,2021-12-15,合同会社百狐,,合同会社,東京都,港区,赤坂８丁目１１番１９号,,13,103,1070052,,,,,,,2021-12-15,1,,,,,ビャッコ,0
1200,5010405020505,新規,0,2021-12-15,2021-12-15,一般社団法人ｅＳｐｏｒｔｓサッカー振興協会,,その他の設立登記法人,東京都,港区,海岸１丁目９番１８号国際浜松町ビル４階,,13,103,1050022,,,,,,,2021-12-15,1,,,,,イースポーツサッカーシンコウキョウカイ,0
1201,5010405020521,新規,0,2021-12-15,2021-12-15,蓮一般社団法人,,その他の設立登記法人,東京都,港区,西新橋１丁目１番１号ＥＰコンサルティングサービス内,,13,103,1050003,,,,,,,2021-12-15,1,,,,,ハス,0
1203,5010501048210,新規,0,2021-12-15,2021-12-15,株式会社グレース緑地,,株式会社,東京都,台東区,蔵前２丁目１６番４－１１０５号大江戸タワーレジデンス,,13,106,1110051,,,,,,,2021-12-15,1,,,,,グレースリョクチ,0
1206,5010701041931,新規,0,2021-12-15,2021-12-15,株式会社Ｏｆｆｉｃｅ　ＫＯＴＯＫＯＴＯ,,株式会社,東京都,品川区,北品川５丁目５番１５号,,13,109,1410001,,,,,,,2021-12-15,1,,,,,オフィスコトコト,0
1213,5010901049989,新規,0,2021-12-15,2021-12-15,株式会社ＷＡＫＥｓ,,株式会社,東京都,世田谷区,南烏山５丁目４番１号ルブランＫ１０１,,13,112,1570062,,,,,,,2021-12-15,1,,,,,ウェイクス,0
1223,5011001144557,新規,0,2021-12-15,2021-12-15,株式会社タノゴル,,株式会社,東京都,目黒区,青葉台１丁目１６番４号,,13,110,1530042,,,,,,,2021-12-15,1,,,,,タノゴル,0
1224,5011001144581,新規,0,2021-12-15,2021-12-15,株式会社ｗａｒａｂｅ,,株式会社,東京都,渋谷区,初台１丁目９番３号,,13,113,1510061,,,,,,,2021-12-15,1,,,,,ワラベ,0
1225,5011001144598,新規,0,2021-12-15,2021-12-15,株式会社インターナショナルフォワーディング,,株式会社,東京都,渋谷区,松濤１丁目２８番２号ＷＯＲＫＣＯＵＲＴ内,,13,113,1500046,,,,,,,2021-12-15,1,,,,,インターナショナルフォワーディング,0
1226,5011003013867,新規,0,2021-12-15,2021-12-15,合同会社ＴＷコンサル,,合同会社,東京都,渋谷区,渋谷２丁目１９－１５宮益坂ビルディング６０９,,13,113,1500002,,,,,,,2021-12-15,1,,,,,ティーダブルコンサル,0
1230,5011101097192,新規,0,2021-12-15,2021-12-15,株式会社ビデオチューブ,,株式会社,東京都,新宿区,西新宿３丁目３番１３号西新宿水間ビル６階,,13,104,1600023,,,,,,,2021-12-15,1,,,,,ビデオチューブ,0
1231,5011101097201,新規,0,2021-12-15,2021-12-15,株式会社みやこ,,株式会社,東京都,新宿区,新宿６丁目６番２号新宿国際ビルディングＢ１階,,13,104,1600022,,,,,,,2021-12-15,1,,,,,,0
1232,5011103011275,新規,0,2021-12-15,2021-12-15,合同会社ＺＥＮｆｌｏｗ　Ｐｌａｎｎｉｎｇ,,合同会社,東京都,新宿区,白銀町２番１４－５０３号,,13,104,1620816,,,,,,,2021-12-15,1,,,,,,0
1233,5011103011291,新規,0,2021-12-15,2021-12-15,合同会社Ｃｍｙ,,合同会社,東京都,新宿区,新宿６丁目２７番２２号ＫＴ三光マンション５０５,,13,104,1600022,,,,,,,2021-12-15,1,,,,,シーミィ,0
1236,5011301027420,新規,0,2021-12-15,2021-12-15,株式会社ＴＳＪエンタープライズ,,株式会社,東京都,杉並区,下井草２丁目５番１９号,,13,115,1670022,,,,,,,2021-12-15,1,,,,,ティエスジェイエンタープライズ,0
1237,5011501027567,新規,0,2021-12-15,2021-12-15,豊瀛株式会社,,株式会社,東京都,北区,栄町７－８あぜりあマンション１０３号室,,13,117,1140005,,,,,,,2021-12-15,1,,,,,ホウエイ,0
1240,5011601025603,新規,0,2021-12-15,2021-12-15,株式会社モーモーエンジニアリング,,株式会社,東京都,練馬区,田柄４丁目２番１２号,,13,120,1790073,,,,,,,2021-12-15,1,,,,,モーモーエンジニアリング,0
1242,5011703003028,新規,0,2021-12-15,2021-12-15,合同会社ＱＰＤ,,合同会社,東京都,江戸川区,松江７丁目２７番１４－１１０１号,,13,123,1320025,,,,,,,2021-12-15,1,,,,,キューピーディー,0
1245,5011801040063,新規,0,2021-12-15,2021-12-15,株式会社Ｇｒａｙｐｅｓ,,株式会社,東京都,足立区,弘道２丁目２７番２号,,13,121,1200013,,,,,,,2021-12-15,1,,,,,グレイプス,0
1248,5012401038646,新規,0,2021-12-15,2021-12-15,株式会社Ｒｕｔｏｋｙ,,株式会社,東京都,三鷹市,大沢６丁目３番４３号,,13,204,1810015,,,,,,,2021-12-15,1,,,,,ルートキー,0
1249,5012401038654,新規,0,2021-12-15,2021-12-15,株式会社ＢＯＬＴ,,株式会社,東京都,小金井市,東町１丁目２０番９号,,13,210,1840011,,,,,,,2021-12-15,1,,,,,ボルト,0
1250,5012403005157,新規,0,2021-12-15,2021-12-15,ＬＳＨ合同会社,,合同会社,東京都,武蔵野市,境南町２丁目９番２１号,,13,203,1800023,,,,,,,2021-12-15,1,,,,,エルエスエイチ,0
1252,5012803002662,新規,0,2021-12-15,2021-12-15,合同会社ＴＨＥ　ＢＥＳＴ,,合同会社,東京都,立川市,錦町２丁目１番７号,,13,202,1900022,,,,,,,2021-12-15,1,,,,,ザベスト,0
1263,5020001144327,新規,0,2021-12-15,2021-12-15,株式会社ピンタプロパティ企劃,,株式会社,神奈川県,横浜市港北区,日吉本町３丁目２６番２８－３０５号,,14,109,2230062,,,,,,,2021-12-15,1,,,,,ピンタプロパティキカク,0
1264,5020001144335,新規,0,2021-12-15,2021-12-15,ティーアールステーション株式会社,,株式会社,神奈川県,川崎市宮前区,鷺沼３丁目１６番地１４Ｄ’グランセ鷺沼ヒルズ２０２,,14,136,2160004,,,,,,,2021-12-15,1,,,,,ティーアールステーション,0
1265,5020001144351,新規,0,2021-12-15,2021-12-15,ウィンキット株式会社,,株式会社,神奈川県,横浜市都筑区,中川５丁目１３番６号,,14,118,2240001,,,,,,,2021-12-15,1,,,,,ウィンキット,0
1267,5020003020971,新規,0,2021-12-15,2021-12-15,合同会社イーロンホールディングス,,合同会社,神奈川県,横浜市旭区,白根６丁目３５－８,,14,112,2410005,,,,,,,2021-12-15,1,,,,,イーロンホールディングス,0
1272,5021001074745,新規,0,2021-12-15,2021-12-15,株式会社Ｔ－Ｌｉｎｋ,,株式会社,神奈川県,厚木市,長谷９８９番地１,,14,212,2430036,,,,,,,2021-12-15,1,,,,,ティーリンク,0
1273,5021001074753,新規,0,2021-12-15,2021-12-15,株式会社やと,,株式会社,神奈川県,藤沢市,弥勒寺２丁目６番４号,,14,205,2510016,,,,,,,2021-12-15,1,,,,,ヤト,0
1277,5030001145836,新規,0,2021-12-15,2021-12-15,株式会社キュアクオリティ,,株式会社,埼玉県,深谷市,小前田６７９番地１,,11,218,3691246,,,,,,,2021-12-15,1,,,,,キュアクオリティ,0
1278,5030001145844,新規,0,2021-12-15,2021-12-15,松海株式会社,,株式会社,埼玉県,新座市,道場１丁目６番８号,,11,230,3520024,,,,,,,2021-12-15,1,,,,,マツミ,0
1279,5030001145869,新規,0,2021-12-15,2021-12-15,株式会社ＳＲテクノサービス,,株式会社,埼玉県,戸田市,笹目４丁目３３番地の６カーサロディ１０１号室,,11,224,3350034,,,,,,,2021-12-15,1,,,,,エスアールテクノサービス,0
1280,5030001145877,新規,0,2021-12-15,2021-12-15,ＫＥＮＭＯＫＵ株式会社,,株式会社,埼玉県,幸手市,東１丁目１８番２７号幸手スカイハイツ６０６,,11,240,3400114,,,,,,,2021-12-15,1,,,,,ケンモク,0
1285,5030003018486,新規,0,2021-12-15,2021-12-15,合同会社モータープラント,,合同会社,埼玉県,北葛飾郡杉戸町,大字大塚５６７番地,,11,464,3450022,,,,,,,2021-12-15,1,,,,,モータープラント,0
1286,5030003018494,新規,0,2021-12-15,2021-12-15,Ａ＆Ａ　ＥＮＴＥＲＰＲＩＳＥ合同会社,,合同会社,埼玉県,鶴ヶ島市,脚折町１丁目３８番３－３０３号ケイコウコ－ポＩＩＩ,00125139,11,241,3502211,,,,,,,2021-12-15,1,,,,,エーアンドエーエンタープライズ,0
1287,5030003018503,新規,0,2021-12-15,2021-12-15,東平合同会社,,合同会社,埼玉県,川口市,西青木２丁目１番１０－５１２号ファミリ－マンション,,11,203,3320035,,,,,,,2021-12-15,1,,,,,トウヘイ,0
1296,5040001121357,新規,0,2021-12-15,2021-12-15,株式会社市東,,株式会社,千葉県,東金市,押堀１２２番地,,12,213,2830065,,,,,,,2021-12-15,1,,,,,シトウ,0
1297,5040001121365,新規,0,2021-12-15,2021-12-15,千葉セントラル株式会社,,株式会社,千葉県,市原市,五井５１４９番地４,,12,219,2900056,,,,,,,2021-12-15,1,,,,,チバセントラル,0
1303,5050001050299,新規,0,2021-12-15,2021-12-15,株式会社Ｋｅｅｌｉｎｇ,,株式会社,茨城県,つくば市,天久保１丁目１０番地１８－２０２号,,08,220,3050005,,,,,,,2021-12-15,1,,,,,キーリング,0
1309,5070001038730,新規,0,2021-12-15,2021-12-15,株式会社走愛レッカーサービス,,株式会社,群馬県,北群馬郡吉岡町,大字北下８７８番地１,,10,345,3703605,,,,,,,2021-12-15,1,,,,,ソウアイレッカーサービス,0
1310,5070001038739,新規,0,2021-12-15,2021-12-15,株式会社ｓａｉ,,株式会社,群馬県,高崎市,棟高町６７２番地１,,10,202,3703521,,,,,,,2021-12-15,1,,,,,,0
1311,5080005007417,新規,0,2021-12-15,2021-12-15,一般社団法人わんずふりー,,その他の設立登記法人,静岡県,焼津市,下江留１８５０番地の１,,22,212,4210218,,,,,,,2021-12-15,1,,,,,ワンズフリー,0
1317,5090001017311,新規,0,2021-12-15,2021-12-15,株式会社声音,,株式会社,山梨県,中央市,大鳥居２６７０番地１,,19,214,4001513,,,,,,,2021-12-15,1,,,,,コワネ,0
1320,5100003006319,新規,0,2021-12-15,2021-12-15,ブランシャール軽井澤ＢＣ合同会社,,合同会社,長野県,北佐久郡軽井沢町,大字長倉２１１５番地１８３２,,20,321,3890111,,,,,,,2021-12-15,1,,,,,ブランシャールカルイザワビーシー,0
1341,5120001242491,新規,0,2021-12-15,2021-12-15,株式会社大金,,株式会社,大阪府,大阪市東成区,東小橋３丁目１０－２４石原ビル１階,,27,115,5370024,,,,,,,2021-12-15,1,,,,,ダイキン,0
1342,5120003020763,新規,0,2021-12-15,2021-12-15,合同会社ワイズ,,合同会社,大阪府,大阪市西区,靱本町３丁目５番２４－１５０５号,,27,106,5500004,,,,,,,2021-12-15,1,,,,,ワイズ,0
1352,5120903003941,新規,0,2021-12-15,2021-12-15,合同会社ジェーライト,,合同会社,大阪府,豊中市,西緑丘３丁目１３番１号シンミ西緑丘ビル３階,,27,203,5600005,,,,,,,2021-12-15,1,,,,,ジェーライト,0
1362,5140001124168,新規,0,2021-12-15,2021-12-15,株式会社ＧＢＬ　ＰＬＡＮ　ＪＡＰＡＮ,,株式会社,兵庫県,神戸市灘区,水道筋３丁目１１東嶋ビル２階,,28,102,6570831,,,,,,,2021-12-15,1,,,,,ジービーエルプランジャパン,0
1375,5180001149079,新規,0,2021-12-15,2021-12-15,ＫＢＴＺホールディングス株式会社,,株式会社,愛知県,名古屋市中区,栄３丁目１１番３１号,,23,106,4600008,,,,,,,2021-12-15,1,,,,,ケービーティーゼットホールディングス,0
1377,5180003023273,新規,0,2021-12-15,2021-12-15,フオーエスクリア合同会社,,合同会社,愛知県,愛知郡東郷町,大字春木字白土１番地２０９,,23,302,4700162,,,,,,,2021-12-15,1,,,,,フオーエスクリア,0
1378,5180003023298,新規,0,2021-12-15,2021-12-15,合同会社ＡＲＣＡＴＨ,,合同会社,愛知県,東海市,高横須賀町６丁目６９番地,,23,222,4770037,,,,,,,2021-12-15,1,,,,,アルカス,0
1380,5180005019559,新規,0,2021-12-15,2021-12-15,一般社団法人杉山家族,,その他の設立登記法人,愛知県,名古屋市中村区,並木２丁目７８番地,,23,105,4530856,,,,,,,2021-12-15,1,,,,,スギヤマカゾク,0
1381,5180301035730,新規,0,2021-12-15,2021-12-15,株式会社ＣＯＮＳＵＬＡＢ,,株式会社,愛知県,碧南市,西山町２丁目２０番地１３,,23,209,4470064,,,,,,,2021-12-15,1,,,,,コンサラボ,0
1385,5190001028942,新規,0,2021-12-15,2021-12-15,株式会社ヘルシー薬局,,株式会社,三重県,津市,西丸之内３６番２５号,,24,201,5140035,,,,,,,2021-12-15,1,,,,,ヘルシーヤッキョク,0
1387,5190003003844,新規,0,2021-12-15,2021-12-15,合同会社Ｌｏｏｏｐ,,合同会社,三重県,松阪市,山室町２５８６番地３,,24,204,5150052,,,,,,,2021-12-15,1,,,,,ループ,0
1397,5250001019299,新規,0,2021-12-15,2021-12-15,株式会社ＡＮＣＨＯＲ,,株式会社,山口県,防府市,八王子１丁目２４番３０号梅田ビル,,35,206,7470037,,,,,,,2021-12-15,1,,,,,アンカー,0
1404,5290005018467,新規,0,2021-12-15,2021-12-15,ＮＰＯ法人ＨＯＣＡＲＩ,,その他の設立登記法人,福岡県,福岡市博多区,古門戸町７－１２ＭＳＦビル５階,,40,132,8120029,,,,,,,2021-12-15,1,,,,,ホキャリ,0
1406,5290805009500,新規,0,2021-12-15,2021-12-15,医療法人こころ,,その他の設立登記法人,福岡県,北九州市八幡東区,荒生田２丁目２番１４号,,40,108,8050015,,,,,,,2021-12-15,1,,,,,ココロ,0
1413,5330001029273,新規,0,2021-12-15,2021-12-15,島村ＣＰＡオフィス株式会社,,株式会社,熊本県,上益城郡嘉島町,大字鯰２６８６番地１,,43,442,8613101,,,,,,,2021-12-15,1,,,,,シマムラシーピーエーオフィス,0
1415,5330005010444,新規,0,2021-12-15,2021-12-15,ＮＰＯ法人おもいでつくる水俣,,その他の設立登記法人,熊本県,水俣市,大黒町１丁目１番２３号,,43,205,8670043,,,,,,,2021-12-15,1,,,,,オモイデツクルミナマタ,0
1420,5360001029766,新規,0,2021-12-15,2021-12-15,株式会社ＡＬＡ,,株式会社,沖縄県,中頭郡北谷町,字宮城２番地１１１－Ａ２,,47,326,9040113,,,,,,,2021-12-15,1,,,,,エーエルエー,0
1433,5430001085587,新規,0,2021-12-15,2021-12-15,さくら食品株式会社,,株式会社,北海道,札幌市西区,発寒十一条５丁目１０番１号,,01,107,0630831,,,,,,,2021-12-15,1,,,,,サクラショクヒン,0
1435,5430003013455,新規,0,2021-12-15,2021-12-15,合同会社ＬａｉｄＢａｃｋ,,合同会社,北海道,札幌市白石区,東札幌三条４丁目１番１８－３０３号,,01,104,0030003,,,,,,,2021-12-15,1,,,,,ライドバック,0
1438,5450001013554,新規,0,2021-12-15,2021-12-15,株式会社榊,00125142,株式会社,北海道,旭川市,三条通７丁目６７９番地ヨネザワセブンビルＢＦ,,01,204,0700033,,,,,,,2021-12-15,1,,,,,サカキ,0
1461,6010001223048,新規,0,2021-12-15,2021-12-15,株式会社ＳＪＴ　ＣＡＰＩＴＡＬ,,株式会社,東京都,中央区,晴海３丁目１３番１号,,13,102,1040053,,,,,,,2021-12-15,1,,,,,エスジェイティキャピタル,0
1462,6010001223246,新規,0,2021-12-15,2021-12-15,株式会社東京経営革新機構,,株式会社,東京都,千代田区,岩本町２丁目１２番８号ディアビル神田６０１,,13,101,1010032,,,,,,,2021-12-15,1,,,,,トウキョウケイエイカクシンキコウ,0
1463,6010001223262,新規,0,2021-12-15,2021-12-15,サブカルチャー・パートナーズ株式会社,,株式会社,東京都,中央区,銀座１丁目２０番１号,,13,102,1040061,,,,,,,2021-12-15,1,,,,,サブカルチャーパートナーズ,0
1464,6010001223270,新規,0,2021-12-15,2021-12-15,株式会社ＤＳＧ,,株式会社,東京都,文京区,本郷４丁目１４番１０号,,13,105,1130033,,,,,,,2021-12-15,1,,,,,ディーエスジー,0
1465,6010001223279,新規,0,2021-12-15,2021-12-15,株式会社ＴＡＳ,,株式会社,東京都,千代田区,丸の内１丁目８番３号丸の内トラストタワー本館２０階,,13,101,1000005,,,,,,,2021-12-15,1,,,,,ティーエーエス,0
1466,6010001223287,新規,0,2021-12-15,2021-12-15,株式会社ＭＪ東京,,株式会社,東京都,千代田区,内神田２丁目９番９号神田西口ビル,,13,101,1010047,,,,,,,2021-12-15,1,,,,,エムジェイトウキョウ,0
1467,6010003036530,新規,0,2021-12-15,2021-12-15,ジェイコアレジ４合同会社２,,合同会社,東京都,千代田区,丸の内３丁目１番１号東京共同会計事務所内,,13,101,1000005,,,,,,,2021-12-15,1,,,,,ジェイコアレジフォーニ,0
1468,6010003036539,新規,0,2021-12-15,2021-12-15,ジェイコアレジ４合同会社１１,,合同会社,東京都,千代田区,丸の内３丁目１番１号東京共同会計事務所内,,13,101,1000005,,,,,,,2021-12-15,1,,,,,ジェイコアレジフォーイチイチ,0
1469,6010003036547,新規,0,2021-12-15,2021-12-15,合同会社Ｂｌｉｔｚ,,合同会社,東京都,中央区,日本橋馬喰町１丁目４番１４－４１０号,,13,102,1030002,,,,,,,2021-12-15,1,,,,,ブリッツ,0
1470,6010003036563,新規,0,2021-12-15,2021-12-15,ゆうる合同会社,,合同会社,東京都,文京区,関口２丁目５番１９－３２０号,,13,105,1120014,,,,,,,2021-12-15,1,,,,,ユウル,0
1475,6010401164429,新規,0,2021-12-15,2021-12-15,株式会社コンセンサス,,株式会社,東京都,港区,赤坂６丁目３番２０号,,13,103,1070052,,,,,,,2021-12-15,1,,,,,コンセンサス,0
1476,6010401164437,新規,0,2021-12-15,2021-12-15,株式会社ＩＮＦＲＡＳ,,株式会社,東京都,港区,三田３丁目７番１８号,,13,103,1080073,,,,,,,2021-12-15,1,,,,,インフラス,0
1477,6010401164445,新規,0,2021-12-15,2021-12-15,キノネ株式会社,,株式会社,東京都,港区,北青山３丁目６－７青山パラシオタワー１１階,,13,103,1070061,,,,,,,2021-12-15,1,,,,,キノネ,0
1478,6010401164461,新規,0,2021-12-15,2021-12-15,株式会社レコセレ,,株式会社,東京都,港区,六本木７丁目１７－２２、２１０室,,13,103,1060032,,,,,,,2021-12-15,1,,,,,レコセレ,0
1479,6010401164494,新規,0,2021-12-15,2021-12-15,株式会社ＡＭＡＤＥＵＳ,,株式会社,東京都,港区,愛宕２丁目５番１号愛宕グリーンヒルズＭＯＲＩタワー２４階,,13,103,1050002,,,,,,,2021-12-15,1,,,,,アマデウス,0
1486,6010403026718,新規,0,2021-12-15,2021-12-15,Ｋ＆Ｙビジネスパートナーズ合同会社,,合同会社,東京都,港区,南青山２丁目２番１５号ウィン青山９４２,,13,103,1070062,,,,,,,2021-12-15,1,,,,,ケーアンドワイビジネスパートナーズ,0
1487,6010405020520,新規,0,2021-12-15,2021-12-15,柊一般社団法人,,その他の設立登記法人,東京都,港区,西新橋１丁目１番１号ＥＰコンサルティングサービス内,,13,103,1050003,,,,,,,2021-12-15,1,,,,,ヒイラギ,0
1502,6010901049996,新規,0,2021-12-15,2021-12-15,株式会社ビートエイト,,株式会社,東京都,世田谷区,桜上水４丁目１番Ｇ－８１１号,,13,112,1560045,,,,,,,2021-12-15,1,,,,,ビートエイト,0
1512,6011001144589,新規,0,2021-12-15,2021-12-15,株式会社ＡＮＷＩ,,株式会社,東京都,渋谷区,宇田川町１６番８号渋谷センタービル３階,,13,113,1500042,,,,,,,2021-12-15,1,,,,,アンウィ,0
1513,6011005009350,新規,0,2021-12-15,2021-12-15,一般社団法人国際研修親善協会,,その他の設立登記法人,東京都,渋谷区,渋谷２丁目８番４号東和青山ビル３０３,,13,113,1500002,,,,,,,2021-12-15,1,,,,,コクサイケンシュウシンゼンキョウカイ,0
1518,6011401023913,新規,0,2021-12-15,2021-12-15,株式会社坂栄,,株式会社,東京都,板橋区,栄町１番１０号,,13,119,1730015,,,,,,,2021-12-15,1,,,,,サカエイ,0
1527,6011701024909,新規,0,2021-12-15,2021-12-15,株式会社ＡＳＡＭＡ,,株式会社,東京都,江戸川区,興宮町７番１０号,,13,123,1330042,,,,,,,2021-12-15,1,,,,,アサマ,0
1538,6012803002661,新規,0,2021-12-15,2021-12-15,合同会社高幡ＳｈａｒｅＣｌｕｂ,,合同会社,東京都,日野市,三沢３丁目１８番地の６,,13,212,1910032,,,,,,,2021-12-15,1,,,,,タカハタシェアークラブ,0
1544,6013301048412,新規,0,2021-12-15,2021-12-15,株式会社眼球トータルサポート,,株式会社,東京都,豊島区,池袋２丁目７２番３号宝来ビュープラザ４０５号,,13,116,1710014,,,,,,,2021-12-15,1,,,,,ガンキュウトータルサポート,0
1545,6013301048429,新規,0,2021-12-15,2021-12-15,フューチャーフーズ株式会社,,株式会社,東京都,豊島区,東池袋５丁目８番１７号６０１号,,13,116,1700013,,,,,,,2021-12-15,1,,,,,フューチャーフーズ,0
1556,6020001144326,新規,0,2021-12-15,2021-12-15,株式会社エムズトライアル,,株式会社,神奈川県,横浜市戸塚区,汲沢町５３１番地９,,14,110,2450062,,,,,,,2021-12-15,1,,,,,エムズトライアル,0
1557,6020001144350,新規,0,2021-12-15,2021-12-15,株式会社ＲＡＯＮ,,株式会社,神奈川県,横浜市中区,寺久保３４番地１クリオレミントンハウス横濱山手ロワイヤル２０１号室,,14,104,2310855,,,,,,,2021-12-15,1,,,,,ラオン,0
1564,6021001074744,新規,0,2021-12-15,2021-12-15,株式会社Ｋ－ＦＲＯＮＴＥＲ,,株式会社,神奈川県,横須賀市,本町２丁目１番地１９横須賀汐入ハイム２ー７０９,,14,201,2380041,,,,,,,2021-12-15,1,,,,,ケイフロンティア,0
1565,6021001074752,新規,0,2021-12-15,2021-12-15,株式会社ベストエムズ,,株式会社,神奈川県,高座郡寒川町,倉見２１６０番地１,,14,321,2530101,,,,,,,2021-12-15,1,,,,,ベストエムズ,0
1566,6021001074760,新規,0,2021-12-15,2021-12-15,株式会社ｖｅｎｅｒｅ,,株式会社,神奈川県,座間市,ひばりが丘５丁目１４番１１号,,14,216,2520003,,,,,,,2021-12-15,1,,,,,ベネレ,0
1577,6030001145810,新規,0,2021-12-15,2021-12-15,ＦＳＫ株式会社,,株式会社,埼玉県,南埼玉郡宮代町,字道佛６０７番地１０,,11,442,3450811,,,,,,,2021-12-15,1,,,,,エフエスケイ,0
1578,6030001145819,新規,0,2021-12-15,2021-12-15,株式会社ショー・テック,,株式会社,埼玉県,草加市,北谷１丁目２番３号,,11,221,3400046,,,,,,,2021-12-15,1,,,,,ショーテック,0
1579,6030001145843,新規,0,2021-12-15,2021-12-15,エイディーズ株式会社,,株式会社,埼玉県,富士見市,関沢２丁目２６番５１号,,11,235,3540025,,,,,,,2021-12-15,1,,,,,エイディーズ,0
1580,6030001145851,新規,0,2021-12-15,2021-12-15,株式会社ＳＴオート,,株式会社,埼玉県,草加市,青柳６丁目３２番１号,,11,221,3400002,,,,,,,2021-12-15,1,,,,,エスティーオート,0
1581,6030001145868,新規,0,2021-12-15,2021-12-15,Ｏｐｔｉｚ　Ｄｉｇｉｔａｌ株式会社,,株式会社,埼玉県,坂戸市,仲町１６番地１セントラルコート坂戸パークス５０２号室,,11,239,3500227,,,,,,,2021-12-15,1,,,,,オプティズデジタル,0
1582,6030001145884,新規,0,2021-12-15,2021-12-15,株式会社キングツリー,,株式会社,埼玉県,さいたま市南区,根岸５丁目１２番１０号,,11,108,3360024,,,,,,,2021-12-15,1,,,,,キングツリー,0
1589,6030003018477,新規,0,2021-12-15,2021-12-15,ＫＡＭＴＯ　ＴＲＥＡＤＩＮＧ　ＪＡＰＡＮ合同会社,,合同会社,埼玉県,草加市,氷川町２１７９－３０－２０５,,11,221,3400034,,,,,,,2021-12-15,1,,,,,カムトトレーディングジャパン,0
1590,6030003018485,新規,0,2021-12-15,2021-12-15,合同会社植竹,,合同会社,埼玉県,越谷市,東町３丁目２０１番地,,11,222,3430826,,,,,,,2021-12-15,1,,,,,ウエタケ,0
1591,6030003018493,新規,0,2021-12-15,2021-12-15,合同会社加藤兄弟,,合同会社,埼玉県,川口市,川口６丁目８番１３号,,11,203,3320015,,,,,,,2021-12-15,1,,,,,カトウキョウダイ,0
1592,6030003018502,新規,0,2021-12-15,2021-12-15,エコナジー合同会社,,合同会社,埼玉県,坂戸市,大字片柳２１５４番地８,,11,239,3500219,,,,,,,2021-12-15,1,,,,,エコナジー,0
1604,6040001121356,新規,0,2021-12-15,2021-12-15,株式会社エイケーレジデンシャル’ｓ,,株式会社,千葉県,君津市,東坂田３丁目３番１５号,,12,225,2991144,,,,,,,2021-12-15,1,,,,,エイケーレジデンシャルズ,0
1605,6040001121380,新規,0,2021-12-15,2021-12-15,ＳＫユニオン株式会社,,株式会社,千葉県,袖ケ浦市,坂戸市場１３８９番地１,,12,229,2990262,,,,,,,2021-12-15,1,,,,,エスケーユニオン,0
1614,6050003006257,新規,0,2021-12-15,2021-12-15,奥村産業合同会社,,合同会社,茨城県,北茨城市,中郷町上桜井１１６９番地の１,,08,215,3191559,,,,,,,2021-12-15,1,,,,,オクムラサンギョウ,0
1616,6060001034382,新規,0,2021-12-15,2021-12-15,株式会社ＨＥＲＯ,,株式会社,栃木県,足利市,通３丁目２５８９番地足利織物会館２階,,09,202,3260814,,,,,,,2021-12-15,1,,,,,ヒーロー,0
1637,6100001034898,新規,0,2021-12-15,2021-12-15,株式会社ＹＡＥ,,株式会社,長野県,伊那市,高遠町小原５８６番地１,,20,209,3960215,,,,,,,2021-12-15,1,,,,,ヤエ,0
1639,6110001036266,新規,0,2021-12-15,2021-12-15,株式会社ベンド．エー,,株式会社,新潟県,新潟市南区,庄瀬１４５０番地,,15,106,9501446,,,,,,,2021-12-15,1,,,,,ベンドエー,0
1646,6120001242490,新規,0,2021-12-15,2021-12-15,株式会社ＨＩＴＯＭＩＯテクノロジーズ,,株式会社,大阪府,大阪市港区,弁天１丁目２番１号大阪ベイタワーオフィス１９階,,27,107,5520007,,,,,,,2021-12-15,1,,,,,ヒトミオテクノロジーズ,0
1647,6120001242499,新規,0,2021-12-15,2021-12-15,株式会社ジェイエスティー,,株式会社,大阪府,大阪市東淀川区,東中島２丁目１－９－４０２,,27,114,5330033,,,,,,,2021-12-15,1,,,,,ジェイエスティー,0
1648,6120001242508,新規,0,2021-12-15,2021-12-15,ツボヤマホールディングス株式会社,,株式会社,大阪府,大阪市此花区,春日出中１丁目１５番７号,,27,104,5540022,,,,,,,2021-12-15,1,,,,,ツボヤマホールディングス,0
1649,6120001242524,新規,0,2021-12-15,2021-12-15,株式会社チョイスル,,株式会社,大阪府,大阪市北区,梅田１丁目１番３号,,27,127,5300001,,,,,,,2021-12-15,1,,,,,チョイスル,0
1650,6120001242532,新規,0,2021-12-15,2021-12-15,銘邦通商株式会社,,株式会社,大阪府,大阪市住之江区,西住之江４丁目６番１１号,,27,125,5590005,,,,,,,2021-12-15,1,,,,,メイホウツウショウ,0
1651,6120001242540,新規,0,2021-12-15,2021-12-15,三林興業株式会社,,株式会社,大阪府,大阪市住吉区,山之内４丁目９番８号,,27,120,5580023,,,,,,,2021-12-15,1,,,,,サンバヤシコウギョウ,0
1658,6120903003940,新規,0,2021-12-15,2021-12-15,佐保合同会社,,合同会社,大阪府,豊中市,本町４丁目７番１３号,,27,203,5600021,,,,,,,2021-12-15,1,,,,,サホ,0
1664,6130001070726,新規,0,2021-12-15,2021-12-15,株式会社ノルデン,,株式会社,京都府,京都市下京区,烏丸通松原下る五条烏丸町４０４ライオンズマンション烏丸通１３０１,,26,106,6008418,,,,,,,2021-12-15,1,,,,,ノルデン,0
1675,6140001124167,新規,0,2021-12-15,2021-12-15,株式会社市田動物病院,,株式会社,兵庫県,神戸市北区,南五葉３丁目５番１９号,,28,109,6511132,,,,,,,2021-12-15,1,,,,,イチダドウブツビョウイン,0
1688,6180001149111,新規,0,2021-12-15,2021-12-15,株式会社笑旗,,株式会社,愛知県,名古屋市中区,古渡町１４番２４号マルフクビル１Ｆ,,23,106,4600025,,,,,,,2021-12-15,1,,,,,ショウキ,0
1693,6180003023289,新規,0,2021-12-15,2021-12-15,オオアケイ合同会社,,合同会社,愛知県,一宮市,栄４丁目１番５号ａａａＢＬＤ４０１,,23,203,4910858,,,,,,,2021-12-15,1,,,,,オオアケイ,0
1694,6180003023297,新規,0,2021-12-15,2021-12-15,合同会社ＬＵＡ,,合同会社,愛知県,名古屋市中区,栄１丁目１３番４号,,23,106,4600008,,,,,,,2021-12-15,1,,,,,エルユーエー,0
1706,6220001024598,新規,0,2021-12-15,2021-12-15,Ｋホールディングス株式会社,,株式会社,石川県,鹿島郡中能登町,高畠へ部８０番地,,17,407,9291635,,,,,,,2021-12-15,1,,,,,ケーホールディングス,0
1713,6240001059048,新規,0,2021-12-15,2021-12-15,株式会社クォーレプレミオ,,株式会社,広島県,広島市佐伯区,五日市中央５丁目１－４,,34,108,7315128,,,,,,,2021-12-15,1,,,,,クォーレプレミオ,0
1715,6240003005396,新規,0,2021-12-15,2021-12-15,合同会社雄志建設,,合同会社,広島県,呉市,瀬戸見町２１番１６号,,34,202,7370834,,,,,,,2021-12-15,1,,,,,ユウシケンセツ,0
1716,6240003005405,新規,0,2021-12-15,2021-12-15,あかつきパートナーズ合同会社,,合同会社,広島県,広島市中区,広瀬北町３番１１号ソアラビジネスポート,,34,101,7300803,,,,,,,2021-12-15,1,,,,,アカツキパートナーズ,0
1721,6250001019298,新規,0,2021-12-15,2021-12-15,株式会社ＳＤＳ,,株式会社,山口県,下関市,長府松小田中町９番４３号,,35,201,7520935,,,,,,,2021-12-15,1,,,,,エスディーエス,0
1727,6280003001557,新規,0,2021-12-15,2021-12-15,ＰＲＯＴＥＣＴＳＥＲＶＩＣＥ合同会社,,合同会社,島根県,出雲市,佐田町八幡原６２１番地１,,32,203,6930511,,,,,,,2021-12-15,1,,,,,プロテクトサービス,0
1733,6290005018474,新規,0,2021-12-15,2021-12-15,医療法人あべ胃腸内視鏡・内科,,その他の設立登記法人,福岡県,福岡市博多区,東那珂３丁目２番３０号２Ｆ,,40,132,8120892,,,,,,,2021-12-15,1,,,,,アベイチョウナイシキョウナイカ,0
1741,6330001029272,新規,0,2021-12-15,2021-12-15,株式会社コラボ,,株式会社,熊本県,球磨郡多良木町,大字多良木１０９番地,,43,505,8680501,,,,,,,2021-12-15,1,,,,,コラボ,0
1747,6360003011655,新規,0,2021-12-15,2021-12-15,合同会社ＡＬＬ　ＳＴＡＲ,,合同会社,沖縄県,那覇市,小禄１丁目２９番２０号ザ・プレース那覇小禄レジデンス５０２,,47,201,9010152,,,,,,,2021-12-15,1,,,,,オールスター,0
1748,6370001047948,新規,0,2021-12-15,2021-12-15,株式会社ＪＹ,,株式会社,宮城県,宮城郡七ヶ浜町,東宮浜字吉子６１番地の３,,04,404,9850804,,,,,,,2021-12-15,1,,,,,ジェーワイ,0
1758,6380001032395,新規,0,2021-12-15,2021-12-15,株式会社アドシステム,,株式会社,福島県,須賀川市,向陽町１８９番地,,07,207,9620401,,,,,,,2021-12-15,1,,,,,アドシステム,0
1763,6390003001901,新規,0,2021-12-15,2021-12-15,合同会社地域総合商社,,合同会社,山形県,酒田市,東泉町６丁目４番地の９,,06,204,9980013,,,,,,,2021-12-15,1,,,,,チイキソウゴウショウシャ,0
1765,6410005006441,新規,0,2021-12-15,2021-12-15,農事組合法人したみなみファーマーズ,,その他の設立登記法人,秋田県,大仙市,太田町国見字天王久保１４７番地５,,05,212,0191605,,,,,,,2021-12-15,1,,,,,,0
1770,6430001085594,新規,0,2021-12-15,2021-12-15,株式会社Ｎｅｋｏｋａｎ,,株式会社,北海道,札幌市中央区,南七条東２丁目１１番地ＡＱＵＡＣＩＴＹＳＴＥＬＬＡ２０２号,,01,101,0600057,,,,,,,2021-12-15,1,,,,,ネコカン,0
1776,6462501000922,新規,0,2021-12-15,2021-12-15,株式会社ＥＡＲＴＨ　ＥＡＳＴ,,株式会社,北海道,標津郡中標津町,字俵橋十五線４０番地２０,,01,692,0861137,,,,,,,2021-12-15,1,,,,,アースイースト,0
1809,7010001223229,新規,0,2021-12-15,2021-12-15,株式会社Ｆｅｌｕｃａ,,株式会社,東京都,千代田区,九段南２丁目７番１号,,13,101,1020074,,,,,,,2021-12-15,1,,,,,フェルカ,0
1810,7010001223237,新規,0,2021-12-15,2021-12-15,株式会社オールナンバー,,株式会社,東京都,千代田区,二番町１番地２,,13,101,1020084,,,,,,,2021-12-15,1,,,,,オールナンバー,0
1811,7010001223245,新規,0,2021-12-15,2021-12-15,株式会社Ｆｉｅｌｄｓ,,株式会社,東京都,中央区,東日本橋３丁目３番１７号,,13,102,1030004,,,,,,,2021-12-15,1,,,,,フィールズ,0
1816,7010003036538,新規,0,2021-12-15,2021-12-15,ジェイコアレジ４合同会社１０,,合同会社,東京都,千代田区,丸の内３丁目１番１号東京共同会計事務所内,,13,101,1000005,,,,,,,2021-12-15,1,,,,,ジェイコアレジフォーイチゼロ,0
1817,7010003036562,新規,0,2021-12-15,2021-12-15,Ｇｒｅｙｓｔａｒ合同会社,,合同会社,東京都,千代田区,丸の内３丁目２番２号丸の内二重橋ビルディング３階,,13,101,1000005,,,,,,,2021-12-15,1,,,,,グレースター,0
1818,7010003036570,新規,0,2021-12-15,2021-12-15,合同会社ＳＫ　ｂｒａｎｄ,,合同会社,東京都,千代田区,神田錦町２丁目７番地ワールドレジデンス大手町６０１号,,13,101,1010054,,,,,,,2021-12-15,1,,,,,エスケーブランド,0
1829,7010401164394,新規,0,2021-12-15,2021-12-15,株式会社インセンティブ,,株式会社,東京都,港区,南青山２丁目２番１５号ウィン青山９４２,,13,103,1070062,,,,,,,2021-12-15,1,,,,,インセンティブ,0
1830,7010401164452,新規,0,2021-12-15,2021-12-15,株式会社となり,,株式会社,東京都,港区,麻布十番２丁目８番７号Ｍ２ＫＨｏｌｄｉｎｇＢＬＤ．Ｍ２階,,13,103,1060045,,,,,,,2021-12-15,1,,,,,トナリ,0
1834,7010501048225,新規,0,2021-12-15,2021-12-15,株式会社ＳＨｉｉｉＮＯ,,株式会社,東京都,台東区,三ノ輪１丁目２８番１２－１１０１号プラザＭ,,13,106,1100011,,,,,,,2021-12-15,1,,,,,シーノ,0
1843,7010901050004,新規,0,2021-12-15,2021-12-15,株式会社ＳＡＩ,,株式会社,東京都,世田谷区,玉川３丁目２２番１６号リオテラス４０１,,13,112,1580094,,,,,,,2021-12-15,1,,,,,サイ,0
1856,7011001144588,新規,0,2021-12-15,2021-12-15,株式会社スマイル,,株式会社,東京都,目黒区,上目黒５丁目１３番１４号２Ｄ号室,,13,110,1530051,,,,,,,2021-12-15,1,,,,,スマイル,0
1863,7011101097190,新規,0,2021-12-15,2021-12-15,株式会社笠井工営,,株式会社,東京都,新宿区,西新宿７丁目１９番２２号－７０７号室,,13,104,1600023,,,,,,,2021-12-15,1,,,,,カサイコウエイ,0
1864,7011101097199,新規,0,2021-12-15,2021-12-15,株式会社ＹＭ　ＳＴＡＲ,,株式会社,東京都,新宿区,新宿６丁目７番２号,,13,104,1600022,,,,,,,2021-12-15,1,,,,,ワイエムスター,0
1870,7011301027419,新規,0,2021-12-15,2021-12-15,ＲＳ株式会社,,株式会社,東京都,杉並区,南荻窪３丁目２９番９号,,13,115,1670052,,,,,,,2021-12-15,1,,,,,アールエス,0
1874,7011501027565,新規,0,2021-12-15,2021-12-15,ＩＫＥＮＮ株式会社,,株式会社,東京都,北区,浮間１丁目１番１４号リムジンビル４０５,,13,117,1150051,,,,,,,2021-12-15,1,,,,,イケン,0
1875,7011701024908,新規,0,2021-12-15,2021-12-15,株式会社喜左衛,,株式会社,東京都,江戸川区,松本１丁目１１番４号,,13,123,1330043,,,,,,,2021-12-15,1,,,,,キザエ,0
1881,7013301048428,新規,0,2021-12-15,2021-12-15,株式会社ライカラ,,株式会社,東京都,豊島区,駒込６丁目１６番５号,,13,116,1700003,,,,,,,2021-12-15,1,,,,,ライカラ,0
1887,7020001144317,新規,0,2021-12-15,2021-12-15,株式会社古閑企画,,株式会社,神奈川県,横浜市西区,みなとみらい４丁目９番２－Ｄ６０３号,,14,103,2200012,,,,,,,2021-12-15,1,,,,,コガキカク,0
1888,7020001144325,新規,0,2021-12-15,2021-12-15,株式会社マナルル,,株式会社,神奈川県,横浜市鶴見区,潮田町１丁目７７番地６,,14,101,2300041,,,,,,,2021-12-15,1,,,,,マナルル,0
1889,7020001144333,新規,0,2021-12-15,2021-12-15,Ｃｌｅｆｔ株式会社,,株式会社,神奈川県,横浜市都筑区,中川８丁目５番８号アネックス清水Ｃ１０２,,14,118,2240001,,,,,,,2021-12-15,1,,,,,クレフト,0
1890,7020001144341,新規,0,2021-12-15,2021-12-15,株式会社オーエムシー,,株式会社,神奈川県,川崎市麻生区,向原３丁目２１番１４号,,14,137,2150007,,,,,,,2021-12-15,1,,,,,オーエムシー,0
1891,7020001144366,新規,0,2021-12-15,2021-12-15,インカムジャパン株式会社,,株式会社,神奈川県,横浜市金沢区,谷津町３４１番８号３階,,14,108,2360016,,,,,,,2021-12-15,1,,,,,インカムジャパン,0
1893,7020003020961,新規,0,2021-12-15,2021-12-15,エヌカンパニー合同会社,,合同会社,神奈川県,横浜市鶴見区,鶴見中央２丁目１１番１－２１２号,,14,101,2300051,,,,,,,2021-12-15,1,,,,,エヌカンパニー,0
1894,7020005015308,新規,0,2021-12-15,2021-12-15,一般社団法人フレンドシップエニアグラム協会,,その他の設立登記法人,神奈川県,横浜市港南区,上大岡西１丁目１８番５－１４１４号,,14,111,2330002,,,,,,,2021-12-15,1,,,,,フレンドシップエニアグラムキョウカイ,0
1897,7021001074751,新規,0,2021-12-15,2021-12-15,株式会社ＵＰＷＡＲＤ,,株式会社,神奈川県,横須賀市,平作２丁目１８番４号,,14,201,2380032,,,,,,,2021-12-15,1,,,,,アップワード,0
1899,7030001145826,新規,0,2021-12-15,2021-12-15,株式会社Ｋ＆Ｍ,,株式会社,埼玉県,吉川市,大字三輪野江２３００番地１,,11,243,3420027,,,,,,,2021-12-15,1,,,,,ケイアンドエム,0
1908,7040001121347,新規,0,2021-12-15,2021-12-15,株式会社マックスペイント,,株式会社,千葉県,市川市,柏井町２丁目１３０７番地１コーポペアブリック参番館２０１号,,12,203,2720802,,,,,,,2021-12-15,1,,,,,マックスペイント,0
1909,7040001121355,新規,0,2021-12-15,2021-12-15,株式会社林創建,,株式会社,千葉県,四街道市,下志津新田２５３４番地１４８,,12,228,2840006,,,,,,,2021-12-15,1,,,,,ハヤシソウケン,0
1910,7040001121388,新規,0,2021-12-15,2021-12-15,Ｃ＆Ｂ株式会社,,株式会社,千葉県,船橋市,二宮１丁目５番１６－５号,,12,204,2740823,,,,,,,2021-12-15,1,,,,,シーアンドビー,0
1913,7040003019119,新規,0,2021-12-15,2021-12-15,合同会社アイプランニング,,合同会社,千葉県,柏市,若柴１７８番地４柏の葉キャンパス１４８街区１パークシティ柏の葉キャンパスザ・ゲートタワーウェスト３階,,12,217,2770871,,,,,,,2021-12-15,1,,,,,アイプランニング,0
1914,7040003019127,新規,0,2021-12-15,2021-12-15,合同会社アイネ,,合同会社,千葉県,市川市,行徳駅前１丁目９－５－７０２,,12,203,2720133,,,,,,,2021-12-15,1,,,,,アイネ,0
1915,7040003019143,新規,0,2021-12-15,2021-12-15,合同会社ＮＥＥＫ　ＮＥＸＴ,,合同会社,千葉県,千葉市中央区,富士見２丁目１９番１１号ＫＩＳビル２階,,12,101,2600015,,,,,,,2021-12-15,1,,,,,ニークネクスト,0
1918,7050001050297,新規,0,2021-12-15,2021-12-15,内田工務店株式会社,,株式会社,茨城県,鉾田市,柏熊９９８番地１０,,08,234,3111511,,,,,,,2021-12-15,1,,,,,ウチタコウムテン,0
1925,7080001024637,新規,0,2021-12-15,2021-12-15,株式会社いなか企画,,株式会社,静岡県,榛原郡川根本町,地名１２９７番地の１,,22,429,4280305,,,,,,,2021-12-15,1,,,,,イナカキカク,0
1932,7090001017318,新規,0,2021-12-15,2021-12-15,株式会社ネムールホールディングス,,株式会社,山梨県,甲斐市,竜王新町沖田９３２－７,,19,210,4000111,,,,,,,2021-12-15,1,,,,,ネムールホールディングス,0
1936,7100001034897,新規,0,2021-12-15,2021-12-15,ＶＩＥＴ　ＡＮＨ株式会社,,株式会社,長野県,長野市,大字稲葉２０８８番地１コーポシモダＣ,,20,201,3800911,,,,,,,2021-12-15,1,,,,,ヴェトアン,0
1940,7110001036273,新規,0,2021-12-15,2021-12-15,ミナトホールディング株式会社,,株式会社,新潟県,新潟市西区,新通南１丁目２番１号,,15,107,9502038,,,,,,,2021-12-15,1,,,,,ミナトホールディング,0
1951,7120001242408,新規,0,2021-12-15,2021-12-15,株式会社ＲＳＫ,,株式会社,大阪府,大阪市中央区,西心斎橋１丁目１６－１２ニューアメリカンプラザビル４階Ｂ,,27,128,5420086,,,,,,,2021-12-15,1,,,,,アールエスケイ,0
1952,7120001242465,新規,0,2021-12-15,2021-12-15,株式会社興進金属,,株式会社,大阪府,大阪市東成区,大今里南５丁目９番１７号,,27,115,5370013,,,,,,,2021-12-15,1,,,,,コウシンキンゾク,0
1953,7120001242473,新規,0,2021-12-15,2021-12-15,株式会社ＴＭＦ．ＰＥＡＣＥ,,株式会社,大阪府,大阪市東淀川区,東中島１丁目１１－８－８０３,,27,114,5330033,,,,,,,2021-12-15,1,,,,,ティーエムエフピース,0
1954,7120001242481,新規,0,2021-12-15,2021-12-15,ａｌｂｅｒｔｏｎ　ｊａｐａｎ株式会社,,株式会社,大阪府,大阪市西区,京町掘一丁目７番９号東洋ビル４０５,,27,106,5500000,,,,,,,2021-12-15,1,,,,,アルバートンジャパン,0
1955,7120001242523,新規,0,2021-12-15,2021-12-15,株式会社コンサルティングサポート,,株式会社,大阪府,大阪市中央区,瓦屋町１丁目８－１８－９０５,,27,128,5420066,,,,,,,2021-12-15,1,,,,,コンサルティングサポート,0
1966,7120905006247,新規,0,2021-12-15,2021-12-15,ジャパンコネクト協同組合,,その他の設立登記法人,大阪府,豊中市,服部本町１丁目６番２８号,,27,203,5610852,,,,,,,2021-12-15,1,,,,,ジャパンコネクト,0
1977,7140001124166,新規,0,2021-12-15,2021-12-15,株式会社Ｗｅｌｌ　Ｔｒａｄｅ,,株式会社,兵庫県,神戸市須磨区,竜が台６丁目８－１６,,28,107,6540141,,,,,,,2021-12-15,1,,,,,ウェルトレード,0
1978,7140001124174,新規,0,2021-12-15,2021-12-15,株式会社タカラ食健,,株式会社,兵庫県,姫路市,西夢前台２丁目３８番地,,28,201,6712214,,,,,,,2021-12-15,1,,,,,タカラショッケン,0
1981,7140003017112,新規,0,2021-12-15,2021-12-15,アウローラ合同会社,,合同会社,兵庫県,神戸市須磨区,北落合３丁目１番３７１－２０５号,,28,107,6540151,,,,,,,2021-12-15,1,,,,,アウローラ,0
1987,7170001016906,新規,0,2021-12-15,2021-12-15,株式会社メディカルＫＳＫ,,株式会社,和歌山県,岩出市,西野５６番地１,,30,209,6496235,,,,,,,2021-12-15,1,,,,,メディカルケイエスケイ,0
1999,7180001149110,新規,0,2021-12-15,2021-12-15,株式会社ＡＮＴＩ．ＬＡＢ,,株式会社,愛知県,名古屋市北区,金城３丁目１２番９号,,23,103,4620847,,,,,,,2021-12-15,1,,,,,アンチラボ,0
2000,7180001149119,新規,0,2021-12-15,2021-12-15,株式会社ブライト,,株式会社,愛知県,名古屋市天白区,井口２丁目５０８番地の１,,23,116,4680052,,,,,,,2021-12-15,1,,,,,ブライト,0
2001,7180001149135,新規,0,2021-12-15,2021-12-15,株式会社ノブレス,,株式会社,愛知県,春日井市,若草通３丁目５７番地,,23,206,4860914,,,,,,,2021-12-15,1,,,,,ノブレス,0
2002,7180001149151,新規,0,2021-12-15,2021-12-15,株式会社オルフェ,,株式会社,愛知県,名古屋市中区,錦３丁目１４番４号シャインα錦ビル２０１号,,23,106,4600003,,,,,,,2021-12-15,1,,,,,オルフェ,0
2005,7180005019565,新規,0,2021-12-15,2021-12-15,医療法人清医会,,その他の設立登記法人,愛知県,名古屋市中区,錦１丁目２０番２５号広小路ＹＭＤビル２階,,23,106,4600003,,,,,,,2021-12-15,1,,,,,セイイカイ,0
2008,7180301035720,新規,0,2021-12-15,2021-12-15,グランドホールディングス株式会社,,株式会社,愛知県,岡崎市,大平町字榎田１０番,,23,202,4440007,,,,,,,2021-12-15,1,,,,,グランドホールディングス,0
2009,7180301035729,新規,0,2021-12-15,2021-12-15,グローカルビジネスソリューションズ株式会社,,株式会社,愛知県,岡崎市,福岡町字下荒追２８番地,,23,202,4440825,,,,,,,2021-12-15,1,,,,,グローカルビジネスソリューションズ,0
2010,7180305009274,新規,0,2021-12-15,2021-12-15,愛知県鮎養殖漁業生産組合,,その他の設立登記法人,愛知県,豊川市,伊奈町雨田１８０番地,,23,207,4410105,,,,,,,2021-12-15,1,,,,,,0
2011,7190001028940,新規,0,2021-12-15,2021-12-15,株式会社黒岩建工,,株式会社,三重県,鈴鹿市,野町西３丁目９番２３号,,24,207,5100218,,,,,,,2021-12-15,1,,,,,クロイワケンコウ,0
2013,7190005011653,新規,0,2021-12-15,2021-12-15,一般社団法人クローバーブリッジ,,その他の設立登記法人,三重県,伊勢市,小木町５６０番地８,,24,203,5160007,,,,,,,2021-12-15,1,,,,,クローバーブリッジ,0
2020,7230001019134,新規,0,2021-12-15,2021-12-15,アルカスホールディングス株式会社,,株式会社,富山県,南砺市,長源寺８９番地,,16,210,9391505,,,,,,,2021-12-15,1,,,,,アルカスホールディングス,0
2024,7240001059063,新規,0,2021-12-15,2021-12-15,株式会社Ｋａｉｔｏ,,株式会社,広島県,福山市,水呑町４９１８番地２,,34,207,7200832,,,,,,,2021-12-15,1,,,,,カイト,0
2027,7240003005404,新規,0,2021-12-15,2021-12-15,合同会社栗栖鉄工所,,合同会社,広島県,山県郡安芸太田町,大字穴９４番地３,,34,368,7313411,,,,,,,2021-12-15,1,,,,,クリステッコウショ,0
2046,7330001029271,新規,0,2021-12-15,2021-12-15,ＡＮＥＬ株式会社,,株式会社,熊本県,熊本市中央区,水道町４番３号ＤＯＲＯビルＢ１Ｆ,,43,101,8600844,,,,,,,2021-12-15,1,,,,,アネル,0
2050,7340001024338,新規,0,2021-12-15,2021-12-15,株式会社ＳＫコーポレーション,,株式会社,鹿児島県,鹿児島市,山之口町９番２６号,,46,201,8920844,,,,,,,2021-12-15,1,,,,,エスケーコーポレーション,0
2052,7340005009384,新規,0,2021-12-15,2021-12-15,特定非営利活動法人Ｓｏｏ　Ｓｐｏｒｔｓ　Ｃｌｕｂ鹿児島,,その他の設立登記法人,鹿児島県,曽於市,末吉町諏訪方６２２７番地５,,46,217,8998604,,,,,,,2021-12-15,1,,,,,ソオスポーツクラブカゴシマ,0
2055,7360003011654,新規,0,2021-12-15,2021-12-15,空樹合同会社,,合同会社,沖縄県,中頭郡北谷町,北谷２丁目１４番６号プレミスト北谷アラハビーチレジデンス８０２号,,47,326,9040116,,,,,,,2021-12-15,1,,,,,ソラキ,0
2060,7370001047939,新規,0,2021-12-15,2021-12-15,株式会社Ａｃｐｒｏ,,株式会社,宮城県,仙台市泉区,泉中央４丁目２番地の２アルコート泉中央６０４,,04,105,9813133,,,,,,,2021-12-15,1,,,,,エイシープロ,0
2061,7370001047947,新規,0,2021-12-15,2021-12-15,佐々木工業株式会社,,株式会社,宮城県,岩沼市,桑原１丁目２番１６号レバントＢ１０１号,,04,211,9892445,,,,,,,2021-12-15,1,,,,,ササキコウギョウ,0
2083,7430001085569,新規,0,2021-12-15,2021-12-15,株式会社エーオーハウス企画,,株式会社,北海道,札幌市東区,北三十五条東８丁目２番２３号,,01,103,0070835,,,,,,,2021-12-15,1,,,,,エーオーハウスキカク,0
2084,7430001085593,新規,0,2021-12-15,2021-12-15,株式会社ａｎｙｓｅ,,株式会社,北海道,札幌市中央区,南二条西１０丁目１番オエノン北海道ビル２Ｆ,,01,101,0600062,,,,,,,2021-12-15,1,,,,,エニーズ,0
2085,7430003013461,新規,0,2021-12-15,2021-12-15,合同会社ＬＩＴ,,合同会社,北海道,札幌市中央区,南十四条西１８丁目１番２２号ＭＪＢＬＤ２階,,01,101,0640914,,,,,,,2021-12-15,1,,,,,リット,0
2098,8010001223211,新規,0,2021-12-15,2021-12-15,株式会社Ｌｉｍａｃｏｎ,,株式会社,東京都,中央区,銀座６丁目６番１号,,13,102,1040061,,,,,,,2021-12-15,1,,,,,リマソン,0
2099,8010001223236,新規,0,2021-12-15,2021-12-15,株式会社ＣＯＣＬｉｖｅ,,株式会社,東京都,千代田区,内神田２丁目７番１１号,,13,101,1010047,,,,,,,2021-12-15,1,,,,,シーオーシーライブ,0
2100,8010001223244,新規,0,2021-12-15,2021-12-15,株式会社Ａｚａｂｕ　Ｎｅｘｔ,,株式会社,東京都,千代田区,神田神保町１丁目１８番２－１２０３号,,13,101,1010051,,,,,,,2021-12-15,1,,,,,アザブネクスト,0
2101,8010001223252,新規,0,2021-12-15,2021-12-15,ＪＡＤプライム株式会社,,株式会社,東京都,中央区,銀座１丁目２２－１１銀座大竹ビジデンス２階,,13,102,1040061,,,,,,,2021-12-15,1,,,,,ジェイエイディープライム,0
2102,8010001223260,新規,0,2021-12-15,2021-12-15,株式会社ＳＵＰＩＡＳ,,株式会社,東京都,中央区,銀座１丁目２２番１１号銀座大竹ビジデンス２階,,13,102,1040061,,,,,,,2021-12-15,1,,,,,スピアス,0
2103,8010001223269,新規,0,2021-12-15,2021-12-15,日豪水素株式会社,,株式会社,東京都,千代田区,大手町１丁目４番２号,,13,101,1000004,,,,,,,2021-12-15,1,,,,,ニチゴウスイソ,0
2105,8010003036529,新規,0,2021-12-15,2021-12-15,ジェイコアレジ４合同会社１,,合同会社,東京都,千代田区,丸の内３丁目１番１号東京共同会計事務所内,,13,101,1000005,,,,,,,2021-12-15,1,,,,,ジェイコアレジフォーイチ,0
2106,8010003036537,新規,0,2021-12-15,2021-12-15,ジェイコアレジ４合同会社９,,合同会社,東京都,千代田区,丸の内３丁目１番１号東京共同会計事務所内,,13,101,1000005,,,,,,,2021-12-15,1,,,,,ジェイコアレジフォーキュー,0
2116,8010401164435,新規,0,2021-12-15,2021-12-15,株式会社ウォイルマネージメント,,株式会社,東京都,港区,南青山５丁目１１番２４号グレイセス２Ｆ,,13,103,1070062,,,,,,,2021-12-15,1,,,,,ウォイルマネージメント,0
2123,8010405020312,新規,0,2021-12-15,2021-12-15,一般社団法人ファーム,,その他の設立登記法人,東京都,港区,南青山５丁目１３番９号３Ｆ,,13,103,1070062,,,,,,,2021-12-15,1,,,,,ファーム,0
2126,8010601060384,新規,0,2021-12-15,2021-12-15,株式会社ＢＡＲＯＮ,,株式会社,東京都,墨田区,石原１丁目７番４号ウィントンハウス１Ｆ,,13,107,1300011,,,,,,,2021-12-15,1,,,,,バロン,0
2127,8010603009306,新規,0,2021-12-15,2021-12-15,合同会社Ｖａｌｉａｎｔ,,合同会社,東京都,墨田区,緑４丁目３７番８－１０１号,,13,107,1300021,,,,,,,2021-12-15,1,,,,,ヴァリアント,0
2131,8010703006038,新規,0,2021-12-15,2021-12-15,合同会社うちば,,合同会社,東京都,品川区,東品川３丁目２７－２４ＫＡＨＲＡ品川１Ｆ,,13,109,1400002,,,,,,,2021-12-15,1,,,,,ウチバ,0
2134,8010901049994,新規,0,2021-12-15,2021-12-15,株式会社中山金属,,株式会社,東京都,世田谷区,大蔵１丁目３番１０号,,13,112,1570074,,,,,,,2021-12-15,1,,,,,ナカヤマキンゾク,0
2142,8011001144554,新規,0,2021-12-15,2021-12-15,株式会社ＮＤＬ,,株式会社,東京都,渋谷区,上原３丁目１８番１号,,13,113,1510064,,,,,,,2021-12-15,1,,,,,エヌディーエル,0
2143,8011001144570,新規,0,2021-12-15,2021-12-15,株式会社フィールド,,株式会社,東京都,渋谷区,渋谷２丁目１２番１２号三貴ビル４階,,13,113,1500002,,,,,,,2021-12-15,1,,,,,フィールド,0
2144,8011001144595,新規,0,2021-12-15,2021-12-15,株式会社Ｃｈｉｌｌｉｓｈ,,株式会社,東京都,渋谷区,千駄ヶ谷４丁目５番１０号コンフォリア北参道１００８,,13,113,1510051,,,,,,,2021-12-15,1,,,,,チリッシュ,0
2148,8011103011280,新規,0,2021-12-15,2021-12-15,合同会社フリーフォール,,合同会社,東京都,新宿区,新宿７丁目９－２６－２０５,,13,104,1600022,,,,,,,2021-12-15,1,,,,,フリーフォール,0
2149,8011103011289,新規,0,2021-12-15,2021-12-15,合同会社Ｃｈａｒｂｏｎ,,合同会社,東京都,新宿区,富久町２１番１４号,,13,104,1620067,,,,,,,2021-12-15,1,,,,,シャルボン,0
2153,8011401023911,新規,0,2021-12-15,2021-12-15,万佳福株式会社,,株式会社,東京都,板橋区,大和町４３番７－４０１号,,13,119,1730012,,,,,,,2021-12-15,1,,,,,マンカフク,0
2155,8011701024907,新規,0,2021-12-15,2021-12-15,株式会社ＮＴＫインターナショナル,,株式会社,東京都,江戸川区,西小岩１丁目１４番７号,,13,123,1330057,,,,,,,2021-12-15,1,,,,,エヌティーケーインターナショナル,0
2157,8011703003025,新規,0,2021-12-15,2021-12-15,合同会社バッカス,,合同会社,東京都,江戸川区,船堀１丁目７番６号,,13,123,1340091,,,,,,,2021-12-15,1,,,,,バッカス,0
2159,8011801040069,新規,0,2021-12-15,2021-12-15,株式会社ベストソルブ,,株式会社,東京都,葛飾区,南水元４丁目１６番４号,,13,122,1250035,,,,,,,2021-12-15,1,,,,,ベストソルブ,0
2162,8012703002371,新規,0,2021-12-15,2021-12-15,ＤＫＮ合同会社,,合同会社,東京都,小平市,花小金井南町２丁目９番１９－１２号,,13,211,1870003,,,,,,,2021-12-15,1,,,,,ディーケーエヌ,0
2166,8013301048419,新規,0,2021-12-15,2021-12-15,ＳＵＮＰＩＫＡ株式会社,,株式会社,東京都,豊島区,南大塚３丁目４６番９号,,13,116,1700005,,,,,,,2021-12-15,1,,,,,サンピカ,0
2167,8020001144324,新規,0,2021-12-15,2021-12-15,株式会社Ｋ－ＦＲＥＥ,,株式会社,神奈川県,横浜市泉区,岡津町２２５６番地レモンバーム２Ｇ号室,,14,116,2450003,,,,,,,2021-12-15,1,,,,,ケーフリー,0
2168,8020001144349,新規,0,2021-12-15,2021-12-15,株式会社ＩＣ綜合コンサルティング,,株式会社,神奈川県,川崎市麻生区,南黒川４番２号ネスティングパーク黒川キャビン,,14,137,2150034,,,,,,,2021-12-15,1,,,,,アイシーソウゴウコンサルティング,0
2174,8020003020977,新規,0,2021-12-15,2021-12-15,合同会社高田商会,,合同会社,神奈川県,横浜市都筑区,見花山１番３０号見花山ビル３Ｆ,,14,118,2240066,,,,,,,2021-12-15,1,,,,,タカダショウカイ,0
2175,8020003020985,新規,0,2021-12-15,2021-12-15,合同会社Ｎｅｘｔ　Ｓｔａｇｅ,,合同会社,神奈川県,川崎市川崎区,新川通１１番１７号サンシャインヒルズ２Ｆ,,14,131,2100013,,,,,,,2021-12-15,1,,,,,ネクストステージ,0
2188,8030001145817,新規,0,2021-12-15,2021-12-15,株式会社Ａｓｓｅｔ　ｉｎｎｏｖａｔｉｏｎ,,株式会社,埼玉県,上尾市,上町２丁目６番４号,,11,219,3620037,,,,,,,2021-12-15,1,,,,,アセットイノベーション,0
2189,8030001145833,新規,0,2021-12-15,2021-12-15,かみ昇株式会社,,株式会社,埼玉県,越谷市,大字下間久里５４５番地７,,11,222,3430045,,,,,,,2021-12-15,1,,,,,カミショウ,0
2190,8030001145858,新規,0,2021-12-15,2021-12-15,株式会社匠と和,,株式会社,埼玉県,さいたま市南区,大字太田窪２１９０番地１８,,11,108,3360015,,,,,,,2021-12-15,1,,,,,タクミトワ,0
2195,8030003018509,新規,0,2021-12-15,2021-12-15,ＭＡＨＡＬＯアセットマネジメント合同会社,,合同会社,埼玉県,八潮市,大字大瀬９２５番地６,,11,234,3400822,,,,,,,2021-12-15,1,,,,,マハロアセットマネジメント,0
2196,8030005020660,新規,0,2021-12-15,2021-12-15,一般社団法人縁,,その他の設立登記法人,埼玉県,秩父市,野坂町２丁目１番６号,,11,207,3680033,,,,,,,2021-12-15,1,,,,,ヨスガ,0
2198,8040001121346,新規,0,2021-12-15,2021-12-15,株式会社スリーピースワン,,株式会社,千葉県,船橋市,海神町南１丁目１５４４番地１,,12,204,2730024,,,,,,,2021-12-15,1,,,,,スリーピースワン,0
2199,8040001121354,新規,0,2021-12-15,2021-12-15,株式会社船橋デリカサービス,,株式会社,千葉県,船橋市,高瀬町６２番地５,,12,204,2730014,,,,,,,2021-12-15,1,,,,,フナバシデリカサービス,0
2200,8040001121362,新規,0,2021-12-15,2021-12-15,株式会社ＧＦＣＮ,,株式会社,千葉県,船橋市,坪井西１丁目６番４６号,,12,204,2740069,,,,,,,2021-12-15,1,,,,,ジーエフシーエヌ,0
2201,8040001121387,新規,0,2021-12-15,2021-12-15,株式会社ブリッジ,,株式会社,千葉県,木更津市,真舟５丁目７番１７号１Ｆ,,12,206,2920802,,,,,,,2021-12-15,1,,,,,ブリッジ,0
2205,8040003019118,新規,0,2021-12-15,2021-12-15,Ｋｉｎｔｅｘ　Ｊａｐａｎ合同会社,,合同会社,千葉県,佐倉市,南ユーカリが丘６番地８,,12,212,2850859,,,,,,,2021-12-15,1,,,,,キンテックスジャパン,0
2206,8040003019126,新規,0,2021-12-15,2021-12-15,合同会社ＤＬＳ　ＩＮＴＥＲＮＡＴＩＯＮＡＬ,,合同会社,千葉県,千葉市若葉区,坂月町２５３番地１,,12,104,2640012,,,,,,,2021-12-15,1,,,,,ディーエルエスインターナショナル,0
2208,8050001050296,新規,0,2021-12-15,2021-12-15,一飛美技建株式会社,,株式会社,茨城県,古河市,諸川２０５８番地７,,08,204,3060126,,,,,,,2021-12-15,1,,,,,イットビギケン,0
2209,8050001050305,新規,0,2021-12-15,2021-12-15,株式会社Ｍ＆Ｋ鳶コーポレーション,,株式会社,茨城県,牛久市,ひたち野東３丁目３８番地２１,,08,219,3001207,,,,,,,2021-12-15,1,,,,,エムアンドケイトビコーポレーション,0
2210,8050001050313,新規,0,2021-12-15,2021-12-15,株式会社ＰＥＲＦＥＩＴＯ,,株式会社,茨城県,つくば市,松代３丁目１７番地３３,,08,220,3050035,,,,,,,2021-12-15,1,,,,,パーフェイト,0
2212,8060001034380,新規,0,2021-12-15,2021-12-15,株式会社メンテナンス・カイガ,,株式会社,栃木県,宇都宮市,中戸祭１丁目１４番９号石塚コーポ２Ｆ東,,09,201,3200057,,,,,,,2021-12-15,1,,,,,メンテナンスカイガ,0
2213,8060001034389,新規,0,2021-12-15,2021-12-15,株式会社齋藤空調,,株式会社,栃木県,宇都宮市,川田町１０３番地８,,09,201,3210111,,,,,,,2021-12-15,1,,,,,サイトウクウチョウ,0
2215,8070003004331,新規,0,2021-12-15,2021-12-15,合同会社ＢＬＡＮＫＩＳＭ,,合同会社,群馬県,太田市,茂木町７０１番地１（２Ｆ－Ｂ）,,10,205,3730809,,,,,,,2021-12-15,1,,,,,ブランキズム,0
2221,8080103002481,新規,0,2021-12-15,2021-12-15,合同会社でぃあほーむ,,合同会社,静岡県,沼津市,松沢町２０番地の１３,,22,203,4100014,,,,,,,2021-12-15,1,,,,,ディアホーム,0
2223,8090001017317,新規,0,2021-12-15,2021-12-15,株式会社Ｎｏｒｌａｎｄ,,株式会社,山梨県,甲府市,大手１丁目２番２１号イノベーションベースＳｏｉｅ１０３,,19,201,4000015,,,,,,,2021-12-15,1,,,,,ノーランド,0
2224,8090003002011,新規,0,2021-12-15,2021-12-15,Ｂｅｌｅｔｔｅ合同会社,,合同会社,山梨県,甲府市,大里町１３３９番地,,19,201,4000053,,,,,,,2021-12-15,1,,,,,ベレッテ,0
2225,8100001034888,新規,0,2021-12-15,2021-12-15,株式会社ｃｏｎｓｕｌｅｎｔｅＮＡＧＡＮＯ,,株式会社,長野県,長野市,大字南長野西後町１５８４番地２アサバ税経ビル３Ｆ,,20,201,3800845,,,,,,,2021-12-15,1,,,,,コンスレンテナガノ,0
2226,8110001036264,新規,0,2021-12-15,2021-12-15,株式会社Ｍｅｔａｖｅｒｓｅ　Ａｃｃｏｕｎｔｉｎｇ　Ｌａｂｏｒａｔｏｒｙ,,株式会社,新潟県,長岡市,堀金２丁目１番１６号,,15,202,9400868,,,,,,,2021-12-15,1,,,,,メタバースアカウンティングラボラトリー,0
2228,8110003004657,新規,0,2021-12-15,2021-12-15,合同会社カツズキ,,合同会社,新潟県,小千谷市,片貝町５４１７番地２,,15,208,9470101,,,,,,,2021-12-15,1,,,,,カツズキ,0
2235,8120001242415,新規,0,2021-12-15,2021-12-15,小志健和株式会社,,株式会社,大阪府,大阪市生野区,新今里３丁目４番１７号シャトー第４今里４０９Ｂ,,27,116,5440001,,,,,,,2021-12-15,1,,,,,ショウシケンワ,0
2236,8120001242480,新規,0,2021-12-15,2021-12-15,株式会社Ｕ－ｃｏｍｍｕｎｉｃａｔｉｏｎｓ,,株式会社,大阪府,寝屋川市,高宮栄町１３番１０号,,27,215,5720846,,,,,,,2021-12-15,1,,,,,ユーコミュニケーションズ,0
2237,8120001242489,新規,0,2021-12-15,2021-12-15,進和株式会社,,株式会社,大阪府,大阪市住吉区,長居東３丁目２番１２号,,27,120,5580004,,,,,,,2021-12-15,1,,,,,シンワ,0
2238,8120001242506,新規,0,2021-12-15,2021-12-15,Ｋ２ジャパン株式会社,,株式会社,大阪府,大阪市平野区,瓜破３丁目３番１５号,,27,126,5470024,,,,,,,2021-12-15,1,,,,,ケイツージャパン,0
2239,8120001242514,新規,0,2021-12-15,2021-12-15,トーワグループ株式会社,,株式会社,大阪府,大阪市生野区,中川東２丁目１５番１９号,,27,116,5440006,,,,,,,2021-12-15,1,,,,,トーワグループ,0
2240,8120001242522,新規,0,2021-12-15,2021-12-15,株式会社ヤマシロ,,株式会社,大阪府,大阪市東住吉区,南田辺３丁目６番１０号,,27,121,5460033,,,,,,,2021-12-15,1,,,,,ヤマシロ,0
2241,8120001242539,新規,0,2021-12-15,2021-12-15,株式会社Ｓｔｅｒｎ,,株式会社,大阪府,大阪市東淀川区,東中島１丁目２１番２４号グランルクレ新大阪１４０５号,,27,114,5330033,,,,,,,2021-12-15,1,,,,,シュテルン,0
2242,8120003020769,新規,0,2021-12-15,2021-12-15,合同会社ＮＴエクスプレス,,合同会社,大阪府,大阪市東淀川区,東中島１丁目１７－５－１００８,,27,114,5330033,,,,,,,2021-12-15,1,,,,,エクスプレス,0
2243,8120003020777,新規,0,2021-12-15,2021-12-15,合同会社空気きれい,,合同会社,大阪府,大阪市中央区,中寺２丁目１番３２号,,27,128,5420065,,,,,,,2021-12-15,1,,,,,クウキキレイ,0
2247,8120101064783,新規,0,2021-12-15,2021-12-15,時風プレイス販売株式会社,,株式会社,大阪府,泉佐野市,葵町４丁目２番２９－１号,,27,213,5980014,,,,,,,2021-12-15,1,,,,,ジフウプレイスハンバイ,0
2248,8120103004473,新規,0,2021-12-15,2021-12-15,合同会社ロジックスネットワーク,,合同会社,大阪府,堺市北区,百舌鳥赤畑町３丁１３６番地２－１００４号,,27,146,5918037,,,,,,,2021-12-15,1,,,,,ロジックスネットワーク,0
2251,8120901045339,新規,0,2021-12-15,2021-12-15,株式会社Ｂｅｌｉｅｆ,,株式会社,大阪府,高槻市,芥川町４丁目２番３号,,27,207,5691123,,,,,,,2021-12-15,1,,,,,ビリーフ,0
2252,8120901045355,新規,0,2021-12-15,2021-12-15,株式会社じへえ,,株式会社,大阪府,箕面市,桜４丁目５番６号,,27,220,5620041,,,,,,,2021-12-15,1,,,,,ジヘエ,0
2266,8140001124198,新規,0,2021-12-15,2021-12-15,株式会社新テクノトラスト,,株式会社,兵庫県,神戸市東灘区,森北町４丁目６番７号,,28,101,6580001,,,,,,,2021-12-15,1,,,,,シンテクノトラスト,0
2267,8140003017111,新規,0,2021-12-15,2021-12-15,合同会社ＡＲ　ＴＲＡＤＩＮＧ,,合同会社,兵庫県,揖保郡太子町,東保４８１－３コーポ太子東２０３号,,28,464,6711524,,,,,,,2021-12-15,1,,,,,エーアールトレーディング,0
2275,8180001149126,新規,0,2021-12-15,2021-12-15,株式会社長谷川設備,,株式会社,愛知県,瀬戸市,東寺山町１２０番地,,23,204,4890928,,,,,,,2021-12-15,1,,,,,ハセガワセツビ,0
2276,8180001149150,新規,0,2021-12-15,2021-12-15,ＮＩＺＡＭ建設株式会社,,株式会社,愛知県,稲沢市,祖父江町大牧明田８０２番地５,,23,220,4950014,,,,,,,2021-12-15,1,,,,,ニザムケンセツ,0
2279,8180003023287,新規,0,2021-12-15,2021-12-15,高橋貿易合同会社,,合同会社,愛知県,瀬戸市,緑町１丁目１３５番地の２,,23,204,4890875,,,,,,,2021-12-15,1,,,,,タカハシボウエキ,0
2280,8180003023295,新規,0,2021-12-15,2021-12-15,東海アーキ合同会社,,合同会社,愛知県,西春日井郡豊山町,大字豊場字志水９４番地,,23,342,4800202,,,,,,,2021-12-15,1,,,,,トウカイアーキ,0
2286,8210001018731,新規,0,2021-12-15,2021-12-15,株式会社ＱＵＡＴＥＣ,,株式会社,福井県,福井市,下河北町第１１号１３番地,,18,201,9190321,,,,,,,2021-12-15,1,,,,,クアテック,0
2288,8220003003169,新規,0,2021-12-15,2021-12-15,ｓｉｋｕｍｉ合同会社,,合同会社,石川県,七尾市,南藤橋町子部５１番地６,,17,202,9260813,,,,,,,2021-12-15,1,,,,,シクミ,0
2304,8260001036308,新規,0,2021-12-15,2021-12-15,株式会社ぎゅうさん,,株式会社,岡山県,津山市,高野本郷１９４２番地４,,33,203,7081125,,,,,,,2021-12-15,1,,,,,ギュウサン,0
2307,8260003003743,新規,0,2021-12-15,2021-12-15,黒猫ハウス合同会社,,合同会社,岡山県,笠岡市,吉浜８８８番地２,,33,205,7140074,,,,,,,2021-12-15,1,,,,,クロネコハウス,0
2322,8300005007052,新規,0,2021-12-15,2021-12-15,特定非営利活動法人ＤＥＳＡＦＩＯＲＡ．ＦＣ,,その他の設立登記法人,佐賀県,佐賀市,久保泉町大字上和泉２３２２番１,,41,201,8490902,,,,,,,2021-12-15,1,,,,,デサフィオーラエフシー,0
2323,8310003004232,新規,0,2021-12-15,2021-12-15,合同会社リタサポート,,合同会社,長崎県,長崎市,ダイヤランド３丁目３５番８号,,42,201,8500963,,,,,,,2021-12-15,1,,,,,リタサポート,0
2324,8320001018786,新規,0,2021-12-15,2021-12-15,株式会社ＺＡＫＩ,,株式会社,大分県,別府市,石垣東１０丁目２番１６号,,44,202,8740919,,,,,,,2021-12-15,1,,,,,ザキ,0
2327,8340001024337,新規,0,2021-12-15,2021-12-15,Ａｌｌｙ株式会社,,株式会社,鹿児島県,姶良市,平松４８３８番地７,,46,225,8995652,,,,,,,2021-12-15,1,,,,,アリー,0
2331,8350001017471,新規,0,2021-12-15,2021-12-15,株式会社コウキ電器,,株式会社,宮崎県,宮崎市,恒久南１丁目１番地６,,45,201,8800915,,,,,,,2021-12-15,1,,,,,コウキデンキ,0
2333,8360001029763,新規,0,2021-12-15,2021-12-15,株式会社みらい工務店,,株式会社,沖縄県,宮古島市,平良字西里７２２番地２アイムホーム１Ｂ,,47,214,9060012,,,,,,,2021-12-15,1,,,,,ミライコウムテン,0
2336,8360005006569,新規,0,2021-12-15,2021-12-15,土地家屋調査士法人Ｃｏｒｅ,,その他の設立登記法人,沖縄県,沖縄市,安慶田３丁目２番３１号２階,,47,211,9040012,,,,,,,2021-12-15,1,,,,,コア,0
2349,8380001032402,新規,0,2021-12-15,2021-12-15,株式会社ＴＥＰＰＥＮ,,株式会社,福島県,二本松市,岳温泉１丁目１０７番地,,07,210,9640074,,,,,,,2021-12-15,1,,,,,テッペン,0
2351,8380005012508,新規,0,2021-12-15,2021-12-15,さんべ行政書士法人,,その他の設立登記法人,福島県,郡山市,緑町１６番１号,,07,203,9638023,,,,,,,2021-12-15,1,,,,,サンベ,0
2356,8430001085576,新規,0,2021-12-15,2021-12-15,株式会社中央不動産,,株式会社,北海道,札幌市中央区,南十六条西１０丁目２番２０号,,01,101,0640916,,,,,,,2021-12-15,1,,,,,チュウオウフドウサン,0
2357,8430001085584,新規,0,2021-12-15,2021-12-15,株式会社とべらぼ,,株式会社,北海道,石狩郡当別町,六軒町６９番地１,,01,303,0610231,,,,,,,2021-12-15,1,,,,,トベラボ,0
2361,8430003013436,新規,0,2021-12-15,2021-12-15,合同会社Ｋ．Ｎ．Ｓ．カンパニー,,合同会社,北海道,札幌市中央区,南十三条西６丁目４番１３－２０１号,,01,101,0640913,,,,,,,2021-12-15,1,,,,,ケーエヌエスカンパニー,0
2362,8430003013460,新規,0,2021-12-15,2021-12-15,合同会社成田建築,,合同会社,北海道,札幌市南区,南沢二条２丁目１１－１２,,01,106,0050822,,,,,,,2021-12-15,1,,,,,ナリタケンチック,0
2363,8460103001412,新規,0,2021-12-15,2021-12-15,合同会社蓮,,合同会社,北海道,帯広市,西二十三条南４丁目５番地１５,,01,207,0802473,,,,,,,2021-12-15,1,,,,,レン,0
2372,8700150106015,新規,0,2021-12-15,2021-11-30,ＭＯＳ　Ｓｏｕｎｄ,,その他,神奈川県,川崎市中原区,木月４丁目８－４０,,14,133,2110025,,,,,,,2021-11-30,1,,,,,モスサウンド,0
2381,9010001223268,新規,0,2021-12-15,2021-12-15,株式会社フリーポート,,株式会社,東京都,中央区,湊１丁目１１番４号,,13,102,1040043,,,,,,,2021-12-15,1,,,,,フリーポート,0
2386,9010003036536,新規,0,2021-12-15,2021-12-15,ジェイコアレジ４合同会社８,,合同会社,東京都,千代田区,丸の内３丁目１番１号東京共同会計事務所内,,13,101,1000005,,,,,,,2021-12-15,1,,,,,ジェイコアレジフォーハチ,0
2387,9010003036552,新規,0,2021-12-15,2021-12-15,合同会社Ｓ・２・Ｒ,,合同会社,東京都,千代田区,外神田６丁目１５番１１号,,13,101,1010021,,,,,,,2021-12-15,1,,,,,エスツーアール,0
2388,9010003036569,新規,0,2021-12-15,2021-12-15,千葉長南発電所合同会社,,合同会社,東京都,千代田区,飯田橋１丁目３番２号曙杉館４階ＲＳＭ清和コンサルティング株式会社内,,13,101,1020072,,,,,,,2021-12-15,1,,,,,チバチョウナンハツデンショ,0
2395,9010401164434,新規,0,2021-12-15,2021-12-15,ボナジョルナータ株式会社,,株式会社,東京都,港区,南青山２丁目２番１５号ウィン青山９４２,,13,103,1070062,,,,,,,2021-12-15,1,,,,,ボナジョルナータ,0
2396,9010401164450,新規,0,2021-12-15,2021-12-15,株式会社ルエテック,,株式会社,東京都,港区,新橋５丁目１２番１１号,,13,103,1050004,,,,,,,2021-12-15,1,,,,,ルエテック,0
2400,9010501048207,新規,0,2021-12-15,2021-12-15,株式会社ラグロス,,株式会社,東京都,台東区,竜泉１丁目３１番５－９０２号ＣＡＳＳＩＡ上野入谷,,13,106,1100012,,,,,,,2021-12-15,1,,,,,ラグロス,0
2403,9010603009305,新規,0,2021-12-15,2021-12-15,Ｃｏｎｔｒａｉｌ合同会社,,合同会社,東京都,墨田区,江東橋２丁目１４番１号サガノビル３Ｆ,,13,107,1300022,,,,,,,2021-12-15,1,,,,,コントレイル,0
2405,9010701041936,新規,0,2021-12-15,2021-12-15,Ｍｉｎａ　Ｔｅｃｈ株式会社,,株式会社,東京都,品川区,北品川５丁目５番１５号大崎ブライトコア４階,,13,109,1410001,,,,,,,2021-12-15,1,,,,,ミナテック,0
2416,9011001144479,新規,0,2021-12-15,2021-12-15,ＭＡＲＫＯＮ株式会社,,株式会社,東京都,目黒区,上目黒５丁目２８番地１１－９０９号祐天寺第２コーポラス,,13,110,1530051,,,,,,,2021-12-15,1,,,,,マークオン,0
2417,9011001144553,新規,0,2021-12-15,2021-12-15,株式会社ロクバイ,,株式会社,東京都,渋谷区,渋谷２丁目１９番１５号宮益坂ビルディング６０９,,13,113,1500002,,,,,,,2021-12-15,1,,,,,ロクバイ,0
2418,9011001144586,新規,0,2021-12-15,2021-12-15,株式会社ｉＣｏｉ,,株式会社,東京都,目黒区,柿の木坂２丁目１６番１６号,,13,110,1520022,,,,,,,2021-12-15,1,,,,,イコイ,0
2419,9011001144603,新規,0,2021-12-15,2021-12-15,株式会社フィオーレ九州,,株式会社,東京都,渋谷区,神宮前３丁目１４番１７号赤須ビルＢ１Ｆ,,13,113,1500001,,,,,,,2021-12-15,1,,,,,フィオーレキュウシュウ,0
2420,9011003013871,新規,0,2021-12-15,2021-12-15,ＬＩＫＥ　ＮＥＶＥＲ　ＢＥＦＯＲＥ合同会社,,合同会社,東京都,目黒区,八雲５丁目１９番７号,,13,110,1520023,,,,,,,2021-12-15,1,,,,,ライクネバービフォアー,0
2423,9011101097189,新規,0,2021-12-15,2021-12-15,Ｓａｔｉｓ　Ｆａｃｔｏｒｙ株式会社,,株式会社,東京都,新宿区,新宿３丁目１２番４号新宿Ｎタウンプラザ３０９号,,13,104,1600022,,,,,,,2021-12-15,1,,,,,サティスファクトリー,0
2424,9011101097206,新規,0,2021-12-15,2021-12-15,株式会社グライフ,,株式会社,東京都,新宿区,西五軒町９番３－５０４号,,13,104,1620812,,,,,,,2021-12-15,1,,,,,グライフ,0
2425,9011101097214,新規,0,2021-12-15,2021-12-15,株式会社Ｔ＆Ｃマネイジメント,,株式会社,東京都,新宿区,四谷４丁目２２番地１７グランドゥールオークラ４０５,,13,104,1600004,,,,,,,2021-12-15,1,,,,,ティアンドシイマネイジメント,0
2430,9011203003714,新規,0,2021-12-15,2021-12-15,合同会社寛,,合同会社,東京都,中野区,中野５丁目５６－１０第９８東京ビル２０１,,13,114,1640001,,,,,,,2021-12-15,1,,,,,カン,0
2432,9011301027425,新規,0,2021-12-15,2021-12-15,株式会社キュベレイ,,株式会社,東京都,杉並区,阿佐谷北２丁目５－１０－３０１,,13,115,1660001,,,,,,,2021-12-15,1,,,,,キュベレイ,0
2433,9011401023910,新規,0,2021-12-15,2021-12-15,株式会社エイシ,,株式会社,東京都,板橋区,前野町６丁目２６番７－２０６号,,13,119,1740063,,,,,,,2021-12-15,1,,,,,エイシ,0
2444,9013301048418,新規,0,2021-12-15,2021-12-15,株式会社ＨＲゲート,,株式会社,東京都,豊島区,東池袋２丁目３９－２,,13,116,1700013,,,,,,,2021-12-15,1,,,,,エイチアールゲート,0
2445,9013301048426,新規,0,2021-12-15,2021-12-15,株式会社ＸＥＮＯＲＥＧＵＬＵＳ,,株式会社,東京都,豊島区,南大塚３丁目６番５号,,13,116,1700005,,,,,,,2021-12-15,1,,,,,ゼノレグルス,0
2449,9020001144315,新規,0,2021-12-15,2021-12-15,株式会社オフィスイトウ,,株式会社,神奈川県,横浜市都筑区,北山田４丁目５番１７号,,14,118,2240021,,,,,,,2021-12-15,1,,,,,オフィスイトウ,0
2450,9020001144323,新規,0,2021-12-15,2021-12-15,株式会社ＬＡＮＤＢＲＯ,,株式会社,神奈川県,横浜市緑区,いぶき野３９番地５号１,,14,113,2260028,,,,,,,2021-12-15,1,,,,,ランドブロ,0
2451,9020001144348,新規,0,2021-12-15,2021-12-15,株式会社Ｈ＆Ｔ　Ｍａｒｋｅｔ,,株式会社,神奈川県,横浜市港北区,仲手原１丁目１１番１－３０５号,,14,109,2220023,,,,,,,2021-12-15,1,,,,,エイチアンドティーマーケット,0
2454,9020003020976,新規,0,2021-12-15,2021-12-15,Ｅｎｇｏｏｄ合同会社,,合同会社,神奈川県,横浜市都筑区,早渕３丁目４７番２号,,14,118,2240025,,,,,,,2021-12-15,1,,,,,エングッド,0
2456,9021003011180,新規,0,2021-12-15,2021-12-15,合同会社くげぬまメディカルグループ,,合同会社,神奈川県,藤沢市,鵠沼桜が岡１丁目８番１０号,,14,205,2510027,,,,,,,2021-12-15,1,,,,,クゲヌマメディカルグループ,0
2462,9030001145816,新規,0,2021-12-15,2021-12-15,株式会社ギンシロウ,,株式会社,埼玉県,川越市,小仙波町２丁目１８番地３,,11,201,3500036,,,,,,,2021-12-15,1,,,,,ギンシロウ,0
2463,9030001145832,新規,0,2021-12-15,2021-12-15,若竹商会株式会社,,株式会社,埼玉県,川越市,新宿町５丁目１３番地４４（新宿団地２－２０３号室）,,11,201,3501124,,,,,,,2021-12-15,1,,,,,ワカタケショウカイ,0
2464,9030001145840,新規,0,2021-12-15,2021-12-15,株式会社ＫＲＴ,,株式会社,埼玉県,志木市,本町２丁目１８番１５号,,11,228,3530004,,,,,,,2021-12-15,1,,,,,ケーアールティー,0
2465,9030001145849,新規,0,2021-12-15,2021-12-15,株式会社宏人興業,,株式会社,埼玉県,新座市,野寺３丁目７番２４号,,11,230,3520034,,,,,,,2021-12-15,1,,,,,ヒロトコウギョウ,0
2466,9030001145857,新規,0,2021-12-15,2021-12-15,株式会社ＺＡＲＡＭＥ,,株式会社,埼玉県,川越市,菅原町１番地７金子ビル２－Ａ,,11,201,3500046,,,,,,,2021-12-15,1,,,,,ザラメ,0
2467,9030001145873,新規,0,2021-12-15,2021-12-15,株式会社ドリームスターズ,,株式会社,埼玉県,比企郡ときがわ町,大字西平６７２,,11,349,3550364,,,,,,,2021-12-15,1,,,,,ドリームスターズ,0
2473,9040001121337,新規,0,2021-12-15,2021-12-15,株式会社アルゴ,,株式会社,千葉県,柏市,豊四季１３６－３,,12,217,2770863,,,,,,,2021-12-15,1,,,,,アルゴ,0
2474,9040001121386,新規,0,2021-12-15,2021-12-15,株式会社ＮＥＸＴ　ＣＲＥＡＴＩＯＮ,,株式会社,千葉県,柏市,旭町７丁目１番８－４０６号,,12,217,2770852,,,,,,,2021-12-15,1,,,,,ネクストクリエーション,0
2485,9070001038735,新規,0,2021-12-15,2021-12-15,株式会社ＳＹＵＢＩ,,株式会社,群馬県,渋川市,白井１０９８番地６０,,10,208,3770204,,,,,,,2021-12-15,1,,,,,,0
2498,9090003002010,新規,0,2021-12-15,2021-12-15,合同会社ＭＯＣＨＩＤＡ,,合同会社,山梨県,南都留郡西桂町,小沼１２３－１,,19,423,4030022,,,,,,,2021-12-15,1,,,,,モチダ,0
2502,9100001034887,新規,0,2021-12-15,2021-12-15,アットツリー株式会社,,株式会社,長野県,大町市,大町４１３４番地１,,20,212,3980002,,,,,,,2021-12-15,1,,,,,アットツリー,0
2505,9110001036271,新規,0,2021-12-15,2021-12-15,株式会社Ｒｉｐｉ　ｆａｒｍ,,株式会社,新潟県,北蒲原郡聖籠町,大字二本松９９７番地,,15,307,9570123,,,,,,,2021-12-15,1,,,,,リピファーム,0
2516,9120001242463,新規,0,2021-12-15,2021-12-15,Ｂｒｉｌｌｉａｎｔ　Ｆａｃｔｏｒｙ株式会社,,株式会社,大阪府,大阪市平野区,平野北１丁目１０番５－１３０４号,,27,126,5470041,,,,,,,2021-12-15,1,,,,,ブリリアントファクトリー,0
2517,9120001242471,新規,0,2021-12-15,2021-12-15,株式会社ガマダス,,株式会社,大阪府,枚方市,野村中町３０番１１号,,27,210,5730144,,,,,,,2021-12-15,1,,,,,ガマダス,0
2518,9120001242521,新規,0,2021-12-15,2021-12-15,タット・プラン建物株式会社,,株式会社,大阪府,大阪市西区,江戸堀１丁目２４番１９号,,27,106,5500002,,,,,,,2021-12-15,1,,,,,タットプランタテモノ,0
2523,9120901045346,新規,0,2021-12-15,2021-12-15,株式会社Ｍ＆Ｍ,,株式会社,大阪府,高槻市,下田部町１丁目２６番２０号,,27,207,5690062,,,,,,,2021-12-15,1,,,,,エムアンドエム,0
2544,9140001124197,新規,0,2021-12-15,2021-12-15,クリエイティブプラネット株式会社,,株式会社,兵庫県,神戸市中央区,大日通２丁目４番５－３号,,28,110,6510064,,,,,,,2021-12-15,1,,,,,クリエイティブプラネット,0
2545,9140001124206,新規,0,2021-12-15,2021-12-15,株式会社ｅ．Ｐ．Ｄｅｓｉｇｎ,,株式会社,兵庫県,尼崎市,常吉２丁目１１番１８号,,28,202,6610042,,,,,,,2021-12-15,1,,,,,イーピーデザイン,0
2550,9160001023868,新規,0,2021-12-15,2021-12-15,株式会社ＮＩＣＥ　ＬＩＮＥ,,株式会社,滋賀県,守山市,守山２丁目１６番１４号,,25,207,5240022,,,,,,,2021-12-15,1,,,,,ナイスライン,0
2551,9160001023876,新規,0,2021-12-15,2021-12-15,株式会社東海クリーン,,株式会社,滋賀県,長浜市,本庄町７６４番地,,25,203,5260821,,,,,,,2021-12-15,1,,,,,トウカイクリーン,0
2564,9180003023286,新規,0,2021-12-15,2021-12-15,合同会社はしもと,,合同会社,愛知県,名古屋市西区,那古野１丁目３６番５２号,,23,104,4510042,,,,,,,2021-12-15,1,,,,,ハシモト,0
2566,9180301035719,新規,0,2021-12-15,2021-12-15,株式会社ＧＯＴＯＨＡＲＩ,,株式会社,愛知県,西尾市,一色町一色古新田２８番地１,,23,213,4440423,,,,,,,2021-12-15,1,,,,,ゴトハリ,0
2571,9200001039538,新規,0,2021-12-15,2021-12-15,株式会社ＧＲОＷ　ＵＰ,,株式会社,岐阜県,関市,巾２丁目１６７番地５,,21,205,5013256,,,,,,,2021-12-15,1,,,,,グローアップ,0
2576,9230003001773,新規,0,2021-12-15,2021-12-15,合同会社想心,,合同会社,富山県,富山市,古志町１丁目３９番地,,16,201,9318417,,,,,,,2021-12-15,1,,,,,ソウシン,0
2587,9260001036307,新規,0,2021-12-15,2021-12-15,ＡＳＡＤＡ株式会社,,株式会社,岡山県,倉敷市,向山２１３２番地１９,,33,202,7100044,,,,,,,2021-12-15,1,,,,,アサダ,0
2599,9290005018471,新規,0,2021-12-15,2021-12-15,医療法人明心会,,その他の設立登記法人,福岡県,福岡市博多区,月隈２丁目３番１１－１０１号,,40,132,8120858,,,,,,,2021-12-15,1,,,,,メイシンカイ,0
2607,9310001017631,新規,0,2021-12-15,2021-12-15,カントリー企画株式会社,,株式会社,長崎県,大村市,古賀島町１４４１番地２,,42,205,8560817,,,,,,,2021-12-15,1,,,,,カントリーキカク,0
2611,9330001029278,新規,0,2021-12-15,2021-12-15,株式会社光の森やすらぎ,,株式会社,熊本県,合志市,豊岡２０００番地６００,,43,216,8611115,,,,,,,2021-12-15,1,,,,,ヒカリノモリヤスラギ,0
2613,9340001024336,新規,0,2021-12-15,2021-12-15,屋久島冒険旅株式会社,,株式会社,鹿児島県,熊毛郡屋久島町,永田３５９７－１,,46,505,8914201,,,,,,,2021-12-15,1,,,,,ヤクシマボウケンタビ,0
2614,9350001017462,新規,0,2021-12-15,2021-12-15,株式会社宮崎小林銘水,,株式会社,宮崎県,小林市,本町１１３番地,,45,205,8860008,,,,,,,2021-12-15,1,,,,,ミヤザキコバヤシメイスイ,0
2615,9350001017470,新規,0,2021-12-15,2021-12-15,株式会社Ｅｃｏｒｃｈｅ,,株式会社,宮崎県,児湯郡都農町,大字川北三ケ月原１００３番地１１,,45,406,8891201,,,,,,,2021-12-15,1,,,,,エコルシェ,0
2616,9350003003989,新規,0,2021-12-15,2021-12-15,合同会社クロサイ,,合同会社,宮崎県,児湯郡川南町,大字平田５１７７番地１,,45,405,8891302,,,,,,,2021-12-15,1,,,,,クロサイ,0
2618,9360001029770,新規,0,2021-12-15,2021-12-15,株式会社Ｇ　Ｓｍｉｌｅ,,株式会社,沖縄県,那覇市,銘苅２丁目９番２５号エレガンテためみ２０４,,47,201,9000004,,,,,,,2021-12-15,1,,,,,ジースマイル,0
2622,9360003011652,新規,0,2021-12-15,2021-12-15,合同会社来渡設計,,合同会社,沖縄県,名護市,字為又５１５番地コーポ又吉３０５,,47,209,9050005,,,,,,,2021-12-15,1,,,,,ライトセッケイ,0
2630,9380001032376,新規,0,2021-12-15,2021-12-15,株式会社Ｋ・Ｊ,,株式会社,福島県,南相馬市,原町区青葉町１丁目１６５番地の７,,07,212,9750039,,,,,,,2021-12-15,1,,,,,ケイジェイ,0
2631,9380001032401,新規,0,2021-12-15,2021-12-15,株式会社飯塚工業,,株式会社,福島県,喜多方市,関柴町平林字本坊９５番地３,,07,208,9660016,,,,,,,2021-12-15,1,,,,,イイヅカコウギョウ,0
2639,9410003003594,新規,0,2021-12-15,2021-12-15,合同会社よしむら,,合同会社,秋田県,横手市,駅南１丁目２番９号－２０２,,05,203,0130062,,,,,,,2021-12-15,1,,,,,ヨシムラ,0
2642,9430001085567,新規,0,2021-12-15,2021-12-15,株式会社林水産,,株式会社,北海道,石狩市,新港東３丁目６５番地２０,,01,235,0613243,,,,,,,2021-12-15,1,,,,,ハヤシスイサン,0
2643,9430001085591,新規,0,2021-12-15,2021-12-15,株式会社ＳＯＨＡ,,株式会社,北海道,新冠郡新冠町,字新栄１０４番１３号,,01,604,0592424,,,,,,,2021-12-15,1,,,,,ソーハ,0
2648,9430005014340,新規,0,2021-12-15,2021-12-15,一般社団法人カーオーナーズネットワーク北海道,,その他の設立登記法人,北海道,札幌市中央区,南二条東１丁目１番地第三泊ビル７階,,01,101,0600052,,,,,,,2021-12-15,1,,,,,カーオーナズネットワークホッカイドウ,0
