sequenceNumber,corporateNumber,process,correct,updateDate,changeDate,name,nameImageId,kind,prefectureName,cityName,streetNumber,addressImageId,prefectureCode,cityCode,postCode,addressOutside,addressOutsideImageId,closeDate,closeCause,successorCorporateNumber,changeCause,assignmentDate,latest,enName,enPrefectureName,enCityName,enAddressOutside,furigana,hihyoji
3,1010001255418,新規,0,2025-06-03,2025-06-03,株式会社ｉＬｏｇ,,株式会社,東京都,中央区,銀座１丁目１２番４号Ｎ＆ＥＢＬＤ．６Ｆ,,13,102,1040061,,,,,,,2025-06-03,1,,,,,アイログ,0
4,1010001255566,新規,0,2025-06-03,2025-06-03,株式会社エイティーズ,,株式会社,東京都,文京区,湯島３丁目３１番１号中川ビル２０１,,13,105,1130034,,,,,,,2025-06-03,1,,,,,エイティーズ,0
5,1010001255574,新規,0,2025-06-03,2025-06-03,日本ガイウスモビリティ株式会社,,株式会社,東京都,千代田区,丸の内１丁目１１番１号パシフィックセンチュリープレイス１３階,,13,101,1000005,,,,,,,2025-06-03,1,,,,,ニホンガイウスモビリティ,0
6,1010001255599,新規,0,2025-06-03,2025-06-03,ＥｐｉＭｅｔｒｉｘ株式会社,,株式会社,東京都,千代田区,神田錦町２丁目４番６号ワダビル５Ｆ,,13,101,1010054,,,,,,,2025-06-03,1,,,,,エピメトリクス,0
8,1010003047532,新規,0,2025-06-03,2025-06-03,合同会社Ｒｅ・Ｌａｂ,,合同会社,東京都,中央区,銀座１丁目１２－４Ｎ＆ＥＢＬＤ．７階,,13,102,1040061,,,,,,,2025-06-03,1,,,,,リラボ,0
14,1010401190578,新規,0,2025-06-03,2025-06-03,ＣＯＬＯＵＲＳ株式会社,,株式会社,東京都,港区,海岸１丁目２番地３号汐留芝離宮ビル２１Ｆ,,13,103,1050022,,,,,,,2025-06-03,1,,,,,カラーズ,0
15,1010403035269,新規,0,2025-06-03,2025-06-03,ジー・エイ・ワン・レジデンス・イレブン合同会社,,合同会社,東京都,港区,虎ノ門５丁目１番４号,,13,103,1050001,,,,,,,2025-06-03,1,,,,,ジーエイワンレジデンスイレブン,0
16,1010403035277,新規,0,2025-06-03,2025-06-03,ピーク・エナジー・ジャパン・アセット３合同会社,,合同会社,東京都,港区,芝大門２丁目１２番３号共生ビル２号館７階,,13,103,1050012,,,,,,,2025-06-03,1,,,,,ピークエナジージャパンアセットスリー,0
30,1011001169814,新規,0,2025-06-03,2025-06-03,ｅｔｅ株式会社,,株式会社,東京都,渋谷区,恵比寿西２丁目８番４号ＥＸ恵比寿西ビル５階,,13,113,1500021,,,,,,,2025-06-03,1,,,,,エテ,0
31,1011001170276,新規,0,2025-06-03,2025-06-03,ＭＣＰ‐Ｌａｂ株式会社,,株式会社,東京都,渋谷区,円山町５番３号ＭＩＥＵＸ渋谷ビル８階,,13,113,1500044,,,,,,,2025-06-03,1,,,,,エムシーピーラボ,0
34,1011003021659,新規,0,2025-06-03,2025-06-03,ＴＥＣＨ‐Ｔｏｋｙｏ合同会社,,合同会社,東京都,渋谷区,桜丘町１－１渋谷サクラステージＳＨＩＢＵＹＡタワー３７階,,13,113,1500031,,,,,,,2025-06-03,1,,,,,テックトウキョウ,0
41,1011101111948,新規,0,2025-06-03,2025-06-03,ケイスリーシー株式会社,,株式会社,東京都,新宿区,百人町３丁目２２番１５号,,13,104,1690073,,,,,,,2025-06-03,1,,,,,ケイスリーシー,0
47,1011201010216,新規,0,2025-06-03,2025-06-03,共栄建設株式会社,,株式会社,東京都,中野区,上鷺宮３丁目１７番８号,,13,114,1650031,,,,,,,2025-06-03,1,,,,,,0
48,1011201026410,新規,0,2025-06-03,2025-06-03,株式会社中島設備,,株式会社,東京都,中野区,鷺宮３丁目２０番９号ｖｉｌｌａＳ２０３,,13,114,1650032,,,,,,,2025-06-03,1,,,,,ナカジマセツビ,0
52,1011603004732,新規,0,2025-06-03,2025-06-03,合同会社Ｌｏｕｐ,,合同会社,東京都,練馬区,練馬３丁目１－８練馬サマリヤマンション１００７,,13,120,1760001,,,,,,,2025-06-03,1,,,,,ループ,0
59,1012401043187,新規,0,2025-06-03,2025-06-03,株式会社ＫＬＩＮＥ,,株式会社,東京都,三鷹市,下連雀３丁目２２－５ＹＫソナンビル４０１号室,,13,204,1810013,,,,,,,2025-06-03,1,,,,,ケイライン,0
66,1013301054316,新規,0,2025-06-03,2025-06-03,株式会社ＩＮＴＥＧＲＡ,,株式会社,東京都,豊島区,高田２丁目４番１６－１０２号,,13,116,1710033,,,,,,,2025-06-03,1,,,,,インテグラ,0
67,1013301054324,新規,0,2025-06-03,2025-06-03,曜盛ホールディングス株式会社,,株式会社,東京都,豊島区,池袋３丁目１番１－２００４号,,13,116,1710014,,,,,,,2025-06-03,1,,,,,ヨウセイホールディングス,0
68,1013301054332,新規,0,2025-06-03,2025-06-03,株式会社ＩＲｉｎｇ,,株式会社,東京都,豊島区,南長崎５丁目９番６号,,13,116,1710052,,,,,,,2025-06-03,1,,,,,アイリング,0
75,1020003028630,新規,0,2025-06-03,2025-06-03,合同会社ジョウバンマネジメント,,合同会社,神奈川県,横浜市神奈川区,金港町５―１４クアドリフォリオ８階,,14,102,2210056,,,,,,,2025-06-03,1,,,,,ジョウバンマネジメント,0
76,1020005016880,新規,0,2025-06-03,2025-06-03,特定非営利活動法人すばる,,その他の設立登記法人,神奈川県,横浜市金沢区,大川７番６－３２２号,,14,108,2360043,,,,,,,2025-06-03,1,,,,,スバル,0
82,1021001085390,新規,0,2025-06-03,2025-06-03,株式会社８・ＲＯＴＡＨＡＮＡ,,株式会社,神奈川県,三浦郡葉山町,一色１１９８番地の７,,14,301,2400111,,,,,,,2025-06-03,1,,,,,エイトロタハナ,0
84,1021003016071,新規,0,2025-06-03,2025-06-03,ＣＲＥＷＡＴＨ合同会社,,合同会社,神奈川県,藤沢市,辻堂６丁目２４番３２号,,14,205,2510047,,,,,,,2025-06-03,1,,,,,クレワス,0
88,1030005022176,新規,0,2025-06-03,2025-06-03,一般社団法人Ｚ．ＯＮＥ,,その他の設立登記法人,埼玉県,加須市,道目３７１番地７,,11,210,3491157,,,,,,,2025-06-03,1,,,,,ゼットワン,0
91,1040001139048,新規,0,2025-06-03,2025-06-03,株式会社ＣＦＬ,,株式会社,千葉県,千葉市中央区,新田町１７－２３,,12,101,2600027,,,,,,,2025-06-03,1,,,,,シーエフエル,0
96,1050003009322,新規,0,2025-06-03,2025-06-03,ホームリノベイター’Ｓ合同会社,,合同会社,茨城県,北相馬郡利根町,大字立木２１７４,,08,564,3001616,,,,,,,2025-06-03,1,,,,,ホームリノベイターズ,0
98,1060001038248,新規,0,2025-06-03,2025-06-03,株式会社ＨＩＴＯＮＥ,,株式会社,栃木県,宇都宮市,御幸本町４８６３番地２４,,09,201,3210983,,,,,,,2025-06-03,1,,,,,ヒットワン,0
103,1080401027939,新規,0,2025-06-03,2025-06-03,株式会社ＩＭＫ,,株式会社,静岡県,浜松市中央区,有玉南町２２８３番地の２,,22,138,4313122,,,,,,,2025-06-03,1,,,,,アイエムケー,0
115,1120001276262,新規,0,2025-06-03,2025-06-03,株式会社職人気質,,株式会社,大阪府,門真市,岸和田３丁目４５番２０号,,27,223,5710002,,,,,,大阪府門真市岸和田三丁目４５番２０号有限会社職人気質（1122002014782）及び大阪府門真市岸和田三丁目４５番２３号株式会社クライムマックス（1260001007678）の合併により設立,2025-06-03,1,,,,,ショクニンカタギ,0
116,1120001276312,新規,0,2025-06-03,2025-06-03,合旅株式会社,,株式会社,大阪府,大阪市旭区,今市１丁目２－５カルム千林２０５号室,,27,117,5350011,,,,,,,2025-06-03,1,,,,,ゴウリョ,0
117,1120001276378,新規,0,2025-06-03,2025-06-03,廣阪株式会社,,株式会社,大阪府,大阪市中央区,玉造２丁目２３番２１号第二永田中央ビル５０２,,27,128,5400004,,,,,,,2025-06-03,1,,,,,ヒロサカ,0
118,1120001276403,新規,0,2025-06-03,2025-06-03,Ａｓｐｉｒｅ　Ｈｏｍｅｓ株式会社,,株式会社,大阪府,大阪市中央区,南船場２丁目８番１１号シナプス心斎橋８０４号,,27,128,5420081,,,,,,,2025-06-03,1,,,,,アスパイヤホームズ,0
119,1120001276428,新規,0,2025-06-03,2025-06-03,株式会社ＮＧＸ,,株式会社,大阪府,大阪市北区,太融寺町７番１号大栄レジャービル４階,,27,127,5300051,,,,,,,2025-06-03,1,,,,,エヌジーエックス,0
120,1120001276436,新規,0,2025-06-03,2025-06-03,凱来商事株式会社,,株式会社,大阪府,大阪市西成区,玉出中２丁目１１－３４－１０２,,27,122,5570044,,,,,,,2025-06-03,1,,,,,ガイキショウジ,0
121,1120001276584,新規,0,2025-06-03,2025-06-03,株式会社真柊,,株式会社,大阪府,寝屋川市,萱島東３丁目４番１０号,,27,215,5720824,,,,,,,2025-06-03,1,,,,,シンシュウ,0
122,1120003029610,新規,0,2025-06-03,2025-06-03,星ノ輝合同会社,,合同会社,大阪府,大阪市西成区,津守１丁目８番３８号松谷ビル２０２,,27,122,5570062,,,,,,,2025-06-03,1,,,,,ホシノキ,0
123,1120003029627,新規,0,2025-06-03,2025-06-03,悦心商事合同会社,,合同会社,大阪府,大阪市西成区,天下茶屋１丁目２４－８,,27,122,5570014,,,,,,,2025-06-03,1,,,,,エツシンショウジ,0
124,1120003029643,新規,0,2025-06-03,2025-06-03,合同会社Ｐｏｔｅ　Ｍｉｌ,,合同会社,大阪府,大阪市天王寺区,上汐５丁目７－２７カラムス夕陽ヶ丘７０２,,27,109,5430002,,,,,,,2025-06-03,1,,,,,ポテミル,0
129,1122001039293,新規,0,2025-06-03,2025-06-03,株式会社トモニサポート,,株式会社,大阪府,大東市,御領３丁目１０番３６号,,27,218,5740064,,,,,,,2025-06-03,1,,,,,トモニサポート,0
134,1130003010494,新規,0,2025-06-03,2025-06-03,合同会社ゆらいふ,,合同会社,京都府,舞鶴市,字上安小字中ノ脇１７００番地,,26,202,6240912,,,,,,,2025-06-03,1,,,,,ユライフ,0
138,1140001138592,新規,0,2025-06-03,2025-06-03,株式会社Ｄｉａｍｏｎｄ　Ｓｍｉｌｅ,,株式会社,兵庫県,西宮市,東山台５丁目３０番１３号,,28,204,6691133,,,,,,,2025-06-03,1,,,,,ダイヤモンドスマイル,0
139,1140001138709,新規,0,2025-06-03,2025-06-03,ＰＬＵＳ　Ｇａｒａｇｅ株式会社,,株式会社,兵庫県,加古川市,八幡町宗佐６３６番地の１,,28,210,6751201,,,,,,,2025-06-03,1,,,,,プラスガレージ,0
144,1160003003495,新規,0,2025-06-03,2025-06-03,合同会社まもるリフォーム,,合同会社,滋賀県,大津市,唐橋町１８番２８－９０２号,,25,201,5200851,,,,,,,2025-06-03,1,,,,,マモルリフォーム,0
149,1180001167101,新規,0,2025-06-03,2025-06-03,株式会社Ｇｏｏｄ　Ｈｏｕｓｅ,,株式会社,愛知県,名古屋市港区,東茶屋２丁目４１６番地,,23,111,4550851,,,,,,,2025-06-03,1,,,,,グッドハウス,0
150,1180001167126,新規,0,2025-06-03,2025-06-03,株式会社ヨシダリング,,株式会社,愛知県,名古屋市東区,豊前町２丁目５３番地の１,,23,102,4610034,,,,,,,2025-06-03,1,,,,,ヨシダリング,0
151,1180001167175,新規,0,2025-06-03,2025-06-03,三光建設株式会社,,株式会社,愛知県,春日井市,下市場町６丁目２番地１,,23,206,4860852,,,,,,,2025-06-03,1,,,,,サンコウケンセツ,0
153,1180003028557,新規,0,2025-06-03,2025-06-03,合同会社ハレロ,,合同会社,愛知県,一宮市,千秋町町屋字端畑１７番地３,,23,203,4910813,,,,,,,2025-06-03,1,,,,,ハレロ,0
154,1180003028573,新規,0,2025-06-03,2025-06-03,合同会社ｗｅｌｌｎｅｓｓ　ｇｒａｂ,,合同会社,愛知県,名古屋市千種区,振甫町１丁目２１番地,,23,101,4640072,,,,,,,2025-06-03,1,,,,,ウェルネスグラブ,0
158,1180303006592,新規,0,2025-06-03,2025-06-03,合同会社ｃｏｈａｌｕｎａ．,,合同会社,愛知県,豊田市,四郷町天道８９番地３２,,23,211,4700373,,,,,,,2025-06-03,1,,,,,コハルナ,0
159,1190001032254,新規,0,2025-06-03,2025-06-03,株式会社Ｂ‐Ｍａｎａｇｅ,,株式会社,三重県,津市,安濃町今徳１１０９番地１,,24,201,5142313,,,,,,,2025-06-03,1,,,,,,0
170,1220001026715,新規,0,2025-06-03,2025-06-03,ＢａｂａＧｕｍｐ株式会社,,株式会社,石川県,白山市,福留町８１番地,,17,210,9240051,,,,,,,2025-06-03,1,,,,,ババガンプ,0
171,1220001026723,新規,0,2025-06-03,2025-06-03,株式会社坂本興業,,株式会社,石川県,野々市市,新庄５丁目３９番地,,17,212,9218824,,,,,,,2025-06-03,1,,,,,サカモトコウギョウ,0
178,1260005011486,新規,0,2025-06-03,2025-06-03,一般社団法人ツムギイト,,その他の設立登記法人,岡山県,赤磐市,桜が丘東１丁目１番１１０３号,,33,213,7090721,,,,,,,2025-06-03,1,,,,,ツムギイト,0
187,1290001110231,新規,0,2025-06-03,2025-06-03,株式会社クローバー,,株式会社,福岡県,福岡市東区,香椎駅前２丁目１２番４１号,,40,131,8130013,,,,,,,2025-06-03,1,,,,,クローバー,0
190,1290003016939,新規,0,2025-06-03,2025-06-03,合同会社福愛,,合同会社,福岡県,福岡市南区,市崎１丁目２－８,,40,134,8150084,,,,,,,2025-06-03,1,,,,,フクアイ,0
191,1300003002292,新規,0,2025-06-03,2025-06-03,合同会社Ｎｅｒｇｅ,,合同会社,佐賀県,唐津市,菜畑４２０８―１２,,41,202,8470844,,,,,,,2025-06-03,1,,,,,ナージ,0
192,1300005007249,新規,0,2025-06-03,2025-06-03,特定非営利活動法人結び,,その他の設立登記法人,佐賀県,佐賀市,川副町大字南里３０３番地１フラワーヒル１０６,,41,201,8402205,,,,,,,2025-06-03,1,,,,,ムスビ,0
198,1320001021128,新規,0,2025-06-03,2025-06-03,株式会社専工建創,,株式会社,大分県,大分市,大字寒田８８２番地の２リファレンス敷戸Ｉ－１０１,00139408,44,201,8701123,,,,,,,2025-06-03,1,,,,,センコウケンソウ,0
199,1320003004683,新規,0,2025-06-03,2025-06-03,合同会社ＫａｎｄＭ,,合同会社,大分県,大分市,大字光吉１１３９番地１首藤ハイツ２（２０２）,,44,201,8701132,,,,,,,2025-06-03,1,,,,,ケイアンドエム,0
201,1330003011035,新規,0,2025-06-03,2025-06-03,ヨリオン合同会社,,合同会社,熊本県,熊本市西区,蓮台寺４丁目２番１９－３号,,43,103,8600055,,,,,,,2025-06-03,1,,,,,ヨリオン,0
202,1340001027379,新規,0,2025-06-03,2025-06-03,株式会社Ｌｕｃｅ,,株式会社,鹿児島県,鹿児島市,千日町８－１２第２三木ビル５Ｆ,,46,201,8920843,,,,,,,2025-06-03,1,,,,,ルーチェ,0
208,1370005010972,新規,0,2025-06-03,2025-06-03,特定非営利活動法人みんなのトイレマッププロジェクト,,その他の設立登記法人,宮城県,仙台市青葉区,錦町２丁目４番４３号,,04,101,9800012,,,,,,,2025-06-03,1,,,,,ミンナノトイレマッププロジェクト,0
216,1430001094542,新規,0,2025-06-03,2025-06-03,株式会社悠和,,株式会社,北海道,恵庭市,島松寿町１丁目１７番地８,,01,231,0611355,,,,,,,2025-06-03,1,,,,,ユウワ,0
217,1430003017716,新規,0,2025-06-03,2025-06-03,ｙｅｔｉ　ｂａｓｅ合同会社,,合同会社,北海道,虻田郡倶知安町,北七条西１丁目１－２６,,01,400,0440057,,,,,,,2025-06-03,1,,,,,イエティベース,0
219,1462503000231,新規,0,2025-06-03,2025-06-03,合同会社ラナピリカ,,合同会社,北海道,標津郡標津町,字川北２２８番地１,,01,693,0861451,,,,,,,2025-06-03,1,,,,,ラナピリカ,0
222,1500001026323,新規,0,2025-06-03,2025-06-03,みんなの健康株式会社,,株式会社,愛媛県,松山市,南久米町乙２４番地１２４,,38,201,7900924,,,,,,,2025-06-03,1,,,,,ミンナノケンコウ,0
227,1700150130847,新規,0,2025-06-03,2025-06-03,Ｐａｒｅｔｏ　Ｐａｒｔｎｅｒｓ　ＬＬＣ,,外国会社等,,,,,,,,７５　Ｒｏｂｉｎｓ　Ｐｌａｃｅ　Ｍｅｔｕｃｈｅｎ，Ｎｅｗ　Ｊｅｒｓｅｙ　０８８４０　ＵＳＡ,,,,,,2025-06-03,1,,,,,パレトパートナーズエルエルシー,0
228,1700150130855,新規,0,2025-06-03,2025-06-03,Ｋｏｔｉ　Ｃｏ．Ｌｔｄ,,外国会社等,,,,,,,,６Ｆ，Ｎｏ．１８１，Ｓｅｃ．３，ＭｉｎｑｕａｎＥ．Ｒｄ．，ＳｏｎｇｓｈａｎＤｉｓｔ．，ＴａｉｐｅｉＣｉｔｙ１０５００２，Ｔａｉｗａｎ（Ｒ．Ｏ．Ｃ．）,,,,,,2025-06-03,1,,,,,ムーホーコクサイユウゲンコウシ,0
229,1700150130905,新規,0,2025-06-03,2025-06-03,ＰＡＮＧＥＮＩ　ＨＵＭＡＮ　ＲＥＳＯＵＲＣＥ　ＰＶＴ．ＬＴＤ．,,外国会社等,埼玉県,春日部市,大場１１４３－２,,11,214,3440021,ネパール・バグマティ州カトマンズ市サマクシ区ゴンガブ５,,,,,,2025-06-03,1,,,,,パンゲニヒユーマンリソースプライベートリミテツド,0
239,2010001255490,新規,0,2025-06-03,2025-06-03,Ｗｉｓｄｏｍ　Ｃａｐｉｔａｌ株式会社,,株式会社,東京都,中央区,銀座１丁目２２番１１号銀座大竹ビジデンス２Ｆ,,13,102,1040061,,,,,,,2025-06-03,1,,,,,,0
240,2010001255581,新規,0,2025-06-03,2025-06-03,株式会社ミソラコネクト,,株式会社,東京都,文京区,後楽２丁目６番１号,,13,105,1120004,,,,,,,2025-06-03,1,,,,,ミソラコネクト,0
241,2010001255607,新規,0,2025-06-03,2025-06-03,ピクセルドライブ株式会社,,株式会社,東京都,中央区,日本橋浜町２丁目６０－３－８０３,,13,102,1030007,,,,,,,2025-06-03,1,,,,,ピクセルドライブ,0
242,2010003047531,新規,0,2025-06-03,2025-06-03,合同会社藤友侍,,合同会社,東京都,中央区,日本橋１丁目４番１号,,13,102,1030027,,,,,,,2025-06-03,1,,,,,フジトモザムライ,0
249,2010401190577,新規,0,2025-06-03,2025-06-03,株式会社Ｃ２ＣＣ,,株式会社,東京都,港区,北青山１丁目３－３三橋ビル３階,,13,103,1070061,,,,,,,2025-06-03,1,,,,,シートゥーシーシー,0
250,2010401190585,新規,0,2025-06-03,2025-06-03,アーバンソフィスティケーションジャパン株式会社,,株式会社,東京都,港区,南青山４丁目１８番１１号フォレストヒルズイーストウィング２Ｆ,,13,103,1070062,,,,,,,2025-06-03,1,,,,,アーバンソフィスティケーションジャパン,0
251,2010401190635,新規,0,2025-06-03,2025-06-03,Ｐｒｅｓｅｎｚ株式会社,,株式会社,東京都,港区,南青山３丁目１―３６青山丸竹ビル６Ｆ,,13,103,1070062,,,,,,,2025-06-03,1,,,,,プレゼンス,0
252,2010401190767,新規,0,2025-06-03,2025-06-03,株式会社Ｌａｎｄａｌｌ,,株式会社,東京都,港区,南青山１丁目１番１号新青山ビル東館７階,,13,103,1070062,,,,,,,2025-06-03,1,,,,,ランドール,0
253,2010403035268,新規,0,2025-06-03,2025-06-03,ジー・エイ・ワン・レジデンス・テン合同会社３,,合同会社,東京都,港区,虎ノ門５丁目１番４号,,13,103,1050001,,,,,,,2025-06-03,1,,,,,ジーエイワンレジデンステンサン,0
254,2010403035276,新規,0,2025-06-03,2025-06-03,ピーク・エナジー・ジャパン・アセット２合同会社,,合同会社,東京都,港区,芝大門２丁目１２番３号共生ビル２号館７階,,13,103,1050012,,,,,,,2025-06-03,1,,,,,ピークエナジージャパンアセットツー,0
255,2010403035301,新規,0,2025-06-03,2025-06-03,合同会社ミライアクシス,,合同会社,東京都,港区,北青山１丁目３―３三橋ビル３階,,13,103,1070061,,,,,,,2025-06-03,1,,,,,ミライアクシス,0
268,2010901057474,新規,0,2025-06-03,2025-06-03,株式会社アンラップ,,株式会社,東京都,世田谷区,松原２丁目４２－１５谷川ビル２階,,13,112,1560043,,,,,,,2025-06-03,1,,,,,アンラップ,0
269,2010903009952,新規,0,2025-06-03,2025-06-03,１ａｒｒｉｂａ合同会社,,合同会社,東京都,世田谷区,成城８丁目１１番１０号,,13,112,1570066,,,,,,,2025-06-03,1,,,,,ウノアリーバ,0
273,2011005011013,新規,0,2025-06-03,2025-06-03,一般社団法人多様性ストーリーラボ,,その他の設立登記法人,東京都,渋谷区,神南１丁目１１－４ＦＰＧリンクス神南５階,,13,113,1500041,,,,,,,2025-06-03,1,,,,,タヨウセイストーリーラボ,0
280,2011101111922,新規,0,2025-06-03,2025-06-03,株式会社ミッドナイト,,株式会社,東京都,新宿区,西新宿３丁目３番１３号西新宿水間ビル２Ｆ,,13,104,1600023,,,,,,,2025-06-03,1,,,,,ミッドナイト,0
281,2011101111930,新規,0,2025-06-03,2025-06-03,バイオリニュー株式会社,,株式会社,東京都,新宿区,四谷４丁目４－３－４０２,,13,104,1600004,,,,,,,2025-06-03,1,,,,,バイオリニュー,0
283,2011103015972,新規,0,2025-06-03,2025-06-03,ＭＩＹＡＣＨＩ　ＳＴＹＬＥ合同会社,,合同会社,東京都,新宿区,北新宿２丁目６－２９東京フォーサイトスクエア８０９号,,13,104,1690074,,,,,,,2025-06-03,1,,,,,ミヤチスタイル,0
286,2011403004717,新規,0,2025-06-03,2025-06-03,合同会社ＮｅｘＬｉｎｋ,,合同会社,東京都,板橋区,赤塚１丁目１２－１４,,13,119,1750092,,,,,,,2025-06-03,1,,,,,ネクスリンク,0
287,2011501032157,新規,0,2025-06-03,2025-06-03,Ｄａｉｓｕｎｉ　Ｇｌｏｂｅ大商環球株式会社,,株式会社,東京都,荒川区,東日暮里３丁目２－１４ガーデンヒルズ東日暮里１０１－Ｄ,,13,118,1160014,,,,,,,2025-06-03,1,,,,,ダイスニグローブダイショウカンキュウ,0
293,2012803003754,新規,0,2025-06-03,2025-06-03,ボトルマニア合同会社,,合同会社,東京都,昭島市,東町４丁目８－４,,13,207,1960033,,,,,,,2025-06-03,1,,,,,ボトルマニア,0
295,2013301054315,新規,0,2025-06-03,2025-06-03,ＨＮＳ株式会社,,株式会社,東京都,豊島区,南大塚１丁目６０－２０天翔大塚駅前ビル５階Ｓ５０２号室,,13,116,1700005,,,,,,,2025-06-03,1,,,,,エイチエヌエス,0
296,2013303007691,新規,0,2025-06-03,2025-06-03,合同会社ｍｉｇｔｅｃｈ,,合同会社,東京都,豊島区,高松１丁目２２番１シティタワー池袋ウエストゲート８０５,,13,116,1710042,,,,,,,2025-06-03,1,,,,,ミグテック,0
308,2020003028613,新規,0,2025-06-03,2025-06-03,ＴＯＭＩ国際医療合同会社,,合同会社,神奈川県,川崎市川崎区,小田２丁目９番３３号２０１号室,,14,131,2100846,,,,,,,2025-06-03,1,,,,,トミコクサイイリョウ,0
310,2021001085381,新規,0,2025-06-03,2025-06-03,株式会社ＮＯＭＡ,,株式会社,神奈川県,藤沢市,鵠沼海岸１丁目１４番１号,,14,205,2510037,,,,,,,2025-06-03,1,,,,,ノマ,0
325,2040003027679,新規,0,2025-06-03,2025-06-03,ベストパートナー合同会社,,合同会社,千葉県,流山市,南流山３丁目１７－１６,,12,220,2700163,,,,,,,2025-06-03,1,,,,,ベストパートナー,0
339,2070005010399,新規,0,2025-06-03,2025-06-03,一般社団法人かんな研究所,,その他の設立登記法人,群馬県,藤岡市,坂原２１８７番地,,10,209,3701404,,,,,,,2025-06-03,1,,,,,カンナケンキュウジョ,0
347,2100001038663,新規,0,2025-06-03,2025-06-03,今村クリーン企画株式会社,,株式会社,長野県,大町市,大町９９４番地５,,20,212,3980002,,,,,,,2025-06-03,1,,,,,イマムラクリーンキカク,0
352,2110001039306,新規,0,2025-06-03,2025-06-03,ナミックスプロ株式会社,,株式会社,新潟県,新潟市北区,濁川３９９３番地,,15,101,9503131,,,,,,,2025-06-03,1,,,,,ナミックスプロ,0
356,2120001276393,新規,0,2025-06-03,2025-06-03,無限開発株式会社,,株式会社,大阪府,大阪市港区,市岡元町２丁目６番１１号,,27,107,5520002,,,,,,,2025-06-03,1,,,,,ムゲンカイハツ,0
360,2120003029601,新規,0,2025-06-03,2025-06-03,合同会社テラつる,,合同会社,大阪府,大阪市中央区,瓦屋町３丁目４番３－１５０１号,,27,128,5420066,,,,,,,2025-06-03,1,,,,,テラツル,0
361,2120003029650,新規,0,2025-06-03,2025-06-03,合同会社モンキーファクトリー,,合同会社,大阪府,大阪市阿倍野区,美章園１丁目１１‐８,,27,119,5450003,,,,,,,2025-06-03,1,,,,,モンキーファクトリー,0
362,2120101071785,新規,0,2025-06-03,2025-06-03,ＢＹＳ株式会社,,株式会社,大阪府,阪南市,南山中２４７番地,,27,232,5990233,,,,,,,2025-06-03,1,,,,,ビーワイエス,0
363,2120103006491,新規,0,2025-06-03,2025-06-03,合同会社Ｌａ　ｃｉｋ,,合同会社,大阪府,堺市北区,北花田町４丁１０６－５レジデンスＹＵＴＡＫＡ２０２号,,27,146,5918002,,,,,,,2025-06-03,1,,,,,ラシック,0
368,2122001039301,新規,0,2025-06-03,2025-06-03,春陽株式会社,,株式会社,大阪府,東大阪市,若江西新町４丁目６番１０－１０１号,,27,227,5780944,,,,,,,2025-06-03,1,,,,,シュンヨウ,0
371,2130001079787,新規,0,2025-06-03,2025-06-03,Ｉｎｔｅｒｉｏｒ　Ｈａｒｖｅｓｔ株式会社,,株式会社,京都府,京都市東山区,大和大路通五条上る東入池殿町２０８番地,,26,105,6050848,,,,,,,2025-06-03,1,,,,,インテリアハーベスト,0
381,2140005027527,新規,0,2025-06-03,2025-06-03,一般社団法人アグリ・アート＆スポーツ,,その他の設立登記法人,兵庫県,神戸市中央区,琴ノ緒町２丁目３番６－４０２号,,28,110,6510094,,,,,,,2025-06-03,1,,,,,アグリアートアンドスポーツ,0
383,2150005009706,新規,0,2025-06-03,2025-06-03,医療法人高敬会,,その他の設立登記法人,奈良県,奈良市,大宮町２丁目１番６号,,29,201,6308115,,,,,,,2025-06-03,1,,,,,コウケイカイ,0
384,2160003003494,新規,0,2025-06-03,2025-06-03,合同会社Ｃｈｅｍｉ‐Ｓｈｉｒｕ,,合同会社,滋賀県,長浜市,公園町２番４０号,,25,203,5260065,,,,,,,2025-06-03,1,,,,,ケミシル,0
390,2180001167067,新規,0,2025-06-03,2025-06-03,株式会社ＨＵＮＤＲＥＤ　ＣＬＵＥＳ,,株式会社,愛知県,一宮市,栄２丁目８番２４号モアグレース一宮ステーションマークス１４０１号,,23,203,4910858,,,,,,,2025-06-03,1,,,,,ハンドレッドクルーズ,0
391,2180001167100,新規,0,2025-06-03,2025-06-03,株式会社三宝ＷＥＬＤ,,株式会社,愛知県,あま市,本郷柿ノ木８２番地オリオン２０１号,,23,237,4901116,,,,,,,2025-06-03,1,,,,,サンポウウェルド,0
392,2180001167117,新規,0,2025-06-03,2025-06-03,株式会社ＴＫスチール,,株式会社,愛知県,一宮市,開明字馬保里１０番地５,,23,203,4940001,,,,,,,2025-06-03,1,,,,,ティーケイスチール,0
393,2180001167133,新規,0,2025-06-03,2025-06-03,株式会社ＦＡＴＥ,,株式会社,愛知県,名古屋市中川区,高畑３丁目４０番地ブラザービル１Ｆ,,23,110,4540911,,,,,,,2025-06-03,1,,,,,フェイト,0
394,2180003028564,新規,0,2025-06-03,2025-06-03,合同会社阿部アート,,合同会社,愛知県,名古屋市熱田区,沢上１丁目５番２４号,,23,109,4560012,,,,,,,2025-06-03,1,,,,,アベアート,0
398,2180301039874,新規,0,2025-06-03,2025-06-03,株式会社フリーデー,,株式会社,愛知県,豊橋市,西幸町字古並３２番地,,23,201,4418113,,,,,,,2025-06-03,1,,,,,フリーデー,0
399,2180303006591,新規,0,2025-06-03,2025-06-03,合同会社Ｈｙｇｇｅ,,合同会社,愛知県,みよし市,三好丘１丁目２番地２,,23,236,4700202,,,,,,,2025-06-03,1,,,,,ヒュッゲ,0
401,2190001032253,新規,0,2025-06-03,2025-06-03,Ｃａｎ　ｂｅ　ｕｓｅｄ株式会社,,株式会社,三重県,四日市市,大矢知町３１６０番地４,,24,202,5108034,,,,,,,2025-06-03,1,,,,,キャンビーユーズド,0
403,2210001020189,新規,0,2025-06-03,2025-06-03,株式会社藤田農園,,株式会社,福井県,福井市,南山町第８号１０番地１,,18,201,9102162,,,,,,,2025-06-03,1,,,,,フジタノウエン,0
404,2210001020197,新規,0,2025-06-03,2025-06-03,株式会社成建,,株式会社,福井県,福井市,羽坂町第１７号１番地７,,18,201,9188075,,,,,,,2025-06-03,1,,,,,セイケン,0
407,2220003004049,新規,0,2025-06-03,2025-06-03,合同会社ブランズ,,合同会社,石川県,金沢市,入江１丁目４２番地１,,17,201,9218011,,,,,,,2025-06-03,1,,,,,ブランズ,0
411,2240001065017,新規,0,2025-06-03,2025-06-03,株式会社太陽光保守管理広島,,株式会社,広島県,広島市安佐北区,亀山２丁目１７－４７－１０,,34,106,7310231,,,,,,,2025-06-03,1,,,,,タイヨウコウホシュカンリヒロシマ,0
417,2270003001751,新規,0,2025-06-03,2025-06-03,アールエスピー合同会社,,合同会社,鳥取県,東伯郡北栄町,松神１２６７－２,,31,372,6892106,,,,,,,2025-06-03,1,,,,,アールエスピー,0
423,2290001110197,新規,0,2025-06-03,2025-06-03,株式会社アイエスゼネラル,,株式会社,福岡県,福岡市博多区,那珂４丁目１９番８－７１１号ファミール那珂,,40,132,8120893,,,,,,,2025-06-03,1,,,,,アイエスゼネラル,0
424,2290001110206,新規,0,2025-06-03,2025-06-03,株式会社ＦｌａｐＲｉｓｅ,,株式会社,福岡県,福津市,津丸８３１番地３,,40,224,8113222,,,,,,,2025-06-03,1,,,,,フラップライズ,0
425,2290001110222,新規,0,2025-06-03,2025-06-03,株式会社ＦｒｅｅＤｒｉｆｔ,,株式会社,福岡県,福岡市中央区,天神２丁目３番１０号天神パインクレスト７１９号,,40,133,8100001,,,,,,,2025-06-03,1,,,,,フリードリフト,0
430,2290803005066,新規,0,2025-06-03,2025-06-03,合同会社ＦＵＫＵＯＫＡ　Ｖｔｅｃｈ　Ｃｒｅａｔｏｒｓ,,合同会社,福岡県,田川市,魚町１３番１２号エトワールプラザ５００号室,,40,206,8250014,,,,,,,2025-06-03,1,,,,,フクオカブイテッククリエイターズ,0
431,2300001014215,新規,0,2025-06-03,2025-06-03,株式会社ファーレン,,株式会社,佐賀県,佐賀市,鍋島町大字森田２４３９番地１,,41,201,8490936,,,,,,,2025-06-03,1,,,,,ファーレン,0
439,2340001027378,新規,0,2025-06-03,2025-06-03,株式会社ＰＡＲＸ,,株式会社,鹿児島県,鹿児島市,松原町１１番２３号４Ｆ,,46,201,8920833,,,,,,,2025-06-03,1,,,,,パークス,0
440,2350001019564,新規,0,2025-06-03,2025-06-03,株式会社ＰＩＮＥ,,株式会社,宮崎県,西都市,小野崎２丁目５７番地,,45,208,8810012,,,,,,,2025-06-03,1,,,,,パイン,0
442,2360003014967,新規,0,2025-06-03,2025-06-03,合同会社Ａｌｌｉｅｄ　Ｇｒｏｗｔｈ　Ｃｏｍｐａｎｙ,,合同会社,沖縄県,那覇市,西１丁目１６－１０－６０３,,47,201,9000036,,,,,,,2025-06-03,1,,,,,アライドグロースカンパニー,0
443,2370001052646,新規,0,2025-06-03,2025-06-03,株式会社Ａｒｏｍａ　Ｃａｒｅ　Ｔｅｃｈ,,株式会社,宮城県,仙台市青葉区,荒巻字青葉４６８－１東北大学マテリアル・イノベーション・センター青葉山ガレージ,,04,101,9800845,,,,,,,2025-06-03,1,,,,,アロマケアテック,0
444,2370001052654,新規,0,2025-06-03,2025-06-03,株式会社坂本会計事務所,,株式会社,宮城県,仙台市青葉区,通町２丁目１番１４号,,04,101,9810915,,,,,,,2025-06-03,1,,,,,サカモトカイケイジムショ,0
459,2430001094566,新規,0,2025-06-03,2025-06-03,藤工株式会社,,株式会社,北海道,千歳市,高台４丁目４番１１号,,01,224,0660035,,,,,,,2025-06-03,1,,,,,フジコウ,0
467,2500001026322,新規,0,2025-06-03,2025-06-03,株式会社綾,,株式会社,愛媛県,松山市,和泉南４丁目７番１５号ヤマノリハイツ３０５号,,38,201,7900941,,,,,,,2025-06-03,1,,,,,アヤ,0
472,2700150130846,新規,0,2025-06-03,2025-06-03,焼橋自治会,,その他,三重県,松阪市,山室町２２６０番地１,,24,204,5150052,,,,,,,2025-06-03,1,,,,,ヤケハシジチカイ,0
473,2700150130854,新規,0,2025-06-03,2025-06-03,Ｂｌａｃｋｓｔｏｎｅ　Ｃａｐｉｔａｌ　Ｐａｒｔｎｅｒｓ　ＶＩＩＩ（ＬＵＸ）ＡＩＶ－Ｆ　ＳＣＳｐ,00139401,外国会社等,,,,,,,,１１－１３　ｂｏｕｌｅｖａｒｄ　ｄｅ　ｌａ　Ｆｏｉｒｅ，Ｌ－１５２８　Ｌｕｘｅｍｂｏｕｒｇ，Ｇｒａｎｄ　Ｄｕｃｈｙ　ｏｆ　Ｌｕｘｅｍｂｏｕｒｇ,,,,,,2025-06-03,1,,,,,ブラツクストーンキヤピタルパートナーズハチエルユーエツクスエーアイブイエフエスシーエスピー,0
474,2700150130904,新規,0,2025-06-03,2025-06-03,ＥＴＥＲＮＩＴＹ　ＣＡＰＩＴＡＬ　ＰＴＥ．ＬＴＤ．,,外国会社等,熊本県,菊池郡菊陽町,大字津久礼１１－７,,43,404,8691101,２１　ＢＵＫＩＴ　ＢＡＴＯＫ　ＣＲＥＳＣＥＮＴ　＃１１－８０，ＷＣＥＧＡ　ＴＯＷＥＲ，ＳＩＮＧＡＰＯＲＥ,,,,,,2025-06-03,1,,,,,エターニテイキヤピタル,0
491,3010401190691,新規,0,2025-06-03,2025-06-03,ユクエテラス株式会社,,株式会社,東京都,港区,北青山１丁目３番１号アールキューブ青山３階,,13,103,1070061,,,,,,,2025-06-03,1,,,,,ユクエテラス,0
492,3010401190700,新規,0,2025-06-03,2025-06-03,株式会社ＴＡＭ,,株式会社,東京都,港区,高輪２丁目１２番４１号,,13,103,1080074,,,,,,,2025-06-03,1,,,,,ティーエーエム,0
495,3010403035267,新規,0,2025-06-03,2025-06-03,ジー・エイ・ワン・レジデンス・テン合同会社２,,合同会社,東京都,港区,虎ノ門５丁目１番４号,,13,103,1050001,,,,,,,2025-06-03,1,,,,,ジーエイワンレジデンステンニ,0
496,3010403035300,新規,0,2025-06-03,2025-06-03,合同会社アルカン,,合同会社,東京都,港区,新橋３丁目２６－３会計ビル９Ｆ,,13,103,1050004,,,,,,,2025-06-03,1,,,,,アルカン,0
497,3010405024400,新規,0,2025-06-03,2025-06-03,一般社団法人マイクロバイオーム解析推進協会,,その他の設立登記法人,東京都,港区,北青山３丁目２番２号ＡＹビル７Ｆ,,13,103,1070061,,,,,,,2025-06-03,1,,,,,マイクロバイオームカイセキスイシンキョウカイ,0
505,3010701047781,新規,0,2025-06-03,2025-06-03,ユジネオ株式会社,,株式会社,東京都,品川区,小山台１丁目３３番９号トップ不動前３１２号室,,13,109,1420061,,,,,,,2025-06-03,1,,,,,ユジネオ,0
506,3010701047807,新規,0,2025-06-03,2025-06-03,Ｈｕｅｓ　ＡＩＬａｂ　ＪＣａｓｈＣｏｗ０１株式会社,,株式会社,東京都,品川区,西五反田１丁目２６番２号五反田サンハイツ９１１,,13,109,1410031,,,,,,,2025-06-03,1,,,,,ヒューズアイラボジェイキャッシュカウゼロイチ,0
507,3010705003764,新規,0,2025-06-03,2025-06-03,一般社団法人セーフトラスト預託機構,,その他の設立登記法人,東京都,品川区,旗の台４丁目２番５号ホープイン旗の台２Ｂ,,13,109,1420064,,,,,,,2025-06-03,1,,,,,セーフトラストヨタクキコウ,0
508,3010801036214,新規,0,2025-06-03,2025-06-03,株式会社マロント,,株式会社,東京都,大田区,大森北２丁目１３番３１－１３１４号,,13,111,1430016,,,,,,,2025-06-03,1,,,,,マロント,0
510,3010803005398,新規,0,2025-06-03,2025-06-03,シグナルサービス合同会社,,合同会社,東京都,大田区,久が原５丁目２９－３－３０３,,13,111,1460085,,,,,,,2025-06-03,1,,,,,シグナルサービス,0
522,3011001169812,新規,0,2025-06-03,2025-06-03,株式会社ＪＡＭ　ＦＩＬＭ,,株式会社,東京都,渋谷区,道玄坂１丁目１０番８号渋谷道玄坂東急ビル２Ｆ－Ｃ,,13,113,1500043,,,,,,,2025-06-03,1,,,,,ジャムフィルム,0
523,3011001169894,新規,0,2025-06-03,2025-06-03,株式会社Ｒａｆｕ,,株式会社,東京都,渋谷区,代々木１丁目１６番２号アムール代々木１０２,,13,113,1510053,,,,,,,2025-06-03,1,,,,,ラフ,0
524,3011001170002,新規,0,2025-06-03,2025-06-03,株式会社ＡＥＲ,,株式会社,東京都,渋谷区,恵比寿西２丁目８番４号ＥＸ恵比寿西ビル５階,,13,113,1500021,,,,,,,2025-06-03,1,,,,,アエル,0
526,3011101111905,新規,0,2025-06-03,2025-06-03,株式会社Ｗｅａｌｔｈ　Ｏｆｆ,,株式会社,東京都,新宿区,西新宿８丁目１４番２７－２３０１号,,13,104,1600023,,,,,,,2025-06-03,1,,,,,ウェルスオフ,0
529,3011105011457,新規,0,2025-06-03,2025-06-03,弁護士法人美々,,その他の設立登記法人,東京都,新宿区,新宿５丁目１７番５号５階,,13,104,1600022,,,,,,,2025-06-03,1,,,,,ビビ,0
539,3011803006881,新規,0,2025-06-03,2025-06-03,ＳＫ合同会社,,合同会社,東京都,足立区,西新井本町１丁目２７番６号太平ビル２０２号室,,13,121,1230845,,,,,,,2025-06-03,1,,,,,エスケー,0
542,3012401043202,新規,0,2025-06-03,2025-06-03,株式会社Ｐｒｅｓｑｕｉｌｅ　Ｃａｃａｏ,,株式会社,東京都,武蔵野市,吉祥寺本町２丁目１５番１８号,,13,203,1800004,,,,,,,2025-06-03,1,,,,,プレスキルカカオ,0
547,3020003028562,新規,0,2025-06-03,2025-06-03,ミヤーズ合同会社,,合同会社,神奈川県,横浜市中区,不老町１丁目２－１中央第六関内ビル３０２号,,14,104,2310032,,,,,,,2025-06-03,1,,,,,ミヤーズ,0
560,3021001085380,新規,0,2025-06-03,2025-06-03,株式会社ワンルワルド,,株式会社,神奈川県,相模原市南区,古淵４丁目２７番５号,,14,153,2520344,,,,,,,2025-06-03,1,,,,,ワンルワルド,0
572,3030001166792,新規,0,2025-06-03,2025-06-03,株式会社ＩＭＢＫ,,株式会社,埼玉県,八潮市,八潮７丁目６番地９,,11,234,3400815,,,,,,,2025-06-03,1,,,,,アイエムビーケー,0
579,3030003026862,新規,0,2025-06-03,2025-06-03,未来ＳＯＬＵＴＩＯＮ合同会社,,合同会社,埼玉県,所沢市,緑町１丁目６番１０－５０２号,,11,208,3591111,,,,,,,2025-06-03,1,,,,,ミライソリューション,0
581,3040001138667,新規,0,2025-06-03,2025-06-03,株式会社河原工業,,株式会社,千葉県,四街道市,下志津新田２５２４－２４メテオールＡ２０３,,12,228,2840006,,,,,,,2025-06-03,1,,,,,カワハラコウギョウ,0
583,3040003027711,新規,0,2025-06-03,2025-06-03,Ｆａｍｉｌｌｅ合同会社,,合同会社,千葉県,成田市,上町８８８－１ラスパシオ３０４,,12,211,2860032,,,,,,,2025-06-03,1,,,,,ファミール,0
588,3060001038254,新規,0,2025-06-03,2025-06-03,株式会社プロテクトファーム,,株式会社,栃木県,大田原市,北滝１６５番地１,,09,210,3240224,,,,,,,2025-06-03,1,,,,,プロテクトファーム,0
591,3070005010398,新規,0,2025-06-03,2025-06-03,特定非営利活動法人しっぽの家族,,その他の設立登記法人,群馬県,前橋市,岩神町２丁目１番１１号,,10,201,3710035,,,,,,,2025-06-03,1,,,,,,0
595,3080401027945,新規,0,2025-06-03,2025-06-03,株式会社Ｇｒａｙ　ｃｒａｆｔ,,株式会社,静岡県,浜松市中央区,積志町１０６９番地の３,,22,138,4313114,,,,,,,2025-06-03,1,,,,,グレイクラフト,0
596,3080401027953,新規,0,2025-06-03,2025-06-03,松田建築株式会社,,株式会社,静岡県,浜松市中央区,下石田町１３３２番地の３,,22,138,4350006,,,,,,,2025-06-03,1,,,,,マツダケンチク,0
601,3100001038670,新規,0,2025-06-03,2025-06-03,株式会社中山商事,,株式会社,長野県,長野市,稲田１丁目３０番８号,,20,201,3810042,,,,,,,2025-06-03,1,,,,,ナカヤマショウジ,0
610,3120001276310,新規,0,2025-06-03,2025-06-03,水旺株式会社,,株式会社,大阪府,大阪市北区,大淀南２丁目６番１６号藤本ビル３０３号室,,27,127,5310075,,,,,,,2025-06-03,1,,,,,スイオウ,0
611,3120001276401,新規,0,2025-06-03,2025-06-03,多吉科技株式会社,,株式会社,大阪府,大阪市中央区,南久宝寺町２丁目５－３ときわビル５０２,,27,128,5410058,,,,,,,2025-06-03,1,,,,,タキチカギ,0
612,3120001276442,新規,0,2025-06-03,2025-06-03,株式会社アンジュール,,株式会社,大阪府,大阪市住吉区,万代３丁目３番２２号,,27,120,5580055,,,,,,,2025-06-03,1,,,,,アンジュール,0
615,3120003029609,新規,0,2025-06-03,2025-06-03,パラグアイフードエージェント合同会社,,合同会社,大阪府,大阪市天王寺区,空堀町１３‐２３花島ビル１Ｆ,,27,109,5430012,,,,,,,2025-06-03,1,,,,,パラグアイフードエージェント,0
616,3120003029666,新規,0,2025-06-03,2025-06-03,合同会社エイチケーアイ,,合同会社,大阪府,大阪市港区,築港２丁目６番８号,,27,107,5520021,,,,,,,2025-06-03,1,,,,,エイチケーアイ,0
617,3120005024970,新規,0,2025-06-03,2025-06-03,一般社団法人ＭｅＶｉＡ,,その他の設立登記法人,大阪府,大阪市西区,南堀江１丁目１４番１４号,,27,106,5500015,,,,,,,2025-06-03,1,,,,,メヴィア,0
618,3120101071792,新規,0,2025-06-03,2025-06-03,あさひ不動産ＨＣＰ株式会社,,株式会社,大阪府,堺市堺区,大浜南町２丁目５番１５号,,27,141,5900976,,,,,,,2025-06-03,1,,,,,アサヒフドウサンエイチシーピー,0
620,3120103006490,新規,0,2025-06-03,2025-06-03,緑源商事合同会社,,合同会社,大阪府,岸和田市,天神山町２丁目９番６－１０２号,,27,202,5960834,,,,,,,2025-06-03,1,,,,,リョクゲンショウジ,0
628,3120901050987,新規,0,2025-06-03,2025-06-03,テック鍛冶屋株式会社,,株式会社,大阪府,茨木市,中総持寺駅前町７番１８号,,27,211,5670000,,,,,,,2025-06-03,1,,,,,テックカジヤ,0
629,3120905006738,新規,0,2025-06-03,2025-06-03,一般社団法人近畿極真空手,,その他の設立登記法人,大阪府,吹田市,片山町４丁目１３番８号,,27,205,5640082,,,,,,,2025-06-03,1,,,,,キンキキョクシンカラテ,0
633,3122001039291,新規,0,2025-06-03,2025-06-03,株式会社エイト機工,,株式会社,大阪府,東大阪市,柏田本町４番１１号,,27,227,5770834,,,,,,,2025-06-03,1,,,,,エイトキコウ,0
639,3130001079786,新規,0,2025-06-03,2025-06-03,楽川株式会社,,株式会社,京都府,京都市左京区,岩倉花園町４８４番地２１－１０３号室,,26,103,6060024,,,,,,,2025-06-03,1,,,,,ラクガワ,0
643,3140001138772,新規,0,2025-06-03,2025-06-03,株式会社翔和工業,,株式会社,兵庫県,川西市,東久代１丁目４６３番地１,,28,217,6660023,,,,,,,2025-06-03,1,,,,,ショウワコウギョウ,0
644,3140003022132,新規,0,2025-06-03,2025-06-03,合同会社メシア,,合同会社,兵庫県,神戸市中央区,中山手通２丁目１２番１０号,,28,110,6500004,,,,,,,2025-06-03,1,,,,,メシア,0
661,3180001167074,新規,0,2025-06-03,2025-06-03,株式会社スピカ,,株式会社,愛知県,一宮市,柳戸町１丁目３０番地,,23,203,4910843,,,,,,,2025-06-03,1,,,,,スピカ,0
662,3180001167108,新規,0,2025-06-03,2025-06-03,株式会社Ｆｏｒｔｅｃｈ,,株式会社,愛知県,名古屋市中区,金山３丁目８番５号スカイカナヤマ６階,,23,106,4600022,,,,,,,2025-06-03,1,,,,,フォルテック,0
663,3180301039865,新規,0,2025-06-03,2025-06-03,株式会社Ｗｅｌｉｎａ,,株式会社,愛知県,額田郡幸田町,大字菱池字荒子９５番地１,,23,501,4440113,,,,,,,2025-06-03,1,,,,,ウェリナ,0
671,3220001026713,新規,0,2025-06-03,2025-06-03,株式会社ＢＥＭＢＥ‐ｉｓｍ,,株式会社,石川県,野々市市,扇が丘８番１５号竹内ビル２０１号,,17,212,9218812,,,,,,,2025-06-03,1,,,,,ベンベイムズ,0
672,3220001026721,新規,0,2025-06-03,2025-06-03,株式会社Ｃａｒマインド,,株式会社,石川県,金沢市,福増町北１３３２番地,,17,201,9200376,,,,,,,2025-06-03,1,,,,,カーマインド,0
673,3220003004048,新規,0,2025-06-03,2025-06-03,合同会社マイミッションコンサルティング,,合同会社,石川県,金沢市,材木町１５―４７,,17,201,9200921,,,,,,,2025-06-03,1,,,,,マイミッションコンサルティング,0
675,3230001020938,新規,0,2025-06-03,2025-06-03,株式会社ＭＩＭ,,株式会社,富山県,高岡市,蓮花寺６２８番地８,,16,202,9330802,,,,,,,2025-06-03,1,,,,,エムアイエム,0
681,3240003007239,新規,0,2025-06-03,2025-06-03,合同会社ＢＥＬＩＮ,,合同会社,広島県,広島市中区,立町３番２３号１階,,34,101,7300032,,,,,,,2025-06-03,1,,,,,ベリン,0
693,3290001110213,新規,0,2025-06-03,2025-06-03,株式会社ＮＥＸＥＡＴ,,株式会社,福岡県,福岡市博多区,中洲５丁目４番２３号ＴＭ－１５ビル２Ｆ,,40,132,8100801,,,,,,,2025-06-03,1,,,,,ネクシート,0
694,3290001110221,新規,0,2025-06-03,2025-06-03,雅国株式会社,,株式会社,福岡県,福岡市中央区,清川２丁目２番１８－８０４号エクシード南天神,,40,133,8100005,,,,,,,2025-06-03,1,,,,,ミヤビクニ,0
697,3290801031583,新規,0,2025-06-03,2025-06-03,職場のメンタルヘルス株式会社,,株式会社,福岡県,北九州市八幡西区,本城４丁目１番１２号,,40,109,8070801,,,,,,,2025-06-03,1,,,,,ショクバノメンタルヘルス,0
698,3290801031591,新規,0,2025-06-03,2025-06-03,鬼丸ホーム北九州南株式会社,,株式会社,福岡県,北九州市八幡西区,東曲里町２番２２号,,40,109,8060035,,,,,,,2025-06-03,1,,,,,オニマルホームキタキュウシュウミナミ,0
699,3300001014206,新規,0,2025-06-03,2025-06-03,Ａ‐Ｚ・ＳＡＮ株式会社,,株式会社,佐賀県,唐津市,北波多徳須恵１２７５番地１９,,41,202,8471201,,,,,,,2025-06-03,1,,,,,アーゼットサン,0
700,3300001014214,新規,0,2025-06-03,2025-06-03,株式会社Ｅ不動産,,株式会社,佐賀県,佐賀市,兵庫南１丁目３０番５号,,41,201,8490918,,,,,,,2025-06-03,1,,,,,イーフドウサン,0
701,3340001027360,新規,0,2025-06-03,2025-06-03,株式会社Ｎｏｕｍｅｎａ,,株式会社,鹿児島県,霧島市,国分野口西３０－３０－３,,46,218,8994343,,,,,,,2025-06-03,1,,,,,ヌメナ,0
702,3340001027377,新規,0,2025-06-03,2025-06-03,株式会社心体錬,,株式会社,鹿児島県,鹿屋市,札元１丁目５番３０ー１号,,46,203,8930013,,,,,,,2025-06-03,1,,,,,シンタイレン,0
703,3340001027385,新規,0,2025-06-03,2025-06-03,株式会社Ｈ２,,株式会社,鹿児島県,薩摩川内市,勝目町４１１２番地６,,46,215,8950031,,,,,,,2025-06-03,1,,,,,エイチツー,0
704,3350001019563,新規,0,2025-06-03,2025-06-03,株式会社ｃｏｍｐａｓｓ,,株式会社,宮崎県,宮崎市,中央通７番２号,,45,201,8800002,,,,,,,2025-06-03,1,,,,,コンパス,0
707,3360001035270,新規,0,2025-06-03,2025-06-03,ＭＡＥＫＡＷＡ株式会社,,株式会社,沖縄県,那覇市,久茂地１丁目１番１号９階,,47,201,9000015,,,,,,,2025-06-03,1,,,,,エムエーイーケーエーダブリューエー,0
708,3360003014982,新規,0,2025-06-03,2025-06-03,ＳＥＡＷＡＬＬＳ合同会社,,合同会社,沖縄県,中頭郡北谷町,字吉原７１４番地１,,47,326,9040105,,,,,,,2025-06-03,1,,,,,シーウォールズ,0
709,3370001052604,新規,0,2025-06-03,2025-06-03,サン・アーク・ラボ株式会社,,株式会社,宮城県,仙台市青葉区,中央３丁目３番３号,,04,101,9800021,,,,,,,2025-06-03,1,,,,,サンアークラボ,0
710,3370001052661,新規,0,2025-06-03,2025-06-03,株式会社ＣＬＡＮＯＭＩ,,株式会社,宮城県,仙台市青葉区,中山５丁目４番２７号,,04,101,9810952,,,,,,,2025-06-03,1,,,,,クラノミ,0
714,3430001094557,新規,0,2025-06-03,2025-06-03,株式会社ＳＴＲＡＡＬ,,株式会社,北海道,千歳市,清水町３丁目２９番地ホーマット千歳,,01,224,0660041,,,,,,,2025-06-03,1,,,,,ストラール,0
715,3430001094565,新規,0,2025-06-03,2025-06-03,Ｐｒｏｐｏｓａｌ　Ｂｅａｔ　Ｃｌａｓｓ株式会社,,株式会社,北海道,札幌市中央区,南八条西２０丁目１番２１－２０１号,,01,101,0640808,,,,,,,2025-06-03,1,,,,,プロポーザルビートクラス,0
720,3490001011069,新規,0,2025-06-03,2025-06-03,金丸不動産株式会社,,株式会社,高知県,高知市,廿代町１５番１９－２０８号,,39,201,7800843,,,,,,,2025-06-03,1,,,,,カナマルフドウサン,0
725,3500001026321,新規,0,2025-06-03,2025-06-03,株式会社ＮＦＧ,,株式会社,愛媛県,東温市,南方１５０番地５,,38,215,7910301,,,,,,,2025-06-03,1,,,,,エヌエフジー,0
728,3500003003525,新規,0,2025-06-03,2025-06-03,ナカガワパール合同会社,,合同会社,愛媛県,宇和島市,寄松甲４０７番地１,,38,203,7980084,,,,,,,2025-06-03,1,,,,,ナカガワパール,0
733,3700150130845,新規,0,2025-06-03,2025-06-03,Ｑｉ　Ｂｏ　ｃａｐｉｔａｌ　Ｌｉｍｉｔｅｄ,,外国会社等,,,,,,,,Ｃｒａｉｇｍｕｉｒ　Ｃｈａｍｂｅｒｓ　Ｒｏａｄ　Ｔｏｗｎ　Ｔｏｒｔｏｌａ　ＶＧ　１１１０，Ｂｒｉｔｉｓｈ　Ｖｉｒｇｉｎ　Ｉｓｌａｎｄｓ,,,,,,2025-06-03,1,,,,,キボキヤピタルリミテツド,0
734,3700150130853,新規,0,2025-06-03,2025-06-03,Ｂｌａｃｋｓｔｏｎｅ　Ｃａｐｉｔａｌ　Ｐａｒｔｎｅｒｓ　Ａｓｉａ　ＮＱ　Ｌ．Ｐ．,,外国会社等,,,,,,,,Ｏｎｅ　Ｎｅｘｕｓ　Ｗａｙ，Ｃａｍａｎａ　Ｂａｙ，Ｇｒａｎｄ　Ｃａｙｍａｎ　ＫＹ１－９００５,,,,,,2025-06-03,1,,,,,ブラツクストーンキヤピタルパートナーズアジアエヌキユーエルピー,0
740,4010001255415,新規,0,2025-06-03,2025-06-03,株式会社ＲｉｎｇＧｒｏｗ,,株式会社,東京都,中央区,銀座１丁目１２－４Ｎ＆ＥＢＬＤ．７階,,13,102,1040061,,,,,,,2025-06-03,1,,,,,リングロウ,0
741,4010001255547,新規,0,2025-06-03,2025-06-03,株式会社Ｍｅｄｉａ　Ｃａｓｔｌｅ　Ｊａｐａｎ,,株式会社,東京都,千代田区,紀尾井町３番１２号紀尾井町ビル１８階,,13,101,1020094,,,,,,,2025-06-03,1,,,,,メディアキャッスルジャパン,0
744,4010003047513,新規,0,2025-06-03,2025-06-03,衆工国際合同会社,,合同会社,東京都,千代田区,神田小川町３丁目２８番１３－７０９号,,13,101,1010052,,,,,,,2025-06-03,1,,,,,シュウコウコクサイ,0
758,4010403035266,新規,0,2025-06-03,2025-06-03,ジー・エイ・ワン・レジデンス・テン合同会社１,,合同会社,東京都,港区,虎ノ門５丁目１番４号,,13,103,1050001,,,,,,,2025-06-03,1,,,,,ジーエイワンレジデンステンイチ,0
760,4010701047764,新規,0,2025-06-03,2025-06-03,株式会社Ｐｅｒｅｎｎｉａｌ　Ｆｉｔｎｅｓｓ,,株式会社,東京都,品川区,東中延１丁目９－１３ザ・パークハビオ荏原中延駅前１Ｆ,,13,109,1420052,,,,,,,2025-06-03,1,,,,,ペレニアルフィットネス,0
761,4010701047780,新規,0,2025-06-03,2025-06-03,株式会社グッゲンハイム商会,,株式会社,東京都,品川区,小山７丁目１７番１２号,,13,109,1420062,,,,,,,2025-06-03,1,,,,,グッゲンハイムショウカイ,0
766,4010801036188,新規,0,2025-06-03,2025-06-03,株式会社セレスト,,株式会社,東京都,大田区,東海３丁目２番７号,,13,111,1430001,,,,,,,2025-06-03,1,,,,,セレスト,0
770,4010903009975,新規,0,2025-06-03,2025-06-03,コアラボ合同会社,,合同会社,東京都,世田谷区,太子堂４丁目１８番１５号マガザン三軒茶屋２・３Ｆ‐３,,13,112,1540004,,,,,,,2025-06-03,1,,,,,コアラボ,0
777,4011001170265,新規,0,2025-06-03,2025-06-03,株式会社ＷＡＮ　ＬＩＮＫ,,株式会社,東京都,渋谷区,恵比寿３丁目４５番２－９０４号,,13,113,1500013,,,,,,,2025-06-03,1,,,,,ワンリンク,0
785,4011003021656,新規,0,2025-06-03,2025-06-03,合同会社リアラクト,,合同会社,東京都,渋谷区,千駄ヶ谷５丁目３２－５ＧＳハイム新宿南口４０２,,13,113,1510051,,,,,,,2025-06-03,1,,,,,リアラクト,0
792,4011101111912,新規,0,2025-06-03,2025-06-03,Ａｎｄｅｓ　Ｓｈｏｊｉ　Ｊａｐａｎ株式会社,,株式会社,東京都,新宿区,新宿１丁目３６－２新宿第七葉山ビル３Ｆ,,13,104,1600022,,,,,,,2025-06-03,1,,,,,アンデスショウジジャパン,0
793,4011101111920,新規,0,2025-06-03,2025-06-03,株式会社Ｔｅｎ　Ｓｔａｔｅｓ,,株式会社,東京都,新宿区,高田馬場２丁目１５番２号成陽ビル３階,,13,104,1690075,,,,,,,2025-06-03,1,,,,,テンステイツ,0
798,4011103015970,新規,0,2025-06-03,2025-06-03,合同会社Ｃ’ｅｓｔ　ｌａ　ｖｉｅ,,合同会社,東京都,新宿区,西新宿７丁目１８－５Ｖｏｒｔ西新宿５０２,,13,104,1600023,,,,,,,2025-06-03,1,,,,,セラヴィ,0
802,4011203004717,新規,0,2025-06-03,2025-06-03,合同会社エナジー,,合同会社,東京都,中野区,中野１丁目１６番１０号ＵｎＲｅｖｅＮａｋａｎｏ１０１,,13,114,1640001,,,,,,,2025-06-03,1,,,,,エナジー,0
803,4011303005581,新規,0,2025-06-03,2025-06-03,ｇｏｍａｋｉｎａ．ｃｏｍ合同会社,,合同会社,東京都,杉並区,今川３丁目１６－１３,,13,115,1670035,,,,,,,2025-06-03,1,,,,,ゴマキナドットコム,0
810,4012403007162,新規,0,2025-06-03,2025-06-03,Ｃｒｉｍｂｉｎｇ　ｓｋｉｌｌ合同会社,,合同会社,東京都,狛江市,和泉本町１丁目３５－７－１２０１,,13,219,2010003,,,,,,,2025-06-03,1,,,,,クライミングスキル,0
815,4013301054354,新規,0,2025-06-03,2025-06-03,Ｒｕｌｅ　Ｂｏｏｋ株式会社,,株式会社,東京都,豊島区,駒込７丁目１０番２号,,13,116,1700003,,,,,,,2025-06-03,1,,,,,ルールブック,0
820,4020001163146,新規,0,2025-06-03,2025-06-03,株式会社Ｋａｏｒｕ　Ｅｄｕｃａｒｅ,,株式会社,神奈川県,横浜市鶴見区,北寺尾５丁目６番１５－１０４号,,14,101,2300074,,,,,,,2025-06-03,1,,,,,カオルエデュカーレ,0
821,4020001163162,新規,0,2025-06-03,2025-06-03,株式会社ＯＮＥＣＵＴ,,株式会社,神奈川県,川崎市高津区,久地３丁目１６－６ガーデンアクアスＢ４０５,,14,134,2130032,,,,,,,2025-06-03,1,,,,,ワンカット,0
831,4021001085413,新規,0,2025-06-03,2025-06-03,イーストフォレストプランニング株式会社,,株式会社,神奈川県,相模原市南区,東林間６丁目１２番４６－３号,,14,153,2520311,,,,,,,2025-06-03,1,,,,,イーストフォレストプランニング,0
837,4030001166882,新規,0,2025-06-03,2025-06-03,株式会社コンサル・タカハシ一級建築士事務所,,株式会社,埼玉県,さいたま市大宮区,桜木町１丁目２６６番３号３０７号室,,11,103,3300854,,,,,,,2025-06-03,1,,,,,コンサルタカハシイッキュウケンチクシジムショ,0
840,4030003026878,新規,0,2025-06-03,2025-06-03,ＡＦＺＡＬ　ＲＡＪ　ＴＲＡＤＩＮＧ合同会社,,合同会社,埼玉県,八潮市,中央３丁目１７番地１５メゾンヤシオ２０７,,11,234,3400816,,,,,,,2025-06-03,1,,,,,アフザルラジトレーディング,0
845,4040001139029,新規,0,2025-06-03,2025-06-03,株式会社Ｋ’Ｓ,,株式会社,千葉県,柏市,東上町２番２８号第一水戸屋ビル３Ｆ,,12,217,2770011,,,,,,,2025-06-03,1,,,,,ケーズ,0
846,4040001139061,新規,0,2025-06-03,2025-06-03,株式会社モノマケ,,株式会社,千葉県,船橋市,飯山満町２丁目６５０番地３０,,12,204,2740822,,,,,,,2025-06-03,1,,,,,モノマケ,0
854,4050005013641,新規,0,2025-06-03,2025-06-03,農事組合法人ＫＥＫ未来筑西桜川,,その他の設立登記法人,茨城県,筑西市,門井１７０５番地,,08,227,3091107,,,,,,,2025-06-03,1,,,,,ケーイーケーミライチクセイサクラガワ,0
858,4060003005573,新規,0,2025-06-03,2025-06-03,合同会社あさのあ,,合同会社,栃木県,宇都宮市,錦２丁目４番１６号,,09,201,3210967,,,,,,,2025-06-03,1,,,,,アサノア,0
861,4080001026958,新規,0,2025-06-03,2025-06-03,株式会社ＳＫＣＳ,,株式会社,静岡県,静岡市清水区,袖師町６０３－１,,22,103,4240037,,,,,,,2025-06-03,1,,,,,エスケイシーエス,0
862,4080001026974,新規,0,2025-06-03,2025-06-03,牧之原侍セブン株式会社,,株式会社,静岡県,牧之原市,堀野新田４６２番地１,,22,226,4210534,,,,,,,2025-06-03,1,,,,,マキノハラサムライセブン,0
866,4080401027944,新規,0,2025-06-03,2025-06-03,小西電気株式会社,,株式会社,静岡県,掛川市,高瀬２１１４番地の２,,22,213,4371401,,,,,,,2025-06-03,1,,,,,コニシデンキ,0
867,4080401027952,新規,0,2025-06-03,2025-06-03,株式会社だいにんぐ,,株式会社,静岡県,浜松市中央区,楊子町５５２番地の２,,22,138,4300855,,,,,,,2025-06-03,1,,,,,ダイニング,0
869,4090003002832,新規,0,2025-06-03,2025-06-03,合同会社ハイパーおもちゃラボ,,合同会社,山梨県,富士吉田市,小明見５丁目３番１２号,,19,202,4030002,,,,,,,2025-06-03,1,,,,,ハイパーオモチャラボ,0
871,4100001038653,新規,0,2025-06-03,2025-06-03,Ａｌｌ　Ｓｅａｓｏｎｓ　Ｉｎｖｅｓｔｍｅｎｔｓ株式会社,,株式会社,長野県,飯山市,大字飯山１１４９２番地３３１,,20,213,3892253,,,,,,,2025-06-03,1,,,,,オールシーズンズインベストメンツ,0
873,4110001039287,新規,0,2025-06-03,2025-06-03,ｓｏｅ株式会社,,株式会社,新潟県,長岡市,喜多町２９４９番地,,15,202,9402121,,,,,,,2025-06-03,1,,,,,ソーイ,0
881,4120001276326,新規,0,2025-06-03,2025-06-03,昊坤株式会社,,株式会社,大阪府,大阪市中央区,安土町２丁目４－１１シティタワー大阪本町１８０５号室,,27,128,5410052,,,,,,,2025-06-03,1,,,,,コウコン,0
882,4120001276334,新規,0,2025-06-03,2025-06-03,中天株式会社,,株式会社,大阪府,大阪市住之江区,御崎１丁目１１番１９号インキュセンタービル３０９号室,,27,125,5590013,,,,,,,2025-06-03,1,,,,,チュウテン,0
883,4120001276400,新規,0,2025-06-03,2025-06-03,三木株式会社,,株式会社,大阪府,大阪市港区,港晴４丁目９－５、２階,,27,107,5520023,,,,,,,2025-06-03,1,,,,,ミキ,0
884,4120001276425,新規,0,2025-06-03,2025-06-03,ＮＲＫ株式会社,,株式会社,大阪府,大阪市西成区,橘３丁目１０番７号,,27,122,5570051,,,,,,,2025-06-03,1,,,,,エヌアールケイ,0
885,4120001276433,新規,0,2025-06-03,2025-06-03,金鳥株式会社,,株式会社,大阪府,大阪市東淀川区,大道南３丁目４番２６－２０２号,,27,114,5330012,,,,,,,2025-06-03,1,,,,,キンチョウ,0
889,4120003029590,新規,0,2025-06-03,2025-06-03,合同会社シエル,,合同会社,大阪府,大阪市生野区,田島４丁目５－９,,27,116,5440011,,,,,,,2025-06-03,1,,,,,シエル,0
897,4120901050978,新規,0,2025-06-03,2025-06-03,株式会社大誠,,株式会社,大阪府,茨木市,野々宮２丁目１５番５号,,27,211,5670847,,,,,,,2025-06-03,1,,,,,タイセイ,0
898,4120901050986,新規,0,2025-06-03,2025-06-03,株式会社７１,,株式会社,大阪府,吹田市,片山町４丁目３３番４１号,,27,205,5640082,,,,,,,2025-06-03,1,,,,,ナナイチ,0
906,4122001039290,新規,0,2025-06-03,2025-06-03,株式会社ＨＡＮＡ,,株式会社,大阪府,八尾市,北本町１丁目４番２３号,,27,212,5810802,,,,,,,2025-06-03,1,,,,,ハナ,0
909,4130001079777,新規,0,2025-06-03,2025-06-03,株式会社Ｆａｔ　Ｃｒｏｗ,,株式会社,京都府,京都市中京区,河原町通二条下る一之船入町３７６,,26,104,6040924,,,,,,,2025-06-03,1,,,,,ファットクロウ,0
911,4140001138771,新規,0,2025-06-03,2025-06-03,株式会社岸下,,株式会社,兵庫県,姫路市,白浜町神田２丁目９番地３,,28,201,6728011,,,,,,,2025-06-03,1,,,,,キシシタ,0
921,4180001167024,新規,0,2025-06-03,2025-06-03,ＰＡＲＫ株式会社,,株式会社,愛知県,名古屋市千種区,松軒１丁目１番２６号１階,,23,101,4640084,,,,,,,2025-06-03,1,,,,,パーク,0
924,4180301039864,新規,0,2025-06-03,2025-06-03,株式会社ＳＡＫＡ空,,株式会社,愛知県,額田郡幸田町,大字野場字清水１４番地,,23,501,4440128,,,,,,,2025-06-03,1,,,,,サカクウ,0
930,4200003006854,新規,0,2025-06-03,2025-06-03,合同会社Ｔ・ＳＳＨＯＰ,,合同会社,岐阜県,岐阜市,美殿町１３番地２,,21,201,5008182,,,,,,,2025-06-03,1,,,,,ティーエスショップ,0
935,4230001020945,新規,0,2025-06-03,2025-06-03,株式会社建築工房室谷,,株式会社,富山県,富山市,飯野２６番地２１,,16,201,9300821,,,,,,,2025-06-03,1,,,,,ケンチクコウボウムロタニ,0
939,4240001064974,新規,0,2025-06-03,2025-06-03,株式会社リブリス,,株式会社,広島県,広島市中区,大手町１丁目１番１７号相生橋ビル７階Ａ号室,,34,101,7300051,,,,,,,2025-06-03,1,,,,,リブリス,0
940,4240001065015,新規,0,2025-06-03,2025-06-03,株式会社リベルタ,,株式会社,広島県,安芸郡海田町,日の出町４番７号,,34,304,7360035,,,,,,,2025-06-03,1,,,,,リベルタ,0
941,4240001065023,新規,0,2025-06-03,2025-06-03,株式会社八百屋,,株式会社,広島県,広島市中区,新天地５番１３号,,34,101,7300034,,,,,,,2025-06-03,1,,,,,ヤオヤ,0
942,4240001065031,新規,0,2025-06-03,2025-06-03,ＢＢ‐ＣＲＡＦＴ株式会社,,株式会社,広島県,広島市西区,上天満町１０番５－２１０号,,34,104,7330021,,,,,,,2025-06-03,1,,,,,ビービークラフト,0
943,4240003007238,新規,0,2025-06-03,2025-06-03,合同会社ｋｏｔｔｅｎ,,合同会社,広島県,広島市中区,大手町３丁目２番２０号安芸ビル２０１,,34,101,7300051,,,,,,,2025-06-03,1,,,,,コッテン,0
955,4290801031590,新規,0,2025-06-03,2025-06-03,ねこまるホーム株式会社,,株式会社,福岡県,北九州市小倉南区,上葛原１丁目１０番４２号,,40,107,8000255,,,,,,,2025-06-03,1,,,,,ネコマルホーム,0
957,4300001014213,新規,0,2025-06-03,2025-06-03,ＫＡＭＳ株式会社,,株式会社,佐賀県,杵島郡江北町,大字佐留志６９７番地１,,41,424,8490502,,,,,,,2025-06-03,1,,,,,カムス,0
959,4320003004680,新規,0,2025-06-03,2025-06-03,Ｋｒｅｉｚ合同会社,,合同会社,大分県,宇佐市,大字四日市３５１１番地の１,,44,211,8790471,,,,,,,2025-06-03,1,,,,,クレイズ,0
965,4350003004942,新規,0,2025-06-03,2025-06-03,合同会社夕鳥,,合同会社,宮崎県,日南市,中平野２丁目８－１８－２,,45,204,8870016,,,,,,,2025-06-03,1,,,,,ユウドリ,0
970,4360003014973,新規,0,2025-06-03,2025-06-03,合同会社玄功社,,合同会社,沖縄県,那覇市,首里池端町３４番地比嘉ビル２階,,47,201,9030824,,,,,,,2025-06-03,1,,,,,,0
972,4370001052636,新規,0,2025-06-03,2025-06-03,株式会社木工房瑞,,株式会社,宮城県,石巻市,北上町十三浜字長塩谷５０番地,,04,202,9860201,,,,,,,2025-06-03,1,,,,,モクコウボウミツ,0
973,4370001052644,新規,0,2025-06-03,2025-06-03,ＪＰＮ　ＰＲＯ　ＥＸＰＥＲＴ株式会社,,株式会社,宮城県,仙台市宮城野区,中野字柳原１８番地の５,,04,102,9830013,,,,,,,2025-06-03,1,,,,,ジャパンプロエキスパート,0
975,4380001035359,新規,0,2025-06-03,2025-06-03,株式会社田巻工業,,株式会社,福島県,郡山市,日和田町字沼田１３番地の１２,,07,203,9630534,,,,,,,2025-06-03,1,,,,,タマキコウギョウ,0
977,4390003002397,新規,0,2025-06-03,2025-06-03,合同会社ｔｅｒｒａｃｅ,,合同会社,山形県,山形市,江南２丁目９番１３号,,06,201,9900863,,,,,,,2025-06-03,1,,,,,テラス,0
980,4420001019167,新規,0,2025-06-03,2025-06-03,株式会社ｎｉｃｈｉ,,株式会社,青森県,弘前市,大字取上２丁目８番地６,,02,202,0368171,,,,,,,2025-06-03,1,,,,,ニチ,0
986,4430001094548,新規,0,2025-06-03,2025-06-03,株式会社アグニ,,株式会社,北海道,札幌市清田区,清田１９０番地１,,01,110,0040859,,,,,,,2025-06-03,1,,,,,アグニ,0
988,4430005015244,新規,0,2025-06-03,2025-06-03,一般社団法人札幌公共嘱託登記司法書士協会,,その他の設立登記法人,北海道,札幌市中央区,南一条東１丁目３番地,,01,101,0600051,,,,,,,2025-06-03,1,,,,,サッポロコウキョウショクタクトウキシホウショシキョウカイ,0
989,4470003002892,新規,0,2025-06-03,2025-06-03,合同会社大海,,合同会社,香川県,高松市,新北町９番３号,,37,201,7600001,,,,,,,2025-06-03,1,,,,,,0
994,4500001026320,新規,0,2025-06-03,2025-06-03,株式会社なないろ,,株式会社,愛媛県,松山市,二番町２丁目７番地１５吉田ビル３階,,38,201,7900002,,,,,,,2025-06-03,1,,,,,ナナイロ,0
995,4500003003524,新規,0,2025-06-03,2025-06-03,Ｔｏｙ　Ｅｖｅｒ合同会社,,合同会社,愛媛県,大洲市,平野町野田乙６９４―２,,38,207,7950021,,,,,,,2025-06-03,1,,,,,トイエバー,0
998,4700150130844,新規,0,2025-06-03,2025-06-03,Ｓｕｎ　Ｙｅ　Ｃｏｍｐａｎｙ　Ｌｉｍｉｔｅｄ,,外国会社等,,,,,,,,２３ｒｄ　Ｆｌｏｏｒ，Ｔｗｏ　Ｉｎｔｅｒｎａｔｉｏｎａｌ　Ｆｉｎａｎｃｅ　Ｃｅｎｔｒｅ，８　Ｆｉｎａｎｃｅ　Ｓｔｒｅｅｔ，Ｃｅｎｔｒａｌ，Ｈｏｎｇ　Ｋｏｎｇ,,,,,,2025-06-03,1,,,,,スンイエカンパニーリミテツド,0
999,4700150130852,新規,0,2025-06-03,2025-06-03,ＢＣＰ　ＶＩＩＩ　Ｏｎｔａｒｉｏ　Ｈｏｌｄｉｎｇｓ（ＤＥ）ＡＩＶ－Ｆ　Ｌ．Ｌ．Ｃ．,00139381,外国会社等,,,,,,,,２００　Ｂｅｌｌｅｖｕｅ　Ｐａｒｋｗａｙ，Ｓｕｉｔｅ　２１０，Ｗｉｌｍｉｎｇｔｏｎ，Ｄｅｌａｗａｒｅ　１９８０９,,,,,,2025-06-03,1,,,,,ビーシーピーハチオンタリオホールデイングスデイーイーエーアイブイエフエルエルシー,0
1007,5010001255629,新規,0,2025-06-03,2025-06-03,株式会社タイズパートナー,,株式会社,東京都,千代田区,神田須田町１丁目７番８号,,13,101,1010041,,,,,,,2025-06-03,1,,,,,タイズパートナー,0
1010,5010003047495,新規,0,2025-06-03,2025-06-03,Ｓａｋｕｒａ　Ｂａｔｔｅｒｙ合同会社,,合同会社,東京都,千代田区,霞が関３丁目２番５号,,13,101,1000013,,,,,,,2025-06-03,1,,,,,サクラバッテリー,0
1011,5010003047520,新規,0,2025-06-03,2025-06-03,ＰＣＬ　Ｊａｐａｎ合同会社,,合同会社,東京都,千代田区,霞が関３丁目２番６号東京倶楽部ビルディング１１階,,13,101,1000013,,,,,,,2025-06-03,1,,,,,ピーシーエルジャパン,0
1012,5010003047537,新規,0,2025-06-03,2025-06-03,合同会社スーロ,,合同会社,東京都,千代田区,神田和泉町１番地６－１６ヤマトビル４０５,,13,101,1010024,,,,,,,2025-06-03,1,,,,,スーロ,0
1013,5010003047553,新規,0,2025-06-03,2025-06-03,六ヶ所村蓄電所合同会社,,合同会社,東京都,千代田区,神田練塀町３番地,,13,101,1010022,,,,,,,2025-06-03,1,,,,,ロッカショムラチクデンショ,0
1014,5010003047561,新規,0,2025-06-03,2025-06-03,ＰＭＡＴ合同会社,,合同会社,東京都,中央区,銀座１丁目２２番１１号銀座大竹ビジデンス２Ｆ,,13,102,1040061,,,,,,,2025-06-03,1,,,,,ピーエムエーティー,0
1017,5010101016708,新規,0,2025-06-03,2025-06-03,株式会社リノベートホールディングス,,株式会社,東京都,八王子市,館町２８００番地,,13,201,1930944,,,,,,,2025-06-03,1,,,,,リノベートホールディングス,0
1026,5010405024448,新規,0,2025-06-03,2025-06-03,ジー・エイ・ワン・レジデンス・イレブン一般社団法人,,その他の設立登記法人,東京都,港区,虎ノ門５丁目１番４号,,13,103,1050001,,,,,,,2025-06-03,1,,,,,ジーエイワンレジデンスイレブン,0
1027,5010405024456,新規,0,2025-06-03,2025-06-03,一般社団法人アルテミスＳＰＣホールディングス,,その他の設立登記法人,東京都,港区,芝大門２丁目１２番３号共生ビル２号館７階,,13,103,1050012,,,,,,,2025-06-03,1,,,,,アルテミスエスピーシーホールディングス,0
1034,5010603011603,新規,0,2025-06-03,2025-06-03,ＳＫ合同会社,,合同会社,東京都,墨田区,押上３丁目１１－１６ｎｏｖｅｍＯＳＨＩＡＧＥ３０２号室,,13,107,1310045,,,,,,,2025-06-03,1,,,,,エスケー,0
1035,5010701047788,新規,0,2025-06-03,2025-06-03,株式会社Ｓ,,株式会社,東京都,品川区,平塚１丁目７－６－５０２,,13,109,1420051,,,,,,,2025-06-03,1,,,,,エス,0
1039,5011003021655,新規,0,2025-06-03,2025-06-03,後藤商事合同会社,,合同会社,東京都,渋谷区,神南１丁目１１－４ＦＰＧリンクス神南５階,,13,113,1500041,,,,,,,2025-06-03,1,,,,,ゴトウショウジ,0
1044,5011101111845,新規,0,2025-06-03,2025-06-03,匯豐株式会社,00139414,株式会社,東京都,新宿区,富久町３２－３東新富久町ビル３０２号室,,13,104,1620067,,,,,,,2025-06-03,1,,,,,カイホウ,0
1045,5011101111878,新規,0,2025-06-03,2025-06-03,思照社流日本株式会社,,株式会社,東京都,新宿区,市谷本村町２番３号,,13,104,1620845,,,,,,,2025-06-03,1,,,,,シテシャルニホン,0
1048,5011201026381,新規,0,2025-06-03,2025-06-03,株式会社サニーエステート,,株式会社,東京都,中野区,野方１丁目２２番１１号,,13,114,1650027,,,,,,,2025-06-03,1,,,,,サニーエステート,0
1053,5011301030622,新規,0,2025-06-03,2025-06-03,株式会社Ｍｅｔａｍｏｒｙ,,株式会社,東京都,杉並区,下井草１丁目８－１３,,13,115,1670022,,,,,,,2025-06-03,1,,,,,メタモリー,0
1054,5011401027015,新規,0,2025-06-03,2025-06-03,株式会社ＥＮＤＵＲＡＮＣＥ,,株式会社,東京都,板橋区,大山金井町８－８ＫＤＸレジデンス大山１２０５,,13,119,1730024,,,,,,,2025-06-03,1,,,,,エンドゥランス,0
1058,5011503006560,新規,0,2025-06-03,2025-06-03,ＥＭＩＫＡ合同会社,,合同会社,東京都,北区,浮間１丁目８番２－５０２号,,13,117,1150051,,,,,,,2025-06-03,1,,,,,エミカ,0
1060,5011701028373,新規,0,2025-06-03,2025-06-03,雲のスピンネーカー株式会社,,株式会社,東京都,江戸川区,江戸川６丁目４０番１４－１１０号,,13,123,1340013,,,,,,,2025-06-03,1,,,,,クモノスピンネーカー,0
1063,5011801046226,新規,0,2025-06-03,2025-06-03,Ｙｕｕｍｉバイオテック株式会社,,株式会社,東京都,足立区,本木西町９番９号,,13,121,1230856,,,,,,,2025-06-03,1,,,,,ユーミーバイオテック,0
1076,5020001162997,新規,0,2025-06-03,2025-06-03,株式会社ワーク・パレット,,株式会社,神奈川県,横浜市神奈川区,金港町５－１４クアドリフォリオ８階,,14,102,2210056,,,,,,,2025-06-03,1,,,,,ワークパレット,0
1077,5020001163104,新規,0,2025-06-03,2025-06-03,株式会社越智タオル,,株式会社,神奈川県,横浜市西区,浅間町１丁目４－３－４０２,,14,103,2200072,,,,,,,2025-06-03,1,,,,,オチタオル,0
1085,5020003028602,新規,0,2025-06-03,2025-06-03,合同会社ｂｌａｎｃ　ｐｏｃｏ　ｈｔ,,合同会社,神奈川県,川崎市幸区,大宮町２８番地２ブリリアタワー川崎２６０４,,14,132,2120014,,,,,,,2025-06-03,1,,,,,ブランポコエイチティー,0
1097,5030003026877,新規,0,2025-06-03,2025-06-03,合同会社ホープ,,合同会社,埼玉県,狭山市,富士見１丁目３－１０,,11,215,3501306,,,,,,,2025-06-03,1,,,,,ホープ,0
1098,5030003026902,新規,0,2025-06-03,2025-06-03,合同会社Ｌｕｎｅｔｔａ,,合同会社,埼玉県,北葛飾郡杉戸町,内田４丁目２－４,,11,464,3450035,,,,,,,2025-06-03,1,,,,,ルネッタ,0
1104,5040001138995,新規,0,2025-06-03,2025-06-03,サムライ・ジャパン株式会社,,株式会社,千葉県,船橋市,三咲町１４３番地２４,,12,204,2740811,,,,,,,2025-06-03,1,,,,,サムライジャパン,0
1105,5040001139028,新規,0,2025-06-03,2025-06-03,株式会社Ｈｏｕｓｅ　ｆｉｘ,,株式会社,千葉県,白井市,西白井２丁目２１番地２４,,12,232,2701408,,,,,,,2025-06-03,1,,,,,ハウスフィックス,0
1106,5040001139036,新規,0,2025-06-03,2025-06-03,株式会社Ｓｃｉｏｎ　Ｐｒｏｇｒｅｓｓ,,株式会社,千葉県,市川市,相之川１丁目１０番３０号,,12,203,2720143,,,,,,,2025-06-03,1,,,,,サイオンプログレス,0
1114,5060005010348,新規,0,2025-06-03,2025-06-03,一般社団法人黄仁会,,その他の設立登記法人,栃木県,佐野市,植下町１１６４番地１,,09,204,3270835,,,,,,,2025-06-03,1,,,,,コウジンカイ,0
1123,5080003003467,新規,0,2025-06-03,2025-06-03,合同会社ＴＲＩＡＤ,,合同会社,静岡県,静岡市清水区,真砂町６番２０号,,22,103,4240816,,,,,,,2025-06-03,1,,,,,トライアド,0
1126,5080401027943,新規,0,2025-06-03,2025-06-03,株式会社中村建築,,株式会社,静岡県,掛川市,和光１丁目１番地の５,,22,213,4360338,,,,,,,2025-06-03,1,,,,,ナカムラケンチク,0
1127,5100003008199,新規,0,2025-06-03,2025-06-03,ステムセル合同会社,,合同会社,長野県,諏訪市,諏訪２丁目１４番３１号,,20,206,3920004,,,,,,,2025-06-03,1,,,,,ステムセル,0
1132,5110005017239,新規,0,2025-06-03,2025-06-03,行政書士法人安心相続,,その他の設立登記法人,新潟県,村上市,三之町９番３８号,,15,212,9580837,,,,,,,2025-06-03,1,,,,,アンシンソウゾク,0
1140,5120001276341,新規,0,2025-06-03,2025-06-03,株式会社ちょうどＥ,,株式会社,大阪府,大阪市生野区,巽東２丁目５番１６号,00139413,27,116,5440014,,,,,,,2025-06-03,1,,,,,チョウドイー,0
1141,5120001276390,新規,0,2025-06-03,2025-06-03,株式会社ジャパンピュアイノベーション,,株式会社,大阪府,大阪市東住吉区,桑津５丁目３番１１号,,27,121,5460041,,,,,,,2025-06-03,1,,,,,ジャパンピュアイノベーション,0
1142,5120001276416,新規,0,2025-06-03,2025-06-03,新宇投資株式会社,,株式会社,大阪府,大阪市東成区,神路１丁目１４－２４シャトー宝栄１０１号,,27,115,5370003,,,,,,,2025-06-03,1,,,,,シンウトウシ,0
1143,5120001276432,新規,0,2025-06-03,2025-06-03,義広株式会社,,株式会社,大阪府,大阪市城東区,鴫野西５丁目１５番７－３１５号,,27,118,5360014,,,,,,,2025-06-03,1,,,,,リンコウ,0
1152,5120003029607,新規,0,2025-06-03,2025-06-03,合同会社４Ｕトレーディング,,合同会社,大阪府,大阪市中央区,瓦町２丁目３番１５号３０１,,27,128,5410048,,,,,,,2025-06-03,1,,,,,フォーユートレーディング,0
1153,5120003029631,新規,0,2025-06-03,2025-06-03,合同会社ＭＫ２,,合同会社,大阪府,大阪市鶴見区,横堤１丁目２－１１,,27,124,5380052,,,,,,,2025-06-03,1,,,,,エムケーツー,0
1154,5120003029648,新規,0,2025-06-03,2025-06-03,合同会社サイド,,合同会社,大阪府,大阪市西淀川区,柏里１丁目２番１２－１０６号,,27,113,5550022,,,,,,,2025-06-03,1,,,,,サイド,0
1155,5120005024969,新規,0,2025-06-03,2025-06-03,一般社団法人咲花会,,その他の設立登記法人,大阪府,大阪市西区,九条１丁目１５番１８号九条現代ｂｌｄｇ３階,,27,106,5500027,,,,,,,2025-06-03,1,,,,,サクハナカイ,0
1157,5120103006489,新規,0,2025-06-03,2025-06-03,福瑞達合同会社,,合同会社,大阪府,岸和田市,天神山町２丁目９番６号１０８号室,,27,202,5960834,,,,,,,2025-06-03,1,,,,,フクスイタツ,0
1163,5130001079792,新規,0,2025-06-03,2025-06-03,ＵＷＡＮＴ友望株式会社,,株式会社,京都府,京都市伏見区,深草下川原町３７番地４７川崎マンション１０１号室,,26,109,6128401,,,,,,,2025-06-03,1,,,,,ユーワントユウボウ,0
1164,5130001079801,新規,0,2025-06-03,2025-06-03,株式会社織宝,,株式会社,京都府,京都市北区,大宮東小野堀町１９番地１,,26,101,6038406,,,,,,,2025-06-03,1,,,,,オリホウ,0
1172,5140001138663,新規,0,2025-06-03,2025-06-03,株式会社あるま,,株式会社,兵庫県,神戸市西区,櫨谷町栃木１４４－３－１０５号,,28,111,6512236,,,,,,,2025-06-03,1,,,,,アルマ,0
1177,5140003022122,新規,0,2025-06-03,2025-06-03,合同会社Ｈｏｌｄ　Ｈａｎｄｓ,,合同会社,兵庫県,神戸市垂水区,桃山台２丁目１１８８番地の４１,,28,108,6550854,,,,,,,2025-06-03,1,,,,,ホールドハンズ,0
1178,5140003022155,新規,0,2025-06-03,2025-06-03,合同会社ウエルネストラスト,,合同会社,兵庫県,神戸市中央区,神仙寺通２丁目１番２４－２号,,28,110,6510051,,,,,,,2025-06-03,1,,,,,ウエルネストラスト,0
1181,5150001028178,新規,0,2025-06-03,2025-06-03,株式会社ＨｉＢｅｅ．,,株式会社,奈良県,五條市,野原町１００９番地,,29,207,6370034,,,,,,,2025-06-03,1,,,,,ハイビー,0
1184,5180001167080,新規,0,2025-06-03,2025-06-03,株式会社ＣＲＥＡ,,株式会社,愛知県,名古屋市昭和区,神村町１丁目１０番地の１グローリー神村２０５号,,23,107,4660802,,,,,,,2025-06-03,1,,,,,クレア,0
1185,5180001167171,新規,0,2025-06-03,2025-06-03,株式会社バーミリオン,,株式会社,愛知県,小牧市,大字村中２７４６番地１,,23,219,4850082,,,,,,,2025-06-03,1,,,,,バーミリオン,0
1189,5180003028561,新規,0,2025-06-03,2025-06-03,合同会社Ｔ＆Ｙ,,合同会社,愛知県,名古屋市守山区,桜坂５丁目６２６番地,,23,113,4630018,,,,,,,2025-06-03,1,,,,,ティーアンドワイ,0
1191,5180301039871,新規,0,2025-06-03,2025-06-03,小笠原味淋醸造株式会社,,株式会社,愛知県,碧南市,弥生町４丁目２１番地,,23,209,4470814,,,,,,,2025-06-03,1,,,,,オガサワラミリンジョウゾウ,0
1200,5200001043849,新規,0,2025-06-03,2025-06-03,Ｔ＆Ｍ株式会社,,株式会社,岐阜県,大垣市,本町１丁目６８番地,,21,202,5030885,,,,,,,2025-06-03,1,,,,,ティーアンドエム,0
1202,5200003006853,新規,0,2025-06-03,2025-06-03,合同会社ＳＵＭＩ企画,,合同会社,岐阜県,岐阜市,岩井３丁目６番１６号,,21,201,5013101,,,,,,,2025-06-03,1,,,,,スミキカク,0
1203,5200003006861,新規,0,2025-06-03,2025-06-03,合同会社Ｗｅｂ　Ｕｐ,,合同会社,岐阜県,高山市,荘川町町屋３７９番地,,21,203,5015416,,,,,,,2025-06-03,1,,,,,ウェブアップ,0
1205,5210001020194,新規,0,2025-06-03,2025-06-03,ＫＵ‐Ｄｒｉｖｅ株式会社,,株式会社,福井県,福井市,西開発３丁目２１０番地,,18,201,9100843,,,,,,,2025-06-03,1,,,,,ケーユードライブ,0
1211,5240001065022,新規,0,2025-06-03,2025-06-03,株式会社ＫＩＳＳＥＴＵ,,株式会社,広島県,広島市安佐南区,八木９丁目９番１６号,,34,105,7310101,,,,,,,2025-06-03,1,,,,,キッセツ,0
1212,5240001065030,新規,0,2025-06-03,2025-06-03,株式会社ＤＫＳコンサルティング,,株式会社,広島県,広島市南区,宇品西１丁目１番２５号,,34,103,7340014,,,,,,,2025-06-03,1,,,,,ディーケイエスコンサルティング,0
1213,5240001065039,新規,0,2025-06-03,2025-06-03,株式会社里の環,,株式会社,広島県,広島市東区,光町１丁目１２番１６号広島ビル６階,,34,102,7320052,,,,,,,2025-06-03,1,,,,,サトノワ,0
1215,5240003007237,新規,0,2025-06-03,2025-06-03,合同会社ｇｌａｓｓｅｓ,,合同会社,広島県,東広島市,西条町御薗宇５１６６番地６,,34,212,7390024,,,,,,,2025-06-03,1,,,,,グラス,0
1233,5320001021132,新規,0,2025-06-03,2025-06-03,株式会社まだ,,株式会社,大分県,佐伯市,春日町８番２６号,,44,205,8760806,,,,,,,2025-06-03,1,,,,,マダ,0
1258,5370001052635,新規,0,2025-06-03,2025-06-03,株式会社エスメイト,,株式会社,宮城県,仙台市若林区,遠見塚２丁目１番６号ピエスラルジュ２０３号,,04,103,9840823,,,,,,,2025-06-03,1,,,,,エスメイト,0
1269,5430003017720,新規,0,2025-06-03,2025-06-03,合同会社希,,合同会社,北海道,北広島市,大曲光４丁目１１番地８,,01,234,0611277,,,,,,,2025-06-03,1,,,,,ノゾミ,0
1270,5430003017729,新規,0,2025-06-03,2025-06-03,合同会社Ｕｍｉｎｅａ,,合同会社,北海道,苫小牧市,新中野町３丁目１８番２０－１０１号,,01,213,0530006,,,,,,,2025-06-03,1,,,,,ウミネア,0
1274,5700150130851,新規,0,2025-06-03,2025-06-03,Ｂｌａｃｋｓｔｏｎｅ　Ｃａｐｉｔａｌ　Ｐａｒｔｎｅｒｓ（ＣＹＭ）ＶＩＩＩ　ＡＩＶ－Ｆ　Ｌ．Ｐ．,00139380,外国会社等,,,,,,,,Ｏｎｅ　Ｎｅｘｕｓ　Ｗａｙ，Ｃａｍａｎａ　Ｂａｙ，Ｇｒａｎｄ　Ｃａｙｍａｎ　ＫＹ１－９００５,,,,,,2025-06-03,1,,,,,ブラツクストーンキヤピタルパートナーズシーワイエムハチエーアイブイエフエルピー,0
1275,5700150130901,新規,0,2025-06-03,2025-06-03,相続財産法人　被相続人橋之口勝,,その他,大阪府,大阪市鶴見区,今津北４丁目９番２７－２１０,,27,124,5380041,,,,,,,2025-06-03,1,,,,,ソウゾクザイサンホウジンヒソウゾクニンハシノグチマサル,0
1281,6010001255545,新規,0,2025-06-03,2025-06-03,一陽株式会社,,株式会社,東京都,文京区,白山１丁目６番４－Ａ２８,,13,105,1130001,,,,,,,2025-06-03,1,,,,,イチヨウ,0
1282,6010001255578,新規,0,2025-06-03,2025-06-03,Ｆｉｎｄ　Ｆｏｃｕｓ株式会社,,株式会社,東京都,千代田区,富士見１丁目３－１１富士見デュープレックスＢ’ｓ４Ｆ,,13,101,1020071,,,,,,,2025-06-03,1,,,,,ファインドフォーカス,0
1283,6010001255594,新規,0,2025-06-03,2025-06-03,協和ホールディングス株式会社,,株式会社,東京都,千代田区,神田須田町１丁目２番地１,,13,101,1010041,,,,,,,2025-06-03,1,,,,,キョウワホールディングス,0
1286,6010003047528,新規,0,2025-06-03,2025-06-03,こみら合同会社,,合同会社,東京都,中央区,銀座１丁目１２―４Ｎ＆Ｅ．ＢＬＤ．７階,,13,102,1040061,,,,,,,2025-06-03,1,,,,,コミラ,0
1293,6010403035173,新規,0,2025-06-03,2025-06-03,ＴＯＰ　ＩＫＥＢＵＫＵＲＯ合同会社,,合同会社,東京都,港区,虎ノ門４丁目３番１号城山トラストタワー２７階,,13,103,1050001,,,,,,,2025-06-03,1,,,,,トップイケブクロ,0
1294,6010405024447,新規,0,2025-06-03,2025-06-03,ジー・エイ・ワン・レジデンス・テン一般社団法人,,その他の設立登記法人,東京都,港区,虎ノ門５丁目１番４号,,13,103,1050001,,,,,,,2025-06-03,1,,,,,ジーエイワンレジデンステン,0
1295,6010405024455,新規,0,2025-06-03,2025-06-03,一般社団法人アポロンＳＰＣホールディングス,,その他の設立登記法人,東京都,港区,芝大門２丁目１２番３号共生ビル２号館７階,,13,103,1050012,,,,,,,2025-06-03,1,,,,,アポロンエスピーシーホールディングス,0
1299,6010605004463,新規,0,2025-06-03,2025-06-03,一般社団法人みんなの留学部,,その他の設立登記法人,東京都,墨田区,向島５丁目４３番１４－６０３号,,13,107,1310033,,,,,,,2025-06-03,1,,,,,ミンナノリュウガクブ,0
1303,6010801036194,新規,0,2025-06-03,2025-06-03,ココリエ株式会社,,株式会社,東京都,大田区,中央５丁目１８番１号,,13,111,1430024,,,,,,,2025-06-03,1,,,,,ココリエ,0
1304,6010901057470,新規,0,2025-06-03,2025-06-03,忠政株式会社,,株式会社,東京都,世田谷区,中町３丁目１－３リバティ等々力４０６号,,13,112,1580091,,,,,,,2025-06-03,1,,,,,チュウセイ,0
1305,6010901057479,新規,0,2025-06-03,2025-06-03,株式会社ＫＯＮＯＨＡ,,株式会社,東京都,世田谷区,玉堤１丁目８番１４－２０７号,,13,112,1580087,,,,,,,2025-06-03,1,,,,,コノハ,0
1314,6011105011438,新規,0,2025-06-03,2025-06-03,特定非営利活動法人メンタルヘルス環境向上プロジェクト,,その他の設立登記法人,東京都,新宿区,西新宿３丁目３番１３号新宿水間ビル６階,,13,104,1600023,,,,,,,2025-06-03,1,,,,,メンタルヘルスカンキョウコウジョウプロジェクト,0
1315,6011201026380,新規,0,2025-06-03,2025-06-03,立川清登音楽事務所株式会社,,株式会社,東京都,中野区,東中野４丁目７番２０号,,13,114,1640003,,,,,,,2025-06-03,1,,,,,タチカワスミトオンガクジムショ,0
1318,6011501032161,新規,0,2025-06-03,2025-06-03,株式会社Ｈｙｋｅ．,,株式会社,東京都,北区,滝野川３丁目４８番１－６１５号,,13,117,1140023,,,,,,,2025-06-03,1,,,,,ハイク,0
1322,6011701028389,新規,0,2025-06-03,2025-06-03,スリーライン株式会社,,株式会社,東京都,江戸川区,篠崎町７丁目１番１号,,13,123,1330061,,,,,,,2025-06-03,1,,,,,スリーライン,0
1325,6011801046241,新規,0,2025-06-03,2025-06-03,小松株式会社,,株式会社,東京都,足立区,江北３丁目３０－１８,,13,121,1230872,,,,,,,2025-06-03,1,,,,,コマツ,0
1340,6020003028601,新規,0,2025-06-03,2025-06-03,合同会社龍力,,合同会社,神奈川県,横浜市港北区,岸根町５３５番地１ロワール岸根公園４０７,,14,109,2220034,,,,,,,2025-06-03,1,,,,,タツリキ,0
1341,6020003028626,新規,0,2025-06-03,2025-06-03,合同会社ＬＴＭＭ,,合同会社,神奈川県,横浜市西区,北幸２丁目１０番４８号むつみビル３階,,14,103,2200004,,,,,,,2025-06-03,1,,,,,エルティーエムエム,0
1344,6021001085238,新規,0,2025-06-03,2025-06-03,株式会社ＯｐｅｎＴｒｙ,,株式会社,神奈川県,相模原市中央区,矢部４丁目２番１６号,,14,152,2520232,,,,,,,2025-06-03,1,,,,,オープントライ,0
1345,6021001085378,新規,0,2025-06-03,2025-06-03,株式会社Ｄａｙａｎ’ｓ　Ｏｎｌｉｎｅ　Ｓｈｏｐ,,株式会社,神奈川県,相模原市緑区,下九沢１５８４番地１１,,14,151,2520134,,,,,,,2025-06-03,1,,,,,ダイアンズオンラインショップ,0
1349,6021003016075,新規,0,2025-06-03,2025-06-03,合同会社光和,,合同会社,神奈川県,相模原市南区,相模大野５丁目２８番地２２号モンテ・リサイア相模大野２０５号室,,14,153,2520303,,,,,,,2025-06-03,1,,,,,コウワ,0
1353,6030001166757,新規,0,2025-06-03,2025-06-03,菱山塗装工業株式会社,,株式会社,埼玉県,入間市,狭山台１丁目１２番８号,,11,225,3580033,,,,,,,2025-06-03,1,,,,,ヒシヤマトソウコウギョウ,0
1360,6040001138994,新規,0,2025-06-03,2025-06-03,株式会社ｙａｙａ　ｔｏｒｅｎｏ,,株式会社,千葉県,成田市,並木町１４３番地１４７,,12,211,2860045,,,,,,,2025-06-03,1,,,,,ヤヤトレノ,0
1361,6040001139027,新規,0,2025-06-03,2025-06-03,株式会社ヨシダガーデン,,株式会社,千葉県,市川市,福栄４丁目６番２１号,,12,203,2720137,,,,,,,2025-06-03,1,,,,,ヨシダガーデン,0
1362,6040003027650,新規,0,2025-06-03,2025-06-03,合同会社ハマルーム,,合同会社,千葉県,船橋市,坪井東１丁目２９―１０,,12,204,2740060,,,,,,,2025-06-03,1,,,,,ハマルーム,0
1363,6040003027733,新規,0,2025-06-03,2025-06-03,合同会社有機・産業,,合同会社,千葉県,市原市,小谷田２５４番地,,12,219,2900529,,,,,,,2025-06-03,1,,,,,ユウキサンギョウ,0
1384,6120001276365,新規,0,2025-06-03,2025-06-03,株式会社ＳＥＲＥＮＯＶＡ,,株式会社,大阪府,大阪市浪速区,難波中１丁目３－１ＲＥ－０１６－６０２号室,,27,111,5560011,,,,,,,2025-06-03,1,,,,,セレノヴァ,0
1385,6120001276407,新規,0,2025-06-03,2025-06-03,テラリソース株式会社,,株式会社,大阪府,大阪市生野区,中川西１丁目１７番１０号２Ｃ,,27,116,5440032,,,,,,,2025-06-03,1,,,,,テラリソース,0
1387,6120003029639,新規,0,2025-06-03,2025-06-03,合同会社Ｒｏａｍａｓ,,合同会社,大阪府,大阪市北区,梅田１丁目１－３大阪駅前第３ビル２９階１－１－１号室,,27,127,5300001,,,,,,,2025-06-03,1,,,,,ロマズ,0
1389,6120103006488,新規,0,2025-06-03,2025-06-03,偉業建築合同会社,,合同会社,大阪府,岸和田市,天神山町２丁目９番６号２０４号室,,27,202,5960834,,,,,,,2025-06-03,1,,,,,イギョウケンチク,0
1392,6120901050984,新規,0,2025-06-03,2025-06-03,ＡＩサービス株式会社,,株式会社,大阪府,高槻市,成合北の町８７３番地,,27,207,5691017,,,,,,,2025-06-03,1,,,,,アイサービス,0
1397,6120903005697,新規,0,2025-06-03,2025-06-03,合同会社ＪＥＴ,,合同会社,大阪府,吹田市,清和園町１６番１１号１０３,,27,205,5640039,,,,,,,2025-06-03,1,,,,,ジェット,0
1403,6130001079800,新規,0,2025-06-03,2025-06-03,株式会社ライズセキュリティ,,株式会社,京都府,京都市伏見区,竹田田中宮町９１番地ＩＮＡＫビルＩＩ３０２号,00139405,26,109,6128444,,,,,,,2025-06-03,1,,,,,ライズセキュリティ,0
1408,6140001138778,新規,0,2025-06-03,2025-06-03,株式会社シラカワ,,株式会社,兵庫県,神戸市須磨区,白川台４丁目２７番１０号,,28,107,6540103,,,,,,,2025-06-03,1,,,,,シラカワ,0
1417,6170001018647,新規,0,2025-06-03,2025-06-03,株式会社ＲＩＰＰＬＥ,,株式会社,和歌山県,和歌山市,園部１６７２番地３５,,30,201,6408483,,,,,,,2025-06-03,1,,,,,リップル,0
1421,6180001167105,新規,0,2025-06-03,2025-06-03,株式会社ＰＥＡＣＥ　ＷＯＲＬＤ,,株式会社,愛知県,春日井市,如意申町７丁目１０番地７,,23,206,4860918,,,,,,,2025-06-03,1,,,,,ピースワールド,0
1431,6200001043815,新規,0,2025-06-03,2025-06-03,株式会社ジャパンサプライチェーンロジセントラル,,株式会社,岐阜県,羽島市,舟橋町１８８番,,21,209,5016302,,,,,,,2025-06-03,1,,,,,ジャパンサプライチェーンロジセントラル,0
1432,6200001043856,新規,0,2025-06-03,2025-06-03,株式会社ライフサポート優,,株式会社,岐阜県,各務原市,那加桐野町１丁目１５２番地１,,21,213,5040008,,,,,,,2025-06-03,1,,,,,ライフサポートユウ,0
1436,6210001020193,新規,0,2025-06-03,2025-06-03,株式会社三栄建設,,株式会社,福井県,大野市,松丸第２９号２５番地１,,18,205,9120136,,,,,,,2025-06-03,1,,,,,ミツエケンセツ,0
1438,6210003001927,新規,0,2025-06-03,2025-06-03,Ｗｏｏｄｓｍａｌｌ合同会社,,合同会社,福井県,鯖江市,西大井町第８号７番地,,18,207,9160078,,,,,,,2025-06-03,1,,,,,ウッズモール,0
1439,6220001026727,新規,0,2025-06-03,2025-06-03,株式会社湯川左官,,株式会社,石川県,白山市,宮永市町３０２番地１,,17,210,9240016,,,,,,,2025-06-03,1,,,,,ユカワサカン,0
1440,6220003004053,新規,0,2025-06-03,2025-06-03,Ｉｎｆｉｎｉｔｙ　Ｓｔｙｌｅ　Ｊａｐａｎ合同会社,,合同会社,石川県,白山市,横江町２８９番地４,,17,210,9240011,,,,,,,2025-06-03,1,,,,,インフィニティースタイルジャパン,0
1443,6230001020935,新規,0,2025-06-03,2025-06-03,Ｎｉａｚｉ　Ｉｎｔｅｒｎａｔｉｏｎａｌ株式会社,,株式会社,富山県,射水市,寺塚原３６６番地,,16,211,9340056,,,,,,,2025-06-03,1,,,,,ニアズィインターナショナル,0
1445,6240001065038,新規,0,2025-06-03,2025-06-03,株式会社越智設備興業,,株式会社,広島県,安芸郡熊野町,出来庭１丁目９番１号,,34,307,7314221,,,,,,,2025-06-03,1,,,,,オチセツビコウギョウ,0
1448,6240005015947,新規,0,2025-06-03,2025-06-03,特定非営利活動法人フィリア,,その他の設立登記法人,広島県,尾道市,瀬戸田町林１２８８番地６,,34,205,7222416,,,,,,,2025-06-03,1,,,,,フィリア,0
1449,6250001021171,新規,0,2025-06-03,2025-06-03,萩の華貿易株式会社,,株式会社,山口県,萩市,大字平安古町１７３番地１,,35,204,7580074,,,,,,,2025-06-03,1,,,,,ハギノハナボウエキ,0
1452,6260001040245,新規,0,2025-06-03,2025-06-03,株式会社ＳＡＮＡＥ,,株式会社,岡山県,倉敷市,児島味野上２丁目７番１７号,,33,202,7110917,,,,,,,2025-06-03,1,,,,,サナエ,0
1456,6270002001765,新規,0,2025-06-03,2025-06-03,有限会社林洋品店,,有限会社,鳥取県,鳥取市,川端５丁目２０７番地,,31,201,6800036,,,,,,,2025-06-03,1,,,,,ハヤシヨウヒンテン,0
1458,6280001009437,新規,0,2025-06-03,2025-06-03,日本ルミナス株式会社,,株式会社,島根県,浜田市,原井町１０１９番地１５,,32,202,6970017,,,,,,,2025-06-03,1,,,,,ニホンルミナス,0
1463,6290001110185,新規,0,2025-06-03,2025-06-03,株式会社ＳＯＲＡ総建,,株式会社,福岡県,福岡市中央区,小笹３丁目１８番４０号,,40,133,8100033,,,,,,,2025-06-03,1,,,,,,0
1464,6290001110202,新規,0,2025-06-03,2025-06-03,株式会社ＲｏｙａｌＦａｉｒｙＭａｓｏｎｓ,,株式会社,福岡県,福岡市博多区,博多駅南４丁目１２番３－３０６号,,40,132,8120016,,,,,,,2025-06-03,1,,,,,,0
1465,6290001110219,新規,0,2025-06-03,2025-06-03,株式会社Ｇｏｏｄ　Ｔｈｏｍａｓ,,株式会社,福岡県,福岡市博多区,博多駅東１丁目９番１号ＰＡビル２階,,40,132,8120013,,,,,,,2025-06-03,1,,,,,グッドトーマス,0
1466,6290003016926,新規,0,2025-06-03,2025-06-03,ＲＥＤ　ＬＯＴＵＳ合同会社,,合同会社,福岡県,福岡市城南区,別府３丁目２番３５号,,40,136,8140104,,,,,,,2025-06-03,1,,,,,レッドロータス,0
1473,6290801031589,新規,0,2025-06-03,2025-06-03,株式会社すいげつ,,株式会社,福岡県,北九州市門司区,元清滝５番２２号,,40,101,8010832,,,,,,,2025-06-03,1,,,,,スイゲツ,0
1474,6290803005070,新規,0,2025-06-03,2025-06-03,合同会社スタジオはっぴぃ,,合同会社,福岡県,直方市,大字植木１１６７番地２,,40,204,8220031,,,,,,,2025-06-03,1,,,,,スタジオハッピィ,0
1477,6310001019630,新規,0,2025-06-03,2025-06-03,株式会社ＳＴＯＲＡＧＥ,,株式会社,長崎県,長崎市,三景台町１５番１１号,,42,201,8500824,,,,,,,2025-06-03,1,,,,,ストレージ,0
1490,6370001052642,新規,0,2025-06-03,2025-06-03,株式会社エクシーズ,,株式会社,宮城県,柴田郡柴田町,大字船岡字若葉町１番地３、１０２号,,04,323,9891606,,,,,,,2025-06-03,1,,,,,エクシーズ,0
1491,6370001052650,新規,0,2025-06-03,2025-06-03,アトリエＨＫ株式会社,,株式会社,宮城県,多賀城市,町前３丁目２番９号,,04,209,9850845,,,,,,,2025-06-03,1,,,,,アトリエエイチケイ,0
1500,6390001018006,新規,0,2025-06-03,2025-06-03,シマヅインテリア株式会社,,株式会社,山形県,天童市,北久野本１丁目２番２１号,,06,210,9940011,,,,,,,2025-06-03,1,,,,,シマヅインテリア,0
1504,6400003003474,新規,0,2025-06-03,2025-06-03,合同会社豆の器,,合同会社,岩手県,盛岡市,中央通３丁目１４番１７－２０１号,,03,201,0200021,,,,,,,2025-06-03,1,,,,,マメノキ,0
1512,6430003017728,新規,0,2025-06-03,2025-06-03,合同会社翔馬,,合同会社,北海道,滝川市,一の坂町西３丁目１１４番地１,,01,225,0730017,,,,,,,2025-06-03,1,,,,,ショウマ,0
1516,6490001011066,新規,0,2025-06-03,2025-06-03,株式会社Ｌｕｎｅｌｌｅ,,株式会社,高知県,高知市,桟橋通４丁目１３番２４号,,39,201,7818010,,,,,,,2025-06-03,1,,,,,ルネル,0
1520,6700150130850,新規,0,2025-06-03,2025-06-03,Ｂｌａｃｋｓｔｏｎｅ　Ｈｏｌｄｉｎｇｓ　ＩＶ　Ｌ．Ｐ．,00139379,外国会社等,,,,,,,,１　Ｐｌａｃｅ　Ｖｉｌｌｅ　Ｍａｒｉｅ，３７ｔｈ　Ｆｌｏｏｒ　Ｍｏｎｔｒｅａｌ，Ｑｕｅｂｅｃ　Ｈ３Ｂ　３Ｐ４　Ｃａｎａｄａ,,,,,,2025-06-03,1,,,,,ブラツクストーンホールデイングスヨンエルピー,0
1521,6700150130900,新規,0,2025-06-03,2025-06-03,地縁団体・海田自治会,,その他,岡山県,美作市,海田２３２３－１,,33,215,7070044,,,,,,,2025-06-03,1,,,,,チエンダンタイカイタジチカイ,0
1532,7010001255486,新規,0,2025-06-03,2025-06-03,日本ロジソリューションズ株式会社,,株式会社,東京都,中央区,日本橋人形町２丁目１６番７号,,13,102,1030013,,,,,,,2025-06-03,1,,,,,ニホンロジソリューションズ,0
1533,7010001255627,新規,0,2025-06-03,2025-06-03,株式会社ＲＯＤＥＯ　ＪＰＮ,,株式会社,東京都,千代田区,神田多町２丁目２番地３元気ビル４階,,13,101,1010046,,,,,,,2025-06-03,1,,,,,ロデオジャパン,0
1537,7010005040125,新規,0,2025-06-03,2025-06-03,一般社団法人藤友侍,,その他の設立登記法人,東京都,中央区,日本橋１丁目４番１号,,13,102,1030027,,,,,,,2025-06-03,1,,,,,フジトモザムライ,0
1538,7010005040133,新規,0,2025-06-03,2025-06-03,エヌベース特定目的会社,,その他の設立登記法人,東京都,千代田区,平河町１丁目６番１５号シルスフィア会計事務所内,,13,101,1020093,,,,,,,2025-06-03,1,,,,,エヌベース,0
1546,7010401190721,新規,0,2025-06-03,2025-06-03,株式会社ｓｃｏｐｅ,,株式会社,東京都,港区,南青山３丁目１番３６号青山丸竹ビル６Ｆ,,13,103,1070062,,,,,,,2025-06-03,1,,,,,スコープ,0
1554,7010901057478,新規,0,2025-06-03,2025-06-03,株式会社Ｔｈｒｅｅ　Ａｍｂｉｔｉｏｎ,,株式会社,東京都,世田谷区,新町１丁目２９番９号－２,,13,112,1540014,,,,,,,2025-06-03,1,,,,,スリーアンビション,0
1555,7010901057494,新規,0,2025-06-03,2025-06-03,ｙｂｔ．株式会社,,株式会社,東京都,世田谷区,東玉川２丁目１５－８ＤｅＬＣＣＵＳ田園調布３０３,,13,112,1580084,,,,,,,2025-06-03,1,,,,,ワイビーティー,0
1557,7010905004781,新規,0,2025-06-03,2025-06-03,一般財団法人横山科学技術育英財団,,その他の設立登記法人,東京都,世田谷区,等々力７丁目１７番２４号,,13,112,1580082,,,,,,,2025-06-03,1,,,,,ヨコヤマカガクギジュツイクエイザイダン,0
1564,7011001169767,新規,0,2025-06-03,2025-06-03,株式会社ＨＯＲＵＫＥＲＵ,,株式会社,東京都,渋谷区,神宮前６丁目９番４号和秀ビル２Ｆ,,13,113,1500001,,,,,,,2025-06-03,1,,,,,ホルケル,0
1565,7011001169890,新規,0,2025-06-03,2025-06-03,株式会社アイビー,,株式会社,東京都,渋谷区,円山町５番３号ＭＩＥＵＸ渋谷ビル８階,,13,113,1500044,,,,,,,2025-06-03,1,,,,,アイビー,0
1566,7011001169957,新規,0,2025-06-03,2025-06-03,株式会社ＬＵＸＡＲＥ,,株式会社,東京都,渋谷区,恵比寿４丁目９番９号恵比寿Ｋビル２階,,13,113,1500013,,,,,,,2025-06-03,1,,,,,ラクシェア,0
1570,7011103015968,新規,0,2025-06-03,2025-06-03,Ａｄｖａｎｃｉｎｇ合同会社,,合同会社,東京都,新宿区,山吹町１６番地３－６０５号,,13,104,1620801,,,,,,,2025-06-03,1,,,,,アドバンシング,0
1572,7011203004722,新規,0,2025-06-03,2025-06-03,合同会社雲台,,合同会社,東京都,中野区,東中野１丁目１番２号プライマリービル４Ｆ－Ａ,,13,114,1640003,,,,,,,2025-06-03,1,,,,,ウンダイ,0
1574,7011303005579,新規,0,2025-06-03,2025-06-03,合同会社Ｌｉｔ　ＩＮＳ,,合同会社,東京都,杉並区,成田東５丁目４０－１２－１０２,,13,115,1660015,,,,,,,2025-06-03,1,,,,,,0
1582,7011801046232,新規,0,2025-06-03,2025-06-03,株式会社ＹＳＫ,,株式会社,東京都,葛飾区,東四つ木２丁目２１番１０－７１１号,,13,122,1240014,,,,,,,2025-06-03,1,,,,,ワイエスケイ,0
1587,7012403007168,新規,0,2025-06-03,2025-06-03,ＳＫＳ合同会社,,合同会社,東京都,狛江市,西野川１丁目１３番５号シルバーピアのがわ１０１,,13,219,2010001,,,,,,,2025-06-03,1,,,,,エスケーエス,0
1588,7012405005120,新規,0,2025-06-03,2025-06-03,一般社団法人ＳｍｉＲｉｎｇ　Ｒｙｕｇａｋｕ,,その他の設立登記法人,東京都,小金井市,貫井北町３丁目１４番エステートピア貫井北町１０２,,13,210,1840015,,,,,,,2025-06-03,1,,,,,スマリングリュウガク,0
1602,7020001163151,新規,0,2025-06-03,2025-06-03,株式会社善工,,株式会社,神奈川県,横浜市鶴見区,寺谷１丁目１８番１８号の２Ｆ,,14,101,2300015,,,,,,,2025-06-03,1,,,,,ゼンコウ,0
1604,7020003028625,新規,0,2025-06-03,2025-06-03,合同会社Ｙｕｌｉｅ,,合同会社,神奈川県,横浜市都筑区,茅ケ崎中央２１―７コントレイル１Ｆ,,14,118,2240032,,,,,,,2025-06-03,1,,,,,ユリー,0
1605,7020003028641,新規,0,2025-06-03,2025-06-03,ＳｈｉｒｏｈｉｇｅＷｏｒｋｓ合同会社,,合同会社,神奈川県,横浜市西区,浅間町１丁目４番３号ウィザードビル４０２,,14,103,2200072,,,,,,,2025-06-03,1,,,,,シロヒゲワークス,0
1614,7030001069190,新規,0,2025-06-03,2025-06-03,オサダ設計株式会社,,株式会社,埼玉県,鶴ヶ島市,富士見４丁目２７番７号,,11,241,3502201,,,,,,,2025-06-03,1,,,,,オサダセッケイ,0
1618,7030001166665,新規,0,2025-06-03,2025-06-03,ガトメレグローバル株式会社,,株式会社,埼玉県,草加市,原町３丁目１９番２８号,,11,221,3400048,,,,,,,2025-06-03,1,,,,,ガトメレグローバル,0
1627,7040001138993,新規,0,2025-06-03,2025-06-03,株式会社イージーカートウキョウ,,株式会社,千葉県,香取郡多古町,島１９７６－１,,12,347,2892243,,,,,,,2025-06-03,1,,,,,イージーカートウキョウ,0
1628,7040001139059,新規,0,2025-06-03,2025-06-03,株式会社ＧＬＯＢＡＬ　ＰＯＳＳＥ,,株式会社,千葉県,成田市,並木町１６７番地１１ラミエ並木２０１号,,12,211,2860045,,,,,,,2025-06-03,1,,,,,グローバルポッセ,0
1641,7080001026963,新規,0,2025-06-03,2025-06-03,株式会社Ｊ．Ｒ．Ｆ,,株式会社,静岡県,藤枝市,高洲８１番地の１２,,22,214,4260046,,,,,,,2025-06-03,1,,,,,ジェイアールエフ,0
1647,7080403005276,新規,0,2025-06-03,2025-06-03,合同会社ＧＲＡＰＨ,,合同会社,静岡県,浜松市中央区,富塚町９１９番地の４１７クレセントヒル２０３,,22,138,4328002,,,,,,,2025-06-03,1,,,,,グラフ,0
1658,7120001276372,新規,0,2025-06-03,2025-06-03,株式会社エクボラボ,,株式会社,大阪府,大阪市西淀川区,千舟２丁目１５番２号パッサージュＩＩ３０６号室,00139404,27,113,5550013,,,,,,,2025-06-03,1,,,,,エクボラボ,0
1659,7120001276406,新規,0,2025-06-03,2025-06-03,パナソニックエレクトリックワークス株式会社,,株式会社,大阪府,門真市,大字門真１０４８番地,,27,223,5710050,,,,,,,2025-06-03,1,,,,,パナソニックエレクトリックワークス,0
1660,7120001276430,新規,0,2025-06-03,2025-06-03,中金江海株式会社,,株式会社,大阪府,大阪市中央区,南久宝寺町２丁目５－３ときわビル４０２,,27,128,5410058,,,,,,,2025-06-03,1,,,,,チュウキンコウカイ,0
1661,7120001276455,新規,0,2025-06-03,2025-06-03,金鼎株式会社,,株式会社,大阪府,大阪市生野区,桃谷３丁目８番８号,,27,116,5440034,,,,,,,2025-06-03,1,,,,,キンテイ,0
1664,7120003029613,新規,0,2025-06-03,2025-06-03,合同会社ＴＨＡＮＨ　ＨＩＥＮ,,合同会社,大阪府,大阪市生野区,中川東１丁目２－３号,,27,116,5440006,,,,,,,2025-06-03,1,,,,,タインヒエン,0
1665,7120005024959,新規,0,2025-06-03,2025-06-03,一般社団法人ＪＡＰＡＮ　ＮＡＴＩＯＮＡＬ　ＰＯＷＥＲ,,その他の設立登記法人,大阪府,大阪市北区,天神橋３丁目６番２６号扇町パークビル７階,,27,127,5300041,,,,,,,2025-06-03,1,,,,,ジャパンナショナルパワー,0
1670,7120901050967,新規,0,2025-06-03,2025-06-03,ささきランド株式会社,,株式会社,大阪府,茨木市,上中条１丁目８番３４号,,27,211,5670881,,,,,,,2025-06-03,1,,,,,ササキランド,0
1671,7120903005696,新規,0,2025-06-03,2025-06-03,ユーマ合同会社,,合同会社,大阪府,箕面市,瀬川１丁目１番１１号,,27,220,5620045,,,,,,,2025-06-03,1,,,,,ユーマ,0
1676,7130001079799,新規,0,2025-06-03,2025-06-03,株式会社振サポ,,株式会社,京都府,京都市下京区,二帖半敷町６４７番地２オンリー烏丸ビル,,26,106,6008412,,,,,,,2025-06-03,1,,,,,フリサポ,0
1679,7140001138686,新規,0,2025-06-03,2025-06-03,株式会社ＴＡＫＡＹＯ　ＳＴＲＥＥＴ,,株式会社,兵庫県,姫路市,白浜町寺家１丁目５５番地,,28,201,6728012,,,,,,,2025-06-03,1,,,,,タカヨストリート,0
1680,7140001138769,新規,0,2025-06-03,2025-06-03,ＴｈｒｅｅＭ’ｓ株式会社,,株式会社,兵庫県,神戸市長田区,松野通２丁目２番３４号,,28,106,6530841,,,,,,,2025-06-03,1,,,,,スリーエムズ,0
1682,7140003022120,新規,0,2025-06-03,2025-06-03,のもダチ合同会社,,合同会社,兵庫県,尼崎市,塚口町１丁目８番２号,,28,202,6610002,,,,,,,2025-06-03,1,,,,,ノモダチ,0
1686,7150001028168,新規,0,2025-06-03,2025-06-03,株式会社エヌワークス,,株式会社,奈良県,生駒郡平群町,吉新３丁目８番２６号,,29,342,6360932,,,,,,,2025-06-03,1,,,,,エヌワークス,0
1687,7150003003623,新規,0,2025-06-03,2025-06-03,マリンフィッシュデリバリー合同会社,,合同会社,奈良県,北葛城郡王寺町,王寺２丁目７番１－１０４号,,29,425,6360002,,,,,,,2025-06-03,1,,,,,マリンフィッシュデリバリー,0
1688,7160001026798,新規,0,2025-06-03,2025-06-03,株式会社たぬわら,,株式会社,滋賀県,甲賀市,信楽町長野１２９８番地,,25,209,5291851,,,,,,,2025-06-03,1,,,,,タヌワラ,0
1690,7170001018654,新規,0,2025-06-03,2025-06-03,堂下左官工業株式会社,,株式会社,和歌山県,和歌山市,楠見中３０２番地１０,,30,201,6408463,,,,,,,2025-06-03,1,,,,,ドウシタサカンコウギョウ,0
1697,7180001167112,新規,0,2025-06-03,2025-06-03,株式会社福建設,,株式会社,愛知県,半田市,板山町３丁目１２８番地の１ピュアコート１０２号,,23,205,4750936,,,,,,,2025-06-03,1,,,,,フクケンセツ,0
1698,7180001167129,新規,0,2025-06-03,2025-06-03,株式会社ＲＥＢＯＲＮ,,株式会社,愛知県,江南市,村久野町宮出７５番地,,23,217,4838318,,,,,,,2025-06-03,1,,,,,リボーン,0
1704,7180003028543,新規,0,2025-06-03,2025-06-03,合同会社いろは,,合同会社,愛知県,名古屋市守山区,藪田町１１１１－Ａ３０３,,23,113,4630026,,,,,,,2025-06-03,1,,,,,イロハ,0
1705,7180003028551,新規,0,2025-06-03,2025-06-03,鈴木塗装合同会社,,合同会社,愛知県,一宮市,三条字安１２番地,,23,203,4940003,,,,,,,2025-06-03,1,,,,,スズキトソウ,0
1706,7180301039861,新規,0,2025-06-03,2025-06-03,株式会社ＤｅａＤｅｅ,,株式会社,愛知県,岡崎市,大門４丁目１７番地４,,23,202,4442135,,,,,,,2025-06-03,1,,,,,ディーディー,0
1710,7190001032257,新規,0,2025-06-03,2025-06-03,株式会社ＹＯＩＮ,,株式会社,三重県,松阪市,曽原町２５３番地１クローバーグリーンＶ、１０５,00139403,24,204,5152112,,,,,,,2025-06-03,1,,,,,ヨイン,0
1715,7210001020192,新規,0,2025-06-03,2025-06-03,株式会社大輝,,株式会社,福井県,福井市,仁位町第１３号２７番地,,18,201,9102336,,,,,,,2025-06-03,1,,,,,ダイキ,0
1716,7210003001926,新規,0,2025-06-03,2025-06-03,合同会社ＢＥＣ,,合同会社,福井県,坂井市,丸岡町上安田第２号２７番地１,,18,210,9100362,,,,,,,2025-06-03,1,,,,,ベック,0
1717,7220003004052,新規,0,2025-06-03,2025-06-03,合同会社辻商店,,合同会社,石川県,白山市,鶴来桑島町１１２番地,,17,210,9202166,,,,,,,2025-06-03,1,,,,,,0
1721,7230001020934,新規,0,2025-06-03,2025-06-03,株式会社ジーエム・トレーディング,,株式会社,富山県,射水市,作道２３２番地２,,16,211,9340042,,,,,,,2025-06-03,1,,,,,ジーエムトレーディング,0
1722,7230001020942,新規,0,2025-06-03,2025-06-03,福島設備株式会社,,株式会社,富山県,下新川郡入善町,上野９８７番地２,,16,342,9390642,,,,,,,2025-06-03,1,,,,,フクシマセツビ,0
1726,7240001065012,新規,0,2025-06-03,2025-06-03,株式会社ＭＯＲＩ電工,,株式会社,広島県,広島市西区,田方２丁目４４番１０号,,34,104,7330851,,,,,,,2025-06-03,1,,,,,モリデンコウ,0
1734,7260001040120,新規,0,2025-06-03,2025-06-03,株式会社Ｎｉｃｏｎｏ,,株式会社,岡山県,岡山市東区,西大寺東３丁目４番１２号,,33,103,7048114,,,,,,,2025-06-03,1,,,,,ニコノ,0
1735,7260001040244,新規,0,2025-06-03,2025-06-03,ＴＲモビリティ株式会社,,株式会社,岡山県,玉野市,東高崎２５番地１８３,,33,204,7060134,,,,,,,2025-06-03,1,,,,,ティーアールモビリティ,0
1740,7280001009436,新規,0,2025-06-03,2025-06-03,株式会社バローサ,,株式会社,島根県,邑智郡川本町,大字南佐木５６１番地５,,32,441,6961225,,,,,,,2025-06-03,1,,,,,バローサ,0
1746,7290001110259,新規,0,2025-06-03,2025-06-03,株式会社ＷＥＡＬ,,株式会社,福岡県,福岡市博多区,博多駅東２丁目９－９ＲＵＳＳＩＥ博多駅東５０５,,40,132,8120013,,,,,,,2025-06-03,1,,,,,ウィール,0
1747,7290801031588,新規,0,2025-06-03,2025-06-03,株式会社図面屋,,株式会社,福岡県,築上郡築上町,大字坂本３７１番地,,40,647,8290321,,,,,,,2025-06-03,1,,,,,ズメンヤ,0
1751,7320001021122,新規,0,2025-06-03,2025-06-03,コバルト・ジャパン株式会社,,株式会社,大分県,中津市,大字上如水１７９８番地１,,44,203,8710004,,,,,,,2025-06-03,1,,,,,コバルトジャパン,0
1755,7340001027381,新規,0,2025-06-03,2025-06-03,株式会社光栄商店,,株式会社,鹿児島県,霧島市,国分上之段３７９番地８,,46,218,8994461,,,,,,,2025-06-03,1,,,,,コウエイショウテン,0
1756,7340003004866,新規,0,2025-06-03,2025-06-03,合同会社やまがみＫ．Ｓ．Ｒ,,合同会社,鹿児島県,鹿児島市,坂之上２丁目１４番１０号ＫＲＳビル１０１号,,46,201,8910150,,,,,,,2025-06-03,1,,,,,ヤマガミケーエスアール,0
1760,7370001052658,新規,0,2025-06-03,2025-06-03,株式会社ＳＨＲ,,株式会社,宮城県,宮城郡松島町,高城字町東二２番地の４,,04,401,9810215,,,,,,,2025-06-03,1,,,,,エスエイチアール,0
1771,7430001094561,新規,0,2025-06-03,2025-06-03,株式会社パッションフライヤーズ,,株式会社,北海道,小樽市,花園４丁目４番１６号,,01,203,0470024,,,,,,,2025-06-03,1,,,,,パッションフライヤーズ,0
1778,7460403000247,新規,0,2025-06-03,2025-06-03,ＭＴＴ食品合同会社,,合同会社,北海道,根室市,昭和町３丁目４番地,,01,223,0870022,,,,,,,2025-06-03,1,,,,,エムティーティーショクヒン,0
1779,7470001020737,新規,0,2025-06-03,2025-06-03,フジイ工業株式会社,,株式会社,香川県,高松市,中間町５８３番地１６,,37,201,7618043,,,,,,,2025-06-03,1,,,,,フジイコウギョウ,0
1782,7490001011065,新規,0,2025-06-03,2025-06-03,株式会社フルール・ロータス,,株式会社,高知県,南国市,陣山５９２,,39,204,7830028,,,,,,,2025-06-03,1,,,,,,0
1787,7700150130899,新規,0,2025-06-03,2025-06-03,ＡＵＴＯ　ＬＡＮＤ　ＴＲＡＤＩＮＧ　ＰＶＴ　ＬＴＤ,,外国会社等,千葉県,山武市,白幡２７３６番地２オフィスＡ,,12,237,2891306,スリランカ民主社会主義共和国、コロンボ、ヌゲゴダ、スネテラデビロード、Ｎｏ．４７８,,,,,,2025-06-03,1,,,,,オートランドトレーデイングプライベートリミテツド,0
1796,8010001255535,新規,0,2025-06-03,2025-06-03,昭明アートオークション株式会社,,株式会社,東京都,文京区,千石４丁目１４番９号,,13,105,1120011,,,,,,,2025-06-03,1,,,,,ショウメイアートオークション,0
1798,8010003047526,新規,0,2025-06-03,2025-06-03,Ｔｈｉｒｄ　Ｏｒｄｅｒ合同会社,,合同会社,東京都,中央区,銀座１丁目２２－１１銀座大竹ビジデンス２Ｆ,,13,102,1040061,,,,,,,2025-06-03,1,,,,,サードオーダー,0
1799,8010005040124,新規,0,2025-06-03,2025-06-03,日光Ｐｌｕｓ２４ホールディング特定目的会社,,その他の設立登記法人,東京都,千代田区,丸の内１丁目４番１号東京共同会計事務所内,,13,101,1000005,,,,,,,2025-06-03,1,,,,,ニッコウプラストゥエンティフォーホールディング,0
1807,8010401190687,新規,0,2025-06-03,2025-06-03,ＡＫＹホールディングス株式会社,,株式会社,東京都,港区,白金３丁目７番１６－４０２号,,13,103,1080072,,,,,,,2025-06-03,1,,,,,エーケーワイホールディングス,0
1808,8010401190729,新規,0,2025-06-03,2025-06-03,株式会社アイコネックスエンターテインメント,,株式会社,東京都,港区,新橋５丁目２１番１１号天翔新橋５丁目ビル９０７,,13,103,1050004,,,,,,,2025-06-03,1,,,,,アイコネックスエンターテインメント,0
1812,8010405024412,新規,0,2025-06-03,2025-06-03,一般社団法人白金桜会,,その他の設立登記法人,東京都,港区,白金台４丁目３番１９号Ｂ１Ｆ,,13,103,1080071,,,,,,,2025-06-03,1,,,,,シロカネサクラカイ,0
1818,8010701047785,新規,0,2025-06-03,2025-06-03,株式会社イーストカム,,株式会社,東京都,品川区,東品川４丁目１２番８号品川シーサイドイーストタワー１５階１５０９号室,,13,109,1400002,,,,,,,2025-06-03,1,,,,,イーストカム,0
1827,8010903009955,新規,0,2025-06-03,2025-06-03,合同会社ＰＯＲＴＥＵＲ,,合同会社,東京都,世田谷区,桜丘５丁目３４番地１２号,,13,112,1560054,,,,,,,2025-06-03,1,,,,,ポルター,0
1828,8010903009971,新規,0,2025-06-03,2025-06-03,合同会社スイリス,,合同会社,東京都,世田谷区,駒沢２丁目１７番９号－１２０１,,13,112,1540012,,,,,,,2025-06-03,1,,,,,スイリス,0
1834,8011001169782,新規,0,2025-06-03,2025-06-03,株式会社ＧｒａｄａｔｉｏｎＤｅｓｉｇｎ,,株式会社,東京都,渋谷区,神宮前２丁目１３番７号３Ｄ,,13,113,1500001,,,,,,,2025-06-03,1,,,,,グラデーションデザイン,0
1835,8011001169790,新規,0,2025-06-03,2025-06-03,株式会社グロースドライバー,,株式会社,東京都,渋谷区,道玄坂１丁目１０番８号渋谷道玄坂東急ビル２Ｆ－Ｃ,,13,113,1500043,,,,,,,2025-06-03,1,,,,,グロースドライバー,0
1836,8011001169948,新規,0,2025-06-03,2025-06-03,株式会社ネバードラフト,,株式会社,東京都,渋谷区,道玄坂１丁目１０番８号,,13,113,1500043,,,,,,,2025-06-03,1,,,,,ネバードラフト,0
1840,8011101111909,新規,0,2025-06-03,2025-06-03,スマートテック株式会社,,株式会社,東京都,新宿区,早稲田鶴巻町５０６番地ハウススター２０２号室,,13,104,1620041,,,,,,,2025-06-03,1,,,,,スマートテック,0
1841,8011101111917,新規,0,2025-06-03,2025-06-03,株式会社ｔｏｍｏｓｕ,,株式会社,東京都,新宿区,新宿７丁目２０番６号ＩＶ・ＬＯＵＮＧＥ,,13,104,1600022,,,,,,,2025-06-03,1,,,,,トモス,0
1843,8011201026395,新規,0,2025-06-03,2025-06-03,ＮＭＭ株式会社,,株式会社,東京都,中野区,中野５丁目６７番７号プラザ中野８０１,,13,114,1640001,,,,,,,2025-06-03,1,,,,,エヌエムエム,0
1853,8011701028387,新規,0,2025-06-03,2025-06-03,株式会社ＧＲＡＣＥ,,株式会社,東京都,江戸川区,鹿骨３丁目７番９号,,13,123,1330073,,,,,,,2025-06-03,1,,,,,グレース,0
1855,8011703004270,新規,0,2025-06-03,2025-06-03,合同会社ＭＫＵＲＵ,,合同会社,東京都,江戸川区,東小岩６丁目６番１０号１０２号室,,13,123,1330052,,,,,,,2025-06-03,1,,,,,エムクル,0
1858,8011801046231,新規,0,2025-06-03,2025-06-03,ＹＭＴＲＥＮＤ株式会社,,株式会社,東京都,足立区,千住橋戸町７１番地１ＭＨｏｕｓｅＩＩ１０１,00139406,13,121,1200038,,,,,,,2025-06-03,1,,,,,ワイエムトレンド,0
1860,8012303002169,新規,0,2025-06-03,2025-06-03,合同会社ＯＫＤ,,合同会社,東京都,町田市,金井３丁目１番地２,,13,209,1950072,,,,,,,2025-06-03,1,,,,,オーケーディ,0
1862,8012801024004,新規,0,2025-06-03,2025-06-03,啓盛株式会社,,株式会社,東京都,国分寺市,南町３丁目１８番４号Ｓビル１Ｆ,,13,214,1850021,,,,,,,2025-06-03,1,,,,,ケイセイ,0
1867,8013303007694,新規,0,2025-06-03,2025-06-03,合同会社ＲＡ,,合同会社,東京都,豊島区,要町２丁目２６－５,,13,116,1710043,,,,,,,2025-06-03,1,,,,,アールエー,0
1872,8020001163027,新規,0,2025-06-03,2025-06-03,株式会社宮電,,株式会社,神奈川県,川崎市川崎区,川中島１丁目２３番２２号,,14,131,2100803,,,,,,,2025-06-03,1,,,,,ミヤデン,0
1873,8020001163142,新規,0,2025-06-03,2025-06-03,株式会社ＺＥＲＯ,,株式会社,神奈川県,川崎市多摩区,登戸３３５１番地１,,14,135,2140014,,,,,,,2025-06-03,1,,,,,ゼロ,0
1876,8020003028608,新規,0,2025-06-03,2025-06-03,合同会社ビックホーク,,合同会社,神奈川県,横浜市鶴見区,下末吉２丁目１０番１３号ハイツＳＵＮＡＤＡ２０１,,14,101,2300012,,,,,,,2025-06-03,1,,,,,ビックホーク,0
1882,8021001085384,新規,0,2025-06-03,2025-06-03,株式会社ｓｔｕｄｉｏ８４,,株式会社,神奈川県,茅ヶ崎市,香川１丁目６－９,,14,207,2530082,,,,,,,2025-06-03,1,,,,,スタジオエイティーフォー,0
1886,8021003016065,新規,0,2025-06-03,2025-06-03,Ｔｈｅ，Ｊｏｕｒｎｅｙｓ，Ｃｏｌｌｅｃｔｉｏｎ合同会社,,合同会社,神奈川県,秦野市,南矢名２丁目２５番５号三共学友会館１１１号室,,14,211,2570003,,,,,,,2025-06-03,1,,,,,ザジャーニーズコレクション,0
1891,8030001166846,新規,0,2025-06-03,2025-06-03,ポライトフォトワークス株式会社,,株式会社,埼玉県,蓮田市,大字黒浜２８０３番地１ロータスパークＢ１０１号,,11,238,3490101,,,,,,,2025-06-03,1,,,,,ポライトフォトワークス,0
1899,8040001138976,新規,0,2025-06-03,2025-06-03,株式会社Ｆｏｒ　Ｅａｒｔｈ,,株式会社,千葉県,流山市,加４丁目１７－２７アシスト流山ビル２階２０２号室,,12,220,2700176,,,,,,,2025-06-03,1,,,,,フォーアース,0
1900,8040001139009,新規,0,2025-06-03,2025-06-03,株式会社Ｙ’ｓコンサルティング,,株式会社,千葉県,我孫子市,つくし野１丁目１７－２９,,12,222,2701164,,,,,,,2025-06-03,1,,,,,ワイズコンサルティング,0
1901,8040001139025,新規,0,2025-06-03,2025-06-03,城山ホールディングス株式会社,,株式会社,千葉県,柏市,十余二２４９番地３３６,,12,217,2770872,,,,,,,2025-06-03,1,,,,,シロヤマホールディングス,0
1902,8040001139033,新規,0,2025-06-03,2025-06-03,株式会社ＯＮＥ,,株式会社,千葉県,流山市,向小金１丁目８４０番地の３４,,12,220,2700143,,,,,,,2025-06-03,1,,,,,ワン,0
1905,8040003027657,新規,0,2025-06-03,2025-06-03,ＺＥＮＰＯＲＴ合同会社,,合同会社,千葉県,市原市,古市場６６０－９マミ浜野Ａ棟１０３号室,,12,219,2900008,,,,,,,2025-06-03,1,,,,,ゼンポート,0
1916,8070001042977,新規,0,2025-06-03,2025-06-03,ＪＢ　ＳＥＲＶＩＣＥ株式会社,,株式会社,群馬県,太田市,下浜田町２９３番地８－Ａ１０１号,,10,205,3730821,,,,,,,2025-06-03,1,,,,,ジェービーサービス,0
1918,8080001026962,新規,0,2025-06-03,2025-06-03,株式会社Ｌｉｅｎ,,株式会社,静岡県,静岡市葵区,上足洗４丁目６番１号ひまわりハイツ１０５,,22,101,4200841,,,,,,,2025-06-03,1,,,,,リアン,0
1919,8080001026970,新規,0,2025-06-03,2025-06-03,株式会社ＦＫＷ,,株式会社,静岡県,静岡市清水区,元城町７番３３号,,22,103,4240819,,,,,,,2025-06-03,1,,,,,エフケイダブリュー,0
1923,8080403005267,新規,0,2025-06-03,2025-06-03,合同会社ＨＡＧＵＫＵＭＩ,,合同会社,静岡県,浜松市中央区,庄内町７１４－１,,22,138,4311208,,,,,,,2025-06-03,1,,,,,ハグクミ,0
1935,8120001276264,新規,0,2025-06-03,2025-06-03,株式会社心地,,株式会社,大阪府,大阪市中央区,東心斎橋１丁目１４番２３号大仲ビル５階,,27,128,5420083,,,,,,,2025-06-03,1,,,,,ココチ,0
1936,8120001276363,新規,0,2025-06-03,2025-06-03,卓先株式会社,,株式会社,大阪府,大阪市中央区,船場中央２丁目２番５号船場センタービル５号館地下一階Ｂ１２９ＲＯＹＡＬＯＦＦＩＣＥ内,,27,128,5410055,,,,,,,2025-06-03,1,,,,,タクセン,0
1937,8120001276413,新規,0,2025-06-03,2025-06-03,ＹｕｉＥｎ株式会社,,株式会社,大阪府,大阪市北区,梅田１丁目２番２号大阪駅前第２ビル１２－１２,,27,127,5300001,,,,,,,2025-06-03,1,,,,,ユイエン,0
1941,8120101071788,新規,0,2025-06-03,2025-06-03,株式会社大阪シティ交通,,株式会社,大阪府,堺市西区,浜寺諏訪森町西３丁２５２－４－１０３,,27,144,5928347,,,,,,,2025-06-03,1,,,,,オオサカシティコウツウ,0
1965,8180001167111,新規,0,2025-06-03,2025-06-03,株式会社ＴＫＧコンサルティング,,株式会社,愛知県,半田市,瑞穂町４丁目７番地の６レインボー第３半田３０２号,,23,205,4750828,,,,,,,2025-06-03,1,,,,,ティケイジイコンサルティング,0
1966,8180001167128,新規,0,2025-06-03,2025-06-03,株式会社テックミル,,株式会社,愛知県,名古屋市中村区,上石川町５丁目１２番地,,23,105,4530835,,,,,,,2025-06-03,1,,,,,テックミル,0
1969,8180003028559,新規,0,2025-06-03,2025-06-03,合同会社ＳＫＡＳＨ,,合同会社,愛知県,名古屋市中村区,名駅３丁目４－１０アルティメイト名駅１ｓｔ２階,,23,105,4500002,,,,,,,2025-06-03,1,,,,,スカッシュ,0
1971,8180303006594,新規,0,2025-06-03,2025-06-03,合同会社ＬＵＸＥ,,合同会社,愛知県,豊橋市,萱町２１番地佐藤ビル１Ｆ,,23,201,4400896,,,,,,,2025-06-03,1,,,,,リュクス,0
1975,8200001043854,新規,0,2025-06-03,2025-06-03,ＹＥＬＬＯＷ　ＧＥＲＢＥＲＡ株式会社,,株式会社,岐阜県,岐阜市,打越７８４番地１１３,,21,201,5020802,,,,,,,2025-06-03,1,,,,,イエローガーベラ,0
1976,8210003001925,新規,0,2025-06-03,2025-06-03,合同会社もんじゅ,,合同会社,福井県,福井市,角原町第３１号４９番地,,18,201,9188162,,,,,,,2025-06-03,1,,,,,モンジュ,0
1977,8230001020933,新規,0,2025-06-03,2025-06-03,株式会社Ｇｅｎｅａｌｔｈ,,株式会社,富山県,富山市,呉羽町３１８５番地,,16,201,9300138,,,,,,,2025-06-03,1,,,,,ジェネルス,0
1978,8240001065011,新規,0,2025-06-03,2025-06-03,ｍｉｎｅｔｅｃ株式会社,,株式会社,広島県,広島市安佐南区,中須１丁目１４番１２号,,34,105,7310121,,,,,,,2025-06-03,1,,,,,マインテック,0
1979,8240001065028,新規,0,2025-06-03,2025-06-03,株式会社ヒロアーキテクト,,株式会社,広島県,広島市安佐南区,緑井３丁目２３番３０－２号,,34,105,7310103,,,,,,,2025-06-03,1,,,,,ヒロアーキテクト,0
1982,8260001040235,新規,0,2025-06-03,2025-06-03,株式会社Ｇｊｏｎ,,株式会社,岡山県,総社市,槙谷３２８９,,33,208,7191100,,,,,,,2025-06-03,1,,,,,ジョン,0
1988,8290001110217,新規,0,2025-06-03,2025-06-03,株式会社ｎｏｂｒａｎｄ,,株式会社,福岡県,福岡市中央区,小笹５丁目４番６７－３１８号ダイアパレス植物園南,,40,133,8100033,,,,,,,2025-06-03,1,,,,,ノーブランド,0
1989,8290003016924,新規,0,2025-06-03,2025-06-03,ＡＮＩＭＡＬＳ　ＧＲＯＵＰ合同会社,,合同会社,福岡県,福岡市中央区,天神３丁目４番１５号天神バッカス館３０３,,40,133,8100001,,,,,,,2025-06-03,1,,,,,アニマルズグループ,0
1990,8290003016932,新規,0,2025-06-03,2025-06-03,合同会社ＧｒｏＶａｔｉｏｎ,,合同会社,福岡県,福岡市博多区,博多駅前１丁目２３番２号ＰａｒｋＦｒｏｎｔ博多駅前１丁目５Ｆ－Ｂ,,40,132,8120011,,,,,,,2025-06-03,1,,,,,グロベーション,0
2005,8340003004865,新規,0,2025-06-03,2025-06-03,合同会社深見削蹄研究所,,合同会社,鹿児島県,曽於市,末吉町二之方５６４６番地１１,,46,217,8998605,,,,,,,2025-06-03,1,,,,,フカミサクテイケンキュウジョ,0
2008,8360001035266,新規,0,2025-06-03,2025-06-03,Ｍ．Ｉ　ＨＯＭＥ株式会社,,株式会社,沖縄県,沖縄市,南桃原３丁目２２番１４号１階,,47,211,9040035,,,,,,,2025-06-03,1,,,,,エムアイホーム,0
2011,8360003014961,新規,0,2025-06-03,2025-06-03,ＳｍａｒｔＳｅｌｌｉｎｇ合同会社,,合同会社,沖縄県,那覇市,牧志２丁目１７－２７－４０１,,47,201,9000013,,,,,,,2025-06-03,1,,,,,スマートセリング,0
2022,8410001014165,新規,0,2025-06-03,2025-06-03,株式会社オールラウンド,,株式会社,秋田県,能代市,御指南町７番２０号,,05,202,0160815,,,,,,,2025-06-03,1,,,,,オールラウンド,0
2023,8420003003124,新規,0,2025-06-03,2025-06-03,合同会社ＡＤ‐ＬＩＢ,,合同会社,青森県,三戸郡五戸町,字下長下タ３４―１８サンヴィレッヂＶ２―Ａ,,02,442,0391526,,,,,,,2025-06-03,1,,,,,アドリブ,0
2024,8430001094536,新規,0,2025-06-03,2025-06-03,Ｈ５株式会社,,株式会社,北海道,千歳市,勇舞８丁目５番９号,,01,224,0660078,,,,,,,2025-06-03,1,,,,,エイチファイブ,0
2028,8700150130849,新規,0,2025-06-03,2025-06-03,ＢＴＡＳ　ＮＱ　Ｈｏｌｄｉｎｇｓ　Ｌ．Ｌ．Ｃ．,,外国会社等,,,,,,,,２００　Ｂｅｌｌｅｖｕｅ　Ｐａｒｋｗａｙ，Ｓｕｉｔｅ　２１０，Ｗｉｌｍｉｎｇｔｏｎ，Ｄｅｌａｗａｒｅ　１９８０９,,,,,,2025-06-03,1,,,,,ビーテイーエーエスエヌキユーホールデイングスエルエルシー,0
2029,8700150130898,新規,0,2025-06-03,2025-06-03,Ｗｈｏｏｐ，Ｉｎｃ．,,外国会社等,,,,,,,,Ｏｎｅ　Ｋｅｎｍｏｒｅ　Ｓｑｕａｒｅ，ＳＴＥ　６０１，Ｂｏｓｔｏｎ，ＭＡ０２２１５,,,,,,2025-06-03,1,,,,,フープインク,0
2035,9010001255600,新規,0,2025-06-03,2025-06-03,株式会社ｉＫａ,,株式会社,東京都,千代田区,神田佐久間町３丁目２３番地スタウトビル３Ｆ,,13,101,1010025,,,,,,,2025-06-03,1,,,,,イカ,0
2036,9010003047442,新規,0,2025-06-03,2025-06-03,合同会社Ｂｉｏ　Ｌｉｎｋ,,合同会社,東京都,中央区,銀座１丁目１２番４号Ｎ＆ＥＢＬＤ．７階,,13,102,1040061,,,,,,,2025-06-03,1,,,,,バイオリンク,0
2037,9010003047525,新規,0,2025-06-03,2025-06-03,合同会社ＷＳ４,,合同会社,東京都,千代田区,永田町２丁目１７番５号,,13,101,1000014,,,,,,,2025-06-03,1,,,,,ダブリュエスフォー,0
2038,9010005040131,新規,0,2025-06-03,2025-06-03,一般社団法人聖岳,,その他の設立登記法人,東京都,千代田区,丸の内１丁目４番１号東京共同会計事務所内,,13,101,1000005,,,,,,,2025-06-03,1,,,,,ヒジリダケ,0
2047,9010401190694,新規,0,2025-06-03,2025-06-03,ベースロードふるさと株式会社,,株式会社,東京都,港区,新橋４丁目１番１号,,13,103,1050004,,,,,,,2025-06-03,1,,,,,ベースロードフルサト,0
2050,9010403035253,新規,0,2025-06-03,2025-06-03,ルミナ合同会社,,合同会社,東京都,港区,南麻布２丁目５‐２南麻布ノース４０２,,13,103,1060047,,,,,,,2025-06-03,1,,,,,ルミナ,0
2052,9010601067420,新規,0,2025-06-03,2025-06-03,メモリアルスタンド・ＡＪ株式会社,,株式会社,東京都,墨田区,両国３丁目１９番５号,,13,107,1300026,,,,,,,2025-06-03,1,,,,,メモリアルスタンドエージェー,0
2064,9011001169633,新規,0,2025-06-03,2025-06-03,株式会社Ｏｍｏｔｅｎａｓｈｉ　ＡＩ,,株式会社,東京都,渋谷区,渋谷２丁目１９－１５宮益坂ビルディング６０９,,13,113,1500002,,,,,,,2025-06-03,1,,,,,オモテナシエーアイ,0
2065,9011001169773,新規,0,2025-06-03,2025-06-03,佐井商事株式会社,,株式会社,東京都,渋谷区,代々木５丁目５５番１２号,,13,113,1510053,,,,,,,2025-06-03,1,,,,,サイショウジ,0
2066,9011001169807,新規,0,2025-06-03,2025-06-03,株式会社工藤,,株式会社,東京都,目黒区,東が丘２丁目７番１９号,,13,110,1520021,,,,,,,2025-06-03,1,,,,,クドウ,0
2069,9011003021635,新規,0,2025-06-03,2025-06-03,合同会社インテリンク・ニッポンコンサルティング,,合同会社,東京都,渋谷区,神南１丁目１１－４ＦＰＧリンクス神南５階,,13,113,1500041,,,,,,,2025-06-03,1,,,,,インテリンクニッポンコンサルティング,0
2077,9011101111932,新規,0,2025-06-03,2025-06-03,株式会社アイアムヒーロー,,株式会社,東京都,新宿区,西新宿６丁目５番１号新宿アイランドタワー２階,,13,104,1600023,,,,,,,2025-06-03,1,,,,,アイアムヒーロー,0
2082,9011201026403,新規,0,2025-06-03,2025-06-03,株式会社ＰＥＲＣＥＮＴ,,株式会社,東京都,中野区,東中野５丁目２０番８－６０３号,,13,114,1640003,,,,,,,2025-06-03,1,,,,,パーセント,0
2084,9011303005585,新規,0,2025-06-03,2025-06-03,合同会社ＫＡＷＡＳＥ,,合同会社,東京都,杉並区,西荻北４丁目１４番４号,,13,115,1670042,,,,,,,2025-06-03,1,,,,,カワセ,0
2087,9011401027143,新規,0,2025-06-03,2025-06-03,株式会社ＴＲＳ,,株式会社,東京都,板橋区,若木２丁目２４番６号,,13,119,1740065,,,,,,,2025-06-03,1,,,,,ティーアールエス,0
2103,9012701018897,新規,0,2025-06-03,2025-06-03,株式会社好和,,株式会社,東京都,西東京市,芝久保町４丁目１２－３５,,13,229,1880014,,,,,,,2025-06-03,1,,,,,コウワ,0
2108,9020001163067,新規,0,2025-06-03,2025-06-03,株式会社ＫＯＢＡＹＡＳＨＩ,,株式会社,神奈川県,横浜市港北区,新羽町４１４０番地,,14,109,2230057,,,,,,,2025-06-03,1,,,,,コバヤシ,0
2109,9020001163208,新規,0,2025-06-03,2025-06-03,株式会社ウィスコット,,株式会社,神奈川県,横浜市西区,北幸２丁目１０番４８号,,14,103,2200004,,,,,,,2025-06-03,1,,,,,ウィスコット,0
2111,9020005016881,新規,0,2025-06-03,2025-06-03,一般社団法人神奈川・山梨・伊豆大島３３０‐Ｂ地区ライオンズ,,その他の設立登記法人,神奈川県,横浜市中区,山吹町１番地７パーク・ノヴァ伊勢佐木長者町２０１,,14,104,2310038,,,,,,,2025-06-03,1,,,,,カナガワヤマナシイズオオシマサンサンマルビーチクライオンズ,0
2117,9021001085375,新規,0,2025-06-03,2025-06-03,ステラ・グレース株式会社,,株式会社,神奈川県,藤沢市,鵠沼石上１丁目７番８号ビッグライズビル５Ｆ,,14,205,2510025,,,,,,,2025-06-03,1,,,,,ステラグレース,0
2118,9021001085383,新規,0,2025-06-03,2025-06-03,株式会社Ｓｅｌｌｉｎｇ　Ｎｅｗ　Ｌｉｆｅ,,株式会社,神奈川県,中郡大磯町,高麗１丁目１１番７４号,,14,341,2550001,,,,,,,2025-06-03,1,,,,,セリングニューライフ,0
2125,9030003026857,新規,0,2025-06-03,2025-06-03,合同会社ｂｕｉｌｄ　ｆｌｏｗ,,合同会社,埼玉県,さいたま市緑区,大字大牧１２５５番地９,,11,109,3360922,,,,,,,2025-06-03,1,,,,,ビルドフロウ,0
2130,9040001138991,新規,0,2025-06-03,2025-06-03,流山サッカーアカデミー株式会社,,株式会社,千葉県,流山市,大字西深井３３０番地の３,,12,220,2700107,,,,,,,2025-06-03,1,,,,,ナガレヤマサッカーアカデミー,0
2131,9040001139024,新規,0,2025-06-03,2025-06-03,株式会社ＳＯＬＡＲＥ,,株式会社,千葉県,柏市,あけぼの４丁目１番３号,,12,217,2770841,,,,,,,2025-06-03,1,,,,,ソラーレ,0
2132,9040001139057,新規,0,2025-06-03,2025-06-03,株式会社コタロー,,株式会社,千葉県,船橋市,馬込町１００１番地２５,,12,204,2730851,,,,,,,2025-06-03,1,,,,,コタロー,0
2133,9040003027631,新規,0,2025-06-03,2025-06-03,合同会社Ｗｅｅｋ　Ｅｎｄ　Ｍａｋｅｒ,,合同会社,千葉県,山武市,日向台３１－１１,,12,237,2891206,,,,,,,2025-06-03,1,,,,,ウィークエンドメーカー,0
2134,9040003027739,新規,0,2025-06-03,2025-06-03,ＳＲ　ＩＮＴＥＲＮＡＴＩＯＮＡＬ合同会社,,合同会社,千葉県,野田市,東宝珠花４５３－６,,12,208,2700226,,,,,,,2025-06-03,1,,,,,エスアルインターナショナル,0
2136,9060003005577,新規,0,2025-06-03,2025-06-03,合同会社ＨＩＲＯ,,合同会社,栃木県,那須烏山市,野上１２２８－２０,,09,215,3210634,,,,,,,2025-06-03,1,,,,,ヒロ,0
2140,9080103003339,新規,0,2025-06-03,2025-06-03,合同会社イナエ,,合同会社,静岡県,富士市,今泉２０９１番地の４,,22,210,4170001,,,,,,,2025-06-03,1,,,,,イナエ,0
2142,9100001038649,新規,0,2025-06-03,2025-06-03,株式会社Ｄ３３,,株式会社,長野県,長野市,大字南長野北石堂町１２０５番地,,20,201,3800826,,,,,,,2025-06-03,1,,,,,ディーサンジュウサン,0
2161,9120003029628,新規,0,2025-06-03,2025-06-03,合同会社ＡＢＤＯＵＬ　ＡＵＴＯ,,合同会社,大阪府,寝屋川市,三井が丘１丁目１番２－２０６号,,27,215,5720013,,,,,,,2025-06-03,1,,,,,アブドゥルオート,0
2162,9120003029644,新規,0,2025-06-03,2025-06-03,合同会社Ｃｏｃｏｃｏｌｏｒ,,合同会社,大阪府,大阪市福島区,福島８丁目１６番１０－８０４号,,27,103,5530003,,,,,,,2025-06-03,1,,,,,ココカラ,0
2171,9120901050981,新規,0,2025-06-03,2025-06-03,株式会社Ｒｅｌｌａ,,株式会社,大阪府,箕面市,箕面２丁目１１番５３－３０６号,,27,220,5620001,,,,,,,2025-06-03,1,,,,,リラ,0
2172,9120903005694,新規,0,2025-06-03,2025-06-03,ＹＫ管理合同会社,,合同会社,大阪府,箕面市,白島２丁目２１番３３号,,27,220,5620012,,,,,,,2025-06-03,1,,,,,ワイケーカンリ,0
2173,9122001039303,新規,0,2025-06-03,2025-06-03,株式会社ＳＫＴ,,株式会社,大阪府,東大阪市,六万寺町３丁目６番２９号,,27,227,5798061,,,,,,,2025-06-03,1,,,,,エスケーティー,0
2174,9122001039311,新規,0,2025-06-03,2025-06-03,株式会社福笹,,株式会社,大阪府,東大阪市,足代２丁目１３番１９号,,27,227,5770841,,,,,,,2025-06-03,1,,,,,フクササ,0
2181,9130003010512,新規,0,2025-06-03,2025-06-03,ＺＡＢＩＵＬＬＡＨ　ＴＲＡＤＩＮＧ合同会社,,合同会社,京都府,京都市伏見区,京町６丁目５１番地１,,26,109,6128083,,,,,,,2025-06-03,1,,,,,ザビウッラートレーディング,0
2188,9140001138750,新規,0,2025-06-03,2025-06-03,株式会社宮東農園,,株式会社,兵庫県,丹波市,春日町多利１５６３番地,,28,223,6694123,,,,,,,2025-06-03,1,,,,,ミヤヒガシノウエン,0
2194,9170001018652,新規,0,2025-06-03,2025-06-03,株式会社たまき工機,,株式会社,和歌山県,有田市,宮原町須谷６２５番地１,,30,204,6490433,,,,,,,2025-06-03,1,,,,,タマキコウキ,0
2199,9180001167184,新規,0,2025-06-03,2025-06-03,株式会社飛修設備工業,,株式会社,愛知県,名古屋市昭和区,福江３丁目９番２１号,,23,107,4660059,,,,,,,2025-06-03,1,,,,,ヒシュウコウギョウセツビ,0
2201,9180003028566,新規,0,2025-06-03,2025-06-03,ＬＩＮＫ合同会社,,合同会社,愛知県,名古屋市天白区,島田４丁目２６０１番地,,23,116,4680056,,,,,,,2025-06-03,1,,,,,リンク,0
2202,9180005021115,新規,0,2025-06-03,2025-06-03,弁護士法人エミリア,,その他の設立登記法人,愛知県,名古屋市東区,東桜１丁目１番１号アーバンネット名古屋ネクスタビル,,23,102,4610005,,,,,,,2025-06-03,1,,,,,エミリア,0
2205,9180303006593,新規,0,2025-06-03,2025-06-03,合同会社Ｒｅｆｌｏｒａ,,合同会社,愛知県,高浜市,田戸町３丁目２番地５２,,23,227,4441323,,,,,,,2025-06-03,1,,,,,リフローラ,0
2218,9220001026724,新規,0,2025-06-03,2025-06-03,株式会社ＫａＮａ,,株式会社,石川県,金沢市,神野町西２９３番地,,17,201,9200365,,,,,,,2025-06-03,1,,,,,カナ,0
2224,9270001009212,新規,0,2025-06-03,2025-06-03,株式会社上田左工,,株式会社,鳥取県,鳥取市,大覚寺１５０番地１２,,31,201,6800863,,,,,,,2025-06-03,1,,,,,ウエタサコウ,0
2225,9280001009434,新規,0,2025-06-03,2025-06-03,株式会社ＩＫＳ,,株式会社,島根県,雲南市,大東町下阿用４６４番地１,,32,209,6991223,,,,,,,2025-06-03,1,,,,,アイケーエス,0
2230,9290001110158,新規,0,2025-06-03,2025-06-03,株式会社メディケアエージェンシー,,株式会社,福岡県,福岡市中央区,薬院３丁目３－５－５Ｆ,,40,133,8100022,,,,,,,2025-06-03,1,,,,,メディケアエージェンシー,0
2234,9290003016915,新規,0,2025-06-03,2025-06-03,合同会社ふろう,,合同会社,福岡県,福岡市中央区,港２丁目１２番１６－６０１テルツェット,,40,133,8100075,,,,,,,2025-06-03,1,,,,,フロウ,0
2238,9330001033206,新規,0,2025-06-03,2025-06-03,株式会社ＦｉｅｌｄｉｎＸ,,株式会社,熊本県,熊本市西区,島崎３丁目１９番３６号,,43,103,8600073,,,,,,,2025-06-03,1,,,,,フィールディンクス,0
2239,9330003011036,新規,0,2025-06-03,2025-06-03,合同会社よし子,,合同会社,熊本県,熊本市東区,沼山津４丁目６－３２,,43,102,8612102,,,,,,,2025-06-03,1,,,,,ヨシコ,0
2248,9360001035298,新規,0,2025-06-03,2025-06-03,株式会社豊,,株式会社,沖縄県,那覇市,首里汀良町３丁目３０番地２階,,47,201,9030806,,,,,,,2025-06-03,1,,,,,ユタカ,0
2251,9380001035354,新規,0,2025-06-03,2025-06-03,ＴＩＫ建設株式会社,,株式会社,福島県,白河市,大観音前２－１ビバリーヒルズ壱番街Ａ棟１０１,,07,205,9610051,,,,,,,2025-06-03,1,,,,,ティーアイケーケンセツ,0
2271,9700150130848,新規,0,2025-06-03,2025-06-03,Ｃｖｍａｋｅｒ　ＢＶ,,外国会社等,,,,,,,,Ｐｉｅｔ　Ｈｅｉｎｋａｄｅ　２２１，Ａｍｓｔｅｒｄａｍ，１０１９　ＨＭ，Ｔｈｅ　Ｎｅｔｈｅｒｌａｎｄｓ,,,,,,2025-06-03,1,,,,,シーヴイーメーカービーブイ,0
