sequenceNumber,corporateNumber,process,correct,updateDate,changeDate,name,nameImageId,kind,prefectureName,cityName,streetNumber,addressImageId,prefectureCode,cityCode,postCode,addressOutside,addressOutsideImageId,closeDate,closeCause,successorCorporateNumber,changeCause,assignmentDate,latest,enName,enPrefectureName,enCityName,enAddressOutside,furigana,hihyoji
8,1010001236789,新規,0,2023-07-12,2023-07-12,ＷｉｌｌＮｅｔ株式会社,,株式会社,東京都,千代田区,六番町７番地,,13,101,1020085,,,,,,,2023-07-12,1,,,,,ウィルネット,0
9,1010001236806,新規,0,2023-07-12,2023-07-12,ティーエルシードッグウッド株式会社,,株式会社,東京都,千代田区,神田練塀町３番地,,13,101,1010022,,,,,,,2023-07-12,1,,,,,ティーエルシードッグウッド,0
10,1010001236863,新規,0,2023-07-12,2023-07-12,株式会社シサン,,株式会社,東京都,文京区,目白台１丁目１５－９－７０５,,13,105,1120015,,,,,,,2023-07-12,1,,,,,シサン,0
11,1010001236888,新規,0,2023-07-12,2023-07-12,バンデキャピタルマネジメント株式会社,,株式会社,東京都,中央区,銀座１丁目１２－４Ｎ＆ＥＢＬＤ．７階,,13,102,1040061,,,,,,,2023-07-12,1,,,,,バンデキャピタルマネジメント,0
12,1010003041089,新規,0,2023-07-12,2023-07-12,合同会社アイアップ,,合同会社,東京都,中央区,銀座１丁目１２－４Ｎ＆Ｅ・ＢＬＤ．７階,,13,102,1040061,,,,,,,2023-07-12,1,,,,,アイアップ,0
14,1010101015713,新規,0,2023-07-12,2023-07-12,株式会社ＦＡＣＥ,,株式会社,東京都,八王子市,台町１丁目１４番２号,,13,201,1930931,,,,,,,2023-07-12,1,,,,,,0
17,1010103002172,新規,0,2023-07-12,2023-07-12,きらＲｅｎｏｖａｔｅ合同会社,,合同会社,東京都,八王子市,西寺方町５６３番地６７,,13,201,1920153,,,,,,,2023-07-12,1,,,,,キラリノベイト,0
20,1010401175546,新規,0,2023-07-12,2023-07-12,ＭＩＴＡＳ　ＪＡＰＡＮ株式会社,,株式会社,東京都,港区,港南１丁目９番３６号,,13,103,1080075,,,,,,,2023-07-12,1,,,,,ミタスジャパン,0
21,1010401175694,新規,0,2023-07-12,2023-07-12,７３株式会社,,株式会社,東京都,港区,虎ノ門４丁目３番１号城山トラストタワー２１Ｆ,,13,103,1050001,,,,,,,2023-07-12,1,,,,,セテンタイトレス,0
23,1010403030484,新規,0,2023-07-12,2023-07-12,レギオテック合同会社,,合同会社,東京都,港区,芝５丁目２９番３号三田永谷マンション６０２,,13,103,1080014,,,,,,,2023-07-12,1,,,,,レギオテック,0
28,1010701044525,新規,0,2023-07-12,2023-07-12,株式会社あか豆,,株式会社,東京都,品川区,東五反田１丁目１６番１号,,13,109,1410022,,,,,,,2023-07-12,1,,,,,アカマメ,0
29,1010703006770,新規,0,2023-07-12,2023-07-12,合同会社ＤＫＩＴ,,合同会社,東京都,品川区,北品川５丁目３－１,,13,109,1410001,,,,,,,2023-07-12,1,,,,,ディーキット,0
32,1010801034145,新規,0,2023-07-12,2023-07-12,株式会社ｉｘｉｘ,,株式会社,東京都,大田区,蒲田４丁目１８番２７号,,13,111,1440052,,,,,,,2023-07-12,1,,,,,イクシス,0
33,1010803004600,新規,0,2023-07-12,2023-07-12,ＳＢＮ合同会社,,合同会社,東京都,大田区,北千束２丁目２５番５号,,13,111,1450062,,,,,,,2023-07-12,1,,,,,エスビーエヌ,0
35,1010901053425,新規,0,2023-07-12,2023-07-12,株式会社スマイリー,,株式会社,東京都,世田谷区,羽根木２丁目２７番２１号,,13,112,1560042,,,,,,,2023-07-12,1,,,,,スマイリー,0
42,1011001155566,新規,0,2023-07-12,2023-07-12,株式会社Ｃｈａｍａｌ,,株式会社,東京都,渋谷区,宇田川町１番１２－９１２号パークコート渋谷ザタワー,,13,113,1500042,,,,,,,2023-07-12,1,,,,,チャマル,0
43,1011001155582,新規,0,2023-07-12,2023-07-12,株式会社ＹＵＩＣＨＩ,,株式会社,東京都,渋谷区,代々木１丁目３０番１５号天翔代々木ビル５ＦＳ５１５号,,13,113,1510053,,,,,,,2023-07-12,1,,,,,ユイチ,0
44,1011001155590,新規,0,2023-07-12,2023-07-12,株式会社游藝舎,,株式会社,東京都,渋谷区,神宮前６丁目２３番４号桑野ビル２階,,13,113,1500001,,,,,,,2023-07-12,1,,,,,ユウゲイシャ,0
45,1011001155608,新規,0,2023-07-12,2023-07-12,株式会社ブレイブキャピタル,,株式会社,東京都,渋谷区,神泉町１０番１５号,,13,113,1500045,,,,,,,2023-07-12,1,,,,,ブレイブキャピ,0
46,1011001155616,新規,0,2023-07-12,2023-07-12,三和財託株式会社,,株式会社,東京都,目黒区,中目黒３丁目２０番１５号,,13,110,1530061,,,,,,,2023-07-12,1,,,,,サンワザイタク,0
47,1011001155649,新規,0,2023-07-12,2023-07-12,株式会社Ｎ．ＷＯＲＬＤ,,株式会社,東京都,渋谷区,道玄坂１丁目１０番８号渋谷道玄坂東急ビル２Ｆ－Ｃ,,13,113,1500043,,,,,,,2023-07-12,1,,,,,エヌワールド,0
48,1011001155657,新規,0,2023-07-12,2023-07-12,株式会社ＲＥ,,株式会社,東京都,渋谷区,恵比寿南１丁目１８番１３号,,13,113,1500022,,,,,,,2023-07-12,1,,,,,アールイー,0
49,1011001155681,新規,0,2023-07-12,2023-07-12,東亜酵素化学株式会社,,株式会社,東京都,渋谷区,渋谷１丁目３番１８号,,13,113,1500002,,,,,,,2023-07-12,1,,,,,トウアコウソカガク,0
55,1011101103532,新規,0,2023-07-12,2023-07-12,株式会社ビー,,株式会社,東京都,新宿区,西新宿３丁目３番１３号西新宿水間ビル６階,,13,104,1600023,,,,,,,2023-07-12,1,,,,,ビー,0
56,1011101103549,新規,0,2023-07-12,2023-07-12,昌晋株式会社,,株式会社,東京都,新宿区,西五軒町７番１２プラティーク神楽坂４０１号,,13,104,1620812,,,,,,,2023-07-12,1,,,,,ショウシン,0
57,1011101103557,新規,0,2023-07-12,2023-07-12,株式会社ルーミィ,,株式会社,東京都,新宿区,西新宿３丁目３番１３号‐６Ｆ,,13,104,1600023,,,,,,,2023-07-12,1,,,,,ルーミィ,0
65,1011403004049,新規,0,2023-07-12,2023-07-12,合同会社ＣＫＩＴ,,合同会社,東京都,板橋区,小豆沢１丁目２番１９号,,13,119,1740051,,,,,,,2023-07-12,1,,,,,シーキット,0
68,1011501029501,新規,0,2023-07-12,2023-07-12,株式会社ハーフブリード,,株式会社,東京都,荒川区,南千住４丁目７番３－３３０３号,,13,118,1160003,,,,,,,2023-07-12,1,,,,,ハーフブリード,0
69,1011501029526,新規,0,2023-07-12,2023-07-12,ＵＧ株式会社,,株式会社,東京都,北区,十条仲原３丁目８番４－１０１号,,13,117,1140031,,,,,,,2023-07-12,1,,,,,ユージー,0
70,1011503005681,新規,0,2023-07-12,2023-07-12,ポールスターパートナーズ合同会社,,合同会社,東京都,北区,赤羽１丁目７－９赤羽第一葉山ビル４Ｆ,,13,117,1150045,,,,,,,2023-07-12,1,,,,,,0
72,1011605002536,新規,0,2023-07-12,2023-07-12,一般社団法人グッドシー,,その他の設立登記法人,東京都,練馬区,旭丘２丁目３６番１８号－３０１,,13,120,1760005,,,,,,,2023-07-12,1,,,,,グッドシー,0
73,1011701026414,新規,0,2023-07-12,2023-07-12,ＭＡＲＵＮＩ　ＧＲＯＵＰ株式会社,,株式会社,東京都,江戸川区,中葛西１丁目３１番４３号エクセルミクニＩ２０２,00131146,13,123,1340083,,,,,,,2023-07-12,1,,,,,マルニグループ,0
74,1011703003527,新規,0,2023-07-12,2023-07-12,中華光彩合同会社,,合同会社,東京都,江戸川区,平井４丁目２９番５号１０１,,13,123,1320035,,,,,,,2023-07-12,1,,,,,チュウカコウサイ,0
76,1011801042699,新規,0,2023-07-12,2023-07-12,ｊｏｔｏｒｏｙ株式会社,,株式会社,東京都,足立区,栗原４丁目１１－２,,13,121,1230842,,,,,,,2023-07-12,1,,,,,ジョトロイ,0
77,1011801042708,新規,0,2023-07-12,2023-07-12,株式会社Ｆｉｃｕｓ,,株式会社,東京都,足立区,綾瀬７丁目１８番５号,,13,121,1200005,,,,,,,2023-07-12,1,,,,,フィカス,0
80,1012801022501,新規,0,2023-07-12,2023-07-12,株式会社慈恩,,株式会社,東京都,東大和市,上北台３丁目８６９番地の７,,13,220,2070023,,,,,,,2023-07-12,1,,,,,ジオン,0
81,1013303006703,新規,0,2023-07-12,2023-07-12,合同会社マメコアンドコ,,合同会社,東京都,豊島区,東池袋３丁目１９－１０ライオンズタワー池袋２００５号室,,13,116,1700013,,,,,,,2023-07-12,1,,,,,マメコアンドコ,0
85,1020001152481,新規,0,2023-07-12,2023-07-12,アナログアーティスト株式会社,,株式会社,神奈川県,横浜市中区,北仲通３丁目３３番地,,14,104,2310003,,,,,,,2023-07-12,1,,,,,アナログアーティスト,0
86,1020001152498,新規,0,2023-07-12,2023-07-12,エムディーコーポレーション株式会社,,株式会社,神奈川県,横浜市中区,山下町２５番地,,14,104,2310023,,,,,,,2023-07-12,1,,,,,エムディーコーポレーション,0
87,1020001152515,新規,0,2023-07-12,2023-07-12,ビックパンダ株式会社,,株式会社,神奈川県,川崎市中原区,上丸子山王町１丁目１５２５番地コーポ山王１０５,,14,133,2110002,,,,,,,2023-07-12,1,,,,,ビックパンダ,0
88,1020001152531,新規,0,2023-07-12,2023-07-12,株式会社Ｈｎｅｘｔｍｏｖｅ,,株式会社,神奈川県,川崎市中原区,新城１丁目１４番５号,,14,133,2110044,,,,,,,2023-07-12,1,,,,,エイチネクストムーブ,0
91,1020003024183,新規,0,2023-07-12,2023-07-12,合同会社かんおん,,合同会社,神奈川県,横浜市西区,浅間町１丁目１４番地２ダイアパレスグランデージ横濱２０１号,,14,103,2200072,,,,,,,2023-07-12,1,,,,,カンオン,0
93,1021001079483,新規,0,2023-07-12,2023-07-12,サンシュウ株式会社,,株式会社,神奈川県,秦野市,平沢９９４番地の７,,14,211,2570015,,,,,,,2023-07-12,1,,,,,サンシュウ,0
94,1021001079541,新規,0,2023-07-12,2023-07-12,ＳＴＥＬＬＡ株式会社,,株式会社,神奈川県,厚木市,及川１２７２番地５,,14,212,2430212,,,,,,,2023-07-12,1,,,,,ステラ,0
95,1021001079558,新規,0,2023-07-12,2023-07-12,株式会社ＢＯＬＤ　ＨＯＲＩＺＯＮＳ,,株式会社,神奈川県,藤沢市,鵠沼東６－１グレーシア藤沢鵠沼９０７,,14,205,2510026,,,,,,,2023-07-12,1,,,,,ボールドホライゾンズ,0
99,1021003013300,新規,0,2023-07-12,2023-07-12,合同会社Ｈａｓｅ＆Ｔ,,合同会社,神奈川県,横須賀市,鴨居３丁目６１番１５号,,14,201,2390813,,,,,,,2023-07-12,1,,,,,ハセアンドティー,0
101,1030001154717,新規,0,2023-07-12,2023-07-12,株式会社ＦＯＲＥＳＴ　ＢＡＳＥ松竹園,,株式会社,埼玉県,熊谷市,肥塚１１６８番地８,,11,202,3600015,,,,,,,2023-07-12,1,,,,,フォレストベースショウチクエン,0
102,1030001154808,新規,0,2023-07-12,2023-07-12,株式会社トーコ,,株式会社,埼玉県,川口市,江戸２丁目２番地２２,,11,203,3340074,,,,,,,2023-07-12,1,,,,,トーコ,0
103,1030001154832,新規,0,2023-07-12,2023-07-12,株式会社栄昇,,株式会社,埼玉県,さいたま市浦和区,常盤３丁目１２番１７－１０１号,,11,107,3300061,,,,,,,2023-07-12,1,,,,,エイショウ,0
104,1030001154840,新規,0,2023-07-12,2023-07-12,株式会社Ｖｉｃｔｏ,,株式会社,埼玉県,川越市,大字下赤坂６９７番地１,,11,201,3501155,,,,,,,2023-07-12,1,,,,,ヴィクト,0
105,1030001154849,新規,0,2023-07-12,2023-07-12,株式会社ＭＡＫＩＴＯ,,株式会社,埼玉県,所沢市,南住吉２１番３２－３０１号室,,11,208,3591125,,,,,,,2023-07-12,1,,,,,マキト,0
106,1030001154857,新規,0,2023-07-12,2023-07-12,農地所有適格法人株式会社静林,,株式会社,埼玉県,八潮市,大字八條２３２３番地１,,11,234,3400801,,,,,,,2023-07-12,1,,,,,セイリン,0
108,1030003022095,新規,0,2023-07-12,2023-07-12,合同会社ボブ,,合同会社,埼玉県,川口市,戸塚鋏町３３番４号,,11,203,3330805,,,,,,,2023-07-12,1,,,,,ボブ,0
109,1030003022104,新規,0,2023-07-12,2023-07-12,五千商事合同会社,,合同会社,埼玉県,蓮田市,大字閏戸４０２１番地１,,11,238,3490133,,,,,,,2023-07-12,1,,,,,ゴセンショウジ,0
111,1040001129148,新規,0,2023-07-12,2023-07-12,株式会社ＰＲＯＧＲＥＳＳ,,株式会社,千葉県,市原市,五井中央西２丁目７番１５号ウルマ駅前ビル１階,,12,219,2900081,,,,,,,2023-07-12,1,,,,,プログレス,0
112,1040001129222,新規,0,2023-07-12,2023-07-12,智傑株式会社,,株式会社,千葉県,成田市,並木町２１９番地１５５ＳＵＮビル４０２,,12,211,2860045,,,,,,,2023-07-12,1,,,,,チケツ,0
113,1040003022945,新規,0,2023-07-12,2023-07-12,合同会社みやび商事,,合同会社,千葉県,匝瑳市,八日市場ハ７５５番地,,12,235,2892141,,,,,,,2023-07-12,1,,,,,ミヤビショウジ,0
114,1040003022953,新規,0,2023-07-12,2023-07-12,ＭＵＳＴ合同会社,,合同会社,千葉県,松戸市,樋野口４９０番地の１,,12,207,2710067,,,,,,,2023-07-12,1,,,,,マスト,0
116,1050001053149,新規,0,2023-07-12,2023-07-12,株式会社ＢＥＳＬＯＰＥ,,株式会社,茨城県,那珂市,西木倉２０６番地２,,08,226,3110115,,,,,,,2023-07-12,1,,,,,ビースロープ,0
119,1050003007623,新規,0,2023-07-12,2023-07-12,合同会社Ｗｅ　Ｌｉｖｉｎｇ,,合同会社,茨城県,水戸市,中央１丁目１－２８,,08,201,3100805,,,,,,,2023-07-12,1,,,,,ウィーリビング,0
120,1050003007631,新規,0,2023-07-12,2023-07-12,合同会社サンライズ,,合同会社,茨城県,結城郡八千代町,大字菅谷１１３３番地,,08,521,3003572,,,,,,,2023-07-12,1,,,,,サンライズ,0
121,1060001036152,新規,0,2023-07-12,2023-07-12,株式会社シントオ社,,株式会社,栃木県,鹿沼市,奈佐原町５１１番地３,,09,205,3220528,,,,,,,2023-07-12,1,,,,,シントオシャ,0
126,1070001040640,新規,0,2023-07-12,2023-07-12,株式会社ＲＴビジネスサポート,,株式会社,群馬県,吾妻郡長野原町,大字北軽井沢１９２４番地１７２エルウイング１１１０号,,10,424,3771412,,,,,,,2023-07-12,1,,,,,アールティビジネスサポート,0
128,1070003005022,新規,0,2023-07-12,2023-07-12,ＴｕｎｅｄＪＤＭ‐ｔｏｋｙｏ合同会社,,合同会社,群馬県,北群馬郡吉岡町,大字大久保３５７３番地３,,10,345,3703602,,,,,,,2023-07-12,1,,,,,,0
130,1080403004829,新規,0,2023-07-12,2023-07-12,ニューロルド合同会社,,合同会社,静岡県,浜松市中区,船越町一丁目－１０,,22,131,4300913,,,,,,,2023-07-12,1,,,,,ニューロルド,0
133,1090001018206,新規,0,2023-07-12,2023-07-12,株式会社甲斐駒ＰＲＩＤＥ,,株式会社,山梨県,北杜市,武川町柳澤３６０１番地１,,19,209,4080307,,,,,,,2023-07-12,1,,,,,カイコマプライド,0
143,1100001036577,新規,0,2023-07-12,2023-07-12,株式会社ＴＥＲＥＳＯＲＴ,,株式会社,長野県,諏訪市,大字中洲２５３４番地９,,20,206,3920015,,,,,,,2023-07-12,1,,,,,ティリゾート,0
145,1100003007106,新規,0,2023-07-12,2023-07-12,合同会社ＮＳＰ讃州煙火,,合同会社,長野県,飯田市,山本６７２２番地２６５（コスモハイツ６号）,,20,205,3950244,,,,,,,2023-07-12,1,,,,,エヌエスピーサンシュウエンカ,0
146,1110005016962,新規,0,2023-07-12,2023-07-12,一般社団法人和道厚生事業団,,その他の設立登記法人,新潟県,上越市,西城町２丁目７番４号,,15,222,9430834,,,,,,,2023-07-12,1,,,,,ワドウコウセイジギョウダン,0
154,1120001256248,新規,0,2023-07-12,2023-07-12,Ｐｌａｎｅｔａ　Ｃｒｅａｔｉｖｅ株式会社,,株式会社,大阪府,大阪市北区,堂山町１番５号三共梅田ビル８Ｆ,,27,127,5300027,,,,,,,2023-07-12,1,,,,,プラネタクリエイティブ,0
155,1120001256264,新規,0,2023-07-12,2023-07-12,株式会社Ａ２Ｚ,,株式会社,大阪府,大阪市中央区,谷町５丁目６番１５－１４０１号,,27,128,5400012,,,,,,,2023-07-12,1,,,,,エートゥーズィー,0
156,1120001256347,新規,0,2023-07-12,2023-07-12,株式会社エスピーパートナー,,株式会社,大阪府,大阪市東成区,東小橋２丁目１０番７－１４０２号,,27,115,5370024,,,,,,,2023-07-12,1,,,,,エスピーパートナー,0
157,1120001256438,新規,0,2023-07-12,2023-07-12,株式会社大阪後象建築設計事務所,,株式会社,大阪府,大阪市浪速区,日本橋東１丁目８番１号,,27,111,5560006,,,,,,,2023-07-12,1,,,,,オオサカコウショウケンチクセッケイジムショ,0
158,1120001256446,新規,0,2023-07-12,2023-07-12,株式会社銀丁屋,,株式会社,大阪府,大阪市生野区,巽北１丁目２１番２９号生野ハイツ４１４号室,00131153,27,116,5440004,,,,,,,2023-07-12,1,,,,,ギンチョウヤ,0
160,1120003024479,新規,0,2023-07-12,2023-07-12,合同会社白沢商事,,合同会社,大阪府,大阪市平野区,瓜破３丁目３番６５号,,27,126,5470024,,,,,,,2023-07-12,1,,,,,ハクタクショウジ,0
163,1120101067883,新規,0,2023-07-12,2023-07-12,株式会社エフケービー,,株式会社,大阪府,岸和田市,池尻町１００－１５,,27,202,5960813,,,,,,,2023-07-12,1,,,,,エフケービー,0
165,1120901047787,新規,0,2023-07-12,2023-07-12,アスタノ株式会社,,株式会社,大阪府,高槻市,東和町３４番１３号,,27,207,5690032,,,,,,,2023-07-12,1,,,,,アスタノ,0
166,1120903004737,新規,0,2023-07-12,2023-07-12,プラスアシスト合同会社,,合同会社,大阪府,豊中市,夕日丘３丁目１０番１８－４０５号,,27,203,5610864,,,,,,,2023-07-12,1,,,,,プラスアシスト,0
168,1122001037157,新規,0,2023-07-12,2023-07-12,エイチケイ株式会社,,株式会社,大阪府,八尾市,龍華町１丁目４番２－２８０６号,,27,212,5810069,,,,,,,2023-07-12,1,,,,,エイチケイ,0
174,1130001074715,新規,0,2023-07-12,2023-07-12,株式会社ＫＡコンサルティング,,株式会社,京都府,京都市北区,大宮東小野堀町５１番地２,,26,101,6038406,,,,,,,2023-07-12,1,,,,,ケーエーコンサルティング,0
176,1140001130830,新規,0,2023-07-12,2023-07-12,株式会社Ｈ＆Ｐ,,株式会社,兵庫県,神戸市灘区,船寺通５丁目１番８号,,28,102,6570842,,,,,,,2023-07-12,1,,,,,エイッチアンドピー,0
177,1140001130871,新規,0,2023-07-12,2023-07-12,ｖｉｓｉｏｎ　ＡＲＡＮＤＡ株式会社,,株式会社,兵庫県,神戸市垂水区,塩屋町９丁目１７－８－３０４,,28,108,6550872,,,,,,,2023-07-12,1,,,,,ヴィシオンアランダ,0
181,1150001026532,新規,0,2023-07-12,2023-07-12,高橋商店株式会社,,株式会社,奈良県,奈良市,赤膚町１１４４番地の５,,29,201,6308035,,,,,,,2023-07-12,1,,,,,タカハシショウテン,0
184,1150003003001,新規,0,2023-07-12,2023-07-12,Ｋ＆Ｓ合同会社,,合同会社,奈良県,香芝市,北今市４丁目２０６番地８,,29,210,6390242,,,,,,,2023-07-12,1,,,,,ケイアンドエス,0
186,1160001025178,新規,0,2023-07-12,2023-07-12,株式会社聖心,,株式会社,滋賀県,犬上郡豊郷町,大字高野瀬６７８－１７,,25,441,5291173,,,,,,,2023-07-12,1,,,,,ミココロ,0
194,1180001156962,新規,0,2023-07-12,2023-07-12,壱力堂株式会社,,株式会社,愛知県,名古屋市緑区,青山２丁目８,,23,114,4580833,,,,,,,2023-07-12,1,,,,,イチリキドウ,0
195,1180001157044,新規,0,2023-07-12,2023-07-12,株式会社４Ｓ,,株式会社,愛知県,名古屋市東区,泉２丁目８番７号,,23,102,4610001,,,,,,,2023-07-12,1,,,,,フォーエス,0
196,1180001157102,新規,0,2023-07-12,2023-07-12,株式会社Ｃｈｉｒｉｔｔｏ,,株式会社,愛知県,名古屋市東区,葵３丁目１１番６号セントラル桜通葵ビル３階Ｂ,,23,102,4610004,,,,,,,2023-07-12,1,,,,,チリット,0
197,1180001157110,新規,0,2023-07-12,2023-07-12,株式会社近藤設備,,株式会社,愛知県,名古屋市北区,成願寺２丁目４番９号－１,,23,103,4620021,,,,,,,2023-07-12,1,,,,,コンドウセツビ,0
198,1180001157119,新規,0,2023-07-12,2023-07-12,イグニスコンサルティング株式会社,,株式会社,愛知県,名古屋市西区,名駅１丁目１－１７名鉄ダイヤメイテツビル１１階,,23,104,4510045,,,,,,,2023-07-12,1,,,,,イグニスコンサルティング,0
199,1180001157135,新規,0,2023-07-12,2023-07-12,株式会社テクテクデザイン,,株式会社,愛知県,一宮市,木曽川町里小牧字渡瀬４５－８,,23,203,4930005,,,,,,,2023-07-12,1,,,,,テクテクデザイン,0
207,1180301037557,新規,0,2023-07-12,2023-07-12,株式会社東洋科技研究院,,株式会社,愛知県,豊橋市,柱六番町７３番地の１,,23,201,4418058,,,,,,,2023-07-12,1,,,,,トウヨウカギケンキュウイン,0
215,1200001041492,新規,0,2023-07-12,2023-07-12,株式会社Ｃａｎｎｏｗ,,株式会社,岐阜県,岐阜市,野一色２丁目５番地１５,,21,201,5008226,,,,,,,2023-07-12,1,,,,,カナウ,0
216,1200003006015,新規,0,2023-07-12,2023-07-12,合同会社智龍,,合同会社,岐阜県,土岐市,下石町３０４‐５１８,,21,212,5095202,,,,,,,2023-07-12,1,,,,,チリュウ,0
222,1240001061818,新規,0,2023-07-12,2023-07-12,イゼンコンサルタント株式会社,,株式会社,広島県,呉市,広中町１番１６－１１０１号,,34,202,7370131,,,,,,,2023-07-12,1,,,,,イゼンコンサルタント,0
223,1240003006218,新規,0,2023-07-12,2023-07-12,合同会社ＯｓｈｉＰｒｏ,,合同会社,広島県,広島市南区,京橋町１－７アスティ広島京橋ビルディング１階,,34,103,7320828,,,,,,,2023-07-12,1,,,,,オシプロ,0
226,1260001038120,新規,0,2023-07-12,2023-07-12,株式会社バディワンオート,,株式会社,岡山県,都窪郡早島町,早島４６９８番地１,,33,423,7010304,,,,,,,2023-07-12,1,,,,,,0
229,1290001102212,新規,0,2023-07-12,2023-07-12,株式会社アンカー,,株式会社,福岡県,福岡市中央区,高砂１丁目２４番２０号,,40,133,8100011,,,,,,,2023-07-12,1,,,,,アンカー,0
230,1290001102237,新規,0,2023-07-12,2023-07-12,優和ロジテック株式会社,,株式会社,福岡県,朝倉市,杷木池田８１０番地４エバーライフ杷木３０１号,,40,228,8381511,,,,,,,2023-07-12,1,,,,,ユウワロジテック,0
231,1290001102261,新規,0,2023-07-12,2023-07-12,株式会社シャインブライト,,株式会社,福岡県,福岡市東区,原田１丁目２７番４号,,40,131,8120063,,,,,,,2023-07-12,1,,,,,シャインブライト,0
236,1290801029687,新規,0,2023-07-12,2023-07-12,Ｇｏ‐ｕｐ総建株式会社,,株式会社,福岡県,北九州市八幡西区,楠橋南１丁目１５番９号,,40,109,8071143,,,,,,,2023-07-12,1,,,,,ゴーアップソウケン,0
237,1290801029695,新規,0,2023-07-12,2023-07-12,株式会社アルバルーキス,,株式会社,福岡県,北九州市小倉北区,浅野１丁目２番３９号クルーズ浅野ビル２０７－１,,40,106,8020001,,,,,,,2023-07-12,1,,,,,アルバルーキス,0
242,1300001013358,新規,0,2023-07-12,2023-07-12,株式会社はちろ,,株式会社,佐賀県,唐津市,後川内１７０７番地２,,41,202,8470804,,,,,,,2023-07-12,1,,,,,ハチロ,0
243,1300003001988,新規,0,2023-07-12,2023-07-12,合同会社大星,,合同会社,佐賀県,唐津市,浜玉町浜崎１５９８番地２,,41,202,8495131,,,,,,,2023-07-12,1,,,,,タイセイ,0
248,1330001031027,新規,0,2023-07-12,2023-07-12,株式会社西建築,,株式会社,熊本県,球磨郡あさぎり町,深田東１８６９番地５,,43,514,8680442,,,,,,,2023-07-12,1,,,,,ニシケンチク,0
253,1340003004178,新規,0,2023-07-12,2023-07-12,合同会社まんぷくクッキーｔｏｍｏｒｒｏｗ,,合同会社,鹿児島県,姶良市,加治木町木田２８４９番地,,46,225,8995241,,,,,,,2023-07-12,1,,,,,マンプククッキートゥモロウ,0
258,1360001032245,新規,0,2023-07-12,2023-07-12,株式会社うまりずま,,株式会社,沖縄県,宮古島市,平良字下里５５６番地,,47,214,9060013,,,,,,,2023-07-12,1,,,,,ウマリズマ,0
259,1360003013111,新規,0,2023-07-12,2023-07-12,合同会社あみ,,合同会社,沖縄県,名護市,字運天原２７２,,47,209,9051634,,,,,,,2023-07-12,1,,,,,アミ,0
261,1370001050163,新規,0,2023-07-12,2023-07-12,株式会社スリーネット,,株式会社,宮城県,富谷市,大清水１丁目２番地９,,04,216,9813329,,,,,,,2023-07-12,1,,,,,スリーネット,0
262,1370001050171,新規,0,2023-07-12,2023-07-12,株式会社フィフティプラス,,株式会社,宮城県,仙台市青葉区,中央３丁目５－３０Ｔ＆Ｉ、ＮＥＸＴビル４Ｆ,,04,101,9800021,,,,,,,2023-07-12,1,,,,,フィフティプラス,0
269,1380003005511,新規,0,2023-07-12,2023-07-12,合同会社リフリーリー,,合同会社,福島県,南会津郡南会津町,田島字南下原８７番地１,,07,368,9670004,,,,,,,2023-07-12,1,,,,,リフリーリー,0
281,1450001014052,新規,0,2023-07-12,2023-07-12,株式会社みずのピアノ調律事務所,,株式会社,北海道,旭川市,宮下通４丁目１番１１－７０７号,,01,204,0700030,,,,,,,2023-07-12,1,,,,,ミズノピアノチョウリツジムショ,0
282,1450003002360,新規,0,2023-07-12,2023-07-12,合同会社市澤組,,合同会社,北海道,旭川市,春光台五条２丁目２―２５,,01,204,0718145,,,,,,,2023-07-12,1,,,,,イチザワグミ,0
312,2010001236788,新規,0,2023-07-12,2023-07-12,株式会社ベスティ,,株式会社,東京都,中央区,銀座６丁目６番１号銀座風月堂ビル５Ｆ,,13,102,1040061,,,,,,,2023-07-12,1,,,,,ベスティ,0
313,2010001236805,新規,0,2023-07-12,2023-07-12,ティーエルシーセージ株式会社,,株式会社,東京都,千代田区,神田練塀町３番地,,13,101,1010022,,,,,,,2023-07-12,1,,,,,ティーエルシーセージ,0
314,2010001236813,新規,0,2023-07-12,2023-07-12,株式会社Ａｐｐ　Ｃｏｎｎｅｃｔ,,株式会社,東京都,中央区,銀座１丁目１２番４号Ｎ＆ＥＢＬＤ．６Ｆ,,13,102,1040061,,,,,,,2023-07-12,1,,,,,アップコネクト,0
319,2010003041105,新規,0,2023-07-12,2023-07-12,合同会社萬福商行,,合同会社,東京都,千代田区,神田神保町１丁目１１－６,,13,101,1010051,,,,,,,2023-07-12,1,,,,,マンフクショウコウ,0
320,2010003041113,新規,0,2023-07-12,2023-07-12,合同会社Ｅｓｐｏｉｒ　ＭＫ,,合同会社,東京都,中央区,勝どき５丁目３－１－７２５,,13,102,1040054,,,,,,,2023-07-12,1,,,,,エスポワールエムケー,0
324,2010101015720,新規,0,2023-07-12,2023-07-12,ＦＢホールディングス株式会社,,株式会社,東京都,八王子市,四谷町８１９番地１,,13,201,1930813,,,,,,,2023-07-12,1,,,,,エフビーホールディングス,0
332,2010401175545,新規,0,2023-07-12,2023-07-12,株式会社ＲＵＡＮＡ,,株式会社,東京都,港区,南青山１丁目１０番１０号,,13,103,1070062,,,,,,,2023-07-12,1,,,,,ルアナ,0
333,2010401175660,新規,0,2023-07-12,2023-07-12,株式会社Ｎａｖｉｅｗ,,株式会社,東京都,港区,芝４丁目７番６号芝ビルディング７０４,,13,103,1080014,,,,,,,2023-07-12,1,,,,,ナビュー,0
334,2010401175669,新規,0,2023-07-12,2023-07-12,Ｇｅｎｅｒａｔｉｖｅ　ＡＸ株式会社,,株式会社,東京都,港区,海岸１丁目７番１号,,13,103,1050022,,,,,,,2023-07-12,1,,,,,ジェネラティブエーエックス,0
335,2010401175702,新規,0,2023-07-12,2023-07-12,株式会社１６６,,株式会社,東京都,港区,北青山１丁目３番１号アールキューブ青山３階,,13,103,1070061,,,,,,,2023-07-12,1,,,,,ヒロム,0
340,2010701044549,新規,0,2023-07-12,2023-07-12,株式会社Ａｒｔｉｆａｃｔ,,株式会社,東京都,品川区,西五反田５丁目２３番３号５階５－Ａ号室,,13,109,1410031,,,,,,,2023-07-12,1,,,,,アーティファクト,0
341,2010801034144,新規,0,2023-07-12,2023-07-12,株式会社ハヤブサＣＧ,,株式会社,東京都,大田区,北嶺町４５番１０号,,13,111,1450073,,,,,,,2023-07-12,1,,,,,ハヤブサシージー,0
347,2010901053399,新規,0,2023-07-12,2023-07-12,株式会社５０ノ音,,株式会社,東京都,世田谷区,北沢１丁目３８－１４しょうわ下北ビル２Ｆ,,13,112,1550031,,,,,,,2023-07-12,1,,,,,ゴウゼロノオト,0
350,2011001155631,新規,0,2023-07-12,2023-07-12,株式会社Ｈａｚｕｍｉ,,株式会社,東京都,渋谷区,道玄坂１丁目１０番８号渋谷道玄坂東急ビル２Ｆ－Ｃ,,13,113,1500043,,,,,,,2023-07-12,1,,,,,ハズミ,0
351,2011001155648,新規,0,2023-07-12,2023-07-12,ＴｅｃｈＮｏａｍ株式会社,,株式会社,東京都,渋谷区,道玄坂１丁目１０番８号渋谷道玄坂東急ビル２Ｆ－Ｃ,,13,113,1500043,,,,,,,2023-07-12,1,,,,,テックノーム,0
352,2011003017078,新規,0,2023-07-12,2023-07-12,合同会社あとおし,,合同会社,東京都,渋谷区,幡ヶ谷２丁目２２－３リバティハイム３－Ｃ,,13,113,1510072,,,,,,,2023-07-12,1,,,,,アトオシ,0
353,2011003017152,新規,0,2023-07-12,2023-07-12,合同会社ＯＦＦＩＣＥ　ＴＡＳ,,合同会社,東京都,渋谷区,道玄坂１丁目１０番８号渋谷道玄坂東急ビル２Ｆ－Ｃ,,13,113,1500043,,,,,,,2023-07-12,1,,,,,オフィスティーエーエス,0
362,2011103013241,新規,0,2023-07-12,2023-07-12,ＦＪ合同会社,,合同会社,東京都,新宿区,西新宿７丁目５番９－２２０３号,,13,104,1600023,,,,,,,2023-07-12,1,,,,,エフジェイ,0
366,2011403004048,新規,0,2023-07-12,2023-07-12,吉方合同会社,,合同会社,東京都,板橋区,氷川町１７番２号,,13,119,1730013,,,,,,,2023-07-12,1,,,,,ヨシカタ,0
368,2011501029500,新規,0,2023-07-12,2023-07-12,株式会社ｗｏｒｋ　ｏｕｔ,,株式会社,東京都,荒川区,南千住４丁目７番３－３３０３号,,13,118,1160003,,,,,,,2023-07-12,1,,,,,ワークアウト,0
369,2011601026967,新規,0,2023-07-12,2023-07-12,株式会社Ｇ＆Ｇバイオ,,株式会社,東京都,練馬区,石神井台３丁目２５番２号,,13,120,1770045,,,,,,,2023-07-12,1,,,,,ジーアンドジーバイオ,0
371,2011703003526,新規,0,2023-07-12,2023-07-12,合同会社日高,,合同会社,東京都,江戸川区,一之江３丁目１２番２４号,,13,123,1320024,,,,,,,2023-07-12,1,,,,,,0
374,2011801042681,新規,0,2023-07-12,2023-07-12,コア株式会社,,株式会社,東京都,葛飾区,青戸７丁目２３－１０,,13,122,1250062,,,,,,,2023-07-12,1,,,,,,0
375,2011801042707,新規,0,2023-07-12,2023-07-12,康宏偉業株式会社,,株式会社,東京都,足立区,西新井本町１丁目１３番２０号国振ビル３Ｆ,,13,121,1230845,,,,,,,2023-07-12,1,,,,,ヤスヒロイフン,0
376,2012301013520,新規,0,2023-07-12,2023-07-12,一諾株式会社,,株式会社,東京都,町田市,大蔵町３５０１番地３,,13,209,1950062,,,,,,,2023-07-12,1,,,,,イチダク,0
381,2012701017749,新規,0,2023-07-12,2023-07-12,株式会社テクノロジーライフ,,株式会社,東京都,東久留米市,弥生１丁目２番４７号,,13,222,2030034,,,,,,,2023-07-12,1,,,,,テクノロジーライフ,0
382,2012703002749,新規,0,2023-07-12,2023-07-12,合同会社芽維美,,合同会社,東京都,小平市,小川町１丁目７７２番地１８,,13,211,1870032,,,,,,,2023-07-12,1,,,,,メイミ,0
391,2020001152407,新規,0,2023-07-12,2023-07-12,ｎｏｃｏ‐ｔｅｃｈ株式会社,,株式会社,神奈川県,横浜市神奈川区,守屋町３丁目９番地,,14,102,2210022,,,,,,,2023-07-12,1,,,,,ノコテック,0
392,2020001152448,新規,0,2023-07-12,2023-07-12,株式会社Ｃ　Ｐｒｏｊｅｃｔｓ,,株式会社,神奈川県,横浜市中区,本牧原４番２－７０７号,,14,104,2310821,,,,,,,2023-07-12,1,,,,,シープロジェクツ,0
393,2020001152464,新規,0,2023-07-12,2023-07-12,株式会社アクセル,,株式会社,神奈川県,横浜市保土ケ谷区,岩崎町１２番５－２０１号,,14,106,2400015,,,,,,,2023-07-12,1,,,,,アクセル,0
394,2020001152497,新規,0,2023-07-12,2023-07-12,株式会社Ｍｕｓｔａｒｄｏｔ,,株式会社,神奈川県,横浜市青葉区,藤が丘２丁目１３番地３谷本ビル３０２号,,14,117,2270043,,,,,,,2023-07-12,1,,,,,マスタードット,0
395,2020001152506,新規,0,2023-07-12,2023-07-12,キーストーントレーディング株式会社,,株式会社,神奈川県,横浜市鶴見区,下野谷町１丁目３７番地,,14,101,2300047,,,,,,,2023-07-12,1,,,,,キーストーントレーディング,0
397,2020003024208,新規,0,2023-07-12,2023-07-12,合同会社拓明機工,,合同会社,神奈川県,横浜市青葉区,すみよし台１４番地１０ルビコンすみよし台２０３号,,14,117,2270035,,,,,,,2023-07-12,1,,,,,タクミキコウ,0
399,2021001079565,新規,0,2023-07-12,2023-07-12,株式会社ティアイティ,,株式会社,神奈川県,相模原市緑区,下九沢１５８４番地２０,,14,151,2520134,,,,,,,2023-07-12,1,,,,,ティアイティ,0
402,2021003013299,新規,0,2023-07-12,2023-07-12,Ｌｅａ　Ｌｅａ合同会社,,合同会社,神奈川県,海老名市,大谷北３丁目１６番１４－３０５号,,14,215,2430419,,,,,,,2023-07-12,1,,,,,レアレア,0
405,2030001154823,新規,0,2023-07-12,2023-07-12,株式会社ノッドガーデン,,株式会社,埼玉県,さいたま市南区,大字太田窪２５９２番地１,,11,108,3360015,,,,,,,2023-07-12,1,,,,,ノッドガーデン,0
409,2030003022103,新規,0,2023-07-12,2023-07-12,合同会社休日日和,,合同会社,埼玉県,入間郡三芳町,大字藤久保２８０番地３９,,11,324,3540041,,,,,,,2023-07-12,1,,,,,キュウジツビヨリ,0
410,2030003022111,新規,0,2023-07-12,2023-07-12,合同会社オフィスＴＫＳ＆ＢＪ,,合同会社,埼玉県,さいたま市岩槻区,美園東１丁目１番地１、１０２０号室,,11,110,3390028,,,,,,,2023-07-12,1,,,,,オフィスティケーエスアンドビージェイ,0
413,2040001129205,新規,0,2023-07-12,2023-07-12,株式会社平民の会,,株式会社,千葉県,千葉市中央区,亀岡町８番８号,,12,101,2600857,,,,,,,2023-07-12,1,,,,,ヘイミンノカイ,0
414,2040001129213,新規,0,2023-07-12,2023-07-12,ブルーローズ株式会社,,株式会社,千葉県,柏市,今谷上町６５－１・１Ｆ,,12,217,2770074,,,,,,,2023-07-12,1,,,,,ブルーローズ,0
415,2040001129221,新規,0,2023-07-12,2023-07-12,ＮｏｖａＲｉｓｅ株式会社,,株式会社,千葉県,柏市,中央２丁目２－１８ＭＡＫＥＢＬＤＧ２０３,,12,217,2770023,,,,,,,2023-07-12,1,,,,,ノヴァライズ,0
417,2040003022944,新規,0,2023-07-12,2023-07-12,合同会社ＪＯＰＰＹ,,合同会社,千葉県,千葉市花見川区,幕張町１丁目７６７５番地１０１,,12,102,2620032,,,,,,,2023-07-12,1,,,,,ジョッピー,0
419,2050001053115,新規,0,2023-07-12,2023-07-12,ＳＡＩＴＯ株式会社,,株式会社,茨城県,筑西市,海老江６１８番地,,08,227,3004538,,,,,,,2023-07-12,1,,,,,サイトウ,0
420,2050001053131,新規,0,2023-07-12,2023-07-12,株式会社ＯＧＡＷＡ　ＤＡＲ　ＴＲＡＤＩＮＧ,,株式会社,茨城県,下妻市,北大宝２５９番地３,,08,210,3040021,,,,,,,2023-07-12,1,,,,,オガワダールトレーディング,0
421,2050001053156,新規,0,2023-07-12,2023-07-12,株式会社ＢＯＯＭ,,株式会社,茨城県,水戸市,見川町２１３１番地１８１７,,08,201,3100913,,,,,,,2023-07-12,1,,,,,ブーム,0
425,2060001036151,新規,0,2023-07-12,2023-07-12,株式会社ＥＣＯ　ＡＵＴＯ　ＩＮＴＥＲＮＡＴＩＯＮＡＬ,,株式会社,栃木県,小山市,駅南町３丁目３番３号,,09,208,3230822,,,,,,,2023-07-12,1,,,,,エコオートインターナショナル,0
427,2070001040631,新規,0,2023-07-12,2023-07-12,ウィズアスコーポレーション株式会社,,株式会社,群馬県,館林市,本町２丁目５番３６号,,10,207,3740024,,,,,,,2023-07-12,1,,,,,ウィズアスコーポレーション,0
432,2080001025722,新規,0,2023-07-12,2023-07-12,株式会社たけうち,,株式会社,静岡県,榛原郡吉田町,住吉２００４番地の２,,22,424,4210301,,,,,,,2023-07-12,1,,,,,タケウチ,0
437,2080401026592,新規,0,2023-07-12,2023-07-12,株式会社Ｒｅｓｔｙｌｅ,,株式会社,静岡県,浜松市浜北区,内野１０１９番地の１,,22,136,4340044,,,,,,,2023-07-12,1,,,,,リスタイル,0
441,2090001018205,新規,0,2023-07-12,2023-07-12,株式会社インティウム,,株式会社,山梨県,笛吹市,御坂町下野原７３６番地２,,19,211,4060811,,,,,,,2023-07-12,1,,,,,インティウム,0
442,2090003002339,新規,0,2023-07-12,2023-07-12,合同会社ＡＲＡＴＡ,,合同会社,山梨県,上野原市,新田１３３８－８,,19,212,4090113,,,,,,,2023-07-12,1,,,,,アラタ,0
443,2100001036576,新規,0,2023-07-12,2023-07-12,株式会社Ｒ＆Ｎ　ＳＰＯＲＴＳ,,株式会社,長野県,小諸市,大字八満１２２番地１８,,20,208,3840051,,,,,,,2023-07-12,1,,,,,アールアンドエヌスポーツ,0
457,2120001256313,新規,0,2023-07-12,2023-07-12,株式会社ＮＥＣＯ,,株式会社,大阪府,大阪市浪速区,元町２丁目３番１号難波ユニオンビル東館ＢＦ,,27,111,5560016,,,,,,,2023-07-12,1,,,,,ネコ,0
458,2120001256346,新規,0,2023-07-12,2023-07-12,株式会社ヘルパー会議室,,株式会社,大阪府,大阪市北区,梅田１丁目２番２号大阪駅前第２ビル１２－１２,,27,127,5300001,,,,,,,2023-07-12,1,,,,,ヘルパーカイギシツ,0
459,2120001256354,新規,0,2023-07-12,2023-07-12,株式会社ＭＩＥＬＨＩＭＥ,,株式会社,大阪府,大阪市中央区,南本町３丁目２－９本町今岡ビル９Ｆ,,27,128,5410054,,,,,,,2023-07-12,1,,,,,ミエールハイム,0
460,2120001256486,新規,0,2023-07-12,2023-07-12,株式会社ＤＯＣＴＬＥＲＳ,,株式会社,大阪府,大阪市淀川区,西中島３丁目１１番２６号Ａｕｒｏｒａビル新大阪４１０号室,,27,123,5320011,,,,,,,2023-07-12,1,,,,,ドクトラーズ,0
468,2120003024429,新規,0,2023-07-12,2023-07-12,９月合同会社,,合同会社,大阪府,大阪市西区,九条南２丁目１６番１３号,,27,106,5500025,,,,,,,2023-07-12,1,,,,,クガツ,0
469,2120005023726,新規,0,2023-07-12,2023-07-12,共新協同組合,,その他の設立登記法人,大阪府,大阪市中央区,南船場１丁目３番１４号ストークビル南船場４０９号室,,27,128,5420081,,,,,,,2023-07-12,1,,,,,キョウシン,0
478,2130001074689,新規,0,2023-07-12,2023-07-12,株式会社Ｓ　ＥＩＧＨＴ,,株式会社,京都府,京都市山科区,勧修寺西金ケ崎２５４勧修寺エステートビル,,26,110,6078221,,,,,,,2023-07-12,1,,,,,エスエイト,0
484,2140001130813,新規,0,2023-07-12,2023-07-12,株式会社ケイビックス,,株式会社,兵庫県,宝塚市,雲雀丘山手２丁目１５－４０,,28,214,6650804,,,,,,,2023-07-12,1,,,,,ケイビックス,0
485,2140001130838,新規,0,2023-07-12,2023-07-12,株式会社大和青果,,株式会社,兵庫県,姫路市,白浜町甲１９２０番地５４,,28,201,6728023,,,,,,,2023-07-12,1,,,,,ダイワセイカ,0
489,2140003019286,新規,0,2023-07-12,2023-07-12,合同会社ＳＡＩｎｎｏｖａｔｉｏｎ,,合同会社,兵庫県,姫路市,飾磨区城南町２丁目１５番地ロワイヤル英賀保参番館５０１,,28,201,6728083,,,,,,,2023-07-12,1,,,,,エスエーイノベーション,0
490,2140003019294,新規,0,2023-07-12,2023-07-12,合同会社イーグレセンバ,,合同会社,兵庫県,姫路市,船丘町２９３番地,,28,201,6700034,,,,,,,2023-07-12,1,,,,,イーグレセンバ,0
492,2150001026531,新規,0,2023-07-12,2023-07-12,広田設計株式会社,,株式会社,奈良県,大和郡山市,小泉町１５９９番地,,29,203,6391042,,,,,,,2023-07-12,1,,,,,ヒロタセッケイ,0
502,2180001157092,新規,0,2023-07-12,2023-07-12,株式会社新星,,株式会社,愛知県,春日井市,大留町７丁目２番地１,,23,206,4870024,,,,,,,2023-07-12,1,,,,,シンセイ,0
503,2180001157118,新規,0,2023-07-12,2023-07-12,株式会社叶庄,,株式会社,愛知県,名古屋市中川区,畑田町３丁目４９番地,,23,110,4540860,,,,,,,2023-07-12,1,,,,,カナショウ,0
504,2180001157126,新規,0,2023-07-12,2023-07-12,株式会社ＡｃｒｏＶｏｙａｇｅ,,株式会社,愛知県,名古屋市北区,城東町３丁目６８岩村ビル１Ｆ,,23,103,4620831,,,,,,,2023-07-12,1,,,,,アクロボヤージュ,0
505,2180001157150,新規,0,2023-07-12,2023-07-12,株式会社Ａｎｕｔｉｅ,,株式会社,愛知県,名古屋市中村区,名駅３丁目４－１０アルティメイト名駅１ｓｔ２階,,23,105,4500002,,,,,,,2023-07-12,1,,,,,アヌティ,0
508,2180003025446,新規,0,2023-07-12,2023-07-12,合同会社Ｋ　Ｃｏｍｐａｎｙ,,合同会社,愛知県,名古屋市天白区,表山３丁目２４５３番地の１藤和八事ホームズ２０６号,,23,116,4680069,,,,,,,2023-07-12,1,,,,,ケーカンパニー,0
509,2180003025454,新規,0,2023-07-12,2023-07-12,合同会社モナカ,,合同会社,愛知県,名古屋市中区,丸の内２丁目１３番１６号‐２,,23,106,4600002,,,,,,,2023-07-12,1,,,,,モナカ,0
510,2180003025479,新規,0,2023-07-12,2023-07-12,合同会社良心屋,,合同会社,愛知県,東海市,養父町森東８番地の２,,23,222,4770034,,,,,,,2023-07-12,1,,,,,リョウシンヤ,0
511,2180003025487,新規,0,2023-07-12,2023-07-12,合同会社セレブライン,,合同会社,愛知県,名古屋市瑞穂区,川澄町３丁目１５－４グレース川澄２０３,,23,108,4670002,,,,,,,2023-07-12,1,,,,,セレブライン,0
514,2180301037556,新規,0,2023-07-12,2023-07-12,株式会社ハッピークリエイト,,株式会社,愛知県,蒲郡市,三谷北通５丁目１１番地,,23,214,4430022,,,,,,,2023-07-12,1,,,,,ハッピークリエイト,0
515,2180303005767,新規,0,2023-07-12,2023-07-12,合同会社ｂｒｅｎｓｉｓ,,合同会社,愛知県,額田郡幸田町,大字六栗字竹ノ下２２番地２,,23,501,4440122,,,,,,,2023-07-12,1,,,,,ブレンシス,0
526,2230003002051,新規,0,2023-07-12,2023-07-12,ＭＹＯＨＯ　Ｇｒｏｕｐ合同会社,,合同会社,富山県,高岡市,石堤４６３８番地,,16,202,9330355,,,,,,,2023-07-12,1,,,,,ミョウホウグループ,0
529,2240001061791,新規,0,2023-07-12,2023-07-12,株式会社美和クリエイト,,株式会社,広島県,広島市南区,稲荷町３番１１－４０２号,,34,103,7320827,,,,,,,2023-07-12,1,,,,,ミワクリエイト,0
530,2240001061817,新規,0,2023-07-12,2023-07-12,馬翔屋株式会社,,株式会社,広島県,府中市,用土町１１０番地,,34,208,7260022,,,,,,,2023-07-12,1,,,,,ウマショウヤ,0
533,2240003006217,新規,0,2023-07-12,2023-07-12,東栄国際合同会社,,合同会社,広島県,東広島市,西条町寺家７９７５番地１セントラル・アンフィニティＣ棟１０５号,,34,212,7390041,,,,,,,2023-07-12,1,,,,,トウエイコクサイ,0
534,2250001020185,新規,0,2023-07-12,2023-07-12,株式会社Ｗｉｔｈ　Ｈｏｕｓｅ,,株式会社,山口県,山口市,阿知須３３９７番地６,,35,203,7541277,,,,,,,2023-07-12,1,,,,,ウィズハウス,0
541,2260001038111,新規,0,2023-07-12,2023-07-12,株式会社エアーコントロール,,株式会社,岡山県,津山市,野村２５４番地,,33,203,7081116,,,,,,,2023-07-12,1,,,,,エアーコントロール,0
550,2290001102236,新規,0,2023-07-12,2023-07-12,株式会社チートデイ,,株式会社,福岡県,福岡市博多区,住吉３丁目５番５－１２１０号レジデンス住吉,,40,132,8120018,,,,,,,2023-07-12,1,,,,,チートデイ,0
551,2290001102244,新規,0,2023-07-12,2023-07-12,アベフーズ株式会社,,株式会社,福岡県,福岡市南区,野間４丁目３番２７号,,40,134,8150041,,,,,,,2023-07-12,1,,,,,アベフーズ,0
552,2290001102252,新規,0,2023-07-12,2023-07-12,株式会社Ｉｎ　Ｔｈｅ　Ｆｏｒｅｓｔ,,株式会社,福岡県,福岡市博多区,山王１丁目１１－３５スクラム５５０３号室,,40,132,8120015,,,,,,,2023-07-12,1,,,,,インザフォレスト,0
553,2290001102260,新規,0,2023-07-12,2023-07-12,株式会社ｃａｌｍ,,株式会社,福岡県,福岡市東区,下原４丁目１７番１２－１０２号,,40,131,8130002,,,,,,,2023-07-12,1,,,,,カーム,0
554,2290001102269,新規,0,2023-07-12,2023-07-12,株式会社葵,,株式会社,福岡県,福岡市博多区,美野島１丁目２６番３号,,40,132,8120017,,,,,,,2023-07-12,1,,,,,アオイ,0
562,2350001018442,新規,0,2023-07-12,2023-07-12,株式会社ＧＩＧグループ,,株式会社,宮崎県,宮崎市,佐土原町下田島１０４３１番地,,45,201,8800211,,,,,,,2023-07-12,1,,,,,ジーアイジーグループ,0
565,2360003013119,新規,0,2023-07-12,2023-07-12,山琉合同会社,,合同会社,沖縄県,名護市,大南１丁目５番１１－２０１号コーポやま,,47,209,9050015,,,,,,,2023-07-12,1,,,,,ヤマリュウ,0
566,2370001050162,新規,0,2023-07-12,2023-07-12,株式会社カルナ,,株式会社,宮城県,仙台市太白区,山田北前町３番１号,,04,104,9820813,,,,,,,2023-07-12,1,,,,,カルナ,0
567,2370001050179,新規,0,2023-07-12,2023-07-12,株式会社犬のいる毎日ｏ,,株式会社,宮城県,仙台市宮城野区,榴岡４丁目１３－１３,,04,102,9830852,,,,,,,2023-07-12,1,,,,,イヌノイルマイニチ,0
571,2380001033843,新規,0,2023-07-12,2023-07-12,株式会社ワハハ不動産,,株式会社,福島県,会津若松市,大塚２丁目９番２３号,,07,202,9650014,,,,,,,2023-07-12,1,,,,,ワハハフドウサン,0
573,2380003005510,新規,0,2023-07-12,2023-07-12,合同会社ＲＳ,,合同会社,福島県,会津若松市,日吉町８番５－２５号,,07,202,9650852,,,,,,,2023-07-12,1,,,,,ライスストーン,0
580,2390003002119,新規,0,2023-07-12,2023-07-12,明日葉・コーポレーション合同会社,,合同会社,山形県,山形市,馬見ケ崎３丁目６番７－１０１号サンヒルズ香部,,06,201,9900810,,,,,,,2023-07-12,1,,,,,アシタバコーポレーション,0
582,2390005009021,新規,0,2023-07-12,2023-07-12,土地家屋調査士法人本庄慎吾事務所,,その他の設立登記法人,山形県,山形市,松山３丁目１４番８３松山三丁目テナント１Ｆ東,,06,201,9902412,,,,,,,2023-07-12,1,,,,,,0
583,2400001016317,新規,0,2023-07-12,2023-07-12,株式会社センパワー,,株式会社,岩手県,北上市,大堤西２丁目６番２７号,,03,206,0240053,,,,,,,2023-07-12,1,,,,,センパワー,0
592,2410001013544,新規,0,2023-07-12,2023-07-12,株式会社Ｇｒｏｗｔｈ　ｃｏｎｎｅｃｔ,,株式会社,秋田県,秋田市,大町１丁目７番３１号,,05,201,0100921,,,,,,,2023-07-12,1,,,,,グロースコネクト,0
598,2450001014051,新規,0,2023-07-12,2023-07-12,株式会社Ｃｏｒｅ,,株式会社,北海道,旭川市,四条通８丁目１７０５番地３ヒサコーポレーション１Ｆ右,,01,204,0700034,,,,,,,2023-07-12,1,,,,,コア,0
607,2500001025068,新規,0,2023-07-12,2023-07-12,株式会社トラステック,,株式会社,愛媛県,松山市,堀江町甲１０５１番地１－１０４号,,38,201,7992651,,,,,,,2023-07-12,1,,,,,トラステック,0
618,3010001236804,新規,0,2023-07-12,2023-07-12,株式会社Ｃｏ‐ＴｅｃｈＬａｂ,,株式会社,東京都,千代田区,九段南１丁目６番５号九段会館テラス１階,,13,101,1020074,,,,,,,2023-07-12,1,,,,,コーテックラボ,0
619,3010001236837,新規,0,2023-07-12,2023-07-12,株式会社ＴＩＧＥＲＥＹＥ,,株式会社,東京都,中央区,晴海１丁目８番８号晴海アイランドトリトンスクエアオフィスタワーＷ棟１８階,,13,102,1040053,,,,,,,2023-07-12,1,,,,,タイガーアイ,0
625,3010103002170,新規,0,2023-07-12,2023-07-12,ＵＰＧＲＡＤＥ　ＣＡＲＤＳ　ＳＥＲＶＩＣＥ合同会社,,合同会社,東京都,八王子市,椚田町５６２番地２０プレジデントめじろ台ＩＩＩ３０２号,00131139,13,201,1930942,,,,,,,2023-07-12,1,,,,,アップグレードカードサービス,0
626,3010401175552,新規,0,2023-07-12,2023-07-12,ＡＴＯ商事株式会社,,株式会社,東京都,港区,浜松町２丁目２番１５号浜松町ダイヤビル２Ｆ,,13,103,1050013,,,,,,,2023-07-12,1,,,,,エーティーオーショウジ,0
627,3010401175684,新規,0,2023-07-12,2023-07-12,Ｉｎｔｅｇｒａｔｅｄ　Ｓｏｃｉａｌ　Ｓｕｓｔａｉｎａｂｉｌｉｔｙ　Ｄｅｓｉｇｎ株式会社,,株式会社,東京都,港区,六本木７丁目３番１３号トラスティ六本木ビル７Ｆ,,13,103,1060032,,,,,,,2023-07-12,1,,,,,インテグレーテッドソーシャルサステナビリティデザイン,0
628,3010405022288,新規,0,2023-07-12,2023-07-12,Ｌｕｍｉｎａ　ＩＩＩ一般社団法人,,その他の設立登記法人,東京都,港区,虎ノ門４丁目１番２８号,,13,103,1050001,,,,,,,2023-07-12,1,,,,,ルミナスリー,0
631,3010601063409,新規,0,2023-07-12,2023-07-12,株式会社ＳＢ,,株式会社,東京都,江東区,東陽４丁目１０番１２号,,13,108,1350016,,,,,,,2023-07-12,1,,,,,エスビ,0
632,3010701044548,新規,0,2023-07-12,2023-07-12,株式会社オフィスアールイーエー,,株式会社,東京都,品川区,西五反田２丁目９番７－９０１号,,13,109,1410031,,,,,,,2023-07-12,1,,,,,オフィスアールイーエー,0
633,3010701044556,新規,0,2023-07-12,2023-07-12,株式会社デュナミス,,株式会社,東京都,品川区,北品川２丁目８－１１,,13,109,1400001,,,,,,,2023-07-12,1,,,,,デュナミス,0
634,3010801034143,新規,0,2023-07-12,2023-07-12,株式会社ミレイホーム,,株式会社,東京都,大田区,蒲田４丁目１８番２７号,,13,111,1440052,,,,,,,2023-07-12,1,,,,,ミレイホーム,0
635,3010805003037,新規,0,2023-07-12,2023-07-12,一般財団法人あかり会,,その他の設立登記法人,東京都,大田区,蒲田５丁目２４番４号,,13,111,1440052,,,,,,,2023-07-12,1,,,,,アカリカイ,0
639,3010901053415,新規,0,2023-07-12,2023-07-12,株式会社フラッグハウス,,株式会社,東京都,世田谷区,駒沢３丁目１２番１７号,,13,112,1540012,,,,,,,2023-07-12,1,,,,,フラッグハウス,0
642,3011001155606,新規,0,2023-07-12,2023-07-12,Ｕｎｌｉｍｉｔｅｄｎｅｓｓ株式会社,,株式会社,東京都,渋谷区,渋谷１丁目２番１２号松永ビル４階,,13,113,1500002,,,,,,,2023-07-12,1,,,,,アンリミテッドネス,0
643,3011001155614,新規,0,2023-07-12,2023-07-12,株式会社坪井建築設計事務所,,株式会社,東京都,渋谷区,富ヶ谷１丁目２番８号２０１,,13,113,1510063,,,,,,,2023-07-12,1,,,,,ツボイケンチクセッケイジムショ,0
644,3011001155630,新規,0,2023-07-12,2023-07-12,株式会社ゼロセントラル,,株式会社,東京都,渋谷区,神宮前１丁目２３－８－２０４,,13,113,1500001,,,,,,,2023-07-12,1,,,,,ゼロセントラル,0
645,3011001155639,新規,0,2023-07-12,2023-07-12,株式会社ＰＭＬａｂｏ,,株式会社,東京都,渋谷区,南平台町１３番１１号南平台ＷＥＳＴ３０２号室,,13,113,1500036,,,,,,,2023-07-12,1,,,,,ピーエムラボ,0
646,3011001155647,新規,0,2023-07-12,2023-07-12,株式会社Ｄｒｅａｍｃｒｏｓｓｉｎｇ,,株式会社,東京都,渋谷区,神宮前５丁目３９番８号スカーラ神宮前１０２,,13,113,1500001,,,,,,,2023-07-12,1,,,,,ドリームクロッシング,0
647,3011001155705,新規,0,2023-07-12,2023-07-12,株式会社ＤＭＰ,,株式会社,東京都,渋谷区,宇田川町４１－３１ユニデン渋谷ビルＢ１Ｆ,,13,113,1500042,,,,,,,2023-07-12,1,,,,,ディーエムピー,0
648,3011003017151,新規,0,2023-07-12,2023-07-12,プレイポンプ合同会社,,合同会社,東京都,渋谷区,東３丁目１７番１４号クリスティエビス８階,,13,113,1500011,,,,,,,2023-07-12,1,,,,,プレイポンプ,0
650,3011005010146,新規,0,2023-07-12,2023-07-12,一般社団法人日本薄毛デザイン協会,,その他の設立登記法人,東京都,渋谷区,神南１丁目９番１１号,,13,113,1500041,,,,,,,2023-07-12,1,,,,,ニホンウスゲデザインキョウカイ,0
654,3011101103547,新規,0,2023-07-12,2023-07-12,高登株式会社,,株式会社,東京都,新宿区,西五軒町７番１２プラティーク神楽坂４０１号,,13,104,1620812,,,,,,,2023-07-12,1,,,,,コウトウ,0
655,3011101103563,新規,0,2023-07-12,2023-07-12,株式会社フィロスコンサルティング,,株式会社,東京都,新宿区,西新宿３丁目３番１３号西新宿水間ビル６階,,13,104,1600023,,,,,,,2023-07-12,1,,,,,フィロスコンサルティング,0
661,3011501029516,新規,0,2023-07-12,2023-07-12,株式会社百福,,株式会社,東京都,北区,田端１丁目２番９号,,13,117,1140014,,,,,,,2023-07-12,1,,,,,,0
664,3011801042689,新規,0,2023-07-12,2023-07-12,ライズリアルエステート株式会社,,株式会社,東京都,葛飾区,東新小岩５丁目２１番１２号－１Ｆ,,13,122,1240023,,,,,,,2023-07-12,1,,,,,ライズリアルエステート,0
665,3011801042706,新規,0,2023-07-12,2023-07-12,Ｉｒｏｎ　Ｈｅａｒｔ株式会社,,株式会社,東京都,足立区,東和４丁目４番１５号ＲＭＯ３０４,,13,121,1200003,,,,,,,2023-07-12,1,,,,,アイロンハート,0
673,3012803003126,新規,0,2023-07-12,2023-07-12,合同会社ＢＦ‐Ｅｒｅｃｔｏｒ,,合同会社,東京都,立川市,富士見町６丁目５２番５０５号,,13,202,1900013,,,,,,,2023-07-12,1,,,,,ビーエフエレクター,0
678,3020001152447,新規,0,2023-07-12,2023-07-12,株式会社Ｆｕｎｃｔｏｒ,,株式会社,神奈川県,川崎市麻生区,百合丘３丁目９番地１２,,14,137,2150011,,,,,,,2023-07-12,1,,,,,ファンクター,0
679,3020001152463,新規,0,2023-07-12,2023-07-12,株式会社赤とんぼ,,株式会社,神奈川県,川崎市多摩区,登戸新町２５２番地１－１０１,,14,135,2140013,,,,,,,2023-07-12,1,,,,,アカトンボ,0
680,3020001152488,新規,0,2023-07-12,2023-07-12,株式会社小吹エステート,,株式会社,神奈川県,横浜市青葉区,市ケ尾町５３８番地１,,14,117,2250024,,,,,,,2023-07-12,1,,,,,コブキエステート,0
681,3020001152496,新規,0,2023-07-12,2023-07-12,株式会社ＭＡＫＥＲＳ,,株式会社,神奈川県,川崎市麻生区,下麻生１丁目１８番１－３,,14,137,2150022,,,,,,,2023-07-12,1,,,,,メーカーズ,0
682,3020001152513,新規,0,2023-07-12,2023-07-12,株式会社エース,,株式会社,神奈川県,川崎市川崎区,四谷上町２３番４号,,14,131,2100828,,,,,,,2023-07-12,1,,,,,エース,0
687,3020003024149,新規,0,2023-07-12,2023-07-12,合同会社ＲＩＬＥＯＮ,,合同会社,神奈川県,川崎市中原区,新丸子町７６１－３,,14,133,2110005,,,,,,,2023-07-12,1,,,,,リレオン,0
688,3020003024181,新規,0,2023-07-12,2023-07-12,合同会社カルーシア,,合同会社,神奈川県,横浜市港北区,大倉山２丁目１番１０号藤和シティコープ大倉山駅前２１１号,,14,109,2220037,,,,,,,2023-07-12,1,,,,,カルーシア,0
690,3021003013315,新規,0,2023-07-12,2023-07-12,合同会社縁ｍｕｓｕｂｉ,,合同会社,神奈川県,平塚市,見附町１９―６ＳＳ第３ビル６０４,,14,203,2540045,,,,,,,2023-07-12,1,,,,,エンムスビ,0
696,3030001154756,新規,0,2023-07-12,2023-07-12,株式会社Ｅｎｊｏｉｎｔ,,株式会社,埼玉県,飯能市,大字双柳４５０番地２ドリーム青木２０５,,11,209,3570021,,,,,,,2023-07-12,1,,,,,エンジョイント,0
697,3030001154830,新規,0,2023-07-12,2023-07-12,株式会社Ｂ‐ｔｒｅｅ,,株式会社,埼玉県,加須市,南大桑５８０番地１,,11,210,3470015,,,,,,,2023-07-12,1,,,,,ビーツリー,0
698,3030001154855,新規,0,2023-07-12,2023-07-12,株式会社ＣＡＴＥＣＨ,,株式会社,埼玉県,川口市,芝東町１番１４号,,11,203,3330867,,,,,,,2023-07-12,1,,,,,キャテク,0
699,3030001154871,新規,0,2023-07-12,2023-07-12,株式会社ＯＮＥ　Ｔ　ＲＡＳＴ,,株式会社,埼玉県,八潮市,大瀬６丁目２番地２エステートパレス６－１Ａ,,11,234,3400822,,,,,,,2023-07-12,1,,,,,ワントラスト,0
700,3030001154921,新規,0,2023-07-12,2023-07-12,井上内装株式会社,,株式会社,埼玉県,行田市,大字前谷８５７番地３,,11,206,3610038,,,,,,,2023-07-12,1,,,,,イノウエナイソウ,0
703,3030003022052,新規,0,2023-07-12,2023-07-12,合同会社ＹＨ＆Ｃコーポレーション,,合同会社,埼玉県,所沢市,美原町１丁目２９１８番地の３,,11,208,3590045,,,,,,,2023-07-12,1,,,,,ワイエイチアンドシーコーポレーション,0
705,3040001129170,新規,0,2023-07-12,2023-07-12,株式会社背黒建工,,株式会社,千葉県,松戸市,古ケ崎２丁目３０９４番地の２４,,12,207,2710068,,,,,,,2023-07-12,1,,,,,セグロケンコウ,0
706,3040001129204,新規,0,2023-07-12,2023-07-12,株式会社結不動産,,株式会社,千葉県,山武市,松尾町松尾８７番地,,12,237,2891514,,,,,,,2023-07-12,1,,,,,ユイフドウサン,0
707,3040003022729,新規,0,2023-07-12,2023-07-12,合同会社ｇｏｏｄ　ｌｉｆｅ,,合同会社,千葉県,市川市,行徳駅前２丁目２０番１号１階,,12,203,2720133,,,,,,,2023-07-12,1,,,,,,0
708,3040003022869,新規,0,2023-07-12,2023-07-12,合同会社Ｌｉｂｅｒｔｅ,,合同会社,千葉県,浦安市,弁天４丁目２０番１６号,,12,227,2790026,,,,,,,2023-07-12,1,,,,,リベルテ,0
709,3040003022943,新規,0,2023-07-12,2023-07-12,ＲＢ　Ｈｏｕｓｅ合同会社,,合同会社,千葉県,柏市,根戸４６７番地３３７,,12,217,2770831,,,,,,,2023-07-12,1,,,,,アールビーハウス,0
713,3050001053089,新規,0,2023-07-12,2023-07-12,株式会社かにねっと,,株式会社,茨城県,土浦市,永国東町３７番１１号,,08,203,3000816,,,,,,,2023-07-12,1,,,,,カニネット,0
714,3050001053122,新規,0,2023-07-12,2023-07-12,株式会社ＲＫ　ＥＮＥＲＧＹ,,株式会社,茨城県,那珂市,戸崎１８９番地１,,08,226,3110121,,,,,,,2023-07-12,1,,,,,アールケーエナジー,0
715,3050001053130,新規,0,2023-07-12,2023-07-12,株式会社Ｎ,,株式会社,茨城県,水戸市,千波町５０８番地の６８,,08,201,3100851,,,,,,,2023-07-12,1,,,,,ニュートラル,0
716,3050001053147,新規,0,2023-07-12,2023-07-12,インフィニティ株式会社,,株式会社,茨城県,龍ケ崎市,薄倉町１３４９番地,,08,208,3010805,,,,,,,2023-07-12,1,,,,,インフィニティ,0
723,3060001036150,新規,0,2023-07-12,2023-07-12,ＣＥＬＬＦＬＥＸ　ＪＡＰＡＮ株式会社,,株式会社,栃木県,小山市,大字神鳥谷６９１番地４,,09,208,3230827,,,,,,,2023-07-12,1,,,,,セルフレックスジャパン,0
727,3070001040606,新規,0,2023-07-12,2023-07-12,株式会社ＡＩＳ,,株式会社,群馬県,富岡市,富岡３０５８番地１,,10,210,3702316,,,,,,,2023-07-12,1,,,,,エーアイエス,0
728,3070003005029,新規,0,2023-07-12,2023-07-12,ＡＮＡＩＳＨＡ合同会社,,合同会社,群馬県,邑楽郡大泉町,大字吉田９０４番地の１柿沼ハイツＤ棟,,10,524,3700523,,,,,,,2023-07-12,1,,,,,アナイシャ,0
735,3090001018204,新規,0,2023-07-12,2023-07-12,株式会社マンジュラ,,株式会社,山梨県,韮崎市,富士見２丁目１５番３５号,,19,207,4070014,,,,,,,2023-07-12,1,,,,,マンジュラ,0
737,3100003007104,新規,0,2023-07-12,2023-07-12,合同会社泉寿会,,合同会社,長野県,安曇野市,三郷小倉２０５６番地２,,20,220,3998103,,,,,,,2023-07-12,1,,,,,センジュカイ,0
746,3120001256270,新規,0,2023-07-12,2023-07-12,株式会社ＣＰａｂｉｌｉｔｙ,,株式会社,大阪府,大阪市中央区,松屋町住吉３番２－１００８号,,27,128,5400017,,,,,,,2023-07-12,1,,,,,シーピーアビリティ,0
747,3120001256287,新規,0,2023-07-12,2023-07-12,株式会社ＦＫＤ,,株式会社,大阪府,寝屋川市,香里北之町７番１３号,,27,215,5720080,,,,,,,2023-07-12,1,,,,,エフケーディー,0
748,3120001256295,新規,0,2023-07-12,2023-07-12,獅通株式会社,,株式会社,大阪府,大阪市西区,新町４丁目１１番１８号,,27,106,5500013,,,,,,,2023-07-12,1,,,,,シトオ,0
749,3120001256312,新規,0,2023-07-12,2023-07-12,中基貿易株式会社,,株式会社,大阪府,大阪市天王寺区,上本町５丁目７番２号ファンターナ上本町２０７号室,,27,109,5430001,,,,,,,2023-07-12,1,,,,,チュウキボウエキ,0
753,3120003024452,新規,0,2023-07-12,2023-07-12,合同会社トラスト,,合同会社,大阪府,寝屋川市,池田１丁目２８－２０,,27,215,5720039,,,,,,,2023-07-12,1,,,,,トラスト,0
754,3120101067840,新規,0,2023-07-12,2023-07-12,株式会社夢架け橋龍魚湾,,株式会社,大阪府,藤井寺市,藤井寺１丁目２１番９号龍魚湾,,27,226,5830024,,,,,,,2023-07-12,1,,,,,ユメカケハシリュウギョワン,0
755,3120101067873,新規,0,2023-07-12,2023-07-12,政栄興業株式会社,,株式会社,大阪府,堺市北区,南花田町９０番地８,,27,146,5918011,,,,,,,2023-07-12,1,,,,,ショウエイコウギョウ,0
759,3120901047777,新規,0,2023-07-12,2023-07-12,株式会社ヨリヨク,,株式会社,大阪府,箕面市,彩都粟生南６丁目７番８号,,27,220,5620028,,,,,,,2023-07-12,1,,,,,ヨリヨク,0
764,3140001130829,新規,0,2023-07-12,2023-07-12,株式会社先制医療ラボ,,株式会社,兵庫県,神戸市中央区,港島南町１丁目６番４号ＩＭＰ,,28,110,6500047,,,,,,,2023-07-12,1,,,,,センセイイリョウラボ,0
765,3140001130837,新規,0,2023-07-12,2023-07-12,株式会社Ｒ　ｒｅａｃｔｉｏｎ,,株式会社,兵庫県,芦屋市,朝日ケ丘町４番３０－３０５号,,28,206,6590012,,,,,,,2023-07-12,1,,,,,アールリアクション,0
768,3140003019277,新規,0,2023-07-12,2023-07-12,合同会社オーオブワン,,合同会社,兵庫県,西宮市,上甲東園２丁目１番３号,,28,204,6620813,,,,,,,2023-07-12,1,,,,,オーオブワン,0
769,3140003019285,新規,0,2023-07-12,2023-07-12,合同会社エフディティ,,合同会社,兵庫県,神戸市東灘区,御影石町４丁目６番３号,,28,101,6580045,,,,,,,2023-07-12,1,,,,,エフディティ,0
770,3140003019293,新規,0,2023-07-12,2023-07-12,合同会社ゆつき,,合同会社,兵庫県,神戸市須磨区,潮見台町２丁目１番１３－６０２号,,28,107,6540075,,,,,,,2023-07-12,1,,,,,ユツキ,0
773,3150001026530,新規,0,2023-07-12,2023-07-12,株式会社神崎建設工業,00131141,株式会社,奈良県,生駒郡三郷町,立野北２丁目１０番２３号,,29,343,6360821,,,,,,,2023-07-12,1,,,,,カンザキケンセツコウギョウ,0
774,3150001026539,新規,0,2023-07-12,2023-07-12,株式会社健康サイエンス研究所,,株式会社,奈良県,生駒市,本町１０番７－１００２号,,29,209,6300256,,,,,,,2023-07-12,1,,,,,ケンコウサイエンスケンキュウショ,0
776,3170001017684,新規,0,2023-07-12,2023-07-12,株式会社ありだ屋,,株式会社,和歌山県,有田郡有田川町,大字野田４９０番地３,,30,366,6430031,,,,,,,2023-07-12,1,,,,,アリダヤ,0
784,3180001157018,新規,0,2023-07-12,2023-07-12,ＴＯＲ株式会社,,株式会社,愛知県,春日井市,如意申町１丁目１番地１３,,23,206,4860918,,,,,,,2023-07-12,1,,,,,トア,0
786,3180001157109,新規,0,2023-07-12,2023-07-12,Ｏｎｅ　Ｔｒｕｔｈ株式会社,,株式会社,愛知県,名古屋市中村区,名駅４丁目２４番５号第２森ビル４０１,,23,105,4500002,,,,,,,2023-07-12,1,,,,,ワントゥルース,0
787,3180001157117,新規,0,2023-07-12,2023-07-12,株式会社セントラルウェルズ,,株式会社,愛知県,名古屋市守山区,白沢町２８７番地の５,,23,113,4630092,,,,,,,2023-07-12,1,,,,,セントラルウェルズ,0
788,3180001157125,新規,0,2023-07-12,2023-07-12,和‐華ＪＡＰＡＮ株式会社,,株式会社,愛知県,北名古屋市,九之坪天神２９番地２,,23,234,4810041,,,,,,,2023-07-12,1,,,,,ワカジャパン,0
789,3180001157133,新規,0,2023-07-12,2023-07-12,株式会社ＤＥＡＲＩＳＥ,,株式会社,愛知県,津島市,大縄町４丁目４番地８,,23,208,4960876,,,,,,,2023-07-12,1,,,,,ディアライズ,0
790,3180001157141,新規,0,2023-07-12,2023-07-12,株式会社相続相談プラザ,,株式会社,愛知県,名古屋市中区,新栄町２丁目９番地スカイオアシス栄１Ｆ,,23,106,4600004,,,,,,,2023-07-12,1,,,,,ソウゾクソウダンプラザ,0
793,3180003025478,新規,0,2023-07-12,2023-07-12,ＭＥパートナー合同会社,,合同会社,愛知県,名古屋市中区,栄３丁目２番３号名古屋日興証券ビル４階,,23,106,4600008,,,,,,,2023-07-12,1,,,,,エムイーパートナー,0
796,3180301037563,新規,0,2023-07-12,2023-07-12,株式会社ＫＳ２,,株式会社,愛知県,西尾市,熊味町大道南１０８番地２,,23,213,4450071,,,,,,,2023-07-12,1,,,,,ケーエスツー,0
804,3200005013503,新規,0,2023-07-12,2023-07-12,一般社団法人グローバル・メディアネットワーク,,その他の設立登記法人,岐阜県,岐阜市,三田洞東１丁目２０番３号,,21,201,5020003,,,,,,,2023-07-12,1,,,,,グローバルメディアネットワーク,0
808,3220001025500,新規,0,2023-07-12,2023-07-12,株式会社キーシップ,,株式会社,石川県,金沢市,天神町２丁目４番２２号メゾン・ド・ノア１０１号室,,17,201,9200925,,,,,,,2023-07-12,1,,,,,キーシップ,0
812,3240001061790,新規,0,2023-07-12,2023-07-12,株式会社ｍｏｉ,,株式会社,広島県,安芸郡府中町,山田２丁目１７番２３号２０２,,34,302,7350004,,,,,,,2023-07-12,1,,,,,モイ,0
813,3240001061816,新規,0,2023-07-12,2023-07-12,株式会社マイフェイヴ,,株式会社,広島県,広島市東区,戸坂南２丁目７番７号,,34,102,7320013,,,,,,,2023-07-12,1,,,,,マイフェイヴ,0
814,3250001020184,新規,0,2023-07-12,2023-07-12,株式会社白狐動画,,株式会社,山口県,山口市,赤妻町２番４８号,,35,203,7530067,,,,,,,2023-07-12,1,,,,,ビャッコドウガ,0
818,3260001038119,新規,0,2023-07-12,2023-07-12,三山貿易株式会社,,株式会社,岡山県,井原市,美星町三山５３７２－１０,,33,207,7141406,,,,,,,2023-07-12,1,,,,,ミヤマボウエキ,0
825,3290001102136,新規,0,2023-07-12,2023-07-12,ブレイクウォール株式会社,,株式会社,福岡県,筑紫野市,大字永岡２３６－２３,,40,217,8180066,,,,,,,2023-07-12,1,,,,,ブレイクウォール,0
826,3290001102251,新規,0,2023-07-12,2023-07-12,株式会社メルシーガード,,株式会社,福岡県,春日市,春日原東町３丁目２４－２０２号,,40,218,8160801,,,,,,,2023-07-12,1,,,,,メルシーガード,0
829,3290003014131,新規,0,2023-07-12,2023-07-12,合同会社ｒａｉｃｏｍｅ,,合同会社,福岡県,福岡市中央区,天神２丁目２番１２号Ｔ＆Ｊビルディング７Ｆ,,40,133,8100001,,,,,,,2023-07-12,1,,,,,ライカム,0
832,3320001019888,新規,0,2023-07-12,2023-07-12,株式会社Ｅｍｕｎｉｔａｓ,,株式会社,大分県,別府市,田の湯町３番７号アライアンスタワーＺ４階,,44,202,8740909,,,,,,,2023-07-12,1,,,,,エミュニタス,0
840,3360001032210,新規,0,2023-07-12,2023-07-12,沖縄自然研究所株式会社,,株式会社,沖縄県,那覇市,おもろまち１丁目１番２５号１６２４,,47,201,9000006,,,,,,,2023-07-12,1,,,,,オキナワシゼンケンキュウジョ,0
841,3360001032243,新規,0,2023-07-12,2023-07-12,株式会社楽もみやグループ,,株式会社,沖縄県,沖縄市,中央２丁目１７番２５号２Ｂ,,47,211,9040004,,,,,,,2023-07-12,1,,,,,ラクモミヤ,0
845,3370001050161,新規,0,2023-07-12,2023-07-12,株式会社世界のカケハシ,,株式会社,宮城県,仙台市青葉区,荒巻字坊主門１３番地の１９,,04,101,9810945,,,,,,,2023-07-12,1,,,,,セカイノカケハシ,0
846,3370001050178,新規,0,2023-07-12,2023-07-12,株式会社ＦＴ,,株式会社,宮城県,仙台市太白区,砂押南町６番５号３Ｆ,,04,104,9820024,,,,,,,2023-07-12,1,,,,,エフティー,0
850,3370005010657,新規,0,2023-07-12,2023-07-12,ひなた税理士法人,,その他の設立登記法人,宮城県,仙台市青葉区,中山台１丁目１１番地の５,,04,101,9893202,,,,,,,2023-07-12,1,,,,,ヒナタ,0
852,3380001033842,新規,0,2023-07-12,2023-07-12,株式会社ＢＲＩＤＧＥ,,株式会社,福島県,いわき市,中央台高久３丁目５３番地の４,,07,204,9708047,,,,,,,2023-07-12,1,,,,,ブリッジ,0
858,3390005009020,新規,0,2023-07-12,2023-07-12,特定非営利活動法人面会交流支援虹の会やまがた,,その他の設立登記法人,山形県,山形市,大字平清水１４４番地,,06,201,9902401,,,,,,,2023-07-12,1,,,,,メンカイコウリュウシエンニジノカイヤマガタ,0
859,3400001016316,新規,0,2023-07-12,2023-07-12,株式会社ＳＡＫＵＲＡ,,株式会社,岩手県,久慈市,夏井町夏井第１地割７４番地,,03,207,0280001,,,,,,,2023-07-12,1,,,,,サクラ,0
863,3410005006527,新規,0,2023-07-12,2023-07-12,医療法人Ｔ‐ＨＥＡＲＴ,,その他の設立登記法人,秋田県,大仙市,高梨字田茂木８４番地,,05,212,0140805,,,,,,,2023-07-12,1,,,,,ティーハート,0
866,3420003002758,新規,0,2023-07-12,2023-07-12,合同会社ＦＡＣＥ物流,,合同会社,青森県,弘前市,大字早稲田２丁目５番地７,,02,202,0368087,,,,,,,2023-07-12,1,,,,,フェイスブツリュウ,0
872,3450003002359,新規,0,2023-07-12,2023-07-12,ルラシオン合同会社,,合同会社,北海道,上川郡東川町,西６号北３２番地,,01,458,0711406,,,,,,,2023-07-12,1,,,,,ルラシオン,0
875,3470001019691,新規,0,2023-07-12,2023-07-12,株式会社エスアンドアイプラス,,株式会社,香川県,高松市,屋島西町１７６１番地１３,,37,201,7610113,,,,,,,2023-07-12,1,,,,,エスアンドアイプラス,0
884,4010001236803,新規,0,2023-07-12,2023-07-12,株式会社Ｇａｌａｘｙ,,株式会社,東京都,中央区,東日本橋２丁目２８番４号日本橋ＣＥＴビル２階,,13,102,1030004,,,,,,,2023-07-12,1,,,,,ギャラクシー,0
885,4010001236828,新規,0,2023-07-12,2023-07-12,株式会社ｉｗａｒｋｓ,,株式会社,東京都,中央区,銀座１丁目１２番４号Ｎ＆ＥＢＬＤ．６Ｆ,,13,102,1040061,,,,,,,2023-07-12,1,,,,,アイワークス,0
886,4010001236844,新規,0,2023-07-12,2023-07-12,株式会社ワイルドカードテクノロジーズ,,株式会社,東京都,中央区,日本橋箱崎町３２番９号,,13,102,1030015,,,,,,,2023-07-12,1,,,,,ワイルドカードテクノロジーズ,0
887,4010001236869,新規,0,2023-07-12,2023-07-12,ＦＰトラスト株式会社,,株式会社,東京都,中央区,日本橋茅場町３丁目５番３号,,13,102,1030025,,,,,,,2023-07-12,1,,,,,エフピートラスト,0
888,4010001236885,新規,0,2023-07-12,2023-07-12,株式会社ＬＯＬＯ,,株式会社,東京都,千代田区,有楽町２丁目１０番１号１０階,,13,101,1000006,,,,,,,2023-07-12,1,,,,,ロロ,0
894,4010401175618,新規,0,2023-07-12,2023-07-12,株式会社Ｇｕｉｌｄｅｃｈ,,株式会社,東京都,港区,北青山１丁目３番１号,,13,103,1070061,,,,,,,2023-07-12,1,,,,,ギルデック,0
895,4010401175667,新規,0,2023-07-12,2023-07-12,サニハユニハ株式会社,,株式会社,東京都,港区,南青山２丁目１５番５号ＦＡＲＯ青山１階,,13,103,1070062,,,,,,,2023-07-12,1,,,,,サニハユニハ,0
898,4010403030473,新規,0,2023-07-12,2023-07-12,ノトニアル合同会社,,合同会社,東京都,港区,赤坂２丁目１２番２３号,,13,103,1070052,,,,,,,2023-07-12,1,,,,,ノトニアル,0
900,4010601063416,新規,0,2023-07-12,2023-07-12,株式会社ＬＥＤ　ＴＥＣＨ,,株式会社,東京都,江東区,有明１丁目３番３３号,,13,108,1350063,,,,,,,2023-07-12,1,,,,,エルイーディーテック,0
906,4010801034150,新規,0,2023-07-12,2023-07-12,株式会社トラムワークス,,株式会社,東京都,大田区,南六郷３丁目１０－１６六郷ＢＡＳＥ３０４,,13,111,1440045,,,,,,,2023-07-12,1,,,,,トラムワークス,0
912,4010903008309,新規,0,2023-07-12,2023-07-12,Ａｄｊｕｎｃｔｉｏｎ　Ｓｐａｃｅ　ＡＩ合同会社,,合同会社,東京都,世田谷区,成城８丁目３１番１２クレヴィア成城１０８,,13,112,1570066,,,,,,,2023-07-12,1,,,,,アジャンクションスペースエーアイ,0
916,4011001155605,新規,0,2023-07-12,2023-07-12,株式会社ＡＲＫＥ　Ｄｅｓｉｇｎ,,株式会社,東京都,目黒区,東山１丁目２１番２０－５０６号上目黒マンション,,13,110,1530043,,,,,,,2023-07-12,1,,,,,アルケデザイン,0
917,4011001155613,新規,0,2023-07-12,2023-07-12,ＢＲＯＷＮ株式会社,,株式会社,東京都,目黒区,駒場１丁目２－１４玉川ビル１階,,13,110,1530041,,,,,,,2023-07-12,1,,,,,ブラウン,0
918,4011001155638,新規,0,2023-07-12,2023-07-12,株式会社ヘロークリーン,,株式会社,東京都,渋谷区,恵比寿２丁目２８番７号,,13,113,1500013,,,,,,,2023-07-12,1,,,,,ヘロークリーン,0
922,4011101103587,新規,0,2023-07-12,2023-07-12,株式会社ＭＤＹ,,株式会社,東京都,新宿区,四谷坂町１２－１７ヴィップ第２四谷マンション７０４号,,13,104,1600002,,,,,,,2023-07-12,1,,,,,エムデイワイ,0
927,4011103013248,新規,0,2023-07-12,2023-07-12,外神田１丁目合同会社,,合同会社,東京都,新宿区,四谷４丁目３２番８号ＹＫＢサニービル６階,,13,104,1600004,,,,,,,2023-07-12,1,,,,,ソトカンダイッチョウメ,0
928,4011105010722,新規,0,2023-07-12,2023-07-12,一般社団法人あすには,,その他の設立登記法人,東京都,新宿区,新宿４丁目１番６号新宿ミライナタワー１８Ｆ,,13,104,1600022,,,,,,,2023-07-12,1,,,,,アスニハ,0
935,4011501029515,新規,0,2023-07-12,2023-07-12,小溪株式会社,,株式会社,東京都,北区,堀船３丁目２４番４－４０５号,,13,117,1140004,,,,,,,2023-07-12,1,,,,,コケイ,0
939,4011601026940,新規,0,2023-07-12,2023-07-12,黒澤商事株式会社,,株式会社,東京都,練馬区,桜台１丁目７番７号創業館・桜台北口オフィス４階４２１号室,,13,120,1760002,,,,,,,2023-07-12,1,,,,,クロサワショウジ,0
940,4011603003979,新規,0,2023-07-12,2023-07-12,合同会社ＦｌａｔＣｏｎｎｅｃｔｉｏｎ,,合同会社,東京都,練馬区,旭町２丁目１８－９,,13,120,1790071,,,,,,,2023-07-12,1,,,,,フラットコネクション,0
943,4011801042705,新規,0,2023-07-12,2023-07-12,株式会社朱里Ｇｒｏｕｐ,,株式会社,東京都,足立区,中川２丁目１２番７号,,13,121,1200002,,,,,,,2023-07-12,1,,,,,シュリグループ,0
944,4012301013519,新規,0,2023-07-12,2023-07-12,株式会社ＯＴＯＮＯＬＯＧＹ,,株式会社,東京都,町田市,森野１丁目３８番３号,,13,209,1940022,,,,,,,2023-07-12,1,,,,,オトノロジー,0
945,4012401040727,新規,0,2023-07-12,2023-07-12,株式会社テュプラボ,,株式会社,東京都,調布市,小島町１丁目２２番地３,,13,208,1820026,,,,,,,2023-07-12,1,,,,,テュプラボ,0
946,4012803003125,新規,0,2023-07-12,2023-07-12,合同会社ＴＷＯ　Ｓ,,合同会社,東京都,国分寺市,光町２丁目１９番地１８,,13,214,1850034,,,,,,,2023-07-12,1,,,,,ツーエス,0
953,4020001152454,新規,0,2023-07-12,2023-07-12,神田商店株式会社,00131147,株式会社,神奈川県,川崎市多摩区,東生田１丁目７－７－３０５,,14,135,2140031,,,,,,,2023-07-12,1,,,,,カンダショウテン,0
954,4020001152470,新規,0,2023-07-12,2023-07-12,株式会社ＦＪタクト,,株式会社,神奈川県,横浜市中区,扇町２丁目４番地４関内陽光ビル４０５,,14,104,2310027,,,,,,,2023-07-12,1,,,,,エフジェータクト,0
955,4020001152479,新規,0,2023-07-12,2023-07-12,株式会社猫にはムリ,,株式会社,神奈川県,川崎市高津区,坂戸２丁目２番１－２０７号,,14,134,2130012,,,,,,,2023-07-12,1,,,,,ネコニハムリ,0
956,4020001152487,新規,0,2023-07-12,2023-07-12,株式会社オサオ,,株式会社,神奈川県,横浜市磯子区,磯子２丁目２９番１０－６１３号,,14,107,2350016,,,,,,,2023-07-12,1,,,,,オサオ,0
957,4020001152495,新規,0,2023-07-12,2023-07-12,株式会社ＡＳパートナーズ,,株式会社,神奈川県,横浜市中区,相生町４丁目６４番地,,14,104,2310012,,,,,,,2023-07-12,1,,,,,エーエスパートナーズ,0
960,4020003024206,新規,0,2023-07-12,2023-07-12,合同会社Ｂｅｅ　ｗｉｔｈ　Ｙｏｕ,,合同会社,神奈川県,横浜市都筑区,茅ケ崎南２丁目２－３０－６０５,,14,118,2240037,,,,,,,2023-07-12,1,,,,,ビーウィズユー,0
963,4021001079489,新規,0,2023-07-12,2023-07-12,株式会社まつみカンパニー,,株式会社,神奈川県,座間市,入谷東３丁目１７番１４－２０６号カームヒルズ座間,,14,216,2520028,,,,,,,2023-07-12,1,,,,,マツミカンパニー,0
964,4021001079571,新規,0,2023-07-12,2023-07-12,株式会社ウィステリア,,株式会社,神奈川県,藤沢市,南藤沢２０番２１号ＭＫビル４階,,14,205,2510055,,,,,,,2023-07-12,1,,,,,ウィステリア,0
965,4021003013306,新規,0,2023-07-12,2023-07-12,合同会社ＢＬＵＥ,,合同会社,神奈川県,海老名市,中野１丁目６番５４号,,14,215,2430425,,,,,,,2023-07-12,1,,,,,ブルー,0
967,4030001154854,新規,0,2023-07-12,2023-07-12,Ｋ‐ｓｔｙｌｅ株式会社,,株式会社,埼玉県,越谷市,平方南町２２番地５フリージア１０６号,,11,222,3430001,,,,,,,2023-07-12,1,,,,,ケースタイル,0
968,4030001154904,新規,0,2023-07-12,2023-07-12,株式会社ＡＲＭエナジーグループ,,株式会社,埼玉県,川口市,前川２丁目２９番１号,,11,203,3330842,,,,,,,2023-07-12,1,,,,,アームエナジーグループ,0
971,4040001129161,新規,0,2023-07-12,2023-07-12,株式会社ＩＫＵ,,株式会社,千葉県,市川市,中山４丁目２１番地１６号,,12,203,2720813,,,,,,,2023-07-12,1,,,,,アイケーユー,0
972,4040001129203,新規,0,2023-07-12,2023-07-12,株式会社家っ子,,株式会社,千葉県,山武市,松尾町借毛本郷４８７番地４,,12,237,2891537,,,,,,,2023-07-12,1,,,,,イエッコ,0
973,4040001129211,新規,0,2023-07-12,2023-07-12,株式会社マルセイ,,株式会社,千葉県,船橋市,海神５丁目２９番２１－１０９号,,12,204,2730021,,,,,,,2023-07-12,1,,,,,マルセイ,0
976,4040003022868,新規,0,2023-07-12,2023-07-12,ＬＫ　Ｍｏｔｏｒｉｎｇ合同会社,,合同会社,千葉県,八街市,四木１１９３番地１１,,12,230,2891122,,,,,,,2023-07-12,1,,,,,エルケモータリング,0
977,4040003022950,新規,0,2023-07-12,2023-07-12,渡邊投資合同会社,,合同会社,千葉県,市川市,大町５４５－１０,,12,203,2720801,,,,,,,2023-07-12,1,,,,,ワタナベトウシ,0
979,4050001053105,新規,0,2023-07-12,2023-07-12,株式会社ＧＬＬＧ,,株式会社,茨城県,龍ケ崎市,馴馬町山王台２７０８番地１,,08,208,3010004,,,,,,,2023-07-12,1,,,,,ジーエルエルジー,0
980,4050001053113,新規,0,2023-07-12,2023-07-12,株式会社ユタカサービス,,株式会社,茨城県,東茨城郡茨城町,大字鳥羽田３３１番地３,,08,302,3113142,,,,,,,2023-07-12,1,,,,,,0
981,4050001053138,新規,0,2023-07-12,2023-07-12,株式会社ＡＳＳＩＳＴ,,株式会社,茨城県,石岡市,国府７丁目７番７号,,08,205,3150014,,,,,,,2023-07-12,1,,,,,アシスト,0
983,4050003007629,新規,0,2023-07-12,2023-07-12,合同会社ＲＹＵ,,合同会社,茨城県,古河市,上大野２２８８番地８,,08,204,3060201,,,,,,,2023-07-12,1,,,,,アールワイユー,0
995,4080001025729,新規,0,2023-07-12,2023-07-12,渡辺林業株式会社,,株式会社,静岡県,藤枝市,瀬戸ノ谷９８６７番地,,22,214,4260131,,,,,,,2023-07-12,1,,,,,ワタナベリンギョウ,0
999,4080103002849,新規,0,2023-07-12,2023-07-12,ｍｏｏｉ　ＴｒａｖｅｌＡｓｓｉｓｔａｎｃｅ合同会社,,合同会社,静岡県,三島市,本町２‐４,,22,206,4110855,,,,,,,2023-07-12,1,,,,,モーイトラベルアシスタンス,0
1000,4080403004826,新規,0,2023-07-12,2023-07-12,合同会社ＫＭＭ,,合同会社,静岡県,浜松市東区,天王町７０７－１サンシャイン天王ＩＩＩ３０１,00131151,22,132,4350052,,,,,,,2023-07-12,1,,,,,ケイエムエム,0
1004,4090001018203,新規,0,2023-07-12,2023-07-12,株式会社ＢＩＮ,,株式会社,山梨県,中央市,上三條５８１番地,,19,214,4093823,,,,,,,2023-07-12,1,,,,,ビン,0
1006,4100001036574,新規,0,2023-07-12,2023-07-12,アルビアンテ株式会社,,株式会社,長野県,長野市,大字川合新田１８７番地,,20,201,3800913,,,,,,,2023-07-12,1,,,,,アルビアンテ,0
1007,4100003007103,新規,0,2023-07-12,2023-07-12,合同会社信州アルプス農園,,合同会社,長野県,上田市,武石上本入５６２番地３３８,,20,203,3860507,,,,,,,2023-07-12,1,,,,,シンシュウアルプスノウエン,0
1012,4110001037687,新規,0,2023-07-12,2023-07-12,株式会社オガワエンジニアリング,,株式会社,新潟県,長岡市,新保１丁目１番５号,,15,202,9400875,,,,,,,2023-07-12,1,,,,,オガワエンジニアリング,0
1029,4120001256245,新規,0,2023-07-12,2023-07-12,トーヨー株式会社,,株式会社,大阪府,大阪市浪速区,戎本町１丁目４番１８号,,27,111,5560013,,,,,,,2023-07-12,1,,,,,トーヨー,0
1030,4120001256303,新規,0,2023-07-12,2023-07-12,株式会社ｃｌｏｃｋ　ｈａｎｄｓ,,株式会社,大阪府,大阪市北区,曾根崎新地１丁目１１番４号山大ビル４階,,27,127,5300002,,,,,,,2023-07-12,1,,,,,クロックハンズ,0
1034,4120003024451,新規,0,2023-07-12,2023-07-12,合同会社ＴＤ,,合同会社,大阪府,大阪市西成区,岸里東１丁目７番２１号プライム岸里東２０３号室,,27,122,5570042,,,,,,,2023-07-12,1,,,,,ティディ,0
1037,4120101067872,新規,0,2023-07-12,2023-07-12,ＭＪ株式会社,,株式会社,大阪府,貝塚市,久保１丁目９番１１号,,27,208,5970031,,,,,,,2023-07-12,1,,,,,エムジェイ,0
1039,4120901047768,新規,0,2023-07-12,2023-07-12,株式会社ＡＬプランニングス,,株式会社,大阪府,摂津市,鳥飼下３丁目８番７号,,27,224,5660071,,,,,,,2023-07-12,1,,,,,エーエルプランニングス,0
1044,4130001074729,新規,0,2023-07-12,2023-07-12,メディカルコネクト株式会社,,株式会社,京都府,京都市中京区,三条通烏丸西入御倉町８５番地１ＫＤＸ烏丸ビル３Ｆ,,26,104,6048166,,,,,,,2023-07-12,1,,,,,メディカルコネクト,0
1047,4130003008858,新規,0,2023-07-12,2023-07-12,合同会社Ｉｂａｓｈｏ　Ｊａｐａｎ,,合同会社,京都府,京都市下京区,大黒町２２７番地第２キョートビル４０２,,26,106,6008043,,,,,,,2023-07-12,1,,,,,イバショジャパン,0
1056,4140001130811,新規,0,2023-07-12,2023-07-12,株式会社高尾工業,00131144,株式会社,兵庫県,神戸市西区,押部谷町西盛２５５番地の１,,28,111,6512202,,,,,,,2023-07-12,1,,,,,タカオコウギョウ,0
1057,4140001130828,新規,0,2023-07-12,2023-07-12,株式会社林商店,,株式会社,兵庫県,神戸市中央区,栄町通１丁目３番１９号,,28,110,6500023,,,,,,,2023-07-12,1,,,,,ハヤシショウテン,0
1060,4150001026538,新規,0,2023-07-12,2023-07-12,真林業株式会社,,株式会社,奈良県,奈良市,北野山町７０８番地,,29,201,6301234,,,,,,,2023-07-12,1,,,,,マコトリンギョウ,0
1064,4160001025167,新規,0,2023-07-12,2023-07-12,Ｒｅｇｉｏｎ　Ｌｏｇｉ株式会社,,株式会社,滋賀県,大津市,一里山１丁目１７番１１号,,25,201,5202153,,,,,,,2023-07-12,1,,,,,リージョンロジ,0
1067,4170003001900,新規,0,2023-07-12,2023-07-12,合同会社神野,,合同会社,和歌山県,和歌山市,西布経丁１丁目２５番地,,30,201,6408211,,,,,,,2023-07-12,1,,,,,ジンノ,0
1075,4180001157058,新規,0,2023-07-12,2023-07-12,リトリム株式会社,,株式会社,愛知県,稲沢市,朝府町１７番１－１００３号,,23,220,4928268,,,,,,,2023-07-12,1,,,,,リトリム,0
1076,4180001157108,新規,0,2023-07-12,2023-07-12,株式会社Ｌｅｚｉｏｎ,,株式会社,愛知県,知多郡東浦町,大字藤江字ふじが丘１番地の９,,23,442,4702105,,,,,,,2023-07-12,1,,,,,リージョン,0
1077,4180001157140,新規,0,2023-07-12,2023-07-12,株式会社ＡＮＪＵ,,株式会社,愛知県,名古屋市中川区,一色新町２丁目２００５番地,,23,110,4540946,,,,,,,2023-07-12,1,,,,,アンジュ,0
1078,4180001157157,新規,0,2023-07-12,2023-07-12,イーメック株式会社,,株式会社,愛知県,清須市,土田１丁目１０番地８サンライズしば２０２,,23,233,4520945,,,,,,,2023-07-12,1,,,,,イーメック,0
1080,4180003025477,新規,0,2023-07-12,2023-07-12,わがんせ合同会社,,合同会社,愛知県,名古屋市名東区,猪子石原２丁目１２０１番地,,23,115,4650008,,,,,,,2023-07-12,1,,,,,ワガンセ,0
1081,4180301037562,新規,0,2023-07-12,2023-07-12,株式会社エフジーセーフティー,,株式会社,愛知県,岡崎市,上佐々木町字鹿乗５２番地,,23,202,4440936,,,,,,,2023-07-12,1,,,,,エフジーセーフティー,0
1088,4190003004372,新規,0,2023-07-12,2023-07-12,ｅｎＲｉｃｈ合同会社,,合同会社,三重県,志摩市,志摩町越賀９５６番地１,,24,215,5170704,,,,,,,2023-07-12,1,,,,,エンリッチ,0
1093,4210003001664,新規,0,2023-07-12,2023-07-12,合同会社Ｖｅｒｔｅｘ,,合同会社,福井県,勝山市,旭町２丁目５番３６号４,,18,206,9110803,,,,,,,2023-07-12,1,,,,,バーテクス,0
1096,4240001061798,新規,0,2023-07-12,2023-07-12,株式会社リフォームＴＯＷＡ,,株式会社,広島県,広島市安佐北区,深川２丁目５３－１２－１０１,,34,106,7391751,,,,,,,2023-07-12,1,,,,,リフォームトーワ,0
1097,4240001061815,新規,0,2023-07-12,2023-07-12,株式会社ＹＵＳＥＩ　Ａ．Ｆ．Ｙ,,株式会社,広島県,尾道市,正徳町２０番１７号,,34,205,7220004,,,,,,,2023-07-12,1,,,,,ユーセイエーエフワイ,0
1098,4240003006215,新規,0,2023-07-12,2023-07-12,合同会社ＳＥＴＯワークス,,合同会社,広島県,福山市,笠岡町４番４号,,34,207,7200044,,,,,,,2023-07-12,1,,,,,セトワークス,0
1099,4250001020183,新規,0,2023-07-12,2023-07-12,ｆｏｒｔｅ株式会社,,株式会社,山口県,下関市,熊野町２丁目２番１６号ファミール和Ｉ・１０１号,00131142,35,201,7510852,,,,,,,2023-07-12,1,,,,,フォルテ,0
1104,4260001038092,新規,0,2023-07-12,2023-07-12,おひさまＰＰＡ株式会社,,株式会社,岡山県,岡山市北区,弓之町１０番９号,,33,101,7000817,,,,,,,2023-07-12,1,,,,,オヒサマピーピーエー,0
1105,4260001038118,新規,0,2023-07-12,2023-07-12,株式会社清瀧工業,,株式会社,岡山県,倉敷市,児島上の町３丁目４番２１号,,33,202,7110907,,,,,,,2023-07-12,1,,,,,セイリュウコウギョウ,0
1107,4290001102234,新規,0,2023-07-12,2023-07-12,株式会社エクスコーディアル,,株式会社,福岡県,福岡市南区,大橋１丁目３番１８－８０７号,,40,134,8150033,,,,,,,2023-07-12,1,,,,,,0
1108,4290001102242,新規,0,2023-07-12,2023-07-12,株式会社ＳＬＯＷＪＡＭ,,株式会社,福岡県,飯塚市,中３３６番地,,40,205,8200065,,,,,,,2023-07-12,1,,,,,スロウジャム,0
1109,4290001102250,新規,0,2023-07-12,2023-07-12,株式会社Ｔｒｉｎｇｅ　Ｃｏｒｐｏｒａｔｉｏｎ,,株式会社,福岡県,福岡市博多区,春町３丁目３－７イルグランデ春町公園６０１,,40,132,8120872,,,,,,,2023-07-12,1,,,,,トリンジコーポレーション,0
1110,4290001102259,新規,0,2023-07-12,2023-07-12,Ｖｉｓｉｏｎａｒｙ株式会社,,株式会社,福岡県,福岡市博多区,博多駅中央街１－１・アミュプラザ博多地下１階「Ｑ」,,40,132,8120012,,,,,,,2023-07-12,1,,,,,ヴィジョナリー,0
1111,4290001102267,新規,0,2023-07-12,2023-07-12,株式会社里崎技建,,株式会社,福岡県,糟屋郡篠栗町,津波黒２丁目４番１３号,,40,342,8112415,,,,,,,2023-07-12,1,,,,,サトザキギケン,0
1120,4300003001985,新規,0,2023-07-12,2023-07-12,合同会社Ｋ＆Ｓあおぞら,,合同会社,佐賀県,三養基郡上峰町,大字堤３９６２番地２,,41,345,8490124,,,,,,,2023-07-12,1,,,,,ケイアンドエスアオゾラ,0
1132,4350001018440,新規,0,2023-07-12,2023-07-12,ＫＯＫＥＮ株式会社,,株式会社,宮崎県,児湯郡都農町,大字川北５８４５番地４,,45,406,8891201,,,,,,,2023-07-12,1,,,,,コウケン,0
1133,4350001018449,新規,0,2023-07-12,2023-07-12,株式会社ジュガール,,株式会社,宮崎県,西都市,有吉町３丁目１６番地,,45,208,8810011,,,,,,,2023-07-12,1,,,,,ジュガール,0
1135,4360001032259,新規,0,2023-07-12,2023-07-12,株式会社ＭＨ工業,,株式会社,沖縄県,中頭郡読谷村,字長浜１４２３番地２,,47,324,9040324,,,,,,,2023-07-12,1,,,,,エムエイチコウギョウ,0
1139,4370001050169,新規,0,2023-07-12,2023-07-12,ＡＷＥＳＯＭＥ　ＢＵＤＤＹ株式会社,,株式会社,宮城県,塩竈市,玉川１丁目３番１４号,,04,203,9850042,,,,,,,2023-07-12,1,,,,,オーサムバディー,0
1153,4420001018334,新規,0,2023-07-12,2023-07-12,土地買取相談窓口株式会社,,株式会社,青森県,八戸市,大字尻内町字上谷地３０番地１,,02,203,0391101,,,,,,,2023-07-12,1,,,,,トチカイトリソウダンマドグチ,0
1157,4462501000957,新規,0,2023-07-12,2023-07-12,ヒュッゲフィールド株式会社,,株式会社,北海道,標津郡中標津町,字西竹３０９番地６,,01,692,0882685,,,,,,,2023-07-12,1,,,,,ヒュッゲフィールド,0
1163,4480003002000,新規,0,2023-07-12,2023-07-12,わかや食農デリ合同会社,,合同会社,徳島県,板野郡藍住町,矢上字春日３１番地１２,,36,403,7711252,,,,,,,2023-07-12,1,,,,,ワカヤショクノウデリ,0
1166,4500001025066,新規,0,2023-07-12,2023-07-12,株式会社かどまる,,株式会社,愛媛県,松山市,南吉田町６０１番地７,,38,201,7918042,,,,,,,2023-07-12,1,,,,,カドマル,0
1168,5010001236760,新規,0,2023-07-12,2023-07-12,株式会社ｓｔｅａｍｙ,,株式会社,東京都,千代田区,神田練塀町６６番地ヴィラージュ・ド・クロシェビル６０１,,13,101,1010022,,,,,,,2023-07-12,1,,,,,スチーミー,0
1169,5010001236769,新規,0,2023-07-12,2023-07-12,株式会社ＭＴＳ,,株式会社,東京都,中央区,銀座６丁目６番１９号若松ビル地下１階,,13,102,1040061,,,,,,,2023-07-12,1,,,,,エムティーエス,0
1170,5010001236785,新規,0,2023-07-12,2023-07-12,ＪＰｉＸ１号株式会社,,株式会社,東京都,千代田区,丸の内１丁目９番２号グラントウキョウサウスタワー８階,,13,101,1000005,,,,,,,2023-07-12,1,,,,,ジェイピックスイチゴウ,0
1171,5010001236819,新規,0,2023-07-12,2023-07-12,株式会社Ｄａｈｌｉａ,,株式会社,東京都,中央区,日本橋横山町３番４－８０７号,,13,102,1030003,,,,,,,2023-07-12,1,,,,,ダリア,0
1172,5010001236843,新規,0,2023-07-12,2023-07-12,株式会社ｙｏｎｋａｉ,,株式会社,東京都,千代田区,九段南１丁目５番６号,,13,101,1020074,,,,,,,2023-07-12,1,,,,,ヨンカイ,0
1174,5010003041069,新規,0,2023-07-12,2023-07-12,ＬＵＥＬＹ合同会社,,合同会社,東京都,文京区,本駒込３丁目３５番１１号,,13,105,1130021,,,,,,,2023-07-12,1,,,,,ルエリー,0
1185,5010401175146,新規,0,2023-07-12,2023-07-12,司崎庫株式会社,,株式会社,東京都,港区,白金台２丁目２６番９号,,13,103,1080071,,,,,,,2023-07-12,1,,,,,ツカサキクラ,0
1186,5010401175625,新規,0,2023-07-12,2023-07-12,株式会社サニープラス,,株式会社,東京都,港区,南麻布４丁目９番３－３１０号,,13,103,1060047,,,,,,,2023-07-12,1,,,,,サニープラス,0
1187,5010401175641,新規,0,2023-07-12,2023-07-12,クレマチスケア・ホールディングス株式会社,,株式会社,東京都,港区,元赤坂１丁目７番１８号,,13,103,1070051,,,,,,,2023-07-12,1,,,,,クレマチスケアホールディングス,0
1188,5010401175690,新規,0,2023-07-12,2023-07-12,株式会社Ｂｅｙｏｎｄ　Ｍｅｄｉｃａｌ,,株式会社,東京都,港区,南青山３丁目１番３６号青山丸竹ビル６Ｆ,,13,103,1070062,,,,,,,2023-07-12,1,,,,,ビヨンドメディカル,0
1192,5010403030489,新規,0,2023-07-12,2023-07-12,リニューアブルエナジーデベロップメント合同会社,,合同会社,東京都,港区,六本木６丁目１０番１号六本木ヒルズ森タワー１５Ｆ,,13,103,1060032,,,,,,,2023-07-12,1,,,,,リニューアブルエナジーデベロップメント,0
1196,5010703006767,新規,0,2023-07-12,2023-07-12,合同会社Ｍａｎｕｖａｎｃｅ　Ｔｅｃｈｎｏｌｏｇｉｅｓ,,合同会社,東京都,品川区,南品川５丁目１１番１２号,,13,109,1400004,,,,,,,2023-07-12,1,,,,,マニュバンステクノロジーズ,0
1210,5011001155612,新規,0,2023-07-12,2023-07-12,スリーキングス株式会社,,株式会社,東京都,渋谷区,東４丁目６番３号ベルエアー３Ｆ,,13,113,1500011,,,,,,,2023-07-12,1,,,,,スリーキングス,0
1211,5011001155629,新規,0,2023-07-12,2023-07-12,ＡＭＡＮＥＱ株式会社,,株式会社,東京都,渋谷区,道玄坂１丁目１０番８号渋谷道玄坂東急ビル２Ｆ－Ｃ,,13,113,1500043,,,,,,,2023-07-12,1,,,,,アマネク,0
1212,5011001155637,新規,0,2023-07-12,2023-07-12,株式会社Ｗｉｔｈ４,,株式会社,東京都,渋谷区,道玄坂２丁目２９番１１号,,13,113,1500043,,,,,,,2023-07-12,1,,,,,ウィズフォー,0
1215,5011101103553,新規,0,2023-07-12,2023-07-12,ＫＡＮＡＭＥ株式会社,,株式会社,東京都,新宿区,大久保１丁目１５番９号－３０４号,,13,104,1690072,,,,,,,2023-07-12,1,,,,,カナメ,0
1216,5011101103578,新規,0,2023-07-12,2023-07-12,おせっかい株式会社,,株式会社,東京都,新宿区,西新宿３丁目３番１３号西新宿水間ビル２Ｆ,,13,104,1600023,,,,,,,2023-07-12,1,,,,,オセッカイ,0
1217,5011101103586,新規,0,2023-07-12,2023-07-12,ＹＡＢＵ株式会社,,株式会社,東京都,新宿区,西新宿３丁目３番１３号西新宿水間ビル６階,,13,104,1600023,,,,,,,2023-07-12,1,,,,,ヤブ,0
1218,5011103013247,新規,0,2023-07-12,2023-07-12,合同会社ＳＯＣＯＡＲＵ,,合同会社,東京都,新宿区,新宿１丁目２６番１２－７０５号,,13,104,1600022,,,,,,,2023-07-12,1,,,,,ソコアル,0
1219,5011105010721,新規,0,2023-07-12,2023-07-12,一般社団法人ＣＡＴ＆ＤＯＧ　ＨＯＵＳＥ,,その他の設立登記法人,東京都,新宿区,新宿６丁目１７番２０号,,13,104,1600022,,,,,,,2023-07-12,1,,,,,キャットアンドドッグハウス,0
1225,5011701026410,新規,0,2023-07-12,2023-07-12,株式会社ＴＡＩＫＯＨ,,株式会社,東京都,江戸川区,中葛西５丁目４１番１２号,,13,123,1340083,,,,,,,2023-07-12,1,,,,,タイコウ,0
1229,5011803005725,新規,0,2023-07-12,2023-07-12,ＤＥ　ＭＡＲＫ　ＶＥＮＴＵＲＥＳ合同会社,,合同会社,東京都,足立区,竹の塚１丁目５番１７－５０１号,,13,121,1210813,,,,,,,2023-07-12,1,,,,,デマークベンチャーズ,0
1230,5012301013518,新規,0,2023-07-12,2023-07-12,株式会社ＭＫＣ,,株式会社,東京都,町田市,木曽西３丁目８番地４らくりーぶ２１忠生１０４,,13,209,1940037,,,,,,,2023-07-12,1,,,,,エムケイシー,0
1231,5012303001850,新規,0,2023-07-12,2023-07-12,合同会社Ｓｍａｒｔ　Ｔ　Ｌｉｎｋ,,合同会社,東京都,町田市,小山田桜台２丁目５番地２３―４０２,,13,209,1940204,,,,,,,2023-07-12,1,,,,,スマートティーリンク,0
1234,5012401040726,新規,0,2023-07-12,2023-07-12,株式会社ＴＯＭＯＬ,,株式会社,東京都,多摩市,連光寺１丁目２５番地の６,,13,224,2060021,,,,,,,2023-07-12,1,,,,,トモル,0
1235,5012801022506,新規,0,2023-07-12,2023-07-12,初鶴株式会社,,株式会社,東京都,国分寺市,本町４丁目９－１１,,13,214,1850012,,,,,,,2023-07-12,1,,,,,ハツズル,0
1236,5012803003124,新規,0,2023-07-12,2023-07-12,合同会社ランサ・スペースプランニング,,合同会社,東京都,日野市,旭が丘４丁目７番地の５シティハイツ日野旭が丘４－１３０９,,13,212,1910065,,,,,,,2023-07-12,1,,,,,ランサスペースプランニング,0
1237,5013101009210,新規,0,2023-07-12,2023-07-12,ＲＤトレイド株式会社,,株式会社,東京都,あきる野市,二宮２２５４番地１二宮ハイツ１０６,,13,228,1970814,,,,,,,2023-07-12,1,,,,,アールディートレイド,0
1247,5020001152362,新規,0,2023-07-12,2023-07-12,株式会社エビデンス,,株式会社,神奈川県,横浜市保土ケ谷区,今井町７３１番地６,,14,106,2400035,,,,,,,2023-07-12,1,,,,,エビデンス,0
1248,5020001152370,新規,0,2023-07-12,2023-07-12,ＡＷＺ株式会社,,株式会社,神奈川県,横浜市中区,千歳町３－２,,14,104,2310035,,,,,,,2023-07-12,1,,,,,エーダブリュゼット,0
1249,5020001152486,新規,0,2023-07-12,2023-07-12,株式会社堂山設計工房,,株式会社,神奈川県,横浜市港北区,大曽根３丁目１３番２－１２７号,,14,109,2220003,,,,,,,2023-07-12,1,,,,,ドウヤマセッケイコウボウ,0
1250,5020001152494,新規,0,2023-07-12,2023-07-12,コモンズ・ラフト株式会社,,株式会社,神奈川県,横浜市旭区,上川井町２８９８番地,,14,112,2410802,,,,,,,2023-07-12,1,,,,,コモンズラフト,0
1251,5020001152503,新規,0,2023-07-12,2023-07-12,株式会社エンパワメント,,株式会社,神奈川県,横浜市都筑区,南山田３丁目２１番１号Ｂ－１,,14,118,2240029,,,,,,,2023-07-12,1,,,,,エンパワメント,0
1261,5021001079570,新規,0,2023-07-12,2023-07-12,株式会社冨士成建,,株式会社,神奈川県,大和市,上和田２１５０番地１６,,14,213,2420014,,,,,,,2023-07-12,1,,,,,フジセイケン,0
1262,5021001079587,新規,0,2023-07-12,2023-07-12,株式会社七夕研究所,,株式会社,神奈川県,小田原市,中村原１１９番地の６,,14,206,2560803,,,,,,,2023-07-12,1,,,,,タナバタケンキュウジョ,0
1269,5030001154795,新規,0,2023-07-12,2023-07-12,株式会社タジマックス,,株式会社,埼玉県,深谷市,東方町３丁目１６番地１３,,11,218,3660042,,,,,,,2023-07-12,1,,,,,タジマックス,0
1270,5030001154837,新規,0,2023-07-12,2023-07-12,ＰＡＮＴＨＥＲ　ＪＡＰＡＮ株式会社,,株式会社,埼玉県,春日部市,備後東６丁目１３番８号２階,,11,214,3440032,,,,,,,2023-07-12,1,,,,,パンサージャパン,0
1271,5030001154886,新規,0,2023-07-12,2023-07-12,株式会社Ａｔｉｒｅ,,株式会社,埼玉県,志木市,幸町４丁目３番３５－３０１号,,11,228,3530005,,,,,,,2023-07-12,1,,,,,アティレ,0
1276,5030003022117,新規,0,2023-07-12,2023-07-12,合同会社Ｔ‐ＳＴＹＬＥ,,合同会社,埼玉県,越谷市,大間野町５丁目１１０５番地２２,,11,222,3430844,,,,,,,2023-07-12,1,,,,,ティースタイル,0
1277,5040001129210,新規,0,2023-07-12,2023-07-12,シンメトリ株式会社,,株式会社,千葉県,千葉市中央区,弁天３丁目８－１－３０４,,12,101,2600045,,,,,,,2023-07-12,1,,,,,シンメトリ,0
1278,5040001129219,新規,0,2023-07-12,2023-07-12,株式会社Ａｕｔｏ　Ｓｅｖｅｎ,,株式会社,千葉県,船橋市,高野台５丁目１９１番１９,,12,204,2740801,,,,,,,2023-07-12,1,,,,,オートセブン,0
1279,5040001129227,新規,0,2023-07-12,2023-07-12,愛創情報株式会社,,株式会社,千葉県,船橋市,浜町２丁目３番３５－８０７号,,12,204,2730012,,,,,,,2023-07-12,1,,,,,アイソウジョウホウ,0
1281,5040003022850,新規,0,2023-07-12,2023-07-12,拓海国際合同会社,,合同会社,千葉県,柏市,旭町２丁目５－３－１２０２,,12,217,2770852,,,,,,,2023-07-12,1,,,,,タクミコクサイ,0
1282,5040003022941,新規,0,2023-07-12,2023-07-12,ＳＴＨｗｏｒｋｓ合同会社,,合同会社,千葉県,船橋市,習志野台４丁目７３番２３号,,12,204,2740063,,,,,,,2023-07-12,1,,,,,エスティエイチワークス,0
1283,5050001053120,新規,0,2023-07-12,2023-07-12,株式会社ｂｅ　ＳＴＯＮＥＳ,,株式会社,茨城県,鹿嶋市,宮中３丁目６番７号下生ビル１階Ｃ棟,,08,222,3140031,,,,,,,2023-07-12,1,,,,,ビーストーンズ,0
1284,5050001053129,新規,0,2023-07-12,2023-07-12,株式会社裕,,株式会社,茨城県,土浦市,西真鍋町１０番１３号,,08,203,3000054,,,,,,,2023-07-12,1,,,,,ユウ,0
1285,5050001053137,新規,0,2023-07-12,2023-07-12,古山建装株式会社,,株式会社,茨城県,つくば市,南中妻５９７番地１０,,08,220,3050065,,,,,,,2023-07-12,1,,,,,フルヤマケンソウ,0
1292,5070003005019,新規,0,2023-07-12,2023-07-12,合同会社ＲＥＣＡＮＴＯ　ＢＲＡＳＩＬ,,合同会社,群馬県,邑楽郡大泉町,西小泉３丁目１７番１３号,,10,524,3700517,,,,,,,2023-07-12,1,,,,,,0
1295,5080001025728,新規,0,2023-07-12,2023-07-12,株式会社パイナス,,株式会社,静岡県,静岡市駿河区,曲金６丁目１番６７号,,22,102,4228006,,,,,,,2023-07-12,1,,,,,パイナス,0
1304,5100001036573,新規,0,2023-07-12,2023-07-12,株式会社ユーチェ,,株式会社,長野県,長野市,若穂綿内６９１７番地,,20,201,3810101,,,,,,,2023-07-12,1,,,,,ユーチェ,0
1308,5110001037686,新規,0,2023-07-12,2023-07-12,プロテ企画株式会社,,株式会社,新潟県,新潟市西区,坂井７８４番地,,15,107,9502042,,,,,,,2023-07-12,1,,,,,プロテキカク,0
1325,5120001256327,新規,0,2023-07-12,2023-07-12,株式会社深藍,,株式会社,大阪府,大阪市中央区,高津３丁目８－１９スターレジデンス黒門２０３号室,,27,128,5420072,,,,,,,2023-07-12,1,,,,,シンラン,0
1330,5120101067871,新規,0,2023-07-12,2023-07-12,株式会社ＮＡＫＡＹＡＭＡ,,株式会社,大阪府,泉南郡熊取町,若葉１丁目１１番９号,,27,361,5900433,,,,,,,2023-07-12,1,,,,,ナカヤマ,0
1331,5120105009738,新規,0,2023-07-12,2023-07-12,医療法人スマイルデンタルクリニック,,その他の設立登記法人,大阪府,堺市中区,新家町５８９番地１,,27,142,5998232,,,,,,,2023-07-12,1,,,,,スマイルデンタルクリニック,0
1333,5120901047783,新規,0,2023-07-12,2023-07-12,リージョナルデータコア株式会社,,株式会社,大阪府,吹田市,岸部新町６番１号国立研究開発法人国立循環病研究センター,,27,205,5640018,,,,,,,2023-07-12,1,,,,,リージョナルデータコア,0
1334,5120903004733,新規,0,2023-07-12,2023-07-12,合同会社イーシーテック,,合同会社,大阪府,豊中市,庄内栄町４丁目１３番４号,,27,203,5610834,,,,,,,2023-07-12,1,,,,,イーシーテック,0
1336,5130001074637,新規,0,2023-07-12,2023-07-12,株式会社今岡工芸,,株式会社,京都府,京都市右京区,西院東淳和院町３１番地９,,26,108,6160000,,,,,,,2023-07-12,1,,,,,イマオカコウゲイ,0
1345,5140001130736,新規,0,2023-07-12,2023-07-12,株式会社レジスタンス,,株式会社,兵庫県,伊丹市,中央２丁目８番１８－９０１号,,28,207,6640851,,,,,,,2023-07-12,1,,,,,レジスタンス,0
1346,5140001130819,新規,0,2023-07-12,2023-07-12,株式会社ＹＫテック,,株式会社,兵庫県,尼崎市,戸ノ内町６丁目１２番１９,,28,202,6610961,,,,,,,2023-07-12,1,,,,,ワイケーテック,0
1347,5140001130827,新規,0,2023-07-12,2023-07-12,株式会社Ｂｕｃｃｈｉ,,株式会社,兵庫県,神戸市中央区,三宮町３丁目８番６号北田ビル,,28,110,6500021,,,,,,,2023-07-12,1,,,,,ブッチ,0
1348,5140001130835,新規,0,2023-07-12,2023-07-12,モトボウ株式会社,,株式会社,兵庫県,宝塚市,弥生町６番１９号,,28,214,6650826,,,,,,,2023-07-12,1,,,,,モトボウ,0
1351,5140003019291,新規,0,2023-07-12,2023-07-12,合同会社ＧｙｐｓｙＩｎｔｅｒｎａｔｉｏｎａｌ,,合同会社,兵庫県,丹波市,氷上町福田５５番地,,28,223,6693583,,,,,,,2023-07-12,1,,,,,ジプシーインターナショナル,0
1354,5150001026529,新規,0,2023-07-12,2023-07-12,株式会社フィフティーワン,,株式会社,奈良県,橿原市,新口町２６７番地の１グリーンタウンにのくち３号,,29,205,6340802,,,,,,,2023-07-12,1,,,,,フィフティーワン,0
1355,5150001026537,新規,0,2023-07-12,2023-07-12,株式会社ｃｏｊｉｃａ,,株式会社,奈良県,奈良市,三条町５４７番地,,29,201,6308244,,,,,,,2023-07-12,1,,,,,コジカ,0
1358,5170001017682,新規,0,2023-07-12,2023-07-12,株式会社中央建物,,株式会社,和歌山県,新宮市,新宮６６８２番地の１５,,30,207,6470081,,,,,,,2023-07-12,1,,,,,チュウオウタテモノ,0
1361,5180001157098,新規,0,2023-07-12,2023-07-12,株式会社ごじゅうおん,,株式会社,愛知県,名古屋市中村区,名駅４丁目２４番５号第２森ビル４０１,,23,105,4500002,,,,,,,2023-07-12,1,,,,,ゴジュウオン,0
1362,5180001157115,新規,0,2023-07-12,2023-07-12,琥珀堂株式会社,,株式会社,愛知県,名古屋市東区,東大曽根町２９番１１号共栄ビル４Ｅ,,23,102,4610022,,,,,,,2023-07-12,1,,,,,コハクドウ,0
1363,5180001157123,新規,0,2023-07-12,2023-07-12,株式会社フレアユニクルソリューション,,株式会社,愛知県,名古屋市中区,栄１丁目１４番１４号,,23,106,4600008,,,,,,,2023-07-12,1,,,,,フレアユニクルソリューション,0
1364,5180001157131,新規,0,2023-07-12,2023-07-12,株式会社ＧＭＩグループ,,株式会社,愛知県,名古屋市西区,栄生３丁目１３番５号,,23,104,4510052,,,,,,,2023-07-12,1,,,,,ジーエムアイグループ,0
1365,5180001157148,新規,0,2023-07-12,2023-07-12,株式会社縁屋,,株式会社,愛知県,清須市,西枇杷島町小田井２丁目１８番地１１,,23,233,4520021,,,,,,,2023-07-12,1,,,,,エンヤ,0
1369,5180003025492,新規,0,2023-07-12,2023-07-12,美のや合同会社,,合同会社,愛知県,名古屋市瑞穂区,直来町３丁目１番地の８,,23,108,4670865,,,,,,,2023-07-12,1,,,,,ミノヤ,0
1371,5180005020285,新規,0,2023-07-12,2023-07-12,一般社団法人日本印象管理士協会,,その他の設立登記法人,愛知県,名古屋市東区,東桜１丁目１番１号アーバンネット名古屋ネクスタビル内ＬＩＦＯＲＫ久屋大通,,23,102,4610005,,,,,,,2023-07-12,1,,,,,ニホンインショウカンリシキョウカイ,0
1372,5180301037545,新規,0,2023-07-12,2023-07-12,株式会社リーエンス,,株式会社,愛知県,豊橋市,下地町字境田１１番地４,,23,201,4400083,,,,,,,2023-07-12,1,,,,,リーエンス,0
1373,5180301037553,新規,0,2023-07-12,2023-07-12,キラオイルホールディングス株式会社,,株式会社,愛知県,西尾市,吉良町岡山鎧７番地,,23,213,4440531,,,,,,,2023-07-12,1,,,,,キラオイルホールディングス,0
1377,5180303005772,新規,0,2023-07-12,2023-07-12,合同会社ねむの木,,合同会社,愛知県,岡崎市,合歓木町字上郷間２６３番地２,,23,202,4440232,,,,,,,2023-07-12,1,,,,,ネムノキ,0
1379,5190001030576,新規,0,2023-07-12,2023-07-12,株式会社Ｋｉｎｏ,,株式会社,三重県,四日市市,元新町６番１４号－５０３,,24,202,5100095,,,,,,,2023-07-12,1,,,,,キノ,0
1380,5190003004371,新規,0,2023-07-12,2023-07-12,ＲＩＫＩ合同会社,,合同会社,三重県,桑名市,長島町福吉９８,,24,205,5111137,,,,,,,2023-07-12,1,,,,,リキ,0
1381,5200001041489,新規,0,2023-07-12,2023-07-12,株式会社魁組,,株式会社,岐阜県,揖斐郡大野町,大字加納４５９番地１,,21,403,5010535,,,,,,,2023-07-12,1,,,,,サキガケグミ,0
1386,5240001061789,新規,0,2023-07-12,2023-07-12,株式会社にとく,,株式会社,広島県,尾道市,土堂１丁目１１番１６号,,34,205,7220035,,,,,,,2023-07-12,1,,,,,ニトク,0
1387,5240001061814,新規,0,2023-07-12,2023-07-12,株式会社ＳＵＮＳＥＩ,,株式会社,広島県,広島市東区,光町２丁目８番２４号,,34,102,7320052,,,,,,,2023-07-12,1,,,,,サンセイ,0
1389,5250001020166,新規,0,2023-07-12,2023-07-12,株式会社丹生建設,,株式会社,山口県,下関市,幡生本町１番３０－６０３号,,35,201,7510827,,,,,,,2023-07-12,1,,,,,ニウケンセツ,0
1392,5260001038091,新規,0,2023-07-12,2023-07-12,株式会社デイリー,,株式会社,岡山県,新見市,新見１６５２番地,,33,210,7180011,,,,,,,2023-07-12,1,,,,,デイリー,0
1397,5290001102233,新規,0,2023-07-12,2023-07-12,株式会社Ｖｉｓｈｎｕ,,株式会社,福岡県,福岡市中央区,警固３丁目９番３２号,,40,133,8100023,,,,,,,2023-07-12,1,,,,,ヴィシュヌ,0
1398,5290001102241,新規,0,2023-07-12,2023-07-12,株式会社照隅,,株式会社,福岡県,福岡市博多区,住吉３丁目１番１８－５０５号,,40,132,8120018,,,,,,,2023-07-12,1,,,,,ショウグウ,0
1399,5290001102258,新規,0,2023-07-12,2023-07-12,日綜メンテナンス株式会社,,株式会社,福岡県,福岡市城南区,七隈４丁目７番１９号,,40,136,8140133,,,,,,,2023-07-12,1,,,,,ニッソウメンテナンス,0
1400,5290001102266,新規,0,2023-07-12,2023-07-12,まいたけくりえいと株式会社,,株式会社,福岡県,福岡市中央区,天神１丁目１－１アクロス福岡１階,,40,133,8100001,,,,,,,2023-07-12,1,,,,,マイタケクリエイト,0
1405,5290005019085,新規,0,2023-07-12,2023-07-12,一般社団法人脳疲労快復メディカルサイエンス・ジャパン,,その他の設立登記法人,福岡県,福岡市博多区,博多駅前２丁目１９番１７号トーカン博多第５ビル２０１,,40,132,8120011,,,,,,,2023-07-12,1,,,,,ノウヒロウカイフクメディカルサイエンスジャパン,0
1407,5290801029700,新規,0,2023-07-12,2023-07-12,株式会社清澤ボーリング工業,,株式会社,福岡県,直方市,大字感田２２９番地１市住５４５号,,40,204,8220001,,,,,,,2023-07-12,1,,,,,キヨザワボーリングコウギョウ,0
1420,5340001025718,新規,0,2023-07-12,2023-07-12,株式会社タイザニック,,株式会社,鹿児島県,鹿児島市,田上２丁目３番１７号２０５号室,,46,201,8900034,,,,,,,2023-07-12,1,,,,,タイザニック,0
1423,5360001032241,新規,0,2023-07-12,2023-07-12,株式会社大田竜我,,株式会社,沖縄県,石垣市,字登野城５１０番地（チャレンジ内）,,47,207,9070004,,,,,,,2023-07-12,1,,,,,オオタリュウガ,0
1429,5370003006201,新規,0,2023-07-12,2023-07-12,合同会社ａｎｄ　Ｌａｐｉｓ,,合同会社,宮城県,仙台市青葉区,国分町３丁目１番４号ムサシヤビル５Ｆ,,04,101,9800803,,,,,,,2023-07-12,1,,,,,アンドラピス,0
1449,5430001089547,新規,0,2023-07-12,2023-07-12,エアイリス株式会社,,株式会社,北海道,札幌市北区,篠路九条２丁目１番１７号,,01,102,0028029,,,,,,,2023-07-12,1,,,,,エアイリス,0
1450,5440001009289,新規,0,2023-07-12,2023-07-12,明輝開発株式会社,,株式会社,北海道,亀田郡七飯町,字大沼町２９７番地６,,01,337,0411354,,,,,,,2023-07-12,1,,,,,メイキカイハツ,0
1465,6010001236818,新規,0,2023-07-12,2023-07-12,株式会社フクハコ,,株式会社,東京都,千代田区,岩本町２丁目１７番３号メイフェアビル３階,,13,101,1010032,,,,,,,2023-07-12,1,,,,,フクハコ,0
1466,6010001236826,新規,0,2023-07-12,2023-07-12,東京スタンダード株式会社,,株式会社,東京都,中央区,日本橋大伝馬町２番７号,,13,102,1030011,,,,,,,2023-07-12,1,,,,,トウキョウスタンダード,0
1467,6010001236842,新規,0,2023-07-12,2023-07-12,株式会社Ｓ２Ｐｌａｎｎｉｎｇ,,株式会社,東京都,中央区,日本橋浜町１丁目３番９－２０２号,,13,102,1030007,,,,,,,2023-07-12,1,,,,,エスツープランニング,0
1476,6010101015700,新規,0,2023-07-12,2023-07-12,ＹＰＲＯ　ＪＡＰＡＮ株式会社,,株式会社,東京都,八王子市,子安町１丁目４８－９共立リライアンス２０２,,13,201,1920904,,,,,,,2023-07-12,1,,,,,ワイプロジャパン,0
1477,6010103002176,新規,0,2023-07-12,2023-07-12,合同会社ａｄａｍａｎｔ,,合同会社,東京都,八王子市,中野山王１丁目５番１５号,,13,201,1920042,,,,,,,2023-07-12,1,,,,,アダマント,0
1481,6010401175500,新規,0,2023-07-12,2023-07-12,株式会社ナカムラホールディングス,,株式会社,東京都,港区,芝浦２丁目３番３９号,,13,103,1080023,,,,,,,2023-07-12,1,,,,,ナカムラホールディングス,0
1482,6010401175649,新規,0,2023-07-12,2023-07-12,株式会社八葉,,株式会社,東京都,港区,白金１丁目２９番９号,,13,103,1080072,,,,,,,2023-07-12,1,,,,,ハチヨウ,0
1483,6010403030447,新規,0,2023-07-12,2023-07-12,合同会社Ｓｈｏｔ,,合同会社,東京都,港区,浜松町２丁目２番１５号浜松町ダイヤビル２Ｆ,,13,103,1050013,,,,,,,2023-07-12,1,,,,,ショット,0
1484,6010403030455,新規,0,2023-07-12,2023-07-12,合同会社ハイ・マウンテン,,合同会社,東京都,港区,元赤坂１丁目１番７号,,13,103,1070051,,,,,,,2023-07-12,1,,,,,ハイマウンテン,0
1487,6010601063372,新規,0,2023-07-12,2023-07-12,ＫＡＲＡＫＵ株式会社,,株式会社,東京都,江東区,清澄３丁目８－１０ハイ清澄７０２号室,,13,108,1350024,,,,,,,2023-07-12,1,,,,,カラク,0
1488,6010601063380,新規,0,2023-07-12,2023-07-12,オルトモスホールディングス株式会社,,株式会社,東京都,墨田区,京島１丁目２１番１０号,,13,107,1310046,,,,,,,2023-07-12,1,,,,,オルトモスホールディングス,0
1489,6010701044553,新規,0,2023-07-12,2023-07-12,株式会社Ｃｈｉｌｄ　Ｍｅｄｔｅｃｈ,,株式会社,東京都,品川区,西五反田１丁目２３番７号,,13,109,1410031,,,,,,,2023-07-12,1,,,,,チャイルドメドテック,0
1490,6010701044561,新規,0,2023-07-12,2023-07-12,株式会社技建,,株式会社,東京都,品川区,戸越３丁目８番１１号ティー・クレール２０１,,13,109,1420041,,,,,,,2023-07-12,1,,,,,ギケン,0
1491,6010801034140,新規,0,2023-07-12,2023-07-12,株式会社Ｉｓｈｉｎ,,株式会社,東京都,大田区,山王２丁目７番３６号,,13,111,1430023,,,,,,,2023-07-12,1,,,,,イシン,0
1494,6010901053395,新規,0,2023-07-12,2023-07-12,株式会社ＹＫＴＶ,,株式会社,東京都,世田谷区,羽根木２丁目５番１３号,,13,112,1560042,,,,,,,2023-07-12,1,,,,,ワイケーティーヴィー,0
1495,6010901053412,新規,0,2023-07-12,2023-07-12,株式会社ＳＡＩＭＯＮ,,株式会社,東京都,世田谷区,深沢７丁目１４番３号Ｃ－２,,13,112,1580081,,,,,,,2023-07-12,1,,,,,サイモン,0
1496,6010903008298,新規,0,2023-07-12,2023-07-12,サイヨウレター合同会社,,合同会社,東京都,世田谷区,玉川３丁目２０番２号マノア玉川第３ビル５０１号室,,13,112,1580094,,,,,,,2023-07-12,1,,,,,サイヨウレター,0
1497,6010903008315,新規,0,2023-07-12,2023-07-12,合同会社ｙａｅ,,合同会社,東京都,世田谷区,奥沢５丁目２０番１３号佐宗ビル１０１号室,,13,112,1580083,,,,,,,2023-07-12,1,,,,,ヤエ,0
1502,6011001155520,新規,0,2023-07-12,2023-07-12,株式会社ミラパス,,株式会社,東京都,渋谷区,渋谷２丁目１９－１５宮益坂ビルディング６０９,,13,113,1500002,,,,,,,2023-07-12,1,,,,,ミラパス,0
1503,6011001155586,新規,0,2023-07-12,2023-07-12,ＡＲＴＯＲＵＳ株式会社,,株式会社,東京都,渋谷区,上原１丁目３－９,,13,113,1510064,,,,,,,2023-07-12,1,,,,,アトラス,0
1504,6011001155636,新規,0,2023-07-12,2023-07-12,株式会社Ｃｒｉｓｐ　Ｊｕｎｋ,,株式会社,東京都,渋谷区,恵比寿３丁目３番３号ザ・パークハビオ恵比寿プレイス３０４,,13,113,1500013,,,,,,,2023-07-12,1,,,,,クリスプジャンク,0
1505,6011003017149,新規,0,2023-07-12,2023-07-12,合同会社ｈａｒｕｃｏｎ,,合同会社,東京都,渋谷区,本町１丁目５２番２号ＶＩＯＬＥＴＡ４０１,,13,113,1510071,,,,,,,2023-07-12,1,,,,,ハルコン,0
1506,6011003017157,新規,0,2023-07-12,2023-07-12,ＤＵＳＴＢＵＮＮＹ合同会社,,合同会社,東京都,目黒区,中目黒１丁目９番１６号レジオン中目黒３０３,,13,110,1530061,,,,,,,2023-07-12,1,,,,,ダストバニー,0
1513,6011101103544,新規,0,2023-07-12,2023-07-12,恭平株式会社,,株式会社,東京都,新宿区,西五軒町７番１２プラティーク神楽坂４０１号,,13,104,1620812,,,,,,,2023-07-12,1,,,,,キョウヘイ,0
1517,6011401025273,新規,0,2023-07-12,2023-07-12,株式会社ｅｉｔｏ,,株式会社,東京都,板橋区,西台１丁目５０番１３号シティパレス１０２,,13,119,1740045,,,,,,,2023-07-12,1,,,,,エイト,0
1520,6011703003530,新規,0,2023-07-12,2023-07-12,合同会社竜電気設備,,合同会社,東京都,江戸川区,北篠崎２丁目１０番２号グランディール１０１,,13,123,1330053,,,,,,,2023-07-12,1,,,,,リュウデンキセツビ,0
1521,6011801042686,新規,0,2023-07-12,2023-07-12,ＭＩＲＡＩＳＥＳＴＡＴＥ株式会社,,株式会社,東京都,足立区,皿沼２丁目１３－１５,,13,121,1230862,,,,,,,2023-07-12,1,,,,,ミライズエステート,0
1522,6012401040733,新規,0,2023-07-12,2023-07-12,株式会社エイティ,,株式会社,東京都,府中市,四谷５丁目４１番地の２０グランシティ東京ウエスト５１１,,13,206,1830035,,,,,,,2023-07-12,1,,,,,エイティ,0
1524,6012703002753,新規,0,2023-07-12,2023-07-12,合同会社ＤＥＶＩＣＥ　ＳＴＲＥＡＭ,,合同会社,東京都,東村山市,恩多町５丁目５２番地１１,,13,213,1890011,,,,,,,2023-07-12,1,,,,,デバイスストリーム,0
1525,6012803003123,新規,0,2023-07-12,2023-07-12,ｂＬＡｎｋ合同会社,,合同会社,東京都,立川市,曙町１丁目３７番６号シティテラス立川Ｎ７０４,00131149,13,202,1900012,,,,,,,2023-07-12,1,,,,,ブランク,0
1532,6020001152477,新規,0,2023-07-12,2023-07-12,株式会社ＮｅｗＡｒｋ,,株式会社,神奈川県,横浜市港北区,新横浜１丁目１９番地２３トゥー・ル・モンド新横浜４０６号室,,14,109,2220033,,,,,,,2023-07-12,1,,,,,ニューアーク,0
1533,6020001152485,新規,0,2023-07-12,2023-07-12,株式会社アクアサイエンス,,株式会社,神奈川県,横浜市港北区,篠原台町３６番３４号,,14,109,2220024,,,,,,,2023-07-12,1,,,,,アクアサイエンス,0
1534,6020001152502,新規,0,2023-07-12,2023-07-12,株式会社ＢＬＩＳＳ,,株式会社,神奈川県,川崎市川崎区,東田町１０番地３９ビラアペックス川崎４階,,14,131,2100005,,,,,,,2023-07-12,1,,,,,ブリス,0
1535,6020001152510,新規,0,2023-07-12,2023-07-12,ＣＲｍｏｒｒｉ株式会社,,株式会社,神奈川県,川崎市幸区,小倉５丁目２６番４３号ディア・ワン２０２,,14,132,2120054,,,,,,,2023-07-12,1,,,,,シーアールモリ,0
1536,6020001152519,新規,0,2023-07-12,2023-07-12,株式会社ｓｎｕｇｇｌｅ,,株式会社,神奈川県,横浜市泉区,和泉町５４４８番地１ヴェルカーサ弐ノ館１０１号,,14,116,2450016,,,,,,,2023-07-12,1,,,,,スナグル,0
1537,6020003024179,新規,0,2023-07-12,2023-07-12,合同会社アイビー,,合同会社,神奈川県,横浜市磯子区,中原１丁目１－３７,,14,107,2350036,,,,,,,2023-07-12,1,,,,,アイビー,0
1538,6020003024212,新規,0,2023-07-12,2023-07-12,合同会社ＬｉＭｅｒｒｙ,,合同会社,神奈川県,横浜市港北区,鳥山町２５５－１３,,14,109,2220035,,,,,,,2023-07-12,1,,,,,ライメリー,0
1545,6030001154828,新規,0,2023-07-12,2023-07-12,株式会社ＳＥＶＥＮ　ＳＵＮＤＡＹＳ,,株式会社,埼玉県,草加市,金明町７０６番地６,,11,221,3400052,,,,,,,2023-07-12,1,,,,,セブンサンデーズ,0
1546,6030001154836,新規,0,2023-07-12,2023-07-12,マシンメンテ株式会社,,株式会社,埼玉県,さいたま市大宮区,桜木町２丁目３番地大宮マルイ７階,,11,103,3300854,,,,,,,2023-07-12,1,,,,,マシンメンテ,0
1547,6030001154844,新規,0,2023-07-12,2023-07-12,株式会社ラビュー,,株式会社,埼玉県,川口市,西川口３丁目７番１４号,,11,203,3320021,,,,,,,2023-07-12,1,,,,,ラビュー,0
1548,6030001154877,新規,0,2023-07-12,2023-07-12,株式会社うなとろふぁーむ,,株式会社,埼玉県,富士見市,大字下南畑２２２番地,,11,235,3540004,,,,,,,2023-07-12,1,,,,,ウナトロファーム,0
1549,6030001154885,新規,0,2023-07-12,2023-07-12,株式会社ＳＥＮＴＯ,,株式会社,埼玉県,川口市,赤井１丁目２４番５号,,11,203,3340073,,,,,,,2023-07-12,1,,,,,セント,0
1551,6030003022116,新規,0,2023-07-12,2023-07-12,エニーコンサル合同会社,,合同会社,埼玉県,春日部市,備後東７丁目２９－６,,11,214,3440032,,,,,,,2023-07-12,1,,,,,エニーコンサル,0
1554,6040001129201,新規,0,2023-07-12,2023-07-12,株式会社ＨＹＤＥ,,株式会社,千葉県,茂原市,早野２１２５番地１３,,12,210,2970037,,,,,,,2023-07-12,1,,,,,ハイド,0
1557,6040003022949,新規,0,2023-07-12,2023-07-12,合同会社Ｓｔａｎｄ　ｕｐ　ａａａ,,合同会社,千葉県,市川市,国分２丁目１０番１７号,,12,203,2720834,,,,,,,2023-07-12,1,,,,,スタンドアップエー,0
1560,6050001053111,新規,0,2023-07-12,2023-07-12,ミサトロジテック株式会社,,株式会社,茨城県,常総市,菅生町４７７番地１,,08,211,3030044,,,,,,,2023-07-12,1,,,,,ミサトロジテック,0
1563,6060001036148,新規,0,2023-07-12,2023-07-12,株式会社クボスチール,,株式会社,栃木県,那須塩原市,二つ室７１番地６６,,09,213,3292731,,,,,,,2023-07-12,1,,,,,クボスチール,0
1564,6060001036156,新規,0,2023-07-12,2023-07-12,ＦＲＤ北関東株式会社,,株式会社,栃木県,小山市,大字横倉６２３番地１,,09,208,3230813,,,,,,,2023-07-12,1,,,,,エフアールディキタカントウ,0
1568,6070001040628,新規,0,2023-07-12,2023-07-12,株式会社金谷商事,,株式会社,群馬県,太田市,新田市野倉町１９２番地,,10,205,3700306,,,,,,,2023-07-12,1,,,,,カナヤショウジ,0
1569,6070001040636,新規,0,2023-07-12,2023-07-12,ＡＳＲ株式会社,,株式会社,群馬県,太田市,亀岡町１４７番地１,,10,205,3700411,,,,,,,2023-07-12,1,,,,,エイエスアール,0
1588,6100001036580,新規,0,2023-07-12,2023-07-12,株式会社ヴンダバ,,株式会社,長野県,長野市,若穂川田２２８５番地２,,20,201,3810103,,,,,,,2023-07-12,1,,,,,ヴンダバ,0
1590,6110001037685,新規,0,2023-07-12,2023-07-12,株式会社エフ興産,,株式会社,新潟県,新潟市西区,小針５丁目１番１０号アマーレ小針１－１,,15,107,9502022,,,,,,,2023-07-12,1,,,,,エフコウサン,0
1595,6110003005104,新規,0,2023-07-12,2023-07-12,合同会社ｓｏｔ,,合同会社,新潟県,加茂市,駅前４番１４号,,15,209,9591378,,,,,,,2023-07-12,1,,,,,ソット,0
1604,6120001256193,新規,0,2023-07-12,2023-07-12,株式会社Ａｐｒｉｃｏｔ,,株式会社,大阪府,大阪市東淀川区,東中島５丁目１７番６号,,27,114,5330033,,,,,,,2023-07-12,1,,,,,アプリコット,0
1605,6120001256251,新規,0,2023-07-12,2023-07-12,スティード・トラスト株式会社,,株式会社,大阪府,大阪市東淀川区,東中島１丁目１７番５号ステュディオ新大阪８０１号室,,27,114,5330033,,,,,,,2023-07-12,1,,,,,スティードトラスト,0
1606,6120001256326,新規,0,2023-07-12,2023-07-12,迦南株式会社,00131152,株式会社,大阪府,大阪市東成区,神路４丁目３－１０スター・レジデンス新深江６０４号室,,27,115,5370003,,,,,,,2023-07-12,1,,,,,カナン,0
1607,6120001256342,新規,0,2023-07-12,2023-07-12,西播開発ホールディングス株式会社,,株式会社,大阪府,大阪市北区,西天満２丁目６番８号堂島ビルヂング９階,,27,127,5300047,,,,,,,2023-07-12,1,,,,,セイバンカイハツホールディングス,0
1608,6120001256350,新規,0,2023-07-12,2023-07-12,厚朴株式会社,,株式会社,大阪府,大阪市西成区,旭３丁目６番５号,,27,122,5570032,,,,,,,2023-07-12,1,,,,,ホオノキ,0
1609,6120003024441,新規,0,2023-07-12,2023-07-12,ＱＣ関西合同会社,,合同会社,大阪府,大阪市生野区,小路東２丁目７番１４号,,27,116,5440003,,,,,,,2023-07-12,1,,,,,キューシーカンサイ,0
1618,6130001074693,新規,0,2023-07-12,2023-07-12,株式会社ｃａｓｅ,,株式会社,京都府,京都市伏見区,深草大亀谷万帖敷町８９－２１,,26,109,6120846,,,,,,,2023-07-12,1,,,,,ケース,0
1619,6130001074710,新規,0,2023-07-12,2023-07-12,三豊株式会社,,株式会社,京都府,京都市下京区,大黒町２２７番地第２キョートビル４０２,,26,106,6008043,,,,,,,2023-07-12,1,,,,,ミトヨ,0
1620,6130001074719,新規,0,2023-07-12,2023-07-12,株式会社大橋工務店,,株式会社,京都府,京都市北区,紫野南舟岡町７０番地,,26,101,6038225,,,,,,,2023-07-12,1,,,,,オオハシコウムテン,0
1623,6140001130751,新規,0,2023-07-12,2023-07-12,ＨＭＪＧホールディングス株式会社,,株式会社,兵庫県,神戸市中央区,脇浜町２丁目９番１号,,28,110,6510072,,,,,,,2023-07-12,1,,,,,エイチエムジェイジーホールディングス,0
1624,6140001130818,新規,0,2023-07-12,2023-07-12,株式会社ＳＥＬＦＲＥＥ,,株式会社,兵庫県,姫路市,飾磨区城南町１丁目１３番地４,,28,201,6728083,,,,,,,2023-07-12,1,,,,,セルフリー,0
1625,6140001130834,新規,0,2023-07-12,2023-07-12,株式会社ＧＯＯＤ　ＴＯ　ＧＲＥＡＴ,,株式会社,兵庫県,神戸市長田区,東尻池町４丁目１－２７,,28,106,6530022,,,,,,,2023-07-12,1,,,,,グッドトゥグレート,0
1626,6140001130842,新規,0,2023-07-12,2023-07-12,株式会社長仁商事,,株式会社,兵庫県,神戸市兵庫区,湊町１丁目４番６－７０２号,,28,105,6520812,,,,,,,2023-07-12,1,,,,,チョウジンショウジ,0
1631,6150001026536,新規,0,2023-07-12,2023-07-12,株式会社ｔｈａｎｋ,,株式会社,奈良県,高市郡高取町,大字下子島６１番地,,29,401,6350151,,,,,,,2023-07-12,1,,,,,サンク,0
1633,6150005009495,新規,0,2023-07-12,2023-07-12,一般社団法人ｋａｋｅＨａｓｈｉ,,その他の設立登記法人,奈良県,奈良市,西大寺芝町２丁目７番３１号,,29,201,6310825,,,,,,,2023-07-12,1,,,,,カケアシ,0
1634,6160001025165,新規,0,2023-07-12,2023-07-12,株式会社有建,,株式会社,滋賀県,大津市,本堅田３丁目１１番１３号,,25,201,5200242,,,,,,,2023-07-12,1,,,,,ユウケン,0
1640,6180001156974,新規,0,2023-07-12,2023-07-12,株式会社石田自動車商会,,株式会社,愛知県,一宮市,奥町字風田７１番地１,,23,203,4910201,,,,,,,2023-07-12,1,,,,,イシダジドウシャショウカイ,0
1641,6180001157122,新規,0,2023-07-12,2023-07-12,株式会社ＴＲＹ　ＨＡＲＤ,,株式会社,愛知県,名古屋市中区,栄５丁目８番１０号（プレサンスロジェ栄９０６号）,,23,106,4600008,,,,,,,2023-07-12,1,,,,,トライハード,0
1642,6180001157130,新規,0,2023-07-12,2023-07-12,株式会社加藤リアルエステート,,株式会社,愛知県,名古屋市千種区,橋本町１丁目４６番地の１,,23,101,4640035,,,,,,,2023-07-12,1,,,,,カトウリアルエステート,0
1643,6180001157139,新規,0,2023-07-12,2023-07-12,スマイルーム株式会社,,株式会社,愛知県,名古屋市中区,金山３丁目１５番２０号佐藤マンション６０２号,,23,106,4600022,,,,,,,2023-07-12,1,,,,,スマイルーム,0
1644,6180001157147,新規,0,2023-07-12,2023-07-12,株式会社岩田商会,,株式会社,愛知県,名古屋市中村区,日比津町１丁目１３－２３,,23,105,4530061,,,,,,,2023-07-12,1,,,,,イワタショウカイ,0
1647,6180003025467,新規,0,2023-07-12,2023-07-12,裾野バイオマス発電合同会社,,合同会社,愛知県,名古屋市中村区,名駅１丁目１番１号,,23,105,4500002,,,,,,,2023-07-12,1,,,,,スソノバイオマスハツデン,0
1648,6180003025483,新規,0,2023-07-12,2023-07-12,合同会社Ｓｍａｒｔｌｅ,,合同会社,愛知県,西春日井郡豊山町,大字豊場字多門寺７１－１リラフォート２０２,,23,342,4800202,,,,,,,2023-07-12,1,,,,,スマートル,0
1649,6180003025491,新規,0,2023-07-12,2023-07-12,合同会社ＳＴ,,合同会社,愛知県,名古屋市中区,栄４丁目８番７号,,23,106,4600008,,,,,,,2023-07-12,1,,,,,エスティー,0
1652,6180301037560,新規,0,2023-07-12,2023-07-12,株式会社Ｍｏｏｎｂｏｗ,,株式会社,愛知県,豊川市,西塚町３丁目２８番地,,23,207,4420838,,,,,,,2023-07-12,1,,,,,ムーンボウ,0
1654,6190001030575,新規,0,2023-07-12,2023-07-12,ハウスフィールド株式会社,,株式会社,三重県,伊勢市,岩渕３丁目５番３号,,24,203,5160037,,,,,,,2023-07-12,1,,,,,ハウスフィールド,0
1659,6210001019368,新規,0,2023-07-12,2023-07-12,株式会社ＴＵＭＵＧ,,株式会社,福井県,敦賀市,金山８９号３番地の６,,18,202,9140146,,,,,,,2023-07-12,1,,,,,ツムグ,0
1660,6210003001662,新規,0,2023-07-12,2023-07-12,昌和商事合同会社,,合同会社,福井県,小浜市,駅前町７番２２号２階,,18,204,9170077,,,,,,,2023-07-12,1,,,,,ショウワショウジ,0
1666,6240001061796,新規,0,2023-07-12,2023-07-12,Ｊｏｂエージェンシー株式会社,,株式会社,広島県,広島市南区,宇品御幸４丁目１５番１６号,,34,103,7340015,,,,,,,2023-07-12,1,,,,,ジョブエージェンシー,0
1667,6240001061813,新規,0,2023-07-12,2023-07-12,株式会社Ｃ,,株式会社,広島県,広島市南区,松原町１０番３１号第５平勝ビル１０１,,34,103,7320822,,,,,,,2023-07-12,1,,,,,シー,0
1668,6240005015609,新規,0,2023-07-12,2023-07-12,弁護士法人たおく法律事務所,,その他の設立登記法人,広島県,呉市,中通２丁目１番２６号呉中通ビル４０１－１号室,,34,202,7370046,,,,,,,2023-07-12,1,,,,,タオクホウリツジムショ,0
1671,6290003014120,新規,0,2023-07-12,2023-07-12,合同会社ＫＩＩ,,合同会社,福岡県,那珂川市,片縄北８丁目１０番２４号,,40,231,8111203,,,,,,,2023-07-12,1,,,,,キイ,0
1675,6290801029690,新規,0,2023-07-12,2023-07-12,株式会社アシストエンジニアサービス,,株式会社,福岡県,北九州市小倉南区,石田町７番１８号,,40,107,8020838,,,,,,,2023-07-12,1,,,,,アシストエンジニアサービス,0
1676,6300003001991,新規,0,2023-07-12,2023-07-12,合同会社ＳＫマネジメントサービス,,合同会社,佐賀県,佐賀市,大和町大字東山田２０９０番地１,,41,201,8400211,,,,,,,2023-07-12,1,,,,,エスケイマネジメントサービス,0
1677,6320001019885,新規,0,2023-07-12,2023-07-12,株式会社キャプテンクリーンサービス,,株式会社,大分県,大分市,高松１丁目７番８号サンメゾン高城１０２,,44,201,8700917,,,,,,,2023-07-12,1,,,,,キャプテンクリーンサービス,0
1684,6350001018447,新規,0,2023-07-12,2023-07-12,株式会社Ｅｉｔｓ,,株式会社,宮崎県,宮崎市,東宮１丁目１１８番地１,,45,201,8800928,,,,,,,2023-07-12,1,,,,,イッツ,0
1685,6360001032257,新規,0,2023-07-12,2023-07-12,株式会社グランドワン,,株式会社,沖縄県,名護市,大南２丁目１番３５号キャッスル２１，２０３号,,47,209,9050015,,,,,,,2023-07-12,1,,,,,グランドワン,0
1690,6370001050167,新規,0,2023-07-12,2023-07-12,株式会社そらふねマーケティング,,株式会社,宮城県,仙台市青葉区,一番町２丁目６番１号シティハウス一番町中央２Ｆ,,04,101,9800811,,,,,,,2023-07-12,1,,,,,ソラフネマーケティング,0
1705,6420003002755,新規,0,2023-07-12,2023-07-12,合同会社ＷＥＳＴＶＥＧＥ,,合同会社,青森県,西津軽郡深浦町,大字横磯字下岡崎５５番地,,02,323,0382325,,,,,,,2023-07-12,1,,,,,ウエストベジ,0
1715,6480003001999,新規,0,2023-07-12,2023-07-12,合同会社藤岡工業,,合同会社,徳島県,美馬市,脇町大字脇町１３６０番地,,36,207,7793610,,,,,,,2023-07-12,1,,,,,フジオカコウギョウ,0
1734,7010001236800,新規,0,2023-07-12,2023-07-12,株式会社Ｒｅｂｉｒｔｈ,,株式会社,東京都,中央区,湊１丁目６番１１号ＡＣＮ八丁堀ビル５Ｆ,,13,102,1040043,,,,,,,2023-07-12,1,,,,,リバース,0
1735,7010001236809,新規,0,2023-07-12,2023-07-12,ティーエルシーアイビー株式会社,,株式会社,東京都,千代田区,神田練塀町３番地,,13,101,1010022,,,,,,,2023-07-12,1,,,,,ティーエルシーアイビー,0
1736,7010001236817,新規,0,2023-07-12,2023-07-12,ＳＥＶＥＮＲＩＣＨ‐ＪＡＰＡＮ株式会社,,株式会社,東京都,中央区,銀座２丁目１４番５号三光ビル３０６,,13,102,1040061,,,,,,,2023-07-12,1,,,,,セブンリッチジャパン,0
1737,7010001236825,新規,0,2023-07-12,2023-07-12,株式会社御祖興業,,株式会社,東京都,千代田区,外神田３丁目２番１１号,,13,101,1010021,,,,,,,2023-07-12,1,,,,,ミオヤコウギョウ,0
1738,7010001236858,新規,0,2023-07-12,2023-07-12,株式会社ＳＫサービス,,株式会社,東京都,千代田区,飯田橋４丁目４番８号２０１号室,,13,101,1020072,,,,,,,2023-07-12,1,,,,,エスケーサービス,0
1740,7010003041083,新規,0,2023-07-12,2023-07-12,合同会社ＪＲＷＤファンド第６号,,合同会社,東京都,中央区,日本橋１丁目４番１号日本橋一丁目ビルディング,,13,102,1030027,,,,,,,2023-07-12,1,,,,,ジェイアールダブリューディーダイロクゴウ,0
1741,7010005036908,新規,0,2023-07-12,2023-07-12,一般社団法人フットケア・ヘルステック協会,,その他の設立登記法人,東京都,千代田区,飯田橋４丁目４番１２号ＮＢＣ飯田橋ビル４階,,13,101,1020072,,,,,,,2023-07-12,1,,,,,フットケアヘルステックキョウカイ,0
1742,7010101015708,新規,0,2023-07-12,2023-07-12,株式会社Ｇｌａｍｏｒｏｕｓ,,株式会社,東京都,八王子市,石川町２９５４番地４アペルタ３０２号,,13,201,1920032,,,,,,,2023-07-12,1,,,,,グラマラス,0
1743,7010103002175,新規,0,2023-07-12,2023-07-12,合同会社ＬＯＧＲＡＹ,,合同会社,東京都,八王子市,上野町２４番地２,,13,201,1920902,,,,,,,2023-07-12,1,,,,,ログレイ,0
1747,7010401175490,新規,0,2023-07-12,2023-07-12,株式会社テレネットグループ,,株式会社,東京都,港区,港南２丁目１６番１号,,13,103,1080075,,,,,,,2023-07-12,1,,,,,テレネットグループ,0
1748,7010401175532,新規,0,2023-07-12,2023-07-12,青山マネジメントアドバイザリー株式会社,,株式会社,東京都,港区,南青山３丁目７番１０号－１０５,,13,103,1070062,,,,,,,2023-07-12,1,,,,,アオヤママネジメントアドバイザリー,0
1761,7010701044552,新規,0,2023-07-12,2023-07-12,株式会社ＥＢＩＺＯ,,株式会社,東京都,品川区,西五反田８丁目８番１４－３０６号,,13,109,1410031,,,,,,,2023-07-12,1,,,,,エビゾー,0
1763,7010901053394,新規,0,2023-07-12,2023-07-12,株式会社高木商店,,株式会社,東京都,世田谷区,上用賀３丁目１３番６号,,13,112,1580098,,,,,,,2023-07-12,1,,,,,タカギショウテン,0
1772,7011001155429,新規,0,2023-07-12,2023-07-12,ドクターズサンクチュアリ株式会社,,株式会社,東京都,渋谷区,渋谷２丁目２４番１２号渋谷スクランブルスクエア３９Ｆ,,13,113,1500002,,,,,,,2023-07-12,1,,,,,ドクターズサンクチュアリ,0
1773,7011001155602,新規,0,2023-07-12,2023-07-12,ＣＵＲＡＴＩＶＥ　ＢＩＯＴＥＣＨ　ＪＡＰＡＮ株式会社,,株式会社,東京都,目黒区,下目黒２丁目２３番１２号２Ｆ,,13,110,1530064,,,,,,,2023-07-12,1,,,,,キュレイティブバイオテックジャパン,0
1774,7011001155610,新規,0,2023-07-12,2023-07-12,株式会社Ｒｉｐｐｌｅｓ,,株式会社,東京都,渋谷区,恵比寿４丁目１８番１－１０７号,,13,113,1500013,,,,,,,2023-07-12,1,,,,,リップルス,0
1775,7011001155627,新規,0,2023-07-12,2023-07-12,株式会社Ｒｉｎｋ,,株式会社,東京都,渋谷区,渋谷２丁目１９番１５号宮益坂ビルディング６０９,,13,113,1500002,,,,,,,2023-07-12,1,,,,,リンク,0
1776,7011001155684,新規,0,2023-07-12,2023-07-12,株式会社ＭＦ,,株式会社,東京都,渋谷区,神宮前４丁目１９番１６号,,13,113,1500001,,,,,,,2023-07-12,1,,,,,エムエフ,0
1778,7011003017156,新規,0,2023-07-12,2023-07-12,合同会社ｃｈａｔ　ｍｏｎｓｔｅｒ,,合同会社,東京都,渋谷区,代々木５丁目７－５ＰＯＲＴＡＬＰＯＩＮＴＹｏｙｏｇｉ－ｋｏｅｎ４Ｈ,,13,113,1510053,,,,,,,2023-07-12,1,,,,,チャットモンスター,0
1787,7011101103584,新規,0,2023-07-12,2023-07-12,株式会社ＶＩＭ　Ａｒｒａｎｇｅｍｅｎｔ,,株式会社,東京都,新宿区,新宿２丁目１２番１３号新宿アントレサロンビル２階,,13,104,1600022,,,,,,,2023-07-12,1,,,,,ヴィムアレンジメント,0
1788,7011101103592,新規,0,2023-07-12,2023-07-12,弥生株式会社,,株式会社,東京都,新宿区,高田馬場３丁目２３番７号ＪＥＳＣＯ高田馬場６Ｆ,,13,104,1690075,,,,,,,2023-07-12,1,,,,,ヤヨイ,0
1789,7011103013237,新規,0,2023-07-12,2023-07-12,合同会社Ｆｌｕｌｅ,,合同会社,東京都,新宿区,改代町１３番地１－Ｅ１０６,,13,104,1620802,,,,,,,2023-07-12,1,,,,,フルーレ,0
1798,7011501029512,新規,0,2023-07-12,2023-07-12,株式会社Ｔ．Ｉ．Ｓ,,株式会社,東京都,北区,赤羽１丁目５１番９号,,13,117,1150045,,,,,,,2023-07-12,1,,,,,ティーアイエス,0
1799,7011503005684,新規,0,2023-07-12,2023-07-12,日本雑貨屋合同会社,,合同会社,東京都,荒川区,西日暮里２丁目４７番４号ＣＱレジデンシャル西日暮里１００３号,,13,118,1160013,,,,,,,2023-07-12,1,,,,,ニホンザッカヤ,0
1801,7011801042710,新規,0,2023-07-12,2023-07-12,株式会社マリオット・セキュリティー・サービス,,株式会社,東京都,葛飾区,東金町６丁目２２番４号２Ｆ,,13,122,1250041,,,,,,,2023-07-12,1,,,,,マリオットセキュリティーサービス,0
1802,7012301013516,新規,0,2023-07-12,2023-07-12,株式会社アンカークラウド,,株式会社,東京都,町田市,原町田６丁目２９番４号,,13,209,1940013,,,,,,,2023-07-12,1,,,,,アンカークラウド,0
1807,7012705002362,新規,0,2023-07-12,2023-07-12,田無パールマンション管理組合法人,,その他の設立登記法人,東京都,西東京市,田無町２丁目１４番１２号,,13,229,1880011,,,,,,,2023-07-12,1,,,,,タナシパールマンション,0
1810,7020001152451,新規,0,2023-07-12,2023-07-12,株式会社永福,,株式会社,神奈川県,横浜市中区,山下町８０番地３横濱ディアタワー１７０４号室,,14,104,2310023,,,,,,,2023-07-12,1,,,,,エイフク,0
1811,7020001152468,新規,0,2023-07-12,2023-07-12,株式会社ＤＥＳＴＩＮＯ,,株式会社,神奈川県,横浜市西区,戸部町７丁目２２０番地第二粕川ビル１階,,14,103,2200042,,,,,,,2023-07-12,1,,,,,デスティーノ,0
1812,7020001152476,新規,0,2023-07-12,2023-07-12,株式会社ビオラ,,株式会社,神奈川県,横浜市瀬谷区,阿久和東２丁目３６番地１６サンライズ希望が丘１０１,,14,114,2460023,,,,,,,2023-07-12,1,,,,,ビオラ,0
1813,7020001152492,新規,0,2023-07-12,2023-07-12,株式会社Ａｔｅｌｉｅｒ　Ａｉ,,株式会社,神奈川県,横浜市青葉区,すすき野３丁目３番地２すすき野団地３－１６棟４０３号,,14,117,2250021,,,,,,,2023-07-12,1,,,,,アトリエアイ,0
1814,7020001152518,新規,0,2023-07-12,2023-07-12,株式会社渡部塗装,,株式会社,神奈川県,横浜市鶴見区,上末吉２丁目１１番２０エンゼルハイム鶴見第８－１０５号,,14,101,2300011,,,,,,,2023-07-12,1,,,,,ワタナベトソウ,0
1817,7020003024203,新規,0,2023-07-12,2023-07-12,合同会社エフピーディフェンダー,,合同会社,神奈川県,横浜市旭区,左近山１５７番地３０左近山団地３－１６－３０４,,14,112,2410831,,,,,,,2023-07-12,1,,,,,エフピーディフェンダー,0
1818,7020003024211,新規,0,2023-07-12,2023-07-12,合同会社ＡＸＥＬ,,合同会社,神奈川県,川崎市宮前区,白幡台２丁目３番地１白幡台住宅４－５０１,,14,136,2160025,,,,,,,2023-07-12,1,,,,,アクセル,0
1828,7030001154819,新規,0,2023-07-12,2023-07-12,株式会社ｅｃ＆Ａ　Ｄｅｓｉｇｎ,,株式会社,埼玉県,所沢市,小手指南５丁目２７番地の８,,11,208,3591146,,,,,,,2023-07-12,1,,,,,イーシーエーデザイン,0
1829,7030001154843,新規,0,2023-07-12,2023-07-12,株式会社リライフ,,株式会社,埼玉県,川越市,大字笠幡４０４４番地４２,,11,201,3501175,,,,,,,2023-07-12,1,,,,,リライフ,0
1830,7030001154876,新規,0,2023-07-12,2023-07-12,株式会社エムズ,,株式会社,埼玉県,坂戸市,柳町６番１４号,,11,239,3500216,,,,,,,2023-07-12,1,,,,,エムズ,0
1833,7030003022098,新規,0,2023-07-12,2023-07-12,エニウェアソフト合同会社,,合同会社,埼玉県,さいたま市中央区,下落合６丁目１２番２０号,,11,105,3380002,,,,,,,2023-07-12,1,,,,,エニウェアソフト,0
1837,7040001129159,新規,0,2023-07-12,2023-07-12,燦株式会社,,株式会社,千葉県,館山市,館山１３０－１第一サンハイツ２０２号,,12,205,2940036,,,,,,,2023-07-12,1,,,,,サン,0
1838,7040001129200,新規,0,2023-07-12,2023-07-12,株式会社ｅライフネット,,株式会社,千葉県,船橋市,市場４丁目２０番１２号エスポアールビル２階,,12,204,2730001,,,,,,,2023-07-12,1,,,,,イーライフネット,0
1839,7040001129209,新規,0,2023-07-12,2023-07-12,株式会社Ｌａ３,,株式会社,千葉県,松戸市,常盤平西窪町４番地の５８,,12,207,2702266,,,,,,,2023-07-12,1,,,,,ラララ,0
1840,7040001129225,新規,0,2023-07-12,2023-07-12,株式会社エバーリム,,株式会社,千葉県,いすみ市,若山４００番地,,12,238,2980001,,,,,,,2023-07-12,1,,,,,エバーリム,0
1846,7040003022948,新規,0,2023-07-12,2023-07-12,花文合同会社,,合同会社,千葉県,柏市,豊四季台３丁目１－１０－２１４,,12,217,2770845,,,,,,,2023-07-12,1,,,,,ハナブン,0
1847,7040003022956,新規,0,2023-07-12,2023-07-12,合同会社船舶技術研究,,合同会社,千葉県,我孫子市,柴崎台４丁目３番２２号,,12,222,2701176,,,,,,,2023-07-12,1,,,,,センパクギジュツケンキュウ,0
1849,7050001053060,新規,0,2023-07-12,2023-07-12,株式会社アクセスワン,,株式会社,茨城県,結城市,大字小森２４７８,,08,207,3070011,,,,,,,2023-07-12,1,,,,,アクセスワン,0
1850,7050001053110,新規,0,2023-07-12,2023-07-12,株式会社ＯＦＦＩＣＥ　ＬＡＢＯ２,,株式会社,茨城県,猿島郡境町,１９８番地１０,,08,546,3060433,,,,,,,2023-07-12,1,,,,,オフィスラボツー,0
1851,7050001053135,新規,0,2023-07-12,2023-07-12,株式会社エス工業,,株式会社,茨城県,ひたちなか市,大字稲田１１１５番地５０,,08,221,3120061,,,,,,,2023-07-12,1,,,,,エスコウギョウ,0
1852,7050001053151,新規,0,2023-07-12,2023-07-12,株式会社イレブン,,株式会社,茨城県,守谷市,けやき台３丁目１８番地９,,08,224,3020128,,,,,,,2023-07-12,1,,,,,イレブン,0
1853,7050003007626,新規,0,2023-07-12,2023-07-12,合同会社ブライダルブルーム,,合同会社,茨城県,守谷市,御所ケ丘３丁目９番地８ヒルトプレジデンス１０２,,08,224,3020119,,,,,,,2023-07-12,1,,,,,ブライダルブルーム,0
1856,7060001036155,新規,0,2023-07-12,2023-07-12,ＥＭＰＡＴＨＹ　ＥＳＴＡＴＥ株式会社,,株式会社,栃木県,那須塩原市,二区町３５５番地,,09,213,3292733,,,,,,,2023-07-12,1,,,,,エンパシーエステート,0
1858,7070003005017,新規,0,2023-07-12,2023-07-12,合同会社ＢＵＲＡＱ　ＴＲＡＤＩＮＧ,,合同会社,群馬県,邑楽郡板倉町,大字岩田９１８番地の１,,10,521,3740133,,,,,,,2023-07-12,1,,,,,,0
1859,7080001025734,新規,0,2023-07-12,2023-07-12,株式会社スキルフル,,株式会社,静岡県,榛原郡吉田町,川尻３０３８番地の１,,22,424,4210302,,,,,,,2023-07-12,1,,,,,スキルフル,0
1860,7080003003011,新規,0,2023-07-12,2023-07-12,合同会社ＡＫＡＴＳＵＫＩ,,合同会社,静岡県,静岡市葵区,東鷹匠町５－２０,,22,101,4200833,,,,,,,2023-07-12,1,,,,,アカツキ,0
1862,7080401026596,新規,0,2023-07-12,2023-07-12,株式会社ＧＳ,,株式会社,静岡県,磐田市,明ケ島原４１番地１,,22,211,4380019,,,,,,,2023-07-12,1,,,,,ジーエス,0
1863,7080403004831,新規,0,2023-07-12,2023-07-12,ＳｉｌｖｅｒＷｏｒｘＪａｐａｎ合同会社,,合同会社,静岡県,浜松市南区,下江町２７５－１,,22,134,4300825,,,,,,,2023-07-12,1,,,,,シルバーワークスジャパン,0
1864,7090001018200,新規,0,2023-07-12,2023-07-12,株式会社東甲府不動産,,株式会社,山梨県,甲府市,上阿原町１０５１番地,,19,201,4000814,,,,,,,2023-07-12,1,,,,,ヒガシコウフフドウサン,0
1865,7090001018209,新規,0,2023-07-12,2023-07-12,株式会社Ｃ＆Ｃホールディングス,,株式会社,山梨県,甲斐市,下今井２４４２番地４,,19,210,4000105,,,,,,,2023-07-12,1,,,,,シーアンドシーホールディングス,0
1882,7120001256242,新規,0,2023-07-12,2023-07-12,株式会社クラフトメタル,,株式会社,大阪府,大阪市北区,大淀南１丁目１０番５号８０７,,27,127,5310075,,,,,,,2023-07-12,1,,,,,クラフトメタル,0
1883,7120001256300,新規,0,2023-07-12,2023-07-12,株式会社暖簾,,株式会社,大阪府,大阪市北区,芝田２丁目２－１３,,27,127,5300012,,,,,,,2023-07-12,1,,,,,ノレン,0
1884,7120001256309,新規,0,2023-07-12,2023-07-12,株式会社いい２１,,株式会社,大阪府,大阪市福島区,福島３丁目１番６５号,,27,103,5530003,,,,,,,2023-07-12,1,,,,,イイニジュウイチ,0
1885,7120001256325,新規,0,2023-07-12,2023-07-12,株式会社共栄商会,,株式会社,大阪府,大阪市東成区,大今里１丁目３３番８号,,27,115,5370012,,,,,,,2023-07-12,1,,,,,キョウエイショウカイ,0
1886,7120001256341,新規,0,2023-07-12,2023-07-12,株式会社Ｔ’ｓ　Ｆａｃｔｏｒｙ,,株式会社,大阪府,大阪市浪速区,日本橋西１丁目２番１０号,,27,111,5560004,,,,,,,2023-07-12,1,,,,,ティースファクトリー,0
1889,7120101067861,新規,0,2023-07-12,2023-07-12,株式会社ＣＨＩＫＵＷＡ,,株式会社,大阪府,堺市堺区,三国ヶ丘御幸通１０－１－５Ｆ,,27,141,5900028,,,,,,,2023-07-12,1,,,,,チクワ,0
1890,7120101067878,新規,0,2023-07-12,2023-07-12,株式会社ＴＥＡＭ‐Ｒ,,株式会社,大阪府,松原市,丹南５丁目１９番地の１４,,27,217,5800013,,,,,,,2023-07-12,1,,,,,チームアール,0
1891,7120105009736,新規,0,2023-07-12,2023-07-12,一般社団法人ｒｏｏｍ,,その他の設立登記法人,大阪府,堺市北区,中百舌鳥町１丁２２４番地,,27,146,5918023,,,,,,,2023-07-12,1,,,,,ルーム,0
1893,7122001037135,新規,0,2023-07-12,2023-07-12,株式会社Ｔ．ＳＣＲＥＥＮ,,株式会社,大阪府,東大阪市,宝持２丁目６－３１エステートピア八宝,,27,227,5770805,,,,,,,2023-07-12,1,,,,,ティースクリーン,0
1896,7130001074692,新規,0,2023-07-12,2023-07-12,株式会社ＴＹＰ,,株式会社,京都府,京都市左京区,浄土寺石橋町６番地,,26,103,6068406,,,,,,,2023-07-12,1,,,,,ティーワイピー,0
1897,7130001074718,新規,0,2023-07-12,2023-07-12,株式会社ＨＯＢＮＯＢ,,株式会社,京都府,京都市中京区,西ノ京壺ノ内町４番地５,,26,104,6048456,,,,,,,2023-07-12,1,,,,,ホブノブ,0
1902,7140001130825,新規,0,2023-07-12,2023-07-12,株式会社ＣｏＣｏｎａ,,株式会社,兵庫県,神戸市西区,竜が岡２丁目２０番地の８,,28,111,6512412,,,,,,,2023-07-12,1,,,,,ココナ,0
1903,7140001130841,新規,0,2023-07-12,2023-07-12,カネ貞株式会社,,株式会社,兵庫県,豊岡市,瀬戸７７番地の２３,,28,209,6696122,,,,,,,2023-07-12,1,,,,,カネサダ,0
1904,7140003019281,新規,0,2023-07-12,2023-07-12,合同会社エヌズ,,合同会社,兵庫県,神戸市中央区,浜辺通３丁目１－３ベルレコルテ２０３号室,,28,110,6510083,,,,,,,2023-07-12,1,,,,,エヌズ,0
1907,7140005026680,新規,0,2023-07-12,2023-07-12,一般社団法人ｓｅｌｆ‐ｅｍｐｌｏｙｅｄ　ｓｕｐｐｏｒｔ,,その他の設立登記法人,兵庫県,川辺郡猪名川町,つつじが丘５丁目３３番地１,,28,301,6660245,,,,,,,2023-07-12,1,,,,,セルフエンプロイドサポート,0
1909,7160001025180,新規,0,2023-07-12,2023-07-12,株式会社ＦＡＩ,,株式会社,滋賀県,大津市,鏡が浜１８－１５－２０４号,,25,201,5200012,,,,,,,2023-07-12,1,,,,,エフエーアイ,0
1919,7180001157113,新規,0,2023-07-12,2023-07-12,株式会社鈴木リビング,,株式会社,愛知県,日進市,岩崎台３丁目５１６番地シャルム岩崎１０２,,23,230,4700135,,,,,,,2023-07-12,1,,,,,スズキリビング,0
1920,7180001157138,新規,0,2023-07-12,2023-07-12,株式会社ララハウスクリエイション,,株式会社,愛知県,一宮市,別明町１丁目１０番地６,,23,203,4910033,,,,,,,2023-07-12,1,,,,,ララハウスクリエイション,0
1923,7180003025466,新規,0,2023-07-12,2023-07-12,合同会社レインボウ・ハート,,合同会社,愛知県,小牧市,大字小牧原新田８９７番地３,,23,219,4850012,,,,,,,2023-07-12,1,,,,,レインボウハート,0
1924,7180003025474,新規,0,2023-07-12,2023-07-12,ヒューマニアイテックソリューションズ合同会社,,合同会社,愛知県,名古屋市中区,丸の内３丁目２３番２３号リエトコート丸の内１４０２号,,23,106,4600002,,,,,,,2023-07-12,1,,,,,ヒューマニアイテックソリューションズ,0
1925,7180003025490,新規,0,2023-07-12,2023-07-12,合同会社うさぎとかめ,,合同会社,愛知県,一宮市,春明字円光寺８１番地,,23,203,4910003,,,,,,,2023-07-12,1,,,,,ウサギトカメ,0
1934,7190001030574,新規,0,2023-07-12,2023-07-12,株式会社Ｈｏｒｔｉ,,株式会社,三重県,鈴鹿市,中旭が丘１丁目１番４４号スカイハイツ瀬古１Ａ,,24,207,5100212,,,,,,,2023-07-12,1,,,,,ホルティ,0
1936,7210005010099,新規,0,2023-07-12,2023-07-12,一般社団法人今立地区建設業会,,その他の設立登記法人,福井県,越前市,粟田部町第５３号１番地の１,,18,209,9150242,,,,,,,2023-07-12,1,,,,,イマダテチクケンセツギョウカイ,0
1945,7240001061804,新規,0,2023-07-12,2023-07-12,株式会社ＹＨＴ,,株式会社,広島県,広島市佐伯区,薬師が丘３丁目９番３号,,34,108,7315154,,,,,,,2023-07-12,1,,,,,ワイエイチティー,0
1946,7240001061812,新規,0,2023-07-12,2023-07-12,株式会社ｇｒｅｅｎｂａｓｅ,,株式会社,広島県,広島市安佐南区,緑井４丁目１１番２２－４０６号,,34,105,7310103,,,,,,,2023-07-12,1,,,,,グリーンベース,0
1947,7250001020180,新規,0,2023-07-12,2023-07-12,株式会社ジョン,,株式会社,山口県,宇部市,港町１丁目１１－４０,,35,202,7550027,,,,,,,2023-07-12,1,,,,,ジョン,0
1952,7290001102223,新規,0,2023-07-12,2023-07-12,株式会社ＪＤ,,株式会社,福岡県,朝倉市,鵜木３２８番地,,40,228,8380038,,,,,,,2023-07-12,1,,,,,ジェイディー,0
1953,7290001102231,新規,0,2023-07-12,2023-07-12,株式会社ＯＢＯ,,株式会社,福岡県,久留米市,高良内町１０６－２９,,40,203,8390852,,,,,,,2023-07-12,1,,,,,オボ,0
1954,7290001102248,新規,0,2023-07-12,2023-07-12,未来株式会社,,株式会社,福岡県,福岡市中央区,桜坂２丁目１番２９号,,40,133,8100024,,,,,,,2023-07-12,1,,,,,ミライ,0
1959,7290801029698,新規,0,2023-07-12,2023-07-12,株式会社ＥＳ４Ｅ　Ｇｌｏｂａｌ　Ｓｏｌｕｔｉｏｎｓ,,株式会社,福岡県,北九州市門司区,柳町４丁目７番１９号,,40,101,8000025,,,,,,,2023-07-12,1,,,,,イーエスフォーイーグローバルソリューションズ,0
1961,7300001013360,新規,0,2023-07-12,2023-07-12,株式会社陶潜,,株式会社,佐賀県,嬉野市,嬉野町大字下宿甲３３０５番地１,,41,209,8430301,,,,,,,2023-07-12,1,,,,,トウセン,0
1962,7300001013369,新規,0,2023-07-12,2023-07-12,株式会社Ｙｕｕｅｙｅ,,株式会社,佐賀県,佐賀市,巨勢町大字牛島４８３番地７,,41,201,8400008,,,,,,,2023-07-12,1,,,,,ユーアイ,0
1968,7310001018508,新規,0,2023-07-12,2023-07-12,スリーディー株式会社,,株式会社,長崎県,佐世保市,大和町９３９番地２７,,42,202,8571165,,,,,,,2023-07-12,1,,,,,スリーディー,0
1969,7310003004605,新規,0,2023-07-12,2023-07-12,合同会社Ａｖａｎｃｅ,,合同会社,長崎県,諫早市,山川町１０番地４,,42,204,8540074,,,,,,,2023-07-12,1,,,,,アヴァンセ,0
1970,7320003004125,新規,0,2023-07-12,2023-07-12,Ｓｅｎｃｅ　Ｏｆ　Ｂｅａｕｔｙ４３合同会社,,合同会社,大分県,大分市,金池町３丁目１番９３号山口ビル１Ｆ,,44,201,8700026,,,,,,,2023-07-12,1,,,,,センスオブビューティー,0
1980,7350001018446,新規,0,2023-07-12,2023-07-12,株式会社ラポールココロ,,株式会社,宮崎県,東諸県郡国富町,大字嵐田２２４９番地１,,45,382,8801103,,,,,,,2023-07-12,1,,,,,ラポールココロ,0
1981,7360001032231,新規,0,2023-07-12,2023-07-12,草木西東株式会社,,株式会社,沖縄県,中頭郡北谷町,字美浜１５番地２３,,47,326,9040115,,,,,,,2023-07-12,1,,,,,クサキサイトウ,0
1982,7360001032264,新規,0,2023-07-12,2023-07-12,ＢＡＬｅＸ株式会社,,株式会社,沖縄県,那覇市,久茂地２丁目３番１１号レナトス久茂地７階,,47,201,9000015,,,,,,,2023-07-12,1,,,,,バルクス,0
1983,7360001032272,新規,0,2023-07-12,2023-07-12,株式会社琉栄工業,,株式会社,沖縄県,豊見城市,字与根７５番地３,,47,212,9010224,,,,,,,2023-07-12,1,,,,,リュウエイコウギョウ,0
1985,7370001050133,新規,0,2023-07-12,2023-07-12,株式会社均榮企画,,株式会社,宮城県,仙台市青葉区,南吉成４丁目２番地の１２,,04,101,9893204,,,,,,,2023-07-12,1,,,,,キンエイキカク,0
1986,7370001050158,新規,0,2023-07-12,2023-07-12,株式会社七ツ森測量,,株式会社,宮城県,黒川郡大和町,鶴巣北目大崎字的場１８７番地,,04,421,9813417,,,,,,,2023-07-12,1,,,,,ナナツモリソクリョウ,0
1987,7370001050166,新規,0,2023-07-12,2023-07-12,株式会社加樂,,株式会社,宮城県,仙台市青葉区,愛子中央３丁目２番１４号,,04,101,9893128,,,,,,,2023-07-12,1,,,,,カグラ,0
1988,7370001050174,新規,0,2023-07-12,2023-07-12,株式会社禅ｅａｔ,,株式会社,宮城県,柴田郡村田町,大字村田字川畑２８番地３４,,04,322,9891305,,,,,,,2023-07-12,1,,,,,ゼンイート,0
1989,7370001050182,新規,0,2023-07-12,2023-07-12,株式会社Ａｃｔｉｖｅ　Ｌｉｆｅ　Ｌａｂ,,株式会社,宮城県,石巻市,中里７丁目５番６号,,04,202,9860815,,,,,,,2023-07-12,1,,,,,アクティブライフラボ,0
2009,7430001089578,新規,0,2023-07-12,2023-07-12,株式会社ＮＥＰＡＲＩ,,株式会社,北海道,札幌市西区,発寒三条１丁目１１‐１０,,01,107,0630823,,,,,,,2023-07-12,1,,,,,ネパリ,0
2026,8010001236790,新規,0,2023-07-12,2023-07-12,株式会社ＭｏｔｌｅｙＢｒａｎｃｈ,,株式会社,東京都,中央区,銀座１丁目２２番１１号銀座大竹ビジデンス２Ｆ,,13,102,1040061,,,,,,,2023-07-12,1,,,,,モトリーブランチ,0
2028,8010003041041,新規,0,2023-07-12,2023-07-12,合同会社ＫＴＡ,,合同会社,東京都,千代田区,丸の内３丁目１番１号東京共同会計事務所内,,13,101,1000005,,,,,,,2023-07-12,1,,,,,ケーティーエー,0
2029,8010003041074,新規,0,2023-07-12,2023-07-12,Ｍｅｔｓｏ　Ｊａｐａｎ合同会社,,合同会社,東京都,千代田区,丸の内１丁目８番２号＿鋼ビルディング４階,00131140,13,101,1000005,,,,,,,2023-07-12,1,,,,,メッツォジャパン,0
2030,8010101015715,新規,0,2023-07-12,2023-07-12,Ｌｉｇｈｔｈｏｕｓｅ　Ｃｏｎｓｕｌｔｉｎｇ株式会社,,株式会社,東京都,八王子市,兵衛１丁目３番５－３１１号レジデンシアみなみ野,,13,201,1920918,,,,,,,2023-07-12,1,,,,,ライトハウスコンサルティング,0
2040,8010401175548,新規,0,2023-07-12,2023-07-12,株式会社リレ,,株式会社,東京都,港区,南青山２丁目４番１５号,,13,103,1070062,,,,,,,2023-07-12,1,,,,,リレ,0
2041,8010401175589,新規,0,2023-07-12,2023-07-12,株式会社ＭＡＺＥＬ,,株式会社,東京都,港区,南青山２丁目２－１５ウィン青山９４２,,13,103,1070062,,,,,,,2023-07-12,1,,,,,マゼル,0
2042,8010401175597,新規,0,2023-07-12,2023-07-12,株式会社ＩＦＴＳ,,株式会社,東京都,港区,海岸１丁目１－１－３４０６,,13,103,1050022,,,,,,,2023-07-12,1,,,,,イフツ,0
2043,8010401175614,新規,0,2023-07-12,2023-07-12,マネジメントサポートコンサルティング株式会社,,株式会社,東京都,港区,北青山３丁目６番７号青山パラシオタワー１１階,,13,103,1070061,,,,,,,2023-07-12,1,,,,,マネジメントサポートコンサルティング,0
2044,8010401175705,新規,0,2023-07-12,2023-07-12,株式会社ＥＰメディクス,,株式会社,東京都,港区,浜松町１丁目３番２号,,13,103,1050013,,,,,,,2023-07-12,1,,,,,イーピーメディクス,0
2045,8010403030494,新規,0,2023-07-12,2023-07-12,合同会社ＢＡＨＲ,,合同会社,東京都,港区,高輪２丁目１５番１５号協和高輪２０４,,13,103,1080074,,,,,,,2023-07-12,1,,,,,バフル,0
2046,8010405022291,新規,0,2023-07-12,2023-07-12,サントリーグループ労働組合,,その他の設立登記法人,東京都,港区,台場２丁目３番３号,,13,103,1350091,,,,,,,2023-07-12,1,,,,,サントリーグループ,0
2052,8010801034139,新規,0,2023-07-12,2023-07-12,株式会社藤心,,株式会社,東京都,大田区,南馬込６丁目１７番３号シャトー富士３０６,,13,111,1430025,,,,,,,2023-07-12,1,,,,,フジゴコロ,0
2057,8010901053402,新規,0,2023-07-12,2023-07-12,株式会社ＥＴＯＩＬＥ,,株式会社,東京都,世田谷区,駒沢１丁目５番１３号白須ビル２０１,,13,112,1540012,,,,,,,2023-07-12,1,,,,,エトワール,0
2058,8010901053410,新規,0,2023-07-12,2023-07-12,株式会社山野井靖建築事務所,,株式会社,東京都,世田谷区,粕谷３丁目７番４号１Ｆ,,13,112,1570063,,,,,,,2023-07-12,1,,,,,ヤマノイヤスシケンチクジムショ,0
2069,8011001155667,新規,0,2023-07-12,2023-07-12,株式会社ＥＮＣＡＮＴＯ,,株式会社,東京都,渋谷区,千駄ヶ谷３丁目５１番１０号,,13,113,1510051,,,,,,,2023-07-12,1,,,,,エンカント,0
2071,8011003017106,新規,0,2023-07-12,2023-07-12,イレブンワークスタジオ合同会社,,合同会社,東京都,渋谷区,道玄坂１丁目１０番８号渋谷道玄坂東急ビル２Ｆ－Ｃ,,13,113,1500043,,,,,,,2023-07-12,1,,,,,イレブンワークスタジオ,0
2072,8011003017163,新規,0,2023-07-12,2023-07-12,すぐるエンターテイメント合同会社,,合同会社,東京都,渋谷区,富ヶ谷１丁目１４－１４スタンフォードアネックスビル４Ｆ,,13,113,1510063,,,,,,,2023-07-12,1,,,,,スグルエンターテイメント,0
2076,8011101103550,新規,0,2023-07-12,2023-07-12,株式会社Ｃｈｅｄａ,,株式会社,東京都,新宿区,西新宿３丁目３番１３号西新宿水間ビル６Ｆ,,13,104,1600023,,,,,,,2023-07-12,1,,,,,チェダ,0
2077,8011101103591,新規,0,2023-07-12,2023-07-12,株式会社ＲＥＭ,,株式会社,東京都,新宿区,新宿５丁目６番２号神谷ビル５０５号,,13,104,1600022,,,,,,,2023-07-12,1,,,,,アールイーエム,0
2092,8011403004050,新規,0,2023-07-12,2023-07-12,合同会社フィール,,合同会社,東京都,板橋区,板橋１丁目５３番１５－６０４号メゾン新板橋,,13,119,1730004,,,,,,,2023-07-12,1,,,,,フィール,0
2094,8011501029528,新規,0,2023-07-12,2023-07-12,株式会社ＳＲＭコンサルティング,,株式会社,東京都,北区,田端新町２丁目１７番８－６０１号エリアＭ,,13,117,1140012,,,,,,,2023-07-12,1,,,,,エスアールエムコンサルティング,0
2095,8011503005683,新規,0,2023-07-12,2023-07-12,Ｈ＆Ｔ合同会社,,合同会社,東京都,荒川区,西日暮里４丁目２３番３号きすなビル３Ａ,,13,118,1160013,,,,,,,2023-07-12,1,,,,,エイチアンドティ,0
2100,8011801042684,新規,0,2023-07-12,2023-07-12,森茗株式会社,,株式会社,東京都,葛飾区,新小岩４丁目１４－４花見閣,,13,122,1240024,,,,,,,2023-07-12,1,,,,,シンメイ,0
2104,8012401040731,新規,0,2023-07-12,2023-07-12,株式会社マイエリア,,株式会社,東京都,多摩市,関戸４丁目６番地の１,,13,224,2060011,,,,,,,2023-07-12,1,,,,,マイエリア,0
2111,8012703002751,新規,0,2023-07-12,2023-07-12,テクミカ合同会社,,合同会社,東京都,小平市,小川町１丁目４７８番地の１３６,,13,211,1870032,,,,,,,2023-07-12,1,,,,,テクミカ,0
2112,8012801022503,新規,0,2023-07-12,2023-07-12,株式会社ＨＭＲ,,株式会社,東京都,立川市,西砂町１丁目３８番地の２８,,13,202,1900034,,,,,,,2023-07-12,1,,,,,エイチエムアール,0
2113,8013103001245,新規,0,2023-07-12,2023-07-12,ＨＤ　ＪＰ　ＧＲＯＵＰ合同会社,,合同会社,東京都,福生市,大字福生９１５番地桜ハイツ２０６号室,,13,218,1970011,,,,,,,2023-07-12,1,,,,,エイチディージェイピーグループ,0
2119,8020001152483,新規,0,2023-07-12,2023-07-12,株式会社青空支援,,株式会社,神奈川県,横浜市都筑区,池辺町４５２３番地１クリオ鴨居参番館６０１号室,,14,118,2240053,,,,,,,2023-07-12,1,,,,,アオゾラシエン,0
2120,8020001152491,新規,0,2023-07-12,2023-07-12,安住エステート株式会社,,株式会社,神奈川県,横浜市南区,睦町１丁目３２番地２パレーション木下,,14,105,2320041,,,,,,,2023-07-12,1,,,,,アズミエステート,0
2121,8020001152500,新規,0,2023-07-12,2023-07-12,株式会社マサヤホールディングス,,株式会社,神奈川県,横浜市中区,蓬莱町２丁目４－２－１Ｆ,,14,104,2310048,,,,,,,2023-07-12,1,,,,,マサヤホールディングス,0
2125,8020003024177,新規,0,2023-07-12,2023-07-12,Ｄｉｇｅｒａｔｉ　Ｋｎａｃｋｓ合同会社,,合同会社,神奈川県,横浜市西区,北幸２丁目１０番地２８むつみビル３Ｆ,,14,103,2200004,,,,,,,2023-07-12,1,,,,,ディジラティナックス,0
2129,8021001079568,新規,0,2023-07-12,2023-07-12,株式会社ＲＩＳＥ　ＧＯＬＤ,,株式会社,神奈川県,相模原市南区,若松６丁目１２番１０号,,14,153,2520334,,,,,,,2023-07-12,1,,,,,ライズゴールド,0
2132,8030001154818,新規,0,2023-07-12,2023-07-12,株式会社ＴＫサービス,,株式会社,埼玉県,さいたま市緑区,大字三室２１０１番地９,,11,109,3360911,,,,,,,2023-07-12,1,,,,,ティーケイサービス,0
2133,8030001154834,新規,0,2023-07-12,2023-07-12,Ｎｏ．６２株式会社,,株式会社,埼玉県,所沢市,北所沢町２０１４番地４号グレイス新所沢１０１号,,11,208,3590046,,,,,,,2023-07-12,1,,,,,ナンバーロクジュウニ,0
2134,8030001154859,新規,0,2023-07-12,2023-07-12,ＮＩＵＭＡ株式会社,,株式会社,埼玉県,川口市,三ツ和１丁目１２－１三ツ和第３プラット,,11,203,3340011,,,,,,,2023-07-12,1,,,,,ニウマ,0
2137,8030003022097,新規,0,2023-07-12,2023-07-12,合同会社リーヴォ,,合同会社,埼玉県,戸田市,下前２丁目７番１３号ブラン・セラヴィ１階,,11,224,3350016,,,,,,,2023-07-12,1,,,,,リーヴォ,0
2138,8030003022122,新規,0,2023-07-12,2023-07-12,ＬＩＮＳＡ　ＬＡＮＫＡ　ＪＡＰＡＮ合同会社,,合同会社,埼玉県,坂戸市,南町３４－７ＫＩＶオフィス南町Ａ号室,,11,239,3500233,,,,,,,2023-07-12,1,,,,,リンサランカジャパン,0
2140,8040001129109,新規,0,2023-07-12,2023-07-12,株式会社Ａ,,株式会社,千葉県,野田市,宮崎５番地の３３,,12,208,2780005,,,,,,,2023-07-12,1,,,,,エース,0
2141,8040001129182,新規,0,2023-07-12,2023-07-12,株式会社創栄工業,,株式会社,千葉県,東金市,田間１丁目２番地１８,,12,213,2830005,,,,,,,2023-07-12,1,,,,,ソウエイコウギョウ,0
2142,8040001129199,新規,0,2023-07-12,2023-07-12,株式会社憩い日和,,株式会社,千葉県,船橋市,宮本５丁目８番１１号,,12,204,2730003,,,,,,,2023-07-12,1,,,,,イコイビヨリ,0
2143,8040001129224,新規,0,2023-07-12,2023-07-12,株式会社ウィズハートセキュリティ,,株式会社,千葉県,八千代市,勝田台北１丁目８番２１号Ｋ・Ｓビル２Ｆ,,12,221,2760020,,,,,,,2023-07-12,1,,,,,ウィズハートセキュリティ,0
2144,8040003022930,新規,0,2023-07-12,2023-07-12,合同会社陽,,合同会社,千葉県,館山市,北条正木６９７番地の４,,12,205,2940053,,,,,,,2023-07-12,1,,,,,ヒナタ,0
2147,8050001053101,新規,0,2023-07-12,2023-07-12,株式会社アクトランドデザインラボ,,株式会社,茨城県,水戸市,河和田３丁目２５４２番地の５,,08,201,3114152,,,,,,,2023-07-12,1,,,,,アクトランドデザインラボ,0
2148,8050001053126,新規,0,2023-07-12,2023-07-12,株式会社アダン,,株式会社,茨城県,つくば市,吾妻３丁目１９番地５,,08,220,3050031,,,,,,,2023-07-12,1,,,,,アダン,0
2149,8050001053159,新規,0,2023-07-12,2023-07-12,株式会社ＥＬＩＴＥ,,株式会社,茨城県,水戸市,双葉台１丁目３４番地の１０,,08,201,3114145,,,,,,,2023-07-12,1,,,,,エリート,0
2152,8060001036146,新規,0,2023-07-12,2023-07-12,株式会社コウキ,,株式会社,栃木県,下野市,芝１１３２番地１２,,09,216,3290400,,,,,,,2023-07-12,1,,,,,コウキ,0
2153,8060001036154,新規,0,2023-07-12,2023-07-12,株式会社Ａｓｉａ　Ｖｉｓｉｏｎ,,株式会社,栃木県,宇都宮市,下河原１丁目３番１０号,,09,201,3200824,,,,,,,2023-07-12,1,,,,,アジアビジョン,0
2154,8060005010114,新規,0,2023-07-12,2023-07-12,社会保険労務士法人プラマックス,,その他の設立登記法人,栃木県,宇都宮市,峰１丁目１番２２号,,09,201,3210942,,,,,,,2023-07-12,1,,,,,プラマックス,0
2158,8070001040626,新規,0,2023-07-12,2023-07-12,株式会社松本工業所,,株式会社,群馬県,藤岡市,岡之郷２５番地,,10,209,3750011,,,,,,,2023-07-12,1,,,,,マツモトコウギョウショ,0
2166,8080003003010,新規,0,2023-07-12,2023-07-12,合同会社アイ・エム・エフ,,合同会社,静岡県,焼津市,塩津２１８番地の１,,22,212,4250085,,,,,,,2023-07-12,1,,,,,アイエムエフ,0
2169,8090001018208,新規,0,2023-07-12,2023-07-12,株式会社ふじよしだまちづくり公社,,株式会社,山梨県,富士吉田市,下吉田２丁目３１番１４号,,19,202,4030004,,,,,,,2023-07-12,1,,,,,フジヨシダマチヅクリコウシャ,0
2170,8090003002341,新規,0,2023-07-12,2023-07-12,トリアス合同会社,,合同会社,山梨県,甲斐市,玉川４７２番地,,19,210,4000116,,,,,,,2023-07-12,1,,,,,トリアス,0
2172,8100001036579,新規,0,2023-07-12,2023-07-12,株式会社紬儀,,株式会社,長野県,長野市,大字鶴賀上千歳町１１３７番地２３長野１１３７ビル２階ＢＰＮ,,20,201,3800821,,,,,,,2023-07-12,1,,,,,ツムギ,0
2183,8120001256126,新規,0,2023-07-12,2023-07-12,ＢＯＮＪＩ株式会社,,株式会社,大阪府,大阪市住吉区,山之内２丁目１４番８号,,27,120,5580023,,,,,,,2023-07-12,1,,,,,ボンジ,0
2184,8120001256241,新規,0,2023-07-12,2023-07-12,株式会社ＭＨＰ　ＬＡＮＤ,,株式会社,大阪府,大阪市浪速区,恵美須西２丁目８番１９号,,27,111,5560003,,,,,,,2023-07-12,1,,,,,エムエイチピーランド,0
2191,8120105009735,新規,0,2023-07-12,2023-07-12,一般社団法人古今,,その他の設立登記法人,大阪府,貝塚市,近木町１７－１１,,27,208,5970001,,,,,,,2023-07-12,1,,,,,ココン,0
2192,8120901047780,新規,0,2023-07-12,2023-07-12,株式会社ｓｔｕｄｉｏ　ｔ．ａ．ｓ．ｓ．ｅ．,,株式会社,大阪府,茨木市,彩都あさぎ２丁目８－２１－６０８,,27,211,5670085,,,,,,,2023-07-12,1,,,,,スタジオタッセ,0
2197,8122001037159,新規,0,2023-07-12,2023-07-12,株式会社東昌金属,,株式会社,大阪府,四條畷市,大字下田原２１６２番,,27,229,5750012,,,,,,,2023-07-12,1,,,,,トウショウキンゾク,0
2200,8130001074717,新規,0,2023-07-12,2023-07-12,株式会社齋藤建解,,株式会社,京都府,京都市伏見区,羽束師古川町５６４番地,,26,109,6128486,,,,,,,2023-07-12,1,,,,,サイトウケンカイ,0
2202,8140001130790,新規,0,2023-07-12,2023-07-12,上村工業株式会社,,株式会社,兵庫県,高砂市,高砂町朝日町２丁目７番３－６０１号デュオプレステージ高砂駅前スカイテラス,,28,216,6760021,,,,,,,2023-07-12,1,,,,,カミムラコウギョウ,0
2203,8140001130832,新規,0,2023-07-12,2023-07-12,あまがえる株式会社,,株式会社,兵庫県,三田市,大川瀬１４５１番地３００,,28,219,6691349,,,,,,,2023-07-12,1,,,,,アマガエル,0
2204,8140001130840,新規,0,2023-07-12,2023-07-12,株式会社日常,,株式会社,兵庫県,神戸市兵庫区,氷室町１丁目４番２６号,,28,105,6520054,,,,,,,2023-07-12,1,,,,,ニチジョウ,0
2205,8140001130849,新規,0,2023-07-12,2023-07-12,昌栄工業株式会社,,株式会社,兵庫県,神戸市須磨区,東白川台４丁目２２番地の１０,,28,107,6540102,,,,,,,2023-07-12,1,,,,,ショウエイコウギョウ,0
2207,8140003019272,新規,0,2023-07-12,2023-07-12,合同会社ＨａｐｐｉｎｅｓｓＤａｙｓ,,合同会社,兵庫県,神戸市灘区,天城通１丁目４番２３－１０３号,,28,102,6570823,,,,,,,2023-07-12,1,,,,,ハピネスデイズ,0
2208,8140005026688,新規,0,2023-07-12,2023-07-12,一般社団法人お茶の間てんてん,,その他の設立登記法人,兵庫県,尼崎市,常吉２丁目１３番２３号,,28,202,6610042,,,,,,,2023-07-12,1,,,,,オチャノマテンテン,0
2211,8150001026534,新規,0,2023-07-12,2023-07-12,株式会社ほんまもん,,株式会社,奈良県,吉野郡十津川村,大字小原２２５番地の１,,29,449,6371333,,,,,,,2023-07-12,1,,,,,ホンマモン,0
2221,8180001157062,新規,0,2023-07-12,2023-07-12,株式会社エキサイトワークス,,株式会社,愛知県,名古屋市中区,丸の内２丁目１３番１９号,,23,106,4600002,,,,,,,2023-07-12,1,,,,,エキサイトワークス,0
2222,8180001157145,新規,0,2023-07-12,2023-07-12,エバー・ジー株式会社,,株式会社,愛知県,清須市,新清洲５丁目６番地３,,23,233,4520943,,,,,,,2023-07-12,1,,,,,エバージー,0
2226,8180003025465,新規,0,2023-07-12,2023-07-12,合同会社Ｎ,,合同会社,愛知県,名古屋市守山区,下志段味４丁目３０１番地,,23,113,4630003,,,,,,,2023-07-12,1,,,,,エヌ,0
2227,8180003025481,新規,0,2023-07-12,2023-07-12,スムーク合同会社,,合同会社,愛知県,知多郡美浜町,大字奥田字石亀２６０番地１ウイング１０７号,,23,446,4703233,,,,,,,2023-07-12,1,,,,,スムーク,0
2231,8180301037559,新規,0,2023-07-12,2023-07-12,ＭＩＮＴ　ＬＡＢＯ株式会社,,株式会社,愛知県,北設楽郡設楽町,西納庫字駒ケ原１７７番地,,23,561,4412431,,,,,,,2023-07-12,1,,,,,ミントラボ,0
2238,8210001019382,新規,0,2023-07-12,2023-07-12,株式会社ｐｉｇ　ｆｏｏｄｓ,,株式会社,福井県,三方郡美浜町,松原３５号１５番１、２０１,,18,442,9191122,,,,,,,2023-07-12,1,,,,,ピッグフーズ,0
2255,8280003001745,新規,0,2023-07-12,2023-07-12,合同会社ルミエール,,合同会社,島根県,出雲市,矢尾町５３８番地１８,,32,203,6930067,,,,,,,2023-07-12,1,,,,,ルミエール,0
2261,8290001102214,新規,0,2023-07-12,2023-07-12,株式会社白,,株式会社,福岡県,福岡市博多区,博多駅南１丁目１５－２８,,40,132,8120016,,,,,,,2023-07-12,1,,,,,シロ,0
2262,8290001102230,新規,0,2023-07-12,2023-07-12,株式会社ＪＢ黒猫デザイン,,株式会社,福岡県,福岡市中央区,小笹１丁目８番２９－５０４号,,40,133,8100033,,,,,,,2023-07-12,1,,,,,ジェイビークロネコデザイン,0
2263,8290001102239,新規,0,2023-07-12,2023-07-12,株式会社Ｈａｒｕｎａ,,株式会社,福岡県,福岡市中央区,荒津２丁目１番７号,,40,133,8100076,,,,,,,2023-07-12,1,,,,,ハルナ,0
2264,8290001102247,新規,0,2023-07-12,2023-07-12,株式会社マリンクロス,,株式会社,福岡県,福岡市中央区,天神２丁目３番１０号天神パインクレスト７１９号,,40,133,8100001,,,,,,,2023-07-12,1,,,,,,0
2265,8290001102255,新規,0,2023-07-12,2023-07-12,株式会社東和商会,,株式会社,福岡県,糟屋郡久山町,大字久原２６９９番地１０,,40,348,8112501,,,,,,,2023-07-12,1,,,,,トウワショウカイ,0
2266,8290001102271,新規,0,2023-07-12,2023-07-12,うまか堂本舗株式会社,,株式会社,福岡県,福岡市東区,若宮１丁目２４番６号ヒルズ雅１０１号,,40,131,8130036,,,,,,,2023-07-12,1,,,,,ウマカドウホンポ,0
2268,8290003014119,新規,0,2023-07-12,2023-07-12,ジンブロス合同会社,,合同会社,福岡県,福岡市中央区,天神４丁目６－２８ファーストビル７階,,40,133,8100001,,,,,,,2023-07-12,1,,,,,ジンブロス,0
2274,8290801029697,新規,0,2023-07-12,2023-07-12,株式会社事業承継パートナーズ,,株式会社,福岡県,北九州市小倉北区,香春口２丁目５番１３号,,40,106,8020084,,,,,,,2023-07-12,1,,,,,ジギョウショウケイパートナーズ,0
2281,8340005009631,新規,0,2023-07-12,2023-07-12,特定非営利活動法人有機モリンガ普及推進会,,その他の設立登記法人,鹿児島県,志布志市,志布志町安楽１３８２番地２,,46,221,8997104,,,,,,,2023-07-12,1,,,,,ユウキモリンガフキュウスイシンカイ,0
2282,8350001018437,新規,0,2023-07-12,2023-07-12,株式会社ｍｏａｉｒｏ,,株式会社,宮崎県,宮崎市,大塚町宮田２９１４番地１,,45,201,8800951,,,,,,,2023-07-12,1,,,,,モアイロ,0
2283,8350001018445,新規,0,2023-07-12,2023-07-12,株式会社植竹建設,,株式会社,宮崎県,小林市,堤３０５１番地６,,45,205,8860003,,,,,,,2023-07-12,1,,,,,ウエタケケンセツ,0
2284,8350005006165,新規,0,2023-07-12,2023-07-12,社会福祉法人日融会,,その他の設立登記法人,宮崎県,西臼杵郡五ヶ瀬町,大字桑野内５１９１番地１,,45,443,8821202,,,,,,,2023-07-12,1,,,,,ニチユウカイ,0
2285,8360001032247,新規,0,2023-07-12,2023-07-12,株式会社豊創建,,株式会社,沖縄県,浦添市,勢理客１丁目２１－２１ＭＩＹＯＧＲＡＺＩＥ１０１,,47,208,9012122,,,,,,,2023-07-12,1,,,,,トミソウケン,0
2286,8360001032263,新規,0,2023-07-12,2023-07-12,株式会社大和ｇｒｏｕｐ,,株式会社,沖縄県,宮古島市,平良字西里１４３番地１階,,47,214,9060012,,,,,,,2023-07-12,1,,,,,ヤマトグループ,0
2289,8370001050165,新規,0,2023-07-12,2023-07-12,株式会社ＫＯＳＥＩ,,株式会社,宮城県,大崎市,古川塚目字屋敷１３５番地２,,04,215,9896225,,,,,,,2023-07-12,1,,,,,コーセイ,0
2290,8370003006198,新規,0,2023-07-12,2023-07-12,ワセダイーライフ１２５合同会社,,合同会社,宮城県,仙台市宮城野区,五輪１丁目３番２５－１１０２号,,04,102,9830842,,,,,,,2023-07-12,1,,,,,ワセダイーライフヒャクニジュウゴ,0
2297,8390003002121,新規,0,2023-07-12,2023-07-12,合同会社愛染会島崎,,合同会社,山形県,東置賜郡高畠町,大字高畠９４２番地,,06,381,9920351,,,,,,,2023-07-12,1,,,,,アイセンカイシマサキ,0
2300,8400001016294,新規,0,2023-07-12,2023-07-12,株式会社ソフラン,,株式会社,岩手県,盛岡市,流通センター北１丁目４－２０－１,,03,201,0200846,,,,,,,2023-07-12,1,,,,,ソフラン,0
2302,8400005008346,新規,0,2023-07-12,2023-07-12,土地家屋調査士法人Ｌ＆Ｈ,,その他の設立登記法人,岩手県,盛岡市,中央通２丁目２番１１号,,03,201,0200021,,,,,,,2023-07-12,1,,,,,エルアンドエイチ,0
2303,8410001013539,新規,0,2023-07-12,2023-07-12,株式会社高留酒店,,株式会社,秋田県,横手市,猪岡字山神下１２番地１,,05,203,0130065,,,,,,,2023-07-12,1,,,,,タカトメサケテン,0
2309,8450001014054,新規,0,2023-07-12,2023-07-12,株式会社マルビル,,株式会社,北海道,旭川市,西神楽三線二十四号５４０番地の９５,,01,204,0788383,,,,,,,2023-07-12,1,,,,,マルビル,0
2310,8470001019704,新規,0,2023-07-12,2023-07-12,株式会社アスタスケア,,株式会社,香川県,丸亀市,飯山町下法軍寺５３６番地１,,37,202,7620083,,,,,,,2023-07-12,1,,,,,アスタスケア,0
2329,9010001236807,新規,0,2023-07-12,2023-07-12,ティーエルシーパキラ株式会社,,株式会社,東京都,千代田区,神田練塀町３番地,,13,101,1010022,,,,,,,2023-07-12,1,,,,,ティーエルシーパキラ,0
2330,9010001236864,新規,0,2023-07-12,2023-07-12,株式会社サムワンズプロモーション,,株式会社,東京都,中央区,日本橋兜町１７－２兜町第６葉山ビル４Ｆ,,13,102,1030026,,,,,,,2023-07-12,1,,,,,サムワンズプロモーション,0
2336,9010003041040,新規,0,2023-07-12,2023-07-12,Ｇａｌａ合同会社,,合同会社,東京都,千代田区,丸の内３丁目１番１号東京共同会計事務所内,,13,101,1000005,,,,,,,2023-07-12,1,,,,,ガーラ,0
2339,9010005036922,新規,0,2023-07-12,2023-07-12,監査法人ＫＳＭ＆パートナーズ,,その他の設立登記法人,東京都,文京区,本郷４丁目１６番６号文京区本郷四丁目ビル１１０６号室,,13,105,1130033,,,,,,,2023-07-12,1,,,,,ケーエスエムアンドパートナーズ,0
2343,9010401175464,新規,0,2023-07-12,2023-07-12,株式会社キュリネス,,株式会社,東京都,港区,虎ノ門１丁目１７番１号虎ノ門ヒルズビジネスタワー５階,,13,103,1050001,,,,,,,2023-07-12,1,,,,,キュリネス,0
2344,9010401175539,新規,0,2023-07-12,2023-07-12,ＡＺＭコンサルタント株式会社,,株式会社,東京都,港区,北青山２丁目７－２０猪瀬ビル２Ｆ,,13,103,1070061,,,,,,,2023-07-12,1,,,,,エーゼットエムコンサルタント,0
2345,9010401175588,新規,0,2023-07-12,2023-07-12,株式会社アールイーキャピタル,,株式会社,東京都,港区,浜松町２丁目５番５号,,13,103,1050013,,,,,,,2023-07-12,1,,,,,アールイーキャピタル,0
2346,9010401175613,新規,0,2023-07-12,2023-07-12,株式会社デラックス,,株式会社,東京都,港区,北青山１丁目３番１号アールキューブ青山３階,,13,103,1070061,,,,,,,2023-07-12,1,,,,,デラックス,0
2347,9010401175638,新規,0,2023-07-12,2023-07-12,株式会社アドクレスト,,株式会社,東京都,港区,赤坂３丁目１１番１４－７０９号,,13,103,1070052,,,,,,,2023-07-12,1,,,,,アドクレスト,0
2348,9010401175704,新規,0,2023-07-12,2023-07-12,株式会社ＥＣＬＡＴ　ＣＲＥＡＴＩＯＮＳ,,株式会社,東京都,港区,北青山１丁目３番１号アールキューブ青山３階,,13,103,1070061,,,,,,,2023-07-12,1,,,,,エクラクリエーションズ,0
2351,9010501050732,新規,0,2023-07-12,2023-07-12,株式会社Ｇ．Ｓ,,株式会社,東京都,台東区,寿３丁目８番６号ジェノヴィア浅草蔵前スカイガーデン,,13,106,1110042,,,,,,,2023-07-12,1,,,,,ジーエス,0
2354,9010703006763,新規,0,2023-07-12,2023-07-12,合同会社２２４ＢＥＡＵＴＹ,,合同会社,東京都,品川区,荏原３丁目８－１９－７０３,,13,109,1420063,,,,,,,2023-07-12,1,,,,,トゥートゥーフォービューティ,0
2355,9010703006771,新規,0,2023-07-12,2023-07-12,Ｈａｔｔｙ合同会社,,合同会社,東京都,品川区,南大井６丁目１８番１－８４３号室,,13,109,1400013,,,,,,,2023-07-12,1,,,,,ハティ,0
2356,9010801034146,新規,0,2023-07-12,2023-07-12,八号橋株式会社,,株式会社,東京都,大田区,山王２丁目１番８号,,13,111,1430023,,,,,,,2023-07-12,1,,,,,ハチゴウキョウ,0
2357,9010801034154,新規,0,2023-07-12,2023-07-12,ＡＯＯＡ株式会社,,株式会社,東京都,大田区,西蒲田７丁目２２番２号フォンテーヌ西蒲田５０１,,13,111,1440051,,,,,,,2023-07-12,1,,,,,アオオア,0
2360,9010901053401,新規,0,2023-07-12,2023-07-12,株式会社アクセル,,株式会社,東京都,世田谷区,上用賀４丁目９番２４号ガーデン上用賀ハウスＡ－１０,,13,112,1580098,,,,,,,2023-07-12,1,,,,,アクセル,0
2369,9011001155518,新規,0,2023-07-12,2023-07-12,株式会社ｒｅａｌ,,株式会社,東京都,渋谷区,道玄坂１丁目１０番８号渋谷道玄坂東急ビル２Ｆ－Ｃ,,13,113,1500043,,,,,,,2023-07-12,1,,,,,リアル,0
2370,9011001155609,新規,0,2023-07-12,2023-07-12,株式会社アローン,,株式会社,東京都,渋谷区,幡ヶ谷３丁目４２番５号,,13,113,1510072,,,,,,,2023-07-12,1,,,,,アローン,0
2371,9011001155617,新規,0,2023-07-12,2023-07-12,Ｎａｎａｖｙ株式会社,,株式会社,東京都,渋谷区,道玄坂１丁目１０番８号渋谷道玄坂東急ビル２Ｆ－Ｃ,,13,113,1500043,,,,,,,2023-07-12,1,,,,,ナナヴィ,0
2374,9011103013243,新規,0,2023-07-12,2023-07-12,合同会社Ｃｏｒｅ　Ｓｉｄｅ,,合同会社,東京都,新宿区,市谷柳町４０－１グリーンパーク市ヶ谷柳町１００１,,13,104,1620061,,,,,,,2023-07-12,1,,,,,コアサイド,0
2378,9011501029519,新規,0,2023-07-12,2023-07-12,株式会社ＧＭＳ,,株式会社,東京都,北区,滝野川３丁目２０番９号チェリーハイツ滝野川１０２号,,13,117,1140023,,,,,,,2023-07-12,1,,,,,ジーエムエス,0
2380,9011503005682,新規,0,2023-07-12,2023-07-12,源合同会社,,合同会社,東京都,北区,十条仲原２丁目２番２号,,13,117,1140031,,,,,,,2023-07-12,1,,,,,ミナモト,0
2381,9011703003528,新規,0,2023-07-12,2023-07-12,合同会社Ｍａｉｏｌｉｃｈｅ　Ｃｏｃｏｚｚａ,,合同会社,東京都,江戸川区,清新町１丁目３番４,,13,123,1340087,,,,,,,2023-07-12,1,,,,,マヨリカココッツァ,0
2391,9012701017676,新規,0,2023-07-12,2023-07-12,オーロラ・カルチャー・メディア株式会社,,株式会社,東京都,西東京市,住吉町６丁目２－４,,13,229,2020005,,,,,,,2023-07-12,1,,,,,オーロラカルチャーメディア,0
2393,9012801022502,新規,0,2023-07-12,2023-07-12,株式会社蒼,,株式会社,東京都,国立市,谷保７２４１番地の７,,13,215,1860011,,,,,,,2023-07-12,1,,,,,アオ,0
2400,9020001152458,新規,0,2023-07-12,2023-07-12,株式会社ＰＳＣホールディングス,,株式会社,神奈川県,横浜市都筑区,中川中央１丁目２９番７号,,14,118,2240003,,,,,,,2023-07-12,1,,,,,ピーエスシーホールディングス,0
2401,9020001152466,新規,0,2023-07-12,2023-07-12,Ｂｌｕｅ　Ｌｅａｆ株式会社,,株式会社,神奈川県,横浜市青葉区,あざみ野１丁目２２番地１２,,14,117,2250011,,,,,,,2023-07-12,1,,,,,ブルーリーフ,0
2402,9020001152482,新規,0,2023-07-12,2023-07-12,株式会社ＨＣ　ＴＲＡＤＥ,,株式会社,神奈川県,横浜市戸塚区,原宿１丁目１番２号,,14,110,2450063,,,,,,,2023-07-12,1,,,,,エイチシートレード,0
2403,9020001152508,新規,0,2023-07-12,2023-07-12,株式会社恭大幸,,株式会社,神奈川県,横浜市緑区,中山１丁目６番１１－３０３号,,14,113,2260019,,,,,,,2023-07-12,1,,,,,キョウダイサチ,0
2407,9020003024176,新規,0,2023-07-12,2023-07-12,合同会社フロムヨコハマ,,合同会社,神奈川県,横浜市保土ケ谷区,帷子町２丁目７３番地,,14,106,2400013,,,,,,,2023-07-12,1,,,,,フロムヨコハマ,0
2408,9020003024234,新規,0,2023-07-12,2023-07-12,合同会社ＭｏｓｃｏｗＭｕｌｅ　Ｄｅｓｉｇｎ,,合同会社,神奈川県,横浜市都筑区,池辺町３８７０スペランツァ２０８号室,,14,118,2240053,,,,,,,2023-07-12,1,,,,,モスコミュールデザイン,0
2417,9021003013301,新規,0,2023-07-12,2023-07-12,合同会社知的財産企画,,合同会社,神奈川県,厚木市,東町６番１５－７０１号,,14,212,2430001,,,,,,,2023-07-12,1,,,,,チテキザイサンキカク,0
2422,9030001154750,新規,0,2023-07-12,2023-07-12,株式会社ＳＡＫＵＲＡ,,株式会社,埼玉県,さいたま市大宮区,宮町２丁目３９番地１,,11,103,3300802,,,,,,,2023-07-12,1,,,,,サクラ,0
2423,9030001154800,新規,0,2023-07-12,2023-07-12,株式会社Ｎｏｖｕｍ　Ｌａｒｍｅ,,株式会社,埼玉県,川口市,西川口３丁目１番１４－８０２号,,11,203,3320021,,,,,,,2023-07-12,1,,,,,ノウムラルム,0
2424,9030001154825,新規,0,2023-07-12,2023-07-12,株式会社住むトコ不動産,,株式会社,埼玉県,上尾市,大字上６２番地１３深山ビル,,11,219,3620001,,,,,,,2023-07-12,1,,,,,スムトコフドウサン,0
2425,9030001154833,新規,0,2023-07-12,2023-07-12,株式会社わたなべファーム,,株式会社,埼玉県,久喜市,菖蒲町柴山枝郷１９０８番地１,,11,232,3460112,,,,,,,2023-07-12,1,,,,,ワタナベファーム,0
2426,9030001154858,新規,0,2023-07-12,2023-07-12,株式会社ライズケアサービス,,株式会社,埼玉県,さいたま市緑区,東浦和７丁目２６番地１６,,11,109,3360926,,,,,,,2023-07-12,1,,,,,ライズケアサービス,0
2441,9040001129215,新規,0,2023-07-12,2023-07-12,康橋国際株式会社,,株式会社,千葉県,柏市,東中新宿１丁目２０番９号,,12,217,2770061,,,,,,,2023-07-12,1,,,,,コウキョウコクサイ,0
2442,9040001129223,新規,0,2023-07-12,2023-07-12,株式会社ふたば損害鑑定,,株式会社,千葉県,柏市,塚崎２丁目２番地１１,,12,217,2770923,,,,,,,2023-07-12,1,,,,,フタバソンガイカンテイ,0
2444,9040003022946,新規,0,2023-07-12,2023-07-12,合同会社ＡＬＩＶＥ,,合同会社,千葉県,八街市,榎戸４０７番地６７,,12,230,2891106,,,,,,,2023-07-12,1,,,,,アライブ,0
2445,9040003022954,新規,0,2023-07-12,2023-07-12,合同会社メディプロ,,合同会社,千葉県,柏市,柏７丁目３番１１－３０２号,,12,217,2770005,,,,,,,2023-07-12,1,,,,,メディプロ,0
2452,9050001053109,新規,0,2023-07-12,2023-07-12,株式会社ａｎ,,株式会社,茨城県,牛久市,ひたち野西２丁目１４番地９,,08,219,3001206,,,,,,,2023-07-12,1,,,,,アン,0
2453,9050001053125,新規,0,2023-07-12,2023-07-12,株式会社Ｂ‐Ｎｅｘｕｓ一級建築士事務所,,株式会社,茨城県,守谷市,大柏１００８番地１５宮代ビル３Ｆ,,08,224,3020116,,,,,,,2023-07-12,1,,,,,ビーネクサスイッキュウケンチクシジムショ,0
2455,9050003007624,新規,0,2023-07-12,2023-07-12,合同会社ライジング,,合同会社,茨城県,土浦市,東崎町１１番１８号,,08,203,3000031,,,,,,,2023-07-12,1,,,,,ライジング,0
2458,9060005010113,新規,0,2023-07-12,2023-07-12,特定非営利活動法人ＨＯＰＥ　ＯＦ　ＳＡＫＵＲＡ,,その他の設立登記法人,栃木県,さくら市,草川４４番地２,,09,214,3291324,,,,,,,2023-07-12,1,,,,,ホープオブサクラ,0
2466,9070001040625,新規,0,2023-07-12,2023-07-12,株式会社一進興業,,株式会社,群馬県,邑楽郡邑楽町,大字中野２８０３番地１６,,10,525,3700603,,,,,,,2023-07-12,1,,,,,,0
2468,9080001025724,新規,0,2023-07-12,2023-07-12,株式会社大森工業,,株式会社,静岡県,静岡市駿河区,下川原３丁目２６番２０号,,22,102,4210113,,,,,,,2023-07-12,1,,,,,オオモリコウギョウ,0
2475,9090001001476,新規,0,2023-07-12,2023-07-12,株式会社ビー・アドベンチャー,,株式会社,山梨県,甲府市,丸の内３丁目３３番７号,,19,201,4000031,,,,,,,2023-07-12,1,,,,,ビーアドベンチャー,0
2476,9090003002340,新規,0,2023-07-12,2023-07-12,甲府陸送合同会社,,合同会社,山梨県,甲府市,上今井町２３６８番地,,19,201,4000845,,,,,,,2023-07-12,1,,,,,コウフリクソウ,0
2481,9100001036578,新規,0,2023-07-12,2023-07-12,株式会社ＬＩＴＥ,,株式会社,長野県,佐久市,野沢７番地４,,20,217,3850053,,,,,,,2023-07-12,1,,,,,リテ,0
2484,9100003007098,新規,0,2023-07-12,2023-07-12,合同会社ＭＭＣ,,合同会社,長野県,中野市,大字豊津２７８１番地,,20,211,3892101,,,,,,,2023-07-12,1,,,,,エムエムシー,0
2490,9110001037690,新規,0,2023-07-12,2023-07-12,株式会社Ｅｓｔｔｒａ,,株式会社,新潟県,上越市,三和区井ノ口９３３番地,,15,222,9430316,,,,,,,2023-07-12,1,,,,,エストラ,0
2499,9120001256273,新規,0,2023-07-12,2023-07-12,株式会社ＥＭ　ＴＯＷＮ,,株式会社,大阪府,大阪市淀川区,宮原１丁目６番１号,,27,123,5320003,,,,,,,2023-07-12,1,,,,,イーエムタウン,0
2500,9120003024430,新規,0,2023-07-12,2023-07-12,合同会社ＲＡＳＫ,,合同会社,大阪府,大阪市浪速区,日本橋４丁目１６番５－５０２号,,27,111,5560005,,,,,,,2023-07-12,1,,,,,ラスク,0
2501,9120003024455,新規,0,2023-07-12,2023-07-12,合同会社辻成佳,00131145,合同会社,大阪府,大阪市天王寺区,夕陽丘町４番１１－１１０１号,,27,109,5430075,,,,,,,2023-07-12,1,,,,,ツジシゲヨシ,0
2504,9120103005322,新規,0,2023-07-12,2023-07-12,ＶＡＧＯ合同会社,,合同会社,大阪府,岸和田市,小松里町２１１４－２,,27,202,5960821,,,,,,,2023-07-12,1,,,,,バーゴ,0
2509,9120905006492,新規,0,2023-07-12,2023-07-12,特定非営利活動法人みらいこども事業団,,その他の設立登記法人,大阪府,高槻市,南庄所町１１番１３号,,27,207,5690063,,,,,,,2023-07-12,1,,,,,ミライコドモジギョウダン,0
2513,9130003008845,新規,0,2023-07-12,2023-07-12,Ｎヴィレッジプロパティーズ合同会社,,合同会社,京都府,京都市左京区,下鴨北園町２番地３,,26,103,6060831,,,,,,,2023-07-12,1,,,,,エヌヴィレッジプロパティーズ,0
2517,9140001130749,新規,0,2023-07-12,2023-07-12,株式会社辻設備工業,00131143,株式会社,兵庫県,南あわじ市,山添５４９番地１,,28,224,6560121,,,,,,,2023-07-12,1,,,,,ツジセツビコウギョウ,0
2518,9140001130831,新規,0,2023-07-12,2023-07-12,ＷＡＰＬＡ株式会社,,株式会社,兵庫県,尼崎市,南武庫之荘８丁目８番２２号,,28,202,6610033,,,,,,,2023-07-12,1,,,,,ワプラ,0
2520,9150001026541,新規,0,2023-07-12,2023-07-12,株式会社ＫＳＳホールディングス,,株式会社,奈良県,香芝市,上中５１９番地１,,29,210,6390265,,,,,,,2023-07-12,1,,,,,ケーエスエスホールディングス,0
2534,9180001157053,新規,0,2023-07-12,2023-07-12,名伸測量株式会社,,株式会社,愛知県,あま市,富塚布内１番地,,23,237,4901202,,,,,,,2023-07-12,1,,,,,メイシンソクリョウ,0
2535,9180001157061,新規,0,2023-07-12,2023-07-12,株式会社ＤＩＧＩＶＡＬＵＥ,,株式会社,愛知県,名古屋市中区,錦２丁目１２番５号,,23,106,4600003,,,,,,,2023-07-12,1,,,,,デジバリュー,0
2536,9180001157103,新規,0,2023-07-12,2023-07-12,株式会社Ｙ＆Ｍフューチャートラスト,,株式会社,愛知県,名古屋市中村区,名駅３丁目４番１０号アルティメイト名駅１ｓｔ２階,,23,105,4500002,,,,,,,2023-07-12,1,,,,,ワイアンドエムフューチャートラスト,0
2537,9180001157144,新規,0,2023-07-12,2023-07-12,株式会社ＳＫＹ,,株式会社,愛知県,名古屋市昭和区,川名町４丁目１６番地の１,,23,107,4660856,,,,,,,2023-07-12,1,,,,,スカイ,0
2541,9180003025464,新規,0,2023-07-12,2023-07-12,Ｓｏｒａｉｃｈｉ　Ｍａｃｈｉｎｅｒｉｅｓ合同会社,,合同会社,愛知県,稲沢市,祖父江町森上本郷１番地加藤マンション２０４号室,,23,220,4950011,,,,,,,2023-07-12,1,,,,,ソライチマリーナリーズ,0
2542,9180003025480,新規,0,2023-07-12,2023-07-12,合同会社ＫＲＴ,,合同会社,愛知県,名古屋市中村区,名駅４丁目２４番５号第２森ビル４０１,,23,105,4500002,,,,,,,2023-07-12,1,,,,,ケーアールティー,0
2549,9180301037558,新規,0,2023-07-12,2023-07-12,株式会社ひらめき,,株式会社,愛知県,豊橋市,西松山町３番地レジェンドビル２階,,23,201,4400876,,,,,,,2023-07-12,1,,,,,ヒラメキ,0
2554,9190001030564,新規,0,2023-07-12,2023-07-12,株式会社ｍａｎｎａ,,株式会社,三重県,志摩市,阿児町鵜方２２８３番地１,,24,215,5170501,,,,,,,2023-07-12,1,,,,,マンナ,0
2561,9240003006210,新規,0,2023-07-12,2023-07-12,金鼎合同会社,,合同会社,広島県,広島市中区,鶴見町１４番１２号,,34,101,7300045,,,,,,,2023-07-12,1,,,,,キンテイ,0
2565,9260005011248,新規,0,2023-07-12,2023-07-12,一般社団法人岡山県自転車防犯登録会,,その他の設立登記法人,岡山県,岡山市北区,東古松３丁目１２番１０号,,33,101,7000921,,,,,,,2023-07-12,1,,,,,オカヤマケンジテンシャボウハントウロクカイ,0
2572,9290001102205,新規,0,2023-07-12,2023-07-12,株式会社Ｍａｒｋｅｔｉｎｇ＆Ｃｏｎｓｕｌｔｉｎｇ　Ｓｅｒｖｉｃｅｓ,,株式会社,福岡県,福岡市中央区,大手門１丁目８－８ベイサージュ大手門５０３号,,40,133,8100074,,,,,,,2023-07-12,1,,,,,マーケティングアンドコンサルティングサービス,0
2573,9290001102221,新規,0,2023-07-12,2023-07-12,株式会社Ｉ,,株式会社,福岡県,福岡市中央区,渡辺通５丁目２４番３０－４０１号－１,,40,133,8100004,,,,,,,2023-07-12,1,,,,,アイ,0
2574,9290001102238,新規,0,2023-07-12,2023-07-12,絆マネージメントコンサルタンツ株式会社,,株式会社,福岡県,福岡市城南区,別府３丁目４番２０－７０７号,,40,136,8140104,,,,,,,2023-07-12,1,,,,,キズナマネージメントコンサルタンツ,0
2575,9290001102246,新規,0,2023-07-12,2023-07-12,株式会社７７１,,株式会社,福岡県,福岡市博多区,博多駅前１丁目２３番２号ＰａｒｋＦｒｏｎｔ博多駅前１丁目５Ｆ－Ｂ,,40,132,8120011,,,,,,,2023-07-12,1,,,,,ナナナナイチ,0
2579,9290801029688,新規,0,2023-07-12,2023-07-12,株式会社Ｔｏｍ’ｓ,,株式会社,福岡県,直方市,大字山部２４４番地１２―１００２号,,40,204,8220034,,,,,,,2023-07-12,1,,,,,トムズ,0
2583,9300001013359,新規,0,2023-07-12,2023-07-12,株式会社ＡＳＳＩＳＴ,,株式会社,佐賀県,小城市,牛津町柿樋瀬７３１番地７,00131150,41,208,8490302,,,,,,,2023-07-12,1,,,,,アシスト,0
2593,9360001032238,新規,0,2023-07-12,2023-07-12,Ｒ・Ａ・Ｔ企画株式会社,,株式会社,沖縄県,那覇市,字大道１６４番地ライオンズマンションほたる橋４１３,,47,201,9020066,,,,,,,2023-07-12,1,,,,,アールエイティキカク,0
2596,9370001050172,新規,0,2023-07-12,2023-07-12,株式会社ＤＡＩＳＥＮ,,株式会社,宮城県,仙台市太白区,萩ケ丘６－７,,04,104,9820848,,,,,,,2023-07-12,1,,,,,ダイセン,0
2604,9380001033845,新規,0,2023-07-12,2023-07-12,株式会社Ｇｉｖｅｒ　Ａｓｓｅｔ,,株式会社,福島県,会津若松市,河東町郡山字一揆塚２１番地,,07,202,9693481,,,,,,,2023-07-12,1,,,,,ギバーアセット,0
2609,9400003003109,新規,0,2023-07-12,2023-07-12,新東ミート合同会社,,合同会社,岩手県,一関市,大東町曽慶字袖振１１９番地５,,03,209,0290522,,,,,,,2023-07-12,1,,,,,シントウミート,0
2611,9430001089535,新規,0,2023-07-12,2023-07-12,株式会社シルバ,,株式会社,北海道,札幌市中央区,円山西町５丁目１１番２２号,,01,101,0640944,,,,,,,2023-07-12,1,,,,,シルバ,0
2615,9450001014053,新規,0,2023-07-12,2023-07-12,Ｌｅｓ　Ｓｏｒｂｉｅｒ　ｄｅｓ　Ｏｉｓｅｌｅｕｒｓ株式会社,,株式会社,北海道,旭川市,九条通２１丁目ＩＫマンションＩ－１０６,,01,204,0788219,,,,,,,2023-07-12,1,,,,,レゾルビエデゾワズラー,0
