sequenceNumber,corporateNumber,process,correct,updateDate,changeDate,name,nameImageId,kind,prefectureName,cityName,streetNumber,addressImageId,prefectureCode,cityCode,postCode,addressOutside,addressOutsideImageId,closeDate,closeCause,successorCorporateNumber,changeCause,assignmentDate,latest,enName,enPrefectureName,enCityName,enAddressOutside,furigana,hihyoji
9,1010001239643,新規,0,2023-11-01,2023-11-01,株式会社ＰＯＩＮＴＦＵＮ,,株式会社,東京都,千代田区,平河町１丁目４番１４号,,13,101,1020093,,,,,,,2023-11-01,1,,,,,ポイントファン,0
10,1010001239651,新規,0,2023-11-01,2023-11-01,ファルク株式会社,,株式会社,東京都,中央区,東日本橋１丁目５番６号,,13,102,1030004,,,,,,,2023-11-01,1,,,,,ファルク,0
11,1010001239676,新規,0,2023-11-01,2023-11-01,ＹｏＹｏ株式会社,,株式会社,東京都,中央区,日本橋室町１丁目１１番１２号日本橋水野ビル７階,,13,102,1030022,,,,,,,2023-11-01,1,,,,,ヨーヨー,0
12,1010001239684,新規,0,2023-11-01,2023-11-01,ｅ‐ｆｌｉｐ株式会社,,株式会社,東京都,千代田区,神田東松下町２９番地,,13,101,1010042,,,,,,,2023-11-01,1,,,,,イーフリップ,0
13,1010001239726,新規,0,2023-11-01,2023-11-01,株式会社リサーチ・アーキテクツ,,株式会社,東京都,文京区,本郷１丁目４番１１号岡野ビル２階,,13,105,1130033,,,,,,,2023-11-01,1,,,,,リサーチアーキテクツ,0
19,1010003042095,新規,0,2023-11-01,2023-11-01,メカ合同会社,,合同会社,東京都,中央区,銀座１丁目２２番１１号銀座大竹ビジデンス２Ｆ,,13,102,1040061,,,,,,,2023-11-01,1,,,,,メカ,0
24,1010401178227,新規,0,2023-11-01,2023-11-01,株式会社日進ゴルフ＆リゾート,,株式会社,東京都,港区,南青山７丁目１０番３号,,13,103,1070062,,,,,,,2023-11-01,1,,,,,ニッシンゴルフアンドリゾート,0
27,1010403031268,新規,0,2023-11-01,2023-11-01,ＴＸ６号合同会社,,合同会社,東京都,港区,浜松町２丁目２番１５号浜松町ダイヤビル２Ｆ,,13,103,1050013,,,,,,,2023-11-01,1,,,,,ティーエックスロクゴウ,0
39,1010903008542,新規,0,2023-11-01,2023-11-01,合同会社Ｂ‐ＬＩＦＥ,,合同会社,東京都,世田谷区,祖師谷４丁目３３番２０－３号,,13,112,1570072,,,,,,,2023-11-01,1,,,,,ビーライフ,0
40,1010903008559,新規,0,2023-11-01,2023-11-01,合同会社ラ・ピスタ,,合同会社,東京都,世田谷区,駒沢２丁目１８番１０－４０８号,,13,112,1540012,,,,,,,2023-11-01,1,,,,,ラピスタ,0
47,1011001157760,新規,0,2023-11-01,2023-11-01,株式会社ヴィグ,,株式会社,東京都,渋谷区,円山町５－５Ｎａｖｉ渋谷Ｖ３階,,13,113,1500044,,,,,,,2023-11-01,1,,,,,ヴィグ,0
48,1011001157843,新規,0,2023-11-01,2023-11-01,株式会社空波,,株式会社,東京都,渋谷区,松濤２丁目１７番１号,,13,113,1500046,,,,,,,2023-11-01,1,,,,,ソラナミ,0
49,1011001157892,新規,0,2023-11-01,2023-11-01,株式会社オプシンク０１,,株式会社,東京都,渋谷区,神泉町１１番９号ワインアパートメント神泉２０２,,13,113,1500045,,,,,,,2023-11-01,1,,,,,オプシンクゼロワン,0
50,1011001157901,新規,0,2023-11-01,2023-11-01,株式会社２Ｇ,,株式会社,東京都,渋谷区,猿楽町２８－６－３Ｆ,,13,113,1500033,,,,,,,2023-11-01,1,,,,,ツージー,0
51,1011001157918,新規,0,2023-11-01,2023-11-01,株式会社博観,,株式会社,東京都,渋谷区,本町３丁目４９－１５－８１３,,13,113,1510071,,,,,,,2023-11-01,1,,,,,ハクカン,0
52,1011001157967,新規,0,2023-11-01,2023-11-01,株式会社ＴＯＦ,,株式会社,東京都,渋谷区,神宮前３丁目１番２４号ソフトタウン青山４２５号室,,13,113,1500001,,,,,,,2023-11-01,1,,,,,トフ,0
54,1011003017830,新規,0,2023-11-01,2023-11-01,Ｂｕｓｉｎｅｓｓ　Ｄｅｓｉｇｎ　Ｈａｒｂｏｒ合同会社,,合同会社,東京都,渋谷区,桜丘町１０－６－８０４,,13,113,1500031,,,,,,,2023-11-01,1,,,,,ビジネスデザインハーバー,0
58,1011101104877,新規,0,2023-11-01,2023-11-01,株式会社Ｃｏｏｌｓ’９７,,株式会社,東京都,新宿区,新宿１丁目２４番１号大塚ビル４階,,13,104,1600022,,,,,,,2023-11-01,1,,,,,クールズナインティーンセブン,0
59,1011101104927,新規,0,2023-11-01,2023-11-01,株式会社あずま,,株式会社,東京都,新宿区,新宿１丁目３６番２号新宿第七葉山ビル６階,,13,104,1600022,,,,,,,2023-11-01,1,,,,,アズマ,0
61,1011301029115,新規,0,2023-11-01,2023-11-01,ＳＨＪグローバル株式会社,,株式会社,東京都,杉並区,永福１丁目４４番１号,,13,115,1680064,,,,,,,2023-11-01,1,,,,,エスエイチジェイグローバルジャパン,0
63,1011501029930,新規,0,2023-11-01,2023-11-01,聞瀾株式会社,,株式会社,東京都,北区,東田端２丁目９番１７号,,13,117,1140013,,,,,,,2023-11-01,1,,,,,ブンラン,0
74,1012803003227,新規,0,2023-11-01,2023-11-01,合同会社彩春,,合同会社,東京都,東大和市,湖畔２丁目１０４４番地の２１,,13,220,2070002,,,,,,,2023-11-01,1,,,,,サイシュン,0
96,1020001154239,新規,0,2023-11-01,2023-11-01,哲泰株式会社,,株式会社,神奈川県,横浜市南区,真金町１丁目１１番地１０タウンハーズ・Ａ８０３号,,14,105,2320021,,,,,,,2023-11-01,1,,,,,テツタイ,0
97,1020001154255,新規,0,2023-11-01,2023-11-01,株式会社雄聖,,株式会社,神奈川県,横浜市鶴見区,獅子ケ谷２丁目３７番１８号１０５,,14,101,2300073,,,,,,,2023-11-01,1,,,,,,0
100,1020003024844,新規,0,2023-11-01,2023-11-01,雲翔合同会社,,合同会社,神奈川県,横浜市中区,本牧町２丁目３０４加藤ビル３０３Ｅ,,14,104,2310806,,,,,,,2023-11-01,1,,,,,ウンショウ,0
101,1020003024902,新規,0,2023-11-01,2023-11-01,合同会社ＭＴＧ,,合同会社,神奈川県,横浜市港南区,最戸２丁目２０番３３号,,14,111,2330008,,,,,,,2023-11-01,1,,,,,エムティージー,0
105,1021001080607,新規,0,2023-11-01,2023-11-01,株式会社ＨＡＬｓＴｅｃｈ,,株式会社,神奈川県,鎌倉市,長谷１丁目７番１３号,,14,204,2480016,,,,,,,2023-11-01,1,,,,,ハルズテック,0
106,1021001080615,新規,0,2023-11-01,2023-11-01,株式会社ＡＬＭＡＴＥＣ,,株式会社,神奈川県,藤沢市,大庭５２２０番地の１８,,14,205,2510861,,,,,,,2023-11-01,1,,,,,アルマテック,0
123,1030001156944,新規,0,2023-11-01,2023-11-01,株式会社Ｎｖｉｓｉｏｎ,,株式会社,埼玉県,さいたま市中央区,新中里２丁目９番３８号,,11,105,3380011,,,,,,,2023-11-01,1,,,,,エヌビジョン,0
125,1030003022913,新規,0,2023-11-01,2023-11-01,合同会社トウカク,,合同会社,埼玉県,東松山市,大字高坂９０６番地２福田ハイツＡ－２１０,,11,212,3550047,,,,,,,2023-11-01,1,,,,,トウカク,0
130,1040001130642,新規,0,2023-11-01,2023-11-01,株式会社ｈａｒｕ,,株式会社,千葉県,流山市,三輪野山２丁目３３５番地の４１,,12,220,2700175,,,,,,,2023-11-01,1,,,,,ハル,0
131,1040001130733,新規,0,2023-11-01,2023-11-01,株式会社ＳＳＭＡＲＴ,,株式会社,千葉県,八千代市,緑が丘２丁目３８番７号,,12,221,2760049,,,,,,,2023-11-01,1,,,,,スマート,0
132,1040001130741,新規,0,2023-11-01,2023-11-01,京王自動車株式会社,,株式会社,千葉県,千葉市中央区,塩田町６６４番地,,12,101,2600823,,,,,,,2023-11-01,1,,,,,ケイオウジドウシャ,0
133,1040001130758,新規,0,2023-11-01,2023-11-01,株式会社ナカムラ建創,,株式会社,千葉県,柏市,しいの木台３丁目１８番地２・Ｉ棟,00132486,12,217,2770945,,,,,,,2023-11-01,1,,,,,ナカムラケンソウ,0
140,1040003023646,新規,0,2023-11-01,2023-11-01,合同会社ＣＭＭ９号,,合同会社,千葉県,柏市,柏４丁目５番１０号,,12,217,2770005,,,,,,,2023-11-01,1,,,,,シーエムエムキュウゴウ,0
151,1070005010185,新規,0,2023-11-01,2023-11-01,特定非営利活動法人虹色の会よっちゃん家井野川,,その他の設立登記法人,群馬県,高崎市,大八木町２１１８番地２,,10,202,3700072,,,,,,,2023-11-01,1,,,,,,0
152,1080101024303,新規,0,2023-11-01,2023-11-01,Ｃｉｅｌｏ　Ａｚｚｕｒｒｏ株式会社,,株式会社,静岡県,熱海市,網代６２７番地の９７０ヴィラ南熱海５１１,,22,205,4130103,,,,,,,2023-11-01,1,,,,,シエロアズーロ,0
166,1120001259408,新規,0,2023-11-01,2023-11-01,株式会社ＬＩＮＫＳ,,株式会社,大阪府,大阪市浪速区,大国２丁目１１－１１－７０３,,27,111,5560014,,,,,,,2023-11-01,1,,,,,リンクス,0
167,1120001259416,新規,0,2023-11-01,2023-11-01,株式会社大千,,株式会社,大阪府,大阪市生野区,田島２丁目１０番３０－２０３号,,27,116,5440011,,,,,,,2023-11-01,1,,,,,ダイセン,0
168,1120001259424,新規,0,2023-11-01,2023-11-01,試金石株式会社,,株式会社,大阪府,大阪市住之江区,南港北２丁目１番１０号,,27,125,5590034,,,,,,,2023-11-01,1,,,,,シキンセキ,0
169,1120001259473,新規,0,2023-11-01,2023-11-01,株式会社Ｔ‐ＦＩＲＳＴ,,株式会社,大阪府,大阪市浪速区,下寺３丁目１７番１８号,,27,111,5560001,,,,,,,2023-11-01,1,,,,,ティーファースト,0
170,1120003025238,新規,0,2023-11-01,2023-11-01,合同会社インナーブルビデオ,,合同会社,大阪府,大阪市城東区,野江３丁目２７番８－２０７号,,27,118,5360006,,,,,,,2023-11-01,1,,,,,インナーブルビデオ,0
171,1120003025246,新規,0,2023-11-01,2023-11-01,合同会社ＵＴＯＰＩＡ,,合同会社,大阪府,大阪市淀川区,西中島３丁目１６番６号,,27,123,5320011,,,,,,,2023-11-01,1,,,,,ユートピア,0
175,1120101068460,新規,0,2023-11-01,2023-11-01,株式会社ＭＧＰ,,株式会社,大阪府,和泉市,黒鳥町１丁目１８番１５号,,27,219,5940022,,,,,,,2023-11-01,1,,,,,エムジーピー,0
177,1120903004893,新規,0,2023-11-01,2023-11-01,合同会社ＫＵＲＶＥ,,合同会社,大阪府,豊中市,庄本町３丁目１１番４号,,27,203,5610835,,,,,,,2023-11-01,1,,,,,クルエ,0
183,1130003009082,新規,0,2023-11-01,2023-11-01,合同会社ＯＦＵＲＯ,,合同会社,京都府,京都市中京区,道祐町１３５－１ごぎょうの舗,,26,104,6048118,,,,,,,2023-11-01,1,,,,,オフロ,0
189,1140001132117,新規,0,2023-11-01,2023-11-01,株式会社ＳＳＭｅ,,株式会社,兵庫県,加古郡稲美町,国安３３０－１,,28,381,6751114,,,,,,,2023-11-01,1,,,,,エスエスエム,0
190,1140001132190,新規,0,2023-11-01,2023-11-01,株式会社ＡＭＢＩＴＩＯＵＳ,,株式会社,兵庫県,たつの市,誉田町広山３４５番地１,,28,229,6794134,,,,,,,2023-11-01,1,,,,,アンビシャス,0
201,1180001158661,新規,0,2023-11-01,2023-11-01,映像嵐株式会社,,株式会社,愛知県,名古屋市中区,錦２丁目１６番４号,,23,106,4600003,,,,,,,2023-11-01,1,,,,,エイゾウラン,0
202,1180001158736,新規,0,2023-11-01,2023-11-01,株式会社３６９,,株式会社,愛知県,名古屋市千種区,池下町２丁目６３番地の２５グランドメゾン池下ザ・タワー５０８号,,23,101,4640066,,,,,,,2023-11-01,1,,,,,ミロク,0
208,1180005020413,新規,0,2023-11-01,2023-11-01,一般社団法人Ｓｉｎｃｅｒｅ,,その他の設立登記法人,愛知県,名古屋市緑区,鎌倉台２丁目７１４番地,,23,114,4580829,,,,,,,2023-11-01,1,,,,,シンシア,0
212,1200002026542,新規,0,2023-11-01,2023-11-01,有限会社シンコウ部品,,有限会社,岐阜県,高山市,上宝町蔵柱１１８０番地,,21,203,5061314,,,,,,,2023-11-01,1,,,,,シンコウブヒン,0
221,1240001062345,新規,0,2023-11-01,2023-11-01,ステラインターナショナル神戸株式会社,,株式会社,広島県,福山市,三吉町５丁目５番６号,,34,207,7200031,,,,,,,2023-11-01,1,,,,,ステラインターナショナルコウベ,0
229,1260001038450,新規,0,2023-11-01,2023-11-01,株式会社アステスト,,株式会社,岡山県,倉敷市,北畝１丁目２３番５号,,33,202,7128032,,,,,,,2023-11-01,1,,,,,アステスト,0
239,1290001103581,新規,0,2023-11-01,2023-11-01,株式会社喜楽工務店,,株式会社,福岡県,福岡市博多区,住吉５丁目２番１３－２０１号,,40,132,8120018,,,,,,,2023-11-01,1,,,,,キラクコウムテン,0
243,1290003014562,新規,0,2023-11-01,2023-11-01,合同会社Ｐｒｏｘｉｓ,,合同会社,福岡県,福岡市博多区,寿町３丁目３番３３－１５０３号カルム南福岡,,40,132,8120884,,,,,,,2023-11-01,1,,,,,プロキス,0
249,1300003002037,新規,0,2023-11-01,2023-11-01,合同会社ＬａＬａ,,合同会社,佐賀県,佐賀市,久保田町大字久富１２００番地１,,41,201,8490202,,,,,,,2023-11-01,1,,,,,ララ,0
254,1320005007247,新規,0,2023-11-01,2023-11-01,甘川水生産森林組合,,その他の設立登記法人,大分県,玖珠郡九重町,大字右田１８６番地,,44,461,8794601,,,,,,,2023-11-01,1,,,,,,0
256,1330001031407,新規,0,2023-11-01,2023-11-01,株式会社みずたまプロジェクト,,株式会社,熊本県,熊本市東区,御領２丁目１９－４１－３,,43,102,8618035,,,,,,,2023-11-01,1,,,,,ミズタマプロジェクト,0
261,1360001032749,新規,0,2023-11-01,2023-11-01,Ｂｌｕｅ　Ｓｋｙ　Ｓｅａ　Ｏｋｉｎａｗａ株式会社,,株式会社,沖縄県,那覇市,泉崎１丁目２０番１号カフーナ旭橋Ａ街区那覇オーパ３階,,47,201,9000021,,,,,,,2023-11-01,1,,,,,ブルースカイシーオキナワ,0
262,1360001032757,新規,0,2023-11-01,2023-11-01,株式会社ＳＤＨ,,株式会社,沖縄県,浦添市,牧港１丁目３１番２１号,,47,208,9012131,,,,,,,2023-11-01,1,,,,,エスディーエイチ,0
280,1430001090310,新規,0,2023-11-01,2023-11-01,株式会社ＬＴインフルエンス,,株式会社,北海道,札幌市中央区,南十条西１３丁目１番５号,,01,101,0640810,,,,,,,2023-11-01,1,,,,,エルティーインフルエンス,0
281,1430001090319,新規,0,2023-11-01,2023-11-01,株式会社ＳＹＳ,,株式会社,北海道,札幌市中央区,南六条西４丁目４番４号ライトビル５階,,01,101,0640806,,,,,,,2023-11-01,1,,,,,エスワイエス,0
300,1700150121631,新規,0,2023-11-01,2023-11-01,Ｃｈａｎｇｚｈｏｕ　Ｚｈａｎｌｕ　Ｐｌａｓｔｉｃ　ｔｅｃｈｎｏｌｏｇｙ　Ｃｏ，Ｌｔｄ,,外国会社等,,,,,,,,Ｔａｎｇｙａｎｇ　Ｖｉｌｌａｇｅ，Ｎａｎｘｉａｓｈｕ　Ｓｔｒｅｅｔ，Ｗｕｊｉｎ　Ｄｉｓｔｒｉｃｔ　Ｃｈａｎｇｚｈｏｕ　Ｊｉａｎｇｓｕ　２１３１６４　ＣＮ,,,,,,2023-11-01,1,,,,,チャンジョウジャンルースーイエコージーヨウシエンゴンスー,0
301,1700150121697,新規,0,2023-11-01,2023-11-01,Ｓｈａｎｇｈａｉｘｉｇａｎｇｘｉｎｘｉｊｉｓｈｕｙｏｕｘｉａｎｇｏｎｇｓｉ,,外国会社等,,,,,,,,ｚｉｙｏｕｍａｏｙｉｓｈｉｙａｎｑｕ，ｌｉｎｇａｎｇｘｉｎｐｉａｎｑｕ，ｈｕａｎｈｕｘｉｅｒｌｕ８８８ｈａｏＣＩ，Ｓｈａｎｇｈａｉ,,,,,,2023-11-01,1,,,,,シャンハイシコウシンソクギジュツユウゲンコウシ,0
302,1700150121755,新規,0,2023-11-01,2023-11-01,ＥＣＯＥＲ　ＩＮＣ．,,外国会社等,大阪府,大阪市中央区,船越町１丁目５番８－４０８号,,27,128,5400036,アメリカ合衆国バージニア州フェアファックス、ジェルマンタウン・ロード３９００、スイート１５０,,,,,,2023-11-01,1,,,,,エコア,0
308,2010001239667,新規,0,2023-11-01,2023-11-01,株式会社ＳｔａｒｔｕｐＡｔｌａｓ,,株式会社,東京都,中央区,日本橋室町１丁目１１番１２号日本橋水野ビル７階,,13,102,1030022,,,,,,,2023-11-01,1,,,,,スタートアップアトラス,0
311,2010003042094,新規,0,2023-11-01,2023-11-01,合同会社クリークインベストメント・フォー,,合同会社,東京都,千代田区,内幸町２丁目１番６号,,13,101,1000011,,,,,,,2023-11-01,1,,,,,クリークインベストメントフォー,0
319,2010401177310,新規,0,2023-11-01,2023-11-01,株式会社ｍｏｎｅｙ‐ｇｒｉｔ,,株式会社,東京都,港区,港南２丁目１６－２太陽生命品川ビル２８Ｆ,,13,103,1080075,,,,,,,2023-11-01,1,,,,,マネーグリット,0
320,2010401178135,新規,0,2023-11-01,2023-11-01,株式会社金英,,株式会社,東京都,港区,南麻布４丁目５番６３号ラ・トゥール南麻布Ｂ２０１,,13,103,1060047,,,,,,,2023-11-01,1,,,,,キンエイ,0
321,2010401178218,新規,0,2023-11-01,2023-11-01,未来社会イノベーション株式会社,,株式会社,東京都,港区,白金１丁目７番１４－３０１号,,13,103,1080072,,,,,,,2023-11-01,1,,,,,ミライシャカイイノベーション,0
322,2010401178234,新規,0,2023-11-01,2023-11-01,株式会社プラスアルファ,,株式会社,東京都,港区,北青山１丁目３－１アールキューブ青山３Ｆ,,13,103,1070061,,,,,,,2023-11-01,1,,,,,プラスアルファ,0
324,2010403031267,新規,0,2023-11-01,2023-11-01,ＴＸ５号合同会社,,合同会社,東京都,港区,浜松町２丁目２番１５号浜松町ダイヤビル２Ｆ,,13,103,1050013,,,,,,,2023-11-01,1,,,,,ティーエックスゴゴウ,0
325,2010403031275,新規,0,2023-11-01,2023-11-01,ＨｉＳＲ　Ｌａｂ合同会社,,合同会社,東京都,港区,南青山２丁目２―１５ＷＩＮ青山,,13,103,1070062,,,,,,,2023-11-01,1,,,,,エイチアイエスアールラボ,0
336,2010901054117,新規,0,2023-11-01,2023-11-01,株式会社トネール,,株式会社,東京都,世田谷区,豪徳寺２丁目２７番２０号,,13,112,1540021,,,,,,,2023-11-01,1,,,,,トネール,0
342,2011001157891,新規,0,2023-11-01,2023-11-01,株式会社オプシンクネット,,株式会社,東京都,渋谷区,神泉町１１番９号ワインアパートメント神泉２０２,,13,113,1500045,,,,,,,2023-11-01,1,,,,,オプシンクネット,0
343,2011001157941,新規,0,2023-11-01,2023-11-01,Ｅｎｔｅｒｔａｉｎｏｖａｔｉｏｎ株式会社,,株式会社,東京都,渋谷区,道玄坂１丁目１０番８号渋谷道玄坂東急ビル２Ｆ－Ｃ,,13,113,1500043,,,,,,,2023-11-01,1,,,,,エンターテイノベーション,0
344,2011001157982,新規,0,2023-11-01,2023-11-01,株式会社ａｎｄ　ａｄ,,株式会社,東京都,渋谷区,道玄坂１丁目１０番８号渋谷道玄坂東急ビル２Ｆ－Ｃ,,13,113,1500043,,,,,,,2023-11-01,1,,,,,アンドアド,0
352,2011101104884,新規,0,2023-11-01,2023-11-01,株式会社アクティブ,,株式会社,東京都,新宿区,西新宿３丁目７番２１号陽輪台西新宿１００３,,13,104,1600023,,,,,,,2023-11-01,1,,,,,アクティブ,0
353,2011201025015,新規,0,2023-11-01,2023-11-01,永勝貿易株式会社,,株式会社,東京都,中野区,若宮２丁目５番２号コートハウス都立家政１０１,,13,114,1650033,,,,,,,2023-11-01,1,,,,,エイショウボウエキ,0
355,2011401025574,新規,0,2023-11-01,2023-11-01,Ｄｉｏｎｙｓｕｓ株式会社,,株式会社,東京都,板橋区,中丸町５－６オクトピア池袋７０３,,13,119,1730026,,,,,,,2023-11-01,1,,,,,ディオニューソス,0
356,2011603004112,新規,0,2023-11-01,2023-11-01,合同会社ａｌｍａ　ｓａｈｏ,,合同会社,東京都,練馬区,豊玉北１丁目２１番１０号３Ａ,,13,120,1760012,,,,,,,2023-11-01,1,,,,,アルマサホ,0
369,2020001154163,新規,0,2023-11-01,2023-11-01,雪輝株式会社,,株式会社,神奈川県,横浜市南区,真金町１丁目３－１,,14,105,2320021,,,,,,,2023-11-01,1,,,,,セッキ,0
370,2020001154221,新規,0,2023-11-01,2023-11-01,株式会社シラハタビルサービス,,株式会社,神奈川県,川崎市宮前区,犬蔵３丁目８番１－６３５号グレーシアガーデンたまプラーザ,,14,136,2160011,,,,,,,2023-11-01,1,,,,,シラハタビルサービス,0
371,2020001154238,新規,0,2023-11-01,2023-11-01,株式会社Ｇｒｅｅｎ　ｓｐｉｒｉｔ,,株式会社,神奈川県,横浜市神奈川区,星野町８番地３クリオレジダンス横濱ベイサイド７１５号,,14,102,2210035,,,,,,,2023-11-01,1,,,,,グリーンスピリット,0
378,2021001080606,新規,0,2023-11-01,2023-11-01,株式会社Ｕ．Ｍ．Ｅ．,,株式会社,神奈川県,藤沢市,鵠沼海岸３丁目１５番２２号メル鵠沼ＩＩＩ１０２,00132484,14,205,2510037,,,,,,,2023-11-01,1,,,,,ユーエムイー,0
379,2021001080614,新規,0,2023-11-01,2023-11-01,株式会社エヌ土木,,株式会社,神奈川県,横須賀市,根岸町４丁目１６番１９－２０７号,,14,201,2390807,,,,,,,2023-11-01,1,,,,,,0
380,2021001080622,新規,0,2023-11-01,2023-11-01,株式会社栄政グループ,,株式会社,神奈川県,小田原市,中里１７５－２６,,14,206,2500872,,,,,,,2023-11-01,1,,,,,エイセイグループ,0
385,2030001156869,新規,0,2023-11-01,2023-11-01,株式会社Ｅｘｃｅｅｄ　Ｊａｐａｎ,,株式会社,埼玉県,吉川市,大字土場１４０番地２,,11,243,3420026,,,,,,,2023-11-01,1,,,,,エクシードジャパン,0
386,2030001156927,新規,0,2023-11-01,2023-11-01,株式会社利想工業,,株式会社,埼玉県,日高市,大字下鹿山３４６番地２,,11,242,3501233,,,,,,,2023-11-01,1,,,,,リソウコウギョウ,0
398,2030003022672,新規,0,2023-11-01,2023-11-01,アビエイターコンサルティング合同会社,,合同会社,埼玉県,春日部市,大沼４丁目６５－３１０,,11,214,3440038,,,,,,,2023-11-01,1,,,,,アビエイターコンサルティング,0
399,2030003022904,新規,0,2023-11-01,2023-11-01,Ｓ．Ｄ．Ｏ．ｃｏｍｐａｎｙ．合同会社,,合同会社,埼玉県,さいたま市岩槻区,大字小溝２６－１６６,,11,110,3390003,,,,,,,2023-11-01,1,,,,,エスディーオーカンパニー,0
400,2030003022912,新規,0,2023-11-01,2023-11-01,合同会社ゼロフリップ,,合同会社,埼玉県,所沢市,三ケ島４丁目２３７９－３７,,11,208,3591164,,,,,,,2023-11-01,1,,,,,ゼロフリップ,0
406,2040001130617,新規,0,2023-11-01,2023-11-01,株式会社ＫＣＳ,,株式会社,千葉県,千葉市中央区,村田町１１９６番地ウィザースレジデンス浜野駅前１１０１号,,12,101,2600825,,,,,,,2023-11-01,1,,,,,ケーシーエス,0
407,2040001130724,新規,0,2023-11-01,2023-11-01,株式会社ＮＳＣＯ　ＪＡＰＡＮ,,株式会社,千葉県,柏市,東１丁目２番４５号石戸第３ビル１０１号室,,12,217,2770014,,,,,,,2023-11-01,1,,,,,エヌエスシーオージャパン,0
411,2040003023645,新規,0,2023-11-01,2023-11-01,合同会社ＣＭＭ８号,,合同会社,千葉県,柏市,柏４丁目５番１０号,,12,217,2770005,,,,,,,2023-11-01,1,,,,,シーエムエムハチゴウ,0
412,2040003023653,新規,0,2023-11-01,2023-11-01,合同会社ビクトリー,,合同会社,千葉県,千葉市花見川区,幕張町３丁目１５４８－３,,12,102,2620032,,,,,,,2023-11-01,1,,,,,ビクトリー,0
413,2040003023661,新規,0,2023-11-01,2023-11-01,合同会社まゆこもり,,合同会社,千葉県,船橋市,松が丘４丁目５番１２号パークハイツ２０２号室,,12,204,2740064,,,,,,,2023-11-01,1,,,,,マユコモリ,0
417,2060001036515,新規,0,2023-11-01,2023-11-01,株式会社ｚｏｒｒｏ　ｌｉｂｒｅ,,株式会社,栃木県,さくら市,氏家２３６６番地２,,09,214,3291311,,,,,,,2023-11-01,1,,,,,ゾロリブレ,0
426,2070005010184,新規,0,2023-11-01,2023-11-01,ＮＰＯ法人前橋ラグビースクール,,その他の設立登記法人,群馬県,前橋市,南町４丁目１０番地５,,10,201,3710805,,,,,,,2023-11-01,1,,,,,マエバシラグビースクール,0
429,2080001025953,新規,0,2023-11-01,2023-11-01,共同工業株式会社,,株式会社,静岡県,焼津市,田尻北３１４番地の６,,22,212,4250051,,,,,,,2023-11-01,1,,,,,キョウドウコウギョウ,0
446,2120001259282,新規,0,2023-11-01,2023-11-01,大友株式会社,,株式会社,大阪府,大阪市大正区,三軒家西３丁目４番１６号中山ビル１０４５,,27,108,5510001,,,,,,,2023-11-01,1,,,,,ダイユウ,0
447,2120001259365,新規,0,2023-11-01,2023-11-01,東亜国際株式会社,,株式会社,大阪府,大阪市浪速区,立葉２丁目２番２０号Ａ,,27,111,5560020,,,,,,,2023-11-01,1,,,,,トウアコクサイ,0
448,2120001259398,新規,0,2023-11-01,2023-11-01,株式会社ｍａｎａｄ　ｄｅｓｉｇｎ,,株式会社,大阪府,大阪市北区,角田町８番４７号阪急グランドビル２０Ｆ,,27,127,5300017,,,,,,,2023-11-01,1,,,,,マナドデザイン,0
449,2120001259407,新規,0,2023-11-01,2023-11-01,株式会社Ｚｅｎｃｌｅ,,株式会社,大阪府,大阪市淀川区,木川東３丁目１番４号,,27,123,5320012,,,,,,,2023-11-01,1,,,,,ゼンクル,0
453,2120003025220,新規,0,2023-11-01,2023-11-01,合同会社ＴＨＥ　ＰＬＵＧ,,合同会社,大阪府,大阪市東住吉区,湯里２丁目１３－１－４０３,,27,121,5460013,,,,,,,2023-11-01,1,,,,,ザプラグ,0
454,2120003025229,新規,0,2023-11-01,2023-11-01,合同会社一会,,合同会社,大阪府,大阪市天王寺区,上汐５丁目７番１１号,,27,109,5430002,,,,,,,2023-11-01,1,,,,,イチエ,0
465,2130001075588,新規,0,2023-11-01,2023-11-01,株式会社三立教育,,株式会社,京都府,京都市北区,小山北大野町３１番地,,26,101,6038161,,,,,,,2023-11-01,1,,,,,サンリツキョウイク,0
466,2130001075638,新規,0,2023-11-01,2023-11-01,株式会社Ｔｒａｎｓｃｅｎｄｅｎｃｅ,,株式会社,京都府,京都市南区,東九条西山町１－１１,,26,107,6018046,,,,,,,2023-11-01,1,,,,,トランセンデンス,0
474,2140001132181,新規,0,2023-11-01,2023-11-01,株式会社オフレコ,,株式会社,兵庫県,西宮市,苦楽園二番町６番１３号,,28,204,6620082,,,,,,,2023-11-01,1,,,,,オフレコ,0
475,2140003019757,新規,0,2023-11-01,2023-11-01,ＨＴ合同会社,,合同会社,兵庫県,姫路市,呉服町４１ロビンフット,,28,201,6700923,,,,,,,2023-11-01,1,,,,,エイチティ,0
476,2150001026853,新規,0,2023-11-01,2023-11-01,株式会社アストライ,,株式会社,奈良県,大和高田市,大字奥田１１番地７,,29,202,6350052,,,,,,,2023-11-01,1,,,,,アストライ,0
479,2150005009516,新規,0,2023-11-01,2023-11-01,特定非営利活動法人ウィズ・めばえ,,その他の設立登記法人,奈良県,橿原市,曲川町５丁目８番５－９号,,29,205,6340837,,,,,,,2023-11-01,1,,,,,ウィズメバエ,0
489,2180001158719,新規,0,2023-11-01,2023-11-01,株式会社Ｂｅｙｏｎｄ,,株式会社,愛知県,名古屋市中川区,法華西町３丁目２７番地の２,,23,110,4540937,,,,,,,2023-11-01,1,,,,,ビヨンド,0
490,2180001158727,新規,0,2023-11-01,2023-11-01,株式会社シッパーキ,,株式会社,愛知県,名古屋市名東区,社台１丁目１５５マンション一社５０７,,23,115,4650092,,,,,,,2023-11-01,1,,,,,シッパーキ,0
491,2180001158743,新規,0,2023-11-01,2023-11-01,株式会社ＳＴＣ,,株式会社,愛知県,名古屋市中区,栄１丁目２２番２号ライオンズ名古屋ビル３１６号,,23,106,4600008,,,,,,,2023-11-01,1,,,,,エスティシー,0
492,2180001158751,新規,0,2023-11-01,2023-11-01,株式会社ＮＩＫＡ,,株式会社,愛知県,名古屋市中川区,中島新町３丁目１４０８番地の１,,23,110,4540932,,,,,,,2023-11-01,1,,,,,ニカ,0
495,2180003025933,新規,0,2023-11-01,2023-11-01,ブルストファイブ合同会社,,合同会社,愛知県,名古屋市東区,白壁２丁目２０番２２号（アヴニール白壁４０１号）,,23,102,4610011,,,,,,,2023-11-01,1,,,,,ブルストファイブ,0
498,2180005020412,新規,0,2023-11-01,2023-11-01,一般社団法人がんばっ亭,,その他の設立登記法人,愛知県,尾張旭市,緑町緑ケ丘１００番地３９,,23,226,4880822,,,,,,,2023-11-01,1,,,,,ガンバッテイ,0
504,2200003006138,新規,0,2023-11-01,2023-11-01,ＩＫ　ＳＥＲＶＩＣＥ　ＧＲＯＵＰ合同会社,,合同会社,岐阜県,美濃加茂市,牧野２０８１番地１,,21,211,5050016,,,,,,,2023-11-01,1,,,,,アイケーサービスグループ,0
530,2330001031414,新規,0,2023-11-01,2023-11-01,株式会社ハルノヒ,,株式会社,熊本県,熊本市西区,春日１丁目８番２９号ＬＡＭＯＮＴＥ２・１階,,43,103,8600047,,,,,,,2023-11-01,1,,,,,ハルノヒ,0
532,2330003010052,新規,0,2023-11-01,2023-11-01,合同会社ダンデライオン,,合同会社,熊本県,宇城市,松橋町南豊崎７３１番地３,,43,213,8690543,,,,,,,2023-11-01,1,,,,,ダンデライオン,0
537,2360001032748,新規,0,2023-11-01,2023-11-01,株式会社Ｃｕｂｉｃ,,株式会社,沖縄県,宮古島市,平良字東仲宗根４１、１Ｆ西,,47,214,9060007,,,,,,,2023-11-01,1,,,,,キュービック,0
561,2430001090301,新規,0,2023-11-01,2023-11-01,株式会社ＥＶＯＬＴ,,株式会社,北海道,札幌市中央区,南九条西４丁目３番１－２８０６号,,01,101,0640809,,,,,,,2023-11-01,1,,,,,エボルト,0
562,2430001090318,新規,0,2023-11-01,2023-11-01,株式会社マッカレルタビー,,株式会社,北海道,札幌市中央区,北二条西１４丁目１番地１,,01,101,0600002,,,,,,,2023-11-01,1,,,,,マッカレルタビー,0
573,2700150121630,新規,0,2023-11-01,2023-11-01,Ｌｏｎｇｙａｎｙｏｎｇｄｉｎｇｔｅｎｇｇｕｄｉａｎｚｉｋｅｊｉｙｏｕｘｉａｎｇｏｎｇｓｉ,,外国会社等,,,,,,,,ｙｏｎｇ　ｄｉｎｇ　ｑｕ　ｃｈｅｎｇ　ｊｉａｏ　ｚｈｅｎ　ｇｕ　ｙｉ　ｃｕｎ　ｅｎ　ｋｅｎｇ　ｌｉ　ｚｕ１　ｈａｏ　３　ｚｈｕａｎｇ　Ｂ　ｄａｎ　ｙｕａｎ　１１０４　ｓｈｉＬｏｎｇｙａｎＦｕｊｉａｎ３６４１００ＣＮ,,,,,,2023-11-01,1,,,,,ロンイエンヨンディントングーディエンズーコージーヨウシエンゴンスー,0
574,2700150121696,新規,0,2023-11-01,2023-11-01,Ｓｈｅｎｚｈｅｎ　Ｈｏｐｅ　Ｅｃｏｍｍｅｒｃｅ　Ｃｏ．ＬＴＤ,,外国会社等,,,,,,,,６０１Ｎｏ．４，Ｐｌａｎｔ４，ＸｉａｎｇｊｉａｏｔａｎｇＡｏｂｅｉｗｏ，ＸｉａｎｇｊｉａｏｔａｎｇＳｈｅｑｕ，ＢａｎｔｉａｎＳｔｒｅｅｔ，Ｌｏｎｇｇａｎｇ，Ｓｈｅｎｚｈｅｎ,,,,,,2023-11-01,1,,,,,シェンジェンシーシーワンディエンズーシャンウーヨウシエンゴンスー,0
586,3010001239609,新規,0,2023-11-01,2023-11-01,ダイヤ住宅株式会社,,株式会社,東京都,千代田区,丸の内２丁目１番１号,,13,101,1000005,,,,,,,2023-11-01,1,,,,,ダイヤジュウタク,0
587,3010001239666,新規,0,2023-11-01,2023-11-01,ＦＴＡＧ　Ｊａｐａｎ株式会社,,株式会社,東京都,千代田区,丸の内１丁目１１番１号パシフィックセンチュリープレイス１３階,,13,101,1000005,,,,,,,2023-11-01,1,,,,,エフティーエージージャパン,0
597,3010401178233,新規,0,2023-11-01,2023-11-01,株式会社ＷＥＬＬＭ,,株式会社,東京都,港区,北青山３丁目５番４０号ＰＲＹＭＥＣＵＢＥ表参道４０２,,13,103,1070061,,,,,,,2023-11-01,1,,,,,ウェルム,0
600,3010405022627,新規,0,2023-11-01,2023-11-01,一般社団法人Ｍａｌｉｋｓｉ,,その他の設立登記法人,東京都,港区,虎ノ門５丁目１番４号,,13,103,1050001,,,,,,,2023-11-01,1,,,,,マリクシ,0
613,3011001157949,新規,0,2023-11-01,2023-11-01,株式会社ノアシーク,,株式会社,東京都,渋谷区,渋谷３丁目５番１６号渋谷三丁目スクエアビル２階,,13,113,1500002,,,,,,,2023-11-01,1,,,,,ノアシーク,0
614,3011001157981,新規,0,2023-11-01,2023-11-01,株式会社月廻,,株式会社,東京都,渋谷区,渋谷２丁目１０番６号,,13,113,1500002,,,,,,,2023-11-01,1,,,,,ツキネ,0
615,3011001157998,新規,0,2023-11-01,2023-11-01,Ｗｈｉｔｅ　Ｈｏｕｓｅ　Ｅｘｅｃｕｔｉｖｅｓ株式会社,,株式会社,東京都,渋谷区,恵比寿西２丁目９番９号クリスタルスクエア代官山３Ｂ,,13,113,1500021,,,,,,,2023-11-01,1,,,,,ホワイトハウスエグゼクティブス,0
618,3011003017829,新規,0,2023-11-01,2023-11-01,Ａｒｔｉｓｔ　Ｌｏｕｎｇｅ合同会社,,合同会社,東京都,渋谷区,本町１丁目５３－１１ＣｕｂｉｃＭ－Ｂ１Ｆ,,13,113,1510071,,,,,,,2023-11-01,1,,,,,アーティストラウンジ,0
622,3011101104883,新規,0,2023-11-01,2023-11-01,株式会社プロセス,,株式会社,東京都,新宿区,西新宿３丁目７番２１号陽輪台西新宿１００３,,13,104,1600023,,,,,,,2023-11-01,1,,,,,プロセス,0
623,3011101104982,新規,0,2023-11-01,2023-11-01,株式会社Ｍｉｃｈｉｂｉｋｕ　Ｇｒｏｕｐ,,株式会社,東京都,新宿区,西新宿３丁目３番１３号西新宿水間ビル２Ｆ,,13,104,1600023,,,,,,,2023-11-01,1,,,,,ミチビクグループ,0
624,3011103013694,新規,0,2023-11-01,2023-11-01,合同会社Ｈａｄｉｕ５,,合同会社,東京都,新宿区,北新宿２丁目２１－２－１８０６,,13,104,1690074,,,,,,,2023-11-01,1,,,,,ハディウス,0
627,3011203004214,新規,0,2023-11-01,2023-11-01,ＧＤＩＡｇｅｎｃｙ合同会社,,合同会社,東京都,中野区,鷺宮５丁目６番１７号,,13,114,1650032,,,,,,,2023-11-01,1,,,,,ジーディーアイエージェンシー,0
634,3011603004111,新規,0,2023-11-01,2023-11-01,合同会社アヴァンス,,合同会社,東京都,練馬区,旭丘１丁目７番９号アヴァンス旭丘２０１,,13,120,1760005,,,,,,,2023-11-01,1,,,,,アヴァンス,0
639,3013301051567,新規,0,2023-11-01,2023-11-01,ＴｅｃｈＴｒｉｂｅ株式会社,,株式会社,東京都,豊島区,東池袋５丁目２番４号,,13,116,1700013,,,,,,,2023-11-01,1,,,,,テックトライブ,0
640,3020001028630,新規,0,2023-11-01,2023-11-01,株式会社武相工務店,,株式会社,神奈川県,横浜市中区,野毛町２丁目９０番地,,14,104,2310064,,,,,,,2023-11-01,1,,,,,,0
646,3020001154154,新規,0,2023-11-01,2023-11-01,株式会社ＤＨＩ　ＪＡＰＡＮ,,株式会社,神奈川県,横浜市神奈川区,西神奈川１丁目１３番１２号アーバンビル６階ウィズスクエア横浜,,14,102,2210822,,,,,,,2023-11-01,1,,,,,ディーエイチアイジャパン,0
647,3020001154253,新規,0,2023-11-01,2023-11-01,株式会社Ｅａｔｉｎｇ　Ｅｘｐｅｒｉｅｎｃｅ,,株式会社,神奈川県,川崎市中原区,下新城１丁目４番８－５１１号,,14,133,2110042,,,,,,,2023-11-01,1,,,,,イーティングエクスペリンス,0
648,3020001154261,新規,0,2023-11-01,2023-11-01,ジャイロヒューマンズ株式会社,,株式会社,神奈川県,横浜市中区,桜木町１丁目１０１番地１クロスゲート７階,,14,104,2310062,,,,,,,2023-11-01,1,,,,,ジャイロヒューマンズ,0
655,3020003024867,新規,0,2023-11-01,2023-11-01,アルメリア合同会社,,合同会社,神奈川県,横浜市中区,上野町３丁目１２４番３号,,14,104,2310842,,,,,,,2023-11-01,1,,,,,アルメリア,0
656,3020003024900,新規,0,2023-11-01,2023-11-01,源波総合企画合同会社,,合同会社,神奈川県,横浜市泉区,和泉中央北４丁目１４番１号井上ビル２０１,,14,116,2450024,,,,,,,2023-11-01,1,,,,,ゲンナミソウゴウキカク,0
676,3030001156901,新規,0,2023-11-01,2023-11-01,プラシエル株式会社,,株式会社,埼玉県,川口市,並木３丁目６番１２号,,11,203,3320034,,,,,,,2023-11-01,1,,,,,プラシエル,0
677,3030001156942,新規,0,2023-11-01,2023-11-01,株式会社ＴＲＵＳＴ,,株式会社,埼玉県,志木市,中宗岡５丁目２０番６－２０１号,,11,228,3530002,,,,,,,2023-11-01,1,,,,,トラスト,0
682,3030003022928,新規,0,2023-11-01,2023-11-01,デアルカ合同会社,,合同会社,埼玉県,戸田市,氷川町１丁目６番１５―３０９号,,11,224,3350027,,,,,,,2023-11-01,1,,,,,デアルカ,0
691,3040001130715,新規,0,2023-11-01,2023-11-01,株式会社朝倉建設,,株式会社,千葉県,八千代市,大和田新田９４１番地１２,,12,221,2760046,,,,,,,2023-11-01,1,,,,,アサクラケンセツ,0
695,3040003023660,新規,0,2023-11-01,2023-11-01,ＩＭＡＫＯ　ＴＲＡＤＩＮＧ合同会社,,合同会社,千葉県,山武市,埴谷字細町２６４３番Ｆ棟,,12,237,2891223,,,,,,,2023-11-01,1,,,,,イマコトレーディング,0
702,3060001036506,新規,0,2023-11-01,2023-11-01,Ｐｒｏｓｐｅｒｉｔｙ株式会社,,株式会社,栃木県,栃木市,仲仕上町３６９番地１,,09,203,3280025,,,,,,,2023-11-01,1,,,,,プロスペリティ,0
707,3090001018402,新規,0,2023-11-01,2023-11-01,株式会社九龍,,株式会社,山梨県,甲斐市,西八幡３２７７番地３パークサイドステージ１０５,,19,210,4000117,,,,,,,2023-11-01,1,,,,,クーロン,0
712,3110003005197,新規,0,2023-11-01,2023-11-01,合同会社Ｔａｂａｎｅｌ,,合同会社,新潟県,新潟市西区,平島２丁目１０番地１８,,15,107,9502004,,,,,,,2023-11-01,1,,,,,タバネル,0
722,3120001259091,新規,0,2023-11-01,2023-11-01,株式会社アサラボ,,株式会社,大阪府,大阪市福島区,福島６丁目１１番１号エステムコート梅田リトリーヴ２１２号室,,27,103,5530003,,,,,,,2023-11-01,1,,,,,アサラボ,0
723,3120001259406,新規,0,2023-11-01,2023-11-01,長安堂株式会社,,株式会社,大阪府,大阪市住吉区,我孫子５丁目５番９号,,27,120,5580014,,,,,,,2023-11-01,1,,,,,チョウアンドウ,0
724,3120001259414,新規,0,2023-11-01,2023-11-01,戦国策株式会社,,株式会社,大阪府,大阪市生野区,桃谷３丁目２１番２６号和歌之莊２号,,27,116,5440034,,,,,,,2023-11-01,1,,,,,センゴクサク,0
725,3120001259463,新規,0,2023-11-01,2023-11-01,株式会社Ｒｅｒｈｙｍｅ,,株式会社,大阪府,大阪市中央区,南船場２丁目３番７－３０１号,,27,128,5420081,,,,,,,2023-11-01,1,,,,,リライム,0
732,3120003025203,新規,0,2023-11-01,2023-11-01,ｒｅｓｔｏｒｅ合同会社,,合同会社,大阪府,大阪市中央区,材木町１‐６第１２新興ビル７０５,,27,128,5400010,,,,,,,2023-11-01,1,,,,,レストア,0
734,3120101068459,新規,0,2023-11-01,2023-11-01,富川商事株式会社,,株式会社,大阪府,堺市堺区,北安井町１－２８,,27,141,5900062,,,,,,,2023-11-01,1,,,,,トミカワショウジ,0
735,3120101068475,新規,0,2023-11-01,2023-11-01,株式会社工務店おかね,,株式会社,大阪府,堺市北区,金岡町２６６７番地１０,,27,146,5918022,,,,,,,2023-11-01,1,,,,,コウムテンオカネ,0
740,3130001075587,新規,0,2023-11-01,2023-11-01,株式会社たかや,,株式会社,京都府,京都市東山区,祇園町南側５７０－２５２,,26,105,6050074,,,,,,,2023-11-01,1,,,,,タカヤ,0
741,3130001075595,新規,0,2023-11-01,2023-11-01,株式会社ＢｐｒｏＡ,,株式会社,京都府,京都市右京区,太秦森ケ東町５１番地２０,,26,108,6168102,,,,,,,2023-11-01,1,,,,,ビープロエー,0
742,3130003009097,新規,0,2023-11-01,2023-11-01,合同会社リガーレ,,合同会社,京都府,亀岡市,下矢田町２丁目４０番６号,,26,206,6210854,,,,,,,2023-11-01,1,,,,,リガーレ,0
747,3140001132180,新規,0,2023-11-01,2023-11-01,株式会社ＨＯＲＳＥＬＩＦＥ,,株式会社,兵庫県,西脇市,合山町７９１番地の２０,,28,213,6770061,,,,,,,2023-11-01,1,,,,,ホースライフ,0
748,3140001132189,新規,0,2023-11-01,2023-11-01,株式会社貴心,,株式会社,兵庫県,小野市,天神町９１２番地の６,,28,218,6751316,,,,,,,2023-11-01,1,,,,,タカムネ,0
756,3160001025457,新規,0,2023-11-01,2023-11-01,エムジェイ株式会社,,株式会社,滋賀県,草津市,大路１丁目８番１号,,25,206,5250032,,,,,,,2023-11-01,1,,,,,エムジェイ,0
761,3180001158750,新規,0,2023-11-01,2023-11-01,株式会社バイオシスラボ,,株式会社,愛知県,豊明市,沓掛町田楽ケ窪１番地９８,,23,229,4701101,,,,,,,2023-11-01,1,,,,,バイオシスラボ,0
763,3180003025874,新規,0,2023-11-01,2023-11-01,合同会社Ｆｕｌｌ　Ｈｏｕｓｅ,,合同会社,愛知県,清須市,一場５７６番地,,23,233,4520931,,,,,,,2023-11-01,1,,,,,フルーハウス,0
767,3180301037968,新規,0,2023-11-01,2023-11-01,株式会社Ｍ４,,株式会社,愛知県,豊田市,宮町４丁目３４番地７,,23,211,4710043,,,,,,,2023-11-01,1,,,,,エムフォー,0
782,3240001062343,新規,0,2023-11-01,2023-11-01,株式会社ｍｏ‐ｍｏ,,株式会社,広島県,広島市中区,上八丁堀８－２３林業ビル９階,,34,101,7300012,,,,,,,2023-11-01,1,,,,,モモ,0
783,3240001062351,新規,0,2023-11-01,2023-11-01,株式会社ブランドキャリアー,,株式会社,広島県,福山市,春日町１丁目２－４３フラットリア春日７０５,,34,207,7210907,,,,,,,2023-11-01,1,,,,,ブランドキャリアー,0
797,3290003014544,新規,0,2023-11-01,2023-11-01,合同会社ＮＲＣ,,合同会社,福岡県,朝倉市,甘木２２６２番地４,,40,228,8380068,,,,,,,2023-11-01,1,,,,,エンアルシー,0
798,3290003014552,新規,0,2023-11-01,2023-11-01,ＭＵＳＵＢＩ合同会社,,合同会社,福岡県,福岡市中央区,平尾３丁目１３番８号,,40,133,8100014,,,,,,,2023-11-01,1,,,,,ムスビ,0
799,3290003014560,新規,0,2023-11-01,2023-11-01,合同会社アルファリンクプラス,,合同会社,福岡県,福岡市中央区,地行浜２丁目２番５－５１０号ザ・パークハウス福岡タワーズＥＡＳＴ,,40,133,8100065,,,,,,,2023-11-01,1,,,,,アルファリンクプラス,0
807,3330001031405,新規,0,2023-11-01,2023-11-01,株式会社Ｎ＆Ｎ,,株式会社,熊本県,熊本市中央区,出水４丁目１３番６号,,43,101,8620941,,,,,,,2023-11-01,1,,,,,エヌアンドエヌ,0
808,3330001031413,新規,0,2023-11-01,2023-11-01,株式会社ミヤクマ,,株式会社,熊本県,熊本市東区,京塚本町４９番２号スペックス上水前寺Ａ棟１０３,,43,102,8620952,,,,,,,2023-11-01,1,,,,,ミヤクマ,0
813,3340001026040,新規,0,2023-11-01,2023-11-01,株式会社百光工建,,株式会社,鹿児島県,鹿児島市,春山町２２９５番地,,46,201,8992704,,,,,,,2023-11-01,1,,,,,ヒャクコウコウケン,0
824,3360003013423,新規,0,2023-11-01,2023-11-01,合同会社アスクレピオス,,合同会社,沖縄県,南城市,大里字稲嶺２０１３番地１９,,47,215,9011204,,,,,,,2023-11-01,1,,,,,アスクレピオス,0
825,3360003013431,新規,0,2023-11-01,2023-11-01,農業生産法人すがま農園合同会社,,合同会社,沖縄県,宮古島市,下地字上地３４５番地４,,47,214,9060304,,,,,,,2023-11-01,1,,,,,ノウギョウセイサンホウジンスガマノウエン,0
835,3380001034106,新規,0,2023-11-01,2023-11-01,株式会社ＳＴＬ,,株式会社,福島県,白河市,北真舟２５－２パークシティ１０４ビル３階,,07,205,9610981,,,,,,,2023-11-01,1,,,,,エスティーエル,0
839,3400003003171,新規,0,2023-11-01,2023-11-01,合同会社おむすび,,合同会社,岩手県,花巻市,花城町３番３号,,03,205,0250075,,,,,,,2023-11-01,1,,,,,オムスビ,0
841,3420003002816,新規,0,2023-11-01,2023-11-01,つのがらおりのもり合同会社,,合同会社,青森県,三戸郡階上町,大字角柄折字正部家２番地,,02,446,0391208,,,,,,,2023-11-01,1,,,,,ツノガラオリノモリ,0
851,3430003015585,新規,0,2023-11-01,2023-11-01,ＣｒｏｙＴｏｎｅ　Ａｕｄｉｏ合同会社,,合同会社,北海道,札幌市中央区,北五条西１１丁目１５番地４,,01,101,0600005,,,,,,,2023-11-01,1,,,,,クロイトーンオーディオ,0
861,3500001025281,新規,0,2023-11-01,2023-11-01,株式会社喜田農園,,株式会社,愛媛県,松山市,饒甲４６０番地,,38,201,7914509,,,,,,,2023-11-01,1,,,,,キタノウエン,0
863,3700150121464,新規,0,2023-11-01,2023-11-01,ｓｈａｎｘｉｒｕｎｆａｎｋｅｊｉｙｏｕｘｉａｎｇｏｎｇｓｉ,,外国会社等,,,,,,,,Ｎｏ．３０６，Ｃｈａｎｇｚｈｉ　Ｒｏａｄ，Ｗｕｃｈｅｎｇ　Ｒｏａｄ　Ｓｕｂｄｉｓｔｒｉｃｔ　Ｒｏｏｍ　１１０６，１１ｔｈ　ｆｌｏｏｒ，Ｔｏｗｅｒ　Ｂ，Ｂｕｉｌｄｉｎｇ　１Ｔａｉｙｕａｎ　Ｃｉｔｙ　Ｘｉａｏｄｉａｎｑｕ　Ｓｈａｎｘｉ　Ｐｒｏｖｉｎｃｅ,,,,,,2023-11-01,1,,,,,シャンシールンファンコージーヨウシエンゴンスー,0
864,3700150121695,新規,0,2023-11-01,2023-11-01,Ｙｕｎｚｈｉ（Ｓｈｅｎｚｈｅｎ）Ｅｌｅｃｔｒｏｎｉｃ　Ｃｏｍｍｅｒｃｅ　Ｃｏ．，Ｌｔｄ．,,外国会社等,,,,,,,,Ｒｏｏｍ　３０３，Ｂｕｉｌｄｉｎｇ　Ｂ８，Ｋａｎｇｌｅ　Ｇａｒｄｅｎ，Ｈｅｐｉｎｇ　Ｒｏａｄ，Ｌｏｎｇｈｕａ　Ｓｔｒｅｅｔ，Ｌｏｎｇｈｕａ　Ｎｅｗ　Ｄｉｓｔｒｉｃｔ，Ｓｈｅｎｚｈｅｎ，Ｇｕａｎｇｄｏｎｇ，Ｃｈｉｎａ,,,,,,2023-11-01,1,,,,,インジーシェンジェンディエンズーシャンウーヨウシエンゴンスー,0
886,4010003042068,新規,0,2023-11-01,2023-11-01,合同会社ボンドブリッジ２,,合同会社,東京都,千代田区,内神田２丁目２番６号５階あすな会計事務所内,,13,101,1010047,,,,,,,2023-11-01,1,,,,,ボンドブリッジツー,0
887,4010003042084,新規,0,2023-11-01,2023-11-01,合同会社レオニズ,,合同会社,東京都,中央区,日本橋１丁目４番１号日本橋一丁目ビルディング,,13,102,1030027,,,,,,,2023-11-01,1,,,,,レオニズ,0
899,4010401178240,新規,0,2023-11-01,2023-11-01,ＲＥＶＥＲＥＮＤ株式会社,,株式会社,東京都,港区,台場１丁目１番１－２４０３号,,13,103,1350091,,,,,,,2023-11-01,1,,,,,リヴァレンド,0
900,4010401178249,新規,0,2023-11-01,2023-11-01,株式会社さるぼぼアラーム,,株式会社,東京都,港区,浜松町２丁目２番１５号浜松町ダイヤビル２Ｆ,,13,103,1050013,,,,,,,2023-11-01,1,,,,,サルボボアラーム,0
901,4010401178257,新規,0,2023-11-01,2023-11-01,株式会社ＭＹＵドット,,株式会社,東京都,港区,虎ノ門１丁目１番１６号虎ノ門中央ビル７階,,13,103,1050001,,,,,,,2023-11-01,1,,,,,ミュウドット,0
903,4010403031067,新規,0,2023-11-01,2023-11-01,合同会社フルチャレンジ,,合同会社,東京都,港区,海岸３丁目１３－１ビレッジハウス芝浦タワー５０５,,13,103,1080022,,,,,,,2023-11-01,1,,,,,フルチャレンジ,0
912,4010801034480,新規,0,2023-11-01,2023-11-01,株式会社ｓｙａ,,株式会社,東京都,大田区,西糀谷１丁目１２番２２号,,13,111,1440034,,,,,,,2023-11-01,1,,,,,シヤ,0
914,4010903008556,新規,0,2023-11-01,2023-11-01,ＷＩＴＨ　ＧＲＯＵＮＤ合同会社,,合同会社,東京都,世田谷区,宮坂３丁目３５－２２四谷軒第一経堂シティコーポ３０３,,13,112,1560051,,,,,,,2023-11-01,1,,,,,ウィズグラウンド,0
917,4011001157931,新規,0,2023-11-01,2023-11-01,株式会社ＩＮＤＥＡＬ,,株式会社,東京都,渋谷区,東３丁目６番２２号グラマシー恵比寿１０３,,13,113,1500011,,,,,,,2023-11-01,1,,,,,インディール,0
918,4011001157997,新規,0,2023-11-01,2023-11-01,株式会社鎌形,,株式会社,東京都,渋谷区,渋谷１丁目１４番１５号森ビル３階,,13,113,1500002,,,,,,,2023-11-01,1,,,,,カマガタ,0
922,4011003017803,新規,0,2023-11-01,2023-11-01,合同会社ＺＥＯＮＧ,,合同会社,東京都,目黒区,自由が丘２丁目２２番２０号,,13,110,1520035,,,,,,,2023-11-01,1,,,,,ジオング,0
923,4011003017811,新規,0,2023-11-01,2023-11-01,青山キング・インターナショナル合同会社,,合同会社,東京都,渋谷区,恵比寿３丁目１番４号モンシャトー恵比寿４０２,,13,113,1500013,,,,,,,2023-11-01,1,,,,,アオヤマキングインターナショナル,0
924,4011003017836,新規,0,2023-11-01,2023-11-01,エムケープランニング合同会社,,合同会社,東京都,渋谷区,恵比寿西２丁目８番４号ＥＸ恵比寿西ビル５階,,13,113,1500021,,,,,,,2023-11-01,1,,,,,エムケープランニング,0
929,4011101104882,新規,0,2023-11-01,2023-11-01,株式会社プログレス,,株式会社,東京都,新宿区,西新宿３丁目７番２１号陽輪台西新宿１００３,,13,104,1600023,,,,,,,2023-11-01,1,,,,,プログレス,0
930,4011101104973,新規,0,2023-11-01,2023-11-01,Ｎｉｗａｋｉ　Ｊａｐａｎ株式会社,,株式会社,東京都,新宿区,横寺町３６番地神楽坂アトリエ１Ｆ,,13,104,1620831,,,,,,,2023-11-01,1,,,,,ニワキジャパン,0
939,4011503005828,新規,0,2023-11-01,2023-11-01,コナトゥスライズ合同会社,,合同会社,東京都,北区,滝野川６丁目７４番７－１０５号レーベンハイム板橋フィーリア,,13,117,1140023,,,,,,,2023-11-01,1,,,,,コナトゥスライズ,0
940,4011601027237,新規,0,2023-11-01,2023-11-01,株式会社ＲＩＮＣ,,株式会社,東京都,練馬区,北町２丁目２６番１３号ル・コンフォール２０２,,13,120,1790081,,,,,,,2023-11-01,1,,,,,リンク,0
946,4012801022738,新規,0,2023-11-01,2023-11-01,株式会社ＱＯＬ,,株式会社,東京都,立川市,錦町２丁目２番２号下田ビル２階,,13,202,1900022,,,,,,,2023-11-01,1,,,,,クオル,0
959,4020001153865,新規,0,2023-11-01,2023-11-01,株式会社大島企画,,株式会社,神奈川県,川崎市高津区,東野川１丁目２番２号２０１,,14,134,2130029,,,,,,,2023-11-01,1,,,,,オオシマキカク,0
960,4020001154260,新規,0,2023-11-01,2023-11-01,株式会社Ｎｏｓｉｎｋ,,株式会社,神奈川県,横浜市南区,南太田１丁目４４番３号清水ヶ丘ニュースカイマンション１階,,14,105,2320006,,,,,,,2023-11-01,1,,,,,ノーシンク,0
963,4020003024866,新規,0,2023-11-01,2023-11-01,アイビー合同会社,,合同会社,神奈川県,横浜市中区,上野町３丁目１２４番３号,,14,104,2310842,,,,,,,2023-11-01,1,,,,,アイビー,0
964,4020003024882,新規,0,2023-11-01,2023-11-01,合同会社天真爛漫,,合同会社,神奈川県,川崎市中原区,今井南町３２番３号レオパレスグリンテル１０４,,14,133,2110064,,,,,,,2023-11-01,1,,,,,テンシンランマン,0
967,4021001080620,新規,0,2023-11-01,2023-11-01,株式会社さてぃ,,株式会社,神奈川県,横須賀市,根岸町４丁目１０番１３号,,14,201,2390807,,,,,,,2023-11-01,1,,,,,サティ,0
971,4021005012925,新規,0,2023-11-01,2023-11-01,一般社団法人レスピ,,その他の設立登記法人,神奈川県,秦野市,北矢名１３０９番地ハレクラニ１階Ａ－２号室,,14,211,2570006,,,,,,,2023-11-01,1,,,,,レスピ,0
978,4030001156909,新規,0,2023-11-01,2023-11-01,ＴＣ・Ｃａｐｒｉｃｅ株式会社,,株式会社,埼玉県,越谷市,蒲生西町２丁目６－８ジュネパレス蒲生１０－２０３,,11,222,3430835,,,,,,,2023-11-01,1,,,,,ティーシーキャプライス,0
979,4030001156933,新規,0,2023-11-01,2023-11-01,株式会社Ｈｉｂｉｙａ　Ｃａｍｐｕｓ,,株式会社,埼玉県,さいたま市浦和区,北浦和１丁目１５番６－３０１号,,11,107,3300074,,,,,,,2023-11-01,1,,,,,ヒビヤキャンパス,0
980,4030001156958,新規,0,2023-11-01,2023-11-01,株式会社ＬｏｇｉＣｏｎｎｅｃＴｅａ,,株式会社,埼玉県,越谷市,越ヶ谷本町８番８号,,11,222,3430818,,,,,,,2023-11-01,1,,,,,ロジコネクティー,0
986,4030003022910,新規,0,2023-11-01,2023-11-01,合同会社ｗｉｚｍｅ,,合同会社,埼玉県,川口市,南鳩ヶ谷４丁目６番１－７０９号ラヴィアンコート川口南鳩ヶ谷,,11,203,3340013,,,,,,,2023-11-01,1,,,,,ウィズミー,0
996,4040001130689,新規,0,2023-11-01,2023-11-01,メインライフジャパン株式会社,,株式会社,千葉県,柏市,旭町６丁目４番１３－８０３号,,12,217,2770852,,,,,,,2023-11-01,1,,,,,メインライフジャパン,0
997,4040001130747,新規,0,2023-11-01,2023-11-01,株式会社ほりきり太郎不動産,,株式会社,千葉県,袖ケ浦市,蔵波台６丁目２７番地１７,,12,229,2990245,,,,,,,2023-11-01,1,,,,,ホリキリタロウフドウサン,0
998,4040001130763,新規,0,2023-11-01,2023-11-01,株式会社ＴＴ　ａｓｓｏｃｉａｔｅ,,株式会社,千葉県,匝瑳市,蕪里１２６番地３,,12,235,2892133,,,,,,,2023-11-01,1,,,,,ティーティーアソシエイト,0
999,4040001130771,新規,0,2023-11-01,2023-11-01,Ａ．Ｋ　Ｔｅｃｈ株式会社,,株式会社,千葉県,市原市,姉崎２５９１番地６,,12,219,2990111,,,,,,,2023-11-01,1,,,,,エーケーテック,0
1005,4050001053757,新規,0,2023-11-01,2023-11-01,ＭＹ・順通国際株式会社,,株式会社,茨城県,龍ケ崎市,愛戸町５０番地愛戸ビル２０５号室,,08,208,3010838,,,,,,,2023-11-01,1,,,,,エムワイジュンツウコクサイ,0
1009,4060001036488,新規,0,2023-11-01,2023-11-01,株式会社ＥＭＺＥＱ,,株式会社,栃木県,小山市,犬塚３丁目８番地１０ルネッサンスイヌヅカ１Ｂ,,09,208,3230811,,,,,,,2023-11-01,1,,,,,エムゼック,0
1015,4080401026814,新規,0,2023-11-01,2023-11-01,株式会社Ｔｒａｎｓｅｅｄ,,株式会社,静岡県,浜松市中区,田町２２３番地の２１ビオラ田町３Ｆ,,22,131,4300944,,,,,,,2023-11-01,1,,,,,トランシード,0
1020,4100003007251,新規,0,2023-11-01,2023-11-01,ＦＩＫ合同会社,,合同会社,長野県,松本市,中央１丁目１０番３４号公園通りビル３０４号,,20,202,3900811,,,,,,,2023-11-01,1,,,,,エフアイケイ,0
1032,4120001259339,新規,0,2023-11-01,2023-11-01,創盟株式会社,,株式会社,大阪府,大阪市中央区,上本町西３丁目２－６柴田ビル３０６Ａ,,27,128,5420062,,,,,,,2023-11-01,1,,,,,ソウメイ,0
1033,4120001259355,新規,0,2023-11-01,2023-11-01,ＲＴＥＣ株式会社,,株式会社,大阪府,大阪市福島区,玉川３丁目４－１５－１２０６,,27,103,5530004,,,,,,,2023-11-01,1,,,,,アールテック,0
1034,4120001259413,新規,0,2023-11-01,2023-11-01,順心株式会社,,株式会社,大阪府,大阪市東住吉区,杭全１丁目１７番１７号Ｔｉｎａ天王寺東ビル５０３号室,,27,121,5460002,,,,,,,2023-11-01,1,,,,,ジュンシン,0
1035,4120001259421,新規,0,2023-11-01,2023-11-01,株式会社ＢＧｒｏｕｐ,,株式会社,大阪府,大阪市浪速区,稲荷１丁目１０番１９号１２０６,,27,111,5560023,,,,,,,2023-11-01,1,,,,,ビーグループ,0
1036,4120001259454,新規,0,2023-11-01,2023-11-01,株式会社Ｒｏｏｔ　Ｎｏｔｅ,,株式会社,大阪府,大阪市北区,芝田１丁目４番１７号梅田エステートビル９Ｆ,,27,127,5300012,,,,,,,2023-11-01,1,,,,,ルートノート,0
1037,4120001259479,新規,0,2023-11-01,2023-11-01,株式会社ＦＯＣＵＳ,,株式会社,大阪府,大阪市阿倍野区,昭和町５丁目１０－２４－２０２号室,,27,119,5450011,,,,,,,2023-11-01,1,,,,,フォーカス,0
1040,4120003025235,新規,0,2023-11-01,2023-11-01,合同会社ＬＢＨ,,合同会社,大阪府,大阪市阿倍野区,天王寺町北３丁目１８番２１－５０１号,,27,119,5450001,,,,,,,2023-11-01,1,,,,,エルビーエイチ,0
1052,4120103005517,新規,0,2023-11-01,2023-11-01,合同会社かのな,,合同会社,大阪府,堺市堺区,柏木町１丁１番３２号,,27,141,5900837,,,,,,,2023-11-01,1,,,,,カノナ,0
1056,4122001037526,新規,0,2023-11-01,2023-11-01,株式会社ＬＡＮＤＯＮ,,株式会社,大阪府,東大阪市,長田東２丁目２番１号,,27,227,5770012,,,,,,,2023-11-01,1,,,,,ランドン,0
1060,4130001075578,新規,0,2023-11-01,2023-11-01,株式会社一粒万倍日,,株式会社,京都府,京都市南区,西九条春日町３４番地２春日ビル１階,,26,107,6018413,,,,,,,2023-11-01,1,,,,,イチリュウマンバイビ,0
1061,4130001075586,新規,0,2023-11-01,2023-11-01,Ｐｅｔｒｉｃｈｏｒ株式会社,,株式会社,京都府,京都市中京区,御幸町通御池下る大文字町３５１番地バウム御幸町御池５０１,,26,104,6048095,,,,,,,2023-11-01,1,,,,,ペトリコール,0
1062,4130001075603,新規,0,2023-11-01,2023-11-01,株式会社Ｗａｒｒａｉｃｈ　ｔｒａｄｉｎｇ,,株式会社,京都府,京都市伏見区,淀樋爪町２３０番地９,,26,109,6130901,,,,,,,2023-11-01,1,,,,,ワライッチトレーディング,0
1064,4130003009096,新規,0,2023-11-01,2023-11-01,合同会社ＳＨＩＮ,,合同会社,京都府,久世郡久御山町,田井新荒見３７番地１,,26,322,6130036,,,,,,,2023-11-01,1,,,,,シン,0
1065,4140001132188,新規,0,2023-11-01,2023-11-01,株式会社ＵＰ,,株式会社,兵庫県,加古川市,志方町西飯坂７３番地１,,28,210,6750345,,,,,,,2023-11-01,1,,,,,アップ,0
1068,4150001026851,新規,0,2023-11-01,2023-11-01,株式会社Ｆｏｒｔ,,株式会社,奈良県,生駒郡斑鳩町,興留１丁目６番３１号,,29,344,6360123,,,,,,,2023-11-01,1,,,,,フォート,0
1069,4160001025456,新規,0,2023-11-01,2023-11-01,オフィスナイン教育マネジメント株式会社,,株式会社,滋賀県,大津市,下阪本２丁目１６番１３号,,25,201,5200105,,,,,,,2023-11-01,1,,,,,オフィスナインキョウイクマネジメント,0
1071,4170001017865,新規,0,2023-11-01,2023-11-01,株式会社アットホームファーマシー,,株式会社,和歌山県,和歌山市,和佐関戸２２番地１,,30,201,6496322,,,,,,,2023-11-01,1,,,,,アットホームファーマシー,0
1078,4180001158741,新規,0,2023-11-01,2023-11-01,株式会社ｃｏｚｙ　ｌａｂ,,株式会社,愛知県,名古屋市緑区,作の山町２００番地,,23,114,4580038,,,,,,,2023-11-01,1,,,,,コジーラボ,0
1080,4180003025931,新規,0,2023-11-01,2023-11-01,ｆｒｅｅｓｉａ合同会社,,合同会社,愛知県,名古屋市東区,代官町３４番１６号ＧＲＡＮ　ＤＵＫＥ代官町１５０１,,23,102,4610002,,,,,,,2023-11-01,1,,,,,フリージア,0
1081,4180005020410,新規,0,2023-11-01,2023-11-01,一般社団法人にじ色福祉会,,その他の設立登記法人,愛知県,名古屋市守山区,大字中志段味字大洞口２７４１番地の８,,23,113,4630002,,,,,,,2023-11-01,1,,,,,ニジイロフクシカイ,0
1109,4290003014543,新規,0,2023-11-01,2023-11-01,合同会社ＡＫデザイン,,合同会社,福岡県,古賀市,千鳥６丁目２２－１３,,40,223,8113113,,,,,,,2023-11-01,1,,,,,,0
1110,4290801030007,新規,0,2023-11-01,2023-11-01,株式会社ヴォイス・オブ・ネイチャー,,株式会社,福岡県,築上郡上毛町,大字東下１４７７番地２,,40,646,8710922,,,,,,,2023-11-01,1,,,,,ヴォイスオブネイチャー,0
1111,4310001018691,新規,0,2023-11-01,2023-11-01,株式会社Ｔａｃ,,株式会社,長崎県,長崎市,浜町３番１２－５０３号,,42,201,8500853,,,,,,,2023-11-01,1,,,,,タック,0
1116,4330001031404,新規,0,2023-11-01,2023-11-01,株式会社やまと,,株式会社,熊本県,上益城郡山都町,下市１１２番地,,43,447,8613513,,,,,,,2023-11-01,1,,,,,ヤマト,0
1128,4370001050581,新規,0,2023-11-01,2023-11-01,株式会社Ｎｏｉｘ,,株式会社,宮城県,仙台市青葉区,木町通１丁目８番３４号,,04,101,9800801,,,,,,,2023-11-01,1,,,,,ノワ,0
1137,4400003003170,新規,0,2023-11-01,2023-11-01,合同会社Ｓｈｅｅｐ　Ｉｍｐａｃｔ,,合同会社,岩手県,盛岡市,中太田新田２５番地８３０,,03,201,0200052,,,,,,,2023-11-01,1,,,,,シープインパクト,0
1140,4410001013633,新規,0,2023-11-01,2023-11-01,株式会社スーベニア,,株式会社,秋田県,湯沢市,稲庭町字南ケ沢１０９番地６,,05,207,0120107,,,,,,,2023-11-01,1,,,,,スーベニア,0
1144,4430001090316,新規,0,2023-11-01,2023-11-01,株式会社ＲＥＩカンパニー,,株式会社,北海道,札幌市中央区,南二十条西９丁目１番２３－１０１号,,01,101,0640920,,,,,,,2023-11-01,1,,,,,レイカンパニー,0
1145,4430001090324,新規,0,2023-11-01,2023-11-01,株式会社ＨＯＫＫＡＩＤＯすたんだあど,,株式会社,北海道,札幌市中央区,北四条東２丁目８番地,,01,101,0600034,,,,,,,2023-11-01,1,,,,,ホッカイドウスタンダアド,0
1146,4430001090332,新規,0,2023-11-01,2023-11-01,ｇｒｏｗｅｕｒｅｋａ株式会社,,株式会社,北海道,札幌市東区,北十七条東１７丁目２番１５－４０２号,,01,103,0650017,,,,,,,2023-11-01,1,,,,,グロウエウレカ,0
1153,4430003015568,新規,0,2023-11-01,2023-11-01,合同会社さくら,,合同会社,北海道,札幌市西区,西野五条１丁目４－１０,,01,107,0630035,,,,,,,2023-11-01,1,,,,,サクラ,0
1154,4430005014824,新規,0,2023-11-01,2023-11-01,一般社団法人北海道宅地建物総合研究所,,その他の設立登記法人,北海道,札幌市西区,西野二条１丁目２番１３－６０３号,,01,107,0630032,,,,,,,2023-11-01,1,,,,,ホッカイドウタクチタテモノソウゴウケンキュウジョ,0
1158,4460301005177,新規,0,2023-11-01,2023-11-01,株式会社むくの羽,,株式会社,北海道,北見市,新生町６０番地１６,,01,208,0900815,,,,,,,2023-11-01,1,,,,,ムクノハネ,0
1164,4700150121629,新規,0,2023-11-01,2023-11-01,Ｓｈｅｎｚｈｅｎ　Ｆｅｉｙｉｊｉａ　Ｅｃｏｍｍｅｒｃｅ　Ｃｏ．，ＬＴＤ,,外国会社等,,,,,,,,ＳｈｅｎＺｈｅｎｓｈｉ　Ｌｏｎｇｇａｎｇ　Ｙｕａｎｓｈａｎｊｉｅｄａｏ　Ｂａｏａｎ　ｓｈｅｑｕ　Ｍａｗｕｌｕ１ｈａｏ２ｄｏｎｇ３０１Ｃ１１１,,,,,,2023-11-01,1,,,,,シェンジェンフェイイージャーディエンズーシャンウーヨウシエンゴンスー,0
1165,4700150121694,新規,0,2023-11-01,2023-11-01,Ｎｉｎｇｂｏ　ｇａｏｐｕ　ｈｕｗａｉｙｏｎｇｐｉｎ　ｙｏｕｘｉａｎｇｏｎｇｓｉ,,外国会社等,,,,,,,,ｎｉｎｇｈａｉ　ｓｈｅｎｚｈｅｎｇｚｈｅｎｓｈｅｎｚｈｅｎｇｃｕｎｎｉｎｇｂｏｚｈｅｊｉａｎｇ３１５６１４ＣＮ,,,,,,2023-11-01,1,,,,,ニンボーガオプーフーワイヨンピンヨウシエンゴンスー,0
1166,4700150121703,新規,0,2023-11-01,2023-11-01,ＳＵＳＡＪＥＥ　ＰＲＩＶＡＴＥ　ＬＩＭＩＴＥＤ,,外国会社等,千葉県,大網白里市,四天木乙２３８１ルーム０２,,12,239,2993203,スリランカ、コロンボ、マーコラ、マーコラ南、サプガスカンダ、サムルデマーワタ、Ｎｏ７０／１,,,,,,2023-11-01,1,,,,,スサジープライベートリミテツド,0
1177,5010001239334,新規,0,2023-11-01,2023-11-01,華玉科技日本株式会社,,株式会社,東京都,文京区,湯島１丁目２－５聖堂前ビル３Ｆ,,13,105,1130034,,,,,,,2023-11-01,1,,,,,カギョクカギニホン,0
1178,5010001239573,新規,0,2023-11-01,2023-11-01,三ツ目株式会社,,株式会社,東京都,中央区,銀座１丁目２２番１１号銀座大竹ビジデンス２階,,13,102,1040061,,,,,,,2023-11-01,1,,,,,ミツメ,0
1179,5010001239714,新規,0,2023-11-01,2023-11-01,株式会社Ｌ．Ｙ．Ｅ,,株式会社,東京都,中央区,日本橋室町１丁目１１番１２号日本橋水野ビル７階,,13,102,1030022,,,,,,,2023-11-01,1,,,,,ライ,0
1181,5010003042075,新規,0,2023-11-01,2023-11-01,ＬＥＶＥＣＨＹファンド１０号合同会社,,合同会社,東京都,千代田区,紀尾井町３－８第２紀尾井町ビル９０１アクシス綜合会計事務所内,,13,101,1020094,,,,,,,2023-11-01,1,,,,,レベチーファンドジュウゴウ,0
1182,5010003042091,新規,0,2023-11-01,2023-11-01,ＳＣＣ合同会社,,合同会社,東京都,千代田区,一ツ橋２丁目６番３号アクシスインベストメントアドバイザーズ株式会社内,,13,101,1010003,,,,,,,2023-11-01,1,,,,,エスシーシー,0
1186,5010005037453,新規,0,2023-11-01,2023-11-01,一般社団法人個人事業主支援機構,,その他の設立登記法人,東京都,中央区,銀座１丁目１２番４号Ｎ＆ＥＢＬＤ．６Ｆ,,13,102,1040061,,,,,,,2023-11-01,1,,,,,コジンジギョウヌシシエンキコウ,0
1192,5010403031272,新規,0,2023-11-01,2023-11-01,合同会社事業承継三田会,,合同会社,東京都,港区,芝５丁目２７番３号三田ビジネスセンター,,13,103,1080014,,,,,,,2023-11-01,1,,,,,ジギョウショウケイミタカイ,0
1196,5010601064066,新規,0,2023-11-01,2023-11-01,Ｙｓ株式会社,,株式会社,東京都,江東区,平野２丁目８－１０－９０５,,13,108,1350023,,,,,,,2023-11-01,1,,,,,ワイズ,0
1197,5010601064074,新規,0,2023-11-01,2023-11-01,株式会社虹山工務店,,株式会社,東京都,江東区,亀戸２丁目８番５号大木マンション１Ｆ,,13,108,1360071,,,,,,,2023-11-01,1,,,,,ニジヤマコウムテン,0
1207,5010903008555,新規,0,2023-11-01,2023-11-01,合同会社ｓｋ．ＨＯＵＳＥ,,合同会社,東京都,世田谷区,赤堤４丁目１６番２号,,13,112,1560044,,,,,,,2023-11-01,1,,,,,エスケイハウス,0
1208,5010903008563,新規,0,2023-11-01,2023-11-01,ＴＴ＆Ｐａｒｔｎｅｒｓ合同会社,,合同会社,東京都,世田谷区,代田１丁目６－６,,13,112,1550033,,,,,,,2023-11-01,1,,,,,ティーティーアンドパートナーズ,0
1214,5011001157930,新規,0,2023-11-01,2023-11-01,美カース株式会社,,株式会社,東京都,渋谷区,渋谷２丁目５番９号パル青山１０１,,13,113,1500002,,,,,,,2023-11-01,1,,,,,ビカース,0
1215,5011001157988,新規,0,2023-11-01,2023-11-01,ＧＭＯ教えてＡＩ株式会社,,株式会社,東京都,渋谷区,桜丘町２６番１号,,13,113,1500031,,,,,,,2023-11-01,1,,,,,ジーエムオーオシエテエーアイ,0
1216,5011003017819,新規,0,2023-11-01,2023-11-01,合同会社大蛇流通,,合同会社,東京都,渋谷区,道玄坂１丁目１０番８号渋谷道玄坂東急ビル２Ｆ－Ｃ,,13,113,1500043,,,,,,,2023-11-01,1,,,,,オロチリュウツウ,0
1217,5011003017851,新規,0,2023-11-01,2023-11-01,上州アグリソーラー合同会社,,合同会社,東京都,渋谷区,渋谷３丁目１９番１号オミビル７Ｆ,,13,113,1500002,,,,,,,2023-11-01,1,,,,,ジョウシュウアグリソーラー,0
1223,5011101104881,新規,0,2023-11-01,2023-11-01,株式会社ヤマト,,株式会社,東京都,新宿区,西新宿３丁目７番２１号陽輪台西新宿１００３,,13,104,1600023,,,,,,,2023-11-01,1,,,,,ヤマト,0
1224,5011101104980,新規,0,2023-11-01,2023-11-01,株式会社ＢＩＬＬＩＯＮ,,株式会社,東京都,新宿区,西新宿３丁目３番１３号西新宿水間ビル６階,,13,104,1600023,,,,,,,2023-11-01,1,,,,,ビリオン,0
1227,5011103013692,新規,0,2023-11-01,2023-11-01,合同会社オーマルシェ,,合同会社,東京都,新宿区,大京町２１番１２号,,13,104,1600015,,,,,,,2023-11-01,1,,,,,オーマルシェ,0
1228,5011201025012,新規,0,2023-11-01,2023-11-01,株式会社ｍｏｆｆ,,株式会社,東京都,中野区,鷺宮１丁目３１番１２号ルレーブカノウ３０２,,13,114,1650032,,,,,,,2023-11-01,1,,,,,モフ,0
1237,5012403006246,新規,0,2023-11-01,2023-11-01,合同会社ＧＯＬＤ　Ｃ,,合同会社,東京都,武蔵野市,桜堤１丁目６番２１号,,13,203,1800021,,,,,,,2023-11-01,1,,,,,ゴールドシー,0
1238,5012801022737,新規,0,2023-11-01,2023-11-01,株式会社黒瀧工業,,株式会社,東京都,立川市,羽衣町３丁目３番１９号ユーウエスト国立２０６,,13,202,1900021,,,,,,,2023-11-01,1,,,,,クロタキコウギョウ,0
1241,5013305003538,新規,0,2023-11-01,2023-11-01,一般社団法人未来企画会議,,その他の設立登記法人,東京都,豊島区,東池袋１丁目１７番１１号パークハイツ池袋１１０５号,,13,116,1700013,,,,,,,2023-11-01,1,,,,,ミライキカクカイギ,0
1244,5020001154152,新規,0,2023-11-01,2023-11-01,Ｓｔｅｌｌａｎｏ　Ａｓｓｅｔ　Ｈｏｌｄｉｎｇｓ株式会社,,株式会社,神奈川県,横浜市西区,宮崎町５６番地１プレシス横濱紅葉坂２０３号,,14,103,2200031,,,,,,,2023-11-01,1,,,,,ステラノアセットホールディングス,0
1245,5020001154235,新規,0,2023-11-01,2023-11-01,株式会社ラビット,,株式会社,神奈川県,横浜市港北区,大豆戸町９３１番地１グリーンコーポ大倉山Ａ棟２１１,,14,109,2220032,,,,,,,2023-11-01,1,,,,,ラビット,0
1246,5020001154268,新規,0,2023-11-01,2023-11-01,株式会社ＣＲＥＡ,,株式会社,神奈川県,横浜市港南区,笹下６丁目３９－１３－１０２,,14,111,2340052,,,,,,,2023-11-01,1,,,,,クレア,0
1251,5020003024857,新規,0,2023-11-01,2023-11-01,合同会社ＬｉｔｈｅｒＢａｓｅ,,合同会社,神奈川県,横浜市西区,浅間町１丁目４番３号ウィザードビル４０２,,14,103,2200072,,,,,,,2023-11-01,1,,,,,ライザーベース,0
1252,5020003024898,新規,0,2023-11-01,2023-11-01,ＲＥＣジャパン合同会社,,合同会社,神奈川県,川崎市中原区,小杉御殿町１丁目８８４番地ＴＨＥＧＲＡＮＤＲＥＳＩＤＥＮＣＥ４０５,,14,133,2110068,,,,,,,2023-11-01,1,,,,,リアルエステートカンパニージャパン,0
1255,5021001080611,新規,0,2023-11-01,2023-11-01,株式会社ヤマト商事,,株式会社,神奈川県,相模原市南区,豊町１０番５１号１０２,,14,153,2520305,,,,,,,2023-11-01,1,,,,,ヤマトショウジ,0
1273,5030001156932,新規,0,2023-11-01,2023-11-01,株式会社ＢＥＳＭＯ,,株式会社,埼玉県,さいたま市大宮区,桜木町２丁目１８２番地１日神パレステージ大宮シティ３０５,,11,103,3300854,,,,,,,2023-11-01,1,,,,,ベスモ,0
1283,5030005021455,新規,0,2023-11-01,2023-11-01,医療法人こども未来ひろ小児科ファミリークリニック,,その他の設立登記法人,埼玉県,川口市,上青木３丁目３番１号,,11,203,3330844,,,,,,,2023-11-01,1,,,,,コドモミライヒロショウニカファミリークリニック,0
1291,5040001130663,新規,0,2023-11-01,2023-11-01,株式会社Ａ‐ＣＲＡＦＴ,,株式会社,千葉県,市川市,南大野１丁目４７－３２－５０６号クレストフォルム市川ウッドスクエア,,12,203,2720804,,,,,,,2023-11-01,1,,,,,エークラフト,0
1292,5040001130746,新規,0,2023-11-01,2023-11-01,株式会社Ｖｉｎｃｕｌｕｍ,,株式会社,千葉県,船橋市,本中山４丁目２０番８号シャルムメゾン２０１号,,12,204,2730035,,,,,,,2023-11-01,1,,,,,ヴィンキュラム,0
1293,5040001130762,新規,0,2023-11-01,2023-11-01,株式会社ＧＩＦＴＶＯＸ　ＪＡＰＡＮ,,株式会社,千葉県,千葉市美浜区,中瀬１丁目６エムベイポイント幕張１４階,,12,106,2610023,,,,,,,2023-11-01,1,,,,,ギフトボックスジャパン,0
1303,5040003023634,新規,0,2023-11-01,2023-11-01,合同会社Ｔ‐ＲＥＸ,,合同会社,千葉県,千葉市若葉区,東寺山町１０７２番地４２,,12,104,2640035,,,,,,,2023-11-01,1,,,,,ティーレックス,0
1304,5040003023659,新規,0,2023-11-01,2023-11-01,ＥＳＤＥＥ　ＴＲＡＤＩＮＧ合同会社,,合同会社,千葉県,山武郡芝山町,新井田字屋敷下６４６番１ーＤー３,,12,409,2891625,,,,,,,2023-11-01,1,,,,,エスディートレーディング,0
1309,5050001053681,新規,0,2023-11-01,2023-11-01,株式会社ＭｉｃｈａｅｌｓＭｉｓｈｍａｒｕ,,株式会社,茨城県,つくば市,中根５８１番地,,08,220,3050012,,,,,,,2023-11-01,1,,,,,ミカエルズミシュマル,0
1317,5080001025959,新規,0,2023-11-01,2023-11-01,株式会社アステート,,株式会社,静岡県,静岡市葵区,唐瀬２丁目９番５－６号,,22,101,4200937,,,,,,,2023-11-01,1,,,,,アステート,0
1319,5080003003087,新規,0,2023-11-01,2023-11-01,合同会社耀月,,合同会社,静岡県,静岡市駿河区,中田３丁目８－１２,,22,102,4228041,,,,,,,2023-11-01,1,,,,,ヒヅキ,0
1321,5090001018400,新規,0,2023-11-01,2023-11-01,株式会社リンク,,株式会社,山梨県,甲州市,勝沼町等々力１６４１番地,,19,213,4091315,,,,,,,2023-11-01,1,,,,,リンク,0
1335,5120001259313,新規,0,2023-11-01,2023-11-01,ＭＹ　ＢＡＳＥ株式会社,,株式会社,大阪府,大阪市北区,天満３丁目１－５南天満ビル３０２号,,27,127,5300043,,,,,,,2023-11-01,1,,,,,マイベース,0
1336,5120001259395,新規,0,2023-11-01,2023-11-01,株式会社Ｅ’ｔｏｉｌｅ,,株式会社,大阪府,大阪市港区,夕凪１丁目９－９プレアール夕凪１－Ａ,,27,107,5520004,,,,,,,2023-11-01,1,,,,,エトワール,0
1337,5120001259404,新規,0,2023-11-01,2023-11-01,関西マリンサービス株式会社,,株式会社,大阪府,大阪市住之江区,平林北２丁目７番６号Ｅ号室,,27,125,5590026,,,,,,,2023-11-01,1,,,,,カンサイマリンサービス,0
1338,5120001259412,新規,0,2023-11-01,2023-11-01,鴻運株式会社,,株式会社,大阪府,大阪市浪速区,恵美須西３丁目１０－１１－２０２号室,,27,111,5560003,,,,,,,2023-11-01,1,,,,,コウウン,0
1339,5120001259429,新規,0,2023-11-01,2023-11-01,株式会社ＳＭＩＬＥ　ＳＳＵＮ,,株式会社,大阪府,大阪市中央区,難波４丁目１番１５号リージャス近鉄難波ビル１１８号室,,27,128,5420076,,,,,,,2023-11-01,1,,,,,スマイルサン,0
1347,5120101068473,新規,0,2023-11-01,2023-11-01,引越匠ｕ株式会社,,株式会社,大阪府,羽曳野市,野２５５番１,,27,222,5830884,,,,,,,2023-11-01,1,,,,,ヒッコシタクミユー,0
1349,5130001075577,新規,0,2023-11-01,2023-11-01,株式会社グリンテック,,株式会社,京都府,長岡京市,勝竜寺尻細１３番地３０,,26,209,6170836,,,,,,,2023-11-01,1,,,,,グリンテック,0
1350,5130001075585,新規,0,2023-11-01,2023-11-01,株式会社ＳＴＡＲ・ＬＡＮＤＳ,,株式会社,京都府,京都市右京区,西院四条畑町１番地２２－２Ｆ,,26,108,6150066,,,,,,,2023-11-01,1,,,,,スターランズ,0
1355,5140001132179,新規,0,2023-11-01,2023-11-01,コステージ・ラン株式会社,,株式会社,兵庫県,神戸市中央区,御幸通８丁目１番６号神戸国際会館２２階,,28,110,6510087,,,,,,,2023-11-01,1,,,,,コステージラン,0
1357,5140003019754,新規,0,2023-11-01,2023-11-01,合同会社フナヤ工防,,合同会社,兵庫県,姫路市,砥堀４３８番地１,,28,201,6700802,,,,,,,2023-11-01,1,,,,,フナヤコウボウ,0
1360,5170003001940,新規,0,2023-11-01,2023-11-01,合同会社Ｍｅｄｉｃａｌ　Ｒｅｌｉａｎｃｅ,,合同会社,和歌山県,和歌山市,つつじが丘６丁目６番地２,,30,201,6400115,,,,,,,2023-11-01,1,,,,,メディカルリライアンス,0
1368,5180001158716,新規,0,2023-11-01,2023-11-01,株式会社アティンカヤ,,株式会社,愛知県,一宮市,時之島字円明寺１０番地２,,23,203,4910002,,,,,,,2023-11-01,1,,,,,アティンカヤ,0
1369,5180001158724,新規,0,2023-11-01,2023-11-01,株式会社エイ・トゥ・ズィコンサルティング,,株式会社,愛知県,名古屋市中区,錦３丁目１１番２５号アーク栄錦ニュービジネスビル５２１号,,23,106,4600003,,,,,,,2023-11-01,1,,,,,エイトゥズィコンサルティング,0
1372,5180301037966,新規,0,2023-11-01,2023-11-01,株式会社アグリシステム,,株式会社,愛知県,岡崎市,稲熊町字猫沢１４番地,,23,202,4440071,,,,,,,2023-11-01,1,,,,,アグリシステム,0
1375,5190003004495,新規,0,2023-11-01,2023-11-01,ＳＡＫＵＲＡ　ＭＯＴＯＲＳ合同会社,,合同会社,三重県,四日市市,室山町１７６０番地パークホームズイトウＡ－１０６,,24,202,5100948,,,,,,,2023-11-01,1,,,,,サクラモータース,0
1398,5290001103594,新規,0,2023-11-01,2023-11-01,株式会社グロウス,,株式会社,福岡県,八女市,星野村１４８８９番地１,,40,210,8340201,,,,,,,2023-11-01,1,,,,,グロウス,0
1400,5290003014559,新規,0,2023-11-01,2023-11-01,合同会社秀建,,合同会社,福岡県,福岡市博多区,博多駅前１丁目２２番１９－７０１号セルクル北方,,40,132,8120011,,,,,,,2023-11-01,1,,,,,シュウケン,0
1402,5290801030006,新規,0,2023-11-01,2023-11-01,株式会社Ｈ・Ｄ・システム,,株式会社,福岡県,北九州市小倉南区,下城野２丁目５番１１号,,40,107,8020804,,,,,,,2023-11-01,1,,,,,エイチディシステム,0
1415,5330001031411,新規,0,2023-11-01,2023-11-01,株式会社瀬ノ上,,株式会社,熊本県,熊本市東区,鹿帰瀬町２２番地４,,43,102,8618011,,,,,,,2023-11-01,1,,,,,セノウエ,0
1419,5360001032761,新規,0,2023-11-01,2023-11-01,株式会社Ａｉｒ‐Ｃｌｅａｎ　Ｌｉｆｅ,,株式会社,沖縄県,うるま市,字平良川９７－２０,,47,213,9042221,,,,,,,2023-11-01,1,,,,,エアクリーンライフ,0
1421,5360003013438,新規,0,2023-11-01,2023-11-01,旅道楽たかしゅん合同会社,,合同会社,沖縄県,那覇市,字安里４１４番地１４ＴＯＹＯサンハウス３０１,,47,201,9020067,,,,,,,2023-11-01,1,,,,,タビドウラクタカシュン,0
1442,5430001090298,新規,0,2023-11-01,2023-11-01,株式会社はなそら,,株式会社,北海道,札幌市豊平区,中の島二条３丁目１番１号グリーンコーポ中の島１０３号室,,01,105,0620922,,,,,,,2023-11-01,1,,,,,ハナソラ,0
1446,5430003015476,新規,0,2023-11-01,2023-11-01,合同会社ｐＶ２,,合同会社,北海道,空知郡奈井江町,字奈江原野２２５６－３３,,01,424,0790300,,,,,,,2023-11-01,1,,,,,,0
1447,5430003015567,新規,0,2023-11-01,2023-11-01,合同会社ｆａｒｍｅｒｓ　ｒｏｃｋ．ｇ,,合同会社,北海道,札幌市白石区,栄通１１丁目１－３３,,01,104,0030021,,,,,,,2023-11-01,1,,,,,ファーマーズロックグループ,0
1448,5430003015575,新規,0,2023-11-01,2023-11-01,サンハイム合同会社,,合同会社,北海道,札幌市豊平区,豊平三条３丁目１番１２－２０１号,,01,105,0620903,,,,,,,2023-11-01,1,,,,,サンハイム,0
1449,5430005014823,新規,0,2023-11-01,2023-11-01,特定非営利活動法人ノマド,,その他の設立登記法人,北海道,札幌市北区,北三十三条西６丁目２番１５－１０６号,,01,102,0010033,,,,,,,2023-11-01,1,,,,,ノマド,0
1452,5460303000803,新規,0,2023-11-01,2023-11-01,合同会社Ｗｅｌｌ‐Ｂｅ,,合同会社,北海道,北見市,曙町６６４－２６,,01,208,0900011,,,,,,,2023-11-01,1,,,,,ウェルビー,0
1457,5700150121628,新規,0,2023-11-01,2023-11-01,ｇｕａｎｇｚｈｏｕｓｈｉｆｅｎｇｚｈｉｄｉａｎｚｉｙｏｕｘｉａｎｇｏｎｇｓｉ,,外国会社等,,,,,,,,Ｎｏ．６５，Ｍｉｓｈｉ　Ｒｏａｄ，Ｙｕｅｘｉｕ　Ｄｉｓｔｒｉｃｔ，Ｇｕａｎｇｚｈｏｕ，Ｃｈｉｎａ,,,,,,2023-11-01,1,,,,,グワンジョウシーフォンジーディエンズーヨウシエンゴンスー,0
1458,5700150121693,新規,0,2023-11-01,2023-11-01,開暘科技工程有限公司,,外国会社等,熊本県,熊本市中央区,桜町２番１７号第２甲斐田ビル１階,,43,101,8600805,台湾新竹県竹北市自強南路２１０号４階,,,,,,2023-11-01,1,,,,,カイヤンカギコウテイユウゲンコウシ,0
1459,5700150121702,新規,0,2023-11-01,2023-11-01,ＢＲＡＫＥＳ　ＩＮＤＩＡ　ＰＲＩＶＡＴＥ　ＬＩＭＩＴＥＤ,,外国会社等,静岡県,浜松市中区,板屋町１０２－１５河合ビルｉ１,,22,131,4300928,インド国チェンナイ市パトゥロスロード２１番,,,,,,2023-11-01,1,,,,,ブレイクスインデイアプライベートリミテツド,0
1464,6010001239671,新規,0,2023-11-01,2023-11-01,株式会社アルファージョイ,,株式会社,東京都,中央区,東日本橋３丁目８番１号東日本コーポラス７０１,,13,102,1030004,,,,,,,2023-11-01,1,,,,,アルファージョイ,0
1465,6010001239688,新規,0,2023-11-01,2023-11-01,株式会社ＳＴＳデジタル,,株式会社,東京都,千代田区,麹町２丁目５番地１,,13,101,1020083,,,,,,,2023-11-01,1,,,,,エスティーエスデジタル,0
1466,6010001239721,新規,0,2023-11-01,2023-11-01,東京銀船高分子株式会社,,株式会社,東京都,中央区,入船３丁目１－１０中銀京橋マンション３０４号,,13,102,1040042,,,,,,,2023-11-01,1,,,,,トウキョウギンフネコウブンシ,0
1467,6010003042000,新規,0,2023-11-01,2023-11-01,合同会社Ｈｉｄｅ＆Ｇｅｅｋ,,合同会社,東京都,中央区,新川１丁目３－２１,,13,102,1040033,,,,,,,2023-11-01,1,,,,,ハイドアンドギーク,0
1474,6010405022624,新規,0,2023-11-01,2023-11-01,一般社団法人Ｅ・Ｊ・Ａ・ＴＯＫＹＯ,,その他の設立登記法人,東京都,港区,高輪２丁目１２番５６－１１５号,,13,103,1080074,,,,,,,2023-11-01,1,,,,,イージェイエートウキョウ,0
1480,6010601064057,新規,0,2023-11-01,2023-11-01,株式会社エイチツーアセット,,株式会社,東京都,江東区,新砂３丁目４番４３－１１５号,,13,108,1360075,,,,,,,2023-11-01,1,,,,,エイチツーアセット,0
1482,6010801034479,新規,0,2023-11-01,2023-11-01,株式会社Ｎｅｏ　Ｈｏｕｓｅ,,株式会社,東京都,大田区,矢口１丁目２０番３号,,13,111,1460093,,,,,,,2023-11-01,1,,,,,ネオハウス,0
1487,6010903008562,新規,0,2023-11-01,2023-11-01,合同会社智勇仁,,合同会社,東京都,世田谷区,松原１丁目７番７号,,13,112,1560043,,,,,,,2023-11-01,1,,,,,チユウジン,0
1494,6011003017818,新規,0,2023-11-01,2023-11-01,花壬コンサルティング合同会社,,合同会社,東京都,渋谷区,恵比寿西２丁目８番４号,,13,113,1500021,,,,,,,2023-11-01,1,,,,,カジンコンサルティング,0
1499,6011101104880,新規,0,2023-11-01,2023-11-01,株式会社さくら,,株式会社,東京都,新宿区,西新宿３丁目７番２１号陽輪台西新宿１００３,,13,104,1600023,,,,,,,2023-11-01,1,,,,,サクラ,0
1500,6011101104897,新規,0,2023-11-01,2023-11-01,株式会社Ｌ．,,株式会社,東京都,新宿区,西新宿３丁目３番１３号西新宿水間ビル６階,,13,104,1600023,,,,,,,2023-11-01,1,,,,,エルドット,0
1502,6011103013691,新規,0,2023-11-01,2023-11-01,５６５６合同会社,,合同会社,東京都,新宿区,西新宿３丁目３番１３号西新宿水間ビル６階,,13,104,1600023,,,,,,,2023-11-01,1,,,,,ゴロゴロ,0
1506,6011501029942,新規,0,2023-11-01,2023-11-01,久一機械貿易株式会社,,株式会社,東京都,荒川区,西日暮里４丁目１６－３－１０１室,,13,118,1160013,,,,,,,2023-11-01,1,,,,,キュウイチキカイボウエキ,0
1514,6011802031135,新規,0,2023-11-01,2023-11-01,有限会社高際商店,,有限会社,東京都,足立区,西新井１丁目７番８号,,13,121,1230841,,,,,,,2023-11-01,1,,,,,タカギワショウテン,0
1522,6013301051564,新規,0,2023-11-01,2023-11-01,株式会社ＨＫ,,株式会社,東京都,豊島区,南大塚３丁目３２－７メッツ大塚３０２,,13,116,1700005,,,,,,,2023-11-01,1,,,,,エイチケー,0
1523,6013303006863,新規,0,2023-11-01,2023-11-01,レッドノーズミュージック合同会社,,合同会社,東京都,豊島区,池袋２丁目１２番９号廣瀬ビル３－２階,,13,116,1710014,,,,,,,2023-11-01,1,,,,,レッドノーズミュージック,0
1529,6020001154259,新規,0,2023-11-01,2023-11-01,株式会社メイク・スリー,,株式会社,神奈川県,川崎市幸区,小倉３丁目２６番１８号,,14,132,2120054,,,,,,,2023-11-01,1,,,,,メイクスリー,0
1536,6020003024889,新規,0,2023-11-01,2023-11-01,青芭合同会社,,合同会社,神奈川県,横浜市金沢区,釜利谷東２丁目１６番７号マンションことぶき２０２号,,14,108,2360042,,,,,,,2023-11-01,1,,,,,アオバ,0
1537,6020003024897,新規,0,2023-11-01,2023-11-01,シーアイアール合同会社,,合同会社,神奈川県,横浜市港北区,新吉田東４丁目１－１１,,14,109,2230058,,,,,,,2023-11-01,1,,,,,シーアイアール,0
1540,6020005016166,新規,0,2023-11-01,2023-11-01,一般社団法人明之會,,その他の設立登記法人,神奈川県,横浜市神奈川区,神大寺４丁目２４番１６号,,14,102,2210801,,,,,,,2023-11-01,1,,,,,メイノカイ,0
1562,6030003022727,新規,0,2023-11-01,2023-11-01,ＹＡＺＩＹＡ　ＴＲＡＤＩＮＧ合同会社,,合同会社,埼玉県,羽生市,大字今泉５４４番地イエロータウン１,,11,216,3480017,,,,,,,2023-11-01,1,,,,,ヤスヤトレーディング,0
1563,6030003022909,新規,0,2023-11-01,2023-11-01,石川商会合同会社,,合同会社,埼玉県,さいたま市緑区,大字上野田５４８番地２,,11,109,3360977,,,,,,,2023-11-01,1,,,,,イシカワショウカイ,0
1573,6040001130662,新規,0,2023-11-01,2023-11-01,株式会社ＨＩ‐ＴＥＣＨ,,株式会社,千葉県,習志野市,本大久保４丁目１５番８号,,12,216,2750012,,,,,,,2023-11-01,1,,,,,ハイテック,0
1574,6040001130753,新規,0,2023-11-01,2023-11-01,誠建設株式会社,,株式会社,千葉県,松戸市,小山５１６番地の２,,12,207,2710093,,,,,,,2023-11-01,1,,,,,マコトケンセツ,0
1575,6040001130761,新規,0,2023-11-01,2023-11-01,ベルストーン株式会社,,株式会社,千葉県,松戸市,八ケ崎２丁目１３－５－８０５号,,12,207,2700023,,,,,,,2023-11-01,1,,,,,ベルストーン,0
1578,6040003023658,新規,0,2023-11-01,2023-11-01,Ｂｒｏｔｈｅｒｓ　ｉｎｔｅｒｎａｔｉｏｎａｌ合同会社,,合同会社,千葉県,白井市,白井字東郷３９３番地５,,12,232,2701421,,,,,,,2023-11-01,1,,,,,ブラザーズインターナショナル,0
1580,6040005022179,新規,0,2023-11-01,2023-11-01,一般社団法人ルームイチＲＵＵＭＵＩＣＨＩ,,その他の設立登記法人,千葉県,松戸市,松戸新田５８９番地の１オリオン１０３号,,12,207,2702241,,,,,,,2023-11-01,1,,,,,ルームイチ,0
1584,6050001053755,新規,0,2023-11-01,2023-11-01,愛協建設株式会社,,株式会社,茨城県,水戸市,白梅１丁目６番２２号,,08,201,3100804,,,,,,,2023-11-01,1,,,,,アイキョウケンセツ,0
1585,6050003007908,新規,0,2023-11-01,2023-11-01,合同会社さとり,,合同会社,茨城県,かすみがうら市,稲吉２丁目１７－１川井ビル１０２号,,08,230,3150054,,,,,,,2023-11-01,1,,,,,サトリ,0
1588,6060003004788,新規,0,2023-11-01,2023-11-01,合同会社栃木商会,,合同会社,栃木県,足利市,板倉町５８９番地５Ｂ,,09,202,3260102,,,,,,,2023-11-01,1,,,,,トチギショウカイ,0
1590,6080001025958,新規,0,2023-11-01,2023-11-01,株式会社ＨＡＲＺ,,株式会社,静岡県,静岡市駿河区,丸子７丁目７番４７－２号,,22,102,4210103,,,,,,,2023-11-01,1,,,,,ハーツ,0
1595,6080101024307,新規,0,2023-11-01,2023-11-01,ＥＡＳＴ　ＶＩＬＬＡＧＥ株式会社,,株式会社,静岡県,賀茂郡東伊豆町,白田１８５番地３,,22,301,4130304,,,,,,,2023-11-01,1,,,,,イーストヴィレッジ,0
1612,6120001259394,新規,0,2023-11-01,2023-11-01,株式会社エナジーストック,,株式会社,大阪府,大阪市浪速区,恵美須西１丁目４番１９号,,27,111,5560003,,,,,,,2023-11-01,1,,,,,エナジーストック,0
1613,6120001259452,新規,0,2023-11-01,2023-11-01,ＴＯＫＵＧＥＮ株式会社,,株式会社,大阪府,大阪市西成区,花園南１丁目１０番３号Ｃ１０２号室,,27,122,5570015,,,,,,,2023-11-01,1,,,,,トクゲン,0
1614,6120001259460,新規,0,2023-11-01,2023-11-01,株式会社ＡＫＩＴＥＣ,,株式会社,大阪府,枚方市,野村北町３１番１２号,,27,210,5730143,,,,,,,2023-11-01,1,,,,,アキテック,0
1615,6120001259485,新規,0,2023-11-01,2023-11-01,株式会社翔栄,,株式会社,大阪府,大阪市浪速区,芦原２丁目５番３９号,,27,111,5560029,,,,,,,2023-11-01,1,,,,,ショウエイ,0
1616,6120003025266,新規,0,2023-11-01,2023-11-01,合同会社Ｋｉｔｏｎｅ,,合同会社,大阪府,大阪市北区,梅田１丁目２番２号大阪駅前第２ビル１２‐１２,,27,127,5300001,,,,,,,2023-11-01,1,,,,,キトネ,0
1621,6120101068456,新規,0,2023-11-01,2023-11-01,株式会社Ｒｅｓｔａｒｔ,,株式会社,大阪府,富田林市,楠町４番５－４０７号,,27,214,5840041,,,,,,,2023-11-01,1,,,,,リスタート,0
1623,6120905006529,新規,0,2023-11-01,2023-11-01,一般社団法人産後親子支援推進協会,,その他の設立登記法人,大阪府,吹田市,千里山東１丁目１７－４１－１０１,,27,205,5650842,,,,,,,2023-11-01,1,,,,,サンゴオヤコシエンスイシンキョウカイ,0
1629,6130001075576,新規,0,2023-11-01,2023-11-01,株式会社水田ダンススタジオ,,株式会社,京都府,京都市中京区,釜座通三条上る突抜町７９３番地,,26,104,6048272,,,,,,,2023-11-01,1,,,,,ミズタダンススタジオ,0
1630,6130001075592,新規,0,2023-11-01,2023-11-01,順盛株式会社,,株式会社,京都府,京都市左京区,吉田中大路町２２－２０４,,26,103,6068313,,,,,,,2023-11-01,1,,,,,ジュンセイ,0
1633,6130003009078,新規,0,2023-11-01,2023-11-01,合同会社ダオ溶接工業,,合同会社,京都府,京都市南区,久世殿城町３２６番地７,,26,107,6018205,,,,,,,2023-11-01,1,,,,,ダオヨウセツコウギョウ,0
1643,6140001132178,新規,0,2023-11-01,2023-11-01,株式会社新之助事務所,,株式会社,兵庫県,たつの市,龍野町富永１４４番地２,,28,229,6794167,,,,,,,2023-11-01,1,,,,,シンノスケジムショ,0
1644,6140001132186,新規,0,2023-11-01,2023-11-01,株式会社４Ｃ．ｃｒｅａｔｅ,,株式会社,兵庫県,西宮市,六湛寺町９番１０号,,28,204,6620918,,,,,,,2023-11-01,1,,,,,フォーシークリエイト,0
1655,6180001158483,新規,0,2023-11-01,2023-11-01,株式会社クイング,,株式会社,愛知県,愛知郡東郷町,和合ケ丘２丁目５番地１８,,23,302,4700154,,,,,,,2023-11-01,1,,,,,クイング,0
1663,6180005020409,新規,0,2023-11-01,2023-11-01,一般社団法人くらすまいる保証協会,,その他の設立登記法人,愛知県,名古屋市昭和区,若柳町２丁目５番地,,23,107,4660036,,,,,,,2023-11-01,1,,,,,クラスマイルホショウキョウカイ,0
1665,6180301037965,新規,0,2023-11-01,2023-11-01,株式会社ＪＩＮＰＡ,,株式会社,愛知県,豊橋市,西幸町字浜池３３３番地の９豊橋サイエンスコア内４０１,,23,201,4418113,,,,,,,2023-11-01,1,,,,,ジンパ,0
1677,6240001062357,新規,0,2023-11-01,2023-11-01,株式会社ＳＷＡＮＮ,,株式会社,広島県,広島市西区,観音本町１丁目１４番１７－７０３号,,34,104,7330033,,,,,,,2023-11-01,1,,,,,スワン,0
1688,6260005011291,新規,0,2023-11-01,2023-11-01,特定非営利活動法人Ｗｏｒｌｄ　Ｈａｒｍｏｎｙ,,その他の設立登記法人,岡山県,岡山市北区,弓之町１５番４１号グローバルハウス９９－２０２,,33,101,7000817,,,,,,,2023-11-01,1,,,,,ワールドハーモニー,0
1693,6290003014533,新規,0,2023-11-01,2023-11-01,合同会社ＳＷＡＹ,,合同会社,福岡県,福岡市南区,大楠１丁目４番３－３０５号ピュアドーム日赤アベニュー,,40,134,8150082,,,,,,,2023-11-01,1,,,,,スウェイ,0
1698,6320002022871,新規,0,2023-11-01,2023-11-01,有限会社野間建材店,,有限会社,大分県,大分市,大字奥田４７４番地,,44,201,8700100,,,,,,,2023-11-01,1,,,,,,0
1699,6320005010106,新規,0,2023-11-01,2023-11-01,ＮＰＯ法人りんごのぞうさん,,その他の設立登記法人,大分県,宇佐市,大字森山１０８６番地の１,,44,211,8790311,,,,,,,2023-11-01,1,,,,,,0
1701,6330001031410,新規,0,2023-11-01,2023-11-01,株式会社ＢがＵＰ,,株式会社,熊本県,熊本市南区,田迎２丁目５番１５号,,43,104,8620962,,,,,,,2023-11-01,1,,,,,ビガップ,0
1702,6330003010057,新規,0,2023-11-01,2023-11-01,合同会社希望,,合同会社,熊本県,菊池市,隈府２３７―１８,,43,210,8611331,,,,,,,2023-11-01,1,,,,,ノゾミ,0
1709,6360003013429,新規,0,2023-11-01,2023-11-01,合同会社ＫＵＯ,,合同会社,沖縄県,糸満市,字潮平７９０－５ＴＫＨＥＩＭ１階,,47,210,9010302,,,,,,,2023-11-01,1,,,,,クオ,0
1711,6370001050588,新規,0,2023-11-01,2023-11-01,株式会社マイワークス,,株式会社,宮城県,仙台市泉区,泉中央１丁目１７－３遊食館Ｉビル１階,,04,105,9813133,,,,,,,2023-11-01,1,,,,,マイワークス,0
1717,6380001034103,新規,0,2023-11-01,2023-11-01,株式会社スリスプ,,株式会社,福島県,郡山市,堤下町１２番１８号,,07,203,9638878,,,,,,,2023-11-01,1,,,,,スリスプ,0
1720,6410003003861,新規,0,2023-11-01,2023-11-01,合同会社ビーイング・オーガニック,,合同会社,秋田県,大館市,二井田字小石台２１番地１７,,05,204,0185751,,,,,,,2023-11-01,1,,,,,ビーイングオーガニック,0
1727,6430001090314,新規,0,2023-11-01,2023-11-01,株式会社パンチワークス,,株式会社,北海道,札幌市中央区,南一条西１６丁目１番地３２３春野ビル３階,,01,101,0600061,,,,,,,2023-11-01,1,,,,,パンチワークス,0
1729,6430003015566,新規,0,2023-11-01,2023-11-01,吉田企画合同会社,,合同会社,北海道,札幌市豊平区,福住三条１丁目２番８号Ｆ１０６　１１０３号室,,01,105,0620043,,,,,,,2023-11-01,1,,,,,ヨシダキカク,0
1741,6700150121263,新規,0,2023-11-01,2023-10-17,三田駅前一番館区分所有者会,,その他,兵庫県,三田市,駅前町２番１号,,28,219,6691528,,,,,,,2023-10-17,1,,,,,サンダエキマエイチバンカンクブンシヨユウシヤカイ,0
1742,6700150121627,新規,0,2023-11-01,2023-11-01,Ｊｉｙｅ　ｎｉｎｇｂｏ　ｗｅｎｈｕａｋｅｊｉｙｏｕｘｉａｎｇｏｎｇｓｉ,,外国会社等,,,,,,,,ｊｉａｎｇｓｈａｎｚｈｅｎｙｕｊｉａｃｕｎｙｕｊｉａｇｏｎｇｙｅｑｕ２ｌｏｕｚｈｅｊｉａｎｇｓｈｅｎｇｎｉｎｇｂｏｓｈｉｙｉｎｚｈｏｕｑｕ３１５１９１ＣＮ,,,,,,2023-11-01,1,,,,,ジーイエニンボーウェンフワーコージーヨウシエンゴンスー,0
1743,6700150121701,新規,0,2023-11-01,2023-11-01,Ｚｈｕｚｈｏｕｓｈｉ　Ｔｅｘｉａｎｇ　Ｓｈａｎｇｍａｏ　Ｙｏｕｘｉａｎ　Ｇｏｎｇｓｉ,,外国会社等,,,,,,,,Ｌｏｎｇｆｅｎｇｚｕ　Ｚｈａｎｇｊｉｎｇｃｕｎ　Ｈｕａｎｇｆｅｎｇｑｉａｏｚｈｅｎ，Ｙｏｕｘｉａｎ，Ｚｈｕｚｈｏｕｓｈｉ，Ｈｕｎａｎｓｈｅｎｇ,,,,,,2023-11-01,1,,,,,シュシュウシトクカショウボウユウゲンコウシ,0
1751,7010001239621,新規,0,2023-11-01,2023-11-01,株式会社日新,,株式会社,東京都,中央区,勝どき１丁目８番１号－３８０４,,13,102,1040054,,,,,,,2023-11-01,1,,,,,ニッシン,0
1752,7010001239670,新規,0,2023-11-01,2023-11-01,株式会社藤井,,株式会社,東京都,文京区,本郷２丁目４番２－１１０３号,,13,105,1130033,,,,,,,2023-11-01,1,,,,,フジイ,0
1753,7010001239687,新規,0,2023-11-01,2023-11-01,株式会社ＥｇｇＡＩ,,株式会社,東京都,文京区,本郷６丁目２５番１４号,,13,105,1130033,,,,,,,2023-11-01,1,,,,,エッグエーアイ,0
1754,7010003042081,新規,0,2023-11-01,2023-11-01,合同会社ＨＥＮＴＳＵＫＵ,,合同会社,東京都,中央区,日本橋室町１丁目１１番１２号日本橋水野ビル７階,,13,102,1030022,,,,,,,2023-11-01,1,,,,,ヘンツク,0
1760,7010401178254,新規,0,2023-11-01,2023-11-01,株式会社マサ,,株式会社,東京都,港区,西麻布４丁目１番１５号セブン西麻布Ｂ１,,13,103,1060031,,,,,,,2023-11-01,1,,,,,マサ,0
1761,7010603010446,新規,0,2023-11-01,2023-11-01,清澄キャピタル合同会社,,合同会社,東京都,江東区,高橋１４‐１３清澄ＳＯＨＯ２Ａ,,13,108,1350005,,,,,,,2023-11-01,1,,,,,キヨスミキャピタル,0
1764,7010801034486,新規,0,2023-11-01,2023-11-01,株式会社Ｃｒａｚｙ,,株式会社,東京都,大田区,山王４丁目７番８号,,13,111,1430023,,,,,,,2023-11-01,1,,,,,クレイジー,0
1766,7010803004735,新規,0,2023-11-01,2023-11-01,合同会社古賀設備,,合同会社,東京都,大田区,西六郷４丁目３１番１１号,,13,111,1440056,,,,,,,2023-11-01,1,,,,,コガセツビ,0
1773,7010903008512,新規,0,2023-11-01,2023-11-01,ペーパードライバー講習合同会社,,合同会社,東京都,世田谷区,深沢４丁目３３番２号,,13,112,1580081,,,,,,,2023-11-01,1,,,,,ペーパードライバーコウシュウ,0
1774,7010903008553,新規,0,2023-11-01,2023-11-01,合同会社ＳＯ,,合同会社,東京都,世田谷区,奥沢１丁目５７－１２シャリオ自由が丘２０２,,13,112,1580083,,,,,,,2023-11-01,1,,,,,エスオー,0
1780,7011001157945,新規,0,2023-11-01,2023-11-01,株式会社ライジングクラウズ,,株式会社,東京都,目黒区,東山１丁目８番６号,,13,110,1530043,,,,,,,2023-11-01,1,,,,,ライジングクラウズ,0
1781,7011001157961,新規,0,2023-11-01,2023-11-01,株式会社ｐａｒａｓｈｉｅ,,株式会社,東京都,目黒区,中目黒２丁目５番２５－２０３号,,13,110,1530061,,,,,,,2023-11-01,1,,,,,パラシエ,0
1782,7011001157978,新規,0,2023-11-01,2023-11-01,株式会社ｂｅｍｙｆｒｉｅｎｄｓ　Ｊａｐａｎ,,株式会社,東京都,渋谷区,神宮前２丁目１４番１９－３０３号神宮前２１４ビル,,13,113,1500001,,,,,,,2023-11-01,1,,,,,ビーマイフレンズジャパン,0
1785,7011003017288,新規,0,2023-11-01,2023-11-01,合同会社ブロークン,,合同会社,東京都,渋谷区,神泉町１０番１５号,,13,113,1500045,,,,,,,2023-11-01,1,,,,,ブロークン,0
1791,7011101104987,新規,0,2023-11-01,2023-11-01,ＳＴＯＰ　ＢＯＲＩＮＧ　ＣＯＭＰＡＮＹ株式会社,,株式会社,東京都,新宿区,高田馬場３丁目２０－１１第２林ビル１０１号室,,13,104,1690075,,,,,,,2023-11-01,1,,,,,ストップボーディングカンパニー,0
1792,7011101104995,新規,0,2023-11-01,2023-11-01,株式会社Ｔ＆Ｙ,,株式会社,東京都,新宿区,西新宿３丁目３番１３号西新宿水間ビル６階,,13,104,1600023,,,,,,,2023-11-01,1,,,,,ティーアンドワイ,0
1797,7011103013609,新規,0,2023-11-01,2023-11-01,合同会社Ａｌｍａｚ,,合同会社,東京都,新宿区,高田馬場１丁目３３番６号平和相互ビル４０４,,13,104,1690075,,,,,,,2023-11-01,1,,,,,アルマース,0
1805,7011501029941,新規,0,2023-11-01,2023-11-01,株式会社Ａｚｉｔａｍａ,,株式会社,東京都,荒川区,荒川１丁目４９番地の２サクラハイツ７０１,,13,118,1160002,,,,,,,2023-11-01,1,,,,,アジタマ,0
1812,7012401041169,新規,0,2023-11-01,2023-11-01,株式会社エイチティーコーポレーション,,株式会社,東京都,府中市,四谷３丁目６８番地の２グランシャリオ２０２,,13,206,1830035,,,,,,,2023-11-01,1,,,,,エイチティーコーポレーション,0
1831,7020001154241,新規,0,2023-11-01,2023-11-01,株式会社ファクトリンク,,株式会社,神奈川県,横浜市鶴見区,北寺尾５丁目２番１４－２０３号,,14,101,2300074,,,,,,,2023-11-01,1,,,,,ファクトリンク,0
1832,7020001154258,新規,0,2023-11-01,2023-11-01,株式会社テイクワン,,株式会社,神奈川県,川崎市川崎区,小田６丁目１１番２０号,,14,131,2100846,,,,,,,2023-11-01,1,,,,,テイクワン,0
1836,7020003024888,新規,0,2023-11-01,2023-11-01,モアクリン合同会社,,合同会社,神奈川県,横浜市西区,浅間町１丁目４番３号ウィザードビル４０２,,14,103,2200072,,,,,,,2023-11-01,1,,,,,モアクリン,0
1837,7020003024896,新規,0,2023-11-01,2023-11-01,合同会社グリーンワークス,,合同会社,神奈川県,横浜市南区,井土ケ谷下町２０番地４,,14,105,2320053,,,,,,,2023-11-01,1,,,,,グリーンワークス,0
1840,7021001080618,新規,0,2023-11-01,2023-11-01,株式会社ＢｅＬ,,株式会社,神奈川県,鎌倉市,岡本２丁目１番１０号プロシードビル３階Ａ号室,,14,204,2470072,,,,,,,2023-11-01,1,,,,,ベル,0
1842,7021003013757,新規,0,2023-11-01,2023-11-01,今宮貴金属工業合同会社,,合同会社,神奈川県,相模原市中央区,中央４丁目８番３号,,14,152,2520239,,,,,,,2023-11-01,1,,,,,イマミヤキキンゾクコウギョウ,0
1849,7030001156880,新規,0,2023-11-01,2023-11-01,株式会社エレクワークス,,株式会社,埼玉県,草加市,八幡町９７番地１,,11,221,3400006,,,,,,,2023-11-01,1,,,,,エレクワークス,0
1850,7030001156939,新規,0,2023-11-01,2023-11-01,株式会社浦和設備,,株式会社,埼玉県,さいたま市浦和区,神明１丁目２８番６－１号,,11,107,3300065,,,,,,,2023-11-01,1,,,,,ウラワセツビ,0
1851,7030001156947,新規,0,2023-11-01,2023-11-01,みろく工務店株式会社,,株式会社,埼玉県,さいたま市北区,日進町２丁目１５９４－１ボナールピア１０１号室,,11,102,3310823,,,,,,,2023-11-01,1,,,,,ミロクコウムテン,0
1857,7040001130736,新規,0,2023-11-01,2023-11-01,株式会社ＳＴＥＰ　ｕｐ,,株式会社,千葉県,千葉市若葉区,加曽利町６８４番地４ナンバーフィールドＡ２０３号,,12,104,2640017,,,,,,,2023-11-01,1,,,,,ステップアップ,0
1858,7040001130744,新規,0,2023-11-01,2023-11-01,株式会社Ｅｓｐｏｉｒ,,株式会社,千葉県,千葉市稲毛区,小仲台３丁目８番１５号,,12,103,2630043,,,,,,,2023-11-01,1,,,,,エスポワール,0
1859,7040001130752,新規,0,2023-11-01,2023-11-01,株式会社Ｎｏｎｄｕａｌ,,株式会社,千葉県,八千代市,緑が丘西４丁目４番地３０,,12,221,2760040,,,,,,,2023-11-01,1,,,,,ノンデュアル,0
1860,7040001130760,新規,0,2023-11-01,2023-11-01,モナークビルドデザイン株式会社,,株式会社,千葉県,長生郡一宮町,一宮９９６０番地１ＴＨＥＳＵＲＦＲＯＯＭ－Ｂ２０２,,12,421,2994301,,,,,,,2023-11-01,1,,,,,モナークビルドデザイン,0
1872,7040003023649,新規,0,2023-11-01,2023-11-01,合同会社Ｌｉｎｋ,,合同会社,千葉県,八千代市,緑が丘３丁目１番地１リーセントヒルズＧ－１２０７,,12,221,2760049,,,,,,,2023-11-01,1,,,,,リンク,0
1873,7040005022186,新規,0,2023-11-01,2023-11-01,一般社団法人ＣＵＴＩＥ,,その他の設立登記法人,千葉県,千葉市美浜区,幕張西６丁目２４番地９,,12,106,2610026,,,,,,,2023-11-01,1,,,,,キューティ,0
1875,7050003007907,新規,0,2023-11-01,2023-11-01,合同会社うたたね,,合同会社,茨城県,取手市,戸頭２丁目２５番２２号,,08,217,3020034,,,,,,,2023-11-01,1,,,,,ウタタネ,0
1878,7060001036510,新規,0,2023-11-01,2023-11-01,株式会社ＮＥＸＴ　ＩＮＮＯＶＡＴＩＯＮ,,株式会社,栃木県,宇都宮市,曲師町３番１０号ラッキープラザビル５階,,09,201,3200803,,,,,,,2023-11-01,1,,,,,ネクストイノベイション,0
1880,7060003004787,新規,0,2023-11-01,2023-11-01,合同会社ＳＨＡＦＴ,,合同会社,栃木県,小山市,大字東野田１６２１番地１,,09,208,3230817,,,,,,,2023-11-01,1,,,,,シャフト,0
1883,7080001025949,新規,0,2023-11-01,2023-11-01,株式会社ＥＮＥＸ,,株式会社,静岡県,静岡市葵区,牛妻３２３３番地,,22,101,4212106,,,,,,,2023-11-01,1,,,,,イーネックス,0
1888,7080101024306,新規,0,2023-11-01,2023-11-01,株式会社Ｏ・Ｗ　ＪＡＰＡＮ,,株式会社,静岡県,富士市,御幸町５－１０ハイエストビル２ＦＳ,,22,210,4170041,,,,,,,2023-11-01,1,,,,,フジサンオーダブリュージャパン,0
1893,7080405007592,新規,0,2023-11-01,2023-11-01,一般社団法人空気環境改善研究所,,その他の設立登記法人,静岡県,浜松市北区,三ヶ日町大崎１０２１－５,,22,135,4311403,,,,,,,2023-11-01,1,,,,,クウキカンキョウカイゼンケンキュウジョ,0
1904,7120001112445,新規,0,2023-11-01,2023-11-01,株式会社大手前住宅,,株式会社,大阪府,大阪市中央区,大手前１丁目３番５９号,,27,128,5400008,,,,,,,2023-11-01,1,,,,,,0
1917,7120003025257,新規,0,2023-11-01,2023-11-01,合同会社ＢＡＣｗｉｔｈ,,合同会社,大阪府,大阪市中央区,内本町１丁目２番６号,,27,128,5400026,,,,,,,2023-11-01,1,,,,,ビーエーシーウイズ,0
1922,7120101068455,新規,0,2023-11-01,2023-11-01,アルマンドホーム株式会社,,株式会社,大阪府,堺市堺区,七道西町２２番地グランディール和１０１号,,27,141,5900911,,,,,,,2023-11-01,1,,,,,アルマンドホーム,0
1923,7120101068463,新規,0,2023-11-01,2023-11-01,株式会社ロコ建築工房,,株式会社,大阪府,富田林市,廿山２丁目５番５７号,,27,214,5840081,,,,,,,2023-11-01,1,,,,,ロコケンチクコウボウ,0
1929,7130001075575,新規,0,2023-11-01,2023-11-01,オテンバ・エージェンシー株式会社,,株式会社,京都府,京都市北区,紫竹西野山東町４３番地１エントランスライフ西野山東２０１号,,26,101,6038442,,,,,,,2023-11-01,1,,,,,オテンバエージェンシー,0
1930,7130001075583,新規,0,2023-11-01,2023-11-01,株式会社レジサポ,,株式会社,京都府,長岡京市,こがねが丘７番地２２,,26,209,6170854,,,,,,,2023-11-01,1,,,,,レジサポ,0
1935,7140001132169,新規,0,2023-11-01,2023-11-01,Ｐｒｉｎｃｅｓｓ　ＭｏＭｏ株式会社,,株式会社,兵庫県,西宮市,神原１５番６－７号,,28,204,6620021,,,,,,,2023-11-01,1,,,,,プリンセスモモ,0
1940,7140003019744,新規,0,2023-11-01,2023-11-01,ＴＨＯＮＧ　ＤＯＬＡ合同会社,,合同会社,兵庫県,神戸市兵庫区,福原町２１番１５号ユキハウス２０１号室,,28,105,6520036,,,,,,,2023-11-01,1,,,,,トンドル,0
1941,7140003019752,新規,0,2023-11-01,2023-11-01,合同会社Ｒａｐｐｉｔ　Ｅｎｔｅｒｔａｉｎｍｅｎｔ,,合同会社,兵庫県,神戸市須磨区,高倉台７丁目２番２８－１０６,,28,107,6540081,,,,,,,2023-11-01,1,,,,,ラピットエンターテイメント,0
1943,7150001026849,新規,0,2023-11-01,2023-11-01,株式会社Ｔａｌｅ　Ｎａｖｉ,,株式会社,奈良県,奈良市,橋本町３－１,,29,201,6308217,,,,,,,2023-11-01,1,,,,,テールナビ,0
1946,7160005011243,新規,0,2023-11-01,2023-11-01,一般社団法人ＤＡＩＧＯグローバル,,その他の設立登記法人,滋賀県,草津市,若竹町８－３８大五ビル３階,,25,206,5250031,,,,,,,2023-11-01,1,,,,,ダイゴグローバル,0
1954,7180001158722,新規,0,2023-11-01,2023-11-01,株式会社吉川商事,,株式会社,愛知県,名古屋市港区,木場町２番地の１０５スペリアシティ名南アネックスＩＩＩ　４０５号,00132485,23,111,4550021,,,,,,,2023-11-01,1,,,,,ヨシカワショウジ,0
1955,7180001158739,新規,0,2023-11-01,2023-11-01,株式会社Ｅファーマシー,,株式会社,愛知県,名古屋市西区,幅下１丁目１０番２７号,,23,104,4510041,,,,,,,2023-11-01,1,,,,,イーファーマシー,0
1957,7180003025929,新規,0,2023-11-01,2023-11-01,合同会社デコリス,,合同会社,愛知県,春日井市,穴橋町１６０６番地１５コーポ穴橋２０１号,,23,206,4860853,,,,,,,2023-11-01,1,,,,,デコリス,0
1958,7180005020408,新規,0,2023-11-01,2023-11-01,行政書士法人寺嶌事務所,,その他の設立登記法人,愛知県,名古屋市緑区,鳴海町字砦１９番地砦ビル４０２,,23,114,4580801,,,,,,,2023-11-01,1,,,,,テラシマジムショ,0
1979,7240001062348,新規,0,2023-11-01,2023-11-01,株式会社琥珀,,株式会社,広島県,広島市東区,馬木４丁目１７１５番地１２,,34,102,7320031,,,,,,,2023-11-01,1,,,,,コハク,0
1982,7260003004486,新規,0,2023-11-01,2023-11-01,合同会社井口インダストリー,,合同会社,岡山県,岡山市北区,十日市中町１番３１号カウル１００５,,33,101,7000855,,,,,,,2023-11-01,1,,,,,イグチインダストリー,0
1983,7260005011290,新規,0,2023-11-01,2023-11-01,一般社団法人わたげ,,その他の設立登記法人,岡山県,岡山市中区,門田屋敷３丁目４番８号アルファステイツ門田屋敷４０６号,,33,102,7038275,,,,,,,2023-11-01,1,,,,,ワタゲ,0
1992,7290803004534,新規,0,2023-11-01,2023-11-01,合同会社弘栄工業,,合同会社,福岡県,直方市,大字感田３４７２キャンファマンションＤ－１,,40,204,8220001,,,,,,,2023-11-01,1,,,,,コウエイコウギョウ,0
1997,7310003004670,新規,0,2023-11-01,2023-11-01,合同会社猶空設興業,,合同会社,長崎県,諫早市,飯盛町中山８９２番地７,,42,204,8541103,,,,,,,2023-11-01,1,,,,,ナオクウセツコウギョウ,0
1999,7340001026037,新規,0,2023-11-01,2023-11-01,Ｒｉｓｓｅｌ株式会社,,株式会社,鹿児島県,姶良郡湧水町,川西１６００番地,,46,452,8996104,,,,,,,2023-11-01,1,,,,,リッセル,0
2010,7400001016444,新規,0,2023-11-01,2023-11-01,株式会社地域実装,,株式会社,岩手県,陸前高田市,高田町字鳴石３０１番地１,,03,210,0292205,,,,,,,2023-11-01,1,,,,,チイキジッソウ,0
2021,7430001090263,新規,0,2023-11-01,2023-11-01,株式会社ちび・てん,,株式会社,北海道,札幌市中央区,南二十三条西１５丁目１番５－４０５号,,01,101,0640923,,,,,,,2023-11-01,1,,,,,チビテン,0
2022,7430001090305,新規,0,2023-11-01,2023-11-01,株式会社マルタカホールディングス,,株式会社,北海道,沙流郡平取町,字荷菜５６番地４,,01,602,0550106,,,,,,,2023-11-01,1,,,,,マルタカホールディングス,0
2023,7430001090321,新規,0,2023-11-01,2023-11-01,ナインプラス株式会社,,株式会社,北海道,札幌市豊平区,月寒東五条８丁目６番２４号,,01,105,0620055,,,,,,,2023-11-01,1,,,,,ナインプラス,0
2037,7700150121626,新規,0,2023-11-01,2023-11-01,株式会社　ＮＥＩＣＯＮ　ＯＦＦＩＣＥ,,外国会社等,東京都,新宿区,西新宿３丁目３番１３号西新宿水間ビル２Ｆ,,13,104,1600023,大韓民国ソウル特別市江南区テヘラン路２ギル２７、１０階ビジョンタワー,,,,,,2023-11-01,1,,,,,カブシキガイシヤネイコンオフイス,0
2038,7700150121700,新規,0,2023-11-01,2023-11-01,Ｘｕｃｈａｎｇｚｈｕｏｔｕｏｌｅｓｈａｎｇｍａｏｙｏｕｘｉａｎｇｏｎｇｓｉ,,外国会社等,,,,,,,,Ｗａｎｓｈｅｎｇｎａｎｊｉａｚｈｏｕ１２ｈａｏｌｏｕ２ｄａｎｙｕａｎ２５０３，Ｘｕｃｈａｎｇ，Ｘｕｃｈａｎｇｓｈｉ，Ｈｅｎａｎｓｈｅｎｇ,,,,,,2023-11-01,1,,,,,キョショウタクタクラクショウボウユウゲンコウシ,0
2048,8010001239620,新規,0,2023-11-01,2023-11-01,株式会社明宇,,株式会社,東京都,中央区,勝どき１丁目８番１号－３８０４,,13,102,1040054,,,,,,,2023-11-01,1,,,,,メイウ,0
2049,8010001239686,新規,0,2023-11-01,2023-11-01,株式会社矢風,,株式会社,東京都,中央区,銀座１丁目１２－４Ｎ＆ＥＢＬＤ．７階,,13,102,1040061,,,,,,,2023-11-01,1,,,,,ヤカゼ,0
2050,8010001239703,新規,0,2023-11-01,2023-11-01,株式会社ＳＡＮＯ,,株式会社,東京都,中央区,銀座１丁目１２番４号Ｎ＆ＥＢＬＤ．６Ｆ,,13,102,1040061,,,,,,,2023-11-01,1,,,,,サノ,0
2054,8010003042080,新規,0,2023-11-01,2023-11-01,合同会社おにぎり,,合同会社,東京都,中央区,日本橋室町１丁目１１番１２号日本橋水野ビル７階,,13,102,1030022,,,,,,,2023-11-01,1,,,,,オニギリ,0
2060,8010401178204,新規,0,2023-11-01,2023-11-01,ＬＹＮＸ　Ｉｎｖｅｓｔｍｅｎｔｓ株式会社,,株式会社,東京都,港区,赤坂４丁目１１番１２号,,13,103,1070052,,,,,,,2023-11-01,1,,,,,リンクスインベストメンツ,0
2061,8010401178253,新規,0,2023-11-01,2023-11-01,株式会社オフィスにの,,株式会社,東京都,港区,元麻布２丁目５番２－１０２号,,13,103,1060046,,,,,,,2023-11-01,1,,,,,オフィスニノ,0
2069,8010501051277,新規,0,2023-11-01,2023-11-01,ｔｈｒｅｅｓ株式会社,,株式会社,東京都,台東区,台東３丁目１０－５,,13,106,1100016,,,,,,,2023-11-01,1,,,,,スリーエス,0
2070,8010601064063,新規,0,2023-11-01,2023-11-01,株式会社ｅ‐ｓｔｏｒｅ‐ｐｌａｎｎｉｎｇ,,株式会社,東京都,江東区,新砂１丁目６番３５号Ｎビル東陽町６階,,13,108,1360075,,,,,,,2023-11-01,1,,,,,イーストアプランニング,0
2076,8010803004734,新規,0,2023-11-01,2023-11-01,ＭＩＮ　ＷＡＩ　ＮＡＩＮＧ合同会社,,合同会社,東京都,大田区,中央２丁目１－１１ヴィッツアーク大森ＩＩ４階４０３号室,00132490,13,111,1430024,,,,,,,2023-11-01,1,,,,,ミンウェイナイン,0
2079,8010901054078,新規,0,2023-11-01,2023-11-01,株式会社ＨＯＳＨＩＳＭ,,株式会社,東京都,世田谷区,上野毛２丁目１３番３号,,13,112,1580093,,,,,,,2023-11-01,1,,,,,ホシズム,0
2080,8010901054111,新規,0,2023-11-01,2023-11-01,バイナリー・スター株式会社,,株式会社,東京都,世田谷区,上野毛３丁目２３番１－４３０号,,13,112,1580093,,,,,,,2023-11-01,1,,,,,バイナリースター,0
2086,8011001157746,新規,0,2023-11-01,2023-11-01,Ｌｅｓ　ＤＥＰＡＳＳＥＳ株式会社,,株式会社,東京都,目黒区,大橋２丁目１６－２３大同ビル１００２,,13,110,1530044,,,,,,,2023-11-01,1,,,,,レデパセ,0
2087,8011001157952,新規,0,2023-11-01,2023-11-01,株式会社ディシプリナ,,株式会社,東京都,渋谷区,神宮前６丁目２３番４号桑野ビル２階,,13,113,1500001,,,,,,,2023-11-01,1,,,,,ディシプリナ,0
2088,8011001157960,新規,0,2023-11-01,2023-11-01,株式会社３Ｅ　Ｃｒｅａｔｉｏｎ,,株式会社,東京都,渋谷区,初台１丁目５１番１号,,13,113,1510061,,,,,,,2023-11-01,1,,,,,スリーイークリエイション,0
2089,8011001157977,新規,0,2023-11-01,2023-11-01,株式会社ＡＭＰＥＵＲ,,株式会社,東京都,渋谷区,上原２丁目４３番７号モリグチハイツ３－Ｂ号室,,13,113,1510064,,,,,,,2023-11-01,1,,,,,アンピュア,0
2092,8011003017766,新規,0,2023-11-01,2023-11-01,合同会社Ｓｔａｙ　ｕｐ,,合同会社,東京都,渋谷区,笹塚１丁目２０－５ドルチェ京王４階,,13,113,1510073,,,,,,,2023-11-01,1,,,,,ステイアップ,0
2094,8011101104945,新規,0,2023-11-01,2023-11-01,ＢＯＺＥ株式会社,,株式会社,東京都,新宿区,北新宿１丁目１番４－４０３号,,13,104,1690074,,,,,,,2023-11-01,1,,,,,ボーズ,0
2097,8011403004166,新規,0,2023-11-01,2023-11-01,合同会社ＰＲＯＮＡＩＤ,,合同会社,東京都,板橋区,成増４丁目１７番２１号,,13,119,1750094,,,,,,,2023-11-01,1,,,,,プロナイド,0
2098,8011501029940,新規,0,2023-11-01,2023-11-01,宏達株式会社,,株式会社,東京都,荒川区,南千住７丁目１０番１３号,,13,118,1160003,,,,,,,2023-11-01,1,,,,,コウタツ,0
2108,8012401041168,新規,0,2023-11-01,2023-11-01,株式会社ＲＡＮＤＯＭ,,株式会社,東京都,調布市,上石原３丁目１９番地４１,,13,208,1820035,,,,,,,2023-11-01,1,,,,,ランダム,0
2109,8012405004914,新規,0,2023-11-01,2023-11-01,一般社団法人日本障害者雇用促進事業者協会,,その他の設立登記法人,東京都,三鷹市,上連雀１丁目１２番１７号三鷹ビジネスパーク１号館３階,,13,204,1810012,,,,,,,2023-11-01,1,,,,,ニホンショウガイシャコヨウソクシンジギョウシャキョウカイ,0
2110,8012801022734,新規,0,2023-11-01,2023-11-01,株式会社メディカルカタリスト,,株式会社,東京都,立川市,柏町４丁目２－４１,,13,202,1900004,,,,,,,2023-11-01,1,,,,,メディカルカタリスト,0
2116,8013301051562,新規,0,2023-11-01,2023-11-01,株式会社ＫＯＣＯマネジメント,,株式会社,東京都,豊島区,南池袋１丁目２６番６号エス・エイチ・ワン９階,,13,116,1710022,,,,,,,2023-11-01,1,,,,,ココマネジメント,0
2123,8020001154257,新規,0,2023-11-01,2023-11-01,ＹＭＴ株式会社,,株式会社,神奈川県,川崎市幸区,北加瀬１丁目１３番２号,,14,132,2120057,,,,,,,2023-11-01,1,,,,,ワイエムティー,0
2124,8020001154298,新規,0,2023-11-01,2023-11-01,ｃａｒｕｎａｃｉａ株式会社,,株式会社,神奈川県,横浜市栄区,飯島町９９４番地７,,14,115,2440842,,,,,,,2023-11-01,1,,,,,カルナシア,0
2126,8020003024887,新規,0,2023-11-01,2023-11-01,合同会社ファレイ,,合同会社,神奈川県,川崎市川崎区,南町１６－７かわさきスカイビル１００２,,14,131,2100015,,,,,,,2023-11-01,1,,,,,ファレイ,0
2127,8020003024895,新規,0,2023-11-01,2023-11-01,合同会社ライフ,,合同会社,神奈川県,横浜市西区,北幸１丁目１１番１号水信ビル７階,,14,103,2200004,,,,,,,2023-11-01,1,,,,,ライフ,0
2131,8021001080617,新規,0,2023-11-01,2023-11-01,聖光建設株式会社,,株式会社,神奈川県,藤沢市,葛原１３６９番地の３８,,14,205,2520822,,,,,,,2023-11-01,1,,,,,セイコウケンセツ,0
2144,8030001156913,新規,0,2023-11-01,2023-11-01,株式会社荻野電設,,株式会社,埼玉県,比企郡吉見町,大字久保田８１６番地２,,11,347,3550137,,,,,,,2023-11-01,1,,,,,オギノデンセツ,0
2145,8030001156946,新規,0,2023-11-01,2023-11-01,株式会社ＭＡＮＡ,,株式会社,埼玉県,川口市,金山町８番２号１０１号室,,11,203,3320014,,,,,,,2023-11-01,1,,,,,マナ,0
2146,8030001156954,新規,0,2023-11-01,2023-11-01,株式会社ぱぱれすとらん,,株式会社,埼玉県,戸田市,大字新曽１９４９番地,,11,224,3350021,,,,,,,2023-11-01,1,,,,,パパレストラン,0
2153,8030005021452,新規,0,2023-11-01,2023-11-01,医療法人社団芽生会ナカニシデンタルクリニック,,その他の設立登記法人,埼玉県,さいたま市中央区,大戸１丁目９番７号,,11,105,3380012,,,,,,,2023-11-01,1,,,,,ガショウカイナカニシデンタルクリニック,0
2159,8040001130735,新規,0,2023-11-01,2023-11-01,株式会社川島エステート,,株式会社,千葉県,四街道市,めいわ４丁目１９番１４号,,12,228,2840043,,,,,,,2023-11-01,1,,,,,カワシマエステート,0
2160,8040001130751,新規,0,2023-11-01,2023-11-01,株式会社喜楽,,株式会社,千葉県,いすみ市,岬町中原３１９－２９,,12,238,2994502,,,,,,,2023-11-01,1,,,,,キラク,0
2163,8050003007906,新規,0,2023-11-01,2023-11-01,合同会社ＫＡＫＥＲＵ,,合同会社,茨城県,龍ケ崎市,小通幸谷町５６４番地３６,,08,208,3010034,,,,,,,2023-11-01,1,,,,,カケル,0
2171,8080005007579,新規,0,2023-11-01,2023-11-01,一般社団法人チームゆら,,その他の設立登記法人,静岡県,静岡市清水区,春日２丁目３番１２‐３号,,22,103,4240842,,,,,,,2023-11-01,1,,,,,チームユラ,0
2176,8100003007248,新規,0,2023-11-01,2023-11-01,ジョイ・クリエート合同会社,,合同会社,長野県,飯山市,大字飯山４６７番地４７,,20,213,3892253,,,,,,,2023-11-01,1,,,,,ジョイクリエート,0
2177,8100003007256,新規,0,2023-11-01,2023-11-01,合同会社オーガニック・キッチン長野,,合同会社,長野県,伊那市,高遠町長藤６８８２,,20,209,3960305,,,,,,,2023-11-01,1,,,,,オーガニックキッチンナガノ,0
2185,8120001095920,新規,0,2023-11-01,2023-11-01,株式会社マックメディカル,,株式会社,大阪府,大阪市平野区,平野北１丁目１０番３１号,,27,126,5470041,,,,,,,2023-11-01,1,,,,,マックメディカル,0
2193,8120001259368,新規,0,2023-11-01,2023-11-01,株式会社イグジステント,,株式会社,大阪府,大阪市中央区,日本橋１丁目１７番１７号ピカソ日本一ビル６０４号室,,27,128,5420073,,,,,,,2023-11-01,1,,,,,イグジステント,0
2194,8120001259376,新規,0,2023-11-01,2023-11-01,チャレンジングラボ株式会社,,株式会社,大阪府,大阪市北区,太融寺町２番２１号ニュープラザビル７０１,,27,127,5300051,,,,,,,2023-11-01,1,,,,,チャレンジングラボ,0
2195,8120001259418,新規,0,2023-11-01,2023-11-01,株式会社ＡＱＵＡ　ＬＥＡＰ,,株式会社,大阪府,大阪市中央区,南船場３丁目１１番１０号心斎橋大陽ビルＢ１Ｆ,,27,128,5420081,,,,,,,2023-11-01,1,,,,,アクアリープ,0
2204,8120105009784,新規,0,2023-11-01,2023-11-01,一般社団法人Ｊａｐａｎ　Ｂａｓｅｂａｌｌ　Ｉｎｎｏｖａｔｉｏｎ,,その他の設立登記法人,大阪府,堺市西区,上野芝町４丁９番１号,,27,144,5938301,,,,,,,2023-11-01,1,,,,,ジャパンベースボールイノベーション,0
2210,8122003002722,新規,0,2023-11-01,2023-11-01,ＦＯＨ合同会社,,合同会社,大阪府,東大阪市,荒川３丁目３番２５－２０２号,,27,227,5770843,,,,,,,2023-11-01,1,,,,,エフオーエイチ,0
2211,8130001075574,新規,0,2023-11-01,2023-11-01,株式会社あかつき不動産,,株式会社,京都府,京都市伏見区,深草谷口町７０番地３３,,26,109,6120829,,,,,,,2023-11-01,1,,,,,アカツキフドウサン,0
2212,8130001075590,新規,0,2023-11-01,2023-11-01,株式会社ヤマノモノリス,,株式会社,京都府,京都市下京区,西堀川通五条上る柿本町５７３番地８,,26,106,6008357,,,,,,,2023-11-01,1,,,,,ヤマノモノリス,0
2213,8130001075599,新規,0,2023-11-01,2023-11-01,株式会社クレシェンド,,株式会社,京都府,京田辺市,三山木西荒木７－３,,26,211,6100313,,,,,,,2023-11-01,1,,,,,クレシェンド,0
2214,8130001075608,新規,0,2023-11-01,2023-11-01,株式会社ＳＯＡＲ,,株式会社,京都府,宇治市,羽戸山３丁目１番地の８４,,26,204,6110012,,,,,,,2023-11-01,1,,,,,ソア,0
2222,8160003003027,新規,0,2023-11-01,2023-11-01,合同会社ラビットフット,,合同会社,滋賀県,草津市,片岡町１７２番地１３,,25,206,5250011,,,,,,,2023-11-01,1,,,,,ラビットフット,0
2225,8180001158721,新規,0,2023-11-01,2023-11-01,愛西ファーム株式会社,,株式会社,愛知県,愛西市,西川端町北江１５２番地２,,23,232,4968019,,,,,,,2023-11-01,1,,,,,アイサイファーム,0
2226,8180001158746,新規,0,2023-11-01,2023-11-01,あおい不動産株式会社,,株式会社,愛知県,名古屋市東区,筒井３丁目２９番２号２Ｆ,,23,102,4610003,,,,,,,2023-11-01,1,,,,,アオイフドウサン,0
2236,8200001041866,新規,0,2023-11-01,2023-11-01,株式会社ＴＫＧＭ,,株式会社,岐阜県,海津市,南濃町駒野７３５番地１,,21,221,5030411,,,,,,,2023-11-01,1,,,,,ティーケージーエム,0
2242,8240001062314,新規,0,2023-11-01,2023-11-01,まる旺水産株式会社,,株式会社,広島県,江田島市,江田島町小用３丁目３番１９号,,34,215,7372121,,,,,,,2023-11-01,1,,,,,マルオウスイサン,0
2243,8240001062347,新規,0,2023-11-01,2023-11-01,株式会社エノオクベース,,株式会社,広島県,尾道市,土堂２丁目１０番２４号,,34,205,7220035,,,,,,,2023-11-01,1,,,,,エノオクベース,0
2257,8290001103591,新規,0,2023-11-01,2023-11-01,株式会社ビジネスラボ,,株式会社,福岡県,福岡市博多区,博多駅東１丁目１番３３号,,40,132,8120013,,,,,,,2023-11-01,1,,,,,ビジネスラボ,0
2266,8310001018688,新規,0,2023-11-01,2023-11-01,株式会社妃,,株式会社,長崎県,五島市,三尾野２丁目１番１２号勤王ビル２階,,42,211,8530064,,,,,,,2023-11-01,1,,,,,キサキ,0
2291,8430001090329,新規,0,2023-11-01,2023-11-01,株式会社フユショウ,,株式会社,北海道,石狩市,樽川八条１丁目２０３番地,,01,235,0613258,,,,,,,2023-11-01,1,,,,,フユショウ,0
2293,8430003015589,新規,0,2023-11-01,2023-11-01,オトリリス合同会社,,合同会社,北海道,札幌市中央区,南十一条西９丁目３番１１－１０２号,,01,101,0640811,,,,,,,2023-11-01,1,,,,,オトリリス,0
2294,8430005014820,新規,0,2023-11-01,2023-11-01,一般社団法人北海道美容協会,,その他の設立登記法人,北海道,札幌市中央区,南三条西３丁目７番地１エテルノビル１階,,01,101,0600063,,,,,,,2023-11-01,1,,,,,ホッカイドウビヨウキョウカイ,0
2301,8700150121625,新規,0,2023-11-01,2023-11-01,寧波江北美潤電子有限公司,,外国会社等,,,,,,,,中国寧波市江北区長興路６７７号、６８５号、６８７号３幢１４－４－２０,,,,,,2023-11-01,1,,,,,ネイハコウホクビジユンデンシユウゲンコウシ,0
2302,8700150121633,新規,0,2023-11-01,2023-11-01,Ｔａｉｚｈｏｕ　Ｇｕｏｚｈｉ　Ｉｍｐｏｒｔ　ａｎｄ　Ｅｘｐｏｒｔ　Ｃｏ．，Ｌｔｄ．,,外国会社等,,,,,,,,Ｒｏｏｍ　２４０１２４１９，Ｈｅａｄｑｕａｒｔｅｒｓ　Ｅｃｏｎｏｍｉｃ　Ｂｕｉｌｄｉｎｇ，Ｎｏ．８２８　Ｗａｎｃｈａｎｇ　Ｍｉｄｄｌｅ　Ｒｏａｄ，Ｃｈｅｎｇｄｏｎｇ　Ｓｔｒｅｅｔ，Ｗｅｎｌｉｎｇ　Ｃｉｔｙ，Ｔａｉｚｈｏｕ　Ｃｉｔｙ，Ｚｈｅｊｉａｎｇ　Ｐｒｏｖｉｎｃｅ,,,,,,2023-11-01,1,,,,,タイジョウグオジージンチューコウヨウシエンゴンスー,0
2303,8700150121682,新規,0,2023-11-01,2023-11-01,河合春近土地改良区,,その他,福井県,福井市,幾久町８－２５,,18,201,9100014,,,,,,,2023-11-01,1,,,,,カワイハルチカトチカイリヨウク,0
2304,8700150121699,新規,0,2023-11-01,2023-11-01,ＳｈｅｎＺｈｅｎＹｏｕＬｉＢｏＫｅＭａｏＹｏｕＸｉａｎＧｏｎｇＳｉ,,外国会社等,,,,,,,,Ｌｏｎｇｈｕａ　Ｄｉｓｔｒｉｃｔ　Ｍｉｎｚｈｉ　Ｓｔｒｅｅｔ　Ｓｈａｎｇｆｅｎ，Ｃｏｍｍｕｎｉｔｙ，Ｒｏｎｇｃｈｕａｎｇｚｈｉｈｕｉ，Ｂｕｉｌｄｉｎｇ　Ａ　１２１５，ｓｈｅｎｚｈｅｎ，ｌｏｎｇｈｕａｑｕ，ｇｕａｎｇｄｏｎｇ,,,,,,2023-11-01,1,,,,,シンセンユウリキハカボウユウゲンコウシ,0
2318,9010003042063,新規,0,2023-11-01,2023-11-01,合同会社コツメ不動産,,合同会社,東京都,中央区,銀座１丁目１２番４号Ｎ＆ＥＢＬＤ．７階,,13,102,1040061,,,,,,,2023-11-01,1,,,,,コツメフドウサン,0
2321,9010005037458,新規,0,2023-11-01,2023-11-01,特定非営利活動法人相続・不動産セーフティネット,,その他の設立登記法人,東京都,千代田区,六番町６番４号ＬＨ番町スクエア５階,,13,101,1020085,,,,,,,2023-11-01,1,,,,,ソウゾクフドウサンセーフティネット,0
2326,9010401178260,新規,0,2023-11-01,2023-11-01,株式会社ＷＨＩＴＥ　ＳＴＡＧＥ,,株式会社,東京都,港区,南青山５丁目１７番２号,,13,103,1070062,,,,,,,2023-11-01,1,,,,,ホワイトステージ,0
2331,9010601064070,新規,0,2023-11-01,2023-11-01,株式会社中小企業経営,,株式会社,東京都,江東区,深川１丁目３－１１パークフロントビル６Ｆ,,13,108,1350033,,,,,,,2023-11-01,1,,,,,チュウショウキギョウケイエイ,0
2354,9011101104944,新規,0,2023-11-01,2023-11-01,株式会社Ｓｉｌｌａｇｅ,,株式会社,東京都,新宿区,矢来町１０８番第五英晃ビル３Ｆ,,13,104,1620805,,,,,,,2023-11-01,1,,,,,シアージュ,0
2355,9011101104960,新規,0,2023-11-01,2023-11-01,株式会社たけのこ,,株式会社,東京都,新宿区,富久町７番６号,,13,104,1620067,,,,,,,2023-11-01,1,,,,,タケノコ,0
2356,9011101104993,新規,0,2023-11-01,2023-11-01,ＭｉｒｏｃＳｔａｆｆ株式会社,,株式会社,東京都,新宿区,下落合１丁目１３番４号,,13,104,1610033,,,,,,,2023-11-01,1,,,,,ミロクスタッフ,0
2359,9011103013672,新規,0,2023-11-01,2023-11-01,合同会社ＵｐｗａｒｄＴｒｅｎｄ,,合同会社,東京都,新宿区,新宿１丁目２４番７号,,13,104,1600022,,,,,,,2023-11-01,1,,,,,アップワードトレンド,0
2362,9011201025017,新規,0,2023-11-01,2023-11-01,株式会社クロウト,,株式会社,東京都,中野区,中央４丁目１１番２号,,13,114,1640011,,,,,,,2023-11-01,1,,,,,クロウト,0
2365,9011501029915,新規,0,2023-11-01,2023-11-01,Ｍｅｔｒｏ　Ｄｙｎａｍｉｃｓ株式会社,,株式会社,東京都,荒川区,町屋３丁目２４番２号面川ビル３０９号室,,13,118,1160001,,,,,,,2023-11-01,1,,,,,メトロダイナミックス,0
2375,9012401041167,新規,0,2023-11-01,2023-11-01,株式会社圓心,,株式会社,東京都,武蔵野市,吉祥寺本町１丁目２６番１号ＪＫ吉祥寺ビル２階,,13,203,1800004,,,,,,,2023-11-01,1,,,,,エンシン,0
2384,9013301051561,新規,0,2023-11-01,2023-11-01,株式会社ＭＴコンサルティング,,株式会社,東京都,豊島区,池袋１丁目１番８号Ｓ・Ｋ・Ｙビル３階,,13,116,1700014,,,,,,,2023-11-01,1,,,,,エムティーコンサルティング,0
2385,9013303006860,新規,0,2023-11-01,2023-11-01,合同会社エーシー,,合同会社,東京都,豊島区,南大塚３丁目４５番７号ラインビル３０１号室,,13,116,1700005,,,,,,,2023-11-01,1,,,,,エーシー,0
2391,9020001154248,新規,0,2023-11-01,2023-11-01,株式会社ａｍａｎｅ,,株式会社,神奈川県,川崎市宮前区,犬蔵２丁目３９番１－５２０号,,14,136,2160011,,,,,,,2023-11-01,1,,,,,アマネ,0
2392,9020001154280,新規,0,2023-11-01,2023-11-01,ＴＫリアルマネージメント株式会社,,株式会社,神奈川県,横浜市泉区,緑園６丁目５０番地１６,,14,116,2450002,,,,,,,2023-11-01,1,,,,,ティーケーリアルマネージメント,0
2398,9020003024837,新規,0,2023-11-01,2023-11-01,合同会社Ｏｍｏｃｈｉ,,合同会社,神奈川県,川崎市宮前区,東有馬３丁目６番１１号アル・ソーレ鷺沼２０５,,14,136,2160002,,,,,,,2023-11-01,1,,,,,オモチ,0
2399,9020003024894,新規,0,2023-11-01,2023-11-01,日豊協力合同会社,,合同会社,神奈川県,横浜市中区,福富町東通３８番地二楽ビル４１８号室,,14,104,2310044,,,,,,,2023-11-01,1,,,,,,0
2406,9021001080608,新規,0,2023-11-01,2023-11-01,ａｒｃｈｉ　ｓｅｂｏｎ株式会社,,株式会社,神奈川県,鎌倉市,七里ガ浜東２丁目７－２－３０２,,14,204,2480025,,,,,,,2023-11-01,1,,,,,アーキセボン,0
2407,9021001080616,新規,0,2023-11-01,2023-11-01,株式会社Ｌｉｅｎ,,株式会社,神奈川県,横須賀市,汐入町５丁目５７番地,,14,201,2380042,,,,,,,2023-11-01,1,,,,,リアン,0
2416,9030001156929,新規,0,2023-11-01,2023-11-01,ＭＩＳＡＷＡ　ＨＯＵＳＩＮＧ株式会社,,株式会社,埼玉県,春日部市,粕壁東１丁目２１番７号４０１,,11,214,3440062,,,,,,,2023-11-01,1,,,,,ミサワハウジング,0
2417,9030001156937,新規,0,2023-11-01,2023-11-01,株式会社ＥＭＺＥＱ,,株式会社,埼玉県,八潮市,緑町３丁目２番地１１エテルノ２０３,,11,234,3400808,,,,,,,2023-11-01,1,,,,,エムゼック,0
2418,9030001156945,新規,0,2023-11-01,2023-11-01,株式会社ＡＮＤＣＯＮＮＥＣＴ,,株式会社,埼玉県,川口市,並木３丁目１０－１３,,11,203,3320034,,,,,,,2023-11-01,1,,,,,アンドコネクト,0
2422,9030003022914,新規,0,2023-11-01,2023-11-01,合同会社ＳＨＳ,,合同会社,埼玉県,戸田市,美女木２丁目８番地の３－２５０７号,,11,224,3350031,,,,,,,2023-11-01,1,,,,,エスエイチエス,0
2423,9030003022922,新規,0,2023-11-01,2023-11-01,合同会社ザイジー,,合同会社,埼玉県,越谷市,レイクタウン１丁目１９番地１１,,11,222,3430828,,,,,,,2023-11-01,1,,,,,ザイジー,0
2435,9040001130734,新規,0,2023-11-01,2023-11-01,株式会社ロケットスタート,,株式会社,千葉県,浦安市,美浜４丁目１２番３号,,12,227,2790011,,,,,,,2023-11-01,1,,,,,ロケットスタート,0
2436,9040001130750,新規,0,2023-11-01,2023-11-01,株式会社Ｍ・Ｉ・Ａ,,株式会社,千葉県,船橋市,海神南一丁目１６７４番地３４,,12,204,2730000,,,,,,,2023-11-01,1,,,,,エムアイエー,0
2440,9040005022184,新規,0,2023-11-01,2023-11-01,一般社団法人先端材料研究機構,,その他の設立登記法人,千葉県,柏市,永楽台１丁目１番５号,,12,217,2770086,,,,,,,2023-11-01,1,,,,,センタンザイリョウケンキュウキコウ,0
2445,9050001053760,新規,0,2023-11-01,2023-11-01,株式会社ＳＡＫＵＲＡ　ＴＲＡＤＩＮＧ,,株式会社,茨城県,水戸市,元吉田町１８５７－１３コンフォート元吉田Ｃ２０３,,08,201,3100836,,,,,,,2023-11-01,1,,,,,,0
2451,9080001025947,新規,0,2023-11-01,2023-11-01,株式会社ホテルサービス,,株式会社,静岡県,静岡市駿河区,広野６丁目５番１２号,,22,102,4210121,,,,,,,2023-11-01,1,,,,,ホテルサービス,0
2453,9080101024304,新規,0,2023-11-01,2023-11-01,株式会社ＹＭＳテック,,株式会社,静岡県,富士市,国久保１丁目１１番３４号,,22,210,4170071,,,,,,,2023-11-01,1,,,,,ワイエムエステック,0
2470,9120001259334,新規,0,2023-11-01,2023-11-01,福耀商事株式会社,,株式会社,大阪府,大阪市中央区,島之内２丁目５－１０メロンハウス２０５,,27,128,5420082,,,,,,,2023-11-01,1,,,,,フクヨウショウジ,0
2471,9120001259367,新規,0,2023-11-01,2023-11-01,豊森株式会社,,株式会社,大阪府,大阪市生野区,小路東６丁目８番１７号昭和エクセルビュー東大阪１０３－Ｇ１２,,27,116,5440003,,,,,,,2023-11-01,1,,,,,トヨモリ,0
2472,9120001259433,新規,0,2023-11-01,2023-11-01,株式会社ＭａｉｓｏｎＩｎｃ,,株式会社,大阪府,大阪市東淀川区,瑞光１丁目７番１０号,,27,114,5330005,,,,,,,2023-11-01,1,,,,,メゾンインク,0
2476,9120003025247,新規,0,2023-11-01,2023-11-01,吉村不動産合同会社,,合同会社,大阪府,大阪市天王寺区,大道３丁目８番２４‐５０３号,,27,109,5430052,,,,,,,2023-11-01,1,,,,,ヨシムラフドウサン,0
2489,9130001075524,新規,0,2023-11-01,2023-11-01,未来住宅株式会社,,株式会社,京都府,京都市伏見区,深草西浦町２丁目１１６番地５,,26,109,6120029,,,,,,,2023-11-01,1,,,,,ミライジュウタク,0
2490,9130001075631,新規,0,2023-11-01,2023-11-01,正和技研株式会社,,株式会社,京都府,京都市下京区,中堂寺南町１３４番地京都高度技術研究所８Ｆ,,26,106,6008813,,,,,,,2023-11-01,1,,,,,セイワギケン,0
2493,9140001132167,新規,0,2023-11-01,2023-11-01,Ｃ．Ｏ．Ａ株式会社,,株式会社,兵庫県,姫路市,南町７６番地姫路城陽ビル４階,,28,201,6700912,,,,,,,2023-11-01,1,,,,,シーオーエー,0
2494,9140001132200,新規,0,2023-11-01,2023-11-01,株式会社八大,,株式会社,兵庫県,尼崎市,大物町１丁目３番５号,,28,202,6600823,,,,,,,2023-11-01,1,,,,,ヤヒロ,0
2508,9180001158662,新規,0,2023-11-01,2023-11-01,パワーメタル株式会社,,株式会社,愛知県,半田市,緑ケ丘８丁目１２番地,,23,205,4750002,,,,,,,2023-11-01,1,,,,,パワーメタル,0
2509,9180001158720,新規,0,2023-11-01,2023-11-01,株式会社ＳＲＥ,,株式会社,愛知県,名古屋市西区,那古野２丁目２３番２１号,,23,104,4510042,,,,,,,2023-11-01,1,,,,,エスアールイー,0
2510,9180001158729,新規,0,2023-11-01,2023-11-01,株式会社せんだ,,株式会社,愛知県,名古屋市中区,大須３丁目７番５号,,23,106,4600011,,,,,,,2023-11-01,1,,,,,センダ,0
2513,9180003025927,新規,0,2023-11-01,2023-11-01,合同会社キレイ,,合同会社,愛知県,常滑市,大野町５丁目１１０番地,,23,216,4790866,,,,,,,2023-11-01,1,,,,,キレイ,0
2528,9220003003614,新規,0,2023-11-01,2023-11-01,合同会社Ｂ．Ｆ．,,合同会社,石川県,白山市,千代野西３丁目５番地１０,,17,210,9240072,,,,,,,2023-11-01,1,,,,,ビードットエフドット,0
2533,9240001062354,新規,0,2023-11-01,2023-11-01,株式会社サークル,,株式会社,広島県,広島市中区,寺町６番１５号上森ビル１階,,34,101,7300801,,,,,,,2023-11-01,1,,,,,サークル,0
2537,9270003001571,新規,0,2023-11-01,2023-11-01,合同会社Ｆｏｏｔ　ｐａｉｎｔ,,合同会社,鳥取県,米子市,河崎７８６－２,,31,202,6830852,,,,,,,2023-11-01,1,,,,,フットペイント,0
2543,9290001103582,新規,0,2023-11-01,2023-11-01,株式会社ＭＯＥ,,株式会社,福岡県,福岡市博多区,中洲５丁目４番１０－１９０５号,,40,132,8100801,,,,,,,2023-11-01,1,,,,,エムオーイー,0
2544,9290001103590,新規,0,2023-11-01,2023-11-01,ＬＥＣ建設株式会社,,株式会社,福岡県,福岡市博多区,綱場町３番１６号,,40,132,8120024,,,,,,,2023-11-01,1,,,,,レックケンセツ,0
2545,9290801006869,新規,0,2023-11-01,2023-11-01,昭和観光株式会社,,株式会社,福岡県,北九州市小倉北区,魚町３丁目３番２１号,,40,106,8020006,,,,,,,2023-11-01,1,,,,,ショウワカンコウ,0
2547,9290801030010,新規,0,2023-11-01,2023-11-01,株式会社アイエス電工,,株式会社,福岡県,北九州市小倉北区,日明２丁目１０番１２号（１０８）,,40,106,8030831,,,,,,,2023-11-01,1,,,,,アイエスデンコウ,0
2556,9330003010054,新規,0,2023-11-01,2023-11-01,合同会社くぼた屋,,合同会社,熊本県,熊本市中央区,九品寺６丁目６番６－８０４号,,43,101,8620976,,,,,,,2023-11-01,1,,,,,クボタヤ,0
2557,9330005010713,新規,0,2023-11-01,2023-11-01,ＮＰＯ法人さるこう熊本,,その他の設立登記法人,熊本県,合志市,御代志１６６１番地１ルーロ合志２１０,,43,216,8611104,,,,,,,2023-11-01,1,,,,,サルコウクマモト,0
2564,9360001032758,新規,0,2023-11-01,2023-11-01,株式会社メディアサービス,,株式会社,沖縄県,宜野湾市,真志喜３丁目１８番５－３０１号,,47,205,9012224,,,,,,,2023-11-01,1,,,,,メディアサービス,0
2571,9370003006346,新規,0,2023-11-01,2023-11-01,合同会社ディゲ,,合同会社,宮城県,仙台市太白区,山田本町１４番１５号,,04,104,9820816,,,,,,,2023-11-01,1,,,,,ディゲ,0
2576,9400001016442,新規,0,2023-11-01,2023-11-01,株式会社ＴＡＫＥＤＡ,,株式会社,岩手県,盛岡市,志家町２番３－４０１号,,03,201,0200883,,,,,,,2023-11-01,1,,,,,タケダ,0
2582,9430001090303,新規,0,2023-11-01,2023-11-01,株式会社ＲＥＲＥ,,株式会社,北海道,札幌市西区,西町北１７丁目４番７号,,01,107,0630061,,,,,,,2023-11-01,1,,,,,レレ,0
2583,9430001090328,新規,0,2023-11-01,2023-11-01,株式会社ｃｏｎｅｃｔａｒ,,株式会社,北海道,札幌市中央区,南四条西６丁目８番地晴ばれビル６階,,01,101,0640804,,,,,,,2023-11-01,1,,,,,コネクタール,0
2590,9430003015571,新規,0,2023-11-01,2023-11-01,合同会社Ｔｒｕｓｔ,,合同会社,北海道,苫小牧市,拓勇東町５丁目２番４号,,01,213,0591303,,,,,,,2023-11-01,1,,,,,トラスト,0
2591,9430003015588,新規,0,2023-11-01,2023-11-01,合同会社渡邊工業,,合同会社,北海道,札幌市北区,新琴似七条１４丁目２番１７号,,01,102,0010907,,,,,,,2023-11-01,1,,,,,ワタナベコウギョウ,0
2599,9500003003131,新規,0,2023-11-01,2023-11-01,合同会社文麗,,合同会社,愛媛県,大洲市,新谷甲１９９０番地,,38,207,7950072,,,,,,,2023-11-01,1,,,,,ブンレイ,0
2600,9700150121632,新規,0,2023-11-01,2023-11-01,Ｓｈｅｎｚｈｅｎ　Ｌｉｃａｏ　ｅｃｏｍｍｅｒｃｅ　Ｃｏ．，Ｌｔｄ,,外国会社等,,,,,,,,ｌｏｎｇｇａｎｇｊｉｅｄａｏ　ｎａｎｌｉａｎｓｈｅｑｕｌｏｎｇｇａｎｇｄａｄａｏｌｏｎｇｇａｎｇｄｕａｎ６０３５ｈａｏｊｉｎｒｏｎｇｄａｓｈａ６０１２　ｓｈｅｎｚｈｅｎ　ｌｏｎｇｇａｎｇｑｕ　ｇｕａｎｇｄｏｎｇ　５１８０００　ＣＮ,,,,,,2023-11-01,1,,,,,シェンジェンシーリーツァオディエンズーシャンウーヨウシエンゴンスー,0
2601,9700150121698,新規,0,2023-11-01,2023-11-01,ｓｈｅｎｚｈｅｎｆｕｃｉｋｅｊｉｙｏｕｘｉａｎｇｏｎｇｓｉ,,外国会社等,,,,,,,,ｐｉｎｇｈｕｊｉｅｄａｏｆｅｎｇｈｕａｎｇｓｈｅｑｕ，ｙａｙｕａｎｊｉｅ１９ｈａｏ，ｙａｘｉａｎｇｊｉｅ３０ｈａｏ７０２，ｓｈｅｎｚｈｅｎｓｈｉｌｏｎｇｇａｎｇｑｕ，ｇｕａｎｇｄｏｎｇ,,,,,,2023-11-01,1,,,,,シンセンフクジカギユウゲンコウシ,0
