sequenceNumber,corporateNumber,process,correct,updateDate,changeDate,name,nameImageId,kind,prefectureName,cityName,streetNumber,addressImageId,prefectureCode,cityCode,postCode,addressOutside,addressOutsideImageId,closeDate,closeCause,successorCorporateNumber,changeCause,assignmentDate,latest,enName,enPrefectureName,enCityName,enAddressOutside,furigana,hihyoji
11,1010001242259,新規,0,2024-02-15,2024-02-15,株式会社ＬＡＰＯＮＥガールズ,,株式会社,東京都,千代田区,九段南２丁目８番４号,,13,101,1020074,,,,,,,2024-02-15,1,,,,,ラポネガールズ,0
12,1010001242283,新規,0,2024-02-15,2024-02-15,ＣＡ美療株式会社,,株式会社,東京都,千代田区,神田錦町３丁目２番地,,13,101,1010054,,,,,,,2024-02-15,1,,,,,シーエイビリョウ,0
13,1010001242291,新規,0,2024-02-15,2024-02-15,株式会社Ｅｍｅｒｇｉｎｇ,,株式会社,東京都,文京区,後楽２丁目１番１２号,,13,105,1120004,,,,,,,2024-02-15,1,,,,,エマージング,0
14,1010001242300,新規,0,2024-02-15,2024-02-15,Ｍｉｎｉｍａｌ　Ｇｅａｒ　Ｊａｐａｎ株式会社,,株式会社,東京都,千代田区,平河町１丁目６番１５号ＵＳビル８階,,13,101,1020093,,,,,,,2024-02-15,1,,,,,ミニマルギアジャパン,0
15,1010001242325,新規,0,2024-02-15,2024-02-15,Ｋ‐Ｐａｒｋｉｎｇ株式会社,,株式会社,東京都,中央区,日本橋箱崎町３２－２－１１１５,,13,102,1030015,,,,,,,2024-02-15,1,,,,,ケイパーキング,0
18,1010003042921,新規,0,2024-02-15,2024-02-15,フィル１号合同会社,,合同会社,東京都,千代田区,一ツ橋２丁目６番３号アクシスインベストメントアドバイザーズ株式会社内,,13,101,1010003,,,,,,,2024-02-15,1,,,,,フィルイチゴウ,0
20,1010005037845,新規,0,2024-02-15,2024-02-15,一般社団法人日本中国茶研究所,,その他の設立登記法人,東京都,文京区,本郷６丁目２番１０号,,13,105,1130033,,,,,,,2024-02-15,1,,,,,ニホンチュウゴクチャケンキュウジョ,0
21,1010005037894,新規,0,2024-02-15,2024-02-15,特定目的会社ＬＣＪ熊谷,,その他の設立登記法人,東京都,千代田区,丸の内３丁目１番１号東京共同会計事務所内,,13,101,1000005,,,,,,,2024-02-15,1,,,,,エルシージェークマガヤ,0
25,1010103002313,新規,0,2024-02-15,2024-02-15,プロトンコンサルティング合同会社,,合同会社,東京都,八王子市,別所１丁目４２－１－２－３０８,,13,201,1920363,,,,,,,2024-02-15,1,,,,,プロトンコンサルティング,0
30,1010401180348,新規,0,2024-02-15,2024-02-15,ＮＫＴ株式会社,,株式会社,東京都,港区,虎ノ門３丁目１８番６号朝日虎ノ門マンション６１４号室,,13,103,1050001,,,,,,,2024-02-15,1,,,,,エヌケーティー,0
31,1010401180406,新規,0,2024-02-15,2024-02-15,ネクサスグループホールディングス株式会社,,株式会社,東京都,港区,赤坂３丁目１１番１５号ＶＯＲＴ赤坂見附３Ｆ,,13,103,1070052,,,,,,,2024-02-15,1,,,,,ネクサスグループホールディングス,0
34,1010405022967,新規,0,2024-02-15,2024-02-15,ＮＩＨＯＮＢＡＳＨＩ７一般社団法人,,その他の設立登記法人,東京都,港区,西新橋１丁目２番９号メンターキャピタル税理士法人内,,13,103,1050003,,,,,,,2024-02-15,1,,,,,ニホンバシセブン,0
38,1010901054729,新規,0,2024-02-15,2024-02-15,株式会社Ａｄｄ　ｏｎｅ,,株式会社,東京都,世田谷区,桜丘２丁目１５－１３,,13,112,1560054,,,,,,,2024-02-15,1,,,,,アドワン,0
39,1010903008831,新規,0,2024-02-15,2024-02-15,サラ企画貿易合同会社,,合同会社,東京都,世田谷区,上馬１丁目２３－１,,13,112,1540011,,,,,,,2024-02-15,1,,,,,サラキカクボウエキ,0
41,1011001159955,新規,0,2024-02-15,2024-02-15,株式会社フライングボイスエンターテインメント,,株式会社,東京都,渋谷区,渋谷１丁目７番１号Ｓ－６ビル９Ｆ,,13,113,1500002,,,,,,,2024-02-15,1,,,,,フライングボイスエンターテインメント,0
42,1011001159996,新規,0,2024-02-15,2024-02-15,丸平アセット株式会社,,株式会社,東京都,目黒区,上目黒３丁目１２番２３－１０２号,,13,110,1530051,,,,,,,2024-02-15,1,,,,,マルヘイアセット,0
43,1011001160038,新規,0,2024-02-15,2024-02-15,中澤アセットマネジメント株式会社,,株式会社,東京都,渋谷区,千駄ヶ谷３丁目５番１５一４０２号,,13,113,1510051,,,,,,,2024-02-15,1,,,,,ナカサワアセットマネジメント,0
44,1011001160054,新規,0,2024-02-15,2024-02-15,株式会社Ｐ０Ｌａｂ,,株式会社,東京都,目黒区,上目黒３丁目４１－４,,13,110,1530051,,,,,,,2024-02-15,1,,,,,ピーゼロラボ,0
45,1011001160062,新規,0,2024-02-15,2024-02-15,株式会社ヴェーゼン,,株式会社,東京都,目黒区,中目黒５丁目２８番１８－２０６号グランシティ祐天寺,,13,110,1530061,,,,,,,2024-02-15,1,,,,,ヴェーゼン,0
46,1011001160087,新規,0,2024-02-15,2024-02-15,株式会社ＩｎｎｏｖａｔｉｖｅＡＩ,,株式会社,東京都,渋谷区,道玄坂１丁目１０番８号渋谷道玄坂東急ビル２Ｆ－Ｃ,,13,113,1500043,,,,,,,2024-02-15,1,,,,,イノベイティブエーアイ,0
47,1011003018498,新規,0,2024-02-15,2024-02-15,ｊｅｕ　ｊｅｕ合同会社,,合同会社,東京都,渋谷区,初台１丁目５０番４－２０４号,,13,113,1510061,,,,,,,2024-02-15,1,,,,,ジュジュ,0
50,1011101106213,新規,0,2024-02-15,2024-02-15,株式会社ＨＥＡＲＴＢＥＡＴ,,株式会社,東京都,新宿区,百人町１丁目４番１５号,,13,104,1690073,,,,,,,2024-02-15,1,,,,,ハートビート,0
52,1011201025230,新規,0,2024-02-15,2024-02-15,ＰＨＯＥＮＩＸ国際株式会社,,株式会社,東京都,中野区,東中野１丁目１２番２０－１０１号,,13,114,1640003,,,,,,,2024-02-15,1,,,,,フェニックス,0
64,1011803006090,新規,0,2024-02-15,2024-02-15,合同会社Ｐｌｕｓ１ｃｏｍｐａｎｙ,,合同会社,東京都,足立区,柳原１丁目１４番４－９０１号,,13,121,1200022,,,,,,,2024-02-15,1,,,,,プラスワンカンパニー,0
65,1011805003342,新規,0,2024-02-15,2024-02-15,一般社団法人環境配慮型アスベスト対策協会,,その他の設立登記法人,東京都,足立区,千住旭町２１番７号クワイエット２１２階,,13,121,1200026,,,,,,,2024-02-15,1,,,,,カンキョウハイリョガタアスベストタイサクキョウカイ,0
68,1012801022971,新規,0,2024-02-15,2024-02-15,辻商事株式会社,,株式会社,東京都,立川市,幸町４丁目１８番地の１,,13,202,1900002,,,,,,,2024-02-15,1,,,,,ツジショウジ,0
71,1013301052071,新規,0,2024-02-15,2024-02-15,金陵株式会社,,株式会社,東京都,豊島区,南大塚３丁目４７番２－５０２モナーク大塚,,13,116,1700005,,,,,,,2024-02-15,1,,,,,キンリョウ,0
80,1020003025537,新規,0,2024-02-15,2024-02-15,Ｇ＆Ｌ合同会社,,合同会社,神奈川県,横浜市港南区,野庭町７４番地１メルヴェーユ上永谷１００６,,14,111,2340056,,,,,,,2024-02-15,1,,,,,ジーアンドエル,0
86,1021001081464,新規,0,2024-02-15,2024-02-15,株式会社ふうささ,,株式会社,神奈川県,三浦郡葉山町,堀内１００５番地の１フォルム葉山２０２号,,14,301,2400112,,,,,,,2024-02-15,1,,,,,フウササ,0
87,1021001081472,新規,0,2024-02-15,2024-02-15,株式会社ＥＶＥＲＥＳＴ,,株式会社,神奈川県,小田原市,中里３８５番地の４,,14,206,2500872,,,,,,,2024-02-15,1,,,,,エベレスト,0
95,1030001158643,新規,0,2024-02-15,2024-02-15,株式会社ＡＲＣＥ　ＭＯＲＥ,,株式会社,埼玉県,春日部市,小渕１１６４－１番地,,11,214,3440007,,,,,,,2024-02-15,1,,,,,アルセモア,0
96,1030001158692,新規,0,2024-02-15,2024-02-15,石川電工株式会社,,株式会社,埼玉県,熊谷市,西城９０８番地１,,11,202,3600214,,,,,,,2024-02-15,1,,,,,イシカワデンコウ,0
97,1030001158701,新規,0,2024-02-15,2024-02-15,株式会社宇田川工務店,,株式会社,埼玉県,三郷市,高州２丁目４３９番地１ベリエールミスズ６番館１０２号室,,11,237,3410037,,,,,,,2024-02-15,1,,,,,ウダガワコウムテン,0
101,1040001132102,新規,0,2024-02-15,2024-02-15,岩下株式会社,,株式会社,千葉県,佐倉市,宮前３丁目２２番地４ＧＡＲＤＥＮＥＬＥＧＡＮＴ３１３号室,,12,212,2850005,,,,,,,2024-02-15,1,,,,,イワシタ,0
102,1040001132143,新規,0,2024-02-15,2024-02-15,株式会社おいしいファンディング,,株式会社,千葉県,市川市,大町５７６,,12,203,2720801,,,,,,,2024-02-15,1,,,,,オイシイファンディング,0
103,1040001132218,新規,0,2024-02-15,2024-02-15,株式会社壱和,,株式会社,千葉県,市原市,古市場５５９－９,,12,219,2900008,,,,,,,2024-02-15,1,,,,,イチワ,0
109,1040003024306,新規,0,2024-02-15,2024-02-15,合同会社伊東運送,,合同会社,千葉県,浦安市,堀江６丁目５－５４－２０６,,12,227,2790041,,,,,,,2024-02-15,1,,,,,イトウウンソウ,0
110,1040003024322,新規,0,2024-02-15,2024-02-15,合同会社テケテケワークス,,合同会社,千葉県,千葉市中央区,長洲１丁目５番９号松月堂２０２,,12,101,2600854,,,,,,,2024-02-15,1,,,,,テケテケワークス,0
115,1050001054279,新規,0,2024-02-15,2024-02-15,ＤＭＳＳ　ＩＮＴＥＲＮＡＴＩＯＮＡＬ株式会社,,株式会社,茨城県,下妻市,皆葉４８１番地４,,08,210,3040822,,,,,,,2024-02-15,1,,,,,ディーエムエスエスインターナショナル,0
121,1070005010227,新規,0,2024-02-15,2024-02-15,特定非営利活動法人群馬県相談支援専門員協会,,その他の設立登記法人,群馬県,太田市,宝町３２０番地,,10,205,3730042,,,,,,,2024-02-15,1,,,,,グンマケンソウダンシエンセンモンインキョウカイ,0
122,1080101005377,新規,0,2024-02-15,2024-02-15,株式会社エアテック,,株式会社,静岡県,駿東郡清水町,卸団地３７番地,,22,341,4110912,,,,,,,2024-02-15,1,,,,,エアテック,0
130,1110001038184,新規,0,2024-02-15,2024-02-15,建材運輸株式会社,,株式会社,新潟県,新潟市東区,上木戸１丁目１１番１５号,,15,102,9500891,,,,,,,2024-02-15,1,,,,,ケンザイウンユ,0
139,1120001262246,新規,0,2024-02-15,2024-02-15,株式会社ＡＯＫＩ　ＢＯＵＴＩＱＵＥ,,株式会社,大阪府,大阪市中央区,島之内２丁目１６番１０号４０２,,27,128,5420082,,,,,,,2024-02-15,1,,,,,アオキブティック,0
140,1120001262262,新規,0,2024-02-15,2024-02-15,株式会社くにき,,株式会社,大阪府,大阪市西区,北堀江１丁目８番１４号,,27,106,5500014,,,,,,,2024-02-15,1,,,,,クニキ,0
141,1120001262304,新規,0,2024-02-15,2024-02-15,株式会社ＡＲＫ,,株式会社,大阪府,大阪市中央区,南船場３丁目２番２２号おおきに南船場ビル２０５,,27,128,5420081,,,,,,,2024-02-15,1,,,,,アーク,0
143,1120003025898,新規,0,2024-02-15,2024-02-15,ＣｒｅａｔｅＬａｂ合同会社,,合同会社,大阪府,大阪市北区,梅田１丁目２番２号大阪駅前第２ビル１２‐１２,,27,127,5300001,,,,,,,2024-02-15,1,,,,,クリエイトラボ,0
144,1120005024163,新規,0,2024-02-15,2024-02-15,一般社団法人たっく,,その他の設立登記法人,大阪府,大阪市東淀川区,上新庄２丁目１１番２０－１０２号,,27,114,5330006,,,,,,,2024-02-15,1,,,,,タック,0
148,1120101069038,新規,0,2024-02-15,2024-02-15,新日和物流株式会社,,株式会社,大阪府,貝塚市,澤５６２番地１,,27,208,5970062,,,,,,,2024-02-15,1,,,,,シンニチワブツリュウ,0
158,1130001076348,新規,0,2024-02-15,2024-02-15,ＩＳＰ不動産株式会社,,株式会社,京都府,京都市南区,東九条南河辺町３８番地２０,,26,107,6018034,,,,,,,2024-02-15,1,,,,,アイエスピーフドウサン,0
159,1130003009306,新規,0,2024-02-15,2024-02-15,合同会社ＬｉｎｇｕｉｓｔｉｃＴｅｃｈ,,合同会社,京都府,京都市東山区,今熊野池田町６－１１,,26,105,6050965,,,,,,,2024-02-15,1,,,,,リングイスティックテック,0
162,1140001133321,新規,0,2024-02-15,2024-02-15,株式会社ｏｍｉ,,株式会社,兵庫県,神戸市兵庫区,大開通３丁目１番３７－１００８号,,28,105,6520803,,,,,,,2024-02-15,1,,,,,オーエムアイ,0
163,1140001133338,新規,0,2024-02-15,2024-02-15,株式会社ＯＥＴＣ,,株式会社,兵庫県,神戸市西区,北別府３丁目１－４シャルマンフジ学園都市１０１,,28,111,6512117,,,,,,,2024-02-15,1,,,,,オーイーティーシー,0
167,1150001027076,新規,0,2024-02-15,2024-02-15,本舗レンタリース株式会社,,株式会社,奈良県,大和郡山市,美濃庄町６９３番地,,29,203,6391103,,,,,,,2024-02-15,1,,,,,ホンポレンタリース,0
169,1170001018016,新規,0,2024-02-15,2024-02-15,株式会社Ｌｉｆｅ　Ｃｒｅａｔｉｏｎ,,株式会社,和歌山県,和歌山市,小倉１３０番地２,,30,201,6496261,,,,,,,2024-02-15,1,,,,,ライフクリエーション,0
178,1180001160171,新規,0,2024-02-15,2024-02-15,株式会社Ｗｉｎｆｏｒｃｅ,,株式会社,愛知県,名古屋市中村区,名駅４丁目２４番５号第２森ビル４０１,,23,105,4500002,,,,,,,2024-02-15,1,,,,,ウィンフォース,0
180,1180003026346,新規,0,2024-02-15,2024-02-15,合同会社ＡＢｉｎｔ．エイビント,,合同会社,愛知県,名古屋市北区,山田１丁目１番４０号寿ゞやマンション大曽根８０１号,,23,103,4620810,,,,,,,2024-02-15,1,,,,,エイビントエイビント,0
181,1180003026354,新規,0,2024-02-15,2024-02-15,ＢＭ合同会社,,合同会社,愛知県,名古屋市中川区,服部２丁目１００２番地,,23,110,4540976,,,,,,,2024-02-15,1,,,,,ビーエム,0
182,1180003026362,新規,0,2024-02-15,2024-02-15,エムティエム合同会社,,合同会社,愛知県,名古屋市西区,笹塚町一丁目５０番地,00133740,23,104,4510000,,,,,,,2024-02-15,1,,,,,エムティエム,0
189,1190001031108,新規,0,2024-02-15,2024-02-15,株式会社Ｋｏｎｋｅｙ,,株式会社,三重県,伊勢市,勢田町字船江山８８８番地２４,,24,203,5160035,,,,,,,2024-02-15,1,,,,,コンキイ,0
190,1200001042169,新規,0,2024-02-15,2024-02-15,株式会社結結,,株式会社,岐阜県,不破郡垂井町,表佐４９７８－２６,,21,361,5032122,,,,,,,2024-02-15,1,,,,,ユイユイ,0
195,1240001062790,新規,0,2024-02-15,2024-02-15,株式会社Ｍ＆Ｍ,,株式会社,広島県,福山市,神辺町字湯野３７５番地１,,34,207,7202121,,,,,,,2024-02-15,1,,,,,エムアンドエム,0
201,1260001038764,新規,0,2024-02-15,2024-02-15,株式会社Ｅｎｃｈａｉｎｅｍｅｎｔ,,株式会社,岡山県,備前市,伊部２４８４番地２,,33,211,7050001,,,,,,,2024-02-15,1,,,,,アンシェヌマン,0
205,1290001104662,新規,0,2024-02-15,2024-02-15,株式会社Ｌｉｇａｒｅ,,株式会社,福岡県,糸島市,富２１１番地８,,40,230,8191133,,,,,,,2024-02-15,1,,,,,リガーレ,0
206,1290001104687,新規,0,2024-02-15,2024-02-15,株式会社ＩＲＯ８,,株式会社,福岡県,糟屋郡志免町,別府北２丁目２番２号,,40,343,8112233,,,,,,,2024-02-15,1,,,,,イロハ,0
207,1290001104695,新規,0,2024-02-15,2024-02-15,株式会社Ｂ＆ＡＣ,,株式会社,福岡県,福岡市博多区,博多駅前１丁目２３番２号５Ｆ－Ｂ,,40,132,8120011,,,,,,,2024-02-15,1,,,,,ビーアンドエーシー,0
209,1290801030323,新規,0,2024-02-15,2024-02-15,株式会社ＡＳＫプランニング,,株式会社,福岡県,北九州市若松区,塩屋４丁目７番９号,,40,103,8080131,,,,,,,2024-02-15,1,,,,,アスカプランニング,0
211,1300001013606,新規,0,2024-02-15,2024-02-15,東洋殖産株式会社,,株式会社,佐賀県,鹿島市,大字中村１２６番地１,,41,207,8491304,,,,,,,2024-02-15,1,,,,,トウヨウショクサン,0
219,1350003004565,新規,0,2024-02-15,2024-02-15,合同会社光,,合同会社,宮崎県,北諸県郡三股町,大字樺山５０４５番地２、Ｅ棟,,45,341,8891901,,,,,,,2024-02-15,1,,,,,ヒカリ,0
221,1370001050948,新規,0,2024-02-15,2024-02-15,株式会社リンクライズ,,株式会社,宮城県,柴田郡柴田町,大字船岡字清住町３３番地７,,04,323,9891606,,,,,,,2024-02-15,1,,,,,リンクライズ,0
231,1430001091085,新規,0,2024-02-15,2024-02-15,ＡＳＥホールディングス株式会社,,株式会社,北海道,札幌市厚別区,下野幌テクノパーク１丁目２番１６号,,01,108,0040015,,,,,,,2024-02-15,1,,,,,エーエスイーホールディングス,0
232,1430001091093,新規,0,2024-02-15,2024-02-15,株式会社ＨＪＲ　ＧＲＯＵＰ,,株式会社,北海道,札幌市北区,北十条西３丁目２３番地１ＴＨＥ　ＰＥＡＫ　ＳＡＰＰＯＲＯ１階,,01,102,0010010,,,,,,,2024-02-15,1,,,,,エイチジェーアールグループ,0
233,1430003015959,新規,0,2024-02-15,2024-02-15,ル・カレン合同会社,,合同会社,北海道,江別市,五条６丁目１４番地,,01,217,0670015,,,,,,,2024-02-15,1,,,,,ルカレン,0
236,1430005014892,新規,0,2024-02-15,2024-02-15,一般社団法人Ｐｕｒｐｏｓｅ,,その他の設立登記法人,北海道,札幌市北区,北三十一条西１３丁目２番１１号パステル北３１Ｃ１０１号室,,01,102,0010031,,,,,,,2024-02-15,1,,,,,パーパス,0
237,1450001014226,新規,0,2024-02-15,2024-02-15,ＡＳＫメンテ株式会社,,株式会社,北海道,旭川市,神楽五条６丁目４番２号,,01,204,0708005,,,,,,,2024-02-15,1,,,,,エーエスケーメンテ,0
241,1470005006548,新規,0,2024-02-15,2024-02-15,医療法人社団聖ステラマリス会三枝デンタルオフィス,,その他の設立登記法人,香川県,高松市,亀井町８番地４,,37,201,7600050,,,,,,,2024-02-15,1,,,,,セイステラマリスカイサエグサデンタルオフィス,0
258,2010001242225,新規,0,2024-02-15,2024-02-15,ＩＳＳＴＡＲ株式会社,,株式会社,東京都,中央区,銀座３丁目１４番１７号ｋｏｂｉｋｉｓｓＧＩＮＺＡ４０３号,,13,102,1040061,,,,,,,2024-02-15,1,,,,,イスター,0
259,2010001242274,新規,0,2024-02-15,2024-02-15,株式会社ジョイア,,株式会社,東京都,中央区,日本橋人形町１丁目１８番５号ＴＫ人形町ビル２階,,13,102,1030013,,,,,,,2024-02-15,1,,,,,ジョイア,0
260,2010001242340,新規,0,2024-02-15,2024-02-15,アレス・マネジメント・アジア・ジャパン株式会社,,株式会社,東京都,中央区,日本橋３丁目９番１号日本橋三丁目スクエア１１階,,13,102,1030027,,,,,,,2024-02-15,1,,,,,アレスマネジメントアジアジャパン,0
261,2010001242381,新規,0,2024-02-15,2024-02-15,ＬＵＤＥＮＳ　ＳＴＵＤＥＯ株式会社,,株式会社,東京都,文京区,本郷５丁目２９番１３－３０４号,,13,105,1130033,,,,,,,2024-02-15,1,,,,,ルーデンスストゥディオ,0
263,2010003042929,新規,0,2024-02-15,2024-02-15,リブレフィールズ合同会社,,合同会社,東京都,中央区,日本橋室町１丁目１１番１２号日本橋水野ビル７階,,13,102,1030022,,,,,,,2024-02-15,1,,,,,リブレフィールズ,0
264,2010003042945,新規,0,2024-02-15,2024-02-15,ＢＶＡマネジメント合同会社,,合同会社,東京都,文京区,本駒込３丁目６番１０号,,13,105,1130021,,,,,,,2024-02-15,1,,,,,ビーブイエーマネジメント,0
265,2010005037893,新規,0,2024-02-15,2024-02-15,一般社団法人賃住アセットマネジメント２,,その他の設立登記法人,東京都,中央区,八丁堀４丁目２番１０号ＡＯＪ税理士法人内,,13,102,1040032,,,,,,,2024-02-15,1,,,,,チンジュウアセットマネジメントツー,0
266,2010005037910,新規,0,2024-02-15,2024-02-15,一般社団法人Ｏｖｉｓ,,その他の設立登記法人,東京都,千代田区,丸の内３丁目１番１号東京共同会計事務所内,,13,101,1000005,,,,,,,2024-02-15,1,,,,,オーヴィス,0
278,2010701045547,新規,0,2024-02-15,2024-02-15,市原工業株式会社,00133725,株式会社,東京都,品川区,南大井１丁目１９－１２,,13,109,1400013,,,,,,,2024-02-15,1,,,,,イチハラコウギョウ,0
281,2010903008830,新規,0,2024-02-15,2024-02-15,セタホクブリッジ合同会社,,合同会社,東京都,世田谷区,中町２丁目１３番６号,,13,112,1580091,,,,,,,2024-02-15,1,,,,,セタホクブリッジ,0
284,2011001159987,新規,0,2024-02-15,2024-02-15,インフォトピア株式会社,,株式会社,東京都,渋谷区,渋谷２丁目１９－１５宮益坂ビルディング６０９,,13,113,1500002,,,,,,,2024-02-15,1,,,,,インフォトピア,0
285,2011001160037,新規,0,2024-02-15,2024-02-15,株式会社ｓｔｏｒａｇｅ,,株式会社,東京都,渋谷区,道玄坂１丁目１０番８号渋谷道玄坂東急ビル２Ｆ－Ｃ,,13,113,1500043,,,,,,,2024-02-15,1,,,,,ストレージ,0
286,2011001160045,新規,0,2024-02-15,2024-02-15,株式会社グリットスタイル,,株式会社,東京都,渋谷区,道玄坂１丁目１２番１号渋谷マークシティＷ２２階,,13,113,1500043,,,,,,,2024-02-15,1,,,,,グリットスタイル,0
287,2011003018497,新規,0,2024-02-15,2024-02-15,Ｂｒａｉｎｂｙｔｅ合同会社,,合同会社,東京都,渋谷区,富ヶ谷１丁目４６番７号プレミアブラン代々木公園７０６,,13,113,1510063,,,,,,,2024-02-15,1,,,,,ブレインバイト,0
290,2011101106195,新規,0,2024-02-15,2024-02-15,株式会社楼,,株式会社,東京都,新宿区,歌舞伎町２丁目４２番１３号アゼリア東広ビル８０１,,13,104,1600021,,,,,,,2024-02-15,1,,,,,ロウ,0
292,2011301029403,新規,0,2024-02-15,2024-02-15,シンバライン株式会社,,株式会社,東京都,杉並区,上荻４丁目２２－１,,13,115,1670043,,,,,,,2024-02-15,1,,,,,シンバライン,0
295,2011401025863,新規,0,2024-02-15,2024-02-15,株式会社イフビズ,,株式会社,東京都,板橋区,蓮根２丁目２７－１２古谷野ビル２Ｆ－２９,,13,119,1740046,,,,,,,2024-02-15,1,,,,,イフビズ,0
301,2012801022970,新規,0,2024-02-15,2024-02-15,株式会社アークエンジ,,株式会社,東京都,日野市,多摩平１丁目３番地の６プレシスヴィアラ豊田４０３,,13,212,1910062,,,,,,,2024-02-15,1,,,,,アークエンジ,0
311,2020001155789,新規,0,2024-02-15,2024-02-15,ｉＳＡＮ　Ｂｉｏ株式会社,,株式会社,神奈川県,横浜市青葉区,奈良町２８２４番地１ワコーレ玉川学園Ａ３０８,,14,117,2270036,,,,,,,2024-02-15,1,,,,,アイサンバイオ,0
312,2020001155797,新規,0,2024-02-15,2024-02-15,株式会社イッツー,,株式会社,神奈川県,横浜市神奈川区,金港町５番地１４クアドリフォリオ８階,,14,102,2210056,,,,,,,2024-02-15,1,,,,,イッツー,0
313,2020001155814,新規,0,2024-02-15,2024-02-15,株式会社ワイ・エス,,株式会社,神奈川県,川崎市麻生区,上麻生５丁目３９番３０－５０４号,,14,137,2150021,,,,,,,2024-02-15,1,,,,,ワイエス,0
314,2020001155822,新規,0,2024-02-15,2024-02-15,株式会社キョウオン,,株式会社,神奈川県,横浜市港北区,綱島上町１番地１Ｇ５２４,,14,109,2230055,,,,,,,2024-02-15,1,,,,,キョウオン,0
325,2030001158601,新規,0,2024-02-15,2024-02-15,ｂｌｏｓｓｏｍ株式会社,,株式会社,埼玉県,川口市,大字神戸６０２番地９,,11,203,3330832,,,,,,,2024-02-15,1,,,,,ブラッサム,0
326,2030001158700,新規,0,2024-02-15,2024-02-15,株式会社キャット,,株式会社,埼玉県,さいたま市大宮区,桜木町２丁目３番地大宮マルイ７階,,11,103,3300854,,,,,,,2024-02-15,1,,,,,キャット,0
332,2030003023638,新規,0,2024-02-15,2024-02-15,合同会社ひまわり,,合同会社,埼玉県,戸田市,本町３丁目１５番３１号梅田ビル１０２号室,,11,224,3350023,,,,,,,2024-02-15,1,,,,,ヒマワリ,0
333,2040001132217,新規,0,2024-02-15,2024-02-15,株式会社エフエイト,,株式会社,千葉県,鎌ケ谷市,新鎌ケ谷１丁目５番１８号,,12,224,2730107,,,,,,,2024-02-15,1,,,,,エフエイト,0
334,2040001132225,新規,0,2024-02-15,2024-02-15,日信商事株式会社,,株式会社,千葉県,船橋市,湊町１丁目４番３－３０２号,,12,204,2730011,,,,,,,2024-02-15,1,,,,,ニッシンショウジ,0
337,2040003024313,新規,0,2024-02-15,2024-02-15,ＡＮＤＨＵ　ＴＲＡＤＩＮＧ合同会社,,合同会社,千葉県,市川市,原木２丁目７番１４号（ニューコーポ堀２０２号）,,12,203,2720004,,,,,,,2024-02-15,1,,,,,アンドゥトレーディング,0
338,2050001054278,新規,0,2024-02-15,2024-02-15,ＹＡＳＥＥＮ　ＴＲＡＤＩＮＧ株式会社,,株式会社,茨城県,猿島郡境町,大字染谷１８７番地１,,08,546,3060421,,,,,,,2024-02-15,1,,,,,ヤシーントレーディング,0
339,2060001036837,新規,0,2024-02-15,2024-02-15,ＳＭＲ　ＨＯＬＤＩＮＧＳ株式会社,,株式会社,栃木県,足利市,通３丁目２６１０番地,,09,202,3260814,,,,,,,2024-02-15,1,,,,,エスエムアールホールディングス,0
352,2110001038175,新規,0,2024-02-15,2024-02-15,ＡＲＰＳ株式会社,,株式会社,新潟県,上越市,鴨島１丁目５番２号,,15,222,9430153,,,,,,,2024-02-15,1,,,,,アープス,0
363,2120001262261,新規,0,2024-02-15,2024-02-15,粉喰商事株式会社,,株式会社,大阪府,大阪市北区,野崎町１番３０－２３０１号,,27,127,5300055,,,,,,,2024-02-15,1,,,,,コナクイショウジ,0
364,2120001262303,新規,0,2024-02-15,2024-02-15,ＢｂＰ＆Ｆｉｎａｎｃｅ株式会社,,株式会社,大阪府,大阪市阿倍野区,播磨町１丁目１８番２８号メゾンバンダナ１０２号,,27,119,5450022,,,,,,,2024-02-15,1,,,,,ビービーピーアンドファイナンス,0
365,2120001262328,新規,0,2024-02-15,2024-02-15,株式会社ｍｉｉｃｏｒａ,,株式会社,大阪府,大阪市北区,梅田１丁目２番２号大阪駅前第２ビル１２－１２,,27,127,5300001,,,,,,,2024-02-15,1,,,,,ミコラ,0
366,2120001262352,新規,0,2024-02-15,2024-02-15,楽龍翔株式会社,,株式会社,大阪府,大阪市北区,天満２丁目１－１２天満橋ＳＥビル４階,,27,127,5300043,,,,,,,2024-02-15,1,,,,,ラクリュウショウ,0
368,2120003025922,新規,0,2024-02-15,2024-02-15,合同会社アトリエキャッスル,,合同会社,大阪府,門真市,宮前町四丁目７番２号,,27,223,5710074,,,,,,,2024-02-15,1,,,,,アトリエキャッスル,0
369,2120003025939,新規,0,2024-02-15,2024-02-15,合同会社ｂｖｉｎｄ,,合同会社,大阪府,大阪市東成区,東中本１丁目３番７号,,27,115,5370021,,,,,,,2024-02-15,1,,,,,バインド,0
375,2120101069045,新規,0,2024-02-15,2024-02-15,株式会社大阪源氏,,株式会社,大阪府,堺市堺区,榎元町３丁２番２０号,,27,141,5900027,,,,,,,2024-02-15,1,,,,,オオサカゲンジ,0
383,2120901048768,新規,0,2024-02-15,2024-02-15,Ｔ．Ｍコーポレーション株式会社,,株式会社,大阪府,豊中市,庄内西町３丁目１１番２号,,27,203,5610832,,,,,,,2024-02-15,1,,,,,ティーエムコーポレーション,0
388,2130001076347,新規,0,2024-02-15,2024-02-15,株式会社ハウスフル,,株式会社,京都府,京都市山科区,北花山大林町８１番地６,,26,110,6078482,,,,,,,2024-02-15,1,,,,,ハウスフル,0
391,2140001133312,新規,0,2024-02-15,2024-02-15,株式会社ＵＮ,,株式会社,兵庫県,神戸市中央区,海岸通３丁目１－１ＫＣＣビル４Ｆ,,28,110,6500024,,,,,,,2024-02-15,1,,,,,ユーエヌ,0
392,2140001133320,新規,0,2024-02-15,2024-02-15,株式会社ビビミク,,株式会社,兵庫県,神戸市垂水区,舞多聞西３丁目２番１９号,,28,108,6550051,,,,,,,2024-02-15,1,,,,,ビビミク,0
393,2140001133345,新規,0,2024-02-15,2024-02-15,株式会社ＫＳＴ,,株式会社,兵庫県,神戸市中央区,港島９丁目１１番地の１ＳＫビル３０４,,28,110,6500045,,,,,,,2024-02-15,1,,,,,ケーエスティ,0
394,2140003020153,新規,0,2024-02-15,2024-02-15,ダイバース合同会社,,合同会社,兵庫県,豊岡市,城崎町上山１６８５番地,,28,209,6696116,,,,,,,2024-02-15,1,,,,,ダイバース,0
396,2150002011895,新規,0,2024-02-15,2024-02-15,有限会社ダイヤハウス,,有限会社,奈良県,天理市,南六条町元六条方１４９番地１,,29,204,6320098,,,,,,,2024-02-15,1,,,,,ダイヤハウス,0
397,2150003003181,新規,0,2024-02-15,2024-02-15,合同会社伊川商事,,合同会社,奈良県,奈良市,西大寺本町３番２８レイセニット西大寺ギャラリア８０３号室,,29,201,6310816,,,,,,,2024-02-15,1,,,,,イカワショウジ,0
399,2160001025697,新規,0,2024-02-15,2024-02-15,株式会社みなと,,株式会社,滋賀県,東近江市,沖野２丁目９－２５,,25,213,5270034,,,,,,,2024-02-15,1,,,,,ミナト,0
401,2170005007071,新規,0,2024-02-15,2024-02-15,特定非営利活動法人和歌ノ浦ブルーエコノミー推進研究機構,,その他の設立登記法人,和歌山県,和歌山市,卜半町３１番地,,30,201,6408045,,,,,,,2024-02-15,1,,,,,ワカノウラブルーエコノミースイシンケンキュウキコウ,0
406,2180001160204,新規,0,2024-02-15,2024-02-15,株式会社Ｎｉｉｄｏ,,株式会社,愛知県,名古屋市中区,金山１丁目１４―１６トキワビル５Ｆ,,23,106,4600022,,,,,,,2024-02-15,1,,,,,ニード,0
408,2180003026337,新規,0,2024-02-15,2024-02-15,合同会社Ｎａｇａｏ,,合同会社,愛知県,名古屋市東区,泉１丁目１２番２５号シティタワー名古屋久屋大通公園２９０７号,,23,102,4610001,,,,,,,2024-02-15,1,,,,,ナガオ,0
409,2180003026345,新規,0,2024-02-15,2024-02-15,ＴＲＧ　ＮＡＧＯＹＡ合同会社,,合同会社,愛知県,名古屋市昭和区,御器所３丁目２７番１０号,,23,107,4660051,,,,,,,2024-02-15,1,,,,,ティーアールジーナゴヤ,0
410,2180003026353,新規,0,2024-02-15,2024-02-15,合同会社ＨＨＭ,,合同会社,愛知県,一宮市,開明字北西沼２５番地１ヴィラナリー尾西２号棟３０２,,23,203,4940001,,,,,,,2024-02-15,1,,,,,ハットリハウスメンテナンス,0
412,2180301038323,新規,0,2024-02-15,2024-02-15,株式会社ＹＴＰ,,株式会社,愛知県,碧南市,久沓町４丁目１３５番地,,23,209,4470065,,,,,,,2024-02-15,1,,,,,ワイティーピー,0
413,2180303006006,新規,0,2024-02-15,2024-02-15,合同会社ｈａｋｕｔｏ,,合同会社,愛知県,岡崎市,能見通１丁目６１番地ウメムラビル１Ｆ,,23,202,4440073,,,,,,,2024-02-15,1,,,,,ハクト,0
414,2190001031115,新規,0,2024-02-15,2024-02-15,臥龍株式会社,,株式会社,三重県,四日市市,西村町４０８７番地３９,,24,202,5121305,,,,,,,2024-02-15,1,,,,,ガリョウ,0
418,2200001042151,新規,0,2024-02-15,2024-02-15,ティーツーエンジ株式会社,,株式会社,岐阜県,瑞穂市,牛牧１２７２番地７３,,21,216,5010234,,,,,,,2024-02-15,1,,,,,ティーツーエンジ,0
420,2210001019636,新規,0,2024-02-15,2024-02-15,株式会社エヌ・ビー・ワイ,,株式会社,福井県,勝山市,立川町２丁目２番４０号,,18,206,9110805,,,,,,,2024-02-15,1,,,,,エヌビーワイ,0
423,2240001062781,新規,0,2024-02-15,2024-02-15,ＳＫグループ株式会社,,株式会社,広島県,広島市中区,東白島町５番３０－１２０４号,,34,101,7300004,,,,,,,2024-02-15,1,,,,,エスケイグループ,0
424,2240001062807,新規,0,2024-02-15,2024-02-15,ＲＥＬＩＥＦ株式会社,,株式会社,広島県,広島市安佐北区,三入南１丁目４番１２号,,34,106,7310213,,,,,,,2024-02-15,1,,,,,リリーフ,0
437,2290003014974,新規,0,2024-02-15,2024-02-15,米沢第二バイオマス発電所合同会社,,合同会社,福岡県,福岡市早良区,百道浜２丁目４番２７号ＡＩビル６Ｆ,,40,137,8140001,,,,,,,2024-02-15,1,,,,,ヨネザワダイニバイオマスハツデンショ,0
438,2290801030322,新規,0,2024-02-15,2024-02-15,株式会社ワイズプラス,,株式会社,福岡県,直方市,湯野原２丁目１４番３１号,,40,204,8220008,,,,,,,2024-02-15,1,,,,,ワイズプラス,0
444,2330001031752,新規,0,2024-02-15,2024-02-15,株式会社フォーハート熊本,,株式会社,熊本県,宇土市,築籠町２８番地１３,,43,211,8690408,,,,,,,2024-02-15,1,,,,,フォーハートクマモト,0
448,2330003010218,新規,0,2024-02-15,2024-02-15,合同会社晃真,,合同会社,熊本県,八代市,田中東町２５番１１号,,43,202,8660871,,,,,,,2024-02-15,1,,,,,コウシン,0
449,2330005010760,新規,0,2024-02-15,2024-02-15,医療法人智仁勇,,その他の設立登記法人,熊本県,菊池郡菊陽町,大字津久礼２４３４番地,,43,404,8691101,,,,,,,2024-02-15,1,,,,,チジンユウ,0
451,2340005009703,新規,0,2024-02-15,2024-02-15,一般社団法人Ｌ．Ｂ．Ｌ,,その他の設立登記法人,鹿児島県,鹿児島市,城山２丁目９－８,,46,201,8920813,,,,,,,2024-02-15,1,,,,,エルビーエル,0
456,2360001033192,新規,0,2024-02-15,2024-02-15,株式会社沖縄ゴールデンマンゴーファーム,,株式会社,沖縄県,国頭郡東村,字宮城美里原５１５番地８４,,47,303,9051202,,,,,,,2024-02-15,1,,,,,オキナワゴールデンマンゴーファーム,0
460,2370001050947,新規,0,2024-02-15,2024-02-15,リンクサービス株式会社,,株式会社,宮城県,仙台市青葉区,北山２丁目９番２０－２号,,04,101,9810931,,,,,,,2024-02-15,1,,,,,リンクサービス,0
462,2380001034296,新規,0,2024-02-15,2024-02-15,株式会社ムーブアップ,,株式会社,福島県,郡山市,桑野４丁目４番２３号,,07,203,9638025,,,,,,,2024-02-15,1,,,,,ムーブアップ,0
468,2430001091068,新規,0,2024-02-15,2024-02-15,株式会社ステラインフィニット,,株式会社,北海道,札幌市西区,二十四軒四条４丁目８番１５号川瀬マンションＢ棟６号室,,01,107,0630804,,,,,,,2024-02-15,1,,,,,ステラインフィニット,0
469,2430001091076,新規,0,2024-02-15,2024-02-15,株式会社オノダペットケア,,株式会社,北海道,苫小牧市,澄川町２丁目１番２３号,,01,213,0591271,,,,,,,2024-02-15,1,,,,,オノダペットケア,0
470,2430001091084,新規,0,2024-02-15,2024-02-15,株式会社Ｒｉｃｈｅｓ,,株式会社,北海道,札幌市西区,発寒十五条１丁目９番７号,,01,107,0630835,,,,,,,2024-02-15,1,,,,,リシェス,0
472,2430003015958,新規,0,2024-02-15,2024-02-15,合同会社ＴＳＳＳ,,合同会社,北海道,岩見沢市,四条西３丁目１であえーる岩見沢１階,,01,210,0680024,,,,,,,2024-02-15,1,,,,,ティーエスエスエス,0
480,2480001012390,新規,0,2024-02-15,2024-02-15,株式会社フェアリーケアー,,株式会社,徳島県,鳴門市,大麻町大谷字森崎５０番地３,,36,202,7790302,,,,,,,2024-02-15,1,,,,,フェアリーケアー,0
491,3010001242273,新規,0,2024-02-15,2024-02-15,Ａｄｖａｎｃｅｄ　Ｆｌｏａｔ株式会社,,株式会社,東京都,中央区,銀座３丁目４番１号大倉別館５階,,13,102,1040061,,,,,,,2024-02-15,1,,,,,アドバンストフロート,0
492,3010001242307,新規,0,2024-02-15,2024-02-15,エストマンフーズ株式会社,,株式会社,東京都,中央区,入船２丁目２番３号サンエムビル４階,,13,102,1040042,,,,,,,2024-02-15,1,,,,,エストマンフーズ,0
493,3010001242315,新規,0,2024-02-15,2024-02-15,ベース株式会社,,株式会社,東京都,千代田区,内神田１丁目１８番１１号１１１４号,,13,101,1010047,,,,,,,2024-02-15,1,,,,,ベース,0
494,3010001242348,新規,0,2024-02-15,2024-02-15,株式会社Ｏｒｉｎａｓ,,株式会社,東京都,中央区,銀座１丁目２２番１１号銀座大竹ビジデンス２階,,13,102,1040061,,,,,,,2024-02-15,1,,,,,オリナス,0
499,3010003042952,新規,0,2024-02-15,2024-02-15,平成合同会社,,合同会社,東京都,文京区,湯島３丁目２８－１２－３０７,,13,105,1130034,,,,,,,2024-02-15,1,,,,,ヘイセイ,0
500,3010003042969,新規,0,2024-02-15,2024-02-15,合同会社Ｏｖｉｓ,,合同会社,東京都,千代田区,丸の内３丁目１番１号東京共同会計事務所内,,13,101,1000005,,,,,,,2024-02-15,1,,,,,オーヴィス,0
502,3010005037892,新規,0,2024-02-15,2024-02-15,一般社団法人ＮＵ‐１０,,その他の設立登記法人,東京都,中央区,八丁堀４丁目２番１０号ＡＯＪ税理士法人内,,13,102,1040032,,,,,,,2024-02-15,1,,,,,エヌユーテン,0
504,3010101016008,新規,0,2024-02-15,2024-02-15,株式会社ＳＦ　ＨＯＭＥ,,株式会社,東京都,八王子市,長房町２３０番地７３,,13,201,1930824,,,,,,,2024-02-15,1,,,,,,0
509,3010401180379,新規,0,2024-02-15,2024-02-15,株式会社Ｇ４Ｗｏｒｋｓ,,株式会社,東京都,港区,北青山３丁目６－７青山パラシオタワー１１階,,13,103,1070061,,,,,,,2024-02-15,1,,,,,ジーフォーワークス,0
510,3010401180395,新規,0,2024-02-15,2024-02-15,三田３号株式会社,,株式会社,東京都,港区,浜松町２丁目２番１５号浜松町ダイヤビル２階,,13,103,1050013,,,,,,,2024-02-15,1,,,,,ミタサンゴウ,0
514,3010501051793,新規,0,2024-02-15,2024-02-15,清水グループ株式会社,,株式会社,東京都,台東区,台東１丁目２９－３イースタンクロスアキバ３１３号室,,13,106,1100016,,,,,,,2024-02-15,1,,,,,シミズグループ,0
516,3010601064654,新規,0,2024-02-15,2024-02-15,株式会社Ｐｒｅｍｉｏ,,株式会社,東京都,江東区,亀戸９丁目４１番１号亀戸レジデンス１２７,,13,108,1360071,,,,,,,2024-02-15,1,,,,,プレミオ,0
520,3010701045554,新規,0,2024-02-15,2024-02-15,ＷａＢｅｅ株式会社,,株式会社,東京都,品川区,大井１丁目１６番１－３０１号,,13,109,1400014,,,,,,,2024-02-15,1,,,,,ワビィー,0
524,3010901054710,新規,0,2024-02-15,2024-02-15,みん就株式会社,,株式会社,東京都,世田谷区,玉川１丁目１４番１号,,13,112,1580094,,,,,,,2024-02-15,1,,,,,ミンシュウ,0
525,3010901054719,新規,0,2024-02-15,2024-02-15,株式会社ＥａＴ,,株式会社,東京都,世田谷区,下馬６丁目４１番１３号,,13,112,1540002,,,,,,,2024-02-15,1,,,,,イート,0
526,3010901054727,新規,0,2024-02-15,2024-02-15,株式会社平幸,,株式会社,東京都,世田谷区,南烏山６丁目９番１４－１０４号,,13,112,1570062,,,,,,,2024-02-15,1,,,,,ヒラユキ,0
527,3010903008821,新規,0,2024-02-15,2024-02-15,ＰｏＣ合同会社,,合同会社,東京都,世田谷区,奥沢３丁目３１－１１,,13,112,1580083,,,,,,,2024-02-15,1,,,,,ピーオーシー,0
536,3011001160011,新規,0,2024-02-15,2024-02-15,コンサイニージャパン株式会社,,株式会社,東京都,渋谷区,千駄ヶ谷１丁目２４番５号ストーンハウスＩＩＢ１Ｆ,00133724,13,113,1510051,,,,,,,2024-02-15,1,,,,,コンサイニージャパン,0
542,3011101106178,新規,0,2024-02-15,2024-02-15,株式会社ＭｅｄｉｃａｌＸ,,株式会社,東京都,新宿区,歌舞伎町１丁目１番１７号,,13,104,1600021,,,,,,,2024-02-15,1,,,,,メディカルエックス,0
545,3011201025245,新規,0,2024-02-15,2024-02-15,Ｊ１ＳＩＸ株式会社,,株式会社,東京都,中野区,新井４丁目８番１２号ＬＢＯＸ５・３０３,,13,114,1650026,,,,,,,2024-02-15,1,,,,,ジェイワンシックス,0
546,3011301029402,新規,0,2024-02-15,2024-02-15,株式会社ＢｉｚＢｒｉｇｈｔ,,株式会社,東京都,杉並区,上荻２丁目２８番６号,,13,115,1670043,,,,,,,2024-02-15,1,,,,,ビズブライト,0
548,3011701027014,新規,0,2024-02-15,2024-02-15,廣エキスプレス株式会社,,株式会社,東京都,江戸川区,南葛西７丁目１番７号,,13,123,1340085,,,,,,,2024-02-15,1,,,,,ヒロエキスプレス,0
549,3011701027022,新規,0,2024-02-15,2024-02-15,株式会社エアノバ,,株式会社,東京都,江戸川区,平井４丁目９番１７－２０１号,,13,123,1320035,,,,,,,2024-02-15,1,,,,,エアノバ,0
553,3011801043794,新規,0,2024-02-15,2024-02-15,株式会社Ｐａｒａｄｏｘ＆Ｓｔｒａｔｅｇｉｅｓ,,株式会社,東京都,足立区,千住仲町１９－５,,13,121,1200036,,,,,,,2024-02-15,1,,,,,パラドックスアンドストラテジーズ,0
554,3011803006097,新規,0,2024-02-15,2024-02-15,合同会社姜商店,,合同会社,東京都,足立区,佐野２丁目３５番９－１０７号,,13,121,1210053,,,,,,,2024-02-15,1,,,,,カンショウテン,0
557,3012301013783,新規,0,2024-02-15,2024-02-15,株式会社スタートアップ,,株式会社,東京都,町田市,原町田６丁目２４番１７号,,13,209,1940013,,,,,,,2024-02-15,1,,,,,スタートアップ,0
559,3012401041528,新規,0,2024-02-15,2024-02-15,アトラスコミュニティ株式会社,,株式会社,東京都,武蔵野市,境南町２丁目１７番５号センチュリー境南ＩＩ２０１号,00133728,13,203,1800023,,,,,,,2024-02-15,1,,,,,アトラスコミュニティ,0
569,3013301052086,新規,0,2024-02-15,2024-02-15,株式会社水島事務所,,株式会社,東京都,豊島区,目白４丁目１４番１３号,,13,116,1710031,,,,,,,2024-02-15,1,,,,,ミズシマジムショ,0
570,3013303006998,新規,0,2024-02-15,2024-02-15,合同会社ＪＵＭＢＬＥ,,合同会社,東京都,豊島区,目白３丁目１番１９号目白ヒルズレジデンス１０２号,,13,116,1710031,,,,,,,2024-02-15,1,,,,,ジャンブル,0
571,3013305003572,新規,0,2024-02-15,2024-02-15,司法書士法人エフアール事務所,,その他の設立登記法人,東京都,豊島区,巣鴨４丁目７番６号,,13,116,1700002,,,,,,,2024-02-15,1,,,,,エフアールジムショ,0
582,3021003014156,新規,0,2024-02-15,2024-02-15,合同会社８８商店,,合同会社,神奈川県,厚木市,栄町２丁目９番１－８０２号,,14,212,2430017,,,,,,,2024-02-15,1,,,,,ハチハチショウテン,0
592,3030001158641,新規,0,2024-02-15,2024-02-15,兄弟観光株式会社,,株式会社,埼玉県,鴻巣市,三ツ木３７７－１,,11,217,3650066,,,,,,,2024-02-15,1,,,,,キョウダイカンコウ,0
593,3030001158724,新規,0,2024-02-15,2024-02-15,株式会社ミチホ,,株式会社,埼玉県,蕨市,中央３丁目１２番２号５０７,,11,223,3350004,,,,,,,2024-02-15,1,,,,,ミチホ,0
603,3050001054293,新規,0,2024-02-15,2024-02-15,グローバルリンク株式会社,,株式会社,茨城県,石岡市,南台４丁目１５番１５号,,08,205,3150035,,,,,,,2024-02-15,1,,,,,グローバルリンク,0
606,3060001036828,新規,0,2024-02-15,2024-02-15,株式会社アスピレーション,,株式会社,栃木県,栃木市,箱森町２４番３９－８号,,09,203,3280075,,,,,,,2024-02-15,1,,,,,アスピレーション,0
607,3060001036836,新規,0,2024-02-15,2024-02-15,株式会社フォレスト,,株式会社,栃木県,宇都宮市,飯田町４１９番地,,09,201,3210347,,,,,,,2024-02-15,1,,,,,フォレスト,0
609,3060003004907,新規,0,2024-02-15,2024-02-15,ＮＢ　ＴＲＡＤＩＮＧ合同会社,,合同会社,栃木県,足利市,小俣町２４０番地１,,09,202,3260141,,,,,,,2024-02-15,1,,,,,エヌビートレーディング,0
614,3070001041406,新規,0,2024-02-15,2024-02-15,株式会社ウィズバンク,,株式会社,群馬県,北群馬郡吉岡町,大字大久保１６６１番地１,,10,345,3703602,,,,,,,2024-02-15,1,,,,,ウィズバンク,0
615,3070005010225,新規,0,2024-02-15,2024-02-15,社団法人高山報徳社,,その他の設立登記法人,群馬県,吾妻郡高山村,大字尻高甲３０４３番地,,10,428,3770701,,,,,,,2024-02-15,1,,,,,タカヤマホウトクシャ,0
617,3080001026133,新規,0,2024-02-15,2024-02-15,株式会社Ｅｖｒｉ,,株式会社,静岡県,静岡市清水区,江尻台町１０番１号,,22,103,4240044,,,,,,,2024-02-15,1,,,,,エブリ,0
618,3080401027004,新規,0,2024-02-15,2024-02-15,株式会社スマイル,,株式会社,静岡県,浜松市天竜区,二俣町二俣１７３３番地の３,,22,140,4313314,,,,,,,2024-02-15,1,,,,,スマイル,0
620,3090001018550,新規,0,2024-02-15,2024-02-15,株式会社試食車ドットコム,,株式会社,山梨県,甲府市,国母８丁目１１－３２,,19,201,4000043,,,,,,,2024-02-15,1,,,,,シショクシャドットコム,0
622,3110001038182,新規,0,2024-02-15,2024-02-15,株式会社東陽電研,,株式会社,新潟県,三条市,田島１丁目４番１号,,15,204,9550044,,,,,,,2024-02-15,1,,,,,トウヨウデンケン,0
623,3110003005288,新規,0,2024-02-15,2024-02-15,合同会社Ｍａｋｉｎｇ,,合同会社,新潟県,新潟市西蒲区,曽根２４４番地１,,15,108,9590422,,,,,,,2024-02-15,1,,,,,メイキング,0
636,3120001261948,新規,0,2024-02-15,2024-02-15,株式会社上海租界,,株式会社,大阪府,大阪市中央区,東心斎橋１丁目１７番２７号７階,,27,128,5420083,,,,,,,2024-02-15,1,,,,,シャンハイソカイ,0
637,3120001262153,新規,0,2024-02-15,2024-02-15,新苑貿易株式会社,,株式会社,大阪府,大阪市生野区,小路東３丁目４番２号,,27,116,5440003,,,,,,,2024-02-15,1,,,,,シンエンボウエキ,0
638,3120001262211,新規,0,2024-02-15,2024-02-15,Ｉｎｆｉｎｉｔｅ株式会社,,株式会社,大阪府,大阪市西区,南堀江２丁目３番７－２０４号,,27,106,5500015,,,,,,,2024-02-15,1,,,,,インフィニット,0
639,3120001262228,新規,0,2024-02-15,2024-02-15,株式会社創想,,株式会社,大阪府,寝屋川市,池田２丁目１番８号,,27,215,5720039,,,,,,,2024-02-15,1,,,,,ソウソウ,0
640,3120001262244,新規,0,2024-02-15,2024-02-15,株式会社ファーストジャーニー,,株式会社,大阪府,大阪市此花区,春日出北１丁目９番１３号,,27,104,5540021,,,,,,,2024-02-15,1,,,,,ファーストジャーニー,0
641,3120001262260,新規,0,2024-02-15,2024-02-15,株式会社ｂｒｉｇｈｔ　ｆｕｔｕｒｅ,,株式会社,大阪府,大阪市淀川区,西中島５丁目７－１７－３０３,,27,123,5320011,,,,,,,2024-02-15,1,,,,,ブライトヒューチャー,0
642,3120001262269,新規,0,2024-02-15,2024-02-15,株式会社パーソナルラビット,,株式会社,大阪府,大阪市中央区,日本橋１丁目１７－１７ピカソ日本一ビル６０４号室,,27,128,5420073,,,,,,,2024-02-15,1,,,,,パーソナルラビット,0
643,3120001262302,新規,0,2024-02-15,2024-02-15,京都書画院株式会社,,株式会社,大阪府,大阪市淀川区,西宮原３丁目２番１号新大阪ビジネス第２ニッケンマンション５２６号,,27,123,5320004,,,,,,,2024-02-15,1,,,,,キョウトショガイン,0
644,3120001262310,新規,0,2024-02-15,2024-02-15,株式会社ロイヤルスケッター,,株式会社,大阪府,大阪市中央区,鎗屋町１丁目２番１２号,,27,128,5400027,,,,,,,2024-02-15,1,,,,,ロイヤルスケッター,0
649,3120005024153,新規,0,2024-02-15,2024-02-15,一般社団法人リリベット,,その他の設立登記法人,大阪府,大阪市生野区,新今里５丁目６－１５,,27,116,5440001,,,,,,,2024-02-15,1,,,,,リリベット,0
651,3120101069044,新規,0,2024-02-15,2024-02-15,ＯＫＣ株式会社,,株式会社,大阪府,堺市堺区,大浜北町３丁４番２号朝日プラザ大浜３００６号室,,27,141,5900974,,,,,,,2024-02-15,1,,,,,オーケーシー,0
652,3120101069052,新規,0,2024-02-15,2024-02-15,株式会社ビープラス,,株式会社,大阪府,堺市堺区,新町５番３２号,,27,141,5900079,,,,,,,2024-02-15,1,,,,,ビープラス,0
654,3120103005682,新規,0,2024-02-15,2024-02-15,合同会社Ｍａｈａｌｏ　Ｙ２,,合同会社,大阪府,泉南市,信達大苗代５１５番地の１,,27,228,5900505,,,,,,,2024-02-15,1,,,,,マハロワイツー,0
658,3122001037824,新規,0,2024-02-15,2024-02-15,信成商事株式会社,,株式会社,大阪府,東大阪市,川中３５８番地の１,,27,227,5780902,,,,,,,2024-02-15,1,,,,,シンセイショウジ,0
662,3130001076354,新規,0,2024-02-15,2024-02-15,株式会社人見石巧業,,株式会社,京都府,京都市右京区,京北細野町風ケ鼻９番９番の乙合地,,26,108,6010262,,,,,,,2024-02-15,1,,,,,ヒトミイシコウギョウ,0
663,3130001076379,新規,0,2024-02-15,2024-02-15,株式会社ＺＥＲＯ　ＧＯＬＤ,,株式会社,京都府,京都市中京区,高倉通夷川上る福屋町７１８番地,,26,104,6040882,,,,,,,2024-02-15,1,,,,,ゼロゴールド,0
664,3130003009304,新規,0,2024-02-15,2024-02-15,Ｒ＆Ｓ合同会社,,合同会社,京都府,京都市東山区,福稲下高松町９番地７,,26,105,6050982,,,,,,,2024-02-15,1,,,,,アールアンドエス,0
669,3140003020169,新規,0,2024-02-15,2024-02-15,合同会社テクニカルフォール,,合同会社,兵庫県,神戸市中央区,中町通３丁目１番１６－５０２号,,28,110,6500027,,,,,,,2024-02-15,1,,,,,テクニカルフォール,0
679,3180001160104,新規,0,2024-02-15,2024-02-15,株式会社Ｋ＆Ｉメディカルサプライ,,株式会社,愛知県,名古屋市中区,錦２丁目７番７号（プラウドタワー名古屋錦１４０９号）,,23,106,4600003,,,,,,,2024-02-15,1,,,,,ケイアンドアイメディカルサプライ,0
680,3180001160137,新規,0,2024-02-15,2024-02-15,株式会社ｍｉｓｔ,,株式会社,愛知県,春日井市,勝川町６丁目１２０番地,,23,206,4860945,,,,,,,2024-02-15,1,,,,,ミスト,0
682,3180003026352,新規,0,2024-02-15,2024-02-15,合同会社Ｂｕｂｂｌｅ,,合同会社,愛知県,名古屋市中川区,四女子町３丁目７０番地コンフォートＴ１０１号,,23,110,4540822,,,,,,,2024-02-15,1,,,,,バブル,0
684,3180301038322,新規,0,2024-02-15,2024-02-15,株式会社ＯＫＤ,,株式会社,愛知県,岡崎市,上明大寺町２丁目１３番地,,23,202,4440861,,,,,,,2024-02-15,1,,,,,オーケイディー,0
688,3200001042167,新規,0,2024-02-15,2024-02-15,株式会社Ｙｕｔｏｒｉｂｉ,,株式会社,岐阜県,大垣市,赤坂町３０５５番地１０,,21,202,5032213,,,,,,,2024-02-15,1,,,,,ユトリビ,0
697,3230001020211,新規,0,2024-02-15,2024-02-15,株式会社Ｒｅ．ｃｏｎｎｅｃｔ,,株式会社,富山県,富山市,桜橋通り３－１富山電気ビルディング本館２階,,16,201,9300004,,,,,,,2024-02-15,1,,,,,リコネクト,0
702,3240001062789,新規,0,2024-02-15,2024-02-15,株式会社ＳＥＥＤ,,株式会社,広島県,広島市南区,的場町１丁目２番２１号８階,,34,103,7320824,,,,,,,2024-02-15,1,,,,,シード,0
703,3240001062806,新規,0,2024-02-15,2024-02-15,株式会社シャノワール,,株式会社,広島県,広島市西区,高須台１丁目７番２７号,,34,104,7330876,,,,,,,2024-02-15,1,,,,,シャノワール,0
705,3240003006538,新規,0,2024-02-15,2024-02-15,合同会社ＡＮＥＴＩＳ,,合同会社,広島県,広島市安佐南区,中筋１丁目９番２０－３０２号,,34,105,7310122,,,,,,,2024-02-15,1,,,,,アネティス,0
719,3290801030321,新規,0,2024-02-15,2024-02-15,株式会社サンホープ,,株式会社,福岡県,中間市,中央４丁目２６番３号,,40,215,8090030,,,,,,,2024-02-15,1,,,,,サンホープ,0
722,3310003004724,新規,0,2024-02-15,2024-02-15,合同会社暖,,合同会社,長崎県,北松浦郡小値賀町,笛吹郷１６６４番地,,42,383,8574701,,,,,,,2024-02-15,1,,,,,ハル,0
725,3330001031751,新規,0,2024-02-15,2024-02-15,株式会社アシストワークス,,株式会社,熊本県,熊本市北区,室園町１番２号,,43,105,8618072,,,,,,,2024-02-15,1,,,,,アシストワークス,0
730,3360001033183,新規,0,2024-02-15,2024-02-15,株式会社Ａｋｕａ沖縄,,株式会社,沖縄県,豊見城市,字名嘉地３１１番３,,47,212,9010235,,,,,,,2024-02-15,1,,,,,アクアオキナワ,0
731,3360003013712,新規,0,2024-02-15,2024-02-15,ＡＪＡＧＲＡＭ合同会社,,合同会社,沖縄県,浦添市,内間４丁目１３番地１０号,,47,208,9012121,,,,,,,2024-02-15,1,,,,,アジャグラム,0
738,3380001034295,新規,0,2024-02-15,2024-02-15,齋藤企画株式会社,,株式会社,福島県,相馬市,小野字金谷台２６８,,07,209,9760053,,,,,,,2024-02-15,1,,,,,サイトウキカク,0
739,3380001034304,新規,0,2024-02-15,2024-02-15,株式会社室工業,,株式会社,福島県,郡山市,大槻町字北八耕地１４番地の６アヴェニール２０１号室,,07,203,9630201,,,,,,,2024-02-15,1,,,,,ムロコウギョウ,0
742,3390005009053,新規,0,2024-02-15,2024-02-15,特定非営利活動法人なないろ,,その他の設立登記法人,山形県,酒田市,曙町１丁目１１番地の２１サンパレス１０１号,00133719,06,204,9980862,,,,,,,2024-02-15,1,,,,,ナナイロ,0
749,3430001091075,新規,0,2024-02-15,2024-02-15,株式会社ラウディＨＤ,,株式会社,北海道,札幌市白石区,南郷通１９丁目南１番１号,,01,104,0030022,,,,,,,2024-02-15,1,,,,,ラウディエイチディー,0
752,3430003015924,新規,0,2024-02-15,2024-02-15,合同会社ＨＵＧ　Ｃｏｍｐａｎｙ,,合同会社,北海道,札幌市白石区,平和通６丁目南３番２０－５０５号,,01,104,0030028,,,,,,,2024-02-15,1,,,,,ハグカンパニー,0
767,4010001242280,新規,0,2024-02-15,2024-02-15,株式会社Ｗｉｎｇｔｅｋ,,株式会社,東京都,中央区,日本橋兜町１７－２兜町第６葉山ビル４Ｆ,,13,102,1030026,,,,,,,2024-02-15,1,,,,,ウイングテック,0
768,4010001242339,新規,0,2024-02-15,2024-02-15,クエスターキャピタルアドバイザー株式会社,,株式会社,東京都,中央区,新富１丁目４番７号コノエ銀座イースト４０３,,13,102,1040041,,,,,,,2024-02-15,1,,,,,クエスターキャピタルアドバイザー,0
769,4010001242347,新規,0,2024-02-15,2024-02-15,ＡＭＡＳ株式会社,,株式会社,東京都,文京区,本駒込２丁目１８番２号ル・クール本駒込３０２,,13,105,1130021,,,,,,,2024-02-15,1,,,,,エーエムエーエス,0
773,4010005037883,新規,0,2024-02-15,2024-02-15,社会保険労務士法人Ｇ＆Ｎ,,その他の設立登記法人,東京都,中央区,東日本橋３丁目４番１８号,,13,102,1030004,,,,,,,2024-02-15,1,,,,,ジーアンドエヌ,0
774,4010005037891,新規,0,2024-02-15,2024-02-15,一般社団法人ふくら,,その他の設立登記法人,東京都,中央区,新富１丁目５番１２号エスパシオ新富町１１階,,13,102,1040041,,,,,,,2024-02-15,1,,,,,フクラ,0
775,4010005037900,新規,0,2024-02-15,2024-02-15,一般社団法人七条ホールディングス,,その他の設立登記法人,東京都,千代田区,丸の内１丁目６番５号,,13,101,1000005,,,,,,,2024-02-15,1,,,,,シチジョウホールディングス,0
782,4010401180378,新規,0,2024-02-15,2024-02-15,株式会社ｄｕｈｈｈ,,株式会社,東京都,港区,北青山１丁目３－１アールキューブ青山３Ｆ,,13,103,1070061,,,,,,,2024-02-15,1,,,,,ダー,0
789,4010601064653,新規,0,2024-02-15,2024-02-15,株式会社ワクドキ,,株式会社,東京都,江東区,東陽１丁目２５－５ＳＯＮＮＥ３Ａ,,13,108,1350016,,,,,,,2024-02-15,1,,,,,ワクドキ,0
790,4010603010630,新規,0,2024-02-15,2024-02-15,ＭｏｎａｃａＨａｎｄｓ合同会社,,合同会社,東京都,江東区,豊洲３丁目６番８－２６１３号,,13,108,1350061,,,,,,,2024-02-15,1,,,,,モナカハンズ,0
794,4010701045553,新規,0,2024-02-15,2024-02-15,Ｗ‐ＡＧＥＮＴ株式会社,,株式会社,東京都,品川区,戸越５丁目４番３号アズ品川ビル４Ｆ,,13,109,1420041,,,,,,,2024-02-15,1,,,,,ダブルエージェント,0
795,4010701045561,新規,0,2024-02-15,2024-02-15,株式会社Ｔ．Ｎ,,株式会社,東京都,品川区,上大崎１丁目２１－１５ＺＯＯＭ白金台４０１,,13,109,1410021,,,,,,,2024-02-15,1,,,,,ティエヌ,0
802,4010903008820,新規,0,2024-02-15,2024-02-15,Ｓｉｌｋｗｏｒｋｓ合同会社,,合同会社,東京都,世田谷区,代田２丁目３０番２１号,,13,112,1550033,,,,,,,2024-02-15,1,,,,,シルクワークス,0
803,4010903008829,新規,0,2024-02-15,2024-02-15,合同会社ワンモフ,,合同会社,東京都,世田谷区,玉川４丁目４番１９－３０７号,,13,112,1580094,,,,,,,2024-02-15,1,,,,,ワンモフ,0
809,4011001159993,新規,0,2024-02-15,2024-02-15,株式会社ＯｐｔｉｍＰｒｏｖｅ,,株式会社,東京都,渋谷区,恵比寿西２丁目８番４号ＥＸ恵比寿西ビル５階,,13,113,1500021,,,,,,,2024-02-15,1,,,,,オプティムプルーブ,0
810,4011001160010,新規,0,2024-02-15,2024-02-15,株式会社ＣＯＣＯＯＮ,,株式会社,東京都,渋谷区,渋谷２丁目１９－１５宮益坂ビルディング６０９,,13,113,1500002,,,,,,,2024-02-15,1,,,,,コクーン,0
811,4011001160019,新規,0,2024-02-15,2024-02-15,株式会社Ｂｅｙｏｎｄ　Ｗｅｂ,,株式会社,東京都,渋谷区,道玄坂１丁目１０番８号渋谷道玄坂東急ビル２Ｆ－Ｃ,,13,113,1500043,,,,,,,2024-02-15,1,,,,,ビヨンドウェブ,0
812,4011001160035,新規,0,2024-02-15,2024-02-15,株式会社シメス,,株式会社,東京都,渋谷区,恵比寿西１丁目３３番６号１Ｆ,,13,113,1500021,,,,,,,2024-02-15,1,,,,,シメス,0
813,4011001160051,新規,0,2024-02-15,2024-02-15,ＡＲＩＧＡＴＯ株式会社,,株式会社,東京都,渋谷区,本町２丁目３３番２号３Ｆ,,13,113,1510071,,,,,,,2024-02-15,1,,,,,アリガト,0
814,4011001160068,新規,0,2024-02-15,2024-02-15,ログスペクト株式会社,,株式会社,東京都,渋谷区,道玄坂１丁目１０番８号渋谷道玄坂東急ビル２Ｆ－Ｃ,,13,113,1500043,,,,,,,2024-02-15,1,,,,,ログスペクト,0
815,4011003018487,新規,0,2024-02-15,2024-02-15,合同会社マトメガミ,,合同会社,東京都,渋谷区,恵比寿西２丁目８番４号ＥＸ恵比寿西ビル５階,,13,113,1500021,,,,,,,2024-02-15,1,,,,,マトメガミ,0
818,4011101106177,新規,0,2024-02-15,2024-02-15,イノバーサル・インターナショナル株式会社,,株式会社,東京都,新宿区,西新宿３丁目３番１３号西新宿水間ビル６階,,13,104,1600023,,,,,,,2024-02-15,1,,,,,イノバーサルインターナショナル,0
819,4011101106193,新規,0,2024-02-15,2024-02-15,アイアンドーム株式会社,,株式会社,東京都,新宿区,西早稲田１丁目２２番３号,,13,104,1690051,,,,,,,2024-02-15,1,,,,,アイアンドーム,0
820,4011101106219,新規,0,2024-02-15,2024-02-15,株式会社本田企画,,株式会社,東京都,新宿区,早稲田鶴巻町４４グランプラス早稲田１０１,,13,104,1620041,,,,,,,2024-02-15,1,,,,,ホンダキカク,0
826,4011203004304,新規,0,2024-02-15,2024-02-15,萬盛‐ＶｉｅＯｎ合同会社,,合同会社,東京都,中野区,野方３丁目８番８号野方ハイランド１０４,,13,114,1650027,,,,,,,2024-02-15,1,,,,,マンセイーヴィオン,0
836,4011801043777,新規,0,2024-02-15,2024-02-15,株式会社ＳＧＡ,,株式会社,東京都,葛飾区,堀切７丁目２７－７名橋ビル４０１,,13,122,1240006,,,,,,,2024-02-15,1,,,,,エスジーエー,0
837,4011801043793,新規,0,2024-02-15,2024-02-15,株式会社ＭＩＮＴＯＰＲＯＭＯＴＩＯＮＳ,,株式会社,東京都,足立区,千住寿町３４－９ゼファー北千住１１０２,,13,121,1200033,,,,,,,2024-02-15,1,,,,,ミントプロモーション,0
838,4011801043802,新規,0,2024-02-15,2024-02-15,福来株式会社,,株式会社,東京都,足立区,六町１丁目５番２８号,,13,121,1210073,,,,,,,2024-02-15,1,,,,,フクライ,0
840,4012403006412,新規,0,2024-02-15,2024-02-15,合同会社エスアイビー,,合同会社,東京都,多摩市,諏訪４丁目２４番地の３プレシス多摩永山レヴィエ２０１,,13,224,2060024,,,,,,,2024-02-15,1,,,,,エスアイビー,0
850,4013301052077,新規,0,2024-02-15,2024-02-15,ＳＵＺＵＫＩ　Ｃｏｎｓｕｌｔｉｎｇ　Ｆａｒｍ株式会社,,株式会社,東京都,豊島区,池袋本町２丁目１７番３号,,13,116,1700011,,,,,,,2024-02-15,1,,,,,スズキコンサルティングファーム,0
851,4013305003571,新規,0,2024-02-15,2024-02-15,土地家屋調査士法人エフアール事務所,,その他の設立登記法人,東京都,豊島区,巣鴨４丁目７番６号,,13,116,1700002,,,,,,,2024-02-15,1,,,,,エフアールジムショ,0
867,4020001155795,新規,0,2024-02-15,2024-02-15,株式会社ツバメ蘇南商事,,株式会社,神奈川県,横浜市神奈川区,神大寺４丁目１４番２１号３ユナイト片倉アデリーナ２０５室,,14,102,2210801,,,,,,,2024-02-15,1,,,,,ツバメソナンショウジ,0
871,4020003025526,新規,0,2024-02-15,2024-02-15,合同会社Ｂｅａｕｔｙ　Ｌａｂ,,合同会社,神奈川県,川崎市川崎区,砂子１丁目２番地１６メゾンミール砂子４０２,,14,131,2100006,,,,,,,2024-02-15,1,,,,,ビューティーラボ,0
872,4020003025550,新規,0,2024-02-15,2024-02-15,合同会社ＯｎｅＣｏｌａｂ　ＡＩ,,合同会社,神奈川県,横浜市西区,戸部本町３２番３,,14,103,2200041,,,,,,,2024-02-15,1,,,,,ワンコラボエーアイ,0
873,4020005016283,新規,0,2024-02-15,2024-02-15,一般社団法人ユニオン,,その他の設立登記法人,神奈川県,横浜市中区,大平町２０番地,,14,104,2310859,,,,,,,2024-02-15,1,,,,,ユニオン,0
876,4021001081478,新規,0,2024-02-15,2024-02-15,Ｄ‐ＴＲＵＳＴ株式会社,,株式会社,神奈川県,相模原市中央区,松が丘１丁目１番１３号,,14,152,2520223,,,,,,,2024-02-15,1,,,,,ディートラスト,0
877,4021001081486,新規,0,2024-02-15,2024-02-15,湘南石工株式会社,,株式会社,神奈川県,藤沢市,菖蒲沢２１４番地,,14,205,2520823,,,,,,,2024-02-15,1,,,,,ショウナンセッコウ,0
878,4021001081494,新規,0,2024-02-15,2024-02-15,株式会社ヒーローズ,,株式会社,神奈川県,鎌倉市,浄明寺１丁目６－１６,,14,204,2480003,,,,,,,2024-02-15,1,,,,,ヒーローズ,0
880,4021003014163,新規,0,2024-02-15,2024-02-15,合同会社翔音湘南,,合同会社,神奈川県,藤沢市,辻堂西海岸１丁目５番１～２０８号,,14,205,2510046,,,,,,,2024-02-15,1,,,,,カノンショウナン,0
901,4040001132058,新規,0,2024-02-15,2024-02-15,ＲＩＮＤＯＵ株式会社,,株式会社,千葉県,松戸市,久保平賀３７６番地の６,,12,207,2700012,,,,,,,2024-02-15,1,,,,,リンドウ,0
902,4040001132132,新規,0,2024-02-15,2024-02-15,株式会社Ｇｒｏｗｔｈ．Ｋ,,株式会社,千葉県,印西市,小林浅間３丁目１番地２,,12,231,2701315,,,,,,,2024-02-15,1,,,,,グロースケー,0
904,4040003024328,新規,0,2024-02-15,2024-02-15,合同会社Ｍ＆Ｓコンサルティング,,合同会社,千葉県,市川市,行徳駅前２丁目１７番５－５０６号,,12,203,2720133,,,,,,,2024-02-15,1,,,,,エムアンドエスコンサルティング,0
906,4050001054292,新規,0,2024-02-15,2024-02-15,佐藤興業株式会社,,株式会社,茨城県,守谷市,松並２０２４－１５２,,08,224,3020108,,,,,,,2024-02-15,1,,,,,サトウコウギョウ,0
907,4060001036827,新規,0,2024-02-15,2024-02-15,株式会社ＫＯＳ,,株式会社,栃木県,栃木市,岩舟町静３０５７番地２,,09,203,3294307,,,,,,,2024-02-15,1,,,,,コス,0
908,4060001036835,新規,0,2024-02-15,2024-02-15,株式会社Ｉｎｎｏｃｅｎｔ　ｗｏｒｌｄ,,株式会社,栃木県,宇都宮市,砥上町１９９番地,,09,201,3200856,,,,,,,2024-02-15,1,,,,,イノセントワールド,0
913,4080001026132,新規,0,2024-02-15,2024-02-15,株式会社Ｌｏｔｕｓ,,株式会社,静岡県,藤枝市,立花３丁目６－４５,,22,214,4260013,,,,,,,2024-02-15,1,,,,,ロータス,0
928,4120001262185,新規,0,2024-02-15,2024-02-15,大象株式会社,,株式会社,大阪府,大阪市東住吉区,東田辺３丁目１－１,,27,121,5460032,,,,,,,2024-02-15,1,,,,,ダイショウ,0
929,4120001262235,新規,0,2024-02-15,2024-02-15,株式会社ＲＯＡ,,株式会社,大阪府,大阪市生野区,巽西３丁目１１－８．１－３,00133721,27,116,5440012,,,,,,,2024-02-15,1,,,,,ロア,0
930,4120001262251,新規,0,2024-02-15,2024-02-15,ステップアップ株式会社,,株式会社,大阪府,大阪市旭区,中宮１丁目１２番１２－２０３号,,27,117,5350003,,,,,,,2024-02-15,1,,,,,ステップアップ,0
931,4120001262292,新規,0,2024-02-15,2024-02-15,株式会社Ｒｏｕｎｄａｂｏｕｔ,,株式会社,大阪府,大阪市平野区,瓜破東２丁目１番９－２０１号,,27,126,5470022,,,,,,,2024-02-15,1,,,,,ラウンドアバウト,0
932,4120003025920,新規,0,2024-02-15,2024-02-15,ＴＲＡＮ　ＧＩＡ合同会社,,合同会社,大阪府,大阪市西成区,花園北１丁目４番８号花園マンション１００６号室,,27,122,5570016,,,,,,,2024-02-15,1,,,,,チャンジア,0
934,4120005024152,新規,0,2024-02-15,2024-02-15,一般社団法人ひまわり会,,その他の設立登記法人,大阪府,大阪市福島区,吉野４丁目２４番３号,,27,103,5530006,,,,,,,2024-02-15,1,,,,,ヒマワリカイ,0
938,4120101069043,新規,0,2024-02-15,2024-02-15,株式会社Ｎ’ｓロック,,株式会社,大阪府,堺市東区,菩提町２丁４９番地２９,,27,143,5998103,,,,,,,2024-02-15,1,,,,,エヌズロック,0
943,4120901048741,新規,0,2024-02-15,2024-02-15,夏木株式会社,,株式会社,大阪府,高槻市,宮田町２丁目４番２６号,,27,207,5691142,,,,,,,2024-02-15,1,,,,,ナツキ,0
944,4120901048766,新規,0,2024-02-15,2024-02-15,株式会社Ｋｉｒｉｕｒｉ,,株式会社,大阪府,摂津市,鳥飼本町３丁目２番２号,,27,224,5660052,,,,,,,2024-02-15,1,,,,,キリウリ,0
953,4130001076337,新規,0,2024-02-15,2024-02-15,株式会社ＨＲ‐Ｕ,,株式会社,京都府,京都市北区,紫野中柏野町４８番地２１,,26,101,6038312,,,,,,,2024-02-15,1,,,,,エイチアールユー,0
954,4130001076378,新規,0,2024-02-15,2024-02-15,株式会社Ｋａｗａｋｉ,,株式会社,京都府,京都市下京区,四条通室町東入函谷鉾町１０１番地アーバンネット四条烏丸ビル７階,,26,106,6008009,,,,,,,2024-02-15,1,,,,,カワキ,0
964,4140003020143,新規,0,2024-02-15,2024-02-15,ジャパンモール合同会社,,合同会社,兵庫県,神戸市中央区,北野町１丁目１番,,28,110,6500002,,,,,,,2024-02-15,1,,,,,ジャパンモール,0
965,4140003020168,新規,0,2024-02-15,2024-02-15,ＳＮＪ合同会社,,合同会社,兵庫県,姫路市,広畑区本町１丁目８番地１,,28,201,6711114,,,,,,,2024-02-15,1,,,,,エスエヌジェイ,0
966,4140005026948,新規,0,2024-02-15,2024-02-15,一般社団法人カボックコーポレーション,,その他の設立登記法人,兵庫県,神戸市灘区,篠原中町１丁目３番１号,,28,102,6570066,,,,,,,2024-02-15,1,,,,,カボックコーポレーション,0
969,4150005009555,新規,0,2024-02-15,2024-02-15,一般社団法人易伝,,その他の設立登記法人,奈良県,奈良市,西大寺栄町３番２３号サンローゼビル２Ｂ,,29,201,6310822,,,,,,,2024-02-15,1,,,,,エキデン,0
970,4160001025695,新規,0,2024-02-15,2024-02-15,株式会社Ｍａｔｓ,,株式会社,滋賀県,草津市,南草津５丁目４番７号ＫＮＫレジデンス南草津２０３,,25,206,5250050,,,,,,,2024-02-15,1,,,,,マッツ,0
973,4170001018013,新規,0,2024-02-15,2024-02-15,株式会社サンキョー商店,,株式会社,和歌山県,和歌山市,園部５９６番地２１,,30,201,6408483,,,,,,,2024-02-15,1,,,,,サンキョーショウテン,0
975,4170003001982,新規,0,2024-02-15,2024-02-15,ｓａｃｏｍａｎｓ合同会社,,合同会社,和歌山県,岩出市,野上野３５番地の５３,,30,209,6496216,,,,,,,2024-02-15,1,,,,,サコマンズ,0
984,4180001160094,新規,0,2024-02-15,2024-02-15,株式会社ＢＬＡＮＣＲＥＡＴＥ,,株式会社,愛知県,名古屋市南区,呼続５丁目１４番２６号,,23,112,4570014,,,,,,,2024-02-15,1,,,,,ブランクリエイト,0
985,4180001160136,新規,0,2024-02-15,2024-02-15,株式会社ＥＴＳホールディングス,,株式会社,愛知県,日進市,岩崎町竹田７番地５,,23,230,4700131,,,,,,,2024-02-15,1,,,,,イーティーエスホールディングス,0
986,4180001160144,新規,0,2024-02-15,2024-02-15,株式会社ＦＳＩＳ,,株式会社,愛知県,東海市,荒尾町坂本８４番地シャトレ愛松東海６０１号,,23,222,4760003,,,,,,,2024-02-15,1,,,,,エフシス,0
987,4180001160152,新規,0,2024-02-15,2024-02-15,株式会社ＧＯＯＤ　ＰＡＩＮＴ,,株式会社,愛知県,春日井市,出川町４丁目１番地２５,,23,206,4870025,,,,,,,2024-02-15,1,,,,,グッドペイント,0
988,4180001160169,新規,0,2024-02-15,2024-02-15,シュポーン株式会社,,株式会社,愛知県,弥富市,鯏浦町西前新田４３番地,,23,235,4980026,,,,,,,2024-02-15,1,,,,,シュポーン,0
989,4180001160177,新規,0,2024-02-15,2024-02-15,株式会社エアテリア,,株式会社,愛知県,海部郡大治町,大字三本木大字村部５０番地,,23,424,4901142,,,,,,,2024-02-15,1,,,,,エアテリア,0
990,4180001160185,新規,0,2024-02-15,2024-02-15,株式会社ＨＴ　Ｇｒｏｕｐ,,株式会社,愛知県,名古屋市北区,中味鋺２丁目５２５番地の２,,23,103,4620015,,,,,,,2024-02-15,1,,,,,エイチティーグループ,0
998,4190001031105,新規,0,2024-02-15,2024-02-15,株式会社ＫＡＹＡＳ,,株式会社,三重県,伊賀市,上野東日南町１７１４番地の２,,24,216,5180849,,,,,,,2024-02-15,1,,,,,カヤス,0
999,4190003004579,新規,0,2024-02-15,2024-02-15,合名会社中村家具店,,合名会社,三重県,名張市,本町３３９番地の２,,24,208,5180726,,,,,,,2024-02-15,1,,,,,ナカムラカグテン,0
1002,4200001042166,新規,0,2024-02-15,2024-02-15,株式会社ｈｅａｌｔｈ　ｄｅｓｉｇｎ,,株式会社,岐阜県,岐阜市,加納本石町３丁目７番地,,21,201,5008466,,,,,,,2024-02-15,1,,,,,ヘルスデザイン,0
1004,4210001019634,新規,0,2024-02-15,2024-02-15,株式会社ＵＬＯ,,株式会社,福井県,福井市,中央１丁目２番１号,,18,201,9100006,,,,,,,2024-02-15,1,,,,,ウロ,0
1015,4240001062788,新規,0,2024-02-15,2024-02-15,株式会社Ｓｐｒｉｎｇ　Ｕｐ,,株式会社,広島県,東広島市,志和町冠２４０番地４,,34,212,7390265,,,,,,,2024-02-15,1,,,,,スプリングアップ,0
1016,4240003006537,新規,0,2024-02-15,2024-02-15,合同会社ＩＮＮＯＶＥＡＲＴ,,合同会社,広島県,広島市西区,田方２丁目８番１９－２０４号,,34,104,7330851,,,,,,,2024-02-15,1,,,,,イノベート,0
1021,4260001038753,新規,0,2024-02-15,2024-02-15,株式会社Ｓ＆Ｋ,,株式会社,岡山県,岡山市北区,神田町２丁目５番２１号,,33,101,7000935,,,,,,,2024-02-15,1,,,,,エスアンドケイ,0
1028,4290001104684,新規,0,2024-02-15,2024-02-15,株式会社ガチキャリア,,株式会社,福岡県,福岡市中央区,舞鶴２丁目７番１４号,,40,133,8100073,,,,,,,2024-02-15,1,,,,,ガチキャリア,0
1029,4290001104718,新規,0,2024-02-15,2024-02-15,株式会社エーヒットエステート,,株式会社,福岡県,福岡市早良区,西新２丁目１１番１３－１０３号,,40,137,8140002,,,,,,,2024-02-15,1,,,,,エーヒットエステート,0
1031,4290003014972,新規,0,2024-02-15,2024-02-15,合同会社ＳＥＡＳＯＮＳ,,合同会社,福岡県,福岡市博多区,千代６丁目２番２号市営東浜住宅１棟５号店舗,,40,132,8120044,,,,,,,2024-02-15,1,,,,,シーズンズ,0
1033,4290801030320,新規,0,2024-02-15,2024-02-15,株式会社Ｓｐｉｃａ,,株式会社,福岡県,北九州市小倉北区,米町１丁目１番１号小倉駅前ひびきビル６階,,40,106,8020003,,,,,,,2024-02-15,1,,,,,スピカ,0
1039,4320005010132,新規,0,2024-02-15,2024-02-15,一般財団法人観光まちづくり佐伯,,その他の設立登記法人,大分県,佐伯市,中村南町３番２号,,44,205,8760854,,,,,,,2024-02-15,1,,,,,,0
1041,4330001031750,新規,0,2024-02-15,2024-02-15,株式会社ＥＸ,,株式会社,熊本県,荒尾市,菰屋１８０１番地３６,,43,204,8640161,,,,,,,2024-02-15,1,,,,,イーエックス,0
1042,4330003010216,新規,0,2024-02-15,2024-02-15,合同会社ＵＬＵ,,合同会社,熊本県,熊本市東区,新南部２丁目６番７６号,,43,102,8618028,,,,,,,2024-02-15,1,,,,,ウル,0
1047,4340003004373,新規,0,2024-02-15,2024-02-15,合同会社ＡＭＹ,,合同会社,鹿児島県,鹿児島市,草牟田町４番地１８,,46,201,8900015,,,,,,,2024-02-15,1,,,,,エイミー,0
1048,4350001018787,新規,0,2024-02-15,2024-02-15,株式会社ウィズライフ,,株式会社,宮崎県,北諸県郡三股町,大字宮村２９９３番地３グリーンコーポ植木１番館２０６,,45,341,8891912,,,,,,,2024-02-15,1,,,,,ウィズライフ,0
1050,4360003013711,新規,0,2024-02-15,2024-02-15,合同会社セブンエイト,,合同会社,沖縄県,那覇市,久茂地３丁目２３番１０号,,47,201,9000015,,,,,,,2024-02-15,1,,,,,セブンエイト,0
1059,4430001091082,新規,0,2024-02-15,2024-02-15,宝顔株式会社,,株式会社,北海道,小樽市,新光５丁目２５番９号,,01,203,0470152,,,,,,,2024-02-15,1,,,,,タカラガオ,0
1063,4430003015956,新規,0,2024-02-15,2024-02-15,合同会社Ｅｔａｐｉ,,合同会社,北海道,札幌市東区,北八条東８丁目２－１３,,01,103,0650008,,,,,,,2024-02-15,1,,,,,エタピ,0
1064,4430003015964,新規,0,2024-02-15,2024-02-15,合同会社エスピーアールエイチシー,,合同会社,北海道,札幌市中央区,南五条西１５丁目２－３リズム医大前５０３号室,,01,101,0640805,,,,,,,2024-02-15,1,,,,,エスピーアールエイチシー,0
1074,4480001012389,新規,0,2024-02-15,2024-02-15,株式会社阿波国フランチャイズファンド,,株式会社,徳島県,徳島市,南田宮２丁目３番１０２号,,36,201,7700004,,,,,,,2024-02-15,1,,,,,アワノクニフランチャイズファンド,0
1097,5010001241991,新規,0,2024-02-15,2024-02-15,Ａｕｔｒａｎ　Ｊａｐａｎ株式会社,,株式会社,東京都,中央区,日本橋小伝馬町１４－１０（３階Ａ号室）,,13,102,1030001,,,,,,,2024-02-15,1,,,,,オートランジャパン,0
1098,5010001242222,新規,0,2024-02-15,2024-02-15,ＬｏｎｇＧｅｎ　Ｂｉｏｓｃｉｅｎｃｅ株式会社,,株式会社,東京都,中央区,日本橋２丁目１番３号アーバンネット日本橋二丁目ビル１０階,,13,102,1030027,,,,,,,2024-02-15,1,,,,,ロンジェンバイオサイエンス,0
1099,5010001242263,新規,0,2024-02-15,2024-02-15,晨之美株式会社,,株式会社,東京都,中央区,銀座４丁目１３番８号５階,,13,102,1040061,,,,,,,2024-02-15,1,,,,,シンノビ,0
1100,5010001242271,新規,0,2024-02-15,2024-02-15,ｍ２コーポレーション株式会社,,株式会社,東京都,中央区,日本橋室町１丁目１１番１２号日本橋水野ビル７階,,13,102,1030022,,,,,,,2024-02-15,1,,,,,エムツーコーポレーション,0
1101,5010001242296,新規,0,2024-02-15,2024-02-15,Ｊ＆Ｄリージョナル・デベロップメント株式会社,,株式会社,東京都,千代田区,大手町１丁目９番６号,,13,101,1000004,,,,,,,2024-02-15,1,,,,,ジェイアンドディーリージョナルデベロップメント,0
1102,5010001242313,新規,0,2024-02-15,2024-02-15,Ｌｕｍｉｄｅｎｔ　Ｊａｐａｎ株式会社,,株式会社,東京都,千代田区,永田町２丁目１７番１７号,,13,101,1000014,,,,,,,2024-02-15,1,,,,,ルミデントジャパン,0
1103,5010001242379,新規,0,2024-02-15,2024-02-15,ｔｈｉｎｋｅｅ株式会社,,株式会社,東京都,中央区,銀座７丁目１３番６号サガミビル２階,,13,102,1040061,,,,,,,2024-02-15,1,,,,,シンキー,0
1113,5010003042950,新規,0,2024-02-15,2024-02-15,合同会社ｅＭＫ,,合同会社,東京都,中央区,日本橋中洲９番４－３０５号,,13,102,1030008,,,,,,,2024-02-15,1,,,,,イーエムケー,0
1124,5010401180410,新規,0,2024-02-15,2024-02-15,株式会社ＪＵＩＣＣＣＹ,,株式会社,東京都,港区,芝５丁目２６番２４号田町スクエア２Ｆ,,13,103,1080014,,,,,,,2024-02-15,1,,,,,ジューシー,0
1128,5010405022963,新規,0,2024-02-15,2024-02-15,一般社団法人上場マネジメント研究会,,その他の設立登記法人,東京都,港区,北青山２丁目７番１３号プラセオ青山ビル３階,,13,103,1070061,,,,,,,2024-02-15,1,,,,,ジョウジョウマネジメントケンキュウカイ,0
1130,5010503007346,新規,0,2024-02-15,2024-02-15,合同会社ＦＴトレード,,合同会社,東京都,台東区,上野６丁目８番１９号,,13,106,1100005,,,,,,,2024-02-15,1,,,,,エフティトレード,0
1139,5011001160018,新規,0,2024-02-15,2024-02-15,レストエンジニアリング株式会社,,株式会社,東京都,渋谷区,渋谷２丁目８番３号朝日ビル３階,,13,113,1500002,,,,,,,2024-02-15,1,,,,,レストエンジニアリング,0
1140,5011001160034,新規,0,2024-02-15,2024-02-15,株式会社Ｉｃｅ　Ｃｒｅａｍ,,株式会社,東京都,渋谷区,東１丁目２７番１０号渋谷ＴＹビル３Ｆ,,13,113,1500011,,,,,,,2024-02-15,1,,,,,アイスクリーム,0
1142,5011003018494,新規,0,2024-02-15,2024-02-15,ＡＫＥＴＡ合同会社,,合同会社,東京都,渋谷区,恵比寿西２丁目４番８号ウィンド恵比寿ビル８Ｆ,,13,113,1500021,,,,,,,2024-02-15,1,,,,,アケタ,0
1143,5011101106184,新規,0,2024-02-15,2024-02-15,株式会社セイヨウクリエーティブ,,株式会社,東京都,新宿区,百人町１丁目１８番８号大久保カドビルＬｉｎｋＳｐａｃｅ百人町Ｗ０１,,13,104,1690073,,,,,,,2024-02-15,1,,,,,セイヨウクリエーティブ,0
1146,5011203004303,新規,0,2024-02-15,2024-02-15,ＮＡＭＥ　ＳＹＳＴＥＭＳ合同会社,,合同会社,東京都,中野区,新井１丁目９番１２号ロイヤルパーク中野１０１,,13,114,1650026,,,,,,,2024-02-15,1,,,,,ネームシステムズ,0
1154,5011503005959,新規,0,2024-02-15,2024-02-15,合同会社スプリングビューティ,,合同会社,東京都,北区,王子本町１丁目２８番４－３０２号,,13,117,1140022,,,,,,,2024-02-15,1,,,,,スプリングビューティ,0
1155,5011505002608,新規,0,2024-02-15,2024-02-15,特定非営利活動法人ここみん,,その他の設立登記法人,東京都,北区,赤羽西１丁目２９番５号,,13,117,1150055,,,,,,,2024-02-15,1,,,,,ココミン,0
1160,5011801043792,新規,0,2024-02-15,2024-02-15,明陽科技株式会社,,株式会社,東京都,葛飾区,東新小岩２丁目２８番１号,,13,122,1240023,,,,,,,2024-02-15,1,,,,,メイヨウカギ,0
1161,5011801043801,新規,0,2024-02-15,2024-02-15,株式会社Ｉ．ＲＩＳＥ,,株式会社,東京都,葛飾区,西水元２丁目１９番４号,,13,122,1250031,,,,,,,2024-02-15,1,,,,,アイライズ,0
1164,5011803006087,新規,0,2024-02-15,2024-02-15,合同会社ＮＥＸＴ　ＳＴＥＰ,,合同会社,東京都,足立区,千住緑町２丁目９－１５,,13,121,1200044,,,,,,,2024-02-15,1,,,,,ネクストステップ,0
1165,5011803006095,新規,0,2024-02-15,2024-02-15,合同会社ロワゾブルー,,合同会社,東京都,足立区,伊興本町１丁目１５－１５,,13,121,1210807,,,,,,,2024-02-15,1,,,,,ロワゾブルー,0
1168,5012801022968,新規,0,2024-02-15,2024-02-15,太陽デザイン株式会社,,株式会社,東京都,国分寺市,西町１丁目３番地５ヴェラハイツ国立１０４,,13,214,1850035,,,,,,,2024-02-15,1,,,,,タイヨウデザイン,0
1180,5020001155794,新規,0,2024-02-15,2024-02-15,株式会社Ａａｌｔｏ,,株式会社,神奈川県,川崎市幸区,新塚越２０１番地ルリエ新川崎１００３,,14,132,2120027,,,,,,,2024-02-15,1,,,,,アアルト,0
1186,5020005016282,新規,0,2024-02-15,2024-02-15,一般社団法人コミュニティマーケティング推進協会,,その他の設立登記法人,神奈川県,横浜市青葉区,あざみ野４丁目４０番地第二寿マンション１０１,,14,117,2250011,,,,,,,2024-02-15,1,,,,,コミュニティマーケティングスイシンキョウカイ,0
1192,5021001081477,新規,0,2024-02-15,2024-02-15,株式会社メコタン,,株式会社,神奈川県,愛甲郡愛川町,半原１３６５番地の６,,14,401,2430307,,,,,,,2024-02-15,1,,,,,メコタン,0
1198,5021003014162,新規,0,2024-02-15,2024-02-15,ＮＵＨＡ合同会社,,合同会社,神奈川県,綾瀬市,寺尾北１丁目１０番１０号エクセルコートかしわ台Ｉ－１０３,00133727,14,218,2521131,,,,,,,2024-02-15,1,,,,,ヌーハ,0
1199,5030001158623,新規,0,2024-02-15,2024-02-15,旭昇ソリューション株式会社,,株式会社,埼玉県,川口市,西川口１丁目５番２０号,,11,203,3320021,,,,,,,2024-02-15,1,,,,,アサヒノボルソリューション,0
1203,5030003023635,新規,0,2024-02-15,2024-02-15,合同会社Ｔ．Ｙ．Ｗ,,合同会社,埼玉県,ふじみ野市,鶴ケ舞２丁目７番５号,,11,245,3560041,,,,,,,2024-02-15,1,,,,,ティーワイダブリュー,0
1204,5030005021554,新規,0,2024-02-15,2024-02-15,かがやき協同組合,,その他の設立登記法人,埼玉県,新座市,片山１丁目１６番１５号,,11,230,3520025,,,,,,,2024-02-15,1,,,,,カガヤキ,0
1212,5040003024319,新規,0,2024-02-15,2024-02-15,合同会社ＶＯＸ　Ｃｒｅａｔｅ,,合同会社,千葉県,佐倉市,井野１０８４番地１サンビレッジ佐倉Ｐ－２０２,,12,212,2850855,,,,,,,2024-02-15,1,,,,,ヴォックスクリエイト,0
1213,5040005022287,新規,0,2024-02-15,2024-02-15,一般社団法人Ｌｏｏｐ,,その他の設立登記法人,千葉県,松戸市,五香４丁目３９番地の２２,,12,207,2702213,,,,,,,2024-02-15,1,,,,,ループ,0
1214,5050001054267,新規,0,2024-02-15,2024-02-15,ＵＭＭＥ　ＪＡＰＡＮ株式会社,,株式会社,茨城県,猿島郡境町,大字塚崎７１８番地１,,08,546,3060405,,,,,,,2024-02-15,1,,,,,ウッメジャパン,0
1216,5060001036834,新規,0,2024-02-15,2024-02-15,株式会社Ｎｏｖａｒｔ,,株式会社,栃木県,宇都宮市,砥上町１９９番地,,09,201,3200856,,,,,,,2024-02-15,1,,,,,ノバート,0
1229,5120001262184,新規,0,2024-02-15,2024-02-15,Ｂｌｏｓｓｏｍ株式会社,,株式会社,大阪府,大阪市浪速区,恵比須西一丁目４－２３－３０１,,27,111,5560000,,,,,,,2024-02-15,1,,,,,ブロッサム,0
1230,5120001262259,新規,0,2024-02-15,2024-02-15,株式会社Ｔ　Ｃｏ．,,株式会社,大阪府,大阪市浪速区,稲荷１丁目１２番３－８０１号,,27,111,5560023,,,,,,,2024-02-15,1,,,,,ティカンパニー,0
1231,5120001262267,新規,0,2024-02-15,2024-02-15,株式会社スカイトブレイン,,株式会社,大阪府,大阪市西区,江戸堀２丁目１番１号江戸堀センタービル９階,,27,106,5500002,,,,,,,2024-02-15,1,,,,,スカイトブレイン,0
1232,5120001262275,新規,0,2024-02-15,2024-02-15,ＪＳＴ株式会社,,株式会社,大阪府,大阪市北区,天神橋７丁目１５番２号ユーロハイツ天神橋５０３号室,,27,127,5310041,,,,,,,2024-02-15,1,,,,,ジェイエスティー,0
1233,5120001262390,新規,0,2024-02-15,2024-02-15,ローラ株式会社,,株式会社,大阪府,大阪市淀川区,木川西２丁目２６番１５号巴第一マンション４０３号,,27,123,5320013,,,,,,,2024-02-15,1,,,,,ローラ,0
1234,5120001262408,新規,0,2024-02-15,2024-02-15,アリタビル株式会社,,株式会社,大阪府,大阪市浪速区,桜川４丁目１１番１６号,,27,111,5560022,,,,,,,2024-02-15,1,,,,,アリタビル,0
1237,5120003025944,新規,0,2024-02-15,2024-02-15,合同会社ＮＤＰ,,合同会社,大阪府,大阪市西淀川区,野里１丁目６番１１－２０５号,,27,113,5550024,,,,,,,2024-02-15,1,,,,,エヌディピー,0
1239,5120005024168,新規,0,2024-02-15,2024-02-15,一般社団法人おおきな木,,その他の設立登記法人,大阪府,大阪市西淀川区,姫島１丁目２８番３号第二今川ビル１階,,27,113,5550033,,,,,,,2024-02-15,1,,,,,オオキナキ,0
1241,5120101069050,新規,0,2024-02-15,2024-02-15,ＳＵＮＲＩＳＥ　ＡＵＴＯ　ＪＡＰＡＮ株式会社,,株式会社,大阪府,堺市東区,日置荘北町２丁２１番１８号,,27,143,5998111,,,,,,,2024-02-15,1,,,,,サンライズオートジャパン,0
1242,5120103005680,新規,0,2024-02-15,2024-02-15,合同会社ＥＮＩＣＩＡＳ．,,合同会社,大阪府,堺市北区,金岡町２４０９番地２,,27,146,5918022,,,,,,,2024-02-15,1,,,,,エニシアス,0
1252,5130001076352,新規,0,2024-02-15,2024-02-15,株式会社ＴＧＰ,,株式会社,京都府,宇治市,小倉町堀池５１番地,,26,204,6110042,,,,,,,2024-02-15,1,,,,,ティージーピー,0
1253,5130001076369,新規,0,2024-02-15,2024-02-15,ＮｅＷａｙ株式会社,,株式会社,京都府,京都市山科区,北花山大林町９１－１１,,26,110,6078482,,,,,,,2024-02-15,1,,,,,ニューウェイ,0
1254,5130001076385,新規,0,2024-02-15,2024-02-15,Ｄｏｓ　Ｔａｑｕｉｔｏｓ株式会社,,株式会社,京都府,京都市下京区,大黒町２２７番地第２キョートビル４０２,,26,106,6008043,,,,,,,2024-02-15,1,,,,,ドスタキートス,0
1257,5140001133326,新規,0,2024-02-15,2024-02-15,株式会社Ａｎｎｙ　ｏｎ．,,株式会社,兵庫県,姫路市,飾磨区玉地１丁目２９番地タマチノビル,,28,201,6728052,,,,,,,2024-02-15,1,,,,,アニーオン,0
1265,5170003001981,新規,0,2024-02-15,2024-02-15,合同会社有佑,,合同会社,和歌山県,有田市,宮崎町２０２０－５,,30,204,6490316,,,,,,,2024-02-15,1,,,,,ユウスケ,0
1270,5180001160127,新規,0,2024-02-15,2024-02-15,株式会社カノア,,株式会社,愛知県,名古屋市天白区,元植田１丁目９０５番地栄ｍ．ａ．１０３号室,,23,116,4680009,,,,,,,2024-02-15,1,,,,,カノア,0
1271,5180001160143,新規,0,2024-02-15,2024-02-15,株式会社フタバコンサルティング,,株式会社,愛知県,一宮市,光明寺字山屋敷１５２番地１,,23,203,4910135,,,,,,,2024-02-15,1,,,,,フタバコンサルティング,0
1272,5180001160176,新規,0,2024-02-15,2024-02-15,シェノンホールディングス株式会社,,株式会社,愛知県,名古屋市緑区,浦里１丁目８４番地の１,,23,114,4580847,,,,,,,2024-02-15,1,,,,,シェノンホールディングス,0
1275,5180003026342,新規,0,2024-02-15,2024-02-15,合同会社リヴァイブロス,,合同会社,愛知県,一宮市,三条字道東８０番地６オーシマビル２階,,23,203,4940003,,,,,,,2024-02-15,1,,,,,リヴァイブロス,0
1276,5180003026350,新規,0,2024-02-15,2024-02-15,Ｍｕｇｈａｌ　Ｔｒａｄｉｎｇ合同会社,,合同会社,愛知県,春日井市,美濃町２丁目２番地,,23,206,4860917,,,,,,,2024-02-15,1,,,,,ムガールトレーディング,0
1281,5190001031095,新規,0,2024-02-15,2024-02-15,株式会社ミラーチ,,株式会社,三重県,四日市市,北浜田町５‐１９丸美ロイヤル北浜田２０３,,24,202,5100062,,,,,,,2024-02-15,1,,,,,ミラーチ,0
1282,5190001031112,新規,0,2024-02-15,2024-02-15,株式会社ＰＯＬｉｇｈｔ,,株式会社,三重県,松阪市,久保町７６０番地７,,24,204,5150044,,,,,,,2024-02-15,1,,,,,ポライト,0
1284,5200001042157,新規,0,2024-02-15,2024-02-15,株式会社ＴＯＭＩＳＨＩＮ,,株式会社,岐阜県,土岐市,泉池ノ上町２丁目１０番地,,21,212,5095144,,,,,,,2024-02-15,1,,,,,トミシン,0
1285,5200001042173,新規,0,2024-02-15,2024-02-15,東海パネル株式会社,,株式会社,岐阜県,大垣市,東前１丁目９番地２,,21,202,5030835,,,,,,,2024-02-15,1,,,,,トウカイパネル,0
1294,5240001062787,新規,0,2024-02-15,2024-02-15,日本電芸株式会社,,株式会社,広島県,広島市中区,大手町３丁目１３番１８号松村ビル２Ｆ,,34,101,7300051,,,,,,,2024-02-15,1,,,,,ニホンデンゲイ,0
1295,5240001062795,新規,0,2024-02-15,2024-02-15,ＴＨＥ　ＧＯＯＤ　ＬＩＦＥ株式会社,,株式会社,広島県,広島市中区,大手町５丁目１６番１号,,34,101,7300051,,,,,,,2024-02-15,1,,,,,ザグッドライフ,0
1296,5240001062804,新規,0,2024-02-15,2024-02-15,株式会社アルメール,,株式会社,広島県,広島市南区,宇品神田５丁目７番１２号,,34,103,7340004,,,,,,,2024-02-15,1,,,,,アルメール,0
1298,5240003006536,新規,0,2024-02-15,2024-02-15,合同会社内海商会,,合同会社,広島県,福山市,春日町５丁目１－１６,,34,207,7210907,,,,,,,2024-02-15,1,,,,,ウツミショウカイ,0
1299,5240003006544,新規,0,2024-02-15,2024-02-15,合同会社ＭＩＸ‐ＵＰ,,合同会社,広島県,広島市安佐北区,深川１丁目３５番２９号,,34,106,7391751,,,,,,,2024-02-15,1,,,,,ミックスアップ,0
1303,5260001038760,新規,0,2024-02-15,2024-02-15,Ｔ・ウォーター株式会社,,株式会社,岡山県,津山市,上河原３３４番地１,,33,203,7080002,,,,,,,2024-02-15,1,,,,,ティーウォーター,0
1305,5280003001814,新規,0,2024-02-15,2024-02-15,合同会社Ｔ４２６,,合同会社,島根県,松江市,鹿島町佐陀本郷２３１５番地１,,32,201,6900332,,,,,,,2024-02-15,1,,,,,ティーヨンニィロク,0
1306,5290001104667,新規,0,2024-02-15,2024-02-15,株式会社大大,,株式会社,福岡県,福岡市中央区,地行２丁目３番１４－３１２号,,40,133,8100064,,,,,,,2024-02-15,1,,,,,ダイダイ,0
1312,5310001018864,新規,0,2024-02-15,2024-02-15,株式会社あじさいホールディングス,,株式会社,長崎県,島原市,新馬場町８８０番地,,42,203,8550033,,,,,,,2024-02-15,1,,,,,アジサイホールディングス,0
1314,5310003004730,新規,0,2024-02-15,2024-02-15,合同会社結心,,合同会社,長崎県,諫早市,宗方町３４２番地１９,,42,204,8540035,,,,,,,2024-02-15,1,,,,,ユウシン,0
1316,5330001031733,新規,0,2024-02-15,2024-02-15,泰菱株式会社,,株式会社,熊本県,菊池郡大津町,大字大津２１０番地ラ・ブリーズＲ５０４号,,43,403,8691233,,,,,,,2024-02-15,1,,,,,,0
1319,5340001026286,新規,0,2024-02-15,2024-02-15,株式会社ＭＢＭ,,株式会社,鹿児島県,鹿児島市,東千石町１番２４号セイワ文化ビル１階,,46,201,8920842,,,,,,,2024-02-15,1,,,,,エムビーエム,0
1320,5350001018794,新規,0,2024-02-15,2024-02-15,株式会社ＥＣＦ,,株式会社,宮崎県,都城市,牟田町１３番地,,45,202,8850079,,,,,,,2024-02-15,1,,,,,イーシーエフ,0
1321,5360001033198,新規,0,2024-02-15,2024-02-15,株式会社ニッセンホーム,,株式会社,沖縄県,浦添市,内間２丁目１５番９号大八マンション５Ｆ,,47,208,9012121,,,,,,,2024-02-15,1,,,,,ニッセンホーム,0
1323,5360003013702,新規,0,2024-02-15,2024-02-15,合同会社Ｖ,,合同会社,沖縄県,宜野湾市,宜野湾３丁目１３番３０－５０３号,,47,205,9012211,,,,,,,2024-02-15,1,,,,,ヴイ,0
1325,5370001050944,新規,0,2024-02-15,2024-02-15,株式会社ＶＩＯＬＥＴ,,株式会社,宮城県,仙台市青葉区,桜ケ丘５丁目３６番２８号,,04,101,9810961,,,,,,,2024-02-15,1,,,,,ヴァイオレット,0
1326,5370005010746,新規,0,2024-02-15,2024-02-15,一般社団法人希望の星,,その他の設立登記法人,宮城県,石巻市,小渕浜カント３番地１,,04,202,9862415,,,,,,,2024-02-15,1,,,,,キボウノホシ,0
1332,5420001018597,新規,0,2024-02-15,2024-02-15,株式会社Ｊ‐ｍｅｇ,,株式会社,青森県,青森市,幸畑２丁目８番３号,,02,201,0300943,,,,,,,2024-02-15,1,,,,,ジェイメグ,0
1333,5430001091073,新規,0,2024-02-15,2024-02-15,株式会社ＫａＰｉｌｉｎａ,,株式会社,北海道,札幌市中央区,南五条西３丁目美松ビル６階,,01,101,0640805,,,,,,,2024-02-15,1,,,,,カピリナ,0
1334,5430001091081,新規,0,2024-02-15,2024-02-15,株式会社優工業,,株式会社,北海道,札幌市東区,北三十六条東２７丁目２番２８－１０２号,,01,103,0070836,,,,,,,2024-02-15,1,,,,,ユウコウギョウ,0
1335,5430003015963,新規,0,2024-02-15,2024-02-15,ハルツイン合同会社,,合同会社,北海道,札幌市白石区,菊水一条１丁目２番４１－１号,,01,104,0030801,,,,,,,2024-02-15,1,,,,,ハルツイン,0
1341,5700150123517,新規,0,2024-02-15,2024-01-23,Ｍｏｔｈｅｒ　Ｔｒｅｅ　Ｃａｆｅ,,その他,青森県,十和田市,東三番町９－７１,,02,206,0340031,,,,,,,2024-01-23,1,,,,,マザーツリーカフエ,0
1342,5700150123987,新規,0,2024-02-15,2024-02-15,合唱団おおやま,,その他,富山県,富山市,上滝９７－１,,16,201,9301312,,,,,,,2024-02-15,1,,,,,ガッショウダンオオヤマ,0
1347,6010001242279,新規,0,2024-02-15,2024-02-15,株式会社ウィズピーク,,株式会社,東京都,中央区,日本橋室町１丁目１１番１２号日本橋水野ビル７階,,13,102,1030022,,,,,,,2024-02-15,1,,,,,ウィズピーク,0
1348,6010001242295,新規,0,2024-02-15,2024-02-15,株式会社ウルフネット,,株式会社,東京都,中央区,築地１丁目９番１１号,,13,102,1040045,,,,,,,2024-02-15,1,,,,,ウルフネット,0
1360,6010401180376,新規,0,2024-02-15,2024-02-15,Ａｉｎｓｌｉｅ　Ａｓｓｏｃｉａｔｅｓ株式会社,,株式会社,東京都,港区,北青山１丁目３番１号アールキューブ青山３階,,13,103,1070061,,,,,,,2024-02-15,1,,,,,エインズリーアソシエイツ,0
1361,6010401180401,新規,0,2024-02-15,2024-02-15,龍エステート株式会社,,株式会社,東京都,港区,南青山１丁目１番１号新青山ビルＥａｓｔ７Ｆ,,13,103,1070062,,,,,,,2024-02-15,1,,,,,リュウエステート,0
1362,6010401180426,新規,0,2024-02-15,2024-02-15,ＳＢＩデジタルコミュニティー株式会社,,株式会社,東京都,港区,六本木１丁目６番１号,,13,103,1060032,,,,,,,2024-02-15,1,,,,,エスビーアイデジタルコミュニティー,0
1380,6010903008827,新規,0,2024-02-15,2024-02-15,アトリエ１５６合同会社,,合同会社,東京都,世田谷区,松原２丁目６－７,,13,112,1560043,,,,,,,2024-02-15,1,,,,,アトリエイチゴロク,0
1387,6011001159991,新規,0,2024-02-15,2024-02-15,Ｒｅｄｄ株式会社,,株式会社,東京都,渋谷区,渋谷２丁目１９番１５号宮益坂ビルディング６０９,,13,113,1500002,,,,,,,2024-02-15,1,,,,,レッド,0
1388,6011001160009,新規,0,2024-02-15,2024-02-15,株式会社ＧＲＡＮＴ,,株式会社,東京都,渋谷区,幡ヶ谷３丁目３９番１２号渋谷ウエストビル１階,,13,113,1510072,,,,,,,2024-02-15,1,,,,,グランツ,0
1389,6011001160017,新規,0,2024-02-15,2024-02-15,株式会社Ｇｉｅｌ,,株式会社,東京都,渋谷区,恵比寿１丁目１５番９号日宝恵比寿ビル４０３,,13,113,1500013,,,,,,,2024-02-15,1,,,,,ギール,0
1390,6011001160041,新規,0,2024-02-15,2024-02-15,株式会社Ｍｏｔｔｙ,,株式会社,東京都,渋谷区,渋谷２丁目１９番１５号宮益坂ビルディング６０９,,13,113,1500002,,,,,,,2024-02-15,1,,,,,モティー,0
1396,6011103014087,新規,0,2024-02-15,2024-02-15,合同会社Ｄ．Ｎ,,合同会社,東京都,新宿区,新宿５丁目３番４－１００３号,,13,104,1600022,,,,,,,2024-02-15,1,,,,,ディーエヌ,0
1397,6011103014095,新規,0,2024-02-15,2024-02-15,合同会社ロウヴァース,,合同会社,東京都,新宿区,西新宿３丁目３番１３号西新宿水間ビル２Ｆ,,13,104,1600023,,,,,,,2024-02-15,1,,,,,ロウヴァース,0
1401,6011501030330,新規,0,2024-02-15,2024-02-15,株式会社リブラン,,株式会社,東京都,荒川区,南千住１丁目３８番２号,,13,118,1160003,,,,,,,2024-02-15,1,,,,,リブラン,0
1405,6011801043809,新規,0,2024-02-15,2024-02-15,株式会社ビットバイビット,,株式会社,東京都,足立区,梅田４丁目７－１３,,13,121,1230851,,,,,,,2024-02-15,1,,,,,ビットバイビット,0
1409,6013301052075,新規,0,2024-02-15,2024-02-15,洪博株式会社,,株式会社,東京都,豊島区,池袋４丁目３６番１７号ＡＳＳ第三ビル５０２号室,,13,116,1710014,,,,,,,2024-02-15,1,,,,,コウハク,0
1410,6013301052083,新規,0,2024-02-15,2024-02-15,株式会社ＯＮ　ＳＴＡＧＥ,,株式会社,東京都,豊島区,目白２丁目１６番２２号ロンアイル池袋３０１,,13,116,1710031,,,,,,,2024-02-15,1,,,,,オンステージ,0
1420,6020001155802,新規,0,2024-02-15,2024-02-15,セキュリタスコンサルティング株式会社,,株式会社,神奈川県,川崎市川崎区,駅前本町１１番地２川崎フロンティアビル４Ｆ,,14,131,2100007,,,,,,,2024-02-15,1,,,,,セキュリタスコンサルティング,0
1421,6020001155819,新規,0,2024-02-15,2024-02-15,株式会社地域創発機構,,株式会社,神奈川県,横浜市保土ケ谷区,東川島町８５番地２横浜ＫＯＷＡＨＩＬＬＳ４０４,,14,106,2400041,,,,,,,2024-02-15,1,,,,,チイキソウハツキコウ,0
1429,6021001081328,新規,0,2024-02-15,2024-02-15,株式会社藤むらさき,,株式会社,神奈川県,小田原市,栄町１丁目１４－２８,,14,206,2500011,,,,,,,2024-02-15,1,,,,,フジムラサキ,0
1431,6021003014153,新規,0,2024-02-15,2024-02-15,合同会社縁ｅｎｔｅｒｔａｉｎｍｅｎｔ,,合同会社,神奈川県,相模原市中央区,上溝６丁目７－１５,,14,152,2520243,,,,,,,2024-02-15,1,,,,,エニシエンターテイメント,0
1438,6030001158655,新規,0,2024-02-15,2024-02-15,株式会社ＮＥＸＴ　ＧＥＮＥＲＡＴＩＯＮ,,株式会社,埼玉県,戸田市,本町３丁目６番８－２０４号,,11,224,3350023,,,,,,,2024-02-15,1,,,,,ネクストジェネレーション,0
1441,6040001132188,新規,0,2024-02-15,2024-02-15,ＡＲＴＡＬＥ株式会社,,株式会社,千葉県,千葉市美浜区,打瀬３丁目７番地パティオス２１番街７０１号,,12,106,2610013,,,,,,,2024-02-15,1,,,,,アータレ,0
1444,6040003024318,新規,0,2024-02-15,2024-02-15,弥栄合同会社,,合同会社,千葉県,柏市,花野井１３３９番地の１２,,12,217,2770812,,,,,,,2024-02-15,1,,,,,イヤサカ,0
1445,6040003024326,新規,0,2024-02-15,2024-02-15,合同会社タートル,,合同会社,千葉県,浦安市,富士見３丁目１１－３２－１０３メゾン・ド・クラージュ,,12,227,2790043,,,,,,,2024-02-15,1,,,,,タートル,0
1448,6050001054290,新規,0,2024-02-15,2024-02-15,株式会社信守興業,,株式会社,茨城県,結城市,大字上山川２８４９番地１,,08,207,3070021,,,,,,,2024-02-15,1,,,,,シンシュコウギョウ,0
1456,6070003005273,新規,0,2024-02-15,2024-02-15,合同会社花政,,合同会社,群馬県,高崎市,中泉町１９７番地１,,10,202,3703524,,,,,,,2024-02-15,1,,,,,ハナマサ,0
1461,6100003007398,新規,0,2024-02-15,2024-02-15,Ｔｒａｖｅｌ　ａｎｄ　Ｂｒｅａｄ合同会社,,合同会社,長野県,北安曇郡白馬村,大字北城２２９３番地１,,20,485,3999301,,,,,,,2024-02-15,1,,,,,トラベルアンドブレッド,0
1467,6120001262266,新規,0,2024-02-15,2024-02-15,株式会社美来,,株式会社,大阪府,大阪市北区,梅田１丁目２番２号大阪駅前第２ビル１２－１２,,27,127,5300001,,,,,,,2024-02-15,1,,,,,ミライ,0
1468,6120001262274,新規,0,2024-02-15,2024-02-15,株式会社エムティティ,,株式会社,大阪府,大阪市北区,梅田１丁目２番２号大阪駅前第２ビル１２－１２,,27,127,5300001,,,,,,,2024-02-15,1,,,,,エムティティ,0
1469,6120001262282,新規,0,2024-02-15,2024-02-15,宝福国際貿易株式会社,,株式会社,大阪府,大阪市中央区,日本橋１丁目１８－１,,27,128,5420073,,,,,,,2024-02-15,1,,,,,ホウフクコクサイボウエキ,0
1475,6120003025927,新規,0,2024-02-15,2024-02-15,アルファミリー合同会社,,合同会社,大阪府,大阪市旭区,太子橋３丁目４番９号,,27,117,5350001,,,,,,,2024-02-15,1,,,,,アルファミリー,0
1476,6120003025935,新規,0,2024-02-15,2024-02-15,合同会社プラス,,合同会社,大阪府,大阪市北区,長柄西２丁目１１番２４号,,27,127,5310061,,,,,,,2024-02-15,1,,,,,プラス,0
1479,6120901048764,新規,0,2024-02-15,2024-02-15,株式会社ＴＦキャリー,,株式会社,大阪府,高槻市,奈佐原２丁目２２番２号,,27,207,5691041,,,,,,,2024-02-15,1,,,,,ティーエフキャリー,0
1480,6120903005053,新規,0,2024-02-15,2024-02-15,合同会社シンユアーズ,,合同会社,大阪府,箕面市,森町南１丁目１１番２４号,,27,220,5630258,,,,,,,2024-02-15,1,,,,,シンユアーズ,0
1482,6122001037813,新規,0,2024-02-15,2024-02-15,株式会社ＱＯＬ,,株式会社,大阪府,四條畷市,岡山３丁目２番３３号,,27,229,5750002,,,,,,,2024-02-15,1,,,,,キューオーエル,0
1487,6130001076335,新規,0,2024-02-15,2024-02-15,株式会社Ｋａｖａｎ　Ａｕｔｏ　Ｊａｐａｎ,,株式会社,京都府,綴喜郡井手町,大字井手小字段ノ下５３番地の１,,26,343,6100302,,,,,,,2024-02-15,1,,,,,カーワンオートジャパン,0
1488,6130001076351,新規,0,2024-02-15,2024-02-15,株式会社ＴＫホールディングス,,株式会社,京都府,舞鶴市,字浜５０３番地,,26,202,6250036,,,,,,,2024-02-15,1,,,,,ティーケーホールディングス,0
1489,6130001076392,新規,0,2024-02-15,2024-02-15,上田産業株式会社,,株式会社,京都府,京都市北区,西賀茂南大栗町２８番地スクエア西賀茂２０４号,,26,101,6038824,,,,,,,2024-02-15,1,,,,,ウエダサンギョウ,0
1493,6140001133341,新規,0,2024-02-15,2024-02-15,Ｋ・ＡＳＡＧＡＷＡ株式会社,,株式会社,兵庫県,芦屋市,朝日ケ丘町６番２１－２０１号,,28,206,6590012,,,,,,,2024-02-15,1,,,,,ケーアサガワ,0
1494,6140003020133,新規,0,2024-02-15,2024-02-15,合同会社エイアンドシーファスト,,合同会社,兵庫県,神戸市北区,小倉台１丁目１４番地３,,28,109,6511211,,,,,,,2024-02-15,1,,,,,エイアンドシーファスト,0
1512,6180003026341,新規,0,2024-02-15,2024-02-15,合同会社ＪＲ　ＴＲＡＤＩＮＧ,,合同会社,愛知県,春日井市,桃山町１丁目１６８番地,,23,206,4860802,,,,,,,2024-02-15,1,,,,,ジェイアールトレーディング,0
1517,6200001042164,新規,0,2024-02-15,2024-02-15,株式会社Ｚｅｒｏ１,,株式会社,岐阜県,岐阜市,柳津町上佐波５丁目１８５番地,,21,201,5016121,,,,,,,2024-02-15,1,,,,,ゼロワン,0
1518,6200003006233,新規,0,2024-02-15,2024-02-15,合同会社ＡＮＴＡ,,合同会社,岐阜県,岐阜市,上西郷１丁目１４８―５,,21,201,5011178,,,,,,,2024-02-15,1,,,,,アンタ,0
1523,6230001020217,新規,0,2024-02-15,2024-02-15,株式会社ホップ,,株式会社,富山県,高岡市,戸出町４丁目３－２８・２Ｆ,,16,202,9391104,,,,,,,2024-02-15,1,,,,,ホップ,0
1531,6290001104674,新規,0,2024-02-15,2024-02-15,株式会社オールバディ,,株式会社,福岡県,福岡市中央区,天神２丁目３番１０号天神パインクレスト７１９号,,40,133,8100001,,,,,,,2024-02-15,1,,,,,オールバディ,0
1532,6290001104690,新規,0,2024-02-15,2024-02-15,ＫＯＢＡ株式会社,,株式会社,福岡県,福岡市西区,大町団地９番５０６号,,40,135,8190021,,,,,,,2024-02-15,1,,,,,コバ,0
1533,6290001104699,新規,0,2024-02-15,2024-02-15,エイコー給湯株式会社,,株式会社,福岡県,福岡市博多区,西月隈３丁目１９番６号,,40,132,8120857,,,,,,,2024-02-15,1,,,,,エイコーキュウトウ,0
1534,6290001104708,新規,0,2024-02-15,2024-02-15,株式会社Ｈｅｒｍｅｓ,,株式会社,福岡県,糟屋郡志免町,南里７丁目７番１５号レ・フォール４０２号,,40,343,8112207,,,,,,,2024-02-15,1,,,,,ヘルメス,0
1535,6310001018863,新規,0,2024-02-15,2024-02-15,株式会社Ｓ・Ｋ・Ｉ,,株式会社,長崎県,西彼杵郡長与町,吉無田郷９８５番地,,42,307,8512126,,,,,,,2024-02-15,1,,,,,エスケーアイ,0
1539,6330001031749,新規,0,2024-02-15,2024-02-15,ことく株式会社,,株式会社,熊本県,熊本市北区,高平２丁目２１番２５号コロンハイム２０１,,43,105,8600085,,,,,,,2024-02-15,1,,,,,コトク,0
1540,6330001031757,新規,0,2024-02-15,2024-02-15,株式会社ＦＫＫ,,株式会社,熊本県,熊本市東区,画図町大字重富９５７番地５,,43,102,8620947,,,,,,,2024-02-15,1,,,,,エフケイケイ,0
1541,6340001026285,新規,0,2024-02-15,2024-02-15,株式会社ＨＧＭ,,株式会社,鹿児島県,鹿児島市,中央町７番１号地下１階Ｂ－１０２号室,,46,201,8900053,,,,,,,2024-02-15,1,,,,,エイチジーエム,0
1542,6340003004371,新規,0,2024-02-15,2024-02-15,Ｄ．ｃａｒａｔ合同会社,,合同会社,鹿児島県,鹿児島市,天保山町７番１４号ココンビルド３０５号,,46,201,8900061,,,,,,,2024-02-15,1,,,,,ディーカラット,0
1543,6350001018793,新規,0,2024-02-15,2024-02-15,株式会社児玉林業,,株式会社,宮崎県,東諸県郡国富町,大字深年４４６５番地２,,45,382,8801224,,,,,,,2024-02-15,1,,,,,コダマリンギョウ,0
1544,6360001033189,新規,0,2024-02-15,2024-02-15,沖縄協栄ガス株式会社,,株式会社,沖縄県,那覇市,首里石嶺町３丁目３０番地１０－１階,,47,201,9030804,,,,,,,2024-02-15,1,,,,,オキナワキョウエイガス,0
1548,6370001050951,新規,0,2024-02-15,2024-02-15,株式会社イニシエート,,株式会社,宮城県,仙台市青葉区,本町１丁目５番２８号カーニープレイス仙台駅前通６０３号室,,04,101,9800014,,,,,,,2024-02-15,1,,,,,イニシエート,0
1554,6390001017528,新規,0,2024-02-15,2024-02-15,株式会社加藤興業,,株式会社,山形県,東根市,神町西１丁目３番１４号,,06,211,9993766,,,,,,,2024-02-15,1,,,,,カトウコウギョウ,0
1558,6420001018596,新規,0,2024-02-15,2024-02-15,平野商事株式会社,,株式会社,青森県,十和田市,元町東３丁目６番１号,,02,206,0340003,,,,,,,2024-02-15,1,,,,,ヒラノショウジ,0
1561,6430001091072,新規,0,2024-02-15,2024-02-15,株式会社平野ファーム,,株式会社,北海道,岩見沢市,北村豊里５６７番地,,01,210,0681205,,,,,,,2024-02-15,1,,,,,ヒラノファーム,0
1562,6430001091080,新規,0,2024-02-15,2024-02-15,株式会社Ｋｉｎａ．ｃｏ,,株式会社,北海道,札幌市白石区,東米里２０２８番地,,01,104,0030876,,,,,,,2024-02-15,1,,,,,キナコ,0
1564,6430003015962,新規,0,2024-02-15,2024-02-15,昇船設備合同会社,,合同会社,北海道,札幌市西区,発寒十一条１丁目５－１３－３,,01,107,0630831,,,,,,,2024-02-15,1,,,,,ショウセンセツビ,0
1565,6430005014888,新規,0,2024-02-15,2024-02-15,一般社団法人新結歩会,,その他の設立登記法人,北海道,札幌市東区,北四十三条東１２丁目３番２５号,,01,103,0070843,,,,,,,2024-02-15,1,,,,,シンアイカイ,0
1568,6480001012387,新規,0,2024-02-15,2024-02-15,株式会社セイシン,,株式会社,徳島県,徳島市,伊月町１丁目１３番地,,36,201,7700935,,,,,,,2024-02-15,1,,,,,セイシン,0
1569,6480003002089,新規,0,2024-02-15,2024-02-15,ダイアログ・ハブ神山合同会社,,合同会社,徳島県,名西郡神山町,神領字西上角２１５番地１,,36,342,7713310,,,,,,,2024-02-15,1,,,,,ダイアログハブカミヤマ,0
1576,6700150123730,新規,0,2024-02-15,2024-02-01,九頭竜川流域下水道終末処理場対策協議会,,その他,福井県,坂井市,三国町楽円３０－１,,18,210,9130021,,,,,,,2024-02-01,1,,,,,クズリユウガワリユウイキゲスイドウシユウマツシヨリジヨウタイサクキヨウギカイ,0
1580,7010001242261,新規,0,2024-02-15,2024-02-15,アシスト株式会社,,株式会社,東京都,千代田区,二番町５番地麹町駅プラザ９０１号,00133720,13,101,1020084,,,,,,,2024-02-15,1,,,,,アシスト,0
1581,7010001242278,新規,0,2024-02-15,2024-02-15,株式会社ＡＫ,,株式会社,東京都,中央区,晴海３丁目１３番２号,,13,102,1040053,,,,,,,2024-02-15,1,,,,,エーケー,0
1582,7010001242286,新規,0,2024-02-15,2024-02-15,株式会社め組,,株式会社,東京都,千代田区,神田紺屋町３４番地,,13,101,1010035,,,,,,,2024-02-15,1,,,,,メグミ,0
1583,7010001242328,新規,0,2024-02-15,2024-02-15,株式会社ＳｐａｒｋＰｌｕｓ,,株式会社,東京都,文京区,本郷６丁目２５番１４号,,13,105,1130033,,,,,,,2024-02-15,1,,,,,スパークプラス,0
1584,7010001242352,新規,0,2024-02-15,2024-02-15,Ｋ‐Ｌａｂｓ株式会社,,株式会社,東京都,中央区,日本橋室町１丁目１１番１２号日本橋水野ビル７階,,13,102,1030022,,,,,,,2024-02-15,1,,,,,ケイラボ,0
1587,7010003042924,新規,0,2024-02-15,2024-02-15,インクルーシブコンサルト合同会社,,合同会社,東京都,千代田区,紀尾井町３－２９紀尾井町第２山本ビル１階,,13,101,1020094,,,,,,,2024-02-15,1,,,,,インクルーシブコンサルト,0
1589,7010005037897,新規,0,2024-02-15,2024-02-15,一般社団法人オノズ会,,その他の設立登記法人,東京都,千代田区,内幸町２丁目２番１号日本プレスセンタービル地下１階,,13,101,1000011,,,,,,,2024-02-15,1,,,,,オノズカイ,0
1590,7010101016012,新規,0,2024-02-15,2024-02-15,株式会社ＴＯＢＡ,,株式会社,東京都,八王子市,みなみ野２丁目１４番５号,,13,201,1920916,,,,,,,2024-02-15,1,,,,,トバ,0
1594,7010401180243,新規,0,2024-02-15,2024-02-15,株式会社メロウラボ,,株式会社,東京都,港区,麻布十番２丁目２０番７号ＢＩＲＴＨＷＯＲＫ麻布十番,,13,103,1060045,,,,,,,2024-02-15,1,,,,,メロウラボ,0
1595,7010401180334,新規,0,2024-02-15,2024-02-15,株式会社Ａｌａｕｄａ,,株式会社,東京都,港区,南青山４丁目１５－１６－２０１,,13,103,1070062,,,,,,,2024-02-15,1,,,,,アラウダ,0
1596,7010401180342,新規,0,2024-02-15,2024-02-15,株式会社ジョイン,,株式会社,東京都,港区,麻布十番１丁目５－７第一長門ビル５０１,,13,103,1060045,,,,,,,2024-02-15,1,,,,,ジョイン,0
1597,7010401180400,新規,0,2024-02-15,2024-02-15,株式会社レヴェルト,,株式会社,東京都,港区,六本木４丁目１０番４号アルガビル地下１階,,13,103,1060032,,,,,,,2024-02-15,1,,,,,レヴェルト,0
1598,7010401180425,新規,0,2024-02-15,2024-02-15,晶安株式会社,,株式会社,東京都,港区,東新橋１丁目５番２号,,13,103,1050021,,,,,,,2024-02-15,1,,,,,ショウアン,0
1602,7010403031972,新規,0,2024-02-15,2024-02-15,ＰＦ合同会社,,合同会社,東京都,港区,六本木５丁目１０番３３号,,13,103,1060032,,,,,,,2024-02-15,1,,,,,ピーエフ,0
1603,7010403031989,新規,0,2024-02-15,2024-02-15,ＪＦＲ１号合同会社,,合同会社,東京都,港区,元赤坂１丁目１番８号赤坂コミュニティビル４階,,13,103,1070051,,,,,,,2024-02-15,1,,,,,ジェイエフアールイチゴウ,0
1610,7010503007344,新規,0,2024-02-15,2024-02-15,Ｎｏｃｏｄｅ　Ｆａｃｔｏｒｙ合同会社,,合同会社,東京都,台東区,寿３丁目９番３号丸大ビルＢＩＺｃｉｒｃｌｅ浅草蔵前３Ｆ－７,,13,106,1110042,,,,,,,2024-02-15,1,,,,,ノーコードファクトリー,0
1617,7010701045550,新規,0,2024-02-15,2024-02-15,ＢＥＰＵ株式会社,,株式会社,東京都,品川区,上大崎３丁目３番９号秀和目黒駅前レジデンス１１０３,,13,109,1410021,,,,,,,2024-02-15,1,,,,,ベープ,0
1623,7010903008792,新規,0,2024-02-15,2024-02-15,合同会社ＨＩＣ,,合同会社,東京都,世田谷区,太子堂１丁目１番７号パークアクシス三宿２０１,,13,112,1540004,,,,,,,2024-02-15,1,,,,,エイチアイシー,0
1624,7010903008834,新規,0,2024-02-15,2024-02-15,Ｎｕｄｇｅ　Ｅｘｐｅｒｉｅｎｃｅ合同会社,,合同会社,東京都,世田谷区,代田６丁目８－３３,,13,112,1550033,,,,,,,2024-02-15,1,,,,,ナッジエクスペリエンス,0
1628,7011001160016,新規,0,2024-02-15,2024-02-15,株式会社ＯＮＣＥ　ＡＧＡＩＮ,,株式会社,東京都,渋谷区,神宮前６丁目２３番４号桑野ビル２階,,13,113,1500001,,,,,,,2024-02-15,1,,,,,ワンスアゲイン,0
1631,7011003018443,新規,0,2024-02-15,2024-02-15,Ｇｏｄ’ｓ　Ｃ　Ｐｒｏｊｅｃｔ合同会社,,合同会社,東京都,目黒区,下目黒１丁目１番１４号コノトラビル７Ｆ,,13,110,1530064,,,,,,,2024-02-15,1,,,,,ゴッズシープロジェクト,0
1632,7011101106208,新規,0,2024-02-15,2024-02-15,株式会社ｗｅｎｅｗ,,株式会社,東京都,新宿区,細工町３番４号,,13,104,1620838,,,,,,,2024-02-15,1,,,,,ウィーニュー,0
1637,7011301029407,新規,0,2024-02-15,2024-02-15,株式会社ＳＥＩＳ,,株式会社,東京都,杉並区,高円寺南５丁目１８番９号,,13,115,1660003,,,,,,,2024-02-15,1,,,,,セイス,0
1639,7011403004274,新規,0,2024-02-15,2024-02-15,合同会社エスポワール,,合同会社,東京都,板橋区,泉町６番１０号,,13,119,1740055,,,,,,,2024-02-15,1,,,,,エスポワール,0
1641,7011501030296,新規,0,2024-02-15,2024-02-15,Ｎｏｒａｈ株式会社,,株式会社,東京都,北区,王子本町１丁目２２－１－２０２号室,,13,117,1140022,,,,,,,2024-02-15,1,,,,,ナオラ,0
1643,7011701027019,新規,0,2024-02-15,2024-02-15,トライデント・キャピタル株式会社,,株式会社,東京都,江戸川区,平井６丁目１９番１６号,,13,123,1320035,,,,,,,2024-02-15,1,,,,,トライデントキャピタル,0
1645,7011803006085,新規,0,2024-02-15,2024-02-15,合同会社ヴィレッジ,,合同会社,東京都,足立区,大谷田３丁目３番３－１００８号グリーンフォレストパークアリーナ,,13,121,1200001,,,,,,,2024-02-15,1,,,,,ヴィレッジ,0
1648,7012403006418,新規,0,2024-02-15,2024-02-15,ｗｅｅｋｅｎｄｓ合同会社,,合同会社,東京都,調布市,小島町１丁目１９‐１‐４０３,,13,208,1820026,,,,,,,2024-02-15,1,,,,,ウィークエンズ,0
1658,7020001155784,新規,0,2024-02-15,2024-02-15,株式会社Ｔ‐ｗｒｉｔｅ．,,株式会社,神奈川県,横浜市都筑区,仲町台１丁目７番１８号ビュロー仲町台３０４,,14,118,2240041,,,,,,,2024-02-15,1,,,,,ティーライト,0
1661,7020003025283,新規,0,2024-02-15,2024-02-15,合同会社ＣＸＱ,,合同会社,神奈川県,横浜市中区,真砂町３丁目３０番地２関内竹内ビル３階,,14,104,2310016,,,,,,,2024-02-15,1,,,,,シーエックスキュー,0
1667,7021001081467,新規,0,2024-02-15,2024-02-15,株式会社ＨＡＭＭＥＲ　ＨＥＡＤ　ＲＥＣＯＲＤＳ,,株式会社,神奈川県,三浦郡葉山町,一色１８００－３,,14,301,2400111,,,,,,,2024-02-15,1,,,,,ハンマーヘッドレコーズ,0
1668,7021001081475,新規,0,2024-02-15,2024-02-15,株式会社武ＯＶＥＲ,,株式会社,神奈川県,横須賀市,衣笠栄町１丁目２８番地,,14,201,2380031,,,,,,,2024-02-15,1,,,,,テイクオーバー,0
1686,7040001132187,新規,0,2024-02-15,2024-02-15,株式会社ＴＳ・ＦＥＬＬＯＷ,,株式会社,千葉県,柏市,豊四季２３４番地２号,,12,217,2770863,,,,,,,2024-02-15,1,,,,,ティーエスフェロー,0
1692,7040003024309,新規,0,2024-02-15,2024-02-15,ＮＥＸＴ合同会社,,合同会社,千葉県,館山市,沼１５９７－４,,12,205,2940034,,,,,,,2024-02-15,1,,,,,ネクスト,0
1694,7050001054273,新規,0,2024-02-15,2024-02-15,株式会社Ｈｏｎｅｓｔ　Ｃａｐｉｔａｌ　Ｈｏｌｄｉｎｇｓ,,株式会社,茨城県,桜川市,真壁町原方１１６５番地１,,08,231,3004421,,,,,,,2024-02-15,1,,,,,オネストキャピタルホールディングス,0
1697,7060003004911,新規,0,2024-02-15,2024-02-15,健美合同会社,,合同会社,栃木県,宇都宮市,元今泉２丁目３－３ルミエール元今泉４０５,,09,201,3210954,,,,,,,2024-02-15,1,,,,,ケンミ,0
1701,7080103002986,新規,0,2024-02-15,2024-02-15,合同会社ＡＳＮ　ｇｒｏｕｐ,,合同会社,静岡県,富士市,天間１７－２カーサ・ＡＳＫＡ１Ａ,,22,210,4190205,,,,,,,2024-02-15,1,,,,,エーエスエヌグループ,0
1705,7110001038179,新規,0,2024-02-15,2024-02-15,株式会社未来里山技術機構,,株式会社,新潟県,長岡市,和島中沢乙４８９番地,,15,202,9494516,,,,,,,2024-02-15,1,,,,,ミライサトヤマギジュツキコウ,0
1717,7120001262216,新規,0,2024-02-15,2024-02-15,株式会社池本眼鏡,,株式会社,大阪府,大阪市中央区,糸屋町２丁目１－４ＣＲＯＳＳＢＬＤＧ．３階,,27,128,5400022,,,,,,,2024-02-15,1,,,,,イケモトガンキョウ,0
1718,7120001262240,新規,0,2024-02-15,2024-02-15,龍達株式会社,,株式会社,大阪府,大阪市中央区,上町１丁目２５－２－３０２,,27,128,5400005,,,,,,,2024-02-15,1,,,,,リュウタツ,0
1719,7120001262249,新規,0,2024-02-15,2024-02-15,株式会社Ｓｅｖｅｎｓｗｅｌｌ,,株式会社,大阪府,大阪市西区,北堀江１丁目２３番１１－１００３号,,27,106,5500014,,,,,,,2024-02-15,1,,,,,セブンスウェル,0
1720,7120001262281,新規,0,2024-02-15,2024-02-15,株式会社Ａｒｕｒｕ,,株式会社,大阪府,大阪市城東区,放出西２丁目１７番２７号,,27,118,5360011,,,,,,,2024-02-15,1,,,,,アルル,0
1721,7120001262307,新規,0,2024-02-15,2024-02-15,ワークヒア株式会社,,株式会社,大阪府,大阪市中央区,本町橋６番１９号,,27,128,5400029,,,,,,,2024-02-15,1,,,,,ワークヒア,0
1722,7120001262348,新規,0,2024-02-15,2024-02-15,春禾株式会社,,株式会社,大阪府,大阪市北区,中津２丁目８番Ｃ－１１１５号室,,27,127,5310071,,,,,,,2024-02-15,1,,,,,シュンカ,0
1729,7120003025918,新規,0,2024-02-15,2024-02-15,合同会社炊村バイオガス発電所,,合同会社,大阪府,大阪市中央区,石町２丁目３番９号,,27,128,5400033,,,,,,,2024-02-15,1,,,,,カシキムラバイオガスハツデンショ,0
1730,7120003025934,新規,0,2024-02-15,2024-02-15,合同会社不二防災,,合同会社,大阪府,大阪市住之江区,中加賀屋３丁目４－２１－２０２,,27,125,5590017,,,,,,,2024-02-15,1,,,,,,0
1735,7120901048763,新規,0,2024-02-15,2024-02-15,株式会社アルマバートン,,株式会社,大阪府,豊中市,本町４丁目１０番１８－１０７号室,,27,203,5600021,,,,,,,2024-02-15,1,,,,,アルマバートン,0
1737,7122001037829,新規,0,2024-02-15,2024-02-15,ＬＡＤＩＮＯ株式会社,,株式会社,大阪府,東大阪市,高井田西１丁目９番４号,,27,227,5770067,,,,,,,2024-02-15,1,,,,,ラディノ,0
1742,7130001076350,新規,0,2024-02-15,2024-02-15,金龍投資株式会社,,株式会社,京都府,京都市中京区,西ノ京船塚町１８－２３－１０１,00133723,26,104,6048426,,,,,,,2024-02-15,1,,,,,キンリュウトウシ,0
1743,7130001076359,新規,0,2024-02-15,2024-02-15,株式会社ａｍｏｕｒ．,,株式会社,京都府,京都市左京区,上高野大橋町１３番地,,26,103,6060062,,,,,,,2024-02-15,1,,,,,アムール,0
1744,7130001076391,新規,0,2024-02-15,2024-02-15,株式会社ハウスストック,,株式会社,京都府,京都市下京区,西七条西八反田町１１４－３,,26,106,6008892,,,,,,,2024-02-15,1,,,,,ハウスストック,0
1748,7130003009300,新規,0,2024-02-15,2024-02-15,合同会社えにし,,合同会社,京都府,京都市東山区,本町１９丁目４２５番地ＳＴＡＲＴ１０３,,26,105,6050981,,,,,,,2024-02-15,1,,,,,エニシ,0
1749,7130003009309,新規,0,2024-02-15,2024-02-15,合同会社ＦＲＩＥＮＤＳ,,合同会社,京都府,京都市伏見区,深草藤森町３７番地の３８,,26,109,6120863,,,,,,,2024-02-15,1,,,,,フレンズ,0
1756,7140001133332,新規,0,2024-02-15,2024-02-15,株式会社ＩＭコーポレーション,,株式会社,兵庫県,神戸市須磨区,板宿町３丁目１番１号１Ｆ,,28,107,6540009,,,,,,,2024-02-15,1,,,,,アイエムコーポレーション,0
1758,7160001025692,新規,0,2024-02-15,2024-02-15,株式会社金銀花,,株式会社,滋賀県,近江八幡市,新栄町２番地５,,25,204,5230081,,,,,,,2024-02-15,1,,,,,キンギンカ,0
1767,7180001160117,新規,0,2024-02-15,2024-02-15,株式会社サマーサンズ,,株式会社,愛知県,名古屋市西区,新道２丁目１３番３２号ファステート名古屋駅前ドリーム１３０５号,,23,104,4510043,,,,,,,2024-02-15,1,,,,,サマーサンズ,0
1768,7180001160125,新規,0,2024-02-15,2024-02-15,株式会社Ｇｏｌｄｅｎ　Ｆｏｒｅｓｔ,,株式会社,愛知県,名古屋市千種区,大島町２丁目１８番地,,23,101,4640833,,,,,,,2024-02-15,1,,,,,ゴールデンフォレスト,0
1769,7180001160133,新規,0,2024-02-15,2024-02-15,株式会社ＴＯＮ,,株式会社,愛知県,名古屋市中区,大須４丁目１０番１４号,,23,106,4600011,,,,,,,2024-02-15,1,,,,,トン,0
1770,7180001160182,新規,0,2024-02-15,2024-02-15,さやと株式会社,,株式会社,愛知県,海部郡大治町,大字花常字堀之内境１０番地の２,,23,424,4901136,,,,,,,2024-02-15,1,,,,,サヤト,0
1776,7200001042163,新規,0,2024-02-15,2024-02-15,株式会社ＭＫＳ,,株式会社,岐阜県,岐阜市,岩滝西１丁目５０６番地２,,21,201,5013152,,,,,,,2024-02-15,1,,,,,エムケーエス,0
1778,7200003006232,新規,0,2024-02-15,2024-02-15,ＰＲＦ合同会社,,合同会社,岐阜県,岐阜市,庵町２７番地１０,,21,201,5008139,,,,,,,2024-02-15,1,,,,,ピーアールエフ,0
1783,7220003003673,新規,0,2024-02-15,2024-02-15,合同会社ひなた,,合同会社,石川県,七尾市,中島町塩津ヤ部１４番地,,17,202,9292234,,,,,,,2024-02-15,1,,,,,ヒナタ,0
1784,7230001020216,新規,0,2024-02-15,2024-02-15,ヨシワ産業株式会社,,株式会社,富山県,高岡市,伏木古府元町９番８号,,16,202,9330115,,,,,,,2024-02-15,1,,,,,ヨシワサンギョウ,0
1786,7240001062785,新規,0,2024-02-15,2024-02-15,株式会社オフィスササキ,,株式会社,広島県,東広島市,西条町寺家６８７１番地,,34,212,7390041,,,,,,,2024-02-15,1,,,,,オフィスササキ,0
1788,7260001038759,新規,0,2024-02-15,2024-02-15,株式会社クレーンメンテ岡山,,株式会社,岡山県,岡山市南区,泉田５丁目１０番３５号,,33,104,7000944,,,,,,,2024-02-15,1,,,,,クレーンメンテオカヤマ,0
1789,7260001038767,新規,0,2024-02-15,2024-02-15,津山ファーム株式会社,,株式会社,岡山県,津山市,河辺９３番地１,,33,203,7080842,,,,,,,2024-02-15,1,,,,,ツヤマファーム,0
1791,7280001009122,新規,0,2024-02-15,2024-02-15,株式会社ＫＵＢＥＲＵ,,株式会社,島根県,隠岐郡隠岐の島町,東町宇屋の下２１,,32,528,6850012,,,,,,,2024-02-15,1,,,,,クベル,0
1800,7290001104731,新規,0,2024-02-15,2024-02-15,株式会社アキュレートテック,,株式会社,福岡県,福岡市城南区,長尾５丁目２６－２４,,40,136,8140123,,,,,,,2024-02-15,1,,,,,アキュレートテック,0
1802,7290801030318,新規,0,2024-02-15,2024-02-15,株式会社アクアファクトリー,,株式会社,福岡県,遠賀郡岡垣町,大字海老津１４５番地３,,40,383,8114231,,,,,,,2024-02-15,1,,,,,アクアファクトリー,0
1804,7290803004617,新規,0,2024-02-15,2024-02-15,合同会社亀山商店,,合同会社,福岡県,北九州市門司区,黒川西３丁目３－１,,40,101,8010825,,,,,,,2024-02-15,1,,,,,カメヤマショウテン,0
1807,7310001018854,新規,0,2024-02-15,2024-02-15,アダプティックジャパン株式会社,,株式会社,長崎県,長崎市,尾上町１番１号ＪＲ長崎駅ビルオフィス６１８,,42,201,8500058,,,,,,,2024-02-15,1,,,,,アダプティックジャパン,0
1809,7310005008736,新規,0,2024-02-15,2024-02-15,特定非営利活動法人Ｓｉｆｕｒｉ　Ａｓａｎｔｅ,,その他の設立登記法人,長崎県,大村市,西大村本町３４３番地,,42,205,8560813,,,,,,,2024-02-15,1,,,,,シフリアサンテ,0
1810,7330001031756,新規,0,2024-02-15,2024-02-15,株式会社ｍｅｉｓｔｉｅｒホールディングス,,株式会社,熊本県,上益城郡益城町,大字田原２０８１番地１７,,43,443,8612202,,,,,,,2024-02-15,1,,,,,マイスティアホールディングス,0
1814,7350001018792,新規,0,2024-02-15,2024-02-15,株式会社トミタカ,,株式会社,宮崎県,日南市,中平野４丁目１番１－２０５号,,45,204,8870016,,,,,,,2024-02-15,1,,,,,トミタカ,0
1815,7360001033188,新規,0,2024-02-15,2024-02-15,株式会社成豊産業,,株式会社,沖縄県,那覇市,泉崎１丁目２０番１号,,47,201,9000021,,,,,,,2024-02-15,1,,,,,セイホウサンギョウ,0
1816,7360001033196,新規,0,2024-02-15,2024-02-15,アティエーラ株式会社,,株式会社,沖縄県,国頭郡恩納村,字谷茶１９１９－１,,47,311,9040412,,,,,,,2024-02-15,1,,,,,アティエーラ,0
1818,7360003013700,新規,0,2024-02-15,2024-02-15,合同会社Ｌ１,,合同会社,沖縄県,那覇市,牧志３丁目２４番２７‐１００４号コンフォート牧志駅前,,47,201,9000013,,,,,,,2024-02-15,1,,,,,エルワン,0
1820,7370001050942,新規,0,2024-02-15,2024-02-15,株式会社アオクトヒロク,,株式会社,宮城県,名取市,植松４丁目１２番３３－４号,,04,207,9811226,,,,,,,2024-02-15,1,,,,,アオクトヒロク,0
1825,7410003003893,新規,0,2024-02-15,2024-02-15,合同会社アイ,,合同会社,秋田県,能代市,景林町１４番２１号,,05,202,0160892,,,,,,,2024-02-15,1,,,,,アイ,0
1828,7430001091014,新規,0,2024-02-15,2024-02-15,株式会社塚原,,株式会社,北海道,札幌市豊平区,月寒東一条７丁目４番１０－４０１号,,01,105,0620051,,,,,,,2024-02-15,1,,,,,ツカハラ,0
1829,7430001091055,新規,0,2024-02-15,2024-02-15,株式会社イー・クラウドサービス,,株式会社,北海道,札幌市中央区,大通西１丁目１４番地２,,01,101,0600042,,,,,,,2024-02-15,1,,,,,イークラウドサービス,0
1830,7430001091071,新規,0,2024-02-15,2024-02-15,株式会社Ｖｉａ　Ｌａｔｔｅａ,,株式会社,北海道,札幌市中央区,南一条西２８丁目１番３－３０５号,,01,101,0640801,,,,,,,2024-02-15,1,,,,,ヴィアラッテア,0
1835,7430003015961,新規,0,2024-02-15,2024-02-15,合同会社ケアプラン相談所かしわの木,,合同会社,北海道,室蘭市,柏木町４４番８号,,01,205,0500064,,,,,,,2024-02-15,1,,,,,ケアプランソウダンジョカシワノキ,0
1840,7700150111651,新規,0,2024-02-15,2024-02-15,ＮＩＮＧＢＯ　ＡＩＭＡＯＤＩ　ＫＥＪＩ　ＹＯＵ　ＸＩＡＮ　ＧＯＮＧ　ＳＩ,,外国会社等,,,,,,,,Ｒｏｏｍ　４－３－２，Ｎｏ．６，Ｌａｎｅ　２２９，Ｆｕｍｉｎｇ　Ｒｏａｄ，Ｈｉ－Ｔｅｃｈ　Ｚｏｎｅ，Ｎｉｎｇｂｏ　Ｚｈｅｊｉａｎｇ，Ｃｈｉｎａ　３１５１００,,,,,,2024-02-15,1,,,,,ニンボーアイマオディケージーヨウシエン,0
1847,8010001242319,新規,0,2024-02-15,2024-02-15,長嶺株式会社,,株式会社,東京都,千代田区,飯田橋２丁目１６番４号九段下コート２Ｆ－２１５号室,,13,101,1020072,,,,,,,2024-02-15,1,,,,,ナガミネ,0
1848,8010003042931,新規,0,2024-02-15,2024-02-15,合同会社トラスティー美咲,,合同会社,東京都,中央区,日本橋１丁目４番１号日本橋一丁目ビルディング,,13,102,1030027,,,,,,,2024-02-15,1,,,,,トラスティーミサキ,0
1850,8010005037896,新規,0,2024-02-15,2024-02-15,一般社団法人アジア青年音楽家聯盟,,その他の設立登記法人,東京都,中央区,日本橋浜町２丁目３７－４ベルメイゾン浜町２Ｆ,,13,102,1030007,,,,,,,2024-02-15,1,,,,,アジアセイネンオンガクカレンメイ,0
1864,8010403031823,新規,0,2024-02-15,2024-02-15,ＥＶＩＡ　Ｌｉｆｅ　Ｓｃｉｅｎｃｅｓ　Ｊａｐａｎ合同会社,,合同会社,東京都,港区,赤坂９丁目７番１号オクターヴ・ジャパン株式会社内,,13,103,1070052,,,,,,,2024-02-15,1,,,,,エヴィアライフサイエンシズジャパン,0
1865,8010403031955,新規,0,2024-02-15,2024-02-15,レバンガエンタテインメント合同会社,,合同会社,東京都,港区,浜松町２丁目２番１５号浜松町ダイヤビル２Ｆ,,13,103,1050013,,,,,,,2024-02-15,1,,,,,レバンガエンタテインメント,0
1870,8010503007343,新規,0,2024-02-15,2024-02-15,ウタリ合同会社,,合同会社,東京都,台東区,根岸４丁目１０番２号,,13,106,1100003,,,,,,,2024-02-15,1,,,,,ウタリ,0
1877,8010901054722,新規,0,2024-02-15,2024-02-15,株式会社ＳＩＤＥ　ＳＬＯＰＥ,,株式会社,東京都,世田谷区,駒沢５丁目８番３－７０１号,,13,112,1540012,,,,,,,2024-02-15,1,,,,,サイドスロープ,0
1879,8010903008718,新規,0,2024-02-15,2024-02-15,合同会社Ｃｉｅｌ,,合同会社,東京都,世田谷区,赤堤２丁目４０番１５号,,13,112,1560044,,,,,,,2024-02-15,1,,,,,シエル,0
1880,8010903008833,新規,0,2024-02-15,2024-02-15,アニモ合同会社,,合同会社,東京都,世田谷区,代沢１丁目２９番５－３１０号,,13,112,1550032,,,,,,,2024-02-15,1,,,,,アニモ,0
1889,8011001160056,新規,0,2024-02-15,2024-02-15,ＨＫ通信株式会社,,株式会社,東京都,渋谷区,千駄ヶ谷５丁目２９－１１ナカニシビル７０２,,13,113,1510051,,,,,,,2024-02-15,1,,,,,エイチケーツウシン,0
1890,8011003018459,新規,0,2024-02-15,2024-02-15,合同会社ネットコネクト,,合同会社,東京都,渋谷区,道玄坂１丁目１０－８渋谷道玄坂東急ビル２Ｆ－Ｃ,,13,113,1500043,,,,,,,2024-02-15,1,,,,,ネットコネクト,0
1891,8011003018483,新規,0,2024-02-15,2024-02-15,合同会社ＴＯＫＹＯ　ＶＥＮＴＵＲＥＳ,,合同会社,東京都,渋谷区,代官山町７番７－６０３号,,13,113,1500034,,,,,,,2024-02-15,1,,,,,トーキョーベンチャーズ,0
1892,8011101106198,新規,0,2024-02-15,2024-02-15,株式会社瑩天,,株式会社,東京都,新宿区,舟町３－１ブリリア四谷三丁目５０４号室,,13,104,1600006,,,,,,,2024-02-15,1,,,,,エイテン,0
1893,8011103014093,新規,0,2024-02-15,2024-02-15,合同会社キューイーエイ・トウキョウ,,合同会社,東京都,新宿区,若葉１丁目８番地４－２４,,13,104,1600011,,,,,,,2024-02-15,1,,,,,キューイーエイトウキョウ,0
1897,8011403004273,新規,0,2024-02-15,2024-02-15,ＩＮＤＲＡ　ＬＡＸＭＩ合同会社,,合同会社,東京都,板橋区,泉町六丁目６－２コーポサンプライズ,,13,119,1740055,,,,,,,2024-02-15,1,,,,,インドララクシミ,0
1911,8012401041515,新規,0,2024-02-15,2024-02-15,Ｈｅｌｐ　Ｙｏｕｒｓｅｌｆ株式会社,,株式会社,東京都,武蔵野市,緑町１丁目８番６号,,13,203,1800012,,,,,,,2024-02-15,1,,,,,ヘルプユアセルフ,0
1912,8012801022973,新規,0,2024-02-15,2024-02-15,株式会社ＫＩＲＩＮＪＩ,,株式会社,東京都,立川市,富士見町２丁目３３番６号,,13,202,1900013,,,,,,,2024-02-15,1,,,,,キリンジ,0
1925,8020001155684,新規,0,2024-02-15,2024-02-15,株式会社ｂａｎｄｅ,,株式会社,神奈川県,横浜市磯子区,東町１５番３２号,,14,107,2350005,,,,,,,2024-02-15,1,,,,,バンデ,0
1926,8020001155783,新規,0,2024-02-15,2024-02-15,株式会社ウフ,,株式会社,神奈川県,川崎市幸区,南加瀬２丁目４番８－１号,,14,132,2120055,,,,,,,2024-02-15,1,,,,,ウフ,0
1927,8020001155791,新規,0,2024-02-15,2024-02-15,こころざしマーケティング株式会社,,株式会社,神奈川県,横浜市緑区,東本郷２丁目２２番２０号,,14,113,2260002,,,,,,,2024-02-15,1,,,,,ココロザシマーケティング,0
1946,8030001158612,新規,0,2024-02-15,2024-02-15,Ｆ・Ｇホールディングス株式会社,,株式会社,埼玉県,川口市,本蓮４丁目５番１０号,,11,203,3340076,,,,,,,2024-02-15,1,,,,,エフジーホールディングス,0
1949,8030003023632,新規,0,2024-02-15,2024-02-15,ａｂｅｅｙ合同会社,,合同会社,埼玉県,さいたま市大宮区,宮町４丁目１１４番地１－２０５,,11,103,3300802,,,,,,,2024-02-15,1,,,,,エービィ,0
1954,8040001131997,新規,0,2024-02-15,2024-02-15,ＡＺＩＴＯ商事株式会社,,株式会社,千葉県,佐倉市,宮前３丁目２２番地４ＧＡＲＤＥＮＥＬＥＧＡＮＴ２１９号室,,12,212,2850005,,,,,,,2024-02-15,1,,,,,アジトショウジ,0
1955,8040001132194,新規,0,2024-02-15,2024-02-15,株式会社ケーシード,,株式会社,千葉県,君津市,陽光台２丁目２番２５号,,12,225,2991166,,,,,,,2024-02-15,1,,,,,ケーシード,0
1956,8050001054280,新規,0,2024-02-15,2024-02-15,ＴＯＲＯＮＴＯ　ＴＲＡＤＩＮＧ株式会社,,株式会社,茨城県,水戸市,姫子２丁目７４２番地の７姫子ハイツ１０１号室,,08,201,3114151,,,,,,,2024-02-15,1,,,,,トロントトレーディング,0
1957,8050001054289,新規,0,2024-02-15,2024-02-15,株式会社アスグリ,,株式会社,茨城県,水戸市,堀町２３３４番地の５,,08,201,3100903,,,,,,,2024-02-15,1,,,,,アスグリ,0
1960,8060001036831,新規,0,2024-02-15,2024-02-15,ＣＨＷＩＴＨ株式会社,,株式会社,栃木県,大田原市,須佐木１５１番地５,,09,210,3240212,,,,,,,2024-02-15,1,,,,,シーエッチウィズ,0
1962,8070001041392,新規,0,2024-02-15,2024-02-15,株式会社アナザープランツ,,株式会社,群馬県,高崎市,京目町１８４０番地１,,10,202,3700011,,,,,,,2024-02-15,1,,,,,アナザープランツ,0
1963,8070003005271,新規,0,2024-02-15,2024-02-15,ＶＩＥＴ　ＳＡＰＯ合同会社,,合同会社,群馬県,前橋市,本町２丁目３番１７号,,10,201,3710023,,,,,,,2024-02-15,1,,,,,ヴィエトサポ,0
1972,8090005007611,新規,0,2024-02-15,2024-02-15,一般社団法人ＢＡＳＥ,,その他の設立登記法人,山梨県,南アルプス市,下高砂６９５番地７,,19,208,4000202,,,,,,,2024-02-15,1,,,,,ベース,0
1986,8120001262215,新規,0,2024-02-15,2024-02-15,株式会社エスコートキャピタル,,株式会社,大阪府,大阪市中央区,今橋４丁目５－２０淀屋橋竹村ビル４Ｆ,,27,128,5410042,,,,,,,2024-02-15,1,,,,,エスコートキャピタル,0
1987,8120001262248,新規,0,2024-02-15,2024-02-15,ＪＬ株式会社,,株式会社,大阪府,大阪市東淀川区,豊新５丁目６番３－１０１号,,27,114,5330014,,,,,,,2024-02-15,1,,,,,ジェイエル,0
1988,8120001262272,新規,0,2024-02-15,2024-02-15,万翊株式会社,,株式会社,大阪府,大阪市淀川区,西中島４丁目６番３０－２０５号,,27,123,5320011,,,,,,,2024-02-15,1,,,,,マンヨク,0
1989,8120001262297,新規,0,2024-02-15,2024-02-15,こみやんの株式会社,,株式会社,大阪府,大阪市北区,堂山町１６－１１久栄第二レジャービル３０３,,27,127,5300027,,,,,,,2024-02-15,1,,,,,コミヤンノ,0
1990,8120003025751,新規,0,2024-02-15,2024-02-15,合同会社レック,,合同会社,大阪府,大阪市住吉区,住吉１丁目１４番１４号,,27,120,5580045,,,,,,,2024-02-15,1,,,,,レック,0
1991,8120003025925,新規,0,2024-02-15,2024-02-15,合同会社Ｃｏｃｃｏ　Ｃｒｅａｔｅ,,合同会社,大阪府,大阪市阿倍野区,北畠１丁目１番２４－２０１号,,27,119,5450035,,,,,,,2024-02-15,1,,,,,コッコクリエイト,0
1994,8120005024157,新規,0,2024-02-15,2024-02-15,一般社団法人日本國新洪門龍輝會,,その他の設立登記法人,大阪府,大阪市西区,南堀江１丁目１１番９号ＳＯＮＯ四ツ橋ビル４Ｆ４０６号,,27,106,5500015,,,,,,,2024-02-15,1,,,,,ニホンコクシンコウモンリュウキカイ,0
1995,8120005024165,新規,0,2024-02-15,2024-02-15,特定非営利活動法人猫のしあわせ,,その他の設立登記法人,大阪府,大阪市中央区,北久宝寺町２丁目１番２号ＮＰＣビル本町９Ｆ,,27,128,5410057,,,,,,,2024-02-15,1,,,,,ネコノシアワセ,0
1998,8120901048762,新規,0,2024-02-15,2024-02-15,株式会社キョーエイ,,株式会社,大阪府,豊中市,末広町１丁目７番１２号レジデンスシーズ１階１０３号室,,27,203,5600024,,,,,,,2024-02-15,1,,,,,キョーエイ,0
2021,8180001160099,新規,0,2024-02-15,2024-02-15,株式会社グレープファクトリー,,株式会社,愛知県,知多郡東浦町,大字緒川字引蛙７番地４８,,23,442,4702102,,,,,,,2024-02-15,1,,,,,グレープファクトリー,0
2022,8180001160124,新規,0,2024-02-15,2024-02-15,株式会社Ｈ＆Ｗ,,株式会社,愛知県,名古屋市西区,名駅３丁目７－９,,23,104,4510045,,,,,,,2024-02-15,1,,,,,エイチアンドダブリュー,0
2023,8180001160132,新規,0,2024-02-15,2024-02-15,ＣＲＥＳＴＯ株式会社,,株式会社,愛知県,名古屋市中区,栄５丁目２６－３９ＧＳ栄ビル３Ｆ,,23,106,4600008,,,,,,,2024-02-15,1,,,,,クレスト,0
2024,8180001160165,新規,0,2024-02-15,2024-02-15,ＴＭ株式会社,,株式会社,愛知県,春日井市,出川町６丁目６番地２４,,23,206,4870025,,,,,,,2024-02-15,1,,,,,ティーエム,0
2025,8180001160181,新規,0,2024-02-15,2024-02-15,株式会社医食同源舎,,株式会社,愛知県,名古屋市瑞穂区,彌富通５丁目５３番地,,23,108,4670064,,,,,,,2024-02-15,1,,,,,イショクドウゲンシャ,0
2037,8240001062784,新規,0,2024-02-15,2024-02-15,株式会社ＳＴＥＬＬＡＲ　ＲＯＬＥ,,株式会社,広島県,広島市中区,八丁堀２番６号ＩＤＯビル５０１,,34,101,7300013,,,,,,,2024-02-15,1,,,,,ステラロール,0
2038,8240001062801,新規,0,2024-02-15,2024-02-15,ケイエルティ株式会社,,株式会社,広島県,広島市西区,南観音５丁目８番２４－６号,,34,104,7330035,,,,,,,2024-02-15,1,,,,,ケイエルティ,0
2041,8260003004576,新規,0,2024-02-15,2024-02-15,合同会社Ｈ・Ｍ,,合同会社,岡山県,加賀郡吉備中央町,上竹４２９０番地５,,33,681,7161131,,,,,,,2024-02-15,1,,,,,エイチエム,0
2042,8280001009121,新規,0,2024-02-15,2024-02-15,株式会社かもしま,,株式会社,島根県,益田市,かもしま東町９番地１号,,32,204,6980046,,,,,,,2024-02-15,1,,,,,カモシマ,0
2054,8290001104680,新規,0,2024-02-15,2024-02-15,株式会社カゼノネ,,株式会社,福岡県,うきは市,吉井町鷹取１０９３番地１２,,40,225,8391343,,,,,,,2024-02-15,1,,,,,カゼノネ,0
2057,8290003014969,新規,0,2024-02-15,2024-02-15,合同会社Ｆｅｌｉｃｅ,,合同会社,福岡県,福岡市中央区,大宮１丁目６番３４号,,40,133,8100013,,,,,,,2024-02-15,1,,,,,フェリーチェ,0
2058,8290801030325,新規,0,2024-02-15,2024-02-15,株式会社河野工務店,,株式会社,福岡県,北九州市小倉南区,中曽根４丁目１５番３号,,40,107,8000222,,,,,,,2024-02-15,1,,,,,カワノコウムテン,0
2061,8310001018861,新規,0,2024-02-15,2024-02-15,株式会社Ｇｌｏｂａｌ　Ｔｒａｄｅ　Ｈａｒｂｏｒ,,株式会社,長崎県,大村市,富の原２丁目４６１番地４,,42,205,8560806,,,,,,,2024-02-15,1,,,,,グローバルトレードハーバー,0
2071,8350001018791,新規,0,2024-02-15,2024-02-15,株式会社えびの,,株式会社,宮崎県,えびの市,大字永山１１８２番地１,,45,209,8894234,,,,,,,2024-02-15,1,,,,,エビノ,0
2072,8350005006215,新規,0,2024-02-15,2024-02-15,一般社団法人ＤｒｅａｍＨｏｐｅＬｅｖｅｌＨａｉｒ,,その他の設立登記法人,宮崎県,小林市,細野１７２０番地４,,45,205,8860004,,,,,,,2024-02-15,1,,,,,ドリームホープレベルヘア,0
2078,8410003003892,新規,0,2024-02-15,2024-02-15,合同会社ＬＥＡＮ　ＩＮ,,合同会社,秋田県,湯沢市,吹張２丁目２番１号,,05,207,0120851,,,,,,,2024-02-15,1,,,,,リーンイン,0
2080,8430001091070,新規,0,2024-02-15,2024-02-15,株式会社３ｔｒｅ,,株式会社,北海道,札幌市手稲区,手稲本町一条３丁目２番１５号中嶋ビル１階,,01,109,0060021,,,,,,,2024-02-15,1,,,,,サントレ,0
2082,8430003015960,新規,0,2024-02-15,2024-02-15,ＷＡＫＡＴＳＵ　ＶＡＬＵＥ　ＳＥＲＶＩＣＥ合同会社,,合同会社,北海道,札幌市清田区,里塚三条３丁目１０番８号,,01,110,0040803,,,,,,,2024-02-15,1,,,,,ワカツバリューサービス,0
2084,8450001014228,新規,0,2024-02-15,2024-02-15,株式会社スマイル,,株式会社,北海道,旭川市,秋月一条１丁目１０番１０号,,01,204,0798401,,,,,,,2024-02-15,1,,,,,スマイル,0
2089,8470001020034,新規,0,2024-02-15,2024-02-15,大成金属株式会社,,株式会社,香川県,観音寺市,粟井町１１６７番地１,,37,205,7680052,,,,,,,2024-02-15,1,,,,,タイセイキンゾク,0
2092,8500001025467,新規,0,2024-02-15,2024-02-15,株式会社テイ・デイ・エイ,,株式会社,愛媛県,松山市,南町１丁目４番２６－３号,,38,201,7900856,,,,,,,2024-02-15,1,,,,,テイデイエイ,0
2095,8500005008674,新規,0,2024-02-15,2024-02-15,一般社団法人リブドゥ共済会,,その他の設立登記法人,愛媛県,四国中央市,金田町半田乙４５番地の２,,38,213,7990122,,,,,,,2024-02-15,1,,,,,リブドゥキョウサイカイ,0
2097,8700150123984,新規,0,2024-02-15,2024-02-15,渋谷ローヤルコーポマンション建替組合,,その他,東京都,港区,芝４丁目２番３号ＮＭＦ芝ビル４階　株式会社長谷工コーポレーション内,,13,103,1080014,,,,,,,2024-02-15,1,,,,,シブヤローヤルコーポマンシヨンタテカエクミアイ,0
2106,9010003042930,新規,0,2024-02-15,2024-02-15,茨石ホールディングス合同会社,,合同会社,東京都,千代田区,内幸町２丁目２番２号富国生命ビル１３階,,13,101,1000011,,,,,,,2024-02-15,1,,,,,イバセキホールディングス,0
2109,9010401180381,新規,0,2024-02-15,2024-02-15,ＢｅＷｕｎｄｅｒ株式会社,,株式会社,東京都,港区,芝大門２丁目１２番１０号Ｔ＆Ｇ浜松町ビル６Ｆ,,13,103,1050012,,,,,,,2024-02-15,1,,,,,ビーワンダー,0
2111,9010403031847,新規,0,2024-02-15,2024-02-15,ｙｅｓ　ａｎｄ合同会社,,合同会社,東京都,港区,虎ノ門１丁目１７－１虎ノ門ヒルズビジネスタワー１５階,,13,103,1050001,,,,,,,2024-02-15,1,,,,,イェスアンド,0
2112,9010403031987,新規,0,2024-02-15,2024-02-15,Ｌ＆ＩＬＥＲ合同会社,,合同会社,東京都,港区,北青山１丁目３番１号アールキューブ青山３階,,13,103,1070061,,,,,,,2024-02-15,1,,,,,リラー,0
2117,9010501051771,新規,0,2024-02-15,2024-02-15,株式会社台東ロック,,株式会社,東京都,台東区,花川戸１丁目７番１３号,,13,106,1110033,,,,,,,2024-02-15,1,,,,,タイトウロック,0
2118,9010501051796,新規,0,2024-02-15,2024-02-15,株式会社Ｖａｒｉｏｕｓ　Ｓｅｎｓｅ,,株式会社,東京都,台東区,入谷１丁目１５－２アミューズ入谷３０１,,13,106,1100013,,,,,,,2024-02-15,1,,,,,ヴァリアスセンス,0
2120,9010601064657,新規,0,2024-02-15,2024-02-15,株式会社ＭＵＳＵＢＩ,,株式会社,東京都,江東区,豊洲３丁目６番５－１４０１号,,13,108,1350061,,,,,,,2024-02-15,1,,,,,ムスビ,0
2122,9010605004287,新規,0,2024-02-15,2024-02-15,一般社団法人商事法学術・実務アソシエーション,,その他の設立登記法人,東京都,江東区,塩浜２丁目５番１２－１００２号,,13,108,1350043,,,,,,,2024-02-15,1,,,,,ショウジホウガクジュツジツムアソシエーション,0
2123,9010701045549,新規,0,2024-02-15,2024-02-15,株式会社バイオパワー,,株式会社,東京都,品川区,東五反田５丁目２７番１０号野村ビル９階,,13,109,1410022,,,,,,,2024-02-15,1,,,,,バイオパワー,0
2127,9010901054721,新規,0,2024-02-15,2024-02-15,アパテックロジスティクス株式会社,,株式会社,東京都,世田谷区,成城４丁目１２番１０号,,13,112,1570066,,,,,,,2024-02-15,1,,,,,アパテックロジスティクス,0
2128,9010903008816,新規,0,2024-02-15,2024-02-15,Ｔｒｕｓｔｅｄ　Ａｄｖｉｓｏｒ合同会社,,合同会社,東京都,世田谷区,桜上水３丁目９番１号,,13,112,1560045,,,,,,,2024-02-15,1,,,,,トラスティッドアドバイザー,0
2129,9010903008824,新規,0,2024-02-15,2024-02-15,合同会社路是,,合同会社,東京都,世田谷区,成城２丁目４１番８号キャッスルＶＩ成城１０１,00133726,13,112,1570066,,,,,,,2024-02-15,1,,,,,ロゼ,0
2136,9011001159948,新規,0,2024-02-15,2024-02-15,ＬＯＧＯＧＲＡＭ株式会社,,株式会社,東京都,目黒区,下目黒２丁目２番１０号,,13,110,1530064,,,,,,,2024-02-15,1,,,,,ロゴグラム,0
2137,9011001160055,新規,0,2024-02-15,2024-02-15,高寺商事株式会社,,株式会社,東京都,渋谷区,代々木１丁目３１番８号,,13,113,1510053,,,,,,,2024-02-15,1,,,,,タカデラショウジ,0
2138,9011001160063,新規,0,2024-02-15,2024-02-15,株式会社ビズライズ,,株式会社,東京都,渋谷区,道玄坂１丁目１２番１号渋谷マークシティＷ２２階,,13,113,1500043,,,,,,,2024-02-15,1,,,,,ビズライズ,0
2139,9011003018490,新規,0,2024-02-15,2024-02-15,合同会社ｒｋ,,合同会社,東京都,渋谷区,宇田川町４０番１－２００５号,,13,113,1500042,,,,,,,2024-02-15,1,,,,,アールケー,0
2140,9011003018499,新規,0,2024-02-15,2024-02-15,Ｋｏｎｎｉｃｈｉｗａ合同会社,,合同会社,東京都,渋谷区,神宮前２丁目１１番６号,,13,113,1500001,,,,,,,2024-02-15,1,,,,,,0
2144,9011101106197,新規,0,2024-02-15,2024-02-15,株式会社ＪＡＰＡ　ＣＨＩＩＩＬＬ,,株式会社,東京都,新宿区,西新宿１丁目２６番２号新宿野村ビル３２階,,13,104,1600023,,,,,,,2024-02-15,1,,,,,ジャパチール,0
2151,9011301029388,新規,0,2024-02-15,2024-02-15,株式会社日本在宅ケアマネジメント研究所,,株式会社,東京都,杉並区,下井草２丁目１１番１号,,13,115,1670022,,,,,,,2024-02-15,1,,,,,ニホンザイタクケアマネジメントケンキュウジョ,0
2157,9011803006091,新規,0,2024-02-15,2024-02-15,Ｉｍｍｉｎｅｎｔ　Ｄｏｍａｉｎ合同会社,,合同会社,東京都,足立区,江北４丁目２６番地６号,,13,121,1230872,,,,,,,2024-02-15,1,,,,,イミネントドメイン,0
2158,9012403006408,新規,0,2024-02-15,2024-02-15,合同会社ＬＩＢＥＲＴＹ,,合同会社,東京都,調布市,八雲台１丁目６番地１ストゥリーム２１‐１０２,,13,208,1820015,,,,,,,2024-02-15,1,,,,,リバティー,0
2168,9020001155799,新規,0,2024-02-15,2024-02-15,Ｔ．Ｍ．Ｋ株式会社,,株式会社,神奈川県,横浜市戸塚区,東俣野町９６１番地１８,,14,110,2450065,,,,,,,2024-02-15,1,,,,,ティーエムケー,0
2169,9020001155816,新規,0,2024-02-15,2024-02-15,株式会社ｅテクノエンジ,,株式会社,神奈川県,川崎市川崎区,鋼管通２丁目６番１号,,14,131,2100852,,,,,,,2024-02-15,1,,,,,,0
2175,9021001081457,新規,0,2024-02-15,2024-02-15,株式会社フレンズグロース,,株式会社,神奈川県,相模原市中央区,下九沢１２０８番地６,,14,152,2520254,,,,,,,2024-02-15,1,,,,,フレンズグロース,0
2182,9030001158660,新規,0,2024-02-15,2024-02-15,ＭＳ　ＴＲＡＤＩＮＧ株式会社,,株式会社,埼玉県,羽生市,大字稲子８２０番地,,11,216,3480061,,,,,,,2024-02-15,1,,,,,エムエストレーディング,0
2188,9040001132193,新規,0,2024-02-15,2024-02-15,株式会社ＳＯＲＡエステート,,株式会社,千葉県,松戸市,北松戸２丁目３番地６,,12,207,2710063,,,,,,,2024-02-15,1,,,,,ソラエステート,0
2193,9040003024315,新規,0,2024-02-15,2024-02-15,合同会社共城,,合同会社,千葉県,市原市,八幡海岸通１９番地１ユーフォニー市原５０４,,12,219,2900067,,,,,,,2024-02-15,1,,,,,キョウジョウ,0
2197,9060001036797,新規,0,2024-02-15,2024-02-15,株式会社五月女建材,,株式会社,栃木県,小山市,大字下初田５５番地１,,09,208,3230068,,,,,,,2024-02-15,1,,,,,ソオトメケンザイ,0
2198,9070001041391,新規,0,2024-02-15,2024-02-15,株式会社ＭＩＹＵＫＩ,,株式会社,群馬県,佐波郡玉村町,大字上福島５４６,,10,464,3701104,,,,,,,2024-02-15,1,,,,,ミユキ,0
2202,9080001026128,新規,0,2024-02-15,2024-02-15,株式会社ｅＮＥＸＴ,,株式会社,静岡県,静岡市葵区,古庄３丁目３２番４号サンサーラ古庄Ｉ１０３号室,00133718,22,101,4200812,,,,,,,2024-02-15,1,,,,,イーネクスト,0
2206,9090003002497,新規,0,2024-02-15,2024-02-15,合同会社松木組,,合同会社,山梨県,中巨摩郡昭和町,築地新居５４４番地３,,19,384,4093853,,,,,,,2024-02-15,1,,,,,マツキグミ,0
2207,9100003007395,新規,0,2024-02-15,2024-02-15,合同会社ＥＭＷ,,合同会社,長野県,松本市,小屋北２丁目１０番２７号,,20,202,3990039,,,,,,,2024-02-15,1,,,,,イーエムダブリュウ,0
2212,9110005017053,新規,0,2024-02-15,2024-02-15,グローバルベスト協同組合,,その他の設立登記法人,新潟県,新潟市西区,五十嵐西８番３号,,15,107,9502161,,,,,,,2024-02-15,1,,,,,グローバルベスト,0
2224,9120001262081,新規,0,2024-02-15,2024-02-15,鶴鳴株式会社,,株式会社,大阪府,大阪市淀川区,西宮原２丁目６－１６新大阪コーポビアネーズ１１３３号,,27,123,5320004,,,,,,,2024-02-15,1,,,,,カクメイ,0
2225,9120001262239,新規,0,2024-02-15,2024-02-15,龍海不動産株式会社,,株式会社,大阪府,大阪市都島区,高倉町３丁目１２－２４－１Ｆ,,27,102,5340011,,,,,,,2024-02-15,1,,,,,リュウカイフドウサン,0
2226,9120001262263,新規,0,2024-02-15,2024-02-15,株式会社ＣＨＩＡＫＩ,,株式会社,大阪府,大阪市西区,北堀江１丁目８番１４号,,27,106,5500014,,,,,,,2024-02-15,1,,,,,チアキ,0
2227,9120001262313,新規,0,2024-02-15,2024-02-15,株式会社ル・シュクレ・デコール,,株式会社,大阪府,大阪市北区,曾根崎新地１丁目６番２６号大森ビルＢ１,,27,127,5300002,,,,,,,2024-02-15,1,,,,,ルシュクレデコール,0
2228,9120001262370,新規,0,2024-02-15,2024-02-15,株式会社キートス,,株式会社,大阪府,大阪市北区,梅田１丁目１１番４号大阪駅前第４ビル９２３－１６９４号,,27,127,5300001,,,,,,,2024-02-15,1,,,,,キートス,0
2229,9120003025932,新規,0,2024-02-15,2024-02-15,合同会社響,,合同会社,大阪府,大阪市城東区,関目１丁目２３番２２号,,27,118,5360008,,,,,,,2024-02-15,1,,,,,ヒビキ,0
2232,9120005024164,新規,0,2024-02-15,2024-02-15,一般社団法人ファイブ,,その他の設立登記法人,大阪府,大阪市西淀川区,野里１丁目６番１１－２０５号,,27,113,5550024,,,,,,,2024-02-15,1,,,,,ファイブ,0
2236,9120101069039,新規,0,2024-02-15,2024-02-15,防犯ネットワーク株式会社,,株式会社,大阪府,堺市堺区,七道東町１２６番地５８,,27,141,5900913,,,,,,,2024-02-15,1,,,,,ボウハンネットワーク,0
2242,9122001037835,新規,0,2024-02-15,2024-02-15,株式会社ＨＭＣアセットマネジメント,,株式会社,大阪府,八尾市,東久宝寺２丁目４－５,,27,212,5810002,,,,,,,2024-02-15,1,,,,,エイチエムシーアセットマネジメント,0
2244,9130001076357,新規,0,2024-02-15,2024-02-15,３ＳＥＥＤｓ株式会社,,株式会社,京都府,京都市伏見区,西大手町３０７－２９,,26,109,6128362,,,,,,,2024-02-15,1,,,,,スリーシーズ,0
2245,9130001076373,新規,0,2024-02-15,2024-02-15,株式会社桐正工業,,株式会社,京都府,相楽郡精華町,大字植田小字川佐２３番地３,,26,366,6190236,,,,,,,2024-02-15,1,,,,,キリマサコウギョウ,0
2247,9130003009298,新規,0,2024-02-15,2024-02-15,合同会社北樹,,合同会社,京都府,京都市右京区,西院下花田町７番地１,,26,108,6150004,,,,,,,2024-02-15,1,,,,,ホクジュ,0
2249,9140001133322,新規,0,2024-02-15,2024-02-15,株式会社安平,,株式会社,兵庫県,神戸市中央区,元町通１丁目３番１１号,,28,110,6500022,,,,,,,2024-02-15,1,,,,,アンピン,0
2251,9150001027077,新規,0,2024-02-15,2024-02-15,株式会社大角,,株式会社,奈良県,生駒郡三郷町,勢野北１丁目７番１７号,,29,343,6360815,,,,,,,2024-02-15,1,,,,,オオスミ,0
2257,9180001160107,新規,0,2024-02-15,2024-02-15,ＮＥＷ　ＢＥＳＴ　ＩＮＴ’Ｌ　ＧＲＯＵＰ株式会社,,株式会社,愛知県,江南市,前野町南１４５－３,,23,217,4838054,,,,,,,2024-02-15,1,,,,,ニューベストインターナショナルグループ,0
2258,9180001160131,新規,0,2024-02-15,2024-02-15,株式会社Ｙ２サポート,,株式会社,愛知県,名古屋市千種区,内山１丁目１８番１６号,,23,101,4640075,,,,,,,2024-02-15,1,,,,,ワイツーサポート,0
2260,9180003026339,新規,0,2024-02-15,2024-02-15,Ｍｏｉｒａ合同会社,,合同会社,愛知県,名古屋市中川区,高畑４丁目２８番地,,23,110,4540911,,,,,,,2024-02-15,1,,,,,モイラ,0
2261,9180003026355,新規,0,2024-02-15,2024-02-15,合同会社ＷＡＴＡＣＯ,,合同会社,愛知県,名古屋市中村区,名駅４丁目２４番５号第２森ビル４０１,,23,105,4500002,,,,,,,2024-02-15,1,,,,,ワタコ,0
2268,9210003001750,新規,0,2024-02-15,2024-02-15,ＭＡＤＤＥＲ　ＳＫＹ合同会社,,合同会社,福井県,勝山市,平泉寺町小矢谷第２３号７番地１,,18,206,9110824,,,,,,,2024-02-15,1,,,,,マッダラースカイ,0
2275,9230001020214,新規,0,2024-02-15,2024-02-15,ＩＴＲＩＭ　ＪＡＰＡＮ株式会社,,株式会社,富山県,富山市,寺町けや木台１６番地,,16,201,9300875,,,,,,,2024-02-15,1,,,,,イトリンジャパン,0
2277,9240001062783,新規,0,2024-02-15,2024-02-15,株式会社ＥＶＥＲＢＬＵＥ,,株式会社,広島県,福山市,瀬戸町大字長和６７１番地１,,34,207,7200836,,,,,,,2024-02-15,1,,,,,エバーブルー,0
2278,9240001062791,新規,0,2024-02-15,2024-02-15,株式会社ＫＳＮ　ｐｌｅａｓａｎｔ,,株式会社,広島県,広島市中区,袋町１番３３－２０１号,,34,101,7300036,,,,,,,2024-02-15,1,,,,,ケイエスエヌプレザント,0
2279,9240001062800,新規,0,2024-02-15,2024-02-15,株式会社マイプレイス,,株式会社,広島県,広島市西区,庚午中１丁目１７番２９号,,34,104,7330822,,,,,,,2024-02-15,1,,,,,マイプレイス,0
2282,9240003006540,新規,0,2024-02-15,2024-02-15,合同会社Ｌｕｃｋｙ,,合同会社,広島県,広島市安芸区,畑賀３丁目１６番２２－２０３,,34,107,7360088,,,,,,,2024-02-15,1,,,,,ラッキー,0
2286,9260001038765,新規,0,2024-02-15,2024-02-15,西日本鉄鋼資材株式会社,,株式会社,岡山県,岡山市南区,妹尾２３７３番地２１,,33,104,7010205,,,,,,,2024-02-15,1,,,,,ニシニホンテッコウシザイ,0
2289,9290001104696,新規,0,2024-02-15,2024-02-15,アニマート・グループ福岡株式会社,,株式会社,福岡県,糟屋郡粕屋町,原町４丁目１番１１号,,40,349,8112307,,,,,,,2024-02-15,1,,,,,アニマートグループフクオカ,0
2293,9290803004615,新規,0,2024-02-15,2024-02-15,合同会社洋梨会,,合同会社,福岡県,北九州市小倉北区,妙見町１６番１２号,,40,106,8020041,,,,,,,2024-02-15,1,,,,,ヨウリカイ,0
2308,9340001026290,新規,0,2024-02-15,2024-02-15,株式会社ＬａＬａｔｒｅｅ,,株式会社,鹿児島県,鹿児島市,武１丁目２番１０号ＪＲ鹿児島中央ビル４階,,46,201,8900045,,,,,,,2024-02-15,1,,,,,ララツリー,0
2315,9360001033186,新規,0,2024-02-15,2024-02-15,株式会社未来,,株式会社,沖縄県,那覇市,字国場１１６８番地２てぃーだプレイス２０１,,47,201,9020075,,,,,,,2024-02-15,1,,,,,ミライ,0
2316,9360003013707,新規,0,2024-02-15,2024-02-15,合同会社武栄,,合同会社,沖縄県,宜野湾市,野嵩２丁目６番９号武島アパート３階,,47,205,9012203,,,,,,,2024-02-15,1,,,,,タケエイ,0
2334,9430005014885,新規,0,2024-02-15,2024-02-15,ＦＵＳＩＯＮ協同組合,,その他の設立登記法人,北海道,札幌市厚別区,厚別中央二条５丁目４番１号新札幌七彩館ビル２階,,01,108,0040052,,,,,,,2024-02-15,1,,,,,フュージョン,0
2335,9430005014893,新規,0,2024-02-15,2024-02-15,一般社団法人北海道ケアラーズ,,その他の設立登記法人,北海道,江別市,新栄台１２番地の６,,01,217,0690806,,,,,,,2024-02-15,1,,,,,ホッカイドウケアラーズ,0
2337,9450001014227,新規,0,2024-02-15,2024-02-15,株式会社Ｍｉｕｒａ,,株式会社,北海道,士別市,東五条７丁目１６０９番地２,,01,220,0950015,,,,,,,2024-02-15,1,,,,,,0
2341,9470005006549,新規,0,2024-02-15,2024-02-15,医療法人社団應薫会宮武歯科医院,,その他の設立登記法人,香川県,丸亀市,三条町９０番地２,,37,202,7630094,,,,,,,2024-02-15,1,,,,,オウクンカイミヤタケシカイイン,0
2346,9700150123975,新規,0,2024-02-15,2024-02-15,ＨＡＥＳＵＮＧ　ＤＳ　Ｃｏ．，Ｌｔｄ．,,外国会社等,福岡県,福岡市中央区,天神１丁目１５番１号日之出ビル８０１号,,40,133,8100001,大韓民国キョンサンナムド、チャンウォン市、ソンサング、ウンナムロ７２６,,,,,,2024-02-15,1,,,,,ヘソンデイーエス,0
