sequenceNumber,corporateNumber,process,correct,updateDate,changeDate,name,nameImageId,kind,prefectureName,cityName,streetNumber,addressImageId,prefectureCode,cityCode,postCode,addressOutside,addressOutsideImageId,closeDate,closeCause,successorCorporateNumber,changeCause,assignmentDate,latest,enName,enPrefectureName,enCityName,enAddressOutside,furigana,hihyoji
6,1010001224199,新規,0,2022-01-31,2022-01-31,コトリ株式会社,,株式会社,東京都,千代田区,九段南１丁目５番６号りそな九段ビル５Ｆ－ＫＳフロア,,13,101,1020074,,,,,,,2022-01-31,1,,,,,コトリ,0
7,1010001224232,新規,0,2022-01-31,2022-01-31,株式会社ＹＳＴモビリティサービス,,株式会社,東京都,千代田区,飯田橋４丁目３番３号,,13,101,1020072,,,,,,,2022-01-31,1,,,,,ワイエスティモビリティサービス,0
11,1010005034462,新規,0,2022-01-31,2022-01-31,一般社団法人ＩＴ・クリエイティブ取引正常化協会,,その他の設立登記法人,東京都,千代田区,神田佐久間町２丁目１０番地飯島ビル３Ｆ,,13,101,1010025,,,,,,,2022-01-31,1,,,,,アイティークリエイティブトリヒキセイジョウカキョウカイ,0
19,1010401165299,新規,0,2022-01-31,2022-01-31,株式会社エスセティシズム,,株式会社,東京都,港区,東麻布２丁目３５－１ＫＣビル６Ｆ,,13,103,1060044,,,,,,,2022-01-31,1,,,,,エスセティシズム,0
22,1010403027002,新規,0,2022-01-31,2022-01-31,合同会社ｌｅｓｃｈａｉｓｅｓ,,合同会社,東京都,港区,虎ノ門１丁目１７番１号虎ノ門ヒルズビジネスタワー４階,,13,103,1050001,,,,,,,2022-01-31,1,,,,,レシェーズ,0
26,1010601060580,新規,0,2022-01-31,2022-01-31,株式会社Ｏｐｈｉｕｃｈｕｓ,,株式会社,東京都,墨田区,石原２丁目２７番８号,,13,107,1300011,,,,,,,2022-01-31,1,,,,,オフィユーカス,0
28,1010701042132,新規,0,2022-01-31,2022-01-31,東京ソフトビジネス株式会社,,株式会社,東京都,品川区,南品川２丁目２番７号,,13,109,1400004,,,,,,,2022-01-31,1,,,,,トウキョウソフトビジネス,0
29,1010701042140,新規,0,2022-01-31,2022-01-31,株式会社Ｊ－ＭＡＮＧＡ　ＣＲＥＡＴＥ,,株式会社,東京都,品川区,西五反田１丁目２４番４号,,13,109,1410031,,,,,,,2022-01-31,1,,,,,ジェーマンガクリエイト,0
30,1010701042157,新規,0,2022-01-31,2022-01-31,株式会社ｇｒａｚｉｅ,,株式会社,東京都,品川区,戸越１丁目２－６－３０１,,13,109,1420041,,,,,,,2022-01-31,1,,,,,グラッツェ,0
32,1010703006085,新規,0,2022-01-31,2022-01-31,合同会社エーワイホーム,,合同会社,東京都,品川区,大井１丁目３１番１－１２０９号,,13,109,1400014,,,,,,,2022-01-31,1,,,,,エーワイホーム,0
37,1010901050240,新規,0,2022-01-31,2022-01-31,エスジェイプラン株式会社,,株式会社,東京都,世田谷区,若林４丁目２８－１クレール若林１０３号,,13,112,1540023,,,,,,,2022-01-31,1,,,,,エスジェイプラン,0
38,1010901050257,新規,0,2022-01-31,2022-01-31,株式会社築地徳志,,株式会社,東京都,世田谷区,鎌田２丁目５番５号,,13,112,1570077,,,,,,,2022-01-31,1,,,,,ツキジトクシ,0
39,1010901050265,新規,0,2022-01-31,2022-01-31,株式会社Ａｋｅｒｕ,,株式会社,東京都,世田谷区,北沢３丁目２６番１５号,,13,112,1550031,,,,,,,2022-01-31,1,,,,,アケル,0
40,1010903007107,新規,0,2022-01-31,2022-01-31,合同会社エヌコマ企画,,合同会社,東京都,世田谷区,駒沢２丁目２３番１７号,,13,112,1540012,,,,,,,2022-01-31,1,,,,,エヌコマキカク,0
43,1011001145261,新規,0,2022-01-31,2022-01-31,Ｓｕｓｔａｉｎａｂｌｅ　Ｆｏｏｄ　Ａｓｉａ株式会社,,株式会社,東京都,渋谷区,西原３丁目１１番８号Ｂ１階ＧＯＯＤ・ＥＡＴ・ＶＩＬＬＡＧＥ内,,13,113,1510066,,,,,,,2022-01-31,1,,,,,サステナブルフードアジア,0
44,1011001145303,新規,0,2022-01-31,2022-01-31,株式会社ＴＯＭＯＥＫ,,株式会社,東京都,渋谷区,恵比寿４丁目２０－３恵比寿ガーデンプレイスタワー１８階,,13,113,1500013,,,,,,,2022-01-31,1,,,,,トモエック,0
52,1011105010097,新規,0,2022-01-31,2022-01-31,司法書士法人ＮＥＷ．Ｓ,,その他の設立登記法人,東京都,新宿区,新宿１丁目４番１３号溝呂木第二ビル２階,,13,104,1600022,,,,,,,2022-01-31,1,,,,,ニュース,0
54,1011401023991,新規,0,2022-01-31,2022-01-31,株式会社西森,,株式会社,東京都,板橋区,西台１丁目１９番５号,,13,119,1740045,,,,,,,2022-01-31,1,,,,,ニシモリ,0
56,1011501027703,新規,0,2022-01-31,2022-01-31,株式会社ＫＫ,,株式会社,東京都,荒川区,東日暮里２丁目１０番２－３０２号,,13,118,1160014,,,,,,,2022-01-31,1,,,,,ケイケイ,0
65,1011801040257,新規,0,2022-01-31,2022-01-31,株式会社弓長商会,,株式会社,東京都,足立区,新田１丁目８番６－２１６号,,13,121,1230865,,,,,,,2022-01-31,1,,,,,ユミナガショウカイ,0
68,1012403005210,新規,0,2022-01-31,2022-01-31,ＴＡＧＵ　ｉ　ＭＡＲＥ合同会社,,合同会社,東京都,府中市,四谷４丁目４３番地の１８,,13,206,1830035,,,,,,,2022-01-31,1,,,,,タグイマレ,0
69,1012701016909,新規,0,2022-01-31,2022-01-31,株式会社ノイン,,株式会社,東京都,清瀬市,旭が丘１丁目２６６番地１０セレーナ２０１号,,13,221,2040002,,,,,,,2022-01-31,1,,,,,ノイン,0
71,1012801021370,新規,0,2022-01-31,2022-01-31,株式会社ウィルツリー,,株式会社,東京都,東大和市,中央４丁目９６２番地の１２エクセル中央１０２,,13,220,2070015,,,,,,,2022-01-31,1,,,,,ウィルツリー,0
74,1013301048615,新規,0,2022-01-31,2022-01-31,日本文化事業株式会社,,株式会社,東京都,豊島区,目白４丁目１０番２－１０３号,,13,116,1710031,,,,,,,2022-01-31,1,,,,,ニホンブンカジギョウ,0
81,1020001144982,新規,0,2022-01-31,2022-01-31,株式会社オーアコーポレーション,,株式会社,神奈川県,川崎市高津区,二子５丁目５－２１－５０４,,14,134,2130002,,,,,,,2022-01-31,1,,,,,オーアコーポレーション,0
82,1020001144999,新規,0,2022-01-31,2022-01-31,ジェイビューロ株式会社,,株式会社,神奈川県,横浜市中区,寺久保３４番地１－３０１号室,,14,104,2310855,,,,,,,2022-01-31,1,,,,,ジェイビューロ,0
83,1020001145015,新規,0,2022-01-31,2022-01-31,株式会社Ｃｏｒｅ　Ｃｒｅａｔｉｖｅ,,株式会社,神奈川県,横浜市西区,北幸１丁目１１番１号水信ビル７階,,14,103,2200004,,,,,,,2022-01-31,1,,,,,コアクリエイティブ,0
84,1020001145048,新規,0,2022-01-31,2022-01-31,株式会社ライトアップ,,株式会社,神奈川県,横浜市緑区,十日市場町８５４番地１３サニー東１０２号,,14,113,2260025,,,,,,,2022-01-31,1,,,,,ライトアップ,0
88,1020003021214,新規,0,2022-01-31,2022-01-31,合同会社ステラ－ズジェイ,,合同会社,神奈川県,横浜市南区,中島町１丁目４－２,,14,105,2320055,,,,,,,2022-01-31,1,,,,,ステラーズジェイ,0
89,1020003021222,新規,0,2022-01-31,2022-01-31,合同会社それなり,,合同会社,神奈川県,横浜市港北区,篠原北１丁目２３番２３号,,14,109,2220021,,,,,,,2022-01-31,1,,,,,ソレナリ,0
95,1021001075061,新規,0,2022-01-31,2022-01-31,株式会社住まいの広場ＲＥＮＯ,,株式会社,神奈川県,相模原市中央区,相模原４丁目６番１６号１０１,,14,152,2520231,,,,,,,2022-01-31,1,,,,,スマイノヒロバリノ,0
112,1030001146540,新規,0,2022-01-31,2022-01-31,株式会社ＧＬＯＷ,,株式会社,埼玉県,富士見市,関沢２丁目６番３７号,,11,235,3540025,,,,,,,2022-01-31,1,,,,,グロウ,0
142,1030003018721,新規,0,2022-01-31,2022-01-31,合同会社エルディア,,合同会社,埼玉県,蕨市,中央４丁目１３番３－１０５号,,11,223,3350004,,,,,,,2022-01-31,1,,,,,エルディア,0
143,1030003018746,新規,0,2022-01-31,2022-01-31,合同会社ＳＨＥＬＬ,,合同会社,埼玉県,熊谷市,上之１３２１番地７,,11,202,3600012,,,,,,,2022-01-31,1,,,,,シェル,0
153,1040003019388,新規,0,2022-01-31,2022-01-31,羽多野合同会社,,合同会社,千葉県,市原市,ちはら台西１丁目２５番地１,,12,219,2900143,,,,,,,2022-01-31,1,,,,,ハタノ,0
156,1050005013009,新規,0,2022-01-31,2022-01-31,一般社団法人いばらき保育サポートセンター,,その他の設立登記法人,茨城県,土浦市,大和町９番１号,,08,203,3000036,,,,,,,2022-01-31,1,,,,,イバラキホイクサポートセンター,0
158,1060001034528,新規,0,2022-01-31,2022-01-31,株式会社大正堂ホールディングス,,株式会社,栃木県,那須塩原市,東小屋３１５番地６,,09,213,3293147,,,,,,,2022-01-31,1,,,,,タイショウドウホールディングス,0
164,1080101023073,新規,0,2022-01-31,2022-01-31,株式会社Ｃｏｃｃｏ,,株式会社,静岡県,御殿場市,新橋８１４番地の１１ウィスティリア御殿場アクシス１０４,,22,215,4120043,,,,,,,2022-01-31,1,,,,,コッコ,0
165,1080103002505,新規,0,2022-01-31,2022-01-31,合同会社ヘルプサービス,,合同会社,静岡県,駿東郡長泉町,下土狩９７３番地の５９ヴィラ・ブラウニー１０１号,,22,342,4110943,,,,,,,2022-01-31,1,,,,,ヘルプサービス,0
172,1100001035018,新規,0,2022-01-31,2022-01-31,株式会社合戦会社,,株式会社,長野県,佐久市,岩村田１３２９番地１１,,20,217,3850022,,,,,,,2022-01-31,1,,,,,ガッセンガイシャ,0
175,1110005016756,新規,0,2022-01-31,2022-01-31,一般社団法人ＣＵＲＯＣＯ,,その他の設立登記法人,新潟県,新潟市東区,東中野山６丁目７番２１号,,15,102,9500836,,,,,,,2022-01-31,1,,,,,クロコ,0
179,1120001243460,新規,0,2022-01-31,2022-01-31,株式会社ジェイプラス,,株式会社,大阪府,門真市,向島町４番１６号,,27,223,5710051,,,,,,,2022-01-31,1,,,,,ジェイプラス,0
180,1120001243469,新規,0,2022-01-31,2022-01-31,豊島株式会社,,株式会社,大阪府,大阪市淀川区,田川北２丁目５－３４Ａ棟２０２号室,,27,123,5320021,,,,,,,2022-01-31,1,,,,,トヨシマ,0
181,1120001243477,新規,0,2022-01-31,2022-01-31,株式会社サルース研究所,,株式会社,大阪府,大阪市住吉区,杉本３丁目３番１３８号大学内インキュベータ,,27,120,5580022,,,,,,,2022-01-31,1,,,,,サルースケンキュウショ,0
182,1120001243485,新規,0,2022-01-31,2022-01-31,株式会社モノづくり,,株式会社,大阪府,大阪市西区,西本町１丁目１２番１９号,,27,106,5500005,,,,,,,2022-01-31,1,,,,,モノヅクリ,0
183,1120001243502,新規,0,2022-01-31,2022-01-31,株式会社ｍｏｍｏｔｏｓｅ,,株式会社,大阪府,大阪市福島区,福島８丁目１０番９号,,27,103,5530003,,,,,,,2022-01-31,1,,,,,モモトセ,0
184,1120001243510,新規,0,2022-01-31,2022-01-31,ＯＨＡＮＡ株式会社,,株式会社,大阪府,大阪市北区,本庄東１丁目１番１－１１０８号,,27,127,5310074,,,,,,,2022-01-31,1,,,,,オハナ,0
185,1120001243527,新規,0,2022-01-31,2022-01-31,ミライノ株式会社,,株式会社,大阪府,大阪市北区,大淀南２丁目１番１－６０７号,,27,127,5310075,,,,,,,2022-01-31,1,,,,,ミライノ,0
186,1120001243551,新規,0,2022-01-31,2022-01-31,ＬＩＢＲＡ株式会社,,株式会社,大阪府,大阪市天王寺区,大道３丁目１番２１号,,27,109,5430052,,,,,,,2022-01-31,1,,,,,リブラ,0
190,1120003021022,新規,0,2022-01-31,2022-01-31,合同会社Ｃｌｅａｒ　Ｖｉｅｗ,,合同会社,大阪府,大阪市北区,豊崎３丁目１５－５ＴＫビル２Ｆ,,27,127,5310072,,,,,,,2022-01-31,1,,,,,クリアビュー,0
191,1120003021030,新規,0,2022-01-31,2022-01-31,合同会社ウィステリア,,合同会社,大阪府,大阪市阿倍野区,昭和町３丁目１０－２４,,27,119,5450011,,,,,,,2022-01-31,1,,,,,ウィステリア,0
198,1120901045527,新規,0,2022-01-31,2022-01-31,株式会社テンモン,,株式会社,大阪府,豊中市,庄内栄町２丁目１３番５号,,27,203,5610834,,,,,,,2022-01-31,1,,,,,テンモン,0
200,1120905006277,新規,0,2022-01-31,2022-01-31,医療法人健日会,,その他の設立登記法人,大阪府,吹田市,藤白台１丁目３番３０号,,27,205,5650873,,,,,,,2022-01-31,1,,,,,ケンジツカイ,0
203,1130001070978,新規,0,2022-01-31,2022-01-31,株式会社同天ｃｏｃｏｌａ,,株式会社,京都府,京都市中京区,竹屋町通小川東入東竹屋町４１６,,26,104,6040085,,,,,,,2022-01-31,1,,,,,ドウテンココラ,0
204,1130001071010,新規,0,2022-01-31,2022-01-31,株式会社サン・ディライト,,株式会社,京都府,亀岡市,曽我部町寺貝ノ庄２３番地,,26,206,6210023,,,,,,,2022-01-31,1,,,,,サンディライト,0
205,1130001071027,新規,0,2022-01-31,2022-01-31,株式会社Ｆｏｒｗａｒｄｒｅａｍ,,株式会社,京都府,京都市右京区,嵯峨広沢南野町６０番地５,,26,108,6168304,,,,,,,2022-01-31,1,,,,,フォーワードリーム,0
206,1130001071035,新規,0,2022-01-31,2022-01-31,株式会社宇治松本屋,,株式会社,京都府,宇治市,広野町宮谷２０９番地,,26,204,6110031,,,,,,,2022-01-31,1,,,,,ウジマツモトヤ,0
233,1140001124725,新規,0,2022-01-31,2022-01-31,フェロージャパン株式会社,,株式会社,兵庫県,神戸市須磨区,天神町４丁目４番３５号アスミビル２Ｆ,,28,107,6540053,,,,,,,2022-01-31,1,,,,,フェロージャパン,0
243,1140003017290,新規,0,2022-01-31,2022-01-31,合同会社明石横丁,,合同会社,兵庫県,明石市,相生町２丁目５番８号,,28,203,6730882,,,,,,,2022-01-31,1,,,,,アカシヨコチョウ,0
248,1150005009368,新規,0,2022-01-31,2022-01-31,一般社団法人Ｍａｍａ　ｃａｒｅ,,その他の設立登記法人,奈良県,天理市,萱生町５３４番地１２,,29,204,6320042,,,,,,,2022-01-31,1,,,,,ママケア,0
249,1170001016960,新規,0,2022-01-31,2022-01-31,株式会社ＷＡｂｉｌｉｔｙ,,株式会社,和歌山県,和歌山市,本町２丁目３１ローズぶらくり丁５Ｆ,,30,201,6408033,,,,,,,2022-01-31,1,,,,,ワビリティ,0
255,1180001149743,新規,0,2022-01-31,2022-01-31,株式会社ケアパートナー,,株式会社,愛知県,一宮市,浅井町東浅井字北屋敷裏１－２イーステージ２０３号,,23,203,4910112,,,,,,,2022-01-31,1,,,,,ケアパートナー,0
256,1180001149792,新規,0,2022-01-31,2022-01-31,巽建設株式会社,,株式会社,愛知県,津島市,唐臼町東田面９１番地１,,23,208,4960026,,,,,,,2022-01-31,1,,,,,タツミケンセツ,0
259,1180003023442,新規,0,2022-01-31,2022-01-31,イオスケ合同会社,,合同会社,愛知県,一宮市,浅野字下土池８番地,,23,203,4910871,,,,,,,2022-01-31,1,,,,,イオスケ,0
260,1180003023450,新規,0,2022-01-31,2022-01-31,合同会社オフィスブル,,合同会社,愛知県,一宮市,浅井町東浅井４１１番地２,,23,203,4910112,,,,,,,2022-01-31,1,,,,,オフィスブル,0
265,1190003003889,新規,0,2022-01-31,2022-01-31,合同会社ベネス,,合同会社,三重県,鈴鹿市,地子町１２３０番地１,,24,207,5130821,,,,,,,2022-01-31,1,,,,,ベネス,0
269,1200003005438,新規,0,2022-01-31,2022-01-31,新明合同会社,,合同会社,岐阜県,美濃加茂市,下米田町為岡２４８番地２,,21,211,5050019,,,,,,,2022-01-31,1,,,,,シンメイ,0
272,1230001019214,新規,0,2022-01-31,2022-01-31,株式会社堺谷建築,,株式会社,富山県,高岡市,山下２２番地,,16,202,9391262,,,,,,,2022-01-31,1,,,,,サカイダニケンチク,0
275,1240001059250,新規,0,2022-01-31,2022-01-31,株式会社クアドリフォリオ,,株式会社,広島県,広島市西区,南観音町１番５－１２０３号,,34,104,7330034,,,,,,,2022-01-31,1,,,,,クアドリフォリオ,0
296,1290001096231,新規,0,2022-01-31,2022-01-31,株式会社ＤＵＣＫＳ,,株式会社,福岡県,糟屋郡粕屋町,大字大隈１２１８番地３,,40,349,8112302,,,,,,,2022-01-31,1,,,,,ダックス,0
297,1290001096264,新規,0,2022-01-31,2022-01-31,フジタ経営株式会社,,株式会社,福岡県,春日市,昇町６丁目２２番地,,40,218,8160851,,,,,,,2022-01-31,1,,,,,フジタケイエイ,0
298,1290003012070,新規,0,2022-01-31,2022-01-31,ｉｎｆｉｎｉｔｙ合同会社,,合同会社,福岡県,福岡市城南区,樋井川１丁目１３番９号,,40,136,8140153,,,,,,,2022-01-31,1,,,,,インフィニティ,0
299,1290005018545,新規,0,2022-01-31,2022-01-31,一般社団法人みんなのみかた,,その他の設立登記法人,福岡県,福岡市東区,箱崎ふ頭１丁目４番６１号サンセットタワー２階,,40,131,8120051,,,,,,,2022-01-31,1,,,,,ミンナノミカタ,0
300,1300001012789,新規,0,2022-01-31,2022-01-31,株式会社宝優,,株式会社,佐賀県,鳥栖市,藤木町９７０番地１,,41,203,8410048,,,,,,,2022-01-31,1,,,,,ホウユウ,0
308,1360001029951,新規,0,2022-01-31,2022-01-31,株式会社ファーストスター,,株式会社,沖縄県,那覇市,久茂地１丁目１番１号９階,,47,201,9000015,,,,,,,2022-01-31,1,,,,,ファーストスター,0
317,1410001013090,新規,0,2022-01-31,2022-01-31,株式会社木村石材店,,株式会社,秋田県,北秋田市,李岱字家ノ下４８番地,,05,213,0184282,,,,,,,2022-01-31,1,,,,,キムラセキザイテン,0
323,1430001085888,新規,0,2022-01-31,2022-01-31,株式会社Ｔｈｅ　Ｗａｖｅ　Ｄｉｎｉｎｇ,,株式会社,北海道,札幌市清田区,北野七条４丁目１０番１号セブンフォー１０１号,,01,110,0040867,,,,,,,2022-01-31,1,,,,,ザウェイブダイニング,0
324,1430003013574,新規,0,2022-01-31,2022-01-31,ＳＡＴＯ合同会社,,合同会社,北海道,砂川市,西四条南５丁目１番１９号,,01,226,0730144,,,,,,,2022-01-31,1,,,,,サトー,0
325,1430003013582,新規,0,2022-01-31,2022-01-31,合同会社トラスト,,合同会社,北海道,石狩市,花川南七条３丁目６２番地,,01,235,0613207,,,,,,,2022-01-31,1,,,,,トラスト,0
335,1490003001623,新規,0,2022-01-31,2022-01-31,合同会社東新,,合同会社,高知県,宿毛市,中央６丁目６番１号,,39,208,7880001,,,,,,,2022-01-31,1,,,,,トウシン,0
337,1500001023972,新規,0,2022-01-31,2022-01-31,株式会社ＰＲＩＺＥ　ＮＥＴ,,株式会社,愛媛県,松山市,北藤原町１０番地３アリスト・ステーション・ピラー３０１号,,38,201,7900033,,,,,,,2022-01-31,1,,,,,プライズネット,0
339,1700150106871,新規,0,2022-01-31,2022-01-31,Ａｌｐｈａ　Ｌｉｎｅ　Ｐｖｔ　Ｌｔｄ,,外国会社等,千葉県,旭市,清和甲１６３２－２－５,,12,215,2890507,スリランカ民主社会主義共和国キャンディ、アクラーナ、マータレロード２３８／１,,,,,,2022-01-31,1,,,,,アルフアラインピーヴイテイエルテイデイ,0
345,2010001224041,新規,0,2022-01-31,2022-01-31,株式会社ＲＳＣ　ｄｅｓｉｇｎ,,株式会社,東京都,千代田区,内神田３丁目４番１４号,,13,101,1010047,,,,,,,2022-01-31,1,,,,,アールエスシーデザイン,0
346,2010001224198,新規,0,2022-01-31,2022-01-31,東京システム管理株式会社,,株式会社,東京都,千代田区,神田須田町２丁目１５番２号,,13,101,1010041,,,,,,,2022-01-31,1,,,,,トウキョウシステムカンリ,0
347,2010001224207,新規,0,2022-01-31,2022-01-31,株式会社Ｃｈａｒｅ,,株式会社,東京都,中央区,日本橋富沢町１１－１５月村マンションＮｏ．２９、７０２号室,,13,102,1030006,,,,,,,2022-01-31,1,,,,,シェア,0
348,2010001224223,新規,0,2022-01-31,2022-01-31,株式会社Ｌｅｔ’ｓ　ｆｕｎ　ｌａｂｏ,,株式会社,東京都,中央区,銀座７丁目１３番６号サガミビル２Ｆ,,13,102,1040061,,,,,,,2022-01-31,1,,,,,レッツファンラボ,0
353,2010005034536,新規,0,2022-01-31,2022-01-31,一般社団法人御影インベストメント,,その他の設立登記法人,東京都,中央区,日本橋１丁目４番１号日本橋一丁目ビルディング,,13,102,1030027,,,,,,,2022-01-31,1,,,,,ミカゲインベストメント,0
362,2010401165257,新規,0,2022-01-31,2022-01-31,ゼロイチゼロ株式会社,,株式会社,東京都,港区,南麻布２丁目５番２１号イデア南麻布７Ｆ,,13,103,1060047,,,,,,,2022-01-31,1,,,,,ゼロイチゼロ,0
363,2010401165273,新規,0,2022-01-31,2022-01-31,株式会社Ｇｅｏ　Ｄｒｅａｍｓ,,株式会社,東京都,港区,赤坂１丁目９番１３号,,13,103,1070052,,,,,,,2022-01-31,1,,,,,ジオドリームス,0
367,2010403027001,新規,0,2022-01-31,2022-01-31,Ｅｘｑｕｉｓ合同会社,,合同会社,東京都,港区,新橋１丁目１１番５号コルティーレ銀座口ビル１２Ｆ,,13,103,1050004,,,,,,,2022-01-31,1,,,,,エクスキー,0
368,2010405020631,新規,0,2022-01-31,2022-01-31,大手町二丁目都市開発特定目的会社,,その他の設立登記法人,東京都,港区,虎ノ門３丁目２２番１０－２０１号,,13,103,1050001,,,,,,,2022-01-31,1,,,,,オオテマチニチョウメトシカイハツ,0
369,2010501048386,新規,0,2022-01-31,2022-01-31,アースビレッジ安心保証株式会社,,株式会社,東京都,台東区,東上野２丁目２１番３号成宝ビル２０２号室,,13,106,1100015,,,,,,,2022-01-31,1,,,,,アースビレッジホショウ,0
370,2010501048394,新規,0,2022-01-31,2022-01-31,株式会社つなげる和,,株式会社,東京都,台東区,東上野３丁目４番５号ソフィア上野３０１,,13,106,1100015,,,,,,,2022-01-31,1,,,,,ツナゲルワ,0
379,2010703006084,新規,0,2022-01-31,2022-01-31,合同会社ＦＪＫ,,合同会社,東京都,品川区,西五反田５丁目１２番４号４０１号室,,13,109,1410031,,,,,,,2022-01-31,1,,,,,エフジェイケイ,0
380,2010703006092,新規,0,2022-01-31,2022-01-31,セブンホールディングス合同会社,,合同会社,東京都,品川区,上大崎３丁目１番１号目黒セントラルスクエア１５階,,13,109,1410021,,,,,,,2022-01-31,1,,,,,セブンホールディングス,0
386,2010901050248,新規,0,2022-01-31,2022-01-31,株式会社メディカルサポート,,株式会社,東京都,世田谷区,北沢３丁目２１番５号ユーワハイツ北沢２０２,,13,112,1550031,,,,,,,2022-01-31,1,,,,,メディカルサポート,0
387,2010901050264,新規,0,2022-01-31,2022-01-31,東京クラゲクリエーションズ株式会社,,株式会社,東京都,世田谷区,南烏山２丁目３１番３１－５１４号,,13,112,1570062,,,,,,,2022-01-31,1,,,,,トウキョウクラゲクリエーションズ,0
397,2011001145260,新規,0,2022-01-31,2022-01-31,株式会社ＢＡＬＡＮＣＥ,,株式会社,東京都,渋谷区,渋谷２丁目１９番１５－６０９号宮益坂ビルディング,,13,113,1500002,,,,,,,2022-01-31,1,,,,,,0
398,2011001145376,新規,0,2022-01-31,2022-01-31,株式会社パブル,,株式会社,東京都,渋谷区,神宮前６丁目２３番４号,,13,113,1500001,,,,,,,2022-01-31,1,,,,,パブル,0
399,2011001145384,新規,0,2022-01-31,2022-01-31,株式会社ユニッツ,,株式会社,東京都,渋谷区,西原１丁目３６番８－４０４号,,13,113,1510066,,,,,,,2022-01-31,1,,,,,ユニッツ,0
402,2011003014001,新規,0,2022-01-31,2022-01-31,カーライルカフェカンパニー合同会社,,合同会社,東京都,渋谷区,渋谷３丁目６番２号エクラート渋谷５階,,13,113,1500002,,,,,,,2022-01-31,1,,,,,カーライルカフェカンパニー,0
403,2011003014042,新規,0,2022-01-31,2022-01-31,ユーステラグループホールディングス合同会社,,合同会社,東京都,目黒区,駒場２丁目１１番２号,,13,110,1530041,,,,,,,2022-01-31,1,,,,,ユーステラグループホールディングス,0
404,2011003014059,新規,0,2022-01-31,2022-01-31,合同会社Ｇｕｅｒｎｉｃａ,,合同会社,東京都,渋谷区,千駄ヶ谷３丁目６１番３号コンフォリア原宿２０３,,13,113,1510051,,,,,,,2022-01-31,1,,,,,ゲルニカ,0
405,2011003014075,新規,0,2022-01-31,2022-01-31,Ｗａｆｆｙ合同会社,,合同会社,東京都,渋谷区,渋谷２丁目１９－１５宮益坂ビルディング６０９,,13,113,1500002,,,,,,,2022-01-31,1,,,,,ワッフィー,0
407,2011005009404,新規,0,2022-01-31,2022-01-31,特定非営利活動法人薄毛治療協会,,その他の設立登記法人,東京都,渋谷区,東３丁目２５番３号ライオンズプラザ恵比寿５１１号室,,13,113,1500011,,,,,,,2022-01-31,1,,,,,ウスゲチリョウキョウカイ,0
410,2011301027530,新規,0,2022-01-31,2022-01-31,天牧貿易株式会社,,株式会社,東京都,杉並区,西荻北２丁目２７番１４－１０５号,,13,115,1670042,,,,,,,2022-01-31,1,,,,,テンボクボウエキ,0
412,2011401023990,新規,0,2022-01-31,2022-01-31,株式会社ＮＵМＥＲＯ１０,,株式会社,東京都,板橋区,大谷口２丁目２２番７号,,13,119,1730035,,,,,,,2022-01-31,1,,,,,ヌーメロデイズ,0
417,2011503005061,新規,0,2022-01-31,2022-01-31,合同会社しずく,,合同会社,東京都,北区,浮間１丁目１３－１－２２４,,13,117,1150051,,,,,,,2022-01-31,1,,,,,シズク,0
419,2011601025713,新規,0,2022-01-31,2022-01-31,株式会社Ｄ．ＲＯＣＫ　ＪＡＰＡＮ,,株式会社,東京都,練馬区,練馬１丁目３６－９－Ｎ１０１,,13,120,1760001,,,,,,,2022-01-31,1,,,,,ディーロックジャパン,0
421,2012401038797,新規,0,2022-01-31,2022-01-31,株式会社Ｒ＆Ｈホールディングス,,株式会社,東京都,稲城市,東長沼２１０６番地の５,,13,225,2060802,,,,,,,2022-01-31,1,,,,,アールアンドエイチホールディングス,0
422,2012401038806,新規,0,2022-01-31,2022-01-31,株式会社神道文化研究所,,株式会社,東京都,武蔵野市,吉祥寺本町４丁目２２番１５号,,13,203,1800004,,,,,,,2022-01-31,1,,,,,シントウブンカケンキュウジョ,0
428,2013301048606,新規,0,2022-01-31,2022-01-31,アドナインス株式会社,,株式会社,東京都,豊島区,東池袋５丁目４５番５号,,13,116,1700013,,,,,,,2022-01-31,1,,,,,アドナインス,0
429,2013301048622,新規,0,2022-01-31,2022-01-31,株式会社ユニバーサルＯＮＥ,,株式会社,東京都,豊島区,高田３丁目５番２号,,13,116,1710033,,,,,,,2022-01-31,1,,,,,ユニバーサルワン,0
439,2020001145014,新規,0,2022-01-31,2022-01-31,株式会社星のアカリ,,株式会社,神奈川県,横浜市神奈川区,子安通３丁目２９８番地,,14,102,2210021,,,,,,,2022-01-31,1,,,,,ホシノアカリ,0
440,2020001145063,新規,0,2022-01-31,2022-01-31,株式会社スコーパ,,株式会社,神奈川県,横浜市瀬谷区,相沢３丁目４６番地２グリーンヒルハイツ２０５号,,14,114,2460013,,,,,,,2022-01-31,1,,,,,スコーパ,0
446,2020003021221,新規,0,2022-01-31,2022-01-31,合同会社おかげさまで,,合同会社,神奈川県,横浜市鶴見区,平安町１丁目５９番地１３,,14,101,2300031,,,,,,,2022-01-31,1,,,,,オカゲサマデ,0
450,2021001075077,新規,0,2022-01-31,2022-01-31,株式会社ｋ’ｓエンタープライズ,,株式会社,神奈川県,小田原市,栄町２丁目１番８号真砂ビル２階,,14,206,2500011,,,,,,,2022-01-31,1,,,,,ケーズエンタープライズ,0
479,2030001146531,新規,0,2022-01-31,2022-01-31,ＡＮＶ株式会社,,株式会社,埼玉県,川口市,大字道合２８１番地の１２,,11,203,3330835,,,,,,,2022-01-31,1,,,,,エーエヌブイ,0
480,2030001146580,新規,0,2022-01-31,2022-01-31,秋津織株式会社,,株式会社,埼玉県,本庄市,寿３丁目２－１,,11,211,3670023,,,,,,,2022-01-31,1,,,,,アキツオル,0
517,2040001121913,新規,0,2022-01-31,2022-01-31,株式会社Ｃｒｅａｔｅ　Ｒｅａｌｉｔｙ,,株式会社,千葉県,袖ケ浦市,蔵波台６丁目２２番地１０１,,12,229,2990245,,,,,,,2022-01-31,1,,,,,クリエイトリアリティ,0
518,2040001122003,新規,0,2022-01-31,2022-01-31,株式会社四季,,株式会社,千葉県,香取郡神崎町,四季の丘２６番地１,,12,342,2890204,,,,,,,2022-01-31,1,,,,,シキ,0
522,2040003019387,新規,0,2022-01-31,2022-01-31,Ｌｕａｎａ合同会社,,合同会社,千葉県,千葉市美浜区,若葉３丁目１番地１幕張ベイパークスカイグランドタワー３３１７号,,12,106,2610014,,,,,,,2022-01-31,1,,,,,ルアナ,0
524,2050001050533,新規,0,2022-01-31,2022-01-31,株式会社ウエスト,,株式会社,茨城県,つくば市,苅間１４９９番地,,08,220,3050822,,,,,,,2022-01-31,1,,,,,ウエスト,0
525,2050005013008,新規,0,2022-01-31,2022-01-31,一般社団法人スクールセーフティネット・リサーチセンター,,その他の設立登記法人,茨城県,水戸市,三の丸１丁目７番２９－１１２号,,08,201,3100011,,,,,,,2022-01-31,1,,,,,スクールセーフティネットリサーチセンター,0
531,2070001038881,新規,0,2022-01-31,2022-01-31,株式会社アップドラフト,,株式会社,群馬県,高崎市,日高町１３２９番地１,,10,202,3700002,,,,,,,2022-01-31,1,,,,,アップドラフト,0
554,2120001243443,新規,0,2022-01-31,2022-01-31,株式会社志,,株式会社,大阪府,大阪市鶴見区,鶴見５丁目６番１８号,,27,124,5380053,,,,,,,2022-01-31,1,,,,,ココロ,0
555,2120001243468,新規,0,2022-01-31,2022-01-31,株式会社Ｔｈｒｉｖｅ　Ｈｅａｒｔ,,株式会社,大阪府,大阪市天王寺区,下寺町１丁目３番８５号,,27,109,5430076,,,,,,,2022-01-31,1,,,,,スライブハート,0
556,2120001243476,新規,0,2022-01-31,2022-01-31,ＧＲ　ＨＯＬＤＩＮＧＳ株式会社,,株式会社,大阪府,大阪市東住吉区,矢田１丁目２７－１７,,27,121,5460023,,,,,,,2022-01-31,1,,,,,ジーアールホールディングス,0
557,2120001243484,新規,0,2022-01-31,2022-01-31,株式会社覚富,,株式会社,大阪府,大阪市浪速区,稲荷１丁目４番１７号,,27,111,5560023,,,,,,,2022-01-31,1,,,,,カクトミ,0
558,2120001243526,新規,0,2022-01-31,2022-01-31,株式会社ｆｏｊｅｓ,,株式会社,大阪府,大阪市中央区,心斎橋筋１丁目２番７号鰻谷ビル３－Ｄ,,27,128,5420085,,,,,,,2022-01-31,1,,,,,フォジェス,0
561,2120003020790,新規,0,2022-01-31,2022-01-31,合同会社タマシイ,,合同会社,大阪府,大阪市都島区,都島本通３丁目２６番２４号,,27,102,5340021,,,,,,,2022-01-31,1,,,,,タマシイ,0
563,2120005022752,新規,0,2022-01-31,2022-01-31,一般社団法人うぃず・フィス,,その他の設立登記法人,大阪府,大阪市北区,天神橋筋六丁目６番１１－４０５号,,27,127,5300000,,,,,,,2022-01-31,1,,,,,ウィズフィス,0
566,2120903004018,新規,0,2022-01-31,2022-01-31,Ｍｙｓｔｅｒｙｕｎｃｌｅ合同会社,,合同会社,大阪府,吹田市,江坂一丁目１７番１４号江坂パークフロントビル５０２号,,27,205,5640000,,,,,,,2022-01-31,1,,,,,ミステリーアンクル,0
567,2120905006276,新規,0,2022-01-31,2022-01-31,医療法人カタオカ歯科医院,,その他の設立登記法人,大阪府,豊中市,上新田１丁目２８番千里中央パーク・ヒルズＫ棟２０３号,,27,203,5600085,,,,,,,2022-01-31,1,,,,,カタオカシカイイン,0
570,2130001071034,新規,0,2022-01-31,2022-01-31,株式会社Ｎｅｗ　Ｇａｔｅ,,株式会社,京都府,長岡京市,粟生田内４０番地の９,,26,209,6170811,,,,,,,2022-01-31,1,,,,,ニューゲート,0
571,2130005016373,新規,0,2022-01-31,2022-01-31,特定非営利活動法人Ｒｅｆｒａｍｅ,,その他の設立登記法人,京都府,京都市中京区,西ノ京平町２８番地,,26,104,6048485,,,,,,,2022-01-31,1,,,,,リフレーム,0
588,2140001124699,新規,0,2022-01-31,2022-01-31,株式会社ＡＣＬエンターテインメント,,株式会社,兵庫県,尼崎市,東園田町９丁目１７番地の１４園田駅前ビル５０３号室,,28,202,6610953,,,,,,,2022-01-31,1,,,,,エーシーエルエンターテインメント,0
589,2140001124708,新規,0,2022-01-31,2022-01-31,株式会社ＡＫＡＲＩ,,株式会社,兵庫県,西宮市,松園町２番１６－３０５号,,28,204,6620053,,,,,,,2022-01-31,1,,,,,アカリ,0
590,2140001124732,新規,0,2022-01-31,2022-01-31,株式会社ＴＮＹ,,株式会社,兵庫県,神戸市中央区,東川崎町１丁目５番９－３５０１号,,28,110,6500044,,,,,,,2022-01-31,1,,,,,ティーエヌワイ,0
603,2140003017273,新規,0,2022-01-31,2022-01-31,合同会社アナザゲート,,合同会社,兵庫県,宝塚市,売布東の町１６－９,,28,214,6650867,,,,,,,2022-01-31,1,,,,,アナザゲート,0
620,2180001149775,新規,0,2022-01-31,2022-01-31,株式会社愛西金属,,株式会社,愛知県,名古屋市南区,星園町１７番地の２,,23,112,4570069,,,,,,,2022-01-31,1,,,,,アイサイキンゾク,0
627,2180003023409,新規,0,2022-01-31,2022-01-31,合同会社あらかわ商店,,合同会社,愛知県,長久手市,岩作中脇４番地,,23,238,4801103,,,,,,,2022-01-31,1,,,,,アラカワショウテン,0
628,2180003023441,新規,0,2022-01-31,2022-01-31,合同会社ユニオン,,合同会社,愛知県,名古屋市守山区,西城２丁目１番１号,,23,113,4630084,,,,,,,2022-01-31,1,,,,,ユニオン,0
629,2190003003888,新規,0,2022-01-31,2022-01-31,合同会社アグリ・アシスタント,,合同会社,三重県,伊賀市,治田５０９８番地の１,,24,216,5181155,,,,,,,2022-01-31,1,,,,,アグリアシスタント,0
637,2220001024668,新規,0,2022-01-31,2022-01-31,株式会社山形建装,,株式会社,石川県,金沢市,木越町タ３０３番地２,,17,201,9200203,,,,,,,2022-01-31,1,,,,,ヤマガタケンソウ,0
638,2230001019213,新規,0,2022-01-31,2022-01-31,株式会社ＣＮＯＣ,,株式会社,富山県,魚津市,大光寺１０９１番地１リバーサイドハイツＢ１０２号室,,16,204,9370807,,,,,,,2022-01-31,1,,,,,クノック,0
642,2240001059258,新規,0,2022-01-31,2022-01-31,株式会社隆由,,株式会社,広島県,広島市西区,高須３丁目８番７－７０２号,,34,104,7330871,,,,,,,2022-01-31,1,,,,,タカヨシ,0
651,2290001096247,新規,0,2022-01-31,2022-01-31,彩工建設株式会社,,株式会社,福岡県,筑紫野市,大字筑紫４６０番地２９,,40,217,8180025,,,,,,,2022-01-31,1,,,,,サイコウケンセツ,0
652,2290001096263,新規,0,2022-01-31,2022-01-31,株式会社Ｃａｒｏｌｉｎｅ,,株式会社,福岡県,福岡市中央区,高砂１丁目２４番２６号４Ｆ（４０２号室）,,40,133,8100011,,,,,,,2022-01-31,1,,,,,キャロライン,0
655,2290003012078,新規,0,2022-01-31,2022-01-31,ＣＳＨＥＬＬ合同会社,,合同会社,福岡県,福岡市東区,香椎駅前２丁目９－２香椎ユーマイビル４階,,40,131,8130013,,,,,,,2022-01-31,1,,,,,シシェル,0
656,2290003012094,新規,0,2022-01-31,2022-01-31,合同会社ｏｒｂ,,合同会社,福岡県,春日市,大土居３丁目８０番地４,,40,218,8160847,,,,,,,2022-01-31,1,,,,,オーブ,0
657,2290003012103,新規,0,2022-01-31,2022-01-31,ウインライフ合同会社,,合同会社,福岡県,福岡市東区,下原４丁目５番８号フラット２１‐１０２号,,40,131,8130002,,,,,,,2022-01-31,1,,,,,ウインライフ,0
662,2290803004051,新規,0,2022-01-31,2022-01-31,ｓａｆｅｔｙ　ｆｉｒｓｔ．ｔ合同会社,,合同会社,福岡県,直方市,大字植木２４０４番地,,40,204,8220031,,,,,,,2022-01-31,1,,,,,セーフティファーストティ,0
663,2300001012788,新規,0,2022-01-31,2022-01-31,株式会社オフィスＰＤＣ,,株式会社,佐賀県,杵島郡大町町,大字福母２９７番地４,,41,423,8492102,,,,,,,2022-01-31,1,,,,,オフィスピーディーシー,0
666,2320005009960,新規,0,2022-01-31,2022-01-31,ＮＰＯ法人わさだ夢クラブ,,その他の設立登記法人,大分県,大分市,大字玉沢１０３番地,,44,201,8701155,,,,,,,2022-01-31,1,,,,,ワサダユメクラブ,0
670,2340001024458,新規,0,2022-01-31,2022-01-31,株式会社はやぶさ,,株式会社,鹿児島県,鹿児島市,中央町１９番地４０－６Ｆ,,46,201,8900053,,,,,,,2022-01-31,1,,,,,ハヤブサ,0
674,2360001029950,新規,0,2022-01-31,2022-01-31,株式会社沖縄マリンスタジオ,,株式会社,沖縄県,国頭郡本部町,字瀬底４２１番地,,47,308,9050227,,,,,,,2022-01-31,1,,,,,オキナワマリンスタジオ,0
675,2360001029967,新規,0,2022-01-31,2022-01-31,株式会社ＣＨＩＮＮＥＮ,,株式会社,沖縄県,浦添市,西原１丁目３５番１４号２Ｆ,,47,208,9012101,,,,,,,2022-01-31,1,,,,,チンネン,0
677,2360003011766,新規,0,2022-01-31,2022-01-31,合同会社菜の花ケアサービス,,合同会社,沖縄県,名護市,字為又１２１９番地１５０プロローグＭ４０６号室,,47,209,9050005,,,,,,,2022-01-31,1,,,,,ナノハナケアサービス,0
678,2370001048132,新規,0,2022-01-31,2022-01-31,株式会社クリアーコーチング,,株式会社,宮城県,仙台市若林区,五橋３丁目３番１－１９０６号,,04,103,9840022,,,,,,,2022-01-31,1,,,,,クリアーコーチング,0
679,2370003005569,新規,0,2022-01-31,2022-01-31,ＳＡＴＯ　Ｄｅｓｉｇｎ　Ｓｔｕｄｉｏ合同会社,,合同会社,宮城県,富谷市,二ノ関相良９番地,,04,216,9813306,,,,,,,2022-01-31,1,,,,,サトデザインスタジオ,0
684,2420001017726,新規,0,2022-01-31,2022-01-31,ＹＴ．ＦＡ株式会社,,株式会社,青森県,八戸市,南白山台３丁目１１番２２号,,02,203,0391112,,,,,,,2022-01-31,1,,,,,ワイティーエフエー,0
685,2490001010105,新規,0,2022-01-31,2022-01-31,イノテロワ株式会社,,株式会社,高知県,吾川郡いの町,３１７５,,39,386,7812110,,,,,,,2022-01-31,1,,,,,,0
694,3010001224197,新規,0,2022-01-31,2022-01-31,株式会社Ｙ’ｓ,,株式会社,東京都,千代田区,岩本町２丁目１番７号パティオ神田２Ｆ,,13,101,1010032,,,,,,,2022-01-31,1,,,,,ワイズ,0
695,3010001224206,新規,0,2022-01-31,2022-01-31,株式会社ＡｔｈＭｅｄ,,株式会社,東京都,中央区,銀座６丁目１３番１６号銀座ＷａｌｌビルＵＣＦ５階,,13,102,1040061,,,,,,,2022-01-31,1,,,,,アスメド,0
698,3010005034519,新規,0,2022-01-31,2022-01-31,ＪＨＦ一般社団法人,,その他の設立登記法人,東京都,中央区,銀座１丁目６番１１号土志田ビルディング３Ｆ,,13,102,1040061,,,,,,,2022-01-31,1,,,,,ジェイエイチエフ,0
699,3010005034527,新規,0,2022-01-31,2022-01-31,一般社団法人医心会,,その他の設立登記法人,東京都,中央区,日本橋小網町１３番８号,,13,102,1030016,,,,,,,2022-01-31,1,,,,,イシンカイ,0
700,3010005034535,新規,0,2022-01-31,2022-01-31,一般社団法人松戸インベストメント,,その他の設立登記法人,東京都,中央区,日本橋１丁目４番１号日本橋一丁目ビルディング,,13,102,1030027,,,,,,,2022-01-31,1,,,,,マツドインベストメント,0
706,3010401165272,新規,0,2022-01-31,2022-01-31,株式会社ＯＮＥ－ＴＥＣＨ,,株式会社,東京都,港区,麻布台１丁目７番３号,,13,103,1060041,,,,,,,2022-01-31,1,,,,,ワンテック,0
707,3010405020622,新規,0,2022-01-31,2022-01-31,ＭＮインターファッション労働組合,,その他の設立登記法人,東京都,港区,赤坂８丁目５番２７号,,13,103,1070052,,,,,,,2022-01-31,1,,,,,エムエヌインターファッション,0
710,3010501048393,新規,0,2022-01-31,2022-01-31,株式会社ＣＬＵＳＴ,,株式会社,東京都,台東区,下谷２丁目３番１号杉浦ビル１Ｆ,,13,106,1100004,,,,,,,2022-01-31,1,,,,,クラスト,0
712,3010703006091,新規,0,2022-01-31,2022-01-31,ｓａｃｈｉｂａｋｏ合同会社,,合同会社,東京都,品川区,西五反田１丁目２６番２号五反田サンハイツ９１１,,13,109,1410031,,,,,,,2022-01-31,1,,,,,サチバコ,0
717,3010901050255,新規,0,2022-01-31,2022-01-31,株式会社ＭＹ　ＴＨＵＧ　ＬＩＦＥ,,株式会社,東京都,世田谷区,太子堂３丁目３０番４号タリアセンＫ．Ｋ２０４,,13,112,1540004,,,,,,,2022-01-31,1,,,,,マイタグライフ,0
718,3010901050271,新規,0,2022-01-31,2022-01-31,株式会社ギフト,,株式会社,東京都,世田谷区,太子堂４丁目１番１号キャロットタワー２２階,,13,112,1540004,,,,,,,2022-01-31,1,,,,,ギフト,0
721,3011001144971,新規,0,2022-01-31,2022-01-31,株式会社えめらるど,,株式会社,東京都,渋谷区,上原２丁目１４番９号,,13,113,1510064,,,,,,,2022-01-31,1,,,,,エメラルド,0
722,3011001145012,新規,0,2022-01-31,2022-01-31,株式会社Ｃｙ　ＢＵＭ,,株式会社,東京都,目黒区,東山２丁目１４番９号１０１,,13,110,1530043,,,,,,,2022-01-31,1,,,,,サイバム,0
723,3011001145136,新規,0,2022-01-31,2022-01-31,株式会社ＡＤＥＰＴキャリア,,株式会社,東京都,目黒区,下目黒３丁目２－３－３０１,,13,110,1530064,,,,,,,2022-01-31,1,,,,,アデプトキャリア,0
724,3011001145243,新規,0,2022-01-31,2022-01-31,株式会社ＡＫＯＭＥＹＡ　ＴＯＫＹＯ,,株式会社,東京都,渋谷区,千駄ヶ谷２丁目１１番１号,,13,113,1510051,,,,,,,2022-01-31,1,,,,,アコメヤトウキョウ,0
726,3011003014058,新規,0,2022-01-31,2022-01-31,合同会社ジャルダン,,合同会社,東京都,渋谷区,恵比寿西２丁目５－１セゾン代官山３０１,,13,113,1500021,,,,,,,2022-01-31,1,,,,,ジャルダン,0
738,3011503005060,新規,0,2022-01-31,2022-01-31,ワンシェア合同会社,,合同会社,東京都,北区,豊島８丁目２７－３フレーシェル王子神谷１１０４,,13,117,1140003,,,,,,,2022-01-31,1,,,,,,0
743,3011801040255,新規,0,2022-01-31,2022-01-31,株式会社ごはんの会,,株式会社,東京都,足立区,栗原１丁目４番１５号２０３,,13,121,1230842,,,,,,,2022-01-31,1,,,,,ゴハンノカイ,0
746,3011803004951,新規,0,2022-01-31,2022-01-31,ＳＫＹ合同会社,,合同会社,東京都,足立区,西新井１丁目２９番４号サニーコーポラス１０２,,13,121,1230841,,,,,,,2022-01-31,1,,,,,スカイ,0
750,3012401038805,新規,0,2022-01-31,2022-01-31,株式会社ユキカゼ,,株式会社,東京都,三鷹市,井の頭２丁目４番１６号パークサイド井の頭２０１,,13,204,1810001,,,,,,,2022-01-31,1,,,,,ユキカゼ,0
755,3013301048613,新規,0,2022-01-31,2022-01-31,株式会社ＡＲＣＡＤＥ,,株式会社,東京都,豊島区,南大塚２丁目１１番１０号ミモザビル３階,,13,116,1700005,,,,,,,2022-01-31,1,,,,,アーケード,0
763,3020001144931,新規,0,2022-01-31,2022-01-31,株式会社ミント,,株式会社,神奈川県,川崎市麻生区,はるひ野５丁目３－１２アルシオーネ１０１,,14,137,2150036,,,,,,,2022-01-31,1,,,,,ミント,0
764,3020001145013,新規,0,2022-01-31,2022-01-31,株式会社杏亜組,,株式会社,神奈川県,川崎市宮前区,平６丁目１２番２２－１号,,14,136,2160022,,,,,,,2022-01-31,1,,,,,キョウアグミ,0
765,3020001145038,新規,0,2022-01-31,2022-01-31,博林国際株式会社,,株式会社,神奈川県,川崎市川崎区,小川町１６－１７ＭＦプラザ２０８号室,,14,131,2100023,,,,,,,2022-01-31,1,,,,,,0
766,3020001145054,新規,0,2022-01-31,2022-01-31,株式会社ＬＬＣジャパン,,株式会社,神奈川県,横浜市西区,みなとみらい４丁目４－２横浜ブルーアベニュー１２Ｆ,,14,103,2200012,,,,,,,2022-01-31,1,,,,,エルエルシージャパン,0
770,3020005015369,新規,0,2022-01-31,2022-01-31,一般社団法人バイオメカセラピー研究会,,その他の設立登記法人,神奈川県,横浜市都筑区,中川中央２丁目５番１３－２０３号,,14,118,2240003,,,,,,,2022-01-31,1,,,,,バイオメカセラピーケンキュウカイ,0
796,3030001146522,新規,0,2022-01-31,2022-01-31,株式会社スタジオはーや,,株式会社,埼玉県,さいたま市大宮区,桜木町１丁目９番地１８,,11,103,3300854,,,,,,,2022-01-31,1,,,,,スタジオハーヤ,0
797,3030001146530,新規,0,2022-01-31,2022-01-31,株式会社Ｍ・Ｗ,,株式会社,埼玉県,所沢市,若松町８４２番地の２ハイコーポ５０２,,11,208,3590032,,,,,,,2022-01-31,1,,,,,エムダブリュー,0
798,3030001146547,新規,0,2022-01-31,2022-01-31,株式会社オネスト,,株式会社,埼玉県,さいたま市南区,辻４丁目２０番１７号,00125559,11,108,3360026,,,,,,,2022-01-31,1,,,,,オネスト,0
799,3030001146563,新規,0,2022-01-31,2022-01-31,株式会社オカデン,,株式会社,埼玉県,川越市,泉町２番地２６－１２０１,,11,201,3500026,,,,,,,2022-01-31,1,,,,,オカデン,0
831,3030005020707,新規,0,2022-01-31,2022-01-31,日建プリムローズ北浦和管理組合法人,,その他の設立登記法人,埼玉県,さいたま市中央区,新中里１丁目１１番１８号,,11,105,3380011,,,,,,,2022-01-31,1,,,,,ニッケンプリムローズキタウラワ,0
842,3040001122027,新規,0,2022-01-31,2022-01-31,ＲＯＭＥＥＳＡ　ＩＮＴＥＲＮＡＴＩＯＮＡＬ株式会社,,株式会社,千葉県,野田市,岡田２８０番地１２,,12,208,2700223,,,,,,,2022-01-31,1,,,,,ロミサインターナショナル,0
848,3040003019378,新規,0,2022-01-31,2022-01-31,第十一日本ソーラー電力合同会社,,合同会社,千葉県,千葉市中央区,富士見１丁目１４番１３号千葉大栄ビル８階,,12,101,2600015,,,,,,,2022-01-31,1,,,,,ダイジュウイチニホンソーラーデンリョク,0
849,3040003019386,新規,0,2022-01-31,2022-01-31,合同会社Ｆプランニング,,合同会社,千葉県,佐倉市,上志津１８３３番６ＹＭＯ志津２０３,,12,212,2850846,,,,,,,2022-01-31,1,,,,,エフプランニング,0
850,3040003019394,新規,0,2022-01-31,2022-01-31,合同会社ＫＳｃｏｍｐａｎｙ,,合同会社,千葉県,市川市,二俣１丁目５番６－１０１号（市川ハイマンション）,,12,203,2720001,,,,,,,2022-01-31,1,,,,,ケーエスカンパニー,0
864,3080101023071,新規,0,2022-01-31,2022-01-31,宝栄自工株式会社,,株式会社,静岡県,富士宮市,山宮２１８７番地の９,,22,207,4180111,,,,,,,2022-01-31,1,,,,,ホウエイジコウ,0
873,3100005012820,新規,0,2022-01-31,2022-01-31,ＮＰＯ法人よろず相談処Ｒｅｎ,,その他の設立登記法人,長野県,木曽郡木曽町,福島１７８９番地１－２,,20,432,3970001,,,,,,,2022-01-31,1,,,,,ヨロズソウダンドコロレン,0
889,3120001243467,新規,0,2022-01-31,2022-01-31,株式会社リウォール,,株式会社,大阪府,大阪市東住吉区,矢田２丁目７番１７号,,27,121,5460023,,,,,,,2022-01-31,1,,,,,リウォール,0
890,3120001243475,新規,0,2022-01-31,2022-01-31,ＳＴＥＰＨＡＮＩＥ株式会社,,株式会社,大阪府,大阪市生野区,鶴橋４丁目１０番２３号,,27,116,5440031,,,,,,,2022-01-31,1,,,,,ステファニー,0
891,3120001243483,新規,0,2022-01-31,2022-01-31,株式会社ＲＩＣＳ,,株式会社,大阪府,大阪市阿倍野区,昭和町１丁目１７番２０号,,27,119,5450011,,,,,,,2022-01-31,1,,,,,リックス,0
892,3120001243500,新規,0,2022-01-31,2022-01-31,株式会社オアシスシティ,,株式会社,大阪府,大阪市此花区,島屋６丁目２番１００－１２１５号,,27,104,5540024,,,,,,,2022-01-31,1,,,,,オアシスシティ,0
893,3120001243517,新規,0,2022-01-31,2022-01-31,ＭＭＳ株式会社,,株式会社,大阪府,大阪市福島区,大開１丁目１３番６号エクセル２０２号,,27,103,5530007,,,,,,,2022-01-31,1,,,,,エムエムエス,0
894,3120001243525,新規,0,2022-01-31,2022-01-31,株式会社Ｙ’ｓ　Ｇｒｏｕｐ,,株式会社,大阪府,大阪市浪速区,立葉１丁目４番７号,,27,111,5560020,,,,,,,2022-01-31,1,,,,,ワイズグループ,0
895,3120003021037,新規,0,2022-01-31,2022-01-31,合同会社Ｊ　ＳＴＵＤＩＯ,,合同会社,大阪府,大阪市中央区,日本橋１丁目１７番１７号ピカソ日本一ビル６０４号,,27,128,5420073,,,,,,,2022-01-31,1,,,,,ジェイスタジオ,0
896,3120003021045,新規,0,2022-01-31,2022-01-31,合同会社ペオナルピープルジャパン,,合同会社,大阪府,大阪市生野区,桃谷４丁目８番４－３０１号,,27,116,5440034,,,,,,,2022-01-31,1,,,,,,0
900,3120101065010,新規,0,2022-01-31,2022-01-31,久遠株式会社,,株式会社,大阪府,堺市中区,八田西町３丁５番４８号,,27,142,5998265,,,,,,,2022-01-31,1,,,,,クオン,0
901,3120101065019,新規,0,2022-01-31,2022-01-31,株式会社ＭＩＲＡＩＲＯ,,株式会社,大阪府,和泉市,池上町２丁目９番３１号,,27,219,5940083,,,,,,,2022-01-31,1,,,,,ミライロ,0
905,3120905006275,新規,0,2022-01-31,2022-01-31,医療法人たにぐち歯科・口腔外科,,その他の設立登記法人,大阪府,池田市,鉢塚１丁目６番２５号,,27,204,5630024,,,,,,,2022-01-31,1,,,,,タニグチシカコウクウゲカ,0
906,3130001071017,新規,0,2022-01-31,2022-01-31,株式会社キズナホーム,,株式会社,京都府,京都市伏見区,向島二ノ丸町６８番地２７４,,26,109,6128141,,,,,,,2022-01-31,1,,,,,キズナホーム,0
907,3130001071033,新規,0,2022-01-31,2022-01-31,株式会社一乗寺とうふ,,株式会社,京都府,京都市左京区,一乗寺宮ノ東町４７番地,,26,103,6068116,,,,,,,2022-01-31,1,,,,,イチジョウジトウフ,0
935,3140001124657,新規,0,2022-01-31,2022-01-31,株式会社川井工業,,株式会社,兵庫県,明石市,二見町福里１５８番地の１３,,28,203,6740091,,,,,,,2022-01-31,1,,,,,カワイコウギョウ,0
936,3140001124707,新規,0,2022-01-31,2022-01-31,株式会社富松本田商事,,株式会社,兵庫県,尼崎市,富松町１丁目２２番７号,,28,202,6610003,,,,,,,2022-01-31,1,,,,,トマツホンダショウジ,0
937,3140001124723,新規,0,2022-01-31,2022-01-31,株式会社ダイシン住研,,株式会社,兵庫県,西宮市,弓場町８－３－２０３,,28,204,6620964,,,,,,,2022-01-31,1,,,,,ダイシンジュウケン,0
969,3180001149741,新規,0,2022-01-31,2022-01-31,ＲＳｆａｃｔ株式会社,,株式会社,愛知県,名古屋市名東区,植園町２丁目１－７－２０１,,23,115,4650077,,,,,,,2022-01-31,1,,,,,アールエスファクト,0
970,3180001149758,新規,0,2022-01-31,2022-01-31,株式会社萬達建設工業,,株式会社,愛知県,清須市,須ケ口３０４番地９,,23,233,4520905,,,,,,,2022-01-31,1,,,,,ワンダケンセツコウギョウ,0
971,3180001149766,新規,0,2022-01-31,2022-01-31,株式会社ＴＡＭＡＧＯ,,株式会社,愛知県,名古屋市南区,豊田１丁目７番２３号,,23,112,4570841,,,,,,,2022-01-31,1,,,,,タマゴ,0
974,3180003023440,新規,0,2022-01-31,2022-01-31,合同会社マグニフィセント,,合同会社,愛知県,名古屋市千種区,松竹町１丁目２ＡＲＫ　ＨＯＵＳＥ南館４Ｆ　Ａ号室,,23,101,4640823,,,,,,,2022-01-31,1,,,,,マグニフィセント,0
975,3180003023449,新規,0,2022-01-31,2022-01-31,エイクラン合同会社,,合同会社,愛知県,北名古屋市,久地野５３番地１,,23,234,4810012,,,,,,,2022-01-31,1,,,,,エイクラン,0
992,3200003005436,新規,0,2022-01-31,2022-01-31,合同会社セカンドステージ,,合同会社,岐阜県,可児市,坂戸字石田３５７番地２,,21,214,5090241,,,,,,,2022-01-31,1,,,,,セカンドステージ,0
997,3220001024667,新規,0,2022-01-31,2022-01-31,株式会社金沢日月土,,株式会社,石川県,金沢市,尾山町９番２号,,17,201,9200918,,,,,,,2022-01-31,1,,,,,カナザワニチガツド,0
1001,3240001059257,新規,0,2022-01-31,2022-01-31,株式会社ダイカム,,株式会社,広島県,広島市中区,国泰寺町１丁目５番１４－３０１号,,34,101,7300042,,,,,,,2022-01-31,1,,,,,ダイカム,0
1003,3240003005481,新規,0,2022-01-31,2022-01-31,ＫＨＣ合同会社,,合同会社,広島県,広島市南区,向洋新町３丁目１９番２０号,,34,103,7340055,,,,,,,2022-01-31,1,,,,,ケーエイチシー,0
1009,3260001036477,新規,0,2022-01-31,2022-01-31,株式会社ＴＨＲＥＥ　ＭＯＯＮ,,株式会社,岡山県,岡山市南区,新保１０１５番地２２,,33,104,7000945,,,,,,,2022-01-31,1,,,,,スリームーン,0
1018,3270005005493,新規,0,2022-01-31,2022-01-31,医療法人ＯＦＣ,,その他の設立登記法人,鳥取県,米子市,車尾３丁目９番３３号,,31,202,6830006,,,,,,,2022-01-31,1,,,,,オーエフシー,0
1019,3280001008615,新規,0,2022-01-31,2022-01-31,株式会社Ｍｏｎｄ,,株式会社,島根県,松江市,伊勢宮町５０６,,32,201,6900006,,,,,,,2022-01-31,1,,,,,モンド,0
1025,3290001096270,新規,0,2022-01-31,2022-01-31,株式会社Ｚ＆Ｌ,,株式会社,福岡県,福岡市城南区,神松寺１丁目１２－３０－１０４室,,40,136,8140121,,,,,,,2022-01-31,1,,,,,ゼイアンドエル,0
1027,3290003012093,新規,0,2022-01-31,2022-01-31,ＱＵＹＮＨ＆ＬＩＮＨ合同会社,,合同会社,福岡県,福岡市中央区,渡辺通２丁目９－１２,,40,133,8100004,,,,,,,2022-01-31,1,,,,,クインアンドリン,0
1028,3290801028209,新規,0,2022-01-31,2022-01-31,株式会社ＦＯＲＥＳＴ　ＤＥＮ,,株式会社,福岡県,田川郡添田町,大字庄３８７番地の２,,40,602,8240601,,,,,,,2022-01-31,1,,,,,フォレストデン,0
1029,3290803004050,新規,0,2022-01-31,2022-01-31,合同会社Ｍ＆Ｒ,,合同会社,福岡県,北九州市小倉北区,片野２丁目５－１５グラスコート７０５,,40,106,8020064,,,,,,,2022-01-31,1,,,,,エムアンドアール,0
1033,3350005006046,新規,0,2022-01-31,2022-01-31,一般社団法人スターサファイア,,その他の設立登記法人,宮崎県,宮崎市,神宮東３丁目９番４号,,45,201,8800056,,,,,,,2022-01-31,1,,,,,スターサファイア,0
1035,3360001029966,新規,0,2022-01-31,2022-01-31,株式会社メタルプラネット,,株式会社,沖縄県,浦添市,宮城３丁目２番８号２０１Ｂ,,47,208,9012126,,,,,,,2022-01-31,1,,,,,メタルプラネット,0
1038,3370001048131,新規,0,2022-01-31,2022-01-31,株式会社ひよこの杜,,株式会社,宮城県,仙台市泉区,八乙女中央４丁目８番２５号アージョ泉の杜１０４,,04,105,9813135,,,,,,,2022-01-31,1,,,,,ヒヨコノモリ,0
1039,3370003005568,新規,0,2022-01-31,2022-01-31,合同会社パーパスアルファ,,合同会社,宮城県,仙台市若林区,新寺４丁目４－６、２Ｆ,,04,103,9840051,,,,,,,2022-01-31,1,,,,,パーパスアルファ,0
1052,3410001013089,新規,0,2022-01-31,2022-01-31,石垣農園株式会社,,株式会社,秋田県,大館市,中山字中山１０３番地,,05,204,0170839,,,,,,,2022-01-31,1,,,,,イシガキノウエン,0
1053,3430001085886,新規,0,2022-01-31,2022-01-31,株式会社川上電気工事,,株式会社,北海道,江別市,幸町２５番地の６,,01,217,0690812,,,,,,,2022-01-31,1,,,,,カワカミデンキコウジ,0
1054,3430001085894,新規,0,2022-01-31,2022-01-31,株式会社ＮＥＸＴ　ＩＮＮＯＶＡＴＩＯＮ,,株式会社,北海道,札幌市白石区,東札幌五条１丁目１番１号札幌市産業振興センター２Ｂ号室,,01,104,0030005,,,,,,,2022-01-31,1,,,,,ネクストイノベーション,0
1055,3430001085903,新規,0,2022-01-31,2022-01-31,株式会社ジーエイドファーマ,,株式会社,北海道,札幌市清田区,平岡一条４丁目２番８－１号,,01,110,0040871,,,,,,,2022-01-31,1,,,,,ジーエイドファーマ,0
1064,3500005008456,新規,0,2022-01-31,2022-01-31,森の国まつの事業協同組合,,その他の設立登記法人,愛媛県,北宇和郡松野町,大字松丸３４３番地,,38,484,7982101,,,,,,,2022-01-31,1,,,,,モリノクニマツノ,0
1070,4010001224147,新規,0,2022-01-31,2022-01-31,株式会社ｍｅｔａｔａｇ,,株式会社,東京都,中央区,日本橋馬喰町１丁目６－９－６０２,,13,102,1030002,,,,,,,2022-01-31,1,,,,,メタタグ,0
1071,4010001224213,新規,0,2022-01-31,2022-01-31,株式会社ＩＮＳＰＩＯＮエッジ,,株式会社,東京都,千代田区,九段南４丁目７番２４号トゥーラント８８ビル２０２,,13,101,1020074,,,,,,,2022-01-31,1,,,,,インスピオンエッジ,0
1072,4010001224221,新規,0,2022-01-31,2022-01-31,伝統芸能音楽事務所さくら株式会社,,株式会社,東京都,中央区,日本橋人形町２丁目２５番７号サンヴェール日本橋人形町４０４,,13,102,1030013,,,,,,,2022-01-31,1,,,,,デントウゲイノウオンガクジムショサクラ,0
1073,4010001224238,新規,0,2022-01-31,2022-01-31,株式会社アルファ・クレスタ,,株式会社,東京都,文京区,本郷４丁目２６番１１号,,13,105,1130033,,,,,,,2022-01-31,1,,,,,アルファクレスタ,0
1075,4010003036904,新規,0,2022-01-31,2022-01-31,ｉプロパティ８合同会社,,合同会社,東京都,千代田区,永田町２丁目１４番２号－３階スリーアイズキャピタル株式会社内,,13,101,1000014,,,,,,,2022-01-31,1,,,,,アイプロパティエイト,0
1076,4010005034534,新規,0,2022-01-31,2022-01-31,一般社団法人湘南インベストメント,,その他の設立登記法人,東京都,中央区,日本橋１丁目４番１号日本橋一丁目ビルディング,,13,102,1030027,,,,,,,2022-01-31,1,,,,,ショウナンインベストメント,0
1085,4010401165271,新規,0,2022-01-31,2022-01-31,株式会社ｃｏｃｏｒｏｏｍｅ,,株式会社,東京都,港区,麻布十番３丁目１番１号,,13,103,1060045,,,,,,,2022-01-31,1,,,,,ココローム,0
1087,4010403026959,新規,0,2022-01-31,2022-01-31,カノア合同会社,,合同会社,東京都,港区,南青山３丁目１番３号スプライン青山東急ビル４・６階,,13,103,1070062,,,,,,,2022-01-31,1,,,,,カノア,0
1089,4010501048384,新規,0,2022-01-31,2022-01-31,株式会社ＮＦＩ　ＳＴＡＲＴＥＤ,,株式会社,東京都,台東区,台東１丁目８番５号秋葉原ラボ,,13,106,1100016,,,,,,,2022-01-31,1,,,,,エヌエフアイスターテッド,0
1090,4010501048392,新規,0,2022-01-31,2022-01-31,株式会社ｚｅ　ｆｒｅｅ,,株式会社,東京都,台東区,柳橋２丁目１－６－４０７,,13,106,1110052,,,,,,,2022-01-31,1,,,,,ゼフリー,0
1098,4010701042138,新規,0,2022-01-31,2022-01-31,株式会社ネコノテ,,株式会社,東京都,品川区,戸越５丁目１８番６号セレニティ戸越２階,,13,109,1420041,,,,,,,2022-01-31,1,,,,,ネコノテ,0
1099,4010703006090,新規,0,2022-01-31,2022-01-31,アスクリエイト合同会社,,合同会社,東京都,品川区,西五反田６丁目２３－８シャルール西五反田４０３,,13,109,1410031,,,,,,,2022-01-31,1,,,,,アスクリエイト,0
1102,4010901050254,新規,0,2022-01-31,2022-01-31,株式会社Ｙｅｌａ,,株式会社,東京都,世田谷区,桜新町１丁目２１－１４－１Ｆ,,13,112,1540015,,,,,,,2022-01-31,1,,,,,イエラ,0
1103,4010903007112,新規,0,2022-01-31,2022-01-31,アリエス合同会社,,合同会社,東京都,世田谷区,梅丘３丁目５番２２号,,13,112,1540022,,,,,,,2022-01-31,1,,,,,アリエス,0
1110,4011001144970,新規,0,2022-01-31,2022-01-31,株式会社ｓｕｇａｒ　ｓｐｏｔ,,株式会社,東京都,渋谷区,上原２丁目１４番９号,,13,113,1510064,,,,,,,2022-01-31,1,,,,,シュガースポット,0
1111,4011001145242,新規,0,2022-01-31,2022-01-31,株式会社Ｄ－ｄａｙ,,株式会社,東京都,渋谷区,神宮前６丁目２３－４桑野ビル２Ｆ,,13,113,1500001,,,,,,,2022-01-31,1,,,,,ディーディ,0
1112,4011001145259,新規,0,2022-01-31,2022-01-31,本棚演算株式会社,,株式会社,東京都,渋谷区,円山町５番５号Ｎａｖｉ渋谷Ｖ３階,00125564,13,113,1500044,,,,,,,2022-01-31,1,,,,,ホンダナエンザン,0
1113,4011003014032,新規,0,2022-01-31,2022-01-31,合同会社３８,,合同会社,東京都,目黒区,中目黒３丁目１８番１５号ｌｅｓｕｃｒｅ－１０１,,13,110,1530061,,,,,,,2022-01-31,1,,,,,サンパチ,0
1114,4011005009410,新規,0,2022-01-31,2022-01-31,一般社団法人Ｆｏｒ　Ｙｏｕｒ　Ｆｕｔｕｒｅ,,その他の設立登記法人,東京都,目黒区,目黒２丁目１番１５号ピアスコード４０２,,13,110,1530063,,,,,,,2022-01-31,1,,,,,フォーユアフューチャー,0
1118,4011301027529,新規,0,2022-01-31,2022-01-31,株式会社パワーフライト,,株式会社,東京都,杉並区,上荻２丁目１９番１５号,,13,115,1670043,,,,,,,2022-01-31,1,,,,,パワーフライト,0
1127,4012401038804,新規,0,2022-01-31,2022-01-31,株式会社エフトラスト,,株式会社,東京都,府中市,宮西町５丁目６番地の５パークハウス宮西２０６号室,,13,206,1830022,,,,,,,2022-01-31,1,,,,,エフトラスト,0
1129,4012403005224,新規,0,2022-01-31,2022-01-31,ＣＡＲＰＥ　ＤＩＥＭ合同会社,,合同会社,東京都,小金井市,本町２丁目１３－３８ジュネスＡ１０２,,13,210,1840004,,,,,,,2022-01-31,1,,,,,カルペディエム,0
1141,4020001145020,新規,0,2022-01-31,2022-01-31,株式会社ＳＥＮＳＥ,,株式会社,神奈川県,川崎市川崎区,藤崎４丁目３３番７号１Ｆ,,14,131,2100804,,,,,,,2022-01-31,1,,,,,センス,0
1145,4020003021211,新規,0,2022-01-31,2022-01-31,合同会社Ｋａｇｕｒａ,,合同会社,神奈川県,横浜市神奈川区,三ツ沢下町９番２６号ドエル三ツ沢１Ｆ－６号,,14,102,2210852,,,,,,,2022-01-31,1,,,,,カグラ,0
1146,4020005015368,新規,0,2022-01-31,2022-01-31,一般社団法人企業対抗レディスゴルフトーナメント実行委員会,,その他の設立登記法人,神奈川県,川崎市多摩区,南生田６丁目３２番６号,,14,135,2140036,,,,,,,2022-01-31,1,,,,,キギョウタイコウレディスゴルフトーナメントジッコウイインカイ,0
1172,4030001146538,新規,0,2022-01-31,2022-01-31,株式会社リベロ,,株式会社,埼玉県,戸田市,氷川町１丁目１０番１４号,,11,224,3350027,,,,,,,2022-01-31,1,,,,,リベロ,0
1173,4030001146546,新規,0,2022-01-31,2022-01-31,株式会社エースプランニング,,株式会社,埼玉県,富士見市,上沢１丁目１３番２０号,,11,235,3540034,,,,,,,2022-01-31,1,,,,,エースプランニング,0
1174,4030001146554,新規,0,2022-01-31,2022-01-31,株式会社ＪＯＵＲＮＥＹ,,株式会社,埼玉県,草加市,柿木町６８２番地１,,11,221,3400001,,,,,,,2022-01-31,1,,,,,ジャーニー,0
1175,4030001146562,新規,0,2022-01-31,2022-01-31,株式会社Ｄ－ｖｉｓｉｏｎ,,株式会社,埼玉県,川口市,芝新町９番２９号,,11,203,3330851,,,,,,,2022-01-31,1,,,,,ディービジョン,0
1176,4030001146579,新規,0,2022-01-31,2022-01-31,株式会社ジョルズトレーディング,,株式会社,埼玉県,三郷市,彦成３丁目２１０番１,,11,237,3410003,,,,,,,2022-01-31,1,,,,,ジョルズトレーディング,0
1209,4030003018735,新規,0,2022-01-31,2022-01-31,ＺＹＮ合同会社,,合同会社,埼玉県,川口市,並木３丁目１３番１０号村田ビル１Ｆ,,11,203,3320034,,,,,,,2022-01-31,1,,,,,ジン,0
1213,4030005020706,新規,0,2022-01-31,2022-01-31,ペンテコストインターナショナル教会ジャパン,,その他の設立登記法人,埼玉県,川口市,大字芝６８５７番地,,11,203,3330866,,,,,,,2022-01-31,1,,,,,ペンテコストインターナショナルキョウカイジャパン,0
1226,4040001121993,新規,0,2022-01-31,2022-01-31,株式会社ＴＯＭＩ－ＮＥＸＴ,,株式会社,千葉県,浦安市,高洲６丁目１－７－５０３,,12,227,2790023,,,,,,,2022-01-31,1,,,,,トオミネクスト,0
1227,4040001122018,新規,0,2022-01-31,2022-01-31,株式会社ｓｅｅｄｕ,,株式会社,千葉県,鎌ケ谷市,西道野辺１０番２４－３０５号,,12,224,2730117,,,,,,,2022-01-31,1,,,,,シードゥ,0
1231,4040003019385,新規,0,2022-01-31,2022-01-31,合同会社きなこ,,合同会社,千葉県,市川市,柏井町２丁目１３５７番地８,,12,203,2720802,,,,,,,2022-01-31,1,,,,,キナコ,0
1232,4040003019402,新規,0,2022-01-31,2022-01-31,合同会社Ｅ・ＰＲＯＤＵＣＴ,,合同会社,千葉県,千葉市稲毛区,小仲台３丁目２番３１号小仲台マンション８号,,12,103,2630043,,,,,,,2022-01-31,1,,,,,イープロダクト,0
1233,4040005021505,新規,0,2022-01-31,2022-01-31,一般財団法人ＳＤＧｓ大多喜学園,,その他の設立登記法人,千葉県,夷隅郡大多喜町,大戸４３３番地,,12,441,2980225,,,,,,,2022-01-31,1,,,,,エスディージーズオオタキガクエン,0
1244,4080001024722,新規,0,2022-01-31,2022-01-31,ＣＯＯＰＹ’ｓ　ＷＯＲＫ株式会社,,株式会社,静岡県,静岡市清水区,布沢２９８番地,,22,103,4240415,,,,,,,2022-01-31,1,,,,,クーピーズワーク,0
1248,4090001017386,新規,0,2022-01-31,2022-01-31,株式会社ＭＡＲＵ,,株式会社,山梨県,甲府市,下小河原町２３０番地１,,19,201,4000853,,,,,,,2022-01-31,1,,,,,マル,0
1257,4120001243466,新規,0,2022-01-31,2022-01-31,ＩＴＳロジサポート株式会社,,株式会社,大阪府,大阪市北区,西天満４丁目７番１３号新老松ビル２２号室,,27,127,5300047,,,,,,,2022-01-31,1,,,,,アイティーエスロジサポート,0
1258,4120001243474,新規,0,2022-01-31,2022-01-31,株式会社ＩＥＰ,,株式会社,大阪府,枚方市,茄子作北町２４番１３号パインオークＩＶ２０１,00125561,27,210,5730083,,,,,,,2022-01-31,1,,,,,アイイーピー,0
1259,4120001243532,新規,0,2022-01-31,2022-01-31,株式会社ファーイースト,,株式会社,大阪府,大阪市北区,与力町６番２３号－２０１号,,27,127,5300036,,,,,,,2022-01-31,1,,,,,ファーイースト,0
1260,4120001243549,新規,0,2022-01-31,2022-01-31,株式会社幸建設,,株式会社,大阪府,大阪市此花区,島屋６丁目２番１４－５１２号,,27,104,5540024,,,,,,,2022-01-31,1,,,,,サチケンセツ,0
1261,4120003020789,新規,0,2022-01-31,2022-01-31,井上商会合同会社,,合同会社,大阪府,大阪市中央区,内淡路町２丁目４番１７号１２０１号,,27,128,5400038,,,,,,,2022-01-31,1,,,,,イノウエショウカイ,0
1262,4120003021028,新規,0,2022-01-31,2022-01-31,シンキオート合同会社,,合同会社,大阪府,門真市,千石東町１番５－２０６号,,27,223,5710013,,,,,,,2022-01-31,1,,,,,シンキオート,0
1264,4120005022759,新規,0,2022-01-31,2022-01-31,医療法人恵善会,,その他の設立登記法人,大阪府,大阪市浪速区,桜川２丁目２番３１号ザクロコーポレーション桜川ビル１階,,27,111,5560022,,,,,,,2022-01-31,1,,,,,ケイゼンカイ,0
1267,4120901045532,新規,0,2022-01-31,2022-01-31,株式会社風鈴,,株式会社,大阪府,豊中市,浜１丁目２５番６号,,27,203,5610817,,,,,,,2022-01-31,1,,,,,フウリン,0
1268,4120903004016,新規,0,2022-01-31,2022-01-31,合同会社フォリア,,合同会社,大阪府,豊中市,庄内東町４丁目４－４,,27,203,5610831,,,,,,,2022-01-31,1,,,,,フォリア,0
1270,4122001035538,新規,0,2022-01-31,2022-01-31,株式会社リバティーズスタイル,,株式会社,大阪府,柏原市,上市２丁目４番２５号,,27,221,5820007,,,,,,,2022-01-31,1,,,,,リバティーズスタイル,0
1273,4130001071008,新規,0,2022-01-31,2022-01-31,株式会社自然,,株式会社,京都府,京都市中京区,中島町９０－２フェリチタ三条木屋町９階／１０階Ｃ－５,,26,104,6048004,,,,,,,2022-01-31,1,,,,,ジネン,0
1299,4140001124689,新規,0,2022-01-31,2022-01-31,株式会社ＩＮＩＥＳＴＡ　ＭＥＴＨＯＤＯＬＯＧＹ　ＡＣＡＤＥＭＹ,,株式会社,兵庫県,神戸市中央区,八幡通４丁目１番１４号Ｂ＆Ｌビルディング４Ｆ,,28,110,6510085,,,,,,,2022-01-31,1,,,,,イニエスタメソドロジーアカデミー,0
1300,4140001124722,新規,0,2022-01-31,2022-01-31,株式会社Ｍａｋａｈｏｕ,,株式会社,兵庫県,明石市,東仲ノ町４番３０号,,28,203,6730886,,,,,,,2022-01-31,1,,,,,マカホウ,0
1301,4140001124739,新規,0,2022-01-31,2022-01-31,株式会社いかり,,株式会社,兵庫県,南あわじ市,伊加利２０番地１,,28,224,6560651,,,,,,,2022-01-31,1,,,,,イカリ,0
1320,4140003017288,新規,0,2022-01-31,2022-01-31,合同会社神元ファンド,,合同会社,兵庫県,神戸市中央区,栄町通７丁目１番１－８１８号,,28,110,6500023,,,,,,,2022-01-31,1,,,,,シンゲンファンド,0
1326,4150001025291,新規,0,2022-01-31,2022-01-31,株式会社カーキャンパー,,株式会社,奈良県,奈良市,角振町２６,,29,201,6308224,,,,,,,2022-01-31,1,,,,,カーキャンパー,0
1327,4150003002611,新規,0,2022-01-31,2022-01-31,八重桜合同会社,,合同会社,奈良県,吉野郡大淀町,大字福神１番地の９６,,29,442,6380833,,,,,,,2022-01-31,1,,,,,ヤエザクラ,0
1338,4180001149757,新規,0,2022-01-31,2022-01-31,株式会社Ｃｏｎｎｅｃｔ　Ｐｉｅｃｅ,,株式会社,愛知県,名古屋市北区,柳原１丁目２番５号,,23,103,4620845,,,,,,,2022-01-31,1,,,,,コネクトピース,0
1339,4180001149773,新規,0,2022-01-31,2022-01-31,優信株式会社,,株式会社,愛知県,名古屋市緑区,大高町字三番割６３番地,,23,114,4598001,,,,,,,2022-01-31,1,,,,,ユウシン,0
1340,4180001149781,新規,0,2022-01-31,2022-01-31,株式会社正巳,,株式会社,愛知県,北名古屋市,鹿田南蒲屋敷６９６番地,,23,234,4810004,,,,,,,2022-01-31,1,,,,,マサミ,0
1352,4230001019211,新規,0,2022-01-31,2022-01-31,株式会社レノベシオン,,株式会社,富山県,富山市,桜町１丁目５番１５号プレミア富山駅前３１１,,16,201,9300003,,,,,,,2022-01-31,1,,,,,レノベシオン,0
1358,4240001059231,新規,0,2022-01-31,2022-01-31,ＦＵＣＨＵ　ＴＥＣＨ　ＰＬＵＳ株式会社,,株式会社,広島県,府中市,元町４４５番地１,,34,208,7260003,,,,,,,2022-01-31,1,,,,,フチュウテックプラス,0
1378,4290001096261,新規,0,2022-01-31,2022-01-31,株式会社アセット・Ｌ,,株式会社,福岡県,福岡市博多区,博多駅東２丁目１３番２１号ＧＳハイム博多７０７,,40,132,8120013,,,,,,,2022-01-31,1,,,,,アセットエル,0
1379,4290001096278,新規,0,2022-01-31,2022-01-31,輝地アルミ株式会社,,株式会社,福岡県,福岡市博多区,博多駅南３丁目２２番２－３０５号,,40,132,8120016,,,,,,,2022-01-31,1,,,,,テルチアルミ,0
1380,4290001096286,新規,0,2022-01-31,2022-01-31,ＢＬＡＣＫ　ＧＡＴＥ株式会社,,株式会社,福岡県,福岡市中央区,今川１丁目１９番１２号,,40,133,8100054,,,,,,,2022-01-31,1,,,,,ブラックゲート,0
1387,4290003012084,新規,0,2022-01-31,2022-01-31,合同会社ＮＥＸＵＳ,,合同会社,福岡県,福岡市博多区,吉塚３丁目５番５０－７０６号,,40,132,8120041,,,,,,,2022-01-31,1,,,,,ネクサス,0
1398,4310001017693,新規,0,2022-01-31,2022-01-31,東株式会社,,株式会社,長崎県,長崎市,緑が丘町１番５６号青雲荘２０２号室,,42,201,8528033,,,,,,,2022-01-31,1,,,,,ヒガシ,0
1415,4430001085902,新規,0,2022-01-31,2022-01-31,株式会社サクケン,,株式会社,北海道,札幌市手稲区,曙六条３丁目８番３号１０１号,00125571,01,109,0060836,,,,,,,2022-01-31,1,,,,,サクケン,0
1417,4450001013605,新規,0,2022-01-31,2022-01-31,株式会社グリーンコネクト件,,株式会社,北海道,深川市,音江町字広里６７４番地８５,,01,228,0741271,,,,,,,2022-01-31,1,,,,,グリーンコネクトクダン,0
1430,5010001224187,新規,0,2022-01-31,2022-01-31,Ｆｏｒｔｕｎａ株式会社,,株式会社,東京都,千代田区,九段北１丁目１３番９号,,13,101,1020073,,,,,,,2022-01-31,1,,,,,フォルテューナ,0
1431,5010001224212,新規,0,2022-01-31,2022-01-31,ファミリービジネスコンサルティング株式会社,,株式会社,東京都,中央区,勝どき５丁目３番１－５１０９号,,13,102,1040054,,,,,,,2022-01-31,1,,,,,ファミリービジネスコンサルティング,0
1435,5010003036903,新規,0,2022-01-31,2022-01-31,ｉプロパティ７合同会社,,合同会社,東京都,千代田区,永田町２丁目１４番２号－３階スリーアイズキャピタル株式会社内,,13,101,1000014,,,,,,,2022-01-31,1,,,,,アイプロパティセブン,0
1438,5010005034533,新規,0,2022-01-31,2022-01-31,ｉプロパティ３一般社団法人,,その他の設立登記法人,東京都,千代田区,神田小川町３丁目２６番８号神田小川町三丁目ビル６階,,13,101,1010052,,,,,,,2022-01-31,1,,,,,アイプロパティスリー,0
1443,5010401165312,新規,0,2022-01-31,2022-01-31,Ｇ－Ｐｕｌｓｅ株式会社,,株式会社,東京都,港区,虎ノ門５丁目１１番１号オランダヒルズ森タワーＲｏＰ６０６号室,,13,103,1050001,,,,,,,2022-01-31,1,,,,,ジーパルス,0
1445,5010603009366,新規,0,2022-01-31,2022-01-31,合同会社ファンタジスタ,,合同会社,東京都,墨田区,太平４丁目２３番２号,,13,107,1300012,,,,,,,2022-01-31,1,,,,,ファンタジスタ,0
1455,5011001145258,新規,0,2022-01-31,2022-01-31,株式会社ハルノヤ,,株式会社,東京都,渋谷区,富ヶ谷２丁目４３番１１号永和ビルＢ１,,13,113,1510063,,,,,,,2022-01-31,1,,,,,ハルノヤ,0
1460,5011003014048,新規,0,2022-01-31,2022-01-31,ＤＸプランナー合同会社,,合同会社,東京都,渋谷区,神宮前６丁目２３－４,,13,113,1500001,,,,,,,2022-01-31,1,,,,,ディーエックスプランナー,0
1461,5011003014072,新規,0,2022-01-31,2022-01-31,合同会社１７０１,,合同会社,東京都,渋谷区,神宮前６丁目２３番４号桑野ビル２階,,13,113,1500001,,,,,,,2022-01-31,1,,,,,イチナナゼロイチ,0
1464,5011101097630,新規,0,2022-01-31,2022-01-31,株式会社Ｌ’ｅｃｒｉｎ,,株式会社,東京都,新宿区,新宿３丁目１１番１２号永谷テイクエイト１０階,,13,104,1600022,,,,,,,2022-01-31,1,,,,,レクラン,0
1469,5011605002425,新規,0,2022-01-31,2022-01-31,一般社団法人士業経営サポート協会,,その他の設立登記法人,東京都,練馬区,練馬４丁目１５番１８－５０２号アプレシティ豊島園,,13,120,1760001,,,,,,,2022-01-31,1,,,,,シギョウケイエイサポートキョウカイ,0
1473,5011801040253,新規,0,2022-01-31,2022-01-31,株式会社英勇,,株式会社,東京都,足立区,西綾瀬２丁目９番２０号,,13,121,1200014,,,,,,,2022-01-31,1,,,,,エイユウ,0
1492,5020001145003,新規,0,2022-01-31,2022-01-31,アサヒ株式会社,,株式会社,神奈川県,横浜市保土ケ谷区,峰岡町２丁目１３９番地４,,14,106,2400064,,,,,,,2022-01-31,1,,,,,アサヒ,0
1493,5020001145028,新規,0,2022-01-31,2022-01-31,株式会社アベイユ,,株式会社,神奈川県,横浜市都筑区,葛が谷１０－８－３０４,,14,118,2240062,,,,,,,2022-01-31,1,,,,,アベイユ,0
1494,5020001145052,新規,0,2022-01-31,2022-01-31,株式会社ＡＳＳプランニング,,株式会社,神奈川県,横浜市鶴見区,北寺尾５丁目９－２８－６０４,,14,101,2300074,,,,,,,2022-01-31,1,,,,,エーエスエスプランニング,0
1524,5030001146553,新規,0,2022-01-31,2022-01-31,レイクアンドピース株式会社,,株式会社,埼玉県,越谷市,東越谷４丁目２８番地２２,,11,222,3430023,,,,,,,2022-01-31,1,,,,,レイクアンドピース,0
1525,5030001146578,新規,0,2022-01-31,2022-01-31,株式会社明地,,株式会社,埼玉県,川口市,西川口１丁目３５番７号ホウユーコンフォルト西川口８０４室,,11,203,3320021,,,,,,,2022-01-31,1,,,,,メイチ,0
1526,5030001146586,新規,0,2022-01-31,2022-01-31,ＴＯコンサルタント株式会社,,株式会社,埼玉県,鶴ヶ島市,大字藤金８５２番地１６ステーションテラス若葉７０６号,,11,241,3502206,,,,,,,2022-01-31,1,,,,,,0
1564,5030003018742,新規,0,2022-01-31,2022-01-31,合同会社耀企画,,合同会社,埼玉県,川口市,大字東内野２２６番地サンライフ東川口９０５号,,11,203,3330821,,,,,,,2022-01-31,1,,,,,ヒカリキカク,0
1575,5040001122017,新規,0,2022-01-31,2022-01-31,田舎の暮らし株式会社,,株式会社,千葉県,袖ケ浦市,横田３７８４,,12,229,2990236,,,,,,,2022-01-31,1,,,,,イナカノクラシ,0
1576,5040001122025,新規,0,2022-01-31,2022-01-31,株式会社ｙｕｍｉｃｈｅｅ,,株式会社,千葉県,大網白里市,季美の森南５丁目１７番地２０,,12,239,2993241,,,,,,,2022-01-31,1,,,,,ユミチィ,0
1577,5040001122033,新規,0,2022-01-31,2022-01-31,株式会社ブルーベル,,株式会社,千葉県,船橋市,湊町２丁目１－１８新堀ギタービル２Ｆ,,12,204,2730011,,,,,,,2022-01-31,1,,,,,ブルーベル,0
1584,5040003019384,新規,0,2022-01-31,2022-01-31,合同会社ＮＥＧＯ,,合同会社,千葉県,柏市,豊四季６４６－１４４,,12,217,2770863,,,,,,,2022-01-31,1,,,,,ネゴ,0
1585,5040003019401,新規,0,2022-01-31,2022-01-31,ネオ・ピー・テクノロジー合同会社,,合同会社,千葉県,市原市,国分寺台中央４丁目１１番地１２,,12,219,2900073,,,,,,,2022-01-31,1,,,,,ネオピーテクノロジー,0
1598,5090001017385,新規,0,2022-01-31,2022-01-31,株式会社大森厨房サービス,,株式会社,山梨県,南巨摩郡富士川町,鰍沢８０１番地１,,19,368,4000601,,,,,,,2022-01-31,1,,,,,オオモリチュウボウサービス,0
1600,5090005007465,新規,0,2022-01-31,2022-01-31,特定非営利活動法人フェイスフル,,その他の設立登記法人,山梨県,笛吹市,御坂町成田２８１２番地,,19,211,4060801,,,,,,,2022-01-31,1,,,,,フェイスフル,0
1606,5100005012819,新規,0,2022-01-31,2022-01-31,一般社団法人霧ヶ峰ドッグ倶楽部,00125562,その他の設立登記法人,長野県,諏訪市,大字上諏訪１３３３８番地１,,20,206,3920003,,,,,,,2022-01-31,1,,,,,キリガミネドッグクラブ,0
1616,5120001243473,新規,0,2022-01-31,2022-01-31,株式会社ビッグサン,,株式会社,大阪府,大阪市西区,立売堀１丁目７番１２号グレース大阪本町ビル５０２,,27,106,5500012,,,,,,,2022-01-31,1,,,,,ビッグサン,0
1617,5120001243481,新規,0,2022-01-31,2022-01-31,株式会社ｓｙｅｎ,,株式会社,大阪府,大阪市西区,北堀江１丁目２２番４号１３０３,,27,106,5500014,,,,,,,2022-01-31,1,,,,,シエン,0
1618,5120001243507,新規,0,2022-01-31,2022-01-31,Ｉｎｉｇｏ株式会社,,株式会社,大阪府,大阪市中央区,東高麗橋１－６清水不動産ビル２０２,,27,128,5400039,,,,,,,2022-01-31,1,,,,,イニィゴ,0
1619,5120001243515,新規,0,2022-01-31,2022-01-31,株式会社ＡＳＫＩＴＡＬ,,株式会社,大阪府,大阪市浪速区,日本橋東２丁目９番１６号オリエンタル日本橋３０５号,,27,111,5560006,,,,,,,2022-01-31,1,,,,,アスキタル,0
1620,5120001243531,新規,0,2022-01-31,2022-01-31,株式会社リッチビューティー,,株式会社,大阪府,大阪市西区,南堀江２丁目１２番８－１２０１号,,27,106,5500015,,,,,,,2022-01-31,1,,,,,リッチビューティー,0
1622,5120003021027,新規,0,2022-01-31,2022-01-31,合同会社ＳＡＫＡＥ,,合同会社,大阪府,大阪市中央区,内本町１丁目３番９号,,27,128,5400026,,,,,,,2022-01-31,1,,,,,サカエ,0
1623,5120003021051,新規,0,2022-01-31,2022-01-31,合同会社ヴェルステック,,合同会社,大阪府,大阪市住吉区,帝塚山中３丁目３番５－４０１号,,27,120,5580053,,,,,,,2022-01-31,1,,,,,ヴェルステック,0
1625,5120101065009,新規,0,2022-01-31,2022-01-31,株式会社ハウスせんなん,,株式会社,大阪府,泉南市,信達市場２３２０番地の７８,,27,228,5900504,,,,,,,2022-01-31,1,,,,,ハウスセンナン,0
1628,5120901045523,新規,0,2022-01-31,2022-01-31,株式会社なぎのき,,株式会社,大阪府,吹田市,泉町４丁目１０番５号,,27,205,5640041,,,,,,,2022-01-31,1,,,,,ナギノキ,0
1630,5130001071015,新規,0,2022-01-31,2022-01-31,株式会社宝樹,,株式会社,京都府,久世郡久御山町,林八幡講９－２９,,26,322,6130033,,,,,,,2022-01-31,1,,,,,ホウジュ,0
1631,5130001071031,新規,0,2022-01-31,2022-01-31,夢酒蔵株式会社,,株式会社,京都府,京都市右京区,嵯峨天龍寺北造路町１８番地,,26,108,6168374,,,,,,,2022-01-31,1,,,,,ユメサカグラ,0
1646,5140001124655,新規,0,2022-01-31,2022-01-31,株式会社ブラスト,,株式会社,兵庫県,神戸市中央区,元町通７丁目１－２ネオアージュ神戸元町６階,,28,110,6500022,,,,,,,2022-01-31,1,,,,,ブラスト,0
1670,5160003002485,新規,0,2022-01-31,2022-01-31,合同会社ＫＡＮＳＡＩ　ＴＲＡＤＩＮＧ,,合同会社,滋賀県,湖南市,柑子袋東２丁目４－８,,25,211,5203236,,,,,,,2022-01-31,1,,,,,カンサイトレディング,0
1680,5180001149748,新規,0,2022-01-31,2022-01-31,株式会社池田建材,,株式会社,愛知県,一宮市,北今字西田面一ノ切３７番地５,,23,203,4940004,,,,,,,2022-01-31,1,,,,,イケダケンザイ,0
1681,5180001149756,新規,0,2022-01-31,2022-01-31,ＫＡＴＡＯＫＡトレーディング株式会社,,株式会社,愛知県,津島市,片岡町６０番地,,23,208,4960813,,,,,,,2022-01-31,1,,,,,カタオカトレーディング,0
1682,5180001149780,新規,0,2022-01-31,2022-01-31,株式会社レイズインベストメント,,株式会社,愛知県,名古屋市昭和区,隼人町８番地５,,23,107,4660833,,,,,,,2022-01-31,1,,,,,レイズインベストメント,0
1684,5180003023439,新規,0,2022-01-31,2022-01-31,合同会社ＢＡＲＳＨＡ　Ｉｎｔｅｒｎａｔｉｏｎａｌ,,合同会社,愛知県,名古屋市中区,千代田２丁目１５番１７号ＳＵＺＵＫＩビル２ＦＢ,,23,106,4600012,,,,,,,2022-01-31,1,,,,,バルサインターナショナル,0
1685,5180003023447,新規,0,2022-01-31,2022-01-31,宇明浩合同会社,,合同会社,愛知県,犬山市,大字犬山字甲塚４６番地１,,23,215,4840081,,,,,,,2022-01-31,1,,,,,ウメイコウ,0
1696,5210001018800,新規,0,2022-01-31,2022-01-31,Ａｋｉｎａ’ｓＪａｐａｎ株式会社,,株式会社,福井県,越前市,本多１丁目９番１６号,,18,209,9150811,,,,,,,2022-01-31,1,,,,,アキナズジャパン,0
1700,5220003003196,新規,0,2022-01-31,2022-01-31,合同会社ＳＤＧｓＪＡＣＫ,,合同会社,石川県,金沢市,上安原２丁目２６４,,17,201,9200370,,,,,,,2022-01-31,1,,,,,エスディージーズジャック,0
1703,5230001019210,新規,0,2022-01-31,2022-01-31,呉羽株式会社,,株式会社,富山県,富山市,呉羽町３６７４番地１,,16,201,9300138,,,,,,,2022-01-31,1,,,,,クレハ,0
1707,5240001059255,新規,0,2022-01-31,2022-01-31,株式会社ありがとう,,株式会社,広島県,福山市,坪生町１丁目２６番６号,,34,207,7210903,,,,,,,2022-01-31,1,,,,,アリガトウ,0
1722,5290001096260,新規,0,2022-01-31,2022-01-31,株式会社ｉｍａｇｉｎｅ,,株式会社,福岡県,福岡市城南区,別府６丁目１３番２７－２０４号,,40,136,8140104,,,,,,,2022-01-31,1,,,,,イマジン,0
1723,5290001096269,新規,0,2022-01-31,2022-01-31,株式会社ＬｅａＤｅｌｉｇｈｔ,,株式会社,福岡県,福岡市博多区,博多駅前１丁目１８番１－８１６号,,40,132,8120011,,,,,,,2022-01-31,1,,,,,レアディライト,0
1724,5290001096277,新規,0,2022-01-31,2022-01-31,株式会社アサヒホームテクノ,,株式会社,福岡県,福岡市南区,塩原３丁目９番２６号石橋ビル１Ｆ,,40,134,8150032,,,,,,,2022-01-31,1,,,,,アサヒホームテクノ,0
1727,5290003012083,新規,0,2022-01-31,2022-01-31,合同会社鍼灸スタジオスリーエス,,合同会社,福岡県,福岡市東区,名島２丁目３４番１９号,,40,131,8130043,,,,,,,2022-01-31,1,,,,,シンキュウスタジオスリーエス,0
1728,5290003012091,新規,0,2022-01-31,2022-01-31,３２ｎｄ合同会社,,合同会社,福岡県,久留米市,原古賀町２０番地１６ツインタワー久留米１２０２号,,40,203,8300046,,,,,,,2022-01-31,1,,,,,サーティーセカンド,0
1732,5320003003715,新規,0,2022-01-31,2022-01-31,ａｎｄｌｉｆｅ合同会社,,合同会社,大分県,大分市,判田台南２丁目２番５号,,44,201,8701109,,,,,,,2022-01-31,1,,,,,アンドライフ,0
1733,5330005010460,新規,0,2022-01-31,2022-01-31,農事組合法人上内田ファーム,,その他の設立登記法人,熊本県,山鹿市,菊鹿町上内田４６４０番地,,43,208,8610414,,,,,,,2022-01-31,1,,,,,カミウチダファーム,0
1734,5360001029956,新規,0,2022-01-31,2022-01-31,株式会社Ｔ２８,,株式会社,沖縄県,豊見城市,字豊崎３番地の５９,,47,212,9010225,,,,,,,2022-01-31,1,,,,,ティーニジュウハチ,0
1743,5380001032537,新規,0,2022-01-31,2022-01-31,Ｉｒｉｓ株式会社,,株式会社,福島県,いわき市,平赤井字反町２２番地の１４,,07,204,9793131,,,,,,,2022-01-31,1,,,,,アイリス,0
1749,5430001085901,新規,0,2022-01-31,2022-01-31,株式会社長野メンテナンス,,株式会社,北海道,札幌市東区,東雁来十四条２丁目１５番１７号,,01,103,0070034,,,,,,,2022-01-31,1,,,,,ナガノメンテナンス,0
1754,5460305001972,新規,0,2022-01-31,2022-01-31,特定非営利活動法人オホーツクウエルネス,,その他の設立登記法人,北海道,北見市,美芳町６丁目６番１５号,,01,208,0900064,,,,,,,2022-01-31,1,,,,,,0
1755,5480003001785,新規,0,2022-01-31,2022-01-31,合同会社岡部ｗｏｒｋ,,合同会社,徳島県,徳島市,川内町加賀須野４５４－３林マンション１Ｆ－Ｔ２,,36,201,7710130,,,,,,,2022-01-31,1,,,,,オカベワーク,0
1760,5700150106868,新規,0,2022-01-31,2022-01-31,ＥＶＥＲＥＳＴ　ＴＲＡＤＥ　ＣＥＮＴＲＥ,,外国会社等,千葉県,旭市,清和甲１６３２－２－４,,12,215,2890507,スリランカ民主社会主義共和国カラゲディヘナ、ティハリヤ、ハラパラナロードＮｏ．２２５／Ａ／２,,,,,,2022-01-31,1,,,,,エベレストトレードセンター,0
1766,6010001224244,新規,0,2022-01-31,2022-01-31,株式会社ワタシラシク,,株式会社,東京都,千代田区,平河町１丁目６番１５号ＵＳビル８Ｆ,,13,101,1020093,,,,,,,2022-01-31,1,,,,,ワタシラシク,0
1784,6010401165278,新規,0,2022-01-31,2022-01-31,Ｅｖｅｒｇｒｅｅｎ株式会社,,株式会社,東京都,港区,三田５丁目３－８－１０８,,13,103,1080073,,,,,,,2022-01-31,1,,,,,エバーグリーン,0
1785,6010401165286,新規,0,2022-01-31,2022-01-31,ＫＤＤＩスマートドローン株式会社,,株式会社,東京都,港区,虎ノ門１丁目１７番１号,,13,103,1050001,,,,,,,2022-01-31,1,,,,,ケイディーディーアイスマートドローン,0
1786,6010401165311,新規,0,2022-01-31,2022-01-31,株式会社防災ホールディングス,,株式会社,東京都,港区,赤坂８丁目６番１７－５０１号,,13,103,1070052,,,,,,,2022-01-31,1,,,,,ボウサイホールディングス,0
1788,6010403027006,新規,0,2022-01-31,2022-01-31,合同会社ＰＬＡＴＩＮＵＭ　ＳＥＲＶＩＣＥＳ,,合同会社,東京都,港区,高輪３丁目１番１７号,,13,103,1080074,,,,,,,2022-01-31,1,,,,,プラチナムサービス,0
1789,6010405020628,新規,0,2022-01-31,2022-01-31,一般社団法人たよなん,,その他の設立登記法人,東京都,港区,南青山２丁目２－１５ＷＩＮ青山５３１,,13,103,1070062,,,,,,,2022-01-31,1,,,,,タヨナン,0
1794,6010501048390,新規,0,2022-01-31,2022-01-31,京商物流株式会社,,株式会社,東京都,台東区,台東３丁目５－１０,,13,106,1100016,,,,,,,2022-01-31,1,,,,,キョウショウブツリュウ,0
1796,6010601060584,新規,0,2022-01-31,2022-01-31,ハーモニー株式会社,,株式会社,東京都,江東区,東陽１丁目２３番１１号,,13,108,1350016,,,,,,,2022-01-31,1,,,,,ハーモニー,0
1803,6010803004042,新規,0,2022-01-31,2022-01-31,合同会社ＷｏｎｄｅｒＢｏｘ,,合同会社,東京都,大田区,大森北４丁目２２番１８号,,13,111,1430016,,,,,,,2022-01-31,1,,,,,ワンダーボックス,0
1807,6010903007110,新規,0,2022-01-31,2022-01-31,合同会社Ａｎｃｈｏｒ,,合同会社,東京都,世田谷区,深沢８丁目１０番５号,,13,112,1580081,,,,,,,2022-01-31,1,,,,,アンカー,0
1812,6011001144969,新規,0,2022-01-31,2022-01-31,株式会社タラントン,,株式会社,東京都,渋谷区,上原２丁目１４番９号,,13,113,1510064,,,,,,,2022-01-31,1,,,,,タラントン,0
1813,6011001145257,新規,0,2022-01-31,2022-01-31,株式会社ＰＬＵＳ　ＢＡＳＥ,,株式会社,東京都,渋谷区,円山町５番５号Ｎａｖｉ渋谷Ｖ３階,,13,113,1500044,,,,,,,2022-01-31,1,,,,,プラスペース,0
1814,6011001145315,新規,0,2022-01-31,2022-01-31,株式会社ワイヤフレーム,,株式会社,東京都,渋谷区,道玄坂１丁目１０番８号渋谷道玄坂東急ビル２Ｆ－Ｃ,,13,113,1500043,,,,,,,2022-01-31,1,,,,,ワイヤフレーム,0
1815,6011001145389,新規,0,2022-01-31,2022-01-31,Ｓ－ＲＩＤＥ株式会社,,株式会社,東京都,渋谷区,初台２丁目２７番５号,,13,113,1510061,,,,,,,2022-01-31,1,,,,,エスライド,0
1818,6011003014039,新規,0,2022-01-31,2022-01-31,合同会社ＧＩＦＴ,,合同会社,東京都,渋谷区,松濤１丁目２８－１４ＪＰ－ＢＡＳＥ渋谷松濤３０４,,13,113,1500046,,,,,,,2022-01-31,1,,,,,ギフト,0
1819,6011005009409,新規,0,2022-01-31,2022-01-31,一般社団法人社宅ビジネス協議会,,その他の設立登記法人,東京都,渋谷区,渋谷２丁目１６番５号宮益坂プレイス渋谷９階,,13,113,1500002,,,,,,,2022-01-31,1,,,,,シャタクビジネスキョウギカイ,0
1820,6011105010126,新規,0,2022-01-31,2022-01-31,一般社団法人ＣＨＡＲＭ,,その他の設立登記法人,東京都,新宿区,新宿５丁目１８番２０号,,13,104,1600022,,,,,,,2022-01-31,1,,,,,シャルム,0
1822,6011701024990,新規,0,2022-01-31,2022-01-31,株式会社吉田工業,,株式会社,東京都,江戸川区,南小岩４丁目２番１７号千石ハイツ１０２,,13,123,1330056,,,,,,,2022-01-31,1,,,,,,0
1826,6011801040260,新規,0,2022-01-31,2022-01-31,株式会社ＯＧＡＷＡＲＡ,,株式会社,東京都,葛飾区,青戸４丁目１０番１１号,,13,122,1250062,,,,,,,2022-01-31,1,,,,,オガワラ,0
1830,6013101008839,新規,0,2022-01-31,2022-01-31,ライブデバイスネットワーク株式会社,,株式会社,東京都,あきる野市,小中野６８－１,,13,228,1900165,,,,,,,2022-01-31,1,,,,,ライブデバイスネットワーク,0
1841,6020001145035,新規,0,2022-01-31,2022-01-31,株式会社Ｌｉｅｎ,,株式会社,神奈川県,横浜市港北区,箕輪町２丁目２０番２７－２１２号ナイスステージ日吉ウィング,,14,109,2230051,,,,,,,2022-01-31,1,,,,,リアン,0
1844,6020003021192,新規,0,2022-01-31,2022-01-31,ジョイスティック・ネイション合同会社,,合同会社,神奈川県,横浜市南区,永田北２丁目２６番７号,,14,105,2320071,,,,,,,2022-01-31,1,,,,,ジョイスティックネイション,0
1845,6020003021218,新規,0,2022-01-31,2022-01-31,合同会社ＲＩＴＡ,,合同会社,神奈川県,川崎市中原区,下沼部１９４９番地１－３１６号,,14,133,2110011,,,,,,,2022-01-31,1,,,,,リタ,0
1846,6020003021226,新規,0,2022-01-31,2022-01-31,合同会社ブガーキャット,,合同会社,神奈川県,横浜市西区,南幸２丁目２０番１５－４０４号,,14,103,2200005,,,,,,,2022-01-31,1,,,,,ブガーキャット,0
1877,6030001146552,新規,0,2022-01-31,2022-01-31,株式会社ｎｅｘｔｎａｖｉ,,株式会社,埼玉県,さいたま市浦和区,常盤２丁目３番７号,,11,107,3300061,,,,,,,2022-01-31,1,,,,,ネクストナビ,0
1878,6030001146577,新規,0,2022-01-31,2022-01-31,株式会社ＢＢＤ,,株式会社,埼玉県,川口市,大字伊刈８０１フォンターナ伍番館１０２,,11,203,3330865,,,,,,,2022-01-31,1,,,,,ビービーディ,0
1915,6030003018741,新規,0,2022-01-31,2022-01-31,Ｌｉｆｅ　Ｌａｂ合同会社,,合同会社,埼玉県,戸田市,美女木５丁目１１番地の４,,11,224,3350031,,,,,,,2022-01-31,1,,,,,ライフラボ,0
1927,6040001122008,新規,0,2022-01-31,2022-01-31,Ａｍｅｌｌｉｓ株式会社,,株式会社,千葉県,鎌ケ谷市,新鎌ケ谷１丁目１０－２６新鎌スカイタワー１Ｆ,,12,224,2730107,,,,,,,2022-01-31,1,,,,,アメリス,0
1928,6040001122016,新規,0,2022-01-31,2022-01-31,株式会社流通ビジネス研究所,,株式会社,千葉県,我孫子市,白山１丁目２９番１５号サレジエム３０２,,12,222,2701154,,,,,,,2022-01-31,1,,,,,リュウツウビジネスケンキュウジョ,0
1932,6040003019367,新規,0,2022-01-31,2022-01-31,合同会社Ｒａｍｅｎ　ＢＯＸ,,合同会社,千葉県,市川市,八幡２丁目１２番８号上杉ビル,,12,203,2720021,,,,,,,2022-01-31,1,,,,,ラーメンボックス,0
1940,6080001024720,新規,0,2022-01-31,2022-01-31,エネテックＫＫＣ株式会社,,株式会社,静岡県,静岡市清水区,茂畑１８４番地の１,,22,103,4240101,,,,,,,2022-01-31,1,,,,,エネテックケイケイシイ,0
1942,6080401025590,新規,0,2022-01-31,2022-01-31,六花トレーディング株式会社,,株式会社,静岡県,浜松市浜北区,小松２８番地の１,,22,136,4340042,,,,,,,2022-01-31,1,,,,,リッカトレーディング,0
1945,6090005007464,新規,0,2022-01-31,2022-01-31,ＮＰＯ法人清水館,,その他の設立登記法人,山梨県,南アルプス市,清水２４４番地,,19,208,4000417,,,,,,,2022-01-31,1,,,,,シミズカン,0
1947,6100003006391,新規,0,2022-01-31,2022-01-31,合同会社Ｓｍａｒｔ　Ｖａｌｌｅｙ,,合同会社,長野県,上田市,古里７２番地２０,,20,203,3860005,,,,,,,2022-01-31,1,,,,,スマートバレー,0
1948,6110001036398,新規,0,2022-01-31,2022-01-31,株式会社おんわび建築事務所,,株式会社,新潟県,新潟市江南区,元町５丁目１番２４号,,15,104,9500143,,,,,,,2022-01-31,1,,,,,オンワビケンチクジムショ,0
1954,6120001243464,新規,0,2022-01-31,2022-01-31,株式会社ＭＹＴ,,株式会社,大阪府,大阪市平野区,流町４丁目８番６号,,27,126,5470032,,,,,,,2022-01-31,1,,,,,エムワイティ,0
1955,6120001243480,新規,0,2022-01-31,2022-01-31,Ａｌａｄｄｉｎ株式会社,,株式会社,大阪府,大阪市西成区,松１丁目４番８号－１Ｆ,,27,122,5570034,,,,,,,2022-01-31,1,,,,,アラジン,0
1956,6120001243489,新規,0,2022-01-31,2022-01-31,富士ホールディングス株式会社,,株式会社,大阪府,大阪市北区,堂島浜１丁目４番１６号アクア堂島ビル西館,,27,127,5300004,,,,,,,2022-01-31,1,,,,,フジホールディングス,0
1957,6120001243506,新規,0,2022-01-31,2022-01-31,株式会社ナカモト,,株式会社,大阪府,大阪市中央区,博労町３丁目５番１号,,27,128,5410059,,,,,,,2022-01-31,1,,,,,ナカモト,0
1958,6120001243514,新規,0,2022-01-31,2022-01-31,株式会社ベイハウス,,株式会社,大阪府,大阪市港区,弁天４丁目１２番６号,,27,107,5520007,,,,,,,2022-01-31,1,,,,,ベイハウス,0
1959,6120001243547,新規,0,2022-01-31,2022-01-31,一寧株式会社,,株式会社,大阪府,大阪市北区,天満２丁目１－１２天満橋ＳＥビル４階,,27,127,5300043,,,,,,,2022-01-31,1,,,,,イチネイ,0
1962,6120003021026,新規,0,2022-01-31,2022-01-31,ＴＭＲ合同会社,,合同会社,大阪府,大阪市住吉区,帝塚山中１丁目４番１０号,,27,120,5580053,,,,,,,2022-01-31,1,,,,,ティーエムアール,0
1963,6120005022749,新規,0,2022-01-31,2022-01-31,医療法人ダイヤモンド,,その他の設立登記法人,大阪府,大阪市西区,北堀江１丁目２番１７号,,27,106,5500014,,,,,,,2022-01-31,1,,,,,ダイヤモンド,0
1965,6120101065016,新規,0,2022-01-31,2022-01-31,株式会社ＹＩＺ,,株式会社,大阪府,泉大津市,楠町東１番２５号,,27,206,5950039,,,,,,,2022-01-31,1,,,,,ワイズ,0
1967,6120105009514,新規,0,2022-01-31,2022-01-31,医療法人晴天会,,その他の設立登記法人,大阪府,堺市北区,中百舌鳥町３丁３４１番地１,,27,146,5918023,,,,,,,2022-01-31,1,,,,,セイテンカイ,0
1970,6120901045522,新規,0,2022-01-31,2022-01-31,株式会社日本シビル,,株式会社,大阪府,豊中市,服部西町１丁目９番４６号,,27,203,5610858,,,,,,,2022-01-31,1,,,,,ニホンシビル,0
1990,6140001124737,新規,0,2022-01-31,2022-01-31,株式会社こはる,,株式会社,兵庫県,神戸市兵庫区,塚本通６丁目１番３－１０１,,28,105,6520804,,,,,,,2022-01-31,1,,,,,コハル,0
2001,6140003017286,新規,0,2022-01-31,2022-01-31,合同会社ＴＳＬ,,合同会社,兵庫県,加古川市,平岡町土山６５番地の５４,,28,210,6750104,,,,,,,2022-01-31,1,,,,,ティーエスエル,0
2002,6140003017294,新規,0,2022-01-31,2022-01-31,合同会社Ｂｏｎｈｅｕｒ,,合同会社,兵庫県,尼崎市,南塚口町７丁目２０番１３号,,28,202,6610012,,,,,,,2022-01-31,1,,,,,ボヌール,0
2016,6180001149714,新規,0,2022-01-31,2022-01-31,Ｍｉｃｒｏｌｅｎｔ　Ｓｙｓｔｅｍｓ　Ｊａｐａｎ株式会社,,株式会社,愛知県,名古屋市中区,栄３丁目２－３名古屋日興證券ビル４階,,23,106,4600008,,,,,,,2022-01-31,1,,,,,マイクロレントシステムズジャパン,0
2017,6180001149763,新規,0,2022-01-31,2022-01-31,日本金メダル株式会社,,株式会社,愛知県,名古屋市中区,栄１丁目１６番１６号チサンマンション栄２０７号,,23,106,4600008,,,,,,,2022-01-31,1,,,,,ニホンキンメダル,0
2018,6180001149788,新規,0,2022-01-31,2022-01-31,株式会社マルアキ,,株式会社,愛知県,名古屋市中川区,柳川町１７番３号,,23,110,4540014,,,,,,,2022-01-31,1,,,,,マルアキ,0
2020,6180003023446,新規,0,2022-01-31,2022-01-31,合同会社リンガーベルズ,,合同会社,愛知県,一宮市,浜町５丁目９番地６,,23,203,4910034,,,,,,,2022-01-31,1,,,,,リンガーベルズ,0
2044,6250005008719,新規,0,2022-01-31,2022-01-31,一般社団法人大津あきら顕彰会,,その他の設立登記法人,山口県,長門市,仙崎１１０４番地２,,35,211,7594106,,,,,,,2022-01-31,1,,,,,オオツアキラケンショウカイ,0
2045,6260003003786,新規,0,2022-01-31,2022-01-31,輝給与計算合同会社,,合同会社,岡山県,岡山市北区,宿６５９－１２,,33,101,7000001,,,,,,,2022-01-31,1,,,,,カガヤキキュウヨケイサン,0
2051,6290001096227,新規,0,2022-01-31,2022-01-31,株式会社ピンポンウォッシュ,,株式会社,福岡県,飯塚市,楽市１３９－１,,40,205,8200074,,,,,,,2022-01-31,1,,,,,ピンポンウォッシュ,0
2055,6290003012041,新規,0,2022-01-31,2022-01-31,合同会社エモシナ,,合同会社,福岡県,福岡市博多区,祇園町２－２２ヤグラモンＢＬＤ２０６,,40,132,8120038,,,,,,,2022-01-31,1,,,,,エモシナ,0
2059,6290801028214,新規,0,2022-01-31,2022-01-31,株式会社希咲,,株式会社,福岡県,北九州市八幡西区,茶屋の原２丁目１３番１５号Ａ１０２,,40,109,8071134,,,,,,,2022-01-31,1,,,,,キサキ,0
2060,6310001017691,新規,0,2022-01-31,2022-01-31,九十九粋究食品株式会社,,株式会社,長崎県,佐世保市,小佐々町楠泊１９２７番地２,,42,202,8570413,,,,,,,2022-01-31,1,,,,,ツクモイッキュウショクヒン,0
2062,6330001029396,新規,0,2022-01-31,2022-01-31,株式会社ワークウィズ,,株式会社,熊本県,八代市,鏡町下有佐３４５番地１（２０１）,,43,202,8694212,,,,,,,2022-01-31,1,,,,,ワークウィズ,0
2068,6360001029947,新規,0,2022-01-31,2022-01-31,株式会社てぃーだカンカン不動産糸満,,株式会社,沖縄県,沖縄市,泡瀬２丁目５２番１９号,,47,211,9042172,,,,,,,2022-01-31,1,,,,,ティーダカンカンフドウサンイトマン,0
2070,6360003011770,新規,0,2022-01-31,2022-01-31,ハイサイキッチン合同会社,,合同会社,沖縄県,那覇市,久米１丁目７－２１赤嶺ビル２０１,,47,201,9000033,,,,,,,2022-01-31,1,,,,,,0
2075,6370001048120,新規,0,2022-01-31,2022-01-31,風手土株式会社,,株式会社,宮城県,仙台市宮城野区,岡田字浜通４５番地の３,,04,102,9830003,,,,,,,2022-01-31,1,,,,,カゼテツチ,0
2077,6370003005573,新規,0,2022-01-31,2022-01-31,合同会社Ｊａｐａｎ　Ｊｉｄｏｕｓｈａ,,合同会社,宮城県,宮城郡利府町,加瀬字十三塚１０５番地８,,04,406,9810111,,,,,,,2022-01-31,1,,,,,ジャパンジドウシャ,0
2084,6420003002441,新規,0,2022-01-31,2022-01-31,合同会社まるちょう,,合同会社,青森県,八戸市,類家４丁目１１番４号,,02,203,0310001,,,,,,,2022-01-31,1,,,,,マルチョウ,0
2088,6430001085818,新規,0,2022-01-31,2022-01-31,株式会社ヒューマニティープラットフォーム,,株式会社,北海道,札幌市白石区,東札幌一条４丁目２番１－３０７号,,01,104,0030001,,,,,,,2022-01-31,1,,,,,ヒューマニティープラットフォーム,0
2089,6430001085891,新規,0,2022-01-31,2022-01-31,株式会社ＴＨＥ　ＳＴＯＲＹ,,株式会社,北海道,札幌市中央区,南三条東２丁目１番地サンシャインビル３０９号,,01,101,0600053,,,,,,,2022-01-31,1,,,,,ザストーリー,0
2090,6430001085900,新規,0,2022-01-31,2022-01-31,アルコバレーノ株式会社,,株式会社,北海道,札幌市中央区,南二条西１丁目６番地１１,,01,101,0600062,,,,,,,2022-01-31,1,,,,,アルコバレーノ,0
2093,6430003013578,新規,0,2022-01-31,2022-01-31,合同会社Ｗｉ,,合同会社,北海道,夕張市,沼ノ沢３７４番地,,01,209,0680751,,,,,,,2022-01-31,1,,,,,ウィ,0
2094,6430005014384,新規,0,2022-01-31,2022-01-31,一般社団法人ぷらはる３,,その他の設立登記法人,北海道,札幌市白石区,東札幌二条６丁目７番１４号第２トーホービル５０５号,,01,104,0030002,,,,,,,2022-01-31,1,,,,,プラハルサン,0
2101,6700150106875,新規,0,2022-01-31,2022-01-31,ＦＩＮＺ　ＬＡＮＫＡ　ＩＮＴＥＲＮＡＴＩＯＮＡＬ　ＰＶＴ　ＬＴＤ,,外国会社等,千葉県,旭市,清和甲１６３２－２－１,,12,215,2890507,スリランカ民主社会主義共和国キャンディ、アクラーナ、ブルゴホテナ３５０／５,,,,,,2022-01-31,1,,,,,フインズランカインタナシヨナルピーヴイテイエルテイデイ,0
2108,7010003036876,新規,0,2022-01-31,2022-01-31,合同会社キーリップス,,合同会社,東京都,中央区,銀座６丁目１３番１６号銀座ＷａｌｌビルＵＣＦ５０１,,13,102,1040061,,,,,,,2022-01-31,1,,,,,キーリップス,0
2110,7010005034531,新規,0,2022-01-31,2022-01-31,一般社団法人ＣＩＥＣＪａｐａｎ,,その他の設立登記法人,東京都,千代田区,麹町２丁目１２番地１,,13,101,1020083,,,,,,,2022-01-31,1,,,,,シーアイイーシージャパン,0
2120,7010401165211,新規,0,2022-01-31,2022-01-31,株式会社Ｎｏ．３,,株式会社,東京都,港区,港南４丁目６番３－１００３号,,13,103,1080075,,,,,,,2022-01-31,1,,,,,ナンバースリー,0
2121,7010401165252,新規,0,2022-01-31,2022-01-31,株式会社ＴＫ　Ｈｏｌｄｉｎｇｓ,,株式会社,東京都,港区,北青山１丁目６番５－１０４号,,13,103,1070061,,,,,,,2022-01-31,1,,,,,ティーケイホールディングス,0
2122,7010601060583,新規,0,2022-01-31,2022-01-31,株式会社ワンデイジャパン,,株式会社,東京都,江東区,大島１丁目２９番４－１３０７号,,13,108,1360072,,,,,,,2022-01-31,1,,,,,ワンデイジャパン,0
2124,7010603009364,新規,0,2022-01-31,2022-01-31,合同会社カメヤ,,合同会社,東京都,墨田区,立花２丁目１番１１号,,13,107,1310043,,,,,,,2022-01-31,1,,,,,カメヤ,0
2127,7010703006088,新規,0,2022-01-31,2022-01-31,合同会社宿場プラス,,合同会社,東京都,品川区,北品川１丁目２２番１６号,,13,109,1400001,,,,,,,2022-01-31,1,,,,,シュクバプラス,0
2130,7010801032688,新規,0,2022-01-31,2022-01-31,株式会社イマモト,,株式会社,東京都,大田区,山王１丁目４１－１２,,13,111,1430023,,,,,,,2022-01-31,1,,,,,イマモト,0
2135,7010901050251,新規,0,2022-01-31,2022-01-31,株式会社ＡＮ,,株式会社,東京都,世田谷区,三軒茶屋１丁目３２番７号ダイナシティ三軒茶屋１１０１,,13,112,1540024,,,,,,,2022-01-31,1,,,,,エーエヌ,0
2147,7011001145099,新規,0,2022-01-31,2022-01-31,株式会社スポーツ医学,,株式会社,東京都,渋谷区,代々木１丁目１２番３号,,13,113,1510053,,,,,,,2022-01-31,1,,,,,スポーツイガク,0
2148,7011001145215,新規,0,2022-01-31,2022-01-31,株式会社Ｓａｌｔ　ａｎｄ　Ｓｕｇａｒ　Ｓｔｕｄｉｏ,,株式会社,東京都,渋谷区,恵比寿１丁目１５番９号日宝恵比寿ビル４０３,,13,113,1500013,,,,,,,2022-01-31,1,,,,,ソルトアンドシュガースタジオ,0
2149,7011001145339,新規,0,2022-01-31,2022-01-31,コレクティブインパクトストラテジー株式会社,,株式会社,東京都,渋谷区,神宮前６丁目２３番４号桑野ビル２階,,13,113,1500001,,,,,,,2022-01-31,1,,,,,コレクティブインパクトストラテジー,0
2150,7011001145388,新規,0,2022-01-31,2022-01-31,株式会社イール,,株式会社,東京都,渋谷区,宇田川町３番７号ヒューリック渋谷公園通りビル５Ｆ－２５,,13,113,1500042,,,,,,,2022-01-31,1,,,,,イール,0
2153,7011201023600,新規,0,2022-01-31,2022-01-31,株式会社ＷＥＳＴ,,株式会社,東京都,中野区,野方３丁目１３番８号１０１,,13,114,1650027,,,,,,,2022-01-31,1,,,,,ウエスト,0
2154,7011203003740,新規,0,2022-01-31,2022-01-31,合同会社Ｔ．ＣＬＵＢ,,合同会社,東京都,中野区,本町１丁目２番２号,,13,114,1640012,,,,,,,2022-01-31,1,,,,,ティドットクラブ,0
2157,7011601025709,新規,0,2022-01-31,2022-01-31,Ｔ＆Ｙ株式会社,,株式会社,東京都,練馬区,旭町２丁目４２番５号２０５号室,,13,120,1790071,,,,,,,2022-01-31,1,,,,,ティーアンドワイ,0
2170,7013103001106,新規,0,2022-01-31,2022-01-31,合同会社日本和紙造形研究所,,合同会社,東京都,西多摩郡日の出町,大字大久保６４３６番地,,13,305,1900100,,,,,,,2022-01-31,1,,,,,ニホンワシゾウケイケンキュウショ,0
2176,7020001145026,新規,0,2022-01-31,2022-01-31,株式会社ドライリーフ,,株式会社,神奈川県,横浜市保土ケ谷区,坂本町２３７番地,,14,106,2400043,,,,,,,2022-01-31,1,,,,,ドライリーフ,0
2179,7020003021225,新規,0,2022-01-31,2022-01-31,ＮＨＡＴＭＩＮＨ合同会社,,合同会社,神奈川県,川崎市川崎区,貝塚１丁目８番５号安倍ビル４０４,,14,131,2100014,,,,,,,2022-01-31,1,,,,,ニャットミン,0
2183,7021001075056,新規,0,2022-01-31,2022-01-31,株式会社ＧＲＡＴＵＰ　ＤＥＳＩＧＮ,,株式会社,神奈川県,横須賀市,三春町２丁目１－４第一大谷ビル２Ｆ,,14,201,2380014,,,,,,,2022-01-31,1,,,,,グラートアップデザイン,0
2207,7030001146353,新規,0,2022-01-31,2022-01-31,株式会社ＵＬＴ,,株式会社,埼玉県,所沢市,旭町７－７フェアコートＧ２０１,,11,208,3590036,,,,,,,2022-01-31,1,,,,,ウルト,0
2208,7030001146527,新規,0,2022-01-31,2022-01-31,株式会社Ｍｏｔｏ　Ｌｅａｄ,,株式会社,埼玉県,さいたま市西区,宮前町８５２番地５,,11,101,3310046,,,,,,,2022-01-31,1,,,,,モトリード,0
2242,7030003018740,新規,0,2022-01-31,2022-01-31,合同会社美創テック,,合同会社,埼玉県,川口市,大字安行慈林７３７番地の１テラスビューＢ１０２号,,11,203,3340071,,,,,,,2022-01-31,1,,,,,ミソウテック,0
2243,7030003018749,新規,0,2022-01-31,2022-01-31,合同会社リープ,,合同会社,埼玉県,熊谷市,広瀬５１４番地１,,11,202,3600833,,,,,,,2022-01-31,1,,,,,リープ,0
2253,7040001121999,新規,0,2022-01-31,2022-01-31,株式会社エングラウンド,,株式会社,千葉県,千葉市中央区,弁天３丁目２番１４号,,12,101,2600045,,,,,,,2022-01-31,1,,,,,エングラウンド,0
2254,7040001122015,新規,0,2022-01-31,2022-01-31,株式会社ＳＰＥＳ　ＪＡＰＡＮ,,株式会社,千葉県,八千代市,上高野１０９７番地５０,,12,221,2760022,,,,,,,2022-01-31,1,,,,,スペースジャパン,0
2255,7040001122023,新規,0,2022-01-31,2022-01-31,株式会社ウェルビー,,株式会社,千葉県,千葉市緑区,あすみが丘２丁目４３番地１０,,12,105,2670066,,,,,,,2022-01-31,1,,,,,ウェルビー,0
2257,7040003019390,新規,0,2022-01-31,2022-01-31,合同会社ｂｒｉｌｌｉａ,,合同会社,千葉県,柏市,逆井４丁目２６番６０号,,12,217,2770042,,,,,,,2022-01-31,1,,,,,ブリリア,0
2258,7040003019399,新規,0,2022-01-31,2022-01-31,合同会社クローバー,,合同会社,千葉県,佐倉市,山王１丁目８－１０,,12,212,2850807,,,,,,,2022-01-31,1,,,,,クローバー,0
2266,7070003004365,新規,0,2022-01-31,2022-01-31,合同会社北小泉グリーンファーム,,合同会社,群馬県,邑楽郡大泉町,北小泉１丁目７番３１号,,10,524,3700511,,,,,,,2022-01-31,1,,,,,キタコイズミグリーンファーム,0
2270,7090001017391,新規,0,2022-01-31,2022-01-31,株式会社Ｇｒｏｗ　ｕＰ,,株式会社,山梨県,笛吹市,石和町唐柏４７５番地２,,19,211,4060034,,,,,,,2022-01-31,1,,,,,グローアップ,0
2273,7100003006390,新規,0,2022-01-31,2022-01-31,合同会社とうきち,,合同会社,長野県,北佐久郡御代田町,大字御代田２５６８－１７１－２０３アメージング西軽井沢,,20,323,3890206,,,,,,,2022-01-31,1,,,,,トウキチ,0
2275,7100005012817,新規,0,2022-01-31,2022-01-31,特定非営利活動法人出番ですよ,,その他の設立登記法人,長野県,上田市,本郷１５２４番地１、特定非営利活動法人侍学園スクオーラ・今人内,,20,203,3861323,,,,,,,2022-01-31,1,,,,,デバンデスヨ,0
2277,7110003004690,新規,0,2022-01-31,2022-01-31,合同会社ＮＴＳサービス,,合同会社,新潟県,新潟市中央区,女池８丁目２番７号ダイアパレス女池１０５,,15,103,9500941,,,,,,,2022-01-31,1,,,,,エヌティーエスサービス,0
2283,7120001243439,新規,0,2022-01-31,2022-01-31,株式会社ジーテック,,株式会社,大阪府,大阪市生野区,生野東１丁目１番３０号１号館１１０７号室,,27,116,5440025,,,,,,,2022-01-31,1,,,,,ジーテック,0
2284,7120001243463,新規,0,2022-01-31,2022-01-31,株式会社ＳＴＡＲＴＲＹ,,株式会社,大阪府,大阪市浪速区,難波中２丁目６番１５－６０３号,,27,111,5560011,,,,,,,2022-01-31,1,,,,,スタートライ,0
2285,7120001243505,新規,0,2022-01-31,2022-01-31,株式会社Ｋ＆Ａ,,株式会社,大阪府,大阪市中央区,北浜２丁目２番２１－３２０１号,,27,128,5410041,,,,,,,2022-01-31,1,,,,,ケーアンドエー,0
2286,7120001243513,新規,0,2022-01-31,2022-01-31,ｇｏｄ　ｅｓｔａｔｅ株式会社,,株式会社,大阪府,大阪市北区,豊崎７丁目７番１号,,27,127,5310072,,,,,,,2022-01-31,1,,,,,ジーオーディーエステート,0
2287,7120001243538,新規,0,2022-01-31,2022-01-31,株式会社丸カクテル,,株式会社,大阪府,大阪市浪速区,日本橋５丁目１４番１６号,,27,111,5560005,,,,,,,2022-01-31,1,,,,,マルカクテル,0
2290,7120003021041,新規,0,2022-01-31,2022-01-31,ＴＴｏｏ合同会社,,合同会社,大阪府,枚方市,星丘２丁目３４番２３号,,27,210,5730013,,,,,,,2022-01-31,1,,,,,トゥー,0
2297,7120103004549,新規,0,2022-01-31,2022-01-31,合同会社ケノヴィア,,合同会社,大阪府,岸和田市,春木旭町１２番５７号,,27,202,5960005,,,,,,,2022-01-31,1,,,,,ケノヴィア,0
2304,7120903004021,新規,0,2022-01-31,2022-01-31,合同会社ＦＲＴ,,合同会社,大阪府,池田市,緑丘２丁目４番９号,,27,204,5630026,,,,,,,2022-01-31,1,,,,,エフアールティー,0
2307,7130001071005,新規,0,2022-01-31,2022-01-31,株式会社ＧｒｅｅｎＴｅａ＆Ｒｉｃｅ　Ｆａｒｍ　Ｙｏｓｈｉｄａ．ＫｙｏｔｏＹａｗａｔａ,,株式会社,京都府,八幡市,内里安居芝１３番地２,,26,210,6148231,,,,,,,2022-01-31,1,,,,,グリーンティーアンドライスファームヨシダキョウトヤワタ,0
2308,7130001071013,新規,0,2022-01-31,2022-01-31,株式会社Ｌａｕｌｉｍａ　Ｊａｐａｎ,,株式会社,京都府,京田辺市,松井ケ丘４丁目３番地２１,,26,211,6100353,,,,,,,2022-01-31,1,,,,,ラウリマジャパン,0
2309,7130001071038,新規,0,2022-01-31,2022-01-31,株式会社Ｌｕｎａ,,株式会社,京都府,京都市下京区,間之町通上珠数屋町下る打越町３１２番地ボチボチ烏丸３０１号,,26,106,6008151,,,,,,,2022-01-31,1,,,,,ルナ,0
2312,7130003007725,新規,0,2022-01-31,2022-01-31,合同会社ストリームライン,,合同会社,京都府,向日市,寺戸町殿長２３番地－１サーパス東向日６１０号,,26,208,6170002,,,,,,,2022-01-31,1,,,,,ストリームライン,0
2334,7140001124711,新規,0,2022-01-31,2022-01-31,株式会社エフズ,,株式会社,兵庫県,明石市,明南町２丁目１０番１３号,,28,203,6730001,,,,,,,2022-01-31,1,,,,,エフズ,0
2335,7140001124736,新規,0,2022-01-31,2022-01-31,株式会社コネクトサポート,,株式会社,兵庫県,伊丹市,池尻５丁目８番地３７,,28,207,6640027,,,,,,,2022-01-31,1,,,,,コネクトサポート,0
2336,7140001124744,新規,0,2022-01-31,2022-01-31,株式会社アクティブコネクト,,株式会社,兵庫県,明石市,大久保町ゆりのき通２丁目２番６号ＳＨＵＮＤＯ　ＢＬＤ．２階,,28,203,6740068,,,,,,,2022-01-31,1,,,,,アクティブコネクト,0
2354,7150001025289,新規,0,2022-01-31,2022-01-31,ＣＸＪ株式会社,,株式会社,奈良県,橿原市,川西町９４４番地の１０,,29,205,6340826,,,,,,,2022-01-31,1,,,,,シーエックスジェイ,0
2355,7150001025297,新規,0,2022-01-31,2022-01-31,株式会社ＧＲｏｗ,,株式会社,奈良県,生駒市,高山町８９１６番地５学生宿舎９－５０６１,,29,209,6300101,,,,,,,2022-01-31,1,,,,,グロー,0
2359,7160003002483,新規,0,2022-01-31,2022-01-31,合同会社ｌａｕｇｈｔｅｒ　Ｂａｓｅ,,合同会社,滋賀県,東近江市,躰光寺町１４９５番地４７,,25,213,5211205,,,,,,,2022-01-31,1,,,,,ラフターベース,0
2365,7180001149746,新規,0,2022-01-31,2022-01-31,株式会社エイチエム,,株式会社,愛知県,名古屋市中区,平和１丁目１５番２７号,,23,106,4600021,,,,,,,2022-01-31,1,,,,,エイチエム,0
2366,7180001149770,新規,0,2022-01-31,2022-01-31,株式会社Ｌ’ｓ　Ｌｉｎｅ,,株式会社,愛知県,小牧市,外堀３丁目１７番地,,23,219,4850039,,,,,,,2022-01-31,1,,,,,エルエスライン,0
2369,7200001039713,新規,0,2022-01-31,2022-01-31,株式会社ＫＮプロデュース８１８,,株式会社,岐阜県,各務原市,鵜沼三ツ池町５丁目１７３番地８,,21,213,5090146,,,,,,,2022-01-31,1,,,,,ケーエヌプロデュースハッピャクジュウハチ,0
2373,7220001024671,新規,0,2022-01-31,2022-01-31,株式会社サインポスト,,株式会社,石川県,羽咋市,中川町ヘ６５番地１,,17,207,9250614,,,,,,,2022-01-31,1,,,,,サインポスト,0
2400,7290001096242,新規,0,2022-01-31,2022-01-31,株式会社志源商事,,株式会社,福岡県,古賀市,筵内１－３１,,40,223,8113121,,,,,,,2022-01-31,1,,,,,シゲンショウジ,0
2401,7290001096259,新規,0,2022-01-31,2022-01-31,株式会社Ｓｋｙ　Ｈｅａｖｅｎ　Ｓｈｏｐ,,株式会社,福岡県,福岡市東区,香椎照葉５丁目１番１２－３６０７号,,40,131,8130017,,,,,,,2022-01-31,1,,,,,スカイヘブンショップ,0
2402,7290001096275,新規,0,2022-01-31,2022-01-31,株式会社Ｕｎｉｔｙ,,株式会社,福岡県,福岡市中央区,薬院２丁目２番２４－７０２号,,40,133,8100022,,,,,,,2022-01-31,1,,,,,ユニティ,0
2403,7290801028205,新規,0,2022-01-31,2022-01-31,株式会社ｆａｒａｗａｙ,,株式会社,福岡県,北九州市小倉北区,魚町１丁目６番７号,,40,106,8020006,,,,,,,2022-01-31,1,,,,,ファーアウェイ,0
2404,7290801028213,新規,0,2022-01-31,2022-01-31,株式会社Ｇｒｅｅｄ　Ｇｒｏｕｐ,,株式会社,福岡県,北九州市小倉北区,中津口１丁目１０番４５号シグナス６０１,,40,106,8020018,,,,,,,2022-01-31,1,,,,,グリードグループ,0
2409,7310003004266,新規,0,2022-01-31,2022-01-31,合同会社ユアサ・カンパニー,,合同会社,長崎県,佐世保市,俵ケ浦町６２８番地１,,42,202,8571235,,,,,,,2022-01-31,1,,,,,ユアサカンパニー,0
2415,7350001017555,新規,0,2022-01-31,2022-01-31,株式会社Ｆ．Ｓ．Ｔ．,,株式会社,宮崎県,宮崎市,月見ケ丘５丁目３２番２号,,45,201,8800926,,,,,,,2022-01-31,1,,,,,エフエスティ,0
2417,7350003004015,新規,0,2022-01-31,2022-01-31,合同会社ｅｎｉｓｈｉ,,合同会社,宮崎県,都城市,上長飯町３４号１６番地,,45,202,8850042,,,,,,,2022-01-31,1,,,,,エニシ,0
2419,7360001029946,新規,0,2022-01-31,2022-01-31,株式会社てぃーだカンカン不動産コザ,,株式会社,沖縄県,沖縄市,大里１丁目１１番１号,,47,211,9042163,,,,,,,2022-01-31,1,,,,,ティーダカンカンフドウサンコザ,0
2420,7360001029962,新規,0,2022-01-31,2022-01-31,沖縄ポリウレア株式会社,,株式会社,沖縄県,沖縄市,桃原４丁目２６番１２号,,47,211,9042164,,,,,,,2022-01-31,1,,,,,オキナワポリウレア,0
2422,7370001048136,新規,0,2022-01-31,2022-01-31,株式会社Ｙｏｋｏｔａ,,株式会社,宮城県,仙台市泉区,実沢字立田屋敷１５番地の１,,04,105,9813217,,,,,,,2022-01-31,1,,,,,ヨコタ,0
2425,7370003005572,新規,0,2022-01-31,2022-01-31,合同会社ＡＺＵＮＥ,,合同会社,宮城県,石巻市,あゆみ野２丁目５番地５,,04,202,9860850,,,,,,,2022-01-31,1,,,,,アズネ,0
2426,7380001032535,新規,0,2022-01-31,2022-01-31,株式会社青木本店,,株式会社,福島県,郡山市,八山田５丁目４０５番地,,07,203,9638052,,,,,,,2022-01-31,1,,,,,アオキホンテン,0
2438,7430001085890,新規,0,2022-01-31,2022-01-31,株式会社ｈｏｎｊｏ,,株式会社,北海道,札幌市東区,北十三条東２丁目１番２６－４０５号,,01,103,0650013,,,,,,,2022-01-31,1,,,,,ホンジョウ,0
2439,7430003013577,新規,0,2022-01-31,2022-01-31,Ｎ＆ｓｔａｒ合同会社,,合同会社,北海道,新冠郡新冠町,字北星町８６番地１５号室,,01,604,0592403,,,,,,,2022-01-31,1,,,,,エヌアンドスター,0
2444,7460105002228,新規,0,2022-01-31,2022-01-31,農事組合法人エナジーファーム,,その他の設立登記法人,北海道,帯広市,西二十二条南１丁目９番地５６ウエスト２２－１０１号,,01,207,0802472,,,,,,,2022-01-31,1,,,,,,0
2450,7700150106866,新規,0,2022-01-31,2022-01-31,ＭＥＡＭＥ　ＡＵＴＯ　ＴＲＡＤＥＲＳ　ＰＶＴ　ＬＴＤ,,外国会社等,千葉県,旭市,清和甲１６３２－２－４,,12,215,2890507,スリランカ民主社会主義共和国ハットン、ヒジュラプラ２０番,,,,,,2022-01-31,1,,,,,ミアミオートトレーダーズピーヴイテイエルテイデイ,0
2455,8010001224218,新規,0,2022-01-31,2022-01-31,株式会社サウンズグッド,,株式会社,東京都,千代田区,麹町３丁目２番地９,,13,101,1020083,,,,,,,2022-01-31,1,,,,,サウンズグッド,0
2456,8010001224234,新規,0,2022-01-31,2022-01-31,三ツ仲株式会社,,株式会社,東京都,中央区,銀座７丁目１５番５号共同ビル銀座７丁目,,13,102,1040061,,,,,,,2022-01-31,1,,,,,ミツナカ,0
2460,8010003036875,新規,0,2022-01-31,2022-01-31,ハワードロイス合同会社,,合同会社,東京都,文京区,本駒込１丁目１０番８号,,13,105,1130021,,,,,,,2022-01-31,1,,,,,ハワードロイス,0
2467,8010403027004,新規,0,2022-01-31,2022-01-31,合同会社ＢＡＢＹ　ＳＴＥＰ,,合同会社,東京都,港区,赤坂２丁目２１番６－８０２号,,13,103,1070052,,,,,,,2022-01-31,1,,,,,ベイビーステップ,0
2468,8010501048380,新規,0,2022-01-31,2022-01-31,株式会社皇蝶,,株式会社,東京都,台東区,台東４丁目１９番５号ヴィラルヴェロ６０１,,13,106,1100016,,,,,,,2022-01-31,1,,,,,オチョウ,0
2469,8010501048397,新規,0,2022-01-31,2022-01-31,株式会社ＯＦＦＩＣＥ　ＳＨＩＭＡＮＯ,,株式会社,東京都,台東区,西浅草２丁目１４－１５稲垣ビル１階,,13,106,1110035,,,,,,,2022-01-31,1,,,,,オフィスシマノ,0
2477,8010903007109,新規,0,2022-01-31,2022-01-31,合同会社村上塗装,,合同会社,東京都,世田谷区,野毛１丁目７番７－１０８号,,13,112,1580092,,,,,,,2022-01-31,1,,,,,ムラカミトソウ,0
2489,8011001145222,新規,0,2022-01-31,2022-01-31,株式会社オンボードワークス,,株式会社,東京都,渋谷区,神宮前６丁目２３番４号桑野ビル２階,,13,113,1500001,,,,,,,2022-01-31,1,,,,,オンボードワークス,0
2490,8011001145247,新規,0,2022-01-31,2022-01-31,株式会社ｂｐｍ,,株式会社,東京都,渋谷区,神宮前３丁目１－２４ソフトタウン青山５１４,,13,113,1500001,,,,,,,2022-01-31,1,,,,,ビーピーエム,0
2491,8011001145305,新規,0,2022-01-31,2022-01-31,株式会社ＢＩＺ　ＲＥＡＬ,,株式会社,東京都,渋谷区,鶯谷町１３番１号,,13,113,1500032,,,,,,,2022-01-31,1,,,,,ビズリアル,0
2492,8011001145354,新規,0,2022-01-31,2022-01-31,株式会社りんごインク,,株式会社,東京都,渋谷区,上原１丁目１５番１０号,,13,113,1510064,,,,,,,2022-01-31,1,,,,,リンゴインク,0
2494,8011003014045,新規,0,2022-01-31,2022-01-31,合同会社Ｔｒｕｔｈ,,合同会社,東京都,目黒区,下目黒１丁目２－２１泰山堂ビル３Ｆ,,13,110,1530064,,,,,,,2022-01-31,1,,,,,トゥルース,0
2496,8011101097628,新規,0,2022-01-31,2022-01-31,ティネコインテリジェントテクノロジーライフジャパン株式会社,,株式会社,東京都,新宿区,西新宿７丁目１８番５号ＶＯＲＴ西新宿３０４号室,,13,104,1600023,,,,,,,2022-01-31,1,,,,,ティネコインテリジェントテクノロジーライフジャパン,0
2499,8011201023599,新規,0,2022-01-31,2022-01-31,蒋泰商事株式会社,,株式会社,東京都,中野区,弥生町１丁目５－３３,,13,114,1640013,,,,,,,2022-01-31,1,,,,,ショウタイショウジ,0
2512,8011703003058,新規,0,2022-01-31,2022-01-31,合同会社生活日和,,合同会社,東京都,江戸川区,西小松川町３７番１１号１０１号室ベルレージュ,,13,123,1320032,,,,,,,2022-01-31,1,,,,,セイカツビヨリ,0
2515,8011801040201,新規,0,2022-01-31,2022-01-31,株式会社ブエナビスタ,,株式会社,東京都,葛飾区,東四つ木１丁目１５番７号,,13,122,1240014,,,,,,,2022-01-31,1,,,,,ブエナビスタ,0
2516,8011801040259,新規,0,2022-01-31,2022-01-31,株式会社よねやま家,,株式会社,東京都,足立区,谷中２丁目１２番５号,,13,121,1200006,,,,,,,2022-01-31,1,,,,,ヨネヤマヤ,0
2517,8011801040275,新規,0,2022-01-31,2022-01-31,株式会社福,,株式会社,東京都,足立区,西綾瀬４丁目２－２８,,13,121,1200014,,,,,,,2022-01-31,1,,,,,フク,0
2521,8012403005220,新規,0,2022-01-31,2022-01-31,合同会社サポケア,,合同会社,東京都,府中市,宮西町２丁目３番地の１,,13,206,1830022,,,,,,,2022-01-31,1,,,,,サポケア,0
2541,8020001144992,新規,0,2022-01-31,2022-01-31,株式会社中原工業,,株式会社,神奈川県,横浜市港北区,鳥山町２９２番地４,,14,109,2220035,,,,,,,2022-01-31,1,,,,,ナカハラコウギョウ,0
2542,8020001145000,新規,0,2022-01-31,2022-01-31,株式会社ＫＡＲＡＣＬＯ,,株式会社,神奈川県,横浜市神奈川区,羽沢町９４７番地１６,,14,102,2210863,,,,,,,2022-01-31,1,,,,,カラクロ,0
2543,8020001145009,新規,0,2022-01-31,2022-01-31,株式会社タイトロープ,,株式会社,神奈川県,川崎市多摩区,栗谷１丁目１番１４号プラッシュガーデンミッテ００６,,14,135,2140039,,,,,,,2022-01-31,1,,,,,タイトロープ,0
2544,8020001145017,新規,0,2022-01-31,2022-01-31,株式会社齋藤洋平事務所,,株式会社,神奈川県,川崎市宮前区,土橋４丁目３番地９マイキャッスル鷺沼ＩＩ４０５,00125563,14,136,2160005,,,,,,,2022-01-31,1,,,,,サイトウヨウヘイジムショ,0
2551,8020003021216,新規,0,2022-01-31,2022-01-31,ＴＩＭＺ合同会社,,合同会社,神奈川県,横浜市港北区,綱島西４丁目１４番１０－２０４号,,14,109,2230053,,,,,,,2022-01-31,1,,,,,ティムズ,0
2553,8021001075055,新規,0,2022-01-31,2022-01-31,西本建築工房株式会社,,株式会社,神奈川県,三浦郡葉山町,堀内７５３番地の１,,14,301,2400112,,,,,,,2022-01-31,1,,,,,ニシモトケンチクコウボウ,0
2586,8030001146559,新規,0,2022-01-31,2022-01-31,株式会社ＰＦＰ,,株式会社,埼玉県,川越市,豊田本４丁目３番地２５,,11,201,3501118,,,,,,,2022-01-31,1,,,,,ピーエフピー,0
2587,8030001146567,新規,0,2022-01-31,2022-01-31,株式会社Ｈ＆Ｒファクトリー,,株式会社,埼玉県,さいたま市見沼区,深作３丁目４４番地１,,11,104,3370003,,,,,,,2022-01-31,1,,,,,エイチアンドアールファクトリー,0
2588,8030001146591,新規,0,2022-01-31,2022-01-31,株式会社Ｋｓａｌｏｎ,,株式会社,埼玉県,新座市,野火止７丁目８番２７号２０３,,11,230,3520011,,,,,,,2022-01-31,1,,,,,ケイサロン,0
2618,8030003018748,新規,0,2022-01-31,2022-01-31,大正通商合同会社,,合同会社,埼玉県,川口市,青木３丁目５番２４号ルクレ川口イースト８０１,,11,203,3320031,,,,,,,2022-01-31,1,,,,,タイショウツウショウ,0
2626,8040001121981,新規,0,2022-01-31,2022-01-31,株式会社エレファントシッツ,,株式会社,千葉県,千葉市緑区,おゆみ野３丁目４０番地８河野ビル３階,,12,105,2660031,,,,,,,2022-01-31,1,,,,,エレファントシッツ,0
2627,8040001122014,新規,0,2022-01-31,2022-01-31,ファーマソガ株式会社,,株式会社,千葉県,千葉市中央区,宮崎町５６０番地２,,12,101,2600805,,,,,,,2022-01-31,1,,,,,ファーマソガ,0
2629,8060003003937,新規,0,2022-01-31,2022-01-31,グローバルフォース合同会社,,合同会社,栃木県,栃木市,富士見町１番２２号,,09,203,3280044,,,,,,,2022-01-31,1,,,,,グローバルフォース,0
2630,8070001038892,新規,0,2022-01-31,2022-01-31,株式会社虹色,,株式会社,群馬県,前橋市,鶴光路町７６番地２,,10,201,3792141,,,,,,,2022-01-31,1,,,,,ニジイロ,0
2631,8070003004364,新規,0,2022-01-31,2022-01-31,合同会社藤,,合同会社,群馬県,太田市,下小林町３１７番地１,,10,205,3730807,,,,,,,2022-01-31,1,,,,,フジ,0
2632,8080001024719,新規,0,2022-01-31,2022-01-31,株式会社アイ建装,,株式会社,静岡県,静岡市清水区,山原２２７番地の１,,22,103,4240002,,,,,,,2022-01-31,1,,,,,アイケンソウ,0
2634,8080401025597,新規,0,2022-01-31,2022-01-31,エスワイエス・エンジニアリング株式会社,,株式会社,静岡県,浜松市北区,新都田１丁目２番１１号,,22,135,4312103,,,,,,,2022-01-31,1,,,,,エスワイエスエンジニアリング,0
2640,8100005012816,新規,0,2022-01-31,2022-01-31,ＮＰＯ法人親子育,,その他の設立登記法人,長野県,塩尻市,大門八番町１番２８号スナバ,,20,215,3990737,,,,,,,2022-01-31,1,,,,,オヤコイク,0
2645,8120001243462,新規,0,2022-01-31,2022-01-31,鴻盛株式会社,,株式会社,大阪府,大阪市西区,靱本町３丁目８番６号奥内第１ビル２階,,27,106,5500004,,,,,,,2022-01-31,1,,,,,コウセイ,0
2646,8120001243470,新規,0,2022-01-31,2022-01-31,株式会社田村事務所,,株式会社,大阪府,大阪市阿倍野区,昭和町５丁目１２番１４号,,27,119,5450011,,,,,,,2022-01-31,1,,,,,タムラジムショ,0
2647,8120001243479,新規,0,2022-01-31,2022-01-31,株式会社ジンナム,,株式会社,大阪府,大阪市中央区,日本橋２丁目１番２２号上野ビル４０６号,,27,128,5420073,,,,,,,2022-01-31,1,,,,,ジンナム,0
2648,8120001243495,新規,0,2022-01-31,2022-01-31,株式会社ＡＮＤＣＲＯＳＳ,,株式会社,大阪府,大阪市中央区,南船場３丁目３－２１,,27,128,5420081,,,,,,,2022-01-31,1,,,,,アンドクロス,0
2649,8120001243504,新規,0,2022-01-31,2022-01-31,株式会社楽,,株式会社,大阪府,大阪市福島区,吉野３丁目７番１４号－２０５号,,27,103,5530006,,,,,,,2022-01-31,1,,,,,ラク,0
2650,8120001243537,新規,0,2022-01-31,2022-01-31,株式会社アイビー・コーポレーション,,株式会社,大阪府,大阪市此花区,島屋１丁目１番１５号,,27,104,5540024,,,,,,,2022-01-31,1,,,,,アイビーコーポレーション,0
2651,8120001243545,新規,0,2022-01-31,2022-01-31,盤銘株式会社,,株式会社,大阪府,大阪市北区,錦町２－３５シャトー天満５０２号室,,27,127,5300034,,,,,,,2022-01-31,1,,,,,バンメイ,0
2653,8120003021032,新規,0,2022-01-31,2022-01-31,合同会社ＴＥＲＡＳＵ,,合同会社,大阪府,大阪市東住吉区,田辺２丁目５番６－７０１号,,27,121,5460031,,,,,,,2022-01-31,1,,,,,テラス,0
2654,8120103004548,新規,0,2022-01-31,2022-01-31,合同会社Ｅ・Ｓ・Ｈ,,合同会社,大阪府,堺市堺区,南瓦町１－１５,,27,141,5900078,,,,,,,2022-01-31,1,,,,,イーエスエッチ,0
2656,8120905006279,新規,0,2022-01-31,2022-01-31,一般社団法人島本交流協会,,その他の設立登記法人,大阪府,三島郡島本町,桜井台１２番１号,,27,301,6180023,,,,,,,2022-01-31,1,,,,,シマモトコウリュウキョウカイ,0
2660,8122001035542,新規,0,2022-01-31,2022-01-31,株式会社ＳＭＢＡ,,株式会社,大阪府,東大阪市,御厨２丁目３番４号１０１号室,,27,227,5770032,,,,,,,2022-01-31,1,,,,,エスエムビーエー,0
2664,8130001071020,新規,0,2022-01-31,2022-01-31,スタイルズ株式会社,,株式会社,京都府,京都市下京区,室町通松原下る元両替町２４５番地２パルコート四条室町８０１,,26,106,6008436,,,,,,,2022-01-31,1,,,,,スタイルズ,0
2684,8140001124669,新規,0,2022-01-31,2022-01-31,株式会社コマガワ開発,,株式会社,兵庫県,加古川市,米田町平津３２５番地３,,28,210,6750054,,,,,,,2022-01-31,1,,,,,コマガワカイハツ,0
2685,8140001124719,新規,0,2022-01-31,2022-01-31,プロビュートジャパン株式会社,,株式会社,兵庫県,姫路市,北条宮の町３８５番地永井ビル３階,,28,201,6700948,,,,,,,2022-01-31,1,,,,,プロビュートジャパン,0
2686,8140001124727,新規,0,2022-01-31,2022-01-31,株式会社ホットテラス,,株式会社,兵庫県,宝塚市,旭町１丁目１１番１－１００９号,,28,214,6650835,,,,,,,2022-01-31,1,,,,,ホットテラス,0
2708,8140003017284,新規,0,2022-01-31,2022-01-31,合同会社中島塗装工業,,合同会社,兵庫県,朝来市,和田山町和田山３７９番地１,,28,225,6695201,,,,,,,2022-01-31,1,,,,,ナカシマトソウコウギョウ,0
2716,8150001025296,新規,0,2022-01-31,2022-01-31,ＧＢ株式会社,,株式会社,奈良県,磯城郡三宅町,大字伴堂７３７番地ライトワン３０３号,,29,362,6360213,,,,,,,2022-01-31,1,,,,,ジービー,0
2717,8160003002482,新規,0,2022-01-31,2022-01-31,合同会社Ｅｔｅｒｎａ,,合同会社,滋賀県,大津市,瀬田３丁目４０－３５,,25,201,5202134,,,,,,,2022-01-31,1,,,,,エテルナ,0
2724,8180001149729,新規,0,2022-01-31,2022-01-31,株式会社Ａｃｒｏｘｅｅｄ,,株式会社,愛知県,名古屋市中川区,中郷１丁目３３番地,,23,110,4540921,,,,,,,2022-01-31,1,,,,,アクロシード,0
2725,8180001149745,新規,0,2022-01-31,2022-01-31,ＴＳＡ株式会社,,株式会社,愛知県,名古屋市緑区,桶狭間森前２９０４番地,,23,114,4580910,,,,,,,2022-01-31,1,,,,,ティーエスエー,0
2726,8180001149761,新規,0,2022-01-31,2022-01-31,株式会社ＩＦ,,株式会社,愛知県,愛西市,千引町屋敷３番地,,23,232,4968003,,,,,,,2022-01-31,1,,,,,イフ,0
2727,8180001149786,新規,0,2022-01-31,2022-01-31,Ｌｅａｐ株式会社,,株式会社,愛知県,あま市,下萱津平島５３番地１,,23,237,4901114,,,,,,,2022-01-31,1,,,,,リープ,0
2730,8180003023444,新規,0,2022-01-31,2022-01-31,合同会社サマーアイ,,合同会社,愛知県,名古屋市名東区,社台３丁目２０番地社台パーク・ホームズ２０４号,,23,115,4650092,,,,,,,2022-01-31,1,,,,,サマーアイ,0
2738,8200001039704,新規,0,2022-01-31,2022-01-31,臼井福祉総合研究所株式会社,,株式会社,岐阜県,関市,倉知３１９１番地１０,,21,205,5013936,,,,,,,2022-01-31,1,,,,,ウスイフクシソウゴウケンキュウジョ,0
2742,8220001024670,新規,0,2022-01-31,2022-01-31,松浦伝統建築株式会社,,株式会社,石川県,金沢市,八日市１丁目７６８番地,,17,201,9218064,,,,,,,2022-01-31,1,,,,,マツウラデントウケンチク,0
2743,8230001019216,新規,0,2022-01-31,2022-01-31,株式会社Ａｉ・Ｍｉ,,株式会社,富山県,富山市,婦中町上轡田８０番地９７,,16,201,9392713,,,,,,,2022-01-31,1,,,,,アイミ,0
2747,8240001059260,新規,0,2022-01-31,2022-01-31,アスライト株式会社,,株式会社,広島県,広島市安芸区,畑賀町３５５１番地１,,34,107,7360089,,,,,,,2022-01-31,1,,,,,アスライト,0
2752,8260005011026,新規,0,2022-01-31,2022-01-31,特定非営利活動法人いばら放課後児童クラブ運営支援センター,,その他の設立登記法人,岡山県,井原市,高屋町５丁目６番地２９,,33,207,7150024,,,,,,,2022-01-31,1,,,,,イバラホウカゴジドウクラブウンエイシエンセンター,0
2753,8270001008446,新規,0,2022-01-31,2022-01-31,Ｍｉｋａ　Ｓａｋｅ　Ｇｌｏｂａｌ株式会社,,株式会社,鳥取県,八頭郡智頭町,大字智頭４５１番地,,31,328,6891402,,,,,,,2022-01-31,1,,,,,ミカサケグローバル,0
2763,8290001096266,新規,0,2022-01-31,2022-01-31,株式会社ＣＡＲＴＡ,,株式会社,福岡県,福岡市中央区,天神２丁目３番１０号天神パインクレスト７１９号,,40,133,8100001,,,,,,,2022-01-31,1,,,,,カルタ,0
2770,8290003012097,新規,0,2022-01-31,2022-01-31,Ｍｅｄｉｐｉｏｓ合同会社,,合同会社,福岡県,久留米市,大善寺南２丁目１４番２０号,,40,203,8300070,,,,,,,2022-01-31,1,,,,,メディピオス,0
2773,8290801028204,新規,0,2022-01-31,2022-01-31,株式会社シリアス,,株式会社,福岡県,北九州市小倉北区,黒住町２番１０号,,40,106,8020056,,,,,,,2022-01-31,1,,,,,シリアス,0
2777,8320001018869,新規,0,2022-01-31,2022-01-31,ａｓ株式会社,,株式会社,大分県,大分市,古ケ鶴１丁目５－８－１０３,,44,201,8700935,,,,,,,2022-01-31,1,,,,,アズ,0
2783,8360001029953,新規,0,2022-01-31,2022-01-31,株式会社杏琉,,株式会社,沖縄県,中頭郡西原町,上原１丁目１６番地の１ミオビエントラビスタ西原６０３号,,47,329,9030125,,,,,,,2022-01-31,1,,,,,アル,0
2784,8360001029961,新規,0,2022-01-31,2022-01-31,株式会社野里左官興業,,株式会社,沖縄県,那覇市,長田２丁目３２番２３号Ｉ－２０２,,47,201,9020077,,,,,,,2022-01-31,1,,,,,ノザトサカンコウギョウ,0
2799,8430001085881,新規,0,2022-01-31,2022-01-31,株式会社村井工業,,株式会社,北海道,札幌市西区,西野九条３丁目６番７号,,01,107,0630039,,,,,,,2022-01-31,1,,,,,ムライコウギョウ,0
2801,8460003000877,新規,0,2022-01-31,2022-01-31,合同会社ＢＡＳＥ　ＣＡＭＰ　ＴＥＳＨＩＫＡＧＡ,,合同会社,北海道,川上郡弟子屈町,中央３丁目８－３,,01,665,0883211,,,,,,,2022-01-31,1,,,,,ベースキャンプテシカガ,0
2802,8460103001420,新規,0,2022-01-31,2022-01-31,合同会社ＨＯＰＥ　ＦＵＬＬ,,合同会社,北海道,帯広市,清流西１丁目４番１１号,,01,207,0800872,,,,,,,2022-01-31,1,,,,,ホープフル,0
2808,8700150106873,新規,0,2022-01-31,2022-01-31,ＢＴＲ新材料集団股斌有限公司　日本支店,00125569,外国会社等,大阪府,大阪市中央区,安土町２丁目３－１３大阪国際ビル２９階ＪＥＴＲＯ内,,27,128,5410052,中華人民共和国広東省深＿市光明新区公明弁事処西田社区高新技術工業園第１、２、３、４、５、６棟、７棟Ａ、７棟Ｂ、８棟,00125570,,,,,2022-01-31,1,,,,,ビーテイーアールシンザイリヨウシユウダンコフンユウゲンコウシニホンシテン,0
2816,9010001224191,新規,0,2022-01-31,2022-01-31,ストラテジック・バリュー・パートナー・ジャパン株式会社,,株式会社,東京都,千代田区,三番町３番地６ローダム三番町８０１号,,13,101,1020075,,,,,,,2022-01-31,1,,,,,ストラテジックバリューパートナージャパン,0
2817,9010001224217,新規,0,2022-01-31,2022-01-31,株式会社ＥＰＩＣ　ＰＬＵＳ,,株式会社,東京都,中央区,日本橋兜町１７番２号兜町第６葉山ビル４階,,13,102,1030026,,,,,,,2022-01-31,1,,,,,エピックプラス,0
2818,9010001224233,新規,0,2022-01-31,2022-01-31,株式会社ＣＩＥＣＪＡＰＡＮ,,株式会社,東京都,千代田区,麹町２丁目１２番地１,,13,101,1020083,,,,,,,2022-01-31,1,,,,,シーアイイーシージャパン,0
2819,9010001224241,新規,0,2022-01-31,2022-01-31,愛加株式会社,,株式会社,東京都,中央区,東日本橋２丁目２８番５－５０８,,13,102,1030004,,,,,,,2022-01-31,1,,,,,アイカ,0
2820,9010003036858,新規,0,2022-01-31,2022-01-31,石狩洋上風力合同会社,,合同会社,東京都,千代田区,大手町１丁目４番２号,,13,101,1000004,,,,,,,2022-01-31,1,,,,,イシカリヨウジョウフウリョク,0
2834,9010405020617,新規,0,2022-01-31,2022-01-31,一般財団法人ＣＢＧＭこども財団,,その他の設立登記法人,東京都,港区,南青山２丁目２番３号,,13,103,1070062,,,,,,,2022-01-31,1,,,,,シービージーエムコドモザイダン,0
2840,9010601060581,新規,0,2022-01-31,2022-01-31,株式会社１ｓｔ　Ｒｅｓｏｕｒｃｅ,,株式会社,東京都,江東区,東雲１丁目５番３０－４０５号,,13,108,1350062,,,,,,,2022-01-31,1,,,,,ファーストリソース,0
2841,9010603009362,新規,0,2022-01-31,2022-01-31,誠国際ＦＡＳ合同会社,,合同会社,東京都,江東区,東雲１丁目９番４２－１９０９号,,13,108,1350062,,,,,,,2022-01-31,1,,,,,マコトコクサイファス,0
2843,9010701042141,新規,0,2022-01-31,2022-01-31,株式会社ＮＴＭ,,株式会社,東京都,品川区,旗の台６丁目１７番６号,,13,109,1420064,,,,,,,2022-01-31,1,,,,,エヌティエム,0
2844,9010703006086,新規,0,2022-01-31,2022-01-31,Ｊｕｉｃｙ　Ｊａｐａｎ合同会社,,合同会社,東京都,品川区,西五反田８丁目８番１４－５０５号,,13,109,1410031,,,,,,,2022-01-31,1,,,,,ジューシージャパン,0
2847,9010801032678,新規,0,2022-01-31,2022-01-31,さくら信用調査株式会社,,株式会社,東京都,大田区,山王３丁目１５番１７号,,13,111,1430023,,,,,,,2022-01-31,1,,,,,サクラシンヨウチョウサ,0
2849,9010903007108,新規,0,2022-01-31,2022-01-31,ＯＹＢ　ＣＬＵＢ合同会社,,合同会社,東京都,世田谷区,桜２丁目１１番３１号,,13,112,1560053,,,,,,,2022-01-31,1,,,,,オーワイビークラブ,0
2856,9011001145238,新規,0,2022-01-31,2022-01-31,株式会社Ｐｒｉｍｅ　Ｐａｒｔｎｅｒ,,株式会社,東京都,渋谷区,渋谷２丁目１９－１５宮益坂ビルディング６０９,,13,113,1500002,,,,,,,2022-01-31,1,,,,,プライムパートナー,0
2857,9011001145262,新規,0,2022-01-31,2022-01-31,株式会社Ｘｓｔａｇｒａｍ,,株式会社,東京都,渋谷区,神宮前６丁目２３番４号桑野ビル２階,,13,113,1500001,,,,,,,2022-01-31,1,,,,,エクスタグラム,0
2858,9011001145353,新規,0,2022-01-31,2022-01-31,ｄＨｏｓｔ　Ｇｌｏｂａｌ株式会社,,株式会社,東京都,渋谷区,渋谷３丁目２９番２０号,,13,113,1500002,,,,,,,2022-01-31,1,,,,,ディーホストグローバル,0
2859,9011001145444,新規,0,2022-01-31,2022-01-31,株式会社ＴＡＮＳＭＩＬＥ,,株式会社,東京都,渋谷区,神宮前１丁目２３番８－２０５号ブリスベージュ神宮前,,13,113,1500001,,,,,,,2022-01-31,1,,,,,タンスマイル,0
2860,9011003014044,新規,0,2022-01-31,2022-01-31,じゅそうけん合同会社,,合同会社,東京都,渋谷区,桜丘町２３－１７シティコート桜丘４０８,,13,113,1500031,,,,,,,2022-01-31,1,,,,,ジュソウケン,0
2861,9011003014060,新規,0,2022-01-31,2022-01-31,合同会社石,,合同会社,東京都,渋谷区,千駄ヶ谷２丁目３６－５－６０２,,13,113,1510051,,,,,,,2022-01-31,1,,,,,イシ,0
2865,9011103011404,新規,0,2022-01-31,2022-01-31,リリングカンパニー合同会社,,合同会社,東京都,新宿区,西新宿３丁目３番１３号西新宿水間ビル６階,,13,104,1600023,,,,,,,2022-01-31,1,,,,,リリングカンパニー,0
2866,9011201023598,新規,0,2022-01-31,2022-01-31,株式会社ＣＬＥＩ,,株式会社,東京都,中野区,東中野３丁目１３番１０号,,13,114,1640003,,,,,,,2022-01-31,1,,,,,クレイ,0
2870,9011401023992,新規,0,2022-01-31,2022-01-31,株式会社鶴錦,,株式会社,東京都,板橋区,中台１丁目１９番１５号１０５室,,13,119,1740064,,,,,,,2022-01-31,1,,,,,ツルニシキ,0
2873,9011505002447,新規,0,2022-01-31,2022-01-31,特定非営利活動法人ｕｔｓｕｗａ,,その他の設立登記法人,東京都,北区,滝野川２丁目３２番１０－８１０号東建滝野川マンション,,13,117,1140023,,,,,,,2022-01-31,1,,,,,ウツワ,0
2874,9011601025707,新規,0,2022-01-31,2022-01-31,株式会社アートハーベスト,,株式会社,東京都,練馬区,関町北５丁目１９番１８号,,13,120,1770051,,,,,,,2022-01-31,1,,,,,アートハーベスト,0
2875,9011603003512,新規,0,2022-01-31,2022-01-31,村田管理合同会社,,合同会社,東京都,練馬区,土支田１丁目２５番１０号,,13,120,1790076,,,,,,,2022-01-31,1,,,,,ムラタカンリ,0
2884,9012803002691,新規,0,2022-01-31,2022-01-31,合同会社Ｎｕｍｂｅｒ,,合同会社,東京都,立川市,富士見町６丁目３１番４０７号,,13,202,1900013,,,,,,,2022-01-31,1,,,,,ナンバー,0
2894,9020001145040,新規,0,2022-01-31,2022-01-31,株式会社Ｔｅｔｓｕ　ｃｏｒｐｏｒａｔｉｏｎ,,株式会社,神奈川県,横浜市中区,福富町西通５１番地２ベルポリス・パティオ９－Ｄ,,14,104,2310042,,,,,,,2022-01-31,1,,,,,テツコーポレーション,0
2902,9021003011321,新規,0,2022-01-31,2022-01-31,合同会社燦,,合同会社,神奈川県,逗子市,沼間３丁目５番２９号,,14,208,2490004,,,,,,,2022-01-31,1,,,,,サン,0
2903,9021003011354,新規,0,2022-01-31,2022-01-31,合同会社スギマル,,合同会社,神奈川県,相模原市南区,新戸２１４７－１リベラル相武台下２０１,,14,153,2520326,,,,,,,2022-01-31,1,,,,,スギマル,0
2920,9030001146525,新規,0,2022-01-31,2022-01-31,株式会社Ｍ－Ｆａｃｔｏｒｙグループ,,株式会社,埼玉県,さいたま市浦和区,木崎４丁目１６番９号サンパーク木崎３０５,,11,107,3300042,,,,,,,2022-01-31,1,,,,,エムファクトリーグループ,0
2921,9030001146533,新規,0,2022-01-31,2022-01-31,株式会社エフオーアール,,株式会社,埼玉県,入間郡三芳町,大字藤久保７０４６番地,,11,324,3540041,,,,,,,2022-01-31,1,,,,,エフオーアール,0
2950,9030003018714,新規,0,2022-01-31,2022-01-31,ＯＮ合同会社,,合同会社,埼玉県,所沢市,大字下安松５０番地の２２５,,11,208,3590024,,,,,,,2022-01-31,1,,,,,オーエヌ,0
2951,9030003018747,新規,0,2022-01-31,2022-01-31,合同会社ゆたか興業,,合同会社,埼玉県,さいたま市見沼区,大字上山口新田１７４番地２,,11,104,3370044,,,,,,,2022-01-31,1,,,,,ユタカコウギョウ,0
2955,9030005020701,新規,0,2022-01-31,2022-01-31,特定非営利活動法人ＫＡＦＩＮ　Ｍｉｇｒａｎｔ　Ｃｅｎｔｅｒ,,その他の設立登記法人,埼玉県,蕨市,塚越５丁目５１－２２蕨荘１０１号室,,11,223,3350002,,,,,,,2022-01-31,1,,,,,カフィンマイグラントセンター,0
2961,9040001121972,新規,0,2022-01-31,2022-01-31,ファンビー株式会社,,株式会社,千葉県,浦安市,明海３丁目２番５－６０４号海園の街,,12,227,2790014,,,,,,,2022-01-31,1,,,,,ファンビー,0
2962,9040001121980,新規,0,2022-01-31,2022-01-31,株式会社ＯＨＫＩコンサルティング,,株式会社,千葉県,佐倉市,江原新田７６番地４,,12,212,2850823,,,,,,,2022-01-31,1,,,,,オーキコンサルティング,0
2963,9040001122013,新規,0,2022-01-31,2022-01-31,創海株式会社,,株式会社,千葉県,松戸市,上本郷６１８番地の１,,12,207,2710064,,,,,,,2022-01-31,1,,,,,ソウカイ,0
2964,9040003019380,新規,0,2022-01-31,2022-01-31,Ｏ・Ｓ建幾合同会社,,合同会社,千葉県,千葉市中央区,汐見丘町１４番１３号,,12,101,2600034,,,,,,,2022-01-31,1,,,,,オーエスケンキ,0
2965,9040003019389,新規,0,2022-01-31,2022-01-31,合同会社いこま,,合同会社,千葉県,松戸市,小根本７６－４アネックス１０３,,12,207,2710073,,,,,,,2022-01-31,1,,,,,イコマ,0
2972,9060001034529,新規,0,2022-01-31,2022-01-31,株式会社Ｔｅｃｈｎｉｃａｌ　Ｇａｒａｇｅ　ＺＥＲＯ,,株式会社,栃木県,宇都宮市,竹下町３０６番地１,,09,201,3213236,,,,,,,2022-01-31,1,,,,,テクニカルガレージゼロ,0
2985,9080403004458,新規,0,2022-01-31,2022-01-31,ｍａｒｋ＆Ｎ合同会社,,合同会社,静岡県,浜松市中区,常盤町１４４番地の６常盤町レジデンス１５０１号室,,22,131,4300917,,,,,,,2022-01-31,1,,,,,マークアンドエヌ,0
2993,9110001036395,新規,0,2022-01-31,2022-01-31,株式会社セラベア・プロダクション,,株式会社,新潟県,新潟市秋葉区,新津本町２丁目５番２７号,,15,105,9560864,,,,,,,2022-01-31,1,,,,,セラベアプロダクション,0
2998,9120001243453,新規,0,2022-01-31,2022-01-31,株式会社ＴＭライン,,株式会社,大阪府,大阪市西淀川区,中島１丁目１３番２３号,,27,113,5550041,,,,,,,2022-01-31,1,,,,,ティーエムライン,0
2999,9120001243486,新規,0,2022-01-31,2022-01-31,株式会社リベルター機工,,株式会社,大阪府,枚方市,星丘３丁目２３番４－５号,,27,210,5730013,,,,,,,2022-01-31,1,,,,,リベルターキコウ,0
3007,9120003021023,新規,0,2022-01-31,2022-01-31,合同会社クリプトワークス,,合同会社,大阪府,大阪市住吉区,清水丘２丁目２３番２３号,,27,120,5580033,,,,,,,2022-01-31,1,,,,,クリプトワークス,0
3008,9120003021031,新規,0,2022-01-31,2022-01-31,合同会社グロスティーファーマ,,合同会社,大阪府,大阪市東住吉区,東田辺３丁目２２－１７,,27,121,5460032,,,,,,,2022-01-31,1,,,,,グロスティーファーマ,0
3009,9120003021048,新規,0,2022-01-31,2022-01-31,合同会社ジャパンマスターフード,,合同会社,大阪府,大阪市北区,天神橋４丁目１番２３号,,27,127,5300041,,,,,,,2022-01-31,1,,,,,ジャパンマスターフード,0
3011,9120005022754,新規,0,2022-01-31,2022-01-31,一般社団法人企業年金・退職金支援機構,,その他の設立登記法人,大阪府,大阪市中央区,内本町１丁目２番１５号,,27,128,5400026,,,,,,,2022-01-31,1,,,,,キギョウネンキンタイショクキンシエンキコウ,0
3016,9120901045528,新規,0,2022-01-31,2022-01-31,株式会社ベガ,,株式会社,大阪府,豊中市,庄内栄町２丁目１３番５号,,27,203,5610834,,,,,,,2022-01-31,1,,,,,ベガ,0
3017,9120905006278,新規,0,2022-01-31,2022-01-31,一般社団法人エイチアールエス,,その他の設立登記法人,大阪府,吹田市,山田西４丁目２番１８号,,27,205,5650824,,,,,,,2022-01-31,1,,,,,エイチアールエス,0
3018,9122001035541,新規,0,2022-01-31,2022-01-31,株式会社ｈｏｍｅｌｉｐ,,株式会社,大阪府,東大阪市,足代北２丁目３番１７－３０６号,,27,227,5770058,,,,,,,2022-01-31,1,,,,,ホームリップ,0
3022,9130001071028,新規,0,2022-01-31,2022-01-31,株式会社ＢＯＲＮ,,株式会社,京都府,木津川市,城山台８丁目４番地４,,26,214,6190218,,,,,,,2022-01-31,1,,,,,ボーン,0
3045,9140001124726,新規,0,2022-01-31,2022-01-31,株式会社屋形営農,,株式会社,兵庫県,神崎郡市川町,屋形４０７番地の２,,28,442,6792337,,,,,,,2022-01-31,1,,,,,ヤカタエイノウ,0
3046,9140001124742,新規,0,2022-01-31,2022-01-31,Ｂｉｎａｒｙ　Ｓｔａｒ株式会社,,株式会社,兵庫県,西宮市,西宮浜４丁目１０番３－１００４号,,28,204,6620934,,,,,,,2022-01-31,1,,,,,バイナリースター,0
3067,9150001025295,新規,0,2022-01-31,2022-01-31,株式会社Ｔ＆Ｒ技術士事務所,,株式会社,奈良県,橿原市,中町２００番地の１０７,,29,205,6340009,,,,,,,2022-01-31,1,,,,,ティーアンドアールギジュツシジムショ,0
3072,9160001023959,新規,0,2022-01-31,2022-01-31,株式会社ＥＣＯ　ＢＡＮＫホールディングス,,株式会社,滋賀県,大津市,萱野浦２２－５５リサービア４０７,,25,201,5202143,,,,,,,2022-01-31,1,,,,,エコバンクホールディングス,0
3073,9170003001680,新規,0,2022-01-31,2022-01-31,合同会社たま,,合同会社,和歌山県,和歌山市,園部４５９番地サンリバー２１－１０６号,,30,201,6408483,,,,,,,2022-01-31,1,,,,,タマ,0
3081,9180001149711,新規,0,2022-01-31,2022-01-31,株式会社リッチ・ホールディングス,,株式会社,愛知県,名古屋市西区,牛島町６番１号,,23,104,4510046,,,,,,,2022-01-31,1,,,,,リッチホールディングス,0
3082,9180001149728,新規,0,2022-01-31,2022-01-31,株式会社Ｎｅｏ,,株式会社,愛知県,名古屋市中川区,草平町１丁目３４番地の２,,23,110,4540868,,,,,,,2022-01-31,1,,,,,ネオ,0
3083,9180001149736,新規,0,2022-01-31,2022-01-31,株式会社ロイヤル,,株式会社,愛知県,春日井市,玉野台３丁目１７番地６,,23,206,4870007,,,,,,,2022-01-31,1,,,,,ロイヤル,0
3084,9180001149752,新規,0,2022-01-31,2022-01-31,株式会社セントラルエージェント,,株式会社,愛知県,名古屋市中区,栄５丁目２６番３９号,,23,106,4600008,,,,,,,2022-01-31,1,,,,,セントラルエージェント,0
3086,9180003023451,新規,0,2022-01-31,2022-01-31,合同会社スリームーヴィン,,合同会社,愛知県,犬山市,大字犬山字東古券４１１番地１,,23,215,4840083,,,,,,,2022-01-31,1,,,,,スリームーヴィン,0
3088,9180301035875,新規,0,2022-01-31,2022-01-31,ＶＡＬＵＥ　ＧＲＯＷＴＨ株式会社,,株式会社,愛知県,岡崎市,大和町字西六反５６番地１,,23,202,4440931,,,,,,,2022-01-31,1,,,,,バリューグロース,0
3107,9240001059251,新規,0,2022-01-31,2022-01-31,株式会社ｍｃｋ,,株式会社,広島県,広島市西区,己斐東１丁目２番１０－５０１号,,34,104,7330811,,,,,,,2022-01-31,1,,,,,エムシーケイ,0
3126,9290001096273,新規,0,2022-01-31,2022-01-31,株式会社オールシャイン,,株式会社,福岡県,福岡市東区,多の津１丁目１６番４号,,40,131,8130034,,,,,,,2022-01-31,1,,,,,オールシャイン,0
3129,9290003012088,新規,0,2022-01-31,2022-01-31,合同会社Ｒケアサービス,,合同会社,福岡県,福岡市南区,柳河内１丁目２番４９号,,40,134,8150063,,,,,,,2022-01-31,1,,,,,アールケアサービス,0
3132,9290801028211,新規,0,2022-01-31,2022-01-31,株式会社創作家,,株式会社,福岡県,北九州市小倉北区,古船場町７－１－３Ｆ,,40,106,8020082,,,,,,,2022-01-31,1,,,,,ツクリヤ,0
3145,9360001029952,新規,0,2022-01-31,2022-01-31,株式会社ＹＯＦＩ３３,,株式会社,沖縄県,石垣市,美崎町１０番地５美崎ビル４階,,47,207,9070012,,,,,,,2022-01-31,1,,,,,ヨフィスリースリー,0
3148,9370001048142,新規,0,2022-01-31,2022-01-31,株式会社ＩＦＵグローバルホールディングス,,株式会社,宮城県,仙台市青葉区,一番町４丁目９番１７号,,04,101,9800811,,,,,,,2022-01-31,1,,,,,アイエフユーグローバルホールディングス,0
3149,9370003005570,新規,0,2022-01-31,2022-01-31,合同会社いずみのコンサルティング,,合同会社,宮城県,仙台市泉区,八乙女中央２丁目１番１５号,,04,105,9813135,,,,,,,2022-01-31,1,,,,,イズミノコンサルティング,0
