sequenceNumber,corporateNumber,process,correct,updateDate,changeDate,name,nameImageId,kind,prefectureName,cityName,streetNumber,addressImageId,prefectureCode,cityCode,postCode,addressOutside,addressOutsideImageId,closeDate,closeCause,successorCorporateNumber,changeCause,assignmentDate,latest,enName,enPrefectureName,enCityName,enAddressOutside,furigana,hihyoji
30,1010403025402,登記記録の閉鎖等,0,2023-06-19,2023-06-02,ＲＢソーラーサウス合同会社,,合同会社,東京都,港区,虎ノ門３丁目２２番１０－２０１号,,13,103,1050001,,,2023-06-02,清算の結了等,,,2021-05-28,1,,,,,アールビーソーラーサウス,0
66,1012401001590,登記記録の閉鎖等,0,2023-06-19,2023-06-15,株式会社マイテック,,株式会社,東京都,府中市,宮町１丁目４０番地,,13,206,1830023,,,2023-06-15,合併による解散等,5013301019521,令和５年６月１日東京都豊島区池袋二丁目５２番８号株式会社ラネット（5013301019521）に合併し解散,2015-10-05,1,,,,,マイテック,0
77,1020001034903,登記記録の閉鎖等,0,2023-06-19,2023-06-12,株式会社コア,,株式会社,神奈川県,横浜市泉区,緑園１丁目１１番地１２,,14,116,2450002,,,2023-06-12,清算の結了等,,,2015-10-05,1,,,,,コア,0
86,1021001048075,登記記録の閉鎖等,0,2023-06-19,2023-06-14,株式会社Ｈａｐｐｙｌｉｆｅ,,株式会社,神奈川県,秦野市,立野台３丁目１９番地の２０,,14,211,2570017,,,2023-06-14,清算の結了等,,,2015-10-05,1,,,,,ハッピーライフ,0
93,1030001127730,登記記録の閉鎖等,0,2023-06-19,2023-06-01,株式会社洋吉,,株式会社,埼玉県,さいたま市大宮区,大門町２丁目１０８番地４,,11,103,3300846,,,2023-06-01,清算の結了等,,,2018-10-09,1,,,,,ヨウキチ,0
104,1030002027467,登記記録の閉鎖等,0,2023-06-19,2023-06-02,有限会社伊澤建工,,有限会社,埼玉県,蕨市,塚越５丁目３３番６号,,11,223,3350002,,,2023-06-02,清算の結了等,,,2015-10-05,1,,,,,イザワケンコウ,0
105,1030002047705,登記記録の閉鎖等,0,2023-06-19,2023-06-02,有限会社平井自動車整備工場,,有限会社,埼玉県,八潮市,八潮３丁目３番地３,,11,234,3400815,,,2023-06-02,清算の結了等,,,2015-10-05,1,,,,,ヒライジドウシャセイビコウジョウ,0
119,1040002018713,登記記録の閉鎖等,0,2023-06-19,2023-06-02,有限会社東習興業,,有限会社,千葉県,佐倉市,井野町６０番地２,,12,212,2850856,,,2023-06-02,清算の結了等,,,2015-10-05,1,,,,,トウナラコウギョウ,0
123,1050001039172,登記記録の閉鎖等,0,2023-06-19,2023-06-12,アイボック株式会社,,株式会社,茨城県,牛久市,ひたち野東４丁目３番地２,,08,219,3001207,,,2023-06-12,清算の結了等,,,2015-10-05,1,,,,,アイボック,0
132,1070001016434,登記記録の閉鎖等,0,2023-06-19,2023-06-12,萩原染色株式会社,,株式会社,群馬県,桐生市,広沢町１丁目２５０９番地１,,10,203,3760013,,,2023-06-12,清算の結了等,,,2015-10-05,1,,,,,ハギワラセンショク,0
134,1080001018495,登記記録の閉鎖等,0,2023-06-19,2023-06-15,株式会社協南自動車工業,,株式会社,静岡県,静岡市駿河区,南町３－１４エスカイア南町１１０,,22,102,4228067,,,2023-06-15,清算の結了等,,,2015-10-05,1,,,,,キョウナンジドウシャコウギョウ,0
135,1080001019568,登記記録の閉鎖等,0,2023-06-19,2023-06-15,アップス株式会社,,株式会社,静岡県,静岡市駿河区,小鹿１丁目７番２０号,,22,102,4228021,,,2023-06-15,清算の結了等,,,2015-10-05,1,,,,,アップス,0
140,1090001005303,登記記録の閉鎖等,0,2023-06-19,2023-06-06,株式会社レジコム,,株式会社,山梨県,甲府市,池田２丁目１１番５８号,,19,201,4000062,,,2023-06-06,清算の結了等,,,2015-10-05,1,,,,,レジコム,0
147,1110001019647,登記記録の閉鎖等,0,2023-06-19,2023-06-09,株式会社柳澤商店,,株式会社,新潟県,上越市,大潟区土底浜２９８０番地甲,,15,222,9493112,,,2023-06-09,清算の結了等,,,2015-10-05,1,,,,,ヤナギサワショウテン,0
157,1120001243345,登記記録の閉鎖等,0,2023-06-19,2023-06-15,リブジョイ株式会社,,株式会社,大阪府,交野市,倉治４丁目１７番１５号,,27,230,5760051,,,2023-06-15,清算の結了等,,,2022-01-24,1,,,,,リブジョイ,0
172,1130001013210,登記記録の閉鎖等,0,2023-06-19,2023-06-08,株式会社ハネックス・ロード,,株式会社,東京都,千代田区,麹町５丁目７番地２,,13,101,1020083,,,2023-06-08,合併による解散等,3010001062242,令和５年６月１日東京都千代田区麹町五丁目７番地２ベルテクス株式会社（3010001062242）に合併し解散,2015-10-05,1,,,,,ハネックスロード,0
178,1130005009816,登記記録の閉鎖等,0,2023-06-19,2023-06-09,特定非営利活動法人丹後福祉応援団,,その他の設立登記法人,京都府,与謝郡与謝野町,字加悦８０２番地７,,26,465,6292403,,,2023-06-09,清算の結了等,,,2015-10-05,1,,,,,タンゴフクシオウエンダン,0
197,1160001021284,登記記録の閉鎖等,0,2023-06-19,2023-06-15,株式会社三洲商事,,株式会社,滋賀県,大津市,皇子が丘２丁目４番１０－１２０５号,,25,201,5200025,,,2023-06-15,清算の結了等,,,2018-11-06,1,,,,,サンシュウショウジ,0
200,1180001089312,登記記録の閉鎖等,0,2023-06-19,2023-06-14,ティーエスジャパン株式会社,,株式会社,愛知県,名古屋市北区,喜惣治１丁目４１６番地の１,,23,103,4620065,,,2023-06-14,清算の結了等,,,2015-10-05,1,,,,,ティーエスジャパン,0
205,1180002035100,登記記録の閉鎖等,0,2023-06-19,2023-06-14,有限会社朝倉商店,,有限会社,愛知県,名古屋市天白区,原１丁目７２３番地,,23,116,4680015,,,2023-06-14,清算の結了等,,,2015-10-05,1,,,,,アサクラショウテン,0
206,1180002074684,登記記録の閉鎖等,0,2023-06-19,2023-06-16,有限会社田中商会,,有限会社,愛知県,丹羽郡大口町,萩島２丁目１２２番地,,23,361,4800124,,,2023-06-16,清算の結了等,,,2015-10-05,1,,,,,タナカショウカイ,0
231,1290001094557,登記記録の閉鎖等,0,2023-06-19,2023-06-08,アンドマンフィール株式会社,,株式会社,福岡県,福岡市中央区,天神１丁目９番１７号,,40,133,8100001,,,2023-06-08,清算の結了等,,,2021-09-08,1,,,,,アンドマンフィール,0
243,1340002013650,登記記録の閉鎖等,0,2023-06-19,2023-06-14,有限会社国分日通プロパン,,有限会社,鹿児島県,霧島市,国分新町８４９番地１,,46,218,8994351,,,2023-06-14,清算の結了等,,,2015-10-05,1,,,,,コクブニッツウプロパン,0
282,1450002011321,登記記録の閉鎖等,0,2023-06-19,2023-06-12,有限会社ふじわら,,有限会社,北海道,天塩郡豊富町,字上サロベツ２５４３番地１,,01,516,0984100,,,2023-06-12,清算の結了等,,,2023-05-15,1,,,,,,0
292,2010001043739,登記記録の閉鎖等,0,2023-06-19,2023-06-13,株式会社ゴルフメイト,,株式会社,東京都,中央区,銀座７丁目１３番４号,,13,102,1040061,,,2023-06-13,清算の結了等,,,2015-10-05,1,,,,,ゴルフメイト,0
295,2010001221195,登記記録の閉鎖等,0,2023-06-19,2023-06-12,ロシックス・ジャパン株式会社,,株式会社,東京都,千代田区,丸の内２丁目３番２号郵船ビルディング１階,,13,101,1000005,,,2023-06-12,清算の結了等,,,2021-09-22,1,,,,,ロシックスジャパン,0
302,2010401021377,登記記録の閉鎖等,0,2023-06-19,2023-06-07,株式会社ウラク,,株式会社,東京都,港区,麻布十番１丁目３番１号,,13,103,1060045,,,2023-06-07,清算の結了等,,,2015-10-05,1,,,,,,0
306,2010401123454,登記記録の閉鎖等,0,2023-06-19,2023-06-05,株式会社美歴,,株式会社,東京都,港区,赤坂２丁目９番１１号,,13,103,1070052,,,2023-06-05,合併による解散等,9010401120239,令和５年６月１日東京都港区赤坂二丁目９番１１号パイプドＨＤ株式会社（9010401120239）に合併し解散,2016-03-04,1,,,,,ビレキ,0
326,2011003007525,登記記録の閉鎖等,0,2023-06-19,2023-06-13,グローバルマーケティング合同会社,,合同会社,静岡県,沼津市,石川７５４番地の１,,22,203,4100317,,,2023-06-13,清算の結了等,,,2017-03-16,1,,,,,グローバルマーケティング,0
331,2011101050055,登記記録の閉鎖等,0,2023-06-19,2023-06-14,近代建設株式会社,,株式会社,東京都,新宿区,北新宿１丁目６番２１号,,13,104,1690074,,,2023-06-14,清算の結了等,,,2015-10-05,1,,,,,,0
375,2020003011049,登記記録の閉鎖等,0,2023-06-19,2023-06-12,オーディターズ合同会社,,合同会社,神奈川県,川崎市高津区,坂戸１丁目２番６－３０４号,,14,134,2130012,,,2023-06-12,清算の結了等,,,2016-03-14,1,,,,,オーディターズ,0
382,2021002041243,登記記録の閉鎖等,0,2023-06-19,2023-06-13,有限会社樹脂機型,,有限会社,神奈川県,大和市,代官１丁目８番地４,,14,213,2420025,,,2023-06-13,清算の結了等,,,2015-10-05,1,,,,,ジュシキガタ,0
387,2030001000779,登記記録の閉鎖等,0,2023-06-19,2023-06-01,エコ・フロンティア株式会社,,株式会社,埼玉県,さいたま市大宮区,上小町８７６番地,,11,103,3300855,,,2023-06-01,清算の結了等,,,2015-10-05,1,,,,,エコフロンティア,0
391,2030001088369,登記記録の閉鎖等,0,2023-06-19,2023-06-02,株式会社ＫＯＯ,,株式会社,埼玉県,熊谷市,銀座２丁目５９番地,,11,202,3600032,,,2023-06-02,清算の結了等,,,2015-10-05,1,,,,,クー,0
405,2030003009091,登記記録の閉鎖等,0,2023-06-19,2023-06-07,株式会社ｍｉｎｔｏｎ,,株式会社,東京都,港区,赤坂１丁目１２番３２号,,13,103,1070052,,,2023-06-07,清算の結了等,,,2016-07-12,1,,,,,ミントン,0
415,2040001108704,登記記録の閉鎖等,0,2023-06-19,2023-05-31,ア・ビュー株式会社,,株式会社,千葉県,旭市,ニ６０１６番地７,,12,215,2892504,,,2023-05-31,合併による解散等,1040001077132,令和５年５月３１日千葉県旭市ニ６０１６番地７株式会社アシスト（1040001077132）に合併し解散,2019-04-09,1,,,,,アビュー,0
428,2050002036671,登記記録の閉鎖等,0,2023-06-19,2023-06-12,有限会社ホクソウ,,有限会社,茨城県,取手市,西１丁目２８番２９号,,08,217,3020025,,,2023-06-12,清算の結了等,,,2015-10-05,1,,,,,ホクソウ,0
430,2050005011960,登記記録の閉鎖等,0,2023-06-19,2023-06-12,特定非営利活動法人母子生活支援センターＰＬＵＳ,,その他の設立登記法人,茨城県,つくば市,二の宮４丁目６番地１小野崎アパート９棟１０５号,,08,220,3050051,,,2023-06-12,清算の結了等,,,2016-10-13,1,,,,,ボシセイカツシエンセンタープラス,0
431,2060001008423,登記記録の閉鎖等,0,2023-06-19,2023-06-08,株式会社サンウッド,,株式会社,栃木県,日光市,今市１１８７番地５,,09,206,3211261,,,2023-06-08,清算の結了等,,,2015-10-05,1,,,,,サンウッド,0
451,2110003003144,登記記録の閉鎖等,0,2023-06-19,2023-06-12,ボーダーレス合同会社,,合同会社,新潟県,小千谷市,大字桜町３１０１番地２ボーダーレスビル,,15,208,9470035,,,2023-06-12,清算の結了等,,,2015-10-05,1,,,,,ボーダーレス,0
456,2120001230615,登記記録の閉鎖等,0,2023-06-19,2023-06-15,株式会社ＰＡＦＹ,,株式会社,大阪府,大阪市北区,西天満４丁目１５番１８号プラザ梅新１５０５号,,27,127,5300047,,,2023-06-15,清算の結了等,,,2020-07-29,1,,,,,パフィ,0
476,2130001041103,登記記録の閉鎖等,0,2023-06-19,2023-06-12,勝榮石材株式会社,,株式会社,京都府,福知山市,和久市町２４６番地の１,,26,201,6200062,,,2023-06-12,清算の結了等,,,2022-08-08,1,,,,,ショウエイセキザイ,0
477,2130001052892,登記記録の閉鎖等,0,2023-06-19,2023-06-15,株式会社ジャスティス,,株式会社,京都府,城陽市,久世上大谷１１６番地の１,,26,207,6100102,,,2023-06-15,清算の結了等,,,2015-10-05,1,,,,,ジャスティス,0
483,2140001069093,登記記録の閉鎖等,0,2023-06-19,2023-06-14,株式会社シュトオ建設工業,,株式会社,兵庫県,西宮市,久保町１４番３３号,,28,204,6620927,,,2023-06-14,清算の結了等,,,2015-10-05,1,,,,,シュトオケンセツコウギョウ,0
497,2180001087711,登記記録の閉鎖等,0,2023-06-19,2023-06-15,森乳ナカガワ株式会社,,株式会社,愛知県,江南市,松竹町西瀬古２６１番地,,23,217,4838355,,,2023-06-15,清算の結了等,,,2015-10-05,1,,,,,モリニュウナカガワ,0
500,2180002048910,登記記録の閉鎖等,0,2023-06-19,2023-06-09,有限会社リープ,,有限会社,愛知県,名古屋市南区,柴田本通３丁目３番地２,,23,112,4570814,,,2023-06-09,清算の結了等,,,2015-10-05,1,,,,,リープ,0
502,2180002066631,登記記録の閉鎖等,0,2023-06-19,2023-06-14,有限会社つげ,,有限会社,愛知県,春日井市,玉野町７６番地の２,,23,206,4870004,,,2023-06-14,清算の結了等,,,2015-10-05,1,,,,,ツゲ,0
504,2180002073289,登記記録の閉鎖等,0,2023-06-19,2023-06-15,有限会社丸公商会,,有限会社,愛知県,瀬戸市,東山町１丁目１４１番地の３０,,23,204,4890988,,,2023-06-15,清算の結了等,,,2015-10-05,1,,,,,マルコウショウカイ,0
545,2290802022319,登記記録の閉鎖等,0,2023-06-19,2023-06-16,有限会社白川メディカル,,有限会社,福岡県,行橋市,北泉２丁目４番３号,,40,213,8240033,,,2023-06-16,清算の結了等,,,2015-10-05,1,,,,,シラカワメディカル,0
571,2410001010434,登記記録の閉鎖等,0,2023-06-19,2023-06-09,株式会社アナログデザイン,,株式会社,秋田県,由利本荘市,川口字大覚１８２番地,,05,210,0150051,,,2023-06-09,清算の結了等,,,2015-10-05,1,,,,,アナログデザイン,0
576,2470001013456,登記記録の閉鎖等,0,2023-06-19,2023-06-12,株式会社草薙電機,,株式会社,香川県,丸亀市,飯山町上法軍寺１０５０番地５,,37,202,7620084,,,2023-06-12,清算の結了等,,,2015-10-05,1,,,,,クサナギデンキ,0
591,3010001088031,登記記録の閉鎖等,0,2023-06-19,2023-06-12,株式会社アドバタイズ,,株式会社,東京都,中央区,築地１丁目５番１１号,,13,102,1040045,,,2023-06-12,清算の結了等,,,2015-10-05,1,,,,,アドバタイズ,0
605,3010002045221,登記記録の閉鎖等,0,2023-06-19,2023-06-09,有限会社ＬＨインタナショナル,,有限会社,東京都,品川区,西五反田２丁目１０番８号,,13,109,1410031,,,2023-06-09,清算の結了等,,,2015-10-05,1,,,,,エルエイチインタナショナル,0
612,3010401082609,登記記録の閉鎖等,0,2023-06-19,2023-06-06,アビリティデザイン株式会社,,株式会社,東京都,港区,南青山２丁目２番１５号,,13,103,1070062,,,2023-06-06,清算の結了等,,,2015-10-05,1,,,,,アビリティデザイン,0
614,3010401107175,登記記録の閉鎖等,0,2023-06-19,2023-06-05,Ｇｏｏｄｇａｍｅ　Ｓｔｕｄｉｏｓ　Ｊａｐａｎ株式会社,,株式会社,東京都,港区,西新橋１丁目２番９号日比谷セントラルビル１４階,,13,103,1050003,,,2023-06-05,清算の結了等,,,2015-10-05,1,,,,,グッドゲームスタジオズ,0
615,3010401123453,登記記録の閉鎖等,0,2023-06-19,2023-06-05,株式会社フレンディット,,株式会社,東京都,港区,赤坂２丁目１８番１４号,,13,103,1070052,,,2023-06-05,合併による解散等,9010401120239,令和５年６月１日東京都港区赤坂二丁目９番１１号パイプドＨＤ株式会社（9010401120239）に合併し解散,2016-03-04,1,,,,,フレンディット,0
626,3010901047986,登記記録の閉鎖等,0,2023-06-19,2023-06-14,ＳＥＬＥＣＫ株式会社,,株式会社,東京都,世田谷区,三軒茶屋２丁目１１番２３号,,13,112,1540024,,,2023-06-14,合併による解散等,9130001019209,令和５年５月３１日京都市下京区烏丸通四条下ル水銀屋町６２０番地株式会社ゆめみ（9130001019209）に合併し解散,2021-02-05,1,,,,,セレック,0
636,3011002011196,登記記録の閉鎖等,0,2023-06-19,2023-06-14,有限会社風味堂,,有限会社,東京都,渋谷区,道玄坂２丁目２３番１２号,,13,113,1500043,,,2023-06-14,清算の結了等,,,2015-10-05,1,,,,,フウミドウ,0
646,3011303003181,登記記録の閉鎖等,0,2023-06-19,2023-06-08,ヒマスタ＆ＪＵＮＳ合同会社,,合同会社,東京都,杉並区,高円寺北２丁目１番２４号,,13,115,1660002,,,2023-06-08,清算の結了等,,,2018-12-05,1,,,,,ヒマスタアンドジュンズ,0
656,3012401011992,登記記録の閉鎖等,0,2023-06-19,2023-06-16,株式会社ヤマエー,,株式会社,東京都,武蔵野市,関前３丁目３番１２号,,13,203,1800014,,,2023-06-16,清算の結了等,,,2015-10-05,1,,,,,ヤマエー,0
658,3012403003179,登記記録の閉鎖等,0,2023-06-19,2023-06-19,武蔵野アセットマネジメント合同会社,,合同会社,東京都,小金井市,前原町１丁目１６番１４号,,13,210,1840013,,,2023-06-19,清算の結了等,,,2017-08-18,1,,,,,ムサシノアセットマネジメント,0
680,3030001038488,登記記録の閉鎖等,0,2023-06-19,2023-06-02,株式会社マックス・ロジ,,株式会社,埼玉県,三郷市,新和３丁目８７番地,,11,237,3410034,,,2023-06-02,清算の結了等,,,2015-10-05,1,,,,,マックスロジ,0
682,3030001111212,登記記録の閉鎖等,0,2023-06-19,2023-05-31,株式会社米澤美装,,株式会社,埼玉県,さいたま市岩槻区,宮町２丁目３番１号,,11,110,3390065,,,2023-05-31,清算の結了等,,,2015-11-06,1,,,,,ヨネザワビソウ,0
771,3122003001497,登記記録の閉鎖等,0,2023-06-19,2023-06-12,合同会社アイクス,,合同会社,大阪府,東大阪市,俊徳町５丁目１番２７－２０２号,,27,227,5770831,,,2023-06-12,清算の結了等,,,2018-05-09,1,,,,,アイクス,0
786,3140001109740,登記記録の閉鎖等,0,2023-06-19,2023-06-14,株式会社伸幸道路,,株式会社,兵庫県,神戸市兵庫区,荒田町４丁目２９番２２－１２０７号,,28,105,6520032,,,2023-06-14,清算の結了等,,,2018-04-17,1,,,,,シンコウドウロ,0
818,3200005012414,登記記録の閉鎖等,0,2023-06-19,2023-06-08,一般社団法人寄せ植え華道協会,,その他の設立登記法人,岐阜県,可児市,瀬田１５８１番地１,,21,214,5090213,,,2023-06-08,清算の結了等,,,2016-01-20,1,,,,,ヨセウエカドウキョウカイ,0
831,3280002000827,登記記録の閉鎖等,0,2023-06-19,2023-06-12,有限会社小西紙本店,,有限会社,島根県,松江市,竪町９９番地,,32,201,6900052,,,2023-06-12,清算の結了等,,,2015-10-05,1,,,,,コニシカミホンテン,0
832,3280005000295,登記記録の閉鎖等,0,2023-06-19,2023-06-12,協同組合松江名産センター,,その他の設立登記法人,島根県,松江市,千鳥町３６番地,,32,201,6900852,,,2023-06-12,清算の結了等,,,2015-10-05,1,,,,,マツエメイサンセンター,0
839,3290001078649,登記記録の閉鎖等,0,2023-06-19,2023-06-14,株式会社ＭＹＴ,,株式会社,福岡県,春日市,春日公園７丁目９４番地,,40,218,8160811,,,2023-06-14,清算の結了等,,,2017-08-04,1,,,,,エムワイティ,0
855,3360002019082,登記記録の閉鎖等,0,2023-06-19,2023-06-09,有限会社榮基礎工業,,有限会社,沖縄県,中頭郡中城村,字屋宜７３２番地の２,,47,328,9012405,,,2023-06-09,清算の結了等,,,2015-10-05,1,,,,,,0
863,3370601000020,登記記録の閉鎖等,0,2023-06-19,2023-06-14,株式会社アサヒ薬局,,株式会社,宮城県,塩竈市,港町２丁目５番１０号,,04,203,9850016,,,2023-06-14,清算の結了等,,,2015-10-05,1,,,,,アサヒヤッキョク,0
885,3470002010963,登記記録の閉鎖等,0,2023-06-19,2023-06-13,有限会社魚安,,有限会社,香川県,綾歌郡綾川町,牛川５８２番地１９,,37,387,7612208,,,2023-06-13,清算の結了等,,,2015-10-05,1,,,,,ウオヤス,0
886,3500002016338,登記記録の閉鎖等,0,2023-06-19,2023-06-14,有限会社小藪工業,,有限会社,愛媛県,新居浜市,西町５番８号,,38,205,7920014,,,2023-06-14,清算の結了等,,,2015-10-05,1,,,,,コヤブコウギョウ,0
893,4010001117342,登記記録の閉鎖等,0,2023-06-19,2023-06-12,室町ホールディングス株式会社,,株式会社,東京都,中央区,日本橋室町４丁目１番４号,,13,102,1030022,,,2023-06-12,清算の結了等,,,2015-10-05,1,,,,,ムロマチホールディングス,0
931,4011001134237,登記記録の閉鎖等,0,2023-06-19,2023-06-13,株式会社ＲＥＴＯ,,株式会社,東京都,渋谷区,猿楽町７－１２,,13,113,1500033,,,2023-06-13,清算の結了等,,,2020-06-22,1,,,,,レト,0
940,4011201001641,登記記録の閉鎖等,0,2023-06-19,2023-06-16,小池工業株式会社,,株式会社,東京都,中野区,南台４丁目２３番４号,,13,114,1640014,,,2023-06-16,清算の結了等,,,2015-10-05,1,,,,,コイケコウギョウ,0
975,4030001026590,登記記録の閉鎖等,0,2023-06-19,2023-05-31,株式会社フジモト,,株式会社,埼玉県,狭山市,入間川１１１１番地の６グリーンハイツ１０１,,11,215,3501305,,,2023-05-31,清算の結了等,,,2015-10-05,1,,,,,フジモト,0
1018,4060002005608,登記記録の閉鎖等,0,2023-06-19,2023-06-08,有限会社太陽,,有限会社,栃木県,宇都宮市,宮原１丁目７番１号,,09,201,3200835,,,2023-06-08,清算の結了等,,,2015-10-05,1,,,,,タイヨウ,0
1028,4080402002608,登記記録の閉鎖等,0,2023-06-19,2023-06-15,有限会社グリーン・ヘルス,,有限会社,静岡県,浜松市北区,三方原町２２５５番地の２,,22,135,4338105,,,2023-06-15,清算の結了等,,,2015-10-05,1,,,,,グリーンヘルス,0
1035,4110002004843,登記記録の閉鎖等,0,2023-06-19,2023-06-12,有限会社新潟電子サービス,,有限会社,新潟県,新潟市中央区,鳥屋野南２丁目２番２号,,15,103,9500950,,,2023-06-12,清算の結了等,,,2015-10-05,1,,,,,ニイガタデンシサービス,0
1037,4110003003992,登記記録の閉鎖等,0,2023-06-19,2023-06-12,合資会社上赤谷炭鑛,00117530,合資会社,新潟県,新発田市,上赤谷２８０３番地,,15,206,9570464,,,2023-06-12,清算の結了等,,,2019-08-29,1,,,,,カミアカタニタンコウ,0
1039,4120001158136,登記記録の閉鎖等,0,2023-06-19,2023-06-14,ＨＳ管財株式会社,,株式会社,大阪府,門真市,柳田町３番２号,,27,223,5710038,,,2023-06-14,清算の結了等,,,2015-10-05,1,,,,,エイチエスカンザイ,0
1052,4122001000962,登記記録の閉鎖等,0,2023-06-19,2023-06-01,永和ゴム株式会社,,株式会社,大阪府,東大阪市,長瀬町１丁目８番１０号,,27,227,5770832,,,2023-06-01,合併による解散等,1122001009296,令和５年６月１日大阪府東大阪市長瀬町一丁目８番１０号株式会社グローブ（1122001009296）に合併し解散,2015-10-05,1,,,,,エイワゴム,0
1070,4150002011398,登記記録の閉鎖等,0,2023-06-19,2023-06-15,有限会社ケアサポートしもむら,,有限会社,奈良県,吉野郡天川村,大字庵住２３４番地,,29,446,6380552,,,2023-06-15,清算の結了等,,,2015-10-05,1,,,,,ケアサポートシモムラ,0
1072,4160001001531,登記記録の閉鎖等,0,2023-06-19,2023-06-15,株式会社至誠館,,株式会社,滋賀県,大津市,長等１丁目４番２８号,,25,201,5200046,,,2023-06-15,清算の結了等,,,2015-10-05,1,,,,,シジョウカン,0
1078,4180001073445,登記記録の閉鎖等,0,2023-06-19,2023-06-14,株式会社アイショー,,株式会社,愛知県,日進市,岩崎町元井ゲ１７番地９,,23,230,4700131,,,2023-06-14,清算の結了等,,,2015-10-05,1,,,,,アイショー,0
1088,4190001028365,登記記録の閉鎖等,0,2023-06-19,2023-06-14,株式会社Ｆ．Ｆ．カンパニー,,株式会社,三重県,多気郡明和町,大字佐田２３７５番地１,,24,442,5150331,,,2023-06-14,清算の結了等,,,2021-06-02,1,,,,,エフエフカンパニー,0
1100,4250002011272,登記記録の閉鎖等,0,2023-06-19,2023-06-13,有限会社森重水産,,有限会社,山口県,下関市,川中本町１９番３２号,,35,201,7510859,,,2023-06-13,清算の結了等,,,2015-10-05,1,,,,,モリシゲスイサン,0
1112,4290002040813,登記記録の閉鎖等,0,2023-06-19,2023-06-14,有限会社サクセス塚原,00102118,有限会社,福岡県,春日市,塚原台１丁目１番地の１,00102119,40,218,8160841,,,2023-06-14,清算の結了等,,,2015-10-05,1,,,,,サクセスツカハラ,0
1122,4320001013353,登記記録の閉鎖等,0,2023-06-19,2023-06-14,株式会社トライ保険,,株式会社,大分県,別府市,若草町３番２７号グランベール別府２０６号,,44,202,8740925,,,2023-06-14,清算の結了等,,,2015-10-05,1,,,,,,0
1143,4420002008846,登記記録の閉鎖等,0,2023-06-19,2023-06-07,有限会社マルツネ不動産,,有限会社,青森県,八戸市,大字尻内町字鴨田６番地２,,02,203,0391101,,,2023-06-07,清算の結了等,,,2015-10-05,1,,,,,,0
1180,5010401053764,登記記録の閉鎖等,0,2023-06-19,2023-06-05,株式会社パイプドビッツ,,株式会社,東京都,港区,赤坂２丁目９番１１号,,13,103,1070052,,,2023-06-05,合併による解散等,9010401120239,令和５年６月１日東京都港区赤坂二丁目９番１１号パイプドＨＤ株式会社（9010401120239）に合併し解散,2015-10-05,1,,,,,パイプドビッツ,0
1181,5010401095195,登記記録の閉鎖等,0,2023-06-19,2023-04-24,株式会社プリランギットヴィラズアンドホテルズ,,株式会社,東京都,港区,南麻布４丁目１４番１号,,13,103,1060047,,,2023-04-24,清算の結了等,,,2015-10-05,1,,,,,プリランギットヴィラズアンドホテルズ,0
1183,5010401125514,登記記録の閉鎖等,0,2023-06-19,2023-06-02,愛サポート株式会社,,株式会社,東京都,港区,新橋２丁目２０－１５,,13,103,1050004,,,2023-06-02,清算の結了等,,,2016-06-27,1,,,,,アイサポート,0
1184,5010401130068,登記記録の閉鎖等,0,2023-06-19,2023-06-05,株式会社ＶＯＴＥ　ＦＯＲ,,株式会社,東京都,港区,赤坂２丁目９番１１号,,13,103,1070052,,,2023-06-05,合併による解散等,9010401120239,令和５年６月１日東京都港区赤坂二丁目９番１１号パイプドＨＤ株式会社（9010401120239）に合併し解散,2017-03-07,1,,,,,ヴォートフォー,0
1187,5010401149802,登記記録の閉鎖等,0,2023-06-19,2023-06-05,Ｃｙｂｅｒ　Ｄａｒｔ株式会社,,株式会社,東京都,港区,浜松町２丁目２番１５号浜松町ダイヤビル２Ｆ,,13,103,1050013,,,2023-06-05,清算の結了等,,,2019-12-12,1,,,,,サイバーダート,0
1197,5010502020250,登記記録の閉鎖等,0,2023-06-19,2023-06-13,有限会社ナカジマラボラトリー,,有限会社,東京都,台東区,蔵前２丁目１２－４,,13,106,1110051,,,2023-06-13,合併による解散等,7010502020249,令和５年６月１日東京都渋谷区神泉町１０番１５号株式会社ナカジママーケティング（7010502020249）に合併し解散,2015-10-05,1,,,,,,0
1200,5010701041576,登記記録の閉鎖等,0,2023-06-19,2023-06-15,フラッシュ・テクノロジーズ株式会社,,株式会社,東京都,品川区,東五反田１丁目１３番１２号いちご五反田ビル１０階,,13,109,1410022,,,2023-06-15,清算の結了等,,,2021-10-04,1,,,,,フラッシュテクノロジーズ,0
1234,5013402004109,登記記録の閉鎖等,0,2023-06-19,2023-06-14,有限会社メディカルヘルス研究所,,有限会社,東京都,日野市,西平山５丁目２７番地の１０,,13,212,1910055,,,2023-06-14,清算の結了等,,,2015-10-05,1,,,,,メディカルヘルスケンキュウショ,0
1236,5020001121375,登記記録の閉鎖等,0,2023-06-19,2023-06-09,株式会社アルテパートナーズ,,株式会社,神奈川県,横浜市中区,翁町１丁目４番１号,,14,104,2310028,,,2023-06-09,合併による解散等,1020001033236,令和５年６月１日横浜市中区翁町一丁目４番１号株式会社アルテサロンホールディングス（1020001033236）に合併し解散,2017-05-17,1,,,,,アルテパートナーズ,0
1247,5021001046736,登記記録の閉鎖等,0,2023-06-19,2023-06-14,全広社ビル株式会社,,株式会社,神奈川県,大和市,中央２丁目４番１４号,,14,213,2420021,,,2023-06-14,清算の結了等,,,2015-10-05,1,,,,,ゼンコウシャビル,0
1266,5030002022084,登記記録の閉鎖等,0,2023-06-19,2023-06-01,有限会社インターウェーブ,,有限会社,埼玉県,蓮田市,大字井沼９９０番地,,11,238,3490135,,,2023-06-01,清算の結了等,,,2015-10-05,1,,,,,インターウェーブ,0
1291,5060001008610,登記記録の閉鎖等,0,2023-06-19,2023-06-09,株式会社たつみ娯楽,,株式会社,栃木県,日光市,下鉢石町８４０番地,,09,206,3211403,,,2023-06-09,清算の結了等,,,2015-10-05,1,,,,,タツミゴラク,0
1306,5080403003991,登記記録の閉鎖等,0,2023-06-19,2023-06-15,合同会社ＳＨＩＯＮ,,合同会社,静岡県,浜松市中区,蜆塚３丁目１８番２８号,,22,131,4328018,,,2023-06-15,清算の結了等,,,2020-02-27,1,,,,,シオン,0
1314,5090002007484,登記記録の閉鎖等,0,2023-06-19,2023-06-09,有限会社塚原商事,,有限会社,山梨県,南アルプス市,百々３４７７番地２４,,19,208,4000214,,,2023-06-09,清算の結了等,,,2015-10-05,1,,,,,ツカハラショウジ,0
1371,5180001061110,登記記録の閉鎖等,0,2023-06-19,2023-06-15,ＨＥＲＯトータルサービス株式会社,,株式会社,愛知県,名古屋市港区,明正２丁目２２３番地,,23,111,4550806,,,2023-06-15,清算の結了等,,,2015-10-05,1,,,,,ヒーロートータルサービス,0
1374,5180001141201,登記記録の閉鎖等,0,2023-06-19,2023-06-14,Ｋａｙａｍａ　Ｇｒｅｅｎ　Ｅｎｅｒｇｙ株式会社,,株式会社,愛知県,名古屋市熱田区,南一番町１５番５号,,23,109,4560055,,,2023-06-14,清算の結了等,,,2020-05-20,1,,,,,カヤマグリーンエナジー,0
1378,5180003013786,登記記録の閉鎖等,0,2023-06-19,2023-06-14,合資会社相互七宝製作所,,合資会社,愛知県,あま市,七宝町遠島泉水８４２番地の３,,23,237,4970002,,,2023-06-14,清算の結了等,,,2015-10-05,1,,,,,ソウゴシッポウセイサクショ,0
1385,5210001010807,登記記録の閉鎖等,0,2023-06-19,2023-06-12,株式会社八千代エンジニアリング,,株式会社,福井県,敦賀市,中２６号４番地,,18,202,9140028,,,2023-06-12,清算の結了等,,,2015-10-05,1,,,,,ヤチヨエンジニアリング,0
1393,5240001035710,登記記録の閉鎖等,0,2023-06-19,2023-06-13,株式会社Ｍａｐ教育研究所,,株式会社,広島県,福山市,本町５番８号,,34,207,7200056,,,2023-06-13,清算の結了等,,,2015-10-05,1,,,,,マップキョウイクケンキュウジョ,0
1410,5290002047774,登記記録の閉鎖等,0,2023-06-19,2023-06-15,有限会社境エクステリア,,有限会社,福岡県,八女郡広川町,大字広川２１２２番地の８,,40,544,8340121,,,2023-06-15,清算の結了等,,,2015-10-05,1,,,,,,0
1447,5460301002462,登記記録の閉鎖等,0,2023-06-19,2023-06-15,株式会社上杉製作所,,株式会社,北海道,紋別郡湧別町,中湧別北町１４９番地,,01,559,0996326,,,2023-06-15,清算の結了等,,,2015-10-05,1,,,,,ウエスギセイサクショ,0
1451,5500001024265,登記記録の閉鎖等,0,2023-06-19,2023-06-16,株式会社いまじん,,株式会社,愛媛県,新居浜市,阿島２丁目８番１８号,,38,205,7920896,,,2023-06-16,清算の結了等,,,2022-06-15,1,,,,,イマジン,0
1458,6010001099389,登記記録の閉鎖等,0,2023-06-19,2023-06-14,株式会社アイオン,,株式会社,神奈川県,藤沢市,羽鳥１丁目１番１－５５３号,,14,205,2510056,,,2023-06-14,清算の結了等,,,2015-10-05,1,,,,,アイオン,0
1461,6010001117670,登記記録の閉鎖等,0,2023-06-19,2023-06-12,イーサイトヘルスケア株式会社,,株式会社,東京都,千代田区,神田須田町１丁目１６番５号,,13,101,1010041,,,2023-06-12,合併による解散等,7430001007119,令和５年５月３１日札幌市中央区北四条東一丁目２番地３株式会社ジェイマックシステム（7430001007119）に合併し解散,2015-10-05,1,,,,,イーサイトヘルスケア,0
1471,6010003022803,登記記録の閉鎖等,0,2023-06-19,2023-06-12,合同会社フィールベターシステム,,合同会社,東京都,千代田区,東神田３丁目２－４東神田サマリヤマンション５０１,,13,101,1010031,,,2023-06-12,清算の結了等,,,2015-12-14,1,,,,,フィールベターシステム,0
1473,6010003032802,登記記録の閉鎖等,0,2023-06-19,2023-06-12,オーパスファンディング４合同会社,,合同会社,東京都,千代田区,丸の内３丁目１番１号東京共同会計事務所内,,13,101,1000005,,,2023-06-12,清算の結了等,,,2020-08-13,1,,,,,オーパスファンディングフォー,0
1488,6010502020621,登記記録の閉鎖等,0,2023-06-19,2023-06-13,有限会社ナカジマプリンティングアベ,,有限会社,東京都,台東区,蔵前２丁目１２－４,,13,106,1110051,,,2023-06-13,合併による解散等,5010502020622,令和５年６月１日東京都渋谷区神泉町１０番１５号株式会社ナカジマデリバリーセンター（5010502020622）に合併し解散,2015-10-05,1,,,,,,0
1492,6010701034760,登記記録の閉鎖等,0,2023-06-19,2023-06-13,株式会社ｓｅｅｄ,,株式会社,福島県,郡山市,堤下町１１番９号山水ビル３階,,07,203,9638878,,,2023-06-13,清算の結了等,,,2017-09-28,1,,,,,シード,0
1494,6010703002286,登記記録の閉鎖等,0,2023-06-19,2023-06-13,合同会社ＨＧエンターテインメント,,合同会社,東京都,荒川区,荒川３丁目３２番８号山岸ビル７階,,13,118,1160002,,,2023-06-13,清算の結了等,,,2015-10-05,1,,,,,エイチジーエンターテインメント,0
1522,6011802029567,登記記録の閉鎖等,0,2023-06-19,2023-06-15,みどりの風進栄有限会社,,有限会社,東京都,足立区,中央本町４丁目１６番２－３１７号,,13,121,1210011,,,2023-06-15,清算の結了等,,,2015-10-05,1,,,,,ミドリノカゼシンエイ,0
1525,6012401023878,登記記録の閉鎖等,0,2023-06-19,2023-06-16,Ｂｅ　Ｎａｔｕｒａｌ株式会社,,株式会社,東京都,調布市,深大寺北町４丁目１６番地１３,,13,208,1820011,,,2023-06-16,清算の結了等,,,2015-10-05,1,,,,,,0
1527,6012802006028,登記記録の閉鎖等,0,2023-06-19,2023-06-13,有限会社長倉製作所,,有限会社,東京都,武蔵村山市,伊奈平１丁目２４番地の５,,13,223,2080023,,,2023-06-13,清算の結了等,,,2015-10-05,1,,,,,ナガクラセイサクジョ,0
1535,6020001105682,登記記録の閉鎖等,0,2023-06-19,2023-06-09,株式会社エバーエスト,,株式会社,神奈川県,横浜市中区,元町４丁目１６８番,,14,104,2310861,,,2023-06-09,清算の結了等,,,2015-10-05,1,,,,,エバーエスト,0
1554,6030001140670,登記記録の閉鎖等,0,2023-06-19,2023-06-01,株式会社熊崎総合コンサルティング,00122125,株式会社,埼玉県,深谷市,東方３２５７番地６,,11,218,3660041,,,2023-06-01,清算の結了等,,,2021-02-10,1,,,,,クマザキソウゴウコンサルティング,0
1555,6030001142469,登記記録の閉鎖等,0,2023-06-19,2023-06-02,株式会社ＤＡＰ,,株式会社,埼玉県,さいたま市大宮区,宮町２丁目７番地,,11,103,3300802,,,2023-06-02,清算の結了等,,,2021-06-01,1,,,,,ディーエーピー,0
1591,6080005004446,登記記録の閉鎖等,0,2023-06-19,2023-06-15,静岡金属一般労働組合島田理化支部,,その他の設立登記法人,静岡県,焼津市,中港１丁目２番３号,,22,212,4250021,,,2023-06-15,清算の結了等,,,2015-10-05,1,,,,,シズオカキンゾクイッパンシマダリカシブ,0
1593,6080402006425,登記記録の閉鎖等,0,2023-06-19,2023-06-14,有限会社半田電気工事,,有限会社,静岡県,浜松市東区,半田山３丁目１３番５号,,22,132,4313125,,,2023-06-14,清算の結了等,,,2015-10-05,1,,,,,ハンダデンキゴウジ,0
1596,6080402019096,登記記録の閉鎖等,0,2023-06-19,2023-06-15,有限会社創亜,,有限会社,静岡県,御前崎市,佐倉２０８３番地の８,,22,223,4371604,,,2023-06-15,清算の結了等,,,2015-10-05,1,,,,,ソウア,0
1599,6090003001568,登記記録の閉鎖等,0,2023-06-19,2023-06-14,合同会社おと金,,合同会社,山梨県,甲府市,住吉３丁目１番２４号,,19,201,4000851,,,2023-06-14,清算の結了等,,,2019-09-05,1,,,,,オトキン,0
1606,6120001204920,登記記録の閉鎖等,0,2023-06-19,2023-06-14,株式会社Ｄａｖｉｎｃｉ,,株式会社,大阪府,大阪市淀川区,西中島３丁目１８番１７号,,27,123,5320011,,,2023-06-14,清算の結了等,,,2017-04-11,1,,,,,ダビンチ,0
1619,6130001057335,登記記録の閉鎖等,0,2023-06-19,2023-06-12,株式会社雅ホームテック,,株式会社,京都府,京都市下京区,木屋町通松原下る材木町４２７番地メゾン小暮３０１号,,26,106,6008016,,,2023-06-12,清算の結了等,,,2016-04-25,1,,,,,,0
1640,6140002062548,登記記録の閉鎖等,0,2023-06-19,2023-06-13,有限会社西村石材工芸社,,有限会社,兵庫県,西脇市,黒田庄町船町４０８番地の１,,28,213,6790304,,,2023-06-13,清算の結了等,,,2015-10-05,1,,,,,ニシムラセキザイコウゲイシャ,0
1647,6170001006800,登記記録の閉鎖等,0,2023-06-19,2023-06-15,株式会社吉野,,株式会社,和歌山県,和歌山市,野崎１８２番地の１２,,30,201,6408402,,,2023-06-15,清算の結了等,,,2015-10-05,1,,,,,,0
1651,6180001006915,登記記録の閉鎖等,0,2023-06-19,2023-06-16,東海貨物作業株式会社,,株式会社,愛知県,名古屋市港区,浜１丁目２番１０号,,23,111,4550036,,,2023-06-16,清算の結了等,,,2015-10-05,1,,,,,トウカイカモツサギョウ,0
1653,6180001089794,登記記録の閉鎖等,0,2023-06-19,2023-06-14,株式会社シンセイ,,株式会社,愛知県,名古屋市中川区,西日置２丁目１４番１２号,,23,110,4540004,,,2023-06-14,清算の結了等,,,2015-10-05,1,,,,,シンセイ,0
1665,6180302027073,登記記録の閉鎖等,0,2023-06-19,2023-06-16,有限会社アートワークナカハラ,,有限会社,愛知県,西尾市,丁田町杢左８１番地３,,23,213,4450062,,,2023-06-16,清算の結了等,,,2015-10-05,1,,,,,アートワークナカハラ,0
1666,6190001010107,登記記録の閉鎖等,0,2023-06-19,2023-06-14,株式会社稲垣商会,,株式会社,三重県,松阪市,殿町１２４１番地の３,,24,204,5150073,,,2023-06-14,清算の結了等,,,2015-10-05,1,,,,,イナガキショウカイ,0
1669,6200005010530,登記記録の閉鎖等,0,2023-06-19,2023-06-15,下呂総合木材市売協同組合,,その他の設立登記法人,岐阜県,下呂市,乗政字暮石１２２番地の２,,21,220,5092311,,,2023-06-15,清算の結了等,,,2015-10-05,1,,,,,ゲロソウゴウモクザイイチウリ,0
1677,6230002002255,登記記録の閉鎖等,0,2023-06-19,2023-06-15,有限会社天正堂,,有限会社,富山県,富山市,奥田双葉町４番７号,,16,201,9300851,,,2023-06-15,清算の結了等,,,2015-10-05,1,,,,,テンショウドウ,0
1691,6280002009997,登記記録の閉鎖等,0,2023-06-19,2023-06-12,有限会社写真の鮎川,,有限会社,島根県,益田市,あけぼの本町３番地１,,32,204,6980026,,,2023-06-12,清算の結了等,,,2015-10-05,1,,,,,シャシンノアユカワ,0
1701,6290002023989,登記記録の閉鎖等,0,2023-06-19,2023-06-15,有限会社創屋,,有限会社,福岡県,福岡市中央区,清川２丁目１２番４－４０２号,,40,133,8100005,,,2023-06-15,清算の結了等,,,2015-10-05,1,,,,,,0
1718,6370001040787,登記記録の閉鎖等,0,2023-06-19,2023-06-16,株式会社プロスト,,株式会社,宮城県,角田市,横倉字山崎４５番地７９,,04,208,9811512,,,2023-06-16,清算の結了等,,,2017-01-13,1,,,,,プロスト,0
1751,7010401130066,登記記録の閉鎖等,0,2023-06-19,2023-06-05,株式会社アイラブ,,株式会社,東京都,港区,赤坂２丁目９番１１号,,13,103,1070052,,,2023-06-05,合併による解散等,9010401120239,令和５年６月１日東京都港区赤坂二丁目９番１１号パイプドＨＤ株式会社（9010401120239）に合併し解散,2017-03-07,1,,,,,アイラブ,0
1767,7010502018813,登記記録の閉鎖等,0,2023-06-19,2023-06-13,有限会社中島森ビニール商会,,有限会社,東京都,台東区,蔵前２丁目１２－４,,13,106,1110051,,,2023-06-13,合併による解散等,5010502020622,令和５年６月１日東京都渋谷区神泉町１０番１５号株式会社ナカジマデリバリーセンター（5010502020622）に合併し解散,2015-10-05,1,,,,,,0
1769,7010502020620,登記記録の閉鎖等,0,2023-06-19,2023-06-13,有限会社中嶋健ビニール製作所,,有限会社,東京都,台東区,蔵前２丁目１２－４,,13,106,1110051,,,2023-06-13,合併による解散等,7010502020249,令和５年６月１日東京都渋谷区神泉町１０番１５号株式会社ナカジママーケティング（7010502020249）に合併し解散,2015-10-05,1,,,,,,0
1774,7010601053001,登記記録の閉鎖等,0,2023-06-19,2023-06-13,ｆｅｅｌ　ｇｏｏｄ株式会社,,株式会社,東京都,台東区,三筋２丁目１５番１０号２Ｆ,,13,106,1110055,,,2023-06-13,清算の結了等,,,2018-03-13,1,,,,,フィールグッド,0
1804,7013102000827,登記記録の閉鎖等,0,2023-06-19,2023-06-16,ベターライフ出版有限会社,,有限会社,東京都,福生市,加美平１丁目２３番地８,,13,218,1970012,,,2023-06-16,清算の結了等,,,2015-10-05,1,,,,,ベターライフシュッパン,0
1811,7020001025186,登記記録の閉鎖等,0,2023-06-19,2023-06-09,吾妻印刷株式会社,,株式会社,神奈川県,横浜市南区,南太田４丁目８番１２号,,14,105,2320006,,,2023-06-09,清算の結了等,,,2015-10-05,1,,,,,,0
1837,7030001018107,登記記録の閉鎖等,0,2023-06-19,2023-06-01,日本ミルズ株式会社,,株式会社,埼玉県,さいたま市岩槻区,加倉１丁目１４番４号,,11,110,3390056,,,2023-06-01,清算の結了等,,,2015-10-05,1,,,,,ニホンミルズ,0
1847,7030002037428,登記記録の閉鎖等,0,2023-06-19,2023-06-14,有限会社山菱,,有限会社,神奈川県,秦野市,鶴巻１４１９番地の１－８０３号,,14,211,2570007,,,2023-06-14,清算の結了等,,,2015-10-05,1,,,,,,0
1868,7050003001686,登記記録の閉鎖等,0,2023-06-19,2023-06-13,合名会社鈴木商店,,合名会社,茨城県,常陸太田市,町田町１４番地,,08,212,3130213,,,2023-06-13,清算の結了等,,,2015-10-05,1,,,,,スズキショウテン,0
1878,7080001017698,登記記録の閉鎖等,0,2023-06-19,2023-06-13,株式会社未来,,株式会社,福岡県,福岡市中央区,渡辺通２丁目６番１２号八千代ビルＹＡ５５－６０５号室,,40,133,8100004,,,2023-06-13,清算の結了等,,,2015-10-05,1,,,,,ミライ,0
1885,7100002002770,登記記録の閉鎖等,0,2023-06-19,2023-06-09,有限会社第一都市開発,,有限会社,長野県,長野市,居町３８番地,,20,201,3800901,,,2023-06-09,清算の結了等,,,2015-10-05,1,,,,,ダイイチトシカイハツ,0
1886,7100003006102,登記記録の閉鎖等,0,2023-06-19,2023-05-30,環構体合同会社,,合同会社,長野県,松本市,双葉３番４－５１１号,,20,202,3900833,,,2023-05-30,清算の結了等,,,2021-05-28,1,,,,,カンコウタイ,0
1888,7120001053292,登記記録の閉鎖等,0,2023-06-19,2023-06-15,株式会社ワイツー電子,,株式会社,大阪府,大阪市東淀川区,東中島１丁目１９番１１号,,27,114,5330033,,,2023-06-15,清算の結了等,,,2015-10-05,1,,,,,ワイツーデンシ,0
1889,7120001116834,登記記録の閉鎖等,0,2023-06-19,2023-06-14,株式会社上田工務店,,株式会社,大阪府,大阪市淀川区,十八条２丁目１６－１７,,27,123,5320001,,,2023-06-14,清算の結了等,,,2015-10-05,1,,,,,ウエダコウムテン,0
1891,7120001241558,登記記録の閉鎖等,0,2023-06-19,2023-06-12,株式会社コトナリス,,株式会社,大阪府,八尾市,跡部北の町２丁目４番５－５０１号,,27,212,5810068,,,2023-06-12,清算の結了等,,,2021-11-05,1,,,,,コトナリス,0
1905,7120101059652,登記記録の閉鎖等,0,2023-06-19,2023-06-13,株式会社サダホーム,,株式会社,兵庫県,神戸市西区,王塚台３丁目９４番地の２,,28,111,6512135,,,2023-06-13,清算の結了等,,,2019-04-05,1,,,,,サダホーム,0
1921,7140001118829,登記記録の閉鎖等,0,2023-06-19,2023-06-14,ＩＯＲＩ株式会社,,株式会社,兵庫県,神戸市中央区,熊内町６丁目２番１号ＫＩＴＡＭＵＲＡ・Ｂ．Ｌ．Ｄ・Ｂ１Ｆ,,28,110,6510056,,,2023-06-14,清算の結了等,,,2020-09-24,1,,,,,イオリ,0
1946,7180302019532,登記記録の閉鎖等,0,2023-06-19,2023-06-09,有限会社ディベロクス,,有限会社,愛知県,知立市,谷田町西長根１６番地,,23,225,4720013,,,2023-06-09,清算の結了等,,,2015-10-05,1,,,,,ディベロクス,0
1947,7180305005389,登記記録の閉鎖等,0,2023-06-19,2023-06-09,豊田総合自動車協業組合,,その他の設立登記法人,愛知県,豊田市,日之出町１丁目６番地７,,23,211,4710075,,,2023-06-09,清算の結了等,,,2015-10-05,1,,,,,トヨタソウゴウジドウシャ,0
1949,7190001010824,登記記録の閉鎖等,0,2023-06-19,2023-06-12,株式会社ヤマムラ,,株式会社,三重県,松阪市,笠松町１０７番地,,24,204,5152103,,,2023-06-12,清算の結了等,,,2015-10-05,1,,,,,ヤマムラ,0
2010,7490003001031,登記記録の閉鎖等,0,2023-06-19,2023-06-15,合同会社光匠,,合同会社,高知県,高岡郡越知町,越知甲２２０７番地５,,39,403,7811301,,,2023-06-15,清算の結了等,,,2016-02-02,1,,,,,コウショウ,0
2021,8010002007877,登記記録の閉鎖等,0,2023-06-19,2023-06-12,有限会社エイト・ピーアール,,有限会社,東京都,千代田区,外神田２丁目１番地道伝ビル,,13,101,1010021,,,2023-06-12,清算の結了等,,,2015-10-05,1,,,,,エイトピーアール,0
2034,8010403027929,登記記録の閉鎖等,0,2023-06-19,2023-06-06,合同会社Ｆａｍｉｌｉａ,,合同会社,東京都,港区,赤坂４丁目８番１９号,,13,103,1070052,,,2023-06-06,清算の結了等,,,2022-06-20,1,,,,,ファミリア,0
2044,8011001004923,登記記録の閉鎖等,0,2023-06-19,2023-06-13,株式会社岡設計,,株式会社,東京都,渋谷区,千駄ヶ谷５丁目１番１１号,,13,113,1510051,,,2023-06-13,清算の結了等,,,2015-10-05,1,,,,,オカセッケイ,0
2054,8011003011141,登記記録の閉鎖等,0,2023-06-19,2023-06-13,太陽コンサルティング合同会社,,合同会社,東京都,渋谷区,本町５丁目４５番１５号,,13,113,1510071,,,2023-06-13,清算の結了等,,,2020-04-28,1,,,,,タイヨウコンサルティング,0
2073,8012801022222,登記記録の閉鎖等,0,2023-06-19,2023-06-14,ゴウリカマーケティング株式会社,,株式会社,東京都,国分寺市,光町１丁目４１番地５,,13,214,1850034,,,2023-06-14,合併による解散等,9010001165246,令和５年６月１日東京都中央区日本橋蛎殻町一丁目７番９号ゴウリカマーケティング株式会社（9010001165246）に合併し解散,2023-03-30,1,,,,,ゴウリカマーケティング,0
2083,8020001049416,登記記録の閉鎖等,0,2023-06-19,2023-06-13,株式会社三ツ沢産業,,株式会社,神奈川県,横浜市保土ケ谷区,峰沢町２８０番地,,14,106,2400061,,,2023-06-13,清算の結了等,,,2015-10-05,1,,,,,ミツザワサンギョウ,0
2084,8020001055991,登記記録の閉鎖等,0,2023-06-19,2023-06-09,株式会社タクミ電設,,株式会社,神奈川県,横浜市神奈川区,菅田町９１５番地,,14,102,2210864,,,2023-06-09,清算の結了等,,,2015-10-05,1,,,,,,0
2120,8030001123970,登記記録の閉鎖等,0,2023-06-19,2023-06-01,株式会社ｆａｍｉｌｌｅ,,株式会社,埼玉県,さいたま市大宮区,仲町１丁目１１４番地レッツビル１Ｆ,,11,103,3300845,,,2023-06-01,合併による解散等,6030001092004,令和５年６月１日埼玉県上尾市日の出二丁目８番５号株式会社ヤマショウフーズ（6030001092004）に合併し解散,2018-01-22,1,,,,,ファミーユ,0
2122,8030001138663,登記記録の閉鎖等,0,2023-06-19,2023-06-01,株式会社ｎｉｓｈｉｙａ,,株式会社,埼玉県,上尾市,日の出２丁目８番５号,,11,219,3620032,,,2023-06-01,合併による解散等,6030001092004,令和５年６月１日埼玉県上尾市日の出二丁目８番５号株式会社ヤマショウフーズ（6030001092004）に合併し解散,2020-10-08,1,,,,,ニシヤ,0
2134,8030002085319,登記記録の閉鎖等,0,2023-06-19,2023-06-02,大蔵化成工業有限会社,,有限会社,埼玉県,越谷市,大字西新井５２７番地,,11,222,3430855,,,2023-06-02,清算の結了等,,,2015-10-05,1,,,,,オオクラカセイコウギョウ,0
2143,8040001091151,登記記録の閉鎖等,0,2023-06-19,2023-06-01,株式会社コンプレックス,,株式会社,埼玉県,さいたま市見沼区,東大宮６丁目３１番地６クレスト東大宮２０１,,11,104,3370051,,,2023-06-01,清算の結了等,,,2015-10-05,1,,,,,コンプレックス,0
2147,8040003015661,登記記録の閉鎖等,0,2023-06-19,2023-05-31,七條商事合同会社,,合同会社,千葉県,船橋市,南三咲３丁目４番１８号,,12,204,2740813,,,2023-05-31,清算の結了等,,,2020-07-03,1,,,,,シチジョウショウジ,0
2152,8060001009275,登記記録の閉鎖等,0,2023-06-19,2023-06-08,株式会社扇屋旅館,,株式会社,栃木県,真岡市,田町１５１７番地８,,09,209,3214325,,,2023-06-08,清算の結了等,,,2015-10-05,1,,,,,オウギヤリョカン,0
2156,8060002004845,登記記録の閉鎖等,0,2023-06-19,2023-06-08,有限会社秀和,,有限会社,栃木県,宇都宮市,さつき１丁目２番１５号,,09,201,3210141,,,2023-06-08,清算の結了等,,,2015-10-05,1,,,,,シュウワ,0
2163,8080001006171,登記記録の閉鎖等,0,2023-06-19,2023-06-15,株式会社キャリア・クリエイト,,株式会社,静岡県,静岡市葵区,上足洗４丁目２番４８号,,22,101,4200841,,,2023-06-15,清算の結了等,,,2015-10-05,1,,,,,キャリアクリエイト,0
2193,8120102002412,登記記録の閉鎖等,0,2023-06-19,2023-06-14,有限会社上眞建機,,有限会社,大阪府,堺市南区,桃山台２丁８番７－６１５号,,27,145,5900141,,,2023-06-14,清算の結了等,,,2015-10-05,1,,,,,ジョウシンケンキ,0
2198,8130001028937,登記記録の閉鎖等,0,2023-06-19,2023-06-15,株式会社マーケティングプリウス,,株式会社,京都府,京都市南区,吉祥院向田東町１４番地,,26,107,6018308,,,2023-06-15,清算の結了等,,,2015-10-05,1,,,,,マーケティングプリウス,0
2225,8180002018957,登記記録の閉鎖等,0,2023-06-19,2023-06-15,有限会社西府保温,,有限会社,愛知県,名古屋市中川区,戸田５丁目１００５番地の１,,23,110,4540962,,,2023-06-15,清算の結了等,,,2015-10-05,1,,,,,セイフホオン,0
2226,8180002081369,登記記録の閉鎖等,0,2023-06-19,2023-06-15,有限会社山田設備,,有限会社,愛知県,稲沢市,込野町郷中１０８番地,,23,220,4928444,,,2023-06-15,清算の結了等,,,2015-10-05,1,,,,,ヤマダセツビ,0
2258,8330001018629,登記記録の閉鎖等,0,2023-06-19,2023-06-13,株式会社ライフスタイル,,株式会社,熊本県,熊本市南区,八幡１１丁目１８番２０号,,43,104,8614113,,,2023-06-13,清算の結了等,,,2015-10-05,1,,,,,ライフスタイル,0
2264,8370005003284,登記記録の閉鎖等,0,2023-06-19,2023-06-07,特定非営利活動法人キャットミント,,その他の設立登記法人,宮城県,仙台市太白区,四郎丸字田中３０番地の９,,04,104,9811101,,,2023-06-07,清算の結了等,,,2015-10-05,1,,,,,キャットミント,0
2273,8400002006229,登記記録の閉鎖等,0,2023-06-19,2023-06-07,有限会社杜の都,,有限会社,岩手県,紫波郡矢巾町,流通センター南１丁目７番８号,,03,322,0200891,,,2023-06-07,清算の結了等,,,2015-10-05,1,,,,,モリノミヤコ,0
2285,8430002064059,登記記録の閉鎖等,0,2023-06-19,2023-06-02,有限会社北日本エンジニアリング,,有限会社,北海道,室蘭市,白鳥台４丁目８番１８号,,01,205,0500054,,,2023-06-02,清算の結了等,,,2015-10-05,1,,,,,キタニホンエンジニアリング,0
2289,8480003000561,登記記録の閉鎖等,0,2023-06-19,2023-06-15,合資会社ハタダ三加茂店,,合資会社,徳島県,三好郡東みよし町,加茂１８５９番地の８,,36,489,7794701,,,2023-06-15,清算の結了等,,,2015-10-05,1,,,,,ハタダミカモテン,0
2292,9010001050076,登記記録の閉鎖等,0,2023-06-19,2023-06-12,株式会社タリアセンコンサルティング,,株式会社,神奈川県,横浜市金沢区,釜利谷西５丁目８番８号,,14,108,2360046,,,2023-06-12,清算の結了等,,,2015-10-05,1,,,,,タリアセンコンサルティング,0
2315,9010401085993,登記記録の閉鎖等,0,2023-06-19,2023-06-05,株式会社ＭＥＤＩＣＩＮＡ,,株式会社,東京都,港区,南麻布５丁目３番２３号,,13,103,1060047,,,2023-06-05,清算の結了等,,,2015-10-05,1,,,,,メディシーナ,0
2318,9010401150806,登記記録の閉鎖等,0,2023-06-19,2023-06-05,株式会社スキンアグレ,,株式会社,東京都,港区,浜松町２丁目２番１５号,,13,103,1050013,,,2023-06-05,清算の結了等,,,2020-02-06,1,,,,,スキンアグレ,0
2319,9010401163048,登記記録の閉鎖等,0,2023-06-19,2023-06-07,株式会社ＳｏＤａｙｏｎｅ,,株式会社,東京都,港区,麻布狸穴町６２番地の３,,13,103,1060042,,,2023-06-07,清算の結了等,,,2021-10-06,1,,,,,ソウダヨネ,0
2334,9011001110258,登記記録の閉鎖等,0,2023-06-19,2023-06-14,株式会社エムエイチコンサルティング,,株式会社,東京都,目黒区,大橋１丁目５番１号,,13,110,1530044,,,2023-06-14,清算の結了等,,,2016-04-06,1,,,,,エムエイチコンサルティング,0
2343,9011402002500,登記記録の閉鎖等,0,2023-06-19,2023-06-16,有限会社柄澤商店,,有限会社,東京都,板橋区,東坂下１丁目１０番１６号,,13,119,1740042,,,2023-06-16,清算の結了等,,,2015-10-05,1,,,,,カラサワショウテン,0
2345,9011501015353,登記記録の閉鎖等,0,2023-06-19,2023-06-13,株式会社アイシーイー,,株式会社,東京都,荒川区,西日暮里２丁目２２番２号,,13,118,1160013,,,2023-06-13,清算の結了等,,,2015-10-05,1,,,,,アイシーイー,0
2352,9011801006589,登記記録の閉鎖等,0,2023-06-19,2023-06-15,大塚鞄工株式会社,00056975,株式会社,東京都,足立区,梅田７丁目１１番１２号,,13,121,1230851,,,2023-06-15,清算の結了等,,,2015-10-05,1,,,,,,0
2365,9020001023023,登記記録の閉鎖等,0,2023-06-19,2023-06-12,光友電設株式会社,,株式会社,神奈川県,横浜市神奈川区,羽沢町９２６番地の７５,,14,102,2210863,,,2023-06-12,清算の結了等,,,2015-10-05,1,,,,,コウユウデンセツ,0
2366,9020001028617,登記記録の閉鎖等,0,2023-06-19,2023-06-09,株式会社福久,,株式会社,神奈川県,横浜市中区,南仲通４丁目４９番地,,14,104,2310006,,,2023-06-09,清算の結了等,,,2015-10-05,1,,,,,,0
2385,9030001144702,登記記録の閉鎖等,0,2023-06-19,2023-06-01,株式会社夢七,,株式会社,埼玉県,さいたま市北区,吉野町２丁目２２６番地１,,11,102,3310811,,,2023-06-01,合併による解散等,6030001092004,令和５年６月１日埼玉県上尾市日の出二丁目８番５号株式会社ヤマショウフーズ（6030001092004）に合併し解散,2021-10-06,1,,,,,ユメシチ,0
2410,9060001019736,登記記録の閉鎖等,0,2023-06-19,2023-06-08,株式会社オプトレック,,株式会社,栃木県,足利市,田中町２１５番地１６,,09,202,3260822,,,2023-06-08,清算の結了等,,,2015-10-05,1,,,,,オプトレック,0
2414,9060002012582,登記記録の閉鎖等,0,2023-06-19,2023-06-08,有限会社北関東総建,,有限会社,栃木県,さくら市,氏家３４９７番地６７,,09,214,3291311,,,2023-06-08,清算の結了等,,,2015-10-05,1,,,,,キタカントウソウケン,0
2428,9100001006102,登記記録の閉鎖等,0,2023-06-19,2023-06-12,株式会社エムエム企画,,株式会社,長野県,千曲市,大字屋代４７０番地２,,20,218,3870007,,,2023-06-12,清算の結了等,,,2015-10-05,1,,,,,エムエムキカク,0
2431,9110003003443,登記記録の閉鎖等,0,2023-06-19,2023-06-12,合同会社Ｄ・Ｏ・Ｃ,,合同会社,新潟県,南魚沼市,九日町８８４番地２,,15,226,9497312,,,2023-06-12,清算の結了等,,,2017-02-15,1,,,,,ディーオーシー,0
2433,9120001092124,登記記録の閉鎖等,0,2023-06-19,2023-06-05,リデア株式会社,,株式会社,東京都,港区,北青山３丁目５番１２号,,13,103,1070061,,,2023-06-05,清算の結了等,,,2015-10-05,1,,,,,リデア,0
2458,9120905005107,登記記録の閉鎖等,0,2023-06-19,2023-06-09,特定非営利活動法人ごっこ屋本舗,,その他の設立登記法人,京都府,京都市右京区,京北細野町見通６番地,,26,108,6010262,,,2023-06-09,清算の結了等,,,2015-10-05,1,,,,,ゴッコヤホンポ,0
2459,9122001012169,登記記録の閉鎖等,0,2023-06-19,2023-06-13,株式会社ＭＹＯＮＧ,,株式会社,大阪府,大阪市中央区,東心斎橋１丁目３番３－１４０２号,,27,128,5420083,,,2023-06-13,清算の結了等,,,2015-10-05,1,,,,,ミョン,0
2491,9180003003180,登記記録の閉鎖等,0,2023-06-19,2023-06-13,合名会社杉浦紙器製造所,,合名会社,愛知県,名古屋市東区,東大曽根町３０番９号,,23,102,4610022,,,2023-06-13,清算の結了等,,,2015-10-05,1,,,,,スギウラシキセイゾウショ,0
2492,9180301026494,登記記録の閉鎖等,0,2023-06-19,2023-06-12,株式会社トレーニングルーム光ヶ丘,,株式会社,愛知県,岡崎市,大西町字奥長入４番地４,,23,202,4440811,,,2023-06-12,清算の結了等,,,2015-10-05,1,,,,,トレーニングルームヒカリガオカ,0
2496,9200002009382,登記記録の閉鎖等,0,2023-06-19,2023-06-14,香山建設有限会社,,有限会社,岐阜県,瑞穂市,別府１６１８番地の５,,21,216,5010222,,,2023-06-14,清算の結了等,,,2015-10-05,1,,,,,カヤマケンセツ,0
2510,9240005012025,登記記録の閉鎖等,0,2023-06-19,2023-06-13,医療法人社団坂田外科肛門科,,その他の設立登記法人,広島県,三原市,宮沖５丁目２番１４号,,34,204,7230016,,,2023-06-13,清算の結了等,,,2015-10-05,1,,,,,サカタゲカコウモンカ,0
2521,9290001084105,登記記録の閉鎖等,0,2023-06-19,2023-06-13,株式会社Ｒａｉｓｅ,,株式会社,福岡県,宗像市,原町２００番地８２,,40,220,8113424,,,2023-06-13,清算の結了等,,,2019-02-01,1,,,,,レイズ,0
2534,9360003007469,登記記録の閉鎖等,0,2023-06-19,2023-06-13,合同会社ＭＡ．ＫＯ．ＭＡ,,合同会社,沖縄県,豊見城市,字渡橋名８番地ラシャルール３０５号室,,47,212,9010222,,,2023-06-13,清算の結了等,,,2016-02-09,1,,,,,マコマ,0
