sequenceNumber,corporateNumber,process,correct,updateDate,changeDate,name,nameImageId,kind,prefectureName,cityName,streetNumber,addressImageId,prefectureCode,cityCode,postCode,addressOutside,addressOutsideImageId,closeDate,closeCause,successorCorporateNumber,changeCause,assignmentDate,latest,enName,enPrefectureName,enCityName,enAddressOutside,furigana,hihyoji
13,1010001220099,新規,0,2021-07-30,2021-07-30,株式会社Ｌｉｓｔｅｒ,,株式会社,東京都,千代田区,九段南１丁目５番６号りそな九段ビル５Ｆ,,13,101,1020074,,,,,,,2021-07-30,1,,,,,リスター,0
15,1010003035396,新規,0,2021-07-30,2021-07-30,合同会社ＰＴＶ,,合同会社,東京都,千代田区,平河町２丁目５番３号,,13,101,1020093,,,,,,,2021-07-30,1,,,,,ピーティーブイ,0
16,1010005033654,新規,0,2021-07-30,2021-07-30,弁護士法人外立総合法律事務所,,その他の設立登記法人,東京都,千代田区,内幸町１丁目１番１号,,13,101,1000011,,,,,,,2021-07-30,1,,,,,ハシダテソウゴウホウリツジムショ,0
19,1010401161744,新規,0,2021-07-30,2021-07-30,株式会社フェアトレーター,,株式会社,東京都,港区,港南２丁目１５－１品川インターシティＡ棟２８階,,13,103,1080075,,,,,,,2021-07-30,1,,,,,フェアトレーター,0
20,1010401161769,新規,0,2021-07-30,2021-07-30,ＬＳ－ＳＨＩＰ第１６号株式会社,,株式会社,東京都,港区,六本木１丁目６番１号,,13,103,1060032,,,,,,,2021-07-30,1,,,,,エルエスシップダイジュウロクゴウ,0
21,1010401161777,新規,0,2021-07-30,2021-07-30,ユニフォア・テクノロジーズ・ジャパン株式会社,,株式会社,東京都,港区,六本木１丁目９番１０号アークヒルズ仙石山森タワー２８階ベーカー＆マッケンジー法律事務所（外国法共同事業）内,,13,103,1060032,,,,,,,2021-07-30,1,,,,,ユニフフォアテクノロジーズジャパン,0
22,1010401161819,新規,0,2021-07-30,2021-07-30,株式会社ｈａｋｕｎａ　ｍａｔａｔａ,,株式会社,東京都,港区,芝浦２丁目８番９－２０４号,,13,103,1080023,,,,,,,2021-07-30,1,,,,,ハクナマタタ,0
30,1010501047629,新規,0,2021-07-30,2021-07-30,株式会社ＲＥＢＩＯ,,株式会社,東京都,台東区,小島２丁目２０番１１号,,13,106,1110056,,,,,,,2021-07-30,1,,,,,レビオ,0
32,1010603009064,新規,0,2021-07-30,2021-07-30,合同会社Ｐｕｏｍ　Ｋ,,合同会社,東京都,江東区,有明３丁目７番２６号有明フロンティアビルＢ棟９階,,13,108,1350063,,,,,,,2021-07-30,1,,,,,プオムケー,0
39,1010803003833,新規,0,2021-07-30,2021-07-30,Ｌｉｌｙ＆Ｃｌｅｏ合同会社,,合同会社,東京都,大田区,石川町１丁目２番１４号,,13,111,1450061,,,,,,,2021-07-30,1,,,,,リリーアンドクリオ,0
42,1010903006686,新規,0,2021-07-30,2021-07-30,合同会社ラルク,,合同会社,東京都,世田谷区,北烏山６丁目１１－３エルザ世田谷９０９,,13,112,1570061,,,,,,,2021-07-30,1,,,,,ラルク,0
45,1011001142028,新規,0,2021-07-30,2021-07-30,株式会社Ｂｏｍｏ,,株式会社,東京都,渋谷区,恵比寿２丁目３３番１３－３０１号ＲＩＳＩＮＧＳＵＮ恵比寿二丁目,,13,113,1500013,,,,,,,2021-07-30,1,,,,,ボモ,0
46,1011001142044,新規,0,2021-07-30,2021-07-30,株式会社クラッチ,,株式会社,東京都,目黒区,中央町１丁目１７番２１号前田ビル１階,,13,110,1520001,,,,,,,2021-07-30,1,,,,,クラッチ,0
48,1011003013128,新規,0,2021-07-30,2021-07-30,合同会社ＤＩＧＩＴＡＬ　ＣＯＭＰＡＮＹ,,合同会社,東京都,渋谷区,広尾２丁目１番４号,,13,113,1500012,,,,,,,2021-07-30,1,,,,,デジタルカンパニー,0
52,1011101095828,新規,0,2021-07-30,2021-07-30,株式会社ＫＯＲＥＡ　ＦＯＯＤ　ＨＯＬＤＩＮＧＳ,,株式会社,東京都,新宿区,百人町２丁目１番３号Ｋ－ＰＬＡＺＡ３号館５Ｆ,,13,104,1690073,,,,,,,2021-07-30,1,,,,,コリアフードホールディングス,0
53,1011101095877,新規,0,2021-07-30,2021-07-30,株式会社Ｌａ・Ｐａｕｓｅ,,株式会社,東京都,新宿区,新宿１丁目１９番１０号サンモール第３－３階,,13,104,1600022,,,,,,,2021-07-30,1,,,,,ラポーズ,0
78,1020001142359,新規,0,2021-07-30,2021-07-30,株式会社ＲｏＴ,,株式会社,神奈川県,横浜市西区,北幸１丁目１１番１号水信ビル７Ｆ,,14,103,2200004,,,,,,,2021-07-30,1,,,,,アールオーティー,0
79,1020001142400,新規,0,2021-07-30,2021-07-30,株式会社ナッジ・ソリューションズ,,株式会社,神奈川県,横浜市中区,尾上町４丁目５７横浜尾上町ビルディング８Ｆ,,14,104,2310015,,,,,,,2021-07-30,1,,,,,ナッジソリューションズ,0
100,1030003017698,新規,0,2021-07-30,2021-07-30,合同会社ＳＵＫＵ,,合同会社,埼玉県,川口市,西川口３丁目３０番１２号,,11,203,3320021,,,,,,,2021-07-30,1,,,,,スク,0
101,1030003017707,新規,0,2021-07-30,2021-07-30,ＤＫライン合同会社,,合同会社,埼玉県,深谷市,町田３０４番地７,,11,218,3660005,,,,,,,2021-07-30,1,,,,,ディケイライン,0
102,1030005020460,新規,0,2021-07-30,2021-07-30,ＮＰＯ法人地球ライフ,,その他の設立登記法人,埼玉県,児玉郡上里町,大字七本木３６９３番地１アイ三田１０１,,11,385,3690306,,,,,,,2021-07-30,1,,,,,チキュウライフ,0
108,1040001119561,新規,0,2021-07-30,2021-07-30,株式会社Ｒｕｇｚｙ,,株式会社,千葉県,千葉市花見川区,検見川町３丁目３１６－２,,12,102,2620023,,,,,,,2021-07-30,1,,,,,ラグジー,0
121,1050003006006,新規,0,2021-07-30,2021-07-30,櫻井合同会社,,合同会社,茨城県,稲敷郡阿見町,大字青宿ホープＥＹＥ、Ｇ棟,,08,443,3000301,,,,,,,2021-07-30,1,,,,,サクライ,0
127,1070001038305,新規,0,2021-07-30,2021-07-30,ＡＭＧグループ株式会社,,株式会社,群馬県,館林市,緑町２丁目２６番６号,,10,207,3740025,,,,,,,2021-07-30,1,,,,,エーエムジーグループ,0
133,1090001017125,新規,0,2021-07-30,2021-07-30,株式会社金の富士,,株式会社,山梨県,南アルプス市,野牛島２３８５番地４１,,19,208,4000205,,,,,,,2021-07-30,1,,,,,キンノフジ,0
157,1120001239401,新規,0,2021-07-30,2021-07-30,エスエース株式会社,,株式会社,大阪府,大阪市住吉区,長峡町６番１２号メゾン森重１Ｆ,,27,120,5580044,,,,,,,2021-07-30,1,,,,,エスエース,0
158,1120001239434,新規,0,2021-07-30,2021-07-30,海燕株式会社,,株式会社,大阪府,大阪市生野区,巽中３丁目１１番４号,00123785,27,116,5440013,,,,,,,2021-07-30,1,,,,,ウミツバメ,0
159,1120001239459,新規,0,2021-07-30,2021-07-30,株式会社ＣＯＣＯＣＯ,,株式会社,大阪府,大阪市城東区,今福東２丁目７番１５号８０２,,27,118,5360002,,,,,,,2021-07-30,1,,,,,コココ,0
161,1120003019850,新規,0,2021-07-30,2021-07-30,合同会社プラスワン,,合同会社,大阪府,大阪市北区,神山町９－３,,27,127,5300026,,,,,,,2021-07-30,1,,,,,プラスワン,0
162,1120003019941,新規,0,2021-07-30,2021-07-30,合同会社くう,,合同会社,大阪府,大阪市城東区,関目５丁目１０番１３号青井ハイツ１０１,,27,118,5360008,,,,,,,2021-07-30,1,,,,,クウ,0
167,1120101064055,新規,0,2021-07-30,2021-07-30,株式会社ケイワ,,株式会社,大阪府,堺市中区,深井北町３３０６番地,,27,142,5998271,,,,,,,2021-07-30,1,,,,,ケイワ,0
170,1120901044702,新規,0,2021-07-30,2021-07-30,株式会社まえだくみ,,株式会社,大阪府,豊中市,北条町４丁目１０番１－２１３号,,27,203,5610812,,,,,,,2021-07-30,1,,,,,マエダクミ,0
175,1130001069814,新規,0,2021-07-30,2021-07-30,株式会社ＳｅＬＥＣｔ,,株式会社,京都府,京都市伏見区,深草仙石屋敷町２７番地１７グレース菱屋Ⅱ２０２号,00123794,26,109,6120038,,,,,,,2021-07-30,1,,,,,セレクト,0
183,1140001122480,新規,0,2021-07-30,2021-07-30,株式会社森販,,株式会社,兵庫県,神戸市兵庫区,上沢通７丁目５番１７号,,28,105,6520046,,,,,,,2021-07-30,1,,,,,モリハン,0
185,1140003016565,新規,0,2021-07-30,2021-07-30,Ｄプランニング合同会社,,合同会社,兵庫県,神戸市兵庫区,塚本通２丁目２番２６号,,28,105,6520804,,,,,,,2021-07-30,1,,,,,ディープランニング,0
188,1140005025762,新規,0,2021-07-30,2021-07-30,一般社団法人ピアサポート研究会,,その他の設立登記法人,兵庫県,神戸市兵庫区,湊川町１丁目３番８号,,28,105,6520041,,,,,,,2021-07-30,1,,,,,ピアサポートケンキュウカイ,0
192,1150001024825,新規,0,2021-07-30,2021-07-30,高橋金属株式会社,,株式会社,奈良県,吉野郡大淀町,大字越部９５９番地,,29,442,6380803,,,,,,,2021-07-30,1,,,,,タカハシキンゾク,0
197,1170001016696,新規,0,2021-07-30,2021-07-30,株式会社敬愛会,,株式会社,和歌山県,和歌山市,松島５５２番地１,,30,201,6408304,,,,,,,2021-07-30,1,,,,,ケイアイカイ,0
208,1180001147103,新規,0,2021-07-30,2021-07-30,株式会社ＳＨｉｍａｏ,,株式会社,愛知県,一宮市,緑２丁目２番２１号,,23,203,4910862,,,,,,,2021-07-30,1,,,,,シマオ,0
209,1180001147152,新規,0,2021-07-30,2021-07-30,株式会社Ｍ－ｂｉｊｏｕｘ,,株式会社,愛知県,名古屋市名東区,香流３丁目４１６番地,,23,115,4650005,,,,,,,2021-07-30,1,,,,,エムビジュー,0
210,1180001147160,新規,0,2021-07-30,2021-07-30,株式会社ビジネスのかんさつ,,株式会社,愛知県,名古屋市千種区,大島町２丁目４２番地の１,,23,101,4640833,,,,,,,2021-07-30,1,,,,,ビジネスノカンサツ,0
211,1180001147169,新規,0,2021-07-30,2021-07-30,株式会社愛樹,,株式会社,愛知県,名古屋市瑞穂区,荒崎町４番５号Ｄ’グラフォートスカイレジデンスⅡ６０２号,00123790,23,108,4670846,,,,,,,2021-07-30,1,,,,,アイジュ,0
212,1180001147202,新規,0,2021-07-30,2021-07-30,株式会社勇健工務店,,株式会社,愛知県,北名古屋市,熊之庄十二社２５番地２,,23,234,4810006,,,,,,,2021-07-30,1,,,,,ユウケンコウムテン,0
214,1180003022790,新規,0,2021-07-30,2021-07-30,合同会社サンカー,,合同会社,愛知県,名古屋市名東区,八前２丁目７１７番地,,23,115,4650018,,,,,,,2021-07-30,1,,,,,サンカー,0
215,1180301035206,新規,0,2021-07-30,2021-07-30,株式会社ＮＥＸＴ　ＶＩＳＩＯＮ,,株式会社,愛知県,岡崎市,康生通南３丁目２０番地,,23,202,4440044,,,,,,,2021-07-30,1,,,,,ネクストビジョン,0
230,1240003005211,新規,0,2021-07-30,2021-07-30,合同会社Ｌｂｇ,,合同会社,広島県,広島市西区,天満町１５番１０－７０２号,,34,104,7330022,,,,,,,2021-07-30,1,,,,,エルビージー,0
238,1250001019030,新規,0,2021-07-30,2021-07-30,株式会社ハラダモータース,,株式会社,山口県,下松市,南花岡３丁目１０番１号,,35,207,7440027,,,,,,,2021-07-30,1,,,,,ハラダモータース,0
244,1270001008320,新規,0,2021-07-30,2021-07-30,株式会社医音,,株式会社,鳥取県,鳥取市,鹿野町鹿野１３１２番地,,31,201,6890405,,,,,,,2021-07-30,1,,,,,イオン,0
246,1280001008484,新規,0,2021-07-30,2021-07-30,株式会社松田十郎商店,,株式会社,島根県,松江市,美保関町美保関５６０番地,,32,201,6901501,,,,,,,2021-07-30,1,,,,,マツダジュウロウショウテン,0
258,1290001093996,新規,0,2021-07-30,2021-07-30,株式会社九州冷設工業,,株式会社,福岡県,福岡市早良区,百道２丁目９番２４－１０２号,,40,137,8140006,,,,,,,2021-07-30,1,,,,,キュウシュウレイセツコウギョウ,0
270,1290801027658,新規,0,2021-07-30,2021-07-30,株式会社ひより,,株式会社,福岡県,北九州市小倉北区,青葉２丁目５番２０号,,40,106,8030822,,,,,,,2021-07-30,1,,,,,ヒヨリ,0
287,1350001017222,新規,0,2021-07-30,2021-07-30,株式会社未生企画,,株式会社,宮崎県,宮崎市,清武町加納甲２３５８番地１オアシス加納Ⅲ３０２号,00123798,45,201,8891605,,,,,,,2021-07-30,1,,,,,ミセンキカク,0
288,1360001029150,新規,0,2021-07-30,2021-07-30,株式会社てぃーだカンカン不動産うるま,,株式会社,沖縄県,沖縄市,大里１丁目１１番１号３階,,47,211,9042163,,,,,,,2021-07-30,1,,,,,ティーダカンカンフドウサンウルマ,0
289,1360001029159,新規,0,2021-07-30,2021-07-30,株式会社沖縄ホーム,,株式会社,沖縄県,石垣市,字平得３７６番地６,,47,207,9070003,,,,,,,2021-07-30,1,,,,,オキナワホーム,0
291,1370001047416,新規,0,2021-07-30,2021-07-30,株式会社Ｓｕｎ　Ｓｔｙｌｅ,,株式会社,宮城県,仙台市青葉区,春日町１番５号,,04,101,9800821,,,,,,,2021-07-30,1,,,,,サンスタイル,0
297,1400001015542,新規,0,2021-07-30,2021-07-30,株式会社サン・エンジニアリング,,株式会社,岩手県,遠野市,遠野町３０地割５５番地４,,03,208,0280514,,,,,,,2021-07-30,1,,,,,サンエンジニアリング,0
301,1430001084618,新規,0,2021-07-30,2021-07-30,株式会社エニシア,,株式会社,北海道,札幌市白石区,平和通６丁目北１０番２１号,,01,104,0030029,,,,,,,2021-07-30,1,,,,,エニシア,0
312,1490005006793,新規,0,2021-07-30,2021-07-30,一般社団法人Ｅａｒｔｈ　Ｖｉｌｌａｇｅ,,その他の設立登記法人,高知県,高知市,尾立１２２番地２号,,39,201,7800962,,,,,,,2021-07-30,1,,,,,アースビレッジ,0
316,1700150104215,新規,0,2021-07-30,2021-07-30,ｅＢａｙ　Ｍａｒｋｅｔｐｌａｃｅｓ　ＧｍｂＨ,,外国会社等,,,,,,,,Ｈｅｌｖｅｔｉａｓｔｒａｓｓｅ　１５－１７，３００５　Ｂｅｒｎ，Ｓｗｉｔｚｅｒｌａｎｄ,,,,,,2021-07-30,1,,,,,イーベイマーケツトプレイスズジーエムビーエイチ,0
317,1700150104223,新規,0,2021-07-30,2021-07-30,ＴＥＳＣＯ　ＬＡＮＫＡ,,外国会社等,千葉県,佐倉市,大篠塚１３５０番地１－Ｅ,,12,212,2850806,スリランカ民主社会主義共和国、バトゥゴダ、バムンポレ、１９２－２,,,,,,2021-07-30,1,,,,,テスコランカ,0
327,2010001220032,新規,0,2021-07-30,2021-07-30,株式会社ｉＲａＭ,,株式会社,東京都,中央区,銀座１丁目２２番１１号２階,,13,102,1040061,,,,,,,2021-07-30,1,,,,,アイラム,0
329,2010003035445,新規,0,2021-07-30,2021-07-30,合同会社ＵＲＴ,,合同会社,東京都,中央区,日本橋２丁目２番３号,,13,102,1030027,,,,,,,2021-07-30,1,,,,,ユーアールティー,0
333,2010401161768,新規,0,2021-07-30,2021-07-30,ＬＳ－ＳＨＩＰ第１５号株式会社,,株式会社,東京都,港区,六本木１丁目６番１号,,13,103,1060032,,,,,,,2021-07-30,1,,,,,エルエスシップダイジュウゴゴウ,0
335,2010403025797,新規,0,2021-07-30,2021-07-30,合同会社Ｇｏ－Ｒｉｖｅｒ,,合同会社,東京都,港区,南青山２丁目２番１５号,,13,103,1070062,,,,,,,2021-07-30,1,,,,,ゴーリバー,0
340,2010603009063,新規,0,2021-07-30,2021-07-30,Ｓｍａｈｒｔ合同会社,,合同会社,東京都,江東区,豊洲３丁目６番５－２７１９号,,13,108,1350061,,,,,,,2021-07-30,1,,,,,スマート,0
343,2010801032180,新規,0,2021-07-30,2021-07-30,株式会社Ｓｏｆｔｙｃａ　Ｓｏｆｔｗａｒｅ,,株式会社,東京都,大田区,西糀谷２丁目２７番１７号,,13,111,1440034,,,,,,,2021-07-30,1,,,,,ソフティカソフトウェア,0
351,2011001141978,新規,0,2021-07-30,2021-07-30,株式会社クトウ,,株式会社,東京都,渋谷区,神宮前６丁目２３番４号桑野ビル２階,,13,113,1500001,,,,,,,2021-07-30,1,,,,,クトウ,0
352,2011001142150,新規,0,2021-07-30,2021-07-30,ｙｏｕｓｕａｌ株式会社,,株式会社,東京都,目黒区,碑文谷５丁目２－５Ｔ＆Ａビル５Ｆ,,13,110,1520003,,,,,,,2021-07-30,1,,,,,ユージュアル,0
353,2011003013085,新規,0,2021-07-30,2021-07-30,合同会社Ｖｏｄｋａ,,合同会社,東京都,目黒区,東山１丁目１９番１２号,,13,110,1530043,,,,,,,2021-07-30,1,,,,,ウォッカ,0
359,2011401023561,新規,0,2021-07-30,2021-07-30,ＫＥ株式会社,,株式会社,東京都,板橋区,蓮根３丁目２６番１２－９１８号,,13,119,1740046,,,,,,,2021-07-30,1,,,,,ケーイー,0
403,2030001143553,新規,0,2021-07-30,2021-07-30,株式会社ＳＫサービス,,株式会社,埼玉県,志木市,下宗岡１丁目１９番１０号アムールムーン１０２号,,11,228,3530003,,,,,,,2021-07-30,1,,,,,エスケーサービス,0
404,2030001143578,新規,0,2021-07-30,2021-07-30,電新ネットワーク技術株式会社,,株式会社,埼玉県,さいたま市緑区,大字中尾２２２８番地４,,11,109,3360932,,,,,,,2021-07-30,1,,,,,デンシンネットワークギジュツ,0
411,2030003017680,新規,0,2021-07-30,2021-07-30,合同会社かけはし,,合同会社,埼玉県,新座市,東北２丁目３９番１０号ドゥーセット弐番館６Ｆ,,11,230,3520001,,,,,,,2021-07-30,1,,,,,カケハシ,0
412,2030003017697,新規,0,2021-07-30,2021-07-30,Ｃｏｍ　Ｍａｎａｇｅｍｅｎｔ合同会社,,合同会社,埼玉県,上尾市,大字原市１０７０番地,,11,219,3620021,,,,,,,2021-07-30,1,,,,,コムマネジメント,0
413,2030003017706,新規,0,2021-07-30,2021-07-30,合同会社ミニハレ,,合同会社,埼玉県,さいたま市南区,大字大谷口１３９０番地１号パークハウスⅡ２０３号室,00123783,11,108,3360042,,,,,,,2021-07-30,1,,,,,ミニハレ,0
427,2040003018249,新規,0,2021-07-30,2021-07-30,合同会社ＫＫＲ,,合同会社,千葉県,千葉市稲毛区,轟町５丁目３番２８号東急ドエルアルス西千葉６０６号,,12,103,2630021,,,,,,,2021-07-30,1,,,,,ケーケーアール,0
431,2050003005997,新規,0,2021-07-30,2021-07-30,合同会社ミスト,,合同会社,茨城県,石岡市,山崎３１１０,,08,205,3150125,,,,,,,2021-07-30,1,,,,,ミスト,0
432,2050003006005,新規,0,2021-07-30,2021-07-30,合同会社和,,合同会社,茨城県,稲敷郡阿見町,住吉２丁目１番地１０番いずもアパート３０２号,,08,443,3001158,,,,,,,2021-07-30,1,,,,,ナゴ,0
454,2110003004539,新規,0,2021-07-30,2021-07-30,合同会社運育堂,,合同会社,新潟県,新潟市江南区,亀田本町１丁目１番２１号,,15,104,9500164,,,,,,,2021-07-30,1,,,,,ウンイクドウ,0
466,2120001239400,新規,0,2021-07-30,2021-07-30,株式会社ｐｍｐ,,株式会社,大阪府,大阪市西区,京町堀１丁目４番２２号肥後橋プラザビル１０Ｆ,,27,106,5500003,,,,,,,2021-07-30,1,,,,,ピーエムピー,0
467,2120001239433,新規,0,2021-07-30,2021-07-30,天王寺技建株式会社,,株式会社,大阪府,大阪市阿倍野区,美章園２丁目１６番１６号,,27,119,5450003,,,,,,,2021-07-30,1,,,,,テンノウジギケン,0
471,2120003019932,新規,0,2021-07-30,2021-07-30,ジャズケア合同会社,,合同会社,大阪府,大阪市平野区,平野宮町２丁目２番３０号,,27,126,5470046,,,,,,,2021-07-30,1,,,,,ジャズケア,0
474,2120103004280,新規,0,2021-07-30,2021-07-30,ＤＨ合同会社,,合同会社,大阪府,泉佐野市,上町２丁目７番１１号,,27,213,5980007,,,,,,,2021-07-30,1,,,,,ディーエイチ,0
478,2120901044701,新規,0,2021-07-30,2021-07-30,株式会社ＶＢＭ,,株式会社,大阪府,豊中市,南桜塚４丁目１８番５号,,27,203,5610882,,,,,,,2021-07-30,1,,,,,ヴィビィーエム,0
481,2122001035028,新規,0,2021-07-30,2021-07-30,株式会社秀英,,株式会社,大阪府,東大阪市,玉串元町１丁目６番１４号,,27,227,5780933,,,,,,,2021-07-30,1,,,,,シュウエイ,0
485,2130001069813,新規,0,2021-07-30,2021-07-30,株式会社データ・ルーペ,,株式会社,京都府,京都市左京区,吉田本町３６番地１京都大学国際科学イノベーション棟,,26,103,6068317,,,,,,,2021-07-30,1,,,,,データルーペ,0
496,2140001122471,新規,0,2021-07-30,2021-07-30,株式会社ＹｏＵ．１,,株式会社,兵庫県,神戸市中央区,国香通２丁目２番３号,,28,110,6510066,,,,,,,2021-07-30,1,,,,,ユウイチ,0
497,2140001122505,新規,0,2021-07-30,2021-07-30,株式会社ＭＳアセット,,株式会社,兵庫県,西宮市,深津町１番３－６０７号,,28,204,6638203,,,,,,,2021-07-30,1,,,,,エムエスアセット,0
498,2140003016548,新規,0,2021-07-30,2021-07-30,Ｔｏ３ｓｔｙｌｅ合同会社,,合同会社,兵庫県,宝塚市,野上４丁目８番２４号,,28,214,6650022,,,,,,,2021-07-30,1,,,,,トゥーミースタイル,0
499,2140003016572,新規,0,2021-07-30,2021-07-30,隆盛合同会社,,合同会社,兵庫県,尼崎市,神崎町３４番１６号,,28,202,6610964,,,,,,,2021-07-30,1,,,,,リュウセイ,0
509,2180001147168,新規,0,2021-07-30,2021-07-30,ＳＶＣホールディングス株式会社,,株式会社,愛知県,海部郡大治町,大字西條字壱町田５３番地,,23,424,4901144,,,,,,,2021-07-30,1,,,,,エスブイシーホールディングス,0
510,2180001147176,新規,0,2021-07-30,2021-07-30,株式会社悦國内装,,株式会社,愛知県,名古屋市天白区,植田山４丁目９０１番地植田北住宅６棟４０１号,,23,116,4680001,,,,,,,2021-07-30,1,,,,,ヨシクニナイソウ,0
511,2180001147192,新規,0,2021-07-30,2021-07-30,ＬｉｂｅｒａＰｏｒｔ株式会社,,株式会社,愛知県,名古屋市中村区,藤江町３丁目１３２番地,,23,105,4530045,,,,,,,2021-07-30,1,,,,,リベラポート,0
516,2180301035213,新規,0,2021-07-30,2021-07-30,連れん家株式会社,,株式会社,愛知県,岡崎市,羽根西３丁目５‐１ルートオブファイブ１０２,,23,202,4440838,,,,,,,2021-07-30,1,,,,,,0
518,2200001038942,新規,0,2021-07-30,2021-07-30,ミズノ東濃株式会社,,株式会社,岐阜県,可児市,広見１丁目２９番地,,21,214,5090214,,,,,,,2021-07-30,1,,,,,ミズノトウノウ,0
519,2200003005271,新規,0,2021-07-30,2021-07-30,合同会社荷役機械設計,,合同会社,岐阜県,羽島市,福寿町平方７丁目３５番地ライオンズマンション岐阜羽島５０２号室,,21,209,5016257,,,,,,,2021-07-30,1,,,,,ニヤクキカイセッケイ,0
554,2290001094036,新規,0,2021-07-30,2021-07-30,ＳＴＡＲＳＥＥＤ　ＯＦ　ＬＩＦＥ株式会社,,株式会社,福岡県,福岡市中央区,黒門８番１６－８０１号セレソン大濠,,40,133,8100055,,,,,,,2021-07-30,1,,,,,スターシードオブライフ,0
555,2290001094044,新規,0,2021-07-30,2021-07-30,株式会社赤木,,株式会社,福岡県,糟屋郡粕屋町,大字江辻８９９番地２,00123782,40,349,8112313,,,,,,,2021-07-30,1,,,,,アカギ,0
556,2290001094052,新規,0,2021-07-30,2021-07-30,株式会社ヴァローズ,,株式会社,福岡県,筑紫野市,大字俗明院１４２番地７アソシア・ヴォイス・筑紫野２０５号,,40,217,8180067,,,,,,,2021-07-30,1,,,,,ヴァローズ,0
561,2300001012573,新規,0,2021-07-30,2021-07-30,株式会社海拓,,株式会社,佐賀県,唐津市,東町７３番地２ＥＸＥ唐津１３０１号,,41,202,8470063,,,,,,,2021-07-30,1,,,,,カイタク,0
564,2320003003585,新規,0,2021-07-30,2021-07-30,合同会社Ｓ２プランニング,,合同会社,大分県,速見郡日出町,大字豊岡３５００,,44,341,8791507,,,,,,,2021-07-30,1,,,,,エスツウプランニング,0
572,2340001023971,新規,0,2021-07-30,2021-07-30,株式会社ＭＡＲＵ１０,,株式会社,鹿児島県,鹿児島市,唐湊１丁目２３－８,,46,201,8900081,,,,,,,2021-07-30,1,,,,,マルジュウ,0
579,2360001029158,新規,0,2021-07-30,2021-07-30,株式会社山宮牧場,,株式会社,沖縄県,石垣市,字登野城１２９４番地４,,47,207,9070004,,,,,,,2021-07-30,1,,,,,ヤマミヤボクジョウ,0
583,2360003011320,新規,0,2021-07-30,2021-07-30,ミッション合同会社,,合同会社,沖縄県,沖縄市,泡瀬１丁目３２番３２号メゾンなごみ１０４,,47,211,9042172,,,,,,,2021-07-30,1,,,,,ミッション,0
610,2480005006851,新規,0,2021-07-30,2021-07-30,一般社団法人和軸,,その他の設立登記法人,徳島県,徳島市,中洲町１丁目５０番地の２,,36,201,7700856,,,,,,,2021-07-30,1,,,,,ワジック,0
615,2700150104222,新規,0,2021-07-30,2021-07-30,ＫＡＶＥＥＳＨＡ　ＡＵＴＯ　ＭＡＲＴ,,外国会社等,千葉県,佐倉市,大篠塚９３３番地オフィスＤ号,,12,212,2850806,スリランカ民主社会主義共和国、クルネガラ、コロンボロード、８８,,,,,,2021-07-30,1,,,,,カヴイーシヤオートマート,0
616,2700150104230,新規,0,2021-07-30,2021-07-30,ハワイ・ユニバーサル・ホールディングス株式会社,,外国会社等,東京都,武蔵野市,吉祥寺本町２丁目１２番２号,,13,203,1800004,アメリカ合衆国ハワイ州ホノルル市ビショップストリート１００１番地２８５０号室,,,,,,2021-07-30,1,,,,,ハワイユニバーサルホールデイングスカブシキガイシヤ,0
627,3010003035353,新規,0,2021-07-30,2021-07-30,合同会社エリートスタイル,,合同会社,東京都,中央区,勝どき４丁目８－６－４０３,,13,102,1040054,,,,,,,2021-07-30,1,,,,,エリートスタイル,0
628,3010003035444,新規,0,2021-07-30,2021-07-30,合同会社Ｂ－Ｃｏｎｔｉｎｕｅ,,合同会社,東京都,中央区,京橋１丁目３－２ｉｋａｔ京橋,,13,102,1040031,,,,,,,2021-07-30,1,,,,,ビーコンティニュー,0
635,3010005033685,新規,0,2021-07-30,2021-07-30,一般社団法人デジタルコミック協議会,,その他の設立登記法人,東京都,千代田区,一ツ橋２丁目３番１号,,13,101,1010003,,,,,,,2021-07-30,1,,,,,デジタルコミックキョウギカイ,0
636,3010005033693,新規,0,2021-07-30,2021-07-30,一般社団法人ＦＯ,,その他の設立登記法人,東京都,千代田区,丸の内３丁目１番１号東京共同会計事務所内,,13,101,1000005,,,,,,,2021-07-30,1,,,,,エフオー,0
643,3010401161767,新規,0,2021-07-30,2021-07-30,ＬＳ－Ａｖｉａｔｉｏｎ第３６号株式会社,,株式会社,東京都,港区,六本木１丁目６番１号,,13,103,1060032,,,,,,,2021-07-30,1,,,,,エルエスアビエーションダイサンジュウロクゴウ,0
644,3010401161775,新規,0,2021-07-30,2021-07-30,コムー株式会社,,株式会社,東京都,港区,浜松町２丁目２番１５号浜松町ダイヤビル２Ｆ,,13,103,1050013,,,,,,,2021-07-30,1,,,,,コムー,0
648,3010501047627,新規,0,2021-07-30,2021-07-30,株式会社みつかるエステート,,株式会社,東京都,台東区,台東４丁目３１番１－１０６号,,13,106,1100016,,,,,,,2021-07-30,1,,,,,ミツカルエステート,0
663,3011001141812,新規,0,2021-07-30,2021-07-30,株式会社ＪｗｉｔｈＵ,,株式会社,東京都,渋谷区,神宮前６丁目２３－４桑野ビル２Ｆ,,13,113,1500001,,,,,,,2021-07-30,1,,,,,ジェイウイズユー,0
664,3011001141903,新規,0,2021-07-30,2021-07-30,株式会社ｓｔ－ＹＯＬＯ,,株式会社,東京都,渋谷区,東１丁目４番２７号,,13,113,1500011,,,,,,,2021-07-30,1,,,,,エスティヨーロ,0
665,3011001141977,新規,0,2021-07-30,2021-07-30,株式会社ロジランド・ロジスティクス,,株式会社,東京都,渋谷区,代官山町２０番９号,,13,113,1500034,,,,,,,2021-07-30,1,,,,,ロジランドロジスティクス,0
670,3011101095842,新規,0,2021-07-30,2021-07-30,盤金株式会社,,株式会社,東京都,新宿区,大久保２丁目１７番２０号グローリア初穂新宿Ⅱ２０５,00123784,13,104,1690072,,,,,,,2021-07-30,1,,,,,バンキン,0
671,3011101095883,新規,0,2021-07-30,2021-07-30,株式会社Ｂ　Ｃｒｅａｔｅ,,株式会社,東京都,新宿区,西新宿６丁目１５番１号,,13,104,1600023,,,,,,,2021-07-30,1,,,,,ビークリエイト,0
700,3020001142365,新規,0,2021-07-30,2021-07-30,株式会社ホワイトネクサス,,株式会社,神奈川県,横浜市磯子区,磯子２丁目２７番２５号,,14,107,2350016,,,,,,,2021-07-30,1,,,,,ホワイトネクサス,0
712,3030001143536,新規,0,2021-07-30,2021-07-30,株式会社Ｈ．Ｋ．Ｃ,,株式会社,埼玉県,草加市,氷川町６６７番地２,,11,221,3400034,,,,,,,2021-07-30,1,,,,,エイチケーシー,0
728,3050001049608,新規,0,2021-07-30,2021-07-30,株式会社建築工房オオホリ,,株式会社,茨城県,龍ケ崎市,若柴町３０８２番４,,08,208,3010041,,,,,,,2021-07-30,1,,,,,ケンチクコウボウオオホリ,0
730,3050003006004,新規,0,2021-07-30,2021-07-30,合同会社そばの里奴庵,,合同会社,茨城県,つくば市,上原３８９番地５,,08,220,3050055,,,,,,,2021-07-30,1,,,,,ソバノサトヤッコアン,0
740,3080101022684,新規,0,2021-07-30,2021-07-30,株式会社悠依設備工業,,株式会社,静岡県,三島市,谷田１２４０番地の１３,,22,206,4110801,,,,,,,2021-07-30,1,,,,,ユウイセツビコウギョウ,0
743,3090001017123,新規,0,2021-07-30,2021-07-30,ＲＥＮＴＡＬｉｎｋ株式会社,,株式会社,山梨県,甲府市,湯田２丁目１９番２号,,19,201,4000864,,,,,,,2021-07-30,1,,,,,レンタリンク,0
764,3120001239424,新規,0,2021-07-30,2021-07-30,株式会社レキオス・パートナーズ,,株式会社,大阪府,大阪市北区,天神橋２丁目４番１７号千代田第一ビル５階,,27,127,5300041,,,,,,,2021-07-30,1,,,,,レキオスパートナーズ,0
780,3122001035027,新規,0,2021-07-30,2021-07-30,株式会社近畿クリーン,,株式会社,大阪府,柏原市,田辺２丁目９番６８号,,27,221,5820024,,,,,,,2021-07-30,1,,,,,キンキクリーン,0
785,3130003007398,新規,0,2021-07-30,2021-07-30,合同会社高野プランニング,,合同会社,京都府,京都市西京区,川島桜園町１番地３,,26,111,6158114,,,,,,,2021-07-30,1,,,,,タカノプランニング,0
786,3130005016240,新規,0,2021-07-30,2021-07-30,一般社団法人ＧＯＯＤＬＩＮＫＳ,,その他の設立登記法人,京都府,宇治市,小倉町西浦３３番地３２号,,26,204,6110042,,,,,,,2021-07-30,1,,,,,グッドリンクス,0
793,3140001122479,新規,0,2021-07-30,2021-07-30,株式会社Ｖａｒｍｓ,,株式会社,兵庫県,加古川市,加古川町南備後３０５番地１,,28,210,6750033,,,,,,,2021-07-30,1,,,,,ブイアームス,0
802,3150001024823,新規,0,2021-07-30,2021-07-30,株式会社中野工業,,株式会社,奈良県,吉野郡大淀町,大字桧垣本２４４５番地の１０５,,29,442,6380812,,,,,,,2021-07-30,1,,,,,ナカノコウギョウ,0
804,3160001023519,新規,0,2021-07-30,2021-07-30,ＣＨＡＬＫ　ＬＡＮＥ株式会社,,株式会社,滋賀県,高島市,新旭町旭８０９番地９,,25,212,5201501,,,,,,,2021-07-30,1,,,,,チョークレーン,0
807,3170001016694,新規,0,2021-07-30,2021-07-30,株式会社ＡＳ,,株式会社,和歌山県,紀の川市,貴志川町北山字北谷５９２,,30,208,6400402,,,,,,,2021-07-30,1,,,,,エーエス,0
816,3180001147142,新規,0,2021-07-30,2021-07-30,株式会社ハレナル,,株式会社,愛知県,北名古屋市,鹿田院田前７２番地,,23,234,4810004,,,,,,,2021-07-30,1,,,,,ハレナル,0
817,3180001147150,新規,0,2021-07-30,2021-07-30,株式会社ＥＲＦＯＬＧ,,株式会社,愛知県,名古屋市緑区,滝ノ水１丁目８０９番地,,23,114,4580021,,,,,,,2021-07-30,1,,,,,エアフォルク,0
818,3180001147167,新規,0,2021-07-30,2021-07-30,ＳＦ株式会社,,株式会社,愛知県,半田市,桐ケ丘２丁目５５番地,,23,205,4750928,,,,,,,2021-07-30,1,,,,,エスエフ,0
819,3180001147191,新規,0,2021-07-30,2021-07-30,株式会社オプト,,株式会社,愛知県,春日井市,旭町１丁目２３番地２,,23,206,4860929,,,,,,,2021-07-30,1,,,,,オプト,0
824,3180003022789,新規,0,2021-07-30,2021-07-30,合同会社ドリームゲート,,合同会社,愛知県,名古屋市中区,伊勢山１丁目１番９号（レジデンシア東別院４Ｂ号）,,23,106,4600026,,,,,,,2021-07-30,1,,,,,ドリームゲート,0
825,3180003022797,新規,0,2021-07-30,2021-07-30,合同会社ＣＥＲ．ＳＴＵＤＩＯ,,合同会社,愛知県,名古屋市天白区,原２丁目１７０１第２住吉ハイツ４０Ｃ,,23,116,4680015,,,,,,,2021-07-30,1,,,,,セルスタジオ,0
828,3180301035212,新規,0,2021-07-30,2021-07-30,株式会社ＴＦＥ,,株式会社,愛知県,岡崎市,東蔵前町字犬飼２１番地,,23,202,4442146,,,,,,,2021-07-30,1,,,,,ティーエフイー,0
847,3240001058317,新規,0,2021-07-30,2021-07-30,株式会社不動開発,,株式会社,広島県,安芸郡熊野町,萩原２丁目１６番１７号,,34,307,7314213,,,,,,,2021-07-30,1,,,,,フドウカイハツ,0
848,3240001058341,新規,0,2021-07-30,2021-07-30,株式会社西日本セキュアガード販売,,株式会社,広島県,広島市安佐南区,川内３丁目１０番１１－１０１号,,34,105,7310102,,,,,,,2021-07-30,1,,,,,ニシニホンセキュアガードハンバイ,0
861,3290001094019,新規,0,2021-07-30,2021-07-30,共進株式会社,,株式会社,福岡県,福岡市南区,塩原１丁目２２番１８号,,40,134,8150032,,,,,,,2021-07-30,1,,,,,キョウシン,0
862,3290001094035,新規,0,2021-07-30,2021-07-30,株式会社オールペース,,株式会社,福岡県,糟屋郡志免町,志免東３丁目７番３２号ワイズタウンＢ棟２０２号室,,40,343,8112243,,,,,,,2021-07-30,1,,,,,オールペース,0
863,3290001094051,新規,0,2021-07-30,2021-07-30,株式会社天野,,株式会社,福岡県,糟屋郡粕屋町,大字上大隈５６８－１,,40,349,8112301,,,,,,,2021-07-30,1,,,,,アマノ,0
871,3320003003584,新規,0,2021-07-30,2021-07-30,合同会社Ｓ１プランニング,,合同会社,大分県,速見郡日出町,大字豊岡３５００,,44,341,8791507,,,,,,,2021-07-30,1,,,,,エスワンプランニング,0
874,3330001028847,新規,0,2021-07-30,2021-07-30,株式会社コマツ,,株式会社,熊本県,八代市,塩屋町８番１９号,,43,202,8660864,,,,,,,2021-07-30,1,,,,,,0
880,3340001023970,新規,0,2021-07-30,2021-07-30,株式会社ＭＩＵ,,株式会社,鹿児島県,鹿児島市,紫原４丁目４７番１２号,,46,201,8900082,,,,,,,2021-07-30,1,,,,,ミュウ,0
885,3360001029099,新規,0,2021-07-30,2021-07-30,ＪＯＵＲＮＥＹ株式会社,,株式会社,沖縄県,宜野湾市,大山４丁目１２－８,,47,205,9012223,,,,,,,2021-07-30,1,,,,,ジャーニー,0
886,3360001029149,新規,0,2021-07-30,2021-07-30,農業生産法人株式会社オリフラムファーム,,株式会社,沖縄県,石垣市,字真栄里２６０番地,,47,207,9070002,,,,,,,2021-07-30,1,,,,,ノウギョウセイサンホウジンオリフラムファーム,0
887,3360001029157,新規,0,2021-07-30,2021-07-30,ダイユウ商事株式会社,,株式会社,沖縄県,豊見城市,字金良３８７－１,,47,212,9010204,,,,,,,2021-07-30,1,,,,,ダイユウショウジ,0
888,3360003011328,新規,0,2021-07-30,2021-07-30,ちゅらしまＳｏｃｉａｌ　Ｃａｐｉｔａｌ合同会社,,合同会社,沖縄県,那覇市,おもろまち２丁目１番１８－３０１号,,47,201,9000006,,,,,,,2021-07-30,1,,,,,,0
893,3380005012462,新規,0,2021-07-30,2021-07-30,特定非営利活動法人ＭＤＤスタッフ,,その他の設立登記法人,福島県,伊達市,箱崎字沼頭２番地,,07,213,9600502,,,,,,,2021-07-30,1,,,,,,0
894,3410001012909,新規,0,2021-07-30,2021-07-30,株式会社進藤農建興業,,株式会社,秋田県,仙北郡美郷町,金沢西根字上大久保１８３番地,,05,434,0191235,,,,,,,2021-07-30,1,,,,,シンドウノウケンコウギョウ,0
903,3430001084640,新規,0,2021-07-30,2021-07-30,株式会社札幌ここから,,株式会社,北海道,札幌市中央区,南六条西９丁目１０１９番地１２,,01,101,0640806,,,,,,,2021-07-30,1,,,,,サッポロココカラ,0
906,3470001018636,新規,0,2021-07-30,2021-07-30,株式会社天企画,,株式会社,香川県,仲多度郡多度津町,大字青木５７３番地１,,37,404,7640033,,,,,,,2021-07-30,1,,,,,テンキカク,0
914,3700150104221,新規,0,2021-07-30,2021-07-30,ＺＡＭ　ＺＡＭ　ＷＩＮＧＳ,,外国会社等,千葉県,佐倉市,大篠塚７３７番地Ｃ号,,12,212,2850806,スリランカ民主社会主義共和国、クルネガラ、ネゴンボロード、１９３－１,,,,,,2021-07-30,1,,,,,ザムザムウイングス,0
926,4010001220022,新規,0,2021-07-30,2021-07-30,株式会社ＴＡＫＵＢＥＴＳＵ,,株式会社,東京都,中央区,築地６丁目１番１０号２階,,13,102,1040045,,,,,,,2021-07-30,1,,,,,タクベツ,0
927,4010001220071,新規,0,2021-07-30,2021-07-30,株式会社ＪＥＣ商事,,株式会社,東京都,中央区,日本橋茅場町３丁目１０－９,,13,102,1030025,,,,,,,2021-07-30,1,,,,,ジェーイーシーショウジ,0
932,4010003035451,新規,0,2021-07-30,2021-07-30,合同会社丸匠,,合同会社,東京都,中央区,東日本橋３丁目９番２号,,13,102,1030004,,,,,,,2021-07-30,1,,,,,マルタク,0
943,4010401161741,新規,0,2021-07-30,2021-07-30,株式会社ポート・ワン,,株式会社,東京都,港区,芝大門２丁目９番１５号,,13,103,1050012,,,,,,,2021-07-30,1,,,,,ポートワン,0
949,4010405020076,新規,0,2021-07-30,2021-07-30,一般社団法人Ａ．Ｐ．１８,,その他の設立登記法人,東京都,港区,元赤坂１丁目１番８号赤坂コミュニティビル４階,,13,103,1070051,,,,,,,2021-07-30,1,,,,,エーピーエイティーン,0
956,4010803003839,新規,0,2021-07-30,2021-07-30,翔健合同会社,,合同会社,東京都,大田区,田園調布４丁目２７番３号,,13,111,1450071,,,,,,,2021-07-30,1,,,,,ショウケン,0
958,4010901049107,新規,0,2021-07-30,2021-07-30,たびスル株式会社,,株式会社,東京都,世田谷区,大原１丁目１３番１０号,,13,112,1560041,,,,,,,2021-07-30,1,,,,,タビスル,0
967,4011001141976,新規,0,2021-07-30,2021-07-30,株式会社ブロードエッジ・ロジスティクス,,株式会社,東京都,渋谷区,代官山町２０番９号,,13,113,1500034,,,,,,,2021-07-30,1,,,,,ブロードエッジロジスティクス,0
972,4011101095817,新規,0,2021-07-30,2021-07-30,株式会社ＳＬＡＳＨ　ｃｒｅａｔｉｖｅ　ｏｆｆｉｃｅ,,株式会社,東京都,新宿区,西新宿７丁目１番７新宿ダイカンプラザＡ１０１８,,13,104,1600023,,,,,,,2021-07-30,1,,,,,スラッシュクリエイティブオフィス,0
983,4011801039511,新規,0,2021-07-30,2021-07-30,株式会社和楽,,株式会社,東京都,葛飾区,堀切２丁目５５番１０号,,13,122,1240006,,,,,,,2021-07-30,1,,,,,ワラク,0
990,4012403004969,新規,0,2021-07-30,2021-07-30,ＳＴＵＤＩＯ　ＮＮＣ合同会社,,合同会社,東京都,稲城市,若葉台３丁目１番地の１、Ｆ４０８,,13,225,2060824,,,,,,,2021-07-30,1,,,,,スタジオエヌエヌシー,0
1005,4020001142364,新規,0,2021-07-30,2021-07-30,株式会社台湾美食５２０,,株式会社,神奈川県,横浜市中区,山下町１９１番地２０,,14,104,2310023,,,,,,,2021-07-30,1,,,,,タイワンビショクゴーニーマル,0
1006,4020001142406,新規,0,2021-07-30,2021-07-30,株式会社ｉｍａｇｏＤｅｉ,,株式会社,神奈川県,川崎市中原区,新丸子東３丁目１１００番地１５Ｓ１７０６,,14,133,2110004,,,,,,,2021-07-30,1,,,,,イマゴデイ,0
1007,4020003020246,新規,0,2021-07-30,2021-07-30,合同会社エッセンスアクシス,,合同会社,神奈川県,横浜市磯子区,洋光台６丁目１５番４号,,14,107,2350045,,,,,,,2021-07-30,1,,,,,エッセンスアクシス,0
1021,4030001143452,新規,0,2021-07-30,2021-07-30,株式会社ＯＶＥＲ　ＮＥＸＴ,,株式会社,埼玉県,蓮田市,椿山２丁目１４番９号,,11,238,3490144,,,,,,,2021-07-30,1,,,,,オーバーネクスト,0
1022,4030001143519,新規,0,2021-07-30,2021-07-30,株式会社匠生Ｐａｃｉｆｉｃ,,株式会社,埼玉県,熊谷市,久保島６９８番地３,,11,202,3600831,,,,,,,2021-07-30,1,,,,,タキパシフィック,0
1023,4030001143543,新規,0,2021-07-30,2021-07-30,花園商運株式会社,,株式会社,埼玉県,川越市,大字小室２９番地３,,11,201,3501106,,,,,,,2021-07-30,1,,,,,ハナゾノショウウン,0
1024,4030001143551,新規,0,2021-07-30,2021-07-30,株式会社志,,株式会社,埼玉県,北葛飾郡杉戸町,大字杉戸４５４番地３,,11,464,3450036,,,,,,,2021-07-30,1,,,,,ココロザシ,0
1025,4030001143568,新規,0,2021-07-30,2021-07-30,株式会社ＲｅａＲ　ＬｉＢ,,株式会社,埼玉県,越谷市,大字袋山１５０３番地３０,,11,222,3430032,,,,,,,2021-07-30,1,,,,,リアーリブ,0
1032,4030003017695,新規,0,2021-07-30,2021-07-30,Ｉ＆Ｉ合同会社１号,,合同会社,埼玉県,川口市,青木２丁目３番３０号,,11,203,3320031,,,,,,,2021-07-30,1,,,,,アイアンドアイゴウドウカイシャイチゴウ,0
1033,4030003017704,新規,0,2021-07-30,2021-07-30,合同会社ＣＲＥＥＤ,,合同会社,埼玉県,春日部市,下柳６７６番地１かおるビル２階,,11,214,3440122,,,,,,,2021-07-30,1,,,,,クリード,0
1053,4050003006003,新規,0,2021-07-30,2021-07-30,億隆産業合同会社,00123792,合同会社,茨城県,那珂市,東木倉３０３－１,,08,226,3110114,,,,,,,2021-07-30,1,,,,,オクリュウサンギョウ,0
1061,4080001024350,新規,0,2021-07-30,2021-07-30,株式会社ニュー・サークル,,株式会社,静岡県,静岡市清水区,押切１６９８番地,,22,103,4240008,,,,,,,2021-07-30,1,,,,,ニューサークル,0
1090,4120001239340,新規,0,2021-07-30,2021-07-30,ＩＮＩ株式会社,,株式会社,大阪府,大阪市城東区,永田３丁目４番２７号,,27,118,5360022,,,,,,,2021-07-30,1,,,,,アイエヌアイ,0
1091,4120001239407,新規,0,2021-07-30,2021-07-30,ＨＯＡ　ＳＥＮ株式会社,,株式会社,大阪府,大阪市東淀川区,大桐３丁目２６番１２号,,27,114,5330011,,,,,,,2021-07-30,1,,,,,ファーセン,0
1092,4120001239415,新規,0,2021-07-30,2021-07-30,株式会社大谷建装,,株式会社,大阪府,交野市,倉治３丁目２７番１２号,,27,230,5760051,,,,,,,2021-07-30,1,,,,,オオタニケンソウ,0
1093,4120001239448,新規,0,2021-07-30,2021-07-30,株式会社Ｍｅｄｕｓａ,,株式会社,大阪府,大阪市中央区,本町４丁目４番１７号ＲＥ－０１２ビル７０５号,,27,128,5410053,,,,,,,2021-07-30,1,,,,,メドューサ,0
1095,4120003019930,新規,0,2021-07-30,2021-07-30,リベアティ合同会社,,合同会社,大阪府,大阪市西区,川口１丁目４番３－５０２号,,27,106,5500021,,,,,,,2021-07-30,1,,,,,リベアティ,0
1097,4120901044699,新規,0,2021-07-30,2021-07-30,株式会社Ｎｉｃｅ,,株式会社,大阪府,茨木市,下井町１－１４,,27,211,5670066,,,,,,,2021-07-30,1,,,,,ナイス,0
1104,4130001069811,新規,0,2021-07-30,2021-07-30,株式会社紳士服中西,,株式会社,京都府,京都市下京区,松原通烏丸西入ル玉津島町３０３番地,,26,106,6000000,,,,,,,2021-07-30,1,,,,,シンシフクナカニシ,0
1113,4140001122445,新規,0,2021-07-30,2021-07-30,株式会社ギア,,株式会社,兵庫県,神戸市東灘区,深江南町４丁目１２番２－１号,,28,101,6580022,,,,,,,2021-07-30,1,,,,,ギア,0
1114,4140001122453,新規,0,2021-07-30,2021-07-30,株式会社エルプラウド,,株式会社,兵庫県,神戸市中央区,下山手通４丁目５番１－１８０１号,,28,110,6500011,,,,,,,2021-07-30,1,,,,,エルプラウド,0
1115,4140001122478,新規,0,2021-07-30,2021-07-30,株式会社ＥＬＵＣＡ,,株式会社,兵庫県,神戸市中央区,中山手通１丁目２６番７号３階東号室,,28,110,6500004,,,,,,,2021-07-30,1,,,,,エルカ,0
1116,4140001122503,新規,0,2021-07-30,2021-07-30,ＴＯＭＭＥＹ株式会社,,株式会社,兵庫県,神戸市西区,竹の台６丁目１番地の１、３０９号,,28,111,6512274,,,,,,,2021-07-30,1,,,,,トミー,0
1120,4140003016587,新規,0,2021-07-30,2021-07-30,ツクワークス合同会社,,合同会社,兵庫県,尼崎市,上坂部１丁目１番３－１１０６号,,28,202,6610979,,,,,,,2021-07-30,1,,,,,ツクワークスゴウドウガイシャ,0
1121,4150001024822,新規,0,2021-07-30,2021-07-30,株式会社ＳＥＲＥＮＧＡＴＥ,,株式会社,奈良県,奈良市,芝辻町２丁目７番３０号,00123789,29,201,6308114,,,,,,,2021-07-30,1,,,,,セレンゲート,0
1132,4180001147141,新規,0,2021-07-30,2021-07-30,株式会社イーパワー,,株式会社,愛知県,名古屋市東区,黒門町４２番地の１,,23,102,4610035,,,,,,,2021-07-30,1,,,,,イーパワー,0
1133,4180001147158,新規,0,2021-07-30,2021-07-30,ＹＫ株式会社,,株式会社,愛知県,半田市,桐ケ丘２丁目５５番地,,23,205,4750928,,,,,,,2021-07-30,1,,,,,ワイケイ,0
1134,4180001147174,新規,0,2021-07-30,2021-07-30,博安株式会社,,株式会社,愛知県,半田市,昭和町４丁目４０番地,,23,205,4750922,,,,,,,2021-07-30,1,,,,,ヒロヤス,0
1139,4180005019386,新規,0,2021-07-30,2021-07-30,一般社団法人シニアサポート協会,,その他の設立登記法人,愛知県,名古屋市守山区,茶臼前１２－１１Ｂヒガシ,,23,113,4630012,,,,,,,2021-07-30,1,,,,,シニアサポートキョウカイ,0
1142,4180301035211,新規,0,2021-07-30,2021-07-30,田中貿易株式会社,,株式会社,愛知県,豊田市,深田町１丁目１１４番地豊田グリーンハイツＡ‐５０７号,,23,211,4710841,,,,,,,2021-07-30,1,,,,,タナカボウエキ,0
1144,4180303005063,新規,0,2021-07-30,2021-07-30,ＦｌｏＤｉａ合同会社,,合同会社,愛知県,豊橋市,多米西町１丁目１８番地１１,,23,201,4400026,,,,,,,2021-07-30,1,,,,,フロウディア,0
1156,4210005009978,新規,0,2021-07-30,2021-07-30,一般社団法人Ｗｏｒｋ　Ｈａｐｐｉｎｅｓｓ　Ｉｎｓｔｉｔｕｔｅ,,その他の設立登記法人,福井県,福井市,中央３丁目５番１２号クラフトブリッジ２Ｆ,,18,201,9100006,,,,,,,2021-07-30,1,,,,,ワークハピネスインスティテュート,0
1171,4270003001329,新規,0,2021-07-30,2021-07-30,ミウラネットワークス合同会社,,合同会社,鳥取県,鳥取市,湖山町東２丁目１６０番地大成第二ビル２階,,31,201,6800942,,,,,,,2021-07-30,1,,,,,ミウラネットワークス,0
1177,4290001094034,新規,0,2021-07-30,2021-07-30,株式会社タイガ美建,,株式会社,福岡県,糟屋郡須惠町,大字須惠３６０番地６,,40,344,8112113,,,,,,,2021-07-30,1,,,,,タイガビケン,0
1178,4290001094050,新規,0,2021-07-30,2021-07-30,株式会社ＫＵＲＵＭＩ,,株式会社,福岡県,福岡市博多区,元町２丁目１番８－１号,,40,132,8120877,,,,,,,2021-07-30,1,,,,,クルミ,0
1179,4290001094067,新規,0,2021-07-30,2021-07-30,株式会社ＮＥＯ商事,,株式会社,福岡県,福岡市東区,香椎浜３丁目３番６号,,40,131,8130016,,,,,,,2021-07-30,1,,,,,ネオショウジ,0
1182,4290801027663,新規,0,2021-07-30,2021-07-30,株式会社アーク,,株式会社,福岡県,北九州市小倉南区,北方３丁目３９－８,,40,107,8020841,,,,,,,2021-07-30,1,,,,,アーク,0
1191,4330001028846,新規,0,2021-07-30,2021-07-30,株式会社田﨑電気,00123791,株式会社,熊本県,天草市,牛深町１５５１番地５０,,43,215,8631901,,,,,,,2021-07-30,1,,,,,タサキデンキ,0
1197,4360001029156,新規,0,2021-07-30,2021-07-30,株式会社清幸基工,,株式会社,沖縄県,うるま市,字江洲２６３番地ドミールＮⅢ１－Ｂ,00123793,47,213,9042244,,,,,,,2021-07-30,1,,,,,セイコウキコウ,0
1198,4360003011327,新規,0,2021-07-30,2021-07-30,合同会社Ｍａｅｎｏｍｅｒｒｙ,,合同会社,沖縄県,沖縄市,字大里９８番地１１ベルゾーネ東４０３,,47,211,9042163,,,,,,,2021-07-30,1,,,,,マエノメリー,0
1204,4380005012461,新規,0,2021-07-30,2021-07-30,農事組合法人白髭宿,,その他の設立登記法人,福島県,二本松市,太田字白髭２２－２番地,,07,210,9640111,,,,,,,2021-07-30,1,,,,,シラヒゲジュク,0
1228,4460305001965,新規,0,2021-07-30,2021-07-30,特定非営利活動法人ネイチャーランド・宙ｓｏｒａ,,その他の設立登記法人,北海道,斜里郡斜里町,字峰浜６９番地,,01,545,0994122,,,,,,,2021-07-30,1,,,,,ネイチャーランドソラ,0
1242,4700150104220,新規,0,2021-07-30,2021-07-30,ＮＩＨＯＮ　ＥＮＴＥＲＰＲＩＳＥＳ,,外国会社等,千葉県,佐倉市,大篠塚１３５０番地１－Ｈ,,12,212,2850806,スリランカ民主社会主義共和国、ウクウェラ、タワランコヤ、４ｔｈランド、１４４－２４,,,,,,2021-07-30,1,,,,,ニホンエンタープライズ,0
1243,4700150104229,新規,0,2021-07-30,2021-07-30,Ｎ．Ｍ．Ｓ　ＥＮＴＥＲＰＲＩＳＥＳ,,外国会社等,千葉県,八街市,朝日３８０番地７ビジネスオフィス１号,,12,230,2891101,スリランカ民主社会主義共和国、キャンディ、アクラナ、パレウェリケティヤ、１５９－１,,,,,,2021-07-30,1,,,,,エヌエムエスエンタープライズ,0
1244,4700150104237,新規,0,2021-07-30,2021-07-30,ＳｍａｒｔＳｅａｌ　ＵＳＡ．ＬＬＣ,,外国会社等,東京都,中央区,新川１丁目２７番８号新川大原ビル８階,,13,102,1040033,アメリカ合衆国４１０４８ケンタッキー州、ヘブロン、アーバーテックドライブ２１０５,,,,,,2021-07-30,1,,,,,スマートシールユーエスエーエルエルシー,0
1253,5010001219963,新規,0,2021-07-30,2021-07-30,株式会社ゲンミツ,,株式会社,東京都,千代田区,富士見１丁目３－１１富士見デュープレックスＢ’ｓ４Ｆ,,13,101,1020071,,,,,,,2021-07-30,1,,,,,ゲンミツ,0
1267,5010401161749,新規,0,2021-07-30,2021-07-30,株式会社エース・ミュージックエンタテインメント,,株式会社,東京都,港区,六本木７丁目７番７号トライセブンロッポンギ８階,,13,103,1060032,,,,,,,2021-07-30,1,,,,,エースミュージックエンタテインメント,0
1268,5010401161765,新規,0,2021-07-30,2021-07-30,株式会社Ｃａｋ－Ｓａｋ,,株式会社,東京都,港区,港南４丁目６番７－２５０５号,,13,103,1080075,,,,,,,2021-07-30,1,,,,,カクサク,0
1269,5010401161807,新規,0,2021-07-30,2021-07-30,株式会社Ｔ＆Ｍ,,株式会社,東京都,港区,元赤坂１丁目１番７号,,13,103,1070051,,,,,,,2021-07-30,1,,,,,ティーアンドエム,0
1270,5010401161831,新規,0,2021-07-30,2021-07-30,５ＣＡ　Ｊａｐａｎ株式会社,,株式会社,東京都,港区,虎ノ門４丁目３番１号城山トラストタワー東京赤坂法律事務所内,,13,103,1050001,,,,,,,2021-07-30,1,,,,,ファイブシーエージャパン,0
1271,5010403025803,新規,0,2021-07-30,2021-07-30,合同会社ニコニコ商会,,合同会社,東京都,港区,新橋５丁目１３番７号港新ビル３階３０１号室,,13,103,1050004,,,,,,,2021-07-30,1,,,,,ニコニコショウカイ,0
1280,5010801032178,新規,0,2021-07-30,2021-07-30,オクトス株式会社,,株式会社,東京都,大田区,蒲田本町１丁目９番１－１０８号,,13,111,1440053,,,,,,,2021-07-30,1,,,,,オクトス,0
1289,5011001141975,新規,0,2021-07-30,2021-07-30,株式会社Ｔｒｕｓｔ　Ｗａｌｋ,,株式会社,東京都,渋谷区,桜丘町２６－１渋谷セルリアンタワー１５階,,13,113,1500031,,,,,,,2021-07-30,1,,,,,トラストウォーク,0
1290,5011003013132,新規,0,2021-07-30,2021-07-30,合同会社ツルスミレ,,合同会社,東京都,渋谷区,神宮前４丁目２６番２４号,,13,113,1500001,,,,,,,2021-07-30,1,,,,,ツルスミレ,0
1291,5011005009137,新規,0,2021-07-30,2021-07-30,一般社団法人日本アートアセットディーラーズ協会,,その他の設立登記法人,東京都,渋谷区,大山町３８番１８号,,13,113,1510065,,,,,,,2021-07-30,1,,,,,ニホンアートアセットディーラーズキョウカイ,0
1313,5011501027179,新規,0,2021-07-30,2021-07-30,友澤商事株式会社,,株式会社,東京都,北区,上中里２丁目４３－３,,13,117,1140016,,,,,,,2021-07-30,1,,,,,トモザワショウジ,0
1318,5012301012635,新規,0,2021-07-30,2021-07-30,グラスワン株式会社,,株式会社,東京都,町田市,高ヶ坂５丁目２１番１０号,,13,209,1940014,,,,,,,2021-07-30,1,,,,,グラスワン,0
1320,5012403004968,新規,0,2021-07-30,2021-07-30,合同会社タマフィルム,,合同会社,東京都,小金井市,貫井南町４丁目３番２０号カーサ・アンジェロ２０８,,13,210,1840014,,,,,,,2021-07-30,1,,,,,タマフィルム,0
1324,5012803002563,新規,0,2021-07-30,2021-07-30,小楓合同会社,,合同会社,東京都,日野市,多摩平２丁目１番２号Ｂ１Ｆ,,13,212,1910062,,,,,,,2021-07-30,1,,,,,ショウフウ,0
1364,5030001143501,新規,0,2021-07-30,2021-07-30,株式会社ＢＹＨジャパン,,株式会社,埼玉県,所沢市,大字上安松９７０番地の６パレ・ソーカル１０１号,,11,208,3590025,,,,,,,2021-07-30,1,,,,,ビーワイエイチジャパン,0
1365,5030001143534,新規,0,2021-07-30,2021-07-30,株式会社佐藤製作所,,株式会社,埼玉県,坂戸市,大字石井１７４９－１１,,11,239,3500212,,,,,,,2021-07-30,1,,,,,サトウセイサクジョ,0
1366,5030001143591,新規,0,2021-07-30,2021-07-30,株式会社ＲＥＧＯ,,株式会社,埼玉県,春日部市,東中野１３５０番地１１,,11,214,3440114,,,,,,,2021-07-30,1,,,,,レゴ,0
1379,5050001049614,新規,0,2021-07-30,2021-07-30,株式会社大貫石彫,,株式会社,茨城県,日立市,東大沼町２丁目１４番１４号,,08,202,3160023,,,,,,,2021-07-30,1,,,,,オオヌキイシボリ,0
1381,5050003005994,新規,0,2021-07-30,2021-07-30,ＭＥＨＡＲ　ＴＲＡＤＩＮＧ合同会社,,合同会社,茨城県,常総市,豊岡町丙２６３０番地１鈴木アパート６号室,,08,211,3030041,,,,,,,2021-07-30,1,,,,,メハルトレーディング,0
1387,5080002006198,新規,0,2021-07-30,2021-07-30,有限会社ユニオン,,有限会社,静岡県,静岡市葵区,西草深町２２番１４号,,22,101,4200866,,,,,,,2021-07-30,1,,,,,ユニオン,0
1397,5110005016686,新規,0,2021-07-30,2021-07-30,一般社団法人り・ぼん,,その他の設立登記法人,新潟県,長岡市,三和１丁目５番１９号,,15,202,9401151,,,,,,,2021-07-30,1,,,,,リボン,0
1406,5120001239430,新規,0,2021-07-30,2021-07-30,株式会社ラナスカンパニー,,株式会社,大阪府,枚方市,津田駅前１丁目２６番５号３階３０２号,,27,210,5730125,,,,,,,2021-07-30,1,,,,,ラナスカンパニー,0
1418,5120901044698,新規,0,2021-07-30,2021-07-30,株式会社まみぃず,,株式会社,大阪府,豊中市,本町３丁目１１番３号,,27,203,5600021,,,,,,,2021-07-30,1,,,,,マミィズ,0
1422,5122001035025,新規,0,2021-07-30,2021-07-30,三共ホールディングス株式会社,,株式会社,大阪府,東大阪市,高井田中３丁目１２番２７号,,27,227,5770065,,,,,,,2021-07-30,1,,,,,サンキョウホールディングス,0
1423,5122001035033,新規,0,2021-07-30,2021-07-30,Ｈａｒｕ　Ｓｕｐｐｏｒｔ株式会社,,株式会社,大阪府,柏原市,安堂町２２１番地の３,,27,221,5820016,,,,,,,2021-07-30,1,,,,,ハルサポート,0
1425,5122005003572,新規,0,2021-07-30,2021-07-30,医療法人関西一円会,,その他の設立登記法人,大阪府,東大阪市,源氏ケ丘６番５号,,27,227,5770822,,,,,,,2021-07-30,1,,,,,カンサイイチエンカイ,0
1430,5130003007396,新規,0,2021-07-30,2021-07-30,合同会社はるかハウジング,,合同会社,京都府,京都市中京区,壬生土居ノ内町４０番地６,,26,104,6048842,,,,,,,2021-07-30,1,,,,,ハルカハウジング,0
1434,5140001122485,新規,0,2021-07-30,2021-07-30,株式会社フォレスト,,株式会社,兵庫県,川西市,丸山台１丁目２番地の１３９,,28,217,6660152,,,,,,,2021-07-30,1,,,,,フォレスト,0
1435,5140001122502,新規,0,2021-07-30,2021-07-30,株式会社ピアサポーターズ,,株式会社,兵庫県,神戸市兵庫区,湊川町１丁目３番８号,,28,105,6520041,,,,,,,2021-07-30,1,,,,,ピアサポーターズ,0
1444,5170001016692,新規,0,2021-07-30,2021-07-30,エヌジェイ・ケイ株式会社,,株式会社,和歌山県,和歌山市,鳴神１０３５番地,,30,201,6408303,,,,,,,2021-07-30,1,,,,,エヌジェイケイ,0
1450,5180001147108,新規,0,2021-07-30,2021-07-30,ＭＯＲＥ運送株式会社,,株式会社,愛知県,名古屋市港区,小賀須２丁目１５０８番地,,23,111,4550882,,,,,,,2021-07-30,1,,,,,モアウンソウ,0
1451,5180001147116,新規,0,2021-07-30,2021-07-30,株式会社Ｈｅａｒｔ,,株式会社,愛知県,名古屋市中区,丸の内３丁目６番３３号,,23,106,4600002,,,,,,,2021-07-30,1,,,,,ハート,0
1452,5180001147132,新規,0,2021-07-30,2021-07-30,株式会社Ｄ－ＰＲＯ,,株式会社,愛知県,名古屋市中区,富士見町１４番１５号,,23,106,4600014,,,,,,,2021-07-30,1,,,,,ディープロ,0
1453,5180001147149,新規,0,2021-07-30,2021-07-30,株式会社Ｆｏｒ　Ａｂｉｌｉｔｙ,,株式会社,愛知県,名古屋市東区,泉１丁目１番２６号,,23,102,4610001,,,,,,,2021-07-30,1,,,,,フォーアビリティ,0
1454,5180001147157,新規,0,2021-07-30,2021-07-30,Ｓａｖｅ　ｔｈｅ　Ｏｃｅａｎ株式会社,,株式会社,愛知県,春日井市,中切町１丁目５番地４,,23,206,4860925,,,,,,,2021-07-30,1,,,,,セーブジオーシャン,0
1455,5180001147165,新規,0,2021-07-30,2021-07-30,ＭＴ株式会社,,株式会社,愛知県,半田市,桐ケ丘２丁目５５番地,,23,205,4750928,,,,,,,2021-07-30,1,,,,,エムティー,0
1458,5180003022795,新規,0,2021-07-30,2021-07-30,合同会社居心ち,,合同会社,愛知県,日進市,米野木町南山４８７番地１７,,23,230,4700111,,,,,,,2021-07-30,1,,,,,イゴゴチ,0
1460,5180005019377,新規,0,2021-07-30,2021-07-30,一般社団法人学びの文庫,,その他の設立登記法人,愛知県,名古屋市名東区,若葉台３０６番地,,23,115,4650015,,,,,,,2021-07-30,1,,,,,マナビノブンコ,0
1469,5200001038948,新規,0,2021-07-30,2021-07-30,株式会社濃飛ホールディングス,,株式会社,岐阜県,美濃加茂市,本郷町６丁目７番３０号,,21,211,5050027,,,,,,,2021-07-30,1,,,,,ノウヒホールディングス,0
1474,5210001018544,新規,0,2021-07-30,2021-07-30,株式会社アイデアルホーム,,株式会社,福井県,鯖江市,柳町４丁目１１番２１号,,18,207,9160047,,,,,,,2021-07-30,1,,,,,アイデアルホーム,0
1478,5220001024327,新規,0,2021-07-30,2021-07-30,株式会社村上商会,,株式会社,石川県,白山市,鶴来本町４丁目千目２４番地,,17,210,9202121,,,,,,,2021-07-30,1,,,,,ムラカミショウカイ,0
1497,5260001035799,新規,0,2021-07-30,2021-07-30,株式会社サンワクリーンサービス,,株式会社,岡山県,岡山市南区,福富中１丁目１番２１号１１０５号,,33,104,7028032,,,,,,,2021-07-30,1,,,,,サンワクリーンサービス,0
1501,5290001094033,新規,0,2021-07-30,2021-07-30,株式会社渡辺工務店,,株式会社,福岡県,朝倉郡筑前町,松延６２９番地６２,,40,447,8380224,,,,,,,2021-07-30,1,,,,,ワタナベコウムテン,0
1506,5290003011465,新規,0,2021-07-30,2021-07-30,合同会社かえる開発,,合同会社,福岡県,小郡市,小郡８２５番地５,,40,216,8380141,,,,,,,2021-07-30,1,,,,,カエルカイハツ,0
1521,5360003011334,新規,0,2021-07-30,2021-07-30,ベストライフサポート合同会社,,合同会社,沖縄県,豊見城市,字長堂１８０番地１,,47,212,9010203,,,,,,,2021-07-30,1,,,,,ベストライフサポート,0
1523,5370001047395,新規,0,2021-07-30,2021-07-30,鹿島俱楽部株式会社,00123787,株式会社,宮城県,仙台市青葉区,一番町１丁目１番３０号,,04,101,9800811,,,,,,,2021-07-30,1,,,,,カシマクラブ,0
1524,5370001047412,新規,0,2021-07-30,2021-07-30,Ａｍｅｎａ　Ｃｏｒｐｏｒａｔｉｏｎ　ＢＤ株式会社,,株式会社,宮城県,仙台市青葉区,三条町１２番３号,,04,101,9810935,,,,,,,2021-07-30,1,,,,,アメナコーポレーションビーディー,0
1533,5390003001852,新規,0,2021-07-30,2021-07-30,合同会社タキヤマ・エンジン,,合同会社,山形県,山形市,小立４丁目１６番５９－２号,,06,201,9902402,,,,,,,2021-07-30,1,,,,,タキヤマエンジン,0
1548,5430003012977,新規,0,2021-07-30,2021-07-30,合同会社クリエイティブワークス,,合同会社,北海道,苫小牧市,高砂町１丁目５－８エステート６　２０７号,,01,213,0530013,,,,,,,2021-07-30,1,,,,,クリエイティブワークス,0
1550,5460403000240,新規,0,2021-07-30,2021-07-30,オヌマサッシ合同会社,,合同会社,北海道,根室市,松本町１丁目９番地８,,01,223,0870044,,,,,,,2021-07-30,1,,,,,,0
1559,5490001001150,新規,0,2021-07-30,2021-07-30,株式会社武田組,,株式会社,高知県,高知市,長浜４０６３番地,,39,201,7810270,,,,,,,2021-07-30,1,,,,,タケダクミ,0
1561,5700150104228,新規,0,2021-07-30,2021-07-30,Ｍ．Ｔ．Ｍ．　ＥＮＴＥＲＰＲＩＳＥＳ,,外国会社等,千葉県,佐倉市,大篠塚１３０８番地１－１サポート３号,,12,212,2850806,スリランカ民主社会主義共和国、ウェウダ、パラガハデニヤ、シンハプラ、３,,,,,,2021-07-30,1,,,,,エムテイーエムエンタープライズ,0
1568,6010001220012,新規,0,2021-07-30,2021-07-30,株式会社ＨＡＤＤＡＤ　ＪＡＰＡＮ,,株式会社,東京都,千代田区,内幸町２丁目２番１号日本プレスセンタービル８階,,13,101,1000011,,,,,,,2021-07-30,1,,,,,ハッダッドジャパン,0
1569,6010001220029,新規,0,2021-07-30,2021-07-30,株式会社Ａｉ　ｔｒａｎｓｆｏｒｍａｔｉｏｎ,,株式会社,東京都,中央区,銀座１丁目２２番１１号銀座大竹ビジデンス２階,,13,102,1040061,,,,,,,2021-07-30,1,,,,,エーアイトランスフォーメーション,0
1570,6010001220053,新規,0,2021-07-30,2021-07-30,株式会社ＢＡＮＳＯ－ＣＯ,,株式会社,東京都,中央区,銀座１丁目２２番１１号銀座大竹ビジデンス２階,,13,102,1040061,,,,,,,2021-07-30,1,,,,,バンソウコウ,0
1582,6010403025810,新規,0,2021-07-30,2021-07-30,キトア合同会社,,合同会社,東京都,港区,南麻布３丁目２０番１号,,13,103,1060047,,,,,,,2021-07-30,1,,,,,キトア,0
1587,6010501047624,新規,0,2021-07-30,2021-07-30,東京天翔株式会社,,株式会社,東京都,台東区,三筋２丁目２３番４号ピラミッドビル５階,,13,106,1110055,,,,,,,2021-07-30,1,,,,,トウキョウテンショウ,0
1607,6011001141875,新規,0,2021-07-30,2021-07-30,株式会社ｃｏｏｍｓ,,株式会社,東京都,目黒区,上目黒３丁目３３番５号,,13,110,1530051,,,,,,,2021-07-30,1,,,,,クームズ,0
1608,6011001141941,新規,0,2021-07-30,2021-07-30,日本防犯協会株式会社,,株式会社,東京都,渋谷区,宇田川町１６番８号渋谷センタービル３階,,13,113,1500042,,,,,,,2021-07-30,1,,,,,ニホンボウハンキョウカイ,0
1609,6011001141966,新規,0,2021-07-30,2021-07-30,テイラー株式会社,,株式会社,東京都,渋谷区,渋谷２丁目６－１１,,13,113,1500002,,,,,,,2021-07-30,1,,,,,テイラー,0
1614,6011101095848,新規,0,2021-07-30,2021-07-30,株式会社ＦＯＯＯＯ,,株式会社,東京都,新宿区,市谷甲良町２番１７号ＧＲＡＮＰＡＳＥＯ市谷甲良町９０３,,13,104,1620856,,,,,,,2021-07-30,1,,,,,フー,0
1615,6011101095856,新規,0,2021-07-30,2021-07-30,株式会社律佳,,株式会社,東京都,新宿区,若宮町２６番地２５,,13,104,1620827,,,,,,,2021-07-30,1,,,,,リッカ,0
1617,6011203003601,新規,0,2021-07-30,2021-07-30,ＳＧ合同会社,,合同会社,東京都,中野区,弥生町５丁目１２番１１号ガリシア中野１００１号室,,13,114,1640013,,,,,,,2021-07-30,1,,,,,エスジー,0
1624,6011701024586,新規,0,2021-07-30,2021-07-30,株式会社くくる,,株式会社,東京都,江戸川区,東松本２丁目８番７号,,13,123,1330071,,,,,,,2021-07-30,1,,,,,ククル,0
1631,6011801039501,新規,0,2021-07-30,2021-07-30,ＴＳＰリアルエステート株式会社,,株式会社,東京都,足立区,中川４丁目２９番９－２０７号,,13,121,1200002,,,,,,,2021-07-30,1,,,,,ティーエスピーリアルエステート,0
1635,6012403004967,新規,0,2021-07-30,2021-07-30,合同会社ＬＩＧ,,合同会社,東京都,稲城市,長峰３丁目３番地５－１００２,,13,225,2060821,,,,,,,2021-07-30,1,,,,,エルアイジー,0
1636,6012803002554,新規,0,2021-07-30,2021-07-30,Ｉｎｄｅｐｅｎｄ合同会社,,合同会社,東京都,国立市,中１丁目１６番地の８,,13,215,1860004,,,,,,,2021-07-30,1,,,,,インデペンド,0
1643,6020001142354,新規,0,2021-07-30,2021-07-30,株式会社上野住宅設備,,株式会社,神奈川県,横浜市緑区,白山１丁目２０番３－２号,,14,113,2260006,,,,,,,2021-07-30,1,,,,,ウエノジュウタクセツビ,0
1644,6020001142420,新規,0,2021-07-30,2021-07-30,株式会社アルファジニアス,,株式会社,神奈川県,川崎市麻生区,上麻生５丁目３８番７－２１１号東和サープラス柿生,,14,137,2150021,,,,,,,2021-07-30,1,,,,,アルファジニアス,0
1653,6020003020244,新規,0,2021-07-30,2021-07-30,ＳＴＲＡＤＡ合同会社,,合同会社,神奈川県,横浜市中区,本町２丁目１８番,,14,104,2310005,,,,,,,2021-07-30,1,,,,,ストラーダ,0
1659,6030001143566,新規,0,2021-07-30,2021-07-30,株式会社明石事務所,,株式会社,埼玉県,秩父市,相生町１５番２２号,,11,207,3680026,,,,,,,2021-07-30,1,,,,,アカシジムショ,0
1661,6030003017702,新規,0,2021-07-30,2021-07-30,金成合同会社,,合同会社,埼玉県,蕨市,塚越７丁目３番１６号－１０１,,11,223,3350002,,,,,,,2021-07-30,1,,,,,カネナリ,0
1675,6050001049613,新規,0,2021-07-30,2021-07-30,ＯＮＥ　ＨＯＰＥ株式会社,,株式会社,茨城県,常総市,水海道天満町４８０９番地２,,08,211,3030034,,,,,,,2021-07-30,1,,,,,ワンホープ,0
1712,6120001239289,新規,0,2021-07-30,2021-07-30,株式会社ＪＯコーポレーション,,株式会社,大阪府,守口市,八雲東町２丁目７４番１１－２０１号,,27,209,5700021,,,,,,,2021-07-30,1,,,,,ジェイオーコーポレーション,0
1713,6120001239355,新規,0,2021-07-30,2021-07-30,株式会社翔,,株式会社,大阪府,大阪市中央区,島之内１丁目１５番１２号グランドシーズ心斎橋東９０１,,27,128,5420082,,,,,,,2021-07-30,1,,,,,ショウ,0
1714,6120001239438,新規,0,2021-07-30,2021-07-30,株式会社ＲＥＩ,,株式会社,大阪府,大阪市浪速区,大国２丁目５番３号エクラ大国町２０１号,,27,111,5560014,,,,,,,2021-07-30,1,,,,,レイ,0
1715,6120001239446,新規,0,2021-07-30,2021-07-30,株式会社一進サポート,,株式会社,大阪府,枚方市,御殿山町６番１６－１１０３号,,27,210,5731182,,,,,,,2021-07-30,1,,,,,イッシンサポート,0
1719,6120003019904,新規,0,2021-07-30,2021-07-30,香西合同会社,,合同会社,大阪府,大阪市中央区,北久宝寺町４丁目２番１０号,,27,128,5410057,,,,,,,2021-07-30,1,,,,,コウザイ,0
1720,6120003019937,新規,0,2021-07-30,2021-07-30,合同会社ＦＬＥＸ,,合同会社,大阪府,大阪市東成区,中道４丁目４番１２号リビオ玉造１２０２,,27,115,5370025,,,,,,,2021-07-30,1,,,,,フレックス,0
1723,6120101064050,新規,0,2021-07-30,2021-07-30,久造株式会社,,株式会社,大阪府,貝塚市,三ツ松７８２番地１,,27,208,5970105,,,,,,,2021-07-30,1,,,,,キュウゾウ,0
1731,6120901044697,新規,0,2021-07-30,2021-07-30,株式会社Ｋ．Ｒ．Ｍ．,,株式会社,大阪府,吹田市,豊津町３６－２－０３号室,,27,205,5640051,,,,,,,2021-07-30,1,,,,,ケーアールエム,0
1732,6120905006215,新規,0,2021-07-30,2021-07-30,一般社団法人そばくりラボ,,その他の設立登記法人,大阪府,吹田市,藤白台１丁目１番１７－３０１号,,27,205,5650873,,,,,,,2021-07-30,1,,,,,ソバクリラボ,0
1734,6122001035024,新規,0,2021-07-30,2021-07-30,株式会社東大阪ＣｉＰＰｏ事務局,,株式会社,大阪府,東大阪市,西石切町６丁目３番１５号,,27,227,5798013,,,,,,,2021-07-30,1,,,,,ヒガシオオサカシッポジムキョク,0
1735,6122003002146,新規,0,2021-07-30,2021-07-30,合同会社ａｌｉｖｉｏ　ｐｌｕｓ,,合同会社,大阪府,八尾市,曙町４丁目８６番地,00123780,27,212,5810026,,,,,,,2021-07-30,1,,,,,アリビオプラス,0
1751,6140001122492,新規,0,2021-07-30,2021-07-30,株式会社マサキ工業,,株式会社,兵庫県,川西市,清和台西４丁目１番地の２５,,28,217,6660143,,,,,,,2021-07-30,1,,,,,マサキコウギョウ,0
1762,6180001147164,新規,0,2021-07-30,2021-07-30,株式会社マサムラ防災,,株式会社,愛知県,名古屋市中村区,岩塚町字城前３０番地,,23,105,4530862,,,,,,,2021-07-30,1,,,,,マサムラボウサイ,0
1763,6180001147172,新規,0,2021-07-30,2021-07-30,株式会社ＫＥＳＣＯ,,株式会社,愛知県,名古屋市中区,新栄２丁目４番５号,,23,106,4600007,,,,,,,2021-07-30,1,,,,,ケスコ,0
1764,6180001147189,新規,0,2021-07-30,2021-07-30,アナザーフォースコンサルティング株式会社,,株式会社,愛知県,名古屋市南区,呼続元町２７番２９号－５,,23,112,4570011,,,,,,,2021-07-30,1,,,,,アナザーフォースコンサルティング,0
1765,6180001147197,新規,0,2021-07-30,2021-07-30,株式会社フリーデ,,株式会社,愛知県,岩倉市,曽野町居屋敷１２８番地４,,23,228,4820003,,,,,,,2021-07-30,1,,,,,フリーデ,0
1766,6180001147214,新規,0,2021-07-30,2021-07-30,株式会社ＡＩＣＥ,,株式会社,愛知県,名古屋市中村区,名駅南３丁目７番２号,,23,105,4500003,,,,,,,2021-07-30,1,,,,,アイス,0
1771,6180005019384,新規,0,2021-07-30,2021-07-30,一般社団法人ＳＤＧｓヒーローズ,,その他の設立登記法人,愛知県,名古屋市天白区,八事石坂６２２番地,,23,116,4680076,,,,,,,2021-07-30,1,,,,,エスディージーズヒーローズ,0
1774,6180301035201,新規,0,2021-07-30,2021-07-30,株式会社ソゴエール,,株式会社,愛知県,西尾市,市子町白山西６４番地,,23,213,4450055,,,,,,,2021-07-30,1,,,,,,0
1777,6200003005268,新規,0,2021-07-30,2021-07-30,合同会社ペガサス,,合同会社,岐阜県,岐阜市,加納桜田町２丁目５番地２,,21,201,5008468,,,,,,,2021-07-30,1,,,,,,0
1778,6200005013228,新規,0,2021-07-30,2021-07-30,東海企業交流協同組合,,その他の設立登記法人,岐阜県,岐阜市,薮田南１丁目７番地１６,,21,201,5008384,,,,,,,2021-07-30,1,,,,,トウカイキギョウコウリュウ,0
1789,6240001058347,新規,0,2021-07-30,2021-07-30,エムケー興業株式会社,,株式会社,広島県,三原市,久井町山中野１１７５番地１,,34,204,7221416,,,,,,,2021-07-30,1,,,,,エムケーコウギョウ,0
1806,6290001094032,新規,0,2021-07-30,2021-07-30,古賀技建株式会社,,株式会社,福岡県,久留米市,国分町１６４２番地２,,40,203,8390863,,,,,,,2021-07-30,1,,,,,コガギケン,0
1807,6290001094049,新規,0,2021-07-30,2021-07-30,株式会社カオサポート博多,,株式会社,福岡県,福岡市博多区,祇園町８番２３号４Ｆ,,40,132,8120038,,,,,,,2021-07-30,1,,,,,カオサポートハカタ,0
1809,6290003011456,新規,0,2021-07-30,2021-07-30,合同会社ＧＯＯＭＥＬ,,合同会社,福岡県,糸島市,南風台７丁目３番９号,,40,230,8191137,,,,,,,2021-07-30,1,,,,,グーメル,0
1810,6290003011464,新規,0,2021-07-30,2021-07-30,合同会社アートプロジェクト０１,,合同会社,福岡県,福岡市城南区,樋井川４丁目３２番７号,,40,136,8140153,,,,,,,2021-07-30,1,,,,,アートプロジェクトゼロワン,0
1811,6290003011472,新規,0,2021-07-30,2021-07-30,合同会社カスタトコ,,合同会社,福岡県,福岡市早良区,野芥３丁目３０番１１号,,40,137,8140171,,,,,,,2021-07-30,1,,,,,カスタトコ,0
1812,6290801027661,新規,0,2021-07-30,2021-07-30,アルドン株式会社,,株式会社,福岡県,田川郡香春町,大字高野９０９番地５８,,40,601,8221403,,,,,,,2021-07-30,1,,,,,アルドン,0
1813,6290805009458,新規,0,2021-07-30,2021-07-30,社会保険労務士法人いつもここから,,その他の設立登記法人,福岡県,京都郡苅田町,富久町２丁目３５番地８,,40,621,8000352,,,,,,,2021-07-30,1,,,,,イツモココカラ,0
1827,6340001023968,新規,0,2021-07-30,2021-07-30,Ｈ＆ＷＯＲＫＥＲＳ株式会社,,株式会社,鹿児島県,日置市,伊集院町下谷口２１２９番地５,,46,216,8992501,,,,,,,2021-07-30,1,,,,,エイチアンドワーカーズ,0
1830,6350001017226,新規,0,2021-07-30,2021-07-30,株式会社Ｅｎｔｉｍｅ,,株式会社,宮崎県,宮崎市,大字跡江１３５８番地１１,,45,201,8802101,,,,,,,2021-07-30,1,,,,,エンタイム,0
1833,6360001029138,新規,0,2021-07-30,2021-07-30,株式会社Ｇｒａｔｉｔｕｄｅ,,株式会社,沖縄県,那覇市,久茂地３－９－９九番地ビル５Ｆ,,47,201,9000000,,,,,,,2021-07-30,1,,,,,,0
1834,6360001029154,新規,0,2021-07-30,2021-07-30,株式会社オフィス・城間,,株式会社,沖縄県,那覇市,字仲井真３番地,,47,201,9020074,,,,,,,2021-07-30,1,,,,,オフィスシロマ,0
1868,6700150104219,新規,0,2021-07-30,2021-07-30,ＭＩＺＵＮＯ　ＥＮＴＥＲＰＲＩＳＥＳ,,外国会社等,千葉県,八街市,八街へ２１５番地４３３－Ａ,,12,230,2891113,スリランカ民主社会主義共和国、バトゥゴダ、カサワッタ、４３７－１,,,,,,2021-07-30,1,,,,,ミズノエンタープライズ,0
1869,6700150104227,新規,0,2021-07-30,2021-07-30,Ｍ．Ｎ．Ｍ　ＥＮＴＥＲＰＲＩＳＥＳ,,外国会社等,千葉県,佐倉市,大篠塚１３２０番地１,,12,212,2850806,スリランカ民主社会主義共和国、ピリマタラワ、イルクワタ、１４－Ｂ,,,,,,2021-07-30,1,,,,,エムエヌエムエンタープライズ,0
1880,7010003035432,新規,0,2021-07-30,2021-07-30,合同会社どこどこＧＰＳ,,合同会社,東京都,文京区,小石川３丁目２７番１６－５０３号,,13,105,1120002,,,,,,,2021-07-30,1,,,,,ドコドコジーピーエス,0
1881,7010003035449,新規,0,2021-07-30,2021-07-30,合同会社ＭＭＧＬＵＣＫ,,合同会社,東京都,中央区,銀座１丁目２２番１１号・銀座大竹ビジデンス２階,,13,102,1040061,,,,,,,2021-07-30,1,,,,,エムエムジーラック,0
1893,7010401161747,新規,0,2021-07-30,2021-07-30,Ｓｈｉｒｕｂａ　Ｔａｉｇａ株式会社,,株式会社,東京都,港区,元麻布３丁目１番６号,,13,103,1060046,,,,,,,2021-07-30,1,,,,,シルバタイガ,0
1894,7010401161771,新規,0,2021-07-30,2021-07-30,株式会社ＡＴ　ＣＯＭＭＵＮＩＣＡＴＩＯＮＳ,,株式会社,東京都,港区,海岸１丁目２番３号汐留芝離宮ビルディング２１階,,13,103,1050022,,,,,,,2021-07-30,1,,,,,エーティーコミュニケーションズ,0
1895,7010401161788,新規,0,2021-07-30,2021-07-30,ＫＭＡＩｎｎｏｖａｔｉｏｎ,,株式会社,東京都,港区,南青山１丁目３番１－３５０６号,,13,103,1070062,,,,,,,2021-07-30,1,,,,,ケーエムエーイノベーション,0
1897,7010501047623,新規,0,2021-07-30,2021-07-30,株式会社ＴＨＥ　ＤＡＹ＆ＬＩＦＥｓ,,株式会社,東京都,台東区,花川戸１丁目１３－３,,13,106,1110033,,,,,,,2021-07-30,1,,,,,ザデイアンドライフズ,0
1898,7010503006338,新規,0,2021-07-30,2021-07-30,合同会社ＥＮＯ,,合同会社,東京都,台東区,浅草橋５丁目６番１号シエリア秋葉原１２０４,,13,106,1110053,,,,,,,2021-07-30,1,,,,,イーエヌオー,0
1900,7010601059717,新規,0,2021-07-30,2021-07-30,株式会社ＬＢ．Ｃ,,株式会社,東京都,江東区,東陽５丁目２５番５号,,13,108,1350016,,,,,,,2021-07-30,1,,,,,エルビーシー,0
1906,7010803003836,新規,0,2021-07-30,2021-07-30,バイオマストレード合同会社,,合同会社,東京都,大田区,千鳥１丁目２３番１号,,13,111,1460083,,,,,,,2021-07-30,1,,,,,バイオマストレード,0
1914,7011001141940,新規,0,2021-07-30,2021-07-30,株式会社デジタルキャンプ,,株式会社,東京都,渋谷区,神宮前６丁目２３番４号桑野ビル２階,,13,113,1500001,,,,,,,2021-07-30,1,,,,,デジタルキャンプ,0
1915,7011001141998,新規,0,2021-07-30,2021-07-30,株式会社ＩＳＭ,,株式会社,東京都,渋谷区,東３丁目１６－１ベルザ恵比寿２階,,13,113,1500011,,,,,,,2021-07-30,1,,,,,イズム,0
1916,7011001142006,新規,0,2021-07-30,2021-07-30,株式会社Ａｒｅ　Ｙｏｕ　Ｍｅ,,株式会社,東京都,目黒区,上目黒１丁目２番９－４０１号,,13,110,1530051,,,,,,,2021-07-30,1,,,,,アーユーミー,0
1917,7011001142039,新規,0,2021-07-30,2021-07-30,株式会社ＳＨＯＧＵＮ,,株式会社,東京都,渋谷区,広尾５丁目４番１６号ＧＥＭＳ広尾３階,,13,113,1500012,,,,,,,2021-07-30,1,,,,,ショウグン,0
1918,7011001142096,新規,0,2021-07-30,2021-07-30,株式会社譚仔日本,,株式会社,東京都,渋谷区,道玄坂１丁目２１番１号,,13,113,1500043,,,,,,,2021-07-30,1,,,,,タムジャイニッポン,0
1924,7011101095855,新規,0,2021-07-30,2021-07-30,株式会社新宿プロパティーズ,,株式会社,東京都,新宿区,歌舞伎町１丁目１番１５号東信同和ビル８０３号室,,13,104,1600021,,,,,,,2021-07-30,1,,,,,シンジュクプロパティーズ,0
1930,7011303004110,新規,0,2021-07-30,2021-07-30,ＡＭＩｃａ合同会社,,合同会社,東京都,杉並区,荻窪１丁目１－１６,,13,115,1670051,,,,,,,2021-07-30,1,,,,,アミカ,0
1940,7011801039509,新規,0,2021-07-30,2021-07-30,ＴＧＺ株式会社,,株式会社,東京都,足立区,東伊興３丁目４番１４－３０５号,,13,121,1210801,,,,,,,2021-07-30,1,,,,,ティージーゼット,0
1960,7020001142394,新規,0,2021-07-30,2021-07-30,エリアモ株式会社,,株式会社,神奈川県,川崎市川崎区,日進町１６番地４オリーブスクエア３０５,,14,131,2100024,,,,,,,2021-07-30,1,,,,,エリアモ,0
1975,7030001143565,新規,0,2021-07-30,2021-07-30,株式会社ｉｔｔｏ,,株式会社,埼玉県,越谷市,七左町７丁目１７６番地１,,11,222,3430851,,,,,,,2021-07-30,1,,,,,イット,0
1978,7030003017701,新規,0,2021-07-30,2021-07-30,ＬＩＦＥ－ｔｅｒｉｏｒｓ合同会社,,合同会社,埼玉県,鶴ヶ島市,大字五味ヶ谷１０９番地１―２０２号,,11,241,3502202,,,,,,,2021-07-30,1,,,,,ライフテリア,0
1984,7040001119564,新規,0,2021-07-30,2021-07-30,ＳＫＹＵＮＩＯＮ株式会社,,株式会社,千葉県,柏市,若柴１番地５４３,,12,217,2770871,,,,,,,2021-07-30,1,,,,,スカイユニオン,0
1985,7040001119580,新規,0,2021-07-30,2021-07-30,株式会社ＴＡＲＯＰ,,株式会社,千葉県,流山市,おおたかの森西１丁目３番地の２,,12,220,2700128,,,,,,,2021-07-30,1,,,,,タロップ,0
2035,7120001239370,新規,0,2021-07-30,2021-07-30,達磨テック株式会社,,株式会社,大阪府,大阪市西成区,太子１丁目１３番２８号,,27,122,5570002,,,,,,,2021-07-30,1,,,,,ダルマテック,0
2036,7120001239429,新規,0,2021-07-30,2021-07-30,株式会社はやぶさ建設,,株式会社,大阪府,寝屋川市,石津南町１３番５５－４０５号,,27,215,5720024,,,,,,,2021-07-30,1,,,,,ハヤブサケンセツ,0
2037,7120001239437,新規,0,2021-07-30,2021-07-30,ＲＡＭＰＡＧＥ　ＨＯＲＳＥ株式会社,,株式会社,大阪府,大阪市浪速区,塩草１丁目２番９号エグゼ難波西Ⅱ６０３号,00123788,27,111,5560024,,,,,,,2021-07-30,1,,,,,ランページホース,0
2038,7120001239461,新規,0,2021-07-30,2021-07-30,株式会社ＢｌａｃｋＬｏｔｕｓ,,株式会社,大阪府,大阪市中央区,備後町１丁目６番１号甲賀ビル４Ｆ,,27,128,5410051,,,,,,,2021-07-30,1,,,,,ブラックロータス,0
2047,7120101064058,新規,0,2021-07-30,2021-07-30,株式会社ｊｏｈｎ　ｌｉｆｅ,,株式会社,大阪府,富田林市,甲田４丁目１０番５号,,27,214,5840036,,,,,,,2021-07-30,1,,,,,ジョンライフ,0
2049,7120901044696,新規,0,2021-07-30,2021-07-30,株式会社Ｗ’ＷＯＲＫＳ,,株式会社,大阪府,茨木市,沢良宜東町１３番９号,,27,211,5670863,,,,,,,2021-07-30,1,,,,,ダブルワークス,0
2054,7122001035031,新規,0,2021-07-30,2021-07-30,嘉翔光年株式会社,,株式会社,大阪府,大東市,三箇５丁目４番８４号,,27,218,5740077,,,,,,,2021-07-30,1,,,,,カショウコウネン,0
2069,7140001122483,新規,0,2021-07-30,2021-07-30,ベルッシモｊａｐａｎ株式会社,,株式会社,兵庫県,神戸市東灘区,西岡本７丁目１７番１－８０９号,,28,101,6580073,,,,,,,2021-07-30,1,,,,,ベルッシモジャパン,0
2071,7140003016551,新規,0,2021-07-30,2021-07-30,合同会社スローバラード,,合同会社,兵庫県,尼崎市,武庫之荘２丁目２６番１５号,,28,202,6610035,,,,,,,2021-07-30,1,,,,,スローバラード,0
2072,7140003016576,新規,0,2021-07-30,2021-07-30,合同会社シーナラプロス,,合同会社,兵庫県,神戸市中央区,宮本通６丁目１番２８号,,28,110,6510063,,,,,,,2021-07-30,1,,,,,シーナラプロス,0
2094,7180001147122,新規,0,2021-07-30,2021-07-30,株式会社ロイヤリティサービス,,株式会社,愛知県,名古屋市中区,丸の内２丁目１９番２５号ＭＳ桜通ビル２階Ｄ,,23,106,4600002,,,,,,,2021-07-30,1,,,,,ロイヤリティサービス,0
2095,7180001147139,新規,0,2021-07-30,2021-07-30,株式会社ＲＥＩＴＯ　ＫＯＧＹＯ,,株式会社,愛知県,一宮市,大和町戸塚字町長７６番地１,,23,203,4910927,,,,,,,2021-07-30,1,,,,,レイトコーギョー,0
2096,7180001147147,新規,0,2021-07-30,2021-07-30,株式会社ＧＭＦ,,株式会社,愛知県,名古屋市南区,三吉町２丁目３８番地,,23,112,4570805,,,,,,,2021-07-30,1,,,,,ジーエムエフ,0
2097,7180001147155,新規,0,2021-07-30,2021-07-30,株式会社ダイショウマシナリー,,株式会社,愛知県,名古屋市熱田区,一番２丁目４６番２１号,,23,109,4560053,,,,,,,2021-07-30,1,,,,,ダイショウマシナリー,0
2098,7180001147163,新規,0,2021-07-30,2021-07-30,株式会社ツカサクリエイト,,株式会社,愛知県,名古屋市西区,中小田井２丁目２３６番地の５,,23,104,4520822,,,,,,,2021-07-30,1,,,,,ツカサクリエイト,0
2125,7290001093909,新規,0,2021-07-30,2021-07-30,ＪｉｃｈｉＮａｖｉ株式会社,,株式会社,福岡県,福岡市城南区,片江４丁目７番１２号,,40,136,8140142,,,,,,,2021-07-30,1,,,,,ジチナビ,0
2126,7290001094056,新規,0,2021-07-30,2021-07-30,Ｔ－ＮＥＴ株式会社,,株式会社,福岡県,福岡市中央区,今川２丁目１１番１４号大濠ルッソヴィータＳ－４号,,40,133,8100054,,,,,,,2021-07-30,1,,,,,ティーネット,0
2131,7290005018300,新規,0,2021-07-30,2021-07-30,一般社団法人海洋産業開拓研究会,,その他の設立登記法人,福岡県,糸島市,多久８１９番地１４,,40,230,8191134,,,,,,,2021-07-30,1,,,,,カイヨウサンギョウカイタクケンキュウカイ,0
2136,7320001018515,新規,0,2021-07-30,2021-07-30,株式会社Ｈ．Ｅ．Ｆ,,株式会社,大分県,別府市,餅ケ浜町８番２６号ロフティ餅ヶ浜シーサイド９０５号,,44,202,8740924,,,,,,,2021-07-30,1,,,,,エイチイーエフ,0
2140,7330001028843,新規,0,2021-07-30,2021-07-30,４３２株式会社,,株式会社,熊本県,八代市,通町７番２２号,,43,202,8660856,,,,,,,2021-07-30,1,,,,,シミズ,0
2145,7340001023967,新規,0,2021-07-30,2021-07-30,株式会社瓦屋たにむら,,株式会社,鹿児島県,鹿児島市,三和町４６番２２号,,46,201,8900071,,,,,,,2021-07-30,1,,,,,カワラヤタニムラ,0
2148,7350001017225,新規,0,2021-07-30,2021-07-30,株式会社福丸,,株式会社,宮崎県,日向市,大字日知屋３３８９番地４８,,45,206,8830062,,,,,,,2021-07-30,1,,,,,フクマル,0
2150,7360001029153,新規,0,2021-07-30,2021-07-30,株式会社元気不動産,,株式会社,沖縄県,中頭郡読谷村,字長浜１１１３番地５,,47,324,9040324,,,,,,,2021-07-30,1,,,,,ゲンキフドウサン,0
2151,7360001029161,新規,0,2021-07-30,2021-07-30,株式会社Ｓｈｉｙｏｕｋａ,,株式会社,沖縄県,宜野湾市,志真志２丁目２１番１３号曙荘Ⅰ１Ｆ,00123781,47,205,9012213,,,,,,,2021-07-30,1,,,,,,0
2152,7360005006479,新規,0,2021-07-30,2021-07-30,一般社団法人みんなのももやま子ども食堂,,その他の設立登記法人,沖縄県,沖縄市,上地３丁目２０番１２号,,47,211,9040031,,,,,,,2021-07-30,1,,,,,ミンナノモモヤマコドモショクドウ,0
2154,7370001047385,新規,0,2021-07-30,2021-07-30,株式会社Ｓｕｃｃｅｓｓ　Ｓｅｅｄ,,株式会社,宮城県,仙台市泉区,泉中央１丁目４２番地の５,,04,105,9813133,,,,,,,2021-07-30,1,,,,,サクセスシード,0
2165,7400005008173,新規,0,2021-07-30,2021-07-30,農事組合法人南都田イレブン,,その他の設立登記法人,岩手県,奥州市,胆沢南都田字滑志田１５９番地３,,03,215,0230401,,,,,,,2021-07-30,1,,,,,ナツタイレブン,0
2177,7500001023587,新規,0,2021-07-30,2021-07-30,株式会社システムプロジェクト,,株式会社,愛媛県,今治市,八町西４丁目４番１９号,,38,202,7940832,,,,,,,2021-07-30,1,,,,,システムプロジェクト,0
2178,7700150104226,新規,0,2021-07-30,2021-07-30,ＮＯＯＲ　ＣＡＲ　ＥＮＴＥＲＰＲＩＳＥＳ,,外国会社等,千葉県,八街市,榎戸４０７番地１４４－Ｂ,,12,230,2891106,スリランカ民主社会主義共和国、ピリマタラワ、キリワウラ、２４,,,,,,2021-07-30,1,,,,,ヌールカーエンタープライズ,0
2189,8010001220027,新規,0,2021-07-30,2021-07-30,株式会社トライベイ,,株式会社,東京都,千代田区,永田町２丁目１０番１号,,13,101,1000014,,,,,,,2021-07-30,1,,,,,トライベイ,0
2190,8010001220043,新規,0,2021-07-30,2021-07-30,株式会社ｖｉｖｉａｎｄｋｉｋｉ,,株式会社,東京都,千代田区,神田錦町２丁目５－６０４,,13,101,1010054,,,,,,,2021-07-30,1,,,,,ビビアンドキキ,0
2191,8010001220076,新規,0,2021-07-30,2021-07-30,株式会社共進,,株式会社,東京都,中央区,築地４丁目１０－５カネシン水産ビル２階,,13,102,1040045,,,,,,,2021-07-30,1,,,,,キョウシン,0
2193,8010003035365,新規,0,2021-07-30,2021-07-30,合同会社ＢＬＵＥＰＲＩＮＴ,,合同会社,東京都,千代田区,神田錦町３丁目７番地２東京堂錦町ビルディング５Ｆ,,13,101,1010054,,,,,,,2021-07-30,1,,,,,ブループリント,0
2194,8010003035448,新規,0,2021-07-30,2021-07-30,ＢＴＢＷ合同会社,,合同会社,東京都,中央区,銀座１丁目２２番１１号銀座大竹ビジデンス２階,,13,102,1040061,,,,,,,2021-07-30,1,,,,,ビーティービーダブリュ,0
2197,8010005033697,新規,0,2021-07-30,2021-07-30,一般社団法人ＧＷ,,その他の設立登記法人,東京都,千代田区,一ツ橋２丁目６番３号アクシスインベストメントアドバイザーズ株式会社内,,13,101,1010003,,,,,,,2021-07-30,1,,,,,ジーダブリュー,0
2204,8010401161770,新規,0,2021-07-30,2021-07-30,ＬＳ－ＳＨＩＰ第１７号株式会社,,株式会社,東京都,港区,六本木１丁目６番１号,,13,103,1060032,,,,,,,2021-07-30,1,,,,,エルエスシップダイジュウナナゴウ,0
2205,8010401161779,新規,0,2021-07-30,2021-07-30,株式会社Ｒ,,株式会社,東京都,港区,南青山２丁目２番１５号,,13,103,1070062,,,,,,,2021-07-30,1,,,,,アール,0
2208,8010501047622,新規,0,2021-07-30,2021-07-30,株式会社アクトプラン,,株式会社,東京都,台東区,東上野４丁目１８－２－３０１,,13,106,1100015,,,,,,,2021-07-30,1,,,,,アクトプラン,0
2224,8011001141923,新規,0,2021-07-30,2021-07-30,株式会社ＭＡＧＩＣ,,株式会社,東京都,目黒区,青葉台３丁目２１番１２号リズムハイブ中目黒８０２,,13,110,1530042,,,,,,,2021-07-30,1,,,,,マジック,0
2225,8011001142005,新規,0,2021-07-30,2021-07-30,株式会社ＲＣ,,株式会社,東京都,渋谷区,渋谷１丁目２４番７号渋谷宮下パークビル４０４,,13,113,1500002,,,,,,,2021-07-30,1,,,,,アールシー,0
2226,8011001142013,新規,0,2021-07-30,2021-07-30,ＥＳＯＲＡ株式会社,,株式会社,東京都,目黒区,中目黒１丁目４番６号,,13,110,1530061,,,,,,,2021-07-30,1,,,,,エソラ,0
2227,8011003013138,新規,0,2021-07-30,2021-07-30,合同会社ＺＩＵ,,合同会社,東京都,渋谷区,神宮前６丁目２３－４桑野ビル２Ｆ,,13,113,1500001,,,,,,,2021-07-30,1,,,,,ジユウ,0
2241,8011801039508,新規,0,2021-07-30,2021-07-30,株式会社ダイシン,,株式会社,東京都,足立区,東和３丁目１６番１１号,,13,121,1200003,,,,,,,2021-07-30,1,,,,,ダイシン,0
2242,8011803004724,新規,0,2021-07-30,2021-07-30,エグゼクティブ物販合同会社,,合同会社,東京都,足立区,千住寿町３９－１４－５０５,,13,121,1200033,,,,,,,2021-07-30,1,,,,,エグゼクティブブッパン,0
2247,8012801020977,新規,0,2021-07-30,2021-07-30,株式会社トレス,,株式会社,東京都,昭島市,東町１丁目４番１９号西立川ＴＩＫビル２０６号,,13,207,1960033,,,,,,,2021-07-30,1,,,,,トレス,0
2248,8012803002552,新規,0,2021-07-30,2021-07-30,合同会社しざかい相談室,,合同会社,東京都,立川市,富士見町１丁目２７番２号,,13,202,1900013,,,,,,,2021-07-30,1,,,,,シザカイソウダンシツ,0
2254,8020001142352,新規,0,2021-07-30,2021-07-30,株式会社Ｈａｎｄｓ　Ｐｌｕｓ,,株式会社,神奈川県,横浜市鶴見区,北寺尾１丁目４番１２号,,14,101,2300074,,,,,,,2021-07-30,1,,,,,ハンズプラス,0
2255,8020001142393,新規,0,2021-07-30,2021-07-30,ＧＥＮＴＥＮ株式会社,,株式会社,神奈川県,横浜市青葉区,荏田西１丁目１２番地１７クレッセント市が尾ヒルサイドコート２０３号,,14,117,2250014,,,,,,,2021-07-30,1,,,,,ゲンテン,0
2256,8020001142427,新規,0,2021-07-30,2021-07-30,株式会社リムノテック,,株式会社,神奈川県,川崎市川崎区,渡田東町８番１号,,14,131,2100842,,,,,,,2021-07-30,1,,,,,リムノテック,0
2272,8030003017700,新規,0,2021-07-30,2021-07-30,合同会社まる,,合同会社,埼玉県,本庄市,駅南１丁目８－３７サニーハイツ１０３,,11,211,3670041,,,,,,,2021-07-30,1,,,,,マル,0
2277,8040001119571,新規,0,2021-07-30,2021-07-30,株式会社ＬＳＣジャパン,,株式会社,千葉県,船橋市,夏見５丁目１９－１３,,12,204,2730865,,,,,,,2021-07-30,1,,,,,エルエスシージャパン,0
2291,8060001033944,新規,0,2021-07-30,2021-07-30,株式会社ＦＡＲＭ１７３９,,株式会社,栃木県,那須郡那須町,大字寺子乙１５９３,,09,407,3293215,,,,,,,2021-07-30,1,,,,,ファームイナサク,0
2318,8120001239213,新規,0,2021-07-30,2021-07-30,株式会社プラスナイン,,株式会社,大阪府,大阪市北区,神山町９－５,,27,127,5300026,,,,,,,2021-07-30,1,,,,,プラスナイン,0
2319,8120001239312,新規,0,2021-07-30,2021-07-30,株式会社テクノスフィア,,株式会社,大阪府,大阪市西区,京町堀１丁目３番１３号辰巳ビル５階,,27,106,5500003,,,,,,,2021-07-30,1,,,,,テクノスフィア,0
2320,8120001239329,新規,0,2021-07-30,2021-07-30,株式会社ＦＡＭＯＲＥ,,株式会社,大阪府,大阪市北区,東天満２丁目８番１号若杉センタービル別館７階７０３号室,,27,127,5300044,,,,,,,2021-07-30,1,,,,,ファモア,0
2321,8120001239361,新規,0,2021-07-30,2021-07-30,株式会社ＳＨＩ－ＭＩＺＵ,,株式会社,大阪府,大阪市中央区,本町４丁目５番１６号本町スクウェアビルⅡ３階,00123786,27,128,5410053,,,,,,,2021-07-30,1,,,,,シーミズ,0
2322,8120001239428,新規,0,2021-07-30,2021-07-30,株式会社ｂｒｉｇｈｔ,,株式会社,大阪府,大阪市中央区,北久宝寺町３丁目６番１号本町南ガーデンシティ７階,,27,128,5410057,,,,,,,2021-07-30,1,,,,,ブライト,0
2326,8120101064057,新規,0,2021-07-30,2021-07-30,株式会社ハッシュタぐ,,株式会社,大阪府,泉南郡熊取町,小垣内１丁目１２番４１号,,27,361,5900432,,,,,,,2021-07-30,1,,,,,ハッシュタグ,0
2329,8122001035030,新規,0,2021-07-30,2021-07-30,株式会社Ｐｌｕｓ　Ｏｎｅ,,株式会社,大阪府,東大阪市,弥生町６番４号サクラシャイン３０１号,,27,227,5798026,,,,,,,2021-07-30,1,,,,,プラスワン,0
2334,8140001122458,新規,0,2021-07-30,2021-07-30,共栄エクスプレス株式会社,,株式会社,兵庫県,高砂市,春日野町６番１７号,,28,216,6760814,,,,,,,2021-07-30,1,,,,,キョウエイエクスプレス,0
2335,8140001122499,新規,0,2021-07-30,2021-07-30,株式会社Ｕｎｗｉｎｄ,,株式会社,兵庫県,神戸市中央区,磯上通４丁目１－１４,,28,110,6510086,,,,,,,2021-07-30,1,,,,,アンワインド,0
2339,8140003016567,新規,0,2021-07-30,2021-07-30,合同会社ＳＫＧ,,合同会社,兵庫県,三木市,別所町高木９４９番地の３４５,,28,215,6730435,,,,,,,2021-07-30,1,,,,,エスケージー,0
2341,8150001024827,新規,0,2021-07-30,2021-07-30,株式会社ＡＤＬＥＲ,,株式会社,奈良県,磯城郡三宅町,大字但馬３９１番地の３,,29,362,6360214,,,,,,,2021-07-30,1,,,,,アドラー,0
2346,8180001147138,新規,0,2021-07-30,2021-07-30,株式会社ミューズワークショップ,,株式会社,愛知県,名古屋市東区,矢田東一丁目２１番地,,23,102,4610044,,,,,,,2021-07-30,1,,,,,ミューズワークショップ,0
2347,8180001147146,新規,0,2021-07-30,2021-07-30,株式会社サンセール,,株式会社,愛知県,一宮市,大江１丁目１２番１５－２０２号,,23,203,4910851,,,,,,,2021-07-30,1,,,,,サンセール,0
2348,8180001147154,新規,0,2021-07-30,2021-07-30,サンコウテクノ株式会社,,株式会社,愛知県,東海市,名和町平松５番地の１９,,23,222,4760002,,,,,,,2021-07-30,1,,,,,サンコウテクノ,0
2349,8180001147162,新規,0,2021-07-30,2021-07-30,株式会社片川建設,,株式会社,愛知県,知多市,新知東町２丁目１２番地の１,,23,224,4780065,,,,,,,2021-07-30,1,,,,,カタガワケンセツ,0
2350,8180001147170,新規,0,2021-07-30,2021-07-30,株式会社オフィスｍ,,株式会社,愛知県,名古屋市中区,金山５丁目１１番６号名古屋ＮＳＣビル２階Ｆ号室,,23,106,4600022,,,,,,,2021-07-30,1,,,,,オフィスエム,0
2351,8180003022792,新規,0,2021-07-30,2021-07-30,ａｒｔ　Ｈ　ｃｒａｆｔ合同会社,,合同会社,愛知県,名古屋市瑞穂区,萩山町３丁目４３番地の９,,23,108,4670011,,,,,,,2021-07-30,1,,,,,アートエイチクラフト,0
2359,8200003005266,新規,0,2021-07-30,2021-07-30,合同会社サンライト,,合同会社,岐阜県,岐阜市,則武中１丁目１５番４号,,21,201,5020932,,,,,,,2021-07-30,1,,,,,,0
2373,8260001035796,新規,0,2021-07-30,2021-07-30,株式会社なごみ,,株式会社,岡山県,岡山市北区,内山下１丁目３番３号プランドール内山下３０１,,33,101,7000824,,,,,,,2021-07-30,1,,,,,ナゴミ,0
2375,8290001094047,新規,0,2021-07-30,2021-07-30,株式会社ｅｓｔ　ｐｌｕｓ１７,,株式会社,福岡県,福津市,日蒔野６丁目３２番地の１,,40,224,8113209,,,,,,,2021-07-30,1,,,,,エストプラスエイト,0
2376,8290001094055,新規,0,2021-07-30,2021-07-30,株式会社オットグランデ,,株式会社,福岡県,福岡市東区,多の津２丁目９－１,,40,131,8130034,,,,,,,2021-07-30,1,,,,,オットグランデ,0
2380,8290003011470,新規,0,2021-07-30,2021-07-30,合同会社ＥＸＡＢＲＡ　ＪＡＰＡＮ,,合同会社,福岡県,福岡市中央区,天神３丁目４番１０号５Ｆ,,40,133,8100001,,,,,,,2021-07-30,1,,,,,エクサブラジャパン,0
2383,8290801027635,新規,0,2021-07-30,2021-07-30,ビジョングループ株式会社,,株式会社,福岡県,北九州市八幡西区,中の原１丁目３番２３号,,40,109,8070078,,,,,,,2021-07-30,1,,,,,ビジョングループ,0
2386,8310003004125,新規,0,2021-07-30,2021-07-30,合同会社サロンＭｉｙａ,,合同会社,長崎県,長崎市,新地町１２番１０号ラハイナビル５０３,,42,201,8500842,,,,,,,2021-07-30,1,,,,,サロンミヤ,0
2390,8330001028842,新規,0,2021-07-30,2021-07-30,株式会社ガーデンスタイル,,株式会社,熊本県,熊本市東区,上南部４丁目３番３４号,,43,102,8618010,,,,,,,2021-07-30,1,,,,,ガーデンスタイル,0
2395,8350003003899,新規,0,2021-07-30,2021-07-30,ＢＩＧ　ＳＴＲＡＩＧＨＴ　ＤＮ合同会社,,合同会社,宮崎県,宮崎市,老松２丁目２番４０号ＭＪＲザ・ガーデン宮崎駅前２０４号,,45,201,8800801,,,,,,,2021-07-30,1,,,,,ビッグストレイトディエヌ,0
2397,8360003011331,新規,0,2021-07-30,2021-07-30,あいせる合同会社,,合同会社,沖縄県,宮古島市,平良字西里２６３,,47,214,9060012,,,,,,,2021-07-30,1,,,,,アイセル,0
2398,8370001047376,新規,0,2021-07-30,2021-07-30,株式会社マネーラボラトリー仙台,,株式会社,宮城県,仙台市宮城野区,苦竹３丁目１番６号,,04,102,9830036,,,,,,,2021-07-30,1,,,,,マネーラボラトリーセンダイ,0
2399,8370003005324,新規,0,2021-07-30,2021-07-30,合同会社ＡｏｚｏｒａＷｏｒｋｓ,,合同会社,宮城県,仙台市若林区,土樋１１番地の１ユミハウス土樋３０１,,04,103,9840065,,,,,,,2021-07-30,1,,,,,アオゾラワークス,0
2416,8430001084611,新規,0,2021-07-30,2021-07-30,株式会社小池企画,,株式会社,北海道,滝川市,二の坂町西４丁目１０５番地９,,01,225,0730006,,,,,,,2021-07-30,1,,,,,コイケキカク,0
2419,8430003012974,新規,0,2021-07-30,2021-07-30,合同会社結,,合同会社,北海道,札幌市北区,南あいの里６丁目３番６号,,01,102,0028091,,,,,,,2021-07-30,1,,,,,ユイ,0
2421,8440001008932,新規,0,2021-07-30,2021-07-30,株式会社ミナミ工業,,株式会社,北海道,亀田郡七飯町,字上藤城１６４番地１５,,01,337,0411104,,,,,,,2021-07-30,1,,,,,,0
2433,8700150104217,新規,0,2021-07-30,2021-07-30,ＵＺＡＭＡ　ＥＮＴＥＲＰＲＩＳＥＳ,,外国会社等,千葉県,佐倉市,大篠塚１３５０番地１－Ｂ号,,12,212,2850806,スリランカ民主社会主義共和国、クルネガラ、ダンブッラロード、１９５－２,,,,,,2021-07-30,1,,,,,ウザマエンタープライズ,0
2434,8700150104225,新規,0,2021-07-30,2021-07-30,ＲＵＨＵＮＵ　ＣＡＲ　ＳＡＬＥ,,外国会社等,千葉県,八街市,榎戸４０７番地１４４－Ｃ,,12,230,2891106,スリランカ民主社会主義共和国、ラナラ、ジャルタラ、ガーデン、シャンシレ、２４１－２９,,,,,,2021-07-30,1,,,,,ルフヌカーセール,0
2435,8700150104233,新規,0,2021-07-30,2021-07-30,ＭＣＣ　Ｉｎｄｕｓｔｒｙ　ＣＯＭＰＡＮＹ　ＬＩＭＩＴＥＤ,,外国会社等,東京都,港区,港南２丁目１５番３号品川インターシティＣ棟１６階,,13,103,1080075,中華人民共和国香港特別行政区、九龍、チムサーチョイ、広東通り３０号、シルバーコード、タワー２、６階、６０５号,,,,,,2021-07-30,1,,,,,エムシーシーインダストリーカンパニーリミテツド,0
2439,9010001220018,新規,0,2021-07-30,2021-07-30,株式会社ココ,,株式会社,東京都,千代田区,神田佐久間町３丁目３４番地１ヒロコートアキハバラ８０１,,13,101,1010025,,,,,,,2021-07-30,1,,,,,ココ,0
2444,9010105002122,新規,0,2021-07-30,2021-07-30,東京総合設備協同組合,,その他の設立登記法人,東京都,八王子市,楢原町５４２番地１,,13,201,1930803,,,,,,,2021-07-30,1,,,,,,0
2453,9010401161737,新規,0,2021-07-30,2021-07-30,Ｘａｃｔｌｙ株式会社,,株式会社,東京都,港区,赤坂９丁目７番１号ミッドタウンタワー１８階,,13,103,1070052,,,,,,,2021-07-30,1,,,,,エグザクトリー,0
2454,9010405020022,新規,0,2021-07-30,2021-07-30,一般社団法人全日本法務・公正取引協会,,その他の設立登記法人,東京都,港区,六本木６丁目２番３１号六本木ヒルズノースタワー１６階,,13,103,1060032,,,,,,,2021-07-30,1,,,,,ゼンニホンホウムコウセイトリヒキキョウカイ,0
2461,9010601059707,新規,0,2021-07-30,2021-07-30,クラヴァンス株式会社,,株式会社,東京都,江東区,青海２丁目７番４号,,13,108,1350064,,,,,,,2021-07-30,1,,,,,クラヴァンス,0
2462,9010601059715,新規,0,2021-07-30,2021-07-30,株式会社Ａｈｅａｄ．ｍ,,株式会社,東京都,江東区,新砂１丁目６番３５号Ｎビル東陽町６Ｆ,,13,108,1360075,,,,,,,2021-07-30,1,,,,,アヘッドエム,0
2466,9010701041333,新規,0,2021-07-30,2021-07-30,株式会社ｇｒｏｗｍｅ,,株式会社,東京都,品川区,上大崎３丁目１０番４１号,,13,109,1410021,,,,,,,2021-07-30,1,,,,,グローム,0
2468,9010801032182,新規,0,2021-07-30,2021-07-30,兆銓建設開発株式会社,,株式会社,東京都,大田区,南馬込５丁目８番１０号,,13,111,1430025,,,,,,,2021-07-30,1,,,,,タオチンケンセツカイハツ,0
2475,9011001141939,新規,0,2021-07-30,2021-07-30,株式会社ｃｏｒｅｍｉｔｅ,,株式会社,東京都,渋谷区,千駄ヶ谷１丁目５番７号,,13,113,1510051,,,,,,,2021-07-30,1,,,,,コレミテ,0
2476,9011001142004,新規,0,2021-07-30,2021-07-30,株式会社アントレース,,株式会社,東京都,渋谷区,神宮前６丁目３３番１４号神宮ハイツ４０５,,13,113,1500001,,,,,,,2021-07-30,1,,,,,アントレース,0
2477,9011001142020,新規,0,2021-07-30,2021-07-30,株式会社ｑｕｏｎ,,株式会社,東京都,渋谷区,神宮前４丁目５番１２号セピア原宿Ｂ１Ｆ,,13,113,1500001,,,,,,,2021-07-30,1,,,,,クオン,0
2478,9011003013070,新規,0,2021-07-30,2021-07-30,ＲＡＹＭ　ＤＥＳＩＧＮ合同会社,,合同会社,東京都,渋谷区,東２丁目２５－３ＧＵＩＬＤＳＨＩＢＵＹＡ５Ｆ,,13,113,1500011,,,,,,,2021-07-30,1,,,,,ライムデザイン,0
2479,9011003013145,新規,0,2021-07-30,2021-07-30,ＲＩＯＲＥＸ合同会社,,合同会社,東京都,渋谷区,神宮前６丁目２３番４号桑野ビル２階,,13,113,1500001,,,,,,,2021-07-30,1,,,,,リオレックス,0
2490,9011301027078,新規,0,2021-07-30,2021-07-30,株式会社Ｚｅｒｏ　Ｇｒａｖｉｔｙ,,株式会社,東京都,杉並区,本天沼３丁目２２番１５号,,13,115,1670031,,,,,,,2021-07-30,1,,,,,ゼログラビティ,0
2493,9011803004723,新規,0,2021-07-30,2021-07-30,ＳＨＵＶＡＭ　ＣＯＭＰＡＮＹ合同会社,,合同会社,東京都,足立区,千住寿町２６番８号,,13,121,1200033,,,,,,,2021-07-30,1,,,,,シュバムカンパニー,0
2495,9012401038147,新規,0,2021-07-30,2021-07-30,ｐａｙｍｅｎｔ株式会社,,株式会社,東京都,武蔵野市,吉祥寺南町１丁目１７番１０－２０１号,,13,203,1800003,,,,,,,2021-07-30,1,,,,,ペイメント,0
2521,9030001143571,新規,0,2021-07-30,2021-07-30,株式会社中村板金,,株式会社,埼玉県,久喜市,吉羽２２９６番地３,,11,232,3460014,,,,,,,2021-07-30,1,,,,,,0
2522,9030001143588,新規,0,2021-07-30,2021-07-30,株式会社室岡組,,株式会社,埼玉県,新座市,栗原４丁目７番１６号ひばりガーデンヒルズ２０１号室,,11,230,3520035,,,,,,,2021-07-30,1,,,,,ムロオカグミ,0
2525,9030003017682,新規,0,2021-07-30,2021-07-30,合同会社つくし,,合同会社,埼玉県,越谷市,大字大吉４５０－１大吉貸家２０１号室,,11,222,3430008,,,,,,,2021-07-30,1,,,,,,0
2526,9030003017699,新規,0,2021-07-30,2021-07-30,ホームグラウンド合同会社,,合同会社,埼玉県,北本市,石戸宿８丁目３４番地５,,11,233,3640025,,,,,,,2021-07-30,1,,,,,ホームグラウンド,0
2529,9040001119447,新規,0,2021-07-30,2021-07-30,株式会社原口アセットマネージメント,,株式会社,千葉県,習志野市,谷津１丁目１３４０番地１５の４２１４,,12,216,2750026,,,,,,,2021-07-30,1,,,,,ハラグチアセットマネージメント,0
2530,9040001119570,新規,0,2021-07-30,2021-07-30,株式会社ＴＳＣ,,株式会社,千葉県,船橋市,南三咲４丁目２３番１４号,,12,204,2740813,,,,,,,2021-07-30,1,,,,,ティーエスシー,0
2538,9050001049602,新規,0,2021-07-30,2021-07-30,株式会社Ｃ－ｓｅｃｏｎｄ,,株式会社,茨城県,水戸市,元吉田町１３０７番地の９,,08,201,3100836,,,,,,,2021-07-30,1,,,,,シーセカンド,0
2540,9050005012911,新規,0,2021-07-30,2021-07-30,一般社団法人黒岩会,,その他の設立登記法人,茨城県,古河市,牧野地１９２番地１,,08,204,3060046,,,,,,,2021-07-30,1,,,,,クロイワカイ,0
2544,9060003003754,新規,0,2021-07-30,2021-07-30,合同会社Ｌ．Ｄ．ＩＮＴＥＲＮＡＴＩＯＮＡＬ,,合同会社,栃木県,佐野市,免鳥町４５０丸正アパート１号,,09,204,3270041,,,,,,,2021-07-30,1,,,,,エルディーインターナショナル,0
2546,9080105006158,新規,0,2021-07-30,2021-07-30,竹麻村非出資漁業會,00123734,その他の設立登記法人,静岡県,賀茂郡南伊豆町,手石７６３番地,,22,304,4150153,,,,,,,2021-07-30,1,,,,,チクマムラヒシュッシ,0
2554,9100001034474,新規,0,2021-07-30,2021-07-30,株式会社サンライト,,株式会社,長野県,木曽郡木曽町,福島５９２４番地１,,20,432,3970001,,,,,,,2021-07-30,1,,,,,サンライト,0
2557,9110003004540,新規,0,2021-07-30,2021-07-30,リフレクデザイン合同会社,,合同会社,新潟県,新潟市江南区,亀田中島４丁目１番２１号,,15,104,9500161,,,,,,,2021-07-30,1,,,,,リフレクデザイン,0
2579,9120001239443,新規,0,2021-07-30,2021-07-30,株式会社アキレ,,株式会社,大阪府,大阪市住吉区,長居東４丁目１４番２４号パルク・グランデージ４０５号,,27,120,5580004,,,,,,,2021-07-30,1,,,,,アキレ,0
2582,9120003019926,新規,0,2021-07-30,2021-07-30,合同会社アンチヒーロー,,合同会社,大阪府,大阪市西区,南堀江４丁目３０番２４－７０６号,,27,106,5500015,,,,,,,2021-07-30,1,,,,,アンチヒーロー,0
2583,9120003019942,新規,0,2021-07-30,2021-07-30,合同会社ＭＶＭＭマネジメント,,合同会社,大阪府,大阪市西区,西本町１丁目２番１号ＡＸＩＳ本町ビル５０７,,27,106,5500005,,,,,,,2021-07-30,1,,,,,エムブイエムエムマネジメント,0
2586,9120005022424,新規,0,2021-07-30,2021-07-30,医療法人美周会,,その他の設立登記法人,大阪府,大阪市都島区,都島本通３丁目２７番１３号ＢＥＬＬＥＡＩＲ３階,,27,102,5340021,,,,,,,2021-07-30,1,,,,,ビシュウカイ,0
2591,9120101064056,新規,0,2021-07-30,2021-07-30,株式会社Ｆｌｙｉｎｇ　Ｔ　Ｉｎｎｏｖａｔｉｏｎ,,株式会社,大阪府,堺市美原区,木材通１丁目１番３０号,,27,147,5870042,,,,,,,2021-07-30,1,,,,,フライングティイノベーション,0
2604,9130001069807,新規,0,2021-07-30,2021-07-30,株式会社コウシン電設,,株式会社,京都府,京都市西京区,山田中吉見町１番地１７,,26,111,6158237,,,,,,,2021-07-30,1,,,,,コウシンデンセツ,0
2611,9140001122465,新規,0,2021-07-30,2021-07-30,株式会社ハミーキャピタル,,株式会社,兵庫県,神戸市中央区,加納町４丁目９番１７号,,28,110,6500001,,,,,,,2021-07-30,1,,,,,ハミーキャピタル,0
2612,9140001122473,新規,0,2021-07-30,2021-07-30,株式会社ハッピネスラボ,,株式会社,兵庫県,神戸市中央区,東町１１３番地大神ビル８０５号,,28,110,6500031,,,,,,,2021-07-30,1,,,,,ハッピネスラボ,0
2614,9140003016566,新規,0,2021-07-30,2021-07-30,ＫＡＮＵ合同会社,,合同会社,兵庫県,西宮市,上甲東園１丁目２３番２０号,,28,204,6620813,,,,,,,2021-07-30,1,,,,,カヌ,0
2615,9140003016574,新規,0,2021-07-30,2021-07-30,ＫＩＮＧ合同会社,,合同会社,兵庫県,神戸市兵庫区,西出町２７柴田ビル１０２南,,28,105,6520822,,,,,,,2021-07-30,1,,,,,キング,0
2619,9150003002441,新規,0,2021-07-30,2021-07-30,合同会社せいか,,合同会社,奈良県,橿原市,四条町７５５番地の１５,,29,205,6340813,,,,,,,2021-07-30,1,,,,,セイカ,0
2627,9180001147137,新規,0,2021-07-30,2021-07-30,Ｔ．Ｇ．Ｈｏｍｅ　ｐａｒｔｎｅｒｓ株式会社,,株式会社,愛知県,名古屋市千種区,新池町１丁目２３番１ザ・パークハウス東山レジデンス３１１,,23,101,4640027,,,,,,,2021-07-30,1,,,,,ティージーホームパートナーズ,0
2628,9180001147145,新規,0,2021-07-30,2021-07-30,株式会社ｄｏｕｄｏｕ　ｊｏｕｏｎｓ,,株式会社,愛知県,名古屋市北区,楠味鋺４丁目１５０３番地,,23,103,4620014,,,,,,,2021-07-30,1,,,,,ドゥドゥジュオン,0
2629,9180001147161,新規,0,2021-07-30,2021-07-30,ＭＫ株式会社,,株式会社,愛知県,半田市,桐ケ丘２丁目５５番地,,23,205,4750928,,,,,,,2021-07-30,1,,,,,エムケイ,0
2630,9180001147186,新規,0,2021-07-30,2021-07-30,株式会社フェアープラン,,株式会社,愛知県,一宮市,せんい２丁目５番４号,,23,203,4910873,,,,,,,2021-07-30,1,,,,,フェアープラン,0
2635,9180003022791,新規,0,2021-07-30,2021-07-30,合同会社Ｔ・Ｔ,,合同会社,愛知県,半田市,白山町５丁目２１１番地の２５,,23,205,4750912,,,,,,,2021-07-30,1,,,,,,0
2647,9230002014702,新規,0,2021-07-30,2021-07-30,有限会社三基工業,,有限会社,富山県,富山市,黒瀬１１６番地３,,16,201,9398213,,,,,,,2021-07-30,1,,,,,,0
2650,9240001058336,新規,0,2021-07-30,2021-07-30,株式会社ＫＥＩＡＩ,,株式会社,広島県,福山市,松永町４丁目２７番２号,,34,207,7290104,,,,,,,2021-07-30,1,,,,,ケイアイ,0
2651,9240001058344,新規,0,2021-07-30,2021-07-30,株式会社便利箱,,株式会社,広島県,広島市中区,本川町３丁目１番５号,,34,101,7300802,,,,,,,2021-07-30,1,,,,,ベンリバコ,0
2659,9270001008321,新規,0,2021-07-30,2021-07-30,株式会社シーエフテック,,株式会社,鳥取県,米子市,両三柳２７８番地,,31,202,6830853,,,,,,,2021-07-30,1,,,,,シーエフテック,0
2664,9290001094054,新規,0,2021-07-30,2021-07-30,センタールート株式会社,,株式会社,福岡県,福岡市中央区,薬院４丁目１番４号,,40,133,8100022,,,,,,,2021-07-30,1,,,,,センタールート,0
2665,9290001094062,新規,0,2021-07-30,2021-07-30,株式会社愛信,,株式会社,福岡県,飯塚市,太郎丸８７７番地１,,40,205,8200076,,,,,,,2021-07-30,1,,,,,アイシン,0
2674,9310001017391,新規,0,2021-07-30,2021-07-30,株式会社Ｈａｌｕｄ,,株式会社,長崎県,雲仙市,小浜町金浜１５６０番地１,,42,213,8540504,,,,,,,2021-07-30,1,,,,,ハルド,0
2676,9310003004124,新規,0,2021-07-30,2021-07-30,合同会社ｋｕｒｏｍａｒｕ,,合同会社,長崎県,大村市,富の原２丁目９２番地４,,42,205,8560806,,,,,,,2021-07-30,1,,,,,クロマル,0
2678,9320001018513,新規,0,2021-07-30,2021-07-30,株式会社Ｂｅ　Ｆｌａｔ,,株式会社,大分県,別府市,駅前本町１番４号,,44,202,8740934,,,,,,,2021-07-30,1,,,,,ビーフラット,0
2689,9340001023957,新規,0,2021-07-30,2021-07-30,株式会社エコフレンズ,,株式会社,鹿児島県,鹿児島市,加治屋町１５番９号大同生命鹿児島ビル５階,,46,201,8920846,,,,,,,2021-07-30,1,,,,,エコフレンズ,0
2691,9350001017223,新規,0,2021-07-30,2021-07-30,ＴＦ　Ａｓｐｉｒａｔｉｏｎ株式会社,,株式会社,宮崎県,北諸県郡三股町,大字蓼池５５６８番地１,,45,341,8891914,,,,,,,2021-07-30,1,,,,,ティーエフアスピレーション,0
2692,9360001029151,新規,0,2021-07-30,2021-07-30,株式会社てぃーだカンカン不動産宜野湾,,株式会社,沖縄県,宜野湾市,野嵩１丁目２番１０号,,47,205,9012203,,,,,,,2021-07-30,1,,,,,ティーダカンカンフドウサンギノワン,0
2693,9360003011330,新規,0,2021-07-30,2021-07-30,合同会社カルティベート,,合同会社,沖縄県,豊見城市,字高安１４３番地,,47,212,9010242,,,,,,,2021-07-30,1,,,,,カルティベート,0
2694,9370001047391,新規,0,2021-07-30,2021-07-30,株式会社フェイスフルガード,,株式会社,宮城県,仙台市宮城野区,榴岡１丁目５番１８メゾン長喜城３０５号,,04,102,9830852,,,,,,,2021-07-30,1,,,,,フェイスフルガード,0
2695,9370001047400,新規,0,2021-07-30,2021-07-30,株式会社リアーナ,,株式会社,宮城県,仙台市宮城野区,扇町４丁目６番４号,,04,102,9830034,,,,,,,2021-07-30,1,,,,,リアーナ,0
2702,9380001032070,新規,0,2021-07-30,2021-07-30,株式会社大工工房,,株式会社,福島県,郡山市,富久山町南小泉字三道口４０番地の４５,,07,203,9630671,,,,,,,2021-07-30,1,,,,,ダイクコウボウ,0
2716,9430003012981,新規,0,2021-07-30,2021-07-30,合同会社セプリュス,,合同会社,北海道,札幌市中央区,南十一条西１４丁目２－１－３０６,,01,101,0640811,,,,,,,2021-07-30,1,,,,,セプリュス,0
2725,9700150104216,新規,0,2021-07-30,2021-07-30,Ａｍａｚｏｎ　Ｗｅｂ　Ｓｅｒｖｉｃｅｓ，Ｉｎｃ．,,外国会社等,,,,,,,,４１０　Ｔｅｒｒｙ　Ａｖｅｎｕｅ　Ｎｏｒｔｈ，Ｓｅａｔｔｌｅ，ＷＡ　９８１０９－５２１０　Ｕ．Ｓ．Ａ．,,,,,,2021-07-30,1,,,,,アマゾンウエブサービスインク,0
