sequenceNumber,corporateNumber,process,correct,updateDate,changeDate,name,nameImageId,kind,prefectureName,cityName,streetNumber,addressImageId,prefectureCode,cityCode,postCode,addressOutside,addressOutsideImageId,closeDate,closeCause,successorCorporateNumber,changeCause,assignmentDate,latest,enName,enPrefectureName,enCityName,enAddressOutside,furigana,hihyoji
8,1010001246128,新規,0,2024-07-01,2024-07-01,株式会社ＡｐｌｕｓＺ,,株式会社,東京都,中央区,日本橋箱崎町１６番１号５階,,13,102,1030015,,,,,,,2024-07-01,1,,,,,アプラズ,0
12,1010003044182,新規,0,2024-07-01,2024-07-01,ＳＪ貿易合同会社,,合同会社,東京都,千代田区,神田和泉町１番地６－１６ヤマトビル４０５,,13,101,1010024,,,,,,,2024-07-01,1,,,,,エスジェイボウエキ,0
13,1010003044199,新規,0,2024-07-01,2024-07-01,アメジストツー合同会社,,合同会社,東京都,中央区,日本橋１丁目４番１号日本橋一丁目ビルディング,,13,102,1030027,,,,,,,2024-07-01,1,,,,,アメジストツー,0
14,1010005038430,新規,0,2024-07-01,2024-07-01,一般社団法人ミーミルアルムナイ,,その他の設立登記法人,東京都,千代田区,丸の内２丁目７－２ＪＰタワー,,13,101,1000005,,,,,,,2024-07-01,1,,,,,ミーミルアルムナイ,0
15,1010005038455,新規,0,2024-07-01,2024-07-01,一般社団法人日中僑商会,,その他の設立登記法人,東京都,中央区,日本橋馬喰町１丁目１３番１２号,,13,102,1030002,,,,,,,2024-07-01,1,,,,,ニッチュウキョウショウカイ,0
35,1011001163073,新規,0,2024-07-01,2024-07-01,Ｓｔｅｌｌａｒ　Ａｘｉｓ株式会社,,株式会社,東京都,渋谷区,代々木２丁目４３番１号,,13,113,1510053,,,,,,,2024-07-01,1,,,,,ステラーアクシズ,0
36,1011001163081,新規,0,2024-07-01,2024-07-01,株式会社ビシソワーズ,,株式会社,東京都,渋谷区,道玄坂１丁目１０番８号渋谷道玄坂東急ビル２Ｆ－Ｃ,,13,113,1500043,,,,,,,2024-07-01,1,,,,,ビシソワーズ,0
37,1011003019488,新規,0,2024-07-01,2024-07-01,Ｆｏｒｔｙｏｎｅ　Ａｇｅｎｃｙ合同会社,,合同会社,東京都,渋谷区,道玄坂１丁目１０番８号渋谷道玄坂東急ビル２Ｆ－Ｃ,,13,113,1500043,,,,,,,2024-07-01,1,,,,,フォーティーワンエージェンシー,0
59,1020001157951,新規,0,2024-07-01,2024-07-01,株式会社心音,,株式会社,神奈川県,横浜市栄区,長尾台町１４７番地７,,14,115,2440843,,,,,,,2024-07-01,1,,,,,ココネ,0
60,1020001158017,新規,0,2024-07-01,2024-07-01,株式会社ＺＳＸ,,株式会社,神奈川県,横浜市西区,浅間町１丁目４番３号ウィザードビル４０２,,14,103,2200072,,,,,,,2024-07-01,1,,,,,ゼットエスエックス,0
65,1020003026469,新規,0,2024-07-01,2024-07-01,合同会社キカクゴト,,合同会社,神奈川県,横浜市西区,浅間町１丁目４番３号ウィザードビル４０２,,14,103,2200072,,,,,,,2024-07-01,1,,,,,キカクゴト,0
72,1021001082594,新規,0,2024-07-01,2024-07-01,株式会社Ｓ．ＴａＫ,,株式会社,神奈川県,平塚市,唐ケ原４３番地１,,14,203,2540826,,,,,,,2024-07-01,1,,,,,エスタック,0
74,1021003014686,新規,0,2024-07-01,2024-07-01,合同会社遊巧舎,,合同会社,神奈川県,足柄下郡湯河原町,吉浜１８８３－９,,14,384,2590312,,,,,,,2024-07-01,1,,,,,ユウコウシャ,0
82,1030001161184,新規,0,2024-07-01,2024-07-01,尽己コンサルティング株式会社,,株式会社,埼玉県,蕨市,南町２丁目９番４号,,11,223,3350003,,,,,,,2024-07-01,1,,,,,ジンキコンサルティング,0
93,1040001134271,新規,0,2024-07-01,2024-07-01,株式会社ＡＭＩＮＴＡ,,株式会社,千葉県,市原市,土宇字川間８７２番地１,,12,219,2900215,,,,,,,2024-07-01,1,,,,,アミンタ,0
94,1040001134288,新規,0,2024-07-01,2024-07-01,株式会社なないろとーぷ,,株式会社,千葉県,佐倉市,上座７０７番地４３,,12,212,2850854,,,,,,,2024-07-01,1,,,,,ナナイロトープ,0
98,1050005013462,新規,0,2024-07-01,2024-07-01,一般財団法人ＢＥＮＥＧＩＬＤＯ,,その他の設立登記法人,茨城県,那珂市,後台６６０－１,,08,226,3110111,,,,,,,2024-07-01,1,,,,,ベネヒルド,0
100,1060001037241,新規,0,2024-07-01,2024-07-01,株式会社大港興業,,株式会社,栃木県,下野市,下古山字上原２５３１番１,,09,216,3290502,,,,,,,2024-07-01,1,,,,,オオミナトコウギョウ,0
105,1080403005042,新規,0,2024-07-01,2024-07-01,合同会社ｃｏｎｎｅｃｔ,,合同会社,静岡県,磐田市,池田１２９７番地１６,,22,211,4380805,,,,,,,2024-07-01,1,,,,,コネクト,0
111,1100001037617,新規,0,2024-07-01,2024-07-01,株式会社ｉ,,株式会社,長野県,松本市,桐３丁目１－２３－２Ｆ,,20,202,3900871,,,,,,,2024-07-01,1,,,,,アイ,0
115,1120001266288,新規,0,2024-07-01,2024-07-01,一方株式会社,,株式会社,大阪府,大阪市住之江区,安立２丁目１０番１４号三坂ビル１０３号室,,27,125,5590003,,,,,,,2024-07-01,1,,,,,イッポウ,0
116,1120001266313,新規,0,2024-07-01,2024-07-01,株式会社ａｓｔｅｌｉｎｋｓ,,株式会社,大阪府,大阪市北区,梅田１丁目２番２号大阪駅前第２ビル１２－１２,,27,127,5300001,,,,,,,2024-07-01,1,,,,,アステリンクス,0
117,1120001266321,新規,0,2024-07-01,2024-07-01,ＱＩＱＩＫ株式会社,,株式会社,大阪府,大阪市淀川区,十三元今里２丁目１２番２５－２０２号,,27,123,5320028,,,,,,,2024-07-01,1,,,,,キューキューケー,0
118,1120001266354,新規,0,2024-07-01,2024-07-01,株式会社ＣＨＡＲＢＯＮ,,株式会社,大阪府,大阪市中央区,瓦町３丁目２番７号グリーンビル５Ｆ,,27,128,5410048,,,,,,,2024-07-01,1,,,,,シャルボン,0
120,1120005024394,新規,0,2024-07-01,2024-07-01,一般社団法人阪神動力機械共済会,,その他の設立登記法人,大阪府,大阪市此花区,四貫島２丁目２６番７号,,27,104,5540014,,,,,,,2024-07-01,1,,,,,ハンシンドウリョクキカイキョウサイカイ,0
122,1120101069847,新規,0,2024-07-01,2024-07-01,株式会社ｙｕｚｕｋｉ,,株式会社,大阪府,藤井寺市,岡１丁目２番７号,,27,226,5830027,,,,,,,2024-07-01,1,,,,,ユズキ,0
123,1120101069855,新規,0,2024-07-01,2024-07-01,雍仁株式会社,,株式会社,大阪府,堺市堺区,甲斐町東６丁１番４－３０５号,,27,141,5900953,,,,,,,2024-07-01,1,,,,,ヨウニン,0
126,1120103005908,新規,0,2024-07-01,2024-07-01,宏達合同会社,,合同会社,大阪府,岸和田市,天神山町２丁目９番６号２０２室,,27,202,5960834,,,,,,,2024-07-01,1,,,,,コウタツ,0
128,1120901049387,新規,0,2024-07-01,2024-07-01,株式会社ＲＥＶＩＶＥ,,株式会社,大阪府,茨木市,真砂１丁目１２番５号,,27,211,5670851,,,,,,,2024-07-01,1,,,,,リバイブ,0
130,1122001004405,新規,0,2024-07-01,2024-07-01,高野機械株式会社,,株式会社,大阪府,東大阪市,北石切町１３番２１号,,27,227,5798015,,,,,,,2024-07-01,1,,,,,タカノキカイ,0
140,1140001134947,新規,0,2024-07-01,2024-07-01,株式会社しんしん,,株式会社,兵庫県,神戸市中央区,脇浜町３丁目５番６号レ・ロウァ６０１,,28,110,6510072,,,,,,,2024-07-01,1,,,,,シンシン,0
147,1160001026036,新規,0,2024-07-01,2024-07-01,株式会社天架,,株式会社,滋賀県,草津市,野村５丁目１５番５号,,25,206,5250027,,,,,,,2024-07-01,1,,,,,,0
150,1180001162093,新規,0,2024-07-01,2024-07-01,株式会社山翔,,株式会社,愛知県,名古屋市守山区,下志段味３丁目１９０４番地,,23,113,4630003,,,,,,,2024-07-01,1,,,,,ヤマト,0
159,1210005010154,新規,0,2024-07-01,2024-07-01,一般財団法人福井国際地域振興,,その他の設立登記法人,福井県,大野市,月美町１０番７号,,18,205,9120031,,,,,,,2024-07-01,1,,,,,フクイコクサイチイキシンコウ,0
161,1220001026070,新規,0,2024-07-01,2024-07-01,株式会社海旬,,株式会社,石川県,金沢市,長町１丁目１‐６１丸和ビル１Ｆ,,17,201,9200865,,,,,,,2024-07-01,1,,,,,カイシュン,0
164,1240001063450,新規,0,2024-07-01,2024-07-01,テイクオフ株式会社,,株式会社,広島県,広島市西区,三篠町３丁目４番１１号,,34,104,7330003,,,,,,,2024-07-01,1,,,,,テイクオフ,0
191,1320001020559,新規,0,2024-07-01,2024-07-01,株式会社ＷＡＲＯＴＡ,,株式会社,大分県,別府市,古市町５番地３ディアス彩Ｂ－１０１,,44,202,8740013,,,,,,,2024-07-01,1,,,,,,0
192,1340003004525,新規,0,2024-07-01,2024-07-01,合同会社ＹＭ設備厨房,,合同会社,鹿児島県,鹿児島市,樋之口町５番４１号,00135372,46,201,8920845,,,,,,,2024-07-01,1,,,,,ワイエムセツビチュウボウ,0
194,1350001019037,新規,0,2024-07-01,2024-07-01,株式会社紡,,株式会社,宮崎県,児湯郡高鍋町,大字北高鍋９３１番地１,,45,401,8840002,,,,,,,2024-07-01,1,,,,,ツムグ,0
197,1360001033870,新規,0,2024-07-01,2024-07-01,株式会社ＮＡＲＲＡＴＩＶＥ,,株式会社,沖縄県,宜野湾市,新城２丁目３７番地１２,,47,205,9012201,,,,,,,2024-07-01,1,,,,,ナラティブ,0
202,1380003005791,新規,0,2024-07-01,2024-07-01,オン・グローブ合同会社,,合同会社,福島県,南相馬市,原町区大木戸字南東方８２番地の３,,07,212,9750061,,,,,,,2024-07-01,1,,,,,オングローブ,0
206,1420001018774,新規,0,2024-07-01,2024-07-01,株式会社ジャパンライスフード青森,,株式会社,青森県,北津軽郡中泊町,大字高根字小金石８７６番地,,02,387,0370303,,,,,,,2024-07-01,1,,,,,ジャパンライスフードアオモリ,0
210,1430001092141,新規,0,2024-07-01,2024-07-01,株式会社豊成,,株式会社,北海道,札幌市東区,北二十二条東２丁目１－２０－３０３,,01,103,0650022,,,,,,,2024-07-01,1,,,,,ホウセイ,0
213,1430003016486,新規,0,2024-07-01,2024-07-01,合同会社エヴァーグリーン,,合同会社,北海道,札幌市中央区,南十二条西６丁目１－２０,,01,101,0640912,,,,,,,2024-07-01,1,,,,,エヴァーグリーン,0
220,1700150126309,新規,0,2024-07-01,2024-07-01,上海愛普食品工業有限公司　駐日事務所,,外国会社等,大阪府,大阪市北区,中津４丁目３－１１ＭＳビルディング３階,,27,127,5310071,中華人民共和国上海市宝山区祁北東路３６号,,,,,,2024-07-01,1,,,,,シヤンハイアイブシヨクヒンコウギヨウユウゲンコウシチユウニチジムシヨ,0
226,2010001246143,新規,0,2024-07-01,2024-07-01,株式会社Ｍｉｎｉｍａｐ,,株式会社,東京都,千代田区,神田三崎町３丁目５－９－２０５－１号室,,13,101,1010061,,,,,,,2024-07-01,1,,,,,ミニマップ,0
227,2010001246151,新規,0,2024-07-01,2024-07-01,ちょこっとミュゼプラチナム株式会社,,株式会社,東京都,千代田区,麹町５丁目３番６号第７秋山ビルディング４階,,13,101,1020083,,,,,,,2024-07-01,1,,,,,チョコットミュゼプラチナム,0
228,2010001246184,新規,0,2024-07-01,2024-07-01,ＣＵＣＫＯＯ　ＪＡＰＡＮ株式会社,,株式会社,東京都,千代田区,神田和泉町１番地６－１６ヤマトビル４０５,,13,101,1010024,,,,,,,2024-07-01,1,,,,,クックジャパン,0
233,2010003044198,新規,0,2024-07-01,2024-07-01,ガーネットツー合同会社,,合同会社,東京都,中央区,日本橋１丁目４番１号日本橋一丁目ビルディング,,13,102,1030027,,,,,,,2024-07-01,1,,,,,ガーネットツー,0
241,2010403032892,新規,0,2024-07-01,2024-07-01,モノセロスホールディングス合同会社,,合同会社,東京都,港区,南麻布１丁目６－３１タイガー南麻布１３０１号,,13,103,1060047,,,,,,,2024-07-01,1,,,,,モノセロスホールディングス,0
242,2010403032901,新規,0,2024-07-01,2024-07-01,合同会社インサイト・キャピタル,,合同会社,東京都,港区,芝大門１丁目２番２２－２００号,,13,103,1050012,,,,,,,2024-07-01,1,,,,,インサイトキャピタル,0
250,2010901055552,新規,0,2024-07-01,2024-07-01,株式会社Ｆｌｅｘｎａｐ,,株式会社,東京都,世田谷区,経堂５丁目３１番４号,,13,112,1560052,,,,,,,2024-07-01,1,,,,,フレックスナップ,0
257,2011001163048,新規,0,2024-07-01,2024-07-01,株式会社ドクターケンジラボ,,株式会社,東京都,渋谷区,道玄坂１丁目１２番１号渋谷マークシティＷ２２階,,13,113,1500043,,,,,,,2024-07-01,1,,,,,ドクターケンジラボ,0
258,2011001163056,新規,0,2024-07-01,2024-07-01,ロゼッタジャパン株式会社,,株式会社,東京都,渋谷区,円山町５番５号,,13,113,1500044,,,,,,,2024-07-01,1,,,,,ロゼッタジャパン,0
259,2011001163080,新規,0,2024-07-01,2024-07-01,株式会社Ｓｉｎｇｕｌａｒｉｔｙ　Ｔｅｃｈ,,株式会社,東京都,渋谷区,道玄坂１丁目１０番８号渋谷道玄坂東急ビル２Ｆ－Ｃ,,13,113,1500043,,,,,,,2024-07-01,1,,,,,シンギュラリティテック,0
261,2011003019487,新規,0,2024-07-01,2024-07-01,合同会社アプリム,,合同会社,東京都,渋谷区,道玄坂１丁目１０番８号渋谷道玄坂東急ビル２Ｆ－Ｃ,,13,113,1500043,,,,,,,2024-07-01,1,,,,,アプリム,0
266,2011101107862,新規,0,2024-07-01,2024-07-01,株式会社宿屋総研,,株式会社,東京都,新宿区,高田馬場１丁目２６番１２号高田馬場ビル６０５,,13,104,1690075,,,,,,,2024-07-01,1,,,,,ヤドヤソウケン,0
267,2011101107879,新規,0,2024-07-01,2024-07-01,９ペイフォワード株式会社,,株式会社,東京都,新宿区,北新宿１丁目２９番１４号ルックハイツ北新宿壱番館２０３,,13,104,1690074,,,,,,,2024-07-01,1,,,,,ナインペイフォワード,0
271,2011301029799,新規,0,2024-07-01,2024-07-01,ｓｕｎｎｙ　ｇｏｏｄ　ｓｈｏｐｓ株式会社,,株式会社,東京都,杉並区,阿佐谷南３丁目３７番１３号大同ビル１０階,,13,115,1660004,,,,,,,2024-07-01,1,,,,,,0
272,2011401026226,新規,0,2024-07-01,2024-07-01,株式会社平成実業グループ,,株式会社,東京都,板橋区,南町３２番２－４０２号ジェイパーク要町,,13,119,1730027,,,,,,,2024-07-01,1,,,,,ヘイセイジツギョウグループ,0
278,2011801044455,新規,0,2024-07-01,2024-07-01,博悦トラベル株式会社,,株式会社,東京都,足立区,足立区舎人五丁目２番２７号,,13,121,1200000,,,,,,,2024-07-01,1,,,,,ヒロヨシトラベル,0
296,2020001157918,新規,0,2024-07-01,2024-07-01,株式会社フィラトリエ,,株式会社,神奈川県,川崎市高津区,末長４丁目２番１１号,,14,134,2130013,,,,,,,2024-07-01,1,,,,,フィラトリエ,0
297,2020001157926,新規,0,2024-07-01,2024-07-01,株式会社ＣＬＩ,,株式会社,神奈川県,横浜市中区,日本大通７番地合人社横浜日本大通７ビル,,14,104,2310021,,,,,,,2024-07-01,1,,,,,シーエルアイ,0
298,2020001157950,新規,0,2024-07-01,2024-07-01,株式会社サイロ,,株式会社,神奈川県,川崎市幸区,下平間１０８番地３アルファコート１００２,,14,132,2120053,,,,,,,2024-07-01,1,,,,,サイロ,0
301,2020003026443,新規,0,2024-07-01,2024-07-01,Ｕｔｉｌｅ合同会社,,合同会社,神奈川県,川崎市高津区,千年７５０番地３サンシャテロ４０１,,14,134,2130022,,,,,,,2024-07-01,1,,,,,ユータイル,0
307,2021001082610,新規,0,2024-07-01,2024-07-01,ケイデンタルラボ株式会社,,株式会社,神奈川県,茅ヶ崎市,南湖７丁目１２８６９番地１８８,,14,207,2530061,,,,,,,2024-07-01,1,,,,,ケイデンタルラボ,0
309,2021003014685,新規,0,2024-07-01,2024-07-01,ＦＵＳＡＮ合同会社,,合同会社,神奈川県,相模原市緑区,橋本７丁目１２番９号ファーストビレッジ橋本２０６号室,,14,151,2520143,,,,,,,2024-07-01,1,,,,,フサン,0
316,2030001161167,新規,0,2024-07-01,2024-07-01,株式会社ＵＴ建設,,株式会社,埼玉県,川口市,芝新町２番９号ミナミビル３Ｆ,,11,203,3330851,,,,,,,2024-07-01,1,,,,,ユーティーケンセツ,0
326,2040001134279,新規,0,2024-07-01,2024-07-01,＿然景川株式会社,00135368,株式会社,千葉県,船橋市,東中山１丁目５番１３－７号,,12,204,2730036,,,,,,,2024-07-01,1,,,,,ジョゼンカゲカワ,0
334,2060001037232,新規,0,2024-07-01,2024-07-01,株式会社辰巳ｅｃｏアグリス,,株式会社,栃木県,小山市,城東１丁目６－１６－２０２,,09,208,3230807,,,,,,,2024-07-01,1,,,,,タツミエコアグリス,0
335,2060001037240,新規,0,2024-07-01,2024-07-01,株式会社ＮＨＫ　Ｔｒａｄｅｒｓ,,株式会社,栃木県,小山市,大字立木５７２番地５－２,,09,208,3230062,,,,,,,2024-07-01,1,,,,,エヌエイチケートレーダーズ,0
343,2080003003239,新規,0,2024-07-01,2024-07-01,ＳＢアセット１号合同会社,,合同会社,静岡県,静岡市葵区,七間町１４番地の１ザ・エンブル七間町２７０１号,,22,101,4200035,,,,,,,2024-07-01,1,,,,,エスビーアセットイチゴウ,0
355,2110001038514,新規,0,2024-07-01,2024-07-01,株式会社ＡＧ,,株式会社,新潟県,新潟市北区,太夫浜２３８６番地１,,15,101,9503112,,,,,,,2024-07-01,1,,,,,,0
368,2120001266163,新規,0,2024-07-01,2024-07-01,株式会社Ｏｎｅ　Ｍｉｎｕｔｅｓ,,株式会社,大阪府,大阪市中央区,南船場３丁目１１番６号アルファブレインワールドビルＢ１Ｆ,,27,128,5420081,,,,,,,2024-07-01,1,,,,,ワンミニッツ,0
369,2120001266205,新規,0,2024-07-01,2024-07-01,株式会社涼月,,株式会社,大阪府,枚方市,春日元町２丁目２５番１１号,,27,210,5730135,,,,,,,2024-07-01,1,,,,,リツキ,0
370,2120001266304,新規,0,2024-07-01,2024-07-01,株式会社Ｃｏｃｏ,,株式会社,大阪府,枚方市,大字尊延寺９４１番地の２７,,27,210,5730112,,,,,,,2024-07-01,1,,,,,ココ,0
371,2120001266329,新規,0,2024-07-01,2024-07-01,株式会社Ｍ．Ｏ．Ｐ,,株式会社,大阪府,大阪市西区,北堀江１丁目２－１６おおきにサイタ・サイタビルヂング新館２階,,27,106,5500014,,,,,,,2024-07-01,1,,,,,エムオーピー,0
372,2120001266337,新規,0,2024-07-01,2024-07-01,株式会社ＯＷＦ,,株式会社,大阪府,大阪市東住吉区,住道矢田３丁目３番３６号,,27,121,5460022,,,,,,,2024-07-01,1,,,,,オーダブリューエフ,0
377,2120101069846,新規,0,2024-07-01,2024-07-01,株式会社まん聊,,株式会社,大阪府,羽曳野市,向野３丁目１２番２号,,27,222,5830883,,,,,,,2024-07-01,1,,,,,マンリョウ,0
378,2120101069879,新規,0,2024-07-01,2024-07-01,旭商事株式会社,,株式会社,大阪府,貝塚市,澤３５７番地３１,,27,208,5970062,,,,,,,2024-07-01,1,,,,,アサヒショウジ,0
380,2120103005915,新規,0,2024-07-01,2024-07-01,合同会社奥野造園,,合同会社,大阪府,堺市中区,新家町５７７番地４,,27,142,5998232,,,,,,,2024-07-01,1,,,,,オクノゾウエン,0
381,2120105009872,新規,0,2024-07-01,2024-07-01,一般社団法人ポンハウス,,その他の設立登記法人,大阪府,堺市美原区,真福寺９０－５,,27,147,5870013,,,,,,,2024-07-01,1,,,,,ポンハウス,0
382,2120901049394,新規,0,2024-07-01,2024-07-01,株式会社デイリーコンサルティング,,株式会社,大阪府,吹田市,広芝町１０番８号,,27,205,5640052,,,,,,,2024-07-01,1,,,,,デイリーコンサルティング,0
387,2122001038229,新規,0,2024-07-01,2024-07-01,株式会社ＰＭプロモーション,,株式会社,大阪府,東大阪市,島之内２丁目１３番３号,,27,227,5780981,,,,,,,2024-07-01,1,,,,,ピーエムプロモーション,0
397,2140001134946,新規,0,2024-07-01,2024-07-01,Ｌ．Ｍ　ａｎｇｅ株式会社,,株式会社,兵庫県,神戸市灘区,高羽字瀧ノ奥５－３リビオ六甲高羽１１４,,28,102,6570001,,,,,,,2024-07-01,1,,,,,エルエムオンジュ,0
404,2180001162142,新規,0,2024-07-01,2024-07-01,ｈｏｎｅｓｔ株式会社,,株式会社,愛知県,一宮市,木曽川町玉ノ井字吉原道北９３番地１,,23,203,4930004,,,,,,,2024-07-01,1,,,,,オネスト,0
420,2220003003777,新規,0,2024-07-01,2024-07-01,ＮＳＫ合同会社,,合同会社,石川県,金沢市,野町２丁目４‐４・２階,,17,201,9218031,,,,,,,2024-07-01,1,,,,,エヌエスケイ,0
423,2250001020697,新規,0,2024-07-01,2024-07-01,株式会社大福,,株式会社,山口県,下関市,豊前田町３丁目３番１号海峡メッセ下関３０４号室,,35,201,7500018,,,,,,,2024-07-01,1,,,,,ダイフク,0
425,2250005008929,新規,0,2024-07-01,2024-07-01,一般社団法人山口県立大学桜圃校友会,,その他の設立登記法人,山口県,山口市,桜畠６丁目２番１号山口県立大学１号館５階,,35,203,7530021,,,,,,,2024-07-01,1,,,,,ヤマグチケンリツダイガクオウホコウユウカイ,0
433,2290003015519,新規,0,2024-07-01,2024-07-01,加那合同会社,,合同会社,福岡県,福岡市中央区,白金１丁目１７－１８井上コーポ４０８号,,40,133,8100012,,,,,,,2024-07-01,1,,,,,カナ,0
444,2360005007060,新規,0,2024-07-01,2024-07-01,ＮＰＯ法人病気予防先進地域ＷＨＯ宣言を目指す県民運動,,その他の設立登記法人,沖縄県,南城市,大里字古堅６９３番地５,,47,215,9011207,,,,,,,2024-07-01,1,,,,,ビョウキヨボウセンシンチイキダブルエイチオーセンゲンヲメザスケンミンウンドウ,0
468,2430003016502,新規,0,2024-07-01,2024-07-01,合同会社ミニオフィス,,合同会社,北海道,札幌市西区,西町南２１丁目２－１５第一ワコービル２０３,,01,107,0630062,,,,,,,2024-07-01,1,,,,,ミニオフィス,0
478,2700150084605,新規,0,2024-07-01,2017-07-26,芦屋市地区集会所運営協議会連合会,,その他,兵庫県,芦屋市,大原町２０番２号大原地区集会所内,,28,206,6590092,,,,,,,2017-07-26,1,,,,,アシヤシチクシユウカイシヨウンエイキヨウギカイレンゴウカイ,0
479,2700150126308,新規,0,2024-07-01,2024-07-01,ＪＩＣＵＦ日本オフィス,,外国会社等,東京都,三鷹市,大沢３丁目１０－２,,13,204,1810015,１０１１５　４７５　Ｒｉｖｅｒｓｉｄｅ　Ｄｒｉｖｅ，Ｓｕｉｔｅ　１８４４，Ｎｅｗ　Ｙｏｒｋ，ＮＹ,,,,,,2024-07-01,1,,,,,ジエイアイシーユーエフニホンオフイス,0
486,3010001246101,新規,0,2024-07-01,2024-07-01,株式会社インフラビートテクノロジーズ,,株式会社,東京都,中央区,東日本橋２丁目２８番４号日本橋ＣＥＴビル２階,,13,102,1030004,,,,,,,2024-07-01,1,,,,,インフラビートテクノロジーズ,0
487,3010001246183,新規,0,2024-07-01,2024-07-01,株式会社テクエネ,,株式会社,東京都,千代田区,神田佐久間町１丁目８番４号アルテール秋葉原７０８,,13,101,1010025,,,,,,,2024-07-01,1,,,,,テクエネ,0
490,3010003044180,新規,0,2024-07-01,2024-07-01,Ａｚｕｍａ　Ｍｏｄｅｌｓ合同会社,,合同会社,東京都,千代田区,神田須田町１丁目７－８ＶＯＲＴ秋葉原ＩＶ２Ｆ,00135370,13,101,1010041,,,,,,,2024-07-01,1,,,,,アヅマモデルズ,0
503,3010403032891,新規,0,2024-07-01,2024-07-01,プライベートナースモアナ合同会社,,合同会社,東京都,港区,南青山３丁目１番３６号青山丸竹ビル６Ｆ,,13,103,1070062,,,,,,,2024-07-01,1,,,,,,0
507,3010701046197,新規,0,2024-07-01,2024-07-01,株式会社Ａｌｌｅｘ　Ｂｅａｕｔｙ　Ｇｒｏｕｐ,,株式会社,東京都,品川区,大井１丁目４２－１２大井ビル２０２,,13,109,1400014,,,,,,,2024-07-01,1,,,,,アレックスビューティーグループ,0
514,3011001163006,新規,0,2024-07-01,2024-07-01,ＧＩＭＩＣ株式会社,,株式会社,東京都,渋谷区,道玄坂１丁目１０番８号渋谷道玄坂東急ビル２Ｆ－Ｃ,,13,113,1500043,,,,,,,2024-07-01,1,,,,,ギミック,0
522,3011203004429,新規,0,2024-07-01,2024-07-01,合同会社ＩＬＬＵＭ,,合同会社,東京都,中野区,鷺宮３丁目１６番１号ＳＡＧＹ中野２０２,,13,114,1650032,,,,,,,2024-07-01,1,,,,,イルム,0
538,3020001157925,新規,0,2024-07-01,2024-07-01,株式会社Ｈａｙａｔａ,,株式会社,神奈川県,横浜市西区,浅間町１丁目４番地３ウィザードビル４０２,,14,103,2200072,,,,,,,2024-07-01,1,,,,,ハヤタ,0
544,3020005016474,新規,0,2024-07-01,2024-07-01,日興システムソリューションズ社員組合,,その他の設立登記法人,神奈川県,横浜市鶴見区,大東町１２番地１,,14,101,2300032,,,,,,,2024-07-01,1,,,,,ニッコウシステムソリューションズ,0
546,3021001082584,新規,0,2024-07-01,2024-07-01,株式会社ＱｕａｎＣ,,株式会社,神奈川県,茅ヶ崎市,小和田３丁目１５番６８号,,14,207,2530012,,,,,,,2024-07-01,1,,,,,クアンク,0
547,3021003014676,新規,0,2024-07-01,2024-07-01,合同会社ヴァリアシオン,,合同会社,神奈川県,平塚市,御殿１丁目２５番２０号佐藤マンション１０３号,,14,203,2540061,,,,,,,2024-07-01,1,,,,,ヴァリアシオン,0
548,3021003014692,新規,0,2024-07-01,2024-07-01,協和住装合同会社,,合同会社,神奈川県,綾瀬市,落合北５丁目２番２号コーラル１０１,,14,218,2521116,,,,,,,2024-07-01,1,,,,,キョウワジュウソウ,0
556,3030003024619,新規,0,2024-07-01,2024-07-01,ＲＩＳＥ　ＩＮＴＥＲＮＡＴＩＯＮＡＬ合同会社,,合同会社,埼玉県,深谷市,原郷４０９番地１１,,11,218,3660035,,,,,,,2024-07-01,1,,,,,ライズインターナショナル,0
560,3040001134047,新規,0,2024-07-01,2024-07-01,株式会社ＩＮＳＰＩＲＩＴ,,株式会社,千葉県,松戸市,小金きよしケ丘３丁目５番地の２ネバーランド北小金サンフォート７１６,,12,207,2700013,,,,,,,2024-07-01,1,,,,,インスピリット,0
578,3080405007646,新規,0,2024-07-01,2024-07-01,一般社団法人こどもアドボカシーセンター浜松,,その他の設立登記法人,静岡県,浜松市中央区,佐鳴台４丁目２番２０号,,22,138,4328021,,,,,,,2024-07-01,1,,,,,コドモアドボカシーセンターハママツ,0
579,3090003002593,新規,0,2024-07-01,2024-07-01,峰々合同会社,,合同会社,山梨県,南都留郡富士河口湖町,勝山１２３８－１,,19,430,4010310,,,,,,,2024-07-01,1,,,,,ミネミネ,0
582,3110001038521,新規,0,2024-07-01,2024-07-01,株式会社ＲＩＳＥ,,株式会社,新潟県,新潟市中央区,東中通２番町２８８番地２マンション司５０１号,,15,103,9518116,,,,,,,2024-07-01,1,,,,,ライズ,0
588,3120001266294,新規,0,2024-07-01,2024-07-01,株式会社ｙａｍａｔｏｙａ,,株式会社,大阪府,大阪市西区,靱本町１丁目９番１５号,,27,106,5500004,,,,,,,2024-07-01,1,,,,,ヤマトヤ,0
589,3120001266336,新規,0,2024-07-01,2024-07-01,太陽株式会社,,株式会社,大阪府,大阪市中央区,高津１丁目１０番７－２０５号,,27,128,5420072,,,,,,,2024-07-01,1,,,,,タイヨウ,0
592,3120003026936,新規,0,2024-07-01,2024-07-01,合名会社きのした,,合名会社,大阪府,大阪市平野区,加美鞍作１丁目７番２号,,27,126,5470004,,,,,,,2024-07-01,1,,,,,キノシタ,0
593,3120003026952,新規,0,2024-07-01,2024-07-01,ＫＹＤ合同会社,,合同会社,大阪府,門真市,野里町９番１５号大西第二ビル２階,,27,223,5710079,,,,,,,2024-07-01,1,,,,,ケーワイディー,0
596,3120101069853,新規,0,2024-07-01,2024-07-01,ＭＫ株式会社,,株式会社,大阪府,堺市堺区,向陵中町２丁４番２０－１５０２号,,27,141,5900024,,,,,,,2024-07-01,1,,,,,エムケー,0
597,3120101069861,新規,0,2024-07-01,2024-07-01,辰童株式会社,,株式会社,大阪府,堺市堺区,三条通６番１７号２０１,,27,141,5900046,,,,,,,2024-07-01,1,,,,,シンドウ,0
600,3120901049385,新規,0,2024-07-01,2024-07-01,株式会社Ｓｏｌｖｉｎｇ＆Ａｃｈｉｅｖｅ,,株式会社,大阪府,豊中市,永楽荘１丁目３番２０号,,27,203,5600051,,,,,,,2024-07-01,1,,,,,ソルビングアンドアチーブ,0
602,3120905006622,新規,0,2024-07-01,2024-07-01,一般社団法人大阪冷媒工事協力会,,その他の設立登記法人,大阪府,摂津市,鳥飼上３丁目３番１３号,,27,224,5660062,,,,,,,2024-07-01,1,,,,,オオサカレイバイコウジキョウリョクカイ,0
610,3140001134895,新規,0,2024-07-01,2024-07-01,株式会社Ｉ’ｖｅ,,株式会社,兵庫県,淡路市,岩屋９８２番地,,28,226,6562401,,,,,,,2024-07-01,1,,,,,イヴ,0
611,3140001134945,新規,0,2024-07-01,2024-07-01,グリフォン株式会社,,株式会社,兵庫県,芦屋市,大原町２０番２１－１０３号,,28,206,6590092,,,,,,,2024-07-01,1,,,,,グリフォン,0
621,3180003027004,新規,0,2024-07-01,2024-07-01,合同会社鈴木興産,,合同会社,愛知県,名古屋市東区,主税町３丁目１０番地の３,,23,102,4610018,,,,,,,2024-07-01,1,,,,,スズキコウサン,0
639,3260003004804,新規,0,2024-07-01,2024-07-01,合同会社ｃｕｂｅ,,合同会社,岡山県,倉敷市,浦田２５３０番地１８,,33,202,7100843,,,,,,,2024-07-01,1,,,,,キューブ,0
654,3290001106293,新規,0,2024-07-01,2024-07-01,株式会社ｆｏｔｏｋｉｔａ,,株式会社,福岡県,福岡市中央区,草香江２丁目２－３－９０２号シティハウス六本松ツインタワーズ,,40,133,8100045,,,,,,,2024-07-01,1,,,,,フォトキタ,0
657,3290003015385,新規,0,2024-07-01,2024-07-01,合同会社ＴＯＫＵ　ＴＯＫＵ,,合同会社,福岡県,福岡市博多区,千代１丁目３１－２グランコンフォール博多千代ＩＩＩ１０２号室,00135369,40,132,8120044,,,,,,,2024-07-01,1,,,,,トクトク,0
669,3360001033860,新規,0,2024-07-01,2024-07-01,株式会社許田建装,,株式会社,沖縄県,宜野湾市,我如古２丁目２５番１号,,47,205,9012214,,,,,,,2024-07-01,1,,,,,キョダケンソウ,0
676,3400005008425,新規,0,2024-07-01,2024-07-01,一般社団法人かじかの里下内野,,その他の設立登記法人,岩手県,一関市,大東町大原字堰ノ上１０番地３,,03,209,0290711,,,,,,,2024-07-01,1,,,,,カジカノサトシモウチノ,0
679,3430003016501,新規,0,2024-07-01,2024-07-01,ＡｔｅｌｉｅｒＡＴＡＬ合同会社,,合同会社,北海道,札幌市豊平区,平岸三条１２丁目５番２０－１０１号,,01,105,0620933,,,,,,,2024-07-01,1,,,,,アトリエアタル,0
682,3450003002508,新規,0,2024-07-01,2024-07-01,合同会社和凛ＫＡＲＩＮ,,合同会社,北海道,士別市,西五条１２丁目２９番地３０,,01,220,0950025,,,,,,,2024-07-01,1,,,,,カリン,0
690,3700150060919,新規,0,2024-07-01,2015-10-09,佐賀県市長会,,その他,佐賀県,佐賀市,堀川町１番１号,,41,201,8400832,,,,,,,2015-10-09,1,,,,,サガケンシチヨウカイ,0
702,4010001246141,新規,0,2024-07-01,2024-07-01,株式会社ぴぶけあ,,株式会社,東京都,中央区,新富１丁目１０番２－３０２号,,13,102,1040041,,,,,,,2024-07-01,1,,,,,ピブケア,0
703,4010001246158,新規,0,2024-07-01,2024-07-01,住商建物株式会社,,株式会社,東京都,千代田区,大手町２丁目３番２号,,13,101,1000004,,,,,,,2024-07-01,1,,,,,スミショウタテモノ,0
716,4010401183496,新規,0,2024-07-01,2024-07-01,株式会社ＳＯＵＮ,,株式会社,東京都,港区,芝浦４丁目２１番１－４８０４号,,13,103,1080023,,,,,,,2024-07-01,1,,,,,ソウ,0
729,4011001163062,新規,0,2024-07-01,2024-07-01,株式会社ＳｕｂＡｃｃｏｕｎｔ,,株式会社,東京都,渋谷区,恵比寿西２丁目８番４号ＥＸ恵比寿西ビル５階,,13,113,1500021,,,,,,,2024-07-01,1,,,,,サブアカウント,0
730,4011001163079,新規,0,2024-07-01,2024-07-01,株式会社ＧａｍｅｒＨｏｕｓｅ　Ｊａｐａｎ,,株式会社,東京都,渋谷区,渋谷２丁目１９－１５宮益坂ビルディング６０９,,13,113,1500002,,,,,,,2024-07-01,1,,,,,ゲーマーハウスジャパン,0
732,4011003019428,新規,0,2024-07-01,2024-07-01,Ｌｉｎｅｓｔ合同会社,,合同会社,東京都,渋谷区,渋谷２丁目１９－１５宮益坂ビルディング６０９,,13,113,1500002,,,,,,,2024-07-01,1,,,,,リネスト,0
734,4011101107869,新規,0,2024-07-01,2024-07-01,ＪＣＩ株式会社,,株式会社,東京都,新宿区,西新宿７丁目７番２３号トミービル４階ＳＳ‐ＯＦＦＩＣＥ新宿２号室,,13,104,1600023,,,,,,,2024-07-01,1,,,,,ジェーシーアイ,0
739,4011303005219,新規,0,2024-07-01,2024-07-01,合同会社ＥＮＳＯＷＡ,,合同会社,東京都,杉並区,下高井戸４丁目９番３２号,,13,115,1680073,,,,,,,2024-07-01,1,,,,,,0
750,4011801044445,新規,0,2024-07-01,2024-07-01,ボラ株式会社,,株式会社,東京都,葛飾区,水元２丁目１０番７号エリービル１３０５,,13,122,1250032,,,,,,,2024-07-01,1,,,,,ボラ,0
758,4013303007186,新規,0,2024-07-01,2024-07-01,合同会社スノードロップ,,合同会社,東京都,豊島区,南池袋１丁目１６‐１５ダイヤゲート池袋５階,,13,116,1710022,,,,,,,2024-07-01,1,,,,,スノードロップ,0
763,4020001157908,新規,0,2024-07-01,2024-07-01,株式会社徳造,,株式会社,神奈川県,横浜市金沢区,能見台２丁目２０番地４メガロン能見台２番館２０７号,,14,108,2360057,,,,,,,2024-07-01,1,,,,,トクゾウ,0
764,4020001157932,新規,0,2024-07-01,2024-07-01,株式会社Ｌａｐｌａｃｅ,,株式会社,神奈川県,横浜市港北区,大倉山２丁目１８番２３号,,14,109,2220037,,,,,,,2024-07-01,1,,,,,ラプラス,0
765,4020001157940,新規,0,2024-07-01,2024-07-01,株式会社美加商事,,株式会社,神奈川県,川崎市川崎区,中瀬２丁目１３番１－３１５号,,14,131,2100818,,,,,,,2024-07-01,1,,,,,ミカショウジ,0
768,4020003026417,新規,0,2024-07-01,2024-07-01,ＭＫリサーチ合同会社,,合同会社,神奈川県,川崎市多摩区,宿河原４丁目１９番２１－５０１号,,14,135,2140021,,,,,,,2024-07-01,1,,,,,エムケイリサーチ,0
771,4021001082609,新規,0,2024-07-01,2024-07-01,ＭＳ　ＡＣＡＤＥＭＹ株式会社,,株式会社,神奈川県,綾瀬市,上土棚北４丁目１１番５号,,14,218,2521111,,,,,,,2024-07-01,1,,,,,エムエスアカデミー,0
781,4030003024634,新規,0,2024-07-01,2024-07-01,合同会社シロクマリーガルパートナーズ,,合同会社,埼玉県,川越市,岸町１丁目２２番５５,,11,201,3501131,,,,,,,2024-07-01,1,,,,,シロクマリーガルパートナーズ,0
784,4040001134236,新規,0,2024-07-01,2024-07-01,株式会社虹の樹,,株式会社,千葉県,柏市,若柴１７８番地４柏の葉キャンパス１４８街区１パークシティ柏の葉キャンパス・ザゲートタワーウエスト３Ｆ,,12,217,2770871,,,,,,,2024-07-01,1,,,,,ニジノキ,0
785,4040001134302,新規,0,2024-07-01,2024-07-01,ＫＷＵ　ＳＥＮＳＨＩ　ＪＡＰＡＮ株式会社,,株式会社,千葉県,千葉市中央区,中央港１丁目２６－２８－１１５,,12,101,2600024,,,,,,,2024-07-01,1,,,,,ケーダブルユーセンシジャパン,0
792,4040003025301,新規,0,2024-07-01,2024-07-01,ＬＥＥＮＡ　ＴＲＡＤＩＮＧ合同会社,,合同会社,千葉県,八街市,用草１７４番地２，２階２０２号室,,12,230,2891138,,,,,,,2024-07-01,1,,,,,リーナトレーディング,0
796,4050003008486,新規,0,2024-07-01,2024-07-01,コア・コーチング合同会社,,合同会社,茨城県,日立市,鹿島町１丁目２－７,,08,202,3170071,,,,,,,2024-07-01,1,,,,,コアコーチング,0
800,4070003005481,新規,0,2024-07-01,2024-07-01,Ｓｉｄｅ３合同会社,,合同会社,群馬県,伊勢崎市,連取町３２９５番地１,,10,204,3720812,,,,,,,2024-07-01,1,,,,,サイドスリー,0
802,4080103003087,新規,0,2024-07-01,2024-07-01,合同会社サクセス,,合同会社,静岡県,御殿場市,御殿場８７番地の１,,22,215,4120028,,,,,,,2024-07-01,1,,,,,サクセス,0
803,4080401027283,新規,0,2024-07-01,2024-07-01,株式会社ＭｉｌｋｙＱｕｅｅｎ,,株式会社,静岡県,浜松市中央区,入野町１９９５４番地の７０７,,22,138,4328061,,,,,,,2024-07-01,1,,,,,ミルキークイーン,0
806,4090003002592,新規,0,2024-07-01,2024-07-01,合同会社ＫＯＤＡＴＥ,,合同会社,山梨県,甲州市,塩山西広門田３７８番地１,,19,213,4040037,,,,,,,2024-07-01,1,,,,,コダテ,0
815,4110001038520,新規,0,2024-07-01,2024-07-01,株式会社Ｍ・Ｎ企画,,株式会社,新潟県,新潟市中央区,古町通４番町５７９番地１グリーンミナミ古町５０４号,,15,103,9518063,,,,,,,2024-07-01,1,,,,,エムエヌキカク,0
823,4120001266285,新規,0,2024-07-01,2024-07-01,株式会社つよくてニューゲーム,,株式会社,大阪府,大阪市北区,梅田１丁目２番２号大阪駅前第２ビル１２－１２,,27,127,5300001,,,,,,,2024-07-01,1,,,,,ツヨクテニューゲーム,0
824,4120001266319,新規,0,2024-07-01,2024-07-01,＿天美株式会社,00135361,株式会社,大阪府,大阪市中央区,日本橋１丁目９番１１－７０２号,,27,128,5420073,,,,,,,2024-07-01,1,,,,,キンテンビ,0
828,4120101069844,新規,0,2024-07-01,2024-07-01,株式会社Ｅｉｇｈｔ,,株式会社,大阪府,堺市中区,辻之２３５番地３,00135364,27,142,5998245,,,,,,,2024-07-01,1,,,,,エイト,0
829,4120101069860,新規,0,2024-07-01,2024-07-01,星瑞株式会社,,株式会社,大阪府,阪南市,貝掛６３番３号シーサイド貝掛Ｂ棟１０７室,,27,232,5990231,,,,,,,2024-07-01,1,,,,,セイズイ,0
830,4120101069869,新規,0,2024-07-01,2024-07-01,株式会社ＬＵＺ,,株式会社,大阪府,堺市美原区,黒山１０７２番,,27,147,5870002,,,,,,,2024-07-01,1,,,,,エルユーゼット,0
832,4130001077335,新規,0,2024-07-01,2024-07-01,株式会社紬,,株式会社,京都府,京都市中京区,先斗町通三条下る橋下町１３５番地先斗町ビル１階,,26,104,6048003,,,,,,,2024-07-01,1,,,,,ツムギ,0
837,4140001134944,新規,0,2024-07-01,2024-07-01,怡豐貿易株式会社,,株式会社,兵庫県,神戸市灘区,原田通３丁目７番１１号川崎マンション１０３,,28,102,6570837,,,,,,,2024-07-01,1,,,,,イフボウエキ,0
848,4180003027011,新規,0,2024-07-01,2024-07-01,合同会社Ｂａｍｂｉ,,合同会社,愛知県,名古屋市中区,栄４丁目２１番１７号エリザベスガーデンビル１Ｆ,,23,106,4600008,,,,,,,2024-07-01,1,,,,,バンビ,0
855,4200001042645,新規,0,2024-07-01,2024-07-01,株式会社シバタ文具,,株式会社,岐阜県,関市,西本郷通７丁目６番１２号,,21,205,5013803,,,,,,,2024-07-01,1,,,,,シバタブング,0
858,4210001019808,新規,0,2024-07-01,2024-07-01,ＷＥＤ株式会社,,株式会社,福井県,大野市,錦町１－１７,,18,205,9120024,,,,,,,2024-07-01,1,,,,,ウエッド,0
864,4240001063448,新規,0,2024-07-01,2024-07-01,株式会社ｆａｍ,,株式会社,広島県,東広島市,黒瀬春日野１丁目１７番地１２,,34,212,7392615,,,,,,,2024-07-01,1,,,,,ファム,0
880,4290801030667,新規,0,2024-07-01,2024-07-01,株式会社桜の木,,株式会社,福岡県,中間市,七重町１１番７号,,40,215,8090027,,,,,,,2024-07-01,1,,,,,サクラノキ,0
892,4360005007059,新規,0,2024-07-01,2024-07-01,一般社団法人おきなわ国際協力プラットフォーム,,その他の設立登記法人,沖縄県,浦添市,内間２丁目２１‐３０‐４０５,,47,208,9012121,,,,,,,2024-07-01,1,,,,,オキナワコクサイキョウリョクプラットフォーム,0
901,4400003003294,新規,0,2024-07-01,2024-07-01,合同会社Ｂｒａｎｄ．Ｎ,,合同会社,岩手県,滝沢市,大釜八幡前８３番４,,03,216,0200766,,,,,,,2024-07-01,1,,,,,ブランドエヌ,0
907,4430001092122,新規,0,2024-07-01,2024-07-01,株式会社旬,,株式会社,北海道,小樽市,稲穂１丁目２番１１号,,01,203,0470032,,,,,,,2024-07-01,1,,,,,シュン,0
908,4430003016500,新規,0,2024-07-01,2024-07-01,合同会社ホームベース,,合同会社,北海道,札幌市西区,八軒五条西１１丁目１番２３ー５１０号,,01,107,0630845,,,,,,,2024-07-01,1,,,,,ホームベース,0
924,5010001246132,新規,0,2024-07-01,2024-07-01,インディゴプリント株式会社,,株式会社,東京都,中央区,築地６丁目７番１１－４０４号,,13,102,1040045,,,,,,,2024-07-01,1,,,,,インディゴプリント,0
925,5010001246181,新規,0,2024-07-01,2024-07-01,ＨＫホールディングス株式会社,,株式会社,東京都,千代田区,平河町２丁目１６番９号永田町グラスゲート６階ＡＣＡ株式会社内,,13,101,1020093,,,,,,,2024-07-01,1,,,,,エイチケーホールディングス,0
931,5010401183454,新規,0,2024-07-01,2024-07-01,株式会社ディアライト,,株式会社,東京都,港区,六本木６丁目１０番１号,,13,103,1060032,,,,,,,2024-07-01,1,,,,,ディアライト,0
933,5010405023375,新規,0,2024-07-01,2024-07-01,一般社団法人ＴＳＭ１６３,,その他の設立登記法人,東京都,港区,元赤坂１丁目１番７号,,13,103,1070051,,,,,,,2024-07-01,1,,,,,ティーエスエムヒャクロクジュウサン,0
936,5010501052526,新規,0,2024-07-01,2024-07-01,株式会社ＲＣＵＵ,,株式会社,東京都,台東区,上野２丁目１番９号,,13,106,1100005,,,,,,,2024-07-01,1,,,,,リチュー,0
941,5010703007237,新規,0,2024-07-01,2024-07-01,合同会社ＩＮＳＰＩＲＥ,,合同会社,東京都,品川区,南大井５丁目１３番１５号アレーズ南大井１０２,,13,109,1400013,,,,,,,2024-07-01,1,,,,,インスパイア,0
951,5011001163045,新規,0,2024-07-01,2024-07-01,ＷＥＳＴ　ＳＴＲＥＡＭ株式会社,,株式会社,東京都,目黒区,洗足２丁目１７番４号,,13,110,1520012,,,,,,,2024-07-01,1,,,,,ウエストストリーム,0
952,5011001163094,新規,0,2024-07-01,2024-07-01,株式会社Ｘｒｏｓｓ　Ｇｕｉｌｄ,,株式会社,東京都,渋谷区,道玄坂１丁目１２－１渋谷マークシティＷ２２階,,13,113,1500043,,,,,,,2024-07-01,1,,,,,クロスギルド,0
956,5011103014617,新規,0,2024-07-01,2024-07-01,合同会社コンコルド・クラシック,,合同会社,東京都,新宿区,西新宿３丁目３番１３号西新宿水間ビル６階,,13,104,1600023,,,,,,,2024-07-01,1,,,,,コンコルドクラシック,0
959,5011301029771,新規,0,2024-07-01,2024-07-01,穎君文化株式会社,,株式会社,東京都,杉並区,今川１丁目１２番２１号,,13,115,1670035,,,,,,,2024-07-01,1,,,,,イジュン,0
965,5011601027855,新規,0,2024-07-01,2024-07-01,株式会社ルイスデザイン,,株式会社,東京都,練馬区,早宮２丁目１７番４７号,,13,120,1790085,,,,,,,2024-07-01,1,,,,,ルイスデザイン,0
967,5011801044460,新規,0,2024-07-01,2024-07-01,株式会社拾式,,株式会社,東京都,葛飾区,東金町２丁目５番２０－３０８号,,13,122,1250041,,,,,,,2024-07-01,1,,,,,ジュウシキ,0
984,5020001157923,新規,0,2024-07-01,2024-07-01,連湘閣株式会社,,株式会社,神奈川県,横浜市鶴見区,小野町１４－１４７,,14,101,2300046,,,,,,,2024-07-01,1,,,,,レンショウカク,0
992,5021001082590,新規,0,2024-07-01,2024-07-01,株式会社Ｋ‐ＲＩＳＥ,,株式会社,神奈川県,茅ヶ崎市,萩園３１７１番地１サンリットガーデンＢ２０３,,14,207,2530071,,,,,,,2024-07-01,1,,,,,ケーライズ,0
993,5021001082616,新規,0,2024-07-01,2024-07-01,ＪＴＫ　Ｍｏｔｏｒ　Ｐｒｏｊｅｃｔ　Ｒ株式会社,,株式会社,神奈川県,相模原市緑区,長竹４３０－１,,14,151,2520154,,,,,,,2024-07-01,1,,,,,ジェイティーケーモータープロジェクトアール,0
1004,5040001134210,新規,0,2024-07-01,2024-07-01,株式会社モラトリアム,,株式会社,千葉県,成田市,玉造６丁目２２－６,,12,211,2860011,,,,,,,2024-07-01,1,,,,,モラトリアム,0
1005,5040001134268,新規,0,2024-07-01,2024-07-01,宝越株式会社,,株式会社,千葉県,千葉市花見川区,幕張町３丁目８４５番地５,,12,102,2620032,,,,,,,2024-07-01,1,,,,,ホウエツ,0
1008,5040003025309,新規,0,2024-07-01,2024-07-01,ＳＡＲＡＨ　ＡＵＴＯ　ＴＥＣＨ合同会社,,合同会社,千葉県,長生郡長南町,豊原２８０３番地,,12,427,2970133,,,,,,,2024-07-01,1,,,,,サラオートテック,0
1013,5060001037246,新規,0,2024-07-01,2024-07-01,株式会社ＡＬＯＮＧ　ＷＩＴＨ,,株式会社,栃木県,下都賀郡壬生町,大字北小林７８８番地１０,,09,361,3210207,,,,,,,2024-07-01,1,,,,,アローンウィズ,0
1015,5080103003086,新規,0,2024-07-01,2024-07-01,合同会社長泉カウンセリング,,合同会社,静岡県,駿東郡長泉町,中土狩９０３番地の２,,22,342,4110942,,,,,,,2024-07-01,1,,,,,ナガイズミカウンセリング,0
1020,5080401027282,新規,0,2024-07-01,2024-07-01,株式会社みらいメディカルコンサルティング,,株式会社,静岡県,浜松市中央区,旭町６番地の１一条タワー９０５号室,,22,138,4300927,,,,,,,2024-07-01,1,,,,,ミライメディカルコンサルティング,0
1027,5110003005435,新規,0,2024-07-01,2024-07-01,合同会社樋口屋,00135373,合同会社,新潟県,新潟市西区,五十嵐３の町南３番３４号,,15,107,9502175,,,,,,,2024-07-01,1,,,,,ヒグチヤ,0
1030,5120001266326,新規,0,2024-07-01,2024-07-01,株式会社キーワン,,株式会社,大阪府,大阪市北区,梅田１丁目２番２号大阪駅前第２ビル１２－１２,,27,127,5300001,,,,,,,2024-07-01,1,,,,,キーワン,0
1038,5120101069851,新規,0,2024-07-01,2024-07-01,株式会社エクスペクチャー,,株式会社,大阪府,松原市,上田７丁目１４－３６,,27,217,5800016,,,,,,,2024-07-01,1,,,,,エクスペクチャー,0
1039,5120101069876,新規,0,2024-07-01,2024-07-01,株式会社アースクリエイト,,株式会社,大阪府,貝塚市,木積２０６０番地７,,27,208,5970102,,,,,,,2024-07-01,1,,,,,アースクリエイト,0
1043,5120901049391,新規,0,2024-07-01,2024-07-01,株式会社Ｇｌｏｂａｌ　Ｆａｒｍ　Ｋａｉ,,株式会社,大阪府,茨木市,三島丘１丁目１２番１号,,27,211,5670021,,,,,,,2024-07-01,1,,,,,グローバルファームカイ,0
1052,5140001134943,新規,0,2024-07-01,2024-07-01,株式会社Ｂｌｏｏｍ,,株式会社,兵庫県,神戸市北区,鈴蘭台北町９丁目２２番７－１号,,28,109,6511111,,,,,,,2024-07-01,1,,,,,ブルーム,0
1054,5140003020745,新規,0,2024-07-01,2024-07-01,みんなの合同会社,,合同会社,兵庫県,姫路市,本町１２７大手前ダイネンＢＬＤ．ＩＩ３Ｆ,00135365,28,201,6700012,,,,,,,2024-07-01,1,,,,,ミンナノ,0
1062,5180001162172,新規,0,2024-07-01,2024-07-01,株式会社ＫＯＴＯＢＵＫＩ　ＮＥＸＴ,,株式会社,愛知県,名古屋市西区,那古野２丁目２３番２１号,,23,104,4510042,,,,,,,2024-07-01,1,,,,,コトブキネクスト,0
1064,5180003027010,新規,0,2024-07-01,2024-07-01,合同会社Ｋ．Ｋ,,合同会社,愛知県,名古屋市中区,新栄１丁目２４番３３号メイクス矢場町７０１号,,23,106,4600007,,,,,,,2024-07-01,1,,,,,ケーケー,0
1080,5220003003774,新規,0,2024-07-01,2024-07-01,合同会社ＪＯＩ,,合同会社,石川県,白山市,新成２丁目６６番地,,17,210,9240020,,,,,,,2024-07-01,1,,,,,ジョイ,0
1082,5230003002239,新規,0,2024-07-01,2024-07-01,盛明合同会社,,合同会社,富山県,富山市,古沢４０９番地３,,16,201,9300151,,,,,,,2024-07-01,1,,,,,モリアキ,0
1092,5260005011375,新規,0,2024-07-01,2024-07-01,社会福祉法人陽のあたる学舎,,その他の設立登記法人,岡山県,津山市,西寺町７７番地,,33,203,7080045,,,,,,,2024-07-01,1,,,,,ヒノアタルガクシャ,0
1094,5270005005599,新規,0,2024-07-01,2024-07-01,特定非営利活動法人さんいん未来,,その他の設立登記法人,鳥取県,米子市,西福原８丁目１７番１１号,,31,202,6830805,,,,,,,2024-07-01,1,,,,,サンインミライ,0
1104,5290003015508,新規,0,2024-07-01,2024-07-01,合同会社葉月,,合同会社,福岡県,春日市,小倉東２丁目１９番地春日サンハイツ８棟５０５号,,40,218,8160826,,,,,,,2024-07-01,1,,,,,ハヅキ,0
1105,5290003015516,新規,0,2024-07-01,2024-07-01,合同会社ツルヤマ,,合同会社,福岡県,福岡市中央区,天神４丁目６－２８天神ファーストビル７階,,40,133,8100001,,,,,,,2024-07-01,1,,,,,ツルヤマ,0
1122,5360005007058,新規,0,2024-07-01,2024-07-01,一般社団法人Ｕｐ‐Ｌａｎｄ,,その他の設立登記法人,沖縄県,国頭郡国頭村,字安波２０６番地,,47,301,9051504,,,,,,,2024-07-01,1,,,,,アップランド,0
1130,5420003002946,新規,0,2024-07-01,2024-07-01,合同会社マルモ商会,,合同会社,青森県,青森市,勝田１丁目２番８号,,02,201,0300821,,,,,,,2024-07-01,1,,,,,マルモショウカイ,0
1133,5430001092138,新規,0,2024-07-01,2024-07-01,株式会社アイアールアシスト,,株式会社,北海道,札幌市白石区,川北一条３丁目９番地２３,,01,104,0030851,,,,,,,2024-07-01,1,,,,,アイアールアシスト,0
1143,5490001010804,新規,0,2024-07-01,2024-07-01,株式会社Ｉ・Ｚ・Ｕ・Ｍ・Ｉ,,株式会社,高知県,高知市,塩田町１４番３３号,,39,201,7800065,,,,,,,2024-07-01,1,,,,,イズミ,0
1144,5490005006947,新規,0,2024-07-01,2024-07-01,一般社団法人ＤＲＥＡＭＳ利活用研究センター,,その他の設立登記法人,高知県,香南市,野市町母代寺３７０番地１１,,39,211,7815222,,,,,,,2024-07-01,1,,,,,ドリームズリカツヨウケンキュウセンター,0
1148,5700150126313,新規,0,2024-07-01,2024-07-01,株式会社ミューズリー,,外国会社等,東京都,新宿区,大久保２丁目１番８号,,13,104,1690072,大韓民国釜山広域市江西区大渚路２７３番キル２５，２階２０１号（大渚１洞，ウェジンガセントラルタワー）,,,,,,2024-07-01,1,,,,,カブシキガイシヤミユーズリー,0
1154,6010003044203,新規,0,2024-07-01,2024-07-01,スフェーンツー合同会社,,合同会社,東京都,中央区,日本橋１丁目４番１号日本橋一丁目ビルディング,,13,102,1030027,,,,,,,2024-07-01,1,,,,,スフェーンツー,0
1158,6010401183379,新規,0,2024-07-01,2024-07-01,曼倫株式会社,,株式会社,東京都,港区,新橋６丁目８番１－３０３号室,,13,103,1050004,,,,,,,2024-07-01,1,,,,,マノ,0
1172,6011001162822,新規,0,2024-07-01,2024-07-01,株式会社セプティリオン,,株式会社,東京都,渋谷区,渋谷２丁目１９番１５号宮益坂ビルディング６０９,,13,113,1500002,,,,,,,2024-07-01,1,,,,,セプティリオン,0
1173,6011001163036,新規,0,2024-07-01,2024-07-01,株式会社マジックボックス,,株式会社,東京都,渋谷区,道玄坂１丁目１０番８号渋谷道玄坂東急ビル２Ｆ－Ｃ,,13,113,1500043,,,,,,,2024-07-01,1,,,,,マジックボックス,0
1174,6011001163052,新規,0,2024-07-01,2024-07-01,株式会社ユリペタル,,株式会社,東京都,渋谷区,幡ヶ谷３丁目２１番２号ＬＩＦＥＭＥＮＴＹＰ３０２,,13,113,1510072,,,,,,,2024-07-01,1,,,,,ユリペタル,0
1175,6011001163077,新規,0,2024-07-01,2024-07-01,株式会社Ｂｅａｃｏｎ,,株式会社,東京都,渋谷区,東１丁目２６－３０ＳＨＩＢＵＹＡＥＡＳＴＢＬＤＧ．６Ｆ,,13,113,1500011,,,,,,,2024-07-01,1,,,,,ビーコン,0
1182,6011101107859,新規,0,2024-07-01,2024-07-01,ＩＳＳＨＩＮ株式会社,,株式会社,東京都,新宿区,新宿７丁目２１番４号ＶＩＰ新宿１０５室,,13,104,1600022,,,,,,,2024-07-01,1,,,,,イッシン,0
1183,6011101107875,新規,0,2024-07-01,2024-07-01,Ｖｏｉｌａ　Ｋ株式会社,,株式会社,東京都,新宿区,百人町２丁目１１－２２－１Ｆ,,13,104,1690073,,,,,,,2024-07-01,1,,,,,ヴォワイラケイ,0
1190,6011503006130,新規,0,2024-07-01,2024-07-01,リアブル合同会社,,合同会社,東京都,北区,浮間１丁目３番１－１１０１号,,13,117,1150051,,,,,,,2024-07-01,1,,,,,リアブル,0
1198,6012801023288,新規,0,2024-07-01,2024-07-01,株式会社Ｊｉｚｏｋｕ,,株式会社,東京都,国立市,東１丁目２０番地の１２ＹＭＣＡ一橋寮３０８号,,13,215,1860002,,,,,,,2024-07-01,1,,,,,ジゾク,0
1207,6020001157922,新規,0,2024-07-01,2024-07-01,ＢｉｏＬｉｆｅＳＣＩ株式会社,,株式会社,神奈川県,川崎市宮前区,有馬４丁目６番１－４０７号,,14,136,2160003,,,,,,,2024-07-01,1,,,,,バイオライフエスシーアイ,0
1210,6020003026423,新規,0,2024-07-01,2024-07-01,合同会社きそん,,合同会社,神奈川県,横浜市南区,六ツ川２丁目６７番地３８,,14,105,2320066,,,,,,,2024-07-01,1,,,,,キソン,0
1211,6020005016471,新規,0,2024-07-01,2024-07-01,一般社団法人Ｊ・ライフ世界藝術院,,その他の設立登記法人,神奈川県,横浜市中区,本町４丁目４３番,,14,104,2310005,,,,,,,2024-07-01,1,,,,,ジェイライフセカイゲイジュツイン,0
1214,6021001082565,新規,0,2024-07-01,2024-07-01,株式会社結,,株式会社,神奈川県,相模原市中央区,鹿沼台２丁目１０－１６第３ＳＫビル８０７,,14,152,2520233,,,,,,,2024-07-01,1,,,,,ユウ,0
1222,6030003024582,新規,0,2024-07-01,2024-07-01,合同会社クウネルアソブ,,合同会社,埼玉県,上尾市,今泉１丁目２７番２３号,,11,219,3620047,,,,,,,2024-07-01,1,,,,,クウネルアソブ,0
1229,6040001134275,新規,0,2024-07-01,2024-07-01,Ｍ’ｓ株式会社,,株式会社,千葉県,八千代市,緑が丘西６丁目１２番地９,,12,221,2760040,,,,,,,2024-07-01,1,,,,,エムズ,0
1230,6040001134283,新規,0,2024-07-01,2024-07-01,株式会社ＴＳＵＮＡＧ,,株式会社,千葉県,柏市,常盤台１６番３８号,,12,217,2770087,,,,,,,2024-07-01,1,,,,,ツナグ,0
1231,6040001134300,新規,0,2024-07-01,2024-07-01,ふみ技研株式会社,,株式会社,千葉県,千葉市花見川区,朝日ケ丘２丁目３番１７棟２０２号,,12,102,2620019,,,,,,,2024-07-01,1,,,,,フミギケン,0
1232,6040001134309,新規,0,2024-07-01,2024-07-01,株式会社ＣｒｅａＴｅｃｈＳｏｌｕｔｉｏｎｓ,,株式会社,千葉県,浦安市,高洲４丁目３―１―２１７,,12,227,2790023,,,,,,,2024-07-01,1,,,,,クレアテックソリューションズ,0
1240,6040003025308,新規,0,2024-07-01,2024-07-01,リズトレーディング合同会社,,合同会社,千葉県,我孫子市,中峠３０６５番地の３６,,12,222,2701121,,,,,,,2024-07-01,1,,,,,リズトレーディング,0
1245,6060001037245,新規,0,2024-07-01,2024-07-01,株式会社シール・テック,,株式会社,栃木県,那須烏山市,藤田１６００番地１５２,,09,215,3210532,,,,,,,2024-07-01,1,,,,,シールテック,0
1246,6060003005134,新規,0,2024-07-01,2024-07-01,東京品創国際合同会社,,合同会社,栃木県,宇都宮市,下栗町１５７３番地９,,09,201,3210923,,,,,,,2024-07-01,1,,,,,トウキョウヒンソウコクサイ,0
1254,6080403005046,新規,0,2024-07-01,2024-07-01,合同会社ｎｏｒｎ．,,合同会社,静岡県,浜松市浜名区,染地台３丁目１６番４４号,,22,139,4340046,,,,,,,2024-07-01,1,,,,,ノルン,0
1261,6100001037595,新規,0,2024-07-01,2024-07-01,株式会社ＡＩＺ,,株式会社,長野県,長野市,上松４丁目１６番１０号コーポいわさき２０１,,20,201,3800802,,,,,,,2024-07-01,1,,,,,アイズ,0
1262,6100003007613,新規,0,2024-07-01,2024-07-01,合同会社ピースピース,,合同会社,長野県,北佐久郡軽井沢町,大字茂沢５０５－７８オナーズヒル軽井沢Ｆ－２１,,20,321,3890114,,,,,,,2024-07-01,1,,,,,ピースピース,0
1266,6110001038519,新規,0,2024-07-01,2024-07-01,株式会社ＳＨＭＹ,,株式会社,新潟県,三条市,興野３丁目１３番２１号,,15,204,9550046,,,,,,,2024-07-01,1,,,,,シミー,0
1269,6110003005434,新規,0,2024-07-01,2024-07-01,夜明けのワイン合同会社,,合同会社,新潟県,佐渡市,吉岡１１６７番地１,,15,224,9520312,,,,,,,2024-07-01,1,,,,,ヨアケノワイン,0
1275,6120001266283,新規,0,2024-07-01,2024-07-01,株式会社ファスルーム．ＪＡＰＡＮ,,株式会社,大阪府,大阪市中央区,博労町３丁目５番１号,,27,128,5410059,,,,,,,2024-07-01,1,,,,,ファスルームジャパン,0
1276,6120001266333,新規,0,2024-07-01,2024-07-01,青竹株式会社,,株式会社,大阪府,大阪市港区,港晴３丁目１番１１－５０３Ｄ,,27,107,5520023,,,,,,,2024-07-01,1,,,,,アオダケ,0
1277,6120001266374,新規,0,2024-07-01,2024-07-01,新陽株式会社,00135360,株式会社,大阪府,大阪市住吉区,殿辻１丁目３番２１号シティハイツ殿辻４０２号室,,27,120,5580042,,,,,,,2024-07-01,1,,,,,シンヨウ,0
1280,6120101069875,新規,0,2024-07-01,2024-07-01,株式会社ＭＷ商事,,株式会社,大阪府,南河内郡千早赤阪村,大字森屋４４７番地,,27,383,5850044,,,,,,,2024-07-01,1,,,,,エムダブリューショウジ,0
1299,6140003020744,新規,0,2024-07-01,2024-07-01,合同会社ｓｏｕｎｄ　ｏｖｅｒｌａｙ,,合同会社,兵庫県,姫路市,安田４丁目６４番地,,28,201,6700955,,,,,,,2024-07-01,1,,,,,サウンドオーバーレイ,0
1300,6140003020752,新規,0,2024-07-01,2024-07-01,合同会社ＴＡＮＡＫＡ,,合同会社,兵庫県,三田市,三田町１５番,,28,219,6691533,,,,,,,2024-07-01,1,,,,,タナカ,0
1306,6160003003219,新規,0,2024-07-01,2024-07-01,合同会社ホームズベーカリー,,合同会社,滋賀県,東近江市,五個荘五位田町３５８－３９,,25,213,5291415,,,,,,,2024-07-01,1,,,,,ホームズベーカリー,0
1319,6180301038781,新規,0,2024-07-01,2024-07-01,丸信商事株式会社,,株式会社,愛知県,豊田市,京ケ峰１丁目１２番地８,,23,211,4710005,,,,,,,2024-07-01,1,,,,,マルシンショウジ,0
1329,6210001019806,新規,0,2024-07-01,2024-07-01,株式会社タナカホールディングス,,株式会社,福井県,福井市,木田町１５０７番地,,18,201,9188106,,,,,,,2024-07-01,1,,,,,タナカホールディングス,0
1331,6220001026066,新規,0,2024-07-01,2024-07-01,株式会社寺西造園,,株式会社,石川県,白山市,白山町２６０番地１１,,17,210,9202115,,,,,,,2024-07-01,1,,,,,テラニシゾウエン,0
1332,6220003003773,新規,0,2024-07-01,2024-07-01,合同会社トータルボディケアＮ,,合同会社,石川県,能美市,荒屋町ニ６８番地,,17,211,9231233,,,,,,,2024-07-01,1,,,,,トータルボディケアエヌ,0
1353,6290001106316,新規,0,2024-07-01,2024-07-01,長元株式会社,,株式会社,福岡県,福岡市早良区,百道浜３丁目９番３３号,,40,137,8140001,,,,,,,2024-07-01,1,,,,,チョウゲン,0
1371,6330003010445,新規,0,2024-07-01,2024-07-01,合同会社ｗｅｌｌ,,合同会社,熊本県,熊本市北区,大窪３丁目４‐１１，ソルジェーレ大窪Ｂ‐２０２,,43,105,8600083,,,,,,,2024-07-01,1,,,,,ウェル,0
1376,6370001051470,新規,0,2024-07-01,2024-07-01,Ｌｉｆｅ　Ｃｒｅａｔｅ株式会社,,株式会社,宮城県,仙台市宮城野区,東仙台２丁目１７番５号,,04,102,9830833,,,,,,,2024-07-01,1,,,,,ライフクリエイト,0
1379,6370005010811,新規,0,2024-07-01,2024-07-01,医療法人一葉会,,その他の設立登記法人,宮城県,東松島市,矢本字大溜２５番地１,,04,214,9810503,,,,,,,2024-07-01,1,,,,,イチヨウカイ,0
1390,6400001016692,新規,0,2024-07-01,2024-07-01,一戸コンクリート株式会社,,株式会社,岩手県,二戸郡一戸町,西法寺字西法寺１３３番地２１,,03,524,0285301,,,,,,,2024-07-01,1,,,,,,0
1395,6420003002945,新規,0,2024-07-01,2024-07-01,合同会社金行弘前,,合同会社,青森県,弘前市,大字富士見町１６番地１４,,02,202,0368223,,,,,,,2024-07-01,1,,,,,カネユキヒロサキ,0
1405,6430001092137,新規,0,2024-07-01,2024-07-01,フェニックスコンサルティング株式会社,,株式会社,北海道,札幌市豊平区,西岡四条１丁目２番１－５０２号,,01,105,0620034,,,,,,,2024-07-01,1,,,,,フェニックスコンサルティング,0
1406,6430001092145,新規,0,2024-07-01,2024-07-01,株式会社福徳産業,,株式会社,北海道,石狩市,新港南１丁目１９番地６０,,01,235,0613244,,,,,,,2024-07-01,1,,,,,フクトクサンギョウ,0
1412,6450001014353,新規,0,2024-07-01,2024-07-01,株式会社アグリポートカトー,,株式会社,北海道,上川郡当麻町,四条東４丁目５番１９号,,01,454,0781314,,,,,,,2024-07-01,1,,,,,アグリポートカトー,0
1425,7010001246139,新規,0,2024-07-01,2024-07-01,株式会社Ｒｅｔｒｅａｔ,,株式会社,東京都,中央区,日本橋横山町５－８横山町奉仕会館２Ｆ,,13,102,1030003,,,,,,,2024-07-01,1,,,,,リトリート,0
1426,7010001246147,新規,0,2024-07-01,2024-07-01,株式会社ミカドワーク,,株式会社,東京都,中央区,銀座７丁目１７番１８号,,13,102,1040061,,,,,,,2024-07-01,1,,,,,ミカドワーク,0
1430,7010003044111,新規,0,2024-07-01,2024-07-01,エグゼドライブ合同会社,,合同会社,東京都,中央区,銀座１丁目１２－４Ｎ＆ＥＢＬＤ．７階,,13,102,1040061,,,,,,,2024-07-01,1,,,,,エグゼドライブ,0
1431,7010003044177,新規,0,2024-07-01,2024-07-01,合同会社ＤＡＲＥＤＯ,,合同会社,東京都,中央区,東日本橋３丁目９番５－１２０１号,,13,102,1030004,,,,,,,2024-07-01,1,,,,,デアドゥ,0
1432,7010003044193,新規,0,2024-07-01,2024-07-01,合同会社ＥＳＳ１号,,合同会社,東京都,中央区,日本橋浜町２丁目７番１号小田ビル３Ｆ,,13,102,1030007,,,,,,,2024-07-01,1,,,,,イーエスエスイチゴウ,0
1433,7010003044202,新規,0,2024-07-01,2024-07-01,パールツー合同会社,,合同会社,東京都,中央区,日本橋１丁目４番１号日本橋一丁目ビルディング,,13,102,1030027,,,,,,,2024-07-01,1,,,,,パールツー,0
1441,7010401183452,新規,0,2024-07-01,2024-07-01,アンテールジャパンホールディングス株式会社,,株式会社,東京都,港区,芝浦２丁目４番６－１００７号,,13,103,1080023,,,,,,,2024-07-01,1,,,,,アンテールジャパンホールディングス,0
1444,7010403032921,新規,0,2024-07-01,2024-07-01,ＦＩＧＵＥ合同会社,,合同会社,東京都,港区,港南３丁目５番１０－２２１０号,,13,103,1080075,,,,,,,2024-07-01,1,,,,,フィグ,0
1446,7010405023308,新規,0,2024-07-01,2024-07-01,スマートハイムシティ成田ＮＴ団地管理組合法人,,その他の設立登記法人,東京都,港区,虎ノ門２丁目１０－４,,13,103,1050001,,,,,,,2024-07-01,1,,,,,スマートハイムシティナリタニュータウン,0
1457,7010901055465,新規,0,2024-07-01,2024-07-01,株式会社エミヒコ,,株式会社,東京都,世田谷区,玉川２丁目２６番２３号クレードル二子玉川園２０８,,13,112,1580094,,,,,,,2024-07-01,1,,,,,エミヒコ,0
1469,7011001163002,新規,0,2024-07-01,2024-07-01,株式会社ｄ．,,株式会社,東京都,渋谷区,道玄坂１丁目１０番８号渋谷道玄坂東急ビル２Ｆ－Ｃ,,13,113,1500043,,,,,,,2024-07-01,1,,,,,ディードット,0
1470,7011003019482,新規,0,2024-07-01,2024-07-01,合同会社Ｉｎｓａｎｅ,,合同会社,東京都,渋谷区,渋谷２丁目１９－１５宮益坂ビルディング６０９,,13,113,1500002,,,,,,,2024-07-01,1,,,,,インセイン,0
1471,7011003019490,新規,0,2024-07-01,2024-07-01,合同会社Ｃｒｅｗｓ,,合同会社,東京都,渋谷区,渋谷２丁目１９－１５宮益坂ビルディング６０９,,13,113,1500002,,,,,,,2024-07-01,1,,,,,クルーズ,0
1473,7011201025596,新規,0,2024-07-01,2024-07-01,株式会社やまいち,,株式会社,東京都,中野区,本町３丁目６番３号,,13,114,1640012,,,,,,,2024-07-01,1,,,,,ヤマイチ,0
1475,7011503006105,新規,0,2024-07-01,2024-07-01,合同会社スモール,,合同会社,東京都,北区,豊島１丁目２９番１号,,13,117,1140003,,,,,,,2024-07-01,1,,,,,スモール,0
1479,7012303002013,新規,0,2024-07-01,2024-07-01,合同会社ＹＯＮＥコンサルティング,,合同会社,東京都,町田市,野津田町１３５７番地１,,13,209,1950063,,,,,,,2024-07-01,1,,,,,ヨネコンサルティング,0
1498,7020001157938,新規,0,2024-07-01,2024-07-01,株式会社ＴＮＳアセットマネジメント,,株式会社,神奈川県,横浜市西区,みなとみらい３丁目６番４号,,14,103,2200012,,,,,,,2024-07-01,1,,,,,ティーエヌエスアセットマネジメント,0
1499,7020001157954,新規,0,2024-07-01,2024-07-01,株式会社ＦＦＣワークス,,株式会社,神奈川県,横浜市中区,末吉町３丁目５０番地７－４０２,,14,104,2310055,,,,,,,2024-07-01,1,,,,,エフエフシーワークス,0
1501,7020005016470,新規,0,2024-07-01,2024-07-01,一般社団法人ＡＳグローバルゴルフ,,その他の設立登記法人,神奈川県,川崎市川崎区,京町１丁目１６番１９号,,14,131,2100848,,,,,,,2024-07-01,1,,,,,エイエスグローバルゴルフ,0
1514,7030001161179,新規,0,2024-07-01,2024-07-01,小倉株式会社,,株式会社,埼玉県,川口市,並木３丁目２番１６号,,11,203,3320034,,,,,,,2024-07-01,1,,,,,オグラ,0
1521,7040001134183,新規,0,2024-07-01,2024-07-01,東盛商事株式会社,,株式会社,千葉県,千葉市美浜区,磯辺４丁目１９番６号,,12,106,2610012,,,,,,,2024-07-01,1,,,,,トウセイショウジ,0
1522,7040001134266,新規,0,2024-07-01,2024-07-01,株式会社鳶弘興業,,株式会社,千葉県,市原市,うるいど南３丁目２番地８６,,12,219,2900170,,,,,,,2024-07-01,1,,,,,トビヒロコウギョウ,0
1523,7040001134274,新規,0,2024-07-01,2024-07-01,株式会社ライスモア,,株式会社,千葉県,流山市,おおたかの森北３丁目４６番地の１５,,12,220,2700119,,,,,,,2024-07-01,1,,,,,ライスモア,0
1524,7040001134282,新規,0,2024-07-01,2024-07-01,株式会社辻澤幸業,00135362,株式会社,千葉県,野田市,桜の里３丁目２６番地の２,,12,208,2780048,,,,,,,2024-07-01,1,,,,,ツジサワコウギョウ,0
1538,7080101024850,新規,0,2024-07-01,2024-07-01,株式会社ＡＧ,,株式会社,静岡県,富士市,厚原６７番地２,,22,210,4190201,,,,,,,2024-07-01,1,,,,,エージー,0
1547,7080403005045,新規,0,2024-07-01,2024-07-01,合同会社ＭＩＫＡＭＩ,,合同会社,静岡県,袋井市,新池４２４番地の３,,22,216,4370043,,,,,,,2024-07-01,1,,,,,ミカミ,0
1555,7120001266258,新規,0,2024-07-01,2024-07-01,株式会社響く,,株式会社,大阪府,大阪市都島区,東野田町１丁目１１番１４号エスリード京橋グラセント１３０１,,27,102,5340024,,,,,,,2024-07-01,1,,,,,ヒビク,0
1557,7120003026949,新規,0,2024-07-01,2024-07-01,合同会社Ｌｉｖｅ　ｆｒｅｅｌｙ,,合同会社,大阪府,大阪市北区,西天満４丁目１５番１８号,,27,127,5300047,,,,,,,2024-07-01,1,,,,,ライブフリーリー,0
1558,7120005024397,新規,0,2024-07-01,2024-07-01,一般社団法人ネモフィラ,,その他の設立登記法人,大阪府,大阪市大正区,三軒家東１丁目５番１２号権藤マンション３階,,27,108,5510002,,,,,,,2024-07-01,1,,,,,ネモフィラ,0
1563,7120101069882,新規,0,2024-07-01,2024-07-01,ＫＣＳ株式会社,,株式会社,大阪府,堺市北区,北花田町２丁２３５番地８,,27,146,5918002,,,,,,,2024-07-01,1,,,,,ケーシーエス,0
1565,7120901049357,新規,0,2024-07-01,2024-07-01,Ｋ．Ｓ株式会社,,株式会社,大阪府,茨木市,玉櫛２丁目２６番１号,,27,211,5670895,,,,,,,2024-07-01,1,,,,,ケーエス,0
1576,7160003003218,新規,0,2024-07-01,2024-07-01,合同会社ヒカリ,,合同会社,滋賀県,近江八幡市,南津田町１３６番地,,25,204,5230085,,,,,,,2024-07-01,1,,,,,ヒカリ,0
1588,7180303006166,新規,0,2024-07-01,2024-07-01,スタイリッシュリビング合同会社,,合同会社,愛知県,みよし市,三好町中鯰ヶ池８８番地の１,,23,236,4700224,,,,,,,2024-07-01,1,,,,,スタイリッシュリビング,0
1593,7200001042642,新規,0,2024-07-01,2024-07-01,キュウロク企画株式会社,,株式会社,岐阜県,可児市,皐ケ丘５丁目７８番地,,21,214,5090236,,,,,,,2024-07-01,1,,,,,キュウロクキカク,0
1597,7210001019805,新規,0,2024-07-01,2024-07-01,金石貿易株式会社,,株式会社,福井県,三方上中郡若狭町,上野６号２３番地の１,,18,501,9191321,,,,,,,2024-07-01,1,,,,,キンセキボウエキ,0
1604,7240001063445,新規,0,2024-07-01,2024-07-01,株式会社Ｓ＆Ｆ,,株式会社,広島県,広島市安佐南区,長楽寺１丁目２番２号,,34,105,7310143,,,,,,,2024-07-01,1,,,,,エスアンドエフ,0
1610,7280005007618,新規,0,2024-07-01,2024-07-01,一般社団法人やくも日吉,,その他の設立登記法人,島根県,松江市,八雲町日吉１５１番地２,,32,201,6902101,,,,,,,2024-07-01,1,,,,,ヤクモヒヨシ,0
1617,7290003015514,新規,0,2024-07-01,2024-07-01,Ｈ＆Ｋ合同会社,,合同会社,福岡県,福岡市早良区,高取２丁目１７番４３－９０３号,,40,137,8140011,,,,,,,2024-07-01,1,,,,,エイチアンドケー,0
1623,7290803004765,新規,0,2024-07-01,2024-07-01,合同会社Ｌｕｌｉａ,,合同会社,福岡県,北九州市小倉南区,南方２丁目１１番３７－３０２号,,40,107,8020976,,,,,,,2024-07-01,1,,,,,ルーリア,0
1634,7370001051453,新規,0,2024-07-01,2024-07-01,株式会社アイ・エイチ・イー,,株式会社,宮城県,仙台市泉区,桂４丁目１３番地の５,,04,105,9813134,,,,,,,2024-07-01,1,,,,,アイエイチイー,0
1650,7430001092136,新規,0,2024-07-01,2024-07-01,株式会社ヤマスイ小川シーフーズ,,株式会社,北海道,伊達市,北黄金町１９番地１,,01,233,0590272,,,,,,,2024-07-01,1,,,,,ヤマスイオガワシーフーズ,0
1651,7430001092144,新規,0,2024-07-01,2024-07-01,株式会社ＷＳＨ,,株式会社,北海道,札幌市中央区,南十五条西７丁目２番１１－４０３号,,01,101,0640915,,,,,,,2024-07-01,1,,,,,ダブリューエスエイチ,0
1655,7430003016497,新規,0,2024-07-01,2024-07-01,合同会社北の都,,合同会社,北海道,札幌市中央区,北一条西１０丁目１番地１１原田ビル５０５号室,,01,101,0600001,,,,,,,2024-07-01,1,,,,,キタノミヤコ,0
1659,7450001014352,新規,0,2024-07-01,2024-07-01,株式会社鎌田ファーム,,株式会社,北海道,富良野市,字東山９５７番地２,,01,229,0760202,,,,,,,2024-07-01,1,,,,,カマダファーム,0
1663,7480001012519,新規,0,2024-07-01,2024-07-01,徳島砂利株式会社,,株式会社,徳島県,板野郡板野町,大寺字岡ノ前１４７番地１,,36,404,7790105,,,,,,,2024-07-01,1,,,,,,0
1667,7700150126311,新規,0,2024-07-01,2024-07-01,北浜土地改良区,,その他,滋賀県,大津市,和邇北浜１２１,,25,201,5200521,,,,,,,2024-07-01,1,,,,,キタハマトチカイリョウク,0
1678,8010003044184,新規,0,2024-07-01,2024-07-01,合同会社Ｅａｓｔ　Ｂｌｕｅ３,,合同会社,東京都,千代田区,一ツ橋２丁目６番３号アクシスインベストメントアドバイザーズ株式会社内,,13,101,1010003,,,,,,,2024-07-01,1,,,,,イーストブルースリー,0
1679,8010003044192,新規,0,2024-07-01,2024-07-01,合同会社ＵＵＵ,,合同会社,東京都,八丈島八丈町,三根１６７１番地２,,13,401,1001511,,,,,,,2024-07-01,1,,,,,ユーユーユー,0
1680,8010003044201,新規,0,2024-07-01,2024-07-01,エメラルドツー合同会社,,合同会社,東京都,中央区,日本橋１丁目４番１号日本橋一丁目ビルディング,,13,102,1030027,,,,,,,2024-07-01,1,,,,,エメラルドツー,0
1688,8010401183435,新規,0,2024-07-01,2024-07-01,株式会社イコール,,株式会社,東京都,港区,南青山２丁目４番１５号,,13,103,1070062,,,,,,,2024-07-01,1,,,,,イコール,0
1689,8010401183476,新規,0,2024-07-01,2024-07-01,株式会社ランドマーク,,株式会社,東京都,港区,海岸１丁目１４番１７－１１０９号,,13,103,1050022,,,,,,,2024-07-01,1,,,,,ランドマーク,0
1694,8010801035178,新規,0,2024-07-01,2024-07-01,株式会社３Ｋｉｉｔｏｓ,,株式会社,東京都,大田区,本羽田１丁目３１番５‐９０１号,,13,111,1440044,,,,,,,2024-07-01,1,,,,,スリーキートス,0
1699,8011001163042,新規,0,2024-07-01,2024-07-01,株式会社メタアイドルバース,,株式会社,東京都,渋谷区,道玄坂１丁目１０番８号渋谷道玄坂東急ビル２Ｆ－Ｃ,,13,113,1500043,,,,,,,2024-07-01,1,,,,,メタアイドルバース,0
1700,8011001163050,新規,0,2024-07-01,2024-07-01,株式会社ＥＭＭＡＮＮＡ,,株式会社,東京都,渋谷区,鶯谷町１３番１号ラ・トゥール代官山Ｇ－５０３,,13,113,1500032,,,,,,,2024-07-01,1,,,,,エマナ,0
1702,8011003019481,新規,0,2024-07-01,2024-07-01,合同会社ＶｉＳｉＯＮＡｉＲＥ,,合同会社,東京都,目黒区,原町２丁目１７番２０号メイフェア２０２号室,,13,110,1520011,,,,,,,2024-07-01,1,,,,,ヴィジョネア,0
1703,8011101107881,新規,0,2024-07-01,2024-07-01,株式会社トライノット,,株式会社,東京都,新宿区,西新宿３丁目３番１３号西新宿水間ビル６階,,13,104,1600023,,,,,,,2024-07-01,1,,,,,トライノット,0
1704,8011101107898,新規,0,2024-07-01,2024-07-01,株式会社紀州ホールディングス,,株式会社,東京都,新宿区,西新宿１丁目２５番１号新宿センタービル４９階,,13,104,1600023,,,,,,,2024-07-01,1,,,,,キシュウホールディングス,0
1718,8011601027860,新規,0,2024-07-01,2024-07-01,株式会社工藤,,株式会社,東京都,練馬区,南田中１丁目２－１４,,13,120,1770035,,,,,,,2024-07-01,1,,,,,クドウ,0
1721,8011801044458,新規,0,2024-07-01,2024-07-01,株式会社Ｈａｒｅｒｕｓａ,,株式会社,東京都,足立区,本木北町３－１７,,13,121,1230857,,,,,,,2024-07-01,1,,,,,ハレルサ,0
1723,8012701018329,新規,0,2024-07-01,2024-07-01,ＴＥＮＴ株式会社,,株式会社,東京都,清瀬市,松山１丁目４１－１８－２０５,,13,221,2040022,,,,,,,2024-07-01,1,,,,,テント,0
1732,8020001157929,新規,0,2024-07-01,2024-07-01,株式会社ぎゅっとＬＩＦＥ,,株式会社,神奈川県,横浜市神奈川区,西寺尾３丁目８番１８号,,14,102,2210001,,,,,,,2024-07-01,1,,,,,ギュットライフ,0
1733,8020001157945,新規,0,2024-07-01,2024-07-01,株式会社ＥＦＦＥ　ＡＣＣＡ,,株式会社,神奈川県,川崎市多摩区,栗谷３丁目９－１１リヴェーラ２０５,,14,135,2140039,,,,,,,2024-07-01,1,,,,,エッフェアッカ,0
1745,8030001161194,新規,0,2024-07-01,2024-07-01,株式会社ペペ・ペイントにゃんズ,,株式会社,埼玉県,加須市,琴寄７８５番地４,,11,210,3491133,,,,,,,2024-07-01,1,,,,,ペペペイントニャンズ,0
1749,8040001134249,新規,0,2024-07-01,2024-07-01,株式会社キャンバス,,株式会社,千葉県,船橋市,芝山３丁目１番７号,,12,204,2740816,,,,,,,2024-07-01,1,,,,,キャンバス,0
1755,8050003008490,新規,0,2024-07-01,2024-07-01,合同会社黒電設,,合同会社,茨城県,つくば市,高見原４丁目６－５８,,08,220,3001252,,,,,,,2024-07-01,1,,,,,クロデンセツ,0
1759,8060001037235,新規,0,2024-07-01,2024-07-01,ビルドアップ株式会社,,株式会社,栃木県,宇都宮市,御幸ケ原町２３４番地５０,,09,201,3210982,,,,,,,2024-07-01,1,,,,,ビルドアップ,0
1766,8090001018793,新規,0,2024-07-01,2024-07-01,株式会社ＭＳ・エクセルハウス,,株式会社,山梨県,甲府市,里吉１丁目１０番５号,,19,201,4000822,,,,,,,2024-07-01,1,,,,,エムエスエクセルハウス,0
1769,8100003007628,新規,0,2024-07-01,2024-07-01,合同会社ＹＵＩＮＥＳＳ,,合同会社,長野県,東御市,海善寺７１７－１,,20,219,3890504,,,,,,,2024-07-01,1,,,,,ユイネス,0
1770,8110001038517,新規,0,2024-07-01,2024-07-01,株式会社カルテット本山,,株式会社,新潟県,上越市,東城町２丁目１番３０号,,15,222,9430836,,,,,,,2024-07-01,1,,,,,カルテットモトヤマ,0
1780,8120001266323,新規,0,2024-07-01,2024-07-01,株式会社フィメール,,株式会社,大阪府,大阪市西区,立売堀１丁目６番１３号３０４,,27,106,5500012,,,,,,,2024-07-01,1,,,,,フィメール,0
1781,8120001266348,新規,0,2024-07-01,2024-07-01,株式会社ＮＥＸＴ,,株式会社,大阪府,大阪市天王寺区,東上町６番１３－２０５号,,27,109,5430026,,,,,,,2024-07-01,1,,,,,ネクスト,0
1782,8120001266356,新規,0,2024-07-01,2024-07-01,株式会社３８,,株式会社,大阪府,寝屋川市,池田３丁目６番３７号,,27,215,5720039,,,,,,,2024-07-01,1,,,,,サヤ,0
1787,8120101069865,新規,0,2024-07-01,2024-07-01,中通長湾株式会社,,株式会社,大阪府,阪南市,尾崎町５丁目８－２１,,27,232,5990201,,,,,,,2024-07-01,1,,,,,チュウツウチョウワン,0
1794,8140001134924,新規,0,2024-07-01,2024-07-01,昭昭国際株式会社,,株式会社,兵庫県,神戸市灘区,灘南通１丁目２番２５－５０４号,,28,102,6570841,,,,,,,2024-07-01,1,,,,,アキラコクサイ,0
1795,8140001134940,新規,0,2024-07-01,2024-07-01,株式会社リリース,,株式会社,兵庫県,伊丹市,昆陽池１丁目５３番１号,,28,207,6640015,,,,,,,2024-07-01,1,,,,,リリース,0
1796,8140001134949,新規,0,2024-07-01,2024-07-01,株式会社ＬＡＴＩＹＡ　ＭＩＫＩ,,株式会社,兵庫県,神戸市西区,神出町五百蔵８７番地の１,,28,111,6512303,,,,,,,2024-07-01,1,,,,,,0
1813,8200001042633,新規,0,2024-07-01,2024-07-01,株式会社セイリュウ,,株式会社,岐阜県,多治見市,脇之島町７丁目１０番地の１１,,21,204,5070826,,,,,,,2024-07-01,1,,,,,セイリュウ,0
1817,8200003006405,新規,0,2024-07-01,2024-07-01,合同会社ＬｉｆｅＧｏｅｓＯｎ,,合同会社,岐阜県,高山市,七日町２丁目１１６－１,,21,203,5060005,,,,,,,2024-07-01,1,,,,,ライフゴーズオン,0
1830,8280001009204,新規,0,2024-07-01,2024-07-01,株式会社Ｒ＆Ｍ,,株式会社,島根県,出雲市,神西沖町２５４６番地３０,,32,203,6990822,,,,,,,2024-07-01,1,,,,,アールアンドエム,0
1844,8290803004764,新規,0,2024-07-01,2024-07-01,アナスタシア英会話合同会社,,合同会社,福岡県,北九州市門司区,上藤松２丁目７番１８号,,40,101,8000044,,,,,,,2024-07-01,1,,,,,アナスタシアエイカイワ,0
1848,8320001020560,新規,0,2024-07-01,2024-07-01,株式会社ＦＯＲＹ,,株式会社,大分県,大分市,大字東明野１３８５番地の１３,,44,201,8700151,,,,,,,2024-07-01,1,,,,,,0
1853,8350001019039,新規,0,2024-07-01,2024-07-01,株式会社ＳＣＳ‐ユニバース,,株式会社,宮崎県,宮崎市,大字熊野６２９番地１,,45,201,8892151,,,,,,,2024-07-01,1,,,,,エスシーエスユニバース,0
1856,8360001033872,新規,0,2024-07-01,2024-07-01,大光産業株式会社,,株式会社,沖縄県,豊見城市,字平良１０２番地１,,47,212,9010212,,,,,,,2024-07-01,1,,,,,オオミツサンギョウ,0
1858,8360003013939,新規,0,2024-07-01,2024-07-01,合同会社ウブシケ,,合同会社,沖縄県,八重山郡竹富町,字鳩間４９,,47,381,9071544,,,,,,,2024-07-01,1,,,,,ウブシケ,0
1859,8360003014103,新規,0,2024-07-01,2024-07-01,宮古島蜂蜜合同会社,,合同会社,沖縄県,宮古島市,下地字来間１２６番地３,,47,214,9060306,,,,,,,2024-07-01,1,,,,,ミヤコジマハチミツ,0
1865,8380001034638,新規,0,2024-07-01,2024-07-01,株式会社本多塗装,,株式会社,福島県,耶麻郡猪苗代町,字諏訪東６７４６番地,,07,408,9693103,,,,,,,2024-07-01,1,,,,,ホンダトソウ,0
1880,8430001092143,新規,0,2024-07-01,2024-07-01,維明株式会社,,株式会社,北海道,余市郡仁木町,北町１丁目６－２５・６－２８,,01,407,0482405,,,,,,,2024-07-01,1,,,,,イメイ,0
1881,8450005004415,新規,0,2024-07-01,2024-07-01,一般社団法人ＳＧＳ管財,,その他の設立登記法人,北海道,旭川市,川端町六条１０丁目１番２号,,01,204,0700816,,,,,,,2024-07-01,1,,,,,エスジーエスカンザイ,0
1887,8700150126310,新規,0,2024-07-01,2024-07-01,ＨＯＮＧ　ＫＯＮＧ　ＦＵＴＵＲＥ　ＥＬＥＭＥＮＴ　ＴＥＣＨＮＯＬＯＧＹ　ＣＯ．，ＬＩＭＩＴＥＤ,,外国会社等,,,,,,,,ＯＦＦＩＣＥ　５，８／Ｆ，ＭＥＧＡ　ＣＵＢＥ，８　ＷＡＮＧ　ＫＷＯＮＧ　ＲＯＡＤ，ＫＯＷＬＯＯＮ　ＢＡＹ，ＫＯＷＬＯＯＮ，ＨＯＮＧ　ＫＯＮＧ,,,,,,2024-07-01,1,,,,,シャンガンウェイライユエンスーコージーヨウシエンゴンスー,0
1898,9010003044200,新規,0,2024-07-01,2024-07-01,モルガナイトツー合同会社,,合同会社,東京都,中央区,日本橋１丁目４番１号日本橋一丁目ビルディング,,13,102,1030027,,,,,,,2024-07-01,1,,,,,モルガナイトツー,0
1904,9010401183384,新規,0,2024-07-01,2024-07-01,株式会社ＭＡＹＯ,,株式会社,東京都,港区,西麻布４丁目２番９号,,13,103,1060031,,,,,,,2024-07-01,1,,,,,マヨ,0
1906,9010403032878,新規,0,2024-07-01,2024-07-01,合同会社Ｃｒｅａｔｉｖｅ３,,合同会社,東京都,港区,芝浦４丁目１９番１－１９０４号,,13,103,1080023,,,,,,,2024-07-01,1,,,,,クリエイティブスリー,0
1907,9010403032894,新規,0,2024-07-01,2024-07-01,合同会社ＴＶＢＪ,,合同会社,東京都,港区,六本木２丁目２番１１－１２０１号,,13,103,1060032,,,,,,,2024-07-01,1,,,,,ティーブイビージェイ,0
1911,9010501052522,新規,0,2024-07-01,2024-07-01,株式会社レビュナビ,,株式会社,東京都,台東区,浅草橋５丁目８番１１号,,13,106,1110053,,,,,,,2024-07-01,1,,,,,レビュナビ,0
1913,9010505003538,新規,0,2024-07-01,2024-07-01,イーグルライズエナジー一般社団法人,,その他の設立登記法人,東京都,台東区,上野３丁目２番１号,,13,106,1100005,,,,,,,2024-07-01,1,,,,,イーグルライズエナジー,0
1916,9010705003643,新規,0,2024-07-01,2024-07-01,一般社団法人歯科医師経営支援機構,,その他の設立登記法人,東京都,品川区,大井１丁目５５番６号,,13,109,1400014,,,,,,,2024-07-01,1,,,,,シカイシケイエイシエンキコウ,0
1926,9011001162951,新規,0,2024-07-01,2024-07-01,株式会社Ｐ‐ｉｎｔｏ,,株式会社,東京都,渋谷区,代々木３丁目３１－１２－１－１０１,,13,113,1510053,,,,,,,2024-07-01,1,,,,,ピント,0
1929,9011003019480,新規,0,2024-07-01,2024-07-01,今乃世護合同会社,,合同会社,東京都,渋谷区,富ヶ谷２丁目２０番１６号上永ビル２階,,13,113,1510063,,,,,,,2024-07-01,1,,,,,コンノセイゴ,0
1933,9011101107880,新規,0,2024-07-01,2024-07-01,東信株式会社,,株式会社,東京都,新宿区,高田馬場３丁目３６－５,,13,104,1690075,,,,,,,2024-07-01,1,,,,,トウシン,0
1934,9011103014613,新規,0,2024-07-01,2024-07-01,合同会社ＨＡＩ　ＹＥＮ,,合同会社,東京都,新宿区,百人町１丁目１７－６,,13,104,1690073,,,,,,,2024-07-01,1,,,,,ハイイエン,0
1935,9011301029792,新規,0,2024-07-01,2024-07-01,還山株式会社,,株式会社,東京都,杉並区,高円寺南３丁目１５－９ニットーダイヤモンドハイツ１０１号室,,13,115,1660003,,,,,,,2024-07-01,1,,,,,,0
1936,9011303005222,新規,0,2024-07-01,2024-07-01,合同会社ＳＯＡＲ,,合同会社,東京都,杉並区,天沼２丁目３５－６ヴェルディ宝山１１号室,,13,115,1670032,,,,,,,2024-07-01,1,,,,,,0
1940,9011801044457,新規,0,2024-07-01,2024-07-01,株式会社Ｎｉｋｏｌａ,,株式会社,東京都,葛飾区,奥戸５丁目１９番１号,,13,122,1240022,,,,,,,2024-07-01,1,,,,,ニコラ,0
1952,9020001157944,新規,0,2024-07-01,2024-07-01,株式会社ＨＯＮ,,株式会社,神奈川県,横浜市西区,浅間台１２９番地１フレンドポート横浜第８－３０２号室,,14,103,2200071,,,,,,,2024-07-01,1,,,,,ホン,0
1953,9020001157952,新規,0,2024-07-01,2024-07-01,株式会社Ｄａｙｄｒｅａｍ,,株式会社,神奈川県,川崎市川崎区,大島３丁目１３番２号,,14,131,2100834,,,,,,,2024-07-01,1,,,,,デイドリーム,0
1956,9020003026420,新規,0,2024-07-01,2024-07-01,合同会社Ｉｄｅａｌ,,合同会社,神奈川県,横浜市中区,桜木町１丁目１－７ヒューリックみなとみらい１０階,,14,104,2310062,,,,,,,2024-07-01,1,,,,,アイデアル,0
1960,9020005016469,新規,0,2024-07-01,2024-07-01,特定非営利活動法人食・支援ネット,,その他の設立登記法人,神奈川県,横浜市金沢区,大川７番６‐７２３号,,14,108,2360043,,,,,,,2024-07-01,1,,,,,ショクシエンネット,0
1969,9021003014687,新規,0,2024-07-01,2024-07-01,合同会社ＢＥＹＯＮＤ,,合同会社,神奈川県,秦野市,西田原２３０番地－１０２号,,14,211,2570027,,,,,,,2024-07-01,1,,,,,ビヨンド,0
1970,9021003014695,新規,0,2024-07-01,2024-07-01,ＡＫ　ＡＵＴＯ　ＴＲＡＤＩＮＧ合同会社,,合同会社,神奈川県,座間市,南栗原５丁目１５－７パールエリア１０１,,14,216,2520015,,,,,,,2024-07-01,1,,,,,エケオートトレーディング,0
1989,9040003025271,新規,0,2024-07-01,2024-07-01,合同会社Ｗｉｌｌｏｗｓ,,合同会社,千葉県,千葉市中央区,中央２丁目８番２号ヒューリックレジデンス千葉中央７０３号,,12,101,2600013,,,,,,,2024-07-01,1,,,,,ウィローズ,0
1990,9040005022440,新規,0,2024-07-01,2024-07-01,一般社団法人セルフメディケーション推進学会,,その他の設立登記法人,千葉県,千葉市中央区,要町１４番４号,,12,101,2600017,,,,,,,2024-07-01,1,,,,,セルフメディケーションスイシンガッカイ,0
1993,9050001055022,新規,0,2024-07-01,2024-07-01,株式会社ＴＭネットワーク,,株式会社,茨城県,つくば市,吾妻１丁目５－７ダイワロイネットホテルつくばビル２階,,08,220,3050031,,,,,,,2024-07-01,1,,,,,ティエムネットワーク,0
1995,9050005013463,新規,0,2024-07-01,2024-07-01,一般社団法人日立中央ライオンズクラブ,,その他の設立登記法人,茨城県,日立市,西成沢町２丁目２０－１ＭＣＯ１０４,,08,202,3160032,,,,,,,2024-07-01,1,,,,,ヒタチチュウオウライオンズクラブ,0
1997,9060001037234,新規,0,2024-07-01,2024-07-01,株式会社アイ・ハーベスト,,株式会社,栃木県,大田原市,浅香１丁目１０番２３号,,09,210,3240043,,,,,,,2024-07-01,1,,,,,アイハーベスト,0
2011,9120001266322,新規,0,2024-07-01,2024-07-01,華日商事株式会社,,株式会社,大阪府,大阪市西成区,千本中１丁目１５番５号ハイツすずらんパートＩＩ－１０３号室,00135374,27,122,5570054,,,,,,,2024-07-01,1,,,,,カニチショウジ,0
2014,9120003026947,新規,0,2024-07-01,2024-07-01,合同会社ＳＯＥ,,合同会社,大阪府,大阪市中央区,徳井町１丁目３番８号３０２号室,,27,128,5400025,,,,,,,2024-07-01,1,,,,,エスオーイー,0
2019,9120101069856,新規,0,2024-07-01,2024-07-01,株式会社池内美装,,株式会社,大阪府,和泉市,一条院町７７－１ウィリング一条院１０７,,27,219,5940054,,,,,,,2024-07-01,1,,,,,イケウチビソウ,0
2020,9120101069872,新規,0,2024-07-01,2024-07-01,株式会社ＳＡＫＡＩ　ＫＡＲＡ　ＳＥＫＡＩＥ,,株式会社,大阪府,堺市南区,豊田７２３番地１４,,27,145,5900106,,,,,,,2024-07-01,1,,,,,サカイカラセカイエ,0
2038,9140001134923,新規,0,2024-07-01,2024-07-01,株式会社エンパイアホールディングス,,株式会社,兵庫県,神戸市須磨区,桜の杜１丁目１３番１４号,,28,107,6540114,,,,,,,2024-07-01,1,,,,,エンパイアホールディングス,0
2039,9140001134948,新規,0,2024-07-01,2024-07-01,ａ電気工事株式会社,,株式会社,兵庫県,神戸市垂水区,南多聞台４丁目３－３,,28,108,6550043,,,,,,,2024-07-01,1,,,,,エーデンキコウジ,0
2046,9180001162103,新規,0,2024-07-01,2024-07-01,株式会社フジデンキ,,株式会社,愛知県,犬山市,大字犬山字上時迫間１番地の１１,,23,215,4840081,,,,,,,2024-07-01,1,,,,,フジデンキ,0
2048,9180005020678,新規,0,2024-07-01,2024-07-01,特定非営利活動法人グローバル教育支援協会,,その他の設立登記法人,愛知県,名古屋市名東区,天神下１２５番地市営天神下荘３棟３０３号,,23,115,4650009,,,,,,,2024-07-01,1,,,,,グローバルキョウイクシエンキョウカイ,0
2050,9200003006404,新規,0,2024-07-01,2024-07-01,合同会社ＢＴＣ,,合同会社,岐阜県,関市,西田原１０６２番地３,,21,205,5013928,,,,,,,2024-07-01,1,,,,,ビーティーシー,0
2056,9210001019803,新規,0,2024-07-01,2024-07-01,株式会社ＳｉＺＥＮＴＯ,,株式会社,福井県,福井市,高柳３丁目１３０１番地１,,18,201,9100837,,,,,,,2024-07-01,1,,,,,シゼント,0
2075,9290001106305,新規,0,2024-07-01,2024-07-01,株式会社スケールメディア,,株式会社,福岡県,福岡市早良区,飯倉３丁目３８番２０号,,40,137,8140161,,,,,,,2024-07-01,1,,,,,スケールメディア,0
2077,9290801030670,新規,0,2024-07-01,2024-07-01,柏産業株式会社,,株式会社,福岡県,行橋市,大字高瀬１９８番地８,,40,213,8240027,,,,,,,2024-07-01,1,,,,,カシワサンギョウ,0
2079,9300001013813,新規,0,2024-07-01,2024-07-01,ＳＡＮＫＯＵ株式会社,,株式会社,佐賀県,武雄市,武雄町大字富岡７４９７番地４ＣｏｎｆｏｒｔＴＡＫＥＯ３０５,,41,206,8430024,,,,,,,2024-07-01,1,,,,,サンコウ,0
2087,9350001019038,新規,0,2024-07-01,2024-07-01,株式会社内田解体,,株式会社,宮崎県,都城市,山田町山田１３３６番地１,,45,202,8894601,,,,,,,2024-07-01,1,,,,,ウチダカイタイ,0
2091,9360001033871,新規,0,2024-07-01,2024-07-01,株式会社ＷＡＬＫ３,,株式会社,沖縄県,宮古島市,城辺字比嘉１９１２番地,,47,214,9060104,,,,,,,2024-07-01,1,,,,,ウォークスリー,0
2094,9380005012845,新規,0,2024-07-01,2024-07-01,一般社団法人ＺＥＰＨＹＲＳ,,その他の設立登記法人,福島県,西白河郡泉崎村,大字泉崎字桎内９番地の１,,07,464,9690101,,,,,,,2024-07-01,1,,,,,ゼファーズ,0
2096,9400001016707,新規,0,2024-07-01,2024-07-01,株式会社ｅｎ　ｃｏｅｕｒ,,株式会社,岩手県,盛岡市,本宮字荒屋２５番地８,,03,201,0200866,,,,,,,2024-07-01,1,,,,,エンクール,0
2099,9430001044399,新規,0,2024-07-01,2024-07-01,株式会社エアポートホテルアネックス,,株式会社,北海道,千歳市,幸町６丁目１番地,,01,224,0660063,,,,,,,2024-07-01,1,,,,,エアポートホテルアネックス,0
2101,9430001092134,新規,0,2024-07-01,2024-07-01,ナヴィ株式会社,,株式会社,北海道,札幌市中央区,南二十一条西７丁目２－１９クリーンリバーフィネス山鼻１５０５号,,01,101,0640921,,,,,,,2024-07-01,1,,,,,ナヴィ,0
2105,9450001014350,新規,0,2024-07-01,2024-07-01,株式会社創芸社ＨＤ,,株式会社,北海道,上川郡東川町,西町１２丁目１番１号,,01,458,0711425,,,,,,,2024-07-01,1,,,,,ソウゲイシャホールディングス,0
