sequenceNumber,corporateNumber,process,correct,updateDate,changeDate,name,nameImageId,kind,prefectureName,cityName,streetNumber,addressImageId,prefectureCode,cityCode,postCode,addressOutside,addressOutsideImageId,closeDate,closeCause,successorCorporateNumber,changeCause,assignmentDate,latest,enName,enPrefectureName,enCityName,enAddressOutside,furigana,hihyoji
6,1010001238026,新規,0,2023-08-30,2023-08-30,Ｑｎ‐ＳＯＬＡＲ　ＰＶ　Ｊａｐａｎ株式会社,,株式会社,東京都,文京区,本郷４丁目１６番６－１００５号,,13,105,1130033,,,,,,,2023-08-30,1,,,,,キューエヌソーラーピーブイジャパン,0
7,1010103002197,新規,0,2023-08-30,2023-08-30,合同会社ＷＥＢ　ＣＲＡＦＴ,,合同会社,東京都,八王子市,諏訪町４３１‐３,,13,201,1930812,,,,,,,2023-08-30,1,,,,,ウェブクラフト,0
9,1010401176841,新規,0,2023-08-30,2023-08-30,株式会社ｋａｉｓｈａｋｕ,,株式会社,東京都,港区,六本木４丁目５番１１号ＳＩＸ４,,13,103,1060032,,,,,,,2023-08-30,1,,,,,カイシャク,0
15,1010601063690,新規,0,2023-08-30,2023-08-30,株式会社ライズ,,株式会社,東京都,江東区,大島８丁目３８番４号,,13,108,1360072,,,,,,,2023-08-30,1,,,,,ライズ,0
17,1010701044772,新規,0,2023-08-30,2023-08-30,株式会社ＲＥＬＥＡＡＡＳ,,株式会社,東京都,品川区,小山３丁目１０番１１－１０３号,,13,109,1420062,,,,,,,2023-08-30,1,,,,,リリアス,0
21,1010901053714,新規,0,2023-08-30,2023-08-30,株式会社ユー・コンサルティング,,株式会社,東京都,世田谷区,新町１丁目２４番１７号,,13,112,1540014,,,,,,,2023-08-30,1,,,,,ユーコンサルティング,0
22,1010903008377,新規,0,2023-08-30,2023-08-30,合同会社ハチパチ,,合同会社,東京都,世田谷区,太子堂２丁目８－１７、８８ＳＡＮＧＥＮＪＡＹＡ２０４,,13,112,1540004,,,,,,,2023-08-30,1,,,,,ハチパチ,0
23,1010903008410,新規,0,2023-08-30,2023-08-30,合同会社Ｒｉｎｇ,,合同会社,東京都,世田谷区,太子堂１丁目１２番２７コンフォートテラス１００５号,,13,112,1540004,,,,,,,2023-08-30,1,,,,,,0
31,1011203004158,新規,0,2023-08-30,2023-08-30,合同会社あかま企画,,合同会社,東京都,中野区,新井４丁目３番５号嘉夢井２０３,,13,114,1650026,,,,,,,2023-08-30,1,,,,,,0
36,1011401025410,新規,0,2023-08-30,2023-08-30,吉川株式会社,,株式会社,東京都,板橋区,小茂根１丁目２５－１６ＵＩＳビル２階,,13,119,1730037,,,,,,,2023-08-30,1,,,,,ヨシカワ,0
41,1011601027082,新規,0,2023-08-30,2023-08-30,株式会社ＣＨＩＣ,,株式会社,東京都,練馬区,下石神井６丁目４１番１６号メゾン・ド・ヴェール１０２号室,,13,120,1770042,,,,,,,2023-08-30,1,,,,,シック,0
49,1020001153240,新規,0,2023-08-30,2023-08-30,株式会社ロケットトレーディング,,株式会社,神奈川県,横浜市神奈川区,鶴屋町３丁目３２番地１４エクレール横浜西口６０７号,,14,102,2210835,,,,,,,2023-08-30,1,,,,,ロケットトレーディング,0
51,1020003024489,新規,0,2023-08-30,2023-08-30,合同会社Ｍａｌｔｚ,,合同会社,神奈川県,川崎市高津区,坂戸２丁目７番９号アダージオ２１（３０２）,,14,134,2130012,,,,,,,2023-08-30,1,,,,,マルツ,0
54,1021001080045,新規,0,2023-08-30,2023-08-30,株式会社リアシュランス,,株式会社,神奈川県,相模原市中央区,東淵野辺１丁目１６－３５,,14,152,2520203,,,,,,,2023-08-30,1,,,,,リアシュランス,0
66,1030001155392,新規,0,2023-08-30,2023-08-30,天使のクローバー株式会社,,株式会社,埼玉県,坂戸市,伊豆の山町２４番地１８,,11,239,3500275,,,,,,,2023-08-30,1,,,,,テンシノクローバー,0
67,1030001155475,新規,0,2023-08-30,2023-08-30,株式会社ＤＥＭＩＲ,,株式会社,埼玉県,川口市,芝富士２丁目９番２７号ハイツユーワン１０２号,,11,203,3330854,,,,,,,2023-08-30,1,,,,,デミル,0
68,1030001155483,新規,0,2023-08-30,2023-08-30,株式会社マスタリー,,株式会社,埼玉県,戸田市,美女木３丁目２番３号,,11,224,3350031,,,,,,,2023-08-30,1,,,,,マスタリー,0
69,1030001155624,新規,0,2023-08-30,2023-08-30,ＨＥＲＯ株式会社,,株式会社,埼玉県,草加市,谷塚２丁目１９番２４－３０２号,00131706,11,221,3400028,,,,,,,2023-08-30,1,,,,,ヒーロー,0
70,1030001155632,新規,0,2023-08-30,2023-08-30,株式会社Ｃｅｒａｓｔｏ,,株式会社,埼玉県,さいたま市岩槻区,大字大野島２４１番地８,,11,110,3390018,,,,,,,2023-08-30,1,,,,,セラスト,0
72,1030003022351,新規,0,2023-08-30,2023-08-30,ｇｏｌｄｅｎｓｅｔ合同会社,,合同会社,埼玉県,志木市,館２丁目３－１２－１００４,,11,228,3530006,,,,,,,2023-08-30,1,,,,,ゴールデンセット,0
79,1040001129874,新規,0,2023-08-30,2023-08-30,トワイライト株式会社,,株式会社,千葉県,勝浦市,部原１９５３番地１６,,12,218,2995223,,,,,,,2023-08-30,1,,,,,トワイライト,0
83,1040003023200,新規,0,2023-08-30,2023-08-30,合同会社ＰＮ,,合同会社,千葉県,千葉市緑区,あすみが丘９丁目１０番地１１,,12,105,2670066,,,,,,,2023-08-30,1,,,,,パナ,0
91,1080103002876,新規,0,2023-08-30,2023-08-30,合同会社小川商事,,合同会社,静岡県,富士市,水戸島２丁目１９番３号セントラルヒルズＢ－２０２号,,22,210,4160921,,,,,,,2023-08-30,1,,,,,オガワショウジ,0
97,1110001037806,新規,0,2023-08-30,2023-08-30,株式会社ニイガタ,,株式会社,新潟県,新潟市江南区,曙町３丁目５番５号,,15,104,9500134,,,,,,,2023-08-30,1,,,,,ニイガタ,0
108,1120001257675,新規,0,2023-08-30,2023-08-30,株式会社カクタス,,株式会社,大阪府,大阪市阿倍野区,旭町１丁目１番３３号,,27,119,5450051,,,,,,,2023-08-30,1,,,,,カクタス,0
109,1120001257691,新規,0,2023-08-30,2023-08-30,但馬総合開発ホールディングス株式会社,,株式会社,大阪府,大阪市北区,西天満２丁目６番８号堂島ビルヂング９階,,27,127,5300047,,,,,,,2023-08-30,1,,,,,タジマソウゴウカイハツホールディングス,0
110,1120001257725,新規,0,2023-08-30,2023-08-30,株式会社Ｖｉｌｌａ,,株式会社,大阪府,大阪市中央区,高津３丁目１－２１日本橋ムーンビル６０５,,27,128,5420072,,,,,,,2023-08-30,1,,,,,ヴィラ,0
114,1120003024818,新規,0,2023-08-30,2023-08-30,合同会社ル・ホーム,,合同会社,大阪府,大阪市北区,梅田１丁目２番２号大阪駅前第２ビル１２－１２,,27,127,5300001,,,,,,,2023-08-30,1,,,,,ルホーム,0
138,1140003019485,新規,0,2023-08-30,2023-08-30,合同会社シャンティ,,合同会社,兵庫県,芦屋市,陽光町７番１－２１４号,,28,206,6590034,,,,,,,2023-08-30,1,,,,,シャンティ,0
150,1180003025678,新規,0,2023-08-30,2023-08-30,スカイライン合同会社,,合同会社,愛知県,名古屋市中区,新栄２丁目１４番２８－５０５号,,23,106,4600007,,,,,,,2023-08-30,1,,,,,スカイライン,0
162,1250001020260,新規,0,2023-08-30,2023-08-30,株式会社井上建工,,株式会社,山口県,山口市,大内御堀３７７７番地１４７,,35,203,7530214,,,,,,,2023-08-30,1,,,,,イノウエケンコウ,0
180,1330001031200,新規,0,2023-08-30,2023-08-30,株式会社ＧＡＬＴＳ　Ｐｈａｒｍａ,,株式会社,熊本県,熊本市中央区,国府３丁目１０番３０号,,43,101,8620949,,,,,,,2023-08-30,1,,,,,ガルツファルマ,0
182,1360001032468,新規,0,2023-08-30,2023-08-30,株式会社ＯＫＩＰＥＲＯ,,株式会社,沖縄県,那覇市,牧志２丁目１７番２７－４０１号,,47,201,9000013,,,,,,,2023-08-30,1,,,,,オキペロ,0
183,1360001032476,新規,0,2023-08-30,2023-08-30,株式会社Ｎａｎｎｋｕｒｕ,,株式会社,沖縄県,うるま市,みどり町３丁目１９番９号,,47,213,9042215,,,,,,,2023-08-30,1,,,,,ナンクル,0
184,1360001032484,新規,0,2023-08-30,2023-08-30,Ｏ‐ＮＡＺ株式会社,,株式会社,沖縄県,那覇市,字安里３８１－１ＺＯＲＫＳ沖縄,,47,201,9020067,,,,,,,2023-08-30,1,,,,,オーナッツ,0
194,1430001089856,新規,0,2023-08-30,2023-08-30,ＰＵＲＥ　ＳＫＩ株式会社,,株式会社,北海道,札幌市東区,北十六条東７丁目１番３１－３０５号,,01,103,0650016,,,,,,,2023-08-30,1,,,,,ピュアースキー,0
196,1430003015356,新規,0,2023-08-30,2023-08-30,Ｔ・Ｒ・Ｙ合同会社,,合同会社,北海道,札幌市清田区,平岡二条４丁目３番５号,,01,110,0040872,,,,,,,2023-08-30,1,,,,,ティアールワイ,0
202,1440003001537,新規,0,2023-08-30,2023-08-30,合同会社カネキキムラ,,合同会社,北海道,函館市,松風町８－１９,,01,202,0400035,,,,,,,2023-08-30,1,,,,,カネキキムラ,0
204,1480001012185,新規,0,2023-08-30,2023-08-30,株式会社ｓｅｔｔｅ,,株式会社,徳島県,阿南市,羽ノ浦町古庄大坪原３６番地５,,36,204,7791105,,,,,,,2023-08-30,1,,,,,セッテ,0
208,1490003001813,新規,0,2023-08-30,2023-08-30,合同会社ＤＴＰ,,合同会社,高知県,高知市,本町１丁目４番１４号,,39,201,7800870,,,,,,,2023-08-30,1,,,,,ディーティーピー,0
211,1500003003089,新規,0,2023-08-30,2023-08-30,アートアイランドおおうえ合同会社,,合同会社,愛媛県,松山市,久万ノ台１２６８番地１,,38,201,7918016,,,,,,,2023-08-30,1,,,,,アートアイランドオオウエ,0
213,1700150119543,新規,0,2023-08-30,2023-08-30,Ｄｏｎｇｇｕａｎ　Ｔｗｏｔｒｅｅｓ　Ｔｅｃｈｎｏｌｏｇｙ　Ｃｏ．，Ｌｔｄ．,,外国会社等,,,,,,,,Ｒｏｏｍ　４０１，Ｂｕｉｌｄｉｎｇ　２，Ｎｏ．２，Ｓｈａｐｉｎｇ　Ｒｏａｄ，Ｔａｎｇｘｉａ　Ｔｏｗｎ　Ｄｏｎｇｇｕａｎ　Ｇｕａｎｇｄｏｎｇ,,,,,,2023-08-30,1,,,,,トウカンシリョウカジュカギユウゲンコウシ,0
214,1700150119551,新規,0,2023-08-30,2023-08-30,ｚｈｕｈａｉｃｈａｎｇｙｅｄｉａｎｚｉｋｅｊｉｙｏｕｘｉａｎｇｏｎｇｓｉ,,外国会社等,,,,,,,,ｈａｉｂｉｎｂｅｉｌｕ１０ｈａｏ　１０３Ａｈａｏｓｈａｎｇｐｕ　ｚｈｕｈａｉｓｈｉ　ｘｉａｎｇｚｈｏｕｑｕｇｕａｎｇｄｏｎｇｓｈｅｎｇ　５１９０００　ＣＮ,,,,,,2023-08-30,1,,,,,ジューハイチャンイエディエンズーコージーヨウシエンゴンスー,0
215,1700150119584,新規,0,2023-08-30,2023-08-30,ｓｈｅｎｚｈｅｎｓｈｉｇｕｙｕｅｍｕｍｕｚｉｍａｏｙｉｙｏｕｘｉａｎｇｏｎｇｓｉ,,外国会社等,,,,,,,,ｇｕａｎｇｄｏｎｇｓｈｅｎｇｓｈｅｎｚｈｅｎｓｈｉｂａｏａｎｑｕｘｉｘｉａｎｇｊｉｅｄａｏｈｅｄｏｎｇｓｈｅｑｕｔａｉｈｕａｈａｏｙｕａｎ２ｄｏｎｇ１ｄａｎｙｕａｎ５０２,,,,,,2023-08-30,1,,,,,シェンジェンシーグーユエムームーズーマオイーヨウシエンゴンスー,0
216,1700150119592,新規,0,2023-08-30,2023-08-30,Ｓｈｅｎｚｈｅｎｓｈｉ　ｗｅｉｙｉ　ｄｉａｎ　ｚｉ　ｓｈａｎｇ　ｗｕ　ｙｏｕ　ｘｉａｎ　ｇｏｎｇｓｉ,,外国会社等,,,,,,,,Ｒｏｏｍ　７０４，Ｕｎｉｔ　２，Ｂｕｉｌｄｉｎｇ　９，Ｔｅｊｉａｎ　Ｓｈｕｉｗｅｉ　Ｌｉｖｉｎｇ　Ａｒｅａ，Ｎｏ．４０１３　Ａｉｇｕｏ　Ｒｏａｄ，Ｃｕｉｈｕ　Ｃｏｍｍｕｎｉｔｙ，Ｄｏｎｇｈｕ　Ｓｔｒｅｅｔ，ｌｕｏｈｕ　ｄｉｓｔｒｉｃｔ，ｓｈｅｎｚｈｅｎ　ｃｉｔｙ,,,,,,2023-08-30,1,,,,,シェンジェンシーウェイイーディエンズーシャンウーヨウシエンゴンスー,0
217,1700150119601,新規,0,2023-08-30,2023-08-30,Ｌｉａｎｙｕｎｇａｎｇ　Ｈｕａｒｏｎｇｄａｏ　ｔｒａｄｅ　Ｃｏ．，Ｌｔｄ,,外国会社等,,,,,,,,ｇａｎｙｕｑｕｈｅｉｌｉｎｚｈｅｎ　ｄａｃｈｉｊｉａｎｃｕｎ５４８ｈａｏ　ｌｉａｎｙｕｎｇａｎｇｓｈｉ　ｊｉａｎｇｓｕｓｈｅｎｇ,,,,,,2023-08-30,1,,,,,レンウンコウホゥアヨンダオトレードカンパニーリミテッド,0
234,2010003041526,新規,0,2023-08-30,2023-08-30,合同会社ＢＫＳ美スタイル研究所,,合同会社,東京都,中央区,銀座７丁目１３番６号サガミビル２階,,13,102,1040061,,,,,,,2023-08-30,1,,,,,ビコシビスタイルケンキュウジョ,0
235,2010005037175,新規,0,2023-08-30,2023-08-30,一般社団法人桜響会,,その他の設立登記法人,東京都,中央区,銀座１丁目９番１２号西山興業東銀座ビル６階,,13,102,1040061,,,,,,,2023-08-30,1,,,,,サクラヒビキカイ,0
249,2010401176840,新規,0,2023-08-30,2023-08-30,三江株式会社,,株式会社,東京都,港区,芝２丁目２８番１１号芝ＭＫビル３０８室,,13,103,1050014,,,,,,,2023-08-30,1,,,,,サンコウ,0
256,2010701044763,新規,0,2023-08-30,2023-08-30,株式会社神山,,株式会社,東京都,品川区,東大井３丁目７番６号,,13,109,1400011,,,,,,,2023-08-30,1,,,,,カミヤマ,0
258,2010803004657,新規,0,2023-08-30,2023-08-30,合同会社ＢＣＴ,,合同会社,東京都,大田区,羽田４丁目４番２９号,,13,111,1440043,,,,,,,2023-08-30,1,,,,,ビーシーティー,0
260,2010901053713,新規,0,2023-08-30,2023-08-30,株式会社ユー・キャピタルワークス,,株式会社,東京都,世田谷区,新町１丁目２４番１７号,,13,112,1540014,,,,,,,2023-08-30,1,,,,,ユーキャピタルワークス,0
261,2011001003609,新規,0,2023-08-30,2023-08-30,株式会社ホリウチコーポレーション,,株式会社,東京都,渋谷区,千駄ヶ谷４丁目２０番３号,,13,113,1510051,,,,,,,2023-08-30,1,,,,,,0
267,2011001156646,新規,0,2023-08-30,2023-08-30,ユバル株式会社,,株式会社,東京都,渋谷区,道玄坂１丁目１２番１号渋谷マークシティＷ２２階,,13,113,1500043,,,,,,,2023-08-30,1,,,,,ユバル,0
268,2011001156654,新規,0,2023-08-30,2023-08-30,宏興株式会社,,株式会社,東京都,渋谷区,神宮前１丁目２３番２８号,,13,113,1500001,,,,,,,2023-08-30,1,,,,,コウコウ,0
272,2011101104174,新規,0,2023-08-30,2023-08-30,陽光電力株式会社,,株式会社,東京都,新宿区,上落合２丁目１９番７号シャルムタナカ５０１号,,13,104,1610034,,,,,,,2023-08-30,1,,,,,ヨウコウデンリョク,0
273,2011105010757,新規,0,2023-08-30,2023-08-30,弁護士法人権藤法律事務所,,その他の設立登記法人,東京都,新宿区,左門町１３番地１四谷弁護士ビル３０５号,,13,104,1600017,,,,,,,2023-08-30,1,,,,,ゴンドウホウリツジムショ,0
276,2011203004157,新規,0,2023-08-30,2023-08-30,合同会社靠譜,,合同会社,東京都,中野区,弥生町３丁目５番１８号グレースＦ１階Ｂ１０室,,13,114,1640013,,,,,,,2023-08-30,1,,,,,コウフ,0
291,2011603004038,新規,0,2023-08-30,2023-08-30,Ｒｅｇｉｓｔａ合同会社,,合同会社,東京都,練馬区,石神井台５丁目１７番５号,,13,120,1770045,,,,,,,2023-08-30,1,,,,,レジスタ,0
295,2011801042954,新規,0,2023-08-30,2023-08-30,株式会社Ｗ・ＡＤ,,株式会社,東京都,足立区,西加平２丁目１番９号,,13,121,1210074,,,,,,,2023-08-30,1,,,,,ダブルエーディー,0
297,2011803005802,新規,0,2023-08-30,2023-08-30,合同会社ライフマネッジ,,合同会社,東京都,葛飾区,堀切３丁目２番９号,,13,122,1240006,,,,,,,2023-08-30,1,,,,,ライフマネッジ,0
299,2012403006133,新規,0,2023-08-30,2023-08-30,ＩＭＰＵＬＳ合同会社,,合同会社,東京都,小金井市,貫井北町４丁目１―１,,13,210,1840015,,,,,,,2023-08-30,1,,,,,インパルス,0
309,2013301051221,新規,0,2023-08-30,2023-08-30,株式会社未来図,,株式会社,東京都,豊島区,北大塚３丁目２１番５号,,13,116,1700004,,,,,,,2023-08-30,1,,,,,ミライズ,0
316,2020001153198,新規,0,2023-08-30,2023-08-30,株式会社Ｄｒｉｖｅｒ　Ｊａｐａｎ,,株式会社,神奈川県,横浜市中区,伊勢佐木町３丁目９８番地,,14,104,2310045,,,,,,,2023-08-30,1,,,,,ドライバージャパン,0
321,2021001080044,新規,0,2023-08-30,2023-08-30,株式会社トラストアイ,,株式会社,神奈川県,高座郡寒川町,大曲３丁目６番１号,,14,321,2530113,,,,,,,2023-08-30,1,,,,,トラストアイ,0
323,2030001155425,新規,0,2023-08-30,2023-08-30,株式会社宮本製作所,,株式会社,埼玉県,さいたま市西区,大字三条町２４１番地１０,,11,101,3310056,,,,,,,2023-08-30,1,,,,,ミヤモトセイサクショ,0
324,2030001155441,新規,0,2023-08-30,2023-08-30,タケルビジョン株式会社,,株式会社,埼玉県,蕨市,塚越５丁目４番６号グリーンライフ蕨市民公園１０２号,,11,223,3350002,,,,,,,2023-08-30,1,,,,,タケルビジョン,0
325,2030001155482,新規,0,2023-08-30,2023-08-30,小林株式会社,,株式会社,埼玉県,和光市,新倉２丁目１０番６５－５０４号,,11,229,3510115,,,,,,,2023-08-30,1,,,,,コバヤシ,0
329,2030005021367,新規,0,2023-08-30,2023-08-30,一般社団法人日本歯牙保存学会,,その他の設立登記法人,埼玉県,狭山市,広瀬東３丁目１２３番地１,,11,215,3501320,,,,,,,2023-08-30,1,,,,,ニホンシガホゾンガッカイ,0
338,2040001129840,新規,0,2023-08-30,2023-08-30,株式会社アイデアライズ,,株式会社,千葉県,船橋市,宮本３丁目８番１８号,,12,204,2730003,,,,,,,2023-08-30,1,,,,,アイデアライズ,0
346,2040003023208,新規,0,2023-08-30,2023-08-30,合同会社聖煌,,合同会社,千葉県,木更津市,請西７１６番地２,,12,206,2920801,,,,,,,2023-08-30,1,,,,,セイコウ,0
360,2080401026683,新規,0,2023-08-30,2023-08-30,株式会社ＮＯＣ,,株式会社,静岡県,磐田市,岩井１９０７番地２６９３,,22,211,4380016,,,,,,,2023-08-30,1,,,,,エヌオーシー,0
374,2120001257294,新規,0,2023-08-30,2023-08-30,株式会社ハマヤサービス,,株式会社,大阪府,大阪市中央区,南船場４丁目１０番５号南船場ＳＯＨＯビル７０２,,27,128,5420081,,,,,,,2023-08-30,1,,,,,ハマヤサービス,0
375,2120001257609,新規,0,2023-08-30,2023-08-30,燿力株式会社,,株式会社,大阪府,大阪市東住吉区,鷹合４丁目２１番１６号１Ｆ－Ｆ,,27,121,5460014,,,,,,,2023-08-30,1,,,,,ヨウリョク,0
376,2120001257708,新規,0,2023-08-30,2023-08-30,株式会社ＫＮＳ,,株式会社,大阪府,大阪市北区,本庄西１丁目１－７シティタワー梅田東３０６,,27,127,5310073,,,,,,,2023-08-30,1,,,,,ケーエヌエス,0
377,2120003024701,新規,0,2023-08-30,2023-08-30,合同会社わっしょい,,合同会社,大阪府,大阪市北区,西天満４丁目７－１７－４０３,,27,127,5300047,,,,,,,2023-08-30,1,,,,,ワッショイ,0
388,2130005016869,新規,0,2023-08-30,2023-08-30,税理士法人アカウントプランニング,,その他の設立登記法人,京都府,京都市西京区,桂南巽町４番地２,,26,111,6158074,,,,,,,2023-08-30,1,,,,,アカウントプランニング,0
397,2180001157794,新規,0,2023-08-30,2023-08-30,株式会社エスタビ,,株式会社,愛知県,名古屋市中村区,日比津町１丁目１６番６号,,23,105,4530061,,,,,,,2023-08-30,1,,,,,エスタビ,0
412,2240003006274,新規,0,2023-08-30,2023-08-30,タインマイフード合同会社,,合同会社,広島県,広島市安佐北区,三入６丁目６番１号,,34,106,7310211,,,,,,,2023-08-30,1,,,,,タインマイフード,0
414,2250003003337,新規,0,2023-08-30,2023-08-30,合同会社小山不動産,,合同会社,山口県,山陽小野田市,大字小野田１１３３番地１６,,35,216,7560817,,,,,,,2023-08-30,1,,,,,コヤマフドウサン,0
420,2290001102814,新規,0,2023-08-30,2023-08-30,株式会社フォーエース,,株式会社,福岡県,大牟田市,上町１丁目３番地９,,40,202,8360853,,,,,,,2023-08-30,1,,,,,フォーエース,0
428,2310005008699,新規,0,2023-08-30,2023-08-30,一般社団法人いきいきライフ協会長崎県央南,,その他の設立登記法人,長崎県,雲仙市,愛野町甲３０１番地７,,42,213,8540301,,,,,,,2023-08-30,1,,,,,イキイキライフキョウカイナガサキケンオウミナミ,0
433,2350005006170,新規,0,2023-08-30,2023-08-30,一般社団法人韓国民団宮崎県本部,,その他の設立登記法人,宮崎県,宮崎市,川原町７番１３号,,45,201,8800866,,,,,,,2023-08-30,1,,,,,カンコクミンダンミヤザキケンホンブ,0
437,2360001032459,新規,0,2023-08-30,2023-08-30,株式会社クラブ・マイスター,,株式会社,沖縄県,那覇市,泊１丁目５番１号ミルコマンション泊崇元寺通り１４０２,,47,201,9000012,,,,,,,2023-08-30,1,,,,,クラブマイスター,0
438,2360001032475,新規,0,2023-08-30,2023-08-30,セイカスポーツ沖縄開発株式会社,,株式会社,沖縄県,沖縄市,池原２丁目１０番３５号,,47,211,9042141,,,,,,,2023-08-30,1,,,,,セイカスポーツオキナワカイハツ,0
442,2370001050336,新規,0,2023-08-30,2023-08-30,株式会社小渕浜通信,,株式会社,宮城県,栗原市,栗駒岩ケ崎円鏡寺後１１番地９,,04,213,9895301,,,,,,,2023-08-30,1,,,,,コブチハマツウシン,0
443,2370001050344,新規,0,2023-08-30,2023-08-30,マリングラフ株式会社,,株式会社,宮城県,富谷市,成田６丁目３５番地４,,04,216,9813341,,,,,,,2023-08-30,1,,,,,マリングラフ,0
444,2370005010674,新規,0,2023-08-30,2023-08-30,一般社団法人コーヒーハウスジャパン,,その他の設立登記法人,宮城県,仙台市泉区,長命ケ丘３丁目２７番地の３,,04,105,9813212,,,,,,,2023-08-30,1,,,,,コーヒーハウスジャパン,0
446,2380001033942,新規,0,2023-08-30,2023-08-30,株式会社ＴａｋｅＷａｎ,,株式会社,福島県,福島市,上鳥渡字しのぶ台２０番地の９,,07,201,9601107,,,,,,,2023-08-30,1,,,,,テイクワン,0
455,2430001089839,新規,0,2023-08-30,2023-08-30,株式会社だいろく,,株式会社,北海道,札幌市白石区,南郷通３丁目南７番１７,,01,104,0030022,,,,,,,2023-08-30,1,,,,,ダイロク,0
465,2500001025159,新規,0,2023-08-30,2023-08-30,アンホールディングス株式会社,,株式会社,愛媛県,新居浜市,土橋１丁目９番１５号,,38,205,7920043,,,,,,,2023-08-30,1,,,,,アンホールディングス,0
469,2700150111912,新規,0,2023-08-30,2023-08-30,ＧＬＯＢＥＧＯＵ　ＵＳＡ　ＣＯ．，ＬＴＤ,,外国会社等,,,,,,,,２４５　ＥＡＳＴ　ＭＡＩＮ　ＳＴＲＥＥＴ，ＳＵＩＴＥ　１１５，ＡＬＨＡＭＢＲＡ，ＣＡ，９１８０１，ＵＳ,,,,,,2023-08-30,1,,,,,グローブゴウユーエスエーシーオーエルティーディー,0
470,2700150119542,新規,0,2023-08-30,2023-08-30,ＳＵＺＨＯＵ　ＢＯＨＡＮＧ　ＳＰＯＲＴＳ　ＣＯ．，ＬＴＤ,,外国会社等,,,,,,,,Ｂｕｉｌｄｉｎｇ　３，Ｎ０．９８　ＬＵＯＹＡＮＧ　ＥＡＳＴ　ＲＯＡＤ　ＴＡＩＣＡＮＧ　ＪＩＡＮＧＳＵ,,,,,,2023-08-30,1,,,,,ソシュハクコウタイイクヨウヒンユウゲンコウシ,0
471,2700150119550,新規,0,2023-08-30,2023-08-30,ｓｈｅｎｚｈｅｎｓｈｉｚｈｕｏｌａｎｔｉｎｇｘｕｍａｏｙｉｙｏｕｘｉａｎｇｏｎｇｓｉ,,外国会社等,,,,,,,,ｓｈｅｎｚｈｅｎｓｈｉ，ｌｏｎｇｈｕａｑｕ，ｄａｌａｎｇｊｉｅｄａｏｋｏｕｓｈｅｑｕ，ｈｕａｗａｎｇｌｕ２２１ｈａｏ，ｋｅｔａｉｄａｓａ１２２３,,,,,,2023-08-30,1,,,,,シェンジェンシージュオランティンシーマオイーヨウシエンゴンスー,0
472,2700150119559,新規,0,2023-08-30,2023-08-30,ＤｒｕｎｋＤｅｅｒ　Ｌｉｍｉｔｅｄ,,外国会社等,,,,,,,,ＳＨＯＰ　１８５　Ｇ／Ｆ　ＨＡＮＧ　ＷＡＩ　ＩＮＤ　ＣＴＲ　ＮＯ　６　ＫＩＮ　ＴＡＩ　ＳＴ　ＴＵＥＮ　ＭＵＮ　ＮＴ，ＨＯＮＧ　ＫＯＮＧ,,,,,,2023-08-30,1,,,,,イーズイルーミンジョンヨウシエンゴンスー,0
473,2700150119583,新規,0,2023-08-30,2023-08-30,ｓｈｅｎｚｈｅｎｓｈｉｋａｋａｂｏｔｅｍａｏｙｉｙｏｕｘｉａｎｇｏｎｇｓｉ,,外国会社等,,,,,,,,ｇｕａｎｇｄｏｎｇｓｈｅｎｇｓｈｅｎｚｈｅｎｓｈｉｂａｏａｎｑｕｓｏｎｇｇａｎｇｊｉｅｄａｏｈｏｎｇｘｉｎｇｓｈｅｑｕｊｉｎｗｅｎｗｅｎｗｕｋｅｊｉｙｕａｎ５ｄｏｎｇ２０１,,,,,,2023-08-30,1,,,,,シェンジェンシーカーカーボーターマオイーヨウシエンゴンスー,0
474,2700150119591,新規,0,2023-08-30,2023-08-30,Ｓｈｅｎｚｈｅｎ　ＡｌＹｉＰｕ　Ｔｅｃｈｎｏｌｏｇｙ　Ｃｏ．Ｌｔｄ．,,外国会社等,,,,,,,,４０１－Ｂ４０３０　Ｂｌｏｃｋ　Ａ　ｏｆ　Ｂｕｉｌｄｉｎｇ　３，Ｗｕｚｈｏｕ　Ｘｉｎｔｉａｎｄｉ，６０３８　ＬｏｎｇＧａｎｇ　Ａｖｅｎｕｅ，Ｐｉｎｇｎａｎ　ｃｏｍｍｕｎｉｔｙ，Ｌｏｎｇｇａｎｇ　Ａｖｅｎｕｅ　Ｌｏｎｇｇａｎｇ　Ｄｉｓｔｒｉｃｔ　Ｓｈｅｎｚｈｅｎ,,,,,,2023-08-30,1,,,,,シェンジェンアイイープーコージーヨウシエンゴンスー,0
475,2700150119600,新規,0,2023-08-30,2023-08-30,Ｆｏ　Ｓｈａｎ　ＳＵＮＦＲＡＭＥ　Ｃｕｒｔａｉｎ　Ｗａｌｌ　Ｅｎｇｉｎｅｅｒｉｎｇ　Ｃｏ．，Ｌｔｄ,,外国会社等,,,,,,,,Ｒｏｏｍ　７１０６，７ｔｈ　Ｆｌｏｏｒ，Ｂｌｏｃｋ　Ｃ，Ｆｏｓｈａｎ　Ｊｉａｂｏ　Ｃｉｔｙ，Ｆｏｓｈａｎ　Ａｖｅｎｕｅ　Ｎｏ．１８９，Ｃｈａｎｃｈｅｎｇ　Ｄｉｓｔｒｉｃｔ，Ｆｏｓｈａｎ,,,,,,2023-08-30,1,,,,,フォーシャンシーチェンフェイムーチャンゴンチョンヨウシエンゴンスー,0
479,3010001238032,新規,0,2023-08-30,2023-08-30,株式会社ＰＤＳ　Ｌｉｆｅ,,株式会社,東京都,千代田区,丸の内２丁目１番１号,,13,101,1000005,,,,,,,2023-08-30,1,,,,,ピーディーエスライフ,0
480,3010001238057,新規,0,2023-08-30,2023-08-30,ＩＮＦＯＭＩＮＡ　ＪＡＰＡＮ株式会社,,株式会社,東京都,千代田区,霞が関３丁目２番６号東京倶楽部ビルディング１１階,,13,101,1000013,,,,,,,2023-08-30,1,,,,,インフォミナジャパン,0
484,3010003041533,新規,0,2023-08-30,2023-08-30,スマート・ストリーミング・サポート合同会社,,合同会社,東京都,中央区,銀座１丁目１２－４Ｎ＆ＥＢＬＤ．７階,,13,102,1040061,,,,,,,2023-08-30,1,,,,,スマートストリーミングサポート,0
485,3010005037182,新規,0,2023-08-30,2023-08-30,医療法人社団東整会,,その他の設立登記法人,東京都,千代田区,鍛冶町２丁目８番６号メディカルプライム神田３階、４階,,13,101,1010044,,,,,,,2023-08-30,1,,,,,トウセイカイ,0
494,3010403030805,新規,0,2023-08-30,2023-08-30,合同会社Ｔｈｉｒｄ　Ｉｓｌａｎｄ,,合同会社,東京都,港区,芝浦３丁目４番１号グランパークタワー３２階,,13,103,1080023,,,,,,,2023-08-30,1,,,,,サードアイランド,0
495,3010403030821,新規,0,2023-08-30,2023-08-30,合同会社ディジタルランドジャパン,,合同会社,東京都,港区,港南２丁目１５番１号品川インターシティＡ棟２８階,,13,103,1080075,,,,,,,2023-08-30,1,,,,,ディジタルランドジャパン,0
501,3010601063697,新規,0,2023-08-30,2023-08-30,イーロン株式会社,,株式会社,東京都,墨田区,墨田４丁目４９番１４号,,13,107,1310031,,,,,,,2023-08-30,1,,,,,イーロン,0
502,3010803004648,新規,0,2023-08-30,2023-08-30,合同会社ＳＨＥＥＰ,,合同会社,東京都,大田区,田園調布１丁目４７－３,,13,111,1450071,,,,,,,2023-08-30,1,,,,,シープ,0
505,3011001156645,新規,0,2023-08-30,2023-08-30,株式会社ミラクルタイガー,,株式会社,東京都,渋谷区,幡ヶ谷３丁目７６番１０－７０２号,,13,113,1510072,,,,,,,2023-08-30,1,,,,,ミラクルタイガー,0
517,3011401025409,新規,0,2023-08-30,2023-08-30,増栄株式会社,,株式会社,東京都,板橋区,赤塚４丁目３０－１６－１０１,,13,119,1750092,,,,,,,2023-08-30,1,,,,,マスエイ,0
520,3011501029697,新規,0,2023-08-30,2023-08-30,Ｃ＆Ｊ　ＧＬＯＢＡＬ株式会社,,株式会社,東京都,北区,赤羽１丁目５２－４グリーンマンション４０１号室,,13,117,1150045,,,,,,,2023-08-30,1,,,,,シーアンドジェーグローバル,0
521,3011501029706,新規,0,2023-08-30,2023-08-30,妍仕株式会社,,株式会社,東京都,荒川区,南千住３丁目２７－２浅草ビル,,13,118,1160003,,,,,,,2023-08-30,1,,,,,ケンシ,0
522,3011603004037,新規,0,2023-08-30,2023-08-30,合同会社ＲＡＹＳ,,合同会社,東京都,練馬区,早宮１丁目３－３ＩＢヒルズ３０２号室,,13,120,1790085,,,,,,,2023-08-30,1,,,,,レイズ,0
524,3011801042953,新規,0,2023-08-30,2023-08-30,株式会社Ａｃｔｕａｌｌｙ,,株式会社,東京都,足立区,千住５丁目１０番５号‐２Ｆ,,13,121,1200034,,,,,,,2023-08-30,1,,,,,アクチュアリー,0
526,3012401040926,新規,0,2023-08-30,2023-08-30,株式会社アイアイエージェンシー,,株式会社,東京都,武蔵野市,緑町１丁目３番２号,,13,203,1800012,,,,,,,2023-08-30,1,,,,,アイアイエージェンシー,0
537,3020001153164,新規,0,2023-08-30,2023-08-30,株式会社ＮＥＸＴ　ＳＴＡＧＥ,,株式会社,神奈川県,横浜市保土ケ谷区,桜ケ丘２丁目４３番１－１３６号,,14,106,2400011,,,,,,,2023-08-30,1,,,,,ネクストステージ,0
538,3020001153222,新規,0,2023-08-30,2023-08-30,アイビーシーネットワークス株式会社,,株式会社,神奈川県,横浜市港北区,高田西５丁目１２番２号,,14,109,2230066,,,,,,,2023-08-30,1,,,,,アイビーシーネットワークス,0
539,3020001153239,新規,0,2023-08-30,2023-08-30,株式会社リンネ,,株式会社,神奈川県,川崎市中原区,上平間１６８番地１－１３０２,,14,133,2110013,,,,,,,2023-08-30,1,,,,,リンネ,0
540,3020001153255,新規,0,2023-08-30,2023-08-30,株式会社ピザコゾウ,,株式会社,神奈川県,横浜市中区,伊勢佐木町１丁目６－６勉強堂ビル２Ｆ,,14,104,2310045,,,,,,,2023-08-30,1,,,,,ピザコゾウ,0
546,3020003024479,新規,0,2023-08-30,2023-08-30,ＨＭ武蔵新城合同会社,,合同会社,神奈川県,川崎市中原区,新城１丁目１０－３,,14,133,2110044,,,,,,,2023-08-30,1,,,,,エイチエムムサシシンジョウ,0
549,3021001080035,新規,0,2023-08-30,2023-08-30,三共サービス株式会社,,株式会社,神奈川県,厚木市,岡田３丁目１７番３４号,,14,212,2430021,,,,,,,2023-08-30,1,,,,,サンキョウサービス,0
551,3021003013521,新規,0,2023-08-30,2023-08-30,ｂｏｇｅｙ　ｆｒｅｅ合同会社,,合同会社,神奈川県,厚木市,鳶尾２丁目２０―５,,14,212,2430204,,,,,,,2023-08-30,1,,,,,ボギーフリー,0
555,3030001155473,新規,0,2023-08-30,2023-08-30,株式会社３Ｓ‐Ｊａｐａｎ,,株式会社,埼玉県,さいたま市南区,沼影１丁目１２番１－２３０６号,,11,108,3360027,,,,,,,2023-08-30,1,,,,,スリーエスジャパン,0
556,3030001155531,新規,0,2023-08-30,2023-08-30,ＳＫ　ＩＮＴＥＲＮＡＴＩＯＮＡＬ株式会社,,株式会社,埼玉県,羽生市,大字藤井上組４０７番地３,,11,216,3480064,,,,,,,2023-08-30,1,,,,,エスケーインターナショナル,0
560,3030003022390,新規,0,2023-08-30,2023-08-30,フェイヴルーム合同会社,,合同会社,埼玉県,さいたま市南区,別所１丁目３番１８号シャルム別所２０５,,11,108,3360021,,,,,,,2023-08-30,1,,,,,フェイヴルーム,0
567,3040001129848,新規,0,2023-08-30,2023-08-30,株式会社小真,,株式会社,千葉県,市原市,五井西１丁目４－８グルワール３０３,,12,219,2900038,,,,,,,2023-08-30,1,,,,,ショウシン,0
570,3040003023207,新規,0,2023-08-30,2023-08-30,イーアス合同会社,,合同会社,千葉県,市川市,平田１丁目８番１５号,,12,203,2720031,,,,,,,2023-08-30,1,,,,,イーアス,0
585,3070001040795,新規,0,2023-08-30,2023-08-30,株式会社グンヤク,,株式会社,群馬県,高崎市,東町２８番地１,,10,202,3700045,,,,,,,2023-08-30,1,,,,,グンヤク,0
610,3120001257657,新規,0,2023-08-30,2023-08-30,株式会社聖,,株式会社,大阪府,大阪市北区,同心１丁目４番６号,,27,127,5300035,,,,,,,2023-08-30,1,,,,,ヒジリ,0
619,3130001075026,新規,0,2023-08-30,2023-08-30,ＥＮＣＯＵＮＴＥＲ株式会社,,株式会社,京都府,相楽郡精華町,大字菅井小字丹田４,,26,366,6190242,,,,,,,2023-08-30,1,,,,,エンカウンター,0
624,3140005026718,新規,0,2023-08-30,2023-08-30,特定非営利活動法人リンカント,,その他の設立登記法人,兵庫県,宝塚市,寿町３－２２、１階,,28,214,6650865,,,,,,,2023-08-30,1,,,,,リンカント,0
631,3180001157785,新規,0,2023-08-30,2023-08-30,株式会社アース,,株式会社,愛知県,岩倉市,石仏町長北屋敷１６８０番地２（エクセルガーデンＡ棟１００２号）,,23,228,4820034,,,,,,,2023-08-30,1,,,,,アース,0
644,3240005015636,新規,0,2023-08-30,2023-08-30,行政書士法人かえで,,その他の設立登記法人,広島県,広島市西区,西観音町１８番４号ＢＪＣ，ｂｌｄｇ．２階,,34,104,7330037,,,,,,,2023-08-30,1,,,,,カエデ,0
648,3260001038259,新規,0,2023-08-30,2023-08-30,株式会社美食,,株式会社,岡山県,岡山市中区,中島１４９番地４,,33,102,7038252,,,,,,,2023-08-30,1,,,,,ビショク,0
654,3290001102813,新規,0,2023-08-30,2023-08-30,ＶＥＲＳＥ株式会社,,株式会社,福岡県,福岡市中央区,薬院４丁目１８番９－１００１号レキシントンスクエア浄水,,40,133,8100022,,,,,,,2023-08-30,1,,,,,ヴァース,0
658,3290003014288,新規,0,2023-08-30,2023-08-30,合同会社シルバーライニング,,合同会社,福岡県,筑紫野市,美しが丘北３丁目１４番地１２（エディーハウスＩＩ３０１号）,00131711,40,217,8180035,,,,,,,2023-08-30,1,,,,,シルバーライニング,0
665,3340001025851,新規,0,2023-08-30,2023-08-30,株式会社マイブリッド,,株式会社,鹿児島県,姶良市,加治木町小山田１９２番地２,,46,225,8995203,,,,,,,2023-08-30,1,,,,,マイブリッド,0
667,3370001050343,新規,0,2023-08-30,2023-08-30,株式会社Ｖｉｃｔｏｒｉａｎ,,株式会社,宮城県,仙台市青葉区,昭和町３番７－４０１号,,04,101,9810913,,,,,,,2023-08-30,1,,,,,ヴィクトリアン,0
669,3380001033941,新規,0,2023-08-30,2023-08-30,株式会社マルフク,,株式会社,福島県,喜多方市,字行作７５９９番２号,,07,208,9660835,,,,,,,2023-08-30,1,,,,,マルフク,0
672,3390003002134,新規,0,2023-08-30,2023-08-30,合同会社愛の風,,合同会社,山形県,米沢市,木場町２番４６－３号,,06,202,9920058,,,,,,,2023-08-30,1,,,,,アイノカゼ,0
684,3430003015379,新規,0,2023-08-30,2023-08-30,合同会社Ｃｏｚｙ,,合同会社,北海道,札幌市中央区,北三条東７丁目３４４番地１ブランシャール北３条通１０３号,,01,101,0600033,,,,,,,2023-08-30,1,,,,,コウジー,0
687,3470001019782,新規,0,2023-08-30,2023-08-30,株式会社Ｆｏｒ　Ａｆｔｅｒ,,株式会社,香川県,善通寺市,中村町１８２２番地１,,37,204,7650073,,,,,,,2023-08-30,1,,,,,フォーアフター,0
690,3700150117719,新規,0,2023-08-30,2023-08-30,ＮａｎＪｉｎｇＲｕｎＴｉａｎＨａｉＤｉａｎＺｉＫｅＪｉＹｏｕＸｉａｎＧｏｎｇＳｉ,,外国会社等,,,,,,,,７Ｙａｏｊｉａ　Ｒｏａｄ，Ｙａｏｈｕａ　Ｓｔｒｅｅｔ　Ｎｏ．１４０４－４１，Ｂｕｉｌｄｉｎｇ　１６，Ｂｅｉｙｕａｎ，ＳｈａｎｇｃｈｅｎｇＳｃｅｎｅｒｙＮａｎｊｉｎｇ　ＣｉｔｙＱｉｘｉａ　ａｒｅａＪｉａｎｇｓｕ　Ｐｒｏｖｉｎｃｅ,,,,,,2023-08-30,1,,,,,ナンキンジュンテンハイデンシテクノロジーユウゲンカイシャ,0
691,3700150118502,新規,0,2023-08-30,2023-08-30,Ｓｈｅｎｚｈｅｎ　Ｋａｎｄａｏ　Ｔｅｃｈｎｏｌｏｇｙ　Ｃｏ．，Ｌｔｄ．,,外国会社等,,,,,,,,５０３，Ｂｕｉｌｄｉｎｇ　１，Ｄａｙｕｎ　Ｓｏｆｔ　Ｐａｒｔｓ　Ｔｏｗｎ，８２８８　ＬｏｎｇｇａｎｇＡｖｅ．Ｈｅａｏ　Ｃｏｍｍｕｎｉｔｙ，ＹｕａｎｓｈａｎＳｔｒｅｅｔ，ＬｏｎｇｇａｎｇＳｈｅｎｚｈｅｎＧｕａｎｇｄｏｎｇ,,,,,,2023-08-30,1,,,,,シンセンカンダオテクノロジーリミテッド,0
692,3700150119541,新規,0,2023-08-30,2023-08-30,ｚｉｂｏｈａｎｗａｎｇｇｏｎｇｍａｏｙｏｕｘｉａｎｇｏｎｇｓｉ,,外国会社等,,,,,,,,ｓｈａｎｄｏｎｇｓｈｅｎｇｚｉｂｏｓｈｉｚｈａｎｇｄｉａｎｑｕｇｏｎｇｙｕａｎｊｉｅｄａｏｂａｎｓｈｉｃｈｕｇｏｎｇｑｉｎｇｔｕａｎｘｉｌｕ１２２ｈａｏｚｈｏｎｇｇｕａｎｃｕｎｋｅｊｉｃｈｅｎｇ　２ｑｉ６０６ｓｈｉ,,,,,,2023-08-30,1,,,,,シハクカンオウコウボウユウゲンコウシ,0
693,3700150119558,新規,0,2023-08-30,2023-08-30,ＳＨＥＮＺＨＥＮＳＨＩ　ＴＯＮＧＸＩＮＧＧＵＯＪＩＤＩＡＮＺＩＳＨＡＮＧＷＵ　ＹＯＵＸＩＡＮＧＯＮＧＳＩ,,外国会社等,,,,,,,,ＬＯＮＧＧＡＮＧＱＵＢＡＮＴＩＡＮＪＩＥＤＡＯＸＩＡＮＧＪＩＡＯＴＡＮＧＳＨＥＱＵ　ＨＵＡＹＵＡＮＸＩＮＣＵＮＤＡＤＡＯ９ＨＡＯＡＤＯＮＧ３ＣＥＮＧ３１０　ＳＨＥＮＺＨＥＮＳＨＩ　Ｃｈｉｎａ,,,,,,2023-08-30,1,,,,,シンセンシトンシングオジデンシショウムユウゲンコウシ,0
694,3700150119582,新規,0,2023-08-30,2023-08-30,ｓｈｅｎｚｈｅｎｙｉｓｈｉｄｅｋｅｊｉｙｏｕｘｉａｎｇｏｎｇｓｉ,,外国会社等,,,,,,,,ｓｈｅｎｚｈｅｎｓｈｉｎａｎｓｈａｎｑｕｓｈｅｋｏｕｊｉｅｄａｏｌｅｉｌｉｎｇｓｈｅｑｕａｉｒｏｎｇｌｕ５９ｈａｏ　ｙｏｕｆａｎｇｙｕｃａｉｊｉａｙｕａｎ　１　ｄｏｎｇ５１３　ｓｈｅｎｚｈｅｎ　ｇｕａｎｇｄｏｎｇ　５１８０００　ＣＮ,,,,,,2023-08-30,1,,,,,シェンジェンイーシーダーコージーヨウシエンゴンスー,0
695,3700150119590,新規,0,2023-08-30,2023-08-30,ｓｈｅｎｚｈｅｎｓｈｉｈｕａｎｔａｏｗａｎｇｄｉａｎｚｉｓｈａｎｇｗｕｙｏｕｘｉａｎｇｏｎｇｓｉ,,外国会社等,,,,,,,,ｆｕｔｉａｎｑｕ　ｈｕａｑｉａｎｇｂｅｉｊｉｅｄａｏ　ｈｕａｈａｎｇｓｈｅｑｕ　ｚｈｅｎｈｕａｌｕ１１８ｈａｏ　ｈｕａｌｉｄａｙｕａｎ２ｄｏｎｇ４ｃｅｎｇ　Ｂ４０９－１　ｓｈｅｎｚｈｅｎｓｈｉ　ｇｕａｎｇｄｏｎｇｓｈｅｎｇ　５１８０００　ＣＮ,,,,,,2023-08-30,1,,,,,シェンジェンシーフアンタオワンディエンズーシャンウーヨウシエンゴンスー,0
696,3700150119599,新規,0,2023-08-30,2023-08-30,ＳｈｅｎＺｈｅｎＳｈｉＴｏｎｇＨｕｉＪｉａｎＳｈｅｎＭｅｉＴｉＹｏｕＸｉａｎＧｏｎｇＳｉ,,外国会社等,,,,,,,,ＨｕａＮａｎＣｈｅｎｇＴｉｅＤｏｎｇＷｕＬｉｕＱｕ１４Ｄｏｎｇ１０１－１２３ＨａｏＳｈａｎｇＰｕ　ＬｏｎｇＧａｎｇＱｕＰｉｎｇＨｕＪｉｅＤａｏＰｉｎｇＨｕＳｈｅＱｕＰｉｎｇＡｎＤａＤａｏＹｉＨａｏ　ＳｈｅｎＺｈｅｎＳｈｉ　ＧｕａｎｇＤｏｎｇＳｈｅｎｇ,,,,,,2023-08-30,1,,,,,シェンジェンシートンフイジエンシェンメイティーヨウシエンゴンスー,0
702,4010001238048,新規,0,2023-08-30,2023-08-30,株式会社ＴＫ商事,,株式会社,東京都,文京区,本駒込６丁目１５番１号,,13,105,1130021,,,,,,,2023-08-30,1,,,,,ティーケーショウジ,0
703,4010003041532,新規,0,2023-08-30,2023-08-30,合同会社芳調ＬＬＣ,,合同会社,東京都,中央区,日本橋人形町１丁目６番５－２０１号,,13,102,1030013,,,,,,,2023-08-30,1,,,,,ヨシチョウエルエルシー,0
704,4010003041540,新規,0,2023-08-30,2023-08-30,文恵合同会社,,合同会社,東京都,中央区,銀座１丁目２２番１１号銀座大竹ビジデンス２階,,13,102,1040061,,,,,,,2023-08-30,1,,,,,フミエ,0
717,4010401176839,新規,0,2023-08-30,2023-08-30,Ｋｏｎｇ株式会社,,株式会社,東京都,港区,赤坂９丁目７番１号ミッドタウンタワー１８階,,13,103,1070052,,,,,,,2023-08-30,1,,,,,コング,0
718,4010403030804,新規,0,2023-08-30,2023-08-30,合同会社ｍｏｔｏｐｏｌｉｃｅ,,合同会社,東京都,港区,芝浦３丁目４番１号グランパークタワー３２階,,13,103,1080023,,,,,,,2023-08-30,1,,,,,モトポリス,0
720,4010503007140,新規,0,2023-08-30,2023-08-30,みらいサポート合同会社,,合同会社,東京都,台東区,松が谷２丁目１６番２号,,13,106,1110036,,,,,,,2023-08-30,1,,,,,ミライサポート,0
726,4010801034282,新規,0,2023-08-30,2023-08-30,Ｚｏｎｅ　Ｌａｂｏ株式会社,,株式会社,東京都,大田区,山王３丁目１３番１３－３０５号,,13,111,1430023,,,,,,,2023-08-30,1,,,,,ゾーンラボ,0
727,4010803004655,新規,0,2023-08-30,2023-08-30,芳賀工房合同会社,,合同会社,東京都,大田区,大森東３丁目７－１７カーサみずのゑ２０１,,13,111,1430012,,,,,,,2023-08-30,1,,,,,ハガコウボウ,0
729,4010901053728,新規,0,2023-08-30,2023-08-30,イロイト株式会社,,株式会社,東京都,世田谷区,代沢５丁目４番１８－１０６号,,13,112,1550032,,,,,,,2023-08-30,1,,,,,イロイト,0
732,4011003017431,新規,0,2023-08-30,2023-08-30,合同会社ＢＲＡＺＩＬＩＡ,,合同会社,東京都,渋谷区,恵比寿西２丁目９－９クリスタルスクエア代官山３Ｂ,,13,113,1500021,,,,,,,2023-08-30,1,,,,,ブラジリア,0
740,4011101104172,新規,0,2023-08-30,2023-08-30,株式会社ｃｈｉｌｌｍｅｌｔ,,株式会社,東京都,新宿区,西新宿３丁目３番１３号西新宿水間ビル２Ｆ,,13,104,1600023,,,,,,,2023-08-30,1,,,,,チルメルト,0
741,4011301028972,新規,0,2023-08-30,2023-08-30,株式会社リベルタ,,株式会社,東京都,杉並区,南荻窪２丁目３５番１号Ａｌｆｌａｔ南荻窪２０１,,13,115,1670052,,,,,,,2023-08-30,1,,,,,リベルタ,0
743,4011303004889,新規,0,2023-08-30,2023-08-30,合同会社関口販売,,合同会社,東京都,杉並区,上高井戸１丁目５－１３－２０３,,13,115,1680074,,,,,,,2023-08-30,1,,,,,セキグチハンバイ,0
748,4011503005729,新規,0,2023-08-30,2023-08-30,ＲＩＤＯＳ日泰合同会社,,合同会社,東京都,北区,滝野川２丁目４－１９－１００１,,13,117,1140023,,,,,,,2023-08-30,1,,,,,リドスニッタ,0
749,4011601027088,新規,0,2023-08-30,2023-08-30,株式会社陸奥工業,,株式会社,東京都,練馬区,土支田４丁目５番１８号,,13,120,1790076,,,,,,,2023-08-30,1,,,,,ムツコウギョウ,0
767,4020001153221,新規,0,2023-08-30,2023-08-30,天佑株式会社,,株式会社,神奈川県,横浜市中区,山下町１８９番地９辰ビル２Ｆ,,14,104,2310023,,,,,,,2023-08-30,1,,,,,テンユウ,0
768,4020001153238,新規,0,2023-08-30,2023-08-30,Ｍｅｍｅｎｔｏ株式会社,,株式会社,神奈川県,横浜市都筑区,南山田３丁目３５番５号,,14,118,2240029,,,,,,,2023-08-30,1,,,,,メメント,0
772,4020003024478,新規,0,2023-08-30,2023-08-30,ＨＭ横浜瀬谷合同会社,,合同会社,神奈川県,横浜市瀬谷区,阿久和西１丁目３２－３,,14,114,2460025,,,,,,,2023-08-30,1,,,,,エイチエムヨコハマセヤ,0
773,4020003024486,新規,0,2023-08-30,2023-08-30,Ｎｏｖｉａ　Ｃｏｎｓｕｌｔｉｎｇ合同会社,,合同会社,神奈川県,横浜市神奈川区,片倉１丁目２番５３号,,14,102,2210865,,,,,,,2023-08-30,1,,,,,ノビアコンサルティング,0
776,4020005016102,新規,0,2023-08-30,2023-08-30,セキュレア横濱片倉団地管理組合法人,,その他の設立登記法人,神奈川県,横浜市神奈川区,片倉５丁目３９番９－２号,,14,102,2210865,,,,,,,2023-08-30,1,,,,,セキュレアヨコハマカタクラ,0
786,4030001155381,新規,0,2023-08-30,2023-08-30,深谷電気工事株式会社,,株式会社,埼玉県,深谷市,桜ケ丘１６番地１,,11,218,3660802,,,,,,,2023-08-30,1,,,,,フカヤデンキコウジ,0
787,4030001155506,新規,0,2023-08-30,2023-08-30,Ｃｏｍｐｌｅｔｅ　Ｒｅｎｏｖａｔｉｏｎ株式会社,,株式会社,埼玉県,さいたま市見沼区,東大宮４丁目７１番地１５,,11,104,3370051,,,,,,,2023-08-30,1,,,,,コンプリートリノベーション,0
788,4030001155596,新規,0,2023-08-30,2023-08-30,株式会社Ｓｍｎ,,株式会社,埼玉県,草加市,中根２丁目２８番９号２０２,,11,221,3400005,,,,,,,2023-08-30,1,,,,,エスエムエヌ,0
789,4030001155811,新規,0,2023-08-30,2023-08-30,ＦＵＴＡＴＳＵＫＩ　Ｅｘ株式会社,,株式会社,埼玉県,越谷市,大字弥十郎８０番地２６,,11,222,3430047,,,,,,,2023-08-30,1,,,,,フタツキエクステリア,0
797,4030003022373,新規,0,2023-08-30,2023-08-30,日本トレーディング合同会社,,合同会社,埼玉県,羽生市,大字下羽生１００２番地４,,11,216,3480026,,,,,,,2023-08-30,1,,,,,ニッポントレーディング,0
802,4040001129839,新規,0,2023-08-30,2023-08-30,株式会社山本,,株式会社,千葉県,柏市,十余二２５４番地８８４,,12,217,2770872,,,,,,,2023-08-30,1,,,,,ヤマモト,0
803,4040001129855,新規,0,2023-08-30,2023-08-30,株式会社Ｒｕｎケア,,株式会社,千葉県,市川市,曽谷５丁目３３番１０－２１０号,,12,203,2720832,,,,,,,2023-08-30,1,,,,,ランケア,0
807,4040003023164,新規,0,2023-08-30,2023-08-30,ＳＨＡＨＥＥＮ　ＴＲＡＤＩＮＧ合同会社,,合同会社,千葉県,佐倉市,千成２丁目７番１５,,12,212,2850034,,,,,,,2023-08-30,1,,,,,シャヒントレーディング,0
820,4080003003047,新規,0,2023-08-30,2023-08-30,合同会社考える葦,,合同会社,静岡県,静岡市清水区,吉川５５３－２,,22,103,4240055,,,,,,,2023-08-30,1,,,,,カンガエルアシ,0
825,4090001018260,新規,0,2023-08-30,2023-08-30,株式会社グランジュテ,,株式会社,山梨県,韮崎市,富士見１丁目５番１２号,,19,207,4070014,,,,,,,2023-08-30,1,,,,,グランジュテ,0
826,4090001018293,新規,0,2023-08-30,2023-08-30,株式会社Ｆｌａｔ　Ｐｒｉｃｅ,,株式会社,山梨県,南アルプス市,浅原５８－３,,19,208,4000333,,,,,,,2023-08-30,1,,,,,フラットプライス,0
835,4120001257689,新規,0,2023-08-30,2023-08-30,明＿器材設備株式会社,00131714,株式会社,大阪府,大阪市大正区,三軒家西３丁目４番１６号中山ビル１０１９,,27,108,5510001,,,,,,,2023-08-30,1,,,,,メイキンキザイセツビ,0
836,4120001257697,新規,0,2023-08-30,2023-08-30,泰源貿易株式会社,,株式会社,大阪府,大阪市浪速区,日本橋東３丁目７－７川田ビル４Ｆ,,27,111,5560006,,,,,,,2023-08-30,1,,,,,タイゲンボウエキ,0
837,4120001257714,新規,0,2023-08-30,2023-08-30,株式会社Ｋワークス,,株式会社,大阪府,大阪市大正区,平尾２丁目１９番６号,,27,108,5510012,,,,,,,2023-08-30,1,,,,,ケイワークス,0
838,4120003024798,新規,0,2023-08-30,2023-08-30,合同会社Ｆｒｅｅ,,合同会社,大阪府,大阪市西成区,梅南３丁目７番２７号Ｍａｙｆｅｒ３０７号室,,27,122,5570033,,,,,,,2023-08-30,1,,,,,フリー,0
843,4120903004809,新規,0,2023-08-30,2023-08-30,合同会社ＣＨＹ,,合同会社,大阪府,高槻市,別所本町１７番８－３６７号,,27,207,5691112,,,,,,,2023-08-30,1,,,,,シーエイチワイ,0
849,4140001131371,新規,0,2023-08-30,2023-08-30,株式会社まろん不動産,,株式会社,兵庫県,西宮市,鳴尾町１丁目１５番８号,,28,204,6638184,,,,,,,2023-08-30,1,,,,,マロンフドウサン,0
850,4140005026717,新規,0,2023-08-30,2023-08-30,労働者協同組合ワーカーズコープＴｒｅｅ,,その他の設立登記法人,兵庫県,神戸市西区,見津が丘４丁目１０番５号,,28,111,6512228,,,,,,,2023-08-30,1,,,,,,0
852,4160001025290,新規,0,2023-08-30,2023-08-30,株式会社ハザード,,株式会社,滋賀県,守山市,水保町１３９９番地７ピアーチェイマイ１０６,,25,207,5240102,,,,,,,2023-08-30,1,,,,,ハザード,0
860,4180001157784,新規,0,2023-08-30,2023-08-30,株式会社ＦＩＮＥ,,株式会社,愛知県,岩倉市,石仏町長北屋敷１６８０番地２（エクセルガーデンＡ棟１００２号）,,23,228,4820034,,,,,,,2023-08-30,1,,,,,ファイン,0
861,4180001157792,新規,0,2023-08-30,2023-08-30,株式会社Ｔｓｕｋｕｍｏ,,株式会社,愛知県,名古屋市昭和区,御器所町字木市２９番地,,23,107,4660061,,,,,,,2023-08-30,1,,,,,ツクモ,0
891,4260001038258,新規,0,2023-08-30,2023-08-30,株式会社ＹＴ,,株式会社,岡山県,倉敷市,青江７６０番地,,33,202,7100064,,,,,,,2023-08-30,1,,,,,ワイティー,0
894,4260005011269,新規,0,2023-08-30,2023-08-30,ＮＰＯ法人ｍａｎａｂｏ‐ｄｅ,,その他の設立登記法人,岡山県,真庭市,久世２４７７番地,,33,214,7193201,,,,,,,2023-08-30,1,,,,,マナボーデ,0
895,4280001009026,新規,0,2023-08-30,2023-08-30,株式会社フリーエンタープライズ,,株式会社,島根県,出雲市,今市町１４５２番地１,,32,203,6930001,,,,,,,2023-08-30,1,,,,,フリーエンタープライズ,0
903,4290001102804,新規,0,2023-08-30,2023-08-30,合源株式会社,,株式会社,福岡県,太宰府市,観世音寺６丁目１２番１号,,40,221,8180101,,,,,,,2023-08-30,1,,,,,ゴウゲン,0
906,4290003014287,新規,0,2023-08-30,2023-08-30,合同会社クリークヘッド,,合同会社,福岡県,久留米市,南４丁目１０番２５号,,40,203,8300051,,,,,,,2023-08-30,1,,,,,クリークヘッド,0
907,4290003014295,新規,0,2023-08-30,2023-08-30,合同会社ｓｔａｒｇａｔｈｅｒ,,合同会社,福岡県,福岡市中央区,白金２丁目１４番１４号サンシティ白金３０３号,,40,133,8100012,,,,,,,2023-08-30,1,,,,,スターゲイザー,0
918,4340001025850,新規,0,2023-08-30,2023-08-30,株式会社福永店装,,株式会社,鹿児島県,鹿児島市,岡之原町５４番地５,,46,201,8911201,,,,,,,2023-08-30,1,,,,,フクナガテンソウ,0
925,4360001032465,新規,0,2023-08-30,2023-08-30,株式会社Ｌｉｆｅ　ｂｕｄｄｙ,,株式会社,沖縄県,那覇市,前島３丁目２５番２号,,47,201,9000016,,,,,,,2023-08-30,1,,,,,ライフバディ,0
930,4400001016356,新規,0,2023-08-30,2023-08-30,株式会社Ｐｅａｃｅ　ＳＰＲＩＮＧ,,株式会社,岩手県,紫波郡紫波町,北日詰字白旗１３０番地１７,,03,321,0283309,,,,,,,2023-08-30,1,,,,,ピーススプリング,0
935,4430003015386,新規,0,2023-08-30,2023-08-30,合同会社Ｓｕｇａｒ　Ｒａｙ,,合同会社,北海道,千歳市,弥生３丁目６番１６号,,01,224,0660024,,,,,,,2023-08-30,1,,,,,シュガーレイ,0
943,4490001010573,新規,0,2023-08-30,2023-08-30,株式会社ＫＥダイニング,,株式会社,高知県,南国市,大＿甲１４５０番地１,00131713,39,204,7830004,,,,,,,2023-08-30,1,,,,,ケーイーダイニング,0
945,4700150116496,新規,0,2023-08-30,2023-08-30,Ｄｏｎｇｇｕａｎ　Ｄｏｎｇｗｅｉ　Ｎｅｗ　Ｅｎｅｒｇｙ　Ｉｎｖｅｓｔｅｄ　Ｌｔｄ．Ｃｏｍｐａｎｙ,,外国会社等,,,,,,,,Ｎｏ．５１，Ｊｉｎｙｕａｎ　Ｎｅｗ　Ｒｏａｄ，Ｈｕａｎｇｋｅｎｇ　Ｉｎｄｕｓｔｒｉａｌ　Ｚｏｎｅ，Ｓｈｉｌｏｎｇｋｅｎｇ，Ｌｉａｏｂｕ　Ｔｏｗｎ，Ｄｏｎｇｇｕａｎ　Ｃｉｔｙ,,,,,,2023-08-30,1,,,,,ヒガシカンシトウイシンノウゲントウシユウゲンカイシャ,0
946,4700150119540,新規,0,2023-08-30,2023-08-30,ｓｈｅｎｚｈｅｎｓｈｉｂｏｒｕｉｊｉａｈｅｋｅｊｉｆａｚｈａｎｙｏｕｘｉａｎｇｏｎｇｓｉ,,外国会社等,,,,,,,,Ｑｉａｏｓｈｅｎ　ＲｏａｄＧａｏｆａ　Ｃｏｍｍｕｎｉｔｙ，Ｓｈａｈｅ　Ｓｔｒｅｅｔ，Ｎａｎｓｈａｎ　Ｄｉｓｔｒｉｃｔ　２－３Ｅ，Ｕｎｉｔ　２，Ａｐａｒｔｍｅｎｔ　３，Ｑｉａｏｆｅｎｇｇｅ，Ｏｒｉｅｎｔａｌ　Ｓｃｉｅｎｃｅ　Ｓｈｅｎｚｈｅｎ　ｇｏｎｇｄｏｎｇ,,,,,,2023-08-30,1,,,,,シンセンシボールイジャーヘイテクノロジーユウゲンカイシャ,0
947,4700150119549,新規,0,2023-08-30,2023-08-30,ｓｈｅｎ　ｚｈｅｎ　ｓｈｉ　ｃｈｕ　ｇｅ　ｋｅ　ｊｉ　ｙｏｕ　ｘｉａｎ　ｇｏｎｇ　ｓｉ,,外国会社等,,,,,,,,ｂａｎｔｉａｎｊｉｅｄａｏｗｕｈｅｓｈｅｑｕ　ｙａｙｕａｎｌｕ２２ｈａｏｚｈｏｎｇｇｕａｎｇｄａｓｈａ８０１　ｓｈｅｎｚｈｅｎｓｈｉ　ｌｏｎｇｇａｎｇｑｕ　ｇｕａｎｇｄｏｎｇｓｈｅｎｇ　５１８１００　ＣＮ,,,,,,2023-08-30,1,,,,,シェンジェンシーチューゴーコージーヨウシエンゴンスー,0
948,4700150119557,新規,0,2023-08-30,2023-08-30,ｓｈｅｎｚｈｅｎｓｈｉｙｕｌｏｎｇｌｏｎｇｄｉａｎｚｉｋｅｊｉ　ｙｏｕｘｉａｎｇｏｎｇｓｉ,,外国会社等,,,,,,,,ｄａｌａｎｇｊｉｅｄａｏｄａｌａｎｇｓｈｅｑｕｋａｉｂｉｎｘｉｎｃｕｎ１４７ｈａｏ４０２Ｌｏｎｇｈｕａｑｕ　Ｓｈｅｎｚｈｅｎｓｈｉ　Ｃｈｉｎａ,,,,,,2023-08-30,1,,,,,シンセンシユロンロンデンシカギユウゲンコウシ,0
949,4700150119581,新規,0,2023-08-30,2023-08-30,ｑｕａｎｐｉｎ　ｓｔｏｒｅ,,外国会社等,,,,,,,,Ｒｏｏｍ　５０６，Ｂｕｉｌｄｉｎｇ　２，Ｆｕｃｈｅｎ　Ｂｕｓｉｎｅｓｓ　Ｐｌａｚａ，Ｘｉｎｂｅｉ　Ｄｉｓｔｒｉｃｔ　Ｃｈａｎｇｚｈｏｕ　Ｃｉｔｙ　２１３００１　ＣＮ,,,,,,2023-08-30,1,,,,,チャンジョウチュエンピンシャンマオヨウシエンゴンスー,0
950,4700150119598,新規,0,2023-08-30,2023-08-30,ｑｉａｎｍｉａｎｋｅｊｉｓｈｅｎｚｈｅｎｙｏｕｘｉａｎｇｏｎｇｓｉ,,外国会社等,,,,,,,,ｂａｏ　ａｎ　ｑｕ　ｓｈｉ　ｙａｎ　ｊｉｅ　ｄａｏ　ｙｕａｎ　ｌｉｎｇ　ｊｉｕ　ｃｕｎ　ｙｉ　ｑｕ　８ｈａｏ　２６８ｙｕａｎ　ｌｉｎｇ　ｃｈｕａｎｇ　ｋｅ　ｋｏｎｇ　ｊｉａｎ　８ｌｏｕ　ｓｈｅｎ　ｚｈｅｎ　ｓｈｉ　ｇｕａｎｇ　ｄｏｎｇ　ｓｈｅｎｇ　５１８１０８　ＣＮ,,,,,,2023-08-30,1,,,,,チエンミエンコージーシェンジェンヨウシエンゴンスー,0
957,5010001238055,新規,0,2023-08-30,2023-08-30,株式会社ツナグ,,株式会社,東京都,文京区,春日２丁目１９－１２－３０２,,13,105,1120003,,,,,,,2023-08-30,1,,,,,ツナグ,0
961,5010003041515,新規,0,2023-08-30,2023-08-30,ＨＬＢ１５号合同会社,,合同会社,東京都,千代田区,霞が関３丁目２番５号,,13,101,1000013,,,,,,,2023-08-30,1,,,,,エイチエルビージュウゴゴウ,0
970,5010401176838,新規,0,2023-08-30,2023-08-30,株式会社ナジラボ,,株式会社,東京都,港区,南青山３丁目１番３６号青山丸竹ビル６Ｆ,,13,103,1070062,,,,,,,2023-08-30,1,,,,,ナジラボ,0
975,5010403030778,新規,0,2023-08-30,2023-08-30,合同会社Ｇ＆Ｏ,,合同会社,東京都,港区,南青山３丁目１番３６号青山丸竹ビル６Ｆ,,13,103,1070062,,,,,,,2023-08-30,1,,,,,ジーアンドオー,0
976,5010403030852,新規,0,2023-08-30,2023-08-30,ストーンウッド合同会社,,合同会社,東京都,港区,白金２丁目５－５－４０３号,,13,103,1080072,,,,,,,2023-08-30,1,,,,,ストーンウッド,0
980,5010501050967,新規,0,2023-08-30,2023-08-30,株式会社エムケーマートプラス,,株式会社,東京都,台東区,上野６丁目１番６－１００５号,,13,106,1100005,,,,,,,2023-08-30,1,,,,,エムケーマートプラス,0
988,5010901053677,新規,0,2023-08-30,2023-08-30,株式会社Ｍｅｂｕｋｉ,,株式会社,東京都,世田谷区,奥沢４丁目３０番１４号,,13,112,1580083,,,,,,,2023-08-30,1,,,,,メブキ,0
994,5011001156643,新規,0,2023-08-30,2023-08-30,株式会社ｋａｓｕｍｉ,,株式会社,東京都,渋谷区,道玄坂１丁目１０番８号渋谷道玄坂東急ビル２Ｆ－Ｃ,,13,113,1500043,,,,,,,2023-08-30,1,,,,,カスミ,0
1000,5011101104171,新規,0,2023-08-30,2023-08-30,株式会社レアルエステート,,株式会社,東京都,新宿区,四谷４丁目２３－１５－４０２,,13,104,1600004,,,,,,,2023-08-30,1,,,,,レアルエステート,0
1005,5011201024880,新規,0,2023-08-30,2023-08-30,株式会社ＺＯＮＥ,,株式会社,東京都,中野区,本町４丁目３０番２号アムニス中野２０１,,13,114,1640012,,,,,,,2023-08-30,1,,,,,ゾーン,0
1021,5011805003289,新規,0,2023-08-30,2023-08-30,一般社団法人東立石グリスロ運営協議会,,その他の設立登記法人,東京都,葛飾区,東立石２丁目１５番７号,,13,122,1240013,,,,,,,2023-08-30,1,,,,,ヒガシタテイシグリスロウンエイキョウギカイ,0
1025,5012801022596,新規,0,2023-08-30,2023-08-30,株式会社サイズ,,株式会社,東京都,立川市,上砂町５丁目７２－３ハイホーム立川５１０,,13,202,1900032,,,,,,,2023-08-30,1,,,,,サイズ,0
1027,5013105001832,新規,0,2023-08-30,2023-08-30,特定非営利活動法人まちづくりコンソーシアム,,その他の設立登記法人,東京都,あきる野市,秋川２丁目６番地１０田村ビル２Ｆ,,13,228,1970804,,,,,,,2023-08-30,1,,,,,マチヅクリコンソーシアム,0
1031,5013301051268,新規,0,2023-08-30,2023-08-30,株式会社ＴＨＣ,,株式会社,東京都,豊島区,駒込１丁目３０番６－１０１号,,13,116,1700003,,,,,,,2023-08-30,1,,,,,ティーエイチシー,0
1033,5020001153245,新規,0,2023-08-30,2023-08-30,株式会社ツカサテック,,株式会社,神奈川県,横浜市港北区,篠原北２丁目１１番１号１,,14,109,2220021,,,,,,,2023-08-30,1,,,,,ツカサテック,0
1038,5020003024485,新規,0,2023-08-30,2023-08-30,合同会社Ｓｔｅｌｌａ,,合同会社,神奈川県,横浜市西区,みなとみらい４丁目１０番１－Ｅ２１０号,,14,103,2200012,,,,,,,2023-08-30,1,,,,,,0
1039,5020003024493,新規,0,2023-08-30,2023-08-30,合同会社ワンマイル,,合同会社,神奈川県,横浜市金沢区,六浦南１丁目４－１３,,14,108,2360038,,,,,,,2023-08-30,1,,,,,ワンマイル,0
1040,5020005016101,新規,0,2023-08-30,2023-08-30,一般社団法人寺子屋こすもす,,その他の設立登記法人,神奈川県,横浜市神奈川区,栄町２２番地の９,,14,102,2210052,,,,,,,2023-08-30,1,,,,,,0
1047,5030001155372,新規,0,2023-08-30,2023-08-30,株式会社優樹園,,株式会社,埼玉県,三郷市,三郷１丁目２番地４三郷スカイマンション２０２号,,11,237,3410024,,,,,,,2023-08-30,1,,,,,ユウジュエン,0
1048,5030001155380,新規,0,2023-08-30,2023-08-30,株式会社エムズ建装,,株式会社,埼玉県,深谷市,宿根６１３番地１,,11,218,3660810,,,,,,,2023-08-30,1,,,,,エムズケンソウ,0
1049,5030001155439,新規,0,2023-08-30,2023-08-30,株式会社Ｄ・Ｃ　ｕｎｉｔｅ,,株式会社,埼玉県,春日部市,大枝３５２番地３,,11,214,3440023,,,,,,,2023-08-30,1,,,,,ディーシーユナイト,0
1050,5030001155455,新規,0,2023-08-30,2023-08-30,株式会社レクストラージ,,株式会社,埼玉県,上尾市,愛宕１丁目１番１０号ＳＫマンション２０４号室,,11,219,3620034,,,,,,,2023-08-30,1,,,,,レクストラージ,0
1051,5030001155785,新規,0,2023-08-30,2023-08-30,ｋ‐ｗｏｒｋｓ株式会社,,株式会社,埼玉県,さいたま市岩槻区,大字上野６９番地２１,,11,110,3390073,,,,,,,2023-08-30,1,,,,,ケイワークス,0
1052,5030001155793,新規,0,2023-08-30,2023-08-30,株式会社星のや,,株式会社,埼玉県,久喜市,鷲宮２９６２,,11,232,3400217,,,,,,,2023-08-30,1,,,,,ホシノヤ,0
1054,5030005021372,新規,0,2023-08-30,2023-08-30,一般社団法人日本オムニセラピー協会,,その他の設立登記法人,埼玉県,川口市,戸塚鋏町１１番３３号ソシアル１０２号,,11,203,3330805,,,,,,,2023-08-30,1,,,,,ニホンオムニセラピーキョウカイ,0
1062,5040001129854,新規,0,2023-08-30,2023-08-30,株式会社Ｓｈｉｒａｉｎｃｈｉ,,株式会社,千葉県,千葉市稲毛区,小仲台６丁目２８番１１号サニーハイツ３０３,,12,103,2630043,,,,,,,2023-08-30,1,,,,,シラインチ,0
1069,5070001040810,新規,0,2023-08-30,2023-08-30,株式会社ジョースター不動産,,株式会社,群馬県,高崎市,飯玉町１０番地,,10,202,3700063,,,,,,,2023-08-30,1,,,,,ジョースターフドウサン,0
1071,5080003003046,新規,0,2023-08-30,2023-08-30,合同会社風輝,,合同会社,静岡県,静岡市葵区,新伝馬３丁目１０―２２,,22,101,4200944,,,,,,,2023-08-30,1,,,,,フウキ,0
1074,5080101024183,新規,0,2023-08-30,2023-08-30,株式会社ｂｅコネクト,,株式会社,静岡県,沼津市,中沢田２９７番地の２クレールシエソワ２０３号,,22,203,4100006,,,,,,,2023-08-30,1,,,,,ビーコネクト,0
1075,5080103002880,新規,0,2023-08-30,2023-08-30,合同会社ＬａｇＦ,,合同会社,静岡県,沼津市,大手町５丁目８番６号,,22,203,4100801,,,,,,,2023-08-30,1,,,,,エルエージーエフ,0
1078,5090001018301,新規,0,2023-08-30,2023-08-30,株式会社美と健康の食卓,,株式会社,山梨県,甲斐市,宇津谷４５４８,,19,210,4000108,,,,,,,2023-08-30,1,,,,,ビトケンコウノショクタク,0
1088,5120001257688,新規,0,2023-08-30,2023-08-30,ゼンケイ株式会社,,株式会社,大阪府,大阪市中央区,松屋町９番２０号ローレルステート松屋町９０４Ａ,,27,128,5420067,,,,,,,2023-08-30,1,,,,,ゼンケイ,0
1089,5120001257696,新規,0,2023-08-30,2023-08-30,株式会社柚選,,株式会社,大阪府,大阪市東住吉区,杭全８丁目９番１８号,,27,121,5460002,,,,,,,2023-08-30,1,,,,,ユセン,0
1090,5120001257713,新規,0,2023-08-30,2023-08-30,聖和株式会社,,株式会社,大阪府,大阪市生野区,巽北１丁目７番３号３０５号室,00131702,27,116,5440004,,,,,,,2023-08-30,1,,,,,セイワ,0
1096,5120903004808,新規,0,2023-08-30,2023-08-30,合同会社はらごはん,,合同会社,大阪府,箕面市,箕面６丁目９番７号,,27,220,5620001,,,,,,,2023-08-30,1,,,,,ハラゴハン,0
1098,5130003008931,新規,0,2023-08-30,2023-08-30,合同会社ＥＭＺＥＱ,,合同会社,京都府,京都市南区,東九条東御霊町５２－２０,,26,107,6018028,,,,,,,2023-08-30,1,,,,,エムゼック,0
1103,5150003003047,新規,0,2023-08-30,2023-08-30,ＳＫＹＰＡＴＨ合同会社,,合同会社,奈良県,奈良市,鳥見町２丁目１１番地の２,,29,201,6310065,,,,,,,2023-08-30,1,,,,,スカイパス,0
1106,5160003002972,新規,0,2023-08-30,2023-08-30,富澤合同会社,,合同会社,滋賀県,大津市,下阪本３丁目２４番３７号,,25,201,5200105,,,,,,,2023-08-30,1,,,,,トミザワ,0
1107,5180001157775,新規,0,2023-08-30,2023-08-30,ＭＤＳ株式会社,,株式会社,愛知県,半田市,青山２丁目３番地の１１ＧＡあおやま１０１,,23,205,4750836,,,,,,,2023-08-30,1,,,,,エムディーエス,0
1108,5180001157783,新規,0,2023-08-30,2023-08-30,株式会社はるはる,,株式会社,愛知県,名古屋市緑区,鎌倉台２丁目５０１番地の２,,23,114,4580829,,,,,,,2023-08-30,1,,,,,ハルハル,0
1109,5180001157791,新規,0,2023-08-30,2023-08-30,株式会社スィナン建設,,株式会社,愛知県,名古屋市名東区,極楽５丁目１３５番地,,23,115,4650053,,,,,,,2023-08-30,1,,,,,スィナンケンセツ,0
1110,5180001157800,新規,0,2023-08-30,2023-08-30,株式会社ゴリ上がりＷＥＢ,,株式会社,愛知県,名古屋市中村区,名駅４丁目２４番５号第２森ビル４０１,,23,105,4500002,,,,,,,2023-08-30,1,,,,,ゴリアガリウェブ,0
1114,5180003025674,新規,0,2023-08-30,2023-08-30,合同会社イチマルサン,,合同会社,愛知県,名古屋市緑区,作の山町８０番地の１０３,,23,114,4580038,,,,,,,2023-08-30,1,,,,,イチマルサン,0
1117,5180301037751,新規,0,2023-08-30,2023-08-30,ＧＯＡＴｃｏａｔｉｎｇ株式会社,,株式会社,愛知県,岡崎市,橋目町字御小屋西１８９‐３,,23,202,4440909,,,,,,,2023-08-30,1,,,,,ゴウトコーティング,0
1127,5260001038257,新規,0,2023-08-30,2023-08-30,株式会社Ａ＆Ｒ,,株式会社,岡山県,岡山市北区,大供表町３番１－８０５号,,33,101,7000912,,,,,,,2023-08-30,1,,,,,エーアンドアール,0
1129,5260005011268,新規,0,2023-08-30,2023-08-30,一般社団法人子どもの姿勢と歩き方研究所,,その他の設立登記法人,岡山県,岡山市北区,大元上町７番２０号,,33,101,7000925,,,,,,,2023-08-30,1,,,,,コドモノシセイトアルキカタケンキュウジョ,0
1131,5290001102828,新規,0,2023-08-30,2023-08-30,地球学院株式会社,,株式会社,福岡県,福岡市博多区,比恵町１番１８号２０５号室,,40,132,8120014,,,,,,,2023-08-30,1,,,,,チキュウガクイン,0
1132,5290003014286,新規,0,2023-08-30,2023-08-30,合同会社シエスタ,,合同会社,福岡県,福岡市博多区,竹下４丁目６－２７－７０１,,40,132,8120895,,,,,,,2023-08-30,1,,,,,シエスタ,0
1134,5290801029816,新規,0,2023-08-30,2023-08-30,株式会社Ｊ　ｆａｃｔｏｒｉｅｓ,,株式会社,福岡県,北九州市八幡西区,永犬丸西町２丁目３番２３号,,40,109,8070852,,,,,,,2023-08-30,1,,,,,ジェーファクトリーズ,0
1139,5320001019969,新規,0,2023-08-30,2023-08-30,株式会社ＫＩＫＯＲＩ,,株式会社,大分県,別府市,幸町４－１５－７０５,,44,202,8740907,,,,,,,2023-08-30,1,,,,,キコリ,0
1147,5350003004421,新規,0,2023-08-30,2023-08-30,ランクルスワンプ合同会社,,合同会社,宮崎県,宮崎市,波島２丁目２６－７,,45,201,8800826,,,,,,,2023-08-30,1,,,,,ランクルスワンプ,0
1148,5360001032472,新規,0,2023-08-30,2023-08-30,株式会社津嘉山開発,,株式会社,沖縄県,浦添市,牧港１丁目４３番１６－１０１号,,47,208,9012131,,,,,,,2023-08-30,1,,,,,ツカザンカイハツ,0
1150,5360003013132,新規,0,2023-08-30,2023-08-30,合同会社角家,,合同会社,沖縄県,うるま市,字西原５４番地３セイバリーアゲナ３０１号室,,47,213,9042204,,,,,,,2023-08-30,1,,,,,カドヤ,0
1151,5360003013248,新規,0,2023-08-30,2023-08-30,合同会社ｋｉｙｏｌａｋａ,,合同会社,沖縄県,那覇市,泊１丁目６番地３ライオンズマンション泊第５－４０１,,47,201,9000012,,,,,,,2023-08-30,1,,,,,キヨラカ,0
1152,5370001050333,新規,0,2023-08-30,2023-08-30,株式会社アーク,,株式会社,宮城県,仙台市泉区,将監８丁目１１番８－２号,,04,105,9813132,,,,,,,2023-08-30,1,,,,,アーク,0
1155,5380005012741,新規,0,2023-08-30,2023-08-30,特定非営利活動法人ＫＡＧＥＮ,,その他の設立登記法人,福島県,いわき市,平字十五町目２番地,,07,204,9708026,,,,,,,2023-08-30,1,,,,,カゲン,0
1175,5700150118384,新規,0,2023-08-30,2023-08-30,ｙｕｅｑｉｎｇｅｒｅｒ　Ｔｒａｄｉｎｇ　Ｃｏｍｐａｎｙ　Ｌｔｄ．,,外国会社等,,,,,,,,ｙｕｅｑｉｎｇｓｈｉｂｅｉｂａｉｘｉａｎｇｚｈｅｎｑｉａｎｘｉｃｕｎｆａｎｒｏｎｇｌｕ６ｈａｏ,,,,,,2023-08-30,1,,,,,ガクシンエルエルボウエキユウゲンカイシャ,0
1176,5700150119548,新規,0,2023-08-30,2023-08-30,ｇｕａｎｇｄｏｎｇｂｉｅｎｚｈｉｎｅｎｇｊｉａｊｕｙｏｕｘｉａｎｇｏｎｇｓｉ,,外国会社等,,,,,,,,ｇｕａｎｇｚｈｏｕｓｈｉｂａｉｙｕｎｑｕｒｅｎｈｅｚｈｅｎｈｅｌｏｎｇｗｕｌｕ４６４ｈａｏｓｈａｎｇｙｉｎｇｃｈｕａｎｇｙｉｙｕａｎｅｒｑｉＥｚｈｕａｎｇ２０１,,,,,,2023-08-30,1,,,,,グワンドンビーエンジーノンジャージーヨウシエンゴンスー,0
1177,5700150119556,新規,0,2023-08-30,2023-08-30,Ｓｈｅｎｚｈｅｎｓｈｉｓｈｅｎｎａｎｓｈｉｃｈｕａｎｇｋｅｊｉｙｏｕｘｉａｎｇｏｎｇｓｉ,,外国会社等,,,,,,,,ｇｕｉｙｕａｎｊｉｅｄａｏｒｅｎｍｉｎｇｑｉａｏｓｈｅｑｕ　ｈｅｐｉｎｇｌｕ３００９ｈａｏｈｅｐｉｎｇｇｕａｎｇｃｈａｎｇｈｕａｔｉｎｇｘｕａｎ１６Ｂ　ｓｈｅｎｚｈｅｎｓｈｉｌｕｏｈｕｑｕ　Ｇｕａｎｇｄｏｎｇ,,,,,,2023-08-30,1,,,,,シンセンシシンナンジツソウカギユウゲンコウシ,0
1178,5700150119580,新規,0,2023-08-30,2023-08-30,ｓｈａｎｘｉｔｉａｎｈｕａｓｈａｎｇｍａｏｙｏｕｘｉａｎｇｏｎｇｓｉ,,外国会社等,,,,,,,,ｓｈａｎｘｉｓｈｉｆａｎｑｕｊｉｎｚｈｏｎｇｋａｉｆａｑｕｈｕｉｔｏｎｇｃｈａｎｙｅｙｕａｎｑｕｈｕｉｔｏｎｇｂｅｉｌｕ　３４１ｈａｏｌａｎｔｉａｎｓｈｏｕｆｕｘｉａｏｑｕ２ｚｈｕａｎｇ２ｄａｎｙｕａｎ－２２０１ｈａｏｆａｎｇ　ｊｉｎｚｈｏｎｇｓｈｉ　ｓｈａｎｘｉｓｈｅｎｇ　０３０６２１　ＣＮ,,,,,,2023-08-30,1,,,,,シャンシーティエンフワーシャンマオヨウシエンゴンスー,0
1179,5700150119589,新規,0,2023-08-30,2023-08-30,Ｓｈｅｎｚｈｅｎ　Ｃｉｔｙ　ＣｈｅｎＧａｏ　Ｔｅｃｈｎｏｌｏｇｙ　Ｃｏ　Ｌｔｄ,,外国会社等,,,,,,,,１４０６，Ｎｏ．３６７，Ｂａｏｌｏｎｇ　Ｎｅｗ　Ｖｉｌ．，Ｌａｎｇｋｏｕ　Ｃｏｍｍｕｎｉｔｙ，Ｄａｌａｎｇ　Ｓｔｒｅｅｔ　Ｌｏｎｇｈｕａ　Ｄｉｓｔｒｉｃｔ　Ｓｈｅｎｚｈｅｎ　Ｃｉｔｙ　Ｇｕａｎｇｄｏｎｇ　Ｐｒｏｖｉｎｃｅ　５１８０００　ＣＮ,,,,,,2023-08-30,1,,,,,シェンジェンシーチェンガオコージーヨウシエンゴンスー,0
1180,5700150119597,新規,0,2023-08-30,2023-08-30,Ｆｏ　Ｓｈａｎ　Ｓｈｉ　Ｈａｏ　Ｙｉ　Ｍａｏ　Ｙｉ　Ｙｏｕ　Ｘｉａｎ　Ｇｏｎｇ　Ｓｉ,,外国会社等,,,,,,,,ｆｅｎｊｉａｎｇｂｅｉｌｕ７６ｈａｏｓｉｃｅｎｇ１９ｈａｏ　ｃｈａｎｃｈｅｎｇｑｕｚｕｍｉａｏｊｉｅｄａｏ　ｆｏｓｈａｎｓｈｉ　ｇｕａｎｇｄｏｎｇｓｈｅｎｇ　５２８０９９　ＣＮ,,,,,,2023-08-30,1,,,,,フォーシャンシーハオイーマオイーヨウシエンゴンスー,0
1187,6010003041530,新規,0,2023-08-30,2023-08-30,Ｐｏｒｔｒａｉｔ　Ｈｏｌｄｉｎｇｓ合同会社,,合同会社,東京都,千代田区,丸の内３丁目１番１号東京共同会計事務所内,,13,101,1000005,,,,,,,2023-08-30,1,,,,,ポートレートホールディングス,0
1193,6010401176845,新規,0,2023-08-30,2023-08-30,株式会社Ｓｏｍｅｏｎｅ　Ｓｐｅｃｉａｌ,,株式会社,東京都,港区,赤坂４丁目２番６号住友不動産新赤坂ビル５階,,13,103,1070052,,,,,,,2023-08-30,1,,,,,サムワンスペシャル,0
1195,6010403030819,新規,0,2023-08-30,2023-08-30,ＨａｒｄＨａｔ　Ａｄｍｉｎ　Ｓｅｒｖｉｃｅｓ　Ｊａｐａｎ合同会社,,合同会社,東京都,港区,南青山１丁目２４番３号,,13,103,1070062,,,,,,,2023-08-30,1,,,,,ハードハットアドミンサービシズジャパン,0
1200,6010503007139,新規,0,2023-08-30,2023-08-30,レ・ポワッソン合同会社,,合同会社,東京都,台東区,千束４丁目４３番２－８０２号プレジール入谷,,13,106,1110031,,,,,,,2023-08-30,1,,,,,レポワッソン,0
1202,6010601063694,新規,0,2023-08-30,2023-08-30,３５門株式会社,,株式会社,東京都,墨田区,横川１丁目１５番１－５０７号,,13,107,1300003,,,,,,,2023-08-30,1,,,,,サンジュウゴモン,0
1215,6011001156642,新規,0,2023-08-30,2023-08-30,株式会社金天創,,株式会社,東京都,渋谷区,神宮前６丁目２３番４号桑野ビル２階,,13,113,1500001,,,,,,,2023-08-30,1,,,,,,0
1216,6011003017446,新規,0,2023-08-30,2023-08-30,ＴＯＣインバウンド合同会社,,合同会社,東京都,渋谷区,渋谷３丁目８番７号第二窪島ビル５階,,13,113,1500002,,,,,,,2023-08-30,1,,,,,ティーオーシーインバウンド,0
1219,6011101104146,新規,0,2023-08-30,2023-08-30,株式会社ＴｅａｍＦｒｅｓｈ　Ｊａｐａｎ,,株式会社,東京都,新宿区,大久保２丁目１番８号,,13,104,1690072,,,,,,,2023-08-30,1,,,,,チームフレッシュジャパン,0
1220,6011101104154,新規,0,2023-08-30,2023-08-30,エントリガー株式会社,,株式会社,東京都,新宿区,早稲田鶴巻町５２０番地１０,,13,104,1620041,,,,,,,2023-08-30,1,,,,,エントリガー,0
1221,6011101104170,新規,0,2023-08-30,2023-08-30,株式会社ハウスクリーンジャパン,,株式会社,東京都,新宿区,西新宿６丁目２５－１６－９０３,,13,104,1600023,,,,,,,2023-08-30,1,,,,,ハウスクリーンジャパン,0
1223,6011401025414,新規,0,2023-08-30,2023-08-30,歌と音楽の未来へ株式会社,,株式会社,東京都,板橋区,成増２丁目１５番１７号,,13,119,1750094,,,,,,,2023-08-30,1,,,,,ウタトオンガクノミライヘ,0
1235,6011801042959,新規,0,2023-08-30,2023-08-30,株式会社小野工業,,株式会社,東京都,足立区,中川１丁目１４番３－２０３号,,13,121,1200002,,,,,,,2023-08-30,1,,,,,オノコウギョウ,0
1236,6011803005807,新規,0,2023-08-30,2023-08-30,合同会社ＩＳＭ,,合同会社,東京都,葛飾区,新宿６丁目２番１―３２１号シティタワー金町タワー棟,,13,122,1250051,,,,,,,2023-08-30,1,,,,,アイエスエム,0
1237,6012301013574,新規,0,2023-08-30,2023-08-30,株式会社Ｐｈｌｏｘ,,株式会社,東京都,町田市,相原町２３６７－１,,13,209,1940211,,,,,,,2023-08-30,1,,,,,フロックス,0
1238,6012401040931,新規,0,2023-08-30,2023-08-30,株式会社ｍｅｉｎｇ,,株式会社,東京都,小金井市,緑町５丁目２０番２９号,,13,210,1840003,,,,,,,2023-08-30,1,,,,,ミーイング,0
1239,6012405004890,新規,0,2023-08-30,2023-08-30,一般社団法人八幡園,,その他の設立登記法人,東京都,小金井市,中町３丁目２２番２５号１０１,,13,210,1840012,,,,,,,2023-08-30,1,,,,,ヤワタエン,0
1251,6020003024476,新規,0,2023-08-30,2023-08-30,ｅ‐ｂｕｉｌｄｉｎｇ合同会社,,合同会社,神奈川県,横浜市港北区,高田東４丁目２３番２２号リバービュー２Ｆ,,14,109,2230065,,,,,,,2023-08-30,1,,,,,イービルディング,0
1252,6020003024484,新規,0,2023-08-30,2023-08-30,合同会社Ｔ‐ＥＮＧ,,合同会社,神奈川県,横浜市金沢区,釜利谷南４丁目３番１０号グリーンハイツ１０２,,14,108,2360045,,,,,,,2023-08-30,1,,,,,ティーエンジ,0
1255,6021001080049,新規,0,2023-08-30,2023-08-30,株式会社ＦＲＥＸ,,株式会社,神奈川県,綾瀬市,小園南１丁目１５番１３号,,14,218,2521122,,,,,,,2023-08-30,1,,,,,フレックス,0
1259,6030001155462,新規,0,2023-08-30,2023-08-30,株式会社廣瀬建設,00131705,株式会社,埼玉県,熊谷市,今井７９１番地１,,11,202,3600005,,,,,,,2023-08-30,1,,,,,ヒロセケンセツ,0
1260,6030001155520,新規,0,2023-08-30,2023-08-30,ＡｎｙＴｒａｉｌ株式会社,,株式会社,埼玉県,さいたま市南区,鹿手袋５丁目２番１１号ラボヌール２０３号,,11,108,3360031,,,,,,,2023-08-30,1,,,,,エニートレイル,0
1261,6030001155537,新規,0,2023-08-30,2023-08-30,笠原技建株式会社,,株式会社,埼玉県,さいたま市岩槻区,宮町２丁目１５番２９号,,11,110,3390065,,,,,,,2023-08-30,1,,,,,カサハラギケン,0
1263,6030003022347,新規,0,2023-08-30,2023-08-30,合同会社ＰｒｉｖａｔｅＲａｍｐ７５,,合同会社,埼玉県,さいたま市岩槻区,大字横根１５７６－１横根倉庫,,11,110,3390036,,,,,,,2023-08-30,1,,,,,プライベートランプセブンファイブ,0
1264,6030003022355,新規,0,2023-08-30,2023-08-30,ｒｅＢａｕ合同会社,,合同会社,埼玉県,吉川市,大字保５５６番地１第一メジャーマンション２０３号,,11,243,3420041,,,,,,,2023-08-30,1,,,,,リバウ,0
1265,6030003022371,新規,0,2023-08-30,2023-08-30,ＳＴＲＥＮ合同会社,,合同会社,埼玉県,飯能市,美杉台３丁目６番地１２,,11,209,3570041,,,,,,,2023-08-30,1,,,,,ストレン,0
1277,6040001129837,新規,0,2023-08-30,2023-08-30,Ａａｖｏ　ｉｎｔｅｒｎａｔｉｏｎａｌ株式会社,,株式会社,千葉県,千葉市花見川区,内山町１６７番地１,,12,102,2620002,,,,,,,2023-08-30,1,,,,,アアヴォインターナショナル,0
1278,6040001129845,新規,0,2023-08-30,2023-08-30,株式会社ＢａｍｂｏｏＧＴ,,株式会社,千葉県,千葉市中央区,祐光１丁目３０番１１号,,12,101,2600007,,,,,,,2023-08-30,1,,,,,バンブージーティー,0
1282,6040003023162,新規,0,2023-08-30,2023-08-30,ＷＯＯＤ　ＶＩＬＬＡＧＥ合同会社,,合同会社,千葉県,我孫子市,緑１丁目６番４９号,,12,222,2701153,,,,,,,2023-08-30,1,,,,,ウッドビレッジ,0
1283,6040003023204,新規,0,2023-08-30,2023-08-30,フォーリッジ合同会社,,合同会社,千葉県,船橋市,飯山満町３丁目１６６１番地４６,,12,204,2740822,,,,,,,2023-08-30,1,,,,,フォーリッジ,0
1303,6090001018300,新規,0,2023-08-30,2023-08-30,株式会社Ｃａｌｍ,,株式会社,山梨県,甲府市,丸の内２丁目２番１号ＣＲＯＳＳ５００・１階,,19,201,4000031,,,,,,,2023-08-30,1,,,,,カーム,0
1304,6090003002376,新規,0,2023-08-30,2023-08-30,アーラーエンタープライズ合同会社,,合同会社,山梨県,南アルプス市,六科１４３９番地,,19,208,4000206,,,,,,,2023-08-30,1,,,,,アーラーエンタープライズ,0
1306,6100003007159,新規,0,2023-08-30,2023-08-30,合同会社コッパタ,,合同会社,長野県,岡谷市,湊３丁目１２番１３号,,20,204,3940044,,,,,,,2023-08-30,1,,,,,コッパタ,0
1313,6120001257687,新規,0,2023-08-30,2023-08-30,華＿株式会社,00131712,株式会社,大阪府,大阪市大正区,三軒家西３丁目４番１６号中山ビル１０２７,,27,108,5510001,,,,,,,2023-08-30,1,,,,,カブン,0
1320,6120903004807,新規,0,2023-08-30,2023-08-30,合同会社ｍｉｒａｃｏｌｏ,,合同会社,大阪府,箕面市,箕面６丁目９番７号,,27,220,5620001,,,,,,,2023-08-30,1,,,,,ミラコロ,0
1323,6122001037318,新規,0,2023-08-30,2023-08-30,株式会社ヤマトケアサポート,,株式会社,大阪府,東大阪市,瓜生堂２丁目８番１９号,,27,227,5780946,,,,,,,2023-08-30,1,,,,,ヤマトケアサポート,0
1329,6130005016857,新規,0,2023-08-30,2023-08-30,一般社団法人人材育成推進協会,,その他の設立登記法人,京都府,京田辺市,河原里ノ内１３番地,,26,211,6100361,,,,,,,2023-08-30,1,,,,,ジンザイイクセイスイシンキョウカイ,0
1330,6130005016865,新規,0,2023-08-30,2023-08-30,一般社団法人亀鶴・竹中繊維京都,,その他の設立登記法人,京都府,京都市南区,東九条河辺町１７番地２１,,26,107,6018031,,,,,,,2023-08-30,1,,,,,キカクタケナカセンイキョウト,0
1339,6140001131329,新規,0,2023-08-30,2023-08-30,株式会社アポロホーム,,株式会社,兵庫県,神戸市中央区,八幡通４丁目１番１５号,,28,110,6510085,,,,,,,2023-08-30,1,,,,,アポロホーム,0
1343,6150003003046,新規,0,2023-08-30,2023-08-30,ふたかみコンサルティング合同会社,,合同会社,奈良県,香芝市,畑３丁目９５１番地１,,29,210,6390245,,,,,,,2023-08-30,1,,,,,フタカミコンサルティング,0
1356,6180301037750,新規,0,2023-08-30,2023-08-30,株式会社マルキ商事,,株式会社,愛知県,安城市,今池町１丁目１４番１４号ミッドシティレジデンス新安城１１０２,,23,212,4460071,,,,,,,2023-08-30,1,,,,,マルキショウジ,0
1357,6180303005813,新規,0,2023-08-30,2023-08-30,合同会社アジア通商,,合同会社,愛知県,刈谷市,野田町馬池３番地１６ジョイ９１－２０３号,,23,210,4480803,,,,,,,2023-08-30,1,,,,,アジアツウショウ,0
1359,6200001041637,新規,0,2023-08-30,2023-08-30,飛騨五木インシュアランスサービス株式会社,,株式会社,岐阜県,高山市,西町７１番地,,21,203,5060022,,,,,,,2023-08-30,1,,,,,ヒダゴボクインシュアランスサービス,0
1361,6200005013517,新規,0,2023-08-30,2023-08-30,特定非営利活動法人ＣａｎＰｌａｎｔｅｒ,,その他の設立登記法人,岐阜県,羽島市,正木町須賀赤松２８５番地,,21,209,5016215,,,,,,,2023-08-30,1,,,,,キャンプランター,0
1371,6280005007569,新規,0,2023-08-30,2023-08-30,一般社団法人けらちゃん,,その他の設立登記法人,島根県,安来市,赤江町６６０番地３,,32,206,6920001,,,,,,,2023-08-30,1,,,,,ケラチャン,0
1378,6290003014285,新規,0,2023-08-30,2023-08-30,合同会社ＴＡＫＡＹＡ,,合同会社,福岡県,朝倉市,白鳥４８４番地１,,40,228,8380045,,,,,,,2023-08-30,1,,,,,タカヤ,0
1379,6290003014293,新規,0,2023-08-30,2023-08-30,合同会社ａＫＴ,,合同会社,福岡県,福岡市南区,曰佐３丁目２８番８号プラシード上ノ山Ｄ－１０４,,40,134,8111313,,,,,,,2023-08-30,1,,,,,アキト,0
1380,6300001013436,新規,0,2023-08-30,2023-08-30,ポストイン佐賀株式会社,,株式会社,佐賀県,唐津市,鏡２６５５番地４－Ｃ－３,,41,202,8470022,,,,,,,2023-08-30,1,,,,,ポストインサガ,0
1381,6310005008704,新規,0,2023-08-30,2023-08-30,一般社団法人みんなの子ども食堂,,その他の設立登記法人,長崎県,長崎市,三原２丁目２６番１１号,,42,201,8528123,,,,,,,2023-08-30,1,,,,,ミンナノコドモショクドウ,0
1382,6320001019968,新規,0,2023-08-30,2023-08-30,株式会社ＲＫＣ,,株式会社,大分県,大分市,上野丘１丁目１１番１５号,,44,201,8700835,,,,,,,2023-08-30,1,,,,,アールケーシー,0
1390,6370001050340,新規,0,2023-08-30,2023-08-30,株式会社Ｓ・Ａ・Ｔ,,株式会社,宮城県,黒川郡大和町,もみじケ丘２丁目１７番地の１０,,04,421,9813622,,,,,,,2023-08-30,1,,,,,エスエーティー,0
1407,6430003015384,新規,0,2023-08-30,2023-08-30,彩心合同会社,,合同会社,北海道,苫小牧市,錦町１丁目２番１５号ジョイナスパルコ１Ｆ,,01,213,0530023,,,,,,,2023-08-30,1,,,,,サイシン,0
1412,6700150116346,新規,0,2023-08-30,2023-08-30,ＳＨＡＮＧ　ＨＡＩ　ＬＡＩ　ＬＩＮ　ＫＥ　ＪＩ　ＹＯＵ　ＸＩＡＮ　ＧＯＮＧ　ＳＩ,,外国会社等,,,,,,,,Ｂｕｉｌｄｉｎｇ　Ｃ，Ｎｏ．８８８，Ｗｅｓｔ　Ｈｕａｎｈｕ　Ｎｏ．２　Ｒｏａｄ，Ｌｉｎ－ｇａｎｇ　Ｓｐｅｃｉａｌ　Ａｒｅａ，Ｓｈａｎｇｈａｉ　Ｐｉｌｏｔ　Ｆｒｅｅ　Ｔｒａｄｅ　Ｚｏｎｅ，Ｃｈｉｎａ，Ｓｈａｎｇｈａｉ,,,,,,2023-08-30,1,,,,,シャンハイライリンテクノロジーユウゲンカイシャ,0
1413,6700150119539,新規,0,2023-08-30,2023-08-30,ｓｈｅｎｚｈｅｎｓｈｉｌｉｃｈａｎｇｋｅｊｉｙｏｕｘｉａｎｇｏｎｇｓｉ,,外国会社等,,,,,,,,ｂａｏａｎｑｕｆｕｙｏｎｇｊｉｅｄａｏｆｕｙｏｎｇｓｈｅｑｕｆｕｈａｉＢ２ｑｕＡ１ｄｏｎｇ１２６ｓｈｅｎｚｈｅｎｓｈｉｇｕａｎｇｄｏｎｇｓｈｅｎｇ,,,,,,2023-08-30,1,,,,,シンセンシリチョウカギユウゲンコウシ,0
1414,6700150119547,新規,0,2023-08-30,2023-08-30,ｚｈｏｎｇｓｈａｎｓｈｉｍｅｎｇｚｈｉｄｉａｎｚｉｓｈａｎｇｗｕｆｕｗｕｙｏｕｘｉａｎｇｏｎｇｓｉ,,外国会社等,,,,,,,,ｚｈｏｎｇｓｈａｎｓｈｉｓｈａｘｉｚｈｅｎｙｕｎｈａｎｃｕｎｆｕｇａｎｌｕ６ｈａｏ１０ｚｈｕａｎｇ５２４ｆａｎｇ　ｚｈｏｎｇｓｈａｎｓｈｉ　ｇｕａｎｇｄｏｎｇｓｈｅｎｇ　５２８４７１　ＣＮ,,,,,,2023-08-30,1,,,,,ジョンシャンシーモンジーディエンズーシャンウーフーウーヨウシエンゴンスー,0
1415,6700150119555,新規,0,2023-08-30,2023-08-30,Ｓｈｅｎｚｈｅｎ　Ｋｅｄａ　Ｄｕｃｋ　Ｔｒａｄｉｎｇ　Ｃｏ．，Ｌｔｄ,,外国会社等,,,,,,,,Ｒｏｏｍ　２０６，Ｍｉｎｇｚｈｕ　Ｂｕｉｌｄｉｎｇ，Ｎｏ．４００４，Ｗｕｈｅ　Ａｖｅｎｕｅ　Ｓｈｅｎｚｈｅｎ　Ｌｏｎｇｇａｎｇ　Ｄｉｓｔｒｉｃｔ　Ｇｕａｎｇｄｏｎｇ　Ｐｒｏｖｉｎｃｅ,,,,,,2023-08-30,1,,,,,シンセンシカタツオウショウボウユウゲンコウシ,0
1416,6700150119563,新規,0,2023-08-30,2023-08-30,ｊｉａｎｇ　ｍｅｎ　ｓｈｉ　ｙｉｎｇ　ｃａｉ　ｚｈａｏ　ｍｉｎｇ　ｋｅ　ｊｉ　ｙｏｕ　ｘｉａｎ　ｇｏｎｇ　ｓｉ,,外国会社等,,,,,,,,ｚｈｕ　ｐａｉ　ｊｉｅ　ｇｏｎｇ　ｙｅ　ｙｕａｎ　１　ｈａｏ　２１　ｈａｏ　ｃｈａｎｇ　ｆａｎｇ　ｄｉ　３　ｃｅｎｇ　ｚｉ　ｐｉａｎ　１　ｓｈｉ　ｐｅｎｇ　ｊｉａｎｇ　ｑｕ　ｊｉａｎｇ　ｍｅｎ　ｓｈｉ,,,,,,2023-08-30,1,,,,,コウモンシインツアイザオミンカギユウゲンコウシ,0
1417,6700150119588,新規,0,2023-08-30,2023-08-30,ｓｈｅｎｚｈｅｎｓｈｉｐｉｎｇｚｈｉｂａｏｙｏｕｘｉａｎｇｏｎｇｓｉ,,外国会社等,,,,,,,,ｇｕａｎｇｄｏｎｇｓｈｅｎｇｓｈｅｎｚｈｅｎｓｈｉｌｏｎｇｇａｎｇｑｕｐｉｎｇｈｕｊｉｅｄｏｎｇｆｅｎｇｈｕａｎｇｓｈｅｑｕｊｉａｎｓｈｅｑｉｘｉａｎｇ１１ｈａｏ３０２,,,,,,2023-08-30,1,,,,,シェンジェンシーピンジーバオマオイーヨウシエンゴンスー,0
1418,6700150119596,新規,0,2023-08-30,2023-08-30,Ｄｏｎｇｇｕａｎ　Ｐｉｎｇｙａｏ　Ｄｉｇｉｔａｌ　Ｔｅｃｈｎｏｌｏｇｙ　Ｃｏ．，ＬＴＤ,,外国会社等,,,,,,,,Ｂｕｉｌｄｉｎｇ　１，Ｎｏ．　３，ｊｉｎｔｉａｎ　Ｒｏａｄ，Ｈｕａｎｇｄｏｎｇ　Ｆｅｎｇｇａｎｇ　Ｔｏｗｎ　Ｄｏｎｇｇｕａｎ　Ｇｕａｎｇｄｏｎｇ　５２３６８１　ＣＮ,,,,,,2023-08-30,1,,,,,ドングワンシーピンヤオシューマーコージーヨウシエンゴンスー,0
1424,7010001238061,新規,0,2023-08-30,2023-08-30,株式会社ほさか,,株式会社,東京都,中央区,銀座１丁目２２番１１号銀座大竹ビジデンス２Ｆ,,13,102,1040061,,,,,,,2023-08-30,1,,,,,ホサカ,0
1431,7010003041538,新規,0,2023-08-30,2023-08-30,ＳＴチェリーアイランド合同会社,,合同会社,東京都,中央区,銀座７丁目１７番１２号,,13,102,1040061,,,,,,,2023-08-30,1,,,,,エスティーチェリーアイランド,0
1437,7010401176786,新規,0,2023-08-30,2023-08-30,ＭＡＧＮＯＬＩＡＤＯＧＳ株式会社,,株式会社,東京都,港区,白金台５丁目１５番１号,,13,103,1080071,,,,,,,2023-08-30,1,,,,,マグノリアドッグス,0
1442,7010501050957,新規,0,2023-08-30,2023-08-30,株式会社日本グリーン,,株式会社,東京都,台東区,台東３丁目１８番７－１０１号,,13,106,1100016,,,,,,,2023-08-30,1,,,,,ニホングリーン,0
1450,7010801034288,新規,0,2023-08-30,2023-08-30,株式会社Ａｌｌ　Ｓｕｃｃｅｓｓ,,株式会社,東京都,大田区,西六郷４丁目２９番５－２０７号グランイーグル多摩川アリビオ,,13,111,1440056,,,,,,,2023-08-30,1,,,,,オールサクセス,0
1453,7010901053700,新規,0,2023-08-30,2023-08-30,株式会社アシスト,,株式会社,東京都,世田谷区,三軒茶屋２丁目１９－２０トワ・テ・メゾン２０１号室,,13,112,1540024,,,,,,,2023-08-30,1,,,,,アシスト,0
1457,7011001156633,新規,0,2023-08-30,2023-08-30,ＳＯ‐ＭＡＮＡＧＥＭＥＮＴ株式会社,,株式会社,東京都,目黒区,下目黒１丁目８番１号アルコタワー７階,,13,110,1530064,,,,,,,2023-08-30,1,,,,,エスオーマネージメント,0
1458,7011003017445,新規,0,2023-08-30,2023-08-30,合同会社Ｎｅｒｄｓ,,合同会社,東京都,目黒区,上目黒３丁目１番１０号ヴェルデナポリ２０３,,13,110,1530051,,,,,,,2023-08-30,1,,,,,ナーズ,0
1467,7011201024879,新規,0,2023-08-30,2023-08-30,株式会社アースデェイ,,株式会社,東京都,中野区,新井３丁目７番８号,,13,114,1650026,,,,,,,2023-08-30,1,,,,,アースデェイ,0
1475,7011401025413,新規,0,2023-08-30,2023-08-30,四輪駆動車の未来へ株式会社,,株式会社,東京都,板橋区,成増２丁目１５番１７号,,13,119,1750094,,,,,,,2023-08-30,1,,,,,ヨンリンクドウシャノミライヘ,0
1476,7011403004101,新規,0,2023-08-30,2023-08-30,ＡＮＫＡ合同会社,,合同会社,東京都,板橋区,徳丸４丁目３６番９号,,13,119,1750083,,,,,,,2023-08-30,1,,,,,アンカー,0
1479,7011501029710,新規,0,2023-08-30,2023-08-30,株式会社飯田システムサービス,,株式会社,東京都,北区,東十条３丁目４番４号,,13,117,1140001,,,,,,,2023-08-30,1,,,,,イイダシステムサービス,0
1480,7011503005742,新規,0,2023-08-30,2023-08-30,祥潤合同会社,,合同会社,東京都,北区,浮間１丁目１番１４号リムジンビル１１０,,13,117,1150051,,,,,,,2023-08-30,1,,,,,ショウジュン,0
1488,7012401040906,新規,0,2023-08-30,2023-08-30,株式会社ブラザー,,株式会社,東京都,府中市,南町２丁目４２番地の４７,,13,206,1830026,,,,,,,2023-08-30,1,,,,,ブラザー,0
1489,7012401040922,新規,0,2023-08-30,2023-08-30,株式会社ＧＯＭＡＲＵ,,株式会社,東京都,武蔵野市,吉祥寺本町１丁目３４番２２号２階,,13,203,1800004,,,,,,,2023-08-30,1,,,,,ゴマル,0
1490,7012401040930,新規,0,2023-08-30,2023-08-30,株式会社ガロニ,,株式会社,東京都,武蔵野市,吉祥寺本町１丁目５番１号吉祥寺ＰＡＲＣＯ８ＦＳｋｉｉＭａ内,,13,203,1800004,,,,,,,2023-08-30,1,,,,,ガロニ,0
1498,7020001153086,新規,0,2023-08-30,2023-08-30,株式会社アートさくら,,株式会社,神奈川県,横浜市都筑区,池辺町１１８５番地,,14,118,2240053,,,,,,,2023-08-30,1,,,,,アートサクラ,0
1499,7020001153227,新規,0,2023-08-30,2023-08-30,株式会社ｕｓデザイン事務所,,株式会社,神奈川県,横浜市南区,大橋町３丁目６２番地１、２１１号,,14,105,2320054,,,,,,,2023-08-30,1,,,,,アスデザインジムショ,0
1500,7020001153243,新規,0,2023-08-30,2023-08-30,株式会社Ｋｉｗｉ,,株式会社,神奈川県,横浜市西区,高島２丁目１１－２スカイメナー横浜８０１,,14,103,2200011,,,,,,,2023-08-30,1,,,,,キウイ,0
1505,7020003024483,新規,0,2023-08-30,2023-08-30,ＳＩＮＷＡ合同会社,,合同会社,神奈川県,横浜市南区,浦舟町２丁目２２番ベイシティーコート横浜１１０９号室,,14,105,2320024,,,,,,,2023-08-30,1,,,,,シンワ,0
1507,7021003013385,新規,0,2023-08-30,2023-08-30,Ｕｎｉｔｅｄ　Ｅｌｉｔｅ合同会社,,合同会社,神奈川県,茅ヶ崎市,東海岸南６丁目６－１７ラディエンス東海岸１－１０３,,14,207,2530054,,,,,,,2023-08-30,1,,,,,ユナイテッドエリート,0
1512,7030001155437,新規,0,2023-08-30,2023-08-30,株式会社Ｌｉｇｈｔｗｏｒｋｅｒ,,株式会社,埼玉県,川口市,大字安行領根岸１０５４－７,,11,203,3330834,,,,,,,2023-08-30,1,,,,,ライトワーカー,0
1513,7030001155503,新規,0,2023-08-30,2023-08-30,株式会社サンシャイン,,株式会社,埼玉県,児玉郡上里町,大字堤１２３６番地１,,11,385,3690313,,,,,,,2023-08-30,1,,,,,サンシャイン,0
1514,7030001155544,新規,0,2023-08-30,2023-08-30,ＪＨＣ株式会社,,株式会社,埼玉県,蕨市,北町４丁目１－２４,,11,223,3350001,,,,,,,2023-08-30,1,,,,,ジェイエイチシー,0
1522,7040001129869,新規,0,2023-08-30,2023-08-30,株式会社スモールリバー,,株式会社,千葉県,佐倉市,鏑木町１１３４番地１１,,12,212,2850025,,,,,,,2023-08-30,1,,,,,スモールリバー,0
1527,7060003004696,新規,0,2023-08-30,2023-08-30,合同会社佐藤フーズ,,合同会社,栃木県,宇都宮市,簗瀬町１９４３番地４,,09,201,3210933,,,,,,,2023-08-30,1,,,,,サトウフーズ,0
1530,7090005007587,新規,0,2023-08-30,2023-08-30,一般社団法人ＵＦＯＫＯＦＵ１９７５,,その他の設立登記法人,山梨県,甲府市,中小河原１丁目１６番２０号,,19,201,4000855,,,,,,,2023-08-30,1,,,,,ユーフォーコウフイチキューナナゴー,0
1537,7120001257661,新規,0,2023-08-30,2023-08-30,株式会社ｌｉｇｈｔ　ｆｅａｔｈｅｒ,,株式会社,大阪府,大阪市中央区,東平２丁目２番１０－２０２号,,27,128,5420063,,,,,,,2023-08-30,1,,,,,ライトフェザー,0
1538,7120001257703,新規,0,2023-08-30,2023-08-30,株式会社ＭＹＧ,,株式会社,大阪府,大阪市西成区,岸里東１丁目１５番１２号,,27,122,5570042,,,,,,,2023-08-30,1,,,,,エムワイジー,0
1539,7120001257711,新規,0,2023-08-30,2023-08-30,天藤株式会社,,株式会社,大阪府,大阪市浪速区,日本橋５丁目１２－３ＯｓａｋａＭｅｔｒｏ恵美須町ビル６Ｆ－０１,,27,111,5560005,,,,,,,2023-08-30,1,,,,,テントウ,0
1541,7120005023845,新規,0,2023-08-30,2023-08-30,一般社団法人全国雇用共創センター,,その他の設立登記法人,大阪府,大阪市東淀川区,東中島４丁目１１番３２－８０４号,,27,114,5330033,,,,,,,2023-08-30,1,,,,,ゼンコクコヨウキョウソウセンター,0
1547,7122001037317,新規,0,2023-08-30,2023-08-30,株式会社チョコ,,株式会社,大阪府,東大阪市,衣摺５丁目１７番４号,,27,227,5770827,,,,,,,2023-08-30,1,,,,,チョコ,0
1548,7122003002616,新規,0,2023-08-30,2023-08-30,合同会社康平,,合同会社,大阪府,東大阪市,稲田本町２丁目１番５６号,,27,227,5770007,,,,,,,2023-08-30,1,,,,,コウヘイ,0
1552,7130005016864,新規,0,2023-08-30,2023-08-30,一般社団法人ｓａｔｏｙａｍａにこちゃん,,その他の設立登記法人,京都府,与謝郡与謝野町,字加悦８６２番地１２,,26,465,6292403,,,,,,,2023-08-30,1,,,,,サトヤマニコチャン,0
1559,7140005026722,新規,0,2023-08-30,2023-08-30,一般社団法人日本感染管理検定協会,,その他の設立登記法人,兵庫県,神戸市中央区,栄町通１丁目２－１０,,28,110,6500023,,,,,,,2023-08-30,1,,,,,,0
1573,7200001041636,新規,0,2023-08-30,2023-08-30,ＣＤＫ新能源株式会社,,株式会社,岐阜県,羽島市,足近町市場１２５７－１,,21,209,5016202,,,,,,,2023-08-30,1,,,,,シーディーケーシンノウゲン,0
1587,7290001102776,新規,0,2023-08-30,2023-08-30,株式会社Ｊａｐａｎ　Ｈｅａｌｔｈｙ　Ｌａｂ,,株式会社,福岡県,福岡市中央区,天神２丁目５番２８号天神西通りセンタービル６階,,40,133,8100001,,,,,,,2023-08-30,1,,,,,ジャパンヘルシーラボ,0
1588,7290002057755,新規,0,2023-08-30,2023-08-30,有限会社浦商店,,有限会社,福岡県,糸島市,前原西１丁目５番１５号,,40,230,8191117,,,,,,,2023-08-30,1,,,,,ウラショウテン,0
1591,7290003014284,新規,0,2023-08-30,2023-08-30,森林合同会社,,合同会社,福岡県,福岡市博多区,吉塚１丁目１７－５,,40,132,8120041,,,,,,,2023-08-30,1,,,,,シンリン,0
1601,7330001031194,新規,0,2023-08-30,2023-08-30,株式会社今村自動車,,株式会社,熊本県,阿蘇郡高森町,大字高森１４２１番地２,,43,428,8691602,,,,,,,2023-08-30,1,,,,,,0
1605,7350003004428,新規,0,2023-08-30,2023-08-30,合同会社いろまな,,合同会社,宮崎県,宮崎市,末広１丁目２番３号シャトーモリオカ末広６０８,,45,201,8800012,,,,,,,2023-08-30,1,,,,,イロマナ,0
1629,7470001019779,新規,0,2023-08-30,2023-08-30,株式会社Ｇ‐ｔｅｃｈ,,株式会社,香川県,木田郡三木町,大字下高岡２４６１番地１,,37,341,7610704,,,,,,,2023-08-30,1,,,,,ジーテック,0
1630,7470005006526,新規,0,2023-08-30,2023-08-30,一般財団法人高松をナンバーワンの街にする会,,その他の設立登記法人,香川県,高松市,亀岡町１番６２号,,37,201,7600006,,,,,,,2023-08-30,1,,,,,,0
1635,7700150119538,新規,0,2023-08-30,2023-08-30,Ｍａｉｌｉ　Ｌｉｆｅ　Ｔｅｃｈｎｏｌｏｇｙ（Ｓｈｅｎｚｈｅｎ）Ｃｏ．，Ｌｔｄ．,,外国会社等,,,,,,,,Ｒｏｏｍ　２０１，Ｂｕｉｌｄｉｎｇ　Ａ，Ｙｕｎｈａｉ　Ｅｎｔｅｒｐｒｉｓｅ　Ｈｅａｄｑｕａｒｔｅｒｓ　Ｂａｓｅ，Ｎｏ．４２　Ｃａｉｙｕｎ　Ｒｏａｄ，Ｊｉｘｉａｎｇ　Ｃｏｍｍｕｎｉｔｙ，Ｌｏｎｇｃｈｅｎｇ　Ｓｔｒｅｅｔ，Ｌｏｎｇｇａｎｇ　Ｄｉｓｔｒｉｃｔ，Ｓｈｅｎｚｈｅｎ,,,,,,2023-08-30,1,,,,,マイリセイカツカギシンセンユウゲンコウシ,0
1636,7700150119546,新規,0,2023-08-30,2023-08-30,ｄｏｎｇｊｉｎｇｇｕａｎｇｚｈｏｕｋｅｊｉｙｏｕｘｉａｎｇｏｎｇｓｉ,,外国会社等,,,,,,,,ｐａｎｙｕｑｕｚｈｏｎｇｃｕｎｊｉｅｈａｎｘｉｃｕｎｈｕａｎｃｕｎｌｕ１０ｈａｏ４０１　ｇｕａｎｇｚｈｏｕ　ｇｕａｎｇｄｏｎｇ　５１１４００　ＣＮ,,,,,,2023-08-30,1,,,,,ドンジングワンジョウコージーヨウシエンゴンスー,0
1637,7700150119554,新規,0,2023-08-30,2023-08-30,ｙｉｗｕｓｈｉｆａｎｌｉｎｄｉａｎｚｉｓｈａｎｇｗｕｙｏｕｘｉａｎｇｏｎｇｓｉ,,外国会社等,,,,,,,,ＺＨＥ　ＪＩＡＮＧ　ＳＨＥＮＧ　Ｙｌ　ＷＵ　ＳＨＩ　ＪＩＡＮＧ　ＤＯＮＧ　ＪＩＥ　ＤＡＯ　ＳＨＡＮ　ＫＯＵ　ＣＵＮ　１６３　ＤＯＮＧ　２　ＤＡＮ　ＹＵＡＮ,,,,,,2023-08-30,1,,,,,ギウシハンリンデンシショウムユウゲンコウシ,0
1638,7700150119562,新規,0,2023-08-30,2023-08-30,ｓｈａｎ　ｘｉ　ｌｉｎｇ　ｈｏｎｇ　ｍａｏ　ｙｉ　ｙｏｕ　ｘｉａｎ　ｇｏｎｇ　ｓｉ,,外国会社等,,,,,,,,Ｎｏ．１１０２，１１ｔｈ　Ｆｌｏｏｒ，Ｕｎｉｔ　１，Ｂｕｉｌｄｉｎｇ　２，Ｎｏ．２０５－１，Ｈｅｐｉｎｇ　Ｓｏｕｔｈ　Ｒｏａｄ，Ｗａｎｂｏｌｉｎ　Ｄｉｓｔｒｉｃｔ，Ｔａｉｙｕａｎ　Ｃｉｔｙ，Ｓｈａｎｘｉ　Ｐｒｏｖｉｎｃｅ,,,,,,2023-08-30,1,,,,,サンセイリンホンマオイユウゲンコウシ,0
1639,7700150119579,新規,0,2023-08-30,2023-08-30,Ｔｉａｎｊｉｎ　Ａｐｅｘ　Ｔｒａｄｅ　Ｃｏ．，Ｌｔｄ,,外国会社等,,,,,,,,ｂｅｉｃｈｅｎｑｕｚｉｌｕｏｙｕａｎ４５－１－６０２　ｔｉａｎｊｉｎ　ｔｉａｎｊｉｎ　３００４００　ＣＮ,,,,,,2023-08-30,1,,,,,ティエンジンシーヨンシントンダーシャンマオヨウシエンゴンスー,0
1640,7700150119587,新規,0,2023-08-30,2023-08-30,ｓｈｅｎｚｈｅｎｓｈｉｘｉａｏｄｕｓｉｓｉｍａｏｙｉｙｏｕｘｉａｎｇｏｎｇｓｉ,,外国会社等,,,,,,,,ｓｈｅｎｚｈｅｎｓｈｉｌｏｎｇｇａｎｇｑｕｐｉｎｇｈｕｊｉｅｄａｏｆｅｎｇｈｕａｎｇｓｈｅｑｕｊｉａｎｓｈｅｑｉｘｉａｎｇ１１ｈａｏ２０２,,,,,,2023-08-30,1,,,,,シェンジェンシーシャオドゥースースーマオイーヨウシエンゴンスー,0
1641,7700150119595,新規,0,2023-08-30,2023-08-30,ｆｕｊｉａｎｓｈｅｎｇｄａｏｃｈｅｎｇｄｉａｎｚｉｓｈａｎｇｗｕｙｏｕｘｉａｎｇｏｎｇｓｉ,,外国会社等,,,,,,,,ｆｕｊｉａｎｓｈｅｎｇ　ｑｕａｎｚｈｏｕ　ｊｉｎｇｊｉｊｉｓｈｕｋａｉｆａｑｕｃｈｏｎｇｒｏｎｇｊｉｅ１６４ｈａｏｈｏｎｇｑｉｊｉｔｕａｎｎｅｉＧｄｏｎｇ４ｌｏｕＡｑｕ,,,,,,2023-08-30,1,,,,,フージエンションダオチョンディエンズーシャンウーヨウシエンゴンスー,0
1653,8010001238060,新規,0,2023-08-30,2023-08-30,Ｆｏｕｒ　Ｐｒｉｄｅ　Ｊａｐａｎ株式会社,,株式会社,東京都,千代田区,神田須田町１丁目１８番,,13,101,1010041,,,,,,,2023-08-30,1,,,,,フォープライドジャパン,0
1654,8010001238077,新規,0,2023-08-30,2023-08-30,株式会社ＨＡＲＵ,,株式会社,東京都,千代田区,西神田３丁目１番２号,,13,101,1010065,,,,,,,2023-08-30,1,,,,,ハル,0
1656,8010003041529,新規,0,2023-08-30,2023-08-30,Ｐｏｒｔｒａｉｔ　Ｉｎｖｅｓｔｍｅｎｔ合同会社,,合同会社,東京都,千代田区,丸の内３丁目１番１号東京共同会計事務所内,,13,101,1000005,,,,,,,2023-08-30,1,,,,,ポートレートインベストメント,0
1670,8010501050956,新規,0,2023-08-30,2023-08-30,株式会社大熊商会,,株式会社,東京都,台東区,上野４丁目７番８号アメ横センタービル１階,,13,106,1100005,,,,,,,2023-08-30,1,,,,,オオクマショウカイ,0
1671,8010503007137,新規,0,2023-08-30,2023-08-30,合同会社楓コンサルティング,,合同会社,東京都,台東区,東上野６丁目４番３号ほていビル２０１,,13,106,1100015,,,,,,,2023-08-30,1,,,,,カエデコンサルティング,0
1673,8010701044766,新規,0,2023-08-30,2023-08-30,株式会社Ｓｔｒｉｎｇｓ,,株式会社,東京都,品川区,東五反田２丁目１０番１－１７１９号,,13,109,1410022,,,,,,,2023-08-30,1,,,,,ストリングス,0
1693,8011003017452,新規,0,2023-08-30,2023-08-30,合同会社ＳＨＵＴＴＥＲ,,合同会社,東京都,渋谷区,道玄坂１丁目１０番８号渋谷道玄坂東急ビル２Ｆ－Ｃ,,13,113,1500043,,,,,,,2023-08-30,1,,,,,シャッター,0
1694,8011101104078,新規,0,2023-08-30,2023-08-30,株式会社ガイア,,株式会社,東京都,新宿区,西新宿３丁目３番１３号西新宿水間ビル２Ｆ,,13,104,1600023,,,,,,,2023-08-30,1,,,,,ガイア,0
1695,8011101104160,新規,0,2023-08-30,2023-08-30,株式会社Ｙｏｎｕ,,株式会社,東京都,新宿区,大久保１丁目１４番２６号,,13,104,1690072,,,,,,,2023-08-30,1,,,,,ヨヌ,0
1696,8011101104169,新規,0,2023-08-30,2023-08-30,株式会社ＪＳＫ,,株式会社,東京都,新宿区,歌舞伎町２丁目４１番１２号岡埜ビル８階,,13,104,1600021,,,,,,,2023-08-30,1,,,,,ジェーエスケー,0
1699,8011103013426,新規,0,2023-08-30,2023-08-30,ＴＩＯＶＥＨ　ＥＭＭＡＮＵＥＬ合同会社,,合同会社,東京都,新宿区,西新宿３丁目３番１３号西新宿水間ビル６階,,13,104,1600023,,,,,,,2023-08-30,1,,,,,ティオヴェエマニエル,0
1701,8011401025412,新規,0,2023-08-30,2023-08-30,ベルウッド株式会社,,株式会社,東京都,板橋区,三園１丁目３６番１１号,,13,119,1750091,,,,,,,2023-08-30,1,,,,,ベルウッド,0
1703,8011501029701,新規,0,2023-08-30,2023-08-30,天宇株式会社,,株式会社,東京都,北区,東田端２丁目９番１７号マンション西新宿２１１号室,,13,117,1140013,,,,,,,2023-08-30,1,,,,,テンウ,0
1704,8011503005733,新規,0,2023-08-30,2023-08-30,合同会社郷上雑貨店,,合同会社,東京都,荒川区,東尾久６丁目１７－１－２０４,,13,118,1160012,,,,,,,2023-08-30,1,,,,,ゴウガミザッカテン,0
1705,8011601027084,新規,0,2023-08-30,2023-08-30,株式会社オーロアプリーレ,,株式会社,東京都,練馬区,南田中３丁目２３番８号,,13,120,1770035,,,,,,,2023-08-30,1,,,,,オーロアプリーレ,0
1709,8012401040905,新規,0,2023-08-30,2023-08-30,株式会社ファミリー,,株式会社,東京都,府中市,南町２丁目４２番地の４７,,13,206,1830026,,,,,,,2023-08-30,1,,,,,ファミリー,0
1717,8020001153218,新規,0,2023-08-30,2023-08-30,株式会社ＫＣＡＩ　Ｔｒａｄｉｎｇ　Ｌｔｄ．,,株式会社,神奈川県,横浜市西区,みなとみらい４丁目４－２横浜ブルーアベニュー１２階,,14,103,2200012,,,,,,,2023-08-30,1,,,,,ケイシーエーアイトレーディングリミテッド,0
1721,8020003024474,新規,0,2023-08-30,2023-08-30,合同会社クライネス,,合同会社,神奈川県,横浜市都筑区,茅ケ崎南１丁目１番１－６１３号,,14,118,2240037,,,,,,,2023-08-30,1,,,,,クライネス,0
1730,8030001155411,新規,0,2023-08-30,2023-08-30,株式会社ＧＩＣ,,株式会社,埼玉県,越谷市,宮前１丁目６番地１８,,11,222,3430014,,,,,,,2023-08-30,1,,,,,ジーアイシー,0
1731,8030001155444,新規,0,2023-08-30,2023-08-30,株式会社ゆとり,,株式会社,埼玉県,上尾市,本町４丁目６－２０,,11,219,3620014,,,,,,,2023-08-30,1,,,,,ユトリ,0
1732,8030001155535,新規,0,2023-08-30,2023-08-30,株式会社Ｇｅｎ　Ｂｒｉｄｇｅ,,株式会社,埼玉県,桶川市,大字川田谷５５７６番地,,11,231,3630027,,,,,,,2023-08-30,1,,,,,ゲンブリッジ,0
1734,8030003022378,新規,0,2023-08-30,2023-08-30,ＢＩＡ合同会社,,合同会社,埼玉県,さいたま市南区,南浦和２丁目８番３号５０２号室,,11,108,3360017,,,,,,,2023-08-30,1,,,,,ビア,0
1735,8030003022386,新規,0,2023-08-30,2023-08-30,合同会社ＣＯ‐ＣＯスマイル,,合同会社,埼玉県,北本市,北本１丁目７１番,,11,233,3640006,,,,,,,2023-08-30,1,,,,,ココスマイル,0
1742,8040001129835,新規,0,2023-08-30,2023-08-30,株式会社カーマウント,,株式会社,千葉県,船橋市,本町６丁目１８番１９号第３山中ビル４０１号室,,12,204,2730005,,,,,,,2023-08-30,1,,,,,カーマウント,0
1743,8040001129843,新規,0,2023-08-30,2023-08-30,ＳＪＪ株式会社,,株式会社,千葉県,佐倉市,上座４００－１３３ホワイトハウス２０７,,12,212,2850854,,,,,,,2023-08-30,1,,,,,エスジェイジェイ,0
1744,8040001129851,新規,0,2023-08-30,2023-08-30,平心建設株式会社,,株式会社,千葉県,千葉市花見川区,天戸町７３０番地,,12,102,2620043,,,,,,,2023-08-30,1,,,,,ヘイシンケンセツ,0
1748,8040003023202,新規,0,2023-08-30,2023-08-30,合同会社ＳＡＫＵＲＡＩ,,合同会社,千葉県,松戸市,二十世紀が丘中松町６７番地の４タウンコート二十世紀が丘Ｄ棟,,12,207,2710085,,,,,,,2023-08-30,1,,,,,サクライ,0
1751,8050001053349,新規,0,2023-08-30,2023-08-30,株式会社リバストン,,株式会社,茨城県,取手市,谷中３６番地２,,08,217,3001532,,,,,,,2023-08-30,1,,,,,リバストン,0
1760,8060003004695,新規,0,2023-08-30,2023-08-30,合同会社遠正,,合同会社,栃木県,足利市,田中町９２０－９－１０２,,09,202,3260822,,,,,,,2023-08-30,1,,,,,エンセイ,0
1765,8080001025824,新規,0,2023-08-30,2023-08-30,株式会社Ｆｕｔｕｒｅ,,株式会社,静岡県,静岡市葵区,丸山町１２番地メゾン・ド・ブランシェ３０３,,22,101,4200861,,,,,,,2023-08-30,1,,,,,フューチャー,0
1766,8080103002878,新規,0,2023-08-30,2023-08-30,合同会社キュービック,,合同会社,静岡県,熱海市,水口町２丁目２２－１８,,22,205,4130016,,,,,,,2023-08-30,1,,,,,キュービック,0
1770,8100001036728,新規,0,2023-08-30,2023-08-30,株式会社エンジェルプラス,,株式会社,長野県,上水内郡信濃町,大字柏原２５９８番地７,,20,583,3891305,,,,,,,2023-08-30,1,,,,,エンジェルプラス,0
1785,8120001257545,新規,0,2023-08-30,2023-08-30,株式会社ＳＫホーム,,株式会社,大阪府,大阪市鶴見区,今津北２丁目８番３９－２０３号,,27,124,5380041,,,,,,,2023-08-30,1,,,,,エスケーホーム,0
1786,8120001257693,新規,0,2023-08-30,2023-08-30,株式会社ｖｉｖａｎｔ,,株式会社,大阪府,大阪市大正区,三軒家西３丁目４番１６号中山ビル１０２６,,27,108,5510001,,,,,,,2023-08-30,1,,,,,ヴィヴァン,0
1787,8120001257710,新規,0,2023-08-30,2023-08-30,三源商事株式会社,,株式会社,大阪府,大阪市浪速区,日本橋５丁目１２－３ＯｓａｋａＭｅｔｒｏ恵美須町ビル６Ｆ－０７,,27,111,5560005,,,,,,,2023-08-30,1,,,,,サンゲンショウジ,0
1791,8120005023844,新規,0,2023-08-30,2023-08-30,一般社団法人腸から美しく協会,,その他の設立登記法人,大阪府,大阪市中央区,平野町３丁目３番１１号８０１号室,,27,128,5410046,,,,,,,2023-08-30,1,,,,,チョウカラウツクシクキョウカイ,0
1800,8140001131392,新規,0,2023-08-30,2023-08-30,株式会社Ａｚｕ,,株式会社,兵庫県,姫路市,増位新町１丁目８番地３シャトーブランシェ３０６号,,28,201,6700806,,,,,,,2023-08-30,1,,,,,アズ,0
1804,8170001017754,新規,0,2023-08-30,2023-08-30,南紀の台エステート株式会社,,株式会社,和歌山県,西牟婁郡白浜町,３２１９番地の４９,,30,401,6492211,,,,,,,2023-08-30,1,,,,,ナンキノダイエステート,0
1807,8180001157806,新規,0,2023-08-30,2023-08-30,株式会社職人村,,株式会社,愛知県,名古屋市名東区,猪子石原１丁目１０１番地大島ビル４Ｆ－Ｂ,,23,115,4650008,,,,,,,2023-08-30,1,,,,,ショクニンムラ,0
1815,8200003006058,新規,0,2023-08-30,2023-08-30,合同会社不動産コンサルティングス,,合同会社,岐阜県,羽島市,正木町曲利８７番地１,,21,209,5016227,,,,,,,2023-08-30,1,,,,,フドウサンコンサルティングス,0
1830,8290001102809,新規,0,2023-08-30,2023-08-30,株式会社ロングブレス,,株式会社,福岡県,福岡市博多区,博多駅南１丁目１５－２８－２Ｆ,,40,132,8120016,,,,,,,2023-08-30,1,,,,,ロングブレス,0
1831,8290001102817,新規,0,2023-08-30,2023-08-30,株式会社Ｌｉｂｅｒ,,株式会社,福岡県,福岡市博多区,博多駅南５丁目２９番１７－３０１号,,40,132,8120016,,,,,,,2023-08-30,1,,,,,リベル,0
1833,8290003014291,新規,0,2023-08-30,2023-08-30,合同会社コントレイル,,合同会社,福岡県,糸島市,篠原西１丁目２番２２号,,40,230,8191129,,,,,,,2023-08-30,1,,,,,コントレイル,0
1857,8350003004427,新規,0,2023-08-30,2023-08-30,ｗｉｔｔｙ合同会社,,合同会社,宮崎県,都城市,甲斐元町１街区１７号竹元ビル,,45,202,8850074,,,,,,,2023-08-30,1,,,,,ウィッティ,0
1860,8360001032478,新規,0,2023-08-30,2023-08-30,株式会社Ｍａｉｌｅ,,株式会社,沖縄県,浦添市,屋富祖２丁目２９番１３－８０２号ラフォルテ宮城,,47,208,9012127,,,,,,,2023-08-30,1,,,,,マイレ,0
1881,8430003015390,新規,0,2023-08-30,2023-08-30,Ｈａｒｄｗｏｒｋｅｒ合同会社,,合同会社,北海道,札幌市清田区,清田一条４丁目４‐２１,,01,110,0040841,,,,,,,2023-08-30,1,,,,,ハードワーカー,0
1885,8480001012195,新規,0,2023-08-30,2023-08-30,株式会社トモニファーム,,株式会社,徳島県,徳島市,一宮町東丁６４９番地,,36,201,7793132,,,,,,,2023-08-30,1,,,,,トモニファーム,0
1888,8500001025161,新規,0,2023-08-30,2023-08-30,株式会社ソロウェル,,株式会社,愛媛県,大洲市,新谷甲３０７番地７,,38,207,7950072,,,,,,,2023-08-30,1,,,,,ソロウェル,0
1892,8700150119223,新規,0,2023-08-30,2023-08-30,済南諾研網絡科技有限公司,,外国会社等,,,,,,,,中国山東省済南市市中区英雄山路１２９号祥泰広場３号商務公寓７１０室,,,,,,2023-08-30,1,,,,,サイナンダッケンモウラクカギユウゲンコウシ,0
1893,8700150119545,新規,0,2023-08-30,2023-08-30,Ｓｕｚｈｏｕ　Ｙｉｘｉｎｇｔａｎｇ　Ｃｕｌｔｕｒｅ　Ｃｏｍｍｕｎｉｃａｔｉｏｎ　Ｃｏ．，Ｌｔｄ．,,外国会社等,,,,,,,,Ｒｏｏｍ　６２０，Ｘｉｎｈｕａ　Ｂｕｉｌｄｉｎｇ，Ｂｌｏｃｋ　３，Ｎｏ．７２６　Ｈｕａｙｕａｎ　Ｅａｓｔ　Ｒｏａｄ，Ｍｕｄｕ　Ｔｏｗｎ，Ｗｕｚｈｏｎｇ　Ｄｉｓｔｒｉｃｔ，Ｓｕｚｈｏｕ，Ｃｈｉｎａ,,,,,,2023-08-30,1,,,,,スージョウイーシンタンウェンフワーチュワンボーヨウシエンゴンスー,0
1894,8700150119553,新規,0,2023-08-30,2023-08-30,Ｓｈｅｎｚｈｅｎ　ｗｏｔｉｎｇ　ｔｅｃｈｎｏｌｏｇｙ　Ｃｏ．，ｌｔｄ,,外国会社等,,,,,,,,４０６，Ｈｕｉｃｈａｏ　Ｔｅｃｈｎｏｌｏｇｙ　Ｂｕｉｌｄｉｎｇ，Ｎｏ．１２，Ｊｉｎｈａｉ　Ｒｏａｄ，Ｘｉｘｉａｎｇ　Ｓｔｒｅｅｔ，Ｂａｏ’ａｎ　Ｄｉｓｔｒｉｃｔ，Ｓｈｅｎｚｈｅｎ，Ｇｕａｎｇｄｏｎｇ,,,,,,2023-08-30,1,,,,,シンセンシヨクチョウカギユウゲンコウシ,0
1895,8700150119561,新規,0,2023-08-30,2023-08-30,Ｓｈｅｎｚｈｅｎ　Ａｉｍｅｉｌｉｅｒ　Ｃｌｏｔｈｉｎｇ　Ｃｏ．，Ｌｔｄ,,外国会社等,,,,,,,,２０４－Ａ３　ｂｕｉｌｄｉｎｇ　２７，Ｊｉｎｘｉｎｇ　ｍａｔｅｒｉａｌ　ｃｏｍｐａｎｙ　ｓｃｉｅｎｃｅ　ａｎｄ　Ｔｅｃｈｎｏｌｏｇｙ　Ｉｎｄｕｓｔｒｉａｌ　Ｐａｒｋ　Ｙｕｅｈａｉ　ｓｔｒｅｅｔ　Ｓｃｉｅｎｃｅ　Ｐａｒｋ　Ｃｏｍｍｕｎｉｔｙ　Ｎａｎｓｈａｎ　Ｄｉｓｔｒｉｃｔ，Ｓｈｅｎｚｈｅｎ,,,,,,2023-08-30,1,,,,,シンセンアイメイリエクロウジングカンパニーリミテッド,0
1896,8700150119578,新規,0,2023-08-30,2023-08-30,Ｊｉａ　Ｘｉｎｇ　Ｊｉｅ　Ｄｉ　Ｔｒａｄｉｎｇ　Ｃｏ．，ｌｔｄ．,,外国会社等,,,,,,,,Ｒｏｏｍ　２５１４，　Ｊｉｎｇ　Ｒｕｎ　Ｂｕｉｌｄｉｎｇ，Ｘｉｕ　Ｚｈｏｕ　Ｄｉｓｔｒｉｃｔ　Ｊｉａｘｉｎｇ　Ｚｈｅｊｉａｎｇ　３１４０００　ＣＮ,,,,,,2023-08-30,1,,,,,ジャーシンシージエディーマオイーヨウシエンゴンスー,0
1897,8700150119586,新規,0,2023-08-30,2023-08-30,Ｓｈｅｎｚｈｅｎ　Ｑｉｍｉ　Ｔｅｃｈｎｏｌｏｇｙ　Ｃｏ．，Ｌｔｄ．,,外国会社等,,,,,,,,１１０４，Ｎｏ．６，Ａｉｘｉｎ　Ｄｉｓｔｒｉｃｔ，Ｘｉｎｌｉａｎ　Ｃｏｍｍｕｎｉｔｙ，Ｌｏｎｇｃｈｅｎｇ　Ｓｔｒｅｅｔ，Ｌｏｎｇｇａｎｇ　Ｄｉｓｔｒｉｃｔ，Ｓｈｅｎｚｈｅｎ　Ｃｉｔｙ，Ｇｕａｎｇｄｏｎｇ　Ｐｒｏｖｉｎｃｅ,,,,,,2023-08-30,1,,,,,シェンジェンシーチーミーコージーヨウシエンゴンスー,0
1898,8700150119594,新規,0,2023-08-30,2023-08-30,Ｓｈｅｎｚｈｅｎ　Ｙａｇｕ　Ｅ－Ｃｏｍｍｅｒｃｅ　Ｃｏ．，Ｌｔｄ,,外国会社等,,,,,,,,ｌｏｎｇｇａｎｇ　ｄｉｓｔｒｉｃｔ　Ｈｅａｎｇｇａｎｇ　Ｓｔｒｅｅｔ　ｘｉｎｙｉｙｕｃｈｅｎｇ　８Ｃ１７１７Ｓｈｅｎｚｈｅｎ　Ｇｕａｎｇｄｏｎｇ　５１８０００　ＣＮ,,,,,,2023-08-30,1,,,,,シェンジェンシーヤーグーディエンズーシャンウーヨウシエンゴンスー,0
1904,9010001238043,新規,0,2023-08-30,2023-08-30,株式会社ＫＳＴコンサルティング,,株式会社,東京都,千代田区,飯田橋４丁目６番１号２１東和ビル２階,,13,101,1020072,,,,,,,2023-08-30,1,,,,,ケーエスティーコンサルティング,0
1906,9010101015796,新規,0,2023-08-30,2023-08-30,株式会社ｕｎｃｅｎｔ,,株式会社,東京都,八王子市,中野町２６４２番地６,,13,201,1920015,,,,,,,2023-08-30,1,,,,,アンセント,0
1910,9010401176842,新規,0,2023-08-30,2023-08-30,ＳＦホールディングス株式会社,,株式会社,東京都,港区,虎ノ門１丁目１７番１号,,13,103,1050001,,,,,,,2023-08-30,1,,,,,エスエフホールディングス,0
1917,9010801034286,新規,0,2023-08-30,2023-08-30,モリト屋株式会社,,株式会社,東京都,大田区,仲六郷３丁目２番１３－５０２号,,13,111,1440055,,,,,,,2023-08-30,1,,,,,モリトヤ,0
1926,9011101104168,新規,0,2023-08-30,2023-08-30,株式会社４７日和,,株式会社,東京都,新宿区,早稲田鶴巻町５２０番地１０新宿早稲田レーベル,,13,104,1620041,,,,,,,2023-08-30,1,,,,,ヨンジュウナナヒヨリ,0
1927,9011101104176,新規,0,2023-08-30,2023-08-30,株式会社あした,,株式会社,東京都,新宿区,西新宿３丁目３番１３号西新宿水間ビル６階,,13,104,1600023,,,,,,,2023-08-30,1,,,,,アシタ,0
1929,9011103013425,新規,0,2023-08-30,2023-08-30,南洋商事合同会社,,合同会社,東京都,新宿区,信濃町５－１,,13,104,1600016,,,,,,,2023-08-30,1,,,,,ナンヨウショウジ,0
1931,9011201024877,新規,0,2023-08-30,2023-08-30,株式会社Ｄ‐Ｃｈａｉｎ,,株式会社,東京都,中野区,弥生町２丁目４１番１７号東京コンテンツインキュベーションセンター,,13,114,1640013,,,,,,,2023-08-30,1,,,,,ディーチェーン,0
1932,9011301028968,新規,0,2023-08-30,2023-08-30,株式会社ＲＫメンテナンス,,株式会社,東京都,杉並区,阿佐谷北２丁目１３番１４号,,13,115,1660001,,,,,,,2023-08-30,1,,,,,アールケーメンテナンス,0
1933,9011305002928,新規,0,2023-08-30,2023-08-30,行政書士法人ＦＡＮＦＡＲＥ,,その他の設立登記法人,東京都,杉並区,阿佐谷南１丁目３６番１６号第５７東京ビル２Ｆ－１１,,13,115,1660004,,,,,,,2023-08-30,1,,,,,ファンファーレ,0
1942,9011803005804,新規,0,2023-08-30,2023-08-30,りーふ訪問看護ステーション合同会社,,合同会社,東京都,足立区,綾瀬２丁目１９番８号,,13,121,1200005,,,,,,,2023-08-30,1,,,,,リーフホウモンカンゴステーション,0
1949,9012703002783,新規,0,2023-08-30,2023-08-30,ＡＡＫＳＵ合同会社,,合同会社,東京都,東村山市,野口町２丁目３２番地６２,,13,213,1890022,,,,,,,2023-08-30,1,,,,,アークスー,0
1955,9020001153217,新規,0,2023-08-30,2023-08-30,ＴＥフードビジネスコンサルティング株式会社,,株式会社,神奈川県,横浜市栄区,小菅ケ谷３丁目６０番２３号,,14,115,2470007,,,,,,,2023-08-30,1,,,,,ティーイーフードビジネスコンサルティング,0
1956,9020001153233,新規,0,2023-08-30,2023-08-30,株式会社ＺＫ　Ｃｏｒｐｏｒａｔｉｏｎ,,株式会社,神奈川県,横浜市港北区,新横浜３丁目２番６号,,14,109,2220033,,,,,,,2023-08-30,1,,,,,ゼットケーコーポレーション,0
1960,9020003024481,新規,0,2023-08-30,2023-08-30,合同会社佐藤梱包,,合同会社,神奈川県,横浜市戸塚区,深谷町２９８番地１リバーサイド深谷ＩＩ‐２０２号,00131703,14,110,2450067,,,,,,,2023-08-30,1,,,,,サトウコンポウ,0
1967,9030001155402,新規,0,2023-08-30,2023-08-30,アールオーネット株式会社,,株式会社,埼玉県,久喜市,西１８８番地２７,,11,232,3460015,,,,,,,2023-08-30,1,,,,,アールオーネット,0
1968,9030001155484,新規,0,2023-08-30,2023-08-30,株式会社彩北建設,,株式会社,埼玉県,北本市,東間５丁目３９番地３プレミール１０２,,11,233,3640007,,,,,,,2023-08-30,1,,,,,サイホクケンセツ,0
1972,9030003022352,新規,0,2023-08-30,2023-08-30,合同会社ＮＥＯ,,合同会社,埼玉県,さいたま市岩槻区,大字徳力５１１番地３,,11,110,3390004,,,,,,,2023-08-30,1,,,,,ネオ,0
1977,9030005021369,新規,0,2023-08-30,2023-08-30,一般社団法人こども未来ＬＡＢＯ　Ｅａｓｙ,,その他の設立登記法人,埼玉県,加須市,水深１１６７番地１６,,11,210,3470022,,,,,,,2023-08-30,1,,,,,コドモミライラボイージー,0
1986,9040003023201,新規,0,2023-08-30,2023-08-30,合同会社かもくら,,合同会社,千葉県,鴨川市,浜荻１１８２,,12,223,2995504,,,,,,,2023-08-30,1,,,,,カモクラ,0
1990,9060001036293,新規,0,2023-08-30,2023-08-30,株式会社エターナル,,株式会社,栃木県,宇都宮市,東宿郷５丁目３番地５コーポルベーレＩＩ２階Ｓ－７,00131704,09,201,3210953,,,,,,,2023-08-30,1,,,,,エターナル,0
1996,9080001025823,新規,0,2023-08-30,2023-08-30,株式会社ふくろう企画,,株式会社,静岡県,藤枝市,大洲２丁目２０番地の４８,,22,214,4260051,,,,,,,2023-08-30,1,,,,,フクロウキカク,0
1998,9080401026685,新規,0,2023-08-30,2023-08-30,株式会社森島鉄筋工業ＨＤ,,株式会社,静岡県,浜松市北区,都田町７７０７番地の２９,,22,135,4312102,,,,,,,2023-08-30,1,,,,,モリシマテッキンコウギョウホールディングス,0
2006,9120001257619,新規,0,2023-08-30,2023-08-30,ＨＢサービス株式会社,,株式会社,大阪府,大阪市城東区,新喜多１丁目６番３５－９０１号,,27,118,5360015,,,,,,,2023-08-30,1,,,,,エイチビーサービス,0
2007,9120001257701,新規,0,2023-08-30,2023-08-30,株式会社トルチャ,,株式会社,大阪府,大阪市都島区,都島中通２丁目１６番４号,,27,102,5340022,,,,,,,2023-08-30,1,,,,,トルチャ,0
2009,9120003024802,新規,0,2023-08-30,2023-08-30,Ｆ・Ｄ合同会社,,合同会社,大阪府,大阪市生野区,中川４丁目２－４ホワイトビル１０４室,,27,116,5440005,,,,,,,2023-08-30,1,,,,,エフディ,0
2010,9120003024810,新規,0,2023-08-30,2023-08-30,合同会社Ｂｈ‐Ｔｈｒｅｅ,,合同会社,大阪府,大阪市阿倍野区,旭町１丁目１－１０竹澤ビル６階８号,,27,119,5450051,,,,,,,2023-08-30,1,,,,,ビーエイチスリー,0
2015,9120901047994,新規,0,2023-08-30,2023-08-30,株式会社エイトグループ,,株式会社,大阪府,高槻市,深沢町１丁目２５番２号,,27,207,5690035,,,,,,,2023-08-30,1,,,,,エイトグループ,0
2020,9122001037298,新規,0,2023-08-30,2023-08-30,株式会社ＣＲ　Ｃｏｍｍｕｎｉｃａｔｉｏｎｓ,,株式会社,大阪府,東大阪市,御厨栄町２丁目１－１８－４０６,,27,227,5770036,,,,,,,2023-08-30,1,,,,,シーアールコミュニケーションズ,0
2026,9140001131400,新規,0,2023-08-30,2023-08-30,株式会社ライフサポート・ジャパン,,株式会社,兵庫県,尼崎市,昭和通２丁目１０番２２号,,28,202,6600881,,,,,,,2023-08-30,1,,,,,ライフサポートジャパン,0
2034,9180001157763,新規,0,2023-08-30,2023-08-30,Ｘ‐ＡＳＩＡ株式会社,,株式会社,愛知県,名古屋市東区,東片端町２３番地東片端サンコービル６階,,23,102,4610015,,,,,,,2023-08-30,1,,,,,エックスアジア,0
2035,9180001157788,新規,0,2023-08-30,2023-08-30,株式会社フジリアルエステート,,株式会社,愛知県,名古屋市千種区,橋本町１丁目４６番地の１,,23,101,4640035,,,,,,,2023-08-30,1,,,,,フジリアルエステート,0
2040,9180003025679,新規,0,2023-08-30,2023-08-30,合同会社ワポロ,,合同会社,愛知県,名古屋市中区,錦３丁目１３番１３号,,23,106,4600003,,,,,,,2023-08-30,1,,,,,ワポロ,0
2044,9200001041634,新規,0,2023-08-30,2023-08-30,株式会社ご陽気,,株式会社,岐阜県,岐阜市,加納新町１０５番地,,21,201,5008425,,,,,,,2023-08-30,1,,,,,ゴヨウキ,0
2062,9290001102790,新規,0,2023-08-30,2023-08-30,株式会社Ｓｕｎ　Ｍｏｎ　ＪＰ,,株式会社,福岡県,福岡市南区,清水３丁目７－１８－４０３,,40,134,8150031,,,,,,,2023-08-30,1,,,,,サンモンジャパン,0
2065,9290003014290,新規,0,2023-08-30,2023-08-30,リンクメイド合同会社,,合同会社,福岡県,福岡市博多区,板付５丁目１２番２６号,,40,132,8120888,,,,,,,2023-08-30,1,,,,,リンクメイド,0
2069,9290801029820,新規,0,2023-08-30,2023-08-30,株式会社ＤＣ‐Ｌｉｆｅ,,株式会社,福岡県,北九州市八幡西区,八千代町９番１８－１０１号,,40,109,8060023,,,,,,,2023-08-30,1,,,,,ディーシーライフ,0
2072,9320001019965,新規,0,2023-08-30,2023-08-30,株式会社一心,,株式会社,大分県,大分市,大字金谷迫字平田１６４８番地の３,,44,201,8700879,,,,,,,2023-08-30,1,,,,,イッシン,0
2073,9320003004156,新規,0,2023-08-30,2023-08-30,合同会社ＯＤＣ‐Ｃ,,合同会社,大分県,大分市,城崎町１丁目３番２３号第６皐月マンション５０５,,44,201,8700045,,,,,,,2023-08-30,1,,,,,オーデーシーシー,0
2078,9330001031201,新規,0,2023-08-30,2023-08-30,株式会社ｓａｎａｅ,,株式会社,熊本県,熊本市西区,花園６丁目４３－１,,43,103,8600072,,,,,,,2023-08-30,1,,,,,サナエ,0
2080,9370001050338,新規,0,2023-08-30,2023-08-30,アバンティー株式会社,,株式会社,宮城県,仙台市宮城野区,日の出町２丁目３番８号,,04,102,9830035,,,,,,,2023-08-30,1,,,,,アバンティー,0
2090,9420001018379,新規,0,2023-08-30,2023-08-30,吉光設備設計株式会社,,株式会社,青森県,八戸市,江陽２丁目４番２５号,,02,203,0310801,,,,,,,2023-08-30,1,,,,,ヨシミツセツビセッケイ,0
2104,9480001012194,新規,0,2023-08-30,2023-08-30,株式会社ＢＳＴ,,株式会社,徳島県,名西郡石井町,高川原字天神４４８番地１,,36,341,7793222,,,,,,,2023-08-30,1,,,,,ビーエスティー,0
2105,9500001025160,新規,0,2023-08-30,2023-08-30,株式会社マツケンチク,,株式会社,愛媛県,松山市,道後一万１番５号,,38,201,7900844,,,,,,,2023-08-30,1,,,,,マツケンチク,0
2106,9700150111716,新規,0,2023-08-30,2023-08-30,Ｔａｉ　Ｍｏｕｎｔａｉｎ　Ｃｏｒｐｏｒａｔｉｏｎ,,外国会社等,,,,,,,,２　ＳＥＮＥＣＡ　ＲＤ，ＡＣＴＯＮ，ＭＡ，ＵＳＡ　０１７２０,,,,,,2023-08-30,1,,,,,タイマウンテンコーポレーション,0
2107,9700150118273,新規,0,2023-08-30,2023-08-30,Ｓｈｅｎｚｈｅｎ　Ｗｏｃｈｅｎｇ　Ｔｅｃｈｎｏｌｏｇｙ　Ｃｏ．，Ｌｔｄ,,外国会社等,,,,,,,,Ｒｏｏｍ　５０７－１７，Ｂｌｏｃｋ　Ｂ，Ｓｈｅｎｆａｎｇ　Ｂｕｉｌｄｉｎｇ，Ｈｕａｑｉａｎｇ　Ｎｏｒｔｈ　Ｒｏａｄ，Ｈｕａｑｉａｎｇ　Ｎｏｒｔｈ　Ｓｔｒｅｅｔ，Ｆｕｔｉａｎ　Ｄｉｓｔｒｉｃｔ，Ｓｈｅｎｚｈｅｎ,,,,,,2023-08-30,1,,,,,シンセンシウーチェンテクノロジーユウゲンカイシャ,0
2108,9700150119544,新規,0,2023-08-30,2023-08-30,Ｔａｉｙｕａｎ　Ｔｏｎｇｘｉａｏｔａｎｇ　Ｅｌｅｃｔｒｏｎｉｃ　Ｃｏｍｍｅｒｃｅ　Ｃｏ．，Ｌｔｄ．,,外国会社等,,,,,,,,Ｎｏ．１２，Ｆｌｏｏｒ　６，Ｕｎｉｔ　３，Ｂｕｉｌｄｉｎｇ　３６，Ｎｏ．２０，Ｒｅｎｍｉｎ　Ｎｏｒｔｈ　Ｒｏａｄ，Ｘｉａｏｄｉａｎ　Ｄｉｓｔｒｉｃｔ，Ｔａｉｙｕａｎ　Ｃｉｔｙ,,,,,,2023-08-30,1,,,,,タイユエントンシャオタンディエンズーシャンウーヨウシエンゴンスー,0
2109,9700150119552,新規,0,2023-08-30,2023-08-30,ＺｈｅｎｇＺｈｏｕＴｕｏＺｈｉＭａｉＳｈａｎｇＭａｏＹｏｕＸｉａｎＧｏｎｇＳｉ,,外国会社等,,,,,,,,ｄａｘｕｅｎａｎｌｕｌｖｄｉｂｉｎｈｕｇｕｏｊｉｃｈｅｎｇｗｕｑｕｓａｎｈａｏｌｏｕ２２０２ｈａｏ，ｚｈｅｎｇｚｈｏｕｓｈｉ，ｈｅｎａｎｓｈｅｎｇ，ｅｒｑｉｑｕ,,,,,,2023-08-30,1,,,,,テイシュウタクノマイショウボウユウゲンコウシ,0
2110,9700150119560,新規,0,2023-08-30,2023-08-30,ｇｕａｎｇｚｈｏｕｚｈｉｑｕｎｋｅｊｉ　ｙｏｕｘｉａｎｇｏｎｇｓｉ,,外国会社等,,,,,,,,ｈｕａｇｕａｎｌｕ１９３３ｈａｏｚｈｉｅｒ２０７ｆａｎｇＤ１４０　ｔｉａｎｈｅｑｕ　ｇｕａｎｇｚｈｏｕｓｈｉ,,,,,,2023-08-30,1,,,,,コウシュウジチュンカギユウゲンコウシ,0
2111,9700150119577,新規,0,2023-08-30,2023-08-30,ｘｉａｍｅｎｚｈｅｎｈｅｓｈｉｃｈｕａｎｇｄｉａｎｚｉｓｈａｎｇｗｕｙｏｕｘｉａｎｇｏｎｇｓｉ,,外国会社等,,,,,,,,Ｒｏｏｍ　３０１，１０３　Ｓｈｕａｎｇｐｕｘｉ，Ｈｕｌｉ　Ｄｉｓｔｒｉｃｔ　Ｘｉａｍｅｎ　Ｆｕｊｉａｎ　３６１００９　ＣＮ,,,,,,2023-08-30,1,,,,,シャーメンジェンホーシーチュワンディエンズーシャンウーヨウシエンゴンスー,0
2112,9700150119585,新規,0,2023-08-30,2023-08-30,ＳｈｅｎＺｈｅｎＳｈｉ　ＤｕｏＬｅＭｉ　ＤｉａｎＺｉＳｈａｎｇＷｕ　ＹｏｕＸｉａｎＧｏｎｇＳｉ,,外国会社等,,,,,,,,ＨｕａＦｅｎｇＧｕｏＪｉＪｉＱｉＲｅｎＣｈａｎＹｅＹｕａｎ　ＡＤｏｎｇ６Ｃｅｎｇ　ＢａｏＡｎＱｕ，ＸｉＸｉａｎｇＪｉｅＤａｏ　ＮａｎＣｈａｎｇＳｈｅＱｕ　ＨａｎｇＣｈｅｎｇＤａＤａｏ　ＳｈｅｎＺｈｅｎＳｈｉ　ＧｕａｎｇＤｏｎｇＳｈｅｎｇ　５１８０００　ＣＮ,,,,,,2023-08-30,1,,,,,シェンジェンシードゥオラーミーディエンズーシャンウーヨウシエンゴンスー,0
2113,9700150119593,新規,0,2023-08-30,2023-08-30,ｓｈｅｎｚｈｅｎｓｈｉａｔａｉｏｍａｏｙｉｙｏｕｘｉａｎｇｏｎｇｓｉ,,外国会社等,,,,,,,,ｓｈｅｎｚｈｅｎｓｈｉｌｏｎｇｇａｎｇｑｕｈｅｎｇｇａｎｇｊｉｅｄａｏｚｈｉｓｈｅｎｇｓｈｅｑｕｍａｏｓｈｅｎｇｌｕ１ｈａｏｈｅｎｇｇａｎｇｃｕｎｚｈｉｊｉａｎｓｈｉｄａｉｇｕａｎｇｃｈａｎｇｌｉｎｈａｉｇｅＢ２１１４,,,,,,2023-08-30,1,,,,,シェンジェンシーアータイオーマオイーヨウシエンゴンスー,0
