sequenceNumber,corporateNumber,process,correct,updateDate,changeDate,name,nameImageId,kind,prefectureName,cityName,streetNumber,addressImageId,prefectureCode,cityCode,postCode,addressOutside,addressOutsideImageId,closeDate,closeCause,successorCorporateNumber,changeCause,assignmentDate,latest,enName,enPrefectureName,enCityName,enAddressOutside,furigana,hihyoji
1,1010001115118,登記記録の閉鎖等,0,2023-05-01,2023-04-18,株式会社ケセラデータサービス,,株式会社,東京都,中央区,京橋２丁目７番１４号,,13,102,1040031,,,2023-04-18,清算の結了等,,,2015-10-05,1,,,,,ケセラデータサービス,0
12,1010001205257,登記記録の閉鎖等,0,2023-05-01,2023-04-20,スリーウェル株式会社,,株式会社,東京都,中央区,日本橋浜町１丁目４番１６号浜町大森ビル２Ｆ,,13,102,1030007,,,2023-04-20,清算の結了等,,,2019-11-13,1,,,,,スリーウェル,0
17,1010002034515,登記記録の閉鎖等,0,2023-05-01,2023-04-18,有限会社イズミプランニング,,有限会社,東京都,千代田区,平河町２丁目１１番２号,,13,101,1020093,,,2023-04-18,清算の結了等,,,2015-10-05,1,,,,,イズミプランニング,0
64,1011002003732,登記記録の閉鎖等,0,2023-05-01,2023-04-17,有限会社黒田コーポレーション,,有限会社,東京都,渋谷区,富ヶ谷２丁目３４番９号,,13,113,1510063,,,2023-04-17,清算の結了等,,,2015-10-05,1,,,,,クロダコーポレーション,0
85,1011702002406,登記記録の閉鎖等,0,2023-05-01,2023-04-27,有限会社岡崎紙工,,有限会社,東京都,江戸川区,松江５丁目１３番８号,,13,123,1320025,,,2023-04-27,清算の結了等,,,2015-10-05,1,,,,,オカザキシコウ,0
95,1013301034838,登記記録の閉鎖等,0,2023-05-01,2023-04-21,株式会社オブテインズ,,株式会社,東京都,豊島区,東池袋４丁目５番１号エアライズタワー２００７号,,13,116,1700013,,,2023-04-21,清算の結了等,,,2015-10-05,1,,,,,オブテインズ,0
103,1020001141204,登記記録の閉鎖等,0,2023-05-01,2023-04-19,株式会社ＭＫ　ＧＬＯＢＡＬ,,株式会社,神奈川県,横浜市港北区,樽町３丁目７－１５ザハウス港北綱島１５４,,14,109,2220001,,,2023-04-19,清算の結了等,,,2021-05-10,1,,,,,エムケーグローバル,0
104,1020001141658,登記記録の閉鎖等,0,2023-05-01,2023-04-19,株式会社いきがい結び,,株式会社,神奈川県,横浜市港北区,新横浜３丁目１３－６新横浜葉山第３ビル７階,,14,109,2220033,,,2023-04-19,清算の結了等,,,2021-06-08,1,,,,,イキガイムスビ,0
105,1020001142920,登記記録の閉鎖等,0,2023-05-01,2023-04-20,株式会社ＡｒｔＣｕｒａｔｏｒ,,株式会社,神奈川県,横浜市港南区,芹が谷４丁目１２番３０号,,14,111,2330006,,,2023-04-20,清算の結了等,,,2021-09-08,1,,,,,アートキュレーター,0
157,1080002004263,登記記録の閉鎖等,0,2023-05-01,2023-04-28,有限会社鳥甚,,有限会社,静岡県,静岡市葵区,相生町７番６号,,22,101,4200838,,,2023-04-28,清算の結了等,,,2015-10-05,1,,,,,トリジン,0
164,1100002019754,登記記録の閉鎖等,0,2023-05-01,2023-04-26,有限会社京呉服ゐくよし,,有限会社,長野県,松本市,元町３丁目３番８号,,20,202,3900803,,,2023-04-26,清算の結了等,,,2015-10-05,1,,,,,キョウゴフクイクヨシ,0
168,1110005014041,登記記録の閉鎖等,0,2023-05-01,2023-04-25,三宮畉田生産森林組合,,その他の設立登記法人,新潟県,佐渡市,三宮１６１番地１,,15,224,9520216,,,2023-04-25,清算の結了等,,,2015-10-05,1,,,,,サングウフタ,0
192,1140002048907,登記記録の閉鎖等,0,2023-05-01,2023-04-26,シグマ設備サービス有限会社,,有限会社,兵庫県,姫路市,大津区平松２５２番地,,28,201,6711145,,,2023-04-26,清算の結了等,,,2015-10-05,1,,,,,シグマセツビサービス,0
196,1160002007084,登記記録の閉鎖等,0,2023-05-01,2023-04-27,森孝商事有限会社,,有限会社,滋賀県,長浜市,平方町３０４番地の２,,25,203,5260033,,,2023-04-27,清算の結了等,,,2015-10-05,1,,,,,モリコウショウジ,0
217,1200001032698,登記記録の閉鎖等,0,2023-05-01,2023-04-28,株式会社ダイトーホーム,,株式会社,岐阜県,本巣市,政田８４番地１,,21,218,5010471,,,2023-04-28,清算の結了等,,,2016-03-25,1,,,,,ダイトーホーム,0
220,1230002008653,登記記録の閉鎖等,0,2023-05-01,2023-04-28,シンライフ有限会社,,有限会社,富山県,魚津市,大字大海寺新村４３番地１３,,16,204,9370000,,,2023-04-28,清算の結了等,,,2015-10-05,1,,,,,シンライフ,0
229,1260001035968,登記記録の閉鎖等,0,2023-05-01,2023-04-28,株式会社日鋼工業,,株式会社,岡山県,倉敷市,老松町４丁目７番３２－２０１号,,33,202,7100826,,,2023-04-28,清算の結了等,,,2021-09-17,1,,,,,ニッコウコウギョウ,0
235,1290001040528,登記記録の閉鎖等,0,2023-05-01,2023-04-20,大部電工株式会社,,株式会社,福岡県,大野城市,川久保１丁目４番１号,,40,219,8160905,,,2023-04-20,清算の結了等,,,2015-10-05,1,,,,,オオブデンコウ,0
239,1290002003780,登記記録の閉鎖等,0,2023-05-01,2023-04-21,有限会社みらい,,有限会社,福岡県,福岡市南区,高木３丁目５番３３－１０７号,,40,134,8150004,,,2023-04-21,清算の結了等,,,2015-10-05,1,,,,,ミライ,0
240,1290002030288,登記記録の閉鎖等,0,2023-05-01,2023-04-21,有限会社ブルーライド,,有限会社,福岡県,福岡市南区,和田１丁目４番２号,,40,134,8111343,,,2023-04-21,清算の結了等,,,2015-10-05,1,,,,,,0
244,1290005017332,登記記録の閉鎖等,0,2023-05-01,2023-04-21,ＮＰＯ法人空き家革命,,その他の設立登記法人,福岡県,那珂川市,五郎丸２丁目１４番,,40,231,8111252,,,2023-04-21,清算の結了等,,,2019-05-30,1,,,,,アキヤカクメイ,0
245,1290005017621,登記記録の閉鎖等,0,2023-05-01,2023-04-25,弁護士法人福岡南法律事務所,,その他の設立登記法人,福岡県,福岡市南区,野間１丁目１０番７号野間リッチハイツ２階,,40,134,8150041,,,2023-04-25,清算の結了等,,,2020-01-16,1,,,,,フクオカミナミホウリツジムショ,0
251,1310001005932,登記記録の閉鎖等,0,2023-05-01,2023-04-27,福田建設工業株式会社,,株式会社,長崎県,佐世保市,黒髪町３４番１０号,,42,202,8571152,,,2023-04-27,清算の結了等,,,2015-10-05,1,,,,,フクダケンセツコウギョウ,0
260,1330002021547,登記記録の閉鎖等,0,2023-05-01,2023-04-24,有限会社水テックス二一,,有限会社,熊本県,玉名市,天水町小天７１７０番地の７,,43,206,8615401,,,2023-04-24,清算の結了等,,,2015-10-05,1,,,,,ミズテックスニジュウイチ,0
276,1370002004705,登記記録の閉鎖等,0,2023-05-01,2023-04-26,有限会社大友自動車工業,,有限会社,宮城県,仙台市若林区,かすみ町７番１６号,,04,103,9840822,,,2023-04-26,清算の結了等,,,2015-10-05,1,,,,,オオトモジドウシャコウギョウ,0
288,1420001006317,登記記録の閉鎖等,0,2023-05-01,2023-04-21,八菱興業株式会社,,株式会社,青森県,八戸市,大字河原木字青森谷地３番地,,02,203,0391161,,,2023-04-21,合併による解散等,6420001014174,令和５年４月１日青森県八戸市大字河原木字青森谷地３番地エム・ピー・エム・オペレーション株式会社（6420001014174）に合併し解散,2015-10-05,1,,,,,ハチリョウコウギョウ,0
289,1420002018641,登記記録の閉鎖等,0,2023-05-01,2023-04-25,有限会社東測設計,,有限会社,青森県,上北郡野辺地町,字新町裏４３番地,,02,401,0393163,,,2023-04-25,清算の結了等,,,2015-10-05,1,,,,,トウソクセッケイ,0
290,1420003000920,登記記録の閉鎖等,0,2023-05-01,2023-04-14,株式会社小嶋商事,,株式会社,北海道,札幌市北区,北三十条西６丁目４番１－４０２号,,01,102,0010030,,,2023-04-14,清算の結了等,,,2015-10-05,1,,,,,コジマショウジ,0
291,1420003002223,登記記録の閉鎖等,0,2023-05-01,2023-04-24,合同会社ネージュ,,合同会社,青森県,八戸市,大字鮫町字山四郎蒔目１７番地１４６,,02,203,0310841,,,2023-04-24,清算の結了等,,,2020-12-08,1,,,,,ネージュ,0
322,2010001206741,登記記録の閉鎖等,0,2023-05-01,2023-04-20,株式会社キャメロットシステムパートナーズ,,株式会社,東京都,千代田区,丸の内１丁目１１番１号パシフィックセンチュリープレイス丸の内８階,,13,101,1000005,,,2023-04-20,清算の結了等,,,2020-01-20,1,,,,,キャメロットシステムパートナーズ,0
338,2010601053600,登記記録の閉鎖等,0,2023-05-01,2023-04-26,白金エース株式会社,,株式会社,東京都,墨田区,吾妻橋２丁目１番１,,13,107,1300001,,,2023-04-26,清算の結了等,,,2018-07-06,1,,,,,シロカネエース,0
369,2011601016126,登記記録の閉鎖等,0,2023-05-01,2023-04-27,株式会社Ａｃａｌａ,,株式会社,東京都,練馬区,富士見台２丁目３１番１０号,,13,120,1770034,,,2023-04-27,清算の結了等,,,2015-10-05,1,,,,,,0
397,2020002063132,登記記録の閉鎖等,0,2023-05-01,2023-04-19,有限会社アクセルワーク,,有限会社,神奈川県,横浜市鶴見区,東寺尾３丁目６番１２号,,14,101,2300077,,,2023-04-19,清算の結了等,,,2015-10-05,1,,,,,アクセルワーク,0
400,2021001013111,登記記録の閉鎖等,0,2023-05-01,2023-04-26,ちくすい産業株式会社,,株式会社,神奈川県,相模原市南区,松が枝町１番８号,,14,153,2520313,,,2023-04-26,清算の結了等,,,2015-10-05,1,,,,,チクスイサンギョウ,0
412,2040001055327,登記記録の閉鎖等,0,2023-05-01,2023-04-17,株式会社京葉メールサービス,,株式会社,千葉県,市原市,八幡１４９８番地２,,12,219,2900062,,,2023-04-17,清算の結了等,,,2015-10-05,1,,,,,ケイヨウメールサービス,0
413,2040001084136,登記記録の閉鎖等,0,2023-05-01,2023-04-17,株式会社水滸伝,,株式会社,千葉県,市原市,青葉台１丁目１３番地の１９,,12,219,2990117,,,2023-04-17,清算の結了等,,,2015-10-05,1,,,,,スイコデン,0
414,2040001102806,登記記録の閉鎖等,0,2023-05-01,2023-04-17,株式会社替天行道,,株式会社,千葉県,市原市,青葉台３丁目１番地２,,12,219,2990117,,,2023-04-17,清算の結了等,,,2017-12-18,1,,,,,タイテンコウドウ,0
418,2040002056885,登記記録の閉鎖等,0,2023-05-01,2023-04-14,有限会社アン,,有限会社,千葉県,白井市,堀込１丁目１番２０号,,12,232,2701424,,,2023-04-14,清算の結了等,,,2015-10-05,1,,,,,アン,0
449,2100005010593,登記記録の閉鎖等,0,2023-05-01,2023-04-21,税理士法人淺田税経,,その他の設立登記法人,長野県,上田市,中央５丁目４番２７号,,20,203,3860012,,,2023-04-21,清算の結了等,,,2015-10-05,1,,,,,アサダゼイケイ,0
451,2120001211409,登記記録の閉鎖等,0,2023-05-01,2023-04-11,株式会社ＫＩＮＫ,,株式会社,大阪府,大阪市北区,豊崎３丁目１５番５号,,27,127,5310072,,,2023-04-11,清算の結了等,,,2018-02-15,1,,,,,ケイアイエヌケイ,0
468,2140002023198,登記記録の閉鎖等,0,2023-05-01,2023-04-27,有限会社渡邊ミィートハウス,,有限会社,兵庫県,神戸市垂水区,狩口台６丁目３番３号,,28,108,6550049,,,2023-04-27,清算の結了等,,,2015-10-05,1,,,,,ワタナベミィートハウス,0
480,2180001044530,登記記録の閉鎖等,0,2023-05-01,2023-04-26,株式会社テクノプラス,,株式会社,愛知県,名古屋市中村区,名駅南１丁目２０番９号,,23,105,4500003,,,2023-04-26,清算の結了等,,,2015-10-05,1,,,,,テクノプラス,0
485,2180001116040,登記記録の閉鎖等,0,2023-05-01,2023-04-25,新鉄工株式会社,,株式会社,愛知県,名古屋市緑区,野末町３０３番地,,23,114,4580915,,,2023-04-25,清算の結了等,,,2015-10-05,1,,,,,シンテッコウ,0
505,2230002008850,登記記録の閉鎖等,0,2023-05-01,2023-04-25,有限会社折田電興,,有限会社,富山県,滑川市,有金８１５番地４３,,16,206,9360855,,,2023-04-25,清算の結了等,,,2015-10-05,1,,,,,オリタデンコウ,0
512,2240003002686,登記記録の閉鎖等,0,2023-05-01,2023-04-13,合同会社柳原プランニング,,合同会社,広島県,三次市,三次町１６０４番地９,,34,209,7280021,,,2023-04-13,清算の結了等,,,2015-10-05,1,,,,,ヤナギハラプランニング,0
523,2290002038792,登記記録の閉鎖等,0,2023-05-01,2023-04-20,有限会社大部商店,,有限会社,福岡県,大野城市,川久保１丁目４番１号,,40,219,8160905,,,2023-04-20,清算の結了等,,,2015-10-05,1,,,,,オオブショウテン,0
530,2310001013083,登記記録の閉鎖等,0,2023-05-01,2023-04-28,四葉コーポレーション株式会社,,株式会社,長崎県,西彼杵郡長与町,丸田郷１１１５番地３６,,42,307,8512124,,,2023-04-28,合併による解散等,5310001014260,令和５年４月２８日長崎県西彼杵郡長与町丸田郷１１１５番地３６長崎マリンオートメーション株式会社（5310001014260）に合併し解散,2015-10-05,1,,,,,ヨツバコーポレーション,0
534,2330001016258,登記記録の閉鎖等,0,2023-05-01,2023-04-24,株式会社優光,,株式会社,熊本県,球磨郡多良木町,大字多良木１２８５番地,,43,505,8680501,,,2023-04-24,清算の結了等,,,2015-10-05,1,,,,,,0
542,2370001024141,登記記録の閉鎖等,0,2023-05-01,2023-04-26,株式会社アクロスケール,,株式会社,宮城県,仙台市青葉区,国分町３丁目５番７号,,04,101,9800803,,,2023-04-26,清算の結了等,,,2015-10-05,1,,,,,アクロスケール,0
548,2390002008604,登記記録の閉鎖等,0,2023-05-01,2023-04-25,有限会社たちばな薬局,,有限会社,山形県,酒田市,一番町３番２５号,,06,204,9980046,,,2023-04-25,清算の結了等,,,2015-10-05,1,,,,,タチバナヤッキョク,0
551,2390003000535,登記記録の閉鎖等,0,2023-05-01,2023-04-25,合資会社港電機商会,,合資会社,山形県,鶴岡市,鼠ケ関乙２番地の９,,06,203,9997126,,,2023-04-25,清算の結了等,,,2015-10-05,1,,,,,ミナトデンキショウカイ,0
553,2400003002174,登記記録の閉鎖等,0,2023-05-01,2023-04-21,合同会社ＺｅＮ,,合同会社,岩手県,盛岡市,菜園２丁目６番２８号,,03,201,0200024,,,2023-04-21,清算の結了等,,,2017-04-04,1,,,,,ゼン,0
561,2430001042599,登記記録の閉鎖等,0,2023-05-01,2023-04-21,株式会社ベルハウス和田,,株式会社,北海道,江別市,緑町東１丁目１２番地,,01,217,0670003,,,2023-04-21,清算の結了等,,,2015-10-05,1,,,,,ベルハウスワダ,0
582,3010001099482,登記記録の閉鎖等,0,2023-05-01,2023-04-20,株式会社リライアブル,,株式会社,東京都,千代田区,麹町３丁目６番地５号,,13,101,1020083,,,2023-04-20,清算の結了等,,,2015-10-05,1,,,,,リライアブル,0
592,3010001198061,登記記録の閉鎖等,0,2023-05-01,2023-04-19,株式会社Ｗｏｌｆｄｏｇ,,株式会社,福岡県,福岡市博多区,博多駅前１丁目１５番２０ＮＭＦ博多駅前ビル２階,,40,132,8120011,,,2023-04-19,清算の結了等,,,2019-01-28,1,,,,,ウルフドッグ,0
599,3010005006550,登記記録の閉鎖等,0,2023-05-01,2023-04-25,特定非営利活動法人全国学生保障援助会,,その他の設立登記法人,東京都,豊島区,東池袋２丁目１３番１２号,,13,116,1700013,,,2023-04-25,清算の結了等,,,2015-10-05,1,,,,,ゼンコクガクセイホショウエンジョカイ,0
607,3010402029039,登記記録の閉鎖等,0,2023-05-01,2023-04-26,有限会社ウェンビー,,有限会社,神奈川県,藤沢市,鵠沼石上１丁目４番３号４０１室,,14,205,2510025,,,2023-04-26,合併による解散等,8030002066491,令和５年４月１日埼玉県和光市新倉一丁目８番９号株式会社エヌ・ダブリュ・エヌコーポレーション（8030002066491）に合併し解散,2015-10-05,1,,,,,,0
609,3010405018815,登記記録の閉鎖等,0,2023-05-01,2023-04-11,一般社団法人抗ウイルスコーティング協会,,その他の設立登記法人,東京都,港区,芝２丁目１２番１５号３階,,13,103,1050014,,,2023-04-11,清算の結了等,,,2020-06-17,1,,,,,コウウィルスコーティングキョウカイ,0
621,3010605003716,登記記録の閉鎖等,0,2023-05-01,2023-04-26,一般社団法人アントレガルテン,,その他の設立登記法人,東京都,墨田区,吾妻橋２丁目１番１,,13,107,1300001,,,2023-04-26,清算の結了等,,,2019-07-03,1,,,,,アントレガルテン,0
627,3011001071704,登記記録の閉鎖等,0,2023-05-01,2023-04-21,株式会社ファミーラ,,株式会社,東京都,渋谷区,代々木３丁目８番７号,,13,113,1510053,,,2023-04-21,合併による解散等,2011101062414,令和５年４月１日東京都新宿区河田町３番１６号株式会社フューチャーフロンティアーズ（2011101062414）に合併し解散,2015-10-05,1,,,,,ファミーラ,0
629,3011101026186,登記記録の閉鎖等,0,2023-05-01,2023-04-27,株式会社ウェブクエスト,,株式会社,東京都,新宿区,新宿２丁目５番１２号,,13,104,1600022,,,2023-04-27,清算の結了等,,,2015-10-05,1,,,,,ウェブクエスト,0
654,3013302021387,登記記録の閉鎖等,0,2023-05-01,2023-04-24,有限会社紅和,,有限会社,東京都,豊島区,高田３丁目１１番１４号,,13,116,1710033,,,2023-04-24,清算の結了等,,,2015-10-05,1,,,,,コウワ,0
663,3021001040757,登記記録の閉鎖等,0,2023-05-01,2023-04-27,角田産業株式会社,,株式会社,神奈川県,横須賀市,三春町１丁目２６番地,,14,201,2380014,,,2023-04-27,清算の結了等,,,2015-10-05,1,,,,,ツノダサンギョウ,0
671,3030002084812,登記記録の閉鎖等,0,2023-05-01,2023-04-13,有限会社アドヴァンス,,有限会社,埼玉県,越谷市,千間台西５丁目３番地３０,,11,222,3430041,,,2023-04-13,清算の結了等,,,2015-10-05,1,,,,,アドヴァンス,0
679,3040003015014,登記記録の閉鎖等,0,2023-05-01,2023-04-17,合同会社Ｋコーポレーション,,合同会社,千葉県,市原市,馬立１７２６－２,,12,219,2900221,,,2023-04-17,清算の結了等,,,2020-03-23,1,,,,,ケーコーポレーション,0
691,3060002005724,登記記録の閉鎖等,0,2023-05-01,2023-04-19,有限会社タグチオート商会,,有限会社,栃木県,宇都宮市,石井町２９８４番地,,09,201,3210912,,,2023-04-19,清算の結了等,,,2015-10-05,1,,,,,タグチオートショウカイ,0
693,3070001007712,登記記録の閉鎖等,0,2023-05-01,2023-04-27,チューブ販売株式会社,,株式会社,群馬県,高崎市,城山町１丁目２３番地３,,10,202,3700866,,,2023-04-27,清算の結了等,,,2015-10-05,1,,,,,チューブハンバイ,0
694,3070001029789,登記記録の閉鎖等,0,2023-05-01,2023-04-26,株式会社セイルキー,,株式会社,群馬県,伊勢崎市,赤堀今井町１丁目２０９番地３,,10,204,3792215,,,2023-04-26,清算の結了等,,,2015-10-05,1,,,,,セイルキー,0
699,3080402004002,登記記録の閉鎖等,0,2023-05-01,2023-04-26,有限会社杉森土建,,有限会社,静岡県,浜松市中区,高丘北４丁目１番１８号,,22,131,4338119,,,2023-04-26,清算の結了等,,,2015-10-05,1,,,,,スギモリドケン,0
705,3100002026765,登記記録の閉鎖等,0,2023-05-01,2023-04-26,有限会社福島板金店,,有限会社,長野県,大町市,大町１０６４番地１,,20,212,3980002,,,2023-04-26,清算の結了等,,,2015-10-05,1,,,,,フクシマバンキンテン,0
734,3120901012095,登記記録の閉鎖等,0,2023-05-01,2023-04-28,水野金属株式会社,,株式会社,大阪府,高槻市,大字三島江５３番地４,,27,207,5690835,,,2023-04-28,清算の結了等,,,2015-10-05,1,,,,,ミズノキンゾク,0
763,3180002077314,登記記録の閉鎖等,0,2023-05-01,2023-04-26,有限会社ハピネス,,有限会社,愛知県,一宮市,大江１丁目１番１号,,23,203,4910851,,,2023-04-26,清算の結了等,,,2015-10-05,1,,,,,ハピネス,0
765,3180002087981,登記記録の閉鎖等,0,2023-05-01,2023-04-26,有限会社フカヤ不動産,,有限会社,愛知県,東海市,荒尾町金山９０番地,,23,222,4760003,,,2023-04-26,清算の結了等,,,2015-10-05,1,,,,,フカヤフドウサン,0
775,3200002009842,登記記録の閉鎖等,0,2023-05-01,2023-04-28,有限会社森川被服,,有限会社,岐阜県,本巣市,文殊１００２番地の５,,21,218,5011203,,,2023-04-28,清算の結了等,,,2015-10-05,1,,,,,モリカワヒフク,0
780,3240005010439,登記記録の閉鎖等,0,2023-05-01,2023-04-11,元比良堂原神社,,その他の設立登記法人,広島県,竹原市,西野町字塔ヶ鼻甲４０１番地，乙４０１番地,,34,203,7250002,,,2023-04-11,合併による解散等,7240005010344,令和５年３月２７日広島県竹原市西野町字伊勢宮山甲１４１番地，乙１４１番地伊勢両宮社（7240005010344）に合併し解散,2015-10-05,1,,,,,モトヒラドウハラジンジャ,0
789,3290001017169,登記記録の閉鎖等,0,2023-05-01,2023-04-20,株式会社大和組,,株式会社,福岡県,福岡市博多区,千代１丁目１３番９号,,40,132,8120044,,,2023-04-20,清算の結了等,,,2015-10-05,1,,,,,,0
793,3290002012474,登記記録の閉鎖等,0,2023-05-01,2023-04-20,有限会社バナナ商会,,有限会社,福岡県,福岡市中央区,大名１丁目１番２０号,,40,133,8100041,,,2023-04-20,清算の結了等,,,2015-10-05,1,,,,,バナナショウカイ,0
811,3370001016492,登記記録の閉鎖等,0,2023-05-01,2023-04-24,緑匠株式会社,,株式会社,宮城県,仙台市泉区,住吉台西１丁目１１番地の１８,,04,105,9813223,,,2023-04-24,清算の結了等,,,2015-10-05,1,,,,,リョクショウ,0
824,3420001007065,登記記録の閉鎖等,0,2023-05-01,2023-04-21,株式会社昭光製作所,,株式会社,青森県,八戸市,大字河原木字青森谷地３番地,,02,203,0391161,,,2023-04-21,合併による解散等,6420001006320,令和５年４月１日青森県八戸市大字河原木字青森谷地３番地三菱製紙エンジニアリング株式会社（6420001006320）に合併し解散,2015-10-05,1,,,,,ショウコウセイサクショ,0
825,3420002010506,登記記録の閉鎖等,0,2023-05-01,2023-04-24,有限会社平川商店,,有限会社,青森県,八戸市,大字市川町字堤下４０番地２,,02,203,0392241,,,2023-04-24,清算の結了等,,,2015-10-05,1,,,,,ヒラカワショウテン,0
845,4010001189448,登記記録の閉鎖等,0,2023-05-01,2023-04-18,株式会社カイヤナイト,,株式会社,東京都,千代田区,二番町９番３号,,13,101,1020084,,,2023-04-18,清算の結了等,,,2018-02-05,1,"KYANITE, INC.",Tokyo,"9-3, Nibancho, Chiyoda-ku",,カイヤナイト,0
846,4010001190876,登記記録の閉鎖等,0,2023-05-01,2023-04-26,株式会社ＮＩＮＡＵ,,株式会社,東京都,練馬区,北町８丁目３４番１０号ハイツ下赤塚４０２,,13,120,1790081,,,2023-04-26,清算の結了等,,,2018-04-10,1,,,,,ニナウ,0
862,4010401095213,登記記録の閉鎖等,0,2023-05-01,2023-04-21,株式会社ＦｕＲｕＴａ,,株式会社,神奈川県,横浜市青葉区,奈良町２９１３番地奈良北団地７－７０２,,14,117,2270036,,,2023-04-21,清算の結了等,,,2015-10-05,1,,,,,フルタ,0
863,4010401105789,登記記録の閉鎖等,0,2023-05-01,2023-04-18,エグゼキュファーマ株式会社,,株式会社,東京都,中央区,新川１丁目２１番２号茅場町タワー,,13,102,1040033,,,2023-04-18,清算の結了等,,,2015-10-05,1,,,,,エグゼキュファーマ,0
870,4010402012076,登記記録の閉鎖等,0,2023-05-01,2023-04-11,有限会社増金材木店,,有限会社,東京都,港区,三田２丁目１８番８号,,13,103,1080073,,,2023-04-11,清算の結了等,,,2015-10-05,1,,,,,マスキンザイモクテン,0
886,4010902011148,登記記録の閉鎖等,0,2023-05-01,2023-04-26,有限会社仲野工務店,,有限会社,東京都,世田谷区,千歳台５丁目２番５号,,13,112,1570071,,,2023-04-26,清算の結了等,,,2015-10-05,1,,,,,ナカノコウムテン,0
909,4013305002838,登記記録の閉鎖等,0,2023-05-01,2023-04-21,税理士法人共栄事務所,,その他の設立登記法人,東京都,豊島区,西池袋５丁目２番１０号八勝堂ビル二階,,13,116,1710021,,,2023-04-21,清算の結了等,,,2018-10-05,1,,,,,キョウエイジムショ,0
919,4020002097161,登記記録の閉鎖等,0,2023-05-01,2023-04-24,有限会社三洋給食センター,,有限会社,神奈川県,川崎市川崎区,桜本２丁目２９番６号,,14,131,2100833,,,2023-04-24,清算の結了等,,,2015-10-05,1,,,,,サンヨウキュウショクセンター,0
920,4020003009017,登記記録の閉鎖等,0,2023-05-01,2023-04-21,合同会社テーケープラスコーポレーション,,合同会社,神奈川県,横浜市泉区,中田南２丁目１０番２３号,,14,116,2450014,,,2023-04-21,清算の結了等,,,2015-10-05,1,,,,,テーケープラスコーポレーション,0
937,4040001075240,登記記録の閉鎖等,0,2023-05-01,2023-04-17,株式会社八重洲企画,,株式会社,千葉県,夷隅郡御宿町,浜２１４３番地２,,12,443,2995107,,,2023-04-17,清算の結了等,,,2015-10-05,1,,,,,ヤエスキカク,0
968,4080001010607,登記記録の閉鎖等,0,2023-05-01,2023-04-26,株式会社ソリューションコム,,株式会社,静岡県,静岡市駿河区,稲川３丁目１番１号,,22,102,4228062,,,2023-04-26,清算の結了等,,,2015-10-05,1,,,,,ソリューションコム,0
985,4120001200046,登記記録の閉鎖等,0,2023-05-01,2023-04-28,株式会社ワイツー,,株式会社,大阪府,大阪市城東区,永田２丁目１０番１４号,,27,118,5360022,,,2023-04-28,清算の結了等,,,2016-08-10,1,,,,,ワイツー,0
986,4120001200673,登記記録の閉鎖等,0,2023-05-01,2023-04-28,株式会社Ｒｅクリエイト,,株式会社,大阪府,大阪市東住吉区,田辺３丁目２３－１４エスペランス田辺１Ｆ,,27,121,5460031,,,2023-04-28,清算の結了等,,,2016-09-12,1,,,,,,0
990,4120002030054,登記記録の閉鎖等,0,2023-05-01,2023-04-21,有限会社関西リース商会,00030813,有限会社,大阪府,大阪市此花区,桜島３丁目１０番３６号,,27,104,5540031,,,2023-04-21,合併による解散等,4120001026458,令和５年４月２１日大阪市此花区桜島三丁目１０番３６号新光運輸株式会社（4120001026458）に合併し解散,2015-10-05,1,,,,,カンサイリースショウカイ,0
1006,4150001023626,登記記録の閉鎖等,0,2023-05-01,2023-04-27,相和プロスト株式会社,,株式会社,大阪府,東大阪市,長栄寺２番８号,,27,227,5770055,,,2023-04-27,合併による解散等,9150001024371,令和５年４月１日奈良県生駒市谷田町８５１番地１株式会社フォーティーシステム（9150001024371）に合併し解散,2020-03-25,1,,,,,アイワプロスト,0
1011,4180001101577,登記記録の閉鎖等,0,2023-05-01,2023-04-27,ガンロ精機株式会社,,株式会社,愛知県,江南市,村久野町宮出３３番地,,23,217,4838318,,,2023-04-27,清算の結了等,,,2015-10-05,1,,,,,ガンロセイキ,0
1020,4180002092337,登記記録の閉鎖等,0,2023-05-01,2023-04-26,有限会社千成精機,,有限会社,愛知県,あま市,七宝町下田江東本町３６番地の２,,23,237,4970012,,,2023-04-26,清算の結了等,,,2015-10-05,1,,,,,センナリセイキ,0
1036,4250002003212,登記記録の閉鎖等,0,2023-05-01,2023-04-20,有限会社ダスキンたなか,,有限会社,山口県,防府市,寿町３番１６号,,35,206,7470809,,,2023-04-20,清算の結了等,,,2015-10-05,1,,,,,ダスキンタナカ,0
1038,4250005001122,登記記録の閉鎖等,0,2023-05-01,2023-04-19,協同組合総合設備監理事務所,,その他の設立登記法人,山口県,山口市,神田町５番１１号４０１,,35,203,7530064,,,2023-04-19,清算の結了等,,,2015-10-05,1,,,,,ソウゴウセツビカンリジムショ,0
1040,4260002029990,登記記録の閉鎖等,0,2023-05-01,2023-04-25,有限会社バリスタ,,有限会社,岡山県,津山市,二宮５４番地の１,,33,203,7080013,,,2023-04-25,清算の結了等,,,2015-10-05,1,,,,,バリスタ,0
1041,4270001003632,登記記録の閉鎖等,0,2023-05-01,2023-04-26,吉徳商事株式会社,,株式会社,鳥取県,米子市,三本松２丁目４－５６,,31,202,6830842,,,2023-04-26,清算の結了等,,,2015-10-05,1,,,,,ヨシノリショウジ,0
1047,4290001039906,登記記録の閉鎖等,0,2023-05-01,2023-04-21,株式会社西日本新聞エリアセンター原北,,株式会社,福岡県,福岡市早良区,小田部５丁目７番７－４０６号,,40,137,8140032,,,2023-04-21,清算の結了等,,,2015-10-05,1,,,,,,0
1049,4290001088242,登記記録の閉鎖等,0,2023-05-01,2023-04-21,ＴＭＳ株式会社,,株式会社,福岡県,福岡市中央区,平尾５丁目１６番１８－３０２号,,40,133,8100014,,,2023-04-21,清算の結了等,,,2020-03-04,1,,,,,ティーエムエス,0
1051,4290002008703,登記記録の閉鎖等,0,2023-05-01,2023-04-19,有限会社土生造園,,有限会社,福岡県,福岡市早良区,重留５丁目３番４１号,,40,137,8111101,,,2023-04-19,清算の結了等,,,2015-10-05,1,,,,,ハブゾウエン,0
1058,4300005005084,登記記録の閉鎖等,0,2023-05-01,2023-04-21,天理教唐津分教会,,その他の設立登記法人,佐賀県,唐津市,千々賀１６６４番地１,,41,202,8470831,,,2023-04-21,合併による解散等,7300005000776,令和５年４月２１日佐賀市成章町５番６号天理教佐賀分教会（7300005000776）に合併し解散,2015-10-05,1,,,,,テンリキョウカラツブンキョウカイ,0
1071,4390001009799,登記記録の閉鎖等,0,2023-05-01,2023-04-11,株式会社オカテックス,,株式会社,東京都,港区,南青山２丁目２番１５号ウィン青山９４２,,13,103,1070062,,,2023-04-11,清算の結了等,,,2015-10-05,1,,,,,オカテックス,0
1076,4420001006421,登記記録の閉鎖等,0,2023-05-01,2023-04-21,八戸紙業株式会社,,株式会社,青森県,八戸市,大字河原木字青森谷地１番地２,,02,203,0391161,,,2023-04-21,合併による解散等,6420001014174,令和５年４月１日青森県八戸市大字河原木字青森谷地３番地エム・ピー・エム・オペレーション株式会社（6420001014174）に合併し解散,2015-10-05,1,,,,,ハチノヘシギョウ,0
1078,4430001075523,登記記録の閉鎖等,0,2023-05-01,2023-04-28,株式会社サクセス,,株式会社,北海道,札幌市北区,屯田六条２丁目５番６号３階,,01,102,0020856,,,2023-04-28,清算の結了等,,,2017-12-18,1,,,,,,0
1095,5010001134221,登記記録の閉鎖等,0,2023-05-01,2023-04-18,友愛インターナショナル株式会社,,株式会社,東京都,中央区,京橋２丁目７番１４号,,13,102,1040031,,,2023-04-18,清算の結了等,,,2015-10-05,1,,,,,ユウアイインターナショナル,0
1113,5010401087886,登記記録の閉鎖等,0,2023-05-01,2023-04-25,株式会社フェイス・ワンダワークス,,株式会社,東京都,港区,南青山６丁目１０番１２号フェイス南青山,,13,103,1070062,,,2023-04-25,合併による解散等,3130001022300,令和５年４月１日京都市中京区烏丸通御池下る虎屋町５６６－１井門明治安田生命ビル株式会社フェイス（3130001022300）に合併し解散,2015-10-05,1,,,,,フェイスワンダワークス,0
1117,5010403021059,登記記録の閉鎖等,0,2023-05-01,2023-04-12,ＯＮＥＷＩＤＥ合同会社,,合同会社,東京都,港区,赤坂９丁目７番７号,,13,103,1070052,,,2023-04-12,清算の結了等,,,2019-07-10,1,,,,,ワンワイド,0
1129,5010901038579,登記記録の閉鎖等,0,2023-05-01,2023-04-12,リーマ株式会社,,株式会社,東京都,港区,赤坂５丁目２番２０号赤坂パークビル２３Ｆ２３０１室,,13,103,1070052,,,2023-04-12,清算の結了等,,,2016-08-01,1,,,,,リーマ,0
1137,5011001130466,登記記録の閉鎖等,0,2023-05-01,2023-04-27,株式会社Ｒｉｉ２３,,株式会社,大阪府,堺市南区,三原台２丁７番１－１０１６号,,27,145,5900111,,,2023-04-27,清算の結了等,,,2019-10-18,1,,,,,リーツースリー,0
1145,5011302000772,登記記録の閉鎖等,0,2023-05-01,2023-04-19,有限会社イーストコーポレーション,,有限会社,神奈川県,川崎市麻生区,はるひ野４丁目４番６－１５０３号,,14,137,2150036,,,2023-04-19,清算の結了等,,,2015-10-05,1,,,,,イーストコーポレーション,0
1165,5020001087591,登記記録の閉鎖等,0,2023-05-01,2023-04-19,株式会社アイエス構造技術,,株式会社,神奈川県,横浜市泉区,西が岡１丁目１８番地の４,,14,116,2450006,,,2023-04-19,清算の結了等,,,2015-10-05,1,,,,,アイエスコウゾウギジュツ,0
1173,5020003010997,登記記録の閉鎖等,0,2023-05-01,2023-04-19,合同会社リアル・アイズ,,合同会社,神奈川県,横浜市保土ケ谷区,権太坂３丁目２番１－１０１号,,14,106,2400026,,,2023-04-19,清算の結了等,,,2016-03-02,1,,,,,リアルアイズ,0
1180,5021001019519,登記記録の閉鎖等,0,2023-05-01,2023-04-12,株式会社オーロラコスモ,,株式会社,神奈川県,厚木市,中荻野７２２番地,,14,212,2430202,,,2023-04-12,清算の結了等,,,2015-10-05,1,,,,,オーロラコスモ,0
1218,5060002011935,登記記録の閉鎖等,0,2023-05-01,2023-04-17,有限会社タケプラ,,有限会社,栃木県,宇都宮市,東岡本町７４２番地３２３,,09,201,3291103,,,2023-04-17,清算の結了等,,,2015-10-05,1,,,,,タケプラ,0
1225,5070003000878,登記記録の閉鎖等,0,2023-05-01,2023-04-26,合同会社たのふじ観光いちご園,,合同会社,群馬県,藤岡市,中大塚４１２番地,,10,209,3750053,,,2023-04-26,清算の結了等,,,2015-10-05,1,,,,,タノフジカンコウイチゴエン,0
1236,5100002029584,登記記録の閉鎖等,0,2023-05-01,2023-04-25,有限会社富士サンライト企画,,有限会社,長野県,諏訪郡富士見町,落合９９８４番地,,20,362,3990214,,,2023-04-25,清算の結了等,,,2015-10-05,1,,,,,フジサンライトキカク,0
1238,5110001017267,登記記録の閉鎖等,0,2023-05-01,2023-04-26,株式会社キタコーポレーション,,株式会社,新潟県,柏崎市,東本町１丁目１６番３３号,,15,205,9450051,,,2023-04-26,清算の結了等,,,2015-10-05,1,,,,,キタコーポレーション,0
1240,5110003003728,登記記録の閉鎖等,0,2023-05-01,2023-04-26,合同会社明かり野,,合同会社,新潟県,新潟市東区,東明６丁目７４８番地３,,15,102,9500853,,,2023-04-26,清算の結了等,,,2018-07-10,1,,,,,アカリノ,0
1263,5140002007314,登記記録の閉鎖等,0,2023-05-01,2023-04-25,有限会社サンフイールド,,有限会社,兵庫県,神戸市須磨区,白川台３丁目６６番地の１２,,28,107,6540103,,,2023-04-25,清算の結了等,,,2015-10-05,1,,,,,サンフィールド,0
1295,5200002025631,登記記録の閉鎖等,0,2023-05-01,2023-04-26,有限会社長岡屋,,有限会社,岐阜県,高山市,本町１丁目４５番地,,21,203,5060011,,,2023-04-26,清算の結了等,,,2015-10-05,1,,,,,ナガオカヤ,0
1302,5240002011743,登記記録の閉鎖等,0,2023-05-01,2023-04-28,有限会社長門電機製作所,,有限会社,広島県,広島市南区,大州３丁目５番３３号,,34,103,7320802,,,2023-04-28,清算の結了等,,,2015-10-05,1,,,,,ナガトデンキセイサクショ,0
1306,5240005010362,登記記録の閉鎖等,0,2023-05-01,2023-04-11,上坊地神社,,その他の設立登記法人,広島県,竹原市,西野町乙１４２１番地,,34,203,7250002,,,2023-04-11,合併による解散等,7240005010344,令和５年３月２７日広島県竹原市西野町字伊勢宮山甲１４１番地，乙１４１番地伊勢両宮社（7240005010344）に合併し解散,2015-10-05,1,,,,,カミボウチジンジャ,0
1308,5240005010503,登記記録の閉鎖等,0,2023-05-01,2023-04-11,岡田神社,,その他の設立登記法人,広島県,竹原市,西野町字山王２２４番地,,34,203,7250002,,,2023-04-11,合併による解散等,7240005010344,令和５年３月２７日広島県竹原市西野町字伊勢宮山甲１４１番地，乙１４１番地伊勢両宮社（7240005010344）に合併し解散,2015-10-05,1,,,,,オカダジンジャ,0
1311,5250002008672,登記記録の閉鎖等,0,2023-05-01,2023-04-18,有限会社カトウ物産,,有限会社,山口県,下関市,幡生町２丁目２８番７号,,35,201,7510828,,,2023-04-18,清算の結了等,,,2015-10-05,1,,,,,カトウブッサン,0
1316,5250002020537,登記記録の閉鎖等,0,2023-05-01,2023-04-18,有限会社田尻海事,,有限会社,山口県,熊毛郡上関町,大字室津９７６番地,,35,341,7421403,,,2023-04-18,清算の結了等,,,2015-10-05,1,,,,,タジリカイジ,0
1319,5280001000867,登記記録の閉鎖等,0,2023-05-01,2023-04-13,株式会社ダイヤコンピュータサービス,,株式会社,島根県,松江市,東出雲町下意東１５０８番地,,32,201,6990102,,,2023-04-13,合併による解散等,3280001000877,令和５年４月１日島根県松江市東出雲町揖屋６６７番地１三菱マヒンドラ農機株式会社（3280001000877）に合併し解散,2015-10-05,1,,,,,ダイヤコンピュータサービス,0
1328,5290005004260,登記記録の閉鎖等,0,2023-05-01,2023-04-20,特定非営利活動法人ＮＰＯ夢・しごと館,,その他の設立登記法人,福岡県,那珂川市,王塚台３丁目２４０番地,,40,231,8111221,,,2023-04-20,清算の結了等,,,2015-10-05,1,,,,,エヌピーオーユメシゴトカン,0
1345,5340002005149,登記記録の閉鎖等,0,2023-05-01,2023-04-27,有限会社すいせん,,有限会社,鹿児島県,鹿児島市,西田１丁目８番地９,,46,201,8900046,,,2023-04-27,清算の結了等,,,2015-10-05,1,,,,,スイセン,0
1362,5420001006775,登記記録の閉鎖等,0,2023-05-01,2023-04-21,株式会社赤塚工務店,,株式会社,青森県,三戸郡三戸町,大字同心町字同心町平７番地５,,02,441,0390134,,,2023-04-21,清算の結了等,,,2015-10-05,1,,,,,,0
1372,5470001013750,登記記録の閉鎖等,0,2023-05-01,2023-04-14,豊島オリヴアルス株式会社,,株式会社,香川県,小豆郡土庄町,甲１３１３番地１,,37,322,7614101,,,2023-04-14,合併による解散等,5470001012166,令和５年３月３１日香川県小豆郡土庄町甲２７２１番地１小豆島ヘルシーランド株式会社（5470001012166）に合併し解散,2015-10-05,1,,,,,テシマオリヴアルス,0
1374,5480001011679,登記記録の閉鎖等,0,2023-05-01,2023-04-28,華宇株式会社,,株式会社,徳島県,名西郡石井町,藍畑字高畑５番,,36,341,7793213,,,2023-04-28,清算の結了等,,,2022-03-16,1,,,,,カウ,0
1403,6010003026597,登記記録の閉鎖等,0,2023-05-01,2023-04-19,ケイエム合同会社,,合同会社,東京都,中央区,銀座６丁目１３番９号ｂｉｚｃｕｂｅ,,13,102,1040061,,,2023-04-19,清算の結了等,,,2017-12-14,1,,,,,ケイエム,0
1404,6010003033172,登記記録の閉鎖等,0,2023-05-01,2023-04-18,ＧＭパートナー合同会社,,合同会社,東京都,中央区,銀座６丁目６番１号,,13,102,1040061,,,2023-04-18,清算の結了等,,,2020-10-06,1,,,,,ジーエムパートナー,0
1406,6010005027189,登記記録の閉鎖等,0,2023-05-01,2023-04-26,ＴＦＪ１一般社団法人,,その他の設立登記法人,東京都,千代田区,内神田２丁目２番６号５階あすな会計事務所内,,13,101,1010047,,,2023-04-26,清算の結了等,,,2017-07-27,1,,,,,ティエフジェイワン,0
1413,6010401133615,登記記録の閉鎖等,0,2023-05-01,2023-04-12,株式会社Ｒｏｓｅ　Ｃｌｙｓｔａｌ,,株式会社,東京都,港区,西麻布１丁目１４番１７号ＷＡＶＥ西麻布ビルＢ１,,13,103,1060031,,,2023-04-12,清算の結了等,,,2017-09-13,1,,,,,ローズクリスタル,0
1414,6010401151542,登記記録の閉鎖等,0,2023-05-01,2023-04-13,株式会社Ｉｓｌｅ　ｍａｎａｇｅｍｅｎｔ,,株式会社,東京都,港区,南青山５丁目４番２７号,,13,103,1070062,,,2023-04-13,清算の結了等,,,2020-03-09,1,,,,,アイルマネジメント,0
1428,6010702012963,登記記録の閉鎖等,0,2023-05-01,2023-04-14,有限会社土光工業,,有限会社,東京都,品川区,大井１丁目２１番２－５０２号,,13,109,1400014,,,2023-04-14,清算の結了等,,,2015-10-05,1,,,,,ドコウコウギョウ,0
1443,6011601000927,登記記録の閉鎖等,0,2023-05-01,2023-04-28,エーワンメディカル株式会社,,株式会社,東京都,練馬区,大泉町３丁目３８番１８号,,13,120,1780062,,,2023-04-28,清算の結了等,,,2015-10-05,1,,,,,エーワンメディカル,0
1445,6011603002293,登記記録の閉鎖等,0,2023-05-01,2023-04-27,合同会社ＭＩＹＡＭＡ,,合同会社,東京都,練馬区,春日町４丁目７番９－２０１号,,13,120,1790074,,,2023-04-27,清算の結了等,,,2018-03-20,1,,,,,,0
1448,6012301012064,登記記録の閉鎖等,0,2023-05-01,2023-04-27,株式会社ミラクル,,株式会社,東京都,町田市,本町田２８０３番地フレイユ１０２,,13,209,1940032,,,2023-04-27,清算の結了等,,,2020-04-09,1,,,,,ミラクル,0
1449,6012305001807,登記記録の閉鎖等,0,2023-05-01,2023-04-27,特定非営利活動法人インクルネット町田,,その他の設立登記法人,東京都,町田市,東玉川学園１丁目２２番１３号,,13,209,1940042,,,2023-04-27,清算の結了等,,,2017-06-14,1,,,,,インクルネットマチダ,0
1458,6020001000405,登記記録の閉鎖等,0,2023-05-01,2023-04-21,三橋電気工業株式会社,,株式会社,神奈川県,横浜市栄区,小菅ケ谷３丁目５６番１２号,,14,115,2470007,,,2023-04-21,清算の結了等,,,2023-02-27,1,,,,,ミツハシデンキコウギョウ,0
1482,6030002009626,登記記録の閉鎖等,0,2023-05-01,2023-04-13,有限会社東京有線テレビ,,有限会社,埼玉県,さいたま市中央区,下落合２丁目２０番１７号,,11,105,3380002,,,2023-04-13,清算の結了等,,,2015-10-05,1,,,,,トウキョウユウセンテレビ,0
1492,6040002026736,登記記録の閉鎖等,0,2023-05-01,2023-04-14,有限会社ダイワ医装,,有限会社,千葉県,船橋市,三咲４丁目１７番１８号,,12,204,2740812,,,2023-04-14,清算の結了等,,,2015-10-05,1,,,,,ダイワイソウ,0
1509,6090002012962,登記記録の閉鎖等,0,2023-05-01,2023-04-26,有限会社山崎商事,,有限会社,山梨県,南都留郡山中湖村,平野５１９番地の４９,,19,425,4010502,,,2023-04-26,清算の結了等,,,2015-10-05,1,,,,,ヤマザキショウジ,0
1515,6110005016553,登記記録の閉鎖等,0,2023-05-01,2023-04-26,特定非営利活動法人新潟市精神障害者自助グループココカラ,,その他の設立登記法人,新潟県,新潟市中央区,堀之内南１丁目９番２０号コーポくしや１０２,,15,103,9500982,,,2023-04-26,清算の結了等,,,2020-07-16,1,,,,,ニイガタシセイシンショウガイシャジジョグループココカラ,0
1520,6120001217724,登記記録の閉鎖等,0,2023-05-01,2023-04-27,株式会社ＹＭクリエイト,,株式会社,大阪府,大阪市西淀川区,御幣島２丁目５番２５号,,27,113,5550012,,,2023-04-27,清算の結了等,,,2018-12-12,1,,,,,,0
1562,6180002035640,登記記録の閉鎖等,0,2023-05-01,2023-04-26,有限会社丸富,,有限会社,愛知県,名古屋市西区,浄心２丁目８番９号,,23,104,4510061,,,2023-04-26,清算の結了等,,,2015-10-05,1,,,,,マルトミ,0
1564,6180002066520,登記記録の閉鎖等,0,2023-05-01,2023-04-28,有限会社高基製作所,,有限会社,愛知県,春日井市,細木町２丁目８０番地,,23,206,4860937,,,2023-04-28,清算の結了等,,,2015-10-05,1,,,,,タカキセイサクショ,0
1577,6240003004828,登記記録の閉鎖等,0,2023-05-01,2023-04-27,合同会社Ｌａ　ｖｉｅ,,合同会社,広島県,広島市中区,中町１０番８－１４０３号,,34,101,7300037,,,2023-04-27,清算の結了等,,,2020-10-08,1,,,,,ラヴィエ,0
1581,6240005010337,登記記録の閉鎖等,0,2023-05-01,2023-04-11,赤坂神社,,その他の設立登記法人,広島県,竹原市,西野町９２７番地,,34,203,7250002,,,2023-04-11,合併による解散等,7240005010344,令和５年３月２７日広島県竹原市西野町字伊勢宮山甲１４１番地，乙１４１番地伊勢両宮社（7240005010344）に合併し解散,2015-10-05,1,,,,,アカサカジンジャ,0
1583,6240005010452,登記記録の閉鎖等,0,2023-05-01,2023-04-11,六神社,,その他の設立登記法人,広島県,竹原市,西野町２３２２番地,,34,203,7250002,,,2023-04-11,合併による解散等,7240005010344,令和５年３月２７日広島県竹原市西野町字伊勢宮山甲１４１番地，乙１４１番地伊勢両宮社（7240005010344）に合併し解散,2015-10-05,1,,,,,ロクジンジャ,0
1593,6290001063292,登記記録の閉鎖等,0,2023-05-01,2023-04-19,株式会社ＡＴＨＥＮＡ,,株式会社,福岡県,福岡市中央区,赤坂１丁目３－８－１,,40,133,8100042,,,2023-04-19,清算の結了等,,,2015-10-05,1,,,,,アテナ,0
1599,6290003008683,登記記録の閉鎖等,0,2023-05-01,2023-04-21,ＡＩホールディングス合同会社,,合同会社,福岡県,福岡市中央区,今泉２丁目４番４８号,,40,133,8100021,,,2023-04-21,清算の結了等,,,2019-01-21,1,,,,,エーアイホールディングス,0
1620,6370003000871,登記記録の閉鎖等,0,2023-05-01,2023-04-25,合資会社ほんごう,,合資会社,宮城県,仙台市泉区,将監３丁目１番１０号,,04,105,9813132,,,2023-04-25,清算の結了等,,,2015-10-05,1,,,,,ホンゴウ,0
1624,6390005006642,登記記録の閉鎖等,0,2023-05-01,2023-04-26,赤湯温泉通り商店街振興組合,,その他の設立登記法人,山形県,南陽市,赤湯７５７番地,,06,213,9992211,,,2023-04-26,清算の結了等,,,2015-10-05,1,,,,,アカユオンセンドオリ,0
1631,6420001015932,登記記録の閉鎖等,0,2023-05-01,2023-04-21,株式会社ＬＥＭＯＮ　ＢＡＬＭ,,株式会社,青森県,平川市,高木原田１００番地,,02,210,0360211,,,2023-04-21,清算の結了等,,,2017-10-23,1,,,,,,0
1634,6430001032638,登記記録の閉鎖等,0,2023-05-01,2023-04-12,株式会社ステップ,,株式会社,北海道,札幌市中央区,南三条西２丁目３番３号,,01,101,0600063,,,2023-04-12,清算の結了等,,,2015-10-05,1,,,,,ステップ,0
1641,6500001003227,登記記録の閉鎖等,0,2023-05-01,2023-04-28,日通四国運輸株式会社,,株式会社,愛媛県,松山市,大可賀３丁目１０番２,,38,201,7918057,,,2023-04-28,清算の結了等,,,2015-10-05,1,,,,,ニッツウシコクウンユ,0
1653,7010001167590,登記記録の閉鎖等,0,2023-05-01,2023-04-18,Ｙｉ　Ｊａｐａｎ株式会社,,株式会社,東京都,中央区,明石町８番１号聖路加タワー,,13,102,1040044,,,2023-04-18,清算の結了等,,,2015-10-05,1,,,,,イージャパン,0
1692,7010701038133,登記記録の閉鎖等,0,2023-05-01,2023-04-12,ＰＬ　ａｃｔｕａｌｌｙ株式会社,,株式会社,東京都,港区,港南２丁目１６番５号ＮＢＦ品川タワー,,13,103,1080075,,,2023-04-12,清算の結了等,,,2019-09-04,1,,,,,ピーエルアクチュアリ,0
1698,7010901015106,登記記録の閉鎖等,0,2023-05-01,2023-04-25,サージェント株式会社,,株式会社,東京都,世田谷区,太子堂１丁目１２番２７号コンフォートテラス１００５号,,13,112,1540004,,,2023-04-25,清算の結了等,,,2015-10-05,1,,,,,サージェント,0
1701,7011001058929,登記記録の閉鎖等,0,2023-05-01,2023-04-20,株式会社ディセット,,株式会社,東京都,北区,赤羽北２丁目１３番９号エスポワール１０１－１,,13,117,1150052,,,2023-04-20,清算の結了等,,,2015-10-05,1,,,,,ディセット,0
1709,7011101085170,登記記録の閉鎖等,0,2023-05-01,2023-04-27,シンライフ株式会社,,株式会社,東京都,新宿区,北新宿３丁目２－１６シャンボール北新宿６０６,,13,104,1690074,,,2023-04-27,清算の結了等,,,2018-08-23,1,,,,,シンライフ,0
1711,7011103008105,登記記録の閉鎖等,0,2023-05-01,2023-04-27,合同会社ＥＳ４２,,合同会社,東京都,新宿区,下宮比町１番４号,,13,104,1620822,,,2023-04-27,清算の結了等,,,2018-07-24,1,,,,,イーエスヨンジュウニ,0
1717,7011402010505,登記記録の閉鎖等,0,2023-05-01,2023-04-27,有限会社アベ加工,,有限会社,東京都,板橋区,中台３丁目９番１０号,,13,119,1740064,,,2023-04-27,清算の結了等,,,2015-10-05,1,,,,,アベカコウ,0
1721,7011505000080,登記記録の閉鎖等,0,2023-05-01,2023-04-24,隅田川トラック事業協同組合,,その他の設立登記法人,東京都,荒川区,南千住３丁目２４番５号,,13,118,1160003,,,2023-04-24,清算の結了等,,,2015-10-05,1,,,,,スミダガワトラック,0
1745,7020002066832,登記記録の閉鎖等,0,2023-05-01,2023-04-20,ゴールドアレイ有限会社,,有限会社,神奈川県,横浜市神奈川区,斎藤分町１９番５号,,14,102,2210811,,,2023-04-20,清算の結了等,,,2015-10-05,1,,,,,ゴールドアレイ,0
1771,7070002004688,登記記録の閉鎖等,0,2023-05-01,2023-04-27,有限会社プラス・ワールド・エンジニアリング,,有限会社,群馬県,前橋市,荻窪町２１１番地の１,,10,201,3710001,,,2023-04-27,清算の結了等,,,2015-10-05,1,,,,,プラスワールドエンジニアリング,0
1779,7100001020344,登記記録の閉鎖等,0,2023-05-01,2023-04-26,株式会社天竜電子,,株式会社,長野県,岡谷市,川岸東４丁目１０番１９号,,20,204,3940045,,,2023-04-26,清算の結了等,,,2015-10-05,1,,,,,テンリュウデンシ,0
1780,7100003000798,登記記録の閉鎖等,0,2023-05-01,2023-04-24,合資会社野沢パーキング,,合資会社,長野県,佐久市,原４８１番地,,20,217,3850052,,,2023-04-24,清算の結了等,,,2015-10-05,1,,,,,ノザワパーキング,0
1786,7120001053763,登記記録の閉鎖等,0,2023-05-01,2023-04-27,株式会社壱岐工務店,,株式会社,大阪府,大阪市淀川区,三国本町１丁目５番３６号,,27,123,5320005,,,2023-04-27,清算の結了等,,,2015-10-05,1,,,,,,0
1789,7120001165030,登記記録の閉鎖等,0,2023-05-01,2023-04-27,株式会社ＦＯＵＲＳＴＡＲ,,株式会社,大阪府,大阪市北区,本庄東３丁目４番４０号,,27,127,5310074,,,2023-04-27,清算の結了等,,,2015-10-05,1,,,,,,0
1790,7120001200134,登記記録の閉鎖等,0,2023-05-01,2023-04-12,株式会社ＥＮＬＯＯＰ,,株式会社,東京都,港区,新橋６丁目１１－８ポートワン新橋６階,,13,103,1050004,,,2023-04-12,合併による解散等,2011001099829,令和５年３月３１日東京都港区芝浦三丁目１番１号ｍｓｂＴａｍａｃｈｉ田町ステーションタワーＮ２３階ｄｅｌｙ株式会社（2011001099829）に合併し解散,2016-08-16,1,,,,,エンループ,0
1793,7120001203871,登記記録の閉鎖等,0,2023-05-01,2023-04-11,株式会社致真,,株式会社,大阪府,大阪市北区,豊崎３丁目１５番５号,,27,127,5310072,,,2023-04-11,清算の結了等,,,2017-02-27,1,,,,,チシン,0
1809,7120105004365,登記記録の閉鎖等,0,2023-05-01,2023-04-27,特定非営利活動法人ふれ愛さやま,,その他の設立登記法人,大阪府,大阪狭山市,池尻中１丁目２番１０号,,27,231,5890007,,,2023-04-27,清算の結了等,,,2015-10-05,1,,,,,フレアイサヤマ,0
1831,7180001025781,登記記録の閉鎖等,0,2023-05-01,2023-04-26,昭和印刷工業株式会社,,株式会社,愛知県,名古屋市西区,児玉３丁目３番６号,,23,104,4510066,,,2023-04-26,清算の結了等,,,2015-10-05,1,,,,,ショウワインサツコウギョウ,0
1832,7180001027035,登記記録の閉鎖等,0,2023-05-01,2023-04-28,株式会社ポーカロ,,株式会社,愛知県,名古屋市西区,則武新町４丁目４番１８号,,23,104,4510051,,,2023-04-28,清算の結了等,,,2015-10-05,1,,,,,ポーカロ,0
1849,7230001012080,登記記録の閉鎖等,0,2023-05-01,2023-04-26,サン・ドリーム株式会社,,株式会社,富山県,高岡市,野村１６３６番地１,,16,202,9330014,,,2023-04-26,清算の結了等,,,2015-10-05,1,,,,,サンドリーム,0
1853,7240001057430,登記記録の閉鎖等,0,2023-05-01,2023-04-26,株式会社リブロン,,株式会社,広島県,福山市,昭和町４番６号ローズプラッツ２Ｆ,,34,207,7200808,,,2023-04-26,清算の結了等,,,2021-02-19,1,,,,,リブロン,0
1855,7240002004794,登記記録の閉鎖等,0,2023-05-01,2023-04-28,有限会社京本電友社,,有限会社,広島県,広島市安佐南区,長束西１丁目１８番２４－１０３号,,34,105,7310136,,,2023-04-28,清算の結了等,,,2015-10-05,1,,,,,キョウモトデンユウシャ,0
1859,7240005010435,登記記録の閉鎖等,0,2023-05-01,2023-04-11,水ヶ谷神社,,その他の設立登記法人,広島県,竹原市,西野町２４９８番地,,34,203,7250002,,,2023-04-11,合併による解散等,7240005010344,令和５年３月２７日広島県竹原市西野町字伊勢宮山甲１４１番地，乙１４１番地伊勢両宮社（7240005010344）に合併し解散,2015-10-05,1,,,,,ミズガダニジンジャ,0
1876,7290002023336,登記記録の閉鎖等,0,2023-05-01,2023-04-18,有限会社ディープラス,,有限会社,福岡県,福岡市東区,松田３丁目１３番３－４０６号,,40,131,8120064,,,2023-04-18,清算の結了等,,,2015-10-05,1,,,,,ディープラス,0
1881,7300002004103,登記記録の閉鎖等,0,2023-05-01,2023-04-24,有限会社サン・メイト,,有限会社,佐賀県,神埼市,神埼町城原１２２０番地３,,41,210,8420122,,,2023-04-24,清算の結了等,,,2015-10-05,1,,,,,,0
1916,7460302005223,登記記録の閉鎖等,0,2023-05-01,2023-04-28,有限会社フードサービスゴトウ,,有限会社,北海道,網走市,潮見１０丁目１１番１２号,,01,211,0930042,,,2023-04-28,清算の結了等,,,2015-10-05,1,,,,,フードサービスゴトウ,0
1927,8010001068425,登記記録の閉鎖等,0,2023-05-01,2023-04-20,株式会社エアドリーム,,株式会社,東京都,中央区,日本橋箱崎町２６番１号,,13,102,1030015,,,2023-04-20,清算の結了等,,,2015-10-05,1,,,,,エアドリーム,0
1933,8010001202363,登記記録の閉鎖等,0,2023-05-01,2023-04-19,株式会社ミチシルベ,,株式会社,東京都,千代田区,霞が関３丁目２番５号,,13,101,1000013,,,2023-04-19,清算の結了等,,,2019-07-16,1,,,,,ミチシルベ,0
1940,8010003034739,登記記録の閉鎖等,0,2023-05-01,2023-04-19,キキ・コンストラクション合同会社,,合同会社,東京都,文京区,本駒込３丁目４１－２,,13,105,1130021,,,2023-04-19,清算の結了等,,,2021-04-27,1,,,,,キキコンストラクション,0
1945,8010401125692,登記記録の閉鎖等,0,2023-05-01,2023-04-26,セイノーアジアトレーディング株式会社,,株式会社,東京都,千代田区,神田和泉町１番地３の１３,,13,101,1010024,,,2023-04-26,合併による解散等,2010401089786,令和５年４月１日東京都港区三田三丁目１４番１０号株式会社クララオンライン（2010401089786）に合併し解散,2016-07-06,1,,,,,セイノーアジアトレーディング,0
1947,8010401155252,登記記録の閉鎖等,0,2023-05-01,2023-04-11,ＢＭＲ　ＪＡＰＡＮ株式会社,,株式会社,東京都,港区,元麻布３丁目１番６号,,13,103,1060046,,,2023-04-11,清算の結了等,,,2020-09-16,1,,,,,ビーエムアールジャパン,0
1963,8011001100152,登記記録の閉鎖等,0,2023-05-01,2023-04-13,シセインターナショナル株式会社,,株式会社,東京都,港区,赤坂３丁目２番６号赤坂中央ビル,,13,103,1070052,,,2023-04-13,清算の結了等,,,2015-10-05,1,,,,,シセインターナショナル,0
1966,8011002033194,登記記録の閉鎖等,0,2023-05-01,2023-04-12,有限会社Ｄ＆Ａコーポレーション,,有限会社,東京都,港区,芝公園２丁目３番６号高橋ビル１階,,13,103,1050011,,,2023-04-12,清算の結了等,,,2015-10-05,1,,,,,ディーアンドエーコーポレレーション,0
1982,8011605002109,登記記録の閉鎖等,0,2023-05-01,2023-04-26,一般社団法人中小企業ブランディング普及協会,,その他の設立登記法人,東京都,練馬区,上石神井４丁目５番１２号,,13,120,1770044,,,2023-04-26,清算の結了等,,,2017-08-01,1,,,,,チュウショウキギョウブランディングフキュウキョウカイ,0
1983,8011702006813,登記記録の閉鎖等,0,2023-05-01,2023-04-27,有限会社田岡商店,,有限会社,東京都,江戸川区,平井６丁目７６番６号,,13,123,1320035,,,2023-04-27,清算の結了等,,,2015-10-05,1,,,,,,0
1992,8013301020278,登記記録の閉鎖等,0,2023-05-01,2023-04-20,株式会社アークネット,,株式会社,東京都,豊島区,東池袋４丁目２４番３号ジブラルタ生命池袋ビル８階,,13,116,1700013,,,2023-04-20,清算の結了等,,,2015-10-05,1,,,,,アークネット,0
2001,8020002008569,登記記録の閉鎖等,0,2023-05-01,2023-04-13,有限会社鳥千代,,有限会社,神奈川県,横浜市金沢区,谷津町３８４番地,,14,108,2360016,,,2023-04-13,清算の結了等,,,2015-10-05,1,,,,,トリチヨ,0
2004,8021001013361,登記記録の閉鎖等,0,2023-05-01,2023-04-26,株式会社トモエ商事,,株式会社,神奈川県,相模原市緑区,橋本６丁目３９番１号,,14,151,2520143,,,2023-04-26,清算の結了等,,,2015-10-05,1,,,,,トモエショウジ,0
2023,8040002037038,登記記録の閉鎖等,0,2023-05-01,2023-04-17,有限会社ヤジマ,,有限会社,千葉県,市川市,新田４丁目７番９号,,12,203,2720035,,,2023-04-17,清算の結了等,,,2015-10-05,1,,,,,ヤジマ,0
2044,8110002025456,登記記録の閉鎖等,0,2023-05-01,2023-04-27,有限会社カネス建材センター,,有限会社,新潟県,十日町市,高田町６丁目７３４番地７,,15,210,9480056,,,2023-04-27,清算の結了等,,,2015-10-05,1,,,,,カネスケンザイセンター,0
2045,8120001031124,登記記録の閉鎖等,0,2023-05-01,2023-04-28,大成物産工業株式会社,,株式会社,大阪府,大阪市住之江区,平林南２丁目１番４７号,,27,125,5590025,,,2023-04-28,清算の結了等,,,2015-10-05,1,,,,,タイセイブッサンコウギョウ,0
2048,8120001102206,登記記録の閉鎖等,0,2023-05-01,2023-04-26,株式会社すぷりんぐ,,株式会社,大阪府,大阪市北区,東天満１丁目７番２３号,,27,127,5300044,,,2023-04-26,清算の結了等,,,2015-10-05,1,,,,,スプリング,0
2051,8120001142391,登記記録の閉鎖等,0,2023-05-01,2023-04-27,Ａ・ＯＣＥＡＮ株式会社,,株式会社,大阪府,大阪市中央区,南久宝寺町２丁目４－７リーガルタワー５０５,,27,128,5410058,,,2023-04-27,清算の結了等,,,2015-10-05,1,,,,,,0
2076,8130001001910,登記記録の閉鎖等,0,2023-05-01,2023-04-24,ＭＹ－２カプリコーン株式会社,,株式会社,京都府,京都市右京区,西院坤町２番地,,26,108,6150062,,,2023-04-24,清算の結了等,,,2015-10-05,1,,,,,エムワイツーカプリコーン,0
2110,8240005010351,登記記録の閉鎖等,0,2023-05-01,2023-04-11,今伊勢神社,,その他の設立登記法人,広島県,竹原市,西野町１３３２番地,,34,203,7250002,,,2023-04-11,合併による解散等,7240005010344,令和５年３月２７日広島県竹原市西野町字伊勢宮山甲１４１番地，乙１４１番地伊勢両宮社（7240005010344）に合併し解散,2015-10-05,1,,,,,イマイセジンジャ,0
2138,8300002007014,登記記録の閉鎖等,0,2023-05-01,2023-04-27,有限会社ファミリーマートすぎみつ,,有限会社,佐賀県,嬉野市,塩田町大字馬場下甲７番地,,41,209,8491411,,,2023-04-27,清算の結了等,,,2015-10-05,1,,,,,ファミリーマートスギミツ,0
2159,8370002004310,登記記録の閉鎖等,0,2023-05-01,2023-04-25,有限会社東北シーディング,,有限会社,宮城県,仙台市太白区,西の平２丁目３番１３号,,04,104,9820825,,,2023-04-25,清算の結了等,,,2015-10-05,1,,,,,トウホクシーディング,0
2160,8370003005638,登記記録の閉鎖等,0,2023-05-01,2023-04-24,合同会社プレシアル,,合同会社,宮城県,富谷市,富ケ丘１丁目１６－１９,,04,216,9813352,,,2023-04-24,清算の結了等,,,2022-04-04,1,,,,,プレシアル,0
2165,8402702000452,登記記録の閉鎖等,0,2023-05-01,2023-04-24,有限会社リアスアドセンター,,有限会社,岩手県,大船渡市,盛町字下舘下２番地３３,,03,203,0220003,,,2023-04-24,清算の結了等,,,2015-10-05,1,,,,,リアスアドセンター,0
2168,8420003002175,登記記録の閉鎖等,0,2023-05-01,2023-04-24,合同会社Ｋｅｎ－コーポレーション,,合同会社,青森県,八戸市,長根３丁目１番６号,,02,203,0310077,,,2023-04-24,清算の結了等,,,2020-08-18,1,,,,,,0
2177,8700150087180,削除,,2023-05-01,,,,,,,,,,,,,,,,,,,,,,,,,
2195,9010003031933,登記記録の閉鎖等,0,2023-05-01,2023-04-18,合同会社ＲＦ２,,合同会社,東京都,千代田区,内幸町２丁目１番６号,,13,101,1000011,,,2023-04-18,清算の結了等,,,2020-03-19,1,,,,,アールエフツー,0
2212,9010601053024,登記記録の閉鎖等,0,2023-05-01,2023-04-27,株式会社ＩＷＡＫＩ,,株式会社,東京都,江東区,扇橋１丁目２１番２６－９２０号,,13,108,1350011,,,2023-04-27,清算の結了等,,,2018-03-22,1,,,,,イワキ,0
2225,9011003004656,登記記録の閉鎖等,0,2023-05-01,2023-04-12,ウェゴケミカル・ジャパン合同会社,,合同会社,東京都,港区,赤坂２丁目１１番７号ＡＴＴ新館１１階マザージャパン株式会社内,,13,103,1070052,,,2023-04-12,清算の結了等,,,2015-10-05,1,,,,,ウェゴケミカルジャパン,0
2233,9011501020411,登記記録の閉鎖等,0,2023-05-01,2023-04-26,株式会社ファインテクノ,,株式会社,広島県,安芸郡府中町,鶴江１丁目１３番３号,,34,302,7350008,,,2023-04-26,清算の結了等,,,2015-10-05,1,,,,,ファインテクノ,0
2234,9011501021921,登記記録の閉鎖等,0,2023-05-01,2023-04-20,株式会社山長,,株式会社,東京都,北区,志茂４丁目２０番１８号,,13,117,1150042,,,2023-04-20,清算の結了等,,,2016-09-06,1,,,,,ヤマチョウ,0
2238,9011801003545,登記記録の閉鎖等,0,2023-05-01,2023-04-26,株式会社中善,,株式会社,東京都,葛飾区,東立石４丁目２７番１３号,,13,122,1240013,,,2023-04-26,清算の結了等,,,2015-10-05,1,,,,,ナカゼン,0
2240,9011802010111,登記記録の閉鎖等,0,2023-05-01,2023-04-19,有限会社ウッドア,,有限会社,神奈川県,川崎市高津区,末長４丁目２６番４１－７０３号,,14,134,2130013,,,2023-04-19,清算の結了等,,,2015-10-05,1,,,,,ウッドア,0
2251,9013401000187,登記記録の閉鎖等,0,2023-05-01,2023-04-21,株式会社協栄,,株式会社,東京都,日野市,栄町１丁目１番地の１,,13,212,1910001,,,2023-04-21,清算の結了等,,,2015-10-05,1,,,,,キョウエイ,0
2256,9020001073596,登記記録の閉鎖等,0,2023-05-01,2023-04-19,株式会社ダイヤモンド技建,,株式会社,神奈川県,川崎市川崎区,池上町４番７号,,14,131,2100864,,,2023-04-19,清算の結了等,,,2015-10-05,1,,,,,,0
2282,9040002067216,登記記録の閉鎖等,0,2023-05-01,2023-04-13,株式会社パートナーズ,,株式会社,千葉県,木更津市,下郡２０７１番地,,12,206,2920205,,,2023-04-13,合併による解散等,8040001053663,令和５年４月１日千葉県市原市八幡海岸通４４番地株式会社エムイーシーフーズ（8040001053663）に合併し解散,2015-10-05,1,,,,,パートナーズ,0
2301,9080101012630,登記記録の閉鎖等,0,2023-05-01,2023-04-27,株式会社佳秀屋,,株式会社,静岡県,熱海市,上宿町１９番２０号,,22,205,4130018,,,2023-04-27,清算の結了等,,,2015-10-05,1,,,,,,0
2368,9240005010400,登記記録の閉鎖等,0,2023-05-01,2023-04-11,末清神社,,その他の設立登記法人,広島県,竹原市,西野町２６４２番地，２６４５番地,,34,203,7250002,,,2023-04-11,合併による解散等,7240005010344,令和５年３月２７日広島県竹原市西野町字伊勢宮山甲１４１番地，乙１４１番地伊勢両宮社（7240005010344）に合併し解散,2015-10-05,1,,,,,スエキヨジンジャ,0
2370,9250002018800,登記記録の閉鎖等,0,2023-05-01,2023-04-18,有限会社吉田木工,,有限会社,山口県,岩国市,南岩国町３丁目３５番１３号,,35,208,7400034,,,2023-04-18,清算の結了等,,,2015-10-05,1,,,,,ヨシダモッコウ,0
2390,9310001000934,登記記録の閉鎖等,0,2023-05-01,2023-04-27,株式会社セントラルオート,,株式会社,長崎県,西彼杵郡長与町,三根郷５４番地２９,,42,307,8512125,,,2023-04-27,清算の結了等,,,2015-10-05,1,,,,,セントラルオート,0
2393,9330001028296,登記記録の閉鎖等,0,2023-05-01,2023-04-24,株式会社タニー,,株式会社,熊本県,熊本市中央区,本荘３丁目２－２２－１００４,,43,101,8600811,,,2023-04-24,清算の結了等,,,2021-02-09,1,,,,,タニー,0
2401,9360005003350,登記記録の閉鎖等,0,2023-05-01,2023-04-19,沖縄県にらい恩納貸別荘協同組合,,その他の設立登記法人,沖縄県,国頭郡恩納村,字名嘉真１９５２番地の１０,,47,311,9040401,,,2023-04-19,清算の結了等,,,2015-10-05,1,,,,,オキナワケンニライオンナカシベッソウ,0
2409,9370202004043,登記記録の閉鎖等,0,2023-05-01,2023-04-20,有限会社健児会さくら保育園,,有限会社,宮城県,大崎市,古川稲葉１丁目１０番３３号,,04,215,9896135,,,2023-04-20,清算の結了等,,,2015-10-05,1,,,,,ケンジカイサクラホイクエン,0
2411,9380001017567,登記記録の閉鎖等,0,2023-05-01,2023-04-27,大鳳建設株式会社,,株式会社,福島県,耶麻郡猪苗代町,大字川桁字宮ノ西４１１８番地,,07,408,9692663,,,2023-04-27,清算の結了等,,,2015-10-05,1,,,,,タイホウケンセツ,0
2413,9390001016238,登記記録の閉鎖等,0,2023-05-01,2023-04-26,株式会社ＶＩＥＴＮＡＭＪＡＰＡＮＦＯＯＤＳ,,株式会社,山形県,山形市,南栄町２丁目９番８号,,06,201,9902445,,,2023-04-26,清算の結了等,,,2020-10-15,1,,,,,ベトナムジャパンフーズ,0
2421,9460101003913,登記記録の閉鎖等,0,2023-05-01,2023-04-26,株式会社東英,,株式会社,北海道,帯広市,西八条南３０丁目５番地４,,01,207,0800018,,,2023-04-26,清算の結了等,,,2015-10-05,1,,,,,トウエイ,0
