sequenceNumber,corporateNumber,process,correct,updateDate,changeDate,name,nameImageId,kind,prefectureName,cityName,streetNumber,addressImageId,prefectureCode,cityCode,postCode,addressOutside,addressOutsideImageId,closeDate,closeCause,successorCorporateNumber,changeCause,assignmentDate,latest,enName,enPrefectureName,enCityName,enAddressOutside,furigana,hihyoji
4,1010001222442,新規,0,2021-11-11,2021-11-11,株式会社ありのみ建築工房,,株式会社,東京都,中央区,京橋１丁目６－１３金葉ビルディング６階,,13,102,1040031,,,,,,,2021-11-11,1,,,,,アリノミケンチクコウボウ,0
5,1010001222467,新規,0,2021-11-11,2021-11-11,株式会社ＷＥＬＣ,,株式会社,東京都,千代田区,神田神保町１丁目４２番地２コンフォリア神田神保町１１０３号,,13,101,1010051,,,,,,,2021-11-11,1,,,,,ウェルシ,0
7,1010003036246,新規,0,2021-11-11,2021-11-11,合同会社オフィス・Ｒ,,合同会社,東京都,中央区,銀座４丁目１０－６Ｇ４ビル８階,,13,102,1040061,,,,,,,2021-11-11,1,,,,,オフィスアール,0
8,1010003036262,新規,0,2021-11-11,2021-11-11,ＭＩＬソリューション投資合同会社,,合同会社,東京都,千代田区,大手町１丁目４番２号,,13,101,1000004,,,,,,,2021-11-11,1,,,,,エムアイエルソリューショントウシ,0
17,1010401163781,新規,0,2021-11-11,2021-11-11,株式会社セレナビジャパン,,株式会社,東京都,港区,東新橋１丁目５番２号汐留シティセンター１０Ｆ,,13,103,1050021,,,,,,,2021-11-11,1,,,,,セレナビジャパン,0
19,1010403026490,新規,0,2021-11-11,2021-11-11,ＢＥＡＮＳ２合同会社,,合同会社,東京都,港区,虎ノ門５丁目１番４号,,13,103,1050001,,,,,,,2021-11-11,1,,,,,ビーンズツー,0
28,1010605004014,新規,0,2021-11-11,2021-11-11,ＮＰＯ法人Ｆｏｌｌｏｗ　Ｙｏｕｒ　ＨＥＡＲＴ,,その他の設立登記法人,東京都,墨田区,緑１丁目９番３号ＨＦ両国レジデンス８０３号室,,13,107,1300021,,,,,,,2021-11-11,1,,,,,フォローユアハート,0
52,1011101096850,新規,0,2021-11-11,2021-11-11,株式会社コロケット,,株式会社,東京都,新宿区,神楽坂３丁目６番ヤマダビル４Ｆ,,13,104,1620825,,,,,,,2021-11-11,1,,,,,コロケット,0
53,1011101096875,新規,0,2021-11-11,2021-11-11,ジャストナウ株式会社,,株式会社,東京都,新宿区,新宿１丁目３６番５－８０３号,,13,104,1600022,,,,,,,2021-11-11,1,,,,,ジャストナウ,0
56,1011103011171,新規,0,2021-11-11,2021-11-11,サン・テンコンサルティング合同会社,,合同会社,東京都,新宿区,西新宿１丁目２６番２号新宿野村ビル３２階,,13,104,1600023,,,,,,,2021-11-11,1,,,,,サンテンコンサルティング,0
62,1011601025532,新規,0,2021-11-11,2021-11-11,株式会社未来の笑顔,,株式会社,東京都,練馬区,豊玉中２丁目１０－１４プレミアコート桜台２０４,,13,120,1760013,,,,,,,2021-11-11,1,,,,,ミライノエガオ,0
65,1011703002990,新規,0,2021-11-11,2021-11-11,ＫＡＹＡ合同会社,,合同会社,東京都,江戸川区,上一色３丁目８－５レンタルオフィス百合１０３号室,,13,123,1330041,,,,,,,2021-11-11,1,,,,,カヤ,0
73,1012403005103,新規,0,2021-11-11,2021-11-11,シャラデラコ合同会社,,合同会社,東京都,調布市,染地２丁目４２番地２８,,13,208,1820023,,,,,,,2021-11-11,1,,,,,シャラデラコ,0
74,1012701016768,新規,0,2021-11-11,2021-11-11,株式会社ナムテック,,株式会社,東京都,西東京市,新町５丁目２番１号,,13,229,2020023,,,,,,,2021-11-11,1,,,,,ナムテック,0
79,1013303005853,新規,0,2021-11-11,2021-11-11,合同会社ＩＫ貿易,,合同会社,東京都,豊島区,南長崎４丁目７－１２ライフピアアミューズ２０３室,,13,116,1710052,,,,,,,2021-11-11,1,,,,,アイケーボウエキ,0
91,1020001143712,新規,0,2021-11-11,2021-11-11,株式会社日本テクノクロス,,株式会社,神奈川県,川崎市川崎区,駅前本町１１番２号川崎フロンティアビル４階,00124830,14,131,2100007,,,,,,,2021-11-11,1,,,,,ニホンテクノクロス,0
92,1020001143852,新規,0,2021-11-11,2021-11-11,株式会社ＩＶＯＲＹ,,株式会社,神奈川県,横浜市西区,みなとみらい４丁目７番１－１７０７号,,14,103,2200012,,,,,,,2021-11-11,1,,,,,アイボリー,0
112,1030003018283,新規,0,2021-11-11,2021-11-11,合同会社マル,,合同会社,埼玉県,さいたま市大宮区,天沼町１丁目３６４番地３,,11,103,3300834,,,,,,,2021-11-11,1,,,,,マル,0
129,1060001034288,新規,0,2021-11-11,2021-11-11,株式会社ワンテイクス,,株式会社,栃木県,小山市,大字南和泉５１８番地,,09,208,3230816,,,,,,,2021-11-11,1,,,,,ワンテイクス,0
134,1080001024568,新規,0,2021-11-11,2021-11-11,株式会社ＭＵＬＡＮ,,株式会社,静岡県,静岡市葵区,吉野町４番７号,,22,101,4200046,,,,,,,2021-11-11,1,,,,,ムーラン,0
138,1080401025471,新規,0,2021-11-11,2021-11-11,株式会社みつばテック,,株式会社,静岡県,浜松市中区,高丘西２丁目３１番２３号,,22,131,4338118,,,,,,,2021-11-11,1,,,,,ミツバテック,0
140,1100003006289,新規,0,2021-11-11,2021-11-11,合同会社ＫＡＩＳＨＩＮ,,合同会社,長野県,松本市,大字笹賀５８２６番地１,,20,202,3990033,,,,,,,2021-11-11,1,,,,,カイシン,0
156,1120003020560,新規,0,2021-11-11,2021-11-11,ＡＮＡＺＡファクトリー合同会社,,合同会社,大阪府,大阪市淀川区,宮原２丁目１１番２２号,,27,123,5320003,,,,,,,2021-11-11,1,,,,,アナザファクトリー,0
157,1120003020577,新規,0,2021-11-11,2021-11-11,合同会社悠伝,,合同会社,大阪府,大阪市中央区,谷町８丁目１番４３－４０６号,,27,128,5420012,,,,,,,2021-11-11,1,,,,,ユウデン,0
161,1122001035342,新規,0,2021-11-11,2021-11-11,株式会社ハレノヒ,,株式会社,大阪府,東大阪市,菱屋西１丁目２番４号,,27,227,5770807,,,,,,,2021-11-11,1,,,,,ハレノヒ,0
166,1130001070499,新規,0,2021-11-11,2021-11-11,丹後ファクトリー株式会社,,株式会社,京都府,宮津市,字上司１４３９番地の３,,26,205,6260074,,,,,,,2021-11-11,1,,,,,タンゴファクトリー,0
173,1140001123818,新規,0,2021-11-11,2021-11-11,株式会社ＺＥＮ,,株式会社,兵庫県,丹波市,氷上町横田１３６番地４,,28,223,6693465,,,,,,,2021-11-11,1,,,,,ゼン,0
176,1160001023801,新規,0,2021-11-11,2021-11-11,株式会社プレミアムペットファーム,,株式会社,滋賀県,愛知郡愛荘町,島川９８－１,,25,425,5291223,,,,,,,2021-11-11,1,,,,,プレミアムペットファーム,0
177,1170001016861,新規,0,2021-11-11,2021-11-11,株式会社ａｌ　Ｓｔａｙ　ｉｎ　ＫＵＭＡＮＯ,,株式会社,和歌山県,東牟婁郡那智勝浦町,大字下和田７７５,,30,421,6495148,,,,,,,2021-11-11,1,,,,,アルステイインクマノ,0
184,1180001148679,新規,0,2021-11-11,2021-11-11,ミドルウェイ株式会社,,株式会社,愛知県,名古屋市西区,那古野２丁目１４番１号なごのキャンパス,,23,104,4510042,,,,,,,2021-11-11,1,,,,,ミドルウェイ,0
185,1180001148687,新規,0,2021-11-11,2021-11-11,株式会社ニコラス,,株式会社,愛知県,名古屋市中村区,名駅１丁目１番１号ＪＰタワー名古屋２１階,,23,105,4500002,,,,,,,2021-11-11,1,,,,,ニコラス,0
196,1200001039396,新規,0,2021-11-11,2021-11-11,株式会社ＴＩＥＬＥＳＳ,,株式会社,岐阜県,羽島市,上中町沖８７９番地,,21,209,5016318,,,,,,,2021-11-11,1,,,,,タイレス,0
204,1230005009178,新規,0,2021-11-11,2021-11-11,特定非営利活動法人リボンｆｒｏｍとやま,,その他の設立登記法人,富山県,富山市,高畠町１丁目１０番６６－２０３号グランドコートＩ,00124831,16,201,9318336,,,,,,,2021-11-11,1,,,,,リボンフロムトヤマ,0
211,1290001095316,新規,0,2021-11-11,2021-11-11,株式会社ＡＴＯＰ保険マネジメント,,株式会社,福岡県,福岡市早良区,百道浜２丁目９０２番地１,,40,137,8140001,,,,,,,2021-11-11,1,,,,,エートップホケンマネジメント,0
216,1290801027988,新規,0,2021-11-11,2021-11-11,株式会社ｓｔｕｄｙｙ,,株式会社,福岡県,北九州市八幡西区,永犬丸２丁目８番３３号,,40,109,8070851,,,,,,,2021-11-11,1,,,,,スタディ,0
217,1290805009487,新規,0,2021-11-11,2021-11-11,一般財団法人梶原浩喜財団,,その他の設立登記法人,福岡県,北九州市小倉北区,京町３丁目７番１号グランドメゾンガーデンシティ小倉２４０３号室,,40,106,8020002,,,,,,,2021-11-11,1,,,,,カジワラヒロキザイダン,0
221,1310001017572,新規,0,2021-11-11,2021-11-11,株式会社琴海みんなの公社,,株式会社,長崎県,長崎市,西海町１０６８番地２,,42,201,8513101,,,,,,,2021-11-11,1,,,,,キンカイミンナノコウシャ,0
229,1330003009129,新規,0,2021-11-11,2021-11-11,合同会社ユーテック,,合同会社,熊本県,上益城郡益城町,大字福原５１４５番地,,43,443,8612211,,,,,,,2021-11-11,1,,,,,ユーテック,0
236,1360001029605,新規,0,2021-11-11,2021-11-11,株式会社ＡＧＮ,,株式会社,沖縄県,宮古島市,平良字西仲宗根２番地,,47,214,9060006,,,,,,,2021-11-11,1,,,,,エイジーエヌ,0
237,1370001047820,新規,0,2021-11-11,2021-11-11,株式会社大宮設備工業,,株式会社,宮城県,仙台市太白区,郡山３丁目２番１２号,,04,104,9820003,,,,,,,2021-11-11,1,,,,,オオミヤセツビコウギョウ,0
243,1380001032334,新規,0,2021-11-11,2021-11-11,株式会社ｔｅｎｔｏＴｅｎ,,株式会社,福島県,郡山市,清水台１丁目８－１６,,07,203,9638005,,,,,,,2021-11-11,1,,,,,テントテン,0
264,1430003013351,新規,0,2021-11-11,2021-11-11,合同会社Ｍ　ＰＬＡＮ,,合同会社,北海道,札幌市豊平区,美園三条４丁目３番１０号,,01,105,0620003,,,,,,,2021-11-11,1,,,,,エムプラン,0
268,1470005006390,新規,0,2021-11-11,2021-11-11,一般社団法人香川学生支援会,,その他の設立登記法人,香川県,高松市,牟礼町牟礼２２４６番地,,37,201,7610121,,,,,,,2021-11-11,1,,,,,カガワガクセイシエンカイ,0
286,2010001222409,新規,0,2021-11-11,2021-11-11,株式会社ＡｉｒＥｒａテクノロジー,,株式会社,東京都,中央区,新富２丁目１４－５ＡＣＮ銀座イーストビル１０Ｆ,,13,102,1040041,,,,,,,2021-11-11,1,,,,,エアーエラテクノロジー,0
287,2010001222466,新規,0,2021-11-11,2021-11-11,株式会社バウンスバック,,株式会社,東京都,文京区,湯島４丁目１２番８号湯島アパートメントハウス１１５,,13,105,1130034,,,,,,,2021-11-11,1,,,,,バウンスバック,0
297,2010003036261,新規,0,2021-11-11,2021-11-11,ＭＪヘルスケア２合同会社,,合同会社,東京都,中央区,日本橋１丁目４番１号日本橋一丁目ビルディング,,13,102,1030027,,,,,,,2021-11-11,1,,,,,エムジェイヘルスケアツー,0
298,2010003036286,新規,0,2021-11-11,2021-11-11,合同会社Ｋ－ＰＲＩＤＥ,,合同会社,東京都,文京区,後楽２丁目３番１０号メゾン飯田橋３０１,,13,105,1120004,,,,,,,2021-11-11,1,,,,,ケイプライド,0
310,2010501048080,新規,0,2021-11-11,2021-11-11,株式会社Ｍｏｏｎｌｉｔ,,株式会社,東京都,台東区,上野６丁目７番１６号川久保ビル４０１号室,,13,106,1100005,,,,,,,2021-11-11,1,,,,,ムーンリット,0
312,2010601060209,新規,0,2021-11-11,2021-11-11,敏杰株式会社,,株式会社,東京都,墨田区,横川３丁目６番７号２－Ｑ室,,13,107,1300003,,,,,,,2021-11-11,1,,,,,ビンケツ,0
313,2010601060217,新規,0,2021-11-11,2021-11-11,ポールスター株式会社,,株式会社,東京都,墨田区,横川３丁目６番７号,,13,107,1300003,,,,,,,2021-11-11,1,,,,,ポールスター,0
317,2010603009245,新規,0,2021-11-11,2021-11-11,合同会社Ｍａｓｈｕｐ,,合同会社,東京都,墨田区,東向島１丁目３番８－２０２号ＩＳＬＡ１３８,,13,107,1310032,,,,,,,2021-11-11,1,,,,,マッシュアップ,0
320,2010701041744,新規,0,2021-11-11,2021-11-11,株式会社ｄｅ３,,株式会社,東京都,品川区,西五反田２丁目１４番１３号ニックハイム五反田２Ｆ４５,,13,109,1410031,,,,,,,2021-11-11,1,,,,,ディースリー,0
323,2010803003948,新規,0,2021-11-11,2021-11-11,合同会社ビス・ウィード,,合同会社,東京都,大田区,西六郷２丁目２７－１９,,13,111,1440056,,,,,,,2021-11-11,1,,,,,ビスウィード,0
333,2011001143933,新規,0,2021-11-11,2021-11-11,Ｒａｆｆｌｅｓ　Ｒｅｎｏｖａｔｉｏｎ株式会社,,株式会社,東京都,渋谷区,恵比寿２丁目２８番１０号秀ビル,,13,113,1500013,,,,,,,2021-11-11,1,,,,,ラッフルズリノベーション,0
340,2011101096841,新規,0,2021-11-11,2021-11-11,株式会社ＫＡＺＵＫＩ,,株式会社,東京都,新宿区,西新宿７丁目１番７号新宿ダイカンプラザＡ１０１８,,13,104,1600023,,,,,,,2021-11-11,1,,,,,カズキ,0
341,2011101096866,新規,0,2021-11-11,2021-11-11,株式会社ＭｉｘｔＡｔ,,株式会社,東京都,新宿区,歌舞伎町２丁目２５－６,,13,104,1600021,,,,,,,2021-11-11,1,,,,,ミクストアット,0
342,2011101096874,新規,0,2021-11-11,2021-11-11,株式会社ＯＮＥ,,株式会社,東京都,新宿区,西新宿１丁目４番７号タカノビル６階,,13,104,1600023,,,,,,,2021-11-11,1,,,,,ワン,0
343,2011103011162,新規,0,2021-11-11,2021-11-11,クレール合同会社,,合同会社,東京都,新宿区,荒木町５番地１フリービング荒木町３０１,,13,104,1600007,,,,,,,2021-11-11,1,,,,,クレール,0
354,2012303001606,新規,0,2021-11-11,2021-11-11,金森エステート合同会社,,合同会社,東京都,町田市,金森５丁目５番１４号,,13,209,1940012,,,,,,,2021-11-11,1,,,,,カナモリエステート,0
357,2012403005102,新規,0,2021-11-11,2021-11-11,煌桜サービス合同会社,,合同会社,東京都,府中市,小柳町２丁目１８番地の２９,,13,206,1830013,,,,,,,2021-11-11,1,,,,,コウオウサービス,0
359,2012701016767,新規,0,2021-11-11,2021-11-11,株式会社カラダリライフ,,株式会社,東京都,小平市,上水本町６丁目５－１エステート上水本町５０４,,13,211,1870022,,,,,,,2021-11-11,1,,,,,カラダリライフ,0
367,2013301048259,新規,0,2021-11-11,2021-11-11,株式会社かぐら,,株式会社,東京都,豊島区,長崎６丁目１番８号,,13,116,1710051,,,,,,,2021-11-11,1,,,,,カグラ,0
377,2020001143851,新規,0,2021-11-11,2021-11-11,株式会社幸,,株式会社,神奈川県,横浜市金沢区,平潟町１９番１１－２０６号,,14,108,2360023,,,,,,,2021-11-11,1,,,,,サイワイ,0
380,2020003020792,新規,0,2021-11-11,2021-11-11,Ａｍｂｅｒ　ＬＬＣ合同会社,,合同会社,神奈川県,横浜市神奈川区,七島町３５,,14,102,2210061,,,,,,,2021-11-11,1,,,,,アンバーエルエルシー,0
403,2040003018918,新規,0,2021-11-11,2021-11-11,シンギュラリティ合同会社,,合同会社,千葉県,木更津市,金田東４丁目４－２１ｉｎＣＥＬＬ木更津Ｆ号室,,12,206,2920009,,,,,,,2021-11-11,1,,,,,シンギュラリティ,0
406,2050001050129,新規,0,2021-11-11,2021-11-11,株式会社ＭＥＡＴ,,株式会社,茨城県,常陸大宮市,野中町７２２番の４,,08,225,3192255,,,,,,,2021-11-11,1,,,,,ミート,0
412,2070001038634,新規,0,2021-11-11,2021-11-11,株式会社まち研,,株式会社,群馬県,館林市,仲町３番１５号,,10,207,3740029,,,,,,,2021-11-11,1,,,,,マチケン,0
430,2100001034803,新規,0,2021-11-11,2021-11-11,株式会社Ｌｉｇｈｔｎｉｎｇ　Ｗａｖｅ,,株式会社,長野県,北安曇郡松川村,５３３１番地１５,,20,482,3998501,,,,,,,2021-11-11,1,,,,,ライトニングウェーブ,0
433,2100003006288,新規,0,2021-11-11,2021-11-11,Ａｈａｒｅ合同会社,,合同会社,長野県,上伊那郡箕輪町,大字中箕輪１０５２８番地５,,20,383,3994601,,,,,,,2021-11-11,1,,,,,アハレ,0
451,2120005022595,新規,0,2021-11-11,2021-11-11,一般社団法人いきいきライフ協会河北,,その他の設立登記法人,大阪府,守口市,大日町１丁目２番１１－４０２号,,27,209,5700003,,,,,,,2021-11-11,1,,,,,イキイキライフキョウカイカホク,0
465,2130001070515,新規,0,2021-11-11,2021-11-11,株式会社ミドルフィールド,,株式会社,京都府,京都市西京区,下津林前泓町４４番地１ｍ．ａ．ｐＣ－０３,,26,111,6158062,,,,,,,2021-11-11,1,,,,,ミドルフィールド,0
469,2140001123676,新規,0,2021-11-11,2021-11-11,株式会社十字堂,,株式会社,兵庫県,姫路市,網干区新在家１２８７番地６,,28,201,6711234,,,,,,,2021-11-11,1,,,,,ジュウジドウ,0
474,2140003016969,新規,0,2021-11-11,2021-11-11,ＥＲＣガレージ工房合同会社,,合同会社,兵庫県,神戸市垂水区,塩屋町９丁目３０－１,,28,108,6550872,,,,,,,2021-11-11,1,,,,,イーアールシーガレージコウボウ,0
476,2150001025087,新規,0,2021-11-11,2021-11-11,株式会社アップフィールド,,株式会社,奈良県,橿原市,上品寺町１５６番地,,29,205,6340803,,,,,,,2021-11-11,1,,,,,アップフィールド,0
477,2160001023800,新規,0,2021-11-11,2021-11-11,ワノチヱ本舗株式会社,,株式会社,滋賀県,大津市,末広町２番２４号,,25,201,5200056,,,,,,,2021-11-11,1,,,,,ワノチエホンポ,0
493,2180001148703,新規,0,2021-11-11,2021-11-11,株式会社エンバー,,株式会社,愛知県,名古屋市名東区,新宿１丁目２４０番地,,23,115,4650063,,,,,,,2021-11-11,1,,,,,エンバー,0
496,2180301035618,新規,0,2021-11-11,2021-11-11,株式会社ＢＡＢＥＬ,,株式会社,愛知県,豊橋市,松葉町１丁目５７番地１サンレジャービルＩＩＩ,00124827,23,201,4400897,,,,,,,2021-11-11,1,,,,,バベル,0
516,2260001036197,新規,0,2021-11-11,2021-11-11,株式会社リアン,,株式会社,岡山県,倉敷市,中島３３番地４４,,33,202,7100803,,,,,,,2021-11-11,1,,,,,リアン,0
520,2290003011823,新規,0,2021-11-11,2021-11-11,合同会社朝倉テックサポート,,合同会社,福岡県,朝倉市,頓田４５５,,40,228,8380064,,,,,,,2021-11-11,1,,,,,アサクラテックサポート,0
521,2290803003978,新規,0,2021-11-11,2021-11-11,Ｍｙｏｓｏｔｉｓ‐ｍｉｏＭａｒｃ合同会社,,合同会社,福岡県,北九州市小倉北区,黄金２丁目９－１６ホワイトパレス片野２０２,,40,106,8020071,,,,,,,2021-11-11,1,,,,,ミオソティスミオマルク,0
527,2330005010430,新規,0,2021-11-11,2021-11-11,アコード税理士法人,,その他の設立登記法人,熊本県,熊本市中央区,新市街１２番９号,,43,101,8600803,,,,,,,2021-11-11,1,,,,,アコード,0
537,2360001029612,新規,0,2021-11-11,2021-11-11,株式会社福祉支援ちゅら,,株式会社,沖縄県,那覇市,字古島５０９番地１アコーディア宝口３０３,,47,201,9020061,,,,,,,2021-11-11,1,,,,,フクシシエンチュラ,0
539,2360005006558,新規,0,2021-11-11,2021-11-11,一般社団法人沖縄県歯科衛生士会,,その他の設立登記法人,沖縄県,島尻郡南風原町,字新川２１８番地１,,47,350,9011105,,,,,,,2021-11-11,1,,,,,オキナワケンシカエイセイシカイ,0
544,2370005010377,新規,0,2021-11-11,2021-11-11,一般社団法人ＪｏＩｎ,,その他の設立登記法人,宮城県,本吉郡南三陸町,入谷字＿葉沢１５２番地,00124824,04,606,9860782,,,,,,,2021-11-11,1,,,,,ジョイン,0
554,2410003003584,新規,0,2021-11-11,2021-11-11,合同会社セッション,,合同会社,秋田県,秋田市,御所野下堤１丁目４番１０号,,05,201,0101412,,,,,,,2021-11-11,1,,,,,セッション,0
561,2430003013350,新規,0,2021-11-11,2021-11-11,合同会社串建,,合同会社,北海道,札幌市白石区,北郷一条９丁目１－１,,01,104,0030831,,,,,,,2021-11-11,1,,,,,クシケン,0
566,2700150105732,新規,0,2021-11-11,2021-11-11,Ｃａｍｐｂｅｌｌ　Ｌｕｔｙｅｎｓ　Ａｓｉａ　Ｐａｃｉｆｉｃ　Ｌｉｍｉｔｅｄ,,外国会社等,東京都,港区,西新橋２丁目３番１号マークライト虎ノ門４階,,13,103,1050003,中華人民共和国香港特別行政区中環コンノート・プレイス１、ジャーディンハウス、スイート８０５－８０８,,,,,,2021-11-11,1,,,,,キヤンベルルテイエンスアジアパシフイツクリミテツド,0
579,3010001222325,新規,0,2021-11-11,2021-11-11,株式会社Ｃｒｅｓｃｅｎｔ,,株式会社,東京都,千代田区,外神田３丁目６番４号,,13,101,1010021,,,,,,,2021-11-11,1,,,,,クレッセント,0
580,3010001222416,新規,0,2021-11-11,2021-11-11,エターナル通商株式会社,,株式会社,東京都,千代田区,丸の内１丁目１１番１号パシフィックセンチュリープレイス１３Ｆ,,13,101,1000005,,,,,,,2021-11-11,1,,,,,エターナルツウショウ,0
581,3010001222457,新規,0,2021-11-11,2021-11-11,株式会社Ａｕｔｕｍｎ　Ｓｏｎｇ,,株式会社,東京都,千代田区,外神田２丁目２番１２号福井ビル５Ｆ,,13,101,1010021,,,,,,,2021-11-11,1,,,,,オータムソング,0
582,3010001222473,新規,0,2021-11-11,2021-11-11,ＭＯＳＴ株式会社,,株式会社,東京都,千代田区,大手町１丁目１番１号大手町パークビルディング２０階,,13,101,1000004,,,,,,,2021-11-11,1,,,,,モースト,0
586,3010003036244,新規,0,2021-11-11,2021-11-11,ＶＣＳＢ　Ｉｎｖｅｓｔｍｅｎｔ　Ｈｏｌｄｉｎｇ合同会社,,合同会社,東京都,千代田区,内幸町２丁目２番２号富国生命ビル１８階ヤンセン外国法事務弁護士事務所内,,13,101,1000011,,,,,,,2021-11-11,1,,,,,ヴィーシーエスビーインベストメントホールディングス,0
587,3010003036260,新規,0,2021-11-11,2021-11-11,合同会社アキバリウム,,合同会社,東京都,千代田区,神田練塀町７０番地第２横島ビル３階,,13,101,1010022,,,,,,,2021-11-11,1,,,,,アキバリウム,0
596,3010401163788,新規,0,2021-11-11,2021-11-11,株式会社ひなみ,,株式会社,東京都,港区,南麻布５丁目１５番２３号５Ｆ,,13,103,1060047,,,,,,,2021-11-11,1,,,,,ヒナミ,0
602,3010601060216,新規,0,2021-11-11,2021-11-11,洛天商事株式会社,,株式会社,東京都,墨田区,錦糸３丁目８番８－６０２号,,13,107,1300013,,,,,,,2021-11-11,1,,,,,ラクテンショウジ,0
608,3010701041768,新規,0,2021-11-11,2021-11-11,株式会社ゼニスブルー,,株式会社,東京都,品川区,上大崎３丁目１番２号ブリリア目黒ノース３９１０,,13,109,1410021,,,,,,,2021-11-11,1,,,,,ゼニスブルー,0
613,3011001143800,新規,0,2021-11-11,2021-11-11,株式会社Ｃｏｃｏｎ,,株式会社,東京都,渋谷区,渋谷２丁目１９－１５宮益坂ビルディング６０９,,13,113,1500002,,,,,,,2021-11-11,1,,,,,ココン,0
614,3011001143908,新規,0,2021-11-11,2021-11-11,株式会社ＫＭＳ,,株式会社,東京都,目黒区,目黒本町３丁目５番１０号,,13,110,1520002,,,,,,,2021-11-11,1,,,,,ケーエムエス,0
617,3011101096832,新規,0,2021-11-11,2021-11-11,株式会社Ｅ－ｔｒａｄｉａ　Ｄｅｖｅｌｏｐｍｅｎｔ,,株式会社,東京都,新宿区,北新宿２丁目２－２０－３０１,,13,104,1690074,,,,,,,2021-11-11,1,,,,,イートレーディアデベロップメント,0
618,3011103011145,新規,0,2021-11-11,2021-11-11,くすのきデベロップメント合同会社,,合同会社,東京都,新宿区,西新宿２丁目１番１号新宿三井ビルディング４９階,,13,104,1600023,,,,,,,2021-11-11,1,,,,,クスノキデベロップメント,0
620,3011201023406,新規,0,2021-11-11,2021-11-11,ユーテク株式会社,,株式会社,東京都,中野区,本町４丁目２８番９号エクセル新中野２０１号室,,13,114,1640012,,,,,,,2021-11-11,1,,,,,ユーテク,0
621,3011203003694,新規,0,2021-11-11,2021-11-11,合同会社樹,,合同会社,東京都,中野区,中央４丁目３５番５号カーサカリーナ新中野２０５,,13,114,1640011,,,,,,,2021-11-11,1,,,,,イツキ,0
623,3011701024837,新規,0,2021-11-11,2021-11-11,ＣＡＬＩＯ株式会社,,株式会社,東京都,江戸川区,平井３丁目２３－９－１０１,,13,123,1320035,,,,,,,2021-11-11,1,,,,,キャリオ,0
627,3012403005092,新規,0,2021-11-11,2021-11-11,合同会社Ｄａｙ－Ｏｎｅ,,合同会社,東京都,武蔵野市,吉祥寺本町２丁目８番４号ｉ－ｏｆｆｉｃｅ吉祥寺,,13,203,1800004,,,,,,,2021-11-11,1,,,,,デイワン,0
628,3012403005101,新規,0,2021-11-11,2021-11-11,フォーオール合同会社,,合同会社,東京都,小金井市,本町４丁目２０番２号,,13,210,1840004,,,,,,,2021-11-11,1,,,,,フォーオール,0
629,3012701016766,新規,0,2021-11-11,2021-11-11,ＭＯＯＫ株式会社,,株式会社,東京都,小平市,小川町１丁目３０１番地の２２,,13,211,1870032,,,,,,,2021-11-11,1,,,,,ムック,0
653,3021001074350,新規,0,2021-11-11,2021-11-11,株式会社アビリティラボ,,株式会社,神奈川県,大和市,草柳１丁目４－２３,,14,213,2420026,,,,,,,2021-11-11,1,,,,,アビリティラボ,0
665,3030001145284,新規,0,2021-11-11,2021-11-11,株式会社ＴＹＳコーポレーション,,株式会社,埼玉県,幸手市,北２丁目１４番４号,,11,240,3400111,,,,,,,2021-11-11,1,,,,,ティーワイエスコーポレーション,0
670,3030003018307,新規,0,2021-11-11,2021-11-11,中山合同会社,,合同会社,埼玉県,越谷市,瓦曽根１丁目１３番３２号,,11,222,3430821,,,,,,,2021-11-11,1,,,,,ナカヤマ,0
679,3040003018917,新規,0,2021-11-11,2021-11-11,合同会社オリジナルソース,,合同会社,千葉県,千葉市稲毛区,緑町１丁目２０番１０―１０２号,,12,103,2630023,,,,,,,2021-11-11,1,,,,,オリジナルソース,0
685,3070001038633,新規,0,2021-11-11,2021-11-11,株式会社エフアンドイー,,株式会社,群馬県,高崎市,三ツ寺町２５９番地７,,10,202,3703525,,,,,,,2021-11-11,1,,,,,エフアンドイー,0
696,3100003006287,新規,0,2021-11-11,2021-11-11,合同会社風の谷の大鹿,,合同会社,長野県,下伊那郡大鹿村,大字鹿塩２２６番地,,20,417,3993501,,,,,,,2021-11-11,1,,,,,カゼノタニノオオシカ,0
709,3120001241792,新規,0,2021-11-11,2021-11-11,株式会社ＦｏｒＣｌｉｅｎｔ,,株式会社,大阪府,大阪市中央区,南本町４丁目２番１８号５階,,27,128,5410054,,,,,,,2021-11-11,1,,,,,フォークライアント,0
722,3140001123816,新規,0,2021-11-11,2021-11-11,株式会社フリーエデュケーション,,株式会社,兵庫県,神戸市中央区,磯上通６丁目１番１７号ウェンブレービル５階,,28,110,6510086,,,,,,,2021-11-11,1,,,,,フリーエデュケーション,0
723,3140001123824,新規,0,2021-11-11,2021-11-11,株式会社アルテワーク,,株式会社,兵庫県,三田市,武庫が丘５丁目２－Ｇ２０２,,28,219,6691544,,,,,,,2021-11-11,1,,,,,アルテワーク,0
724,3140003016976,新規,0,2021-11-11,2021-11-11,神戸グッドビジュアル合同会社,,合同会社,兵庫県,神戸市東灘区,御影中町４丁目７番６号,,28,101,6580054,,,,,,,2021-11-11,1,,,,,コウベグッドビジュアル,0
726,3150001025094,新規,0,2021-11-11,2021-11-11,株式会社ＡＴＧ,,株式会社,奈良県,大和郡山市,城南町１番２８号,,29,203,6391016,,,,,,,2021-11-11,1,,,,,エーティージー,0
739,3180001148685,新規,0,2021-11-11,2021-11-11,株式会社ＡＢＩ,,株式会社,愛知県,名古屋市中区,錦１丁目４番１９号,,23,106,4600003,,,,,,,2021-11-11,1,,,,,エイビーアイ,0
745,3180003023168,新規,0,2021-11-11,2021-11-11,合同会社夢ＩＲＯ,,合同会社,愛知県,名古屋市守山区,大屋敷１３番３５号,,23,113,4630016,,,,,,,2021-11-11,1,,,,,ユメイロ,0
746,3180005019511,新規,0,2021-11-11,2021-11-11,一般社団法人大家の右腕,,その他の設立登記法人,愛知県,名古屋市中区,錦３丁目１１番２５号,,23,106,4600003,,,,,,,2021-11-11,1,,,,,オオヤノミギウデ,0
748,3180301035617,新規,0,2021-11-11,2021-11-11,株式会社ＤＩＶＡ,,株式会社,愛知県,豊橋市,松葉町１丁目９０番地御園ビルＢ１,,23,201,4400897,,,,,,,2021-11-11,1,,,,,ディーバ,0
775,3290001095363,新規,0,2021-11-11,2021-11-11,株式会社大島土木,,株式会社,福岡県,福岡市西区,今宿東１丁目８番４１号,,40,135,8190161,,,,,,,2021-11-11,1,,,,,オオシマドボク,0
776,3290001095371,新規,0,2021-11-11,2021-11-11,株式会社ターミナルトランスポート雅,,株式会社,福岡県,糟屋郡粕屋町,大字内橋８００番地１９カレンシーハイツ西村３０３号,,40,349,8112308,,,,,,,2021-11-11,1,,,,,ターミナルトランスポートミヤビ,0
778,3290002035590,新規,0,2021-11-11,2021-11-11,有限会社中山モータース,,有限会社,福岡県,宗像市,田熊１丁目５番２０号,,40,220,8113431,,,,,,,2021-11-11,1,,,,,ナカヤマモータース,0
780,3290003011822,新規,0,2021-11-11,2021-11-11,合同会社そるね,,合同会社,福岡県,福岡市西区,今宿駅前１丁目１７番２２号,,40,135,8190168,,,,,,,2021-11-11,1,,,,,ソルネ,0
786,3310005008566,新規,0,2021-11-11,2021-11-11,一般社団法人いきいきライフ協会ながさき,,その他の設立登記法人,長崎県,長崎市,宿町７２９番地１,,42,201,8510121,,,,,,,2021-11-11,1,,,,,イキイキライフキョウカイナガサキ,0
793,3330003009127,新規,0,2021-11-11,2021-11-11,合同会社ディネーロ,,合同会社,熊本県,熊本市東区,佐土原３丁目４番３２号,,43,102,8620916,,,,,,,2021-11-11,1,,,,,ディネーロ,0
795,3360001029611,新規,0,2021-11-11,2021-11-11,沖縄興産株式会社,,株式会社,沖縄県,島尻郡八重瀬町,字長毛２９０番地５,,47,362,9010501,,,,,,,2021-11-11,1,,,,,オキナワコウサン,0
800,3370001047785,新規,0,2021-11-11,2021-11-11,株式会社Ｙ＆Ｋコンサルティング,,株式会社,宮城県,仙台市青葉区,台原１丁目１２番２４号,,04,101,9810911,,,,,,,2021-11-11,1,,,,,ワイアンドケーコンサルティング,0
803,3410003003583,新規,0,2021-11-11,2021-11-11,合同会社Ｄサービス,,合同会社,秋田県,大仙市,橋本字富慶３０５番地,,05,212,0140804,,,,,,,2021-11-11,1,,,,,ディーサービス,0
811,3430003013341,新規,0,2021-11-11,2021-11-11,合同会社ノースサプル,,合同会社,北海道,札幌市豊平区,西岡五条１丁目５番１３号幸ハイツ１０１号室,,01,105,0620035,,,,,,,2021-11-11,1,,,,,ノースサプル,0
822,3700150105731,新規,0,2021-11-11,2021-11-11,ジャンビ・トレディング・プライベート・リミテド,,外国会社等,東京都,八王子市,子安町２丁目１３番６号藤井ハイツ１７,,13,201,1920904,ネパール連邦民主共和国カトマンズ市第３区ナガルジュン,,,,,,2021-11-11,1,,,,,ジヤンビトレデイングプライベートリミテド,0
835,4010001222373,新規,0,2021-11-11,2021-11-11,株式会社トレイルヘッドパートナーズ,,株式会社,東京都,中央区,銀座６丁目１３番１６号銀座ＷａｌｌビルＵＣＦ５階,,13,102,1040061,,,,,,,2021-11-11,1,,,,,トレイルヘッドパートナーズ,0
836,4010001222431,新規,0,2021-11-11,2021-11-11,興和ＡＩソリューションズ株式会社,,株式会社,東京都,中央区,日本橋本町４丁目１１番１号,,13,102,1030023,,,,,,,2021-11-11,1,,,,,コウワエーアイソリューションズ,0
841,4010003036193,新規,0,2021-11-11,2021-11-11,合同会社Ｋｕｍｉｔａｔｅ,,合同会社,東京都,千代田区,外神田６丁目１５番４号２ＦＡｉｒ－Ｅｒａ,,13,101,1010021,,,,,,,2021-11-11,1,,,,,クミタテ,0
842,4010003036268,新規,0,2021-11-11,2021-11-11,合同会社アシスト,,合同会社,東京都,中央区,新川１丁目３－２３－２Ｂ,,13,102,1040033,,,,,,,2021-11-11,1,,,,,アシスト,0
843,4010003036276,新規,0,2021-11-11,2021-11-11,合同会社ＥＤＵマーケティング,,合同会社,東京都,中央区,銀座１丁目１２－４Ｎ＆Ｅ．ＢＬＤ．７階,,13,102,1040061,,,,,,,2021-11-11,1,,,,,エデュマーケティング,0
844,4010003036284,新規,0,2021-11-11,2021-11-11,スポットクロス合同会社,,合同会社,東京都,中央区,晴海３丁目１３－１－２９０６,,13,102,1040053,,,,,,,2021-11-11,1,,,,,スポットクロス,0
846,4010005034204,新規,0,2021-11-11,2021-11-11,一般社団法人ファンドドゥ９号,,その他の設立登記法人,東京都,千代田区,霞が関３丁目２番５号,,13,101,1000013,,,,,,,2021-11-11,1,,,,,ファンドドゥキュウゴウ,0
852,4010401163804,新規,0,2021-11-11,2021-11-11,株式会社高岡変革設計事務所,,株式会社,東京都,港区,浜松町２丁目２番１５号浜松町ダイヤビル２Ｆ,,13,103,1050013,,,,,,,2021-11-11,1,,,,,タカオカヘンカクセッケイジムショ,0
854,4010403026496,新規,0,2021-11-11,2021-11-11,ＴＩＴＵＳ合同会社,,合同会社,東京都,港区,南青山２丁目２番１５号,,13,103,1070062,,,,,,,2021-11-11,1,,,,,タイタス,0
855,4010403026505,新規,0,2021-11-11,2021-11-11,合同会社Ｆｉｒｅ　Ｂａｌｌ,,合同会社,東京都,港区,虎ノ門５丁目１番４号,,13,103,1050001,,,,,,,2021-11-11,1,,,,,ファイヤーボール,0
860,4010601060223,新規,0,2021-11-11,2021-11-11,ダブルティー株式会社,,株式会社,東京都,江東区,豊洲５丁目６番２９号,,13,108,1350061,,,,,,,2021-11-11,1,,,,,ダブルティー,0
864,4010901049759,新規,0,2021-11-11,2021-11-11,株式会社ＲＡＫＳ　Ｍａｎａｇｅｍｅｎｔ,,株式会社,東京都,世田谷区,奥沢１丁目４９番１１号,,13,112,1580083,,,,,,,2021-11-11,1,,,,,ラックスマネジメント,0
865,4010901049775,新規,0,2021-11-11,2021-11-11,株式会社マツムラ制作所,,株式会社,東京都,世田谷区,八幡山３丁目１６番１９号マストライフ八幡山３０４,,13,112,1560056,,,,,,,2021-11-11,1,,,,,マツムラセイサクショ,0
870,4011001143808,新規,0,2021-11-11,2021-11-11,Ｗｏｒｋ　Ｇｒｏｗｔｈ株式会社,,株式会社,東京都,渋谷区,神宮前６丁目２３－４桑野ビル２Ｆ,,13,113,1500001,,,,,,,2021-11-11,1,,,,,ワークグロース,0
871,4011001143849,新規,0,2021-11-11,2021-11-11,エスケーアイ株式会社,,株式会社,東京都,渋谷区,上原１丁目１番２１号２０２号室,,13,113,1510064,,,,,,,2021-11-11,1,,,,,エスケーアイ,0
872,4011001143956,新規,0,2021-11-11,2021-11-11,ホリデートラベル株式会社,,株式会社,東京都,渋谷区,松濤１丁目２８番２号,,13,113,1500046,,,,,,,2021-11-11,1,,,,,ホリデートラベル,0
873,4011003013694,新規,0,2021-11-11,2021-11-11,合同会社縁,,合同会社,東京都,目黒区,上目黒１丁目８番２８号１０２号室,,13,110,1530051,,,,,,,2021-11-11,1,,,,,エニシ,0
880,4011101096889,新規,0,2021-11-11,2021-11-11,株式会社グランバッハ東京,,株式会社,東京都,新宿区,西新宿３丁目２０番２号,,13,104,1600023,,,,,,,2021-11-11,1,,,,,グランバッハトウキョウ,0
881,4011103011152,新規,0,2021-11-11,2021-11-11,Ｃｏｎｒａｄ　Ｎａｇｏｙａ合同会社,,合同会社,東京都,新宿区,西新宿６丁目８番１号住友不動産新宿オークタワー２２階,,13,104,1600023,,,,,,,2021-11-11,1,,,,,コンラッドナゴヤ,0
882,4011103011177,新規,0,2021-11-11,2021-11-11,合同会社ＬｉｆｅＣａｔｓ,,合同会社,東京都,新宿区,上落合３丁目３３番１５号,,13,104,1610034,,,,,,,2021-11-11,1,,,,,ライフキャッツ,0
914,4020003020808,新規,0,2021-11-11,2021-11-11,合同会社ＭＪＴ,,合同会社,神奈川県,川崎市宮前区,神木本町１丁目１９番５号,,14,136,2160031,,,,,,,2021-11-11,1,,,,,エムジェイティー,0
933,4030001145275,新規,0,2021-11-11,2021-11-11,株式会社一心,,株式会社,埼玉県,所沢市,大字下安松１４８２番地の２１,,11,208,3590024,,,,,,,2021-11-11,1,,,,,イッシン,0
934,4030001145300,新規,0,2021-11-11,2021-11-11,株式会社サン,,株式会社,埼玉県,ふじみ野市,苗間３３３番地１,,11,245,3560052,,,,,,,2021-11-11,1,,,,,サン,0
943,4030003018306,新規,0,2021-11-11,2021-11-11,合同会社日本アイケン,,合同会社,埼玉県,鶴ヶ島市,大字太田ヶ谷７５５番地２,,11,241,3502214,,,,,,,2021-11-11,1,,,,,ニホンアイケン,0
951,4040005021422,新規,0,2021-11-11,2021-11-11,特定非営利活動法人キャリアｂａｓｅ,,その他の設立登記法人,千葉県,柏市,松葉町２丁目１５番１３号,,12,217,2770827,,,,,,,2021-11-11,1,,,,,キャリアベース,0
952,4050001050127,新規,0,2021-11-11,2021-11-11,株式会社ママ友,,株式会社,茨城県,笠間市,鯉淵６２６７番地８５民間学童すまいる内,,08,216,3091703,,,,,,,2021-11-11,1,,,,,ママトモ,0
960,4070003004293,新規,0,2021-11-11,2021-11-11,合同会社ＯＬＩＭＰＯＳ,,合同会社,群馬県,前橋市,粕川町深津１６１３番地１７,,10,201,3710215,,,,,,,2021-11-11,1,,,,,オリンポス,0
971,4100003006286,新規,0,2021-11-11,2021-11-11,合同会社ａｎｄ．,,合同会社,長野県,諏訪郡富士見町,境１０５５５番地２,,20,362,3990101,,,,,,,2021-11-11,1,,,,,アンド,0
973,4110001036185,新規,0,2021-11-11,2021-11-11,株式会社ＣＡＭＯＳ,,株式会社,新潟県,新潟市中央区,南万代町４番２４号,,15,103,9500902,,,,,,,2021-11-11,1,,,,,カモス,0
989,4120001241750,新規,0,2021-11-11,2021-11-11,千早莫大小株式会社,,株式会社,大阪府,大阪市旭区,新森４丁目１１番１３号,,27,117,5350022,,,,,,,2021-11-11,1,,,,,チハヤメリヤス,0
990,4120001241759,新規,0,2021-11-11,2021-11-11,ＮＡＶＡ　ＭＡＲＴ株式会社,,株式会社,大阪府,大阪市北区,中崎１丁目１０番１７号曽根崎料飲ビル４０１号室,,27,127,5300016,,,,,,,2021-11-11,1,,,,,ナバマート,0
991,4120001241783,新規,0,2021-11-11,2021-11-11,株式会社ＬＩＨ,,株式会社,大阪府,大阪市東淀川区,東中島１丁目１９－１１－大城ビル２０２,,27,114,5330033,,,,,,,2021-11-11,1,,,,,エルアイエイチ,0
992,4120001241791,新規,0,2021-11-11,2021-11-11,ＳＴＥＡＤＳ株式会社,,株式会社,大阪府,守口市,寺方本通２丁目１３番１７号,,27,209,5700048,,,,,,,2021-11-11,1,,,,,ステッズ,0
998,4120005022602,新規,0,2021-11-11,2021-11-11,一般社団法人Ｏｓａｋａ　Ｉｎｎｏｖａｔｏｒ’ｓ　Ｇｕｉｌｄ,,その他の設立登記法人,大阪府,大阪市北区,天満橋３丁目３番５号天満インキュベーションラボ３０３,,27,127,5300042,,,,,,,2021-11-11,1,,,,,オオサカイノベーターズギルド,0
1000,4120101064639,新規,0,2021-11-11,2021-11-11,株式会社リザレクションハウス,,株式会社,大阪府,堺市堺区,材木町西１丁１番２６号ＲＲビル８階,,27,141,5900941,,,,,,,2021-11-11,1,,,,,リザレクションハウス,0
1015,4140001123807,新規,0,2021-11-11,2021-11-11,株式会社リベロ,,株式会社,兵庫県,尼崎市,神崎町２－１３－１０１号室,,28,202,6610964,,,,,,,2021-11-11,1,,,,,リベロ,0
1018,4160001023798,新規,0,2021-11-11,2021-11-11,株式会社絆,,株式会社,滋賀県,東近江市,妹町５８番地,,25,213,5270162,,,,,,,2021-11-11,1,,,,,キズナ,0
1032,4190001028852,新規,0,2021-11-11,2021-11-11,株式会社Ｕ２ＤＭ,,株式会社,三重県,四日市市,城西町７‐１レジデンスときわ２０１,,24,202,5100829,,,,,,,2021-11-11,1,,,,,ユーツーディーエム,0
1051,4260001036195,新規,0,2021-11-11,2021-11-11,株式会社Ｏｎｅｓ,,株式会社,岡山県,総社市,中央６丁目２番地１１０,,33,208,7191131,,,,,,,2021-11-11,1,,,,,ワンス,0
1058,4290001095321,新規,0,2021-11-11,2021-11-11,モード株式会社,,株式会社,福岡県,福岡市城南区,神松寺２丁目１８－８－３０４,,40,136,8140121,,,,,,,2021-11-11,1,,,,,モード,0
1061,4290003011821,新規,0,2021-11-11,2021-11-11,ＪＷ合同会社,,合同会社,福岡県,柳川市,田脇６８９－４,,40,207,8320089,,,,,,,2021-11-11,1,,,,,ジェーダブリュー,0
1065,4290803003976,新規,0,2021-11-11,2021-11-11,合同会社フェアリーハウス,,合同会社,福岡県,北九州市小倉北区,昭和町１９－２６アクス敷島２１－５０３号,,40,106,8020075,,,,,,,2021-11-11,1,,,,,フェアリーハウス,0
1067,4340001024266,新規,0,2021-11-11,2021-11-11,株式会社スカイペイント工業,,株式会社,鹿児島県,霧島市,溝辺町麓２１４０番地,,46,218,8996404,,,,,,,2021-11-11,1,,,,,スカイペイントコウギョウ,0
1088,4430001085365,新規,0,2021-11-11,2021-11-11,株式会社Ｎｅｘｔ　Ｅｎｒｉｃｈ,,株式会社,北海道,札幌市北区,北二十九条西４丁目２番１号,,01,102,0010029,,,,,,,2021-11-11,1,,,,,ネクストエンリッチ,0
1090,4430003013349,新規,0,2021-11-11,2021-11-11,合同会社アニョサント,,合同会社,北海道,札幌市西区,西野六条８丁目１０番３号－１,,01,107,0630036,,,,,,,2021-11-11,1,,,,,アニョサント,0
1103,4700150105730,新規,0,2021-11-11,2021-11-11,日本実験力学会,,その他,新潟県,新潟市中央区,旭町通２番町７４６新潟大学　医学部　保健学科内,,15,103,9518122,,,,,,,2021-11-11,1,,,,,ニホンジッケンリキガクカイ,0
1113,5010001222455,新規,0,2021-11-11,2021-11-11,セントラルクリエイションズ株式会社,,株式会社,東京都,千代田区,岩本町２丁目４－５インスタイルスクエア７０７,,13,101,1010032,,,,,,,2021-11-11,1,,,,,セントラルクリエイションズ,0
1117,5010003036259,新規,0,2021-11-11,2021-11-11,千葉いすみ洋上風力合同会社,,合同会社,東京都,中央区,京橋２丁目２番１号,,13,102,1040031,,,,,,,2021-11-11,1,,,,,チバイスミヨウジョウフウリョク,0
1118,5010003036275,新規,0,2021-11-11,2021-11-11,フォーシーズンズ合同会社,,合同会社,東京都,文京区,目白台１丁目９番４号,,13,105,1120015,,,,,,,2021-11-11,1,,,,,フォーシーズンズ,0
1123,5010005034203,新規,0,2021-11-11,2021-11-11,サンライズ吉川特定目的会社,,その他の設立登記法人,東京都,千代田区,神田神保町１丁目１１番地さくら綜合事務所内,,13,101,1010051,,,,,,,2021-11-11,1,,,,,サンライズヨシカワ,0
1131,5010401163571,新規,0,2021-11-11,2021-11-11,Ｆｕｍｏｒ株式会社,,株式会社,東京都,港区,北青山３丁目１－６,,13,103,1070061,,,,,,,2021-11-11,1,,,,,フモール,0
1132,5010401163786,新規,0,2021-11-11,2021-11-11,株式会社ＢＨＣ,,株式会社,東京都,港区,南麻布３丁目２０番１号Ｄａｉｗａ麻布テラス５階,,13,103,1060047,,,,,,,2021-11-11,1,,,,,ビーエッチシー,0
1133,5010401163794,新規,0,2021-11-11,2021-11-11,株式会社タクセル,,株式会社,東京都,港区,芝浦１丁目９－７おもだかビル４Ｆ,,13,103,1050023,,,,,,,2021-11-11,1,,,,,タクセル,0
1136,5010403026330,新規,0,2021-11-11,2021-11-11,合同会社ＭＷ,,合同会社,東京都,港区,南青山２丁目２－１５ＷＩＮ青山５３１,,13,103,1070062,,,,,,,2021-11-11,1,,,,,,0
1137,5010403026495,新規,0,2021-11-11,2021-11-11,永井計画合同会社,,合同会社,東京都,港区,浜松町２丁目２番１５号浜松町ダイヤビル２Ｆ,,13,103,1050013,,,,,,,2021-11-11,1,,,,,ナガイケイカク,0
1139,5010405020372,新規,0,2021-11-11,2021-11-11,一般社団法人日本食養師育成協会,,その他の設立登記法人,東京都,港区,港南４丁目６番５－３５０４号,,13,103,1080075,,,,,,,2021-11-11,1,,,,,ニホンショクヨウシイクセイキョウカイ,0
1140,5010405020414,新規,0,2021-11-11,2021-11-11,一般社団法人Ａｂｕｚｕｒｉ,,その他の設立登記法人,東京都,港区,虎ノ門５丁目１番４号,,13,103,1050001,,,,,,,2021-11-11,1,,,,,アブズリ,0
1153,5010701041766,新規,0,2021-11-11,2021-11-11,株式会社ＢＰＭ,,株式会社,東京都,品川区,勝島１丁目４番２０－４１１号,,13,109,1400012,,,,,,,2021-11-11,1,,,,,ビーピーエム,0
1154,5010805002895,新規,0,2021-11-11,2021-11-11,一般社団法人ｖｉｖａｎｔ,,その他の設立登記法人,東京都,大田区,萩中１丁目６番１０号,,13,111,1440047,,,,,,,2021-11-11,1,,,,,ヴィヴァント,0
1158,5010901049758,新規,0,2021-11-11,2021-11-11,株式会社ＲＡＫＳ　Ｃａｐｉｔａｌ,,株式会社,東京都,世田谷区,奥沢１丁目４９番１１号,,13,112,1580083,,,,,,,2021-11-11,1,,,,,ラックスキャピタル,0
1162,5011001143798,新規,0,2021-11-11,2021-11-11,株式会社ＷＯ－１,,株式会社,東京都,渋谷区,神宮前６丁目６番８ラビドリエラデエミ３０２,,13,113,1500001,,,,,,,2021-11-11,1,,,,,ダブルオーワン,0
1163,5011001143823,新規,0,2021-11-11,2021-11-11,株式会社セカンドリズム,,株式会社,東京都,渋谷区,渋谷１丁目１９番１８－８１３号,,13,113,1500002,,,,,,,2021-11-11,1,,,,,セカンドリズム,0
1164,5011001143848,新規,0,2021-11-11,2021-11-11,株式会社レジリエンス・ネットワーク・グループ,,株式会社,東京都,渋谷区,幡ヶ谷１丁目９番４号,,13,113,1510072,,,,,,,2021-11-11,1,,,,,,0
1165,5011001143897,新規,0,2021-11-11,2021-11-11,株式会社ＲＵＦＦＬＯＧ,,株式会社,東京都,目黒区,東山３丁目４番８号東北林業ビル２０１,,13,110,1530043,,,,,,,2021-11-11,1,,,,,ラフログ,0
1167,5011003013685,新規,0,2021-11-11,2021-11-11,合同会社オフビート,,合同会社,東京都,渋谷区,道玄坂２丁目２０番２６号藤和エクシール２０２号室,,13,113,1500043,,,,,,,2021-11-11,1,,,,,オフビート,0
1168,5011003013702,新規,0,2021-11-11,2021-11-11,然然合同会社,,合同会社,東京都,渋谷区,神宮前６丁目２９番４号原宿ｋｏｍｉｙａビル６階,,13,113,1500001,,,,,,,2021-11-11,1,,,,,ネンネン,0
1176,5011201023404,新規,0,2021-11-11,2021-11-11,株式会社東京ＥＣビジネス会計事務所,,株式会社,東京都,中野区,本町２丁目５０番１０－６０１号,,13,114,1640012,,,,,,,2021-11-11,1,,,,,トウキョウイーシービジネスカイケイジムショ,0
1178,5011403003501,新規,0,2021-11-11,2021-11-11,合同会社のびたきｃｏｍｐａｎｙ,,合同会社,東京都,板橋区,栄町２４番１２－３０１号セザール大山,,13,119,1730015,,,,,,,2021-11-11,1,,,,,ノビタキカンパニー,0
1187,5012401038522,新規,0,2021-11-11,2021-11-11,株式会社グランドホールディングス,,株式会社,東京都,多摩市,桜ヶ丘４丁目３１番地の１７,,13,224,2060013,,,,,,,2021-11-11,1,,,,,グランドホールディングス,0
1188,5012403005099,新規,0,2021-11-11,2021-11-11,合同会社人間科学工学館,,合同会社,東京都,府中市,清水が丘２丁目５５番地の３ＣＫコーポＡ,,13,206,1830015,,,,,,,2021-11-11,1,,,,,ニンゲンカガクコウガクカン,0
1189,5012701016764,新規,0,2021-11-11,2021-11-11,株式会社雅空調設備,,株式会社,東京都,清瀬市,上清戸２丁目１４番２５号,,13,221,2040013,,,,,,,2021-11-11,1,,,,,ミヤビクウチョウセツビ,0
1194,5013303005899,新規,0,2021-11-11,2021-11-11,合同会社ワイズマネジメント,,合同会社,東京都,豊島区,池袋本町２丁目４番８号,,13,116,1700011,,,,,,,2021-11-11,1,,,,,ワイズマネジメント,0
1206,5020001143865,新規,0,2021-11-11,2021-11-11,株式会社アクティベートＤｅ－ｓｉｇｎ,,株式会社,神奈川県,横浜市中区,太田町５丁目６６番地深堀ビル３Ｆ,,14,104,2310011,,,,,,,2021-11-11,1,,,,,アクティベートデザイン,0
1209,5020003020807,新規,0,2021-11-11,2021-11-11,合同会社ＡＮＳ　ＪＡＰＡＮ,,合同会社,神奈川県,川崎市中原区,小杉御殿町２丁目５３番地３,,14,133,2110068,,,,,,,2021-11-11,1,,,,,エイエヌエスジャパン,0
1223,5030001145290,新規,0,2021-11-11,2021-11-11,光谷株式会社,,株式会社,埼玉県,川口市,並木２丁目２８番２－３０５号,,11,203,3320034,,,,,,,2021-11-11,1,,,,,ミツヤ,0
1224,5030001145299,新規,0,2021-11-11,2021-11-11,株式会社タイタグローバル,,株式会社,埼玉県,秩父郡東秩父村,大字御堂１０－１,,11,369,3550375,,,,,,,2021-11-11,1,,,,,タイタグローバル,0
1232,5030003018222,新規,0,2021-11-11,2021-11-11,合同会社Ｒａｙｂｕｃ,,合同会社,埼玉県,川口市,桜町２丁目９番１７号,,11,203,3340001,,,,,,,2021-11-11,1,,,,,レイブック,0
1234,5030005020622,新規,0,2021-11-11,2021-11-11,一般社団法人一歩,,その他の設立登記法人,埼玉県,川口市,並木４丁目２４番１６号,,11,203,3320034,,,,,,,2021-11-11,1,,,,,イッポ,0
1242,5040001120929,新規,0,2021-11-11,2021-11-11,株式会社ｍｏｏｓｅ　ＪＡＰＡＮ,,株式会社,千葉県,木更津市,中央２丁目２番１７号,,12,206,2920067,,,,,,,2021-11-11,1,,,,,ムースジャパン,0
1244,5040003018881,新規,0,2021-11-11,2021-11-11,合同会社Ｃｏｎｎｅｘｔｉｏｎ,,合同会社,千葉県,松戸市,六高台４丁目７９－５,,12,207,2702203,,,,,,,2021-11-11,1,,,,,コネクション,0
1245,5050001050126,新規,0,2021-11-11,2021-11-11,なめがたスマートビレッジ株式会社,,株式会社,茨城県,行方市,宇崎１５６１番地,,08,233,3113824,,,,,,,2021-11-11,1,,,,,ナメガタスマートビレッジ,0
1252,5070001038631,新規,0,2021-11-11,2021-11-11,株式会社オーエム商事,,株式会社,群馬県,前橋市,荒牧町１丁目２２番地８,,10,201,3710044,,,,,,,2021-11-11,1,,,,,オーエムショウジ,0
1265,5110001036184,新規,0,2021-11-11,2021-11-11,三和ホームテック株式会社,,株式会社,新潟県,南魚沼市,石打８８７番地１ビステ石打Ｂ４１５号室,,15,226,9496372,,,,,,,2021-11-11,1,,,,,サンワホームテック,0
1278,5120001241782,新規,0,2021-11-11,2021-11-11,博洋株式会社,,株式会社,大阪府,大阪市東淀川区,西淡路１丁目１－９ビジネス新大阪７３０,,27,114,5330031,,,,,,,2021-11-11,1,,,,,ハクヨウ,0
1279,5120001241799,新規,0,2021-11-11,2021-11-11,安曇宝飾株式会社,,株式会社,大阪府,大阪市中央区,備後町１丁目６番１号甲賀ビル,,27,128,5410051,,,,,,,2021-11-11,1,,,,,アズミホウショク,0
1296,5140005025882,新規,0,2021-11-11,2021-11-11,サニーハイツ加古川団地管理組合法人,,その他の設立登記法人,兵庫県,加古川市,野口町長砂２０番地１,,28,210,6750016,,,,,,,2021-11-11,1,,,,,サニーハイツカコガワ,0
1300,5150001025092,新規,0,2021-11-11,2021-11-11,株式会社暁トレーディングジャパン,,株式会社,奈良県,大和郡山市,高田町３４５番地１,,29,203,6391132,,,,,,,2021-11-11,1,,,,,アカツキトレーディングジャパン,0
1309,5180001148683,新規,0,2021-11-11,2021-11-11,株式会社ＭＩＵユナイテッド,,株式会社,愛知県,名古屋市天白区,植田山４丁目１２１１番地,,23,116,4680001,,,,,,,2021-11-11,1,,,,,エムアイユーユナイテッド,0
1337,5240003005348,新規,0,2021-11-11,2021-11-11,合同会社ヒロコト,,合同会社,広島県,江田島市,沖美町是長９８２番地１,,34,215,7372313,,,,,,,2021-11-11,1,,,,,ヒロコト,0
1338,5240003005364,新規,0,2021-11-11,2021-11-11,チヅ合同会社,,合同会社,広島県,三次市,十日市東１丁目３番１号,,34,209,7280013,,,,,,,2021-11-11,1,,,,,チヅ,0
1339,5250005008703,新規,0,2021-11-11,2021-11-11,医療法人木原歯科医院,,その他の設立登記法人,山口県,下関市,秋根南町１丁目６番９号,,35,201,7510872,,,,,,,2021-11-11,1,,,,,キハラシカイイン,0
1341,5260001036194,新規,0,2021-11-11,2021-11-11,エムベース株式会社,,株式会社,岡山県,岡山市東区,瀬戸町万富９１４‐２,,33,103,7090841,,,,,,,2021-11-11,1,,,,,エムベース,0
1351,5290001095295,新規,0,2021-11-11,2021-11-11,株式会社みずうみデザイン室,,株式会社,福岡県,福岡市中央区,高砂１丁目７番１４号３０１号室,,40,133,8100011,,,,,,,2021-11-11,1,,,,,ミズウミデザインシツ,0
1360,5290003011820,新規,0,2021-11-11,2021-11-11,合同会社ｔｒｅｆｌｅ,,合同会社,福岡県,福岡市中央区,天神２丁目３番１０号天神パインクレスト７１９号,,40,133,8100001,,,,,,,2021-11-11,1,,,,,トレフル,0
1364,5320001018723,新規,0,2021-11-11,2021-11-11,Ｃ．Ｉ．エンジニア株式会社,,株式会社,大分県,大分市,高城新町１１番４－３０１号リビングハイツ高城Ｃ,,44,201,8700156,,,,,,,2021-11-11,1,,,,,シーアイエンジニア,0
1379,5360001029576,新規,0,2021-11-11,2021-11-11,介ホールディングス株式会社,,株式会社,沖縄県,豊見城市,字翁長８７番地,,47,212,9010223,,,,,,,2021-11-11,1,,,,,タスクホールディングス,0
1380,5360005006547,新規,0,2021-11-11,2021-11-11,税理士法人みやこ,,その他の設立登記法人,沖縄県,那覇市,小禄２丁目４番９号,,47,201,9010152,,,,,,,2021-11-11,1,,,,,ミヤコ,0
1388,5370001047817,新規,0,2021-11-11,2021-11-11,株式会社東北ケアラボ,,株式会社,宮城県,仙台市泉区,市名坂字楢町１７０－４サンクリスティ泉３０２,,04,105,9813117,,,,,,,2021-11-11,1,,,,,トウホクケアラボ,0
1389,5370003005475,新規,0,2021-11-11,2021-11-11,合同会社ＴＡＴＴＡ,,合同会社,宮城県,仙台市泉区,将監２丁目２番７号,,04,105,9813132,,,,,,,2021-11-11,1,,,,,タッタ,0
1398,5400001015654,新規,0,2021-11-11,2021-11-11,株式会社令和インベストメント,,株式会社,岩手県,紫波郡矢巾町,大字南矢幅第５地割９２番地５フローラボニータ１０５,,03,322,0283615,,,,,,,2021-11-11,1,,,,,レイワインベストメント,0
1399,5400003002857,新規,0,2021-11-11,2021-11-11,合同会社五兵衛,,合同会社,岩手県,滝沢市,穴口４１４番地１８,,03,216,0200633,,,,,,,2021-11-11,1,,,,,ゴヘエ,0
1400,5410001013013,新規,0,2021-11-11,2021-11-11,株式会社ウィズコム,,株式会社,秋田県,仙北郡美郷町,土崎字上野際７４番地５,,05,434,0191541,,,,,,,2021-11-11,1,,,,,ウィズコム,0
1406,5430001085364,新規,0,2021-11-11,2021-11-11,迦楽株式会社,,株式会社,北海道,恵庭市,島松東町４丁目２番１０号,,01,231,0611351,,,,,,,2021-11-11,1,,,,,カラク,0
1407,5430001085372,新規,0,2021-11-11,2021-11-11,株式会社川,,株式会社,北海道,札幌市中央区,北五条西１７丁目１３番地１レジデンスＮ５１７－２０２号,,01,101,0600005,,,,,,,2021-11-11,1,,,,,カワ,0
1414,5430003013348,新規,0,2021-11-11,2021-11-11,合同会社Ｓｍｉｌｅ　ｇｉｆｔ,,合同会社,北海道,札幌市中央区,宮の森三条２丁目５番６号,,01,101,0640953,,,,,,,2021-11-11,1,,,,,スマイルギフト,0
1420,5470003002074,新規,0,2021-11-11,2021-11-11,合同会社ホワイトリバー,,合同会社,香川県,高松市,亀岡町１９番８号,,37,201,7600006,,,,,,,2021-11-11,1,,,,,ホワイトリバー,0
1442,6010003036258,新規,0,2021-11-11,2021-11-11,ＶＣＳＢ合同会社,,合同会社,東京都,千代田区,内幸町２丁目２番２号富国生命ビル１８階ヤンセン外国法事務弁護士事務所内,,13,101,1000011,,,,,,,2021-11-11,1,,,,,ヴィーシーエスビー,0
1443,6010005034202,新規,0,2021-11-11,2021-11-11,一般社団法人ＡＩＭ医学研究所,,その他の設立登記法人,東京都,千代田区,内神田１丁目２番２号小川ビル９階,,13,101,1010047,,,,,,,2021-11-11,1,,,,,エーアイエムイガクケンキュウショ,0
1467,6010601060213,新規,0,2021-11-11,2021-11-11,アシックス・プレイシュア株式会社,,株式会社,東京都,江東区,新砂３丁目１番１８号,,13,108,1360075,,,,,,,2021-11-11,1,,,,,アシックスプレイシュア,0
1469,6010701041757,新規,0,2021-11-11,2021-11-11,株式会社ＲＯＨｎ,,株式会社,東京都,品川区,西五反田１丁目３０－４,,13,109,1410031,,,,,,,2021-11-11,1,,,,,ローン,0
1470,6010701041765,新規,0,2021-11-11,2021-11-11,ケーエヌエスコンサルティング株式会社,,株式会社,東京都,品川区,中延５丁目５番３号,,13,109,1420053,,,,,,,2021-11-11,1,,,,,ケーエヌエスコンサルティング,0
1476,6010901049773,新規,0,2021-11-11,2021-11-11,株式会社ＧｉＦＴ,,株式会社,東京都,世田谷区,大原１丁目１１－１５－４０１,,13,112,1560041,,,,,,,2021-11-11,1,,,,,ギフト,0
1480,6011001143822,新規,0,2021-11-11,2021-11-11,株式会社ＭＢＳ,,株式会社,東京都,渋谷区,神宮前６丁目２９番４号原宿ｋｏｍｉｙａビル６階,,13,113,1500001,,,,,,,2021-11-11,1,,,,,エムビーエス,0
1481,6011001143863,新規,0,2021-11-11,2021-11-11,株式会社Ｂ．Ｎｏｔｅ,,株式会社,東京都,渋谷区,神宮前６丁目２３番４号桑野ビル２階,,13,113,1500001,,,,,,,2021-11-11,1,,,,,ビーノート,0
1483,6011003013684,新規,0,2021-11-11,2021-11-11,合同会社ＣＯＭＩＰ,,合同会社,東京都,渋谷区,神宮前６丁目２３番４号桑野ビル２階,,13,113,1500001,,,,,,,2021-11-11,1,,,,,コミップ,0
1489,6011101096854,新規,0,2021-11-11,2021-11-11,三美株式会社,,株式会社,東京都,新宿区,新宿３丁目２０番５号,,13,104,1600022,,,,,,,2021-11-11,1,,,,,サンビ,0
1490,6011103011150,新規,0,2021-11-11,2021-11-11,合同会社ＳｕｎＱｕｅｓｔ,,合同会社,東京都,新宿区,西新宿３丁目３番地１３号,,13,104,1600023,,,,,,,2021-11-11,1,,,,,サンクエスト,0
1491,6011105010043,新規,0,2021-11-11,2021-11-11,一般社団法人日本推進カウンセラー協会,,その他の設立登記法人,東京都,新宿区,西新宿６丁目２０番７－３１０４号,,13,104,1600023,,,,,,,2021-11-11,1,,,,,ニホンスイシンカウンセラーキョウカイ,0
1492,6011203003683,新規,0,2021-11-11,2021-11-11,合同会社ＭＯＥＳＴＡ,,合同会社,東京都,中野区,中央４丁目５２番２号ＳＩＮ－Ｃｉｔｙ中野,,13,114,1640011,,,,,,,2021-11-11,1,,,,,モエスタ,0
1511,6012401038521,新規,0,2021-11-11,2021-11-11,株式会社トーシンパートナーズホールディングス,,株式会社,東京都,武蔵野市,吉祥寺本町１丁目３３番５号,,13,203,1800004,,,,,,,2021-11-11,1,,,,,トーシンパートナーズホールディングス,0
1512,6012701016763,新規,0,2021-11-11,2021-11-11,株式会社介音,,株式会社,東京都,小平市,御幸町１９３番地の２,,13,211,1870012,,,,,,,2021-11-11,1,,,,,カノン,0
1515,6013101008764,新規,0,2021-11-11,2021-11-11,株式会社ハピネスウェルビーイング,,株式会社,東京都,西多摩郡瑞穂町,南平２丁目４１番地６,,13,303,1901224,,,,,,,2021-11-11,1,,,,,ハピネスウェルビーイング,0
1521,6020001143848,新規,0,2021-11-11,2021-11-11,株式会社ベラフィーノ．結,,株式会社,神奈川県,横浜市神奈川区,広台太田町４番地２１－５階,,14,102,2210824,,,,,,,2021-11-11,1,,,,,,0
1523,6020003020789,新規,0,2021-11-11,2021-11-11,合同会社フーディーニ,,合同会社,神奈川県,横浜市港南区,大久保３丁目３５番１－２１０号,,14,111,2330007,,,,,,,2021-11-11,1,,,,,フーディーニ,0
1540,6030001145307,新規,0,2021-11-11,2021-11-11,株式会社アースワークス,,株式会社,埼玉県,熊谷市,万平町２丁目４番地１Ｍプラザ４熊谷２０２号,,11,202,3600034,,,,,,,2021-11-11,1,,,,,アースワークス,0
1544,6030003018304,新規,0,2021-11-11,2021-11-11,合同会社インフィニティマネジメント,,合同会社,埼玉県,川越市,大字今福７４１番地４０,,11,201,3501151,,,,,,,2021-11-11,1,,,,,インフィニティマネジメント,0
1545,6030005020621,新規,0,2021-11-11,2021-11-11,一般社団法人らしえる,,その他の設立登記法人,埼玉県,春日部市,小渕２２５番地,,11,214,3440007,,,,,,,2021-11-11,1,,,,,ラシエル,0
1559,6070003004291,新規,0,2021-11-11,2021-11-11,ワークウエアサポートＴ＆Ｆ合同会社,,合同会社,群馬県,高崎市,新町１７９４－３,,10,202,3701301,,,,,,,2021-11-11,1,,,,,ワークウエアサポートティーアンドエフ,0
1571,6090001017269,新規,0,2021-11-11,2021-11-11,株式会社ＬＩＦＥ　ＩＳ　ＯＮＣＥ,,株式会社,山梨県,中央市,若宮４４番地７,,19,214,4093803,,,,,,,2021-11-11,1,,,,,ライフイズワンス,0
1595,6120001241682,新規,0,2021-11-11,2021-11-11,株式会社ＥＳ医薬,,株式会社,大阪府,大阪市西淀川区,御幣島５丁目８番２８号,,27,113,5550012,,,,,,,2021-11-11,1,,,,,イーエスイヤク,0
1596,6120001241757,新規,0,2021-11-11,2021-11-11,株式会社ｈｅｅｒｅｅ,,株式会社,大阪府,大阪市天王寺区,上本町８丁目９番１９－２０３号,,27,109,5430001,,,,,,,2021-11-11,1,,,,,ヒーリー,0
1597,6120001241765,新規,0,2021-11-11,2021-11-11,株式会社ＴＥＲＲＡ,,株式会社,大阪府,大阪市東淀川区,豊新５丁目７番７－４０１号,,27,114,5330014,,,,,,,2021-11-11,1,,,,,テラ,0
1598,6120001241781,新規,0,2021-11-11,2021-11-11,禄喜發株式会社,,株式会社,大阪府,大阪市西成区,潮路１丁目１－３－４０３室,,27,122,5570052,,,,,,,2021-11-11,1,,,,,ロクキハツ,0
1600,6120101064637,新規,0,2021-11-11,2021-11-11,株式会社ＭＴＤ,,株式会社,大阪府,河内長野市,千代田台町４番３号,,27,216,5860027,,,,,,,2021-11-11,1,,,,,エムティーディー,0
1606,6122001035346,新規,0,2021-11-11,2021-11-11,株式会社輝工業,,株式会社,大阪府,東大阪市,若江東町６丁目３番８号,,27,227,5780935,,,,,,,2021-11-11,1,,,,,ヒカリコウギョウ,0
1615,6140001123796,新規,0,2021-11-11,2021-11-11,株式会社ＣＯＷＡＮＫＩＮ,,株式会社,兵庫県,神戸市北区,藤原台北町４丁目１５番１号,,28,109,6511301,,,,,,,2021-11-11,1,,,,,コワンキン,0
1616,6140001123813,新規,0,2021-11-11,2021-11-11,楽ジャンプ株式会社,,株式会社,兵庫県,神戸市須磨区,道正台１丁目３－６－１００３,,28,107,6540122,,,,,,,2021-11-11,1,,,,,レジャンプ,0
1623,6140003016965,新規,0,2021-11-11,2021-11-11,合同会社ハチイチ,,合同会社,兵庫県,尼崎市,次屋１丁目１５番７－１号ル・シエール次屋２０２,,28,202,6610965,,,,,,,2021-11-11,1,,,,,ハチイチ,0
1625,6150003002543,新規,0,2021-11-11,2021-11-11,合同会社こもれび,,合同会社,奈良県,橿原市,石川町６００番地,,29,205,6340045,,,,,,,2021-11-11,1,,,,,コモレビ,0
1635,6180301035622,新規,0,2021-11-11,2021-11-11,ＴＲＳ株式会社,,株式会社,愛知県,岡崎市,大平町字辻杉２６番地１ＫＦビル５０３号室,00124828,23,202,4440007,,,,,,,2021-11-11,1,,,,,ティーアールエス,0
1646,6230001019085,新規,0,2021-11-11,2021-11-11,池田工機株式会社,,株式会社,富山県,高岡市,戸出１６５０番地,,16,202,9330000,,,,,,,2021-11-11,1,,,,,,0
1663,6290001095360,新規,0,2021-11-11,2021-11-11,株式会社Ｒｅｐｋａ,,株式会社,福岡県,福岡市東区,筥松３丁目６－２８明石ビル１０１,,40,131,8120061,,,,,,,2021-11-11,1,,,,,レプカ,0
1664,6290001095369,新規,0,2021-11-11,2021-11-11,株式会社ｓｋｙ’ｓ　ｔｈｅ　ｌｉｍｉｔ,,株式会社,福岡県,福岡市博多区,空港前３丁目１１番１４号,,40,132,8120002,,,,,,,2021-11-11,1,,,,,スカイザリミット,0
1666,6290003011811,新規,0,2021-11-11,2021-11-11,大能ＢＭ発電所合同会社,,合同会社,福岡県,福岡市早良区,百道浜２丁目４番２７号ＡＩビル６Ｆ,,40,137,8140001,,,,,,,2021-11-11,1,,,,,オオノビーエムハツデンショ,0
1688,6400003002856,新規,0,2021-11-11,2021-11-11,玉川浜不動産管理合同会社,,合同会社,岩手県,九戸郡洋野町,種市第１２地割６１番地,,03,507,0287901,,,,,,,2021-11-11,1,,,,,タマガワハマフドウサンカンリ,0
1700,6430001085363,新規,0,2021-11-11,2021-11-11,株式会社ＪＴＳＨＤ,,株式会社,北海道,札幌市厚別区,下野幌テクノパーク１丁目２番８号,,01,108,0040015,,,,,,,2021-11-11,1,,,,,ジェイティーエスエイチディー,0
1701,6430001085371,新規,0,2021-11-11,2021-11-11,株式会社富美塗装興業,,株式会社,北海道,札幌市白石区,南郷通８丁目南３番８号,,01,104,0030022,,,,,,,2021-11-11,1,,,,,フミトソウコウギョウ,0
1732,7010003036265,新規,0,2021-11-11,2021-11-11,合同会社ＴＣ,,合同会社,東京都,中央区,銀座８丁目５番１８号,,13,102,1040061,,,,,,,2021-11-11,1,,,,,ティーシー,0
1747,7010401163768,新規,0,2021-11-11,2021-11-11,株式会社ＣＨＡＮＧＥ,,株式会社,東京都,港区,南青山２丁目２番１５号ウィン青山９４２,,13,103,1070062,,,,,,,2021-11-11,1,,,,,チェンジ,0
1748,7010401163792,新規,0,2021-11-11,2021-11-11,港リサーチ株式会社,,株式会社,東京都,港区,高輪１丁目１８番５号,,13,103,1080074,,,,,,,2021-11-11,1,,,,,ミナトリサーチ,0
1751,7010403026502,新規,0,2021-11-11,2021-11-11,合同会社ＯＲＩＯＮ,,合同会社,東京都,港区,赤坂１丁目１２番３２号アーク森ビル１３Ｆ,,13,103,1070052,,,,,,,2021-11-11,1,,,,,オリオン,0
1766,7010903006929,新規,0,2021-11-11,2021-11-11,合同会社ルーシーアンドココフィルム,,合同会社,東京都,世田谷区,奥沢６丁目１番９号金井宅,,13,112,1580083,,,,,,,2021-11-11,1,,,,,ルーシーアンドココフィルム,0
1773,7011001143862,新規,0,2021-11-11,2021-11-11,株式会社Ｙａｍａ,,株式会社,東京都,渋谷区,恵比寿１丁目２６番１９号カラコル５Ｂ１,,13,113,1500013,,,,,,,2021-11-11,1,,,,,ヤマ,0
1774,7011001143937,新規,0,2021-11-11,2021-11-11,株式会社梛,,株式会社,東京都,渋谷区,笹塚２丁目１２番１１号鶴ハイム笹塚５０２,,13,113,1510073,,,,,,,2021-11-11,1,,,,,ナギ,0
1778,7011005009283,新規,0,2021-11-11,2021-11-11,一般社団法人天然繊維循環国際協会,,その他の設立登記法人,東京都,渋谷区,神宮前３丁目１８番２２号,,13,113,1500001,,,,,,,2021-11-11,1,,,,,,0
1780,7011101096845,新規,0,2021-11-11,2021-11-11,小電株式会社,,株式会社,東京都,新宿区,西新宿１丁目２０－３西新宿高木ビル８Ｆ,00124826,13,104,1600023,,,,,,,2021-11-11,1,,,,,コデン,0
1782,7011105010042,新規,0,2021-11-11,2021-11-11,プライマリ社会保険労務士法人,,その他の設立登記法人,東京都,新宿区,西新宿１丁目３番３号品川ステーションビル新宿５１１号,,13,104,1600023,,,,,,,2021-11-11,1,,,,,プライマリ,0
1791,7012401038495,新規,0,2021-11-11,2021-11-11,株式会社だいくら,,株式会社,東京都,府中市,分梅町２丁目２番地の１０,,13,206,1830033,,,,,,,2021-11-11,1,,,,,ダイクラ,0
1793,7012405004667,新規,0,2021-11-11,2021-11-11,弁護士法人くすのき法律事務所,,その他の設立登記法人,東京都,調布市,小島町２丁目４５番地２２ワイズビル３０１,,13,208,1820026,,,,,,,2021-11-11,1,,,,,クスノキホウリツジムショ,0
1795,7012803002644,新規,0,2021-11-11,2021-11-11,比企の森ソーラー合同会社,,合同会社,東京都,国分寺市,南町３丁目２２番３１号島崎ビル３０１,,13,214,1850021,,,,,,,2021-11-11,1,,,,,ヒキノモリソーラー,0
1796,7013103001089,新規,0,2021-11-11,2021-11-11,合同会社デイドリーム,,合同会社,東京都,青梅市,長淵４丁目３４３番地の２,,13,205,1980052,,,,,,,2021-11-11,1,,,,,デイドリーム,0
1810,7020001143863,新規,0,2021-11-11,2021-11-11,株式会社ＡＬワークス,,株式会社,神奈川県,横浜市鶴見区,生麦３丁目１０―３－３Ｆ,,14,101,2300052,,,,,,,2021-11-11,1,,,,,エーエルワークス,0
1811,7020001143871,新規,0,2021-11-11,2021-11-11,株式会社ユーエムエス,,株式会社,神奈川県,横浜市神奈川区,青木町６番地１６ライオンズ横濱マークレジデンス１１０５号,,14,102,2210057,,,,,,,2021-11-11,1,,,,,ユーエムエス,0
1833,7030001144984,新規,0,2021-11-11,2021-11-11,＿隆株式会社,00124825,株式会社,埼玉県,南埼玉郡宮代町,本田５丁目８番２１号四季ハイツ２０３号室,,11,442,3450827,,,,,,,2021-11-11,1,,,,,シンリュウ,0
1838,7030005020629,新規,0,2021-11-11,2021-11-11,一般社団法人チームアダプテーション,,その他の設立登記法人,埼玉県,吉川市,美南２丁目２４番地１・５２８号室,,11,243,3420038,,,,,,,2021-11-11,1,,,,,チームアダプテーション,0
1860,7090001017268,新規,0,2021-11-11,2021-11-11,株式会社ＲＹＵＪＩＮ,,株式会社,山梨県,笛吹市,石和町松本３９番地,,19,211,4060021,,,,,,,2021-11-11,1,,,,,リュウジン,0
1862,7100001034807,新規,0,2021-11-11,2021-11-11,株式会社地平線,,株式会社,長野県,松本市,桐３丁目１番１９号,,20,202,3900871,,,,,,,2021-11-11,1,,,,,チヘイセン,0
1888,7120001241525,新規,0,2021-11-11,2021-11-11,株式会社Ｌｕｃｉｄ　Ｍａｎａｇｅｍｅｎｔ,,株式会社,大阪府,大阪市天王寺区,筆ケ崎町５番３８－４０２号,,27,109,5430027,,,,,,,2021-11-11,1,,,,,ルシッドマネージメント,0
1889,7120001241681,新規,0,2021-11-11,2021-11-11,株式会社ＪＥ医薬,,株式会社,大阪府,大阪市西淀川区,御幣島５丁目８番２８号,,27,113,5550012,,,,,,,2021-11-11,1,,,,,ジェイイーイヤク,0
1890,7120001241764,新規,0,2021-11-11,2021-11-11,株式会社ＣＨＣＰ－ＨＮ２,,株式会社,大阪府,大阪市北区,堂島浜１丁目４番４号アクア堂島東館,,27,127,5300004,,,,,,,2021-11-11,1,,,,,シーエイチシーピーエイチエヌツー,0
1910,7130001070510,新規,0,2021-11-11,2021-11-11,株式会社Ｓａｕｎｔｅｒ,,株式会社,京都府,京都市下京区,綾小路通御幸町下ル足袋屋町３３０－３,,26,106,6000000,,,,,,,2021-11-11,1,,,,,サウンター,0
1911,7130001070519,新規,0,2021-11-11,2021-11-11,株式会社キノ・パートナーズ,,株式会社,京都府,京都市中京区,西ノ京南円町１３５番地コーポ円座２０７号,,26,104,6048464,,,,,,,2021-11-11,1,,,,,キノパートナーズ,0
1915,7140001123820,新規,0,2021-11-11,2021-11-11,株式会社ＣＨＮ,,株式会社,兵庫県,宝塚市,青葉台１丁目１８番２３号,,28,214,6650014,,,,,,,2021-11-11,1,,,,,シーエイチエヌ,0
1918,7140003016964,新規,0,2021-11-11,2021-11-11,合同会社結珠,,合同会社,兵庫県,芦屋市,東山町１１番３７号,,28,206,6590091,,,,,,,2021-11-11,1,,,,,ユジュ,0
1920,7150001025090,新規,0,2021-11-11,2021-11-11,株式会社暁ホールディングス,,株式会社,奈良県,大和郡山市,高田町３４５番地１,,29,203,6391132,,,,,,,2021-11-11,1,,,,,アカツキホールディングス,0
1921,7150003002542,新規,0,2021-11-11,2021-11-11,合同会社ピースオブソサエティ,,合同会社,奈良県,奈良市,中登美ヶ丘６丁目１３番１－３０１号,,29,201,6310003,,,,,,,2021-11-11,1,,,,,ピースオブソサエティ,0
1930,7180001148698,新規,0,2021-11-11,2021-11-11,株式会社ＯＴＥＣ,,株式会社,愛知県,稲沢市,堀之内町大門１５４２番地３,,23,220,4928405,,,,,,,2021-11-11,1,,,,,オーテック,0
1937,7180005019508,新規,0,2021-11-11,2021-11-11,土地家屋調査士法人白壁事務所,,その他の設立登記法人,愛知県,名古屋市東区,白壁１丁目４５番地,,23,102,4610011,,,,,,,2021-11-11,1,,,,,シラカベジムショ,0
1949,7200003005374,新規,0,2021-11-11,2021-11-11,合同会社フューチャーワークス,,合同会社,岐阜県,高山市,松本町４１８番地６,,21,203,5060808,,,,,,,2021-11-11,1,,,,,フューチャーワークス,0
1978,7290005018416,新規,0,2021-11-11,2021-11-11,一般社団法人ｐａｔｉｎａ,,その他の設立登記法人,福岡県,福岡市中央区,今泉１丁目２－８－２Ｆ号,,40,133,8100021,,,,,,,2021-11-11,1,,,,,パティーナ,0
1983,7300001012701,新規,0,2021-11-11,2021-11-11,株式会社ととのい,,株式会社,佐賀県,伊万里市,黒川町塩屋２１１番地１,,41,205,8480121,,,,,,,2021-11-11,1,,,,,トトノイ,0
1987,7330003009115,新規,0,2021-11-11,2021-11-11,合同会社まーち,,合同会社,熊本県,玉名市,横島町横島３０２９番地,,43,206,8650072,,,,,,,2021-11-11,1,,,,,マーチ,0
1989,7340001024263,新規,0,2021-11-11,2021-11-11,株式会社笑瑠,,株式会社,鹿児島県,鹿児島市,鴨池１丁目４１番１５号,,46,201,8900063,,,,,,,2021-11-11,1,,,,,エル,0
1991,7340003003620,新規,0,2021-11-11,2021-11-11,合同会社九州トラベルステーション鹿児島,,合同会社,鹿児島県,霧島市,牧園町高千穂３２８５番地２５,,46,218,8996603,,,,,,,2021-11-11,1,,,,,,0
1993,7360001029608,新規,0,2021-11-11,2021-11-11,株式会社沖縄ゴールドクラブ,,株式会社,沖縄県,島尻郡久米島町,字比嘉１６３－１,,47,361,9013108,,,,,,,2021-11-11,1,,,,,,0
1995,7370001047823,新規,0,2021-11-11,2021-11-11,株式会社ＮＥＸＳＴＥＲ,,株式会社,宮城県,仙台市宮城野区,鉄砲町東４番地１タウンイーストガン１０１,,04,102,9830867,,,,,,,2021-11-11,1,,,,,ネクスター,0
2001,7400001015669,新規,0,2021-11-11,2021-11-11,株式会社セキュリティーワークス,,株式会社,岩手県,盛岡市,向中野字鶴子６番地１,,03,201,0200851,,,,,,,2021-11-11,1,,,,,セキュリティーワークス,0
2020,7700150105711,新規,0,2021-11-11,2021-11-11,Ｃｈｉｂａ　Ｍｏｔｏｒｓ,,外国会社等,千葉県,袖ケ浦市,蔵波２９３２番地,,12,229,2990243,スリランカ民主社会主義共和国、キャンディ、マダワラバザール、ワッテガマロード、３２Ａ１,,,,,,2021-11-11,1,,,,,チバモータース,0
2032,8010001222411,新規,0,2021-11-11,2021-11-11,株式会社プラヴァ・フロンティア,,株式会社,東京都,中央区,銀座７丁目１５番８号タウンハイツ銀座４０６,,13,102,1040061,,,,,,,2021-11-11,1,,,,,プラヴァフロンティア,0
2033,8010001222428,新規,0,2021-11-11,2021-11-11,ｅ－ｇｒｏｕｐ株式会社,,株式会社,東京都,中央区,銀座１丁目２２番１号銀座タワー１２０３,,13,102,1040061,,,,,,,2021-11-11,1,,,,,イーグループ,0
2052,8010403026501,新規,0,2021-11-11,2021-11-11,合同会社メディカルサービス,,合同会社,東京都,港区,赤坂１丁目１２番３２号アーク森ビル１３Ｆ,,13,103,1070052,,,,,,,2021-11-11,1,,,,,メディカルサービス,0
2059,8010405020403,新規,0,2021-11-11,2021-11-11,エムユーエム一般社団法人,,その他の設立登記法人,東京都,港区,西新橋１丁目２番９号メンターキャピタル税理士法人内,,13,103,1050003,,,,,,,2021-11-11,1,,,,,エムユーエム,0
2074,8010901049763,新規,0,2021-11-11,2021-11-11,株式会社根日屋,,株式会社,東京都,世田谷区,北烏山３丁目３－１０,,13,112,1570061,,,,,,,2021-11-11,1,,,,,ネビヤ,0
2089,8011101096852,新規,0,2021-11-11,2021-11-11,株式会社大成,,株式会社,東京都,新宿区,富久町１２番１－１１０４号,,13,104,1620067,,,,,,,2021-11-11,1,,,,,,0
2091,8011205002459,新規,0,2021-11-11,2021-11-11,一般社団法人クロスオーバーキャリア,,その他の設立登記法人,東京都,中野区,東中野２丁目１７番１４号,,13,114,1640003,,,,,,,2021-11-11,1,,,,,クロスオーバーキャリア,0
2093,8011503004966,新規,0,2021-11-11,2021-11-11,合同会社Ｓｃｏｌｌｅ,,合同会社,東京都,荒川区,西日暮里１丁目４０番８－４０６号,,13,118,1160013,,,,,,,2021-11-11,1,,,,,エスコレ,0
2101,8011701024832,新規,0,2021-11-11,2021-11-11,徳興株式会社,,株式会社,東京都,江戸川区,上一色２丁目１５番１号,,13,123,1330041,,,,,,,2021-11-11,1,,,,,トクコウ,0
2102,8011703002992,新規,0,2021-11-11,2021-11-11,合同会社ととと,,合同会社,東京都,江戸川区,中葛西７丁目１８番３号,,13,123,1340083,,,,,,,2021-11-11,1,,,,,トトト,0
2104,8012303001609,新規,0,2021-11-11,2021-11-11,Ｃｉｅｌ合同会社,,合同会社,東京都,町田市,野津田町３７２９－７,,13,209,1950063,,,,,,,2021-11-11,1,,,,,シエル,0
2107,8012403005096,新規,0,2021-11-11,2021-11-11,合同会社緑のゆび,,合同会社,東京都,武蔵野市,吉祥寺本町４丁目１－３,,13,203,1800004,,,,,,,2021-11-11,1,,,,,ミドリノユビ,0
2113,8012803002635,新規,0,2021-11-11,2021-11-11,合同会社ベルロード,,合同会社,東京都,東大和市,湖畔１丁目１０４３－４５,,13,220,2070002,,,,,,,2021-11-11,1,,,,,ベルロード,0
2146,8030001145271,新規,0,2021-11-11,2021-11-11,株式会社シンエイパートナー,,株式会社,埼玉県,さいたま市南区,辻５丁目６－１２－３１４,00124829,11,108,3360026,,,,,,,2021-11-11,1,,,,,シンエイパートナー,0
2147,8030001145305,新規,0,2021-11-11,2021-11-11,株式会社ＡＬＭＡ,,株式会社,埼玉県,川口市,大字安行北谷６３７番地の４,,11,203,3340054,,,,,,,2021-11-11,1,,,,,アルマ,0
2155,8030003018302,新規,0,2021-11-11,2021-11-11,ＤｉｎｏＪａｐａｎ合同会社,,合同会社,埼玉県,上尾市,大字小敷谷９８２－６－１Ｆ,,11,219,3620064,,,,,,,2021-11-11,1,,,,,ディノジャパン,0
2157,8030005020628,新規,0,2021-11-11,2021-11-11,行政書士法人ムサシ,,その他の設立登記法人,埼玉県,川口市,上青木５丁目６番８号２Ｆ,,11,203,3330844,,,,,,,2021-11-11,1,,,,,ムサシ,0
2161,8040001120934,新規,0,2021-11-11,2021-11-11,株式会社雅産商,,株式会社,千葉県,柏市,逆井３丁目２２番１２－６０３号,,12,217,2770042,,,,,,,2021-11-11,1,,,,,ミヤビサンショウ,0
2162,8040001120959,新規,0,2021-11-11,2021-11-11,株式会社富山,,株式会社,千葉県,市川市,欠真間２丁目１番２１号,,12,203,2720142,,,,,,,2021-11-11,1,,,,,トヤマ,0
2163,8040001120967,新規,0,2021-11-11,2021-11-11,株式会社英電工,,株式会社,千葉県,松戸市,牧の原２丁目１５２番地の１リヴェール牧の原２０１号,,12,207,2702267,,,,,,,2021-11-11,1,,,,,エイデンコウ,0
2176,8090005007446,新規,0,2021-11-11,2021-11-11,特定非営利活動法人ママカフェ親教室,,その他の設立登記法人,山梨県,中央市,西花輪３４３０番地２６,,19,214,4093843,,,,,,,2021-11-11,1,,,,,ママカフェオヤキョウシツ,0
2177,8100001034806,新規,0,2021-11-11,2021-11-11,株式会社ＴＬＨＨ,,株式会社,長野県,松本市,中央１丁目２番２０号,,20,202,3900811,,,,,,,2021-11-11,1,,,,,ティーエルエイチツー,0
2191,8120001241490,新規,0,2021-11-11,2021-11-11,株式会社ＬＡＢＯＲＳ,,株式会社,大阪府,大阪市北区,梅田１丁目１番３号大阪駅前第３ビル２３０７,,27,127,5300001,,,,,,,2021-11-11,1,,,,,レイバース,0
2205,8130001070518,新規,0,2021-11-11,2021-11-11,株式会社フジヤマトラスト,,株式会社,京都府,京都市伏見区,深草中ノ島町３８－３１,,26,109,6120049,,,,,,,2021-11-11,1,,,,,フジヤマトラスト,0
2206,8130001070526,新規,0,2021-11-11,2021-11-11,承芸堂株式会社,,株式会社,京都府,京都市中京区,烏丸通三条東入ル梅忠町２４番地三条ＣＯＨＪＵビル４階,,26,104,6040000,,,,,,,2021-11-11,1,,,,,ショウゲイドウ,0
2214,8140001123761,新規,0,2021-11-11,2021-11-11,株式会社ブレインズサークルＮ,,株式会社,兵庫県,神戸市東灘区,鴨子ケ原１丁目７番５号,,28,101,6580064,,,,,,,2021-11-11,1,,,,,ブレインズサークルエヌ,0
2215,8140001123803,新規,0,2021-11-11,2021-11-11,株式会社Ｃｏｎｔｉｇｏ　Ｃｏｎｍｉｇｏ,,株式会社,兵庫県,西宮市,甲子園浦風町７番７－２０５号,,28,204,6638165,,,,,,,2021-11-11,1,,,,,コンティーゴコンミーゴ,0
2222,8150003002541,新規,0,2021-11-11,2021-11-11,合同会社ユニバース,,合同会社,奈良県,奈良市,あやめ池南１丁目８番１４号,,29,201,6310033,,,,,,,2021-11-11,1,,,,,ユニバース,0
2225,8170003001657,新規,0,2021-11-11,2021-11-11,ネクスト合同会社,,合同会社,和歌山県,岩出市,東坂本３８番地グリーンフル梅田２１３号,,30,209,6496211,,,,,,,2021-11-11,1,,,,,ネクスト,0
2245,8200003005373,新規,0,2021-11-11,2021-11-11,合同会社フラワー調剤薬局,,合同会社,岐阜県,岐阜市,福光東３丁目９番１１号,,21,201,5020813,,,,,,,2021-11-11,1,,,,,フラワーチョウザイヤッキョク,0
2254,8250001008092,新規,0,2021-11-11,2021-11-11,株式会社みなとや,,株式会社,山口県,萩市,大字東田町１４３番地,,35,204,7580047,,,,,,,2021-11-11,1,,,,,ミナトヤ,0
2255,8250001019255,新規,0,2021-11-11,2021-11-11,株式会社やまのわ,,株式会社,山口県,山口市,中市町３－８マルシェ中市,,35,203,7530086,,,,,,,2021-11-11,1,,,,,ヤマノワ,0
2256,8260005010993,新規,0,2021-11-11,2021-11-11,ワールドステージ協同組合,,その他の設立登記法人,岡山県,岡山市中区,雄町４４８番地の１４,,33,102,7038204,,,,,,,2021-11-11,1,,,,,ワールドステージ,0
2259,8270003001366,新規,0,2021-11-11,2021-11-11,合同会社望,,合同会社,鳥取県,米子市,和田町２００２番地１,,31,202,6830102,,,,,,,2021-11-11,1,,,,,ノゾミ,0
2263,8290001095367,新規,0,2021-11-11,2021-11-11,株式会社Ａｒｔｉｓｔｉｃ　Ｅｎｔｅｒｔａｉｎｍｅｎｔ,,株式会社,福岡県,福岡市中央区,天神３丁目６－２３－２０２,,40,133,8100001,,,,,,,2021-11-11,1,,,,,アーティスティックエンターテインメント,0
2266,8290803003980,新規,0,2021-11-11,2021-11-11,合同会社ノーエン,,合同会社,福岡県,北九州市若松区,ひびきの南２丁目１０番２７号（Ｋ棟１０１）,,40,103,8080137,,,,,,,2021-11-11,1,,,,,ノーエン,0
2268,8310003004208,新規,0,2021-11-11,2021-11-11,合同会社ほのぼのプラス,,合同会社,長崎県,西彼杵郡時津町,久留里郷３０１番地７,,42,308,8512107,,,,,,,2021-11-11,1,,,,,ホノボノプラス,0
2282,8390001016676,新規,0,2021-11-11,2021-11-11,トータルネットワークシステム株式会社,,株式会社,山形県,山形市,飯田５丁目５‐１３,,06,201,9902332,,,,,,,2021-11-11,1,,,,,トータルネットワークシステム,0
2283,8400001015651,新規,0,2021-11-11,2021-11-11,株式会社Ｓａｌｏｎ　ｄｅ　Ｂｅｒｒｙ,,株式会社,岩手県,盛岡市,大通１丁目５番１８クレッセントビル４Ｆ,,03,201,0200022,,,,,,,2021-11-11,1,,,,,サロンデベリー,0
2284,8400001015668,新規,0,2021-11-11,2021-11-11,株式会社安比ラグジュアリーホテル,,株式会社,岩手県,八幡平市,安比高原１１７番地４６,,03,214,0287306,,,,,,,2021-11-11,1,,,,,アッピラグジュアリーホテル,0
2299,8450001013527,新規,0,2021-11-11,2021-11-11,株式会社でこぼこ,,株式会社,北海道,旭川市,豊岡十三条６丁目３番１８号ＯＣＴＡＩＩ２０３号,00124836,01,204,0788243,,,,,,,2021-11-11,1,,,,,デコボコ,0
2314,9010001222402,新規,0,2021-11-11,2021-11-11,日本第一三共医機株式会社,,株式会社,東京都,中央区,勝どき５丁目１２番４－１２０３号,,13,102,1040054,,,,,,,2021-11-11,1,,,,,ニホンダイイチサンキョウイキ,0
2315,9010001222410,新規,0,2021-11-11,2021-11-11,株式会社ＯＫＩＫＡＴＡ,,株式会社,東京都,中央区,新川１丁目３番２１号,,13,102,1040033,,,,,,,2021-11-11,1,,,,,オキカタ,0
2317,9010003036271,新規,0,2021-11-11,2021-11-11,合同会社ロジプロ２１０１,,合同会社,東京都,中央区,日本橋茅場町１丁目３番７号千代田ビル６階,,13,102,1030025,,,,,,,2021-11-11,1,,,,,ロジプロニイチゼロイチ,0
2333,9010401163790,新規,0,2021-11-11,2021-11-11,株式会社宣,,株式会社,東京都,港区,浜松町２丁目２番１５号浜松町ダイヤビル２Ｆ,,13,103,1050013,,,,,,,2021-11-11,1,,,,,ノブ,0
2335,9010405020377,新規,0,2021-11-11,2021-11-11,一般社団法人ＳＵＮＮＹ,,その他の設立登記法人,東京都,港区,麻布十番４丁目１番９号エムビル７Ｆ,,13,103,1060045,,,,,,,2021-11-11,1,,,,,サニー,0
2339,9010603009247,新規,0,2021-11-11,2021-11-11,かけほ合同会社,,合同会社,東京都,江東区,豊洲６丁目２番３１－３６２０号,,13,108,1350061,,,,,,,2021-11-11,1,,,,,カケホ,0
2344,9011001143720,新規,0,2021-11-11,2021-11-11,株式会社ＦＬＯＴＯ,,株式会社,東京都,渋谷区,神宮前６丁目２３番４号桑野ビル２階,,13,113,1500001,,,,,,,2021-11-11,1,,,,,フロート,0
2345,9011001143844,新規,0,2021-11-11,2021-11-11,恵比寿マルコ株式会社,,株式会社,東京都,渋谷区,恵比寿西１丁目８番１号,,13,113,1500021,,,,,,,2021-11-11,1,,,,,エビスマルコ,0
2346,9011001143902,新規,0,2021-11-11,2021-11-11,株式会社パノラボ,,株式会社,東京都,渋谷区,鶯谷町３－１ＳＵビル２０２,,13,113,1500032,,,,,,,2021-11-11,1,,,,,パノラボ,0
2347,9011003013681,新規,0,2021-11-11,2021-11-11,ＤＫＰＦ合同会社,,合同会社,東京都,渋谷区,円山町五番５号Ｎａｖｉ渋谷Ｖ３階,,13,113,1500044,,,,,,,2021-11-11,1,,,,,ディーケーピーエフ,0
2348,9011003013707,新規,0,2021-11-11,2021-11-11,タン・タバコ・ジャパン合同会社,,合同会社,東京都,渋谷区,恵比寿４丁目３番５号７０４号室アークアウトソーシング株式会社内,,13,113,1500013,,,,,,,2021-11-11,1,,,,,タンタバコジャパン,0
2355,9011101096868,新規,0,2021-11-11,2021-11-11,株式会社ＡＶＡＮＴ,,株式会社,東京都,新宿区,西新宿５丁目５番１号,,13,104,1600023,,,,,,,2021-11-11,1,,,,,アヴァント,0
2358,9011301027326,新規,0,2021-11-11,2021-11-11,日本森田製薬研究院株式会社,,株式会社,東京都,杉並区,天沼２丁目７番７号マンション大竹３０１,,13,115,1670032,,,,,,,2021-11-11,1,,,,,ニホンモリタセイヤクケンキュウイン,0
2367,9011803004863,新規,0,2021-11-11,2021-11-11,合同会社キャリコシステム,,合同会社,東京都,足立区,千住元町２０番３号,,13,121,1200041,,,,,,,2021-11-11,1,,,,,キャリコシステム,0
2368,9012303001608,新規,0,2021-11-11,2021-11-11,コネクティング・アイ合同会社,,合同会社,東京都,町田市,本町田３４５０－１１４,,13,209,1940032,,,,,,,2021-11-11,1,,,,,コネクティングアイ,0
2371,9012803002634,新規,0,2021-11-11,2021-11-11,鹿沢合同会社,,合同会社,東京都,立川市,富士見町２丁目１０－９ニュー横井３０２号室,,13,202,1900013,,,,,,,2021-11-11,1,,,,,シカサワ,0
2385,9020001143861,新規,0,2021-11-11,2021-11-11,株式会社ワイズ不動産,,株式会社,神奈川県,横浜市青葉区,しらとり台２番地２３アンコンフォール２０１,,14,117,2270054,,,,,,,2021-11-11,1,,,,,ワイズフドウサン,0
2386,9020001143878,新規,0,2021-11-11,2021-11-11,株式会社Ａｎｔ．,,株式会社,神奈川県,横浜市神奈川区,羽沢南１丁目３２番１４号,,14,102,2210866,,,,,,,2021-11-11,1,,,,,アント,0
2407,9030001145279,新規,0,2021-11-11,2021-11-11,内田興業株式会社,,株式会社,埼玉県,熊谷市,玉井４丁目５５番地２,,11,202,3600853,,,,,,,2021-11-11,1,,,,,ウチダコウギョウ,0
2408,9030001145304,新規,0,2021-11-11,2021-11-11,株式会社Ｈｅａｒｔ　Ｃｉｔｙ,,株式会社,埼玉県,さいたま市南区,文蔵４丁目２６－３,,11,108,3360025,,,,,,,2021-11-11,1,,,,,ハートシティ,0
2416,9040001120958,新規,0,2021-11-11,2021-11-11,株式会社Ｍ＆Ｍ,,株式会社,千葉県,柏市,しいの木台３丁目１番地３,,12,217,2770945,,,,,,,2021-11-11,1,,,,,エムアンドエム,0
2420,9040003018894,新規,0,2021-11-11,2021-11-11,合同会社長江産業,,合同会社,千葉県,千葉市中央区,栄町３２－１２野村ビル１０１,,12,101,2600016,,,,,,,2021-11-11,1,,,,,チョウコウサンギョウ,0
2440,9080101022902,新規,0,2021-11-11,2021-11-11,株式会社ＥＶＯＬＦＵＮ,,株式会社,静岡県,伊東市,岡１３７４番地の２６８,,22,208,4140055,,,,,,,2021-11-11,1,,,,,エボルファン,0
2441,9080101022910,新規,0,2021-11-11,2021-11-11,株式会社熱海Ｄｏｕｇｈｎｕｔ　Ｃａｊｕｌｅ　ｃａｆｅ,,株式会社,静岡県,熱海市,清水町５番９号,,22,205,4130021,,,,,,,2021-11-11,1,,,,,アタミドーナツカジュールカフェ,0
2446,9080401025464,新規,0,2021-11-11,2021-11-11,株式会社はなしらゆり,,株式会社,静岡県,御前崎市,佐倉４９１９番地の１,,22,223,4371604,,,,,,,2021-11-11,1,,,,,ハナシラユリ,0
2451,9110001036180,新規,0,2021-11-11,2021-11-11,Ｐｏｗｄｅｒｈｏｍｅ株式会社,,株式会社,新潟県,妙高市,大字関山６０８７番地１９,,15,217,9492235,,,,,,,2021-11-11,1,,,,,パウダーホーム,0
2463,9120001241663,新規,0,2021-11-11,2021-11-11,ｅｌｅｖｅｎ株式会社,,株式会社,大阪府,大阪市鶴見区,諸口６丁目６番６－２０８号,,27,124,5380051,,,,,,,2021-11-11,1,,,,,イレブン,0
2464,9120001241688,新規,0,2021-11-11,2021-11-11,株式会社ビラクス,,株式会社,大阪府,大阪市都島区,都島本通１丁目４番２０号,,27,102,5340021,,,,,,,2021-11-11,1,,,,,ビラクス,0
2465,9120001241705,新規,0,2021-11-11,2021-11-11,江山株式会社,,株式会社,大阪府,大阪市城東区,蒲生３丁目１５番１２号セザンヌ藤５０４Ｂ,,27,118,5360016,,,,,,,2021-11-11,1,,,,,コウザン,0
2470,9120005022606,新規,0,2021-11-11,2021-11-11,司法書士法人木村事務所,,その他の設立登記法人,大阪府,大阪市中央区,平野町２丁目２番１２号,,27,128,5410046,,,,,,,2021-11-11,1,,,,,キムラジムショ,0
2482,9140001123785,新規,0,2021-11-11,2021-11-11,ビギナー株式会社,,株式会社,兵庫県,尼崎市,西長洲町２丁目３６－７,,28,202,6600805,,,,,,,2021-11-11,1,,,,,ビギナー,0
2483,9140001123827,新規,0,2021-11-11,2021-11-11,株式会社Ｓｕｍｏｒｉｖａ,,株式会社,兵庫県,西宮市,甲陽園本庄町９番１３－２０３号,,28,204,6620015,,,,,,,2021-11-11,1,,,,,スモリバ,0
2497,9160001023802,新規,0,2021-11-11,2021-11-11,滋賀フィールド株式会社,,株式会社,滋賀県,大津市,末広町４番２７号,,25,201,5200056,,,,,,,2021-11-11,1,,,,,シガフィールド,0
2518,9200001039397,新規,0,2021-11-11,2021-11-11,株式会社愛岐ホールディングス,,株式会社,岐阜県,可児市,長坂５丁目１１０番地,,21,214,5090257,,,,,,,2021-11-11,1,,,,,アイギホールディングス,0
2524,9230001019090,新規,0,2021-11-11,2021-11-11,株式会社ＡＺ　ＢＯＵＥＫＩ　ＪＡＰＡＮ,,株式会社,富山県,射水市,堀岡明神新９番地４,,16,211,9330228,,,,,,,2021-11-11,1,,,,,エイゼットボウエキジャパン,0
2541,9290003011825,新規,0,2021-11-11,2021-11-11,ラクオル合同会社,,合同会社,福岡県,福岡市中央区,天神２丁目３番１０号天神パインクレスト７１９号,,40,133,8100001,,,,,,,2021-11-11,1,,,,,ラクオル,0
2542,9290005018422,新規,0,2021-11-11,2021-11-11,協同組合ＹＧグループ,,その他の設立登記法人,福岡県,柳川市,西浜武４７５番地の２,,40,207,8320081,,,,,,,2021-11-11,1,,,,,ワイジーグループ,0
2549,9310003004207,新規,0,2021-11-11,2021-11-11,エイトリンクス合同会社,,合同会社,長崎県,長崎市,畦町８７２番地２,,42,201,8512201,,,,,,,2021-11-11,1,,,,,エイトリンクス,0
2554,9320003003653,新規,0,2021-11-11,2021-11-11,合同会社ＨＳ,,合同会社,大分県,由布市,挾間町北方１４７番地１ユーミーハサマ２０２,,44,213,8795518,,,,,,,2021-11-11,1,,,,,エイチエス,0
2560,9350001017388,新規,0,2021-11-11,2021-11-11,ＡＧＲＩＳＴ　ＦＡＲＭ株式会社,,株式会社,宮崎県,児湯郡新富町,富田東１丁目４７番地１,,45,402,8891412,,,,,,,2021-11-11,1,,,,,アグリストファーム,0
2581,9430001085369,新規,0,2021-11-11,2021-11-11,ネクストシグナル株式会社,,株式会社,北海道,札幌市南区,川沿八条２丁目４番８号,,01,106,0050808,,,,,,,2021-11-11,1,,,,,ネクストシグナル,0
2583,9430003013344,新規,0,2021-11-11,2021-11-11,合同会社徳丸工業,,合同会社,北海道,小樽市,相生町９番１号,,01,203,0470028,,,,,,,2021-11-11,1,,,,,トクマルコウギョウ,0
2584,9430003013352,新規,0,2021-11-11,2021-11-11,合同会社さくら,,合同会社,北海道,札幌市清田区,清田六条４丁目１１番８号,,01,110,0040846,,,,,,,2021-11-11,1,,,,,サクラ,0
