sequenceNumber,corporateNumber,process,correct,updateDate,changeDate,name,nameImageId,kind,prefectureName,cityName,streetNumber,addressImageId,prefectureCode,cityCode,postCode,addressOutside,addressOutsideImageId,closeDate,closeCause,successorCorporateNumber,changeCause,assignmentDate,latest,enName,enPrefectureName,enCityName,enAddressOutside,furigana,hihyoji
2,1010001077564,登記記録の閉鎖等,0,2022-08-18,2022-08-04,株式会社Ｆｒｅｉ,,株式会社,東京都,中央区,日本橋横山町３番１３号,,13,102,1030003,,,2022-08-04,清算の結了等,,,2015-10-05,1,,,,,フライ,0
36,1010502014371,登記記録の閉鎖等,0,2022-08-18,2022-08-17,有限会社日本エスクローセンター,,有限会社,東京都,台東区,上野５丁目５番８号,,13,106,1100005,,,2022-08-17,清算の結了等,,,2015-10-05,1,,,,,ニホンエスクローセンター,0
39,1010601057412,登記記録の閉鎖等,0,2022-08-18,2022-08-10,株式会社ｂｌｕｅ,,株式会社,東京都,江東区,東陽２丁目４番３４号,,13,108,1350016,,,2022-08-10,清算の結了等,,,2020-06-01,1,,,,,ブルー,0
46,1011101049230,登記記録の閉鎖等,0,2022-08-18,2022-08-16,株式会社健雄社,,株式会社,東京都,新宿区,百人町１丁目２１番１－１０５号,,13,104,1690073,,,2022-08-16,清算の結了等,,,2015-10-05,1,,,,,ケンユウシャ,0
68,1012301011905,登記記録の閉鎖等,0,2022-08-18,2022-08-15,株式会社和僑県央,,株式会社,東京都,町田市,原町田６丁目８番１号,,13,209,1940013,,,2022-08-15,合併による解散等,1021001018755,令和４年７月１日神奈川県相模原市緑区橋本三丁目２９番６号株式会社和僑（1021001018755）に合併し解散,2019-11-08,1,,,,,ワキョウケンオウ,0
69,1012401001054,登記記録の閉鎖等,0,2022-08-18,2022-08-16,鶴田機材株式会社,,株式会社,東京都,府中市,若松町２丁目１３番１０,,13,206,1830005,,,2022-08-16,清算の結了等,,,2015-10-05,1,,,,,ツルタキザイ,0
145,1120101057810,登記記録の閉鎖等,0,2022-08-18,2022-08-15,エイチワークス株式会社,,株式会社,大阪府,堺市北区,南花田町３８１番地１,,27,146,5918011,,,2022-08-15,合併による解散等,5010401076220,令和４年８月１日東京都墨田区石原三丁目２番３号株式会社玉光堂（5010401076220）に合併し解散,2018-02-20,1,,,,,エイチワークス,0
156,1130002034206,登記記録の閉鎖等,0,2022-08-18,2022-08-10,有限会社太田総合事務所,,有限会社,京都府,舞鶴市,字野村寺８６番地２,,26,202,6240833,,,2022-08-10,清算の結了等,,,2015-10-05,1,,,,,オオタソウゴウジムショ,0
161,1140002047124,登記記録の閉鎖等,0,2022-08-18,2022-08-17,大沢海運建設有限会社,,有限会社,兵庫県,姫路市,家島町宮１６３１番地,,28,201,6720102,,,2022-08-17,清算の結了等,,,2015-10-05,1,,,,,,0
162,1140003013174,登記記録の閉鎖等,0,2022-08-18,2022-08-15,合同会社ＲＭＳ,,合同会社,兵庫県,神戸市長田区,細田町３丁目５番６号,,28,106,6530835,,,2022-08-15,清算の結了等,,,2018-07-18,1,,,,,アールエムエス,0
169,1180001132559,登記記録の閉鎖等,0,2022-08-18,2022-08-15,ランギットカラーズジャパン株式会社,,株式会社,愛知県,名古屋市西区,名駅２丁目４番３号ウエスタンビル３６号,,23,104,4510045,,,2022-08-15,清算の結了等,,,2018-06-06,1,,,,,ランギットカラーズジャパン,0
171,1180001149768,登記記録の閉鎖等,0,2022-08-18,2022-08-02,株式会社山弥コーポレーション買収ＳＰＣ,,株式会社,愛知県,名古屋市中区,上前津２丁目１３番１９号,,23,106,4600013,,,2022-08-02,合併による解散等,5180301015583,令和４年８月２日名古屋市中区上前津二丁目１３番１９号山弥産業株式会社（5180301015583）に合併し解散,2022-01-27,1,,,,,ヤマヤコーポレーションバイシュウエスピーシー,0
180,1220002014470,登記記録の閉鎖等,0,2022-08-18,2022-08-15,有限会社谷口機業場,,有限会社,石川県,鹿島郡中能登町,能登部下壱弐参部１６番地の１,,17,407,9291604,,,2022-08-15,清算の結了等,,,2015-10-05,1,,,,,タニグチキギョウジョウ,0
206,1330001028031,登記記録の閉鎖等,0,2022-08-18,2022-08-09,株式会社ＧＥＮＴＬＥ,,株式会社,熊本県,葦北郡芦北町,大字道川内６番地１１,,43,482,8695451,,,2022-08-09,清算の結了等,,,2020-11-25,1,,,,,ジェントル,0
208,1330002027957,登記記録の閉鎖等,0,2022-08-18,2022-08-09,有限会社水俣実業,,有限会社,熊本県,水俣市,多々良町２番８号,,43,205,8670048,,,2022-08-09,清算の結了等,,,2015-10-05,1,,,,,ミナマタジツギョウ,0
218,1440002001059,登記記録の閉鎖等,0,2022-08-18,2022-08-16,有限会社カネマン水産,,有限会社,北海道,松前郡松前町,字二越３８８番地,,01,331,0491764,,,2022-08-16,清算の結了等,,,2015-10-05,1,,,,,カネマンスイサン,0
234,2010001205529,登記記録の閉鎖等,0,2022-08-18,2022-08-15,アコーディア・ネクストゴルフ株式会社,,株式会社,東京都,品川区,東品川４丁目１２番４号,,13,109,1400002,,,2022-08-15,合併による解散等,5010401163968,令和４年７月１日東京都港区西新橋一丁目１番１号ＥＰコンサルティングサービス内ＰＪＣ　Ｉｎｖｅｓｔｍｅｎｔｓ株式会社（5010401163968）に合併し解散,2019-11-21,1,,,,,アコーディアネクストゴルフ,0
244,2010102002899,登記記録の閉鎖等,0,2022-08-18,2022-08-01,有限会社坂本電設,,有限会社,東京都,八王子市,館町１８７０番地の３２,,13,201,1930944,,,2022-08-01,清算の結了等,,,2015-10-05,1,,,,,サカモトデンセツ,0
248,2010403020311,登記記録の閉鎖等,0,2022-08-18,2022-08-01,ＯＫアドバイザリー合同会社,,合同会社,東京都,港区,港南４丁目２番７号,,13,103,1080075,,,2022-08-01,合併による解散等,1010403022259,令和４年８月１日東京都港区港南四丁目２番７－１７０５号合同会社聡和会（1010403022259）に合併し解散,2019-03-08,1,,,,,オーケーアドバイザリー,0
256,2010702013899,登記記録の閉鎖等,0,2022-08-18,2022-08-16,有限会社ミツワプランニング,,有限会社,東京都,品川区,豊町５丁目１６番１５号,,13,109,1420042,,,2022-08-16,清算の結了等,,,2015-10-05,1,,,,,ミツワプランニング,0
257,2010801019665,登記記録の閉鎖等,0,2022-08-18,2022-08-15,株式会社木ノ実荘,,株式会社,東京都,大田区,中央１丁目１５番１０号,,13,111,1430024,,,2022-08-15,合併による解散等,5122001027831,令和４年８月１日大阪市北区梅田１－１１－４大阪駅前第４ビル２０階株式会社Ｈ＆Ｔ（5122001027831）に合併し解散,2015-10-05,1,,,,,コノミソウ,0
268,2011105008462,登記記録の閉鎖等,0,2022-08-18,2022-08-12,一般社団法人ｒｉｃｈ　ｍｉｎｄ協会,,その他の設立登記法人,東京都,新宿区,新宿２丁目３番１２号グレイスビル３階,,13,104,1600022,,,2022-08-12,清算の結了等,,,2018-08-02,1,,,,,リッチマインドキョウカイ,0
284,2013301047137,登記記録の閉鎖等,0,2022-08-18,2022-08-16,Ｓｕｎｓｈｉｎｅ株式会社,,株式会社,東京都,北区,栄町１０－３不二ハイツ１Ｆ,,13,117,1140005,,,2022-08-16,清算の結了等,,,2021-03-24,1,,,,,サンシャイン,0
296,2020002021800,登記記録の閉鎖等,0,2022-08-18,2022-08-10,有限会社タカタ茶業,,有限会社,神奈川県,横浜市旭区,笹野台１丁目２９番１号,,14,112,2410816,,,2022-08-10,清算の結了等,,,2015-10-05,1,,,,,,0
304,2030001023607,登記記録の閉鎖等,0,2022-08-18,2022-08-05,アバンス貿易株式会社,,株式会社,埼玉県,所沢市,東所沢和田２丁目１番地の１１,,11,208,3590023,,,2022-08-05,清算の結了等,,,2015-10-05,1,,,,,アバンスボウエキ,0
305,2030001025388,登記記録の閉鎖等,0,2022-08-18,2022-08-04,ハイテックデバイス株式会社,,株式会社,埼玉県,所沢市,大字下富１１０３番地の１３,,11,208,3590001,,,2022-08-04,清算の結了等,,,2015-10-05,1,,,,,ハイテックデバイス,0
312,2040001013631,登記記録の閉鎖等,0,2022-08-18,2022-08-02,株式会社和洋食品,,株式会社,千葉県,千葉市稲毛区,山王町２６５番地１,,12,103,2630002,,,2022-08-02,合併による解散等,6130001014872,令和４年８月１日京都市伏見区竹田藁屋町８０番地総合食品エスイー株式会社（6130001014872）に合併し解散,2015-10-05,1,,,,,ワヨウショクヒン,0
325,2080002003751,登記記録の閉鎖等,0,2022-08-18,2022-07-26,有限会社立花屋食品,,有限会社,静岡県,静岡市葵区,大岩本町２６番３１号,,22,101,4200884,,,2022-07-26,清算の結了等,,,2015-10-05,1,,,,,タチバナヤショクヒン,0
335,2120001067495,登記記録の閉鎖等,0,2022-08-18,2022-08-15,株式会社天神橋丸藤,,株式会社,大阪府,大阪市北区,天神橋５丁目７番１９号,,27,127,5300041,,,2022-08-15,清算の結了等,,,2015-10-05,1,,,,,テンジンバシマルトウ,0
353,2120102002970,登記記録の閉鎖等,0,2022-08-18,2022-08-17,有限会社大作化工所,,有限会社,大阪府,堺市西区,草部９８９番地,,27,144,5938312,,,2022-08-17,清算の結了等,,,2015-10-05,1,,,,,,0
362,2140002038865,登記記録の閉鎖等,0,2022-08-18,2022-08-17,有限会社リュクス,,有限会社,兵庫県,加古川市,加古川町木村６６９番地の１１,,28,210,6750038,,,2022-08-17,清算の結了等,,,2015-10-05,1,,,,,リュクス,0
365,2150001018256,登記記録の閉鎖等,0,2022-08-18,2022-08-16,株式会社西和コールドシステム,,株式会社,奈良県,生駒郡斑鳩町,神南５丁目４－１５,,29,344,6360143,,,2022-08-16,清算の結了等,,,2015-10-05,1,,,,,セイワコールドシステム,0
375,2180005006642,登記記録の閉鎖等,0,2022-08-18,2022-08-12,税理士法人スプラウト,,その他の設立登記法人,愛知県,名古屋市千種区,穂波町１丁目３９番地,,23,101,4640822,,,2022-08-12,清算の結了等,,,2015-10-05,1,,,,,スプラウト,0
386,2250001015805,登記記録の閉鎖等,0,2022-08-18,2022-08-15,株式会社Ｓ・Ｆ・Ｃ,,株式会社,山口県,周南市,遠石３丁目６番１号,,35,215,7450816,,,2022-08-15,清算の結了等,,,2016-03-07,1,,,,,エスエフシー,0
404,2290001093104,登記記録の閉鎖等,0,2022-08-18,2022-08-01,株式会社清和,,株式会社,福岡県,福岡市博多区,東比恵２丁目１番３号,,40,132,8120007,,,2022-08-01,合併による解散等,9290001014128,令和４年８月１日福岡市博多区東比恵二丁目１番３号セイワパーク株式会社（9290001014128）に合併し解散,2021-05-13,1,,,,,セイワ,0
412,2330001000294,登記記録の閉鎖等,0,2022-08-18,2022-08-10,株式会社石崎組,,株式会社,熊本県,熊本市中央区,大江４丁目９番２３号,,43,101,8620971,,,2022-08-10,清算の結了等,,,2015-10-05,1,,,,,イシザキグミ,0
442,3010001135056,登記記録の閉鎖等,0,2022-08-18,2022-08-17,アイピーエムサービス株式会社,,株式会社,東京都,武蔵野市,吉祥寺本町３丁目９番１８号,,13,203,1800004,,,2022-08-17,清算の結了等,,,2015-10-05,1,,,,,アイピーエムサービス,0
453,3010003036062,登記記録の閉鎖等,0,2022-08-18,2022-08-08,合同会社Ｗａｔｅｒ,,合同会社,東京都,中央区,日本橋久松町６番１０号ＳＶＥＬＴＯ５０１号,,13,102,1030005,,,2022-08-08,清算の結了等,,,2021-10-22,1,,,,,ウォーター,0
474,3010705001231,登記記録の閉鎖等,0,2022-08-18,2022-08-04,特定非営利活動法人地域支援ネットかもめ,,その他の設立登記法人,東京都,品川区,大井７丁目８番１７号,,13,109,1400014,,,2022-08-04,清算の結了等,,,2015-10-05,1,,,,,チイキシエンネットカモメ,0
475,3010802015555,登記記録の閉鎖等,0,2022-08-18,2022-08-08,有限会社リカーシヨツプなかや,,有限会社,東京都,大田区,大森西７丁目９番１１号,,13,111,1430015,,,2022-08-08,清算の結了等,,,2015-10-05,1,,,,,リカーショップナカヤ,0
476,3010803001249,登記記録の閉鎖等,0,2022-08-18,2022-08-08,合同会社オレンジ,,合同会社,東京都,中央区,日本橋久松町６番１０号ＳＶＥＬＴＯ５０１号,,13,102,1030005,,,2022-08-08,清算の結了等,,,2015-10-05,1,,,,,オレンジ,0
487,3011101039717,登記記録の閉鎖等,0,2022-08-18,2022-08-08,株式会社Ａ　ｌｉｆｅ－Ｃ,,株式会社,東京都,千代田区,九段南１丁目５番６号,,13,101,1020074,,,2022-08-08,清算の結了等,,,2015-10-05,1,,,,,カプシキガイシャエーライフシー,0
492,3011102000545,登記記録の閉鎖等,0,2022-08-18,2022-08-16,有限会社足立葬祭,,有限会社,東京都,新宿区,西新宿４丁目４１番４号,,13,104,1600023,,,2022-08-16,清算の結了等,,,2015-10-05,1,,,,,アダチソウサイ,0
505,3011801031824,登記記録の閉鎖等,0,2022-08-18,2022-08-10,ＧＢＫホールディングス株式会社,,株式会社,東京都,葛飾区,新小岩１丁目５６番９号,,13,122,1240024,,,2022-08-10,清算の結了等,,,2016-05-19,1,,,,,ジービーケイホールディングス,0
506,3011802026039,登記記録の閉鎖等,0,2022-08-18,2022-08-16,有限会社プラチナ,,有限会社,東京都,足立区,古千谷本町１丁目１０番１０号,,13,121,1210832,,,2022-08-16,清算の結了等,,,2015-10-05,1,,,,,プラチナ,0
508,3012805000360,登記記録の閉鎖等,0,2022-08-18,2022-08-04,天理教鮫河橋分教会,,その他の設立登記法人,東京都,立川市,錦町５丁目５番３４号,,13,202,1900022,,,2022-08-04,合併による解散等,1010405001450,令和４年７月１１日東京都港区南麻布五丁目１０番３７号天理教南東分教会（1010405001450）に合併し解散,2015-10-05,1,,,,,テンリキョウサメガハシブンキョウカイ,0
530,3030001097567,登記記録の閉鎖等,0,2022-08-18,2022-08-03,株式会社先磁研,,株式会社,埼玉県,所沢市,西狭山ケ丘２丁目３１２４番地の３６,,11,208,3591163,,,2022-08-03,清算の結了等,,,2015-10-05,1,,,,,センジケン,0
535,3040001113083,登記記録の閉鎖等,0,2022-08-18,2022-08-03,株式会社ウィンホーム,,株式会社,千葉県,松戸市,小金上総町６番地の１０,,12,207,2700015,,,2022-08-03,清算の結了等,,,2020-03-30,1,,,,,ウィンホーム,0
546,3080402008374,登記記録の閉鎖等,0,2022-08-18,2022-08-01,有限会社八木田,,有限会社,静岡県,浜松市中区,船越町５３番４号,,22,131,4300913,,,2022-08-01,合併による解散等,6080401019238,令和４年８月１日静岡県浜松市中区板屋町１００番地の１５ＦＳＣ株式会社（6080401019238）に合併し解散,2015-10-05,1,,,,,ヤギタ,0
552,3110002019066,登記記録の閉鎖等,0,2022-08-18,2022-08-09,有限会社サン・オイル・クリーン,,有限会社,新潟県,西蒲原郡弥彦村,大字井田３８８９番地,,15,342,9590311,,,2022-08-09,清算の結了等,,,2015-10-05,1,,,,,サンオイルクリーン,0
553,3110003003382,登記記録の閉鎖等,0,2022-08-18,2022-08-16,キタムラ合同会社,,合同会社,新潟県,見附市,市野坪町３６０番地甲スプリングスＩＩ２０３号,00108236,15,211,9540083,,,2022-08-16,清算の結了等,,,2016-10-31,1,,,,,キタムラ,0
555,3120001074739,登記記録の閉鎖等,0,2022-08-18,2022-08-12,株式会社医夢野舎,,株式会社,大阪府,大阪市中央区,本町１丁目５番７号,,27,128,5410053,,,2022-08-12,清算の結了等,,,2015-10-05,1,,,,,イムノシャ,0
573,3130002003670,登記記録の閉鎖等,0,2022-08-18,2022-08-05,有限会社啓醸社,,有限会社,京都府,京都市北区,小山上初音町５８番地,,26,101,6038171,,,2022-08-05,清算の結了等,,,2015-10-05,1,,,,,ケイジョウシャ,0
577,3150005007452,登記記録の閉鎖等,0,2022-08-18,2022-08-04,天理教大淀分教会,,その他の設立登記法人,奈良県,吉野郡大淀町,大字越部１５３７番地の４,,29,442,6380803,,,2022-08-04,合併による解散等,4150005007633,令和４年８月４日奈良県吉野郡吉野町大字飯貝１８番地天理教上市分教会（4150005007633）に合併し解散,2015-10-05,1,,,,,テンリキョウオオヨドブンキョウカイ,0
578,3180001002363,登記記録の閉鎖等,0,2022-08-18,2022-08-12,玉屋食品株式会社,,株式会社,愛知県,名古屋市名東区,上社１丁目６０５番地,,23,115,4650025,,,2022-08-12,清算の結了等,,,2015-10-05,1,,,,,タマヤショクヒン,0
586,3190001016172,登記記録の閉鎖等,0,2022-08-18,2022-08-10,株式会社芳文堂,,株式会社,三重県,四日市市,塩浜本町１丁目４番地の１,,24,202,5100854,,,2022-08-10,清算の結了等,,,2015-10-05,1,,,,,ホウブンドウ,0
587,3190002020553,登記記録の閉鎖等,0,2022-08-18,2022-08-12,有限会社嶋田電器店,00076116,有限会社,三重県,四日市市,南納屋町２番７号,,24,202,5100043,,,2022-08-12,清算の結了等,,,2015-10-05,1,,,,,シマダデンキテン,0
591,3230002012224,登記記録の閉鎖等,0,2022-08-18,2022-08-15,有限会社山大,,有限会社,富山県,高岡市,波岡２３９番地の３,,16,202,9330958,,,2022-08-15,清算の結了等,,,2015-10-05,1,,,,,ヤマダイ,0
594,3250005007062,登記記録の閉鎖等,0,2022-08-18,2022-08-10,一般社団法人大島郡歯科医師会,,その他の設立登記法人,山口県,大島郡周防大島町,大字久賀４７１５番地８,,35,305,7422301,,,2022-08-10,清算の結了等,,,2015-10-05,1,,,,,オオシマグンシカイシカイ,0
614,3330002023847,登記記録の閉鎖等,0,2022-08-18,2022-08-09,有限会社城南観光バス,,有限会社,熊本県,宇城市,松橋町豊福１３２１番地の１,,43,213,8690524,,,2022-08-09,清算の結了等,,,2015-10-05,1,,,,,ジョウナンカンコウ,0
622,3370501000863,登記記録の閉鎖等,0,2022-08-18,2022-08-12,株式会社三陸バイオ,,株式会社,宮城県,気仙沼市,東八幡前１３６番地１ハーブヒルズ八幡前１－Ａ号,,04,205,9880811,,,2022-08-12,清算の結了等,,,2015-10-05,1,,,,,,0
643,4010001088039,登記記録の閉鎖等,0,2022-08-18,2022-08-04,株式会社興輝,,株式会社,東京都,中央区,明石町５番１２－１１０９号,,13,102,1040044,,,2022-08-04,清算の結了等,,,2015-10-05,1,,,,,コウキ,0
650,4010001209081,登記記録の閉鎖等,0,2022-08-18,2022-08-04,株式会社ｉｎｉｃｉｏ,,株式会社,東京都,千代田区,神田三崎町３丁目１０－２みさきＢＬＤ４Ｆ,,13,101,1010061,,,2022-08-04,清算の結了等,,,2020-04-21,1,,,,,イニシオ,0
651,4010001225203,登記記録の閉鎖等,0,2022-08-18,2022-08-04,株式会社ＩＭＡＤＡＫＥ,,株式会社,東京都,千代田区,九段南４丁目７番２２号,,13,101,1020074,,,2022-08-04,合併による解散等,1010001190227,令和４年７月３０日東京都千代田区九段南四丁目７番２２号株式会社Ｋｕｑｕｌｕ（1010001190227）に合併し解散,2022-03-16,1,,,,,イマダケ,0
652,4010002040345,登記記録の閉鎖等,0,2022-08-18,2022-08-08,有限会社メディシス,,有限会社,東京都,文京区,本郷５丁目２２番１３号,,13,105,1130033,,,2022-08-08,清算の結了等,,,2015-10-05,1,,,,,メディシス,0
684,4011401006754,登記記録の閉鎖等,0,2022-08-18,2022-08-10,株式会社ワームレス,,株式会社,東京都,板橋区,徳丸３丁目４番３号,,13,119,1750083,,,2022-08-10,合併による解散等,6011401006752,令和４年８月４日東京都板橋区徳丸三丁目４番３号株式会社ワーム（6011401006752）に合併し解散,2015-10-05,1,,,,,ワームレス,0
694,4012402014110,登記記録の閉鎖等,0,2022-08-18,2022-08-16,有限会社サトースプリング,,有限会社,東京都,府中市,白糸台１丁目３６番地の５７,,13,206,1830011,,,2022-08-16,清算の結了等,,,2015-10-05,1,,,,,サトースプリング,0
697,4013301032062,登記記録の閉鎖等,0,2022-08-18,2022-08-12,株式会社ＲＥＧＥＮＥＲＡＴＥ,,株式会社,東京都,豊島区,西池袋１丁目４４番１号,,13,116,1710021,,,2022-08-12,清算の結了等,,,2015-10-05,1,,,,,リジェネレイト,0
700,4020001055896,登記記録の閉鎖等,0,2022-08-18,2022-07-20,株式会社バンノウ水産,,株式会社,神奈川県,横浜市西区,みなとみらい２丁目２番１号ランドマークタワー１２階,,14,103,2200012,,,2022-07-20,合併による解散等,1020001043904,令和４年６月３０日横浜市西区みなとみらい二丁目２番１号ランドマークタワー１２階株式会社コロワイドＭＤ（1020001043904）に合併し解散,2015-10-05,1,,,,,バンノウスイサン,0
735,4100003002995,登記記録の閉鎖等,0,2022-08-18,2022-08-08,合名会社野竹精工,,合名会社,長野県,上伊那郡辰野町,大字小野７６３番地,,20,382,3990601,,,2022-08-08,清算の結了等,,,2015-10-05,1,,,,,ノタケセイコウ,0
752,4130002031209,登記記録の閉鎖等,0,2022-08-18,2022-08-10,有限会社タナベ製作所,,有限会社,京都府,八幡市,内里荒場３１番地の１,,26,210,6148232,,,2022-08-10,清算の結了等,,,2015-10-05,1,,,,,タナベセイサクショ,0
753,4130005000706,登記記録の閉鎖等,0,2022-08-18,2022-07-25,天理教恭仁園分教会,,その他の設立登記法人,京都府,京都市右京区,花園伊町１９番地,,26,108,6168042,,,2022-07-25,合併による解散等,6130005000828,令和４年７月２５日京都市中京区押小路通御幸町西入橘町６０５番地天理教平安西分教会（6130005000828）に合併し解散,2015-10-05,1,,,,,テンリキョウクニゾノブンキョウカイ,0
762,4160001022032,登記記録の閉鎖等,0,2022-08-18,2022-07-29,株式会社ｅａｒｔｈ　ｋｉｓｓ,,株式会社,滋賀県,守山市,吉身２丁目５－９,,25,207,5240021,,,2022-07-29,合併による解散等,2160001016390,令和４年７年２９日滋賀県野洲市市三宅２６７５番地２株式会社Ｕ．Ｃ．Ｔ．ｃｏｒｐｏｒａｔｉｏｎ（2160001016390）に合併し解散,2019-10-18,1,,,,,アースキス,0
767,4180001137480,登記記録の閉鎖等,0,2022-08-18,2022-08-12,株式会社福連,,株式会社,愛知県,名古屋市中村区,白子町３丁目１番地の１ハーモニーテラスＫ２０２号,,23,105,4530817,,,2022-08-12,清算の結了等,,,2019-07-24,1,,,,,フクレン,0
775,4200001028033,登記記録の閉鎖等,0,2022-08-18,2022-08-17,アバンセ・ジャパン株式会社,,株式会社,岐阜県,海津市,平田町勝賀１２１５番地,,21,221,5030302,,,2022-08-17,清算の結了等,,,2015-10-05,1,,,,,,0
779,4230001014666,登記記録の閉鎖等,0,2022-08-18,2022-08-10,株式会社タクミ,,株式会社,富山県,富山市,新川原町４番３号,,16,201,9300024,,,2022-08-10,清算の結了等,,,2015-10-05,1,,,,,タクミ,0
783,4260001011215,登記記録の閉鎖等,0,2022-08-18,2022-08-17,株式会社佐々木工業所,,株式会社,岡山県,岡山市中区,桑野７１３番地１４,,33,102,7028002,,,2022-08-17,清算の結了等,,,2015-10-05,1,,,,,ササキコウギョウショ,0
792,4290002001195,登記記録の閉鎖等,0,2022-08-18,2022-08-08,有限会社アイ企画,,有限会社,福岡県,福岡市南区,野多目２丁目２４番３１号,,40,134,8111347,,,2022-08-08,清算の結了等,,,2015-10-05,1,,,,,アイキカク,0
795,4290801022796,登記記録の閉鎖等,0,2022-08-18,2022-08-17,株式会社光清フードカンパニー,,株式会社,福岡県,北九州市小倉北区,上富野１丁目１番２９号,,40,106,8020022,,,2022-08-17,清算の結了等,,,2016-08-04,1,,,,,ミツキヨフードカンパニー,0
799,4310005008193,登記記録の閉鎖等,0,2022-08-18,2022-08-16,一般社団法人長崎ブレークスループラス,,その他の設立登記法人,長崎県,長崎市,稲佐町２番２号,,42,201,8528011,,,2022-08-16,清算の結了等,,,2018-03-16,1,,,,,ナガサキブレークスループラス,0
800,4320001009228,登記記録の閉鎖等,0,2022-08-18,2022-08-17,株式会社春日園,,株式会社,大分県,佐伯市,向島２丁目２３番３号,,44,205,8760844,,,2022-08-17,清算の結了等,,,2015-10-05,1,,,,,,0
810,4360001027366,登記記録の閉鎖等,0,2022-08-18,2022-08-05,株式会社ＲＥＶＯＬＵＴＩＯＮ,,株式会社,沖縄県,那覇市,東町１６番２号コーポＳＡＫＡＥ３０５号室,,47,201,9000034,,,2022-08-05,清算の結了等,,,2020-06-24,1,,,,,レボリューション,0
814,4370002016350,登記記録の閉鎖等,0,2022-08-18,2022-08-08,有限会社クエスト山本コンサルタント,,有限会社,宮城県,宮城郡七ヶ浜町,汐見台３丁目３番５３号,,04,404,9850821,,,2022-08-08,清算の結了等,,,2015-10-05,1,,,,,クエストヤマモトコンサルタント,0
820,4380002010187,登記記録の閉鎖等,0,2022-08-18,2022-08-08,有限会社鈴木電通防災,,有限会社,福島県,郡山市,喜久田町字丸山１９番地の３２,,07,203,9630551,,,2022-08-08,清算の結了等,,,2015-10-05,1,,,,,スズキデンツウボウサイ,0
828,4490005004687,登記記録の閉鎖等,0,2022-08-18,2022-08-16,医療法人西田順天堂内科,,その他の設立登記法人,高知県,南国市,大＿甲７５７番地３,00007091,39,204,7830004,,,2022-08-16,清算の結了等,,,2015-10-05,1,,,,,ニシダジュンテンドウナイカ,0
851,5010401087564,登記記録の閉鎖等,0,2022-08-18,2022-08-01,日本カラボボ石油株式会社,,株式会社,東京都,港区,赤坂５丁目３番１号,,13,103,1070052,,,2022-08-01,清算の結了等,,,2015-10-05,1,,,,,ニホンカラボボセキユ,0
889,5010901031732,登記記録の閉鎖等,0,2022-08-18,2022-08-08,ウルソンサービス株式会社,,株式会社,東京都,千代田区,一番町２９番地２,,13,101,1020082,,,2022-08-08,清算の結了等,,,2015-10-05,1,,,,,ウルソンサービス,0
901,5011101090362,登記記録の閉鎖等,0,2022-08-18,2022-08-16,株式会社アドバンス,,株式会社,東京都,新宿区,西新宿７丁目１番７号新宿ダイカンプラザＡ１０１８,,13,104,1600023,,,2022-08-16,清算の結了等,,,2020-03-03,1,,,,,アドバンス,0
915,5012405001971,登記記録の閉鎖等,0,2022-08-18,2022-08-12,医療法人社団健雄会,,その他の設立登記法人,東京都,府中市,本町１丁目１番地の２５　１階,,13,206,1830027,,,2022-08-12,清算の結了等,,,2015-10-05,1,,,,,ケンユウカイ,0
950,5030002024394,登記記録の閉鎖等,0,2022-08-18,2022-08-08,有限会社シノオフィス,,有限会社,埼玉県,戸田市,上戸田５丁目１４番１３号,,11,224,3350022,,,2022-08-08,清算の結了等,,,2015-10-05,1,,,,,シノオフィス,0
956,5030005003701,登記記録の閉鎖等,0,2022-08-18,2022-08-01,天理教寿光分教会,,その他の設立登記法人,埼玉県,所沢市,大字荒幡２３番地の２,,11,208,3591133,,,2022-08-01,合併による解散等,4010705000265,令和４年７月２６日東京都品川区荏原一丁目６番１０号天理教品川分教会（4010705000265）に合併し解散,2015-10-05,1,,,,,,0
958,5040001027620,登記記録の閉鎖等,0,2022-08-18,2022-08-05,株式会社丸石ハウジング,,株式会社,千葉県,市川市,香取２丁目１２番１７号,,12,203,2720141,,,2022-08-05,清算の結了等,,,2017-09-01,1,,,,,マルイシハウジング,0
963,5040002024154,登記記録の閉鎖等,0,2022-08-18,2022-08-08,有限会社ながせ,,有限会社,千葉県,船橋市,宮本８丁目２５番６号,,12,204,2730003,,,2022-08-08,清算の結了等,,,2015-10-05,1,,,,,ナガセ,0
979,5090002011858,登記記録の閉鎖等,0,2022-08-18,2022-08-17,有限会社風間リバース,,有限会社,山梨県,富士吉田市,新町４丁目１３番２１号,,19,202,4030019,,,2022-08-17,清算の結了等,,,2015-10-05,1,,,,,,0
980,5100002019651,登記記録の閉鎖等,0,2022-08-18,2022-08-08,有限会社カナツカ,,有限会社,長野県,松本市,大字神林１８８０番地,,20,202,3901243,,,2022-08-08,清算の結了等,,,2015-10-05,1,,,,,カナツカ,0
1013,5150002007957,登記記録の閉鎖等,0,2022-08-18,2022-08-16,有限会社奈良トガミサービス,,有限会社,奈良県,磯城郡田原本町,大字千代５９２番地の３,,29,363,6360246,,,2022-08-16,清算の結了等,,,2015-10-05,1,,,,,ナラトガミサービス,0
1016,5180001102418,登記記録の閉鎖等,0,2022-08-18,2022-08-12,株式会社馬場塗装,,株式会社,愛知県,名古屋市守山区,大字中志段味字大洞口２７３４番地の１,,23,113,4630002,,,2022-08-12,清算の結了等,,,2015-10-05,1,,,,,ババトソウ,0
1056,5290002045778,登記記録の閉鎖等,0,2022-08-18,2022-08-08,有限会社豊信,,有限会社,福岡県,飯塚市,吉原町１番８号,,40,205,8200040,,,2022-08-08,清算の結了等,,,2015-10-05,1,,,,,トヨノブ,0
1059,5320002013822,登記記録の閉鎖等,0,2022-08-18,2022-08-17,有限会社カハノフーズ,,有限会社,大分県,宇佐市,大字樋田９６番地の１,00096891,44,211,8790461,,,2022-08-17,清算の結了等,,,2015-10-05,1,,,,,カハノフーズ,0
1072,5430002021574,登記記録の閉鎖等,0,2022-08-18,2022-08-05,有限会社ライフサービス,,有限会社,北海道,札幌市中央区,北六条西２２丁目２番７号,,01,101,0600006,,,2022-08-05,清算の結了等,,,2015-10-05,1,,,,,ライフサービス,0
1075,5450002008776,登記記録の閉鎖等,0,2022-08-18,2022-08-17,有限会社プランタン東川,,有限会社,北海道,上川郡東川町,北町３丁目５２０番１７,,01,458,0711426,,,2022-08-17,清算の結了等,,,2015-10-05,1,,,,,プランタンヒガシカワ,0
1080,5490001005052,登記記録の閉鎖等,0,2022-08-18,2022-08-01,ニュー佐賀温泉株式会社,,株式会社,高知県,幡多郡黒潮町,拳ノ川２１６１番地,,39,428,7891703,,,2022-08-01,合併による解散等,2490001005055,令和４年７月３１日高知県幡多郡黒潮町佐賀２９８８番地山本建設株式会社（2490001005055）に合併し解散,2015-10-05,1,,,,,ニューサガオンセン,0
1085,6010001164390,登記記録の閉鎖等,0,2022-08-18,2022-07-25,グローバルサクセスイノベーション株式会社,,株式会社,東京都,中央区,佃２丁目１番１－７１３,,13,102,1040051,,,2022-07-25,合併による解散等,3180301029081,令和４年７月１日愛知県岡崎市薮田一丁目１０番地２０株式会社マミータ（3180301029081）に合併し解散,2015-10-05,1,,,,,グローバルサクセスイノベーション,0
1095,6010401107866,登記記録の閉鎖等,0,2022-08-18,2022-08-08,株式会社ワールドジョイ,,株式会社,東京都,千代田区,飯田橋２丁目１番５号,,13,101,1020072,,,2022-08-08,合併による解散等,9013301032867,令和４年８月１日東京都千代田区飯田橋二丁目１番５号株式会社ワールドフェイマス（9013301032867）に合併し解散,2015-10-05,1,,,,,ワールドジョイ,0
1100,6010403023707,登記記録の閉鎖等,0,2022-08-18,2022-07-22,Ｍｏｎａｄ　Ｓｙｓｔｅｍｓ合同会社,,合同会社,東京都,港区,虎ノ門１丁目１６番６号虎ノ門ＲＡＰＯ－ＴＯビルＵＣＦ７０３,,13,103,1050001,,,2022-07-22,清算の結了等,,,2020-09-15,1,,,,,モナドシステムズ,0
1109,6010801001842,登記記録の閉鎖等,0,2022-08-18,2022-08-12,株式会社Ｓ．Ｓ．Ｓ．,,株式会社,岡山県,岡山市南区,新保１１１９番地５,,33,104,7000945,,,2022-08-12,清算の結了等,,,2015-10-05,1,,,,,スリーエス,0
1125,6011101094809,登記記録の閉鎖等,0,2022-08-18,2022-08-16,株式会社アルストロ,,株式会社,東京都,新宿区,新宿１丁目３６番２号新宿第七葉山ビル３階,,13,104,1600022,,,2022-08-16,清算の結了等,,,2021-04-20,1,,,,,アルストロ,0
1126,6011102024756,登記記録の閉鎖等,0,2022-08-18,2022-08-16,有限会社グローバルワン,,有限会社,東京都,新宿区,西新宿４丁目２８番１８号,,13,104,1600023,,,2022-08-16,清算の結了等,,,2015-10-05,1,,,,,グローバルワン,0
1128,6011201007364,登記記録の閉鎖等,0,2022-08-18,2022-08-15,株式会社ライフケアサポート,,株式会社,東京都,中野区,本町３丁目３０番１４号,,13,114,1640012,,,2022-08-15,合併による解散等,1010001012760,令和４年８月１日東京都中央区日本橋堀留町二丁目６番６号株式会社エル・エス管財（1010001012760）に合併し解散,2015-10-05,1,,,,,ライフケアサポート,0
1129,6011305001767,登記記録の閉鎖等,0,2022-08-18,2022-08-16,特定非営利活動法人円農あたい,,その他の設立登記法人,東京都,新宿区,西落合４丁目２５番１６－３０３号,,13,104,1610031,,,2022-08-16,清算の結了等,,,2015-10-05,1,,,,,エンノウアタイ,0
1165,6021003005508,登記記録の閉鎖等,0,2022-08-18,2022-08-05,株式会社サイクロ,,株式会社,福岡県,福岡市中央区,警固３丁目１３番１０号,,40,133,8100023,,,2022-08-05,清算の結了等,,,2015-10-05,1,,,,,サイクロ,0
1166,6030001034658,登記記録の閉鎖等,0,2022-08-18,2022-08-05,株式会社池中モールド,,株式会社,埼玉県,草加市,苗塚町字塚前３８２－３番地,,11,221,3400036,,,2022-08-05,清算の結了等,,,2015-10-05,1,,,,,イケナカモールド,0
1173,6030002046982,登記記録の閉鎖等,0,2022-08-18,2022-08-05,有限会社サイキョウ,,有限会社,埼玉県,八潮市,大字鶴ケ曽根７７４番地１２,,11,234,3400802,,,2022-08-05,清算の結了等,,,2015-10-05,1,,,,,サイキョウ,0
1180,6040001011391,登記記録の閉鎖等,0,2022-08-18,2022-08-05,株式会社エムエスエージェンシー,,株式会社,千葉県,千葉市中央区,生実町２４９９番地４,,12,101,2600813,,,2022-08-05,清算の結了等,,,2015-10-05,1,,,,,エムエスエージェンシー,0
1183,6040001032009,登記記録の閉鎖等,0,2022-08-18,2022-08-04,ベイトラスト株式会社,,株式会社,千葉県,浦安市,舞浜３丁目５番３号,,12,227,2790031,,,2022-08-04,清算の結了等,,,2015-10-05,1,,,,,ベイトラスト,0
1192,6040002020103,登記記録の閉鎖等,0,2022-08-18,2022-08-03,有限会社アイブライト,,有限会社,千葉県,船橋市,習志野台２丁目３３番１９号,,12,204,2740063,,,2022-08-03,清算の結了等,,,2015-10-05,1,,,,,アイブライト,0
1193,6040002020409,登記記録の閉鎖等,0,2022-08-18,2022-08-05,有限会社飯村電設,,有限会社,千葉県,船橋市,金杉８丁目３番１６号,,12,204,2730853,,,2022-08-05,清算の結了等,,,2015-10-05,1,,,,,イイムラデンセツ,0
1219,6120001141008,登記記録の閉鎖等,0,2022-08-18,2022-08-10,アドバンテック研修センター株式会社,,株式会社,大阪府,大阪市淀川区,宮原３丁目５番３６号,,27,123,5320003,,,2022-08-10,合併による解散等,3120001131738,令和４年８月１日大阪市淀川区宮原三丁目５番３６号アドバンテック株式会社（3120001131738）に合併し解散,2015-10-05,1,,,,,アドバンテックケンシュウセンター,0
1248,6140002021306,登記記録の閉鎖等,0,2022-08-18,2022-08-02,有限会社神戸ライフサポート,,有限会社,兵庫県,神戸市北区,緑町６丁目１番２５号,,28,109,6511221,,,2022-08-02,清算の結了等,,,2015-10-05,1,,,,,,0
1251,6140005021402,登記記録の閉鎖等,0,2022-08-18,2022-08-15,特定非営利活動法人玄武洞ガイドクラブ,,その他の設立登記法人,兵庫県,豊岡市,正法寺２５０番地の３５,,28,209,6680063,,,2022-08-15,清算の結了等,,,2015-10-05,1,,,,,ゲンブドウガイドクラブ,0
1253,6150005005577,登記記録の閉鎖等,0,2022-08-18,2022-08-04,天理教豊光分教会,,その他の設立登記法人,奈良県,磯城郡川西町,大字唐院２３０番地３,,29,361,6360204,,,2022-08-04,合併による解散等,4150005007633,令和４年８月４日奈良県吉野郡吉野町大字飯貝１８番地天理教上市分教会（4150005007633）に合併し解散,2015-10-05,1,,,,,テンリキョウトヨミツブンキョウカイ,0
1259,6180002026383,登記記録の閉鎖等,0,2022-08-18,2022-08-09,株式会社ヒカリ,,株式会社,愛知県,名古屋市緑区,鳴海町字中汐田９１番地,,23,114,4580801,,,2022-08-09,合併による解散等,6180001028760,令和４年８月１日名古屋市緑区鳴海町字中汐田１３０番地株式会社光金属工業所（6180001028760）に合併し解散,2015-10-05,1,,,,,ヒカリ,0
1260,6180003022670,登記記録の閉鎖等,0,2022-08-18,2022-08-12,合同会社ＭＡＮＡＺＡＳＨＩ,,合同会社,愛知県,一宮市,小信中島字東鵜飼分３８－１９,,23,203,4940007,,,2022-08-12,清算の結了等,,,2021-06-25,1,,,,,マナザシ,0
1262,6180005019450,登記記録の閉鎖等,0,2022-08-18,2022-08-03,司法書士法人アレクシア,,その他の設立登記法人,愛知県,名古屋市中村区,名駅４丁目１３番７号西柳パークビル４階,,23,105,4500002,,,2022-08-03,合併による解散等,9010005034026,令和４年８月１日東京都中央区京橋二丁目１１番５号パインセントラルビル６階司法書士法人アレクシア（9010005034026）に合併し解散,2021-09-27,1,,,,,アレクシア,0
1270,6240002011726,登記記録の閉鎖等,0,2022-08-18,2022-08-15,中隆商事有限会社,,有限会社,広島県,広島市安佐北区,可部南４丁目１１番７－７号,,34,106,7310223,,,2022-08-15,清算の結了等,,,2015-10-05,1,,,,,ナカタカショウジ,0
1291,6370202003691,登記記録の閉鎖等,0,2022-08-18,2022-08-12,有限会社グローバルテクノ,,有限会社,宮城県,加美郡加美町,羽場字山鳥川原九番２７番地の２,,04,445,9814271,,,2022-08-12,清算の結了等,,,2015-10-05,1,,,,,グローバルテクノ,0
1292,6370301000202,登記記録の閉鎖等,0,2022-08-18,2022-08-10,株式会社浮津組,,株式会社,宮城県,石巻市,福地字国土沼１３番地,,04,202,9860115,,,2022-08-10,清算の結了等,,,2015-10-05,1,,,,,ウキツグミ,0
1296,6380001019913,登記記録の閉鎖等,0,2022-08-18,2022-08-05,株式会社オオブチ,,株式会社,福島県,郡山市,香久池２丁目１１番２０号,,07,203,9638833,,,2022-08-05,清算の結了等,,,2015-10-05,1,,,,,オオブチ,0
1303,6420001001065,登記記録の閉鎖等,0,2022-08-18,2022-08-15,株式会社シー・エフ・シー,,株式会社,青森県,青森市,大字幸畑字谷脇３３番地,,02,201,0300943,,,2022-08-15,清算の結了等,,,2015-10-05,1,,,,,シーエフシー,0
1305,6430002034402,登記記録の閉鎖等,0,2022-08-18,2022-08-05,有限会社岩井電光,,有限会社,北海道,札幌市清田区,里塚三条６丁目８番１号,,01,110,0040803,,,2022-08-05,清算の結了等,,,2015-10-05,1,,,,,イワイデンコウ,0
1334,7010002036150,登記記録の閉鎖等,0,2022-08-18,2022-08-08,株式会社アルティス,,株式会社,東京都,千代田区,麹町５丁目５番地１号,,13,101,1020083,,,2022-08-08,清算の結了等,,,2015-10-05,1,,,,,アルティス,0
1378,7011201000491,登記記録の閉鎖等,0,2022-08-18,2022-08-04,イチカワ中野電設株式会社,,株式会社,東京都,中野区,野方３丁目２９番２号,,13,114,1650027,,,2022-08-04,清算の結了等,,,2015-10-05,1,,,,,イチカワナカノデンセツ,0
1389,7011502002113,登記記録の閉鎖等,0,2022-08-18,2022-08-17,有限会社コーヨー,,有限会社,東京都,北区,赤羽北２丁目１４番２号,,13,117,1150052,,,2022-08-17,清算の結了等,,,2015-10-05,1,,,,,コーヨー,0
1396,7012401035633,登記記録の閉鎖等,0,2022-08-18,2022-08-17,株式会社イー・エス・アール,,株式会社,東京都,新宿区,神楽坂６丁目３４番地,,13,104,1620825,,,2022-08-17,合併による解散等,8010501005398,令和４年８月８日東京都北区志茂五丁目１５番１２号昭和繊維株式会社（8010501005398）に合併し解散,2019-08-07,1,,,,,イーエスアール,0
1412,7021001006837,登記記録の閉鎖等,0,2022-08-18,2022-08-17,株式会社三興,,株式会社,神奈川県,茅ヶ崎市,円蔵３７０番地,,14,207,2530084,,,2022-08-17,清算の結了等,,,2015-10-05,1,,,,,サンコウ,0
1418,7030001092259,登記記録の閉鎖等,0,2022-08-18,2022-08-05,山佳林業株式会社,,株式会社,埼玉県,秩父市,大野原８０番地９２,,11,207,3680005,,,2022-08-05,清算の結了等,,,2015-10-05,1,,,,,ヤマヨシリンギョウ,0
1429,7040002021488,登記記録の閉鎖等,0,2022-08-18,2022-08-05,有限会社神場自動車工業,,有限会社,千葉県,船橋市,松が丘５丁目２９番１５号,,12,204,2740064,,,2022-08-05,清算の結了等,,,2015-10-05,1,,,,,ジンバジドウシャコウギョウ,0
1431,7040003013427,登記記録の閉鎖等,0,2022-08-18,2022-08-04,合同会社新樹,,合同会社,千葉県,柏市,千代田１丁目６番５－６０５号,,12,217,2770025,,,2022-08-04,清算の結了等,,,2019-05-29,1,,,,,アラギ,0
1435,7050001032139,登記記録の閉鎖等,0,2022-08-18,2022-08-09,株式会社荒井製作所,,株式会社,茨城県,筑西市,倉持４２２番地１５,,08,227,3004515,,,2022-08-09,清算の結了等,,,2015-10-05,1,,,,,アライセイサクショ,0
1440,7050002045230,登記記録の閉鎖等,0,2022-08-18,2022-08-12,有限会社テクトマジャパン,,有限会社,茨城県,石岡市,月岡１３９６番地５,,08,205,3150141,,,2022-08-12,清算の結了等,,,2015-10-05,1,,,,,テクトマジャパン,0
1443,7060002027839,登記記録の閉鎖等,0,2022-08-18,2022-08-08,有限会社一品香,,有限会社,栃木県,小山市,城東１丁目９番２９号,,09,208,3230807,,,2022-08-08,清算の結了等,,,2015-10-05,1,,,,,イッピンコウ,0
1449,7080401024476,登記記録の閉鎖等,0,2022-08-18,2022-08-15,株式会社ＪＡＣＫコミュニティ,,株式会社,静岡県,浜松市中区,曳馬２丁目１６番１６号,,22,131,4300901,,,2022-08-15,清算の結了等,,,2020-08-11,1,,,,,ジャックコミュニティ,0
1454,7110002026835,登記記録の閉鎖等,0,2022-08-18,2022-08-15,有限会社板屋電機製作所,,有限会社,新潟県,長岡市,福道町４４３番地,,15,202,9402053,,,2022-08-15,清算の結了等,,,2015-10-05,1,,,,,イタヤデンキセイサクショ,0
1459,7120002002265,登記記録の閉鎖等,0,2022-08-18,2022-08-15,有限会社中井商事,,有限会社,大阪府,大阪市西成区,山王１丁目１０番１号,,27,122,5570001,,,2022-08-15,清算の結了等,,,2015-10-05,1,,,,,ナカイショウジ,0
1460,7120002039150,登記記録の閉鎖等,0,2022-08-18,2022-08-16,有限会社ユーピーシー,,有限会社,大阪府,河内長野市,南花台１丁目１９番１６号,,27,216,5860077,,,2022-08-16,清算の結了等,,,2015-10-05,1,,,,,ユーピーシー,0
1462,7120005012039,登記記録の閉鎖等,0,2022-08-18,2022-08-17,ＮＰＯ法人よみがえれかんきょう,,その他の設立登記法人,大阪府,大阪市淀川区,十三元今里２丁目７番１７号,,27,123,5320028,,,2022-08-17,清算の結了等,,,2015-10-05,1,,,,,ヨミガエレカンキョウ,0
1474,7140001016405,登記記録の閉鎖等,0,2022-08-18,2022-08-10,竹内商事株式会社,,株式会社,兵庫県,神戸市長田区,二葉町８丁目３番２３号,,28,106,6530042,,,2022-08-10,清算の結了等,,,2015-10-05,1,,,,,タケウチショウジ,0
1475,7140001043861,登記記録の閉鎖等,0,2022-08-18,2022-08-09,株式会社大崎商店,,株式会社,兵庫県,高砂市,高砂町藍屋町１４２４番地の４,,28,216,6760037,,,2022-08-09,清算の結了等,,,2015-10-05,1,,,,,オオサキショウテン,0
1483,7180001056991,登記記録の閉鎖等,0,2022-08-18,2022-08-12,株式会社エクセルホーム,,株式会社,愛知県,名古屋市中区,千代田２丁目１番１５号スター千代田ビル３階,,23,106,4600012,,,2022-08-12,清算の結了等,,,2015-10-05,1,,,,,エクセルホーム,0
1484,7180001135341,登記記録の閉鎖等,0,2022-08-18,2022-08-12,株式会社イデニール,,株式会社,愛知県,名古屋市中村区,名駅４丁目２４番１６号,,23,105,4500002,,,2022-08-12,清算の結了等,,,2019-02-01,1,,,,,イデニール,0
1491,7180301010013,登記記録の閉鎖等,0,2022-08-18,2022-08-12,株式会社大島屋,,株式会社,愛知県,豊川市,門前町４６番地,,23,207,4420037,,,2022-08-12,清算の結了等,,,2015-10-05,1,,,,,オオシマヤ,0
1496,7240001055005,登記記録の閉鎖等,0,2022-08-18,2022-08-16,保全広島株式会社,,株式会社,広島県,広島市佐伯区,五日市中央２丁目６番１８号,,34,108,7315128,,,2022-08-16,清算の結了等,,,2019-10-04,1,,,,,ホゼンヒロシマ,0
1503,7260001001139,登記記録の閉鎖等,0,2022-08-18,2022-08-17,株式会社岡山松濤園,,株式会社,岡山県,岡山市北区,奉還町４丁目１３番６号,,33,101,7000026,,,2022-08-17,清算の結了等,,,2015-10-05,1,,,,,オカヤマショウトウエン,0
1521,7340002028668,登記記録の閉鎖等,0,2022-08-18,2022-08-16,有限会社美香園,,有限会社,鹿児島県,南九州市,頴娃町牧之内１４７２６番地,,46,223,8910702,,,2022-08-16,清算の結了等,,,2022-03-25,1,,,,,ビコウエン,0
1524,7370005010356,登記記録の閉鎖等,0,2022-08-18,2022-08-03,司法書士法人アレクシア,,その他の設立登記法人,宮城県,仙台市青葉区,本町２丁目１番７号本町奥田ビル８階,,04,101,9800014,,,2022-08-03,合併による解散等,9010005034026,令和４年８月１日東京都中央区京橋二丁目１１番５号パインセントラルビル６階司法書士法人アレクシア（9010005034026）に合併し解散,2021-10-04,1,,,,,アレクシア,0
1529,7380002021173,登記記録の閉鎖等,0,2022-08-18,2022-08-08,有限会社マダラメ工業,,有限会社,福島県,石川郡玉川村,大字南須釜字狸穴８５番地,,07,502,9636302,,,2022-08-08,清算の結了等,,,2015-10-05,1,,,,,マダラメコウギョウ,0
1537,7470002009416,登記記録の閉鎖等,0,2022-08-18,2022-08-16,有限会社ケーエーエム,,有限会社,香川県,高松市,香川町大野１１０７番地,,37,201,7611701,,,2022-08-16,清算の結了等,,,2015-10-05,1,,,,,ケーエーエム,0
1556,8010003025093,登記記録の閉鎖等,0,2022-08-18,2022-08-08,合同会社サクセスインベストメント,,合同会社,東京都,中央区,日本橋馬喰町２丁目５番１２号６Ｆ,,13,102,1030002,,,2022-08-08,清算の結了等,,,2017-03-31,1,,,,,サクセスインベストメント,0
1557,8010003033831,登記記録の閉鎖等,0,2022-08-18,2022-08-08,ゼラ・インベストメントＬａｂ合同会社,,合同会社,東京都,中央区,日本橋兜町８番１号,,13,102,1030026,,,2022-08-08,清算の結了等,,,2020-12-24,1,,,,,ゼラインベストメントラボ,0
1561,8010101011697,登記記録の閉鎖等,0,2022-08-18,2022-08-15,株式会社地熱総合研究所,,株式会社,東京都,新宿区,新宿２丁目１－５パークサイドスクウェアー８階,,13,104,1600022,,,2022-08-15,清算の結了等,,,2015-10-05,1,,,,,チネツソウゴウケンキュウショ,0
1578,8010701011213,登記記録の閉鎖等,0,2022-08-18,2022-08-17,フタバ・ランド株式会社,,株式会社,東京都,品川区,二葉４丁目８番７号,,13,109,1420043,,,2022-08-17,清算の結了等,,,2015-10-05,1,,,,,フラバランド,0
1580,8010703004289,登記記録の閉鎖等,0,2022-08-18,2022-08-15,合同会社いごころ,,合同会社,東京都,品川区,西五反田４丁目３０番７号飯泉ビル２階,,13,109,1410031,,,2022-08-15,清算の結了等,,,2018-06-01,1,,,,,イゴコロ,0
1594,8011001112593,登記記録の閉鎖等,0,2022-08-18,2022-07-21,株式会社ＡＭ,,株式会社,東京都,目黒区,青葉台１丁目９番６号,,13,110,1530042,,,2022-07-21,清算の結了等,,,2016-09-02,1,,,,,エーエム,0
1596,8011002017981,登記記録の閉鎖等,0,2022-08-18,2022-08-01,有限会社魔法陣,,有限会社,東京都,渋谷区,宇田川町２番１号,,13,113,1500042,,,2022-08-01,清算の結了等,,,2015-10-05,1,,,,,マホウジン,0
1598,8011101035876,登記記録の閉鎖等,0,2022-08-18,2022-08-15,株式会社環境創造設計テイアンドケイ,,株式会社,東京都,新宿区,新宿５丁目１２番１１－６０４号,,13,104,1600022,,,2022-08-15,清算の結了等,,,2015-10-05,1,,,,,カンキョウソウゾウセッケイテイアンドケイ,0
1604,8011102013897,登記記録の閉鎖等,0,2022-08-18,2022-08-15,有限会社ラッキーデント,,有限会社,東京都,新宿区,喜久井町６５番地,,13,104,1620044,,,2022-08-15,清算の結了等,,,2015-10-05,1,,,,,ラッキーデント,0
1605,8011105009265,登記記録の閉鎖等,0,2022-08-18,2022-08-01,一般社団法人歌舞伎町健全化推進機構ＫＡＮＡＲＩ,,その他の設立登記法人,東京都,新宿区,新宿７丁目２６番７号ビクセル新宿,,13,104,1600022,,,2022-08-01,清算の結了等,,,2020-03-04,1,,,,,カブキチョウケンゼンカスイシンキコウカナリ,0
1616,8012301009694,登記記録の閉鎖等,0,2022-08-18,2022-08-17,株式会社不動興業,,株式会社,東京都,町田市,玉川学園５丁目２７－１１,,13,209,1940041,,,2022-08-17,清算の結了等,,,2015-10-05,1,,,,,,0
1619,8013201000917,登記記録の閉鎖等,0,2022-08-18,2022-08-01,株式会社エス・ピー・プラネット,,株式会社,東京都,目黒区,東山１丁目５番９－２０２号,,13,110,1530043,,,2022-08-01,清算の結了等,,,2015-10-05,1,,,,,エスピープラネット,0
1639,8021005004984,登記記録の閉鎖等,0,2022-08-18,2022-08-12,特定非営利活動法人日ロ文化交流センター,,その他の設立登記法人,神奈川県,海老名市,杉久保南２丁目７番１０号,,14,215,2430427,,,2022-08-12,清算の結了等,,,2015-10-05,1,,,,,ニチロブンカコウリュウセンター,0
1647,8040001014475,登記記録の閉鎖等,0,2022-08-18,2022-08-04,株式会社サクライスポーツ,,株式会社,千葉県,習志野市,実籾４丁目４番６号,,12,216,2750002,,,2022-08-04,清算の結了等,,,2015-10-05,1,,,,,サクライスポーツ,0
1652,8040002079690,登記記録の閉鎖等,0,2022-08-18,2022-08-05,有限会社富永建設,,有限会社,千葉県,山武市,成東２３２６番地,,12,237,2891326,,,2022-08-05,清算の結了等,,,2015-10-05,1,,,,,トミナガケンセツ,0
1659,8080101012474,登記記録の閉鎖等,0,2022-08-18,2022-08-17,株式会社康泉,,株式会社,静岡県,沼津市,下香貫八重１０４番地の２９,,22,203,4100822,,,2022-08-17,清算の結了等,,,2015-10-05,1,,,,,コウセン,0
1686,8140001039207,登記記録の閉鎖等,0,2022-08-18,2022-08-10,株式会社森下建設,,株式会社,兵庫県,宍粟市,千種町黒土３８番地の１,,28,227,6713202,,,2022-08-10,清算の結了等,,,2015-10-05,1,,,,,モリシタケンセツ,0
1700,8180001115193,登記記録の閉鎖等,0,2022-08-18,2022-08-09,株式会社ヒカリテクノ,,株式会社,愛知県,名古屋市緑区,鳴海町字中汐田１２８番地,,23,114,4580801,,,2022-08-09,合併による解散等,6180001028760,令和４年８月１日名古屋市緑区鳴海町字中汐田１３０番地株式会社光金属工業所（6180001028760）に合併し解散,2015-10-05,1,,,,,ヒカリテクノ,0
1721,8250002010270,登記記録の閉鎖等,0,2022-08-18,2022-08-16,有限会社ナス薬店,,有限会社,山口県,下関市,幸町８番１号,,35,201,7500001,,,2022-08-16,清算の結了等,,,2015-10-05,1,,,,,ナスヤクテン,0
1728,8290802015622,登記記録の閉鎖等,0,2022-08-18,2022-08-08,有限会社矢野メディカルサービス,,有限会社,福岡県,北九州市八幡西区,的場町１１番１６号,,40,109,8070841,,,2022-08-08,清算の結了等,,,2015-10-05,1,,,,,ヤノメディカルサービス,0
1729,8300005002516,登記記録の閉鎖等,0,2022-08-18,2022-08-05,特定非営利活動法人障害者自立生活支援センタードリーム・ロード,,その他の設立登記法人,佐賀県,佐賀市,川副町大字南里３０３番地１フラワーヒル１０６号,,41,201,8402205,,,2022-08-05,清算の結了等,,,2015-10-05,1,,,,,ショウガイシャジリツセイカツシエンセンタードリームロード,0
1730,8320003003745,登記記録の閉鎖等,0,2022-08-18,2022-08-17,合同会社ＩＬＡ外国語,,合同会社,大分県,大分市,府内町１丁目６番３０号,,44,201,8700021,,,2022-08-17,清算の結了等,,,2022-03-07,1,,,,,アイエルエイガイコクゴ,0
1757,8450001006092,登記記録の閉鎖等,0,2022-08-18,2022-08-17,株式会社西科,,株式会社,北海道,旭川市,緑が丘南二条２丁目２番１３号,,01,204,0788812,,,2022-08-17,清算の結了等,,,2015-10-05,1,,,,,ニシナ,0
1759,8470002016155,登記記録の閉鎖等,0,2022-08-18,2022-08-17,有限会社藤村組,,有限会社,香川県,観音寺市,昭和町３丁目９番８号,,37,205,7680066,,,2022-08-17,清算の結了等,,,2015-10-05,1,,,,,フジムラグミ,0
1778,9010401060773,登記記録の閉鎖等,0,2022-08-18,2022-08-02,日本パーソネル株式会社,,株式会社,東京都,港区,虎ノ門４丁目１番２８号,,13,103,1050001,,,2022-08-02,清算の結了等,,,2015-10-05,1,,,,,ニホンパーソネル,0
1792,9010405005394,登記記録の閉鎖等,0,2022-08-18,2022-07-29,一般社団法人市谷管財,,その他の設立登記法人,東京都,港区,港南２丁目１５番３号,,13,103,1080075,,,2022-07-29,清算の結了等,,,2015-10-05,1,,,,,イチガヤカンザイ,0
1797,9010701020097,登記記録の閉鎖等,0,2022-08-18,2022-08-10,株式会社エンジェルハート,,株式会社,東京都,品川区,小山３丁目２６番５号,,13,109,1420062,,,2022-08-10,合併による解散等,5010701012354,令和４年８月１日東京都品川区小山三丁目２６番５号大蔵物産株式会社（5010701012354）に合併し解散,2015-10-05,1,,,,,エンジェルハート,0
1815,9011401005413,登記記録の閉鎖等,0,2022-08-18,2022-08-12,飛騨商事株式会社,00054797,株式会社,東京都,板橋区,大谷口北町５６番７号,,13,119,1730031,,,2022-08-12,清算の結了等,,,2015-10-05,1,,,,,ヒダショウジ,0
1824,9013302001945,登記記録の閉鎖等,0,2022-08-18,2022-08-08,有限会社看護の科学社,,有限会社,東京都,文京区,大塚３丁目１９番１０号,,13,105,1120012,,,2022-08-08,清算の結了等,,,2015-10-05,1,,,,,カンゴノカガクシャ,0
1836,9021001025083,登記記録の閉鎖等,0,2022-08-18,2022-08-16,オリエンタルアールアンドデー株式会社,,株式会社,神奈川県,大和市,下鶴間２丁目１１番２９号,,14,213,2420001,,,2022-08-16,清算の結了等,,,2015-10-05,1,,,,,オリエンタルアールアンドデー,0
1837,9021002032806,登記記録の閉鎖等,0,2022-08-18,2022-08-16,有限会社花甕,,有限会社,神奈川県,厚木市,寿町２丁目２番２号,,14,212,2430003,,,2022-08-16,清算の結了等,,,2015-10-05,1,,,,,ハナカメ,0
1850,9040001032963,登記記録の閉鎖等,0,2022-08-18,2022-08-03,アイリンクコンタクト株式会社,,株式会社,千葉県,市川市,市川南１丁目１番１号Ｂ－２１４のＣ,,12,203,2720033,,,2022-08-03,清算の結了等,,,2015-10-05,1,,,,,アイリンクコンタクト,0
1851,9040001043837,登記記録の閉鎖等,0,2022-08-18,2022-08-04,サンプラスチック株式会社,,株式会社,千葉県,白井市,池の上３丁目３番２１号,,12,232,2701425,,,2022-08-04,清算の結了等,,,2015-10-05,1,,,,,サンプラスチック,0
1856,9040001096868,登記記録の閉鎖等,0,2022-08-18,2022-08-05,ＭＯＩＬ研究所株式会社,,株式会社,千葉県,柏市,柏の葉５丁目４－１９,,12,217,2770882,,,2022-08-05,合併による解散等,1010001143449,令和４年７月１日東京都千代田区麹町二丁目１０番３号ＭＯＩＬ株式会社（1010001143449）に合併し解散,2016-09-06,1,,,,,,0
1864,9050001044826,登記記録の閉鎖等,0,2022-08-18,2022-08-10,ジャーニィーロード株式会社,,株式会社,茨城県,神栖市,波崎８６１４番地,,08,232,3140408,,,2022-08-10,清算の結了等,,,2018-08-13,1,,,,,ジャーニィーロード,0
1870,9070001000364,登記記録の閉鎖等,0,2022-08-18,2022-08-08,内田工業株式会社,,株式会社,群馬県,前橋市,富士見町山口字十二後４２９番１,,10,201,3710107,,,2022-08-08,清算の結了等,,,2015-10-05,1,,,,,ウチダコウギョウ,0
1874,9070005002456,登記記録の閉鎖等,0,2022-08-18,2022-07-25,特定非営利活動法人かがやき友の会,,その他の設立登記法人,群馬県,高崎市,吉井町小暮字泉５６８番地１,,10,202,3702102,,,2022-07-25,清算の結了等,,,2015-10-05,1,,,,,カガヤキトモノカイ,0
1881,9100003003683,登記記録の閉鎖等,0,2022-08-18,2022-08-09,合同会社マルヤマ,,合同会社,長野県,北安曇郡池田町,大字中鵜３５７番地,,20,481,3998603,,,2022-08-09,清算の結了等,,,2015-10-05,1,,,,,マルヤマ,0
1882,9110001031248,登記記録の閉鎖等,0,2022-08-18,2022-08-15,株式会社トリオ,,株式会社,新潟県,新潟市中央区,本町通８番町１３１０番地１,,15,103,9518067,,,2022-08-15,合併による解散等,5120002060851,令和４年８月８日大阪市旭区大宮一丁目２１番１６号株式会社ミラージュ（5120002060851）に合併し解散,2016-02-01,1,,,,,,0
1883,9120001003964,登記記録の閉鎖等,0,2022-08-18,2022-08-12,南部商事株式会社,,株式会社,大阪府,大阪市西成区,松２丁目５番３号,,27,122,5570034,,,2022-08-12,清算の結了等,,,2015-10-05,1,,,,,ナンブショウジ,0
1896,9120101048678,登記記録の閉鎖等,0,2022-08-18,2022-08-12,株式会社ＧＬＩＮＴ,,株式会社,大阪府,大阪市中央区,南船場２丁目１１番１３号,,27,128,5420081,,,2022-08-12,清算の結了等,,,2015-10-05,1,,,,,,0
1899,9120102023226,登記記録の閉鎖等,0,2022-08-18,2022-08-16,有限会社計算工房,,有限会社,大阪府,岸和田市,春木旭町８番２４－７０１号,,27,202,5960005,,,2022-08-16,清算の結了等,,,2015-10-05,1,,,,,ケイサンコウボウ,0
1924,9180001077771,登記記録の閉鎖等,0,2022-08-18,2022-08-02,株式会社ＭＣワークス,,株式会社,愛知県,小牧市,大字間々原新田字今池９番地１,,23,219,4850016,,,2022-08-02,合併による解散等,2120001021304,令和４年８月１日大阪市平野区加美北六丁目１５番１４号ハシダ技研工業株式会社（2120001021304）に合併し解散,2015-10-05,1,,,,,エムシーワークス,0
1925,9180001099246,登記記録の閉鎖等,0,2022-08-18,2022-08-17,株式会社平田農場,,株式会社,長崎県,東彼杵郡東彼杵町,八反田郷２３３番地,,42,321,8593922,,,2022-08-17,清算の結了等,,,2015-10-05,1,,,,,ヒラタノウジョウ,0
1935,9190002004410,登記記録の閉鎖等,0,2022-08-18,2022-08-12,有限会社豊富建設,,有限会社,三重県,津市,白山町川口７３６８番地,,24,201,5152603,,,2022-08-12,清算の結了等,,,2015-10-05,1,,,,,ホウトミケンセツ,0
1937,9200001011397,登記記録の閉鎖等,0,2022-08-18,2022-08-16,株式会社ハセガワ,,株式会社,岐阜県,羽島郡笠松町,宮川町８３番地,,21,303,5016046,,,2022-08-16,清算の結了等,,,2015-10-05,1,,,,,ハセガワ,0
1943,9210001000507,登記記録の閉鎖等,0,2022-08-18,2022-07-29,株式会社池田大正堂,,株式会社,福井県,福井市,板垣３丁目１５０４番地,,18,201,9188104,,,2022-07-29,合併による解散等,3210001017242,令和４年７月２１日石川県金沢市玉鉾四丁目１６５番地株式会社シンクグロー（3210001017242）に合併し解散,2015-10-05,1,,,,,イケダタイショウドウ,0
1950,9240002025707,登記記録の閉鎖等,0,2022-08-18,2022-08-15,有限会社可部林乳販,,有限会社,広島県,広島市安佐北区,可部町大字桐原８６４番地１,,34,106,7310214,,,2022-08-15,清算の結了等,,,2015-10-05,1,,,,,カベハヤシニュウハン,0
1966,9290803003625,登記記録の閉鎖等,0,2022-08-18,2022-08-16,合同会社スタティスティックス,,合同会社,福岡県,北九州市八幡西区,永犬丸２丁目１番８－３０２号,,40,109,8070851,,,2022-08-16,清算の結了等,,,2020-09-04,1,,,,,スタティスティックス,0
1969,9320005009418,登記記録の閉鎖等,0,2022-08-18,2022-08-16,ＮＰＯ法人竹田キリシタン未来計画,,その他の設立登記法人,大分県,竹田市,大字会々２２５０番地１,,44,208,8780011,,,2022-08-16,清算の結了等,,,2016-09-13,1,,,,,,0
1970,9330002028808,登記記録の閉鎖等,0,2022-08-18,2022-08-08,有限会社富岡鐡工所,,有限会社,熊本県,天草郡苓北町,富岡２５４５番地,,43,531,8632507,,,2022-08-08,清算の結了等,,,2015-10-05,1,,,,,トミオカテッコウショ,0
1992,9430002052459,登記記録の閉鎖等,0,2022-08-18,2022-08-05,有限会社タカハシ電器,,有限会社,北海道,赤平市,本町２丁目４番地,,01,218,0791136,,,2022-08-05,清算の結了等,,,2022-07-26,1,,,,,,0
