sequenceNumber,corporateNumber,process,correct,updateDate,changeDate,name,nameImageId,kind,prefectureName,cityName,streetNumber,addressImageId,prefectureCode,cityCode,postCode,addressOutside,addressOutsideImageId,closeDate,closeCause,successorCorporateNumber,changeCause,assignmentDate,latest,enName,enPrefectureName,enCityName,enAddressOutside,furigana,hihyoji
26,1010403018331,登記記録の閉鎖等,0,2022-01-28,2022-01-19,スワ合同会社,,合同会社,東京都,港区,六本木１丁目６番１号泉ガーデンタワー,,13,103,1060032,,,2022-01-19,清算の結了等,,,2018-03-23,1,,,,,スワ,0
69,1012401030607,登記記録の閉鎖等,0,2022-01-28,2022-01-24,株式会社パンテオン,,株式会社,東京都,多摩市,諏訪２丁目２番地Ａ－９１５,,13,224,2060024,,,2022-01-24,清算の結了等,,,2015-10-05,1,,,,,パンテオン,0
86,1020001076598,登記記録の閉鎖等,0,2022-01-28,2022-01-26,文化ランドラース株式会社,,株式会社,神奈川県,川崎市麻生区,栗木２丁目２番６号,,14,137,2150033,,,2022-01-26,清算の結了等,,,2015-10-05,1,,,,,,0
92,1021001001595,登記記録の閉鎖等,0,2022-01-28,2022-01-28,仲原住建株式会社,,株式会社,神奈川県,藤沢市,辻堂新町３丁目１０番１９号,,14,205,2510042,,,2022-01-28,登記官による閉鎖,,,2016-03-01,1,,,,,,0
93,1021001002197,登記記録の閉鎖等,0,2022-01-28,2022-01-28,株式会社三好工業,,株式会社,神奈川県,藤沢市,鵠沼神明４丁目９番２２号,,14,205,2510021,,,2022-01-28,登記官による閉鎖,,,2015-10-05,1,,,,,,0
94,1021001005497,登記記録の閉鎖等,0,2022-01-28,2022-01-28,湘南不動産流通株式会社,,株式会社,神奈川県,藤沢市,羽鳥１丁目５番２４号,,14,205,2510056,,,2022-01-28,登記官による閉鎖,,,2015-10-05,1,,,,,,0
95,1021001006859,登記記録の閉鎖等,0,2022-01-28,2022-01-28,三京化工建設株式会社,,株式会社,神奈川県,茅ヶ崎市,萩園２６４２番地,,14,207,2530071,,,2022-01-28,登記官による閉鎖,,,2016-12-06,1,,,,,,0
96,1021001009977,登記記録の閉鎖等,0,2022-01-28,2022-01-28,株式会社あや,,株式会社,神奈川県,鎌倉市,津西１丁目４番２４号,,14,204,2480034,,,2022-01-28,登記官による閉鎖,,,2015-10-05,1,,,,,,0
97,1021001010530,登記記録の閉鎖等,0,2022-01-28,2022-01-28,株式会社コンサル余志,,株式会社,神奈川県,鎌倉市,台３丁目３番１９－１０９号,,14,204,2470061,,,2022-01-28,登記官による閉鎖,,,2015-10-05,1,,,,,,0
98,1021001012931,登記記録の閉鎖等,0,2022-01-28,2022-01-28,株式会社大成舎クリーニング,,株式会社,神奈川県,相模原市中央区,千代田７丁目１３番１５号,,14,152,2520237,,,2022-01-28,登記官による閉鎖,,,2015-10-05,1,,,,,,0
99,1021001022212,登記記録の閉鎖等,0,2022-01-28,2022-01-28,株式会社バイオコスモフードサービス,,株式会社,神奈川県,伊勢原市,小稲葉１２７０番地の２,,14,214,2591122,,,2022-01-28,登記官による閉鎖,,,2015-10-05,1,,,,,,0
100,1021001030314,登記記録の閉鎖等,0,2022-01-28,2022-01-28,株式会社スタイリッシュ工房,,株式会社,神奈川県,相模原市南区,当麻８７７番地１クオリア２０３,,14,153,2520336,,,2022-01-28,登記官による閉鎖,,,2015-10-05,1,,,,,,0
101,1021001031270,登記記録の閉鎖等,0,2022-01-28,2022-01-28,株式会社政所企画,,株式会社,神奈川県,藤沢市,宮原１３２２番地の１湘南スカイハイツ１０６－２Ｆ,,14,205,2520826,,,2022-01-28,登記官による閉鎖,,,2015-10-05,1,,,,,,0
103,1021001044693,登記記録の閉鎖等,0,2022-01-28,2022-01-28,京葉産業株式会社,,株式会社,神奈川県,横須賀市,小矢部２丁目１２番１０号,,14,201,2380026,,,2022-01-28,登記官による閉鎖,,,2015-10-05,1,,,,,,0
107,1021002002683,登記記録の閉鎖等,0,2022-01-28,2022-01-28,有限会社湘陽,,有限会社,神奈川県,藤沢市,片瀬５丁目１番１９号,,14,205,2510032,,,2022-01-28,登記官による閉鎖,,,2015-10-05,1,,,,,,0
108,1021002002774,登記記録の閉鎖等,0,2022-01-28,2022-01-28,有限会社スーパーカット県央,,有限会社,神奈川県,藤沢市,藤沢５５５番１２,,14,205,2510052,,,2022-01-28,登記官による閉鎖,,,2015-10-05,1,,,,,,0
109,1021002009539,登記記録の閉鎖等,0,2022-01-28,2022-01-28,有限会社坂口建設,,有限会社,神奈川県,高座郡寒川町,倉見１７４５番地,,14,321,2530101,,,2022-01-28,登記官による閉鎖,,,2015-10-05,1,,,,,,0
110,1021002012773,登記記録の閉鎖等,0,2022-01-28,2022-01-28,有限会社マーチ・インターナショナル,,有限会社,神奈川県,高座郡寒川町,岡田６丁目８番１号,,14,321,2530105,,,2022-01-28,登記官による閉鎖,,,2015-10-05,1,,,,,,0
111,1021002012988,登記記録の閉鎖等,0,2022-01-28,2022-01-28,有限会社冒険王,,有限会社,神奈川県,茅ヶ崎市,東海岸北５丁目１６番４６号,,14,207,2530053,,,2022-01-28,登記官による閉鎖,,,2015-10-05,1,,,,,,0
112,1021002015116,登記記録の閉鎖等,0,2022-01-28,2022-01-28,有限会社チャチャ,,有限会社,神奈川県,鎌倉市,台２０２０番１,,14,204,2470061,,,2022-01-28,登記官による閉鎖,,,2015-10-05,1,,,,,,0
113,1021002018498,登記記録の閉鎖等,0,2022-01-28,2022-01-28,有限会社エフ・ユー・エム,,有限会社,神奈川県,相模原市中央区,上溝１８７５番地１,,14,152,2520243,,,2022-01-28,登記官による閉鎖,,,2015-10-05,1,,,,,,0
114,1021002019232,登記記録の閉鎖等,0,2022-01-28,2022-01-28,有限会社上鶴間ゴルフクラブ,,有限会社,神奈川県,相模原市南区,上鶴間８６３番地,,14,153,2520302,,,2022-01-28,登記官による閉鎖,,,2015-10-05,1,,,,,,0
115,1021002021048,登記記録の閉鎖等,0,2022-01-28,2022-01-28,有限会社篠崎工業,00013159,有限会社,神奈川県,相模原市中央区,星が丘１丁目１９番５号,,14,152,2520238,,,2022-01-28,登記官による閉鎖,,,2015-10-05,1,,,,,,0
116,1021002030239,登記記録の閉鎖等,0,2022-01-28,2022-01-28,有限会社旭栄,,有限会社,神奈川県,相模原市南区,下溝９４２番地１５,,14,153,2520335,,,2022-01-28,登記官による閉鎖,,,2015-10-05,1,,,,,,0
117,1021002034594,登記記録の閉鎖等,0,2022-01-28,2022-01-28,有限会社猪股旅館,,有限会社,神奈川県,伊勢原市,大山５４８番地,,14,214,2591107,,,2022-01-28,登記官による閉鎖,,,2015-10-05,1,,,,,,0
118,1021002038661,登記記録の閉鎖等,0,2022-01-28,2022-01-28,有限会社マキシマ保険事務所,,有限会社,神奈川県,秦野市,清水町７番６号,,14,211,2570053,,,2022-01-28,登記官による閉鎖,,,2015-10-05,1,,,,,,0
119,1021002043694,登記記録の閉鎖等,0,2022-01-28,2022-01-28,有限会社柴田工務店,,有限会社,神奈川県,座間市,緑ケ丘５丁目４番１５号,,14,216,2520021,,,2022-01-28,登記官による閉鎖,,,2015-10-05,1,,,,,,0
120,1021002045807,登記記録の閉鎖等,0,2022-01-28,2022-01-28,有限会社ヨシナリ工務店,,有限会社,神奈川県,海老名市,国分南２丁目４４番８号,,14,215,2430405,,,2022-01-28,登記官による閉鎖,,,2015-10-05,1,,,,,,0
121,1021002052373,登記記録の閉鎖等,0,2022-01-28,2022-01-28,有限会社宅建管理センター,,有限会社,神奈川県,小田原市,堀之内３６６番地,,14,206,2500853,,,2022-01-28,登記官による閉鎖,,,2015-10-05,1,,,,,,0
122,1021002054147,登記記録の閉鎖等,0,2022-01-28,2022-01-28,有限会社カナテック,,有限会社,神奈川県,小田原市,飯泉８７１番地２,,14,206,2500863,,,2022-01-28,登記官による閉鎖,,,2015-10-05,1,,,,,,0
123,1021002058148,登記記録の閉鎖等,0,2022-01-28,2022-01-28,有限会社新映プロデュース,,有限会社,神奈川県,平塚市,桃浜町２９番１７号,,14,203,2540815,,,2022-01-28,登記官による閉鎖,,,2015-10-05,1,,,,,,0
124,1021002058552,登記記録の閉鎖等,0,2022-01-28,2022-01-28,有限会社第一制御,,有限会社,神奈川県,平塚市,山下３０６番地,,14,203,2540911,,,2022-01-28,登記官による閉鎖,,,2015-10-05,1,,,,,,0
125,1021002059625,登記記録の閉鎖等,0,2022-01-28,2022-01-28,有限会社堀技研,,有限会社,神奈川県,平塚市,田村３丁目１番３４－９０５号,,14,203,2540013,,,2022-01-28,登記官による閉鎖,,,2015-10-05,1,,,,,,0
126,1021002064278,登記記録の閉鎖等,0,2022-01-28,2022-01-28,有限会社小林薬局,,有限会社,神奈川県,横須賀市,若松町１丁目９番地,,14,201,2380007,,,2022-01-28,登記官による閉鎖,,,2015-10-05,1,,,,,,0
127,1021002065029,登記記録の閉鎖等,0,2022-01-28,2022-01-28,有限会社杉山書店,,有限会社,神奈川県,横須賀市,大滝町１丁目２７番地,,14,201,2380008,,,2022-01-28,登記官による閉鎖,,,2015-10-05,1,,,,,,0
128,1021002067017,登記記録の閉鎖等,0,2022-01-28,2022-01-28,有限会社丸秀土木,,有限会社,神奈川県,横須賀市,大矢部４丁目３６番７号,,14,201,2380024,,,2022-01-28,登記官による閉鎖,,,2015-10-05,1,,,,,,0
129,1021003002476,登記記録の閉鎖等,0,2022-01-28,2022-01-28,合同会社ワンワン,,合同会社,神奈川県,足柄下郡湯河原町,吉浜１８９５番地の１４９,,14,384,2590312,,,2022-01-28,登記官による閉鎖,,,2015-10-05,1,,,,,,0
150,1040001114587,登記記録の閉鎖等,0,2022-01-28,2022-01-18,東総興産株式会社,,株式会社,千葉県,茂原市,高師３８０番地,,12,210,2970029,,,2022-01-18,清算の結了等,,,2020-08-14,1,,,,,トウソウコウサン,0
152,1040002033084,登記記録の閉鎖等,0,2022-01-28,2022-01-26,有限会社オートパーク,,有限会社,千葉県,市川市,相之川３丁目１５番１８号,,12,203,2720143,,,2022-01-26,清算の結了等,,,2015-10-05,1,,,,,オートパーク,0
159,1060002034535,登記記録の閉鎖等,0,2022-01-28,2022-01-25,有限会社広沢金型製作所,,有限会社,栃木県,下都賀郡壬生町,大字上田６４８番地２,,09,361,3210231,,,2022-01-25,清算の結了等,,,2015-10-05,1,,,,,ヒロサワカナガタセイサクショ,0
188,1120001238139,登記記録の閉鎖等,0,2022-01-28,2022-01-20,ダイレックス株式会社,,株式会社,大阪府,大阪市北区,堂島１丁目２番６号,,27,127,5300003,,,2022-01-20,清算の結了等,,,2021-06-16,1,,,,,,0
248,1210005008883,登記記録の閉鎖等,0,2022-01-28,2021-12-14,廣峯神社,00078210,その他の設立登記法人,福井県,大飯郡おおい町,名田庄永谷１３号５０番地,,18,483,9170362,,,2021-12-14,合併による解散等,4210005008526,令和３年１２月１４日福井県小浜市下田第５２号２６番地加茂神社（4210005008526）に合併し解散,2015-10-05,1,,,,,ヒロミネジンジャ,0
259,1280002009589,登記記録の閉鎖等,0,2022-01-28,2022-01-26,有限会社ツキモリ・アドバンス,,有限会社,島根県,邑智郡川本町,大字川本１０６８番２地,,32,441,6960001,,,2022-01-26,清算の結了等,,,2015-10-05,1,,,,,,0
266,1290801019663,登記記録の閉鎖等,0,2022-01-28,2022-01-26,株式会社ＲＯＯＴ,,株式会社,福岡県,北九州市小倉南区,長尾４丁目１４－２４,,40,107,8030274,,,2022-01-26,清算の結了等,,,2015-10-05,1,,,,,ルート,0
309,1450002011263,登記記録の閉鎖等,0,2022-01-28,2022-01-26,有限会社稚内時事放声社,,有限会社,北海道,稚内市,中央３丁目１５番８号,,01,214,0970022,,,2022-01-26,清算の結了等,,,2015-10-05,1,,,,,ワッカナイジジホウセイシャ,0
340,2010405016563,登記記録の閉鎖等,0,2022-01-28,2022-01-19,一般社団法人ツクバ,,その他の設立登記法人,東京都,港区,六本木１丁目６番１号泉ガーデンタワー,,13,103,1060032,,,2022-01-19,清算の結了等,,,2018-03-19,1,,,,,ツクバ,0
356,2010905000991,登記記録の閉鎖等,0,2022-01-28,2022-01-25,世田谷市場花き卸協同組合,,その他の設立登記法人,東京都,世田谷区,大蔵１丁目４番１号,,13,112,1570074,,,2022-01-25,清算の結了等,,,2015-10-05,1,,,,,セタガヤシジョウカキオロシ,0
379,2011501007695,登記記録の閉鎖等,0,2022-01-28,2022-01-26,東京家具工業株式会社,,株式会社,東京都,台東区,上野５丁目９番４号・２ｋ５４０・Ｂ－２,,13,106,1100005,,,2022-01-26,清算の結了等,,,2015-10-05,1,,,,,トウキョウカグコウギョウ,0
410,2021001009381,登記記録の閉鎖等,0,2022-01-28,2022-01-28,日本テイエヌ化工株式会社,,株式会社,神奈川県,鎌倉市,山崎７４９番地,,14,204,2470066,,,2022-01-28,登記官による閉鎖,,,2015-10-05,1,,,,,,0
411,2021001011593,登記記録の閉鎖等,0,2022-01-28,2022-01-28,株式会社小野建築設計事務所,,株式会社,神奈川県,相模原市中央区,清新５丁目１番１号,,14,152,2520216,,,2022-01-28,登記官による閉鎖,,,2015-10-05,1,,,,,,0
412,2021001012113,登記記録の閉鎖等,0,2022-01-28,2022-01-28,株式会社相模原家具卸売センター,,株式会社,神奈川県,相模原市中央区,下九沢６８番地の１,,14,152,2520254,,,2022-01-28,登記官による閉鎖,,,2015-10-05,1,,,,,,0
413,2021001013086,登記記録の閉鎖等,0,2022-01-28,2022-01-28,株式会社キタムラ工業,,株式会社,神奈川県,相模原市中央区,清新４丁目８番１８号,,14,152,2520216,,,2022-01-28,登記官による閉鎖,,,2015-10-05,1,,,,,,0
414,2021001018829,登記記録の閉鎖等,0,2022-01-28,2022-01-28,株式会社アイエスシー,,株式会社,神奈川県,藤沢市,西富４４５番地,,14,205,2510001,,,2022-01-28,登記官による閉鎖,,,2015-10-05,1,,,,,,0
415,2021001023077,登記記録の閉鎖等,0,2022-01-28,2022-01-28,川口建設株式会社,,株式会社,神奈川県,秦野市,曽屋７７６番地３,,14,211,2570031,,,2022-01-28,登記官による閉鎖,,,2015-10-05,1,,,,,,0
416,2021001029891,登記記録の閉鎖等,0,2022-01-28,2022-01-28,株式会社インフォコム,,株式会社,神奈川県,大和市,南林間６丁目２２番２６号,,14,213,2420006,,,2022-01-28,登記官による閉鎖,,,2015-10-05,1,,,,,,0
420,2021002003029,登記記録の閉鎖等,0,2022-01-28,2022-01-28,有限会社創和建具店,,有限会社,神奈川県,藤沢市,葛原２３５３番地,,14,205,2520822,,,2022-01-28,登記官による閉鎖,,,2015-10-05,1,,,,,,0
421,2021002010537,登記記録の閉鎖等,0,2022-01-28,2022-01-28,有限会社和よし,,有限会社,神奈川県,茅ヶ崎市,中海岸４丁目１番４６号,,14,207,2530055,,,2022-01-28,登記官による閉鎖,,,2015-10-05,1,,,,,,0
422,2021002026236,登記記録の閉鎖等,0,2022-01-28,2022-01-28,有限会社琴丘商事,,有限会社,神奈川県,相模原市中央区,田名塩田３丁目１９番７号,,14,152,2520245,,,2022-01-28,登記官による閉鎖,,,2015-10-05,1,,,,,,0
423,2021002030428,登記記録の閉鎖等,0,2022-01-28,2022-01-28,有限会社アイコー酒店,,有限会社,神奈川県,厚木市,愛甲字宮ノ前９８０番地４,,14,212,2430035,,,2022-01-28,登記官による閉鎖,,,2015-10-05,1,,,,,,0
424,2021002033769,登記記録の閉鎖等,0,2022-01-28,2022-01-28,有限会社理容堀,,有限会社,神奈川県,厚木市,中町３丁目１１番４号,,14,212,2430018,,,2022-01-28,登記官による閉鎖,,,2015-10-05,1,,,,,,0
425,2021002038719,登記記録の閉鎖等,0,2022-01-28,2022-01-28,有限会社美幸鮨,,有限会社,神奈川県,秦野市,今泉３２３番地の１１,,14,211,2570014,,,2022-01-28,登記官による閉鎖,,,2015-10-05,1,,,,,,0
426,2021002039238,登記記録の閉鎖等,0,2022-01-28,2022-01-28,有限会社とくぼ,,有限会社,神奈川県,秦野市,戸川１４５番地の１１,,14,211,2591306,,,2022-01-28,登記官による閉鎖,,,2015-10-05,1,,,,,,0
427,2021002043272,登記記録の閉鎖等,0,2022-01-28,2022-01-28,有限会社大島接骨院,,有限会社,神奈川県,座間市,相武台４丁目４５２７番地の２,,14,216,2520011,,,2022-01-28,登記官による閉鎖,,,2015-10-05,1,,,,,,0
428,2021002050236,登記記録の閉鎖等,0,2022-01-28,2022-01-28,有限会社プチ,,有限会社,神奈川県,足柄下郡湯河原町,土肥１丁目８番地の３３,,14,384,2590303,,,2022-01-28,登記官による閉鎖,,,2015-10-05,1,,,,,,0
429,2021002053701,登記記録の閉鎖等,0,2022-01-28,2022-01-28,有限会社高崎商事,00013667,有限会社,神奈川県,小田原市,南鴨宮３丁目１番５号,,14,206,2500875,,,2022-01-28,登記官による閉鎖,,,2015-10-05,1,,,,,,0
430,2021002055516,登記記録の閉鎖等,0,2022-01-28,2022-01-28,有限会社ボンボン,,有限会社,神奈川県,足柄上郡大井町,金手１５ー４大東ビル２階,,14,362,2580018,,,2022-01-28,登記官による閉鎖,,,2015-10-05,1,,,,,,0
431,2021002058411,登記記録の閉鎖等,0,2022-01-28,2022-01-28,有限会社鮨の瓢亭,,有限会社,神奈川県,平塚市,中里１３番３号,,14,203,2540054,,,2022-01-28,登記官による閉鎖,,,2015-10-05,1,,,,,,0
432,2021002064228,登記記録の閉鎖等,0,2022-01-28,2022-01-28,坤徳有限会社,00013861,有限会社,神奈川県,横須賀市,衣笠栄町３丁目７２番地,,14,201,2380031,,,2022-01-28,登記官による閉鎖,,,2015-10-05,1,,,,,,0
433,2021002066513,登記記録の閉鎖等,0,2022-01-28,2022-01-28,有限会社福本総合企画,,有限会社,神奈川県,横須賀市,小矢部１丁目２番１０号,,14,201,2380026,,,2022-01-28,登記官による閉鎖,,,2015-10-05,1,,,,,,0
434,2021002070325,登記記録の閉鎖等,0,2022-01-28,2022-01-28,有限会社日吉電器,,有限会社,神奈川県,横須賀市,岩戸５丁目１７番４号,,14,201,2390844,,,2022-01-28,登記官による閉鎖,,,2015-10-05,1,,,,,,0
435,2021003000677,登記記録の閉鎖等,0,2022-01-28,2022-01-28,ニューボーダーコンセプト合同会社,,合同会社,神奈川県,藤沢市,辻堂１丁目１２番４７号,,14,205,2510047,,,2022-01-28,登記官による閉鎖,,,2015-10-05,1,,,,,,0
439,2021005007191,登記記録の閉鎖等,0,2022-01-28,2022-01-28,特定非営利活動法人健康・体力づくりＮＰＯセンター,,その他の設立登記法人,神奈川県,平塚市,紅谷町１４番３０号,,14,203,2540043,,,2022-01-28,登記官による閉鎖,,,2015-10-05,1,,,,,,0
453,2050001034230,登記記録の閉鎖等,0,2022-01-28,2022-01-17,昭和電工マテリアルズ・エレクトロニクス株式会社,,株式会社,茨城県,筑西市,小川１５００番地,,08,227,3080857,,,2022-01-17,合併による解散等,3011101018084,令和３年１２月３１日東京都千代田区丸の内一丁目９番２号昭和電工マテリアルズ株式会社（3011101018084）に合併し解散,2015-10-05,1,,,,,ショウワデンコウマテリアルズエレクトロニクス,0
459,2060001032398,登記記録の閉鎖等,0,2022-01-28,2022-01-24,株式会社蔵人,,株式会社,栃木県,大田原市,浅香１丁目１０番４３号,,09,210,3240043,,,2022-01-24,清算の結了等,,,2020-03-16,1,,,,,クロウド,0
470,2110001012948,登記記録の閉鎖等,0,2022-01-28,2022-01-26,株式会社皆川屋呉服店,,株式会社,新潟県,新発田市,中央町３丁目５番２０号,,15,206,9570053,,,2022-01-26,清算の結了等,,,2015-10-05,1,,,,,ミナガワヤゴフクテン,0
481,2120001164441,登記記録の閉鎖等,0,2022-01-28,2022-01-25,ＪＨＫ貿易株式会社,,株式会社,大阪府,大阪市中央区,島之内１丁目２２番１２号ロイヤルハイツ寿３０１号,,27,128,5420082,,,2022-01-25,清算の結了等,,,2015-10-05,1,,,,,ジェイエイチケイボウエキ,0
484,2120001233205,登記記録の閉鎖等,0,2022-01-28,2022-01-13,顧村株式会社,,株式会社,東京都,国立市,中２丁目１４番地１１フェリーチェＴＮ１０３号,,13,215,1860004,,,2022-01-13,清算の結了等,,,2020-12-10,1,,,,,コムラ,0
494,2120101042605,登記記録の閉鎖等,0,2022-01-28,2022-01-25,平野建設株式会社,,株式会社,大阪府,泉大津市,宮町１１番８号,,27,206,5950013,,,2022-01-25,清算の結了等,,,2015-10-05,1,,,,,ヒラノケンセツ,0
495,2120101044295,登記記録の閉鎖等,0,2022-01-28,2022-01-24,株式会社トモエ,,株式会社,大阪府,泉南市,樽井６丁目２２番５号,,27,228,5900521,,,2022-01-24,清算の結了等,,,2015-10-05,1,,,,,トモエ,0
502,2130001041978,登記記録の閉鎖等,0,2022-01-28,2022-01-24,株式会社天野,,株式会社,京都府,綾部市,物部町天野５５番地,,26,203,6230362,,,2022-01-24,清算の結了等,,,2015-10-05,1,,,,,,0
537,2200001036228,登記記録の閉鎖等,0,2022-01-28,2022-01-27,株式会社エーエナジー,,株式会社,岐阜県,山県市,中洞８２３番地２,,21,215,5012258,,,2022-01-27,清算の結了等,,,2019-05-13,1,,,,,エーエナジー,0
540,2210002003135,登記記録の閉鎖等,0,2022-01-28,2022-01-21,府中興業有限会社,,有限会社,福井県,福井市,宝永３丁目２７番１７号,,18,201,9100004,,,2022-01-21,清算の結了等,,,2015-10-05,1,,,,,フチュウコウギョウ,0
542,2220005008592,登記記録の閉鎖等,0,2022-01-28,2022-01-20,全電通石川県住宅生活協同組合,,その他の設立登記法人,石川県,金沢市,丸の内６番７号,,17,201,9200937,,,2022-01-20,清算の結了等,,,2021-09-08,1,,,,,ゼンデンツウイシカワケンジュウタクセイカツ,0
547,2250001000261,登記記録の閉鎖等,0,2022-01-28,2022-01-26,亀山食品株式会社,,株式会社,山口県,周南市,大字徳山７５１０番地の１０,,35,215,7450851,,,2022-01-26,清算の結了等,,,2015-10-05,1,,,,,カメヤマショクヒン,0
549,2250001008040,登記記録の閉鎖等,0,2022-01-28,2022-01-26,長州観光開発株式会社,,株式会社,山口県,萩市,大字古萩町２５番地,,35,204,7580026,,,2022-01-26,清算の結了等,,,2015-10-05,1,,,,,チョウシュウカンコウカイハツ,0
560,2310001003794,登記記録の閉鎖等,0,2022-01-28,2022-01-27,株式会社ナンバーエイト,,株式会社,長崎県,長崎市,西海町５７番８号,,42,201,8513101,,,2022-01-27,清算の結了等,,,2015-10-05,1,,,,,ナンバーエイト,0
567,2340001007883,登記記録の閉鎖等,0,2022-01-28,2022-01-26,建設パートナーシステム株式会社,,株式会社,鹿児島県,姶良市,西姶良４丁目１３番２０号,,46,225,8995656,,,2022-01-26,清算の結了等,,,2015-10-05,1,,,,,ケンセツパートナーシステム,0
570,2360001001331,登記記録の閉鎖等,0,2022-01-28,2022-01-26,株式会社ダイオキ,,株式会社,沖縄県,那覇市,字天久１１３１番地１１,,47,201,9000005,,,2022-01-26,清算の結了等,,,2015-10-05,1,,,,,ダイオキ,0
592,2430002035676,登記記録の閉鎖等,0,2022-01-28,2022-01-25,有限会社トヨタハウジング,,有限会社,北海道,札幌市手稲区,富丘五条３丁目１番２２号,,01,109,0060015,,,2022-01-25,清算の結了等,,,2015-10-05,1,,,,,トヨタハウジング,0
597,2460301001260,登記記録の閉鎖等,0,2022-01-28,2022-01-25,株式会社東王,,株式会社,北海道,北見市,末広町３８４番地の８１,,01,208,0900826,,,2022-01-25,清算の結了等,,,2015-10-05,1,,,,,トウオウ,0
607,3010001001654,登記記録の閉鎖等,0,2022-01-28,2022-01-17,株式会社オリジナルアイ,,株式会社,東京都,文京区,千石２丁目４４番５号,,13,105,1120011,,,2022-01-17,合併による解散等,8010001002086,令和４年１月１日東京都文京区千石二丁目４４番５号株式会社木元省美堂（8010001002086）に合併し解散,2015-10-05,1,,,,,オリジナルアイ,0
615,3010001177866,登記記録の閉鎖等,0,2022-01-28,2022-01-19,株式会社ＭＧＤ,,株式会社,東京都,中央区,銀座７丁目５番５号,,13,102,1040061,,,2022-01-19,清算の結了等,,,2016-08-23,1,,,,,エムジーディー,0
622,3010002010043,登記記録の閉鎖等,0,2022-01-28,2022-01-24,有限会社佐々木製本所,,有限会社,東京都,千代田区,内神田２丁目１１番１０号,,13,101,1010047,,,2022-01-24,清算の結了等,,,2015-10-05,1,,,,,ササキセイホンジョ,0
627,3010401112761,登記記録の閉鎖等,0,2022-01-28,2022-01-26,株式会社ビヨンドプロ,,株式会社,東京都,目黒区,上目黒１丁目１５番１１号カーサピッコラ３Ｆ,,13,110,1530051,,,2022-01-26,合併による解散等,9011001127351,令和４年１月１３日東京都港区台場二丁目２番２号ザ・タワーズダイバ３０９株式会社ＨＩＴＴＥＲ（9011001127351）に合併し解散,2015-10-05,1,,,,,ビヨンドプロ,0
640,3010601016622,登記記録の閉鎖等,0,2022-01-28,2022-01-20,株式会社ユリカ,,株式会社,東京都,墨田区,東墨田２丁目１番９号,,13,107,1310042,,,2022-01-20,清算の結了等,,,2015-10-05,1,,,,,ユリカ,0
658,3011003007920,登記記録の閉鎖等,0,2022-01-28,2022-01-13,Ｔａｐｔｉｃａ　Ｊａｐａｎ合同会社,,合同会社,東京都,目黒区,上目黒２丁目９番１号中目黒ＧＳ第１ビル,,13,110,1530051,,,2022-01-13,合併による解散等,9010401086835,令和４年１月１日東京都目黒区上目黒二丁目９番１号アドイノベーション株式会社（9010401086835）に合併し解散,2017-08-03,1,,,,,タプティカジャパン,0
663,3011103009049,登記記録の閉鎖等,0,2022-01-28,2022-01-25,合同会社アースキューブ東京,,合同会社,東京都,新宿区,新宿５丁目１８番２０号ルックハイツ新宿８０３号,,13,104,1600022,,,2022-01-25,清算の結了等,,,2019-08-27,1,,,,,アースキューブトウキョウ,0
703,3021001000356,登記記録の閉鎖等,0,2022-01-28,2022-01-28,株式会社オートサービスヤマダ,,株式会社,神奈川県,藤沢市,遠藤２０１０番地の１５,,14,205,2520816,,,2022-01-28,登記官による閉鎖,,,2015-10-05,1,,,,,,0
704,3021001008688,登記記録の閉鎖等,0,2022-01-28,2022-01-28,株式会社ジャパンドリームエージェンシー,,株式会社,神奈川県,茅ヶ崎市,中島１２１１番地１,,14,207,2530073,,,2022-01-28,登記官による閉鎖,,,2015-10-05,1,,,,,,0
705,3021001011007,登記記録の閉鎖等,0,2022-01-28,2022-01-28,株式会社アイエイセキュリティー,,株式会社,神奈川県,相模原市中央区,中央６丁目１０番２０号,,14,152,2520239,,,2022-01-28,登記官による閉鎖,,,2015-10-05,1,,,,,,0
707,3021001019009,登記記録の閉鎖等,0,2022-01-28,2022-01-28,株式会社バックアップ,,株式会社,神奈川県,相模原市中央区,相模原２丁目８番１号,,14,152,2520231,,,2022-01-28,登記官による閉鎖,,,2015-10-05,1,,,,,,0
708,3021001027201,登記記録の閉鎖等,0,2022-01-28,2022-01-28,愛輪工業株式会社,,株式会社,神奈川県,綾瀬市,吉岡東１丁目１６番４２号,,14,218,2521125,,,2022-01-28,登記官による閉鎖,,,2015-10-05,1,,,,,,0
710,3021001037514,登記記録の閉鎖等,0,2022-01-28,2022-01-28,株式会社読売高野ビル,00012583,株式会社,神奈川県,平塚市,老松町２番１９号,,14,203,2540033,,,2022-01-28,登記官による閉鎖,,,2015-10-05,1,,,,,,0
711,3021001039733,登記記録の閉鎖等,0,2022-01-28,2022-01-28,株式会社ヴィクトリー,,株式会社,神奈川県,秦野市,南矢名１８４１番地の２４,,14,211,2570003,,,2022-01-28,登記官による閉鎖,,,2015-10-05,1,,,,,,0
712,3021001039956,登記記録の閉鎖等,0,2022-01-28,2022-01-28,株式会社ヨコスカエンジニアリング,,株式会社,神奈川県,横須賀市,太田和５丁目９０番地,,14,201,2380311,,,2022-01-28,登記官による閉鎖,,,2015-10-05,1,,,,,,0
717,3021002000710,登記記録の閉鎖等,0,2022-01-28,2022-01-28,有限会社内山酒店,,有限会社,神奈川県,藤沢市,辻堂６丁目１８番５号,,14,205,2510047,,,2022-01-28,登記官による閉鎖,,,2015-10-05,1,,,,,,0
718,3021002011501,登記記録の閉鎖等,0,2022-01-28,2022-01-28,有限会社長栄タイル工業,,有限会社,神奈川県,茅ヶ崎市,香川４丁目２７番４号,,14,207,2530082,,,2022-01-28,登記官による閉鎖,,,2015-10-05,1,,,,,,0
719,3021002013514,登記記録の閉鎖等,0,2022-01-28,2022-01-28,有限会社天花,,有限会社,神奈川県,茅ヶ崎市,東海岸北５丁目１５番２３号,,14,207,2530053,,,2022-01-28,登記官による閉鎖,,,2015-10-05,1,,,,,,0
720,3021002015502,登記記録の閉鎖等,0,2022-01-28,2022-01-28,有限会社ふく屋,,有限会社,神奈川県,鎌倉市,御成町４番１８号,,14,204,2480012,,,2022-01-28,登記官による閉鎖,,,2015-10-05,1,,,,,,0
721,3021002017184,登記記録の閉鎖等,0,2022-01-28,2022-01-28,有限会社丸千代内藤旅館,,有限会社,神奈川県,鎌倉市,津西１丁目１５番２３号,,14,204,2480034,,,2022-01-28,登記官による閉鎖,,,2015-10-05,1,,,,,,0
722,3021002020444,登記記録の閉鎖等,0,2022-01-28,2022-01-28,有限会社サイトウコーポレーション,,有限会社,神奈川県,相模原市中央区,南橋本３丁目５番８号,,14,152,2520253,,,2022-01-28,登記官による閉鎖,,,2015-10-05,1,,,,,,0
723,3021002027530,登記記録の閉鎖等,0,2022-01-28,2022-01-28,有限会社ＴＮホームサプライ,,有限会社,神奈川県,相模原市南区,相武台団地１丁目５番１－１４号,,14,153,2520323,,,2022-01-28,登記官による閉鎖,,,2015-10-05,1,,,,,,0
724,3021002033751,登記記録の閉鎖等,0,2022-01-28,2022-01-28,有限会社リカーファミリータカハシ,,有限会社,神奈川県,厚木市,戸室５丁目１７番１号,,14,212,2430031,,,2022-01-28,登記官による閉鎖,,,2015-10-05,1,,,,,,0
725,3021002044154,登記記録の閉鎖等,0,2022-01-28,2022-01-28,有限会社富士タイヤ商会,,有限会社,神奈川県,座間市,さがみ野１丁目９番５３号,,14,216,2520005,,,2022-01-28,登記官による閉鎖,,,2015-10-05,1,,,,,,0
726,3021002050425,登記記録の閉鎖等,0,2022-01-28,2022-01-28,有限会社池田家,,有限会社,神奈川県,足柄下郡箱根町,湯本４２６番地,,14,382,2500311,,,2022-01-28,登記官による閉鎖,,,2015-10-05,1,,,,,,0
727,3021002051241,登記記録の閉鎖等,0,2022-01-28,2022-01-28,有限会社大木組,,有限会社,神奈川県,小田原市,田島３７番地の８,,14,206,2560811,,,2022-01-28,登記官による閉鎖,,,2015-10-05,1,,,,,,0
728,3021002054707,登記記録の閉鎖等,0,2022-01-28,2022-01-28,有限会社菊良材木店,,有限会社,神奈川県,南足柄市,塚原５９３番地の１,,14,217,2500117,,,2022-01-28,登記官による閉鎖,,,2015-10-05,1,,,,,,0
729,3021002055969,登記記録の閉鎖等,0,2022-01-28,2022-01-28,有限会社ＩＢＵＫＩ,,有限会社,神奈川県,小田原市,扇町３丁目５番８号マザーニシマルビル２階,,14,206,2500001,,,2022-01-28,登記官による閉鎖,,,2015-10-05,1,,,,,,0
730,3021002060829,登記記録の閉鎖等,0,2022-01-28,2022-01-28,有限会社末広寿司,,有限会社,神奈川県,中郡二宮町,二宮８２４番地,,14,342,2590123,,,2022-01-28,登記官による閉鎖,,,2015-10-05,1,,,,,,0
731,3021002063113,登記記録の閉鎖等,0,2022-01-28,2022-01-28,有限会社エスイーユー企画,,有限会社,神奈川県,横須賀市,追浜東町３丁目６３番９０１号,,14,201,2370063,,,2022-01-28,登記官による閉鎖,,,2015-10-05,1,,,,,,0
732,3021002063146,登記記録の閉鎖等,0,2022-01-28,2022-01-28,有限会社遠藤金物店,,有限会社,神奈川県,横須賀市,上町２丁目７番地,,14,201,2380017,,,2022-01-28,登記官による閉鎖,,,2015-10-05,1,,,,,,0
733,3021002063666,登記記録の閉鎖等,0,2022-01-28,2022-01-28,有限会社嘉山緑化産業,,有限会社,神奈川県,横須賀市,長井１丁目１８番３７号,,14,201,2380316,,,2022-01-28,登記官による閉鎖,,,2015-10-05,1,,,,,,0
734,3021005005112,登記記録の閉鎖等,0,2022-01-28,2022-01-28,特定非営利活動法人再就職支援ネット希望の翼,,その他の設立登記法人,神奈川県,海老名市,国分北１丁目３４番４５－１０３号,,14,215,2430406,,,2022-01-28,登記官による閉鎖,,,2015-10-05,1,,,,,,0
735,3021005006127,登記記録の閉鎖等,0,2022-01-28,2022-01-28,無限責任中間法人小田原市三の丸観光事業公益協会,,その他の設立登記法人,神奈川県,小田原市,南町１丁目５番７４号,,14,206,2500013,,,2022-01-28,登記官による閉鎖,,,2015-10-05,1,,,,,,0
748,3060002002696,登記記録の閉鎖等,0,2022-01-28,2022-01-26,有限会社柏屋三絃店,,有限会社,栃木県,宇都宮市,中央２丁目７番６号,,09,201,3200806,,,2022-01-26,清算の結了等,,,2015-10-05,1,,,,,カシワヤサンコウテン,0
760,3110001032648,登記記録の閉鎖等,0,2022-01-28,2022-01-24,株式会社デーガタ,,株式会社,新潟県,新潟市中央区,本町通２番町１８９番地５,,15,103,9518067,,,2022-01-24,清算の結了等,,,2017-08-18,1,,,,,デーガタ,0
777,3120901006114,登記記録の閉鎖等,0,2022-01-28,2022-01-25,紀州興発株式会社,,株式会社,大阪府,吹田市,南吹田４丁目２０番１号,,27,205,5640043,,,2022-01-25,清算の結了等,,,2015-10-05,1,,,,,キシュウコウハツ,0
778,3120901028075,登記記録の閉鎖等,0,2022-01-28,2022-01-26,株式会社クレバーフォー,,株式会社,大阪府,豊中市,庄内幸町３丁目２４番６号,,27,203,5610833,,,2022-01-26,清算の結了等,,,2015-10-05,1,,,,,クレーバーフォー,0
785,3130001043528,登記記録の閉鎖等,0,2022-01-28,2022-01-21,東和工業株式会社,,株式会社,京都府,舞鶴市,桃山町３番地３,,26,202,6250060,,,2022-01-21,清算の結了等,,,2015-10-05,1,,,,,トウワコウギョウ,0
786,3130001053196,登記記録の閉鎖等,0,2022-01-28,2022-01-26,アップル株式会社,,株式会社,京都府,京都市山科区,東野中井ノ上町２２番地２０,,26,110,6078142,,,2022-01-26,清算の結了等,,,2015-10-05,1,,,,,アップル,0
804,3140005013063,登記記録の閉鎖等,0,2022-01-28,2022-01-28,特定非営利活動法人ほっとねっとタウン,,その他の設立登記法人,兵庫県,明石市,本町２丁目７番２１号,,28,203,6730892,,,2022-01-28,清算の結了等,,,2015-10-05,1,,,,,ホットネットタウン,0
808,3170005004142,登記記録の閉鎖等,0,2022-01-28,2022-01-26,特定非営利活動法人たけのこ,,その他の設立登記法人,和歌山県,西牟婁郡白浜町,栄１０９６番地の１,,30,401,6492332,,,2022-01-26,清算の結了等,,,2015-10-05,1,,,,,タケノコ,0
816,3180301003805,登記記録の閉鎖等,0,2022-01-28,2022-01-26,株式会社ｂＣＤ,,株式会社,愛知県,岡崎市,柱町字福部池１番地２００,,23,202,4440834,,,2022-01-26,清算の結了等,,,2015-10-05,1,,,,,ビーシーディー,0
820,3180305000716,登記記録の閉鎖等,0,2022-01-28,2022-01-25,医療法人社団敬祥会,,その他の設立登記法人,愛知県,額田郡幸田町,大字大草字広野７６番地,,23,501,4440103,,,2022-01-25,清算の結了等,,,2015-10-05,1,,,,,ケイショウカイ,0
825,3220001024403,登記記録の閉鎖等,0,2022-01-28,2022-01-20,電協興業株式会社,,株式会社,石川県,金沢市,西町三番丁２３番地１,,17,201,9200913,,,2022-01-20,清算の結了等,,,2021-09-08,1,,,,,デンキョウコウギョウ,0
826,3230001000444,登記記録の閉鎖等,0,2022-01-28,2022-01-25,株式会社エムティインテリア,,株式会社,富山県,富山市,上野４４８番地の２,,16,201,9398195,,,2022-01-25,清算の結了等,,,2015-10-05,1,,,,,エムティインテリア,0
848,3330001015548,登記記録の閉鎖等,0,2022-01-28,2022-01-26,天草清掃株式会社,,株式会社,熊本県,天草市,牛深町５７０番地２,,43,215,8631901,,,2022-01-26,清算の結了等,,,2015-10-05,1,,,,,アマクサセイソウ,0
850,3330002027393,登記記録の閉鎖等,0,2022-01-28,2022-01-25,有限会社マンボウ,,有限会社,熊本県,八代市,長田町３１３１番地１,,43,202,8660815,,,2022-01-25,清算の結了等,,,2015-10-05,1,,,,,マンボウ,0
870,3500002021453,登記記録の閉鎖等,0,2022-01-28,2022-01-27,有限会社オートクラブミナミ,,有限会社,愛媛県,四国中央市,金田町金川５１番地の２,,38,213,7990123,,,2022-01-27,清算の結了等,,,2015-10-05,1,,,,,,0
890,4010401108874,登記記録の閉鎖等,0,2022-01-28,2022-01-17,株式会社シーズ・エッセンス,,株式会社,東京都,目黒区,自由が丘２丁目８番２９－４０３号,,13,110,1520035,,,2022-01-17,清算の結了等,,,2015-10-05,1,,,,,シーズエッセンス,0
894,4010401145851,登記記録の閉鎖等,0,2022-01-28,2022-01-21,株式会社ＦＷＰ,,株式会社,東京都,北区,田端２丁目４番１４号,,13,117,1140014,,,2022-01-21,清算の結了等,,,2019-05-30,1,,,,,エフダブリューピー,0
934,4011002004521,登記記録の閉鎖等,0,2022-01-28,2022-01-12,有限会社小菊編集制作事務所,,有限会社,東京都,渋谷区,恵比寿西２丁目１番８号,,13,113,1500021,,,2022-01-12,清算の結了等,,,2015-10-05,1,,,,,コギクヘンシュウセイサクジムショ,0
936,4011002031854,登記記録の閉鎖等,0,2022-01-28,2022-01-12,有限会社ジャパンゴルフプロジェクト,,有限会社,東京都,渋谷区,代々木２丁目２８番７号,,13,113,1510053,,,2022-01-12,清算の結了等,,,2015-10-05,1,,,,,ジャパンゴルフプロジェクト,0
938,4011101083540,登記記録の閉鎖等,0,2022-01-28,2022-01-24,株式会社グローバルサミット,,株式会社,東京都,新宿区,新宿５丁目１８番２０－８０３号,,13,104,1600022,,,2022-01-24,清算の結了等,,,2018-03-23,1,,,,,,0
951,4011501025258,登記記録の閉鎖等,0,2022-01-28,2022-01-26,株式会社ＲＥＭ,,株式会社,東京都,北区,赤羽北３丁目６番２号ディアハイム３０３号室,,13,117,1150052,,,2022-01-26,清算の結了等,,,2019-10-29,1,,,,,レム,0
956,4012303000548,登記記録の閉鎖等,0,2022-01-28,2022-01-20,ＯＲＩＶＡ合同会社,,合同会社,東京都,町田市,金井８丁目４番２２号,,13,209,1950072,,,2022-01-20,清算の結了等,,,2015-10-05,1,,,,,,0
968,4021001023843,登記記録の閉鎖等,0,2022-01-28,2022-01-28,株式会社オーネット,,株式会社,神奈川県,厚木市,金田１１３６番地,,14,212,2430807,,,2022-01-28,登記官による閉鎖,,,2015-10-05,1,,,,,,0
969,4021001028553,登記記録の閉鎖等,0,2022-01-28,2022-01-28,株式会社サンベスト,,株式会社,神奈川県,大和市,中央林間５丁目７番２４－４０７号,,14,213,2420007,,,2022-01-28,登記官による閉鎖,,,2015-10-05,1,,,,,,0
970,4021001030476,登記記録の閉鎖等,0,2022-01-28,2022-01-28,株式会社便利屋丸進,,株式会社,神奈川県,海老名市,東柏ケ谷１丁目１２番４号,,14,215,2430401,,,2022-01-28,登記官による閉鎖,,,2015-10-05,1,,,,,,0
971,4021001038965,登記記録の閉鎖等,0,2022-01-28,2022-01-28,株式会社ＴＨ－ＷＡＶＥ,,株式会社,神奈川県,中郡大磯町,国府本郷１１９２番地１,,14,341,2590111,,,2022-01-28,登記官による閉鎖,,,2015-10-05,1,,,,,,0
972,4021001039006,登記記録の閉鎖等,0,2022-01-28,2022-01-28,株式会社ＳＫプラン,,株式会社,神奈川県,平塚市,土屋１４２３番地の１,,14,203,2591205,,,2022-01-28,登記官による閉鎖,,,2015-10-05,1,,,,,,0
973,4021001041449,登記記録の閉鎖等,0,2022-01-28,2022-01-28,株式会社ウエンズ,,株式会社,神奈川県,逗子市,久木４丁目１番８号,,14,208,2490001,,,2022-01-28,登記官による閉鎖,,,2015-10-05,1,,,,,,0
974,4021002002887,登記記録の閉鎖等,0,2022-01-28,2022-01-28,有限会社スミノ興業,,有限会社,神奈川県,藤沢市,石川２丁目１５番地の１４,,14,205,2520815,,,2022-01-28,登記官による閉鎖,,,2015-10-05,1,,,,,,0
975,4021002003092,登記記録の閉鎖等,0,2022-01-28,2022-01-28,有限会社大信製作所,,有限会社,神奈川県,藤沢市,石川６丁目２６番地の３１,,14,205,2520815,,,2022-01-28,登記官による閉鎖,,,2015-10-05,1,,,,,,0
976,4021002003308,登記記録の閉鎖等,0,2022-01-28,2022-01-28,有限会社だるま薬品,,有限会社,神奈川県,藤沢市,本鵠沼１丁目７番３０号,,14,205,2510028,,,2022-01-28,登記官による閉鎖,,,2015-10-05,1,,,,,,0
977,4021002010551,登記記録の閉鎖等,0,2022-01-28,2022-01-28,有限会社金井工務店,,有限会社,神奈川県,茅ヶ崎市,ひばりが丘４番１８号,,14,207,2530027,,,2022-01-28,登記官による閉鎖,,,2015-10-05,1,,,,,,0
978,4021002021557,登記記録の閉鎖等,0,2022-01-28,2022-01-28,有限会社清章,,有限会社,神奈川県,相模原市南区,相武台２丁目１１番１１号,,14,153,2520324,,,2022-01-28,登記官による閉鎖,,,2015-10-05,1,,,,,,0
979,4021002026597,登記記録の閉鎖等,0,2022-01-28,2022-01-28,有限会社湊建築事務所,,有限会社,神奈川県,相模原市南区,若松４丁目１５番６号,,14,153,2520334,,,2022-01-28,登記官による閉鎖,,,2015-10-05,1,,,,,,0
980,4021002031424,登記記録の閉鎖等,0,2022-01-28,2022-01-28,有限会社久保技研,,有限会社,神奈川県,厚木市,下川入３２２番地,,14,212,2430206,,,2022-01-28,登記官による閉鎖,,,2015-10-05,1,,,,,,0
981,4021002035020,登記記録の閉鎖等,0,2022-01-28,2022-01-28,有限会社三和企業,,有限会社,神奈川県,伊勢原市,東大竹１３５２番地の６,,14,214,2591133,,,2022-01-28,登記官による閉鎖,,,2015-10-05,1,,,,,,0
982,4021002037314,登記記録の閉鎖等,0,2022-01-28,2022-01-28,有限会社アキ空調,,有限会社,神奈川県,秦野市,菩提１６４番地の８,,14,211,2591302,,,2022-01-28,登記官による閉鎖,,,2015-10-05,1,,,,,,0
983,4021002037487,登記記録の閉鎖等,0,2022-01-28,2022-01-28,有限会社イメージュ,,有限会社,神奈川県,秦野市,平沢７６２番地,,14,211,2570015,,,2022-01-28,登記官による閉鎖,,,2015-10-05,1,,,,,,0
984,4021002045969,登記記録の閉鎖等,0,2022-01-28,2022-01-28,有限会社イデオ組,,有限会社,神奈川県,綾瀬市,小園１３２７番地の２,,14,218,2521121,,,2022-01-28,登記官による閉鎖,,,2015-10-05,1,,,,,,0
988,4021002050531,登記記録の閉鎖等,0,2022-01-28,2022-01-26,有限会社住吉旅館,,有限会社,神奈川県,足柄下郡箱根町,湯本６４７番地,,14,382,2500311,,,2022-01-26,清算の結了等,,,2015-10-05,1,,,,,スミヨシリョカン,0
989,4021002052684,登記記録の閉鎖等,0,2022-01-28,2022-01-28,有限会社中山印刷,,有限会社,神奈川県,小田原市,扇町２丁目２６番２２号,,14,206,2500001,,,2022-01-28,登記官による閉鎖,,,2015-10-05,1,,,,,,0
990,4021002057766,登記記録の閉鎖等,0,2022-01-28,2022-01-28,有限会社今野プラミング,,有限会社,神奈川県,平塚市,片岡１１９８番地の１,,14,203,2591213,,,2022-01-28,登記官による閉鎖,,,2015-10-05,1,,,,,,0
991,4021002058500,登記記録の閉鎖等,0,2022-01-28,2022-01-28,有限会社誠進製作所,,有限会社,神奈川県,平塚市,御殿１丁目２４番１９号,,14,203,2540061,,,2022-01-28,登記官による閉鎖,,,2015-10-05,1,,,,,,0
992,4021002062510,登記記録の閉鎖等,0,2022-01-28,2022-01-28,有限会社旭工業,,有限会社,神奈川県,横須賀市,公郷町１丁目５８番地８,,14,201,2380022,,,2022-01-28,登記官による閉鎖,,,2015-10-05,1,,,,,,0
993,4021002063293,登記記録の閉鎖等,0,2022-01-28,2022-01-28,有限会社大槻不動産,,有限会社,神奈川県,横須賀市,長沢１丁目３番１０号,,14,201,2390842,,,2022-01-28,登記官による閉鎖,,,2015-10-05,1,,,,,,0
994,4021002063500,登記記録の閉鎖等,0,2022-01-28,2022-01-28,有限会社春日野そば店,,有限会社,神奈川県,横須賀市,船越町１丁目５７番地,,14,201,2370076,,,2022-01-28,登記官による閉鎖,,,2015-10-05,1,,,,,,0
997,4021005008262,登記記録の閉鎖等,0,2022-01-28,2022-01-28,特定非営利活動法人タウンミーティング,,その他の設立登記法人,神奈川県,横須賀市,三春町１丁目９番１４号,,14,201,2380014,,,2022-01-28,登記官による閉鎖,,,2015-10-05,1,,,,,,0
998,4021005008840,登記記録の閉鎖等,0,2022-01-28,2022-01-28,特定非営利活動法人食ベごと研究所,,その他の設立登記法人,神奈川県,三浦郡葉山町,一色１６８１,,14,301,2400111,,,2022-01-28,登記官による閉鎖,,,2015-10-05,1,,,,,,0
999,4030001028711,登記記録の閉鎖等,0,2022-01-28,2022-01-25,アートホットジャパン株式会社,,株式会社,埼玉県,所沢市,上新井３丁目４０番地の１,,11,208,3591142,,,2022-01-25,清算の結了等,,,2015-10-05,1,,,,,アートホットジャパン,0
1009,4040002024345,登記記録の閉鎖等,0,2022-01-28,2022-01-24,有限会社日光屋,,有限会社,千葉県,船橋市,本町２丁目２０番３０号,,12,204,2730005,,,2022-01-24,清算の結了等,,,2015-10-05,1,,,,,ニッコウヤ,0
1012,4050002015905,登記記録の閉鎖等,0,2022-01-28,2022-01-26,有限会社部原屋食品,,有限会社,茨城県,石岡市,部原６０４番地の４,,08,205,3150112,,,2022-01-26,清算の結了等,,,2015-10-05,1,,,,,ヘバラヤショクヒン,0
1020,4070005004523,登記記録の閉鎖等,0,2022-01-28,2022-01-26,修養団捧誠会群馬県伊勢崎支部,,その他の設立登記法人,群馬県,伊勢崎市,山王町２３１番地３,,10,204,3720831,,,2022-01-26,清算の結了等,,,2015-10-05,1,,,,,,0
1022,4080001022107,登記記録の閉鎖等,0,2022-01-28,2022-01-26,インターキャピタルマネージメント株式会社,,株式会社,静岡県,静岡市駿河区,新川２丁目１０番４３号,,22,102,4228064,,,2022-01-26,清算の結了等,,,2018-03-08,1,,,,,インターキャピタルマネージメント,0
1027,4090002004714,登記記録の閉鎖等,0,2022-01-28,2022-01-19,有限会社平田興業,,有限会社,山梨県,中巨摩郡昭和町,築地新居１５６９番地の２,,19,384,4093853,,,2022-01-19,清算の結了等,,,2015-10-05,1,,,,,,0
1032,4100002026608,登記記録の閉鎖等,0,2022-01-28,2022-01-25,有限会社電気工事テラシマ,,有限会社,長野県,北安曇郡松川村,７０２５番地,,20,482,3998501,,,2022-01-25,清算の結了等,,,2015-10-05,1,,,,,デンキコウジテラシマ,0
1038,4120001161073,登記記録の閉鎖等,0,2022-01-28,2022-01-26,株式会社インエクステック,,株式会社,大阪府,大阪市東成区,神路３丁目１０番１７号秦マンション２０１号室,,27,115,5370003,,,2022-01-26,清算の結了等,,,2015-10-05,1,,,,,,0
1082,4180002085381,登記記録の閉鎖等,0,2022-01-28,2022-01-24,新福工業有限会社,,有限会社,愛知県,知多郡東浦町,大字藤江字新池４３番地の１３４,,23,442,4702105,,,2022-01-24,清算の結了等,,,2015-10-05,1,,,,,シンフクコウギョウ,0
1087,4190001021353,登記記録の閉鎖等,0,2022-01-28,2022-01-27,株式会社キクチペイント,,株式会社,奈良県,橿原市,曽我町１１９６番地の２エイティーエム建築４０２号,,29,205,6340831,,,2022-01-27,清算の結了等,,,2015-10-05,1,,,,,,0
1093,4200002005056,登記記録の閉鎖等,0,2022-01-28,2022-01-27,有限会社ユニオン,,有限会社,岐阜県,岐阜市,本荘西４丁目１００番地１,,21,201,5008361,,,2022-01-27,清算の結了等,,,2015-10-05,1,,,,,ユニオン,0
1117,4290802025369,登記記録の閉鎖等,0,2022-01-28,2022-01-27,有限会社藤コーポレーション,,有限会社,福岡県,田川市,伊田町６番２８号,,40,206,8250015,,,2022-01-27,清算の結了等,,,2015-10-05,1,,,,,,0
1120,4320001005367,登記記録の閉鎖等,0,2022-01-28,2022-01-21,株式会社三栄ホーム,,株式会社,大分県,大分市,生石港町２丁目６番１１号,,44,201,8700001,,,2022-01-21,清算の結了等,,,2015-10-05,1,,,,,サンエイホーム,0
1138,4380001001121,登記記録の閉鎖等,0,2022-01-28,2022-01-26,株式会社日研商会,,株式会社,福島県,福島市,入江町１２番２７号,,07,201,9608117,,,2022-01-26,清算の結了等,,,2015-10-05,1,,,,,ニッケンショウカイ,0
1142,4400002008939,登記記録の閉鎖等,0,2022-01-28,2022-01-27,有限会社レイライン,,有限会社,岩手県,花巻市,桜台２丁目１３番１１号,,03,205,0250064,,,2022-01-27,清算の結了等,,,2015-10-05,1,,,,,レイライン,0
1145,4430001039107,登記記録の閉鎖等,0,2022-01-28,2022-01-18,株式会社ムゲン,,株式会社,北海道,北広島市,稲穂町西３丁目５番地１６,,01,234,0611124,,,2022-01-18,清算の結了等,,,2015-10-05,1,,,,,ムゲン,0
1161,4700150069190,登記記録の閉鎖等,0,2022-01-28,2021-12-20,東光企業年金基金,,その他,埼玉県,鶴ヶ島市,大字五味ヶ谷１８,,11,241,3502202,,,2021-12-20,その他の清算の結了等,,,2016-01-12,1,,,,,トウコウキギョウネンキンキキン,0
1174,5010001144518,登記記録の閉鎖等,0,2022-01-28,2022-01-26,トレイルオブホープ株式会社,,株式会社,東京都,中央区,銀座１丁目２７番８号,,13,102,1040061,,,2022-01-26,清算の結了等,,,2015-10-05,1,,,,,トレイルオブホープ,0
1182,5010005031200,登記記録の閉鎖等,0,2022-01-28,2022-01-24,一般社団法人地域エネルギー活用推進協議会,,その他の設立登記法人,東京都,千代田区,神田神保町２丁目２０,,13,101,1010051,,,2022-01-24,清算の結了等,,,2019-12-17,1,,,,,チイキエネルギーカツヨウスイシンキョウギカイ,0
1186,5010102005321,登記記録の閉鎖等,0,2022-01-28,2022-01-26,有限会社ノア,,有限会社,東京都,八王子市,川町３０１番地４３,,13,201,1930821,,,2022-01-26,清算の結了等,,,2015-10-05,1,,,,,ノア,0
1220,5011103007430,登記記録の閉鎖等,0,2022-01-28,2022-01-14,ＣＯＣＯＲＯ合同会社,,合同会社,東京都,豊島区,池袋３丁目３４－７ビジネスパーク池袋２階,,13,116,1710014,,,2022-01-14,清算の結了等,,,2017-11-07,1,,,,,ココロ,0
1242,5013102007411,登記記録の閉鎖等,0,2022-01-28,2022-01-24,有限会社谷地軌道,,有限会社,東京都,青梅市,吹上２９９番地の３,,13,205,1980015,,,2022-01-24,清算の結了等,,,2015-10-05,1,,,,,ヤチキドウ,0
1253,5020002009223,登記記録の閉鎖等,0,2022-01-28,2022-01-26,有限会社洛北,,有限会社,神奈川県,横浜市金沢区,富岡西４丁目１３番１７号,,14,108,2360052,,,2022-01-26,清算の結了等,,,2015-10-05,1,,,,,ラクホク,0
1257,5020003017761,登記記録の閉鎖等,0,2022-01-28,2022-01-27,ＥＣＨＯ合同会社,,合同会社,神奈川県,川崎市宮前区,宮崎１丁目５番地２３峯尾ビルＢ棟４０８,,14,136,2160033,,,2022-01-27,清算の結了等,,,2020-04-16,1,,,,,エコー,0
1260,5021001000998,登記記録の閉鎖等,0,2022-01-28,2022-01-28,株式会社湘南冷蔵,,株式会社,神奈川県,藤沢市,片瀬海岸２丁目１６番６号,,14,205,2510035,,,2022-01-28,登記官による閉鎖,,,2015-10-05,1,,,,,,0
1262,5021001005106,登記記録の閉鎖等,0,2022-01-28,2022-01-28,株式会社エスペランサ総合研究所,,株式会社,神奈川県,藤沢市,本藤沢２丁目１２番１９号,,14,205,2510875,,,2022-01-28,登記官による閉鎖,,,2015-10-05,1,,,,,,0
1263,5021001005279,登記記録の閉鎖等,0,2022-01-28,2022-01-28,竜家．ｎｅｔ株式会社,,株式会社,神奈川県,藤沢市,遠藤５６０８番地,,14,205,2520816,,,2022-01-28,登記官による閉鎖,,,2015-10-05,1,,,,,,0
1264,5021001012507,登記記録の閉鎖等,0,2022-01-28,2022-01-28,伸成産業株式会社,,株式会社,神奈川県,相模原市南区,新磯野１丁目３４番２号,,14,153,2520325,,,2022-01-28,登記官による閉鎖,,,2015-10-05,1,,,,,,0
1265,5021001012829,登記記録の閉鎖等,0,2022-01-28,2022-01-28,株式会社相進建機,,株式会社,神奈川県,相模原市南区,相模大野９丁目２０番３９号,,14,153,2520303,,,2022-01-28,登記官による閉鎖,,,2015-10-05,1,,,,,,0
1266,5021001012952,登記記録の閉鎖等,0,2022-01-28,2022-01-28,株式会社大東京不動産,,株式会社,神奈川県,相模原市南区,上鶴間２６９７番地,,14,153,2520302,,,2022-01-28,登記官による閉鎖,,,2016-08-26,1,,,,,,0
1267,5021001017753,登記記録の閉鎖等,0,2022-01-28,2022-01-28,株式会社セントレッジ,,株式会社,神奈川県,相模原市中央区,相模原２丁目３番１３号マリオン相模原ビル２階,,14,152,2520231,,,2022-01-28,登記官による閉鎖,,,2015-10-05,1,,,,,,0
1268,5021001022290,登記記録の閉鎖等,0,2022-01-28,2022-01-28,株式会社Ｐ．Ｅ．Ｃ．,,株式会社,神奈川県,厚木市,森の里５丁目２番１号,,14,212,2430122,,,2022-01-28,登記官による閉鎖,,,2015-10-05,1,,,,,,0
1271,5021001036794,登記記録の閉鎖等,0,2022-01-28,2022-01-28,進旭電気株式会社,,株式会社,神奈川県,平塚市,纒３６３番地１,,14,203,2540901,,,2022-01-28,登記官による閉鎖,,,2015-10-05,1,,,,,,0
1272,5021001044649,登記記録の閉鎖等,0,2022-01-28,2022-01-28,関東通信工業株式会社,,株式会社,神奈川県,横須賀市,秋谷２丁目１３番６－６０３号,,14,201,2400105,,,2022-01-28,登記官による閉鎖,,,2015-10-05,1,,,,,,0
1277,5021002005674,登記記録の閉鎖等,0,2022-01-28,2022-01-28,有限会社エムケイ企画,,有限会社,神奈川県,藤沢市,鵠沼橘１丁目１７番３号,,14,205,2510024,,,2022-01-28,登記官による閉鎖,,,2015-10-05,1,,,,,,0
1278,5021002010261,登記記録の閉鎖等,0,2022-01-28,2022-01-28,有限会社魚心亭,,有限会社,神奈川県,茅ヶ崎市,東海岸南１丁目４番６号,,14,207,2530054,,,2022-01-28,登記官による閉鎖,,,2015-10-05,1,,,,,,0
1279,5021002014964,登記記録の閉鎖等,0,2022-01-28,2022-01-28,有限会社装,,有限会社,神奈川県,鎌倉市,小町２丁目７番３０号,,14,204,2480006,,,2022-01-28,登記官による閉鎖,,,2015-10-05,1,,,,,,0
1280,5021002018627,登記記録の閉鎖等,0,2022-01-28,2022-01-28,有限会社オークラ観光,,有限会社,神奈川県,相模原市中央区,富士見５丁目２番１４号,,14,152,2520236,,,2022-01-28,登記官による閉鎖,,,2015-10-05,1,,,,,,0
1281,5021002021960,登記記録の閉鎖等,0,2022-01-28,2022-01-28,有限会社待夢,,有限会社,神奈川県,相模原市中央区,淵野辺４丁目１番２０号,,14,152,2520206,,,2022-01-28,登記官による閉鎖,,,2015-10-05,1,,,,,,0
1285,5021002035622,登記記録の閉鎖等,0,2022-01-28,2022-01-28,有限会社ヤツダ工業,,有限会社,神奈川県,伊勢原市,上粕屋９２１番地の１,,14,214,2591141,,,2022-01-28,登記官による閉鎖,,,2015-10-05,1,,,,,,0
1286,5021002037065,登記記録の閉鎖等,0,2022-01-28,2022-01-28,有限会社土屋工事,,有限会社,神奈川県,伊勢原市,上粕屋５６６番地１,,14,214,2591141,,,2022-01-28,登記官による閉鎖,,,2015-10-05,1,,,,,,0
1287,5021002037288,登記記録の閉鎖等,0,2022-01-28,2022-01-28,有限会社トップラン,,有限会社,神奈川県,厚木市,下荻野３７２番地４,,14,212,2430203,,,2022-01-28,登記官による閉鎖,,,2015-10-05,1,,,,,,0
1288,5021002038311,登記記録の閉鎖等,0,2022-01-28,2022-01-28,有限会社関野ラジオ店,,有限会社,神奈川県,秦野市,栄町２番１９号,,14,211,2570043,,,2022-01-28,登記官による閉鎖,,,2015-10-05,1,,,,,,0
1289,5021002038385,登記記録の閉鎖等,0,2022-01-28,2022-01-28,有限会社武井建築事務所,,有限会社,神奈川県,秦野市,堀西４５２番地の１,,14,211,2591331,,,2022-01-28,登記官による閉鎖,,,2015-10-05,1,,,,,,0
1290,5021002050282,登記記録の閉鎖等,0,2022-01-28,2022-01-28,有限会社三木美装,,有限会社,神奈川県,足柄下郡湯河原町,土肥４丁目１０番地の７,,14,384,2590303,,,2022-01-28,登記官による閉鎖,,,2015-10-05,1,,,,,,0
1291,5021002053590,登記記録の閉鎖等,0,2022-01-28,2022-01-28,有限会社高橋土建,,有限会社,神奈川県,足柄下郡湯河原町,福浦４５４番地,,14,384,2590311,,,2022-01-28,登記官による閉鎖,,,2015-10-05,1,,,,,,0
1292,5021002053707,登記記録の閉鎖等,0,2022-01-28,2022-01-28,有限会社みつるグループ,,有限会社,神奈川県,小田原市,浜町１丁目９番３１号,,14,206,2500004,,,2022-01-28,登記官による閉鎖,,,2015-10-05,1,,,,,,0
1293,5021002062377,登記記録の閉鎖等,0,2022-01-28,2022-01-28,有限会社アイ・エム・シー,,有限会社,神奈川県,横須賀市,浦上台４丁目５番４号,,14,201,2390815,,,2022-01-28,登記官による閉鎖,,,2015-10-05,1,,,,,,0
1294,5021002064035,登記記録の閉鎖等,0,2022-01-28,2022-01-28,有限会社けい太,,有限会社,神奈川県,横須賀市,根岸町３丁目１１番地４,,14,201,2390807,,,2022-01-28,登記官による閉鎖,,,2015-10-05,1,,,,,,0
1295,5021002067418,登記記録の閉鎖等,0,2022-01-28,2022-01-28,有限会社山岸商店,,有限会社,神奈川県,横須賀市,公郷町１丁目５１番地８,,14,201,2380022,,,2022-01-28,登記官による閉鎖,,,2015-10-05,1,,,,,,0
1296,5021003001623,登記記録の閉鎖等,0,2022-01-28,2022-01-28,合資会社相模セルロシン工業所,,合資会社,神奈川県,愛甲郡愛川町,田代６８０番地,,14,401,2430306,,,2022-01-28,登記官による閉鎖,,,2015-10-05,1,,,,,,0
1297,5021005002553,登記記録の閉鎖等,0,2022-01-28,2022-01-28,神奈川国際交易協同組合,,その他の設立登記法人,神奈川県,相模原市南区,相南３丁目２２番４号,,14,153,2520312,,,2022-01-28,登記官による閉鎖,,,2015-10-05,1,,,,,,0
1298,5021005008583,登記記録の閉鎖等,0,2022-01-28,2022-01-28,医療法人社団千寿会,,その他の設立登記法人,神奈川県,三浦市,南下浦町上宮田３２３１番地,,14,210,2380101,,,2022-01-28,登記官による閉鎖,,,2015-10-05,1,,,,,,0
1300,5030001032613,登記記録の閉鎖等,0,2022-01-28,2022-01-25,トマト硝子株式会社,,株式会社,埼玉県,加須市,北小浜９５４番地の３,,11,210,3470011,,,2022-01-25,清算の結了等,,,2015-10-05,1,,,,,トマトガラス,0
1306,5030002061306,登記記録の閉鎖等,0,2022-01-28,2022-01-24,有限会社斉藤青果,00016891,有限会社,埼玉県,新座市,新座２丁目４番５号,,11,230,3520006,,,2022-01-24,清算の結了等,,,2015-10-05,1,,,,,サイトウセイカ,0
1323,5060001011052,登記記録の閉鎖等,0,2022-01-28,2022-01-24,ハイテックパネル株式会社,,株式会社,栃木県,鹿沼市,板荷１０６番地３,,09,205,3211111,,,2022-01-24,清算の結了等,,,2015-10-05,1,,,,,,0
1329,5060002011497,登記記録の閉鎖等,0,2022-01-28,2022-01-24,有限会社オートクリエーション,,有限会社,栃木県,河内郡上三川町,大字磯岡１６７７番地３,,09,301,3290606,,,2022-01-24,清算の結了等,,,2015-10-05,1,,,,,,0
1343,5100001015073,登記記録の閉鎖等,0,2022-01-28,2022-01-24,株式会社イーコン,,株式会社,長野県,安曇野市,穂高８２８４番地１０,,20,220,3998303,,,2022-01-24,清算の結了等,,,2015-10-05,1,,,,,イーコン,0
1345,5100001032473,登記記録の閉鎖等,0,2022-01-28,2022-01-25,グッドブリューイング株式会社,,株式会社,長野県,北安曇郡白馬村,大字北城３０２０番地６８２号,,20,485,3999301,,,2022-01-25,清算の結了等,,,2019-08-20,1,,,,,グッドブリューイング,0
1369,5120101044433,登記記録の閉鎖等,0,2022-01-28,2022-01-25,水野鉄工株式会社,,株式会社,大阪府,泉南市,馬場２丁目２６番１６号,,27,228,5900525,,,2022-01-25,清算の結了等,,,2015-10-05,1,,,,,,0
1372,5120901010898,登記記録の閉鎖等,0,2022-01-28,2022-01-26,株式会社コージーコーポレーション,,株式会社,大阪府,高槻市,寿町１丁目３０番１号,,27,207,5690826,,,2022-01-26,清算の結了等,,,2015-10-05,1,,,,,コージーコーポレーション,0
1389,5150001021315,登記記録の閉鎖等,0,2022-01-28,2022-01-27,株式会社プルトワ,,株式会社,奈良県,奈良市,押熊町１１１５,,29,201,6310011,,,2022-01-27,清算の結了等,,,2017-03-06,1,,,,,プルトワ,0
1451,5370001002598,登記記録の閉鎖等,0,2022-01-28,2022-01-26,株式会社ＴＥＬＥインダストリー,,株式会社,宮城県,仙台市若林区,南材木町３番地,,04,103,9840805,,,2022-01-26,清算の結了等,,,2015-10-05,1,,,,,,0
1461,5400002001810,登記記録の閉鎖等,0,2022-01-28,2022-01-27,有限会社せんぼく調剤薬局,,有限会社,岩手県,盛岡市,仙北３丁目１３番２２号,,03,201,0200861,,,2022-01-27,清算の結了等,,,2015-10-05,1,,,,,センボクチョウザイヤッキョク,0
1468,5430001037976,登記記録の閉鎖等,0,2022-01-28,2022-01-26,株式会社東商ホーム,,株式会社,北海道,札幌市手稲区,富丘二条４丁目１番１７号,,01,109,0060012,,,2022-01-26,清算の結了等,,,2015-10-05,1,,,,,トウショウホーム,0
1528,6011501026642,登記記録の閉鎖等,0,2022-01-28,2022-01-26,ＳＮＯＷ　ＪＡＰＡＮ株式会社,,株式会社,東京都,荒川区,南千住５丁目４４－１２吉岡ビル１Ｆ,,13,118,1160003,,,2022-01-26,清算の結了等,,,2021-02-18,1,,,,,スノージャパン,0
1540,6012301001793,登記記録の閉鎖等,0,2022-01-28,2022-01-21,東京無線株式会社,,株式会社,東京都,町田市,小山町４３９２番地１,,13,209,1940212,,,2022-01-21,清算の結了等,,,2015-10-05,1,,,,,トウキョウムセン,0
1543,6012803002389,登記記録の閉鎖等,0,2022-01-28,2022-01-27,合同会社浦本,,合同会社,東京都,立川市,錦町２丁目１番３３号,,13,202,1900022,,,2022-01-27,清算の結了等,,,2020-11-16,1,,,,,ウラモト,0
1554,6020001129384,登記記録の閉鎖等,0,2022-01-28,2022-01-25,株式会社ＭＡＲＥ,,株式会社,神奈川県,横浜市神奈川区,鶴屋町２丁目９番地２２日興パレス横浜４０３,,14,102,2210835,,,2022-01-25,清算の結了等,,,2019-01-09,1,,,,,マーレ,0
1559,6021001002449,登記記録の閉鎖等,0,2022-01-28,2022-01-28,株式会社ロボットシステムズ,,株式会社,神奈川県,藤沢市,石川６丁目１番地の１,,14,205,2520815,,,2022-01-28,登記官による閉鎖,,,2015-10-05,1,,,,,,0
1560,6021001005303,登記記録の閉鎖等,0,2022-01-28,2022-01-24,日本Ｍｉｉｔｅｃ株式会社,,株式会社,神奈川県,藤沢市,大庭５０５５番地の６湘南西部２～２０～２０３１,,14,205,2510861,,,2022-01-24,清算の結了等,,,2015-10-05,1,,,,,ニホンミーテック,0
1561,6021001006961,登記記録の閉鎖等,0,2022-01-28,2022-01-28,株式会社シンテック,,株式会社,神奈川県,茅ヶ崎市,円蔵３７０番地,,14,207,2530084,,,2022-01-28,登記官による閉鎖,,,2015-10-05,1,,,,,,0
1562,6021001010682,登記記録の閉鎖等,0,2022-01-28,2022-01-28,カクショウ産業株式会社,,株式会社,神奈川県,鎌倉市,岡本２丁目１番１０号,,14,204,2470072,,,2022-01-28,登記官による閉鎖,,,2015-10-05,1,,,,,,0
1563,6021001023767,登記記録の閉鎖等,0,2022-01-28,2022-01-28,スリーエム株式会社,,株式会社,神奈川県,伊勢原市,上粕屋２５１６番地２４,,14,214,2591141,,,2022-01-28,登記官による閉鎖,,,2015-10-05,1,,,,,,0
1564,6021001024559,登記記録の閉鎖等,0,2022-01-28,2022-01-28,フィナンシャルリサーチ投資顧問株式会社,,株式会社,神奈川県,厚木市,中町２丁目１３番１４号サンシャインビル６０４,,14,212,2430018,,,2022-01-28,登記官による閉鎖,,,2015-10-05,1,,,,,,0
1565,6021001026027,登記記録の閉鎖等,0,2022-01-28,2022-01-28,大和フェンス商事株式会社,,株式会社,神奈川県,大和市,上草柳１９４番地の４,,14,213,2420029,,,2022-01-28,登記官による閉鎖,,,2015-10-05,1,,,,,,0
1566,6021001030409,登記記録の閉鎖等,0,2022-01-28,2022-01-28,株式会社ひかり建設,,株式会社,神奈川県,座間市,相模が丘２丁目９番２８号,,14,216,2520001,,,2022-01-28,登記官による閉鎖,,,2015-10-05,1,,,,,,0
1567,6021001033857,登記記録の閉鎖等,0,2022-01-28,2022-01-28,株式会社産建ホーメスト,,株式会社,神奈川県,南足柄市,塚原２２０３番地,,14,217,2500117,,,2022-01-28,登記官による閉鎖,,,2015-10-05,1,,,,,,0
1568,6021001040944,登記記録の閉鎖等,0,2022-01-28,2022-01-28,株式会社ハミングバードスポーツ,,株式会社,神奈川県,横須賀市,大矢部３丁目１４番１０号,,14,201,2380024,,,2022-01-28,登記官による閉鎖,,,2015-10-05,1,,,,,,0
1570,6021001043633,登記記録の閉鎖等,0,2022-01-28,2022-01-28,株式会社大志,,株式会社,神奈川県,三浦市,三崎町小網代１５７５番地の１,,14,210,2380225,,,2022-01-28,登記官による閉鎖,,,2015-10-05,1,,,,,,0
1574,6021002012570,登記記録の閉鎖等,0,2022-01-28,2022-01-28,有限会社ヤマト,,有限会社,神奈川県,高座郡寒川町,大蔵９５７番地の５,,14,321,2530104,,,2022-01-28,登記官による閉鎖,,,2015-10-05,1,,,,,,0
1575,6021002020004,登記記録の閉鎖等,0,2022-01-28,2022-01-28,有限会社高楽,,有限会社,神奈川県,相模原市南区,当麻４３１番地,,14,153,2520336,,,2022-01-28,登記官による閉鎖,,,2015-10-05,1,,,,,,0
1576,6021002020680,登記記録の閉鎖等,0,2022-01-28,2022-01-28,有限会社佐藤工販,,有限会社,神奈川県,相模原市南区,古淵１丁目１３番３９号,,14,153,2520344,,,2022-01-28,登記官による閉鎖,,,2015-10-05,1,,,,,,0
1578,6021002037923,登記記録の閉鎖等,0,2022-01-28,2022-01-28,有限会社酒蔵味瀧,00013413,有限会社,神奈川県,秦野市,堀西１２４番地,,14,211,2591331,,,2022-01-28,登記官による閉鎖,,,2015-10-05,1,,,,,,0
1579,6021002038095,登記記録の閉鎖等,0,2022-01-28,2022-01-28,有限会社エスティーライン,,有限会社,神奈川県,秦野市,ひばりケ丘６番３９号,,14,211,2570046,,,2022-01-28,登記官による閉鎖,,,2015-10-05,1,,,,,,0
1580,6021002038632,登記記録の閉鎖等,0,2022-01-28,2022-01-28,有限会社ポワソン,,有限会社,神奈川県,秦野市,鶴巻２２５２番地の２,,14,211,2570007,,,2022-01-28,登記官による閉鎖,,,2015-10-05,1,,,,,,0
1581,6021002044738,登記記録の閉鎖等,0,2022-01-28,2022-01-28,有限会社大船建装,,有限会社,神奈川県,海老名市,柏ケ谷１４１番地の５,,14,215,2430402,,,2022-01-28,登記官による閉鎖,,,2015-10-05,1,,,,,,0
1582,6021002046627,登記記録の閉鎖等,0,2022-01-28,2022-01-28,有限会社千代田工機,,有限会社,神奈川県,綾瀬市,蓼川３丁目１３番２７号,,14,218,2521105,,,2022-01-28,登記官による閉鎖,,,2015-10-05,1,,,,,,0
1583,6021002048549,登記記録の閉鎖等,0,2022-01-28,2022-01-28,有限会社わたり,,有限会社,神奈川県,大和市,大和東３丁目３番１号,,14,213,2420017,,,2022-01-28,登記官による閉鎖,,,2015-10-05,1,,,,,,0
1584,6021002050587,登記記録の閉鎖等,0,2022-01-28,2022-01-28,テクニカル・コーティング有限会社,,有限会社,神奈川県,足柄下郡箱根町,箱根２６３番地,,14,382,2500521,,,2022-01-28,登記官による閉鎖,,,2015-10-05,1,,,,,,0
1585,6021002053846,登記記録の閉鎖等,0,2022-01-28,2022-01-28,有限会社愛和ホーム,,有限会社,神奈川県,南足柄市,岩原１２０番地,,14,217,2500113,,,2022-01-28,登記官による閉鎖,,,2015-10-05,1,,,,,,0
1586,6021002054539,登記記録の閉鎖等,0,2022-01-28,2022-01-28,有限会社東海建設,,有限会社,神奈川県,南足柄市,中沼１０５番地,,14,217,2500123,,,2022-01-28,登記官による閉鎖,,,2015-10-05,1,,,,,,0
1587,6021002054778,登記記録の閉鎖等,0,2022-01-28,2022-01-28,有限会社サンライフ,,有限会社,神奈川県,南足柄市,広町３１３番地５,,14,217,2500121,,,2022-01-28,登記官による閉鎖,,,2015-10-05,1,,,,,,0
1588,6021002058746,登記記録の閉鎖等,0,2022-01-28,2022-01-28,有限会社田村商会,,有限会社,神奈川県,平塚市,徳延４５８番地の６,,14,203,2540902,,,2022-01-28,登記官による閉鎖,,,2015-10-05,1,,,,,,0
1589,6021002060033,登記記録の閉鎖等,0,2022-01-28,2022-01-28,有限会社山崎板金,00013800,有限会社,神奈川県,平塚市,桜ケ丘６番１６号,,14,203,2540053,,,2022-01-28,登記官による閉鎖,,,2015-10-05,1,,,,,,0
1590,6021002066476,登記記録の閉鎖等,0,2022-01-28,2022-01-28,有限会社フィジィカル・スポーツさいとう,,有限会社,神奈川県,横須賀市,野比１丁目２４番１７号のばらハイツ１号,,14,201,2390841,,,2022-01-28,登記官による閉鎖,,,2015-10-05,1,,,,,,0
1591,6021002070478,登記記録の閉鎖等,0,2022-01-28,2022-01-28,有限会社ｄＯＵＢＬＥ　ｆＡＩＴＨ,,有限会社,神奈川県,横須賀市,安浦町１丁目３番地,,14,201,2380012,,,2022-01-28,登記官による閉鎖,,,2015-10-05,1,,,,,,0
1594,6021005002949,登記記録の閉鎖等,0,2022-01-28,2022-01-28,特定非営利活動法人持続可能な社会を創造する会,,その他の設立登記法人,神奈川県,相模原市緑区,二本松４丁目８番２６号勝田ビル１０３号室,,14,151,2520137,,,2022-01-28,登記官による閉鎖,,,2015-10-05,1,,,,,,0
1595,6021005004953,登記記録の閉鎖等,0,2022-01-28,2022-01-28,神奈川県精密板金工業協同組合,,その他の設立登記法人,神奈川県,綾瀬市,深谷南５丁目１４番３号,,14,218,2521106,,,2022-01-28,登記官による閉鎖,,,2015-10-05,1,,,,,,0
1596,6021005005539,登記記録の閉鎖等,0,2022-01-28,2022-01-28,医療法人社団慈俊会,,その他の設立登記法人,神奈川県,小田原市,栄町２丁目１番２９号グリーンビル２階,,14,206,2500011,,,2022-01-28,登記官による閉鎖,,,2015-10-05,1,,,,,,0
1606,6040002014179,登記記録の閉鎖等,0,2022-01-28,2022-01-26,有限会社ストリーム,,有限会社,千葉県,千葉市花見川区,作新台１丁目２１番１号,,12,102,2620045,,,2022-01-26,清算の結了等,,,2015-10-05,1,,,,,ストリーム,0
1611,6050002015440,登記記録の閉鎖等,0,2022-01-28,2022-01-24,有限会社セカンド,,有限会社,茨城県,石岡市,大砂１０４５６番地６,,08,205,3150009,,,2022-01-24,清算の結了等,,,2015-10-05,1,,,,,セカンド,0
1684,6160001000135,登記記録の閉鎖等,0,2022-01-28,2022-01-27,株式会社井上建築設計事務所,,株式会社,滋賀県,大津市,京町３丁目４番３２号第１４森田ビル３階,,25,201,5200044,,,2022-01-27,清算の結了等,,,2015-10-05,1,,,,,,0
1694,6180005002555,登記記録の閉鎖等,0,2022-01-28,2022-01-26,医療法人高峯会,,その他の設立登記法人,愛知県,名古屋市中村区,椿町１６番４号しらさぎビル１階,,23,105,4530015,,,2022-01-26,清算の結了等,,,2015-10-05,1,,,,,タカミネカイ,0
1742,6370202003163,登記記録の閉鎖等,0,2022-01-28,2022-01-27,有限会社岩出山環境清掃,,有限会社,宮城県,大崎市,岩出山下野目字新雨沼３８番地６,,04,215,9896412,,,2022-01-27,清算の結了等,,,2015-10-05,1,,,,,イワデヤマカンキョウセイソウ,0
1746,6420002006798,登記記録の閉鎖等,0,2022-01-28,2022-01-26,有限会社久保田青果,,有限会社,青森県,八戸市,下長１丁目１４番６号,,02,203,0391164,,,2022-01-26,清算の結了等,,,2015-10-05,1,,,,,クボタセイカ,0
1755,6480005004620,登記記録の閉鎖等,0,2022-01-28,2022-01-13,天理教徳日分教会,,その他の設立登記法人,徳島県,海部郡美波町,日和佐浦３７０番地の１の１,,36,387,7792304,,,2022-01-13,合併による解散等,1480005004451,令和４年１月１３日徳島県阿南市柳島町中川原６０番地の２天理教徳那賀分教会（1480005004451）に合併し解散,2015-10-05,1,,,,,テンリキョウトクヒブンキョウカイ,0
1761,6500005000393,登記記録の閉鎖等,0,2022-01-28,2022-01-11,天理教媛松分教会,00008331,その他の設立登記法人,愛媛県,松山市,朝生田町２丁目１１番７号,,38,201,7900952,,,2022-01-11,合併による解散等,1480005004468,令和４年１月１１日徳島県阿南市上中町南島７６７番地天理教那賀川分教会（1480005004468）に合併し解散,2015-10-05,1,,,,,テンリキョウヒメマツブンキョウカイ,0
1793,7010602003954,登記記録の閉鎖等,0,2022-01-28,2022-01-21,有限会社セフティオートコジマ,,有限会社,東京都,江東区,豊洲４丁目４番２４号,,13,108,1350061,,,2022-01-21,清算の結了等,,,2015-10-05,1,,,,,セフティオートコジマ,0
1810,7011301012528,登記記録の閉鎖等,0,2022-01-28,2022-01-25,株式会社フィールドビレッジ,,株式会社,東京都,杉並区,高円寺南１丁目７番１－９０３号陽輪台高円寺,,13,115,1660003,,,2022-01-25,清算の結了等,,,2015-10-05,1,,,,,フィールドビレッジ,0
1847,7020001140002,登記記録の閉鎖等,0,2022-01-28,2022-01-25,サイバーエデュケーション株式会社,,株式会社,神奈川県,川崎市中原区,新城５丁目８番２３号ＲＷ新城２０３,,14,133,2110044,,,2022-01-25,清算の結了等,,,2021-02-22,1,,,,,サイバーエデュケーション,0
1857,7021001013692,登記記録の閉鎖等,0,2022-01-28,2022-01-28,株式会社ピープル,,株式会社,神奈川県,相模原市中央区,光が丘２丁目３１番１２号,,14,152,2520227,,,2022-01-28,登記官による閉鎖,,,2015-10-05,1,,,,,,0
1858,7021001021480,登記記録の閉鎖等,0,2022-01-28,2022-01-28,株式会社リライフ,,株式会社,神奈川県,厚木市,寿町２丁目２番１１号,,14,212,2430003,,,2022-01-28,登記官による閉鎖,,,2015-10-05,1,,,,,,0
1859,7021001037023,登記記録の閉鎖等,0,2022-01-28,2022-01-28,株式会社テクノシステム,,株式会社,神奈川県,平塚市,出縄４６８番地１,,14,203,2540915,,,2022-01-28,登記官による閉鎖,,,2015-10-05,1,,,,,,0
1860,7021001039886,登記記録の閉鎖等,0,2022-01-28,2022-01-28,株式会社赤池商店,,株式会社,神奈川県,横須賀市,東逸見町１丁目１９番地,,14,201,2380045,,,2022-01-28,登記官による閉鎖,,,2015-10-05,1,,,,,,0
1864,7021001046189,登記記録の閉鎖等,0,2022-01-28,2022-01-28,株式会社アルコム設計工房,,株式会社,神奈川県,鎌倉市,大船２丁目１番１４号,,14,204,2470056,,,2022-01-28,登記官による閉鎖,,,2015-10-05,1,,,,,,0
1866,7021002000442,登記記録の閉鎖等,0,2022-01-28,2022-01-28,有限会社井克牧場,,有限会社,神奈川県,藤沢市,打戻２３８９番地,,14,205,2520824,,,2022-01-28,登記官による閉鎖,,,2015-10-05,1,,,,,,0
1869,7021002028426,登記記録の閉鎖等,0,2022-01-28,2022-01-28,有限会社和工業,,有限会社,神奈川県,相模原市緑区,下九沢２９６７番地７,,14,151,2520134,,,2022-01-28,登記官による閉鎖,,,2015-10-05,1,,,,,,0
1870,7021002034325,登記記録の閉鎖等,0,2022-01-28,2022-01-28,有限会社本間建築,,有限会社,神奈川県,厚木市,下荻野１２２０番地５,,14,212,2430203,,,2022-01-28,登記官による閉鎖,,,2015-10-05,1,,,,,,0
1871,7021002034408,登記記録の閉鎖等,0,2022-01-28,2022-01-28,有限会社山田縫製,,有限会社,神奈川県,愛甲郡愛川町,半原１７０番地,,14,401,2430307,,,2022-01-28,登記官による閉鎖,,,2015-10-05,1,,,,,,0
1872,7021002036172,登記記録の閉鎖等,0,2022-01-28,2022-01-28,有限会社島村産業,,有限会社,神奈川県,愛甲郡愛川町,半原１６１４－６,,14,401,2430307,,,2022-01-28,登記官による閉鎖,,,2015-10-05,1,,,,,,0
1873,7021002037352,登記記録の閉鎖等,0,2022-01-28,2022-01-28,有限会社アルタコーポレーション,,有限会社,神奈川県,秦野市,鶴巻南３丁目５番９号,,14,211,2570002,,,2022-01-28,登記官による閉鎖,,,2015-10-05,1,,,,,,0
1874,7021002040521,登記記録の閉鎖等,0,2022-01-28,2022-01-28,有限会社神奈川企画,,有限会社,神奈川県,大和市,大和南１丁目４番１１号,,14,213,2420016,,,2022-01-28,登記官による閉鎖,,,2015-10-05,1,,,,,,0
1875,7021002040661,登記記録の閉鎖等,0,2022-01-28,2022-01-28,有限会社空調プラントサービス,,有限会社,神奈川県,大和市,上草柳１７４番地の１７,,14,213,2420029,,,2022-01-28,登記官による閉鎖,,,2015-10-05,1,,,,,,0
1876,7021002044935,登記記録の閉鎖等,0,2022-01-28,2022-01-28,有限会社ケーアイ産業,,有限会社,神奈川県,海老名市,本郷４１０９番地２,,14,215,2430417,,,2022-01-28,登記官による閉鎖,,,2015-10-05,1,,,,,,0
1877,7021002053119,登記記録の閉鎖等,0,2022-01-28,2022-01-28,有限会社丸松,,有限会社,神奈川県,小田原市,根府川１６１番地,,14,206,2500024,,,2022-01-28,登記官による閉鎖,,,2015-10-05,1,,,,,,0
1878,7021002053812,登記記録の閉鎖等,0,2022-01-28,2022-01-28,有限会社ベルトラベルサービス,,有限会社,神奈川県,小田原市,扇町１丁目３４番４－６０５号,,14,206,2500001,,,2022-01-28,登記官による閉鎖,,,2015-10-05,1,,,,,,0
1879,7021002056963,登記記録の閉鎖等,0,2022-01-28,2022-01-28,有限会社建湘,,有限会社,神奈川県,中郡大磯町,国府新宿５７０番地３,,14,341,2590112,,,2022-01-28,登記官による閉鎖,,,2015-10-05,1,,,,,,0
1880,7021002060775,登記記録の閉鎖等,0,2022-01-28,2022-01-28,有限会社経営組織研究所,,有限会社,神奈川県,中郡二宮町,百合が丘２丁目２７番５号,,14,342,2590133,,,2022-01-28,登記官による閉鎖,,,2015-10-05,1,,,,,,0
1881,7021002062689,登記記録の閉鎖等,0,2022-01-28,2022-01-28,有限会社石井商店,,有限会社,神奈川県,横須賀市,久里浜４丁目１３番４号,,14,201,2390831,,,2022-01-28,登記官による閉鎖,,,2015-10-05,1,,,,,,0
1882,7021002063019,登記記録の閉鎖等,0,2022-01-28,2022-01-28,有限会社梅屋酒店,,有限会社,神奈川県,横須賀市,逸見が丘３番６号,,14,201,2380044,,,2022-01-28,登記官による閉鎖,,,2015-10-05,1,,,,,,0
1883,7021002064553,登記記録の閉鎖等,0,2022-01-28,2022-01-28,有限会社サニー企画宇都商会,,有限会社,神奈川県,横須賀市,富士見町３丁目５０番地２３,,14,201,2380021,,,2022-01-28,登記官による閉鎖,,,2015-10-05,1,,,,,,0
1884,7021002066129,登記記録の閉鎖等,0,2022-01-28,2022-01-28,有限会社根橋構造設計事務所,,有限会社,神奈川県,横須賀市,粟田２丁目５０番３号,,14,201,2390845,,,2022-01-28,登記官による閉鎖,,,2015-10-05,1,,,,,,0
1885,7021002068851,登記記録の閉鎖等,0,2022-01-28,2022-01-28,湘南重機有限会社,,有限会社,神奈川県,三浦郡葉山町,堀内１６８９番地,,14,301,2400112,,,2022-01-28,登記官による閉鎖,,,2015-10-05,1,,,,,,0
1886,7021002072168,登記記録の閉鎖等,0,2022-01-28,2022-01-28,有限会社山葉土地管理事務所,,有限会社,神奈川県,横須賀市,武４丁目２７番７号,,14,201,2380313,,,2022-01-28,登記官による閉鎖,,,2016-08-25,1,,,,,,0
1887,7021003002818,登記記録の閉鎖等,0,2022-01-28,2022-01-28,合資会社かづさ屋呉服店,,合資会社,神奈川県,横須賀市,大津町１丁目１８番２５号,,14,201,2390808,,,2022-01-28,登記官による閉鎖,,,2015-10-05,1,,,,,,0
1890,7021005002997,登記記録の閉鎖等,0,2022-01-28,2022-01-28,特定非営利活動法人あつみの里,,その他の設立登記法人,神奈川県,相模原市南区,相模台２丁目２７番７号グレイスメゾン相模台３０１,,14,153,2520321,,,2022-01-28,登記官による閉鎖,,,2015-10-05,1,,,,,,0
1891,7021005006081,登記記録の閉鎖等,0,2022-01-28,2022-01-28,特定非営利活動法人日本国際人権推進協議会,,その他の設立登記法人,神奈川県,小田原市,上新田４５－１番地４０３号,,14,206,2500877,,,2022-01-28,登記官による閉鎖,,,2015-10-05,1,,,,,,0
1898,7030003002067,登記記録の閉鎖等,0,2022-01-28,2022-01-25,アースウインド合同会社,,合同会社,埼玉県,吉川市,保１丁目２番地１－２０３号室,,11,243,3420041,,,2022-01-25,清算の結了等,,,2015-10-05,1,,,,,アースウインド,0
1907,7060001005952,登記記録の閉鎖等,0,2022-01-28,2022-01-25,黒崎瓦工業株式会社,,株式会社,栃木県,さくら市,氏家１１７７番地,,09,214,3291311,,,2022-01-25,清算の結了等,,,2015-10-05,1,,,,,クロサキカワラコウギョウ,0
1916,7100002034467,登記記録の閉鎖等,0,2022-01-28,2022-01-25,有限会社マルヨウ産業,,有限会社,長野県,駒ヶ根市,赤穂９２０８番地５,,20,210,3994117,,,2022-01-25,清算の結了等,,,2015-10-05,1,,,,,マルヨウサンギョウ,0
1936,7120002036726,登記記録の閉鎖等,0,2022-01-28,2022-01-24,有限会社総合印撮天翔,00030906,有限会社,大阪府,大阪市福島区,福島６丁目４番１１号,,27,103,5530003,,,2022-01-24,合併による解散等,6120002076384,令和４年１月２４日大阪市福島区福島六丁目４番１１号株式会社ラミー物流（6120002076384）に合併し解散,2015-10-05,1,,,,,,0
1948,7122001004738,登記記録の閉鎖等,0,2022-01-28,2022-01-26,株式会社宝ビル,,株式会社,大阪府,東大阪市,宝町１２番８号,,27,227,5798025,,,2022-01-26,清算の結了等,,,2015-10-05,1,,,,,タカラビル,0
1961,7150001012717,登記記録の閉鎖等,0,2022-01-28,2022-01-27,株式会社小金,,株式会社,奈良県,香芝市,白鳳台１丁目１６番２４号,,29,210,6390262,,,2022-01-27,清算の結了等,,,2015-10-05,1,,,,,,0
1988,7240001029495,登記記録の閉鎖等,0,2022-01-28,2022-01-25,株式会社御領メタルテック,,株式会社,広島県,福山市,神辺町字下御領６０１番地の１,,34,207,7202117,,,2022-01-25,清算の結了等,,,2015-10-05,1,,,,,ゴリョウ,0
1990,7250001013416,登記記録の閉鎖等,0,2022-01-28,2022-01-26,株式会社コマツコーポレーション,,株式会社,山口県,防府市,大字江泊２０７８番地,,35,206,7470014,,,2022-01-26,清算の結了等,,,2015-10-05,1,,,,,コマツコーポレーション,0
1992,7250001014348,登記記録の閉鎖等,0,2022-01-28,2022-01-26,株式会社パークウエスト山口,,株式会社,山口県,山口市,亀山町５番２号,,35,203,7530089,,,2022-01-26,清算の結了等,,,2015-10-05,1,,,,,パークウエストヤマグチ,0
2009,7330001018522,登記記録の閉鎖等,0,2022-01-28,2022-01-24,株式会社美少年,,株式会社,熊本県,菊池市,四町分字免兎原１０３０番地,,43,210,8611442,,,2022-01-24,合併による解散等,2290001021097,令和４年１月１日福岡市博多区店屋町３番２０号株式会社エヌ・エル・エー（2290001021097）に合併し解散,2015-10-05,1,,,,,,0
2023,7370302002709,登記記録の閉鎖等,0,2022-01-28,2022-01-27,有限会社リンク,,有限会社,宮城県,石巻市,恵み野６丁目５番地９,,04,202,9860868,,,2022-01-27,清算の結了等,,,2015-10-05,1,,,,,リンク,0
2024,7380002000284,登記記録の閉鎖等,0,2022-01-28,2022-01-26,有限会社阿部硝子店,,有限会社,福島県,福島市,笹木野字大金谷４９番地の９,,07,201,9608057,,,2022-01-26,清算の結了等,,,2015-10-05,1,,,,,アベガラステン,0
2026,7390002000977,登記記録の閉鎖等,0,2022-01-28,2022-01-26,株式会社コーワ商会,,株式会社,山形県,山形市,あかねケ丘１丁目８番８号,,06,201,9902481,,,2022-01-26,清算の結了等,,,2015-10-05,1,,,,,コーワショウカイ,0
2027,7400002002872,登記記録の閉鎖等,0,2022-01-28,2022-01-27,有限会社古川鈑金工業,,有限会社,岩手県,盛岡市,猪去外久保７０番地１,,03,201,0200054,,,2022-01-27,清算の結了等,,,2015-10-05,1,,,,,フルカワバンキンコウギョウ,0
2028,7420002005931,登記記録の閉鎖等,0,2022-01-28,2022-01-21,有限会社青森工販,,有限会社,青森県,八戸市,下長２丁目１番３３号,,02,203,0391164,,,2022-01-21,清算の結了等,,,2015-10-05,1,,,,,アオモリコウハン,0
2029,7430001002061,登記記録の閉鎖等,0,2022-01-28,2022-01-26,株式会社栄輝,,株式会社,北海道,札幌市白石区,北郷四条３丁目８番４２号,,01,104,0030834,,,2022-01-26,清算の結了等,,,2015-10-05,1,,,,,エイキ,0
2031,7430002000816,登記記録の閉鎖等,0,2022-01-28,2022-01-26,有限会社アサヒ電器,,有限会社,北海道,札幌市東区,北四十八条東１５丁目２番２７号,,01,103,0070848,,,2022-01-26,清算の結了等,,,2015-10-05,1,,,,,アサヒデンキ,0
2033,7430002039094,登記記録の閉鎖等,0,2022-01-28,2022-01-04,有限会社センショウ,,有限会社,北海道,札幌市西区,宮の沢三条３丁目３番１号,,01,107,0630053,,,2022-01-04,合併による解散等,3430001025999,令和４年１月１日札幌市中央区宮ケ丘一丁目１番２２号モーニングスター株式会社（3430001025999）と合併し解散,2015-10-05,1,,,,,センショウ,0
2039,7440001005534,登記記録の閉鎖等,0,2022-01-28,2022-01-26,株式会社石塚商事,,株式会社,北海道,函館市,西桔梗町７４４番地３,,01,202,0410824,,,2022-01-26,清算の結了等,,,2015-10-05,1,,,,,イシヅカショウジ,0
2082,8010802013876,登記記録の閉鎖等,0,2022-01-28,2022-01-21,有限会社丸山鋳造所,,有限会社,東京都,大田区,東糀谷５丁目２２番７号,,13,111,1440033,,,2022-01-21,清算の結了等,,,2015-10-05,1,,,,,マルヤマチュウゾウショ,0
2083,8010901035235,登記記録の閉鎖等,0,2022-01-28,2022-01-26,株式会社レゴリス,,株式会社,東京都,世田谷区,奥沢５丁目３０番８号,,13,112,1580083,,,2022-01-26,清算の結了等,,,2015-10-05,1,,,,,レゴリス,0
2099,8011201006785,登記記録の閉鎖等,0,2022-01-28,2022-01-21,渡総研株式会社,,株式会社,東京都,中野区,江原町１丁目５番１３号,,13,114,1650023,,,2022-01-21,清算の結了等,,,2015-10-05,1,,,,,ワタリソウケン,0
2124,8012402004272,登記記録の閉鎖等,0,2022-01-28,2022-01-27,有限会社丸菱,,有限会社,東京都,国分寺市,東恋ヶ窪４丁目１８番地７,,13,214,1850014,,,2022-01-27,清算の結了等,,,2015-10-05,1,,,,,マルビシ,0
2150,8021001000129,登記記録の閉鎖等,0,2022-01-28,2022-01-28,飯島商事株式会社,,株式会社,神奈川県,藤沢市,亀井野１丁目３０番地の１０,,14,205,2520813,,,2022-01-28,登記官による閉鎖,,,2015-10-05,1,,,,,,0
2151,8021001008601,登記記録の閉鎖等,0,2022-01-28,2022-01-28,株式会社ｍｅｌｌｏｗ,,株式会社,神奈川県,茅ヶ崎市,若松町１９番地１９号,,14,207,2530051,,,2022-01-28,登記官による閉鎖,,,2015-10-05,1,,,,,,0
2152,8021001008907,登記記録の閉鎖等,0,2022-01-28,2022-01-28,株式会社大船スイミングクラブ,,株式会社,神奈川県,鎌倉市,台３丁目６番１４号,,14,204,2470061,,,2022-01-28,登記官による閉鎖,,,2015-10-05,1,,,,,,0
2153,8021001009104,登記記録の閉鎖等,0,2022-01-28,2022-01-28,株式会社三貴園,,株式会社,神奈川県,鎌倉市,笛田５丁目４４番１１号,,14,204,2480027,,,2022-01-28,登記官による閉鎖,,,2015-10-05,1,,,,,,0
2154,8021001011209,登記記録の閉鎖等,0,2022-01-28,2022-01-28,株式会社サンエーサガミハラ,,株式会社,神奈川県,相模原市中央区,淵野辺本町１丁目１３番２８号,,14,152,2520202,,,2022-01-28,登記官による閉鎖,,,2015-10-05,1,,,,,,0
2155,8021001028954,登記記録の閉鎖等,0,2022-01-28,2022-01-28,株式会社クレスト,,株式会社,神奈川県,海老名市,上今泉４丁目１１番２８号,,14,215,2430431,,,2022-01-28,登記官による閉鎖,,,2015-10-05,1,,,,,,0
2162,8021002012395,登記記録の閉鎖等,0,2022-01-28,2022-01-28,有限会社吉澤デンタルセラミック,,有限会社,神奈川県,茅ヶ崎市,下寺尾１９３０番地１１,,14,207,2530081,,,2022-01-28,登記官による閉鎖,,,2015-10-05,1,,,,,,0
2163,8021002015547,登記記録の閉鎖等,0,2022-01-28,2022-01-28,有限会社プランニング・アンド・インフオメーション,,有限会社,神奈川県,鎌倉市,常盤１８番地３－１０７号,,14,204,2480022,,,2022-01-28,登記官による閉鎖,,,2015-10-05,1,,,,,,0
2164,8021002020290,登記記録の閉鎖等,0,2022-01-28,2022-01-28,有限会社相模技研工業,,有限会社,神奈川県,相模原市中央区,星が丘２丁目１１番１６号,,14,152,2520238,,,2022-01-28,登記官による閉鎖,,,2015-10-05,1,,,,,,0
2165,8021002021933,登記記録の閉鎖等,0,2022-01-28,2022-01-28,有限会社大同工業,,有限会社,神奈川県,相模原市中央区,相模原１丁目６番１号,,14,152,2520231,,,2022-01-28,登記官による閉鎖,,,2015-10-05,1,,,,,,0
2166,8021002021999,登記記録の閉鎖等,0,2022-01-28,2022-01-28,有限会社ダイワ住販,,有限会社,神奈川県,相模原市南区,相模台５丁目８番１２号,,14,153,2520321,,,2022-01-28,登記官による閉鎖,,,2015-10-05,1,,,,,,0
2167,8021002022337,登記記録の閉鎖等,0,2022-01-28,2022-01-28,中日貿易有限会社,,有限会社,神奈川県,相模原市中央区,富士見２丁目７番７－４０６号,,14,152,2520236,,,2022-01-28,登記官による閉鎖,,,2015-10-05,1,,,,,,0
2168,8021002028433,登記記録の閉鎖等,0,2022-01-28,2022-01-28,有限会社美紀造園土木,,有限会社,神奈川県,相模原市中央区,富士見６丁目１５番１９号,,14,152,2520236,,,2022-01-28,登記官による閉鎖,,,2015-10-05,1,,,,,,0
2171,8021002039505,登記記録の閉鎖等,0,2022-01-28,2022-01-28,有限会社Ｖａｍｏｓ,,有限会社,神奈川県,秦野市,曽屋５６１番１６,,14,211,2570031,,,2022-01-28,登記官による閉鎖,,,2015-10-05,1,,,,,,0
2172,8021002043325,登記記録の閉鎖等,0,2022-01-28,2022-01-28,有限会社小俣商事,,有限会社,神奈川県,座間市,相武台１丁目４７５３番地の１小田急相武台ビル内,,14,216,2520011,,,2022-01-28,登記官による閉鎖,,,2015-10-05,1,,,,,,0
2174,8021002055056,登記記録の閉鎖等,0,2022-01-28,2022-01-28,有限会社保田酒店,,有限会社,神奈川県,南足柄市,岩原２３９番地,,14,217,2500113,,,2022-01-28,登記官による閉鎖,,,2015-10-05,1,,,,,,0
2175,8021002055956,登記記録の閉鎖等,0,2022-01-28,2022-01-28,有限会社勝栄,,有限会社,神奈川県,小田原市,寿町３丁目１番１８号,,14,206,2500002,,,2022-01-28,登記官による閉鎖,,,2015-10-05,1,,,,,,0
2176,8021002057960,登記記録の閉鎖等,0,2022-01-28,2022-01-28,有限会社佐藤電気商会,,有限会社,神奈川県,平塚市,平塚２丁目６番３号,,14,203,2540052,,,2022-01-28,登記官による閉鎖,,,2015-10-05,1,,,,,,0
2177,8021002059321,登記記録の閉鎖等,0,2022-01-28,2022-01-28,有限会社ピアノ調律センター湘南,,有限会社,神奈川県,平塚市,桃浜町２５番２１－１０１号,,14,203,2540815,,,2022-01-28,登記官による閉鎖,,,2015-10-05,1,,,,,,0
2178,8021002065682,登記記録の閉鎖等,0,2022-01-28,2022-01-28,有限会社ディー・イー・エル,,有限会社,神奈川県,横須賀市,二葉１丁目１８番５号,,14,201,2390814,,,2022-01-28,登記官による閉鎖,,,2015-10-05,1,,,,,,0
2179,8021002071227,登記記録の閉鎖等,0,2022-01-28,2022-01-28,エリーテク有限会社,,有限会社,神奈川県,三浦郡葉山町,堀内２１００番地の３９,,14,301,2400112,,,2022-01-28,登記官による閉鎖,,,2015-10-05,1,,,,,,0
2180,8021002071499,登記記録の閉鎖等,0,2022-01-28,2022-01-28,有限会社佐藤商事,,有限会社,神奈川県,三浦市,城山町１１番２号,,14,210,2380235,,,2022-01-28,登記官による閉鎖,,,2015-10-05,1,,,,,,0
2182,8021005003292,登記記録の閉鎖等,0,2022-01-28,2022-01-28,特定非営利活動法人グロリーナ,,その他の設立登記法人,神奈川県,相模原市中央区,相模原６丁目２４番地６号,,14,152,2520231,,,2022-01-28,登記官による閉鎖,,,2015-10-05,1,,,,,,0
2183,8021005005421,登記記録の閉鎖等,0,2022-01-28,2022-01-28,社会保険労務士法人高橋事務所,,その他の設立登記法人,神奈川県,海老名市,国分北１丁目７番２７号,,14,215,2430406,,,2022-01-28,登記官による閉鎖,,,2015-10-05,1,,,,,,0
2198,8040001042492,登記記録の閉鎖等,0,2022-01-28,2022-01-24,株式会社セキネ商会,,株式会社,千葉県,市川市,末広２丁目１１番７－４０１号,,12,203,2720121,,,2022-01-24,清算の結了等,,,2015-10-05,1,,,,,セキネショウカイ,0
2210,8050005002434,登記記録の閉鎖等,0,2022-01-28,2021-12-17,特定非営利活動法人ふれあいネット会,,その他の設立登記法人,茨城県,ひたちなか市,阿字ケ浦町１９５番地１５,,08,221,3111201,,,2021-12-17,清算の結了等,,,2015-10-05,1,,,,,フレアイネットカイ,0
2213,8060002037283,登記記録の閉鎖等,0,2022-01-28,2022-01-24,有限会社ホームファミリー,,有限会社,栃木県,足利市,五十部町２７５番地の２,,09,202,3260843,,,2022-01-24,清算の結了等,,,2015-10-05,1,,,,,ホームファミリー,0
2218,8060005000692,登記記録の閉鎖等,0,2022-01-28,2022-01-25,栃木県信用農業協同組合連合会,,その他の設立登記法人,栃木県,宇都宮市,平出工業団地９番地２５,,09,201,3210905,,,2022-01-25,清算の結了等,,,2015-10-05,1,,,,,トチギケンシンヨウ,0
2222,8080101011591,登記記録の閉鎖等,0,2022-01-28,2022-01-25,中部ホンダ販売株式会社,,株式会社,静岡県,富士宮市,浅間町５番７号,,22,207,4180032,,,2022-01-25,清算の結了等,,,2015-10-05,1,,,,,,0
2229,8120001052632,登記記録の閉鎖等,0,2022-01-28,2022-01-26,日新工業株式会社,,株式会社,大阪府,大阪市東淀川区,相川１丁目２番２－８２６号,,27,114,5330007,,,2022-01-26,清算の結了等,,,2015-10-05,1,,,,,,0
2248,8120901042138,登記記録の閉鎖等,0,2022-01-28,2022-01-26,株式会社モレス・リアルティ大阪,,株式会社,大阪府,吹田市,豊津町１１番３４号,,27,205,5640051,,,2022-01-26,清算の結了等,,,2019-12-17,1,,,,,モレスリアルティオオサカ,0
2265,8150001016551,登記記録の閉鎖等,0,2022-01-28,2022-01-27,株式会社襖工房タニグチ,00043100,株式会社,奈良県,大和高田市,大字曽大根４４５番地の１,,29,202,6350054,,,2022-01-27,清算の結了等,,,2015-10-05,1,,,,,,0
2276,8180301010937,登記記録の閉鎖等,0,2022-01-28,2022-01-25,株式会社蒲サ食品,,株式会社,愛知県,蒲郡市,西浦町川東３１番地,,23,214,4430105,,,2022-01-25,清算の結了等,,,2015-10-05,1,,,,,ガマサショクヒン,0
2290,8230001013961,登記記録の閉鎖等,0,2022-01-28,2022-01-26,株式会社ダイサン企画,,株式会社,富山県,富山市,太田南町２３３番地２６,,16,201,9398044,,,2022-01-26,清算の結了等,,,2015-10-05,1,,,,,ダイサンキカク,0
2291,8240001025080,登記記録の閉鎖等,0,2022-01-28,2022-01-26,株式会社トチギテレビ,,株式会社,広島県,庄原市,東城町川東１６５番地２,,34,210,7295121,,,2022-01-26,清算の結了等,,,2015-10-05,1,,,,,トチギテレビ,0
2294,8250001008729,登記記録の閉鎖等,0,2022-01-28,2022-01-26,株式会社オーケーフーズ,,株式会社,山口県,周南市,大字夜市２９５５番地の１,,35,215,7460084,,,2022-01-26,清算の結了等,,,2015-10-05,1,,,,,オーケーフーズ,0
2309,8290001013519,登記記録の閉鎖等,0,2022-01-28,2022-01-26,株式会社サンライフジャパン,,株式会社,福岡県,福岡市博多区,住吉１丁目２番２５号,,40,132,8120018,,,2022-01-26,清算の結了等,,,2015-10-05,1,,,,,サンライフジャパン,0
2326,8320201000593,登記記録の閉鎖等,0,2022-01-28,2022-01-26,株式会社不動産クリエイト,,株式会社,大分県,大分市,中春日町１番１号,,44,201,8700039,,,2022-01-26,清算の結了等,,,2015-10-05,1,,,,,フドウサンクリエイト,0
2338,8370005003400,登記記録の閉鎖等,0,2022-01-28,2022-01-26,特定非営利活動法人東日本大震災復興支援おりづる,,その他の設立登記法人,宮城県,仙台市青葉区,上杉１丁目６番１０号,,04,101,9800011,,,2022-01-26,清算の結了等,,,2015-10-05,1,,,,,ヒガシニホンダイシンサイフッコウシエンオリヅル,0
2340,8380002001884,登記記録の閉鎖等,0,2022-01-28,2022-01-26,有限会社鈴由,,有限会社,福島県,福島市,入江町１２番２７号,,07,201,9608117,,,2022-01-26,清算の結了等,,,2015-10-05,1,,,,,スズヨシ,0
2342,8390002008243,登記記録の閉鎖等,0,2022-01-28,2022-01-26,有限会社土門石業,,有限会社,山形県,飽海郡遊佐町,比子字服部興野１１７番地,,06,461,9998438,,,2022-01-26,清算の結了等,,,2015-10-05,1,,,,,ドモンセキギョウ,0
2350,8430002002943,登記記録の閉鎖等,0,2022-01-28,2022-01-04,有限会社エス・エス・シー,,有限会社,北海道,札幌市中央区,宮ケ丘１丁目１番２２号,,01,101,0640959,,,2022-01-04,合併による解散等,3430001025999,令和４年１月１日札幌市中央区宮ケ丘一丁目１番２２号モーニングスター株式会社（3430001025999）と合併し解散,2015-10-05,1,,,,,エスエスシー,0
2353,8450001010557,登記記録の閉鎖等,0,2022-01-28,2022-01-27,株式会社ＦＲＯＭ　ＥＡＲＴＨ,,株式会社,北海道,旭川市,一条通１４丁目３４９番地,,01,204,0700031,,,2022-01-27,清算の結了等,,,2015-10-05,1,,,,,,0
2354,8460001003774,登記記録の閉鎖等,0,2022-01-28,2022-01-26,あけぼの企画株式会社,,株式会社,北海道,釧路市,双葉町１５番１５０４号,,01,206,0850006,,,2022-01-26,清算の結了等,,,2015-10-05,1,,,,,アケボノキカク,0
2359,8480001001751,登記記録の閉鎖等,0,2022-01-28,2022-01-27,アグリジェック株式会社,,株式会社,徳島県,徳島市,八万町川南５１番地２,,36,201,7708082,,,2022-01-27,清算の結了等,,,2015-10-05,1,,,,,アグリジェック,0
2361,8500002005187,登記記録の閉鎖等,0,2022-01-28,2022-01-27,有限会社ニュー四国ホーム,,有限会社,愛媛県,松山市,福音寺町２６０番地３,,38,201,7900921,,,2022-01-27,清算の結了等,,,2015-10-05,1,,,,,ニューシコクホーム,0
2366,9010001132089,登記記録の閉鎖等,0,2022-01-28,2022-01-19,株式会社オペラシオン,,株式会社,東京都,千代田区,神田須田町１丁目２０番地イシガミビル４Ｆ,,13,101,1010041,,,2022-01-19,清算の結了等,,,2015-10-05,1,,,,,オペラシオン,0
2395,9010801007903,登記記録の閉鎖等,0,2022-01-28,2022-01-21,株式会社東京ハナゾノ,,株式会社,東京都,大田区,山王１丁目９番１６号,,13,111,1430023,,,2022-01-21,清算の結了等,,,2015-10-05,1,,,,,トウキョウハナゾノ,0
2413,9011302006700,登記記録の閉鎖等,0,2022-01-28,2022-01-25,有限会社内藤建設,,有限会社,東京都,杉並区,下高井戸１丁目２２番３号,,13,115,1680073,,,2022-01-25,清算の結了等,,,2015-10-05,1,,,,,ナイトウケンセツ,0
2418,9011702012546,登記記録の閉鎖等,0,2022-01-28,2022-01-26,有限会社リバーフレンズ,,有限会社,東京都,江戸川区,興宮町８番９号,,13,123,1330042,,,2022-01-26,清算の結了等,,,2015-10-05,1,,,,,リバーフレンズ,0
2429,9012702004038,登記記録の閉鎖等,0,2022-01-28,2022-01-26,有限会社オートフレンド,,有限会社,東京都,西東京市,住吉町４丁目１５番３号,,13,229,2020005,,,2022-01-26,清算の結了等,,,2015-10-05,1,,,,,オートフレンド,0
2450,9021001001976,登記記録の閉鎖等,0,2022-01-28,2022-01-28,藤沢映画興行株式会社,,株式会社,神奈川県,藤沢市,藤沢９３番地,,14,205,2510052,,,2022-01-28,登記官による閉鎖,,,2015-10-05,1,,,,,,0
2451,9021001005993,登記記録の閉鎖等,0,2022-01-28,2022-01-28,株式会社Ｍ＆Ｄ湘南コンサルティング,,株式会社,神奈川県,藤沢市,鵠沼桜が岡４丁目５番地３４号,,14,205,2510027,,,2022-01-28,登記官による閉鎖,,,2015-10-05,1,,,,,,0
2452,9021001011430,登記記録の閉鎖等,0,2022-01-28,2022-01-28,株式会社エステートシンコウ,,株式会社,神奈川県,相模原市中央区,陽光台５丁目３番１８号リアークビル１０１,,14,152,2520226,,,2022-01-28,登記官による閉鎖,,,2015-10-05,1,,,,,,0
2453,9021001011595,登記記録の閉鎖等,0,2022-01-28,2022-01-28,小野住建株式会社,,株式会社,神奈川県,相模原市中央区,田名４０５３番地の１,,14,152,2520244,,,2022-01-28,登記官による閉鎖,,,2015-10-05,1,,,,,,0
2454,9021001012222,登記記録の閉鎖等,0,2022-01-28,2022-01-28,相模ハウジング株式会社,,株式会社,神奈川県,相模原市南区,相模台２丁目３番９号,,14,153,2520321,,,2022-01-28,登記官による閉鎖,,,2016-09-23,1,,,,,,0
2455,9021001014219,登記記録の閉鎖等,0,2022-01-28,2022-01-28,株式会社藪塗装店,,株式会社,神奈川県,相模原市南区,上鶴間８丁目４番３号,,14,153,2520302,,,2022-01-28,登記官による閉鎖,,,2015-10-05,1,,,,,,0
2457,9021001027831,登記記録の閉鎖等,0,2022-01-28,2022-01-28,株式会社ファースト,,株式会社,神奈川県,大和市,大和南２丁目１番１号,,14,213,2420016,,,2022-01-28,登記官による閉鎖,,,2015-10-05,1,,,,,,0
2458,9021001027848,登記記録の閉鎖等,0,2022-01-28,2022-01-28,一休管財株式会社,,株式会社,神奈川県,大和市,大和南２丁目１番１号,,14,213,2420016,,,2022-01-28,登記官による閉鎖,,,2015-10-05,1,,,,,,0
2459,9021001035322,登記記録の閉鎖等,0,2022-01-28,2022-01-28,株式会社アグリクチュール,,株式会社,神奈川県,南足柄市,弘西寺２９２番１３号,,14,217,2500132,,,2022-01-28,登記官による閉鎖,,,2015-10-05,1,,,,,,0
2460,9021001036972,登記記録の閉鎖等,0,2022-01-28,2022-01-28,トータス制御株式会社,,株式会社,神奈川県,平塚市,山下１０４１番地,,14,203,2540911,,,2022-01-28,登記官による閉鎖,,,2015-10-05,1,,,,,,0
2461,9021001039232,登記記録の閉鎖等,0,2022-01-28,2022-01-28,株式会社ＳｋｙＴｅｃｈ,,株式会社,神奈川県,平塚市,中堂１３番２９－１０６号,,14,203,2540026,,,2022-01-28,登記官による閉鎖,,,2015-10-05,1,,,,,,0
2462,9021001042723,登記記録の閉鎖等,0,2022-01-28,2022-01-28,株式会社池永設備,,株式会社,神奈川県,横須賀市,大滝町２丁目２５番地,,14,201,2380008,,,2022-01-28,登記官による閉鎖,,,2015-10-05,1,,,,,,0
2463,9021001043515,登記記録の閉鎖等,0,2022-01-28,2022-01-28,株式会社ミヤザワ,,株式会社,神奈川県,三浦市,三崎２丁目１６番１０号,,14,210,2380243,,,2022-01-28,登記官による閉鎖,,,2015-10-05,1,,,,,,0
2466,9021001059560,登記記録の閉鎖等,0,2022-01-28,2022-01-28,株式会社総合エステート,,株式会社,神奈川県,藤沢市,鵠沼桜が岡１丁目１３番１３号,00107064,14,205,2510027,,,2022-01-28,登記官による閉鎖,,,2016-06-24,1,,,,,,0
2471,9021002015059,登記記録の閉鎖等,0,2022-01-28,2022-01-28,有限会社高森工務店,,有限会社,神奈川県,鎌倉市,城廻４５０番地１,,14,204,2470074,,,2022-01-28,登記官による閉鎖,,,2015-10-05,1,,,,,,0
2472,9021002018755,登記記録の閉鎖等,0,2022-01-28,2022-01-28,有限会社大畑商事,,有限会社,神奈川県,相模原市中央区,相生１丁目１番１６号,,14,152,2520235,,,2022-01-28,登記官による閉鎖,,,2015-10-05,1,,,,,,0
2473,9021002025082,登記記録の閉鎖等,0,2022-01-28,2022-01-28,有限会社山商,,有限会社,神奈川県,相模原市南区,東林間６丁目９番１５号,,14,153,2520311,,,2022-01-28,登記官による閉鎖,,,2015-10-05,1,,,,,,0
2474,9021002026064,登記記録の閉鎖等,0,2022-01-28,2022-01-28,有限会社ヒューマンクリエイティブ,,有限会社,神奈川県,相模原市南区,御園２丁目１０番１０号,,14,153,2520317,,,2022-01-28,登記官による閉鎖,,,2015-10-05,1,,,,,,0
2475,9021002034471,登記記録の閉鎖等,0,2022-01-28,2022-01-28,有限会社原田工務店,,有限会社,神奈川県,愛甲郡清川村,煤ヶ谷１１０４番地の５７,,14,402,2430112,,,2022-01-28,登記官による閉鎖,,,2015-10-05,1,,,,,,0
2476,9021002037631,登記記録の閉鎖等,0,2022-01-28,2022-01-28,有限会社大槻団地ストアー,,有限会社,神奈川県,秦野市,下大槻４１０番地２－７－１０４,,14,211,2570004,,,2022-01-28,登記官による閉鎖,,,2015-10-05,1,,,,,,0
2477,9021002043043,登記記録の閉鎖等,0,2022-01-28,2022-01-28,有限会社ローヤル眼鏡,,有限会社,神奈川県,大和市,中央５丁目１番２５号,,14,213,2420021,,,2022-01-28,登記官による閉鎖,,,2015-10-05,1,,,,,,0
2478,9021002043175,登記記録の閉鎖等,0,2022-01-28,2022-01-28,有限会社インテリア・ティアンドエス,,有限会社,神奈川県,座間市,緑ケ丘４丁目１番２１号,,14,216,2520021,,,2022-01-28,登記官による閉鎖,,,2015-10-05,1,,,,,,0
2479,9021002047408,登記記録の閉鎖等,0,2022-01-28,2022-01-28,有限会社ハイデット,,有限会社,神奈川県,海老名市,中央３丁目４番２２－９０８号,,14,215,2430432,,,2022-01-28,登記官による閉鎖,,,2015-10-05,1,,,,,,0
2480,9021002052060,登記記録の閉鎖等,0,2022-01-28,2022-01-28,有限会社湘南保険サービス,,有限会社,神奈川県,小田原市,栄町３丁目９番３５号,,14,206,2500011,,,2022-01-28,登記官による閉鎖,,,2015-10-05,1,,,,,,0
2481,9021002055501,登記記録の閉鎖等,0,2022-01-28,2022-01-28,有限会社藤野組,,有限会社,神奈川県,足柄上郡大井町,金子１７１番地１,,14,362,2580019,,,2022-01-28,登記官による閉鎖,,,2015-10-05,1,,,,,,0
2482,9021002059089,登記記録の閉鎖等,0,2022-01-28,2022-01-28,有限会社仁藤プラス商事,00013772,有限会社,神奈川県,平塚市,東八幡３丁目９番３６号,,14,203,2540016,,,2022-01-28,登記官による閉鎖,,,2015-10-05,1,,,,,,0
2483,9021002059345,登記記録の閉鎖等,0,2022-01-28,2022-01-28,有限会社日乃出家,,有限会社,神奈川県,平塚市,徳延１７９番地の２,,14,203,2540902,,,2022-01-28,登記官による閉鎖,,,2015-10-05,1,,,,,,0
2485,9021005007607,登記記録の閉鎖等,0,2022-01-28,2022-01-28,東芝ライテックユニオン横須賀支部,,その他の設立登記法人,神奈川県,横須賀市,船越町１丁目２０１番地の１東芝ライテック株式会社横須賀工場内,,14,201,2370076,,,2022-01-28,登記官による閉鎖,,,2015-10-05,1,,,,,,0
2512,9050002037317,登記記録の閉鎖等,0,2022-01-28,2022-01-20,有限会社ケンフル,,有限会社,茨城県,取手市,谷中６０４番地,,08,217,3001532,,,2022-01-20,清算の結了等,,,2015-10-05,1,,,,,ケンフル,0
2523,9090001006418,登記記録の閉鎖等,0,2022-01-28,2022-01-21,千須和工業株式会社,,株式会社,山梨県,笛吹市,石和町市部６０８番地,,19,211,4060031,,,2022-01-21,清算の結了等,,,2021-11-12,1,,,,,チスワコウギョウ,0
2544,9120002059700,登記記録の閉鎖等,0,2022-01-28,2022-01-27,有限会社シャノワール,,有限会社,大阪府,大阪市中央区,谷町２丁目１番２０－１００６号,,27,128,5400012,,,2022-01-27,清算の結了等,,,2015-10-05,1,,,,,シャノワール,0
2555,9130001055831,登記記録の閉鎖等,0,2022-01-28,2022-01-25,株式会社神戸医療特区内ＯｎｅＭｅｄｉｃｉｎｅ，ＯｎｅＨｅａｌｔｈセンター,,株式会社,兵庫県,神戸市中央区,港島中町４丁目１番１号,,28,110,6500046,,,2022-01-25,合併による解散等,1120001233008,令和４年１月１８日大阪市北区中之島６－１－３８－２５０６株式会社Ｇｅｔｔｉ　Ｍｅｄｉｃｏ（1120001233008）に合併し解散,2015-10-05,1,,,,,,0
2556,9130002027953,登記記録の閉鎖等,0,2022-01-28,2022-01-26,有限会社関西ＮＹ物流,,有限会社,京都府,八幡市,男山松里２番地の２４中ノ山ハイツ３１号,,26,210,6148364,,,2022-01-26,清算の結了等,,,2015-10-05,1,,,,,カンサイエヌワイブツリュウ,0
2559,9130005010758,登記記録の閉鎖等,0,2022-01-28,2022-01-24,特定非営利活動法人綾部ベンチャー・ものづくりの会,,その他の設立登記法人,京都府,綾部市,味方町薬師谷３００番地の７７,,26,203,6230031,,,2022-01-24,清算の結了等,,,2015-10-05,1,,,,,アヤベベンチャーモノヅクリノカイ,0
2579,9180001117511,登記記録の閉鎖等,0,2022-01-28,2022-01-24,ＬＳＩホールディングス株式会社,,株式会社,愛知県,名古屋市千種区,今池５丁目２－６今池センタービル５Ｆ,,23,101,4640850,,,2022-01-24,清算の結了等,,,2015-10-05,1,,,,,エルエスアイホールディングス,0
2588,9180302000507,登記記録の閉鎖等,0,2022-01-28,2022-01-26,有限会社エル・シー・エー・エンジニアリング,,有限会社,愛知県,岡崎市,梅園町字３丁目５番地４,,23,202,4440031,,,2022-01-26,清算の結了等,,,2015-10-05,1,,,,,エルシーエーエンジニアリング,0
2591,9190001004519,登記記録の閉鎖等,0,2022-01-28,2022-01-24,東建興業株式会社,,株式会社,三重県,北牟婁郡紀北町,東長島１１４５番地の５,,24,543,5193204,,,2022-01-24,清算の結了等,,,2015-10-05,1,,,,,トウケンコウギョウ,0
2617,9320002018867,登記記録の閉鎖等,0,2022-01-28,2022-01-26,有限会社ジャパンディーゼル,,有限会社,大分県,日田市,大字北豆田７８５番地の２,,44,204,8770000,,,2022-01-26,清算の結了等,,,2015-10-05,1,,,,,ジャパンディーゼル,0
2618,9320005004939,登記記録の閉鎖等,0,2022-01-28,2022-01-12,山神社,,その他の設立登記法人,大分県,杵築市,山香町大字小武３２９３番地,,44,210,8791304,,,2022-01-12,合併による解散等,8320005004898,令和４年１月１２日大分県杵築市山香町大字小武１９９７番地小武神社（8320005004898）に合併し解散,2015-10-05,1,,,,,サンジンジャ,0
2626,9340002027214,登記記録の閉鎖等,0,2022-01-28,2022-01-27,有限会社アプリフトコンピューター,,有限会社,鹿児島県,鹿屋市,川西町２５０２番地１,,46,203,8930032,,,2022-01-27,清算の結了等,,,2015-10-05,1,,,,,,0
2656,9440001002240,登記記録の閉鎖等,0,2022-01-28,2022-01-26,株式会社丸コ小林工務店,,株式会社,北海道,函館市,日乃出町２２番３４号,,01,202,0400022,,,2022-01-26,清算の結了等,,,2015-10-05,1,,,,,マルココバヤシコウムテン,0
2663,9480001000884,登記記録の閉鎖等,0,2022-01-28,2022-01-27,株式会社ジェック,,株式会社,徳島県,徳島市,八万町川南５１番地１,,36,201,7708082,,,2022-01-27,清算の結了等,,,2015-10-05,1,,,,,ジェック,0
