sequenceNumber,corporateNumber,process,correct,updateDate,changeDate,name,nameImageId,kind,prefectureName,cityName,streetNumber,addressImageId,prefectureCode,cityCode,postCode,addressOutside,addressOutsideImageId,closeDate,closeCause,successorCorporateNumber,changeCause,assignmentDate,latest,enName,enPrefectureName,enCityName,enAddressOutside,furigana,hihyoji
5,1010001248487,新規,0,2024-09-25,2024-09-25,株式会社ジャムバリュードライブ,,株式会社,東京都,中央区,銀座１丁目１２番４号Ｎ＆ＥＢＬＤ．６Ｆ,,13,102,1040061,,,,,,,2024-09-25,1,,,,,ジャムバリュードライブ,0
9,1010401185272,新規,0,2024-09-25,2024-09-25,株式会社ＴＡＫＡＴＯ,,株式会社,東京都,港区,六本木３丁目３番２５号,,13,103,1060032,,,,,,,2024-09-25,1,,,,,タカト,0
10,1010401185289,新規,0,2024-09-25,2024-09-25,Ａｓｉｔｉｓ株式会社,,株式会社,東京都,港区,南青山３丁目１番３６号青山丸竹ビル６Ｆ,,13,103,1070062,,,,,,,2024-09-25,1,,,,,アサイティス,0
18,1010803005103,新規,0,2024-09-25,2024-09-25,Ｒｉｅｍａｎｎ　Ｖｉｓｉｏｎ合同会社,,合同会社,東京都,大田区,大森北３丁目４番８号ハイタウン大森第２－４０２号室,,13,111,1430016,,,,,,,2024-09-25,1,,,,,リーマンビジョン,0
20,1010901056023,新規,0,2024-09-25,2024-09-25,株式会社ひとしごと,,株式会社,東京都,世田谷区,駒沢５丁目１番８－５０４号,,13,112,1540012,,,,,,,2024-09-25,1,,,,,ヒトシゴト,0
21,1010903009367,新規,0,2024-09-25,2024-09-25,ＮＯＲＤコンサルティング合同会社,,合同会社,東京都,世田谷区,鎌田２丁目２５番１０―３０５号,,13,112,1570077,,,,,,,2024-09-25,1,,,,,ノルドコンサルティング,0
22,1011001164765,新規,0,2024-09-25,2024-09-25,Ｑ＆Ｗ株式会社,,株式会社,東京都,渋谷区,本町４丁目７－２クレール渋谷２０４室,,13,113,1510071,,,,,,,2024-09-25,1,,,,,キューアンドダブリュー,0
23,1011001164823,新規,0,2024-09-25,2024-09-25,株式会社ラゴン,,株式会社,東京都,渋谷区,渋谷２丁目１９番１５号宮益坂ビルディング６０９,,13,113,1500002,,,,,,,2024-09-25,1,,,,,ラゴン,0
24,1011001164831,新規,0,2024-09-25,2024-09-25,フェアテック株式会社,,株式会社,東京都,渋谷区,渋谷２丁目１９番１５号宮益坂ビルディング６０９,,13,113,1500002,,,,,,,2024-09-25,1,,,,,フェアテック,0
26,1011003020066,新規,0,2024-09-25,2024-09-25,合同会社パラダイス,,合同会社,東京都,渋谷区,神宮前６丁目２３番４号桑野ビル２階,,13,113,1500001,,,,,,,2024-09-25,1,,,,,パラダイス,0
30,1011103014959,新規,0,2024-09-25,2024-09-25,合同会社エルコネクト,,合同会社,東京都,新宿区,新宿１丁目１６番１０号２０５,,13,104,1600022,,,,,,,2024-09-25,1,,,,,エルコネクト,0
36,1011701027643,新規,0,2024-09-25,2024-09-25,株式会社９９Ｃｏｍｐａｎｙ,,株式会社,東京都,江戸川区,東葛西４丁目４番１－８１６号,,13,123,1340084,,,,,,,2024-09-25,1,,,,,キュウキュウカンパニー,0
37,1011801044869,新規,0,2024-09-25,2024-09-25,株式会社ゼネフル,,株式会社,東京都,足立区,綾瀬１丁目３８番１６号,,13,121,1200005,,,,,,,2024-09-25,1,,,,,ゼネフル,0
40,1012401042296,新規,0,2024-09-25,2024-09-25,株式会社まちづくりほとりと,,株式会社,東京都,調布市,染地３丁目１番地８１５音楽教室「箱」内,,13,208,1820023,,,,,,,2024-09-25,1,,,,,マチヅクリホトリト,0
41,1012401042305,新規,0,2024-09-25,2024-09-25,ノヴェルバリューテクノロジー株式会社,,株式会社,東京都,武蔵野市,吉祥寺本町１丁目２０－１吉祥寺永谷シティプラザ１００２号室,,13,203,1800004,,,,,,,2024-09-25,1,,,,,ノヴェルバリューテクノロジー,0
44,1013301053136,新規,0,2024-09-25,2024-09-25,Ｕ・ＭＩ株式会社,,株式会社,東京都,豊島区,西池袋１丁目３－５,,13,116,1710021,,,,,,,2024-09-25,1,,,,,ユミ,0
45,1013303007321,新規,0,2024-09-25,2024-09-25,鳳鳴合同会社,,合同会社,東京都,豊島区,西池袋１丁目３１－５白井ビル３－４号室,,13,116,1710021,,,,,,,2024-09-25,1,,,,,ホウメイ,0
47,1020001159353,新規,0,2024-09-25,2024-09-25,株式会社宏生グループ,,株式会社,神奈川県,横浜市磯子区,原町８番５－１１号,,14,107,2350008,,,,,,,2024-09-25,1,,,,,コウセイグループ,0
51,1021001083312,新規,0,2024-09-25,2024-09-25,株式会社Ｃｒａｆｔ,,株式会社,神奈川県,座間市,緑ケ丘３丁目３２番１６－１号,,14,216,2520021,,,,,,,2024-09-25,1,,,,,クラフト,0
53,1021003015040,新規,0,2024-09-25,2024-09-25,合同会社Ｔｏｓｓｙ　Ｃｏｎｓｕｌｔｉｎｇ,,合同会社,神奈川県,伊勢原市,高森３００２番地の７,,14,214,2591114,,,,,,,2024-09-25,1,,,,,トッシーコンサルティング,0
60,1030001162570,新規,0,2024-09-25,2024-09-25,株式会社アトミナ,,株式会社,埼玉県,川越市,大塚新町１８番地１（エスペランサ南大塚Ａ棟）,,11,201,3501178,,,,,,,2024-09-25,1,,,,,アトミナ,0
61,1030001162595,新規,0,2024-09-25,2024-09-25,ＬＩＭ株式会社,,株式会社,埼玉県,さいたま市岩槻区,大字平林寺８１０番地５,,11,110,3390076,,,,,,,2024-09-25,1,,,,,リム,0
67,1030005021855,新規,0,2024-09-25,2024-09-25,ＮＰＯ法人ひみつきち,,その他の設立登記法人,埼玉県,比企郡吉見町,大字和名１９番地２,,11,347,3550152,,,,,,,2024-09-25,1,,,,,ヒミツキチ,0
71,1040001135468,新規,0,2024-09-25,2024-09-25,ＱＷＯＮ　Ｓｋｉｅｓ株式会社,,株式会社,千葉県,船橋市,行田１丁目３４番１－２０７号,,12,204,2730044,,,,,,,2024-09-25,1,,,,,クオンスカイズ,0
72,1040001135484,新規,0,2024-09-25,2024-09-25,株式会社インフォーム,,株式会社,千葉県,千葉市中央区,弁天１丁目１５番３号,,12,101,2600045,,,,,,,2024-09-25,1,,,,,インフォーム,0
73,1040001135492,新規,0,2024-09-25,2024-09-25,株式会社ＡＮＲＩ,,株式会社,千葉県,柏市,若柴２２６番地４４,,12,217,2770871,,,,,,,2024-09-25,1,,,,,アンリ,0
74,1040001135501,新規,0,2024-09-25,2024-09-25,株式会社Ｉ．Ｔ．Ｃｏｎｎｅｃｔ,,株式会社,千葉県,柏市,千代田１丁目１番１２－２０２号,,12,217,2770025,,,,,,,2024-09-25,1,,,,,アイティコネクト,0
75,1040005022506,新規,0,2024-09-25,2024-09-25,一般社団法人地方創生事業推進協会,,その他の設立登記法人,千葉県,香取市,高萩１５０８番地４６,,12,236,2870101,,,,,,,2024-09-25,1,,,,,チホウソウセイジギョウスイシンキョウカイ,0
90,1090001018908,新規,0,2024-09-25,2024-09-25,深山総業株式会社,,株式会社,山梨県,甲府市,大里町１６８９番地,,19,201,4000053,,,,,,,2024-09-25,1,,,,,フカヤマソウギョウ,0
105,1120001268771,新規,0,2024-09-25,2024-09-25,株式会社ｋｉｎｓａｍａ,,株式会社,大阪府,大阪市中央区,高津２丁目１番８号高津フェスタビル,,27,128,5420072,,,,,,,2024-09-25,1,,,,,キンサマ,0
108,1120003027597,新規,0,2024-09-25,2024-09-25,合同会社ＵＡＭ,,合同会社,大阪府,大阪市北区,中津６丁目７番１３号,,27,127,5310071,,,,,,,2024-09-25,1,,,,,ユーエーエム,0
109,1120101070318,新規,0,2024-09-25,2024-09-25,株式会社フラップエンジ,,株式会社,大阪府,和泉市,池田下町１１３４番地の６,,27,219,5940032,,,,,,,2024-09-25,1,,,,,フラップエンジ,0
110,1120105009907,新規,0,2024-09-25,2024-09-25,一般社団法人松原市観光協会,,その他の設立登記法人,大阪府,松原市,阿保１丁目１番１号松原市役所６階,,27,217,5800043,,,,,,,2024-09-25,1,,,,,マツバラシカンコウキョウカイ,0
113,1120901049791,新規,0,2024-09-25,2024-09-25,株式会社ＵＮＳ,,株式会社,大阪府,吹田市,五月が丘北２番２４－１号,,27,205,5650834,,,,,,,2024-09-25,1,,,,,ユーエヌエス,0
114,1120901049809,新規,0,2024-09-25,2024-09-25,株式会社サード・プレイス,,株式会社,大阪府,茨木市,真砂１丁目１３番２－１０１号,,27,211,5670851,,,,,,,2024-09-25,1,,,,,サードプレイス,0
119,1130005017182,新規,0,2024-09-25,2024-09-25,一般社団法人ＩＮＡＨＯＩＲＯ,,その他の設立登記法人,京都府,京都市下京区,和泉屋町１６６,,26,106,6008014,,,,,,,2024-09-25,1,,,,,イナホイロ,0
123,1140001135846,新規,0,2024-09-25,2024-09-25,株式会社大東工業所,,株式会社,兵庫県,伊丹市,梅ノ木１丁目１番２２号,,28,207,6640856,,,,,,,2024-09-25,1,,,,,ダイトウコウギョウショ,0
124,1140001135854,新規,0,2024-09-25,2024-09-25,株式会社ＫＹＮステーブル,,株式会社,兵庫県,尼崎市,杭瀬北新町２丁目２番２１号,,28,202,6600815,,,,,,,2024-09-25,1,,,,,ケイワイエヌステーブル,0
131,1180001163380,新規,0,2024-09-25,2024-09-25,株式会社真心,,株式会社,愛知県,名古屋市中村区,岩塚町３丁目１０２番地の２,,23,105,4530862,,,,,,,2024-09-25,1,,,,,マゴコロ,0
137,1180305009610,新規,0,2024-09-25,2024-09-25,医療法人五省会,,その他の設立登記法人,愛知県,新城市,富永字新栄８番地１,,23,221,4411302,,,,,,,2024-09-25,1,,,,,ゴセイカイ,0
139,1190001031660,新規,0,2024-09-25,2024-09-25,株式会社ウィンズ,,株式会社,三重県,桑名市,中央町４丁目４４番地ウインズビル２Ｆ,,24,205,5110068,,,,,,,2024-09-25,1,,,,,ウィンズ,0
141,1200001042953,新規,0,2024-09-25,2024-09-25,株式会社福助家,,株式会社,岐阜県,高山市,石浦町１丁目２５７番地,,21,203,5060825,,,,,,,2024-09-25,1,,,,,フクスケヤ,0
153,1260005011404,新規,0,2024-09-25,2024-09-25,特定非営利活動法人希望の居場所,,その他の設立登記法人,岡山県,倉敷市,浜ノ茶屋２丁目９番１－７０５号アルファスマート浜ノ茶屋,,33,202,7100061,,,,,,,2024-09-25,1,,,,,キボウノイバショ,0
156,1290005019493,新規,0,2024-09-25,2024-09-25,一般社団法人カラーライフプランナー協会,,その他の設立登記法人,福岡県,福岡市中央区,今泉１丁目１０番２１号,,40,133,8100021,,,,,,,2024-09-25,1,,,,,カラーライフプランナーキョウカイ,0
158,1310003004866,新規,0,2024-09-25,2024-09-25,合同会社ＨＡＲＵ民宿,,合同会社,長崎県,対馬市,美津島町根緒９番地１２,,42,209,8170326,,,,,,,2024-09-25,1,,,,,ハルミンシュク,0
160,1320001020724,新規,0,2024-09-25,2024-09-25,九州キョーラクテクノ株式会社,,株式会社,大分県,中津市,大字大新田３０６番地２９,,44,203,8710001,,,,,,,2024-09-25,1,,,,,キュウシュウキョーラクテクノ,0
161,1320001020732,新規,0,2024-09-25,2024-09-25,株式会社ＹＫ土地,,株式会社,大分県,大分市,府内町３丁目５番１６号,,44,201,8700021,,,,,,,2024-09-25,1,,,,,ワイケイトチ,0
163,1320003004477,新規,0,2024-09-25,2024-09-25,合同会社助六,,合同会社,大分県,国東市,安岐町瀬戸田６５５番地２,,44,214,8730202,,,,,,,2024-09-25,1,,,,,スケロク,0
171,1370003006758,新規,0,2024-09-25,2024-09-25,合同会社優何,,合同会社,宮城県,仙台市宮城野区,高砂２丁目１４番地の６,,04,102,9830014,,,,,,,2024-09-25,1,,,,,ユウカ,0
172,1380001034801,新規,0,2024-09-25,2024-09-25,スマイルシード株式会社,,株式会社,福島県,郡山市,安積町日出山字旧屋敷３９番地メゾンローズＩＩＣ棟１０１号,00136386,07,203,9630101,,,,,,,2024-09-25,1,,,,,スマイルシード,0
173,1380003005858,新規,0,2024-09-25,2024-09-25,ＧＨモータース合同会社,,合同会社,福島県,いわき市,明治団地５１番地１キャッスルエイト１０１,,07,204,9708035,,,,,,,2024-09-25,1,,,,,ジーエイチモータース,0
174,1400001016796,新規,0,2024-09-25,2024-09-25,株式会社ＣＲＡＮＥＬ,,株式会社,岩手県,盛岡市,南大通１丁目１２番２８号,,03,201,0200874,,,,,,,2024-09-25,1,,,,,クラネル,0
183,1430001092703,新規,0,2024-09-25,2024-09-25,株式会社ＫＫＳＣ,,株式会社,北海道,小樽市,色内２丁目１１番１号,,01,203,0470031,,,,,,,2024-09-25,1,,,,,,0
188,1700150127298,新規,0,2024-09-25,2024-09-25,Ｆｏｓｈａｎ　Ｔｅｎｇｙｉ　Ｅ－ｃｏｍｍｅｒｃｅ　Ｃｏ．，Ｌｔｄ,,外国会社等,,,,,,,,Ｒｏｏｍ　２１０３，Ｇ００６，Ｂｕｉｌｄｉｎｇ　１，Ｎｏ．２１３　Ｆｕｎｉｎｇ　Ｒｏａｄ，Ｚｕｍｉａｏ　Ｓｔｒｅｅｔ，Ｃｈａｎｃｈｅｎｇ，Ｆｏｓｈａｎ,,,,,,2024-09-25,1,,,,,ブツザンシトウギデンシショウムユウゲンコウシ,0
194,2010001248354,新規,0,2024-09-25,2024-09-25,グローバルエックス株式会社,,株式会社,東京都,千代田区,九段北１丁目９番１６号九段ＫＡビル８Ｆ,,13,101,1020073,,,,,,,2024-09-25,1,,,,,グローバルエックス,0
195,2010001248429,新規,0,2024-09-25,2024-09-25,株式会社サノキカク,,株式会社,東京都,中央区,銀座１丁目１２－４Ｎ＆ＥＢＬＤ．７階,,13,102,1040061,,,,,,,2024-09-25,1,,,,,サノキカク,0
213,2010603011110,新規,0,2024-09-25,2024-09-25,合同会社ＯＮＥ,,合同会社,東京都,墨田区,錦糸１丁目２番１号アルカセントラル１４階,,13,107,1300013,,,,,,,2024-09-25,1,,,,,ワン,0
220,2010903009374,新規,0,2024-09-25,2024-09-25,合同会社安瀾,,合同会社,東京都,世田谷区,喜多見３丁目１８番６号,,13,112,1570067,,,,,,,2024-09-25,1,,,,,アンラン,0
224,2011001164748,新規,0,2024-09-25,2024-09-25,株式会社Ｍ．Ｔ．ｌａｂ,,株式会社,東京都,渋谷区,道玄坂１丁目１０番８号渋谷道玄坂東急ビル２Ｆ－Ｃ,,13,113,1500043,,,,,,,2024-09-25,1,,,,,エムティラボ,0
225,2011001164772,新規,0,2024-09-25,2024-09-25,株式会社ＴｅｃｈＳａｇｅ,,株式会社,東京都,渋谷区,恵比寿西２丁目８－４ＥＸ恵比寿西ビル５階,,13,113,1500021,,,,,,,2024-09-25,1,,,,,テックセージ,0
226,2011001164814,新規,0,2024-09-25,2024-09-25,株式会社ＭＡＴＳＵＲＩ,,株式会社,東京都,渋谷区,千駄ヶ谷３丁目５３番１７号原宿グリーンハイツ８０５,,13,113,1510051,,,,,,,2024-09-25,1,,,,,マツリ,0
227,2011001164830,新規,0,2024-09-25,2024-09-25,株式会社ウェブリポ,,株式会社,東京都,渋谷区,上原１丁目３－９,,13,113,1510064,,,,,,,2024-09-25,1,,,,,ウェブリポ,0
231,2011003020073,新規,0,2024-09-25,2024-09-25,オペレーションサービス合同会社,,合同会社,東京都,渋谷区,道玄坂１丁目１０番８号渋谷道玄坂東急ビル２Ｆ－Ｃ,,13,113,1500043,,,,,,,2024-09-25,1,,,,,オペレーションサービス,0
236,2011105011169,新規,0,2024-09-25,2024-09-25,一般社団法人ＳＰＶ０２,,その他の設立登記法人,東京都,新宿区,四谷２丁目９番地１５東京ユナイテッド綜合事務所内,,13,104,1600004,,,,,,,2024-09-25,1,,,,,エスピーブイゼロニ,0
238,2011203004487,新規,0,2024-09-25,2024-09-25,合同会社みずほの里,,合同会社,東京都,中野区,中野５丁目２８番１号日本富士コーポ２０１号室,,13,114,1640001,,,,,,,2024-09-25,1,,,,,ミズホノサト,0
242,2011801044868,新規,0,2024-09-25,2024-09-25,株式会社太正堂,,株式会社,東京都,足立区,竹の塚１丁目１２番２号早川ビル３階,,13,121,1210813,,,,,,,2024-09-25,1,,,,,タイショウドウ,0
243,2011801044876,新規,0,2024-09-25,2024-09-25,東菊株式会社,,株式会社,東京都,葛飾区,東金町６丁目６番５号センタービル金町４階４１９室,,13,122,1250041,,,,,,,2024-09-25,1,,,,,トウキク,0
244,2011803006461,新規,0,2024-09-25,2024-09-25,合同会社Ｌ’ｅｔｅｒｎｉｔｅ,,合同会社,東京都,足立区,綾瀬２丁目２２番５－２０５号,,13,121,1200005,,,,,,,2024-09-25,1,,,,,レテルニテ,0
249,2013301053127,新規,0,2024-09-25,2024-09-25,Ｍｉｌａ　Ｋｕｎｉｓ株式会社,,株式会社,東京都,豊島区,東池袋１丁目１７番３号ウェルシャン２０４,,13,116,1700013,,,,,,,2024-09-25,1,,,,,ミラクニス,0
250,2013301053135,新規,0,2024-09-25,2024-09-25,ブルーフォンセ株式会社,,株式会社,東京都,豊島区,巣鴨３丁目１０番９号,,13,116,1700002,,,,,,,2024-09-25,1,,,,,ブルーフォンセ,0
251,2013303007329,新規,0,2024-09-25,2024-09-25,合同会社オリジナルスマイル,,合同会社,東京都,豊島区,要町３丁目１－１３,,13,116,1710043,,,,,,,2024-09-25,1,,,,,オリジナルスマイル,0
257,2020001159385,新規,0,2024-09-25,2024-09-25,ＣＴＤ株式会社,,株式会社,神奈川県,川崎市高津区,久本３丁目６番７－３０３号,,14,134,2130011,,,,,,,2024-09-25,1,,,,,シーティディ,0
262,2021001083286,新規,0,2024-09-25,2024-09-25,株式会社ＴＭ．Ｌａｂ,,株式会社,神奈川県,小田原市,荻窪３１７番地の１,,14,206,2500042,,,,,,,2024-09-25,1,,,,,ティーエムドットラボ,0
263,2021001083311,新規,0,2024-09-25,2024-09-25,株式会社中福センチュリー,,株式会社,神奈川県,茅ヶ崎市,東海岸南６丁目４番３７－Ｅ－１０１号パシフィックガーデン茅ヶ崎,,14,207,2530054,,,,,,,2024-09-25,1,,,,,ナカフクセンチュリー,0
273,2030003025171,新規,0,2024-09-25,2024-09-25,合同会社Ｂｏｏｍ,,合同会社,埼玉県,さいたま市桜区,大字下大久保９３１番地２メゾン中郷２０２,,11,106,3380825,,,,,,,2024-09-25,1,,,,,ブーン,0
280,2040001135483,新規,0,2024-09-25,2024-09-25,株式会社ＲＥＺＡＥＩ,,株式会社,千葉県,佐倉市,王子台５丁目３８－１マリーナＥ棟２０１号室,,12,212,2850837,,,,,,,2024-09-25,1,,,,,レザイ,0
281,2040001135500,新規,0,2024-09-25,2024-09-25,株式会社臣,,株式会社,千葉県,千葉市花見川区,検見川町２丁目２０３番地１４,,12,102,2620023,,,,,,,2024-09-25,1,,,,,トミ,0
282,2040001135525,新規,0,2024-09-25,2024-09-25,株式会社乃蔵商店,,株式会社,千葉県,我孫子市,新木１８４８番地１,,12,222,2701112,,,,,,,2024-09-25,1,,,,,ノクラショウテン,0
283,2050001055417,新規,0,2024-09-25,2024-09-25,株式会社Ｓａｍｍｙ,,株式会社,茨城県,下妻市,宗道２０８９番地,,08,210,3040814,,,,,,,2024-09-25,1,,,,,サミー,0
284,2050001055433,新規,0,2024-09-25,2024-09-25,株式会社ナッツパワー,,株式会社,茨城県,ひたちなか市,阿字ケ浦町２２３７番地１,,08,221,3111201,,,,,,,2024-09-25,1,,,,,,0
285,2050001055441,新規,0,2024-09-25,2024-09-25,株式会社ＫＩＺＵＮＡ,,株式会社,茨城県,ひたちなか市,大字東石川２５７７番地１１９,,08,221,3120052,,,,,,,2024-09-25,1,,,,,キズナ,0
300,2100003007781,新規,0,2024-09-25,2024-09-25,牧ノ入水利管理事業合同会社,,合同会社,長野県,中野市,大字田上牧ノ入２４９３番地２,,20,211,3892371,,,,,,,2024-09-25,1,,,,,マキノイリスイリカンリジギョウ,0
306,2120001268663,新規,0,2024-09-25,2024-09-25,尚球社販売株式会社,,株式会社,大阪府,大阪市中央区,大手通１丁目４番１０号大手前フタバビル９階,,27,128,5400021,,,,,,,2024-09-25,1,,,,,ショウキュウシャハンバイ,0
307,2120001268671,新規,0,2024-09-25,2024-09-25,株式会社ＣＯＭＡＬＡ,,株式会社,大阪府,大阪市西区,北堀江１丁目１６番２５号,,27,106,5500014,,,,,,,2024-09-25,1,,,,,コマラ,0
308,2120001268688,新規,0,2024-09-25,2024-09-25,株式会社ｅｖｅｒｙ,,株式会社,大阪府,大阪市中央区,高麗橋１丁目７番７－１４１２号,,27,128,5410043,,,,,,,2024-09-25,1,,,,,エブリィ,0
309,2120001268713,新規,0,2024-09-25,2024-09-25,宇泉株式会社,,株式会社,大阪府,大阪市港区,弁天４丁目５番１１－３０２号,,27,107,5520007,,,,,,,2024-09-25,1,,,,,タカミ,0
310,2120001268812,新規,0,2024-09-25,2024-09-25,プロード株式会社,,株式会社,大阪府,大阪市北区,本庄東２丁目７番１６号,,27,127,5310074,,,,,,,2024-09-25,1,,,,,プロード,0
312,2120101070317,新規,0,2024-09-25,2024-09-25,株式会社ひろかん,,株式会社,大阪府,貝塚市,木積２０４０番地３,,27,208,5970102,,,,,,,2024-09-25,1,,,,,ヒロカン,0
313,2120101070325,新規,0,2024-09-25,2024-09-25,株式会社アイワ,,株式会社,大阪府,堺市堺区,中向陽町１丁４番７－２０２号,,27,141,5900072,,,,,,,2024-09-25,1,,,,,アイワ,0
315,2120103006062,新規,0,2024-09-25,2024-09-25,森福会計事務所合同会社,,合同会社,大阪府,和泉市,唐国町１丁目８番２５号,,27,219,5941151,,,,,,,2024-09-25,1,,,,,モリフクカイケイジムショ,0
317,2122001038468,新規,0,2024-09-25,2024-09-25,吉川ファルマ株式会社,,株式会社,大阪府,東大阪市,西堤西３番４号,,27,227,5770048,,,,,,,2024-09-25,1,,,,,ヨシカワファルマ,0
318,2122003003008,新規,0,2024-09-25,2024-09-25,ｔＡ　Ｂｒｅｗｉｎｇ合同会社,,合同会社,大阪府,八尾市,曙川東８丁目７５番地サニーコート浅井３０１号,,27,212,5810020,,,,,,,2024-09-25,1,,,,,ティーエーブルーウィング,0
327,2150001027579,新規,0,2024-09-25,2024-09-25,株式会社ＶＩＳＯ,,株式会社,奈良県,奈良市,西大寺国見町１丁目７番２２－２０２号,,29,201,6310823,,,,,,,2024-09-25,1,,,,,ヴィソウ,0
330,2170001018320,新規,0,2024-09-25,2024-09-25,株式会社ユイナス,,株式会社,和歌山県,伊都郡かつらぎ町,大字妙寺１０９４番地の２,,30,341,6497113,,,,,,,2024-09-25,1,,,,,ユイナス,0
344,2180003027401,新規,0,2024-09-25,2024-09-25,オリエンタルエンターテイメント合同会社,,合同会社,愛知県,名古屋市中区,栄３丁目５番１号,,23,106,4600008,,,,,,,2024-09-25,1,,,,,オリエンタルエンターテイメント,0
347,2180301039073,新規,0,2024-09-25,2024-09-25,株式会社ＫＡホールディングス,,株式会社,愛知県,安城市,榎前町南榎１１番地,,23,212,4441214,,,,,,,2024-09-25,1,,,,,ケイエイホールディングス,0
352,2220003003843,新規,0,2024-09-25,2024-09-25,合同会社ロイヤルチンチラ・プロダクション,,合同会社,石川県,白山市,横江町１１０４番地１,,17,210,9240011,,,,,,,2024-09-25,1,,,,,ロイヤルチンチラプロダクション,0
358,2240001063846,新規,0,2024-09-25,2024-09-25,株式会社ふらっと人事・会計,,株式会社,広島県,広島市南区,比治山本町１番２４－９０１号,,34,103,7320816,,,,,,,2024-09-25,1,,,,,フラットジンジカイケイ,0
363,2260005011403,新規,0,2024-09-25,2024-09-25,一般社団法人吉備中央町移住・定住支援センター,,その他の設立登記法人,岡山県,加賀郡吉備中央町,高富６１３番地,,33,681,7092402,,,,,,,2024-09-25,1,,,,,キビチュウオウチョウイジュウテイジュウシエンセンター,0
378,2360001034224,新規,0,2024-09-25,2024-09-25,株式会社山和,,株式会社,沖縄県,沖縄市,胡屋５丁目１４番２３号１Ｆ,,47,211,9040021,,,,,,,2024-09-25,1,,,,,サンワ,0
396,2400005008442,新規,0,2024-09-25,2024-09-25,特定非営利活動法人わらすばキッズ,,その他の設立登記法人,岩手県,北上市,大堤南１丁目１番１２号,,03,206,0240055,,,,,,,2024-09-25,1,,,,,ワラスバキッズ,0
397,2410003003989,新規,0,2024-09-25,2024-09-25,メイプルツリーキャピタル合同会社,,合同会社,秋田県,湯沢市,千石町２丁目１番１３号,,05,207,0120857,,,,,,,2024-09-25,1,,,,,メイプルツリーキャピタル,0
402,2430001092719,新規,0,2024-09-25,2024-09-25,株式会社ＡＫコネクト,,株式会社,北海道,札幌市清田区,平岡公園東１丁目１２番３７号,,01,110,0040882,,,,,,,2024-09-25,1,,,,,エーケイコネクト,0
410,2470001020394,新規,0,2024-09-25,2024-09-25,株式会社Ｃｌｏｗｎ　ｅｖｅｒ　ａｒＱ,,株式会社,香川県,高松市,桜町１丁目１―１７ダイアパレス桜町３０１,,37,201,7600074,,,,,,,2024-09-25,1,,,,,クラウンエバーアーク,0
412,2490003001936,新規,0,2024-09-25,2024-09-25,合同会社雪景舎,,合同会社,高知県,高知市,横内１２１番地１,,39,201,7800964,,,,,,,2024-09-25,1,,,,,セッケイシャ,0
415,2700150127289,新規,0,2024-09-25,2024-09-25,四谷サンハイツマンション敷地売却組合,,その他,東京都,千代田区,麹町３丁目１２番７号２階　株式会社都市計画ラボ　事務所内,,13,101,1020083,,,,,,,2024-09-25,1,,,,,ヨツヤサンハイツマンシヨンシキチバイキヤククミアイ,0
416,2700150127297,新規,0,2024-09-25,2024-09-25,Ｆｏｓｈａｎ　Ｓｈｉ　Ｋｅｋｕ　Ｄｉａｎｚｉ　Ｓｈａｎｇｗｕ　Ｙｏｕｘｉａｎ　Ｇｏｎｇｓｉ,,外国会社等,,,,,,,,Ｒｏｏｍ　１９１，２ｎｄ　Ｆｌｏｏｒ，Ｑｉａｏｂｅｉ　Ｃｏｍｐａｎｙ　Ｃｏｍｐｒｅｈｅｎｓｉｖｅ　Ｂｕｉｌｄｉｎｇ，Ｎｏ．１３　Ｈａｉｌｉｕ　Ｒｏａｄ，Ｇｕｉｃｈｅｎｇ　Ｓｕｂ－ｄｉｓｔｒｉｃｔ，Ｎａｎｈａｉ　Ｄｉｓｔｒｉｃｔ，Ｆｏｓｈａｎ　Ｃｉｔｙ，Ｇｕａｎｇｄｏｎｇ　Ｐｒｏｖｉｎｃｅ,,,,,,2024-09-25,1,,,,,ブツザンシコクコクデンシショウムユウゲンコウシ,0
421,3010001248485,新規,0,2024-09-25,2024-09-25,Ｕｎｄｅｒ　ｔｈｅ　Ｔｒｅｅ株式会社,,株式会社,東京都,中央区,湊１丁目８番１１号八丁堀エイトビル２階,,13,102,1040043,,,,,,,2024-09-25,1,,,,,アンダーザツリー,0
423,3010003044965,新規,0,2024-09-25,2024-09-25,合同会社ＹＭＫＮ,,合同会社,東京都,中央区,勝どき２丁目８番１２－１５１６号,,13,102,1040054,,,,,,,2024-09-25,1,,,,,ワイエムケイエヌ,0
426,3010403033477,新規,0,2024-09-25,2024-09-25,四ツ谷エナジー太陽光４合同会社,,合同会社,東京都,港区,西新橋１丁目１番１号ＥＰコンサルティングサービス内,,13,103,1050003,,,,,,,2024-09-25,1,,,,,ヨツヤエナジータイヨウコウフォー,0
427,3010405023575,新規,0,2024-09-25,2024-09-25,一般社団法人派遣元座談会,,その他の設立登記法人,東京都,港区,港南２丁目１６番４号品川グランドセントラルタワー７階,,13,103,1080075,,,,,,,2024-09-25,1,,,,,ハケンモトザダンカイ,0
428,3010405023600,新規,0,2024-09-25,2024-09-25,一般社団法人日本脱炭素１号,,その他の設立登記法人,東京都,港区,芝大門２丁目１２番３号共生ビル２号館７Ｆ,,13,103,1050012,,,,,,,2024-09-25,1,,,,,ニホンダツタンソイチゴウ,0
430,3010501052940,新規,0,2024-09-25,2024-09-25,株式会社Ａｓｃａｇｅ,,株式会社,東京都,台東区,寿４丁目７番地７－３０２号グリーンキャピタル浅草,,13,106,1110042,,,,,,,2024-09-25,1,,,,,アスケージ,0
432,3010601065966,新規,0,2024-09-25,2024-09-25,恒＿時代株式会社,00136389,株式会社,東京都,江東区,木場５丁目１番５号メイプルハイム木場Ｂ１３２号室,,13,108,1350042,,,,,,,2024-09-25,1,,,,,コウシンジダイ,0
435,3010701046503,新規,0,2024-09-25,2024-09-25,宇信株式会社,,株式会社,東京都,品川区,東五反田１丁目１０番７号ＡＩＯＳ五反田９０３号室,,13,109,1410022,,,,,,,2024-09-25,1,,,,,ウシン,0
436,3010701046585,新規,0,2024-09-25,2024-09-25,神勝株式会社,,株式会社,東京都,品川区,上大崎２丁目８番２１号,,13,109,1410021,,,,,,,2024-09-25,1,,,,,シンカツ,0
439,3010901056021,新規,0,2024-09-25,2024-09-25,株式会社プリメーラ,,株式会社,東京都,世田谷区,大原１丁目３番３号ピアグランド下北沢１０１号室,,13,112,1560041,,,,,,,2024-09-25,1,,,,,プリメーラ,0
444,3011001164796,新規,0,2024-09-25,2024-09-25,ＭＡライフパートナー株式会社,,株式会社,東京都,目黒区,東山１丁目６番２号ＴＰＲ中目黒ビル６階,,13,110,1530043,,,,,,,2024-09-25,1,,,,,エムエーライフパートナー,0
445,3011001164813,新規,0,2024-09-25,2024-09-25,株式会社クボタモカ,,株式会社,東京都,渋谷区,道玄坂１丁目１０番８号渋谷道玄坂東急ビル２Ｆ－Ｃ,,13,113,1500043,,,,,,,2024-09-25,1,,,,,クボタモカ,0
446,3011001164821,新規,0,2024-09-25,2024-09-25,株式会社ジースクエアード,,株式会社,東京都,渋谷区,恵比寿１丁目１５番９号日宝恵比寿ビル４０３,,13,113,1500013,,,,,,,2024-09-25,1,,,,,ジースクエアード,0
447,3011001164854,新規,0,2024-09-25,2024-09-25,株式会社Ｎｓｔｙｌｅ,,株式会社,東京都,渋谷区,恵比寿西２丁目８番４号ＥＸ恵比寿西ビル５階,,13,113,1500021,,,,,,,2024-09-25,1,,,,,エヌスタイル,0
448,3011101108884,新規,0,2024-09-25,2024-09-25,株式会社Ｔｉｐｓ,,株式会社,東京都,新宿区,西新宿８丁目１４番１８号,,13,104,1600023,,,,,,,2024-09-25,1,,,,,ティップス,0
449,3011101108901,新規,0,2024-09-25,2024-09-25,ディ・プランニング株式会社,,株式会社,東京都,新宿区,西新宿６丁目５番１号新宿アイランドタワー２階,,13,104,1600023,,,,,,,2024-09-25,1,,,,,ディプランニング,0
450,3011103014965,新規,0,2024-09-25,2024-09-25,合同会社ＳＰＶ０３,,合同会社,東京都,新宿区,四谷２丁目９番地１５東京ユナイテッド綜合事務所内,,13,104,1600004,,,,,,,2024-09-25,1,,,,,エスピーブイゼロサン,0
451,3011105011168,新規,0,2024-09-25,2024-09-25,一般社団法人ＳＰＶ０１,,その他の設立登記法人,東京都,新宿区,四谷２丁目９番地１５東京ユナイテッド綜合事務所内,,13,104,1600004,,,,,,,2024-09-25,1,,,,,エスピーブイゼロイチ,0
456,3011301030005,新規,0,2024-09-25,2024-09-25,株式会社ＳＦＩＤＡＮＴＩ,,株式会社,東京都,杉並区,高円寺南４丁目４１番１０－２０５号,,13,115,1660003,,,,,,,2024-09-25,1,,,,,スフィダンティ,0
458,3011401026456,新規,0,2024-09-25,2024-09-25,ＪＥＥＰ　ＣＲＥＡＴＩＶＥ　ＤＥＰＡＲＴＭＥＮＴ株式会社,,株式会社,東京都,板橋区,坂下２丁目３番１－１１１号ライオンズグラマシーハウス,,13,119,1740043,,,,,,,2024-09-25,1,,,,,ジープクリエイティブデパートメント,0
463,3012403006751,新規,0,2024-09-25,2024-09-25,未来創造ジパング合同会社,,合同会社,東京都,調布市,国領町２丁目５番１５号コクテイ３Ｆ,,13,208,1820022,,,,,,,2024-09-25,1,,,,,ミライソウゾウジパング,0
472,3013301053126,新規,0,2024-09-25,2024-09-25,株式会社シルバートラスト,,株式会社,東京都,豊島区,東池袋２丁目２６番８号,,13,116,1700013,,,,,,,2024-09-25,1,,,,,シルバートラスト,0
482,3020003026888,新規,0,2024-09-25,2024-09-25,Ａｒｔ合同会社,,合同会社,神奈川県,横浜市港北区,日吉６丁目１２番２７号,,14,109,2230061,,,,,,,2024-09-25,1,,,,,アート,0
483,3020003026962,新規,0,2024-09-25,2024-09-25,Ｓ．Ｋテニス企画合同会社,,合同会社,神奈川県,横浜市栄区,小菅ケ谷２丁目１９番１号,,14,115,2470007,,,,,,,2024-09-25,1,,,,,エスケーテニスキカク,0
485,3021001083186,新規,0,2024-09-25,2024-09-25,株式会社心月キュレーションズ,,株式会社,神奈川県,小田原市,本町４丁目２―４３―２０１,,14,206,2500012,,,,,,,2024-09-25,1,,,,,シンゲツキュレーションズ,0
486,3021001083310,新規,0,2024-09-25,2024-09-25,株式会社道屋,,株式会社,神奈川県,相模原市南区,松が枝町１８番１２号松が枝ビル３０２,,14,153,2520313,,,,,,,2024-09-25,1,,,,,ミチヤ,0
487,3021003015014,新規,0,2024-09-25,2024-09-25,合同会社Ａｎａｓｔａｒｇｉａ,,合同会社,神奈川県,横須賀市,汐入町５丁目３８番地,,14,201,2380042,,,,,,,2024-09-25,1,,,,,アナスタージア,0
508,3040001135490,新規,0,2024-09-25,2024-09-25,株式会社ラックオーバー,,株式会社,千葉県,習志野市,谷津１丁目１５番２２－２６１７号,,12,216,2750026,,,,,,,2024-09-25,1,,,,,ラックオーバー,0
509,3040001135508,新規,0,2024-09-25,2024-09-25,ＳＫ建設株式会社,,株式会社,千葉県,千葉市若葉区,若松台１丁目６番９号,,12,104,2640027,,,,,,,2024-09-25,1,,,,,エスケーケンセツ,0
511,3040003025839,新規,0,2024-09-25,2024-09-25,優妍・漾合同会社,,合同会社,千葉県,千葉市緑区,誉田町２丁目２番地８０１,,12,105,2660005,,,,,,,2024-09-25,1,,,,,ユウケンヨウ,0
512,3040003025863,新規,0,2024-09-25,2024-09-25,合同会社コペル,,合同会社,千葉県,千葉市美浜区,若葉３丁目１番地１１幕張ベイパークミッドスクエアタワー７０５号,,12,106,2610014,,,,,,,2024-09-25,1,,,,,コペル,0
514,3050005013493,新規,0,2024-09-25,2024-09-25,医療法人翡翠会,,その他の設立登記法人,茨城県,ひたちなか市,勝田中央５－１平戸ビル３階３０１号室,,08,221,3120045,,,,,,,2024-09-25,1,,,,,ヒスイカイ,0
516,3080001026505,新規,0,2024-09-25,2024-09-25,株式会社クラウチングキャット,,株式会社,静岡県,静岡市駿河区,中村町７０番地の１,,22,102,4228047,,,,,,,2024-09-25,1,,,,,クラウチングキャット,0
522,3080401027458,新規,0,2024-09-25,2024-09-25,株式会社瑞穂総業,,株式会社,静岡県,袋井市,下山梨１６５３番地の１,,22,216,4370123,,,,,,,2024-09-25,1,,,,,ミズホソウギョウ,0
539,3120001268596,新規,0,2024-09-25,2024-09-25,健行株式会社,,株式会社,大阪府,大阪市住之江区,西加賀屋４丁目７－２３ベルコモンズ西加賀屋４０２号,,27,125,5590016,,,,,,,2024-09-25,1,,,,,ケンコウ,0
540,3120001268687,新規,0,2024-09-25,2024-09-25,Ｔｅａｍ　Ｅｎｅｒｇｙ　ＬＲ株式会社,,株式会社,大阪府,大阪市中央区,北浜２丁目６番１８号,,27,128,5410041,,,,,,,2024-09-25,1,,,,,チームエナジーエルアール,0
541,3120001268761,新規,0,2024-09-25,2024-09-25,株式会社ＪＨＳ,,株式会社,大阪府,大阪市西区,京町堀２丁目１０番２３号,,27,106,5500003,,,,,,,2024-09-25,1,,,,,ジェイエイチエス,0
544,3120101070324,新規,0,2024-09-25,2024-09-25,株式会社ＮＩＮＥ,,株式会社,大阪府,藤井寺市,小山５丁目５番２７号,,27,226,5830033,,,,,,,2024-09-25,1,,,,,ナイン,0
547,3120903005353,新規,0,2024-09-25,2024-09-25,合同会社ＳＨＩＮ,,合同会社,大阪府,高槻市,赤大路町４４番２―１０３号,,27,207,5691146,,,,,,,2024-09-25,1,,,,,シン,0
550,3130001078004,新規,0,2024-09-25,2024-09-25,株式会社Ｗ．Ｌ,,株式会社,京都府,京都市南区,久世築山町２４－４,,26,107,6018203,,,,,,,2024-09-25,1,,,,,ダブルエル,0
551,3130001078012,新規,0,2024-09-25,2024-09-25,株式会社Ｌｉｇｈｔｈｏｕｓｅ,,株式会社,京都府,京都市左京区,高野蓼原町１番地３ルネ下鴨東４２２,,26,103,6068101,,,,,,,2024-09-25,1,,,,,ライトハウス,0
552,3130003009873,新規,0,2024-09-25,2024-09-25,京都相続税申告相談サポート合同会社,,合同会社,京都府,京都市右京区,太秦奥殿町２９番地６,,26,108,6168127,,,,,,,2024-09-25,1,,,,,キョウトソウゾクゼイシンコクソウダンサポート,0
562,3160001026224,新規,0,2024-09-25,2024-09-25,株式会社ＧＥＮＧＯＲＯ,,株式会社,滋賀県,草津市,下笠町１１１０番地,,25,206,5250029,,,,,,,2024-09-25,1,,,,,ゲンゴロウ,0
568,3180001163346,新規,0,2024-09-25,2024-09-25,ＢＥＳＡＹ株式会社,,株式会社,愛知県,名古屋市熱田区,四番１丁目１６番５０号山木マンション１－Ａ,,23,109,4560051,,,,,,,2024-09-25,1,,,,,ビセイ,0
569,3180001163404,新規,0,2024-09-25,2024-09-25,株式会社Ｗｅｓｔ　Ｅａｓｔ　Ｒｏｏｍ,,株式会社,愛知県,春日井市,鳥居松町３丁目３７番地１,,23,206,4860844,,,,,,,2024-09-25,1,,,,,ウエストイーストルーム,0
573,3180301039072,新規,0,2024-09-25,2024-09-25,株式会社タイキホールディングス,,株式会社,愛知県,蒲郡市,八百富町３丁目１１２番地,,23,214,4430055,,,,,,,2024-09-25,1,,,,,タイキホールディングス,0
575,3190003004803,新規,0,2024-09-25,2024-09-25,コルディア合同会社,,合同会社,三重県,四日市市,釆女町１５８８番地６,,24,202,5100954,,,,,,,2024-09-25,1,,,,,コルディア,0
577,3200001042951,新規,0,2024-09-25,2024-09-25,ケバブタイム株式会社,,株式会社,岐阜県,大垣市,島里２丁目２１番地２０,,21,202,5030935,,,,,,,2024-09-25,1,,,,,ケバブタイム,0
578,3200001042968,新規,0,2024-09-25,2024-09-25,株式会社ｓｗｉｔｃｈ,,株式会社,岐阜県,岐阜市,金園町５丁目７番地４,,21,201,5008113,,,,,,,2024-09-25,1,,,,,スウィッチ,0
580,3200003006517,新規,0,2024-09-25,2024-09-25,合同会社ＯＬＩＶＥ,,合同会社,岐阜県,岐阜市,日野東７丁目７番１０号,,21,201,5008211,,,,,,,2024-09-25,1,,,,,オリーブ,0
581,3200005013668,新規,0,2024-09-25,2024-09-25,一般社団法人ミノカモイスラミックセンター,,その他の設立登記法人,岐阜県,美濃加茂市,加茂川町３丁目６番１２－１号,,21,211,5050044,,,,,,,2024-09-25,1,,,,,ミノカモイスラミックセンター,0
586,3220003003842,新規,0,2024-09-25,2024-09-25,七尾中央モビリティマネジメント合同会社,,合同会社,石川県,七尾市,八田町ロ部１番地３,,17,202,9260035,,,,,,,2024-09-25,1,,,,,ナナオチュウオウモビリティマネジメント,0
590,3240001063837,新規,0,2024-09-25,2024-09-25,株式会社和広建設,,株式会社,広島県,呉市,和庄登町５番１８号,,34,202,7370043,,,,,,,2024-09-25,1,,,,,ワコウケンセツ,0
591,3240001063853,新規,0,2024-09-25,2024-09-25,株式会社リベルブライト,,株式会社,広島県,廿日市市,阿品１丁目４番１号,,34,213,7380054,,,,,,,2024-09-25,1,,,,,リベルブライト,0
592,3240003006868,新規,0,2024-09-25,2024-09-25,合同会社ＡＳＡＫ,,合同会社,広島県,広島市南区,的場町１丁目３番４号,,34,103,7320824,,,,,,,2024-09-25,1,,,,,エーエスエーケー,0
593,3240005015834,新規,0,2024-09-25,2024-09-25,医療法人社団縁誠会,,その他の設立登記法人,広島県,福山市,芦田町大字下有地９８０番地２,,34,207,7201262,,,,,,,2024-09-25,1,,,,,エンセイカイ,0
601,3290003015856,新規,0,2024-09-25,2024-09-25,合同会社Ｓｔａｒ　Ａｃｃｏｕｎｔｉｎｇ,,合同会社,福岡県,福岡市中央区,長浜２丁目２―８―２１０３,,40,133,8100072,,,,,,,2024-09-25,1,,,,,スターアカウンティング,0
603,3290005019483,新規,0,2024-09-25,2024-09-25,一般社団法人九州人文社会科学研究会,,その他の設立登記法人,福岡県,糸島市,池田１番地,,40,230,8191103,,,,,,,2024-09-25,1,,,,,キュウシュウジンブンシャカイカガクケンキュウカイ,0
616,3360001034215,新規,0,2024-09-25,2024-09-25,株式会社島風雅,,株式会社,沖縄県,宮古島市,下地字上地６８７番４－２Ｆ,,47,214,9060304,,,,,,,2024-09-25,1,,,,,トウフウガ,0
617,3360001034223,新規,0,2024-09-25,2024-09-25,サン・ハウス株式会社,,株式会社,沖縄県,沖縄市,胡屋６丁目１２番１号１Ｆ,,47,211,9040021,,,,,,,2024-09-25,1,,,,,サンハウス,0
618,3360001034231,新規,0,2024-09-25,2024-09-25,株式会社Ｓ３‐ｅｓｕｒｉ,,株式会社,沖縄県,浦添市,城間４丁目２９番１４号,,47,208,9012133,,,,,,,2024-09-25,1,,,,,エスリ,0
632,3430001092718,新規,0,2024-09-25,2024-09-25,株式会社ＳＹホールディングス,,株式会社,北海道,小樽市,稲穂３丁目５番１４号,,01,203,0470032,,,,,,,2024-09-25,1,,,,,エスワイホールディングス,0
633,3430001092726,新規,0,2024-09-25,2024-09-25,株式会社Ｐｅｎｄｕｌｕｍ,,株式会社,北海道,札幌市西区,琴似二条２丁目２番１７号ファーストプラザ２０２号室,,01,107,0630812,,,,,,,2024-09-25,1,,,,,ペンデュラム,0
637,3450001014414,新規,0,2024-09-25,2024-09-25,株式会社エンドレス,,株式会社,北海道,旭川市,二条通７丁目４３５番地,,01,204,0700032,,,,,,,2024-09-25,1,,,,,エンドレス,0
642,3490001010871,新規,0,2024-09-25,2024-09-25,Ｄｒｉｔｔｏ．Ｏｎｅ株式会社,,株式会社,高知県,宿毛市,平田町中山６８５番地１,,39,208,7880782,,,,,,,2024-09-25,1,,,,,ドリットワン,0
643,3500001025892,新規,0,2024-09-25,2024-09-25,株式会社経理でツナグ,,株式会社,愛媛県,西条市,神拝甲２７４番地２０,,38,206,7930041,,,,,,,2024-09-25,1,,,,,ケイリデツナグ,0
645,3700150127296,新規,0,2024-09-25,2024-09-25,Ｆｏｓｈａｎ　Ｊｕｅｑｉ　Ｔｒａｄｉｎｇ　Ｃｏ．，Ｌｔｄ．,,外国会社等,,,,,,,,３７３－３，Ｚｏｎｅ　Ｃ，３ｒｄ　Ｆｌｏｏｒ，Ｇ１１　Ｉｎｄｕｓｔｒｉａｌ　Ｚｏｎｅ，Ｄｉｅｂｅｉ　Ｔａｎｔｏｕ　Ｉｎｄｕｓｔｒｉａｌ　Ｚｏｎｅ，Ｇｕｉｃｈｅｎｇ　Ｓｔｒｅｅｔ，Ｎａｎｈａｉ，Ｆｏｓｈａｎ,,,,,,2024-09-25,1,,,,,ブツザンシカクキボウエキユウゲンコウシ,0
651,4010001248526,新規,0,2024-09-25,2024-09-25,ＰｏｎｏＳＨＩＰ株式会社,,株式会社,東京都,中央区,日本橋兜町１７番１号日本橋ロイヤルプラザ７０６,,13,102,1030026,,,,,,,2024-09-25,1,,,,,ポノシップ,0
652,4010003044980,新規,0,2024-09-25,2024-09-25,合同会社Ｒｅｂｏｏｔ,,合同会社,東京都,千代田区,神田和泉町１番地６－１６ヤマトビル４０５,,13,101,1010024,,,,,,,2024-09-25,1,,,,,リブート,0
660,4010401185278,新規,0,2024-09-25,2024-09-25,Ｒｅｄ　ＢｏｎＢｏｎ株式会社,,株式会社,東京都,港区,北青山１丁目４番１－６０１号,,13,103,1070061,,,,,,,2024-09-25,1,,,,,レッドボンボン,0
661,4010401185294,新規,0,2024-09-25,2024-09-25,株式会社ＧＲＩＡ　ＪＡＰＡＮ,,株式会社,東京都,港区,東麻布２－３１－７マークプレイス麻布十番８０２,,13,103,1050000,,,,,,,2024-09-25,1,,,,,グリアジャパン,0
664,4010405023616,新規,0,2024-09-25,2024-09-25,お台場インベストメンツ１一般社団法人,,その他の設立登記法人,東京都,港区,六本木１丁目６番１号泉ガーデンタワー,,13,103,1060032,,,,,,,2024-09-25,1,,,,,オダイバインベストメンツワン,0
666,4010601065965,新規,0,2024-09-25,2024-09-25,明日の光株式会社,,株式会社,東京都,墨田区,向島４丁目１番１－１０３号,,13,107,1310033,,,,,,,2024-09-25,1,,,,,アスノヒカリ,0
667,4010601065973,新規,0,2024-09-25,2024-09-25,株式会社Ｍａｒｇｅ,,株式会社,東京都,江東区,平野２丁目１２番１０号,,13,108,1350023,,,,,,,2024-09-25,1,,,,,マージ,0
668,4010603011100,新規,0,2024-09-25,2024-09-25,ＨＡＲＵＣＵＢＥ合同会社,,合同会社,東京都,墨田区,八広１丁目２４番３号１０１号室,,13,107,1310041,,,,,,,2024-09-25,1,,,,,ハルキューブ,0
672,4010801035413,新規,0,2024-09-25,2024-09-25,株式会社猫ざんまい,,株式会社,東京都,大田区,西蒲田６丁目３７番８号石毛第５ビル５階,,13,111,1440051,,,,,,,2024-09-25,1,,,,,ネコザンマイ,0
679,4011001164589,新規,0,2024-09-25,2024-09-25,株式会社ｌｉｅｆｅｓｔ,,株式会社,東京都,渋谷区,広尾１丁目３－１５岩崎ビル９０２,,13,113,1500012,,,,,,,2024-09-25,1,,,,,リーフェスト,0
680,4011001164787,新規,0,2024-09-25,2024-09-25,株式会社Ｒｅｌａｔｉｏｎｓｈｉｐ,,株式会社,東京都,渋谷区,渋谷２丁目１９－１５宮益坂ビルディング６０９,,13,113,1500002,,,,,,,2024-09-25,1,,,,,リレーションシップ,0
681,4011001164804,新規,0,2024-09-25,2024-09-25,株式会社ＪＢＡ,,株式会社,東京都,渋谷区,恵比寿西２丁目２０番１－４１１号,,13,113,1500021,,,,,,,2024-09-25,1,,,,,ジェイビーエー,0
682,4011001164812,新規,0,2024-09-25,2024-09-25,株式会社アンドア,,株式会社,東京都,渋谷区,道玄坂１丁目１０番８号渋谷道玄坂東急ビル２Ｆ‐Ｃ,,13,113,1500043,,,,,,,2024-09-25,1,,,,,アンドア,0
683,4011001164829,新規,0,2024-09-25,2024-09-25,ＬＯＧＩＳＴＩＣＡＬ株式会社,,株式会社,東京都,渋谷区,東１丁目２９番３号渋谷ブリッジＢ棟,,13,113,1500011,,,,,,,2024-09-25,1,,,,,ロジスティカル,0
684,4011001164837,新規,0,2024-09-25,2024-09-25,株式会社セレクト,,株式会社,東京都,渋谷区,渋谷２丁目１９番１５号宮益坂ビルディング６０９,,13,113,1500002,,,,,,,2024-09-25,1,,,,,セレクト,0
686,4011101108891,新規,0,2024-09-25,2024-09-25,株式会社Ｆｉｅｒｔｅ,,株式会社,東京都,新宿区,西新宿３丁目９番７号フロンティア新宿タワー１９０９,,13,104,1600023,,,,,,,2024-09-25,1,,,,,フィエルテ,0
687,4011103014964,新規,0,2024-09-25,2024-09-25,合同会社ＳＰＶ０２,,合同会社,東京都,新宿区,四谷２丁目９番地１５東京ユナイテッド綜合事務所内,,13,104,1600004,,,,,,,2024-09-25,1,,,,,エスピーブイゼロニ,0
688,4011103014972,新規,0,2024-09-25,2024-09-25,合同会社ＳＫＩＴＢＯＯＫ,,合同会社,東京都,新宿区,西早稲田３丁目８番１－２０９号,,13,104,1690051,,,,,,,2024-09-25,1,,,,,スケッチブック,0
689,4011201025814,新規,0,2024-09-25,2024-09-25,株式会社セミラティクス,,株式会社,東京都,中野区,南台３丁目３８－１４ストークマンションＡ・Ｔ２０１,,13,114,1640014,,,,,,,2024-09-25,1,,,,,セミラティクス,0
691,4011305003006,新規,0,2024-09-25,2024-09-25,医療法人社団旬礼会,,その他の設立登記法人,東京都,杉並区,高円寺北２丁目３番３号ＷＨＡＲＦ高円寺５階,,13,115,1660002,,,,,,,2024-09-25,1,,,,,シュンレイカイ,0
699,4011801044874,新規,0,2024-09-25,2024-09-25,ＴＩＣ　ＴＥＣＨＮＯＬＯＧＹ　ＪＡＰＡＮ株式会社,,株式会社,東京都,足立区,千住中居町２８番７号萬国ステイタスビル２Ｆ,,13,121,1200035,,,,,,,2024-09-25,1,,,,,ティックテクノロジージャパン,0
700,4011803006468,新規,0,2024-09-25,2024-09-25,オモイカネ合同会社,,合同会社,東京都,足立区,東綾瀬１丁目２６―１９―５０９,,13,121,1200004,,,,,,,2024-09-25,1,,,,,オモイカネ,0
703,4012403006759,新規,0,2024-09-25,2024-09-25,合同会社ＭＪＫ,,合同会社,東京都,武蔵野市,西久保１丁目１番地９号ティーズロフト３０３,,13,203,1800013,,,,,,,2024-09-25,1,,,,,エムジェイケイ,0
707,4013303007319,新規,0,2024-09-25,2024-09-25,合同会社Ｒａｂｂｙ,,合同会社,東京都,豊島区,西池袋２丁目２９－１５フローラｓｔ３０２号,,13,116,1710021,,,,,,,2024-09-25,1,,,,,ラビー,0
720,4030001162592,新規,0,2024-09-25,2024-09-25,株式会社ＲＡＣＳ,,株式会社,埼玉県,川口市,新堀町５番２６号,,11,203,3340068,,,,,,,2024-09-25,1,,,,,ラクス,0
726,4040001135498,新規,0,2024-09-25,2024-09-25,株式会社ＫＴＧ,,株式会社,千葉県,柏市,柏４４３番地,,12,217,2770005,,,,,,,2024-09-25,1,,,,,ケーティージー,0
727,4040001135507,新規,0,2024-09-25,2024-09-25,エママックス株式会社,,株式会社,千葉県,松戸市,上本郷６１８－１－１０４,,12,207,2710064,,,,,,,2024-09-25,1,,,,,エママックス,0
730,4040005022503,新規,0,2024-09-25,2024-09-25,一般社団法人日本ウクライナパートナーシップ協会,,その他の設立登記法人,千葉県,浦安市,入船１丁目８番１－１２１１号エアレジデンス新浦安,,12,227,2790012,,,,,,,2024-09-25,1,,,,,ニホンウクライナパートナーシップキョウカイ,0
731,4050001055448,新規,0,2024-09-25,2024-09-25,株式会社トランスファーコーナー,,株式会社,茨城県,水戸市,笠原町１１８９－２グリーンヒル西野ビル,,08,201,3100852,,,,,,,2024-09-25,1,,,,,トランスファーコーナー,0
734,4070001042196,新規,0,2024-09-25,2024-09-25,株式会社素に住む,,株式会社,群馬県,高崎市,芝塚町１９５７番地１,,10,202,3700064,,,,,,,2024-09-25,1,,,,,スニスム,0
735,4080001026504,新規,0,2024-09-25,2024-09-25,株式会社フロンティア,,株式会社,静岡県,静岡市清水区,駒越北町８番５号,,22,103,4240906,,,,,,,2024-09-25,1,,,,,フロンティア,0
737,4080003003294,新規,0,2024-09-25,2024-09-25,合同会社アトム,,合同会社,静岡県,牧之原市,静谷２３９－１３,,22,226,4210404,,,,,,,2024-09-25,1,,,,,アトム,0
739,4080101025018,新規,0,2024-09-25,2024-09-25,スパイラルホールディングス株式会社,,株式会社,静岡県,富士市,平垣町２番４号,,22,210,4160918,,,,,,,2024-09-25,1,,,,,スパイラルホールディングス,0
741,4080401027457,新規,0,2024-09-25,2024-09-25,株式会社笹田薬局,,株式会社,静岡県,浜松市中央区,富塚町２２０７番地の１,,22,138,4328002,,,,,,,2024-09-25,1,,,,,ササダヤッキョク,0
745,4090003002650,新規,0,2024-09-25,2024-09-25,合同会社ＤＩＹ,,合同会社,山梨県,甲府市,西田町５番４２号西田グリーンハイツＡ２１０,,19,201,4000004,,,,,,,2024-09-25,1,,,,,ディーアイワイ,0
764,4120001268686,新規,0,2024-09-25,2024-09-25,株式会社ＡＩ　Ｓａｌｅｓ　Ｂｏｏｓｔｅｒ,,株式会社,大阪府,大阪市中央区,北浜２丁目６番１８号,,27,128,5410041,,,,,,,2024-09-25,1,,,,,エーアイセールスブースター,0
766,4120005024549,新規,0,2024-09-25,2024-09-25,ＮＰＯ法人アイシー,,その他の設立登記法人,大阪府,大阪市西成区,鶴見橋１丁目１６番１２号,,27,122,5570031,,,,,,,2024-09-25,1,,,,,アイシー,0
770,4120903005352,新規,0,2024-09-25,2024-09-25,合同会社Ｅｍｂａｒｋ,,合同会社,大阪府,豊中市,上新田２丁目５番１３号,,27,203,5600085,,,,,,,2024-09-25,1,,,,,エンバーク,0
780,4140001135851,新規,0,2024-09-25,2024-09-25,株式会社旭サステナブル,,株式会社,兵庫県,姫路市,青山西４丁目４番１号,,28,201,6712224,,,,,,,2024-09-25,1,,,,,アサヒサステナブル,0
783,4140003021117,新規,0,2024-09-25,2024-09-25,合同会社イノベーション,,合同会社,兵庫県,宝塚市,武庫川町６番２５－７０１号,,28,214,6650844,,,,,,,2024-09-25,1,,,,,イノベーション,0
785,4150003003378,新規,0,2024-09-25,2024-09-25,アイモ合同会社,,合同会社,奈良県,香芝市,五位堂３丁目５９９番地２,,29,210,6390226,,,,,,,2024-09-25,1,,,,,アイモ,0
787,4160001026231,新規,0,2024-09-25,2024-09-25,信楽まちづくり株式会社,,株式会社,滋賀県,甲賀市,信楽町長野１０５５番地１,,25,209,5291851,,,,,,,2024-09-25,1,,,,,シガラキマチヅクリ,0
788,4170003002106,新規,0,2024-09-25,2024-09-25,合同会社Ｐｏｒｔｉｓｓｉｍｏ,,合同会社,和歌山県,西牟婁郡すさみ町,見老津４３６番地,,30,406,6493141,,,,,,,2024-09-25,1,,,,,ポルティッシモ,0
798,4180001163320,新規,0,2024-09-25,2024-09-25,株式会社ルアナ,,株式会社,愛知県,名古屋市中区,栄５丁目２１番２号,,23,106,4600008,,,,,,,2024-09-25,1,,,,,ルアナ,0
803,4180003027399,新規,0,2024-09-25,2024-09-25,合同会社ＳＹホールディングス,,合同会社,愛知県,北名古屋市,九之坪東町１８番地５,,23,234,4810041,,,,,,,2024-09-25,1,,,,,エスワイホールディングス,0
805,4180303006276,新規,0,2024-09-25,2024-09-25,合同会社ふじくわ,,合同会社,愛知県,刈谷市,小垣江町子竿５３－１ＴＳ－ＭＩＮＤ２－３０６号,,23,210,4480813,,,,,,,2024-09-25,1,,,,,フジクワ,0
807,4190001031666,新規,0,2024-09-25,2024-09-25,Ｍ‐ＡｌｅｓＡｃｔｉｏ株式会社,,株式会社,三重県,伊賀市,四十九町２１２１番地の７,,24,216,5180823,,,,,,,2024-09-25,1,,,,,マレスアクティオ,0
808,4190003004793,新規,0,2024-09-25,2024-09-25,合同会社とこわか,,合同会社,三重県,伊勢市,本町５‐５大盛丸海運ビル２階,,24,203,5160074,,,,,,,2024-09-25,1,,,,,トコワカ,0
809,4190003004802,新規,0,2024-09-25,2024-09-25,合同会社心士,,合同会社,三重県,いなべ市,員弁町下笠田１４５６番地２,,24,214,5110221,,,,,,,2024-09-25,1,,,,,ハート,0
810,4200001042918,新規,0,2024-09-25,2024-09-25,ウェイズフリー株式会社,,株式会社,岐阜県,高山市,桐生町４丁目１５１番地,,21,203,5060004,,,,,,,2024-09-25,1,,,,,ウェイズフリー,0
813,4220001026225,新規,0,2024-09-25,2024-09-25,株式会社陽,,株式会社,石川県,金沢市,松村６丁目４３番地,,17,201,9200348,,,,,,,2024-09-25,1,,,,,ヨウ,0
819,4240001063836,新規,0,2024-09-25,2024-09-25,株式会社ＡＷＡＫＥ,,株式会社,広島県,広島市南区,宇品海岸３丁目５番２１号,,34,103,7340011,,,,,,,2024-09-25,1,,,,,アウェイク,0
825,4250005008951,新規,0,2024-09-25,2024-09-25,特定非営利活動法人フリースペースコティ,,その他の設立登記法人,山口県,下松市,大字末武上１１０７番地８,,35,207,7440024,,,,,,,2024-09-25,1,,,,,フリースペースコティ,0
846,4370003006755,新規,0,2024-09-25,2024-09-25,合同会社瀧本空調,,合同会社,宮城県,仙台市宮城野区,鶴ケ谷東４丁目２２番２８－６０６号,,04,102,9830826,,,,,,,2024-09-25,1,,,,,タキモトクウチョウ,0
847,4370005010838,新規,0,2024-09-25,2024-09-25,行政書士法人欅,,その他の設立登記法人,宮城県,登米市,中田町宝江黒沼字蓬原３０番地１,,04,212,9870621,,,,,,,2024-09-25,1,,,,,ケヤキ,0
850,4380002036356,新規,0,2024-09-25,2024-09-25,有限会社遠善編物,,有限会社,福島県,伊達市,梁川町二野袋字八光田５番地,,07,213,9600718,,,,,,,2024-09-25,1,,,,,エンゼンアミモノ,0
862,4430001092725,新規,0,2024-09-25,2024-09-25,株式会社丸方,,株式会社,北海道,札幌市手稲区,西宮の沢一条１丁目１番２号Ａ棟Ａ号室,,01,109,0060001,,,,,,,2024-09-25,1,,,,,マルカタ,0
868,4450001014413,新規,0,2024-09-25,2024-09-25,株式会社旭川ホテルマネジメント,,株式会社,北海道,旭川市,二条通７丁目４３５番地,,01,204,0700032,,,,,,,2024-09-25,1,,,,,アサヒカワホテルマネジメント,0
878,4700150127295,新規,0,2024-09-25,2024-09-25,Ｆｏｓｈａｎｇｓｈｉｇａｏｆｅｉｄｉａｎｚｉｓｈａｎｇｗｕｙｏｕｘｉａｎｇｏｎｇｓｉ,,外国会社等,,,,,,,,Ｒｏｏｍ　４０４８－２，Ａｒｅａ　Ａ，４ｔｈ　Ｆｌｏｏｒ，Ｎｏ．１５３　Ｆｏｓｈａｎ　Ａｖｅｎｕｅ　Ｎｏｒｔｈ，Ｚｕｍｉａｏ　Ｓｕｂ－ｄｉｓｔｒｉｃｔ，Ｃｈａｎｃｈｅｎｇ　Ｄｉｓｔｒｉｃｔ，Ｆｏｓｈａｎ　Ｃｉｔｙ．,,,,,,2024-09-25,1,,,,,ブツザンシコウヒデンシショウムユウゲンコウシ,0
885,5010001248483,新規,0,2024-09-25,2024-09-25,パレットホールディングス株式会社,,株式会社,東京都,千代田区,内幸町１丁目３番３号,,13,101,1000011,,,,,,,2024-09-25,1,,,,,パレットホールディングス,0
886,5010001248525,新規,0,2024-09-25,2024-09-25,株式会社ファウンテン,,株式会社,東京都,千代田区,丸の内１丁目５番１号,,13,101,1000005,,,,,,,2024-09-25,1,,,,,ファウンテン,0
887,5010001248533,新規,0,2024-09-25,2024-09-25,株式会社ウェビットシステムズ,,株式会社,東京都,中央区,銀座１丁目１２－４Ｎ＆ＥＢＬＤ．７階,,13,102,1040061,,,,,,,2024-09-25,1,,,,,ウェビットシステムズ,0
892,5010003045012,新規,0,2024-09-25,2024-09-25,合同会社ＥＦ　ＮＯＭＵＲＡＹＡ　ＢＥＳＳ１号,,合同会社,東京都,千代田区,丸の内２丁目２番１号岸本ビルヂング１０階株式会社レイズ内,,13,101,1000005,,,,,,,2024-09-25,1,,,,,イーエフノムラヤベスイチゴウ,0
896,5010401185277,新規,0,2024-09-25,2024-09-25,Ｍｅｉ　Ｅｓｔａｔｅ株式会社,,株式会社,東京都,港区,高輪４丁目２０－２０ミリアレジデンス高輪４０１,,13,103,1080074,,,,,,,2024-09-25,1,,,,,メイエステート,0
899,5010405023598,新規,0,2024-09-25,2024-09-25,一般社団法人ＴＯＫＵＢＵＮ教育会,,その他の設立登記法人,東京都,港区,赤坂４丁目１番３２号赤坂ビル４階,,13,103,1070052,,,,,,,2024-09-25,1,,,,,トクブンキョウイクカイ,0
900,5010405023615,新規,0,2024-09-25,2024-09-25,谷田部ファシリティ３一般社団法人,,その他の設立登記法人,東京都,港区,六本木１丁目６番１号泉ガーデンタワー,,13,103,1060032,,,,,,,2024-09-25,1,,,,,ヤタベファシリティスリー,0
901,5010501052947,新規,0,2024-09-25,2024-09-25,ｉｉｔｏｋｏ株式会社,,株式会社,東京都,台東区,花川戸１丁目５番２号サテライト・フジビル４階,,13,106,1110033,,,,,,,2024-09-25,1,,,,,イイトコ,0
905,5010603011116,新規,0,2024-09-25,2024-09-25,合同会社典真,,合同会社,東京都,江東区,大島６丁目１－６－１４２３,,13,108,1360072,,,,,,,2024-09-25,1,,,,,テンシン,0
915,5011001164778,新規,0,2024-09-25,2024-09-25,株式会社ＪＯＨＥＮ,,株式会社,東京都,渋谷区,神宮前６丁目２３番４号桑野ビル２階,,13,113,1500001,,,,,,,2024-09-25,1,,,,,ジョーヘン,0
916,5011001164803,新規,0,2024-09-25,2024-09-25,ＮＯＥＺ　ＦＯＸＸ株式会社,,株式会社,東京都,渋谷区,千駄ヶ谷３丁目２７番４号,,13,113,1510051,,,,,,,2024-09-25,1,,,,,ノイジーフォックス,0
917,5011001164828,新規,0,2024-09-25,2024-09-25,株式会社クオリアム,,株式会社,東京都,渋谷区,恵比寿南３丁目１－１９恵比寿ライトビル５階,,13,113,1500022,,,,,,,2024-09-25,1,,,,,クオリアム,0
918,5011001164844,新規,0,2024-09-25,2024-09-25,株式会社Ｈａｚｌｏ,,株式会社,東京都,渋谷区,東２丁目２４‐３渋谷ＴＨビル２Ｆ,,13,113,1500011,,,,,,,2024-09-25,1,,,,,ハズロ,0
920,5011003020046,新規,0,2024-09-25,2024-09-25,ウニタリー合同会社,,合同会社,東京都,渋谷区,千駄ヶ谷２丁目３１‐１０フジハウスＡ,,13,113,1510051,,,,,,,2024-09-25,1,,,,,ウニタリー,0
921,5011003020062,新規,0,2024-09-25,2024-09-25,合同会社ミカボシ,,合同会社,東京都,渋谷区,渋谷２丁目１９番１５号宮益坂ビルディング６０９号室,,13,113,1500002,,,,,,,2024-09-25,1,,,,,ミカボシ,0
922,5011003020070,新規,0,2024-09-25,2024-09-25,ユーカリプタス・プロダクションズ合同会社,,合同会社,東京都,目黒区,八雲４丁目３番４号,,13,110,1520023,,,,,,,2024-09-25,1,,,,,ユーカリプタスプロダクションズ,0
924,5011101108890,新規,0,2024-09-25,2024-09-25,株式会社ユニクラスタ,,株式会社,東京都,新宿区,天神町６４番地１,,13,104,1620808,,,,,,,2024-09-25,1,,,,,ユニクラスタ,0
926,5011103014963,新規,0,2024-09-25,2024-09-25,合同会社ＳＰＶ０１,,合同会社,東京都,新宿区,四谷２丁目９番地１５東京ユナイテッド綜合事務所内,,13,104,1600004,,,,,,,2024-09-25,1,,,,,エスピーブイゼロイチ,0
927,5011103014971,新規,0,2024-09-25,2024-09-25,合同会社ａｄｈａｎｃｅ,,合同会社,東京都,新宿区,西新宿３丁目３番１３号西新宿水間ビル２Ｆ,,13,104,1600023,,,,,,,2024-09-25,1,,,,,アドハンス,0
928,5011105011174,新規,0,2024-09-25,2024-09-25,一般社団法人日本エレベーター査定協会,,その他の設立登記法人,東京都,新宿区,西新宿８丁目１１番１号,,13,104,1600023,,,,,,,2024-09-25,1,,,,,ニホンエレベーターサテイキョウカイ,0
931,5011405002360,新規,0,2024-09-25,2024-09-25,労働者協同組合ワーカーズ・コレクティブＧｒｅｅｎ,,その他の設立登記法人,東京都,板橋区,徳丸２丁目３０番１６号生活クラブ館１Ｆ,,13,119,1750083,,,,,,,2024-09-25,1,,,,,ワーカーズコレクティブグリーン,0
932,5011501031180,新規,0,2024-09-25,2024-09-25,株式会社ＴｏＦｒｏｍ,,株式会社,東京都,荒川区,南千住７丁目１１－２－１２０２,,13,118,1160003,,,,,,,2024-09-25,1,,,,,トフロム,0
936,5011701027672,新規,0,2024-09-25,2024-09-25,ＭＵＧＥＮ　ＨＯＭＥ株式会社,,株式会社,東京都,江戸川区,江戸川１丁目３１番１６号,,13,123,1320013,,,,,,,2024-09-25,1,,,,,ムゲンホーム,0
940,5012305002104,新規,0,2024-09-25,2024-09-25,ウィス司法書士法人,,その他の設立登記法人,東京都,町田市,原町田５丁目５番２号キャピタルオシダ３０３号,,13,209,1940013,,,,,,,2024-09-25,1,,,,,ウィス,0
941,5012401042301,新規,0,2024-09-25,2024-09-25,株式会社Ｍｏｕｅｔｔｅ,,株式会社,東京都,武蔵野市,中町３丁目１８ー３,,13,203,1800006,,,,,,,2024-09-25,1,,,,,ムエット,0
943,5012701018463,新規,0,2024-09-25,2024-09-25,ｐａｌｍ株式会社,,株式会社,東京都,小平市,栄町２丁目３４番１６号,,13,211,1870034,,,,,,,2024-09-25,1,,,,,パーム,0
946,5013301053124,新規,0,2024-09-25,2024-09-25,株式会社すなおなスラスラ英会話,,株式会社,東京都,豊島区,長崎３丁目８番２号グリュック長崎１０１号,,13,116,1710051,,,,,,,2024-09-25,1,,,,,スナオナスラスラエイカイワ,0
963,5021001083291,新規,0,2024-09-25,2024-09-25,株式会社シングロース,,株式会社,神奈川県,相模原市南区,古淵６丁目３番１２号,,14,153,2520344,,,,,,,2024-09-25,1,,,,,シングロース,0
964,5021001083300,新規,0,2024-09-25,2024-09-25,宇田電子株式会社,,株式会社,神奈川県,秦野市,南矢名２２２３番地の４東海ビル１０８Ａ,,14,211,2570003,,,,,,,2024-09-25,1,,,,,ウダデンシ,0
966,5021003015029,新規,0,2024-09-25,2024-09-25,ＯＲＩＧＩ　ＧＬＯＢＡＬ合同会社,,合同会社,神奈川県,相模原市南区,相模台２丁目８番２０号ヴィラアスカ２０２号,,14,153,2520321,,,,,,,2024-09-25,1,,,,,オリジグローバル,0
967,5021003015045,新規,0,2024-09-25,2024-09-25,合同会社クラリス,,合同会社,神奈川県,小田原市,中里３８８番地の３,,14,206,2500872,,,,,,,2024-09-25,1,,,,,クラリス,0
977,5030005021851,新規,0,2024-09-25,2024-09-25,一般社団法人融和会,,その他の設立登記法人,埼玉県,川越市,新宿町１丁目１７番地１ウニクス川越３Ｆ,,11,201,3501124,,,,,,,2024-09-25,1,,,,,ユウワカイ,0
982,5040001135357,新規,0,2024-09-25,2024-09-25,マキシ株式会社,,株式会社,千葉県,我孫子市,船戸２丁目１４番１９号,,12,222,2701158,,,,,,,2024-09-25,1,,,,,マキシ,0
983,5040001135489,新規,0,2024-09-25,2024-09-25,株式会社ジャンボ,,株式会社,千葉県,松戸市,串崎新田９番地の３,,12,207,2702216,,,,,,,2024-09-25,1,,,,,ジャンボ,0
984,5040001135514,新規,0,2024-09-25,2024-09-25,株式会社ＫＴＹ,,株式会社,千葉県,松戸市,栄町５丁目３２１番地の６,,12,207,2710062,,,,,,,2024-09-25,1,,,,,ケーティーワイ,0
985,5040001135522,新規,0,2024-09-25,2024-09-25,ヘルスサイエンスラボ株式会社,,株式会社,千葉県,千葉市花見川区,浪花町７５６番地１５,,12,102,2620024,,,,,,,2024-09-25,1,,,,,ヘルスサイエンスラボ,0
990,5040003025845,新規,0,2024-09-25,2024-09-25,ストレートパッションジャパン合同会社,,合同会社,千葉県,船橋市,宮本９丁目７番２棟９０７号,,12,204,2730003,,,,,,,2024-09-25,1,,,,,ストレートパッションジャパン,0
992,5050005013491,新規,0,2024-09-25,2024-09-25,医療法人恵生会,,その他の設立登記法人,茨城県,稲敷郡阿見町,大字鈴木４－１７０,,08,443,3000334,,,,,,,2024-09-25,1,,,,,ケイセイカイ,0
999,5080001026503,新規,0,2024-09-25,2024-09-25,株式会社ＴＲ,,株式会社,静岡県,静岡市駿河区,石田３丁目１１番２１号,,22,102,4228042,,,,,,,2024-09-25,1,,,,,ティーアール,0
1000,5080003003293,新規,0,2024-09-25,2024-09-25,合同会社ＹＥＴ,,合同会社,静岡県,静岡市駿河区,大谷２丁目１番１号,,22,102,4228017,,,,,,,2024-09-25,1,,,,,イェット,0
1009,5080401027456,新規,0,2024-09-25,2024-09-25,株式会社正木,,株式会社,静岡県,浜松市中央区,小池町９２８番地の２,,22,138,4350056,,,,,,,2024-09-25,1,,,,,マサキ,0
1019,5110001038726,新規,0,2024-09-25,2024-09-25,株式会社シニアハウス関屋松波町,,株式会社,新潟県,新潟市中央区,関屋松波町２丁目１４３番地,,15,103,9518161,,,,,,,2024-09-25,1,,,,,シニアハウスセキヤマツナミチョウ,0
1026,5120001268660,新規,0,2024-09-25,2024-09-25,華越株式会社,,株式会社,大阪府,大阪市住之江区,御崎１丁目１１番１９－３１６号室,,27,125,5590013,,,,,,,2024-09-25,1,,,,,ハナコシ,0
1027,5120001268751,新規,0,2024-09-25,2024-09-25,株式会社ジーパシオン,,株式会社,大阪府,枚方市,東田宮１丁目１番１１号,,27,210,5730023,,,,,,,2024-09-25,1,,,,,ジーパシオン,0
1033,5120003027528,新規,0,2024-09-25,2024-09-25,ＨＴ合同会社,,合同会社,大阪府,大阪市浪速区,恵美須西１丁目４－２３－３０８,,27,111,5560003,,,,,,,2024-09-25,1,,,,,エイチティー,0
1034,5120003027560,新規,0,2024-09-25,2024-09-25,合同会社Ｍｉ・Ｔｉｙｕｌ,,合同会社,大阪府,大阪市東成区,大今里３丁目６－１４,,27,115,5370012,,,,,,,2024-09-25,1,,,,,ミィティユル,0
1037,5120103006068,新規,0,2024-09-25,2024-09-25,合同会社ｓａｌｖａｔｏｌｅ,,合同会社,大阪府,堺市中区,深井東町３０３９,,27,142,5998235,,,,,,,2024-09-25,1,,,,,サルヴァトーレ,0
1040,5120903005351,新規,0,2024-09-25,2024-09-25,合同会社ｇｌｏｗ,,合同会社,大阪府,吹田市,新芦屋上２９ｋ－１０１,00136387,27,205,5650804,,,,,,,2024-09-25,1,,,,,グロー,0
1050,5150001027576,新規,0,2024-09-25,2024-09-25,進株式会社,,株式会社,奈良県,北葛城郡広陵町,大字三吉元赤部方１７９２番２,,29,426,6350823,,,,,,,2024-09-25,1,,,,,ススム,0
1052,5160001026230,新規,0,2024-09-25,2024-09-25,株式会社Ｒｏｓｅ　Ｃｒｅａｔｉｏｎ．,,株式会社,滋賀県,甲賀市,土山町北土山１０５０番地２９,,25,209,5280211,,,,,,,2024-09-25,1,,,,,ロゼクリエイション,0
1054,5170001018318,新規,0,2024-09-25,2024-09-25,株式会社ＭＡＹ,,株式会社,和歌山県,西牟婁郡白浜町,２５９０番地の７,,30,401,6492211,,,,,,,2024-09-25,1,,,,,エムエーワイ,0
1056,5170003002105,新規,0,2024-09-25,2024-09-25,ＴＡＫＩ　ＴＡＫＩ合同会社,,合同会社,和歌山県,和歌山市,木広町５丁目１－８,,30,201,6408328,,,,,,,2024-09-25,1,,,,,タキタキ,0
1058,5180001163360,新規,0,2024-09-25,2024-09-25,株式会社エスト,,株式会社,愛知県,名古屋市西区,庄内通３丁目９番地,,23,104,4510016,,,,,,,2024-09-25,1,,,,,エスト,0
1073,5210001019922,新規,0,2024-09-25,2024-09-25,株式会社左官丸辰,,株式会社,福井県,福井市,四ツ井２丁目２番１４号,,18,201,9100846,,,,,,,2024-09-25,1,,,,,サカンマルタツ,0
1081,5240001063835,新規,0,2024-09-25,2024-09-25,株式会社ＬＩＦＩＸ,,株式会社,広島県,福山市,東手城町３丁目１６番１４号,,34,207,7210962,,,,,,,2024-09-25,1,,,,,リフィックス,0
1082,5240001063843,新規,0,2024-09-25,2024-09-25,株式会社ＣＯＣＩＡＳ,,株式会社,広島県,広島市中区,南竹屋町３番１５号第１タカズミビル４０２,,34,101,7300049,,,,,,,2024-09-25,1,,,,,コシアス,0
1085,5250005008950,新規,0,2024-09-25,2024-09-25,一般社団法人やまぐち竹利活用ネットワーク,,その他の設立登記法人,山口県,宇部市,大字小野８３４５番地２,,35,202,7541311,,,,,,,2024-09-25,1,,,,,ヤマグチタケリカツヨウネットワーク,0
1086,5260001039478,新規,0,2024-09-25,2024-09-25,久紫国際株式会社,,株式会社,岡山県,岡山市北区,北方１丁目１３－１９－２エスポワール法界院２０３号室,,33,101,7000803,,,,,,,2024-09-25,1,,,,,ヒサシコクサイ,0
1087,5260003004901,新規,0,2024-09-25,2024-09-25,合同会社日運,,合同会社,岡山県,岡山市北区,南中央町３番１８号,,33,101,7000837,,,,,,,2024-09-25,1,,,,,ニチウン,0
1090,5290001107380,新規,0,2024-09-25,2024-09-25,株式会社Ｔｉｐｉ　Ｐｒｉｍｅ,,株式会社,福岡県,福岡市博多区,中洲５丁目５－１６ｗｉｌｌＤｏ中洲９１２,,40,132,8100801,,,,,,,2024-09-25,1,,,,,ティピプライム,0
1091,5290005019498,新規,0,2024-09-25,2024-09-25,一般社団法人興隆国際児童支援団,,その他の設立登記法人,福岡県,福岡市博多区,吉塚１丁目１９番１号,,40,132,8120041,,,,,,,2024-09-25,1,,,,,コウリュウコクサイジドウシエンダン,0
1092,5290801030906,新規,0,2024-09-25,2024-09-25,ロードバランス株式会社,,株式会社,福岡県,築上郡築上町,大字本庄２０５６番地,,40,647,8290123,,,,,,,2024-09-25,1,,,,,ロードバランス,0
1101,5330001032475,新規,0,2024-09-25,2024-09-25,株式会社ＡＮＤＭＥ,,株式会社,熊本県,熊本市西区,京町本丁５番４０号,,43,103,8600081,,,,,,,2024-09-25,1,,,,,アンドミー,0
1104,5340003004612,新規,0,2024-09-25,2024-09-25,合同会社ＮＩＳ,,合同会社,鹿児島県,南九州市,知覧町西元１２８９８番地１,,46,223,8970306,,,,,,,2024-09-25,1,,,,,エヌアイエス,0
1118,5380001034806,新規,0,2024-09-25,2024-09-25,株式会社ＫＩＮＧ,,株式会社,福島県,いわき市,小名浜中町境７番地の２０,,07,204,9718163,,,,,,,2024-09-25,1,,,,,キング,0
1133,5460003001011,新規,0,2024-09-25,2024-09-25,合同会社ｒａｇｕｕ,,合同会社,北海道,釧路市,駒場町６番２４号,,01,206,0850048,,,,,,,2024-09-25,1,,,,,ラグウ,0
1140,5490005006955,新規,0,2024-09-25,2024-09-25,特定非営利活動法人土佐後見制度推進機構,,その他の設立登記法人,高知県,高知市,帯屋町１丁目１２番２号,,39,201,7800841,,,,,,,2024-09-25,1,,,,,トサコウケンセイドスイシンキコウ,0
1142,5700150127294,新規,0,2024-09-25,2024-09-25,Ｆｏｓｈａｎｓｈｉｆｅｎｔａｚｈｉｄｉａｎｚｉｓｈａｎｇｗｕｙｏｕｘｉａｎｇｏｎｇｓｉ,,外国会社等,,,,,,,,Ｒｏｏｍ　２０２－７，２ｎｄ　Ｆｌｏｏｒ，Ｂｕｉｌｄｉｎｇ　１，Ｎｏ．７８　Ｆｅｎｊｉａｎｇ　Ｍｉｄｄｌｅ　Ｒｏａｄ，Ｚｕｍｉａｏ　Ｓｕｂ－ｄｉｓｔｒｉｃｔ，Ｃｈａｎｃｈｅｎｇ　Ｄｉｓｔｒｉｃｔ，Ｆｏｓｈａｎ　Ｃｉｔｙ，Ｇｕａｎｇｄｏｎｇ　Ｐｒｏｖｉｎｃｅ,,,,,,2024-09-25,1,,,,,ブツザンシフントウジデンシショウムユウゲンコウシ,0
1146,6010001248524,新規,0,2024-09-25,2024-09-25,インテグラル・リアルエステート株式会社,,株式会社,東京都,千代田区,丸の内１丁目９番２号,,13,101,1000005,,,,,,,2024-09-25,1,,,,,インテグラルリアルエステート,0
1151,6010401184906,新規,0,2024-09-25,2024-09-25,Ｋ‐ＭＥＤアカウンティング株式会社,,株式会社,東京都,港区,赤坂４丁目１４番１４－２６０７号,,13,103,1070052,,,,,,,2024-09-25,1,,,,,ケイメッドアカウンティング,0
1152,6010401185202,新規,0,2024-09-25,2024-09-25,Ｕｒｂｉｎｉｑ株式会社,,株式会社,東京都,港区,赤坂５丁目２－３３ＩＳＡＩ赤坂６１２号室,,13,103,1070052,,,,,,,2024-09-25,1,,,,,アーバニク,0
1153,6010401185326,新規,0,2024-09-25,2024-09-25,株式会社ＤＷＺ,,株式会社,東京都,港区,南青山２丁目２番１５号,,13,103,1070062,,,,,,,2024-09-25,1,,,,,ディーダブリューゼット,0
1157,6010501052946,新規,0,2024-09-25,2024-09-25,株式会社エイアンドワイ,,株式会社,東京都,台東区,蔵前１丁目１番４号,,13,106,1110051,,,,,,,2024-09-25,1,,,,,エイアンドワイ,0
1163,6010803005107,新規,0,2024-09-25,2024-09-25,合同会社Ｇａｔｅ　Ｆａｃｔｏｒｙ,,合同会社,東京都,大田区,大森東５丁目２２－７,,13,111,1430012,,,,,,,2024-09-25,1,,,,,ゲートファクトリー,0
1168,6011001164496,新規,0,2024-09-25,2024-09-25,ＳｔａｒＴｏｏｎ株式会社,,株式会社,東京都,渋谷区,道玄坂１丁目１０番８号渋谷道玄坂東急ビル２Ｆ－Ｃ,,13,113,1500043,,,,,,,2024-09-25,1,,,,,スタートゥーン,0
1169,6011001164546,新規,0,2024-09-25,2024-09-25,株式会社ワークオンテック,,株式会社,東京都,渋谷区,東１丁目２６番３０号宝ビル９Ｆ,,13,113,1500011,,,,,,,2024-09-25,1,,,,,,0
1170,6011001164604,新規,0,2024-09-25,2024-09-25,株式会社Ｗｅｌｌｎｅｓｓ　Ｃｒｅａｔｅ,,株式会社,東京都,渋谷区,恵比寿西２丁目８番４号ＥＸ恵比寿西ビル５階,,13,113,1500021,,,,,,,2024-09-25,1,,,,,ウェルネスクリエイト,0
1171,6011001164777,新規,0,2024-09-25,2024-09-25,株式会社愛寿,,株式会社,東京都,目黒区,八雲２丁目９番６号,,13,110,1520023,,,,,,,2024-09-25,1,,,,,アイジュ,0
1172,6011001164802,新規,0,2024-09-25,2024-09-25,株式会社ＹＳＭ　Ｇｒｏｕｐ,,株式会社,東京都,渋谷区,神宮前２丁目２２－２ＦＯＬＤＢＬＤ．３階,,13,113,1500001,,,,,,,2024-09-25,1,,,,,ワイエムエスグループ,0
1173,6011001164827,新規,0,2024-09-25,2024-09-25,株式会社アンドエスティ,,株式会社,東京都,渋谷区,渋谷２丁目２１番１号渋谷ヒカリエ２７階,,13,113,1500002,,,,,,,2024-09-25,1,,,,,アンドエスティ,0
1175,6011003020029,新規,0,2024-09-25,2024-09-25,合同会社自遊島,,合同会社,東京都,渋谷区,道玄坂１丁目１６－６二葉ビル８ｂ,,13,113,1500043,,,,,,,2024-09-25,1,,,,,ジユウトウ,0
1176,6011101108881,新規,0,2024-09-25,2024-09-25,株式会社バーディー,,株式会社,東京都,新宿区,西新宿３丁目３番１３号西新宿水間ビル２Ｆ,,13,104,1600023,,,,,,,2024-09-25,1,,,,,バーディー,0
1179,6011301030019,新規,0,2024-09-25,2024-09-25,株式会社ハンミヨン,,株式会社,東京都,杉並区,永福２丁目４番２号エースコート永福２０２,,13,115,1680064,,,,,,,2024-09-25,1,,,,,ハンミヨン,0
1185,6011701027655,新規,0,2024-09-25,2024-09-25,フォレスト不動産株式会社,,株式会社,東京都,江戸川区,北小岩６丁目３６番１８号,,13,123,1330051,,,,,,,2024-09-25,1,,,,,フォレストフドウサン,0
1186,6011801044864,新規,0,2024-09-25,2024-09-25,正麦利株式会社,,株式会社,東京都,葛飾区,東金町３丁目１７－１０ＫＢＳＣ－１２,,13,122,1250041,,,,,,,2024-09-25,1,,,,,セイマリ,0
1187,6011803006466,新規,0,2024-09-25,2024-09-25,合同会社サングロース,,合同会社,東京都,足立区,花畑７丁目４―５パティオＪＳ２０１,,13,121,1210061,,,,,,,2024-09-25,1,,,,,サングロース,0
1189,6012401042300,新規,0,2024-09-25,2024-09-25,ａｎｄ　ＳｔａＲｔ株式会社,,株式会社,東京都,府中市,四谷５丁目２番地の３,,13,206,1830035,,,,,,,2024-09-25,1,,,,,アンドスタート,0
1190,6012401042309,新規,0,2024-09-25,2024-09-25,株式会社ドットワン,,株式会社,東京都,武蔵野市,境２丁目３番１号,,13,203,1800022,,,,,,,2024-09-25,1,,,,,ドットワン,0
1191,6012403006757,新規,0,2024-09-25,2024-09-25,合同会社ｉｓａｒａ,,合同会社,東京都,調布市,菊野台２丁目３９－１４,,13,208,1820007,,,,,,,2024-09-25,1,,,,,イサラ,0
1200,6021001083290,新規,0,2024-09-25,2024-09-25,株式会社桜カンパニー,,株式会社,神奈川県,平塚市,中里３６－７３,,14,203,2540054,,,,,,,2024-09-25,1,,,,,サクラカンパニー,0
1205,6021003015028,新規,0,2024-09-25,2024-09-25,ＢＥＮＺＡＮ　ＴＲＡＤＩＮＧ合同会社,,合同会社,神奈川県,厚木市,鳶尾４丁目９－１９－２０２,,14,212,2430204,,,,,,,2024-09-25,1,,,,,ベンザントレーディング,0
1216,6040001135505,新規,0,2024-09-25,2024-09-25,株式会社鎌青,,株式会社,千葉県,旭市,飯岡２４４３番地,,12,215,2892705,,,,,,,2024-09-25,1,,,,,カマセイ,0
1217,6040001135554,新規,0,2024-09-25,2024-09-25,澤瑞株式会社,,株式会社,千葉県,船橋市,海神４丁目１３番２号神田荘２０１号室,,12,204,2730021,,,,,,,2024-09-25,1,,,,,タクズイ,0
1218,6040003025844,新規,0,2024-09-25,2024-09-25,合同会社ＷＥＳＴ,,合同会社,千葉県,千葉市中央区,汐見丘町１８番１２－３０２号,,12,101,2600034,,,,,,,2024-09-25,1,,,,,ウエスト,0
1222,6050005013490,新規,0,2024-09-25,2024-09-25,医療法人貴隆会,,その他の設立登記法人,茨城県,那珂郡東海村,大字白方１３２４番地３,,08,341,3191106,,,,,,,2024-09-25,1,,,,,キリュウカイ,0
1226,6070003005587,新規,0,2024-09-25,2024-09-25,Ｒａｉｓｈａｎ合同会社,,合同会社,群馬県,館林市,仲町１番２０号,,10,207,3740029,,,,,,,2024-09-25,1,,,,,ライサン,0
1227,6080001026502,新規,0,2024-09-25,2024-09-25,株式会社山一花商,,株式会社,静岡県,島田市,岸町１９４番地,,22,209,4270005,,,,,,,2024-09-25,1,,,,,ヤマイチカショウ,0
1244,6120101070321,新規,0,2024-09-25,2024-09-25,株式会社タカハシ,,株式会社,大阪府,堺市東区,石原町４丁１４１番地２,,27,143,5998102,,,,,,,2024-09-25,1,,,,,タカハシ,0
1245,6120105009910,新規,0,2024-09-25,2024-09-25,一般社団法人Ｂｅａｕ’ＴＥＡ’ｆｕｌ　Ｗｏｒｌｄ　Ｊａｐａｎ,,その他の設立登記法人,大阪府,高石市,高師浜丁４番８号,,27,225,5920006,,,,,,,2024-09-25,1,,,,,ビューティフルワールドジャパン,0
1253,6122005003778,新規,0,2024-09-25,2024-09-25,ＮＰＯ法人ゆめプロ,,その他の設立登記法人,大阪府,八尾市,弓削町南２丁目７８番地１４,,27,212,5810034,,,,,,,2024-09-25,1,,,,,ユメプロ,0
1256,6130001077993,新規,0,2024-09-25,2024-09-25,宝玉堂株式会社,,株式会社,京都府,京都市伏見区,深草一ノ坪町２７番地の７,,26,109,6120012,,,,,,,2024-09-25,1,,,,,ホウギョクドウ,0
1258,6140001135874,新規,0,2024-09-25,2024-09-25,シトラス株式会社,,株式会社,兵庫県,神戸市北区,鈴蘭台南町４丁目１番３１号,,28,109,6511113,,,,,,,2024-09-25,1,,,,,,0
1270,6180001163351,新規,0,2024-09-25,2024-09-25,総合ホールディングス株式会社,,株式会社,愛知県,名古屋市中川区,清川町３丁目１番地,,23,110,4540049,,,,,,,2024-09-25,1,,,,,ソウゴウホールディングス,0
1283,6230001020522,新規,0,2024-09-25,2024-09-25,恵友工機株式会社,,株式会社,富山県,高岡市,木津１７０１番地,,16,202,9330857,,,,,,,2024-09-25,1,,,,,,0
1291,6250003003564,新規,0,2024-09-25,2024-09-25,合同会社深谷,,合同会社,山口県,宇部市,松山町１丁目１４番１３号,,35,202,7550026,,,,,,,2024-09-25,1,,,,,フカタニ,0
1292,6260001039485,新規,0,2024-09-25,2024-09-25,株式会社ライゼストホールディングス,,株式会社,岡山県,岡山市南区,箕島１０３４番地２,,33,104,7010206,,,,,,,2024-09-25,1,,,,,ライゼストホールディングス,0
1294,6270001009058,新規,0,2024-09-25,2024-09-25,株式会社大志,,株式会社,鳥取県,鳥取市,河原町大字曳田１２番地２,,31,201,6800000,,,,,,,2024-09-25,1,,,,,タイシ,0
1295,6270003001673,新規,0,2024-09-25,2024-09-25,大山産業合同会社,,合同会社,鳥取県,米子市,淀江町西原５２１番地,,31,202,6893403,,,,,,,2024-09-25,1,,,,,ダイセンサンギョウ,0
1297,6280003001887,新規,0,2024-09-25,2024-09-25,合同会社ＳＯＷ,,合同会社,島根県,隠岐郡隠岐の島町,有木権現原６番地１,,32,528,6850006,,,,,,,2024-09-25,1,,,,,ソウ,0
1299,6290001107363,新規,0,2024-09-25,2024-09-25,株式会社フォレスト,,株式会社,福岡県,福岡市博多区,博多駅前１丁目２３番２号,,40,132,8120011,,,,,,,2024-09-25,1,,,,,フォレスト,0
1309,6340003004611,新規,0,2024-09-25,2024-09-25,合同会社英カンパニー,,合同会社,鹿児島県,志布志市,志布志町志布志３丁目２番１５号,,46,221,8997103,,,,,,,2024-09-25,1,,,,,ハナブサカンパニー,0
1312,6360001034229,新規,0,2024-09-25,2024-09-25,株式会社リクリエ,,株式会社,沖縄県,那覇市,牧志２丁目１７番２７号４０１,,47,201,9000013,,,,,,,2024-09-25,1,,,,,リクリエ,0
1319,6370001051735,新規,0,2024-09-25,2024-09-25,株式会社Ｋｈａｒａ,,株式会社,宮城県,多賀城市,桜木１丁目１番５６号,,04,209,9850842,,,,,,,2024-09-25,1,,,,,カラー,0
1340,6430003016812,新規,0,2024-09-25,2024-09-25,合同会社オールステイ民泊,,合同会社,北海道,札幌市中央区,南一条西７丁目１２番６号パークアベニュービル５階,,01,101,0600061,,,,,,,2024-09-25,1,,,,,オールステイミンパク,0
1341,6460001005938,新規,0,2024-09-25,2024-09-25,株式会社エクシス,,株式会社,北海道,釧路市,住吉１丁目８番８号,,01,206,0850831,,,,,,,2024-09-25,1,,,,,エクシス,0
1346,6700150127293,新規,0,2024-09-25,2024-09-25,ｆｏ　ｓｈａｎ　ｓｈｉ　ｂｅｉ　ｎａ　ｓｕｏ　ｍａｏ　ｙｉ　ｙｏｕ　ｘｉａｎ　ｇｏｎｇ　ｓｉ,,外国会社等,,,,,,,,ｆｏｓｈａｎｓｈｉｓｈｕｎｄｅｑｕｘｉｎｇｔａｎｚｈｅｎａｎｆｕｇｏｎｇｙｅｑｕ　ｄａｄａｏ１ｈａｏＡｄｏｎｇ２ｌｏｕｚｈｉｓａｎ,,,,,,2024-09-25,1,,,,,ブツザンシカイノウサクボウエキユウゲンコウシ,0
1359,7010005038862,新規,0,2024-09-25,2024-09-25,一般社団法人首都圏レジ２,,その他の設立登記法人,東京都,千代田区,霞が関３丁目２番５号,,13,101,1000013,,,,,,,2024-09-25,1,,,,,シュトケンレジニ,0
1364,7010401185291,新規,0,2024-09-25,2024-09-25,Ｌ’Ｏｆｆｉｃｉｅｌ　Ｇｒｏｕｐ　Ｊａｐａｎ株式会社,,株式会社,東京都,港区,北青山３丁目８番５号,,13,103,1070061,,,,,,,2024-09-25,1,,,,,ロフィシエルグループジャパン,0
1365,7010403033457,新規,0,2024-09-25,2024-09-25,日本脱炭素１号合同会社,,合同会社,東京都,港区,芝大門２丁目１２番３号共生ビル２号館７Ｆ,,13,103,1050012,,,,,,,2024-09-25,1,,,,,ニホダツタンソイチゴウ,0
1366,7010403033481,新規,0,2024-09-25,2024-09-25,お台場インベストメンツ２合同会社,,合同会社,東京都,港区,六本木１丁目６番１号泉ガーデンタワー,,13,103,1060032,,,,,,,2024-09-25,1,,,,,オダイバインベストメンツツー,0
1367,7010501052953,新規,0,2024-09-25,2024-09-25,株式会社ナチュラルＤラボ,,株式会社,東京都,台東区,台東１丁目１１番９号上西ビル１０１,,13,106,1100016,,,,,,,2024-09-25,1,,,,,ナチュラルディーラボ,0
1368,7010503007575,新規,0,2024-09-25,2024-09-25,合同会社ＪＳＧ,,合同会社,東京都,台東区,上野１丁目１４番６号,,13,106,1100005,,,,,,,2024-09-25,1,,,,,ジェイエスジー,0
1372,7010701046581,新規,0,2024-09-25,2024-09-25,株式会社悠,,株式会社,東京都,品川区,勝島１丁目４番２０－２２０号,,13,109,1400012,,,,,,,2024-09-25,1,,,,,ハルカ,0
1374,7010803005106,新規,0,2024-09-25,2024-09-25,合同会社Ｒ＆Ｋ,,合同会社,東京都,大田区,大森中１丁目１３－１,,13,111,1430014,,,,,,,2024-09-25,1,,,,,アールアンドケー,0
1375,7010901055993,新規,0,2024-09-25,2024-09-25,株式会社ＴＯＭＣ,,株式会社,東京都,世田谷区,世田谷４丁目８－７－５０３室,,13,112,1540017,,,,,,,2024-09-25,1,,,,,ティーオーエムシー,0
1383,7011001164735,新規,0,2024-09-25,2024-09-25,株式会社Ｗａｌｌｙｓ,,株式会社,東京都,目黒区,自由が丘２丁目１６番１２号ＲＪ３,,13,110,1520035,,,,,,,2024-09-25,1,,,,,ウォーリーズ,0
1385,7011003020069,新規,0,2024-09-25,2024-09-25,合同会社ケミカルポップ,,合同会社,東京都,渋谷区,渋谷２丁目１９番１５宮益坂ビルディング６０９号,,13,113,1500002,,,,,,,2024-09-25,1,,,,,ケミカルポップ,0
1386,7011003020085,新規,0,2024-09-25,2024-09-25,デシリアライズ合同会社,,合同会社,東京都,渋谷区,道玄坂１丁目１０番８号渋谷道玄坂東急ビル２Ｆ‐Ｃ,,13,113,1500043,,,,,,,2024-09-25,1,,,,,デシリアライズ,0
1391,7011101108889,新規,0,2024-09-25,2024-09-25,クラフトキャリア株式会社,,株式会社,東京都,新宿区,新宿２丁目１６－８新宿北斗ビル５階Ａ室,,13,104,1600022,,,,,,,2024-09-25,1,,,,,クラフトキャリア,0
1397,7011801044863,新規,0,2024-09-25,2024-09-25,ＤＯＭ株式会社,,株式会社,東京都,葛飾区,金町５丁目２３－８－５０３,,13,122,1250042,,,,,,,2024-09-25,1,,,,,ドーム,0
1398,7011801044871,新規,0,2024-09-25,2024-09-25,株式会社池ホールディングス,,株式会社,東京都,葛飾区,南水元４丁目１０番１６号,,13,122,1250035,,,,,,,2024-09-25,1,,,,,イケホールディングス,0
1400,7012301014092,新規,0,2024-09-25,2024-09-25,ＳＫ総合システム株式会社,,株式会社,東京都,町田市,原町田４丁目１１－１４コロンブスビル３Ｆ,,13,209,1940013,,,,,,,2024-09-25,1,,,,,エスケーソウゴウシステム,0
1402,7012401042308,新規,0,2024-09-25,2024-09-25,株式会社Ｗｉｌｕｐ,,株式会社,東京都,三鷹市,上連雀１丁目１２－１７三鷹ビジネスパークＢ１Ｆ,,13,204,1810012,,,,,,,2024-09-25,1,,,,,ウィルアップ,0
1404,7012403006756,新規,0,2024-09-25,2024-09-25,合同会社ライキング,,合同会社,東京都,稲城市,大丸７８９,,13,225,2060801,,,,,,,2024-09-25,1,,,,,ライキング,0
1405,7012405005046,新規,0,2024-09-25,2024-09-25,司法書士法人宮田総合法務事務所,,その他の設立登記法人,東京都,武蔵野市,吉祥寺本町１丁目１８番３号サニーシティ吉祥寺８０２,,13,203,1800004,,,,,,,2024-09-25,1,,,,,ミヤタソウゴウホウムジムショ,0
1407,7012701018453,新規,0,2024-09-25,2024-09-25,Ｚｓｍａｒｔ株式会社,,株式会社,東京都,東村山市,美住町１丁目４番地１８ココロコス８２６,,13,213,1890023,,,,,,,2024-09-25,1,,,,,ゼッツマート,0
1408,7012701018461,新規,0,2024-09-25,2024-09-25,株式会社Ｍｏｒｉｎｅｓｔ,,株式会社,東京都,東村山市,栄町２丁目４１番地２,,13,213,1890013,,,,,,,2024-09-25,1,,,,,モリネスト,0
1414,7013301053139,新規,0,2024-09-25,2024-09-25,株式会社セブンデイズ,,株式会社,東京都,豊島区,池袋２丁目１４番５号,,13,116,1710014,,,,,,,2024-09-25,1,,,,,セブンデイズ,0
1421,7020001159281,新規,0,2024-09-25,2024-09-25,株式会社Ｍプラマー,,株式会社,神奈川県,川崎市川崎区,大島１丁目１５番１６号１０４,,14,131,2100834,,,,,,,2024-09-25,1,,,,,エムプラマー,0
1425,7020003026967,新規,0,2024-09-25,2024-09-25,あすなろグリーンプランニング合同会社,,合同会社,神奈川県,川崎市宮前区,土橋３丁目２０番地２２,,14,136,2160005,,,,,,,2024-09-25,1,,,,,アスナログリーンプランニング,0
1431,7021001083298,新規,0,2024-09-25,2024-09-25,福通株式会社,,株式会社,神奈川県,秦野市,南矢名２２２３番地の４東海ビル１０２Ｂ,,14,211,2570003,,,,,,,2024-09-25,1,,,,,フクツウ,0
1432,7021003015019,新規,0,2024-09-25,2024-09-25,やおき＆おいし箱庭合同会社,,合同会社,神奈川県,愛甲郡愛川町,中津５５０番地の３,,14,401,2430303,,,,,,,2024-09-25,1,,,,,ヤオキアンドオイシハコニワ,0
1433,7021003015027,新規,0,2024-09-25,2024-09-25,合同会社ルナトラ,,合同会社,神奈川県,相模原市南区,豊町６－１６,,14,153,2520305,,,,,,,2024-09-25,1,,,,,ルナトラ,0
1446,7030003025175,新規,0,2024-09-25,2024-09-25,ＳＴＡＮＤＬＥＹ　ＴＲＡＤＩＮＧ合同会社,,合同会社,埼玉県,草加市,西町１２０－３ハイツサンテン１０２号,,11,221,3400035,,,,,,,2024-09-25,1,,,,,スタンリートレーディング,0
1451,7040001135504,新規,0,2024-09-25,2024-09-25,株式会社Ａ．Ｒロジテック,,株式会社,千葉県,千葉市花見川区,作新台４丁目９番１１号,,12,102,2620045,,,,,,,2024-09-25,1,,,,,エーアールロジテック,0
1452,7040001135512,新規,0,2024-09-25,2024-09-25,株式会社Ａ‐Ｕ‐Ｎ,,株式会社,千葉県,流山市,江戸川台東２丁目１３番地,,12,220,2700111,,,,,,,2024-09-25,1,,,,,アウン,0
1454,7050003008681,新規,0,2024-09-25,2024-09-25,合同会社ＳＡＭＢＥ,,合同会社,茨城県,取手市,戸頭２４２４番地４,,08,217,3020034,,,,,,,2024-09-25,1,,,,,サンベ,0
1460,7080403005103,新規,0,2024-09-25,2024-09-25,合同会社ｍｏｒｉｍｏｒｉ,,合同会社,静岡県,浜松市浜名区,貴布祢３２２番地の１３アイリス１０２,,22,139,4340038,,,,,,,2024-09-25,1,,,,,モリモリ,0
1474,7120001268774,新規,0,2024-09-25,2024-09-25,株式会社Ｎ‐ｕｐ,,株式会社,大阪府,大阪市中央区,北久宝寺町３丁目６－１本町南ガーデンシティ７階,,27,128,5410057,,,,,,,2024-09-25,1,,,,,エヌアップ,0
1477,7120003027550,新規,0,2024-09-25,2024-09-25,ＴＭ合同会社,,合同会社,大阪府,大阪市東住吉区,桑津３丁目１５－４１,,27,121,5460041,,,,,,,2024-09-25,1,,,,,ティーエム,0
1478,7120005024546,新規,0,2024-09-25,2024-09-25,一般社団法人かけはし,,その他の設立登記法人,大阪府,大阪市福島区,吉野４丁目２４番８－１５０１号,,27,103,5530006,,,,,,,2024-09-25,1,,,,,カケハシ,0
1479,7120101070304,新規,0,2024-09-25,2024-09-25,株式会社ｐｒｏｃｅｅｄ,,株式会社,大阪府,堺市堺区,向陵中町４丁４－７森下ビル２階,,27,141,5900024,,,,,,,2024-09-25,1,,,,,プロシード,0
1480,7120101070312,新規,0,2024-09-25,2024-09-25,株式会社リノア,,株式会社,大阪府,岸和田市,北町１５番２９号,,27,202,5960056,,,,,,,2024-09-25,1,,,,,リノア,0
1481,7120103006066,新規,0,2024-09-25,2024-09-25,合同会社ＲＯＣＫＥＴＳ,,合同会社,大阪府,堺市中区,深井沢町３２８１中村ビル,,27,142,5998236,,,,,,,2024-09-25,1,,,,,ロケッツ,0
1482,7120901049786,新規,0,2024-09-25,2024-09-25,ＨＨ株式会社,,株式会社,大阪府,高槻市,宮田町１丁目１９番３０号,,27,207,5691142,,,,,,,2024-09-25,1,,,,,エイチエイチ,0
1483,7120901049794,新規,0,2024-09-25,2024-09-25,株式会社ＩＷＹ,,株式会社,大阪府,豊中市,螢池東町４丁目１番１３の２号,,27,203,5600032,,,,,,,2024-09-25,1,,,,,イウィー,0
1484,7122001038471,新規,0,2024-09-25,2024-09-25,Ｇ．Ａ．ＭＯＴＯＲＳ　ＪＡＰＡＮ株式会社,,株式会社,大阪府,東大阪市,森河内西１丁目１１番１２号ＡｖｉｏｒＭａｎｏｒ３０３,,27,227,5770061,,,,,,,2024-09-25,1,,,,,ジーエーモータースジャパン,0
1487,7130001077968,新規,0,2024-09-25,2024-09-25,順閣投資株式会社,,株式会社,京都府,京都市山科区,御陵封ジ山町７－４６－２０７号室,,26,110,6078422,,,,,,,2024-09-25,1,,,,,ジュンカクトウシ,0
1488,7130001077992,新規,0,2024-09-25,2024-09-25,株式会社ｐｒｅｔｔｙ,,株式会社,京都府,京都市山科区,東野舞台町３０番１１－２０２号,,26,110,6078146,,,,,,,2024-09-25,1,,,,,プリティ,0
1494,7140001135849,新規,0,2024-09-25,2024-09-25,株式会社ＥＲＣ,,株式会社,兵庫県,伊丹市,西台１丁目２番３号山本不動産ビル７０１号,,28,207,6640858,,,,,,,2024-09-25,1,,,,,イーアールシー,0
1495,7140001135865,新規,0,2024-09-25,2024-09-25,株式会社夢清,,株式会社,兵庫県,西宮市,甲子園口３丁目２２番２２号,,28,204,6638113,,,,,,,2024-09-25,1,,,,,ユメキヨ,0
1496,7140001135873,新規,0,2024-09-25,2024-09-25,株式会社タクシープロファクトリー,,株式会社,兵庫県,加古川市,米田町平津６８９－１７－１,,28,210,6750054,,,,,,,2024-09-25,1,,,,,タクシープロファクトリー,0
1499,7140003021114,新規,0,2024-09-25,2024-09-25,ワイディック合同会社,,合同会社,兵庫県,神戸市中央区,磯辺通１丁目１番１８号カサベラ国際プラザビル７０７号室,,28,110,6510084,,,,,,,2024-09-25,1,,,,,ワイディック,0
1502,7160001026229,新規,0,2024-09-25,2024-09-25,株式会社ＴＡＫ,,株式会社,滋賀県,守山市,勝部３丁目１２番２０号,,25,207,5240041,,,,,,,2024-09-25,1,,,,,ティーエーケー,0
1523,7230001020538,新規,0,2024-09-25,2024-09-25,株式会社Ｐｅａｃｅ　Ｃｏ．,,株式会社,富山県,富山市,山室荒屋４４番地９,,16,201,9398022,,,,,,,2024-09-25,1,,,,,ピースカンパニー,0
1524,7230002014720,新規,0,2024-09-25,2024-09-25,有限会社氷見園芸センター,,有限会社,富山県,氷見市,比美町９番７号,,16,205,9350012,,,,,,,2024-09-25,1,,,,,,0
1525,7230003002294,新規,0,2024-09-25,2024-09-25,津沢工業合同会社,,合同会社,富山県,小矢部市,清沢字裏川原３３１番１,,16,209,9320112,,,,,,,2024-09-25,1,,,,,ツザワコウギョウ,0
1530,7240003006864,新規,0,2024-09-25,2024-09-25,合同会社Ｒ‐ＳＴＹＬＥ,,合同会社,広島県,広島市中区,本通７－２９アイビービル７階,,34,101,7300035,,,,,,,2024-09-25,1,,,,,アールスタイル,0
1533,7250001020825,新規,0,2024-09-25,2024-09-25,Ｕｎｉｖｅｒｓｅ株式会社,,株式会社,山口県,下関市,川中本町１５番２８号,,35,201,7510859,,,,,,,2024-09-25,1,,,,,ユニバース,0
1536,7260001039435,新規,0,2024-09-25,2024-09-25,内外インテリア株式会社,,株式会社,岡山県,岡山市北区,大内田７１５番地の１,,33,101,7010165,,,,,,,2024-09-25,1,,,,,,0
1537,7260001039484,新規,0,2024-09-25,2024-09-25,株式会社ＨＡＳＨ,,株式会社,岡山県,加賀郡吉備中央町,上野２４４０―１０６,,33,681,7092344,,,,,,,2024-09-25,1,,,,,ハッシュ,0
1539,7280003001886,新規,0,2024-09-25,2024-09-25,合同会社華の木,,合同会社,島根県,浜田市,真光町１６,,32,202,6970046,,,,,,,2024-09-25,1,,,,,ハナノキ,0
1545,7290801030904,新規,0,2024-09-25,2024-09-25,ウェルプラス株式会社,,株式会社,福岡県,北九州市小倉北区,片野新町１丁目１５番２４－３０７号,,40,106,8020062,,,,,,,2024-09-25,1,,,,,ウェルプラス,0
1548,7310003004869,新規,0,2024-09-25,2024-09-25,合同会社仁恵,,合同会社,長崎県,長崎市,泉２丁目７番１４号,,42,201,8528151,,,,,,,2024-09-25,1,,,,,ジンケイ,0
1552,7340001026813,新規,0,2024-09-25,2024-09-25,グッドタイム株式会社,,株式会社,鹿児島県,鹿児島市,西坂元町１５番５号,,46,201,8920863,,,,,,,2024-09-25,1,,,,,グッドタイム,0
1561,7390003002287,新規,0,2024-09-25,2024-09-25,ｎｕｍａ合同会社,,合同会社,山形県,天童市,鎌田本町３丁目３番２９号,,06,210,9940025,,,,,,,2024-09-25,1,,,,,ヌマ,0
1562,7390005009082,新規,0,2024-09-25,2024-09-25,保證責任黒川村楯區負債整理組合,,その他の設立登記法人,山形県,鶴岡市,黒川字楯１０７番地,,06,203,9970311,,,,,,,2024-09-25,1,,,,,ホショウセキニンクロカワムラタテク,0
1572,7430005015076,新規,0,2024-09-25,2024-09-25,一般社団法人後悔しない死に方研究所,,その他の設立登記法人,北海道,札幌市中央区,北二条西２８丁目４番１８－２０３号,,01,101,0640822,,,,,,,2024-09-25,1,,,,,コウカイシナイシニカタケンキュウジョ,0
1578,7480005007036,新規,0,2024-09-25,2024-09-25,医療法人川原歯科医院,,その他の設立登記法人,徳島県,美馬市,美馬町字宗重１２８－１,,36,207,7712104,,,,,,,2024-09-25,1,,,,,カワハラシカイイン,0
1581,7500001025897,新規,0,2024-09-25,2024-09-25,株式会社やどマネ,,株式会社,愛媛県,松山市,湊町４丁目１１－３階,,38,201,7900012,,,,,,,2024-09-25,1,,,,,ヤドマネ,0
1584,7700150127292,新規,0,2024-09-25,2024-09-25,Ｌｏｎｇｋｏｕ　Ｄｏｎｇｌｉ　Ｗｉｒｅ　ａｎｄ　Ｃａｂｌｅ　Ｃｏ．，Ｌｔｄ,,外国会社等,,,,,,,,Ｈｕａｎｃｈｅｎｇｂｅｉ　Ｒｏａｄ，Ｈｕａｎｇｃｈｅｎｇ，Ｎｏ．４１３，Ｌｏｎｇｋｏｕ　Ｃｉｔｙ，Ｓｈａｎｄｏｎｇ　Ｐｒｏｖｉｎｃｅ,,,,,,2024-09-25,1,,,,,リュウコウトウリツデンセンデンランユウゲンコウシ,0
1585,7700150127301,新規,0,2024-09-25,2024-09-25,ｓａｎ　ｍｉｎｇ　ｓｈｉ　ｗｅｉ　ｘｉｎｇ　ｍａｏ　ｙｉ　ｙｏｕ　ｘｉａｎ　ｇｏｎｇ　ｓｉ,,外国会社等,,,,,,,,ｆｕｊｉａｎｓｈｅｎｇｓａｎｍｉｎｇｓｈｉｙｏｕｘｉｘｉａｎｘｉｎｙａｎｇｚｈｅｎｇｅｚｈｕｃｕｎｄａｍｅｎｇｐｉｎｇ１５ｈａｏ,,,,,,2024-09-25,1,,,,,サンメイシイキョウボウエキユウゲンコウシ,0
1589,8010001248547,新規,0,2024-09-25,2024-09-25,投信直販サービス株式会社,,株式会社,東京都,千代田区,麹町３丁目５番４号,,13,101,1020083,,,,,,,2024-09-25,1,,,,,トクシンチョクハンサービス,0
1591,8010003044977,新規,0,2024-09-25,2024-09-25,合同会社ＳＲＦ,,合同会社,東京都,千代田区,丸の内１丁目４番１号東京共同会計事務所内,,13,101,1000005,,,,,,,2024-09-25,1,,,,,エスアールエフ,0
1592,8010003044985,新規,0,2024-09-25,2024-09-25,合同会社ナノルーフ,,合同会社,東京都,文京区,大塚６丁目８番７号,,13,105,1120012,,,,,,,2024-09-25,1,,,,,ナノルーフ,0
1593,8010005038861,新規,0,2024-09-25,2024-09-25,一般社団法人ＰＪＫ,,その他の設立登記法人,東京都,千代田区,霞が関３丁目２番５号,,13,101,1000013,,,,,,,2024-09-25,1,,,,,ピージェーケー,0
1596,8010105002305,新規,0,2024-09-25,2024-09-25,一般社団法人日本動物保護協会,,その他の設立登記法人,東京都,八王子市,石川町５４４番地３,,13,201,1920032,,,,,,,2024-09-25,1,,,,,,0
1599,8010401185274,新規,0,2024-09-25,2024-09-25,株式会社ＴＴ４,,株式会社,東京都,港区,西麻布４丁目１番１号,,13,103,1060031,,,,,,,2024-09-25,1,,,,,ティーティーフォー,0
1603,8010403033324,新規,0,2024-09-25,2024-09-25,合同会社プログレス,,合同会社,東京都,港区,赤坂７丁目５－４３－１０５,,13,103,1070052,,,,,,,2024-09-25,1,,,,,プログレス,0
1604,8010403033480,新規,0,2024-09-25,2024-09-25,お台場インベストメンツ１合同会社,,合同会社,東京都,港区,六本木１丁目６番１号泉ガーデンタワー,,13,103,1060032,,,,,,,2024-09-25,1,,,,,オダイバインベストメンツワン,0
1605,8010403033489,新規,0,2024-09-25,2024-09-25,合同会社エニタイム・ワンセット,,合同会社,東京都,港区,北青山１丁目３番１号アールキューブ青山３階,,13,103,1070061,,,,,,,2024-09-25,1,,,,,エニタイムワンセット,0
1606,8010405023612,新規,0,2024-09-25,2024-09-25,一般社団法人四ツ谷エナジー太陽光４,,その他の設立登記法人,東京都,港区,西新橋１丁目１番１号ＥＰコンサルティングサービス内,,13,103,1050003,,,,,,,2024-09-25,1,,,,,ヨツヤエナジータイヨウコウフォー,0
1610,8010603011113,新規,0,2024-09-25,2024-09-25,合同会社ライズ,,合同会社,東京都,江東区,森下４丁目１３－１２,,13,108,1350004,,,,,,,2024-09-25,1,,,,,ライズ,0
1611,8010701046564,新規,0,2024-09-25,2024-09-25,株式会社サクラネシア,,株式会社,東京都,品川区,上大崎２丁目１３番２９号,,13,109,1410021,,,,,,,2024-09-25,1,,,,,サクラネシア,0
1612,8010701046589,新規,0,2024-09-25,2024-09-25,株式会社ＳＹＮＣ,,株式会社,東京都,品川区,荏原４丁目１７番１８－６０１号,,13,109,1420063,,,,,,,2024-09-25,1,,,,,シンク,0
1614,8010703007358,新規,0,2024-09-25,2024-09-25,合同会社テスタス,,合同会社,東京都,品川区,荏原３丁目８番５号オーパスレジデンス武蔵小山７０５,,13,109,1420063,,,,,,,2024-09-25,1,,,,,テスタス,0
1617,8010801035418,新規,0,2024-09-25,2024-09-25,株式会社Ｈ,,株式会社,東京都,大田区,西蒲田７丁目９番２－１２０３号,,13,111,1440051,,,,,,,2024-09-25,1,,,,,エイチ,0
1618,8010803005105,新規,0,2024-09-25,2024-09-25,合同会社ディー・トゥルース,,合同会社,東京都,大田区,東六郷１丁目４番１号,,13,111,1440046,,,,,,,2024-09-25,1,,,,,ディートゥルース,0
1625,8011001164593,新規,0,2024-09-25,2024-09-25,株式会社勇信実業,,株式会社,東京都,渋谷区,道玄坂１丁目１０番８号,,13,113,1500043,,,,,,,2024-09-25,1,,,,,ユウシンジツギョウ,0
1626,8011001164809,新規,0,2024-09-25,2024-09-25,株式会社ＷＥＸＳ,,株式会社,東京都,渋谷区,南平台町２番６号南平台ヒルス６０４,,13,113,1500036,,,,,,,2024-09-25,1,,,,,ウィクス,0
1627,8011001164841,新規,0,2024-09-25,2024-09-25,株式会社ＤＥＮＤＥ,,株式会社,東京都,渋谷区,代々木３丁目５２番７号スカイコート代々木９０２,,13,113,1510053,,,,,,,2024-09-25,1,,,,,デンデ,0
1629,8011003020068,新規,0,2024-09-25,2024-09-25,アンビスケープ合同会社,,合同会社,東京都,渋谷区,円山町５番５号,,13,113,1500044,,,,,,,2024-09-25,1,,,,,アンビスケープ,0
1630,8011003020084,新規,0,2024-09-25,2024-09-25,合同会社ＳＰＳＭホールディングス,,合同会社,東京都,渋谷区,桜丘町２３番１７号シティコート桜丘４０８,,13,113,1500031,,,,,,,2024-09-25,1,,,,,エスピーエスエムホールディングス,0
1631,8011005010678,新規,0,2024-09-25,2024-09-25,一般社団法人日本シニアチア協会,,その他の設立登記法人,東京都,目黒区,中央町１丁目１８番２号,,13,110,1520001,,,,,,,2024-09-25,1,,,,,ニホンシニアチアキョウカイ,0
1639,8011301030009,新規,0,2024-09-25,2024-09-25,ｂｒｕｓｈｕｐ株式会社,,株式会社,東京都,杉並区,高円寺南３丁目５０－１０,,13,115,1660003,,,,,,,2024-09-25,1,,,,,ブラッシュアップ,0
1641,8011401026451,新規,0,2024-09-25,2024-09-25,株式会社Ｍ＆Ｍ,,株式会社,東京都,板橋区,大山金井町１３番９－７０３号パラスト大山,,13,119,1730024,,,,,,,2024-09-25,1,,,,,エムアンドエム,0
1642,8011601028074,新規,0,2024-09-25,2024-09-25,株式会社サルビア,,株式会社,東京都,練馬区,関町北５丁目１２番１０号桜井コーポＡ棟１Ｆ,,13,120,1770051,,,,,,,2024-09-25,1,,,,,サルビア,0
1649,8012401042315,新規,0,2024-09-25,2024-09-25,株式会社ＯＮＥ,,株式会社,東京都,武蔵野市,吉祥寺本町１丁目２４番５号吉祥寺ライトビル,,13,203,1800004,,,,,,,2024-09-25,1,,,,,ワン,0
1650,8012403006763,新規,0,2024-09-25,2024-09-25,合同会社Ｆ’ｓＦａｃｔｏｒｙ,,合同会社,東京都,武蔵野市,吉祥寺南町２丁目１７番４号,,13,203,1800003,,,,,,,2024-09-25,1,,,,,エフズファクトリー,0
1656,8013301053121,新規,0,2024-09-25,2024-09-25,＿輝株式会社,00136388,株式会社,東京都,豊島区,池袋４丁目１４－１１－１０５ａＬＡＴＯＩＫＥＢＵＫＵＲＯ,,13,116,1710014,,,,,,,2024-09-25,1,,,,,イキ,0
1659,8020003026966,新規,0,2024-09-25,2024-09-25,マーケティングパートナー合同会社,,合同会社,神奈川県,横浜市西区,北幸２丁目１０番４８号むつみビル３階,,14,103,2200004,,,,,,,2024-09-25,1,,,,,マーケティングパートナー,0
1663,8021001083297,新規,0,2024-09-25,2024-09-25,株式会社Ｆｅｅｌ　Ｕｐ,,株式会社,神奈川県,鎌倉市,大船１丁目２２番１６号ミイ第一ビル１階,,14,204,2470056,,,,,,,2024-09-25,1,,,,,フィールアップ,0
1665,8021003015026,新規,0,2024-09-25,2024-09-25,合同会社Ｂｌｉｓｓｆｕｌ,,合同会社,神奈川県,茅ヶ崎市,本村４丁目８－３６カーサソレイユ２０２号室,,14,207,2530042,,,,,,,2024-09-25,1,,,,,ブリスフル,0
1672,8030001162580,新規,0,2024-09-25,2024-09-25,ＡＲＣ．ＪＯＢ株式会社,,株式会社,埼玉県,川越市,田町３番地８,,11,201,3501113,,,,,,,2024-09-25,1,,,,,アークジョブ,0
1673,8030001162614,新規,0,2024-09-25,2024-09-25,株式会社クリエイション,,株式会社,埼玉県,飯能市,大字双柳７０３番地３７,,11,209,3570021,,,,,,,2024-09-25,1,,,,,クリエイション,0
1679,8040001135486,新規,0,2024-09-25,2024-09-25,サイバーストライク株式会社,,株式会社,千葉県,成田市,花崎町１４１番地１,,12,211,2860033,,,,,,,2024-09-25,1,,,,,サイバーストライク,0
1680,8040001135494,新規,0,2024-09-25,2024-09-25,株式会社サーフボードエージェンシージャパン,,株式会社,千葉県,鴨川市,内浦３４５番地１小湊シーサイドハイツ９０１,,12,223,2995502,,,,,,,2024-09-25,1,,,,,サーフボードエージェンシージャパン,0
1688,8060001037508,新規,0,2024-09-25,2024-09-25,ＨＲ　ＩＮＴＥＲＮＡＴＩＯＮＡＬ株式会社,,株式会社,栃木県,栃木市,西方町金崎８５１番地１１,,09,203,3220601,,,,,,,2024-09-25,1,,,,,エイチアールインターナショナル,0
1690,8070001042201,新規,0,2024-09-25,2024-09-25,株式会社ｕｃｈｉｔｅｃｈ　Ｉｎｃ．,,株式会社,群馬県,太田市,大原町５７３番地１１,,10,205,3792304,,,,,,,2024-09-25,1,,,,,ウチテックインク,0
1692,8080001026500,新規,0,2024-09-25,2024-09-25,ＴＯＫＡＩホーム株式会社,,株式会社,静岡県,静岡市駿河区,手越原２７９番地の４,,22,102,4210131,,,,,,,2024-09-25,1,,,,,トーカイホーム,0
1695,8080403005102,新規,0,2024-09-25,2024-09-25,合同会社プランベース,,合同会社,静岡県,浜松市中央区,倉松町４２３番地の１,,22,138,4328064,,,,,,,2024-09-25,1,,,,,プランベース,0
1702,8090001018918,新規,0,2024-09-25,2024-09-25,株式会社ＳＢＫ,,株式会社,山梨県,甲斐市,西八幡４００６番地６,,19,210,4000117,,,,,,,2024-09-25,1,,,,,エスビーケー,0
1713,8120001268699,新規,0,2024-09-25,2024-09-25,株式会社エーアイジャパン,,株式会社,大阪府,大阪市北区,堂島浜２丁目２番２８号,,27,127,5300004,,,,,,,2024-09-25,1,,,,,エーアイジャパン,0
1721,8140001135880,新規,0,2024-09-25,2024-09-25,株式会社Ｒｕｄｏｌｆ,,株式会社,兵庫県,加西市,北条町北条２８５番地の１０,,28,220,6752312,,,,,,,2024-09-25,1,,,,,ルドルフ,0
1726,8150005009626,新規,0,2024-09-25,2024-09-25,一般社団法人平城京西市船着場跡保存会,,その他の設立登記法人,奈良県,大和郡山市,九条町１８８番地１サンライズマンション大和郡山１０３号,,29,203,6391001,,,,,,,2024-09-25,1,,,,,ヘイジョウキョウニシイチフナツキバアトホゾンカイ,0
1732,8180001163341,新規,0,2024-09-25,2024-09-25,ＴＨＡＮＫＳ　ＭＩＮＤ株式会社,,株式会社,愛知県,名古屋市中川区,戸田西１丁目１９１１番地,,23,110,4540967,,,,,,,2024-09-25,1,,,,,サンクスマインド,0
1733,8180001163416,新規,0,2024-09-25,2024-09-25,株式会社ｇｇｓ,,株式会社,愛知県,名古屋市中区,栄４丁目２０番１１号,,23,106,4600008,,,,,,,2024-09-25,1,,,,,ジージーエス,0
1741,8190001031662,新規,0,2024-09-25,2024-09-25,Ａｆｒｉｎｅｘ　Ｉｎｔｅｒｎａｔｉｏｎａｌ株式会社,,株式会社,三重県,三重郡川越町,大字当新田４４１番地１クラシックハウス２０３号室,,24,344,5108111,,,,,,,2024-09-25,1,,,,,アフリネックスインタナショナル,0
1745,8200001042963,新規,0,2024-09-25,2024-09-25,株式会社サウナモンキー,,株式会社,岐阜県,岐阜市,領下６丁目４６番地,,21,201,5008241,,,,,,,2024-09-25,1,,,,,サウナモンキー,0
1746,8200001042971,新規,0,2024-09-25,2024-09-25,株式会社Ｍａｒｉｍｉ,,株式会社,岐阜県,岐阜市,東鶉２丁目１１５番地１０,,21,201,5008281,,,,,,,2024-09-25,1,,,,,マリミ,0
1750,8230003002302,新規,0,2024-09-25,2024-09-25,合同会社ｔｏｎａｒｉ,,合同会社,富山県,富山市,上大久保３１１１番地,,16,201,9392252,,,,,,,2024-09-25,1,,,,,トナリ,0
1752,8240001063849,新規,0,2024-09-25,2024-09-25,ＡＢＥＬカンパニー株式会社,,株式会社,広島県,広島市西区,庚午北１丁目２０番３－２０１号,,34,104,7330821,,,,,,,2024-09-25,1,,,,,アベルカンパニー,0
1754,8250001020824,新規,0,2024-09-25,2024-09-25,株式会社波多野水道,,株式会社,山口県,周南市,大字須々万本郷４５番地の１７,,35,215,7450122,,,,,,,2024-09-25,1,,,,,ハダノスイドウ,0
1761,8290001107378,新規,0,2024-09-25,2024-09-25,株式会社Ｔｒｙ　Ｆｏｒｃｅ,,株式会社,福岡県,糟屋郡須惠町,大字上須惠４１－２５,,40,344,8112114,,,,,,,2024-09-25,1,,,,,トライフォース,0
1766,8290803004839,新規,0,2024-09-25,2024-09-25,合同会社おつむじ,,合同会社,福岡県,田川市,魚町５番１号クレアトゥール４６　４０９（魚町）,,40,206,8250014,,,,,,,2024-09-25,1,,,,,オツムジ,0
1775,8360003014318,新規,0,2024-09-25,2024-09-25,サイオン沖縄合同会社,,合同会社,沖縄県,宜野湾市,普天間２丁目３１－９・２階,,47,205,9012202,,,,,,,2024-09-25,1,,,,,サイオン,0
1777,8370001051733,新規,0,2024-09-25,2024-09-25,株式会社東方建設,,株式会社,宮城県,仙台市若林区,若林２丁目５番５号,,04,103,9840826,,,,,,,2024-09-25,1,,,,,トウホウケンセツ,0
1778,8370001051741,新規,0,2024-09-25,2024-09-25,株式会社ストーク,,株式会社,宮城県,仙台市太白区,四郎丸字前６１番地の４,,04,104,9811101,,,,,,,2024-09-25,1,,,,,ストーク,0
1798,8430003016810,新規,0,2024-09-25,2024-09-25,合同会社Ａｓｋｒ,,合同会社,北海道,江別市,向ケ丘２２番地１,,01,217,0670075,,,,,,,2024-09-25,1,,,,,アスク,0
1803,8700150127300,新規,0,2024-09-25,2024-09-25,Ｆｏｓｈａｎｓｈｉｙａｏｌｉｎｇｄｉａｎｚｉｓｈａｎｇｗｕｙｏｕｘｉａｎｇｏｎｇｓｉ,,外国会社等,,,,,,,,３１３５，３ｒｄ　Ｆｌｏｏｒ，Ｎｏ．６３　Ｗｅｎｃｈａｎｇ　Ｒｏａｄ，Ｚｕｍｉａｏ　Ｓｕｂ－ｄｉｓｔｒｉｃｔ，Ｃｈａｎｃｈｅｎｇ　Ｄｉｓｔｒｉｃｔ，Ｆｏｓｈａｎ　Ｃｉｔｙ，Ｇｕａｎｇｄｏｎｇ　Ｐｒｏｖｉｎｃｅ,,,,,,2024-09-25,1,,,,,ブツザンシヨウレイデンシショウムユウゲンコウシ,0
1822,9010401185273,新規,0,2024-09-25,2024-09-25,ＴＭＩコンサルティング株式会社,,株式会社,東京都,港区,六本木６丁目１０番１号六本木ヒルズ森タワー２３階,,13,103,1060032,,,,,,,2024-09-25,1,,,,,ティーエムアイコンサルティング,0
1830,9010603011104,新規,0,2024-09-25,2024-09-25,日正合同会社,,合同会社,東京都,江東区,東砂４丁目３番７号,,13,108,1360074,,,,,,,2024-09-25,1,,,,,ニッショウ,0
1841,9011001164799,新規,0,2024-09-25,2024-09-25,株式会社ジョイア,,株式会社,東京都,渋谷区,猿楽町１７番１７号,,13,113,1500033,,,,,,,2024-09-25,1,,,,,ジョイア,0
1842,9011001164832,新規,0,2024-09-25,2024-09-25,株式会社Ｇｒｏｗｔｈ　ＩＭＴ,,株式会社,東京都,渋谷区,本町３丁目４９番１６号西新宿アイコービル７階,,13,113,1510071,,,,,,,2024-09-25,1,,,,,グロースアイエムティー,0
1843,9011001164857,新規,0,2024-09-25,2024-09-25,株式会社０３,,株式会社,東京都,渋谷区,千駄ヶ谷３丁目２７番４号,,13,113,1510051,,,,,,,2024-09-25,1,,,,,ゼロスリー,0
1848,9011005010677,新規,0,2024-09-25,2024-09-25,一般社団法人経営者支援プロフェッショナル協会,,その他の設立登記法人,東京都,渋谷区,神宮前６丁目１０－９原宿董友ビル４階,,13,113,1500001,,,,,,,2024-09-25,1,,,,,ケイエイシャシエンプロフェッショナルキョウカイ,0
1852,9011101108879,新規,0,2024-09-25,2024-09-25,株式会社ＣｏｎＢｒｉｏ,,株式会社,東京都,新宿区,西新宿３丁目３番１３号西新宿水間ビル２Ｆ,,13,104,1600023,,,,,,,2024-09-25,1,,,,,コンブリオ,0
1853,9011101108904,新規,0,2024-09-25,2024-09-25,株式会社ａｎｙ‐ｉ,,株式会社,東京都,新宿区,新宿１丁目３６－２新宿第七葉山ビル９階,,13,104,1600022,,,,,,,2024-09-25,1,,,,,エニーアイ,0
1855,9011103014951,新規,0,2024-09-25,2024-09-25,合同会社ＭＲ‐Ｃｈｅｒｒｙ,,合同会社,東京都,新宿区,新宿１丁目３４－１１ニューローレルマンション７０４号室,,13,104,1600022,,,,,,,2024-09-25,1,,,,,エムアールチェリー,0
1856,9011103014968,新規,0,2024-09-25,2024-09-25,ＭＡＳ　Ｄｉｓｔｒｏ　ＪＰ合同会社,,合同会社,東京都,新宿区,百人町１丁目２３番１０号増田第二ビル,,13,104,1690073,,,,,,,2024-09-25,1,,,,,マスディストロジェーピー,0
1857,9011105011170,新規,0,2024-09-25,2024-09-25,一般社団法人ＳＰＶ０３,,その他の設立登記法人,東京都,新宿区,四谷２丁目９番地１５東京ユナイテッド綜合事務所内,,13,104,1600004,,,,,,,2024-09-25,1,,,,,エスピーブイゼロサン,0
1860,9011401026459,新規,0,2024-09-25,2024-09-25,株式会社尻あがり,,株式会社,東京都,板橋区,志村２丁目１６番２号,,13,119,1740056,,,,,,,2024-09-25,1,,,,,シリアガリ,0
1863,9011501031185,新規,0,2024-09-25,2024-09-25,森遠株式会社,,株式会社,東京都,北区,浮間１丁目１番１４号リムジンビル３４３,,13,117,1150051,,,,,,,2024-09-25,1,,,,,シンエン,0
1873,9011603004460,新規,0,2024-09-25,2024-09-25,合同会社ｃｈａｉｎｏｎ,,合同会社,東京都,練馬区,大泉町２丁目３２番３号,,13,120,1780062,,,,,,,2024-09-25,1,,,,,シェノン,0
1879,9011803006463,新規,0,2024-09-25,2024-09-25,ＫＴＣ合同会社,,合同会社,東京都,足立区,中川４丁目３３番５号,,13,121,1200002,,,,,,,2024-09-25,1,,,,,ケイティシー,0
1883,9012401042306,新規,0,2024-09-25,2024-09-25,株式会社ヒロコーポレーション,,株式会社,東京都,調布市,調布ケ丘１丁目１６－２８,,13,208,1820021,,,,,,,2024-09-25,1,,,,,ヒロコーポレーション,0
1884,9012403006762,新規,0,2024-09-25,2024-09-25,ココ・ブリンビン合同会社,,合同会社,東京都,多摩市,鶴牧５丁目１４－６,,13,224,2060034,,,,,,,2024-09-25,1,,,,,ココブリンビン,0
1886,9012705002427,新規,0,2024-09-25,2024-09-25,医療法人社団青輪会,,その他の設立登記法人,東京都,小平市,大沼町１丁目２５番１１号ビューコート１階,,13,211,1870001,,,,,,,2024-09-25,1,,,,,セイワカイ,0
1894,9013301053129,新規,0,2024-09-25,2024-09-25,株式会社あいでぃえーる,,株式会社,東京都,豊島区,高松２丁目１４－７,,13,116,1710042,,,,,,,2024-09-25,1,,,,,アイディエール,0
1899,9020001068316,新規,0,2024-09-25,2024-09-25,株式会社日本教育センター出版局,,株式会社,神奈川県,川崎市宮前区,有馬９丁目３番地１４号,,14,136,2160003,,,,,,,2024-09-25,1,,,,,ニホンキョウイクセンターシュッパンキョク,0
1902,9020001159387,新規,0,2024-09-25,2024-09-25,株式会社エマリッチ,,株式会社,神奈川県,横浜市神奈川区,金港町５‐１４クアドリフォリオ８階,,14,102,2210056,,,,,,,2024-09-25,1,,,,,エマリッチ,0
1906,9020005016535,新規,0,2024-09-25,2024-09-25,一般社団法人和音,,その他の設立登記法人,神奈川県,横浜市都筑区,中川中央１丁目２１番３ドゥーエセンター北２０１,,14,118,2240003,,,,,,,2024-09-25,1,,,,,ワヲン,0
1907,9020005016551,新規,0,2024-09-25,2024-09-25,一般社団法人はまリハクリニック,,その他の設立登記法人,神奈川県,横浜市旭区,若葉台３丁目６番２号,,14,112,2410801,,,,,,,2024-09-25,1,,,,,ハマリハクリニック,0
1909,9021001083313,新規,0,2024-09-25,2024-09-25,株式会社Ｍスタイルリフォーム,,株式会社,神奈川県,相模原市中央区,鹿沼台２丁目１１番６号淵野辺サトウビル１階,,14,152,2520233,,,,,,,2024-09-25,1,,,,,エムスタイルリフォーム,0
1914,9021003015041,新規,0,2024-09-25,2024-09-25,合同会社ＫＴ,,合同会社,神奈川県,相模原市中央区,淵野辺２丁目１０番１号,,14,152,2520206,,,,,,,2024-09-25,1,,,,,ケーティー,0
1919,9030001162605,新規,0,2024-09-25,2024-09-25,ＫＭＥモーターズ株式会社,,株式会社,埼玉県,草加市,八幡町６３８番地３ニューメリッツハイツＡ－１０１号,,11,221,3400006,,,,,,,2024-09-25,1,,,,,ケーエムイーモーターズ,0
1924,9040001135485,新規,0,2024-09-25,2024-09-25,株式会社太陽ビタミン,,株式会社,千葉県,市川市,北方３丁目１番１６号,,12,203,2720815,,,,,,,2024-09-25,1,,,,,タイヨウビタミン,0
1925,9040001135493,新規,0,2024-09-25,2024-09-25,ＴｏＭＡＳ　ＩＮＴＥＲＮＡＴＩＯＮＡＬ株式会社,,株式会社,千葉県,我孫子市,我孫子２丁目１－１５０６,,12,222,2701166,,,,,,,2024-09-25,1,,,,,トーマスインターナショナル,0
1926,9040001135502,新規,0,2024-09-25,2024-09-25,株式会社ウェルビーイングサポート,,株式会社,千葉県,流山市,おおたかの森西１丁目６番地の６ヴェルジールおおたかの森１０３,,12,220,2700128,,,,,,,2024-09-25,1,,,,,ウェルビーイングサポート,0
1927,9040003025841,新規,0,2024-09-25,2024-09-25,ＴＫリアルエステート合同会社,,合同会社,千葉県,柏市,松ケ崎７４８番地２,,12,217,2770835,,,,,,,2024-09-25,1,,,,,ティーケーリアルエステート,0
1948,9120003027598,新規,0,2024-09-25,2024-09-25,合同会社結び,,合同会社,大阪府,大阪市鶴見区,安田１丁目１番４号鶴見緑地レックスマンション７０４号,,27,124,5380032,,,,,,,2024-09-25,1,,,,,ムスビ,0
1952,9120101070310,新規,0,2024-09-25,2024-09-25,春華株式会社,,株式会社,大阪府,堺市堺区,南旅篭町東４丁５番１５号,,27,141,5900965,,,,,,,2024-09-25,1,,,,,シュウカ,0
1953,9120103006064,新規,0,2024-09-25,2024-09-25,合同会社ぐりお,,合同会社,大阪府,堺市中区,平井１０３０番地６,,27,142,5998251,,,,,,,2024-09-25,1,,,,,グリオ,0
1956,9130001077974,新規,0,2024-09-25,2024-09-25,株式会社Ｈｏｍｉｅ＆Ａｃｈｉｅｖｅ,,株式会社,京都府,京都市伏見区,深草北新町６２７番地墨染コーポ３０６号,,26,109,6120044,,,,,,,2024-09-25,1,,,,,ホーミィーアンドアチーヴ,0
1958,9130005017183,新規,0,2024-09-25,2024-09-25,ＮＰＯ法人ＡＳＫＡ　ＷＯＲＬＤ,,その他の設立登記法人,京都府,京都市上京区,油小路通中立売西入ル甲斐守町９７番地西陣産業創造會舘（旧西陣電話局）２階,,26,102,6020000,,,,,,,2024-09-25,1,,,,,アスカワールド,0
1961,9140003021112,新規,0,2024-09-25,2024-09-25,前田機工合同会社,,合同会社,兵庫県,神戸市北区,菖蒲が丘１丁目５３４番地の６７,,28,109,6511306,,,,,,,2024-09-25,1,,,,,マエダキコウ,0
1963,9150001027580,新規,0,2024-09-25,2024-09-25,株式会社ＬＩＯ,,株式会社,奈良県,大和郡山市,昭和町６番地３,,29,203,6391033,,,,,,,2024-09-25,1,,,,,エルアイオー,0
1981,9210001019919,新規,0,2024-09-25,2024-09-25,株式会社明進工業,,株式会社,福井県,三方上中郡若狭町,瓜生第３２号１番地の１９,,18,501,9191525,,,,,,,2024-09-25,1,,,,,メイシンコウギョウ,0
1982,9210005010163,新規,0,2024-09-25,2024-09-25,医療法人Ｅｔｅｒｎａｂｌｏｏｍ,,その他の設立登記法人,福井県,福井市,日之出４丁目１１番１７号,,18,201,9100859,,,,,,,2024-09-25,1,,,,,エターナブルーム,0
1989,9240001063864,新規,0,2024-09-25,2024-09-25,株式会社クリアー,,株式会社,広島県,広島市中区,江波本町２０番１７一２０５号,,34,101,7300833,,,,,,,2024-09-25,1,,,,,クリアー,0
1992,9250001020823,新規,0,2024-09-25,2024-09-25,株式会社Ｒｉｄｉａｎｃｅ,,株式会社,山口県,下関市,竹崎町４丁目４番２－１７０２号,,35,201,7500025,,,,,,,2024-09-25,1,,,,,リディアンス,0
2001,9320001020725,新規,0,2024-09-25,2024-09-25,株式会社アズイズ,,株式会社,大分県,中津市,大字蛎瀬７７０,,44,203,8710007,,,,,,,2024-09-25,1,,,,,アズイズ,0
2005,9320003004478,新規,0,2024-09-25,2024-09-25,本田電脳相談合同会社,,合同会社,大分県,大分市,府内町１丁目４番１２号小松ビル４階,,44,201,8700021,,,,,,,2024-09-25,1,,,,,ホンダデンノウソウダン,0
2007,9320005010185,新規,0,2024-09-25,2024-09-25,一般社団法人日伊スローライフ,,その他の設立登記法人,大分県,大分市,三川上４丁目２番２７号,,44,201,8700143,,,,,,,2024-09-25,1,,,,,ニチイスローライフ,0
2008,9330001032471,新規,0,2024-09-25,2024-09-25,株式会社ＲＥｓｔａｒｔ,,株式会社,熊本県,荒尾市,万田２８番地２６,,43,204,8640002,,,,,,,2024-09-25,1,,,,,リスタート,0
2009,9340001026811,新規,0,2024-09-25,2024-09-25,株式会社Ｐａｔｃｈ　Ｔａｂｂｙ,,株式会社,鹿児島県,鹿児島市,伊敷台２丁目７番１９号,,46,201,8900007,,,,,,,2024-09-25,1,,,,,パッチタビー,0
2015,9360003014317,新規,0,2024-09-25,2024-09-25,合同会社花夢,,合同会社,沖縄県,豊見城市,字豊見城４３３番地４,,47,212,9010241,,,,,,,2024-09-25,1,,,,,ハナユメ,0
2016,9360003014333,新規,0,2024-09-25,2024-09-25,合同会社タグリンク,,合同会社,沖縄県,宜野湾市,真栄原１丁目２２番７号,,47,205,9012215,,,,,,,2024-09-25,1,,,,,タグリンク,0
2020,9370003006759,新規,0,2024-09-25,2024-09-25,合同会社ノースフォレスト,,合同会社,宮城県,富谷市,成田６丁目２２番地５,,04,216,9813341,,,,,,,2024-09-25,1,,,,,ノースフォレスト,0
2021,9380001034802,新規,0,2024-09-25,2024-09-25,株式会社Ｎａｒｄｓ,,株式会社,福島県,郡山市,清水台２丁目７番７号サーパス清水台３０１号,,07,203,9638005,,,,,,,2024-09-25,1,,,,,ナーズ,0
2024,9410001013942,新規,0,2024-09-25,2024-09-25,株式会社こまちダイン社,,株式会社,秋田県,秋田市,八橋本町４丁目１番３５号プランドール八橋２０２,,05,201,0100973,,,,,,,2024-09-25,1,,,,,コマチダインシャ,0
2026,9410003003990,新規,0,2024-09-25,2024-09-25,合同会社Ｃｕｌｅｃｔ,,合同会社,秋田県,大仙市,佐野町２－４,,05,212,0140017,,,,,,,2024-09-25,1,,,,,キュレクト,0
2027,9410005006604,新規,0,2024-09-25,2024-09-25,一般社団法人家系図普及会,,その他の設立登記法人,秋田県,秋田市,山王３丁目７番５－２０２号,,05,201,0100951,,,,,,,2024-09-25,1,,,,,カケイズフキュウカイ,0
2034,9430001092712,新規,0,2024-09-25,2024-09-25,アイラ株式会社,,株式会社,北海道,札幌市清田区,真栄五条１丁目６番２号,,01,110,0040835,,,,,,,2024-09-25,1,,,,,アイラ,0
2038,9440003001629,新規,0,2024-09-25,2024-09-25,合同会社ビゼックス,,合同会社,北海道,函館市,本町１０番１３号,,01,202,0400011,,,,,,,2024-09-25,1,,,,,ビゼックス,0
2039,9450005004422,新規,0,2024-09-25,2024-09-25,医療法人社団心凛会,,その他の設立登記法人,北海道,旭川市,神楽五条１４丁目１番８号,,01,204,0708005,,,,,,,2024-09-25,1,,,,,シンリンカイ,0
2042,9470001020388,新規,0,2024-09-25,2024-09-25,株式会社河野農業,,株式会社,香川県,高松市,丸亀町６番地１,,37,201,7600029,,,,,,,2024-09-25,1,,,,,コウノノウギョウ,0
2044,9700150127299,新規,0,2024-09-25,2024-09-25,Ｆｏｓｈａｎｓｈｉｘｕｙｉｔｏｎｇｄｉａｎｚｉｓｈａｎｇｗｕｙｏｕｘｉａｎｇｏｎｇｓｉ,,外国会社等,,,,,,,,Ｒｏｏｍ　２０４１－１，２ｎｄ　Ｆｌｏｏｒ，Ｂｕｉｌｄｉｎｇ　１，Ｎｏ．７８　Ｆｅｎｊｉａｎｇ　Ｍｉｄｄｌｅ　Ｒｏａｄ，Ｚｕｍｉａｏ　Ｓｕｂ－ｄｉｓｔｒｉｃｔ，Ｃｈａｎｃｈｅｎｇ　Ｄｉｓｔｒｉｃｔ，Ｆｏｓｈａｎ　Ｃｉｔｙ,,,,,,2024-09-25,1,,,,,ブツザンシシュイチツウデンシショウムユウゲンコウシ,0
