sequenceNumber,corporateNumber,process,correct,updateDate,changeDate,name,nameImageId,kind,prefectureName,cityName,streetNumber,addressImageId,prefectureCode,cityCode,postCode,addressOutside,addressOutsideImageId,closeDate,closeCause,successorCorporateNumber,changeCause,assignmentDate,latest,enName,enPrefectureName,enCityName,enAddressOutside,furigana,hihyoji
3,1010001149677,登記記録の閉鎖等,0,2023-11-16,2023-11-13,株式会社アイテック,,株式会社,大阪府,吹田市,南吹田５丁目２６番２８号,,27,205,5640043,,,2023-11-13,清算の結了等,,,2015-10-05,1,,,,,アイテック,0
13,1010003038952,登記記録の閉鎖等,0,2023-11-16,2023-11-09,合同会社オルタナ２０,,合同会社,東京都,千代田区,丸の内３丁目１番１号東京共同会計事務所内,,13,101,1000005,,,2023-11-09,清算の結了等,,,2022-11-01,1,,,,,オルタナトゥウェンティ,0
26,1010402009034,登記記録の閉鎖等,0,2023-11-16,2023-11-13,有限会社藤伸商事,,有限会社,東京都,港区,六本木７丁目１２番９号,,13,103,1060032,,,2023-11-13,清算の結了等,,,2023-10-26,1,,,,,トウシンショウジ,0
38,1010902010598,登記記録の閉鎖等,0,2023-11-16,2023-11-09,有限会社トウシュウ電設,,有限会社,東京都,世田谷区,上馬４丁目３１番１７号,,13,112,1540011,,,2023-11-09,清算の結了等,,,2015-10-05,1,,,,,トウシュウデンセツ,0
45,1011101007733,登記記録の閉鎖等,0,2023-11-16,2023-11-14,株式会社三誠アソシエイツ,,株式会社,東京都,新宿区,四谷２丁目８番地エムス四谷ビル６階,,13,104,1600004,,,2023-11-14,清算の結了等,,,2015-10-05,1,,,,,サンセイアソシエイツ,0
51,1011105002846,登記記録の閉鎖等,0,2023-11-16,2023-11-14,医療法人社団信厚館会,,その他の設立登記法人,東京都,新宿区,上落合２丁目２７番１６号,,13,104,1610034,,,2023-11-14,清算の結了等,,,2015-10-05,1,,,,,シンコウカンカイ,0
56,1011402002400,登記記録の閉鎖等,0,2023-11-16,2023-11-13,有限会社金山製作所,,有限会社,東京都,板橋区,前野町３丁目４６番１号,,13,119,1740063,,,2023-11-13,清算の結了等,,,2015-10-05,1,,,,,カナヤマセイサクショ,0
79,1021001032913,登記記録の閉鎖等,0,2023-11-16,2023-11-13,株式会社環建築企画,,株式会社,神奈川県,足柄上郡大井町,上大井１１４番地,,14,362,2580016,,,2023-11-13,清算の結了等,,,2015-10-05,1,,,,,タマキケンチクキカク,0
106,1040002068700,登記記録の閉鎖等,0,2023-11-16,2023-11-09,有限会社橋本通信工業,,有限会社,千葉県,袖ケ浦市,神納１１６３番地２,,12,229,2990257,,,2023-11-09,清算の結了等,,,2015-10-05,1,,,,,ハシモトツウシンコウギョウ,0
145,1120003012054,登記記録の閉鎖等,0,2023-11-16,2023-11-09,合同会社ワイ・ワイ・リアルプロパティーズ,,合同会社,大阪府,大阪市中央区,北浜４丁目２番１３号淀屋橋今西ビル４Ｆ,,27,128,5410041,,,2023-11-09,清算の結了等,,,2016-10-12,1,,,,,,0
154,1122002002829,登記記録の閉鎖等,0,2023-11-16,2023-11-15,有限会社大照化工,,有限会社,奈良県,山辺郡山添村,大字三ケ谷１３３５番地,,29,322,6302223,,,2023-11-15,清算の結了等,,,2015-10-05,1,,,,,ダイショウカコウ,0
171,1150002009180,登記記録の閉鎖等,0,2023-11-16,2023-11-15,有限会社トウマ機工,,有限会社,奈良県,大和高田市,土庫２丁目１１番３５号,,29,202,6350002,,,2023-11-15,清算の結了等,,,2015-10-05,1,,,,,トウマキコウ,0
173,1160001006640,登記記録の閉鎖等,0,2023-11-16,2023-11-10,サンスクール株式会社,,株式会社,滋賀県,長浜市,加田町２３８２番地,,25,203,5260828,,,2023-11-10,清算の結了等,,,2015-10-05,1,,,,,サンスクール,0
190,1190002002108,登記記録の閉鎖等,0,2023-11-16,2023-11-14,有限会社吉川鉄工所,,有限会社,三重県,津市,芸濃町小野平４８６番地,,24,201,5142206,,,2023-11-14,清算の結了等,,,2015-10-05,1,,,,,ヨシカワテッコウジョ,0
195,1210005009634,登記記録の閉鎖等,0,2023-11-16,2023-11-10,一般社団法人ＥＫＩＭＡＥ　ＭＡＬＬ,,その他の設立登記法人,福井県,福井市,中央１丁目９－２４福井中央ビル３階,,18,201,9100006,,,2023-11-10,清算の結了等,,,2016-10-21,1,,,,,エキマエモール,0
197,1220001004175,登記記録の閉鎖等,0,2023-11-16,2023-11-13,谷口運輸株式会社,,株式会社,石川県,金沢市,袋畠町北１６３番地,,17,201,9200361,,,2023-11-13,清算の結了等,,,2015-10-05,1,,,,,タニグチウンユ,0
198,1220002016500,登記記録の閉鎖等,0,2023-11-16,2023-11-10,有限会社アーナ,,有限会社,石川県,河北郡津幡町,字浅田乙７８番地,,17,361,9290324,,,2023-11-10,清算の結了等,,,2015-10-05,1,,,,,アーナ,0
201,1240002022199,登記記録の閉鎖等,0,2023-11-16,2023-11-10,有限会社ぽっぽサービス,,有限会社,広島県,広島市中区,大手町３丁目３番２７号,,34,101,7300051,,,2023-11-10,清算の結了等,,,2015-10-05,1,,,,,ポッポサービス,0
217,1310002006112,登記記録の閉鎖等,0,2023-11-16,2023-11-14,有限会社流通企画システム,,有限会社,長崎県,長崎市,昭和２丁目１番２１号,,42,201,8528145,,,2023-11-14,清算の結了等,,,2015-10-05,1,,,,,リュウツウキカクシステム,0
221,1330002026091,登記記録の閉鎖等,0,2023-11-16,2023-11-10,有限会社寺岡果実店,,有限会社,熊本県,八代市,古城町２３１５番１号,,43,202,8660043,,,2023-11-10,清算の結了等,,,2015-10-05,1,,,,,,0
234,1380002031211,登記記録の閉鎖等,0,2023-11-16,2023-11-10,有限会社猪苗代鉄工所,,有限会社,福島県,耶麻郡猪苗代町,大字若宮字村東丙７０４番地,,07,408,9692751,,,2023-11-10,清算の結了等,,,2015-10-05,1,,,,,イナワシロテッコウショ,0
237,1430001058019,登記記録の閉鎖等,0,2023-11-16,2023-11-09,株式会社川内建設,,株式会社,北海道,登別市,柏木町４丁目２４番地１８,,01,230,0590017,,,2023-11-09,清算の結了等,,,2015-10-05,1,,,,,カワウチケンセツ,0
256,2010001189706,登記記録の閉鎖等,0,2023-11-16,2023-11-09,コスメユーコー株式会社,,株式会社,東京都,千代田区,霞が関３丁目２番６号東京倶楽部ビルディング１１階,,13,101,1000013,,,2023-11-09,清算の結了等,,,2018-02-15,1,,,,,コスメユーコー,0
260,2010001220123,登記記録の閉鎖等,0,2023-11-16,2023-11-09,株式会社Ｎｅｘｔ,,株式会社,東京都,渋谷区,道玄坂１丁目１０番８号渋谷道玄坂東急ビル２Ｆ－Ｃ,,13,113,1500043,,,2023-11-09,清算の結了等,,,2021-08-10,1,,,,,ネクスト,0
273,2010005031509,登記記録の閉鎖等,0,2023-11-16,2023-11-15,サンビーム２一般社団法人,,その他の設立登記法人,東京都,千代田区,平河町１丁目６番１５号シルスフィア会計事務所内,,13,101,1020093,,,2023-11-15,清算の結了等,,,2020-02-28,1,,,,,サンビームツー,0
279,2010401004316,登記記録の閉鎖等,0,2023-11-16,2023-11-13,永和産業株式会社,,株式会社,東京都,港区,三田４丁目８番３６号,,13,103,1080073,,,2023-11-13,清算の結了等,,,2015-10-05,1,,,,,,0
292,2010703003924,登記記録の閉鎖等,0,2023-11-16,2023-11-09,ＥＰＩＣ合同会社,,合同会社,神奈川県,横浜市都筑区,中川５丁目３７－１２,,14,118,2240001,,,2023-11-09,清算の結了等,,,2017-11-08,1,,,,,エピック,0
309,2011101056374,登記記録の閉鎖等,0,2023-11-16,2023-11-09,Ｎ・ファクトリー株式会社,,株式会社,東京都,新宿区,高田馬場４丁目２８番８号,,13,104,1690075,,,2023-11-09,清算の結了等,,,2015-10-05,1,,,,,エヌファクトリー,0
316,2011301026680,登記記録の閉鎖等,0,2023-11-16,2023-11-02,ＴＡＬＥＮＴ　ＤＩＳＣＯＶＥＲＹ株式会社,,株式会社,東京都,杉並区,高円寺南５丁目２５番３号,,13,115,1660003,,,2023-11-02,清算の結了等,,,2021-03-12,1,,,,,タレントディスカバリー,0
317,2011401001435,登記記録の閉鎖等,0,2023-11-16,2023-11-14,金久建設株式会社,,株式会社,東京都,板橋区,仲町３６番１号,,13,119,1730022,,,2023-11-14,清算の結了等,,,2015-10-05,1,,,,,カネキュウケンセツ,0
324,2012701001348,登記記録の閉鎖等,0,2023-11-16,2023-11-13,株式会社小高,,株式会社,東京都,東村山市,野口町１丁目２７番地７,,13,213,1890022,,,2023-11-13,清算の結了等,,,2015-10-05,1,,,,,コタカ,0
326,2012701008673,登記記録の閉鎖等,0,2023-11-16,2023-11-10,熱源開発株式会社,,株式会社,東京都,東村山市,栄町２丁目１４番地１,,13,213,1890013,,,2023-11-10,清算の結了等,,,2015-10-05,1,,,,,ネツゲンカイハツ,0
331,2013202000335,登記記録の閉鎖等,0,2023-11-16,2023-11-13,有限会社浅原材木店,,有限会社,東京都,目黒区,柿の木坂２丁目２３番５号,,13,110,1520022,,,2023-11-13,清算の結了等,,,2015-10-05,1,,,,,アサハラザイモクテン,0
336,2020002030553,登記記録の閉鎖等,0,2023-11-16,2023-11-08,有限会社大地商店,,有限会社,神奈川県,横浜市南区,永田山王台３５番１メゾン永田１０３号,,14,105,2320074,,,2023-11-08,清算の結了等,,,2015-10-05,1,,,,,オオチショウテン,0
340,2021001063486,登記記録の閉鎖等,0,2023-11-16,2023-11-13,株式会社ａｎｄ　Ｕ,,株式会社,神奈川県,大和市,南林間１丁目８番地１２号,,14,213,2420006,,,2023-11-13,清算の結了等,,,2017-11-10,1,,,,,,0
345,2021002051481,登記記録の閉鎖等,0,2023-11-16,2023-11-13,有限会社鴨宮会館,,有限会社,神奈川県,小田原市,南鴨宮２丁目３７番７号,,14,206,2500875,,,2023-11-13,清算の結了等,,,2015-10-05,1,,,,,カモノミヤカイカン,0
355,2030002002221,登記記録の閉鎖等,0,2023-11-16,2023-11-02,有限会社エス・ケイ・ピー,,有限会社,埼玉県,さいたま市中央区,大字下落合１０８８番地,,11,105,3380002,,,2023-11-02,清算の結了等,,,2015-10-05,1,,,,,エスケイピー,0
378,2060003002622,登記記録の閉鎖等,0,2023-11-16,2023-11-13,合同会社ユーミ通信,,合同会社,栃木県,那須塩原市,二区町１５１６番地３,,09,213,3292733,,,2023-11-13,清算の結了等,,,2017-08-03,1,,,,,ユーミツウシン,0
383,2120001014968,登記記録の閉鎖等,0,2023-11-16,2023-11-08,三恵株式会社,,株式会社,大阪府,大阪市城東区,天王田１１番２０号,,27,118,5360012,,,2023-11-08,清算の結了等,,,2015-10-05,1,,,,,サンケイ,0
423,2140002018710,登記記録の閉鎖等,0,2023-11-16,2023-11-13,有限会社村上,,有限会社,兵庫県,神戸市中央区,港島中町３丁目１番地の２神戸ポートビレジ１号棟１０２７号,,28,110,6500046,,,2023-11-13,清算の結了等,,,2015-10-05,1,,,,,ムラカミ,0
431,2180001054629,登記記録の閉鎖等,0,2023-11-16,2023-11-13,株式会社ヴァイスト,,株式会社,愛知県,名古屋市中区,丸の内３丁目１８番１号,,23,106,4600002,,,2023-11-13,清算の結了等,,,2015-10-05,1,,,,,ヴァイスト,0
432,2180001106909,登記記録の閉鎖等,0,2023-11-16,2023-11-10,株式会社プリフェリー,,株式会社,愛知県,名古屋市千種区,仲田２丁目２番２０号,,23,101,4640074,,,2023-11-10,清算の結了等,,,2015-10-05,1,,,,,プリフェリー,0
439,2180003019778,登記記録の閉鎖等,0,2023-11-16,2023-11-10,コルガン工業合同会社,,合同会社,愛知県,あま市,篠田新割１３番５,,23,237,4901211,,,2023-11-10,清算の結了等,,,2019-03-11,1,,,,,コルガンコウギョウ,0
452,2190003003426,登記記録の閉鎖等,0,2023-11-16,2023-11-10,合同会社いなべ資産承継研究所,,合同会社,三重県,いなべ市,大安町石榑東１２３３番地１,,24,214,5110264,,,2023-11-10,清算の結了等,,,2020-07-08,1,,,,,イナベシサンショウケイケンキュウジョ,0
456,2220001023075,登記記録の閉鎖等,0,2023-11-16,2023-11-13,Ｐｌａｙ－ｏｎ株式会社,,株式会社,石川県,金沢市,西金沢５丁目３１６番地,,17,201,9218054,,,2023-11-13,清算の結了等,,,2019-08-27,1,,,,,プレイオン,0
458,2230003001549,登記記録の閉鎖等,0,2023-11-16,2023-11-14,合同会社活動と休息,,合同会社,富山県,富山市,奥田町２２番２３号,,16,201,9300818,,,2023-11-14,清算の結了等,,,2020-10-16,1,,,,,カツドウトキュウソク,0
462,2240005003344,登記記録の閉鎖等,0,2023-11-16,2023-11-10,特定非営利活動法人エルシャダイ,,その他の設立登記法人,広島県,広島市中区,加古町１４番８号,,34,101,7300812,,,2023-11-10,清算の結了等,,,2015-10-05,1,,,,,エルシャダイ,0
464,2270002001686,登記記録の閉鎖等,0,2023-11-16,2023-11-14,有限会社ニューモードロマン,,有限会社,鳥取県,鳥取市,栄町２０９番地,,31,201,6800831,,,2023-11-14,清算の結了等,,,2015-10-05,1,,,,,,0
475,2290002041425,登記記録の閉鎖等,0,2023-11-16,2023-11-02,有限会社ちくしの産業,,有限会社,福岡県,太宰府市,大字内山５３８番地１,,40,221,8180115,,,2023-11-02,合併による解散等,4290001040822,令和５年１１月１日福岡市博多区博多駅東一丁目１０番３０号株式会社セントラル商工（4290001040822）に合併し解散,2015-10-05,1,,,,,チクシノサンギョウ,0
481,2310002012613,登記記録の閉鎖等,0,2023-11-16,2023-11-14,有限会社三根建設,,有限会社,長崎県,東彼杵郡東彼杵町,三根郷１６６４番地,,42,321,8593806,,,2023-11-14,清算の結了等,,,2015-10-05,1,,,,,ミネケンセツ,0
484,2340005008044,登記記録の閉鎖等,0,2023-11-16,2023-11-09,特定非営利活動法人長寿ささえ愛の会,,その他の設立登記法人,鹿児島県,日置市,伊集院町郡１５６５番地,,46,216,8992504,,,2023-11-09,清算の結了等,,,2015-10-05,1,,,,,チョウジュササエアイノカイ,0
491,2370003001543,登記記録の閉鎖等,0,2023-11-16,2023-11-15,合同会社いろは,,合同会社,宮城県,仙台市青葉区,高野原３丁目４番地の１５,,04,101,9893216,,,2023-11-15,清算の結了等,,,2015-10-05,1,,,,,,0
515,2430005000082,登記記録の閉鎖等,0,2023-11-16,2023-11-10,見敬寺,,その他の設立登記法人,北海道,札幌市中央区,南十五条西１６丁目９番地,,01,101,0640915,,,2023-11-10,清算の結了等,,,2015-10-05,1,,,,,ケンキョウジ,0
520,2500002008773,登記記録の閉鎖等,0,2023-11-16,2023-11-15,有限会社入岡石材店,,有限会社,愛媛県,伊予市,中山町中山丑２６１番地,,38,210,7913206,,,2023-11-15,清算の結了等,,,2015-10-05,1,,,,,イリオカセキザイテン,0
523,3010001122608,登記記録の閉鎖等,0,2023-11-16,2023-11-13,大宮商事株式会社,,株式会社,東京都,江戸川区,南小岩８丁目１４－４－６０７,,13,123,1330056,,,2023-11-13,清算の結了等,,,2015-10-05,1,,,,,オオミヤショウジ,0
535,3010003024752,登記記録の閉鎖等,0,2023-11-16,2023-11-09,三宮町一丁目合同会社,,合同会社,東京都,千代田区,内神田２丁目２番６号５階あすな会計事務所内,,13,101,1010047,,,2023-11-09,清算の結了等,,,2017-01-31,1,,,,,サンミヤチョウイッチョウメ,0
574,3011301003316,登記記録の閉鎖等,0,2023-11-16,2023-11-07,頌栄工業株式会社,,株式会社,東京都,杉並区,高円寺南４丁目５１番１号,,13,115,1660003,,,2023-11-07,清算の結了等,,,2015-10-05,1,,,,,,0
579,3011401022918,登記記録の閉鎖等,0,2023-11-16,2023-11-13,本鋼集団日本株式会社,,株式会社,東京都,板橋区,板橋１丁目１３番８号協立コーポレーション第３ビル６０１号室,,13,119,1730004,,,2023-11-13,清算の結了等,,,2020-10-28,1,,,,,ホンコウシュウダンニホン,0
589,3011803005719,登記記録の閉鎖等,0,2023-11-16,2023-11-13,文祖合同会社,,合同会社,東京都,足立区,梅島３丁目３４番６－２０３号,,13,121,1210816,,,2023-11-13,清算の結了等,,,2023-07-06,1,,,,,ブンソ,0
595,3012701000563,登記記録の閉鎖等,0,2023-11-16,2023-11-13,株式会社楽膳,,株式会社,東京都,小平市,天神町１丁目４番３８号,,13,211,1870004,,,2023-11-13,清算の結了等,,,2015-10-05,1,,,,,ラクゼン,0
596,3012701010083,登記記録の閉鎖等,0,2023-11-16,2023-11-13,株式会社ジュエリーアート栞,,株式会社,東京都,西東京市,泉町１丁目１１番１４号,,13,229,2020011,,,2023-11-13,清算の結了等,,,2015-10-05,1,,,,,ジュエリーアートシオリ,0
598,3012702005322,登記記録の閉鎖等,0,2023-11-16,2023-11-10,有限会社小野寺商事,,有限会社,東京都,西東京市,田無町４丁目２６番５号,,13,229,1880011,,,2023-11-10,清算の結了等,,,2015-10-05,1,,,,,オノデラショウジ,0
602,3013301003287,登記記録の閉鎖等,0,2023-11-16,2023-11-13,株式会社キース・コーポレーション,,株式会社,東京都,足立区,新田１丁目１７番１６号,,13,121,1230865,,,2023-11-13,清算の結了等,,,2015-10-05,1,,,,,キースコーポレーション,0
606,3020001059956,登記記録の閉鎖等,0,2023-11-16,2023-11-08,株式会社ＡＳＸ,,株式会社,東京都,中央区,東日本橋２丁目２８番４号日本橋ＣＥＴビル２階,,13,102,1030004,,,2023-11-08,清算の結了等,,,2015-10-05,1,,,,,エーエスエックス,0
610,3020002032400,登記記録の閉鎖等,0,2023-11-16,2023-11-13,有限会社荒井孝工務店,,有限会社,神奈川県,横浜市港北区,師岡町５８１番地の２,,14,109,2220002,,,2023-11-13,清算の結了等,,,2015-10-05,1,,,,,,0
611,3020002095802,登記記録の閉鎖等,0,2023-11-16,2023-11-10,有限会社植田設備工業,,有限会社,神奈川県,川崎市川崎区,大島上町１６番１０号,,14,131,2100836,,,2023-11-10,清算の結了等,,,2015-10-05,1,,,,,ウエダセツビコウギョウ,0
649,3080402017937,登記記録の閉鎖等,0,2023-11-16,2023-11-10,有限会社まつうら,,有限会社,静岡県,掛川市,伊達方３１番地の１０,,22,213,4360005,,,2023-11-10,清算の結了等,,,2015-10-05,1,,,,,マツウラ,0
654,3110003003886,登記記録の閉鎖等,0,2023-11-16,2023-11-13,合同会社ＨＩＭＡＬＡＹＡＮ,,合同会社,新潟県,新潟市中央区,東大通２丁目７番２８号,,15,103,9500087,,,2023-11-13,清算の結了等,,,2019-03-18,1,,,,,ヒマラヤン,0
676,3120902014578,登記記録の閉鎖等,0,2023-11-16,2023-11-10,有限会社松盛園,,有限会社,大阪府,池田市,中川原町２５２番地の２,,27,204,5630013,,,2023-11-10,清算の結了等,,,2015-10-05,1,,,,,ショウセイエン,0
689,3140002050695,登記記録の閉鎖等,0,2023-11-16,2023-11-10,有限会社ふるさと,,有限会社,兵庫県,姫路市,大津区西土井１８６番地の５,,28,201,6711141,,,2023-11-10,清算の結了等,,,2015-10-05,1,,,,,フルサト,0
704,3180002038571,登記記録の閉鎖等,0,2023-11-16,2023-11-08,有限会社ユウアイホーム,,有限会社,愛知県,名古屋市守山区,新守西２００３番地,,23,113,4630069,,,2023-11-08,清算の結了等,,,2015-10-05,1,,,,,ユウアイホーム,0
716,3180301019165,登記記録の閉鎖等,0,2023-11-16,2023-11-07,株式会社ハラダ,,株式会社,愛知県,豊田市,西岡町二本木９７番地,,23,211,4730936,,,2023-11-07,清算の結了等,,,2015-10-05,1,,,,,ハラダ,0
721,3180302019164,登記記録の閉鎖等,0,2023-11-16,2023-11-06,有限会社ＣＦカンパニー,,有限会社,愛知県,刈谷市,青山町２丁目１５６番地１０,,23,210,4480014,,,2023-11-06,清算の結了等,,,2015-10-05,1,,,,,シーエフカンパニー,0
728,3200003003423,登記記録の閉鎖等,0,2023-11-16,2023-11-15,合同会社岩田機械設計舎,,合同会社,岐阜県,各務原市,川島河田町３３５番地,,21,213,5016025,,,2023-11-15,清算の結了等,,,2015-10-05,1,,,,,イワタキカイセッケイシャ,0
729,3220001004710,登記記録の閉鎖等,0,2023-11-16,2023-11-14,株式会社ナカイチ,,株式会社,石川県,金沢市,割出町１５番地１,,17,201,9200062,,,2023-11-14,清算の結了等,,,2015-10-05,1,,,,,ナカイチ,0
731,3220003001945,登記記録の閉鎖等,0,2023-11-16,2023-11-13,オレンジケア合同会社,,合同会社,石川県,金沢市,永安町７３番地,,17,201,9201301,,,2023-11-13,清算の結了等,,,2015-10-05,1,,,,,オレンジケア,0
732,3220003002547,登記記録の閉鎖等,0,2023-11-16,2023-11-09,合同会社Ａｓｔａｌｉｇｈｔ,,合同会社,石川県,金沢市,八田町東２８１番地,,17,201,9203104,,,2023-11-09,清算の結了等,,,2019-02-05,1,,,,,アスタライト,0
736,3240001037980,登記記録の閉鎖等,0,2023-11-16,2023-11-13,川本建設株式会社,,株式会社,広島県,尾道市,栗原町６２８７番地の３,,34,205,7220022,,,2023-11-13,清算の結了等,,,2015-10-05,1,,,,,カワモトケンセツ,0
745,3260005000388,登記記録の閉鎖等,0,2023-11-16,2023-11-13,黒住教操南教会所,,その他の設立登記法人,岡山県,岡山市中区,藤崎２６６番地,,33,102,7028006,,,2023-11-13,清算の結了等,,,2015-10-05,1,,,,,クロズミキョウソウナンキョウカイショ,0
746,3270002006718,登記記録の閉鎖等,0,2023-11-16,2023-11-14,有限会社橋尾ボデー,,有限会社,鳥取県,米子市,蚊屋２７０番地１,,31,202,6893543,,,2023-11-14,清算の結了等,,,2015-10-05,1,,,,,ハシオボデー,0
763,3340003003005,登記記録の閉鎖等,0,2023-11-16,2023-11-15,合同会社染木かわら工業,,合同会社,鹿児島県,肝属郡肝付町,後田染木１９１８番地,,46,492,8931203,,,2023-11-15,清算の結了等,,,2020-01-16,1,,,,,ソメキカワラコウギョウ,0
764,3340005006550,登記記録の閉鎖等,0,2023-11-16,2023-11-14,社会福祉法人協和福祉会,,その他の設立登記法人,鹿児島県,垂水市,海潟字天神山６５１番地２,,46,214,8912101,,,2023-11-14,清算の結了等,,,2015-10-05,1,,,,,キョウワフクシカイ,0
774,3430001063504,登記記録の閉鎖等,0,2023-11-16,2023-11-06,株式会社ブラスト,,株式会社,北海道,室蘭市,輪西町１丁目３２番１４号,,01,205,0500085,,,2023-11-06,清算の結了等,,,2015-10-05,1,,,,,ブラスト,0
775,3430002001561,登記記録の閉鎖等,0,2023-11-16,2023-11-09,有限会社居酒屋なか川,,有限会社,北海道,札幌市白石区,北郷一条３丁目２番２８号,,01,104,0030831,,,2023-11-09,清算の結了等,,,2015-10-05,1,,,,,イザカヤナカガワ,0
781,3470002011177,登記記録の閉鎖等,0,2023-11-16,2023-11-13,有限会社スキルア,,有限会社,香川県,綾歌郡綾川町,滝宮１４２２番地１,,37,387,7612305,,,2023-11-13,清算の結了等,,,2015-10-05,1,,,,,スキルア,0
848,4011601024127,登記記録の閉鎖等,0,2023-11-16,2023-11-13,株式会社２,,株式会社,東京都,練馬区,豊玉上２丁目２４番１５号,,13,120,1760011,,,2023-11-13,清算の結了等,,,2020-04-03,1,,,,,ニ,0
852,4011701014952,登記記録の閉鎖等,0,2023-11-16,2023-11-14,株式会社ワイズクリエイティブハウス,,株式会社,東京都,江戸川区,北小岩８丁目２９番１１号,,13,123,1330051,,,2023-11-14,清算の結了等,,,2015-10-05,1,,,,,ワイズクリエイティブハウス,0
859,4012402021817,登記記録の閉鎖等,0,2023-11-16,2023-11-09,有限会社エスポワール,,有限会社,東京都,武蔵野市,吉祥寺本町４丁目３番１４号,,13,203,1800004,,,2023-11-09,清算の結了等,,,2015-10-05,1,,,,,,0
860,4012701012194,登記記録の閉鎖等,0,2023-11-16,2023-11-13,株式会社和光ランドマークス,,株式会社,東京都,西東京市,田無町４丁目１８番５号－３０１,,13,229,1880011,,,2023-11-13,清算の結了等,,,2015-10-05,1,,,,,ワコウランドマークス,0
870,4013403000669,登記記録の閉鎖等,0,2023-11-16,2023-11-10,合同会社種村会計事務所,,合同会社,東京都,日野市,平山１丁目１番地の２,,13,212,1910043,,,2023-11-10,清算の結了等,,,2015-10-05,1,,,,,タネムラカイケイジムショ,0
873,4020001150078,登記記録の閉鎖等,0,2023-11-16,2023-11-10,株式会社カワサキシステム,,株式会社,神奈川県,川崎市幸区,大宮町１５番地１,,14,132,2120014,,,2023-11-10,清算の結了等,,,2023-02-06,1,,,,,カワサキシステム,0
880,4021002005353,登記記録の閉鎖等,0,2023-11-16,2023-11-13,有限会社ライフクリーン藤沢,,有限会社,神奈川県,藤沢市,菖蒲沢８４６番地の２,,14,205,2520823,,,2023-11-13,清算の結了等,,,2015-10-05,1,,,,,ライフクリーンフジサワ,0
881,4021002052577,登記記録の閉鎖等,0,2023-11-16,2023-11-13,有限会社東北土建,,有限会社,神奈川県,小田原市,酒匂１丁目１１番２２号,,14,206,2560816,,,2023-11-13,清算の結了等,,,2015-10-05,1,,,,,,0
899,4040002093357,登記記録の閉鎖等,0,2023-11-16,2023-11-07,有限会社カーランドテクノ,,有限会社,千葉県,我孫子市,寿２丁目２７番２５号,,12,222,2701152,,,2023-11-07,清算の結了等,,,2015-10-05,1,,,,,カーランドテクノ,0
901,4040003020905,登記記録の閉鎖等,0,2023-11-16,2023-11-08,ＭＹ　ＳＥＣＯＮＤ　ＦＬＯＯＲ合同会社,,合同会社,千葉県,浦安市,美浜３丁目８番１０号,,12,227,2790011,,,2023-11-08,清算の結了等,,,2022-10-05,1,,,,,マイセカンドフロア,0
907,4050002039937,登記記録の閉鎖等,0,2023-11-16,2023-10-31,有限会社古谷,,有限会社,茨城県,常総市,豊岡町乙１６６０番地,,08,211,3030041,,,2023-10-31,清算の結了等,,,2015-10-05,1,,,,,フルヤ,0
911,4060003002744,登記記録の閉鎖等,0,2023-11-16,2023-11-13,アンドガーデン合同会社,,合同会社,栃木県,宇都宮市,東宿郷１丁目７－２アジマコーポ１０３号,,09,201,3210953,,,2023-11-13,清算の結了等,,,2018-01-17,1,,,,,アンドガーデン,0
915,4080102004994,登記記録の閉鎖等,0,2023-11-16,2023-11-15,有限会社魚利商店,,有限会社,静岡県,沼津市,志下４７０番地の２,,22,203,4100106,,,2023-11-15,清算の結了等,,,2015-10-05,1,,,,,,0
924,4120001145191,登記記録の閉鎖等,0,2023-11-16,2023-11-09,株式会社ココネ,,株式会社,大阪府,大阪市東住吉区,北田辺６丁目６番３号,,27,121,5460044,,,2023-11-09,清算の結了等,,,2015-10-05,1,,,,,ココネ,0
925,4120001197646,登記記録の閉鎖等,0,2023-11-16,2023-11-10,株式会社三栄建設,,株式会社,大阪府,大阪市大正区,千島２丁目４番３－３１４号,,27,108,5510003,,,2023-11-10,清算の結了等,,,2016-04-21,1,,,,,サンエイケンセツ,0
929,4120002066461,登記記録の閉鎖等,0,2023-11-16,2023-11-10,有限会社リューズプランニング,,有限会社,大阪府,大阪市阿倍野区,美章園２丁目７－８,,27,119,5450003,,,2023-11-10,清算の結了等,,,2015-10-05,1,,,,,リューズプランニング,0
945,4130001062923,登記記録の閉鎖等,0,2023-11-16,2023-11-10,株式会社ほんまもん,,株式会社,京都府,京都市左京区,久多中の町１１１番地,,26,103,5200464,,,2023-11-10,清算の結了等,,,2018-09-13,1,,,,,ホンマモン,0
954,4180001097147,登記記録の閉鎖等,0,2023-11-16,2023-11-10,株式会社佐屋技研,,株式会社,愛知県,愛西市,善太新田町大前６３番地,,23,232,4960924,,,2023-11-10,清算の結了等,,,2015-10-05,1,,,,,サヤギケン,0
963,4180003022268,登記記録の閉鎖等,0,2023-11-16,2023-11-10,合同会社エムコーポレーション,,合同会社,愛知県,一宮市,朝日２丁目４番２１号,,23,203,4910028,,,2023-11-10,清算の結了等,,,2021-03-22,1,,,,,エムコーポレーション,0
971,4190001012030,登記記録の閉鎖等,0,2023-11-16,2023-11-14,株式会社伊藤管材商店,,株式会社,三重県,桑名市,大字小貝須１番地,,24,205,5110841,,,2023-11-14,清算の結了等,,,2015-10-05,1,,,,,イトウカンザイショウテン,0
1006,4340001013995,登記記録の閉鎖等,0,2023-11-16,2023-11-14,第一機械産業株式会社,,株式会社,鹿児島県,鹿屋市,笠之原町２５番１０号,,46,203,8930023,,,2023-11-14,合併による解散等,2290001049320,令和５年１１月１日福岡県久留米市宮ノ陣町若松１番地の９株式会社ニシケン（2290001049320）に合併し解散,2015-10-05,1,,,,,ダイイチキカイサンギョウ,0
1008,4340002005190,登記記録の閉鎖等,0,2023-11-16,2023-11-15,有限会社鈴木工務店,,有限会社,鹿児島県,鹿児島市,上福元町３７３７番地６,,46,201,8910116,,,2023-11-15,清算の結了等,,,2015-10-05,1,,,,,スズキコウムテン,0
1022,4420002002972,登記記録の閉鎖等,0,2023-11-16,2023-11-10,有限会社盛建物管理,,有限会社,青森県,青森市,奥野１丁目１番１３号,,02,201,0300841,,,2023-11-10,清算の結了等,,,2015-10-05,1,,,,,モリタテモノカンリ,0
1035,4500002008540,登記記録の閉鎖等,0,2023-11-16,2023-11-15,有限会社竹田電気設備,,有限会社,愛媛県,伊予郡松前町,大字西古泉４８０番地,,38,401,7913134,,,2023-11-15,清算の結了等,,,2015-10-05,1,,,,,タケダデンキセツビ,0
1060,5010102004208,登記記録の閉鎖等,0,2023-11-16,2023-10-31,有限会社高野精機,00050360,有限会社,東京都,八王子市,川町２９番地,,13,201,1930821,,,2023-10-31,清算の結了等,,,2015-10-05,1,,,,,タカノセイキ,0
1069,5010403027246,登記記録の閉鎖等,0,2023-11-16,2023-11-13,ＭＦＪＰＮ１Ｃ合同会社,,合同会社,東京都,港区,虎ノ門３丁目２２番１０－２０１号,,13,103,1050001,,,2023-11-13,清算の結了等,,,2022-03-09,1,,,,,エムエフジェイピーエヌワンシー,0
1080,5010502003890,登記記録の閉鎖等,0,2023-11-16,2023-11-10,有限会社小林食器,,有限会社,東京都,台東区,松が谷２丁目５番１２号,,13,106,1110036,,,2023-11-10,清算の結了等,,,2015-10-05,1,,,,,コバヤシショッキ,0
1081,5010502004303,登記記録の閉鎖等,0,2023-11-16,2023-11-13,有限会社三幸ドレス,,有限会社,東京都,台東区,竜泉３丁目４３番１号,,13,106,1100012,,,2023-11-13,清算の結了等,,,2015-10-05,1,,,,,,0
1083,5010601033087,登記記録の閉鎖等,0,2023-11-16,2023-11-13,株式会社カレント・ジャパン,,株式会社,東京都,葛飾区,堀切６丁目１９番３号,,13,122,1240006,,,2023-11-13,清算の結了等,,,2015-10-05,1,,,,,カレントジャパン,0
1089,5011001138212,登記記録の閉鎖等,0,2023-11-16,2023-11-09,フードバズ株式会社,,株式会社,東京都,渋谷区,松濤１丁目２８番２号,,13,113,1500046,,,2023-11-09,清算の結了等,,,2021-01-27,1,,,,,フードバズ,0
1111,5011601022336,登記記録の閉鎖等,0,2023-11-16,2023-11-13,株式会社Ｌｏｃｏｆｉ,,株式会社,東京都,港区,六本木４丁目５番７号,,13,103,1060032,,,2023-11-13,清算の結了等,,,2018-01-22,1,,,,,ロコファイ,0
1113,5011701003896,登記記録の閉鎖等,0,2023-11-16,2023-11-14,株式会社柴田工業,,株式会社,東京都,江戸川区,東松本２丁目２番２号,,13,123,1330071,,,2023-11-14,清算の結了等,,,2015-10-05,1,,,,,シバタコウギョウ,0
1114,5011801026070,登記記録の閉鎖等,0,2023-11-16,2023-11-13,エイ・アール・サービス株式会社,,株式会社,東京都,足立区,新田１丁目１７番１６号,,13,121,1230865,,,2023-11-13,清算の結了等,,,2015-10-05,1,,,,,エイアールサービス,0
1129,5020001109346,登記記録の閉鎖等,0,2023-11-16,2023-11-09,株式会社カー・マーキュリー,,株式会社,神奈川県,川崎市高津区,久末１７７８－１－４０６,,14,134,2130026,,,2023-11-09,清算の結了等,,,2015-10-05,1,,,,,カーマーキュリー,0
1134,5020003012787,登記記録の閉鎖等,0,2023-11-16,2023-11-06,合同会社Ａｖａｎｔｉ　Ｓｐｏｒｔ,,合同会社,北海道,千歳市,青葉３丁目１２番８－５０１号サジタリウス,,01,224,0660015,,,2023-11-06,清算の結了等,,,2017-05-23,1,,,,,アヴァンティスポルト,0
1148,5030002100030,登記記録の閉鎖等,0,2023-11-16,2023-11-08,有限会社アテスト,,有限会社,埼玉県,川口市,大字木曽呂字北９５３番３,,11,203,3330831,,,2023-11-08,清算の結了等,,,2015-10-05,1,,,,,アテスト,0
1161,5040005021231,登記記録の閉鎖等,0,2023-11-16,2023-11-09,ＮＰＯ法人佳子さんの相棒,,その他の設立登記法人,千葉県,成田市,宝田１２１７番地,,12,211,2860844,,,2023-11-09,清算の結了等,,,2021-05-26,1,,,,,ヨシコサンノアイボウ,0
1179,5120001166212,登記記録の閉鎖等,0,2023-11-16,2023-11-13,株式会社ＨＡＴＯＨＯＲＵ,,株式会社,大阪府,門真市,石原町５番１０－３０４号,,27,223,5710067,,,2023-11-13,清算の結了等,,,2015-10-05,1,,,,,ハトホル,0
1188,5120005005564,登記記録の閉鎖等,0,2023-11-16,2023-11-14,医療法人福井整形外科クリニック,,その他の設立登記法人,大阪府,大阪市西淀川区,御幣島２丁目５番２８号,,27,113,5550012,,,2023-11-14,清算の結了等,,,2015-10-05,1,,,,,フクイセイケイゲカクリニック,0
1194,5120902007571,登記記録の閉鎖等,0,2023-11-16,2023-11-10,有限会社福丸商会,,有限会社,大阪府,吹田市,五月が丘東９番５号,,27,205,5650831,,,2023-11-10,清算の結了等,,,2015-10-05,1,,,,,フクマルショウカイ,0
1204,5130003005490,登記記録の閉鎖等,0,2023-11-16,2023-11-09,園丁山岡合同会社,,合同会社,京都府,京都市山科区,西野山射庭ノ上町１１６番地３,,26,110,6078307,,,2023-11-09,清算の結了等,,,2018-05-08,1,,,,,エンテイヤマオカ,0
1226,5180003006006,登記記録の閉鎖等,0,2023-11-16,2023-11-10,合資会社山川,,合資会社,愛知県,名古屋市中区,新栄１丁目１４番２１号,,23,106,4600007,,,2023-11-10,清算の結了等,,,2015-10-05,1,,,,,ヤマカワ,0
1239,5220001020862,登記記録の閉鎖等,0,2023-11-16,2023-11-13,株式会社能村,,株式会社,石川県,金沢市,田井町１番１５号,,17,201,9200924,,,2023-11-13,清算の結了等,,,2016-03-09,1,,,,,ノムラ,0
1241,5220002002967,登記記録の閉鎖等,0,2023-11-16,2023-11-14,有限会社伸栄設備,,有限会社,石川県,金沢市,西念２丁目８番２２号,,17,201,9200024,,,2023-11-14,清算の結了等,,,2015-10-05,1,,,,,,0
1280,5402702000406,登記記録の閉鎖等,0,2023-11-16,2023-11-02,有限会社村上建設,,有限会社,岩手県,大船渡市,赤崎町字普金９０番地１,,03,203,0220007,,,2023-11-02,清算の結了等,,,2015-10-05,1,,,,,ムラカミケンセツ,0
1284,5420002020131,登記記録の閉鎖等,0,2023-11-16,2023-11-10,有限会社よこはま企画,,有限会社,青森県,上北郡横浜町,字吹越５６番地７９,,02,406,0394153,,,2023-11-10,清算の結了等,,,2015-10-05,1,,,,,ヨコハマキカク,0
1306,5460102001688,登記記録の閉鎖等,0,2023-11-16,2023-11-13,清栄工業有限会社,,有限会社,北海道,帯広市,西十六条北２丁目１番８号,,01,207,0800046,,,2023-11-13,清算の結了等,,,2015-10-05,1,,,,,セイエイコウギョウ,0
1311,5500001020900,登記記録の閉鎖等,0,2023-11-16,2023-11-15,株式会社イーアドックス,,株式会社,愛媛県,松山市,古三津２丁目３番１２号門田店舗１階南棟,,38,201,7918067,,,2023-11-15,清算の結了等,,,2017-10-02,1,,,,,イーアドックス,0
1318,6010001143361,登記記録の閉鎖等,0,2023-11-16,2023-11-09,株式会社ディスコグローバルサーチ,,株式会社,東京都,文京区,後楽２丁目５番１号飯田橋ファーストビル９階,,13,105,1120004,,,2023-11-09,清算の結了等,,,2015-10-05,1,,,,,ディスコグローバルサーチ,0
1332,6010401152482,登記記録の閉鎖等,0,2023-11-16,2023-11-13,タートル不動産サービス株式会社,,株式会社,東京都,港区,海岸３丁目２－９サンハイム田町９０５号,,13,103,1080022,,,2023-11-13,清算の結了等,,,2020-04-24,1,,,,,タートルフドウサンサービス,0
1339,6010402024623,登記記録の閉鎖等,0,2023-11-16,2023-11-13,有限会社フォト・エイブル,,有限会社,東京都,港区,高輪２丁目１６番５２号,,13,103,1080074,,,2023-11-13,清算の結了等,,,2015-10-05,1,,,,,,0
1340,6010403027245,登記記録の閉鎖等,0,2023-11-16,2023-11-13,ＭＦＪＰＮ１Ｂ合同会社,,合同会社,東京都,港区,虎ノ門３丁目２２番１０－２０１号,,13,103,1050001,,,2023-11-13,清算の結了等,,,2022-03-09,1,,,,,エムエフジェイピーエヌワンビー,0
1350,6010701027509,登記記録の閉鎖等,0,2023-11-16,2023-11-09,株式会社マネージメント,,株式会社,東京都,品川区,大崎５丁目７番１－４０３号,,13,109,1410032,,,2023-11-09,清算の結了等,,,2015-10-05,1,,,,,マネージメント,0
1372,6011101090700,登記記録の閉鎖等,0,2023-11-16,2023-11-10,株式会社プレビアス,,株式会社,東京都,新宿区,高田馬場３丁目１番５号サンパティオ高田馬場３０９号室,,13,104,1690075,,,2023-11-10,清算の結了等,,,2020-03-12,1,,,,,プレビアス,0
1387,6011602000645,登記記録の閉鎖等,0,2023-11-16,2023-11-13,有限会社アライ住設,,有限会社,東京都,練馬区,石神井台４丁目１４番２９号,,13,120,1770045,,,2023-11-13,清算の結了等,,,2015-10-05,1,,,,,,0
1388,6011603002764,登記記録の閉鎖等,0,2023-11-16,2023-11-10,オハナ合同会社,,合同会社,東京都,練馬区,東大泉１丁目２８番２－１８０５号プラウドタワー大泉学園,,13,120,1780063,,,2023-11-10,清算の結了等,,,2019-10-28,1,,,,,オハナ,0
1400,6012702007852,登記記録の閉鎖等,0,2023-11-16,2023-11-13,有限会社三多摩商会,,有限会社,東京都,清瀬市,下清戸１丁目２６６番地の８,,13,221,2040011,,,2023-11-13,清算の結了等,,,2015-10-05,1,,,,,ミタマショウカイ,0
1424,6021001075726,登記記録の閉鎖等,0,2023-11-16,2023-11-14,株式会社ＭＢＪ,,株式会社,神奈川県,中郡大磯町,西小磯２６１－４３,,14,341,2550005,,,2023-11-14,清算の結了等,,,2022-04-14,1,,,,,エムビージェー,0
1431,6030001003167,登記記録の閉鎖等,0,2023-11-16,2023-11-06,株式会社電子中村事務所,,株式会社,埼玉県,さいたま市浦和区,高砂３丁目１４番１４号,,11,107,3300063,,,2023-11-06,清算の結了等,,,2015-10-05,1,,,,,デンシナカムラジムショ,0
1432,6030001023421,登記記録の閉鎖等,0,2023-11-16,2023-11-08,株式会社大神堂,,株式会社,埼玉県,さいたま市見沼区,東大宮７丁目６５番地１８,,11,104,3370051,,,2023-11-08,清算の結了等,,,2015-10-05,1,,,,,オオガミドウ,0
1440,6030002023610,登記記録の閉鎖等,0,2023-11-16,2023-11-06,有限会社アピール二十一,,有限会社,埼玉県,戸田市,美女木２丁目１２番地の１０,,11,224,3350031,,,2023-11-06,清算の結了等,,,2015-10-05,1,,,,,アピールニジュウイチ,0
1441,6030002076006,登記記録の閉鎖等,0,2023-11-16,2023-10-13,有限会社ストーンフィールド,,有限会社,埼玉県,ふじみ野市,新駒林１丁目３番２４号,,11,245,3560030,,,2023-10-13,清算の結了等,,,2015-10-05,1,,,,,ストーンフィールド,0
1447,6040001030417,登記記録の閉鎖等,0,2023-11-16,2023-11-07,株式会社フアースト,,株式会社,千葉県,市川市,若宮３丁目２６番７号,,12,203,2720812,,,2023-11-07,清算の結了等,,,2015-10-05,1,,,,,フアースト,0
1461,6080002002733,登記記録の閉鎖等,0,2023-11-16,2023-11-15,有限会社昭和コピーシステム,,有限会社,静岡県,静岡市駿河区,新川１丁目１番３３号,,22,102,4228064,,,2023-11-15,清算の結了等,,,2015-10-05,1,,,,,ショウワコピーシステム,0
1474,6120001016366,登記記録の閉鎖等,0,2023-11-16,2023-11-09,株式会社ミル・タカハシ,,株式会社,大阪府,大阪市城東区,成育２丁目３番２１号,,27,118,5360007,,,2023-11-09,清算の結了等,,,2015-10-05,1,,,,,,0
1490,6120901026613,登記記録の閉鎖等,0,2023-11-16,2023-11-10,株式会社ダイワフォート,,株式会社,大阪府,豊中市,新千里東町１丁目３番１６号,,27,203,5600082,,,2023-11-10,清算の結了等,,,2015-10-05,1,,,,,ダイワフォート,0
1497,6130001068373,登記記録の閉鎖等,0,2023-11-16,2023-11-09,Ｙ’ｓ　ＣＯＭＰＡＮＹ株式会社,,株式会社,京都府,京都市山科区,西野山射庭ノ上町１１６番地３,,26,110,6078307,,,2023-11-09,清算の結了等,,,2021-01-07,1,,,,,ワイズカンパニー,0
1501,6140001068793,登記記録の閉鎖等,0,2023-11-16,2023-11-13,小林商事株式会社,,株式会社,大阪府,箕面市,新稲１丁目６番１０号,,27,220,5620005,,,2023-11-13,清算の結了等,,,2015-10-05,1,,,,,コバヤシショウジ,0
1516,6180001141010,登記記録の閉鎖等,0,2023-11-16,2023-11-10,Ｍ＆Ａ事業承継株式会社,,株式会社,愛知県,名古屋市中区,東桜２丁目２２番１８号,,23,106,4600005,,,2023-11-10,合併による解散等,5180001128553,令和５年１１月１０日名古屋市中区東桜二丁目２２番１８号株式会社ＵＮＩＳＥＥＤ　ＨＯＬＤＩＮＧＳ（5180001128553）に合併し解散,2020-04-30,1,,,,,エムアンドエージギョウショウケイ,0
1533,6200003005821,登記記録の閉鎖等,0,2023-11-16,2023-11-14,合同会社ＯＮＥＡＩＲ,,合同会社,岐阜県,大垣市,中野町４丁目９８番地４,,21,202,5030022,,,2023-11-14,清算の結了等,,,2023-01-31,1,,,,,,0
1549,6260005002398,登記記録の閉鎖等,0,2023-11-16,2023-11-14,医療法人あだち内科医院,,その他の設立登記法人,岡山県,岡山市北区,中仙道１丁目１７番７号,,33,101,7000964,,,2023-11-14,清算の結了等,,,2015-10-05,1,,,,,ナイカイイン,0
1567,6330002017870,登記記録の閉鎖等,0,2023-11-16,2023-11-10,有限会社永田工務店,,有限会社,熊本県,菊池市,隈府９１９番地７,,43,210,8611331,,,2023-11-10,清算の結了等,,,2015-10-05,1,,,,,,0
1577,6410002007599,登記記録の閉鎖等,0,2023-11-16,2023-11-13,有限会社スノーファーマシー,,有限会社,秋田県,由利本荘市,東由利老方字老方１３番地７,,05,210,0150211,,,2023-11-13,合併による解散等,6140001034226,令和５年１１月１日神戸市西区南別府四丁目３６８番地の４メグコーポレート株式会社（6140001034226）に合併し解散,2015-10-05,1,,,,,スノーファーマシー,0
1593,7010001083978,登記記録の閉鎖等,0,2023-11-16,2023-11-09,株式会社ＳＡＺＡコーポレーション,,株式会社,東京都,中央区,新川１丁目７番１１号,,13,102,1040033,,,2023-11-09,清算の結了等,,,2015-10-05,1,,,,,サザコーポレーション,0
1598,7010001194791,登記記録の閉鎖等,0,2023-11-16,2023-11-08,オージェネシス株式会社,,株式会社,東京都,中央区,日本橋室町１丁目９－１５千切屋東京ビル８階,,13,102,1030022,,,2023-11-08,合併による解散等,8010401128266,令和５年１１月１日東京都中央区日本橋室町１－９－１５千切屋東京ビル８階ヘカバイオ株式会社（8010401128266）に合併し解散,2018-09-11,1,,,,,オージェネシス,0
1603,7010003029285,登記記録の閉鎖等,0,2023-11-16,2023-11-08,ＤＳ　Ｉｃｈｉｇａｙａ合同会社,,合同会社,東京都,千代田区,丸の内３丁目１番１号,,13,101,1000005,,,2023-11-08,清算の結了等,,,2019-02-14,1,,,,,ディーエスイチガヤ,0
1604,7010003036471,登記記録の閉鎖等,0,2023-11-16,2023-11-09,ＴＭＡグリーンエナジー２０２１合同会社,,合同会社,東京都,千代田区,丸の内１丁目８番２号,,13,101,1000005,,,2023-11-09,清算の結了等,,,2021-12-07,1,,,,,ティーエムエーグリーンエナジーニセンニジュウイチ,0
1607,7010005015374,登記記録の閉鎖等,0,2023-11-16,2023-11-14,一般社団法人国際観光医療学会,,その他の設立登記法人,東京都,文京区,水道２丁目１番１号株式会社勁草書房内,,13,105,1120005,,,2023-11-14,清算の結了等,,,2015-10-05,1,,,,,コクサイカンコウイリョウガッカイ,0
1625,7010501044059,登記記録の閉鎖等,0,2023-11-16,2023-11-13,株式会社ＫＺ,,株式会社,東京都,台東区,柳橋２丁目４番３号,,13,106,1110052,,,2023-11-13,清算の結了等,,,2019-04-23,1,,,,,ケーゼット,0
1633,7010903003595,登記記録の閉鎖等,0,2023-11-16,2023-11-09,合同会社ベルウォッシュ,,合同会社,東京都,世田谷区,船橋７丁目８番２号,,13,112,1560055,,,2023-11-09,清算の結了等,,,2017-04-10,1,,,,,ベルウォッシュ,0
1637,7011001101977,登記記録の閉鎖等,0,2023-11-16,2023-11-13,株式会社ＡＩＣ,,株式会社,東京都,港区,南麻布４丁目１４番４号,,13,103,1060047,,,2023-11-13,清算の結了等,,,2015-10-05,1,,,,,,0
1643,7011003007834,登記記録の閉鎖等,0,2023-11-16,2023-11-10,Ｇｆｔｄ　Ｌａｂｏ合同会社,,合同会社,東京都,新宿区,喜久井町２０番地,,13,104,1620044,,,2023-11-10,合併による解散等,1011101086505,令和５年１１月１日東京都新宿区喜久井町２０番地Ｇｆｔｄ　Ｊａｐａｎ株式会社（1011101086505）に合併し解散,2017-07-06,1,,,,,ギフテッドラボ,0
1662,7012401014232,登記記録の閉鎖等,0,2023-11-16,2023-11-13,Ｔ＆Ｅワールド株式会社,,株式会社,東京都,三鷹市,新川４丁目１４番８号,,13,204,1810004,,,2023-11-13,清算の結了等,,,2015-10-05,1,,,,,ティアンドイーワールド,0
1665,7012702007463,登記記録の閉鎖等,0,2023-11-16,2023-11-13,有限会社山本牛乳店,,有限会社,東京都,東久留米市,前沢５丁目６番２６号,,13,222,2030032,,,2023-11-13,清算の結了等,,,2015-10-05,1,,,,,ヤマモトギュウニュウテン,0
1670,7013402003331,登記記録の閉鎖等,0,2023-11-16,2023-11-09,有限会社大塚建設,,有限会社,東京都,稲城市,坂浜３３１３番地,,13,225,2060822,,,2023-11-09,清算の結了等,,,2015-10-05,1,,,,,オオツカケンセツ,0
1672,7020001126414,登記記録の閉鎖等,0,2023-11-16,2023-11-09,株式会社ゲート,,株式会社,東京都,文京区,本郷１丁目５番１７号三洋ビル４８号室,,13,105,1130033,,,2023-11-09,清算の結了等,,,2018-05-22,1,,,,,ゲート,0
1673,7020001135539,登記記録の閉鎖等,0,2023-11-16,2023-11-09,蜂巣能源日本技研株式会社,,株式会社,神奈川県,横浜市港北区,新横浜３丁目１６番地８新横浜丸文ビル,,14,109,2220033,,,2023-11-09,清算の結了等,,,2020-04-02,1,,,,,ハチスノウゲンニホンギケン,0
1678,7020002071659,登記記録の閉鎖等,0,2023-11-16,2023-11-09,有限会社ナッツ,,有限会社,神奈川県,横浜市都筑区,北山田７丁目４番４－８０３号,,14,118,2240021,,,2023-11-09,清算の結了等,,,2015-10-05,1,,,,,ナッツ,0
1679,7020002088224,登記記録の閉鎖等,0,2023-11-16,2023-11-15,有限会社アクセスビジョン,,有限会社,鹿児島県,鹿児島市,上福元町３７１５－１６,,46,201,8910116,,,2023-11-15,清算の結了等,,,2015-10-05,1,,,,,アクセスビジョン,0
1721,7120001111133,登記記録の閉鎖等,0,2023-11-16,2023-11-13,株式会社エイテック,,株式会社,大阪府,大阪市城東区,野江３丁目９番２０号,,27,118,5360006,,,2023-11-13,清算の結了等,,,2015-10-05,1,,,,,エイテック,0
1722,7120001153076,登記記録の閉鎖等,0,2023-11-16,2023-11-09,株式会社シンセイ,,株式会社,大阪府,寝屋川市,梅が丘１丁目４番９－４０４号,,27,215,5720803,,,2023-11-09,清算の結了等,,,2015-10-05,1,,,,,シンセイ,0
1723,7120001187272,登記記録の閉鎖等,0,2023-11-16,2023-11-13,株式会社ウイナーズ,,株式会社,大阪府,摂津市,鳥飼下３丁目３４番７号,,27,224,5660071,,,2023-11-13,清算の結了等,,,2015-10-05,1,,,,,ウイナーズ,0
1738,7120901037460,登記記録の閉鎖等,0,2023-11-16,2023-11-10,株式会社笑実,,株式会社,大阪府,池田市,旭丘１丁目７番２７号,,27,204,5630022,,,2023-11-10,清算の結了等,,,2016-09-21,1,,,,,エミ,0
1740,7120901046098,登記記録の閉鎖等,0,2023-11-16,2023-11-10,株式会社ｔｕｃｕｒｕ,,株式会社,大阪府,吹田市,江坂町５丁目１４番５－５０４号,,27,205,5640063,,,2023-11-10,清算の結了等,,,2022-06-13,1,,,,,ツクル,0
1768,7160001012880,登記記録の閉鎖等,0,2023-11-16,2023-11-15,株式会社ジヤナセス,,株式会社,滋賀県,草津市,矢橋町１９２２番地の１,,25,206,5250066,,,2023-11-15,清算の結了等,,,2015-10-05,1,,,,,ジャナセス,0
1803,7280005002189,登記記録の閉鎖等,0,2023-11-16,2023-11-15,特定非営利活動法人松江ツーリズム研究会,,その他の設立登記法人,島根県,松江市,西川津町３０８１番地１５,,32,201,6900823,,,2023-11-15,清算の結了等,,,2015-10-05,1,,,,,マツエツーリズムケンキュウカイ,0
1811,7300003001256,登記記録の閉鎖等,0,2023-11-16,2023-11-10,合同会社ヒーローズ,,合同会社,佐賀県,佐賀市,本庄町大字本庄１０番地,,41,201,8400027,,,2023-11-10,清算の結了等,,,2017-02-02,1,,,,,ヒーローズ,0
1851,8010001000791,登記記録の閉鎖等,0,2023-11-16,2023-11-09,株式会社数学舘,,株式会社,東京都,文京区,小石川５丁目２番３号,,13,105,1120002,,,2023-11-09,清算の結了等,,,2015-10-05,1,,,,,スウガクカン,0
1874,8010401148371,登記記録の閉鎖等,0,2023-11-16,2023-11-13,株式会社シルバースプーン,,株式会社,東京都,港区,赤坂１丁目１２番２０号,,13,103,1070052,,,2023-11-13,清算の結了等,,,2019-10-03,1,,,,,シルバースプーン,0
1876,8010401168295,登記記録の閉鎖等,0,2023-11-16,2023-11-10,株式会社ＡＰクリーンエナジーズ１,,株式会社,東京都,港区,虎ノ門４丁目１番２８号虎ノ門タワーズオフィス１７階,,13,103,1050001,,,2023-11-10,清算の結了等,,,2022-07-04,1,,,,,エーピークリーンエナジーズワン,0
1880,8010403025627,登記記録の閉鎖等,0,2023-11-16,2023-11-13,ＭＦＪＰＮ１Ａ合同会社,,合同会社,東京都,港区,虎ノ門３丁目２２番１０－２０１号,,13,103,1050001,,,2023-11-13,清算の結了等,,,2021-06-30,1,,,,,エムエフジェイピーエヌワンエー,0
1916,8011302010141,登記記録の閉鎖等,0,2023-11-16,2023-11-10,有限会社ル・ココ,,有限会社,東京都,杉並区,荻窪５丁目１７番６号,,13,115,1670051,,,2023-11-10,清算の結了等,,,2015-10-05,1,,,,,ルココ,0
1926,8011802017826,登記記録の閉鎖等,0,2023-11-16,2023-11-13,有限会社藤田薬局,,有限会社,東京都,足立区,千住緑町２丁目２４番１１号,,13,121,1200044,,,2023-11-13,合併による解散等,6140001034226,令和５年１１月１日神戸市西区南別府四丁目３６８番地の４メグコーポレート株式会社（6140001034226）に合併し解散,2015-10-05,1,,,,,フジタヤッキョク,0
1934,8013202007110,登記記録の閉鎖等,0,2023-11-16,2023-11-13,有限会社ロイヤルハウジング,,有限会社,東京都,目黒区,鷹番２丁目２０番１５号,,13,110,1520004,,,2023-11-13,清算の結了等,,,2015-10-05,1,,,,,ロイヤルハウジング,0
1935,8013301009107,登記記録の閉鎖等,0,2023-11-16,2023-11-08,日本アプリケーション株式会社,,株式会社,東京都,豊島区,東池袋２丁目９番７号,,13,116,1700013,,,2023-11-08,清算の結了等,,,2015-10-05,1,,,,,ニホンアプリケーション,0
1938,8020001058318,登記記録の閉鎖等,0,2023-11-16,2023-11-06,株式会社ディグ,,株式会社,神奈川県,横浜市緑区,長津田町３０１６番地１南長津田団地９棟９３２号,,14,113,2260026,,,2023-11-06,清算の結了等,,,2015-10-05,1,,,,,ディグ,0
1941,8020001084611,登記記録の閉鎖等,0,2023-11-16,2023-11-08,株式会社シード,,株式会社,神奈川県,横浜市中区,黄金町１丁目４番１号クリオ黄金町三番館３０４号室,,14,104,2310054,,,2023-11-08,清算の結了等,,,2015-10-05,1,,,,,シード,0
1948,8020005012642,登記記録の閉鎖等,0,2023-11-16,2023-11-09,一般社団法人グローバルスクール教育協会,,その他の設立登記法人,神奈川県,川崎市川崎区,堤根３７番地１,,14,131,2100026,,,2023-11-09,清算の結了等,,,2016-05-25,1,,,,,グローバルスクールキョウイクキョウカイ,0
1989,8080402002918,登記記録の閉鎖等,0,2023-11-16,2023-11-10,有限会社小久保魚店,,有限会社,静岡県,浜松市中区,田町１３２番地の３１,,22,131,4300944,,,2023-11-10,清算の結了等,,,2015-10-05,1,,,,,コクボウオテン,0
2021,8130001005671,登記記録の閉鎖等,0,2023-11-16,2023-11-06,株式会社リード,,株式会社,京都府,京都市北区,上賀茂蝉ケ垣内町３２番地の１,00047112,26,101,6038085,,,2023-11-06,清算の結了等,,,2015-10-05,1,,,,,リード,0
2056,8200001032997,登記記録の閉鎖等,0,2023-11-16,2023-11-08,株式会社五喜,,株式会社,埼玉県,さいたま市大宮区,桜木町１丁目２６６－３番地シンワＫＩビル,00123062,11,103,3300854,,,2023-11-08,清算の結了等,,,2016-06-28,1,,,,,ゴキ,0
2060,8210001002165,登記記録の閉鎖等,0,2023-11-16,2023-11-14,株式会社トミヒサ・アイビーエス,,株式会社,福井県,福井市,花堂南２丁目６番６号,,18,201,9188015,,,2023-11-14,清算の結了等,,,2015-10-05,1,,,,,,0
2069,8250005002851,登記記録の閉鎖等,0,2023-11-16,2023-11-10,医療法人社団たかはし小児科医院,,その他の設立登記法人,山口県,山陽小野田市,大字西高泊７５８番地１,,35,216,7560057,,,2023-11-10,清算の結了等,,,2015-10-05,1,,,,,タカハシショウニカイイン,0
2072,8270001006276,登記記録の閉鎖等,0,2023-11-16,2023-11-14,株式会社わかば商事,,株式会社,鳥取県,鳥取市,美和１３９番地,,31,201,6891126,,,2023-11-14,清算の結了等,,,2015-10-05,1,,,,,ワカバショウジ,0
2079,8310002001404,登記記録の閉鎖等,0,2023-11-16,2023-11-14,有限会社北村建設,,有限会社,長崎県,長崎市,石神町３４番２４号,,42,201,8528126,,,2023-11-14,清算の結了等,,,2015-10-05,1,,,,,キタムラケンセツ,0
2085,8350001008727,登記記録の閉鎖等,0,2023-11-16,2023-11-06,株式会社隼人クレーン,,株式会社,宮崎県,都城市,高城町石山４３０７番地３８,,45,202,8851205,,,2023-11-06,清算の結了等,,,2015-10-05,1,,,,,ハヤトクレーン,0
2090,8380001004228,登記記録の閉鎖等,0,2023-11-16,2023-11-13,株式会社クリエートサポート,,株式会社,福島県,福島市,上名倉字松原１番地の１０,,07,201,9602155,,,2023-11-13,清算の結了等,,,2015-10-05,1,,,,,クリエートサポート,0
2096,8400001014307,登記記録の閉鎖等,0,2023-11-16,2023-11-06,株式会社フードアトリエ,,株式会社,岩手県,滝沢市,牧野林１０１１番地７,,03,216,0200632,,,2023-11-06,清算の結了等,,,2018-09-12,1,,,,,,0
2098,8400502000350,登記記録の閉鎖等,0,2023-11-16,2023-11-01,有限会社三和建設,,有限会社,岩手県,一関市,真柴字小西５２番地３６,,03,209,0210901,,,2023-11-01,清算の結了等,,,2015-10-05,1,,,,,サンワケンセツ,0
2106,8430002027107,登記記録の閉鎖等,0,2023-11-16,2023-11-06,有限会社ファミリー藤新,,有限会社,北海道,札幌市西区,発寒十二条３丁目４番１３号,,01,107,0630832,,,2023-11-06,清算の結了等,,,2015-10-05,1,,,,,ファミリートウシン,0
2109,8430003011282,登記記録の閉鎖等,0,2023-11-16,2023-11-08,合同会社オプトワークス,,合同会社,北海道,札幌市中央区,南一条西８丁目６番地２,,01,101,0600061,,,2023-11-08,清算の結了等,,,2020-02-19,1,,,,,オプトワークス,0
2132,9010003038953,登記記録の閉鎖等,0,2023-11-16,2023-11-09,合同会社オルタナ１９,,合同会社,東京都,千代田区,丸の内３丁目１番１号東京共同会計事務所内,,13,101,1000005,,,2023-11-09,清算の結了等,,,2022-11-04,1,,,,,オルタナナインティーン,0
2149,9010601002930,登記記録の閉鎖等,0,2023-11-16,2023-11-13,株式会社桜井,,株式会社,東京都,江東区,福住２丁目２番９号,,13,108,1350032,,,2023-11-13,合併による解散等,8010601019959,令和５年１１月１日東京都江東区福住二丁目２番９号株式会社桜井グラフィックシステムズ（8010601019959）に合併し解散,2015-10-05,1,,,,,サクライ,0
2150,9010601038231,登記記録の閉鎖等,0,2023-11-16,2023-11-09,Ｂｌｕｅ　Ｇｌｏｂｅ株式会社,,株式会社,東京都,渋谷区,恵比寿２丁目３２番１０号,,13,113,1500013,,,2023-11-09,合併による解散等,3011003015072,令和５年１１月１日東京都渋谷区恵比寿二丁目３２－１０ベラカーサ広尾５０２合同会社ＣＥＲＥＢＲＯＮ（3011003015072）に合併し解散,2015-10-05,1,,,,,ブルーグローブ,0
2151,9010601041516,登記記録の閉鎖等,0,2023-11-16,2023-11-09,サウスバレー株式会社,,株式会社,東京都,千代田区,丸の内１丁目８番３号丸の内トラストタワー本館２０階,,13,101,1000005,,,2023-11-09,清算の結了等,,,2015-10-05,1,,,,,サウスバレー,0
2155,9010602021921,登記記録の閉鎖等,0,2023-11-16,2023-11-13,有限会社海鮮,,有限会社,東京都,江東区,亀戸１丁目２８番７号３階,,13,108,1360071,,,2023-11-13,清算の結了等,,,2015-10-05,1,,,,,,0
2161,9010801020617,登記記録の閉鎖等,0,2023-11-16,2023-11-10,株式会社スペースコア,,株式会社,東京都,大田区,東矢口３丁目９番２８号カオルビル２０１号室,,13,111,1460094,,,2023-11-10,清算の結了等,,,2015-10-05,1,,,,,スペースコア,0
2182,9011402002467,登記記録の閉鎖等,0,2023-11-16,2023-11-13,有限会社伽藍工社,,有限会社,東京都,板橋区,小豆沢１丁目４番１号,,13,119,1740051,,,2023-11-13,清算の結了等,,,2015-10-05,1,,,,,ガランコウシャ,0
2198,9012402018321,登記記録の閉鎖等,0,2023-11-16,2023-11-13,有限会社イナオ精工,,有限会社,東京都,三鷹市,牟礼２丁目９番１２号,,13,204,1810002,,,2023-11-13,清算の結了等,,,2015-10-05,1,,,,,イナオセイコウ,0
2203,9020001009930,登記記録の閉鎖等,0,2023-11-16,2023-11-08,株式会社斉藤経師インテリア,,株式会社,神奈川県,横浜市保土ケ谷区,新井町２０４番地５０,,14,106,2400053,,,2023-11-08,清算の結了等,,,2015-10-05,1,,,,,サイトウキョウジインテリア,0
2204,9020001040332,登記記録の閉鎖等,0,2023-11-16,2023-11-10,株式会社三和システム,,株式会社,神奈川県,横浜市緑区,東本郷３丁目３０番７号,,14,113,2260002,,,2023-11-10,清算の結了等,,,2015-10-05,1,,,,,サンワシステム,0
2207,9020001092308,登記記録の閉鎖等,0,2023-11-16,2023-11-13,株式会社クリエイティブ・システムズ,,株式会社,神奈川県,横浜市青葉区,荏子田２丁目２８番地１６,,14,117,2250005,,,2023-11-13,清算の結了等,,,2015-10-05,1,,,,,クリエイティブシステムズ,0
2210,9020002010722,登記記録の閉鎖等,0,2023-11-16,2023-11-09,有限会社マルヤマ住装,,有限会社,神奈川県,横浜市磯子区,磯子２丁目２５番３１号,,14,107,2350016,,,2023-11-09,清算の結了等,,,2015-10-05,1,,,,,マルヤマジュウソウ,0
2211,9020002047426,登記記録の閉鎖等,0,2023-11-16,2023-11-06,有限会社パブリツクフーズ,,有限会社,神奈川県,横浜市磯子区,西町１１番８号,,14,107,2350007,,,2023-11-06,清算の結了等,,,2019-06-04,1,,,,,パブリツクフーズ,0
2215,9020002076004,登記記録の閉鎖等,0,2023-11-16,2023-11-09,有限会社ＰＡＣコーポレーション,,有限会社,神奈川県,横浜市都筑区,中川２丁目９番３－１４０２号,,14,118,2240001,,,2023-11-09,清算の結了等,,,2015-10-05,1,,,,,ピーエーシーコーポレーション,0
2217,9021001056475,登記記録の閉鎖等,0,2023-11-16,2023-11-13,株式会社フォーパドル,,株式会社,神奈川県,鎌倉市,稲村ガ崎３丁目１５番３５号,,14,204,2480024,,,2023-11-13,清算の結了等,,,2015-10-05,1,,,,,フォーパドル,0
2219,9021005006047,登記記録の閉鎖等,0,2023-11-16,2023-11-13,宇宙の宮,,その他の設立登記法人,神奈川県,足柄下郡箱根町,仙石原字イタリ１２４５番地６６０,,14,382,2500631,,,2023-11-13,清算の結了等,,,2015-10-05,1,,,,,ウチュウノミヤ,0
2225,9030002039422,登記記録の閉鎖等,0,2023-11-16,2023-11-06,有限会社田中ビル,,有限会社,埼玉県,久喜市,南栗橋１丁目６番地４,,11,232,3491117,,,2023-11-06,清算の結了等,,,2015-10-05,1,,,,,タナカビル,0
2249,9060001022541,登記記録の閉鎖等,0,2023-11-16,2023-11-13,アルファスペース株式会社,,株式会社,栃木県,足利市,西新井町３３５９番地１,,09,202,3260837,,,2023-11-13,清算の結了等,,,2015-10-05,1,,,,,アルファスペース,0
2254,9090001009437,登記記録の閉鎖等,0,2023-11-16,2023-11-15,株式会社フォレストハルター,,株式会社,山梨県,甲州市,大和町初鹿野１６６１番地８,,19,213,4091203,,,2023-11-15,清算の結了等,,,2015-10-05,1,,,,,フォレストハルター,0
2262,9120001177651,登記記録の閉鎖等,0,2023-11-16,2023-11-09,株式会社アンダーマウンテン,,株式会社,大阪府,大阪市北区,梅田１丁目１番３号大阪駅前第３ビル２３０７Ｃ,,27,127,5300001,,,2023-11-09,清算の結了等,,,2015-10-05,1,,,,,アンダーマウンテン,0
2291,9140001112425,登記記録の閉鎖等,0,2023-11-16,2023-11-07,株式会社キンダーキッズ西宮,,株式会社,兵庫県,西宮市,北口町９番１４号,,28,204,6638035,,,2023-11-07,合併による解散等,2120001101312,令和５年１１月１日大阪市北区池田町３番１号株式会社キンダーキッズ（2120001101312）に合併し解散,2019-01-15,1,,,,,キンダーキッズニシノミヤ,0
2297,9140003015642,登記記録の閉鎖等,0,2023-11-16,2023-11-09,合同会社ＫＹＯＹＵコラボレーション,,合同会社,大阪府,大阪市住吉区,殿辻１丁目５番９号,00126165,27,120,5580042,,,2023-11-09,清算の結了等,,,2020-11-30,1,,,,,キョウユーコラボレーション,0
2314,9180305005214,登記記録の閉鎖等,0,2023-11-16,2023-11-06,特定非営利活動法人かきつばたフレンズ,,その他の設立登記法人,愛知県,刈谷市,東刈谷町２丁目９番地１３号,,23,210,4480807,,,2023-11-06,清算の結了等,,,2015-10-05,1,,,,,カキツバタフレンズ,0
2322,9230001001635,登記記録の閉鎖等,0,2023-11-16,2023-11-14,立山工業株式会社,,株式会社,富山県,富山市,水橋小路１６１番地の１,,16,201,9393554,,,2023-11-14,清算の結了等,,,2015-10-05,1,,,,,タテヤマコウギョウ,0
2323,9230001007467,登記記録の閉鎖等,0,2023-11-16,2023-11-14,朝日工業株式会社,,株式会社,富山県,下新川郡入善町,入膳２４５８番地,,16,342,9390626,,,2023-11-14,清算の結了等,,,2015-10-05,1,,,,,アサヒコウギョウ,0
2330,9240002000734,登記記録の閉鎖等,0,2023-11-16,2023-11-14,有限会社アドバンテージ・コーポレーション,,有限会社,広島県,広島市中区,紙屋町１丁目６番１５号,,34,101,7300031,,,2023-11-14,清算の結了等,,,2015-10-05,1,,,,,アドバンテージコーポレーション,0
2333,9240002049053,登記記録の閉鎖等,0,2023-11-16,2023-11-14,コマサ倶楽部有限会社,,有限会社,広島県,安芸郡府中町,城ケ丘５番１３号,,34,302,7350009,,,2023-11-14,清算の結了等,,,2015-10-05,1,,,,,コマサクラブ,0
2337,9260001000650,登記記録の閉鎖等,0,2023-11-16,2023-11-14,潮建設工業株式会社,,株式会社,岡山県,岡山市中区,東川原２４６番地の６,,33,102,7038255,,,2023-11-14,清算の結了等,,,2015-10-05,1,,,,,ウシオケンセツコウギョウ,0
2352,9290003011841,登記記録の閉鎖等,0,2023-11-16,2023-11-06,Ｇ‐ＳＴＹＬＥ合同会社,,合同会社,福岡県,糟屋郡宇美町,貴船４丁目５番６号,,40,341,8112131,,,2023-11-06,清算の結了等,,,2021-11-19,1,,,,,ジースタイル,0
2367,9400605000718,登記記録の閉鎖等,0,2023-11-16,2023-11-01,農事組合法人アクティブ藤巻,,その他の設立登記法人,岩手県,胆沢郡金ケ崎町,西根下高谷野６９番地,,03,381,0294503,,,2023-11-01,清算の結了等,,,2015-10-05,1,,,,,アクティブフジマキ,0
2384,9430005013012,登記記録の閉鎖等,0,2023-11-16,2023-11-14,特定非営利活動法人陽だまり,,その他の設立登記法人,北海道,勇払郡安平町,追分白樺１丁目４２２番地,,01,585,0591942,,,2023-11-14,清算の結了等,,,2017-01-16,1,,,,,ヒダマリ,0
2386,9450002007642,登記記録の閉鎖等,0,2023-11-16,2023-11-16,有限会社やまに新田商店,,有限会社,北海道,深川市,二条６番３４号,,01,228,0740002,,,2023-11-16,清算の結了等,,,2015-10-05,1,,,,,ヤマニニッタショウテン,0
2387,9470002019685,登記記録の閉鎖等,0,2023-11-16,2023-11-13,有限会社みのり,,有限会社,香川県,善通寺市,南町３丁目１７番２０号,,37,204,7650002,,,2023-11-13,清算の結了等,,,2023-08-04,1,,,,,ミノリ,0
