sequenceNumber,corporateNumber,process,correct,updateDate,changeDate,name,nameImageId,kind,prefectureName,cityName,streetNumber,addressImageId,prefectureCode,cityCode,postCode,addressOutside,addressOutsideImageId,closeDate,closeCause,successorCorporateNumber,changeCause,assignmentDate,latest,enName,enPrefectureName,enCityName,enAddressOutside,furigana,hihyoji
8,1010003025158,登記記録の閉鎖等,0,2025-03-05,2025-02-20,ＪＢＧ　ＰＳ３合同会社,,合同会社,東京都,千代田区,内幸町２丁目２番２号富国生命ビル１２階渥美坂井法律事務所内,,13,101,1000011,,,2025-02-20,合併による解散等,8010003028360,令和７年１月１日東京都千代田区内幸町二丁目２番２号富国生命ビル渥美坂井法律事務所内ＪＢＧ　Ｌａｎｄ４合同会社（8010003028360）に合併し解散,2017-04-18,1,,,,,ジェービージーピーエススリー,0
10,1010003025364,登記記録の閉鎖等,0,2025-03-05,2025-02-20,ＪＢＧ　ＰＳ１０合同会社,,合同会社,東京都,千代田区,内幸町２丁目２番２号富国生命ビル１２階渥美坂井法律事務所内,,13,101,1000011,,,2025-02-20,合併による解散等,8010003028360,令和７年１月１日東京都千代田区内幸町二丁目２番２号富国生命ビル渥美坂井法律事務所内ＪＢＧ　Ｌａｎｄ４合同会社（8010003028360）に合併し解散,2017-05-24,1,,,,,ジェービージーピーエステン,0
11,1010003025521,登記記録の閉鎖等,0,2025-03-05,2025-02-20,ＪＢＧ　ＰＳ１４合同会社,,合同会社,東京都,千代田区,内幸町２丁目２番２号富国生命ビル１２階渥美坂井法律事務所内,,13,101,1000011,,,2025-02-20,合併による解散等,8010003028360,令和７年１月１日東京都千代田区内幸町二丁目２番２号富国生命ビル渥美坂井法律事務所内ＪＢＧ　Ｌａｎｄ４合同会社（8010003028360）に合併し解散,2017-06-20,1,,,,,ジェイビージーピーエスジュウヨン,0
12,1010003025835,登記記録の閉鎖等,0,2025-03-05,2025-02-20,ＪＢＧ　ＰＳ１８合同会社,,合同会社,東京都,千代田区,内幸町２丁目２番２号富国生命ビル１２階渥美坂井法律事務所内,,13,101,1000011,,,2025-02-20,合併による解散等,8010003028360,令和７年１月１日東京都千代田区内幸町二丁目２番２号富国生命ビル渥美坂井法律事務所内ＪＢＧ　Ｌａｎｄ４合同会社（8010003028360）に合併し解散,2017-08-14,1,,,,,ジェイビージーピーエスジュウハチ,0
13,1010003027963,登記記録の閉鎖等,0,2025-03-05,2025-02-20,ＪＢＧ　ＰＳ２７合同会社,,合同会社,東京都,千代田区,内幸町２丁目２番２号富国生命ビル１２階渥美坂井法律事務所内,,13,101,1000011,,,2025-02-20,合併による解散等,8010003028360,令和７年１月１日東京都千代田区内幸町二丁目２番２号富国生命ビル渥美坂井法律事務所内ＪＢＧ　Ｌａｎｄ４合同会社（8010003028360）に合併し解散,2018-07-30,1,,,,,ジェイビージーピーエスニジュウシチ,0
14,1010003028359,登記記録の閉鎖等,0,2025-03-05,2025-02-20,ＪＢＧ　Ｌａｎｄ３合同会社,,合同会社,東京都,千代田区,内幸町２丁目２番２号富国生命ビル渥美坂井法律事務所内,,13,101,1000011,,,2025-02-20,合併による解散等,8010003028360,令和７年１月１日東京都千代田区内幸町二丁目２番２号富国生命ビル渥美坂井法律事務所内ＪＢＧ　Ｌａｎｄ４合同会社（8010003028360）に合併し解散,2018-09-27,1,,,,,ジェイビージーランドスリー,0
15,1010003028367,登記記録の閉鎖等,0,2025-03-05,2025-02-20,ＪＢＧ　Ｌａｎｄ１１合同会社,,合同会社,東京都,千代田区,内幸町２丁目２番２号富国生命ビル渥美坂井法律事務所内,,13,101,1000011,,,2025-02-20,合併による解散等,8010003028360,令和７年１月１日東京都千代田区内幸町二丁目２番２号富国生命ビル渥美坂井法律事務所内ＪＢＧ　Ｌａｎｄ４合同会社（8010003028360）に合併し解散,2018-09-27,1,,,,,ジェイビージーランドイレブン,0
18,1010102005201,登記記録の閉鎖等,0,2025-03-05,2025-03-03,有限会社西野表具店,,有限会社,東京都,八王子市,本町２５番２号,,13,201,1920066,,,2025-03-03,清算の結了等,,,2015-10-05,1,,,,,ニシノヒョウグテン,0
31,1010405016382,登記記録の閉鎖等,0,2025-03-05,2025-02-12,一般社団法人トークンエコノミー協会,,その他の設立登記法人,東京都,港区,海岸３丁目２１番９号,,13,103,1080022,,,2025-02-12,清算の結了等,,,2018-01-16,1,,,,,トークンエコノミーキョウカイ,0
54,1011201020561,登記記録の閉鎖等,0,2025-03-05,2025-03-03,株式会社ビンロージ,,株式会社,東京都,杉並区,本天沼３丁目２４番１７号,,13,115,1670031,,,2025-03-03,清算の結了等,,,2018-04-06,1,,,,,ビンロージ,0
67,1012401009865,登記記録の閉鎖等,0,2025-03-05,2025-02-28,株式会社プールドゥール,,株式会社,東京都,府中市,矢崎町４丁目１番地,,13,206,1830025,,,2025-02-28,清算の結了等,,,2015-10-05,1,,,,,プールドゥール,0
69,1012402003966,登記記録の閉鎖等,0,2025-03-05,2025-02-10,有限会社東京計測,,有限会社,東京都,国分寺市,西町３丁目１６番地２０,,13,214,1850035,,,2025-02-10,清算の結了等,,,2015-10-05,1,,,,,トウキョウケイソク,0
80,1020001089690,登記記録の閉鎖等,0,2025-03-05,2025-02-20,株式会社エイチ・アイ・ティ,,株式会社,神奈川県,横浜市鶴見区,豊岡町１７－１９大倉ビル３０５号,,14,101,2300062,,,2025-02-20,清算の結了等,,,2015-10-05,1,,,,,エイチアイティ,0
94,1030001066243,登記記録の閉鎖等,0,2025-03-05,2025-02-28,アートメモリー８０株式会社,,株式会社,埼玉県,越谷市,大沢１５９７番地１３,,11,222,3430025,,,2025-02-28,清算の結了等,,,2015-10-05,1,,,,,アートメモリーハチジュウ,0
125,1080002010187,登記記録の閉鎖等,0,2025-03-05,2025-03-03,有限会社清水タイル,,有限会社,静岡県,静岡市清水区,辻４丁目８番２６号,00067487,22,103,4240806,,,2025-03-03,清算の結了等,,,2015-10-05,1,,,,,シミズタイル,0
138,1120001148148,登記記録の閉鎖等,0,2025-03-05,2025-03-03,株式会社ダイトーコーポレーション,,株式会社,大阪府,寝屋川市,石津南町３番４３号,,27,215,5720024,,,2025-03-03,清算の結了等,,,2015-10-05,1,,,,,ダイトーコーポレーション,0
141,1120001201690,登記記録の閉鎖等,0,2025-03-05,2025-03-03,ダイリキ株式会社,,株式会社,大阪府,大阪市西区,新町１丁目２７番９号,,27,106,5500013,,,2025-03-03,合併による解散等,2120001045096,令和７年３月１日大阪市西区新町一丁目２７番９号株式会社１＆Ｄ（2120001045096）に合併し解散,2016-11-10,1,,,,,ダイリキ,0
172,1140001079639,登記記録の閉鎖等,0,2025-03-05,2025-03-03,豊和自動車販売株式会社,,株式会社,兵庫県,川西市,矢問東町１０番３号,,28,217,6660132,,,2025-03-03,清算の結了等,,,2015-10-05,1,,,,,ホウワジドウシャハンバイ,0
176,1140003016177,登記記録の閉鎖等,0,2025-03-05,2025-02-28,ＡＭＣファーマ合同会社,,合同会社,兵庫県,神戸市中央区,磯上通８丁目１番２９号カサベラビルＣ＆Ｍ４０３号室,,28,110,6510086,,,2025-02-28,清算の結了等,,,2021-04-19,1,,,,,エーエムシーファーマ,0
177,1150001010560,登記記録の閉鎖等,0,2025-03-05,2025-03-03,株式会社シャインスター,,株式会社,奈良県,橿原市,五井町２２３－１４,,29,205,6340832,,,2025-03-03,清算の結了等,,,2015-10-05,1,,,,,,0
198,1180305005196,登記記録の閉鎖等,0,2025-03-05,2025-03-03,特定非営利活動法人育て上げネット中部虹の会,,その他の設立登記法人,愛知県,安城市,今本町４丁目８番３号,,23,212,4460008,,,2025-03-03,清算の結了等,,,2015-10-05,1,,,,,ソダテアゲネットチュウブニジノカイ,0
204,1220001019933,登記記録の閉鎖等,0,2025-03-05,2025-02-27,株式会社金沢三和,,株式会社,石川県,白山市,松本町１９７７番地１,,17,210,9240057,,,2025-02-27,清算の結了等,,,2015-10-05,1,,,,,カナザワサンワ,0
208,1230001003721,登記記録の閉鎖等,0,2025-03-05,2025-03-03,株式会社有沢製作所,,株式会社,富山県,富山市,中冨居１７番３１号,,16,201,9300832,,,2025-03-03,清算の結了等,,,2015-10-05,1,,,,,アリサワセイサクショ,0
230,1290003001445,登記記録の閉鎖等,0,2025-03-05,2025-02-25,合同会社ソフィアレクチャーズ,,合同会社,福岡県,福岡市東区,名島１丁目３０番２－５０１号,,40,131,8130043,,,2025-02-25,清算の結了等,,,2015-10-05,1,,,,,ソフィアレクチャーズ,0
239,1300002001428,登記記録の閉鎖等,0,2025-03-05,2025-02-28,有限会社マルキメディカル,,有限会社,佐賀県,佐賀市,神野東４丁目１２番６号,,41,201,8400804,,,2025-02-28,清算の結了等,,,2015-10-05,1,,,,,マルキメディカル,0
243,1310001010932,登記記録の閉鎖等,0,2025-03-05,2025-02-19,フジイホーム株式会社,,株式会社,長崎県,対馬市,厳原町西里７７番地４,,42,209,8170015,,,2025-02-19,清算の結了等,,,2015-10-05,1,,,,,フジイホーム,0
245,1310001016376,登記記録の閉鎖等,0,2025-03-05,2025-02-28,株式会社長崎住建,,株式会社,長崎県,佐世保市,御船町４番４２号,,42,202,8570068,,,2025-02-28,清算の結了等,,,2019-11-07,1,,,,,ナガサキジュウケン,0
270,1410001001954,登記記録の閉鎖等,0,2025-03-05,2025-02-28,株式会社内外タイル,,株式会社,秋田県,秋田市,八橋大畑２丁目１番２３号,,05,201,0100962,,,2025-02-28,清算の結了等,,,2015-10-05,1,,,,,ナイガイタイル,0
274,1410001006904,登記記録の閉鎖等,0,2025-03-05,2025-03-03,株式会社東河通商,,株式会社,秋田県,北秋田市,松葉町６番４４号,,05,213,0183321,,,2025-03-03,清算の結了等,,,2015-10-05,1,,,,,,0
281,1430003007626,登記記録の閉鎖等,0,2025-03-05,2025-02-28,合同会社クロノメンテナンス,,合同会社,北海道,札幌市清田区,美しが丘五条９丁目１番１号,,01,110,0040815,,,2025-02-28,合併による解散等,4430002013465,令和７年２月２８日札幌市清田区美しが丘五条九丁目１番１号株式会社オーツーエンジニアリング（4430002013465）に合併し解散,2016-06-01,1,,,,,クロノメンテナンス,0
301,2010003025157,登記記録の閉鎖等,0,2025-03-05,2025-02-20,ＪＢＧ　Ｌａｎｄ２合同会社,,合同会社,東京都,千代田区,内幸町２丁目２番２号富国生命ビル１２階渥美坂井法律事務所内,,13,101,1000011,,,2025-02-20,合併による解散等,8010003028360,令和７年１月１日東京都千代田区内幸町二丁目２番２号富国生命ビル渥美坂井法律事務所内ＪＢＧ　Ｌａｎｄ４合同会社（8010003028360）に合併し解散,2017-04-18,1,,,,,ジェイビージーランドツー,0
303,2010003025363,登記記録の閉鎖等,0,2025-03-05,2025-02-20,ＪＢＧ　ＰＳ９合同会社,,合同会社,東京都,千代田区,内幸町２丁目２番２号富国生命ビル１２階渥美坂井法律事務所内,,13,101,1000011,,,2025-02-20,合併による解散等,8010003028360,令和７年１月１日東京都千代田区内幸町二丁目２番２号富国生命ビル渥美坂井法律事務所内ＪＢＧ　Ｌａｎｄ４合同会社（8010003028360）に合併し解散,2017-05-24,1,,,,,ジェービージーピーエスナイン,0
304,2010003025834,登記記録の閉鎖等,0,2025-03-05,2025-02-20,ＪＢＧ　ＰＳ１７合同会社,,合同会社,東京都,千代田区,内幸町２丁目２番２号富国生命ビル１２階渥美坂井法律事務所内,,13,101,1000011,,,2025-02-20,合併による解散等,8010003028360,令和７年１月１日東京都千代田区内幸町二丁目２番２号富国生命ビル渥美坂井法律事務所内ＪＢＧ　Ｌａｎｄ４合同会社（8010003028360）に合併し解散,2017-08-14,1,,,,,ジェイビージーピーエスジュウシチ,0
305,2010003025842,登記記録の閉鎖等,0,2025-03-05,2025-02-20,ＪＢＧ　ＰＳ２５合同会社,,合同会社,東京都,千代田区,内幸町２丁目２番２号富国生命ビル１２階渥美坂井法律事務所内,,13,101,1000011,,,2025-02-20,合併による解散等,8010003028360,令和７年１月１日東京都千代田区内幸町二丁目２番２号富国生命ビル渥美坂井法律事務所内ＪＢＧ　Ｌａｎｄ４合同会社（8010003028360）に合併し解散,2017-08-14,1,,,,,ジェイビージーピーエスニジュウゴ,0
306,2010003027962,登記記録の閉鎖等,0,2025-03-05,2025-02-20,ＪＢＧ　ＰＳ２６合同会社,,合同会社,東京都,千代田区,内幸町２丁目２番２号富国生命ビル１２階渥美坂井法律事務所内,,13,101,1000011,,,2025-02-20,合併による解散等,8010003028360,令和７年１月１日東京都千代田区内幸町二丁目２番２号富国生命ビル渥美坂井法律事務所内ＪＢＧ　Ｌａｎｄ４合同会社（8010003028360）に合併し解散,2018-07-30,1,,,,,ジェイビージーピーエスニジュウロク,0
310,2010005037555,登記記録の閉鎖等,0,2025-03-05,2025-02-27,一般社団法人神戸ソーラー,,その他の設立登記法人,東京都,中央区,日本橋１丁目４番１号,,13,102,1030027,,,2025-02-27,清算の結了等,,,2023-11-22,1,,,,,コウベソーラー,0
315,2010401154193,登記記録の閉鎖等,0,2025-03-05,2025-02-12,ジャパンネイチャークラブ株式会社,,株式会社,東京都,港区,六本木６丁目７番６号六本木アネックス５Ｆ,,13,103,1060032,,,2025-02-12,清算の結了等,,,2020-07-29,1,,,,,ジャパンネイチャークラブ,0
323,2010702000625,登記記録の閉鎖等,0,2025-03-05,2025-02-14,生澤サービス有限会社,,有限会社,東京都,品川区,戸越６丁目７番６号,,13,109,1420041,,,2025-02-14,清算の結了等,,,2015-10-05,1,,,,,イクサワサービス,0
327,2011001156497,登記記録の閉鎖等,0,2025-03-05,2024-12-24,株式会社ケース面接Ｑｕｅｓｔ,,株式会社,東京都,渋谷区,渋谷２丁目１９－１５宮益坂ビルディング６０９,,13,113,1500002,,,2024-12-24,清算の結了等,,,2023-08-23,1,,,,,ケースメンセツクエスト,0
344,2011801023756,登記記録の閉鎖等,0,2025-03-05,2025-02-28,株式会社吉岡商店,,株式会社,東京都,足立区,鹿浜３丁目２１番１６号,,13,121,1230864,,,2025-02-28,清算の結了等,,,2015-10-05,1,,,,,ヨシオカショウテン,0
352,2012702004011,登記記録の閉鎖等,0,2025-03-05,2025-02-27,有限会社エムアンドエス,,有限会社,東京都,西東京市,富士町１丁目７番６５－２０２,,13,229,2020014,,,2025-02-27,清算の結了等,,,2015-10-05,1,,,,,エムアンドエス,0
373,2030002122622,登記記録の閉鎖等,0,2025-03-05,2025-02-28,森仙有限会社,,有限会社,埼玉県,秩父市,野坂町１丁目１５番１４号,,11,207,3680033,,,2025-02-28,清算の結了等,,,2015-10-05,1,,,,,モリセン,0
389,2050003003654,登記記録の閉鎖等,0,2025-03-05,2025-02-27,常陸國住宅合同会社,,合同会社,茨城県,土浦市,神立町２４３０－１０Ａ２０１,,08,203,3000013,,,2025-02-27,清算の結了等,,,2017-03-22,1,,,,,ヒタチクニジュウタク,0
398,2080101001053,登記記録の閉鎖等,0,2025-03-05,2025-02-28,株式会社ダン建築事務所,,株式会社,静岡県,沼津市,高沢町９番１０号,,22,203,4100057,,,2025-02-28,清算の結了等,,,2015-10-05,1,,,,,ダンケンチクジムショ,0
407,2090001009542,登記記録の閉鎖等,0,2025-03-05,2025-02-19,株式会社アイザック,,株式会社,山梨県,富士吉田市,向原３丁目９番１０号,,19,202,4030018,,,2025-02-19,清算の結了等,,,2015-10-05,1,,,,,アイザック,0
410,2110001001216,登記記録の閉鎖等,0,2025-03-05,2025-03-03,五十嵐精機株式会社,,株式会社,新潟県,新潟市東区,中木戸１８２番地,,15,102,9500886,,,2025-03-03,清算の結了等,,,2015-10-05,1,,,,,イカラシセイキ,0
452,2140001062305,登記記録の閉鎖等,0,2025-03-05,2025-02-26,力丸自動車株式会社,,株式会社,兵庫県,姫路市,田寺３丁目８番４３号,,28,201,6700086,,,2025-02-26,清算の結了等,,,2015-10-05,1,,,,,リキマルジドウシャ,0
486,2220003003216,登記記録の閉鎖等,0,2025-03-05,2025-02-27,合同会社Ｈ＆Ｃ,,合同会社,石川県,河北郡内灘町,字鶴ケ丘５丁目１番地１４２,,17,365,9200271,,,2025-02-27,清算の結了等,,,2022-02-17,1,,,,,エイチアンドシー,0
488,2240001043278,登記記録の閉鎖等,0,2025-03-05,2025-03-03,株式会社Ｄ－ＤＥＳＩＧＮ　Ｐｒｏｊｅｃｔ,,株式会社,広島県,福山市,西町１丁目２５番１９号,,34,207,7200067,,,2025-03-03,清算の結了等,,,2015-10-05,1,,,,,ディーデザインプロジェクト,0
489,2240002030548,登記記録の閉鎖等,0,2025-03-05,2025-03-03,株式会社ＡＺ,,株式会社,広島県,広島市中区,白島北町３番１４号,,34,101,7300001,,,2025-03-03,清算の結了等,,,2015-10-05,1,,,,,エーゼット,0
491,2240002051676,登記記録の閉鎖等,0,2025-03-05,2025-02-28,有限会社山口輪業社,,有限会社,広島県,尾道市,向東町３８９６番地,,34,205,7220062,,,2025-02-28,清算の結了等,,,2015-10-05,1,,,,,ヤマグチリンギョウシャ,0
504,2290003001444,登記記録の閉鎖等,0,2025-03-05,2025-02-25,合同会社九州フレンド投資事業組合,,合同会社,福岡県,福岡市東区,名島１丁目３０番２－５０１号,,40,131,8130043,,,2025-02-25,清算の結了等,,,2015-10-05,1,,,,,キュウシュウフレンドトウシジギョウクミアイ,0
511,2320001003793,登記記録の閉鎖等,0,2025-03-05,2025-02-20,株式会社日栄興産,,株式会社,大分県,大分市,西鶴崎２丁目３番１２号,,44,201,8700105,,,2025-02-20,清算の結了等,,,2023-03-29,1,,,,,,0
512,2320005008244,登記記録の閉鎖等,0,2025-03-05,2025-03-03,医療法人臥竜会,,その他の設立登記法人,大分県,大分市,上野町１４番３０号,,44,201,8700832,,,2025-03-03,清算の結了等,,,2015-10-05,1,,,,,ガリョウカイ,0
522,2360001030082,登記記録の閉鎖等,0,2025-03-05,2025-02-27,株式会社大越,,株式会社,沖縄県,沖縄市,室川２丁目１２番１５号,,47,211,9040013,,,2025-02-27,清算の結了等,,,2022-03-07,1,,,,,オオコシ,0
537,2430001049850,登記記録の閉鎖等,0,2025-03-05,2025-02-28,株式会社金子鉄工所,,株式会社,北海道,小樽市,奥沢４丁目２１番１０号,,01,203,0470013,,,2025-02-28,清算の結了等,,,2015-10-05,1,,,,,カネコテッコウショ,0
547,2430005011105,登記記録の閉鎖等,0,2025-03-05,2025-02-26,特定非営利活動法人さわやか共生,,その他の設立登記法人,北海道,伊達市,錦町１００番地５３,,01,233,0520026,,,2025-02-26,清算の結了等,,,2015-10-05,1,,,,,サワヤカキョウセイ,0
553,2460102004297,登記記録の閉鎖等,0,2025-03-05,2025-02-28,有限会社ＴＭカンパニー,,有限会社,北海道,河東郡音更町,木野大通西１２丁目１番地１０,,01,631,0800301,,,2025-02-28,清算の結了等,,,2015-10-05,1,,,,,ティーエムカンパニー,0
569,3010002046979,登記記録の閉鎖等,0,2025-03-05,2025-02-17,有限会社クリックトライ,,有限会社,東京都,文京区,本郷３丁目３７番３号富士見ビル４０１号室,,13,105,1130033,,,2025-02-17,清算の結了等,,,2015-10-05,1,,,,,,0
577,3010401157113,登記記録の閉鎖等,0,2025-03-05,2025-02-07,Ｏｂｌｕｅ株式会社,,株式会社,東京都,港区,高輪４丁目２１番２０号,,13,103,1080074,,,2025-02-07,清算の結了等,,,2020-12-15,1,,,,,オーブル,0
580,3010401172046,登記記録の閉鎖等,0,2025-03-05,2025-02-05,ＲＥＡＬＩＴＹ　ＸＲ　ｃｌｏｕｄ株式会社,,株式会社,東京都,港区,六本木６丁目１１番１号,,13,103,1060032,,,2025-02-05,合併による解散等,5010401093562,令和７年２月１日東京都港区六本木六丁目１１番１号Ｇｌｏｓｓｏｍ株式会社（5010401093562）に合併し解散,2023-01-24,1,,,,,リアリティエックスアールクラウド,0
586,3010405016967,登記記録の閉鎖等,0,2025-03-05,2025-02-13,万座瀬良垣ホールディング２一般社団法人,,その他の設立登記法人,東京都,港区,虎ノ門３丁目２２番１０－２０１号,,13,103,1050001,,,2025-02-13,清算の結了等,,,2018-07-31,1,,,,,マンザセラガキホールディングツー,0
594,3010801009491,登記記録の閉鎖等,0,2025-03-05,2025-02-17,温井工業株式会社,,株式会社,東京都,大田区,雪谷大塚町１３番２９号,,13,111,1450067,,,2025-02-17,清算の結了等,,,2024-11-14,1,,,,,,0
597,3010903003137,登記記録の閉鎖等,0,2025-03-05,2025-02-28,合同会社結,,合同会社,東京都,世田谷区,上馬４丁目４１番４号,,13,112,1540011,,,2025-02-28,清算の結了等,,,2016-05-10,1,,,,,ユイ,0
608,3011101037852,登記記録の閉鎖等,0,2025-03-05,2025-02-21,株式会社千代田ビジネスサポート,,株式会社,神奈川県,横浜市戸塚区,秋葉町２６６番地１８,,14,110,2450052,,,2025-02-21,清算の結了等,,,2015-10-05,1,,,,,チヨダビジネスサポート,0
617,3011701018228,登記記録の閉鎖等,0,2025-03-05,2025-02-26,株式会社ホワイト・エイト,,株式会社,東京都,江戸川区,南葛西２丁目２５－２－６０２号,,13,123,1340085,,,2025-02-26,清算の結了等,,,2015-10-05,1,,,,,ホワイトエイト,0
631,3020001082999,登記記録の閉鎖等,0,2025-03-05,2025-02-21,株式会社ビーブライト,,株式会社,神奈川県,川崎市中原区,中丸子１３番地１０,,14,133,2110012,,,2025-02-21,清算の結了等,,,2015-10-05,1,,,,,ビーブライト,0
642,3020002062513,登記記録の閉鎖等,0,2025-03-05,2025-02-21,有限会社クルミ,,有限会社,神奈川県,横浜市神奈川区,高島台１８番地２,,14,102,2210833,,,2025-02-21,清算の結了等,,,2015-10-05,1,,,,,クルミ,0
662,3030001139708,登記記録の閉鎖等,0,2025-03-05,2025-02-28,株式会社信乃堂,,株式会社,埼玉県,上尾市,大字原市２番地４,,11,219,3620021,,,2025-02-28,清算の結了等,,,2020-12-15,1,,,,,シナノドウ,0
690,3070002016258,登記記録の閉鎖等,0,2025-03-05,2025-02-28,有限会社サンユー,,有限会社,群馬県,富岡市,富岡１４７３番地８,,10,210,3702316,,,2025-02-28,清算の結了等,,,2015-10-05,1,,,,,サンユー,0
691,3070003001614,登記記録の閉鎖等,0,2025-03-05,2025-03-03,合同会社ＨＳ,,合同会社,群馬県,前橋市,広瀬町１丁目２６番地１７,,10,201,3710812,,,2025-03-03,清算の結了等,,,2015-10-05,1,,,,,,0
692,3070005001819,登記記録の閉鎖等,0,2025-03-05,2025-03-03,特定非営利活動法人ラポール前橋,,その他の設立登記法人,群馬県,前橋市,大渡町１丁目１１番地８,,10,201,3710854,,,2025-03-03,清算の結了等,,,2015-10-05,1,,,,,ラポールマエバシ,0
693,3070005003245,登記記録の閉鎖等,0,2025-03-05,2025-03-03,高崎緑化事業協同組合,,その他の設立登記法人,群馬県,高崎市,中里見町６番地７,,10,202,3703344,,,2025-03-03,清算の結了等,,,2015-10-05,1,,,,,タカサキリョクカ,0
698,3080003001844,登記記録の閉鎖等,0,2025-03-05,2025-02-27,合同会社ティンプル,,合同会社,静岡県,静岡市葵区,伝馬町２２番地の６,,22,101,4200858,,,2025-02-27,清算の結了等,,,2016-02-09,1,,,,,ティンプル,0
704,3100001022757,登記記録の閉鎖等,0,2025-03-05,2025-02-27,松島産業株式会社,,株式会社,長野県,飯田市,常盤町３２番地,,20,205,3950033,,,2025-02-27,清算の結了等,,,2015-10-05,1,,,,,マツシマサンギョウ,0
709,3120001072750,登記記録の閉鎖等,0,2025-03-05,2025-02-28,日本クレープ紙販売株式会社,,株式会社,大阪府,大阪市北区,中崎２丁目３番１２号,,27,127,5300016,,,2025-02-28,清算の結了等,,,2015-10-05,1,,,,,ニホンクレープシハンバイ,0
714,3120001227123,登記記録の閉鎖等,0,2025-03-05,2025-02-25,株式会社Ｏｆｆｉｃｅ　Ｐｉｃｋｓ,,株式会社,大阪府,守口市,大枝西町８番５号福徳建設ビル３階,,27,209,5700054,,,2025-02-25,清算の結了等,,,2020-02-14,1,,,,,オフィスピックス,0
720,3120003011054,登記記録の閉鎖等,0,2025-03-05,2025-02-28,２ＨＴＦ合同会社,,合同会社,兵庫県,姫路市,藤ケ台１２番１号,,28,201,6700066,,,2025-02-28,清算の結了等,,,2015-10-13,1,,,,,ツーエイチティーエフ,0
729,3130001000512,登記記録の閉鎖等,0,2025-03-05,2025-03-03,株式会社ギース・ウイング,,株式会社,京都府,京都市右京区,西院六反田町３７番地１,,26,108,6150047,,,2025-03-03,清算の結了等,,,2015-10-05,1,,,,,,0
747,3180001097305,登記記録の閉鎖等,0,2025-03-05,2025-02-28,株式会社藤源商店,,株式会社,愛知県,愛西市,町方町彦作堤内４８番地,,23,232,4968014,,,2025-02-28,清算の結了等,,,2015-10-05,1,,,,,フジゲンショウテン,0
748,3180001155426,登記記録の閉鎖等,0,2025-03-05,2025-02-28,株式会社ｔｈｅ　Ｅａｒｔｈ,,株式会社,愛知県,知多郡武豊町,字前田３４番地１,,23,447,4702338,,,2025-02-28,合併による解散等,3180001071367,令和７年２月２８日名古屋市中区大須三丁目３１番１８号株式会社ＢＯＯＢＩＥＳ（3180001071367）に合併し解散,2023-03-20,1,,,,,ジアース,0
756,3200001010999,登記記録の閉鎖等,0,2025-03-05,2025-03-03,株式会社グランディール,,株式会社,岐阜県,羽島市,福寿町浅平１丁目３２番地,,21,209,5016255,,,2025-03-03,清算の結了等,,,2015-10-05,1,,,,,グランディール,0
757,3200001029296,登記記録の閉鎖等,0,2025-03-05,2025-03-03,株式会社サクセスモート,,株式会社,岐阜県,関市,平和通２丁目３番地,,21,205,5013874,,,2025-03-03,清算の結了等,,,2015-10-05,1,,,,,サクセスモート,0
760,3200002022028,登記記録の閉鎖等,0,2025-03-05,2025-03-03,有限会社シバタパーツ,,有限会社,岐阜県,瑞浪市,陶町猿爪１０７０番地の２,,21,208,5096361,,,2025-03-03,清算の結了等,,,2015-10-05,1,,,,,シバタパーツ,0
762,3200005007983,登記記録の閉鎖等,0,2025-03-05,2025-03-03,ナショナルソーイング協同組合,,その他の設立登記法人,岐阜県,岐阜市,福富永田２５番地１中部国際交流センター第２,,21,201,5012564,,,2025-03-03,清算の結了等,,,2015-10-05,1,,,,,ナショナルソーイング,0
768,3240001039069,登記記録の閉鎖等,0,2025-03-05,2025-02-27,株式会社松尾商店,,株式会社,広島県,世羅郡世羅町,大字本郷６９１番地の３,,34,462,7221112,,,2025-02-27,清算の結了等,,,2015-10-05,1,,,,,マツオショウテン,0
792,3320001014823,登記記録の閉鎖等,0,2025-03-05,2025-03-03,株式会社エヌシーシー大分サービス,,株式会社,大分県,大分市,金池町３丁目１番６４号,,44,201,8700026,,,2025-03-03,清算の結了等,,,2016-03-29,1,,,,,エヌシーシーオオイタサービス,0
794,3320005009621,登記記録の閉鎖等,0,2025-03-05,2025-02-28,大分外国語サポート協同組合,,その他の設立登記法人,大分県,大分市,王子町４番４号,,44,201,8700009,,,2025-02-28,清算の結了等,,,2018-08-27,1,,,,,オオイタガイコクゴサポート,0
799,3340003000464,登記記録の閉鎖等,0,2025-03-05,2025-02-25,プロジェクト小野タウン合同会社,,合同会社,福岡県,福岡市東区,名島１丁目３０番２－５０１号,,40,131,8130043,,,2025-02-25,清算の結了等,,,2015-10-05,1,,,,,プロジェクトオノタウン,0
800,3340005008836,登記記録の閉鎖等,0,2025-03-05,2025-02-27,一般財団法人さくらじま助成財団,,その他の設立登記法人,鹿児島県,霧島市,霧島大窪８５０番地１０３,,46,218,8994203,,,2025-02-27,清算の結了等,,,2018-03-20,1,,,,,サクラジマジョセイザイダン,0
836,3430002015743,登記記録の閉鎖等,0,2025-03-05,2025-02-28,有限会社ハッピー経営事務所,,有限会社,北海道,札幌市北区,新琴似十二条６丁目５番３号,,01,102,0010912,,,2025-02-28,清算の結了等,,,2015-10-05,1,,,,,,0
838,3440001009183,登記記録の閉鎖等,0,2025-03-05,2025-02-27,スマイルズ株式会社,,株式会社,北海道,函館市,若松町２０番１－１３０５号,,01,202,0400063,,,2025-02-27,清算の結了等,,,2022-11-07,1,,,,,スマイルズ,0
851,4010001147364,登記記録の閉鎖等,0,2025-03-05,2025-02-26,株式会社ＮＤＨ,,株式会社,北海道,札幌市中央区,大通西２５丁目３番１号,,01,101,0640820,,,2025-02-26,合併による解散等,7011101057054,令和７年２月１日東京都港区赤坂八丁目５番６号株式会社ネスト（7011101057054）に合併し解散,2015-10-05,1,,,,,エヌディーエイチ,0
854,4010001202573,登記記録の閉鎖等,0,2025-03-05,2025-02-17,株式会社サンブルー・ヘルスケア,,株式会社,東京都,千代田区,一ツ橋２丁目１番１号如水会ビルディング４階,,13,101,1010003,,,2025-02-17,清算の結了等,,,2019-07-23,1,,,,,サンブルーヘルスケア,0
864,4010003024611,登記記録の閉鎖等,0,2025-03-05,2025-02-20,ＪＢＧ　Ｏ＆Ｍ合同会社,,合同会社,東京都,千代田区,内幸町２丁目２番２号富国生命ビル１２階渥美坂井法律事務所内,,13,101,1000011,,,2025-02-20,合併による解散等,8010003028360,令和７年１月１日東京都千代田区内幸町二丁目２番２号富国生命ビル渥美坂井法律事務所内ＪＢＧ　Ｌａｎｄ４合同会社（8010003028360）に合併し解散,2017-01-10,1,,,,,ジェイビージーオーアンドエム,0
866,4010003025840,登記記録の閉鎖等,0,2025-03-05,2025-02-20,ＪＢＧ　ＰＳ２３合同会社,,合同会社,東京都,千代田区,内幸町２丁目２番２号富国生命ビル１２階渥美坂井法律事務所内,,13,101,1000011,,,2025-02-20,合併による解散等,8010003028360,令和７年１月１日東京都千代田区内幸町二丁目２番２号富国生命ビル渥美坂井法律事務所内ＪＢＧ　Ｌａｎｄ４合同会社（8010003028360）に合併し解散,2017-08-14,1,,,,,ジェービージーピーエスニジュウサン,0
871,4010101003112,登記記録の閉鎖等,0,2025-03-05,2025-03-03,株式会社八王子ツーリスト,,株式会社,東京都,八王子市,横川町７１５－１,,13,201,1930823,,,2025-03-03,清算の結了等,,,2015-10-05,1,,,,,ハチオウジツーリスト,0
875,4010401145653,登記記録の閉鎖等,0,2025-03-05,2025-02-17,Ｃｌｉｍｅｏｎ　Ｊａｐａｎ株式会社,,株式会社,東京都,千代田区,永田町２丁目１１番１号山王パークタワー４階,,13,101,1000014,,,2025-02-17,清算の結了等,,,2019-05-24,1,,,,,クライムオンジャパン,0
884,4010403025944,登記記録の閉鎖等,0,2025-03-05,2025-02-12,合同会社ＰＨＯＥＮＩＸ,,合同会社,東京都,港区,赤坂１丁目１２番３２号アーク森ビル１３階ＧＣＭアセットマネジメント株式会社内,,13,103,1070052,,,2025-02-12,清算の結了等,,,2021-08-23,1,,,,,フェニックス,0
886,4010501014469,登記記録の閉鎖等,0,2025-03-05,2025-02-27,フニュウ産業株式会社,,株式会社,東京都,台東区,北上野２丁目２７番１号,,13,106,1100014,,,2025-02-27,清算の結了等,,,2015-10-05,1,,,,,フニュウサンギョウ,0
887,4010501020070,登記記録の閉鎖等,0,2025-03-05,2025-02-27,ヘルス薬品株式会社,,株式会社,東京都,台東区,上野３丁目６番５号,,13,106,1100005,,,2025-02-27,清算の結了等,,,2015-10-05,1,,,,,ヘルスヤクヒン,0
901,4011001010644,登記記録の閉鎖等,0,2025-03-05,2025-03-03,株式会社新明物産,,株式会社,東京都,品川区,上大崎３丁目１番１号目黒セントラルスクエア１５階,,13,109,1410021,,,2025-03-03,合併による解散等,7010703007474,令和７年３月１日東京都品川区上大崎三丁目１番１号目黒セントラルスクエア１５階神宮前合同会社（7010703007474）に合併し解散,2015-10-05,1,,,,,シンメイブッサン,0
915,4011101098605,登記記録の閉鎖等,0,2025-03-05,2025-02-05,リミア株式会社,,株式会社,東京都,港区,六本木６丁目１１番１号,,13,103,1060032,,,2025-02-05,合併による解散等,5010401093562,令和７年２月１日東京都港区六本木六丁目１１番１号Ｇｌｏｓｓｏｍ株式会社（5010401093562）に合併し解散,2022-04-21,1,,,,,リミア,0
930,4011701019084,登記記録の閉鎖等,0,2025-03-05,2025-02-27,株式会社ＷＡＬＫ,,株式会社,東京都,江戸川区,大杉１丁目２４番６号,,13,123,1320022,,,2025-02-27,清算の結了等,,,2015-10-05,1,,,,,ウォーク,0
932,4011801003145,登記記録の閉鎖等,0,2025-03-05,2025-03-03,東京ダイアバ株式会社,,株式会社,東京都,葛飾区,新宿３丁目２２番１１号,,13,122,1250051,,,2025-03-03,清算の結了等,,,2015-10-05,1,,,,,トウキョウダイアバ,0
951,4020001129725,登記記録の閉鎖等,0,2025-03-05,2025-02-27,ＡＩＲｃｏｒｐｏｒａｔｉｏｎ株式会社,,株式会社,神奈川県,横浜市港北区,鳥山町５２９番地１１加瀬ビル９９－４Ｆ,,14,109,2220035,,,2025-02-27,清算の結了等,,,2019-02-01,1,,,,,エアーコーポレーション,0
955,4020002005413,登記記録の閉鎖等,0,2025-03-05,2025-02-20,有限会社イサヨシ製作所,,有限会社,神奈川県,横浜市都筑区,池辺町３９９１番地,,14,118,2240053,,,2025-02-20,清算の結了等,,,2015-10-05,1,,,,,イサヨシセイサクショ,0
966,4030001021286,登記記録の閉鎖等,0,2025-03-05,2025-03-03,株式会社ダイコウテクノ,,株式会社,埼玉県,戸田市,大字新曽９６２番地,,11,224,3350021,,,2025-03-03,清算の結了等,,,2015-10-05,1,,,,,ダイコウテクノ,0
975,4030003020559,登記記録の閉鎖等,0,2025-03-05,2025-03-03,合同会社ピンキー,,合同会社,埼玉県,さいたま市西区,大字指扇６５９番地１０,,11,101,3310047,,,2025-03-03,清算の結了等,,,2022-11-09,1,,,,,ピンキー,0
982,4040001099330,登記記録の閉鎖等,0,2025-03-05,2025-02-21,株式会社山王工業ＨＤ,,株式会社,千葉県,四街道市,大日５７７番地,,12,228,2840001,,,2025-02-21,合併による解散等,3040001047273,令和７年１月１７日千葉県四街道市大日５７７番地株式会社山王工業（3040001047273）に合併し解散,2017-03-21,1,,,,,サンノウコウギョウエイチディー,0
1003,4080002005878,登記記録の閉鎖等,0,2025-03-05,2025-03-03,有限会社最上屋,,有限会社,静岡県,静岡市葵区,紺屋町８番地の３,,22,101,4200852,,,2025-03-03,清算の結了等,,,2015-10-05,1,,,,,モガミヤ,0
1013,4120001109304,登記記録の閉鎖等,0,2025-03-05,2025-03-03,株式会社ネットワークス８５１,,株式会社,大阪府,大阪市浪速区,湊町１丁目３番１号,,27,111,5560017,,,2025-03-03,清算の結了等,,,2015-10-05,1,,,,,ネットワークスハチゴーイチ,0
1058,4190002011147,登記記録の閉鎖等,0,2025-03-05,2025-03-03,有限会社松創,,有限会社,三重県,松阪市,春日町１丁目１９２番地,,24,204,5150078,,,2025-03-03,清算の結了等,,,2015-10-05,1,,,,,マツソウ,0
1061,4200002004413,登記記録の閉鎖等,0,2025-03-05,2025-02-25,有限会社マルコウ左官,,有限会社,岐阜県,岐阜市,石原３丁目２１３番地の５,,21,201,5012535,,,2025-02-25,清算の結了等,,,2015-10-05,1,,,,,マルコウサカン,0
1068,4220002007637,登記記録の閉鎖等,0,2025-03-05,2025-02-28,有限会社サロン・ド・リーベン,,有限会社,石川県,金沢市,藤江北４丁目３９５番地,,17,201,9200345,,,2025-02-28,清算の結了等,,,2015-10-05,1,,,,,サロンドリーベン,0
1100,4320002021644,登記記録の閉鎖等,0,2025-03-05,2025-03-03,有限会社レオン,,有限会社,大分県,中津市,沖代町１丁目４０６番地の８,,44,203,8710021,,,2025-03-03,清算の結了等,,,2015-10-05,1,,,,,,0
1114,4380001016929,登記記録の閉鎖等,0,2025-03-05,2025-02-21,株式会社みと家,,株式会社,福島県,双葉郡広野町,大字下浅見川字築地２４番地１,,07,541,9790403,,,2025-02-21,清算の結了等,,,2015-10-05,1,,,,,ミトヤ,0
1155,5010003024610,登記記録の閉鎖等,0,2025-03-05,2025-02-20,ＪＢＧ　ＰＳ１合同会社,,合同会社,東京都,千代田区,内幸町２丁目２番２号富国生命ビル１２階渥美坂井法律事務所内,,13,101,1000011,,,2025-02-20,合併による解散等,8010003028360,令和７年１月１日東京都千代田区内幸町二丁目２番２号富国生命ビル渥美坂井法律事務所内ＪＢＧ　Ｌａｎｄ４合同会社（8010003028360）に合併し解散,2017-01-10,1,,,,,ジェービージーピーエスワン,0
1157,5010003025518,登記記録の閉鎖等,0,2025-03-05,2025-02-20,ＪＢＧ　ＰＳ１２合同会社,,合同会社,東京都,千代田区,内幸町２丁目２番２号富国生命ビル１２階渥美坂井法律事務所内,,13,101,1000011,,,2025-02-20,合併による解散等,8010003028360,令和７年１月１日東京都千代田区内幸町二丁目２番２号富国生命ビル渥美坂井法律事務所内ＪＢＧ　Ｌａｎｄ４合同会社（8010003028360）に合併し解散,2017-06-20,1,,,,,ジェービージーピーエストゥエルブ,0
1172,5010405018516,登記記録の閉鎖等,0,2025-03-05,2025-02-13,スクワートホールディング２一般社団法人,,その他の設立登記法人,東京都,港区,虎ノ門３丁目２２番１０－２０１号,,13,103,1050001,,,2025-02-13,清算の結了等,,,2020-02-18,1,,,,,スクワートホールディングツー,0
1193,5011001112670,登記記録の閉鎖等,0,2025-03-05,2025-02-14,株式会社アピックス,,株式会社,東京都,品川区,西五反田５丁目２番３－２０７号,,13,109,1410031,,,2025-02-14,清算の結了等,,,2016-09-08,1,,,,,アピックス,0
1209,5011501017477,登記記録の閉鎖等,0,2025-03-05,2025-02-28,株式会社アンクル,,株式会社,埼玉県,坂戸市,大字片柳１７７０番地２,,11,239,3500219,,,2025-02-28,清算の結了等,,,2015-10-05,1,,,,,アンクル,0
1223,5020001093235,登記記録の閉鎖等,0,2025-03-05,2025-02-25,株式会社ＣｉＴＹ,,株式会社,神奈川県,横浜市戸塚区,戸塚町２６２３番地５４,,14,110,2440003,,,2025-02-25,清算の結了等,,,2015-10-05,1,,,,,,0
1230,5020002050862,登記記録の閉鎖等,0,2025-03-05,2025-02-20,有限会社菅原住宅資材,,有限会社,神奈川県,横浜市旭区,下川井町２０５０番地１,,14,112,2410806,,,2025-02-20,清算の結了等,,,2015-10-05,1,,,,,スガワラジュウタクシザイ,0
1235,5020003013380,登記記録の閉鎖等,0,2025-03-05,2025-02-21,ワイエスエーシー合同会社,,合同会社,神奈川県,横浜市西区,高島２丁目１１番２号スカイメナー横浜４２２,,14,103,2200011,,,2025-02-21,清算の結了等,,,2017-10-05,1,,,,,ワイエスエーシー,0
1239,5021003008395,登記記録の閉鎖等,0,2025-03-05,2025-03-03,ＮＫＪ合同会社,,合同会社,神奈川県,平塚市,御殿２丁目１６番２１号,,14,203,2540061,,,2025-03-03,清算の結了等,,,2019-05-15,1,,,,,エヌケージェイ,0
1250,5030002061611,登記記録の閉鎖等,0,2025-03-05,2025-02-27,有限会社杉並青果,,有限会社,東京都,練馬区,高野台２丁目１番１８号,,13,120,1770033,,,2025-02-27,清算の結了等,,,2015-10-05,1,,,,,スギナミセイカ,0
1254,5030005001705,登記記録の閉鎖等,0,2025-03-05,2025-02-28,特定非営利活動法人ライフサポート,,その他の設立登記法人,埼玉県,さいたま市大宮区,大原６丁目２番２５号,,11,103,3300836,,,2025-02-28,清算の結了等,,,2015-10-05,1,,,,,ライフサポート,0
1265,5050001035168,登記記録の閉鎖等,0,2025-03-05,2025-02-27,株式会社ウェルフェア水戸,,株式会社,茨城県,水戸市,平須町１８２０番地１２２,,08,201,3100853,,,2025-02-27,清算の結了等,,,2015-10-05,1,,,,,ウェルフェアミト,0
1287,5120001239793,登記記録の閉鎖等,0,2025-03-05,2025-02-28,株式会社神さまのごはん,,株式会社,大阪府,大阪市中央区,玉造２丁目１５番９号,,27,128,5400004,,,2025-02-28,清算の結了等,,,2021-08-19,1,,,,,カミサマノゴハン,0
1300,5120901017142,登記記録の閉鎖等,0,2025-03-05,2025-02-25,株式会社ＴＡＫＥ５,,株式会社,大阪府,茨木市,大池１丁目３番１９号,,27,211,5670826,,,2025-02-25,清算の結了等,,,2015-10-05,1,,,,,テイクファイブ,0
1303,5130001053491,登記記録の閉鎖等,0,2025-03-05,2025-03-03,株式会社エルプラン,,株式会社,京都府,京都市中京区,河原町通二条下る二丁目下丸屋町４０３番地,,26,104,6040000,,,2025-03-03,清算の結了等,,,2015-10-05,1,,,,,,0
1316,5140002043152,登記記録の閉鎖等,0,2025-03-05,2025-02-26,有限会社和生,,有限会社,兵庫県,尼崎市,塚口町４丁目４６番地の１５,,28,202,6610002,,,2025-02-26,清算の結了等,,,2015-10-05,1,,,,,ワセイ,0
1324,5150002007750,登記記録の閉鎖等,0,2025-03-05,2025-03-03,有限会社松崎経営事務所,00043530,有限会社,奈良県,橿原市,南八木町２丁目１番２６号,,29,205,6340077,,,2025-03-03,清算の結了等,,,2015-10-05,1,,,,,マツザキケイエイジムショ,0
1337,5180301032224,登記記録の閉鎖等,0,2025-03-05,2025-02-26,富士カーボン製造所株式会社,,株式会社,愛知県,安城市,錦町１番１１号,,23,212,4460035,,,2025-02-26,合併による解散等,1010401042424,令和７年１月２９日東京都千代田区永田町二丁目１１番１号アルコニックス株式会社（1010401042424）に合併し解散,2019-01-23,1,,,,,フジカーボンセイゾウショ,0
1353,5240001051971,登記記録の閉鎖等,0,2025-03-05,2025-03-03,株式会社ソリド,,株式会社,広島県,広島市安佐北区,深川８丁目３１番２０号,,34,106,7391751,,,2025-03-03,清算の結了等,,,2017-11-20,1,,,,,ソリド,0
1357,5240002052267,登記記録の閉鎖等,0,2025-03-05,2025-02-28,御調オート有限会社,,有限会社,広島県,尾道市,御調町市１５番地１,,34,205,7220311,,,2025-02-28,清算の結了等,,,2015-10-05,1,,,,,ミツギオート,0
1359,5250002007740,登記記録の閉鎖等,0,2025-03-05,2025-02-28,有限会社秋吉台ユーストラベル,,有限会社,山口県,美祢市,秋芳町秋吉４２３６番地の１,,35,213,7540511,,,2025-02-28,清算の結了等,,,2015-10-05,1,,,,,アキヨシダイユーストラベル,0
1396,5380003005409,登記記録の閉鎖等,0,2025-03-05,2025-02-21,合同会社ＲＥＡＬＩＳＥ,,合同会社,福島県,いわき市,平中平窪字細田１２番地コーポ細田１階１０２号室,,07,204,9708002,,,2025-02-21,清算の結了等,,,2023-03-09,1,,,,,リアライズ,0
1414,6010003025161,登記記録の閉鎖等,0,2025-03-05,2025-02-20,ＪＢＧ　ＰＳ６合同会社,,合同会社,東京都,千代田区,内幸町２丁目２番２号富国生命ビル１２階渥美坂井法律事務所内,,13,101,1000011,,,2025-02-20,合併による解散等,8010003028360,令和７年１月１日東京都千代田区内幸町二丁目２番２号富国生命ビル渥美坂井法律事務所内ＪＢＧ　Ｌａｎｄ４合同会社（8010003028360）に合併し解散,2017-04-18,1,,,,,ジェービージーピーエスシックス,0
1415,6010003025517,登記記録の閉鎖等,0,2025-03-05,2025-02-20,ＪＢＧ　ＰＳ１３合同会社,,合同会社,東京都,千代田区,内幸町２丁目２番２号富国生命ビル１２階渥美坂井法律事務所内,,13,101,1000011,,,2025-02-20,合併による解散等,8010003028360,令和７年１月１日東京都千代田区内幸町二丁目２番２号富国生命ビル渥美坂井法律事務所内ＪＢＧ　Ｌａｎｄ４合同会社（8010003028360）に合併し解散,2017-06-20,1,,,,,ジェイビージーピーエスジュウサン,0
1416,6010003025839,登記記録の閉鎖等,0,2025-03-05,2025-02-20,ＪＢＧ　ＰＳ２２合同会社,,合同会社,東京都,千代田区,内幸町２丁目２番２号富国生命ビル１２階渥美坂井法律事務所内,,13,101,1000011,,,2025-02-20,合併による解散等,8010003028360,令和７年１月１日東京都千代田区内幸町二丁目２番２号富国生命ビル渥美坂井法律事務所内ＪＢＧ　Ｌａｎｄ４合同会社（8010003028360）に合併し解散,2017-08-14,1,,,,,ジェイビージーピーエスニジュウニ,0
1417,6010003028362,登記記録の閉鎖等,0,2025-03-05,2025-02-20,ＪＢＧ　Ｌａｎｄ６合同会社,,合同会社,東京都,千代田区,内幸町２丁目２番２号富国生命ビル渥美坂井法律事務所内,,13,101,1000011,,,2025-02-20,合併による解散等,8010003028360,令和７年１月１日東京都千代田区内幸町二丁目２番２号富国生命ビル渥美坂井法律事務所内ＪＢＧ　Ｌａｎｄ４合同会社（8010003028360）に合併し解散,2018-09-27,1,,,,,ジェイビージーランドシックス,0
1421,6010005014674,登記記録の閉鎖等,0,2025-03-05,2025-02-28,一般社団法人非営利芸術活動団体コマンドＮ,,その他の設立登記法人,東京都,千代田区,神田小川町２丁目４番地、優美堂,,13,101,1010052,,,2025-02-28,清算の結了等,,,2015-10-05,1,,,,,ヒエイリゲイジュツカツドウダンタイコマンドエヌ,0
1430,6010403023013,登記記録の閉鎖等,0,2025-03-05,2025-02-13,ＡｃａｄｉａＳｏｆｔ　Ｊａｐａｎ合同会社,,合同会社,東京都,港区,赤坂５丁目３番１号赤坂Ｂｉｚタワー３０階,,13,103,1070052,,,2025-02-13,清算の結了等,,,2020-05-25,1,,,,,アケイディアソフトジャパン,0
1433,6010405018515,登記記録の閉鎖等,0,2025-03-05,2025-02-13,スクワートホールディング１一般社団法人,,その他の設立登記法人,東京都,港区,虎ノ門３丁目２２番１０－２０１号,,13,103,1050001,,,2025-02-13,清算の結了等,,,2020-02-18,1,,,,,スクワートホールディングワン,0
1437,6010702000836,登記記録の閉鎖等,0,2025-03-05,2025-02-17,有限会社伊山合金鋳造所,,有限会社,東京都,品川区,西五反田３丁目１３番１４号,,13,109,1410031,,,2025-02-17,清算の結了等,,,2015-10-05,1,,,,,イヤマゴウキンチュウゾウショ,0
1458,6011701002798,登記記録の閉鎖等,0,2025-03-05,2025-02-26,株式会社小池屋,,株式会社,東京都,江戸川区,一之江５丁目５番１０号,,13,123,1320024,,,2025-02-26,清算の結了等,,,2015-10-05,1,,,,,コイケヤ,0
1465,6011801043833,登記記録の閉鎖等,0,2025-03-05,2025-03-03,株式会社ハースアプリケーションズ,,株式会社,東京都,葛飾区,東金町６丁目２７番２５－１０１号,,13,122,1250041,,,2025-03-03,清算の結了等,,,2024-02-22,1,,,,,ハースアプリケーションズ,0
1469,6012302007765,登記記録の閉鎖等,0,2025-03-05,2025-02-28,有限会社翠膳,,有限会社,東京都,町田市,原町田６丁目１５番１１号,,13,209,1940013,,,2025-02-28,清算の結了等,,,2015-10-05,1,,,,,スイゼン,0
1472,6012701011302,登記記録の閉鎖等,0,2025-03-05,2025-02-28,株式会社トラスト,,株式会社,東京都,東久留米市,下里３丁目５番２号,,13,222,2030043,,,2025-02-28,清算の結了等,,,2015-10-05,1,,,,,トラスト,0
1475,6020001017498,登記記録の閉鎖等,0,2025-03-05,2025-02-21,佐藤砿油株式会社,,株式会社,神奈川県,横浜市港北区,新吉田町５１３８番８号,,14,109,2230056,,,2025-02-21,清算の結了等,,,2015-10-05,1,,,,,サトウコウユ,0
1476,6020001040814,登記記録の閉鎖等,0,2025-03-05,2025-02-21,株式会社ミユーズ,,株式会社,神奈川県,横浜市港北区,師岡町２１３番地の３,,14,109,2220002,,,2025-02-21,清算の結了等,,,2015-10-05,1,,,,,ミューズ,0
1482,6020002059432,登記記録の閉鎖等,0,2025-03-05,2025-02-20,有限会社チュウオー商事,,有限会社,神奈川県,横浜市港南区,港南台７丁目４５番１７,,14,111,2340054,,,2025-02-20,清算の結了等,,,2015-10-05,1,,,,,,0
1484,6020003008116,登記記録の閉鎖等,0,2025-03-05,2025-02-21,合同会社トランクアンドリーフ,,合同会社,神奈川県,横浜市青葉区,大場町３８４番地２２,,14,117,2250023,,,2025-02-21,清算の結了等,,,2015-10-05,1,,,,,トランクアンドリーフ,0
1492,6021005005027,登記記録の閉鎖等,0,2025-03-05,2025-02-20,特定非営利活動法人プレアーキデザイン,,その他の設立登記法人,神奈川県,川崎市麻生区,上麻生４番地２２,,14,137,2150021,,,2025-02-20,清算の結了等,,,2015-10-05,1,,,,,プレアーキデザイン,0
1495,6030001123691,登記記録の閉鎖等,0,2025-03-05,2025-02-28,株式会社ＬＥＡＰ,,株式会社,埼玉県,さいたま市見沼区,大和田町２丁目３３２番地５,,11,104,3370053,,,2025-02-28,清算の結了等,,,2018-01-05,1,,,,,リープ,0
1512,6040003007710,登記記録の閉鎖等,0,2025-03-05,2025-02-26,ＡＫＺパートナーズ合同会社,,合同会社,千葉県,千葉市美浜区,打瀬２丁目６番地パティオス４番街３０８号,,12,106,2610013,,,2025-02-26,清算の結了等,,,2015-10-05,1,,,,,エーケーゼットパートナーズ,0
1522,6070001021660,登記記録の閉鎖等,0,2025-03-05,2025-03-03,株式会社協栄,,株式会社,群馬県,館林市,富士見町７番２０号,,10,207,3740027,,,2025-03-03,清算の結了等,,,2015-10-05,1,,,,,キョウエイ,0
1527,6080002003062,登記記録の閉鎖等,0,2025-03-05,2025-03-03,有限会社するが仏壇製作所,,有限会社,静岡県,静岡市駿河区,西脇１４６番地の２,,22,102,4228044,,,2025-03-03,清算の結了等,,,2015-10-05,1,,,,,,0
1533,6100001036192,登記記録の閉鎖等,0,2025-03-05,2025-02-26,株式会社ＮＥＥＤ,,株式会社,長野県,須坂市,大字須坂字宗石１２５７番３,,20,207,3820000,,,2025-02-26,合併による解散等,1100001016744,令和７年２月２０日長野県塩尻市大字洗馬３１１番地５株式会社ウィズ（1100001016744）に合併し解散,2023-03-03,1,,,,,ニード,0
1541,6120001201678,登記記録の閉鎖等,0,2025-03-05,2025-03-03,株式会社ワン・ダイニング,,株式会社,大阪府,大阪市西区,新町１丁目２７番９号,,27,106,5500013,,,2025-03-03,合併による解散等,2120001045096,令和７年３月１日大阪市西区新町一丁目２７番９号株式会社１＆Ｄ（2120001045096）に合併し解散,2016-11-09,1,,,,,ワンダイニング,0
1562,6130001008296,登記記録の閉鎖等,0,2025-03-05,2025-03-03,株式会社新盛建設,,株式会社,京都府,京都市西京区,大原野石見町１８番地の３,,26,111,6101128,,,2025-03-03,清算の結了等,,,2015-10-05,1,,,,,,0
1563,6130001023469,登記記録の閉鎖等,0,2025-03-05,2025-03-03,株式会社三加和,,株式会社,京都府,京都市右京区,西京極東大丸町２３番地,,26,108,6150807,,,2025-03-03,清算の結了等,,,2015-10-05,1,,,,,ミカワ,0
1579,6140005022714,登記記録の閉鎖等,0,2025-03-05,2025-02-28,一般社団法人伸楽福祉会,,その他の設立登記法人,兵庫県,明石市,大蔵天神町８番４号,,28,203,6730875,,,2025-02-28,清算の結了等,,,2015-12-21,1,,,,,シンガクフクシカイ,0
1580,6150001016727,登記記録の閉鎖等,0,2025-03-05,2025-03-03,株式会社食人,,株式会社,奈良県,奈良市,東九条町１２６番地の１,,29,201,6308144,,,2025-03-03,清算の結了等,,,2015-10-05,1,,,,,ショクニン,0
1582,6160001014779,登記記録の閉鎖等,0,2025-03-05,2025-03-03,株式会社セルミック,,株式会社,滋賀県,草津市,大路１丁目１－１－４階,,25,206,5250032,,,2025-03-03,清算の結了等,,,2015-10-05,1,,,,,セルミック,0
1613,6240001003534,登記記録の閉鎖等,0,2025-03-05,2025-03-03,小倉プリント株式会社,,株式会社,広島県,広島市西区,中広町３丁目３番１２号,,34,104,7330012,,,2025-03-03,合併による解散等,1240001022142,令和７年３月１日広島市西区中広町三丁目３番１２号株式会社広瀬印刷（1240001022142）に合併し解散,2015-10-05,1,,,,,オグラプリント,0
1616,6240001046293,登記記録の閉鎖等,0,2025-03-05,2025-03-03,株式会社ＪＩＣ,,株式会社,広島県,広島市中区,中町１０番１４号アイビル中町,,34,101,7300037,,,2025-03-03,清算の結了等,,,2015-10-05,1,,,,,ジェーアイシー,0
1642,6300001007181,登記記録の閉鎖等,0,2025-03-05,2025-03-03,株式会社工榮建設,,株式会社,佐賀県,唐津市,和多田先石３番２７号,,41,202,8470074,,,2025-03-03,清算の結了等,,,2015-10-05,1,,,,,コウエイケンセツ,0
1674,6380002032510,登記記録の閉鎖等,0,2025-03-05,2025-02-21,有限会社東亜エンジニア,,有限会社,福島県,会津若松市,館脇町２番２３号,,07,202,9650836,,,2025-02-21,清算の結了等,,,2015-10-05,1,,,,,トウアエンジニア,0
1675,6410002008515,登記記録の閉鎖等,0,2025-03-05,2025-03-03,有限会社サイセイ,,有限会社,秋田県,大館市,釈迦内字狼穴１２８番地,00086736,05,204,0170012,,,2025-03-03,清算の結了等,,,2015-10-05,1,,,,,,0
1694,7010001011716,登記記録の閉鎖等,0,2025-03-05,2025-02-17,株式会社エーアンドエフ建築事務所,00049138,株式会社,東京都,千代田区,飯田橋１丁目５番５号,,13,101,1020072,,,2025-02-17,清算の結了等,,,2015-10-05,1,,,,,エーアンドエフケンチクジムショ,0
1696,7010001179768,登記記録の閉鎖等,0,2025-03-05,2025-02-20,ＪＢＧ　Ｐｏｗｅｒ　Ｃｏｍｐａｎｙ株式会社,,株式会社,東京都,千代田区,永田町２丁目１１番１号山王パークタワー３階,,13,101,1000014,,,2025-02-20,合併による解散等,8010003028360,令和７年１月１日東京都千代田区内幸町二丁目２番２号富国生命ビル渥美坂井法律事務所内ＪＢＧ　Ｌａｎｄ４合同会社（8010003028360）に合併し解散,2016-11-22,1,,,,,ジェイビージーパワーカンパニー,0
1708,7010003024609,登記記録の閉鎖等,0,2025-03-05,2025-02-20,ＪＢＧ　ＰＳ２合同会社,,合同会社,東京都,千代田区,内幸町２丁目２番２号富国生命ビル１２階渥美坂井法律事務所内,,13,101,1000011,,,2025-02-20,合併による解散等,8010003028360,令和７年１月１日東京都千代田区内幸町二丁目２番２号富国生命ビル渥美坂井法律事務所内ＪＢＧ　Ｌａｎｄ４合同会社（8010003028360）に合併し解散,2017-01-10,1,,,,,ジェービージーピーエスツー,0
1710,7010003025160,登記記録の閉鎖等,0,2025-03-05,2025-02-20,ＪＢＧ　ＰＳ５合同会社,,合同会社,東京都,千代田区,内幸町２丁目２番２号富国生命ビル１２階渥美坂井法律事務所内,,13,101,1000011,,,2025-02-20,合併による解散等,8010003028360,令和７年１月１日東京都千代田区内幸町二丁目２番２号富国生命ビル渥美坂井法律事務所内ＪＢＧ　Ｌａｎｄ４合同会社（8010003028360）に合併し解散,2017-04-18,1,,,,,ジェービージーピーエスファイブ,0
1712,7010003025516,登記記録の閉鎖等,0,2025-03-05,2025-02-20,ＪＢＧ　ＰＳ１１合同会社,,合同会社,東京都,千代田区,内幸町２丁目２番２号富国生命ビル１２階渥美坂井法律事務所内,,13,101,1000011,,,2025-02-20,合併による解散等,8010003028360,令和７年１月１日東京都千代田区内幸町二丁目２番２号富国生命ビル渥美坂井法律事務所内ＪＢＧ　Ｌａｎｄ４合同会社（8010003028360）に合併し解散,2017-06-20,1,,,,,ジェービージーピーエスイレブン,0
1713,7010003025838,登記記録の閉鎖等,0,2025-03-05,2025-02-20,ＪＢＧ　ＰＳ２１合同会社,,合同会社,東京都,千代田区,内幸町２丁目２番２号富国生命ビル１２階渥美坂井法律事務所内,,13,101,1000011,,,2025-02-20,合併による解散等,8010003028360,令和７年１月１日東京都千代田区内幸町二丁目２番２号富国生命ビル渥美坂井法律事務所内ＪＢＧ　Ｌａｎｄ４合同会社（8010003028360）に合併し解散,2017-08-14,1,,,,,ジェイビージーピーエスニジュウイチ,0
1714,7010003027966,登記記録の閉鎖等,0,2025-03-05,2025-02-20,ＪＢＧ　ＰＳ３０合同会社,,合同会社,東京都,千代田区,内幸町２丁目２番２号富国生命ビル１２階渥美坂井法律事務所内,,13,101,1000011,,,2025-02-20,合併による解散等,8010003028360,令和７年１月１日東京都千代田区内幸町二丁目２番２号富国生命ビル渥美坂井法律事務所内ＪＢＧ　Ｌａｎｄ４合同会社（8010003028360）に合併し解散,2018-07-30,1,,,,,ジェイビージーピーエスサンジュウ,0
1715,7010003028361,登記記録の閉鎖等,0,2025-03-05,2025-02-20,ＪＢＧ　Ｌａｎｄ５合同会社,,合同会社,東京都,千代田区,内幸町２丁目２番２号富国生命ビル渥美坂井法律事務所内,,13,101,1000011,,,2025-02-20,合併による解散等,8010003028360,令和７年１月１日東京都千代田区内幸町二丁目２番２号富国生命ビル渥美坂井法律事務所内ＪＢＧ　Ｌａｎｄ４合同会社（8010003028360）に合併し解散,2018-09-27,1,,,,,ジェイビージーランドファイブ,0
1717,7010003034153,登記記録の閉鎖等,0,2025-03-05,2025-02-28,常総合同会社,,合同会社,東京都,港区,元赤坂１丁目１番８号株式会社赤坂国際会計内,,13,103,1070051,,,2025-02-28,清算の結了等,,,2021-02-09,1,,,,,ジョウソウ,0
1721,7010005021983,登記記録の閉鎖等,0,2025-03-05,2025-02-26,一般社団法人ＡＬＪ　ＣＥＮＴＲＡＬ　ＲＥ１,,その他の設立登記法人,東京都,千代田区,神田神保町１丁目１１番地さくら綜合事務所内,,13,101,1010051,,,2025-02-26,清算の結了等,,,2015-10-05,1,,,,,エーエルジェーセントラルアールイーワン,0
1730,7010401133143,登記記録の閉鎖等,0,2025-03-05,2025-02-17,株式会社エムズコーポレーション,,株式会社,東京都,中央区,新川２丁目１８番４号八重洲マンション４０１,,13,102,1040033,,,2025-02-17,清算の結了等,,,2017-08-21,1,,,,,エムズコーポレーション,0
1743,7010702001610,登記記録の閉鎖等,0,2025-03-05,2025-02-14,有限会社王将煎餅本舗,,有限会社,東京都,品川区,北品川２丁目１１番１２号,,13,109,1400001,,,2025-02-14,清算の結了等,,,2015-10-05,1,,,,,オウショウセンベイホンポ,0
1780,7011802025128,登記記録の閉鎖等,0,2025-03-05,2025-02-28,有限会社トライ,,有限会社,東京都,葛飾区,東四つ木２丁目１１番１４－５０２号マイキャッスル四ツ木,,13,122,1240014,,,2025-02-28,清算の結了等,,,2015-10-05,1,,,,,トライ,0
1801,7020002060455,登記記録の閉鎖等,0,2025-03-05,2025-02-20,有限会社システム安全研究所,,有限会社,神奈川県,横浜市保土ケ谷区,仏向町１２７９番地１８,,14,106,2400044,,,2025-02-20,清算の結了等,,,2015-10-05,1,,,,,システムアンゼンケンキュウジョ,0
1804,7020002101201,登記記録の閉鎖等,0,2025-03-05,2025-02-21,有限会社オフィス・リファイン,,有限会社,神奈川県,川崎市麻生区,岡上６丁目６番１７号,,14,137,2150027,,,2025-02-21,清算の結了等,,,2015-10-05,1,,,,,オフィスリファイン,0
1831,7030002041545,登記記録の閉鎖等,0,2025-03-05,2025-02-28,有限会社アムール,,有限会社,埼玉県,羽生市,大字上新郷６９４０番地１,,11,216,3480041,,,2025-02-28,清算の結了等,,,2015-10-05,1,,,,,アムール,0
1832,7030002114243,登記記録の閉鎖等,0,2025-03-05,2025-02-26,有限会社丸大商事,,有限会社,埼玉県,熊谷市,下奈良１７８５番地,,11,202,3600802,,,2025-02-26,清算の結了等,,,2015-10-05,1,,,,,マルダイショウジ,0
1833,7030003002595,登記記録の閉鎖等,0,2025-03-05,2025-02-27,合資会社ビーンズ,,合資会社,埼玉県,南埼玉郡宮代町,和戸２丁目６番３３号,,11,442,3450836,,,2025-02-27,清算の結了等,,,2015-10-05,1,,,,,ビーンズ,0
1850,7060002022708,登記記録の閉鎖等,0,2025-03-05,2025-02-28,有限会社豊栄産業,,有限会社,栃木県,那須塩原市,東栄２丁目３番３２号,,09,213,3250016,,,2025-02-28,清算の結了等,,,2015-10-05,1,,,,,ホウエイサンギョウ,0
1873,7120001161698,登記記録の閉鎖等,0,2025-03-05,2025-03-03,株式会社ＥＳＰ,,株式会社,東京都,中野区,東中野１丁目５７番７号,,13,114,1640003,,,2025-03-03,清算の結了等,,,2015-10-05,1,,,,,イーエスピー,0
1874,7120001166623,登記記録の閉鎖等,0,2025-03-05,2025-02-25,株式会社Ｓ－ｃｏｍｐａｎｙ,,株式会社,大阪府,門真市,三ツ島６丁目２２番２３号,,27,223,5710015,,,2025-02-25,清算の結了等,,,2015-10-05,1,,,,,エスカンパニー,0
1882,7120002012776,登記記録の閉鎖等,0,2025-03-05,2025-03-03,有限会社木村商店,,有限会社,大阪府,大阪市天王寺区,大道２丁目１３番２３号,,27,109,5430052,,,2025-03-03,清算の結了等,,,2015-10-05,1,,,,,キムラショウテン,0
1883,7120002059586,登記記録の閉鎖等,0,2025-03-05,2025-02-28,有限会社高殿チャイルドケアセンター,,有限会社,大阪府,大阪市旭区,高殿６丁目９番４１号,,27,117,5350031,,,2025-02-28,清算の結了等,,,2015-10-05,1,,,,,タカドノチャイルドケアセンター,0
1894,7122003002764,登記記録の閉鎖等,0,2025-03-05,2025-02-27,合同会社灰猫,,合同会社,大阪府,東大阪市,小阪２丁目４－１８－７０５,,27,227,5770801,,,2025-02-27,清算の結了等,,,2024-01-09,1,,,,,ハイネ,0
1926,7180003024988,登記記録の閉鎖等,0,2025-03-05,2025-02-27,縁ｃｏｕｎｔｅＲ合同会社,,合同会社,愛知県,名古屋市瑞穂区,弥富通四丁目２８番地丸美ロイヤル瑞穂５０１号,,23,108,4670000,,,2025-02-27,清算の結了等,,,2023-03-16,1,,,,,エンカウンター,0
1936,7200001017272,登記記録の閉鎖等,0,2025-03-05,2025-02-26,株式会社ハイエスト,,株式会社,岐阜県,美濃加茂市,川合町１丁目１３番３９号,,21,211,5050022,,,2025-02-26,清算の結了等,,,2023-01-13,1,,,,,ハイエスト,0
1948,7260001008448,登記記録の閉鎖等,0,2025-03-05,2025-03-03,ゴフェル株式会社,,株式会社,岡山県,岡山市北区,野田３丁目２０番８号,,33,101,7000971,,,2025-03-03,合併による解散等,8260001029047,令和７年３月１日岡山市北区田町一丁目２番１０号株式会社ゴフェルテック（8260001029047）に合併し解散,2015-10-05,1,,,,,ゴフェル,0
1967,7320001017657,登記記録の閉鎖等,0,2025-03-05,2025-03-03,ｂｙｃＢｒｕ株式会社,,株式会社,大分県,大分市,大字皆春２２番地,,44,201,8700131,,,2025-03-03,清算の結了等,,,2020-04-10,1,,,,,バイスブルー,0
1982,7360002019995,登記記録の閉鎖等,0,2025-03-05,2025-03-03,有限会社塩屋工業,,有限会社,沖縄県,国頭郡大宜味村,字塩屋６９５番地,,47,302,9051311,,,2025-03-03,清算の結了等,,,2015-10-05,1,,,,,シオヤコウギョウ,0
1989,7380001029688,登記記録の閉鎖等,0,2025-03-05,2025-02-26,株式会社ホープメディア,,株式会社,福島県,福島市,花園町２番２９号,,07,201,9608112,,,2025-02-26,清算の結了等,,,2019-01-09,1,,,,,ホープメディア,0
1993,7410001003441,登記記録の閉鎖等,0,2025-03-05,2025-03-03,株式会社シック関口,,株式会社,秋田県,南秋田郡五城目町,字羽黒前１０１番地の１,,05,361,0181703,,,2025-03-03,清算の結了等,,,2015-10-05,1,,,,,,0
2004,7450002004468,登記記録の閉鎖等,0,2025-03-05,2025-03-03,有限会社福島巧匠,,有限会社,北海道,上川郡東川町,西町６丁目４２３番５１,,01,458,0711425,,,2025-03-03,清算の結了等,,,2015-10-05,1,,,,,,0
2017,8010003024608,登記記録の閉鎖等,0,2025-03-05,2025-02-20,ＪＢＧ　Ｌａｎｄ１合同会社,,合同会社,東京都,千代田区,内幸町２丁目２番２号富国生命ビル１２階渥美坂井法律事務所内,,13,101,1000011,,,2025-02-20,合併による解散等,8010003028360,令和７年１月１日東京都千代田区内幸町二丁目２番２号富国生命ビル渥美坂井法律事務所内ＪＢＧ　Ｌａｎｄ４合同会社（8010003028360）に合併し解散,2017-01-10,1,,,,,ジェイビージーランドワン,0
2019,8010003025424,登記記録の閉鎖等,0,2025-03-05,2025-02-20,ＪＢＧ　ＰＳ８合同会社,,合同会社,東京都,千代田区,内幸町２丁目２番２号富国生命ビル１２階渥美坂井法律事務所内,,13,101,1000011,,,2025-02-20,合併による解散等,8010003028360,令和７年１月１日東京都千代田区内幸町二丁目２番２号富国生命ビル渥美坂井法律事務所内ＪＢＧ　Ｌａｎｄ４合同会社（8010003028360）に合併し解散,2017-06-01,1,,,,,ジェービージーピーエスエイト,0
2020,8010003025523,登記記録の閉鎖等,0,2025-03-05,2025-02-20,ＪＢＧ　ＰＳ１６合同会社,,合同会社,東京都,千代田区,内幸町２丁目２番２号富国生命ビル１２階渥美坂井法律事務所内,,13,101,1000011,,,2025-02-20,合併による解散等,8010003028360,令和７年１月１日東京都千代田区内幸町二丁目２番２号富国生命ビル渥美坂井法律事務所内ＪＢＧ　Ｌａｎｄ４合同会社（8010003028360）に合併し解散,2017-06-20,1,,,,,ジェイビージーピーエスジュウロク,0
2021,8010003025837,登記記録の閉鎖等,0,2025-03-05,2025-02-20,ＪＢＧ　ＰＳ２０合同会社,,合同会社,東京都,千代田区,内幸町２丁目２番２号富国生命ビル１２階渥美坂井法律事務所内,,13,101,1000011,,,2025-02-20,合併による解散等,8010003028360,令和７年１月１日東京都千代田区内幸町二丁目２番２号富国生命ビル渥美坂井法律事務所内ＪＢＧ　Ｌａｎｄ４合同会社（8010003028360）に合併し解散,2017-08-14,1,,,,,ジェイビージーピーエスニジュウ,0
2022,8010003027965,登記記録の閉鎖等,0,2025-03-05,2025-02-20,ＪＢＧ　ＰＳ２９合同会社,,合同会社,東京都,千代田区,内幸町２丁目２番２号富国生命ビル１２階渥美坂井法律事務所内,,13,101,1000011,,,2025-02-20,合併による解散等,8010003028360,令和７年１月１日東京都千代田区内幸町二丁目２番２号富国生命ビル渥美坂井法律事務所内ＪＢＧ　Ｌａｎｄ４合同会社（8010003028360）に合併し解散,2018-07-30,1,,,,,ジェイビージーピーエスニジュウキュウ,0
2023,8010005026073,登記記録の閉鎖等,0,2025-03-05,2025-02-27,一般社団法人空き家ゼロ推進協議会,,その他の設立登記法人,東京都,千代田区,内神田１丁目１４番８号ＫＡＮＤＡＳＱＵＡＲＥＧＡＴＥ７階,,13,101,1010047,,,2025-02-27,清算の結了等,,,2016-12-01,1,,,,,アキヤゼロスイシンキョウギカイ,0
2029,8010401176059,登記記録の閉鎖等,0,2025-03-05,2025-02-05,ジョブダ株式会社,,株式会社,東京都,港区,六本木６丁目１１番１号,,13,103,1060032,,,2025-02-05,合併による解散等,5010401093562,令和７年２月１日東京都港区六本木六丁目１１番１号Ｇｌｏｓｓｏｍ株式会社（5010401093562）に合併し解散,2023-08-01,1,,,,,ジョブダ,0
2037,8010405016434,登記記録の閉鎖等,0,2025-03-05,2025-02-13,万座瀬良垣ホールディング１一般社団法人,,その他の設立登記法人,東京都,港区,虎ノ門３丁目２２番１０－２０１号,,13,103,1050001,,,2025-02-13,清算の結了等,,,2018-02-08,1,,,,,マンザセラガキホールディングワン,0
2040,8010701007104,登記記録の閉鎖等,0,2025-03-05,2025-02-17,株式会社常盤商会,,株式会社,東京都,品川区,中延４丁目７番２０号,,13,109,1420053,,,2025-02-17,清算の結了等,,,2015-10-05,1,,,,,,0
2069,8011801016812,登記記録の閉鎖等,0,2025-03-05,2025-03-03,株式会社みやま園,,株式会社,東京都,足立区,西伊興１丁目５番２３号,,13,121,1210824,,,2025-03-03,清算の結了等,,,2015-10-05,1,,,,,ミヤマエン,0
2085,8020001155445,登記記録の閉鎖等,0,2025-03-05,2025-02-20,株式会社ＦＬＡＴ‐ＲＵＮ,,株式会社,神奈川県,横浜市西区,浅間町１丁目４番３号ウィザードビル４０２,,14,103,2200072,,,2025-02-20,清算の結了等,,,2024-01-25,1,,,,,フラットラン,0
2092,8020003025506,登記記録の閉鎖等,0,2025-03-05,2025-02-19,合同会社オリーブ,,合同会社,神奈川県,川崎市麻生区,王禅寺東４丁目８番８号,,14,137,2150018,,,2025-02-19,清算の結了等,,,2024-02-07,1,,,,,オリーブ,0
2099,8021002018467,登記記録の閉鎖等,0,2025-03-05,2025-03-04,有限会社江成電業,,有限会社,神奈川県,相模原市中央区,田名５９９５番地の４,,14,152,2520244,,,2025-03-04,清算の結了等,,,2015-10-05,1,,,,,,0
2104,8030001113757,登記記録の閉鎖等,0,2025-03-05,2025-02-28,株式会社Ｂアスポート,,株式会社,埼玉県,蓮田市,大字根金１４６４番地の１,,11,238,3490131,,,2025-02-28,清算の結了等,,,2016-04-08,1,,,,,ビーアスポート,0
2113,8030003015753,登記記録の閉鎖等,0,2025-03-05,2025-02-17,晴どき合同会社,,合同会社,東京都,中央区,月島１丁目３－１４－４０５,,13,102,1040052,,,2025-02-17,清算の結了等,,,2020-08-24,1,,,,,ハレドキ,0
2124,8050002002404,登記記録の閉鎖等,0,2025-03-05,2025-02-28,有限会社中田表具店,,有限会社,茨城県,水戸市,東台１丁目７番２４号,,08,201,3100818,,,2025-02-28,清算の結了等,,,2015-10-05,1,,,,,ナカタヒョウグテン,0
2133,8080005007298,登記記録の閉鎖等,0,2025-03-05,2025-02-28,特定非営利活動法人Ｃａｆｅ　ｄｅ寺子屋,,その他の設立登記法人,静岡県,藤枝市,堀之内１丁目１４番地の３,,22,214,4260088,,,2025-02-28,清算の結了等,,,2020-08-12,1,,,,,カフェデテラコヤ,0
2137,8080105005821,登記記録の閉鎖等,0,2025-03-05,2025-02-28,一般社団法人ブルーエコ協議会,,その他の設立登記法人,静岡県,伊東市,八幡野１０４１番地の１２０,,22,208,4130232,,,2025-02-28,清算の結了等,,,2018-01-29,1,,,,,ブルーエコキョウギカイ,0
2145,8110005004671,登記記録の閉鎖等,0,2025-03-05,2025-02-18,田貝山生産森林組合,,その他の設立登記法人,新潟県,新発田市,田貝２６８番地２,,15,206,9570333,,,2025-02-18,清算の結了等,,,2015-10-05,1,,,,,タガイヤマ,0
2166,8120902016743,登記記録の閉鎖等,0,2025-03-05,2025-02-26,有限会社パイレーツ,,有限会社,大阪府,池田市,住吉１丁目１３番２３－２０１,,27,204,5630033,,,2025-02-26,清算の結了等,,,2015-10-05,1,,,,,パイレーツ,0
2171,8140001003402,登記記録の閉鎖等,0,2025-03-05,2025-02-28,株式会社阪本通商,,株式会社,兵庫県,神戸市灘区,桜口町３丁目３番１号,,28,102,6570036,,,2025-02-28,清算の結了等,,,2015-10-05,1,,,,,サカモトツウショウ,0
2174,8140001092949,登記記録の閉鎖等,0,2025-03-05,2025-02-28,株式会社ユナイテッドサポート,,株式会社,兵庫県,神戸市西区,学園東町６丁目１番地の１,,28,111,6512102,,,2025-02-28,清算の結了等,,,2015-10-05,1,,,,,ユナイテッドサポート,0
2190,8180002056486,登記記録の閉鎖等,0,2025-03-05,2025-03-03,有限会社アテナ,,有限会社,愛知県,名古屋市守山区,城南町１７番２８号,,23,113,4630014,,,2025-03-03,清算の結了等,,,2015-10-05,1,,,,,アテナ,0
2191,8180003015433,登記記録の閉鎖等,0,2025-03-05,2025-02-28,合同会社ハンサントレディング,,合同会社,愛知県,名古屋市天白区,平針南４丁目１３２番地,,23,116,4680020,,,2025-02-28,清算の結了等,,,2015-10-05,1,,,,,ハンサントレディング,0
2198,8190001008603,登記記録の閉鎖等,0,2025-03-05,2025-03-03,株式会社西徳園,,株式会社,三重県,伊賀市,富永７７４番地,,24,216,5181417,,,2025-03-03,清算の結了等,,,2015-10-05,1,,,,,ニシトクエン,0
2205,8200001020291,登記記録の閉鎖等,0,2025-03-05,2025-03-04,株式会社ボーノプランニング,,株式会社,岐阜県,美濃加茂市,森山町５丁目１２番１４号,,21,211,5050021,,,2025-03-04,清算の結了等,,,2015-10-05,1,,,,,ボーノプランニング,0
2208,8210001000607,登記記録の閉鎖等,0,2025-03-05,2025-03-04,株式会社オオスガハウジング,,株式会社,福井県,福井市,春日１丁目１５番１９号,,18,201,9188108,,,2025-03-04,清算の結了等,,,2015-10-05,1,,,,,オオスガハウジング,0
2261,8360002013213,登記記録の閉鎖等,0,2025-03-05,2025-02-21,有限会社大嶺設備,,有限会社,沖縄県,うるま市,字高江洲５７７番地４,,47,213,9042242,,,2025-02-21,清算の結了等,,,2015-10-05,1,,,,,オオミネセツビ,0
2270,8400001013936,登記記録の閉鎖等,0,2025-03-05,2025-02-19,株式会社フリップフード,,株式会社,岩手県,花巻市,南城１０４番地６,,03,205,0250021,,,2025-02-19,清算の結了等,,,2017-11-28,1,,,,,フリップフード,0
2303,9010003025159,登記記録の閉鎖等,0,2025-03-05,2025-02-20,ＪＢＧ　ＰＳ４合同会社,,合同会社,東京都,千代田区,内幸町２丁目２番２号富国生命ビル１２階渥美坂井法律事務所内,,13,101,1000011,,,2025-02-20,合併による解散等,8010003028360,令和７年１月１日東京都千代田区内幸町二丁目２番２号富国生命ビル渥美坂井法律事務所内ＪＢＧ　Ｌａｎｄ４合同会社（8010003028360）に合併し解散,2017-04-18,1,,,,,ジェービージーピーエスフォー,0
2304,9010003025836,登記記録の閉鎖等,0,2025-03-05,2025-02-20,ＪＢＧ　ＰＳ１９合同会社,,合同会社,東京都,千代田区,内幸町２丁目２番２号富国生命ビル１２階渥美坂井法律事務所内,,13,101,1000011,,,2025-02-20,合併による解散等,8010003028360,令和７年１月１日東京都千代田区内幸町二丁目２番２号富国生命ビル渥美坂井法律事務所内ＪＢＧ　Ｌａｎｄ４合同会社（8010003028360）に合併し解散,2017-08-14,1,,,,,ジェイビージーピーエスジュウキュウ,0
2305,9010003027964,登記記録の閉鎖等,0,2025-03-05,2025-02-20,ＪＢＧ　ＰＳ２８合同会社,,合同会社,東京都,千代田区,内幸町２丁目２番２号富国生命ビル１２階渥美坂井法律事務所内,,13,101,1000011,,,2025-02-20,合併による解散等,8010003028360,令和７年１月１日東京都千代田区内幸町二丁目２番２号富国生命ビル渥美坂井法律事務所内ＪＢＧ　Ｌａｎｄ４合同会社（8010003028360）に合併し解散,2018-07-30,1,,,,,ジェイビージーピーエスニジュウハチ,0
2306,9010003028368,登記記録の閉鎖等,0,2025-03-05,2025-02-20,ＪＢＧ　Ｌａｎｄ１２合同会社,,合同会社,東京都,千代田区,内幸町２丁目２番２号富国生命ビル渥美坂井法律事務所内,,13,101,1000011,,,2025-02-20,合併による解散等,8010003028360,令和７年１月１日東京都千代田区内幸町二丁目２番２号富国生命ビル渥美坂井法律事務所内ＪＢＧ　Ｌａｎｄ４合同会社（8010003028360）に合併し解散,2018-09-27,1,,,,,ジェイビージーランドトゥエルブ,0
2313,9010405020914,登記記録の閉鎖等,0,2025-03-05,2025-02-12,一般社団法人Ｄａｍｒｅｙ,,その他の設立登記法人,東京都,港区,虎ノ門５丁目１番４号,,13,103,1050001,,,2025-02-12,清算の結了等,,,2022-04-11,1,,,,,ダムレイ,0
2324,9010701042422,登記記録の閉鎖等,0,2025-03-05,2025-02-17,株式会社Ｃｔｙｕｐ,,株式会社,東京都,品川区,西品川１丁目１番１号住友不動産大崎ガーデンタワー９階,,13,109,1410033,,,2025-02-17,清算の結了等,,,2022-03-29,1,,,,,シータイプ,0
2361,9013103000782,登記記録の閉鎖等,0,2025-03-05,2025-03-03,株式会社たんぽぽのわたげ,,株式会社,東京都,あきる野市,舘谷８６－２るわん五日市蔵店,,13,228,1900163,,,2025-03-03,清算の結了等,,,2017-09-05,1,,,,,タンポポノワタゲ,0
2363,9020001065024,登記記録の閉鎖等,0,2025-03-05,2025-02-05,株式会社エヌエス,,株式会社,神奈川県,川崎市麻生区,白鳥４丁目３－３２ベラクリヒラ２０３,,14,137,2150024,,,2025-02-05,清算の結了等,,,2015-10-05,1,,,,,エヌエス,0
2368,9020003012981,登記記録の閉鎖等,0,2025-03-05,2025-02-21,Ｋ．Ｃｏｎｓｕｌｔｉｎｇ合同会社,,合同会社,神奈川県,横浜市神奈川区,松ケ丘３３番地８,,14,102,2210843,,,2025-02-21,清算の結了等,,,2017-07-07,1,,,,,ケイコンサルティング,0
2373,9021002014589,登記記録の閉鎖等,0,2025-03-05,2025-03-03,コーワシステム有限会社,,有限会社,神奈川県,鎌倉市,大町３丁目１５番３１号,,14,204,2480007,,,2025-03-03,清算の結了等,,,2015-10-05,1,,,,,コーワシステム,0
2383,9030001158917,登記記録の閉鎖等,0,2025-03-05,2025-02-28,株式会社Ｒｅｎｏ　Ｗａｒｍｔｈ,,株式会社,埼玉県,川越市,熊野町２番地５７,,11,201,3501146,,,2025-02-28,清算の結了等,,,2024-02-28,1,,,,,リノウォームス,0
2406,9060002019545,登記記録の閉鎖等,0,2025-03-05,2025-03-03,有限会社イチダ,,有限会社,栃木県,鹿沼市,茂呂１１８８番地１,,09,205,3220026,,,2025-03-03,清算の結了等,,,2015-10-05,1,,,,,イチダ,0
2407,9070001015932,登記記録の閉鎖等,0,2025-03-05,2025-03-03,株式会社栗光,,株式会社,群馬県,桐生市,桜木町１３８３番地８,,10,203,3760012,,,2025-03-03,清算の結了等,,,2015-10-05,1,,,,,クリミツ,0
2408,9070001036722,登記記録の閉鎖等,0,2025-03-05,2025-03-03,七福ホーム株式会社,,株式会社,群馬県,高崎市,保渡田町１４７９番地１０,,10,202,3703533,,,2025-03-03,清算の結了等,,,2020-04-03,1,,,,,シチフクホーム,0
2412,9080001011427,登記記録の閉鎖等,0,2025-03-05,2025-03-03,株式会社静岡エイケン,,株式会社,静岡県,静岡市駿河区,丸子３４３６番地の１,,22,102,4210103,,,2025-03-03,清算の結了等,,,2015-10-05,1,,,,,シズオカエイケン,0
2426,9120001021693,登記記録の閉鎖等,0,2025-03-05,2025-03-03,株式会社松井熔工所,,株式会社,大阪府,大阪市平野区,加美南１丁目１２番１２号,,27,126,5470003,,,2025-03-03,清算の結了等,,,2015-10-05,1,,,,,マツイヨウコウジョ,0
2428,9120001070534,登記記録の閉鎖等,0,2025-03-05,2025-02-28,的場商事株式会社,,株式会社,大阪府,大阪市北区,西天満３丁目１番２０号,,27,127,5300047,,,2025-02-28,清算の結了等,,,2015-10-05,1,,,,,マトバショウジ,0
2431,9120001135196,登記記録の閉鎖等,0,2025-03-05,2025-02-28,小泉ライフテックス株式会社,,株式会社,大阪府,大阪市中央区,備後町３丁目１番８号,,27,128,5410051,,,2025-02-28,合併による解散等,3120001077411,令和７年２月２８日大阪市中央区備後町三丁目１番８号小泉株式会社（3120001077411）に合併し解散,2015-10-05,1,,,,,コイズミライフテックス,0
2469,9180001128120,登記記録の閉鎖等,0,2025-03-05,2025-02-26,株式会社ナルミ杉本,,株式会社,愛知県,名古屋市緑区,鳥澄１丁目２０９番地,,23,114,4580025,,,2025-02-26,清算の結了等,,,2017-06-06,1,,,,,ナルミスギモト,0
2477,9180301014409,登記記録の閉鎖等,0,2025-03-05,2025-02-26,株式会社ハラテック,,株式会社,愛知県,刈谷市,高須町１丁目２３番地１４,,23,210,4480812,,,2025-02-26,清算の結了等,,,2015-10-05,1,,,,,ハラテック,0
2496,9240001050978,登記記録の閉鎖等,0,2025-03-05,2025-02-28,株式会社グリーンアース,,株式会社,広島県,福山市,東吉津町６番４１号パナハイツ東吉津１０３号室,,34,207,7200071,,,2025-02-28,清算の結了等,,,2017-04-24,1,,,,,グリーンアース,0
2497,9240001059251,登記記録の閉鎖等,0,2025-03-05,2025-02-04,株式会社ｍｃｋ,,株式会社,広島県,広島市西区,己斐東１丁目２番１０－５０１号,,34,104,7330811,,,2025-02-04,清算の結了等,,,2022-01-31,1,,,,,エムシーケイ,0
2513,9290005015048,登記記録の閉鎖等,0,2025-03-05,2025-02-13,ＮＰＯ法人生活環境ネットＣ＆Ｃ,,その他の設立登記法人,福岡県,大野城市,緑ケ丘３丁目１２番９号,,40,219,8160961,,,2025-02-13,清算の結了等,,,2015-10-05,1,,,,,セイカツカンキョウネットシーアンドシー,0
2516,9290801013634,登記記録の閉鎖等,0,2025-03-05,2025-03-03,株式会社三商テック,,株式会社,福岡県,北九州市若松区,桜町２１番１８号,,40,103,8080026,,,2025-03-03,清算の結了等,,,2015-10-05,1,,,,,サンショウテック,0
2525,9310003001518,登記記録の閉鎖等,0,2025-03-05,2025-02-25,合同会社ケアパートナー,,合同会社,長崎県,佐世保市,矢峰町１１９番地１,,42,202,8570133,,,2025-02-25,清算の結了等,,,2015-10-05,1,,,,,ケアパートナー,0
2559,9450003001644,登記記録の閉鎖等,0,2025-03-05,2025-03-03,合同会社インテリア巧匠,,合同会社,北海道,旭川市,末広六条６丁目４番２号,,01,204,0718136,,,2025-03-03,清算の結了等,,,2017-08-03,1,,,,,,0
