sequenceNumber,corporateNumber,process,correct,updateDate,changeDate,name,nameImageId,kind,prefectureName,cityName,streetNumber,addressImageId,prefectureCode,cityCode,postCode,addressOutside,addressOutsideImageId,closeDate,closeCause,successorCorporateNumber,changeCause,assignmentDate,latest,enName,enPrefectureName,enCityName,enAddressOutside,furigana,hihyoji
6,1010001201000,登記記録の閉鎖等,0,2022-09-09,2022-09-01,株式会社クリエイト・スポーツ＆レジャー,,株式会社,東京都,品川区,東五反田５丁目１０番１８号,,13,109,1410022,,,2022-09-01,合併による解散等,2010701026019,令和４年９月１日東京都品川区東五反田五丁目１０番１８号株式会社クリエイト・レストランツ（2010701026019）に合併し解散,2019-05-21,1,,,,,クリエイトスポーツアンドレジャー,0
10,1010003029134,登記記録の閉鎖等,0,2022-09-09,2022-09-02,合同会社サポート３０号,,合同会社,東京都,千代田区,丸の内３丁目１番１号東京共同会計事務所内,,13,101,1000005,,,2022-09-02,清算の結了等,,,2019-01-24,1,,,,,サポートサンジュウゴウ,0
15,1010401088112,登記記録の閉鎖等,0,2022-09-09,2022-09-01,ユナイテッド・エンターテインメント・ホールディングス株式会社,,株式会社,東京都,品川区,大崎１丁目１１番２号,,13,109,1410032,,,2022-09-01,合併による解散等,3010401039039,令和４年９月１日東京都品川区大崎一丁目１１番２号ユナイテッド・シネマ株式会社（3010401039039）に合併し解散,2015-10-05,1,,,,,ユナイテッドエンターテインメントホールディングス,0
60,1011601016688,登記記録の閉鎖等,0,2022-09-09,2022-09-07,インテグラル恒産株式会社,,株式会社,東京都,練馬区,貫井１丁目１３番１０号,,13,120,1760021,,,2022-09-07,清算の結了等,,,2015-10-05,1,,,,,インテグラルコウサン,0
74,1013301042460,登記記録の閉鎖等,0,2022-09-09,2022-09-05,株式会社アウル,,株式会社,東京都,豊島区,上池袋４丁目４６番１２号第久ハイツ１０２,,13,116,1700012,,,2022-09-05,清算の結了等,,,2018-06-25,1,,,,,アウル,0
76,1013401004674,登記記録の閉鎖等,0,2022-09-09,2022-09-07,株式会社エフシック,,株式会社,東京都,多摩市,和田２番地の２－４０３,,13,224,2060001,,,2022-09-07,清算の結了等,,,2015-10-05,1,,,,,,0
77,1020001003742,登記記録の閉鎖等,0,2022-09-09,2022-09-05,株式会社カサイ,,株式会社,神奈川県,横浜市港南区,上永谷１丁目７番４８号,,14,111,2330012,,,2022-09-05,清算の結了等,,,2015-10-05,1,,,,,カサイ,0
78,1020001117591,登記記録の閉鎖等,0,2022-09-09,2022-09-05,株式会社トラストネッド,,株式会社,神奈川県,川崎市高津区,久末６２５番地,,14,134,2130026,,,2022-09-05,清算の結了等,,,2016-08-24,1,,,,,トラストネッド,0
86,1021001013244,登記記録の閉鎖等,0,2022-09-09,2022-09-06,株式会社東海設備設計事務所,,株式会社,神奈川県,相模原市中央区,淵野辺本町２丁目１９番１７号,,14,152,2520202,,,2022-09-06,清算の結了等,,,2015-10-05,1,,,,,トウカイセツビセッケイジムショ,0
87,1021001040024,登記記録の閉鎖等,0,2022-09-09,2022-09-06,永光薬品株式会社,,株式会社,神奈川県,横須賀市,追浜本町２丁目３１番地２９,,14,201,2370068,,,2022-09-06,清算の結了等,,,2015-10-05,1,,,,,エイコウヤクヒン,0
91,1021001053570,登記記録の閉鎖等,0,2022-09-09,2022-09-05,緑株式会社,,株式会社,神奈川県,綾瀬市,早川西山１７７６－７,,14,218,2521123,,,2022-09-05,清算の結了等,,,2015-10-05,1,,,,,ミドリ,0
97,1021002055797,登記記録の閉鎖等,0,2022-09-09,2022-09-06,有限会社武自動車整備工場,,有限会社,神奈川県,足柄上郡山北町,山北３００２番地,,14,364,2580113,,,2022-09-06,清算の結了等,,,2015-10-05,1,,,,,タケジドウシャセイビコウジョウ,0
115,1030002010027,登記記録の閉鎖等,0,2022-09-09,2022-08-31,有限会社南蛮亭,,有限会社,埼玉県,さいたま市緑区,太田窪３丁目７番１２号,,11,109,3360936,,,2022-08-31,清算の結了等,,,2015-10-05,1,,,,,ナンバンテイ,0
116,1030002022757,登記記録の閉鎖等,0,2022-09-09,2022-08-30,有限会社善方設備,,有限会社,埼玉県,さいたま市岩槻区,大字馬込１２３７番地の４,,11,110,3390077,,,2022-08-30,清算の結了等,,,2015-10-05,1,,,,,ゼンポウセツビ,0
127,1040002068171,登記記録の閉鎖等,0,2022-09-09,2022-09-02,有限会社今関,,有限会社,千葉県,袖ケ浦市,蔵波１９８４番地,,12,229,2990243,,,2022-09-02,清算の結了等,,,2015-10-05,1,,,,,イマゼキ,0
130,1040005021334,登記記録の閉鎖等,0,2022-09-09,2022-09-05,ＮＰＯ法人ＤＡＹＳ,,その他の設立登記法人,千葉県,船橋市,印内町６６８番地１ファミール西船橋六番館８０２号,,12,204,2730025,,,2022-09-05,清算の結了等,,,2021-08-31,1,,,,,デイズ,0
144,1080401022709,登記記録の閉鎖等,0,2022-09-09,2022-09-06,株式会社ＰＥＫ,,株式会社,静岡県,掛川市,下垂木２３４９番地の１,,22,213,4360222,,,2022-09-06,清算の結了等,,,2018-02-07,1,,,,,ペック,0
196,1140002048312,登記記録の閉鎖等,0,2022-09-09,2022-09-01,有限会社クマダ,,有限会社,兵庫県,姫路市,西二階町３４番地,,28,201,6700901,,,2022-09-01,清算の結了等,,,2015-10-05,1,,,,,クマダ,0
203,1170002006283,登記記録の閉鎖等,0,2022-09-09,2022-09-07,有限会社アプリーレ,,有限会社,和歌山県,海南市,船尾２１５番地の１３,,30,202,6420001,,,2022-09-07,清算の結了等,,,2015-10-05,1,,,,,アプリーレ,0
226,1180303002253,登記記録の閉鎖等,0,2022-09-09,2022-09-01,合資会社石芳,,合資会社,愛知県,高浜市,田戸町７丁目６番地２４,,23,227,4441323,,,2022-09-01,清算の結了等,,,2015-10-05,1,,,,,イシヨシ,0
231,1190002016421,登記記録の閉鎖等,0,2022-09-09,2022-09-06,有限会社おかむら,,有限会社,三重県,桑名市,中央町２丁目８番地,,24,205,5110068,,,2022-09-06,清算の結了等,,,2015-10-05,1,,,,,オカムラ,0
237,1210002011700,登記記録の閉鎖等,0,2022-09-09,2022-09-06,有限会社スギモト,,有限会社,福井県,越前市,北山町第５４号３番地,,18,209,9150897,,,2022-09-06,清算の結了等,,,2015-10-05,1,,,,,スギモト,0
250,1270002004780,登記記録の閉鎖等,0,2022-09-09,2022-09-06,有限会社森田米穀,,有限会社,鳥取県,鳥取市,用瀬町用瀬３４４番地,,31,201,6891201,,,2022-09-06,清算の結了等,,,2015-10-05,1,,,,,モリタベイコク,0
260,1290805006501,登記記録の閉鎖等,0,2022-09-09,2022-09-06,協業組合豊州自動車総合センター,,その他の設立登記法人,福岡県,築上郡築上町,大字高塚１３４７番地,,40,647,8290331,,,2022-09-06,清算の結了等,,,2015-10-05,1,,,,,ホウシュウジドウシャソウゴウセンター,0
261,1300001005347,登記記録の閉鎖等,0,2022-09-09,2022-09-01,株式会社アシスト,,株式会社,佐賀県,武雄市,北方町大字志久３２７１番地１,,41,206,8492201,,,2022-09-01,合併による解散等,4300001008586,令和４年９月１日佐賀県杵島郡大町町大字福母１５７８番地１株式会社リバース（4300001008586）に合併し解散,2015-10-05,1,,,,,アシスト,0
274,1340002017098,登記記録の閉鎖等,0,2022-09-09,2022-09-06,有限会社マルコ,,有限会社,鹿児島県,薩摩川内市,向田本町４番２２号,,46,215,8950021,,,2022-09-06,清算の結了等,,,2015-10-05,1,,,,,マルコ,0
281,1370005004074,登記記録の閉鎖等,0,2022-09-09,2022-09-05,特定非営利活動法人ケア・コンピタンス協会,,その他の設立登記法人,宮城県,仙台市青葉区,星陵町２番１号東北大学大学院医学系研究科保健学専攻小児看護学分野内,,04,101,9800872,,,2022-09-05,清算の結了等,,,2015-10-05,1,,,,,ケアコンピタンスキョウカイ,0
284,1370802001711,登記記録の閉鎖等,0,2022-09-09,2022-09-02,イル・ゴロゾーネ有限会社,,有限会社,宮城県,仙台市太白区,長町３丁目９番３－９０１号,,04,104,9820011,,,2022-09-02,清算の結了等,,,2015-10-05,1,,,,,イルゴロゾーネ,0
288,1410001002341,登記記録の閉鎖等,0,2022-09-09,2022-09-08,北環興業株式会社,,株式会社,秋田県,秋田市,土崎港西２丁目１０番２０号,,05,201,0110945,,,2022-09-08,清算の結了等,,,2015-10-05,1,,,,,ホッカンコウギョウ,0
298,1430005010677,登記記録の閉鎖等,0,2022-09-09,2022-09-08,一般社団法人北海道食産業総合振興機構,,その他の設立登記法人,北海道,札幌市中央区,北一条西３丁目３番地,,01,101,0600001,,,2022-09-08,清算の結了等,,,2015-10-05,1,,,,,ホッカイドウショクサンギョウソウゴウシンコウキコウ,0
306,1470001007475,登記記録の閉鎖等,0,2022-09-09,2022-09-07,三栄産業株式会社,,株式会社,香川県,丸亀市,金倉町１１１５番地,,37,202,7630053,,,2022-09-07,清算の結了等,,,2015-10-05,1,,,,,サンエイサンギョウ,0
308,1500002010706,登記記録の閉鎖等,0,2022-09-09,2022-09-08,有限会社マチ・エンジニアリングサービス,,有限会社,愛媛県,松山市,針田町８番地１１,,38,201,7900055,,,2022-09-08,清算の結了等,,,2015-10-05,1,,,,,マチエンジニアリングサービス,0
310,1500002018559,登記記録の閉鎖等,0,2022-09-09,2022-09-08,大伸興業有限会社,,有限会社,愛媛県,今治市,片山３丁目１１番３０号,,38,202,7940063,,,2022-09-08,清算の結了等,,,2015-10-05,1,,,,,ダイシンコウギョウ,0
343,2010701029748,登記記録の閉鎖等,0,2022-09-09,2022-09-01,ローソンＨＭＶエンタテイメント・ユナイテッド・シネマ・ホールディングス株式会社,,株式会社,東京都,品川区,大崎１丁目１１番２号,,13,109,1410032,,,2022-09-01,合併による解散等,3010401039039,令和４年９月１日東京都品川区大崎一丁目１１番２号ユナイテッド・シネマ株式会社（3010401039039）に合併し解散,2015-10-05,1,,,,,ローソンエイチエムヴィエンタテイメントユナイテッドシネマホールディングス,0
347,2011001013335,登記記録の閉鎖等,0,2022-09-09,2022-08-29,ダイナゲイト株式会社,,株式会社,東京都,渋谷区,神宮前６丁目３５番３－５１１号,,13,113,1500001,,,2022-08-29,清算の結了等,,,2015-10-05,1,,,,,ダイナゲイト,0
348,2011001026048,登記記録の閉鎖等,0,2022-09-09,2022-08-25,株式会社ムラタ事務所,,株式会社,東京都,渋谷区,南平台町１１番７号,,13,113,1500036,,,2022-08-25,清算の結了等,,,2015-10-05,1,,,,,ムラタジムショ,0
367,2011402010063,登記記録の閉鎖等,0,2022-09-09,2022-09-06,有限会社日本コンチネンタル,,有限会社,東京都,板橋区,小茂根５丁目１４番３号,,13,119,1730037,,,2022-09-06,清算の結了等,,,2015-10-05,1,,,,,ニホンコンチネンタル,0
372,2011801028251,登記記録の閉鎖等,0,2022-09-09,2022-09-05,株式会社伊藤秀雄企画,,株式会社,東京都,足立区,千住曙町４１番１－１５０６号,,13,121,1200023,,,2022-09-05,清算の結了等,,,2015-10-05,1,,,,,イトウヒデオキカク,0
395,2020005001774,登記記録の閉鎖等,0,2022-09-09,2022-09-02,医療法人社団河野歯科医院,,その他の設立登記法人,神奈川県,横浜市栄区,桂町１９０番地の８,,14,115,2470005,,,2022-09-02,清算の結了等,,,2015-10-05,1,,,,,コウノシカイイン,0
397,2021001056721,登記記録の閉鎖等,0,2022-09-09,2022-09-06,株式会社ＫＡＨＭ,,株式会社,神奈川県,小田原市,酒匂４丁目１０番１－１０３号ダイアパレス西湘南,,14,206,2560816,,,2022-09-06,清算の結了等,,,2015-10-05,1,,,,,カーム,0
399,2021002018720,登記記録の閉鎖等,0,2022-09-09,2022-09-05,有限会社大鳥屋,,有限会社,神奈川県,相模原市中央区,東淵野辺５丁目１８番２１号,,14,152,2520203,,,2022-09-05,清算の結了等,,,2015-10-05,1,,,,,オオトリヤ,0
422,2050005002506,登記記録の閉鎖等,0,2022-09-09,2022-09-05,医療法人社団秀明会,,その他の設立登記法人,茨城県,東茨城郡大洗町,大貫町６４番地の１２８,,08,309,3111311,,,2022-09-05,清算の結了等,,,2015-10-05,1,,,,,シュウメイカイ,0
438,2100002017022,登記記録の閉鎖等,0,2022-09-09,2022-09-05,有限会社和泉クリーニング,,有限会社,長野県,飯山市,大字飯山９５８番地,,20,213,3892253,,,2022-09-05,清算の結了等,,,2015-10-05,1,,,,,イズミクリーニング,0
439,2100002025883,登記記録の閉鎖等,0,2022-09-09,2022-09-05,有限会社アクティブパーソネル,,有限会社,長野県,塩尻市,大字広丘高出１４８６番地３０９,,20,215,3990703,,,2022-09-05,清算の結了等,,,2015-10-05,1,,,,,アクティブパーソネル,0
441,2100003005100,登記記録の閉鎖等,0,2022-09-09,2022-09-05,合同会社ゼロワン,,合同会社,長野県,長野市,広田２３０番地２,,20,201,3812213,,,2022-09-05,清算の結了等,,,2018-09-18,1,,,,,ゼロワン,0
455,2120002017375,登記記録の閉鎖等,0,2022-09-09,2022-09-02,有限会社かんさい,,有限会社,兵庫県,宝塚市,長尾町１５番１－４２５号,,28,214,6650873,,,2022-09-02,清算の結了等,,,2015-10-05,1,,,,,カンサイ,0
463,2120901030395,登記記録の閉鎖等,0,2022-09-09,2022-09-07,ナショナル魔法瓶工業株式会社,,株式会社,大阪府,箕面市,箕面２丁目９番１５号,,27,220,5620001,,,2022-09-07,清算の結了等,,,2015-10-05,1,,,,,ナショナルマホウビンコウギョウ,0
476,2130005007034,登記記録の閉鎖等,0,2022-09-09,2022-09-02,特定非営利活動法人黄土高原植林緑化事業推進協議会,,その他の設立登記法人,京都府,宇治市,宇治妙楽３８番地上林記念館内,,26,204,6110021,,,2022-09-02,清算の結了等,,,2015-10-05,1,,,,,コウドコウゲンショクリンリョッカジギョウスイシンキョウギカイ,0
487,2180001135957,登記記録の閉鎖等,0,2022-09-09,2022-09-02,株式会社名龍ＪＡＰＡＮ,,株式会社,愛知県,長久手市,片平１丁目１１０５番地,,23,238,4801146,,,2022-09-02,合併による解散等,2020001120710,令和４年９月１日愛知県長久手市片平一丁目１１０５番地株式会社誠泰ＪＡＰＡＮ（2020001120710）に合併し解散,2019-04-04,1,,,,,メイリュウジャパン,0
490,2180002029217,登記記録の閉鎖等,0,2022-09-09,2022-09-02,有限会社三輪,,有限会社,愛知県,名古屋市中村区,向島町５丁目１８番地,,23,105,4530838,,,2022-09-02,清算の結了等,,,2015-10-05,1,,,,,ミワ,0
496,2180302016765,登記記録の閉鎖等,0,2022-09-09,2022-09-01,有限会社伸技機工,,有限会社,愛知県,安城市,根崎町西新切４０番地１,,23,212,4441211,,,2022-09-01,合併による解散等,8180301015960,令和４年９月１日愛知県安城市根崎町西新切４０番地１伸技工業株式会社（8180301015960）に合併し解散,2015-10-05,1,,,,,シンギキコウ,0
508,2200002027696,登記記録の閉鎖等,0,2022-09-09,2022-09-07,有限会社相生モータース,,有限会社,岐阜県,郡上市,八幡町相生１１７７番地の１,,21,219,5014236,,,2022-09-07,清算の結了等,,,2015-10-05,1,,,,,アイオイモータース,0
555,2330001010723,登記記録の閉鎖等,0,2022-09-09,2022-09-02,株式会社やすらぎ,,株式会社,熊本県,熊本市東区,昭和町１０番２６,,43,102,8612108,,,2022-09-02,清算の結了等,,,2015-10-05,1,,,,,ヤスラギ,0
556,2330001016571,登記記録の閉鎖等,0,2022-09-09,2022-09-01,エープラスハウス株式会社,,株式会社,熊本県,熊本市南区,合志２丁目２番２３号,,43,104,8614111,,,2022-09-01,合併による解散等,8330001007391,令和４年９月１日熊本市南区薄場一丁目１５番１６号株式会社アリストホーム（8330001007391）に合併し解散,2015-10-05,1,,,,,エープラスハウス,0
561,2360001014085,登記記録の閉鎖等,0,2022-09-09,2022-09-01,株式会社エコー・カンパニー,,株式会社,沖縄県,宮古島市,平良字西仲宗根６３３番地,,47,214,9060006,,,2022-09-01,清算の結了等,,,2015-10-05,1,,,,,エコーカンパニー,0
579,2420002011348,登記記録の閉鎖等,0,2022-09-09,2022-09-06,有限会社プロワーク,,有限会社,青森県,五所川原市,字元町５３番地,,02,205,0370044,,,2022-09-06,清算の結了等,,,2015-10-05,1,,,,,プロワーク,0
580,2420002016149,登記記録の閉鎖等,0,2022-09-09,2022-09-01,有限会社小宮縫製,,有限会社,青森県,弘前市,大字大沢字稲元４１番地３,,02,202,0368125,,,2022-09-01,合併による解散等,3420001008856,令和４年９月１日青森県弘前市大字大沢字稲元３８番地１株式会社アブソルト（3420001008856）に合併し解散,2015-10-05,1,,,,,コミヤホウセイ,0
586,2430002062340,登記記録の閉鎖等,0,2022-09-09,2022-09-02,有限会社ひるかわ育成牧場,,有限会社,北海道,浦河郡浦河町,字上絵笛２４６番地の３,,01,607,0570000,,,2022-09-02,清算の結了等,,,2015-10-05,1,,,,,ヒルカワイクセイボクジョウ,0
600,3010001169368,登記記録の閉鎖等,0,2022-09-09,2022-08-25,株式会社Ｔ－ＴＩＭＥ,,株式会社,東京都,港区,南青山２丁目２番１５号ウィン青山９４２,,13,103,1070062,,,2022-08-25,清算の結了等,,,2015-10-05,1,,,,,ティータイム,0
624,3010005028462,登記記録の閉鎖等,0,2022-09-09,2022-09-06,一般社団法人有明ホールディングス,,その他の設立登記法人,東京都,千代田区,丸の内３丁目１番１号東京共同会計事務所内,,13,101,1000005,,,2022-09-06,清算の結了等,,,2018-04-27,1,,,,,アリアケホールディングス,0
638,3010602019582,登記記録の閉鎖等,0,2022-09-09,2022-09-05,有限会社内海メタルワークス,,有限会社,東京都,江東区,亀戸９丁目１４番１号ＮＥＸＴビル,,13,108,1360071,,,2022-09-05,清算の結了等,,,2015-10-05,1,,,,,ウチウミメタルワークス,0
663,3011301026465,登記記録の閉鎖等,0,2022-09-09,2022-09-02,株式会社八万・能,,株式会社,東京都,杉並区,松庵３丁目３５番１８号,,13,115,1670054,,,2022-09-02,清算の結了等,,,2020-12-10,1,,,,,ヤマンノ,0
696,3021001028777,登記記録の閉鎖等,0,2022-09-09,2022-09-02,株式会社Ｍ’ｓＤＳ,,株式会社,神奈川県,大和市,福田３丁目１６番１２号,,14,213,2420024,,,2022-09-02,清算の結了等,,,2015-10-05,1,,,,,,0
699,3021001045640,登記記録の閉鎖等,0,2022-09-09,2022-09-05,株式会社蜜柑のあくび,,株式会社,神奈川県,小田原市,根府川６１４,,14,206,2500024,,,2022-09-05,清算の結了等,,,2015-10-05,1,,,,,ミカンノアクビ,0
716,3040001089935,登記記録の閉鎖等,0,2022-09-09,2022-09-01,株式会社フォルテ,,株式会社,千葉県,野田市,野田８３７番地の１１,,12,208,2780037,,,2022-09-01,清算の結了等,,,2015-10-05,1,,,,,フォルテ,0
719,3040001116169,登記記録の閉鎖等,0,2022-09-09,2022-09-01,アヅマホールディングス株式会社,,株式会社,千葉県,市原市,玉前西２丁目４番地３７,,12,219,2900044,,,2022-09-01,合併による解散等,3040001082634,令和４年９月１日千葉県市原市玉前西二丁目４番地３７アヅマクリエイト株式会社（3040001082634）に合併し解散,2020-12-16,1,,,,,アヅマホールディングス,0
739,3080401018787,登記記録の閉鎖等,0,2022-09-09,2022-09-05,株式会社つちとてと,,株式会社,静岡県,浜松市中区,富塚町２１４９番地の４,00109155,22,131,4328002,,,2022-09-05,清算の結了等,,,2015-10-05,1,,,,,ツチトテト,0
757,3120001233864,登記記録の閉鎖等,0,2022-09-09,2022-09-06,株式会社朝顔,,株式会社,大阪府,大阪市北区,西天満６丁目２番３－４１３号,,27,127,5300047,,,2022-09-06,清算の結了等,,,2020-12-16,1,,,,,アサガオ,0
765,3120101031557,登記記録の閉鎖等,0,2022-09-09,2022-09-06,株式会社ナリタ,,株式会社,大阪府,南河内郡千早赤阪村,大字水分９５５番地の１,,27,383,5850041,,,2022-09-06,清算の結了等,,,2015-10-05,1,,,,,ナリタ,0
769,3120102013141,登記記録の閉鎖等,0,2022-09-09,2022-09-06,有限会社北住器商会,,有限会社,大阪府,堺市堺区,並松町５４番地の３,,27,141,5900912,,,2022-09-06,清算の結了等,,,2015-10-05,1,,,,,キタジュウキショウカイ,0
776,3130001011625,登記記録の閉鎖等,0,2022-09-09,2022-08-31,文教堂印刷株式会社,,株式会社,京都府,京都市南区,吉祥院宮ノ東町２２番地の４,,26,107,6018305,,,2022-08-31,清算の結了等,,,2015-10-05,1,,,,,ブンキョウドウインサツ,0
807,3180002081794,登記記録の閉鎖等,0,2022-09-09,2022-09-01,有限会社共進製作所,,有限会社,愛知県,江南市,高屋町大師１１３番地,,23,217,4838047,,,2022-09-01,清算の結了等,,,2015-10-05,1,,,,,キョウシンセイサクショ,0
830,3270002009828,登記記録の閉鎖等,0,2022-09-09,2022-08-31,岩世有限会社,,有限会社,鳥取県,倉吉市,清谷３２５番地,,31,203,6820012,,,2022-08-31,合併による解散等,9270002009822,令和４年８月３１日鳥取県倉吉市清谷３３６番地１岩世自動車株式会社（9270002009822）に合併し解散,2015-10-05,1,,,,,イワセ,0
836,3290003008777,登記記録の閉鎖等,0,2022-09-09,2022-09-01,合同会社ＨＢＴヘルスケア,,合同会社,福岡県,福岡市中央区,大名１丁目９番５２号,,40,133,8100041,,,2022-09-01,清算の結了等,,,2019-02-18,1,,,,,エイチビーティヘルスケア,0
838,3300002008025,登記記録の閉鎖等,0,2022-09-09,2022-09-05,有限会社馬場電気商会,,有限会社,佐賀県,伊万里市,山代町立岩１９３４番地,,41,205,8494261,,,2022-09-05,清算の結了等,,,2015-10-05,1,,,,,ババデンキショウカイ,0
840,3310002010384,登記記録の閉鎖等,0,2022-09-09,2022-09-07,有限会社酒舗にしむた,,有限会社,長崎県,佐世保市,相浦町２４１番地,,42,202,8580918,,,2022-09-07,清算の結了等,,,2015-10-05,1,,,,,シュホニシムタ,0
856,3360001027978,登記記録の閉鎖等,0,2022-09-09,2022-09-02,ＭＯＧＵＲＡ株式会社,,株式会社,沖縄県,那覇市,前島３丁目２５番２号泊ポートビル５階,,47,201,9000016,,,2022-09-02,清算の結了等,,,2020-11-24,1,,,,,モグラ,0
884,3450001011675,登記記録の閉鎖等,0,2022-09-09,2022-09-08,株式会社ノースグリーンフーズ,,株式会社,北海道,深川市,広里町４丁目２番２３号,,01,228,0741271,,,2022-09-08,清算の結了等,,,2016-04-06,1,,,,,,0
885,3450002012615,登記記録の閉鎖等,0,2022-09-09,2022-09-07,有限会社こてら,,有限会社,北海道,紋別市,大山町１丁目３５番２６号,,01,219,0940021,,,2022-09-07,清算の結了等,,,2015-10-05,1,,,,,コテラ,0
909,4010002019942,登記記録の閉鎖等,0,2022-09-09,2022-09-02,有限会社巧宣社,00049778,有限会社,東京都,中央区,新川２丁目２番１号いづみハイツ茅場町８０１号,,13,102,1040033,,,2022-09-02,清算の結了等,,,2015-10-05,1,,,,,,0
913,4010005028949,登記記録の閉鎖等,0,2022-09-09,2022-09-06,ＥＳＲ夜光特定目的会社,,その他の設立登記法人,東京都,中央区,日本橋１丁目４番１号日本橋一丁目ビルディング,,13,102,1030027,,,2022-09-06,清算の結了等,,,2018-08-14,1,,,,,イーエスアールヤコウ,0
943,4011001030460,登記記録の閉鎖等,0,2022-09-09,2022-08-29,株式会社回生院クリニック,,株式会社,東京都,渋谷区,代官山町１２番３号真市代官山ビル３０１,,13,113,1500034,,,2022-08-29,清算の結了等,,,2015-10-05,1,,,,,カイセイインクリニック,0
945,4011001060879,登記記録の閉鎖等,0,2022-09-09,2022-08-25,ホーム・スキノベーションズ・ジャパン株式会社,,株式会社,東京都,渋谷区,上原１丁目３３番１４号,,13,113,1510064,,,2022-08-25,清算の結了等,,,2015-10-05,1,,,,,ホームスキノベーションズジャパン,0
967,4011103001129,登記記録の閉鎖等,0,2022-09-09,2022-09-06,株式会社東栄印刷所,,株式会社,東京都,新宿区,早稲田鶴巻町１１２番地,,13,104,1620041,,,2022-09-06,清算の結了等,,,2015-10-05,1,,,,,,0
968,4011105005598,登記記録の閉鎖等,0,2022-09-09,2022-09-06,特定非営利活動法人なごみの会,,その他の設立登記法人,東京都,新宿区,信濃町３４番地トーシン信濃町駅前ビル３階,,13,104,1600016,,,2022-09-06,清算の結了等,,,2015-10-05,1,,,,,ナゴミノカイ,0
975,4011402009541,登記記録の閉鎖等,0,2022-09-09,2022-09-06,有限会社ワイ・ティー・エス・泉,,有限会社,東京都,板橋区,弥生町３４番１号,,13,119,1730021,,,2022-09-06,清算の結了等,,,2015-10-05,1,,,,,ワイティーエスイズミ,0
996,4020001037184,登記記録の閉鎖等,0,2022-09-09,2022-09-05,ジェンテック株式会社,,株式会社,神奈川県,横浜市磯子区,洋光台４丁目２２番１８号,,14,107,2350045,,,2022-09-05,清算の結了等,,,2015-10-05,1,,,,,ジェンテック,0
1026,4040002024329,登記記録の閉鎖等,0,2022-09-09,2022-09-05,有限会社西村建設,,有限会社,千葉県,船橋市,宮本６丁目２６番９号,,12,204,2730003,,,2022-09-05,清算の結了等,,,2015-10-05,1,,,,,ニシムラケンセツ,0
1035,4050005009771,登記記録の閉鎖等,0,2022-09-09,2022-08-29,特定非営利活動法人トップリンク,,その他の設立登記法人,茨城県,取手市,白山８丁目７番３２号ＷＦＡビューティアカデミー内,,08,217,3020023,,,2022-08-29,清算の結了等,,,2015-10-05,1,,,,,トップリンク,0
1039,4070002020531,登記記録の閉鎖等,0,2022-09-09,2022-09-02,有限会社福島屋,,有限会社,群馬県,伊勢崎市,境百々東８番地の４,,10,204,3700116,,,2022-09-02,清算の結了等,,,2015-10-05,1,,,,,フクシマヤ,0
1041,4080102000952,登記記録の閉鎖等,0,2022-09-09,2022-09-06,有限会社カミヤナギ,,有限会社,静岡県,沼津市,市道町５番６号,,22,203,4100866,,,2022-09-06,清算の結了等,,,2015-10-05,1,,,,,カミヤナギ,0
1048,4110001023258,登記記録の閉鎖等,0,2022-09-09,2022-09-05,株式会社野口配管ポンプ店,,株式会社,新潟県,長岡市,千歳３丁目８番２号,,15,202,9400082,,,2022-09-05,清算の結了等,,,2015-10-05,1,,,,,ノグチハイカンポンプテン,0
1049,4110002032811,登記記録の閉鎖等,0,2022-09-09,2022-09-07,有限会社柏屋商店,,有限会社,新潟県,南魚沼郡湯沢町,大字湯沢３２２番地５,,15,461,9496101,,,2022-09-07,清算の結了等,,,2015-10-05,1,,,,,カシワヤショウテン,0
1104,4190002023679,登記記録の閉鎖等,0,2022-09-09,2022-09-06,有限会社エーベル,,有限会社,三重県,三重郡菰野町,大字田口２３３４番地６,,24,341,5101321,,,2022-09-06,清算の結了等,,,2015-10-05,1,,,,,エーベル,0
1106,4200002020666,登記記録の閉鎖等,0,2022-09-09,2022-09-06,有限会社前川運送,,有限会社,岐阜県,多治見市,小泉町４丁目２３７番地の７,,21,204,5070073,,,2022-09-06,清算の結了等,,,2015-10-05,1,,,,,マエカワウンソウ,0
1111,4220001022018,登記記録の閉鎖等,0,2022-09-09,2022-09-06,株式会社ムラシマホールディングス,,株式会社,石川県,金沢市,泉野出町２丁目７番１３号,,17,201,9218116,,,2022-09-06,清算の結了等,,,2017-12-15,1,,,,,ムラシマホールディングス,0
1137,4330001014301,登記記録の閉鎖等,0,2022-09-09,2022-09-02,株式会社金本商店,,株式会社,熊本県,水俣市,汐見町１丁目５番３９号,,43,205,8670054,,,2022-09-02,清算の結了等,,,2015-10-05,1,,,,,カネモトショウテン,0
1138,4330002028011,登記記録の閉鎖等,0,2022-09-09,2022-09-02,有限会社原田保険事務所,,有限会社,熊本県,葦北郡津奈木町,大字小津奈木２１１３番地６８,,43,484,8695604,,,2022-09-02,清算の結了等,,,2015-10-05,1,,,,,ハラダホケンジムショ,0
1149,4390002000740,登記記録の閉鎖等,0,2022-09-09,2022-09-05,有限会社金森会計事務所,,有限会社,山形県,山形市,花楯１丁目７番２４号,,06,201,9900067,,,2022-09-05,清算の結了等,,,2015-10-05,1,,,,,カナモリカイケイジムショ,0
1161,4430001070631,登記記録の閉鎖等,0,2022-09-09,2022-09-02,株式会社ＬＡＣ　Ｊａｐａｎ,,株式会社,北海道,札幌市中央区,旭ケ丘６丁目４番３１号,,01,101,0640941,,,2022-09-02,清算の結了等,,,2016-01-14,1,,,,,,0
1167,4430002000868,登記記録の閉鎖等,0,2022-09-09,2022-09-01,有限会社東谷商事,,有限会社,北海道,札幌市中央区,南四条西７丁目６番地,,01,101,0640804,,,2022-09-01,合併による解散等,6430001015956,令和４年９月１日札幌市中央区南四条西七丁目６番地株式会社マイクロネット（6430001015956）に合併し解散,2015-10-05,1,,,,,ヒガシタニショウジ,0
1170,4430002046894,登記記録の閉鎖等,0,2022-09-09,2022-09-02,有限会社ゆめみのメディカル,,有限会社,北海道,江別市,ゆめみ野東町３３番地１５,,01,217,0670065,,,2022-09-02,清算の結了等,,,2015-10-05,1,,,,,ユメミノメディカル,0
1186,5010001158170,登記記録の閉鎖等,0,2022-09-09,2022-09-02,株式会社東京会計パートナーズ,,株式会社,東京都,千代田区,大手町１丁目５番１号大手町ファーストスクエアウエストタワー２０階,,13,101,1000004,,,2022-09-02,清算の結了等,,,2015-10-05,1,,,,,トウキョウカイケイパートナーズ,0
1193,5010003026920,登記記録の閉鎖等,0,2022-09-09,2022-09-02,合同会社ＦＳ,,合同会社,東京都,千代田区,丸の内３丁目１番１号東京共同会計事務所内,,13,101,1000005,,,2022-09-02,清算の結了等,,,2018-02-07,1,,,,,エフエス,0
1195,5010003036457,登記記録の閉鎖等,0,2022-09-09,2022-09-02,合同会社フォレストＥ,,合同会社,東京都,千代田区,大手町１丁目１番２号,,13,101,1000004,,,2022-09-02,合併による解散等,1010001090889,令和４年９月１日東京都千代田区永田町二丁目１１番１号ＥＮＥＯＳグローブ株式会社（1010001090889）に合併し解散,2021-12-02,1,,,,,,0
1221,5010801026428,登記記録の閉鎖等,0,2022-09-09,2022-09-02,山一建設株式会社,,株式会社,東京都,大田区,大森西７丁目９番６－３０７号,,13,111,1430015,,,2022-09-02,清算の結了等,,,2016-02-05,1,,,,,ヤマイチケンセツ,0
1223,5010802013697,登記記録の閉鎖等,0,2022-09-09,2022-09-02,有限会社丸杉園茶店,,有限会社,東京都,大田区,大森北１丁目２７番３号,,13,111,1430016,,,2022-09-02,清算の結了等,,,2015-10-05,1,,,,,マルスギエンチャテン,0
1225,5010901003054,登記記録の閉鎖等,0,2022-09-09,2022-09-05,株式会社ギターフォーラム,,株式会社,東京都,世田谷区,太子堂４丁目５番２号広田ビル２０２,,13,112,1540004,,,2022-09-05,清算の結了等,,,2015-10-05,1,,,,,ギターフォーラム,0
1235,5011001065919,登記記録の閉鎖等,0,2022-09-09,2022-09-07,株式会社イーレボ,,株式会社,東京都,渋谷区,神宮前６丁目３１番１５号原宿マンション３１Ａ棟６階Ａ,,13,113,1500001,,,2022-09-07,合併による解散等,3100002038835,令和４年８月２６日さいたま市大宮区桜木町一丁目９番地１８大宮三貴ビル株式会社アールエスインベストメント（3100002038835）に合併し解散,2015-10-05,1,,,,,イーレボ,0
1246,5011103009410,登記記録の閉鎖等,0,2022-09-09,2022-09-06,合同会社ＣＲＯＳＳ　ＲＯＡＤ,,合同会社,東京都,新宿区,新宿３丁目１２番４号新宿Ｎタウンプラザ３０９号,,13,104,1600022,,,2022-09-06,清算の結了等,,,2020-01-23,1,,,,,クロスロード,0
1254,5011303001968,登記記録の閉鎖等,0,2022-09-09,2022-09-02,ＩＭメンテナンス合同会社,,合同会社,東京都,杉並区,阿佐谷北２丁目９番１５号シャトーオオタニ１０２,,13,115,1660001,,,2022-09-02,清算の結了等,,,2015-10-05,1,,,,,アイエムメンテナンス,0
1268,5013201014507,登記記録の閉鎖等,0,2022-09-09,2022-08-31,株式会社路シャンブル,,株式会社,東京都,目黒区,平町２丁目２番５号キングヒルズ都立大学３０１,,13,110,1520032,,,2022-08-31,清算の結了等,,,2015-10-05,1,,,,,ミチシャンブル,0
1282,5020002057726,登記記録の閉鎖等,0,2022-09-09,2022-09-06,有限会社暁緑地管理,,有限会社,神奈川県,横浜市泉区,和泉町６２３７番地の６,,14,116,2450016,,,2022-09-06,清算の結了等,,,2015-10-05,1,,,,,アカツキリョクチカンリ,0
1283,5020002061083,登記記録の閉鎖等,0,2022-09-09,2022-09-05,有限会社トミーワールド,,有限会社,神奈川県,横浜市中区,常盤町３丁目２４,,14,104,2310014,,,2022-09-05,清算の結了等,,,2015-10-05,1,,,,,トミーワールド,0
1288,5021001059102,登記記録の閉鎖等,0,2022-09-09,2022-09-06,株式会社小林組,,株式会社,神奈川県,小田原市,酒匂２丁目１７番４６号,,14,206,2560816,,,2022-09-06,清算の結了等,,,2016-04-18,1,,,,,コバヤシグミ,0
1289,5021001072674,登記記録の閉鎖等,0,2022-09-09,2022-09-06,オタギラカンパニー株式会社,,株式会社,神奈川県,相模原市南区,上鶴間７丁目６番９号,,14,153,2520302,,,2022-09-06,清算の結了等,,,2021-04-13,1,,,,,オタギラカンパニー,0
1293,5021002052279,登記記録の閉鎖等,0,2022-09-09,2022-09-06,有限会社セレーノ,,有限会社,神奈川県,小田原市,城山２丁目２番５６号,,14,206,2500045,,,2022-09-06,清算の結了等,,,2015-10-05,1,,,,,セレーノ,0
1304,5030001104164,登記記録の閉鎖等,0,2022-09-09,2022-08-30,株式会社笑み,,株式会社,埼玉県,所沢市,向陽町２０７８番地の１エステ・スクエア新所沢２０７,,11,208,3591103,,,2022-08-30,清算の結了等,,,2015-10-05,1,,,,,エミ,0
1308,5030002058483,登記記録の閉鎖等,0,2022-09-09,2022-08-30,有限会社ことぶき社,,有限会社,埼玉県,朝霞市,岡３丁目１番２１号,,11,227,3510007,,,2022-08-30,清算の結了等,,,2015-10-05,1,,,,,コトブキシャ,0
1309,5030002084488,登記記録の閉鎖等,0,2022-09-09,2022-08-31,株式会社スターライン,,株式会社,埼玉県,鴻巣市,宮前４５４番地,,11,217,3650051,,,2022-08-31,清算の結了等,,,2015-10-05,1,,,,,スターライン,0
1310,5030002086575,登記記録の閉鎖等,0,2022-09-09,2022-08-30,有限会社新六住宅,,有限会社,埼玉県,越谷市,瓦曽根１丁目１３番２２号,,11,222,3430821,,,2022-08-30,清算の結了等,,,2015-10-05,1,,,,,シンロクジュウタク,0
1317,5040001025392,登記記録の閉鎖等,0,2022-09-09,2022-09-05,アール・エー・サービス工業株式会社,,株式会社,千葉県,市川市,本北方１丁目３２番３号,,12,203,2720816,,,2022-09-05,清算の結了等,,,2015-10-05,1,,,,,アールエーサービスコウギョウ,0
1318,5040001031003,登記記録の閉鎖等,0,2022-09-09,2022-09-01,株式会社トーワ・ロジスティック,,株式会社,千葉県,市川市,中山２丁目２２番１６号,,12,203,2720813,,,2022-09-01,清算の結了等,,,2015-10-05,1,,,,,トーワロジスティック,0
1330,5060002004113,登記記録の閉鎖等,0,2022-09-09,2022-09-01,有限会社サンテックス,,有限会社,栃木県,宇都宮市,戸祭１丁目１番１２号,,09,201,3200056,,,2022-09-01,清算の結了等,,,2015-10-05,1,,,,,サンテックス,0
1345,5100002029114,登記記録の閉鎖等,0,2022-09-09,2022-09-05,有限会社ヤマモト,,有限会社,長野県,諏訪郡下諏訪町,５５２１番地,,20,361,3930000,,,2022-09-05,清算の結了等,,,2015-10-05,1,,,,,ヤマモト,0
1359,5120002003934,登記記録の閉鎖等,0,2022-09-09,2022-08-24,有限会社ワイダー,,有限会社,大阪府,大阪市阿倍野区,丸山通２丁目１番３号,,27,119,5450042,,,2022-08-24,清算の結了等,,,2015-10-05,1,,,,,ワイダー,0
1364,5120105000044,登記記録の閉鎖等,0,2022-09-09,2022-09-07,医療法人尾崎内科,,その他の設立登記法人,大阪府,堺市東区,日置荘西町６丁１２番２号,,27,143,5998114,,,2022-09-07,清算の結了等,,,2015-10-05,1,,,,,オザキナイカ,0
1365,5120901015055,登記記録の閉鎖等,0,2022-09-09,2022-09-07,株式会社藤井食品,,株式会社,大阪府,茨木市,宮島１丁目２番１号Ａ９０７,,27,211,5670853,,,2022-09-07,清算の結了等,,,2015-10-05,1,,,,,フジイショクヒン,0
1382,5140001049290,登記記録の閉鎖等,0,2022-09-09,2022-09-02,十福住宅株式会社,,株式会社,兵庫県,尼崎市,杭瀬本町１丁目２５番１１号,,28,202,6600814,,,2022-09-02,清算の結了等,,,2015-10-05,1,,,,,トフクジュウタク,0
1393,5140002041908,登記記録の閉鎖等,0,2022-09-09,2022-09-02,有限会社中西リサーチ,,有限会社,兵庫県,尼崎市,大庄西町３丁目１４番１０号,,28,202,6600077,,,2022-09-02,清算の結了等,,,2015-10-05,1,,,,,ナカニシリサーチ,0
1415,5220002008048,登記記録の閉鎖等,0,2022-09-09,2022-09-05,有限会社アロマリゾートシステム,,有限会社,東京都,台東区,東上野５丁目７番５－１３０１号,,13,106,1100015,,,2022-09-05,合併による解散等,6030001110343,令和４年９月１日東京都台東区東上野五丁目７番５－１３０１号株式会社ルーチェ（6030001110343）に合併し解散,2015-10-05,1,,,,,アロマリゾート,0
1431,5290002054424,登記記録の閉鎖等,0,2022-09-09,2022-09-01,有限会社ピーエフノグチ,,有限会社,福岡県,福岡市中央区,警固２丁目２番２３号ウイングコート警固５０４,,40,133,8100023,,,2022-09-01,合併による解散等,2290001085794,令和４年９月１日福岡市中央区警固二丁目２番２３号ウイングコート警固５０１エイチケーコントラクト株式会社（2290001085794）に合併し解散,2015-10-05,1,,,,,ピーエフノグチ,0
1433,5290005013451,登記記録の閉鎖等,0,2022-09-09,2022-09-08,特定非営利活動法人障がい者元気さぽーと,,その他の設立登記法人,福岡県,福岡市南区,和田３丁目２０番８号,,40,134,8111343,,,2022-09-08,清算の結了等,,,2015-10-05,1,,,,,ショウガイシャゲンキサポート,0
1436,5300005000547,登記記録の閉鎖等,0,2022-09-09,2022-09-01,佐賀県木工業協同組合,,その他の設立登記法人,佐賀県,佐賀市,木原３丁目５番２７号,,41,201,8400015,,,2022-09-01,清算の結了等,,,2015-10-05,1,,,,,サガケンモクコウギョウ,0
1444,5330002003599,登記記録の閉鎖等,0,2022-09-09,2022-09-02,有限会社ケイ・エス・プランニング,,有限会社,熊本県,熊本市中央区,本荘３丁目７番１８号杉村病院内,,43,101,8600811,,,2022-09-02,清算の結了等,,,2015-10-05,1,,,,,ケイエスプランニング,0
1460,5410001007493,登記記録の閉鎖等,0,2022-09-09,2022-09-06,株式会社アート,,株式会社,秋田県,能代市,松美町９番２０号,,05,202,0160893,,,2022-09-06,清算の結了等,,,2015-10-05,1,,,,,アート,0
1471,5460002002092,登記記録の閉鎖等,0,2022-09-09,2022-09-02,有限会社道東照明,,有限会社,北海道,釧路市,喜多町３番３号,,01,206,0850043,,,2022-09-02,清算の結了等,,,2015-10-05,1,,,,,ドウトウショウメイ,0
1479,5500002012822,登記記録の閉鎖等,0,2022-09-09,2022-09-05,米木水産有限会社,,有限会社,愛媛県,西予市,三瓶町下泊１９５２番地１,,38,214,7960915,,,2022-09-05,清算の結了等,,,2022-08-17,1,,,,,ヨネギスイサン,0
1542,6011001117999,登記記録の閉鎖等,0,2022-09-09,2022-09-07,株式会社ＡＭホールディングス,,株式会社,東京都,板橋区,板橋２丁目３７番４号グランビル板橋１階,,13,119,1730004,,,2022-09-07,合併による解散等,3011003006501,令和４年９月１日東京都渋谷区神宮前六丁目２３番４号桑野ビル２階合同会社ミヤ（3011003006501）に合併し解散,2017-08-22,1,,,,,,0
1547,6011101086946,登記記録の閉鎖等,0,2022-09-09,2022-09-06,株式会社ライフスタイルトレーディング,,株式会社,東京都,新宿区,荒木町５,,13,104,1600007,,,2022-09-06,清算の結了等,,,2019-02-25,1,,,,,ライフスタイルトレーディング,0
1564,6011801014454,登記記録の閉鎖等,0,2022-09-09,2022-09-05,株式会社アールエコ,,株式会社,東京都,足立区,扇１丁目５５番１０号,,13,121,1230873,,,2022-09-05,清算の結了等,,,2015-10-05,1,,,,,,0
1567,6012302000613,登記記録の閉鎖等,0,2022-09-09,2022-09-07,有限会社石沢設備設計事務所,,有限会社,東京都,町田市,金井１丁目２２番２号,,13,209,1950072,,,2022-09-07,清算の結了等,,,2015-10-05,1,,,,,イシザワセツビセッケイジムショ,0
1571,6013301048932,登記記録の閉鎖等,0,2022-09-09,2022-09-05,ＣｏｉｎＢｅｓｔ　Ｍｉｎｉｎｇ株式会社,,株式会社,東京都,豊島区,東池袋１丁目１８－１ＨａｒｅｚａＴｏｗｅｒ２０階,,13,116,1700013,,,2022-09-05,清算の結了等,,,2022-04-14,1,,,,,コインベストマイニング,0
1598,6030002053970,登記記録の閉鎖等,0,2022-09-09,2022-08-30,有限会社シヤンドレス,,有限会社,埼玉県,上尾市,谷津２丁目２番１６号,,11,219,3620042,,,2022-08-30,清算の結了等,,,2015-10-05,1,,,,,シャンドレス,0
1600,6030003015292,登記記録の閉鎖等,0,2022-09-09,2022-08-08,Ｓｔ　Ｊｕｌｙ合同会社,,合同会社,埼玉県,さいたま市西区,大字佐知川８７８番地８,,11,101,3310064,,,2022-08-08,清算の結了等,,,2020-05-26,1,,,,,セインジュライ,0
1603,6040001038575,登記記録の閉鎖等,0,2022-09-09,2022-09-01,株式会社田端設備工業,,株式会社,千葉県,流山市,向小金３丁目１３０番地の２０,,12,220,2700143,,,2022-09-01,清算の結了等,,,2015-10-05,1,,,,,タバタセツビコウギョウ,0
1607,6040002019698,登記記録の閉鎖等,0,2022-09-09,2022-09-05,有限会社サプライズ,,有限会社,千葉県,千葉市若葉区,川井町１１６番地の９,,12,104,2650062,,,2022-09-05,清算の結了等,,,2015-10-05,1,,,,,サプライズ,0
1611,6050001027916,登記記録の閉鎖等,0,2022-09-09,2022-09-02,テーケーシー株式会社,,株式会社,茨城県,取手市,谷中４１７番地の２２４,,08,217,3001532,,,2022-09-02,清算の結了等,,,2015-10-05,1,,,,,テーケーシー,0
1618,6060001017049,登記記録の閉鎖等,0,2022-09-09,2022-09-02,株式会社山眞,,株式会社,栃木県,栃木市,岩舟町静５４番地２,,09,203,3294307,,,2022-09-02,清算の結了等,,,2015-10-05,1,,,,,ヤマシン,0
1623,6070002026782,登記記録の閉鎖等,0,2022-09-09,2022-09-05,有限会社福田ビル,,有限会社,群馬県,渋川市,石原１７６０番地の２,,10,208,3770007,,,2022-09-05,清算の結了等,,,2015-10-05,1,,,,,フクダビル,0
1630,6080402021127,登記記録の閉鎖等,0,2022-09-09,2022-09-08,有限会社静岡ミストファーム,,有限会社,静岡県,磐田市,飛平松１５５番地の１,,22,211,4380216,,,2022-09-08,清算の結了等,,,2015-10-05,1,,,,,,0
1634,6110002002795,登記記録の閉鎖等,0,2022-09-09,2022-09-05,有限会社ささがわ,,有限会社,新潟県,新潟市西区,松海が丘３丁目１番１２号２,,15,107,9502075,,,2022-09-05,清算の結了等,,,2015-10-05,1,,,,,ササガワ,0
1642,6120001031274,登記記録の閉鎖等,0,2022-09-09,2022-09-06,株式会社東和電機製作所,,株式会社,大阪府,大阪市住之江区,粉浜１丁目１６番８号,,27,125,5590001,,,2022-09-06,清算の結了等,,,2015-10-05,1,,,,,トウワデンキセイサクショ,0
1653,6120002073308,登記記録の閉鎖等,0,2022-09-09,2022-09-06,有限会社栄,,有限会社,大阪府,枚方市,南楠葉１丁目２番２２号,,27,210,5731105,,,2022-09-06,清算の結了等,,,2015-10-05,1,,,,,サカエ,0
1654,6120002078001,登記記録の閉鎖等,0,2022-09-09,2022-09-06,有限会社井下鉄工所,,有限会社,大阪府,守口市,大久保町３丁目１１番６号,,27,209,5700012,,,2022-09-06,清算の結了等,,,2015-10-05,1,,,,,イノシタテッコウショ,0
1666,6120902016175,登記記録の閉鎖等,0,2022-09-09,2022-09-07,有限会社ティ．ケイ．コミュニティ,,有限会社,大阪府,箕面市,粟生間谷東５丁目４１番７号,,27,220,5620022,,,2022-09-07,清算の結了等,,,2015-10-05,1,,,,,ティケイコミュニティ,0
1674,6140001071913,登記記録の閉鎖等,0,2022-09-09,2022-09-07,株式会社啓兆生コンクリート,,株式会社,大阪府,大阪市北区,野崎町６番８号,,27,127,5300055,,,2022-09-07,合併による解散等,8140001023805,令和４年９月１日神戸市東灘区魚崎浜町２４番地株式会社啓徳（8140001023805）に合併し解散,2015-10-05,1,,,,,,0
1675,6140001122113,登記記録の閉鎖等,0,2022-09-09,2022-09-06,株式会社ｓｅｌｅｃｔ,,株式会社,兵庫県,神戸市中央区,北長狭通１丁目９番１０号プリンセスコースト１階,,28,110,6500012,,,2022-09-06,清算の結了等,,,2021-07-07,1,,,,,セレクト,0
1680,6140002058109,登記記録の閉鎖等,0,2022-09-09,2022-09-02,有限会社山岸屋,,有限会社,兵庫県,西宮市,愛宕山６番１５号,,28,204,6620871,,,2022-09-02,清算の結了等,,,2015-10-05,1,,,,,,0
1684,6170002005867,登記記録の閉鎖等,0,2022-09-09,2022-09-01,有限会社夢想,,有限会社,和歌山県,和歌山市,元寺町西ノ丁１０番地,,30,201,6408007,,,2022-09-01,清算の結了等,,,2015-10-05,1,,,,,ムソウ,0
1718,6250002013647,登記記録の閉鎖等,0,2022-09-09,2022-09-05,有限会社野村鉄工所,,有限会社,山口県,萩市,大字江崎１２０２番地,,35,204,7593113,,,2022-09-05,清算の結了等,,,2015-10-05,1,,,,,ノムラテッコウショ,0
1723,6290002037766,登記記録の閉鎖等,0,2022-09-09,2022-09-01,有限会社オオサキサイン,,有限会社,福岡県,糟屋郡志免町,田富４丁目１７番２８号,,40,343,8112204,,,2022-09-01,清算の結了等,,,2015-10-05,1,,,,,オオサキサイン,0
1726,6290801026135,登記記録の閉鎖等,0,2022-09-09,2022-09-06,株式会社椿工務店,,株式会社,福岡県,北九州市門司区,丸山吉野町３番１７号,,40,101,8010824,,,2022-09-06,清算の結了等,,,2019-12-26,1,,,,,ツバキコウムテン,0
1772,6430002018396,登記記録の閉鎖等,0,2022-09-09,2022-09-01,有限会社ボン札幌,,有限会社,北海道,札幌市豊平区,西岡一条１１丁目２番１８号,,01,105,0620031,,,2022-09-01,清算の結了等,,,2015-10-05,1,,,,,ボンサッポロ,0
1813,7010801024330,登記記録の閉鎖等,0,2022-09-09,2022-09-05,株式会社王様のアイディア,,株式会社,東京都,大田区,仲池上１丁目２番９－４０７号,,13,111,1460081,,,2022-09-05,清算の結了等,,,2015-10-05,1,,,,,オウサマノアイディア,0
1816,7010901003548,登記記録の閉鎖等,0,2022-09-09,2022-09-05,グランド商事株式会社,,株式会社,東京都,世田谷区,祖師谷１丁目６番１１号,,13,112,1570072,,,2022-09-05,清算の結了等,,,2015-10-05,1,,,,,グランドショウジ,0
1817,7010901024775,登記記録の閉鎖等,0,2022-09-09,2022-09-06,株式会社エム・コラボレート,,株式会社,東京都,世田谷区,桜新町１丁目３２番１０号,,13,112,1540015,,,2022-09-06,合併による解散等,5020001008325,令和４年９月１日横浜市都筑区茅ケ崎中央２１番６号株式会社エムアイシー（5020001008325）に合併し解散,2015-10-05,1,,,,,エムコラボレート,0
1830,7011305002327,登記記録の閉鎖等,0,2022-09-09,2022-09-06,一般社団法人メイクスクエア,,その他の設立登記法人,東京都,新宿区,上落合２丁目２３番５－２０３号,,13,104,1610034,,,2022-09-06,清算の結了等,,,2016-08-12,1,,,,,メイクスクエア,0
1837,7011702002243,登記記録の閉鎖等,0,2022-09-09,2022-09-06,有限会社オオシマプレス,,有限会社,東京都,江戸川区,春江町２丁目５０番１１号,,13,123,1320003,,,2022-09-06,清算の結了等,,,2015-10-05,1,,,,,オオシマプレス,0
1841,7012401014604,登記記録の閉鎖等,0,2022-09-09,2022-09-07,株式会社ケアスタッフ,,株式会社,東京都,調布市,下石原３丁目４７番地５,,13,208,1820034,,,2022-09-07,清算の結了等,,,2015-10-05,1,,,,,ケアスタッフ,0
1867,7030001103197,登記記録の閉鎖等,0,2022-09-09,2022-08-31,株式会社クラスタ,,株式会社,埼玉県,川越市,石原町１丁目１２番地２,,11,201,3500824,,,2022-08-31,清算の結了等,,,2015-10-05,1,,,,,クラスタ,0
1869,7030001121026,登記記録の閉鎖等,0,2022-09-09,2022-09-06,株式会社エコーズ,,株式会社,東京都,新宿区,高田馬場３丁目１番５号サンパティオ高田馬場３０９号室,,13,104,1690075,,,2022-09-06,清算の結了等,,,2017-06-28,1,,,,,エコーズ,0
1872,7030002003140,登記記録の閉鎖等,0,2022-09-09,2022-08-31,有限会社大和田電化,,有限会社,埼玉県,さいたま市見沼区,大和田町２丁目１３０７番地８,,11,104,3370053,,,2022-08-31,清算の結了等,,,2015-10-05,1,,,,,オオワダデンカ,0
1885,7040002019730,登記記録の閉鎖等,0,2022-09-09,2022-08-26,有限会社大木熔接,,有限会社,群馬県,渋川市,有馬１３８０番地１研盛アパート２号棟,,10,208,3770005,,,2022-08-26,清算の結了等,,,2015-10-05,1,,,,,オオキヨウセツ,0
1889,7050001021430,登記記録の閉鎖等,0,2022-09-09,2022-09-05,木川商事株式会社,,株式会社,茨城県,行方市,山田８３９番地１,,08,233,3111704,,,2022-09-05,清算の結了等,,,2015-10-05,1,,,,,キカワショウジ,0
1904,7110001012943,登記記録の閉鎖等,0,2022-09-09,2022-09-01,株式会社水沢建設,,株式会社,新潟県,新発田市,下小中山３３３番地の１,,15,206,9592477,,,2022-09-01,清算の結了等,,,2020-12-28,1,,,,,ミズサワケンセツ,0
1939,7130005013085,登記記録の閉鎖等,0,2022-09-09,2022-08-31,司法書士法人御池事務所,,その他の設立登記法人,京都府,京都市中京区,河原町通二条下る一之船入町３７６番地,,26,104,6040924,,,2022-08-31,清算の結了等,,,2015-10-05,1,,,,,オイケジムショ,0
1953,7180003018230,登記記録の閉鎖等,0,2022-09-09,2022-09-02,合同会社ＹＬＣ,,合同会社,愛知県,半田市,青山２丁目１５番地８セントラーレ青山２２,,23,205,4750836,,,2022-09-02,清算の結了等,,,2017-09-04,1,,,,,ワイエルシー,0
1972,7230002001652,登記記録の閉鎖等,0,2022-09-09,2022-09-05,有限会社嶋田一誠堂,,有限会社,富山県,富山市,岩瀬天神町１１８番地,,16,201,9318378,,,2022-09-05,清算の結了等,,,2015-10-05,1,,,,,シマダイッセイドウ,0
1977,7240002016344,登記記録の閉鎖等,0,2022-09-09,2022-09-05,有限会社みやこ,,有限会社,広島県,広島市西区,己斐本町１丁目１２番４号,,34,104,7330812,,,2022-09-05,清算の結了等,,,2015-10-05,1,,,,,ミヤコ,0
1986,7290001086342,登記記録の閉鎖等,0,2022-09-09,2022-09-01,株式会社ｚｅｒ０,,株式会社,福岡県,福岡市中央区,大名２丁目６－１１ＦｕｋｕｏｋａＧｒｏｗｔｈＮｅｘｔ３１３,,40,133,8100041,,,2022-09-01,清算の結了等,,,2019-09-04,1,,,,,ゼロ,0
1990,7300005004026,登記記録の閉鎖等,0,2022-09-09,2022-09-05,株式会社もろふじ工房,,株式会社,佐賀県,藤津郡太良町,大字糸岐１２１２番地３,,41,441,8491603,,,2022-09-05,合併による解散等,4310001013866,令和４年９月１日長崎県平戸市田平町田代免４７番地モロフジファーム株式会社（4310001013866）に合併し解散,2015-10-05,1,,,,,モロフジコウボウ,0
1992,7310001013995,登記記録の閉鎖等,0,2022-09-09,2022-09-08,株式会社出島物流,,株式会社,長崎県,佐世保市,三浦町１番３２号,,42,202,8570863,,,2022-09-08,合併による解散等,1310005003998,令和４年９月１日長崎県佐世保市三浦町１番３２号福岡吉田海運株式会社（1310005003998）に合併し解散,2015-12-28,1,,,,,デジマブツリュウ,0
2005,7360001024575,登記記録の閉鎖等,0,2022-09-09,2022-08-31,徳栄健康実業株式会社,,株式会社,沖縄県,那覇市,繁多川３丁目１４番１０－１号,,47,201,9020071,,,2022-08-31,清算の結了等,,,2018-09-13,1,,,,,トクエイケンコウジツギョウ,0
2018,7400001006024,登記記録の閉鎖等,0,2022-09-09,2022-09-07,協栄工業株式会社,,株式会社,岩手県,北上市,大堤北２丁目４番２１号,,03,206,0240052,,,2022-09-07,清算の結了等,,,2015-10-05,1,,,,,キョウエイコウギョウ,0
2019,7400002007780,登記記録の閉鎖等,0,2022-09-09,2022-09-07,有限会社葛巻中央薬局,,有限会社,岩手県,岩手郡葛巻町,葛巻第１３地割４５番地５,,03,302,0285402,,,2022-09-07,清算の結了等,,,2015-10-05,1,,,,,クズマキチュウオウヤッキョク,0
2022,7430001046950,登記記録の閉鎖等,0,2022-09-09,2022-08-31,株式会社北の幸,,株式会社,北海道,岩見沢市,栗沢町由良２番地３,,01,210,0680111,,,2022-08-31,清算の結了等,,,2015-10-05,1,,,,,キタノサチ,0
2035,7460101007206,登記記録の閉鎖等,0,2022-09-09,2022-09-06,Ａｇｒｉｂｏｔｉｃｓ．ａｓｉａ株式会社,,株式会社,北海道,上川郡清水町,字旭山２番地９１,,01,636,0890355,,,2022-09-06,清算の結了等,,,2022-06-07,1,,,,,アグリボティクスアジア,0
2060,8010005029852,登記記録の閉鎖等,0,2022-09-09,2022-09-06,ＥＳＲ夜光２一般社団法人,,その他の設立登記法人,東京都,中央区,日本橋１丁目４番１号日本橋一丁目ビルディング,,13,102,1030027,,,2022-09-06,清算の結了等,,,2019-03-12,1,,,,,イーエスアールヤコウニ,0
2087,8010701035971,登記記録の閉鎖等,0,2022-09-09,2022-08-31,株式会社ＯＧ,,株式会社,埼玉県,越谷市,弥生町７番１３号ジュネパレス越谷１０２,,11,222,3430816,,,2022-08-31,清算の結了等,,,2018-06-14,1,,,,,オージー,0
2120,8011802031001,登記記録の閉鎖等,0,2022-09-09,2022-09-01,有限会社黒住商店,,有限会社,東京都,葛飾区,青戸５丁目３０番７号,,13,122,1250062,,,2022-09-01,清算の結了等,,,2021-03-15,1,,,,,クロズミショウテン,0
2133,8020001017216,登記記録の閉鎖等,0,2022-09-09,2022-09-05,株式会社ケイ・プラスロン,,株式会社,神奈川県,横浜市鶴見区,上末吉５丁目２５番６号,,14,101,2300011,,,2022-09-05,清算の結了等,,,2015-10-05,1,,,,,ケイプラスロン,0
2148,8021001007223,登記記録の閉鎖等,0,2022-09-09,2022-08-15,株式会社クリーンレイク,,株式会社,東京都,中央区,日本橋２丁目１番３号アーバンネット日本橋２丁目ビル３階,,13,102,1030027,,,2022-08-15,清算の結了等,,,2015-10-05,1,,,,,クリーンレイク,0
2163,8040001010937,登記記録の閉鎖等,0,2022-09-09,2022-09-05,株式会社あーと塾,,株式会社,千葉県,千葉市花見川区,幕張町５丁目４１７番地２２２幕張グリーンハイツ９０５号,,12,102,2620032,,,2022-09-05,清算の結了等,,,2015-10-05,1,,,,,アートジュク,0
2164,8040001081210,登記記録の閉鎖等,0,2022-09-09,2022-08-25,オアシス株式会社,,株式会社,東京都,港区,芝大門１丁目１０番１１号芝大門センタービル１０Ｆ,,13,103,1050012,,,2022-08-25,清算の結了等,,,2015-10-05,1,,,,,オアシス,0
2171,8040003007155,登記記録の閉鎖等,0,2022-09-09,2022-09-05,合同会社アクトデイズ,,合同会社,千葉県,成田市,公津の杜４丁目６番地２Ｂ棟９０２号室,,12,211,2860048,,,2022-09-05,清算の結了等,,,2015-10-05,1,,,,,アクトデイズ,0
2177,8060001018805,登記記録の閉鎖等,0,2022-09-09,2022-09-02,株式会社大起,,株式会社,栃木県,足利市,永楽町７番地３,,09,202,3260055,,,2022-09-02,清算の結了等,,,2015-10-05,1,,,,,ダイキ,0
2187,8080101000875,登記記録の閉鎖等,0,2022-09-09,2022-09-06,株式会社杉山金型,,株式会社,静岡県,沼津市,西沢田１２１番地の２,,22,203,4100007,,,2022-09-06,清算の結了等,,,2015-10-05,1,,,,,スギヤマカナガタ,0
2192,8080402019581,登記記録の閉鎖等,0,2022-09-09,2022-09-08,有限会社坂口商店,,有限会社,静岡県,磐田市,鳥之瀬１７５番地の２,,22,211,4380072,,,2022-09-08,清算の結了等,,,2015-10-05,1,,,,,,0
2209,8120002016388,登記記録の閉鎖等,0,2022-09-09,2022-09-06,有限会社コモトエンジニアリング,,有限会社,大阪府,大阪市住之江区,新北島８丁目１番３８号,,27,125,5590024,,,2022-09-06,清算の結了等,,,2015-10-05,1,,,,,コモトエンジニアリング,0
2249,8180001097052,登記記録の閉鎖等,0,2022-09-09,2022-09-02,株式会社マリン東海,,株式会社,愛知県,弥富市,松名４丁目４８番地,,23,235,4980042,,,2022-09-02,清算の結了等,,,2015-10-05,1,,,,,マリントウカイ,0
2274,8270001000460,登記記録の閉鎖等,0,2022-09-09,2022-09-05,株式会社デコール,,株式会社,鳥取県,鳥取市,東品治町１２１番地９,,31,201,6800835,,,2022-09-05,合併による解散等,6140001056682,令和４年８月３１日兵庫県美方郡新温泉町芦屋１５５番地の１オザキ住建株式会社（6140001056682）に合併し解散,2015-10-05,1,,,,,デコール,0
2279,8280005006742,登記記録の閉鎖等,0,2022-09-09,2022-09-08,一般社団法人アディショナルライフ,,その他の設立登記法人,島根県,松江市,南田町８４－２,,32,201,6900884,,,2022-09-08,清算の結了等,,,2015-10-05,1,,,,,アディショナルライフ,0
2287,8290801001144,登記記録の閉鎖等,0,2022-09-09,2022-09-06,株式会社尾崎商事,00094082,株式会社,福岡県,北九州市小倉南区,山手１丁目２３番６号,,40,107,8020982,,,2022-09-06,清算の結了等,,,2015-10-05,1,,,,,オザキショウジ,0
2300,8370605000656,登記記録の閉鎖等,0,2022-09-09,2022-09-05,宮城県食肉事業協同組合連合会,,その他の設立登記法人,宮城県,多賀城市,鶴ケ谷１丁目４番１号宮城県多賀城分庁舎,,04,209,9850841,,,2022-09-05,清算の結了等,,,2015-10-05,1,,,,,ミヤギケンショクニク,0
2301,8380001010903,登記記録の閉鎖等,0,2022-09-09,2022-09-05,株式会社アロー,,株式会社,福島県,白河市,本町４０番地,,07,205,9610905,,,2022-09-05,清算の結了等,,,2015-10-05,1,,,,,アロー,0
2306,8410002006888,登記記録の閉鎖等,0,2022-09-09,2022-09-07,有限会社本荘インテリアサービス,,有限会社,秋田県,由利本荘市,大鍬町１３番地の７,,05,210,0150864,,,2022-09-07,清算の結了等,,,2015-10-05,1,,,,,ホンジョウインテリアサービス,0
2308,8430001003488,登記記録の閉鎖等,0,2022-09-09,2022-09-01,ダイエー不動産管理株式会社,,株式会社,北海道,札幌市中央区,南四条西６丁目８番地,,01,101,0640804,,,2022-09-01,合併による解散等,2430001009219,令和４年９月１日札幌市中央区南六条西三丁目セントラルビル５Ｆ５０６号ダイエー開発株式会社（2430001009219）に合併し解散,2015-10-05,1,,,,,ダイエーフドウサンカンリ,0
2338,9010003029151,登記記録の閉鎖等,0,2022-09-09,2022-09-02,ＨＦ６松山一番町合同会社,,合同会社,東京都,千代田区,丸の内３丁目１番１号東京共同会計事務所内,,13,101,1000005,,,2022-09-02,清算の結了等,,,2019-01-25,1,,,,,エイチエフシックスマツヤマイチバンチョウ,0
2364,9010703001863,登記記録の閉鎖等,0,2022-09-09,2022-09-05,ストーリー合同会社,,合同会社,東京都,品川区,西五反田６丁目１７番３４号,,13,109,1410031,,,2022-09-05,清算の結了等,,,2015-10-05,1,,,,,ストーリー,0
2372,9011001069016,登記記録の閉鎖等,0,2022-09-09,2022-09-07,株式会社マッドミュージック,,株式会社,東京都,渋谷区,神宮前６丁目３１番１５号原宿マンション３１Ａ棟６階Ａ,,13,113,1500001,,,2022-09-07,合併による解散等,3100002038835,令和４年８月２６日さいたま市大宮区桜木町一丁目９番地１８大宮三貴ビル株式会社アールエスインベストメント（3100002038835）に合併し解散,2015-10-05,1,,,,,マッドミュージック,0
2380,9011101048480,登記記録の閉鎖等,0,2022-09-09,2022-08-31,ゴルフトータルサポート株式会社,,株式会社,埼玉県,さいたま市南区,別所３丁目１０番２号,,11,108,3360021,,,2022-08-31,清算の結了等,,,2015-10-05,1,,,,,ゴルフトータルサポート,0
2395,9011403003381,登記記録の閉鎖等,0,2022-09-09,2022-09-07,順徳合同会社,,合同会社,東京都,板橋区,中丸町３３－１５,,13,119,1730026,,,2022-09-07,清算の結了等,,,2021-07-14,1,,,,,ジュントク,0
2396,9011501005370,登記記録の閉鎖等,0,2022-09-09,2022-09-06,荒川製線株式会社,,株式会社,東京都,荒川区,町屋１丁目５番３号ライオンズ町屋レリアシティ９０１,,13,118,1160001,,,2022-09-06,清算の結了等,,,2015-10-05,1,,,,,アラカワセイセン,0
2400,9011703000657,登記記録の閉鎖等,0,2022-09-09,2022-09-06,合同会社ＶＴＦＡタートル,,合同会社,東京都,江戸川区,東小岩３丁目７番１８号,,13,123,1330052,,,2022-09-06,清算の結了等,,,2015-10-05,1,,,,,ヴイティーエフエータートル,0
2402,9011802023162,登記記録の閉鎖等,0,2022-09-09,2022-09-06,有限会社大宝電技,,有限会社,東京都,足立区,西綾瀬２丁目１２番４号,,13,121,1200014,,,2022-09-06,清算の結了等,,,2015-10-05,1,,,,,タイホウデンギ,0
2413,9013401004394,登記記録の閉鎖等,0,2022-09-09,2022-08-29,株式会社イノベーションラボ,,株式会社,東京都,渋谷区,東３丁目６番１８号プライムハウス３０２号,,13,113,1500011,,,2022-08-29,清算の結了等,,,2015-10-05,1,,,,,イノベーションラボ,0
2414,9020001006424,登記記録の閉鎖等,0,2022-09-09,2022-09-06,株式会社ダイトーコーポレーション,,株式会社,神奈川県,横浜市港南区,日野南２丁目１４番７号,,14,111,2340055,,,2022-09-06,清算の結了等,,,2015-10-05,1,,,,,ダイトーコーポレーション,0
2467,9100002002422,登記記録の閉鎖等,0,2022-09-09,2022-09-05,有限会社島田保険事務所,,有限会社,長野県,長野市,篠ノ井二ツ柳１９５５番地４,,20,201,3888012,,,2022-09-05,清算の結了等,,,2015-10-05,1,,,,,シマダホケンジムショ,0
2469,9100002024243,登記記録の閉鎖等,0,2022-09-09,2022-09-05,有限会社上ノ原農園土壤環境技術研究所,00069606,有限会社,長野県,安曇野市,明科中川手２０番地,,20,220,3997102,,,2022-09-05,清算の結了等,,,2015-10-05,1,,,,,ウエノハラノウエンドジョウカンキョウギジュツケンキュウジョ,0
2477,9120001056401,登記記録の閉鎖等,0,2022-09-09,2022-09-06,株式会社田中建築設計事務所,,株式会社,大阪府,大阪市淀川区,三津屋南２丁目１１番８号,,27,123,5320035,,,2022-09-06,清算の結了等,,,2015-10-05,1,,,,,タナカケンチクセッケイジムショ,0
2489,9120002001141,登記記録の閉鎖等,0,2022-09-09,2022-09-06,有限会社松建工営,,有限会社,大阪府,大阪市鶴見区,放出東１丁目１５番１号,,27,124,5380044,,,2022-09-06,清算の結了等,,,2015-10-05,1,,,,,ショウケンコウエイ,0
2497,9120901026461,登記記録の閉鎖等,0,2022-09-09,2022-09-07,ファーストバイオコンサルタント株式会社,,株式会社,大阪府,豊中市,東泉丘３丁目４番Ｂ－２１２号,,27,203,5610861,,,2022-09-07,清算の結了等,,,2015-10-05,1,,,,,ファーストバイオコンサルタント,0
2531,9190002012925,登記記録の閉鎖等,0,2022-09-09,2022-09-06,有限会社エコリゾート,,有限会社,三重県,名張市,赤目町丈六２３番地の１,,24,208,5180465,,,2022-09-06,清算の結了等,,,2015-10-05,1,,,,,エコリゾート,0
2576,9380002030899,登記記録の閉鎖等,0,2022-09-09,2022-09-06,有限会社会津典礼,,有限会社,福島県,会津若松市,町北町大字始字深町６７番地の４,,07,202,9650052,,,2022-09-06,清算の結了等,,,2015-10-05,1,,,,,アイヅテンレイ,0
2578,9410001008711,登記記録の閉鎖等,0,2022-09-09,2022-09-06,株式会社ブルーム,,株式会社,秋田県,大仙市,幸町３番３９－６号,,05,212,0140012,,,2022-09-06,清算の結了等,,,2015-10-05,1,,,,,ブルーム,0
2585,9430005009646,登記記録の閉鎖等,0,2022-09-09,2022-09-01,一般社団法人伊達青年会議所,,その他の設立登記法人,北海道,伊達市,旭町２４番地,,01,233,0520015,,,2022-09-01,清算の結了等,,,2015-10-05,1,,,,,ダテセイネンカイギショ,0
