sequenceNumber,corporateNumber,process,correct,updateDate,changeDate,name,nameImageId,kind,prefectureName,cityName,streetNumber,addressImageId,prefectureCode,cityCode,postCode,addressOutside,addressOutsideImageId,closeDate,closeCause,successorCorporateNumber,changeCause,assignmentDate,latest,enName,enPrefectureName,enCityName,enAddressOutside,furigana,hihyoji
3,1010001105944,登記記録の閉鎖等,0,2024-01-10,2023-12-22,株式会社ＰＩＡＣＣＩ,,株式会社,千葉県,浦安市,明海１丁目３番８－３０６号,,12,227,2790014,,,2023-12-22,清算の結了等,,,2015-10-05,1,,,,,ピアッチ,0
21,1010401168649,登記記録の閉鎖等,0,2024-01-10,2023-12-25,Ｍｅｎａｉ　Ｍａｒｋｅｔｓ　Ｊａｐａｎ株式会社,,株式会社,東京都,港区,虎ノ門１丁目１７番１号虎ノ門ヒルズビジネスタワー１５階,,13,103,1050001,,,2023-12-25,清算の結了等,,,2022-07-21,1,,,,,メナイマーケッツジャパン,0
30,1010403021681,登記記録の閉鎖等,0,2024-01-10,2023-12-26,ＹＡＴ２合同会社,,合同会社,東京都,港区,元赤坂１丁目１番７－１００６号,,13,103,1070051,,,2023-12-26,清算の結了等,,,2019-10-28,1,,,,,ワイエーティーツー,0
59,1011701003157,登記記録の閉鎖等,0,2024-01-10,2024-01-09,株式会社三愛商会,,株式会社,東京都,江戸川区,北小岩２丁目３３番１９号,,13,123,1330051,,,2024-01-09,清算の結了等,,,2015-10-05,1,,,,,サンアイショウカイ,0
62,1011802014937,登記記録の閉鎖等,0,2024-01-10,2023-12-28,有限会社大栄化成工業所,,有限会社,東京都,足立区,入谷８丁目５番２３号,,13,121,1210836,,,2023-12-28,清算の結了等,,,2015-10-05,1,,,,,ダイエイカセイコウギョウショ,0
69,1013301022066,登記記録の閉鎖等,0,2024-01-10,2024-01-04,株式会社シー・ジー・エー,,株式会社,東京都,豊島区,池袋２丁目３０番１３号,,13,116,1710014,,,2024-01-04,清算の結了等,,,2015-10-05,1,,,,,シージーエー,0
84,1021001039628,登記記録の閉鎖等,0,2024-01-10,2024-01-04,サーティーフォー不動産株式会社,,株式会社,神奈川県,相模原市緑区,橋本１丁目１４番３号サーティーフォービル２Ｆ,,14,151,2520143,,,2024-01-04,合併による解散等,2021001012261,令和６年１月１日神奈川県相模原市緑区橋本一丁目１４番３号株式会社サーティーフォー（2021001012261）に合併し解散,2015-10-05,1,,,,,サーティーフォーフドウサン,0
89,1030001015340,登記記録の閉鎖等,0,2024-01-10,2023-12-27,株式会社ＷＩＮ＆ＷＩＮ,,株式会社,埼玉県,さいたま市浦和区,北浦和１丁目２番１８号本多ビル２０２,,11,107,3300074,,,2023-12-27,清算の結了等,,,2015-10-05,1,,,,,,0
91,1030001052763,登記記録の閉鎖等,0,2024-01-10,2023-12-27,株式会社だるま不動産,,株式会社,埼玉県,春日部市,増富６５４番地４２,,11,214,3440041,,,2023-12-27,清算の結了等,,,2015-10-05,1,,,,,,0
106,1040001028358,登記記録の閉鎖等,0,2024-01-10,2023-12-14,明電設備株式会社,,株式会社,千葉県,鎌ケ谷市,北中沢３丁目４番４３号,,12,224,2730111,,,2023-12-14,清算の結了等,,,2023-09-06,1,,,,,メイデンセツビ,0
109,1040001096248,登記記録の閉鎖等,0,2024-01-10,2023-12-22,株式会社ＡＣＥ不動産,,株式会社,千葉県,松戸市,小金３０１番地の１グランスイート北小金２１２号,,12,207,2700014,,,2023-12-22,清算の結了等,,,2016-07-28,1,,,,,エースフドウサン,0
815,1090002015409,登記記録の閉鎖等,0,2024-01-10,2024-01-09,有限会社松屋菓子店,,有限会社,山梨県,南巨摩郡身延町,身延３６６７番地,,19,365,4092524,,,2024-01-09,清算の結了等,,,2015-10-05,1,,,,,マツヤカシテン,0
818,1100002001051,登記記録の閉鎖等,0,2024-01-10,2023-12-28,有限会社オモチャのミズノ,,有限会社,長野県,長野市,川中島町御厨３３３番地１３０,,20,201,3812221,,,2023-12-28,清算の結了等,,,2015-10-05,1,,,,,オモチャノミズノ,0
855,1140003016994,登記記録の閉鎖等,0,2024-01-10,2023-12-28,合同会社えん,,合同会社,兵庫県,尼崎市,東園田町４丁目９３番地の３,,28,202,6610953,,,2023-12-28,清算の結了等,,,2021-11-18,1,,,,,エン,0
870,1180003001885,登記記録の閉鎖等,0,2024-01-10,2023-12-28,合資会社水勇建具工芸,,合資会社,愛知県,名古屋市北区,大杉２丁目６番１５号,,23,103,4620837,,,2023-12-28,清算の結了等,,,2015-10-05,1,,,,,ミズユウタテグコウゲイ,0
871,1180003022361,登記記録の閉鎖等,0,2024-01-10,2024-01-04,合同会社ＲＫ’プライム,,合同会社,愛知県,名古屋市北区,黒川本通４丁目７番地の１,,23,103,4620841,,,2024-01-04,清算の結了等,,,2021-04-06,1,,,,,アールケイプライム,0
887,1200002024199,登記記録の閉鎖等,0,2024-01-10,2023-12-28,有限会社志津レンタカー,,有限会社,岐阜県,中津川市,下野１１８番地,,21,206,5080202,,,2023-12-28,清算の結了等,,,2015-10-05,1,,,,,シズレンタカー,0
889,1230003001756,登記記録の閉鎖等,0,2024-01-10,2024-01-05,合同会社ＬＩＮＫ　ＳＥＲＶＩＣＥ,,合同会社,富山県,富山市,大泉北町９番１９号,,16,201,9398097,,,2024-01-05,清算の結了等,,,2021-11-12,1,,,,,リンクサービス,0
926,1290002005141,登記記録の閉鎖等,0,2024-01-10,2023-12-28,有限会社千市屋,,有限会社,福岡県,福岡市東区,名島２丁目３４番２５号,,40,131,8130043,,,2023-12-28,合併による解散等,8290001015127,令和５年１２月２８日福岡市博多区古門戸町１０番２５号株式会社名島屋（8290001015127）に合併し解散,2015-10-05,1,,,,,センイチヤ,0
930,1290003010743,登記記録の閉鎖等,0,2024-01-10,2024-01-04,合同会社ＮＳ　ＮＩＰＰＯＮ,,合同会社,福岡県,福岡市東区,筥松４丁目８番７号,,40,131,8120061,,,2024-01-04,清算の結了等,,,2020-12-21,1,,,,,,0
960,1430001048416,登記記録の閉鎖等,0,2024-01-10,2023-12-25,株式会社空知砂利会館,,株式会社,北海道,滝川市,流通団地３丁目４番２号,,01,225,0730025,,,2023-12-25,清算の結了等,,,2015-10-05,1,,,,,ソラチジャリカイカン,0
966,1450005003010,登記記録の閉鎖等,0,2024-01-10,2023-12-27,大廣寺,,その他の設立登記法人,北海道,天塩郡遠別町,字共栄１３３番地,,01,486,0983521,,,2023-12-27,清算の結了等,,,2015-10-05,1,,,,,ダイコウジ,0
968,1470002004620,登記記録の閉鎖等,0,2024-01-10,2024-01-05,有限会社中央美術工芸,,有限会社,香川県,高松市,百間町６番地１４,,37,201,7600041,,,2024-01-05,清算の結了等,,,2015-10-05,1,,,,,チュウオウビジュツコウゲイ,0
971,1490001004561,登記記録の閉鎖等,0,2024-01-10,2024-01-05,株式会社四国管材センター,,株式会社,高知県,高知市,旭町１丁目３９番地３３,,39,201,7800935,,,2024-01-05,清算の結了等,,,2015-10-05,1,,,,,シコクカンザイセンター,0
986,2010003026023,登記記録の閉鎖等,0,2024-01-10,2023-12-28,合同会社ＳＫＹ,,合同会社,東京都,千代田区,丸の内３丁目１番１号東京共同会計事務所内,,13,101,1000005,,,2023-12-28,清算の結了等,,,2017-09-07,1,,,,,スカイ,0
993,2010005021187,登記記録の閉鎖等,0,2024-01-10,2024-01-05,一般社団法人プレミアムオートモーティブアセット,,その他の設立登記法人,東京都,千代田区,丸の内３丁目１番１号東京共同会計事務所内,,13,101,1000005,,,2024-01-05,清算の結了等,,,2015-10-05,1,,,,,プレミアムオートモーティブアセット,0
1031,2011002032607,登記記録の閉鎖等,0,2024-01-10,2023-12-25,有限会社ウエストゲートアドバイザリー,,有限会社,東京都,港区,南青山６丁目７番５号ドミール南青山２０１,,13,103,1070062,,,2023-12-25,清算の結了等,,,2015-10-05,1,,,,,ウエストゲートアドバイザリー,0
1034,2011101039874,登記記録の閉鎖等,0,2024-01-10,2024-01-04,株式会社リンクエージェント,,株式会社,東京都,中央区,銀座４丁目１２番１５号歌舞伎座タワー,,13,102,1040061,,,2024-01-04,合併による解散等,4010001137976,令和６年１月１日東京都中央区銀座四丁目１２番１５号歌舞伎座タワー株式会社リンク・アイ（4010001137976）に合併し解散,2015-10-05,1,,,,,リンクエージェント,0
1043,2011105009378,登記記録の閉鎖等,0,2024-01-10,2024-01-04,一般社団法人ピアトラスト,,その他の設立登記法人,東京都,新宿区,西新宿６丁目５番１号,,13,104,1600023,,,2024-01-04,清算の結了等,,,2020-06-05,1,,,,,ピアトラスト,0
1045,2011401022588,登記記録の閉鎖等,0,2024-01-10,2023-12-27,株式会社ＫＧ　ＮＥＸＴ,,株式会社,東京都,大田区,南馬込５丁目２２－７サンスイビル１０２号室,,13,111,1430025,,,2023-12-27,清算の結了等,,,2020-05-28,1,,,,,ケージーネクスト,0
1049,2011701026074,登記記録の閉鎖等,0,2024-01-10,2024-01-04,イハダジャパン株式会社,,株式会社,東京都,江戸川区,西葛西５丁目６番２号第２８山秀ビル６Ｆ－６０１,,13,123,1340088,,,2024-01-04,清算の結了等,,,2023-03-13,1,,,,,イハダジャパン,0
1095,2040002085331,登記記録の閉鎖等,0,2024-01-10,2023-12-21,有限会社大久保左官工業,,有限会社,千葉県,銚子市,春日町１０７６番地の８４,,12,202,2880814,,,2023-12-21,清算の結了等,,,2015-10-05,1,,,,,オオクボサカンコウギョウ,0
1793,2110002003558,登記記録の閉鎖等,0,2024-01-10,2024-01-04,有限会社関屋中央デンタル,,有限会社,新潟県,新潟市中央区,文京町１１番８号,,15,103,9518153,,,2024-01-04,清算の結了等,,,2015-10-05,1,,,,,セキヤチュウオウデンタル,0
1811,2130001014281,登記記録の閉鎖等,0,2024-01-10,2023-12-26,株式会社キョーワ建装,,株式会社,京都府,京都市伏見区,醍醐南端山町２０番地の８１,,26,109,6011331,,,2023-12-26,清算の結了等,,,2015-10-05,1,,,,,キョーワケンソウ,0
1813,2130001045186,登記記録の閉鎖等,0,2024-01-10,2024-01-04,株式会社ケーディエフ,,株式会社,京都府,京都市中京区,寺町通御池上る上本能寺前町４８６番地２ジオグランデ寺町御池８０３,,26,104,6040925,,,2024-01-04,清算の結了等,,,2015-10-05,1,,,,,ケーディエフ,0
1819,2140001071330,登記記録の閉鎖等,0,2024-01-10,2024-01-04,株式会社近畿リーフ,,株式会社,兵庫県,西宮市,高須町１丁目１番１１－４４３号,,28,204,6638141,,,2024-01-04,清算の結了等,,,2015-10-05,1,,,,,キンキリーフ,0
1832,2180001028822,登記記録の閉鎖等,0,2024-01-10,2023-12-28,株式会社プロスパー,,株式会社,愛知県,名古屋市緑区,尾崎山２丁目１７１８番地,,23,114,4580024,,,2023-12-28,清算の結了等,,,2015-10-05,1,,,,,プロスパー,0
1833,2180001046683,登記記録の閉鎖等,0,2024-01-10,2024-01-04,株式会社考建,,株式会社,愛知県,名古屋市名東区,上社４丁目８９番地,,23,115,4650025,,,2024-01-04,清算の結了等,,,2015-10-05,1,,,,,コウケン,0
1834,2180001069305,登記記録の閉鎖等,0,2024-01-10,2023-12-26,株式会社ＪＡ東海グリーン,,株式会社,愛知県,安城市,今本町東向山６番地１,,23,212,4460008,,,2023-12-26,清算の結了等,,,2015-10-05,1,,,,,ジェイエイトウカイグリーン,0
1835,2180001078693,登記記録の閉鎖等,0,2024-01-10,2023-12-28,大橋タクシー株式会社,,株式会社,愛知県,瀬戸市,城屋敷町１番地,,23,204,4890923,,,2023-12-28,清算の結了等,,,2015-10-05,1,,,,,オオハシタクシー,0
1836,2180001079444,登記記録の閉鎖等,0,2024-01-10,2023-12-27,株式会社池垣化学工業所,,株式会社,愛知県,瀬戸市,南ケ丘町１０７番地,,23,204,4890955,,,2023-12-27,清算の結了等,,,2015-10-05,1,,,,,イケガキカガクコウギョウショ,0
1855,2210002011963,登記記録の閉鎖等,0,2024-01-10,2024-01-05,有限会社三好生花店,,有限会社,福井県,越前市,国府１丁目３番４号,,18,209,9150076,,,2024-01-05,清算の結了等,,,2015-10-05,1,,,,,ミヨシセイカテン,0
1859,2220002012317,登記記録の閉鎖等,0,2024-01-10,2024-01-05,有限会社北前建設,,有限会社,石川県,加賀市,田尻町南３番地,,17,206,9220552,,,2024-01-05,清算の結了等,,,2015-10-05,1,,,,,キタマエケンセツ,0
1872,2250002005755,登記記録の閉鎖等,0,2024-01-10,2024-01-05,有限会社峯青果,,有限会社,山口県,宇部市,西平原４丁目４番１号,,35,202,7550808,,,2024-01-05,清算の結了等,,,2015-10-05,1,,,,,ミネセイカ,0
1895,2290003003523,登記記録の閉鎖等,0,2024-01-10,2023-12-28,合同会社エバリッチ,,合同会社,福岡県,福岡市東区,箱崎２丁目３５番９号,,40,131,8120053,,,2023-12-28,清算の結了等,,,2015-10-05,1,,,,,エバリッチ,0
1910,2340002006769,登記記録の閉鎖等,0,2024-01-10,2024-01-05,有限会社鳥家,,有限会社,鹿児島県,鹿児島市,上之園町１４番地２８,,46,201,8900052,,,2024-01-05,清算の結了等,,,2015-10-05,1,,,,,トリヤ,0
1914,2350001016355,登記記録の閉鎖等,0,2024-01-10,2023-12-28,シードライマージャパン株式会社,,株式会社,宮崎県,宮崎市,池内町榎迫４９９番地１３,,45,201,8800041,,,2023-12-28,清算の結了等,,,2020-04-07,1,,,,,シードライマージャパン,0
1932,2430001020745,登記記録の閉鎖等,0,2024-01-10,2023-12-26,株式会社第一北日本総建,,株式会社,北海道,札幌市東区,北三十六条東２３丁目８番６号,,01,103,0070836,,,2023-12-26,清算の結了等,,,2015-10-05,1,,,,,ダイイチキタニホンソウケン,0
1961,3010001182164,登記記録の閉鎖等,0,2024-01-10,2023-12-25,株式会社ＫＡＮＤＡ　Ｃａｐｉｔａｌ,,株式会社,東京都,港区,西新橋１丁目２０番９号,,13,103,1050003,,,2023-12-25,清算の結了等,,,2017-03-15,1,,,,,カンダキャピタル,0
1970,3010005029493,登記記録の閉鎖等,0,2024-01-10,2023-12-27,一般社団法人ＯＭＭアセット・ホールディングス,,その他の設立登記法人,東京都,中央区,八丁堀４丁目２番１０号ＡＯＪ税理士法人内,,13,102,1040032,,,2023-12-27,清算の結了等,,,2018-12-12,1,,,,,オーエムエムアセットホールディングス,0
1974,3010401083144,登記記録の閉鎖等,0,2024-01-10,2023-12-27,株式会社ソアラメディカル,,株式会社,東京都,品川区,東五反田５丁目２７番１０号野村ビル９階,,13,109,1410022,,,2023-12-27,合併による解散等,7120001065313,令和５年１２月１５日東京都品川区西五反田三丁目１番９号マイカホールディングス株式会社（7120001065313）に合併し解散,2015-10-05,1,,,,,ソアラメディカル,0
2004,3011001133256,登記記録の閉鎖等,0,2024-01-10,2023-12-28,株式会社ＡＬＶＯ,,株式会社,東京都,渋谷区,渋谷２丁目１９－１５宮益坂ビルディング６０９,,13,113,1500002,,,2023-12-28,清算の結了等,,,2020-04-07,1,,,,,アルボ,0
2033,3011802006255,登記記録の閉鎖等,0,2024-01-10,2024-01-04,有限会社サポート,,有限会社,東京都,足立区,一ツ家１丁目１７番７号,,13,121,1210075,,,2024-01-04,清算の結了等,,,2015-10-05,1,,,,,サポート,0
2050,3020002049964,登記記録の閉鎖等,0,2024-01-10,2023-12-25,有限会社ティ・エス・ワイ・トレーディング,,有限会社,神奈川県,横浜市港北区,箕輪町２丁目３番７－６０１号,,14,109,2230051,,,2023-12-25,清算の結了等,,,2015-10-05,1,,,,,ティエスワイトレーディング,0
2054,3021001017441,登記記録の閉鎖等,0,2024-01-10,2024-01-04,株式会社クレオール,,株式会社,神奈川県,相模原市緑区,下九沢１５５８－８－３０４,,14,151,2520134,,,2024-01-04,清算の結了等,,,2015-10-05,1,,,,,クレオール,0
2064,3030002101732,登記記録の閉鎖等,0,2024-01-10,2023-12-20,有限会社叶屋商店,,有限会社,埼玉県,川口市,上青木西５丁目１５番３０号,,11,203,3330845,,,2023-12-20,清算の結了等,,,2015-10-05,1,,,,,カノウヤショウテン,0
2073,3040002056190,登記記録の閉鎖等,0,2024-01-10,2024-01-05,有限会社サンユー水処理技研,,有限会社,千葉県,富里市,七栄６４９番地の５３５,,12,233,2860221,,,2024-01-05,清算の結了等,,,2015-10-05,1,,,,,サンユースイショリギケン,0
2082,3070002033245,登記記録の閉鎖等,0,2024-01-10,2023-12-27,有限会社狩野園芸,,有限会社,群馬県,館林市,花山町２３１５番地,,10,207,3740005,,,2023-12-27,清算の結了等,,,2015-10-05,1,,,,,カノウエンゲイ,0
2812,3160001013404,登記記録の閉鎖等,0,2024-01-10,2024-01-04,滋賀美建株式会社,,株式会社,滋賀県,栗東市,安養寺２丁目２番５号,,25,208,5203015,,,2024-01-04,清算の結了等,,,2015-10-05,1,,,,,シガビケン,0
2815,3180001057845,登記記録の閉鎖等,0,2024-01-10,2023-12-27,株式会社大信,,株式会社,愛知県,名古屋市港区,福田１丁目５１４番地,,23,111,4550887,,,2023-12-27,清算の結了等,,,2015-10-05,1,,,,,ダイシン,0
2832,3180301007418,登記記録の閉鎖等,0,2024-01-10,2023-12-26,株式会社森工務店,,株式会社,愛知県,豊橋市,菰口町６丁目２５番地７,,23,201,4418011,,,2023-12-26,清算の結了等,,,2015-10-05,1,,,,,モリコウムテン,0
2838,3190001014507,登記記録の閉鎖等,0,2024-01-10,2024-01-05,大矢知精麦株式会社,,株式会社,三重県,四日市市,大矢知町１４０２番地,,24,202,5108034,,,2024-01-05,清算の結了等,,,2015-10-05,1,,,,,,0
2839,3190001025140,登記記録の閉鎖等,0,2024-01-10,2024-01-04,ブエナビスタ株式会社,,株式会社,三重県,四日市市,大字馳出１０４５番地１,,24,202,5100868,,,2024-01-04,清算の結了等,,,2017-12-07,1,,,,,ブエナビスタ,0
2848,3210001018067,登記記録の閉鎖等,0,2024-01-10,2024-01-05,株式会社ＡＲＥＮＡ　ＣＯＲＰＯＲＡＴＩＯＮ,,株式会社,福井県,越前市,東千福町１番７号,,18,209,9150847,,,2024-01-05,清算の結了等,,,2020-07-06,1,,,,,アリーナコーポレーション,0
2859,3260001010977,登記記録の閉鎖等,0,2024-01-10,2023-12-25,株式会社アイ・エス・ティ,,株式会社,東京都,中央区,日本橋２丁目１－１７丹生ビル２階,,13,102,1030027,,,2023-12-25,清算の結了等,,,2015-10-05,1,,,,,アイエスティ,0
2876,3290801009662,登記記録の閉鎖等,0,2024-01-10,2024-01-04,エコノミー・エンタープライズ株式会社,,株式会社,福岡県,北九州市小倉南区,志徳１丁目１番３１－５０５号,,40,107,8020983,,,2024-01-04,清算の結了等,,,2015-10-05,1,,,,,エコノミーエンタープライズ,0
2894,3360003005882,登記記録の閉鎖等,0,2024-01-10,2024-01-04,株式会社海邦磁探,,株式会社,沖縄県,南城市,佐敷字冨祖崎５４番地,,47,215,9011404,,,2024-01-04,清算の結了等,,,2015-10-05,1,,,,,カイホウジタン,0
2900,3370801000126,登記記録の閉鎖等,0,2024-01-10,2024-01-05,株式会社仙南工業,,株式会社,宮城県,名取市,高柳字辻１８９番地,00081612,04,207,9811211,,,2024-01-05,清算の結了等,,,2015-10-05,1,,,,,センナンコウギョウ,0
2917,3470005002719,登記記録の閉鎖等,0,2024-01-10,2023-12-18,宗教法人宇宙真理学会,,その他の設立登記法人,香川県,仲多度郡多度津町,本通２丁目６番３９－８０３号,,37,404,7640014,,,2023-12-18,清算の結了等,,,2015-10-05,1,,,,,,0
2919,3480002003388,登記記録の閉鎖等,0,2024-01-10,2024-01-05,有限会社徳島信和工芸,,有限会社,徳島県,徳島市,東沖洲１丁目５番地３,,36,201,7700873,,,2024-01-05,清算の結了等,,,2015-10-05,1,,,,,トクシマシンワコウゲイ,0
2920,3490001004881,登記記録の閉鎖等,0,2024-01-10,2023-12-27,株式会社山沖建設,,株式会社,高知県,四万十市,中村天神橋１３番地１,,39,210,7870027,,,2023-12-27,清算の結了等,,,2015-10-05,1,,,,,ヤマオキケンセツ,0
2923,3500001002173,登記記録の閉鎖等,0,2024-01-10,2024-01-05,株式会社松南産業,,株式会社,愛媛県,松山市,東方町甲１７５５番地の１,,38,201,7911123,,,2024-01-05,合併による解散等,5480001001440,令和６年１月１日徳島市北田宮一丁目８番７４号四国大陽日酸株式会社（5480001001440）に合併し解散,2015-10-05,1,,,,,ショウナンサンギョウ,0
2942,4010003036136,登記記録の閉鎖等,0,2024-01-10,2023-12-26,合同会社ファミーユ,,合同会社,東京都,千代田区,神田佐久間町３丁目３８番地第５東ビル５階,,13,101,1010025,,,2023-12-26,清算の結了等,,,2021-10-29,1,,,,,ファミーユ,0
2949,4010401144754,登記記録の閉鎖等,0,2024-01-10,2023-12-25,ポイントジャパン株式会社,,株式会社,東京都,港区,南麻布３丁目１９番２３号オーク南麻布２階,,13,103,1060047,,,2023-12-25,清算の結了等,,,2019-04-09,1,,,,,ポイントジャパン,0
2950,4010401146172,登記記録の閉鎖等,0,2024-01-10,2023-12-25,日本マタバリＬＮＧ受入基地投資株式会社,,株式会社,東京都,港区,赤坂５丁目３番１号,,13,103,1070052,,,2023-12-25,清算の結了等,,,2019-06-11,1,,,,,ニホンマタバリエルエヌジーウケイレキチトウシ,0
2951,4010401157021,登記記録の閉鎖等,0,2024-01-10,2023-12-25,株式会社Ｔｒａｄｅｌｉｇｈｔ,,株式会社,東京都,港区,浜松町１丁目１４番７号ＡＥビル３０３,,13,103,1050013,,,2023-12-25,清算の結了等,,,2020-12-14,1,,,,,トレーデライト,0
2957,4010403019905,登記記録の閉鎖等,0,2024-01-10,2023-12-11,合同会社ｃｏｍｉｙｎ,,合同会社,東京都,港区,赤坂４丁目３番地２６号マスターズ赤坂３０１,,13,103,1070052,,,2023-12-11,清算の結了等,,,2019-01-09,1,,,,,コミューン,0
2959,4010501029780,登記記録の閉鎖等,0,2024-01-10,2023-12-27,株式会社プラムビューティー,,株式会社,東京都,台東区,柳橋１丁目１番４号柳橋リバーサイドマンション９０５,,13,106,1110052,,,2023-12-27,清算の結了等,,,2015-10-05,1,,,,,プラムビューティー,0
2968,4010801008006,登記記録の閉鎖等,0,2024-01-10,2023-12-28,東洋荷役輸送株式会社,,株式会社,東京都,大田区,中馬込１丁目１３番１０号,,13,111,1430027,,,2023-12-28,清算の結了等,,,2015-10-05,1,,,,,トウヨウニヤクユソウ,0
2983,4011003010238,登記記録の閉鎖等,0,2024-01-10,2023-12-28,合同会社餃子王,,合同会社,東京都,渋谷区,道玄坂２丁目２３番１号小池ビル２階,,13,113,1500043,,,2023-12-28,合併による解散等,8011001157928,令和５年１２月２８日東京都渋谷区南平台町１５番１号ライオンズマンション南平台６０１株式会社チームスタンダード（8011001157928）に合併し解散,2019-08-05,1,,,,,ギョウザオウ,0
2993,4011201021821,登記記録の閉鎖等,0,2024-01-10,2023-12-28,株式会社ｂ－ｌｉｆｅ,,株式会社,東京都,渋谷区,渋谷２丁目６番１１号花門ビル５階,,13,113,1500002,,,2023-12-28,清算の結了等,,,2019-12-03,1,,,,,ビーライフ,0
2998,4011405002072,登記記録の閉鎖等,0,2024-01-10,2023-12-25,一般社団法人駿河台アセット・ホールディング,,その他の設立登記法人,東京都,港区,元赤坂１丁目１番８号株式会社赤坂国際会計内,,13,103,1070051,,,2023-12-25,清算の結了等,,,2020-04-14,1,,,,,スルガダイアセットホールディング,0
3009,4012401008336,登記記録の閉鎖等,0,2024-01-10,2023-12-14,南海活魚水産株式会社,,株式会社,東京都,調布市,富士見町１丁目３番地３４,,13,208,1820033,,,2023-12-14,清算の結了等,,,2015-10-05,1,,,,,,0
3013,4012402019803,登記記録の閉鎖等,0,2024-01-10,2023-12-28,有限会社ミハラ音楽芸術学園,,有限会社,東京都,小金井市,前原町３丁目４０番２０－２１０号,,13,210,1840013,,,2023-12-28,清算の結了等,,,2015-10-05,1,,,,,ミハラオンガクゲイジュツガクエン,0
3018,4013101005219,登記記録の閉鎖等,0,2024-01-10,2023-12-26,株式会社エコフジ,,株式会社,東京都,昭島市,拝島町３丁目１番３号,,13,207,1960002,,,2023-12-26,清算の結了等,,,2015-10-05,1,,,,,エコフジ,0
3026,4020001121153,登記記録の閉鎖等,0,2024-01-10,2023-12-27,株式会社アントラクト,,株式会社,神奈川県,横浜市西区,岡野１丁目１－２０,,14,103,2200073,,,2023-12-27,清算の結了等,,,2017-05-08,1,,,,,アントラクト,0
3031,4021001035590,登記記録の閉鎖等,0,2024-01-10,2024-01-04,株式会社サクラダイ,,株式会社,神奈川県,愛甲郡愛川町,中津７４７９番地,,14,401,2430303,,,2024-01-04,清算の結了等,,,2015-10-05,1,,,,,サクラダイ,0
3037,4030001065671,登記記録の閉鎖等,0,2024-01-10,2023-12-27,株式会社中村自販機サービス,,株式会社,埼玉県,吉川市,大字三輪野江１４６２番地１,,11,243,3420027,,,2023-12-27,清算の結了等,,,2015-10-05,1,,,,,,0
3049,4040002094578,登記記録の閉鎖等,0,2024-01-10,2023-12-21,有限会社リテックシー,,有限会社,千葉県,柏市,西原５丁目７番５号,,12,217,2770885,,,2023-12-21,清算の結了等,,,2015-10-05,1,,,,,リテックシー,0
3055,4050002009287,登記記録の閉鎖等,0,2024-01-10,2023-12-28,有限会社東京堂,,有限会社,茨城県,東茨城郡大洗町,磯浜町８９３番地の１,,08,309,3111301,,,2023-12-28,清算の結了等,,,2015-10-05,1,,,,,トウキョウドウ,0
3729,4120001069119,登記記録の閉鎖等,0,2024-01-10,2023-12-27,株式会社春雨,,株式会社,大阪府,大阪市北区,曾根崎新地１丁目７番８号新日本新地ビル４階４６号,,27,127,5300002,,,2023-12-27,清算の結了等,,,2015-10-05,1,,,,,ハルサメ,0
3735,4120001194916,登記記録の閉鎖等,0,2024-01-10,2023-12-28,株式会社ル・リブロン,,株式会社,大阪府,大阪市西区,靱本町１丁目１０番４号８０３,,27,106,5500004,,,2023-12-28,清算の結了等,,,2015-12-03,1,,,,,ルリブロン,0
3762,4140001001558,登記記録の閉鎖等,0,2024-01-10,2024-01-04,三弘工務店株式会社,,株式会社,兵庫県,神戸市東灘区,魚崎西町３丁目４番５号,,28,101,6580026,,,2024-01-04,清算の結了等,,,2015-10-05,1,,,,,サンコウコウムテン,0
3766,4140001091814,登記記録の閉鎖等,0,2024-01-10,2023-12-28,株式会社浜本メディカル・サービス,,株式会社,兵庫県,尼崎市,尾浜町２丁目２１番４１号,,28,202,6610022,,,2023-12-28,清算の結了等,,,2015-10-05,1,,,,,ハマモトメディカルサービス,0
3772,4140003002637,登記記録の閉鎖等,0,2024-01-10,2024-01-04,合資会社鈴木工業所,,合資会社,兵庫県,神戸市東灘区,鴨子ヶ原３丁目１５番１号,,28,101,6580064,,,2024-01-04,清算の結了等,,,2015-10-05,1,,,,,スズキコウギョウショ,0
3779,4180001109257,登記記録の閉鎖等,0,2024-01-10,2024-01-04,株式会社クオール,,株式会社,愛知県,津島市,大木町字元田１番地１,,23,208,4960006,,,2024-01-04,合併による解散等,6180001021212,令和６年１月１日名古屋市中川区宮脇町二丁目６５番地株式会社ヤマダ（6180001021212）に合併し解散,2015-10-05,1,,,,,クオール,0
3786,4180002063429,登記記録の閉鎖等,0,2024-01-10,2023-12-27,有限会社野田商店,,有限会社,愛知県,長久手市,長配２丁目４０８番地,,23,238,4801114,,,2023-12-27,清算の結了等,,,2015-10-05,1,,,,,ノダショウテン,0
3821,4290801024207,登記記録の閉鎖等,0,2024-01-10,2024-01-04,株式会社ダイナーエレックス,,株式会社,福岡県,北九州市小倉南区,富士見２丁目４－１３,,40,107,8020801,,,2024-01-04,清算の結了等,,,2017-12-15,1,,,,,ダイナーエレックス,0
3830,4310002015911,登記記録の閉鎖等,0,2024-01-10,2024-01-05,有限会社江の浦タクシー,,有限会社,長崎県,諫早市,飯盛町開６番地１,,42,204,8541112,,,2024-01-05,合併による解散等,7310001003526,令和６年１月１日長崎市大橋町２５番６号株式会社エキマエタクシー（7310001003526）に合併し解散,2015-10-05,1,,,,,エノウラタクシー,0
3836,4330002010043,登記記録の閉鎖等,0,2024-01-10,2023-12-27,まるとみ建設有限会社,,有限会社,熊本県,熊本市中央区,琴平本町１２番５８号,,43,101,8600814,,,2023-12-27,清算の結了等,,,2015-10-05,1,,,,,マルトミケンセツ,0
3845,4360003009346,登記記録の閉鎖等,0,2024-01-10,2024-01-04,合同会社サナベイレブンプラス,,合同会社,沖縄県,南城市,玉城字愛地７０２番地１,,47,215,9010617,,,2024-01-04,清算の結了等,,,2019-02-05,1,,,,,サナベイレブンプラス,0
3846,4370001023389,登記記録の閉鎖等,0,2024-01-10,2024-01-05,東北シロキ株式会社,,株式会社,宮城県,黒川郡大衡村,松の平２丁目１０番地,,04,424,9813608,,,2024-01-05,清算の結了等,,,2015-10-05,1,,,,,トウホクシロキ,0
3860,4430001048479,登記記録の閉鎖等,0,2024-01-10,2023-12-26,谷口電機株式会社,,株式会社,北海道,赤平市,大町１丁目３番地,,01,218,0791141,,,2023-12-26,清算の結了等,,,2015-10-05,1,,,,,タニグチデンキ,0
3868,4460101004643,登記記録の閉鎖等,0,2024-01-10,2024-01-04,株式会社衣料のしんの,,株式会社,北海道,帯広市,大通南１８丁目６番地,,01,207,0800010,,,2024-01-04,清算の結了等,,,2015-10-05,1,,,,,イリョウノシンノ,0
3873,4470002001706,登記記録の閉鎖等,0,2024-01-10,2024-01-05,有限会社落合清香堂,,有限会社,香川県,高松市,丸亀町８番地の１０,,37,201,7600029,,,2024-01-05,清算の結了等,,,2015-10-05,1,,,,,,0
3881,5010001066456,登記記録の閉鎖等,0,2024-01-10,2024-01-04,株式会社あすかインターナショナル,,株式会社,神奈川県,三浦郡葉山町,堀内２１８４番地の２６,,14,301,2400112,,,2024-01-04,清算の結了等,,,2015-10-05,1,,,,,アスカインターナショナル,0
3882,5010001078377,登記記録の閉鎖等,0,2024-01-10,2023-12-25,株式会社インデックスワンジャパン,,株式会社,千葉県,千葉市花見川区,宮野木台１丁目２４－１０－２０３号,,12,102,2620015,,,2023-12-25,清算の結了等,,,2015-10-05,1,,,,,インデックスワンジャパン,0
3886,5010001209857,登記記録の閉鎖等,0,2024-01-10,2023-12-27,メドピアキャリアエージェント株式会社,,株式会社,東京都,中央区,築地１丁目１３番１号,,13,102,1040045,,,2023-12-27,清算の結了等,,,2020-05-28,1,,,,,メドピアキャリアエージェント,0
3888,5010001219105,登記記録の閉鎖等,0,2024-01-10,2023-12-19,ＢＯＬ株式会社,,株式会社,東京都,中央区,日本橋３丁目２番１４号新槇町ビル別館第一１階,,13,102,1030027,,,2023-12-19,清算の結了等,,,2021-06-23,1,,,,,ボル,0
3899,5010401075882,登記記録の閉鎖等,0,2024-01-10,2024-01-05,ベックストラベルジャパン株式会社,,株式会社,東京都,港区,虎ノ門４丁目１番１号神谷町トラストタワー２４階,,13,103,1050001,,,2024-01-05,合併による解散等,5010401057402,令和６年１月１日東京都港区虎ノ門四丁目１番１号神谷町トラストタワー２４階エクスペディアホールディングス株式会社（5010401057402）に合併し解散,2015-10-05,1,,,,,ベックストラベルジャパン,0
3914,5010701039100,登記記録の閉鎖等,0,2024-01-10,2023-12-28,ジョイントワークス株式会社,,株式会社,東京都,品川区,西五反田２丁目１４－１３ニックハイム五反田２階,,13,109,1410031,,,2023-12-28,清算の結了等,,,2020-04-08,1,,,,,ジョイントワークス,0
3946,5011801036359,登記記録の閉鎖等,0,2024-01-10,2023-12-27,ワールドデザインフォース株式会社,,株式会社,東京都,足立区,江北２丁目１３番１３－１０２号,,13,121,1230872,,,2023-12-27,清算の結了等,,,2019-07-10,1,,,,,ワールドデザインフォース,0
3950,5012302001760,登記記録の閉鎖等,0,2024-01-10,2023-12-27,有限会社コシ電子工業,,有限会社,東京都,町田市,西成瀬２丁目２４番６号,,13,209,1940046,,,2023-12-27,清算の結了等,,,2015-10-05,1,,,,,コシデンシコウギョウ,0
3956,5013302009240,登記記録の閉鎖等,0,2024-01-10,2023-12-28,有限会社マンシヨン安井,,有限会社,東京都,豊島区,雑司が谷１丁目４８番１３号,,13,116,1710032,,,2023-12-28,清算の結了等,,,2023-11-29,1,,,,,マンシヨンヤスイ,0
3968,5021002065058,登記記録の閉鎖等,0,2024-01-10,2023-12-26,有限会社鈴木設備工業,,有限会社,神奈川県,横須賀市,須軽谷３２９番地,,14,201,2380314,,,2023-12-26,清算の結了等,,,2015-10-05,1,,,,,スズキセツビコウギョウ,0
3969,5021003011440,登記記録の閉鎖等,0,2024-01-10,2024-01-05,合同会社エヌデザイン,,合同会社,神奈川県,相模原市南区,相模台１丁目９番１５号,,14,153,2520321,,,2024-01-05,清算の結了等,,,2022-03-02,1,,,,,エヌデザイン,0
3977,5040001065785,登記記録の閉鎖等,0,2024-01-10,2023-12-22,殖栄商事株式会社,,株式会社,千葉県,柏市,布施４９５－１,,12,217,2770825,,,2023-12-22,清算の結了等,,,2015-10-05,1,,,,,ショクエイショウジ,0
4672,5100005010434,登記記録の閉鎖等,0,2024-01-10,2024-01-04,特定非営利活動法人小諸健康教室Ｙｏｕ・愛サロン,,その他の設立登記法人,長野県,小諸市,相生町１丁目３番３号,,20,208,3840025,,,2024-01-04,清算の結了等,,,2015-10-05,1,,,,,コモロケンコウキョウシツユーアイサロン,0
4714,5150005005438,登記記録の閉鎖等,0,2024-01-10,2024-01-09,特定非営利活動法人大和まほろばエヌピーオーセンター,,その他の設立登記法人,奈良県,橿原市,四条町８１８番地の９,,29,205,6340813,,,2024-01-09,清算の結了等,,,2015-10-05,1,,,,,,0
4725,5180001146654,登記記録の閉鎖等,0,2024-01-10,2024-01-04,ジャパンコンシェルジュ株式会社,,株式会社,愛知県,名古屋市中区,丸の内３丁目１６番２号第２２プロスパー丸の内３階,,23,106,4600002,,,2024-01-04,清算の結了等,,,2021-06-21,1,,,,,ジャパンコンシェルジュ,0
4735,5180303004122,登記記録の閉鎖等,0,2024-01-10,2023-12-25,Ｓｕｎｓｈｉｎｅ合同会社,,合同会社,愛知県,豊田市,扶桑町２丁目１７７番地５,,23,211,4710009,,,2023-12-25,清算の結了等,,,2018-07-25,1,,,,,サンシャイン,0
4741,5200001014123,登記記録の閉鎖等,0,2024-01-10,2024-01-04,株式会社野村,,株式会社,岐阜県,大垣市,領家町３丁目７９番地１,,21,202,5030014,,,2024-01-04,清算の結了等,,,2015-10-05,1,,,,,ノムラ,0
4750,5240002016924,登記記録の閉鎖等,0,2024-01-10,2023-12-25,有限会社モリワキ,,有限会社,広島県,広島市佐伯区,五日市町大字上河内８４８番地,,34,108,7315151,,,2023-12-25,清算の結了等,,,2015-10-05,1,,,,,モリワキ,0
4760,5290001060415,登記記録の閉鎖等,0,2024-01-10,2024-01-04,株式会社東光,,株式会社,宮城県,石巻市,新館２丁目２番１９号,,04,202,9860848,,,2024-01-04,清算の結了等,,,2015-10-05,1,,,,,,0
4767,5290002022686,登記記録の閉鎖等,0,2024-01-10,2024-01-04,有限会社グランディール,,有限会社,福岡県,福岡市早良区,内野１丁目１５番３１号,,40,137,8111123,,,2024-01-04,清算の結了等,,,2015-10-05,1,,,,,グランディール,0
4779,5310001007520,登記記録の閉鎖等,0,2024-01-10,2023-12-20,株式会社北辰カーズ,,株式会社,長崎県,佐世保市,卸本町２８番１号,,42,202,8571162,,,2023-12-20,清算の結了等,,,2015-10-05,1,,,,,,0
4787,5370001017233,登記記録の閉鎖等,0,2024-01-10,2023-12-28,株式会社レグルス,,株式会社,宮城県,仙台市青葉区,錦町１丁目１３番４２号,,04,101,9800012,,,2023-12-28,清算の結了等,,,2015-10-05,1,,,,,レグルス,0
4795,5390005005653,登記記録の閉鎖等,0,2024-01-10,2024-01-05,寺町生産森林組合,,その他の設立登記法人,山形県,尾花沢市,大字上柳渡戸７８番地,,06,212,9994332,,,2024-01-05,清算の結了等,,,2015-10-05,1,,,,,テラマチ,0
4798,5410002002196,登記記録の閉鎖等,0,2024-01-10,2023-12-27,有限会社セアマン,,有限会社,秋田県,秋田市,中通２丁目８番１号,,05,201,0100001,,,2023-12-27,清算の結了等,,,2015-10-05,1,,,,,セアマン,0
4800,5430001039436,登記記録の閉鎖等,0,2024-01-10,2023-12-28,ランドオフィス株式会社,,株式会社,北海道,札幌市北区,新川７１４番地１,,01,102,0010930,,,2023-12-28,清算の結了等,,,2015-10-05,1,,,,,ランドオフィス,0
4802,5430001085397,登記記録の閉鎖等,0,2024-01-10,2024-01-09,株式会社インターネットメディカル,,株式会社,北海道,札幌市中央区,南四条西６丁目８番３号晴ばれビル３階,,01,101,0640804,,,2024-01-09,清算の結了等,,,2021-11-18,1,,,,,インターネットメディカル,0
4809,5430005001994,登記記録の閉鎖等,0,2024-01-10,2023-12-28,医療法人社団林レディースクリニック,,その他の設立登記法人,北海道,札幌市中央区,南二条西３丁目エルセントロ札幌３Ｆ,,01,101,0600062,,,2023-12-28,清算の結了等,,,2015-10-05,1,,,,,ハヤシレディースクリニック,0
4822,6010001138824,登記記録の閉鎖等,0,2024-01-10,2023-12-27,湯島建設株式会社,,株式会社,東京都,文京区,本郷１丁目５番１７号,,13,105,1130033,,,2023-12-27,清算の結了等,,,2015-10-05,1,,,,,ユシマケンセツ,0
4825,6010001151983,登記記録の閉鎖等,0,2024-01-10,2023-12-28,山佐ＣＳＮ６リース株式会社,,株式会社,東京都,千代田区,丸の内３丁目１番１号東京共同会計事務所内,,13,101,1000005,,,2023-12-28,清算の結了等,,,2015-10-05,1,,,,,ヤマサシーエスエヌロクリース,0
4826,6010001153518,登記記録の閉鎖等,0,2024-01-10,2023-12-28,山佐ＤＬＨ１２リース株式会社,,株式会社,東京都,千代田区,丸の内３丁目１番１号東京共同会計事務所内,,13,101,1000005,,,2023-12-28,清算の結了等,,,2015-10-05,1,,,,,ヤマサディーエルエイチジュウニリース,0
4854,6010502010399,登記記録の閉鎖等,0,2024-01-10,2023-12-27,有限会社丸山ストップウォッチ商会,,有限会社,東京都,台東区,東上野３丁目１５番９号,,13,106,1100015,,,2023-12-27,清算の結了等,,,2016-05-09,1,,,,,マルヤマストップウォッチショウカイ,0
4855,6010503006479,登記記録の閉鎖等,0,2024-01-10,2023-12-26,リンチョ合同会社,,合同会社,東京都,港区,南青山２丁目２番１５号,,13,103,1070062,,,2023-12-26,清算の結了等,,,2022-01-19,1,RINCHO LIMITED LIABILITY CO.,Tokyo,"2-2-15 MINAMIAOYAMA, MINATO KU",,リンチョ,0
4861,6010701030553,登記記録の閉鎖等,0,2024-01-10,2023-12-27,株式会社サーモセル,,株式会社,東京都,品川区,東五反田５丁目２５番１９号東京デザインセンター２階,,13,109,1410022,,,2023-12-27,合併による解散等,7120001065313,令和５年１２月１５日東京都品川区西五反田三丁目１番９号マイカホールディングス株式会社（7120001065313）に合併し解散,2015-10-05,1,,,,,サーモセル,0
4865,6010801015099,登記記録の閉鎖等,0,2024-01-10,2023-12-27,株式会社時田,,株式会社,東京都,大田区,大森南２丁目９番６号－９０８,,13,111,1430013,,,2023-12-27,清算の結了等,,,2015-10-05,1,,,,,トキタ,0
4894,6011701002360,登記記録の閉鎖等,0,2024-01-10,2024-01-05,株式会社貴望,,株式会社,東京都,江戸川区,船堀７丁目１１番１７号,,13,123,1340091,,,2024-01-05,清算の結了等,,,2015-10-05,1,,,,,キボウ,0
4900,6012302002064,登記記録の閉鎖等,0,2024-01-10,2023-12-28,有限会社佐久間畳店,,有限会社,東京都,町田市,高ヶ坂３丁目１番３３号,,13,209,1940014,,,2023-12-28,清算の結了等,,,2015-10-05,1,,,,,サクマタタミテン,0
4901,6012405002382,登記記録の閉鎖等,0,2024-01-10,2024-01-04,一般社団法人シニアサポートなごみ,,その他の設立登記法人,東京都,調布市,布田２丁目９番地６号,,13,208,1820024,,,2024-01-04,清算の結了等,,,2015-10-05,1,,,,,シニアサポートナゴミ,0
4920,6020002080719,登記記録の閉鎖等,0,2024-01-10,2023-12-28,有限会社樫井興産,,有限会社,神奈川県,横浜市港北区,新吉田東１丁目６６番１３号,,14,109,2230058,,,2023-12-28,清算の結了等,,,2015-10-05,1,,,,,カシイコウサン,0
4922,6021001031720,登記記録の閉鎖等,0,2024-01-10,2024-01-04,株式会社３４ホーム,,株式会社,神奈川県,相模原市緑区,橋本１丁目１４番１１号,,14,151,2520143,,,2024-01-04,合併による解散等,2021001012261,令和６年１月１日神奈川県相模原市緑区橋本一丁目１４番３号株式会社サーティーフォー（2021001012261）に合併し解散,2015-10-05,1,,,,,サーティーフォーホーム,0
4942,6050002032700,登記記録の閉鎖等,0,2024-01-10,2023-12-28,有限会社ワコウ測量設計,,有限会社,茨城県,北茨城市,磯原町豊田３２５番地１,,08,215,3191543,,,2023-12-28,清算の結了等,,,2015-10-05,1,,,,,ワコウソクリョウセッケイ,0
5639,6120001014873,登記記録の閉鎖等,0,2024-01-10,2024-01-05,才野木由株式会社,,株式会社,大阪府,大阪市北区,西天満３丁目８番４号,,27,127,5300047,,,2024-01-05,清算の結了等,,,2015-10-05,1,,,,,サイノキヨシ,0
5640,6120001032628,登記記録の閉鎖等,0,2024-01-10,2024-01-05,株式会社興栄産業,,株式会社,大阪府,大阪市住吉区,遠里小野５丁目４番５号,,27,120,5580032,,,2024-01-05,清算の結了等,,,2015-10-05,1,,,,,コウエイサンギョウ,0
5642,6120001131875,登記記録の閉鎖等,0,2024-01-10,2023-12-28,株式会社上宮経営開発研究所,,株式会社,大阪府,大阪市中央区,釣鐘町１丁目５番７号ニューライフ大手前４０２号,,27,128,5400035,,,2023-12-28,清算の結了等,,,2015-10-05,1,,,,,ウエミヤケイエイカイハツケンキュウショ,0
5644,6120001154926,登記記録の閉鎖等,0,2024-01-10,2023-12-25,株式会社アヴィーズ,,株式会社,大阪府,大阪市中央区,備後町３丁目１番２号,,27,128,5410051,,,2023-12-25,合併による解散等,1120002076364,令和５年１２月２５日大阪府寝屋川市仁和寺本町五丁目１１番６号株式会社エフアールエム（1120002076364）に合併し解散,2015-10-05,1,,,,,アヴィーズ,0
5649,6120001258248,登記記録の閉鎖等,0,2024-01-10,2024-01-05,卓悦株式会社,,株式会社,大阪府,大阪市大正区,三軒家西３丁目４番１６号中山ビル１０３２,,27,108,5510001,,,2024-01-05,清算の結了等,,,2023-09-27,1,,,,,タクエツ,0
5660,6120005019489,登記記録の閉鎖等,0,2024-01-10,2023-12-18,特定非営利活動法人ｉＰＳコミニティー,,その他の設立登記法人,大阪府,大阪市北区,堂山町１番５号三共梅田ビル３階,,27,127,5300027,,,2023-12-18,清算の結了等,,,2017-05-22,1,,,,,アイピーエスコミニティー,0
5669,6130001021456,登記記録の閉鎖等,0,2024-01-10,2023-12-28,株式会社大龍堂書店,,株式会社,京都府,京都市中京区,新椹木町通竹屋町上る西革堂町１７５番地,,26,104,6040904,,,2023-12-28,清算の結了等,,,2015-10-05,1,,,,,タイリュウドウショテン,0
5680,6140002018979,登記記録の閉鎖等,0,2024-01-10,2024-01-05,有限会社エクセルインテリア,,有限会社,兵庫県,神戸市西区,糀台４丁目１０番地の３１,,28,111,6512273,,,2024-01-05,清算の結了等,,,2015-10-05,1,,,,,エクセルインテリア,0
5683,6160002013978,登記記録の閉鎖等,0,2024-01-10,2024-01-04,有限会社武田商店,,有限会社,滋賀県,守山市,赤野井町２５７番地,,25,207,5240061,,,2024-01-04,清算の結了等,,,2015-10-05,1,,,,,タケダショウテン,0
5686,6180001072073,登記記録の閉鎖等,0,2024-01-10,2024-01-04,株式会社ＪＥＭＥＸ・ＪＡＰＡＮ,,株式会社,愛知県,江南市,前野町東２１９,,23,217,4838052,,,2024-01-04,清算の結了等,,,2015-10-05,1,,,,,ジェメックスジャパン,0
5687,6180001086908,登記記録の閉鎖等,0,2024-01-10,2024-01-04,岐建産業株式会社,,株式会社,愛知県,稲沢市,祖父江町野田山中９４０番地,,23,220,4950024,,,2024-01-04,清算の結了等,,,2015-10-05,1,,,,,ギケンサンギョウ,0
5690,6180001123875,登記記録の閉鎖等,0,2024-01-10,2024-01-04,株式会社ユーベーカリー,,株式会社,愛知県,名古屋市千種区,松竹町２丁目５２番地,,23,101,4640823,,,2024-01-04,清算の結了等,,,2016-06-28,1,,,,,ユーベーカリー,0
5695,6180002036911,登記記録の閉鎖等,0,2024-01-10,2024-01-04,有限会社輪違商店,,有限会社,愛知県,名古屋市昭和区,曙町１丁目２８番地,00073102,23,107,4660003,,,2024-01-04,清算の結了等,,,2015-10-05,1,,,,,ワチガイショウテン,0
5706,6190002014420,登記記録の閉鎖等,0,2024-01-10,2024-01-04,丸亀不動産有限会社,,有限会社,三重県,松阪市,高町４５０番地の１,,24,204,5150011,,,2024-01-04,合併による解散等,1190001010516,令和６年１月１日三重県松阪市高町４５０番地の１丸亀産業株式会社（1190001010516）に合併し解散,2015-10-05,1,,,,,マルカメフドウサン,0
5707,6190005011183,登記記録の閉鎖等,0,2024-01-10,2023-12-20,保証責任花垣村予野負債整理組合,,その他の設立登記法人,三重県,伊賀市,（三重県名賀郡花垣村）,,24,216,5180000,,,2023-12-20,清算の結了等,,,2018-05-02,1,,,,,ホショウセキニンハナガキムラヨノ,1
5710,6200002021761,登記記録の閉鎖等,0,2024-01-10,2024-01-05,有限会社山周製陶所,,有限会社,岐阜県,土岐市,下石町３６７番地の３,,21,212,5095202,,,2024-01-05,清算の結了等,,,2015-10-05,1,,,,,ヤマシュウセイトウショ,0
5720,6230002011157,登記記録の閉鎖等,0,2024-01-10,2024-01-04,三州ビル管理有限会社,,有限会社,富山県,高岡市,大野２７３番地１,,16,202,9330016,,,2024-01-04,清算の結了等,,,2015-10-05,1,,,,,サンシュウビルカンリ,0
5765,6430001062767,登記記録の閉鎖等,0,2024-01-10,2023-12-26,Ｎ・Ｅ電設株式会社,,株式会社,北海道,札幌市東区,北四十二条東１６丁目２番１０号,,01,103,0070842,,,2023-12-26,清算の結了等,,,2015-10-05,1,,,,,エヌイーデンセツ,0
5769,6430005003511,登記記録の閉鎖等,0,2024-01-10,2023-12-28,医療法人社団賢仁会,,その他の設立登記法人,北海道,札幌市西区,八軒六条西８丁目２番１５号,,01,107,0630846,,,2023-12-28,清算の結了等,,,2015-10-05,1,,,,,ケンジンカイ,0
5783,7010001151982,登記記録の閉鎖等,0,2024-01-10,2023-12-28,山佐ＣＳＮ５リース株式会社,,株式会社,東京都,千代田区,丸の内３丁目１番１号東京共同会計事務所内,,13,101,1000005,,,2023-12-28,清算の結了等,,,2015-10-05,1,,,,,ヤマサシーエスエヌゴリース,0
5784,7010001153517,登記記録の閉鎖等,0,2024-01-10,2023-12-28,山佐ＤＬＨ１１リース株式会社,,株式会社,東京都,千代田区,丸の内３丁目１番１号東京共同会計事務所内,,13,101,1000005,,,2023-12-28,清算の結了等,,,2015-10-05,1,,,,,ヤマサディーエルエイチジュウイチリース,0
5788,7010002018933,登記記録の閉鎖等,0,2024-01-10,2023-12-28,有限会社協同開発,,有限会社,東京都,中央区,日本橋茅場町２丁目１７番４号,,13,102,1030025,,,2023-12-28,清算の結了等,,,2015-10-05,1,,,,,キョウドウカイハツ,0
5819,7011001099452,登記記録の閉鎖等,0,2024-01-10,2023-12-28,株式会社ＶＩＳＩＯＮ,,株式会社,東京都,渋谷区,道玄坂１丁目１２番１号渋谷マークシティウェスト１９Ｆ,,13,113,1500043,,,2023-12-28,合併による解散等,5011001061785,令和５年１２月２７日東京都渋谷区道玄坂一丁目１２番１号渋谷マークシティウェスト１９Ｆ株式会社ヴェリタス・インベストメント（5011001061785）に合併し解散,2015-10-05,1,,,,,ヴィジョン,0
5843,7011703001319,登記記録の閉鎖等,0,2024-01-10,2024-01-04,かぐら合同会社,,合同会社,東京都,江戸川区,西葛西６丁目４番１２号,,13,123,1340088,,,2024-01-04,清算の結了等,,,2015-10-05,1,,,,,カグラ,0
5848,7012702006754,登記記録の閉鎖等,0,2024-01-10,2023-12-27,有限会社清水商会,,有限会社,東京都,清瀬市,梅園３丁目１５番３号,,13,221,2040024,,,2023-12-27,清算の結了等,,,2015-10-05,1,,,,,シミズショウカイ,0
5853,7013303000436,登記記録の閉鎖等,0,2024-01-10,2023-12-28,合資会社伊藤圭紙器,,合資会社,東京都,豊島区,西池袋４丁目３０番１１号,,13,116,1710021,,,2023-12-28,清算の結了等,,,2015-10-05,1,,,,,イトウケイシキ,0
5856,7020001045077,登記記録の閉鎖等,0,2024-01-10,2023-12-28,皇喜管財株式会社,,株式会社,東京都,品川区,西五反田１丁目２６番２号,,13,109,1410031,,,2023-12-28,清算の結了等,,,2015-10-05,1,,,,,コウキカンザイ,0
5857,7020001096005,登記記録の閉鎖等,0,2024-01-10,2023-12-27,株式会社エクリプス,,株式会社,神奈川県,横浜市港南区,野庭町９５１番地翠美ビル,,14,111,2340056,,,2023-12-27,清算の結了等,,,2015-10-05,1,,,,,エクリプス,0
5859,7020001145991,登記記録の閉鎖等,0,2024-01-10,2023-12-28,Ｈａｐｐｉｎｅｓｓ　ｌａｎｄ株式会社,,株式会社,神奈川県,横浜市西区,平沼１丁目４０番１号嶋森ビル８階,,14,103,2200023,,,2023-12-28,清算の結了等,,,2022-04-04,1,,,,,ハピネスランド,0
5868,7021001001284,登記記録の閉鎖等,0,2024-01-10,2024-01-04,大成工機株式会社,,株式会社,神奈川県,藤沢市,天神町１丁目６番地の３,,14,205,2520814,,,2024-01-04,清算の結了等,,,2015-10-05,1,,,,,,0
5879,7030001116174,登記記録の閉鎖等,0,2024-01-10,2023-12-26,ＭＳコンサルティング株式会社,,株式会社,埼玉県,加須市,南大桑２７０１番地１,,11,210,3470015,,,2023-12-26,清算の結了等,,,2016-09-07,1,,,,,エムエスコンサルティング,0
5888,7040002043929,登記記録の閉鎖等,0,2024-01-10,2023-12-21,有限会社アート・デンタル・セキグチ,,有限会社,千葉県,松戸市,二ツ木二葉町１９８番地の６,,12,207,2700028,,,2023-12-21,清算の結了等,,,2015-10-05,1,,,,,アートデンタルセキグチ,0
5899,7080001021832,登記記録の閉鎖等,0,2024-01-10,2024-01-05,株式会社村松会計,,株式会社,静岡県,静岡市清水区,西久保２４０番地の６の１,,22,103,4240038,,,2024-01-05,清算の結了等,,,2017-09-19,1,,,,,ムラマツカイケイ,0
6638,7120001061386,登記記録の閉鎖等,0,2024-01-10,2023-12-28,株式会社エスケイエムコンサルタント,,株式会社,大阪府,大阪市北区,東天満１丁目６－６オーセンビル５階,,27,127,5300044,,,2023-12-28,合併による解散等,2120001100462,令和５年１２月２８日大阪市北区東天満一丁目６－６オーセンビル５階株式会社ＳＫＭメディカル（2120001100462）に合併し解散,2015-10-05,1,,,,,エスケイエムコンサルタント,0
6648,7120102011629,登記記録の閉鎖等,0,2024-01-10,2024-01-09,有限会社ショーヤコマース,,有限会社,大阪府,堺市西区,北条町２丁２０番１３号,,27,144,5938302,,,2024-01-09,清算の結了等,,,2015-10-05,1,,,,,,0
6667,7140003002832,登記記録の閉鎖等,0,2024-01-10,2024-01-05,合資会社久門時計店,,合資会社,兵庫県,神戸市兵庫区,新開地３丁目３番４号,,28,105,6520811,,,2024-01-05,清算の結了等,,,2015-10-05,1,,,,,クサカドトケイテン,0
6672,7160001015017,登記記録の閉鎖等,0,2024-01-10,2023-12-25,アームプランニング株式会社,,株式会社,京都府,向日市,寺戸町七ノ坪１０４番地ヴェリテ洛西口駅前２０１号,,26,208,6170002,,,2023-12-25,清算の結了等,,,2015-10-05,1,,,,,アームプランニング,0
6678,7180001125086,登記記録の閉鎖等,0,2024-01-10,2024-01-04,ニッカホーム中部株式会社,,株式会社,愛知県,名古屋市緑区,相原郷１丁目２６０９番地,,23,114,4580033,,,2024-01-04,合併による解散等,6180001043470,令和６年１月１日名古屋市緑区篭山二丁目１２２５番地ニッカホーム株式会社（6180001043470）に合併し解散,2016-10-13,1,,,,,ニッカホームチュウブ,0
6685,7180002082995,登記記録の閉鎖等,0,2024-01-10,2023-12-27,有限会社ビズスタイル,,有限会社,神奈川県,横浜市港北区,小机町２４２９,,14,109,2220036,,,2023-12-27,清算の結了等,,,2015-10-05,1,,,,,ビズスタイル,0
6696,7200002012768,登記記録の閉鎖等,0,2024-01-10,2024-01-05,有限会社関田電工,,有限会社,岐阜県,大垣市,南一色町４５３番地の１０,,21,202,5030971,,,2024-01-05,清算の結了等,,,2015-10-05,1,,,,,セキダデンコウ,0
6701,7240001002535,登記記録の閉鎖等,0,2024-01-10,2023-12-28,株式会社器具サービス広島,,株式会社,広島県,広島市東区,光町１丁目２番２８－３０２号,,34,102,7320052,,,2023-12-28,清算の結了等,,,2015-10-05,1,,,,,キグサービスヒロシマ,0
6721,7290002012033,登記記録の閉鎖等,0,2024-01-10,2024-01-04,有限会社トンボ玉,,有限会社,福岡県,福岡市中央区,大濠１丁目８番３２号,,40,133,8100052,,,2024-01-04,清算の結了等,,,2015-10-05,1,,,,,トンボダマ,0
6722,7290002036321,登記記録の閉鎖等,0,2024-01-10,2024-01-04,有限会社ケーエステキスタイル,,有限会社,福岡県,糟屋郡志免町,別府４丁目４番２０号,,40,343,8112205,,,2024-01-04,清算の結了等,,,2015-10-05,1,,,,,ケーエステキスタイル,0
6750,7380002008154,登記記録の閉鎖等,0,2024-01-10,2024-01-04,有限会社エス・ビー・エス,,有限会社,福島県,郡山市,田村町金屋字上川原２８４番地の１２０,,07,203,9630725,,,2024-01-04,清算の結了等,,,2015-10-05,1,,,,,エスビーエス,0
6758,7400001004176,登記記録の閉鎖等,0,2024-01-10,2023-12-28,日本バイメックス株式会社,,株式会社,岩手県,八幡平市,大更第２１地割３９番地２,,03,214,0287111,,,2023-12-28,清算の結了等,,,2015-10-05,1,,,,,ニホンバイメックス,0
6765,7430001077863,登記記録の閉鎖等,0,2024-01-10,2023-12-27,光輝管財株式会社,,株式会社,北海道,札幌市西区,発寒九条１４丁目５１６番地１１９,,01,107,0630829,,,2023-12-27,清算の結了等,,,2018-12-06,1,,,,,コウキカンザイ,0
6780,8010001137824,登記記録の閉鎖等,0,2024-01-10,2024-01-04,株式会社リハビリ・リサーチ・ラボラトリー,,株式会社,滋賀県,栗東市,野尻７５,,25,208,5203027,,,2024-01-04,清算の結了等,,,2015-10-05,1,,,,,リハビリリサーチラボラトリー,0
6820,8010502008342,登記記録の閉鎖等,0,2024-01-10,2023-12-27,有限会社中村商店,,有限会社,東京都,台東区,西浅草２丁目１０番２号,,13,106,1110035,,,2023-12-27,清算の結了等,,,2015-10-05,1,,,,,ナカムラショウテン,0
6836,8011003002421,登記記録の閉鎖等,0,2024-01-10,2023-12-27,エム・シー・エス・アドバイザリー合同会社,,合同会社,東京都,渋谷区,神南１丁目１２番１４号渋谷宮田ビル６階,,13,113,1500041,,,2023-12-27,清算の結了等,,,2015-10-05,1,,,,,エムシーエスアドバイザリー,0
6841,8011101015878,登記記録の閉鎖等,0,2024-01-10,2024-01-04,日昇エンジニアリング株式会社,,株式会社,東京都,新宿区,中落合２丁目２３番１１号,,13,104,1610032,,,2024-01-04,清算の結了等,,,2015-10-05,1,,,,,ニッショウエンジニアリング,0
6855,8011601022572,登記記録の閉鎖等,0,2024-01-10,2023-12-25,大友ホールディングス株式会社,,株式会社,東京都,練馬区,上石神井南町９番１１号,,13,120,1770043,,,2023-12-25,合併による解散等,6011201000996,令和５年１２月２５日東京都練馬区上石神井南町９番１１号大友コントロールサービス株式会社（6011201000996）に合併し解散,2018-05-25,1,,,,,ダイユウホールディングス,0
6859,8011801041307,登記記録の閉鎖等,0,2024-01-10,2023-12-28,ＧｒｅｅｎＷｏｒｌｄ株式会社,,株式会社,東京都,葛飾区,新小岩４丁目２９－１０リッチハイツ新小岩５０２号室,,13,122,1240024,,,2023-12-28,清算の結了等,,,2022-09-22,1,,,,,グリーンワールド,0
6880,8020005004879,登記記録の閉鎖等,0,2024-01-10,2023-12-27,特定非営利活動法人こころの電話金沢,,その他の設立登記法人,神奈川県,横浜市金沢区,泥亀２丁目１番８号筒井ビル金沢文庫ダイヤモンドマンション２０２号,,14,108,2360021,,,2023-12-27,清算の結了等,,,2015-10-05,1,,,,,ココロノデンワカナザワ,0
6890,8030001039754,登記記録の閉鎖等,0,2024-01-10,2023-12-22,株式会社匠建,,株式会社,埼玉県,八潮市,大瀬１丁目５番地８,,11,234,3400822,,,2023-12-22,清算の結了等,,,2015-10-05,1,,,,,ショウケン,0
6902,8030002035042,登記記録の閉鎖等,0,2024-01-10,2023-12-25,有限会社加藤工務店,,有限会社,埼玉県,入間市,春日町１丁目１０番１６号,,11,225,3580006,,,2023-12-25,清算の結了等,,,2015-10-05,1,,,,,カトウコウムテン,0
6909,8040002017279,登記記録の閉鎖等,0,2024-01-10,2023-12-11,有限会社Ｓ＆Ｙ・Ｃｏｍｐａｎｙ,,有限会社,千葉県,千葉市美浜区,磯辺５丁目１５番５号,,12,106,2610012,,,2023-12-11,清算の結了等,,,2015-10-05,1,,,,,エスアンドワイカンパニー,0
6917,8070002014918,登記記録の閉鎖等,0,2024-01-10,2023-12-27,有限会社田中工作所,,有限会社,群馬県,安中市,原市３丁目５番４号,,10,211,3790133,,,2023-12-27,清算の結了等,,,2015-10-05,1,,,,,タナカコウサクショ,0
6921,8080003002516,登記記録の閉鎖等,0,2024-01-10,2024-01-05,ＳＩＢ　ＪＡＰＡＮ合同会社,,合同会社,静岡県,静岡市葵区,与一３丁目７番４３号,,22,101,4200949,,,2024-01-05,清算の結了等,,,2020-12-11,1,,,,,エスアイビージャパン,0
6925,8080103000725,登記記録の閉鎖等,0,2024-01-10,2024-01-04,リンク・ネクスト合同会社,,合同会社,静岡県,富士市,松岡３番地の３,,22,210,4160909,,,2024-01-04,清算の結了等,,,2015-10-05,1,,,,,リンクネクスト,0
7626,8120001031545,登記記録の閉鎖等,0,2024-01-10,2023-12-27,株式会社ヒャクドリーム,,株式会社,大阪府,大阪市住之江区,新北島１丁目２番１号,,27,125,5590024,,,2023-12-27,清算の結了等,,,2015-10-05,1,,,,,ヒャクドリーム,0
7637,8120101053761,登記記録の閉鎖等,0,2024-01-10,2024-01-05,株式会社和泉プラニング,,株式会社,大阪府,堺市中区,土師町５丁１４番１０号,,27,142,5998238,,,2024-01-05,清算の結了等,,,2015-10-21,1,,,,,イズミプラニング,0
7643,8130001017964,登記記録の閉鎖等,0,2024-01-10,2024-01-04,武田絹織株式会社,,株式会社,京都府,京都市下京区,西洞院通松原上る高辻西洞院町８０５番地,,26,106,6008465,,,2024-01-04,清算の結了等,,,2015-10-05,1,,,,,タケダケンショク,0
7661,8140001116856,登記記録の閉鎖等,0,2024-01-10,2023-12-28,株式会社ＢＡＬＡＮＣＥ＆ＵＮＩＱＵＥ,,株式会社,大阪府,富田林市,美山台７番４－１１５号,,27,214,5840039,,,2023-12-28,清算の結了等,,,2020-04-02,1,,,,,バランスアンドユニーク,0
7665,8140002035394,登記記録の閉鎖等,0,2024-01-10,2024-01-04,おおにし製袋有限会社,,有限会社,兵庫県,加古川市,平岡町高畑１４５番地の１,,28,210,6750103,,,2024-01-04,清算の結了等,,,2015-10-05,1,,,,,オオニシセイタイ,0
7674,8180001070240,登記記録の閉鎖等,0,2024-01-10,2024-01-04,株式会社ホーマフーズ,,株式会社,愛知県,名古屋市中区,二の丸１番１号,,23,106,4600032,,,2024-01-04,清算の結了等,,,2015-10-05,1,,,,,ホーマフーズ,0
7675,8180001086245,登記記録の閉鎖等,0,2024-01-10,2024-01-04,株式会社リュウプロモーション,,株式会社,愛知県,稲沢市,祖父江町祖父江上沼１番地２３,,23,220,4950001,,,2024-01-04,清算の結了等,,,2015-10-05,1,,,,,リュウプロモーション,0
7676,8180001099668,登記記録の閉鎖等,0,2024-01-10,2024-01-04,株式会社ＳＴＴ,,株式会社,愛知県,あま市,木田徳左５番地５クレセール１０３号室,,23,237,4901222,,,2024-01-04,清算の結了等,,,2015-10-05,1,,,,,エスティティ,0
7679,8180001117677,登記記録の閉鎖等,0,2024-01-10,2024-01-04,株式会社ディライト,,株式会社,愛知県,一宮市,萩原町萩原字押切１５番地１,,23,203,4910353,,,2024-01-04,合併による解散等,5180001086074,令和５年１２月３１日愛知県稲沢市生出山田町５４番地株式会社徳山商会（5180001086074）に合併し解散,2015-10-05,1,,,,,ディライト,0
7680,8180001141702,登記記録の閉鎖等,0,2024-01-10,2024-01-04,株式会社末永広,,株式会社,愛知県,名古屋市中村区,剣町９８番地,,23,105,4530842,,,2024-01-04,清算の結了等,,,2020-06-23,1,,,,,スエヒロ,0
7701,8250002018818,登記記録の閉鎖等,0,2024-01-10,2023-12-27,有限会社ライズ,,有限会社,山口県,岩国市,青木町３丁目３１番７号,,35,208,7400042,,,2023-12-27,清算の結了等,,,2015-10-05,1,,,,,ライズ,0
7706,8260003003017,登記記録の閉鎖等,0,2024-01-10,2024-01-05,合同会社Ａｒｓ　ｌｉｆｅ　ｄｅｓｉｇｎ,,合同会社,岡山県,岡山市中区,海吉１９４４番地２,,33,102,7038261,,,2024-01-05,清算の結了等,,,2019-12-04,1,,,,,アルスライフデザイン,0
7725,8290801016506,登記記録の閉鎖等,0,2024-01-10,2024-01-04,株式会社亀屋,,株式会社,福岡県,田川郡添田町,大字野田字灰田１１０７番地,,40,602,8240604,,,2024-01-04,清算の結了等,,,2015-10-05,1,,,,,カメヤ,0
7729,8290803003205,登記記録の閉鎖等,0,2024-01-10,2023-12-28,合同会社イケナガ,,合同会社,福岡県,北九州市若松区,塩屋３丁目２９番１２号,,40,103,8080131,,,2023-12-28,清算の結了等,,,2018-10-04,1,,,,,イケナガ,0
7733,8310002005090,登記記録の閉鎖等,0,2024-01-10,2024-01-04,有限会社前田船舶設計,,有限会社,長崎県,長崎市,川平町１３４７番地の１１,,42,201,8528143,,,2024-01-04,清算の結了等,,,2015-10-05,1,,,,,マエダセンパクセッケイ,0
7737,8330001004364,登記記録の閉鎖等,0,2024-01-10,2023-12-28,松田青果貿易株式会社,,株式会社,熊本県,熊本市中央区,細工町３丁目３８番地,,43,101,8600041,,,2023-12-28,清算の結了等,,,2015-10-05,1,,,,,マツダセイカボウエキ,0
7816,9010405007184,登記記録の閉鎖等,0,2024-01-10,2023-12-26,一般社団法人合板仮設材安全技術協会,,その他の設立登記法人,東京都,港区,芝５丁目３０番１号,,13,103,1080014,,,2023-12-26,清算の結了等,,,2015-10-05,1,,,,,ゴウハンカセツザイアンゼンギジュツキョウカイ,0
7829,9010902010814,登記記録の閉鎖等,0,2024-01-10,2023-12-25,有限会社巴企画,,有限会社,東京都,世田谷区,松原１丁目３５番２１－２１５号,,13,112,1560043,,,2023-12-25,清算の結了等,,,2015-10-05,1,,,,,トモエキカク,0
7835,9011005009083,登記記録の閉鎖等,0,2024-01-10,2023-12-28,一般社団法人アドバンスＬａｂ,,その他の設立登記法人,東京都,新宿区,新宿５丁目１７番１７号,,13,104,1600022,,,2023-12-28,清算の結了等,,,2021-06-04,1,,,,,アドバンスラボ,0
7861,9012801020794,登記記録の閉鎖等,0,2024-01-10,2023-12-26,株式会社ヒカシン,,株式会社,東京都,昭島市,拝島町３丁目１番３号,,13,207,1960002,,,2023-12-26,清算の結了等,,,2021-04-26,1,,,,,ヒカシン,0
7869,9020005004795,登記記録の閉鎖等,0,2024-01-10,2023-12-28,医療法人紀明会,,その他の設立登記法人,神奈川県,横浜市港北区,日吉本町５丁目４番１号,,14,109,2230062,,,2023-12-28,清算の結了等,,,2015-10-05,1,,,,,キメイカイ,0
7873,9021001026437,登記記録の閉鎖等,0,2024-01-10,2024-01-04,瀧澤硝子産業株式会社,,株式会社,神奈川県,座間市,相模が丘５丁目２９番５５号,,14,216,2520001,,,2024-01-04,清算の結了等,,,2015-10-05,1,,,,,タキザワガラスサンギョウ,0
7897,9040003008193,登記記録の閉鎖等,0,2024-01-10,2023-12-21,合同会社ケイ・プランナー,,合同会社,千葉県,千葉市若葉区,御成台３丁目１４番地２,,12,104,2650077,,,2023-12-21,清算の結了等,,,2016-02-10,1,,,,,ケイプランナー,0
7906,9070001039626,登記記録の閉鎖等,0,2024-01-10,2023-12-25,株式会社ＮＥＴＢＬＯＸ,,株式会社,群馬県,伊勢崎市,山王町１１４２番地１５,,10,204,3720831,,,2023-12-25,清算の結了等,,,2022-09-12,1,,,,,ネットブロックス,0
8658,9120901012362,登記記録の閉鎖等,0,2024-01-10,2023-12-18,株式会社ＮＥＯＭＡＸバリオ,,株式会社,大阪府,三島郡島本町,江川２丁目１５番１７号,,27,301,6180013,,,2023-12-18,清算の結了等,,,2023-08-23,1,,,,,ネオマックスバリオ,0
8676,9140005019014,登記記録の閉鎖等,0,2024-01-10,2023-12-28,特定非営利活動法人ハートオブミラクル,,その他の設立登記法人,神奈川県,横浜市中区,花咲町１丁目４８－３ロゼ桜木町４０６,,14,104,2310063,,,2023-12-28,清算の結了等,,,2015-10-05,1,,,,,ハートオブミラクル,0
8703,9190001011424,登記記録の閉鎖等,0,2024-01-10,2024-01-04,株式会社ジーエル,,株式会社,三重県,松阪市,下村町９０６－１,,24,204,5150043,,,2024-01-04,合併による解散等,1190001011613,令和６年１月１日三重県松阪市下村町９０６番１株式会社ジーアール（1190001011613）に合併し解散,2015-10-05,1,,,,,ジーエル,0
8704,9200001031478,登記記録の閉鎖等,0,2024-01-10,2024-01-04,ウエストンホールディングス株式会社,,株式会社,岐阜県,岐阜市,柳津町高桑１丁目４８番地,,21,201,5016122,,,2024-01-04,合併による解散等,3200001008060,令和６年１月１日岐阜市柳津町高桑一丁目４８番地日本ウエストン株式会社（3200001008060）に合併し解散,2015-10-05,1,,,,,ウエストンホールディングス,0
8711,9240003004726,登記記録の閉鎖等,0,2024-01-10,2023-12-26,Ｍａｒｋｅｔ　Ｄｅｖｅｌｏｐｍｅｎｔ合同会社,,合同会社,広島県,広島市安芸区,矢野西５丁目１２番１８号,,34,107,7360085,,,2023-12-26,清算の結了等,,,2020-07-06,1,,,,,マーケットディベロップメント,0
8712,9240003005526,登記記録の閉鎖等,0,2024-01-10,2023-12-26,合同会社ｕｉｔｔｏ,,合同会社,広島県,広島市中区,上八丁堀８番２６－８０９号,,34,101,7300012,,,2023-12-26,清算の結了等,,,2022-03-01,1,,,,,ユイット,0
8736,9300003001023,登記記録の閉鎖等,0,2024-01-10,2023-12-28,きゅうショップ合同会社,,合同会社,佐賀県,唐津市,厳木町岩屋９５９番地４,,41,202,8493123,,,2023-12-28,清算の結了等,,,2015-10-05,1,,,,,キュウショップ,0
8738,9330001003150,登記記録の閉鎖等,0,2024-01-10,2023-12-20,株式会社東海測量設計,,株式会社,熊本県,熊本市東区,沼山津１丁目２３番２６号,,43,102,8612102,,,2023-12-20,合併による解散等,6330001015603,令和５年１２月１日熊本市東区沼山津一丁目２３番２６号株式会社タヒラ測量設計（6330001015603）に合併し解散,2015-10-05,1,,,,,トウカイソクリョウセッケイ,0
8740,9330005004822,登記記録の閉鎖等,0,2024-01-10,2023-12-27,農事組合法人樋ノ口組合,00098375,その他の設立登記法人,熊本県,阿蘇郡南小国町,大字中原５２０３番地,,43,423,8692403,,,2023-12-27,清算の結了等,,,2015-10-05,1,,,,,ヒノクチクミアイ,0
8749,9380002012625,登記記録の閉鎖等,0,2024-01-10,2024-01-04,有限会社棟方,,有限会社,福島県,郡山市,堂前町２３番１５号ＴＥＣビル２０１号,,07,203,9638877,,,2024-01-04,清算の結了等,,,2015-10-05,1,,,,,ムナカタ,0
8751,9390001005967,登記記録の閉鎖等,0,2024-01-10,2024-01-04,株式会社フロット,,株式会社,山形県,山形市,立谷川３丁目１４１０番地の１,,06,201,9902251,,,2024-01-04,合併による解散等,5390001001193,令和６年１月１日山形市立谷川二丁目１３４７番地株式会社フロット（5390001001193）に合併し解散,2015-10-05,1,,,,,フロット,0
8766,9430002049364,登記記録の閉鎖等,0,2024-01-10,2023-12-25,有限会社サーチ,,有限会社,北海道,岩見沢市,五条東５丁目５番地,,01,210,0680005,,,2023-12-25,清算の結了等,,,2015-10-05,1,,,,,サーチ,0
8772,9470002017350,登記記録の閉鎖等,0,2024-01-10,2024-01-04,株式会社谷－仙,,株式会社,愛知県,名古屋市天白区,向が丘３丁目１００１番地,,23,116,4680012,,,2024-01-04,清算の結了等,,,2015-10-05,1,,,,,タニセン,0
8778,9490002003695,登記記録の閉鎖等,0,2024-01-10,2024-01-05,有限会社とり丑精肉店,,有限会社,高知県,高知市,菜園場町８番２号,,39,201,7800823,,,2024-01-05,清算の結了等,,,2015-10-05,1,,,,,トリウシセイニクテン,0
