sequenceNumber,corporateNumber,process,correct,updateDate,changeDate,name,nameImageId,kind,prefectureName,cityName,streetNumber,addressImageId,prefectureCode,cityCode,postCode,addressOutside,addressOutsideImageId,closeDate,closeCause,successorCorporateNumber,changeCause,assignmentDate,latest,enName,enPrefectureName,enCityName,enAddressOutside,furigana,hihyoji
8,1010101011951,登記記録の閉鎖等,0,2025-11-06,2025-11-04,株式会社Ａ－ＴＥＣ,,株式会社,東京都,稲城市,東長沼４２２番地の５セイシェル２０３号,,13,225,2060802,,,2025-11-04,清算の結了等,,,2015-10-05,1,,,,,エーテック,0
43,1011801006654,登記記録の閉鎖等,0,2025-11-06,2025-11-04,株式会社置栖製作所,,株式会社,東京都,足立区,梅島１丁目６番２０号,,13,121,1210816,,,2025-11-04,清算の結了等,,,2015-10-05,1,,,,,オキスセイサクショ,0
48,1012801024076,登記記録の閉鎖等,0,2025-11-06,2025-10-28,株式会社ＴＣＮ,,株式会社,東京都,立川市,柴崎町１丁目１８番２８号,,13,202,1900023,,,2025-10-28,清算の結了等,,,2025-07-04,1,,,,,ティーシーエヌ,0
55,1020001008015,登記記録の閉鎖等,0,2025-11-06,2025-10-28,株式会社ブリヂストンＥＭＫ,,株式会社,神奈川県,横浜市戸塚区,柏尾町１番地,,14,110,2440812,,,2025-10-28,清算の結了等,,,2015-10-05,1,,,,,ブリヂストンイーエムケー,0
59,1020001033252,登記記録の閉鎖等,0,2025-11-06,2025-10-22,株式会社都企画,,株式会社,神奈川県,横浜市保土ケ谷区,岡沢町２４２番地１３,,14,106,2400062,,,2025-10-22,清算の結了等,,,2015-10-05,1,,,,,ミヤコキカク,0
72,1021002014274,登記記録の閉鎖等,0,2025-11-06,2025-10-20,有限会社風岡塗装,,有限会社,神奈川県,鎌倉市,大船４丁目１９番２号,,14,204,2470056,,,2025-10-20,清算の結了等,,,2015-10-05,1,,,,,カザオカトソウ,0
76,1021005009230,登記記録の閉鎖等,0,2025-11-06,2025-10-20,一般社団法人コグウェイ,,その他の設立登記法人,大阪府,池田市,上池田２丁目１番６号,,27,204,5630027,,,2025-10-20,清算の結了等,,,2015-10-05,1,,,,,コグウェイ,0
77,1030003002519,登記記録の閉鎖等,0,2025-11-06,2025-10-06,合資会社さんしん住宅サービス,,合資会社,千葉県,松戸市,東松戸４丁目１１番地の５,,12,207,2702225,,,2025-10-06,清算の結了等,,,2015-10-05,1,,,,,サンシンジュウタクサービス,0
86,1040002029099,登記記録の閉鎖等,0,2025-11-06,2025-10-06,有限会社サンエム設計,,有限会社,千葉県,印西市,平賀学園台２丁目３番１２号,,12,231,2701606,,,2025-10-06,清算の結了等,,,2015-10-05,1,,,,,サンエムセッケイ,0
87,1040002053875,登記記録の閉鎖等,0,2025-11-06,2025-10-06,有限会社フィーリング・ハウス,,有限会社,千葉県,松戸市,松戸新田２４番地京葉流通センター２－２１,,12,207,2702241,,,2025-10-06,清算の結了等,,,2015-10-05,1,,,,,フィーリングハウス,0
88,1040002096973,登記記録の閉鎖等,0,2025-11-06,2025-10-03,有限会社小沼商事,,有限会社,千葉県,野田市,春日町１番地の３,,12,208,2780052,,,2025-10-03,清算の結了等,,,2015-10-05,1,,,,,コヌマショウジ,0
94,1070002037132,登記記録の閉鎖等,0,2025-11-06,2025-11-04,有限会社緑風亭,,有限会社,群馬県,吾妻郡草津町,大字草津５２４番地８,,10,426,3771711,,,2025-11-04,清算の結了等,,,2015-10-05,1,,,,,,0
99,1080005004467,登記記録の閉鎖等,0,2025-11-06,2025-10-31,船木第一茶農業協同組合,,その他の設立登記法人,静岡県,島田市,岡田５５番地,,22,209,4270106,,,2025-10-31,清算の結了等,,,2015-10-05,1,,,,,フナキダイイチチャ,0
110,1100002034423,登記記録の閉鎖等,0,2025-11-06,2025-10-31,有限会社堀内建具店,,有限会社,長野県,駒ヶ根市,北町２６番１８号,,20,210,3994111,,,2025-10-31,清算の結了等,,,2015-10-05,1,,,,,ホリウチタテグテン,0
114,1120001051491,登記記録の閉鎖等,0,2025-11-06,2025-10-27,関西特殊化工株式会社,,株式会社,大阪府,大阪市東淀川区,柴島３丁目７番２３号,,27,114,5330024,,,2025-10-27,清算の結了等,,,2015-10-05,1,,,,,カンサイトクシュカコウ,0
130,1120101027763,登記記録の閉鎖等,0,2025-11-06,2025-10-31,株式会社Ｓｈｉｎｋｉ,,株式会社,大阪府,大阪市東住吉区,住道矢田８丁目１４番７号,,27,121,5460022,,,2025-10-31,清算の結了等,,,2015-10-05,1,,,,,シンキ,0
138,1122003000682,登記記録の閉鎖等,0,2025-11-06,2025-10-24,大化物流開発合同会社,,合同会社,大阪府,大阪市中央区,久太郎町１丁目９番１８号三栄ビル６階,,27,128,5410056,,,2025-10-24,清算の結了等,,,2015-10-05,1,,,,,タイカブツリュウカイハツ,0
142,1130002025865,登記記録の閉鎖等,0,2025-11-06,2025-11-04,有限会社マルサン,,有限会社,京都府,長岡京市,今里４丁目１７番５号,,26,209,6170814,,,2025-11-04,清算の結了等,,,2015-10-05,1,,,,,マルサン,0
154,1170001015806,登記記録の閉鎖等,0,2025-11-06,2025-11-05,株式会社四つ葉農園,,株式会社,和歌山県,西牟婁郡白浜町,中１７２８番地の１,,30,401,6492333,,,2025-11-05,清算の結了等,,,2019-10-16,1,,,,,ヨツバノウエン,0
157,1180001097273,登記記録の閉鎖等,0,2025-11-06,2025-10-30,株式会社杉本組,,株式会社,愛知県,愛西市,草平町川田７２番地,,23,232,4968015,,,2025-10-30,清算の結了等,,,2015-10-05,1,,,,,スギモトグミ,0
158,1180001098404,登記記録の閉鎖等,0,2025-11-06,2025-11-04,株式会社グローグッズ,,株式会社,愛知県,あま市,篠田稲荷５４番地１,,23,237,4901211,,,2025-11-04,清算の結了等,,,2015-10-05,1,,,,,グローグッズ,0
167,1180301010563,登記記録の閉鎖等,0,2025-11-06,2025-10-22,株式会社ＦＲＥＥ　ＣＬＡＳＳ,,株式会社,東京都,中央区,銀座１丁目１２番４号Ｎ＆ＥＢＬＤ．６Ｆ,,13,102,1040061,,,2025-10-22,清算の結了等,,,2015-10-05,1,,,,,フリークラス,0
173,1190005011097,登記記録の閉鎖等,0,2025-11-06,2025-10-29,特定非営利活動法人花の父母,,その他の設立登記法人,三重県,亀山市,天神４丁目２番２６号,,24,210,5190142,,,2025-10-29,清算の結了等,,,2017-07-27,1,,,,,ハナノフボ,0
174,1200001038605,登記記録の閉鎖等,0,2025-11-06,2025-10-31,株式会社美東エージェンシー,,株式会社,岐阜県,美濃加茂市,森山町３丁目１番２５号,,21,211,5050021,,,2025-10-31,清算の結了等,,,2021-04-28,1,,,,,ビトウエージェンシー,0
191,1290003002971,登記記録の閉鎖等,0,2025-11-06,2025-10-23,合資会社古賀製材所,,合資会社,福岡県,久留米市,田主丸町田主丸９２７番地の１,,40,203,8391233,,,2025-10-23,清算の結了等,,,2015-10-05,1,,,,,コガセイザイショ,0
201,1310002015591,登記記録の閉鎖等,0,2025-11-06,2025-11-04,有限会社松永左官産業,,有限会社,長崎県,諫早市,小豆崎町４２６番地５,,42,204,8590311,,,2025-11-04,清算の結了等,,,2015-10-05,1,,,,,マツナガサカンサンギョウ,0
203,1320002006490,登記記録の閉鎖等,0,2025-11-06,2025-10-31,有限会社丸信刃物店,,有限会社,大分県,大分市,牧１丁目１番１８号,,44,201,8700924,,,2025-10-31,清算の結了等,,,2015-10-05,1,,,,,マルシンハモノテン,0
207,1350001007727,登記記録の閉鎖等,0,2025-11-06,2025-11-05,株式会社アイアイ,,株式会社,宮崎県,宮崎市,大島町山田ケ窪１９４６番地,,45,201,8800824,,,2025-11-05,清算の結了等,,,2015-10-05,1,,,,,アイアイ,0
213,1380002027572,登記記録の閉鎖等,0,2025-11-06,2025-10-27,有限会社大内インテリア,,有限会社,福島県,いわき市,常磐上湯長谷町釜ノ前１３９番地の４５,,07,204,9728322,,,2025-10-27,清算の結了等,,,2015-10-05,1,,,,,オオウチインテリア,0
216,1400005004830,登記記録の閉鎖等,0,2025-11-06,2025-10-27,小倉山牧野農業協同組合,,その他の設立登記法人,岩手県,久慈市,宇部町第１地割５９番地の２,,03,207,0288111,,,2025-10-27,清算の結了等,,,2015-10-05,1,,,,,オグラヤマボクヤ,0
219,1420002000153,登記記録の閉鎖等,0,2025-11-06,2025-10-17,有限会社青森中央包装資材,,有限会社,青森県,青森市,卸町１番１号,,02,201,0300137,,,2025-10-17,清算の結了等,,,2015-10-05,1,,,,,アオモリチュウオウホソウシザイ,0
224,1470001010512,登記記録の閉鎖等,0,2025-11-06,2025-10-31,株式会社モリタ,,株式会社,香川県,三豊市,三野町吉津甲１２３８番地２,,37,208,7670033,,,2025-10-31,清算の結了等,,,2015-10-05,1,,,,,モリタ,0
226,1470001017557,登記記録の閉鎖等,0,2025-11-06,2025-10-24,株式会社リリカ,,株式会社,香川県,高松市,春日町５５３番地１,,37,201,7610101,,,2025-10-24,清算の結了等,,,2019-07-25,1,,,,,リリカ,0
231,2010001047384,登記記録の閉鎖等,0,2025-11-06,2025-10-27,株式会社情報興業サプライズ,,株式会社,東京都,中央区,新川１丁目２２番１１号,,13,102,1040033,,,2025-10-27,清算の結了等,,,2015-10-05,1,,,,,ジョウホウコウギョウサプライズ,0
236,2010001179434,登記記録の閉鎖等,0,2025-11-06,2025-10-08,株式会社プレミア・インシュアランスパートナーズ,,株式会社,東京都,千代田区,麹町２丁目４番地１,,13,101,1020083,,,2025-10-08,合併による解散等,8010001197694,令和７年１０月１日東京都千代田区麹町二丁目４番地１株式会社プレステージ・グローバルソリューション（8010001197694）に合併し解散,2016-11-08,1,,,,,プレミアインシュアランスパートナーズ,0
238,2010001212574,登記記録の閉鎖等,0,2025-11-06,2025-10-27,株式会社Ａｄｅｌａｎｔｅ,,株式会社,東京都,千代田区,九段南１丁目５番６号りそな九段ビル５Ｆ・ＫＳフロア,,13,101,1020074,,,2025-10-27,清算の結了等,,,2020-10-05,1,,,,,アデランテ,0
244,2010001224347,登記記録の閉鎖等,0,2025-11-06,2025-10-27,エムデイーシー株式会社,,株式会社,東京都,中央区,日本橋室町１丁目２番６号,,13,102,1030022,,,2025-10-27,清算の結了等,,,2022-02-04,1,,,,,エムデイーシー,0
250,2010001243818,登記記録の閉鎖等,0,2025-11-06,2025-10-27,株式会社ＡＨＮＹ,,株式会社,東京都,中央区,銀座１丁目１２番４号７階,,13,102,1040061,,,2025-10-27,清算の結了等,,,2024-04-08,1,,,,,アーニー,0
261,2010401146240,登記記録の閉鎖等,0,2025-11-06,2025-10-31,Ｔｈｒｅｅ　Ｓｉｘ　Ｚｅｒｏ　ＪＡＰＡＮ株式会社,,株式会社,東京都,渋谷区,神宮前２丁目１８番１９号,,13,113,1500001,,,2025-10-31,合併による解散等,7010401192073,令和７年１０月１日東京都港区六本木六丁目１０番１号六本木ヒルズ森タワー１６階ＭＡＤＥ　ＩＮ　ＪＡＰＡＮ株式会社（7010401192073）に合併し解散,2019-06-18,1,,,,,スリーシックスゼロジャパン,0
278,2010801024681,登記記録の閉鎖等,0,2025-11-06,2025-10-23,株式会社松本工業,,株式会社,東京都,大田区,西蒲田８丁目８番２号,,13,111,1440051,,,2025-10-23,清算の結了等,,,2015-10-05,1,,,,,マツモトコウギョウ,0
288,2011301024156,登記記録の閉鎖等,0,2025-11-06,2025-10-30,株式会社キセキＨＤ,,株式会社,東京都,杉並区,天沼３丁目２０番１８号,,13,115,1670032,,,2025-10-30,清算の結了等,,,2018-06-08,1,,,,,キセキホールディングス,0
294,2011701010805,登記記録の閉鎖等,0,2025-11-06,2025-10-24,ドゥーアメニティー株式会社,,株式会社,東京都,江戸川区,篠崎町８丁目７番１３号,,13,123,1330061,,,2025-10-24,清算の結了等,,,2015-10-05,1,,,,,ドゥーアメニティー,0
295,2011701012529,登記記録の閉鎖等,0,2025-11-06,2025-10-24,株式会社システムパートナーズ,,株式会社,東京都,江戸川区,中葛西５丁目１６番１４号,,13,123,1340083,,,2025-10-24,清算の結了等,,,2015-10-05,1,,,,,システムパートナーズ,0
307,2020001062507,登記記録の閉鎖等,0,2025-11-06,2025-10-22,セルフ株式会社,,株式会社,神奈川県,横浜市中区,南仲通４丁目４６番地１,,14,104,2310006,,,2025-10-22,清算の結了等,,,2015-10-05,1,,,,,セルフ,0
318,2021002006246,登記記録の閉鎖等,0,2025-11-06,2025-10-16,有限会社アイベリーホーム,,有限会社,神奈川県,三浦市,三崎町小網代３２番地５０,,14,210,2380225,,,2025-10-16,清算の結了等,,,2015-10-05,1,,,,,アイベリーホーム,0
328,2030002068782,登記記録の閉鎖等,0,2025-11-06,2025-10-29,有限会社正製作所,,有限会社,埼玉県,春日部市,粕壁東４丁目１８番２３号,,11,214,3440062,,,2025-10-29,清算の結了等,,,2015-10-05,1,,,,,タダシセイサクジョ,0
337,2040002077865,登記記録の閉鎖等,0,2025-11-06,2025-10-07,板倉理研有限会社,,有限会社,千葉県,東金市,東金２１番地,,12,213,2830802,,,2025-10-07,清算の結了等,,,2015-10-05,1,,,,,イタクラリケン,0
341,2050002000479,登記記録の閉鎖等,0,2025-11-06,2025-10-29,有限会社ウノフードサービス,,有限会社,茨城県,水戸市,見川２丁目１０８番２６号,,08,201,3100912,,,2025-10-29,清算の結了等,,,2015-10-05,1,,,,,ウノフードサービス,0
348,2070002023354,登記記録の閉鎖等,0,2025-11-06,2025-10-31,有限会社ケイ・ツーリストぐんま,,有限会社,群馬県,みどり市,笠懸町阿左美３２６７番地１９,,10,212,3792311,,,2025-10-31,清算の結了等,,,2015-10-05,1,,,,,ケイツーリストグンマ,0
350,2080101018717,登記記録の閉鎖等,0,2025-11-06,2025-10-31,株式会社柿田川とうふ館,,株式会社,静岡県,駿東郡清水町,伏見８５番地の１,,22,341,4110907,,,2025-10-31,合併による解散等,6080101005471,令和７年１０月３１日静岡県駿東郡清水町新宿８１５番地の２カメヤ食品株式会社（6080101005471）に合併し解散,2015-11-02,1,,,,,カキタガワトウフカン,0
354,2080102013139,登記記録の閉鎖等,0,2025-11-06,2025-11-04,有限会社ティー・エー・シー,,有限会社,静岡県,富士市,森島５２番地の１３大石ビル２階,,22,210,4160948,,,2025-11-04,清算の結了等,,,2015-10-05,1,,,,,ティーエーシー,0
356,2090001014732,登記記録の閉鎖等,0,2025-11-06,2025-10-31,コフ株式会社,,株式会社,山梨県,甲府市,住吉３丁目２１番３９号２Ｆ,,19,201,4000851,,,2025-10-31,清算の結了等,,,2016-08-04,1,,,,,コフ,0
357,2100001019762,登記記録の閉鎖等,0,2025-11-06,2025-11-04,増澤醸造株式会社,,株式会社,長野県,岡谷市,本町１丁目５番２５号,,20,204,3940028,,,2025-11-04,清算の結了等,,,2015-10-05,1,,,,,マスザワジョウゾウ,0
369,2120001250712,登記記録の閉鎖等,0,2025-11-06,2025-10-29,＿洛株式会社,00128662,株式会社,埼玉県,入間市,東町４丁目１番８１号ベスト入間１０１,,11,225,3580002,,,2025-10-29,清算の結了等,,,2022-12-02,1,,,,,カロ,0
370,2120001253871,登記記録の閉鎖等,0,2025-11-06,2025-10-31,株式会社まる屋,,株式会社,大阪府,大阪市浪速区,恵美須西２丁目１番１２号,,27,111,5560003,,,2025-10-31,清算の結了等,,,2023-04-14,1,,,,,マルヤ,0
387,2120901040782,登記記録の閉鎖等,0,2025-11-06,2025-10-22,株式会社岩壱技研,,株式会社,大阪府,吹田市,山田市場１０番１２－１０５号,,27,205,5650822,,,2025-10-22,清算の結了等,,,2018-12-28,1,,,,,イワイチギケン,0
389,2122001007919,登記記録の閉鎖等,0,2025-11-06,2025-10-22,吉川建設工業株式会社,,株式会社,大阪府,東大阪市,鴻池町２丁目４番５号,,27,227,5780972,,,2025-10-22,清算の結了等,,,2015-10-05,1,,,,,ヨシカワケンセツコウギョウ,0
393,2130001037480,登記記録の閉鎖等,0,2025-11-06,2025-11-04,株式会社ＯＭＧ,,株式会社,京都府,京都市左京区,下鴨岸本町３３番地９,,26,103,6060853,,,2025-11-04,清算の結了等,,,2015-10-05,1,,,,,オーエムジー,0
403,2140002061140,登記記録の閉鎖等,0,2025-11-06,2025-10-28,有限会社コスミックグレイス,,有限会社,兵庫県,神戸市中央区,北野町２丁目９－１ギータマンション７Ａ,,28,110,6500002,,,2025-10-28,清算の結了等,,,2015-10-05,1,,,,,コスミックグレイス,0
427,2240001004346,登記記録の閉鎖等,0,2025-11-06,2025-10-31,株式会社シーン,,株式会社,広島県,広島市中区,舟入本町１８番２５号,,34,101,7300843,,,2025-10-31,清算の結了等,,,2015-10-05,1,,,,,シーン,0
432,2260001014806,登記記録の閉鎖等,0,2025-11-06,2025-10-30,株式会社マルキ商店,,株式会社,岡山県,倉敷市,阿知２丁目１７番２７号,,33,202,7100055,,,2025-10-30,清算の結了等,,,2015-10-05,1,,,,,マルキショウテン,0
440,2290001060038,登記記録の閉鎖等,0,2025-11-06,2025-10-14,株式会社アウル・マテリアル,,株式会社,福岡県,筑後市,大字下北島８６０番地１,,40,211,8330034,,,2025-10-14,清算の結了等,,,2015-10-05,1,,,,,アウルマテリアル,0
456,2320001014246,登記記録の閉鎖等,0,2025-11-06,2025-10-31,株式会社健幸,,株式会社,大分県,大分市,大字下判田３９３９番地の２,,44,201,8701112,,,2025-10-31,清算の結了等,,,2015-10-05,1,,,,,ケンコウ,0
475,2370001040015,登記記録の閉鎖等,0,2025-11-06,2025-10-27,株式会社ＴＫＭ,,株式会社,宮城県,仙台市若林区,荒井７丁目３７番地の１,,04,103,9840032,,,2025-10-27,清算の結了等,,,2016-07-26,1,,,,,ティーケーエム,0
476,2370001041640,登記記録の閉鎖等,0,2025-11-06,2025-10-27,株式会社クロッシュ,,株式会社,宮城県,柴田郡大河原町,字大巻２番地２,,04,321,9891261,,,2025-10-27,清算の結了等,,,2017-06-12,1,,,,,クロッシュ,0
487,2410002002389,登記記録の閉鎖等,0,2025-11-06,2025-11-04,有限会社武石豆富店,,有限会社,秋田県,秋田市,将軍野南１丁目１０番３２号,,05,201,0110936,,,2025-11-04,清算の結了等,,,2015-10-05,1,,,,,タケイシトウフテン,0
500,2470002009437,登記記録の閉鎖等,0,2025-11-06,2025-11-04,有限会社山栄開発,,有限会社,香川県,高松市,香川町大野１３２５番地９,,37,201,7611701,,,2025-11-04,清算の結了等,,,2015-10-05,1,,,,,サンエイカイハツ,0
511,3010002013384,登記記録の閉鎖等,0,2025-11-06,2025-10-27,有限会社長谷川栄一商店,,有限会社,東京都,千代田区,神田松永町１７番地,,13,101,1010023,,,2025-10-27,清算の結了等,,,2015-10-05,1,,,,,ハセガワエイイチショウテン,0
520,3010401085264,登記記録の閉鎖等,0,2025-11-06,2025-10-08,株式会社ソリッド・インベスターズ,,株式会社,東京都,港区,港南２丁目１５番１号品川インターシティＡ棟２８階,,13,103,1080075,,,2025-10-08,清算の結了等,,,2015-10-05,1,,,,,ソリッドインベスターズ,0
531,3010405011877,登記記録の閉鎖等,0,2025-11-06,2025-10-08,一般社団法人エスエイチ３号,,その他の設立登記法人,東京都,港区,元赤坂１丁目１番８号株式会社赤坂国際会計内,,13,103,1070051,,,2025-10-08,清算の結了等,,,2015-10-05,1,,,,,エスエイチサンゴウ,0
536,3010602011606,登記記録の閉鎖等,0,2025-11-06,2025-10-30,有限会社島袋商店,,有限会社,東京都,墨田区,亀沢１丁目３番１号,,13,107,1300014,,,2025-10-30,清算の結了等,,,2015-10-05,1,,,,,,0
541,3010903007039,登記記録の閉鎖等,0,2025-11-06,2025-11-04,合同会社ミュージック・モータース,,合同会社,東京都,世田谷区,駒沢２丁目１４番１－１０７号,,13,112,1540012,,,2025-11-04,清算の結了等,,,2021-12-28,1,,,,,ミュージックモータース,0
547,3011001135054,登記記録の閉鎖等,0,2025-11-06,2025-10-08,株式会社ＰＲＯＪＥＣＴ　ＣＯＭＰ,,株式会社,東京都,港区,東麻布２丁目３５番１号ＫＣビル６階麻布十番ライズオフィス２１号室,,13,103,1060044,,,2025-10-08,清算の結了等,,,2020-08-03,1,,,,,プロジェクトコンプ,0
548,3011001139195,登記記録の閉鎖等,0,2025-11-06,2025-10-06,アルファ株式会社,,株式会社,東京都,渋谷区,神宮前６丁目２３番４号桑野ビル２階,,13,113,1500001,,,2025-10-06,清算の結了等,,,2021-03-17,1,,,,,アルファ,0
562,3011401001129,登記記録の閉鎖等,0,2025-11-06,2025-10-31,大利根建設株式会社,,株式会社,東京都,板橋区,西台２丁目７番２３号,,13,119,1750045,,,2025-10-31,合併による解散等,9040001050619,令和７年１０月１日千葉県木更津市清見台二丁目７番２５号埼東建設株式会社（9040001050619）に合併し解散,2015-10-05,1,,,,,オオトネケンセツ,0
563,3011402001763,登記記録の閉鎖等,0,2025-11-06,2025-10-31,有限会社オーガ・プロセス,,有限会社,東京都,板橋区,大谷口北町７１番７号,,13,119,1730031,,,2025-10-31,清算の結了等,,,2015-10-05,1,,,,,オーガプロセス,0
584,3020002015586,登記記録の閉鎖等,0,2025-11-06,2025-10-27,有限会社明和,,有限会社,神奈川県,横浜市青葉区,恩田町１１２４番地３,,14,117,2270065,,,2025-10-27,清算の結了等,,,2015-10-05,1,,,,,メイワ,0
586,3020002057083,登記記録の閉鎖等,0,2025-11-06,2025-10-22,有限会社レッツ測量社,,有限会社,神奈川県,横浜市金沢区,釜利谷東７丁目１５番３１号,,14,108,2360042,,,2025-10-22,清算の結了等,,,2015-10-05,1,,,,,レッツソクリョウシャ,0
588,3020002099679,登記記録の閉鎖等,0,2025-11-06,2025-10-28,有限会社靖光工業所,,有限会社,神奈川県,川崎市川崎区,浜町２丁目２６番４号,,14,131,2100851,,,2025-10-28,清算の結了等,,,2015-10-05,1,,,,,ヤスミツコウギョウショ,0
593,3021001019280,登記記録の閉鎖等,0,2025-11-06,2025-10-28,株式会社アーバン二十一情報センター,,株式会社,神奈川県,横浜市港北区,綱島西２丁目２番１２号,,14,109,2230053,,,2025-10-28,清算の結了等,,,2015-10-05,1,,,,,アーバンニジュウイチジョウホウセンター,0
605,3030002080811,登記記録の閉鎖等,0,2025-11-06,2025-10-28,有限会社西澤写真館,,有限会社,埼玉県,本庄市,銀座３丁目３番２４号,,11,211,3670052,,,2025-10-28,清算の結了等,,,2015-10-05,1,,,,,ニシザワシャシンカン,0
618,3080002012173,登記記録の閉鎖等,0,2025-11-06,2025-10-30,有限会社サワダ住研,,有限会社,静岡県,静岡市葵区,上沓谷町１８番地の４,,22,101,4200815,,,2025-10-30,清算の結了等,,,2015-10-05,1,,,,,サワダジュウケン,0
619,3080101015671,登記記録の閉鎖等,0,2025-11-06,2025-10-31,株式会社ザ・ゴールデン,,株式会社,静岡県,富士市,瓜島町５４番地,,22,210,4170057,,,2025-10-31,合併による解散等,2180001087216,令和７年１０月２３日愛知県一宮市浅野字大曲り７９番地１株式会社不動産セレクト（2180001087216）に合併し解散,2015-10-05,1,,,,,ザゴールデン,0
633,3120001222966,登記記録の閉鎖等,0,2025-11-06,2025-10-24,グランダイニング株式会社,,株式会社,大阪府,大阪市北区,天神橋５丁目３－２２,,27,127,5300041,,,2025-10-24,清算の結了等,,,2019-08-09,1,,,,,グランダイニング,0
642,3120003014429,登記記録の閉鎖等,0,2025-11-06,2025-10-31,バリューオン株式会社,,株式会社,大阪府,大阪市北区,梅田１丁目１番３大阪駅前第３ビル２３０７,,27,127,5300001,,,2025-10-31,清算の結了等,,,2018-06-22,1,,,,,バリューオン,0
655,3130002006260,登記記録の閉鎖等,0,2025-11-06,2025-11-04,有限会社宮崎工芸社,,有限会社,京都府,京都市左京区,西寺町通仁王門上る正往寺町４５５番地,,26,103,6068353,,,2025-11-04,清算の結了等,,,2015-10-05,1,,,,,ミヤザキコウゲイシャ,0
665,3140001113255,登記記録の閉鎖等,0,2025-11-06,2025-10-28,株式会社仁志コンサルタント,,株式会社,兵庫県,伊丹市,柏木町３丁目４６番地１,,28,207,6640863,,,2025-10-28,清算の結了等,,,2019-04-05,1,,,,,ニシコンサルタント,0
666,3140001132577,登記記録の閉鎖等,0,2025-11-06,2025-10-29,株式会社大城,,株式会社,兵庫県,伊丹市,北伊丹２丁目１１１番地２－４０８号,,28,207,6640831,,,2025-10-29,清算の結了等,,,2023-12-07,1,,,,,オオシロ,0
669,3140003014039,登記記録の閉鎖等,0,2025-11-06,2025-10-24,三丹エステート合同会社,,合同会社,兵庫県,丹波篠山市,東新町９１番地,,28,221,6692324,,,2025-10-24,清算の結了等,,,2019-06-21,1,,,,,サンタンエステート,0
673,3160001020986,登記記録の閉鎖等,0,2025-11-06,2025-11-04,ＡＲＱＰＬＵＳ株式会社,,株式会社,滋賀県,守山市,水保町１１８７番地６,,25,207,5240102,,,2025-11-04,清算の結了等,,,2018-06-06,1,,,,,アークプラス,0
676,3180001082496,登記記録の閉鎖等,0,2025-11-06,2025-10-31,五藤毛織株式会社,,株式会社,愛知県,一宮市,新生２丁目９番８号,,23,203,4910912,,,2025-10-31,清算の結了等,,,2015-10-05,1,,,,,ゴトウケオリ,0
680,3180001156985,登記記録の閉鎖等,0,2025-11-06,2025-10-31,株式会社大昇設備,,株式会社,愛知県,大府市,共和町３丁目８番地２クレスト共和６０３号室,,23,223,4740061,,,2025-10-31,清算の結了等,,,2023-07-10,1,,,,,ダイショウセツビ,0
685,3180301019578,登記記録の閉鎖等,0,2025-11-06,2025-11-04,株式会社井上自動車,,株式会社,愛知県,豊田市,錦町２丁目１５番地１,,23,211,4710877,,,2025-11-04,清算の結了等,,,2015-10-05,1,,,,,イノウエジドウシャ,0
687,3180302006212,登記記録の閉鎖等,0,2025-11-06,2025-10-31,有限会社アスフィー,,有限会社,愛知県,豊橋市,宮下町１５１番地,,23,201,4400044,,,2025-10-31,清算の結了等,,,2015-10-05,1,,,,,アスフィー,0
692,3190002000984,登記記録の閉鎖等,0,2025-11-06,2025-10-31,筒井印刷有限会社,,有限会社,三重県,津市,栗真小川町７２０番地の１,,24,201,5140104,,,2025-10-31,清算の結了等,,,2015-10-05,1,,,,,ツツイインサツ,0
694,3200001037407,登記記録の閉鎖等,0,2025-11-06,2025-10-30,おもてなしロジ株式会社,,株式会社,岐阜県,羽島郡岐南町,徳田２丁目７５番地,,21,302,5016016,,,2025-10-30,清算の結了等,,,2020-05-11,1,,,,,オモテナシロジ,0
702,3240002000946,登記記録の閉鎖等,0,2025-11-06,2025-10-31,有限会社荒谷酒店,,有限会社,広島県,広島市南区,松原町４番１２号,,34,103,7320822,,,2025-10-31,清算の結了等,,,2015-10-05,1,,,,,アラタニサケテン,0
703,3250005000802,登記記録の閉鎖等,0,2025-11-06,2025-10-30,特定非営利活動法人フリースクールエイ・ユー・シー,,その他の設立登記法人,山口県,山口市,桜畠４丁目３番２１号,,35,203,7530021,,,2025-10-30,清算の結了等,,,2015-10-05,1,,,,,フリースクールエイユーシー,0
709,3290002017977,登記記録の閉鎖等,0,2025-11-06,2025-10-14,有限会社康貴測量事務所,,有限会社,福岡県,福岡市博多区,諸岡５丁目２５番２６号,,40,132,8120894,,,2025-10-14,清算の結了等,,,2015-10-05,1,,,,,ヤスタカソクリョウジムショ,0
720,3330002029976,登記記録の閉鎖等,0,2025-11-06,2025-10-28,イズノ工業有限会社,,有限会社,熊本県,人吉市,大畑麓町４１２３番地,,43,203,8680811,,,2025-10-28,清算の結了等,,,2015-10-05,1,,,,,イズノコウギョウ,0
744,3410001013171,登記記録の閉鎖等,0,2025-11-06,2025-11-04,株式会社ムネヒロ,,株式会社,秋田県,秋田市,新屋田尻沢西町９番２３号ハウスアローザ１０１号,,05,201,0101645,,,2025-11-04,清算の結了等,,,2022-04-20,1,,,,,ムネヒロ,0
755,3480002012109,登記記録の閉鎖等,0,2025-11-06,2025-11-04,有限会社うずしおコンタクト,,有限会社,徳島県,鳴門市,撫養町大桑島字濘岩浜３０番地３,,36,202,7720011,,,2025-11-04,合併による解散等,5480002004707,令和７年１１月１日徳島市一番町一丁目７番地株式会社三木コンタクトレンズ（5480002004707）に合併し解散,2015-10-05,1,,,,,ウズシオコンタクト,0
765,4010001176198,登記記録の閉鎖等,0,2025-11-06,2025-10-27,株式会社Ｈプラス,,株式会社,東京都,千代田区,鍛冶町１丁目５番４号,,13,101,1010044,,,2025-10-27,清算の結了等,,,2016-06-10,1,,,,,エイチプラス,0
766,4010001210592,登記記録の閉鎖等,0,2025-11-06,2025-10-27,トップキング株式会社,,株式会社,東京都,千代田区,神田平河町１番地第３東ビル５Ｆ,,13,101,1010027,,,2025-10-27,清算の結了等,,,2020-07-01,1,,,,,トツプキング,0
767,4010001230871,登記記録の閉鎖等,0,2025-11-06,2025-10-27,株式会社ＡＬＬ,,株式会社,東京都,千代田区,九段南１丁目５－６りそな九段ビル５Ｆ,,13,101,1020074,,,2025-10-27,清算の結了等,,,2022-11-15,1,,,,,オール,0
770,4010003026285,登記記録の閉鎖等,0,2025-11-06,2025-10-10,合同会社ユアーズ,,合同会社,東京都,中央区,銀座６丁目１３番１６号銀座ＷａｌｌビルＵＣＦ５階,,13,102,1040061,,,2025-10-10,合併による解散等,6200001033691,令和７年９月３０日東京都世田谷区代沢四丁目３７番８号株式会社クラッシーコーポレーション（6200001033691）に合併し解散,2017-10-19,1,,,,,,0
773,4010005032810,登記記録の閉鎖等,0,2025-11-06,2025-10-31,一般社団法人南青山ビルプロジェクト,,その他の設立登記法人,東京都,中央区,新川２丁目２７番１号,,13,102,1040033,,,2025-10-31,清算の結了等,,,2021-01-20,1,,,,,ミナミアオヤマビルプロジェクト,0
795,4011001149292,登記記録の閉鎖等,0,2025-11-06,2025-10-17,株式会社Ｔ‐ＲＩＳＥ,,株式会社,福岡県,福岡市博多区,綱場町７番１号リアンプレミアム呉服町ステーション２階,,40,132,8120024,,,2025-10-17,清算の結了等,,,2022-08-19,1,,,,,ティーライズ,0
805,4011102018603,登記記録の閉鎖等,0,2025-11-06,2025-10-02,有限会社データネットワーク,,有限会社,東京都,新宿区,西新宿７丁目４番３号,,13,104,1600023,,,2025-10-02,清算の結了等,,,2015-10-05,1,,,,,データネットワーク,0
808,4011601011348,登記記録の閉鎖等,0,2025-11-06,2025-10-30,株式会社中山電工,,株式会社,東京都,練馬区,豊玉北３丁目１５番１４号,,13,120,1760012,,,2025-10-30,清算の結了等,,,2015-10-05,1,,,,,ナカヤマデンコウ,0
814,4011802010768,登記記録の閉鎖等,0,2025-11-06,2025-10-29,有限会社大塚商亊,,有限会社,埼玉県,草加市,氷川町４９９番地１８,,11,221,3400034,,,2025-10-29,清算の結了等,,,2015-10-05,1,,,,,オオツカショウジ,0
816,4011805000824,登記記録の閉鎖等,0,2025-11-06,2025-10-31,医療法人社団優青会,,その他の設立登記法人,東京都,葛飾区,柴又６丁目２０番７号,,13,122,1250052,,,2025-10-31,清算の結了等,,,2015-10-05,1,,,,,ユウセイカイ,0
823,4013301018177,登記記録の閉鎖等,0,2025-11-06,2025-10-24,アンサークリエイト株式会社,,株式会社,東京都,豊島区,千早３丁目８番１０号,,13,116,1710044,,,2025-10-24,清算の結了等,,,2015-10-05,1,,,,,アンサークリエイト,0
831,4020001112961,登記記録の閉鎖等,0,2025-11-06,2025-10-24,株式会社ＮＩＣＥＴＩＭＥ　ＣＯＭＰＡＮＹ,,株式会社,神奈川県,横浜市神奈川区,六角橋３丁目２３番８号,,14,102,2210802,,,2025-10-24,清算の結了等,,,2015-10-05,1,,,,,,0
864,4030002097425,登記記録の閉鎖等,0,2025-11-06,2025-10-28,有限会社さわの印刷所,,有限会社,埼玉県,比企郡小川町,大字大塚７８番地,,11,343,3550328,,,2025-10-28,清算の結了等,,,2015-10-05,1,,,,,サワノインサツジョ,0
865,4030002097730,登記記録の閉鎖等,0,2025-11-06,2025-10-29,有限会社関口工務店,,有限会社,埼玉県,比企郡嵐山町,大字川島２３８９番地４,,11,342,3550213,,,2025-10-29,清算の結了等,,,2015-10-05,1,,,,,セキグチコウムテン,0
871,4050002009659,登記記録の閉鎖等,0,2025-11-06,2025-10-29,有限会社ＫＡＴＳＵＴＡ,,有限会社,茨城県,ひたちなか市,高場２丁目１１番地１５,,08,221,3120062,,,2025-10-29,清算の結了等,,,2015-10-05,1,,,,,カツタ,0
888,4120001092657,登記記録の閉鎖等,0,2025-11-06,2025-10-31,株式会社和宏印刷,,株式会社,大阪府,大阪市中央区,農人橋２丁目２番１１号,,27,128,5400011,,,2025-10-31,清算の結了等,,,2015-10-05,1,,,,,ワコウインサツ,0
895,4120001186095,登記記録の閉鎖等,0,2025-11-06,2025-10-31,レーベン株式会社,,株式会社,大阪府,大阪市住之江区,北加賀屋４丁目６番９号,,27,125,5590011,,,2025-10-31,清算の結了等,,,2015-10-05,1,,,,,レーベン,0
900,4120001232634,登記記録の閉鎖等,0,2025-11-06,2025-10-31,株式会社クラウンエステート,,株式会社,大阪府,大阪市中央区,北浜３丁目２番２５号,,27,128,5410041,,,2025-10-31,清算の結了等,,,2020-10-22,1,,,,,クラウンエステート,0
911,4120101057312,登記記録の閉鎖等,0,2025-11-06,2025-10-30,株式会社ライフコンサルティング,,株式会社,大阪府,大阪市西区,江之子島２丁目１番３７－３８１２号,,27,106,5500006,,,2025-10-30,清算の結了等,,,2017-10-31,1,,,,,ライフコンサルティング,0
919,4140001013108,登記記録の閉鎖等,0,2025-11-06,2025-10-27,桜井電機株式会社,,株式会社,兵庫県,神戸市兵庫区,和田山通１丁目２番２５号Ｂ棟５０６号,,28,105,6520884,,,2025-10-27,清算の結了等,,,2015-10-05,1,,,,,サクライデンキ,0
927,4150003001076,登記記録の閉鎖等,0,2025-11-06,2025-11-04,合同会社ＭＳメディカルライフ,,合同会社,奈良県,奈良市,あやめ池南７丁目５３２番地の５ヒルクレストあやめ池３０６号,,29,201,6310033,,,2025-11-04,清算の結了等,,,2015-10-05,1,,,,,エムエスメディカルライフ,0
929,4160002000326,登記記録の閉鎖等,0,2025-11-06,2025-10-30,有限会社大沢ビル,,有限会社,滋賀県,大津市,長等２丁目３番１号,,25,201,5200046,,,2025-10-30,清算の結了等,,,2015-10-05,1,,,,,オオサワビル,0
945,4180301016566,登記記録の閉鎖等,0,2025-11-06,2025-10-31,株式会社アットワーク,,株式会社,愛知県,安城市,高棚町郷４７７番地５,,23,212,4460053,,,2025-10-31,清算の結了等,,,2015-10-05,1,,,,,アットワーク,0
962,4210001014032,登記記録の閉鎖等,0,2025-11-06,2025-10-31,はましんビジネスサービス株式会社,,株式会社,福井県,小浜市,大手町９番２０号,,18,204,9170078,,,2025-10-31,清算の結了等,,,2015-10-05,1,,,,,ハマシンビジネスサービス,0
973,4290001046539,登記記録の閉鎖等,0,2025-11-06,2025-10-06,株式会社システムスタッフコーポレーション,,株式会社,福岡県,嘉麻市,稲築才田２２１－４,,40,227,8200204,,,2025-10-06,清算の結了等,,,2015-10-05,1,,,,,,0
974,4290001089430,登記記録の閉鎖等,0,2025-11-06,2025-10-06,株式会社デンコー,,株式会社,福岡県,大牟田市,明治町２丁目５３番地１,,40,202,8360012,,,2025-10-06,清算の結了等,,,2020-07-13,1,,,,,デンコー,0
976,4290002034385,登記記録の閉鎖等,0,2025-11-06,2025-10-17,宮崎ファーミング有限会社,,有限会社,福岡県,糟屋郡須惠町,大字植木１８５１番地５,,40,344,8112112,,,2025-10-17,清算の結了等,,,2015-10-05,1,,,,,ミヤザキファーミング,0
977,4290002034765,登記記録の閉鎖等,0,2025-11-06,2025-10-15,有限会社中山内科デイサービスセンター,,有限会社,福岡県,古賀市,天神３丁目７番２０号,,40,223,8113101,,,2025-10-15,清算の結了等,,,2015-10-05,1,,,,,ナカヤマナイカデイサービスセンター,0
978,4290002041448,登記記録の閉鎖等,0,2025-11-06,2025-10-08,有限会社グレース・キャメリア,,有限会社,福岡県,福岡市城南区,片江１丁目２７番１２－１０７号リリナ片江,,40,136,8140142,,,2025-10-08,清算の結了等,,,2015-10-05,1,,,,,グレースキャメリア,0
995,4320002003790,登記記録の閉鎖等,0,2025-11-06,2025-10-30,有限会社青樹社,,有限会社,大分県,大分市,大字佐野字大坪６７７番地,,44,201,8700315,,,2025-10-30,清算の結了等,,,2015-10-05,1,,,,,セイジュシャ,0
1001,4350001000902,登記記録の閉鎖等,0,2025-11-06,2025-11-05,株式会社創合設計,,株式会社,宮崎県,宮崎市,生目台西４丁目１２番地４,,45,201,8800943,,,2025-11-05,清算の結了等,,,2015-10-05,1,,,,,ソウゴウセッケイ,0
1006,4370002012028,登記記録の閉鎖等,0,2025-11-06,2025-10-27,有限会社タイヤセンター門脇,,有限会社,宮城県,仙台市青葉区,堤通雨宮町２番３７号,,04,101,9810914,,,2025-10-27,清算の結了等,,,2015-10-05,1,,,,,タイヤセンターカドワキ,0
1008,4370002016152,登記記録の閉鎖等,0,2025-11-06,2025-10-24,有限会社橋元労務管理事務所,,有限会社,宮城県,仙台市太白区,西の平１丁目２２番３号,,04,104,9820825,,,2025-10-24,清算の結了等,,,2015-10-05,1,,,,,,0
1010,4370601000077,登記記録の閉鎖等,0,2025-11-06,2025-10-24,株式会社栄進フーズ,,株式会社,宮城県,塩竈市,新浜町３丁目２３番５号,,04,203,9850001,,,2025-10-24,清算の結了等,,,2015-10-05,1,,,,,エイシンフーズ,0
1020,4500001018697,登記記録の閉鎖等,0,2025-11-06,2025-10-31,中予フード株式会社,,株式会社,香川県,観音寺市,柞田町甲５０５番地,,37,205,7680040,,,2025-10-31,清算の結了等,,,2015-10-05,1,,,,,チュウヨフード,0
1041,5010401080627,登記記録の閉鎖等,0,2025-11-06,2025-10-08,株式会社カザグルマ,,株式会社,東京都,港区,浜松町２丁目２番１５号,,13,103,1050013,,,2025-10-08,清算の結了等,,,2015-10-05,1,,,,,カザグルマ,0
1060,5010802001297,登記記録の閉鎖等,0,2025-11-06,2025-10-24,有限会社イトウ金型製作所,,有限会社,東京都,大田区,大森西１丁目１７番５号,,13,111,1430015,,,2025-10-24,清算の結了等,,,2015-10-05,1,,,,,イトウカナガタセイサクショ,0
1061,5010901005629,登記記録の閉鎖等,0,2025-11-06,2025-11-04,株式会社翔建,,株式会社,東京都,世田谷区,宮坂１丁目２０番９号,,13,112,1560051,,,2025-11-04,清算の結了等,,,2015-10-05,1,,,,,,0
1062,5010901020792,登記記録の閉鎖等,0,2025-11-06,2025-11-04,株式会社ＳＨＩＮＹＡ,,株式会社,東京都,世田谷区,成城４丁目２７番１６号,,13,112,1570066,,,2025-11-04,清算の結了等,,,2015-10-05,1,,,,,シンヤ,0
1067,5010901029941,登記記録の閉鎖等,0,2025-11-06,2025-11-05,株式会社ＩＫＣ,,株式会社,東京都,世田谷区,八幡山２丁目２０番１９号,,13,112,1560056,,,2025-11-05,清算の結了等,,,2015-10-05,1,,,,,アイケイシー,0
1075,5011001070365,登記記録の閉鎖等,0,2025-11-06,2025-10-14,株式会社ユニオンゲートグループ,,株式会社,東京都,港区,北青山２丁目９番５号,,13,103,1070061,,,2025-10-14,合併による解散等,9010401190281,令和７年１０月１日東京都港区北青山二丁目９番５号株式会社ユニオンゲートグループ（9010401190281）に合併し解散,2015-10-05,1,,,,,ユニオンゲートグループ,0
1076,5011001132033,登記記録の閉鎖等,0,2025-11-06,2025-10-03,株式会社Ｋ３,,株式会社,東京都,目黒区,祐天寺１丁目２４番１２号１Ｆ,,13,110,1530052,,,2025-10-03,清算の結了等,,,2020-01-27,1,,,,,ケイスリー,0
1077,5011001135572,登記記録の閉鎖等,0,2025-11-06,2025-10-27,株式会社Ｂｒａｖｅ,,株式会社,東京都,千代田区,神田佐久間町１丁目８番４号アルテール秋葉原７０８,,13,101,1010025,,,2025-10-27,清算の結了等,,,2020-08-31,1,,,,,ブレイブ,0
1086,5011101042033,登記記録の閉鎖等,0,2025-11-06,2025-11-04,東京通信機器株式会社,,株式会社,東京都,北区,神谷１丁目３番３号神谷堀公園ハイツ５１１,,13,117,1150043,,,2025-11-04,清算の結了等,,,2015-10-05,1,,,,,トウキョウツウシンキキ,0
1108,5020001021798,登記記録の閉鎖等,0,2025-11-06,2025-10-22,丸ヨ運送株式会社,,株式会社,神奈川県,横浜市港北区,新吉田東７丁目２３番８号,,14,109,2230058,,,2025-10-22,清算の結了等,,,2015-10-05,1,,,,,マルヨウンソウ,0
1135,5040005022832,登記記録の閉鎖等,0,2025-11-06,2025-10-01,江川・大塚税理士法人,,その他の設立登記法人,千葉県,木更津市,金田東１丁目３８番地１コネクトテラスＣ号室,,12,206,2920009,,,2025-10-01,清算の結了等,,,2025-07-22,1,,,,,エガワオオツカ,0
1138,5070001021959,登記記録の閉鎖等,0,2025-11-06,2025-10-30,株式会社原製作所,,株式会社,群馬県,館林市,下早川田町６７８番地の２,,10,207,3740071,,,2025-10-30,清算の結了等,,,2015-10-05,1,,,,,ハラセイサクショ,0
1143,5080002005183,登記記録の閉鎖等,0,2025-11-06,2025-10-31,有限会社ベアーアンドビューティーズ,,有限会社,静岡県,静岡市葵区,末広町１番地の４,,22,101,4200004,,,2025-10-31,清算の結了等,,,2015-10-05,1,,,,,ベアーアンドビューティーズ,0
1154,5120001058392,登記記録の閉鎖等,0,2025-11-06,2025-10-29,株式会社ボンドコーポレーション,,株式会社,大阪府,大阪市淀川区,東三国３丁目５番１４号,,27,123,5320002,,,2025-10-29,清算の結了等,,,2015-10-05,1,,,,,ボンドコーポレーション,0
1156,5120001141545,登記記録の閉鎖等,0,2025-11-06,2025-10-31,株式会社レグルス建築デザイン,,株式会社,大阪府,大阪市城東区,野江２丁目１６番２５号,,27,118,5360006,,,2025-10-31,清算の結了等,,,2015-10-05,1,,,,,レグルスケンチクデザイン,0
1158,5120001166154,登記記録の閉鎖等,0,2025-11-06,2025-10-29,株式会社ラディカルワークス,,株式会社,大阪府,大阪市中央区,備後町１丁目６番７号三星備後町ビル,,27,128,5410051,,,2025-10-29,清算の結了等,,,2015-10-05,1,,,,,ラディカルワークス,0
1174,5120101038831,登記記録の閉鎖等,0,2025-11-06,2025-10-30,株式会社日星工業,,株式会社,大阪府,岸和田市,上松町５１１番地の２７２,,27,202,5960827,,,2025-10-30,清算の結了等,,,2015-10-05,1,,,,,,0
1184,5130003004303,登記記録の閉鎖等,0,2025-11-06,2025-11-04,ＢＥＣＫ’Ｓ合同会社,,合同会社,京都府,亀岡市,＿田野町芦ノ山アゲキ１番地３９,00115205,26,206,6210034,,,2025-11-04,清算の結了等,,,2015-10-05,1,,,,,ベックス,0
1185,5140001027016,登記記録の閉鎖等,0,2025-11-06,2025-10-24,神戸カムテクノ株式会社,,株式会社,兵庫県,神戸市兵庫区,高松町２番５号,,28,105,6520874,,,2025-10-24,清算の結了等,,,2015-10-05,1,,,,,コウベカムテクノ,0
1201,5180003004208,登記記録の閉鎖等,0,2025-11-06,2025-10-27,合資会社安藤鉄工所,,合資会社,愛知県,名古屋市中村区,熊野町３丁目２番地,,23,105,4530814,,,2025-10-27,清算の結了等,,,2015-10-05,1,,,,,アンドウテッコウジョ,0
1204,5180005007349,登記記録の閉鎖等,0,2025-11-06,2025-11-04,医療法人トーマツ歯科医院,,その他の設立登記法人,愛知県,日進市,梅森台３丁目１４３番地,,23,230,4700133,,,2025-11-04,清算の結了等,,,2015-10-05,1,,,,,トーマツシカイイン,0
1206,5180301028131,登記記録の閉鎖等,0,2025-11-06,2025-10-31,株式会社ＫＡＴＯＨ,,株式会社,愛知県,豊田市,花沢町波奈地方２１番地２,,23,211,4443231,,,2025-10-31,清算の結了等,,,2015-10-05,1,,,,,カトウ,0
1209,5190003002549,登記記録の閉鎖等,0,2025-11-06,2025-10-28,伊勢通運合同会社,,合同会社,三重県,伊勢市,小俣町明野４４１番地２,,24,203,5190501,,,2025-10-28,清算の結了等,,,2016-07-27,1,,,,,イセツウウン,0
1211,5200001005015,登記記録の閉鎖等,0,2025-11-06,2025-11-04,丸サ沢田建設株式会社,,株式会社,岐阜県,羽島市,小熊町２丁目８７５番地,,21,209,5016273,,,2025-11-04,清算の結了等,,,2015-10-05,1,,,,,マルササワダケンセツ,0
1216,5200001034947,登記記録の閉鎖等,0,2025-11-06,2025-10-30,コウシン株式会社,,株式会社,岐阜県,高山市,冬頭町５４番地１,,21,203,5060001,,,2025-10-30,清算の結了等,,,2018-03-13,1,,,,,,0
1219,5200002007398,登記記録の閉鎖等,0,2025-11-06,2025-10-31,有限会社日野鉄工所,,有限会社,岐阜県,各務原市,下切町９丁目７２番地,,21,213,5040924,,,2025-10-31,清算の結了等,,,2015-10-05,1,,,,,ヒノテッコウショ,0
1233,5250002010488,登記記録の閉鎖等,0,2025-11-06,2025-10-31,有限会社浜田板金工作所,,有限会社,山口県,下関市,彦島江の浦町４丁目５番８号,,35,201,7500075,,,2025-10-31,清算の結了等,,,2015-10-05,1,,,,,ハマダバンキンコウサクショ,0
1263,5290002032875,登記記録の閉鎖等,0,2025-11-06,2025-10-15,日高木工有限会社,00093260,有限会社,福岡県,糸島市,前原西４丁目１４番２６号,,40,230,8191117,,,2025-10-15,清算の結了等,,,2015-10-05,1,,,,,ヒタカモッコウ,0
1264,5290002033502,登記記録の閉鎖等,0,2025-11-06,2025-10-06,有限会社就斗,,有限会社,福岡県,福岡市博多区,上川端町１０番２５５－４０１号,,40,132,8120026,,,2025-10-06,清算の結了等,,,2015-10-05,1,,,,,シュート,0
1267,5290002039235,登記記録の閉鎖等,0,2025-11-06,2025-10-08,有限会社サンユーエンジニアリング,,有限会社,福岡県,大野城市,紫台２１番２３号,,40,219,8160954,,,2025-10-08,清算の結了等,,,2015-10-05,1,,,,,サンユーエンジニアリング,0
1273,5310001004864,登記記録の閉鎖等,0,2025-11-06,2025-11-04,株式会社Ｃｈｅｄｉ,,株式会社,長崎県,長崎市,家野町１番３号,,42,201,8528136,,,2025-11-04,合併による解散等,1310001000256,令和７年１１月１日長崎市家野町１番３号株式会社フォービス（1310001000256）に合併し解散,2015-10-05,1,,,,,チェディ,0
1275,5320002000878,登記記録の閉鎖等,0,2025-11-06,2025-10-30,池見林産住宅有限会社,,有限会社,大分県,大分市,大字佐野７４４番地の１,,44,201,8700315,,,2025-10-30,清算の結了等,,,2015-10-05,1,,,,,イケミリンサンジュウタク,0
1280,5370001046059,登記記録の閉鎖等,0,2025-11-06,2025-10-20,株式会社スイミー,,株式会社,宮城県,仙台市青葉区,国分町３丁目５－７朝日プラザ国分町７０６,,04,101,9800803,,,2025-10-20,清算の結了等,,,2020-08-17,1,,,,,スイミー,0
1300,5450001006698,登記記録の閉鎖等,0,2025-11-06,2025-10-31,株式会社あさひかわ学び舎,,株式会社,北海道,旭川市,四条西２丁目２番２号,,01,204,0700054,,,2025-10-31,清算の結了等,,,2015-10-05,1,,,,,アサヒカワマナビヤ,0
1302,5450002010435,登記記録の閉鎖等,0,2025-11-06,2025-11-04,有限会社ノア,,有限会社,北海道,士別市,東三条２丁目１０番地,,01,220,0950013,,,2025-11-04,清算の結了等,,,2015-10-05,1,,,,,ノア,0
1315,6010001005140,登記記録の閉鎖等,0,2025-11-06,2025-11-04,株式会社デュープレックス・ギャザリング,,株式会社,東京都,中央区,日本橋茅場町１丁目２番１２号,,13,102,1030025,,,2025-11-04,清算の結了等,,,2015-10-05,1,,,,,デュープレックスギャザリング,0
1318,6010001109866,登記記録の閉鎖等,0,2025-11-06,2025-10-10,株式会社ラ・モード・サンピア,,株式会社,千葉県,鎌ケ谷市,東中沢４丁目２番２０号,,12,224,2730112,,,2025-10-10,清算の結了等,,,2015-10-05,1,,,,,ラモードサンピア,0
1320,6010001179315,登記記録の閉鎖等,0,2025-11-06,2025-10-27,株式会社スパイスアップ・ウーマン,,株式会社,東京都,千代田区,神田小川町３丁目２８番２号,,13,101,1010052,,,2025-10-27,清算の結了等,,,2016-11-01,1,,,,,スパイスアップウーマン,0
1321,6010001202638,登記記録の閉鎖等,0,2025-11-06,2025-10-08,株式会社Ｂｅｅ．Ｇ．ｌａｂｏ,,株式会社,千葉県,松戸市,下矢切９５－１,,12,207,2710096,,,2025-10-08,清算の結了等,,,2019-07-23,1,,,,,ビージーラボ,0
1327,6010001255628,登記記録の閉鎖等,0,2025-11-06,2025-10-27,株式会社ＮＥＸ,,株式会社,東京都,中央区,銀座１丁目１２番４号Ｎ＆ＥＢＬＤ．６Ｆ,,13,102,1040061,,,2025-10-27,清算の結了等,,,2025-06-04,1,,,,,ネックス,0
1338,6010401086730,登記記録の閉鎖等,0,2025-11-06,2025-10-08,ザイデンステッカージャパン株式会社,,株式会社,東京都,港区,西新橋３丁目６番１０号,,13,103,1050003,,,2025-10-08,清算の結了等,,,2015-10-05,1,,,,,ザイデンステッカージャパン,0
1345,6010401181481,登記記録の閉鎖等,0,2025-11-06,2025-10-07,Ｐａｓｑａｌ　Ｊａｐａｎ株式会社,,株式会社,東京都,港区,東麻布１丁目２３番５号ＰＭＣビル２Ｆ,,13,103,1060044,,,2025-10-07,清算の結了等,,,2024-04-02,1,,,,,パスカルジャパン,0
1354,6010601012486,登記記録の閉鎖等,0,2025-11-06,2025-10-29,電元熱機工業株式会社,,株式会社,東京都,墨田区,文花２丁目２番９号,,13,107,1310044,,,2025-10-29,清算の結了等,,,2015-10-05,1,,,,,デンゲンネッキコウギョウ,0
1376,6011101104682,登記記録の閉鎖等,0,2025-11-06,2025-10-03,株式会社ＰＯＲＴＯ,,株式会社,東京都,新宿区,西新宿７丁目７番地３３号新銘ビル５階,,13,104,1600023,,,2025-10-03,清算の結了等,,,2023-10-10,1,,,,,ポルト,0
1394,6012801023610,登記記録の閉鎖等,0,2025-11-06,2025-10-28,小池株式会社,,株式会社,東京都,昭島市,宮沢町３丁目５番１５号,,13,207,1960024,,,2025-10-28,清算の結了等,,,2024-11-29,1,,,,,コイケ,0
1404,6020001136216,登記記録の閉鎖等,0,2025-11-06,2025-10-24,ｗｏｌｆｗｏｒｋｓ株式会社,,株式会社,大阪府,守口市,土居町４番３号,,27,209,5700073,,,2025-10-24,清算の結了等,,,2020-05-26,1,,,,,ウルフワークス,0
1415,6030001109419,登記記録の閉鎖等,0,2025-11-06,2025-10-29,株式会社エムエース,,株式会社,埼玉県,桶川市,下日出谷西２丁目６番地の１３,,11,231,3630028,,,2025-10-29,清算の結了等,,,2015-10-05,1,,,,,エムエース,0
1429,6040002019748,登記記録の閉鎖等,0,2025-11-06,2025-10-06,アイビーシージャパン有限会社,,有限会社,千葉県,習志野市,本大久保４丁目４番１４号,,12,216,2750012,,,2025-10-06,清算の結了等,,,2015-10-05,1,,,,,,0
1436,6060001019350,登記記録の閉鎖等,0,2025-11-06,2025-10-31,株式会社横田鉄工,,株式会社,栃木県,足利市,里矢場町１９５７番地の１,,09,202,3260835,,,2025-10-31,清算の結了等,,,2015-10-05,1,,,,,ヨコタテッコウ,0
1437,6060002036502,登記記録の閉鎖等,0,2025-11-06,2025-10-31,有限会社須田電機商会,,有限会社,栃木県,足利市,小俣町５９２番地,,09,202,3260141,,,2025-10-31,清算の結了等,,,2015-10-05,1,,,,,スダデンキショウカイ,0
1448,6080402006648,登記記録の閉鎖等,0,2025-11-06,2025-10-28,有限会社原田石油,,有限会社,静岡県,浜松市中央区,西山町２２４２番地,,22,138,4328001,,,2025-10-28,清算の結了等,,,2015-10-05,1,,,,,ハラダセキユ,0
1450,6100002028296,登記記録の閉鎖等,0,2025-11-06,2025-10-31,有限会社城南ガーデン,,有限会社,長野県,諏訪市,城南２丁目２５２０番地２,,20,206,3920017,,,2025-10-31,清算の結了等,,,2015-10-05,1,,,,,ジョウナンガーデン,0
1454,6120001130522,登記記録の閉鎖等,0,2025-11-06,2025-10-31,株式会社ＳＡＳＡＫＡ,,株式会社,大阪府,大阪市福島区,鷺洲３丁目１番１７－９０９号,,27,103,5530002,,,2025-10-31,清算の結了等,,,2015-10-05,1,,,,,ササカ,0
1479,6120901008198,登記記録の閉鎖等,0,2025-11-06,2025-10-31,株式会社フューコム,,株式会社,大阪府,大阪市西区,江戸堀３丁目３番１５号,,27,106,5500002,,,2025-10-31,合併による解散等,2010001097710,令和７年１０月１日東京都千代田区神田淡路町一丁目４番１の４株式会社ミライト・ワン・ビジネスパートナーズ（2010001097710）に合併し解散,2015-10-05,1,,,,,フューコム,0
1490,6140001024409,登記記録の閉鎖等,0,2025-11-06,2025-10-30,株式会社ホリック,,株式会社,兵庫県,神戸市北区,鹿の子台北町１丁目１３番１４号,,28,109,6511513,,,2025-10-30,清算の結了等,,,2015-10-05,1,,,,,ホリック,0
1499,6180001046069,登記記録の閉鎖等,0,2025-11-06,2025-10-31,株式会社立商,,株式会社,愛知県,清須市,春日中河原１０番地の１１,,23,233,4520961,,,2025-10-31,清算の結了等,,,2015-10-05,1,,,,,リッショウ,0
1509,6180005018873,登記記録の閉鎖等,0,2025-11-06,2025-11-04,一般社団法人リハビリネット協会,,その他の設立登記法人,愛知県,名古屋市緑区,鳴海町字向田９５番地,,23,114,4580831,,,2025-11-04,清算の結了等,,,2020-07-14,1,,,,,リハビリネットキョウカイ,0
1510,6180301009733,登記記録の閉鎖等,0,2025-11-06,2025-10-30,株式会社育英舘,,株式会社,愛知県,豊川市,中央通３丁目１番地,,23,207,4420051,,,2025-10-30,清算の結了等,,,2015-10-05,1,,,,,イクエイカン,0
1520,6210002013758,登記記録の閉鎖等,0,2025-11-06,2025-10-31,有限会社山東,,有限会社,福井県,小浜市,湊第１０号１番地３,,18,204,9170004,,,2025-10-31,清算の結了等,,,2015-10-05,1,,,,,サントウ,0
1535,6250001020173,登記記録の閉鎖等,0,2025-11-06,2025-10-31,株式会社ＭＵＲＡＮＡＫＡ,,株式会社,山口県,柳井市,伊陸３０６２番地２,,35,212,7420201,,,2025-10-31,清算の結了等,,,2023-07-19,1,,,,,ムラナカ,0
1538,6260001014505,登記記録の閉鎖等,0,2025-11-06,2025-10-31,株式会社美庵,,株式会社,岡山県,倉敷市,玉島中央町２丁目５番２２号,,33,202,7138122,,,2025-10-31,清算の結了等,,,2015-10-05,1,,,,,ビアン,0
1541,6290001064175,登記記録の閉鎖等,0,2025-11-06,2025-10-08,株式会社エンドロール,,株式会社,福岡県,福岡市博多区,博多駅前２丁目１０番１２号,,40,132,8120011,,,2025-10-08,清算の結了等,,,2015-10-05,1,,,,,,0
1549,6310002010497,登記記録の閉鎖等,0,2025-11-06,2025-11-04,有限会社瀬戸燃料,,有限会社,長崎県,佐世保市,田原町１番３号,,42,202,8570136,,,2025-11-04,清算の結了等,,,2015-10-05,1,,,,,セトネンリョウ,0
1550,6310002013979,登記記録の閉鎖等,0,2025-11-06,2025-11-05,有限会社沖商事,,有限会社,長崎県,西海市,西彼町小迎郷２１９８番地５,,42,212,8513422,,,2025-11-05,清算の結了等,,,2015-10-05,1,,,,,オキショウジ,0
1561,6400001008707,登記記録の閉鎖等,0,2025-11-06,2025-10-24,株式会社常口アトム盛岡,,株式会社,岩手県,盛岡市,盛岡駅前通９番２号,,03,201,0200034,,,2025-10-24,清算の結了等,,,2015-10-05,1,,,,,ジョウグチアトムモリオカ,0
1572,6430002004025,登記記録の閉鎖等,0,2025-11-06,2025-10-30,有限会社大村鉄工所,,有限会社,北海道,札幌市東区,東苗穂七条２丁目２番１－１０５号,,01,103,0070807,,,2025-10-30,清算の結了等,,,2015-10-05,1,,,,,オオムラテッコウショ,0
1573,6430002050853,登記記録の閉鎖等,0,2025-11-06,2025-11-04,有限会社ライスクラップ,,有限会社,北海道,美唄市,字上美唄８２７７番地,,01,215,0720000,,,2025-11-04,清算の結了等,,,2015-10-05,1,,,,,ライスクラップ,0
1579,6500001009604,登記記録の閉鎖等,0,2025-11-06,2025-11-04,株式会社あすなろ建設,,株式会社,愛媛県,新居浜市,萩生１３７番地１,,38,205,7920050,,,2025-11-04,清算の結了等,,,2015-10-05,1,,,,,アスナロケンセツ,0
1590,7010001167244,登記記録の閉鎖等,0,2025-11-06,2025-10-31,株式会社キーマ,,株式会社,東京都,中央区,晴海３丁目１３番１号,,13,102,1040053,,,2025-10-31,合併による解散等,4040002040920,令和７年４月１日千葉県浦安市舞浜二丁目３４番４号株式会社サンベルク（4040002040920）に合併し解散,2015-10-05,1,,,,,キーマ,0
1603,7010003035606,登記記録の閉鎖等,0,2025-11-06,2025-10-29,合同会社ネイピアホールディングス,,合同会社,東京都,千代田区,丸の内１丁目４番１号東京共同会計事務所内,,13,101,1000005,,,2025-10-29,清算の結了等,,,2021-08-13,1,,,,,ネイピアホールディングス,0
1604,7010003038253,登記記録の閉鎖等,0,2025-11-06,2025-10-27,アネモネ合同会社,,合同会社,東京都,千代田区,内神田２丁目２番６号５階あすな会計事務所内,,13,101,1010047,,,2025-10-27,清算の結了等,,,2022-07-27,1,,,,,アネモネ,0
1610,7010103001318,登記記録の閉鎖等,0,2025-11-06,2025-11-04,サンエバーズ合同会社,,合同会社,東京都,八王子市,上柚木３丁目３番地３－２０５,,13,201,1920373,,,2025-11-04,清算の結了等,,,2018-10-02,1,,,,,サンエバーズ,0
1622,7010705001343,登記記録の閉鎖等,0,2025-11-06,2025-10-30,特定非営利活動法人日本箸道協会,00052090,その他の設立登記法人,東京都,品川区,旗の台３丁目７番１２号,,13,109,1420064,,,2025-10-30,清算の結了等,,,2015-10-05,1,,,,,,0
1650,7011701025484,登記記録の閉鎖等,0,2025-11-06,2025-10-27,株式会社ＤＸ,,株式会社,東京都,江戸川区,西葛西２丁目１番９号,,13,123,1340088,,,2025-10-27,清算の結了等,,,2022-07-27,1,,,,,ディーエックス,0
1674,7030001043484,登記記録の閉鎖等,0,2025-11-06,2025-10-28,株式会社新成空調,,株式会社,埼玉県,さいたま市緑区,道祖土２丁目１６番３号,,11,109,3360907,,,2025-10-28,清算の結了等,,,2015-10-05,1,,,,,シンセイクウチョウ,0
1677,7030005010828,登記記録の閉鎖等,0,2025-11-06,2025-10-30,学校法人緑学園,,その他の設立登記法人,埼玉県,坂戸市,緑町１８番１号,,11,239,3500234,,,2025-10-30,清算の結了等,,,2015-10-05,1,,,,,ミドリガクエン,0
1692,7080101003879,登記記録の閉鎖等,0,2025-11-06,2025-11-04,株式会社ＴＡＩＹＯ不動産総業,,株式会社,静岡県,沼津市,東熊堂４１１番地の７,,22,203,4100013,,,2025-11-04,清算の結了等,,,2015-10-05,1,,,,,タイヨウフドウサンソウギョウ,0
1694,7080101013911,登記記録の閉鎖等,0,2025-11-06,2025-11-04,ＩＫＳマーケティング株式会社,,株式会社,静岡県,伊東市,八幡野１１８９番地の２０,,22,208,4130232,,,2025-11-04,清算の結了等,,,2015-10-05,1,,,,,アイケーエスマーケティング,0
1704,7100002009626,登記記録の閉鎖等,0,2025-11-06,2025-10-31,有限会社和田商会,,有限会社,長野県,千曲市,大字八幡１８６番地１,,20,218,3870023,,,2025-10-31,清算の結了等,,,2015-10-05,1,,,,,ワダショウカイ,0
1717,7120001167472,登記記録の閉鎖等,0,2025-11-06,2025-10-31,株式会社ケント,,株式会社,大阪府,大阪市西区,土佐堀１丁目１番２３号コウダイ肥後橋ビル４Ｆ,,27,106,5500001,,,2025-10-31,清算の結了等,,,2015-10-05,1,,,,,ケント,0
1718,7120001178057,登記記録の閉鎖等,0,2025-11-06,2025-10-23,株式会社マウロア,,株式会社,東京都,中央区,銀座１丁目１５－４銀座一丁目ビル７階,,13,102,1040061,,,2025-10-23,清算の結了等,,,2015-10-05,1,,,,,マウロア,0
1721,7120001206981,登記記録の閉鎖等,0,2025-11-06,2025-10-31,株式会社グラウクス,,株式会社,大阪府,大阪市西区,北堀江４丁目４番１－７０２号,,27,106,5500014,,,2025-10-31,清算の結了等,,,2017-07-21,1,,,,,グラウクス,0
1732,7130001014855,登記記録の閉鎖等,0,2025-11-06,2025-11-04,株式会社セントプリンティング,,株式会社,京都府,京都市下京区,室町通松原下る元両替町２５８番地蝶花ビル３階,,26,106,6008436,,,2025-11-04,清算の結了等,,,2015-10-05,1,,,,,セントプリンティング,0
1748,7180001167657,登記記録の閉鎖等,0,2025-11-06,2025-10-31,株式会社ＫＡＮＥＫＯ,,株式会社,愛知県,名古屋市瑞穂区,膳棚町３丁目１７番地の３ＨＯＵＳＩＮＧ１０１－２０１号室,,23,108,4670013,,,2025-10-31,清算の結了等,,,2025-07-11,1,,,,,カネコ,0
1751,7180002065645,登記記録の閉鎖等,0,2025-11-06,2025-10-29,有限会社桂,,有限会社,愛知県,春日井市,高蔵寺町４丁目１４番地の１４,,23,206,4870013,,,2025-10-29,清算の結了等,,,2015-10-05,1,,,,,カツラ,0
1759,7190002010641,登記記録の閉鎖等,0,2025-11-06,2025-10-30,有限会社西村屋,,有限会社,三重県,鳥羽市,畔蛸町１４４番地,,24,211,5170033,,,2025-10-30,清算の結了等,,,2015-10-05,1,,,,,ニシムラヤ,0
1767,7230001013491,登記記録の閉鎖等,0,2025-11-06,2025-10-31,株式会社グローバル企画,,株式会社,富山県,砺波市,秋元２３１番地,,16,208,9391304,,,2025-10-31,清算の結了等,,,2015-10-05,1,,,,,グローバルキカク,0
1790,7320005001780,登記記録の閉鎖等,0,2025-11-06,2025-10-30,大分ドライウッド協同組合,,その他の設立登記法人,大分県,大分市,坂ノ市中央１丁目３番４８号,,44,201,8700307,,,2025-10-30,清算の結了等,,,2015-10-05,1,,,,,オオイタドライウッド,0
1791,7330001012368,登記記録の閉鎖等,0,2025-11-06,2025-10-30,株式会社瀬の本観光ホテル,,株式会社,熊本県,阿蘇郡南小国町,大字満願寺字北黒川６５５４番地の１,,43,423,8692402,,,2025-10-30,合併による解散等,8290001094501,令和７年１０月１日福岡市中央区赤坂一丁目１４番２２号株式会社新日本ホテルズ（8290001094501）に合併し解散,2015-10-05,1,,,,,セノモトカンコウホテル,0
1792,7330001032234,登記記録の閉鎖等,0,2025-11-06,2025-10-30,株式会社樹コーポレーション,,株式会社,熊本県,阿蘇郡南阿蘇村,大字下野１４７番地１０,,43,433,8691402,,,2025-10-30,合併による解散等,8290001094501,令和７年１０月１日福岡市中央区赤坂一丁目１４番２２号株式会社新日本ホテルズ（8290001094501）に合併し解散,2024-07-10,1,,,,,イツキコーポレーション,0
1799,7370001016349,登記記録の閉鎖等,0,2025-11-06,2025-10-27,アイリスシンヨー株式会社,,株式会社,宮城県,仙台市青葉区,北目町１番１３号,,04,101,9800023,,,2025-10-27,清算の結了等,,,2015-10-05,1,,,,,アイリスシンヨー,0
1804,7400001013458,登記記録の閉鎖等,0,2025-11-06,2025-10-29,株式会社雄心工業,,株式会社,岩手県,北上市,和賀町後藤１２地割３２番地,,03,206,0240335,,,2025-10-29,清算の結了等,,,2016-11-24,1,,,,,ユウシンコウギョウ,0
1808,7430001031639,登記記録の閉鎖等,0,2025-11-06,2025-10-31,株式会社究極葬祭,,株式会社,北海道,札幌市中央区,南十五条西１３丁目２番２６号,,01,101,0640915,,,2025-10-31,清算の結了等,,,2015-10-05,1,,,,,キュウキョクソウサイ,0
1812,7450002007322,登記記録の閉鎖等,0,2025-11-06,2025-11-04,有限会社ノース・リース,,有限会社,北海道,旭川市,物流団地二条１丁目５番３号,,01,204,0718139,,,2025-11-04,清算の結了等,,,2015-10-05,1,,,,,ノースリース,0
1818,7470001018946,登記記録の閉鎖等,0,2025-11-06,2025-10-31,株式会社力夢,,株式会社,香川県,綾歌郡宇多津町,２６２８番地９６３,,37,386,7690210,,,2025-10-31,合併による解散等,7470001015943,令和７年１０月３１日香川県綾歌郡宇多津町２６２８番地９６３株式会社Ｌｉｂｅｒｔａ（7470001015943）に合併し解散,2022-01-28,1,,,,,ツトム,0
1854,8011501027531,登記記録の閉鎖等,0,2025-11-06,2025-11-04,株式会社ＩＰＨ,,株式会社,東京都,荒川区,荒川５丁目１番１－１００１号,,13,118,1160002,,,2025-11-04,清算の結了等,,,2021-12-06,1,,,,,アイピーエイチ,0
1868,8020001062278,登記記録の閉鎖等,0,2025-11-06,2025-10-07,馬車道出版株式会社,,株式会社,宮城県,大崎市,古川幸町２丁目３－２７－３,,04,215,9896106,,,2025-10-07,清算の結了等,,,2015-10-05,1,,,,,バシャミチシュッパン,0
1873,8020005014754,登記記録の閉鎖等,0,2025-11-06,2025-10-27,一般社団法人日本社会保障政策協議会,,その他の設立登記法人,神奈川県,横浜市磯子区,杉田４丁目５番２８号,,14,107,2350033,,,2025-10-27,清算の結了等,,,2020-08-06,1,,,,,ニホンシャカイホショウセイサクキョウギカイ,0
1879,8021002026008,登記記録の閉鎖等,0,2025-11-06,2025-10-16,有限会社エヌエスブロック,,有限会社,神奈川県,相模原市中央区,並木２丁目３番８号,,14,152,2520228,,,2025-10-16,清算の結了等,,,2015-10-05,1,,,,,エヌエスブロック,0
1889,8030002114300,登記記録の閉鎖等,0,2025-11-06,2025-10-28,有限会社畑山工業,,有限会社,埼玉県,行田市,大字南河原２７４２番地５,,11,206,3610084,,,2025-10-28,清算の結了等,,,2015-10-05,1,,,,,ハタヤマコウギョウ,0
1895,8040001076202,登記記録の閉鎖等,0,2025-11-06,2025-10-06,新生機工株式会社,,株式会社,千葉県,富津市,西川９５２番地の２,,12,226,2930013,,,2025-10-06,清算の結了等,,,2015-10-05,1,,,,,シンセイキコウ,0
1898,8040002081283,登記記録の閉鎖等,0,2025-11-06,2025-10-02,有限会社高橋製作所,00020835,有限会社,千葉県,茂原市,粟生野２０７２番地,,12,210,2994106,,,2025-10-02,清算の結了等,,,2015-10-05,1,,,,,タカハシセイサクショ,0
1919,8100002036149,登記記録の閉鎖等,0,2025-11-06,2025-10-31,有限会社木下左官所,,有限会社,長野県,飯田市,高羽町２丁目８番地４,,20,205,3950051,,,2025-10-31,清算の結了等,,,2015-10-05,1,,,,,キノシタサカンジョ,0
1924,8120001073117,登記記録の閉鎖等,0,2025-11-06,2025-10-24,株式会社アイエスピー,,株式会社,大阪府,大阪市西区,北堀江３丁目６番１９号,,27,106,5500014,,,2025-10-24,清算の結了等,,,2015-10-05,1,,,,,アイエスピー,0
1929,8120001214546,登記記録の閉鎖等,0,2025-11-06,2025-10-24,株式会社ＡＸｉＡ,,株式会社,大阪府,大阪市北区,角田町８番４７号２０Ｆ,,27,127,5300017,,,2025-10-24,清算の結了等,,,2018-07-05,1,,,,,アクシア,0
1941,8120101052581,登記記録の閉鎖等,0,2025-11-06,2025-10-30,株式会社高石加工,,株式会社,大阪府,和泉市,池上町４丁目１１番３２号,,27,219,5940083,,,2025-10-30,清算の結了等,,,2015-10-05,1,,,,,タカイシカコウ,0
1947,8130001050164,登記記録の閉鎖等,0,2025-11-06,2025-11-04,株式会社川瀬電気,,株式会社,京都府,京都市山科区,東野森野町１０番地２,,26,110,6078147,,,2025-11-04,清算の結了等,,,2015-10-05,1,,,,,カワセデンキ,0
1954,8130002018953,登記記録の閉鎖等,0,2025-11-06,2025-11-04,株式会社ゆずデザイン,,株式会社,京都府,京都市山科区,勧修寺平田町８７番地,,26,110,6078214,,,2025-11-04,清算の結了等,,,2015-10-05,1,,,,,,0
1955,8130002022641,登記記録の閉鎖等,0,2025-11-06,2025-11-04,有限会社ジョイコムジャパン,,有限会社,京都府,京都市右京区,鳴滝桐ケ淵町７鳴滝ステージ１－２Ｄ号室,,26,108,6168238,,,2025-11-04,清算の結了等,,,2015-10-05,1,,,,,ジョイコムジャパン,0
1965,8140002001982,登記記録の閉鎖等,0,2025-11-06,2025-10-29,有限会社東部水野,,有限会社,兵庫県,神戸市東灘区,深江浜町１番１号,,28,101,6580023,,,2025-10-29,清算の結了等,,,2015-10-05,1,,,,,トウブミズノ,0
1970,8160001006733,登記記録の閉鎖等,0,2025-11-06,2025-11-05,末広産業株式会社,,株式会社,滋賀県,長浜市,元浜町２２番２５号,,25,203,5260059,,,2025-11-05,清算の結了等,,,2015-10-05,1,,,,,スエヒロサンギョウ,0
1972,8180001031176,登記記録の閉鎖等,0,2025-11-06,2025-10-29,高橋商事株式会社,,株式会社,愛知県,名古屋市中村区,宿跡町１丁目３７番地,,23,105,4530067,,,2025-10-29,清算の結了等,,,2015-10-05,1,,,,,タカハシショウジ,0
1982,8180301031520,登記記録の閉鎖等,0,2025-11-06,2025-10-31,株式会社心遊,,株式会社,愛知県,豊田市,神田町１丁目５番地１,,23,211,4710868,,,2025-10-31,清算の結了等,,,2018-05-22,1,,,,,シンユウ,0
1986,8180305007244,登記記録の閉鎖等,0,2025-11-06,2025-10-28,医療法人幡豆会,,その他の設立登記法人,愛知県,西尾市,一色町一色上屋敷８５番地２,,23,213,4440423,,,2025-10-28,清算の結了等,,,2015-10-05,1,,,,,ハズカイ,0
1987,8200001028970,登記記録の閉鎖等,0,2025-11-06,2025-11-04,ＩＩＣ株式会社,,株式会社,岐阜県,美濃加茂市,下米田町西脇１２７５番地３,,21,211,5050018,,,2025-11-04,清算の結了等,,,2015-10-05,1,,,,,アイアイシー,0
1998,8270002011143,登記記録の閉鎖等,0,2025-11-06,2025-11-04,有限会社トマト薬局,,有限会社,鳥取県,鳥取市,千代水１丁目１５６番地,,31,201,6800911,,,2025-11-04,合併による解散等,2270002000688,令和７年１１月１日鳥取市千代水一丁目１５６番地株式会社こやま薬局（2270002000688）に合併し解散,2015-10-05,1,,,,,トマトヤッキョク,0
2003,8280002005565,登記記録の閉鎖等,0,2025-11-06,2025-10-06,有限会社秀美,,有限会社,福岡県,大野城市,栄町３丁目３番５号,,40,219,8160924,,,2025-10-06,清算の結了等,,,2015-10-05,1,,,,,シュウビ,0
2004,8280002010747,登記記録の閉鎖等,0,2025-11-06,2025-10-30,ラバーロード小浜有限会社,,有限会社,島根県,鹿足郡吉賀町,立河内６９番地,,32,505,6995514,,,2025-10-30,清算の結了等,,,2015-10-05,1,,,,,ラバーロードコハマ,0
2005,8290001016991,登記記録の閉鎖等,0,2025-11-06,2025-10-01,明光商事株式会社,,株式会社,福岡県,福岡市城南区,西片江２丁目２８番１９号,,40,136,8140141,,,2025-10-01,清算の結了等,,,2015-10-05,1,,,,,メイコウショウジ,0
2006,8290001020366,登記記録の閉鎖等,0,2025-11-06,2025-10-14,株式会社地域システム研究所,,株式会社,福岡県,福岡市中央区,薬院４丁目１番１０号,,40,133,8100022,,,2025-10-14,清算の結了等,,,2015-10-05,1,,,,,チイキシステムケンキュウショ,0
2007,8290001037303,登記記録の閉鎖等,0,2025-11-06,2025-10-02,株式会社サンイースト福岡,,株式会社,福岡県,福岡市東区,みなと香椎３丁目１番１号,,40,131,8130019,,,2025-10-02,合併による解散等,2290001023168,令和７年１０月１日福岡市東区みなと香椎三丁目１番１号株式会社サンリッチ福岡（2290001023168）に合併し解散,2015-10-05,1,,,,,サンイーストフクオカ,0
2019,8290801010368,登記記録の閉鎖等,0,2025-11-06,2025-11-05,仲工業株式会社,,株式会社,福岡県,北九州市八幡西区,御開２丁目３番１０号,,40,109,8070806,,,2025-11-05,清算の結了等,,,2015-10-05,1,,,,,ナカコウギョウ,0
2030,8340005002966,登記記録の閉鎖等,0,2025-11-06,2025-10-23,医療法人野元内科医院,,その他の設立登記法人,鹿児島県,姶良市,東餅田２４１２番地,00100085,46,225,8995421,,,2025-10-23,清算の結了等,,,2015-10-05,1,,,,,ノモトナイカイイン,0
2032,8370001005458,登記記録の閉鎖等,0,2025-11-06,2025-10-23,株式会社ダイソウ,,株式会社,宮城県,仙台市宮城野区,小鶴１丁目２番２７号,,04,102,9830031,,,2025-10-23,清算の結了等,,,2015-10-05,1,,,,,ダイソウ,0
2036,8380001006843,登記記録の閉鎖等,0,2025-11-06,2025-10-30,ヤマキ電気福島株式会社,,株式会社,福島県,郡山市,田村町上行合字北川田６番地４,,07,203,9630724,,,2025-10-30,合併による解散等,4013201006001,令和７年１０月１日東京都目黒区下目黒三丁目７番２２号ヤマキ電気株式会社（4013201006001）に合併し解散,2015-10-05,1,,,,,ヤマキデンキフクシマ,0
2041,8400005003776,登記記録の閉鎖等,0,2025-11-06,2025-10-27,遠野すずらん振興協同組合,,その他の設立登記法人,岩手県,遠野市,新穀町５番１３号,,03,208,0280522,,,2025-10-27,清算の結了等,,,2015-10-05,1,,,,,トオノスズランシンコウ,0
2054,8490001006691,登記記録の閉鎖等,0,2025-11-06,2025-11-04,株式会社ソフトウェア香美,,株式会社,高知県,香美市,物部町安丸１１１２番地,,39,212,7814521,,,2025-11-04,清算の結了等,,,2015-10-05,1,,,,,ソフトウェアカミ,0
2056,8500001014973,登記記録の閉鎖等,0,2025-11-06,2025-11-04,エー・エス・ジー株式会社,,株式会社,愛媛県,四国中央市,下柏町１３４５番地１,,38,213,7990411,,,2025-11-04,清算の結了等,,,2015-10-05,1,,,,,エーエスジー,0
2060,9010001086153,登記記録の閉鎖等,0,2025-11-06,2025-10-29,アーネストビジネスパートナーズ株式会社,,株式会社,茨城県,つくば市,大角豆３３８番地１,,08,220,3050043,,,2025-10-29,清算の結了等,,,2015-10-05,1,,,,,アーネストビジネスパートナーズ,0
2061,9010001105037,登記記録の閉鎖等,0,2025-11-06,2025-10-27,メディアランド株式会社,,株式会社,東京都,中央区,日本橋蛎殻町１丁目１７番１１号カナメビル４階,,13,102,1030014,,,2025-10-27,清算の結了等,,,2015-10-05,1,,,,,メディアランド,0
2063,9010001135645,登記記録の閉鎖等,0,2025-11-06,2025-10-27,株式会社キノーズコーポレーション,,株式会社,東京都,文京区,小石川４丁目２１番２号,,13,105,1120002,,,2025-10-27,清算の結了等,,,2015-10-05,1,,,,,キノーズコーポレーション,0
2097,9010802012118,登記記録の閉鎖等,0,2025-11-06,2025-10-27,有限会社広沢弘クリーニング,,有限会社,東京都,大田区,南蒲田２丁目２１番１５号,,13,111,1440035,,,2025-10-27,清算の結了等,,,2015-10-05,1,,,,,ヒロサワヒロシクリーニング,0
2116,9011105005387,登記記録の閉鎖等,0,2025-11-06,2025-10-30,一般社団法人日本郷友連盟,,その他の設立登記法人,東京都,新宿区,片町３番３号マンション壁装館４０２,,13,104,1600001,,,2025-10-30,清算の結了等,,,2015-10-05,1,,,,,ニホンゴウユウレンメイ,0
2139,9020001048045,登記記録の閉鎖等,0,2025-11-06,2025-10-24,株式会社ゼニス,,株式会社,神奈川県,横浜市都筑区,牛久保西１丁目１番１１－２０２号,,14,118,2240015,,,2025-10-24,清算の結了等,,,2015-10-05,1,,,,,ゼニス,0
2155,9020002021273,登記記録の閉鎖等,0,2025-11-06,2025-10-28,有限会社３５ｍｍ,,有限会社,神奈川県,横浜市都筑区,北山田１丁目１番６－２０２号,,14,118,2240021,,,2025-10-28,清算の結了等,,,2015-10-05,1,,,,,サンジュウゴミリ,0
2158,9020003028846,登記記録の閉鎖等,0,2025-11-06,2025-10-22,合同会社Ｅｓｔｅｅｍ,,合同会社,神奈川県,横浜市瀬谷区,本郷４丁目２０番地３,,14,114,2460015,,,2025-10-22,清算の結了等,,,2025-07-04,1,,,,,エスティーム,0
2185,9040001101611,登記記録の閉鎖等,0,2025-11-06,2025-10-06,株式会社エヌファクトリー,,株式会社,千葉県,市原市,今津朝山１８３番地１０,,12,219,2990106,,,2025-10-06,清算の結了等,,,2017-08-31,1,,,,,エヌファクトリー,0
2186,9040001104242,登記記録の閉鎖等,0,2025-11-06,2025-10-07,Ｍｉ－Ｃｈａｎｎｅｌ株式会社,,株式会社,東京都,港区,港南２丁目１５－１品川インターシティＡ棟２８階,,13,103,1080075,,,2025-10-07,清算の結了等,,,2018-04-11,1,,,,,エムアイチャネル,0
2200,9080102015269,登記記録の閉鎖等,0,2025-11-06,2025-11-04,有限会社谷沢機装,,有限会社,静岡県,富士市,久沢７６９番地の７,,22,210,4190202,,,2025-11-04,清算の結了等,,,2015-10-05,1,,,,,タニザワキソウ,0
2204,9100002005144,登記記録の閉鎖等,0,2025-11-06,2025-11-04,有限会社宮沢管工業所,,有限会社,長野県,長野市,大字東和田９３４番地８,,20,201,3810038,,,2025-11-04,清算の結了等,,,2015-10-05,1,,,,,ミヤザワカンコウギョウショ,0
2205,9100002009681,登記記録の閉鎖等,0,2025-11-06,2025-11-04,有限会社グリーン・アート小松きのこ園,,有限会社,長野県,千曲市,大字羽尾２１０９番地,,20,218,3890812,,,2025-11-04,清算の結了等,,,2015-10-05,1,,,,,グリーンアートコマツキノコエン,0
2209,9110002016834,登記記録の閉鎖等,0,2025-11-06,2025-10-27,有限会社郁,,有限会社,新潟県,三条市,西本成寺１丁目３５番１号,,15,204,9550845,,,2025-10-27,清算の結了等,,,2015-10-05,1,,,,,イク,0
2210,9120001013600,登記記録の閉鎖等,0,2025-11-06,2025-10-31,ホーユーラベル株式会社,,株式会社,大阪府,大阪市生野区,巽東３丁目２番３３号,00113158,27,116,5440014,,,2025-10-31,清算の結了等,,,2015-10-05,1,,,,,ホーユーラベル,0
2212,9120001083247,登記記録の閉鎖等,0,2025-11-06,2025-10-31,株式会社ゼネラル,,株式会社,大阪府,大阪市北区,兎我野町３番２２号,,27,127,5300056,,,2025-10-31,清算の結了等,,,2015-10-05,1,,,,,ゼネラル,0
2214,9120001218570,登記記録の閉鎖等,0,2025-11-06,2025-10-29,株式会社Ｓａｍｐｌｅ工房,,株式会社,大阪府,大阪市中央区,北久宝寺町３丁目６番１号,,27,128,5410057,,,2025-10-29,清算の結了等,,,2019-01-25,1,,,,,サンプルコウボウ,0
2226,9120005006716,登記記録の閉鎖等,0,2025-11-06,2025-11-04,大阪釦服飾手芸卸協同組合,,その他の設立登記法人,大阪府,大阪市中央区,南久宝寺町２丁目１番２号竹田ビル５階,,27,128,5410058,,,2025-11-04,清算の結了等,,,2015-10-05,1,,,,,オオサカボタンフクショクシュゲイオロシ,0
2241,9130002025949,登記記録の閉鎖等,0,2025-11-06,2025-10-30,有限会社スクラッチ,,有限会社,京都府,長岡京市,泉が丘２３番地２,,26,209,6170846,,,2025-10-30,清算の結了等,,,2015-10-05,1,,,,,スクラッチ,0
2254,9160002009957,登記記録の閉鎖等,0,2025-11-06,2025-10-31,有限会社ラッキーレンタカー,,有限会社,滋賀県,東近江市,五個荘竜田町４３５番地の２,,25,213,5291421,,,2025-10-31,清算の結了等,,,2015-10-05,1,,,,,ラッキーレンタカー,0
2261,9180001123039,登記記録の閉鎖等,0,2025-11-06,2025-10-23,株式会社建塗,,株式会社,愛知県,犬山市,字藪畔４１番地３,,23,215,4840865,,,2025-10-23,清算の結了等,,,2016-05-02,1,,,,,ケント,0
2266,9180003019004,登記記録の閉鎖等,0,2025-11-06,2025-10-27,合同会社Ｂｅａｕｔｙ　Ｆｉｒｓｔ,,合同会社,愛知県,名古屋市昭和区,檀渓通３－１４檀渓アイリス３０５号,,23,107,4660000,,,2025-10-27,清算の結了等,,,2018-06-08,1,,,,,ビューティーファースト,0
2271,9180301030001,登記記録の閉鎖等,0,2025-11-06,2025-11-05,株式会社ＯＲＥ,,株式会社,愛知県,岡崎市,大和町字荒田３６番地１,,23,202,4440931,,,2025-11-05,清算の結了等,,,2017-02-02,1,,,,,オーアールイー,0
2280,9200001013724,登記記録の閉鎖等,0,2025-11-06,2025-10-30,昭和食品株式会社,,株式会社,岐阜県,大垣市,新田町５丁目３５番地１,,21,202,5030856,,,2025-10-30,清算の結了等,,,2015-10-05,1,,,,,,0
2290,9230001013580,登記記録の閉鎖等,0,2025-11-06,2025-10-31,株式会社アピアウエルネス,,株式会社,富山県,富山市,稲荷元町２丁目１１番１号,,16,201,9300010,,,2025-10-31,清算の結了等,,,2015-10-05,1,,,,,アピアウエルネス,0
2302,9280003000358,登記記録の閉鎖等,0,2025-11-06,2025-10-30,合資会社堀越材木店,,合資会社,島根県,浜田市,蛭子町３８番地２,,32,202,6970044,,,2025-10-30,清算の結了等,,,2015-10-05,1,,,,,ホリコシザイモクテン,0
2317,9330001021490,登記記録の閉鎖等,0,2025-11-06,2025-10-30,株式会社黒川温泉御処月洸樹,,株式会社,熊本県,阿蘇郡南小国町,大字満願寺６７７７番地２,,43,423,8692402,,,2025-10-30,合併による解散等,8290001094501,令和７年１０月１日福岡市中央区赤坂一丁目１４番２２号株式会社新日本ホテルズ（8290001094501）に合併し解散,2015-10-05,1,,,,,クロカワオンセンゴショゲッコウジュ,0
2327,9380001029884,登記記録の閉鎖等,0,2025-11-06,2025-10-29,大伸工業株式会社,,株式会社,福島県,相馬市,柏崎字梅川４８番地,,07,209,9760034,,,2025-10-29,清算の結了等,,,2019-03-27,1,,,,,ダイシンコウギョウ,0
2331,9400001013902,登記記録の閉鎖等,0,2025-11-06,2025-10-27,Ｔ．Ｆ．Ｐ．株式会社,,株式会社,岩手県,盛岡市,南大通１丁目８番７号,,03,201,0200874,,,2025-10-27,清算の結了等,,,2017-10-25,1,,,,,ティーエフピー,0
