sequenceNumber,corporateNumber,process,correct,updateDate,changeDate,name,nameImageId,kind,prefectureName,cityName,streetNumber,addressImageId,prefectureCode,cityCode,postCode,addressOutside,addressOutsideImageId,closeDate,closeCause,successorCorporateNumber,changeCause,assignmentDate,latest,enName,enPrefectureName,enCityName,enAddressOutside,furigana,hihyoji
12,1010001231006,新規,0,2022-11-25,2022-11-25,株式会社アンバーズ,,株式会社,東京都,中央区,銀座１丁目２２番１１号銀座大竹ビジデンス２階,,13,102,1040061,,,,,,,2022-11-25,1,,,,,アンバーズ,0
13,1010001231022,新規,0,2022-11-25,2022-11-25,株式会社ＫＳＦＲ５,,株式会社,東京都,千代田区,内幸町２丁目１番６号,,13,101,1000011,,,,,,,2022-11-25,1,,,,,ケイエスエフアールファイブ,0
14,1010001231063,新規,0,2022-11-25,2022-11-25,株式会社ＯＬＬＩＥ　ＣＯＭＰＡＮＹ,,株式会社,東京都,文京区,春日２丁目２１番７－５０２号,,13,105,1120003,,,,,,,2022-11-25,1,,,,,オーリーカンパニー,0
15,1010001231071,新規,0,2022-11-25,2022-11-25,株式会社ＭＩＮＡＭＯＴＯＨＩＫＡＲＵ,,株式会社,東京都,千代田区,九段南１丁目５番６号りそな九段ビル５階ＫＳフロア,,13,101,1020074,,,,,,,2022-11-25,1,,,,,ミナモトヒカル,0
16,1010001231088,新規,0,2022-11-25,2022-11-25,ライフトレック株式会社,,株式会社,東京都,中央区,日本橋小網町１２番７号,,13,102,1030016,,,,,,,2022-11-25,1,,,,,ライフトレック,0
17,1010001231113,新規,0,2022-11-25,2022-11-25,株式会社カーム創研,,株式会社,東京都,千代田区,四番町８番地１５シュトラーレ四番町４０２号,,13,101,1020081,,,,,,,2022-11-25,1,,,,,カームソウケン,0
22,1010003039141,新規,0,2022-11-25,2022-11-25,ＨＬＢ１２号合同会社,,合同会社,東京都,千代田区,霞が関３丁目２番５号,,13,101,1000013,,,,,,,2022-11-25,1,,,,,エイチエルビージュウニゴウ,0
23,1010003039166,新規,0,2022-11-25,2022-11-25,合同会社Ｓａｋａｉ,,合同会社,東京都,千代田区,霞が関３丁目２番５号,,13,101,1000013,,,,,,,2022-11-25,1,,,,,サカイ,0
27,1010005035824,新規,0,2022-11-25,2022-11-25,一般社団法人レーヴァティ３３０７,,その他の設立登記法人,東京都,中央区,日本橋１丁目４番１号,,13,102,1030027,,,,,,,2022-11-25,1,,,,,レーヴァティサンサンゼロナナ,0
40,1010403028966,新規,0,2022-11-25,2022-11-25,ＰｅｒｋｉｎＥｌｍｅｒ　Ｊａｐａｎ合同会社,,合同会社,東京都,港区,六本木１丁目９番１０号アークヒルズ仙石山森タワー２８階べーカー＆マッケンジー法律事務所（外国法共同事業）内,,13,103,1060032,,,,,,,2022-11-25,1,,,,,パーキンエルマージャパン,0
41,1010501049674,新規,0,2022-11-25,2022-11-25,株式会社Ｌ＆Ｚ,,株式会社,東京都,台東区,東上野３丁目３０番８号アーバンコート東上野６階,,13,106,1100015,,,,,,,2022-11-25,1,,,,,エルアンドゼット,0
42,1010701043519,新規,0,2022-11-25,2022-11-25,株式会社Ｗｏｌｔｚ,,株式会社,東京都,品川区,大崎２丁目７番５号１０１号室,,13,109,1410032,,,,,,,2022-11-25,1,,,,,ウォルツ,0
57,1011101100942,新規,0,2022-11-25,2022-11-25,株式会社ウィーホープ,,株式会社,東京都,新宿区,西新宿７丁目１８－１３－１Ｆ,,13,104,1600023,,,,,,,2022-11-25,1,,,,,ウィーホープ,0
58,1011101100959,新規,0,2022-11-25,2022-11-25,株式会社Ｓ　ｐｌａｎｎｉｎｇ,,株式会社,東京都,新宿区,西新宿３丁目３番１３号西新宿水間ビル６階,,13,104,1600023,,,,,,,2022-11-25,1,,,,,エスプランニング,0
59,1011101100975,新規,0,2022-11-25,2022-11-25,株式会社ＺＩＵ,,株式会社,東京都,新宿区,西新宿３丁目３番１３号西新宿水間ビル６Ｆ,,13,104,1600023,,,,,,,2022-11-25,1,,,,,ジユ,0
65,1011203003952,新規,0,2022-11-25,2022-11-25,合同会社ビークラウド,,合同会社,東京都,中野区,中央２丁目３０－９ツバセスＰＡＲＴ１８,,13,114,1640011,,,,,,,2022-11-25,1,,,,,ビークラウド,0
66,1011205002523,新規,0,2022-11-25,2022-11-25,特定非営利活動法人ＨＯＬＩＳＴＩＣ　ＯＦ　ＡＮＩＭＡＬ　ＷＥＬＬＮＥＳＳ,,その他の設立登記法人,東京都,中野区,上高田１丁目３５番４号第２昭和ビル２２,,13,114,1640002,,,,,,,2022-11-25,1,,,,,ホリスティックオブアニマルウェルネス,0
67,1011401024718,新規,0,2022-11-25,2022-11-25,株式会社Ｋ＆Ｍ,,株式会社,東京都,板橋区,大山町９番９号,,13,119,1730023,,,,,,,2022-11-25,1,,,,,ケイアンドエム,0
72,1011701025812,新規,0,2022-11-25,2022-11-25,株式会社ティアイエー,,株式会社,東京都,江戸川区,瑞江２丁目５番３号２階,,13,123,1320011,,,,,,,2022-11-25,1,,,,,ティアイエー,0
74,1011801041602,新規,0,2022-11-25,2022-11-25,新耀株式会社,,株式会社,東京都,足立区,栗原３丁目２６番１号２Ｆ,,13,121,1230842,,,,,,,2022-11-25,1,,,,,シンヨウ,0
94,1020001149123,新規,0,2022-11-25,2022-11-25,株式会社こぶたカンパニー,,株式会社,神奈川県,横浜市港北区,篠原町１２４５番地５３,,14,109,2220026,,,,,,,2022-11-25,1,,,,,コブタカンパニー,0
98,1021001077537,新規,0,2022-11-25,2022-11-25,株式会社ＳＨＵＨＡＲＩ,,株式会社,神奈川県,藤沢市,鵠沼海岸３丁目１－１２えみたす鵠沼海岸３０８,,14,205,2510037,,,,,,,2022-11-25,1,,,,,シュハリ,0
120,1040003021336,新規,0,2022-11-25,2022-11-25,合同会社ＹＫＤ,,合同会社,千葉県,千葉市緑区,中西町６０４―１３,,12,105,2660024,,,,,,,2022-11-25,1,,,,,ワイケーディー,0
124,1050001052019,新規,0,2022-11-25,2022-11-25,株式会社ＲＭ,,株式会社,茨城県,下妻市,長塚５５５番地４,,08,210,3040056,,,,,,,2022-11-25,1,,,,,アールエム,0
127,1050003007037,新規,0,2022-11-25,2022-11-25,ＭＵＳＥ　ＧＲＡＣＥ合同会社,,合同会社,茨城県,つくば市,吾妻１丁目１４番地１デュオヒルズつくばエンブレイム１７１２号,,08,220,3050031,,,,,,,2022-11-25,1,,,,,ミュズグレース,0
134,1080401026172,新規,0,2022-11-25,2022-11-25,株式会社Ｂｏｃｏ,,株式会社,静岡県,浜松市西区,馬郡町６０４１番地,,22,133,4310203,,,,,,,2022-11-25,1,,,,,ボコ,0
136,1080403004663,新規,0,2022-11-25,2022-11-25,合同会社ＥＭＣＤＯＣ,,合同会社,静岡県,浜松市中区,鍛冶町１００－１,,22,131,4300933,,,,,,,2022-11-25,1,,,,,イーエムシードック,0
141,1110001037129,新規,0,2022-11-25,2022-11-25,株式会社大進,,株式会社,新潟県,新潟市中央区,小張木３丁目２番７号,,15,103,9500942,,,,,,,2022-11-25,1,,,,,ダイシン,0
155,1120001250515,新規,0,2022-11-25,2022-11-25,ＪＰ　Ｐａｒｔｓ　Ｅｘｐｒｅｓｓ　Ｃｏｒｐｏｒａｔｉｏｎ株式会社,,株式会社,大阪府,大阪市北区,梅田２丁目６番２０号パシフィックマークス西梅田４階,,27,127,5300001,,,,,,,2022-11-25,1,,,,,ジェイピーパーツエクスプレスコーポレーション,0
156,1120001250531,新規,0,2022-11-25,2022-11-25,ＨＯＡＮＧ　ＡＮ　ＰＨＡＴ株式会社,,株式会社,大阪府,大阪市西成区,旭１丁目３－１２,,27,122,5570032,,,,,,,2022-11-25,1,,,,,ホアンアンファット,0
162,1120003022937,新規,0,2022-11-25,2022-11-25,ｋａｎａｔａ合同会社,,合同会社,大阪府,大阪市西区,南堀江４丁目１１番８－３２０２号,,27,106,5500015,,,,,,,2022-11-25,1,,,,,カナタ,0
173,1122001036423,新規,0,2022-11-25,2022-11-25,株式会社Ｐ・Ｙ　ｂａｓｅ,,株式会社,大阪府,東大阪市,西石切町１丁目１１番１４号,,27,227,5798013,,,,,,,2022-11-25,1,,,,,ピーワイベース,0
176,1130001073139,新規,0,2022-11-25,2022-11-25,株式会社Ｍ’Ｓ　ｗｏｒｋｓ,,株式会社,京都府,久世郡久御山町,島田堤外２番地１０,,26,322,6130043,,,,,,,2022-11-25,1,,,,,エムズワークス,0
177,1130001073155,新規,0,2022-11-25,2022-11-25,株式会社サントラック,,株式会社,京都府,久世郡久御山町,佐山中道３９番地の２,,26,322,6130034,,,,,,,2022-11-25,1,,,,,サントラック,0
178,1130005016639,新規,0,2022-11-25,2022-11-25,一般社団法人泰平会,,その他の設立登記法人,京都府,京都市左京区,田中関田町２７番地,,26,103,6068203,,,,,,,2022-11-25,1,,,,,タイヘイカイ,0
188,1170003001795,新規,0,2022-11-25,2022-11-25,合同会社ＧｏＫｕｍａｎｏ,,合同会社,和歌山県,新宮市,仲之町３丁目１－４,,30,207,6470018,,,,,,,2022-11-25,1,,,,,ゴークマノ,0
193,1190001029960,新規,0,2022-11-25,2022-11-25,株式会社田中賃貸,,株式会社,三重県,松阪市,松ヶ島町５０８番地,,24,204,5152133,,,,,,,2022-11-25,1,,,,,タナカチンタイ,0
195,1200001040692,新規,0,2022-11-25,2022-11-25,ＧＲｔｒａｎｓｐｏｒｔ株式会社,,株式会社,岐阜県,羽島市,竹鼻町狐穴１１９６番地,,21,209,5016232,,,,,,,2022-11-25,1,,,,,ジーアールトランスポート,0
196,1200001040701,新規,0,2022-11-25,2022-11-25,株式会社ｍｉｒａｉａｓｕ,,株式会社,岐阜県,岐阜市,則武中４丁目２－１３,,21,201,5020932,,,,,,,2022-11-25,1,,,,,ミライアス,0
199,1220005008718,新規,0,2022-11-25,2022-11-25,一般社団法人ＯＶＯ,,その他の設立登記法人,石川県,小松市,問屋町１８番地,,17,203,9230037,,,,,,,2022-11-25,1,,,,,オヴォ,0
201,1230001019610,新規,0,2022-11-25,2022-11-25,ＳＡＬＭＡＮ　ＡＵＴＯＳ株式会社,,株式会社,富山県,射水市,堀岡新明神１３番地１,,16,211,9330221,,,,,,,2022-11-25,1,,,,,サルマンオートス,0
203,1240001060695,新規,0,2022-11-25,2022-11-25,株式会社ひかりファンド,,株式会社,広島県,広島市中区,富士見町８番２６号,,34,101,7300043,,,,,,,2022-11-25,1,,,,,ヒカリファンド,0
205,1260003004112,新規,0,2022-11-25,2022-11-25,合同会社フォレスト６号,,合同会社,岡山県,岡山市北区,西古松５３番地１（８０２）,,33,101,7000927,,,,,,,2022-11-25,1,,,,,フォレストロクゴウ,0
221,1290003013184,新規,0,2022-11-25,2022-11-25,Ｊａｒｖｉｓ　ＭＬ合同会社,,合同会社,福岡県,福岡市中央区,天神１丁目１番１号アクロス福岡１ＦＦａｂｂｉｔ内,,40,133,8100001,,,,,,,2022-11-25,1,,,,,ジャービスエムエル,0
222,1290003013234,新規,0,2022-11-25,2022-11-25,合同会社ＬＩＯＮ,,合同会社,福岡県,福岡市博多区,住吉２丁目３番７－１３０７号エンクレスト博多ＰＲＥＭＩＥＲ,,40,132,8120018,,,,,,,2022-11-25,1,,,,,ライオン,0
229,1310003004486,新規,0,2022-11-25,2022-11-25,合同会社ＲＹＭ,,合同会社,長崎県,長崎市,元船町１番１－７０６号,,42,201,8500035,,,,,,,2022-11-25,1,,,,,リム,0
237,1350003004227,新規,0,2022-11-25,2022-11-25,共栄設備合同会社,,合同会社,宮崎県,宮崎市,日ノ出町６５番地１,,45,201,8800856,,,,,,,2022-11-25,1,,,,,キョウエイセツビ,0
238,1360001031247,新規,0,2022-11-25,2022-11-25,ライブエイト株式会社,,株式会社,沖縄県,名護市,宮里１丁目１２番１９号,,47,209,9050011,,,,,,,2022-11-25,1,,,,,ライブエイト,0
255,1430001087934,新規,0,2022-11-25,2022-11-25,ＫＳコンサル株式会社,,株式会社,北海道,札幌市豊平区,中の島二条１０丁目１番２２号,,01,105,0620922,,,,,,,2022-11-25,1,,,,,ケイエスコンサル,0
267,1500003002925,新規,0,2022-11-25,2022-11-25,合同会社圭宙,,合同会社,愛媛県,松山市,北井門１丁目１６番１８号,,38,201,7911105,,,,,,,2022-11-25,1,,,,,ケイチュウ,0
270,1700150111491,新規,0,2022-11-25,2022-11-25,Ｎｉｎｇｂｏ　Ｚａｉｘｉｎ　Ｔｒａｄｉｎｇ　Ｃｏ　Ｌｔｄ,,外国会社等,,,,,,,,Ｒｏｏｍ　１５－５－１，Ｎｏ．１，Ｌａｎｅ　１０６６，Ｓａｎｗｕ　Ｒｏａｄ，Ｌｕｏｔｕｏ　Ｓｔｒｅｅｔ，ｎｉｎｇｂｏ，ｚｈｅｊｉａｎｇ，Ｃｈｉｎａ,,,,,,2022-11-25,1,,,,,ニンボーザイシントレーディングユウシィアンゴンスー,0
271,1700150111913,新規,0,2022-11-25,2022-11-25,ｘｕｚｈｏｕｏｕｈｕａｉｓｈａｎｇｍａｏｙｏｕｘｉａｎｇｏｎｇｓｉ,,外国会社等,,,,,,,,Ｒｏｏｍ　１０８８，Ｂｕｉｌｄｉｎｇ８，Ｆｅｎｇｘｉａｎ　Ｕｎｉｖｅｒｓｉｔｙ，Ｓｔｕｄｅｎｔ　Ｐｉｏｎｅｅｒ　Ｐａｒｋ，Ｆｅｎｇｘｉａｎ　Ｅｃｏｎｏｍｉｃ　Ｄｅｖｅｌｏｐｍｅｎｔ　Ｚｏｎｅ，Ｘｕｚｈｏｕ　Ｃｉｔｙ，Ｃｈｉｎａ,,,,,,2022-11-25,1,,,,,シゥジュウオファイシャンムアウユウセンコウシ,0
276,2010001231087,新規,0,2022-11-25,2022-11-25,株式会社風,,株式会社,東京都,中央区,銀座１丁目２２番１－１７０３号,,13,102,1040061,,,,,,,2022-11-25,1,,,,,カゼ,0
277,2010001231112,新規,0,2022-11-25,2022-11-25,サニー・リミテッド株式会社,,株式会社,東京都,千代田区,内神田２丁目３番６号,,13,101,1010047,,,,,,,2022-11-25,1,,,,,サニーリミテッド,0
283,2010101015431,新規,0,2022-11-25,2022-11-25,株式会社Ｓワーカーズ,,株式会社,東京都,八王子市,大谷町２０８－１４,,13,201,1920034,,,,,,,2022-11-25,1,,,,,エスワーカーズ,0
290,2010401170991,新規,0,2022-11-25,2022-11-25,Ｂ．Ｏ．Ｔ株式会社,,株式会社,東京都,港区,南青山３丁目１番３６号青山丸竹ビル６Ｆ,,13,103,1070062,,,,,,,2022-11-25,1,,,,,ビーオーティー,0
291,2010401171049,新規,0,2022-11-25,2022-11-25,株式会社ＳｔａｒｔｕｐＣｏｎｎｅｃｔ,,株式会社,東京都,港区,西新橋１丁目６番１２号アイオス虎ノ門８Ｆ,,13,103,1050003,,,,,,,2022-11-25,1,,,,,スタートアップコネクト,0
296,2010601062205,新規,0,2022-11-25,2022-11-25,株式会社ＴＩＡＮＬＡＮ,,株式会社,東京都,墨田区,文花１丁目３４番１１号－４０２,,13,107,1310044,,,,,,,2022-11-25,1,,,,,ティアンラン,0
297,2010603009856,新規,0,2022-11-25,2022-11-25,合同会社ＴＦＫ,,合同会社,東京都,墨田区,横川５丁目９番１－１８０２号,,13,107,1300003,,,,,,,2022-11-25,1,,,,,ティエフケイ,0
310,2011005009833,新規,0,2022-11-25,2022-11-25,一般社団法人ＧＪＩＰ,,その他の設立登記法人,東京都,渋谷区,広尾１丁目１１番２号嶋本公認会計士事務所気付,,13,113,1500012,,,,,,,2022-11-25,1,,,,,ジージェイアイピー,0
315,2011103012417,新規,0,2022-11-25,2022-11-25,シボリトレーディング合同会社,,合同会社,東京都,新宿区,百人町２丁目６番６号,,13,104,1690073,,,,,,,2022-11-25,1,,,,,シボリトレーディング,0
319,2011401024717,新規,0,2022-11-25,2022-11-25,ＵＲＢＡＮＵＳ　ＩＮＴＥＲＮＡＴＩＯＮＡＬ株式会社,,株式会社,東京都,板橋区,赤塚２丁目１６番１号,,13,119,1750092,,,,,,,2022-11-25,1,,,,,アーバナスインターナショナル,0
331,2012701017369,新規,0,2022-11-25,2022-11-25,共立介護サービス株式会社,,株式会社,東京都,小平市,花小金井５丁目７番１２号,,13,211,1870002,,,,,,,2022-11-25,1,,,,,キョウリツカイゴサービス,0
332,2012801021989,新規,0,2022-11-25,2022-11-25,株式会社三秀,,株式会社,東京都,立川市,錦町５丁目１６番１３号,,13,202,1900022,,,,,,,2022-11-25,1,,,,,サンシュウ,0
343,2021003012417,新規,0,2022-11-25,2022-11-25,合同会社Ｆ＆Ｅ,,合同会社,神奈川県,厚木市,林２丁目２０番３７号,,14,212,2430816,,,,,,,2022-11-25,1,,,,,エフアンドイー,0
349,2030001151151,新規,0,2022-11-25,2022-11-25,株式会社ＬＩＶＬＩ,,株式会社,埼玉県,川口市,末広２丁目１９番２２号,,11,203,3320006,,,,,,,2022-11-25,1,,,,,リブリ,0
350,2030001151176,新規,0,2022-11-25,2022-11-25,株式会社新勝貿易,,株式会社,埼玉県,川口市,芝中田２丁目２７番１９号,,11,203,3330847,,,,,,,2022-11-25,1,,,,,シンショウボウエキ,0
354,2030003020627,新規,0,2022-11-25,2022-11-25,ＡＲＩＢＡ　ＦＡＳＨＩＯＮ　ＨＯＵＳＥ合同会社,,合同会社,埼玉県,川越市,大字的場２８５０番地２０コーポアクティブ２０１,,11,201,3501101,,,,,,,2022-11-25,1,,,,,アリバーファッションハウス,0
365,2040003021310,新規,0,2022-11-25,2022-11-25,廣山社中合同会社,,合同会社,千葉県,柏市,若柴１－２００,,12,217,2770871,,,,,,,2022-11-25,1,,,,,ヒロヤマシャチュウ,0
372,2070001039863,新規,0,2022-11-25,2022-11-25,ＭＣ．コーポレーション株式会社,,株式会社,群馬県,伊勢崎市,除ケ町４１６番地１,,10,204,3720832,,,,,,,2022-11-25,1,,,,,エムシーコーポレーション,0
389,2120001250332,新規,0,2022-11-25,2022-11-25,株式会社ＯＫ　Ｊｕｎｃｔｉｏｎ,,株式会社,大阪府,大阪市北区,角田町１番１２号阪急ファイブアネックスビル,,27,127,5300017,,,,,,,2022-11-25,1,,,,,オーケージャンクション,0
390,2120001250522,新規,0,2022-11-25,2022-11-25,宇拓株式会社,,株式会社,大阪府,大阪市中央区,松屋町９番２０号ローレルステート松屋町１４０５Ｃ,,27,128,5420067,,,,,,,2022-11-25,1,,,,,ウタク,0
391,2120001250539,新規,0,2022-11-25,2022-11-25,株式会社タントミール,,株式会社,大阪府,大阪市中央区,北浜２丁目３番９号,,27,128,5410041,,,,,,,2022-11-25,1,,,,,タントミール,0
392,2120001250563,新規,0,2022-11-25,2022-11-25,株式会社Ｒ．ｓｔａｒ,,株式会社,大阪府,大阪市北区,天満橋１丁目８番１０－６０５号,,27,127,5300042,,,,,,,2022-11-25,1,,,,,アールスター,0
399,2120003022928,新規,0,2022-11-25,2022-11-25,晟霖合同会社,,合同会社,大阪府,大阪市旭区,新森５丁目３番２４号ヴィラース旭２０２号室,,27,117,5350022,,,,,,,2022-11-25,1,,,,,セイリン,0
402,2120101066570,新規,0,2022-11-25,2022-11-25,株式会社ｓａｔｉａｒｅ,,株式会社,大阪府,堺市西区,築港浜寺西町７番地３,,27,144,5928352,,,,,,,2022-11-25,1,,,,,サティアーレ,0
403,2120101066587,新規,0,2022-11-25,2022-11-25,株式会社田中塗装,,株式会社,大阪府,堺市堺区,南田出井町２丁２番１７－３０１号,,27,141,5900015,,,,,,,2022-11-25,1,,,,,タナカトソウ,0
410,2130001073138,新規,0,2022-11-25,2022-11-25,株式会社竹上,,株式会社,京都府,京都市下京区,黒門通高辻下る杉蛭子町２３８番地２,00128574,26,106,6008386,,,,,,,2022-11-25,1,,,,,タケガミ,0
412,2130005016638,新規,0,2022-11-25,2022-11-25,一般社団法人多文化共生ＮＥＴＷＯＲＫ,,その他の設立登記法人,京都府,京都市上京区,東堀川通下長者町下る三町目１３番地３ホーユウコンフォルト二条城前２１３号,,26,102,6028056,,,,,,,2022-11-25,1,,,,,タブンカキョウセイネットワーク,0
413,2140001128171,新規,0,2022-11-25,2022-11-25,株式会社葵コーポレーション,,株式会社,兵庫県,豊岡市,城崎町上山６２７番地,,28,209,6696116,,,,,,,2022-11-25,1,,,,,アオイコーポレーション,0
423,2180003024530,新規,0,2022-11-25,2022-11-25,合同会社ＴＫＭＡプランニング,,合同会社,愛知県,名古屋市千種区,橋本町２丁目５番地,,23,101,4640035,,,,,,,2022-11-25,1,,,,,ティーケーエムエープランニング,0
427,2190001029951,新規,0,2022-11-25,2022-11-25,あおぞら株式会社,,株式会社,三重県,北牟婁郡紀北町,相賀１９４２番地５,,24,543,5193406,,,,,,,2022-11-25,1,,,,,アオゾラ,0
431,2210001019165,新規,0,2022-11-25,2022-11-25,ＨＡＫＯＢＵＮＥ株式会社,,株式会社,福井県,福井市,大島町大島台４１５番地,,18,201,9188018,,,,,,,2022-11-25,1,,,,,ハコブネ,0
439,2260003004111,新規,0,2022-11-25,2022-11-25,合同会社フォレスト５号,,合同会社,岡山県,岡山市北区,西古松５３番地１（８０２）,,33,101,7000927,,,,,,,2022-11-25,1,,,,,フォレストゴゴウ,0
454,2290003013233,新規,0,2022-11-25,2022-11-25,Ｒ＆Ｍ開発合同会社,,合同会社,福岡県,宗像市,葉山１丁目１番３,,40,220,8114171,,,,,,,2022-11-25,1,,,,,アールアンドエムカイハツ,0
455,2290803004274,新規,0,2022-11-25,2022-11-25,ＴＡＭ合同会社,,合同会社,福岡県,北九州市小倉北区,神岳２丁目５番２３号神岳ビル３０１号室,,40,106,8020045,,,,,,,2022-11-25,1,,,,,タム,0
457,2300001013142,新規,0,2022-11-25,2022-11-25,株式会社ａｇｉｔｏ,,株式会社,佐賀県,西松浦郡有田町,中の原２丁目１番１３号,,41,401,8440009,,,,,,,2022-11-25,1,,,,,アジト,0
458,2300005007116,新規,0,2022-11-25,2022-11-25,医療法人凱風会,,その他の設立登記法人,佐賀県,唐津市,鏡辻２５３７,,41,202,8470022,,,,,,,2022-11-25,1,,,,,ガイフウカイ,0
459,2310001018140,新規,0,2022-11-25,2022-11-25,株式会社ｌｉｋｅ　ｍａｒｉｅ,,株式会社,長崎県,長崎市,城山町２９番１７号,,42,201,8528021,,,,,,,2022-11-25,1,,,,,ライクマリー,0
462,2330001030333,新規,0,2022-11-25,2022-11-25,株式会社トライテック商会,,株式会社,熊本県,熊本市中央区,水前寺６丁目７番２６号,,43,101,8620950,,,,,,,2022-11-25,1,,,,,トライテックショウカイ,0
468,2340001025191,新規,0,2022-11-25,2022-11-25,祥陽電工株式会社,,株式会社,鹿児島県,鹿児島市,坂之上４丁目３番３５号,,46,201,8910150,,,,,,,2022-11-25,1,,,,,ショウヨウデンコウ,0
469,2340001025200,新規,0,2022-11-25,2022-11-25,株式会社グリーンメディカル,,株式会社,鹿児島県,鹿児島市,南林寺町３番７号,,46,201,8920834,,,,,,,2022-11-25,1,,,,,,0
477,2360001031254,新規,0,2022-11-25,2022-11-25,株式会社ＵＴＡＤＡＭＡ　ＭＵＳＩＣ,,株式会社,沖縄県,那覇市,字松川４４５番２号オーシャンパレス首里Ａ４０７号室,,47,201,9020062,,,,,,,2022-11-25,1,,,,,ウタダマミュージック,0
494,2440001009192,新規,0,2022-11-25,2022-11-25,株式会社鈴木林業,,株式会社,北海道,檜山郡厚沢部町,字鶉８６１番地,,01,363,0431238,,,,,,,2022-11-25,1,,,,,スズキリンギョウ,0
496,2490001010344,新規,0,2022-11-25,2022-11-25,株式会社カリマネ,,株式会社,高知県,高知市,南万々１１０番地２,,39,201,7800971,,,,,,,2022-11-25,1,,,,,カリマネ,0
499,2500003002924,新規,0,2022-11-25,2022-11-25,志エンボディ合同会社,,合同会社,愛媛県,松山市,山越２丁目１‐２８ＮＰＯ法人志リレーションＬａｂ内,,38,201,7918013,,,,,,,2022-11-25,1,,,,,ココロエンボディ,0
501,2700150110476,新規,0,2022-11-25,2022-11-25,ｘｉ　ａｎ　ｑｕｎｊｕ　ｊｉａｎｚｈｕ　ａｎｚｈｕａｎｇｇｏｎｇｃｈｅｎｇｙｏｕｘｉａｎｇｏｎｇｓｉ,,外国会社等,,,,,,,,ｚａｏｙｕａｎｘｉｌｕ　２１９ｈａｏ　ｗａｎｇｕｏｙｕａｎｊｉａｎ　ｍｉｎｚｈｕ　２ｈａｏｌｏｕ　１００３ｓｈｉ　Ｘｉａｎ　Ｓｈｉ　ｌｉａｎｈｕ　Ｑｕ　Ｓｈａｎｘｉ　Ｓｈｅｎｇ，Ｃｈｉｎａ,,,,,,2022-11-25,1,,,,,シーアンチュンジュジアンジュアンソウゴンチンヨウシアンゴンスー,0
502,2700150111490,新規,0,2022-11-25,2022-11-25,Ｎｉｎｇｂｏ　Ｔｉａｎｙｕ　Ｔｒａｄｉｎｇ　Ｃｏ　Ｌｔｄ,,外国会社等,,,,,,,,Ｒｏｏｍ　１５－２，Ｎｏ．１，Ｌａｎｅ　１０６６，Ｓａｎｗｕ　Ｒｏａｄ，Ｌｕｏｔｕｏ　Ｓｔｒｅｅｔ，Ｚｈｅｎｈａｉ　ＤｉｓｔｒｉｃｔＮｉｎｇｂｏ　Ｚｈｅｊｉａｎｇ　Ｃｈｉｎａ,,,,,,2022-11-25,1,,,,,ニンボーテンユートレーディングユウシィアンゴンスー,0
512,3010001231086,新規,0,2022-11-25,2022-11-25,株式会社アンディーフロイデ,,株式会社,東京都,千代田区,麹町３丁目１０－２ＣＩＴＹＳＰＩＲＥ９０２号室,,13,101,1020083,,,,,,,2022-11-25,1,,,,,アンディーフロイデ,0
525,3010401170999,新規,0,2022-11-25,2022-11-25,ゴッド株式会社,,株式会社,東京都,港区,赤坂５丁目５番８号赤坂ファイブビル４Ｆ,,13,103,1070052,,,,,,,2022-11-25,1,,,,,ゴッド,0
526,3010401171048,新規,0,2022-11-25,2022-11-25,Ｎｓｔｏｃｋ　Ｆｉｎａｎｃｅ株式会社,,株式会社,東京都,港区,六本木３丁目２－１住友不動産六本木グランドタワー,,13,103,1060032,,,,,,,2022-11-25,1,,,,,エヌストックファイナンス,0
527,3010403028857,新規,0,2022-11-25,2022-11-25,Ｍｏｍｅｎｔ　Ｆｏｒｃｅ合同会社,,合同会社,東京都,港区,芝２丁目１０番２,,13,103,1050014,,,,,,,2022-11-25,1,,,,,モーメントフォース,0
528,3010403028964,新規,0,2022-11-25,2022-11-25,合同会社ヴァルホームズ,,合同会社,東京都,港区,赤坂５丁目３番３－９０５号,,13,103,1070052,,,,,,,2022-11-25,1,,,,,ヴァルホームズ,0
529,3010603009855,新規,0,2022-11-25,2022-11-25,合同会社佳林,,合同会社,東京都,江東区,大島８丁目３９番２２－４２５号,,13,108,1360072,,,,,,,2022-11-25,1,,,,,カリン,0
533,3010901052012,新規,0,2022-11-25,2022-11-25,株式会社ＳｎｓＣｏｏｌ,,株式会社,東京都,世田谷区,上用賀１丁目２６－４－１０１,,13,112,1580098,,,,,,,2022-11-25,1,,,,,,0
545,3011101100965,新規,0,2022-11-25,2022-11-25,後継者のバトン株式会社,,株式会社,東京都,新宿区,新宿２丁目３番１２号グレイスビル７Ｆ,,13,104,1600022,,,,,,,2022-11-25,1,,,,,コウケイシャノバトン,0
551,3011303004576,新規,0,2022-11-25,2022-11-25,合同会社Ｄｅｓｔｉｎｙ７７７,,合同会社,東京都,杉並区,梅里２丁目１５－１７コンフォール梅里１０１,,13,115,1660011,,,,,,,2022-11-25,1,,,,,ディスティニースリーセブン,0
552,3011401024724,新規,0,2022-11-25,2022-11-25,ライフベース管理株式会社,,株式会社,東京都,板橋区,高島平１丁目２１番８号,,13,119,1750082,,,,,,,2022-11-25,1,,,,,ライフベースカンリ,0
561,3011603003757,新規,0,2022-11-25,2022-11-25,合同会社一座,,合同会社,東京都,練馬区,豊玉北５丁目１８－５岡田ビル１階,,13,120,1760012,,,,,,,2022-11-25,1,,,,,イチザ,0
576,3020001149113,新規,0,2022-11-25,2022-11-25,株式会社ＳＷＩＦＴ,,株式会社,神奈川県,横浜市青葉区,市ケ尾町５２３番地８,,14,117,2250024,,,,,,,2022-11-25,1,,,,,スイフト,0
584,3021001077535,新規,0,2022-11-25,2022-11-25,株式会社くらしメンテナンス湘南,,株式会社,神奈川県,平塚市,公所５２０－１,,14,203,2540906,,,,,,,2022-11-25,1,,,,,クラシメンテナンスショウナン,0
596,3030001151134,新規,0,2022-11-25,2022-11-25,芹真財託株式会社,,株式会社,埼玉県,さいたま市浦和区,常盤９丁目１２番８－３０２号,,11,107,3300061,,,,,,,2022-11-25,1,,,,,セリマザイタク,0
597,3030001151209,新規,0,2022-11-25,2022-11-25,株式会社三正,,株式会社,埼玉県,三郷市,彦成１丁目５４番地,,11,237,3410003,,,,,,,2022-11-25,1,,,,,サンセイ,0
606,3040001125896,新規,0,2022-11-25,2022-11-25,株式会社ちとせホールディングス,,株式会社,千葉県,木更津市,中里２丁目６番２０号,,12,206,2920064,,,,,,,2022-11-25,1,,,,,チトセホールディングス,0
607,3040001125987,新規,0,2022-11-25,2022-11-25,鳳翔商会株式会社,,株式会社,千葉県,松戸市,仲井三丁目５８番地の１２スカイヒルズＤ棟１０２,,12,207,2700000,,,,,,,2022-11-25,1,,,,,ホウショウショウカイ,0
610,3050001052000,新規,0,2022-11-25,2022-11-25,株式会社ＡＨＭＥＤ　ＴＲＡＤＥＲＳ,,株式会社,茨城県,坂東市,逆井３５３６番地大都ビル１０５,,08,228,3060501,,,,,,,2022-11-25,1,,,,,アーメドトレーダーズ,0
614,3050005013171,新規,0,2022-11-25,2022-11-25,一般社団法人ｋｏｋｏ　ｗａｎｋｏ,,その他の設立登記法人,茨城県,かすみがうら市,加茂４５４８番５,,08,230,3000135,,,,,,,2022-11-25,1,,,,,ココワンコ,0
618,3070001039862,新規,0,2022-11-25,2022-11-25,株式会社ＡＣＥＲＳＥ,,株式会社,群馬県,前橋市,南町３丁目５０番地２プラザアン２階Ｄ－１８,,10,201,3710805,,,,,,,2022-11-25,1,,,,,アセルセ,0
623,3080401026170,新規,0,2022-11-25,2022-11-25,株式会社ＨＯＭＥ　ＷＯＲＫＥＲ,,株式会社,静岡県,浜松市中区,上島５丁目２３番４５号,,22,131,4338122,,,,,,,2022-11-25,1,,,,,ホームワーカー,0
628,3100003006790,新規,0,2022-11-25,2022-11-25,合同会社トブキカ,,合同会社,長野県,安曇野市,三郷明盛１６５７番地１エル・ピソＲ１０５,,20,220,3998101,,,,,,,2022-11-25,1,,,,,トブキカ,0
648,3120001250538,新規,0,2022-11-25,2022-11-25,株式会社ジーナス,,株式会社,大阪府,大阪市淀川区,西中島６丁目９番８号,,27,123,5320011,,,,,,,2022-11-25,1,,,,,ジーナス,0
652,3120003022935,新規,0,2022-11-25,2022-11-25,ＷＯＲＬＤ　ＳＡＬＡＳ合同会社,,合同会社,大阪府,大阪市北区,曾根崎新地１丁目５－３１米田ビル１階,,27,127,5300002,,,,,,,2022-11-25,1,,,,,ワールドセルアス,0
661,3122001036438,新規,0,2022-11-25,2022-11-25,Ｖｅｒｔｉｃａｌｌｉｍｉｔ株式会社,,株式会社,大阪府,大東市,御領１丁目６番５８号,,27,218,5740064,,,,,,,2022-11-25,1,,,,,バーティカルリミット,0
667,3130001073145,新規,0,2022-11-25,2022-11-25,株式会社トイロジー,,株式会社,京都府,京都市中京区,新京極通蛸薬師下る東側町５０１番地３松やビル２階,00128584,26,104,6048046,,,,,,,2022-11-25,1,,,,,トイロジー,0
668,3130001073161,新規,0,2022-11-25,2022-11-25,Ｎマネジメント株式会社,,株式会社,京都府,八幡市,橋本平野山６０番地,,26,210,6148347,,,,,,,2022-11-25,1,,,,,エヌマネジメント,0
669,3130003008339,新規,0,2022-11-25,2022-11-25,合同会社ＳＥＯ,,合同会社,京都府,京都市山科区,西野山射庭ノ上町６２番地５,,26,110,6078307,,,,,,,2022-11-25,1,,,,,エスイーオー,0
674,3140001128121,新規,0,2022-11-25,2022-11-25,株式会社井翔,,株式会社,兵庫県,姫路市,飾磨区今在家３丁目２６６番地２,,28,201,6728079,,,,,,,2022-11-25,1,,,,,セイショウ,0
675,3140001128138,新規,0,2022-11-25,2022-11-25,株式会社だれウマ,,株式会社,兵庫県,神戸市西区,井吹台西町６丁目７番地の２,,28,111,6512243,,,,,,,2022-11-25,1,,,,,ダレウマ,0
676,3140001128154,新規,0,2022-11-25,2022-11-25,株式会社イノジョインジャパン,,株式会社,兵庫県,尼崎市,武庫之荘１丁目８番４－１０１号,,28,202,6610035,,,,,,,2022-11-25,1,,,,,イノジョインジャパン,0
677,3140001128162,新規,0,2022-11-25,2022-11-25,株式会社ＳＥＹＫＹＯ,,株式会社,兵庫県,姫路市,飾磨区妻鹿７７０番地３,,28,201,6728031,,,,,,,2022-11-25,1,,,,,セイキョー,0
678,3140001128170,新規,0,2022-11-25,2022-11-25,株式会社リスティー不動産販売,,株式会社,兵庫県,神戸市中央区,栄町通１丁目１番８号,,28,110,6500023,,,,,,,2022-11-25,1,,,,,リスティーフドウサンハンバイ,0
689,3180001153941,新規,0,2022-11-25,2022-11-25,株式会社Ｃ２Ｒ,,株式会社,愛知県,長久手市,打越１８１１番地,,23,238,4801152,,,,,,,2022-11-25,1,,,,,シーツーアール,0
698,3190003004142,新規,0,2022-11-25,2022-11-25,合同会社ＯＳＨＩＮ　ＡＮＤ　ＡＴＳＵＫＯ　ＩＮＴＥＲＮＡＴＩＯＮＡＬ,,合同会社,三重県,津市,大谷町２５５番地オフィス金子２Ｆ,,24,201,5140007,,,,,,,2022-11-25,1,,,,,オシンアンドアツコインターナショナル,0
699,3190005011772,新規,0,2022-11-25,2022-11-25,ＮＰＯ法人ＥＩＷ・アソシエーション,,その他の設立登記法人,三重県,津市,一志町片野１１０３番地プラザホープ２０１号室,,24,201,5152511,,,,,,,2022-11-25,1,,,,,イーアイダブリューアソシエーション,0
700,3200001040699,新規,0,2022-11-25,2022-11-25,株式会社森ホールディングス,,株式会社,岐阜県,大垣市,墨俣町墨俣２６番地,,21,202,5030102,,,,,,,2022-11-25,1,,,,,モリホールディングス,0
702,3220005008716,新規,0,2022-11-25,2022-11-25,特定非営利活動法人動物愛護支援センターＣＯＣＯＲＯ,,その他の設立登記法人,石川県,白山市,横江町８街区１番,,17,210,9240011,,,,,,,2022-11-25,1,,,,,ドウブツアイゴシエンセンターココロ,0
704,3240001060702,新規,0,2022-11-25,2022-11-25,ｏｎｅ　ｃａｌｍ株式会社,,株式会社,広島県,広島市西区,南観音２丁目８番２７－１１０４号,,34,104,7330035,,,,,,,2022-11-25,1,,,,,ワンカーム,0
709,3260003004110,新規,0,2022-11-25,2022-11-25,合同会社スカイコンサルタント,,合同会社,岡山県,岡山市中区,江並７５番地２７,,33,102,7028004,,,,,,,2022-11-25,1,,,,,スカイコンサルタント,0
716,3290001099686,新規,0,2022-11-25,2022-11-25,株式会社柴田企画,,株式会社,福岡県,福岡市南区,桧原２丁目１８番２号,,40,134,8111355,,,,,,,2022-11-25,1,,,,,シバタキカク,0
717,3290001099694,新規,0,2022-11-25,2022-11-25,株式会社ＹＭｓｔｙｌｅ,,株式会社,福岡県,福岡市東区,水谷１丁目１１番１３号,,40,131,8130041,,,,,,,2022-11-25,1,,,,,ワイエムスタイル,0
720,3290003013232,新規,0,2022-11-25,2022-11-25,Ｒｉｇｈｔｍｏｖｅ　Ｊａｐａｎ合同会社,,合同会社,福岡県,福岡市中央区,小笹５丁目１８番１０－５０２号,,40,133,8100033,,,,,,,2022-11-25,1,,,,,ライトムーブジャパン,0
721,3290003013240,新規,0,2022-11-25,2022-11-25,合同会社Ｐｒｉｍｅ　Ｐｌｕｓ,,合同会社,福岡県,福岡市南区,塩原４丁目６番２１号４０３,,40,134,8150032,,,,,,,2022-11-25,1,,,,,プライムプラス,0
724,3300001013141,新規,0,2022-11-25,2022-11-25,株式会社Ｒｅ　ａｔ,,株式会社,佐賀県,鳥栖市,宿町１１９０番地１,,41,203,8410052,,,,,,,2022-11-25,1,,,,,リアット,0
733,3340001025190,新規,0,2022-11-25,2022-11-25,中島建築株式会社,,株式会社,鹿児島県,熊毛郡南種子町,中之上２７４５番地１,,46,502,8913701,,,,,,,2022-11-25,1,,,,,ナカシマケンチク,0
734,3340001025199,新規,0,2022-11-25,2022-11-25,株式会社ＫＵＤ,,株式会社,鹿児島県,熊毛郡南種子町,中之上３４００－２７,,46,502,8913701,,,,,,,2022-11-25,1,,,,,クッド,0
744,3370005010558,新規,0,2022-11-25,2022-11-25,一般社団法人東北大学学友会準硬式野球部支援会,,その他の設立登記法人,宮城県,仙台市青葉区,荒巻字青葉６－３,,04,101,9800845,,,,,,,2022-11-25,1,,,,,トウホクダイガクガクユウカイジュンコウシキヤキュウブシエンカイ,0
760,3430001087924,新規,0,2022-11-25,2022-11-25,株式会社テラケン,,株式会社,北海道,札幌市東区,中沼西四条２丁目６番６号,,01,103,0070894,,,,,,,2022-11-25,1,,,,,テラケン,0
761,3430001087932,新規,0,2022-11-25,2022-11-25,Ｏｂａｋｅ株式会社,,株式会社,北海道,札幌市中央区,南六条西６丁目２番地１３第６Ｇビル４Ｆ,,01,101,0640806,,,,,,,2022-11-25,1,,,,,オバケ,0
763,3430003014488,新規,0,2022-11-25,2022-11-25,合同会社ＯＳＴワールド,,合同会社,北海道,札幌市清田区,平岡一条４丁目２－１１－３,,01,110,0040871,,,,,,,2022-11-25,1,,,,,オーエスティーワールド,0
764,3440001009191,新規,0,2022-11-25,2022-11-25,株式会社弘武,,株式会社,北海道,函館市,万代町１番２４号,,01,202,0400075,,,,,,,2022-11-25,1,,,,,ヒロタケ,0
766,3440003001493,新規,0,2022-11-25,2022-11-25,合同会社グッドサービス,,合同会社,北海道,函館市,港町１丁目２０番２７号,,01,202,0410821,,,,,,,2022-11-25,1,,,,,グッドサービス,0
770,3500001024614,新規,0,2022-11-25,2022-11-25,株式会社オオノハチイチ,,株式会社,愛媛県,松山市,北梅本町甲１８４番地,,38,201,7910242,,,,,,,2022-11-25,1,,,,,オオノハチイチ,0
772,3500003002923,新規,0,2022-11-25,2022-11-25,合同会社よつばベーカリー,,合同会社,愛媛県,宇和島市,朝日町１丁目３番２０号,,38,203,7980004,,,,,,,2022-11-25,1,,,,,,0
787,4010001231085,新規,0,2022-11-25,2022-11-25,ＦＩＲＳＴ　ＤＯＭＩＮＯ株式会社,,株式会社,東京都,中央区,日本橋富沢町９番４号日本橋富沢町ビル,,13,102,1030006,,,,,,,2022-11-25,1,,,,,ファーストドミノ,0
788,4010001231119,新規,0,2022-11-25,2022-11-25,株式会社Ｃｌａｓｔｅｒｉａ,,株式会社,東京都,中央区,日本橋兜町１７－２兜町第６葉山ビル４Ｆ,,13,102,1030026,,,,,,,2022-11-25,1,,,,,クラステリア,0
801,4010003039171,新規,0,2022-11-25,2022-11-25,合同会社ＡＤＲＥＮＡ,,合同会社,東京都,中央区,銀座１丁目１２番４号Ｎ＆ＥＢＬＤ．６Ｆ,,13,102,1040061,,,,,,,2022-11-25,1,,,,,アドレナ,0
809,4010401170998,新規,0,2022-11-25,2022-11-25,株式会社シャンティ,,株式会社,東京都,港区,三田５丁目２番１８－３０９号,,13,103,1080073,,,,,,,2022-11-25,1,,,,,シャンティ,0
810,4010401171006,新規,0,2022-11-25,2022-11-25,ＳＨＩＮＷＯＲＫＳ株式会社,,株式会社,東京都,港区,麻布十番２丁目２０番７号１Ｆ,,13,103,1060045,,,,,,,2022-11-25,1,,,,,シンワークス,0
811,4010401171030,新規,0,2022-11-25,2022-11-25,ＬＳ‐ＳＨＩＰ第３１号株式会社,,株式会社,東京都,港区,六本木１丁目６番１号,,13,103,1060032,,,,,,,2022-11-25,1,,,,,エルエスシップダイサンジュウイチゴウ,0
814,4010503006794,新規,0,2022-11-25,2022-11-25,合同会社ＫｉｊｉＬｉｆｅ,,合同会社,東京都,台東区,上野５丁目１４番１０,,13,106,1100005,,,,,,,2022-11-25,1,,,,,キジライフ,0
823,4010901051987,新規,0,2022-11-25,2022-11-25,株式会社ｓｌｅｅｐ,,株式会社,東京都,世田谷区,下馬５丁目５番１８号,,13,112,1540002,,,,,,,2022-11-25,1,,,,,スリープ,0
824,4010901052036,新規,0,2022-11-25,2022-11-25,越後情話株式会社,,株式会社,東京都,世田谷区,野沢３丁目１１番１４号,,13,112,1540003,,,,,,,2022-11-25,1,,,,,エチゴジョウワ,0
825,4010903007806,新規,0,2022-11-25,2022-11-25,合同会社ヘドン,,合同会社,東京都,世田谷区,用賀１丁目９番地２２号オアーゼ用賀Ｅ８０１,,13,112,1580097,,,,,,,2022-11-25,1,,,,,,0
831,4011001151083,新規,0,2022-11-25,2022-11-25,ヴォンダ株式会社,,株式会社,東京都,目黒区,碑文谷５丁目２番５号Ｔ＆Ａビル５階,,13,110,1520003,,,,,,,2022-11-25,1,,,,,ヴォンダ,0
843,4011101100980,新規,0,2022-11-25,2022-11-25,株式会社祇園,,株式会社,東京都,新宿区,歌舞伎町２丁目３７番３号丸友ビル４階,,13,104,1600021,,,,,,,2022-11-25,1,,,,,ギオン,0
847,4011401024723,新規,0,2022-11-25,2022-11-25,株式会社Ｃｈｏｓｈｉｎ．Ａｒｔ,,株式会社,東京都,板橋区,大山金井町２８番５号,,13,119,1730024,,,,,,,2022-11-25,1,,,,,チョウシンアート,0
852,4011505002518,新規,0,2022-11-25,2022-11-25,土地家屋調査士法人リープ測量,,その他の設立登記法人,東京都,荒川区,西尾久７丁目１３番４－１０１号,,13,118,1160011,,,,,,,2022-11-25,1,,,,,リープソクリョウ,0
854,4011603003756,新規,0,2022-11-25,2022-11-25,にこファミリー合同会社,,合同会社,東京都,練馬区,桜台６丁目１４番９号,,13,120,1760002,,,,,,,2022-11-25,1,,,,,ニコファミリー,0
860,4012401039901,新規,0,2022-11-25,2022-11-25,株式会社イー・エーエスシー,,株式会社,東京都,三鷹市,下連雀９丁目７番２１号コートハウス三鷹３０６,,13,204,1810013,,,,,,,2022-11-25,1,,,,,イーエーエスシー,0
863,4012801021987,新規,0,2022-11-25,2022-11-25,株式会社エムワイ・クロゼット,,株式会社,東京都,昭島市,田中町１丁目２４番１３号,,13,207,1960014,,,,,,,2022-11-25,1,,,,,エムワイクロゼット,0
897,4030001151158,新規,0,2022-11-25,2022-11-25,株式会社ライド,,株式会社,埼玉県,熊谷市,上川上５６７番地４１,,11,202,3600004,,,,,,,2022-11-25,1,,,,,ライド,0
898,4030001151166,新規,0,2022-11-25,2022-11-25,株式会社ＪＭＤ　Ｌｏｇｉｓｔｉｃｓ　Ｉｍｐｏｒｔ　Ｅｘｐｏｒｔ　Ｊａｐａｎ,,株式会社,埼玉県,越谷市,登戸町２３番１４号１０１号室,,11,222,3430846,,,,,,,2022-11-25,1,,,,,ジェイエムディーロジスティクスインポートエクスポートジャパン,0
899,4030001151182,新規,0,2022-11-25,2022-11-25,株式会社ＦＤ,,株式会社,埼玉県,上尾市,大字大谷本郷４８番地６,,11,219,3620044,,,,,,,2022-11-25,1,,,,,エフディー,0
900,4030001151199,新規,0,2022-11-25,2022-11-25,株式会社Ｒｏｂｉｎ,,株式会社,埼玉県,朝霞市,本町１丁目３６番７－１０２号,,11,227,3510011,,,,,,,2022-11-25,1,,,,,ロビン,0
901,4030001151208,新規,0,2022-11-25,2022-11-25,株式会社モニカ,,株式会社,埼玉県,草加市,青柳５丁目３９－２０,,11,221,3400002,,,,,,,2022-11-25,1,,,,,モニカ,0
919,4050001052008,新規,0,2022-11-25,2022-11-25,株式会社ＣＬＵＢ　ＤＲＡＧＯＮＳ,,株式会社,茨城県,龍ケ崎市,小通幸谷町１７６番地１パルスグランレジオ４０５号室,,08,208,3010034,,,,,,,2022-11-25,1,,,,,クラブドラゴンズ,0
926,4070001039861,新規,0,2022-11-25,2022-11-25,株式会社クラウン,,株式会社,群馬県,前橋市,大手町３丁目９番１６号,,10,201,3710026,,,,,,,2022-11-25,1,,,,,クラウン,0
931,4080103002691,新規,0,2022-11-25,2022-11-25,合同会社Ｔｏｐｅｄｇｅ＆Ｃｏ．,,合同会社,静岡県,駿東郡長泉町,下土狩６番地の１,,22,342,4110943,,,,,,,2022-11-25,1,,,,,トッページアンドカンパニー,0
932,4080401026178,新規,0,2022-11-25,2022-11-25,株式会社アカヤシオ,,株式会社,静岡県,浜松市南区,東町４７８番地の１,,22,134,4300822,,,,,,,2022-11-25,1,,,,,アカヤシオ,0
951,4120001250470,新規,0,2022-11-25,2022-11-25,五福商株式会社,,株式会社,大阪府,大阪市東淀川区,西淡路３丁目７番１７号ルマプティ２－Ａ号室,,27,114,5330031,,,,,,,2022-11-25,1,,,,,ゴフクショウ,0
952,4120001250512,新規,0,2022-11-25,2022-11-25,ＳＢＩデジタルハブ株式会社,,株式会社,大阪府,大阪市北区,中之島３丁目２番１８号,,27,127,5300005,,,,,,,2022-11-25,1,,,,,エスビーアイデジタルハブ,0
953,4120001250520,新規,0,2022-11-25,2022-11-25,中川株式会社,,株式会社,大阪府,大阪市中央区,松屋町９番２０号ローレルステート松屋町１１０７Ｂ,,27,128,5420067,,,,,,,2022-11-25,1,,,,,チュウセン,0
960,4120101066593,新規,0,2022-11-25,2022-11-25,株式会社ｓｔｏｒｉｅｓ,,株式会社,大阪府,堺市堺区,甲斐町東４丁３番１９号,,27,141,5900953,,,,,,,2022-11-25,1,,,,,ストーリーズ,0
963,4122001036429,新規,0,2022-11-25,2022-11-25,株式会社ＳＳＤ,,株式会社,大阪府,東大阪市,御厨５丁目１番１１号,,27,227,5770032,,,,,,,2022-11-25,1,,,,,エスエスディー,0
964,4122001036437,新規,0,2022-11-25,2022-11-25,株式会社シックスセンス,,株式会社,大阪府,八尾市,天王寺屋２丁目１３３番地の３ミレニアムニシムラ２０１号,,27,212,5810025,,,,,,,2022-11-25,1,,,,,シックスセンス,0
971,4130001073144,新規,0,2022-11-25,2022-11-25,株式会社ｍｎｙ　ｓｔｕｄｉｏ,,株式会社,京都府,京都市左京区,一乗寺赤ノ宮町７,,26,103,6068182,,,,,,,2022-11-25,1,,,,,マイスタジオ,0
972,4130001073160,新規,0,2022-11-25,2022-11-25,株式会社Ｒｅａｄｙ　ＯＮ,,株式会社,京都府,京都市下京区,七条通油小路東入大黒町２２７番地第２キョートビル４０２,,26,106,6008223,,,,,,,2022-11-25,1,,,,,レディーオン,0
981,4140003018402,新規,0,2022-11-25,2022-11-25,合同会社ろっこうの木,,合同会社,兵庫県,神戸市中央区,山本通１丁目７－２３北野ヒルズ２０４号,,28,110,6500003,,,,,,,2022-11-25,1,,,,,ロッコウノキ,0
991,4180001153916,新規,0,2022-11-25,2022-11-25,株式会社ｐｒｅｍｉｅｒ　ｐｒｉｎｔｅｍｐｓ,,株式会社,愛知県,東海市,荒尾町明倫１４３番地,,23,222,4760003,,,,,,,2022-11-25,1,,,,,プルミエプランタン,0
994,4180003024520,新規,0,2022-11-25,2022-11-25,合同会社ＭＫＹＬＡＢＯ,,合同会社,愛知県,名古屋市昭和区,白金１丁目１８－１１,,23,107,4660058,,,,,,,2022-11-25,1,,,,,エムケーワイラボ,0
1008,4290001099702,新規,0,2022-11-25,2022-11-25,株式会社末吉建設ホールディングス,,株式会社,福岡県,大牟田市,東新町１丁目５番地１,,40,202,8360806,,,,,,,2022-11-25,1,,,,,スエヨシケンセツホールディングス,0
1011,4290003013231,新規,0,2022-11-25,2022-11-25,合同会社リアン,,合同会社,福岡県,福岡市中央区,渡辺通４丁目１番１－１００６号ＲＪＲプレシア天神サウス,,40,133,8100004,,,,,,,2022-11-25,1,,,,,リアン,0
1012,4290803004272,新規,0,2022-11-25,2022-11-25,合同会社パレット,,合同会社,福岡県,北九州市小倉北区,大田町１４番５０－１０１号,,40,106,8020015,,,,,,,2022-11-25,1,,,,,パレット,0
1015,4320003003955,新規,0,2022-11-25,2022-11-25,合同会社純,,合同会社,大分県,日田市,大字高瀬８１３８番地３,,44,204,8770000,,,,,,,2022-11-25,1,,,,,ジュン,0
1018,4330003009605,新規,0,2022-11-25,2022-11-25,合同会社ＡＮＤ,,合同会社,熊本県,熊本市北区,清水本町３３－５０ロード本町２０９号室,,43,105,8618074,,,,,,,2022-11-25,1,,,,,アンド,0
1020,4330005010585,新規,0,2022-11-25,2022-11-25,労働者協同組合あるく,,その他の設立登記法人,熊本県,熊本市東区,秋津町秋田３４４５番地４３,,43,102,8612105,,,,,,,2022-11-25,1,,,,,アルク,0
1026,4340003003978,新規,0,2022-11-25,2022-11-25,合同会社ふちわきや,,合同会社,鹿児島県,鹿児島市,田上２丁目５番１号,,46,201,8900034,,,,,,,2022-11-25,1,,,,,フチワキヤ,0
1027,4350003004224,新規,0,2022-11-25,2022-11-25,合同会社ひなたファームサポート,,合同会社,宮崎県,西都市,大字右松２２２１番地１,,45,208,8810003,,,,,,,2022-11-25,1,,,,,ヒナタファームサポート,0
1030,4360001031228,新規,0,2022-11-25,2022-11-25,４４株式会社,,株式会社,沖縄県,沖縄市,中央１丁目１０－１６－１Ｆ,,47,211,9040004,,,,,,,2022-11-25,1,,,,,ヨンフォー,0
1031,4360001031244,新規,0,2022-11-25,2022-11-25,株式会社シーサイドクラフトジャパン,,株式会社,沖縄県,糸満市,字糸満９８９番地の３,,47,210,9010361,,,,,,,2022-11-25,1,,,,,シーサイドクラフトジャパン,0
1038,4410001013328,新規,0,2022-11-25,2022-11-25,株式会社ｓｏｏｐｏｉｎｔ,,株式会社,秋田県,鹿角郡小坂町,荒谷字上ノ平２７－１,,05,303,0170204,,,,,,,2022-11-25,1,,,,,ソウポイント,0
1041,4430001087923,新規,0,2022-11-25,2022-11-25,株式会社ＭＫ　ＴＲＡＤＩＮＧ,,株式会社,北海道,江別市,角山９２番地１２,,01,217,0670052,,,,,,,2022-11-25,1,,,,,エムケートレーニング,0
1042,4430003014487,新規,0,2022-11-25,2022-11-25,Ｂｏｎｈｅｕｒ合同会社,,合同会社,北海道,札幌市豊平区,豊平四条７丁目３番５－１２０３号,,01,105,0620904,,,,,,,2022-11-25,1,,,,,ボヌール,0
1043,4460003000930,新規,0,2022-11-25,2022-11-25,Ｈｏｋｋａｉｄｏ　Ｄｅｓｉｇｎ　ＰＭ合同会社,,合同会社,北海道,川上郡弟子屈町,字熊牛原野二十七線東１番地,,01,665,0883200,,,,,,,2022-11-25,1,,,,,ホッカイドウデザインピーエム,0
1044,4480003001893,新規,0,2022-11-25,2022-11-25,合同会社愛福,,合同会社,徳島県,板野郡板野町,西中富字菅生３６０番地９,,36,404,7790119,,,,,,,2022-11-25,1,,,,,アイフク,0
1046,4500001024613,新規,0,2022-11-25,2022-11-25,ＡＩＬＡ株式会社,,株式会社,愛媛県,松山市,千舟町５丁目３番地１７,,38,201,7900011,,,,,,,2022-11-25,1,,,,,アイラ,0
1047,4700150111489,新規,0,2022-11-25,2022-11-25,Ｃｈｅｎｇｄｕ　ｊｉａｂａｏｆｕ　ｄｉａｎｚｉ　ｓｈａｎｇｗｕ　ｙｏｕ　ｘｉａｎ　ｇｏｎｇ　ｓｉ,,外国会社等,,,,,,,,Ｈｏｎｇ　ｑｉ　ｄａ　ｄａｏ　１４６　ｈａｏ，ｈｏｎｇｊｉ　Ｙａ　ｊｕ　７　ｄｏｎｇ　１　ｄａｎ　ｙｕａｎ　１　ｌｏｕ－２０，ｄｅ　ｙｕａｎ　ｚｈｅｎ（ｊｉｎｇ　ｒｏｎｇ　ｚｈｅｎ）Ｃｈｅｎｇ　ｄｕ　ｓｈｉ　ｐｉ　ｄｕ　ｑｕ，Ｃｈｉｎａ,,,,,,2022-11-25,1,,,,,チェンドゥジァバォフディァンズシャンウーユウシィアンゴンスー,0
1061,5010005035829,新規,0,2022-11-25,2022-11-25,一般社団法人Ａ‐Ｌａｂｓ　ＪＰセキュリティ,,その他の設立登記法人,東京都,中央区,勝どき４丁目５番８－４９１１,,13,102,1040054,,,,,,,2022-11-25,1,,,,,エーラボジェイピーセキュリティ,0
1069,5010401170972,新規,0,2022-11-25,2022-11-25,Ｔｏｍ　Ｗｏｏｄ　Ｊａｐａｎ株式会社,,株式会社,東京都,港区,元麻布３丁目１番６号,,13,103,1060046,,,,,,,2022-11-25,1,,,,,トムウッドジャパン,0
1070,5010401170997,新規,0,2022-11-25,2022-11-25,株式会社ヲタバースＤＡＯ,,株式会社,東京都,港区,芝浦４丁目２２番１号芝浦アイランドエアタワー２２０１号,,13,103,1080023,,,,,,,2022-11-25,1,,,,,ヲタバースダオ,0
1071,5010401171054,新規,0,2022-11-25,2022-11-25,京虹株式会社,,株式会社,東京都,港区,南青山４丁目１７番１３号１０９,,13,103,1070062,,,,,,,2022-11-25,1,,,,,キョウコウ,0
1078,5010501049670,新規,0,2022-11-25,2022-11-25,株式会社セリングカンパニー,,株式会社,東京都,台東区,台東１丁目３０番３号,,13,106,1100016,,,,,,,2022-11-25,1,,,,,セリングカンパニー,0
1080,5010503006793,新規,0,2022-11-25,2022-11-25,合同会社Ａｄｄ　Ｌｉｆｅ　Ｆａｒｍ,,合同会社,東京都,台東区,入谷２丁目３９番２－９０１号ディームス入谷ＩＩ,00128572,13,106,1100013,,,,,,,2022-11-25,1,,,,,アドライフファーム,0
1084,5010703006486,新規,0,2022-11-25,2022-11-25,合同会社ＧＣ,,合同会社,東京都,品川区,北品川４丁目４番１４号,,13,109,1400001,,,,,,,2022-11-25,1,,,,,ジーシー,0
1088,5010903007805,新規,0,2022-11-25,2022-11-25,ｔｈｅ　ａｎｃｈｏｒ合同会社,,合同会社,東京都,世田谷区,玉川３丁目２０番２号マノア玉川第３ビル５０１号室,,13,112,1580094,,,,,,,2022-11-25,1,,,,,,0
1095,5011101100947,新規,0,2022-11-25,2022-11-25,株式会社ＮＥＷＡＲＥ,,株式会社,東京都,新宿区,西新宿８丁目１番２号ＰＭＯ西新宿４階,,13,104,1600023,,,,,,,2022-11-25,1,,,,,ニューウェア,0
1098,5011103012422,新規,0,2022-11-25,2022-11-25,ＬＩＴホールディングス合同会社,,合同会社,東京都,新宿区,四谷１丁目６番１号,,13,104,1600004,,,,,,,2022-11-25,1,,,,,エルアイティーホールディングス,0
1102,5011401024722,新規,0,2022-11-25,2022-11-25,株式会社Ｎ２,,株式会社,東京都,板橋区,加賀１丁目２１番１号プラウドシティ加賀学園通り７０１,,13,119,1730003,,,,,,,2022-11-25,1,,,,,エヌツー,0
1104,5011601026394,新規,0,2022-11-25,2022-11-25,株式会社リテラス,,株式会社,東京都,練馬区,北町２丁目４１番５号,,13,120,1790081,,,,,,,2022-11-25,1,,,,,リテラス,0
1107,5011701025809,新規,0,2022-11-25,2022-11-25,株式会社Ｒｏｃｋｅｔ　Ｋｎｉｇｈｔ,,株式会社,東京都,江戸川区,鹿骨６丁目４番２０号１Ｆ,,13,123,1330073,,,,,,,2022-11-25,1,,,,,ロケットナイト,0
1110,5011801041598,新規,0,2022-11-25,2022-11-25,株式会社ＩＤＥＯＮ,,株式会社,東京都,足立区,西綾瀬３丁目２１番２３号,,13,121,1200014,,,,,,,2022-11-25,1,,,,,イデオン,0
1111,5012701017366,新規,0,2022-11-25,2022-11-25,株式会社シェコリン,,株式会社,東京都,小平市,学園西町２丁目１０番１９号,,13,211,1870045,,,,,,,2022-11-25,1,,,,,シェコリン,0
1113,5012801021986,新規,0,2022-11-25,2022-11-25,十三株式会社,,株式会社,東京都,立川市,柏町４丁目２４番地の１９,,13,202,1900004,,,,,,,2022-11-25,1,,,,,ジュウサン,0
1124,5021001077509,新規,0,2022-11-25,2022-11-25,株式会社厚木県央エージェンシー,,株式会社,神奈川県,厚木市,旭町３丁目１－１３－２０９,,14,212,2430014,,,,,,,2022-11-25,1,,,,,アツギケンオウエージェンシー,0
1139,5030001151140,新規,0,2022-11-25,2022-11-25,株式会社ＣＯＥＤＯ９,,株式会社,埼玉県,越谷市,大字大房１０９３番地８,,11,222,3430027,,,,,,,2022-11-25,1,,,,,コエドナイン,0
1140,5030001151181,新規,0,2022-11-25,2022-11-25,株式会社ＭＡＥＤＡ　ＡＵＴＯ,,株式会社,埼玉県,八潮市,大字鶴ケ曽根１２１１番地４,,11,234,3400802,,,,,,,2022-11-25,1,,,,,マエダオート,0
1144,5030003020624,新規,0,2022-11-25,2022-11-25,合同会社アトリエタケヒロ,,合同会社,埼玉県,戸田市,笹目２丁目５番地の２１,,11,224,3350034,,,,,,,2022-11-25,1,,,,,アトリエタケヒロ,0
1145,5030003020640,新規,0,2022-11-25,2022-11-25,合同会社ｉｄｅａｌ,,合同会社,埼玉県,川口市,鳩ヶ谷本町３丁目３３番２号,,11,203,3340002,,,,,,,2022-11-25,1,,,,,アイディール,0
1148,5030005021075,新規,0,2022-11-25,2022-11-25,一般社団法人ＦＣプエンテット,,その他の設立登記法人,埼玉県,越谷市,レイクタウン７丁目８番地７,,11,222,3430828,,,,,,,2022-11-25,1,,,,,エフシープエンテット,0
1163,5050001051999,新規,0,2022-11-25,2022-11-25,株式会社紡木家,,株式会社,茨城県,水戸市,元吉田町２６４９番地の３７,,08,201,3100836,,,,,,,2022-11-25,1,,,,,ツムギヤ,0
1164,5050001052007,新規,0,2022-11-25,2022-11-25,株式会社ジョイプライド,,株式会社,茨城県,ひたちなか市,新光町３８番地,,08,221,3120005,,,,,,,2022-11-25,1,,,,,ジョイプライド,0
1170,5050003007000,新規,0,2022-11-25,2022-11-25,ハンター合同会社,,合同会社,茨城県,取手市,白山８丁目４番２８号,,08,217,3020023,,,,,,,2022-11-25,1,,,,,ハンター,0
1171,5050003007041,新規,0,2022-11-25,2022-11-25,合同会社ジェイウェイ工業,,合同会社,茨城県,かすみがうら市,牛渡６０５７番地３,,08,230,3000213,,,,,,,2022-11-25,1,,,,,ジェイウェイコウギョウ,0
1176,5070001039860,新規,0,2022-11-25,2022-11-25,株式会社洋加舎,,株式会社,群馬県,高崎市,下之城町１０４０番地２,,10,202,3700854,,,,,,,2022-11-25,1,,,,,ヨウカシャ,0
1179,5080101023656,新規,0,2022-11-25,2022-11-25,的場電気工業株式会社,,株式会社,静岡県,富士市,今泉１６９４番地の３,,22,210,4170001,,,,,,,2022-11-25,1,,,,,マトバデンキコウギョウ,0
1181,5080103002690,新規,0,2022-11-25,2022-11-25,合同会社プロス,,合同会社,静岡県,沼津市,末広町１２３番地プレステージ末広２０４,,22,203,4100888,,,,,,,2022-11-25,1,,,,,プロス,0
1183,5080401026169,新規,0,2022-11-25,2022-11-25,ｍ‐ｔｅｃｈ‐ｋ株式会社,,株式会社,静岡県,磐田市,豊岡１０７３番地３,,22,211,4380231,,,,,,,2022-11-25,1,,,,,エムテックケイ,0
1184,5080401026177,新規,0,2022-11-25,2022-11-25,株式会社ｐａｔｅ．ｔｏ,,株式会社,静岡県,浜松市西区,雄踏町宇布見４８６３番地の１５２,,22,133,4310102,,,,,,,2022-11-25,1,,,,,パテト,0
1186,5090001017864,新規,0,2022-11-25,2022-11-25,株式会社シャトレーゼファーム,,株式会社,山梨県,中央市,高部１１１１番地１,,19,214,4001515,,,,,,,2022-11-25,1,,,,,,0
1190,5100003006789,新規,0,2022-11-25,2022-11-25,さとまる合同会社,,合同会社,長野県,下伊那郡阿智村,駒場１０８５番地１０,,20,407,3950303,,,,,,,2022-11-25,1,,,,,サトマル,0
1195,5110003004924,新規,0,2022-11-25,2022-11-25,合同会社ニノン,,合同会社,新潟県,新潟市秋葉区,中野４丁目１１番２５号,,15,105,9560805,,,,,,,2022-11-25,1,,,,,ニノン,0
1203,5120001250503,新規,0,2022-11-25,2022-11-25,株式会社Ｓ‐ｖｉｓｉｏｎ,,株式会社,大阪府,大阪市住吉区,遠里小野５丁目２３番２４－９０２号,,27,120,5580032,,,,,,,2022-11-25,1,,,,,エスビジョン,0
1204,5120001250511,新規,0,2022-11-25,2022-11-25,株式会社エンカレッジハート,,株式会社,大阪府,大阪市北区,梅田１丁目１番３大阪駅前第３ビル２９階１－１－１号室,,27,127,5300001,,,,,,,2022-11-25,1,,,,,エンカレッジハート,0
1205,5120001250528,新規,0,2022-11-25,2022-11-25,株式会社アルペックスハイユニット,,株式会社,大阪府,大阪市浪速区,日本橋５丁目９番１９号,,27,111,5560005,,,,,,,2022-11-25,1,,,,,アルペックスハイユニット,0
1208,5120003022900,新規,0,2022-11-25,2022-11-25,ＳＡＨＯ合同会社,,合同会社,大阪府,大阪市東住吉区,杭全８丁目８番１４－４０２号,,27,121,5460002,,,,,,,2022-11-25,1,,,,,サホ,0
1209,5120003022933,新規,0,2022-11-25,2022-11-25,９Ｘ合同会社,,合同会社,大阪府,大阪市中央区,東心斎橋２丁目５番３号６１０号,,27,128,5420083,,,,,,,2022-11-25,1,,,,,キューエックス,0
1210,5120003022941,新規,0,2022-11-25,2022-11-25,合同会社みんなのえがお,,合同会社,大阪府,守口市,大日東町４－ｄ－２８０７,,27,209,5700016,,,,,,,2022-11-25,1,,,,,ミンナノエガオ,0
1215,5120101066592,新規,0,2022-11-25,2022-11-25,株式会社ＷＥＳＴ,,株式会社,大阪府,堺市堺区,遠里小野町２丁１－１－０３,,27,141,5900001,,,,,,,2022-11-25,1,,,,,ウエスト,0
1222,5130001073143,新規,0,2022-11-25,2022-11-25,株式会社ＥＡＩ,,株式会社,京都府,京都市左京区,岩倉幡枝町６６５番地５８,,26,103,6060015,,,,,,,2022-11-25,1,,,,,イーエイアイ,0
1225,5130003008337,新規,0,2022-11-25,2022-11-25,合同会社ＥＮＥソーラー３号,,合同会社,京都府,八幡市,欽明台西８番地３,,26,210,6148297,,,,,,,2022-11-25,1,,,,,エネソーラーサンゴウ,0
1233,5150001025976,新規,0,2022-11-25,2022-11-25,ロクスオール株式会社,,株式会社,奈良県,北葛城郡広陵町,大字南郷８６０番地８,,29,426,6350814,,,,,,,2022-11-25,1,,,,,ロクスオール,0
1238,5180001153923,新規,0,2022-11-25,2022-11-25,Ｙ・Ｔ株式会社,,株式会社,愛知県,春日井市,出川町２丁目９番地１３,,23,206,4870025,,,,,,,2022-11-25,1,,,,,ワイティー,0
1251,5230003001934,新規,0,2022-11-25,2022-11-25,ＧＯＫＩＧＥＮ合同会社,,合同会社,富山県,高岡市,石瀬６８番地６,,16,202,9330011,,,,,,,2022-11-25,1,,,,,ゴキゲン,0
1252,5240001060691,新規,0,2022-11-25,2022-11-25,株式会社いこる,,株式会社,広島県,廿日市市,駅前５番３号,,34,213,7380011,,,,,,,2022-11-25,1,,,,,イコル,0
1259,5260001037440,新規,0,2022-11-25,2022-11-25,株式会社ｅｍｐｉｒｅ,,株式会社,岡山県,倉敷市,高須賀２３６番地３,,33,202,7100021,,,,,,,2022-11-25,1,,,,,エンパイア,0
1269,5290001099684,新規,0,2022-11-25,2022-11-25,株式会社ＳＯＬＵＡ,,株式会社,福岡県,福岡市東区,箱崎４丁目２８番１９－３号,,40,131,8120053,,,,,,,2022-11-25,1,,,,,ソルア,0
1273,5290003013197,新規,0,2022-11-25,2022-11-25,合同会社雫院,,合同会社,福岡県,宗像市,日の里１丁目２７番地Ｂ号,,40,220,8113425,,,,,,,2022-11-25,1,,,,,シズクイン,0
1277,5310001018138,新規,0,2022-11-25,2022-11-25,株式会社ＭＡＳＵＤＡ　ＰＬＵＳ,,株式会社,長崎県,長崎市,音無町９番５８号,,42,201,8528044,,,,,,,2022-11-25,1,,,,,マスダプラス,0
1282,5320003003954,新規,0,2022-11-25,2022-11-25,合同会社光,,合同会社,大分県,日田市,大字高瀬８１３８番地３,,44,204,8770000,,,,,,,2022-11-25,1,,,,,ヒカリ,0
1283,5330001030330,新規,0,2022-11-25,2022-11-25,株式会社ネクスティ,,株式会社,熊本県,熊本市南区,良町３丁目３番２５号,,43,104,8620969,,,,,,,2022-11-25,1,,,,,ネクスティ,0
1284,5330003009595,新規,0,2022-11-25,2022-11-25,合同会社スカイエステート,,合同会社,熊本県,菊池郡大津町,大字高尾野５番地２,,43,403,8691232,,,,,,,2022-11-25,1,,,,,スカイエステート,0
1285,5330003009604,新規,0,2022-11-25,2022-11-25,合同会社エムテック,,合同会社,熊本県,菊池郡大津町,美咲野１丁目６番５号,,43,403,8691237,,,,,,,2022-11-25,1,,,,,エムテック,0
1289,5340001025189,新規,0,2022-11-25,2022-11-25,株式会社共商,,株式会社,鹿児島県,奄美市,名瀬大字仲勝２９９番地２３サザンハイツＢ１０３,,46,222,8940003,,,,,,,2022-11-25,1,,,,,キョウショウ,0
1292,5340005009527,新規,0,2022-11-25,2022-11-25,特定非営利活動法人ゆわわ,,その他の設立登記法人,鹿児島県,霧島市,国分清水３丁目３番１１号シティハイム清水２０１,,46,218,8994304,,,,,,,2022-11-25,1,,,,,ユワワ,0
1293,5350005006119,新規,0,2022-11-25,2022-11-25,一般社団法人ＵＰＬＩＮＫ,,その他の設立登記法人,宮崎県,宮崎市,大字生目４５２８,,45,201,8802103,,,,,,,2022-11-25,1,,,,,アップリンク,0
1302,5380001033287,新規,0,2022-11-25,2022-11-25,株式会社シナジー,,株式会社,福島県,伊達市,保原町字三丁目８番地１スリーエイトビル３０１,,07,213,9600626,,,,,,,2022-11-25,1,,,,,シナジー,0
1307,5430001087922,新規,0,2022-11-25,2022-11-25,株式会社トア,,株式会社,北海道,札幌市西区,西野一条３丁目２番１０号,,01,107,0630031,,,,,,,2022-11-25,1,,,,,トア,0
1308,5430001087939,新規,0,2022-11-25,2022-11-25,株式会社日の出屋北海道,,株式会社,北海道,札幌市豊平区,豊平四条１１丁目２番１３号,,01,105,0620904,,,,,,,2022-11-25,1,,,,,ヒノデヤホッカイドウ,0
1309,5430003014486,新規,0,2022-11-25,2022-11-25,合同会社Ｈａｌｌｗｏｏｄ,,合同会社,北海道,札幌市手稲区,西宮の沢二条４丁目３－１２,,01,109,0060002,,,,,,,2022-11-25,1,,,,,ホールウッド,0
1310,5430003014494,新規,0,2022-11-25,2022-11-25,合同会社Ｏｒｉ,,合同会社,北海道,札幌市中央区,南一条西２１丁目３－１７ｉｂｉｚａ円山５０２,,01,101,0640801,,,,,,,2022-11-25,1,,,,,オーリ,0
1313,5480001011935,新規,0,2022-11-25,2022-11-25,株式会社五十音,,株式会社,徳島県,鳴門市,撫養町黒崎字松島３９２番地,,36,202,7720001,,,,,,,2022-11-25,1,,,,,ゴジュウオン,0
1320,5700150111744,新規,0,2022-11-25,2022-11-25,ｗｕｃｈｕａｎｓｈｉｓｈｅｎｇｊｉｎｄｉａｎｚｉｓｈａｎｇｗｕｙｏｕｘｉａｎｚｅｒｅｎｇｏｎｇｓｉ,,外国会社等,,,,,,,,ｃｈａｎｇ　ｓｈｏｕ　ｌｕ　１７ｈａｏ，ｘｉｎ　ｈｕａ　ｙｕａｎ　１　ｚｈｕａｎｇ　４０２　ｆａｎｇ，ｍｅｉ　ｌｕ　ｊｉｅ　ｄａｏ，ｗｕ　ｃｈｕａｎ　ｓｈｉ，Ｃｈｉｎａ,,,,,,2022-11-25,1,,,,,ウーチゥアンシシンキンデンシショウムユウシィアンゼーニンゴンスー,0
1321,5700150112189,新規,0,2022-11-25,2022-11-25,Ｇｕａｎｇｚｈｏｕ　Ｇｅｎｉｘｇｒｅｅｎ　Ｔｅｃｈｎｏｌｏｇｙ　Ｃｏ．，Ｌｔｄ,,外国会社等,,,,,,,,Ｇｕａｎｇｚｈｏｕｓｈｉ　Ｈｕａｄｕ，Ｌｏｎｇｚｈｕ　Ｒｏａｄ，Ｘｉｎｈｕａ，Ｓｔｒｅｅｔ，Ｒｏｏｍ　０３，７ｔｈ　Ｆｌｏｏｒ，６ｔｈ　ｔｏ　１７ｔｈ　Ｆｌｏｏｒ，Ａｒｅａ　Ａ，Ｐｈｏｅｎｉｘ　Ｐｌａｚａ，Ｇｕａｎｇｚｈｏｕ　Ｇｕａｎｇｄｏｎｇ，Ｃｈｉｎａ　５１０８８０,,,,,,2022-11-25,1,,,,,コウシュウゲニクスグリーンテクノロジーユウシィアンゴンスー,0
1329,6010001231026,新規,0,2022-11-25,2022-11-25,株式会社ＫＳＦＲ４,,株式会社,東京都,千代田区,内幸町２丁目１番６号,,13,101,1000011,,,,,,,2022-11-25,1,,,,,ケイエスエフアールフォー,0
1330,6010001231075,新規,0,2022-11-25,2022-11-25,新未株式会社,,株式会社,東京都,中央区,新富１丁目１１番７号ミツヤ第３ビル５Ｆ,,13,102,1040041,,,,,,,2022-11-25,1,,,,,シンミ,0
1331,6010001231083,新規,0,2022-11-25,2022-11-25,株式会社祥硫,,株式会社,東京都,中央区,銀座２丁目３番１９号銀座深田ビル５階,,13,102,1040061,,,,,,,2022-11-25,1,,,,,ショウリュウ,0
1339,6010503006792,新規,0,2022-11-25,2022-11-25,ｔａｇｉｒｉ合同会社,,合同会社,東京都,台東区,東上野３丁目２１番２号,,13,106,1100015,,,,,,,2022-11-25,1,,,,,タギリ,0
1340,6010801033456,新規,0,2022-11-25,2022-11-25,株式会社ＧＡＫＵ,,株式会社,東京都,大田区,仲六郷２丁目２７番５号シティプレイス雑色３０３号室,,13,111,1440055,,,,,,,2022-11-25,1,,,,,ガク,0
1343,6010903007804,新規,0,2022-11-25,2022-11-25,パロル合同会社,,合同会社,東京都,世田谷区,豪徳寺１丁目１１番３号,,13,112,1540021,,,,,,,2022-11-25,1,,,,,,0
1352,6011001151148,新規,0,2022-11-25,2022-11-25,株式会社ＳＬＯＷ．ｗａｖｅ,,株式会社,東京都,目黒区,駒場１丁目３３番８号ハイツモリヤ４Ｆ,,13,110,1530041,,,,,,,2022-11-25,1,,,,,スロウウェーブ,0
1363,6011101100938,新規,0,2022-11-25,2022-11-25,株式会社ＣＨＵＰＥＴＥＲＩＡ,,株式会社,東京都,新宿区,北新宿３丁目４０番１０号,,13,104,1690074,,,,,,,2022-11-25,1,,,,,チュペテリア,0
1368,6011401024721,新規,0,2022-11-25,2022-11-25,株式会社富士プランナー,,株式会社,東京都,板橋区,徳丸６丁目７番１８号,,13,119,1750083,,,,,,,2022-11-25,1,,,,,フジプランナー,0
1382,6013103001189,新規,0,2022-11-25,2022-11-25,ＨＡＶＡ合同会社,,合同会社,東京都,福生市,本町８５番地１根岸ビル１０２号,,13,218,1970022,,,,,,,2022-11-25,1,,,,,ハバ,0
1386,6013301049971,新規,0,2022-11-25,2022-11-25,株式会社三喜,,株式会社,東京都,豊島区,南池袋１丁目１６番２０号ぬかりやビル６１７,,13,116,1710022,,,,,,,2022-11-25,1,,,,,サンキ,0
1387,6013301049988,新規,0,2022-11-25,2022-11-25,子午線株式会社,,株式会社,東京都,豊島区,高田３丁目５－５－４０３号,,13,116,1710033,,,,,,,2022-11-25,1,,,,,シゴセン,0
1389,6020001149127,新規,0,2022-11-25,2022-11-25,ＩｎＦｉｎｉＴｅｃｈ株式会社,,株式会社,神奈川県,川崎市宮前区,有馬２丁目１１番１９－４０５号ライオンズマンション鷺沼東,,14,136,2160003,,,,,,,2022-11-25,1,,,,,インフィニテック,0
1390,6020001149135,新規,0,2022-11-25,2022-11-25,株式会社ＦＯＪ,,株式会社,神奈川県,川崎市宮前区,西野川２丁目３５番１号,,14,136,2160044,,,,,,,2022-11-25,1,,,,,エフオージェイ,0
1412,6030001151156,新規,0,2022-11-25,2022-11-25,株式会社ハピスマ,,株式会社,埼玉県,川口市,赤井１丁目２８番３３号,,11,203,3340073,,,,,,,2022-11-25,1,,,,,ハピスマ,0
1413,6030001151180,新規,0,2022-11-25,2022-11-25,株式会社エムズ,,株式会社,埼玉県,越谷市,赤山町５丁目８番３３号,,11,222,3430807,,,,,,,2022-11-25,1,,,,,エムズ,0
1414,6030001151197,新規,0,2022-11-25,2022-11-25,株式会社横嶋メンテナンスサービス,,株式会社,埼玉県,熊谷市,三ヶ尻１５３０番地,,11,202,3600843,,,,,,,2022-11-25,1,,,,,ヨコシマメンテナンスサービス,0
1430,6050003007032,新規,0,2022-11-25,2022-11-25,合同会社ＭＩＳＨＡＬ　ＴＲＡＤＩＮＧ,,合同会社,茨城県,つくば市,上里字仲田山９１２－１（１号棟）,,08,220,3002614,,,,,,,2022-11-25,1,,,,,ミシャルトレーディング,0
1433,6060003004318,新規,0,2022-11-25,2022-11-25,ＭＩＳＴＥＲ　ＲＯ合同会社,,合同会社,栃木県,足利市,田中町９０５番地１１,,09,202,3260822,,,,,,,2022-11-25,1,,,,,ミスターロ,0
1439,6080001025314,新規,0,2022-11-25,2022-11-25,株式会社ＩＭＯ,,株式会社,静岡県,静岡市清水区,高橋５丁目２番３－２号,,22,103,4240041,,,,,,,2022-11-25,1,,,,,アイエムオー,0
1442,6080401026168,新規,0,2022-11-25,2022-11-25,株式会社クギヅケ,,株式会社,静岡県,掛川市,長谷３丁目８番地の１９ピアンカーザ２０３号,,22,213,4360047,,,,,,,2022-11-25,1,,,,,クギヅケ,0
1443,6080401026176,新規,0,2022-11-25,2022-11-25,株式会社アリーインテリア,,株式会社,静岡県,浜松市東区,丸塚町５３３番地の７,,22,132,4350046,,,,,,,2022-11-25,1,,,,,アリーインテリア,0
1446,6090003002203,新規,0,2022-11-25,2022-11-25,合同会社Ｃｍｍ,,合同会社,山梨県,甲斐市,西八幡１９７０久持良ハイツＡ１０１,,19,210,4000117,,,,,,,2022-11-25,1,,,,,シーエムエム,0
1449,6110001037132,新規,0,2022-11-25,2022-11-25,株式会社Ｒ５ｃ,,株式会社,新潟県,五泉市,東本町２丁目４番１６号小池ビル,,15,218,9591863,,,,,,,2022-11-25,1,,,,,アールゴシー,0
1453,6110003004923,新規,0,2022-11-25,2022-11-25,合同会社ｓｉｇｎ,,合同会社,新潟県,阿賀野市,安野町１１－７,,15,223,9592003,,,,,,,2022-11-25,1,,,,,サイン,0
1458,6120001250527,新規,0,2022-11-25,2022-11-25,株式会社正光,,株式会社,大阪府,大阪市生野区,鶴橋４丁目９番１５号,,27,116,5440031,,,,,,,2022-11-25,1,,,,,セイコウ,0
1460,6120003022924,新規,0,2022-11-25,2022-11-25,合同会社Ｆｌａｐ,,合同会社,大阪府,大阪市中央区,島之内１丁目２番１８ビラアツミ２０３号,,27,128,5420082,,,,,,,2022-11-25,1,,,,,フラップ,0
1461,6120003022932,新規,0,2022-11-25,2022-11-25,ＪＳＤＧｓ合同会社,,合同会社,大阪府,大阪市浪速区,幸町１丁目２番９号,,27,111,5560021,,,,,,,2022-11-25,1,,,,,ジェイエスディージーズ,0
1463,6120101066575,新規,0,2022-11-25,2022-11-25,株式会社勝健,,株式会社,大阪府,松原市,天美南２丁目８９番地７,,27,217,5800033,,,,,,,2022-11-25,1,,,,,ショウケン,0
1467,6120103004938,新規,0,2022-11-25,2022-11-25,合同会社ティーエム,,合同会社,大阪府,堺市堺区,中之町東４丁２番２０号,,27,141,5900956,,,,,,,2022-11-25,1,,,,,ティーエム,0
1472,6120901046784,新規,0,2022-11-25,2022-11-25,株式会社ドリーム＆ホープ,,株式会社,大阪府,箕面市,箕面６丁目３番１号みのおサンプラザ１号館,,27,220,5620001,,,,,,,2022-11-25,1,,,,,ドリームアンドホープ,0
1476,6122001036435,新規,0,2022-11-25,2022-11-25,株式会社ＴＳＡＣＥ,,株式会社,大阪府,東大阪市,菱屋東２丁目１番２４号,,27,227,5780948,,,,,,,2022-11-25,1,,,,,ティーエスエース,0
1481,6130001073142,新規,0,2022-11-25,2022-11-25,Ｌｅｇａｒｅａ株式会社,,株式会社,京都府,京都市中京区,丸太町通新町西入大炊町１８５番２号,,26,104,6040092,,,,,,,2022-11-25,1,,,,,レガリア,0
1483,6130003008336,新規,0,2022-11-25,2022-11-25,京都駅東南部エリアプロジェクト１合同会社,,合同会社,京都府,京都市中京区,河原町通御池下る下丸屋町３９０－２ＱＵＥＳＴＩＯＮ内,,26,104,6048006,,,,,,,2022-11-25,1,,,,,キョウトエキトウナンブエリアプロジェクトワン,0
1485,6140003018400,新規,0,2022-11-25,2022-11-25,合同会社オリジナル企画,,合同会社,兵庫県,神戸市兵庫区,西上橘通１丁目１－２１,,28,105,6520033,,,,,,,2022-11-25,1,,,,,オリジナルキカク,0
1487,6140005026384,新規,0,2022-11-25,2022-11-25,一般社団法人日本音楽家機能解剖学指導者協会,,その他の設立登記法人,兵庫県,神戸市北区,幸陽町３丁目７番地の３,,28,109,6511203,,,,,,,2022-11-25,1,,,,,ニホンオンガクカキノウカイボウガクシドウシャキョウカイ,0
1490,6160001024662,新規,0,2022-11-25,2022-11-25,株式会社新日本会計,,株式会社,滋賀県,大津市,仰木の里東１丁目５番１０号,,25,201,5200248,,,,,,,2022-11-25,1,,,,,シンニホンカイケイ,0
1503,6240001060699,新規,0,2022-11-25,2022-11-25,株式会社Ｆ　Ｃｏｎｔｉｎｕｅｓ,,株式会社,広島県,広島市安芸区,矢野西２丁目２番２２号,,34,107,7360085,,,,,,,2022-11-25,1,,,,,エフコンティニューズ,0
1515,6290001099667,新規,0,2022-11-25,2022-11-25,株式会社ファニーズ,,株式会社,福岡県,福岡市中央区,天神４丁目９番１０号第２正友ビル５Ｆ,,40,133,8100001,,,,,,,2022-11-25,1,,,,,ファニーズ,0
1516,6290001099683,新規,0,2022-11-25,2022-11-25,採用商店株式会社,,株式会社,福岡県,福岡市中央区,舞鶴３丁目２－５アイビル３１２号,,40,133,8100073,,,,,,,2022-11-25,1,,,,,サイヨウショウテン,0
1517,6290001099700,新規,0,2022-11-25,2022-11-25,株式会社Ｍ２,,株式会社,福岡県,福岡市博多区,中洲３丁目５番６号三信ビル４階,,40,132,8100801,,,,,,,2022-11-25,1,,,,,エムツー,0
1519,6290003013238,新規,0,2022-11-25,2022-11-25,ＨＣＬＩ．ａｆｔジャパン合同会社,,合同会社,福岡県,福岡市中央区,渡辺通５丁目１０－１モアフィールド天神南６０３号,,40,133,8100004,,,,,,,2022-11-25,1,,,,,エイチシーエルアイアフトジャパン,0
1520,6290005018862,新規,0,2022-11-25,2022-11-25,一般社団法人アジアのみらい研究所,,その他の設立登記法人,福岡県,福岡市西区,今宿１丁目８番４号,,40,135,8190167,,,,,,,2022-11-25,1,,,,,アジアノミライケンキュウショ,0
1530,6350001018050,新規,0,2022-11-25,2022-11-25,株式会社椎葉,,株式会社,宮崎県,宮崎市,福島町寺山３１４７番地８８,,45,201,8800945,,,,,,,2022-11-25,1,,,,,シイバ,0
1533,6360001031250,新規,0,2022-11-25,2022-11-25,石垣ディスティラリー株式会社,,株式会社,沖縄県,石垣市,字新川１６２番地３,,47,207,9070024,,,,,,,2022-11-25,1,,,,,イシガキディスティラリー,0
1545,6430003014493,新規,0,2022-11-25,2022-11-25,合同会社ハアト,,合同会社,北海道,札幌市厚別区,上野幌二条２丁目８番２０号,,01,108,0040032,,,,,,,2022-11-25,1,,,,,ハアト,0
1548,6450003002273,新規,0,2022-11-25,2022-11-25,合同会社ＣＡＴＡＬＰＡ,,合同会社,北海道,旭川市,末広東一条７丁目９番１８号,,01,204,0718121,,,,,,,2022-11-25,1,,,,,カタルパ,0
1549,6460003000929,新規,0,2022-11-25,2022-11-25,ＩＫ　ＴＲＡＤＩＮＧ合同会社,,合同会社,北海道,釧路市,大楽毛４丁目３番１４号,,01,206,0840917,,,,,,,2022-11-25,1,,,,,アイケートレーディング,0
1562,6700150110943,新規,0,2022-11-25,2022-11-25,Ｊｉｎｈｕａ　Ｄｏｎｇｗｅｉ　Ｉｎｆｏｒｍａｔｉｏｎ　Ｔｅｃｈｎｏｌｏｇｙ　Ｃｏ．，Ｌｔｄ,,外国会社等,,,,,,,,１－２０４，Ｊｉｎｆａｈａｏｙｕａｎ　Ｙｕｎｘｉａｎｇ　Ｂｕｉｌｄｉｎｇ，Ｎｏ．５５５　Ｄｏｎｇｙａｎｇ　Ｓｔｒｅｅｔ，Ｊｉｎｈｕａ　Ｚｈｅｊｉａｎｇ，Ｃｈｉｎａ,,,,,,2022-11-25,1,,,,,ジンフアドンウェーインフォメーションテクノロジー,0
1574,7010001231116,新規,0,2022-11-25,2022-11-25,Ａ‐Ｌａｂｓ　ＪＰセキュリティ１号株式会社,,株式会社,東京都,中央区,勝どき４丁目５番８－４９１１,,13,102,1040054,,,,,,,2022-11-25,1,,,,,エーラボジェイピーセキュリティイチゴウ,0
1577,7010103002035,新規,0,2022-11-25,2022-11-25,合同会社ＭＥＤＩＡ　ＨＡＣＫ,,合同会社,東京都,八王子市,別所１丁目４２番地１、１－９０３,,13,201,1920363,,,,,,,2022-11-25,1,,,,,メディアハック,0
1579,7010401171003,新規,0,2022-11-25,2022-11-25,株式会社絵一,,株式会社,東京都,港区,六本木４丁目５番８号,,13,103,1060032,,,,,,,2022-11-25,1,,,,,エイチ,0
1582,7010403028977,新規,0,2022-11-25,2022-11-25,ＬＩＢＲＥ合同会社,,合同会社,東京都,港区,芝５丁目３６番４号札の辻スクエア９階,,13,103,1080014,,,,,,,2022-11-25,1,,,,,リブレ,0
1588,7010701043505,新規,0,2022-11-25,2022-11-25,ブルーバードキャピタル株式会社,,株式会社,東京都,品川区,西五反田３丁目１０番１８－８１１号,,13,109,1410031,,,,,,,2022-11-25,1,,,,,ブルーバードキャピタル,0
1593,7010901052017,新規,0,2022-11-25,2022-11-25,株式会社ＧｒａｎＳｆｉｄａ,,株式会社,東京都,世田谷区,玉川田園調布１丁目７番５号,,13,112,1580085,,,,,,,2022-11-25,1,,,,,グランスフィーダ,0
1595,7010903007803,新規,0,2022-11-25,2022-11-25,合同会社Ｕｎｓｔａｂｌｅ,,合同会社,東京都,世田谷区,代田２丁目１７番１２号２０２,,13,112,1550033,,,,,,,2022-11-25,1,,,,,アンステイブル,0
1603,7011001151155,新規,0,2022-11-25,2022-11-25,株式会社ＮＬｉｎｅ,,株式会社,東京都,渋谷区,桜丘町１６番８号ａｔｌａｓ桜丘ビル１０１,,13,113,1500031,,,,,,,2022-11-25,1,,,,,エヌライン,0
1606,7011003015795,新規,0,2022-11-25,2022-11-25,マーニジャパン合同会社,,合同会社,東京都,目黒区,下目黒２丁目５番４－２０６号,,13,110,1530064,,,,,,,2022-11-25,1,,,,,マーニジャパン,0
1617,7011405002227,新規,0,2022-11-25,2022-11-25,一般社団法人リアン,,その他の設立登記法人,東京都,板橋区,大山東町１０番６号斎藤ビル２０２号,,13,119,1730014,,,,,,,2022-11-25,1,,,,,リアン,0
1623,7011801041596,新規,0,2022-11-25,2022-11-25,ＪＧＤＴ　ＪＡＰＡＮ株式会社,,株式会社,東京都,葛飾区,東新小岩５丁目１４番１６号新小岩ハイツ１０５室,,13,122,1240023,,,,,,,2022-11-25,1,,,,,ジェイジーディティージャパン,0
1625,7011803005392,新規,0,2022-11-25,2022-11-25,合同会社ＮＡＫＡＭＵＲＡ,,合同会社,東京都,葛飾区,東金町２丁目３２番地３号,,13,122,1250041,,,,,,,2022-11-25,1,,,,,ナカムラ,0
1631,7013103001188,新規,0,2022-11-25,2022-11-25,富士アセット合同会社,,合同会社,東京都,福生市,加美平３丁目２８番地３ハイム加美２０２号室,,13,218,1970012,,,,,,,2022-11-25,1,,,,,フジアセット,0
1633,7013301049979,新規,0,2022-11-25,2022-11-25,Ｎｅｗ　Ｏｒｉｅｎｔａｌ医療株式会社,,株式会社,東京都,豊島区,巣鴨１丁目１１番地２,,13,116,1700002,,,,,,,2022-11-25,1,,,,,ニューオリエンタルイリョウ,0
1658,7030001151139,新規,0,2022-11-25,2022-11-25,株式会社オリエンタル,,株式会社,埼玉県,さいたま市緑区,東浦和２丁目２０番９号,,11,109,3360926,,,,,,,2022-11-25,1,,,,,オリエンタル,0
1659,7030001151188,新規,0,2022-11-25,2022-11-25,たこ焼きまえかわ株式会社,,株式会社,埼玉県,越谷市,南越谷４丁目１２番地５朝日プラザ１０１,,11,222,3430845,,,,,,,2022-11-25,1,,,,,タコヤキマエカワ,0
1660,7030001151196,新規,0,2022-11-25,2022-11-25,株式会社松陣,,株式会社,埼玉県,狭山市,広瀬２丁目１番２８号,,11,215,3501319,,,,,,,2022-11-25,1,,,,,マツジン,0
1661,7030001151205,新規,0,2022-11-25,2022-11-25,株式会社オルハ,,株式会社,埼玉県,入間市,大字下藤沢１１５５番地４,,11,225,3580011,,,,,,,2022-11-25,1,,,,,オルハ,0
1665,7030003020622,新規,0,2022-11-25,2022-11-25,ハルヤマ合同会社,,合同会社,埼玉県,蕨市,錦町１丁目１６番１９号,,11,223,3350005,,,,,,,2022-11-25,1,,,,,ハルヤマ,0
1684,7070001039859,新規,0,2022-11-25,2022-11-25,株式会社ＴＡＫＥＹＡ,,株式会社,群馬県,高崎市,八島町２０番地１武蔵屋ビル２階,,10,202,3700849,,,,,,,2022-11-25,1,,,,,タケヤ,0
1686,7070003004729,新規,0,2022-11-25,2022-11-25,Ｍ・クリス合同会社,,合同会社,群馬県,前橋市,前箱田町７７番地３Ｂａｒｒａｃｋ１０３号,,10,201,3710835,,,,,,,2022-11-25,1,,,,,エムクリス,0
1689,7080001025313,新規,0,2022-11-25,2022-11-25,株式会社トーンベンダー,,株式会社,静岡県,静岡市駿河区,中原６３６番地１,,22,102,4228058,,,,,,,2022-11-25,1,,,,,トーンベンダー,0
1699,7100001035904,新規,0,2022-11-25,2022-11-25,ＬＡＢＯ空の色株式会社,,株式会社,長野県,安曇野市,三郷温７１８６番地６,,20,220,3998102,,,,,,,2022-11-25,1,,,,,ラボソラノイロ,0
1700,7100001035912,新規,0,2022-11-25,2022-11-25,株式会社ヤサカあいさいファーム,,株式会社,長野県,大町市,社５８１７番地２,,20,212,3980003,,,,,,,2022-11-25,1,,,,,ヤサカアイサイファーム,0
1702,7110001037131,新規,0,2022-11-25,2022-11-25,株式会社みらいともす,,株式会社,新潟県,三条市,江口１０９番地,,15,204,9550104,,,,,,,2022-11-25,1,,,,,ミライトモス,0
1704,7110003004922,新規,0,2022-11-25,2022-11-25,合同会社Ｊｉｎｚａｉ,,合同会社,新潟県,新潟市北区,松浜１丁目６番地１２,,15,101,9503126,,,,,,,2022-11-25,1,,,,,ジンザイ,0
1716,7120001250518,新規,0,2022-11-25,2022-11-25,株式会社Ａｕｔｈｅｎｔｉｃ　Ｄｅｓｉｇｎ　Ｌａｂ,,株式会社,大阪府,大阪市東淀川区,瑞光２丁目５番２９－１００４号,,27,114,5330005,,,,,,,2022-11-25,1,,,,,オーセンティックデザインラボ,0
1717,7120001250542,新規,0,2022-11-25,2022-11-25,株式会社新井総建,,株式会社,大阪府,大阪市生野区,小路２丁目１５番２７－２０２号,,27,116,5440002,,,,,,,2022-11-25,1,,,,,アライソウケン,0
1718,7120001250559,新規,0,2022-11-25,2022-11-25,ミラクシード株式会社,,株式会社,大阪府,大阪市西区,江戸堀２丁目１番１号江戸堀センタービル９階,,27,106,5500002,,,,,,,2022-11-25,1,,,,,ミラクシード,0
1726,7120105009645,新規,0,2022-11-25,2022-11-25,一般社団法人古民家再生協会南大阪,,その他の設立登記法人,大阪府,岸和田市,積川町２４番地の１,,27,202,5960104,,,,,,,2022-11-25,1,,,,,コミンカサイセイキョウカイミナミオオサカ,0
1731,7120903004384,新規,0,2022-11-25,2022-11-25,ＯＣＧ　Ｊａｐａｎ合同会社,,合同会社,大阪府,豊中市,少路２丁目７－７－７０４,,27,203,5600004,,,,,,,2022-11-25,1,,,,,オーシージージャパン,0
1737,7122001036434,新規,0,2022-11-25,2022-11-25,株式会社Ｒｅａｃｔ,,株式会社,大阪府,東大阪市,末広町１７番３号,,27,227,5798055,,,,,,,2022-11-25,1,,,,,リアクト,0
1738,7122003002459,新規,0,2022-11-25,2022-11-25,合同会社オオマエ,,合同会社,大阪府,四條畷市,南野４丁目５番１０号,,27,229,5750021,,,,,,,2022-11-25,1,,,,,オオマエ,0
1739,7130001073158,新規,0,2022-11-25,2022-11-25,株式会社ｅスタッフ,,株式会社,京都府,木津川市,城山台７丁目１５番地５,,26,214,6190218,,,,,,,2022-11-25,1,,,,,イースタッフ,0
1750,7180001153954,新規,0,2022-11-25,2022-11-25,株式会社令花,,株式会社,愛知県,名古屋市千種区,千種１丁目１４番２号,,23,101,4640858,,,,,,,2022-11-25,1,,,,,レイカ,0
1756,7190001029955,新規,0,2022-11-25,2022-11-25,株式会社シティホールディングス,,株式会社,三重県,津市,久居藤ヶ丘町２５７０番地１,,24,201,5141102,,,,,,,2022-11-25,1,,,,,シティホールディングス,0
1760,7200003005746,新規,0,2022-11-25,2022-11-25,合同会社ＢｅｓｔＦｒｉｅｎｄｓ,,合同会社,岐阜県,各務原市,那加新加納町２１５７番地２,,21,213,5040958,,,,,,,2022-11-25,1,,,,,ベストフレンズ,0
1764,7240001060698,新規,0,2022-11-25,2022-11-25,株式会社ＲＹＯＹＯ,,株式会社,広島県,安芸郡府中町,瀬戸ハイム２丁目７番３１号,,34,302,7350011,,,,,,,2022-11-25,1,,,,,リョーヨー,0
1767,7250003003183,新規,0,2022-11-25,2022-11-25,サティスファイ合同会社,,合同会社,山口県,美祢市,大嶺町東分１９０９番地１－１０１号室,,35,213,7592212,,,,,,,2022-11-25,1,,,,,サティスファイ,0
1769,7260001037439,新規,0,2022-11-25,2022-11-25,Ｂｒｉｄｇｅ株式会社,,株式会社,岡山県,岡山市中区,湊２９６番地６３,,33,102,7038266,,,,,,,2022-11-25,1,,,,,ブリッジ,0
1777,7310001018136,新規,0,2022-11-25,2022-11-25,山下興業株式会社,,株式会社,長崎県,佐世保市,広田３丁目６番２号,,42,202,8593223,,,,,,,2022-11-25,1,,,,,ヤマシタコウギョウ,0
1778,7320001019439,新規,0,2022-11-25,2022-11-25,株式会社大山工業,,株式会社,大分県,別府市,大字鶴見１９７８番地の７,,44,202,8740840,,,,,,,2022-11-25,1,,,,,オオヤマコウギョウ,0
1782,7330003009602,新規,0,2022-11-25,2022-11-25,タワラヤ合同会社,,合同会社,熊本県,熊本市中央区,子飼本町１－２２,,43,101,8600851,,,,,,,2022-11-25,1,,,,,タワラヤ,0
1786,7360003012479,新規,0,2022-11-25,2022-11-25,合同会社ｌｅａｐ,,合同会社,沖縄県,うるま市,字栄野比７１４－６,,47,213,9042205,,,,,,,2022-11-25,1,,,,,リープ,0
1787,7360003012495,新規,0,2022-11-25,2022-11-25,合同会社福祉の家,,合同会社,沖縄県,島尻郡南風原町,字神里５１,,47,350,9011114,,,,,,,2022-11-25,1,,,,,フクシノイエ,0
1793,7370001049290,新規,0,2022-11-25,2022-11-25,株式会社モンドディヴァーソ,,株式会社,宮城県,仙台市宮城野区,榴ケ岡２７番地プレシス仙台榴ヶ岡公園６０５,,04,102,9830851,,,,,,,2022-11-25,1,,,,,モンドディヴァーソ,0
1801,7380001033285,新規,0,2022-11-25,2022-11-25,株式会社ヨロコビノキ,,株式会社,福島県,郡山市,鶴見担一丁目２番９号ポレスター鶴見担１１０１号,,07,203,9630000,,,,,,,2022-11-25,1,,,,,ヨロコビノキ,0
1806,7400003002995,新規,0,2022-11-25,2022-11-25,合同会社メディアルモ,,合同会社,岩手県,奥州市,水沢字中城７３番地１,,03,215,0230022,,,,,,,2022-11-25,1,,,,,メディアルモ,0
1816,7430001087904,新規,0,2022-11-25,2022-11-25,火鍋一族株式会社,,株式会社,北海道,虻田郡倶知安町,字山田１５５番９６号１階,,01,400,0440081,,,,,,,2022-11-25,1,,,,,ヒナベイチゾク,0
1817,7430001087920,新規,0,2022-11-25,2022-11-25,新都心開発株式会社,,株式会社,北海道,札幌市北区,北七条西４丁目１番１号トーカン札幌第一キャステール６０７,,01,102,0600807,,,,,,,2022-11-25,1,,,,,シントシンカイハツ,0
1818,7430001087929,新規,0,2022-11-25,2022-11-25,株式会社Ｗｏｏｄ　Ｇｒｏｗｔｈ,,株式会社,北海道,札幌市手稲区,前田十一条１０丁目１５番１１号,,01,109,0060821,,,,,,,2022-11-25,1,,,,,ウッドグロース,0
1822,7500001024610,新規,0,2022-11-25,2022-11-25,株式会社正興,,株式会社,愛媛県,新居浜市,下泉町２丁目８番３８号,,38,205,7920813,,,,,,,2022-11-25,1,,,,,セイコウ,0
1826,7700150110942,新規,0,2022-11-25,2022-11-25,ｓｕｉｎｉｎｇｘｉａｎｊｕｄｉａｎｄｉａｎｚｉｓｈａｎｇｗｕｙｏｕｘｉａｎｇｏｎｇｓｉ,,外国会社等,,,,,,,,Ｄｏｎｇｍｅｎ　Ｇｒｏｕｐ，ＪｉＢｅｉ　Ｔｏｗｎ，Ｘｕｚｈｏｕ　Ｃｉｔｙ，ＪｉａｎｇＳｕ　Ｐｒｏｖｉｎｃｅ，Ｃｈｉｎａ,,,,,,2022-11-25,1,,,,,スイニンシィェンジュディェンディェンズーシャンウーヨウシィェンゴンスー,0
1827,7700150111494,新規,0,2022-11-25,2022-11-25,Ｎｉｎｇｂｏ　Ｚｅｙｕ　Ｔｒａｄｉｎｇ　Ｃｏ　Ｌｔｄ,,外国会社等,,,,,,,,Ｒｏｏｍ　１５－５，Ｎｏ．１　Ｌａｎｅ　１０６６，Ｓａｎｗｕ　Ｒｏａｄ，Ｌｕｏｔｕｏ　Ｓｔｒｅｅｔ　Ｚｈｅｎｈａｉ　Ｄｉｓｔｒｉｃｔ　Ｎｉｎｇｂｏ　Ｚｈｅｊｉａｎｇ　Ｃｈｉｎａ,,,,,,2022-11-25,1,,,,,ニンボーゼーユートレーディングユウシィアンゴンスー,0
1830,8010001231081,新規,0,2022-11-25,2022-11-25,株式会社鳥羽企画制作,,株式会社,東京都,中央区,銀座８丁目１０番５号ＤＥＮＳＡＮビルＧ－３７７０５,,13,102,1040061,,,,,,,2022-11-25,1,,,,,トバキカクセイサク,0
1831,8010001231107,新規,0,2022-11-25,2022-11-25,洞田貫プランニングス株式会社,,株式会社,東京都,中央区,日本橋小網町１３番２－２０７号,,13,102,1030016,,,,,,,2022-11-25,1,,,,,ドウダヌキプランニングス,0
1832,8010001231115,新規,0,2022-11-25,2022-11-25,Ｏｎｅ＆Ｂｒａｎｄ株式会社,,株式会社,東京都,中央区,銀座７丁目１３番６号サガミビル２階,,13,102,1040061,,,,,,,2022-11-25,1,,,,,ワンアンドブランド,0
1839,8010003039143,新規,0,2022-11-25,2022-11-25,Ｃａｐｉｔａｌ　Ｈｕｂ合同会社,,合同会社,東京都,中央区,銀座１丁目１２番４号Ｎ＆ＥＢＬＤ．６Ｆ,,13,102,1040061,,,,,,,2022-11-25,1,,,,,キャピタルハブ,0
1848,8010401170986,新規,0,2022-11-25,2022-11-25,Ｓｋｙｈｉｇｈ　Ｓｅｃｕｒｉｔｙ　Ｊａｐａｎ株式会社,,株式会社,東京都,港区,六本木１丁目９番１０号アークヒルズ仙石山森タワー２８階ベーカー＆マッケンジー法律事務所（外国法共同事業）内,,13,103,1060032,,,,,,,2022-11-25,1,,,,,スカイハイセキュリティジャパン,0
1849,8010401171002,新規,0,2022-11-25,2022-11-25,株式会社グローバルプロスピーキングアカデミー,,株式会社,東京都,港区,南青山２丁目２番１５号,,13,103,1070062,,,,,,,2022-11-25,1,,,,,グローバルプロスピーキングアカデミー,0
1856,8010501049676,新規,0,2022-11-25,2022-11-25,ＴＮＥ貿易株式会社,,株式会社,東京都,台東区,浅草５丁目４０番１１－６０１号アデニウム浅草,,13,106,1110032,,,,,,,2022-11-25,1,,,,,ティーエヌイーボウエキ,0
1857,8010601062190,新規,0,2022-11-25,2022-11-25,ホンベホールディングス株式会社,,株式会社,東京都,江東区,大島５丁目４３番８号,,13,108,1360072,,,,,,,2022-11-25,1,,,,,ホンベホールディングス,0
1860,8010801033462,新規,0,2022-11-25,2022-11-25,株式会社ＫＢＫＳ,,株式会社,東京都,大田区,山王２丁目５番６号,,13,111,1430023,,,,,,,2022-11-25,1,,,,,ケービーケーエス,0
1861,8010803004362,新規,0,2022-11-25,2022-11-25,合同会社ＰＡＲＩＯＵＳ,,合同会社,東京都,大田区,新蒲田２丁目１番９号アヴァンタージュ蒲田３０１,,13,111,1440054,,,,,,,2022-11-25,1,,,,,パリアス,0
1862,8010803004370,新規,0,2022-11-25,2022-11-25,合同会社ラウンドケア,,合同会社,東京都,大田区,中央４丁目３０番１０号,,13,111,1430024,,,,,,,2022-11-25,1,,,,,ラウンドケア,0
1864,8010901052024,新規,0,2022-11-25,2022-11-25,エスケー株式会社,,株式会社,東京都,世田谷区,中町３丁目２７番１９号,,13,112,1580091,,,,,,,2022-11-25,1,,,,,エスケー,0
1865,8010901052032,新規,0,2022-11-25,2022-11-25,株式会社ＺＥＲＯ,,株式会社,東京都,世田谷区,三軒茶屋１丁目３４番１２号レイハウス三軒茶屋５０１,,13,112,1540024,,,,,,,2022-11-25,1,,,,,ゼロ,0
1867,8010903007802,新規,0,2022-11-25,2022-11-25,合同会社ＬＵＣＫ,,合同会社,東京都,世田谷区,北烏山６丁目１１番３号２５０１号室,,13,112,1570061,,,,,,,2022-11-25,1,,,,,ラック,0
1881,8011005009844,新規,0,2022-11-25,2022-11-25,社会保険労務士法人シナジーズ,,その他の設立登記法人,東京都,渋谷区,東３丁目２６番２号,,13,113,1500011,,,,,,,2022-11-25,1,,,,,シナジーズ,0
1883,8011101100911,新規,0,2022-11-25,2022-11-25,株式会社諏訪企画,,株式会社,東京都,新宿区,新宿１丁目３６番地９号,,13,104,1600022,,,,,,,2022-11-25,1,,,,,スワキカク,0
1884,8011101100952,新規,0,2022-11-25,2022-11-25,株式会社アンブロークン,,株式会社,東京都,新宿区,舟町７舟町ビルワイムポート新宿舟町Ｐ－２７,,13,104,1600006,,,,,,,2022-11-25,1,,,,,アンブロークン,0
1891,8011501028711,新規,0,2022-11-25,2022-11-25,ＮＡ株式会社,,株式会社,東京都,荒川区,西尾久７丁目１１番１２号２Ｆ－Ｄ室,,13,118,1160011,,,,,,,2022-11-25,1,,,,,エヌエー,0
1904,8012803002932,新規,0,2022-11-25,2022-11-25,合同会社ＴＲＩＮＯＳ,,合同会社,東京都,立川市,栄町５丁目１９番地の１カーサフェリーチェ２０３,,13,202,1900003,,,,,,,2022-11-25,1,,,,,トリノス,0
1933,8021003012403,新規,0,2022-11-25,2022-11-25,合同会社３Ｎ,,合同会社,神奈川県,大和市,深見東２丁目３－２１,,14,213,2420012,,,,,,,2022-11-25,1,,,,,スリーエヌ,0
1937,8030001151154,新規,0,2022-11-25,2022-11-25,サンシップ株式会社,,株式会社,埼玉県,富士見市,西みずほ台３丁目１０番地みずほ台団地１０－１－２０４,,11,235,3540018,,,,,,,2022-11-25,1,,,,,サンシップ,0
1938,8030001151170,新規,0,2022-11-25,2022-11-25,株式会社ＨＳＪ,,株式会社,埼玉県,川口市,西川口１丁目２０番６－３０２号ティアラ２１,,11,203,3320021,,,,,,,2022-11-25,1,,,,,エイチエスジェイ,0
1939,8030001151204,新規,0,2022-11-25,2022-11-25,マスターピースコンサルティング株式会社,,株式会社,埼玉県,さいたま市大宮区,桜木町１丁目９番１８号ＭＩＯ大宮６０３,,11,103,3300854,,,,,,,2022-11-25,1,,,,,マスターピースコンサルティング,0
1940,8030001151220,新規,0,2022-11-25,2022-11-25,株式会社モナド,,株式会社,埼玉県,和光市,白子３丁目３５番１号,,11,229,3510101,,,,,,,2022-11-25,1,,,,,モナド,0
1948,8040001125900,新規,0,2022-11-25,2022-11-25,株式会社まねまね,,株式会社,千葉県,船橋市,市場３丁目１０番３号１階,,12,204,2730001,,,,,,,2022-11-25,1,,,,,マネマネ,0
1954,8050001051922,新規,0,2022-11-25,2022-11-25,株式会社希ファーム,,株式会社,茨城県,東茨城郡大洗町,和銅１番地の１９,,08,309,3111304,,,,,,,2022-11-25,1,,,,,ノゾミファーム,0
1955,8050001051996,新規,0,2022-11-25,2022-11-25,株式会社ドボテック,,株式会社,茨城県,笠間市,美原３丁目１番２号クル・ジャンム１０１,,08,216,3091704,,,,,,,2022-11-25,1,,,,,ドボテック,0
1956,8050001052004,新規,0,2022-11-25,2022-11-25,株式会社コナンファーム,,株式会社,茨城県,土浦市,小山崎４８３番地３,,08,203,3000004,,,,,,,2022-11-25,1,,,,,コナンファーム,0
1959,8050003007047,新規,0,2022-11-25,2022-11-25,合同会社暖工業,,合同会社,茨城県,つくば市,谷田部２１０９－５高林テラスハウスＤ棟,,08,220,3050861,,,,,,,2022-11-25,1,,,,,ダンコウギョウ,0
1980,8110001037130,新規,0,2022-11-25,2022-11-25,株式会社ＨＲＣ,,株式会社,新潟県,新潟市西区,金巻８５７－５,,15,107,9501112,,,,,,,2022-11-25,1,,,,,エイチアールシー,0
1993,8120001250525,新規,0,2022-11-25,2022-11-25,ＳＨＳ株式会社,,株式会社,大阪府,大阪市中央区,松屋町９番２０号ローレルステート松屋町４０２Ｂ,,27,128,5420067,,,,,,,2022-11-25,1,,,,,エスエイチエス,0
1994,8120001250541,新規,0,2022-11-25,2022-11-25,株式会社クローバー,,株式会社,大阪府,大阪市此花区,西九条６丁目１－３幸福ライフ２０３号,,27,104,5540012,,,,,,,2022-11-25,1,,,,,クローバー,0
1997,8120003022930,新規,0,2022-11-25,2022-11-25,合同会社Ｕ．Ａ．Ｄ,,合同会社,大阪府,大阪市西区,西本町１丁目８番２号三晃ビル,,27,106,5500005,,,,,,,2022-11-25,1,,,,,ユーエーディー,0
2001,8122003002458,新規,0,2022-11-25,2022-11-25,合同会社ルメイユール,,合同会社,大阪府,柏原市,本郷３丁目５番２３号,,27,221,5820001,,,,,,,2022-11-25,1,,,,,ルメイユール,0
2007,8130001073140,新規,0,2022-11-25,2022-11-25,株式会社ティーアークパシフィック,,株式会社,京都府,京都市伏見区,深草大亀谷万帖敷町８７２番地１,,26,109,6120846,,,,,,,2022-11-25,1,,,,,ティーアークパシフィック,0
2008,8130001073149,新規,0,2022-11-25,2022-11-25,株式会社ガジェット,,株式会社,京都府,久世郡久御山町,田井新荒見４０番地２,,26,322,6130036,,,,,,,2022-11-25,1,,,,,ガジェット,0
2017,8140001128158,新規,0,2022-11-25,2022-11-25,株式会社北神テック,,株式会社,兵庫県,神戸市北区,上津台４丁目１８番２３号,,28,109,6511515,,,,,,,2022-11-25,1,,,,,ホクシンテック,0
2027,8180001153937,新規,0,2022-11-25,2022-11-25,株式会社トレム,,株式会社,愛知県,一宮市,小信中島字東鵜飼分１９番地５,,23,203,4940007,,,,,,,2022-11-25,1,,,,,トレム,0
2033,8190003004154,新規,0,2022-11-25,2022-11-25,合同会社ＴＹＶ,,合同会社,三重県,四日市市,大井手３丁目１番２２号メイユール１０１,,24,202,5100835,,,,,,,2022-11-25,1,,,,,ティーワイブイ,0
2041,8210001019168,新規,0,2022-11-25,2022-11-25,株式会社トリプルエーサービス,,株式会社,福井県,鯖江市,冬島町第２号７番地１,,18,207,9160072,,,,,,,2022-11-25,1,,,,,トリプルエーサービス,0
2044,8220001025140,新規,0,2022-11-25,2022-11-25,株式会社ＣＡＮＤＡＹ,,株式会社,石川県,野々市市,矢作１丁目５０番地５,,17,212,9218822,,,,,,,2022-11-25,1,,,,,キャンディー,0
2045,8240001060697,新規,0,2022-11-25,2022-11-25,ＴＫホールディングス株式会社,,株式会社,広島県,広島市安佐南区,大町西３丁目１５番６１号,,34,105,7310125,,,,,,,2022-11-25,1,,,,,ティケイホールディングス,0
2050,8250001019858,新規,0,2022-11-25,2022-11-25,株式会社アサヒ,,株式会社,山口県,宇部市,上町１丁目６番３６号,,35,202,7550051,,,,,,,2022-11-25,1,,,,,アサヒ,0
2059,8290001099681,新規,0,2022-11-25,2022-11-25,株式会社ｙａｍａ,,株式会社,福岡県,糸島市,前原西２丁目４番２９号,,40,230,8191117,,,,,,,2022-11-25,1,,,,,ヤマ,0
2067,8310001018135,新規,0,2022-11-25,2022-11-25,株式会社徳,,株式会社,長崎県,佐世保市,栄町５番１７号,,42,202,8570054,,,,,,,2022-11-25,1,,,,,トク,0
2072,8330001030336,新規,0,2022-11-25,2022-11-25,株式会社大小ペイント,,株式会社,熊本県,熊本市北区,清水万石３丁目６番４号,,43,105,8618068,,,,,,,2022-11-25,1,,,,,ダイショウペイント,0
2074,8330003009601,新規,0,2022-11-25,2022-11-25,合同会社ＰＡＰＡＳ,,合同会社,熊本県,人吉市,下漆田町２４９２番地２,,43,203,8680822,,,,,,,2022-11-25,1,,,,,パパス,0
2075,8340001025194,新規,0,2022-11-25,2022-11-25,株式会社Ｖａｌｕｅ,,株式会社,鹿児島県,鹿児島市,加治屋町９番１６‐３‐１２０１号,,46,201,8920846,,,,,,,2022-11-25,1,,,,,バリュー,0
2079,8350001018049,新規,0,2022-11-25,2022-11-25,株式会社Ｒｅ‐ｆｉｎｅ,,株式会社,宮崎県,宮崎市,生目台西３丁目５番地８８,,45,201,8800943,,,,,,,2022-11-25,1,,,,,リファイン,0
2081,8360003012486,新規,0,2022-11-25,2022-11-25,合同会社ｙｕｉｍａ‐ｒｕ,,合同会社,沖縄県,糸満市,字座波１０５６番地の５,,47,210,9010314,,,,,,,2022-11-25,1,,,,,ユイマール,0
2093,8380001033284,新規,0,2022-11-25,2022-11-25,株式会社ＫａＺｏｏ,,株式会社,福島県,いわき市,小名浜愛宕上５番地の７,,07,204,9718166,,,,,,,2022-11-25,1,,,,,カズー,0
2109,8700150110941,新規,0,2022-11-25,2022-11-25,ｓｕｉ　ｎｉｎｇ　ｓｈｅｎｇ　ｍａｏ　ｙｉｎ　ｄｉａｎ　ｚｉ　ｓｈａｎｇ　ｗｕ　Ｃｏ．，Ｌｔｄ．,,外国会社等,,,,,,,,Ｎｏ．１８－７　ｃｈｕａｎｇｙｅ　ｒｏａｄ，　ｎｉｎｇｊｉａｎｇ　ｉｎｄｕｓｔｒｉａｌ　ｐａｒｋ，　ｓｕｉｎｉｎｇ　ｃｏｕｎｔｒｙ，　Ｃｈｉｎａ,,,,,,2022-11-25,1,,,,,スイニンシォンマオインディェンズーシャンウーヨウシィェンゴンスー,0
2110,8700150111114,新規,0,2022-11-25,2022-11-25,ｘｉａｍｅｎｘｕｒｉｈｏｎｇｓｈｅｎｇｍａｏｙｉｙｏｕｘｉａｎｇｏｎｇｓｉ,,外国会社等,,,,,,,,Ｒｏｏｍ　２０７，Ｎｏ．２７２　ｈｏｕｋｅｎｇ　Ｈｏｕｓｈｅ，Ｈｕｌｉ　Ｄｉｓｔｒｉｃｔ，Ｘｉａｍｅｎ　ｃｉｔｙ，Ｃｈｉｎａ,,,,,,2022-11-25,1,,,,,アモイクヒホンショウボウエキユウシィアンゴンスー,0
2111,8700150111493,新規,0,2022-11-25,2022-11-25,Ｎｉｎｇｂｏ　Ｙｕｌｉ　Ｔｒａｄｉｎｇ　Ｃｏ　Ｌｔｄ,,外国会社等,,,,,,,,１４－１－４，Ｈｅｎｇｙｉ　ｂｕｉｌｄｉｎｇ，Ｎｏ．１１１６，Ｂｅｉｈｕａｎ　Ｗｅｓｔ　Ｒｏａｄ，Ｊｉａｎｇｂｅｉ　Ｄｉｓｔｒｉｃｔ，Ｎｉｎｇｂｏ，Ｚｈｅｊｉａｎｇ，Ｃｈｉｎａ,,,,,,2022-11-25,1,,,,,ニンボーユーリートレーディングユウシィアンゴンスー,0
2119,9010001231031,新規,0,2022-11-25,2022-11-25,株式会社Ｇｌｏｂａｌ　Ａｌｌｙ,,株式会社,東京都,千代田区,神田鍛冶町３丁目７番地２１天翔神田駅前ビル,,13,101,1010045,,,,,,,2022-11-25,1,,,,,グローバルアライ,0
2120,9010001231056,新規,0,2022-11-25,2022-11-25,世紀貿易株式会社,,株式会社,東京都,中央区,新富１丁目７番７号新富センタービル４階,,13,102,1040041,,,,,,,2022-11-25,1,,,,,セイキボウエキ,0
2121,9010001231080,新規,0,2022-11-25,2022-11-25,Ａｄｏｒａｎｇｅ株式会社,,株式会社,東京都,文京区,本郷３丁目４－３ヒルズ８８４お茶の水ビル５Ｆ,,13,105,1130033,,,,,,,2022-11-25,1,,,,,アドレンジ,0
2122,9010001231114,新規,0,2022-11-25,2022-11-25,株式会社イズム,,株式会社,東京都,中央区,銀座６丁目４番８号曽根ビル２０２号,,13,102,1040061,,,,,,,2022-11-25,1,,,,,イズム,0
2126,9010003039175,新規,0,2022-11-25,2022-11-25,合同会社スムース・ジャパン,,合同会社,東京都,中央区,勝どき２丁目８番１２号１５２０号室,,13,102,1040054,,,,,,,2022-11-25,1,,,,,スムースジャパン,0
2155,9011001151145,新規,0,2022-11-25,2022-11-25,株式会社ＥＸＰＡＮＤ,,株式会社,東京都,目黒区,柿の木坂１丁目１番１０号,,13,110,1520022,,,,,,,2022-11-25,1,,,,,エクスパンド,0
2157,9011005009835,新規,0,2022-11-25,2022-11-25,一般社団法人ビューティコンサルティングジャパン協会,,その他の設立登記法人,東京都,渋谷区,宇田川町３２番７号１１階,,13,113,1500042,,,,,,,2022-11-25,1,,,,,ビューティコンサルティングジャパンキョウカイ,0
2158,9011101100893,新規,0,2022-11-25,2022-11-25,株式会社ｉｎｅｒｓｅｎｔｉａｌ,,株式会社,東京都,新宿区,市谷本村町２番３号ＮＯＶＥＬＷＯＲＫＩｃｈｉｇａｙａ３階,,13,104,1620845,,,,,,,2022-11-25,1,,,,,イナセンシャル,0
2159,9011101100943,新規,0,2022-11-25,2022-11-25,株式会社ｌｅａｐ　ｕｐ,,株式会社,東京都,新宿区,新宿２丁目６番５号６Ｆ,,13,104,1600022,,,,,,,2022-11-25,1,,,,,リープアップ,0
2160,9011101100984,新規,0,2022-11-25,2022-11-25,株式会社Ａｍｅｔｒｉｕｓ,,株式会社,東京都,新宿区,歌舞伎町１丁目１０番５号,,13,104,1600021,,,,,,,2022-11-25,1,,,,,アメトリアス,0
2161,9011103012419,新規,0,2022-11-25,2022-11-25,合同会社アイジー,,合同会社,東京都,新宿区,西新宿３丁目３番１３号西新宿水間ビル６階,,13,104,1600023,,,,,,,2022-11-25,1,,,,,アイジー,0
2164,9011301028274,新規,0,2022-11-25,2022-11-25,ＤＥＡＭ株式会社,,株式会社,東京都,杉並区,下井草２丁目３７番８号プラチナフォート下井草１０２,,13,115,1670022,,,,,,,2022-11-25,1,,,,,ディーム,0
2166,9011501028710,新規,0,2022-11-25,2022-11-25,株式会社藤商,,株式会社,東京都,北区,志茂３丁目２４番２１号,,13,117,1150042,,,,,,,2022-11-25,1,,,,,フジショウ,0
2167,9011503005360,新規,0,2022-11-25,2022-11-25,ＩＫＩＧＡＩ合同会社,,合同会社,東京都,北区,赤羽２丁目１３番２号渡辺ビル３階,,13,117,1150045,,,,,,,2022-11-25,1,,,,,イキガイ,0
2172,9011801041603,新規,0,2022-11-25,2022-11-25,宝利株式会社,,株式会社,東京都,葛飾区,東新小岩４丁目６番２号,,13,122,1240023,,,,,,,2022-11-25,1,,,,,ホウリ,0
2179,9012403005698,新規,0,2022-11-25,2022-11-25,合同会社Ａｓｐｉｒａｔｉｏｎ＆Ｖｉｓｉｏｎ,,合同会社,東京都,調布市,入間町２丁目２８－１６－２４８グランドメゾン仙川,,13,208,1820004,,,,,,,2022-11-25,1,,,,,アスパレーションアンドビジョン,0
2180,9013301049985,新規,0,2022-11-25,2022-11-25,株式会社セゾンペット,,株式会社,東京都,豊島区,東池袋３丁目１番１号,,13,116,1700013,,,,,,,2022-11-25,1,,,,,セゾンペット,0
2191,9021003012410,新規,0,2022-11-25,2022-11-25,関西自動車合同会社,,合同会社,神奈川県,藤沢市,長後１９６３番地のＣ,,14,205,2520801,,,,,,,2022-11-25,1,,,,,カンサイジドウシャ,0
2192,9021003012419,新規,0,2022-11-25,2022-11-25,合同会社たびのそら,,合同会社,神奈川県,海老名市,浜田町１３－２１,,14,215,2430412,,,,,,,2022-11-25,1,,,,,タビノソラ,0
2201,9030003020521,新規,0,2022-11-25,2022-11-25,合同会社ＴＳＵＭＵＧＩ,,合同会社,埼玉県,さいたま市浦和区,木崎２丁目１６番３号,,11,107,3300042,,,,,,,2022-11-25,1,,,,,ツムギ,0
2202,9030003020612,新規,0,2022-11-25,2022-11-25,ラビットラボ合同会社,,合同会社,埼玉県,所沢市,西新井町４番２２号,,11,208,3590035,,,,,,,2022-11-25,1,,,,,ラビットラボ,0
2203,9030003020620,新規,0,2022-11-25,2022-11-25,合同会社ＫＴＯＷＮ,,合同会社,埼玉県,さいたま市大宮区,仲町１丁目９７番地第二ヨシケンビル２階,,11,103,3300845,,,,,,,2022-11-25,1,,,,,ケイタウン,0
2212,9040003021353,新規,0,2022-11-25,2022-11-25,合同会社Ｒ．Ｓ　ｓｔｕｄｉｏ,,合同会社,千葉県,市川市,本北方１丁目４４番１４－１０１,,12,203,2720816,,,,,,,2022-11-25,1,,,,,アールエススタジオ,0
2216,9050003007046,新規,0,2022-11-25,2022-11-25,合同会社Ｍｖｉａ,,合同会社,茨城県,石岡市,下林２４７２番地１６,,08,205,3150131,,,,,,,2022-11-25,1,,,,,エムヴィア,0
2245,9120001250375,新規,0,2022-11-25,2022-11-25,キャンバス株式会社,,株式会社,大阪府,大阪市中央区,安土町２丁目２－１５ハウザー堺筋本町駅前ビル５Ｆ,,27,128,5410052,,,,,,,2022-11-25,1,,,,,キャンバス,0
2246,9120001250532,新規,0,2022-11-25,2022-11-25,末弘建設株式会社,,株式会社,大阪府,大阪市住吉区,山之内４丁目１７番１０号小松マンション１０５号,,27,120,5580023,,,,,,,2022-11-25,1,,,,,スエヒロケンセツ,0
2247,9120001250540,新規,0,2022-11-25,2022-11-25,仁隆株式会社,,株式会社,大阪府,大阪市中央区,島之内１丁目１６番３号,,27,128,5420082,,,,,,,2022-11-25,1,,,,,ヒトタカ,0
2251,9120003022938,新規,0,2022-11-25,2022-11-25,合同会社マルヨ材木店,,合同会社,大阪府,大阪市西成区,津守３丁目７番１６号,,27,122,5570062,,,,,,,2022-11-25,1,,,,,マルヨザイモクテン,0
2252,9120005023307,新規,0,2022-11-25,2022-11-25,ジェイシス社会保険労務士法人,,その他の設立登記法人,大阪府,大阪市天王寺区,上本町８丁目９番２３号,,27,109,5430001,,,,,,,2022-11-25,1,,,,,ジェイシス,0
2255,9120101066589,新規,0,2022-11-25,2022-11-25,株式会社ＡＮＤ　ＹＯＵ,,株式会社,大阪府,堺市西区,鳳東町６丁６０１番地１－５００３号,,27,144,5938324,,,,,,,2022-11-25,1,,,,,アンドユー,0
2256,9122001036440,新規,0,2022-11-25,2022-11-25,ＡＭＡＴＥＬ株式会社,,株式会社,大阪府,東大阪市,若江西新町３丁目１番１０号,,27,227,5780944,,,,,,,2022-11-25,1,,,,,アマテル,0
2259,9122003002457,新規,0,2022-11-25,2022-11-25,ウェルス・ライフ合同会社,,合同会社,大阪府,柏原市,本郷３丁目５番２３号,,27,221,5820001,,,,,,,2022-11-25,1,,,,,ウェルスライフ,0
2263,9130001073148,新規,0,2022-11-25,2022-11-25,株式会社ＡＲＩＯＮ,,株式会社,京都府,京都市東山区,新橋通大和大路東入二丁目清本町３７９番地１今井アートビル４階Ａ号室,,26,105,6050000,,,,,,,2022-11-25,1,,,,,アリオン,0
2264,9130001073156,新規,0,2022-11-25,2022-11-25,株式会社風伝社,,株式会社,京都府,京都市上京区,東堀川通出水下る四町目１８９番地２,,26,102,6028045,,,,,,,2022-11-25,1,,,,,フウデンシャ,0
2268,9140001128149,新規,0,2022-11-25,2022-11-25,陽明ビジネス株式会社,,株式会社,兵庫県,尼崎市,東難波町５丁目２５番３―４号,,28,202,6600892,,,,,,,2022-11-25,1,,,,,ヨウメイビジネス,0
2269,9140001128157,新規,0,2022-11-25,2022-11-25,ティーエスキッズ株式会社,,株式会社,兵庫県,神戸市西区,伊川谷町有瀬１４番地２１－１０４,,28,111,6512113,,,,,,,2022-11-25,1,,,,,ティーエスキッズ,0
2280,9180001153936,新規,0,2022-11-25,2022-11-25,株式会社ＦＡ運送,,株式会社,愛知県,稲沢市,高御堂１丁目９番５－２０３号,,23,220,4928213,,,,,,,2022-11-25,1,,,,,エフエイウンソウ,0
2286,9190001029953,新規,0,2022-11-25,2022-11-25,株式会社カレッジピーク,,株式会社,三重県,津市,寿町８番１１号,,24,201,5140015,,,,,,,2022-11-25,1,,,,,カレッジピーク,0
2288,9190003004145,新規,0,2022-11-25,2022-11-25,エスプラスホーム合同会社,,合同会社,三重県,南牟婁郡御浜町,大字志原１８１９番地９０,,24,561,5195202,,,,,,,2022-11-25,1,,,,,エスプラスホーム,0
2304,9240001060688,新規,0,2022-11-25,2022-11-25,株式会社ＷＡＴＡＮＡＢＥ,,株式会社,広島県,呉市,広本町１丁目７番１１号,,34,202,7370125,,,,,,,2022-11-25,1,,,,,ワタナベ,0
2305,9240001060696,新規,0,2022-11-25,2022-11-25,株式会社石寛ライジング,,株式会社,広島県,広島市西区,庚午南１丁目９番２号,,34,104,7330823,,,,,,,2022-11-25,1,,,,,イシヒロライジング,0
2306,9240001060705,新規,0,2022-11-25,2022-11-25,株式会社みゆき美装,,株式会社,広島県,広島市安佐南区,伴東３丁目２番５－１０３号,,34,105,7313164,,,,,,,2022-11-25,1,,,,,ミユキビソウ,0
2322,9290001099680,新規,0,2022-11-25,2022-11-25,株式会社杉原組,,株式会社,福岡県,糟屋郡宇美町,平和１丁目１３番１４号,,40,341,8112121,,,,,,,2022-11-25,1,,,,,スギハラグミ,0
2323,9290001099697,新規,0,2022-11-25,2022-11-25,株式会社ＲＩＫ,,株式会社,福岡県,福岡市南区,柏原１丁目１９番３６号,,40,134,8111353,,,,,,,2022-11-25,1,,,,,リック,0
2326,9290801029077,新規,0,2022-11-25,2022-11-25,ＢＲＥ株式会社,,株式会社,福岡県,北九州市小倉南区,朽網東３丁目１６番２１号,,40,107,8000232,,,,,,,2022-11-25,1,,,,,ビーアールイー,0
2331,9330001030335,新規,0,2022-11-25,2022-11-25,フィールド・メーカー株式会社,,株式会社,熊本県,熊本市中央区,神水本町１３番１５号,,43,101,8620955,,,,,,,2022-11-25,1,,,,,フィールドメーカー,0
2332,9330003009600,新規,0,2022-11-25,2022-11-25,合名会社ケイティ,,合名会社,熊本県,熊本市南区,近見２丁目１６番３０号,,43,104,8614101,,,,,,,2022-11-25,1,,,,,ケイティ,0
2344,9380001033283,新規,0,2022-11-25,2022-11-25,株式会社ヨシカイ,,株式会社,福島県,いわき市,後田町町田３番地,,07,204,9748203,,,,,,,2022-11-25,1,,,,,ヨシカイ,0
2359,9430001087919,新規,0,2022-11-25,2022-11-25,ＲＳＦ　ＧＲＯＵＰ　ＳＨＩＫＩＳＡＩ株式会社,,株式会社,北海道,札幌市中央区,南十条西１４丁目１番２５号,,01,101,0640810,,,,,,,2022-11-25,1,,,,,アールエスエフグループシキサイ,0
2360,9430001087927,新規,0,2022-11-25,2022-11-25,株式会社森裕,,株式会社,北海道,小樽市,東雲町１０番１３１号,,01,203,0470026,,,,,,,2022-11-25,1,,,,,モリヒロ,0
2368,9470001019348,新規,0,2022-11-25,2022-11-25,株式会社鵜川,,株式会社,香川県,高松市,中間町１１５番地３,,37,201,7618043,,,,,,,2022-11-25,1,,,,,ウカワ,0
2371,9500001024617,新規,0,2022-11-25,2022-11-25,株式会社リバースロープ,,株式会社,愛媛県,松山市,鷹子町６８２番地２,,38,201,7900925,,,,,,,2022-11-25,1,,,,,リバースロープ,0
2374,9700150111113,新規,0,2022-11-25,2022-11-25,Ｎａｎｊｉｎｇ　ＹＣ　Ｔｅｃｈｎｏｌｏｇｙ　Ｌｉｍｉｔｅｄ,,外国会社等,,,,,,,,２－６１０，Ｎｏ．１０９ｒｕａｎｊｉａｎｄａｄａｏ，ｙｕｈｕａｔａｉｑｕ，Ｎａｎｊｉｎｇ，Ｊｉａｎｇｓｕ,,,,,,2022-11-25,1,,,,,ナンジンヨウチォンワンルゥォケージーヨウシィェンゴンスー,0
2375,9700150111492,新規,0,2022-11-25,2022-11-25,Ｎｉｎｇｂｏ　Ｄｒｅａｍｅｒ　Ｔｒａｄｉｎｇ　Ｃｏ．，Ｌｔｄ．,,外国会社等,,,,,,,,Ｒｏｏｍ　１５－１，Ｎｏ．１，Ｌａｎｅ　１０６６，Ｓａｎｗｕ　Ｒｏａｄ，Ｌｕｏｔｕｏ　Ｓｔｒｅｅｔ　Ｎｉｎｇｂｏ　Ｚｈｅｊｉａｎｇ，Ｃｈｉｎａ,,,,,,2022-11-25,1,,,,,ニンボードリーマートレーディングユウシィアンゴンスー,0
