sequenceNumber,corporateNumber,process,correct,updateDate,changeDate,name,nameImageId,kind,prefectureName,cityName,streetNumber,addressImageId,prefectureCode,cityCode,postCode,addressOutside,addressOutsideImageId,closeDate,closeCause,successorCorporateNumber,changeCause,assignmentDate,latest,enName,enPrefectureName,enCityName,enAddressOutside,furigana,hihyoji
1,1010001039060,登記記録の閉鎖等,0,2025-11-18,2025-11-10,大江貿易株式会社,,株式会社,東京都,中央区,銀座８丁目１９番３号,,13,102,1040061,,,2025-11-10,清算の結了等,,,2015-10-05,1,,,,,ダイコウボウエキ,0
12,1010005004531,登記記録の閉鎖等,0,2025-11-18,2025-11-14,一般社団法人東京包装協会,,その他の設立登記法人,東京都,中央区,八丁堀２丁目１５番２号,,13,102,1040032,,,2025-11-14,清算の結了等,,,2015-10-05,1,,,,,トウキョウホウソウキョウカイ,0
22,1010501042968,登記記録の閉鎖等,0,2025-11-18,2025-11-10,株式会社ブル,,株式会社,東京都,台東区,千束１丁目１１番９号,,13,106,1110031,,,2025-11-10,清算の結了等,,,2018-08-17,1,,,,,ブル,0
33,1010602017225,登記記録の閉鎖等,0,2025-11-18,2025-11-07,有限会社江栄解体,,有限会社,東京都,江東区,亀戸３丁目３８番１６－４０８号,,13,108,1360071,,,2025-11-07,清算の結了等,,,2015-10-05,1,,,,,コウエイカイタイ,0
34,1010602033098,登記記録の閉鎖等,0,2025-11-18,2025-11-07,有限会社高田住宅,00051776,有限会社,東京都,墨田区,太平４丁目１番１－４００５号,,13,107,1300012,,,2025-11-07,清算の結了等,,,2015-10-05,1,,,,,タカダジュウタク,0
46,1011001069931,登記記録の閉鎖等,0,2025-11-18,2025-10-17,株式会社ユナイテッドスマイルズ,,株式会社,東京都,渋谷区,神山町３１番２号,,13,113,1500047,,,2025-10-17,清算の結了等,,,2015-10-05,1,,,,,ユナイテッドスマイルズ,0
59,1011002021759,登記記録の閉鎖等,0,2025-11-18,2025-10-17,有限会社ロックオン,,有限会社,東京都,渋谷区,神山町２番８号,,13,113,1500047,,,2025-10-17,清算の結了等,,,2015-10-05,1,,,,,,0
60,1011003008334,登記記録の閉鎖等,0,2025-11-18,2025-10-20,ＳＥＬＥＣＴ－Ｈ合同会社,,合同会社,東京都,渋谷区,笹塚１丁目５９番８号,,13,113,1510073,,,2025-10-20,清算の結了等,,,2017-12-20,1,,,,,,0
77,1012302000329,登記記録の閉鎖等,0,2025-11-18,2025-11-04,有限会社安藤建築,,有限会社,東京都,町田市,野津田町３２１０番地,,13,209,1950063,,,2025-11-04,清算の結了等,,,2015-10-05,1,,,,,アンドウケンチク,0
79,1012401031555,登記記録の閉鎖等,0,2025-11-18,2025-11-13,株式会社ＡＱＵＡ－ＴＲＩＰ,,株式会社,東京都,町田市,原町田６丁目１１番１６号,,13,209,1940013,,,2025-11-13,合併による解散等,5430002012540,令和７年９月３０日東京都港区六本木四丁目１２番８号株式会社ＷｉｎｅＢａｎｋ（5430002012540）に合併し解散,2016-06-28,1,,,,,アクアトリップ,0
93,1020001043441,登記記録の閉鎖等,0,2025-11-18,2025-11-10,株式会社高栄設備工業,,株式会社,神奈川県,横浜市瀬谷区,南瀬谷１丁目４１番地の２,,14,114,2460034,,,2025-11-10,清算の結了等,,,2015-10-05,1,,,,,コウエイセツビコウギョウ,0
105,1020002086720,登記記録の閉鎖等,0,2025-11-18,2025-11-05,有限会社清和塗装工業,,有限会社,神奈川県,川崎市宮前区,平６丁目４番１１号,,14,136,2160022,,,2025-11-05,清算の結了等,,,2015-10-05,1,,,,,セイワトソウコウギョウ,0
115,1021002072413,登記記録の閉鎖等,0,2025-11-18,2025-10-27,有限会社フードビジネス総合研究所,,有限会社,神奈川県,平塚市,浅間町３番１６号,,14,203,2540041,,,2025-10-27,清算の結了等,,,2015-10-05,1,,,,,フードビジネスソウゴウケンキュウジョ,0
117,1030001106651,登記記録の閉鎖等,0,2025-11-18,2025-11-10,建工株式会社,,株式会社,埼玉県,深谷市,稲荷町２丁目２番２４号,,11,218,3660026,,,2025-11-10,清算の結了等,,,2015-10-05,1,,,,,ケンコウ,0
120,1030001137829,登記記録の閉鎖等,0,2025-11-18,2025-11-04,株式会社リアン・エム,,株式会社,埼玉県,さいたま市大宮区,仲町２丁目２４番地３,,11,103,3300845,,,2025-11-04,合併による解散等,9030001126972,令和７年１０月３１日埼玉県さいたま市浦和区高砂二丁目６番１１号株式会社リアン・アプリ（9030001126972）に合併し解散,2020-08-19,1,,,,,リアンエム,0
127,1040001073420,登記記録の閉鎖等,0,2025-11-18,2025-10-20,株式会社ショウナン工業,,株式会社,千葉県,八街市,八街ほ１８３番地７,,12,230,2891115,,,2025-10-20,清算の結了等,,,2015-10-05,1,,,,,,0
138,1040005014156,登記記録の閉鎖等,0,2025-11-18,2025-10-10,特定非営利活動法人いしずえ,,その他の設立登記法人,千葉県,柏市,大津ケ丘４丁目２８－７サンハイツ大津ケ丘２号棟２０２,,12,217,2770921,,,2025-10-10,清算の結了等,,,2015-10-05,1,,,,,イシズエ,0
144,1060002017564,登記記録の閉鎖等,0,2025-11-18,2025-11-12,有限会社廣澤商事,00024486,有限会社,栃木県,真岡市,台町４１５１番地１,,09,209,3214306,,,2025-11-12,清算の結了等,,,2015-10-05,1,,,,,ヒロサワショウジ,0
149,1080005007536,登記記録の閉鎖等,0,2025-11-18,2025-11-12,一般社団法人まんまる,,その他の設立登記法人,静岡県,静岡市駿河区,稲川３丁目５番３－９０２号,,22,102,4228062,,,2025-11-12,清算の結了等,,,2023-04-25,1,,,,,マンマル,0
152,1080405006963,登記記録の閉鎖等,0,2025-11-18,2025-11-10,特定非営利活動法人つなぐ自然未来,,その他の設立登記法人,静岡県,浜松市中央区,上島７丁目１０番１７号,,22,138,4338122,,,2025-11-10,清算の結了等,,,2017-04-06,1,,,,,ツナグシゼンミライ,0
156,1100001005796,登記記録の閉鎖等,0,2025-11-18,2025-11-13,株式会社カナイ製作所,,株式会社,長野県,上高井郡小布施町,大字雁田１２５８番地２,,20,541,3810211,,,2025-11-13,清算の結了等,,,2015-10-05,1,,,,,カナイセイサクショ,0
158,1100005011287,登記記録の閉鎖等,0,2025-11-18,2025-11-10,信州家電事業協同組合,,その他の設立登記法人,長野県,飯田市,通り町４丁目１３１１番地５,,20,205,3950043,,,2025-11-10,清算の結了等,,,2015-10-05,1,,,,,シンシュウカデン,0
160,1110005001667,登記記録の閉鎖等,0,2025-11-18,2025-10-17,天理教大上分教会,,その他の設立登記法人,新潟県,新潟市江南区,横越川根町１丁目７番６号,,15,104,9500211,,,2025-10-17,合併による解散等,9110005001296,令和７年１０月１７日新潟市中央区笹口三丁目９番地７天理教沼垂分教会（9110005001296）に合併し解散,2015-10-05,1,,,,,テンリキョウオオカミブンキョウカイ,0
199,1140001066595,登記記録の閉鎖等,0,2025-11-18,2025-11-11,株式会社コーディアルホーム,,株式会社,兵庫県,三田市,高次１丁目１０番２３号,,28,219,6691512,,,2025-11-11,清算の結了等,,,2015-10-05,1,,,,,コーディアルホーム,0
200,1140001076462,登記記録の閉鎖等,0,2025-11-18,2025-11-11,株式会社蓬＿精工,00040051,株式会社,兵庫県,加西市,野条町２９５番地の１,,28,220,6752202,,,2025-11-11,清算の結了等,,,2015-10-05,1,,,,,ホウライセイコウ,0
219,1180001116652,登記記録の閉鎖等,0,2025-11-18,2025-11-07,株式会社アサヒビジョン,,株式会社,愛知県,名古屋市西区,枇杷島３丁目１２番７号,,23,104,4510053,,,2025-11-07,合併による解散等,1180001100739,令和７年１０月３０日名古屋市西区則武新町二丁目１９番１１号株式会社トーメーコンタクトレンズ（1180001100739）に合併し解散,2015-10-05,1,,,,,アサヒビジョン,0
239,1180305005114,登記記録の閉鎖等,0,2025-11-18,2025-11-12,特定非営利活動法人ゆるりん,,その他の設立登記法人,愛知県,碧南市,東浦町１丁目３９番地２,,23,209,4470889,,,2025-11-12,清算の結了等,,,2015-10-05,1,,,,,ユルリン,0
240,1190001029713,登記記録の閉鎖等,0,2025-11-18,2025-11-06,株式会社たすける,,株式会社,三重県,四日市市,阿倉川町１０番２６号,,24,202,5100803,,,2025-11-06,清算の結了等,,,2022-08-25,1,,,,,タスケル,0
241,1190002000672,登記記録の閉鎖等,0,2025-11-18,2025-11-14,有限会社三和技術,,有限会社,三重県,津市,上浜町１丁目１２０番地の１,,24,201,5140008,,,2025-11-14,清算の結了等,,,2015-10-05,1,,,,,サンワギジュツ,0
250,1220002015824,登記記録の閉鎖等,0,2025-11-18,2025-11-06,有限会社田中自動車商会,,有限会社,石川県,鳳珠郡能登町,字松波１４字２０番地１,,17,463,9270602,,,2025-11-06,清算の結了等,,,2015-10-05,1,,,,,タナカジドウシャショウカイ,0
269,1300002001213,登記記録の閉鎖等,0,2025-11-18,2025-11-14,有限会社バウハウス,,有限会社,佐賀県,佐賀市,神園５丁目４番９号,,41,201,8400806,,,2025-11-14,清算の結了等,,,2015-10-05,1,,,,,バウハウス,0
270,1300002007103,登記記録の閉鎖等,0,2025-11-18,2025-11-13,有限会社田中建築,,有限会社,佐賀県,藤津郡太良町,大字多良１１８９番地１,,41,441,8491602,,,2025-11-13,清算の結了等,,,2015-10-05,1,,,,,タナカケンチク,0
271,1310002011186,登記記録の閉鎖等,0,2025-11-18,2025-11-13,有限会社橋口正栄堂,,有限会社,長崎県,佐世保市,上京町４番１４号,,42,202,8570872,,,2025-11-13,清算の結了等,,,2015-10-05,1,,,,,ハシグチショウエイドウ,0
278,1350002012610,登記記録の閉鎖等,0,2025-11-18,2025-11-12,有限会社フカダ商店,,有限会社,宮崎県,延岡市,長浜町２丁目２０７６番地３,,45,203,8820854,,,2025-11-12,清算の結了等,,,2015-10-05,1,,,,,フカダショウテン,0
301,1450002010356,登記記録の閉鎖等,0,2025-11-18,2025-11-12,有限会社沢田食品,,有限会社,北海道,士別市,東七条８丁目４５４番地９３,,01,220,0950017,,,2025-11-12,清算の結了等,,,2015-10-05,1,,,,,サワダショクヒン,0
327,2010401064921,登記記録の閉鎖等,0,2025-11-18,2025-10-27,株式会社ＳＰエージェンシー,,株式会社,東京都,港区,南青山２丁目２７番２８号,,13,103,1070062,,,2025-10-27,清算の結了等,,,2015-10-05,1,,,,,エスピーエージェンシー,0
334,2010402002228,登記記録の閉鎖等,0,2025-11-18,2025-10-27,有限会社エスファミーユ,,有限会社,東京都,港区,赤坂８丁目６番９－５１０号,,13,103,1070052,,,2025-10-27,清算の結了等,,,2015-10-05,1,,,,,エスファミーユ,0
352,2010901039043,登記記録の閉鎖等,0,2025-11-18,2025-10-17,株式会社トパーズ,,株式会社,東京都,渋谷区,千駄ヶ谷３丁目１２番１０－２０３号,,13,113,1510051,,,2025-10-17,清算の結了等,,,2016-11-09,1,,,,,トパーズ,0
362,2011003018415,登記記録の閉鎖等,0,2025-11-18,2025-10-17,合同会社５６プロダクション,,合同会社,東京都,渋谷区,道玄坂１丁目１０番８号渋谷道玄坂東急ビル２Ｆ－Ｃ,,13,113,1500043,,,2025-10-17,清算の結了等,,,2024-02-01,1,,,,,ゴーロクプロダクション,0
364,2011005009065,登記記録の閉鎖等,0,2025-11-18,2025-10-22,一般社団法人リスクファイナンス戦略研究所,,その他の設立登記法人,東京都,目黒区,下目黒１丁目８番１号アルコタワー７階,,13,110,1530064,,,2025-10-22,清算の結了等,,,2021-05-21,1,,,,,リスクファイナンスセンリャクケンキュウジョ,0
368,2011201006460,登記記録の閉鎖等,0,2025-11-18,2025-11-11,東和販売株式会社,,株式会社,東京都,中野区,南台４丁目４８番９号,,13,114,1640014,,,2025-11-11,清算の結了等,,,2015-10-05,1,,,,,トウワハンバイ,0
373,2011603003163,登記記録の閉鎖等,0,2025-11-18,2025-11-06,合同会社ラグーン,,合同会社,東京都,豊島区,南池袋１丁目９－１８－１４３号室,,13,116,1710022,,,2025-11-06,清算の結了等,,,2020-12-16,1,,,,,ラグーン,0
378,2012401011936,登記記録の閉鎖等,0,2025-11-18,2025-11-13,武蔵野青果食品株式会社,,株式会社,東京都,武蔵野市,吉祥寺本町１丁目８番１６号,,13,203,1800004,,,2025-11-13,清算の結了等,,,2015-10-05,1,,,,,ムサシノセイカショクヒン,0
383,2013102001045,登記記録の閉鎖等,0,2025-11-18,2025-11-17,有限会社オフィスアミー,,有限会社,東京都,羽村市,小作台１丁目２１番地の１,,13,227,2050001,,,2025-11-17,清算の結了等,,,2015-10-05,1,,,,,,0
402,2030001045576,登記記録の閉鎖等,0,2025-11-18,2025-11-10,株式会社梶本商店,,株式会社,埼玉県,新座市,野火止５丁目１５番８号,,11,230,3520011,,,2025-11-10,清算の結了等,,,2015-10-05,1,,,,,カジモトショウテン,0
403,2030001061301,登記記録の閉鎖等,0,2025-11-18,2025-11-07,株式会社ベルスタッフ,,株式会社,埼玉県,本庄市,本庄３丁目１２番９号,,11,211,3670051,,,2025-11-07,清算の結了等,,,2015-10-05,1,,,,,ベルスタッフ,0
404,2030001063058,登記記録の閉鎖等,0,2025-11-18,2025-10-20,株式会社デジエント,,株式会社,東京都,渋谷区,恵比寿４丁目２０番３号恵比寿ガーデンプレイスタワー１８階,,13,113,1500013,,,2025-10-20,清算の結了等,,,2015-10-05,1,,,,,,0
411,2030001156290,登記記録の閉鎖等,0,2025-11-18,2025-11-04,株式会社リアン・フォー,,株式会社,埼玉県,さいたま市浦和区,東仲町１１番１８号,,11,107,3300056,,,2025-11-04,合併による解散等,9030001126972,令和７年１０月３１日埼玉県さいたま市浦和区高砂二丁目６番１１号株式会社リアン・アプリ（9030001126972）に合併し解散,2023-09-27,1,,,,,リアンフォー,0
416,2030002090662,登記記録の閉鎖等,0,2025-11-18,2025-11-11,メートー建設有限会社,,有限会社,埼玉県,吉川市,中曽根１丁目１６番地２７,,11,243,3420033,,,2025-11-11,清算の結了等,,,2015-10-05,1,,,,,メートーケンセツ,0
417,2030003012624,登記記録の閉鎖等,0,2025-11-18,2025-10-16,ＹＰ合同会社,,合同会社,東京都,渋谷区,代々木１丁目３０番１５号,,13,113,1510053,,,2025-10-16,清算の結了等,,,2018-11-01,1,,,,,ワイピー,0
419,2030005017191,登記記録の閉鎖等,0,2025-11-18,2025-11-11,社会保険労務士法人野本事務所,,その他の設立登記法人,埼玉県,所沢市,大字中富９７９番地の１３,,11,208,3590002,,,2025-11-11,清算の結了等,,,2015-10-05,1,,,,,ノモトジムショ,0
421,2040001006098,登記記録の閉鎖等,0,2025-11-18,2025-10-16,株式会社パウス,,株式会社,千葉県,千葉市中央区,本町１丁目４番２１号,,12,101,2600012,,,2025-10-16,清算の結了等,,,2015-10-05,1,,,,,パウス,0
423,2040001049618,登記記録の閉鎖等,0,2025-11-18,2025-11-10,株式会社建機・杉浦,,株式会社,神奈川県,横浜市港北区,篠原町１０７４－２１,,14,109,2220026,,,2025-11-10,清算の結了等,,,2015-10-05,1,,,,,ケンキスギウラ,0
429,2040002078640,登記記録の閉鎖等,0,2025-11-18,2025-10-17,有限会社リレー工業,,有限会社,千葉県,千葉市緑区,あすみが丘東３丁目９番地１９,,12,105,2670067,,,2025-10-17,清算の結了等,,,2015-10-05,1,,,,,リレーコウギョウ,0
430,2040003011988,登記記録の閉鎖等,0,2025-11-18,2025-10-20,ヘルステックマーケティング合同会社,,合同会社,千葉県,浦安市,明海１丁目３番１－７０２号夢海の街,,12,227,2790014,,,2025-10-20,清算の結了等,,,2018-08-14,1,,,,,ヘルステックマーケティング,0
431,2040003021038,登記記録の閉鎖等,0,2025-11-18,2025-10-10,合同会社山室,,合同会社,千葉県,船橋市,咲が丘２丁目２３番１２号,,12,204,2740807,,,2025-10-10,清算の結了等,,,2022-10-13,1,,,,,ヤマムロ,0
436,2060002029113,登記記録の閉鎖等,0,2025-11-18,2025-11-13,有限会社ハッピーライフ,,有限会社,栃木県,小山市,駅東通り２丁目３８番６号,,09,208,3230022,,,2025-11-13,清算の結了等,,,2015-10-05,1,,,,,ハッピーライフ,0
443,2090005001099,登記記録の閉鎖等,0,2025-11-18,2025-10-06,天理教西甲明分教会,,その他の設立登記法人,山梨県,甲斐市,富竹新田１１９６番地４,,19,210,4000113,,,2025-10-06,合併による解散等,6090005000857,令和７年１０月６日山梨県甲府市城東三丁目１番２０号天理教峡中分教会（6090005000857）に合併し解散,2015-10-05,1,,,,,テンリキョウニシコウメイブンキョウカイ,0
446,2100003005075,登記記録の閉鎖等,0,2025-11-18,2025-11-13,合同会社輝,,合同会社,長野県,長野市,青木島町大塚１４７７番地７,,20,201,3812205,,,2025-11-13,清算の結了等,,,2018-08-13,1,,,,,カガヤキ,0
447,2100005007887,登記記録の閉鎖等,0,2025-11-18,2025-11-10,諏訪給食協同組合,,その他の設立登記法人,長野県,諏訪市,杉菜池１９０９番地１,,20,206,3920009,,,2025-11-10,清算の結了等,,,2015-10-05,1,,,,,スワキュウショク,0
450,2110002013912,登記記録の閉鎖等,0,2025-11-18,2025-11-05,有限会社リペアプランニング,,有限会社,新潟県,五泉市,五十嵐新田８４５番地１,,15,218,9591833,,,2025-11-05,清算の結了等,,,2015-10-05,1,,,,,リペアプランニング,0
452,2120001161686,登記記録の閉鎖等,0,2025-11-18,2025-11-13,株式会社グローバル・クレデンス,,株式会社,大阪府,大阪市中央区,高麗橋４丁目５番８号グローネット淀屋橋ビル６階,,27,128,5410043,,,2025-11-13,清算の結了等,,,2015-10-05,1,,,,,グローバルクレデンス,0
466,2122001038773,登記記録の閉鎖等,0,2025-11-18,2025-11-13,ブルーフレイム株式会社,,株式会社,大阪府,交野市,私部西１丁目３６番１０－１０２号,,27,230,5760041,,,2025-11-13,清算の結了等,,,2025-01-08,1,,,,,ブルーフレイム,0
481,2140002024436,登記記録の閉鎖等,0,2025-11-18,2025-11-12,有限会社Ｆｌａｐ　ｄｏｏ・ｄｌｅ,,有限会社,兵庫県,神戸市北区,道場町生野１１７２番地の３８９,,28,109,6511503,,,2025-11-12,清算の結了等,,,2015-10-05,1,,,,,フラップドゥドウル,0
488,2160002006829,登記記録の閉鎖等,0,2025-11-18,2025-11-14,有限会社中森工務店,,有限会社,滋賀県,長浜市,三ツ矢元町２７番９号,,25,203,5260024,,,2025-11-14,清算の結了等,,,2015-10-05,1,,,,,ナカモリコウムテン,0
492,2180001093338,登記記録の閉鎖等,0,2025-11-18,2025-11-04,株式会社ＨＹマネジメント,,株式会社,愛知県,知多郡南知多町,大字篠島字浦磯４４番地,,23,445,4703505,,,2025-11-04,清算の結了等,,,2015-10-05,1,,,,,エイチワイマネジメント,0
504,2180002054181,登記記録の閉鎖等,0,2025-11-18,2025-11-13,有限会社串安,,有限会社,愛知県,名古屋市瑞穂区,川澄町１丁目１番地の１７,,23,108,4670002,,,2025-11-13,清算の結了等,,,2015-10-05,1,,,,,クシヤス,0
506,2180003019745,登記記録の閉鎖等,0,2025-11-18,2025-11-13,ＫＡＮＥ　ＩＮＴＥＲＮＡＴＩＯＮＡＬ　ＴＥＣＨＮＯＬＯＧＹ　ＪＡＰＡＮ合同会社,,合同会社,愛知県,小牧市,大字大草２０３６番地,,23,219,4850802,,,2025-11-13,清算の結了等,,,2019-03-13,1,,,,,カネインターナショナルテクノロジージャパン,0
515,2200001002642,登記記録の閉鎖等,0,2025-11-18,2025-11-12,株式会社主婦の店岐阜鷺山店,,株式会社,岐阜県,岐阜市,鷺山１５３８番地,,21,201,5020851,,,2025-11-12,合併による解散等,9200001002215,令和７年１１月１２日岐阜市西荘三丁目１番７号株式会社三心（9200001002215）に合併し解散,2015-10-05,1,,,,,シュフノミセギフサギヤマテン,0
519,2200002021195,登記記録の閉鎖等,0,2025-11-18,2025-11-12,有限会社後藤陶土販売,,有限会社,岐阜県,土岐市,土岐口北町３丁目３０番地,,21,212,5095126,,,2025-11-12,清算の結了等,,,2015-10-05,1,,,,,ゴトウトウドハンバイ,0
551,2300005006456,登記記録の閉鎖等,0,2025-11-18,2025-10-30,特定非営利活動法人日本親育成実践協会,,その他の設立登記法人,佐賀県,鳥栖市,桜町１４６９番地,,41,203,8410014,,,2025-10-30,清算の結了等,,,2015-10-05,1,,,,,ニホンオヤイクセイジッセンキョウカイ,0
552,2310001005411,登記記録の閉鎖等,0,2025-11-18,2025-11-17,佐世保通運株式会社,,株式会社,長崎県,佐世保市,ハウステンボス町３５０９番地２,,42,202,8593243,,,2025-11-17,清算の結了等,,,2015-10-05,1,,,,,,0
561,2370005001756,登記記録の閉鎖等,0,2025-11-18,2025-11-07,宮城県製本工業組合,,その他の設立登記法人,宮城県,仙台市若林区,六丁の目西町６番１５号,,04,103,9840011,,,2025-11-07,清算の結了等,,,2015-10-05,1,,,,,ミヤギケンセイホン,0
567,2400001013636,登記記録の閉鎖等,0,2025-11-18,2025-11-07,株式会社スペースインテリア　タダ,,株式会社,岩手県,北上市,村崎野１５地割５３４番地８５,,03,206,0240004,,,2025-11-07,清算の結了等,,,2017-04-13,1,,,,,スペースインテリアタダ,0
574,2430002064072,登記記録の閉鎖等,0,2025-11-18,2025-11-13,有限会社共星堂,,有限会社,北海道,室蘭市,中央町１丁目３番１５号,,01,205,0510011,,,2025-11-13,清算の結了等,,,2015-10-05,1,,,,,キョウセイドウ,0
599,3010401102093,登記記録の閉鎖等,0,2025-11-18,2025-11-10,ライフタイムコンサルティング株式会社,,株式会社,東京都,千代田区,大手町２丁目３番２号,,13,101,1000004,,,2025-11-10,清算の結了等,,,2015-10-05,1,,,,,ライフタイムコンサルティング,0
600,3010401119798,登記記録の閉鎖等,0,2025-11-18,2025-11-04,株式会社エード開発,,株式会社,東京都,港区,虎ノ門３丁目７番１１号,,13,103,1050001,,,2025-11-04,合併による解散等,8010402034463,令和７年１１月１日東京都港区虎ノ門三丁目７番１１号神谷町アネックス２号館株式会社スカラビホールディングス（8010402034463）に合併し解散,2015-10-05,1,,,,,エードカイハツ,0
655,3012701009266,登記記録の閉鎖等,0,2025-11-18,2025-10-27,株式会社Ｂａｎｑｕｅｔ,,株式会社,神奈川県,相模原市中央区,淵野辺４丁目１７番１６号ＧＩＮＧＡＳＱＵＡＲＥ３階,,14,152,2520206,,,2025-10-27,清算の結了等,,,2015-10-05,1,,,,,バンクィット,0
661,3013301044026,登記記録の閉鎖等,0,2025-11-18,2025-11-06,株式会社日本整頭術協会,,株式会社,東京都,豊島区,南池袋２丁目２７番２号,,13,116,1710022,,,2025-11-06,清算の結了等,,,2019-06-13,1,,,,,ニホンセイトウジュツキョウカイ,0
663,3020001028944,登記記録の閉鎖等,0,2025-11-18,2025-11-10,株式会社松むら,,株式会社,神奈川県,横浜市中区,尾上町５丁目６２番地,,14,104,2310015,,,2025-11-10,清算の結了等,,,2015-10-05,1,,,,,マツムラ,0
666,3020001139287,登記記録の閉鎖等,0,2025-11-18,2025-11-07,株式会社まなひろ,,株式会社,神奈川県,横浜市青葉区,荏田北１丁目７番地１７,,14,117,2250015,,,2025-11-07,清算の結了等,,,2021-01-05,1,,,,,マナヒロ,0
671,3020003026509,登記記録の閉鎖等,0,2025-11-18,2025-10-02,アプレンティス合同会社,,合同会社,神奈川県,川崎市多摩区,宿河原１丁目１－１７－２０２,,14,135,2140021,,,2025-10-02,清算の結了等,,,2024-07-23,1,,,,,アプレンティス,0
678,3021002026350,登記記録の閉鎖等,0,2025-11-18,2025-10-27,有限会社シミズリビング,,有限会社,神奈川県,相模原市緑区,二本松１丁目２番２２号,,14,151,2520137,,,2025-10-27,清算の結了等,,,2015-10-05,1,,,,,シミズリビング,0
694,3030002098556,登記記録の閉鎖等,0,2025-11-18,2025-11-11,有限会社赤井商事,,有限会社,埼玉県,川口市,南鳩ヶ谷５丁目３４番４号,,11,203,3340013,,,2025-11-11,清算の結了等,,,2015-10-05,1,,,,,アカイショウジ,0
696,3040001065226,登記記録の閉鎖等,0,2025-11-18,2025-10-17,株式会社ヴォラン,,株式会社,千葉県,我孫子市,つくし野７丁目１番５号,,12,222,2701164,,,2025-10-17,清算の結了等,,,2015-10-05,1,,,,,,0
698,3040001097707,登記記録の閉鎖等,0,2025-11-18,2025-10-24,株式会社レイテスト,,株式会社,千葉県,千葉市中央区,椿森１丁目１１番７号,,12,101,2600042,,,2025-10-24,清算の結了等,,,2016-11-21,1,,,,,レイテスト,0
700,3040001108042,登記記録の閉鎖等,0,2025-11-18,2025-10-24,株式会社グラロス,,株式会社,千葉県,千葉市花見川区,幕張町５丁目４６５番地１,,12,102,2620032,,,2025-10-24,清算の結了等,,,2019-02-18,1,,,,,グラロス,0
701,3040001109585,登記記録の閉鎖等,0,2025-11-18,2025-10-07,三通株式会社,,株式会社,千葉県,船橋市,高根町２０６８番地,,12,204,2740817,,,2025-10-07,清算の結了等,,,2019-06-18,1,,,,,サンツウ,0
705,3040003002557,登記記録の閉鎖等,0,2025-11-18,2025-10-15,合同会社ＵＦ,,合同会社,千葉県,佐倉市,西志津３丁目２番１５号,,12,212,2850845,,,2025-10-15,清算の結了等,,,2015-10-05,1,,,,,ユーエフ,0
706,3040003013694,登記記録の閉鎖等,0,2025-11-18,2025-10-20,合同会社ブロックサンセット,,合同会社,千葉県,千葉市中央区,星久喜町４７０番地１０,,12,101,2600808,,,2025-10-20,清算の結了等,,,2019-07-16,1,,,,,ブロックサンセット,0
710,3050002008174,登記記録の閉鎖等,0,2025-11-18,2025-11-10,有限会社応用量子計測研究所,,有限会社,茨城県,ひたちなか市,大字中根３６００番地の１７２,,08,221,3120011,,,2025-11-10,清算の結了等,,,2015-10-05,1,,,,,オウヨウリョウシケイソクケンキュウジョ,0
713,3060003005129,登記記録の閉鎖等,0,2025-11-18,2025-11-14,合同会社ＡＫＫ,,合同会社,栃木県,足利市,中川町３６０６番地２,,09,202,3260825,,,2025-11-14,清算の結了等,,,2024-06-28,1,,,,,エーケーケー,0
716,3080001016200,登記記録の閉鎖等,0,2025-11-18,2025-11-12,株式会社バンデル,,株式会社,東京都,港区,南青山６丁目８番２号,,13,103,1070062,,,2025-11-12,合併による解散等,6120101000443,令和７年１１月１日広島市南区猿猴橋町４番５号株式会社サンライズホールディングス（6120101000443）に合併し解散,2015-10-05,1,,,,,バンデル,0
723,3120001127884,登記記録の閉鎖等,0,2025-11-18,2025-11-13,ジム電気株式会社,,株式会社,大阪府,大阪市生野区,新今里４丁目１１番２２号,,27,116,5440001,,,2025-11-13,清算の結了等,,,2015-10-05,1,,,,,ジムデンキ,0
727,3120001204411,登記記録の閉鎖等,0,2025-11-18,2025-11-14,日建サービス株式会社,,株式会社,大阪府,大阪市中央区,淡路町１丁目７番３号,,27,128,5410047,,,2025-11-14,合併による解散等,6120901027198,令和７年１１月１日大阪府豊中市岡上の町四丁目４番３号株式会社きんき保険ステーション（6120901027198）に合併し解散,2017-03-16,1,,,,,ニッケンサービス,0
731,3120001269660,登記記録の閉鎖等,0,2025-11-18,2025-11-14,新松商事株式会社,,株式会社,大阪府,大阪市中央区,南船場２丁目３番６号２階,,27,128,5420081,,,2025-11-14,清算の結了等,,,2024-10-30,1,,,,,シンマツショウジ,0
732,3120001270924,登記記録の閉鎖等,0,2025-11-18,2025-11-12,桜和株式会社,,株式会社,大阪府,大阪市西淀川区,佃３丁目１８番２５境ハイツ１０９号,,27,113,5550001,,,2025-11-12,清算の結了等,,,2024-12-06,1,,,,,オウワ,0
736,3120101006022,登記記録の閉鎖等,0,2025-11-18,2025-11-04,日之出精機株式会社,,株式会社,大阪府,堺市堺区,大仙西町６丁１７７番地,,27,141,5900821,,,2025-11-04,清算の結了等,,,2015-10-05,1,,,,,ヒノデセイキ,0
762,3140005025083,登記記録の閉鎖等,0,2025-11-18,2025-11-13,一般財団法人中右浮世絵振興財団,,その他の設立登記法人,兵庫県,神戸市灘区,篠原北町２丁目１番７号,,28,102,6570068,,,2025-11-13,清算の結了等,,,2020-04-03,1,,,,,ナカウウキヨエシンコウザイダン,0
766,3160001018403,登記記録の閉鎖等,0,2025-11-18,2025-11-06,株式会社ＧＲＯＷＴＨ　ＮＥＸＴ,,株式会社,滋賀県,東近江市,札の辻２丁目１番１４号,00044476,25,213,5270024,,,2025-11-06,清算の結了等,,,2015-10-05,1,,,,,グロースネクスト,0
787,3180005010024,登記記録の閉鎖等,0,2025-11-18,2025-10-14,天理教葉栗分教会,,その他の設立登記法人,愛知県,一宮市,島村字上深田７１番地,,23,203,4910121,,,2025-10-14,合併による解散等,8200005000810,令和７年１０月９日岐阜市本郷町四丁目２８番地天理教岐阜分教会（8200005000810）に合併し解散,2015-10-05,1,,,,,テンリキョウハグリブンキョウカイ,0
829,3330001031066,登記記録の閉鎖等,0,2025-11-18,2025-10-01,Ｗｅｌｌ‐ｂｅｉｎｇ　Ｔｒｕｃｋ　Ｄｒｉｖｅｒｓ株式会社,,株式会社,熊本県,八代市,毘舎丸町１番３号,,43,202,8660851,,,2025-10-01,合併による解散等,7330001026021,令和７年１０月１日熊本県八代市毘舎丸町１番３号株式会社ＭＡＴＳＵＫＩ（7330001026021）に合併し解散,2023-08-01,1,,,,,ウェルビーイングトラックドライバーズ,0
830,3340002012048,登記記録の閉鎖等,0,2025-11-18,2025-11-07,有限会社田之頭自動車,,有限会社,鹿児島県,鹿児島市,東開町３番地１２２,,46,201,8910115,,,2025-11-07,清算の結了等,,,2015-10-05,1,,,,,タノカシラジドウシャ,0
831,3340002023078,登記記録の閉鎖等,0,2025-11-18,2025-11-07,有限会社ライジングファーム,,有限会社,鹿児島県,出水市,浦田町１４５番地,,46,208,8990134,,,2025-11-07,清算の結了等,,,2015-10-05,1,,,,,ライジングファーム,0
847,3470001006302,登記記録の閉鎖等,0,2025-11-18,2025-11-12,株式会社オオシモエンタープライズ,,株式会社,香川県,高松市,小村町５０番地１１,,37,201,7610431,,,2025-11-12,清算の結了等,,,2015-10-05,1,,,,,,0
853,4010001241150,登記記録の閉鎖等,0,2025-11-18,2025-11-14,株式会社ＪＳＫ１７,,株式会社,東京都,千代田区,麹町２丁目６番地５,,13,101,1020083,,,2025-11-14,合併による解散等,6140001062714,令和７年１１月１日兵庫県姫路市青山北三丁目２８番３３号株式会社黒岩（6140001062714）に合併し解散,2023-12-27,1,,,,,ジェイエスケイジュウナナ,0
864,4010401179263,登記記録の閉鎖等,0,2025-11-18,2025-11-07,株式会社広済堂ハウスキーピングサービス,,株式会社,東京都,港区,芝浦１丁目２番３号シーバンスＳ館１３階,,13,103,1050023,,,2025-11-07,合併による解散等,6010001143691,令和７年１１月１日東京都港区芝浦一丁目２番３号シーバンスＳ館１３階株式会社広済堂ビジネスサポート（6010001143691）に合併し解散,2023-12-20,1,,,,,コウサイドウハウスキーピングサービス,0
866,4010403032271,登記記録の閉鎖等,0,2025-11-18,2025-10-17,合同会社Ｂｒｉｇｈｔ　Ｓｐａｒｋｓ,,合同会社,東京都,港区,南青山２丁目２番１５号,,13,103,1070062,,,2025-10-17,清算の結了等,,,2024-03-26,1,,,,,ブライトスパークス,0
891,4011101045045,登記記録の閉鎖等,0,2025-11-18,2025-11-14,株式会社ＭＡＮＧＯＳ,,株式会社,東京都,新宿区,市谷砂土原町３丁目４番２号,,13,104,1620842,,,2025-11-14,合併による解散等,5010001247989,令和７年１１月１日東京都千代田区大手町一丁目９番２号株式会社ＭＡＮＧＯＳ（5010001247989）に合併し解散,2015-10-05,1,,,,,マンゴーズ,0
904,4011801042630,登記記録の閉鎖等,0,2025-11-18,2025-11-10,株式会社シン遊,,株式会社,東京都,足立区,六月２丁目２１－１５,,13,121,1210814,,,2025-11-10,清算の結了等,,,2023-06-27,1,,,,,シンユウ,0
908,4012301006646,登記記録の閉鎖等,0,2025-11-18,2025-10-31,株式会社ブロードブロー,,株式会社,東京都,町田市,南つくし野１丁目８番１１号,,13,209,1940002,,,2025-10-31,清算の結了等,,,2015-10-05,1,,,,,ブロードブロー,0
918,4020001145805,登記記録の閉鎖等,0,2025-11-18,2025-11-11,ＮｅｗＳ　Ｌｏｇｉｓｔｉｃｓ株式会社,,株式会社,神奈川県,横浜市中区,本牧十二天３番地１０ＳＫＧビル,,14,104,2310803,,,2025-11-11,清算の結了等,,,2022-03-29,1,,,,,ニュースロジスティクス,0
924,4021001010825,登記記録の閉鎖等,0,2025-11-18,2025-10-27,株式会社蕗書房,,株式会社,神奈川県,小田原市,小竹７９４番地の５８,,14,206,2560802,,,2025-10-27,清算の結了等,,,2015-10-05,1,,,,,フキショボウ,0
925,4021001016046,登記記録の閉鎖等,0,2025-11-18,2025-10-27,株式会社みかわ,,株式会社,神奈川県,相模原市南区,松が枝町１８番１号,,14,153,2520313,,,2025-10-27,清算の結了等,,,2015-10-05,1,,,,,ミカワ,0
927,4021001064193,登記記録の閉鎖等,0,2025-11-18,2025-10-27,株式会社プラスシー,,株式会社,神奈川県,逗子市,桜山９丁目３番５５－３０２号,,14,208,2490005,,,2025-10-27,清算の結了等,,,2018-02-21,1,,,,,プラスシー,0
935,4030002008613,登記記録の閉鎖等,0,2025-11-18,2025-11-11,有限会社太陽クリーンサービス,,有限会社,埼玉県,さいたま市見沼区,島町１１２０番地の６,,11,104,3370006,,,2025-11-11,清算の結了等,,,2015-10-05,1,,,,,タイヨウクリーンサービス,0
937,4030002036754,登記記録の閉鎖等,0,2025-11-18,2025-11-05,有限会社ＪＯＩＮ　ＵＰ,,有限会社,埼玉県,狭山市,大字水野７９１番地の６７,,11,215,3501317,,,2025-11-05,清算の結了等,,,2015-10-05,1,,,,,ジョインアップ,0
940,4030002046150,登記記録の閉鎖等,0,2025-11-18,2025-11-10,有限会社ユーアイ電気,,有限会社,埼玉県,草加市,吉町４丁目６番４号,,11,221,3400017,,,2025-11-10,清算の結了等,,,2015-10-05,1,,,,,ユーアイデンキ,0
942,4030002113149,登記記録の閉鎖等,0,2025-11-18,2025-11-10,熊谷通商有限会社,,有限会社,埼玉県,熊谷市,中奈良１０６１番地,,11,202,3600801,,,2025-11-10,清算の結了等,,,2015-10-05,1,,,,,クマガヤツウショウ,0
944,4030003019881,登記記録の閉鎖等,0,2025-11-18,2025-11-13,イッツタイム合同会社,,合同会社,埼玉県,蓮田市,馬込３丁目１４２番地２,,11,238,3490114,,,2025-11-13,清算の結了等,,,2022-07-29,1,,,,,イッツタイム,0
945,4030005010236,登記記録の閉鎖等,0,2025-11-18,2025-11-11,医療法人社団温和会,,その他の設立登記法人,埼玉県,越谷市,北越谷２丁目２０番１１号,,11,222,3430026,,,2025-11-11,清算の結了等,,,2015-10-05,1,,,,,オンワカイ,0
948,4040001049376,登記記録の閉鎖等,0,2025-11-18,2025-10-24,株式会社ハイエスト,,株式会社,千葉県,佐倉市,下志津原１４８番地４,,12,212,2850842,,,2025-10-24,清算の結了等,,,2015-10-05,1,,,,,ハイエスト,0
966,4060001016837,登記記録の閉鎖等,0,2025-11-18,2025-11-14,関口空壜株式会社,,株式会社,栃木県,栃木市,都賀町木３３３番地３,,09,203,3280104,,,2025-11-14,清算の結了等,,,2015-10-05,1,,,,,セキグチクウビン,0
967,4060001030235,登記記録の閉鎖等,0,2025-11-18,2025-11-14,ＫＥＮＭＯＫＵ株式会社,,株式会社,栃木県,塩谷郡高根沢町,大字宝積寺２４１６番地,,09,386,3291233,,,2025-11-14,清算の結了等,,,2018-02-09,1,,,,,ケンモク,0
973,4080403004181,登記記録の閉鎖等,0,2025-11-18,2025-11-10,ヴォーグインサイト合同会社,,合同会社,静岡県,浜松市中央区,高町１０４番地,,22,138,4328015,,,2025-11-10,清算の結了等,,,2021-01-13,1,,,,,ヴォーグインサイト,0
975,4100002027671,登記記録の閉鎖等,0,2025-11-18,2025-11-12,有限会社あけぼの美容室,,有限会社,長野県,諏訪郡下諏訪町,５３１２番地,,20,361,3930000,,,2025-11-12,清算の結了等,,,2015-10-05,1,,,,,アケボノビヨウシツ,0
1001,4130005006133,登記記録の閉鎖等,0,2025-11-18,2025-11-11,特定非営利活動法人障がい者はあとの会,,その他の設立登記法人,京都府,京都市左京区,田中里ノ前町８０,,26,103,6068227,,,2025-11-11,清算の結了等,,,2015-10-05,1,,,,,ショウガイシャハアトノカイ,0
1002,4130005010754,登記記録の閉鎖等,0,2025-11-18,2025-11-13,特定非営利活動法人キッズランド・スマイル,,その他の設立登記法人,京都府,福知山市,土師宮町２丁目１８９番地,,26,201,6200856,,,2025-11-13,清算の結了等,,,2015-10-05,1,,,,,キッズランドスマイル,0
1012,4150002009351,登記記録の閉鎖等,0,2025-11-18,2025-11-06,有限会社星鶴,,有限会社,奈良県,香芝市,穴虫１０８９番地,,29,210,6390252,,,2025-11-06,清算の結了等,,,2015-10-05,1,,,,,ホシヅル,0
1013,4170001008955,登記記録の閉鎖等,0,2025-11-18,2025-11-14,株式会社山幸ホームアドバンス,,株式会社,和歌山県,田辺市,新庄町６４６番地,,30,206,6460011,,,2025-11-14,清算の結了等,,,2015-10-05,1,,,,,ヤマコウホームアドバンス,0
1053,4290001077617,登記記録の閉鎖等,0,2025-11-18,2025-11-04,メディカル・ケアライフ株式会社,,株式会社,福岡県,福岡市西区,野方６丁目２７番２号,,40,135,8190043,,,2025-11-04,清算の結了等,,,2017-04-24,1,,,,,メディカルケアライフ,0
1062,4290003012076,登記記録の閉鎖等,0,2025-11-18,2025-11-05,森の不動産ＦＯＲＥＳＴＡＴＥ合同会社,,合同会社,福岡県,大牟田市,上官町２丁目９３番９号,,40,202,8360866,,,2025-11-05,清算の結了等,,,2022-01-27,1,,,,,モリノフドウサンフォレステート,0
1067,4320005006444,登記記録の閉鎖等,0,2025-11-18,2025-11-07,豊後大野市土地開発公社,,その他の設立登記法人,大分県,豊後大野市,三重町市場１２００番地,,44,212,8797131,,,2025-11-07,清算の結了等,,,2015-10-05,1,,,,,ブンゴオオノシ,0
1071,4340005001204,登記記録の閉鎖等,0,2025-11-18,2025-11-10,医療法人たけ内科,,その他の設立登記法人,鹿児島県,鹿児島市,田上６丁目２２番６号,,46,201,8900034,,,2025-11-10,清算の結了等,,,2015-10-05,1,,,,,タケナイカ,0
1075,4370001005239,登記記録の閉鎖等,0,2025-11-18,2025-11-10,株式会社新東洋技術コンサルタント,,株式会社,宮城県,仙台市宮城野区,大梶１０番１９号,,04,102,9830835,,,2025-11-10,清算の結了等,,,2015-10-05,1,,,,,シントウヨウギジュツコンサルタント,0
1086,4420005002219,登記記録の閉鎖等,0,2025-11-18,2025-10-14,天理教北王陽分教会,,その他の設立登記法人,青森県,青森市,浪岡大字王余魚沢字北村元４番地,,02,201,0381313,,,2025-10-14,合併による解散等,8200005000810,令和７年１０月９日岐阜市本郷町四丁目２８番地天理教岐阜分教会（8200005000810）に合併し解散,2015-10-05,1,,,,,テンリキョウホクオウヨウブンキョウカイ,0
1087,4430001042903,登記記録の閉鎖等,0,2025-11-18,2025-11-13,北清コーポレーション株式会社,,株式会社,北海道,江別市,角山６９番地４,,01,217,0670052,,,2025-11-13,清算の結了等,,,2015-10-05,1,,,,,ホクセイコーポレーション,0
1106,5010001241257,登記記録の閉鎖等,0,2025-11-18,2025-11-05,株式会社康葵信,,株式会社,東京都,千代田区,神田三崎町１丁目１－１３菅谷ビル３階,,13,101,1010061,,,2025-11-05,清算の結了等,,,2024-01-05,1,,,,,コウキシン,0
1123,5010401010237,登記記録の閉鎖等,0,2025-11-18,2025-10-27,株式会社コドー,,株式会社,東京都,港区,南青山３丁目１８番３号,,13,103,1070062,,,2025-10-27,清算の結了等,,,2015-10-05,1,,,,,コドー,0
1132,5010403011423,登記記録の閉鎖等,0,2025-11-18,2025-10-17,Ｂｕｌｌｅｔ合同会社,,合同会社,東京都,渋谷区,東２丁目２３番８号,,13,113,1500011,,,2025-10-17,清算の結了等,,,2015-10-05,1,,,,,バレット,0
1135,5010405022030,登記記録の閉鎖等,0,2025-11-18,2025-10-28,一般社団法人東アジアＷＥＢ３．０実行推進委員会,,その他の設立登記法人,東京都,港区,愛宕１丁目１番１号,,13,103,1050002,,,2025-10-28,清算の結了等,,,2023-04-07,1,,,,,ヒガシアジアウェブサンテンゼロジッコウスイシンイインカイ,0
1140,5010601042708,登記記録の閉鎖等,0,2025-11-18,2025-10-29,だっくす物産株式会社,,株式会社,東京都,墨田区,東向島２丁目４７番１１号,,13,107,1310032,,,2025-10-29,清算の結了等,,,2015-10-05,1,,,,,ダックスブッサン,0
1145,5010801005134,登記記録の閉鎖等,0,2025-11-18,2025-10-22,株式会社シーエスデー,,株式会社,神奈川県,川崎市高津区,坂戸３丁目２番１号かながわサイエンスパーク西棟６階,,14,134,2130012,,,2025-10-22,合併による解散等,9010001252837,令和７年１０月１日東京都千代田区丸の内二丁目２番１号株式会社東京電力タイムレスキャピタルＳＰＣ第４号（9010001252837）に合併し解散,2015-10-05,1,,,,,シーエスデー,0
1150,5010903000818,登記記録の閉鎖等,0,2025-11-18,2025-11-04,合資会社さる川,,合資会社,東京都,世田谷区,成城４丁目３３番２－２０８号,,13,112,1570066,,,2025-11-04,清算の結了等,,,2015-10-05,1,,,,,サルカワ,0
1154,5011001115525,登記記録の閉鎖等,0,2025-11-18,2025-10-20,株式会社ベッソール,,株式会社,東京都,目黒区,平町１丁目２６番１７号,,13,110,1520032,,,2025-10-20,清算の結了等,,,2017-03-27,1,,,,,ベッソール,0
1162,5011101043378,登記記録の閉鎖等,0,2025-11-18,2025-10-16,株式会社今佐総業,,株式会社,東京都,新宿区,西新宿１丁目１３番１号,,13,104,1600023,,,2025-10-16,清算の結了等,,,2025-08-27,1,,,,,イマサソウギョウ,0
1169,5011101088547,登記記録の閉鎖等,0,2025-11-18,2025-11-04,Ｒ’ｓ　Ｓｉｇｎａｔｕｒｅ　Ｃｏｎｓｕｌｔｉｎｇ株式会社,,株式会社,東京都,港区,愛宕２丁目５番１号愛宕グリーンヒルズＭＯＲＩタワー２４階,,13,103,1050002,,,2025-11-04,清算の結了等,,,2019-08-07,1,,,,,アールズシグネチャーコンサルティング,0
1182,5011802005197,登記記録の閉鎖等,0,2025-11-18,2025-11-07,有限会社鶴滝製作所,,有限会社,東京都,葛飾区,堀切２丁目２７番５号,,13,122,1240006,,,2025-11-07,清算の結了等,,,2015-10-05,1,,,,,ツルタキセイサクショ,0
1197,5021001043626,登記記録の閉鎖等,0,2025-11-18,2025-11-04,スカラビジャパン株式会社,,株式会社,東京都,港区,虎ノ門３丁目７番１１号虎ノ門三須ビル,,13,103,1050001,,,2025-11-04,合併による解散等,8010402034463,令和７年１１月１日東京都港区虎ノ門三丁目７番１１号神谷町アネックス２号館株式会社スカラビホールディングス（8010402034463）に合併し解散,2015-10-05,1,,,,,スカラビジャパン,0
1207,5030001146628,登記記録の閉鎖等,0,2025-11-18,2025-10-27,太和国際観光株式会社,,株式会社,東京都,中央区,銀座７丁目１３番２０号銀座ＴＨビル９Ｆ,,13,102,1040061,,,2025-10-27,清算の結了等,,,2022-02-04,1,,,,,タイワコクサイカンコウ,0
1208,5030001152428,登記記録の閉鎖等,0,2025-11-18,2025-11-04,株式会社リアン・エル,,株式会社,埼玉県,さいたま市浦和区,仲町１丁目２番８号,,11,107,3300062,,,2025-11-04,合併による解散等,9030001126972,令和７年１０月３１日埼玉県さいたま市浦和区高砂二丁目６番１１号株式会社リアン・アプリ（9030001126972）に合併し解散,2023-02-15,1,,,,,リアンエル,0
1211,5030002121381,登記記録の閉鎖等,0,2025-11-18,2025-11-10,有限会社坂倉工務店,,有限会社,埼玉県,秩父市,上野町２３番１０号,,11,207,3680031,,,2025-11-10,清算の結了等,,,2015-10-05,1,,,,,サカクラコウムテン,0
1216,5040001081865,登記記録の閉鎖等,0,2025-11-18,2025-10-20,株式会社バリアブルリンク,,株式会社,千葉県,柏市,松葉町６丁目３１番５号,,12,217,2770827,,,2025-10-20,清算の結了等,,,2015-10-05,1,,,,,バリアブルリンク,0
1224,5080001001695,登記記録の閉鎖等,0,2025-11-18,2025-11-13,株式会社さくらやクリーニング,,株式会社,静岡県,静岡市駿河区,南八幡町２０番１４号,,22,102,4228074,,,2025-11-13,清算の結了等,,,2015-10-05,1,,,,,サクラヤクリーニング,0
1227,5080102002989,登記記録の閉鎖等,0,2025-11-18,2025-11-12,有限会社ヒデ,,有限会社,静岡県,沼津市,町方町９２番地,,22,203,4100882,,,2025-11-12,清算の結了等,,,2015-10-05,1,,,,,ヒデ,0
1230,5080402019386,登記記録の閉鎖等,0,2025-11-18,2025-11-10,有限会社イワタジムキ,,有限会社,静岡県,磐田市,城之崎２丁目７番地の５,,22,211,4380084,,,2025-11-10,清算の結了等,,,2015-10-05,1,,,,,イワタジムキ,0
1234,5110005016570,登記記録の閉鎖等,0,2025-11-18,2025-11-06,一般社団法人ヤーンクラフト普及協会,,その他の設立登記法人,新潟県,新発田市,緑町２丁目４番２４号,,15,206,9570018,,,2025-11-06,清算の結了等,,,2020-08-27,1,,,,,ヤーンクラフトフキュウキョウカイ,0
1275,5150001010615,登記記録の閉鎖等,0,2025-11-18,2025-11-14,株式会社清光ランジェリー,,株式会社,奈良県,橿原市,今井町３丁目５番６号,,29,205,6340812,,,2025-11-14,清算の結了等,,,2015-10-05,1,,,,,セイコウランジェリー,0
1276,5150001010796,登記記録の閉鎖等,0,2025-11-18,2025-11-14,株式会社南都衛材製作所,,株式会社,奈良県,橿原市,今井町３丁目５番６号,,29,205,6340812,,,2025-11-14,清算の結了等,,,2015-10-05,1,,,,,ナントエイザイセイサクショ,0
1278,5150005009323,登記記録の閉鎖等,0,2025-11-18,2025-11-17,一般社団法人新御所有害射猟会,,その他の設立登記法人,奈良県,御所市,大字戸毛９１７番地,,29,208,6392251,,,2025-11-17,清算の結了等,,,2021-08-25,1,,,,,シンゴセユウガイシャリョウカイ,0
1307,5220001019616,登記記録の閉鎖等,0,2025-11-18,2025-11-14,株式会社加賀観光ホテル,,株式会社,石川県,加賀市,片山津温泉ウ４１番地,,17,206,9220412,,,2025-11-14,合併による解散等,2140001042100,令和７年１１月１日兵庫県丹波篠山市東吹３３６番地１合同会社デカンショパワー（2140001042100）に合併し解散,2015-10-05,1,,,,,カガカンコウホテル,0
1310,5230005003697,登記記録の閉鎖等,0,2025-11-18,2025-10-14,日枝社,,その他の設立登記法人,富山県,魚津市,大熊１１０８番地,,16,204,9370835,,,2025-10-14,合併による解散等,4230005003590,令和７年１０月１４日富山県魚津市本町一丁目３番６号金刀比羅社（4230005003590）に合併し解散,2015-10-05,1,,,,,ヒエイシャ,0
1311,5240001016280,登記記録の閉鎖等,0,2025-11-18,2025-10-14,株式会社ＱＬＥＡ,,株式会社,東京都,千代田区,麹町１丁目８番,,13,101,1020083,,,2025-10-14,合併による解散等,2010401173887,令和７年１０月１日東京都千代田区麹町一丁目８番株式会社ＱＬＥＡ（2010401173887）に合併し、解散,2015-10-05,1,,,,,クリア,0
1313,5240002050741,登記記録の閉鎖等,0,2025-11-18,2025-11-11,新和商事有限会社,,有限会社,広島県,尾道市,因島原町１０８７番地の２,,34,205,7222432,,,2025-11-11,清算の結了等,,,2015-10-05,1,,,,,シンワショウジ,0
1320,5290001040425,登記記録の閉鎖等,0,2025-11-18,2025-10-31,株式会社アスカ住宅,,株式会社,福岡県,筑紫野市,二日市中央１丁目８番１７号,,40,217,8180072,,,2025-10-31,清算の結了等,,,2015-10-05,1,,,,,アスカジュウタク,0
1340,5360001008183,登記記録の閉鎖等,0,2025-11-18,2025-11-14,株式会社親ヶ原興産,,株式会社,沖縄県,南城市,玉城字垣花４２５番地２,,47,215,9010601,,,2025-11-14,清算の結了等,,,2015-10-05,1,,,,,オヤケバルコウサン,0
1343,5370202003619,登記記録の閉鎖等,0,2025-11-18,2025-11-07,有限会社飛鳥,,有限会社,宮城県,大崎市,田尻字御蔵１２番地,,04,215,9894415,,,2025-11-07,清算の結了等,,,2015-10-05,1,,,,,アスカ,0
1344,5380002017958,登記記録の閉鎖等,0,2025-11-18,2025-11-12,有限会社白河ファーム,,有限会社,福島県,西白河郡泉崎村,大字泉崎字新宿１８番地２,,07,464,9690101,,,2025-11-12,清算の結了等,,,2015-10-05,1,,,,,シラカワファーム,0
1345,5390002003809,登記記録の閉鎖等,0,2025-11-18,2025-11-14,有限会社小松会計事務所,,有限会社,山形県,山形市,下条町２丁目１８番１２号,,06,201,9900823,,,2025-11-14,清算の結了等,,,2015-10-05,1,,,,,コマツカイケイジムショ,0
1352,5430001077056,登記記録の閉鎖等,0,2025-11-18,2025-11-13,株式会社なるきべ,,株式会社,北海道,札幌市北区,北二十八条西１２丁目３番１２号福住ビル１Ｆ,,01,102,0010028,,,2025-11-13,清算の結了等,,,2018-07-23,1,,,,,ナルキベ,0
1356,5430002003234,登記記録の閉鎖等,0,2025-11-18,2025-11-12,有限会社エヌ・エム・シー,,有限会社,北海道,札幌市厚別区,厚別北一条１丁目５番８号,,01,108,0040071,,,2025-11-12,清算の結了等,,,2015-10-05,1,,,,,エヌエムシー,0
1358,5430002017036,登記記録の閉鎖等,0,2025-11-18,2025-11-04,有限会社フクヤマ企画,,有限会社,北海道,札幌市西区,二十四軒三条７丁目３番３５号,,01,107,0630803,,,2025-11-04,合併による解散等,1430001014376,令和７年１１月１日札幌市西区二十四軒三条七丁目３番３５号福山石油株式会社（1430001014376）に合併し解散,2015-10-05,1,,,,,フクヤマキカク,0
1359,5430005004601,登記記録の閉鎖等,0,2025-11-18,2025-09-12,天理教聚富分教会,,その他の設立登記法人,北海道,石狩市,八幡２丁目７１番地２,,01,235,0613361,,,2025-09-12,合併による解散等,7430005000474,令和７年９月１２日札幌市清田区北野七条四丁目９番１０号天理教統北分教会（7430005000474）に合併し解散,2015-10-05,1,,,,,テンリキョウシュップブンキョウカイ,0
1362,5470001011077,登記記録の閉鎖等,0,2025-11-18,2025-10-15,株式会社香西物産,,株式会社,香川県,さぬき市,鴨庄４３７４番地４４,,37,206,7692102,,,2025-10-15,合併による解散等,1012401018437,令和７年１０月１日東京都調布市富士見町二丁目１番地１２株式会社大倉（1012401018437）に合併し解散,2015-10-05,1,,,,,コウザイブッサン,0
1379,6010003033610,登記記録の閉鎖等,0,2025-11-18,2025-10-30,合同会社ディアオパール,,合同会社,東京都,中央区,銀座１丁目２２番１１号銀座大竹ビジデンス２階,,13,102,1040061,,,2025-10-30,清算の結了等,,,2020-11-25,1,,,,,ディアオパール,0
1380,6010003044797,登記記録の閉鎖等,0,2025-11-18,2025-10-28,ＧｅｎＡＩ　ＳＬ合同会社,,合同会社,東京都,千代田区,麹町１丁目４番地４－２階,,13,101,1020083,,,2025-10-28,清算の結了等,,,2024-09-09,1,,,,,ジェンエーアイエスエル,0
1383,6010101014363,登記記録の閉鎖等,0,2025-11-18,2025-11-17,ＧＯＺＡＬｅａｒｎ株式会社,,株式会社,東京都,八王子市,館町５３７番地７,,13,201,1930944,,,2025-11-17,清算の結了等,,,2020-10-01,1,,,,,ゴザラーン,0
1388,6010401067326,登記記録の閉鎖等,0,2025-11-18,2025-11-07,ヒルシュマンオートメーションアンドコントロール株式会社,,株式会社,神奈川県,横浜市西区,みなとみらい２丁目２番１号横浜ランドマークプラザ５階,,14,103,2200012,,,2025-11-07,清算の結了等,,,2015-10-05,1,,,,,ヒルシュマンオートメーションアンドコントロール,0
1389,6010401085815,登記記録の閉鎖等,0,2025-11-18,2025-10-30,株式会社エスアイ,,株式会社,神奈川県,藤沢市,辻堂西海岸３丁目１番２７－４０７号,,14,205,2510046,,,2025-10-30,清算の結了等,,,2015-10-05,1,,,,,エスアイ,0
1408,6010801030957,登記記録の閉鎖等,0,2025-11-18,2025-10-15,ＰｏｗｅｒＬｕｔｉｏｎ　Ｊａｐａｎ株式会社,,株式会社,千葉県,千葉市稲毛区,稲毛３丁目８番３３－１号,,12,103,2630034,,,2025-10-15,清算の結了等,,,2020-06-11,1,,,,,パワールーションジャパン,0
1425,6011003013164,登記記録の閉鎖等,0,2025-11-18,2025-10-17,合同会社Ｍ＆Ａ,,合同会社,東京都,目黒区,自由が丘１丁目１３番１０号,,13,110,1520035,,,2025-10-17,清算の結了等,,,2021-08-06,1,,,,,エムアンドエー,0
1437,6011702007516,登記記録の閉鎖等,0,2025-11-18,2025-11-10,有限会社長生堂,,有限会社,東京都,江戸川区,北小岩２丁目２６番３号,,13,123,1330051,,,2025-11-10,清算の結了等,,,2015-10-05,1,,,,,チョウセイドウ,0
1439,6011801021310,登記記録の閉鎖等,0,2025-11-18,2025-11-11,株式会社ＡＫＨ,,株式会社,東京都,足立区,東和３丁目１１番９号田口ビル１階,,13,121,1200003,,,2025-11-11,清算の結了等,,,2015-10-05,1,,,,,エイケーエイチ,0
1448,6012402016435,登記記録の閉鎖等,0,2025-11-18,2025-11-17,有限会社オガワ機材,,有限会社,東京都,武蔵野市,吉祥寺東町１丁目１９番１５号,,13,203,1800002,,,2025-11-17,清算の結了等,,,2015-10-05,1,,,,,オガワキザイ,0
1466,6020002089388,登記記録の閉鎖等,0,2025-11-18,2025-11-10,有限会社信栄電機製作所,,有限会社,神奈川県,川崎市高津区,久末２０９９番地３,,14,134,2130026,,,2025-11-10,清算の結了等,,,2015-10-05,1,,,,,シンエイデンキセイサクジョ,0
1472,6021001075115,登記記録の閉鎖等,0,2025-11-18,2025-10-27,株式会社ｍｉｍｏｓａ,,株式会社,神奈川県,藤沢市,花の木３番１２－３１３号,,14,205,2510874,,,2025-10-27,清算の結了等,,,2022-02-03,1,,,,,ミモサ,0
1479,6030001130614,登記記録の閉鎖等,0,2025-11-18,2025-11-04,株式会社リアン・ラッシュ,,株式会社,埼玉県,熊谷市,円光１丁目１６番１４号,,11,202,3600813,,,2025-11-04,合併による解散等,3030001106410,令和７年１０月３１日埼玉県熊谷市中西一丁目３番２４号リアン・イノベーション株式会社（3030001106410）に合併し解散,2019-04-25,1,,,,,リアンラッシュ,0
1483,6040001093942,登記記録の閉鎖等,0,2025-11-18,2025-10-16,株式会社ＫＵＲＯＳＡＫＩ,,株式会社,千葉県,東金市,広瀬４２１番地８,,12,213,2830041,,,2025-10-16,清算の結了等,,,2016-02-08,1,,,,,クロサキ,0
1484,6040001099931,登記記録の閉鎖等,0,2025-11-18,2025-10-20,株式会社フエロ,,株式会社,千葉県,市川市,八幡３丁目５番１－６０４号,,12,203,2720021,,,2025-10-20,清算の結了等,,,2017-05-01,1,,,,,フエロ,0
1488,6040002005483,登記記録の閉鎖等,0,2025-11-18,2025-10-07,有限会社仁兵衛,,有限会社,千葉県,千葉市緑区,平川町１６２２番地１１,,12,105,2660004,,,2025-10-07,清算の結了等,,,2015-10-05,1,,,,,ニヘエ,0
1498,6050002020531,登記記録の閉鎖等,0,2025-11-18,2025-10-17,カネタ通商有限会社,,有限会社,千葉県,野田市,木間ケ瀬９７３番地,,12,208,2700222,,,2025-10-17,清算の結了等,,,2015-10-05,1,,,,,,0
1513,6080401020195,登記記録の閉鎖等,0,2025-11-18,2025-11-10,株式会社キャピタルモア,,株式会社,静岡県,浜松市中央区,大平台２丁目２４番３号,,22,138,4328068,,,2025-11-10,清算の結了等,,,2015-10-05,1,,,,,キャピタルモア,0
1517,6100003007646,登記記録の閉鎖等,0,2025-11-18,2025-11-12,昇楽合同会社,,合同会社,長野県,上田市,浦野２１番地４５の２,,20,203,3861546,,,2025-11-12,清算の結了等,,,2024-07-18,1,,,,,ショウラク,0
1518,6110001002318,登記記録の閉鎖等,0,2025-11-18,2025-11-11,株式会社三和住設エネルギー,,株式会社,新潟県,新潟市中央区,西馬越７番１８号,,15,103,9500866,,,2025-11-11,清算の結了等,,,2015-10-05,1,,,,,サンワジュウセツエネルギー,0
1520,6110002006540,登記記録の閉鎖等,0,2025-11-18,2025-11-12,有限会社村山電機商会,,有限会社,新潟県,新潟市中央区,雪町２０２６番地,,15,103,9518058,,,2025-11-12,清算の結了等,,,2015-10-05,1,,,,,ムラヤマデンキショウカイ,0
1523,6120001109450,登記記録の閉鎖等,0,2025-11-18,2025-11-14,株式会社リアライズ,,株式会社,大阪府,大阪市中央区,谷町６丁目６番７号,,27,128,5420012,,,2025-11-14,清算の結了等,,,2015-10-05,1,,,,,リアライズ,0
1527,6120001259262,登記記録の閉鎖等,0,2025-11-18,2025-10-27,株式会社忍,,株式会社,大阪府,大阪市北区,本庄西３丁目２番２５－４０７号,,27,127,5310073,,,2025-10-27,清算の結了等,,,2023-10-27,1,,,,,ニン,0
1560,6140002062085,登記記録の閉鎖等,0,2025-11-18,2025-11-10,藤正織布有限会社,,有限会社,兵庫県,多可郡多可町,八千代区下野間１４９番地,,28,365,6770122,,,2025-11-10,清算の結了等,,,2015-10-05,1,,,,,フジマサショクフ,0
1578,6180302009352,登記記録の閉鎖等,0,2025-11-18,2025-11-12,有限会社日比野商会,,有限会社,愛知県,豊橋市,柱七番町９４番地,,23,201,4418057,,,2025-11-12,清算の結了等,,,2015-10-05,1,,,,,ヒビノショウカイ,0
1579,6180302024616,登記記録の閉鎖等,0,2025-11-18,2025-11-13,有限会社増田建設,,有限会社,愛知県,豊田市,旭八幡町訳田３２１番地,,23,211,4442843,,,2025-11-13,清算の結了等,,,2015-10-05,1,,,,,マスダケンセツ,0
1581,6190001028553,登記記録の閉鎖等,0,2025-11-18,2025-11-12,株式会社きらり薬局,,株式会社,三重県,津市,半田字平木２０２番地４,,24,201,5140823,,,2025-11-12,合併による解散等,6030001066965,令和７年１０月１日大阪府茨木市西駅前町１３番２５号株式会社ウィーズ（6030001066965）に合併し解散,2021-08-02,1,,,,,キラリヤッキョク,0
1589,6200005012163,登記記録の閉鎖等,0,2025-11-18,2025-11-12,医療法人公孫樹,,その他の設立登記法人,岐阜県,岐阜市,長住町２丁目３番地岐阜ビル３階,,21,201,5008175,,,2025-11-12,清算の結了等,,,2015-10-05,1,,,,,コウソンジュ,0
1595,6260001013688,登記記録の閉鎖等,0,2025-11-18,2025-11-12,杉屋染工株式会社,,株式会社,岡山県,倉敷市,児島下の町９丁目８番１０号,,33,202,7110906,,,2025-11-12,清算の結了等,,,2015-10-05,1,,,,,スギヤセンコウ,0
1599,6260002029551,登記記録の閉鎖等,0,2025-11-18,2025-11-06,有限会社宗安疂店,,有限会社,岡山県,苫田郡鏡野町,吉原３０４番地の３,,33,606,7080332,,,2025-11-06,清算の結了等,,,2015-10-05,1,,,,,ムネヤスタタミテン,0
1616,6300001006571,登記記録の閉鎖等,0,2025-11-18,2025-11-06,東陽木材工業株式会社,,株式会社,福岡県,久留米市,城島町江島１３１番地９,,40,203,8300216,,,2025-11-06,清算の結了等,,,2015-10-05,1,,,,,トウヨウモクザイコウギョウ,0
1622,6330002030378,登記記録の閉鎖等,0,2025-11-18,2025-11-05,有限会社錦建設,,有限会社,熊本県,球磨郡錦町,大字一武３８６８番地,,43,501,8680302,,,2025-11-05,清算の結了等,,,2015-10-05,1,,,,,,0
1625,6340002019890,登記記録の閉鎖等,0,2025-11-18,2025-11-10,有限会社奄美物産ハブセンター,,有限会社,鹿児島県,大島郡天城町,大字松原１９０１番地１,,46,531,8917602,,,2025-11-10,清算の結了等,,,2015-10-05,1,,,,,,0
1627,6360001027315,登記記録の閉鎖等,0,2025-11-18,2025-10-15,株式会社太陽旅行社,,株式会社,沖縄県,那覇市,辻２丁目１番５号３Ｆ,,47,201,9000037,,,2025-10-15,合併による解散等,3360002008721,令和７年１０月１５日沖縄県豊見城市字与根３１４－１１ボストンハウス弐番館１０１号室株式会社プラチナキャビン（3360002008721）に合併し解散,2020-06-09,1,,,,,タイヨウリョコウシャ,0
1631,6370001044103,登記記録の閉鎖等,0,2025-11-18,2025-11-10,株式会社彦坂,,株式会社,宮城県,仙台市青葉区,国分町２丁目２番１１号,,04,101,9800803,,,2025-11-10,清算の結了等,,,2019-03-07,1,,,,,ヒコサカ,0
1633,6370002012249,登記記録の閉鎖等,0,2025-11-18,2025-11-07,有限会社千代田ビジネス,,有限会社,宮城県,仙台市青葉区,一番町１丁目１６番１２,,04,101,9800811,,,2025-11-07,清算の結了等,,,2015-10-05,1,,,,,チヨダビジネス,0
1634,6370002012620,登記記録の閉鎖等,0,2025-11-18,2025-11-07,有限会社習志野,,有限会社,宮城県,仙台市青葉区,広瀬町６番１６号,,04,101,9800873,,,2025-11-07,清算の結了等,,,2015-10-05,1,,,,,ナラシノ,0
1635,6370003006778,登記記録の閉鎖等,0,2025-11-18,2025-11-10,ＳＡＩＫＩ斉喜合同会社,,合同会社,宮城県,遠田郡美里町,福ケ袋字辻屋敷３６番地３,,04,505,9894202,,,2025-11-10,清算の結了等,,,2024-10-10,1,,,,,サイキサイキ,0
1637,6370202004228,登記記録の閉鎖等,0,2025-11-18,2025-11-07,有限会社田尻もち工房ふっくら,,有限会社,宮城県,大崎市,田尻通木字中崎２５番地５,,04,215,9894413,,,2025-11-07,清算の結了等,,,2015-10-05,1,,,,,タジリモチコウボウフックラ,0
1685,7010502022096,登記記録の閉鎖等,0,2025-11-18,2025-11-10,有限会社青田不動産企画事務所,,有限会社,東京都,台東区,北上野１丁目７番７プチモンド上野６０３号,,13,106,1100014,,,2025-11-10,清算の結了等,,,2015-10-05,1,,,,,アオタフドウサンキカクジムショ,0
1714,7012301010570,登記記録の閉鎖等,0,2025-11-18,2025-11-04,早稲田プラス株式会社,,株式会社,東京都,町田市,南成瀬４丁目１番２号,,13,209,1940045,,,2025-11-04,清算の結了等,,,2016-06-06,1,,,,,ワセダプラス,0
1732,7021001047492,登記記録の閉鎖等,0,2025-11-18,2025-10-24,株式会社凜龍,,株式会社,神奈川県,藤沢市,鵠沼海岸４丁目２１番９号,,14,205,2510037,,,2025-10-24,清算の結了等,,,2015-10-05,1,,,,,リンリュウ,0
1736,7021005004960,登記記録の閉鎖等,0,2025-11-18,2025-10-30,海老名第一商業協同組合,,その他の設立登記法人,神奈川県,海老名市,中央３丁目３番３２号グランドール海老名４０１Ａ,,14,215,2430432,,,2025-10-30,清算の結了等,,,2015-10-05,1,,,,,エビナダイイチショウギョウ,0
1739,7030001012522,登記記録の閉鎖等,0,2025-11-18,2025-11-10,日本エルゴノミクス株式会社,,株式会社,埼玉県,さいたま市北区,植竹町１丁目１４３番地３号,,11,102,3310813,,,2025-11-10,清算の結了等,,,2015-10-05,1,,,,,ニホンエルゴノミクス,0
1740,7030001140769,登記記録の閉鎖等,0,2025-11-18,2025-11-04,株式会社リアン・オー,,株式会社,埼玉県,さいたま市浦和区,仲町１丁目２番１４号,,11,107,3300062,,,2025-11-04,合併による解散等,9030001126972,令和７年１０月３１日埼玉県さいたま市浦和区高砂二丁目６番１１号株式会社リアン・アプリ（9030001126972）に合併し解散,2021-02-16,1,,,,,リアンオー,0
1741,7030001142996,登記記録の閉鎖等,0,2025-11-18,2025-11-04,株式会社リアン・エー,,株式会社,埼玉県,上尾市,上町１丁目１番１５号,,11,219,3620037,,,2025-11-04,合併による解散等,9030001126972,令和７年１０月３１日埼玉県さいたま市浦和区高砂二丁目６番１１号株式会社リアン・アプリ（9030001126972）に合併し解散,2021-06-29,1,,,,,リアンエー,0
1743,7030002037205,登記記録の閉鎖等,0,2025-11-18,2025-11-11,有限会社諸井設計,,有限会社,埼玉県,入間市,大字野田９２１番地２,,11,225,3580054,,,2025-11-11,清算の結了等,,,2015-10-05,1,,,,,モロイセッケイ,0
1744,7030005021998,登記記録の閉鎖等,0,2025-11-18,2025-11-12,一般社団法人ビッグエアワールドカップジャパン準備委員会,,その他の設立登記法人,埼玉県,比企郡嵐山町,大字古里１１８０番地１,,11,342,3550201,,,2025-11-12,清算の結了等,,,2024-12-27,1,,,,,ビッグエアワールドカップジャパンジュンビイインカイ,0
1747,7040001024343,登記記録の閉鎖等,0,2025-11-18,2025-11-13,プロトマニュファクチュアリング株式会社,,株式会社,愛知県,稲沢市,奥田中切町８２番地,,23,220,4928239,,,2025-11-13,清算の結了等,,,2015-10-05,1,,,,,プロトマニュファクチュアリング,0
1757,7040002049125,登記記録の閉鎖等,0,2025-11-18,2025-10-16,有限会社メカボデー西方,,有限会社,千葉県,松戸市,紙敷１４５１番地,,12,207,2702221,,,2025-10-16,清算の結了等,,,2015-10-05,1,,,,,メカボデーニシカタ,0
1758,7040002060024,登記記録の閉鎖等,0,2025-11-18,2025-10-15,アートオール有限会社,,有限会社,千葉県,白井市,南山１丁目２番３棟１０４号,,12,232,2701423,,,2025-10-15,清算の結了等,,,2015-10-05,1,,,,,アートオール,0
1759,7040002090062,登記記録の閉鎖等,0,2025-11-18,2025-10-20,有限会社ジーティー,,有限会社,千葉県,柏市,豊住５丁目１番８号,,12,217,2770071,,,2025-10-20,清算の結了等,,,2015-10-05,1,,,,,ジーティー,0
1763,7040005013680,登記記録の閉鎖等,0,2025-11-18,2025-10-14,柏市土地開発公社,,その他の設立登記法人,千葉県,柏市,柏５丁目１０番１号,,12,217,2770005,,,2025-10-14,清算の結了等,,,2015-10-05,1,,,,,カシワシトシカイハツコウシャ,0
1784,7120002003206,登記記録の閉鎖等,0,2025-11-18,2025-11-10,有限会社信光警備,,有限会社,大阪府,大阪市阿倍野区,西田辺町２丁目３番２９号,,27,119,5450014,,,2025-11-10,清算の結了等,,,2015-10-05,1,,,,,シンコウケイビ,0
1799,7140001002405,登記記録の閉鎖等,0,2025-11-18,2025-11-10,藤利株式会社,,株式会社,兵庫県,神戸市東灘区,住吉宮町３丁目７番６号,,28,101,6580053,,,2025-11-10,清算の結了等,,,2015-10-05,1,,,,,トウリ,0
1807,7140002053208,登記記録の閉鎖等,0,2025-11-18,2025-11-11,有限会社フジヤストアー,,有限会社,兵庫県,神崎郡神河町,中村１６２番地,,28,446,6792413,,,2025-11-11,清算の結了等,,,2015-10-05,1,,,,,フジヤストアー,0
1818,7180302012669,登記記録の閉鎖等,0,2025-11-18,2025-11-13,有限会社愛田商会,,有限会社,愛知県,豊川市,開運通２丁目１８番地,,23,207,4420048,,,2025-11-13,清算の結了等,,,2015-10-05,1,,,,,アイダショウカイ,0
1820,7200001041529,登記記録の閉鎖等,0,2025-11-18,2025-11-10,株式会社ＳＳＲ,,株式会社,岐阜県,高山市,久々野町久々野２１６０,,21,203,5093205,,,2025-11-10,清算の結了等,,,2023-07-26,1,,,,,エスエスアール,0
1839,7290001052798,登記記録の閉鎖等,0,2025-11-18,2025-10-31,九州水産株式会社,,株式会社,福岡県,柳川市,大和町谷垣５０７番地の２,,40,207,8390264,,,2025-10-31,清算の結了等,,,2015-10-05,1,,,,,キュウシュウスイサン,0
1842,7290001107445,登記記録の閉鎖等,0,2025-11-18,2025-11-04,濤国際文化株式会社,,株式会社,福岡県,福岡市西区,小戸３丁目３１番２２シャ－ミー小戸公園２０１号,,40,135,8190001,,,2025-11-04,清算の結了等,,,2024-10-04,1,,,,,トウコクサイブンカ,0
1845,7290002025456,登記記録の閉鎖等,0,2025-11-18,2025-11-07,有限会社早良金属工業,,有限会社,福岡県,福岡市博多区,東那珂１丁目１２番４５－１０５号,,40,132,8120892,,,2025-11-07,清算の結了等,,,2015-10-05,1,,,,,サワラキンゾクコウギョウ,0
1847,7290002043994,登記記録の閉鎖等,0,2025-11-18,2025-11-05,有限会社デーリィ林田,,有限会社,福岡県,朝倉市,福光３３番地の３,,40,228,8380034,,,2025-11-05,清算の結了等,,,2015-10-05,1,,,,,デーリィハヤシダ,0
1851,7310001007361,登記記録の閉鎖等,0,2025-11-18,2025-11-14,株式会社ワークアットホーム,,株式会社,長崎県,佐世保市,もみじが丘町４０番地３０,,42,202,8571153,,,2025-11-14,清算の結了等,,,2015-10-05,1,,,,,ワークアットホーム,0
1857,7350003003025,登記記録の閉鎖等,0,2025-11-18,2025-10-31,リードフォーシーズン合同会社,,合同会社,宮崎県,宮崎市,大塚町横立１５０９番地５,,45,201,8800951,,,2025-10-31,清算の結了等,,,2017-12-27,1,,,,,リードフォーシーズン,0
1859,7360003013816,登記記録の閉鎖等,0,2025-11-18,2025-11-17,合同会社Ｔｈｅべすと,,合同会社,沖縄県,沖縄市,照屋２丁目２番２６号,,47,211,9040011,,,2025-11-17,清算の結了等,,,2024-03-19,1,,,,,,0
1865,7370802001202,登記記録の閉鎖等,0,2025-11-18,2025-10-29,有限会社エスピー商事,,有限会社,宮城県,多賀城市,東田中２丁目３８番１４号,,04,209,9850863,,,2025-10-29,清算の結了等,,,2015-10-05,1,,,,,エスピーショウジ,0
1866,7380001018435,登記記録の閉鎖等,0,2025-11-18,2025-11-10,牧野木材工業株式会社,,株式会社,福島県,河沼郡柳津町,大字柳津字家ノ北山丙３７８番地,,07,423,9697201,,,2025-11-10,清算の結了等,,,2015-10-05,1,,,,,マキノモクザイコウギョウ,0
1887,8010001040870,登記記録の閉鎖等,0,2025-11-18,2025-11-12,木下設備工業株式会社,,株式会社,東京都,北区,東十条１丁目１８番２－６０９号,,13,117,1140001,,,2025-11-12,清算の結了等,,,2015-10-05,1,,,,,キノシタセツビコウギョウ,0
1925,8010803002936,登記記録の閉鎖等,0,2025-11-18,2025-10-15,合同会社ＤＹエナジー,,合同会社,千葉県,印西市,竜腹寺３０１番地１１４,,12,231,2702327,,,2025-10-15,清算の結了等,,,2019-02-21,1,,,,,ディーワイエナジー,0
1939,8011801007043,登記記録の閉鎖等,0,2025-11-18,2025-11-07,株式会社川口運輸,,株式会社,東京都,足立区,神明南２丁目１２番１５号,,13,121,1210057,,,2025-11-07,清算の結了等,,,2015-10-05,1,,,,,カワグチウンユ,0
1943,8012303001096,登記記録の閉鎖等,0,2025-11-18,2025-10-29,ＲＩＮＡＸ合同会社,,合同会社,神奈川県,厚木市,飯山南５丁目４４番１０号,,14,212,2430218,,,2025-10-29,清算の結了等,,,2017-11-22,1,,,,,リナックス,0
1946,8013301044459,登記記録の閉鎖等,0,2025-11-18,2025-10-17,株式会社インターバリュー,,株式会社,東京都,渋谷区,宇田川町３３－１,,13,113,1500042,,,2025-10-17,清算の結了等,,,2019-09-12,1,,,,,インターバリュー,0
1963,8021001007231,登記記録の閉鎖等,0,2025-11-18,2025-10-27,永正株式会社,,株式会社,神奈川県,茅ヶ崎市,西久保大屋敷７８０番地,,14,207,2530083,,,2025-10-27,清算の結了等,,,2015-10-05,1,,,,,エイショウ,0
1969,8030001036710,登記記録の閉鎖等,0,2025-11-18,2025-11-10,株式会社三建,,株式会社,埼玉県,三郷市,戸ケ崎２丁目２１４番地１０,,11,237,3410044,,,2025-11-10,清算の結了等,,,2015-10-05,1,,,,,サンケン,0
1974,8030002115703,登記記録の閉鎖等,0,2025-11-18,2025-11-11,有限会社伊藤新聞販売,,有限会社,埼玉県,北本市,本町５丁目１９番地,,11,233,3640033,,,2025-11-11,合併による解散等,8030001128870,令和７年１１月１０日埼玉県北本市本町五丁目１９番地株式会社エーエスエー北本（8030001128870）に合併し解散,2015-10-05,1,,,,,イトウシンブンハンバイ,0
1984,8040002040314,登記記録の閉鎖等,0,2025-11-18,2025-10-22,有限会社インターステート,,有限会社,千葉県,浦安市,今川２丁目１番１８号,,12,227,2790022,,,2025-10-22,清算の結了等,,,2015-10-05,1,,,,,インターステート,0
1985,8040002092099,登記記録の閉鎖等,0,2025-11-18,2025-10-17,有限会社ライト通商,,有限会社,千葉県,柏市,泉町６番５５－３０４号,,12,217,2770022,,,2025-10-17,清算の結了等,,,2015-10-05,1,,,,,ライトツウショウ,0
1987,8040002096455,登記記録の閉鎖等,0,2025-11-18,2025-10-17,有限会社ＦＡＷクリエイト,,有限会社,千葉県,柏市,豊四季３８０番地１５,,12,217,2770863,,,2025-10-17,清算の結了等,,,2015-10-05,1,,,,,,0
2014,8120001202187,登記記録の閉鎖等,0,2025-11-18,2025-10-27,株式会社ＳＮＳ,,株式会社,東京都,港区,赤坂６丁目１３番１３号－３０３号室,,13,103,1070052,,,2025-10-27,清算の結了等,,,2016-12-01,1,,,,,エスエヌエス,0
2029,8120003023359,登記記録の閉鎖等,0,2025-11-18,2025-11-12,合同会社Ｈｏｎｕａ　Ｗｅｂ　Ｓｔｕｄｉｏ,,合同会社,大阪府,大阪市中央区,南船場３丁目１１－２７日宝シルバービル４０２,,27,128,5420081,,,2025-11-12,清算の結了等,,,2023-02-01,1,,,,,ホヌアウェブスタジオ,0
2059,8170002010485,登記記録の閉鎖等,0,2025-11-18,2025-11-12,有限会社わかば薬局,,有限会社,神奈川県,横浜市港北区,新横浜２丁目１５番１２号,,14,109,2220033,,,2025-11-12,合併による解散等,3120102021235,令和７年１１月１日大阪府岸和田市土生町二丁目１１番２４号株式会社泉州薬局（3120102021235）に合併し解散,2015-10-05,1,,,,,ワカバヤッキョク,0
2066,8180001077525,登記記録の閉鎖等,0,2025-11-18,2025-11-04,株式会社大仙,,株式会社,愛知県,春日井市,坂下町７丁目７６０番地４８０,,23,206,4800305,,,2025-11-04,清算の結了等,,,2015-10-05,1,,,,,ダイセン,0
2068,8180001115086,登記記録の閉鎖等,0,2025-11-18,2025-11-12,株式会社いのくち,,株式会社,愛知県,稲沢市,井之口北畑町２３３番地,,23,220,4928151,,,2025-11-12,合併による解散等,6030001066965,令和７年１０月１日大阪府茨木市西駅前町１３番２５号株式会社ウィーズ（6030001066965）に合併し解散,2015-10-05,1,,,,,イノクチ,0
2093,8290001001060,登記記録の閉鎖等,0,2025-11-18,2025-11-04,九州塗装建設株式会社,,株式会社,福岡県,福岡市南区,塩原３丁目５番２１号,,40,134,8150032,,,2025-11-04,清算の結了等,,,2015-10-05,1,,,,,キュウシュウトソウケンセツ,0
2101,8290002003873,登記記録の閉鎖等,0,2025-11-18,2025-11-04,有限会社山田塗装,,有限会社,福岡県,福岡市南区,桧原５丁目１１番２８号,,40,134,8111355,,,2025-11-04,清算の結了等,,,2015-10-05,1,,,,,ヤマダトソウ,0
2109,8290803004574,登記記録の閉鎖等,0,2025-11-18,2025-11-07,合同会社ＴＡＫＡインタナショナル,,合同会社,福岡県,北九州市門司区,大字恒見１３８３番地,,40,101,8000117,,,2025-11-07,清算の結了等,,,2023-12-27,1,,,,,タカインタナショナル,0
2112,8320002013729,登記記録の閉鎖等,0,2025-11-18,2025-11-11,有限会社上田設備,,有限会社,大分県,宇佐市,大字上田１７９６番地の５,,44,211,8790453,,,2025-11-11,清算の結了等,,,2015-10-05,1,,,,,,0
2124,8380001028433,登記記録の閉鎖等,0,2025-11-18,2025-11-12,福島石膏株式会社,,株式会社,福島県,南相馬市,原町区高見町１丁目１０４番地,,07,212,9750033,,,2025-11-12,清算の結了等,,,2017-08-31,1,,,,,フクシマセッコウ,0
2128,8390005004941,登記記録の閉鎖等,0,2025-11-18,2025-10-16,天理教南日枝分教会,,その他の設立登記法人,山形県,鶴岡市,双葉町１番１４号,,06,203,9970822,,,2025-10-16,合併による解散等,3390005004938,令和７年１０月１６日山形県鶴岡市美咲町２０番１１号天理教荘内分教会（3390005004938）に合併し解散,2015-10-05,1,,,,,テンリキョウミナミヒエダブンキョウカイ,0
2129,8420001006384,登記記録の閉鎖等,0,2025-11-18,2025-11-04,八戸アルミ建材株式会社,,株式会社,青森県,八戸市,青葉３丁目３２番１７号,,02,203,0310804,,,2025-11-04,合併による解散等,6420001005776,令和７年１１月１日青森県八戸市青葉三丁目３２番１７号株式会社幾久屋（6420001005776）に合併し解散,2015-10-05,1,,,,,ハチノヘアルミケンザイ,0
2133,8430001073168,登記記録の閉鎖等,0,2025-11-18,2025-11-13,モッペル株式会社,,株式会社,北海道,札幌市南区,常盤四条２丁目１９番３５号,,01,106,0050854,,,2025-11-13,清算の結了等,,,2017-01-26,1,,,,,モッペル,0
2142,8430003008403,登記記録の閉鎖等,0,2025-11-18,2025-11-12,合同会社オーシャン,,合同会社,北海道,札幌市白石区,東札幌四条２丁目６番１３号ティアラ東札幌プロムナード１０５号,,01,104,0030004,,,2025-11-12,合併による解散等,9430003013600,令和７年１１月１１日札幌市白石区菊水六条二丁目４番１号ＨＳ菊水６２４　１０４号室合同会社どりーむ（9430003013600）に合併し解散,2017-05-17,1,,,,,オーシャン,0
2156,9010001150025,登記記録の閉鎖等,0,2025-11-18,2025-11-06,新聯紡株式会社,,株式会社,東京都,中央区,東日本橋２丁目１３番５号秋山ビル７Ｆ,,13,102,1030004,,,2025-11-06,清算の結了等,,,2015-10-05,1,,,,,シンレンボウ,0
2185,9010701015972,登記記録の閉鎖等,0,2025-11-18,2025-10-16,三井住友トラストクラブ株式会社,,株式会社,東京都,中央区,晴海１丁目８番１０号トリトンスクエアＸ棟,,13,102,1040053,,,2025-10-16,合併による解散等,1010001047518,令和７年１０月１日東京都港区芝三丁目３３番１号三井住友トラスト・カード株式会社（1010001047518）に合併し解散,2015-10-05,1,,,,,ミツイスミトモトラストクラブ,0
2188,9010805003155,登記記録の閉鎖等,0,2025-11-18,2025-10-23,税理士法人Ｒａｙ　Ａｃｃｏｕｎｔｉｎｇ,,その他の設立登記法人,東京都,大田区,西蒲田８丁目２４番８号井門西蒲田ビル４階,,13,111,1440051,,,2025-10-23,合併による解散等,3011005006714,令和７年１０月６日東京都渋谷区神宮前六丁目２５番８号神宮前コーポラス１１０５号税理士法人タックスアドバイザーズ（3011005006714）に合併し解散,2025-01-29,1,,,,,レイアカウンティング,0
2215,9011802020440,登記記録の閉鎖等,0,2025-11-18,2025-11-13,有限会社渡辺清美堂,,有限会社,東京都,足立区,南花畑４丁目３０番２号,,13,121,1210062,,,2025-11-13,清算の結了等,,,2015-10-05,1,,,,,ワタナベセイビドウ,0
2222,9020001058333,登記記録の閉鎖等,0,2025-11-18,2025-11-07,株式会社政建,,株式会社,神奈川県,横浜市戸塚区,上倉田町２１５６番地,,14,110,2440816,,,2025-11-07,清算の結了等,,,2015-10-05,1,,,,,セイケン,0
2223,9020001075667,登記記録の閉鎖等,0,2025-11-18,2025-10-16,ＦＩＣＴ株式会社,,株式会社,長野県,長野市,大字北尾張部３６番地,,20,201,3810014,,,2025-10-16,合併による解散等,5010001249671,令和７年１０月１日東京都港区虎ノ門二丁目６番１号虎ノ門ヒルズステーションタワー１８階ＦＭホールディングス株式会社（5010001249671）に合併し解散,2015-10-05,1,FICT Limited,Nagano,"36, Oaza Kitaowaribe, Nagano shi",,エフアイシーティー,0
2225,9020001101464,登記記録の閉鎖等,0,2025-11-18,2025-11-06,株式会社設計プランナー・リュウ,,株式会社,神奈川県,横浜市泉区,新橋町１３４７番地９２,,14,116,2450009,,,2025-11-06,清算の結了等,,,2015-10-05,1,,,,,セッケイプランナーリュウ,0
2229,9020002080476,登記記録の閉鎖等,0,2025-11-18,2025-07-18,有限会社及川工務店,,有限会社,神奈川県,川崎市幸区,戸手本町１丁目５７番地２,,14,132,2120023,,,2025-07-18,清算の結了等,,,2015-10-05,1,,,,,オイカワコウムテン,0
2230,9020002088692,登記記録の閉鎖等,0,2025-11-18,2025-11-05,有限会社かおる荘,,有限会社,神奈川県,川崎市高津区,新作５丁目３番２３号,,14,134,2130014,,,2025-11-05,清算の結了等,,,2015-10-05,1,,,,,カオルソウ,0
2235,9021002053926,登記記録の閉鎖等,0,2025-11-18,2025-11-11,有限会社やんちゃコーポレーション,,有限会社,神奈川県,小田原市,小八幡４丁目１２番１４号,,14,206,2560815,,,2025-11-11,清算の結了等,,,2015-10-05,1,,,,,,0
2237,9030001026660,登記記録の閉鎖等,0,2025-11-18,2025-11-10,宮岡米穀株式会社,,株式会社,埼玉県,狭山市,大字南入曽６１３番地の１,,11,215,3501316,,,2025-11-10,清算の結了等,,,2015-10-05,1,,,,,ミヤオカベイコク,0
2242,9030001111966,登記記録の閉鎖等,0,2025-11-18,2025-11-04,リアン・ネクスト株式会社,,株式会社,埼玉県,熊谷市,円光１丁目５番７号,,11,202,3600813,,,2025-11-04,合併による解散等,3030001106410,令和７年１０月３１日埼玉県熊谷市中西一丁目３番２４号リアン・イノベーション株式会社（3030001106410）に合併し解散,2015-12-22,1,,,,,リアンネクスト,0
2245,9030002090417,登記記録の閉鎖等,0,2025-11-18,2025-11-10,有限会社戸田設計事務所,,有限会社,埼玉県,吉川市,新栄２丁目６番地８,,11,243,3420059,,,2025-11-10,清算の結了等,,,2015-10-05,1,,,,,,0
2247,9040001026783,登記記録の閉鎖等,0,2025-11-18,2025-10-15,株式会社高石製作所,00018945,株式会社,千葉県,市川市,本北方３丁目１２番２５号,,12,203,2720816,,,2025-10-15,清算の結了等,,,2015-10-05,1,,,,,タカイシセイサクジョ,0
2249,9040001031916,登記記録の閉鎖等,0,2025-11-18,2025-10-17,株式会社ＬＡＮＴＥＣ,,株式会社,千葉県,市川市,東大和田１丁目１７番１７号,,12,203,2720026,,,2025-10-17,清算の結了等,,,2015-10-05,1,,,,,,0
2265,9060002017994,登記記録の閉鎖等,0,2025-11-18,2025-11-12,有限会社渡邉新聞店,,有限会社,栃木県,真岡市,久下田西３丁目９番地２,,09,209,3214522,,,2025-11-12,清算の結了等,,,2015-10-05,1,,,,,ワタナベシンブンテン,0
2270,9080401025893,登記記録の閉鎖等,0,2025-11-18,2025-10-24,ティアークシー株式会社,,株式会社,静岡県,周智郡森町,森１４１３－１,,22,461,4370215,,,2025-10-24,清算の結了等,,,2022-06-16,1,,,,,ティアークシー,0
2272,9100005010851,登記記録の閉鎖等,0,2025-11-18,2025-11-11,一般社団法人日本マグネット吹矢協会,,その他の設立登記法人,長野県,諏訪市,大字中洲５５３１番地１１３,,20,206,3920015,,,2025-11-11,清算の結了等,,,2015-10-05,1,,,,,ニホンマグネットフキヤキョウカイ,0
2278,9120001216723,登記記録の閉鎖等,0,2025-11-18,2025-11-13,株式会社Ｋ２,,株式会社,大阪府,大阪市城東区,永田２丁目２番２号,,27,118,5360022,,,2025-11-13,清算の結了等,,,2018-10-24,1,,,,,ケーツー,0
2283,9120002005547,登記記録の閉鎖等,0,2025-11-18,2025-11-14,有限会社三扇,,有限会社,大阪府,大阪市東住吉区,北田辺４丁目１０番２０号,,27,121,5460044,,,2025-11-14,清算の結了等,,,2015-10-05,1,,,,,サンセン,0
2303,9160001011419,登記記録の閉鎖等,0,2025-11-18,2025-11-12,株式会社トータル・マネジメント,,株式会社,滋賀県,東近江市,種町６６０番地４６,,25,213,5211212,,,2025-11-12,清算の結了等,,,2015-10-05,1,,,,,トータルマネジメント,0
2313,9200001026569,登記記録の閉鎖等,0,2025-11-18,2025-11-10,明宝温泉開発株式会社,,株式会社,岐阜県,郡上市,明宝奥住３４２８番地１,,21,219,5014304,,,2025-11-10,合併による解散等,1200001026568,令和７年１０月３１日岐阜県郡上市明宝奥住字水沢上３４４７番地の１めいほう高原開発株式会社（1200001026568）に合併し解散,2015-10-05,1,,,,,メイホウオンセンカイハツ,0
2319,9200005005271,登記記録の閉鎖等,0,2025-11-18,2025-10-14,念長寺,,その他の設立登記法人,岐阜県,養老郡養老町,橋爪１２４２番地,,21,341,5031331,,,2025-10-14,合併による解散等,1200005005213,令和７年１０月１４日岐阜県養老郡養老町中１６１番地應順寺（1200005005213）に合併し解散,2015-10-05,1,,,,,,0
2320,9210001003807,登記記録の閉鎖等,0,2025-11-18,2025-11-13,宮越商事株式会社,,株式会社,福井県,福井市,新開町第１９号１２番地の１,,18,201,9190328,,,2025-11-13,清算の結了等,,,2015-10-05,1,,,,,ミヤゴシショウジ,0
2331,9290001015869,登記記録の閉鎖等,0,2025-11-18,2025-11-04,株式会社ハヤマパーツ,,株式会社,福岡県,福岡市博多区,金の隈１丁目２６番１４号,,40,132,8120863,,,2025-11-04,清算の結了等,,,2015-10-05,1,,,,,ハヤマパーツ,0
2332,9290001038176,登記記録の閉鎖等,0,2025-11-18,2025-10-31,九州陸運倉庫株式会社,,株式会社,福岡県,福岡市東区,青葉３丁目４５番６－１３号,,40,131,8130025,,,2025-10-31,清算の結了等,,,2015-10-05,1,,,,,キュウシュウリクウンソウコ,0
2333,9290001051484,登記記録の閉鎖等,0,2025-11-18,2025-11-06,株式会社Ａ＆Ｉ,,株式会社,福岡県,久留米市,諏訪野町２２２６番地－５,,40,203,8300037,,,2025-11-06,清算の結了等,,,2015-10-05,1,,,,,エーアンドアイ,0
2341,9290002033738,登記記録の閉鎖等,0,2025-11-18,2025-11-06,有限会社汐入不動産,,有限会社,福岡県,古賀市,天神５丁目８番２３号,,40,223,8113101,,,2025-11-06,清算の結了等,,,2015-10-05,1,,,,,シオイリフドウサン,0
2354,9340002017438,登記記録の閉鎖等,0,2025-11-18,2025-11-07,有限会社ＬＩＦＥ２１,,有限会社,鹿児島県,薩摩川内市,水引町１３３番地１,,46,215,8991921,,,2025-11-07,清算の結了等,,,2015-10-05,1,,,,,ライフニジュウイチ,0
2366,9380005010774,登記記録の閉鎖等,0,2025-11-18,2025-11-10,特定非営利活動法人川内村ＮＰＯ協働センター,,その他の設立登記法人,福島県,双葉郡川内村,大字上川内字町分２１１番地,,07,544,9791201,,,2025-11-10,清算の結了等,,,2015-10-05,1,,,,,カワウチムラエヌピーオーキョウドウセンター,0
2367,9390002002550,登記記録の閉鎖等,0,2025-11-18,2025-11-13,有限会社丸浩伊藤工務所,,有限会社,山形県,山形市,飯塚町２０３８番地,,06,201,9900845,,,2025-11-13,清算の結了等,,,2015-10-05,1,,,,,マルコウイトウコウムショ,0
2368,9390002005859,登記記録の閉鎖等,0,2025-11-18,2025-11-13,有限会社ヤマガタ乳剤サービス,,有限会社,山形県,天童市,長岡北４丁目２番１０号,,06,210,9940062,,,2025-11-13,清算の結了等,,,2015-10-05,1,,,,,ヤマガタニュウザイサービス,0
2375,9410001010064,登記記録の閉鎖等,0,2025-11-18,2025-11-14,日本一フード秋田株式会社,,株式会社,秋田県,横手市,柳田１番地１６,,05,203,0130054,,,2025-11-14,合併による解散等,9400001008233,令和７年１１月１日岩手県二戸市下斗米字上野平６７番地２３日本一フード株式会社（9400001008233）に合併し解散,2015-10-05,1,,,,,ニホンイチフードアキタ,0
2376,9410003003990,登記記録の閉鎖等,0,2025-11-18,2025-11-11,合同会社Ｃｕｌｅｃｔ,,合同会社,秋田県,大仙市,佐野町２－４,,05,212,0140017,,,2025-11-11,清算の結了等,,,2024-09-25,1,,,,,キュレクト,0
