sequenceNumber,corporateNumber,process,correct,updateDate,changeDate,name,nameImageId,kind,prefectureName,cityName,streetNumber,addressImageId,prefectureCode,cityCode,postCode,addressOutside,addressOutsideImageId,closeDate,closeCause,successorCorporateNumber,changeCause,assignmentDate,latest,enName,enPrefectureName,enCityName,enAddressOutside,furigana,hihyoji
5,1010001072301,登記記録の閉鎖等,0,2023-10-11,2023-10-02,株式会社メイビー,,株式会社,東京都,千代田区,一番町２２番地２,,13,101,1020082,,,2023-10-02,合併による解散等,3010001069634,令和５年１０月１日東京都千代田区一番町２２番地２株式会社ニックス（3010001069634）に合併し解散,2015-10-05,1,,,,,,0
6,1010001151914,登記記録の閉鎖等,0,2023-10-11,2023-10-02,株式会社設備サポート,,株式会社,神奈川県,川崎市中原区,上小田中２丁目６番４－２号,,14,133,2110053,,,2023-10-02,清算の結了等,,,2015-10-05,1,,,,,セツビサポート,0
7,1010001203847,登記記録の閉鎖等,0,2023-10-11,2023-10-06,ＧＣＪＧ２株式会社,,株式会社,香川県,綾歌郡宇多津町,浜六番丁７９番地２ＲＧ宇多津六番丁第２－３０３,,37,386,7690206,,,2023-10-06,合併による解散等,6180001087336,令和５年１０月１日愛知県江南市今市場町宮前１５７番地愛知スチール株式会社（6180001087336）に合併し解散,2019-09-11,1,,,,,ジーシージェイジーツー,0
10,1010002043193,登記記録の閉鎖等,0,2023-10-11,2023-09-28,有限会社ＣＲＥ　ＴＷＯ,,有限会社,東京都,千代田区,霞が関３丁目２番５号,,13,101,1000013,,,2023-09-28,清算の結了等,,,2015-10-05,1,,,,,シーアールイーツー,0
32,1010403025162,登記記録の閉鎖等,0,2023-10-11,2023-09-22,合同会社コヤマキャピタルマネジメント,,合同会社,東京都,港区,浜松町２丁目２番１５号浜松町ダイヤビル２Ｆ,,13,103,1050013,,,2023-09-22,清算の結了等,,,2021-04-22,1,,,,,コヤマキャピタルマネジメント,0
37,1010502016756,登記記録の閉鎖等,0,2023-10-11,2023-10-05,有限会社ニチギン,,有限会社,東京都,足立区,一ツ家３丁目５番１３－１０８号,,13,121,1210075,,,2023-10-05,清算の結了等,,,2015-10-05,1,,,,,ニチギン,0
42,1010602005543,登記記録の閉鎖等,0,2023-10-11,2023-10-02,有限会社北虎水産,,有限会社,東京都,江東区,北砂４丁目２４番３号,,13,108,1360073,,,2023-10-02,清算の結了等,,,2015-10-05,1,,,,,キタトラスイサン,0
56,1011001095317,登記記録の閉鎖等,0,2023-10-11,2023-10-02,株式会社フライトシステムコンサルティング,,株式会社,東京都,渋谷区,恵比寿４丁目６番１号,,13,113,1500013,,,2023-10-02,合併による解散等,5011001032786,令和５年１０月１日東京都渋谷区恵比寿四丁目６番１号株式会社フライトホールディングス（5011001032786）に合併し解散,2015-10-05,1,,,,,フライトシステムコンサルティング,0
57,1011001114349,登記記録の閉鎖等,0,2023-10-11,2023-10-02,株式会社ビジネスライフ,,株式会社,東京都,渋谷区,千駄ヶ谷４丁目２０番３号東栄神宮外苑ビル,,13,113,1510051,,,2023-10-02,合併による解散等,9011001135957,令和５年１０月１日東京都渋谷区千駄ヶ谷四丁目２０番３号東栄神宮外苑ビルクロスメディアグループ株式会社（9011001135957）に合併し解散,2017-01-16,1,,,,,ビジネスライフ,0
60,1011001126030,登記記録の閉鎖等,0,2023-10-11,2023-10-02,株式会社ＩＷＡＩ,,株式会社,東京都,渋谷区,神宮前５丁目６番１５号,,13,113,1500001,,,2023-10-02,合併による解散等,1013301032379,令和５年９月３０日東京都渋谷区神宮前五丁目６番１５号株式会社ＣＲＡＺＹ（1013301032379）に合併し解散,2019-01-11,1,,,,,イワイ,0
67,1011301014389,登記記録の閉鎖等,0,2023-10-11,2023-10-05,株式会社ラインファーム,,株式会社,東京都,練馬区,下石神井５丁目１８番１０号１階,,13,120,1770042,,,2023-10-05,清算の結了等,,,2015-10-05,1,,,,,ラインファーム,0
75,1011801006877,登記記録の閉鎖等,0,2023-10-11,2023-10-05,春日解体工業株式会社,,株式会社,東京都,足立区,梅田７丁目１５番４号梅島コーポ１０１号,,13,121,1230851,,,2023-10-05,清算の結了等,,,2015-10-05,1,,,,,カスガカイタイコウギョウ,0
84,1012405001067,登記記録の閉鎖等,0,2023-10-11,2023-10-06,マンション仙川アゼリア管理組合法人,,その他の設立登記法人,東京都,調布市,仙川町２丁目７番地２２マンション仙川アゼリア内,,13,208,1820002,,,2023-10-06,清算の結了等,,,2015-10-05,1,,,,,マンションセンガワアゼリア,0
96,1020001041379,登記記録の閉鎖等,0,2023-10-11,2023-10-02,株式会社ホクトテクノサービス,,株式会社,神奈川県,横浜市中区,花咲町３丁目１０３番地２,,14,104,2310063,,,2023-10-02,清算の結了等,,,2015-10-05,1,,,,,ホクトテクノサービス,0
113,1021001065707,登記記録の閉鎖等,0,2023-10-11,2023-10-02,Ｏ＆Ｍプロジェクト株式会社,,株式会社,神奈川県,伊勢原市,伊勢原２丁目５番４３号,,14,214,2591131,,,2023-10-02,合併による解散等,9021001020992,令和５年１０月１日神奈川県伊勢原市伊勢原二丁目５番４３号株式会社オーイズミフーズ（9021001020992）に合併し解散,2018-09-27,1,,,,,オーアンドエムプロジェクト,0
115,1021002034883,登記記録の閉鎖等,0,2023-10-11,2023-09-29,有限会社クリエイト・モリ,,有限会社,神奈川県,伊勢原市,坪ノ内１７８番地,,14,214,2591104,,,2023-09-29,清算の結了等,,,2015-10-05,1,,,,,クリエイトモリ,0
146,1070001034444,登記記録の閉鎖等,0,2023-10-11,2023-10-05,株式会社ＳＥＲ,,株式会社,群馬県,高崎市,箕郷町上芝８３６番地２,,10,202,3703104,,,2023-10-05,清算の結了等,,,2018-02-28,1,,,,,エスイーアール,0
151,1080102015953,登記記録の閉鎖等,0,2023-10-11,2023-10-06,有限会社エヌワン企画,,有限会社,静岡県,富士市,桧新田３０２番地の１,,22,210,4170000,,,2023-10-06,清算の結了等,,,2015-10-05,1,,,,,エヌワンキカク,0
156,1100002013889,登記記録の閉鎖等,0,2023-10-11,2023-10-02,有限会社かわ瀬,,有限会社,長野県,上田市,上塩尻２７８番地,,20,203,3860042,,,2023-10-02,清算の結了等,,,2015-10-05,1,,,,,カワセ,0
165,1120001189893,登記記録の閉鎖等,0,2023-10-11,2023-10-05,株式会社ＷＡＳＨＯＣＫ,,株式会社,東京都,足立区,千住３丁目６０番１６号,,13,121,1200034,,,2023-10-05,清算の結了等,,,2015-10-05,1,,,,,,0
166,1120001193664,登記記録の閉鎖等,0,2023-10-11,2023-10-06,株式会社Ｃａｎｔｅｒａ,,株式会社,岐阜県,岐阜市,芥見６丁目４５番地１,,21,201,5013134,,,2023-10-06,清算の結了等,,,2015-10-05,1,,,,,カンテラ,0
167,1120001246265,登記記録の閉鎖等,0,2023-10-11,2023-09-29,株式会社乃が美ラボ,,株式会社,大阪府,大阪市西区,靱本町１丁目６番１０号,,27,106,5500004,,,2023-09-29,清算の結了等,,,2022-06-03,1,,,,,ノガミラボ,0
182,1122001018017,登記記録の閉鎖等,0,2023-10-11,2023-10-05,オムニテクノ株式会社,,株式会社,大阪府,八尾市,山賀町５丁目１番地の２,,27,212,5810812,,,2023-10-05,合併による解散等,8122001023150,令和５年１０月１日大阪市中央区南本町二丁目３番２１号オムニヨシダ株式会社（8122001023150）に合併し解散,2015-10-05,1,,,,,,0
186,1130001015693,登記記録の閉鎖等,0,2023-10-11,2023-10-02,株式会社マツナガ,,株式会社,京都府,京都市伏見区,淀池上町１００番地,,26,109,6130904,,,2023-10-02,清算の結了等,,,2015-10-05,1,,,,,マツナガ,0
198,1140001024479,登記記録の閉鎖等,0,2023-10-11,2023-10-05,フィールダー株式会社,,株式会社,兵庫県,神戸市西区,伊川谷町潤和９９６,,28,111,6512124,,,2023-10-05,清算の結了等,,,2015-10-05,1,,,,,フィールダー,0
199,1140001064211,登記記録の閉鎖等,0,2023-10-11,2023-10-03,株式会社ワカモト食品,,株式会社,兵庫県,姫路市,飾磨区構４丁目４４番地,,28,201,6728071,,,2023-10-03,清算の結了等,,,2015-10-05,1,,,,,ワカモトショクヒン,0
202,1140002025435,登記記録の閉鎖等,0,2023-10-11,2023-10-06,有限会社ケイアイジィコーポレーション,,有限会社,兵庫県,神戸市中央区,港島中町３丁目１－２神戸ポートビレジ２号棟９２０号,,28,110,6500046,,,2023-10-06,清算の結了等,,,2015-10-05,1,,,,,ケイアイジィコーポレーション,0
204,1150001024362,登記記録の閉鎖等,0,2023-10-11,2023-10-10,株式会社ＬＩＳＡ,,株式会社,奈良県,奈良市,北登美ヶ丘１丁目１０番７号,,29,201,6310001,,,2023-10-10,清算の結了等,,,2021-02-02,1,,,,,リサ,0
209,1180001029367,登記記録の閉鎖等,0,2023-10-11,2023-10-03,イーグル手袋製造株式会社,,株式会社,愛知県,名古屋市中村区,栄生町１０番８号,,23,105,4530033,,,2023-10-03,清算の結了等,,,2015-10-05,1,,,,,イーグルテブクロセイゾウ,0
211,1180001080527,登記記録の閉鎖等,0,2023-10-11,2023-10-05,株式会社梶原インテリヤ,,株式会社,愛知県,尾張旭市,新居町上の田４５番地,,23,226,4880073,,,2023-10-05,清算の結了等,,,2015-10-05,1,,,,,カジワラインテリア,0
222,1180003017956,登記記録の閉鎖等,0,2023-10-11,2023-10-04,合同会社ＢＣＲマネジメント,,合同会社,愛知県,一宮市,猿海道２丁目１３番２４－１号,,23,203,4910838,,,2023-10-04,清算の結了等,,,2017-05-18,1,,,,,ビーシーアールマネジメント,0
223,1180003023434,登記記録の閉鎖等,0,2023-10-11,2023-10-03,羽衣の郷合同会社,,合同会社,愛知県,日進市,浅田町下小深田１０番地１１,,23,230,4700124,,,2023-10-03,清算の結了等,,,2022-01-28,1,,,,,ハゴロモノサト,0
228,1180301033639,登記記録の閉鎖等,0,2023-10-11,2023-10-02,岡崎リバーリンク株式会社,,株式会社,愛知県,岡崎市,日名中町６番地１,,23,202,4440918,,,2023-10-02,清算の結了等,,,2020-04-15,1,,,,,オカザキリバーリンク,0
233,1190002003130,登記記録の閉鎖等,0,2023-10-11,2023-10-06,有限会社みすぎ自動車,,有限会社,三重県,津市,美杉町竹原４８７番地,,24,201,5153201,,,2023-10-06,清算の結了等,,,2015-10-05,1,,,,,ミスギジドウシャ,0
244,1220001023968,登記記録の閉鎖等,0,2023-10-11,2023-09-25,ＦＲＩＴ株式会社,,株式会社,石川県,金沢市,森山１丁目２番１号２０８,,17,201,9200843,,,2023-09-25,合併による解散等,9010401072876,令和５年９月１日東京都港区芝３‐１‐１５芝ボートビル７Ｆ株式会社Ａｓｉａｎ　Ｂｒｉｄｇｅ（9010401072876）に合併し解散,2021-02-05,1,,,,,フリット,0
262,1290002011239,登記記録の閉鎖等,0,2023-10-11,2023-09-28,有限会社十字屋,,有限会社,福岡県,福岡市中央区,天神３丁目２番１３号,,40,133,8100001,,,2023-09-28,清算の結了等,,,2015-10-05,1,,,,,,0
264,1290005013455,登記記録の閉鎖等,0,2023-10-11,2023-09-28,特定非営利活動法人こころ,,その他の設立登記法人,福岡県,福岡市城南区,西片江２丁目２６番５号,,40,136,8140141,,,2023-09-28,清算の結了等,,,2015-10-05,1,,,,,ココロ,0
266,1290801029142,登記記録の閉鎖等,0,2023-10-11,2023-10-06,株式会社ＣＭＯ,,株式会社,福岡県,北九州市小倉北区,京町３丁目１番１号セントシティ北九州１０Ｆ,,40,106,8020002,,,2023-10-06,清算の結了等,,,2022-12-22,1,,,,,シーエムオー,0
269,1320001004438,登記記録の閉鎖等,0,2023-10-11,2023-10-05,日鉄物流大分株式会社,,株式会社,大分県,大分市,大字西ノ洲１番地,,44,201,8700902,,,2023-10-05,合併による解散等,1010001098619,令和５年１０月１日東京都中央区日本橋一丁目１３番１号日鉄物流株式会社（1010001098619）に合併し解散,2015-10-05,1,,,,,ニッテツブツリュウオオイタ,0
270,1320001017778,登記記録の閉鎖等,0,2023-10-11,2023-10-06,株式会社にたのぐみ,,株式会社,大分県,日田市,大山町東大山１７８８番地１,,44,204,8770202,,,2023-10-06,清算の結了等,,,2020-07-07,1,,,,,ニタノグミ,0
283,1390005002464,登記記録の閉鎖等,0,2023-10-11,2023-10-03,一般財団法人上山市体育・文化振興公社,,その他の設立登記法人,山形県,上山市,けやきの森２番１号,,06,207,9993241,,,2023-10-03,清算の結了等,,,2015-10-05,1,,,,,カミノヤマシタイイクブンカシンコウコウシャ,0
307,1490002007761,登記記録の閉鎖等,0,2023-10-11,2023-10-02,有限会社ライン,,有限会社,高知県,高知市,葛島１丁目５－１７光コーポ４０３,,39,201,7818121,,,2023-10-02,清算の結了等,,,2015-10-05,1,,,,,ライン,0
322,2010001174690,登記記録の閉鎖等,0,2023-10-11,2023-10-02,ブライアリー・アンド・パートナーズ・ジャパン株式会社,,株式会社,東京都,千代田区,麹町６丁目４番地６,,13,101,1020083,,,2023-10-02,清算の結了等,,,2016-04-06,1,,,,,ブライアリーアンドパートナーズジャパン,0
324,2010001188600,登記記録の閉鎖等,0,2023-10-11,2023-09-20,株式会社Ｋｌａｓｓｙ,,株式会社,東京都,港区,南青山２丁目２－１５ＷｉｎＡｏｙａｍａビルＵＣＦ６階,,13,103,1070062,,,2023-09-20,清算の結了等,,,2017-12-21,1,,,,,クラッシィ,0
333,2010002007899,登記記録の閉鎖等,0,2023-10-11,2023-10-02,有限会社ヱスエイチ,,有限会社,東京都,千代田区,丸の内３丁目６番１１号,,13,101,1000005,,,2023-10-02,清算の結了等,,,2015-10-05,1,,,,,エスエイチ,0
335,2010002029448,登記記録の閉鎖等,0,2023-10-11,2023-10-02,バックパックツアー有限会社,,有限会社,東京都,中央区,日本橋人形町３丁目４番２号佐藤商事ビル２Ｆ,,13,102,1030013,,,2023-10-02,清算の結了等,,,2015-10-05,1,,,,,バックパックツアー,0
337,2010401034478,登記記録の閉鎖等,0,2023-10-11,2023-10-02,株式会社ファーストネットワーク,,株式会社,東京都,荒川区,町屋２丁目１７番１３号,,13,118,1160001,,,2023-10-02,清算の結了等,,,2015-10-05,1,,,,,ファーストネットワーク,0
367,2010802004476,登記記録の閉鎖等,0,2023-10-11,2023-10-03,有限会社工藤塗装工業,,有限会社,東京都,大田区,南六郷２丁目１０番１１号,,13,111,1440045,,,2023-10-03,清算の結了等,,,2015-10-05,1,,,,,クドウトソウ,0
370,2010902007346,登記記録の閉鎖等,0,2023-10-11,2023-10-02,有限会社システムクオリティ,,有限会社,東京都,世田谷区,成城９丁目２９番１３－３０６号,,13,112,1570066,,,2023-10-02,清算の結了等,,,2015-10-05,1,,,,,,0
384,2011001137836,登記記録の閉鎖等,0,2023-10-11,2023-10-02,株式会社ＰＯＲＴＯ,,株式会社,東京都,渋谷区,道玄坂１丁目２１番１号渋谷ソラスタ１５階,,13,113,1500043,,,2023-10-02,合併による解散等,6011001068854,令和５年１０月１日東京都渋谷区道玄坂一丁目２１番１号渋谷ソラスタ１５階株式会社ＣＡＲＴＡ　ＭＡＲＫＥＴＩＮＧ　ＦＩＲＭ（6011001068854）に合併し解散,2021-01-18,1,,,,,ポルト,0
400,2011702009169,登記記録の閉鎖等,0,2023-10-11,2023-10-05,長谷川産業有限会社,,有限会社,東京都,江戸川区,瑞江１丁目６４番９号,,13,123,1320011,,,2023-10-05,清算の結了等,,,2015-10-05,1,,,,,ハセガワサンギョウ,0
402,2011802025108,登記記録の閉鎖等,0,2023-10-11,2023-10-05,有限会社じす,,有限会社,東京都,足立区,東綾瀬２丁目１８番９号,,13,121,1200004,,,2023-10-05,清算の結了等,,,2015-10-05,1,,,,,ジス,0
410,2012701003071,登記記録の閉鎖等,0,2023-10-11,2023-10-05,株式会社浜田山興産,,株式会社,東京都,西東京市,東町４丁目８番２６号,,13,229,2020012,,,2023-10-05,清算の結了等,,,2015-10-05,1,,,,,ハマダヤマコウサン,0
418,2020001095473,登記記録の閉鎖等,0,2023-10-11,2023-09-27,株式会社シュンエイ機器工業,,株式会社,神奈川県,川崎市宮前区,野川２９９番２３号,,14,136,2160001,,,2023-09-27,清算の結了等,,,2015-10-05,1,,,,,,0
425,2020002049107,登記記録の閉鎖等,0,2023-10-11,2023-10-02,有限会社小島硝子店,,有限会社,神奈川県,横浜市港北区,日吉本町２丁目４９番１０号,,14,109,2230062,,,2023-10-02,清算の結了等,,,2015-10-05,1,,,,,コジマガラステン,0
440,2021003004901,登記記録の閉鎖等,0,2023-10-11,2023-10-03,合同会社エポック,,合同会社,神奈川県,足柄上郡大井町,金子１７２２－１,,14,362,2580019,,,2023-10-03,清算の結了等,,,2015-10-05,1,,,,,エポック,0
441,2021003009116,登記記録の閉鎖等,0,2023-10-11,2023-09-29,合同会社ＫＩＣ,,合同会社,神奈川県,大和市,南林間１丁目６番６号,,14,213,2420006,,,2023-09-29,清算の結了等,,,2020-02-10,1,,,,,ケーアイシー,0
444,2021005005030,登記記録の閉鎖等,0,2023-10-11,2023-10-03,特定非営利活動法人生活支援の会ステップ,,その他の設立登記法人,神奈川県,海老名市,国分南１丁目３番８号小野澤マンション１号棟１０１号室,,14,215,2430405,,,2023-10-03,清算の結了等,,,2015-10-05,1,,,,,セイカツシエンノカイステップ,0
448,2030001062027,登記記録の閉鎖等,0,2023-10-11,2023-09-14,ジェーピーイー株式会社,,株式会社,埼玉県,北本市,宮内７丁目１７６番地,,11,233,3640002,,,2023-09-14,清算の結了等,,,2015-10-05,1,,,,,ジェーピーイー,0
470,2040001077635,登記記録の閉鎖等,0,2023-10-11,2023-09-25,株式会社ディー・ディメンション,,株式会社,千葉県,千葉市緑区,おゆみ野南６丁目４５番地１９,,12,105,2660033,,,2023-09-25,清算の結了等,,,2015-10-05,1,,,,,ディーディメンション,0
488,2070003002456,登記記録の閉鎖等,0,2023-10-11,2023-10-05,Ｆｉｎｅ　Ｒｅｐ合同会社,,合同会社,群馬県,藤岡市,藤岡２９６３番地５,,10,209,3750024,,,2023-10-05,清算の結了等,,,2015-10-05,1,,,,,,0
496,2080402006453,登記記録の閉鎖等,0,2023-10-11,2023-10-05,有限会社花幸,,有限会社,静岡県,浜松市中区,高林３丁目９番１７号,,22,131,4300907,,,2023-10-05,清算の結了等,,,2015-10-05,1,,,,,ハナコウ,0
498,2100001026957,登記記録の閉鎖等,0,2023-10-11,2023-10-02,株式会社管財,,株式会社,長野県,駒ヶ根市,下市場３１番１号,,20,210,3994108,,,2023-10-02,清算の結了等,,,2015-10-05,1,,,,,カンザイ,0
499,2100002002404,登記記録の閉鎖等,0,2023-10-11,2023-10-02,有限会社清水モータース,00069375,有限会社,長野県,長野市,稲里町中氷鉋６０８番地,,20,201,3812215,,,2023-10-02,清算の結了等,,,2015-10-05,1,,,,,シミズモータース,0
503,2100005000883,登記記録の閉鎖等,0,2023-10-11,2023-09-19,蓮華院,,その他の設立登記法人,長野県,長野市,中越２丁目２６番１号,,20,201,3810044,,,2023-09-19,合併による解散等,6100005000376,令和５年９月１９日長野市中御所二丁目１３番２２号観音寺（6100005000376）に合併し解散,2015-10-05,1,,,,,レンゲイン,0
506,2110002030593,登記記録の閉鎖等,0,2023-10-11,2023-10-04,有限会社片桐工務店,,有限会社,新潟県,長岡市,小国町小栗山４０番地１,,15,202,9495341,,,2023-10-04,清算の結了等,,,2015-10-05,1,,,,,カタギリコウムテン,0
507,2120001077668,登記記録の閉鎖等,0,2023-10-11,2023-10-06,ツヅキインフォテクノ西日本株式会社,,株式会社,大阪府,大阪市中央区,久太郎町３丁目４番３０号,,27,128,5410056,,,2023-10-06,合併による解散等,3010001120371,令和５年１０月１日東京都品川区小山台一丁目２０番２０号都築クロスサポート株式会社（3010001120371）に合併し解散,2015-10-05,1,,,,,ツヅキインフォテクノニシニホン,0
508,2120001194868,登記記録の閉鎖等,0,2023-10-11,2023-10-03,株式会社サーパス・シー・イー,,株式会社,兵庫県,神戸市中央区,布引町２丁目２番２５号４階,,28,110,6510097,,,2023-10-03,合併による解散等,4140001007530,令和５年１０月１日神戸市中央区布引町二丁目２番２５号河野医科器械株式会社（4140001007530）に合併し解散,2015-12-07,1,,,,,サーパスシーイー,0
515,2130001027309,登記記録の閉鎖等,0,2023-10-11,2023-09-29,株式会社えがわ,,株式会社,京都府,京都市下京区,堺町通四条下る小石町１０５番地,,26,106,6008081,,,2023-09-29,清算の結了等,,,2015-10-05,1,,,,,エガワ,0
523,2140001045012,登記記録の閉鎖等,0,2023-10-11,2023-10-02,播磨畳内装工房株式会社,,株式会社,兵庫県,加古郡播磨町,東本荘３丁目１２－１５,,28,382,6750156,,,2023-10-02,合併による解散等,4140002047798,令和５年１０月２日兵庫県姫路市林田町下伊勢６０８番地株式会社大亀（4140002047798）に合併し解散,2015-10-05,1,,,,,ハリマタタミナイソウコウボウ,0
543,2180001095086,登記記録の閉鎖等,0,2023-10-11,2023-10-05,日鉄物流名古屋株式会社,,株式会社,愛知県,東海市,東海町５丁目３番地,,23,222,4760015,,,2023-10-05,合併による解散等,1010001098619,令和５年１０月１日東京都中央区日本橋一丁目１３番１号日鉄物流株式会社（1010001098619）に合併し解散,2015-10-05,1,,,,,ニッテツブツリュウナゴヤ,0
548,2180002062449,登記記録の閉鎖等,0,2023-10-11,2023-10-02,有限会社中京ハウスサービス,,有限会社,愛知県,日進市,岩崎台３丁目１３０１番地の２,,23,230,4700135,,,2023-10-02,清算の結了等,,,2015-10-05,1,,,,,チュウキョウハウスサービス,0
549,2180002082521,登記記録の閉鎖等,0,2023-10-11,2023-10-05,有限会社平井建創,,有限会社,愛知県,小牧市,藤島町徳願寺１３番地１,,23,219,4850064,,,2023-10-05,清算の結了等,,,2015-10-05,1,,,,,ヒライケンソウ,0
555,2190002017674,登記記録の閉鎖等,0,2023-10-11,2023-10-05,有限会社イトテン,,有限会社,三重県,員弁郡東員町,大字六把野新田５０６番地の１,,24,324,5110242,,,2023-10-05,清算の結了等,,,2015-10-05,1,,,,,イトテン,0
569,2250002010334,登記記録の閉鎖等,0,2023-10-11,2023-10-03,有限会社日眼,,有限会社,山口県,下関市,長府金屋町６番３号,,35,201,7520959,,,2023-10-03,清算の結了等,,,2015-10-05,1,,,,,ニチガン,0
610,2350002008186,登記記録の閉鎖等,0,2023-10-11,2023-10-02,有限会社菜輝,,有限会社,宮崎県,宮崎市,日ノ出町２１５番地,,45,201,8800856,,,2023-10-02,清算の結了等,,,2015-10-05,1,,,,,サイキ,0
614,2380001026673,登記記録の閉鎖等,0,2023-10-11,2023-10-03,株式会社カレント,,株式会社,福島県,会津若松市,宮町２番５号,,07,202,9650801,,,2023-10-03,清算の結了等,,,2016-04-13,1,,,,,カレント,0
636,2460005000427,登記記録の閉鎖等,0,2023-10-11,2023-10-06,医療法人社団アイ・デンタル伊藤歯科医院,,その他の設立登記法人,北海道,釧路市,黒金町１３丁目２３番地の７,,01,206,0850018,,,2023-10-06,清算の結了等,,,2015-10-05,1,,,,,アイデンタルイトウシカイイン,0
664,3010102002618,登記記録の閉鎖等,0,2023-10-11,2023-10-03,有限会社五十番,,有限会社,東京都,八王子市,横山町５番６号,,13,201,1920081,,,2023-10-03,清算の結了等,,,2015-10-05,1,,,,,,0
685,3010403016481,登記記録の閉鎖等,0,2023-10-11,2023-10-02,シリウス・ソーラー・ジャパン３０合同会社,,合同会社,秋田県,潟上市,昭和大久保字北野細谷道添７２番６６,,05,211,0181401,,,2023-10-02,合併による解散等,1410001010716,令和５年１０月１日秋田県潟上市昭和大久保字北野細谷道添７２番６６かたがみパワー株式会社（1410001010716）に合併し解散,2017-04-26,1,,,,,シリウスソーラージャパンサンジュウ,0
692,3010501033370,登記記録の閉鎖等,0,2023-10-11,2023-10-05,株式会社システム制御ジャパン,,株式会社,宮城県,仙台市青葉区,本町１丁目１２番３１号,,04,101,9800014,,,2023-10-05,清算の結了等,,,2015-10-05,1,,,,,システムセイギョジャパン,0
705,3010903007410,登記記録の閉鎖等,0,2023-10-11,2023-10-02,合同会社たらびんご,,合同会社,東京都,世田谷区,太子堂４丁目４番１５号セザール三軒茶屋３０４,,13,112,1540004,,,2023-10-02,清算の結了等,,,2022-06-02,1,,,,,タラビンゴ,0
707,3011001120527,登記記録の閉鎖等,0,2023-10-11,2023-09-22,ｒｏｏｍ株式会社,,株式会社,大阪府,大阪市浪速区,日本橋５丁目８番２１号,,27,111,5560005,,,2023-09-22,合併による解散等,5011101100063,令和５年８月３１日東京都中央区銀座六丁目８番６号ＩＣＨＩＲＯ株式会社（5011101100063）に合併し解散,2018-02-07,1,,,,,ルーム,0
714,3011101053148,登記記録の閉鎖等,0,2023-10-11,2023-10-06,株式会社フォース・ディレクション,,株式会社,東京都,新宿区,下宮比町３番１２号,,13,104,1620822,,,2023-10-06,合併による解散等,8011101022874,令和５年１０月１日東京都武蔵野市吉祥寺北町四丁目１番２４－１０９号グローリオ吉祥寺アークスブライトコート株式会社レンゴー（8011101022874）に合併し解散,2015-10-05,1,,,,,フォースディレクション,0
727,3011802025791,登記記録の閉鎖等,0,2023-10-11,2023-10-06,有限会社サンストーン,,有限会社,東京都,足立区,足立３丁目５番１０号,,13,121,1200015,,,2023-10-06,清算の結了等,,,2015-10-05,1,,,,,,0
737,3013401004549,登記記録の閉鎖等,0,2023-10-11,2023-10-05,富士フェステック株式会社,,株式会社,東京都,日野市,富士町１番地,,13,212,1910064,,,2023-10-05,合併による解散等,3190001005349,令和５年１０月１日東京都品川区大崎一丁目１１番２号富士電機ＦＡサービス株式会社（3190001005349）に合併し解散,2015-10-05,1,,,,,フジフェステック,0
745,3020002062075,登記記録の閉鎖等,0,2023-10-11,2023-10-02,有限会社ＬＡ総合設計事務所,,有限会社,神奈川県,横浜市西区,みなとみらい３丁目７番２－２１０８号,,14,103,2200012,,,2023-10-02,清算の結了等,,,2015-10-05,1,,,,,エルエーソウゴウセッケイジムショ,0
754,3021002074135,登記記録の閉鎖等,0,2023-10-11,2023-10-03,有限会社三喜,,有限会社,神奈川県,藤沢市,高倉４５２番地の６,,14,205,2520802,,,2023-10-03,清算の結了等,,,2023-10-02,1,,,,,ミキ,0
784,3070001016795,登記記録の閉鎖等,0,2023-10-11,2023-10-03,株式会社エルマン,,株式会社,群馬県,桐生市,新里町新川３１８６番地１,,10,203,3760121,,,2023-10-03,合併による解散等,1070001014792,令和５年１０月１日群馬県伊勢崎市赤堀今井町二丁目１１２２番地６株式会社Ｋ－２（1070001014792）に合併し解散,2015-10-05,1,,,,,エルマン,0
788,3070003004410,登記記録の閉鎖等,0,2023-10-11,2023-10-06,合同会社ＨａＲＹ,,合同会社,群馬県,太田市,城西町３番地８,,10,205,3730038,,,2023-10-06,清算の結了等,,,2022-03-08,1,,,,,ハリー,0
798,3090003001439,登記記録の閉鎖等,0,2023-10-11,2023-10-03,合同会社ｐａｌａｃｅ,,合同会社,神奈川県,厚木市,中町４丁目２番８号,,14,212,2430018,,,2023-10-03,清算の結了等,,,2018-08-30,1,,,,,パレス,0
799,3100001021239,登記記録の閉鎖等,0,2023-10-11,2023-10-02,株式会社サンスイ,,株式会社,長野県,上伊那郡飯島町,飯島２１６９番地,,20,384,3993702,,,2023-10-02,清算の結了等,,,2015-10-05,1,,,,,サンスイ,0
813,3120003018108,登記記録の閉鎖等,0,2023-10-11,2023-10-02,合同会社Ｂｏｓｃｈ,,合同会社,大阪府,大阪市淀川区,十八条２丁目１３番２６号,,27,123,5320001,,,2023-10-02,清算の結了等,,,2020-09-16,1,,,,,ボッシュ,0
818,3120901041920,登記記録の閉鎖等,0,2023-10-11,2023-10-02,株式会社テイジーセラ,,株式会社,大阪府,茨木市,田中町１番２２号,,27,211,5670025,,,2023-10-02,清算の結了等,,,2019-10-28,1,,,,,テイジーセラ,0
820,3120903000676,登記記録の閉鎖等,0,2023-10-11,2023-10-02,Ｔｏｌｌ日本合同会社,,合同会社,大阪府,茨木市,宿久庄２丁目１０番２号,,27,211,5670051,,,2023-10-02,清算の結了等,,,2015-10-05,1,,,,,トールニホン,0
840,3150003002323,登記記録の閉鎖等,0,2023-10-11,2023-10-10,マルナ桜合同会社,,合同会社,奈良県,奈良市,東城戸町５番地の１－５０２号,,29,201,6308344,,,2023-10-10,清算の結了等,,,2021-02-22,1,,,,,マルナオ,0
845,3180001086555,登記記録の閉鎖等,0,2023-10-11,2023-10-03,野田株式会社,,株式会社,愛知県,一宮市,千秋町浮野字竹腰３７番地,,23,203,4910806,,,2023-10-03,清算の結了等,,,2015-10-05,1,,,,,ノダ,0
851,3180001137630,登記記録の閉鎖等,0,2023-10-11,2023-10-05,株式会社ゴールドファンド,,株式会社,愛知県,名古屋市北区,平安１丁目９番１８号,,23,103,4620819,,,2023-10-05,清算の結了等,,,2019-08-07,1,,,,,ゴールドファンド,0
867,3180301005413,登記記録の閉鎖等,0,2023-10-11,2023-09-29,株式会社亀杉,,株式会社,愛知県,豊橋市,鍵田町５０番地,,23,201,4400856,,,2023-09-29,清算の結了等,,,2015-10-05,1,,,,,カメスギ,0
868,3180302013456,登記記録の閉鎖等,0,2023-10-11,2023-10-02,有限会社三納,,有限会社,愛知県,豊川市,下長山町岩下９６番地２,,23,207,4420824,,,2023-10-02,清算の結了等,,,2015-10-05,1,,,,,サンノウ,0
875,3200001034107,登記記録の閉鎖等,0,2023-10-11,2023-10-06,株式会社ＩＣＨＩＫＡＷＡ,,株式会社,岐阜県,岐阜市,旦島４丁目２番２号,,21,201,5020926,,,2023-10-06,清算の結了等,,,2017-06-08,1,,,,,イチカワ,0
879,3220001023181,登記記録の閉鎖等,0,2023-10-11,2023-09-25,Ｆｕｎｃｔｉｏｎ　Ｗｏｒｋｓ株式会社,,株式会社,石川県,金沢市,森山１丁目２番１号（２階２０１号）,,17,201,9200843,,,2023-09-25,合併による解散等,9010401072876,令和５年９月１日東京都港区芝３‐１‐１５芝ボートビル７Ｆ株式会社Ａｓｉａｎ　Ｂｒｉｄｇｅ（9010401072876）に合併し解散,2019-11-07,1,,,,,ファンクションワークス,0
881,3230001014444,登記記録の閉鎖等,0,2023-10-11,2023-10-06,株式会社ジェイピーサービス,,株式会社,富山県,氷見市,北大町２２番３３号,,16,205,9350004,,,2023-10-06,清算の結了等,,,2015-10-05,1,,,,,ジェイピーサービス,0
892,3290001052959,登記記録の閉鎖等,0,2023-10-11,2023-09-28,株式会社ゼロ,,株式会社,福岡県,福岡市中央区,大名２丁目２番２６号親和ビル６階,,40,133,8100041,,,2023-09-28,清算の結了等,,,2015-10-05,1,,,,,ゼロ,0
893,3290001085182,登記記録の閉鎖等,0,2023-10-11,2023-09-28,株式会社グッドアイ,,株式会社,福岡県,福岡市西区,姪の浜４丁目２２番１８－４０２号,,40,135,8190002,,,2023-09-28,清算の結了等,,,2019-05-13,1,,,,,グッドアイ,0
897,3290002035830,登記記録の閉鎖等,0,2023-10-11,2023-09-28,有限会社オフィス小室,,有限会社,福岡県,福津市,若木台５丁目７番地の６,,40,224,8113221,,,2023-09-28,清算の結了等,,,2015-10-05,1,,,,,,0
898,3290002052974,登記記録の閉鎖等,0,2023-10-11,2023-09-28,株式会社ＩＭＫ,,株式会社,福岡県,福岡市中央区,大名２丁目２番２６号親和ビル６階,,40,133,8100041,,,2023-09-28,清算の結了等,,,2015-10-05,1,,,,,アイエムケイ,0
901,3290005012934,登記記録の閉鎖等,0,2023-10-11,2023-09-29,一般社団法人福岡市乳牛育成協会,,その他の設立登記法人,福岡県,福岡市南区,大字柏原７１０番地の２福岡市油山牧場内,,40,134,8111353,,,2023-09-29,清算の結了等,,,2015-10-05,1,,,,,フクオカシニュウギュウイクセイキョウカイ,0
903,3300001004066,登記記録の閉鎖等,0,2023-10-11,2023-10-02,株式会社大久良,,株式会社,佐賀県,小城市,小城町池上３５１６番地１,,41,208,8450012,,,2023-10-02,合併による解散等,2300002011517,令和５年１０月１日佐賀県唐津市和多田大土井１０番２１号株式会社ジョイント（2300002011517）に合併し解散,2015-10-05,1,,,,,オオクラ,0
906,3310002005649,登記記録の閉鎖等,0,2023-10-11,2023-10-06,有限会社文字企画,,有限会社,長崎県,長崎市,元船町１３番２号,,42,201,8500035,,,2023-10-06,清算の結了等,,,2015-10-05,1,,,,,モジキカク,0
908,3310002011382,登記記録の閉鎖等,0,2023-10-11,2023-09-29,有限会社古川商会,,有限会社,長崎県,佐世保市,卸本町１番５号,,42,202,8571162,,,2023-09-29,清算の結了等,,,2015-10-05,1,,,,,フルカワショウカイ,0
925,3370003000825,登記記録の閉鎖等,0,2023-10-11,2023-09-15,合資会社赤川電工社,,合資会社,宮城県,仙台市太白区,ひより台５１番３３号,,04,104,9820811,,,2023-09-15,清算の結了等,,,2015-10-05,1,,,,,アカガワデンコウシャ,0
931,3410001005739,登記記録の閉鎖等,0,2023-10-11,2023-09-29,株式会社南羽燃料,,株式会社,秋田県,湯沢市,森字熊ノ堂上羽場１５番地,,05,207,0120011,,,2023-09-29,清算の結了等,,,2015-10-05,1,,,,,ナンウネンリョウ,0
933,3420005002137,登記記録の閉鎖等,0,2023-10-11,2023-10-03,特定非営利活動法人あおもり新鮮組,,その他の設立登記法人,青森県,青森市,新町２丁目６番２７号,,02,201,0300801,,,2023-10-03,清算の結了等,,,2015-10-05,1,,,,,アオモリシンセングミ,0
942,3440001001066,登記記録の閉鎖等,0,2023-10-11,2023-10-04,総合運輸株式会社,,株式会社,北海道,函館市,北浜町８番１５号,,01,202,0400078,,,2023-10-04,清算の結了等,,,2015-10-05,1,,,,,ソウゴウウンユ,0
945,3470002016003,登記記録の閉鎖等,0,2023-10-11,2023-10-05,有限会社七福,,有限会社,香川県,観音寺市,柞田町甲８５７番地,,37,205,7680040,,,2023-10-05,清算の結了等,,,2015-10-05,1,,,,,シチフク,0
949,3490005005934,登記記録の閉鎖等,0,2023-10-11,2023-10-05,特定非営利活動法人土佐の太平洋高気圧,,その他の設立登記法人,高知県,安芸市,本町３丁目１２番２１号,,39,203,7840004,,,2023-10-05,清算の結了等,,,2015-10-05,1,,,,,トサノタイヘイヨウコウキアツ,0
971,4010401097432,登記記録の閉鎖等,0,2023-10-11,2023-09-21,株式会社ＦＡＮＴＡＳＹ　ＰＲＯＤＵＣＴＩＯＮ,,株式会社,東京都,港区,高輪３丁目１４番３１－７０３号,,13,103,1080074,,,2023-09-21,清算の結了等,,,2015-10-05,1,,,,,ファンタジープロダクション,0
975,4010401133864,登記記録の閉鎖等,0,2023-10-11,2023-10-02,株式会社ＥＳＣＲＩＢＡ　ＪＡＰＡＮ,,株式会社,東京都,渋谷区,恵比寿４丁目２０番４号,,13,113,1500013,,,2023-10-02,合併による解散等,5010401098363,令和５年１０月１日東京都渋谷区恵比寿四丁目２０番４号株式会社トランジットジェネラルオフィス（5010401098363）に合併し解散,2017-09-25,1,,,,,エスクリバジャパン,0
977,4010401137964,登記記録の閉鎖等,0,2023-10-11,2023-09-20,ザ・モトリーフール・ジャパン株式会社,,株式会社,東京都,港区,南麻布３丁目１９番２３号オーク南麻布ビル２階,,13,103,1060047,,,2023-09-20,清算の結了等,,,2018-04-19,1,,,,,ザモトリーフールジャパン,0
981,4010401159406,登記記録の閉鎖等,0,2023-10-11,2023-09-20,株式会社ケプロ,,株式会社,東京都,港区,愛宕２丁目５番１号愛宕グリーンヒルズＭＯＲＩタワー３８Ｆ,,13,103,1050002,,,2023-09-20,清算の結了等,,,2021-04-08,1,,,,,ケプロ,0
987,4010403016489,登記記録の閉鎖等,0,2023-10-11,2023-10-02,シリウス・ソーラー・ジャパン３８合同会社,,合同会社,秋田県,潟上市,昭和大久保字北野細谷道添７２番６６,,05,211,0181401,,,2023-10-02,合併による解散等,1410001010716,令和５年１０月１日秋田県潟上市昭和大久保字北野細谷道添７２番６６かたがみパワー株式会社（1410001010716）に合併し解散,2017-04-26,1,,,,,シリウスソーラージャパンサンジュウハチ,0
998,4010801003114,登記記録の閉鎖等,0,2023-10-11,2023-10-02,共同リネンサプライ株式会社,,株式会社,東京都,大田区,下丸子２丁目１１番６号,,13,111,1460092,,,2023-10-02,合併による解散等,4011001018621,令和５年１０月１日東京都大田区下丸子二丁目１１番８号株式会社白洋舎（4011001018621）に合併し解散,2015-10-05,1,,,,,キョウドウリネンサプライ,0
1004,4011003006293,登記記録の閉鎖等,0,2023-10-11,2023-10-06,Ｈｏｖｅ合同会社,,合同会社,東京都,目黒区,目黒１丁目４番１６号目黒Ｇビル７Ｆ,,13,110,1530063,,,2023-10-06,合併による解散等,5011003009139,令和５年９月３０日東京都板橋区中台一丁目２８番８号Ｋ＆Ｍアセット合同会社（5011003009139）に合併し解散,2015-10-15,1,,,,,ホーブ,0
1041,4020005013132,登記記録の閉鎖等,0,2023-10-11,2023-09-27,特定非営利活動法人日本高齢者健康福祉国際協会,,その他の設立登記法人,神奈川県,横浜市中区,扇町３丁目８番地４ビッグヴァン関内ビル７階,,14,104,2310027,,,2023-09-27,清算の結了等,,,2017-05-18,1,,,,,ニホンコウレイシャケンコウフクシコクサイキョウカイ,0
1055,4030002105939,登記記録の閉鎖等,0,2023-10-11,2023-09-19,有限会社野口製袋所,,有限会社,埼玉県,川口市,東領家４丁目１１番１４号,,11,203,3320003,,,2023-09-19,清算の結了等,,,2015-10-05,1,,,,,ノグチセイタイショ,0
1065,4040002087846,登記記録の閉鎖等,0,2023-10-11,2023-09-25,有限会社マインド・コーポレーション,,有限会社,千葉県,香取市,小見川４８６６番地の４５７（３６－７）,,12,236,2890313,,,2023-09-25,清算の結了等,,,2015-10-05,1,,,,,マインドコーポレーション,0
1066,4040002097242,登記記録の閉鎖等,0,2023-10-11,2023-09-22,有限会社高橋建築デザイン,,有限会社,千葉県,野田市,二ツ塚４６１番地の４３,,12,208,2780016,,,2023-09-22,清算の結了等,,,2015-10-05,1,,,,,タカハシケンチクデザイン,0
1067,4040005016769,登記記録の閉鎖等,0,2023-10-11,2023-09-25,特定非営利活動法人マーロード,,その他の設立登記法人,千葉県,市川市,原木２丁目１番１３号,,12,203,2720004,,,2023-09-25,清算の結了等,,,2015-10-05,1,,,,,マーロード,0
1078,4070002020746,登記記録の閉鎖等,0,2023-10-11,2023-10-06,有限会社コバヤシ機工,,有限会社,群馬県,佐波郡玉村町,大字五料１０５５番地１,,10,464,3701115,,,2023-10-06,清算の結了等,,,2015-10-05,1,,,,,コバヤシキコウ,0
1082,4080101016917,登記記録の閉鎖等,0,2023-10-11,2023-10-02,株式会社福禄寿,,株式会社,静岡県,富士市,松岡２３９４番地の６,,22,210,4160909,,,2023-10-02,合併による解散等,7080101015354,令和５年９月３０日静岡県富士市松岡２３９４番地の６株式会社たいざんエンターテイメント（7080101015354）に合併し解散,2015-10-05,1,,,,,フクロクジュ,0
1106,4120003013223,登記記録の閉鎖等,0,2023-10-11,2023-10-02,合同会社アジサイ,,合同会社,大阪府,大阪市北区,梅田１丁目２－２－２００大阪駅前第２ビル２階,,27,127,5300001,,,2023-10-02,合併による解散等,1120003013192,令和５年１０月１日大阪市此花区朝日二丁目１８番８号３Ｆ合同会社ハナミズキ（1120003013192）に合併し解散,2017-09-01,1,,,,,アジサイ,0
1112,4130001053641,登記記録の閉鎖等,0,2023-10-11,2023-09-27,株式会社Ｆｏｕｒ　Ｓｔａｒ,,株式会社,京都府,京都市中京区,木屋町通三条上る上大阪町５２１番地京都エンパイアビル８０１号,,26,104,6048001,,,2023-09-27,清算の結了等,,,2015-10-05,1,,,,,フォースター,0
1130,4140002034425,登記記録の閉鎖等,0,2023-10-11,2023-10-04,有限会社足立経営,,有限会社,兵庫県,丹波市,氷上町下新庄９３７番地６,,28,223,6693614,,,2023-10-04,清算の結了等,,,2015-10-05,1,,,,,アダチケイエイ,0
1145,4180001113481,登記記録の閉鎖等,0,2023-10-11,2023-10-04,株式会社名北サポート,,株式会社,愛知県,西春日井郡豊山町,大字豊場字八反１０７番地,,23,342,4800202,,,2023-10-04,清算の結了等,,,2015-10-05,1,,,,,メイホクサポート,0
1146,4180001129866,登記記録の閉鎖等,0,2023-10-11,2023-10-05,ホワイトイノベーション株式会社,,株式会社,愛知県,名古屋市中区,錦３丁目１５番３２号,,23,106,4600003,,,2023-10-05,清算の結了等,,,2017-10-26,1,,,,,ホワイトイノベーション,0
1159,4180303001970,登記記録の閉鎖等,0,2023-10-11,2023-10-02,合資会社スミヤ,,合資会社,愛知県,安城市,御幸本町１６番３号,,23,212,4460032,,,2023-10-02,清算の結了等,,,2015-10-05,1,,,,,スミヤ,0
1162,4200005012173,登記記録の閉鎖等,0,2023-10-11,2023-10-06,特定非営利活動法人にこにこ,,その他の設立登記法人,岐阜県,中津川市,下野１５２６番地１,,21,206,5080202,,,2023-10-06,清算の結了等,,,2015-10-05,1,,,,,ニコニコ,0
1167,4230002010920,登記記録の閉鎖等,0,2023-10-11,2023-10-06,有限会社きもの山崎,00079145,有限会社,富山県,高岡市,問屋町２３０番地,,16,202,9330804,,,2023-10-06,清算の結了等,,,2015-10-05,1,,,,,キモノヤマザキ,0
1169,4240001009351,登記記録の閉鎖等,0,2023-10-11,2023-10-05,広島スチール加工株式会社,,株式会社,広島県,広島市南区,出島２丁目１４番７号,,34,103,7340013,,,2023-10-05,合併による解散等,1010701004941,令和５年１０月１日東京都品川区西五反田七丁目１６番８号株式会社ＫＭＣ（1010701004941）に合併し解散,2015-10-05,1,,,,,ヒロシマスチールカコウ,0
1173,4250001000012,登記記録の閉鎖等,0,2023-10-11,2023-10-04,アイエス建設株式会社,,株式会社,山口県,山口市,宮野下２９２７番地２,,35,203,7530011,,,2023-10-04,清算の結了等,,,2015-10-05,1,,,,,アイエスケンセツ,0
1183,4290001074382,登記記録の閉鎖等,0,2023-10-11,2023-09-28,株式会社フォルテ,,株式会社,福岡県,大野城市,南大利１丁目８番１２号,,40,219,8160956,,,2023-09-28,清算の結了等,,,2016-06-29,1,,,,,フォルテ,0
1213,4390002005649,登記記録の閉鎖等,0,2023-10-11,2023-10-05,有限会社トライアール,,有限会社,山形県,天童市,清池東１丁目２番５号,,06,210,9940069,,,2023-10-05,清算の結了等,,,2015-10-05,1,,,,,トライアール,0
1217,4430001058437,登記記録の閉鎖等,0,2023-10-11,2023-10-04,株式会社クララ,,株式会社,三重県,いなべ市,北勢町阿下喜２９８９番地１,,24,214,5110428,,,2023-10-04,合併による解散等,9440001006340,令和５年１０月１日北海道二海郡八雲町立岩３１０番地７株式会社サンテック（9440001006340）に合併し解散,2015-10-05,1,,,,,クララ,0
1229,4470001014460,登記記録の閉鎖等,0,2023-10-11,2023-10-10,株式会社ラグランジュポイント,,株式会社,香川県,高松市,高松町８９番地６,,37,201,7610104,,,2023-10-10,清算の結了等,,,2015-10-05,1,,,,,ラグランジュポイント,0
1238,5010001219468,登記記録の閉鎖等,0,2023-10-11,2023-10-02,株式会社Ｔｌａｎｓｅａｉｒ,,株式会社,東京都,中央区,日本橋蛎殻町１丁目５番６号,,13,102,1030014,,,2023-10-02,合併による解散等,2010001227812,令和５年１０月１日東京都中央区日本橋蛎殻町一丁目５番６号アスラポート株式会社（2010001227812）に合併し解散,2021-07-09,1,,,,,トランセア,0
1242,5010003036738,登記記録の閉鎖等,0,2023-10-11,2023-10-02,Ｍｒ．Ｆｌｏｗ合同会社,,合同会社,東京都,千代田区,九段南１丁目５番６号りそな九段ビル５Ｆ・ＫＳフロア,,13,101,1020074,,,2023-10-02,清算の結了等,,,2022-01-18,1,,,,,ミスターフロー,0
1246,5010005036298,登記記録の閉鎖等,0,2023-10-11,2023-10-05,一般社団法人ＪＦ１１淀屋橋キャピタル,,その他の設立登記法人,東京都,千代田区,丸の内３丁目１番１号東京共同会計事務所内,,13,101,1000005,,,2023-10-05,清算の結了等,,,2023-03-02,1,,,,,ジェイエフイレブンヨドヤバシキャピタル,0
1258,5010403019169,登記記録の閉鎖等,0,2023-10-11,2023-09-21,Ｍｙｓｍ合同会社,,合同会社,東京都,港区,六本木１丁目５番３号泉ガーデンレジデンス,,13,103,1060032,,,2023-09-21,清算の結了等,,,2018-08-23,1,,,,,マイズム,0
1267,5010601013106,登記記録の閉鎖等,0,2023-10-11,2023-10-03,株式会社トーワ,,株式会社,東京都,墨田区,八広４丁目４４番１５号,,13,107,1310041,,,2023-10-03,清算の結了等,,,2015-10-05,1,,,,,トーワ,0
1273,5010801003278,登記記録の閉鎖等,0,2023-10-11,2023-10-03,株式会社熊本,,株式会社,東京都,大田区,南馬込６丁目１０番１６号,,13,111,1430025,,,2023-10-03,清算の結了等,,,2015-10-05,1,,,,,クマモト,0
1279,5011001071132,登記記録の閉鎖等,0,2023-10-11,2023-10-03,グリーン漢方製薬株式会社,,株式会社,東京都,渋谷区,富ヶ谷１丁目２０番１４号,,13,113,1510063,,,2023-10-03,清算の結了等,,,2015-10-05,1,,,,,グリーンカンポウセイヤク,0
1280,5011001104817,登記記録の閉鎖等,0,2023-10-11,2023-10-02,株式会社キャリアデザイン・アカデミー,,株式会社,東京都,渋谷区,恵比寿４丁目１番１８号,,13,113,1500013,,,2023-10-02,合併による解散等,5011001061661,令和５年１０月１日東京都渋谷区恵比寿四丁目１番１８号株式会社ティーガイア（5011001061661）に合併し解散,2015-10-05,1,,,,,キャリアデザインアカデミー,0
1281,5011001138807,登記記録の閉鎖等,0,2023-10-11,2023-10-05,株式会社Ｕｒｏｂｏｒｏｓ,,株式会社,東京都,目黒区,青葉台３丁目１番２１－１００１号,,13,110,1530042,,,2023-10-05,清算の結了等,,,2021-02-26,1,,,,,ウロボロス,0
1320,5011802017663,登記記録の閉鎖等,0,2023-10-11,2023-10-04,有限会社平賀,,有限会社,東京都,足立区,保木間４丁目７番１３号,,13,121,1210064,,,2023-10-04,清算の結了等,,,2015-10-05,1,,,,,ヘイガ,0
1373,5040002053293,登記記録の閉鎖等,0,2023-10-11,2023-09-22,有限会社アリーバ,,有限会社,千葉県,松戸市,五香南１丁目２０番地の２,,12,207,2702212,,,2023-09-22,清算の結了等,,,2015-10-05,1,,,,,アリーバ,0
1388,5080401019478,登記記録の閉鎖等,0,2023-10-11,2023-10-06,ＩＴ企画株式会社,,株式会社,静岡県,浜松市浜北区,平口５２４７番地,,22,136,4340041,,,2023-10-06,清算の結了等,,,2015-10-05,1,,,,,アイティーキカク,0
1399,5120001016318,登記記録の閉鎖等,0,2023-10-11,2023-10-03,株式会社ミキハウス,,株式会社,大阪府,大阪市城東区,諏訪４丁目４番７号,,27,118,5360021,,,2023-10-03,清算の結了等,,,2015-10-05,1,,,,,ミキハウス,0
1402,5120001065942,登記記録の閉鎖等,0,2023-10-11,2023-09-28,セキスイドキュメントサービス株式会社,,株式会社,京都府,京都市南区,上鳥羽上調子町２番地２,,26,107,6018105,,,2023-09-28,清算の結了等,,,2015-10-05,1,,,,,,0
1433,5130003008436,登記記録の閉鎖等,0,2023-10-11,2023-09-27,Ｓｉｆａ合同会社,,合同会社,京都府,京田辺市,薪長尾谷５２－３７,,26,211,6100341,,,2023-09-27,清算の結了等,,,2023-01-13,1,,,,,シーファ,0
1435,5140001031785,登記記録の閉鎖等,0,2023-10-11,2023-10-02,株式会社東紫縁,,株式会社,兵庫県,神戸市中央区,元町通２丁目５－５,,28,110,6500022,,,2023-10-02,清算の結了等,,,2015-10-05,1,,,,,トウシエン,0
1448,5160002010092,登記記録の閉鎖等,0,2023-10-11,2023-10-06,有限会社三共空調,,有限会社,滋賀県,東近江市,昭和町二丁目１３番地,,25,213,5270017,,,2023-10-06,清算の結了等,,,2015-10-05,1,,,,,サンキョウクウチョウ,0
1454,5180001137868,登記記録の閉鎖等,0,2023-10-11,2023-10-05,株式会社アイビー,,株式会社,愛知県,名古屋市中区,栄１丁目６番１５号グランドメゾン御園座タワー１６０１号,,23,106,4600008,,,2023-10-05,清算の結了等,,,2019-08-27,1,,,,,アイビー,0
1460,5180002003672,登記記録の閉鎖等,0,2023-10-11,2023-10-04,有限会社ウイング,,有限会社,愛知県,日進市,五色園１丁目１１０８番地,,23,230,4700105,,,2023-10-04,清算の結了等,,,2015-10-05,1,,,,,ウイング,0
1465,5180002063188,登記記録の閉鎖等,0,2023-10-11,2023-10-03,有限会社モルト,,有限会社,愛知県,日進市,岩崎台１丁目６１６番地,,23,230,4700135,,,2023-10-03,清算の結了等,,,2015-10-05,1,,,,,モルト,0
1466,5180002092468,登記記録の閉鎖等,0,2023-10-11,2023-10-03,有限会社横山製作所,,有限会社,愛知県,あま市,七宝町川部丸田６番地の８,,23,237,4970013,,,2023-10-03,清算の結了等,,,2015-10-05,1,,,,,ヨコヤマセイサクショ,0
1482,5240001003733,登記記録の閉鎖等,0,2023-10-11,2023-10-05,株式会社山陽製作所,,株式会社,広島県,広島市佐伯区,五日市１丁目１２番２０号,,34,108,7315127,,,2023-10-05,清算の結了等,,,2015-10-05,1,,,,,サンヨウセイサクショ,0
1483,5240001021603,登記記録の閉鎖等,0,2023-10-11,2023-09-29,合同会社デオデオ,,合同会社,広島県,広島市中区,大手町１丁目１番３０号,,34,101,7300051,,,2023-09-29,清算の結了等,,,2015-10-05,1,,,,,デオデオ,0
1493,5250002008615,登記記録の閉鎖等,0,2023-10-11,2023-10-03,有限会社河井工務店,,有限会社,山口県,下関市,山の田西町７番５号,,35,201,7510836,,,2023-10-03,清算の結了等,,,2015-10-05,1,,,,,,0
1499,5260001029306,登記記録の閉鎖等,0,2023-10-11,2023-10-05,株式会社Ｌｉｓｃｏ,,株式会社,岡山県,岡山市北区,磨屋町６番２３号,,33,101,7000826,,,2023-10-05,清算の結了等,,,2016-03-04,1,,,,,,0
1502,5290001016235,登記記録の閉鎖等,0,2023-10-11,2023-10-05,九州キャピタルファイナンス株式会社,,株式会社,福岡県,福岡市博多区,上川端町１２番２０号,,40,132,8120026,,,2023-10-05,合併による解散等,5010401072079,令和５年１０月１日東京都千代田区丸の内一丁目３番２号三井住友ファイナンス＆リース株式会社（5010401072079）に合併し解散,2015-10-05,1,,,,,キュウシュウキャピタルファイナンス,0
1506,5290001067022,登記記録の閉鎖等,0,2023-10-11,2023-09-28,いまのしょう株式会社,,株式会社,福岡県,古賀市,今の庄２丁目１０番２１号,,40,223,8113117,,,2023-09-28,清算の結了等,,,2015-10-05,1,,,,,,0
1507,5290001072749,登記記録の閉鎖等,0,2023-10-11,2023-09-28,ＡＣＴ　ＬＩＮＥ株式会社,,株式会社,福岡県,春日市,昇町３丁目９６番地,,40,218,8160851,,,2023-09-28,清算の結了等,,,2016-02-03,1,,,,,,0
1514,5290801013662,登記記録の閉鎖等,0,2023-10-11,2023-10-10,佐竹商事株式会社,,株式会社,福岡県,北九州市八幡東区,大蔵１丁目１８番１１号,,40,108,8050048,,,2023-10-10,清算の結了等,,,2015-10-05,1,,,,,サタケショウジ,0
1518,5310002006265,登記記録の閉鎖等,0,2023-10-11,2023-10-02,株式会社トータルビューティーセイプ,,株式会社,長崎県,長崎市,出島町１２番２１号,,42,201,8500862,,,2023-10-02,合併による解散等,6310001012321,令和５年１０月１日長崎市出島町１２番２１号株式会社セイプホールディングス（6310001012321）に合併し解散,2015-10-05,1,,,,,トータルビューティーセイプ,0
1519,5310002010309,登記記録の閉鎖等,0,2023-10-11,2023-10-04,丈田塗装工業有限会社,,有限会社,長崎県,佐世保市,横尾町１７８３番地２,,42,202,8570018,,,2023-10-04,清算の結了等,,,2015-10-05,1,,,,,ジョウタトソウコウギョウ,0
1540,5380002006168,登記記録の閉鎖等,0,2023-10-11,2023-10-05,有限会社菅野瓦店,,有限会社,福島県,伊達市,保原町字六万坊２８番地,,07,213,9600639,,,2023-10-05,清算の結了等,,,2015-10-05,1,,,,,カンノカワラテン,0
1547,5420001001306,登記記録の閉鎖等,0,2023-10-11,2023-10-03,株式会社第一浄化槽センター,,株式会社,青森県,青森市,大字高田字朝日山８０９番地３０３,,02,201,0300151,,,2023-10-03,清算の結了等,,,2015-10-05,1,,,,,ダイイチジョウカソウセンター,0
1550,5430001005396,登記記録の閉鎖等,0,2023-10-11,2023-10-02,株式会社ケーデーテーシステムズ,,株式会社,北海道,札幌市白石区,中央二条７丁目１番１号,,01,104,0030012,,,2023-10-02,合併による解散等,3430001008533,令和５年１０月１日札幌市白石区中央二条七丁目１番１号株式会社住まいのクワザワ（3430001008533）に合併し解散,2015-10-05,1,,,,,ケーデーテーシステムズ,0
1578,6010001187904,登記記録の閉鎖等,0,2023-10-11,2023-10-05,株式会社ＪＳリサイクルホールディングス,,株式会社,富山県,高岡市,福岡町本領１０５３番地１,,16,202,9390135,,,2023-10-05,合併による解散等,1230001011278,令和５年１０月１日富山県高岡市福岡町本領１０５３番地１ハリタ金属株式会社（1230001011278）に合併し解散,2017-11-27,1,,,,,ジェイエスリサイクルホールディングス,0
1594,6010401142533,登記記録の閉鎖等,0,2023-10-11,2023-10-03,株式会社国際健康研究院,,株式会社,愛知県,名古屋市中区,新栄２丁目４番５号,,23,106,4600007,,,2023-10-03,清算の結了等,,,2018-12-10,1,,,,,コクサイケンコウケンキュウイン,0
1595,6010401163059,登記記録の閉鎖等,0,2023-10-11,2023-09-21,株式会社エムエイト,,株式会社,東京都,港区,高輪３丁目７番８号西町ビル４階,,13,103,1080074,,,2023-09-21,清算の結了等,,,2021-10-06,1,,,,,エムエイト,0
1604,6010405014992,登記記録の閉鎖等,0,2023-10-11,2023-09-22,ＲＰＡ一般社団法人,,その他の設立登記法人,東京都,港区,虎ノ門４丁目１番２８号,,13,103,1050001,,,2023-09-22,清算の結了等,,,2016-08-01,1,,,,,アールピーエー,0
1613,6010701018251,登記記録の閉鎖等,0,2023-10-11,2023-10-02,株式会社ＡＫ商会,,株式会社,東京都,渋谷区,道玄坂１丁目１７番９号ヴェラハイツ７０７,,13,113,1500043,,,2023-10-02,合併による解散等,8011002033525,令和５年１０月１日東京都渋谷区道玄坂一丁目１７番９号ヴェラハイツ１１０１株式会社５８８４（8011002033525）に合併し解散,2015-10-05,1,,,,,エーケイショウカイ,0
1620,6010802009307,登記記録の閉鎖等,0,2023-10-11,2023-10-03,有限会社チョウセイ,,有限会社,東京都,大田区,仲六郷２丁目３５番７号,,13,111,1440055,,,2023-10-03,清算の結了等,,,2015-10-05,1,,,,,チョウセイ,0
1625,6011001024510,登記記録の閉鎖等,0,2023-10-11,2023-10-05,株式会社雨宮和光,,株式会社,東京都,渋谷区,広尾１丁目９番１８号,,13,113,1500012,,,2023-10-05,清算の結了等,,,2015-10-05,1,,,,,アメミヤワコウ,0
1627,6011001136504,登記記録の閉鎖等,0,2023-10-11,2023-10-03,株式会社クラウドアーチ,,株式会社,東京都,渋谷区,恵比寿４丁目２０番３号,,13,113,1500013,,,2023-10-03,清算の結了等,,,2020-10-21,1,,,,,クラウドアーチ,0
1629,6011001148862,登記記録の閉鎖等,0,2023-10-11,2023-09-26,ＦＲＥＥＥＭＥＲ株式会社,,株式会社,東京都,渋谷区,渋谷２丁目１９－１５宮益坂ビルディング６０９,,13,113,1500002,,,2023-09-26,清算の結了等,,,2022-08-08,1,,,,,フリーマー,0
1642,6011105009408,登記記録の閉鎖等,0,2023-10-11,2023-10-05,Ｔプロジェクト特定目的会社,,その他の設立登記法人,東京都,新宿区,四谷２丁目９番地１５東京ユナイテッド綜合事務所内,,13,104,1600004,,,2023-10-05,清算の結了等,,,2020-07-03,1,,,,,ティープロジェクト,0
1646,6011205000381,登記記録の閉鎖等,0,2023-10-11,2023-10-04,特定非営利活動法人日本ルネサンス音楽普及協会,,その他の設立登記法人,東京都,中野区,弥生町１丁目２７番５号,,13,114,1640013,,,2023-10-04,清算の結了等,,,2015-10-05,1,,,,,ニホンルネサンスオンガクフキュウキョウカイ,0
1669,6013302015403,登記記録の閉鎖等,0,2023-10-11,2023-09-29,有限会社日本検査,,有限会社,東京都,豊島区,東池袋２丁目４５番９号,,13,116,1700013,,,2023-09-29,清算の結了等,,,2015-10-05,1,,,,,ニホンケンサ,0
1684,6021001056692,登記記録の閉鎖等,0,2023-10-11,2023-10-03,株式会社ホケンプレイス,,株式会社,神奈川県,伊勢原市,桜台１丁目１５番２７号Ｍビル４Ｆ,,14,214,2591132,,,2023-10-03,清算の結了等,,,2015-10-05,1,,,,,ホケンプレイス,0
1710,6030005003007,登記記録の閉鎖等,0,2023-10-11,2023-09-19,医療法人三健会飯野医院,,その他の設立登記法人,埼玉県,蕨市,錦町５丁目１２番１４号,,11,223,3350005,,,2023-09-19,清算の結了等,,,2015-10-05,1,,,,,サンケンカイイイノイイン,0
1716,6040002090419,登記記録の閉鎖等,0,2023-10-11,2023-09-25,有限会社染谷,,有限会社,千葉県,柏市,柏１２６８番地４,,12,217,2770005,,,2023-09-25,清算の結了等,,,2015-10-05,1,,,,,ソメヤ,0
1727,6060001016645,登記記録の閉鎖等,0,2023-10-11,2023-10-06,株式会社丸和住宅,,株式会社,栃木県,栃木市,境町２３番２６号,,09,203,3280043,,,2023-10-06,合併による解散等,8050001002009,令和５年１０月１日茨城県水戸市笠原町１１９６番地の１５株式会社ノーブルホーム（8050001002009）に合併し解散,2015-10-05,1,,,,,マルワジュウタク,0
1731,6060001029309,登記記録の閉鎖等,0,2023-10-11,2023-10-06,とちぎリフォーム株式会社,,株式会社,栃木県,栃木市,箱森町２０番２４号,,09,203,3280075,,,2023-10-06,合併による解散等,8050001002009,令和５年１０月１日茨城県水戸市笠原町１１９６番地の１５株式会社ノーブルホーム（8050001002009）に合併し解散,2017-04-24,1,,,,,トチギリフォーム,0
1736,6070002029554,登記記録の閉鎖等,0,2023-10-11,2023-10-05,有限会社下山製作所,,有限会社,群馬県,太田市,大原町１０５３番地,,10,205,3792304,,,2023-10-05,清算の結了等,,,2015-10-05,1,,,,,シモヤマセイサクショ,0
1752,6120001108403,登記記録の閉鎖等,0,2023-10-11,2023-10-02,株式会社キルトゲイトジャパン,,株式会社,大阪府,大阪市中央区,博労町４丁目２番１５号,,27,128,5410059,,,2023-10-02,清算の結了等,,,2015-10-05,1,,,,,キルトゲイトジャパン,0
1760,6120002053029,登記記録の閉鎖等,0,2023-10-11,2023-10-03,有限会社ボイス,,有限会社,大阪府,大阪市住吉区,我孫子西２丁目６番２３－３０５号,,27,120,5580015,,,2023-10-03,清算の結了等,,,2015-10-05,1,,,,,ボイス,0
1770,6130005004168,登記記録の閉鎖等,0,2023-10-11,2023-10-05,医療法人社団林医院,,その他の設立登記法人,京都府,京都市伏見区,深草堀田町１０番地の１ローズマンション藤の森Ｃ棟２０６,,26,109,6120026,,,2023-10-05,清算の結了等,,,2015-10-05,1,,,,,ハヤシイイン,0
1771,6140001040439,登記記録の閉鎖等,0,2023-10-11,2023-10-04,株式会社アトム,,株式会社,兵庫県,赤穂市,東有年１５７番地の２,,28,212,6781185,,,2023-10-04,清算の結了等,,,2015-10-05,1,,,,,アトム,0
1773,6140001059248,登記記録の閉鎖等,0,2023-10-11,2023-09-28,神興海運株式会社,,株式会社,兵庫県,姫路市,広畑区大町１丁目４１番地,,28,201,6711155,,,2023-09-28,清算の結了等,,,2015-10-05,1,,,,,シンコウカイウン,0
1779,6140002069956,登記記録の閉鎖等,0,2023-10-11,2023-10-04,有限会社森本工務店,,有限会社,兵庫県,南あわじ市,福良乙７７４番地の１７,,28,224,6560502,,,2023-10-04,清算の結了等,,,2015-10-05,1,,,,,モリモトコウムテン,0
1801,6180301025152,登記記録の閉鎖等,0,2023-10-11,2023-10-02,トヨカワフーズ株式会社,,株式会社,愛知県,豊川市,伊奈町南山新田１５７番地,,23,207,4410105,,,2023-10-02,合併による解散等,1180301010373,令和５年１０月１日愛知県豊川市橋尾町郷３７番地の１豊川ハム株式会社（1180301010373）に合併し解散,2015-10-05,1,,,,,トヨカワフーズ,0
1810,6200001016853,登記記録の閉鎖等,0,2023-10-11,2023-10-05,株式会社スイトサービス,,株式会社,岐阜県,大垣市,南頬町１丁目９８番地１,00080956,21,202,5030864,,,2023-10-05,清算の結了等,,,2015-10-05,1,,,,,スイトサービス,0
1819,6230001011884,登記記録の閉鎖等,0,2023-10-11,2023-10-04,株式会社フェイス,,株式会社,富山県,高岡市,問屋町４９番地,,16,202,9330804,,,2023-10-04,清算の結了等,,,2015-10-05,1,,,,,フェイス,0
1823,6240001011017,登記記録の閉鎖等,0,2023-10-11,2023-10-05,松下興産株式会社,,株式会社,広島県,広島市西区,楠木町１丁目５番１６号,,34,104,7330002,,,2023-10-05,清算の結了等,,,2015-10-05,1,,,,,マツシタコウサン,0
1826,6240001041658,登記記録の閉鎖等,0,2023-10-11,2023-10-04,株式会社宇手名,,株式会社,広島県,東広島市,安芸津町風早３１５５番地４,,34,212,7392403,,,2023-10-04,清算の結了等,,,2015-10-05,1,,,,,ウテナ,0
1841,6290003007058,登記記録の閉鎖等,0,2023-10-11,2023-09-28,合同会社森脇,,合同会社,福岡県,飯塚市,綱分７１３番地４１,,40,205,8200101,,,2023-09-28,清算の結了等,,,2017-03-03,1,,,,,,0
1844,6290005012683,登記記録の閉鎖等,0,2023-10-11,2023-09-22,天理教八津田分教会,,その他の設立登記法人,福岡県,大牟田市,米生町１丁目１９５番地の２,,40,202,8360881,,,2023-09-22,合併による解散等,7290805004400,令和５年９月１５日北九州市八幡西区黒崎五丁目５番３１号天理教西鎭分教会（7290805004400）に合併し解散,2015-10-05,1,,,,,,0
1866,6420001008746,登記記録の閉鎖等,0,2023-10-11,2023-10-02,株式会社ふるさと便,,株式会社,青森県,弘前市,大字石川字泉田３１番地１,,02,202,0368124,,,2023-10-02,清算の結了等,,,2015-10-05,1,,,,,フルサトビン,0
1876,6470001014368,登記記録の閉鎖等,0,2023-10-11,2023-10-06,株式会社エスケーシー企画,,株式会社,香川県,木田郡三木町,大字平木１７６番地１７,,37,341,7610702,,,2023-10-06,清算の結了等,,,2015-10-05,1,,,,,エスケーシーキカク,0
1891,7010001173787,登記記録の閉鎖等,0,2023-10-11,2023-10-04,ＢＩＯＺＯＮＥ株式会社,,株式会社,東京都,港区,南青山３丁目８番４０号,,13,103,1070062,,,2023-10-04,合併による解散等,7230001003096,令和５年１０月１日富山市南央町３番３７バイオゾーンメディカル株式会社（7230001003096）に合併し解散,2016-02-23,1,,,,,バイオゾーン,0
1914,7010405015759,登記記録の閉鎖等,0,2023-10-11,2023-09-22,一般社団法人ＩＨＰホールディングス,,その他の設立登記法人,東京都,港区,元赤坂１丁目１番８号株式会社赤坂国際会計内,,13,103,1070051,,,2023-09-22,清算の結了等,,,2017-05-15,1,,,,,アイエイチピーホールディングス,0
1929,7010805001838,登記記録の閉鎖等,0,2023-10-11,2023-10-03,特定非営利活動法人コスモスの会,,その他の設立登記法人,東京都,大田区,西糀谷２丁目２２番１６－２０３号,,13,111,1440034,,,2023-10-03,清算の結了等,,,2015-10-05,1,,,,,コスモスノカイ,0
1931,7010902019221,登記記録の閉鎖等,0,2023-10-11,2023-10-02,有限会社　伊藤写真事務所,,有限会社,東京都,世田谷区,豪徳寺２丁目１８番１９号,,13,112,1540021,,,2023-10-02,清算の結了等,,,2015-10-05,1,,,,,イトウシャシンジムショ,0
1934,7011001141759,登記記録の閉鎖等,0,2023-10-11,2023-10-06,株式会社小町マーケティングラボ,,株式会社,東京都,渋谷区,代々木１丁目５８番１６号清水ビル２階,,13,113,1510053,,,2023-10-06,合併による解散等,6410001010298,令和５年１０月１日秋田市八橋大畑二丁目３番１号ＷｈｉｔｅＣｕｂｅ１Ｆ株式会社Ｌｏｃａｌ　Ｐｏｗｅｒ（6410001010298）に合併し解散,2021-07-14,1,,,,,コマチマーケティングラボ,0
1945,7011401015728,登記記録の閉鎖等,0,2023-10-11,2023-10-06,株式会社ＭＩＮＡＴＯ,,株式会社,東京都,板橋区,大山金井町１０番１２号,,13,119,1730024,,,2023-10-06,清算の結了等,,,2015-10-05,1,,,,,ミナト,0
1948,7011402002122,登記記録の閉鎖等,0,2023-10-11,2023-10-02,株式会社関栄興業,,株式会社,東京都,板橋区,板橋２丁目４１番１２号,,13,119,1730004,,,2023-10-02,合併による解散等,4011401003520,令和５年１０月１日東京都板橋区板橋二丁目４１番１２号株式会社ＳＥＫＩ（4011401003520）に合併し解散,2015-10-05,1,,,,,セキエイコウギョウ,0
1951,7011402018762,登記記録の閉鎖等,0,2023-10-11,2023-10-06,有限会社ファミマックス,,有限会社,東京都,板橋区,板橋４丁目６２番３号,,13,119,1730004,,,2023-10-06,清算の結了等,,,2015-10-05,1,,,,,ファミマックス,0
1953,7011601000249,登記記録の閉鎖等,0,2023-10-11,2023-10-04,明石ビルサービス株式会社,,株式会社,東京都,練馬区,大泉学園町４丁目２０番４２号,,13,120,1780061,,,2023-10-04,清算の結了等,,,2015-10-05,1,,,,,アカシビルサービス,0
1956,7011701014074,登記記録の閉鎖等,0,2023-10-11,2023-09-21,株式会社キアイ,,株式会社,東京都,港区,六本木３丁目１５番２１号鶯ビル５Ｆ,,13,103,1060032,,,2023-09-21,清算の結了等,,,2015-10-05,1,,,,,キアイ,0
1977,7020003009658,登記記録の閉鎖等,0,2023-10-11,2023-10-02,合同会社ファースト,,合同会社,神奈川県,横浜市緑区,東本郷６丁目１－８,,14,113,2260002,,,2023-10-02,清算の結了等,,,2015-10-05,1,,,,,ファースト,0
1986,7021002001077,登記記録の閉鎖等,0,2023-10-11,2023-10-02,有限会社オカノ設計・施工事務所,,有限会社,神奈川県,藤沢市,遠藤６９１番地の４羽根沢２４－１０４,,14,205,2520816,,,2023-10-02,清算の結了等,,,2015-10-05,1,,,,,オカノセッケイセコウジムショ,0
1987,7021002049752,登記記録の閉鎖等,0,2023-10-11,2023-10-03,有限会社井上建設,,有限会社,神奈川県,足柄下郡真鶴町,真鶴１９３６番地１２,,14,383,2590201,,,2023-10-03,清算の結了等,,,2015-10-05,1,,,,,イノウエケンセツ,0
1988,7021002052987,登記記録の閉鎖等,0,2023-10-11,2023-10-02,有限会社舩岡,,有限会社,神奈川県,小田原市,中里１４７番地,,14,206,2500872,,,2023-10-02,清算の結了等,,,2015-10-05,1,,,,,フナオカ,0
1993,7030001070041,登記記録の閉鎖等,0,2023-10-11,2023-09-15,ハッピーライフ株式会社,,株式会社,埼玉県,坂戸市,千代田３丁目２０番１０号ＦＤビル１Ｆ,,11,239,3500214,,,2023-09-15,清算の結了等,,,2015-10-05,1,,,,,ハッピーライフ,0
2003,7030002023725,登記記録の閉鎖等,0,2023-10-11,2023-09-21,有限会社稲垣電機,,有限会社,埼玉県,戸田市,美女木３丁目８番地の１１,,11,224,3350031,,,2023-09-21,清算の結了等,,,2015-10-05,1,,,,,イナガキデンキ,0
2013,7040002017156,登記記録の閉鎖等,0,2023-10-11,2023-09-22,有限会社廣和産業,00019835,有限会社,千葉県,千葉市稲毛区,長沼原町６５番地の１,,12,103,2630001,,,2023-09-22,清算の結了等,,,2015-10-05,1,,,,,コウワサンギョウ,0
2015,7040002054876,登記記録の閉鎖等,0,2023-10-11,2023-09-21,有限会社エス・アール・エイエビエイション,,有限会社,埼玉県,所沢市,緑町２丁目２２番９－４０６号,,11,208,3591111,,,2023-09-21,清算の結了等,,,2015-10-05,1,,,,,エスアールエイエビエイション,0
2027,7060005006369,登記記録の閉鎖等,0,2023-10-11,2023-10-02,栃木県プリント綜合研究所協業組合,,その他の設立登記法人,栃木県,足利市,葉鹿南町２０番地１,,09,202,3260144,,,2023-10-02,清算の結了等,,,2015-10-05,1,,,,,トチギケンプリントソウゴウケンキュウジョ,0
2093,7140002007683,登記記録の閉鎖等,0,2023-10-11,2023-10-05,有限会社阪神急送,,有限会社,兵庫県,神戸市中央区,小野浜町９－５２,,28,110,6510082,,,2023-10-05,清算の結了等,,,2015-10-05,1,,,,,ハンシンキュウソウ,0
2094,7140002013418,登記記録の閉鎖等,0,2023-10-11,2023-10-04,有限会社春日野コンタクト,,有限会社,兵庫県,神戸市中央区,日暮通２丁目１番３号,,28,110,6510077,,,2023-10-04,清算の結了等,,,2015-10-05,1,,,,,カスガノコンタクト,0
2119,7190001012416,登記記録の閉鎖等,0,2023-10-11,2023-10-05,同友株式会社,,株式会社,三重県,桑名市,大字下深谷部５２２番地４,,24,205,5110808,,,2023-10-05,清算の結了等,,,2015-10-05,1,,,,,ドウユウ,0
2122,7190002019690,登記記録の閉鎖等,0,2023-10-11,2023-10-02,有限会社環境整備保全センター,,有限会社,三重県,三重郡川越町,大字南福崎２９４番地,,24,344,5108124,,,2023-10-02,合併による解散等,3190001016255,令和５年１０月１日三重県三重郡川越町大字亀崎新田５１番地１松岡建設株式会社（3190001016255）に合併し解散,2015-10-05,1,,,,,カンキョウセイビホゼンセンター,0
2124,7200001023774,登記記録の閉鎖等,0,2023-10-11,2023-10-06,成瀬産業株式会社,,株式会社,岐阜県,恵那市,大井町９３０番地,,21,210,5097201,,,2023-10-06,清算の結了等,,,2015-10-05,1,,,,,ナルセサンギョウ,0
2125,7200001039515,登記記録の閉鎖等,0,2023-10-11,2023-10-06,株式会社ショコラ,,株式会社,岐阜県,海津市,海津町高須町８４３番地４,,21,221,5030653,,,2023-10-06,清算の結了等,,,2021-12-09,1,,,,,ショコラ,0
2127,7200002007066,登記記録の閉鎖等,0,2023-10-11,2023-10-10,有限会社エイ・イー・ジー,,有限会社,岐阜県,各務原市,尾崎北町６丁目３０番地,,21,213,5040002,,,2023-10-10,清算の結了等,,,2015-10-05,1,,,,,エイイージー,0
2130,7200005011494,登記記録の閉鎖等,0,2023-10-11,2023-10-04,一般財団法人飛騨地区労働者福祉会館,,その他の設立登記法人,岐阜県,高山市,名田町５丁目９５番地の４,,21,203,5060021,,,2023-10-04,清算の結了等,,,2015-10-05,1,,,,,ヒダチクロウドウシャフクシカイカン,0
2139,7230001013517,登記記録の閉鎖等,0,2023-10-11,2023-10-04,ＨＤＫマイクロデバイス株式会社,,株式会社,富山県,富山市,下冨居２丁目１２番１５号,,16,201,9300814,,,2023-10-04,合併による解散等,6230001005201,令和５年１０月１日富山市下大久保３１５８番地北陸電気工業株式会社（6230001005201）に合併し解散,2015-10-05,1,,,,,エッチディーケーマイクロデバイス,0
2140,7240001039429,登記記録の閉鎖等,0,2023-10-11,2023-10-02,ヤマキ建設株式会社,,株式会社,広島県,尾道市,高須町３１番地３２,,34,205,7290141,,,2023-10-02,清算の結了等,,,2015-10-05,1,,,,,ヤマキケンセツ,0
2141,7240001051615,登記記録の閉鎖等,0,2023-10-11,2023-10-05,株式会社湯坂遊園,,株式会社,広島県,竹原市,西野町西湯坂４４５番地,,34,203,7250002,,,2023-10-05,合併による解散等,6011101038047,令和５年１０月１日東京都新宿区新宿五丁目１７番９号株式会社リロバケーションズ（6011101038047）に合併し解散,2017-09-05,1,,,,,ユサカユウエン,0
2149,7290001055396,登記記録の閉鎖等,0,2023-10-11,2023-09-26,株式会社給与計算ヒロセ,,株式会社,福岡県,みやま市,高田町濃施６４３－６６,,40,229,8390215,,,2023-09-26,清算の結了等,,,2015-10-05,1,,,,,キュウヨケイサンヒロセ,0
2167,7300003000332,登記記録の閉鎖等,0,2023-10-11,2023-10-04,百武酒造合資会社,,合資会社,佐賀県,武雄市,若木町大字本部４６３９番地,,41,206,8430152,,,2023-10-04,清算の結了等,,,2017-09-12,1,,,,,ヒャクタケシュゾウ,0
2193,7380002014755,登記記録の閉鎖等,0,2023-10-11,2023-10-03,有限会社遠藤燃料,,有限会社,福島県,田村市,都路町古道字寺ノ前２６番地,,07,211,9634701,,,2023-10-03,清算の結了等,,,2015-10-05,1,,,,,エンドウネンリョウ,0
2208,7430002034533,登記記録の閉鎖等,0,2023-10-11,2023-10-02,有限会社篠路愛護苑,,有限会社,北海道,札幌市北区,屯田十一条１丁目２番５号,,01,102,0020861,,,2023-10-02,合併による解散等,5430002034592,令和５年１０月１日札幌市白石区平和通十五丁目北２番１２号Ｓ＆Ｎふれあいケアサービス株式会社（5430002034592）に合併し解散,2015-10-05,1,,,,,シノロアイゴエン,0
2213,7470005005370,登記記録の閉鎖等,0,2023-10-11,2023-10-03,特定非営利活動法人香川県定期借地借家権推進機構,,その他の設立登記法人,香川県,高松市,出作町３８３番地２,,37,201,7618077,,,2023-10-03,清算の結了等,,,2015-10-05,1,,,,,カガワケンテイキシャクチシャッカケンスイシンキコウ,0
2225,8010001104345,登記記録の閉鎖等,0,2023-10-11,2023-10-02,株式会社国都プロパティー,,株式会社,東京都,千代田区,一番町２２番地２,,13,101,1020082,,,2023-10-02,合併による解散等,3010001069634,令和５年１０月１日東京都千代田区一番町２２番地２株式会社ニックス（3010001069634）に合併し解散,2015-10-05,1,,,,,,0
2226,8010001143137,登記記録の閉鎖等,0,2023-10-11,2023-10-04,株式会社五輪関東,,株式会社,東京都,中央区,八丁堀３丁目２２番１３号,,13,102,1040032,,,2023-10-04,合併による解散等,6230001000961,令和５年１０月１日富山市奥田新町１２番３号株式会社五輪（6230001000961）に合併し解散,2015-10-05,1,,,,,ゴリンカントウ,0
2228,8010001144837,登記記録の閉鎖等,0,2023-10-11,2023-10-02,株式会社ケイイーアイ設計,,株式会社,東京都,文京区,音羽１丁目１７番１１号,,13,105,1120013,,,2023-10-02,清算の結了等,,,2015-10-05,1,,,,,,0
2231,8010001207404,登記記録の閉鎖等,0,2023-10-11,2023-10-03,株式会社ｅ２ｅ,,株式会社,東京都,渋谷区,恵比寿南１丁目１５番１号,,13,113,1500022,,,2023-10-03,清算の結了等,,,2020-02-10,1,,,,,イーツーイー,0
2233,8010002043583,登記記録の閉鎖等,0,2023-10-11,2023-09-28,有限会社ＣＲＥ　ＯＮＥ,,有限会社,東京都,千代田区,霞が関３丁目２番５号,,13,101,1000013,,,2023-09-28,清算の結了等,,,2015-10-05,1,,,,,シーアールイーワン,0
2253,8010801030492,登記記録の閉鎖等,0,2023-10-11,2023-10-03,株式会社玉水,,株式会社,東京都,大田区,蒲田１丁目１０番７号,,13,111,1440052,,,2023-10-03,清算の結了等,,,2019-12-23,1,,,,,ギョクスイ,0
2261,8011001129373,登記記録の閉鎖等,0,2023-10-11,2023-10-02,株式会社ＡＴＲＡＣ,,株式会社,東京都,渋谷区,道玄坂１丁目２１番１号渋谷ソラスタ１５階,,13,113,1500043,,,2023-10-02,合併による解散等,6011001068854,令和５年１０月１日東京都渋谷区道玄坂一丁目２１番１号渋谷ソラスタ１５階株式会社ＣＡＲＴＡ　ＭＡＲＫＥＴＩＮＧ　ＦＩＲＭ（6011001068854）に合併し解散,2019-08-05,1,,,,,アトラック,0
2262,8011001142731,登記記録の閉鎖等,0,2023-10-11,2023-10-02,株式会社ＣＡＲＴＡ　ＡＧＥ,,株式会社,東京都,渋谷区,道玄坂１丁目２１番１号渋谷ソラスタ１５階,,13,113,1500043,,,2023-10-02,合併による解散等,6011001068854,令和５年１０月１日東京都渋谷区道玄坂一丁目２１番１号渋谷ソラスタ１５階株式会社ＣＡＲＴＡ　ＭＡＲＫＥＴＩＮＧ　ＦＩＲＭ（6011001068854）に合併し解散,2021-09-13,1,,,,,カルタエイジ,0
2300,8013201018414,登記記録の閉鎖等,0,2023-10-11,2023-10-05,エバーグリーン・プロパティーズ株式会社,,株式会社,東京都,目黒区,自由が丘１丁目１８番１１号,,13,110,1520035,,,2023-10-05,清算の結了等,,,2015-10-05,1,,,,,エバーグリーンプロパティーズ,0
2305,8020001020384,登記記録の閉鎖等,0,2023-10-11,2023-10-02,株式会社サンブレンズ技建,,株式会社,神奈川県,横浜市港北区,新吉田東２丁目１７番６号,,14,109,2230058,,,2023-10-02,清算の結了等,,,2015-10-05,1,,,,,サンブレンズギケン,0
2308,8020001033270,登記記録の閉鎖等,0,2023-10-11,2023-10-02,文化建設株式会社,,株式会社,神奈川県,横浜市都筑区,東山田４丁目３８番１１号,,14,118,2240023,,,2023-10-02,清算の結了等,,,2015-10-05,1,,,,,ブンカケンセツ,0
2309,8020001036562,登記記録の閉鎖等,0,2023-10-11,2023-09-25,株式会社レックスコーポレーション,,株式会社,神奈川県,横浜市青葉区,美しが丘１丁目１４番地２－４０３,,14,117,2250002,,,2023-09-25,清算の結了等,,,2015-10-05,1,,,,,レックスコーポレーション,0
2310,8020001060513,登記記録の閉鎖等,0,2023-10-11,2023-10-05,株式会社ネクサスケア,,株式会社,神奈川県,横浜市西区,西平沼町４番１号ヨコハマタワーリングスクエアＥＡＳＴ,,14,103,2200024,,,2023-10-05,合併による解散等,1260001015656,令和５年１０月１日東京都品川区東品川四丁目１２番８号ＳＯＭＰＯケア株式会社（1260001015656）に合併し解散,2015-10-05,1,,,,,ネクサスケア,0
2331,8030001062814,登記記録の閉鎖等,0,2023-10-11,2023-09-19,株式会社サイドエーティー,,株式会社,埼玉県,鴻巣市,人形２丁目２番３７号,,11,217,3650037,,,2023-09-19,清算の結了等,,,2015-10-05,1,,,,,サイドエーティー,0
2362,8060001018292,登記記録の閉鎖等,0,2023-10-11,2023-10-02,株式会社石井プリント工業,,株式会社,栃木県,足利市,葉鹿南町２３番地１,,09,202,3260144,,,2023-10-02,清算の結了等,,,2015-10-05,1,,,,,イシイプリントコウギョウ,0
2364,8060001024200,登記記録の閉鎖等,0,2023-10-11,2023-10-02,株式会社児嶋荷役,,株式会社,栃木県,足利市,堀込町２８３２番地２０,,09,202,3260831,,,2023-10-02,清算の結了等,,,2015-10-05,1,,,,,コジマニエキ,0
2386,8120001079907,登記記録の閉鎖等,0,2023-10-11,2023-10-05,株式会社大阪建材センター,,株式会社,大阪府,大阪市大正区,南恩加島４丁目１番２７号,,27,108,5510021,,,2023-10-05,合併による解散等,1010701004941,令和５年１０月１日東京都品川区西五反田七丁目１６番８号株式会社ＫＭＣ（1010701004941）に合併し解散,2015-10-05,1,,,,,オオサカケンザイセンター,0
2426,8140001089887,登記記録の閉鎖等,0,2023-10-11,2023-10-06,株式会社メルティングポット,,株式会社,兵庫県,神戸市垂水区,青山台７丁目７－１,,28,108,6550873,,,2023-10-06,清算の結了等,,,2015-10-05,1,,,,,メルティングポット,0
2432,8160002007879,登記記録の閉鎖等,0,2023-10-11,2023-10-06,石川産業有限会社,,有限会社,滋賀県,彦根市,西今町６８９番地１４,,25,202,5220054,,,2023-10-06,清算の結了等,,,2015-10-05,1,,,,,イシカワサンギョウ,0
2438,8180001088836,登記記録の閉鎖等,0,2023-10-11,2023-10-05,株式会社ＣＲＹＳＴＡＬ　ｃｏｒｐｏｒａｔｉｏｎ,,株式会社,愛知県,名古屋市東区,泉１丁目１７番３号,,23,102,4610001,,,2023-10-05,清算の結了等,,,2015-10-05,1,,,,,クリスタルコーポレーション,0
2439,8180001148425,登記記録の閉鎖等,0,2023-10-11,2023-10-03,彌榮株式会社,,株式会社,愛知県,名古屋市西区,花の木１丁目１番１７号,,23,104,4510062,,,2023-10-03,清算の結了等,,,2021-10-26,1,,,,,イヤサカエ,0
2449,8180003020862,登記記録の閉鎖等,0,2023-10-11,2023-10-02,合同会社ＭＥＴＩＰＬＵＳ,,合同会社,愛知県,名古屋市西区,名駅２丁目３４番１７号セントラル名古屋１１０１号,,23,104,4510045,,,2023-10-02,清算の結了等,,,2020-02-19,1,,,,,メティプラス,0
2450,8180301015085,登記記録の閉鎖等,0,2023-10-11,2023-10-02,株式会社魚為,,株式会社,愛知県,碧南市,音羽町１丁目１０２番地,,23,209,4470847,,,2023-10-02,清算の結了等,,,2015-10-05,1,,,,,ウオタメ,0
2461,8210002011454,登記記録の閉鎖等,0,2023-10-11,2023-10-03,コパレイト有限会社,,有限会社,福井県,越前市,丹生郷町第１０号１番地１４,,18,209,9150894,,,2023-10-03,清算の結了等,,,2015-10-05,1,,,,,コパレイト,0
2470,8260002009444,登記記録の閉鎖等,0,2023-10-11,2023-10-04,有限会社丸栄工業,,有限会社,岡山県,岡山市南区,北浦４９６番地,,33,104,7028012,,,2023-10-04,清算の結了等,,,2015-10-05,1,,,,,マルエイコウギョウ,0
2474,8290001003180,登記記録の閉鎖等,0,2023-10-11,2023-10-06,株式会社ナカノ九州運輸,,株式会社,福岡県,福岡市東区,箱崎ふ頭６丁目１１番３０号,,40,131,8120051,,,2023-10-06,合併による解散等,1011701014294,令和５年１０月１日東京都江戸川区中葛西三丁目１８番５号株式会社ナカノ商会（1011701014294）に合併し解散,2015-10-05,1,,,,,ナカノキュウシュウウンユ,0
2479,8290801009352,登記記録の閉鎖等,0,2023-10-11,2023-10-05,日鉄物流八幡株式会社,,株式会社,福岡県,北九州市戸畑区,大字戸畑４６４番２４,,40,105,8040004,,,2023-10-05,合併による解散等,1010001098619,令和５年１０月１日東京都中央区日本橋一丁目１３番１号日鉄物流株式会社（1010001098619）に合併し解散,2015-10-05,1,,,,,ニッテツブツリュウヤハタ,0
2480,8290801017223,登記記録の閉鎖等,0,2023-10-11,2023-10-10,株式会社ＭＣＳ,,株式会社,福岡県,北九州市八幡西区,光貞台１丁目８番１６号ロイヤル光貞台２０２号,,40,109,8070805,,,2023-10-10,清算の結了等,,,2015-10-05,1,,,,,エムシーエス,0
2481,8290802020093,登記記録の閉鎖等,0,2023-10-11,2023-10-06,有限会社飯野モータース,,有限会社,福岡県,直方市,溝堀１丁目８番５号,,40,204,8220013,,,2023-10-06,清算の結了等,,,2015-10-05,1,,,,,イイノモータース,0
2489,8320001017301,登記記録の閉鎖等,0,2023-10-11,2023-10-06,株式会社ＰｒｏｊｅｃｔＨｏｐｅ,,株式会社,大分県,中津市,豊田町４番地７,,44,203,8710058,,,2023-10-06,清算の結了等,,,2019-10-01,1,,,,,プロジェクトホープ,0
2519,8500005006562,登記記録の閉鎖等,0,2023-10-11,2023-10-06,あおい詩郷協同組合,,その他の設立登記法人,愛媛県,北宇和郡鬼北町,大字出目１８番地,,38,488,7981332,,,2023-10-06,清算の結了等,,,2015-10-05,1,,,,,アオイシキョウ,0
2534,9010001206628,登記記録の閉鎖等,0,2023-10-11,2023-10-03,株式会社アダムテクノロジーズ,,株式会社,東京都,渋谷区,恵比寿南１丁目１５番１号,,13,113,1500022,,,2023-10-03,清算の結了等,,,2020-01-17,1,,,,,アダムテクノロジーズ,0
2544,9010005018499,登記記録の閉鎖等,0,2023-10-11,2023-10-06,一般社団法人東京家具会館,,その他の設立登記法人,東京都,文京区,湯島３丁目２４番１３号,,13,105,1130034,,,2023-10-06,清算の結了等,,,2015-10-05,1,,,,,トウキョウカグカイカン,0
2550,9010401083923,登記記録の閉鎖等,0,2023-10-11,2023-10-02,株式会社ニューファクト,,株式会社,東京都,世田谷区,代沢２丁目３３番２４号,,13,112,1550032,,,2023-10-02,清算の結了等,,,2015-10-05,1,,,,,ニューファクト,0
2554,9010401111295,登記記録の閉鎖等,0,2023-10-11,2023-09-21,株式会社Ｅａｒｔｈ　Ｉｎｎｏｖａｔｉｏｎ,,株式会社,東京都,港区,六本木７丁目１５番１７号７－Ｆ,,13,103,1060032,,,2023-09-21,清算の結了等,,,2015-10-05,1,,,,,アースイノベーション,0
2558,9010401129354,登記記録の閉鎖等,0,2023-10-11,2023-10-02,株式会社トランジットレストランオペレーション,,株式会社,東京都,渋谷区,恵比寿４丁目２０番４号,,13,113,1500013,,,2023-10-02,合併による解散等,5010401098363,令和５年１０月１日東京都渋谷区恵比寿四丁目２０番４号株式会社トランジットジェネラルオフィス（5010401098363）に合併し解散,2017-01-27,1,,,,,トランジットレストランオペレーション,0
2570,9010801008892,登記記録の閉鎖等,0,2023-10-11,2023-10-03,日本医療器株式会社,,株式会社,東京都,台東区,台東２丁目６番６号,,13,106,1100016,,,2023-10-03,清算の結了等,,,2015-10-05,1,,,,,ニホンイリョウキ,0
2572,9010803003875,登記記録の閉鎖等,0,2023-10-11,2023-10-03,アライバル合同会社,,合同会社,東京都,大田区,大森東１丁目２６番２号,,13,111,1430012,,,2023-10-03,清算の結了等,,,2021-09-02,1,,,,,アライバル,0
2581,9011001124555,登記記録の閉鎖等,0,2023-10-11,2023-10-02,株式会社クロスメディア・デジタル,,株式会社,東京都,渋谷区,千駄ヶ谷４丁目２０番３号東栄神宮外苑ビル,,13,113,1510051,,,2023-10-02,合併による解散等,1011001055436,令和５年１０月１日東京都渋谷区千駄ヶ谷４－２０－３東栄神宮外苑ビル株式会社クロスメディア・マーケティング（1011001055436）に合併し解散,2018-10-05,1,,,,,クロスメディアデジタル,0
2610,9020001137384,登記記録の閉鎖等,0,2023-10-11,2023-10-02,株式会社ＣＳＰ,,株式会社,神奈川県,横浜市戸塚区,汲沢７丁目２番７号,,14,110,2450061,,,2023-10-02,清算の結了等,,,2020-08-25,1,,,,,シーエスピー,0
2612,9020001150560,登記記録の閉鎖等,0,2023-10-11,2023-10-02,Ａｎｄａ株式会社,,株式会社,神奈川県,横浜市鶴見区,東寺尾１丁目３０番４０－４１０号,,14,101,2300077,,,2023-10-02,清算の結了等,,,2023-03-10,1,,,,,アンダ,0
2628,9030001144215,登記記録の閉鎖等,0,2023-10-11,2023-08-18,宝投資ファンド株式会社,,株式会社,埼玉県,三郷市,戸ケ崎３丁目５１５番地,,11,237,3410044,,,2023-08-18,清算の結了等,,,2021-09-06,1,,,,,タカラトウシファンド,0
2641,9040001104886,登記記録の閉鎖等,0,2023-10-11,2023-09-22,株式会社大野,,株式会社,千葉県,市川市,若宮３丁目３３番３号,,12,203,2720812,,,2023-09-22,清算の結了等,,,2018-06-06,1,,,,,オオノ,0
2642,9040001126773,登記記録の閉鎖等,0,2023-10-11,2023-10-02,株式会社カスミ酒販,,株式会社,茨城県,つくば市,西大橋５９９番地１,,08,220,3050831,,,2023-10-02,合併による解散等,8050001016297,令和５年９月３０日茨城県つくば市西大橋５９９番地１株式会社カスミ（8050001016297）に合併し解散,2023-01-25,1,,,,,カスミシュハン,0
2647,9050001017385,登記記録の閉鎖等,0,2023-10-11,2023-10-02,株式会社ＢＥＣＫ　ＰＲＯＪＥＣＴ,,株式会社,茨城県,つくば市,竹園２丁目１３番地３０,,08,220,3050032,,,2023-10-02,合併による解散等,4050001018017,令和５年１０月１日茨城県つくば市竹園二丁目１３番地３０株式会社ジェイ・アイ・エム（4050001018017）に合併し解散,2015-10-05,1,,,,,ベックプロジェクト,0
2656,9070001038272,登記記録の閉鎖等,0,2023-10-11,2023-09-26,株式会社ＳＴＯ　Ｌａｂ,,株式会社,埼玉県,川越市,大字砂新田４１４番地３,,11,201,3501137,,,2023-09-26,合併による解散等,4011101093201,令和５年９月１日東京都港区南青山三丁目１番３６号青山丸竹ビル６Ｆ株式会社Ｗｅｂ３　Ｃｏｍｐｕｔｉｎｇ（4011101093201）に合併し解散,2021-07-15,1,,,,,エスティーオーラボ,0
2660,9070002024750,登記記録の閉鎖等,0,2023-10-11,2023-10-05,有限会社マサタニ商会,,有限会社,群馬県,みどり市,笠懸町阿左美５７７番地１,,10,212,3792311,,,2023-10-05,清算の結了等,,,2015-10-05,1,,,,,マサタニショウカイ,0
2666,9080101014536,登記記録の閉鎖等,0,2023-10-11,2023-10-06,株式会社ときわ工事店,,株式会社,静岡県,下田市,西本郷１丁目７番２０号,,22,219,4150036,,,2023-10-06,清算の結了等,,,2015-10-05,1,,,,,トキワコウジテン,0
2673,9090001002061,登記記録の閉鎖等,0,2023-10-11,2023-10-06,丸中商店株式会社,,株式会社,山梨県,甲府市,城東２丁目１９番２８号,,19,201,4000861,,,2023-10-06,清算の結了等,,,2015-10-05,1,,,,,マルナカショウテン,0
2692,9120002047969,登記記録の閉鎖等,0,2023-10-11,2023-10-02,有限会社正建設,,有限会社,大阪府,大阪市住之江区,浜口東３丁目１０番２０号,,27,125,5590002,,,2023-10-02,清算の結了等,,,2015-10-05,1,,,,,マサケンセツ,0
2693,9120002081761,登記記録の閉鎖等,0,2023-10-11,2023-10-04,戸田金網工業所有限会社,,有限会社,大阪府,守口市,南寺方東通５丁目６番９号,,27,209,5700043,,,2023-10-04,清算の結了等,,,2015-10-05,1,,,,,トダカナアミコウギョウショ,0
2695,9120102003624,登記記録の閉鎖等,0,2023-10-11,2023-10-10,有限会社日成輸送,,有限会社,大阪府,堺市中区,八田寺町４８４番１,,27,142,5998267,,,2023-10-10,清算の結了等,,,2015-10-05,1,,,,,ニッセイユソウ,0
2704,9130001057118,登記記録の閉鎖等,0,2023-10-11,2023-10-06,株式会社インサイト,,株式会社,大阪府,大阪市中央区,今橋１丁目７番２号,,27,128,5410042,,,2023-10-06,清算の結了等,,,2016-03-29,1,,,,,インサイト,0
2719,9140001044494,登記記録の閉鎖等,0,2023-10-11,2023-10-03,エコー株式会社,,株式会社,兵庫県,西宮市,松生町３番２０号,,28,204,6620076,,,2023-10-03,清算の結了等,,,2015-10-05,1,,,,,エコー,0
2736,9170002003546,登記記録の閉鎖等,0,2023-10-11,2023-10-06,有限会社丸越百貨店,,有限会社,和歌山県,和歌山市,新八百屋丁１１番地,,30,201,6408371,,,2023-10-06,清算の結了等,,,2015-10-05,1,,,,,マルコシヒャッカテン,0
2739,9180001007258,登記記録の閉鎖等,0,2023-10-11,2023-10-02,ビユーテー株式会社,,株式会社,愛知県,名古屋市港区,木場町２番地,,23,111,4550021,,,2023-10-02,合併による解散等,9180001006747,令和５年１０月１日名古屋市港区木場町２番地タケウチテクノ株式会社（9180001006747）に合併し解散,2015-10-05,1,,,,,ビユーテー,0
2741,9180001040886,登記記録の閉鎖等,0,2023-10-11,2023-10-04,株式会社松井商店,,株式会社,愛知県,名古屋市中区,大須３丁目６番５号,,23,106,4600011,,,2023-10-04,清算の結了等,,,2015-10-05,1,,,,,マツイショウテン,0
2762,9200001038250,登記記録の閉鎖等,0,2023-10-11,2023-10-05,三友プラントシステムズ株式会社,,株式会社,岐阜県,岐阜市,中鶉６丁目２１番地１,,21,201,5008288,,,2023-10-05,清算の結了等,,,2021-01-21,1,,,,,サンユウプラントシステムズ,0
2767,9230005007942,登記記録の閉鎖等,0,2023-10-11,2023-10-06,公益財団法人砺波市農業公社,,その他の設立登記法人,富山県,砺波市,栄町７番３号,,16,208,9391371,,,2023-10-06,清算の結了等,,,2015-10-05,1,,,,,トナミシノウギョウコウシャ,0
2774,9250002014007,登記記録の閉鎖等,0,2023-10-11,2023-10-04,有限会社長谷川電機,,有限会社,山口県,長門市,東深川６番地の１０,,35,211,7594101,,,2023-10-04,清算の結了等,,,2015-10-05,1,,,,,,0
2781,9290005009438,登記記録の閉鎖等,0,2023-10-11,2023-10-03,医療法人崇徳会,,その他の設立登記法人,福岡県,八女市,蒲原１２９５番地３,,40,210,8340064,,,2023-10-03,清算の結了等,,,2015-10-05,1,,,,,スウトクカイ,0
2785,9330005005580,登記記録の閉鎖等,0,2023-10-11,2023-09-19,天理教甲山分教会,,その他の設立登記法人,熊本県,宇城市,不知火町松合１６９番地６,,43,213,8693472,,,2023-09-19,合併による解散等,3290005012686,令和５年９月４日福岡県大牟田市加納町二丁目５３番地天理教四ツ山分教会（3290005012686）に合併し解散,2015-10-05,1,,,,,,0
2788,9340002012232,登記記録の閉鎖等,0,2023-10-11,2023-10-06,有限会社薗田測量設計,,有限会社,鹿児島県,鹿児島市,喜入町７３４３番地４,,46,201,8910203,,,2023-10-06,清算の結了等,,,2015-10-05,1,,,,,ソノダソクリョウセッケイ,0
2799,9380002003517,登記記録の閉鎖等,0,2023-10-11,2023-10-05,有限会社丸柴建設,,有限会社,福島県,福島市,鎌田字町３５番地の１,,07,201,9600102,,,2023-10-05,清算の結了等,,,2015-10-05,1,,,,,マルシバケンセツ,0
2802,9400001003548,登記記録の閉鎖等,0,2023-10-11,2023-09-15,株式会社メディアクルー,,株式会社,岩手県,盛岡市,本町通２丁目１３番４９号,,03,201,0200015,,,2023-09-15,合併による解散等,4400001000459,令和５年９月１日岩手県盛岡市羽場１０地割１番地２川口印刷工業株式会社（4400001000459）に合併し解散,2015-10-05,1,,,,,メディアクルー,0
2817,9430003012148,登記記録の閉鎖等,0,2023-10-11,2023-09-27,合同会社立葵,,合同会社,北海道,札幌市北区,北二十九条西１４丁目１番１号アヴィエント２９　２０６号,,01,102,0010029,,,2023-09-27,清算の結了等,,,2020-11-16,1,,,,,タチアオイ,0
2827,9490002001831,登記記録の閉鎖等,0,2023-10-11,2023-10-05,有限会社三幸運送,,有限会社,高知県,高知市,百石町２丁目１３番５号,,39,201,7808015,,,2023-10-05,清算の結了等,,,2015-10-05,1,,,,,サンコウウンソウ,0
2829,9500001018420,登記記録の閉鎖等,0,2023-10-11,2023-10-10,日本木構造株式会社,,株式会社,愛媛県,東温市,則之内乙２０６０番地５,,38,215,7910312,,,2023-10-10,清算の結了等,,,2015-10-05,1,,,,,ニホンモクコウゾウ,0
2833,9500005008129,登記記録の閉鎖等,0,2023-10-11,2023-10-10,特定非営利活動法人コンパッション,,その他の設立登記法人,愛媛県,松山市,一番町２丁目１－３Ｍビル２０２号,,38,201,7900001,,,2023-10-10,清算の結了等,,,2019-12-12,1,,,,,コンパッション,0
