sequenceNumber,corporateNumber,process,correct,updateDate,changeDate,name,nameImageId,kind,prefectureName,cityName,streetNumber,addressImageId,prefectureCode,cityCode,postCode,addressOutside,addressOutsideImageId,closeDate,closeCause,successorCorporateNumber,changeCause,assignmentDate,latest,enName,enPrefectureName,enCityName,enAddressOutside,furigana,hihyoji
16,1010001195639,登記記録の閉鎖等,0,2024-06-06,2024-05-31,株式会社茨城Ｒｅｃｙｃｌｉｎｇ　ａｎｄ　Ｗａｓｔｅ　Ｍａｎａｇｅｍｅｎｔ,,株式会社,茨城県,行方市,芹沢字上山９２０番地８４,,08,233,3113501,,,2024-05-31,清算の結了等,,,2018-10-23,1,,,,,アルバジャパン,0
23,1010003040702,登記記録の閉鎖等,0,2024-06-06,2024-05-29,Ｍｉｎｄｂｏｘ合同会社,,合同会社,東京都,中央区,日本橋２丁目２番３号ＲＩＳＨＥビルＵＣＦ４階,,13,102,1030027,,,2024-05-29,清算の結了等,,,2023-05-30,1,,,,,マインドボックス,0
25,1010102006439,登記記録の閉鎖等,0,2024-06-06,2024-06-04,有限会社松永設備,,有限会社,東京都,八王子市,上壱分方町２７０番地,,13,201,1930811,,,2024-06-04,清算の結了等,,,2015-10-05,1,,,,,マツナガセツビ,0
30,1010401087428,登記記録の閉鎖等,0,2024-06-06,2024-05-22,株式会社東大総研,,株式会社,東京都,目黒区,青葉台１丁目４番７－５０４号,,13,110,1530042,,,2024-05-22,清算の結了等,,,2015-10-05,1,,,,,トウダイソウケン,0
40,1010501045442,登記記録の閉鎖等,0,2024-06-06,2024-06-03,株式会社ＡＯ　Ｃｏｒｎｅｒ,,株式会社,東京都,台東区,松が谷４丁目２番１号グレイスコート上野松が谷９０１,,13,106,1110036,,,2024-06-03,合併による解散等,4010001156828,令和６年４月３０日東京都港区赤坂二丁目９番２号株式会社雄善（4010001156828）に合併し解散,2020-03-11,1,,,,,アオコーナー,0
70,1011101048463,登記記録の閉鎖等,0,2024-06-06,2024-06-03,株式会社エムアイエム,,株式会社,三重県,四日市市,智積町５９４２番地,,24,202,5121212,,,2024-06-03,清算の結了等,,,2015-10-05,1,,,,,エムアイエム,0
80,1011501007333,登記記録の閉鎖等,0,2024-06-06,2024-06-03,株式会社大電,,株式会社,東京都,荒川区,東日暮里２丁目３７番１２号,,13,118,1160014,,,2024-06-03,清算の結了等,,,2015-10-05,1,,,,,ダイデン,0
86,1011802008014,登記記録の閉鎖等,0,2024-06-06,2024-05-31,有限会社山内典礼本店,,有限会社,東京都,葛飾区,青戸４丁目２５番１３号,,13,122,1250062,,,2024-05-31,清算の結了等,,,2015-10-05,1,,,,,ヤマウチテンレイホンテン,0
92,1012402007760,登記記録の閉鎖等,0,2024-06-06,2024-06-03,有限会社亟,00058101,有限会社,東京都,調布市,国領町５丁目３２番地３８,,13,208,1820022,,,2024-06-03,清算の結了等,,,2015-10-05,1,,,,,ジョウ,0
108,1013305003483,登記記録の閉鎖等,0,2024-06-06,2024-06-03,一般社団法人上場を目指す会,,その他の設立登記法人,東京都,豊島区,高松２丁目５２－９アンジュール高松１０２,,13,116,1710042,,,2024-06-03,清算の結了等,,,2023-06-08,1,,,,,ジョウジョウヲメザスカイ,0
112,1020002087751,登記記録の閉鎖等,0,2024-06-06,2024-05-31,有限会社丸装,,有限会社,神奈川県,川崎市宮前区,南野川２丁目２５番２９号,,14,136,2160042,,,2024-05-31,清算の結了等,,,2015-10-05,1,,,,,マルソウ,0
135,1030005010569,登記記録の閉鎖等,0,2024-06-06,2024-06-03,医療法人社団隆康会,,その他の設立登記法人,埼玉県,越谷市,北越谷２丁目１８番７号アイディール・ヴィラ１０１号,,11,222,3430026,,,2024-06-03,清算の結了等,,,2015-10-05,1,,,,,リュウコウカイ,0
139,1040002089721,登記記録の閉鎖等,0,2024-06-06,2024-05-29,光生住宅有限会社,,有限会社,千葉県,流山市,大字東深井３６９番地の１,,12,220,2700101,,,2024-05-29,清算の結了等,,,2015-10-05,1,,,,,コウセイジュウタク,0
143,1050001040130,登記記録の閉鎖等,0,2024-06-06,2024-05-30,株式会社イシビキ,,株式会社,茨城県,つくば市,みどりの南５２番地１,,08,220,3050884,,,2024-05-30,清算の結了等,,,2015-11-25,1,,,,,イシビキ,0
168,1120001234336,登記記録の閉鎖等,0,2024-06-06,2024-06-03,株式会社ディーケートレード,,株式会社,大阪府,大阪市平野区,長吉長原１丁目１番４８号メゾンラベール１Ｆ,,27,126,5470016,,,2024-06-03,清算の結了等,,,2021-01-06,1,,,,,ディーケートレード,0
174,1120002041913,登記記録の閉鎖等,0,2024-06-06,2024-06-03,リアルワークス株式会社,,株式会社,大阪府,大阪市西区,北堀江１丁目５－４四ツ橋３ビル３階,,27,106,5500014,,,2024-06-03,清算の結了等,,,2015-10-05,1,,,,,リアルワークス,0
180,1120102006460,登記記録の閉鎖等,0,2024-06-06,2024-06-03,有限会社フジタカンパニー,,有限会社,大阪府,堺市南区,泉田中２１８２番地の２,,27,145,5900126,,,2024-06-03,清算の結了等,,,2015-10-05,1,,,,,フジタカンパニー,0
213,1180002082431,登記記録の閉鎖等,0,2024-06-06,2024-06-03,株式会社ＣＴＲ,,株式会社,愛知県,一宮市,木曽川町外割田字北乙五郎６２番地１,,23,203,4930007,,,2024-06-03,合併による解散等,8200001015845,令和６年６月１日愛知県一宮市木曽川町外割田字天王西６８番地１株式会社ヤグミ（8200001015845）に合併し解散,2015-10-05,1,,,,,シーティーアール,0
217,1190001019202,登記記録の閉鎖等,0,2024-06-06,2024-06-04,株式会社ヨシダ,,株式会社,三重県,亀山市,中庄町６３０番地,,24,210,5190134,,,2024-06-04,清算の結了等,,,2015-10-05,1,,,,,ヨシダ,0
221,1190003003492,登記記録の閉鎖等,0,2024-06-06,2024-05-30,ヒロゼン合同会社,,合同会社,三重県,伊勢市,上地町３８５番地８,,24,203,5160051,,,2024-05-30,清算の結了等,,,2020-10-14,1,,,,,ヒロゼン,0
222,1190005005438,登記記録の閉鎖等,0,2024-06-06,2024-06-03,伊勢志摩海藻協同組合,,その他の設立登記法人,三重県,志摩市,阿児町安乗１２６５番地,,24,215,5170507,,,2024-06-03,清算の結了等,,,2015-10-05,1,,,,,イセシマカイソウ,0
228,1210001012583,登記記録の閉鎖等,0,2024-06-06,2024-06-04,ニューエンタープライズ株式会社,,株式会社,福井県,丹生郡越前町,西田中第１７号３９番地,,18,423,9160141,,,2024-06-04,清算の結了等,,,2015-10-05,1,,,,,ニューエンタープライズ,0
230,1220001002955,登記記録の閉鎖等,0,2024-06-06,2024-05-29,産技研株式会社,,株式会社,石川県,金沢市,笠舞本町２丁目３番１号,,17,201,9200947,,,2024-05-29,清算の結了等,,,2015-10-05,1,,,,,サンギケン,0
243,1250002011085,登記記録の閉鎖等,0,2024-06-06,2024-06-03,有限会社前野不動産,,有限会社,山口県,下関市,幡生町１丁目１番２５－２０１号,,35,201,7510828,,,2024-06-03,清算の結了等,,,2015-10-05,1,,,,,マエノフドウサン,0
271,1330001023321,登記記録の閉鎖等,0,2024-06-06,2024-06-03,株式会社ＡＥＧ,,株式会社,熊本県,熊本市南区,日吉１丁目２番５６号,,43,104,8614109,,,2024-06-03,合併による解散等,7330001007285,令和６年６月１日熊本市南区日吉一丁目２番５６号株式会社オフィス・エスビーケー（7330001007285）に合併し解散,2016-10-11,1,,,,,エーイージー,0
301,1480001006534,登記記録の閉鎖等,0,2024-06-06,2024-06-03,株式会社アグネスホテル,,株式会社,徳島県,徳島市,寺島本町西１丁目６０番地１,,36,201,7700831,,,2024-06-03,合併による解散等,8480001003748,令和６年６月１日徳島市寺島本町西一丁目６０番地１株式会社ホテルグランドパレス（8480001003748）に合併し解散,2015-10-05,1,,,,,アグネスホテル,0
308,1500002008774,登記記録の閉鎖等,0,2024-06-06,2024-05-31,有限会社愛媛新聞エリアサービス中山,,有限会社,愛媛県,伊予市,中山町出渕６番耕地２番地７,,38,210,7913204,,,2024-05-31,清算の結了等,,,2015-10-05,1,,,,,エヒメシンブンエリアサービスナカヤマ,0
312,1700150111888,登記記録の閉鎖等,0,2024-06-06,2024-02-29,Ｋ’ｓ　ＭｕｓｉｃＯｆｆｉｃｅ,,その他,神奈川県,横浜市西区,戸部町１丁目９－３プレール・ドゥーク横濱紅葉坂５０２号室,,14,103,2200042,,,2024-02-29,その他の清算の結了等,,,2022-09-26,1,,,,,ケーズミユージツクオフイス,0
322,2010102008822,登記記録の閉鎖等,0,2024-06-06,2024-06-05,有限会社桑都興業,,有限会社,東京都,八王子市,平岡町１４－１１,,13,201,1920061,,,2024-06-05,清算の結了等,,,2015-10-05,1,,,,,ソウトコウギョウ,0
346,2010902002735,登記記録の閉鎖等,0,2024-06-06,2024-06-03,有限会社エフ・アンド・エムエンタプライズ,,有限会社,東京都,世田谷区,上馬５丁目３０番４－２０６号,,13,112,1540011,,,2024-06-03,清算の結了等,,,2015-10-05,1,,,,,エフアンドエムエンタプライズ,0
347,2010902008633,登記記録の閉鎖等,0,2024-06-06,2024-06-03,有限会社千寿商会,,有限会社,東京都,世田谷区,桜上水３丁目２番１７号,,13,112,1560045,,,2024-06-03,清算の結了等,,,2015-10-05,1,,,,,チズショウカイ,0
349,2011001016049,登記記録の閉鎖等,0,2024-06-06,2024-06-03,株式会社トライド・ジャパン,,株式会社,東京都,渋谷区,東３丁目２５番１１号,,13,113,1500011,,,2024-06-03,清算の結了等,,,2015-10-05,1,,,,,,0
372,2011702011018,登記記録の閉鎖等,0,2024-06-06,2024-06-05,丸忠運輸有限会社,,有限会社,東京都,江戸川区,西一之江１丁目５番１１号,,13,123,1320023,,,2024-06-05,清算の結了等,,,2015-10-05,1,,,,,,0
382,2020001052615,登記記録の閉鎖等,0,2024-06-06,2024-05-31,株式会社ライトパレット,,株式会社,神奈川県,横浜市港北区,大豆戸町４８０番地１,,14,109,2220032,,,2024-05-31,清算の結了等,,,2015-10-05,1,,,,,ライトパレット,0
383,2020001089475,登記記録の閉鎖等,0,2024-06-06,2024-05-31,株式会社フィット・コンサルティング,,株式会社,神奈川県,川崎市中原区,上小田中６丁目５４番５号,,14,133,2110053,,,2024-05-31,清算の結了等,,,2015-10-05,1,,,,,フィットコンサルティング,0
388,2020002054098,登記記録の閉鎖等,0,2024-06-06,2024-05-31,有限会社エム・アイ・シー,,有限会社,神奈川県,横浜市泉区,和泉町７３２０番地の１２,,14,116,2450016,,,2024-05-31,清算の結了等,,,2015-10-05,1,,,,,エムアイシー,0
390,2021002067346,登記記録の閉鎖等,0,2024-06-06,2024-06-03,有限会社モリ・ワールド,,有限会社,神奈川県,横須賀市,佐野町６丁目２５番地,,14,201,2380052,,,2024-06-03,合併による解散等,6021002066732,令和６年６月１日神奈川県横須賀市佐野町六丁目２５番地株式会社法塔ベーカリー（6021002066732）に合併し解散,2015-10-05,1,,,,,モリワールド,0
398,2030001127069,登記記録の閉鎖等,0,2024-06-06,2024-05-30,株式会社ＬＩＥＡＬＡ,,株式会社,神奈川県,川崎市多摩区,菅６丁目１３番１号フラッツ芝間５０６,,14,135,2140001,,,2024-05-30,清算の結了等,,,2018-08-17,1,,,,,リアーラ,0
401,2030001150954,登記記録の閉鎖等,0,2024-06-06,2024-06-03,株式会社シオン,,株式会社,埼玉県,川口市,並木元町７番２７号,,11,203,3320033,,,2024-06-03,清算の結了等,,,2022-11-08,1,,,,,シオン,0
405,2030002097113,登記記録の閉鎖等,0,2024-06-06,2024-06-03,有限会社東ステンレス,,有限会社,埼玉県,比企郡ときがわ町,大字五明３６７番地１,,11,349,3550343,,,2024-06-03,清算の結了等,,,2015-10-05,1,,,,,アズマステンレス,0
409,2040001012468,登記記録の閉鎖等,0,2024-06-06,2024-05-28,株式会社データブック,,株式会社,千葉県,千葉市稲毛区,長沼原町２９６番地５,,12,103,2630001,,,2024-05-28,清算の結了等,,,2015-10-05,1,,,,,データブック,0
411,2040001113605,登記記録の閉鎖等,0,2024-06-06,2024-05-29,株式会社Ｙ’Ｓ,,株式会社,千葉県,銚子市,三軒町７番地の１８,,12,202,2880045,,,2024-05-29,清算の結了等,,,2020-05-19,1,,,,,ワイズ,0
422,2050002022358,登記記録の閉鎖等,0,2024-06-06,2024-05-30,有限会社イースト企画,,有限会社,茨城県,つくば市,東２丁目２９番地２０,,08,220,3050046,,,2024-05-30,清算の結了等,,,2015-10-05,1,,,,,イーストキカク,0
429,2070002023346,登記記録の閉鎖等,0,2024-06-06,2024-05-31,有限会社ケイエムティー,,有限会社,群馬県,桐生市,境野町７丁目１７５２番地,,10,203,3760002,,,2024-05-31,清算の結了等,,,2015-10-05,1,,,,,ケイエムティー,0
432,2080001017488,登記記録の閉鎖等,0,2024-06-06,2024-05-31,株式会社駿遠釣具,,株式会社,静岡県,島田市,横井２丁目１２番５２号,,22,209,4270024,,,2024-05-31,清算の結了等,,,2015-10-05,1,,,,,スンエンツリグ,0
441,2090001007752,登記記録の閉鎖等,0,2024-06-06,2024-05-28,株式会社シンク明野農園,,株式会社,山梨県,甲斐市,玉川１４０５番地１,,19,210,4000116,,,2024-05-28,清算の結了等,,,2015-10-05,1,,,,,,0
442,2090001007843,登記記録の閉鎖等,0,2024-06-06,2024-06-03,株式会社せーのさんち,,株式会社,山梨県,南アルプス市,上八田４３２番地,,19,208,4000215,,,2024-06-03,清算の結了等,,,2015-10-05,1,,,,,セーノサンチ,0
449,2120001138057,登記記録の閉鎖等,0,2024-06-06,2024-05-30,モノセルフーズ株式会社,,株式会社,大阪府,大阪市東成区,大今里南６丁目１６番１０号,,27,115,5370013,,,2024-05-30,清算の結了等,,,2015-10-05,1,,,,,モノセルフーズ,0
473,2122001034970,登記記録の閉鎖等,0,2024-06-06,2024-05-31,株式会社リボーントレーディング,,株式会社,大阪府,東大阪市,長田中３丁目２番２５号,,27,227,5770013,,,2024-05-31,合併による解散等,5122001023806,令和６年５月３１日大阪府東大阪市長田中三丁目２番２７号株式会社リボーンカンパニー（5122001023806）に合併し解散,2021-07-06,1,,,,,リボーントレーディング,0
474,2122005003006,登記記録の閉鎖等,0,2024-06-06,2024-06-05,一般社団法人きらきら保育会,,その他の設立登記法人,大阪府,東大阪市,新町１番９号,,27,227,5798037,,,2024-06-05,清算の結了等,,,2015-10-05,1,,,,,キラキラホイクカイ,0
484,2140001078870,登記記録の閉鎖等,0,2024-06-06,2024-06-03,株式会社フジコー,,株式会社,兵庫県,伊丹市,行基町１丁目５番地,,28,207,6640857,,,2024-06-03,合併による解散等,2140001012193,令和６年６月１日神戸市中央区明石町４７番地日本毛織株式会社（2140001012193）に合併し解散,2015-10-05,1,,,,,フジコー,0
492,2180001028335,登記記録の閉鎖等,0,2024-06-06,2024-06-03,株式会社大喜,,株式会社,愛知県,名古屋市緑区,徳重３丁目５０５番地,,23,114,4580815,,,2024-06-03,清算の結了等,,,2015-10-05,1,,,,,ダイキ,0
505,2200001010802,登記記録の閉鎖等,0,2024-06-06,2024-06-03,株式会社エフ・ジー,,株式会社,岐阜県,羽島市,福寿町千代田１丁目２３番地の２,,21,209,5016256,,,2024-06-03,合併による解散等,2200001011164,令和６年６月１日岐阜県羽島市福寿町千代田一丁目３１番地株式会社大一テクノ（2200001011164）に合併し解散,2015-10-05,1,,,,,エフジー,0
525,2250001008809,登記記録の閉鎖等,0,2024-06-06,2024-06-03,株式会社古賀工務店,,株式会社,山口県,周南市,大字久米２６７８番地の１６,,35,215,7450801,,,2024-06-03,清算の結了等,,,2015-10-05,1,,,,,コガコウムテン,0
551,2320001016242,登記記録の閉鎖等,0,2024-06-06,2024-05-30,株式会社ＪＩＮ,,株式会社,大分県,大分市,下郡北１丁目４番３７－６０３号リサージュ,,44,201,8700952,,,2024-05-30,合併による解散等,7320001018192,令和６年５月３０日大分市下郡北一丁目４番３７－６０３号リサージュ株式会社ＪＩＮｆｏｏｄｓ（7320001018192）に合併し解散,2018-03-19,1,,,,,ジン,0
555,2340001018294,登記記録の閉鎖等,0,2024-06-06,2024-06-03,株式会社ＰＡＧＥ－ＯＮＥ,,株式会社,鹿児島県,鹿屋市,笠之原町１９０８番地１,,46,203,8930023,,,2024-06-03,清算の結了等,,,2015-10-05,1,,,,,ページワン,0
556,2340001019706,登記記録の閉鎖等,0,2024-06-06,2024-06-03,株式会社グランピット,,株式会社,鹿児島県,鹿屋市,笠之原町１９０８番地１,,46,203,8930023,,,2024-06-03,清算の結了等,,,2016-10-11,1,,,,,グランピット,0
564,2360003008837,登記記録の閉鎖等,0,2024-06-06,2024-06-04,合同会社古宇利島ビーチサイド,,合同会社,沖縄県,国頭郡今帰仁村,字古宇利３４８,,47,306,9050406,,,2024-06-04,清算の結了等,,,2018-05-11,1,,,,,コウリジマビーチサイド,0
575,2410001007166,登記記録の閉鎖等,0,2024-06-06,2024-05-31,東北企業株式会社,,株式会社,秋田県,能代市,字後谷地１９番地の２８,,05,202,0160863,,,2024-05-31,清算の結了等,,,2015-10-05,1,,,,,トウホクキギョウ,0
587,2460302001144,登記記録の閉鎖等,0,2024-06-06,2024-06-03,熱学テツク有限会社,,有限会社,北海道,北見市,豊地２６番地２１,,01,208,0991587,,,2024-06-03,合併による解散等,2460301000799,令和６年６月１日北海道北見市豊地２６番地２１株式会社熱学（2460301000799）に合併し解散,2015-10-05,1,,,,,ネツガクテツク,0
622,3010401029691,登記記録の閉鎖等,0,2024-06-06,2024-05-22,株式会社森本毅郎事務所,,株式会社,東京都,港区,赤坂７丁目５番１－１００２号,,13,103,1070052,,,2024-05-22,清算の結了等,,,2015-10-05,1,,,,,モリモトタケロウジムショ,0
623,3010401101814,登記記録の閉鎖等,0,2024-06-06,2024-05-27,株式会社Ｃｅｌｌ　ａｎｄ　Ｇｅｎｅｔｉｃ　Ｌａｂｏｒａｔｏｒｙ,,株式会社,東京都,千代田区,二番町９番地３ＴＨＥ・ＢＡＳＥ麹町,,13,101,1020084,,,2024-05-27,清算の結了等,,,2015-10-05,1,,,,,セルアンドジェネティックラボラトリー,0
628,3010401143179,登記記録の閉鎖等,0,2024-06-06,2024-05-24,ＤＳリアルティー株式会社,,株式会社,東京都,港区,三田１丁目７番１－１４１４号,,13,103,1080073,,,2024-05-24,清算の結了等,,,2019-01-18,1,,,,,ディーエスリアルティー,0
629,3010401149333,登記記録の閉鎖等,0,2024-06-06,2024-06-05,株式会社ＣＢＤ日本,,株式会社,東京都,千代田区,九段南１丁目５番６号りそな九段ビル５ＦＫＳフロア,,13,101,1020074,,,2024-06-05,清算の結了等,,,2019-11-20,1,,,,,シービーディーニホン,0
637,3010405020028,登記記録の閉鎖等,0,2024-06-06,2024-05-24,ＲＢソーラースパイラルホールディングス一般社団法人,,その他の設立登記法人,東京都,港区,虎ノ門３丁目２２番１０－２０１号,,13,103,1050001,,,2024-05-24,清算の結了等,,,2021-07-20,1,,,,,アールビーソーラースパイラルホールディングス,0
657,3011001050063,登記記録の閉鎖等,0,2024-06-06,2024-05-24,株式会社ザ・ラブレター,,株式会社,東京都,渋谷区,渋谷１丁目２０番１１号,,13,113,1500002,,,2024-05-24,清算の結了等,,,2015-10-05,1,,,,,ザラブレター,0
664,3011003016104,登記記録の閉鎖等,0,2024-06-06,2024-05-23,合同会社人生は一度きり,,合同会社,東京都,渋谷区,神泉町１０番１５号,,13,113,1500045,,,2024-05-23,清算の結了等,,,2023-01-17,1,,,,,ジンセイハイチドキリ,0
677,3011403003346,登記記録の閉鎖等,0,2024-06-06,2024-05-30,ＫＭプロ合同会社,,合同会社,東京都,板橋区,小茂根５丁目２－５,,13,119,1730037,,,2024-05-30,清算の結了等,,,2021-06-04,1,,,,,ケーエムプロ,0
680,3011701012742,登記記録の閉鎖等,0,2024-06-06,2024-06-03,サンエー食品株式会社,,株式会社,東京都,江戸川区,平井４丁目３番１１号,,13,123,1320035,,,2024-06-03,清算の結了等,,,2015-10-05,1,,,,,,0
682,3011801040230,登記記録の閉鎖等,0,2024-06-06,2024-05-31,株式会社共栄土木,,株式会社,東京都,足立区,大谷田５丁目６番１６号,,13,121,1200001,,,2024-05-31,清算の結了等,,,2022-01-24,1,,,,,キョウエイドボク,0
687,3013301020051,登記記録の閉鎖等,0,2024-06-06,2024-06-03,株式会社ヴィガー,,株式会社,大阪府,大阪市北区,太融寺町８－８日進ビル６Ｆ,,27,127,5300051,,,2024-06-03,清算の結了等,,,2015-10-05,1,,,,,ヴィガー,0
696,3021001002518,登記記録の閉鎖等,0,2024-06-06,2024-06-05,株式会社Ｓ＆Ｋコーポレーション,,株式会社,神奈川県,藤沢市,辻堂新町１丁目１７番２６号,,14,205,2510042,,,2024-06-05,清算の結了等,,,2015-10-05,1,,,,,エスアンドケイコーポレーション,0
709,3030002108232,登記記録の閉鎖等,0,2024-06-06,2024-06-03,有限会社吉田商会,00017838,有限会社,埼玉県,川口市,赤井２丁目９番８号,,11,203,3340073,,,2024-06-03,清算の結了等,,,2015-10-05,1,,,,,ヨシダショウカイ,0
720,3040002056190,登記記録の閉鎖等,0,2024-06-06,2024-05-29,有限会社サンユー水処理技研,,有限会社,千葉県,富里市,七栄６４９番地の５３５,,12,233,2860221,,,2024-05-29,清算の結了等,,,2015-10-05,1,,,,,サンユースイショリギケン,0
728,3070001035127,登記記録の閉鎖等,0,2024-06-06,2024-06-03,株式会社カリン,,株式会社,群馬県,伊勢崎市,本町８番地１０,,10,204,3720047,,,2024-06-03,清算の結了等,,,2018-10-05,1,,,,,カリン,0
732,3080002006209,登記記録の閉鎖等,0,2024-06-06,2024-05-16,有限会社ユニット,,有限会社,静岡県,静岡市駿河区,池田６１５番地の４,,22,102,4228005,,,2024-05-16,清算の結了等,,,2015-10-05,1,,,,,ユニット,0
742,3100001025099,登記記録の閉鎖等,0,2024-06-06,2024-05-28,株式会社匠精工,,株式会社,長野県,岡谷市,長地６１９２番地１,,20,204,3940011,,,2024-05-28,清算の結了等,,,2015-10-05,1,,,,,タクミセイコウ,0
750,3120001063824,登記記録の閉鎖等,0,2024-06-06,2024-06-04,株式会社こざい,,株式会社,大阪府,大阪市北区,曾根崎新地１丁目９番１号,,27,127,5300002,,,2024-06-04,清算の結了等,,,2015-10-05,1,,,,,コザイ,0
770,3130002002994,登記記録の閉鎖等,0,2024-06-06,2024-06-05,有限会社水船工業,,有限会社,京都府,京都市北区,西賀茂北山ノ森町２６番地２,,26,101,6038811,,,2024-06-05,清算の結了等,,,2015-10-05,1,,,,,ミズフネコウギョウ,0
778,3140002040705,登記記録の閉鎖等,0,2024-06-06,2024-05-31,有限会社グランツ,,有限会社,兵庫県,尼崎市,武庫之荘東１丁目２６番１号,,28,202,6610032,,,2024-05-31,清算の結了等,,,2015-10-05,1,,,,,グランツ,0
779,3140002067442,登記記録の閉鎖等,0,2024-06-06,2024-06-03,有限会社松葉寿司,,有限会社,兵庫県,宝塚市,安倉南４丁目３９番２２号,,28,214,6650823,,,2024-06-03,清算の結了等,,,2015-10-05,1,,,,,マツバズシ,0
786,3160003001984,登記記録の閉鎖等,0,2024-06-06,2024-06-03,北野ふれあい農園合同会社,,合同会社,滋賀県,守山市,洲本町１４５３番地,,25,207,5240103,,,2024-06-03,清算の結了等,,,2020-01-24,1,,,,,キタノフレアイノウエン,0
791,3180001155715,登記記録の閉鎖等,0,2024-06-06,2024-06-03,エム・ディーサプライ株式会社,,株式会社,愛知県,名古屋市中村区,亀島２丁目２０番２号,,23,105,4530013,,,2024-06-03,合併による解散等,3180001060238,令和６年６月１日名古屋市中村区亀島二丁目２０番２号株式会社ミカドグローバル（3180001060238）に合併し解散,2023-04-17,1,,,,,エムディーサプライ,0
795,3180302022614,登記記録の閉鎖等,0,2024-06-06,2024-05-30,有限会社たけだ住設,,有限会社,愛知県,豊田市,豊栄町１１丁目１番地８,,23,211,4701201,,,2024-05-30,清算の結了等,,,2015-10-05,1,,,,,タケダジュウセツ,0
863,3380001028586,登記記録の閉鎖等,0,2024-06-06,2024-06-03,株式会社半谷通信,,株式会社,福島県,石川郡玉川村,大字川辺字宮ノ前３９９番地の５,,07,502,9636313,,,2024-06-03,清算の結了等,,,2017-10-23,1,,,,,ハンガイツウシン,0
883,3500001004186,登記記録の閉鎖等,0,2024-06-06,2024-06-03,株式会社八束印刷所,,株式会社,愛媛県,松山市,柳井町３丁目７番地５,,38,201,7900014,,,2024-06-03,清算の結了等,,,2015-10-05,1,,,,,ヤツヅカインサツショ,0
887,3700150108775,登記記録の閉鎖等,0,2024-06-06,2024-03-25,柊会,,その他,東京都,大田区,田園調布５丁目１１－１６,,13,111,1450071,,,2024-03-25,その他の清算の結了等,,,2022-05-18,1,,,,,ヒイラギカイ,0
888,3700150122363,登記記録の閉鎖等,0,2024-06-06,2024-02-28,東アジア脳血管内治療会議２０２３,,その他,新潟県,新潟市西区,新通南３丁目３－１１信楽園病院脳神経外科内,,15,107,9502038,,,2024-02-28,その他の清算の結了等,,,2023-11-28,1,,,,,ヒガシアジアノウケツカンナイチリヨウカイギニセンニジユウサン,0
891,4000020038768,登記記録の閉鎖等,0,2024-06-06,2020-03-31,盛岡市・矢巾町都市計画事業等組合,,地方公共団体,岩手県,紫波郡矢巾町,流通センター南２丁目３－８,,03,322,0200891,,,2020-03-31,その他の清算の結了等,,,2015-10-05,1,Morioka City Yahaba Town City Planning Projects Association,Iwate,"2-3-8, Ryutsucenterminami, Yahaba cho",,モリオカシヤハバチョウトシケイカクジギョウトウクミアイ,0
931,4010601041322,登記記録の閉鎖等,0,2024-06-06,2024-05-27,株式会社三栄地所,,株式会社,東京都,江東区,亀戸２丁目３９番９号,,13,108,1360071,,,2024-05-27,清算の結了等,,,2015-10-05,1,,,,,,0
943,4010702001984,登記記録の閉鎖等,0,2024-06-06,2024-06-04,有限会社かとう,,有限会社,東京都,品川区,東五反田１丁目１３番３号,,13,109,1410022,,,2024-06-04,清算の結了等,,,2015-10-05,1,,,,,カトウ,0
944,4010702005606,登記記録の閉鎖等,0,2024-06-06,2024-06-03,有限会社トキコーポレーション,,有限会社,東京都,品川区,上大崎３丁目１０番５０－１０４号アルカサル目黒花房山,,13,109,1410021,,,2024-06-03,清算の結了等,,,2015-10-05,1,,,,,トキコーポレーション,0
949,4010802017393,登記記録の閉鎖等,0,2024-06-06,2024-05-29,有限会社春日,,有限会社,東京都,大田区,南蒲田１丁目２－２２シャンフォート１０９,,13,111,1440035,,,2024-05-29,清算の結了等,,,2015-10-05,1,,,,,カスガ,0
966,4011301007472,登記記録の閉鎖等,0,2024-06-06,2024-05-31,株式会社ワーズ,,株式会社,東京都,杉並区,荻窪５丁目２５番２号フラッツ荻窪４０１号,,13,115,1670051,,,2024-05-31,清算の結了等,,,2015-10-05,1,,,,,ワーズ,0
985,4020003023686,登記記録の閉鎖等,0,2024-06-06,2024-05-31,ＬａｎｄＧａｔｅ合同会社,,合同会社,神奈川県,横浜市都筑区,茅ケ崎中央２１－８プレジール３０１,,14,118,2240032,,,2024-05-31,清算の結了等,,,2023-04-06,1,,,,,ランドゲイト,0
1014,4040001116894,登記記録の閉鎖等,0,2024-06-06,2024-05-29,株式会社Ｙ’Ｓ,,株式会社,千葉県,銚子市,高田町６丁目８０３番地,,12,202,2880862,,,2024-05-29,清算の結了等,,,2021-01-26,1,,,,,ワイズ,0
1031,4070001023691,登記記録の閉鎖等,0,2024-06-06,2024-05-31,株式会社鵬建設,,株式会社,群馬県,吾妻郡嬬恋村,大字大前字細原２２７９番地,,10,425,3771612,,,2024-05-31,清算の結了等,,,2015-10-05,1,,,,,オオトリケンセツ,0
1052,4120002002177,登記記録の閉鎖等,0,2024-06-06,2024-06-04,大誠通信精機有限会社,,有限会社,大阪府,大阪市西成区,天神ノ森１丁目５番５号,,27,122,5570013,,,2024-06-04,清算の結了等,,,2015-10-05,1,,,,,タイセイツウシンセイキ,0
1055,4120101000313,登記記録の閉鎖等,0,2024-06-06,2024-05-31,泉化成工業株式会社,,株式会社,大阪府,堺市中区,毛穴町６５番地,,27,142,5998266,,,2024-05-31,清算の結了等,,,2015-10-05,1,,,,,イズミカセイコウギョウ,0
1071,4140001055777,登記記録の閉鎖等,0,2024-06-06,2024-06-03,株式会社ひかりのくに,,株式会社,兵庫県,尼崎市,武庫町１丁目３５番２号,,28,202,6610044,,,2024-06-03,清算の結了等,,,2015-10-05,1,,,,,ヒカリノクニ,0
1085,4180302003480,登記記録の閉鎖等,0,2024-06-06,2024-05-29,有限会社志賀組,,有限会社,愛知県,額田郡幸田町,大字菱池字錦田５０番地１,,23,501,4440113,,,2024-05-29,清算の結了等,,,2015-10-05,1,,,,,シガグミ,0
1088,4200002004669,登記記録の閉鎖等,0,2024-06-06,2024-06-03,ミフク有限会社,,有限会社,岐阜県,岐阜市,正木中４丁目７番１号,,21,201,5020882,,,2024-06-03,合併による解散等,7200001001945,令和６年５月３１日岐阜市正木中四丁目７番１号神山商事株式会社（7200001001945）に合併し解散,2015-10-05,1,,,,,ミフク,0
1089,4200002010799,登記記録の閉鎖等,0,2024-06-06,2024-06-03,有限会社シャディプラザ,,有限会社,岐阜県,羽島郡岐南町,伏屋２丁目１４８番地,,21,302,5016006,,,2024-06-03,合併による解散等,5200001011013,令和６年６月１日岐阜県羽島郡岐南町伏屋二丁目１４８番地株式会社コスモ（5200001011013）に合併し解散,2015-10-05,1,,,,,シャディプラザ,0
1110,4240005012913,登記記録の閉鎖等,0,2024-06-06,2024-06-03,一般社団法人呉美術同好会,,その他の設立登記法人,広島県,呉市,広中新開３丁目５番８号,,34,202,7370124,,,2024-06-03,清算の結了等,,,2015-10-05,1,,,,,クレビジュツドウコウカイ,0
1132,4320202000778,登記記録の閉鎖等,0,2024-06-06,2024-06-03,有限会社若林鮮魚店,,有限会社,大分県,津久見市,立花町２番２６号,,44,207,8792434,,,2024-06-03,清算の結了等,,,2015-10-05,1,,,,,ワカバヤシセンギョテン,0
1147,4430001049452,登記記録の閉鎖等,0,2024-06-06,2024-06-03,株式会社ＦＩＮＤ,,株式会社,北海道,札幌市豊平区,月寒中央通８丁目１番１０号月寒中央ビル２Ｆ,,01,105,0620020,,,2024-06-03,合併による解散等,3430002006726,令和６年６月１日札幌市豊平区月寒中央通八丁目１番１０号月寒中央ビル２Ｆ株式会社クライムカンパニー（3430002006726）に合併し解散,2015-10-05,1,,,,,ファインド,0
1150,4430001089432,登記記録の閉鎖等,0,2024-06-06,2024-06-03,小野商事株式会社,,株式会社,北海道,札幌市手稲区,前田一条６丁目２番８号,,01,109,0060811,,,2024-06-03,清算の結了等,,,2023-07-06,1,,,,,オノショウジ,0
1151,4430002004596,登記記録の閉鎖等,0,2024-06-06,2024-06-03,ガーネットハイツ有限会社,,有限会社,北海道,札幌市中央区,南十五条西８丁目１番３１号,,01,101,0640915,,,2024-06-03,清算の結了等,,,2015-10-05,1,,,,,ガーネットハイツ,0
1152,4430002012962,登記記録の閉鎖等,0,2024-06-06,2024-06-03,有限会社ティー・アイ,,有限会社,北海道,札幌市中央区,南五条東３丁目１０番地,,01,101,0600055,,,2024-06-03,清算の結了等,,,2015-10-05,1,,,,,ティーアイ,0
1176,4700150109541,登記記録の閉鎖等,0,2024-06-06,2024-01-26,中部医師厚生会,,その他,富山県,富山市,蜷川３３６,,16,201,9398222,,,2024-01-26,その他の清算の結了等,,,2022-06-13,1,,,,,チユウブイシコウセイカイ,0
1177,4700150112925,登記記録の閉鎖等,0,2024-06-06,2023-12-31,ライフステージメンタル音楽家協会,,その他,東京都,三鷹市,中原２丁目１８－３,,13,204,1810005,,,2023-12-31,その他の清算の結了等,,,2022-11-15,1,,,,,ライフステージメンタルオンガクカキヨウカイ,0
1202,5010403020382,登記記録の閉鎖等,0,2024-06-06,2024-05-22,Ｏｓａｋａ　Ｄｅｖｅｌｏｐｍｅｎｔ合同会社,,合同会社,東京都,港区,六本木１丁目６番１号泉ガーデンタワー２７階,,13,103,1060032,,,2024-05-22,清算の結了等,,,2019-03-15,1,,,,,オオサカデベロップメント,0
1258,5020001076883,登記記録の閉鎖等,0,2024-06-06,2024-05-31,株式会社ライフサポート社,,株式会社,神奈川県,川崎市宮前区,菅生３丁目３３番１５－１号,,14,136,2160015,,,2024-05-31,清算の結了等,,,2015-10-05,1,,,,,ライフサポートシャ,0
1264,5020002042174,登記記録の閉鎖等,0,2024-06-06,2024-05-31,有限会社均元樓,,有限会社,神奈川県,横浜市中区,山下町９０番地１ラ・コスタ横浜山下公園１１０５号室,,14,104,2310023,,,2024-05-31,清算の結了等,,,2015-10-05,1,,,,,キンゲンロウ,0
1266,5021001004454,登記記録の閉鎖等,0,2024-06-06,2024-06-05,株式会社野口硝子,,株式会社,神奈川県,藤沢市,菖蒲沢仲之桜７１０番地,,14,205,2520823,,,2024-06-05,清算の結了等,,,2015-10-05,1,,,,,ノグチガラス,0
1272,5021002004635,登記記録の閉鎖等,0,2024-06-06,2024-06-04,有限会社政所工務店,,有限会社,神奈川県,藤沢市,宮原字六本松１２７０番地の８,,14,205,2520826,,,2024-06-04,清算の結了等,,,2015-10-05,1,,,,,マンドコロコウムテン,0
1283,5030002090362,登記記録の閉鎖等,0,2024-06-06,2024-06-03,有限会社田坂キューエイ事務所,,有限会社,埼玉県,吉川市,中曽根１丁目２６番地１６,,11,243,3420033,,,2024-06-03,清算の結了等,,,2015-10-05,1,,,,,タサカキューエイジムショ,0
1320,5120001041200,登記記録の閉鎖等,0,2024-06-06,2024-06-03,アンエイ株式会社,,株式会社,大阪府,大阪市西区,立売堀１丁目３番１１号,,27,106,5500012,,,2024-06-03,合併による解散等,6120001059877,令和６年６月１日大阪市北区梅田一丁目２番２－２００号株式会社アケボノクラウン（6120001059877）に合併し解散,2015-10-05,1,,,,,アンエイ,0
1329,5120002071460,登記記録の閉鎖等,0,2024-06-06,2024-06-04,有限会社アイ・エム・エス,,有限会社,大阪府,交野市,星田西３丁目２６番４号,,27,230,5760015,,,2024-06-04,清算の結了等,,,2015-10-05,1,,,,,アイエムエス,0
1342,5130005016313,登記記録の閉鎖等,0,2024-06-06,2024-06-05,一般社団法人アートキャスト山科,,その他の設立登記法人,京都府,京都市山科区,西野楳本町１２番３Ｆ,,26,110,6078358,,,2024-06-05,清算の結了等,,,2021-11-15,1,,,,,アートキャストヤマシナ,0
1365,5180305000722,登記記録の閉鎖等,0,2024-06-06,2024-05-29,医療法人真幸会,,その他の設立登記法人,愛知県,額田郡幸田町,大字大草字三ツ石３１番１５,,23,501,4440103,,,2024-05-29,清算の結了等,,,2015-10-05,1,,,,,シンコウカイ,0
1370,5200003005112,登記記録の閉鎖等,0,2024-06-06,2024-06-03,合同会社ＣＸ,,合同会社,岐阜県,岐阜市,田生越町１番地１ナビシティ新岐阜８０６,,21,201,5008173,,,2024-06-03,清算の結了等,,,2021-03-04,1,,,,,シーエックス,0
1379,5240001045197,登記記録の閉鎖等,0,2024-06-06,2024-06-03,株式会社もみじハウス,,株式会社,広島県,東広島市,八本松町原７０６９番地,,34,212,7390151,,,2024-06-03,合併による解散等,2240001023387,令和６年６月１日広島県東広島市八本松町原７０７３番地１株式会社テクナサービス（2240001023387）に合併し解散,2015-10-05,1,,,,,モミジハウス,0
1381,5240002012122,登記記録の閉鎖等,0,2024-06-06,2024-06-04,有限会社西川ビル,,有限会社,広島県,広島市安佐北区,深川７丁目１７番２０号,,34,106,7391751,,,2024-06-04,清算の結了等,,,2015-10-05,1,,,,,ニシカワビル,0
1384,5250001018103,登記記録の閉鎖等,0,2024-06-06,2024-06-03,株式会社Ｎｅｘｔｒｙ,,株式会社,山口県,防府市,中西２７番５号,,35,206,7470005,,,2024-06-03,清算の結了等,,,2020-01-15,1,,,,,,0
1402,5300002011530,登記記録の閉鎖等,0,2024-06-06,2024-06-03,有限会社ジャストサポート,,有限会社,佐賀県,佐賀市,兵庫町大字藤木４６８番地１,,41,201,8490915,,,2024-06-03,清算の結了等,,,2015-10-05,1,,,,,ジャストサポート,0
1441,5430002051844,登記記録の閉鎖等,0,2024-06-06,2024-05-31,有限会社エイケー設計事務所,,有限会社,北海道,滝川市,栄町３丁目４番２４号,,01,225,0730031,,,2024-05-31,清算の結了等,,,2015-10-05,1,,,,,エイケーセッケイジムショ,0
1450,5480001003908,登記記録の閉鎖等,0,2024-06-06,2024-06-03,株式会社ＦＵＪＩＹＡ,,株式会社,徳島県,徳島市,南二軒屋町３丁目２番５６－１０２号,,36,201,7708063,,,2024-06-03,清算の結了等,,,2015-10-05,1,,,,,フジヤ,0
1458,6000020038130,登記記録の閉鎖等,0,2024-06-06,2022-03-31,陸前高田市及び大船渡市営林組合,,地方公共団体,岩手県,陸前高田市,高田町字鳴石４２－５陸前高田市役所内,,03,210,0292205,,,2022-03-31,その他の清算の結了等,,,2015-10-05,1,Rikuzentakata City and Ofunato City Forest Association ,Iwate,"42-5,Naruishi,Takata-cho, Rikuzentakata shi",,リクゼンタカタシオヨビオオフナトシエイリンクミアイ,0
1461,6010001111244,登記記録の閉鎖等,0,2024-06-06,2024-05-23,株式会社ワカバヤシエフエックスアソシエイツ,,株式会社,東京都,中央区,日本橋人形町３丁目１２番１１号,,13,102,1030013,,,2024-05-23,清算の結了等,,,2015-10-05,1,,,,,ワカバヤシエフエックスアソシエイツ,0
1540,6013201018655,登記記録の閉鎖等,0,2024-06-06,2024-06-03,株式会社ＬＧ＆ＥＷ,,株式会社,東京都,品川区,東五反田５丁目１０番１８号,,13,109,1410022,,,2024-06-03,合併による解散等,9040001029191,令和６年６月１日東京都品川区東五反田五丁目１０番１８号株式会社クリエイト・ダイニング（9040001029191）に合併し解散,2015-10-05,1,,,,,エルジーアンドイーダブリュー,0
1545,6020001022622,登記記録の閉鎖等,0,2024-06-06,2024-05-31,株式会社大泉工務店,,株式会社,神奈川県,横浜市神奈川区,神之木町１６番２号コスモ神之木３０５号室,,14,102,2210015,,,2024-05-31,清算の結了等,,,2015-10-05,1,,,,,オオイズミコウムテン,0
1547,6020001079902,登記記録の閉鎖等,0,2024-06-06,2024-05-31,サイ・ロード株式会社,,株式会社,神奈川県,川崎市麻生区,栗木台４丁目１０番１９号,,14,137,2150032,,,2024-05-31,清算の結了等,,,2015-10-05,1,,,,,サイロード,0
1558,6021002022347,登記記録の閉鎖等,0,2024-06-06,2024-06-05,有限会社千代田商工,,有限会社,神奈川県,相模原市中央区,千代田７丁目４番１８号,,14,152,2520237,,,2024-06-05,清算の結了等,,,2015-10-05,1,,,,,チヨダショウコウ,0
1577,6040002010228,登記記録の閉鎖等,0,2024-06-06,2024-05-29,有限会社プラスト,,有限会社,千葉県,千葉市美浜区,稲毛海岸１丁目２番１０棟３０５号,,12,106,2610005,,,2024-05-29,清算の結了等,,,2015-10-05,1,,,,,プラスト,0
1595,6080101004333,登記記録の閉鎖等,0,2024-06-06,2024-06-03,弥生建設株式会社,,株式会社,静岡県,御殿場市,茱萸沢９３番地の４,,22,215,4120041,,,2024-06-03,清算の結了等,,,2015-10-05,1,,,,,ヤヨイケンセツ,0
1610,6100002001609,登記記録の閉鎖等,0,2024-06-06,2024-05-29,有限会社小林酒店,,有限会社,長野県,長野市,大字鶴賀緑町１４０１番地１７,,20,201,3800813,,,2024-05-29,清算の結了等,,,2015-10-05,1,,,,,コバヤシサケテン,0
1626,6120001216817,登記記録の閉鎖等,0,2024-06-06,2024-06-04,ＩＬＭ腰痛メディカルフィットネス株式会社,,株式会社,大阪府,大阪市東淀川区,西淡路１丁目１番３５号ＩＭＣ国際医療センタービル,,27,114,5330031,,,2024-06-04,清算の結了等,,,2018-10-30,1,,,,,アイエルエムヨウツウメディカルフィットネス,0
1660,6180001062157,登記記録の閉鎖等,0,2024-06-06,2024-06-04,株式会社ＢＢ,,株式会社,岐阜県,羽島郡岐南町,徳田西１丁目５７番地,,21,302,5016017,,,2024-06-04,清算の結了等,,,2015-10-05,1,,,,,ビビ,0
1668,6180003017076,登記記録の閉鎖等,0,2024-06-06,2024-06-03,合同会社ナチュラックス,,合同会社,愛知県,名古屋市名東区,亀の井１丁目１１番地の２,,23,115,4650094,,,2024-06-03,清算の結了等,,,2016-05-11,1,,,,,ナチュラックス,0
1688,6200003003577,登記記録の閉鎖等,0,2024-06-06,2024-06-03,ネクストジャパン合同会社,,合同会社,岐阜県,瑞穂市,本田１２８５番地３,,21,216,5010236,,,2024-06-03,清算の結了等,,,2015-10-05,1,,,,,ネクストジャパン,0
1717,6290003009005,登記記録の閉鎖等,0,2024-06-06,2024-05-01,株式会社つむぐ,,株式会社,福岡県,久留米市,中央町２１番２,,40,203,8300023,,,2024-05-01,合併による解散等,7290003009598,令和６年５月１日福岡県久留米市中央町１９番地１株式会社ＣＯＬＯ（7290003009598）に合併し解散,2019-05-14,1,,,,,ツムグ,0
1728,6330001025008,登記記録の閉鎖等,0,2024-06-06,2024-06-03,株式会社ベストライフ,,株式会社,熊本県,熊本市北区,兎谷２丁目７番１１号,,43,105,8618082,,,2024-06-03,清算の結了等,,,2018-02-13,1,,,,,ベストライフ,0
1736,6350003001590,登記記録の閉鎖等,0,2024-06-06,2024-05-31,株式会社加力自動車,,株式会社,宮崎県,日南市,園田３丁目３番１４号,,45,204,8870012,,,2024-05-31,清算の結了等,,,2015-10-05,1,,,,,カリキジドウシャ,0
1739,6360003001326,登記記録の閉鎖等,0,2024-06-06,2024-06-04,合資会社宮里マンション,,合資会社,沖縄県,那覇市,壺屋１丁目１番１７号,,47,201,9020065,,,2024-06-04,清算の結了等,,,2015-10-05,1,,,,,ミヤザトマンション,0
1753,6430001080091,登記記録の閉鎖等,0,2024-06-06,2024-05-31,株式会社ジョイネットワークス,,株式会社,北海道,苫小牧市,桜木町３丁目６番４号,,01,213,0530832,,,2024-05-31,清算の結了等,,,2019-10-24,1,,,,,ジョイネットワークス,0
1760,6480002003831,登記記録の閉鎖等,0,2024-06-06,2024-06-03,有限会社フォーシーズン,,有限会社,徳島県,徳島市,寺島本町西１丁目５４番地１,,36,201,7700831,,,2024-06-03,合併による解散等,8480001003748,令和６年６月１日徳島市寺島本町西一丁目６０番地１株式会社ホテルグランドパレス（8480001003748）に合併し解散,2015-10-05,1,,,,,フォーシーズン,0
1764,6500003000395,登記記録の閉鎖等,0,2024-06-06,2024-06-03,合資会社音工房松山,,合資会社,愛媛県,松山市,久万ノ台乙４４８番地２,,38,201,7918016,,,2024-06-03,清算の結了等,,,2015-10-05,1,,,,,オトコウボウマツヤマ,0
1780,7010401126576,登記記録の閉鎖等,0,2024-06-06,2024-05-24,株式会社ビーツーワン,,株式会社,東京都,港区,高輪４丁目２３番６号,,13,103,1080074,,,2024-05-24,清算の結了等,,,2016-08-19,1,,,,,ビーツーワン,0
1803,7010701016394,登記記録の閉鎖等,0,2024-06-06,2024-06-03,株式会社ネットインフラ開発,,株式会社,東京都,品川区,東五反田２丁目１９番３号,,13,109,1410022,,,2024-06-03,清算の結了等,,,2015-10-05,1,,,,,ネットインフラカイハツ,0
1854,7020005011050,登記記録の閉鎖等,0,2024-06-06,2024-05-31,特定非営利活動法人アクティブシニアよこはま,,その他の設立登記法人,神奈川県,横浜市青葉区,新石川２丁目１４番地７,,14,117,2250003,,,2024-05-31,清算の結了等,,,2015-10-05,1,,,,,アクティブシニアヨコハマ,0
1861,7021002009211,登記記録の閉鎖等,0,2024-06-06,2024-06-05,有限会社イズム,,有限会社,神奈川県,藤沢市,藤が岡２丁目２１番１－１０４,,14,205,2510004,,,2024-06-05,清算の結了等,,,2015-10-05,1,,,,,イズム,0
1879,7030005010563,登記記録の閉鎖等,0,2024-06-06,2024-06-03,特定非営利活動法人越谷スポーツ倶楽部,,その他の設立登記法人,埼玉県,越谷市,大字大杉４９２番地１,,11,222,3430005,,,2024-06-03,清算の結了等,,,2015-10-05,1,,,,,コシガヤスポーツクラブ,0
1884,7040001119341,登記記録の閉鎖等,0,2024-06-06,2024-05-28,株式会社ＨＯＭ,,株式会社,千葉県,千葉市美浜区,真砂３丁目１８番地検見川マリンタウン団地３棟１２０４号室,,12,106,2610011,,,2024-05-28,清算の結了等,,,2021-07-21,1,,,,,エイチオーエム,0
1906,7060002002800,登記記録の閉鎖等,0,2024-06-06,2024-05-31,有限会社片柳金物店,,有限会社,栃木県,宇都宮市,御幸ケ原町１３６番地４３,,09,201,3210982,,,2024-05-31,清算の結了等,,,2015-10-05,1,,,,,カタヤナギカナモノテン,0
1909,7070001014977,登記記録の閉鎖等,0,2024-06-06,2024-06-03,Ｂフロント株式会社,,株式会社,群馬県,伊勢崎市,日乃出町３６６番地５,,10,204,3720022,,,2024-06-03,清算の結了等,,,2015-10-05,1,,,,,ビーフロント,0
1931,7120101049042,登記記録の閉鎖等,0,2024-06-06,2024-06-03,株式会社ＳＯＴＥＣＨ,,株式会社,大阪府,泉南市,信達大苗代７０１番地の７６,,27,228,5900505,,,2024-06-03,清算の結了等,,,2015-10-05,1,,,,,,0
1960,7180002075272,登記記録の閉鎖等,0,2024-06-06,2024-06-03,セキセーサポート有限会社,,有限会社,岐阜県,各務原市,蘇原花園町３丁目４５番地,,21,213,5040832,,,2024-06-03,合併による解散等,5200001011013,令和６年６月１日岐阜県羽島郡岐南町伏屋二丁目１４８番地株式会社コスモ（5200001011013）に合併し解散,2015-10-05,1,,,,,セキセーサポート,0
1971,7200002010086,登記記録の閉鎖等,0,2024-06-06,2024-05-31,有限会社ジョイントアップ,,有限会社,岐阜県,揖斐郡大野町,大字五之里３９０番地,,21,403,5010554,,,2024-05-31,清算の結了等,,,2015-10-05,1,,,,,ジョイントアップ,0
1979,7220001001118,登記記録の閉鎖等,0,2024-06-06,2024-06-03,泉興業株式会社,,株式会社,石川県,金沢市,米泉町７丁目５６番地１,,17,201,9218044,,,2024-06-03,清算の結了等,,,2015-10-05,1,,,,,,0
1983,7220002016619,登記記録の閉鎖等,0,2024-06-06,2024-06-03,有限会社津幡商事,,有限会社,石川県,河北郡津幡町,字清水ア１０番地,,17,361,9290326,,,2024-06-03,合併による解散等,7220001017634,令和６年６月１日石川県河北郡津幡町字清水ア９番地株式会社津幡工業（7220001017634）に合併し解散,2015-10-05,1,,,,,ツバタショウジ,0
1995,7250002008448,登記記録の閉鎖等,0,2024-06-06,2024-06-03,有限会社オガタショク,,有限会社,山口県,下関市,長府中浜町２番２１号,,35,201,7520975,,,2024-06-03,清算の結了等,,,2015-10-05,1,,,,,オガタショク,0
2016,7300003001660,登記記録の閉鎖等,0,2024-06-06,2024-06-03,合同会社Ｋｏｇａ,,合同会社,佐賀県,佐賀市,末広２丁目１３番２９号,,41,201,8400032,,,2024-06-03,清算の結了等,,,2021-04-13,1,,,,,コガ,0
2021,7330001006246,登記記録の閉鎖等,0,2024-06-06,2024-05-31,株式会社メイワリーベル,,株式会社,熊本県,熊本市中央区,辛島町４番３５号,,43,101,8600804,,,2024-05-31,合併による解散等,6330001004647,令和６年５月３１日熊本市中央区辛島町４番３５号株式会社明和不動産（6330001004647）に合併し解散,2015-10-05,1,,,,,メイワリーベル,0
2025,7330005009419,登記記録の閉鎖等,0,2024-06-06,2024-06-03,一般社団法人しらぬい,,その他の設立登記法人,熊本県,八代市,沖町３１００番地,,43,202,8660013,,,2024-06-03,清算の結了等,,,2016-03-02,1,,,,,シラヌイ,0
2028,7340001016161,登記記録の閉鎖等,0,2024-06-06,2024-05-31,株式会社いろり企画,,株式会社,鹿児島県,鹿児島市,永吉２丁目１番１４号,,46,201,8900023,,,2024-05-31,合併による解散等,9340002000328,令和６年５月３１日鹿児島市四元町１０９７番地１株式会社Ｌｉｃｈｉ（9340002000328）に合併し解散,2015-10-05,1,,,,,イロリキカク,0
2029,7340002000825,登記記録の閉鎖等,0,2024-06-06,2024-06-04,有限会社アイワード,,有限会社,鹿児島県,鹿児島市,紫原７丁目９番１６号,,46,201,8900082,,,2024-06-04,清算の結了等,,,2015-10-05,1,,,,,アイワード,0
2030,7340002014998,登記記録の閉鎖等,0,2024-06-06,2024-06-03,有限会社鬼塚鉄筋工業,,有限会社,鹿児島県,霧島市,横川町中ノ３８５３番地,,46,218,8996303,,,2024-06-03,清算の結了等,,,2015-10-05,1,,,,,オニツカテッキンコウギョウ,0
2051,7420002015699,登記記録の閉鎖等,0,2024-06-06,2024-06-03,有限会社野呂機械店,,有限会社,青森県,黒石市,追子野木１丁目１４４番地１,,02,204,0360357,,,2024-06-03,清算の結了等,,,2015-10-05,1,,,,,ノロキカイテン,0
2075,8010001223335,登記記録の閉鎖等,0,2024-06-06,2024-05-23,株式会社スマート・ケア,,株式会社,東京都,千代田区,三番町２４番地２５,,13,101,1020075,,,2024-05-23,清算の結了等,,,2021-12-20,1,,,,,スマートケア,0
2079,8010003036470,登記記録の閉鎖等,0,2024-06-06,2024-05-29,合同会社ｍａ,,合同会社,東京都,中央区,佃３丁目８番６－７０４号,,13,102,1040051,,,2024-05-29,清算の結了等,,,2021-12-09,1,,,,,エムエー,0
2100,8010802013950,登記記録の閉鎖等,0,2024-06-06,2024-05-31,有限会社みかみ木型製作所,,有限会社,東京都,大田区,本羽田２丁目１２番１－２０８号,,13,111,1440044,,,2024-05-31,清算の結了等,,,2015-10-05,1,,,,,ミカミキカタセイサクショ,0
2105,8010902006482,登記記録の閉鎖等,0,2024-06-06,2024-06-03,有限会社坂元インテリア,,有限会社,東京都,世田谷区,上野毛１丁目１８番１４－６０４号,,13,112,1580093,,,2024-06-03,清算の結了等,,,2015-10-05,1,,,,,サカモトインテリア,0
2113,8011003012965,登記記録の閉鎖等,0,2024-06-06,2024-05-23,合同会社ａｒｏｕｎｄ　ｔｈｅ　ｋｉｔｃｈｅｎ,,合同会社,東京都,渋谷区,猿楽町２－５佐藤エステートビル１Ｆ,,13,113,1500033,,,2024-05-23,清算の結了等,,,2021-06-18,1,,,,,アラウンドザキッチン,0
2126,8011202011693,登記記録の閉鎖等,0,2024-06-06,2024-06-04,有限会社西海,,有限会社,東京都,中野区,中野１丁目２３番１７号,,13,114,1640001,,,2024-06-04,清算の結了等,,,2015-10-05,1,,,,,サイカイ,0
2131,8011502005313,登記記録の閉鎖等,0,2024-06-06,2024-06-03,有限会社平和堂,,有限会社,東京都,北区,王子４丁目１４番１１号,,13,117,1140002,,,2024-06-03,清算の結了等,,,2015-10-05,1,,,,,ヘイワドウ,0
2154,8020002016010,登記記録の閉鎖等,0,2024-06-06,2024-05-31,有限会社石辺ビル,,有限会社,神奈川県,横浜市西区,南幸２丁目７番１２号,,14,103,2200005,,,2024-05-31,清算の結了等,,,2015-10-05,1,,,,,イシベビル,0
2155,8020002022561,登記記録の閉鎖等,0,2024-06-06,2024-05-31,有限会社宮本染色水洗工場,,有限会社,神奈川県,横浜市旭区,川島町２８４９番地の１,,14,112,2410011,,,2024-05-31,清算の結了等,,,2015-10-05,1,,,,,ミヤモトセンショクスイセンコウジョウ,0
2173,8030002026710,登記記録の閉鎖等,0,2024-06-06,2024-06-03,有限会社蕨宿,,有限会社,埼玉県,蕨市,北町２丁目１０番９号,,11,223,3350001,,,2024-06-03,清算の結了等,,,2015-10-05,1,,,,,ワラビジュク,0
2179,8030003021702,登記記録の閉鎖等,0,2024-06-06,2024-06-03,合同会社ユーアイ空調,,合同会社,埼玉県,越谷市,北越谷１丁目２３番１２号,,11,222,3430026,,,2024-06-03,清算の結了等,,,2023-05-09,1,,,,,ユーアイクウチョウ,0
2182,8040001058670,登記記録の閉鎖等,0,2024-06-06,2024-05-30,株式会社ＴＭＫ,,株式会社,東京都,府中市,朝日町２丁目２１番地の９,,13,206,1830003,,,2024-05-30,清算の結了等,,,2015-10-05,1,,,,,ティーエムケー,0
2197,8080401002571,登記記録の閉鎖等,0,2024-06-06,2024-06-04,株式会社すゞや,,株式会社,静岡県,浜松市浜名区,寺島１４８７番地の５,,22,139,4340035,,,2024-06-04,清算の結了等,,,2015-10-05,1,,,,,スズヤ,0
2225,8122003002706,登記記録の閉鎖等,0,2024-06-06,2024-06-04,合同会社ケイシーエス,,合同会社,大阪府,東大阪市,末広町１８番９号,,27,227,5798055,,,2024-06-04,清算の結了等,,,2023-10-23,1,,,,,ケイシーエス,0
2247,8140005021623,登記記録の閉鎖等,0,2024-06-06,2024-06-03,特定非営利活動法人まーぶるキッズ,,その他の設立登記法人,兵庫県,加西市,北条町古坂１０７２－１４加西市健康福祉会館内,,28,220,6752303,,,2024-06-03,清算の結了等,,,2015-10-05,1,,,,,マーブルキッズ,0
2254,8160005000947,登記記録の閉鎖等,0,2024-06-06,2024-05-31,法藏寺,,その他の設立登記法人,滋賀県,大津市,石山内畑町１３５番地,,25,201,5200869,,,2024-05-31,清算の結了等,,,2015-10-05,1,,,,,ホウゾウジ,0
2260,8180001023702,登記記録の閉鎖等,0,2024-06-06,2024-06-03,昭栄食品工業株式会社,,株式会社,愛知県,名古屋市天白区,古川町７１番地,,23,116,4680046,,,2024-06-03,清算の結了等,,,2015-10-05,1,,,,,ショウエイショクヒンコウギョウ,0
2286,8230002013531,登記記録の閉鎖等,0,2024-06-06,2024-06-04,有限会社矢方測量,,有限会社,富山県,氷見市,窪６５４番地１,,16,205,9350024,,,2024-06-04,清算の結了等,,,2015-10-05,1,,,,,ヤノホウソクリョウ,0
2334,8380002019076,登記記録の閉鎖等,0,2024-06-06,2024-06-03,有限会社ぴゅあ,,有限会社,福島県,東白川郡棚倉町,大字流字豊前５７番地,,07,481,9635663,,,2024-06-03,合併による解散等,9380001010571,令和６年６月１日福島県東白川郡棚倉町大字流字桜下２番地４株式会社コトブキ家商事（9380001010571）に合併し解散,2015-10-05,1,,,,,ピュア,0
2349,8460001004624,登記記録の閉鎖等,0,2024-06-06,2024-06-03,株式会社さくらファーム,,株式会社,北海道,厚岸郡浜中町,浜中東２線４２番地２,,01,663,0881485,,,2024-06-03,清算の結了等,,,2015-10-05,1,,,,,サクラファーム,0
2351,8480001008838,登記記録の閉鎖等,0,2024-06-06,2024-06-03,株式会社ＢＬＵＥＣＲＯＷＳ,,株式会社,徳島県,徳島市,川内町鈴江西７２番地２サンシャインハイツ３０２号室,,36,201,7710122,,,2024-06-03,清算の結了等,,,2015-10-05,1,,,,,ブルークローズ,0
2353,8480005005303,登記記録の閉鎖等,0,2024-06-06,2024-06-03,貞光食品事業協同組合,,その他の設立登記法人,徳島県,美馬郡つるぎ町,貞光字小山北１６８番２,,36,468,7794104,,,2024-06-03,清算の結了等,,,2015-10-05,1,,,,,,0
2362,9000020038318,登記記録の閉鎖等,0,2024-06-06,2019-03-31,紫波、稗貫衛生処理組合,,地方公共団体,岩手県,紫波郡紫波町,南日詰字小路口９２－１,,03,321,0283317,,,2019-03-31,その他の清算の結了等,,,2015-10-05,1,"Shiwa, Hienuki Sanitary Disposal Association",Iwate,"92-1,Syoujiguchi,Minamihizume, Shiwa cho",,シワヒエヌキエイセイショリクミアイ,0
2364,9010001133054,登記記録の閉鎖等,0,2024-06-06,2024-05-27,株式会社ＷＬデザインラボ,,株式会社,東京都,中央区,銀座６丁目６番１号,,13,102,1040061,,,2024-05-27,清算の結了等,,,2015-10-05,1,,,,,ダブルエルデザインラボ,0
2405,9010901004957,登記記録の閉鎖等,0,2024-06-06,2024-05-31,三友技研株式会社,,株式会社,東京都,世田谷区,砧４丁目１０番１０号,,13,112,1570073,,,2024-05-31,清算の結了等,,,2015-10-05,1,,,,,サンユウギケン,0
2408,9011001051139,登記記録の閉鎖等,0,2024-06-06,2024-06-03,株式会社東美,,株式会社,東京都,渋谷区,円山町２３番９号,,13,113,1500044,,,2024-06-03,清算の結了等,,,2015-10-05,1,,,,,,0
2442,9013105001481,登記記録の閉鎖等,0,2024-06-06,2024-06-04,一般財団法人東京駐留軍離職者対策センター,,その他の設立登記法人,東京都,福生市,牛浜１４０番地,,13,218,1970024,,,2024-06-04,清算の結了等,,,2015-10-05,1,,,,,トウキョウチュウリュウグンリショクシャタイサクセンター,0
2446,9020001042469,登記記録の閉鎖等,0,2024-06-06,2024-05-31,三和支持物構造株式会社,,株式会社,神奈川県,横浜市中区,太田町２丁目２１番２新関内ビル４０２号,,14,104,2310011,,,2024-05-31,清算の結了等,,,2015-10-05,1,,,,,サンワシジブツコウゾウ,0
2454,9020002074412,登記記録の閉鎖等,0,2024-06-06,2024-05-29,有限会社伊藤電気大和工場,,有限会社,神奈川県,横浜市泉区,中田北３丁目３３番３７号,,14,116,2450012,,,2024-05-29,清算の結了等,,,2015-10-05,1,,,,,イトウデンキヤマトコウジョウ,0
2456,9020003006356,登記記録の閉鎖等,0,2024-06-06,2024-05-31,合同会社パワートライブ,,合同会社,神奈川県,川崎市川崎区,東田町１１番地２７,,14,131,2100005,,,2024-05-31,清算の結了等,,,2015-10-05,1,,,,,パワートライブ,0
2469,9030001059842,登記記録の閉鎖等,0,2024-06-06,2024-06-03,株式会社Ｓ’ｃｏｍ,,株式会社,埼玉県,川越市,大字大中居３９０番地３,,11,201,3500021,,,2024-06-03,合併による解散等,5030002079827,令和６年６月１日埼玉県川越市大字大中居３９０番地３株式会社ＳＯＣ（5030002079827）に合併し解散,2015-10-05,1,,,,,エスコム,0
2472,9030001106371,登記記録の閉鎖等,0,2024-06-06,2024-05-30,株式会社翅,,株式会社,埼玉県,本庄市,南１丁目３番１０号コーポラスコバヤシ１－Ｄ,,11,211,3670048,,,2024-05-30,清算の結了等,,,2015-10-05,1,,,,,ツバサ,0
2483,9040001093171,登記記録の閉鎖等,0,2024-06-06,2024-05-29,株式会社さかお代行,,株式会社,千葉県,銚子市,三軒町１３番地の４,,12,202,2880045,,,2024-05-29,清算の結了等,,,2015-12-14,1,,,,,サカオダイコウ,0
2492,9050002017475,登記記録の閉鎖等,0,2024-06-06,2024-05-23,有限会社ミサキ精機,,有限会社,茨城県,結城郡八千代町,大字佐野２００番地,,08,521,3003505,,,2024-05-23,清算の結了等,,,2015-10-05,1,,,,,ミサキセイキ,0
2500,9070002020519,登記記録の閉鎖等,0,2024-06-06,2024-05-31,有限会社原島管工,,有限会社,群馬県,伊勢崎市,境百々東１６番地５,,10,204,3700116,,,2024-05-31,清算の結了等,,,2015-10-05,1,,,,,ハラシマカンコウ,0
2508,9100001026067,登記記録の閉鎖等,0,2024-06-06,2024-05-09,株式会社Ｃｏｕｐｅ,,株式会社,長野県,安曇野市,穂高２７４５番地２,,20,220,3998303,,,2024-05-09,清算の結了等,,,2015-10-05,1,,,,,クウゥプ,0
2512,9120001117789,登記記録の閉鎖等,0,2024-06-06,2024-06-04,株式会社タモツ,,株式会社,大阪府,大阪市西区,新町４丁目１７番２２－８０１号,,27,106,5500013,,,2024-06-04,清算の結了等,,,2015-10-05,1,,,,,タモツ,0
2517,9120002033119,登記記録の閉鎖等,0,2024-06-06,2024-06-04,有限会社森本商店,,有限会社,大阪府,大阪市北区,天満２丁目６番３－４０１号,,27,127,5300043,,,2024-06-04,清算の結了等,,,2015-10-05,1,,,,,モリモトショウテン,0
2522,9120003012963,登記記録の閉鎖等,0,2024-06-06,2024-06-03,合同会社ＵＳＨ,,合同会社,大阪府,大阪市旭区,新森１丁目４－３５水交社６０３号室,,27,117,5350022,,,2024-06-03,清算の結了等,,,2017-06-27,1,,,,,,0
2528,9120101028011,登記記録の閉鎖等,0,2024-06-06,2024-06-03,株式会社ディーケートイズ,,株式会社,大阪府,堺市美原区,大保５２番地３,,27,147,5870001,,,2024-06-03,清算の結了等,,,2015-10-05,1,,,,,ディーケートイズ,0
2537,9130002017252,登記記録の閉鎖等,0,2024-06-06,2024-05-31,有限会社藤居工務,,有限会社,京都府,京都市中京区,西ノ京北壷井町４６番地,,26,104,6040000,,,2024-05-31,清算の結了等,,,2015-10-05,1,,,,,フジイコウム,0
2541,9140002016947,登記記録の閉鎖等,0,2024-06-06,2024-06-03,有限会社タウン,,有限会社,兵庫県,神戸市中央区,神若通２丁目２番６号,,28,110,6510067,,,2024-06-03,合併による解散等,9140001008334,令和６年６月１日神戸市中央区神若通二丁目２番６号株式会社神東社（9140001008334）に合併し解散,2015-10-05,1,,,,,タウン,0
2544,9180001007415,登記記録の閉鎖等,0,2024-06-06,2024-05-31,丸兼商事株式会社,,株式会社,愛知県,名古屋市中区,新栄１丁目２６番１１号,,23,106,4600007,,,2024-05-31,清算の結了等,,,2015-10-05,1,,,,,マルカネショウジ,0
2552,9180005019167,登記記録の閉鎖等,0,2024-06-06,2024-05-31,一般社団法人日本アトリエリスタ協会,,その他の設立登記法人,愛知県,名古屋市天白区,植田南１丁目３１０番地（５０５号室）,,23,116,4680053,,,2024-05-31,清算の結了等,,,2021-03-02,1,,,,,ニホンアトリエリスタキョウカイ,0
2557,9190002010144,登記記録の閉鎖等,0,2024-06-06,2024-06-03,有限会社パール商事,,有限会社,三重県,伊勢市,神社港３６８番地２,,24,203,5160004,,,2024-06-03,清算の結了等,,,2015-10-05,1,,,,,パールショウジ,0
2590,9290002041096,登記記録の閉鎖等,0,2024-06-06,2024-05-13,有限会社ひまわり,,有限会社,福岡県,春日市,大谷２丁目７７番地２,,40,218,8160831,,,2024-05-13,合併による解散等,6290002042642,令和６年５月１０日福岡県大野城市白木原一丁目１０番１５号ヴィラフェリシア１Ｆ株式会社あらき（6290002042642）に合併し解散,2015-10-05,1,,,,,ヒマワリ,0
2591,9290002054206,登記記録の閉鎖等,0,2024-06-06,2024-05-09,有限会社ワイケイティセンター,,有限会社,福岡県,みやま市,瀬高町太神１３３４番地の１,,40,229,8350013,,,2024-05-09,清算の結了等,,,2015-10-05,1,,,,,ワイケイティセンター,0
2629,9430003007651,登記記録の閉鎖等,0,2024-06-06,2024-06-03,合同会社ＦＡＩＴＨ,,合同会社,北海道,札幌市南区,澄川五条１３丁目３番２２号,,01,106,0050005,,,2024-06-03,合併による解散等,5430002029717,令和６年６月１日札幌市南区澄川五条十三丁目３番２２号株式会社フェイス（5430002029717）に合併し解散,2016-06-13,1,,,,,フェイス,0
2630,9430003008501,登記記録の閉鎖等,0,2024-06-06,2024-05-31,合同会社ウェイクアップ,,合同会社,北海道,札幌市清田区,北野三条４丁目１３番２０号,,01,110,0040863,,,2024-05-31,清算の結了等,,,2017-06-19,1,,,,,ウェイクアップ,0
2649,9700150047646,登記記録の閉鎖等,0,2024-06-06,2023-10-31,飛鳥たかな生産組合,,その他,三重県,熊野市,飛鳥町佐渡２６６－１,,24,212,5194564,,,2023-10-31,その他の清算の結了等,,,2015-10-09,1,,,,,アスカタカナセイサンクミアイ,0
