sequenceNumber,corporateNumber,process,correct,updateDate,changeDate,name,nameImageId,kind,prefectureName,cityName,streetNumber,addressImageId,prefectureCode,cityCode,postCode,addressOutside,addressOutsideImageId,closeDate,closeCause,successorCorporateNumber,changeCause,assignmentDate,latest,enName,enPrefectureName,enCityName,enAddressOutside,furigana,hihyoji
3,1010001221444,新規,0,2021-10-05,2021-10-05,株式会社ＵＮＴＲＡＣＥ,,株式会社,東京都,中央区,新川１丁目８番４号アムール新川３０２号,,13,102,1040033,,,,,,,2021-10-05,1,,,,,アントレース,0
4,1010001221601,新規,0,2021-10-05,2021-10-05,株式会社ｍａｑｉｗａｙ,,株式会社,東京都,文京区,小石川４丁目９番５－３０３号,,13,105,1120002,,,,,,,2021-10-05,1,,,,,マキウェイ,0
8,1010401162957,新規,0,2021-10-05,2021-10-05,日太数位科技株式会社,,株式会社,東京都,港区,新橋６丁目８番１－４０１号,,13,103,1050004,,,,,,,2021-10-05,1,,,,,ヒタイスウイカギ,0
12,1010501047901,新規,0,2021-10-05,2021-10-05,株式会社ヤザワ環境エンジニアリング,,株式会社,東京都,台東区,上野１丁目１９番１０号上野広小路会館８Ｆ,,13,106,1100005,,,,,,,2021-10-05,1,,,,,ヤザワカンキョウエンジニアリング,0
21,1010901049539,新規,0,2021-10-05,2021-10-05,株式会社ａａｔｈ,,株式会社,東京都,世田谷区,喜多見７丁目２６番１７号サンハイツコーヂＮＯ２－３０１,,13,112,1570067,,,,,,,2021-10-05,1,,,,,アートゥ,0
22,1010901049547,新規,0,2021-10-05,2021-10-05,株式会社Ｓｗｅａｔ　Ｅｑｕｉｔｙ　Ｐａｒｔｎｅｒｓ,,株式会社,東京都,世田谷区,世田谷１丁目２２－１０コリンズ１９－２０３,,13,112,1540017,,,,,,,2021-10-05,1,,,,,スウェットエクイティパートナーズ,0
28,1011001143190,新規,0,2021-10-05,2021-10-05,ＵＮＩＣＯＲＮ　ＳＱＵＡＲＥ株式会社,,株式会社,東京都,渋谷区,広尾３丁目９番２０号ＨＩＲＯＯ９－２０・２０１号,,13,113,1500012,,,,,,,2021-10-05,1,,,,,ユニコーンスクエア,0
29,1011001143224,新規,0,2021-10-05,2021-10-05,応神株式会社,,株式会社,東京都,渋谷区,宇田川町３６番１９号５０２,,13,113,1500042,,,,,,,2021-10-05,1,,,,,オウジン,0
31,1011003013490,新規,0,2021-10-05,2021-10-05,合同会社エスリータ,,合同会社,東京都,目黒区,八雲２丁目２１番２－１０８号,,13,110,1520023,,,,,,,2021-10-05,1,,,,,エスリータ,0
32,1011003013499,新規,0,2021-10-05,2021-10-05,合同会社ワタル,,合同会社,東京都,渋谷区,恵比寿２丁目２番１１菱和パレス広尾６０３号室,,13,113,1500013,,,,,,,2021-10-05,1,,,,,ワタル,0
36,1011101096215,新規,0,2021-10-05,2021-10-05,株式会社ＥＬ,,株式会社,東京都,新宿区,歌舞伎町２丁目３０－１４三経８２ビル２Ｆ,,13,104,1600021,,,,,,,2021-10-05,1,,,,,エル,0
37,1011101096454,新規,0,2021-10-05,2021-10-05,ＬＡ・ＢＨＥＮ＆ＣＯ株式会社,,株式会社,東京都,新宿区,新宿１丁目３６番２号新宿第七葉山ビル３階,,13,104,1600022,,,,,,,2021-10-05,1,,,,,ラベンアンドコー,0
38,1011101096462,新規,0,2021-10-05,2021-10-05,株式会社バイモスター,,株式会社,東京都,新宿区,四谷２丁目２番地１,,13,104,1600004,,,,,,,2021-10-05,1,,,,,バイモスター,0
42,1011201023283,新規,0,2021-10-05,2021-10-05,株式会社ｆａｉｒｙｊｕｍｐ,,株式会社,東京都,中野区,東中野４丁目９番１号第一元太ビルＢ１,,13,114,1640003,,,,,,,2021-10-05,1,,,,,フェアリージャンプ,0
50,1011501027364,新規,0,2021-10-05,2021-10-05,株式会社コーデックス動画,,株式会社,東京都,荒川区,荒川６丁目２８番１―５０４号町屋サニーコート,,13,118,1160002,,,,,,,2021-10-05,1,,,,,コーデックスドウガ,0
56,1011701024748,新規,0,2021-10-05,2021-10-05,Ａｔｅｌｉｅｒ株式会社,,株式会社,東京都,江戸川区,南篠崎町３丁目１１番２－９１５号スカイクレスト,,13,123,1330065,,,,,,,2021-10-05,1,,,,,アトリエ,0
58,1011801039745,新規,0,2021-10-05,2021-10-05,株式会社コウノトリ,,株式会社,東京都,足立区,竹の塚３丁目１０番１２号,,13,121,1210813,,,,,,,2021-10-05,1,,,,,コウノトリ,0
59,1011801039761,新規,0,2021-10-05,2021-10-05,ＦＭサポート株式会社,,株式会社,東京都,足立区,六町１丁目１番２－１０１号,,13,121,1210073,,,,,,,2021-10-05,1,,,,,エフエムサポート,0
61,1011803004805,新規,0,2021-10-05,2021-10-05,合同会社角,,合同会社,東京都,足立区,綾瀬２丁目２番２号,,13,121,1200005,,,,,,,2021-10-05,1,,,,,クラベ,0
63,1012401038352,新規,0,2021-10-05,2021-10-05,ＭＯＳＥＮ商業開発株式会社,,株式会社,東京都,武蔵野市,西久保３丁目２番１号アルベルゴ武蔵野７０２号室,,13,203,1800013,,,,,,,2021-10-05,1,,,,,マオセンショウギョウカイハツ,0
65,1012701016693,新規,0,2021-10-05,2021-10-05,株式会社キタムラ美創,,株式会社,東京都,小平市,津田町２丁目２５番１０号,,13,211,1870025,,,,,,,2021-10-05,1,,,,,キタムラビソウ,0
66,1012703002320,新規,0,2021-10-05,2021-10-05,合同会社ＳＳＥ美装,,合同会社,東京都,小平市,上水新町２丁目１２番３５号,,13,211,1870023,,,,,,,2021-10-05,1,,,,,エスエスイービソウ,0
67,1012801021131,新規,0,2021-10-05,2021-10-05,株式会社ＣＡＴＨＡＮＤ,,株式会社,東京都,立川市,幸町４丁目４１番地の３ハイム幸２０１,,13,202,1900002,,,,,,,2021-10-05,1,,,,,キャサンド,0
72,1020001143282,新規,0,2021-10-05,2021-10-05,ＷＥＬＬ－ＪＡＰＡＮ株式会社,,株式会社,神奈川県,横浜市港北区,日吉本町４丁目１４番１－２２３号,,14,109,2230062,,,,,,,2021-10-05,1,,,,,ウェルジャパン,0
73,1020001143316,新規,0,2021-10-05,2021-10-05,株式会社ＳＩＲＩＳ,,株式会社,神奈川県,横浜市中区,本郷町１丁目６番地ラポール本牧３０１,,14,104,2310843,,,,,,,2021-10-05,1,,,,,サイリス,0
75,1020003020570,新規,0,2021-10-05,2021-10-05,合同会社ゴールドマウント,,合同会社,神奈川県,横浜市金沢区,並木３丁目６番６－１０２号,,14,108,2360005,,,,,,,2021-10-05,1,,,,,ゴールドマウント,0
76,1021001074138,新規,0,2021-10-05,2021-10-05,株式会社ブラウニー,,株式会社,神奈川県,三浦郡葉山町,堀内１００５番地の１７,,14,301,2400112,,,,,,,2021-10-05,1,,,,,ブラウニー,0
77,1021001074146,新規,0,2021-10-05,2021-10-05,株式会社サトウ工業,,株式会社,神奈川県,足柄下郡湯河原町,鍛冶屋６０番地の１,,14,384,2590313,,,,,,,2021-10-05,1,,,,,サトウコウギョウ,0
82,1021003010966,新規,0,2021-10-05,2021-10-05,合同会社安心わが家,,合同会社,神奈川県,小田原市,栄町２丁目１３番１４号,,14,206,2500011,,,,,,,2021-10-05,1,,,,,アンシンワガヤ,0
83,1021003010974,新規,0,2021-10-05,2021-10-05,合同会社ＢＡＰＥＢＡＬＬ,,合同会社,神奈川県,横須賀市,長井６丁目２５－２４,,14,201,2380316,,,,,,,2021-10-05,1,,,,,ベイプボール,0
86,1021005012309,新規,0,2021-10-05,2021-10-05,セキュレアガーデン淵野辺団地管理組合法人,,その他の設立登記法人,神奈川県,相模原市中央区,淵野辺５丁目１番６０号,,14,152,2520206,,,,,,,2021-10-05,1,,,,,,0
96,1030001144643,新規,0,2021-10-05,2021-10-05,株式会社エレノ,,株式会社,埼玉県,さいたま市南区,太田窪４丁目１５番１０号２階,,11,108,3360015,,,,,,,2021-10-05,1,,,,,エレノ,0
97,1030001144668,新規,0,2021-10-05,2021-10-05,株式会社加藤工機,,株式会社,埼玉県,戸田市,早瀬１丁目１番６号,,11,224,3350036,,,,,,,2021-10-05,1,,,,,カトウコウキ,0
109,1040001120387,新規,0,2021-10-05,2021-10-05,株式会社ＳＴ企画,,株式会社,千葉県,千葉市中央区,赤井町７３９番地６９,,12,101,2600804,,,,,,,2021-10-05,1,,,,,エスティーキカク,0
110,1040001120412,新規,0,2021-10-05,2021-10-05,かねと水産株式会社,,株式会社,千葉県,大網白里市,四天木乙２５１６番地,,12,239,2993203,,,,,,,2021-10-05,1,,,,,カネトスイサン,0
111,1040001120445,新規,0,2021-10-05,2021-10-05,株式会社司総業,,株式会社,千葉県,市原市,五井西６丁目１番８,,12,219,2900038,,,,,,,2021-10-05,1,,,,,ツカサソウギョウ,0
112,1040001120461,新規,0,2021-10-05,2021-10-05,株式会社Ｗ．サポート,,株式会社,千葉県,松戸市,松戸４９４,,12,207,2710092,,,,,,,2021-10-05,1,,,,,ダブルサポート,0
116,1050001049915,新規,0,2021-10-05,2021-10-05,株式会社Ａ４Ｕ,,株式会社,茨城県,水戸市,吉沢町３５４番地３０,,08,201,3100845,,,,,,,2021-10-05,1,,,,,エーフォーユー,0
124,1070001038511,新規,0,2021-10-05,2021-10-05,株式会社Ｙ’ｓ　ｓｔｙｌｅ,,株式会社,群馬県,高崎市,上中居町１５７３番地４,,10,202,3700851,,,,,,,2021-10-05,1,,,,,ワイズスタイル,0
128,1080001024469,新規,0,2021-10-05,2021-10-05,株式会社Ｓｕｃｃｅｓｓ,,株式会社,静岡県,静岡市葵区,両替町２丁目４番地の５カリオビル２Ｆ,,22,101,4200032,,,,,,,2021-10-05,1,,,,,サクセス,0
131,1080101022802,新規,0,2021-10-05,2021-10-05,株式会社尽,,株式会社,静岡県,沼津市,岡宮１３７８番地の１７,,22,203,4100011,,,,,,,2021-10-05,1,,,,,ジン,0
132,1080101022827,新規,0,2021-10-05,2021-10-05,株式会社ＦＰＡｃｔｉｏｎ,,株式会社,静岡県,三島市,南二日町１番２号エンブルスクエア三島５０３,,22,206,4110832,,,,,,,2021-10-05,1,,,,,エフピーアクション,0
134,1080103002430,新規,0,2021-10-05,2021-10-05,合同会社うさぎ企画,,合同会社,静岡県,駿東郡長泉町,下土狩１４０８番地の６ファミールＳ２０２号,,22,342,4110943,,,,,,,2021-10-05,1,,,,,ウサギキカク,0
139,1080401025380,新規,0,2021-10-05,2021-10-05,株式会社ＳＥＥＤ’Ｓ,,株式会社,静岡県,浜松市西区,舘山寺町６０８番地の１,,22,133,4311209,,,,,,,2021-10-05,1,,,,,シーズ,0
144,1100001034688,新規,0,2021-10-05,2021-10-05,株式会社Ｌ＆Ｇオンライン,,株式会社,長野県,長野市,松代町岩野６０５番地,,20,201,3811234,,,,,,,2021-10-05,1,,,,,エルアンドジーオンライン,0
149,1110003004589,新規,0,2021-10-05,2021-10-05,合同会社ヨシタニ地産研究所,,合同会社,新潟県,南魚沼市,姥島新田６３６,,15,226,9496425,,,,,,,2021-10-05,1,,,,,ヨシタニチサンケンキュウジョ,0
162,1120001240854,新規,0,2021-10-05,2021-10-05,株式会社岡田工業,,株式会社,大阪府,門真市,東田町１６番１９号,,27,223,5710034,,,,,,,2021-10-05,1,,,,,オカダコウギョウ,0
163,1120001240879,新規,0,2021-10-05,2021-10-05,株式会社エフ・クリエイト,,株式会社,大阪府,大阪市淀川区,西中島７丁目５番２５号,,27,123,5320011,,,,,,,2021-10-05,1,,,,,エフクリエイト,0
170,1120005022530,新規,0,2021-10-05,2021-10-05,一般社団法人ＭＤ,,その他の設立登記法人,大阪府,大阪市西区,靱本町１丁目４番１７号,,27,106,5500004,,,,,,,2021-10-05,1,,,,,エムディー,0
177,1120901044990,新規,0,2021-10-05,2021-10-05,Ｋ’ｓ．ｃｏｍ株式会社,,株式会社,大阪府,吹田市,千里丘上３４番１１６号,,27,205,5650811,,,,,,,2021-10-05,1,,,,,ケーズコム,0
178,1120903003854,新規,0,2021-10-05,2021-10-05,合同会社スローライフ,,合同会社,大阪府,豊中市,刀根山６丁目１１番１－９０８号,,27,203,5600045,,,,,,,2021-10-05,1,,,,,スローライフ,0
179,1122003002191,新規,0,2021-10-05,2021-10-05,合同会社笑顔工房,,合同会社,大阪府,東大阪市,吉田３丁目２－４５エクサーブ西村１０５号,,27,227,5780924,,,,,,,2021-10-05,1,,,,,エガオコウボウ,0
191,1140001123248,新規,0,2021-10-05,2021-10-05,ダーウィン株式会社,,株式会社,兵庫県,明石市,大久保町大窪３２７５番地,,28,203,6740051,,,,,,,2021-10-05,1,,,,,ダーウィン,0
192,1140001123330,新規,0,2021-10-05,2021-10-05,株式会社はり屋ｃｏｍｐａｎｙ,,株式会社,兵庫県,姫路市,広畑区小松町２丁目６番地１３,,28,201,6711152,,,,,,,2021-10-05,1,,,,,ハリヤカンパニー,0
196,1150001024965,新規,0,2021-10-05,2021-10-05,自然環境教育機構株式会社,,株式会社,奈良県,奈良市,古市町７４番地２０,,29,201,6308424,,,,,,,2021-10-05,1,,,,,シゼンカンキョウキョウイクキコウ,0
198,1160001023693,新規,0,2021-10-05,2021-10-05,株式会社結,,株式会社,滋賀県,守山市,洲本町１４４９番地の１,,25,207,5240103,,,,,,,2021-10-05,1,,,,,ムスビ,0
199,1160003002398,新規,0,2021-10-05,2021-10-05,ＦＪアメニティ合同会社,,合同会社,滋賀県,守山市,岡町２６０番地３－１号,,25,207,5240032,,,,,,,2021-10-05,1,,,,,エフジェイアメニティ,0
204,1180001148035,新規,0,2021-10-05,2021-10-05,株式会社コーシン,,株式会社,愛知県,半田市,花園町４丁目２番地の６,,23,205,4750833,,,,,,,2021-10-05,1,,,,,コーシン,0
205,1180001148101,新規,0,2021-10-05,2021-10-05,アーチトラスト株式会社,,株式会社,愛知県,名古屋市中区,丸の内１丁目８番２号－２,,23,106,4600002,,,,,,,2021-10-05,1,,,,,アーチトラスト,0
206,1180001148159,新規,0,2021-10-05,2021-10-05,株式会社前田商店,,株式会社,愛知県,清須市,西枇杷島町替地２５番地６ラドーニ西枇杷島風の館９０８号,,23,233,4520067,,,,,,,2021-10-05,1,,,,,マエダショウテン,0
207,1180001148175,新規,0,2021-10-05,2021-10-05,ＡｌｉｇｎＴｏｐ株式会社,,株式会社,愛知県,名古屋市東区,代官町１９番５号,,23,102,4610002,,,,,,,2021-10-05,1,,,,,アライントップ,0
209,1180003023046,新規,0,2021-10-05,2021-10-05,西脇商店合同会社,,合同会社,愛知県,名古屋市北区,萩野通１丁目１０番地,,23,103,4620026,,,,,,,2021-10-05,1,,,,,ニシワキショウテン,0
211,1180301035445,新規,0,2021-10-05,2021-10-05,株式会社セカンド,,株式会社,愛知県,安城市,三河安城南町１丁目７番地９サンフィールド三河安城４０５,,23,212,4460058,,,,,,,2021-10-05,1,,,,,セカンド,0
212,1180301035453,新規,0,2021-10-05,2021-10-05,株式会社ヨコエプランニングス,,株式会社,愛知県,豊田市,明和町５丁目１番地４,,23,211,4710825,,,,,,,2021-10-05,1,,,,,ヨコエプランニングス,0
213,1180301035461,新規,0,2021-10-05,2021-10-05,株式会社すずや,,株式会社,愛知県,岡崎市,庄司田１丁目３番地１６,,23,202,4440821,,,,,,,2021-10-05,1,,,,,スズヤ,0
219,1190003003781,新規,0,2021-10-05,2021-10-05,合同会社Ｗｏｒｌｄ’ｓ　Ｅｄｇｅ,,合同会社,三重県,伊勢市,小俣町本町７３０,,24,203,5190505,,,,,,,2021-10-05,1,,,,,ワールズエッジ,0
220,1200001039223,新規,0,2021-10-05,2021-10-05,株式会社花輪建材,,株式会社,岐阜県,多治見市,幸町５丁目１３番地,,21,204,5070077,,,,,,,2021-10-05,1,,,,,ハナワケンザイ,0
221,1200001039248,新規,0,2021-10-05,2021-10-05,株式会社山誠,,株式会社,岐阜県,岐阜市,本荘中ノ町２丁目１５番地１,,21,201,5008364,,,,,,,2021-10-05,1,,,,,ヤマセイ,0
222,1200001039256,新規,0,2021-10-05,2021-10-05,株式会社ＨＯＮＺＩＮ,,株式会社,岐阜県,恵那市,長島町正家１０６７番地２１３,,21,210,5097203,,,,,,,2021-10-05,1,,,,,ホンジン,0
225,1220001024454,新規,0,2021-10-05,2021-10-05,株式会社ナカノグループ,,株式会社,石川県,白山市,竹松町３１０７番地,,17,210,9240021,,,,,,,2021-10-05,1,,,,,ナカノグループ,0
226,1220001024462,新規,0,2021-10-05,2021-10-05,オルトル株式会社,,株式会社,石川県,金沢市,暁町２１番１５号,,17,201,9200926,,,,,,,2021-10-05,1,,,,,オルトル,0
230,1240001058681,新規,0,2021-10-05,2021-10-05,株式会社２ｎｄ　Ｃｒｅａｔｅ,,株式会社,広島県,福山市,引野町４００１番地,,34,207,7210942,,,,,,,2021-10-05,1,,,,,セカンドクリエイト,0
231,1240001058698,新規,0,2021-10-05,2021-10-05,株式会社奥野工業,,株式会社,広島県,福山市,神辺町字西中条１４６６番地１,,34,207,7202103,,,,,,,2021-10-05,1,,,,,オクノコウギョウ,0
232,1240001058731,新規,0,2021-10-05,2021-10-05,株式会社大石電工,,株式会社,広島県,廿日市市,大野９７９番地２７,,34,213,7390488,,,,,,,2021-10-05,1,,,,,オオイシデンコウ,0
233,1240003005302,新規,0,2021-10-05,2021-10-05,合同会社山口事務所,,合同会社,広島県,広島市中区,吉島町９番７－２０３号,,34,101,7300821,,,,,,,2021-10-05,1,,,,,ヤマグチジムショ,0
234,1240005015282,新規,0,2021-10-05,2021-10-05,社会保険労務士法人いとう労務管理事務所,,その他の設立登記法人,広島県,広島市中区,袋町５番２８号,,34,101,7300036,,,,,,,2021-10-05,1,,,,,イトウロウムカンリジムショ,0
235,1250001019179,新規,0,2021-10-05,2021-10-05,徳田造園株式会社,00124436,株式会社,山口県,周南市,大字徳山４６４２番地の１,,35,215,7450851,,,,,,,2021-10-05,1,,,,,トクダゾウエン,0
237,1260001036017,新規,0,2021-10-05,2021-10-05,塩津建材株式会社,,株式会社,岡山県,倉敷市,亀山６０１番地６,,33,202,7100024,,,,,,,2021-10-05,1,,,,,シオツケンザイ,0
238,1260001036025,新規,0,2021-10-05,2021-10-05,株式会社ｅｃｏｈ,,株式会社,岡山県,岡山市中区,円山１４６番地１,,33,102,7038271,,,,,,,2021-10-05,1,,,,,エコー,0
239,1260001036033,新規,0,2021-10-05,2021-10-05,株式会社ＥＭＯＫＥＮ,,株式会社,岡山県,玉野市,宇野１丁目３５番１５号,,33,204,7060011,,,,,,,2021-10-05,1,,,,,エモケン,0
242,1260003003691,新規,0,2021-10-05,2021-10-05,合同会社八拾九,,合同会社,岡山県,総社市,秦２４６１,,33,208,7191142,,,,,,,2021-10-05,1,,,,,ハチジュウク,0
243,1270003001356,新規,0,2021-10-05,2021-10-05,合同会社ワンカラット,,合同会社,鳥取県,鳥取市,吉方温泉１丁目５６１番地２アルファスマート吉方温泉７０１号,,31,201,6800841,,,,,,,2021-10-05,1,,,,,ワンカラット,0
244,1270005005479,新規,0,2021-10-05,2021-10-05,ＮＰＯ法人相談支援事業所てんとう虫,,その他の設立登記法人,鳥取県,米子市,博労町４丁目３５番地,,31,202,6830052,,,,,,,2021-10-05,1,,,,,ソウダンシエンジギョウショテントウムシ,0
245,1280003001537,新規,0,2021-10-05,2021-10-05,合同会社ここみ,,合同会社,島根県,出雲市,今市町９０１番地,,32,203,6930001,,,,,,,2021-10-05,1,,,,,ココミ,0
249,1290001094838,新規,0,2021-10-05,2021-10-05,ＨＭＫフードサービス株式会社,,株式会社,福岡県,福岡市博多区,井相田１丁目１３番２８号,,40,132,8120881,,,,,,,2021-10-05,1,,,,,エイチエムケイフードサービス,0
250,1290001094854,新規,0,2021-10-05,2021-10-05,株式会社結総合建設,,株式会社,福岡県,福岡市東区,香住ヶ丘２丁目２２番２９号ベストプラザ香住ケ丘１階,,40,131,8130003,,,,,,,2021-10-05,1,,,,,ムスビソウゴウケンセツ,0
251,1290001094879,新規,0,2021-10-05,2021-10-05,株式会社ＳＯＲＡＳＵＮ,,株式会社,福岡県,福岡市東区,原田１丁目２０番８号,,40,131,8120063,,,,,,,2021-10-05,1,,,,,ソラサン,0
252,1290001094895,新規,0,2021-10-05,2021-10-05,株式会社ファスト,,株式会社,福岡県,太宰府市,向佐野４丁目８番２９号,,40,221,8180135,,,,,,,2021-10-05,1,,,,,ファスト,0
257,1290003011675,新規,0,2021-10-05,2021-10-05,Ｌａｆｌｏｒｅ合同会社,,合同会社,福岡県,福岡市東区,千早２丁目２７番８－６０１号アプローズ千早弐番館,,40,131,8130044,,,,,,,2021-10-05,1,,,,,ラフロール,0
259,1290801027872,新規,0,2021-10-05,2021-10-05,まごの手サービス株式会社,,株式会社,福岡県,北九州市八幡西区,若葉２丁目１０番２９号,,40,109,8060066,,,,,,,2021-10-05,1,,,,,マゴノテサービス,0
260,1290801027880,新規,0,2021-10-05,2021-10-05,株式会社Ｅｉｓｈｉｎ,,株式会社,福岡県,北九州市八幡西区,熊西１丁目１５番１４号,,40,109,8060031,,,,,,,2021-10-05,1,,,,,エイシン,0
261,1290803003946,新規,0,2021-10-05,2021-10-05,合同会社城戸商店,,合同会社,福岡県,北九州市戸畑区,沖台１丁目１１番２０号,,40,105,8040064,,,,,,,2021-10-05,1,,,,,キドショウテン,0
263,1310001017507,新規,0,2021-10-05,2021-10-05,株式会社Ｗｉｌｌ,,株式会社,長崎県,長崎市,小峰町７番５－１２０１号,,42,201,8528125,,,,,,,2021-10-05,1,,,,,ウィル,0
265,1310005008551,新規,0,2021-10-05,2021-10-05,一般社団法人長崎県ペストコントロール協会,,その他の設立登記法人,長崎県,長崎市,清水町５番７１号,,42,201,8528041,,,,,,,2021-10-05,1,,,,,ナガサキケンペストコントロールキョウカイ,0
267,1320001018636,新規,0,2021-10-05,2021-10-05,株式会社ゴトウ,,株式会社,大分県,大分市,大字森町１０１０番地の１,,44,201,8700127,,,,,,,2021-10-05,1,,,,,ゴトウ,0
269,1330001029038,新規,0,2021-10-05,2021-10-05,株式会社福和鉄筋,,株式会社,熊本県,宇土市,松山町１６４３番地３,,43,211,8690416,,,,,,,2021-10-05,1,,,,,フクワテッキン,0
271,1330003009062,新規,0,2021-10-05,2021-10-05,Ａ２合同会社,,合同会社,熊本県,熊本市北区,大窪３丁目８番５－２号,,43,105,8600083,,,,,,,2021-10-05,1,,,,,エーツー,0
272,1340001024145,新規,0,2021-10-05,2021-10-05,株式会社Ｐａｉｎｔｅｒ,,株式会社,鹿児島県,鹿児島市,永吉２丁目２２番１０号ツインビル４０３,,46,201,8900023,,,,,,,2021-10-05,1,,,,,ペインター,0
281,1360001029448,新規,0,2021-10-05,2021-10-05,ＭｉｌｌｕｓＭｅｌｉａ株式会社,,株式会社,沖縄県,浦添市,屋富祖１丁目９番１号みやぎマンション１０３,,47,208,9012127,,,,,,,2021-10-05,1,,,,,ミルスメリア,0
287,1370003005421,新規,0,2021-10-05,2021-10-05,サンゴウエンジ合同会社,,合同会社,宮城県,仙台市青葉区,鷺ケ森１丁目８番１１号,,04,101,9810922,,,,,,,2021-10-05,1,,,,,サンゴウエンジ,0
292,1380005012489,新規,0,2021-10-05,2021-10-05,一般社団法人ははのこえ,,その他の設立登記法人,福島県,伊達郡桑折町,大字南半田字六角３９番地の１５,,07,301,9691641,,,,,,,2021-10-05,1,,,,,ハハノコエ,0
293,1390001016617,新規,0,2021-10-05,2021-10-05,株式会社三国工業,,株式会社,山形県,東田川郡三川町,大字押切新田字桜木２３番地１６,,06,426,9971321,,,,,,,2021-10-05,1,,,,,ミクニコウギョウ,0
297,1410003003577,新規,0,2021-10-05,2021-10-05,合同会社トラストクオリティ,,合同会社,秋田県,秋田市,八橋イサノ１丁目３番９号,,05,201,0100961,,,,,,,2021-10-05,1,,,,,トラストクオリティ,0
302,1430001085079,新規,0,2021-10-05,2021-10-05,株式会社ファイブエージェント,,株式会社,北海道,札幌市中央区,大通西９丁目３番地３３,,01,101,0600042,,,,,,,2021-10-05,1,,,,,ファイブエージェント,0
303,1430001085095,新規,0,2021-10-05,2021-10-05,株式会社ＫＯＢＯＲＵ,,株式会社,北海道,札幌市中央区,北三条東２丁目２番地３０ｆｅｒ北３条６０２号,,01,101,0600033,,,,,,,2021-10-05,1,,,,,コボル,0
304,1430001085104,新規,0,2021-10-05,2021-10-05,ＰＬＡＮＮＩＮＧ　ＳＴＡＧＥ株式会社,,株式会社,北海道,札幌市東区,北二十五条東１８丁目１番２７－１０２号,,01,103,0650025,,,,,,,2021-10-05,1,,,,,プランニングステージ,0
308,1450003002138,新規,0,2021-10-05,2021-10-05,合同会社河内館Ｊ,,合同会社,北海道,旭川市,四条通６丁目４０５番地の１,,01,204,0700034,,,,,,,2021-10-05,1,,,,,カワウチカンジェイ,0
318,1500001023709,新規,0,2021-10-05,2021-10-05,株式会社ＫＤＳ　ｂｕｉｌｄｅｒｓ,,株式会社,愛媛県,西条市,大町７０３番地１,,38,206,7930030,,,,,,,2021-10-05,1,,,,,ケーディーエスビルダーズ,0
319,2010001221402,新規,0,2021-10-05,2021-10-05,株式会社ＢＡＫＵＡＧＥ,,株式会社,東京都,千代田区,神田佐久間町１丁目１４,,13,101,1010025,,,,,,,2021-10-05,1,,,,,バクアゲ,0
320,2010001221410,新規,0,2021-10-05,2021-10-05,Ｔａｒｇｅｔｂａｓｅ　Ｉｎｔｅｇｒａｔｅｄ株式会社,,株式会社,東京都,千代田区,六番町６番２０－２０６号,,13,101,1020085,,,,,,,2021-10-05,1,,,,,ターゲットベースインテグレイティド,0
332,2010401162980,新規,0,2021-10-05,2021-10-05,株式会社パートナーリンク,,株式会社,東京都,港区,港南２丁目１６－７－９０５,,13,103,1080075,,,,,,,2021-10-05,1,,,,,パートナーリンク,0
333,2010401163062,新規,0,2021-10-05,2021-10-05,Ｐｌａｎｎａ株式会社,,株式会社,東京都,港区,南麻布３丁目２０番１号Ｄａｉｗａ麻布テラス,,13,103,1060047,,,,,,,2021-10-05,1,,,,,プランナ,0
344,2010601060019,新規,0,2021-10-05,2021-10-05,株式会社ＫＮ．,,株式会社,東京都,江東区,塩浜２丁目２９番７－１３０３号,,13,108,1350043,,,,,,,2021-10-05,1,,,,,ケーエヌドット,0
351,2010801032370,新規,0,2021-10-05,2021-10-05,株式会社チェンジメーカー,,株式会社,東京都,大田区,萩中２丁目６－９,,13,111,1440047,,,,,,,2021-10-05,1,,,,,チェンジメーカー,0
357,2010903006850,新規,0,2021-10-05,2021-10-05,合同会社Ｍａｎｉｔａｓ,,合同会社,東京都,世田谷区,代沢２丁目９番７号ヒルトップ池ノ上２０２,,13,112,1550032,,,,,,,2021-10-05,1,,,,,マニタス,0
367,2011001143198,新規,0,2021-10-05,2021-10-05,ＵＣＯＬＬＥＸ　ＪＡＰＡＮ株式会社,,株式会社,東京都,渋谷区,神宮前６丁目３５番３号,,13,113,1500001,,,,,,,2021-10-05,1,,,,,ユーコレックスジャパン,0
371,2011101096420,新規,0,2021-10-05,2021-10-05,凌希株式会社,,株式会社,東京都,新宿区,北新宿４丁目１９番７号ホーヨー第２ビル６０３,,13,104,1690074,,,,,,,2021-10-05,1,,,,,リンキ,0
372,2011101096453,新規,0,2021-10-05,2021-10-05,株式会社エキサイティング,,株式会社,東京都,新宿区,新宿７丁目２７番３－３０３号,,13,104,1600022,,,,,,,2021-10-05,1,,,,,エキサイティング,0
373,2011101096461,新規,0,2021-10-05,2021-10-05,株式会社ＣＨＩＬＬ,,株式会社,東京都,新宿区,歌舞伎町２丁目１１番４号新宿リービル３－２階Ｃ号室・３階Ｆ号室,,13,104,1600021,,,,,,,2021-10-05,1,,,,,チル,0
378,2011203003654,新規,0,2021-10-05,2021-10-05,ＢａｒＣｏｄｅＳｙｓｔｅｍｓ合同会社,,合同会社,東京都,中野区,東中野４丁目１－１英ビル２Ｆ,,13,114,1640003,,,,,,,2021-10-05,1,,,,,バーコードシステムズ,0
383,2011801039760,新規,0,2021-10-05,2021-10-05,株式会社タイズ,,株式会社,東京都,足立区,東六月町５番６－２０３号,,13,121,1210071,,,,,,,2021-10-05,1,,,,,タイズ,0
387,2012701016701,新規,0,2021-10-05,2021-10-05,株式会社Ｍｉｎｉ企画,,株式会社,東京都,西東京市,谷戸町２丁目８番２７号,,13,229,1880001,,,,,,,2021-10-05,1,,,,,ミニキカク,0
388,2012801021130,新規,0,2021-10-05,2021-10-05,株式会社ＹＳＲ,,株式会社,東京都,立川市,高松町２丁目２９番６号,,13,202,1900011,,,,,,,2021-10-05,1,,,,,ワイエスアール,0
396,2020001143307,新規,0,2021-10-05,2021-10-05,株式会社Ｌａｔｔｉｃｅ　Ｃｏｎｎｅｃｔ,,株式会社,神奈川県,横浜市港北区,菊名６丁目１３－５３プラザコーシン菊名マンション２階２０９号室,,14,109,2220011,,,,,,,2021-10-05,1,,,,,ラティスコネクト,0
397,2020001143315,新規,0,2021-10-05,2021-10-05,株式会社ＢＲＡＶＡ,,株式会社,神奈川県,横浜市神奈川区,片倉２丁目３６番６号,,14,102,2210865,,,,,,,2021-10-05,1,,,,,ブラーバ,0
398,2020001143356,新規,0,2021-10-05,2021-10-05,株式会社モピノコ,,株式会社,神奈川県,川崎市高津区,千年新町３番地１,,14,134,2130021,,,,,,,2021-10-05,1,,,,,モピノコ,0
406,2020003020520,新規,0,2021-10-05,2021-10-05,ＳＵＢＩＫＳＨＹＡ合同会社,,合同会社,神奈川県,横浜市神奈川区,神之木町１０－１５レモンティー５１０１,,14,102,2210015,,,,,,,2021-10-05,1,,,,,スビキシャ,0
415,2021001074120,新規,0,2021-10-05,2021-10-05,湘南エール株式会社,,株式会社,神奈川県,藤沢市,大庭５３４２番地の７４,,14,205,2510861,,,,,,,2021-10-05,1,,,,,ショウナンエール,0
416,2021001074137,新規,0,2021-10-05,2021-10-05,株式会社アドウェイク,,株式会社,神奈川県,相模原市南区,下溝２５４７番地６,,14,153,2520335,,,,,,,2021-10-05,1,,,,,アドウェイク,0
417,2021001074145,新規,0,2021-10-05,2021-10-05,イシミコンサル株式会社,,株式会社,神奈川県,逗子市,桜山７丁目６番２１号,,14,208,2490005,,,,,,,2021-10-05,1,,,,,イシミコンサル,0
419,2021003010965,新規,0,2021-10-05,2021-10-05,合同会社サンフィールド,,合同会社,神奈川県,小田原市,城山１丁目１４－１,,14,206,2500045,,,,,,,2021-10-05,1,,,,,サンフィールド,0
425,2030001144584,新規,0,2021-10-05,2021-10-05,株式会社Ｎｉｂｂｌｅｓ,,株式会社,埼玉県,さいたま市桜区,田島１０丁目５番１０－２０８号,,11,106,3380837,,,,,,,2021-10-05,1,,,,,ニブルス,0
426,2030001144683,新規,0,2021-10-05,2021-10-05,株式会社オオカタ電工,,株式会社,埼玉県,川越市,大字今福２５３番地８,,11,201,3501151,,,,,,,2021-10-05,1,,,,,オオカタデンコウ,0
427,2030001144700,新規,0,2021-10-05,2021-10-05,東日本ふるさとハブマーケット株式会社,,株式会社,埼玉県,さいたま市岩槻区,本町１丁目１８番６号,,11,110,3390057,,,,,,,2021-10-05,1,,,,,ヒガシニホンフルサトハブマーケット,0
445,2040001120428,新規,0,2021-10-05,2021-10-05,豊不動産株式会社,,株式会社,千葉県,千葉市中央区,登戸３丁目１番２３号エルパティオ２Ｂ号,,12,101,2600032,,,,,,,2021-10-05,1,,,,,ユタカフドウサン,0
446,2040001120444,新規,0,2021-10-05,2021-10-05,株式会社オリジンツリー,,株式会社,千葉県,八千代市,高津１１４９番地５,,12,221,2760036,,,,,,,2021-10-05,1,,,,,オリジンツリー,0
451,2040003018629,新規,0,2021-10-05,2021-10-05,Ｓｗｅｅｔ　ｊｐ合同会社,,合同会社,千葉県,市原市,瀬又５６９番地１５５,,12,219,2900151,,,,,,,2021-10-05,1,,,,,スウィートジェイピー,0
452,2050001049914,新規,0,2021-10-05,2021-10-05,株式会社文七,,株式会社,茨城県,日立市,久慈町１丁目３１番２０号,,08,202,3191222,,,,,,,2021-10-05,1,,,,,ブンシチ,0
454,2060001034155,新規,0,2021-10-05,2021-10-05,株式会社センターシートジャパン,,株式会社,栃木県,宇都宮市,一条２丁目１番５号,,09,201,3200821,,,,,,,2021-10-05,1,,,,,センターシートジャパン,0
455,2070001038493,新規,0,2021-10-05,2021-10-05,株式会社ＧＵＤ　ｈｅａｒｔ,,株式会社,群馬県,桐生市,天神町１丁目５番１号群馬大学桐生キャンパス,,10,203,3760052,,,,,,,2021-10-05,1,,,,,グッドハート,0
456,2070001038510,新規,0,2021-10-05,2021-10-05,株式会社ティケイエイチ,,株式会社,群馬県,藤岡市,小林５３２番地の１,,10,209,3750021,,,,,,,2021-10-05,1,,,,,ティケイエイチ,0
464,2080001024468,新規,0,2021-10-05,2021-10-05,鳶尋組株式会社,,株式会社,静岡県,藤枝市,築地１丁目６番６号コーポディアス２０３号室,,22,214,4260031,,,,,,,2021-10-05,1,,,,,トビヒログミ,0
465,2080001024476,新規,0,2021-10-05,2021-10-05,株式会社インテリアＥＩＪＩ,,株式会社,静岡県,藤枝市,高柳１丁目１番２６－１号,,22,214,4260041,,,,,,,2021-10-05,1,,,,,インテリアエイジ,0
466,2080001024484,新規,0,2021-10-05,2021-10-05,株式会社Ｑｕｏｎ,,株式会社,静岡県,焼津市,越後島５０７番地,,22,212,4250092,,,,,,,2021-10-05,1,,,,,クオン,0
468,2080003002653,新規,0,2021-10-05,2021-10-05,合同会社ＭＩＲＩＳＥ　ＤＯＳ,,合同会社,静岡県,静岡市駿河区,下川原６丁目２５番５号,,22,102,4210113,,,,,,,2021-10-05,1,,,,,ミライズドス,0
469,2080101022826,新規,0,2021-10-05,2021-10-05,株式会社エスローラ,,株式会社,静岡県,沼津市,我入道林町４９３番地の１,,22,203,4100823,,,,,,,2021-10-05,1,,,,,エスローラ,0
471,2080401025405,新規,0,2021-10-05,2021-10-05,株式会社アトリエカドル,,株式会社,静岡県,浜松市浜北区,新原２８９２番地の５ＭＵＲＡＭＡＴＳＵビル１Ｆ中,,22,136,4340003,,,,,,,2021-10-05,1,,,,,アトリエカドル,0
478,2100001034670,新規,0,2021-10-05,2021-10-05,株式会社柏原タイル工業,,株式会社,長野県,千曲市,大字森２６００番地１,,20,218,3870005,,,,,,,2021-10-05,1,,,,,カシワバラタイルコウギョウ,0
479,2100001034687,新規,0,2021-10-05,2021-10-05,株式会社北開アークス,,株式会社,長野県,須坂市,大字福島８４番地１,,20,207,3820000,,,,,,,2021-10-05,1,,,,,ホッカイアークス,0
511,2120001240845,新規,0,2021-10-05,2021-10-05,株式会社Ｋ２ｗｏｒｋｓ,,株式会社,大阪府,大阪市東住吉区,南田辺１丁目８番１２－１３０４号,,27,121,5460033,,,,,,,2021-10-05,1,,,,,ケーツーワークス,0
512,2120001240853,新規,0,2021-10-05,2021-10-05,株式会社タカツコーポレーション,,株式会社,大阪府,大阪市中央区,谷町５丁目３番１４－３０４号,,27,128,5400012,,,,,,,2021-10-05,1,,,,,タカツコーポレーション,0
513,2120001240886,新規,0,2021-10-05,2021-10-05,栄真空調株式会社,,株式会社,大阪府,大阪市東成区,中道４丁目５番５０号ライゼホビー０５,,27,115,5370025,,,,,,,2021-10-05,1,,,,,エイシンクウチョウ,0
517,2120003020353,新規,0,2021-10-05,2021-10-05,ｋａｎｏａ合同会社,,合同会社,大阪府,大阪市淀川区,西中島５丁目３番８号リードシー新大阪ビル５階東,,27,123,5320011,,,,,,,2021-10-05,1,,,,,カノア,0
519,2120101064368,新規,0,2021-10-05,2021-10-05,株式会社栗田,,株式会社,大阪府,羽曳野市,野々上４丁目１番地９号,,27,222,5830871,,,,,,,2021-10-05,1,,,,,クリタ,0
526,2122003002190,新規,0,2021-10-05,2021-10-05,合同会社ＩＴＭＤ,,合同会社,大阪府,東大阪市,河内町４番６号,,27,227,5798044,,,,,,,2021-10-05,1,,,,,アイティエムディ,0
529,2130001070151,新規,0,2021-10-05,2021-10-05,株式会社ニマーノ,,株式会社,京都府,京都市左京区,岡崎東福ノ川町９,,26,103,6068321,,,,,,,2021-10-05,1,,,,,ニマーノ,0
530,2130001070250,新規,0,2021-10-05,2021-10-05,株式会社Ｓ＆Ｈ　ｃｌｉｍｂ,,株式会社,京都府,京都市左京区,浄土寺下南田町１６１番地２,,26,103,6068404,,,,,,,2021-10-05,1,,,,,エスアンドエイチクライム,0
536,2140001123239,新規,0,2021-10-05,2021-10-05,株式会社Ｒｏｏｔ,,株式会社,兵庫県,神戸市中央区,中山手通１丁目２２－２３藤正ファインクラフト２０３,,28,110,6500004,,,,,,,2021-10-05,1,,,,,ルート,0
541,2150003002497,新規,0,2021-10-05,2021-10-05,Ｐｉｎｃｈ　ｏｆ　Ｓｐｉｃｅ合同会社,,合同会社,奈良県,大和郡山市,南郡山町５２７番１３号,,29,203,6391007,,,,,,,2021-10-05,1,,,,,ピンチオブスパイス,0
542,2160003002397,新規,0,2021-10-05,2021-10-05,合同会社ＮＥＯＴＥＰ,,合同会社,滋賀県,大津市,茶が崎６番２－１１０７号,,25,201,5200023,,,,,,,2021-10-05,1,,,,,ネオテップ,0
547,2180001148034,新規,0,2021-10-05,2021-10-05,ＪＡＶＩＳ　Ｔｅｃｈ株式会社,,株式会社,愛知県,一宮市,瀬部字小馬場１１－２,,23,203,4910001,,,,,,,2021-10-05,1,,,,,ジェイビステック,0
548,2180001148042,新規,0,2021-10-05,2021-10-05,株式会社アンビッツ・クロス,,株式会社,愛知県,名古屋市東区,泉１丁目１１番６号ミソカビル２Ｆ,,23,102,4610001,,,,,,,2021-10-05,1,,,,,アンビッツクロス,0
549,2180001148117,新規,0,2021-10-05,2021-10-05,日伸土建株式会社,,株式会社,愛知県,一宮市,大和町氏永字北八畝割１８番地,,23,203,4910923,,,,,,,2021-10-05,1,,,,,ニッシンドケン,0
550,2180001148174,新規,0,2021-10-05,2021-10-05,株式会社真,,株式会社,愛知県,春日井市,勝川町７丁目３７番地,,23,206,4860945,,,,,,,2021-10-05,1,,,,,シン,0
552,2180003023029,新規,0,2021-10-05,2021-10-05,合同会社ようよう,,合同会社,愛知県,名古屋市名東区,本郷１丁目４１番地,,23,115,4650024,,,,,,,2021-10-05,1,,,,,ヨウヨウ,0
553,2180005019470,新規,0,2021-10-05,2021-10-05,税理士法人向日葵,,その他の設立登記法人,愛知県,名古屋市東区,代官町３４番２８号,,23,102,4610002,,,,,,,2021-10-05,1,,,,,ヒマワリ,0
555,2180301035428,新規,0,2021-10-05,2021-10-05,株式会社渡辺石油,,株式会社,愛知県,西尾市,吉良町吉田石池６０番地,,23,213,4440516,,,,,,,2021-10-05,1,,,,,ワタナベセキユ,0
556,2180301035444,新規,0,2021-10-05,2021-10-05,株式会社ヤマテック,,株式会社,愛知県,豊田市,井上町２丁目８４番地４７,,23,211,4700372,,,,,,,2021-10-05,1,,,,,ヤマテック,0
557,2180301035452,新規,0,2021-10-05,2021-10-05,株式会社ホリカワワークス,,株式会社,愛知県,豊川市,御津町下佐脇花ノ木４２番地,,23,207,4410302,,,,,,,2021-10-05,1,,,,,ホリカワワークス,0
558,2180301035460,新規,0,2021-10-05,2021-10-05,株式会社伊藤板金,,株式会社,愛知県,豊川市,篠束町東宮２６７番地１,,23,207,4410102,,,,,,,2021-10-05,1,,,,,イトウバンキン,0
559,2180301035469,新規,0,2021-10-05,2021-10-05,株式会社大森基礎,,株式会社,愛知県,刈谷市,東刈谷町１丁目１８番地１ネオハイツ東刈谷弐番館６０２号,,23,210,4480807,,,,,,,2021-10-05,1,,,,,オオモリキソ,0
563,2190003003780,新規,0,2021-10-05,2021-10-05,合同会社スマイルサン,,合同会社,三重県,鈴鹿市,木田町１１６５番地１,,24,207,5130015,,,,,,,2021-10-05,1,,,,,,0
564,2190005011625,新規,0,2021-10-05,2021-10-05,土地家屋調査士法人山本事務所,,その他の設立登記法人,三重県,松阪市,南虹が丘町３番地９,,24,204,5150046,,,,,,,2021-10-05,1,,,,,ヤマモトジムショ,0
565,2200001039222,新規,0,2021-10-05,2021-10-05,株式会社ＧＩＫＥＮ　ＧＲＯＵＰホールディングス,,株式会社,岐阜県,岐阜市,宇佐南３丁目６番２０号,,21,201,5008367,,,,,,,2021-10-05,1,,,,,ギケングループホールディングス,0
566,2200001039230,新規,0,2021-10-05,2021-10-05,株式会社筒井木工所,,株式会社,岐阜県,郡上市,八幡町島谷１５８番地,,21,219,5014222,,,,,,,2021-10-05,1,,,,,ツツイモッコウジョ,0
567,2200001039239,新規,0,2021-10-05,2021-10-05,株式会社Ｗｅｎｌｙ,,株式会社,岐阜県,可児市,虹ケ丘２丁目１１６番地,,21,214,5090261,,,,,,,2021-10-05,1,,,,,ウェンリー,0
569,2200003005338,新規,0,2021-10-05,2021-10-05,合同会社Ｃｏｏｌ,,合同会社,岐阜県,岐阜市,切通６丁目２番１３－１号,,21,201,5008237,,,,,,,2021-10-05,1,,,,,クール,0
571,2220001024453,新規,0,2021-10-05,2021-10-05,株式会社サンリーハウス,,株式会社,石川県,金沢市,福久２丁目１番地,,17,201,9203126,,,,,,,2021-10-05,1,,,,,サンリーハウス,0
572,2220001024461,新規,0,2021-10-05,2021-10-05,株式会社平田神仏具店,,株式会社,石川県,七尾市,府中町２４４番地,,17,202,9260041,,,,,,,2021-10-05,1,,,,,ヒラタシンブツグテン,0
576,2240001058689,新規,0,2021-10-05,2021-10-05,株式会社ＫＯＢＡテック,,株式会社,広島県,福山市,今津町２０６６番地,,34,207,7290111,,,,,,,2021-10-05,1,,,,,コバテック,0
577,2240001058706,新規,0,2021-10-05,2021-10-05,株式会社ホーネスト建設,,株式会社,広島県,福山市,幕山台２丁目２２番２０号,,34,207,7210913,,,,,,,2021-10-05,1,,,,,ホーネストケンセツ,0
581,2240005015281,新規,0,2021-10-05,2021-10-05,税理士法人赤羽事務所,,その他の設立登記法人,広島県,広島市中区,河原町４番２３号,,34,101,7300856,,,,,,,2021-10-05,1,,,,,アカバネジムショ,0
584,2260001036032,新規,0,2021-10-05,2021-10-05,株式会社ＲＥＩＷＡ　ＳＥＲＶＩＣＥ,,株式会社,岡山県,浅口市,鴨方町鴨方１４７１番地１,,33,216,7190243,,,,,,,2021-10-05,1,,,,,レイワサービス,0
585,2260003003690,新規,0,2021-10-05,2021-10-05,合同会社夢光業,,合同会社,岡山県,赤磐市,桜が丘西１丁目１４番１９号,,33,213,7090802,,,,,,,2021-10-05,1,,,,,ユメコウギョウ,0
587,2270003001355,新規,0,2021-10-05,2021-10-05,合同会社システムプラント,,合同会社,鳥取県,西伯郡伯耆町,大殿１８３５番地５,,31,390,6894121,,,,,,,2021-10-05,1,,,,,システムプラント,0
588,2280001008525,新規,0,2021-10-05,2021-10-05,株式会社チャット・ケアすずらん,,株式会社,島根県,雲南市,木次町里方６１６番地２,,32,209,6991311,,,,,,,2021-10-05,1,,,,,チャットケアスズラン,0
598,2290001094853,新規,0,2021-10-05,2021-10-05,株式会社Ｃｏｃｏｒｏ,,株式会社,福岡県,福岡市西区,周船寺２丁目１番１７号２Ｆ,,40,135,8190373,,,,,,,2021-10-05,1,,,,,ココロ,0
599,2290001094861,新規,0,2021-10-05,2021-10-05,株式会社セカンド電設,,株式会社,福岡県,福岡市南区,野多目５丁目３４番４－２０３号,,40,134,8111347,,,,,,,2021-10-05,1,,,,,セカンドデンセツ,0
600,2290001094894,新規,0,2021-10-05,2021-10-05,株式会社ビーエーアイ,,株式会社,福岡県,福岡市博多区,中洲中島町４番１２号,,40,132,8100802,,,,,,,2021-10-05,1,,,,,ビーエーアイ,0
601,2290001094911,新規,0,2021-10-05,2021-10-05,株式会社ＯＫ,,株式会社,福岡県,福岡市東区,和白６丁目１３番６号,,40,131,8110202,,,,,,,2021-10-05,1,,,,,オーケイ,0
602,2290001094936,新規,0,2021-10-05,2021-10-05,株式会社Ｕｎｉｔｅｄ　Ｖｉｓｉｏｎ＆Ｃｏｍｐａｎｙ,,株式会社,福岡県,福岡市中央区,渡辺通２丁目６番１２号,,40,133,8100004,,,,,,,2021-10-05,1,,,,,ユナイテッドヴィジョンアンドカンパニー,0
605,2290801027871,新規,0,2021-10-05,2021-10-05,株式会社ＷＫ－Ｓｔｙｌｅ,,株式会社,福岡県,北九州市若松区,青葉台西３丁目１８番１０号,,40,103,8080143,,,,,,,2021-10-05,1,,,,,ダブルケイスタイル,0
606,2290801027888,新規,0,2021-10-05,2021-10-05,株式会社Ｍｏｎａｍｏｕｒ,,株式会社,福岡県,北九州市小倉北区,砂津１丁目６番１４－６０３号,,40,106,8020014,,,,,,,2021-10-05,1,,,,,モナムール,0
607,2310001017497,新規,0,2021-10-05,2021-10-05,株式会社コーセーアドバンス,,株式会社,長崎県,佐世保市,広田２丁目１７８番地１０,,42,202,8593223,,,,,,,2021-10-05,1,,,,,コーセーアドバンス,0
610,2320001018635,新規,0,2021-10-05,2021-10-05,ティールファシリティーズ株式会社,,株式会社,大分県,大分市,弁天２丁目７番１号,,44,201,8700017,,,,,,,2021-10-05,1,,,,,ティールファシリティーズ,0
611,2320001018643,新規,0,2021-10-05,2021-10-05,株式会社Ｔ２,,株式会社,大分県,豊後大野市,三重町赤嶺２０４２番地,,44,212,8797111,,,,,,,2021-10-05,1,,,,,ティーツー,0
612,2320001018651,新規,0,2021-10-05,2021-10-05,株式会社Ａｄｖａｎｃｅ,,株式会社,大分県,大分市,大字三芳１１２９番地１,,44,201,8700030,,,,,,,2021-10-05,1,,,,,アドバンス,0
617,2330001029029,新規,0,2021-10-05,2021-10-05,株式会社日出ショー,,株式会社,熊本県,宇土市,松原町５３番地１－３０２号,,43,211,8690407,,,,,,,2021-10-05,1,,,,,ヒデショー,0
620,2340001024136,新規,0,2021-10-05,2021-10-05,株式会社山田塗装工業,,株式会社,鹿児島県,鹿児島市,谷山中央２丁目７０２番地２０,,46,201,8910141,,,,,,,2021-10-05,1,,,,,ヤマダトソウコウギョウ,0
621,2340001024144,新規,0,2021-10-05,2021-10-05,株式会社Ｈｉｒａｎｏｙａ　Ｖｉｌｌａｇｅ,,株式会社,鹿児島県,鹿児島市,上之園町１５番１号,,46,201,8900052,,,,,,,2021-10-05,1,,,,,ヒラノヤビレッジ,0
622,2340001024160,新規,0,2021-10-05,2021-10-05,株式会社ＭＥＰ,,株式会社,鹿児島県,薩摩川内市,中郷５丁目１２７番地Ａ棟,,46,215,8950072,,,,,,,2021-10-05,1,,,,,エムイーピー,0
623,2340005009348,新規,0,2021-10-05,2021-10-05,税理士法人明日薫,,その他の設立登記法人,鹿児島県,鹿児島市,紫原４丁目２１番１１号,,46,201,8900082,,,,,,,2021-10-05,1,,,,,アスカ,0
629,2350001017337,新規,0,2021-10-05,2021-10-05,株式会社ｃｏｄａ,,株式会社,宮崎県,児湯郡木城町,大字椎木４００２番地２,,45,404,8840102,,,,,,,2021-10-05,1,,,,,コーダ,0
633,2360001029447,新規,0,2021-10-05,2021-10-05,ｂｌｅｓｓ株式会社,,株式会社,沖縄県,那覇市,久茂地３丁目１３番１号６３ビル７０３,,47,201,9000015,,,,,,,2021-10-05,1,,,,,ブレス,0
635,2370001047662,新規,0,2021-10-05,2021-10-05,株式会社オー・エス・エー,,株式会社,宮城県,名取市,相互台東１丁目１４番地の９,,04,207,9811248,,,,,,,2021-10-05,1,,,,,オーエスエー,0
636,2370001047687,新規,0,2021-10-05,2021-10-05,株式会社ホンマ,,株式会社,宮城県,仙台市若林区,上飯田１丁目１１番２１号,,04,103,9840838,,,,,,,2021-10-05,1,,,,,ホンマ,0
637,2370003005420,新規,0,2021-10-05,2021-10-05,合同会社ｐｒｅｇｈｉｅｒａ,,合同会社,宮城県,多賀城市,伝上山３丁目１６－２２,,04,209,9850872,,,,,,,2021-10-05,1,,,,,プレギエーラ,0
639,2380001032234,新規,0,2021-10-05,2021-10-05,株式会社アクティブ,,株式会社,福島県,伊達市,保原町字千刈２６番地１,,07,213,9600676,,,,,,,2021-10-05,1,,,,,アクティブ,0
642,2390001016616,新規,0,2021-10-05,2021-10-05,Ｓ・Ｓ板金株式会社,,株式会社,山形県,東田川郡庄内町,余目字町２０１番地１,,06,428,9997781,,,,,,,2021-10-05,1,,,,,エスエスバンキン,0
643,2400001015624,新規,0,2021-10-05,2021-10-05,株式会社テツゲン・メタウォーター・アクアアグリ,,株式会社,岩手県,大船渡市,大船渡町字欠ノ下向１番地２,,03,203,0220002,,,,,,,2021-10-05,1,,,,,テツゲンメタウォーターアクアアグリ,0
645,2410001012975,新規,0,2021-10-05,2021-10-05,株式会社ＳａｋｕＬａｂｏ　Ａｋｉｔａ,,株式会社,秋田県,秋田市,新屋勝平台１８番１５号,,05,201,0101603,,,,,,,2021-10-05,1,,,,,サクラボアキタ,0
646,2410001012983,新規,0,2021-10-05,2021-10-05,株式会社ＭＩＹＡＸ,,株式会社,秋田県,秋田市,飯島新町１丁目６番３０号,,05,201,0110947,,,,,,,2021-10-05,1,,,,,ミヤックス,0
656,2430001085078,新規,0,2021-10-05,2021-10-05,株式会社上田商会,,株式会社,北海道,札幌市東区,東苗穂十一条３丁目１５番４５号,,01,103,0070811,,,,,,,2021-10-05,1,,,,,ウエダショウカイ,0
666,2430005014306,新規,0,2021-10-05,2021-10-05,一般社団法人えべつ観光協会,,その他の設立登記法人,北海道,江別市,四条７丁目１番地,,01,217,0670014,,,,,,,2021-10-05,1,,,,,エベツカンコウキョウカイ,0
667,2440005002714,新規,0,2021-10-05,2021-10-05,一般社団法人おでかけリハビリ推進協議会,,その他の設立登記法人,北海道,函館市,若松町９番１９号,,01,202,0400063,,,,,,,2021-10-05,1,,,,,オデカケリハビリスイシンキョウギカイ,0
668,2450001013490,新規,0,2021-10-05,2021-10-05,株式会社ケイ企画,,株式会社,北海道,旭川市,神楽岡十三条８丁目２番２８号,,01,204,0788323,,,,,,,2021-10-05,1,,,,,ケイキカク,0
669,2450001013499,新規,0,2021-10-05,2021-10-05,ｅ－ｍｅｔａｌ株式会社,,株式会社,北海道,旭川市,末広一条１１丁目４番２７号,,01,204,0718131,,,,,,,2021-10-05,1,,,,,イーメタル,0
670,2450003002129,新規,0,2021-10-05,2021-10-05,合同会社河内館Ａ,,合同会社,北海道,旭川市,四条通６丁目４０５番地の１,,01,204,0700034,,,,,,,2021-10-05,1,,,,,カワウチカンエー,0
671,2450003002137,新規,0,2021-10-05,2021-10-05,合同会社河内館Ｉ,,合同会社,北海道,旭川市,四条通６丁目４０５番地の１,,01,204,0700034,,,,,,,2021-10-05,1,,,,,カワウチカンアイ,0
675,2460305001967,新規,0,2021-10-05,2021-10-05,無限責任斜里村以久科負債整理組合,,その他の設立登記法人,北海道,斜里郡斜里町,大字斜里村字以久科地区内,,01,545,0994100,,,,,,,2021-10-05,1,,,,,,0
678,2480001011509,新規,0,2021-10-05,2021-10-05,株式会社ミレニアム,,株式会社,徳島県,徳島市,西新浜町１丁目５番３８号,,36,201,7708008,,,,,,,2021-10-05,1,,,,,ミレニアム,0
689,3010001221517,新規,0,2021-10-05,2021-10-05,株式会社スマートヘルスネット,,株式会社,東京都,文京区,本郷３丁目２６番６号,,13,105,1130033,,,,,,,2021-10-05,1,,,,,スマートヘルスネット,0
690,3010003035898,新規,0,2021-10-05,2021-10-05,合同会社風仙華,,合同会社,東京都,中央区,銀座１丁目２２－１１銀座大竹レジデンス２Ｆ,,13,102,1040061,,,,,,,2021-10-05,1,,,,,フウセンカ,0
694,3010401163004,新規,0,2021-10-05,2021-10-05,株式会社ＬＡＮＤＥＸ,,株式会社,東京都,港区,白金３丁目３－６，アーツ白金２０２号室,,13,103,1080072,,,,,,,2021-10-05,1,,,,,ランデックス,0
698,3010501047916,新規,0,2021-10-05,2021-10-05,Ｓｔｅｐｒｏｕｔｅ株式会社,,株式会社,東京都,台東区,三筋１丁目６－２,,13,106,1110055,,,,,,,2021-10-05,1,,,,,ステップルート,0
700,3010701041603,新規,0,2021-10-05,2021-10-05,ＩＯＬＩＦＥ株式会社,,株式会社,東京都,品川区,平塚２丁目１７番１号,,13,109,1420051,,,,,,,2021-10-05,1,,,,,イオライフ,0
702,3010801032378,新規,0,2021-10-05,2021-10-05,株式会社和愛堂,,株式会社,東京都,大田区,蒲田４丁目４３番１０－９０２号,,13,111,1440052,,,,,,,2021-10-05,1,,,,,ワアイドウ,0
704,3010803003906,新規,0,2021-10-05,2021-10-05,合同会社ストック,,合同会社,東京都,大田区,東馬込１丁目４５番８号ピヨンハイツ２０５,,13,111,1430022,,,,,,,2021-10-05,1,,,,,ストック,0
707,3010901049537,新規,0,2021-10-05,2021-10-05,株式会社ＢＥＹＯＮＤ,,株式会社,東京都,世田谷区,北烏山３丁目４番４号タイム世田谷３０２,,13,112,1570061,,,,,,,2021-10-05,1,,,,,ビヨンド,0
708,3010901049545,新規,0,2021-10-05,2021-10-05,株式会社イレプレ,,株式会社,東京都,世田谷区,祖師谷１丁目９番９号,,13,112,1570072,,,,,,,2021-10-05,1,,,,,イレプレ,0
715,3011001143164,新規,0,2021-10-05,2021-10-05,Ｃａｓａ株式会社,,株式会社,東京都,渋谷区,恵比寿４丁目１８番１－２１０号,,13,113,1500013,,,,,,,2021-10-05,1,,,,,カーサ,0
716,3011001143189,新規,0,2021-10-05,2021-10-05,株式会社ＴＡＭＡＲＩＢＡ　ＥＸＰＥＲＩＥＮＣＥ,,株式会社,東京都,渋谷区,神宮前１丁目１１番１１号,,13,113,1500001,,,,,,,2021-10-05,1,,,,,タマリバエクスペリエンス,0
717,3011001143214,新規,0,2021-10-05,2021-10-05,ワイテック株式会社,,株式会社,東京都,渋谷区,神宮前６丁目２３番４号桑野ビル２階,,13,113,1500001,,,,,,,2021-10-05,1,,,,,ワイテック,0
725,3011101096386,新規,0,2021-10-05,2021-10-05,株式会社ＣＩＴＲＯＮコンサルティング,,株式会社,東京都,新宿区,高田馬場３丁目１２－１セブンビル３Ｓ,,13,104,1690075,,,,,,,2021-10-05,1,,,,,シトロンエンジニアリング,0
726,3011101096436,新規,0,2021-10-05,2021-10-05,ＹＭプロダクツ株式会社,,株式会社,東京都,新宿区,新宿３丁目１１－９花菱ビル５階,,13,104,1600022,,,,,,,2021-10-05,1,,,,,ワイエムプロダクツ,0
727,3011101096460,新規,0,2021-10-05,2021-10-05,株式会社ＴＤＦ,,株式会社,東京都,新宿区,歌舞伎町２丁目３３番１号第６トーアビル地下１階Ｂ１０３・Ｂ１０４,,13,104,1600021,,,,,,,2021-10-05,1,,,,,ティーディーエフ,0
728,3011103011046,新規,0,2021-10-05,2021-10-05,合同会社友瑞和,,合同会社,東京都,新宿区,原町２丁目５０番地,,13,104,1620053,,,,,,,2021-10-05,1,,,,,ユウズイワ,0
730,3011201023249,新規,0,2021-10-05,2021-10-05,株式会社Ｂｅｓｔ　Ｍｏｍｅｎｔ,,株式会社,東京都,中野区,鷺宮６丁目１３番８号ラレーブ鷺宮３０１,,13,114,1650032,,,,,,,2021-10-05,1,,,,,ベストモーメント,0
731,3011205002455,新規,0,2021-10-05,2021-10-05,社会保険労務士法人植本労務管理事務所,,その他の設立登記法人,東京都,中野区,中野２丁目２９番１７号西條ビル３階,,13,114,1640001,,,,,,,2021-10-05,1,,,,,ウエモトロウムカンリジムショ,0
734,3011303004188,新規,0,2021-10-05,2021-10-05,合同会社Ｈａｐｐｓ＆Ｐａｒｔｎｅｒｓ,,合同会社,東京都,杉並区,高円寺南１丁目８番２号エクレール東高円寺２０１,,13,115,1660003,,,,,,,2021-10-05,1,,,,,ハプスアンドパートナーズ,0
735,3011403003461,新規,0,2021-10-05,2021-10-05,カイコレシステムズ合同会社,,合同会社,東京都,板橋区,南常盤台１丁目１１番６号レフア南常盤台１０１号室,,13,119,1740072,,,,,,,2021-10-05,1,,,,,カイコレシステムズ,0
747,3012401038359,新規,0,2021-10-05,2021-10-05,株式会社ＯＸＣＥ,,株式会社,東京都,小金井市,貫井南町５丁目１１番１５号,,13,210,1840014,,,,,,,2021-10-05,1,,,,,オクセ,0
749,3012701016700,新規,0,2021-10-05,2021-10-05,株式会社ＳＮＥコンサルティング,,株式会社,東京都,東久留米市,前沢５丁目１８番３１号レジデンス光和１０７・３０１号室,,13,222,2030032,,,,,,,2021-10-05,1,,,,,エスエヌイーコンサルティング,0
751,3012801021121,新規,0,2021-10-05,2021-10-05,株式会社宮京,,株式会社,東京都,日野市,万願寺２丁目２１番地の３,,13,212,1910024,,,,,,,2021-10-05,1,,,,,ミヤキョウ,0
752,3012801021138,新規,0,2021-10-05,2021-10-05,ＭＳクラフト株式会社,,株式会社,東京都,立川市,砂川町７丁目１８番地の２６,,13,202,1900031,,,,,,,2021-10-05,1,,,,,エムエスクラフト,0
761,3020001143306,新規,0,2021-10-05,2021-10-05,ＨＡＮＡ２１株式会社,,株式会社,神奈川県,横浜市中区,山下町１番地シルクセンター１００７,,14,104,2310023,,,,,,,2021-10-05,1,,,,,ハナニジュウイチ,0
764,3020003020585,新規,0,2021-10-05,2021-10-05,イノベス合同会社,,合同会社,神奈川県,横浜市泉区,緑園７丁目２２番地１８,,14,116,2450002,,,,,,,2021-10-05,1,,,,,イノベス,0
769,3021001074094,新規,0,2021-10-05,2021-10-05,株式会社Ｒｅｂｕｉｌｄ　Ｗｏｒｋ,,株式会社,神奈川県,厚木市,林２丁目２４番１７号,,14,212,2430816,,,,,,,2021-10-05,1,,,,,リビルドワーク,0
772,3021003010964,新規,0,2021-10-05,2021-10-05,ＥＡＳＴＬＡＮＤ　ＭＡＲＩＮＥ合同会社,,合同会社,神奈川県,厚木市,恩名２丁目２３番１７号,,14,212,2430032,,,,,,,2021-10-05,1,,,,,イーストランドマリン,0
773,3021003010972,新規,0,2021-10-05,2021-10-05,ＨＲインテリジェンス合同会社,,合同会社,神奈川県,茅ヶ崎市,松が丘１丁目６番６－６号,,14,207,2530025,,,,,,,2021-10-05,1,,,,,エイチアールインテリジェンス,0
774,3021005012307,新規,0,2021-10-05,2021-10-05,一般社団法人三浦湘南共創ネットワーク,,その他の設立登記法人,神奈川県,三浦郡葉山町,一色５３０番地の５８,,14,301,2400111,,,,,,,2021-10-05,1,,,,,ミウラショウナンキョウソウネットワーク,0
776,3030001144591,新規,0,2021-10-05,2021-10-05,株式会社Ｏ．Ｄ．Ｈ,,株式会社,埼玉県,さいたま市桜区,西堀３丁目５番３－２０５号,,11,106,3380832,,,,,,,2021-10-05,1,,,,,オーディーエイチ,0
777,3030001144625,新規,0,2021-10-05,2021-10-05,株式会社ヤマザキ解体,,株式会社,埼玉県,行田市,門井町２丁目４番地２２,,11,206,3610044,,,,,,,2021-10-05,1,,,,,ヤマザキカイタイ,0
778,3030003018034,新規,0,2021-10-05,2021-10-05,合同会社ウッドベル,,合同会社,埼玉県,新座市,石神４丁目３番２号,,11,230,3520033,,,,,,,2021-10-05,1,,,,,ウッドベル,0
784,3040001120402,新規,0,2021-10-05,2021-10-05,株式会社いてつ,,株式会社,千葉県,旭市,入野１２４５番地,,12,215,2890515,,,,,,,2021-10-05,1,,,,,イテツ,0
785,3040001120419,新規,0,2021-10-05,2021-10-05,ホームデザイン株式会社,,株式会社,千葉県,木更津市,木更津１丁目１番１７－１３０２号,,12,206,2920056,,,,,,,2021-10-05,1,,,,,ホームデザイン,0
793,3060001034154,新規,0,2021-10-05,2021-10-05,ｍｙ電設株式会社,,株式会社,栃木県,宇都宮市,江曽島１丁目３番１０号コルトレーン２０２,,09,201,3210107,,,,,,,2021-10-05,1,,,,,マイデンセツ,0
798,3070001038484,新規,0,2021-10-05,2021-10-05,株式会社パーフェクトフィジオ,,株式会社,群馬県,伊勢崎市,下植木町６０１番地２,,10,204,3720024,,,,,,,2021-10-05,1,,,,,パーフェクトフィジオ,0
799,3070001038492,新規,0,2021-10-05,2021-10-05,株式会社ＧＵＤ　ａｉｒ,,株式会社,群馬県,桐生市,天神町１丁目５番１号群馬大学桐生キャンパス,,10,203,3760052,,,,,,,2021-10-05,1,,,,,グッドエアー,0
800,3070001038501,新規,0,2021-10-05,2021-10-05,大美賀プレカット株式会社,,株式会社,群馬県,太田市,大原町１８１４番地２１,,10,205,3792304,,,,,,,2021-10-05,1,,,,,オオミカプレカット,0
807,3080001024491,新規,0,2021-10-05,2021-10-05,シー・フィールド株式会社,,株式会社,静岡県,静岡市駿河区,馬渕４丁目４番３６号,,22,102,4228063,,,,,,,2021-10-05,1,,,,,シーフィールド,0
809,3080101022825,新規,0,2021-10-05,2021-10-05,株式会社モロン,,株式会社,静岡県,裾野市,平松４０３－１コーポ斉藤Ｂ１０３,,22,220,4101127,,,,,,,2021-10-05,1,,,,,モロン,0
810,3080103002429,新規,0,2021-10-05,2021-10-05,イサブヤクリエイティブ合同会社,,合同会社,静岡県,伊豆の国市,吉田３６１番地の２,,22,225,4102322,,,,,,,2021-10-05,1,,,,,イサブヤクリエイティブ,0
812,3080401025379,新規,0,2021-10-05,2021-10-05,株式会社ＳＨＥａＰ　Ａｒｃｈｉ　Ｌａｂｏ,,株式会社,静岡県,浜松市中区,三組町２８番地の７６,,22,131,4328017,,,,,,,2021-10-05,1,,,,,シープアーキラボ,0
813,3080401025387,新規,0,2021-10-05,2021-10-05,ＳＡＭ　ＭＡＲＴ株式会社,,株式会社,静岡県,掛川市,大坂１５２６番地の３６,,22,213,4371421,,,,,,,2021-10-05,1,,,,,サムマート,0
816,3090001017222,新規,0,2021-10-05,2021-10-05,株式会社ＲＥＣプラス,,株式会社,山梨県,甲府市,丸の内２丁目１６番４号,,19,201,4000031,,,,,,,2021-10-05,1,,,,,アールイーシープラス,0
819,3100001034678,新規,0,2021-10-05,2021-10-05,株式会社アグリテック信州,,株式会社,長野県,東筑摩郡筑北村,坂北２２１５番地３,,20,452,3997601,,,,,,,2021-10-05,1,,,,,アグリテックシンシュウ,0
845,3120001240043,新規,0,2021-10-05,2021-10-05,Ｃｒａｆｔ．Ｋ株式会社,,株式会社,大阪府,大阪市北区,中津１丁目２番３号中津清風ビル４０１,,27,127,5310071,,,,,,,2021-10-05,1,,,,,クラフトケー,0
846,3120001240852,新規,0,2021-10-05,2021-10-05,岡野設備株式会社,,株式会社,大阪府,大阪市天王寺区,東高津町１１番７号,,27,109,5430021,,,,,,,2021-10-05,1,,,,,オカノセツビ,0
847,3120001240860,新規,0,2021-10-05,2021-10-05,ＥＶＭ株式会社,,株式会社,大阪府,大阪市浪速区,湊町２丁目２番５－１６１８号,,27,111,5560017,,,,,,,2021-10-05,1,,,,,イーヴィーエム,0
848,3120001240877,新規,0,2021-10-05,2021-10-05,株式会社オニタケ,,株式会社,大阪府,大阪市阿倍野区,天王寺町北２丁目２７番３号,,27,119,5450001,,,,,,,2021-10-05,1,,,,,オニタケ,0
849,3120001240893,新規,0,2021-10-05,2021-10-05,株式会社ＯＴＭ,,株式会社,大阪府,寝屋川市,清水町３０番２６号,,27,215,5720044,,,,,,,2021-10-05,1,,,,,オーティーエム,0
853,3120005022529,新規,0,2021-10-05,2021-10-05,弁護士法人小國法律事務所,,その他の設立登記法人,大阪府,大阪市北区,西天満２丁目１０番２号幸田ビル３０１号室,,27,127,5300047,,,,,,,2021-10-05,1,,,,,オグニホウリツジムショ,0
860,3122001035233,新規,0,2021-10-05,2021-10-05,株式会社ＣＦ朝日屋,,株式会社,大阪府,東大阪市,中石切町５丁目５番９号,,27,227,5798014,,,,,,,2021-10-05,1,,,,,シーエフアサヒヤ,0
861,3122001035241,新規,0,2021-10-05,2021-10-05,ＮＡＰジャパン株式会社,,株式会社,大阪府,八尾市,東町５丁目３０番１号,,27,212,5810861,,,,,,,2021-10-05,1,,,,,ナップジャパン,0
864,3130001070209,新規,0,2021-10-05,2021-10-05,株式会社ニュージェネレーションズ,,株式会社,京都府,亀岡市,篠町広田２丁目２１番９号,,26,206,6210834,,,,,,,2021-10-05,1,,,,,ニュージェネレーションズ,0
865,3130001070233,新規,0,2021-10-05,2021-10-05,株式会社ＨＳＫ工舎,,株式会社,京都府,京都市北区,大北山原谷乾町４７－３,,26,101,6038487,,,,,,,2021-10-05,1,,,,,エイチエスケイコウシャ,0
872,3140001123205,新規,0,2021-10-05,2021-10-05,ジオホールディングス株式会社,,株式会社,兵庫県,神戸市中央区,江戸町１０４番地,,28,110,6500033,,,,,,,2021-10-05,1,,,,,ジオホールディングス,0
873,3140001123238,新規,0,2021-10-05,2021-10-05,藤ＳＡＫＡＮ株式会社,,株式会社,兵庫県,三木市,吉川町渡瀬２０番地の２,,28,215,6731129,,,,,,,2021-10-05,1,,,,,フジサカン,0
874,3140001123246,新規,0,2021-10-05,2021-10-05,大豊工業株式会社,,株式会社,兵庫県,明石市,大久保町西島１０５６番地の２０,,28,203,6740065,,,,,,,2021-10-05,1,,,,,ダイホウコウギョウ,0
875,3140001123254,新規,0,2021-10-05,2021-10-05,株式会社ＳＴＹＬＥ３７５,,株式会社,兵庫県,西宮市,高座町３番１８号,,28,204,6620872,,,,,,,2021-10-05,1,,,,,スタイルサンナナゴ,0
878,3140005025843,新規,0,2021-10-05,2021-10-05,社会保険労務士法人プレモ,,その他の設立登記法人,兵庫県,尼崎市,御園町２４番地尼崎第一ビル４０４号,,28,202,6600861,,,,,,,2021-10-05,1,,,,,プレモ,0
882,3180001147992,新規,0,2021-10-05,2021-10-05,株式会社ａｒｅａ－Ａ,,株式会社,愛知県,名古屋市千種区,桜が丘１１９番地,,23,101,4640025,,,,,,,2021-10-05,1,,,,,エリアエー,0
883,3180001148041,新規,0,2021-10-05,2021-10-05,Ｋ－Ｐｒｏｊｅｃｔ株式会社,,株式会社,愛知県,一宮市,浅井町江森字森前３２番地１,,23,203,4910114,,,,,,,2021-10-05,1,,,,,ケイプロジェクト,0
884,3180001148082,新規,0,2021-10-05,2021-10-05,株式会社Ｎａｔｕｒａｌ　Ｏｒｄｅｒ,,株式会社,愛知県,名古屋市千種区,猫洞通４丁目３０番地の７ＰＲＩＮＣＥＳＳ　ＯＦ　ＯＲＡＮＧＥ　１Ｆ,,23,101,4640032,,,,,,,2021-10-05,1,,,,,ナチュラルオーダー,0
885,3180001148090,新規,0,2021-10-05,2021-10-05,株式会社名西補修工業,,株式会社,愛知県,名古屋市北区,大我麻町４３３番地,,23,103,4620064,,,,,,,2021-10-05,1,,,,,メイセイホシュウコウギョウ,0
886,3180001148108,新規,0,2021-10-05,2021-10-05,株式会社ＹＫＴＯＷＮ,,株式会社,愛知県,名古屋市千種区,朝岡町３丁目８７番地の１,,23,101,4640811,,,,,,,2021-10-05,1,,,,,ワイケイタウン,0
889,3180003023044,新規,0,2021-10-05,2021-10-05,合同会社プラットフォーム,,合同会社,愛知県,知多郡武豊町,字中狭７１番地１,,23,447,4702315,,,,,,,2021-10-05,1,,,,,プラットフォーム,0
892,3180005019461,新規,0,2021-10-05,2021-10-05,部田財産名義人一般社団法人,,その他の設立登記法人,愛知県,愛知郡東郷町,大字春木字西前６０７０番地４「部田コミュニティセンター」内,,23,302,4700162,,,,,,,2021-10-05,1,,,,,ヘタザイサンメイギニン,0
893,3180301035443,新規,0,2021-10-05,2021-10-05,高橋温室設備工業株式会社,00124444,株式会社,愛知県,豊橋市,若松町字若松９５３番地１５,,23,201,4418123,,,,,,,2021-10-05,1,,,,,タカハシオンシツセツビコウギョウ,0
894,3180301035468,新規,0,2021-10-05,2021-10-05,株式会社ＥＩＧＨＴ,,株式会社,愛知県,刈谷市,桜町２丁目４５番地１,,23,210,4480028,,,,,,,2021-10-05,1,,,,,エイト,0
898,3190001028746,新規,0,2021-10-05,2021-10-05,株式会社Ｈ＆Ｍカンパニー,,株式会社,三重県,四日市市,大井手３丁目４番１６号,,24,202,5100835,,,,,,,2021-10-05,1,,,,,エイチアンドエムカンパニー,0
900,3200001039262,新規,0,2021-10-05,2021-10-05,株式会社ハピネスブレーン,,株式会社,岐阜県,岐阜市,六条南２丁目１２番１３号ワピンビル３０２号,,21,201,5008358,,,,,,,2021-10-05,1,,,,,ハピネスブレーン,0
901,3200001039270,新規,0,2021-10-05,2021-10-05,株式会社アルファ,,株式会社,岐阜県,海津市,海津町高須町字武士小路４８番１,,21,221,5030653,,,,,,,2021-10-05,1,,,,,アルファ,0
902,3200003005329,新規,0,2021-10-05,2021-10-05,合同会社ダイチ,,合同会社,岐阜県,多治見市,市之倉町１２丁目３５３番地の１６１,,21,204,5070814,,,,,,,2021-10-05,1,,,,,ダイチ,0
903,3200003005337,新規,0,2021-10-05,2021-10-05,スマートチーム合同会社,,合同会社,岐阜県,岐阜市,下奈良２丁目１６番１号,,21,201,5008385,,,,,,,2021-10-05,1,,,,,スマートチーム,0
906,3220001024452,新規,0,2021-10-05,2021-10-05,株式会社タニグチ,,株式会社,石川県,輪島市,鳳至町稲荷町１２３番地７,,17,204,9280078,,,,,,,2021-10-05,1,,,,,タニグチ,0
907,3220001024460,新規,0,2021-10-05,2021-10-05,株式会社ＷＯＡＫ,,株式会社,石川県,金沢市,寺中町ロ６５番地１,,17,201,9200341,,,,,,,2021-10-05,1,,,,,オーク,0
908,3220001024469,新規,0,2021-10-05,2021-10-05,株式会社ミヤシヤ,,株式会社,石川県,七尾市,中島町河崎ハ部１２番地１,,17,202,9292243,,,,,,,2021-10-05,1,,,,,ミヤシヤ,0
918,3250001019177,新規,0,2021-10-05,2021-10-05,シナジーサークルズ株式会社,,株式会社,山口県,下関市,彦島西山町３丁目２４番８号,,35,201,7500093,,,,,,,2021-10-05,1,,,,,シナジーサークルズ,0
920,3260001036015,新規,0,2021-10-05,2021-10-05,株式会社ＢＡＮＢＡＮ,,株式会社,岡山県,倉敷市,水島西栄町７－１,,33,202,7128034,,,,,,,2021-10-05,1,,,,,バンバン,0
921,3260001036023,新規,0,2021-10-05,2021-10-05,株式会社神興クレーン,,株式会社,岡山県,津山市,院庄２１１番地４,,33,203,7080014,,,,,,,2021-10-05,1,,,,,シンコウクレーン,0
922,3260001036048,新規,0,2021-10-05,2021-10-05,株式会社ＣＳＷ特殊工事,,株式会社,岡山県,高梁市,成羽町下日名７００番地１,,33,209,7160101,,,,,,,2021-10-05,1,,,,,シーエスダブリュートクシュコウジ,0
924,3280001008524,新規,0,2021-10-05,2021-10-05,株式会社松浦工務店,,株式会社,島根県,大田市,仁摩町天河内８４番地３,,32,205,6992305,,,,,,,2021-10-05,1,,,,,マツウラコウムテン,0
933,3290001094836,新規,0,2021-10-05,2021-10-05,株式会社ＭＡＣＡＲＯＮ　ＣＡＲＥ,,株式会社,福岡県,福岡市中央区,天神２丁目３番１０号天神パインクレスト７１９号,,40,133,8100001,,,,,,,2021-10-05,1,,,,,マカロンケア,0
934,3290001094844,新規,0,2021-10-05,2021-10-05,株式会社Ｎ‐ｒｉｃｅ,,株式会社,福岡県,三潴郡大木町,大字三八松１４０８番地,,40,522,8300424,,,,,,,2021-10-05,1,,,,,エヌライス,0
935,3290001094852,新規,0,2021-10-05,2021-10-05,株式会社ＨＡＲＡＮＯ,,株式会社,福岡県,福岡市早良区,南庄３丁目２４番１６号,,40,137,8140031,,,,,,,2021-10-05,1,,,,,ハラノ,0
936,3290001094869,新規,0,2021-10-05,2021-10-05,株式会社結城工業,,株式会社,福岡県,福岡市早良区,大字小笠木５５４番地,,40,137,8111112,,,,,,,2021-10-05,1,,,,,ユウキコウギョウ,0
937,3290001094877,新規,0,2021-10-05,2021-10-05,株式会社正誠工業,,株式会社,福岡県,古賀市,米多比１６６６番地７,,40,223,8113123,,,,,,,2021-10-05,1,,,,,ショウセイコウギョウ,0
944,3290805009477,新規,0,2021-10-05,2021-10-05,ＮＰＯ法人里山の会,,その他の設立登記法人,福岡県,北九州市八幡西区,上上津役３丁目６番２－３０６号,,40,109,8070072,,,,,,,2021-10-05,1,,,,,サトヤマノカイ,0
948,3310001017513,新規,0,2021-10-05,2021-10-05,株式会社山本総業,,株式会社,長崎県,長崎市,琴海戸根町２５２１番地７,,42,201,8513103,,,,,,,2021-10-05,1,,,,,ヤマモトソウギョウ,0
949,3310001017521,新規,0,2021-10-05,2021-10-05,株式会社鎌田工業,,株式会社,長崎県,雲仙市,千々石町乙８６６番地１,,42,213,8540402,,,,,,,2021-10-05,1,,,,,カマタコウギョウ,0
953,3320001018642,新規,0,2021-10-05,2021-10-05,株式会社栄勝,,株式会社,大分県,大分市,大字野津原２２２８番地の５,,44,201,8701203,,,,,,,2021-10-05,1,,,,,エイショウ,0
954,3320003003626,新規,0,2021-10-05,2021-10-05,合同会社カルネドパリ,,合同会社,大分県,大分市,舞鶴町１丁目９番２４号,,44,201,8700044,,,,,,,2021-10-05,1,,,,,カルネドパリ,0
955,3330001029044,新規,0,2021-10-05,2021-10-05,株式会社宮川工業,,株式会社,熊本県,上天草市,大矢野町登立１０７６１番地２１,,43,212,8693601,,,,,,,2021-10-05,1,,,,,ミヤガワコウギョウ,0
960,3330003009069,新規,0,2021-10-05,2021-10-05,合同会社一光,,合同会社,熊本県,玉名郡玉東町,大字二俣８０５番地,,43,364,8690311,,,,,,,2021-10-05,1,,,,,イッコウ,0
962,3340003003582,新規,0,2021-10-05,2021-10-05,合同会社吉直,,合同会社,鹿児島県,鹿屋市,川西町３９３０番地,,46,203,8930032,,,,,,,2021-10-05,1,,,,,ヨシナオ,0
965,3350001017336,新規,0,2021-10-05,2021-10-05,株式会社ＳＡＭＵＲＡ　ＦＯＲＥＳＴ,,株式会社,宮崎県,宮崎市,村角町古郷２３８７番地４,,45,201,8800837,,,,,,,2021-10-05,1,,,,,サムラフォレスト,0
966,3350001017344,新規,0,2021-10-05,2021-10-05,株式会社池田住設,,株式会社,宮崎県,東諸県郡国富町,大字本庄５５８８番地６,,45,382,8801101,,,,,,,2021-10-05,1,,,,,イケダジュウセツ,0
970,3370001047661,新規,0,2021-10-05,2021-10-05,株式会社ＩＫＩ,,株式会社,宮城県,仙台市青葉区,中央１丁目２番３号仙台マークワン１９階,,04,101,9800021,,,,,,,2021-10-05,1,,,,,イキ,0
971,3370001047686,新規,0,2021-10-05,2021-10-05,株式会社アフターライフ,,株式会社,宮城県,仙台市宮城野区,宮城野１丁目１１番２２号,,04,102,9830045,,,,,,,2021-10-05,1,,,,,アフターライフ,0
974,3370003005428,新規,0,2021-10-05,2021-10-05,三幸リレーション合同会社,,合同会社,宮城県,仙台市太白区,松が丘１９番１６号,,04,104,9820821,,,,,,,2021-10-05,1,,,,,サンコウリレーション,0
980,3400003002842,新規,0,2021-10-05,2021-10-05,合同会社ＳＥＮＢ,,合同会社,岩手県,紫波郡紫波町,桜町字中屋敷２１番地１２,,03,321,0283307,,,,,,,2021-10-05,1,,,,,センブ,0
981,3410001012974,新規,0,2021-10-05,2021-10-05,株式会社ガレージ・カマダ,,株式会社,秋田県,秋田市,川尻大川町９番８号,,05,201,0100942,,,,,,,2021-10-05,1,,,,,ガレージカマダ,0
987,3430001085119,新規,0,2021-10-05,2021-10-05,株式会社フジタ左官工業,,株式会社,北海道,札幌市白石区,南郷通１２丁目南３番１０号グロワール南郷３０５号室,,01,104,0030022,,,,,,,2021-10-05,1,,,,,フジタサカンコウギョウ,0
991,3440001008953,新規,0,2021-10-05,2021-10-05,ＣＰ株式会社,,株式会社,北海道,函館市,石川町３１６番地２０,,01,202,0410802,,,,,,,2021-10-05,1,,,,,シーピー,0
992,3450001013498,新規,0,2021-10-05,2021-10-05,株式会社ＰＣＤ,,株式会社,北海道,旭川市,住吉六条１丁目９番１３号,,01,204,0700866,,,,,,,2021-10-05,1,,,,,ピーシーディー,0
993,3450003002136,新規,0,2021-10-05,2021-10-05,合同会社河内館Ｈ,,合同会社,北海道,旭川市,四条通６丁目４０５番地の１,,01,204,0700034,,,,,,,2021-10-05,1,,,,,カワウチカンエイチ,0
999,3480005006859,新規,0,2021-10-05,2021-10-05,一般社団法人神山まるごと高専寮,,その他の設立登記法人,徳島県,名西郡神山町,下分字地野４９番地１,,36,342,7713421,,,,,,,2021-10-05,1,,,,,カミヤママルゴトコウセンリョウ,0
1002,3500001023715,新規,0,2021-10-05,2021-10-05,株式会社今井陶業,,株式会社,愛媛県,西条市,大町９８０番地１２,,38,206,7930030,,,,,,,2021-10-05,1,,,,,イマイトウギョウ,0
1003,3500001023731,新規,0,2021-10-05,2021-10-05,株式会社砂田塗装,,株式会社,愛媛県,松山市,堀江町甲７８１番地７,,38,201,7992651,,,,,,,2021-10-05,1,,,,,スナダトソウ,0
1016,4010003035947,新規,0,2021-10-05,2021-10-05,合同会社スマイルヘルスワン,,合同会社,東京都,中央区,日本橋本町４丁目６番８号パークアクシス日本橋本町１２０２,,13,102,1030023,,,,,,,2021-10-05,1,,,,,スマイルヘルスワン,0
1020,4010005034030,新規,0,2021-10-05,2021-10-05,一般社団法人ライフエスコーツ,,その他の設立登記法人,東京都,千代田区,九段南１丁目５番６号りそな九段ビル５ＦＫＳフロア,,13,101,1020074,,,,,,,2021-10-05,1,,,,,ライフエスコーツ,0
1033,4010501047907,新規,0,2021-10-05,2021-10-05,ＷＩＮＧ株式会社,,株式会社,東京都,台東区,浅草２丁目３４番１１－１１０１号,,13,106,1110032,,,,,,,2021-10-05,1,,,,,ウイング,0
1038,4010705003276,新規,0,2021-10-05,2021-10-05,サクシード税理士法人,,その他の設立登記法人,東京都,品川区,小山３丁目８番１号ＩＳＴビル２０３,,13,109,1420062,,,,,,,2021-10-05,1,,,,,サクシード,0
1040,4010801032369,新規,0,2021-10-05,2021-10-05,株式会社Ｆｕｎ　ａｎｄ　Ｐｒｉｄｅ,,株式会社,東京都,大田区,南馬込４丁目３４番１５号,,13,111,1430025,,,,,,,2021-10-05,1,,,,,ファンアンドプライド,0
1041,4010803003905,新規,0,2021-10-05,2021-10-05,合同会社Ｑｕａｌｉｔｅ・Ｇｌｏｂａｌ・Ｍａｒｋｅｔｉｎｇ,,合同会社,東京都,大田区,中央１丁目１６番８号シャンボール大森１Ｆ,,13,111,1430024,,,,,,,2021-10-05,1,,,,,クオリテグローバルマーケティング,0
1068,4011101096427,新規,0,2021-10-05,2021-10-05,株式会社Ｌｉｖｅｌｓ,,株式会社,東京都,新宿区,新宿１丁目９番４号中公ビル御苑グリーンハイツ６０１,,13,104,1600022,,,,,,,2021-10-05,1,,,,,リベルス,0
1069,4011101096492,新規,0,2021-10-05,2021-10-05,株式会社モズプロジェクト,,株式会社,東京都,新宿区,西新宿３丁目１７番７号西新宿ＴＯＫビル１１階,,13,104,1600023,,,,,,,2021-10-05,1,,,,,モズプロジェクト,0
1072,4011103011053,新規,0,2021-10-05,2021-10-05,合同会社レアレイ,,合同会社,東京都,新宿区,新宿２丁目１２番１３号,,13,104,1600022,,,,,,,2021-10-05,1,,,,,レアレイ,0
1075,4011203003652,新規,0,2021-10-05,2021-10-05,ＫＮＳ合同会社,,合同会社,東京都,中野区,新井１丁目１７番１２号ＭＯＤＵＬＯＲ中野１０２,,13,114,1650026,,,,,,,2021-10-05,1,,,,,ケーエヌエス,0
1077,4011301027215,新規,0,2021-10-05,2021-10-05,株式会社Ｇｒａｃｅ,,株式会社,東京都,杉並区,和泉４丁目４７番２２号方南町ビル１Ｆ,,13,115,1680063,,,,,,,2021-10-05,1,,,,,グレイス,0
1080,4011401023717,新規,0,2021-10-05,2021-10-05,日進株式会社,,株式会社,東京都,板橋区,上板橋１丁目１７－２３Ｙコーポ１０１号室,,13,119,1740076,,,,,,,2021-10-05,1,,,,,ニッシン,0
1086,4011801039759,新規,0,2021-10-05,2021-10-05,株式会社パリピーズ,,株式会社,東京都,葛飾区,奥戸６丁目８番１４号,,13,122,1240022,,,,,,,2021-10-05,1,,,,,パリピーズ,0
1087,4011801039767,新規,0,2021-10-05,2021-10-05,株式会社ＢＪプラスター,,株式会社,東京都,足立区,辰沼２丁目１４番２５号,,13,121,1210054,,,,,,,2021-10-05,1,,,,,ビージェイプラスター,0
1091,4012801021120,新規,0,2021-10-05,2021-10-05,株式会社ＬＯＫＡＨＩ,,株式会社,東京都,国分寺市,西恋ヶ窪２丁目６番地８西国ビル２階,,13,214,1850013,,,,,,,2021-10-05,1,,,,,ロカヒ,0
1103,4020001143296,新規,0,2021-10-05,2021-10-05,株式会社Ｒｉｇｈｔ　Ｓｔｕｆｆ,,株式会社,神奈川県,横浜市港北区,大倉山３丁目７番５号,,14,109,2220037,,,,,,,2021-10-05,1,,,,,ライトスタッフ,0
1104,4020001143305,新規,0,2021-10-05,2021-10-05,株式会社ＦＩＣ,,株式会社,神奈川県,横浜市青葉区,すすき野３丁目４番地８５,,14,117,2250021,,,,,,,2021-10-05,1,,,,,エフアイシー,0
1107,4020003020592,新規,0,2021-10-05,2021-10-05,合同会社ｚｅｒｏ,,合同会社,神奈川県,横浜市神奈川区,鶴屋町２丁目２０番地１ＹＴＵビル１階,,14,102,2210835,,,,,,,2021-10-05,1,,,,,ゼロ,0
1114,4021001074151,新規,0,2021-10-05,2021-10-05,株式会社Ｙ＆ＩＰ,,株式会社,神奈川県,鎌倉市,大船１丁目１２－１０湘南第５ビル４Ｆ＃０５,,14,204,2470056,,,,,,,2021-10-05,1,,,,,ワイアンドアイピー,0
1122,4030001144566,新規,0,2021-10-05,2021-10-05,株式会社えのもと,,株式会社,埼玉県,さいたま市桜区,大字下大久保９９６番地,,11,106,3380825,,,,,,,2021-10-05,1,,,,,エノモト,0
1123,4030001144582,新規,0,2021-10-05,2021-10-05,株式会社Ｓｍｉｌｅ　Ｓｕｎｎｙ,,株式会社,埼玉県,さいたま市大宮区,仲町３丁目５８番地Ｔ＆Ｔ２０１号,,11,103,3300845,,,,,,,2021-10-05,1,,,,,スマイルサニー,0
1135,4040001119889,新規,0,2021-10-05,2021-10-05,株式会社ＬＷ,,株式会社,千葉県,柏市,東１丁目４－２５,,12,217,2770014,,,,,,,2021-10-05,1,,,,,エルダブル,0
1136,4040001120376,新規,0,2021-10-05,2021-10-05,株式会社田所商店サン企画,,株式会社,千葉県,千葉市美浜区,中瀬２丁目６番地１,,12,106,2610023,,,,,,,2021-10-05,1,,,,,タドコロショウテンサンキカク,0
1137,4040001120426,新規,0,2021-10-05,2021-10-05,株式会社ｈｏａｈｅｌｅ,,株式会社,千葉県,我孫子市,布佐２７６５－５ノアＢ２０２,,12,222,2701101,,,,,,,2021-10-05,1,,,,,ホアヘレ,0
1144,4050003006110,新規,0,2021-10-05,2021-10-05,合同会社ベルちゃん,,合同会社,茨城県,結城市,大字小田林２６７１番地６３,,08,207,3070007,,,,,,,2021-10-05,1,,,,,ベルチャン,0
1148,4060001034145,新規,0,2021-10-05,2021-10-05,新栄電設株式会社,,株式会社,栃木県,鹿沼市,茂呂２１５番地２,,09,205,3220026,,,,,,,2021-10-05,1,,,,,シンエイデンセツ,0
1155,4070001038491,新規,0,2021-10-05,2021-10-05,株式会社ＧＵＤ　ＭＯＭ,,株式会社,群馬県,桐生市,天神町１丁目５番１号群馬大学桐生キャンパス,,10,203,3760052,,,,,,,2021-10-05,1,,,,,グッドマム,0
1156,4070001038500,新規,0,2021-10-05,2021-10-05,株式会社マニホールド,,株式会社,群馬県,太田市,東長岡町２６９番地９,,10,205,3730812,,,,,,,2021-10-05,1,,,,,マニホールド,0
1157,4070001038509,新規,0,2021-10-05,2021-10-05,株式会社ベンダルモータース,,株式会社,群馬県,前橋市,馬場町４２１番地４,,10,201,3710242,,,,,,,2021-10-05,1,,,,,ベンダルモータース,0
1158,4070003004252,新規,0,2021-10-05,2021-10-05,合同会社６２３ファーム,,合同会社,群馬県,館林市,大島町４２４７番地の５,,10,207,3740001,,,,,,,2021-10-05,1,,,,,ムツミファーム,0
1164,4080001024482,新規,0,2021-10-05,2021-10-05,株式会社ｃａｔａｌｙｓｔ,,株式会社,静岡県,藤枝市,高洲１８番地１５,,22,214,4260046,,,,,,,2021-10-05,1,,,,,カタリスト,0
1166,4080003002651,新規,0,2021-10-05,2021-10-05,静岡ベース合同会社,,合同会社,静岡県,静岡市葵区,南沼上３丁目１１番４号,,22,101,4200905,,,,,,,2021-10-05,1,,,,,シズオカベース,0
1167,4080101022808,新規,0,2021-10-05,2021-10-05,株式会社ヨシコシ,,株式会社,静岡県,富士市,今泉５丁目４番８号,,22,210,4170001,,,,,,,2021-10-05,1,,,,,ヨシコシ,0
1169,4080401025378,新規,0,2021-10-05,2021-10-05,株式会社紫光,,株式会社,静岡県,浜松市浜北区,貴布祢１９０番地の６,,22,136,4340038,,,,,,,2021-10-05,1,,,,,シコウ,0
1170,4080401025403,新規,0,2021-10-05,2021-10-05,株式会社ケイエフピー,,株式会社,静岡県,浜松市西区,大平台３丁目３４番１８－１０５号,,22,133,4328068,,,,,,,2021-10-05,1,,,,,ケイエフピー,0
1172,4090001017221,新規,0,2021-10-05,2021-10-05,細田工業所株式会社,,株式会社,山梨県,韮崎市,穂坂町宮久保７８３番地２３,,19,207,4070175,,,,,,,2021-10-05,1,,,,,ホソダコウギョウショ,0
1173,4100001034660,新規,0,2021-10-05,2021-10-05,八十二インベストメント株式会社,,株式会社,長野県,長野市,大字南長野南石堂町１２８２番地１１,,20,201,3800824,,,,,,,2021-10-05,1,,,,,ハチジュウニインベストメント,0
1174,4100001034685,新規,0,2021-10-05,2021-10-05,株式会社泰中工業,,株式会社,長野県,千曲市,大字磯部８６５番地５,,20,218,3890806,,,,,,,2021-10-05,1,,,,,タイチュウコウギョウ,0
1176,4100003006253,新規,0,2021-10-05,2021-10-05,ミヤ設備合同会社,,合同会社,長野県,松本市,大字内田４４７番地３,,20,202,3990023,,,,,,,2021-10-05,1,,,,,ミヤセツビ,0
1178,4110001036086,新規,0,2021-10-05,2021-10-05,佐藤興業株式会社,,株式会社,新潟県,新潟市西蒲区,松野尾２４８７番地１,,15,108,9530015,,,,,,,2021-10-05,1,,,,,サトウコウギョウ,0
1179,4110001036094,新規,0,2021-10-05,2021-10-05,株式会社ノット,,株式会社,新潟県,新潟市中央区,京王１丁目１５番８号,,15,103,9500921,,,,,,,2021-10-05,1,,,,,ノット,0
1181,4110003004586,新規,0,2021-10-05,2021-10-05,合同会社Ｎｅｗ　Ｓｅｎｓｅ,,合同会社,新潟県,新潟市中央区,東大通２丁目７－２８,,15,103,9500087,,,,,,,2021-10-05,1,,,,,ニューセンス,0
1206,4120001240876,新規,0,2021-10-05,2021-10-05,株式会社ヤマシタ,,株式会社,大阪府,大阪市城東区,野江３丁目２番２３号,,27,118,5360006,,,,,,,2021-10-05,1,,,,,ヤマシタ,0
1207,4120001240901,新規,0,2021-10-05,2021-10-05,株式会社アフターコロナ,,株式会社,大阪府,大阪市北区,豊崎６丁目９番３号,,27,127,5310072,,,,,,,2021-10-05,1,,,,,アフターコロナ,0
1212,4120003020335,新規,0,2021-10-05,2021-10-05,Ｆ．Ｉ．Ｔ．ｌａｂｏ合同会社,,合同会社,大阪府,枚方市,岡本町７番１号枚方ビオルネ５階,,27,210,5730031,,,,,,,2021-10-05,1,,,,,フォトラボ,0
1213,4120003020351,新規,0,2021-10-05,2021-10-05,合同会社一工務店,,合同会社,大阪府,寝屋川市,高宮あさひ丘４３番３号,,27,215,5720867,,,,,,,2021-10-05,1,,,,,ハジメコウムテン,0
1216,4120005022528,新規,0,2021-10-05,2021-10-05,税理士法人大野会計事務所,,その他の設立登記法人,大阪府,大阪市北区,豊崎３丁目１９番３号ピアスタワー６０１Ｂ,,27,127,5310072,,,,,,,2021-10-05,1,,,,,オオノカイケイジムショ,0
1220,4120101064449,新規,0,2021-10-05,2021-10-05,株式会社ＴＥＮＴＯＮ,,株式会社,大阪府,富田林市,若松町西１丁目１８０４番－１,,27,214,5840025,,,,,,,2021-10-05,1,,,,,テントン,0
1221,4120103004378,新規,0,2021-10-05,2021-10-05,合同会社奏でる,,合同会社,大阪府,和泉市,室堂町１０２４－６２,,27,219,5941101,,,,,,,2021-10-05,1,,,,,カナデル,0
1227,4122001035232,新規,0,2021-10-05,2021-10-05,藤秀水産株式会社,,株式会社,大阪府,東大阪市,鳥居町８番２３号,,27,227,5798035,,,,,,,2021-10-05,1,,,,,フジヒデスイサン,0
1228,4122001035240,新規,0,2021-10-05,2021-10-05,株式会社スリーフ,,株式会社,大阪府,四條畷市,大字下田原３８４番地,,27,229,5750012,,,,,,,2021-10-05,1,,,,,スリーフ,0
1232,4130001070224,新規,0,2021-10-05,2021-10-05,株式会社ｓｉｎｗｏｒｋ,,株式会社,京都府,京都市西京区,下津林東芝ノ宮町７８,,26,111,6158034,,,,,,,2021-10-05,1,,,,,シンワーク,0
1235,4140001123237,新規,0,2021-10-05,2021-10-05,株式会社ルート,,株式会社,兵庫県,神戸市長田区,神楽町２丁目３－１－４０１,,28,106,6530836,,,,,,,2021-10-05,1,,,,,ルート,0
1236,4140003016810,新規,0,2021-10-05,2021-10-05,合同会社Ｆｅｅｌリンパドレナージュ,,合同会社,兵庫県,姫路市,北今宿１丁目８番７号,,28,201,6700057,,,,,,,2021-10-05,1,,,,,フィールリンパドレナージュ,0
1237,4160001023666,新規,0,2021-10-05,2021-10-05,株式会社ＴＡＫＡ重機工業,,株式会社,滋賀県,長浜市,高月町高月２４５８番地,,25,203,5290241,,,,,,,2021-10-05,1,,,,,タカジュウキコウギョウ,0
1243,4180001148081,新規,0,2021-10-05,2021-10-05,株式会社コスモ,,株式会社,愛知県,尾張旭市,東名西町２丁目１５番地４,,23,226,4880844,,,,,,,2021-10-05,1,,,,,コスモ,0
1246,4180003023019,新規,0,2021-10-05,2021-10-05,Ｌｉｆｅ　Ｓｏａｒ合同会社,,合同会社,愛知県,名古屋市瑞穂区,塩入町２番２３号アメニティ堀田駅前８０５号,,23,108,4670851,,,,,,,2021-10-05,1,,,,,ライフソア,0
1247,4180005019460,新規,0,2021-10-05,2021-10-05,社会保険労務士法人ＰＳＳ,,その他の設立登記法人,愛知県,名古屋市昭和区,塩付通１丁目１２番地の４,,23,107,4660022,,,,,,,2021-10-05,1,,,,,ピーエスエス,0
1248,4180301035434,新規,0,2021-10-05,2021-10-05,株式会社ＮＤＫ,,株式会社,愛知県,豊橋市,仁連木町１７０番地１,,23,201,4400065,,,,,,,2021-10-05,1,,,,,エヌディーケー,0
1249,4180301035442,新規,0,2021-10-05,2021-10-05,ヤマコウ株式会社,,株式会社,愛知県,豊橋市,柱四番町１１２番地１,,23,201,4418051,,,,,,,2021-10-05,1,,,,,ヤマコウ,0
1250,4180301035450,新規,0,2021-10-05,2021-10-05,株式会社５１０,,株式会社,愛知県,豊橋市,下地町字橋口９８番地１,,23,201,4400086,,,,,,,2021-10-05,1,,,,,ゴイチマル,0
1251,4180301035459,新規,0,2021-10-05,2021-10-05,株式会社エムジータイム,,株式会社,愛知県,豊川市,為当町椎木３０９番地,,23,207,4420845,,,,,,,2021-10-05,1,,,,,エムジータイム,0
1252,4180301035467,新規,0,2021-10-05,2021-10-05,株式会社ＵＯＭＯ,,株式会社,愛知県,知立市,南陽１丁目１５９番地,,23,225,4720004,,,,,,,2021-10-05,1,,,,,ウオモ,0
1253,4180301035475,新規,0,2021-10-05,2021-10-05,株式会社ＭＤＣ,,株式会社,愛知県,豊田市,高上１丁目４番地１３,,23,211,4710013,,,,,,,2021-10-05,1,,,,,エムディーシー,0
1257,4190001028753,新規,0,2021-10-05,2021-10-05,ＹＯＵ農園株式会社,,株式会社,三重県,鈴鹿市,肥田町２５１番地,,24,207,5130819,,,,,,,2021-10-05,1,,,,,ユウノウエン,0
1262,4200001039220,新規,0,2021-10-05,2021-10-05,株式会社Ｆｏｕｒ　Ｓｅａｍ,,株式会社,岐阜県,岐阜市,六条江東２丁目１４番３号,,21,201,5008356,,,,,,,2021-10-05,1,,,,,フォーシーム,0
1264,4200005013262,新規,0,2021-10-05,2021-10-05,一般社団法人緑樹会,,その他の設立登記法人,岐阜県,美濃加茂市,山手町３丁目４９番地,,21,211,5050036,,,,,,,2021-10-05,1,,,,,リョクジュカイ,0
1265,4220001024451,新規,0,2021-10-05,2021-10-05,Ａｉｒ　Ｂｉｊｏｕ株式会社,,株式会社,石川県,金沢市,有松５丁目９番１２号,,17,201,9218161,,,,,,,2021-10-05,1,,,,,エアービジュー,0
1266,4220001024468,新規,0,2021-10-05,2021-10-05,株式会社ＯＤＥ,,株式会社,石川県,金沢市,中屋南６８番地,,17,201,9200379,,,,,,,2021-10-05,1,,,,,オデ,0
1283,4250001019176,新規,0,2021-10-05,2021-10-05,山口総合家電株式会社,,株式会社,山口県,山口市,円政寺８３番地１,,35,203,7530036,,,,,,,2021-10-05,1,,,,,ヤマグチソウゴウカデン,0
1285,4260001036055,新規,0,2021-10-05,2021-10-05,株式会社テンデン,,株式会社,岡山県,岡山市北区,上中野１丁目４番８号,,33,101,7000972,,,,,,,2021-10-05,1,,,,,テンデン,0
1286,4270001008367,新規,0,2021-10-05,2021-10-05,株式会社せつ,,株式会社,鳥取県,西伯郡南部町,阿賀３５９番地６,,31,389,6830322,,,,,,,2021-10-05,1,,,,,セツ,0
1287,4270003001353,新規,0,2021-10-05,2021-10-05,味処美佐合同会社,,合同会社,鳥取県,境港市,京町６番地,,31,204,6840023,,,,,,,2021-10-05,1,,,,,アジドコロミサ,0
1288,4280001008523,新規,0,2021-10-05,2021-10-05,株式会社遠赤エコセラ研究所,,株式会社,島根県,雲南市,三刀屋町下熊谷１７６９番地１,,32,209,6902403,,,,,,,2021-10-05,1,,,,,エンセキエコセラケンキュウショ,0
1289,4280003001542,新規,0,2021-10-05,2021-10-05,合同会社Ｈｏｕｓｅ　ｏｆ　Ｈａｐｐｉｎｅｓｓ,,合同会社,島根県,松江市,東出雲町揖屋１２１２番地１Ｊ・シャモニーフォレストＢ１０５,,32,201,6990101,,,,,,,2021-10-05,1,,,,,ハウスオブハピネス,0
1294,4290001094777,新規,0,2021-10-05,2021-10-05,株式会社輝,,株式会社,福岡県,糟屋郡篠栗町,大字尾仲７２番地４号,,40,342,8112413,,,,,,,2021-10-05,1,,,,,カガヤキ,0
1295,4290001094843,新規,0,2021-10-05,2021-10-05,株式会社大井建築,,株式会社,福岡県,筑紫野市,針摺東５丁目９番１号,,40,217,8180081,,,,,,,2021-10-05,1,,,,,オオイケンチク,0
1296,4290001094851,新規,0,2021-10-05,2021-10-05,株式会社Ａ‐ｓｔｙｌｅ,,株式会社,福岡県,大野城市,仲畑３丁目９番３９号,,40,219,8160921,,,,,,,2021-10-05,1,,,,,エースタイル,0
1297,4290001094868,新規,0,2021-10-05,2021-10-05,株式会社宝栄,,株式会社,福岡県,福岡市博多区,比恵町１５番２２－８０３号,,40,132,8120014,,,,,,,2021-10-05,1,,,,,ホウエイ,0
1298,4290001094884,新規,0,2021-10-05,2021-10-05,オースフィー株式会社,,株式会社,福岡県,福岡市博多区,東比恵２丁目２２番１５号プライムスクエア１０６,,40,132,8120007,,,,,,,2021-10-05,1,,,,,オースフィー,0
1299,4290005018385,新規,0,2021-10-05,2021-10-05,一般社団法人市民文化部企画推進室,,その他の設立登記法人,福岡県,福岡市南区,屋形原３丁目３番３号,,40,134,8111351,,,,,,,2021-10-05,1,,,,,シミンブンカブキカクスイシンシツ,0
1301,4310001017504,新規,0,2021-10-05,2021-10-05,株式会社竹下水産,,株式会社,長崎県,雲仙市,南串山町丙９１９９番地,,42,213,8540703,,,,,,,2021-10-05,1,,,,,タケシタスイサン,0
1302,4310001017512,新規,0,2021-10-05,2021-10-05,溶真株式会社,,株式会社,長崎県,佐世保市,原分町７１２番地３,,42,202,8570103,,,,,,,2021-10-05,1,,,,,ヨウシン,0
1303,4310005008549,新規,0,2021-10-05,2021-10-05,一般社団法人平田コネクト,,その他の設立登記法人,長崎県,長崎市,住吉町２１番１７－１０２号,,42,201,8528154,,,,,,,2021-10-05,1,,,,,ヒラタコネクト,0
1307,4320003003625,新規,0,2021-10-05,2021-10-05,合同会社ハルズリゾート,,合同会社,大分県,由布市,湯布院町川上３７３７－１７,,44,213,8795102,,,,,,,2021-10-05,1,,,,,ハルズリゾート,0
1309,4320005009926,新規,0,2021-10-05,2021-10-05,一般社団法人大分県蜜源花粉源植物振興協会,,その他の設立登記法人,大分県,臼杵市,野津町大字野津市２５０６番地,,44,206,8750201,,,,,,,2021-10-05,1,,,,,オオイタケンミツゲンカフンゲンショクブツシンコウキョウカイ,0
1310,4330001029035,新規,0,2021-10-05,2021-10-05,株式会社Ｙ企画,,株式会社,熊本県,熊本市北区,打越町３３番１１３号,,43,105,8600086,,,,,,,2021-10-05,1,,,,,ワイキカク,0
1312,4330003009076,新規,0,2021-10-05,2021-10-05,合同会社ＭＵＳＡＳＨＩ　Ｐｌｕｓ,,合同会社,熊本県,菊池市,七城町菰入６７６番地１,,43,210,8611354,,,,,,,2021-10-05,1,,,,,ムサシプラス,0
1316,4350001017335,新規,0,2021-10-05,2021-10-05,株式会社剛明建設,,株式会社,宮崎県,西諸県郡高原町,大字広原４９８１番地３,,45,361,8894411,,,,,,,2021-10-05,1,,,,,ゴウメイケンセツ,0
1318,4350005006029,新規,0,2021-10-05,2021-10-05,一般社団法人ドローン促進協会,,その他の設立登記法人,宮崎県,宮崎市,大工２丁目９７番地３,,45,201,8800015,,,,,,,2021-10-05,1,,,,,ドローンソクシンキョウカイ,0
1319,4370001047669,新規,0,2021-10-05,2021-10-05,太田工業株式会社,,株式会社,宮城県,仙台市太白区,郡山８丁目１５番３４号,,04,104,9820003,,,,,,,2021-10-05,1,,,,,オオタコウギョウ,0
1326,4380001032249,新規,0,2021-10-05,2021-10-05,株式会社エス・キュー・アール,,株式会社,福島県,本宮市,糠沢字西笹田１番地,,07,214,9691204,,,,,,,2021-10-05,1,,,,,,0
1328,4390001016614,新規,0,2021-10-05,2021-10-05,株式会社クマンド,,株式会社,山形県,東置賜郡高畠町,大字根岸８１番地６,,06,381,9920343,,,,,,,2021-10-05,1,,,,,クマンド,0
1329,4390003001878,新規,0,2021-10-05,2021-10-05,合同会社Ｍ＆Ｋ財務パートナー,,合同会社,山形県,天童市,一日町１丁目１１番３０号,,06,210,9940044,,,,,,,2021-10-05,1,,,,,エムアンドケーザイムパートナー,0
1340,4430001085084,新規,0,2021-10-05,2021-10-05,株式会社恵和設備工房,,株式会社,北海道,札幌市白石区,北郷二条３丁目７番１７号,,01,104,0030832,,,,,,,2021-10-05,1,,,,,ケイワセツビコウボウ,0
1341,4430003013183,新規,0,2021-10-05,2021-10-05,合同会社Ｖ３,,合同会社,北海道,札幌市中央区,大通西１４丁目１３－３０,,01,101,0600042,,,,,,,2021-10-05,1,,,,,ブイスリー,0
1342,4430003013225,新規,0,2021-10-05,2021-10-05,ＥＲＭＡ合同会社,,合同会社,北海道,札幌市西区,発寒三条６丁目６番３号,,01,107,0630823,,,,,,,2021-10-05,1,,,,,イーアールエムエー,0
1346,4450003002135,新規,0,2021-10-05,2021-10-05,合同会社河内館Ｇ,,合同会社,北海道,旭川市,四条通６丁目４０５番地の１,,01,204,0700034,,,,,,,2021-10-05,1,,,,,カワウチカンジー,0
1349,4470001018742,新規,0,2021-10-05,2021-10-05,ｃｏｃｏ虹株式会社,,株式会社,香川県,高松市,松縄町３４番地１３谷本ビル２Ｆ,,37,201,7600079,,,,,,,2021-10-05,1,,,,,ココニジ,0
1350,4470001018750,新規,0,2021-10-05,2021-10-05,株式会社石田建設興業,,株式会社,香川県,高松市,東ハゼ町１４番地８,,37,201,7618054,,,,,,,2021-10-05,1,,,,,イシダケンセツコウギョウ,0
1354,4500001023714,新規,0,2021-10-05,2021-10-05,株式会社葵,,株式会社,愛媛県,喜多郡内子町,五十崎甲１２９６番地１,,38,422,7950301,,,,,,,2021-10-05,1,,,,,アオイ,0
1355,4500001023730,新規,0,2021-10-05,2021-10-05,ＴＲＩＢＥメンテサービス株式会社,,株式会社,愛媛県,松山市,久米窪田町９７６番地１グレイスコートＫ２０２号,,38,201,7911101,,,,,,,2021-10-05,1,,,,,トライブメンテサービス,0
1369,5010001221507,新規,0,2021-10-05,2021-10-05,株式会社タニマコー,,株式会社,東京都,中央区,日本橋浜町３丁目３４番６号,,13,102,1030007,,,,,,,2021-10-05,1,,,,,タニマコー,0
1375,5010401162978,新規,0,2021-10-05,2021-10-05,株式会社Ｂｒｉｄｇｅ　ＨＲ,,株式会社,東京都,港区,新橋２丁目２０－１５新橋駅前ビル１号館７Ｆ,,13,103,1050004,,,,,,,2021-10-05,1,,,,,ブリッジエイチアール,0
1376,5010403026264,新規,0,2021-10-05,2021-10-05,合同会社Ａｖａｌｏｎ　Ｐｒｅｓｉｄｅｎｔ,,合同会社,東京都,港区,浜松町２丁目２番１５号浜松町ダイヤビル２Ｆ,,13,103,1050013,,,,,,,2021-10-05,1,,,,,アヴァロンプレジデント,0
1379,5010501047906,新規,0,2021-10-05,2021-10-05,株式会社クレート,,株式会社,東京都,台東区,下谷３丁目１７番８号,,13,106,1100004,,,,,,,2021-10-05,1,,,,,クレート,0
1386,5010903006848,新規,0,2021-10-05,2021-10-05,ＢＵＲＮ＆ＵＰ合同会社,,合同会社,東京都,世田谷区,粕谷１丁目１７番４号第２芦花公園ヒミコセラン２０１,00124442,13,112,1570063,,,,,,,2021-10-05,1,,,,,バーンナップ,0
1389,5011001142940,新規,0,2021-10-05,2021-10-05,株式会社Ｉ,,株式会社,東京都,渋谷区,渋谷１丁目１番３号,,13,113,1500002,,,,,,,2021-10-05,1,,,,,アイ,0
1390,5011001143204,新規,0,2021-10-05,2021-10-05,株式会社ｓａｓｉｍｉ,,株式会社,東京都,渋谷区,神宮前６丁目２３番４号桑野ビル２階,,13,113,1500001,,,,,,,2021-10-05,1,,,,,サシミ,0
1398,5011101096426,新規,0,2021-10-05,2021-10-05,ノウェム株式会社,,株式会社,東京都,新宿区,四谷４丁目２番地１,,13,104,1600004,,,,,,,2021-10-05,1,,,,,ノウェム,0
1400,5011205002453,新規,0,2021-10-05,2021-10-05,一般社団法人かぶきライフサポート,,その他の設立登記法人,東京都,中野区,上高田１丁目３１番６号,,13,114,1640002,,,,,,,2021-10-05,1,,,,,カブキライフサポート,0
1409,5011703002954,新規,0,2021-10-05,2021-10-05,ＴＴＯ合同会社,,合同会社,東京都,江戸川区,南小岩７丁目１４番７号レセント８８－１０２,,13,123,1330056,,,,,,,2021-10-05,1,,,,,ティーティーオー,0
1412,5011803004801,新規,0,2021-10-05,2021-10-05,合同会社カツシカデザイン,,合同会社,東京都,葛飾区,堀切１丁目８番１２－１０９号サンクレイドル堀切四季のみち,,13,122,1240006,,,,,,,2021-10-05,1,,,,,カツシカデザイン,0
1415,5012703002325,新規,0,2021-10-05,2021-10-05,合同会社石井技術開発研究所,,合同会社,東京都,西東京市,柳沢６丁目８番２４号タウンコートヤギサワ２０２号,,13,229,2020022,,,,,,,2021-10-05,1,,,,,イシイギジュツカイハツケンキュウジョ,0
1416,5012801021144,新規,0,2021-10-05,2021-10-05,トラベラーズ株式会社,,株式会社,東京都,昭島市,田中町１丁目２４番１８－２０１号,,13,207,1960014,,,,,,,2021-10-05,1,,,,,トラベラーズ,0
1417,5013301048017,新規,0,2021-10-05,2021-10-05,株式会社Ｔｏｍｍｙ’ｓ　Ｃｏｌｌｅｃｔｉｏｎ,,株式会社,東京都,豊島区,南長崎６丁目２０番２号ブライト東長崎２０５号,,13,116,1710052,,,,,,,2021-10-05,1,,,,,トミーズコレクション,0
1421,5020001143270,新規,0,2021-10-05,2021-10-05,アスタノシク株式会社,,株式会社,神奈川県,横浜市旭区,中白根４丁目１番２－４１７号,,14,112,2410004,,,,,,,2021-10-05,1,,,,,アスタノシク,0
1429,5021001074142,新規,0,2021-10-05,2021-10-05,株式会社蒼天建設,,株式会社,神奈川県,平塚市,入野４４５番地,,14,203,2591216,,,,,,,2021-10-05,1,,,,,ソウテンケンセツ,0
1430,5021001074150,新規,0,2021-10-05,2021-10-05,株式会社小川外構,,株式会社,神奈川県,相模原市中央区,下九沢１１８３番地９８,,14,152,2520254,,,,,,,2021-10-05,1,,,,,オガワガイコウ,0
1436,5021003010962,新規,0,2021-10-05,2021-10-05,合同会社メゾンボングゥ,,合同会社,神奈川県,茅ヶ崎市,松が丘１丁目１０番１号,,14,207,2530025,,,,,,,2021-10-05,1,,,,,メゾンボングゥ,0
1437,5021003010970,新規,0,2021-10-05,2021-10-05,つうじ合同会社,,合同会社,神奈川県,大和市,中央林間西２丁目６番２１号,,14,213,2420008,,,,,,,2021-10-05,1,,,,,ツウジ,0
1448,5030001144581,新規,0,2021-10-05,2021-10-05,株式会社志銀建設,,株式会社,埼玉県,川口市,朝日１丁目１９番１１号３Ｆ,,11,203,3320001,,,,,,,2021-10-05,1,,,,,シロガネケンセツ,0
1449,5030001144607,新規,0,2021-10-05,2021-10-05,株式会社後藤内装,,株式会社,埼玉県,戸田市,笹目南町１９番１９号,,11,224,3350035,,,,,,,2021-10-05,1,,,,,ゴトウナイソウ,0
1454,5040001120391,新規,0,2021-10-05,2021-10-05,株式会社日向塗装,,株式会社,千葉県,柏市,南増尾６丁目５番５５号,,12,217,2770054,,,,,,,2021-10-05,1,,,,,ヒナタトソウ,0
1455,5040001120400,新規,0,2021-10-05,2021-10-05,株式会社プント,,株式会社,千葉県,千葉市美浜区,磯辺１丁目９番１号,,12,106,2610012,,,,,,,2021-10-05,1,,,,,プント,0
1459,5040003018634,新規,0,2021-10-05,2021-10-05,合同会社プラスワン,,合同会社,千葉県,八千代市,ゆりのき台６丁目１７番地８,,12,221,2760042,,,,,,,2021-10-05,1,,,,,プラスワン,0
1460,5040003018667,新規,0,2021-10-05,2021-10-05,合同会社ダイヤ,,合同会社,千葉県,市川市,福栄１丁目１０－２０,,12,203,2720137,,,,,,,2021-10-05,1,,,,,ダイヤ,0
1463,5050001049894,新規,0,2021-10-05,2021-10-05,株式会社レリーフ,,株式会社,茨城県,東茨城郡大洗町,港中央１１番地の２,,08,309,3111305,,,,,,,2021-10-05,1,,,,,レリーフ,0
1471,5060003003824,新規,0,2021-10-05,2021-10-05,合同会社アクティブトレーディング,,合同会社,栃木県,宇都宮市,御幸町１４９番地６号,,09,201,3210984,,,,,,,2021-10-05,1,,,,,,0
1472,5070001038490,新規,0,2021-10-05,2021-10-05,株式会社福原,,株式会社,群馬県,みどり市,笠懸町鹿４５２７番地１４,,10,212,3792313,,,,,,,2021-10-05,1,,,,,フクハラ,0
1473,5070001038499,新規,0,2021-10-05,2021-10-05,アサヒプラントテック株式会社,,株式会社,群馬県,邑楽郡大泉町,大字寄木戸１５９５番地１,,10,524,3700535,,,,,,,2021-10-05,1,,,,,アサヒプラントテック,0
1474,5070003004251,新規,0,2021-10-05,2021-10-05,Ｍ＆Ｓ合同会社,,合同会社,群馬県,沼田市,町田町１３２３番地１,,10,206,3780062,,,,,,,2021-10-05,1,,,,,エムアンドエス,0
1476,5080001024465,新規,0,2021-10-05,2021-10-05,株式会社シズロジ,,株式会社,静岡県,焼津市,上小杉１０１番地,,22,212,4210201,,,,,,,2021-10-05,1,,,,,シズロジ,0
1477,5080001024481,新規,0,2021-10-05,2021-10-05,フジハイテックス株式会社,,株式会社,静岡県,静岡市葵区,古庄４丁目９番１７号,,22,101,4200812,,,,,,,2021-10-05,1,,,,,フジハイテックス,0
1479,5080003002650,新規,0,2021-10-05,2021-10-05,合同会社ＭＩＨ,,合同会社,静岡県,榛原郡吉田町,川尻１２４５番地の２９,,22,424,4210302,,,,,,,2021-10-05,1,,,,,エムアイエイチ,0
1480,5080101022815,新規,0,2021-10-05,2021-10-05,株式会社ＺＥＮ,,株式会社,静岡県,三島市,泉町１２番２３号三幸ビル１Ｆ,,22,206,4110037,,,,,,,2021-10-05,1,,,,,ゼン,0
1483,5080103002427,新規,0,2021-10-05,2021-10-05,合同会社国土,,合同会社,静岡県,駿東郡清水町,徳倉２０７０番地メゾンセモワ１０１,,22,341,4110917,,,,,,,2021-10-05,1,,,,,コクド,0
1485,5080401025393,新規,0,2021-10-05,2021-10-05,株式会社スイスイ,,株式会社,静岡県,浜松市南区,三和町４７番地の１,,22,134,4350038,,,,,,,2021-10-05,1,,,,,スイスイ,0
1490,5090001017220,新規,0,2021-10-05,2021-10-05,株式会社オフィスみなみ,,株式会社,山梨県,甲府市,大里町４２９７番地２６,,19,201,4000053,,,,,,,2021-10-05,1,,,,,オフィスミナミ,0
1493,5100001034676,新規,0,2021-10-05,2021-10-05,株式会社くらら動物病院,,株式会社,長野県,須坂市,大字小山１３４５番地１,,20,207,3820000,,,,,,,2021-10-05,1,,,,,クララドウブツビョウイン,0
1512,5120001240883,新規,0,2021-10-05,2021-10-05,ＡＪキャリアサービス株式会社,,株式会社,大阪府,大阪市北区,太融寺町８番２号エーワンビルディング９０３号,,27,127,5300051,,,,,,,2021-10-05,1,,,,,エージェイキャリアサービス,0
1518,5120005022535,新規,0,2021-10-05,2021-10-05,一般社団法人日本介護脱毛協会,,その他の設立登記法人,大阪府,大阪市北区,中津１丁目２番２１号,,27,127,5310071,,,,,,,2021-10-05,1,,,,,カイゴダツモウキョウカイ,0
1521,5120101064415,新規,0,2021-10-05,2021-10-05,柴垣工業株式会社,,株式会社,大阪府,和泉市,室堂町４９６番地の１（メゾピアノ１０３）,,27,219,5941101,,,,,,,2021-10-05,1,,,,,シバガキコウギョウ,0
1522,5120101064431,新規,0,2021-10-05,2021-10-05,なみはやダイビング株式会社,,株式会社,大阪府,堺市堺区,神南辺町２丁９０番地３,,27,141,5900984,,,,,,,2021-10-05,1,,,,,ナミハヤダイビング,0
1523,5120101064448,新規,0,2021-10-05,2021-10-05,株式会社ナカミチ,,株式会社,大阪府,泉北郡忠岡町,忠岡北２丁目４番１７号,,27,341,5950811,,,,,,,2021-10-05,1,,,,,ナカミチ,0
1526,5120903003850,新規,0,2021-10-05,2021-10-05,合同会社のんき,,合同会社,大阪府,吹田市,竹見台４丁目５番１号ジオ千里竹見台２１５号,,27,205,5650863,,,,,,,2021-10-05,1,,,,,ノンキ,0
1529,5122003002188,新規,0,2021-10-05,2021-10-05,合同会社インストゥルメンタル,,合同会社,大阪府,八尾市,本町２丁目６番２１号萩埜ビル２０５号室,,27,212,5810003,,,,,,,2021-10-05,1,,,,,インストゥルメンタル,0
1534,5130001070248,新規,0,2021-10-05,2021-10-05,株式会社線引屋,,株式会社,京都府,京都市上京区,六軒町通一条上る若松町３４５番地１９,,26,102,6028331,,,,,,,2021-10-05,1,,,,,センビキヤ,0
1541,5140001123228,新規,0,2021-10-05,2021-10-05,株式会社シロラボ,,株式会社,兵庫県,姫路市,飾磨区中島庄助新田３３５０,,28,201,6728035,,,,,,,2021-10-05,1,,,,,シロラボ,0
1552,5160001023673,新規,0,2021-10-05,2021-10-05,エヌ・ビート株式会社,,株式会社,滋賀県,甲賀市,水口町本綾野６番３－６号,,25,209,5280037,,,,,,,2021-10-05,1,,,,,エヌビート,0
1558,5180001148056,新規,0,2021-10-05,2021-10-05,株式会社ＳＨＩＦＴ,,株式会社,愛知県,名古屋市港区,春田野１丁目８１１番地,,23,111,4550873,,,,,,,2021-10-05,1,,,,,シフト,0
1559,5180001148122,新規,0,2021-10-05,2021-10-05,株式会社Ｎ　Ｃｌａｓｓ,,株式会社,愛知県,名古屋市南区,赤坪町８０番地の４,,23,112,4570024,,,,,,,2021-10-05,1,,,,,エヌクラス,0
1560,5180001148163,新規,0,2021-10-05,2021-10-05,稲榮コンクリート工業株式会社,,株式会社,愛知県,名古屋市天白区,平針南１丁目１７１０番地,,23,116,4680020,,,,,,,2021-10-05,1,,,,,イナエコンクリートコウギョウ,0
1561,5180003023034,新規,0,2021-10-05,2021-10-05,合同会社ｈａｒｕ,,合同会社,愛知県,名古屋市熱田区,一番２丁目８番１１号,,23,109,4560053,,,,,,,2021-10-05,1,,,,,ハル,0
1562,5180301035441,新規,0,2021-10-05,2021-10-05,株式会社Ａ‐ｇｏｇ,,株式会社,愛知県,岡崎市,大門２丁目２番地１３,,23,202,4442135,,,,,,,2021-10-05,1,,,,,アゴッグ,0
1563,5180301035474,新規,0,2021-10-05,2021-10-05,株式会社文房あずみ,,株式会社,愛知県,岡崎市,柱１丁目６番地５,,23,202,4440837,,,,,,,2021-10-05,1,,,,,ブンボウアズミ,0
1570,5200001039203,新規,0,2021-10-05,2021-10-05,株式会社エミファッション,,株式会社,岐阜県,安八郡安八町,森部１６４７番地の１,,21,383,5030114,,,,,,,2021-10-05,1,,,,,エミファッション,0
1571,5200001039260,新規,0,2021-10-05,2021-10-05,株式会社ＦＵＲＵＴＡ,,株式会社,岐阜県,下呂市,萩原町上呂字サイラ野３３９８番地,,21,220,5092518,,,,,,,2021-10-05,1,,,,,フルタ,0
1572,5220001024459,新規,0,2021-10-05,2021-10-05,株式会社エニシア,,株式会社,石川県,金沢市,北町丁４５番地,,17,201,9200055,,,,,,,2021-10-05,1,,,,,エニシア,0
1573,5220001024467,新規,0,2021-10-05,2021-10-05,株式会社ＮＵＭＢＥＲ,,株式会社,石川県,金沢市,入江１丁目１３３番地,,17,201,9218011,,,,,,,2021-10-05,1,,,,,ナンバー,0
1576,5240001058686,新規,0,2021-10-05,2021-10-05,株式会社ＬＯＮＧ甲田,,株式会社,広島県,安芸高田市,甲田町高田原１０４５番地１,,34,214,7391101,,,,,,,2021-10-05,1,,,,,ロングコウダ,0
1577,5240001058711,新規,0,2021-10-05,2021-10-05,株式会社Ｍｏｒｇａｎ,,株式会社,広島県,広島市中区,加古町２番５－１５０６号,,34,101,7300812,,,,,,,2021-10-05,1,,,,,モーガン,0
1584,5260001036046,新規,0,2021-10-05,2021-10-05,クラセン株式会社,,株式会社,岡山県,倉敷市,中島４７７－８,,33,202,7100803,,,,,,,2021-10-05,1,,,,,クラセン,0
1585,5260001036054,新規,0,2021-10-05,2021-10-05,株式会社ＳＥＶＥＮＴＨ,,株式会社,岡山県,倉敷市,玉島３丁目１２番６号,,33,202,7138102,,,,,,,2021-10-05,1,,,,,セブンス,0
1587,5260003003688,新規,0,2021-10-05,2021-10-05,Ｓａｋｕｍｏｔｏ　Ｄａｉｓｕｋｅ　Ｄｅｓｉｇｎ　Ｓｔｕｄｉｏ合同会社,,合同会社,岡山県,岡山市北区,石関町６番３号,,33,101,7000813,,,,,,,2021-10-05,1,,,,,サクモトダイスケデザインスタジオ,0
1589,5280001008522,新規,0,2021-10-05,2021-10-05,株式会社Ｔｉｔｉ,,株式会社,島根県,出雲市,大塚町６９２番地,,32,203,6930063,,,,,,,2021-10-05,1,,,,,ティティ,0
1590,5280001008530,新規,0,2021-10-05,2021-10-05,株式会社原田建築,,株式会社,島根県,安来市,植田町９０７番地,,32,206,6920063,,,,,,,2021-10-05,1,,,,,ハラダケンチク,0
1593,5290001094859,新規,0,2021-10-05,2021-10-05,トールトゥリー株式会社,,株式会社,福岡県,糟屋郡志免町,志免２丁目７番３０号,,40,343,8112202,,,,,,,2021-10-05,1,,,,,トールトゥリー,0
1594,5290001094867,新規,0,2021-10-05,2021-10-05,カタヤマ空調株式会社,,株式会社,福岡県,糟屋郡宇美町,ゆりが丘７丁目６番８号,,40,341,8112108,,,,,,,2021-10-05,1,,,,,カタヤマクウチョウ,0
1595,5290001094875,新規,0,2021-10-05,2021-10-05,株式会社オーナーズ・リード,,株式会社,福岡県,久留米市,東合川町４９６番地４,,40,203,8390807,,,,,,,2021-10-05,1,,,,,オーナーズリード,0
1596,5290001094883,新規,0,2021-10-05,2021-10-05,日本フードサービス株式会社,,株式会社,福岡県,福岡市中央区,春吉２丁目５番１号,,40,133,8100003,,,,,,,2021-10-05,1,,,,,ニホンフードサービス,0
1597,5290001094917,新規,0,2021-10-05,2021-10-05,ＳＡＬＴ　ＡＮＤ　ＰＥＰＰＥＲ株式会社,,株式会社,福岡県,福岡市東区,青葉５丁目１８番２１号,,40,131,8130025,,,,,,,2021-10-05,1,,,,,ソルトアンドペッパー,0
1602,5290801027877,新規,0,2021-10-05,2021-10-05,霧島商船株式会社,,株式会社,福岡県,北九州市若松区,浜町１丁目５番２６号,,40,103,8080024,,,,,,,2021-10-05,1,,,,,キリシマショウセン,0
1603,5290801027885,新規,0,2021-10-05,2021-10-05,アトラックス株式会社,,株式会社,福岡県,北九州市小倉北区,下富野４丁目５番３５号,,40,106,8020023,,,,,,,2021-10-05,1,,,,,アトラックス,0
1604,5300001012653,新規,0,2021-10-05,2021-10-05,愛和株式会社,,株式会社,佐賀県,佐賀市,巨勢町大字牛島４０２番地２５,,41,201,8400008,,,,,,,2021-10-05,1,,,,,マナ,0
1605,5310001017503,新規,0,2021-10-05,2021-10-05,株式会社ＬｅＭｉｅｕｘ,,株式会社,長崎県,長崎市,本石灰町６番１０－２０３号,,42,201,8500901,,,,,,,2021-10-05,1,,,,,ルミュー,0
1606,5310003004177,新規,0,2021-10-05,2021-10-05,合同会社ＨＡＲＵＭＩ,,合同会社,長崎県,長崎市,平山町７３８番地５,,42,201,8500995,,,,,,,2021-10-05,1,,,,,ハルミ,0
1608,5320001018632,新規,0,2021-10-05,2021-10-05,Ｓｐａｃｅ　Ｆａｒｍ株式会社,,株式会社,大分県,中津市,大字赤迫２０８番地３,,44,203,8790106,,,,,,,2021-10-05,1,,,,,スペースファーム,0
1609,5320001018649,新規,0,2021-10-05,2021-10-05,株式会社１０９３,,株式会社,大分県,別府市,大字鶴見３８３５番地の２,,44,202,8740840,,,,,,,2021-10-05,1,,,,,トクサン,0
1610,5320003003624,新規,0,2021-10-05,2021-10-05,合同会社おおはら管財,,合同会社,大分県,日田市,田島２丁目１２番５０号,,44,204,8770025,,,,,,,2021-10-05,1,,,,,オオハラカンザイ,0
1614,5330003009075,新規,0,2021-10-05,2021-10-05,合同会社ヴェーゼン,,合同会社,熊本県,熊本市中央区,新町１丁目１番３８－１３０３号,,43,101,8600004,,,,,,,2021-10-05,1,,,,,ヴェーゼン,0
1616,5340003003580,新規,0,2021-10-05,2021-10-05,ＫＳＲ合同会社,,合同会社,鹿児島県,鹿児島市,紫原３丁目５５番２０号,,46,201,8900082,,,,,,,2021-10-05,1,,,,,ケーエスアール,0
1617,5340003003589,新規,0,2021-10-05,2021-10-05,合同会社ｅｎ衛生コンサルティング,,合同会社,鹿児島県,鹿児島市,紫原３丁目５７番１８号リラフォートＫ２０１号,,46,201,8900082,,,,,,,2021-10-05,1,,,,,イーエヌエイセイコンサルティング,0
1618,5350001017326,新規,0,2021-10-05,2021-10-05,リーラボホールディングス株式会社,,株式会社,宮崎県,宮崎市,大字郡司分甲２４５番地１,,45,201,8800924,,,,,,,2021-10-05,1,,,,,リーラボホールディングス,0
1619,5350001017334,新規,0,2021-10-05,2021-10-05,株式会社まえだ,,株式会社,宮崎県,宮崎市,清水３丁目１０番６号,,45,201,8800021,,,,,,,2021-10-05,1,,,,,マエダ,0
1622,5350003003935,新規,0,2021-10-05,2021-10-05,合同会社ハギワラモータース,,合同会社,宮崎県,宮崎市,大字本郷北方４０５７番３１号,,45,201,8800925,,,,,,,2021-10-05,1,,,,,ハギワラモータース,0
1624,5360001029436,新規,0,2021-10-05,2021-10-05,株式会社Ｔ．ａ．ｋ．ｅ　Ａｃｔｉｏｎ,,株式会社,沖縄県,那覇市,壺屋２丁目８番１８号平田アパート３０１,,47,201,9020065,,,,,,,2021-10-05,1,,,,,テイクアクション,0
1628,5390001016613,新規,0,2021-10-05,2021-10-05,株式会社高橋商事,00124453,株式会社,山形県,山形市,宮町３丁目１２番２０号,,06,201,9900057,,,,,,,2021-10-05,1,,,,,タカハシショウジ,0
1629,5400002007163,新規,0,2021-10-05,2021-10-05,有限会社藤尾石材店,,有限会社,岩手県,紫波郡紫波町,日詰字朝日田５４番地,,03,321,0283305,,,,,,,2021-10-05,1,,,,,フジオセキザイテン,0
1630,5400003002840,新規,0,2021-10-05,2021-10-05,合同会社クラジョブ,,合同会社,岩手県,奥州市,江刺中町３番１８号,,03,215,0231113,,,,,,,2021-10-05,1,,,,,クラジョブ,0
1631,5410001012980,新規,0,2021-10-05,2021-10-05,株式会社フジシマカラー,,株式会社,秋田県,秋田市,下北手桜字桜谷地６９番地１,,05,201,0100058,,,,,,,2021-10-05,1,,,,,フジシマカラー,0
1645,5430001085091,新規,0,2021-10-05,2021-10-05,株式会社Ｍｓサービス,,株式会社,北海道,札幌市白石区,菊水元町一条５丁目２番１９－２０１号,,01,104,0030821,,,,,,,2021-10-05,1,,,,,エムズサービス,0
1653,5430003013208,新規,0,2021-10-05,2021-10-05,合同会社ｏｌｉｖｅ,,合同会社,北海道,札幌市北区,新琴似九条１２丁目６番１１号,,01,102,0010909,,,,,,,2021-10-05,1,,,,,オリーブ,0
1654,5450003002134,新規,0,2021-10-05,2021-10-05,合同会社河内館Ｆ,,合同会社,北海道,旭川市,四条通６丁目４０５番地の１,,01,204,0700034,,,,,,,2021-10-05,1,,,,,カワウチカンエフ,0
1664,5470001018741,新規,0,2021-10-05,2021-10-05,株式会社キンキオートサービス,,株式会社,香川県,高松市,田村町５２９番地－Ａ２０１,,37,201,7618057,,,,,,,2021-10-05,1,,,,,キンキオートサービス,0
1676,6010001221514,新規,0,2021-10-05,2021-10-05,日本桜木良品産業株式会社,,株式会社,東京都,中央区,日本橋蛎殻町１丁目３番５号共同ビル２階２３号,,13,102,1030014,,,,,,,2021-10-05,1,,,,,ニホンサクラキリョウヒンサンギョウ,0
1677,6010001221530,新規,0,2021-10-05,2021-10-05,順達実業株式会社,,株式会社,東京都,中央区,銀座８丁目１８番７号,,13,102,1040061,,,,,,,2021-10-05,1,,,,,ジュンタツジツギョウ,0
1679,6010003035854,新規,0,2021-10-05,2021-10-05,ＣＨＥＶＥＲＥ合同会社,,合同会社,東京都,中央区,八丁堀３丁目２２－１１,,13,102,1040032,,,,,,,2021-10-05,1,,,,,チェベレ,0
1680,6010101014891,新規,0,2021-10-05,2021-10-05,株式会社Ｔｈｅ　Ｓｔａｇｅ　Ｓｅｖｅｎ,,株式会社,東京都,八王子市,上柚木１１６４番地１コモドアロッジオ２０５号,,13,201,1920373,,,,,,,2021-10-05,1,,,,,ザステージセブン,0
1692,6010403026239,新規,0,2021-10-05,2021-10-05,合同会社ＧＭＩ,,合同会社,東京都,港区,三田５丁目３番１号,,13,103,1080073,,,,,,,2021-10-05,1,,,,,ジーエムアイ,0
1698,6010901049550,新規,0,2021-10-05,2021-10-05,株式会社梅澤勉写真事務所,00124448,株式会社,東京都,世田谷区,駒沢５丁目１１番２３,,13,112,1540012,,,,,,,2021-10-05,1,,,,,ウメザワツトムシャシンジムショ,0
1699,6010901049567,新規,0,2021-10-05,2021-10-05,ゆかいぷらねっと株式会社,,株式会社,東京都,世田谷区,瀬田２丁目１番１５－４０１号,,13,112,1580095,,,,,,,2021-10-05,1,,,,,ユカイプラネット,0
1700,6010901049575,新規,0,2021-10-05,2021-10-05,株式会社オルリー,,株式会社,東京都,世田谷区,中町５丁目２９番１１号玉川コーポラス７０３号室,,13,112,1580091,,,,,,,2021-10-05,1,,,,,オルリー,0
1701,6010903006839,新規,0,2021-10-05,2021-10-05,合同会社おやっとさぁ,,合同会社,東京都,世田谷区,桜上水４丁目１番Ｇ－７０８号,,13,112,1560045,,,,,,,2021-10-05,1,,,,,オヤットサァ,0
1706,6011001143046,新規,0,2021-10-05,2021-10-05,株式会社ＶｏＬｏ,,株式会社,東京都,渋谷区,神泉町１５番１５号クレストハウス神泉２０１,,13,113,1500045,,,,,,,2021-10-05,1,,,,,ヴォロ,0
1707,6011001143244,新規,0,2021-10-05,2021-10-05,株式会社ＴＳＪコンサルタント,,株式会社,東京都,渋谷区,代々木３丁目１３番１０号,,13,113,1510053,,,,,,,2021-10-05,1,,,,,ティーエスジェイ,0
1708,6011001143260,新規,0,2021-10-05,2021-10-05,ａｉｎｏｔｅ株式会社,,株式会社,東京都,渋谷区,円山町５番５号Ｎａｖｉ渋谷Ｖ３階,00124452,13,113,1500044,,,,,,,2021-10-05,1,,,,,アイノテ,0
1709,6011005009251,新規,0,2021-10-05,2021-10-05,Ｂｒａｎｃ　Ｐｏｒｔ税理士法人,,その他の設立登記法人,東京都,渋谷区,道玄坂１丁目１５番７号セントラル道玄坂７Ｆ,,13,113,1500043,,,,,,,2021-10-05,1,,,,,ブランポート,0
1712,6011101096425,新規,0,2021-10-05,2021-10-05,株式会社ベルネクスト,,株式会社,東京都,新宿区,西新宿５丁目５番１－２５１７号,,13,104,1600023,,,,,,,2021-10-05,1,,,,,ベルネクスト,0
1714,6011103011043,新規,0,2021-10-05,2021-10-05,ＩＮＦＩＮＩＭＥ合同会社,,合同会社,東京都,新宿区,新宿１丁目３６番２号新宿第七葉山ビル３階,,13,104,1600022,,,,,,,2021-10-05,1,,,,,インフィニミ,0
1717,6011201023287,新規,0,2021-10-05,2021-10-05,ｐｌａｎ＆ｄｅｃｏ株式会社,,株式会社,東京都,中野区,鷺宮５丁目１５番１５号,,13,114,1650032,,,,,,,2021-10-05,1,,,,,プランアンドデコ,0
1721,6011301027213,新規,0,2021-10-05,2021-10-05,株式会社アドナック,,株式会社,東京都,杉並区,下井草３丁目３６番１５号椿ハウス３,,13,115,1670022,,,,,,,2021-10-05,1,,,,,アドナック,0
1722,6011301027221,新規,0,2021-10-05,2021-10-05,株式会社武菱,,株式会社,東京都,杉並区,松ノ木２丁目１６番１６号ＭＹメゾン１０２号,,13,115,1660014,,,,,,,2021-10-05,1,,,,,タケビシ,0
1724,6011305002781,新規,0,2021-10-05,2021-10-05,行政書士法人不動産法務研究所,,その他の設立登記法人,東京都,杉並区,堀ノ内３丁目４９番３－２０３号,,13,115,1660013,,,,,,,2021-10-05,1,,,,,フドウサンホウムケンキュウジョ,0
1726,6011401023731,新規,0,2021-10-05,2021-10-05,株式会社ｅａ,,株式会社,東京都,板橋区,赤塚新町３丁目８番３号,,13,119,1750093,,,,,,,2021-10-05,1,,,,,エア,0
1729,6011503004919,新規,0,2021-10-05,2021-10-05,合同会社ルキア,,合同会社,東京都,北区,王子２丁目４番１３号,,13,117,1140002,,,,,,,2021-10-05,1,,,,,ルキア,0
1736,6011701024751,新規,0,2021-10-05,2021-10-05,株式会社ＴＲＡＮＳ－Ｉ,,株式会社,東京都,江戸川区,南篠崎町２丁目１３番１号ＳＨビル１階,,13,123,1330065,,,,,,,2021-10-05,1,,,,,トランスアイ,0
1740,6011803004809,新規,0,2021-10-05,2021-10-05,ＨＣナレッジ合同会社,,合同会社,東京都,葛飾区,高砂５丁目３９－１サンワールドビル３階,,13,122,1250054,,,,,,,2021-10-05,1,,,,,エイチシーナレッジ,0
1741,6012403005049,新規,0,2021-10-05,2021-10-05,合同会社庄司工務店,,合同会社,東京都,調布市,国領町５丁目２８番地８メゾンプチフォーレ１０７,,13,208,1820022,,,,,,,2021-10-05,1,,,,,ショウジコウムテン,0
1742,6012703002324,新規,0,2021-10-05,2021-10-05,ｏｆｆｉｃｅＭＲ合同会社,,合同会社,東京都,小平市,天神町１丁目２９番２７号,,13,211,1870004,,,,,,,2021-10-05,1,,,,,オフィスエムアール,0
1743,6012801021119,新規,0,2021-10-05,2021-10-05,ＰＲＯＳ　ＩＮＮＯＶＡＴＩＯＮ株式会社,,株式会社,東京都,昭島市,中神町２丁目２４番２１号,,13,207,1960022,,,,,,,2021-10-05,1,,,,,プロスイノベーション,0
1744,6012801021127,新規,0,2021-10-05,2021-10-05,株式会社ＰＮ,,株式会社,東京都,日野市,程久保３丁目２０番７号,,13,212,1910042,,,,,,,2021-10-05,1,,,,,,0
1754,6020001143261,新規,0,2021-10-05,2021-10-05,株式会社優栄ブルーハウジング,,株式会社,神奈川県,横浜市中区,日本大通７番地合人社横浜日本大通７ビル８階,,14,104,2310021,,,,,,,2021-10-05,1,,,,,ユウエイブルーハウジング,0
1755,6020001143286,新規,0,2021-10-05,2021-10-05,なかざわｂｕｒｉｋｉ株式会社,,株式会社,神奈川県,横浜市南区,別所５丁目２０番４２－２号,,14,105,2320064,,,,,,,2021-10-05,1,,,,,ナカザワブリキ,0
1759,6020003020558,新規,0,2021-10-05,2021-10-05,合同会社イチタスサン,,合同会社,神奈川県,川崎市高津区,末長１丁目３８番２０－３０７号,,14,134,2130013,,,,,,,2021-10-05,1,,,,,イチタスサン,0
1760,6020003020590,新規,0,2021-10-05,2021-10-05,合同会社シャルメール,,合同会社,神奈川県,横浜市鶴見区,佃野町１１番１１号,,14,101,2300061,,,,,,,2021-10-05,1,,,,,シャルメール,0
1762,6021001074091,新規,0,2021-10-05,2021-10-05,箱根開発株式会社,,株式会社,神奈川県,足柄下郡箱根町,箱根１５番地,,14,382,2500521,,,,,,,2021-10-05,1,,,,,ハコネカイハツ,0
1763,6021001074117,新規,0,2021-10-05,2021-10-05,株式会社クラウド・ブリッジ,,株式会社,神奈川県,三浦郡葉山町,長柄字松久保１６０１番地の１１９,,14,301,2400113,,,,,,,2021-10-05,1,,,,,クラウドブリッジ,0
1764,6021001074125,新規,0,2021-10-05,2021-10-05,株式会社Ｃａｓｔｌｅ　Ｐｏｔ,,株式会社,神奈川県,茅ヶ崎市,香川４丁目１１番１５号,,14,207,2530082,,,,,,,2021-10-05,1,,,,,カステルポット,0
1769,6021003010953,新規,0,2021-10-05,2021-10-05,ＢＥＡＲＤＳ合同会社,,合同会社,神奈川県,茅ヶ崎市,赤羽根４７２番地２１,,14,207,2530001,,,,,,,2021-10-05,1,,,,,ビアーズ,0
1779,6040001120390,新規,0,2021-10-05,2021-10-05,株式会社日乃出コーポレーション,,株式会社,千葉県,市川市,曽谷１丁目２８番９号,,12,203,2720832,,,,,,,2021-10-05,1,,,,,ヒノデコーポレーション,0
1780,6040001120465,新規,0,2021-10-05,2021-10-05,株式会社ｂｌｕｅ　ｇｒｅｅｎ,,株式会社,千葉県,市川市,市川１丁目８番１０号たつみビル２階,,12,203,2720034,,,,,,,2021-10-05,1,,,,,ブルーグリーン,0
1784,6040003018666,新規,0,2021-10-05,2021-10-05,合同会社フレール,,合同会社,千葉県,鎌ケ谷市,東道野辺６丁目２番１５号,,12,224,2730115,,,,,,,2021-10-05,1,,,,,フレール,0
1790,6060001034151,新規,0,2021-10-05,2021-10-05,株式会社ＨＡＩＲ　ＳＡＬＯＮ　ｍｉｎｔ,,株式会社,栃木県,小山市,駅南町３丁目１３番１５号,,09,208,3230822,,,,,,,2021-10-05,1,,,,,ヘアサロンミント,0
1792,6060005009901,新規,0,2021-10-05,2021-10-05,ＮＰＯ法人おやまワガママＬａｂ,,その他の設立登記法人,栃木県,小山市,神鳥谷２丁目３０番２号,,09,208,3230034,,,,,,,2021-10-05,1,,,,,オヤマワガママラボ,0
1793,6070001038481,新規,0,2021-10-05,2021-10-05,株式会社螢雪舎,,株式会社,群馬県,高崎市,下豊岡町２５４番地３,,10,202,3700873,,,,,,,2021-10-05,1,,,,,ケイセツシャ,0
1794,6070001038498,新規,0,2021-10-05,2021-10-05,株式会社オリーブ,,株式会社,群馬県,北群馬郡吉岡町,大字大久保８２番地２３,,10,345,3703602,,,,,,,2021-10-05,1,,,,,オリーブ,0
1795,6070001038507,新規,0,2021-10-05,2021-10-05,株式会社岳匠,,株式会社,群馬県,渋川市,金井３０２１番地７,,10,208,3770027,,,,,,,2021-10-05,1,,,,,ガクショウ,0
1802,6080001024472,新規,0,2021-10-05,2021-10-05,株式会社Ｍモータース,,株式会社,静岡県,榛原郡吉田町,住吉４３４２番地の１－Ａ棟,,22,424,4210301,,,,,,,2021-10-05,1,,,,,エムモータース,0
1805,6080103002426,新規,0,2021-10-05,2021-10-05,合同会社炭造工芸,,合同会社,静岡県,御殿場市,川島田６番地の２－２０７号,,22,215,4120045,,,,,,,2021-10-05,1,,,,,タンゾウコウゲイ,0
1806,6080401025392,新規,0,2021-10-05,2021-10-05,フロンティア株式会社,,株式会社,静岡県,浜松市浜北区,小松４８４番地,,22,136,4340042,,,,,,,2021-10-05,1,,,,,フロンティア,0
1811,6090003001964,新規,0,2021-10-05,2021-10-05,合同会社Ｒｉｎｇｂｅｌｌ,,合同会社,山梨県,甲府市,富士見１丁目３番１７号Ｄ棟,,19,201,4000027,,,,,,,2021-10-05,1,,,,,リングベル,0
1813,6100001034667,新規,0,2021-10-05,2021-10-05,株式会社経営創発研究所,,株式会社,長野県,上田市,武石小沢根５７６番地１３９,,20,203,3860504,,,,,,,2021-10-05,1,,,,,ケイエイソウハツケンキュウジョ,0
1843,6120001240825,新規,0,2021-10-05,2021-10-05,株式会社Ｔ２　Ｓｐｏｒｔｓ　Ｍａｎａｇｅｍｅｎｔ,,株式会社,大阪府,大阪市北区,天神橋１丁目１１番３－７０３号,,27,127,5300041,,,,,,,2021-10-05,1,,,,,ティーツースポーツマネジメント,0
1844,6120001240841,新規,0,2021-10-05,2021-10-05,株式会社カオスコンサルティング,,株式会社,大阪府,大阪市北区,南森町１丁目４番１９号,,27,127,5300054,,,,,,,2021-10-05,1,,,,,カオスコンサルティング,0
1845,6120001240899,新規,0,2021-10-05,2021-10-05,株式会社ＣＯＭＦＯＲＴ　ＰＬＵＳ,,株式会社,大阪府,大阪市淀川区,西中島７丁目１番３号,,27,123,5320011,,,,,,,2021-10-05,1,,,,,コンフオートプラス,0
1849,6120101064447,新規,0,2021-10-05,2021-10-05,株式会社タナカトラスト,,株式会社,大阪府,河内長野市,原町３丁目８番１０号,,27,216,5860021,,,,,,,2021-10-05,1,,,,,タナカトラスト,0
1851,6120901045027,新規,0,2021-10-05,2021-10-05,株式会社また明日,,株式会社,大阪府,吹田市,春日３丁目１７番９３号,,27,205,5650853,,,,,,,2021-10-05,1,,,,,マタアシタ,0
1857,6122001035222,新規,0,2021-10-05,2021-10-05,株式会社ナカモリ,,株式会社,大阪府,東大阪市,河内町５番１２号,,27,227,5798044,,,,,,,2021-10-05,1,,,,,ナカモリ,0
1858,6122001035247,新規,0,2021-10-05,2021-10-05,株式会社ホープ・エス,,株式会社,大阪府,大東市,新田北町４番２５号,,27,218,5740052,,,,,,,2021-10-05,1,,,,,ホープエス,0
1859,6122003002187,新規,0,2021-10-05,2021-10-05,合同会社ルルイノベーション,,合同会社,大阪府,東大阪市,鳥居町９番１２号,,27,227,5798035,,,,,,,2021-10-05,1,,,,,ルルイノベーション,0
1864,6130001070214,新規,0,2021-10-05,2021-10-05,丸富近藤株式会社,,株式会社,京都府,京都市下京区,和気町１３番地１グランスイート京都梅小路公園１１０４,,26,106,6008834,,,,,,,2021-10-05,1,,,,,マルトミコンドウ,0
1865,6130001070247,新規,0,2021-10-05,2021-10-05,庭園フーズ株式会社,,株式会社,京都府,京都市伏見区,御香宮門前町１８４－３蔵響館２－２,,26,109,6128039,,,,,,,2021-10-05,1,,,,,テイエンフーズ,0
1873,6140001123227,新規,0,2021-10-05,2021-10-05,株式会社庵心,,株式会社,兵庫県,神戸市中央区,布引町２丁目１番７号,,28,110,6510097,,,,,,,2021-10-05,1,,,,,アンシン,0
1876,6140003016809,新規,0,2021-10-05,2021-10-05,マナブサービス合同会社,,合同会社,兵庫県,姫路市,飾磨区三宅１丁目１０６番地プレステージ姫路Ｖ８０１号,00124451,28,201,6728048,,,,,,,2021-10-05,1,,,,,マナブサービス,0
1880,6150001024969,新規,0,2021-10-05,2021-10-05,アミックケア株式会社,,株式会社,奈良県,大和郡山市,番匠田中町６０番地１,,29,203,6391105,,,,,,,2021-10-05,1,,,,,アミックケア,0
1881,6160001023664,新規,0,2021-10-05,2021-10-05,株式会社西鉄筋,,株式会社,滋賀県,愛知郡愛荘町,石橋５５２番地３,,25,425,5291311,,,,,,,2021-10-05,1,,,,,ニシテッキン,0
1882,6160001023672,新規,0,2021-10-05,2021-10-05,株式会社ＫＯ　ＴＥＣ,,株式会社,滋賀県,甲賀市,甲賀町滝２３４８番地,,25,209,5203432,,,,,,,2021-10-05,1,,,,,ケーオーテック,0
1885,6180001148055,新規,0,2021-10-05,2021-10-05,株式会社田中建装,,株式会社,愛知県,名古屋市中川区,富永２丁目１７６番地の１０,,23,110,4540964,,,,,,,2021-10-05,1,,,,,タナカケンソウ,0
1886,6180001148071,新規,0,2021-10-05,2021-10-05,株式会社ＲＥＶＩＳＥ,,株式会社,愛知県,名古屋市天白区,野並２丁目２８４番地,,23,116,4680045,,,,,,,2021-10-05,1,,,,,リバイス,0
1887,6180001148113,新規,0,2021-10-05,2021-10-05,株式会社つむぎエステート,,株式会社,愛知県,名古屋市北区,志賀町４丁目１４番地の１ガーデンハイツ磯部第７・４０２号,,23,103,4620037,,,,,,,2021-10-05,1,,,,,ツムギエステート,0
1888,6180001148162,新規,0,2021-10-05,2021-10-05,株式会社Ｕ‐ＢＩＧ,,株式会社,愛知県,名古屋市中区,大須３丁目１６番１２号伊藤ビル２Ａ,,23,106,4600011,,,,,,,2021-10-05,1,,,,,ユービッグ,0
1891,6180301035440,新規,0,2021-10-05,2021-10-05,株式会社サクライト,,株式会社,愛知県,刈谷市,東新町２丁目３０９番地８,,23,210,4480031,,,,,,,2021-10-05,1,,,,,サクライト,0
1892,6180301035449,新規,0,2021-10-05,2021-10-05,株式会社Ｃ＆Ｍ,,株式会社,愛知県,西尾市,一色町味浜東下浜１４番地２,,23,213,4440422,,,,,,,2021-10-05,1,,,,,シーアンドエム,0
1893,6180301035457,新規,0,2021-10-05,2021-10-05,ＮＤＨ株式会社,,株式会社,愛知県,豊田市,土橋町４丁目５９番地１,,23,211,4710842,,,,,,,2021-10-05,1,,,,,エヌディエイチ,0
1896,6190001028735,新規,0,2021-10-05,2021-10-05,株式会社いつき,,株式会社,三重県,津市,羽所町３２３番地,,24,201,5140009,,,,,,,2021-10-05,1,,,,,イツキ,0
1897,6190001028743,新規,0,2021-10-05,2021-10-05,株式会社ワキダ,,株式会社,三重県,鈴鹿市,寺家町１１４０番地の５,,24,207,5100253,,,,,,,2021-10-05,1,,,,,ワキダ,0
1898,6190001028751,新規,0,2021-10-05,2021-10-05,株式会社斎藤電機,,株式会社,三重県,鈴鹿市,平野町７７２０番地８,,24,207,5130835,,,,,,,2021-10-05,1,,,,,サイトウデンキ,0
1903,6200001039202,新規,0,2021-10-05,2021-10-05,株式会社林工務店,,株式会社,岐阜県,美濃市,大字前野字上野６１９番地の２,,21,207,5013701,,,,,,,2021-10-05,1,,,,,ハヤシコウムテン,0
1904,6200001039219,新規,0,2021-10-05,2021-10-05,株式会社ラシーサホーム,,株式会社,岐阜県,岐阜市,加野１丁目１３番１１号,,21,201,5013107,,,,,,,2021-10-05,1,,,,,ラシーサホーム,0
1905,6200001039227,新規,0,2021-10-05,2021-10-05,株式会社Ｂｅｌ　Ｓｕｏｎｏ,,株式会社,岐阜県,不破郡関ケ原町,大字関ケ原３３４６番地の５,,21,362,5031501,,,,,,,2021-10-05,1,,,,,ベルスォーノ,0
1906,6200001039235,新規,0,2021-10-05,2021-10-05,株式会社ルーツ,,株式会社,岐阜県,瑞浪市,土岐町１１５３番地の１,,21,208,5096101,,,,,,,2021-10-05,1,,,,,ルーツ,0
1911,6230003001735,新規,0,2021-10-05,2021-10-05,合同会社Ｂｒｉｇｈｔｅｎ　Ｅｙｅｓ,,合同会社,富山県,砺波市,豊町２丁目１１番２０号メゾンド・サン・コークＩＩ１０２,00124449,16,208,9391364,,,,,,,2021-10-05,1,,,,,ブライトゥンアイズ,0
1912,6230005009173,新規,0,2021-10-05,2021-10-05,一般社団法人イヌワシ保護協会,,その他の設立登記法人,富山県,富山市,大山上野６１５番地１０,,16,201,9301321,,,,,,,2021-10-05,1,,,,,イヌワシホゴキョウカイ,0
1914,6240001058693,新規,0,2021-10-05,2021-10-05,株式会社Ｅ．ＳＦ,,株式会社,広島県,東広島市,高屋町造賀２４８番地２,,34,212,7392101,,,,,,,2021-10-05,1,,,,,イードットエスエフ,0
1915,6240001058702,新規,0,2021-10-05,2021-10-05,株式会社新宅工務店,,株式会社,広島県,三原市,明神２丁目３番２号,,34,204,7230046,,,,,,,2021-10-05,1,,,,,シンタクコウムテン,0
1916,6240001058710,新規,0,2021-10-05,2021-10-05,南台爾株式会社,,株式会社,広島県,東広島市,西条町郷曽１０３４０－４アルソーレ東広島七番館１０４号室,,34,212,7390035,,,,,,,2021-10-05,1,,,,,ナンタイル,0
1921,6260001036037,新規,0,2021-10-05,2021-10-05,株式会社ＯＩＴコンサルティング,,株式会社,岡山県,岡山市北区,奉還町３丁目１番３０号ラ・リュ奉還町２１０,,33,101,7000026,,,,,,,2021-10-05,1,,,,,オーアイティーコンサルティング,0
1922,6260001036053,新規,0,2021-10-05,2021-10-05,株式会社ＥＩＧＨＴＨ,,株式会社,岡山県,倉敷市,水江８７２番地４カトーナヴィラ２０６,,33,202,7100802,,,,,,,2021-10-05,1,,,,,エイス,0
1923,6260001036061,新規,0,2021-10-05,2021-10-05,株式会社Ｌｉｋｅｓ,,株式会社,岡山県,岡山市南区,豊浜町八丁目３６番１号,,33,104,7000853,,,,,,,2021-10-05,1,,,,,ライクス,0
1926,6280001008521,新規,0,2021-10-05,2021-10-05,株式会社ＨＡＩＲ　ＳＡＬＯＮ　ＩＮＯＵＥ,,株式会社,島根県,出雲市,塩冶有原町６丁目４２番地１,,32,203,6930023,,,,,,,2021-10-05,1,,,,,ヘアサロンイノウエ,0
1931,6290001094858,新規,0,2021-10-05,2021-10-05,株式会社Ａ’ｍｙｕ,,株式会社,福岡県,糟屋郡粕屋町,大字仲原１８３２番地１,,40,349,8112304,,,,,,,2021-10-05,1,,,,,アミュー,0
1932,6290001094874,新規,0,2021-10-05,2021-10-05,株式会社福丸技研,,株式会社,福岡県,福岡市東区,多の津５丁目５２番１３号,,40,131,8130034,,,,,,,2021-10-05,1,,,,,フクマルギケン,0
1933,6290001094882,新規,0,2021-10-05,2021-10-05,グリンアカウンティング株式会社,,株式会社,福岡県,筑紫野市,光が丘３丁目８番地９,,40,217,8180036,,,,,,,2021-10-05,1,,,,,グリンアカウンティング,0
1937,6290003011679,新規,0,2021-10-05,2021-10-05,合同会社ＦｏｒＧｅｔ,,合同会社,福岡県,福岡市南区,弥永２丁目４番２２号,,40,134,8111323,,,,,,,2021-10-05,1,,,,,フォーゲット,0
1940,6290005018383,新規,0,2021-10-05,2021-10-05,税理士法人トライフォース,,その他の設立登記法人,福岡県,福岡市中央区,赤坂１丁目４番１号,,40,133,8100042,,,,,,,2021-10-05,1,,,,,トライフォース,0
1942,6290801027868,新規,0,2021-10-05,2021-10-05,株式会社ＪＳＰ,,株式会社,福岡県,北九州市小倉南区,守恒本町３丁目１番１１号,,40,107,8020971,,,,,,,2021-10-05,1,,,,,ジェイエスピー,0
1943,6290801027876,新規,0,2021-10-05,2021-10-05,株式会社ＯＴＴＩ,,株式会社,福岡県,北九州市小倉北区,足立３丁目１番９号,,40,106,8020042,,,,,,,2021-10-05,1,,,,,オッティ,0
1946,6310003004176,新規,0,2021-10-05,2021-10-05,合同会社ＪＵＮ,,合同会社,長崎県,長崎市,川原町１９３番地３,,42,201,8510407,,,,,,,2021-10-05,1,,,,,ジュン,0
1947,6320001018648,新規,0,2021-10-05,2021-10-05,株式会社山本電工,,株式会社,大分県,由布市,挾間町赤野３０４番地４,,44,213,8795516,,,,,,,2021-10-05,1,,,,,ヤマモトデンコウ,0
1953,6330001029041,新規,0,2021-10-05,2021-10-05,株式会社ＡＲＴｚ,,株式会社,熊本県,菊池市,片角１７２番地４,,43,210,8611307,,,,,,,2021-10-05,1,,,,,アーツ,0
1956,6330003009066,新規,0,2021-10-05,2021-10-05,合同会社Ｎｅｗ　ｄｉｓｃｏｖｅｒｙ,,合同会社,熊本県,熊本市北区,四方寄町６８５番地１ヴィラ１０６,,43,105,8615515,,,,,,,2021-10-05,1,,,,,ニューディスカバリー,0
1957,6330003009074,新規,0,2021-10-05,2021-10-05,合同会社五福星,,合同会社,熊本県,熊本市中央区,本荘町７２０番地１,,43,101,8600816,,,,,,,2021-10-05,1,,,,,ゴフクセイ,0
1959,6340001024149,新規,0,2021-10-05,2021-10-05,株式会社メタルワーカー,,株式会社,鹿児島県,鹿児島市,上福元町５６０６番地１,,46,201,8910116,,,,,,,2021-10-05,1,,,,,メタルワーカー,0
1960,6340001024157,新規,0,2021-10-05,2021-10-05,株式会社ｅｎ,,株式会社,鹿児島県,鹿児島市,下荒田４丁目２４番２１号,,46,201,8900056,,,,,,,2021-10-05,1,,,,,エン,0
1962,6340003003588,新規,0,2021-10-05,2021-10-05,合同会社ＳＡ,,合同会社,鹿児島県,鹿児島市,照国町１１番２７号,,46,201,8920841,,,,,,,2021-10-05,1,,,,,エスエイ,0
1967,6350001017333,新規,0,2021-10-05,2021-10-05,株式会社シイロ,,株式会社,宮崎県,児湯郡高鍋町,大字上江７６１８番地,,45,401,8840006,,,,,,,2021-10-05,1,,,,,シイロ,0
1969,6350003003942,新規,0,2021-10-05,2021-10-05,合同会社ＫＡＭＥＮＯＣＯ,,合同会社,宮崎県,都城市,下川東２丁目３３６４番地７,,45,202,8850011,,,,,,,2021-10-05,1,,,,,カメノコ,0
1972,6360003011481,新規,0,2021-10-05,2021-10-05,結サービス合同会社,,合同会社,沖縄県,中頭郡北中城村,字安谷屋１３５６ＭＡＳＡ住宅ＩＩ２階,00124437,47,327,9012316,,,,,,,2021-10-05,1,,,,,ユイサービス,0
1973,6360005006521,新規,0,2021-10-05,2021-10-05,一般社団法人人も犬も猫も幸せなまち創り隊ＯＫＩＮＡＷＡ,,その他の設立登記法人,沖縄県,那覇市,銘苅２丁目３番１号なは市民協働プラザ２階,,47,201,9000004,,,,,,,2021-10-05,1,,,,,ヒトモイヌモネコモシアワセナマチツクリタイオキナワ,0
1977,6370001047675,新規,0,2021-10-05,2021-10-05,株式会社ヒューマン,,株式会社,宮城県,塩竈市,西玉川町７番６号,,04,203,9850045,,,,,,,2021-10-05,1,,,,,ヒューマン,0
1978,6370003005425,新規,0,2021-10-05,2021-10-05,清野営繕合同会社,,合同会社,宮城県,仙台市太白区,砂押町５番１号,,04,104,9820025,,,,,,,2021-10-05,1,,,,,セイノエイゼン,0
1984,6380003005028,新規,0,2021-10-05,2021-10-05,テクノ東北合同会社,,合同会社,福島県,福島市,下鳥渡字新町２３番地２,,07,201,9601106,,,,,,,2021-10-05,1,,,,,,0
1985,6390001016612,新規,0,2021-10-05,2021-10-05,株式会社サイトウオート,,株式会社,山形県,山形市,江俣１丁目９番４３号,,06,201,9900861,,,,,,,2021-10-05,1,,,,,サイトウオート,0
1998,6430001085090,新規,0,2021-10-05,2021-10-05,株式会社ＧＲＯＷ　ＵＰ,,株式会社,北海道,夕張郡栗山町,字御園７３３番地１,,01,429,0680355,,,,,,,2021-10-05,1,,,,,グローアップ,0
2005,6450003002133,新規,0,2021-10-05,2021-10-05,合同会社河内館Ｅ,,合同会社,北海道,旭川市,四条通６丁目４０５番地の１,,01,204,0700034,,,,,,,2021-10-05,1,,,,,カワウチカンイー,0
2006,6450003002141,新規,0,2021-10-05,2021-10-05,Ｂｉｎａ合同会社,,合同会社,北海道,上川郡東川町,１０７３－１５１,,01,458,0711400,,,,,,,2021-10-05,1,,,,,ビナ,0
2010,6460401001231,新規,0,2021-10-05,2021-10-05,株式会社マルカワ水産,,株式会社,北海道,根室市,穂香７番地１,,01,223,0870037,,,,,,,2021-10-05,1,,,,,マルカワスイサン,0
2013,6470001018749,新規,0,2021-10-05,2021-10-05,株式会社ビューティラボジャパン,,株式会社,香川県,高松市,国分寺町新名７５１番地１,,37,201,7690104,,,,,,,2021-10-05,1,,,,,ビューティラボジャパン,0
2015,6470003002049,新規,0,2021-10-05,2021-10-05,合同会社池添塗装,,合同会社,香川県,坂出市,林田町３８３４番地２,,37,203,7620012,,,,,,,2021-10-05,1,,,,,イケゾエトソウ,0
2016,6470005006386,新規,0,2021-10-05,2021-10-05,農事組合法人打越グリーンファーム,,その他の設立登記法人,香川県,丸亀市,綾歌町岡田上２２４６番地３,,37,202,7612401,,,,,,,2021-10-05,1,,,,,ウチコシグリーンファーム,0
2017,6480003001735,新規,0,2021-10-05,2021-10-05,合同会社ぽんぽこ,,合同会社,徳島県,小松島市,日開野町字行地３２番地の６,,36,203,7730010,,,,,,,2021-10-05,1,,,,,ポンポコ,0
2031,7010001221513,新規,0,2021-10-05,2021-10-05,株式会社鬼喜,,株式会社,東京都,中央区,入船１丁目９番６号１Ｆ,,13,102,1040042,,,,,,,2021-10-05,1,,,,,キキ,0
2033,7010003035911,新規,0,2021-10-05,2021-10-05,Ｂ＆Ｓ合同会社,,合同会社,東京都,文京区,向丘１丁目２０－６－３０３,,13,105,1130023,,,,,,,2021-10-05,1,,,,,ビーアンドエス,0
2043,7010401162984,新規,0,2021-10-05,2021-10-05,株式会社ＫＩＮＤ,,株式会社,東京都,港区,浜松町１丁目１２番３－７０４号,,13,103,1050013,,,,,,,2021-10-05,1,,,,,カインド,0
2044,7010401163000,新規,0,2021-10-05,2021-10-05,株式会社Ｆｒａｎｋｉｎｃｅｎｓｅ,,株式会社,東京都,港区,北青山２丁目１２－３５,,13,103,1070061,,,,,,,2021-10-05,1,,,,,フランキンセンス,0
2045,7010401163041,新規,0,2021-10-05,2021-10-05,株式会社Ｐｉｃｋ　ａｎｄ　Ｒｏｌｌ,,株式会社,東京都,港区,南青山６丁目９－５－７０３,,13,103,1070062,,,,,,,2021-10-05,1,,,,,ピックアンドロール,0
2046,7010401163074,新規,0,2021-10-05,2021-10-05,アルスラ株式会社,,株式会社,東京都,港区,南青山２丁目２番１５号,,13,103,1070062,,,,,,,2021-10-05,1,,,,,アルスラ,0
2047,7010501047895,新規,0,2021-10-05,2021-10-05,ムラセコンサル株式会社,,株式会社,東京都,台東区,今戸１丁目３－１５,,13,106,1110024,,,,,,,2021-10-05,1,,,,,ムラセコンサル,0
2048,7010503006404,新規,0,2021-10-05,2021-10-05,ナマ合同会社,,合同会社,東京都,台東区,谷中６丁目１番４号,,13,106,1100001,,,,,,,2021-10-05,1,,,,,ナマ,0
2053,7010801032366,新規,0,2021-10-05,2021-10-05,ＡｉＴＩＡ株式会社,,株式会社,東京都,大田区,東雪谷３丁目７番５号,,13,111,1450065,,,,,,,2021-10-05,1,,,,,アイティア,0
2054,7010901049566,新規,0,2021-10-05,2021-10-05,株式会社クレックス,,株式会社,東京都,世田谷区,上用賀６丁目２０－４－８０７,,13,112,1580098,,,,,,,2021-10-05,1,,,,,クレックス,0
2055,7010903006846,新規,0,2021-10-05,2021-10-05,合同会社Ｒｉｃｃａ,,合同会社,東京都,世田谷区,野沢４丁目２３番１４号,,13,112,1540003,,,,,,,2021-10-05,1,,,,,リッカ,0
2059,7011001143185,新規,0,2021-10-05,2021-10-05,株式会社ＳｉＳ,,株式会社,東京都,渋谷区,松濤１丁目２８番２号,,13,113,1500046,,,,,,,2021-10-05,1,,,,,シス,0
2060,7011001143227,新規,0,2021-10-05,2021-10-05,株式会社ウィルビーマネジメント,,株式会社,東京都,渋谷区,千駄ヶ谷３丁目３７番５－２０２号,,13,113,1510051,,,,,,,2021-10-05,1,,,,,ウィルビーマネジメント,0
2061,7011101096408,新規,0,2021-10-05,2021-10-05,株式会社Ｔｒａｎｓｉｒｅ　Ｐｏｎｔａｍ,,株式会社,東京都,新宿区,新宿５丁目１０－２１ヴィラエンゼル４０３,,13,104,1600022,,,,,,,2021-10-05,1,,,,,トランシーレポータン,0
2062,7011101096416,新規,0,2021-10-05,2021-10-05,株式会社ＡＴＩＡ,,株式会社,東京都,新宿区,上落合２丁目７番１４号,,13,104,1610034,,,,,,,2021-10-05,1,,,,,アティア,0
2063,7011101096432,新規,0,2021-10-05,2021-10-05,株式会社Ｓｐａｃｅｌｉｖｅ,,株式会社,東京都,新宿区,歌舞伎町２丁目１１番４号リースリービル８階,,13,104,1600021,,,,,,,2021-10-05,1,,,,,スペースライブ,0
2077,7011601025436,新規,0,2021-10-05,2021-10-05,株式会社Ｓｏｌ,,株式会社,東京都,練馬区,中村南３丁目１３－５,,13,120,1760025,,,,,,,2021-10-05,1,,,,,ソル,0
2088,7012403005048,新規,0,2021-10-05,2021-10-05,合同会社あつき,,合同会社,東京都,武蔵野市,吉祥寺東町４丁目１０番１８号カーサ１４１－２０１,,13,203,1800002,,,,,,,2021-10-05,1,,,,,アツキ,0
2089,7012701016696,新規,0,2021-10-05,2021-10-05,株式会社染谷建築板金工業,,株式会社,東京都,東久留米市,南沢３丁目１３番２０号,,13,222,2030023,,,,,,,2021-10-05,1,,,,,ソメヤケンチクバンキンコウギョウ,0
2094,7013301048089,新規,0,2021-10-05,2021-10-05,株式会社ｏｎｅ　ｓｔｅｐ,,株式会社,東京都,豊島区,東池袋４丁目５番１－２３０２号,,13,116,1700013,,,,,,,2021-10-05,1,,,,,ワンステップ,0
2102,7020001143293,新規,0,2021-10-05,2021-10-05,ペンタスケアマネジメント株式会社,,株式会社,神奈川県,横浜市保土ケ谷区,東川島町６２番地２,,14,106,2400041,,,,,,,2021-10-05,1,,,,,ペンタスケアマネジメント,0
2103,7020001143302,新規,0,2021-10-05,2021-10-05,株式会社Ｔｏｄｏｃｏｏｌ,,株式会社,神奈川県,横浜市都筑区,仲町台１丁目２８番７号,,14,118,2240041,,,,,,,2021-10-05,1,,,,,トドクール,0
2104,7020001143319,新規,0,2021-10-05,2021-10-05,ＨＩＫＡＲＵ経営株式会社,,株式会社,神奈川県,川崎市多摩区,菅北浦２丁目１６番１３－３号,,14,135,2140008,,,,,,,2021-10-05,1,,,,,ヒカルケイエイ,0
2112,7021001074108,新規,0,2021-10-05,2021-10-05,優悠株式会社,,株式会社,神奈川県,茅ヶ崎市,高田５丁目４番５号,,14,207,2530002,,,,,,,2021-10-05,1,,,,,ユウユウ,0
2113,7021001074149,新規,0,2021-10-05,2021-10-05,ヨコマチテクノ株式会社,,株式会社,神奈川県,相模原市南区,大野台６丁目５番３－１０４号,,14,153,2520331,,,,,,,2021-10-05,1,,,,,ヨコマチテクノ,0
2130,7030001144621,新規,0,2021-10-05,2021-10-05,ウェルパーソンズ株式会社,,株式会社,埼玉県,さいたま市大宮区,土手町１丁目２番地,,11,103,3300801,,,,,,,2021-10-05,1,,,,,ウェルパーソンズ,0
2131,7030001144654,新規,0,2021-10-05,2021-10-05,株式会社東洋産業,,株式会社,埼玉県,飯能市,仲町２２番１３号,,11,209,3570038,,,,,,,2021-10-05,1,,,,,トウヨウサンギョウ,0
2136,7030003018055,新規,0,2021-10-05,2021-10-05,ケイアールティー合同会社,,合同会社,埼玉県,三郷市,泉２丁目７番地２０,,11,237,3410054,,,,,,,2021-10-05,1,,,,,ケイアールティー,0
2140,7040001120349,新規,0,2021-10-05,2021-10-05,株式会社宮下タイル,,株式会社,千葉県,大網白里市,南横川３０９２番地１９,,12,239,2993223,,,,,,,2021-10-05,1,,,,,ミヤシタタイル,0
2141,7040001120407,新規,0,2021-10-05,2021-10-05,いしむら経営コンサルタント株式会社,,株式会社,千葉県,千葉市中央区,富士見１丁目１４番１３号千葉大栄ビル８階,,12,101,2600015,,,,,,,2021-10-05,1,,,,,イシムラケイエイコンサルタント,0
2144,7040003018582,新規,0,2021-10-05,2021-10-05,ＪＭＤ合同会社,,合同会社,千葉県,松戸市,新松戸３丁目７７番地市橋ハイツ１０５号,,12,207,2700034,,,,,,,2021-10-05,1,,,,,ジェイエムディ,0
2145,7040003018673,新規,0,2021-10-05,2021-10-05,合同会社Ｃａｓｃａｄｅ,,合同会社,千葉県,佐倉市,江原２７０－１アークヒルズＪ２０３,,12,212,2850824,,,,,,,2021-10-05,1,,,,,カスケード,0
2149,7050005012946,新規,0,2021-10-05,2021-10-05,一般社団法人アジラボ,,その他の設立登記法人,茨城県,ひたちなか市,阿字ケ浦町２２３７番地１,,08,221,3111201,,,,,,,2021-10-05,1,,,,,アジラボ,0
2150,7060001034159,新規,0,2021-10-05,2021-10-05,株式会社ＮＯＫＹ,,株式会社,栃木県,宇都宮市,針ヶ谷町４７２番地７４,,09,201,3210147,,,,,,,2021-10-05,1,,,,,ノーキー,0
2154,7070001038489,新規,0,2021-10-05,2021-10-05,株式会社エムテック,,株式会社,群馬県,太田市,東金井町４７番地２,,10,205,3730022,,,,,,,2021-10-05,1,,,,,エムテック,0
2155,7070001038506,新規,0,2021-10-05,2021-10-05,株式会社ＴＯＳ,,株式会社,群馬県,伊勢崎市,連取町３１０５番地４,,10,204,3720812,,,,,,,2021-10-05,1,,,,,ティーオーエス,0
2157,7080001024488,新規,0,2021-10-05,2021-10-05,Ｉ’ｓ株式会社,,株式会社,静岡県,静岡市清水区,三保９２番地の７,,22,103,4240901,,,,,,,2021-10-05,1,,,,,アイズ,0
2158,7080101022813,新規,0,2021-10-05,2021-10-05,株式会社Ｒｅｓｉｓｔ,,株式会社,静岡県,沼津市,西間門１５６番地の１,,22,203,4100871,,,,,,,2021-10-05,1,,,,,レジスト,0
2164,7080401025391,新規,0,2021-10-05,2021-10-05,磯野建設株式会社,,株式会社,静岡県,浜松市浜北区,善地３８６番地の１０,,22,136,4340025,,,,,,,2021-10-05,1,,,,,イソノケンセツ,0
2165,7080403004377,新規,0,2021-10-05,2021-10-05,合同会社クライン,,合同会社,静岡県,浜松市西区,湖東町２８７７番地,,22,133,4311103,,,,,,,2021-10-05,1,,,,,クライン,0
2167,7090001017219,新規,0,2021-10-05,2021-10-05,株式会社糸,,株式会社,山梨県,甲斐市,團子新居４１９番地１０,,19,210,4000102,,,,,,,2021-10-05,1,,,,,イト,0
2172,7100001034674,新規,0,2021-10-05,2021-10-05,株式会社ｖｉｒｅｔ,,株式会社,長野県,長野市,大字徳間３３１０番地１,,20,201,3810041,,,,,,,2021-10-05,1,,,,,ヴィレット,0
2173,7100002009948,新規,0,2021-10-05,2021-10-05,有限会社玉の湯,,有限会社,長野県,千曲市,上山田温泉１丁目５９番地１１,,20,218,3890821,,,,,,,2021-10-05,1,,,,,タマノユ,0
2179,7110001036083,新規,0,2021-10-05,2021-10-05,株式会社ＲＥＢＩＲＴＨ佐渡,,株式会社,新潟県,佐渡市,吾潟３９番地２,,15,224,9523421,,,,,,,2021-10-05,1,,,,,リバースサド,0
2195,7120001240865,新規,0,2021-10-05,2021-10-05,株式会社ＢｉｏＬａｂＭｅｉｓｔｅｒ,,株式会社,大阪府,大阪市北区,大深町３番１号グランフロント大阪タワーＢ棟１４階,,27,127,5300011,,,,,,,2021-10-05,1,,,,,バイオラボマイスター,0
2196,7120001240873,新規,0,2021-10-05,2021-10-05,株式会社ｃｈｉｌｌ　ｌｏｖｅｒｓ,,株式会社,大阪府,大阪市浪速区,幸町１丁目２－５－７０３号,,27,111,5560021,,,,,,,2021-10-05,1,,,,,チルラバーズ,0
2197,7120001240907,新規,0,2021-10-05,2021-10-05,株式会社Ｇａｉｎマネジメント,,株式会社,大阪府,大阪市生野区,田島４丁目７番７号,,27,116,5440011,,,,,,,2021-10-05,1,,,,,ゲインマネジメント,0
2198,7120001240915,新規,0,2021-10-05,2021-10-05,株式会社アーチ,,株式会社,大阪府,大阪市平野区,長吉六反２丁目６番２６号,,27,126,5470012,,,,,,,2021-10-05,1,,,,,アーチ,0
2202,7120003020340,新規,0,2021-10-05,2021-10-05,合同会社ＯＮＩＧＩＲＩ,,合同会社,大阪府,大阪市都島区,都島南通１丁目１３番１４－１１０１号,,27,102,5340023,,,,,,,2021-10-05,1,,,,,オニギリ,0
2204,7120101064446,新規,0,2021-10-05,2021-10-05,株式会社ＬＩＢＥＲＴＥ,,株式会社,大阪府,和泉市,阪本町３７７番地の４,,27,219,5940052,,,,,,,2021-10-05,1,,,,,リベルテ,0
2208,7120903003849,新規,0,2021-10-05,2021-10-05,彩煌合同会社,,合同会社,大阪府,吹田市,千里丘北１番２８－４１８号,,27,205,5650815,,,,,,,2021-10-05,1,,,,,アオ,0
2214,7130003007527,新規,0,2021-10-05,2021-10-05,合同会社ＲＥＳＴＯＲＥ,,合同会社,京都府,京都市西京区,大原野東野町３番４２３,,26,111,6101122,,,,,,,2021-10-05,1,,,,,レストア,0
2220,7140001123226,新規,0,2021-10-05,2021-10-05,株式会社ＨＥＡＲＫＯ,,株式会社,兵庫県,神戸市中央区,磯上通８丁目１番２９号カサベラビルＣ＆Ｍ４０３号室,,28,110,6510086,,,,,,,2021-10-05,1,,,,,ハーコ,0
2221,7140001123242,新規,0,2021-10-05,2021-10-05,株式会社ＰＵＥＮＴＥ,,株式会社,兵庫県,尼崎市,南武庫之荘３丁目３５－１,,28,202,6610033,,,,,,,2021-10-05,1,,,,,プエンテ,0
2223,7140003016808,新規,0,2021-10-05,2021-10-05,プレジー合同会社,,合同会社,兵庫県,西宮市,枝川町１７番２１号,,28,204,6638143,,,,,,,2021-10-05,1,,,,,プレジー,0
2224,7150001024968,新規,0,2021-10-05,2021-10-05,株式会社心整体,,株式会社,奈良県,葛城市,忍海３６５－１,,29,211,6392123,,,,,,,2021-10-05,1,,,,,シンセイタイ,0
2227,7160003002392,新規,0,2021-10-05,2021-10-05,合同会社ＣＡＳＥ,,合同会社,滋賀県,野洲市,野洲１９４番地１,,25,210,5202342,,,,,,,2021-10-05,1,,,,,ケース,0
2233,7180001148095,新規,0,2021-10-05,2021-10-05,株式会社ソルーナボーイ,,株式会社,愛知県,名古屋市東区,主税町２丁目２９番地,,23,102,4610018,,,,,,,2021-10-05,1,,,,,ソルーナボーイ,0
2234,7180001148161,新規,0,2021-10-05,2021-10-05,わにぞう商店株式会社,,株式会社,愛知県,清須市,土器野７６８番地,,23,233,4520914,,,,,,,2021-10-05,1,,,,,ワニゾウショウテン,0
2237,7180003023032,新規,0,2021-10-05,2021-10-05,合同会社ＥＬＬＩＰＳＹＳ,,合同会社,愛知県,名古屋市昭和区,神村町１丁目２８番地ビューテラス２０４号室,,23,107,4660802,,,,,,,2021-10-05,1,,,,,エリプシス,0
2238,7180301035423,新規,0,2021-10-05,2021-10-05,株式会社タナテック,,株式会社,愛知県,蒲郡市,竹谷町奥林２７番地７,,23,214,4430046,,,,,,,2021-10-05,1,,,,,タナテック,0
2239,7180301035431,新規,0,2021-10-05,2021-10-05,株式会社成瀬化工,,株式会社,愛知県,岡崎市,大平町字東田潰３３番地,,23,202,4440007,,,,,,,2021-10-05,1,,,,,ナルセカコウ,0
2240,7180301035448,新規,0,2021-10-05,2021-10-05,株式会社加納歯研,,株式会社,愛知県,豊川市,八幡町野路１００番地,,23,207,4420857,,,,,,,2021-10-05,1,,,,,カノウシケン,0
2248,7200001039242,新規,0,2021-10-05,2021-10-05,株式会社上平,,株式会社,岐阜県,恵那市,岩村町飯羽間３５７８番地２,,21,210,5097401,,,,,,,2021-10-05,1,,,,,ウエダイラ,0
2251,7220001024449,新規,0,2021-10-05,2021-10-05,株式会社真造,,株式会社,石川県,かほく市,学園台３丁目５７番地,,17,209,9291210,,,,,,,2021-10-05,1,,,,,シンゾウ,0
2252,7220001024457,新規,0,2021-10-05,2021-10-05,株式会社Ｓｎｉｐ,,株式会社,石川県,金沢市,暁町７番１６－１号,,17,201,9200926,,,,,,,2021-10-05,1,,,,,スニップ,0
2253,7220001024465,新規,0,2021-10-05,2021-10-05,ＨＴフードサービス株式会社,,株式会社,石川県,金沢市,桜田町３丁目３０番地１（サーパス桜田町一番館・７０２号）,,17,201,9200057,,,,,,,2021-10-05,1,,,,,エイチティーフードサービス,0
2254,7220003003129,新規,0,2021-10-05,2021-10-05,アクトエム合同会社,,合同会社,石川県,小松市,浜田町ロ５０番地,,17,203,9230907,,,,,,,2021-10-05,1,,,,,アクトエム,0
2259,7240001058701,新規,0,2021-10-05,2021-10-05,株式会社サンマルコ,,株式会社,広島県,福山市,延広町６番１号,,34,207,7200064,,,,,,,2021-10-05,1,,,,,サンマルコ,0
2263,7240003005305,新規,0,2021-10-05,2021-10-05,フィールド合同会社,,合同会社,広島県,広島市西区,東観音町３番２２－４０２号,,34,104,7330032,,,,,,,2021-10-05,1,,,,,フィールド,0
2269,7260001036036,新規,0,2021-10-05,2021-10-05,株式会社ＣＲＡＦＴ,,株式会社,岡山県,笠岡市,美の浜９番地４４,,33,205,7140042,,,,,,,2021-10-05,1,,,,,クラフト,0
2270,7260001036044,新規,0,2021-10-05,2021-10-05,株式会社ｇｒｅｉｎ,,株式会社,岡山県,都窪郡早島町,早島２７９３番地４,,33,423,7010304,,,,,,,2021-10-05,1,,,,,グレイン,0
2274,7260005010978,新規,0,2021-10-05,2021-10-05,司法書士法人ももたろう総合事務所,,その他の設立登記法人,岡山県,倉敷市,西中新田６１９番地１,,33,202,7100833,,,,,,,2021-10-05,1,,,,,モモタロウソウゴウジムショ,0
2275,7280001008520,新規,0,2021-10-05,2021-10-05,株式会社山陰綜合会計,,株式会社,島根県,出雲市,今市町１４１４番地５,,32,203,6930001,,,,,,,2021-10-05,1,,,,,サンインソウゴウカイケイ,0
2283,7290001094865,新規,0,2021-10-05,2021-10-05,株式会社ＮＷＡＮ,,株式会社,福岡県,福岡市城南区,片江１丁目２７番１２－１０２号,,40,136,8140142,,,,,,,2021-10-05,1,,,,,エヌワン,0
2284,7290001094881,新規,0,2021-10-05,2021-10-05,株式会社スリーエス,,株式会社,福岡県,福岡市博多区,美野島４丁目１番２－１０４号,,40,132,8120017,,,,,,,2021-10-05,1,,,,,スリーエス,0
2288,7290003011678,新規,0,2021-10-05,2021-10-05,合同会社ＯＬＩＶＡ,,合同会社,福岡県,福岡市早良区,内野７丁目２１番７号,,40,137,8111123,,,,,,,2021-10-05,1,,,,,オリバ,0
2291,7290801027859,新規,0,2021-10-05,2021-10-05,株式会社アラキ,,株式会社,福岡県,京都郡苅田町,桜ヶ丘８番地２,,40,621,8000357,,,,,,,2021-10-05,1,,,,,アラキ,0
2292,7310001017518,新規,0,2021-10-05,2021-10-05,株式会社伊崎建設,00124438,株式会社,長崎県,南島原市,西有家町須川１８１４番地,,42,214,8592212,,,,,,,2021-10-05,1,,,,,イザキケンセツ,0
2296,7320001018639,新規,0,2021-10-05,2021-10-05,株式会社おはら果樹園ｆｉｒｍ,,株式会社,大分県,中津市,三光田口３２８６番地４１,,44,203,8710103,,,,,,,2021-10-05,1,,,,,オハラカジュエンファーム,0
2297,7320001018647,新規,0,2021-10-05,2021-10-05,株式会社ＡＲＭ大分,,株式会社,大分県,別府市,大字内竈２６１１番地の５,,44,202,8740011,,,,,,,2021-10-05,1,,,,,アームオオイタ,0
2300,7320003003622,新規,0,2021-10-05,2021-10-05,合同会社ａｌｖａｖｉｎｃｉ,,合同会社,大分県,大分市,古国府５丁目２－７Ｃ１０２,,44,201,8700844,,,,,,,2021-10-05,1,,,,,アルヴァヴィンチ,0
2305,7330001029024,新規,0,2021-10-05,2021-10-05,株式会社ＤＮＤ,,株式会社,熊本県,山鹿市,山鹿９８９番地２階,,43,208,8610501,,,,,,,2021-10-05,1,,,,,ディーエヌディー,0
2306,7330001029032,新規,0,2021-10-05,2021-10-05,ＮＯＩＬＡ株式会社,,株式会社,熊本県,菊池郡菊陽町,大字原水２８４９番地１・２Ｆ,,43,404,8691102,,,,,,,2021-10-05,1,,,,,ノイラ,0
2307,7330001029049,新規,0,2021-10-05,2021-10-05,株式会社Ｌｅｖｅｒａｇｅ,,株式会社,熊本県,玉名市,繁根木５３番地１,,43,206,8650051,,,,,,,2021-10-05,1,,,,,レバレッジ,0
2311,7330003009057,新規,0,2021-10-05,2021-10-05,合同会社Ｎｗｏｒｋ,,合同会社,熊本県,熊本市中央区,京町本丁６－５２－３１４プレミスト京町本丁,,43,101,8600081,,,,,,,2021-10-05,1,,,,,エヌワーク,0
2312,7340003003587,新規,0,2021-10-05,2021-10-05,合同会社ＦＵＮ,,合同会社,鹿児島県,鹿児島市,荒田１丁目２２番８号サンハイツ中洲通り２０１号,,46,201,8900054,,,,,,,2021-10-05,1,,,,,ファン,0
2322,7370001047666,新規,0,2021-10-05,2021-10-05,ＳＤＣ株式会社,,株式会社,宮城県,仙台市青葉区,栗生４丁目８番地の１４,,04,101,9893122,,,,,,,2021-10-05,1,,,,,エスディーシー,0
2323,7370001047674,新規,0,2021-10-05,2021-10-05,株式会社エス・ツー,,株式会社,宮城県,仙台市宮城野区,田子字入１２番地の１,,04,102,9830021,,,,,,,2021-10-05,1,,,,,エスツー,0
2331,7390001016611,新規,0,2021-10-05,2021-10-05,株式会社彩美装,,株式会社,山形県,山形市,大字中野４６９番地１０,,06,201,9900892,,,,,,,2021-10-05,1,,,,,イロドリビソウ,0
2334,7410001012979,新規,0,2021-10-05,2021-10-05,株式会社アイトス,,株式会社,秋田県,秋田市,将軍野南２丁目１番１３号ウィングアベニューＡ号室,,05,201,0110936,,,,,,,2021-10-05,1,,,,,アイトス,0
2343,7430001085098,新規,0,2021-10-05,2021-10-05,株式会社喜豆,,株式会社,北海道,札幌市中央区,南一条西２４丁目１番２６－５０１号,,01,101,0640801,,,,,,,2021-10-05,1,,,,,キマメ,0
2344,7430001085115,新規,0,2021-10-05,2021-10-05,株式会社恵愛サポート,,株式会社,北海道,札幌市北区,屯田六条３丁目６番２２号,,01,102,0020856,,,,,,,2021-10-05,1,,,,,ケイアイサポート,0
2346,7440003001416,新規,0,2021-10-05,2021-10-05,きこない不動産合同会社,,合同会社,北海道,上磯郡木古内町,字木古内２７９番地１,,01,334,0490431,,,,,,,2021-10-05,1,,,,,キコナイフドウサン,0
2350,7450001013494,新規,0,2021-10-05,2021-10-05,株式会社大黒屋菓子舗,,株式会社,北海道,雨竜郡妹背牛町,字妹背牛４６８番地の１１,,01,433,0790500,,,,,,,2021-10-05,1,,,,,ダイコクヤカシホ,0
2351,7450003002132,新規,0,2021-10-05,2021-10-05,合同会社河内館Ｄ,,合同会社,北海道,旭川市,四条通６丁目４０５番地の１,,01,204,0700034,,,,,,,2021-10-05,1,,,,,カワウチカンディー,0
2352,7460001005607,新規,0,2021-10-05,2021-10-05,株式会社ｍａｒｂｌｅ,,株式会社,北海道,釧路市,寿３丁目４番３１号,,01,206,0850026,,,,,,,2021-10-05,1,,,,,マーブル,0
2362,7500001023711,新規,0,2021-10-05,2021-10-05,株式会社山崎自動車,,株式会社,愛媛県,北宇和郡松野町,大字豊岡３０３７番地,,38,484,7982103,,,,,,,2021-10-05,1,,,,,ヤマザキジドウシャ,0
2363,7500001023728,新規,0,2021-10-05,2021-10-05,株式会社エム・ケイ・コミュニケーション,,株式会社,愛媛県,松山市,二番町３丁目２番地１８ドゥ・イマージュ３１－２階,,38,201,7900002,,,,,,,2021-10-05,1,,,,,エムケイコミュニケーション,0
2372,8010001221512,新規,0,2021-10-05,2021-10-05,黒部ホールディングス株式会社,,株式会社,東京都,千代田区,神田和泉町２番地６,,13,101,1010024,,,,,,,2021-10-05,1,,,,,クロベホールデイングス,0
2373,8010001221529,新規,0,2021-10-05,2021-10-05,株式会社みんなのみらい,,株式会社,東京都,千代田区,有楽町１丁目２番２号東宝日比谷ビル,,13,101,1000006,,,,,,,2021-10-05,1,,,,,ミンナノミライ,0
2378,8010103001779,新規,0,2021-10-05,2021-10-05,合同会社恵,,合同会社,東京都,八王子市,散田町３丁目９番１号グランヴィアＮ１,,13,201,1930832,,,,,,,2021-10-05,1,,,,,ケイ,0
2385,8010401162983,新規,0,2021-10-05,2021-10-05,株式会社ＳＨＡＫＡＲＩＫＩ,,株式会社,東京都,港区,赤坂６丁目１１番２号,,13,103,1070052,,,,,,,2021-10-05,1,,,,,シャカリキ,0
2389,8010403026237,新規,0,2021-10-05,2021-10-05,合同会社ＲＥＧｉＮａ,,合同会社,東京都,港区,浜松町１丁目２７－１７三和ビル４階,,13,103,1050013,,,,,,,2021-10-05,1,,,,,レジーナ,0
2390,8010403026245,新規,0,2021-10-05,2021-10-05,合同会社もう一回,,合同会社,東京都,港区,南青山４丁目２０番３号メゾン・ド・ラーク１０２号室,,13,103,1070062,,,,,,,2021-10-05,1,,,,,モウイッカイ,0
2393,8010405020246,新規,0,2021-10-05,2021-10-05,一般社団法人アライアンス協議会,,その他の設立登記法人,東京都,港区,芝３丁目１５番１３号ＹＯＤＡビル４Ｆ,,13,103,1050014,,,,,,,2021-10-05,1,,,,,アライアンスキョウギカイ,0
2398,8010701041598,新規,0,2021-10-05,2021-10-05,エア・ウォーター東日本メディエス株式会社,,株式会社,東京都,品川区,西五反田２丁目１２番３号,,13,109,1410031,,,,,,,2021-10-05,1,,,,,エアウオーターヒガシニホンメディエス,0
2399,8010701041615,新規,0,2021-10-05,2021-10-05,ＳｋｅｔｃｈＢｏｏｋ株式会社,,株式会社,東京都,品川区,西五反田５丁目１８番１３号中庸ビル５０２,,13,109,1410031,,,,,,,2021-10-05,1,,,,,スケッチブック,0
2401,8010801032373,新規,0,2021-10-05,2021-10-05,サステナプラス株式会社,,株式会社,東京都,大田区,大森西６丁目１７番１７号,,13,111,1430015,,,,,,,2021-10-05,1,,,,,サステナプラス,0
2404,8010903006845,新規,0,2021-10-05,2021-10-05,合同会社ＴＲＥ,,合同会社,東京都,世田谷区,若林１丁目１０番１７号,,13,112,1540023,,,,,,,2021-10-05,1,,,,,ティーアールイー,0
2409,8011001143052,新規,0,2021-10-05,2021-10-05,株式会社バークレー,,株式会社,東京都,渋谷区,代々木３丁目１３番５号,,13,113,1510053,,,,,,,2021-10-05,1,,,,,バークレー,0
2410,8011002003718,新規,0,2021-10-05,2021-10-05,有限会社久留幸子事務所,,有限会社,東京都,渋谷区,神南１丁目５番１５号,,13,113,1500041,,,,,,,2021-10-05,1,,,,,クメサチコジムショ,0
2413,8011103011058,新規,0,2021-10-05,2021-10-05,Ｓｉｍｐｌｉｓｔ合同会社,,合同会社,東京都,新宿区,新宿７丁目１２番１号新宿平和ビル１階,,13,104,1600022,,,,,,,2021-10-05,1,,,,,シンプリスト,0
2417,8011201023285,新規,0,2021-10-05,2021-10-05,株式会社ＴＡＣＯＩＴＯ,,株式会社,東京都,中野区,中央５丁目２９番１１号,,13,114,1640011,,,,,,,2021-10-05,1,,,,,タコイト,0
2421,8011501027358,新規,0,2021-10-05,2021-10-05,新雲国際貿易株式会社,,株式会社,東京都,荒川区,南千住３丁目１５番１２号,,13,118,1160003,,,,,,,2021-10-05,1,,,,,シンウンコクサイボウエキ,0
2426,8011801039763,新規,0,2021-10-05,2021-10-05,株式会社ＯＮＥ,,株式会社,東京都,足立区,伊興本町２丁目１２－３１,,13,121,1210807,,,,,,,2021-10-05,1,,,,,ワン,0
2429,8011803004807,新規,0,2021-10-05,2021-10-05,合同会社Ｍｔ．サービス,,合同会社,東京都,足立区,入谷３丁目１１番２号,,13,121,1210836,,,,,,,2021-10-05,1,,,,,エムティーサービス,0
2430,8011803004815,新規,0,2021-10-05,2021-10-05,リアルテック合同会社,,合同会社,東京都,葛飾区,立石２丁目６－４－７０３,,13,122,1240012,,,,,,,2021-10-05,1,,,,,リアルテック,0
2432,8012303001591,新規,0,2021-10-05,2021-10-05,Ｋ－Ｇａｒｄｅｎ合同会社,,合同会社,東京都,町田市,大蔵町３０１９,,13,209,1950062,,,,,,,2021-10-05,1,,,,,ケーガーデン,0
2434,8012401038370,新規,0,2021-10-05,2021-10-05,ＳＭＤコンサルティング株式会社,,株式会社,東京都,多摩市,落合１丁目５－１グリムコートビル５０３,,13,224,2060033,,,,,,,2021-10-05,1,,,,,エスエムディーコンサルティング,0
2435,8012403005047,新規,0,2021-10-05,2021-10-05,合同会社マネー,,合同会社,東京都,多摩市,諏訪３丁目１番地１－１００１,,13,224,2060024,,,,,,,2021-10-05,1,,,,,,0
2438,8012801021117,新規,0,2021-10-05,2021-10-05,株式会社ポスコム,,株式会社,東京都,東大和市,新堀３丁目２０の２サンハイツ東大和１０２,,13,220,2070012,,,,,,,2021-10-05,1,,,,,ポスコム,0
2439,8012801021125,新規,0,2021-10-05,2021-10-05,ＣＯ２ｃｒｅａｔｅ株式会社,,株式会社,東京都,立川市,栄町４丁目２２番地の３,,13,202,1900003,,,,,,,2021-10-05,1,,,,,シーオーツークリエイト,0
2454,8020003020589,新規,0,2021-10-05,2021-10-05,合同会社グロバース,,合同会社,神奈川県,横浜市西区,北幸１丁目１１番地１号水信ビル７階,,14,103,2200004,,,,,,,2021-10-05,1,,,,,グロバース,0
2460,8021001074148,新規,0,2021-10-05,2021-10-05,株式会社神南ポンプ,,株式会社,神奈川県,横須賀市,ハイランド２丁目４２番９号,,14,201,2390833,,,,,,,2021-10-05,1,,,,,ジンナンポンプ,0
2462,8021003010968,新規,0,2021-10-05,2021-10-05,ジャパンジャケット合同会社,,合同会社,神奈川県,横須賀市,本町２丁目７番地,,14,201,2380041,,,,,,,2021-10-05,1,,,,,ジャパンジャケット,0
2469,8030001144471,新規,0,2021-10-05,2021-10-05,株式会社ネクスト,,株式会社,埼玉県,北葛飾郡杉戸町,倉松３丁目１４番２３号－１０２,,11,464,3450034,,,,,,,2021-10-05,1,,,,,ネクスト,0
2470,8030001144612,新規,0,2021-10-05,2021-10-05,株式会社テクノサービス,,株式会社,埼玉県,さいたま市北区,宮原町１丁目５０７番地５,,11,102,3310812,,,,,,,2021-10-05,1,,,,,テクノサービス,0
2471,8030001144686,新規,0,2021-10-05,2021-10-05,株式会社ＦＢＶ　ＧＲＯＵＰ,,株式会社,埼玉県,越谷市,七左町７丁目６１番地１,,11,222,3430851,,,,,,,2021-10-05,1,,,,,エフビーヴイグループ,0
2473,8030003017997,新規,0,2021-10-05,2021-10-05,合同会社ＢＯＮＤ,,合同会社,埼玉県,川口市,飯塚１丁目１９番１１号中島マンション２０３号,,11,203,3320023,,,,,,,2021-10-05,1,,,,,ボンド,0
2474,8030003018046,新規,0,2021-10-05,2021-10-05,Ｊａｂｒ合同会社,,合同会社,埼玉県,比企郡吉見町,大字北吉見３９３９番地１１５,,11,347,3550155,,,,,,,2021-10-05,1,,,,,ジャブル,0
2475,8030003018054,新規,0,2021-10-05,2021-10-05,合同会社Ｆｕｎｎｙ　ｒｈｙｍｅｓ,,合同会社,埼玉県,鴻巣市,松原４丁目１５番１７－１０２号Ｙ．Ｓ．ファミーユ,,11,217,3650042,,,,,,,2021-10-05,1,,,,,ファニーライムス,0
2479,8040001120422,新規,0,2021-10-05,2021-10-05,富永不動産販売株式会社,,株式会社,千葉県,四街道市,四街道２丁目１番２３号,,12,228,2840005,,,,,,,2021-10-05,1,,,,,トミナガフドウサンハンバイ,0
2480,8040001120439,新規,0,2021-10-05,2021-10-05,株式会社ＹＳ．ＤＡＹ,,株式会社,千葉県,千葉市中央区,新町３番地１,,12,101,2600028,,,,,,,2021-10-05,1,,,,,ワイエスデイ,0
2485,8060001034141,新規,0,2021-10-05,2021-10-05,株式会社高柳建築,00124435,株式会社,栃木県,那須烏山市,宮原５２０番地１,,09,215,3210625,,,,,,,2021-10-05,1,,,,,タカヤナギケンチク,0
2486,8060001034158,新規,0,2021-10-05,2021-10-05,株式会社ジャパン・ヘンプ・クリエーション,,株式会社,栃木県,鹿沼市,下永野６００番地１,,09,205,3280212,,,,,,,2021-10-05,1,,,,,ジャパンヘンプクリエーション,0
2489,8070001038488,新規,0,2021-10-05,2021-10-05,株式会社克企画,,株式会社,群馬県,みどり市,笠懸町久宮６７５番地１ＫＳハイツＢ棟,,10,212,3792312,,,,,,,2021-10-05,1,,,,,カツキカク,0
2490,8070001038496,新規,0,2021-10-05,2021-10-05,名曲堂株式会社,,株式会社,群馬県,みどり市,笠懸町鹿４８３７番地１０,,10,212,3792313,,,,,,,2021-10-05,1,,,,,メイキョクドウ,0
2491,8070001038513,新規,0,2021-10-05,2021-10-05,株式会社ＨＡＹＡＫＡＷＡ,,株式会社,群馬県,館林市,大街道２丁目６番１４号フルールＢ－２０１,,10,207,3740066,,,,,,,2021-10-05,1,,,,,ハヤカワ,0
2495,8080001024487,新規,0,2021-10-05,2021-10-05,株式会社ビサイド,,株式会社,静岡県,静岡市葵区,千代田６丁目３０番１８号,,22,101,4200803,,,,,,,2021-10-05,1,,,,,ビサイド,0
2496,8080003002656,新規,0,2021-10-05,2021-10-05,合同会社武田ホールディングス,,合同会社,静岡県,静岡市駿河区,石田３丁目９番２１－７号,,22,102,4228042,,,,,,,2021-10-05,1,,,,,タケダホールディングス,0
2497,8080101022812,新規,0,2021-10-05,2021-10-05,長倉エンジニアリング株式会社,,株式会社,静岡県,沼津市,桃里６０６番地,,22,203,4100315,,,,,,,2021-10-05,1,,,,,ナガクラエンジニアリング,0
2499,8080401025374,新規,0,2021-10-05,2021-10-05,井島建設株式会社,,株式会社,静岡県,浜松市西区,神原町１２４５番地の１,,22,133,4328007,,,,,,,2021-10-05,1,,,,,イジマケンセツ,0
2504,8100001034657,新規,0,2021-10-05,2021-10-05,株式会社ヤソ,,株式会社,長野県,茅野市,宮川１１０５１番地１,,20,214,3910013,,,,,,,2021-10-05,1,,,,,ヤソ,0
2528,8120001240757,新規,0,2021-10-05,2021-10-05,株式会社ｆｏｒｔｕｎａ,,株式会社,大阪府,大阪市中央区,農人橋２丁目４番３号１階,,27,128,5400011,,,,,,,2021-10-05,1,,,,,フォルトューナ,0
2529,8120001240897,新規,0,2021-10-05,2021-10-05,株式会社Ｂａｎｋ　Ｔｅｌｌｅｒ,,株式会社,大阪府,大阪市北区,梅田１丁目１１番４号大阪駅前第４ビル９階９２３－１６１０号,,27,127,5300001,,,,,,,2021-10-05,1,,,,,バンクテラー,0
2530,8120001240914,新規,0,2021-10-05,2021-10-05,株式会社ＭＭＥ,,株式会社,大阪府,大阪市中央区,島之内２丁目３番１１号,,27,128,5420082,,,,,,,2021-10-05,1,,,,,エムエムイー,0
2534,8120101064395,新規,0,2021-10-05,2021-10-05,株式会社吉川電工,00124443,株式会社,大阪府,堺市美原区,平尾２０１０番地２９,,27,147,5870022,,,,,,,2021-10-05,1,,,,,ヨシカワデンコウ,0
2535,8120101064412,新規,0,2021-10-05,2021-10-05,株式会社市商トラストテック,,株式会社,大阪府,堺市中区,八田北町１０３１番地８,,27,142,5998262,,,,,,,2021-10-05,1,,,,,イチショウトラストテック,0
2537,8120901044984,新規,0,2021-10-05,2021-10-05,株式会社ｒｏｒｏｃａｓ,,株式会社,大阪府,豊中市,北桜塚２丁目５－５９－Ｃ,,27,203,5600022,,,,,,,2021-10-05,1,,,,,ロロカス,0
2538,8120901045000,新規,0,2021-10-05,2021-10-05,株式会社太陽総合企画,,株式会社,大阪府,箕面市,今宮３丁目１２番５号の２,,27,220,5620033,,,,,,,2021-10-05,1,,,,,タイヨウソウゴウキカク,0
2541,8130001070229,新規,0,2021-10-05,2021-10-05,ＨＥＡＲＴ株式会社,,株式会社,京都府,久世郡久御山町,島田古堤防イワラ３８－１９,,26,322,6130043,,,,,,,2021-10-05,1,,,,,ハート,0
2542,8130001070237,新規,0,2021-10-05,2021-10-05,株式会社Ｍ’ｓ－Ｃｏｍｐａｎｙ,,株式会社,京都府,京都市伏見区,納所町２１番地,,26,109,6128275,,,,,,,2021-10-05,1,,,,,エムズカンパニー,0
2548,8140001123167,新規,0,2021-10-05,2021-10-05,株式会社ＭＥＤＩＵＭ,,株式会社,兵庫県,西宮市,甲子園八番町２番２３号エトワール甲子園３Ａ,,28,204,6638178,,,,,,,2021-10-05,1,,,,,ミディアム,0
2549,8140001123209,新規,0,2021-10-05,2021-10-05,株式会社ソレイユ・ライフコーポレーション,,株式会社,兵庫県,加東市,岡本１５３８番地,,28,228,6731323,,,,,,,2021-10-05,1,,,,,ソレイユライフコーポレーション,0
2550,8140003016807,新規,0,2021-10-05,2021-10-05,合同会社エソラ,,合同会社,兵庫県,尼崎市,富松町４丁目１４番５,,28,202,6610003,,,,,,,2021-10-05,1,,,,,エソラ,0
2560,8180001148053,新規,0,2021-10-05,2021-10-05,株式会社エミエル,,株式会社,愛知県,尾張旭市,城前町４丁目１番地２７,,23,226,4880867,,,,,,,2021-10-05,1,,,,,エミエル,0
2561,8180001148111,新規,0,2021-10-05,2021-10-05,株式会社ＬＡＢＯ・１,,株式会社,愛知県,瀬戸市,新郷町１８９番地２テクノアローズ株式会社内,,23,204,4890873,,,,,,,2021-10-05,1,,,,,ラボイチ,0
2562,8180001148128,新規,0,2021-10-05,2021-10-05,株式会社どら猫エステート,,株式会社,愛知県,犬山市,大字五郎丸字稲葉組８番地,,23,215,4840066,,,,,,,2021-10-05,1,,,,,ドラネコエステート,0
2563,8180001148160,新規,0,2021-10-05,2021-10-05,株式会社ｔｓｕｚｕｒｕ,,株式会社,愛知県,一宮市,奥町字三出１０２番地１,,23,203,4910201,,,,,,,2021-10-05,1,,,,,ツヅル,0
2568,8180003023023,新規,0,2021-10-05,2021-10-05,ａ　ｌａ　ｍｏｄｅ合同会社,,合同会社,愛知県,名古屋市北区,城見通２丁目１３番地（サーパス黒川６０２号）,,23,103,4620046,,,,,,,2021-10-05,1,,,,,アラモード,0
2569,8180005019465,新規,0,2021-10-05,2021-10-05,税理士法人クロスブレイン,,その他の設立登記法人,愛知県,名古屋市中区,丸の内２丁目１８番１４号ランドスクエア丸の内８階,,23,106,4600002,,,,,,,2021-10-05,1,,,,,クロスブレイン,0
2571,8180301035430,新規,0,2021-10-05,2021-10-05,株式会社みのる,,株式会社,愛知県,豊川市,幸町７３番地,,23,207,4420046,,,,,,,2021-10-05,1,,,,,ミノル,0
2572,8180301035439,新規,0,2021-10-05,2021-10-05,アンドアップコーポレーション株式会社,,株式会社,愛知県,豊橋市,大岩町字北山３９８番地の１０,,23,201,4413141,,,,,,,2021-10-05,1,,,,,アンドアップコーポレーション,0
2573,8180301035447,新規,0,2021-10-05,2021-10-05,株式会社ＩＳＢパッケージ,,株式会社,愛知県,豊橋市,豊栄町字東３５９番地６,,23,201,4413125,,,,,,,2021-10-05,1,,,,,アイエスビーパッケージ,0
2574,8180303005126,新規,0,2021-10-05,2021-10-05,ヨギ総合研究所合同会社,,合同会社,愛知県,刈谷市,小垣江町南曲５番地１０,,23,210,4480813,,,,,,,2021-10-05,1,,,,,ヨギソウゴウケンキュウジョ,0
2576,8190001028733,新規,0,2021-10-05,2021-10-05,株式会社スイホウ,,株式会社,三重県,名張市,すずらん台東５番町１０４番地,,24,208,5180405,,,,,,,2021-10-05,1,,,,,スイホウ,0
2579,8200001039209,新規,0,2021-10-05,2021-10-05,株式会社ケイズ企画,,株式会社,岐阜県,安八郡輪之内町,四郷３０１番地の６,,21,382,5030204,,,,,,,2021-10-05,1,,,,,ケイズキカク,0
2580,8200001039225,新規,0,2021-10-05,2021-10-05,株式会社やまもく,,株式会社,岐阜県,山県市,佐賀８３番地１,,21,215,5012114,,,,,,,2021-10-05,1,,,,,ヤマモク,0
2581,8200001039233,新規,0,2021-10-05,2021-10-05,株式会社八尋不動産,,株式会社,岐阜県,加茂郡八百津町,伊岐津志２２３９番地１,,21,505,5050303,,,,,,,2021-10-05,1,,,,,ヤヒロフドウサン,0
2585,8220001024448,新規,0,2021-10-05,2021-10-05,株式会社武部グリーン,,株式会社,石川県,金沢市,富樫１丁目７番２１号,,17,201,9218171,,,,,,,2021-10-05,1,,,,,タケベグリーン,0
2586,8220001024456,新規,0,2021-10-05,2021-10-05,株式会社ＯＲＡＮＺ,,株式会社,石川県,野々市市,若松町１番４８号シティーコートＳ,,17,212,9218816,,,,,,,2021-10-05,1,,,,,オランツ,0
2587,8220001024464,新規,0,2021-10-05,2021-10-05,ｅｇ株式会社,,株式会社,石川県,金沢市,打木町東２４番地,,17,201,9200377,,,,,,,2021-10-05,1,,,,,イージー,0
2589,8220003003128,新規,0,2021-10-05,2021-10-05,プリンセスナイト合同会社,,合同会社,石川県,金沢市,新神田３丁目４番１０号,,17,201,9218013,,,,,,,2021-10-05,1,,,,,プリンセスナイト,0
2598,8240001058683,新規,0,2021-10-05,2021-10-05,株式会社瀬戸内エネルギーサポート,,株式会社,広島県,尾道市,土堂２丁目１０番２４号,,34,205,7220035,,,,,,,2021-10-05,1,,,,,セトウチエネルギーサポート,0
2599,8240001058700,新規,0,2021-10-05,2021-10-05,株式会社ロー＆ツー,,株式会社,広島県,福山市,伊勢丘６丁目４番２０号,,34,207,7210915,,,,,,,2021-10-05,1,,,,,ローアンドツー,0
2603,8250001019164,新規,0,2021-10-05,2021-10-05,Ｔ‐プランニング株式会社,,株式会社,山口県,山口市,小郡花園町１番６－１００２号,,35,203,7540022,,,,,,,2021-10-05,1,,,,,ティープランニング,0
2604,8250003002911,新規,0,2021-10-05,2021-10-05,合同会社Ｓａｉ,,合同会社,山口県,下松市,中央町２１番３号星プラザ１階,,35,207,7440025,,,,,,,2021-10-05,1,,,,,サイ,0
2609,8260001036019,新規,0,2021-10-05,2021-10-05,株式会社ＰｏＭＥ,,株式会社,岡山県,倉敷市,玉島道口３９１６番地,,33,202,7138115,,,,,,,2021-10-05,1,,,,,ポメ,0
2615,8270005005480,新規,0,2021-10-05,2021-10-05,一般社団法人日中経済貿易協会,,その他の設立登記法人,鳥取県,境港市,上道町２１７７番地３４,,31,204,6840033,,,,,,,2021-10-05,1,,,,,ニッチュウケイザイボウエキキョウカイ,0
2619,8280001008528,新規,0,2021-10-05,2021-10-05,株式会社和田メンテ,,株式会社,島根県,江津市,二宮町神村２７４番地４,,32,207,6950023,,,,,,,2021-10-05,1,,,,,ワダメンテ,0
2620,8280003001539,新規,0,2021-10-05,2021-10-05,合同会社ケイアース,,合同会社,島根県,出雲市,斐川町富村１２６９番地７,,32,203,6990621,,,,,,,2021-10-05,1,,,,,,0
2628,8290001094864,新規,0,2021-10-05,2021-10-05,バンブーコーポレーション株式会社,,株式会社,福岡県,福岡市西区,姪浜駅南２丁目１６番１－６０２号,,40,135,8190006,,,,,,,2021-10-05,1,,,,,バンブーコーポレーション,0
2631,8290801027866,新規,0,2021-10-05,2021-10-05,株式会社ＮＡＯＬＴ,,株式会社,福岡県,北九州市小倉北区,大手町１３番３４号ハローパーク２階,,40,106,8030814,,,,,,,2021-10-05,1,,,,,ナオルト,0
2632,8290801027874,新規,0,2021-10-05,2021-10-05,株式会社ｔｗｉｎｋｌｅ,,株式会社,福岡県,北九州市八幡西区,若葉２丁目１０番２９号,,40,109,8060066,,,,,,,2021-10-05,1,,,,,トゥインクル,0
2633,8310001017500,新規,0,2021-10-05,2021-10-05,株式会社ヤマシタドラッグストアー,,株式会社,長崎県,佐世保市,宇久町平１９２０番地２,,42,202,8574901,,,,,,,2021-10-05,1,,,,,ヤマシタドラッグストアー,0
2636,8320001018638,新規,0,2021-10-05,2021-10-05,株式会社Ｋ‐ｂｏｘｅｓ,,株式会社,大分県,別府市,大字鉄輪８番地の６２,,44,202,8740000,,,,,,,2021-10-05,1,,,,,ケーボックス,0
2637,8320001018646,新規,0,2021-10-05,2021-10-05,株式会社ｇｌａｄ,,株式会社,大分県,宇佐市,大字宮熊１４３番地,,44,211,8790151,,,,,,,2021-10-05,1,,,,,グラッド,0
2638,8330001029031,新規,0,2021-10-05,2021-10-05,レミー土地開発株式会社,,株式会社,熊本県,玉名市,立願寺１５０７番地１,,43,206,8650061,,,,,,,2021-10-05,1,,,,,レミートチカイハツ,0
2639,8330001029048,新規,0,2021-10-05,2021-10-05,株式会社ハマ建装,,株式会社,熊本県,天草市,川原新町１８番地,,43,215,8630036,,,,,,,2021-10-05,1,,,,,ハマケンソウ,0
2640,8340001024155,新規,0,2021-10-05,2021-10-05,株式会社Ｋｉｗｉｓ　Ｌａｂ,,株式会社,鹿児島県,鹿児島市,鴨池１丁目４番２３号,,46,201,8900063,,,,,,,2021-10-05,1,,,,,キーウィーズラボ,0
2642,8340005009350,新規,0,2021-10-05,2021-10-05,一般社団法人霧島山麓湧水町観光協会,,その他の設立登記法人,鹿児島県,姶良郡湧水町,木場６７７番地,,46,452,8996201,,,,,,,2021-10-05,1,,,,,キリシマサンロクユウスイチョウカンコウキョウカイ,0
2643,8350001017331,新規,0,2021-10-05,2021-10-05,株式会社瀬口林産,,株式会社,宮崎県,都城市,夏尾町７２１１番地,,45,202,8850225,,,,,,,2021-10-05,1,,,,,セグチリンサン,0
2648,8370003005431,新規,0,2021-10-05,2021-10-05,合同会社ブライト,,合同会社,宮城県,仙台市宮城野区,原町３丁目８番１６－１０３号,,04,102,9830841,,,,,,,2021-10-05,1,,,,,ブライト,0
2650,8380005012482,新規,0,2021-10-05,2021-10-05,特定非営利活動法人戸津辺花咲かじいさん,,その他の設立登記法人,福島県,東白川郡矢祭町,大字中石井字柵３６番地,,07,482,9635201,,,,,,,2021-10-05,1,,,,,トツベハナサカジイサン,0
2651,8390001016619,新規,0,2021-10-05,2021-10-05,株式会社大場鉄筋,,株式会社,山形県,村山市,大字富並８８９番地,,06,208,9950208,,,,,,,2021-10-05,1,,,,,オオバテッキン,0
2661,8430001085097,新規,0,2021-10-05,2021-10-05,ＫＩＴＡＩ株式会社,,株式会社,北海道,札幌市豊平区,豊平三条１丁目１番３－３０５号,,01,105,0620903,,,,,,,2021-10-05,1,,,,,キタイ,0
2662,8430003013155,新規,0,2021-10-05,2021-10-05,エヌティ物流合同会社,,合同会社,北海道,札幌市東区,東苗穂十三条１丁目５番２号,,01,103,0070813,,,,,,,2021-10-05,1,,,,,エヌティブツリュウ,0
2665,8450003002131,新規,0,2021-10-05,2021-10-05,合同会社河内館Ｃ,,合同会社,北海道,旭川市,四条通６丁目４０５番地の１,,01,204,0700034,,,,,,,2021-10-05,1,,,,,カワウチカンシー,0
2670,8470001018755,新規,0,2021-10-05,2021-10-05,株式会社ＤＳＰ,,株式会社,香川県,高松市,亀水町９１９番地１１,,37,201,7618001,,,,,,,2021-10-05,1,,,,,ディーエスピー,0
2674,8490003001591,新規,0,2021-10-05,2021-10-05,合同会社Ｓｏｏｔｈｉｎｇ　ｐｌａｃｅ,,合同会社,高知県,安芸市,土居６３４－１,,39,203,7840042,,,,,,,2021-10-05,1,,,,,スームジングプレス,0
2680,9010001221536,新規,0,2021-10-05,2021-10-05,株式会社カンデ,,株式会社,東京都,千代田区,九段南１丁目５番６号りそな九段ビル５ＦＫＳフロア,,13,101,1020074,,,,,,,2021-10-05,1,,,,,カンデ,0
2681,9010001221560,新規,0,2021-10-05,2021-10-05,株式会社セディアＣ＆Ｐ,,株式会社,東京都,中央区,築地５丁目６番１０号,,13,102,1040045,,,,,,,2021-10-05,1,,,,,セディアシーアンドピー,0
2682,9010003035942,新規,0,2021-10-05,2021-10-05,アイブジージブ合同会社,,合同会社,東京都,文京区,白山１丁目２１番１号,,13,105,1130001,,,,,,,2021-10-05,1,,,,,アイブジージブ,0
2692,9010501047893,新規,0,2021-10-05,2021-10-05,株式会社笠井管理,,株式会社,東京都,台東区,蔵前２丁目４番３号,,13,106,1110051,,,,,,,2021-10-05,1,,,,,カサイカンリ,0
2694,9010503006402,新規,0,2021-10-05,2021-10-05,合同会社ｄｉａｍｏｎｄ　ｈｅａｒｔ,,合同会社,東京都,台東区,台東１丁目１２番７号ビューノ新谷３０１,,13,106,1100016,,,,,,,2021-10-05,1,,,,,ダイヤモンドハート,0
2702,9010901049556,新規,0,2021-10-05,2021-10-05,株式会社ＰＡＳＳ　ＩＴ　ＯＮ,,株式会社,東京都,世田谷区,三軒茶屋２丁目１５番３号寺尾ビル１０１,,13,112,1540024,,,,,,,2021-10-05,1,,,,,パスイットオン,0
2703,9010903006844,新規,0,2021-10-05,2021-10-05,合同会社７７１６,,合同会社,東京都,世田谷区,世田谷４丁目１７番１８号コーポＫＭ１０１,,13,112,1540017,,,,,,,2021-10-05,1,,,,,ナナイロ,0
2704,9010903006852,新規,0,2021-10-05,2021-10-05,合同会社徳田屋,00124441,合同会社,東京都,世田谷区,尾山台３丁目３１番１号尾山台ガーディアン２０１,,13,112,1580086,,,,,,,2021-10-05,1,,,,,トクダヤ,0
2718,9011101096414,新規,0,2021-10-05,2021-10-05,株式会社リスタート,,株式会社,東京都,新宿区,西新宿６丁目９番１号オークコート３０１,,13,104,1600023,,,,,,,2021-10-05,1,,,,,リスタート,0
2719,9011101096439,新規,0,2021-10-05,2021-10-05,株式会社ｉＭｅｄｉａ,,株式会社,東京都,新宿区,四谷三栄町１２－７－２Ｆ,,13,104,1600008,,,,,,,2021-10-05,1,,,,,アイメディア,0
2720,9011203003656,新規,0,2021-10-05,2021-10-05,合同会社ｈａｐｐｙｃｏｃｏ,,合同会社,東京都,中野区,新井２丁目１－１オリーブガーデンアネックス５０２,,13,114,1650026,,,,,,,2021-10-05,1,,,,,ハッピーココ,0
2725,9011501027357,新規,0,2021-10-05,2021-10-05,株式会社ＬＡＳＩＮＶＡ,,株式会社,東京都,北区,西ケ原２丁目４５番１０号,,13,117,1140024,,,,,,,2021-10-05,1,,,,,ラシンバ,0
2739,9011803004806,新規,0,2021-10-05,2021-10-05,合同会社グリーンシステム,,合同会社,東京都,足立区,鹿浜３丁目３０番１２号第２ワイエスビル３０５,,13,121,1230864,,,,,,,2021-10-05,1,,,,,グリーンシステム,0
2742,9012701016703,新規,0,2021-10-05,2021-10-05,株式会社彰友,,株式会社,東京都,西東京市,栄町３丁目３番１６号,,13,229,2020006,,,,,,,2021-10-05,1,,,,,アキトモ,0
2743,9012703002321,新規,0,2021-10-05,2021-10-05,合同会社カメラライフシブサワ,,合同会社,東京都,清瀬市,松山３丁目３番２号コーポラスＢ＆Ｍ３０３号,,13,221,2040022,,,,,,,2021-10-05,1,,,,,カメラライフシブサワ,0
2744,9012801021124,新規,0,2021-10-05,2021-10-05,株式会社フォースタイルリノベーション,,株式会社,東京都,昭島市,緑町２丁目１２番４号,,13,207,1960004,,,,,,,2021-10-05,1,,,,,フォースタイルリノベーション,0
2745,9012803002618,新規,0,2021-10-05,2021-10-05,合同会社ＥＢＩＺＯ,,合同会社,東京都,国分寺市,富士本１丁目２３番地６８,,13,214,1850031,,,,,,,2021-10-05,1,,,,,エビゾー,0
2751,9020001143259,新規,0,2021-10-05,2021-10-05,株式会社光彩,,株式会社,神奈川県,横浜市鶴見区,下末吉１丁目２１番２－３０１号,,14,101,2300012,,,,,,,2021-10-05,1,,,,,コウサイ,0
2752,9020001143300,新規,0,2021-10-05,2021-10-05,高橋電設株式会社,,株式会社,神奈川県,横浜市港北区,新吉田東７丁目１０番６号,,14,109,2230058,,,,,,,2021-10-05,1,,,,,タカハシデンセツ,0
2758,9021001074089,新規,0,2021-10-05,2021-10-05,株式会社雲の上晴れ,,株式会社,神奈川県,南足柄市,関本１３２番地６,,14,217,2500105,,,,,,,2021-10-05,1,,,,,クモノウエハレ,0
2759,9021001074114,新規,0,2021-10-05,2021-10-05,株式会社ＫＫ設備,,株式会社,神奈川県,茅ヶ崎市,柳島１丁目５番２３号インペリアル壱番館２０２号,,14,207,2530064,,,,,,,2021-10-05,1,,,,,ケーケーセツビ,0
2764,9021003010975,新規,0,2021-10-05,2021-10-05,合同会社ＡＵＴＯＬＡＮＤ　ＪＡＰＡＮ　ＴＲＡＤＩＮＧ,,合同会社,神奈川県,厚木市,妻田北３丁目１９－３弥生荘２０２,,14,212,2430812,,,,,,,2021-10-05,1,,,,,オートランドジャパントレーディング,0
2770,9030001144586,新規,0,2021-10-05,2021-10-05,ＮＥＸＴ　ＶＩＳＩＯＮ株式会社,,株式会社,埼玉県,草加市,青柳３丁目２２番１号,,11,221,3400002,,,,,,,2021-10-05,1,,,,,ネクストビジョン,0
2771,9030001144611,新規,0,2021-10-05,2021-10-05,株式会社グルームキャリア,,株式会社,埼玉県,川口市,原町３番１号,,11,203,3320025,,,,,,,2021-10-05,1,,,,,グルームキャリア,0
2776,9030003018020,新規,0,2021-10-05,2021-10-05,Ａｍｂｅｒ合同会社,,合同会社,埼玉県,上尾市,西宮下２丁目８２番地２上尾ハウス１－４０３,,11,219,3620043,,,,,,,2021-10-05,1,,,,,アンバー,0
2777,9040001120438,新規,0,2021-10-05,2021-10-05,株式会社徳田功業,00124450,株式会社,千葉県,千葉市美浜区,真砂１丁目１２番１棟３０１号,,12,106,2610011,,,,,,,2021-10-05,1,,,,,トクダコウギョウ,0
2778,9040001120446,新規,0,2021-10-05,2021-10-05,創堅株式会社,,株式会社,千葉県,千葉市若葉区,加曽利町７８１－９,,12,104,2640017,,,,,,,2021-10-05,1,,,,,ソウケン,0
2779,9040003018580,新規,0,2021-10-05,2021-10-05,合同会社ファイブ,,合同会社,千葉県,船橋市,浜町２丁目３番３６－２００８号,,12,204,2730012,,,,,,,2021-10-05,1,,,,,ファイブ,0
2780,9040003018639,新規,0,2021-10-05,2021-10-05,合同会社Ｆｕｋｕｓｈｉ　Ａｓｓｉｓｔ,,合同会社,千葉県,印西市,原山１丁目１８番地３,,12,231,2701341,,,,,,,2021-10-05,1,,,,,フクシアシスト,0
2785,9050001049932,新規,0,2021-10-05,2021-10-05,株式会社宮内電装,,株式会社,茨城県,鹿嶋市,宮中１丁目７番１０号,,08,222,3140031,,,,,,,2021-10-05,1,,,,,ミヤウチデンソウ,0
2796,9070001038487,新規,0,2021-10-05,2021-10-05,Ｒｅ－ｗｏｏｄ株式会社,,株式会社,群馬県,太田市,由良町１４２０番地２４,,10,205,3730036,,,,,,,2021-10-05,1,,,,,リーウッド,0
2797,9070001038504,新規,0,2021-10-05,2021-10-05,株式会社ステップアップサポート,,株式会社,群馬県,邑楽郡千代田町,大字上中森１０５０番地,,10,523,3700725,,,,,,,2021-10-05,1,,,,,ステップアップサポート,0
2798,9070001038512,新規,0,2021-10-05,2021-10-05,株式会社ＪＡＰＡＮ　ＫＹＯＫＵＳＨＩＮ　ＫＡＲＡＴＥ＆ＦＩＴＮＥＳＳ,,株式会社,群馬県,太田市,二ツ小屋町７４番地,,10,205,3700417,,,,,,,2021-10-05,1,,,,,ジャパンキョクシンカラテアンドフィットネス,0
2804,9080001024478,新規,0,2021-10-05,2021-10-05,株式会社海野木型製作所,,株式会社,静岡県,静岡市葵区,神明町１０番地の１８,,22,101,4200009,,,,,,,2021-10-05,1,,,,,ウンノキガタセイサクショ,0
2805,9080001024486,新規,0,2021-10-05,2021-10-05,株式会社Ｅ－ＲＥＸ,,株式会社,静岡県,静岡市葵区,大岩３丁目２８番３１－７号,,22,101,4200886,,,,,,,2021-10-05,1,,,,,イーレックス,0
2807,9080003002655,新規,0,2021-10-05,2021-10-05,士業コンサル合同会社,,合同会社,静岡県,静岡市駿河区,中田本町１４番２３号,,22,102,4228043,,,,,,,2021-10-05,1,,,,,シギョウコンサル,0
2808,9080101022803,新規,0,2021-10-05,2021-10-05,さんしんキャピタル株式会社,,株式会社,静岡県,三島市,芝本町１２番３号,,22,206,4110857,,,,,,,2021-10-05,1,,,,,サンシンキャピタル,0
2809,9080101022811,新規,0,2021-10-05,2021-10-05,株式会社ＲＵＶＩＡ,,株式会社,静岡県,駿東郡長泉町,本宿１１０番地の１メゾンあゆつぼ１Ｆ,,22,342,4110945,,,,,,,2021-10-05,1,,,,,ルヴィア,0
2811,9080401025381,新規,0,2021-10-05,2021-10-05,野島工務店株式会社,,株式会社,静岡県,浜松市西区,伊左地町２５７３番地の３,,22,133,4311111,,,,,,,2021-10-05,1,,,,,ノジマコウムテン,0
2815,9090005007437,新規,0,2021-10-05,2021-10-05,一般社団法人女性支援相談室コミュニティスペースＷＡ,,その他の設立登記法人,山梨県,甲府市,北口３丁目８番１６号,,19,201,4000024,,,,,,,2021-10-05,1,,,,,ジョセイシエンソウダンシツコミュニティスペースワ,0
2816,9100001034664,新規,0,2021-10-05,2021-10-05,株式会社ＮＴＭ興業,,株式会社,長野県,長野市,松代町東条２４８０番地３５,,20,201,3811221,,,,,,,2021-10-05,1,,,,,エヌティエムコウギョウ,0
2817,9100001034680,新規,0,2021-10-05,2021-10-05,株式会社浅間工藝舎,,株式会社,長野県,小諸市,大字耳取７７８番地３,,20,208,3840084,,,,,,,2021-10-05,1,,,,,アサマコウゲイシャ,0
2818,9100001034689,新規,0,2021-10-05,2021-10-05,株式会社小林,,株式会社,長野県,佐久市,安原１５３８番地１,,20,217,3850004,,,,,,,2021-10-05,1,,,,,コバヤシ,0
2824,9110001036065,新規,0,2021-10-05,2021-10-05,株式会社Ｔａｙｌｏｒ,,株式会社,新潟県,長岡市,東坂之上町１丁目１番地１１ドルミーロリエ２階,,15,202,9400066,,,,,,,2021-10-05,1,,,,,テイラー,0
2825,9110001036081,新規,0,2021-10-05,2021-10-05,株式会社ＣＬＡＳＳＩＣＳ,,株式会社,新潟県,新潟市中央区,竜が島１丁目４番９号,,15,103,9500072,,,,,,,2021-10-05,1,,,,,クラシックス,0
2845,9120001240847,新規,0,2021-10-05,2021-10-05,株式会社ＫＮＫ’ｓ,,株式会社,大阪府,大阪市西淀川区,歌島１丁目２番６号－７０３号,,27,113,5550021,,,,,,,2021-10-05,1,,,,,ケイエヌケイズ,0
2846,9120001240888,新規,0,2021-10-05,2021-10-05,あさなぎデザイン株式会社,,株式会社,大阪府,大阪市北区,中之島４丁目２－２８甲南アセット中之島ビル１１０８,,27,127,5300005,,,,,,,2021-10-05,1,,,,,アサナギデザイン,0
2858,9120101064428,新規,0,2021-10-05,2021-10-05,株式会社ラッキーフィールドホールディングス,,株式会社,大阪府,堺市堺区,北瓦町２丁１番１２号北瓦ビル２Ｆ,,27,141,5900076,,,,,,,2021-10-05,1,,,,,ラッキーフィールドホールディングス,0
2862,9120901044983,新規,0,2021-10-05,2021-10-05,株式会社魚正,,株式会社,大阪府,茨木市,大池１丁目１４番４３号,,27,211,5670826,,,,,,,2021-10-05,1,,,,,ウオショウ,0
2868,9130001070194,新規,0,2021-10-05,2021-10-05,株式会社せんだ,,株式会社,京都府,亀岡市,下矢田町２丁目１９番３号,,26,206,6210854,,,,,,,2021-10-05,1,,,,,センダ,0
2869,9130001070260,新規,0,2021-10-05,2021-10-05,株式会社スズクニ学園,,株式会社,京都府,城陽市,寺田林ノ口７番地３５,,26,207,6100121,,,,,,,2021-10-05,1,,,,,スズクニガクエン,0
2874,9140005025838,新規,0,2021-10-05,2021-10-05,弁護士法人藤田・川崎法律事務所,,その他の設立登記法人,兵庫県,姫路市,安田３丁目１０３番地２,,28,201,6700955,,,,,,,2021-10-05,1,,,,,フジタカワサキホウリツジムショ,0
2875,9140005025846,新規,0,2021-10-05,2021-10-05,北摂播磨皮革工業協同組合,,その他の設立登記法人,兵庫県,たつの市,誉田町誉４３番地,,28,229,6794133,,,,,,,2021-10-05,1,,,,,ホクセツハリマヒカクコウギョウ,0
2876,9150001024974,新規,0,2021-10-05,2021-10-05,株式会社Ｔ・Ｒ・Ｃ,,株式会社,奈良県,大和郡山市,堺町４４番地６,,29,203,6391156,,,,,,,2021-10-05,1,,,,,ティーアールシー,0
2881,9160001023694,新規,0,2021-10-05,2021-10-05,株式会社ゆかり,,株式会社,滋賀県,彦根市,稲部町９５番地,,25,202,5211113,,,,,,,2021-10-05,1,,,,,ユカリ,0
2888,9180001148028,新規,0,2021-10-05,2021-10-05,リアース株式会社,,株式会社,愛知県,名古屋市熱田区,新尾頭１丁目６番１３号第１９金山フクマルビル９階,,23,109,4560018,,,,,,,2021-10-05,1,,,,,リアース,0
2889,9180001148135,新規,0,2021-10-05,2021-10-05,株式会社蒼樹,,株式会社,愛知県,名古屋市千種区,堀割町１丁目６０番地,,23,101,4640065,,,,,,,2021-10-05,1,,,,,アオキ,0
2895,9180005019464,新規,0,2021-10-05,2021-10-05,一般社団法人社会生活支援機構,,その他の設立登記法人,愛知県,名古屋市名東区,上社１丁目７０３番地,,23,115,4650025,,,,,,,2021-10-05,1,,,,,シャカイセイカツシエンキコウ,0
2900,9180301035438,新規,0,2021-10-05,2021-10-05,株式会社Ａ‐ＤＡＳＨ,,株式会社,愛知県,豊橋市,清須町字天神４５番地１,,23,201,4400095,,,,,,,2021-10-05,1,,,,,エーダッシュ,0
2901,9180301035446,新規,0,2021-10-05,2021-10-05,株式会社Ｌｉｂｅｒｔａｓ,,株式会社,愛知県,知立市,東栄１丁目５番地,,23,225,4720043,,,,,,,2021-10-05,1,,,,,リベルタス,0
2902,9180303005125,新規,0,2021-10-05,2021-10-05,合同会社肉の小林,,合同会社,愛知県,蒲郡市,三谷町上野２８番地２６,,23,214,4430021,,,,,,,2021-10-05,1,,,,,ニクノコバヤシ,0
2907,9190001028740,新規,0,2021-10-05,2021-10-05,株式会社西山造園,,株式会社,三重県,名張市,赤目町星川１３７番地１,,24,208,5180462,,,,,,,2021-10-05,1,,,,,ニシヤマゾウエン,0
2908,9190001028757,新規,0,2021-10-05,2021-10-05,株式会社スカイフリーワークス,,株式会社,三重県,松阪市,大津町２９７番地２２,,24,204,5150031,,,,,,,2021-10-05,1,,,,,スカイフリーワークス,0
2913,9200001039208,新規,0,2021-10-05,2021-10-05,株式会社イマオホールディングス,,株式会社,岐阜県,関市,千疋２００２番地,,21,205,5013954,,,,,,,2021-10-05,1,,,,,イマオホールディングス,0
2917,9200003005331,新規,0,2021-10-05,2021-10-05,合同会社ｒｉｃｈｅ,,合同会社,岐阜県,岐阜市,旦島３丁目９番２３号,,21,201,5020926,,,,,,,2021-10-05,1,,,,,リッシュ,0
2919,9220001024447,新規,0,2021-10-05,2021-10-05,株式会社ｅｍｙｕ,,株式会社,石川県,白山市,横江町２５９０番地、２５９１番地（仮換地白山市横江町土地区画整理地区内５街区１２番）,,17,210,9240011,,,,,,,2021-10-05,1,,,,,エミュー,0
2920,9220001024455,新規,0,2021-10-05,2021-10-05,株式会社福村板金,,株式会社,石川県,加賀市,黒崎町ヌ１０４番地,,17,206,9220565,,,,,,,2021-10-05,1,,,,,フクムラバンキン,0
2921,9220001024463,新規,0,2021-10-05,2021-10-05,株式会社Ｆ－Ｐｌｕｓ,,株式会社,石川県,金沢市,新神田１丁目１２番１１号,,17,201,9218013,,,,,,,2021-10-05,1,,,,,エフプラス,0
2925,9240001058682,新規,0,2021-10-05,2021-10-05,株式会社翔波塗装,,株式会社,広島県,福山市,新涯町５丁目１１番４号Ａ,,34,207,7210955,,,,,,,2021-10-05,1,,,,,ショウワトソウ,0
2926,9240001058699,新規,0,2021-10-05,2021-10-05,株式会社増建,,株式会社,広島県,三原市,小坂町３１４番地８,,34,204,7230131,,,,,,,2021-10-05,1,,,,,マスケン,0
2927,9240001058724,新規,0,2021-10-05,2021-10-05,株式会社エムプランニング,,株式会社,広島県,呉市,音戸町波多見３丁目５番９号,,34,202,7371207,,,,,,,2021-10-05,1,,,,,エムプランニング,0
2931,9240003005303,新規,0,2021-10-05,2021-10-05,合同会社ＶＥＲＴＥＸ,,合同会社,広島県,福山市,瀬戸町大字地頭分字八反田１１８６番地１,,34,207,7200837,,,,,,,2021-10-05,1,,,,,バーテックス,0
2938,9260001036050,新規,0,2021-10-05,2021-10-05,株式会社和‐Ａｊｕｇａ,,株式会社,岡山県,岡山市南区,新福２丁目１０番１０２号,,33,104,7000943,,,,,,,2021-10-05,1,,,,,ナゴミアジュガ,0
2941,9260003003692,新規,0,2021-10-05,2021-10-05,合同会社ＢＡＣＫＯＰＳ,,合同会社,岡山県,岡山市北区,問屋町１１番地１０６ＴＯＩＹＡＣＨＯＢＯＯＴＨＢＬＤ３０２号,,33,101,7000977,,,,,,,2021-10-05,1,,,,,バックオプス,0
2943,9280003001538,新規,0,2021-10-05,2021-10-05,合同会社江藤商会,,合同会社,島根県,大田市,大田町大田イ８２８番地１６,,32,205,6940064,,,,,,,2021-10-05,1,,,,,エトウショウカイ,0
2948,9290001094822,新規,0,2021-10-05,2021-10-05,株式会社Ｑｄｏｔ　ｋａｎｄ　ｐｒｏｄｕｃｔｉｏｎ,,株式会社,福岡県,福岡市博多区,博多駅中央街１－１アミュプラザ博多地下１階「Ｑ」,,40,132,8120012,,,,,,,2021-10-05,1,,,,,キュードットカンドプロダクション,0
2949,9290001094855,新規,0,2021-10-05,2021-10-05,株式会社Ｄ‐ｄｅｓｉｇｎ,,株式会社,福岡県,福岡市西区,今宿西１丁目４番１７号,,40,135,8190169,,,,,,,2021-10-05,1,,,,,ディーデザイン,0
2950,9290001094863,新規,0,2021-10-05,2021-10-05,株式会社シンワ,,株式会社,福岡県,糟屋郡宇美町,障子岳南４丁目５番２６号,,40,341,8112126,,,,,,,2021-10-05,1,,,,,シンワ,0
2951,9290001094871,新規,0,2021-10-05,2021-10-05,株式会社はたえ,,株式会社,福岡県,福岡市博多区,神屋町５番１１号,,40,132,8120022,,,,,,,2021-10-05,1,,,,,ハタエ,0
2954,9290003011684,新規,0,2021-10-05,2021-10-05,合同会社無線ラボ,,合同会社,福岡県,福岡市中央区,天神２丁目３番１０号天神パインクレスト７１９号,,40,133,8100001,,,,,,,2021-10-05,1,,,,,ムセンラボ,0
2955,9290801027865,新規,0,2021-10-05,2021-10-05,株式会社Ｔｒｕｓｔ　ｔｅｃｈ,,株式会社,福岡県,北九州市八幡西区,本城東４丁目８番１７号,,40,109,8070815,,,,,,,2021-10-05,1,,,,,トラストテック,0
2956,9290801027881,新規,0,2021-10-05,2021-10-05,株式会社トリニティテクノス,,株式会社,福岡県,北九州市小倉北区,萩崎町９番２１－３０１号,,40,106,8020066,,,,,,,2021-10-05,1,,,,,トリニティテクノス,0
2957,9290803003947,新規,0,2021-10-05,2021-10-05,合同会社未楽,,合同会社,福岡県,北九州市八幡東区,天神町８－３,,40,108,8050054,,,,,,,2021-10-05,1,,,,,ミラク,0
2960,9310001017508,新規,0,2021-10-05,2021-10-05,株式会社大久保建設,,株式会社,長崎県,長崎市,園田町１８９番地２,,42,201,8511125,,,,,,,2021-10-05,1,,,,,オオクボケンセツ,0
2961,9310003004173,新規,0,2021-10-05,2021-10-05,合同会社ＤＬＣ研究所,,合同会社,長崎県,長崎市,鳴滝３丁目１１番１４号,,42,201,8500011,,,,,,,2021-10-05,1,,,,,ディエルシーケンキュウショ,0
2964,9320001018637,新規,0,2021-10-05,2021-10-05,株式会社Ｌｉｅｎ,,株式会社,大分県,中津市,大字上如水３３２番地４,,44,203,8710004,,,,,,,2021-10-05,1,,,,,リアン,0
2966,9330001029039,新規,0,2021-10-05,2021-10-05,株式会社山崎設備,00124439,株式会社,熊本県,熊本市西区,花園３丁目１３番１２号,,43,103,8600072,,,,,,,2021-10-05,1,,,,,ヤマサキセツビ,0
2967,9330003009063,新規,0,2021-10-05,2021-10-05,リノビー合同会社,,合同会社,熊本県,葦北郡津奈木町,大字小津奈木２１１３－１１１,,43,484,8695604,,,,,,,2021-10-05,1,,,,,リノビー,0
2969,9340001024138,新規,0,2021-10-05,2021-10-05,株式会社建成工業,,株式会社,鹿児島県,鹿児島市,平之町１０番２８号グレイスコート平之町４０２号,,46,201,8920848,,,,,,,2021-10-05,1,,,,,ケンセイコウギョウ,0
2970,9340001024154,新規,0,2021-10-05,2021-10-05,ニッショーエンジニアリング株式会社,,株式会社,鹿児島県,鹿児島市,田上５丁目１１番１１－１号,,46,201,8900034,,,,,,,2021-10-05,1,,,,,ニッショーエンジニアリング,0
2972,9340003003585,新規,0,2021-10-05,2021-10-05,合同会社カドル,,合同会社,鹿児島県,霧島市,溝辺町崎森２７８０番地１３,,46,218,8996405,,,,,,,2021-10-05,1,,,,,カドル,0
2975,9360001029440,新規,0,2021-10-05,2021-10-05,株式会社シーサイドカンパニー,,株式会社,沖縄県,宜野湾市,我如古２丁目３－１６,,47,205,9012214,,,,,,,2021-10-05,1,,,,,シーサイドカンパニー,0
2977,9370001047648,新規,0,2021-10-05,2021-10-05,株式会社ｕｓｈｉｔａｋｅ,,株式会社,宮城県,大崎市,古川石森字宮在家３２番地,,04,215,9896124,,,,,,,2021-10-05,1,,,,,ウシタケ,0
2978,9370001047664,新規,0,2021-10-05,2021-10-05,株式会社ゼロエクステリア,,株式会社,宮城県,宮城郡利府町,沢乙字高島前７１番地１,,04,406,9810123,,,,,,,2021-10-05,1,,,,,ゼロエクステリア,0
2979,9370001047680,新規,0,2021-10-05,2021-10-05,株式会社ＶＥＮＴＵＲＥ　ＦＯＲ　ＪＡＰＡＮ,,株式会社,宮城県,仙台市泉区,高玉町２番地の１－４０５,,04,105,9813116,,,,,,,2021-10-05,1,,,,,ベンチャーフォージャパン,0
2980,9370003005422,新規,0,2021-10-05,2021-10-05,合同会社喜楽,,合同会社,宮城県,仙台市太白区,袋原字小原２９番地の６,,04,104,9811102,,,,,,,2021-10-05,1,,,,,キラク,0
2984,9400001015618,新規,0,2021-10-05,2021-10-05,株式会社総合スクラップセンター,,株式会社,岩手県,花巻市,石鳥谷町好地第２地割３７２番地１,,03,205,0283101,,,,,,,2021-10-05,1,,,,,ソウゴウスクラップセンター,0
2986,9400003002845,新規,0,2021-10-05,2021-10-05,合同会社ファームサポート岩手,,合同会社,岩手県,八幡平市,田頭第２４地割２４番地３,,03,214,0287112,,,,,,,2021-10-05,1,,,,,ファームサポートイワテ,0
2987,9410001012977,新規,0,2021-10-05,2021-10-05,株式会社サクラゴルフガーデン,,株式会社,秋田県,秋田市,桜２丁目９２番１号,,05,201,0100042,,,,,,,2021-10-05,1,,,,,サクラゴルフガーデン,0
2989,9420001017612,新規,0,2021-10-05,2021-10-05,株式会社ハシモト,,株式会社,青森県,上北郡東北町,字田ノ沢２１番地,,02,408,0392621,,,,,,,2021-10-05,1,,,,,ハシモト,0
2995,9430001085121,新規,0,2021-10-05,2021-10-05,株式会社ＭＯＥ,,株式会社,北海道,札幌市北区,新川三条１２丁目４番１８号,,01,102,0010923,,,,,,,2021-10-05,1,,,,,エムオーイー,0
3007,9450001013501,新規,0,2021-10-05,2021-10-05,株式会社フォレスト,,株式会社,北海道,旭川市,神楽七条７丁目１番５号,,01,204,0708007,,,,,,,2021-10-05,1,,,,,フォレスト,0
3008,9450003002130,新規,0,2021-10-05,2021-10-05,合同会社河内館Ｂ,,合同会社,北海道,旭川市,四条通６丁目４０５番地の１,,01,204,0700034,,,,,,,2021-10-05,1,,,,,カワウチカンビー,0
3009,9450003002139,新規,0,2021-10-05,2021-10-05,合同会社河内館Ｋ,,合同会社,北海道,旭川市,四条通６丁目４０５番地の１,,01,204,0700034,,,,,,,2021-10-05,1,,,,,カワウチカンケー,0
3012,9470001018738,新規,0,2021-10-05,2021-10-05,マルフジホールディングス株式会社,,株式会社,香川県,高松市,西植田町１２９２番地,,37,201,7610445,,,,,,,2021-10-05,1,,,,,マルフジホールディングス,0
3013,9470001018746,新規,0,2021-10-05,2021-10-05,Ａｒｔｓ　Ｂｕｉｌｄ株式会社,,株式会社,香川県,高松市,牟礼町牟礼３６４４番地２,,37,201,7610121,,,,,,,2021-10-05,1,,,,,アーツビルド,0
3015,9480001011510,新規,0,2021-10-05,2021-10-05,株式会社國電,,株式会社,徳島県,阿南市,桑野町西谷３７番地１２,,36,204,7791402,,,,,,,2021-10-05,1,,,,,クニデン,0
3019,9500001023726,新規,0,2021-10-05,2021-10-05,株式会社たかはし造園,,株式会社,愛媛県,新居浜市,船木甲１７９５番地,,38,205,7920856,,,,,,,2021-10-05,1,,,,,タカハシゾウエン,0
