sequenceNumber,corporateNumber,process,correct,updateDate,changeDate,name,nameImageId,kind,prefectureName,cityName,streetNumber,addressImageId,prefectureCode,cityCode,postCode,addressOutside,addressOutsideImageId,closeDate,closeCause,successorCorporateNumber,changeCause,assignmentDate,latest,enName,enPrefectureName,enCityName,enAddressOutside,furigana,hihyoji
12,1010001166474,登記記録の閉鎖等,0,2021-10-22,2021-10-15,ＲＥＶＩＣパートナーズ株式会社,,株式会社,東京都,千代田区,大手町１丁目６番１号,,13,101,1000004,,,2021-10-15,清算の結了等,,,2015-10-05,1,,,,,レビックパートナーズ,0
28,1010401065532,登記記録の閉鎖等,0,2021-10-22,2021-10-06,オネスタ株式会社,,株式会社,東京都,国分寺市,光町１丁目４３番地５２,,13,214,1850034,,,2021-10-06,合併による解散等,3012402007247,令和３年１０月１日東京都国分寺市光町一丁目４３番地５２レクシィ株式会社（3012402007247）に合併し解散,2015-10-05,1,,,,,,0
32,1010401151340,登記記録の閉鎖等,0,2021-10-22,2021-10-19,株式会社ＡＰ６６,,株式会社,東京都,港区,虎ノ門４丁目１番２８号虎ノ門タワーズオフィス１７階,,13,103,1050001,,,2021-10-19,清算の結了等,,,2020-03-02,1,,,,,エイピーロクジュウロク,0
72,1011105008802,登記記録の閉鎖等,0,2021-10-22,2021-10-18,一般社団法人イー・アール,,その他の設立登記法人,東京都,新宿区,四谷１丁目４番地あると綜合事務所内,,13,104,1600004,,,2021-10-18,清算の結了等,,,2019-04-24,1,,,,,イーアール,0
79,1011501020402,登記記録の閉鎖等,0,2021-10-22,2021-10-14,Ｇｒｅｅｎ　Ｓｏｌｕｔｉｏｎｓ株式会社,,株式会社,東京都,荒川区,東日暮里１丁目５番１３号,,13,118,1160014,,,2021-10-14,清算の結了等,,,2015-10-05,1,,,,,,0
80,1011501026341,登記記録の閉鎖等,0,2021-10-22,2021-10-14,株式会社インテグリティパートナーズ,,株式会社,東京都,荒川区,東尾久１丁目２３番２５号,,13,118,1160012,,,2021-10-14,清算の結了等,,,2020-11-11,1,,,,,インテグリティパートナーズ,0
82,1011602022710,登記記録の閉鎖等,0,2021-10-22,2021-10-18,有限会社オフィス九段パートナーズ,,有限会社,東京都,武蔵野市,中町２丁目１２番８武蔵野マンション６０４号,,13,203,1800006,,,2021-10-18,清算の結了等,,,2015-10-05,1,,,,,オフィスクダンパートナーズ,0
88,1012702004771,登記記録の閉鎖等,0,2021-10-22,2021-10-18,株式会社ひばりが丘ハウジング,,株式会社,東京都,中央区,新川２丁目１８番４号八重洲マンション４０１,,13,102,1040033,,,2021-10-18,清算の結了等,,,2015-10-05,1,,,,,ヒバリガオカハウジング,0
103,1030001014210,登記記録の閉鎖等,0,2021-10-22,2021-10-12,株式会社ＡＸＩＡ,,株式会社,埼玉県,さいたま市北区,日進町２丁目６０７番地１,,11,102,3310823,,,2021-10-12,清算の結了等,,,2015-10-05,1,,,,,,0
106,1030001095911,登記記録の閉鎖等,0,2021-10-22,2021-10-14,株式会社グリーンロジ,,株式会社,埼玉県,川口市,榛松３丁目３番２４号,,11,203,3340062,,,2021-10-14,清算の結了等,,,2015-10-05,1,,,,,グリーンロジ,0
114,1030005008811,登記記録の閉鎖等,0,2021-10-22,2021-10-13,特定非営利活動法人発芽倶楽部,,その他の設立登記法人,埼玉県,ふじみ野市,長宮２丁目４番地９,,11,245,3560022,,,2021-10-13,清算の結了等,,,2015-10-05,1,,,,,ハツガクラブ,0
122,1040002077346,登記記録の閉鎖等,0,2021-10-22,2021-10-15,有限会社サン流通サービス,,有限会社,千葉県,東金市,小沼田１５７４番地１,,12,213,2830044,,,2021-10-15,清算の結了等,,,2015-10-05,1,,,,,サンリュウツウサービス,0
131,1060001008333,登記記録の閉鎖等,0,2021-10-22,2021-10-15,株式会社ブロス宇都宮,,株式会社,栃木県,宇都宮市,鐺山町字大久保８６番１６,,09,201,3213235,,,2021-10-15,清算の結了等,,,2015-10-05,1,,,,,,0
135,1070005004591,登記記録の閉鎖等,0,2021-10-22,2021-10-20,特定非営利活動法人イマジン,,その他の設立登記法人,群馬県,伊勢崎市,境新栄９番地の１２,,10,204,3700114,,,2021-10-20,清算の結了等,,,2015-10-05,1,,,,,イマジン,0
138,1080101019476,登記記録の閉鎖等,0,2021-10-22,2021-10-12,株式会社宮田建設,,株式会社,静岡県,伊豆の国市,寺家１８１番地の６,,22,225,4102122,,,2021-10-12,清算の結了等,,,2016-11-17,1,,,,,ミヤタケンセツ,0
145,1100001032106,登記記録の閉鎖等,0,2021-10-22,2021-10-19,ＵＦＰ長野株式会社,,株式会社,長野県,長野市,大字栗田１０００番地１長栄長野東口ビル,,20,201,3800921,,,2021-10-19,合併による解散等,3020001125717,令和３年１０月１日静岡県静岡市駿河区南町１４－１水の森ビル９階株式会社ユナイテッド・フロント・パートナーズ（3020001125717）に合併し解散,2019-04-04,1,,,,,ユーエフピーナガノ,0
148,1100002008138,登記記録の閉鎖等,0,2021-10-22,2021-10-20,有限会社Ｆケアプラニング,,有限会社,長野県,長野市,大字鶴賀西鶴賀町１４８４番地５,,20,201,3800814,,,2021-10-20,清算の結了等,,,2015-10-05,1,,,,,エフケアプラニング,0
181,1130001012435,登記記録の閉鎖等,0,2021-10-22,2021-10-19,株式会社遠藤興産,,株式会社,京都府,京都市上京区,宮垣町９１番地,,26,102,6020853,,,2021-10-19,清算の結了等,,,2015-10-05,1,,,,,エンドウコウサン,0
183,1130001058148,登記記録の閉鎖等,0,2021-10-22,2021-10-20,株式会社かりんきりん,,株式会社,京都府,京都市中京区,烏丸通二条上る蒔絵屋町２５６番地,,26,104,6040857,,,2021-10-20,清算の結了等,,,2016-08-25,1,,,,,カリンキリン,0
185,1140001013556,登記記録の閉鎖等,0,2021-10-22,2021-10-19,株式会社たから工芸社,,株式会社,兵庫県,神戸市須磨区,妙法寺字谷田１１６９番地の４,,28,107,6540121,,,2021-10-19,清算の結了等,,,2015-10-05,1,,,,,タカラコウゲイシャ,0
194,1180001016332,登記記録の閉鎖等,0,2021-10-22,2021-10-20,オキ株式会社,,株式会社,愛知県,名古屋市東区,矢田１丁目２０番１２号,,23,102,4610040,,,2021-10-20,清算の結了等,,,2015-10-05,1,,,,,オキ,0
203,1180002026207,登記記録の閉鎖等,0,2021-10-22,2021-10-18,有限会社長田記念館,,有限会社,愛知県,名古屋市緑区,大高町字中道１１番地,,23,114,4598001,,,2021-10-18,合併による解散等,9180001027933,令和３年１０月１６日名古屋市緑区大高町字中道１１番地長田電機工業株式会社（9180001027933）に合併し解散,2015-10-05,1,,,,,オサダキネンカン,0
209,1200002015553,登記記録の閉鎖等,0,2021-10-22,2021-10-20,有限会社西濃建工,,有限会社,岐阜県,揖斐郡池田町,市橋３６１番地の１,,21,404,5032427,,,2021-10-20,清算の結了等,,,2015-10-05,1,,,,,セイノウケンコウ,0
216,1240001027538,登記記録の閉鎖等,0,2021-10-22,2021-10-18,エス・シー少額短期保険株式会社,,株式会社,広島県,呉市,西中央２丁目２番１２号,,34,202,7370811,,,2021-10-18,合併による解散等,7090001005801,令和３年１０月１日大阪府守口市本町二丁目５番１８号守口ＣＩＤビルＳＳＩきみどり株式会社（7090001005801）に合併し解散,2015-10-05,1,,,,,エスシーショウガクタンキホケン,0
225,1250002017066,登記記録の閉鎖等,0,2021-10-22,2021-10-20,有限会社橋川産業,,有限会社,山口県,光市,室積中央町２３番３３号,,35,210,7430008,,,2021-10-20,清算の結了等,,,2015-10-05,1,,,,,ハシカワサンギョウ,0
231,1290001035924,登記記録の閉鎖等,0,2021-10-22,2021-10-15,株式会社近畿日本ツーリスト九州,,株式会社,福岡県,福岡市博多区,綱場町１番１号,,40,132,8120024,,,2021-10-15,合併による解散等,2010001187437,令和３年１０月１日東京都新宿区西新宿二丁目６番１号近畿日本ツーリスト株式会社（2010001187437）に合併し解散,2015-10-05,1,,,,,キンキニッポンツーリストキュウシュウ,0
246,1290802002742,登記記録の閉鎖等,0,2021-10-22,2021-10-11,有限会社サンスイ,,有限会社,福岡県,北九州市小倉南区,長野本町２丁目１番１１号,,40,107,8000241,,,2021-10-11,清算の結了等,,,2015-10-05,1,,,,,サンスイ,0
264,1380001018969,登記記録の閉鎖等,0,2021-10-22,2021-10-20,株式会社夢の匠,,株式会社,福島県,会津若松市,町北町中沢西５５番地,,07,202,9650088,,,2021-10-20,清算の結了等,,,2015-10-05,1,,,,,ユメノショウ,0
268,1420002017858,登記記録の閉鎖等,0,2021-10-22,2021-10-19,有限会社林崎工務店,,有限会社,青森県,三沢市,松園町３丁目２番２号,,02,207,0330037,,,2021-10-19,清算の結了等,,,2015-10-05,1,,,,,ハヤシザキコウムテン,0
337,2010801028996,登記記録の閉鎖等,0,2021-10-22,2021-10-11,株式会社Ｓ＆Ｄ不動産,,株式会社,東京都,江東区,有明１丁目１－１７－１９１６,,13,108,1350063,,,2021-10-11,清算の結了等,,,2018-07-18,1,,,,,エスアンドディーフドウサン,0
345,2011101002980,登記記録の閉鎖等,0,2021-10-22,2021-10-18,株式会社タイガーコンサルティング,,株式会社,東京都,新宿区,高田馬場１丁目１９番７号,,13,104,1690075,,,2021-10-18,合併による解散等,3011101007715,令和３年９月３０日東京都新宿区高田馬場一丁目１９番７号株式会社エスエヌビルディング（3011101007715）に合併し解散,2015-10-05,1,,,,,タイガーコンサルティング,0
354,2011101089234,登記記録の閉鎖等,0,2021-10-22,2021-10-01,株式会社全日本教育研究会,,株式会社,東京都,新宿区,西新宿１丁目２５番１号新宿センタービル４６階,,13,104,1600023,,,2021-10-01,合併による解散等,3011101036128,令和３年１０月１日東京都新宿区西新宿一丁目２５番１号新宿センタービル４６階株式会社エイジェック（3011101036128）に合併し解散,2019-10-10,1,,,,,ゼンニホンキョウイクケンキュウカイ,0
369,2011702010985,登記記録の閉鎖等,0,2021-10-22,2021-10-18,有限会社丸正興産,,有限会社,東京都,江戸川区,中央１丁目３番５号,,13,123,1320021,,,2021-10-18,清算の結了等,,,2015-10-05,1,,,,,マルショウコウサン,0
385,2020002009341,登記記録の閉鎖等,0,2021-10-22,2021-10-14,有限会社安孫子青果,,有限会社,神奈川県,横浜市磯子区,杉田９丁目２３番１０号,,14,107,2350033,,,2021-10-14,清算の結了等,,,2015-10-05,1,,,,,アビコセイカ,0
391,2030001049742,登記記録の閉鎖等,0,2021-10-22,2021-10-14,株式会社睦月,,株式会社,埼玉県,志木市,中宗岡４丁目１８番３１号,,11,228,3530002,,,2021-10-14,清算の結了等,,,2015-10-05,1,,,,,,0
405,2040001033670,登記記録の閉鎖等,0,2021-10-22,2021-10-14,株式会社ユーシス,,株式会社,千葉県,浦安市,入船３丁目７０番,,12,227,2790012,,,2021-10-14,清算の結了等,,,2015-10-05,1,,,,,ユーシス,0
424,2060001004050,登記記録の閉鎖等,0,2021-10-22,2021-10-15,北都電工株式会社,,株式会社,栃木県,宇都宮市,上野町６０７６番地１５,,09,201,3210981,,,2021-10-15,清算の結了等,,,2015-10-05,1,,,,,ホクトデンコウ,0
480,2200001035766,登記記録の閉鎖等,0,2021-10-22,2021-10-19,穂高荘グローバル株式会社,,株式会社,岐阜県,高山市,奥飛騨温泉郷神坂４１８番地,,21,203,5061421,,,2021-10-19,清算の結了等,,,2018-12-06,1,,,,,ホダカソウグローバル,0
488,2220001005271,登記記録の閉鎖等,0,2021-10-22,2021-10-20,株式会社バンガード住建,,株式会社,石川県,金沢市,伏見新町３４６番地２,,17,201,9218172,,,2021-10-20,清算の結了等,,,2015-10-05,1,,,,,バンガードジュウケン,0
491,2240001027339,登記記録の閉鎖等,0,2021-10-22,2021-10-18,株式会社ＳＣトレイディング,,株式会社,広島県,呉市,西中央２丁目２番１２号,,34,202,7370811,,,2021-10-18,清算の結了等,,,2015-10-05,1,,,,,エスシートレイディング,0
499,2250001014856,登記記録の閉鎖等,0,2021-10-22,2021-10-20,株式会社三知下松,,株式会社,山口県,下松市,大手町２丁目２番２２－３０１号,,35,207,7440015,,,2021-10-20,清算の結了等,,,2015-10-05,1,,,,,サンチクダマツ,0
504,2290001019736,登記記録の閉鎖等,0,2021-10-22,2021-10-12,株式会社豊和,,株式会社,福岡県,福岡市南区,長丘３丁目３番１－５０３号,,40,134,8150075,,,2021-10-12,清算の結了等,,,2015-10-05,1,,,,,ホウワ,0
512,2310002014923,登記記録の閉鎖等,0,2021-10-22,2021-10-20,有限会社諫早仏光堂,,有限会社,長崎県,諫早市,小川町８番１号,,42,204,8540053,,,2021-10-20,清算の結了等,,,2015-10-05,1,,,,,イサハヤブッコウドウ,0
520,2340002011645,登記記録の閉鎖等,0,2021-10-22,2021-10-19,有限会社気象かごしま,,有限会社,鹿児島県,鹿児島市,下荒田４丁目３２番５号,,46,201,8900056,,,2021-10-19,清算の結了等,,,2015-10-05,1,,,,,,0
523,2340003002437,登記記録の閉鎖等,0,2021-10-22,2021-10-21,合同会社ＢＩＬＬＩＯＮ,,合同会社,鹿児島県,鹿児島市,谷山中央８丁目２０－１１－２Ｆ,,46,201,8910141,,,2021-10-21,清算の結了等,,,2017-10-04,1,,,,,ビリオン,0
535,2380002034642,登記記録の閉鎖等,0,2021-10-22,2021-10-20,有限会社遠藤精肉店,,有限会社,福島県,喜多方市,字七百苅８５９３番地１,,07,208,9660864,,,2021-10-20,清算の結了等,,,2015-10-05,1,,,,,,0
542,2430001003097,登記記録の閉鎖等,0,2021-10-22,2021-10-20,株式会社大平商店,,株式会社,北海道,札幌市厚別区,厚別中央四条３丁目７番２３号,,01,108,0040054,,,2021-10-20,清算の結了等,,,2015-10-05,1,,,,,オオダイラショウテン,0
544,2430001033375,登記記録の閉鎖等,0,2021-10-22,2021-10-21,株式会社アイランドワークス,,株式会社,北海道,石狩市,花川東二条３丁目３５番地,,01,235,0613262,,,2021-10-21,清算の結了等,,,2015-10-05,1,,,,,アイランドワークス,0
583,3010701005062,登記記録の閉鎖等,0,2021-10-22,2021-10-15,株式会社スペース・プランニング,,株式会社,東京都,大田区,中央４丁目２３番８号,,13,111,1430024,,,2021-10-15,清算の結了等,,,2015-10-05,1,,,,,スペースプランニング,0
607,3011003007227,登記記録の閉鎖等,0,2021-10-22,2021-10-18,シルバークレスト合同会社,,合同会社,東京都,渋谷区,桜丘町２３番１７号シティコート桜丘４０８,,13,113,1500031,,,2021-10-18,合併による解散等,4013303003268,令和３年１０月１日東京都港区新橋五丁目６番４号トゥシェ新橋９０４号グリーンバリー株式会社（4013303003268）に合併し解散,2016-11-22,1,,,,,シルバークレスト,0
613,3011101085595,登記記録の閉鎖等,0,2021-10-22,2021-10-01,株式会社エイジェック総研,,株式会社,東京都,新宿区,西新宿１丁目２５番１号新宿センタービル４６階,,13,104,1600023,,,2021-10-01,合併による解散等,3011101036128,令和３年１０月１日東京都新宿区西新宿一丁目２５番１号新宿センタービル４６階株式会社エイジェック（3011101036128）に合併し解散,2018-10-15,1,,,,,エイジェックソウケン,0
630,3012402023590,登記記録の閉鎖等,0,2021-10-22,2021-10-18,有限会社新得工業,,有限会社,東京都,稲城市,若葉台４丁目３０番地の１８,,13,225,2060824,,,2021-10-18,清算の結了等,,,2015-10-05,1,,,,,シントクコウギョウ,0
634,3012802004959,登記記録の閉鎖等,0,2021-10-22,2021-10-14,有限会社ブルーベアースクール,,有限会社,東京都,武蔵村山市,学園２丁目９番地の１３,,13,223,2080011,,,2021-10-14,清算の結了等,,,2015-10-05,1,,,,,ブルーベアースクール,0
637,3013201005202,登記記録の閉鎖等,0,2021-10-22,2021-10-06,株式会社フレックス,,株式会社,東京都,目黒区,上目黒３丁目１０番３号,,13,110,1530051,,,2021-10-06,清算の結了等,,,2015-10-05,1,,,,,フレックス,0
639,3013401005885,登記記録の閉鎖等,0,2021-10-22,2021-10-19,株式会社けんこう空間,,株式会社,東京都,多摩市,豊ヶ丘１丁目４０番地１－３０８,,13,224,2060031,,,2021-10-19,清算の結了等,,,2015-10-05,1,,,,,ケンコウクウカン,0
653,3020002037754,登記記録の閉鎖等,0,2021-10-22,2021-10-19,有限会社木下管工,,有限会社,神奈川県,横浜市鶴見区,生麦５丁目１９番５号,,14,101,2300052,,,2021-10-19,清算の結了等,,,2015-10-05,1,,,,,キノシタカンコウ,0
683,3050002039764,登記記録の閉鎖等,0,2021-10-22,2021-10-15,有限会社信海工業,,有限会社,茨城県,常総市,内守谷町２８８９番地の３,,08,211,3030043,,,2021-10-15,清算の結了等,,,2015-10-05,1,,,,,シンカイコウギョウ,0
684,3050002042033,登記記録の閉鎖等,0,2021-10-22,2021-10-15,有限会社コヤノ建設,,有限会社,茨城県,筑西市,大関１００８番地,,08,227,3080015,,,2021-10-15,清算の結了等,,,2015-10-05,1,,,,,コヤノケンセツ,0
688,3060002013784,登記記録の閉鎖等,0,2021-10-22,2021-10-19,有限会社岡崎電気,,有限会社,栃木県,那須郡那珂川町,北向田２３３番地６,,09,411,3240617,,,2021-10-19,清算の結了等,,,2015-10-05,1,,,,,オカザキデンキ,0
691,3070003002257,登記記録の閉鎖等,0,2021-10-22,2021-10-20,合同会社コスゲ,,合同会社,群馬県,藤岡市,立石６２１番地２,,10,209,3750002,,,2021-10-20,清算の結了等,,,2015-10-05,1,,,,,コスゲ,0
702,3110005001616,登記記録の閉鎖等,0,2021-10-22,2021-10-19,特定非営利活動法人のぎくの会,,その他の設立登記法人,新潟県,新潟市江南区,横越上町４丁目１４番１号,,15,104,9500210,,,2021-10-19,清算の結了等,,,2015-10-05,1,,,,,ノギクノカイ,0
716,3120002011534,登記記録の閉鎖等,0,2021-10-22,2021-10-20,有限会社大協歯車製作所,,有限会社,大阪府,大阪市平野区,加美北４丁目３番２号,,27,126,5470001,,,2021-10-20,清算の結了等,,,2015-10-05,1,,,,,ダイキョウハグルマセイサクショ,0
719,3120901035385,登記記録の閉鎖等,0,2021-10-22,2021-10-20,株式会社１７１ホテルズ,,株式会社,大阪府,箕面市,今宮３丁目６番３０号,,27,220,5620033,,,2021-10-20,清算の結了等,,,2015-10-05,1,,,,,イチナナイチホテルズ,0
720,3120902002599,登記記録の閉鎖等,0,2021-10-22,2021-10-19,有限会社ウエストヒルズ,,有限会社,大阪府,茨木市,郡５丁目２５番２２号,,27,211,5670072,,,2021-10-19,清算の結了等,,,2015-10-05,1,,,,,ウエストヒルズ,0
740,3180002087024,登記記録の閉鎖等,0,2021-10-22,2021-10-19,有限会社大府サービス,,有限会社,愛知県,知多郡東浦町,大字石浜字桜見台５番地の４,,23,442,4702103,,,2021-10-19,清算の結了等,,,2015-10-05,1,,,,,オオブサービス,0
753,3230002009798,登記記録の閉鎖等,0,2021-10-22,2021-10-19,土山製材興業有限会社,,有限会社,富山県,南砺市,土山７４番地の４,,16,210,9391604,,,2021-10-19,清算の結了等,,,2015-10-05,1,,,,,ドヤマセイザイコウギョウ,0
771,3260001012916,登記記録の閉鎖等,0,2021-10-22,2021-10-20,株式会社片山本店,,株式会社,岡山県,倉敷市,児島稗田町９９番地,00003146,33,202,7110937,,,2021-10-20,清算の結了等,,,2015-10-05,1,,,,,カタヤマホンテン,0
772,3260002028226,登記記録の閉鎖等,0,2021-10-22,2021-10-18,有限会社クラフト,,有限会社,岡山県,津山市,東一宮５９－１０,,33,203,7080814,,,2021-10-18,清算の結了等,,,2015-10-05,1,,,,,クラフト,0
789,3290801021163,登記記録の閉鎖等,0,2021-10-22,2021-10-15,株式会社くろつちメディカルパートナーズ,,株式会社,福岡県,春日市,星見ヶ丘２丁目５５番２０,,40,218,8160849,,,2021-10-15,合併による解散等,2010001066921,令和３年１０月１日東京都世田谷区経堂一丁目４１番１６号ケアレックス株式会社（2010001066921）に合併し解散,2015-10-05,1,,,,,クロツチメディカルパートナーズ,0
791,3290802000455,登記記録の閉鎖等,0,2021-10-22,2021-10-08,有限会社トータルインフラテック,,有限会社,福岡県,北九州市八幡西区,永犬丸５丁目１６番９－２０１号,,40,109,8070851,,,2021-10-08,清算の結了等,,,2015-10-05,1,,,,,トータルインフラテック,0
797,3330002004797,登記記録の閉鎖等,0,2021-10-22,2021-10-20,有限会社ジイ・エム・シー熊本,,有限会社,熊本県,熊本市北区,山室２丁目６番６号,,43,105,8600084,,,2021-10-20,清算の結了等,,,2015-10-05,1,,,,,ジイエムシークマモト,0
806,3370001044972,登記記録の閉鎖等,0,2021-10-22,2021-10-11,株式会社キャピタル,,株式会社,宮城県,仙台市宮城野区,清水沼３丁目３番４６号ｉｎｆｉｎｉｔｙ０２－２１３号室,,04,102,9830845,,,2021-10-11,清算の結了等,,,2019-10-21,1,,,,,キャピタル,0
829,3430002019257,登記記録の閉鎖等,0,2021-10-22,2021-10-15,有限会社三上表具店,,有限会社,北海道,札幌市白石区,北郷七条３丁目３番２号,,01,104,0030837,,,2021-10-15,清算の結了等,,,2015-10-05,1,,,,,ミカミヒョウグテン,0
835,3470002012308,登記記録の閉鎖等,0,2021-10-22,2021-10-20,有限会社丸南,,有限会社,香川県,丸亀市,郡家町１９８５番地６,,37,202,7630093,,,2021-10-20,清算の結了等,,,2015-10-05,1,,,,,マルナン,0
843,3500002018887,登記記録の閉鎖等,0,2021-10-22,2021-10-21,有限会社二宮建材,,有限会社,愛媛県,今治市,菊間町種４５８８番地,,38,202,7992302,,,2021-10-21,清算の結了等,,,2015-10-05,1,,,,,ニノミヤケンザイ,0
847,4010001147471,登記記録の閉鎖等,0,2021-10-22,2021-10-18,株式会社ライフ,,株式会社,東京都,千代田区,内神田２丁目１５番４号,,13,101,1010047,,,2021-10-18,清算の結了等,,,2015-10-05,1,,,,,ライフ,0
864,4010002029735,登記記録の閉鎖等,0,2021-10-22,2021-10-14,有限会社司苑,,有限会社,東京都,千代田区,内神田３丁目２２番４号,,13,101,1010047,,,2021-10-14,清算の結了等,,,2015-10-05,1,,,,,ツカサエン,0
866,4010003016311,登記記録の閉鎖等,0,2021-10-22,2021-10-18,合同会社オー・ワイ・エス芝浦,,合同会社,東京都,千代田区,神田神保町１丁目１１番地さくら綜合事務所内,,13,101,1010051,,,2021-10-18,清算の結了等,,,2015-10-05,1,,,,,オーワイエスシバウラ,0
880,4010401156733,登記記録の閉鎖等,0,2021-10-22,2021-10-08,株式会社うるおい,,株式会社,東京都,港区,三田２丁目１４番４－５０６号,,13,103,1080073,,,2021-10-08,清算の結了等,,,2020-11-30,1,,,,,ウルオイ,0
887,4010403017586,登記記録の閉鎖等,0,2021-10-22,2021-10-08,Ｏｓａｄａ　Ｅｎｅｒｇｙ合同会社,,合同会社,東京都,港区,三田１丁目３番４４－２０４号,,13,103,1080073,,,2021-10-08,清算の結了等,,,2017-11-13,1,,,,,オサダエナジー,0
905,4011001046465,登記記録の閉鎖等,0,2021-10-22,2021-10-06,株式会社Ｃ．Ｔ．Ｓエンヂニアリング,,株式会社,東京都,渋谷区,桜丘町１０番１３号,,13,113,1500031,,,2021-10-06,清算の結了等,,,2015-10-05,1,,,,,シーティーエスエンヂニアリング,0
913,4011101027828,登記記録の閉鎖等,0,2021-10-22,2021-10-08,株式会社エスジェイピー,,株式会社,東京都,港区,芝１丁目５番１１号,,13,103,1050014,,,2021-10-08,清算の結了等,,,2015-10-05,1,,,,,エスジェイピー,0
930,4011801032078,登記記録の閉鎖等,0,2021-10-22,2021-10-19,エトス株式会社,,株式会社,東京都,葛飾区,水元３丁目１５番８号,,13,122,1250032,,,2021-10-19,清算の結了等,,,2016-07-13,1,,,,,エトス,0
947,4020001027243,登記記録の閉鎖等,0,2021-10-22,2021-10-19,株式会社誠和國際,,株式会社,神奈川県,横浜市中区,山下町１６２番地１ニューライフ元町９０１号,,14,104,2310023,,,2021-10-19,清算の結了等,,,2015-10-05,1,,,,,セイワコクサイ,0
956,4020002031946,登記記録の閉鎖等,0,2021-10-22,2021-10-07,有限会社横浜製版印刷所,,有限会社,神奈川県,横浜市南区,南太田４丁目７番１１号,,14,105,2320006,,,2021-10-07,清算の結了等,,,2015-10-05,1,,,,,ヨコハマセイハンインサツショ,0
971,4030001077840,登記記録の閉鎖等,0,2021-10-22,2021-10-14,渡部通信工亊株式会社,,株式会社,埼玉県,川口市,大字安行領根岸１１３６番地３,,11,203,3330834,,,2021-10-14,清算の結了等,,,2015-10-05,1,,,,,ワタベツウシンコウジ,0
975,4030002025880,登記記録の閉鎖等,0,2021-10-22,2021-10-15,有限会社三信電業社,,有限会社,埼玉県,蕨市,南町２丁目１４番２３号,,11,223,3350003,,,2021-10-15,清算の結了等,,,2015-10-05,1,,,,,サンシンデンギョウシャ,0
992,4070001011300,登記記録の閉鎖等,0,2021-10-22,2021-10-19,株式会社清水コーキング,,株式会社,群馬県,高崎市,箕郷町柏木沢１０２１番地２,,10,202,3703101,,,2021-10-19,清算の結了等,,,2015-10-05,1,,,,,シミズコーキング,0
1002,4080402014801,登記記録の閉鎖等,0,2021-10-22,2021-10-18,有限会社遠州路,,有限会社,静岡県,浜松市東区,貴平町２５番地,,22,132,4313104,,,2021-10-18,清算の結了等,,,2015-10-05,1,,,,,エンシュウジ,0
1005,4090002014259,登記記録の閉鎖等,0,2021-10-22,2021-10-19,有限会社フジ鈑金工業所,,有限会社,山梨県,北杜市,長坂町大八田７８０番地の１,,19,209,4080034,,,2021-10-19,清算の結了等,,,2015-10-05,1,,,,,フジバンキンコウギョウショ,0
1012,4120001019593,登記記録の閉鎖等,0,2021-10-22,2021-10-20,株式会社植田製作所,,株式会社,大阪府,大阪市平野区,長吉六反２丁目２番２号,,27,126,5470012,,,2021-10-20,清算の結了等,,,2015-10-05,1,,,,,ウエダセイサクショ,0
1023,4120005013766,登記記録の閉鎖等,0,2021-10-22,2021-10-21,妙風寺,,その他の設立登記法人,大阪府,守口市,豊秀町１丁目３番地,,27,209,5700082,,,2021-10-21,清算の結了等,,,2015-10-05,1,,,,,ミョウフウジ,0
1039,4130005015506,登記記録の閉鎖等,0,2021-10-22,2021-10-18,特定非営利活動法人衆園ＳＨＵＯＮ,,その他の設立登記法人,京都府,京都市下京区,木屋町通七条下る東入若宮町４７９番地ＧＲＡＮＤＥＧＥｋａｍｏｇａｗａ５０３,,26,106,6008201,,,2021-10-18,清算の結了等,,,2019-02-08,1,,,,,シュオンシュオン,0
1040,4140001075577,登記記録の閉鎖等,0,2021-10-22,2021-10-19,三和工業株式会社,,株式会社,兵庫県,西脇市,野中町３６１番地の２,,28,213,6770005,,,2021-10-19,清算の結了等,,,2015-10-05,1,,,,,サンワコウギョウ,0
1047,4140003004765,登記記録の閉鎖等,0,2021-10-22,2021-10-19,合資会社カルマンモリシマ,,合資会社,兵庫県,神戸市西区,二ツ屋１丁目１１番３号,,28,111,6512142,,,2021-10-19,清算の結了等,,,2015-10-05,1,,,,,カルマンモリシマ,0
1076,4230001012372,登記記録の閉鎖等,0,2021-10-22,2021-10-12,株式会社江守,,株式会社,富山県,射水市,二の丸町１６番３０号,,16,211,9340026,,,2021-10-12,清算の結了等,,,2021-08-30,1,,,,,エモリ,0
1077,4240001041461,登記記録の閉鎖等,0,2021-10-22,2021-10-15,株式会社近畿日本ツーリスト中国四国,,株式会社,広島県,広島市中区,立町１番２４号,,34,101,7300032,,,2021-10-15,合併による解散等,2010001187437,令和３年１０月１日東京都新宿区西新宿二丁目６番１号近畿日本ツーリスト株式会社（2010001187437）に合併し解散,2015-10-05,1,,,,,キンキニッポンツーリストチュウゴクシコク,0
1087,4290002001567,登記記録の閉鎖等,0,2021-10-22,2021-10-12,有限会社エフ・エム,,有限会社,福岡県,福岡市南区,横手４丁目７番４０号,,40,134,8111311,,,2021-10-12,清算の結了等,,,2015-10-05,1,,,,,エフエム,0
1088,4290002004132,登記記録の閉鎖等,0,2021-10-22,2021-10-12,有限会社アール・アマング,,有限会社,福岡県,福岡市東区,千早５丁目８番１号,,40,131,8130044,,,2021-10-12,清算の結了等,,,2015-10-05,1,,,,,アールアマング,0
1090,4290002024576,登記記録の閉鎖等,0,2021-10-22,2021-10-01,有限会社ひまわり不動産,,有限会社,福岡県,福岡市南区,清水３丁目２１番３０号,,40,134,8150031,,,2021-10-01,清算の結了等,,,2015-10-05,1,,,,,ヒマワリフドウサン,0
1102,4340002001933,登記記録の閉鎖等,0,2021-10-22,2021-10-21,有限会社エポツクサイン,,有限会社,鹿児島県,鹿児島市,紫原７丁目１８番２０号,,46,201,8900082,,,2021-10-21,清算の結了等,,,2015-10-05,1,,,,,,0
1112,4370001025212,登記記録の閉鎖等,0,2021-10-22,2021-10-12,株式会社アサノ東北,,株式会社,宮城県,仙台市青葉区,上杉１丁目１６番４－２０２号,,04,101,9800011,,,2021-10-12,清算の結了等,,,2015-10-05,1,,,,,アサノトウホク,0
1115,4370001045169,登記記録の閉鎖等,0,2021-10-22,2021-10-11,株式会社ＩＴＯ,,株式会社,宮城県,仙台市青葉区,水の森３丁目１－３９－２０１号室,,04,101,9810962,,,2021-10-11,清算の結了等,,,2019-12-19,1,,,,,アイティーオー,0
1116,4380001016912,登記記録の閉鎖等,0,2021-10-22,2021-10-18,株式会社システムエンジニア,,株式会社,福島県,双葉郡浪江町,大字請戸字北久保２０番地の１,,07,547,9791522,,,2021-10-18,清算の結了等,,,2015-10-05,1,,,,,システムエンジニア,0
1136,4480002000459,登記記録の閉鎖等,0,2021-10-22,2021-10-20,有限会社ういろのふくや,,有限会社,徳島県,徳島市,一番町３丁目２７番地,,36,201,7700833,,,2021-10-20,清算の結了等,,,2015-10-05,1,,,,,ウイロノフクヤ,0
1138,4480002012520,登記記録の閉鎖等,0,2021-10-22,2021-10-20,有限会社大和ボデー,,有限会社,徳島県,板野郡松茂町,中喜来字中須１４番地,,36,401,7710212,,,2021-10-20,清算の結了等,,,2015-10-05,1,,,,,,0
1147,5010001142942,登記記録の閉鎖等,0,2021-10-22,2021-10-14,株式会社宮川工業所,,株式会社,東京都,中央区,入船１丁目６番４号,,13,102,1040042,,,2021-10-14,清算の結了等,,,2015-10-05,1,,,,,ミヤカワコウギョウショ,0
1162,5010101011510,登記記録の閉鎖等,0,2021-10-22,2021-10-06,株式会社ＮＩＴＲＯ・Ｋ,,株式会社,埼玉県,川口市,北原台１丁目２５番７号,,11,203,3330815,,,2021-10-06,合併による解散等,7120001164040,令和３年１０月１日東京都八王子市八木町６番１１号株式会社オアシア（7120001164040）に合併し解散,2015-10-05,1,,,,,ニトロケイ,0
1163,5010401020509,登記記録の閉鎖等,0,2021-10-22,2021-10-08,東京国際貿易株式会社,,株式会社,東京都,港区,西新橋２丁目９番１号,,13,103,1050003,,,2021-10-08,合併による解散等,7010401020507,令和３年１０月１日東京都港区西新橋二丁目９番１号ＴＴＣフーズ株式会社（7010401020507）に合併し解散,2015-10-05,1,,,,,トウキョウコクサイボウエキ,0
1184,5010902012896,登記記録の閉鎖等,0,2021-10-22,2021-10-14,有限会社フィックス・インク・インターナショナル,,有限会社,東京都,世田谷区,宇奈根１丁目７番８号,,13,112,1570068,,,2021-10-14,清算の結了等,,,2015-10-05,1,,,,,,0
1195,5011202008338,登記記録の閉鎖等,0,2021-10-22,2021-10-19,有限会社デジタルサウンドワークス,,有限会社,東京都,中野区,沼袋１丁目３４番１０号,,13,114,1650025,,,2021-10-19,清算の結了等,,,2015-10-05,1,,,,,デジタルサウンドワークス,0
1196,5011202012091,登記記録の閉鎖等,0,2021-10-22,2021-10-18,有限会社アートグローリー,,有限会社,東京都,中野区,中央１丁目２６番６号３０２,,13,114,1640011,,,2021-10-18,清算の結了等,,,2015-10-05,1,,,,,アートグローリー,0
1212,5012402004341,登記記録の閉鎖等,0,2021-10-22,2021-10-19,有限会社メディ・ハート,,有限会社,東京都,国分寺市,東元町３丁目３３番１号,,13,214,1850022,,,2021-10-19,合併による解散等,5180001122358,令和３年１０月１日名古屋市中村区平池町四丁目６０番地の１２グローバルゲート１１階ＧＯＯＤ　ＡＩＤ株式会社（5180001122358）に合併し解散,2015-10-05,1,,,,,メディハート,0
1216,5020001037308,登記記録の閉鎖等,0,2021-10-22,2021-10-19,関東フロンテア株式会社,,株式会社,神奈川県,横浜市中区,松影町１丁目３番７号,,14,104,2310025,,,2021-10-19,清算の結了等,,,2015-10-05,1,,,,,,0
1226,5021001061446,登記記録の閉鎖等,0,2021-10-22,2021-10-20,株式会社アカラ,,株式会社,神奈川県,平塚市,紅谷町５番１６号,,14,203,2540043,,,2021-10-20,清算の結了等,,,2017-02-22,1,,,,,アカラ,0
1228,5021002026365,登記記録の閉鎖等,0,2021-10-22,2021-10-20,有限会社祐見コーポレーション,,有限会社,神奈川県,相模原市中央区,陽光台４丁目１９番１１号,,14,152,2520226,,,2021-10-20,清算の結了等,,,2015-10-05,1,,,,,ユミコーポレーション,0
1241,5040001023314,登記記録の閉鎖等,0,2021-10-22,2021-10-13,エヌ・ケー・インターナショナル株式会社,,株式会社,千葉県,船橋市,北本町１丁目２１番１－４１０号,,12,204,2730864,,,2021-10-13,清算の結了等,,,2015-10-05,1,,,,,エヌケーインターナショナル,0
1257,5050005003567,登記記録の閉鎖等,0,2021-10-22,2021-10-19,石岡ショッピングセンター協同組合,,その他の設立登記法人,茨城県,石岡市,石岡２７５２番地１,,08,205,3150001,,,2021-10-19,清算の結了等,,,2015-10-05,1,,,,,イシオカショッピングセンター,0
1260,5070001006646,登記記録の閉鎖等,0,2021-10-22,2021-10-19,株式会社群馬エイブイセンター,,株式会社,群馬県,高崎市,山名町８８８番地１２,,10,202,3701213,,,2021-10-19,清算の結了等,,,2015-10-05,1,,,,,グンマエイブイセンター,0
1278,5100002032480,登記記録の閉鎖等,0,2021-10-22,2021-10-20,有限会社イケガミ,,有限会社,長野県,伊那市,上牧７２０１番地１０,,20,209,3960006,,,2021-10-20,清算の結了等,,,2015-10-05,1,,,,,イケガミ,0
1282,5120001157475,登記記録の閉鎖等,0,2021-10-22,2021-10-20,株式会社桜木服装,,株式会社,大阪府,門真市,深田町２７番６号,,27,223,5710042,,,2021-10-20,清算の結了等,,,2015-10-05,1,,,,,サクラギフクソウ,0
1345,5250002016304,登記記録の閉鎖等,0,2021-10-22,2021-10-20,有限会社共電商事,,有限会社,山口県,下松市,大字末武上６４０番地１,,35,207,7440024,,,2021-10-20,清算の結了等,,,2015-10-05,1,,,,,キョウデンショウジ,0
1357,5290001077310,登記記録の閉鎖等,0,2021-10-22,2021-09-03,株式会社Ｒ　ＭＥＴＡＬ,,株式会社,福岡県,福岡市博多区,麦野２丁目１６番１５号,,40,132,8120882,,,2021-09-03,清算の結了等,,,2017-04-12,1,,,,,アールメタル,0
1364,5290003004213,登記記録の閉鎖等,0,2021-10-22,2021-10-07,合同会社安藤製作所,,合同会社,福岡県,福岡市中央区,天神２丁目３番１０号,,40,133,8100001,,,2021-10-07,清算の結了等,,,2015-10-05,1,,,,,アンドウセイサクショ,0
1368,5290802000668,登記記録の閉鎖等,0,2021-10-22,2021-10-20,有限会社イワタケ商会,,有限会社,福岡県,北九州市小倉南区,沼本町１丁目６番６号,,40,107,8000208,,,2021-10-20,清算の結了等,,,2015-10-05,1,,,,,,0
1380,5330002027945,登記記録の閉鎖等,0,2021-10-22,2021-10-19,水俣燃料有限会社,,有限会社,熊本県,水俣市,長野町５３０番地の１,,43,205,8670013,,,2021-10-19,清算の結了等,,,2015-10-05,1,,,,,ミナマタネンリョウ,0
1391,5370002000675,登記記録の閉鎖等,0,2021-10-22,2021-10-11,有限会社グリーンスポット仙台,,有限会社,宮城県,仙台市泉区,福岡字藤沢１３番地,,04,105,9813225,,,2021-10-11,清算の結了等,,,2015-10-05,1,,,,,グリーンスポットセンダイ,0
1393,5370002020772,登記記録の閉鎖等,0,2021-10-22,2021-10-19,有限会社ＬＲＨ,,有限会社,岩手県,北上市,町分２地割１２５番の１,,03,206,0240082,,,2021-10-19,清算の結了等,,,2015-10-05,1,,,,,エルアールエイチ,0
1402,5400002008302,登記記録の閉鎖等,0,2021-10-22,2021-10-20,有限会社照末製作所,,有限会社,岩手県,花巻市,南川原町３３３番地,,03,205,0250093,,,2021-10-20,清算の結了等,,,2015-10-05,1,,,,,テルスエセイサクショ,0
1403,5420001001297,登記記録の閉鎖等,0,2021-10-22,2021-10-21,第一管工株式会社,,株式会社,青森県,青森市,大字細越字栄山１１７番地,,02,201,0380023,,,2021-10-21,清算の結了等,,,2015-10-05,1,,,,,ダイイチカンコウ,0
1418,5460101000261,登記記録の閉鎖等,0,2021-10-22,2021-10-19,帯広空港ターミナルビル株式会社,,株式会社,北海道,帯広市,泉町西９線中８番地４１,,01,207,0891245,,,2021-10-19,合併による解散等,7430001079728,令和３年１０月１日北海道千歳市美々９８７番地２２北海道エアポート株式会社（7430001079728）に合併し解散,2015-10-05,1,,,,,オビヒロクウコウターミナルビル,0
1419,5460301003320,登記記録の閉鎖等,0,2021-10-22,2021-10-19,女満別空港ビル株式会社,,株式会社,北海道,網走郡大空町,女満別中央２０１番地の３,,01,564,0992371,,,2021-10-19,合併による解散等,7430001079728,令和３年１０月１日北海道千歳市美々９８７番地２２北海道エアポート株式会社（7430001079728）に合併し解散,2015-10-05,1,,,,,メマンベツクウコウビル,0
1428,5490005003754,登記記録の閉鎖等,0,2021-10-22,2021-10-22,医療法人裕貴会,,その他の設立登記法人,高知県,高岡郡四万十町,仁井田７７０番地２,,39,412,7860021,,,2021-10-22,清算の結了等,,,2015-10-05,1,,,,,,0
1442,6010002004851,登記記録の閉鎖等,0,2021-10-22,2021-10-15,有限会社早瀬紙工所,,有限会社,東京都,文京区,大塚３丁目３４番１号,,13,105,1120012,,,2021-10-15,清算の結了等,,,2015-10-05,1,,,,,ハヤセシコウショ,0
1476,6010901038801,登記記録の閉鎖等,0,2021-10-22,2021-10-20,株式会社三谷都市設計事務所,,株式会社,東京都,世田谷区,玉川３丁目２１番８号,,13,112,1580094,,,2021-10-20,清算の結了等,,,2016-09-21,1,,,,,ミタニトシセッケイジムショ,0
1484,6011002034657,登記記録の閉鎖等,0,2021-10-22,2021-10-18,有限会社長谷川音楽事務所,,有限会社,東京都,渋谷区,恵比寿３丁目３６番１３－４０５号,,13,113,1500013,,,2021-10-18,合併による解散等,8010701013647,令和３年１０月１日東京都品川区上大崎二丁目１５番６号日の丸警備保障株式会社（8010701013647）に合併し解散,2015-10-05,1,,,,,ハセガワオンガクジムショ,0
1511,6013202004480,登記記録の閉鎖等,0,2021-10-22,2021-10-07,有限会社東洋電装,,有限会社,東京都,目黒区,目黒本町５丁目１番１３号,,13,110,1520002,,,2021-10-07,清算の結了等,,,2015-10-05,1,,,,,トウヨウデンソウ,0
1522,6020001108396,登記記録の閉鎖等,0,2021-10-22,2021-10-05,株式会社地域電力,,株式会社,神奈川県,川崎市宮前区,犬蔵１丁目２３番１３号,,14,136,2160011,,,2021-10-05,合併による解散等,1020001068356,令和３年１０月１日川崎市宮前区犬蔵一丁目２３番１３株式会社レクスポート（1020001068356）に合併し解散,2015-10-05,1,,,,,チイキデンリョク,0
1535,6021002025432,登記記録の閉鎖等,0,2021-10-22,2021-10-19,ワールド運輸有限会社,,有限会社,神奈川県,相模原市中央区,田名４２８１番地,,14,152,2520244,,,2021-10-19,清算の結了等,,,2015-10-05,1,,,,,ワールドウンユ,0
1539,6030001083721,登記記録の閉鎖等,0,2021-10-22,2021-10-11,株式会社ノンストップ,,株式会社,東京都,北区,赤羽１丁目４２番５号,,13,117,1150045,,,2021-10-11,清算の結了等,,,2015-10-05,1,,,,,ノンストップ,0
1559,6050001029425,登記記録の閉鎖等,0,2021-10-22,2021-10-15,親和エステル工業株式会社,,株式会社,茨城県,常総市,菅生町１５９２番地１,,08,211,3030044,,,2021-10-15,清算の結了等,,,2015-10-05,1,,,,,シンワエステルコウギョウ,0
1574,6100002016879,登記記録の閉鎖等,0,2021-10-22,2021-10-20,有限会社宮尾製作所,,有限会社,長野県,埴科郡坂城町,大字坂城１０９０番地,,20,521,3890601,,,2021-10-20,清算の結了等,,,2015-10-05,1,,,,,ミヤオセイサクショ,0
1593,6120101025738,登記記録の閉鎖等,0,2021-10-22,2021-10-20,南大阪食肉市場株式会社,,株式会社,大阪府,松原市,河合６丁目７５番地,,27,217,5800022,,,2021-10-20,清算の結了等,,,2015-10-05,1,,,,,ミナミオオサカショクニクイチバ,0
1597,6122001001686,登記記録の閉鎖等,0,2021-10-22,2021-10-20,金岡住宅株式会社,,株式会社,大阪府,東大阪市,金岡２丁目１５番４号,,27,227,5770823,,,2021-10-20,合併による解散等,8120002010837,令和３年１０月１日大阪市平野区加美鞍作一丁目８番３４号株式会社オークネット（8120002010837）に合併し解散,2015-10-05,1,,,,,カナオカジュウタク,0
1599,6130001012372,登記記録の閉鎖等,0,2021-10-22,2021-10-21,株式会社インテリア・ナカノ,,株式会社,京都府,京都市山科区,東野狐薮町３番地の９,,26,110,6070000,,,2021-10-21,清算の結了等,,,2015-10-05,1,,,,,インテリアナカノ,0
1642,6270001003606,登記記録の閉鎖等,0,2021-10-22,2021-10-20,株式会社メビウス,,株式会社,鳥取県,米子市,米原４丁目５番６０号,,31,202,6830804,,,2021-10-20,清算の結了等,,,2015-10-05,1,,,,,メビウス,0
1649,6290001047114,登記記録の閉鎖等,0,2021-10-22,2021-10-12,株式会社八女デザイン事務所,,株式会社,福岡県,八女市,祈祷院１３番地４,,40,210,8340025,,,2021-10-12,清算の結了等,,,2015-10-05,1,,,,,ヤメデザインジムショ,0
1661,6290003004195,登記記録の閉鎖等,0,2021-10-22,2021-10-13,合同会社ブレークスルー,,合同会社,福岡県,福岡市中央区,今泉２丁目４－２４ヴェルドミール今泉９０５,,40,133,8100021,,,2021-10-13,清算の結了等,,,2015-10-05,1,,,,,ブレークスルー,0
1672,6340005004782,登記記録の閉鎖等,0,2021-10-22,2021-10-19,公益財団法人宇検村振興育英財団,,その他の設立登記法人,鹿児島県,大島郡宇検村,大字湯湾下朝戸９１５番地,,46,524,8943301,,,2021-10-19,清算の結了等,,,2015-10-05,1,,,,,ウケンソンシンコウイクエイザイダン,0
1673,6350005005846,登記記録の閉鎖等,0,2021-10-22,2021-10-19,医療法人のぞみ医院,,その他の設立登記法人,宮崎県,宮崎市,大字本郷南方２５４１番１,,45,201,8800921,,,2021-10-19,清算の結了等,,,2019-04-10,1,,,,,ノゾミイイン,0
1677,6360002015120,登記記録の閉鎖等,0,2021-10-22,2021-10-18,有限会社沖遊連,,有限会社,沖縄県,浦添市,牧港１丁目５６番１４号,,47,208,9012131,,,2021-10-18,清算の結了等,,,2015-10-05,1,,,,,オキユウレン,0
1682,6370002006102,登記記録の閉鎖等,0,2021-10-22,2021-10-12,有限会社三津木鉄工所,,有限会社,宮城県,仙台市若林区,かすみ町８番１２号,,04,103,9840822,,,2021-10-12,清算の結了等,,,2015-10-05,1,,,,,ミツキテッコウショ,0
1699,6480001002421,登記記録の閉鎖等,0,2021-10-22,2021-10-20,ユニマツチ株式会社,,株式会社,徳島県,徳島市,出来島本町３丁目２８番地３,,36,201,7700823,,,2021-10-20,清算の結了等,,,2015-10-05,1,,,,,ユニマツチ,0
1720,7010003022496,登記記録の閉鎖等,0,2021-10-22,2021-10-15,サンシャイン合同会社,,合同会社,東京都,中央区,銀座７丁目３番９号,,13,102,1040061,,,2021-10-15,清算の結了等,,,2015-10-05,1,,,,,サンシャイン,0
1742,7010701017590,登記記録の閉鎖等,0,2021-10-22,2021-10-18,株式会社ＡＣＣＥＳＳ　Ｗｏｒｋｓ,,株式会社,東京都,千代田区,神田紺屋町１７番地,,13,101,1010035,,,2021-10-18,清算の結了等,,,2015-10-05,1,,,,,アクセスワークス,0
1743,7010701026757,登記記録の閉鎖等,0,2021-10-22,2021-10-07,株式会社コアエッジ,,株式会社,東京都,渋谷区,東１丁目６番７号稲葉ビル,,13,113,1500011,,,2021-10-07,清算の結了等,,,2015-10-05,1,,,,,コアエッジ,0
1764,7011101009641,登記記録の閉鎖等,0,2021-10-22,2021-10-20,株式会社ジュネスプランニングコーポレーション,,株式会社,東京都,新宿区,片町２番地２,,13,104,1600001,,,2021-10-20,清算の結了等,,,2015-10-05,1,,,,,ジュネスプランニングコーポレーション,0
1768,7011101042527,登記記録の閉鎖等,0,2021-10-22,2021-10-01,株式会社エイジェック流通サービス,,株式会社,東京都,新宿区,西新宿１丁目２５番１号新宿センタービル４６階,,13,104,1600023,,,2021-10-01,合併による解散等,3011101036128,令和３年１０月１日東京都新宿区西新宿一丁目２５番１号新宿センタービル４６階株式会社エイジェック（3011101036128）に合併し解散,2015-10-05,1,,,,,エイジェックリュウツウサービス,0
1772,7011101085897,登記記録の閉鎖等,0,2021-10-22,2021-10-01,株式会社ＫＲＥ,,株式会社,東京都,新宿区,神楽坂５丁目１０番地,,13,104,1620825,,,2021-10-01,合併による解散等,8011101089724,令和３年１０月１日東京都新宿区神楽坂五丁目１０番地株式会社ＨＡＭインベストメント（8011101089724）に合併し解散,2018-11-06,1,,,,,ケイアールイー,0
1785,7011303003665,登記記録の閉鎖等,0,2021-10-22,2021-10-18,合同会社こてまる,,合同会社,東京都,杉並区,阿佐谷南１丁目９番２号ＧＯＯＤ４－Ａ,,13,115,1660004,,,2021-10-18,清算の結了等,,,2020-06-08,1,,,,,コテマル,0
1799,7012702002480,登記記録の閉鎖等,0,2021-10-22,2021-10-20,有限会社カドグチ,,有限会社,東京都,東村山市,久米川町１丁目４８番地４９,,13,213,1890003,,,2021-10-20,清算の結了等,,,2015-10-05,1,,,,,カドグチ,0
1802,7013402006202,登記記録の閉鎖等,0,2021-10-22,2021-10-13,ＢＳＰ有限会社,,有限会社,東京都,日野市,南平２丁目１０番地の１０,,13,212,1910041,,,2021-10-13,清算の結了等,,,2015-10-05,1,,,,,,0
1815,7021001035118,登記記録の閉鎖等,0,2021-10-22,2021-10-20,富士風力開発株式会社,,株式会社,神奈川県,小田原市,曽我谷津６２２番地,,14,206,2500204,,,2021-10-20,清算の結了等,,,2015-10-05,1,,,,,フジフウリョクカイハツ,0
1826,7030001015319,登記記録の閉鎖等,0,2021-10-22,2021-10-15,株式会社システムコーディネート,,株式会社,埼玉県,さいたま市緑区,大字三室１３８２番地７,,11,109,3360911,,,2021-10-15,清算の結了等,,,2015-10-05,1,,,,,システムコーディネート,0
1831,7030002009468,登記記録の閉鎖等,0,2021-10-22,2021-10-15,有限会社東和,,有限会社,埼玉県,さいたま市浦和区,北浦和４丁目６番１５号,,11,107,3300074,,,2021-10-15,清算の結了等,,,2015-10-05,1,,,,,トウワ,0
1832,7030002036421,登記記録の閉鎖等,0,2021-10-22,2021-10-12,有限会社ハマ美装,,有限会社,埼玉県,入間市,久保稲荷１丁目９番地１扇町屋団地１９－５０３,,11,225,3580024,,,2021-10-12,清算の結了等,,,2015-10-05,1,,,,,,0
1844,7040001019392,登記記録の閉鎖等,0,2021-10-22,2021-10-20,船橋電子株式会社,,株式会社,千葉県,船橋市,栄町２丁目１０番１号,,12,204,2730018,,,2021-10-20,合併による解散等,7011501000992,令和３年９月３０日東京都北区田端六丁目１番１号株式会社アドバネクス（7011501000992）に合併し解散,2015-10-05,1,,,,,フナバシデンシ,0
1845,7040001063812,登記記録の閉鎖等,0,2021-10-22,2021-10-14,株式会社東旭工業所,,株式会社,千葉県,香取郡神崎町,武田字瓜ケ作５３５番地,,12,342,2890212,,,2021-10-14,清算の結了等,,,2015-10-05,1,,,,,トウキコウギョウショ,0
1854,7050002038952,登記記録の閉鎖等,0,2021-10-22,2021-10-13,有限会社佐々江商会,,有限会社,茨城県,牛久市,南５丁目７番地５,,08,219,3001222,,,2021-10-13,清算の結了等,,,2015-10-05,1,,,,,ササエショウカイ,0
1884,7120001061048,登記記録の閉鎖等,0,2021-10-22,2021-10-18,ウスキ不動産販売株式会社,,株式会社,大阪府,大阪市北区,曾根崎新地１丁目１０番７号４階,,27,127,5300002,,,2021-10-18,清算の結了等,,,2015-10-05,1,,,,,ウスキフドウサンハンバイ,0
1891,7120001204036,登記記録の閉鎖等,0,2021-10-22,2021-10-21,株式会社メルシェール,,株式会社,岡山県,笠岡市,小平井１３７０番地６,,33,205,7140012,,,2021-10-21,清算の結了等,,,2017-03-06,1,,,,,メルシェール,0
1900,7120101038887,登記記録の閉鎖等,0,2021-10-22,2021-10-18,株式会社日本ハウステック,,株式会社,大阪府,岸和田市,土生町３丁目１５番２２号,,27,202,5960825,,,2021-10-18,清算の結了等,,,2015-10-05,1,,,,,ニホンハウステック,0
1905,7120102019218,登記記録の閉鎖等,0,2021-10-22,2021-10-18,有限会社フルオカ,,有限会社,大阪府,羽曳野市,高鷲１丁目４番１１号,,27,222,5830882,,,2021-10-18,清算の結了等,,,2015-10-05,1,,,,,フルオカ,0
1910,7130001034531,登記記録の閉鎖等,0,2021-10-22,2021-10-18,株式会社アルシュ音楽プロダクション,,株式会社,京都府,宇治市,伊勢田町北山４４番地の１４,,26,204,6110043,,,2021-10-18,清算の結了等,,,2015-10-05,1,,,,,アルシュオンガクプロダクション,0
1932,7180001035871,登記記録の閉鎖等,0,2021-10-22,2021-10-19,株式会社コンサイス,,株式会社,愛知県,名古屋市中区,金山２丁目１１番１４号,,23,106,4600022,,,2021-10-19,清算の結了等,,,2015-10-05,1,,,,,コンサイス,0
1954,7220002010910,登記記録の閉鎖等,0,2021-10-22,2021-10-20,有限会社筒又,,有限会社,石川県,小松市,龍助町２１番地,,17,203,9230926,,,2021-10-20,清算の結了等,,,2015-10-05,1,,,,,ドウマタ,0
1986,7330002006352,登記記録の閉鎖等,0,2021-10-22,2021-10-19,有限会社タカガイ,,有限会社,熊本県,熊本市南区,良町４丁目１番５３号,,43,104,8620969,,,2021-10-19,清算の結了等,,,2015-10-05,1,,,,,タカガイ,0
1998,7360001006276,登記記録の閉鎖等,0,2021-10-22,2021-10-20,株式会社ひがわ薬局,,株式会社,沖縄県,那覇市,樋川１丁目１２番５号,00101239,47,201,9000022,,,2021-10-20,清算の結了等,,,2015-10-05,1,,,,,ヒガワヤッキョク,0
2008,7410005004709,登記記録の閉鎖等,0,2021-10-22,2021-10-19,学校法人真栄学園,,その他の設立登記法人,秋田県,仙北市,角館町西勝楽町２５番地,,05,215,0140321,,,2021-10-19,清算の結了等,,,2015-10-05,1,,,,,シンエイガクエン,0
2042,8010002012159,登記記録の閉鎖等,0,2021-10-22,2021-10-14,有限会社多幸興産,,有限会社,東京都,千代田区,神田神保町２丁目４番地,,13,101,1010051,,,2021-10-14,清算の結了等,,,2015-10-05,1,,,,,タコウコウサン,0
2046,8010003025556,登記記録の閉鎖等,0,2021-10-22,2021-10-15,ＳＦＳ合同会社,,合同会社,東京都,江戸川区,中葛西６丁目３－１１タウンコート中葛西３０１号,,13,123,1340083,,,2021-10-15,清算の結了等,,,2017-06-22,1,,,,,エスエフエス,0
2051,8010005031585,登記記録の閉鎖等,0,2021-10-22,2021-10-18,一般社団法人サポートホールディングス３５号,,その他の設立登記法人,東京都,千代田区,丸の内３丁目１番１号東京共同会計事務所内,,13,101,1000005,,,2021-10-18,清算の結了等,,,2020-03-13,1,,,,,サポートホールディングスサンジュウゴゴウ,0
2067,8010501019852,登記記録の閉鎖等,0,2021-10-22,2021-10-20,株式会社アクセス,,株式会社,東京都,台東区,台東３丁目４６番８号,,13,106,1100016,,,2021-10-20,清算の結了等,,,2015-10-05,1,,,,,,0
2068,8010602018448,登記記録の閉鎖等,0,2021-10-22,2021-10-11,有限会社手嶋ミシン商会,,有限会社,東京都,墨田区,八広５丁目２８番４号,,13,107,1310041,,,2021-10-11,清算の結了等,,,2015-10-05,1,,,,,テジマミシンショウカイ,0
2079,8010901032629,登記記録の閉鎖等,0,2021-10-22,2021-10-06,ジャパンレビュー株式会社,,株式会社,東京都,目黒区,八雲５丁目１９番２１－３０３号,,13,110,1520023,,,2021-10-06,清算の結了等,,,2015-10-05,1,,,,,ジャパンレビュー,0
2118,8013205001861,登記記録の閉鎖等,0,2021-10-22,2021-10-06,特定非営利活動法人コルシネマ,,その他の設立登記法人,東京都,目黒区,下目黒２丁目２０番８号,,13,110,1530064,,,2021-10-06,清算の結了等,,,2015-10-05,1,,,,,コルシネマ,0
2123,8013401000394,登記記録の閉鎖等,0,2021-10-22,2021-10-12,株式会社多摩規格,,株式会社,東京都,日野市,多摩平１丁目１４番地の５,,13,212,1910062,,,2021-10-12,清算の結了等,,,2015-10-05,1,,,,,タマキカク,0
2129,8020001086640,登記記録の閉鎖等,0,2021-10-22,2021-10-18,株式会社浜治屋,,株式会社,神奈川県,横浜市西区,南幸２丁目１０番１５号ライオンズマンション横浜西口５０５号,,14,103,2200005,,,2021-10-18,清算の結了等,,,2015-10-05,1,,,,,,0
2133,8020002093413,登記記録の閉鎖等,0,2021-10-22,2021-10-19,有限会社三重工業,,有限会社,神奈川県,川崎市多摩区,堰１丁目１７番８号,,14,135,2140022,,,2021-10-19,清算の結了等,,,2015-10-05,1,,,,,,0
2141,8030001011424,登記記録の閉鎖等,0,2021-10-22,2021-10-01,株式会社エイジェックインターナショナル,,株式会社,東京都,新宿区,西新宿１丁目２５番１号新宿センタービル４６階,,13,104,1600023,,,2021-10-01,合併による解散等,3011101036128,令和３年１０月１日東京都新宿区西新宿一丁目２５番１号新宿センタービル４６階株式会社エイジェック（3011101036128）に合併し解散,2015-10-05,1,,,,,エイジェックインターナショナル,0
2149,8030002072671,登記記録の閉鎖等,0,2021-10-22,2021-10-14,有限会社小倉製作所,,有限会社,埼玉県,川越市,岸町１丁目１８番地１３,,11,201,3501131,,,2021-10-14,清算の結了等,,,2015-10-05,1,,,,,オグラセイサクショ,0
2150,8030002075575,登記記録の閉鎖等,0,2021-10-22,2021-10-13,有限会社吉本製作所,,有限会社,埼玉県,川越市,藤倉１丁目４番地５,,11,201,3501166,,,2021-10-13,清算の結了等,,,2015-10-05,1,,,,,ヨシモトセイサクショ,0
2151,8030002093008,登記記録の閉鎖等,0,2021-10-22,2021-10-13,有限会社山崎技術士事務所,,有限会社,埼玉県,坂戸市,日の出町１２番２０－２０７号,,11,239,3500225,,,2021-10-13,清算の結了等,,,2015-10-05,1,,,,,ヤマザキギジュツシジムショ,0
2166,8060003002253,登記記録の閉鎖等,0,2021-10-22,2021-10-19,合同会社ネットソリューション,,合同会社,栃木県,佐野市,犬伏中町２２６６番地１５,,09,204,3270805,,,2021-10-19,清算の結了等,,,2016-04-14,1,,,,,ネットソリューション,0
2184,8120001020787,登記記録の閉鎖等,0,2021-10-22,2021-10-20,株式会社大喜電装工業,,株式会社,大阪府,大阪市平野区,長吉六反２丁目１番５号,,27,126,5470012,,,2021-10-20,清算の結了等,,,2015-10-05,1,,,,,,0
2205,8122001000876,登記記録の閉鎖等,0,2021-10-22,2021-10-21,株式会社稲田,,株式会社,大阪府,東大阪市,日下町５丁目８番３４号,,27,227,5798003,,,2021-10-21,清算の結了等,,,2015-10-05,1,,,,,,0
2223,8170002010163,登記記録の閉鎖等,0,2021-10-22,2021-10-20,有限会社新和商事,,有限会社,和歌山県,御坊市,野口１０８９番地１,,30,205,6440031,,,2021-10-20,清算の結了等,,,2015-10-05,1,,,,,シンワショウジ,0
2236,8190002008412,登記記録の閉鎖等,0,2021-10-22,2021-10-20,有限会社エムケイ,,有限会社,三重県,伊勢市,御薗町新開６０番地,,24,203,5160802,,,2021-10-20,清算の結了等,,,2015-10-05,1,,,,,エムケイ,0
2248,8220002005199,登記記録の閉鎖等,0,2021-10-22,2021-10-20,有限会社ホーム薬品,,有限会社,石川県,金沢市,疋田２丁目２２３番地,,17,201,9200003,,,2021-10-20,清算の結了等,,,2015-10-05,1,,,,,ホームヤクヒン,0
2272,8290001055511,登記記録の閉鎖等,0,2021-10-22,2021-10-08,株式会社モリトモ,,株式会社,福岡県,福岡市西区,愛宕南２丁目１２－１４ライオンズマンション姪浜２０１号,,40,135,8190007,,,2021-10-08,清算の結了等,,,2015-10-05,1,,,,,モリトモ,0
2281,8290002013492,登記記録の閉鎖等,0,2021-10-22,2021-10-01,有限会社山本ビル,,有限会社,福岡県,福岡市中央区,春吉２丁目５番１号アンピール天神東１４０２,,40,133,8100003,,,2021-10-01,清算の結了等,,,2015-10-05,1,,,,,ヤマモトビル,0
2282,8290002050115,登記記録の閉鎖等,0,2021-10-22,2021-10-11,有限会社三枝建設,,有限会社,福岡県,久留米市,荘島町１７番地の７３,,40,203,8300042,,,2021-10-11,清算の結了等,,,2015-10-05,1,,,,,ミツエダケンセツ,0
2297,8340001005733,登記記録の閉鎖等,0,2021-10-22,2021-10-21,Ｒ株式会社,,株式会社,鹿児島県,鹿児島市,上福元町５６８３番地７,,46,201,8910116,,,2021-10-21,清算の結了等,,,2015-10-05,1,,,,,,0
2300,8340002008917,登記記録の閉鎖等,0,2021-10-22,2021-10-20,有限会社町田呉服京染店,,有限会社,鹿児島県,鹿児島市,上之園町１０番地の１１,,46,201,8900052,,,2021-10-20,清算の結了等,,,2015-10-05,1,,,,,マチダゴフクキョウゾメテン,0
2318,8410002012853,登記記録の閉鎖等,0,2021-10-22,2021-10-20,有限会社アウトフィッターズ,,有限会社,秋田県,仙北市,角館町西野川原３９番地１２,,05,215,0140378,,,2021-10-20,清算の結了等,,,2015-10-05,1,,,,,アウトフィッターズ,0
2325,8460301000967,登記記録の閉鎖等,0,2021-10-22,2021-10-20,株式会社北通建,,株式会社,北海道,北見市,東相内町９３４番地１２,,01,208,0990878,,,2021-10-20,清算の結了等,,,2015-10-05,1,,,,,ホクツウケン,0
2363,9010501041871,登記記録の閉鎖等,0,2021-10-22,2021-10-19,加特株式会社,,株式会社,東京都,台東区,上野２丁目１２番１８号池之端ヒロハイツ２階,,13,106,1100005,,,2021-10-19,清算の結了等,,,2017-11-30,1,,,,,カトク,0
2365,9010701033859,登記記録の閉鎖等,0,2021-10-22,2021-10-08,株式会社ＦＡＣＴＯＲＹ３６５,,株式会社,東京都,港区,南青山２丁目１１番１１号ＡＲＩＳＴＯ南青山７階,,13,103,1070062,,,2021-10-08,清算の結了等,,,2017-03-08,1,,,,,ファクトリーサンロクゴ,0
2368,9010801007399,登記記録の閉鎖等,0,2021-10-22,2021-10-15,ＴＫ興業株式会社,,株式会社,東京都,大田区,東六郷１丁目１８番４号,,13,111,1440046,,,2021-10-15,清算の結了等,,,2015-10-05,1,,,,,ティーケーコウギョウ,0
2382,9011101039496,登記記録の閉鎖等,0,2021-10-22,2021-10-01,株式会社エイジェックソフトウェア,,株式会社,東京都,新宿区,西新宿１丁目２５番１号新宿センタービル４６階,,13,104,1600023,,,2021-10-01,合併による解散等,3011101036128,令和３年１０月１日東京都新宿区西新宿一丁目２５番１号新宿センタービル４６階株式会社エイジェック（3011101036128）に合併し解散,2015-10-05,1,,,,,,0
2383,9011101062622,登記記録の閉鎖等,0,2021-10-22,2021-10-18,株式会社ＴＨＲＥＥ　ＷＩＴＣＨ,,株式会社,東京都,新宿区,西新宿６丁目１５番１－３５０３号,,13,104,1600023,,,2021-10-18,清算の結了等,,,2015-10-05,1,,,,,スリーウィッチ,0
2385,9011101088881,登記記録の閉鎖等,0,2021-10-22,2021-10-01,株式会社エイジェックキャリア,,株式会社,東京都,新宿区,西新宿１丁目２５番１号新宿センタービル４６階,,13,104,1600023,,,2021-10-01,合併による解散等,3011101036128,令和３年１０月１日東京都新宿区西新宿一丁目２５番１号新宿センタービル４６階株式会社エイジェック（3011101036128）に合併し解散,2019-09-09,1,,,,,エイジェックキャリア,0
2391,9011405001516,登記記録の閉鎖等,0,2021-10-22,2021-10-20,特定非営利活動法人ひとみ,,その他の設立登記法人,東京都,板橋区,加賀２丁目１４番９号,,13,119,1730003,,,2021-10-20,清算の結了等,,,2015-10-05,1,,,,,ヒトミ,0
2409,9012805001320,登記記録の閉鎖等,0,2021-10-22,2021-10-13,特定非営利活動法人ガイドヘルプサービスあい,,その他の設立登記法人,東京都,立川市,栄町３丁目２８番３号コーポ司１０６,,13,202,1900003,,,2021-10-13,清算の結了等,,,2015-10-05,1,,,,,ガイドヘルプサービスアイ,0
2419,9020001035431,登記記録の閉鎖等,0,2021-10-22,2021-10-20,株式会社光森電気,,株式会社,神奈川県,横浜市金沢区,釜利谷南２丁目１６番１２号,,14,108,2360045,,,2021-10-20,清算の結了等,,,2015-10-05,1,,,,,ミツモリデンキ,0
2427,9020002029779,登記記録の閉鎖等,0,2021-10-22,2021-10-19,有限会社京浜アナリスト,,有限会社,神奈川県,横浜市港北区,高田西１丁目２番３９－１１０号,,14,109,2230066,,,2021-10-19,清算の結了等,,,2015-10-05,1,,,,,ケイヒンアナリスト,0
2434,9021001046749,登記記録の閉鎖等,0,2021-10-22,2021-10-19,ほっかりの里株式会社,,株式会社,神奈川県,綾瀬市,大上４丁目１８番４１号,,14,218,2521104,,,2021-10-19,清算の結了等,,,2015-10-05,1,,,,,ホッカリノサト,0
2439,9021002005753,登記記録の閉鎖等,0,2021-10-22,2021-10-20,有限会社アート・インテック,,有限会社,神奈川県,藤沢市,湘南台１丁目３０番地の３１,,14,205,2520804,,,2021-10-20,清算の結了等,,,2015-10-05,1,,,,,アートインテック,0
2450,9030002054322,登記記録の閉鎖等,0,2021-10-22,2021-10-13,有限会社ダスキン上尾,,有限会社,埼玉県,さいたま市北区,土呂町１丁目７０番地１１,,11,102,3310804,,,2021-10-13,清算の結了等,,,2015-10-05,1,,,,,ダスキンアゲオ,0
2457,9040001028458,登記記録の閉鎖等,0,2021-10-22,2021-10-14,八丈観光興業株式会社,,株式会社,千葉県,市川市,福栄４丁目８番２号,,12,203,2720137,,,2021-10-14,清算の結了等,,,2015-10-05,1,,,,,,0
2462,9040002039140,登記記録の閉鎖等,0,2021-10-22,2021-10-14,有限会社ふかざわ,,有限会社,千葉県,市川市,妙典４丁目５番２５－１０１号,,12,203,2720111,,,2021-10-14,清算の結了等,,,2015-10-05,1,,,,,フカザワ,0
2464,9040003011734,登記記録の閉鎖等,0,2021-10-22,2021-10-15,合同会社ニシイ,,合同会社,千葉県,千葉市美浜区,中瀬１丁目３番地幕張テクノガーデンＣＢ棟３階ＭＢＰ,,12,106,2610023,,,2021-10-15,清算の結了等,,,2018-06-07,1,,,,,ニシイ,0
2474,9070001035071,登記記録の閉鎖等,0,2021-10-22,2021-10-20,株式会社至福の森,,株式会社,群馬県,太田市,浜町２０番２３号,,10,205,3730853,,,2021-10-20,清算の結了等,,,2018-09-20,1,,,,,シフクノモリ,0
2477,9080001014495,登記記録の閉鎖等,0,2021-10-22,2021-10-20,株式会社アーリー,,株式会社,静岡県,牧之原市,静波２２２０番地５１９,,22,226,4210422,,,2021-10-20,清算の結了等,,,2015-10-05,1,,,,,アーリー,0
2490,9110002022527,登記記録の閉鎖等,0,2021-10-22,2021-10-18,有限会社カメラのモナリザ,,有限会社,新潟県,上越市,国府２丁目８番１号,,15,222,9420082,,,2021-10-18,清算の結了等,,,2015-10-05,1,,,,,,0
2494,9120001017576,登記記録の閉鎖等,0,2021-10-22,2021-10-15,三協興業株式会社,,株式会社,大阪府,大阪市生野区,小路東３丁目１４番４号,,27,116,5440003,,,2021-10-15,清算の結了等,,,2015-10-05,1,,,,,サンキョウコウギョウギョウギョウ,0
2522,9140001084061,登記記録の閉鎖等,0,2021-10-22,2021-10-19,株式会社東洋土壌受託,,株式会社,兵庫県,宝塚市,月見山１丁目１番１３号,,28,214,6650002,,,2021-10-19,清算の結了等,,,2015-10-05,1,,,,,,0
2523,9140001101428,登記記録の閉鎖等,0,2021-10-22,2021-10-20,ＨＡＩＲ　ＷＯＲＫＳ　ＪＡＰＡＮ株式会社,,株式会社,兵庫県,神戸市中央区,吾妻通１丁目１番３号,,28,110,6510076,,,2021-10-20,清算の結了等,,,2016-03-18,1,,,,,,0
2546,9180302011751,登記記録の閉鎖等,0,2021-10-22,2021-10-20,有限会社ＳＡＳＡＹＡ,,有限会社,愛知県,豊橋市,東雲町９２番地,,23,201,4400051,,,2021-10-20,清算の結了等,,,2015-10-05,1,,,,,ササヤ,0
2553,9210001009399,登記記録の閉鎖等,0,2021-10-22,2021-10-19,株式会社大栄コネクト,,株式会社,福井県,福井市,問屋町１丁目２７番地,,18,201,9188231,,,2021-10-19,清算の結了等,,,2015-10-05,1,,,,,ダイエイコネクト,0
2561,9240001052140,登記記録の閉鎖等,0,2021-10-22,2021-10-21,株式会社ミツケン,,株式会社,広島県,広島市佐伯区,利松２丁目１４番１号,,34,108,7315106,,,2021-10-21,清算の結了等,,,2017-12-26,1,,,,,ミツケン,0
2565,9250002000163,登記記録の閉鎖等,0,2021-10-22,2021-10-21,有限会社井関興業,,有限会社,山口県,山口市,嘉川４５４９番地１６,,35,203,7540897,,,2021-10-21,清算の結了等,,,2015-10-05,1,,,,,イセキコウギョウ,0
2590,9310001010149,登記記録の閉鎖等,0,2021-10-22,2021-10-20,株式会社フィッシュ・ワールド,,株式会社,長崎県,壱岐市,郷ノ浦町原島３００番地の１,,42,210,8115163,,,2021-10-20,清算の結了等,,,2015-10-05,1,,,,,フィッシュワールド,0
2597,9350002007388,登記記録の閉鎖等,0,2021-10-22,2021-10-20,有限会社エムアンドワイカンパニー,,有限会社,宮崎県,宮崎市,佐土原町下那珂２５７４番地１７,,45,201,8800212,,,2021-10-20,清算の結了等,,,2015-10-05,1,,,,,エムアンドワイカンパニー,0
2603,9370001039926,登記記録の閉鎖等,0,2021-10-22,2021-10-11,株式会社七ヶ宿くらし研究所,,株式会社,宮城県,刈田郡七ヶ宿町,字田中道下３９番地２,,04,302,9890632,,,2021-10-11,清算の結了等,,,2016-07-08,1,,,,,シチカシュククラシケンキュウショ,0
2604,9370301002757,登記記録の閉鎖等,0,2021-10-22,2021-10-13,株式会社鳴海,,株式会社,宮城県,石巻市,立町２丁目５番３５号,,04,202,9860824,,,2021-10-13,清算の結了等,,,2015-10-05,1,,,,,ナルミ,0
2609,9400005004930,登記記録の閉鎖等,0,2021-10-22,2021-10-20,医療法人エンデバー,,その他の設立登記法人,岩手県,久慈市,川崎町８番３２号,,03,207,0280051,,,2021-10-20,清算の結了等,,,2015-10-05,1,,,,,エンデバー,0
2613,9430001017578,登記記録の閉鎖等,0,2021-10-22,2021-10-20,株式会社山米北海左官工業,,株式会社,北海道,札幌市豊平区,月寒東四条７丁目１番２１号,,01,105,0620054,,,2021-10-20,清算の結了等,,,2015-10-05,1,,,,,ヤマヨネホッカイサカンコウギョウ,0
2614,9430001030382,登記記録の閉鎖等,0,2021-10-22,2021-10-20,株式会社ＴＳヘルスケアネットワーク,,株式会社,北海道,札幌市北区,新川一条６丁目３番３号,,01,102,0010921,,,2021-10-20,清算の結了等,,,2015-10-05,1,,,,,ティエスヘルスケアネットワーク,0
