sequenceNumber,corporateNumber,process,correct,updateDate,changeDate,name,nameImageId,kind,prefectureName,cityName,streetNumber,addressImageId,prefectureCode,cityCode,postCode,addressOutside,addressOutsideImageId,closeDate,closeCause,successorCorporateNumber,changeCause,assignmentDate,latest,enName,enPrefectureName,enCityName,enAddressOutside,furigana,hihyoji
2,1010001166870,登記記録の閉鎖等,0,2024-10-22,2024-10-02,株式会社ツナググループＨＣ,,株式会社,東京都,千代田区,神田三崎町３丁目１番１６号,,13,101,1010061,,,2024-10-02,合併による解散等,8010001107240,令和６年９月３０日東京都千代田区有楽町二丁目２番１号株式会社ツナググループ・ホールディングス（8010001107240）に合併し解散,2015-10-05,1,,,,,ツナググループエイチシー,0
29,1010403021335,登記記録の閉鎖等,0,2024-10-22,2024-10-01,築地インベストメンツ１合同会社,,合同会社,東京都,港区,六本木１丁目６番１号泉ガーデンタワー,,13,103,1060032,,,2024-10-01,清算の結了等,,,2019-08-28,1,,,,,ツキジインベストメンツワン,0
35,1010701021912,登記記録の閉鎖等,0,2024-10-22,2024-10-01,株式会社セールスサポート,,株式会社,東京都,渋谷区,渋谷２丁目２１番１号渋谷ヒカリエ３２Ｆ,,13,113,1500002,,,2024-10-01,合併による解散等,6370001021003,令和６年１０月１日東京都渋谷区渋谷二丁目２１番１号渋谷ヒカリエ３２Ｆ株式会社フェイスフル（6370001021003）に合併し解散,2015-10-05,1,,,,,セールスサポート,0
70,1011402001113,登記記録の閉鎖等,0,2024-10-22,2024-10-11,入倉宝飾有限会社,,有限会社,東京都,板橋区,中丸町５４番１号,,13,119,1730026,,,2024-10-11,清算の結了等,,,2015-10-05,1,,,,,イリクラホウショク,0
72,1011701021563,登記記録の閉鎖等,0,2024-10-22,2024-10-18,ｈｕｌｋ　ｆｏｏｄｓ株式会社,,株式会社,東京都,江戸川区,東葛西６丁目３０番１１号ＰＬＡＭ・ＶＩＬＬＡＧＥ１０９,,13,123,1340084,,,2024-10-18,清算の結了等,,,2018-02-27,1,,,,,,0
73,1011702000244,登記記録の閉鎖等,0,2024-10-22,2024-10-16,有限会社青山,,有限会社,東京都,江戸川区,北小岩１丁目１番１２号,,13,123,1330051,,,2024-10-16,清算の結了等,,,2015-10-05,1,,,,,アオヤマ,0
78,1012303001532,登記記録の閉鎖等,0,2024-10-22,2024-10-16,合同会社ｅｉｋｏホールディング,,合同会社,東京都,町田市,本町田２４２４番地１,,13,209,1940032,,,2024-10-16,清算の結了等,,,2021-04-16,1,,,,,エイコーホールディング,0
83,1012802007195,登記記録の閉鎖等,0,2024-10-22,2024-10-07,有限会社イーメイ,,有限会社,東京都,立川市,錦町１丁目２３番２号レジデンス錦２０３,,13,202,1900022,,,2024-10-07,清算の結了等,,,2015-10-05,1,,,,,イーメイ,0
102,1020003017765,登記記録の閉鎖等,0,2024-10-22,2024-10-03,ＴＭＣ合同会社,,合同会社,神奈川県,川崎市宮前区,けやき平１番９－１０４号,,14,136,2160023,,,2024-10-03,清算の結了等,,,2020-04-21,1,,,,,ティーエムシー,0
107,1021002014035,登記記録の閉鎖等,0,2024-10-22,2024-10-17,有限会社岩沢設備,,有限会社,神奈川県,鎌倉市,材木座６丁目１３番２７号,,14,204,2480013,,,2024-10-17,清算の結了等,,,2015-10-05,1,,,,,イワサワセツビ,0
110,1030001031206,登記記録の閉鎖等,0,2024-10-22,2024-10-11,株式会社佐々商事,,株式会社,埼玉県,久喜市,西大輪５丁目１１番地５,,11,232,3400206,,,2024-10-11,清算の結了等,,,2015-10-05,1,,,,,ササショウジ,0
119,1030002041179,登記記録の閉鎖等,0,2024-10-22,2024-10-21,伸光精機有限会社,,有限会社,埼玉県,加須市,北小浜６８３番地の３,,11,210,3470011,,,2024-10-21,清算の結了等,,,2015-10-05,1,,,,,シンコウセイキ,0
126,1040002090010,登記記録の閉鎖等,0,2024-10-22,2024-10-15,有限会社三友建工,,有限会社,千葉県,柏市,高田１０７２番地,,12,217,2770861,,,2024-10-15,清算の結了等,,,2015-10-05,1,,,,,サンユウケンコウ,0
143,1080401023970,登記記録の閉鎖等,0,2024-10-22,2024-10-16,株式会社シンセイ,,株式会社,静岡県,磐田市,富丘１００番地５,,22,211,4380803,,,2024-10-16,清算の結了等,,,2019-11-06,1,,,,,シンセイ,0
145,1080402006966,登記記録の閉鎖等,0,2024-10-22,2024-10-16,有限会社フジヤ,,有限会社,静岡県,浜松市中央区,鍛冶町９３番地,,22,138,4300933,,,2024-10-16,清算の結了等,,,2015-10-05,1,,,,,フジヤ,0
155,1120001095092,登記記録の閉鎖等,0,2024-10-22,2024-10-17,株式会社フュートレック,,株式会社,大阪府,大阪市淀川区,西中島６丁目１番１号,,27,123,5320011,,,2024-10-17,合併による解散等,8010001127602,令和６年１０月１日東京都文京区西片一丁目１５番１５号株式会社エーアイ（8010001127602）に合併し解散,2015-10-05,1,,,,,フュートレック,0
157,1120001242909,登記記録の閉鎖等,0,2024-10-22,2024-10-11,株式会社名阪,,株式会社,大阪府,大阪市東淀川区,東淡路４丁目１７番１９号,,27,114,5330023,,,2024-10-11,清算の結了等,,,2022-01-07,1,,,,,メイハン,0
178,1122001027307,登記記録の閉鎖等,0,2024-10-22,2024-10-17,株式会社坂下,,株式会社,大阪府,東大阪市,横枕西１番１３－６０１号,,27,227,5780956,,,2024-10-17,清算の結了等,,,2015-10-05,1,,,,,サカシタ,0
207,1180001102173,登記記録の閉鎖等,0,2024-10-22,2024-10-02,株式会社エイト,,株式会社,愛知県,瀬戸市,美濃池町１１３番地,,23,204,4890932,,,2024-10-02,清算の結了等,,,2015-10-05,1,,,,,エイト,0
209,1180002022354,登記記録の閉鎖等,0,2024-10-22,2024-10-02,有限会社メディカル東海,,有限会社,愛知県,名古屋市天白区,高島１丁目６２４番地６,,23,116,4680022,,,2024-10-02,清算の結了等,,,2015-10-05,1,,,,,メディカルトウカイ,0
210,1180002025704,登記記録の閉鎖等,0,2024-10-22,2024-10-02,有限会社サン・エー・コンサル,,有限会社,愛知県,名古屋市緑区,滝ノ水２丁目１０１番地,,23,114,4580021,,,2024-10-02,清算の結了等,,,2015-10-05,1,,,,,サンエーコンサル,0
214,1180301015042,登記記録の閉鎖等,0,2024-10-22,2024-10-16,伊藤忠製糖株式会社,,株式会社,愛知県,碧南市,玉津浦町３番地,,23,209,4470834,,,2024-10-16,合併による解散等,2010001142672,令和６年１０月１日東京都中央区日本橋小網町１４番１号ウェルネオシュガー株式会社（2010001142672）に合併し解散,2015-10-05,1,,,,,イトウチュウセイトウ,0
223,1230001010486,登記記録の閉鎖等,0,2024-10-22,2024-10-17,株式会社津川商店,,株式会社,富山県,高岡市,木舟町５６番地,,16,202,9330929,,,2024-10-17,清算の結了等,,,2015-10-05,1,,,,,ツガワショウテン,0
224,1240001026548,登記記録の閉鎖等,0,2024-10-22,2024-10-11,前田工業株式会社,,株式会社,広島県,呉市,本通６丁目８番２０号,,34,202,7370045,,,2024-10-11,清算の結了等,,,2015-10-05,1,,,,,マエダコウギョウ,0
230,1250001007885,登記記録の閉鎖等,0,2024-10-22,2024-10-17,株式会社ヤマキュウ土木,,株式会社,山口県,下関市,秋根西町１丁目９番２３－７０５号,,35,201,7510873,,,2024-10-17,清算の結了等,,,2015-10-05,1,,,,,ヤマキュウドボク,0
238,1270002010028,登記記録の閉鎖等,0,2024-10-22,2024-10-17,有限会社健康堂,,有限会社,鳥取県,倉吉市,堺町２丁目２３９番地１,,31,203,6820885,,,2024-10-17,清算の結了等,,,2015-10-05,1,,,,,ケンコウドウ,0
251,1290002045344,登記記録の閉鎖等,0,2024-10-22,2024-09-12,神山不動産有限会社,,有限会社,福岡県,飯塚市,飯塚４番９号,,40,205,8200041,,,2024-09-12,清算の結了等,,,2015-10-05,1,,,,,コウヤマフドウサン,0
259,1310001011402,登記記録の閉鎖等,0,2024-10-22,2024-10-04,株式会社活喜,,株式会社,長崎県,佐世保市,折橋町２２番２４号,,42,202,8570021,,,2024-10-04,清算の結了等,,,2015-10-05,1,,,,,カツキ,0
261,1320002005055,登記記録の閉鎖等,0,2024-10-22,2024-10-21,有限会社七瀬食品,,有限会社,大分県,大分市,大字宮崎９２０番地の３,,44,201,8701133,,,2024-10-21,清算の結了等,,,2015-10-05,1,,,,,,0
268,1370102001817,登記記録の閉鎖等,0,2024-10-22,2024-10-07,有限会社大沼寝装店,,有限会社,宮城県,角田市,梶賀字一里壇１３９番地５,,04,208,9811523,,,2024-10-07,清算の結了等,,,2015-10-05,1,,,,,オオヌマシンソウテン,0
274,1400602001081,登記記録の閉鎖等,0,2024-10-22,2024-10-07,有限会社八百清,,有限会社,岩手県,奥州市,江刺中町１番１０号,,03,215,0231113,,,2024-10-07,清算の結了等,,,2015-10-05,1,,,,,,0
284,1470001000505,登記記録の閉鎖等,0,2024-10-22,2024-10-17,株式会社池田経営コンサルタント事務所,,株式会社,香川県,高松市,番町３丁目６番１５－１２０３号,,37,201,7600017,,,2024-10-17,清算の結了等,,,2015-10-05,1,,,,,イケダケイエイコンサルタントジムショ,0
293,2010001048003,登記記録の閉鎖等,0,2024-10-22,2024-10-11,株式会社天輪,,株式会社,東京都,中央区,湊３丁目１１番６号,,13,102,1040043,,,2024-10-11,合併による解散等,5120901043576,令和６年１０月１日大阪府茨木市高浜町３番１８号株式会社ニチコン（5120901043576）に合併し解散,2015-10-05,1,,,,,テンリン,0
304,2010401016757,登記記録の閉鎖等,0,2024-10-22,2024-10-04,泰邦マリン株式会社,,株式会社,東京都,港区,西新橋１丁目６番１５号,,13,103,1050003,,,2024-10-04,清算の結了等,,,2015-10-05,1,,,,,タイホウマリン,0
312,2010403010997,登記記録の閉鎖等,0,2024-10-22,2024-10-01,ローチャーリー・インベストメンツ合同会社,,合同会社,東京都,港区,虎ノ門３丁目２２番１０－２０１号,,13,103,1050001,,,2024-10-01,清算の結了等,,,2015-10-05,1,,,,,ローチャーリーインベストメンツ,0
313,2010403030434,登記記録の閉鎖等,0,2024-10-22,2024-09-30,合同会社ヘルプ＆アシスト,,合同会社,東京都,港区,北青山１丁目３番１号アールキューブ青山３階,,13,103,1070061,,,2024-09-30,清算の結了等,,,2023-07-10,1,,,,,ヘルプアンドアシスト,0
316,2010405018015,登記記録の閉鎖等,0,2024-10-22,2024-10-01,築地キャピタル一般社団法人,,その他の設立登記法人,東京都,港区,六本木１丁目６番１号泉ガーデンタワー,,13,103,1060032,,,2024-10-01,清算の結了等,,,2019-08-26,1,,,,,ツキジキャピタル,0
325,2010802012041,登記記録の閉鎖等,0,2024-10-22,2024-10-15,有限会社ひまわり介護サービス,,有限会社,東京都,大田区,東六郷３丁目１番１－１００３号,,13,111,1440046,,,2024-10-15,清算の結了等,,,2015-10-05,1,,,,,ヒマワリカイゴサービス,0
327,2010902011406,登記記録の閉鎖等,0,2024-10-22,2024-10-08,有限会社西上エンタープライズ,,有限会社,東京都,新宿区,四谷３丁目６番地アスナロビル４Ｆ,,13,104,1600004,,,2024-10-08,清算の結了等,,,2015-10-05,1,,,,,ニシガミエンタープライズ,0
355,2012401017974,登記記録の閉鎖等,0,2024-10-22,2024-10-21,株式会社クロスブレーン,,株式会社,東京都,小金井市,東町５丁目３番６号,,13,210,1840011,,,2024-10-21,清算の結了等,,,2015-10-05,1,,,,,クロスブレーン,0
366,2020001051641,登記記録の閉鎖等,0,2024-10-22,2024-10-01,ケセラ・エストレイリア株式会社,,株式会社,神奈川県,横浜市神奈川区,東神奈川２丁目５０－６,,14,102,2210044,,,2024-10-01,合併による解散等,6020001022688,令和６年１０月１日横浜市神奈川区東神奈川二丁目５０番６号株式会社神奈川民間救急サービス（6020001022688）に合併し解散,2015-10-05,1,,,,,ケセラエストレイリア,0
368,2020001106949,登記記録の閉鎖等,0,2024-10-22,2024-10-03,株式会社石川設備,,株式会社,神奈川県,横浜市緑区,北八朔町１１６５番地,,14,113,2260021,,,2024-10-03,清算の結了等,,,2015-10-05,1,,,,,イシカワセツビ,0
372,2020002019241,登記記録の閉鎖等,0,2024-10-22,2024-10-03,有限会社田野井建設,,有限会社,神奈川県,横浜市港南区,港南台１丁目２７番６号,,14,111,2340054,,,2024-10-03,清算の結了等,,,2015-10-05,1,,,,,タノイケンセツ,0
383,2030001145517,登記記録の閉鎖等,0,2024-10-22,2024-10-15,株式会社オプション工務店,,株式会社,埼玉県,春日部市,西八木崎３丁目１０番１１号,,11,214,3440059,,,2024-10-15,清算の結了等,,,2021-11-24,1,,,,,オプションコウムテン,0
390,2040001078947,登記記録の閉鎖等,0,2024-10-22,2024-10-15,株式会社タモア,,株式会社,千葉県,千葉市若葉区,小倉町６２４番地,,12,104,2640007,,,2024-10-15,清算の結了等,,,2015-10-05,1,,,,,タモア,0
395,2040002020809,登記記録の閉鎖等,0,2024-10-22,2024-10-11,有限会社エィチ・ケースミレ,,有限会社,千葉県,船橋市,西船４丁目２２番１１号,,12,204,2730031,,,2024-10-11,清算の結了等,,,2015-10-05,1,,,,,エィチケースミレ,0
408,2070002024468,登記記録の閉鎖等,0,2024-10-22,2024-10-15,有限会社バリエ,,有限会社,群馬県,桐生市,広沢町７丁目５１１６番地３,,10,203,3760013,,,2024-10-15,清算の結了等,,,2015-10-05,1,,,,,バリエ,0
413,2080001020335,登記記録の閉鎖等,0,2024-10-22,2024-10-15,株式会社伊藤建築,,株式会社,静岡県,静岡市駿河区,丸子新田２５１番地の１,,22,102,4210111,,,2024-10-15,清算の結了等,,,2015-10-05,1,,,,,,0
422,2110001011826,登記記録の閉鎖等,0,2024-10-22,2024-10-11,株式会社亀山商事,,株式会社,新潟県,五泉市,村松甲６２９３番地２,,15,218,9591704,,,2024-10-11,清算の結了等,,,2015-10-05,1,,,,,カメヤマショウジ,0
435,2120002013993,登記記録の閉鎖等,0,2024-10-22,2024-10-18,有限会社アイ・アンド・ジェイ,,有限会社,大阪府,大阪市東淀川区,瑞光１丁目４番１７号,,27,114,5330005,,,2024-10-18,清算の結了等,,,2015-10-05,1,,,,,アイアンドジェイ,0
448,2122001036868,登記記録の閉鎖等,0,2024-10-22,2024-10-18,株式会社ＵＫＡＮ,,株式会社,大阪府,柏原市,古町１丁目５番２号スタイルプラス２０２号,,27,221,5820008,,,2024-10-18,清算の結了等,,,2023-04-10,1,,,,,ウカン,0
455,2130002028982,登記記録の閉鎖等,0,2024-10-22,2024-10-18,有限会社園部製作所,,有限会社,京都府,亀岡市,北古世町２丁目９番１４号,,26,206,6210811,,,2024-10-18,清算の結了等,,,2015-10-05,1,,,,,ソノベセイサクショ,0
458,2140002006319,登記記録の閉鎖等,0,2024-10-22,2024-10-17,有限会社デンキノスマイル,,有限会社,兵庫県,神戸市垂水区,塩屋町字大谷６７１番地の１６４,,28,108,6550872,,,2024-10-17,清算の結了等,,,2015-10-05,1,,,,,デンキノスマイル,0
474,2180003015595,登記記録の閉鎖等,0,2024-10-22,2024-10-16,合同会社にじほ,,合同会社,愛知県,小牧市,桃ケ丘２丁目９番地７,,23,219,4850813,,,2024-10-16,清算の結了等,,,2015-10-05,1,,,,,ニジホ,0
485,2190002007337,登記記録の閉鎖等,0,2024-10-22,2024-10-17,分部木材有限会社,,有限会社,三重県,鈴鹿市,三宅町２１３２番地の１,,24,207,5100265,,,2024-10-17,清算の結了等,,,2015-10-05,1,,,,,ワケベモクザイ,0
497,2240002037469,登記記録の閉鎖等,0,2024-10-22,2024-10-11,有限会社ＭＯＴ,,有限会社,広島県,廿日市市,峰高１丁目９番２８号,,34,213,7380032,,,2024-10-11,清算の結了等,,,2015-10-05,1,,,,,モット,0
505,2290001048058,登記記録の閉鎖等,0,2024-10-22,2024-09-11,株式会社ＧＦ,,株式会社,福岡県,福岡市博多区,上川端町５番地１１７　１Ｆ,,40,132,8120026,,,2024-09-11,清算の結了等,,,2015-10-05,1,,,,,,0
524,2360001023301,登記記録の閉鎖等,0,2024-10-22,2024-10-18,琉球キャピタルパートナーズ株式会社,,株式会社,沖縄県,名護市,字豊原７３番地１,,47,209,9052172,,,2024-10-18,合併による解散等,7120001069784,令和６年１０月１日大阪市北区中崎三丁目１番２０号株式会社Ｍ＆Ａコンサルタンツ（7120001069784）に合併し解散,2017-12-22,1,,,,,リュウキュウキャピタルパートナーズ,0
527,2370002002856,登記記録の閉鎖等,0,2024-10-22,2024-10-07,有限会社工業電機産業,,有限会社,宮城県,仙台市太白区,茂庭字合ノ沢北１７番地,,04,104,9820251,,,2024-10-07,清算の結了等,,,2015-10-05,1,,,,,コウギョウデンキサンギョウ,0
528,2370005009543,登記記録の閉鎖等,0,2024-10-22,2024-10-04,特定非営利活動法人ノワイヨノットハーバルアーツ,,その他の設立登記法人,宮城県,亘理郡山元町,山寺字西頭無３８番地１５,,04,362,9892201,,,2024-10-04,清算の結了等,,,2018-11-07,1,,,,,ノワイヨノットハーバルアーツ,0
534,2380003005312,登記記録の閉鎖等,0,2024-10-22,2024-10-01,合同会社Ｐｒｉｍｅ　Ｎｕｍｂｅｒ,,合同会社,福島県,南相馬市,小高区本町１丁目８７小高パイオニアヴィレッジ,,07,212,9792124,,,2024-10-01,清算の結了等,,,2022-11-10,1,,,,,,0
565,3010001198284,登記記録の閉鎖等,0,2024-10-22,2024-10-02,アヴェニールクレア株式会社,,株式会社,東京都,港区,浜松町２丁目２番１５号浜松町ダイヤビル２Ｆ,,13,103,1050013,,,2024-10-02,清算の結了等,,,2019-02-06,1,,,,,アヴェニールクレア,0
576,3010401133353,登記記録の閉鎖等,0,2024-10-22,2024-10-04,ティブコパートナーソリューションズ株式会社,,株式会社,東京都,千代田区,霞が関３丁目２番１号霞が関コモンゲート西館,,13,101,1000013,,,2024-10-04,合併による解散等,7010001114246,令和６年１０月１日東京都千代田区霞が関三丁目２番１号霞が関コモンゲート西館シトリックス・システムズ・ジャパン株式会社（7010001114246）に合併し解散,2017-08-23,1,,,,,ティブコパートナーソリューションズ,0
590,3010701010459,登記記録の閉鎖等,0,2024-10-22,2024-10-11,立体写真像株式会社,,株式会社,東京都,品川区,西大井４丁目１１番７号,,13,109,1400015,,,2024-10-11,清算の結了等,,,2015-10-05,1,,,,,,0
592,3010801023253,登記記録の閉鎖等,0,2024-10-22,2024-10-08,株式会社オフィスハル,,株式会社,東京都,大田区,大森北２丁目１４番１号,,13,111,1430016,,,2024-10-08,清算の結了等,,,2015-10-05,1,,,,,オフィスハル,0
603,3011002033240,登記記録の閉鎖等,0,2024-10-22,2024-10-21,有限会社ティータイム,,有限会社,東京都,武蔵野市,御殿山２丁目２１－１５,,13,203,1800005,,,2024-10-21,清算の結了等,,,2015-10-05,1,,,,,,0
622,3011501018857,登記記録の閉鎖等,0,2024-10-22,2024-10-16,株式会社ボセッキー,,株式会社,東京都,世田谷区,桜丘３丁目１０番１１号,,13,112,1560054,,,2024-10-16,清算の結了等,,,2015-10-05,1,,,,,,0
636,3012701015561,登記記録の閉鎖等,0,2024-10-22,2024-10-18,株式会社ヒューマンワークス,,株式会社,東京都,小平市,美園町２丁目１６番８号,,13,211,1870041,,,2024-10-18,合併による解散等,9012801004120,令和６年１０月１日東京都立川市錦町六丁目２３番１８号ヒューマンヤード株式会社（9012801004120）に合併し解散,2019-10-09,1,,,,,ヒューマンワークス,0
653,3020002004820,登記記録の閉鎖等,0,2024-10-22,2024-10-04,有限会社橋本インテリア,,有限会社,神奈川県,横浜市緑区,長津田１丁目１１番４号,,14,113,2260027,,,2024-10-04,清算の結了等,,,2015-10-05,1,,,,,ハシモトインテリア,0
654,3020002035700,登記記録の閉鎖等,0,2024-10-22,2024-10-03,有限会社ふれんず,,有限会社,神奈川県,横浜市港北区,鳥山町９０番地２,,14,109,2220035,,,2024-10-03,清算の結了等,,,2015-10-05,1,,,,,フレンズ,0
656,3020002102599,登記記録の閉鎖等,0,2024-10-22,2024-10-04,有限会社ヴィーヴォ,,有限会社,神奈川県,川崎市麻生区,王禅寺西２丁目２番４号,,14,137,2150017,,,2024-10-04,清算の結了等,,,2015-10-05,1,,,,,ヴィーヴォ,0
669,3030002040047,登記記録の閉鎖等,0,2024-10-22,2024-10-15,有限会社増田鉄筋,,有限会社,埼玉県,加須市,小野袋９７１番地,,11,210,3491202,,,2024-10-15,清算の結了等,,,2015-10-05,1,,,,,マスダテッキン,0
680,3040002002599,登記記録の閉鎖等,0,2024-10-22,2024-10-11,有限会社オリエントオーバーシーズ,,有限会社,千葉県,千葉市稲毛区,小中台町５０１番地２棟１０１０号,,12,103,2630044,,,2024-10-11,清算の結了等,,,2015-10-05,1,,,,,オリエントオーバーシーズ,0
682,3050001030872,登記記録の閉鎖等,0,2024-10-22,2024-10-10,阿賀警備株式会社,,株式会社,茨城県,常総市,大沢１９４４番地２１,,08,211,3002727,,,2024-10-10,清算の結了等,,,2015-10-05,1,,,,,アガケイビ,0
686,3060001021697,登記記録の閉鎖等,0,2024-10-22,2024-10-16,株式会社エルン,,株式会社,栃木県,足利市,借宿町１丁目１番地２０,,09,202,3260826,,,2024-10-16,合併による解散等,5010001117390,令和６年１０月１日東京都中央区銀座三丁目４番１号株式会社イーエルティ（5010001117390）に合併し解散,2015-10-05,1,,,,,エルン,0
687,3070001007530,登記記録の閉鎖等,0,2024-10-22,2024-10-16,株式会社高崎屋,,株式会社,群馬県,高崎市,八千代町３丁目１６番２４号,,10,202,3700861,,,2024-10-16,清算の結了等,,,2015-10-05,1,,,,,タカサキヤ,0
700,3110001007773,登記記録の閉鎖等,0,2024-10-22,2024-10-11,株式会社サンエー・エンジニアリング,,株式会社,新潟県,新潟市北区,つくし野２丁目１４番３号,,15,101,9503135,,,2024-10-11,清算の結了等,,,2015-10-05,1,,,,,サンエーエンジニアリング,0
704,3120001026491,登記記録の閉鎖等,0,2024-10-22,2024-10-16,星和産業株式会社,,株式会社,大阪府,大阪市此花区,春日出北３丁目１３番１５号,,27,104,5540021,,,2024-10-16,合併による解散等,1010001098619,令和６年１０月１日東京都中央区日本橋一丁目１３番１号日鉄物流株式会社（1010001098619）に合併し解散,2015-10-05,1,,,,,セイワサンギョウ,0
705,3120001053354,登記記録の閉鎖等,0,2024-10-22,2024-10-11,株式会社スタイル工芸,,株式会社,大阪府,大阪市東淀川区,東淡路１丁目５番エバーレ３－１１０５号,,27,114,5330023,,,2024-10-11,清算の結了等,,,2015-10-05,1,,,,,,0
710,3120001230762,登記記録の閉鎖等,0,2024-10-22,2024-10-16,大今古株式会社,,株式会社,東京都,墨田区,向島４丁目３番８号グレイス向島２０１－Ｅ号室,,13,107,1310033,,,2024-10-16,清算の結了等,,,2020-08-04,1,,,,,ダイキンコ,0
726,3120901020370,登記記録の閉鎖等,0,2024-10-22,2024-10-17,株式会社ガラスアート・エー,,株式会社,大阪府,箕面市,石丸３丁目１０番１号,,27,220,5620027,,,2024-10-17,清算の結了等,,,2015-10-05,1,,,,,ガラスアートエー,0
728,3120905006226,登記記録の閉鎖等,0,2024-10-22,2024-10-16,特定非営利活動法人のぞみ,,その他の設立登記法人,大阪府,豊中市,曽根西町２丁目１０番２０号,,27,203,5610801,,,2024-10-16,清算の結了等,,,2021-09-14,1,,,,,ノゾミ,0
730,3130001051068,登記記録の閉鎖等,0,2024-10-22,2024-10-16,株式会社Ｇｏ‐ｔｏアサヒエナジー,,株式会社,京都府,八幡市,下奈良新下１１番１,,26,210,6148133,,,2024-10-16,合併による解散等,9020001020367,令和６年１０月１日横浜市港北区篠原町１２００番地三和エナジー株式会社（9020001020367）に合併し解散,2015-10-05,1,,,,,ゴートゥーアサヒエナジー,0
738,3140001113296,登記記録の閉鎖等,0,2024-10-22,2024-10-16,株式会社アナザーウインズ,,株式会社,大阪府,大阪市北区,西天満６丁目７番２号,,27,127,5300047,,,2024-10-16,合併による解散等,5010001231373,令和６年１０月１日東京都文京区湯島二丁目１６番１０号株式会社メディカルサポート（5010001231373）に合併し解散,2019-04-11,1,,,,,アナザーウインズ,0
741,3140002016085,登記記録の閉鎖等,0,2024-10-22,2024-10-17,有限会社三上商会,,有限会社,兵庫県,神戸市東灘区,本山中町４丁目１８番１８－３０５号,,28,101,6580016,,,2024-10-17,清算の結了等,,,2015-10-05,1,,,,,ミカミショウカイ,0
748,3170003001901,登記記録の閉鎖等,0,2024-10-22,2024-10-21,合同会社Ｌｅ　Ｌｉｅｎ,,合同会社,和歌山県,岩出市,桜台２６７番地,,30,209,6496203,,,2024-10-21,清算の結了等,,,2023-07-14,1,,,,,ルリアン,0
759,3180302009909,登記記録の閉鎖等,0,2024-10-22,2024-10-11,有限会社丸大中一製材所,,有限会社,愛知県,豊橋市,菰口町３丁目８５番地,,23,201,4418011,,,2024-10-11,清算の結了等,,,2015-10-05,1,,,,,マルダイナカイチセイザイショ,0
766,3220003002638,登記記録の閉鎖等,0,2024-10-22,2024-10-07,お椀のなかお合同会社,,合同会社,東京都,中央区,銀座１丁目１２－４Ｎ＆ＥＢＬＤ．７階,,13,102,1040061,,,2024-10-07,清算の結了等,,,2019-07-30,1,,,,,オワンノナカオ,0
768,3240001036363,登記記録の閉鎖等,0,2024-10-22,2024-10-15,株式会社サン・テック,,株式会社,広島県,安芸郡府中町,瀬戸ハイム２丁目１８番９号,,34,302,7350011,,,2024-10-15,清算の結了等,,,2015-10-05,1,,,,,サンテック,0
791,3300002007365,登記記録の閉鎖等,0,2024-10-22,2024-10-17,有限会社モロドミ,,有限会社,佐賀県,杵島郡江北町,大字下小田２０９２番地,,41,424,8490505,,,2024-10-17,清算の結了等,,,2015-10-05,1,,,,,モロドミ,0
803,3360001021808,登記記録の閉鎖等,0,2024-10-22,2024-10-18,株式会社グラビス沖縄,,株式会社,沖縄県,名護市,字豊原７３番地１,,47,209,9052172,,,2024-10-18,合併による解散等,5120001060489,令和６年１０月１日大阪市北区中崎三丁目１番２０号株式会社アール・シー・エス（5120001060489）に合併し解散,2017-01-24,1,,,,,グラビスオキナワ,0
807,3370001039972,登記記録の閉鎖等,0,2024-10-22,2024-10-02,株式会社南部通信工業,,株式会社,宮城県,遠田郡涌谷町,涌谷字上谷地六３０番地１,,04,501,9870121,,,2024-10-02,清算の結了等,,,2016-07-21,1,,,,,ナンブツウシンコウギョウ,0
808,3370001043017,登記記録の閉鎖等,0,2024-10-22,2024-10-01,柴田クリーンエネルギー株式会社,,株式会社,宮城県,柴田郡柴田町,船岡中央３丁目１９番１０号,,04,323,9891601,,,2024-10-01,合併による解散等,3370102000453,令和６年１０月１日宮城県柴田郡柴田町大字船岡字山田１番地の５株式会社冨樫運輸（3370102000453）に合併し解散,2018-05-08,1,,,,,シバタクリーンエネルギー,0
814,3370202005245,登記記録の閉鎖等,0,2024-10-22,2024-10-01,有限会社栗原陸運,,有限会社,宮城県,栗原市,高清水北原３５番地７,,04,213,9872153,,,2024-10-01,清算の結了等,,,2015-10-05,1,,,,,クリハラリクウン,0
830,3430003012005,登記記録の閉鎖等,0,2024-10-22,2024-10-18,合同会社あん,,合同会社,北海道,札幌市白石区,本郷通６丁目北５番２８号,,01,104,0030025,,,2024-10-18,清算の結了等,,,2020-10-07,1,,,,,アン,0
834,3430005003935,登記記録の閉鎖等,0,2024-10-22,2024-10-18,特定非営利活動法人札幌ビズカフェ,,その他の設立登記法人,北海道,札幌市北区,新琴似一条７丁目５－１オフィス上山株式会社内,,01,102,0010901,,,2024-10-18,清算の結了等,,,2015-10-05,1,,,,,サッポロビズカフェ,0
849,3500002015777,登記記録の閉鎖等,0,2024-10-22,2024-10-17,有限会社愛工エンジニアリング,,有限会社,愛媛県,新居浜市,坂井町３丁目５番３５号,,38,205,7920812,,,2024-10-17,清算の結了等,,,2015-10-05,1,,,,,アイコウエンジニアリング,0
858,4010001180563,登記記録の閉鎖等,0,2024-10-22,2024-10-01,ＺＳエラストマー株式会社,,株式会社,東京都,千代田区,丸の内１丁目６番２号,,13,101,1000005,,,2024-10-01,合併による解散等,9010001008834,令和６年１０月１日東京都千代田区丸の内一丁目６番２号日本ゼオン株式会社（9010001008834）に合併し解散,2017-01-06,1,,,,,ゼットエスエラストマー,0
860,4010001201229,登記記録の閉鎖等,0,2024-10-22,2024-10-07,株式会社ファミーユ,,株式会社,東京都,中央区,入船１丁目７番８－１２０１号,,13,102,1040042,,,2024-10-07,清算の結了等,,,2019-05-29,1,,,,,ファミーユ,0
861,4010001221508,登記記録の閉鎖等,0,2024-10-22,2024-10-07,株式会社フェムテック総研,,株式会社,東京都,中央区,銀座３丁目４番１号,,13,102,1040061,,,2024-10-07,清算の結了等,,,2021-10-11,1,,,,,フェムテックソウケン,0
886,4010801005804,登記記録の閉鎖等,0,2024-10-22,2024-10-15,城田製袋株式会社,,株式会社,東京都,大田区,中馬込１丁目１８番１１号,,13,111,1430027,,,2024-10-15,清算の結了等,,,2015-10-05,1,,,,,シロタセイタイ,0
913,4011701018144,登記記録の閉鎖等,0,2024-10-22,2024-10-15,株式会社大基,,株式会社,東京都,江戸川区,北葛西１丁目３番３９－３０７号,,13,123,1340081,,,2024-10-15,清算の結了等,,,2015-10-05,1,,,,,ダイキ,0
914,4011801021147,登記記録の閉鎖等,0,2024-10-22,2024-10-18,株式会社朝日,,株式会社,東京都,江戸川区,本一色１丁目３４番２４号,,13,123,1330044,,,2024-10-18,清算の結了等,,,2015-10-05,1,,,,,アサヒ,0
916,4012401012899,登記記録の閉鎖等,0,2024-10-22,2024-10-21,株式会社ハーク,,株式会社,東京都,三鷹市,下連雀３丁目２８番２３－３１２号,,13,204,1810013,,,2024-10-21,清算の結了等,,,2015-10-05,1,,,,,ハーク,0
939,4021003009543,登記記録の閉鎖等,0,2024-10-22,2024-10-21,合同会社ＴＲＡＮＳＩＡ,,合同会社,神奈川県,相模原市南区,上鶴間本町３丁目３番６号,,14,153,2520318,,,2024-10-21,清算の結了等,,,2020-07-22,1,,,,,トランシア,0
943,4030002057899,登記記録の閉鎖等,0,2024-10-22,2024-10-11,有限会社松美家,,有限会社,埼玉県,上尾市,大字上２３番地７,,11,219,3620001,,,2024-10-11,清算の結了等,,,2015-10-05,1,,,,,マツミヤ,0
945,4030002070084,登記記録の閉鎖等,0,2024-10-22,2024-10-11,有限会社中央工業,,有限会社,埼玉県,春日部市,西金野井１８０５番地２,,11,214,3440112,,,2024-10-11,清算の結了等,,,2015-10-05,1,,,,,チュウオウコウギョウ,0
951,4040001123882,登記記録の閉鎖等,0,2024-10-22,2024-10-15,青い虎株式会社,,株式会社,東京都,杉並区,荻窪５丁目３０番１２号グローリア荻窪５１１号室,,13,115,1670051,,,2024-10-15,清算の結了等,,,2022-06-16,1,,,,,アオイトラ,0
983,4100002038173,登記記録の閉鎖等,0,2024-10-22,2024-10-09,有限会社佐々木組,,有限会社,長野県,下伊那郡高森町,山吹１０８番地,,20,403,3993101,,,2024-10-09,清算の結了等,,,2015-10-05,1,,,,,ササキグミ,0
1008,4122001025869,登記記録の閉鎖等,0,2024-10-22,2024-10-18,創建テクノ株式会社,,株式会社,大阪府,東大阪市,小阪３丁目４番Ａ－３０４号,,27,227,5770801,,,2024-10-18,清算の結了等,,,2015-10-05,1,,,,,ソウケンテクノ,0
1014,4130002020830,登記記録の閉鎖等,0,2024-10-22,2024-10-16,有限会社Ｒ建築．森,,有限会社,京都府,京都市上京区,衣棚通今出川上る畠山町１８７番地,,26,102,6020035,,,2024-10-16,清算の結了等,,,2015-10-05,1,,,,,アールケンチクモリ,0
1019,4130005015167,登記記録の閉鎖等,0,2024-10-22,2024-10-17,特定非営利活動法人ちはやぶる宇治の未来をつくる会,,その他の設立登記法人,京都府,宇治市,宇治蓮華５番地の２スペリオン宇治３０２号,,26,204,6110021,,,2024-10-17,清算の結了等,,,2017-12-19,1,,,,,,0
1020,4130005016454,登記記録の閉鎖等,0,2024-10-22,2024-10-11,一般社団法人嵐山温泉観光協会,,その他の設立登記法人,京都府,京都市右京区,嵯峨天龍寺芒ノ馬場町３４番地,,26,108,6168385,,,2024-10-11,清算の結了等,,,2022-04-15,1,,,,,アラシヤマオンセンカンコウキョウカイ,0
1027,4180001090688,登記記録の閉鎖等,0,2024-10-22,2024-10-03,エイチケーメディカル株式会社,,株式会社,愛知県,名古屋市港区,入場１丁目１４０５番地,,23,111,4550803,,,2024-10-03,清算の結了等,,,2015-10-05,1,,,,,エイチケーメディカル,0
1030,4180005011871,登記記録の閉鎖等,0,2024-10-22,2024-10-08,常滑自動車協業組合,,その他の設立登記法人,愛知県,常滑市,西阿野字春瀬１８１番地の１,,23,216,4790802,,,2024-10-08,清算の結了等,,,2015-10-05,1,,,,,トコナメジドウシャ,0
1035,4180305001085,登記記録の閉鎖等,0,2024-10-22,2024-10-16,税理士法人ＳＩＣ,,その他の設立登記法人,愛知県,額田郡幸田町,大字菱池字昆沙門１２３番地１,,23,501,4440113,,,2024-10-16,清算の結了等,,,2015-10-05,1,,,,,エスアイシー,0
1038,4200001011022,登記記録の閉鎖等,0,2024-10-22,2024-10-18,株式会社後藤施工,,株式会社,岐阜県,羽島郡笠松町,長池１７５番地の４,,21,303,5016063,,,2024-10-18,清算の結了等,,,2015-10-05,1,,,,,ゴトウセコウ,0
1044,4230002013428,登記記録の閉鎖等,0,2024-10-22,2024-10-17,有限会社ばんばん保険企画,,有限会社,富山県,高岡市,本丸町１３－６本丸ビル１Ｆ,,16,202,9330045,,,2024-10-17,清算の結了等,,,2015-10-05,1,,,,,バンバンホケンキカク,0
1046,4240001034093,登記記録の閉鎖等,0,2024-10-22,2024-10-15,オーケーロジ株式会社,,株式会社,広島県,福山市,南手城町３丁目１７番２２号,,34,207,7210963,,,2024-10-15,清算の結了等,,,2015-10-05,1,,,,,オーケーロジ,0
1061,4310003004054,登記記録の閉鎖等,0,2024-10-22,2024-09-25,合同会社糸瀬林産,,合同会社,長崎県,対馬市,上県町樫滝３４８番地,,42,209,8171522,,,2024-09-25,清算の結了等,,,2021-05-11,1,,,,,イトセリンサン,0
1114,5010401148275,登記記録の閉鎖等,0,2024-10-22,2024-10-04,日の出インベストメント株式会社,,株式会社,東京都,港区,海岸１丁目７番１号,,13,103,1050022,,,2024-10-04,清算の結了等,,,2019-09-30,1,,,,,ヒノデインベストメント,0
1115,5010402026661,登記記録の閉鎖等,0,2024-10-22,2024-10-04,有限会社ワイケイケイ,,有限会社,東京都,港区,麻布十番１丁目７番２号,,13,103,1060045,,,2024-10-04,清算の結了等,,,2015-10-05,1,,,,,ワイケイケイ,0
1139,5011005005409,登記記録の閉鎖等,0,2024-10-22,2024-10-11,一般社団法人日本ボディデザイン協会,,その他の設立登記法人,東京都,品川区,西五反田３丁目６番３８－８０１号,,13,109,1410031,,,2024-10-11,清算の結了等,,,2015-10-05,1,,,,,ニホンボディデザインキョウカイ,0
1144,5011101068706,登記記録の閉鎖等,0,2024-10-22,2024-10-09,株式会社Ｏｃｃｈｉａｌｉ　ｂｉａｎｃｈｉ,,株式会社,東京都,新宿区,神楽坂６丁目２４番地,,13,104,1620825,,,2024-10-09,清算の結了等,,,2015-10-05,1,,,,,オッキアーリビアンキ,0
1159,5011403001991,登記記録の閉鎖等,0,2024-10-22,2024-10-08,合同会社ヘカワ,,合同会社,東京都,板橋区,大山町２２－２－１１０３,,13,119,1730023,,,2024-10-08,清算の結了等,,,2016-12-12,1,,,,,ヘカワ,0
1173,5013101001522,登記記録の閉鎖等,0,2024-10-22,2024-10-16,プリモ興産株式会社,,株式会社,東京都,西多摩郡瑞穂町,長岡２丁目３番地５,,13,303,1901232,,,2024-10-16,清算の結了等,,,2015-10-05,1,,,,,プリモコウサン,0
1174,5013201017550,登記記録の閉鎖等,0,2024-10-22,2024-09-30,株式会社泰平,,株式会社,東京都,目黒区,下目黒５丁目３４番２１号,,13,110,1530064,,,2024-09-30,清算の結了等,,,2015-10-05,1,,,,,タイヘイ,0
1179,5020002017647,登記記録の閉鎖等,0,2024-10-22,2024-10-04,有限会社八百三,,有限会社,神奈川県,横浜市西区,浜松町３番６号,,14,103,2200055,,,2024-10-04,清算の結了等,,,2015-10-05,1,,,,,ヤオサン,0
1186,5021002004197,登記記録の閉鎖等,0,2024-10-22,2024-10-21,有限会社フード辰巳,,有限会社,神奈川県,藤沢市,湘南台５丁目１５番地の１４,,14,205,2520804,,,2024-10-21,清算の結了等,,,2015-10-05,1,,,,,フードタツミ,0
1187,5021002046371,登記記録の閉鎖等,0,2024-10-22,2024-10-18,有限会社鮫島鉄工,,有限会社,神奈川県,綾瀬市,上土棚中４丁目２番５５号,,14,218,2521113,,,2024-10-18,清算の結了等,,,2015-10-05,1,,,,,サメシマテッコウ,0
1191,5030001010569,登記記録の閉鎖等,0,2024-10-22,2024-10-02,株式会社大谷場荘,,株式会社,埼玉県,さいたま市浦和区,東高砂町１０番２９号,,11,107,3300055,,,2024-10-02,清算の結了等,,,2024-06-12,1,,,,,オオヤバソウ,0
1193,5030001045193,登記記録の閉鎖等,0,2024-10-22,2024-10-11,荒井建設株式会社,,株式会社,埼玉県,志木市,本町２丁目５番９号,,11,228,3530004,,,2024-10-11,清算の結了等,,,2015-10-05,1,,,,,アライケンセツ,0
1200,5030005003965,登記記録の閉鎖等,0,2024-10-22,2024-10-15,医療法人社団泰明会,,その他の設立登記法人,埼玉県,狭山市,新狭山２丁目１０番１５号,,11,215,3501331,,,2024-10-15,清算の結了等,,,2015-10-05,1,,,,,タイメイカイ,0
1219,5050002027841,登記記録の閉鎖等,0,2024-10-22,2024-10-10,有限会社ヒロタ,,有限会社,茨城県,神栖市,太田６３番地,,08,232,3140254,,,2024-10-10,清算の結了等,,,2015-10-05,1,,,,,,0
1240,5090001015975,登記記録の閉鎖等,0,2024-10-22,2024-10-15,協立株式会社,,株式会社,山梨県,北杜市,大泉町谷戸８９７４番地４０６,,19,209,4091502,,,2024-10-15,清算の結了等,,,2019-03-29,1,,,,,,0
1245,5100002024833,登記記録の閉鎖等,0,2024-10-22,2024-10-07,有限会社小丸山そばセンター,,有限会社,長野県,塩尻市,大字片丘字小丸山５０７８番地３,,20,215,3990711,,,2024-10-07,清算の結了等,,,2015-10-05,1,,,,,コマルヤマソバセンター,0
1247,5110001030229,登記記録の閉鎖等,0,2024-10-22,2024-10-11,株式会社エフディーエヌアジェンダ,,株式会社,新潟県,新潟市江南区,祖父興野２４２番地５,,15,104,9501144,,,2024-10-11,清算の結了等,,,2015-10-05,1,,,,,エフディーエヌアジェンダ,0
1300,5122002014498,登記記録の閉鎖等,0,2024-10-22,2024-10-17,有限会社ネクサス,,有限会社,大阪府,八尾市,志紀町２丁目５５番地,,27,212,5810031,,,2024-10-17,清算の結了等,,,2015-10-05,1,,,,,ネクサス,0
1303,5130001053855,登記記録の閉鎖等,0,2024-10-22,2024-10-18,株式会社京都建築センター,,株式会社,京都府,京都市山科区,勧修寺南大日町１４５番地４,,26,110,6078234,,,2024-10-18,清算の結了等,,,2015-10-05,1,,,,,キョウトケンチクセンター,0
1306,5140001015409,登記記録の閉鎖等,0,2024-10-22,2024-10-18,株式会社北神水道商会,,株式会社,兵庫県,神戸市北区,鈴蘭台北町３丁目２５番５号,,28,109,6511111,,,2024-10-18,清算の結了等,,,2015-10-05,1,,,,,ホクシンスイドウショウカイ,0
1317,5160001005465,登記記録の閉鎖等,0,2024-10-22,2024-10-21,株式会社日本ジオテック,,株式会社,滋賀県,甲賀市,甲南町希望ケ丘４丁目２６番地８,,25,209,5203333,,,2024-10-21,清算の結了等,,,2015-10-05,1,,,,,ニホンジオテック,0
1320,5180001027937,登記記録の閉鎖等,0,2024-10-22,2024-10-03,株式会社尾ノ上,,株式会社,愛知県,名古屋市南区,城下町２丁目７番地,,23,112,4570047,,,2024-10-03,清算の結了等,,,2015-10-05,1,,,,,オノウエ,0
1325,5180001108646,登記記録の閉鎖等,0,2024-10-22,2024-10-03,株式会社Ｚｉｎｇ,,株式会社,愛知県,名古屋市緑区,砂田１丁目４０１,,23,114,4580807,,,2024-10-03,清算の結了等,,,2015-10-05,1,,,,,ジン,0
1336,5180002070052,登記記録の閉鎖等,0,2024-10-22,2024-10-08,有限会社南工業,,有限会社,愛知県,小牧市,常普請２丁目１２２番地,,23,219,4850044,,,2024-10-08,清算の結了等,,,2015-10-05,1,,,,,ミナミコウギョウ,0
1343,5190002013217,登記記録の閉鎖等,0,2024-10-22,2024-10-17,有限会社綿中,,有限会社,三重県,名張市,桔梗が丘３番町二街区６８番地の１３,,24,208,5180623,,,2024-10-17,清算の結了等,,,2015-10-05,1,,,,,ワタチュウ,0
1354,5240001047292,登記記録の閉鎖等,0,2024-10-22,2024-10-11,スカイダイニング株式会社,,株式会社,広島県,広島市中区,紙屋町２丁目３番１０号,,34,101,7300031,,,2024-10-11,清算の結了等,,,2015-10-05,1,,,,,スカイダイニング,0
1378,5340002025072,登記記録の閉鎖等,0,2024-10-22,2024-10-16,有限会社大久保製材,,有限会社,鹿児島県,鹿屋市,串良町岡崎３０１５番地１,,46,203,8931603,,,2024-10-16,清算の結了等,,,2015-10-05,1,,,,,オオクボセイザイ,0
1383,5360001014735,登記記録の閉鎖等,0,2024-10-22,2024-10-11,株式会社四つ葉,,株式会社,沖縄県,うるま市,石川白浜２丁目２番２２号,,47,213,9041105,,,2024-10-11,清算の結了等,,,2015-10-05,1,,,,,ヨツバ,0
1411,5460101001904,登記記録の閉鎖等,0,2024-10-22,2024-10-18,株式会社ユーイング,,株式会社,北海道,帯広市,東二条南１８丁目１５番地,,01,207,0800802,,,2024-10-18,清算の結了等,,,2015-10-05,1,,,,,ユーイング,0
1412,5470001017495,登記記録の閉鎖等,0,2024-10-22,2024-10-17,株式会社らも,,株式会社,香川県,高松市,磨屋町１０番地５,,37,201,7600026,,,2024-10-17,清算の結了等,,,2019-06-11,1,,,,,ラモ,0
1419,6010001010000,登記記録の閉鎖等,0,2024-10-22,2024-10-21,株式会社アドウィック,,株式会社,東京都,武蔵野市,緑町２丁目４番１２号５０３,,13,203,1800012,,,2024-10-21,清算の結了等,,,2015-10-05,1,,,,,アドウィック,0
1440,6010005028963,登記記録の閉鎖等,0,2024-10-22,2024-10-18,一般社団法人ハラスメント対策協会,,その他の設立登記法人,東京都,府中市,矢崎町２丁目４番地の１３,,13,206,1830025,,,2024-10-18,清算の結了等,,,2018-08-20,1,,,,,ハラスメントタイサクキョウカイ,0
1464,6010801030395,登記記録の閉鎖等,0,2024-10-22,2024-09-30,ダーディット株式会社,,株式会社,山形県,酒田市,東町２丁目１番１２号,,06,204,9980875,,,2024-09-30,清算の結了等,,,2019-11-20,1,,,,,ダーディット,0
1473,6011001107059,登記記録の閉鎖等,0,2024-10-22,2024-10-03,株式会社ＲｉＬｉ,,株式会社,東京都,渋谷区,千駄ヶ谷４丁目１２番８号ＳＳＵビル４Ｆ,,13,113,1510051,,,2024-10-03,合併による解散等,2011001163907,令和６年１０月１日東京都渋谷区道玄坂一丁目１２番１号渋谷マークシティウエスト２０階株式会社ＷｉｎＣ（2011001163907）に合併し解散,2015-10-05,1,,,,,リリー,0
1481,6011103011472,登記記録の閉鎖等,0,2024-10-22,2024-10-18,ＦＡＥ４合同会社,,合同会社,東京都,新宿区,新宿４丁目３番１７号,,13,104,1600022,,,2024-10-18,清算の結了等,,,2022-02-15,1,,,,,エフエイイーフォー,0
1485,6011602010000,登記記録の閉鎖等,0,2024-10-22,2024-10-17,有限会社望田市郎企画制作室,00056309,有限会社,東京都,練馬区,石神井台１丁目１９番１６号,,13,120,1770045,,,2024-10-17,清算の結了等,,,2015-10-05,1,,,,,モチダイチロウキカクセイサクシツ,0
1490,6012305001261,登記記録の閉鎖等,0,2024-10-22,2024-10-11,特定非営利活動法人みんなのそら,,その他の設立登記法人,東京都,町田市,広袴２丁目１５番地１１,,13,209,1950056,,,2024-10-11,清算の結了等,,,2015-10-05,1,,,,,ミンナノソラ,0
1492,6012701002375,登記記録の閉鎖等,0,2024-10-22,2024-10-09,田村木材株式会社,,株式会社,東京都,西東京市,向台町４丁目２１番５号,,13,229,1880013,,,2024-10-09,清算の結了等,,,2015-10-05,1,,,,,タムラモクザイ,0
1493,6012803003180,登記記録の閉鎖等,0,2024-10-22,2024-10-09,合同会社センス,,合同会社,東京都,新宿区,四谷三栄町６番５号木原ビル２０１,,13,104,1600008,,,2024-10-09,清算の結了等,,,2023-09-12,1,,,,,センス,0
1510,6030001094900,登記記録の閉鎖等,0,2024-10-22,2024-10-11,株式会社アグア,,株式会社,埼玉県,さいたま市南区,大字太田窪２９７４番地１０,,11,108,3360015,,,2024-10-11,清算の結了等,,,2015-10-05,1,,,,,アグア,0
1516,6030002013719,登記記録の閉鎖等,0,2024-10-22,2024-10-15,有限会社森印刷,,有限会社,埼玉県,さいたま市西区,大字指扇２３１番地の１８,,11,101,3310047,,,2024-10-15,清算の結了等,,,2015-10-05,1,,,,,モリインサツ,0
1518,6040001011879,登記記録の閉鎖等,0,2024-10-22,2024-10-15,株式会社アクトシティ,,株式会社,千葉県,千葉市稲毛区,稲毛東５丁目１７番２号,,12,103,2630031,,,2024-10-15,清算の結了等,,,2015-10-05,1,,,,,アクトシティ,0
1523,6040001053392,登記記録の閉鎖等,0,2024-10-22,2024-10-11,株式会社ゴルフ場サポート,,株式会社,千葉県,君津市,滝原７５番地,,12,225,2920534,,,2024-10-11,清算の結了等,,,2015-10-05,1,,,,,ゴルフジョウサポート,0
1536,6050001045678,登記記録の閉鎖等,0,2024-10-22,2024-10-10,株式会社彪美総建,,株式会社,茨城県,那珂市,額田南郷２４４８番地４９,,08,226,3110107,,,2024-10-10,清算の結了等,,,2019-03-06,1,,,,,ヒュウビソウケン,0
1572,6120105006635,登記記録の閉鎖等,0,2024-10-22,2024-10-10,藤井若宮整絨労働組合,,その他の設立登記法人,大阪府,泉大津市,若宮町８－２藤井若宮整絨株式会社内,,27,206,5950065,,,2024-10-10,清算の結了等,,,2015-10-05,1,,,,,フジイワカミヤセイジュウ,0
1574,6120901035218,登記記録の閉鎖等,0,2024-10-22,2024-10-15,株式会社理創経営,,株式会社,大阪府,池田市,伏尾台４丁目８番地の１１,,27,204,5630017,,,2024-10-15,清算の結了等,,,2015-10-05,1,,,,,リソウケイエイ,0
1575,6120901039276,登記記録の閉鎖等,0,2024-10-22,2024-10-17,Ｓ－ライフサポート株式会社,,株式会社,大阪府,箕面市,小野原西４丁目１１－５,,27,220,5620032,,,2024-10-17,清算の結了等,,,2017-12-06,1,,,,,エスライフサポート,0
1616,6200005009754,登記記録の閉鎖等,0,2024-10-22,2024-10-17,一般財団法人高根村観光開発公社,,その他の設立登記法人,岐阜県,高山市,高根町上ケ洞２９０番地,,21,203,5093411,,,2024-10-17,清算の結了等,,,2015-10-05,1,,,,,タカネムラカンコウカイハツコウシャ,0
1617,6220001017081,登記記録の閉鎖等,0,2024-10-22,2024-10-15,株式会社堅田通商,,株式会社,石川県,金沢市,幸町２７番２３号,,17,201,9200968,,,2024-10-15,清算の結了等,,,2015-10-05,1,,,,,カタダツウショウ,0
1640,6300001009888,登記記録の閉鎖等,0,2024-10-22,2024-10-18,ティーワイジャパン株式会社,,株式会社,佐賀県,佐賀市,諸富町大字徳富２０５０番地８,,41,201,8402104,,,2024-10-18,清算の結了等,,,2015-10-05,1,,,,,ティーワイジャパン,0
1648,6330005009130,登記記録の閉鎖等,0,2024-10-22,2024-10-11,ＮＰＯ法人熊本高齢社会活性化研究センター,,その他の設立登記法人,熊本県,熊本市北区,山室５丁目４番２１号,,43,105,8600084,,,2024-10-11,清算の結了等,,,2015-10-05,1,,,,,クマモトコウレイシャカイカッセイカケンキュウセンター,0
1668,6400001007675,登記記録の閉鎖等,0,2024-10-22,2024-10-07,岩手農協チキンフーズ株式会社,,株式会社,岩手県,二戸市,石切所字火行塚２５番地,,03,213,0286103,,,2024-10-07,合併による解散等,2400001007720,令和６年１０月１日岩手県二戸市石切所字火行塚２５番地株式会社十文字チキンカンパニー（2400001007720）に合併し解散,2015-10-05,1,,,,,イワテノウキョウチキンフーズ,0
1674,6430002061504,登記記録の閉鎖等,0,2024-10-22,2024-10-04,有限会社ささき食堂,,有限会社,北海道,日高郡新ひだか町,静内本町３丁目１番１６号,,01,610,0560016,,,2024-10-04,清算の結了等,,,2015-10-05,1,,,,,ササキショクドウ,0
1683,6500003002870,登記記録の閉鎖等,0,2024-10-22,2024-10-18,合同会社Ｎｓ,,合同会社,愛媛県,松山市,針田町３番地の４,,38,201,7900055,,,2024-10-18,清算の結了等,,,2022-08-02,1,,,,,ナルズ,0
1688,7010001049599,登記記録の閉鎖等,0,2024-10-22,2024-10-11,滝山商事株式会社,,株式会社,東京都,中央区,築地３丁目５番１０号,,13,102,1040045,,,2024-10-11,合併による解散等,7010601029810,令和６年１０月１日東京都江東区新木場一丁目８番１１号株式会社滝山（7010601029810）に合併し解散,2015-10-05,1,,,,,タキヤマショウジ,0
1694,7010001208213,登記記録の閉鎖等,0,2024-10-22,2024-10-04,株式会社ＴＫＣ,,株式会社,宮城県,仙台市若林区,荒浜字北沼向３７,,04,103,9840033,,,2024-10-04,清算の結了等,,,2020-03-16,1,,,,,ティーケーシー,0
1726,7010601031741,登記記録の閉鎖等,0,2024-10-22,2024-10-15,株式会社コレット,,株式会社,東京都,江東区,東陽５丁目３１番６号,,13,108,1350016,,,2024-10-15,清算の結了等,,,2015-10-05,1,,,,,コレット,0
1732,7011001067145,登記記録の閉鎖等,0,2024-10-22,2024-10-16,株式会社代官山Ｅｄｕｃａｔｉｏｎａｌ,,株式会社,東京都,渋谷区,桜丘町１８番６号日本会館８階,,13,113,1500031,,,2024-10-16,合併による解散等,6010401179410,令和６年１０月１日東京都港区愛宕二丁目５番１号愛宕グリーンヒルズＭＯＲＩタワー３９階トパーズ・リージョナル１Ｂ株式会社（6010401179410）に合併し解散,2015-10-05,1,,,,,ダイカンヤマエデュケーショナル,0
1737,7011001128244,登記記録の閉鎖等,0,2024-10-22,2024-09-30,株式会社ＲＥＸ,,株式会社,東京都,渋谷区,代々木２丁目１６番１２号,,13,113,1510053,,,2024-09-30,清算の結了等,,,2019-05-31,1,,,,,レックス,0
1738,7011001140240,登記記録の閉鎖等,0,2024-10-22,2024-09-27,株式会社ＣＯＮＮＥＣＴＥＲ,,株式会社,東京都,渋谷区,神宮前４丁目２６番２８号,,13,113,1500001,,,2024-09-27,清算の結了等,,,2021-05-10,1,,,,,コネクター,0
1742,7011002021448,登記記録の閉鎖等,0,2024-10-22,2024-09-27,有限会社高橋商店,,有限会社,東京都,渋谷区,本町２丁目３５番７号,,13,113,1510071,,,2024-09-27,清算の結了等,,,2015-10-05,1,,,,,タカハシショウテン,0
1744,7011101002332,登記記録の閉鎖等,0,2024-10-22,2024-10-21,株式会社ウイズム,,株式会社,東京都,中野区,中央２丁目３０番９号,,13,114,1640011,,,2024-10-21,清算の結了等,,,2015-10-05,1,,,,,ウイズム,0
1746,7011101063390,登記記録の閉鎖等,0,2024-10-22,2024-10-09,旅テラス株式会社,,株式会社,東京都,新宿区,高田馬場３丁目３４番１４号２０２号室,,13,104,1690075,,,2024-10-09,清算の結了等,,,2015-10-05,1,,,,,タビテラス,0
1756,7011602023307,登記記録の閉鎖等,0,2024-10-22,2024-10-16,有限会社タカノリ,,有限会社,東京都,練馬区,西大泉６丁目１５番５号,,13,120,1780065,,,2024-10-16,清算の結了等,,,2015-10-05,1,,,,,タカノリ,0
1758,7011801004826,登記記録の閉鎖等,0,2024-10-22,2024-10-16,睦建設株式会社,,株式会社,東京都,葛飾区,東金町１丁目１１番１２号,,13,122,1250041,,,2024-10-16,清算の結了等,,,2015-10-05,1,,,,,ムツミケンセツ,0
1763,7012701011986,登記記録の閉鎖等,0,2024-10-22,2024-10-10,株式会社アー・ツエット,,株式会社,東京都,東久留米市,滝山５丁目５番８号,,13,222,2030033,,,2024-10-10,清算の結了等,,,2015-10-05,1,,,,,,0
1782,7020005008716,登記記録の閉鎖等,0,2024-10-22,2024-10-03,ライオンズマンション川崎駅南管理組合法人,,その他の設立登記法人,神奈川県,川崎市川崎区,南町２番地２４,,14,131,2100015,,,2024-10-03,清算の結了等,,,2015-10-05,1,,,,,ライオンズマンションカワサキエキミナミ,0
1789,7030001157862,登記記録の閉鎖等,0,2024-10-22,2024-10-15,Ｋ２マネジメント株式会社,,株式会社,東京都,練馬区,関町南２丁目８番２６号ＩＩ－１０２号,00134919,13,120,1770053,,,2024-10-15,清算の結了等,,,2023-12-25,1,,,,,ケーツーマネジメント,0
1799,7040001033955,登記記録の閉鎖等,0,2024-10-22,2024-10-07,株式会社アイテイシーテクニカル,,株式会社,東京都,千代田区,有楽町１丁目１番２号,,13,101,1000006,,,2024-10-07,合併による解散等,6040001032826,令和６年９月３０日東京都千代田区有楽町一丁目１番２号株式会社アイテイエフ（6040001032826）に合併し解散,2015-10-05,1,,,,,アイテイシーテクニカル,0
1807,7040002073760,登記記録の閉鎖等,0,2024-10-22,2024-10-15,有限会社水月,,有限会社,千葉県,市原市,有秋台東２丁目３番地,,12,219,2990124,,,2024-10-15,清算の結了等,,,2015-10-05,1,,,,,スイゲツ,0
1810,7040003018236,登記記録の閉鎖等,0,2024-10-22,2024-10-15,Ａｓｏｂｉｇｏｃｏｒｏ合同会社,,合同会社,千葉県,市川市,相之川２丁目４－１２,,12,203,2720143,,,2024-10-15,清算の結了等,,,2021-08-13,1,,,,,アソビゴコロ,0
1812,7040005004606,登記記録の閉鎖等,0,2024-10-22,2024-10-10,特定非営利活動法人青空の会,,その他の設立登記法人,千葉県,鎌ケ谷市,東中沢４丁目４番８号,,12,224,2730112,,,2024-10-10,清算の結了等,,,2015-10-05,1,,,,,アオゾラノカイ,0
1814,7050001041131,登記記録の閉鎖等,0,2024-10-22,2024-10-08,ライステクノロジーかわち株式会社,,株式会社,茨城県,稲敷郡河内町,長竿３６９３番地２,,08,447,3001312,,,2024-10-08,清算の結了等,,,2016-06-09,1,,,,,ライステクノロジーカワチ,0
1819,7070001006264,登記記録の閉鎖等,0,2024-10-22,2024-10-17,碓氷冷藏倉庫株式会社,,株式会社,群馬県,高崎市,歌川町１３番地,,10,202,3700807,,,2024-10-17,清算の結了等,,,2015-10-05,1,,,,,ウスイレイゾウソウコ,0
1825,7080102011030,登記記録の閉鎖等,0,2024-10-22,2024-10-15,有限会社東静塾,,有限会社,静岡県,駿東郡清水町,伏見２６番地の３,,22,341,4110907,,,2024-10-15,清算の結了等,,,2015-10-05,1,,,,,トウセイジュク,0
1826,7080105005426,登記記録の閉鎖等,0,2024-10-22,2024-10-15,協同組合富士山工房,,その他の設立登記法人,静岡県,沼津市,石川２９４番地の１,,22,203,4100317,,,2024-10-15,清算の結了等,,,2015-10-05,1,,,,,フジサンコウボウ,0
1827,7080402005252,登記記録の閉鎖等,0,2024-10-22,2024-10-16,有限会社でんきぼーい浜松,,有限会社,静岡県,浜松市中央区,新貝町２９０番地,,22,138,4350023,,,2024-10-16,清算の結了等,,,2015-10-05,1,,,,,デンキボーイハママツ,0
1843,7120001241120,登記記録の閉鎖等,0,2024-10-22,2024-10-16,Ｃｌｉｎｉｃ　Ｍａｒｋｅｔｉｎｇ株式会社,,株式会社,大阪府,大阪市北区,西天満６丁目７番２号,,27,127,5300047,,,2024-10-16,合併による解散等,5010001231373,令和６年１０月１日東京都文京区湯島二丁目１６番１０号株式会社メディカルサポート（5010001231373）に合併し解散,2021-10-12,1,,,,,クリニックマーケティング,0
1855,7120002024929,登記記録の閉鎖等,0,2024-10-22,2024-10-16,有限会社ケンセイ情報,,有限会社,大阪府,大阪市東淀川区,東中島１丁目２０番１４号,,27,114,5330033,,,2024-10-16,清算の結了等,,,2015-10-05,1,,,,,ジョウホウ,0
1873,7122001036707,登記記録の閉鎖等,0,2024-10-22,2024-10-08,株式会社Ｍｅ,,株式会社,大阪府,東大阪市,足代新町１７番２号,,27,227,5770057,,,2024-10-08,清算の結了等,,,2023-02-17,1,,,,,ミー,0
1905,7180001156230,登記記録の閉鎖等,0,2024-10-22,2024-10-02,ＫＲＥＳＴ株式会社,,株式会社,愛知県,名古屋市中区,丸の内２丁目９番２４号,,23,106,4600002,,,2024-10-02,清算の結了等,,,2023-05-10,1,,,,,クレスト,0
1920,7210001011910,登記記録の閉鎖等,0,2024-10-22,2024-10-16,府中美術印刷株式会社,,株式会社,福井県,越前市,深草２丁目４番３２号,,18,209,9150815,,,2024-10-16,清算の結了等,,,2015-10-05,1,,,,,フチュウビジュツインサツ,0
1936,7290001048251,登記記録の閉鎖等,0,2024-10-22,2024-10-17,コンパス株式会社,,株式会社,福岡県,福岡市中央区,警固２丁目５番７号,,40,133,8100023,,,2024-10-17,合併による解散等,9310001003508,令和６年１０月１日長崎県西彼杵郡時津町日並郷３４５０番地１１株式会社ビーアイシーアジア（9310001003508）に合併し解散,2015-10-05,1,,,,,コンパス,0
1939,7290001075510,登記記録の閉鎖等,0,2024-10-22,2024-09-11,株式会社オリンピア教育センター,,株式会社,福岡県,福岡市博多区,古門戸町２－４,,40,132,8120029,,,2024-09-11,清算の結了等,,,2016-10-17,1,,,,,オリンピアキョウイクセンター,0
1945,7290002000830,登記記録の閉鎖等,0,2024-10-22,2024-10-03,有限会社野田金属工業,,有限会社,福岡県,福岡市西区,大字羽根戸３７４番地の１,,40,135,8190038,,,2024-10-03,清算の結了等,,,2015-10-05,1,,,,,ノダキンゾクコウギョウ,0
1952,7320001003970,登記記録の閉鎖等,0,2024-10-22,2024-10-07,株式会社木村組,,株式会社,大分県,大分市,大字佐賀関１３８０番地の２,,44,201,8792201,,,2024-10-07,清算の結了等,,,2024-06-24,1,,,,,,0
1956,7340002000197,登記記録の閉鎖等,0,2024-10-22,2024-10-09,有限会社橘運送,,有限会社,鹿児島県,日置市,日吉町日置３７４５番地５,,46,216,8993101,,,2024-10-09,清算の結了等,,,2015-10-05,1,,,,,タチバナウンソウ,0
1968,7390001005936,登記記録の閉鎖等,0,2024-10-22,2024-10-10,株式会社ＬＯＢＡＣＯＬＬ,,株式会社,山形県,山形市,小立４丁目１５番１７号,,06,201,9902402,,,2024-10-10,清算の結了等,,,2015-10-05,1,,,,,ロバコール,0
1969,7390001009094,登記記録の閉鎖等,0,2024-10-22,2024-10-17,株式会社コスモス薬局,,株式会社,山形県,村山市,楯岡新町２丁目８番２１号,,06,208,9950033,,,2024-10-17,合併による解散等,7420001006939,令和６年１０月１日青森県八戸市石堂二丁目２４番３０号株式会社なの花東北（7420001006939）に合併し解散,2015-10-05,1,,,,,コスモスヤッキョク,0
1974,7430003000162,登記記録の閉鎖等,0,2024-10-22,2024-10-10,合資会社向井,,合資会社,北海道,札幌市中央区,北二条西１３丁目１番地１０,,01,101,0600002,,,2024-10-10,清算の結了等,,,2023-06-06,1,,,,,ムカイ,0
1976,7430005002966,登記記録の閉鎖等,0,2024-10-22,2024-10-16,真駒内商店街振興組合,,その他の設立登記法人,北海道,札幌市南区,真駒内本町５丁目２番１号,,01,106,0050021,,,2024-10-16,清算の結了等,,,2015-10-05,1,,,,,マコマナイ,0
1984,7500001015493,登記記録の閉鎖等,0,2024-10-22,2024-10-17,長谷川ガス株式会社,,株式会社,愛媛県,宇和島市,伊吹町字花ナシ甲１４２８番地,,38,203,7980022,,,2024-10-17,清算の結了等,,,2015-10-05,1,,,,,ハセガワガス,0
1989,8010001172945,登記記録の閉鎖等,0,2024-10-22,2024-10-11,グローバルブリッジパートナーズ株式会社,,株式会社,埼玉県,北本市,宮内３丁目１４２番地３８,,11,233,3640002,,,2024-10-11,清算の結了等,,,2016-01-18,1,,,,,グローバルブリッジパートナーズ,0
1997,8010002050126,登記記録の閉鎖等,0,2024-10-22,2024-10-04,有限会社カンコンクラブ,,有限会社,東京都,中央区,勝どき２丁目１８番１－２０７号,,13,102,1040054,,,2024-10-04,清算の結了等,,,2015-10-05,1,,,,,カンコンクラブ,0
1998,8010003030226,登記記録の閉鎖等,0,2024-10-22,2024-10-07,合同会社シスル,,合同会社,東京都,千代田区,丸の内３丁目１番１号東京共同会計事務所内,,13,101,1000005,,,2024-10-07,清算の結了等,,,2019-07-23,1,,,,,シスル,0
2010,8010403028571,登記記録の閉鎖等,0,2024-10-22,2024-10-02,合同会社Ｅｃｈｏ,,合同会社,東京都,港区,虎ノ門５丁目１番４号,,13,103,1050001,,,2024-10-02,清算の結了等,,,2022-09-29,1,,,,,エコー,0
2027,8010902010575,登記記録の閉鎖等,0,2024-10-22,2024-10-15,有限会社イデア,,有限会社,東京都,世田谷区,桜丘１丁目９番３５号,,13,112,1560054,,,2024-10-15,清算の結了等,,,2015-10-05,1,,,,,イデア,0
2033,8011001125109,登記記録の閉鎖等,0,2024-10-22,2024-10-16,株式会社Ｑｕａｌｉｔａｓ,,株式会社,東京都,渋谷区,桜丘町４番１４号ＶＯＬＴ渋谷桜丘２階,,13,113,1500031,,,2024-10-16,合併による解散等,8011001095839,令和６年１０月１日横浜市青葉区藤が丘一丁目１２番７号ソレイユ藤が丘２０５号室株式会社オージェイナイン（8011001095839）に合併し解散,2018-11-09,1,,,,,クオリタス,0
2035,8011002023848,登記記録の閉鎖等,0,2024-10-22,2024-09-30,有限会社スズア,,有限会社,東京都,渋谷区,千駄ヶ谷５丁目１１番６号,,13,113,1510051,,,2024-09-30,清算の結了等,,,2015-10-05,1,,,,,スズア,0
2039,8011101035059,登記記録の閉鎖等,0,2024-10-22,2024-10-07,月星株式会社,,株式会社,東京都,新宿区,高田馬場２丁目８番３号,,13,104,1690075,,,2024-10-07,清算の結了等,,,2015-10-05,1,,,,,ツキホシ,0
2050,8011301005456,登記記録の閉鎖等,0,2024-10-22,2024-10-08,株式会社日本理工出版会,,株式会社,東京都,西東京市,富士町１丁目１６番２４号,,13,229,2020014,,,2024-10-08,清算の結了等,,,2015-10-05,1,,,,,ニホンリコウシュッパンカイ,0
2061,8011701023628,登記記録の閉鎖等,0,2024-10-22,2024-10-16,株式会社ＣＩＣ,,株式会社,東京都,江戸川区,西葛西１丁目１－１６リバーサイド坂本１Ｆ,,13,123,1340088,,,2024-10-16,清算の結了等,,,2020-07-22,1,,,,,シーアイシー,0
2078,8013302016960,登記記録の閉鎖等,0,2024-10-22,2024-10-09,有限会社ルーキーシステム,,有限会社,東京都,豊島区,池袋本町３丁目２２番４号,,13,116,1700011,,,2024-10-09,清算の結了等,,,2015-10-05,1,,,,,ルーキーシステム,0
2084,8020001022802,登記記録の閉鎖等,0,2024-10-22,2024-10-03,株式会社キューシーコンサルタント,,株式会社,神奈川県,横浜市神奈川区,神奈川２丁目１１－１８渡辺ビル５０１,,14,102,2210045,,,2024-10-03,清算の結了等,,,2015-10-05,1,,,,,キューシーコンサルタント,0
2093,8020002065346,登記記録の閉鎖等,0,2024-10-22,2024-10-03,有限会社アクトウィン,,有限会社,神奈川県,横浜市港北区,新羽町７９９番地,,14,109,2230057,,,2024-10-03,清算の結了等,,,2015-10-05,1,,,,,アクトウィン,0
2105,8030002080906,登記記録の閉鎖等,0,2024-10-22,2024-10-15,有限会社本庄自工,,有限会社,埼玉県,本庄市,小島１丁目１３番２５号,,11,211,3670061,,,2024-10-15,清算の結了等,,,2015-10-05,1,,,,,ホンジョウジコウ,0
2120,8050002028291,登記記録の閉鎖等,0,2024-10-22,2024-10-10,株式会社會野建設,,株式会社,茨城県,神栖市,土合本町３丁目９８０９番地２０１,,08,232,3140343,,,2024-10-10,清算の結了等,,,2015-10-05,1,,,,,,0
2134,8080401000914,登記記録の閉鎖等,0,2024-10-22,2024-10-15,株式会社エム・ツー,,株式会社,静岡県,浜松市中央区,鶴見町１６０２番地の２,,22,138,4350022,,,2024-10-15,清算の結了等,,,2015-10-05,1,,,,,エムツー,0
2135,8080402013980,登記記録の閉鎖等,0,2024-10-22,2024-10-15,有限会社新研,,有限会社,静岡県,浜松市中央区,青屋町２０番地の１,,22,138,4350037,,,2024-10-15,清算の結了等,,,2015-10-05,1,,,,,シンケン,0
2158,8120005018299,登記記録の閉鎖等,0,2024-10-22,2024-10-21,特定非営利活動法人学遊みのり舎,,その他の設立登記法人,大阪府,大阪市西成区,千本南１丁目４－１１プリンスハイツ１０６号室,,27,122,5570055,,,2024-10-21,清算の結了等,,,2015-11-30,1,,,,,ガクユウミノリシャ,0
2160,8120101069881,登記記録の閉鎖等,0,2024-10-22,2024-10-07,和泉開発株式会社,,株式会社,大阪府,和泉市,唐国町９７０番地,,27,219,5941151,,,2024-10-07,清算の結了等,,,2024-07-09,1,,,,,,0
2169,8130001027286,登記記録の閉鎖等,0,2024-10-22,2024-10-18,株式会社ＧＬＯＢＡＬ　ＮＥＴＷＯＲＫ,,株式会社,京都府,京都市中京区,小川通六角下る元本能寺町３８２番地,,26,104,6048244,,,2024-10-18,清算の結了等,,,2015-10-05,1,,,,,グローバルネットワーク,0
2171,8130002006025,登記記録の閉鎖等,0,2024-10-22,2024-10-18,有限会社フォトスタジオマツモト,,有限会社,京都府,京都市左京区,丸太町通川端東入東丸太町２３番地,,26,103,6068395,,,2024-10-18,清算の結了等,,,2015-10-05,1,,,,,フォトスタジオマツモト,0
2173,8140001001075,登記記録の閉鎖等,0,2024-10-22,2024-10-18,株式会社ウィング,,株式会社,兵庫県,神戸市東灘区,御影石町２丁目１４番２１号,,28,101,6580045,,,2024-10-18,清算の結了等,,,2015-10-05,1,,,,,ウィング,0
2191,8180001044806,登記記録の閉鎖等,0,2024-10-22,2024-10-08,株式会社グリーンホケン事務所,,株式会社,愛知県,名古屋市緑区,六田１丁目１３０番地,,23,114,4580036,,,2024-10-08,清算の結了等,,,2015-10-05,1,,,,,グリーンホケンジムショ,0
2206,8180303002528,登記記録の閉鎖等,0,2024-10-22,2024-10-09,合資会社中富商会,,合資会社,愛知県,豊田市,西中山町崩ケ崎３０番地１７,,23,211,4700431,,,2024-10-09,清算の結了等,,,2015-10-05,1,,,,,ナカトミショウカイ,0
2210,8190002019582,登記記録の閉鎖等,0,2024-10-22,2024-10-01,有限会社荻須商会,,有限会社,三重県,四日市市,大矢知町３２６３番地の７,,24,202,5108034,,,2024-10-01,合併による解散等,4190001020652,令和６年１０月１日三重県四日市市山分町５１５番地２７株式会社Ａｄｍｉｒａｌ（4190001020652）に合併し解散,2015-10-05,1,,,,,オギスショウカイ,0
2212,8220001017154,登記記録の閉鎖等,0,2024-10-22,2024-10-15,株式会社こんてんつ,,株式会社,石川県,金沢市,橋場町８番１号,,17,201,9200911,,,2024-10-15,清算の結了等,,,2015-10-05,1,,,,,コンテンツ,0
2216,8240001000091,登記記録の閉鎖等,0,2024-10-22,2024-10-04,アイエス株式会社,,株式会社,広島県,広島市南区,東雲本町２丁目２１番１７号,,34,103,7340023,,,2024-10-04,清算の結了等,,,2015-10-05,1,,,,,アイエス,0
2219,8240003002788,登記記録の閉鎖等,0,2024-10-22,2024-10-15,合同会社ネストサポート,,合同会社,広島県,府中市,父石町３１１番地１,,34,208,7260035,,,2024-10-15,清算の結了等,,,2015-10-05,1,,,,,ネストサポート,0
2227,8260002010591,登記記録の閉鎖等,0,2024-10-22,2024-10-18,有限会社吉又商店,,有限会社,岡山県,岡山市中区,兼基３２１番地２竜操パークマンション４０６,,33,102,7038227,,,2024-10-18,清算の結了等,,,2015-10-05,1,,,,,ヨシマタショウテン,0
2244,8290002040826,登記記録の閉鎖等,0,2024-10-22,2024-09-17,有限会社斉藤,,有限会社,福岡県,春日市,春日公園２丁目６６番地,,40,218,8160811,,,2024-09-17,清算の結了等,,,2015-10-05,1,,,,,サイトウ,0
2246,8290801002927,登記記録の閉鎖等,0,2024-10-22,2024-09-25,日本グリスター工業株式会社,,株式会社,福岡県,北九州市戸畑区,土取町１４番１６号,,40,105,8040014,,,2024-09-25,清算の結了等,,,2015-10-05,1,,,,,ニホングリスターコウギョウ,0
2250,8310001008631,登記記録の閉鎖等,0,2024-10-22,2024-10-16,株式会社エース・フーズ,,株式会社,長崎県,雲仙市,瑞穂町古部乙１０番地４,,42,213,8591216,,,2024-10-16,合併による解散等,9310001009661,令和６年１０月１２日長崎県島原市本町甲１８３番地１株式会社大光食品（9310001009661）に合併し解散,2015-10-05,1,,,,,エースフーズ,0
2251,8310002003656,登記記録の閉鎖等,0,2024-10-22,2024-10-16,有限会社長崎光線研究所,,有限会社,長崎県,長崎市,御船蔵町１番５４号,,42,201,8500042,,,2024-10-16,清算の結了等,,,2015-10-05,1,,,,,ナガサキコウセンケンキュウジョ,0
2252,8310002006691,登記記録の閉鎖等,0,2024-10-22,2024-10-18,有限会社ダスタリー長崎,,有限会社,長崎県,長崎市,田中町１５８０番地,,42,201,8510134,,,2024-10-18,清算の結了等,,,2015-10-05,1,,,,,ダスタリーナガサキ,0
2265,8390001012312,登記記録の閉鎖等,0,2024-10-22,2024-10-17,株式会社山形アポテック,,株式会社,山形県,寒河江市,仲谷地２丁目３番地の５,,06,206,9910054,,,2024-10-17,合併による解散等,7420001006939,令和６年１０月１日青森県八戸市石堂二丁目２４番３０号株式会社なの花東北（7420001006939）に合併し解散,2015-10-05,1,,,,,ヤマガタアポテック,0
2266,8400002002789,登記記録の閉鎖等,0,2024-10-22,2024-10-07,有限会社藤源商事,,有限会社,岩手県,盛岡市,城西町７番３３号,,03,201,0200044,,,2024-10-07,清算の結了等,,,2015-10-05,1,,,,,フジゲンショウジ,0
2269,8410002005196,登記記録の閉鎖等,0,2024-10-22,2024-10-17,有限会社オフィスエブリ,,有限会社,秋田県,秋田市,飯島美砂町１番３７号,,05,201,0110914,,,2024-10-17,清算の結了等,,,2015-10-05,1,,,,,オフィスエブリ,0
2272,8430001045737,登記記録の閉鎖等,0,2024-10-22,2024-10-18,株式会社ジェンテックス,,株式会社,北海道,札幌市北区,屯田五条３丁目１－２,,01,102,0020855,,,2024-10-18,清算の結了等,,,2015-10-05,1,,,,,ジェンテックス,0
2274,8430001074703,登記記録の閉鎖等,0,2024-10-22,2024-10-15,株式会社クリスタルカーゴ,,株式会社,千葉県,千葉市若葉区,中田町１７５番地,,12,104,2650043,,,2024-10-15,清算の結了等,,,2017-08-08,1,,,,,クリスタルカーゴ,0
2281,8500002016985,登記記録の閉鎖等,0,2024-10-22,2024-10-17,有限会社長谷川保温工業,,有限会社,愛媛県,新居浜市,庄内町６丁目３番４４号,,38,205,7920811,,,2024-10-17,清算の結了等,,,2015-10-05,1,,,,,ハセガワホオンコウギョウ,0
2287,9010001014221,登記記録の閉鎖等,0,2024-10-22,2024-10-16,株式会社カワイモデル,,株式会社,東京都,江東区,亀戸７丁目６３番３－８１２号,,13,108,1360071,,,2024-10-16,清算の結了等,,,2015-10-05,1,,,,,カワイモデル,0
2288,9010001057088,登記記録の閉鎖等,0,2024-10-22,2024-10-04,ポリマ資産管理株式会社,,株式会社,東京都,中央区,日本橋本町４丁目８番１６号,,13,102,1030023,,,2024-10-04,清算の結了等,,,2015-10-05,1,,,,,ポリマシサンカンリ,0
2349,9011101018368,登記記録の閉鎖等,0,2024-10-22,2024-10-21,株式会社フォームグラスジャパン,,株式会社,東京都,中野区,中央２丁目３０番９号,,13,114,1640011,,,2024-10-21,清算の結了等,,,2015-10-05,1,,,,,フォームグラスジャパン,0
2350,9011101068719,登記記録の閉鎖等,0,2024-10-22,2024-10-11,株式会社ＬＢＬ　ＳＴＡＦＦ,,株式会社,埼玉県,さいたま市大宮区,宮町２丁目７４番地４号第３秀宝ビル３階,,11,103,3300802,,,2024-10-11,清算の結了等,,,2015-10-05,1,,,,,エルビーエルスタッフ,0
2355,9011401005454,登記記録の閉鎖等,0,2024-10-22,2024-10-11,株式会社広金,,株式会社,東京都,板橋区,大谷口１丁目２３番１６号,,13,119,1730035,,,2024-10-11,清算の結了等,,,2015-10-05,1,,,,,ヒロガネ,0
2358,9011701003505,登記記録の閉鎖等,0,2024-10-22,2024-10-11,実川重機株式会社,,株式会社,東京都,江戸川区,西瑞江５丁目１９番地１,,13,123,1340015,,,2024-10-11,清算の結了等,,,2015-10-05,1,,,,,ジツカワジュウキ,0
2361,9011801022594,登記記録の閉鎖等,0,2024-10-22,2024-10-11,ジューベー株式会社,,株式会社,東京都,足立区,千住３丁目６番ツオード千住壱番館８０１,,13,121,1200034,,,2024-10-11,清算の結了等,,,2015-10-05,1,,,,,ジューベー,0
2385,9021001054719,登記記録の閉鎖等,0,2024-10-22,2024-10-21,株式会社湘南相模,,株式会社,神奈川県,平塚市,広川８１８番地の１,,14,203,2591219,,,2024-10-21,清算の結了等,,,2015-10-05,1,,,,,ショウナンサガミ,0
2389,9030001011778,登記記録の閉鎖等,0,2024-10-22,2024-10-11,株式会社本多測量,,株式会社,埼玉県,さいたま市北区,土呂町２丁目６番地１０,,11,102,3310804,,,2024-10-11,清算の結了等,,,2015-10-05,1,,,,,ホンダソクリョウ,0
2395,9030002086786,登記記録の閉鎖等,0,2024-10-22,2024-10-15,有限会社ソフトウエア・ウエーブ,,有限会社,埼玉県,越谷市,蒲生茜町２番地３,,11,222,3430843,,,2024-10-15,清算の結了等,,,2015-10-05,1,,,,,ソフトウエアウエーブ,0
2413,9070002000355,登記記録の閉鎖等,0,2024-10-22,2024-10-18,有限会社天川薬局,,有限会社,群馬県,前橋市,駒形町１１２０番地,,10,201,3792122,,,2024-10-18,清算の結了等,,,2015-10-05,1,,,,,アマガワヤッキョク,0
2417,9080102000428,登記記録の閉鎖等,0,2024-10-22,2024-10-17,有限会社魚喜,,有限会社,静岡県,沼津市,獅子浜３０８番地の６,,22,203,4100104,,,2024-10-17,清算の結了等,,,2015-10-05,1,,,,,ウオキ,0
2421,9080405005165,登記記録の閉鎖等,0,2024-10-22,2024-10-17,特定非営利活動法人里山再生クラブ,,その他の設立登記法人,静岡県,菊川市,倉沢１１３８番地の２,,22,224,4390002,,,2024-10-17,清算の結了等,,,2015-10-05,1,,,,,サトヤマサイセイクラブ,0
2426,9100003005052,登記記録の閉鎖等,0,2024-10-22,2024-10-08,合同会社チアザス,,合同会社,長野県,長野市,篠ノ井石川１５９４番地,,20,201,3888015,,,2024-10-08,清算の結了等,,,2018-07-17,1,,,,,チアザス,0
2433,9120001145526,登記記録の閉鎖等,0,2024-10-22,2024-10-17,株式会社大阪仁田,,株式会社,大阪府,大阪市阿倍野区,昭和町５丁目４番２５号,,27,119,5450011,,,2024-10-17,清算の結了等,,,2015-10-05,1,,,,,オオサカニタ,0
2445,9120002059031,登記記録の閉鎖等,0,2024-10-22,2024-10-17,有限会社テクノネット,,有限会社,大阪府,箕面市,彩都粟生北２丁目６－９３,,27,220,5620029,,,2024-10-17,清算の結了等,,,2015-10-05,1,,,,,テクノネット,0
2451,9120901032419,登記記録の閉鎖等,0,2024-10-22,2024-10-17,株式会社英,,株式会社,大阪府,高槻市,西面南４丁目１５番２号,,27,207,5690847,,,2024-10-17,清算の結了等,,,2015-10-05,1,,,,,ハナフサ,0
2454,9120902022542,登記記録の閉鎖等,0,2024-10-22,2024-10-15,有限会社庄内パンション,,有限会社,大阪府,三島郡島本町,江川２丁目１５番４５－５３０号,,27,301,6180013,,,2024-10-15,清算の結了等,,,2015-10-05,1,,,,,ショウナイパンション,0
2457,9122002016631,登記記録の閉鎖等,0,2024-10-22,2024-10-18,有限会社エアリアル,,有限会社,大阪府,八尾市,相生町４丁目５番３号,,27,212,5810082,,,2024-10-18,清算の結了等,,,2015-10-05,1,,,,,エアリアル,0
2462,9130002011453,登記記録の閉鎖等,0,2024-10-22,2024-10-18,有限会社フランク,,有限会社,京都府,京都市南区,唐橋川久保町２４番地,,26,107,6018451,,,2024-10-18,清算の結了等,,,2015-10-05,1,,,,,フランク,0
2472,9150002007251,登記記録の閉鎖等,0,2024-10-22,2024-10-17,有限会社美登路製材,,有限会社,奈良県,宇陀市,榛原比布１４３番地の１,,29,212,6330235,,,2024-10-17,清算の結了等,,,2015-10-05,1,,,,,ミドロセイザイ,0
2488,9220001019942,登記記録の閉鎖等,0,2024-10-22,2024-10-16,みこと株式会社,,株式会社,石川県,野々市市,押越１丁目１２７番地,,17,212,9218803,,,2024-10-16,清算の結了等,,,2015-10-05,1,,,,,ミコト,0
2507,9290003008342,登記記録の閉鎖等,0,2024-10-22,2024-09-11,天寿株式会社,,株式会社,福岡県,福岡市中央区,白金１丁目５番２２号,,40,133,8100012,,,2024-09-11,清算の結了等,,,2018-09-03,1,,,,,,0
2513,9370001017023,登記記録の閉鎖等,0,2024-10-22,2024-10-16,会社印ドットコム株式会社,,株式会社,鹿児島県,いちき串木野市,羽島４０４５番地１,,46,219,8960064,,,2024-10-16,清算の結了等,,,2015-10-05,1,,,,,カイシャインドットコム,0
2517,9380002008177,登記記録の閉鎖等,0,2024-10-22,2024-10-01,有限会社遠藤設備工業所,,有限会社,福島県,郡山市,日和田町字沼田２番地の９,,07,203,9630534,,,2024-10-01,清算の結了等,,,2015-10-05,1,,,,,エンドウセツビコウギョウショ,0
2520,9390002008647,登記記録の閉鎖等,0,2024-10-22,2024-09-30,有限会社マルトダイ庄内,,有限会社,山形県,酒田市,亀ケ崎７丁目７番地５号,,06,204,9980842,,,2024-09-30,清算の結了等,,,2015-10-05,1,,,,,マルトダイショウナイ,0
2522,9390005002119,登記記録の閉鎖等,0,2024-10-22,2024-10-10,特定非営利活動法人山形県バウンドテニス協会,,その他の設立登記法人,山形県,山形市,穂積１３３番地,,06,201,9900001,,,2024-10-10,清算の結了等,,,2015-10-05,1,,,,,ヤマガタケンバウンドテニスキョウカイ,0
2535,9470001002411,登記記録の閉鎖等,0,2024-10-22,2024-10-16,株式会社高松給食センター,,株式会社,香川県,高松市,勅使町１３５１番地１,,37,201,7618058,,,2024-10-16,清算の結了等,,,2015-10-05,1,,,,,タカマツキュウショクセンター,0
2538,9490002012192,登記記録の閉鎖等,0,2024-10-22,2024-10-10,株式会社秀峰,,株式会社,高知県,香南市,野市町西野５２６番地１,,39,211,7815232,,,2024-10-10,清算の結了等,,,2015-10-05,1,,,,,シュウホウ,0
2539,9500001015277,登記記録の閉鎖等,0,2024-10-22,2024-10-17,株式会社アコード宇和島,,株式会社,愛媛県,宇和島市,和霊元町３丁目２番１３号,,38,203,7980015,,,2024-10-17,清算の結了等,,,2015-10-05,1,,,,,アコードウワジマ,0
