sequenceNumber,corporateNumber,process,correct,updateDate,changeDate,name,nameImageId,kind,prefectureName,cityName,streetNumber,addressImageId,prefectureCode,cityCode,postCode,addressOutside,addressOutsideImageId,closeDate,closeCause,successorCorporateNumber,changeCause,assignmentDate,latest,enName,enPrefectureName,enCityName,enAddressOutside,furigana,hihyoji
11,1010001242580,新規,0,2024-02-27,2024-02-27,株式会社ほどほど,,株式会社,東京都,中央区,東日本橋１丁目２番６号ＳＮＳ東日本橋ビル,,13,102,1030004,,,,,,,2024-02-27,1,,,,,ホドホド,0
12,1010001242597,新規,0,2024-02-27,2024-02-27,株式会社ＭＡＴＳＵＯ　ＳＴＲＩＮＧＳ,,株式会社,東京都,文京区,後楽２丁目２番２０号井上旭門ビル１階,,13,105,1120004,,,,,,,2024-02-27,1,,,,,マツオストリングス,0
16,1010003043028,新規,0,2024-02-27,2024-02-27,Ｃｌｏｕｄｕｏ合同会社,,合同会社,東京都,中央区,晴海３丁目１３番１－１６０８号,,13,102,1040053,,,,,,,2024-02-27,1,,,,,クラウドゥオ,0
17,1010003043060,新規,0,2024-02-27,2024-02-27,Ｃａｔ合同会社,,合同会社,東京都,中央区,銀座１丁目２２番１１号銀座大竹ビジデンス２階,,13,102,1040061,,,,,,,2024-02-27,1,,,,,キャット,0
18,1010005037944,新規,0,2024-02-27,2024-02-27,一般社団法人日乃本,,その他の設立登記法人,東京都,千代田区,永田町２丁目９番６号,,13,101,1000014,,,,,,,2024-02-27,1,,,,,ヒノモト,0
21,1010401180488,新規,0,2024-02-27,2024-02-27,株式会社オフィス小林,,株式会社,東京都,港区,三田２丁目４番６－３０３号,,13,103,1080073,,,,,,,2024-02-27,1,,,,,オフィスコバヤシ,0
23,1010403031994,新規,0,2024-02-27,2024-02-27,ＧｅｅｋＯｕｔ　Ｄｅｖｅｌｏｐｍｅｎｔ５号合同会社,,合同会社,東京都,港区,麻布十番２丁目２０番７号,,13,103,1060045,,,,,,,2024-02-27,1,,,,,ギークアウトディベロップメントゴゴウ,0
24,1010403032043,新規,0,2024-02-27,2024-02-27,チュラスリー合同会社,,合同会社,東京都,港区,赤坂１丁目１２番３２号アーク森ビル２２階,,13,103,1070052,,,,,,,2024-02-27,1,,,,,チュラスリー,0
33,1010701045614,新規,0,2024-02-27,2024-02-27,東盛株式会社,,株式会社,東京都,品川区,中延５丁目７番１１号２Ｆ,,13,109,1420053,,,,,,,2024-02-27,1,,,,,トウショウ,0
35,1010703007067,新規,0,2024-02-27,2024-02-27,合同会社ＥＳクリーンエナジー１号,,合同会社,東京都,品川区,東品川２丁目３番１４号,,13,109,1400002,,,,,,,2024-02-27,1,,,,,イーエスクリーンエナジーイチゴウ,0
49,1011001160236,新規,0,2024-02-27,2024-02-27,株式会社ライジング,,株式会社,東京都,目黒区,下目黒６丁目２０番９号,,13,110,1530064,,,,,,,2024-02-27,1,,,,,ライジング,0
50,1011003018556,新規,0,2024-02-27,2024-02-27,Ｓａｙｏｋｏ　ＭＩＹＡＪＩＭＡ合同会社,,合同会社,東京都,渋谷区,道玄坂１丁目１０番８号渋谷道玄坂東急ビル２Ｆ－Ｃ,,13,113,1500043,,,,,,,2024-02-27,1,,,,,サヨコミヤジマ,0
51,1011003018572,新規,0,2024-02-27,2024-02-27,ルナデジ合同会社,,合同会社,東京都,渋谷区,道玄坂１丁目１０番８号渋谷道玄坂東急ビル２Ｆ－Ｃ,,13,113,1500043,,,,,,,2024-02-27,1,,,,,ルナデジ,0
55,1011101106304,新規,0,2024-02-27,2024-02-27,株式会社つぎの,,株式会社,東京都,新宿区,若松町９番１４－１１０３号,,13,104,1620056,,,,,,,2024-02-27,1,,,,,ツギノ,0
56,1011101106312,新規,0,2024-02-27,2024-02-27,ＧＲＥＥＮ　ＤＵＢＩＡ株式会社,,株式会社,東京都,新宿区,高田馬場３丁目１４番２号佐成屋ビル３階,,13,104,1690075,,,,,,,2024-02-27,1,,,,,グリーンデュビア,0
57,1011101106337,新規,0,2024-02-27,2024-02-27,株式会社満星,,株式会社,東京都,新宿区,下落合１丁目１５番２１－６０３号,,13,104,1610033,,,,,,,2024-02-27,1,,,,,ミライ,0
58,1011103014125,新規,0,2024-02-27,2024-02-27,合同会社ＴＯＴＯＮＯＵ,,合同会社,東京都,新宿区,歌舞伎町２丁目２番２１号,,13,104,1600021,,,,,,,2024-02-27,1,,,,,トトノウ,0
62,1011301029437,新規,0,2024-02-27,2024-02-27,株式会社愛音住建,,株式会社,東京都,杉並区,上井草２丁目４５番１号桑原ビル３０１,,13,115,1670023,,,,,,,2024-02-27,1,,,,,アイトジュウケン,0
64,1011401025889,新規,0,2024-02-27,2024-02-27,株式会社ｅｎｔｅｒ‐ｍａｋｉｎｇ,,株式会社,東京都,板橋区,大原町１３－１２－２０２,,13,119,1740061,,,,,,,2024-02-27,1,,,,,エンターメイキング,0
65,1011603004253,新規,0,2024-02-27,2024-02-27,Ｂｅｔｔｅｒ合同会社,,合同会社,東京都,練馬区,中村南１丁目９番８－１０６号,,13,120,1760025,,,,,,,2024-02-27,1,,,,,ベター,0
76,1012801022988,新規,0,2024-02-27,2024-02-27,株式会社シエラ,,株式会社,東京都,東大和市,桜が丘２丁目１４３－１１タカギ青梅橋マンション７０８,,13,220,2070022,,,,,,,2024-02-27,1,,,,,シエラ,0
79,1013303007016,新規,0,2024-02-27,2024-02-27,合同会社ユニバーサル,,合同会社,東京都,豊島区,池袋３丁目４２番１４号,,13,116,1710014,,,,,,,2024-02-27,1,,,,,ユニバーサル,0
87,1020001155963,新規,0,2024-02-27,2024-02-27,株式会社ｃｈａｙａ,,株式会社,神奈川県,川崎市高津区,下作延４丁目２７番４４号３１１,,14,134,2130033,,,,,,,2024-02-27,1,,,,,チャヤ,0
91,1020003025553,新規,0,2024-02-27,2024-02-27,合同会社ＡＭＢＥＲ,,合同会社,神奈川県,横浜市緑区,十日市場町１２５８番地ヒルタウン４街区１－８１０号室,,14,113,2260025,,,,,,,2024-02-27,1,,,,,アンバー,0
94,1021001081547,新規,0,2024-02-27,2024-02-27,株式会社チームアドバンス,,株式会社,神奈川県,平塚市,見附町２３番１３－５０５号,,14,203,2540045,,,,,,,2024-02-27,1,,,,,チームアドバンス,0
95,1021001081555,新規,0,2024-02-27,2024-02-27,エクスパンディング株式会社,,株式会社,神奈川県,鎌倉市,御成町１３番１２号１３１２ビル２階,,14,204,2480012,,,,,,,2024-02-27,1,,,,,エクスパンディング,0
96,1021003014182,新規,0,2024-02-27,2024-02-27,しゅたい合同会社,,合同会社,神奈川県,逗子市,沼間１丁目１２番８号,,14,208,2490004,,,,,,,2024-02-27,1,,,,,シュタイ,0
106,1030001158882,新規,0,2024-02-27,2024-02-27,Ｊ＆ＣＯ株式会社,,株式会社,埼玉県,川口市,西川口１丁目３０番２０－３０９号,,11,203,3320021,,,,,,,2024-02-27,1,,,,,ジェイアンドコー,0
107,1030001158899,新規,0,2024-02-27,2024-02-27,株式会社ＴＲＯＩＳ,,株式会社,埼玉県,東松山市,大字高坂９７０－５ＬｉｔｔｌｅＦａｒｍ１Ｆ,,11,212,3550047,,,,,,,2024-02-27,1,,,,,トロワ,0
111,1030003023696,新規,0,2024-02-27,2024-02-27,ＴＥＩ合同会社,,合同会社,埼玉県,川口市,差間２丁目１８番９号,,11,203,3330816,,,,,,,2024-02-27,1,,,,,テイ,0
112,1030003023713,新規,0,2024-02-27,2024-02-27,合同会社まっする,,合同会社,埼玉県,草加市,氷川町１３２０番地ニューグリーンハイムＡ－１０５号,,11,221,3400034,,,,,,,2024-02-27,1,,,,,マッスル,0
118,1040003024388,新規,0,2024-02-27,2024-02-27,合同会社アロマ,,合同会社,千葉県,松戸市,東松戸１丁目９番地の１３,,12,207,2702225,,,,,,,2024-02-27,1,,,,,アロマ,0
122,1050001054337,新規,0,2024-02-27,2024-02-27,株式会社ライフル・アース,,株式会社,茨城県,土浦市,右籾１３２５番地３,,08,203,3000837,,,,,,,2024-02-27,1,,,,,ライフルアース,0
123,1050003008159,新規,0,2024-02-27,2024-02-27,Ｌｕｘ　ｉｎｎｏｖａｔｉｏｎ合同会社,,合同会社,茨城県,取手市,光風台１丁目９－９,,08,217,3001536,,,,,,,2024-02-27,1,,,,,ルクスイノベーション,0
134,1080101024550,新規,0,2024-02-27,2024-02-27,株式会社だん,,株式会社,静岡県,三島市,大社町１５番１７号,,22,206,4110853,,,,,,,2024-02-27,1,,,,,ダン,0
145,1110001038201,新規,0,2024-02-27,2024-02-27,株式会社輪,,株式会社,新潟県,上越市,石橋１丁目５番１１号タウンコート駅南４０７号室,,15,222,9420074,,,,,,,2024-02-27,1,,,,,リン,0
157,1120001262650,新規,0,2024-02-27,2024-02-27,先導智能設備日本株式会社,,株式会社,大阪府,大阪市淀川区,宮原４丁目２番１０号ＰＭＯＥＸ新大阪,,27,123,5320003,,,,,,,2024-02-27,1,,,,,センドウチノウセツビニホン,0
158,1120001262667,新規,0,2024-02-27,2024-02-27,株式会社ＭＡＮＧＥＴＳＵ,,株式会社,大阪府,大阪市住之江区,御崎３丁目５番２３号,,27,125,5590013,,,,,,,2024-02-27,1,,,,,マンゲツ,0
159,1120001262709,新規,0,2024-02-27,2024-02-27,株式会社コマミズロジ,,株式会社,大阪府,大阪市鶴見区,鶴見１丁目６番５９－１３２８号,,27,124,5380053,,,,,,,2024-02-27,1,,,,,コマミズロジ,0
164,1120003026005,新規,0,2024-02-27,2024-02-27,合同会社ＳＯＵＹＡ,,合同会社,大阪府,大阪市中央区,東心斎橋１丁目１５番３２－５０５号,,27,128,5420083,,,,,,,2024-02-27,1,,,,,ソウヤ,0
167,1120101069120,新規,0,2024-02-27,2024-02-27,株式会社ケイティベンディング,,株式会社,大阪府,松原市,三宅中４丁目２０番１９号,,27,217,5800046,,,,,,,2024-02-27,1,,,,,ケイティベンディング,0
173,1120103005692,新規,0,2024-02-27,2024-02-27,合同会社稻本商會,,合同会社,大阪府,富田林市,本町１－５,,27,214,5840093,,,,,,,2024-02-27,1,,,,,イナモトショウカイ,0
178,1120901048793,新規,0,2024-02-27,2024-02-27,ツリー株式会社,,株式会社,大阪府,吹田市,垂水町３丁目２５番３号,,27,205,5640062,,,,,,,2024-02-27,1,,,,,ツリー,0
179,1120901048810,新規,0,2024-02-27,2024-02-27,株式会社ハウスネットワーク,,株式会社,大阪府,吹田市,片山町１丁目４番３号,,27,205,5640082,,,,,,,2024-02-27,1,,,,,ハウスネットワーク,0
186,1130001076447,新規,0,2024-02-27,2024-02-27,株式会社京都ＥＹＥ,,株式会社,京都府,京都市南区,東九条東山王町１５－３プラムヴィレッジ京都駅前２０３,,26,107,6018004,,,,,,,2024-02-27,1,,,,,キョウトアイ,0
188,1130003009322,新規,0,2024-02-27,2024-02-27,ＩＢＡＴＥＣ合同会社,,合同会社,京都府,京都市西京区,大枝南福西町１丁目４番地の１６９,,26,111,6101113,,,,,,,2024-02-27,1,,,,,イバテック,0
190,1130005017018,新規,0,2024-02-27,2024-02-27,一般社団法人みらい相続センターきょうと,,その他の設立登記法人,京都府,長岡京市,馬場２丁目６番９号２階,,26,209,6170828,,,,,,,2024-02-27,1,,,,,ミライソウゾクセンターキョウト,0
195,1140001133453,新規,0,2024-02-27,2024-02-27,株式会社Ｅａｃｈ　Ｐｌａｎ,,株式会社,兵庫県,明石市,大久保町西島１０５５番地の１０,,28,203,6740065,,,,,,,2024-02-27,1,,,,,イーチプラン,0
198,1140003020204,新規,0,2024-02-27,2024-02-27,Ｎ’ｓデントワークス合同会社,,合同会社,兵庫県,伊丹市,瑞原３丁目２４番地パークアヴェニュー１０１号,,28,207,6640005,,,,,,,2024-02-27,1,,,,,エヌズデントワークス,0
200,1150001027101,新規,0,2024-02-27,2024-02-27,株式会社トラフト,,株式会社,奈良県,生駒郡斑鳩町,興留２丁目２番５号,,29,344,6360123,,,,,,,2024-02-27,1,,,,,トラフト,0
212,1180301038357,新規,0,2024-02-27,2024-02-27,セカンドキッチン株式会社,,株式会社,愛知県,碧南市,川口町１丁目１６８－１,,23,209,4470823,,,,,,,2024-02-27,1,,,,,セカンドキッチン,0
218,1200001042193,新規,0,2024-02-27,2024-02-27,ＣＰライン株式会社,,株式会社,岐阜県,岐阜市,東中島３丁目１番３０号,,21,201,5008235,,,,,,,2024-02-27,1,,,,,シーピーライン,0
219,1200001042202,新規,0,2024-02-27,2024-02-27,ｌａ　ｃｈｏｕｃｈｏｕ株式会社,,株式会社,岐阜県,岐阜市,早田栄町４丁目２０番地コーポブライト１Ｆ,,21,201,5020847,,,,,,,2024-02-27,1,,,,,ラシュシュ,0
221,1200003006246,新規,0,2024-02-27,2024-02-27,峰美合同会社,,合同会社,岐阜県,瑞穂市,森３２２番地１,,21,216,5010303,,,,,,,2024-02-27,1,,,,,ミネミ,0
223,1210001019645,新規,0,2024-02-27,2024-02-27,株式会社ベツイン,,株式会社,福井県,越前市,別印町３号５９番地の１,,18,209,9150225,,,,,,,2024-02-27,1,,,,,ベツイン,0
230,1240001062840,新規,0,2024-02-27,2024-02-27,株式会社ａｎｉｃｌｏ,,株式会社,広島県,広島市安佐南区,長束１丁目６番３３－２号,,34,105,7310135,,,,,,,2024-02-27,1,,,,,アニクロ,0
232,1250003003445,新規,0,2024-02-27,2024-02-27,合同会社拵える,,合同会社,山口県,宇部市,寿町２丁目６－１３,,35,202,7550032,,,,,,,2024-02-27,1,,,,,コシラエル,0
239,1290001104761,新規,0,2024-02-27,2024-02-27,株式会社Ｊ＆Ｍ,,株式会社,福岡県,福岡市博多区,千代４丁目４－１６四季のいろＢＬＤ,,40,132,8120044,,,,,,,2024-02-27,1,,,,,ジェイアンドエム,0
240,1290001104836,新規,0,2024-02-27,2024-02-27,株式会社トリプルウィン・アソシエイツ,,株式会社,福岡県,福岡市東区,香椎浜３丁目２番３－９０６号,,40,131,8130016,,,,,,,2024-02-27,1,,,,,トリプルウィンアソシエイツ,0
241,1290001104844,新規,0,2024-02-27,2024-02-27,株式会社ＮＩＮＥ８’ｓ,,株式会社,福岡県,福岡市中央区,大名１丁目１番２３－２０１号,,40,133,8100041,,,,,,,2024-02-27,1,,,,,ナインエイティーズ,0
245,1290801030348,新規,0,2024-02-27,2024-02-27,しんわ環境株式会社,,株式会社,福岡県,田川市,大字川宮１４４３番地１６,,40,206,8260042,,,,,,,2024-02-27,1,,,,,シンワカンキョウ,0
266,1380001034322,新規,0,2024-02-27,2024-02-27,株式会社橋谷田商店,,株式会社,福島県,喜多方市,字諏訪１６０番地９,,07,208,9660896,,,,,,,2024-02-27,1,,,,,ハシヤダショウテン,0
273,1460401001260,新規,0,2024-02-27,2024-02-27,株式会社マルタツ奥村水産,,株式会社,北海道,根室市,穂香１３番地１,,01,223,0870037,,,,,,,2024-02-27,1,,,,,マルタツオクムラスイサン,0
274,1480001012400,新規,0,2024-02-27,2024-02-27,株式会社大内工業,,株式会社,徳島県,徳島市,丈六町休場３番地の２２,,36,201,7714261,,,,,,,2024-02-27,1,,,,,オオウチコウギョウ,0
277,1500001025473,新規,0,2024-02-27,2024-02-27,株式会社Ｂａｒｉ　Ｓｔｙｌｅ,,株式会社,愛媛県,今治市,喜田村７丁目６番３８号,,38,202,7991502,,,,,,,2024-02-27,1,,,,,バリスタイル,0
285,2010001242506,新規,0,2024-02-27,2024-02-27,株式会社後藤建設,,株式会社,東京都,中央区,銀座１丁目２２番１１号銀座大竹ビジデンス２Ｆ,,13,102,1040061,,,,,,,2024-02-27,1,,,,,ゴトウケンセツ,0
286,2010001242605,新規,0,2024-02-27,2024-02-27,株式会社インテリム・エスト,,株式会社,東京都,中央区,月島１丁目２２番１－１９１０号,,13,102,1040052,,,,,,,2024-02-27,1,,,,,インテリムエスト,0
287,2010001242613,新規,0,2024-02-27,2024-02-27,株式会社ＲＩＰＥＮ,,株式会社,東京都,中央区,湊２丁目１１番１－９０３号,,13,102,1040043,,,,,,,2024-02-27,1,,,,,ライペン,0
291,2010003043051,新規,0,2024-02-27,2024-02-27,Ｐｉｎｙｔｅｅ合同会社,,合同会社,東京都,中央区,新川２丁目２１番７号ＷＡＹＰＯＩＮＴ１０２号,,13,102,1040033,,,,,,,2024-02-27,1,,,,,ピニーティ,0
294,2010005037919,新規,0,2024-02-27,2024-02-27,一般社団法人東京スカイ,,その他の設立登記法人,東京都,千代田区,霞が関３丁目２番５号,,13,101,1000013,,,,,,,2024-02-27,1,,,,,トウキョウスカイ,0
295,2010005037935,新規,0,2024-02-27,2024-02-27,東京ロジスティクス開発一般社団法人,,その他の設立登記法人,東京都,千代田区,神田神保町１丁目１１番地さくら綜合事務所内,,13,101,1010051,,,,,,,2024-02-27,1,,,,,トウキョウロジスティクスカイハツ,0
296,2010005037943,新規,0,2024-02-27,2024-02-27,一般社団法人和のこころ塾,,その他の設立登記法人,東京都,中央区,月島４丁目８－１０－１０１,,13,102,1040052,,,,,,,2024-02-27,1,,,,,ワノココロヂク,0
297,2010101016017,新規,0,2024-02-27,2024-02-27,ＫＡＮ株式会社,,株式会社,東京都,八王子市,横川町４９６番地１レオネクストサティＩＩ１０１号,00133860,13,201,1930823,,,,,,,2024-02-27,1,,,,,カン,0
312,2010403031993,新規,0,2024-02-27,2024-02-27,ＧｅｅｋＯｕｔ　Ｄｅｖｅｌｏｐｍｅｎｔ４号合同会社,,合同会社,東京都,港区,麻布十番２丁目２０番７号,,13,103,1060045,,,,,,,2024-02-27,1,,,,,ギークアウトディベロップメントヨンゴウ,0
313,2010403032042,新規,0,2024-02-27,2024-02-27,チュラツー合同会社,,合同会社,東京都,港区,赤坂１丁目１２番３２号アーク森ビル２２階,,13,103,1070052,,,,,,,2024-02-27,1,,,,,チュラツー,0
314,2010403032059,新規,0,2024-02-27,2024-02-27,合同会社Ｔｈｕｎｄｅｒｂｉｒｄ,,合同会社,東京都,港区,虎ノ門２丁目１０番４号オークラプレステージタワー,,13,103,1050001,,,,,,,2024-02-27,1,,,,,サンダーバード,0
318,2010701045613,新規,0,2024-02-27,2024-02-27,株式会社７８９,,株式会社,東京都,品川区,西五反田１丁目２６番２号五反田サンハイツ９１１,,13,109,1410031,,,,,,,2024-02-27,1,,,,,ナナハチキュウ,0
320,2010703007066,新規,0,2024-02-27,2024-02-27,ｏｒｃｈｉｄ　Ｔｏｋｙｏ合同会社,,合同会社,東京都,品川区,上大崎２丁目１６番２号茂木ビル３階,,13,109,1410021,,,,,,,2024-02-27,1,,,,,オーキッドトーキョー,0
323,2010901054769,新規,0,2024-02-27,2024-02-27,株式会社ＦｌａｇＫ,,株式会社,東京都,世田谷区,北烏山９丁目２４番１７－２０８号,,13,112,1570061,,,,,,,2024-02-27,1,,,,,フラッグケイ,0
325,2010903008855,新規,0,2024-02-27,2024-02-27,エスターテ合資会社,,合資会社,東京都,世田谷区,上馬４丁目１５番１６号,,13,112,1540011,,,,,,,2024-02-27,1,,,,,エスターテ,0
331,2011001160144,新規,0,2024-02-27,2024-02-27,株式会社ＡＩ　ｏｎ　Ｗｅｂ３,,株式会社,東京都,渋谷区,道玄坂１丁目１０番８号渋谷道玄坂東急ビル２Ｆ－Ｃ,,13,113,1500043,,,,,,,2024-02-27,1,,,,,エーアイオンウェブスリー,0
332,2011001160210,新規,0,2024-02-27,2024-02-27,株式会社坂井マネジメント,,株式会社,東京都,渋谷区,道玄坂１丁目１０番８号道玄坂東急ビル２Ｆ－Ｃ,,13,113,1500043,,,,,,,2024-02-27,1,,,,,サカイマネジメント,0
333,2011001160227,新規,0,2024-02-27,2024-02-27,株式会社ｄｐｂｑ　ｄｅｓｉｇｎ,,株式会社,東京都,渋谷区,上原１丁目３２番３号ＣＡＢＯｕｅｈａｒａ２０４,,13,113,1510064,,,,,,,2024-02-27,1,,,,,ディーピービーキューデザイン,0
334,2011003018547,新規,0,2024-02-27,2024-02-27,合同会社真善美,,合同会社,東京都,渋谷区,恵比寿西２丁目８番４号ＥＸ恵比寿西ビル５階,,13,113,1500021,,,,,,,2024-02-27,1,,,,,シンゼンビ,0
335,2011003018555,新規,0,2024-02-27,2024-02-27,合同会社コダマ,,合同会社,東京都,目黒区,碑文谷３丁目２番２号,,13,110,1520003,,,,,,,2024-02-27,1,,,,,コダマ,0
336,2011003018563,新規,0,2024-02-27,2024-02-27,ネロ合同会社,,合同会社,東京都,渋谷区,広尾１丁目１３－１７エテルナ広尾４０３,,13,113,1500012,,,,,,,2024-02-27,1,,,,,ネロ,0
344,2011101106294,新規,0,2024-02-27,2024-02-27,株式会社美鍼,,株式会社,東京都,新宿区,西新宿１丁目２１番１号明宝ビルディング４階,,13,104,1600023,,,,,,,2024-02-27,1,,,,,ビシン,0
346,2011103014124,新規,0,2024-02-27,2024-02-27,ＶＪ‐ＧＲＯＵＰ国際貿易合同会社,,合同会社,東京都,新宿区,百人町１丁目１１番１０号スカイプラザ新大久保１０１,,13,104,1690073,,,,,,,2024-02-27,1,,,,,ブイジェイグループコクサイボウエキ,0
347,2011103014140,新規,0,2024-02-27,2024-02-27,合同会社ＲｉｒｉＭ,,合同会社,東京都,新宿区,西新宿７丁目１７－１４新宿エイコービル４０３,,13,104,1600023,,,,,,,2024-02-27,1,,,,,リリム,0
355,2011501030359,新規,0,2024-02-27,2024-02-27,心動力株式会社,,株式会社,東京都,北区,浮間１丁目１番１４号１３７号室,,13,117,1150051,,,,,,,2024-02-27,1,,,,,シンドウリョク,0
363,2011803006107,新規,0,2024-02-27,2024-02-27,合同会社山口オート,,合同会社,東京都,足立区,江北６丁目５番６号,,13,121,1230872,,,,,,,2024-02-27,1,,,,,ヤマグチオート,0
373,2020001155913,新規,0,2024-02-27,2024-02-27,株式会社ワイティケークロールアップ,,株式会社,神奈川県,横浜市栄区,公田町７４０番地４棟３０５号,,14,115,2470014,,,,,,,2024-02-27,1,,,,,,0
374,2020001155954,新規,0,2024-02-27,2024-02-27,株式会社ＢＲＥＤＤＡ,,株式会社,神奈川県,横浜市泉区,弥生台１４番地２ライオンズ横濱弥生台レジデンス３０２,,14,116,2450008,,,,,,,2024-02-27,1,,,,,ブレダ,0
375,2020003025619,新規,0,2024-02-27,2024-02-27,ＭＥＴＡＢＬＯＯＭ合同会社,,合同会社,神奈川県,横浜市保土ケ谷区,川島町１０３１番地７,,14,106,2400045,,,,,,,2024-02-27,1,,,,,メタブルーム,0
376,2021001081546,新規,0,2024-02-27,2024-02-27,株式会社ＳｈｏｒｔＳｔｏｐ,,株式会社,神奈川県,茅ヶ崎市,菱沼３丁目１－３３－１Ａ,,14,207,2530011,,,,,,,2024-02-27,1,,,,,ショートストップ,0
377,2021003014181,新規,0,2024-02-27,2024-02-27,合同会社Ｌｅｇａｔｏ,,合同会社,神奈川県,横須賀市,佐原５丁目１５番２号,,14,201,2390835,,,,,,,2024-02-27,1,,,,,レガート,0
386,2030005021565,新規,0,2024-02-27,2024-02-27,一般社団法人日本管楽器早期教育研究所,,その他の設立登記法人,埼玉県,さいたま市南区,南浦和２丁目３３番１１－５０２号,,11,108,3360017,,,,,,,2024-02-27,1,,,,,ニホンカンガッキソウキキョウイクケンキュウジョ,0
388,2040001132340,新規,0,2024-02-27,2024-02-27,株式会社Ｏ＆Ｇホールディングス,,株式会社,千葉県,千葉市中央区,登戸１丁目１６番８号康英ビル２階,,12,101,2600032,,,,,,,2024-02-27,1,,,,,オーアンドジーホールディングス,0
389,2040001132349,新規,0,2024-02-27,2024-02-27,株式会社Ｎ２,,株式会社,千葉県,柏市,常盤台９番３号,,12,217,2770087,,,,,,,2024-02-27,1,,,,,エヌツー,0
390,2040001132357,新規,0,2024-02-27,2024-02-27,倉持設備工業株式会社,,株式会社,千葉県,野田市,親野井１２９番地２,,12,208,2700227,,,,,,,2024-02-27,1,,,,,クラモチセツビコウギョウ,0
394,2040003024404,新規,0,2024-02-27,2024-02-27,合同会社匠,,合同会社,千葉県,香取市,岩ケ崎台１１番地５,,12,236,2870004,,,,,,,2024-02-27,1,,,,,タクミ,0
395,2050001054360,新規,0,2024-02-27,2024-02-27,クオリティ・リーダーズ株式会社,,株式会社,茨城県,龍ケ崎市,上町４２６４番地１－３階,,08,208,3010012,,,,,,,2024-02-27,1,,,,,クオリティリーダーズ,0
399,2060003004932,新規,0,2024-02-27,2024-02-27,合同会社アルファー事業開発社,,合同会社,栃木県,宇都宮市,東峰町３０２９番地１３０,,09,201,3210944,,,,,,,2024-02-27,1,,,,,アルファージギョウカイハツシャ,0
400,2070001041431,新規,0,2024-02-27,2024-02-27,株式会社片山空調,,株式会社,群馬県,高崎市,箕郷町和田山１５番地８,,10,202,3703116,,,,,,,2024-02-27,1,,,,,カタヤマクウチョウ,0
404,2070003005285,新規,0,2024-02-27,2024-02-27,エス・ケー合同会社,,合同会社,群馬県,邑楽郡大泉町,東小泉１丁目３２番９号,,10,524,3700513,,,,,,,2024-02-27,1,,,,,エスケー,0
408,2100003007410,新規,0,2024-02-27,2024-02-27,ＰＥＵＦ合同会社,,合同会社,長野県,北安曇郡小谷村,大字千国乙６０６番地１,,20,486,3999422,,,,,,,2024-02-27,1,,,,,パフ,0
409,2110003005306,新規,0,2024-02-27,2024-02-27,ＬＩＶ合同会社,,合同会社,新潟県,新潟市中央区,古町通４番町６３２柳都ビル２Ｆ３号,,15,103,9518063,,,,,,,2024-02-27,1,,,,,リヴ,0
422,2120001262600,新規,0,2024-02-27,2024-02-27,株式会社Ｓ　ｐｌａｎｎｉｎｇ,,株式会社,大阪府,寝屋川市,池田２丁目１１番５５号,,27,215,5720039,,,,,,,2024-02-27,1,,,,,エスプランニング,0
423,2120001262633,新規,0,2024-02-27,2024-02-27,株式会社Ｇｅｍｔ　ｗａｐ,,株式会社,大阪府,枚方市,野村北町１番１２号,,27,210,5730143,,,,,,,2024-02-27,1,,,,,ジェントワップ,0
424,2120003026012,新規,0,2024-02-27,2024-02-27,合同会社かなめ看護サポート,,合同会社,大阪府,大阪市中央区,博労町２丁目６番７号,,27,128,5410059,,,,,,,2024-02-27,1,,,,,カナメカンゴサポート,0
425,2120003026020,新規,0,2024-02-27,2024-02-27,欧楽多合同会社,,合同会社,大阪府,大阪市東淀川区,下新庄２丁目８番１６－３０２号,,27,114,5330021,,,,,,,2024-02-27,1,,,,,オウラクタ,0
426,2120003026037,新規,0,2024-02-27,2024-02-27,合同会社カネダＦ＆Ｔ,,合同会社,大阪府,大阪市中央区,南船場４丁目１０番５号南船場ＳＯＨＯビル７０２,,27,128,5420081,,,,,,,2024-02-27,1,,,,,カネダエフアンドティー,0
429,2120101069103,新規,0,2024-02-27,2024-02-27,株式会社Ｌｉｆｅ　Ｓｔａｇｅ,,株式会社,大阪府,堺市堺区,東雲西町１丁２番７号,,27,141,5900013,,,,,,,2024-02-27,1,,,,,ライフステージ,0
445,2140003020178,新規,0,2024-02-27,2024-02-27,合同会社Ｃｉｔｒｕｓ　ｊｕｎｏｓ,,合同会社,兵庫県,神戸市中央区,磯辺通１丁目１番１８号カサベラ国際プラザビル７０７号室,,28,110,6510084,,,,,,,2024-02-27,1,,,,,シトラスジュノス,0
448,2160005011272,新規,0,2024-02-27,2024-02-27,一般社団法人りんぐるこなん,,その他の設立登記法人,滋賀県,湖南市,石部東７丁目３番１８号,,25,211,5203107,,,,,,,2024-02-27,1,,,,,リングルコナン,0
454,2180001160278,新規,0,2024-02-27,2024-02-27,株式会社マルタカ興業,,株式会社,愛知県,稲沢市,祖父江町甲新田五ツ屋１７６番地２,,23,220,4950022,,,,,,,2024-02-27,1,,,,,マルタカコウギョウ,0
460,2180301038356,新規,0,2024-02-27,2024-02-27,株式会社Ｋ‐Ｓｔｙｌｅ,,株式会社,愛知県,岡崎市,下三ツ木町字法田４０番地５,,23,202,4440247,,,,,,,2024-02-27,1,,,,,ケースタイル,0
462,2190001031131,新規,0,2024-02-27,2024-02-27,株式会社紀北クリーンサービス,,株式会社,三重県,北牟婁郡紀北町,相賀２５３番地９,,24,543,5193406,,,,,,,2024-02-27,1,,,,,キホククリーンサービス,0
467,2200001042201,新規,0,2024-02-27,2024-02-27,株式会社カワカミホールディングス,,株式会社,岐阜県,関市,関口町２丁目１番７号,,21,205,5013826,,,,,,,2024-02-27,1,,,,,カワカミホールディングス,0
475,2240003006539,新規,0,2024-02-27,2024-02-27,備後コウケン合同会社,,合同会社,広島県,尾道市,西藤町３１４９,,34,205,7290142,,,,,,,2024-02-27,1,,,,,ビンゴコウケン,0
483,2290001104843,新規,0,2024-02-27,2024-02-27,株式会社イミモノガタリ,,株式会社,福岡県,那珂川市,中原２丁目１２０博多南駅前ビル３Ｆ（博多南しごと荘内）,,40,231,8111213,,,,,,,2024-02-27,1,,,,,イミモノガタリ,0
484,2290001104876,新規,0,2024-02-27,2024-02-27,株式会社アムール,,株式会社,福岡県,糟屋郡新宮町,下府１丁目５番１号,,40,345,8110112,,,,,,,2024-02-27,1,,,,,アムール,0
497,2330003010234,新規,0,2024-02-27,2024-02-27,岩村産業合同会社,,合同会社,熊本県,熊本市南区,砂原町２４９番地４,,43,104,8615255,,,,,,,2024-02-27,1,,,,,イワムラサンギョウ,0
500,2360001033234,新規,0,2024-02-27,2024-02-27,株式会社Ｐｌａｎｅｔ・Ｒ,,株式会社,沖縄県,うるま市,石川白浜２丁目９番１２号,,47,213,9041105,,,,,,,2024-02-27,1,,,,,プラネットアール,0
504,2360003013746,新規,0,2024-02-27,2024-02-27,合同会社グリーングロウ企画,,合同会社,沖縄県,島尻郡南風原町,字津嘉山１１７８番地,,47,350,9011117,,,,,,,2024-02-27,1,,,,,,0
506,2370001050971,新規,0,2024-02-27,2024-02-27,わかやなぎＢＵＬＬＳＣＯＭＰＡＮＹ株式会社,,株式会社,宮城県,栗原市,若柳字川北塚ノ根２２番地２,,04,213,9895501,,,,,,,2024-02-27,1,,,,,ワカヤナギブルズカンパニー,0
510,2400003003222,新規,0,2024-02-27,2024-02-27,合同会社コムテック,,合同会社,岩手県,奥州市,江刺広瀬字宝良１５０,,03,215,0231133,,,,,,,2024-02-27,1,,,,,コムテック,0
516,2430001091142,新規,0,2024-02-27,2024-02-27,ＨＪＬ株式会社,,株式会社,北海道,石狩市,花川南九条１丁目３９番地１,,01,235,0613209,,,,,,,2024-02-27,1,,,,,エイチジェイエル,0
517,2430001091150,新規,0,2024-02-27,2024-02-27,株式会社Ｐｌａｎ　Ｔ,,株式会社,北海道,札幌市中央区,南五条西２７丁目１番２０－３０６号,,01,101,0640805,,,,,,,2024-02-27,1,,,,,プランティー,0
518,2430001091159,新規,0,2024-02-27,2024-02-27,株式会社エナジオ,,株式会社,北海道,札幌市白石区,北郷２３８６番地１４,,01,104,0030849,,,,,,,2024-02-27,1,,,,,エナジオ,0
524,2500001025480,新規,0,2024-02-27,2024-02-27,株式会社ｓｈｅｅｘｘ,,株式会社,愛媛県,松山市,枝松３丁目７番１１号ＢＥＥＫ’Ｓ枝松１０１号,,38,201,7900962,,,,,,,2024-02-27,1,,,,,シークス,0
536,3010001242538,新規,0,2024-02-27,2024-02-27,ＡＣＧ株式会社,,株式会社,東京都,千代田区,紀尾井町３番１２号紀尾井町ビル,,13,101,1020094,,,,,,,2024-02-27,1,,,,,エーシージー,0
537,3010001242612,新規,0,2024-02-27,2024-02-27,Ｌｉｂｅｒａｌ　Ｖｉｓｉｏｎ株式会社,,株式会社,東京都,千代田区,神田佐久間町１丁目１６－１大橋ビル５０３,,13,101,1010025,,,,,,,2024-02-27,1,,,,,リベラルビジョン,0
538,3010001242629,新規,0,2024-02-27,2024-02-27,ユニバーサルコンサルティング株式会社,,株式会社,東京都,中央区,日本橋兜町１７番１号日本橋ロイヤルプラザ７０６,,13,102,1030026,,,,,,,2024-02-27,1,,,,,ユニバーサルコンサルティング,0
539,3010001242637,新規,0,2024-02-27,2024-02-27,株式会社エヌ・アイ・ティ,,株式会社,東京都,中央区,銀座１丁目１２－４Ｎ＆ＥＢＬＤ．７階,,13,102,1040061,,,,,,,2024-02-27,1,,,,,エヌアイティ,0
551,3010403031992,新規,0,2024-02-27,2024-02-27,ＧｅｅｋＯｕｔ　Ｄｅｖｅｌｏｐｍｅｎｔ３号合同会社,,合同会社,東京都,港区,麻布十番２丁目２０番７号,,13,103,1060045,,,,,,,2024-02-27,1,,,,,ギークアウトディベロップメントサンゴウ,0
554,3010603010656,新規,0,2024-02-27,2024-02-27,ＭＫＹ合同会社,,合同会社,東京都,江東区,有明１丁目６番３０,,13,108,1350063,,,,,,,2024-02-27,1,,,,,エムケーワイ,0
555,3010701045595,新規,0,2024-02-27,2024-02-27,株式会社サイバーリード,,株式会社,東京都,品川区,西五反田８丁目２番１２号アール五反田８階,,13,109,1410031,,,,,,,2024-02-27,1,,,,,サイバーリード,0
556,3010701045604,新規,0,2024-02-27,2024-02-27,株式会社ふせったー,,株式会社,東京都,品川区,荏原４丁目１６番８号,,13,109,1420063,,,,,,,2024-02-27,1,,,,,フセッター,0
557,3010701045612,新規,0,2024-02-27,2024-02-27,株式会社ＭＩＲＵ　Ｃｏｒｐｏｒａｔｉｏｎ,,株式会社,東京都,品川区,上大崎３丁目１０番４１－３０１号,,13,109,1410021,,,,,,,2024-02-27,1,,,,,ミルコーポレーション,0
569,3011001160226,新規,0,2024-02-27,2024-02-27,株式会社さの,,株式会社,東京都,渋谷区,東３丁目２４番１１号ユニコーンバリー恵比寿１００２,,13,113,1500011,,,,,,,2024-02-27,1,,,,,サノ,0
570,3011001160242,新規,0,2024-02-27,2024-02-27,株式会社ＬＡＲＶＩＫＩＴＥ,,株式会社,東京都,渋谷区,渋谷２丁目１９－１５宮益坂ビルディング６０９,,13,113,1500002,,,,,,,2024-02-27,1,,,,,ラルビカイト,0
574,3011003018496,新規,0,2024-02-27,2024-02-27,合同会社ｓｈｉｍｉｚｕ,,合同会社,東京都,目黒区,目黒本町３丁目６番３号ソレアード目黒２０３,,13,110,1520002,,,,,,,2024-02-27,1,,,,,シミズ,0
575,3011003018562,新規,0,2024-02-27,2024-02-27,合同会社未踏,,合同会社,東京都,目黒区,目黒１丁目１７－２１ロータスニュー目黒２０６,,13,110,1530063,,,,,,,2024-02-27,1,,,,,ミトウ,0
576,3011003018570,新規,0,2024-02-27,2024-02-27,オリエントリサーチ合同会社,,合同会社,東京都,渋谷区,神泉町１０番１５号アネックス神泉３０１,,13,113,1500045,,,,,,,2024-02-27,1,,,,,オリエントリサーチ,0
578,3011101106293,新規,0,2024-02-27,2024-02-27,株式会社インザガーデン,,株式会社,東京都,新宿区,新宿１丁目３６番１２号サンカテリーナビル６Ｆ,,13,104,1600022,,,,,,,2024-02-27,1,,,,,インザガーデン,0
579,3011101106310,新規,0,2024-02-27,2024-02-27,株式会社Ｍａｒｌ,,株式会社,東京都,新宿区,北新宿３丁目３９－１１－５０４,,13,104,1690074,,,,,,,2024-02-27,1,,,,,マール,0
580,3011101106319,新規,0,2024-02-27,2024-02-27,ＨＴＵＮ＆ＴＵＮ株式会社,,株式会社,東京都,新宿区,下落合２丁目６－３ＵＹＯ高田馬場ザレジデンス１０３号,,13,104,1610033,,,,,,,2024-02-27,1,,,,,トゥンアンドトゥン,0
581,3011101106327,新規,0,2024-02-27,2024-02-27,ＬＩＵ株式会社,,株式会社,東京都,新宿区,高田馬場３丁目２７－８,,13,104,1690075,,,,,,,2024-02-27,1,,,,,リュウ,0
587,3011401025887,新規,0,2024-02-27,2024-02-27,Ｓ＆Ｌ株式会社,,株式会社,東京都,板橋区,高島平３丁目４番６－３０４号,,13,119,1750082,,,,,,,2024-02-27,1,,,,,エスアンドエル,0
588,3011403004286,新規,0,2024-02-27,2024-02-27,合同会社Ｖａｓｅ,,合同会社,東京都,板橋区,東新町２丁目４９番６－４０４号レーベンハイム常盤台七番館,,13,119,1740074,,,,,,,2024-02-27,1,,,,,ヴェイス,0
598,3013101009360,新規,0,2024-02-27,2024-02-27,株式会社オーバーフロー,,株式会社,東京都,青梅市,今寺２丁目４８３番地の１０,,13,205,1980021,,,,,,,2024-02-27,1,,,,,,0
601,3020001155978,新規,0,2024-02-27,2024-02-27,株式会社ＦＥＣ,,株式会社,神奈川県,横浜市中区,吉浜町１番地２パークスクエア横浜１０１２号室,,14,104,2310024,,,,,,,2024-02-27,1,,,,,エフイーシー,0
603,3020003025584,新規,0,2024-02-27,2024-02-27,ＣＹイノベーション合同会社,,合同会社,神奈川県,川崎市川崎区,大師駅前２丁目１番７ー５０２号,,14,131,2100802,,,,,,,2024-02-27,1,,,,,シーワイイノベーション,0
604,3020003025601,新規,0,2024-02-27,2024-02-27,信城合同会社,,合同会社,神奈川県,横浜市旭区,本村町１０番地４４,,14,112,2410024,,,,,,,2024-02-27,1,,,,,シンジョウ,0
605,3020003025618,新規,0,2024-02-27,2024-02-27,合同会社アジサシ,,合同会社,神奈川県,横浜市都筑区,仲町台１丁目２番２３－６０２号,,14,118,2240041,,,,,,,2024-02-27,1,,,,,アジサシ,0
606,3020005016292,新規,0,2024-02-27,2024-02-27,一般社団法人マスタードシードクリスチャン教会‐横浜,,その他の設立登記法人,神奈川県,横浜市神奈川区,鶴屋町２丁目１２－１カリオカビル２Ｆ６号室,,14,102,2210835,,,,,,,2024-02-27,1,,,,,マスタードシードクリスチャンキョウカイヨコハマ,0
611,3021001081561,新規,0,2024-02-27,2024-02-27,株式会社Ｒｅｍｏｒｋ,,株式会社,神奈川県,相模原市中央区,鹿沼台１丁目１２－９ボヌール３０１号室,,14,152,2520233,,,,,,,2024-02-27,1,,,,,リモーク,0
612,3021003014197,新規,0,2024-02-27,2024-02-27,合同会社玉手箱,,合同会社,神奈川県,海老名市,国分南４丁目３－１８,,14,215,2430405,,,,,,,2024-02-27,1,,,,,タマテバコ,0
618,3030001158815,新規,0,2024-02-27,2024-02-27,株式会社善銀,,株式会社,埼玉県,さいたま市岩槻区,大字笹久保１７４番地２,,11,110,3390034,,,,,,,2024-02-27,1,,,,,ゼンギン,0
619,3030001158831,新規,0,2024-02-27,2024-02-27,株式会社ＮＡＴＡＲＩ,,株式会社,埼玉県,さいたま市南区,南浦和２丁目４４－１一ツ木ビル３０２,,11,108,3360017,,,,,,,2024-02-27,1,,,,,ナタリ,0
623,3030005021556,新規,0,2024-02-27,2024-02-27,一般社団法人ちちぶ結いまち,,その他の設立登記法人,埼玉県,川口市,戸塚２丁目１番１－１００６号,,11,203,3330811,,,,,,,2024-02-27,1,,,,,チチブユイマチ,0
625,3040001132117,新規,0,2024-02-27,2024-02-27,株式会社ミュウパートナーズ,,株式会社,千葉県,船橋市,湊町２丁目１２－２４湊町日本橋ビル６階,,12,204,2730011,,,,,,,2024-02-27,1,,,,,ミュウパートナーズ,0
626,3040001132364,新規,0,2024-02-27,2024-02-27,株式会社Ｃ＆Ｃ,,株式会社,千葉県,千葉市花見川区,幕張町５丁目３７４番地１,,12,102,2620032,,,,,,,2024-02-27,1,,,,,シーアンドシー,0
627,3040001132372,新規,0,2024-02-27,2024-02-27,ＣＹ貿易株式会社,,株式会社,千葉県,四街道市,大日１８６９番地１Ｆ,,12,228,2840001,,,,,,,2024-02-27,1,,,,,シワイボウエキ,0
632,3050003008157,新規,0,2024-02-27,2024-02-27,合同会社スキマ,,合同会社,茨城県,行方市,於下１２６０番地,,08,233,3113802,,,,,,,2024-02-27,1,,,,,スキマ,0
636,3060003004931,新規,0,2024-02-27,2024-02-27,小池商店合同会社,,合同会社,栃木県,足利市,西宮町２８３３,,09,202,3260817,,,,,,,2024-02-27,1,,,,,コイケショウテン,0
640,3080101024549,新規,0,2024-02-27,2024-02-27,ＫＥＮＴｅｃ株式会社,,株式会社,静岡県,富士宮市,大岩１８６６番地の１,,22,207,4180013,,,,,,,2024-02-27,1,,,,,ケンテック,0
647,3120001262541,新規,0,2024-02-27,2024-02-27,株式会社ＣＨＥＬＳＥＡ,,株式会社,大阪府,大阪市住吉区,長居東３丁目８番２７号ビラカレンシー長居４０２号,,27,120,5580004,,,,,,,2024-02-27,1,,,,,チェルシー,0
648,3120001262673,新規,0,2024-02-27,2024-02-27,昭和山不動産株式会社,,株式会社,大阪府,大阪市大正区,三軒家西３丁目８－１３,,27,108,5510001,,,,,,,2024-02-27,1,,,,,ショウワザンフドウサン,0
649,3120001262681,新規,0,2024-02-27,2024-02-27,株式会社ラブライフ,,株式会社,大阪府,大阪市中央区,谷町６丁目１４－１３,,27,128,5420012,,,,,,,2024-02-27,1,,,,,ラブライフ,0
650,3120003026044,新規,0,2024-02-27,2024-02-27,合同会社パックスＳＡＫＡＩ,,合同会社,大阪府,大阪市北区,西天満４丁目１４番３号,,27,127,5300047,,,,,,,2024-02-27,1,,,,,パックスサカイ,0
652,3120901048817,新規,0,2024-02-27,2024-02-27,株式会社カキダイ,,株式会社,大阪府,吹田市,日の出町２８－２６,,27,205,5640023,,,,,,,2024-02-27,1,,,,,カキダイ,0
654,3120903005056,新規,0,2024-02-27,2024-02-27,合同会社ＳＴＡＲＳ,,合同会社,大阪府,豊中市,宮山町４丁目１０番７の１号,,27,203,5600056,,,,,,,2024-02-27,1,,,,,スターズ,0
655,3120903005064,新規,0,2024-02-27,2024-02-27,合同会社エトワール,,合同会社,大阪府,豊中市,春日町５丁目１１番２８－２０５号,,27,203,5600052,,,,,,,2024-02-27,1,,,,,エトワール,0
657,3122003002801,新規,0,2024-02-27,2024-02-27,合同会社ぴゅあ,,合同会社,大阪府,八尾市,久宝寺４丁目３番４１号,,27,212,5810072,,,,,,,2024-02-27,1,,,,,ピュア,0
659,3130001076445,新規,0,2024-02-27,2024-02-27,大岩林業株式会社,,株式会社,京都府,京都市左京区,花脊大布施町１０番地,,26,103,6011104,,,,,,,2024-02-27,1,,,,,オオイワリンギョウ,0
667,3140001133443,新規,0,2024-02-27,2024-02-27,株式会社すきっぷ,,株式会社,兵庫県,豊岡市,昭和町１番１７号,,28,209,6680055,,,,,,,2024-02-27,1,,,,,スキップ,0
671,3140005026949,新規,0,2024-02-27,2024-02-27,農事組合法人阿曽レンゲの里営農組合,,その他の設立登記法人,兵庫県,揖保郡太子町,阿曽２６５番地１,,28,464,6711557,,,,,,,2024-02-27,1,,,,,アソレンゲノサトエイノウクミアイ,0
673,3150003003189,新規,0,2024-02-27,2024-02-27,合同会社ｎｏｖａ,,合同会社,奈良県,奈良市,三松１丁目１８番７－１０３号,,29,201,6310074,,,,,,,2024-02-27,1,,,,,ノヴァ,0
675,3160003003122,新規,0,2024-02-27,2024-02-27,合同会社Ｐｒｅａｓａｎｔ　Ｈｏｍｅ,,合同会社,滋賀県,大津市,若葉台５番２号,,25,201,5200845,,,,,,,2024-02-27,1,,,,,プレザントホーム,0
679,3180001160319,新規,0,2024-02-27,2024-02-27,株式会社アクト,,株式会社,愛知県,清須市,上条２丁目２番地１７,,23,233,4520944,,,,,,,2024-02-27,1,,,,,アクト,0
682,3180003026402,新規,0,2024-02-27,2024-02-27,一光園製陶合資会社,,合資会社,愛知県,瀬戸市,仲洞町２４番地,,23,204,4890833,,,,,,,2024-02-27,1,,,,,,0
691,3240001062847,新規,0,2024-02-27,2024-02-27,株式会社Ａｔｅｌｉｅｒ　Ｉｒｉｓ,,株式会社,広島県,廿日市市,宮島町５８８番地,,34,213,7390588,,,,,,,2024-02-27,1,,,,,アトリエイリス,0
703,3290001104834,新規,0,2024-02-27,2024-02-27,株式会社ｈａｎａ　ｇｉｖｉｎｇ,,株式会社,福岡県,太宰府市,五条６丁目７－３サンハイツ吉田１０７,,40,221,8180125,,,,,,,2024-02-27,1,,,,,ハナギビング,0
705,3290003014981,新規,0,2024-02-27,2024-02-27,合同会社ＤＴＭコマース,,合同会社,福岡県,福岡市東区,西戸崎４丁目１９－２９－３０３,,40,131,8110321,,,,,,,2024-02-27,1,,,,,ディーティーエムコマース,0
708,3290801030346,新規,0,2024-02-27,2024-02-27,ＵＮＳＣＯＰＥ株式会社,,株式会社,福岡県,北九州市小倉北区,砂津２丁目１１番２０－８０６号,,40,106,8020014,,,,,,,2024-02-27,1,,,,,アンスコープ,0
712,3330001031792,新規,0,2024-02-27,2024-02-27,株式会社阿蘇くまもとフーズ,,株式会社,熊本県,上益城郡益城町,大字惣領１４２９番地,,43,443,8612233,,,,,,,2024-02-27,1,,,,,アソクマモトフーズ,0
714,3330003010241,新規,0,2024-02-27,2024-02-27,合同会社受米不動産,,合同会社,熊本県,山鹿市,菊鹿町大字木野字銭瓶塚３６３１番地３,,43,208,8610500,,,,,,,2024-02-27,1,,,,,ウケジフドウサン,0
716,3340001026313,新規,0,2024-02-27,2024-02-27,株式会社ＪＢＰ,,株式会社,鹿児島県,熊毛郡南種子町,中之上２９７０番地,,46,502,8913701,,,,,,,2024-02-27,1,,,,,ジェービーピー,0
718,3340003004382,新規,0,2024-02-27,2024-02-27,合同会社ＩＤＯ,,合同会社,鹿児島県,鹿児島市,本名町１９６８番地３,,46,201,8911304,,,,,,,2024-02-27,1,,,,,イド,0
719,3350001018813,新規,0,2024-02-27,2024-02-27,株式会社アヴリール,,株式会社,宮崎県,宮崎市,田代町７５番地テクノロジーズビル５階,,45,201,8800855,,,,,,,2024-02-27,1,,,,,アヴリール,0
720,3360003013745,新規,0,2024-02-27,2024-02-27,Ｋ‐Ｆｒｏｎｔｉｅｒｓ合同会社,,合同会社,沖縄県,沖縄市,南桃原３丁目３７番２１号,,47,211,9040035,,,,,,,2024-02-27,1,,,,,ケーフロンティア,0
723,3370001050962,新規,0,2024-02-27,2024-02-27,株式会社ＧＡＫＵＺＡＮ,,株式会社,宮城県,仙台市泉区,福岡字岳山７番地の１０１,,04,105,9813225,,,,,,,2024-02-27,1,,,,,ガクザン,0
733,3430001091141,新規,0,2024-02-27,2024-02-27,株式会社ガネー・シャ,,株式会社,北海道,岩見沢市,北三条西４丁目１番２号,,01,210,0680043,,,,,,,2024-02-27,1,,,,,ガネーシャ,0
734,3430001091158,新規,0,2024-02-27,2024-02-27,株式会社つだももこ,,株式会社,北海道,札幌市中央区,南十三条西１７丁目１番２６－２号,,01,101,0640913,,,,,,,2024-02-27,1,,,,,ツダモモコ,0
736,3440003001576,新規,0,2024-02-27,2024-02-27,合同会社ほがらか,,合同会社,北海道,函館市,海岸町５番５号,,01,202,0400061,,,,,,,2024-02-27,1,,,,,ホガラカ,0
737,3450001014232,新規,0,2024-02-27,2024-02-27,株式会社ＥＡ,,株式会社,北海道,旭川市,東二条２丁目４番１０号３階,,01,204,0700022,,,,,,,2024-02-27,1,,,,,イーエー,0
742,3480001012398,新規,0,2024-02-27,2024-02-27,株式会社天照,,株式会社,徳島県,徳島市,上吉野町３丁目３９番地の５,,36,201,7700803,,,,,,,2024-02-27,1,,,,,アマテラス,0
743,3490001010707,新規,0,2024-02-27,2024-02-27,株式会社ブレイン,,株式会社,高知県,幡多郡黒潮町,入野１５６０―１,,39,428,7891931,,,,,,,2024-02-27,1,,,,,ブレイン,0
753,4010001242421,新規,0,2024-02-27,2024-02-27,株式会社カネオカ,,株式会社,東京都,中央区,銀座１丁目１２番４号,,13,102,1040061,,,,,,,2024-02-27,1,,,,,カネオカ,0
754,4010001242553,新規,0,2024-02-27,2024-02-27,株式会社ＩＫＳ,,株式会社,東京都,千代田区,九段北１丁目５番９号九段誠和ビル５Ｆ,,13,101,1020073,,,,,,,2024-02-27,1,,,,,アイケーエス,0
755,4010001242561,新規,0,2024-02-27,2024-02-27,株式会社ＳＡＮＤＡＹ,,株式会社,東京都,千代田区,内神田１丁目１０番８号,,13,101,1010047,,,,,,,2024-02-27,1,,,,,サンデイ,0
756,4010001242586,新規,0,2024-02-27,2024-02-27,豊成株式会社,,株式会社,東京都,文京区,西片２丁目２１番３－３０２,,13,105,1130024,,,,,,,2024-02-27,1,,,,,ホウセイ,0
757,4010001242628,新規,0,2024-02-27,2024-02-27,株式会社ハッシュタグリンク,,株式会社,東京都,千代田区,内神田１丁目９番１２号ＮＴビル６Ｆ,,13,101,1010047,,,,,,,2024-02-27,1,,,,,ハッシュタグリンク,0
758,4010001242636,新規,0,2024-02-27,2024-02-27,株式会社Ｍｅｉｄｅａｓ,,株式会社,東京都,中央区,日本橋室町１丁目１１番１２号日本橋水野ビル７階,,13,102,1030022,,,,,,,2024-02-27,1,,,,,ミイダス,0
761,4010003043009,新規,0,2024-02-27,2024-02-27,合同会社ＴＩＭアシスト,,合同会社,東京都,中央区,銀座１丁目１２番４号Ｎ＆ＥＢＬＤ．６Ｆ,,13,102,1040061,,,,,,,2024-02-27,1,,,,,ティーアイエムアシスト,0
762,4010003043033,新規,0,2024-02-27,2024-02-27,合同会社ＫＩＲＦ３,,合同会社,東京都,千代田区,内幸町２丁目１番６号,,13,101,1000011,,,,,,,2024-02-27,1,,,,,ケイアイアールエフスリー,0
763,4010003043066,新規,0,2024-02-27,2024-02-27,フェスティナ・レンテ合同会社,,合同会社,東京都,中央区,日本橋室町１丁目１１番１２号日本橋水野ビル７階,,13,102,1030022,,,,,,,2024-02-27,1,,,,,フェスティナレンテ,0
769,4010403031991,新規,0,2024-02-27,2024-02-27,ＧｅｅｋＯｕｔ　Ｄｅｖｅｌｏｐｍｅｎｔ２号合同会社,,合同会社,東京都,港区,麻布十番２丁目２０番７号,,13,103,1060045,,,,,,,2024-02-27,1,,,,,ギークアウトディベロップメントニゴウ,0
770,4010603010671,新規,0,2024-02-27,2024-02-27,合同会社花椿スタイル,,合同会社,東京都,江東区,越中島３丁目２番７プラウドシティ越中島４２７,,13,108,1350044,,,,,,,2024-02-27,1,,,,,ハナツバキスタイル,0
774,4010803004861,新規,0,2024-02-27,2024-02-27,合同会社Ｓｐｙｌｅｐ．,,合同会社,東京都,大田区,南蒲田３丁目１３番７号ベル・メゾン１０２,,13,111,1440035,,,,,,,2024-02-27,1,,,,,スパイレップ,0
777,4010901054775,新規,0,2024-02-27,2024-02-27,株式会社フロムトップ,,株式会社,東京都,世田谷区,太子堂２丁目６番３７－３０５号,,13,112,1540004,,,,,,,2024-02-27,1,,,,,フロムトップ,0
785,4011003018561,新規,0,2024-02-27,2024-02-27,合同会社Ｄａｔａ　Ｄｒｉｖｅｎ　Ｌｏｃａｌ,,合同会社,東京都,渋谷区,道玄坂１丁目１０番８号渋谷道玄坂東急ビル２Ｆ－Ｃ,,13,113,1500043,,,,,,,2024-02-27,1,,,,,データドリブンローカル,0
788,4011101106326,新規,0,2024-02-27,2024-02-27,ＢｏｎａＧｒａｃｅ株式会社,,株式会社,東京都,新宿区,市谷田町３丁目８番市ヶ谷科学技術イノベーションセンタービル２Ｆ,,13,104,1620843,,,,,,,2024-02-27,1,,,,,ボナグレース,0
795,4011203004312,新規,0,2024-02-27,2024-02-27,合同会社雪月花,,合同会社,東京都,中野区,中野４丁目３番１－２００４号,,13,114,1640001,,,,,,,2024-02-27,1,,,,,セツゲツカ,0
797,4011301029434,新規,0,2024-02-27,2024-02-27,株式会社ＳＯＵＩ　ａｎｄ　ＫＵＦＵ,,株式会社,東京都,杉並区,久我山２丁目２３番７－２０９号,,13,115,1680082,,,,,,,2024-02-27,1,,,,,ソウイアンドクフ,0
799,4011401025886,新規,0,2024-02-27,2024-02-27,株式会社本多忠勝１級建築士事務所Ｒ．Ｗ．Ｈグループ,,株式会社,東京都,板橋区,大谷口２丁目１２番７号,,13,119,1730035,,,,,,,2024-02-27,1,,,,,ホンダタダカツイッキュウケンチクシジムショアールダブリュエイチグループ,0
801,4011601027550,新規,0,2024-02-27,2024-02-27,株式会社ｎｉｃｈｅ＆ｒｉｃｈ,,株式会社,東京都,練馬区,中村北２丁目７番１号パーリー・コースト１０１,,13,120,1760023,,,,,,,2024-02-27,1,,,,,ニッチアンドリッチ,0
802,4011601027559,新規,0,2024-02-27,2024-02-27,株式会社Ｐｒｏｇｒｅｓｓ,,株式会社,東京都,練馬区,大泉町５丁目２７番１７号,,13,120,1780062,,,,,,,2024-02-27,1,,,,,プログレス,0
818,4013301052119,新規,0,2024-02-27,2024-02-27,ＨＥＭＫ株式会社,,株式会社,東京都,豊島区,巣鴨２丁目９番１－１３０３号,,13,116,1700002,,,,,,,2024-02-27,1,,,,,ヘムク,0
819,4013303007021,新規,0,2024-02-27,2024-02-27,ａｇｅ　ｗｏｒｋｅｒ合同会社,,合同会社,東京都,豊島区,東池袋２丁目６１番５号津島ビル３Ｆ,,13,116,1700013,,,,,,,2024-02-27,1,,,,,,0
824,4020001155903,新規,0,2024-02-27,2024-02-27,株式会社タイズ・ミュージック,,株式会社,神奈川県,川崎市多摩区,生田３丁目１１番２０号,,14,135,2140038,,,,,,,2024-02-27,1,,,,,タイズミュージック,0
827,4020003025591,新規,0,2024-02-27,2024-02-27,合同会社Ｍ．Ｋ．Ｆ,,合同会社,神奈川県,横浜市戸塚区,戸塚町１０４－１奈良部ビル１階,,14,110,2440003,,,,,,,2024-02-27,1,,,,,エムケイエフ,0
829,4021001081544,新規,0,2024-02-27,2024-02-27,株式会社ｌｉｂｅｒｔｙ　ｈｏｎｅｓｔ,,株式会社,神奈川県,相模原市南区,東大沼４丁目４番２３号ハピネス１０１,,14,153,2520333,,,,,,,2024-02-27,1,,,,,リバティーホーネスト,0
830,4021001081552,新規,0,2024-02-27,2024-02-27,株式会社ＢＩＮＯＷＥＥ,,株式会社,神奈川県,茅ヶ崎市,松が丘２丁目６番１９－２０３号ジェームスタウン松が丘,,14,207,2530025,,,,,,,2024-02-27,1,,,,,ビノウィー,0
837,4030003023693,新規,0,2024-02-27,2024-02-27,合同会社チェリッシュ,,合同会社,埼玉県,さいたま市北区,日進町２丁目４８３番地１－１１０５号,,11,102,3310823,,,,,,,2024-02-27,1,,,,,チェリッシュ,0
840,4040001132339,新規,0,2024-02-27,2024-02-27,ヒロタ都市建築株式会社,,株式会社,千葉県,千葉市中央区,末広４丁目１３番１４号,,12,101,2600843,,,,,,,2024-02-27,1,,,,,ヒロタトシケンチク,0
841,4040001132388,新規,0,2024-02-27,2024-02-27,株式会社シルバーウィング,,株式会社,千葉県,船橋市,金杉台１丁目３番１１棟１０２号,,12,204,2730852,,,,,,,2024-02-27,1,,,,,シルバーウィング,0
844,4040003024385,新規,0,2024-02-27,2024-02-27,合同会社Ａｈｍｓ,,合同会社,千葉県,柏市,つくしが丘５丁目８－１５,,12,217,2770072,,,,,,,2024-02-27,1,,,,,アームス,0
846,4050001054350,新規,0,2024-02-27,2024-02-27,株式会社Ｊｏｕｌｅ,,株式会社,茨城県,行方市,宇崎１０４２－３,,08,233,3113824,,,,,,,2024-02-27,1,,,,,ジュール,0
852,4080101024556,新規,0,2024-02-27,2024-02-27,株式会社浜平漁業ＨＤ,,株式会社,静岡県,沼津市,戸田４９４番地の３６,,22,203,4103402,,,,,,,2024-02-27,1,,,,,ハマヘイギョギョウホールディングス,0
855,4080401027028,新規,0,2024-02-27,2024-02-27,株式会社浜松磐田不動産買取専門店,,株式会社,静岡県,磐田市,小立野３番地１二美ビル２０５,,22,211,4380838,,,,,,,2024-02-27,1,,,,,ハママツイワタフドウサンカイトリセンモンテン,0
859,4100005013124,新規,0,2024-02-27,2024-02-27,医療法人貴薫会,,その他の設立登記法人,長野県,佐久市,長土呂４２５番地１,,20,217,3850021,,,,,,,2024-02-27,1,,,,,キクンカイ,0
861,4110001038207,新規,0,2024-02-27,2024-02-27,株式会社日本不動産情報リサーチ＆コンサルティング,,株式会社,新潟県,新潟市中央区,上大川前通６番町１２１４－２,,15,103,9518068,,,,,,,2024-02-27,1,,,,,ニホンフドウサンジョウホウリサーチアンドコンサルティング,0
869,4120001262499,新規,0,2024-02-27,2024-02-27,株式会社東洋企画,,株式会社,大阪府,大阪市平野区,平野北１丁目９番１４－５０２号,,27,126,5470041,,,,,,,2024-02-27,1,,,,,トウヨウキカク,0
870,4120001262557,新規,0,2024-02-27,2024-02-27,株式会社Ｇｒａｎ　Ｌｉｌｌｙ,,株式会社,大阪府,大阪市北区,堂島１丁目３番２９号,,27,127,5300003,,,,,,,2024-02-27,1,,,,,グランリリー,0
871,4120001262615,新規,0,2024-02-27,2024-02-27,株式会社ＧＲＡＮＤＩＲ,,株式会社,大阪府,大阪市西成区,玉出西２丁目３番２号２・３ビル４階,,27,122,5570045,,,,,,,2024-02-27,1,,,,,グランディール,0
872,4120001262623,新規,0,2024-02-27,2024-02-27,株式会社大城組,,株式会社,大阪府,門真市,北岸和田２丁目８番２－５０４号,,27,223,5710007,,,,,,,2024-02-27,1,,,,,オオシログミ,0
873,4120001262631,新規,0,2024-02-27,2024-02-27,株式会社済州島テールスープ,,株式会社,大阪府,大阪市天王寺区,堂ケ芝２丁目１８番１１号,,27,109,5430033,,,,,,,2024-02-27,1,,,,,チェジュトウテールスープ,0
874,4120001262648,新規,0,2024-02-27,2024-02-27,株式会社ボスコンサルティング,,株式会社,大阪府,大阪市中央区,平野町３丁目１－６ＢｉｚＭｉｉＸＹｏｄｏｙａｂａｓｈｉ,,27,128,5410046,,,,,,,2024-02-27,1,,,,,ボスコンサルティング,0
875,4120001262714,新規,0,2024-02-27,2024-02-27,株式会社Ｒａｆａｅｌ,,株式会社,大阪府,寝屋川市,高倉２丁目６番１６号,,27,215,5720864,,,,,,,2024-02-27,1,,,,,ラファエル,0
878,4120003026010,新規,0,2024-02-27,2024-02-27,合同会社トモニ,,合同会社,大阪府,大阪市東住吉区,田辺３丁目５番２２号,,27,121,5460031,,,,,,,2024-02-27,1,,,,,トモニ,0
879,4120005024177,新規,0,2024-02-27,2024-02-27,行政書士法人はやし事務所,,その他の設立登記法人,大阪府,大阪市中央区,道修町１丁目３－３戎道修町ビル４０６号,,27,128,5410045,,,,,,,2024-02-27,1,,,,,ハヤシジムショ,0
882,4120103005698,新規,0,2024-02-27,2024-02-27,合同会社そらまめ不動産,,合同会社,大阪府,堺市東区,北野田６１０－２８Ａ－６０６,,27,143,5998123,,,,,,,2024-02-27,1,,,,,ソラマメフドウサン,0
885,4120903005063,新規,0,2024-02-27,2024-02-27,合同会社Ｌｉｂｅｒｔｙ,,合同会社,大阪府,池田市,旭丘２丁目５番２号,,27,204,5630022,,,,,,,2024-02-27,1,,,,,リバティ,0
888,4130001076436,新規,0,2024-02-27,2024-02-27,株式会社ＤＡＩＳＥＩ,,株式会社,京都府,京都市右京区,西京極中沢町１－１３－２－６１９号,,26,108,6150815,,,,,,,2024-02-27,1,,,,,ダイセイ,0
892,4140001133467,新規,0,2024-02-27,2024-02-27,株式会社ＲＩＴＡ,,株式会社,兵庫県,加古川市,米田町平津４１０－３８,,28,210,6750054,,,,,,,2024-02-27,1,,,,,リタ,0
893,4140001133491,新規,0,2024-02-27,2024-02-27,東風株式会社,,株式会社,兵庫県,加東市,東古瀬６３７番地,,28,228,6731423,,,,,,,2024-02-27,1,,,,,コチ,0
895,4150001027098,新規,0,2024-02-27,2024-02-27,株式会社カラーズ,,株式会社,奈良県,奈良市,百楽園２丁目６－１,,29,201,6310024,,,,,,,2024-02-27,1,,,,,カラーズ,0
900,4160003003121,新規,0,2024-02-27,2024-02-27,Ｙ＆ＦＪＡＰＡＮ合同会社,,合同会社,滋賀県,栗東市,小平井２丁目１５番１７号,,25,208,5203034,,,,,,,2024-02-27,1,,,,,ワイアンドエフジャパン,0
903,4180001160284,新規,0,2024-02-27,2024-02-27,株式会社ＡＺＢＥＬＬＥ,,株式会社,愛知県,名古屋市中川区,吉津４丁目２７０５番地,,23,110,4540981,,,,,,,2024-02-27,1,,,,,アズベル,0
917,4240001062838,新規,0,2024-02-27,2024-02-27,株式会社三つ葉包装,,株式会社,広島県,広島市東区,戸坂桜東町１０番７号,,34,102,7320005,,,,,,,2024-02-27,1,,,,,ミツバホウソウ,0
918,4240001062846,新規,0,2024-02-27,2024-02-27,株式会社石広不動産,,株式会社,広島県,山県郡北広島町,移原８１７番地,,34,369,7312206,,,,,,,2024-02-27,1,,,,,イシヒロフドウサン,0
932,4290801030345,新規,0,2024-02-27,2024-02-27,株式会社Ｇ‐ｂｏｎｄｓ,,株式会社,福岡県,北九州市八幡西区,上上津役５丁目５番１４号,,40,109,8070072,,,,,,,2024-02-27,1,,,,,ジーボンズ,0
938,4340003004381,新規,0,2024-02-27,2024-02-27,合同会社おおいし,,合同会社,鹿児島県,鹿児島市,日之出町３２番１１号,,46,201,8900086,,,,,,,2024-02-27,1,,,,,オオイシ,0
947,4360001033240,新規,0,2024-02-27,2024-02-27,株式会社２７,,株式会社,沖縄県,糸満市,字北波平５６番地,,47,210,9010312,,,,,,,2024-02-27,1,,,,,ニジュウナナ,0
955,4420001018607,新規,0,2024-02-27,2024-02-27,株式会社ｍｏｔｔｅ,,株式会社,青森県,三戸郡五戸町,字鍜冶屋窪４３番地３０,,02,442,0391511,,,,,,,2024-02-27,1,,,,,モッテ,0
959,4430001091132,新規,0,2024-02-27,2024-02-27,株式会社リョウシン,,株式会社,北海道,札幌市白石区,北郷三条４丁目３番８－３０２号,,01,104,0030833,,,,,,,2024-02-27,1,,,,,リョウシン,0
960,4430001091149,新規,0,2024-02-27,2024-02-27,株式会社ラフエクスチェンジ,,株式会社,北海道,芦別市,南一条東１丁目１１番４号,,01,216,0750031,,,,,,,2024-02-27,1,,,,,ラフエクスチェンジ,0
961,4430001091157,新規,0,2024-02-27,2024-02-27,株式会社ＦＧＭ北海道,,株式会社,北海道,札幌市東区,東苗穂十一条１丁目１０番５号,,01,103,0070811,,,,,,,2024-02-27,1,,,,,エフジーエムホッカイドウ,0
962,4430001091165,新規,0,2024-02-27,2024-02-27,株式会社セルペンティ,,株式会社,北海道,札幌市中央区,旭ケ丘６丁目４番３８号,,01,101,0640941,,,,,,,2024-02-27,1,,,,,セルペンティ,0
963,4430003015989,新規,0,2024-02-27,2024-02-27,合同会社ヘルプフルライブ,,合同会社,北海道,札幌市豊平区,月寒中央通６丁目３番３１号,,01,105,0620020,,,,,,,2024-02-27,1,,,,,ヘルプフルライブ,0
965,4470001020046,新規,0,2024-02-27,2024-02-27,株式会社ＭＫＳ,,株式会社,香川県,高松市,番町３丁目１５番２４号,,37,201,7600017,,,,,,,2024-02-27,1,,,,,エムケイエス,0
967,4470003002587,新規,0,2024-02-27,2024-02-27,合同会社平和,,合同会社,香川県,観音寺市,出作町１００２番地,,37,205,7680011,,,,,,,2024-02-27,1,,,,,ヘイワ,0
980,5010001242577,新規,0,2024-02-27,2024-02-27,株式会社オカネコＰＢ,,株式会社,東京都,中央区,日本橋兜町９－１,,13,102,1030026,,,,,,,2024-02-27,1,,,,,オカネコピービー,0
981,5010001242593,新規,0,2024-02-27,2024-02-27,株式会社ドクターナウ,,株式会社,東京都,千代田区,霞が関３丁目２番５号霞ヶ関ビル５階,,13,101,1000013,,,,,,,2024-02-27,1,,,,,ドクターナウ,0
982,5010001242627,新規,0,2024-02-27,2024-02-27,株式会社ＷｉＯＮ,,株式会社,東京都,文京区,本郷１丁目２８番１０号,,13,105,1130033,,,,,,,2024-02-27,1,,,,,ワイオン,0
989,5010003043024,新規,0,2024-02-27,2024-02-27,ボールツリー合同会社,,合同会社,東京都,中央区,勝どき５丁目３番１号,,13,102,1040054,,,,,,,2024-02-27,1,,,,,ボールツリー,0
990,5010003043032,新規,0,2024-02-27,2024-02-27,合同会社ＫＩＲＦ２,,合同会社,東京都,千代田区,内幸町２丁目１番６号,,13,101,1000011,,,,,,,2024-02-27,1,,,,,ケイアイアールエフツー,0
991,5010101016022,新規,0,2024-02-27,2024-02-27,ちゃんと株式会社,,株式会社,東京都,八王子市,東町１２－８,,13,201,1920082,,,,,,,2024-02-27,1,,,,,チャント,0
994,5010401180658,新規,0,2024-02-27,2024-02-27,株式会社プロストイック,,株式会社,東京都,港区,港南２丁目１７番１号,,13,103,1080075,,,,,,,2024-02-27,1,,,,,プロストイック,0
995,5010401180666,新規,0,2024-02-27,2024-02-27,マネーフォワードプライベートバンク株式会社,,株式会社,東京都,港区,芝浦３丁目１番２１号,,13,103,1080023,,,,,,,2024-02-27,1,,,,,マネーフォワードプライベートバンク,0
999,5010403032048,新規,0,2024-02-27,2024-02-27,合同会社コスモス,,合同会社,東京都,港区,高輪４丁目１４番１―６０７号,,13,103,1080074,,,,,,,2024-02-27,1,,,,,コスモス,0
1002,5010701045593,新規,0,2024-02-27,2024-02-27,株式会社オノラキラ,,株式会社,東京都,品川区,西大井４丁目１９番６号,,13,109,1400015,,,,,,,2024-02-27,1,,,,,オノラキラ,0
1003,5010903008860,新規,0,2024-02-27,2024-02-27,合同会社アーティストエージェントリンクス,,合同会社,東京都,世田谷区,代田２丁目２７番１２号,,13,112,1550033,,,,,,,2024-02-27,1,,,,,アーティストエージェントリンクス,0
1011,5011001160208,新規,0,2024-02-27,2024-02-27,株式会社Ｄｌｏｐ,,株式会社,東京都,渋谷区,神宮前６丁目２３番４号桑野ビル２階,,13,113,1500001,,,,,,,2024-02-27,1,,,,,ドロップ,0
1012,5011001160273,新規,0,2024-02-27,2024-02-27,株式会社ＨＩＮＡＯＲＩ,,株式会社,東京都,渋谷区,千駄ヶ谷５丁目１番３号１階,,13,113,1510051,,,,,,,2024-02-27,1,,,,,ヒナオリ,0
1017,5011101106300,新規,0,2024-02-27,2024-02-27,株式会社ＰＯＴＥＧＡＲ　Ｊａｐａｎ,,株式会社,東京都,新宿区,西新宿３丁目３番１３号西新宿水間ビル６階,,13,104,1600023,,,,,,,2024-02-27,1,,,,,ポテガルジャパン,0
1018,5011101106309,新規,0,2024-02-27,2024-02-27,シャルイン株式会社,,株式会社,東京都,新宿区,西新宿３丁目３番１３号西新宿水間ビル６階,,13,104,1600023,,,,,,,2024-02-27,1,,,,,シャルイン,0
1019,5011101106317,新規,0,2024-02-27,2024-02-27,株式会社ソウルヴィジョン,,株式会社,東京都,新宿区,西新宿７丁目５番５号Ｐｌａｚａ西新宿ＵＣＦ４０６,,13,104,1600023,,,,,,,2024-02-27,1,,,,,ソウルヴィジョン,0
1023,5011103014138,新規,0,2024-02-27,2024-02-27,合同会社Ｎｏ　Ｄａｍａｇｅ,,合同会社,東京都,新宿区,富久町１５－１－１６１４,,13,104,1620067,,,,,,,2024-02-27,1,,,,,ノーダメージ,0
1027,5011403004284,新規,0,2024-02-27,2024-02-27,合同会社ａｌｔｅｎａ,,合同会社,東京都,板橋区,小豆沢１丁目１４番２７号,,13,119,1740051,,,,,,,2024-02-27,1,,,,,アルテナ,0
1030,5011701027053,新規,0,2024-02-27,2024-02-27,三十合盛株式会社,,株式会社,東京都,江戸川区,西葛西５丁目７－６ＤＡＯＳＰＡＣＥ西葛西３階３０１号室,,13,123,1340088,,,,,,,2024-02-27,1,,,,,サンジュウゴウセイ,0
1034,5012401041567,新規,0,2024-02-27,2024-02-27,株式会社サクラ屋,,株式会社,東京都,三鷹市,下連雀３丁目３３番１３号,,13,204,1810013,,,,,,,2024-02-27,1,,,,,サクラヤ,0
1036,5012403006428,新規,0,2024-02-27,2024-02-27,ＮｏｏＮＡ合同会社,,合同会社,東京都,調布市,東つつじケ丘２丁目１０－３０,,13,208,1820005,,,,,,,2024-02-27,1,,,,,ノーナ,0
1040,5013101009359,新規,0,2024-02-27,2024-02-27,株式会社ブイ・オー・シー・ヒューマン,,株式会社,東京都,青梅市,天ヶ瀬町１０１２番地,,13,205,1980087,,,,,,,2024-02-27,1,,,,,ブイオーシーヒューマン,0
1043,5013301052118,新規,0,2024-02-27,2024-02-27,Ｒ・Ｓ　ＧＬＯＢＡＬ株式会社,,株式会社,東京都,豊島区,東池袋２丁目１３番３号コーポ清和４０３号,,13,116,1700013,,,,,,,2024-02-27,1,,,,,アールエスグローバル,0
1049,5020001155951,新規,0,2024-02-27,2024-02-27,株式会社イージーエックス,,株式会社,神奈川県,横浜市都筑区,茅ケ崎東１丁目１番４－１０９号,,14,118,2240033,,,,,,,2024-02-27,1,,,,,イージーエックス,0
1052,5021001081535,新規,0,2024-02-27,2024-02-27,株式会社熊澤建創,,株式会社,神奈川県,茅ヶ崎市,高田４丁目１１番３号,,14,207,2530002,,,,,,,2024-02-27,1,,,,,クマザワケンソウ,0
1053,5021003014187,新規,0,2024-02-27,2024-02-27,さんじげんアリ合同会社,,合同会社,神奈川県,足柄下郡湯河原町,吉浜４５５―２,,14,384,2590312,,,,,,,2024-02-27,1,,,,,サンジゲンアリ,0
1054,5021003014195,新規,0,2024-02-27,2024-02-27,合同会社南の灯,,合同会社,神奈川県,高座郡寒川町,小谷１丁目１１番３４号,,14,321,2530103,,,,,,,2024-02-27,1,,,,,ミナミノトモシビ,0
1057,5030001158821,新規,0,2024-02-27,2024-02-27,株式会社新生和,,株式会社,埼玉県,さいたま市見沼区,島町２２１番地３,,11,104,3370006,,,,,,,2024-02-27,1,,,,,シンセイワ,0
1058,5030001158838,新規,0,2024-02-27,2024-02-27,天翔産業株式会社,,株式会社,埼玉県,さいたま市岩槻区,大字徳力３７１番地１,,11,110,3390004,,,,,,,2024-02-27,1,,,,,テンショウサンギョウ,0
1059,5030001158854,新規,0,2024-02-27,2024-02-27,株式会社Ｉｎｔｅｎｔｉｏｎ,,株式会社,埼玉県,三郷市,釆女一丁目２４０番地３,,11,237,3410000,,,,,,,2024-02-27,1,,,,,インテンション,0
1062,5030003023718,新規,0,2024-02-27,2024-02-27,合同会社ゴッド,,合同会社,埼玉県,川口市,戸塚東３丁目３８番２３号リバーハイツＩＩ２０３号,00133872,11,203,3330802,,,,,,,2024-02-27,1,,,,,ゴッド,0
1073,5040001132313,新規,0,2024-02-27,2024-02-27,株式会社レゼント,,株式会社,千葉県,千葉市中央区,本千葉町１３－１パークホームズ千葉５０４,,12,101,2600014,,,,,,,2024-02-27,1,,,,,レゼント,0
1074,5040001132338,新規,0,2024-02-27,2024-02-27,株式会社グリシーナ,,株式会社,千葉県,柏市,豊四季７５番地,,12,217,2770863,,,,,,,2024-02-27,1,,,,,グリシーナ,0
1075,5040001132354,新規,0,2024-02-27,2024-02-27,株式会社Ｙ’ｚ,,株式会社,千葉県,八千代市,勝田台１丁目３９番地２２勝田台共同ビル４号,,12,221,2760023,,,,,,,2024-02-27,1,,,,,ワイズ,0
1076,5040001132379,新規,0,2024-02-27,2024-02-27,株式会社清雅工業,,株式会社,千葉県,松戸市,六高台７丁目６６番地ハートフルシティ松戸六高台スクエア１－６０６号,,12,207,2702203,,,,,,,2024-02-27,1,,,,,セイガコウギョウ,0
1079,5040003024392,新規,0,2024-02-27,2024-02-27,谷フーズ合同会社,,合同会社,千葉県,八千代市,八千代台東１丁目２番１２号第２イーストビル１階,,12,221,2760032,,,,,,,2024-02-27,1,,,,,タニフーズ,0
1080,5040003024401,新規,0,2024-02-27,2024-02-27,ＦＴＡ　Ｐｌｕｓ合同会社,,合同会社,千葉県,千葉市美浜区,若葉３丁目１－１８－Ｓ２－１,,12,106,2610014,,,,,,,2024-02-27,1,,,,,エフティーエイプラス,0
1082,5050001054358,新規,0,2024-02-27,2024-02-27,ＩＺＯＯＢＡ株式会社,,株式会社,茨城県,守谷市,百合ケ丘３丁目２８１２番地の７２ブルーハイツ１０１,,08,224,3020110,,,,,,,2024-02-27,1,,,,,イズーバ,0
1085,5070001041437,新規,0,2024-02-27,2024-02-27,株式会社明治デリカ高崎,,株式会社,群馬県,高崎市,倉賀野町２７６９番地３,,10,202,3701201,,,,,,,2024-02-27,1,,,,,メイジデリカタカサキ,0
1086,5070003005290,新規,0,2024-02-27,2024-02-27,合同会社紬,,合同会社,群馬県,高崎市,飯塚町７０６番地８,,10,202,3700069,,,,,,,2024-02-27,1,,,,,ツムギ,0
1094,5110001038206,新規,0,2024-02-27,2024-02-27,豊栄建鋼株式会社,,株式会社,新潟県,阿賀野市,下山屋字前田４３８番地２,,15,223,9591952,,,,,,,2024-02-27,1,,,,,トヨサカケンコウ,0
1108,5120001262630,新規,0,2024-02-27,2024-02-27,株式会社ｂｕｔｔｅｒ,,株式会社,大阪府,大阪市北区,野崎町１番２５号,,27,127,5300055,,,,,,,2024-02-27,1,,,,,バター,0
1109,5120001262647,新規,0,2024-02-27,2024-02-27,株式会社Ｙｏｕｔｈｓ,,株式会社,大阪府,大阪市住吉区,遠里小野３丁目２－２３,,27,120,5580032,,,,,,,2024-02-27,1,,,,,ユース,0
1110,5120001262688,新規,0,2024-02-27,2024-02-27,フレンドレイ株式会社,,株式会社,大阪府,大阪市西成区,南開２丁目１－２６－１０２,,27,122,5570023,,,,,,,2024-02-27,1,,,,,フレンドレイ,0
1111,5120003026018,新規,0,2024-02-27,2024-02-27,エネシス合同会社,,合同会社,大阪府,大阪市旭区,清水３丁目１８番１０号,,27,117,5350021,,,,,,,2024-02-27,1,,,,,エネシス,0
1112,5120101069109,新規,0,2024-02-27,2024-02-27,株式会社Ｆｉｖｅ　Ｒｅｓｏｒｔ,,株式会社,大阪府,貝塚市,澤８９０番地７,,27,208,5970062,,,,,,,2024-02-27,1,,,,,ファイブリゾート,0
1113,5120101069117,新規,0,2024-02-27,2024-02-27,露豊堂株式会社,,株式会社,大阪府,堺市堺区,旭ヶ丘南町１丁２番２８号,,27,141,5900807,,,,,,,2024-02-27,1,,,,,ロホウドウ,0
1118,5120901048807,新規,0,2024-02-27,2024-02-27,株式会社ＲＡＺ,,株式会社,大阪府,摂津市,鳥飼上３丁目３番２３号,,27,224,5660062,,,,,,,2024-02-27,1,,,,,ラズ,0
1125,5130001076443,新規,0,2024-02-27,2024-02-27,アグリ・ラボ株式会社,,株式会社,京都府,京田辺市,東西神屋９８番地９,,26,211,6100362,,,,,,,2024-02-27,1,,,,,アグリラボ,0
1132,5140001133458,新規,0,2024-02-27,2024-02-27,株式会社スペースクリエーション,,株式会社,兵庫県,神戸市須磨区,桜の杜１丁目１５番２号,,28,107,6540114,,,,,,,2024-02-27,1,,,,,スペースクリエーション,0
1139,5160003003120,新規,0,2024-02-27,2024-02-27,合同会社オウミ,,合同会社,滋賀県,東近江市,八日市緑町２９番２２号,,25,213,5270023,,,,,,,2024-02-27,1,,,,,オウミ,0
1145,5180001160283,新規,0,2024-02-27,2024-02-27,株式会社ＣｏｌｏｒＬｅａｆ,,株式会社,愛知県,一宮市,大毛字南新開２７番地１,,23,203,4910132,,,,,,,2024-02-27,1,,,,,カラーリーフ,0
1146,5180001160291,新規,0,2024-02-27,2024-02-27,名北ホールディングス株式会社,,株式会社,愛知県,名古屋市北区,西味鋺５丁目９１０番地,,23,103,4620016,,,,,,,2024-02-27,1,,,,,メイホクホールディングス,0
1151,5190001031137,新規,0,2024-02-27,2024-02-27,シオハナフーズ株式会社,,株式会社,三重県,四日市市,三ツ谷東町９番地１３号ラフォーレ三ツ谷東Ｂ１０１号,,24,202,5100801,,,,,,,2024-02-27,1,,,,,シオハナフーズ,0
1154,5200001042198,新規,0,2024-02-27,2024-02-27,株式会社ライジング・サン,,株式会社,岐阜県,羽島市,新生町２丁目１７９番地,,21,209,5016206,,,,,,,2024-02-27,1,,,,,ライジングサン,0
1163,5240001062837,新規,0,2024-02-27,2024-02-27,株式会社ＦＭＬヘルスサポート,,株式会社,広島県,福山市,草戸町１丁目２３番２１号,,34,207,7200831,,,,,,,2024-02-27,1,,,,,エフエムエルヘルスサポート,0
1173,5290001104782,新規,0,2024-02-27,2024-02-27,株式会社ＳＨＣＬ,,株式会社,福岡県,筑紫野市,大字筑紫６５９番地（区画整理４９－２７）,,40,217,8180025,,,,,,,2024-02-27,1,,,,,エスエイチシーエル,0
1174,5290001104849,新規,0,2024-02-27,2024-02-27,株式会社Ｌａｕｇｈ　Ｇａｔｅ,,株式会社,福岡県,福岡市中央区,天神２丁目２番１２号Ｔ＆Ｊビルディング７Ｆ,,40,133,8100001,,,,,,,2024-02-27,1,,,,,ラフゲート,0
1183,5310003004722,新規,0,2024-02-27,2024-02-27,合同会社雅建,,合同会社,長崎県,佐世保市,吉井町吉元３５４番地１５,,42,202,8596324,,,,,,,2024-02-27,1,,,,,マサケン,0
1184,5310003004739,新規,0,2024-02-27,2024-02-27,オクタ合同会社,,合同会社,長崎県,諫早市,原口町５４９番地５,,42,204,8540046,,,,,,,2024-02-27,1,,,,,オクタ,0
1187,5360001033248,新規,0,2024-02-27,2024-02-27,株式会社はるはな,,株式会社,沖縄県,石垣市,字白保７５８番地２,,47,207,9070242,,,,,,,2024-02-27,1,,,,,ハルハナ,0
1189,5360003013735,新規,0,2024-02-27,2024-02-27,マムヴィッラ合同会社,,合同会社,沖縄県,うるま市,石川２丁目７－２,,47,213,9041106,,,,,,,2024-02-27,1,,,,,マムヴィッラ,0
1192,5370001050952,新規,0,2024-02-27,2024-02-27,ＮｅＷ　ｓＴｙｌｅ　ｅｎｔｅｒｔａｉｎｍｅｎｔ株式会社,,株式会社,宮城県,仙台市青葉区,立町１６番４号コンフォーザ立町２０２,,04,101,9800822,,,,,,,2024-02-27,1,,,,,ニュースタイルエンターテインメント,0
1197,5390001017529,新規,0,2024-02-27,2024-02-27,やない商事株式会社,,株式会社,山形県,米沢市,大字李山４６４０番地,,06,202,9921461,,,,,,,2024-02-27,1,,,,,ヤナイショウジ,0
1198,5390001017537,新規,0,2024-02-27,2024-02-27,株式会社Ｉｎｆｉｎｉｔｅ,,株式会社,山形県,酒田市,幸町１丁目３番２０号,,06,204,9980023,,,,,,,2024-02-27,1,,,,,インフィニット,0
1204,5440001009388,新規,0,2024-02-27,2024-02-27,株式会社グラスターツ,,株式会社,北海道,亀田郡七飯町,大川６丁目２番１８号,,01,337,0411122,,,,,,,2024-02-27,1,,,,,グラスターツ,0
1211,5500001025478,新規,0,2024-02-27,2024-02-27,株式会社愛媛遮熱工業,,株式会社,愛媛県,松山市,久万ノ台３２２番地５,,38,201,7918016,,,,,,,2024-02-27,1,,,,,エヒメシャネツコウギョウ,0
1221,6010001242337,新規,0,2024-02-27,2024-02-27,株式会社ＭＩＡ,,株式会社,東京都,文京区,小石川１丁目５番１号ＰＣ４０２,,13,105,1120002,,,,,,,2024-02-27,1,,,,,エムアイエー,0
1222,6010001242601,新規,0,2024-02-27,2024-02-27,株式会社潮観,,株式会社,東京都,文京区,千駄木２丁目４１番８－２０１,,13,105,1130022,,,,,,,2024-02-27,1,,,,,シオミ,0
1227,6010003042826,新規,0,2024-02-27,2024-02-27,合同会社Ｎｅｘｔ　Ｕｐ,,合同会社,東京都,中央区,東日本橋２丁目５－５レオーネ東日本橋駅前ＩＩ３０１,00133858,13,102,1030004,,,,,,,2024-02-27,1,,,,,ネクストアップ,0
1229,6010005037923,新規,0,2024-02-27,2024-02-27,特定非営利活動法人Ｖｅｃｔｉｇａｌ,,その他の設立登記法人,東京都,中央区,日本橋室町１丁目１１番１２号日本橋水野ビル７階,,13,102,1030022,,,,,,,2024-02-27,1,,,,,ベクティガル,0
1230,6010005037931,新規,0,2024-02-27,2024-02-27,特定非営利活動法人日本女性技術者フォーラム,,その他の設立登記法人,東京都,千代田区,九段南１丁目５番６号りそな九段ビル５ＦＫＳフロア,,13,101,1020074,,,,,,,2024-02-27,1,,,,,ニホンジョセイギジュツシャフォーラム,0
1231,6010005037948,新規,0,2024-02-27,2024-02-27,一般社団法人岐阜モールホールディングス,,その他の設立登記法人,東京都,千代田区,丸の内３丁目１番１号東京共同会計事務所内,,13,101,1000005,,,,,,,2024-02-27,1,,,,,ギフモールホールディングス,0
1232,6010101016021,新規,0,2024-02-27,2024-02-27,株式会社ＭＩＲＡＩ,,株式会社,東京都,八王子市,石川町２９６０番地７,,13,201,1920032,,,,,,,2024-02-27,1,,,,,ミライ,0
1239,6010403031874,新規,0,2024-02-27,2024-02-27,合同会社ひかり,,合同会社,東京都,港区,南青山７丁目１２番５－１０３号,,13,103,1070062,,,,,,,2024-02-27,1,,,,,ゴウドウカイシャヒカリ,0
1241,6010405022987,新規,0,2024-02-27,2024-02-27,一般社団法人ＺＥＲＯ　ＯＮＥ,,その他の設立登記法人,東京都,港区,海岸３丁目２１番９号ＡＬＢＡ１１０２号,,13,103,1080022,,,,,,,2024-02-27,1,,,,,,0
1247,6010901054773,新規,0,2024-02-27,2024-02-27,株式会社ポンセ,,株式会社,東京都,世田谷区,若林４丁目３１番９号４０２号室,,13,112,1540023,,,,,,,2024-02-27,1,,,,,ポンセ,0
1250,6011001000577,新規,0,2024-02-27,2024-02-27,株式会社青松社,,株式会社,東京都,渋谷区,神宮前４丁目２５番１０号,,13,113,1500001,,,,,,,2024-02-27,1,,,,,セイショウシャ,0
1254,6011001160223,新規,0,2024-02-27,2024-02-27,株式会社ＩＣＯＵ,,株式会社,東京都,渋谷区,神泉町１０番１５号アネックス神泉３０１,,13,113,1500045,,,,,,,2024-02-27,1,,,,,イコウ,0
1255,6011001160248,新規,0,2024-02-27,2024-02-27,株式会社サブエモーション,,株式会社,東京都,渋谷区,南平台町１３番１１号南平台イースト４０３,,13,113,1500036,,,,,,,2024-02-27,1,,,,,サブエモーション,0
1256,6011101106324,新規,0,2024-02-27,2024-02-27,株式会社Ｋ‐Ｐｌａｃｅ,,株式会社,東京都,新宿区,新宿１丁目２番８号国久ビル１０階Ａ号室,,13,104,1600022,,,,,,,2024-02-27,1,,,,,ケープレース,0
1257,6011103014137,新規,0,2024-02-27,2024-02-27,合同会社永清,,合同会社,東京都,新宿区,新宿２丁目１２番１号松井ビル３階,,13,104,1600022,,,,,,,2024-02-27,1,,,,,エイセイ,0
1265,6011401025884,新規,0,2024-02-27,2024-02-27,株式会社ＳＰＡＸＩＥ,,株式会社,東京都,板橋区,南常盤台１丁目１１－６レフア南常盤台１０１号室,,13,119,1740072,,,,,,,2024-02-27,1,,,,,スパシエ,0
1271,6011601027565,新規,0,2024-02-27,2024-02-27,株式会社メロフライト,,株式会社,東京都,練馬区,豊玉上１丁目２０番１６号パロ江古田４０１,,13,120,1760011,,,,,,,2024-02-27,1,,,,,メロフライト,0
1277,6012401041566,新規,0,2024-02-27,2024-02-27,株式会社ＭＯ’ｓ　Ｃｏｍｐａｎｙ,,株式会社,東京都,三鷹市,牟礼３丁目７番４１号,,13,204,1810002,,,,,,,2024-02-27,1,,,,,モーズカンパニー,0
1282,6013101009358,新規,0,2024-02-27,2024-02-27,株式会社ＡＲＩＳＥ,,株式会社,東京都,西多摩郡瑞穂町,大字高根３１０番地４,,13,303,1901203,,,,,,,2024-02-27,1,,,,,,0
1284,6013301052117,新規,0,2024-02-27,2024-02-27,株式会社ＬＯＶＥＳ　ＣＯＭＰＡＮＹ,,株式会社,東京都,豊島区,東池袋２丁目６０番２号池袋パークハイツ２階,,13,116,1700013,,,,,,,2024-02-27,1,,,,,ラブズカンパニー,0
1289,6020001155950,新規,0,2024-02-27,2024-02-27,株式会社岡田プラントホールディングス,,株式会社,神奈川県,横浜市都筑区,佐江戸町７９３番地,,14,118,2240054,,,,,,,2024-02-27,1,,,,,オカダプラントホールディングス,0
1290,6020001155967,新規,0,2024-02-27,2024-02-27,徳総業株式会社,00133870,株式会社,神奈川県,横浜市都筑区,川和町２４９６－１０１,,14,118,2240057,,,,,,,2024-02-27,1,,,,,,0
1291,6020001155983,新規,0,2024-02-27,2024-02-27,株式会社サーフェスデザインラボ,,株式会社,神奈川県,横浜市青葉区,松風台２６番地４３,,14,117,2270067,,,,,,,2024-02-27,1,,,,,サーフェスデザインラボ,0
1310,6030001158894,新規,0,2024-02-27,2024-02-27,株式会社Ｂａｎｄ,,株式会社,埼玉県,富士見市,ふじみ野東２丁目７番地１シティヴェールふじみ野二番館３０３,,11,235,3540036,,,,,,,2024-02-27,1,,,,,バンド,0
1329,6040001132337,新規,0,2024-02-27,2024-02-27,株式会社ａｔＲａｓ,,株式会社,千葉県,佐倉市,西ユーカリが丘１丁目２７番地２２,,12,212,2850850,,,,,,,2024-02-27,1,,,,,アトラス,0
1330,6040001132378,新規,0,2024-02-27,2024-02-27,雅インダストリー株式会社,,株式会社,千葉県,市原市,根田１丁目３番地６,,12,219,2900024,,,,,,,2024-02-27,1,,,,,ミヤビインダストリー,0
1331,6040001132386,新規,0,2024-02-27,2024-02-27,株式会社アーバンミライ,,株式会社,千葉県,千葉市美浜区,高洲１丁目５番９号３階,,12,106,2610004,,,,,,,2024-02-27,1,,,,,アーバンミライ,0
1335,6060005010173,新規,0,2024-02-27,2024-02-27,一般社団法人エミクル,,その他の設立登記法人,栃木県,那須塩原市,清住町９４番地１４,,09,213,3250067,,,,,,,2024-02-27,1,,,,,エミクル,0
1341,6070001041428,新規,0,2024-02-27,2024-02-27,株式会社ＨＲＳ,,株式会社,群馬県,邑楽郡大泉町,坂田５丁目１番２号,,10,524,3700532,,,,,,,2024-02-27,1,,,,,エイチアールエス,0
1342,6080001026139,新規,0,2024-02-27,2024-02-27,株式会社ＶｉＶｉＤ,,株式会社,静岡県,榛原郡吉田町,神戸１２６番地の６,,22,424,4210304,,,,,,,2024-02-27,1,,,,,ビビッド,0
1344,6080401027026,新規,0,2024-02-27,2024-02-27,株式会社リバウト,,株式会社,静岡県,浜松市中央区,和合町２２０番地９４,,22,138,4338125,,,,,,,2024-02-27,1,,,,,リバウト,0
1346,6110003005302,新規,0,2024-02-27,2024-02-27,合同会社ＡＮＹ,,合同会社,新潟県,新潟市中央区,東中通１番町８６番地５５グレイスハイツ東中通タワー１２０１,,15,103,9518116,,,,,,,2024-02-27,1,,,,,エニー,0
1361,6120001262605,新規,0,2024-02-27,2024-02-27,飛鳥テクノＩＮＶ株式会社,,株式会社,大阪府,大阪市東住吉区,杭全１丁目１４番１０号,,27,121,5460002,,,,,,,2024-02-27,1,,,,,アスカテクノアイエヌブイ,0
1362,6120001262621,新規,0,2024-02-27,2024-02-27,株式会社ＥＮ　ｄｉｅｍ,,株式会社,大阪府,大阪市天王寺区,生玉前町１番１１－８０２号,,27,109,5430072,,,,,,,2024-02-27,1,,,,,エンディエム,0
1363,6120001262654,新規,0,2024-02-27,2024-02-27,株式会社ＮＥＫＯ,,株式会社,大阪府,大阪市中央区,宗右衛門町７番１７号,,27,128,5420084,,,,,,,2024-02-27,1,,,,,ネコ,0
1364,6120001262662,新規,0,2024-02-27,2024-02-27,株式会社ジャパンプランツテクノロジーズ,,株式会社,大阪府,大阪市東淀川区,小松４丁目３番１３号,,27,114,5330004,,,,,,,2024-02-27,1,,,,,ジャパンプランツテクノロジーズ,0
1367,6120003026009,新規,0,2024-02-27,2024-02-27,合同会社Ｒｅｐｌｉｃａ,,合同会社,大阪府,大阪市北区,中之島６丁目１番３８号,,27,127,5300005,,,,,,,2024-02-27,1,,,,,レプリカ,0
1369,6120005024159,新規,0,2024-02-27,2024-02-27,特定非営利活動法人なにわ子どもカンパニー,,その他の設立登記法人,大阪府,大阪市阿倍野区,阪南町３丁目３番１４号,,27,119,5450021,,,,,,,2024-02-27,1,,,,,ナニワコドモカンパニー,0
1377,6130001076442,新規,0,2024-02-27,2024-02-27,株式会社志,,株式会社,京都府,京都市右京区,西京極西大丸町４５シャレー西京極１０６,,26,108,6150862,,,,,,,2024-02-27,1,,,,,ココロザシ,0
1379,6140001133449,新規,0,2024-02-27,2024-02-27,マップクリエイト株式会社,,株式会社,兵庫県,西宮市,生瀬武庫川町３番１－４０３号,,28,204,6691104,,,,,,,2024-02-27,1,,,,,マップクリエイト,0
1383,6140003020199,新規,0,2024-02-27,2024-02-27,合同会社ウオーサオー,,合同会社,兵庫県,神戸市東灘区,本山北町４丁目６番３号ＢＲＡ２０４号室,,28,101,6580003,,,,,,,2024-02-27,1,,,,,ウオーサオー,0
1391,6180001160290,新規,0,2024-02-27,2024-02-27,株式会社ウッドストック,,株式会社,愛知県,名古屋市瑞穂区,彌富町字紅葉園６番地の３,,23,108,4670032,,,,,,,2024-02-27,1,,,,,ウッドストック,0
1393,6180003026416,新規,0,2024-02-27,2024-02-27,合同会社日々輝,,合同会社,愛知県,知多郡武豊町,字平井６丁目２２番地１,,23,447,4702380,,,,,,,2024-02-27,1,,,,,ヒビキ,0
1396,6180303006010,新規,0,2024-02-27,2024-02-27,合同会社清水おじじ農園,,合同会社,愛知県,豊田市,大林町７丁目３８,,23,211,4730902,,,,,,,2024-02-27,1,,,,,シミズオジジノウエン,0
1401,6220005008812,新規,0,2024-02-27,2024-02-27,一般社団法人アクソンデータマシン,,その他の設立登記法人,石川県,金沢市,今町ワ４８番地,,17,201,9200106,,,,,,,2024-02-27,1,,,,,アクソンデータマシン,0
1407,6240001062828,新規,0,2024-02-27,2024-02-27,株式会社スタイル,,株式会社,広島県,広島市中区,白島九軒町１５番９号,,34,101,7300003,,,,,,,2024-02-27,1,,,,,スタイル,0
1412,6260001038784,新規,0,2024-02-27,2024-02-27,株式会社アラティ,,株式会社,岡山県,倉敷市,三田９６－２,,33,202,7100001,,,,,,,2024-02-27,1,,,,,アラティ,0
1413,6260003004594,新規,0,2024-02-27,2024-02-27,合同会社まるはち農産,,合同会社,岡山県,倉敷市,玉島八島２３８６番地１,,33,202,7138113,,,,,,,2024-02-27,1,,,,,マルハチノウサン,0
1417,6290001104848,新規,0,2024-02-27,2024-02-27,ＦＥＥ株式会社,,株式会社,福岡県,福津市,渡１５９８番地の１０,,40,224,8113307,,,,,,,2024-02-27,1,,,,,エフイーイー,0
1418,6290001104856,新規,0,2024-02-27,2024-02-27,株式会社ｗｅｓｔ　ｌｉｇｈｔ,,株式会社,福岡県,うきは市,浮羽町朝田１３２２番地,,40,225,8391401,,,,,,,2024-02-27,1,,,,,ウエストライト,0
1422,6290801030351,新規,0,2024-02-27,2024-02-27,株式会社コンテニュー,,株式会社,福岡県,北九州市八幡東区,清田３丁目３番２３号,,40,108,8050034,,,,,,,2024-02-27,1,,,,,コンテニュー,0
1430,6330003010239,新規,0,2024-02-27,2024-02-27,合同会社ＫＭアセット管理,,合同会社,熊本県,熊本市西区,島崎６丁目３番１６号,,43,103,8600073,,,,,,,2024-02-27,1,,,,,ケイエムアセットカンリ,0
1440,6360001033214,新規,0,2024-02-27,2024-02-27,株式会社Ｒ＆Ｃｏ．,,株式会社,沖縄県,那覇市,久茂地１丁目１番１号９階,,47,201,9000015,,,,,,,2024-02-27,1,,,,,アールアンドコー,0
1441,6360003013734,新規,0,2024-02-27,2024-02-27,合同会社南沖縄ＨＯＲＩＺＯＮ,,合同会社,沖縄県,南城市,知念字知念３２７－２,,47,215,9011513,,,,,,,2024-02-27,1,,,,,ミナミオキナワホライズン,0
1442,6370001050976,新規,0,2024-02-27,2024-02-27,株式会社ＤＥＭＢＥ,,株式会社,宮城県,角田市,横倉字大在家４８番地２,,04,208,9811512,,,,,,,2024-02-27,1,,,,,デンベ,0
1446,6390001017536,新規,0,2024-02-27,2024-02-27,アイケンホールディングス株式会社,,株式会社,山形県,米沢市,桜木町２番４８号,,06,202,9920017,,,,,,,2024-02-27,1,,,,,アイケンホールディングス,0
1449,6420001018605,新規,0,2024-02-27,2024-02-27,株式会社ミキファーム,,株式会社,青森県,三戸郡田子町,大字田子字雷平１７番地１,,02,443,0390201,,,,,,,2024-02-27,1,,,,,ミキファーム,0
1453,6430001091171,新規,0,2024-02-27,2024-02-27,株式会社Ｔｏｒｉｎｏｓ,,株式会社,北海道,札幌市中央区,北二条西２丁目３２番地,,01,101,0600002,,,,,,,2024-02-27,1,,,,,トリノス,0
1454,6430003015995,新規,0,2024-02-27,2024-02-27,合同会社ＬＡＵＬＬＥ,,合同会社,北海道,札幌市厚別区,上野幌三条４丁目６番６号,,01,108,0040033,,,,,,,2024-02-27,1,,,,,ラウル,0
1460,6470001020044,新規,0,2024-02-27,2024-02-27,山水商事株式会社,,株式会社,香川県,仲多度郡多度津町,東浜９－７倉本コーポ１　１０２号室,,37,404,7640016,,,,,,,2024-02-27,1,,,,,サンスイショウジ,0
1476,7010001242476,新規,0,2024-02-27,2024-02-27,株式会社東方不敗エンターテインメント,,株式会社,東京都,千代田区,神田練塀町３００番地住友不動産秋葉原駅前ビル１１階,,13,101,1010022,,,,,,,2024-02-27,1,,,,,トウホウフハイエンターテインメント,0
1477,7010001242600,新規,0,2024-02-27,2024-02-27,株式会社ＡＲＯＴ,,株式会社,東京都,中央区,日本橋小網町８－２ＢＩＺＭＡＲＫＳ日本橋茅場町２０７,,13,102,1030016,,,,,,,2024-02-27,1,,,,,アロット,0
1478,7010001242617,新規,0,2024-02-27,2024-02-27,株式会社ニルヴァーナ・ウル,,株式会社,東京都,文京区,春日２丁目２２番５号,,13,105,1120003,,,,,,,2024-02-27,1,,,,,ニルヴァーナウル,0
1482,7010003043014,新規,0,2024-02-27,2024-02-27,合同会社チェントラーレ,,合同会社,東京都,千代田区,神田須田町２丁目２５番地１７,,13,101,1010041,,,,,,,2024-02-27,1,,,,,チェントラーレ,0
1483,7010003043063,新規,0,2024-02-27,2024-02-27,トムトム合同会社,,合同会社,東京都,文京区,大塚２丁目１番１６－５０３号,,13,105,1120012,,,,,,,2024-02-27,1,,,,,トムトム,0
1497,7010401180631,新規,0,2024-02-27,2024-02-27,株式会社ｅ‐ｄｒｅａｍ,,株式会社,東京都,港区,南青山３丁目１番３６号青山丸竹ビル６Ｆ,,13,103,1070062,,,,,,,2024-02-27,1,,,,,イードリーム,0
1507,7010801034800,新規,0,2024-02-27,2024-02-27,奈林株式会社,,株式会社,東京都,大田区,鵜の木２丁目２番２号オーチャードアルファ２０３号室,,13,111,1460091,,,,,,,2024-02-27,1,,,,,ナリン,0
1508,7010801034809,新規,0,2024-02-27,2024-02-27,株式会社ＫＩＳＵＩ,,株式会社,東京都,大田区,中馬込３丁目１２－１,,13,111,1430027,,,,,,,2024-02-27,1,,,,,キスイ,0
1511,7010903008859,新規,0,2024-02-27,2024-02-27,ＴｕｊｉＴｕｍａ合同会社,,合同会社,東京都,世田谷区,代田３丁目９番１４－３０１号グランデュオ代田,,13,112,1550033,,,,,,,2024-02-27,1,,,,,ツジツマ,0
1515,7011001160230,新規,0,2024-02-27,2024-02-27,株式会社ナノキュアセラム,,株式会社,東京都,渋谷区,恵比寿１丁目３４番１１－７１４号,,13,113,1500013,,,,,,,2024-02-27,1,,,,,ナノキュアセラム,0
1516,7011001160263,新規,0,2024-02-27,2024-02-27,ＲＦＰコンサルティング株式会社,,株式会社,東京都,渋谷区,道玄坂１丁目１０番８号渋谷道玄坂東急ビル２Ｆ－Ｃ,,13,113,1500043,,,,,,,2024-02-27,1,,,,,アールエフピーコンサルティング,0
1517,7011001160271,新規,0,2024-02-27,2024-02-27,株式会社リカレントスタッフ,,株式会社,東京都,目黒区,自由が丘１丁目２４番６号,,13,110,1520035,,,,,,,2024-02-27,1,,,,,リカレントスタッフ,0
1518,7011003018476,新規,0,2024-02-27,2024-02-27,合同会社ｅｔｅ,,合同会社,東京都,渋谷区,道玄坂１丁目１０－８渋谷道玄坂東急ビル２Ｆ－Ｃ,,13,113,1500043,,,,,,,2024-02-27,1,,,,,,0
1519,7011003018526,新規,0,2024-02-27,2024-02-27,Ｒｅ．ＳｔａＲ合同会社,,合同会社,東京都,渋谷区,渋谷２丁目１９番１５号宮益坂ビルディング６０９,,13,113,1500002,,,,,,,2024-02-27,1,,,,,リスター,0
1520,7011003018567,新規,0,2024-02-27,2024-02-27,アストラフィルマ合同会社,,合同会社,東京都,渋谷区,恵比寿西２丁目４番８号ウィンド恵比寿ビル８Ｆ,,13,113,1500021,,,,,,,2024-02-27,1,,,,,アストラフィルマ,0
1522,7011005010381,新規,0,2024-02-27,2024-02-27,一般社団法人アンビシャススポーツクラブ,,その他の設立登記法人,東京都,渋谷区,道玄坂１丁目１０－８渋谷道玄坂東急ビル２Ｆ－Ｃ,,13,113,1500043,,,,,,,2024-02-27,1,,,,,アンビシャススポーツクラブ,0
1524,7011101106199,新規,0,2024-02-27,2024-02-27,株式会社大禹,,株式会社,東京都,新宿区,高田馬場３丁目４３－４,,13,104,1690075,,,,,,,2024-02-27,1,,,,,ダイウ,0
1525,7011101106323,新規,0,2024-02-27,2024-02-27,株式会社アニマルスター,,株式会社,東京都,新宿区,西新宿３丁目３番１３号,,13,104,1600023,,,,,,,2024-02-27,1,,,,,アニマルスター,0
1528,7011301029415,新規,0,2024-02-27,2024-02-27,Ｏ．ｉｎｃ株式会社,,株式会社,東京都,杉並区,上高井戸１丁目８番１３号シティコーポＵ１０３,,13,115,1680074,,,,,,,2024-02-27,1,,,,,オードットインク,0
1531,7011601027548,新規,0,2024-02-27,2024-02-27,株式会社エムズカンパニー,,株式会社,東京都,練馬区,豊玉北３丁目６番２２－２０１号,,13,120,1760012,,,,,,,2024-02-27,1,,,,,エムズカンパニー,0
1537,7011803006102,新規,0,2024-02-27,2024-02-27,平合同会社,,合同会社,東京都,葛飾区,新宿３丁目２５番９号,,13,122,1250051,,,,,,,2024-02-27,1,,,,,タイラ,0
1539,7012701018107,新規,0,2024-02-27,2024-02-27,株式会社Ｌｕｌｙｓｉｅ,,株式会社,東京都,西東京市,東町６丁目１番２２号,,13,229,2020012,,,,,,,2024-02-27,1,,,,,ルリシエ,0
1541,7012801022982,新規,0,2024-02-27,2024-02-27,株式会社レオ,,株式会社,東京都,昭島市,昭和町２丁目７－１９,,13,207,1960015,,,,,,,2024-02-27,1,,,,,レオ,0
1542,7012801022990,新規,0,2024-02-27,2024-02-27,ＭＡＤＲＥ株式会社,,株式会社,東京都,立川市,高松町２丁目６番１号高松ビル７Ｅ,,13,202,1900011,,,,,,,2024-02-27,1,,,,,マドリ,0
1545,7013301052116,新規,0,2024-02-27,2024-02-27,株式会社モアコンサルティング,,株式会社,東京都,豊島区,東池袋１丁目３４番５号いちご東池袋ビル６階,,13,116,1700013,,,,,,,2024-02-27,1,,,,,モアコンサルティング,0
1550,7020001155917,新規,0,2024-02-27,2024-02-27,株式会社Ｍ．ＴＨＲＥＥ,,株式会社,神奈川県,横浜市中区,末吉町１丁目３―１第二小此木ビル１階,,14,104,2310055,,,,,,,2024-02-27,1,,,,,エムスリー,0
1551,7020001155966,新規,0,2024-02-27,2024-02-27,株式会社Ｙ’ｚ　ＦＩＸ,,株式会社,神奈川県,横浜市神奈川区,反町２丁目１４番地４パークショア横濱９０１号,,14,102,2210825,,,,,,,2024-02-27,1,,,,,ワイズフィクス,0
1553,7020003025622,新規,0,2024-02-27,2024-02-27,合同会社ビルマネージ,,合同会社,神奈川県,横浜市西区,北幸２丁目１０番４８号むつみビル３階,,14,103,2200004,,,,,,,2024-02-27,1,,,,,ビルマネージ,0
1556,7021001081533,新規,0,2024-02-27,2024-02-27,株式会社ＲＥＷ　Ｖｉｌｌａｇｅ,,株式会社,神奈川県,相模原市中央区,氷川町１４番１０号栗山アパルトＩ・１－Ｂ,00133859,14,152,2520215,,,,,,,2024-02-27,1,,,,,リュウヴィレッジ,0
1560,7021003014193,新規,0,2024-02-27,2024-02-27,ＳＨＡＩＮＹ合同会社,,合同会社,神奈川県,愛甲郡愛川町,中津８５８番地の１ヤシマハイツ１０１,,14,401,2430303,,,,,,,2024-02-27,1,,,,,シャイニー,0
1568,7030001158893,新規,0,2024-02-27,2024-02-27,ＳｔｏｎｅＦｉｅｌｄ株式会社,,株式会社,埼玉県,草加市,谷塚１丁目５－２０ライフピア谷塚８０５,,11,221,3400028,,,,,,,2024-02-27,1,,,,,ストーンフィールド,0
1570,7030005021560,新規,0,2024-02-27,2024-02-27,一般社団法人地域・社会子育て若者支援,,その他の設立登記法人,埼玉県,狭山市,大字水野５０７番地の４グランドネス根本４０１,,11,215,3501317,,,,,,,2024-02-27,1,,,,,チイキシャカイコソダテワカモノシエン,0
1575,7040001132360,新規,0,2024-02-27,2024-02-27,株式会社ＲＥＡＬＮＥＥＤＳ,,株式会社,千葉県,八千代市,大和田新田５８７番地６７,,12,221,2760046,,,,,,,2024-02-27,1,,,,,リアルニーズ,0
1576,7040001132385,新規,0,2024-02-27,2024-02-27,ＴＡＫＩ株式会社,,株式会社,千葉県,市川市,欠真間１丁目２－１１ファミリーコーポヤシマ１０２号室,,12,203,2720142,,,,,,,2024-02-27,1,,,,,タキ,0
1577,7040003024408,新規,0,2024-02-27,2024-02-27,合同会社おまもりＦＰ,,合同会社,千葉県,浦安市,舞浜２丁目３１－１４,,12,227,2790031,,,,,,,2024-02-27,1,,,,,オマモリエフピー,0
1580,7050001054323,新規,0,2024-02-27,2024-02-27,株式会社古徳不動産,,株式会社,茨城県,牛久市,田宮町５３１番地２５１,,08,219,3001236,,,,,,,2024-02-27,1,,,,,コトクフドウサン,0
1581,7050001054356,新規,0,2024-02-27,2024-02-27,ＪＰ　ＢＡＳＥＤ株式会社,,株式会社,茨城県,つくば市,上ノ室１０２１,,08,220,3050023,,,,,,,2024-02-27,1,,,,,ジェーピーベースド,0
1582,7050003008161,新規,0,2024-02-27,2024-02-27,合同会社チェリー企画,,合同会社,茨城県,牛久市,神谷５丁目２９番地１,,08,219,3001216,,,,,,,2024-02-27,1,,,,,チェリーキカク,0
1586,7070001041435,新規,0,2024-02-27,2024-02-27,モデスト不動産株式会社,,株式会社,群馬県,伊勢崎市,東町２６１９番地１１ハイツセレナ１０３号室,,10,204,3792231,,,,,,,2024-02-27,1,,,,,モデストフドウサン,0
1587,7070003005289,新規,0,2024-02-27,2024-02-27,合同会社Ｗｏｒｌｄ　Ｄｅｌｉｓｈ,,合同会社,群馬県,伊勢崎市,境百々２２９番地５,,10,204,3700117,,,,,,,2024-02-27,1,,,,,ワールドデリッシュ,0
1588,7080001026146,新規,0,2024-02-27,2024-02-27,株式会社障害者福祉サービス,,株式会社,静岡県,静岡市葵区,田町５丁目６０番地,,22,101,4200068,,,,,,,2024-02-27,1,,,,,ショウガイシャフクシサービス,0
1591,7080101024553,新規,0,2024-02-27,2024-02-27,日本茶茶茶株式会社,,株式会社,静岡県,富士市,中里１６３８番地の１,,22,210,4170826,,,,,,,2024-02-27,1,,,,,ニッポンチャチャチャ,0
1592,7080401027025,新規,0,2024-02-27,2024-02-27,株式会社Ｒｏｍａｎ　Ｃａｔ,,株式会社,静岡県,磐田市,福田中島７０６－３,,22,211,4371204,,,,,,,2024-02-27,1,,,,,ロマンキャット,0
1593,7100003007414,新規,0,2024-02-27,2024-02-27,合同会社あずみ,,合同会社,長野県,松本市,筑摩３丁目１６番２２号メゾン若宮Ｄ２０１号室,,20,202,3900821,,,,,,,2024-02-27,1,,,,,アズミ,0
1594,7110001038204,新規,0,2024-02-27,2024-02-27,ａｌｂｉｃ株式会社,,株式会社,新潟県,新潟市南区,戸頭８２０番地４,,15,106,9501475,,,,,,,2024-02-27,1,,,,,アルビック,0
1603,7120001262661,新規,0,2024-02-27,2024-02-27,株式会社ＣＲＡＳ,,株式会社,大阪府,大阪市東成区,東小橋１丁目１２番２２－１２０１号,,27,115,5370024,,,,,,,2024-02-27,1,,,,,クラース,0
1604,7120001262686,新規,0,2024-02-27,2024-02-27,進興ホールディングス株式会社,,株式会社,大阪府,大阪市生野区,巽北１丁目３番１３号,00133861,27,116,5440004,,,,,,,2024-02-27,1,,,,,シンコウホールディングス,0
1605,7120001262694,新規,0,2024-02-27,2024-02-27,龍華不動産株式会社,,株式会社,大阪府,大阪市都島区,中野町４丁目８番１０－２０１号室,,27,102,5340027,,,,,,,2024-02-27,1,,,,,リュウカフドウサン,0
1614,7120103005695,新規,0,2024-02-27,2024-02-27,合同会社シュエットスピークス,,合同会社,大阪府,松原市,東新町１丁目１１番１号２,,27,217,5800024,,,,,,,2024-02-27,1,,,,,シュエットスピークス,0
1615,7120901048796,新規,0,2024-02-27,2024-02-27,株式会社グランレヴィ,,株式会社,大阪府,吹田市,山手町４丁目３３番３０号シャーメゾン翠風館２０２,,27,205,5640073,,,,,,,2024-02-27,1,,,,,グランレヴィ,0
1616,7120901048805,新規,0,2024-02-27,2024-02-27,ＢＩＧ　Ｊ　Ｇｌｏｂａｌ株式会社,,株式会社,大阪府,高槻市,宮野町５番５５－５１０号,,27,207,5690081,,,,,,,2024-02-27,1,,,,,ビッグジェーグローバル,0
1617,7120903005060,新規,0,2024-02-27,2024-02-27,ロータス合同会社,,合同会社,大阪府,豊中市,豊南町南６丁目２番３５号,,27,203,5610815,,,,,,,2024-02-27,1,,,,,ロータス,0
1618,7130001076441,新規,0,2024-02-27,2024-02-27,株式会社ｃｈｏｂｉｔ,,株式会社,京都府,京都市下京区,松原通烏丸西入ル玉津島町２９４,,26,106,6000000,,,,,,,2024-02-27,1,,,,,チョビット,0
1619,7130003009333,新規,0,2024-02-27,2024-02-27,合同会社西理財,,合同会社,京都府,京都市中京区,堀川通四条上る錦堀川町６３３番地リソシエ四条クロスコート６０５号,,26,104,6048235,,,,,,,2024-02-27,1,,,,,ニシリザイ,0
1628,7140001133431,新規,0,2024-02-27,2024-02-27,株式会社ＳＡＫＡＭＯＴＯ　ＢＥＮＣＨ　ＭＡＲＫ,,株式会社,兵庫県,西宮市,津門大塚町２－２０,,28,204,6638241,,,,,,,2024-02-27,1,,,,,サカモトベンチマーク,0
1629,7140001133448,新規,0,2024-02-27,2024-02-27,住一株式会社,,株式会社,兵庫県,姫路市,飾磨区英賀西町１丁目６９番地,,28,201,6728088,,,,,,,2024-02-27,1,,,,,ジュウイチ,0
1630,7140001133456,新規,0,2024-02-27,2024-02-27,株式会社青山伊平．,,株式会社,兵庫県,南あわじ市,榎列大榎列３２８番地,,28,224,6560426,,,,,,,2024-02-27,1,,,,,アオヤマイヘイ,0
1635,7160003003119,新規,0,2024-02-27,2024-02-27,Ａｏｇｉｒｉ　Ｆｏｒｅｓｔ　ＳＨＩＧＡ合同会社,,合同会社,滋賀県,守山市,横江町１７０番地,,25,207,5240053,,,,,,,2024-02-27,1,,,,,アオギリフォレストシガ,0
1646,7180005020531,新規,0,2024-02-27,2024-02-27,一般財団法人邑翠文化財団,,その他の設立登記法人,愛知県,名古屋市中村区,名駅３丁目２８番１２号大名古屋ビルヂング１１階,,23,105,4500002,,,,,,,2024-02-27,1,,,,,ユウスイブンカザイダン,0
1649,7210001019648,新規,0,2024-02-27,2024-02-27,株式会社ＫＩカンパニー,,株式会社,福井県,坂井市,丸岡町長崎第１２号８番地,,18,210,9100383,,,,,,,2024-02-27,1,,,,,ケーアイカンパニー,0
1652,7220003003681,新規,0,2024-02-27,2024-02-27,合同会社ｋａｎａｚａｗａｚａ,,合同会社,石川県,金沢市,古府３丁目３,,17,201,9200362,,,,,,,2024-02-27,1,,,,,カナザワザ,0
1656,7240001062835,新規,0,2024-02-27,2024-02-27,Ａｉｒｙｕ株式会社,,株式会社,広島県,世羅郡世羅町,大字川尻１４０３,,34,462,7293302,,,,,,,2024-02-27,1,,,,,アイリュー,0
1670,7290001104839,新規,0,2024-02-27,2024-02-27,株式会社ＧｅｅＫ,,株式会社,福岡県,福岡市南区,柏原３丁目１３番２３号,,40,134,8111353,,,,,,,2024-02-27,1,,,,,ギーク,0
1671,7290001104847,新規,0,2024-02-27,2024-02-27,株式会社ことほぎ,,株式会社,福岡県,福岡市博多区,博多駅前２丁目１９番１７号トーカン博多第５ビル内,,40,132,8120011,,,,,,,2024-02-27,1,,,,,コトホギ,0
1676,7290803004625,新規,0,2024-02-27,2024-02-27,Ｄ‐ＳＫＩＬＬ合同会社,,合同会社,福岡県,中間市,通谷２丁目１０番６号,,40,215,8090018,,,,,,,2024-02-27,1,,,,,ディースキル,0
1677,7310001018879,新規,0,2024-02-27,2024-02-27,株式会社ＳＫクリエイト,,株式会社,長崎県,長崎市,滑石４丁目５番３５号,,42,201,8528061,,,,,,,2024-02-27,1,,,,,エスケイクリエイト,0
1680,7320001020314,新規,0,2024-02-27,2024-02-27,ｓａｎｃｅｒｒｅ．株式会社,,株式会社,大分県,別府市,南的ケ浜町４番２４号,,44,202,8740929,,,,,,,2024-02-27,1,,,,,サンセール,0
1685,7340003004379,新規,0,2024-02-27,2024-02-27,合同会社Ｒネット,,合同会社,鹿児島県,霧島市,国分府中１４５３番地テラスあもりＡ２０２,,46,218,8994345,,,,,,,2024-02-27,1,,,,,アールネット,0
1689,7370001050975,新規,0,2024-02-27,2024-02-27,株式会社Ｋ．ｅｎ,,株式会社,宮城県,仙台市宮城野区,小田原山本丁１００番地の２１－７０４号,,04,102,9830817,,,,,,,2024-02-27,1,,,,,ケードットエン,0
1693,7430001091146,新規,0,2024-02-27,2024-02-27,株式会社池田農園,,株式会社,北海道,岩見沢市,北村赤川４５８７番地２,,01,210,0681213,,,,,,,2024-02-27,1,,,,,イケダノウエン,0
1694,7430001091162,新規,0,2024-02-27,2024-02-27,株式会社三吉企画,,株式会社,北海道,札幌市東区,伏古一条５丁目３番１０号,,01,103,0070861,,,,,,,2024-02-27,1,,,,,ミヨシキカク,0
1697,7430003015994,新規,0,2024-02-27,2024-02-27,合同会社ｋｅｉ　ｌｅａｄ　ｅｘｐｒｅｓｓ,,合同会社,北海道,札幌市東区,北二十二条東３丁目１－３５ハイテクビル札幌３５４号室,,01,103,0650022,,,,,,,2024-02-27,1,,,,,ケイリードエクスプレス,0
1702,7700150121171,新規,0,2024-02-27,2024-02-27,株式会社　エスピセミコン,,外国会社等,,,,,,,,大韓民国京畿道華城市東灘先端産業１路２７Ａ棟１９０７号,,,,,,2024-02-27,1,,,,,カブシキガイシヤエスピセミコン,0
1712,8010001242582,新規,0,2024-02-27,2024-02-27,株式会社Ｗ２,,株式会社,東京都,千代田区,神田三崎町２丁目１０番５号土本ビル１階,,13,101,1010061,,,,,,,2024-02-27,1,,,,,ダブルツー,0
1713,8010001242608,新規,0,2024-02-27,2024-02-27,株式会社エスコム,,株式会社,東京都,千代田区,神田須田町１丁目７番１号,,13,101,1010041,,,,,,,2024-02-27,1,,,,,エスコム,0
1714,8010001242640,新規,0,2024-02-27,2024-02-27,株式会社オアシスビスタ,,株式会社,東京都,中央区,日本橋富沢町１１－７－４０４,,13,102,1030006,,,,,,,2024-02-27,1,,,,,オアシスビスタ,0
1717,8010003043062,新規,0,2024-02-27,2024-02-27,合同会社楓信用サービス,,合同会社,東京都,千代田区,丸の内３丁目１番１号東京共同会計事務所内,,13,101,1000005,,,,,,,2024-02-27,1,,,,,カエデシンヨウサービス,0
1724,8010403032053,新規,0,2024-02-27,2024-02-27,ＪＤＣエナジー合同会社,,合同会社,東京都,港区,虎ノ門４丁目３番１３号,,13,103,1050001,,,,,,,2024-02-27,1,,,,,ジェイディシーエナジー,0
1734,8010903008858,新規,0,2024-02-27,2024-02-27,合同会社Ｔｃｍｃ,,合同会社,東京都,世田谷区,代田５丁目２１番１２号,,13,112,1550033,,,,,,,2024-02-27,1,,,,,ティーシーエムシー,0
1739,8011001159882,新規,0,2024-02-27,2024-02-27,ＩＴクリエイティブ株式会社,,株式会社,東京都,渋谷区,神宮前６丁目２３番４号桑野ビル２階,,13,113,1500001,,,,,,,2024-02-27,1,,,,,アイティークリエイティブ,0
1740,8011001159916,新規,0,2024-02-27,2024-02-27,株式会社ＰＹＸＩＳ,,株式会社,東京都,渋谷区,道玄坂１丁目１０番８号渋谷道玄坂東急ビル２Ｆ－Ｃ,,13,113,1500043,,,,,,,2024-02-27,1,,,,,ピクシス,0
1741,8011001160246,新規,0,2024-02-27,2024-02-27,Ｓｅｎｓｅ　ｏｆ　Ｗｏｎｄｅｒ株式会社,,株式会社,東京都,渋谷区,道玄坂１丁目１０番８号渋谷道玄坂東急ビル２Ｆ－Ｃ,,13,113,1500043,,,,,,,2024-02-27,1,,,,,センスオブワンダー,0
1744,8011003018566,新規,0,2024-02-27,2024-02-27,合同会社Ａｔｒｉｅｎ,,合同会社,東京都,渋谷区,渋谷２丁目１９－１５宮益坂ビルディング６０９,,13,113,1500002,,,,,,,2024-02-27,1,,,,,アトリエ,0
1746,8011005010372,新規,0,2024-02-27,2024-02-27,一般社団法人国際美容医科歯科連携協会,,その他の設立登記法人,東京都,渋谷区,富ヶ谷１丁目３１番１－２０４号,,13,113,1510063,,,,,,,2024-02-27,1,,,,,コクサイビヨウイカシカレンケイキョウカイ,0
1754,8011401025882,新規,0,2024-02-27,2024-02-27,ネジヒナ株式会社,,株式会社,東京都,板橋区,大山東町５９番８号ドルメン大山２０２号室,,13,119,1730014,,,,,,,2024-02-27,1,,,,,ネジヒナ,0
1757,8011501030361,新規,0,2024-02-27,2024-02-27,株式会社ＵｎｉｔｅＰｅａｋｓ,,株式会社,東京都,北区,滝野川７丁目２－７藤和板橋コープ２１３,,13,117,1140023,,,,,,,2024-02-27,1,,,,,ユナイトピークス,0
1773,8020001155940,新規,0,2024-02-27,2024-02-27,株式会社ＡＶＥＮＩＲ,,株式会社,神奈川県,横浜市保土ケ谷区,坂本町２９０番地３,,14,106,2400043,,,,,,,2024-02-27,1,,,,,アヴニール,0
1774,8020001155949,新規,0,2024-02-27,2024-02-27,株式会社デリカキング,,株式会社,神奈川県,横浜市南区,高根町１丁目３番地,,14,105,2320022,,,,,,,2024-02-27,1,,,,,デリカキング,0
1775,8020001155957,新規,0,2024-02-27,2024-02-27,日光ファーマ株式会社,,株式会社,神奈川県,横浜市神奈川区,金港町５－１４クアドリフォリオ８階,,14,102,2210056,,,,,,,2024-02-27,1,,,,,ニッコーファーマ,0
1776,8020001155965,新規,0,2024-02-27,2024-02-27,三彩テクノロジー株式会社,,株式会社,神奈川県,川崎市川崎区,駅前本町１１番地２川崎フロンティアビル４階,,14,131,2100007,,,,,,,2024-02-27,1,,,,,サンサイテクノロジー,0
1777,8020001155998,新規,0,2024-02-27,2024-02-27,株式会社ＥＹＥＬＡＳＨ　ＢＥＡＵＴＹ　Ｊ＆Ｋ,,株式会社,神奈川県,横浜市中区,福富町西通５１－２ベルポリスーパティオ７Ｄ,,14,104,2310042,,,,,,,2024-02-27,1,,,,,アイラッシュビューティージェイーアンドケー,0
1782,8020003025613,新規,0,2024-02-27,2024-02-27,Ｃｒａｆｔ　Ｓａｋｅ　Ｓｈｏｔｅｎ合同会社,,合同会社,神奈川県,川崎市幸区,大宮町１３１０番地ミューザ川崎１５３,,14,132,2120014,,,,,,,2024-02-27,1,,,,,クラフトサケショウテン,0
1784,8021001081557,新規,0,2024-02-27,2024-02-27,うみまち株式会社,,株式会社,神奈川県,三浦郡葉山町,堀内１９２８番地２,,14,301,2400112,,,,,,,2024-02-27,1,,,,,ウミマチ,0
1787,8030001158810,新規,0,2024-02-27,2024-02-27,株式会社トータルキッチンタックル,,株式会社,埼玉県,さいたま市見沼区,大字南中丸９３２番地３２,,11,104,3370041,,,,,,,2024-02-27,1,,,,,トータルキッチンタックル,0
1790,8030003023707,新規,0,2024-02-27,2024-02-27,ｂｅｃｏｍｅ合同会社,,合同会社,埼玉県,草加市,栄町２丁目８－１６レクセルプラザ９０５,,11,221,3400011,,,,,,,2024-02-27,1,,,,,ビカム,0
1791,8030003023715,新規,0,2024-02-27,2024-02-27,合同会社ｅｄａｍａｍｅ,,合同会社,埼玉県,川越市,大字砂新田４５１番地８,,11,201,3501137,,,,,,,2024-02-27,1,,,,,エダマメ,0
1794,8040001132335,新規,0,2024-02-27,2024-02-27,株式会社アンドスマイル,,株式会社,千葉県,習志野市,鷺沼３丁目１９－３幕張インターウェルズ２１－Ｄ号室,,12,216,2750014,,,,,,,2024-02-27,1,,,,,アンドスマイル,0
1795,8040001132351,新規,0,2024-02-27,2024-02-27,富澤運輸株式会社,,株式会社,千葉県,千葉市稲毛区,天台６丁目２番７号,,12,103,2630016,,,,,,,2024-02-27,1,,,,,トミサワウンユ,0
1796,8040001132368,新規,0,2024-02-27,2024-02-27,株式会社大野原,,株式会社,千葉県,松戸市,西馬橋広手町６４番地,,12,207,2710048,,,,,,,2024-02-27,1,,,,,オオノハラ,0
1797,8040001132376,新規,0,2024-02-27,2024-02-27,八広トレーディング株式会社,,株式会社,千葉県,松戸市,小山５０１番地の６クレストフォルム松戸ウッドスクエア２０７号,,12,207,2710093,,,,,,,2024-02-27,1,,,,,ヤヒロトレーディング,0
1798,8040003024398,新規,0,2024-02-27,2024-02-27,レダン合同会社,,合同会社,千葉県,千葉市美浜区,真砂４丁目２－５－４１１,,12,106,2610011,,,,,,,2024-02-27,1,,,,,レダン,0
1807,8080001026145,新規,0,2024-02-27,2024-02-27,株式会社ＳＫ８ＣＬＩＮＩＣ,,株式会社,静岡県,静岡市葵区,安倍口新田１６１番地,,22,101,4212114,,,,,,,2024-02-27,1,,,,,スケートクリニック,0
1808,8080403004962,新規,0,2024-02-27,2024-02-27,Ｒｅｐａｉｎｔ　Ｈｏｍｅ　Ｓｅｒｖｉｃｅ合同会社,,合同会社,静岡県,浜松市中央区,篠原町１１１２５－３,,22,138,4310201,,,,,,,2024-02-27,1,,,,,リペイントホームサービス,0
1810,8110005017054,新規,0,2024-02-27,2024-02-27,農事組合法人アグリカンパニー水原,,その他の設立登記法人,新潟県,阿賀野市,南安野町９番１８号,,15,223,9592004,,,,,,,2024-02-27,1,,,,,アグリカンパニースイバラ,0
1822,8120001262586,新規,0,2024-02-27,2024-02-27,アーステクノロジー株式会社,,株式会社,大阪府,大阪市浪速区,元町２丁目１１番６号,,27,111,5560016,,,,,,,2024-02-27,1,,,,,アーステクノロジー,0
1823,8120001262611,新規,0,2024-02-27,2024-02-27,株式会社ＳＨＡＲＫ,,株式会社,大阪府,大阪市生野区,中川６丁目１番６号,,27,116,5440005,,,,,,,2024-02-27,1,,,,,シャーク,0
1824,8120001262669,新規,0,2024-02-27,2024-02-27,株式会社ロイズエステート,,株式会社,大阪府,大阪市北区,豊崎３丁目１８番３号ザ・ファインタワー梅田豊崎２８０３号,,27,127,5310072,,,,,,,2024-02-27,1,,,,,ロイズエステート,0
1825,8120101069106,新規,0,2024-02-27,2024-02-27,株式会社えびす工芸,,株式会社,大阪府,堺市美原区,多治井４８８,,27,147,5870012,,,,,,,2024-02-27,1,,,,,エビスコウゲイ,0
1827,8122001037852,新規,0,2024-02-27,2024-02-27,株式会社岩崎建設,00133868,株式会社,大阪府,四條畷市,岡山１丁目１番２０号,,27,229,5750002,,,,,,,2024-02-27,1,,,,,イワサキケンセツ,0
1829,8130001076440,新規,0,2024-02-27,2024-02-27,株式会社八田,,株式会社,京都府,京都市山科区,北花山市田町１０番地８,,26,110,6078483,,,,,,,2024-02-27,1,,,,,ハッタ,0
1837,8140001133447,新規,0,2024-02-27,2024-02-27,株式会社旬,,株式会社,兵庫県,神戸市兵庫区,松本通４丁目３番２号,,28,105,6520045,,,,,,,2024-02-27,1,,,,,トキ,0
1838,8140001133455,新規,0,2024-02-27,2024-02-27,株式会社ｓａｉｌ,,株式会社,兵庫県,神戸市中央区,下山手通４丁目１１番２号,,28,110,6500011,,,,,,,2024-02-27,1,,,,,セイル,0
1839,8140001133496,新規,0,2024-02-27,2024-02-27,サンテルート株式会社,,株式会社,兵庫県,神戸市中央区,花隈町３２番２号,,28,110,6500013,,,,,,,2024-02-27,1,,,,,サンテルート,0
1842,8160001025709,新規,0,2024-02-27,2024-02-27,株式会社ＦＵＪＩＹＡＭＡ　Ｌｉｎｘ,,株式会社,滋賀県,米原市,下多良２丁目８６番地２,,25,214,5210016,,,,,,,2024-02-27,1,,,,,フジヤマリンクス,0
1847,8180001160248,新規,0,2024-02-27,2024-02-27,恩業株式会社,,株式会社,愛知県,あま市,篠田八原１９０番地,,23,237,4901211,,,,,,,2024-02-27,1,,,,,オンギョウ,0
1848,8180001160280,新規,0,2024-02-27,2024-02-27,エノキドコーポレーション株式会社,,株式会社,愛知県,名古屋市緑区,黒沢台１丁目１６２５番地,,23,114,4580003,,,,,,,2024-02-27,1,,,,,エノキドコーポレーション,0
1852,8180003026430,新規,0,2024-02-27,2024-02-27,ＤＲＥＡＭＩＮ合同会社,,合同会社,愛知県,名古屋市中区,大須３丁目３７番３５号,,23,106,4600011,,,,,,,2024-02-27,1,,,,,ドリーミン,0
1855,8200001042195,新規,0,2024-02-27,2024-02-27,株式会社ＩＮＣコネクト,,株式会社,岐阜県,羽島市,小熊町島１丁目９７番地,,21,209,5016264,,,,,,,2024-02-27,1,,,,,アイエヌシーコネクト,0
1866,8240001062834,新規,0,2024-02-27,2024-02-27,株式会社ハッピーカート,,株式会社,広島県,廿日市市,地御前北３丁目２１番２８号,,34,213,7380043,,,,,,,2024-02-27,1,,,,,ハッピーカート,0
1874,8270001008925,新規,0,2024-02-27,2024-02-27,株式会社ポチっとメンテナンス,,株式会社,鳥取県,鳥取市,富安１丁目１５２番地,,31,201,6800845,,,,,,,2024-02-27,1,,,,,ポチットメンテナンス,0
1876,8290001104747,新規,0,2024-02-27,2024-02-27,株式会社金子企画,,株式会社,福岡県,うきは市,吉井町新治５２７,,40,225,8391306,,,,,,,2024-02-27,1,,,,,カネコキカク,0
1877,8290001104846,新規,0,2024-02-27,2024-02-27,株式会社ＳＵＫＩＭＡ,,株式会社,福岡県,福岡市中央区,春吉３丁目１５番３５－４０８号,,40,133,8100003,,,,,,,2024-02-27,1,,,,,スキマ,0
1879,8290003015001,新規,0,2024-02-27,2024-02-27,合同会社聖,,合同会社,福岡県,嘉麻市,下山田３６番地１１,,40,227,8210011,,,,,,,2024-02-27,1,,,,,ヒジリ,0
1881,8290803004632,新規,0,2024-02-27,2024-02-27,山口合同会社,,合同会社,福岡県,遠賀郡水巻町,＿二丁目２番１２号,00133866,40,382,8070000,,,,,,,2024-02-27,1,,,,,ヤマグチ,0
1884,8320001020313,新規,0,2024-02-27,2024-02-27,株式会社高橋廃棄物研究所,00133863,株式会社,大分県,大分市,今津留３丁目１１番２０号,,44,201,8700938,,,,,,,2024-02-27,1,,,,,タカハシハイキブツケンキュウショ,0
1885,8320003004297,新規,0,2024-02-27,2024-02-27,合同会社ＷＩＴシステム,,合同会社,大分県,佐伯市,大字狩生２１０７番地,,44,205,8761101,,,,,,,2024-02-27,1,,,,,ウィットシステム,0
1887,8340001026309,新規,0,2024-02-27,2024-02-27,株式会社Ｍｏｃｃａ　Ｇｒｏｕｐ,,株式会社,鹿児島県,大島郡瀬戸内町,大字西阿室８番地,,46,525,8942321,,,,,,,2024-02-27,1,,,,,モッカグループ,0
1892,8390001017534,新規,0,2024-02-27,2024-02-27,Ｓｐｉｂｅｒ　ＩＰ　Ｍａｎａｇｅｍｅｎｔ　Ｈｏｌｄｉｎｇｓ　Ａ株式会社,,株式会社,山形県,鶴岡市,覚岸寺字水上２３４番地１,,06,203,9970052,,,,,,,2024-02-27,1,,,,,スパイバーアイピーマネジメントホールディングスエー,0
1894,8430001091137,新規,0,2024-02-27,2024-02-27,株式会社Ｔ‐ＢＯＲＩＣＫ,,株式会社,北海道,札幌市豊平区,平岸三条９丁目１４番１６－１０１号,,01,105,0620933,,,,,,,2024-02-27,1,,,,,ティーボリック,0
1895,8430001091153,新規,0,2024-02-27,2024-02-27,株式会社ＫＹＵＳＥＩ,,株式会社,北海道,札幌市中央区,北一条西３丁目３番１４号,,01,101,0600001,,,,,,,2024-02-27,1,,,,,キュウセイ,0
1898,8430003015985,新規,0,2024-02-27,2024-02-27,ブリッジソフト合同会社,,合同会社,北海道,札幌市東区,北十一条東６丁目１番２２号エルム東２０２,,01,103,0650011,,,,,,,2024-02-27,1,,,,,ブリッジソフト,0
1914,9010001242532,新規,0,2024-02-27,2024-02-27,株式会社ＨＯＰＥ‐ＣＯＮＮＥＣＴ,,株式会社,東京都,千代田区,丸の内１丁目１１－１,,13,101,1000005,,,,,,,2024-02-27,1,,,,,ホープコネクト,0
1915,9010001242623,新規,0,2024-02-27,2024-02-27,株式会社ゼンスピア,,株式会社,東京都,中央区,銀座１丁目１２番４号Ｎ＆ＥＢＬＤ．７階,,13,102,1040061,,,,,,,2024-02-27,1,,,,,ゼンスピア,0
1916,9010001242648,新規,0,2024-02-27,2024-02-27,株式会社メインストリーム,,株式会社,東京都,千代田区,外神田４丁目４番７号ＭＴビル６階,,13,101,1010021,,,,,,,2024-02-27,1,,,,,メインストリーム,0
1922,9010401180679,新規,0,2024-02-27,2024-02-27,株式会社Ｍ＆Ｄ　Ｏｐｐｏｒｔｕｎｉｔｙ,,株式会社,東京都,港区,白金３丁目７番１８号アポロホール＆ルナハウス５０１号室,,13,103,1080072,,,,,,,2024-02-27,1,,,,,エムアンドディーオポチュニティ,0
1923,9010403032044,新規,0,2024-02-27,2024-02-27,ＣｕｒｒｅｎｔＢｏｄｙ　Ｊａｐａｎ合同会社,,合同会社,東京都,港区,虎ノ門４丁目３番１号城山トラストタワー９階東京赤坂法律事務所内,,13,103,1050001,,,,,,,2024-02-27,1,,,,,カレントボディジャパン,0
1924,9010403032052,新規,0,2024-02-27,2024-02-27,大郷太陽光発電合同会社,,合同会社,東京都,港区,虎ノ門４丁目３番１３号,,13,103,1050001,,,,,,,2024-02-27,1,,,,,オオサトタイヨウコウハツデン,0
1931,9010701045615,新規,0,2024-02-27,2024-02-27,株式会社ＰＩＫＡ　ＳＴＵＤＩＯ,,株式会社,東京都,品川区,戸越１丁目２０番１２号,,13,109,1420041,,,,,,,2024-02-27,1,,,,,ピカスタジオ,0
1933,9010801034807,新規,0,2024-02-27,2024-02-27,ソーイコンソーシアム株式会社,,株式会社,東京都,大田区,大森西２丁目３２－８－１４０１,,13,111,1430015,,,,,,,2024-02-27,1,,,,,ソーイコンソーシアム,0
1944,9011001160237,新規,0,2024-02-27,2024-02-27,Ｇｅｍｉｎｉ株式会社,,株式会社,東京都,渋谷区,鶯谷町１番５号,,13,113,1500032,,,,,,,2024-02-27,1,,,,,ジェミニ,0
1945,9011001160245,新規,0,2024-02-27,2024-02-27,株式会社キャスターアプリケーションズ,,株式会社,東京都,渋谷区,円山町５番４号フィールＡ渋谷８１３,,13,113,1500044,,,,,,,2024-02-27,1,,,,,キャスターアプリケーションズ,0
1946,9011001160253,新規,0,2024-02-27,2024-02-27,株式会社ＳＡＭＰＬＥ,,株式会社,東京都,目黒区,祐天寺２丁目１４番２１－６０２号,,13,110,1530052,,,,,,,2024-02-27,1,,,,,サンプル,0
1947,9011001160261,新規,0,2024-02-27,2024-02-27,株式会社植物最高,,株式会社,東京都,渋谷区,富ヶ谷１丁目９番１６号代々木コーポ２Ｆ,,13,113,1510063,,,,,,,2024-02-27,1,,,,,ショクブツサイコウ,0
1949,9011003018516,新規,0,2024-02-27,2024-02-27,合同会社Ｌａｄｂｒｏｋｅ　Ｐｒｏｐｅｒｔｉｅｓ,,合同会社,東京都,渋谷区,道玄坂１丁目１０番８号渋谷道玄坂東急ビル２Ｆ－Ｃ,,13,113,1500043,,,,,,,2024-02-27,1,,,,,ラドブロークプロパティーズ,0
1950,9011003018540,新規,0,2024-02-27,2024-02-27,合同会社水舎,,合同会社,東京都,渋谷区,道玄坂１丁目５番地７号,,13,113,1500043,,,,,,,2024-02-27,1,,,,,スイシャ,0
1951,9011003018557,新規,0,2024-02-27,2024-02-27,合同会社Ｉｍｐｅｒｉａｌ　Ｉｎｎ　ＩＲＩＥ,,合同会社,東京都,渋谷区,道玄坂１丁目１０－８渋谷道玄坂東急ビル２Ｆ－Ｃ,,13,113,1500043,,,,,,,2024-02-27,1,,,,,インペリアルインイリエ,0
1955,9011101106288,新規,0,2024-02-27,2024-02-27,株式会社絆Ｃｌｏｕｄ,,株式会社,東京都,新宿区,西新宿６丁目５番１号新宿アイランドタワー２階,,13,104,1600023,,,,,,,2024-02-27,1,,,,,キズナクラウド,0
1956,9011101106313,新規,0,2024-02-27,2024-02-27,東沐株式会社,,株式会社,東京都,新宿区,四谷三栄町１２番４４号東洋四谷ビルＢ１－８,,13,104,1600008,,,,,,,2024-02-27,1,,,,,トウモク,0
1957,9011101106321,新規,0,2024-02-27,2024-02-27,株式会社ＭＬＥ　ＪＡＰＡＮ,,株式会社,東京都,新宿区,西早稲田３丁目２０番２－３０１号,,13,104,1690051,,,,,,,2024-02-27,1,,,,,エムエルイージャパン,0
1958,9011101106338,新規,0,2024-02-27,2024-02-27,株式会社Ｌｉｅｎｉｚｅ,,株式会社,東京都,新宿区,西新宿３丁目３番１３号西新宿水間ビル６階,,13,104,1600023,,,,,,,2024-02-27,1,,,,,リアナイズ,0
1959,9011103014134,新規,0,2024-02-27,2024-02-27,合同会社ＯＮＩＸＯＮ,,合同会社,東京都,新宿区,新宿２丁目１８番５号,,13,104,1600022,,,,,,,2024-02-27,1,,,,,オニクソン,0
1962,9011401025881,新規,0,2024-02-27,2024-02-27,株式会社ｃｈａｒｍｅ　ｊａｐａｎ,,株式会社,東京都,板橋区,常盤台１丁目２番４号,,13,119,1740071,,,,,,,2024-02-27,1,,,,,シャルムジャパン,0
1967,9011601027554,新規,0,2024-02-27,2024-02-27,株式会社ＡＮ,,株式会社,東京都,練馬区,高野台５丁目２番３－３１０号,,13,120,1770033,,,,,,,2024-02-27,1,,,,,エーエヌ,0
1968,9011601027570,新規,0,2024-02-27,2024-02-27,株式会社ヒトシオ,,株式会社,東京都,練馬区,平和台２丁目１６番１７号,,13,120,1790083,,,,,,,2024-02-27,1,,,,,ヒトシオ,0
1971,9011801043839,新規,0,2024-02-27,2024-02-27,株式会社博英商事,,株式会社,東京都,足立区,綾瀬３丁目１９番１４号４階,,13,121,1200005,,,,,,,2024-02-27,1,,,,,ハクエイショウジ,0
1972,9011801043847,新規,0,2024-02-27,2024-02-27,＿龍株式会社,00133871,株式会社,東京都,葛飾区,青戸７丁目２３－１０,,13,122,1250062,,,,,,,2024-02-27,1,,,,,キンリュウ,0
1979,9012701018105,新規,0,2024-02-27,2024-02-27,ｆｏｒ　Ａｇｅｎｔｓ株式会社,,株式会社,東京都,小平市,花小金井南町２丁目１７番２２号,,13,211,1870003,,,,,,,2024-02-27,1,,,,,フォーエージェンツ,0
1982,9012801022989,新規,0,2024-02-27,2024-02-27,株式会社ＡＧＩＴＯ,,株式会社,東京都,立川市,一番町１丁目６０－１２ベルトピア立川ＩＩＡ１０３,00133862,13,202,1900033,,,,,,,2024-02-27,1,,,,,アギト,0
1983,9013301052139,新規,0,2024-02-27,2024-02-27,ミラルート株式会社,,株式会社,東京都,豊島区,東池袋１丁目３４番５号いちご東池袋ビル６階,,13,116,1700013,,,,,,,2024-02-27,1,,,,,ミラルート,0
1991,9020001155956,新規,0,2024-02-27,2024-02-27,株式会社Ｈ．Ｙ,,株式会社,神奈川県,川崎市川崎区,宮本町６番１２号,,14,131,2100004,,,,,,,2024-02-27,1,,,,,エイチワイ,0
1996,9020003025595,新規,0,2024-02-27,2024-02-27,合同会社ＹＵＡ,,合同会社,神奈川県,川崎市中原区,今井仲町１２－４,,14,133,2110065,,,,,,,2024-02-27,1,,,,,ユア,0
1997,9020003025620,新規,0,2024-02-27,2024-02-27,合同会社テラシュールｗ,,合同会社,神奈川県,横浜市神奈川区,金港町５－１４クアドリフォリオ８階,,14,102,2210056,,,,,,,2024-02-27,1,,,,,テラシュール,0
1998,9021001081531,新規,0,2024-02-27,2024-02-27,株式会社Ｐａｃｉｆｉｃ　Ｓｕｎ,,株式会社,神奈川県,茅ヶ崎市,松が丘２丁目１０番５３－１２号,,14,207,2530025,,,,,,,2024-02-27,1,,,,,パシフィックサン,0
1999,9021003014183,新規,0,2024-02-27,2024-02-27,合同会社ＫＮＬ商会,,合同会社,神奈川県,厚木市,下依知２丁目１８５番１号Ｂ,,14,212,2430806,,,,,,,2024-02-27,1,,,,,ケーエヌエルショウカイ,0
2007,9030001158719,新規,0,2024-02-27,2024-02-27,国奥企画株式会社,,株式会社,埼玉県,蕨市,北町４丁目９－８ライオンズマンション蕨３０５号室,,11,223,3350001,,,,,,,2024-02-27,1,,,,,コクオクキカク,0
2008,9030001158826,新規,0,2024-02-27,2024-02-27,株式会社ＲＯＴＡＰＡ,,株式会社,埼玉県,越谷市,大字増森１１９９番地,,11,222,3430012,,,,,,,2024-02-27,1,,,,,ロタパ,0
2009,9030001158834,新規,0,2024-02-27,2024-02-27,株式会社Ｐｅｔ　ｂａｂｙ,,株式会社,埼玉県,志木市,柏町１丁目６－３３－１０１４号室,,11,228,3530007,,,,,,,2024-02-27,1,,,,,ペットベイビー,0
2010,9030001158875,新規,0,2024-02-27,2024-02-27,三笠商会株式会社,,株式会社,埼玉県,本庄市,児玉町下浅見４１３番地１,,11,211,3670202,,,,,,,2024-02-27,1,,,,,ミカサショウカイ,0
2011,9030001158891,新規,0,2024-02-27,2024-02-27,株式会社ＦＰリークス,,株式会社,埼玉県,さいたま市南区,南浦和３丁目４４番１６号,,11,108,3360017,,,,,,,2024-02-27,1,,,,,エフピーリークス,0
2012,9030001158909,新規,0,2024-02-27,2024-02-27,株式会社ＢＥＥ　ＶＯＹＡＧＥ,,株式会社,埼玉県,さいたま市緑区,東浦和５丁目９番地２６,,11,109,3360926,,,,,,,2024-02-27,1,,,,,ビーボヤージュ,0
2019,9030003023697,新規,0,2024-02-27,2024-02-27,合同会社瀬戸電工,,合同会社,埼玉県,さいたま市見沼区,春野２丁目４番２－２０１号,,11,104,3370002,,,,,,,2024-02-27,1,,,,,セトデンコウ,0
2020,9030003023706,新規,0,2024-02-27,2024-02-27,合同会社ＳＡＭ,,合同会社,埼玉県,川口市,並木３丁目２４番１７号ベルトピア西川口５０２,,11,203,3320034,,,,,,,2024-02-27,1,,,,,エスエイエム,0
2023,9040001132350,新規,0,2024-02-27,2024-02-27,グロートラスト株式会社,,株式会社,千葉県,松戸市,六実２丁目１４番地の３７,,12,207,2702204,,,,,,,2024-02-27,1,,,,,グロートラスト,0
2024,9040001132359,新規,0,2024-02-27,2024-02-27,オンステージ株式会社,,株式会社,千葉県,千葉市花見川区,南花園１丁目４－６,,12,102,2620022,,,,,,,2024-02-27,1,,,,,オンステージ,0
2025,9040001132367,新規,0,2024-02-27,2024-02-27,株式会社ＬＵＣＲＡＳ,,株式会社,千葉県,船橋市,高野台１丁目１９番７号,,12,204,2740801,,,,,,,2024-02-27,1,,,,,ルクラス,0
2026,9040001132400,新規,0,2024-02-27,2024-02-27,株式会社つなぐちから,,株式会社,千葉県,柏市,若柴１７８番地４柏の葉キャンパス１４８街区２ショップ＆オフィス棟６Ｆ,,12,217,2770871,,,,,,,2024-02-27,1,,,,,ツナグチカラ,0
2030,9070001041433,新規,0,2024-02-27,2024-02-27,株式会社Ｌａｎｅ,,株式会社,群馬県,邑楽郡大泉町,大字吉田３２８４番地,,10,524,3700523,,,,,,,2024-02-27,1,,,,,レーン,0
2033,9080103002992,新規,0,2024-02-27,2024-02-27,ＴａＫ　Ｃｏｎｓｕｌｔｉｎｇ合同会社,,合同会社,静岡県,富士市,神戸５６３番地の８,,22,210,4170807,,,,,,,2024-02-27,1,,,,,ティーエーケーコンサルティング,0
2038,9110001038202,新規,0,2024-02-27,2024-02-27,株式会社中村圭佑建築設計事務所,,株式会社,新潟県,新潟市中央区,姥ケ山６丁目１３番１８号,,15,103,9500923,,,,,,,2024-02-27,1,,,,,ナカムラケイスケケンチクセッケイジムショ,0
2051,9120001262610,新規,0,2024-02-27,2024-02-27,株式会社花咲商事,,株式会社,大阪府,大阪市淀川区,十三東１丁目１４番２号,,27,123,5320023,,,,,,,2024-02-27,1,,,,,ハナサキショウジ,0
2052,9120001262635,新規,0,2024-02-27,2024-02-27,株式会社永輝会,,株式会社,大阪府,大阪市天王寺区,玉造本町１１番８号,,27,109,5430013,,,,,,,2024-02-27,1,,,,,エイキカイ,0
2053,9120001262643,新規,0,2024-02-27,2024-02-27,株式会社リクブル,,株式会社,大阪府,大阪市淀川区,西中島４丁目６番３０号チサンマンション第５新大阪３０６,,27,123,5320011,,,,,,,2024-02-27,1,,,,,リクブル,0
2054,9120001262668,新規,0,2024-02-27,2024-02-27,株式会社エムプランニング,,株式会社,大阪府,大阪市中央区,本町２丁目３番４号アソルティ本町４Ｆ,,27,128,5410053,,,,,,,2024-02-27,1,,,,,エムプランニング,0
2057,9120003026039,新規,0,2024-02-27,2024-02-27,合同会社こころね,,合同会社,大阪府,大阪市生野区,田島６丁目１６番１５号,,27,116,5440011,,,,,,,2024-02-27,1,,,,,ココロネ,0
2061,9120101069121,新規,0,2024-02-27,2024-02-27,株式会社関貿商事,,株式会社,大阪府,堺市南区,片蔵４８１番地１,,27,145,5900121,,,,,,,2024-02-27,1,,,,,カンボウショウジ,0
2062,9120103005693,新規,0,2024-02-27,2024-02-27,長安商事合同会社,,合同会社,大阪府,堺市堺区,大仙中町８－２４,,27,141,5900801,,,,,,,2024-02-27,1,,,,,チョウアンショウジ,0
2063,9120903005059,新規,0,2024-02-27,2024-02-27,すこやかスマイル合同会社,,合同会社,大阪府,豊中市,東豊中町６丁目２０番１８号,,27,203,5600003,,,,,,,2024-02-27,1,,,,,スコヤカスマイル,0
2067,9130001076431,新規,0,2024-02-27,2024-02-27,株式会社京都寿庵,,株式会社,京都府,京都市下京区,藪下町６番地ＭＯＲＥ五条ＩＩ１階,00133869,26,106,6008448,,,,,,,2024-02-27,1,,,,,キョウトジュアン,0
2070,9130003009331,新規,0,2024-02-27,2024-02-27,ＹＧＴ合同会社,,合同会社,京都府,京都市下京区,七条通油小路東入大黒町２２７番地,,26,106,6008223,,,,,,,2024-02-27,1,,,,,ワイジーティー,0
2077,9140001133454,新規,0,2024-02-27,2024-02-27,株式会社ｎａｎａｉｒｏ,,株式会社,兵庫県,神戸市長田区,五位ノ池町４丁目６－１３,,28,106,6530851,,,,,,,2024-02-27,1,,,,,ナナイロ,0
2078,9140001133512,新規,0,2024-02-27,2024-02-27,株式会社ＫＢ金属,,株式会社,兵庫県,姫路市,四郷町坂元１６２番地１,,28,201,6710246,,,,,,,2024-02-27,1,,,,,ケービーキンゾク,0
2083,9140003020196,新規,0,2024-02-27,2024-02-27,東南サンライズ合同会社,,合同会社,兵庫県,神戸市中央区,花隈町２２番３号朱ビル３０２号室,,28,110,6500013,,,,,,,2024-02-27,1,,,,,トウナンサンライズ,0
2090,9160001025708,新規,0,2024-02-27,2024-02-27,株式会社ハウスフォーユー,,株式会社,滋賀県,大津市,松山町６－３０ＦＬＡＰビル２０２,,25,201,5200024,,,,,,,2024-02-27,1,,,,,ハウスフォーユー,0
2095,9180001160296,新規,0,2024-02-27,2024-02-27,サイバートレーディング株式会社,,株式会社,愛知県,名古屋市港区,藤前４丁目８０９番地,,23,111,4550855,,,,,,,2024-02-27,1,,,,,サイバートレーディング,0
2096,9180001160305,新規,0,2024-02-27,2024-02-27,株式会社５４,,株式会社,愛知県,名古屋市中区,錦３丁目１２番１７号内外ビル１階,,23,106,4600003,,,,,,,2024-02-27,1,,,,,フィフティーフォー,0
2097,9180001160313,新規,0,2024-02-27,2024-02-27,株式会社ＳＵＮ,,株式会社,愛知県,名古屋市中区,栄３丁目１１番１６号ＳＯＫ住吉ビル１Ｂ,,23,106,4600008,,,,,,,2024-02-27,1,,,,,サン,0
2103,9200001042194,新規,0,2024-02-27,2024-02-27,株式会社イヴァルヴ,,株式会社,岐阜県,岐阜市,北一色１０丁目１７番８号,,21,201,5008227,,,,,,,2024-02-27,1,,,,,イヴァルヴ,0
2108,9210001019646,新規,0,2024-02-27,2024-02-27,アドバンスネクスト株式会社,,株式会社,福井県,福井市,成和１丁目２８１６番地,,18,201,9188239,,,,,,,2024-02-27,1,,,,,アドバンスネクスト,0
2110,9220001025833,新規,0,2024-02-27,2024-02-27,株式会社ＡＧＥ　ＬＥＡＰ,,株式会社,石川県,金沢市,森戸２丁目１５番地３,,17,201,9218061,,,,,,,2024-02-27,1,,,,,エージリープ,0
2113,9240001062841,新規,0,2024-02-27,2024-02-27,株式会社ロードトゥワールド,,株式会社,広島県,広島市中区,堀川町４番１４号１Ｆ,,34,101,7300033,,,,,,,2024-02-27,1,,,,,ロードトゥワールド,0
2115,9240003006557,新規,0,2024-02-27,2024-02-27,合同会社古着のニーナ,,合同会社,広島県,広島市中区,江波南２丁目１番１９－２７号,,34,101,7300835,,,,,,,2024-02-27,1,,,,,フルギノニーナ,0
2124,9290001104829,新規,0,2024-02-27,2024-02-27,ＧＩＫＯ　ＨＯＬＤＩＮＧＳ株式会社,,株式会社,福岡県,大野城市,御笠川２丁目８番１１号,,40,219,8160912,,,,,,,2024-02-27,1,,,,,ギコウホールディングス,0
2125,9290001104837,新規,0,2024-02-27,2024-02-27,株式会社スミヨシ,,株式会社,福岡県,糟屋郡須惠町,大字植木５３７番地８,,40,344,8112112,,,,,,,2024-02-27,1,,,,,スミヨシ,0
2126,9290001104845,新規,0,2024-02-27,2024-02-27,株式会社エフ企画,,株式会社,福岡県,福岡市中央区,大名２丁目９番２９号,,40,133,8100041,,,,,,,2024-02-27,1,,,,,エフキカク,0
2127,9290803004631,新規,0,2024-02-27,2024-02-27,合同会社ＴＷＩＮＫＬＥ,,合同会社,福岡県,北九州市八幡西区,塔野１丁目４－３,,40,109,8070085,,,,,,,2024-02-27,1,,,,,トゥインクル,0
2135,9330003010236,新規,0,2024-02-27,2024-02-27,ランブルウィズ合同会社,,合同会社,熊本県,熊本市西区,二本木１丁目３番８号ウッドフォレスト熊本駅前２０５号,,43,103,8600051,,,,,,,2024-02-27,1,,,,,ランブルウィズ,0
2137,9340001026308,新規,0,2024-02-27,2024-02-27,株式会社ＳＡＥＴＡ,,株式会社,鹿児島県,志布志市,志布志町安楽２５９番地２－Ａ２,,46,221,8997104,,,,,,,2024-02-27,1,,,,,サエタ,0
2143,9360001033244,新規,0,2024-02-27,2024-02-27,株式会社コムスティック,,株式会社,沖縄県,浦添市,仲間２丁目５番３号１Ｆ,,47,208,9012103,,,,,,,2024-02-27,1,,,,,コムスティック,0
2144,9360001033252,新規,0,2024-02-27,2024-02-27,株式会社ＴＹＥＯ．ＪＡＰＡＮ,,株式会社,沖縄県,那覇市,曙２丁目２３番２７号,,47,201,9000002,,,,,,,2024-02-27,1,,,,,タイヨージャパン,0
2146,9370001050973,新規,0,2024-02-27,2024-02-27,株式会社アーバンス,,株式会社,宮城県,仙台市青葉区,みやぎ台３丁目３８番５－１号,,04,101,9893214,,,,,,,2024-02-27,1,,,,,アーバンス,0
2150,9380001034323,新規,0,2024-02-27,2024-02-27,株式会社Ｂａ．ｂｕ,,株式会社,福島県,西白河郡西郷村,大字真船字下川前５番地１,,07,461,9618071,,,,,,,2024-02-27,1,,,,,バブ,0
2151,9380003005693,新規,0,2024-02-27,2024-02-27,合同会社プライムファーム会津,,合同会社,福島県,会津若松市,神指町大字南四合字幕内７６番地,,07,202,9650858,,,,,,,2024-02-27,1,,,,,,0
2152,9390005009056,新規,0,2024-02-27,2024-02-27,特定非営利活動法人山辺の里スポーツクラブ,,その他の設立登記法人,山形県,東村山郡山辺町,緑ケ丘１番地,,06,301,9900302,,,,,,,2024-02-27,1,,,,,ヤマノベノサトスポーツクラブ,0
2157,9430001091152,新規,0,2024-02-27,2024-02-27,株式会社シイナ鉱業,,株式会社,北海道,夕張郡長沼町,西９線南５番地,,01,428,0691479,,,,,,,2024-02-27,1,,,,,シイナコウギョウ,0
2160,9430003015992,新規,0,2024-02-27,2024-02-27,合同会社リユースファクトリー,,合同会社,北海道,札幌市厚別区,厚別西四条５丁目３番１１号,,01,108,0040064,,,,,,,2024-02-27,1,,,,,リユースファクトリー,0
2165,9500001025474,新規,0,2024-02-27,2024-02-27,双海最高カンパニー株式会社,,株式会社,愛媛県,伊予市,双海町高岸甲９５６番地５,,38,210,7993207,,,,,,,2024-02-27,1,,,,,フタミサイコウカンパニー,0
2167,9700150124057,新規,0,2024-02-27,2024-02-27,ＥＣＯ　ＴＲＥＮＤ　Ｉｎｃ,,外国会社等,,,,,,,,８００　Ｌａｒａｍｉｅ　Ａｖｅ，ＩＬ　ＵＳＡ,,,,,,2024-02-27,1,,,,,エコトレントインコーポレイテイツド,0
2168,9700150124206,新規,0,2024-02-27,2024-02-27,福津市宮司二区自治会,,その他,福岡県,福津市,宮司２丁目８番２１号,,40,224,8113305,,,,,,,2024-02-27,1,,,,,フクツシミヤジニクジチカイ,0
