sequenceNumber,corporateNumber,process,correct,updateDate,changeDate,name,nameImageId,kind,prefectureName,cityName,streetNumber,addressImageId,prefectureCode,cityCode,postCode,addressOutside,addressOutsideImageId,closeDate,closeCause,successorCorporateNumber,changeCause,assignmentDate,latest,enName,enPrefectureName,enCityName,enAddressOutside,furigana,hihyoji
11,1010003035297,新規,0,2021-07-14,2021-07-14,ＨＩＮＯＤＥ１７合同会社,,合同会社,東京都,中央区,京橋１丁目６番１３号,,13,102,1040031,,,,,,,2021-07-14,1,,,,,ヒノデジュウナナ,0
12,1010003035306,新規,0,2021-07-14,2021-07-14,ＨＩＮＯＤＥ２６合同会社,,合同会社,東京都,中央区,京橋１丁目６番１３号,,13,102,1040031,,,,,,,2021-07-14,1,,,,,ヒノデニジュウロク,0
13,1010005033621,新規,0,2021-07-14,2021-07-14,行政書士法人スマートサイド,,その他の設立登記法人,東京都,文京区,小石川１丁目３番２３号ル・ビジュー６０１,,13,105,1120002,,,,,,,2021-07-14,1,,,,,スマートサイド,0
14,1010005033638,新規,0,2021-07-14,2021-07-14,弁護士法人東京総合マンション管理法律事務所,,その他の設立登記法人,東京都,中央区,銀座８丁目８番５号太陽ビル９階,,13,102,1040061,,,,,,,2021-07-14,1,,,,,トウキョウソウゴウマンションカンリホウリツジムショ,0
15,1010005033679,新規,0,2021-07-14,2021-07-14,一般社団法人ＫＯＧＫホールディングス,,その他の設立登記法人,東京都,千代田区,丸の内３丁目１番１号東京共同会計事務所内,,13,101,1000005,,,,,,,2021-07-14,1,,,,,ケーオージーケーホールディングス,0
26,1010401161463,新規,0,2021-07-14,2021-07-14,ｇｒａｎｄ　ｄｅｓｉｇｎ　ｃｒａｄｌｅ株式会社,,株式会社,東京都,港区,港南２丁目１５番１品川インターシティＡ棟２８階,,13,103,1080075,,,,,,,2021-07-14,1,,,,,グランドデザインクレイドル,0
29,1010403025724,新規,0,2021-07-14,2021-07-14,合同会社パパゲーノ,,合同会社,東京都,港区,南青山２丁目２番１５号,,13,103,1070062,,,,,,,2021-07-14,1,,,,,パパゲーノ,0
39,1011001141756,新規,0,2021-07-14,2021-07-14,株式会社Ｃｈｉｍｎｅｙ　Ｃｏｆｆｅｅ,,株式会社,東京都,渋谷区,神南１丁目８番１７号横山ビル５Ｆ,,13,113,1500041,,,,,,,2021-07-14,1,,,,,チムニーコーヒー,0
43,1011101095687,新規,0,2021-07-14,2021-07-14,株式会社ＭｕｕｕＢａ,,株式会社,東京都,新宿区,西早稲田２丁目１１番１３号第一山武ビル１Ｆ,,13,104,1690051,,,,,,,2021-07-14,1,,,,,ミューバ,0
44,1011101095695,新規,0,2021-07-14,2021-07-14,株式会社ラテリー,,株式会社,東京都,新宿区,西新宿７丁目１９－１５小田切ビル４Ｆ,,13,104,1600023,,,,,,,2021-07-14,1,,,,,ラテリー,0
45,1011101095720,新規,0,2021-07-14,2021-07-14,株式会社Ｎｅｘｔ　Ｉｎｎｏｖａｔｉｏｎ,,株式会社,東京都,新宿区,百人町１丁目２３番２６号みなみビル１Ｆ－Ａ号室,,13,104,1690073,,,,,,,2021-07-14,1,,,,,ネクストイノベーション,0
50,1011403003380,新規,0,2021-07-14,2021-07-14,合同会社ワイズ,,合同会社,東京都,板橋区,大和町２５番９－７０７号,,13,119,1730012,,,,,,,2021-07-14,1,,,,,ワイズ,0
57,1012303001565,新規,0,2021-07-14,2021-07-14,合同会社Ｍ．ＬＩＮＥ,,合同会社,東京都,町田市,三輪町５３９番地８８,,13,209,1950054,,,,,,,2021-07-14,1,,,,,エムライン,0
60,1012403004939,新規,0,2021-07-14,2021-07-14,合同会社Ｆｉｆｔｙ　ｂｅｌｌ,,合同会社,東京都,調布市,多摩川５丁目１番地６シュロス京王多摩川３０３,,13,208,1820025,,,,,,,2021-07-14,1,,,,,フィフティーベル,0
64,1012801020959,新規,0,2021-07-14,2021-07-14,ＦＲＯＮＴＬＩＮＥ株式会社,,株式会社,東京都,武蔵村山市,大南５丁目１番地の１７７,,13,223,2080013,,,,,,,2021-07-14,1,,,,,フロントライン,0
66,1012805003035,新規,0,2021-07-14,2021-07-14,一般社団法人ブラインドボクシング協会,,その他の設立登記法人,東京都,昭島市,昭和町５丁目６番３号１Ｆ,,13,207,1960015,,,,,,,2021-07-14,1,,,,,ブラインドボクシングキョウカイ,0
94,1030001143273,新規,0,2021-07-14,2021-07-14,株式会社チェンジデザイン,,株式会社,埼玉県,吉川市,中曽根１丁目４番地４７,,11,243,3420033,,,,,,,2021-07-14,1,,,,,チェンジデザイン,0
95,1030001143348,新規,0,2021-07-14,2021-07-14,株式会社大運俊送,,株式会社,埼玉県,さいたま市桜区,町谷３丁目９番１７－６０１号,,11,106,3380836,,,,,,,2021-07-14,1,,,,,オオウンシュンソウ,0
96,1030001143356,新規,0,2021-07-14,2021-07-14,株式会社スマートプロ,,株式会社,埼玉県,さいたま市大宮区,堀の内町２丁目４２番地１,,11,103,3300804,,,,,,,2021-07-14,1,,,,,スマートプロ,0
98,1030003017608,新規,0,2021-07-14,2021-07-14,合同会社ＴＬＭ,,合同会社,埼玉県,川越市,大字上戸３０７番地７,,11,201,3500816,,,,,,,2021-07-14,1,,,,,ティーエルエム,0
100,1030005020444,新規,0,2021-07-14,2021-07-14,一般社団法人上高野スポーツクラブ,,その他の設立登記法人,埼玉県,幸手市,南３丁目９番５号,,11,240,3400156,,,,,,,2021-07-14,1,,,,,カミタカノスポーツクラブ,0
106,1040001119371,新規,0,2021-07-14,2021-07-14,株式会社ＲＯＡＤ　ＯＮＥ,,株式会社,千葉県,我孫子市,布佐３２６５－２,,12,222,2701101,,,,,,,2021-07-14,1,,,,,ロードワン,0
118,1060001033876,新規,0,2021-07-14,2021-07-14,株式会社生井いちご農園,,株式会社,栃木県,栃木市,大平町牛久２００番地,,09,203,3294401,,,,,,,2021-07-14,1,,,,,ナマイイチゴノウエン,0
121,1070001038271,新規,0,2021-07-14,2021-07-14,丸友不動産株式会社,,株式会社,群馬県,高崎市,柴崎町２３１３番地２,,10,202,3700035,,,,,,,2021-07-14,1,,,,,マルユウフドウサン,0
124,1070003004180,新規,0,2021-07-14,2021-07-14,サインハート合同会社,,合同会社,群馬県,高崎市,台新田町１９３番地３サンライズ１０５,,10,202,3701206,,,,,,,2021-07-14,1,,,,,サインハート,0
126,1080001024320,新規,0,2021-07-14,2021-07-14,Ｂｌｕｅ　Ｆａｒｍ株式会社,,株式会社,静岡県,静岡市葵区,紺屋町１７－１葵タワー,,22,101,4200852,,,,,,,2021-07-14,1,,,,,ブルーファーム,0
135,1090001017091,新規,0,2021-07-14,2021-07-14,株式会社アスパラ社,,株式会社,山梨県,中巨摩郡昭和町,清水新居１０２番地６,,19,384,4093867,,,,,,,2021-07-14,1,,,,,アスパラシャ,0
139,1100001034408,新規,0,2021-07-14,2021-07-14,ほけんの解決株式会社,,株式会社,長野県,諏訪市,大字上諏訪１３２２２番地,,20,206,3920003,,,,,,,2021-07-14,1,,,,,ホケンノカイケツ,0
155,1120001239038,新規,0,2021-07-14,2021-07-14,株式会社ＴＲ工業,,株式会社,大阪府,大阪市東住吉区,矢田１丁目７番６号フォレスト長居公園１０１号,,27,121,5460023,,,,,,,2021-07-14,1,,,,,ティーアールコウギョウ,0
156,1120001239054,新規,0,2021-07-14,2021-07-14,株式会社ヒューマンキャンパス,,株式会社,大阪府,大阪市中央区,内久宝寺町４丁目３番８号,,27,128,5400013,,,,,,,2021-07-14,1,,,,,ヒューマンキャンパス,0
160,1120005022373,新規,0,2021-07-14,2021-07-14,一般社団法人全国障がい者就労支援協会,,その他の設立登記法人,大阪府,大阪市中央区,博労町４丁目２番８号ＬＯＧＥＲ４０１,,27,128,5410059,,,,,,,2021-07-14,1,,,,,ゼンコクリショウガイシャシュウロウシエンキョウカイ,0
161,1120005022381,新規,0,2021-07-14,2021-07-14,医療法人歯科ひがしうら,,その他の設立登記法人,大阪府,枚方市,香里園町１２番９１号,,27,210,5730086,,,,,,,2021-07-14,1,,,,,シカヒガシウラ,0
167,1120101063981,新規,0,2021-07-14,2021-07-14,株式会社ｅｘｅｅ,,株式会社,大阪府,堺市中区,深阪２丁２番２４号,,27,142,5998253,,,,,,,2021-07-14,1,,,,,エグゼイ,0
169,1120903003747,新規,0,2021-07-14,2021-07-14,合同会社ＳａｓｓａＤｅｓｉｇｎ,,合同会社,大阪府,豊中市,本町１丁目４番１９－２０３号,,27,203,5600021,,,,,,,2021-07-14,1,,,,,サッサデザイン,0
177,1140001122299,新規,0,2021-07-14,2021-07-14,株式会社イロドリ,,株式会社,兵庫県,神戸市須磨区,東白川台１丁目１６番地６,,28,107,6540102,,,,,,,2021-07-14,1,,,,,イロドリ,0
178,1140001122357,新規,0,2021-07-14,2021-07-14,株式会社Ｒ＆Ｋ,,株式会社,兵庫県,姫路市,城北新町２丁目１７番７号,,28,201,6700883,,,,,,,2021-07-14,1,,,,,アールアンドケー,0
199,1180301035164,新規,0,2021-07-14,2021-07-14,株式会社Ｎｕｏｖｏ　Ｍｏｎｄｏ,,株式会社,愛知県,西尾市,志貴野町出崎１５０番地２,,23,213,4450084,,,,,,,2021-07-14,1,,,,,,0
203,1190001028509,新規,0,2021-07-14,2021-07-14,株式会社Ｒｅ,,株式会社,三重県,伊賀市,柘植町２６４８番地の１０３,,24,216,5191402,,,,,,,2021-07-14,1,,,,,アールイー,0
204,1190001028517,新規,0,2021-07-14,2021-07-14,株式会社りえ不動産,,株式会社,三重県,四日市市,市場町１８１４番地,,24,202,5121302,,,,,,,2021-07-14,1,,,,,リエフドウサン,0
206,1190003003724,新規,0,2021-07-14,2021-07-14,Ｌｏｇｉｃ‐ｐｌｕｓ合同会社,,合同会社,三重県,伊勢市,村松町３０９９番地１,,24,203,5150507,,,,,,,2021-07-14,1,,,,,ロジックプラス,0
231,1290001093831,新規,0,2021-07-14,2021-07-14,株式会社イリス,,株式会社,福岡県,久留米市,野中町８４３番地１,,40,203,8390862,,,,,,,2021-07-14,1,,,,,イリス,0
232,1290001093897,新規,0,2021-07-14,2021-07-14,株式会社古賀商店,,株式会社,福岡県,福岡市博多区,博多駅前２丁目１７番１５号ＮＰＣビル４階,,40,132,8120011,,,,,,,2021-07-14,1,,,,,コガショウテン,0
235,1290801027617,新規,0,2021-07-14,2021-07-14,美味しい時間株式会社,,株式会社,福岡県,遠賀郡遠賀町,大字今古賀４９９番地１,,40,384,8114303,,,,,,,2021-07-14,1,,,,,オイシイジカン,0
236,1290801027625,新規,0,2021-07-14,2021-07-14,株式会社Ｂｒａｎｄｉｎｇ　Ｓｐａｃｅ,,株式会社,福岡県,北九州市小倉北区,京町３丁目１番１号セントシティ北九州７Ｆ,,40,106,8020002,,,,,,,2021-07-14,1,,,,,ブランディングスペース,0
247,1330001028799,新規,0,2021-07-14,2021-07-14,株式会社Ｊ．Ｈ．Ｗｅｌｌｎｅｓｓ,,株式会社,熊本県,熊本市中央区,桜町１番２５号,,43,101,8600805,,,,,,,2021-07-14,1,,,,,ジェイエイチウェルネス,0
250,1330005010365,新規,0,2021-07-14,2021-07-14,ＡＩＡ事業協同組合,,その他の設立登記法人,熊本県,阿蘇市,黒川１７５９番地４,,43,214,8692225,,,,,,,2021-07-14,1,,,,,エーアイエー,0
253,1340005009316,新規,0,2021-07-14,2021-07-14,特定非営利活動法人すまいる福祉会,,その他の設立登記法人,鹿児島県,大島郡徳之島町,亀津３０７５政木アパート２階,,46,530,8917101,,,,,,,2021-07-14,1,,,,,,0
257,1360001029076,新規,0,2021-07-14,2021-07-14,株式会社エメトレス,,株式会社,沖縄県,中頭郡北谷町,字宮城１番地５５６,,47,326,9040113,,,,,,,2021-07-14,1,,,,,エメトレス,0
270,1380005012456,新規,0,2021-07-14,2021-07-14,特定非営利活動法人お喜らく,,その他の設立登記法人,福島県,福島市,飯坂町平野字堂天前１１,,07,201,9600231,,,,,,,2021-07-14,1,,,,,オキラク,0
294,1470001018613,新規,0,2021-07-14,2021-07-14,株式会社威吹,,株式会社,香川県,高松市,牟礼町大町中代１４１５－１０６,,37,201,7610122,,,,,,,2021-07-14,1,,,,,イブキ,0
296,1500003002669,新規,0,2021-07-14,2021-07-14,合同会社ＭＩＹＡＯ,,合同会社,愛媛県,松山市,一番町１丁目１１番地９,,38,201,7900001,,,,,,,2021-07-14,1,,,,,ミヤオ,0
298,1700150104099,新規,0,2021-07-14,2021-07-14,ＩＳＲＡＡ　ＧＥＭＳ,,外国会社等,千葉県,匝瑳市,飯塚１１２５匝瑳ビジネスオフィス１－Ｅ,,12,235,2892106,スリランカ民主社会主義共和国、Ｎｏ．３０４／１／Ａ、マレガマ、アンバテナ,,,,,,2021-07-14,1,,,,,イスラアゲムス,0
299,1700150104108,新規,0,2021-07-14,2021-07-14,千葉県日産自動車企業年金基金,,その他,千葉県,千葉市美浜区,新港１８４,,12,106,2610002,,,,,,,2021-07-14,1,,,,,チバケンニツサンジドウシヤキギヨウネンキンキキン,0
308,2010001219504,新規,0,2021-07-14,2021-07-14,株式会社不動産動画制作,,株式会社,東京都,千代田区,丸の内１丁目６－５丸の内北口ビルディング９階,,13,101,1000005,,,,,,,2021-07-14,1,,,,,フドウサンドウガセイサク,0
309,2010001219644,新規,0,2021-07-14,2021-07-14,株式会社チルコロ,,株式会社,東京都,中央区,築地７丁目１６番６－７０１号,,13,102,1040045,,,,,,,2021-07-14,1,,,,,チルコロ,0
310,2010001219669,新規,0,2021-07-14,2021-07-14,株式会社ＨＡＦＴ　ＤＥＳＩＧＮ,,株式会社,東京都,千代田区,内神田３丁目２４番７号,,13,101,1010047,,,,,,,2021-07-14,1,,,,,ハフトデザイン,0
311,2010001219702,新規,0,2021-07-14,2021-07-14,東京晨美光学電子株式会社,,株式会社,東京都,中央区,湊１丁目７－４ＭＪビル７Ｆ,,13,102,1040043,,,,,,,2021-07-14,1,,,,,トウキョウシンビコウガクデンシ,0
315,2010003035296,新規,0,2021-07-14,2021-07-14,ＨＩＮＯＤＥ１６合同会社,,合同会社,東京都,中央区,京橋１丁目６番１３号,,13,102,1040031,,,,,,,2021-07-14,1,,,,,ヒノデジュウロク,0
316,2010003035305,新規,0,2021-07-14,2021-07-14,ＨＩＮＯＤＥ２５合同会社,,合同会社,東京都,中央区,京橋１丁目６番１３号,,13,102,1040031,,,,,,,2021-07-14,1,,,,,ヒノデニジュウゴ,0
319,2010005033612,新規,0,2021-07-14,2021-07-14,特許業務法人湧泉特許事務所,,その他の設立登記法人,東京都,千代田区,二番町１０番地３ビーエム長野ビル３階,,13,101,1020084,,,,,,,2021-07-14,1,,,,,ユウセントッキョジムショ,0
320,2010005033678,新規,0,2021-07-14,2021-07-14,一般社団法人ＷＫＳＦ１号,,その他の設立登記法人,東京都,千代田区,丸の内３丁目１番１号東京共同会計事務所内,,13,101,1000005,,,,,,,2021-07-14,1,,,,,ダブリューケーエスエフイチゴウ,0
328,2010401161462,新規,0,2021-07-14,2021-07-14,株式会社ａｎｄｇｒａｓｓ,,株式会社,東京都,港区,三田１丁目１番１５号三田ソネットビル４Ｆ,,13,103,1080073,,,,,,,2021-07-14,1,,,,,アンドグラス,0
329,2010401161529,新規,0,2021-07-14,2021-07-14,株式会社三瓶利正総合技術研究所,,株式会社,東京都,港区,芝５丁目２５－１１,,13,103,1080014,,,,,,,2021-07-14,1,,,,,サンペイトシマサソウゴウギジュツケンキュウショ,0
332,2010403025715,新規,0,2021-07-14,2021-07-14,合同会社ＳＡＰ　Ｓｈｉｍｏ,,合同会社,東京都,港区,虎ノ門５丁目１番４号,,13,103,1050001,,,,,,,2021-07-14,1,,,,,エスエーピーシモ,0
333,2010405020004,新規,0,2021-07-14,2021-07-14,一般社団法人社会エネルギー研究所,,その他の設立登記法人,東京都,港区,芝２丁目５番１０号芝公園ＮＤビル,,13,103,1050014,,,,,,,2021-07-14,1,,,,,シャカイエネルギーケンキュウショ,0
348,2010901049083,新規,0,2021-07-14,2021-07-14,株式会社プロテクション,,株式会社,東京都,世田谷区,池尻２丁目３４番１８－２０５号,,13,112,1540001,,,,,,,2021-07-14,1,,,,,プロテクション,0
358,2011001141755,新規,0,2021-07-14,2021-07-14,株式会社ＥＬＩＳＡ　ＳＵＭＩＴＡ　ＤＥＳＩＧＮ,,株式会社,東京都,渋谷区,神宮前２丁目３０番２６－１０５号,,13,113,1500001,,,,,,,2021-07-14,1,,,,,エリサスミタデザイン,0
359,2011001141771,新規,0,2021-07-14,2021-07-14,株式会社Ｉｚｕｍｉｒ,,株式会社,東京都,渋谷区,元代々木町４８番１０号ＰＡＴＨ３０３,,13,113,1510062,,,,,,,2021-07-14,1,,,,,イズミール,0
360,2011001141805,新規,0,2021-07-14,2021-07-14,株式会社Ａ　ＳＰＡＣＥ,,株式会社,東京都,渋谷区,代々木３丁目８番１－４０５号,,13,113,1510053,,,,,,,2021-07-14,1,,,,,エースペース,0
363,2011103010866,新規,0,2021-07-14,2021-07-14,合同会社Ｍ＆Ａコーポレーション,,合同会社,東京都,新宿区,歌舞伎町２丁目１０－１石黒商事ビル７Ｆ,,13,104,1600021,,,,,,,2021-07-14,1,,,,,エムアンドエーコーポレーション,0
364,2011201023118,新規,0,2021-07-14,2021-07-14,株式会社ＤＥＮ,,株式会社,東京都,中野区,東中野１丁目３３－１５グレーシア東中野３０８号室,,13,114,1640003,,,,,,,2021-07-14,1,,,,,デン,0
369,2011601025259,新規,0,2021-07-14,2021-07-14,株式会社丹精舎,,株式会社,東京都,練馬区,富士見台３丁目２２番４号,,13,120,1770034,,,,,,,2021-07-14,1,,,,,タンセイシャ,0
372,2011801039455,新規,0,2021-07-14,2021-07-14,東洋キャップ製造株式会社,,株式会社,東京都,足立区,宮城１丁目３番１５号,,13,121,1200047,,,,,,,2021-07-14,1,,,,,トウヨウキャップセイゾウ,0
374,2012403004938,新規,0,2021-07-14,2021-07-14,ｈａｎｉｗｅｌｌ合同会社,,合同会社,東京都,三鷹市,上連雀８丁目２７－１,,13,204,1810012,,,,,,,2021-07-14,1,,,,,ハニウェル,0
375,2013301047715,新規,0,2021-07-14,2021-07-14,株式会社ＡＩＮＣＬＡＤ,,株式会社,東京都,豊島区,東池袋１丁目３４番５号いちご東池袋ビル６階,,13,116,1700013,,,,,,,2021-07-14,1,,,,,アインクラッド,0
376,2013305003235,新規,0,2021-07-14,2021-07-14,一般社団法人オンプラゾリステン,,その他の設立登記法人,東京都,豊島区,高田２丁目１８番２７号,,13,116,1710033,,,,,,,2021-07-14,1,,,,,オンプラゾリステン,0
391,2020003020165,新規,0,2021-07-14,2021-07-14,ｍｙｋ合同会社,,合同会社,神奈川県,横浜市保土ケ谷区,川辺町５番地２２,,14,106,2400001,,,,,,,2021-07-14,1,,,,,エムワイケー,0
402,2021001073287,新規,0,2021-07-14,2021-07-14,株式会社ＫＤＩ,,株式会社,神奈川県,足柄上郡中井町,遠藤１３５番地１,,14,361,2590141,,,,,,,2021-07-14,1,,,,,,0
414,2030001143322,新規,0,2021-07-14,2021-07-14,ＡＳＩＡＮ　ＣＡＶＥ株式会社,,株式会社,埼玉県,川口市,末広１丁目１３番８号,,11,203,3320006,,,,,,,2021-07-14,1,,,,,アジアンケイブ,0
415,2030001143339,新規,0,2021-07-14,2021-07-14,株式会社ドライクリーンナルセ,,株式会社,埼玉県,桶川市,大字上日出谷９０４番地の８,,11,231,3630026,,,,,,,2021-07-14,1,,,,,ドライクリーンナルセ,0
416,2030001143347,新規,0,2021-07-14,2021-07-14,株式会社ＴＳＳ,,株式会社,埼玉県,川口市,大字石神６１８番地の３,,11,203,3330823,,,,,,,2021-07-14,1,,,,,ティエスエス,0
422,2030005020443,新規,0,2021-07-14,2021-07-14,ＮＰＯ法人鶴ヶ島国際友好ふれあい会,,その他の設立登記法人,埼玉県,鶴ヶ島市,新町４丁目１２番２３,,11,241,3502227,,,,,,,2021-07-14,1,,,,,ツルガシマシコクサイユウコウフレアイカイ,0
440,2060001033909,新規,0,2021-07-14,2021-07-14,信栄保険サービス株式会社,,株式会社,栃木県,栃木市,大町２６－１６,,09,203,3280071,,,,,,,2021-07-14,1,,,,,シンエイホケンサービス,0
451,2080105006156,新規,0,2021-07-14,2021-07-14,一般社団法人保護猫嚮後会,,その他の設立登記法人,静岡県,沼津市,志下１番地の１６,,22,203,4100106,,,,,,,2021-07-14,1,,,,,ホゴネコキョウコウカイ,0
454,2090001017099,新規,0,2021-07-14,2021-07-14,シーエムシー株式会社,,株式会社,山梨県,南都留郡山中湖村,平野５２０－４５,,19,425,4010502,,,,,,,2021-07-14,1,,,,,シーエムシーカブシキガイシャ,0
463,2120001238278,新規,0,2021-07-14,2021-07-14,永天日本株式会社,,株式会社,大阪府,大阪市西成区,千本南１丁目１７番２１号２０５－Ｂ室,,27,122,5570055,,,,,,,2021-07-14,1,,,,,エイテンニホン,0
464,2120001239004,新規,0,2021-07-14,2021-07-14,Ｒｏｕｔｅ１０株式会社,,株式会社,大阪府,大阪市中央区,和泉町１丁目１番１４号,,27,128,5400019,,,,,,,2021-07-14,1,,,,,ルートテン,0
465,2120001239029,新規,0,2021-07-14,2021-07-14,株式会社ＴＯＩＲＯ,,株式会社,大阪府,大阪市城東区,関目１丁目２２番３号,,27,118,5360008,,,,,,,2021-07-14,1,,,,,トイロ,0
466,2120001239045,新規,0,2021-07-14,2021-07-14,株式会社二階堂,,株式会社,大阪府,大阪市北区,豊崎３丁目１５番１９号東洋東ビル,,27,127,5310072,,,,,,,2021-07-14,1,,,,,ニカイドウ,0
467,2120001239061,新規,0,2021-07-14,2021-07-14,株式会社Ｌｉｆｅ　Ａｒｋ,,株式会社,大阪府,大阪市福島区,福島６丁目８番２号サント４０１号,,27,103,5530003,,,,,,,2021-07-14,1,,,,,ライフアーク,0
472,2120005022372,新規,0,2021-07-14,2021-07-14,一般社団法人Ｈｕｇ　Ｈｕｇ,,その他の設立登記法人,大阪府,大阪市都島区,友渕町１丁目７番１－１４１２号,,27,102,5340016,,,,,,,2021-07-14,1,,,,,ハグハグ,0
473,2120005022389,新規,0,2021-07-14,2021-07-14,医療法人社団アトリエ会,,その他の設立登記法人,大阪府,大阪市北区,茶屋町５番８号ＭＥＦＵＬＬ茶屋町３Ｆ,,27,127,5300013,,,,,,,2021-07-14,1,,,,,アトリエカイ,0
477,2120101063972,新規,0,2021-07-14,2021-07-14,株式会社マルタ,,株式会社,大阪府,富田林市,大字新堂２０９１番地１ウエストインヒルズ４０２号,,27,214,5840091,,,,,,,2021-07-14,1,,,,,マルタ,0
479,2120103004256,新規,0,2021-07-14,2021-07-14,Ｍｙ　Ｅｖｅｒｇｒｅｅｎ合同会社,,合同会社,大阪府,堺市東区,大美野１５８－８２,,27,143,5998126,,,,,,,2021-07-14,1,,,,,マイエバーグリーン,0
482,2120901044627,新規,0,2021-07-14,2021-07-14,株式会社カケタス,,株式会社,大阪府,箕面市,粟生新家１丁目１１番１８号,,27,220,5620024,,,,,,,2021-07-14,1,,,,,カケタス,0
483,2120901044635,新規,0,2021-07-14,2021-07-14,Ｓ－ＨＯＭＥ株式会社,,株式会社,大阪府,高槻市,安岡寺町１丁目３１番１８号,,27,207,5691029,,,,,,,2021-07-14,1,,,,,エスホーム,0
492,2140001122315,新規,0,2021-07-14,2021-07-14,株式会社Ｃｏｖｖｙ,,株式会社,兵庫県,神戸市垂水区,小束山６丁目８番地の１,,28,108,6550002,,,,,,,2021-07-14,1,,,,,コービー,0
504,2180001146954,新規,0,2021-07-14,2021-07-14,株式会社８４ＢＡＳＥ,,株式会社,愛知県,あま市,新居屋上古川１３番地１０,,23,237,4901105,,,,,,,2021-07-14,1,,,,,ハチヨンベース,0
511,2180301035163,新規,0,2021-07-14,2021-07-14,伊藤株式会社,,株式会社,愛知県,西尾市,新在家１丁目２６番地１,,23,213,4450878,,,,,,,2021-07-14,1,,,,,,0
519,2190001028516,新規,0,2021-07-14,2021-07-14,岡ホールディングス株式会社,,株式会社,三重県,いなべ市,藤原町下野尻８６番地,,24,214,5110513,,,,,,,2021-07-14,1,,,,,オカホールディングス,0
521,2190003003723,新規,0,2021-07-14,2021-07-14,合同会社ＥＮＮ,,合同会社,三重県,津市,大里睦合町２５１８番地センチュリーヒルズ２０２,,24,201,5140126,,,,,,,2021-07-14,1,,,,,エン,0
527,2200003005255,新規,0,2021-07-14,2021-07-14,合同会社ＨＡＲＲＹ,,合同会社,岐阜県,関市,四季ノ台４－１８,,21,205,5013935,,,,,,,2021-07-14,1,,,,,ハリー,0
529,2210001018530,新規,0,2021-07-14,2021-07-14,株式会社ＳＥＡ　ＰＯＷＥＲ,,株式会社,福井県,敦賀市,赤崎４４号８番地の１,,18,202,9140272,,,,,,,2021-07-14,1,,,,,シーパワー,0
531,2210003001393,新規,0,2021-07-14,2021-07-14,合同会社ｎｏｃｕｔ,,合同会社,福井県,坂井市,三国町神明３丁目７番地１０号,,18,210,9130047,,,,,,,2021-07-14,1,,,,,ノクト,0
541,2260001035769,新規,0,2021-07-14,2021-07-14,株式会社アスライトフーズ,,株式会社,岡山県,岡山市中区,江崎４８６番地,,33,102,7028005,,,,,,,2021-07-14,1,,,,,アスライトフーズ,0
543,2270003001322,新規,0,2021-07-14,2021-07-14,合同会社ラディカル,,合同会社,鳥取県,鳥取市,弥生町２５８番地１Ｆ西側,,31,201,6800832,,,,,,,2021-07-14,1,,,,,ラディカル,0
548,2290005018271,新規,0,2021-07-14,2021-07-14,一般社団法人国際フレンドシップサービスセンター,,その他の設立登記法人,福岡県,福岡市東区,下原３丁目２３番５２－１０２号プルクラ,,40,131,8130002,,,,,,,2021-07-14,1,,,,,コクサイフレンドシップサービスセンター,0
558,2320001018494,新規,0,2021-07-14,2021-07-14,株式会社ＨＡＡ,,株式会社,大分県,別府市,石垣西９丁目２番２９号,,44,202,8740910,,,,,,,2021-07-14,1,,,,,ハー,0
561,2340001023939,新規,0,2021-07-14,2021-07-14,株式会社樹幸,,株式会社,鹿児島県,鹿児島市,紫原４丁目４番２号,,46,201,8900082,,,,,,,2021-07-14,1,,,,,ジュコウ,0
565,2350001017196,新規,0,2021-07-14,2021-07-14,Ｈ＆Ｉ株式会社,,株式会社,宮崎県,宮崎市,橘通西３丁目８－１８紅屋ビル３階,,45,201,8800001,,,,,,,2021-07-14,1,,,,,エイチアンドアイ,0
566,2350003003888,新規,0,2021-07-14,2021-07-14,日南テレビ合同会社,,合同会社,宮崎県,日南市,飫肥５丁目３番２３号,,45,204,8892535,,,,,,,2021-07-14,1,,,,,ニチナンテレビ,0
567,2360003011287,新規,0,2021-07-14,2021-07-14,合同会社ゆっくりしていってね,,合同会社,沖縄県,那覇市,首里末吉町４丁目２番地１新明産業ビル５０２,,47,201,9030801,,,,,,,2021-07-14,1,,,,,,0
572,2370005010311,新規,0,2021-07-14,2021-07-14,一般社団法人おりがみ,,その他の設立登記法人,宮城県,気仙沼市,西八幡町２－２,,04,205,9880817,,,,,,,2021-07-14,1,,,,,オリガミ,0
578,2390001016533,新規,0,2021-07-14,2021-07-14,９０ｓ．グループ株式会社,,株式会社,山形県,天童市,大字塚野目北２５５,,06,210,9940072,,,,,,,2021-07-14,1,,,,,キューマルグループ,0
585,2400003002810,新規,0,2021-07-14,2021-07-14,合同会社ＧＲОＷＳＣＡＰＥ,,合同会社,岩手県,盛岡市,南仙北１丁目２１番２５号,,03,201,0200863,,,,,,,2021-07-14,1,,,,,グロウスケイプ,0
603,2440005002706,新規,0,2021-07-14,2021-07-14,一般社団法人Ｂｌｕｅ　Ｃｏｍｍｏｎｓ　Ｊａｐａｎ,,その他の設立登記法人,北海道,函館市,旭町６番１４号,,01,202,0400037,,,,,,,2021-07-14,1,,,,,ブルーコモンズジャパン,0
614,2500003002668,新規,0,2021-07-14,2021-07-14,合同会社アウル,,合同会社,愛媛県,松山市,福角町甲５１番地２１４,,38,201,7992652,,,,,,,2021-07-14,1,,,,,アウル,0
627,3010003035295,新規,0,2021-07-14,2021-07-14,ＨＩＮＯＤＥ１５合同会社,,合同会社,東京都,中央区,京橋１丁目６番１３号,,13,102,1040031,,,,,,,2021-07-14,1,,,,,ヒノデジュウゴ,0
628,3010003035304,新規,0,2021-07-14,2021-07-14,ＨＩＮＯＤＥ２４合同会社,,合同会社,東京都,中央区,京橋１丁目６番１３号,,13,102,1040031,,,,,,,2021-07-14,1,,,,,ヒノデニジュウヨン,0
629,3010003035320,新規,0,2021-07-14,2021-07-14,ＷＫＳＦ１号合同会社,,合同会社,東京都,千代田区,丸の内３丁目４番２号,,13,101,1000005,,,,,,,2021-07-14,1,,,,,ダブリューケーエスエフイチゴウ,0
631,3010005033636,新規,0,2021-07-14,2021-07-14,税理士法人ｖｏｌｔａｇｅ,,その他の設立登記法人,東京都,文京区,湯島３丁目３４番６号湯島スクウェアビル８階,,13,105,1130034,,,,,,,2021-07-14,1,,,,,ボルテージ,0
632,3010401161429,新規,0,2021-07-14,2021-07-14,株式会社ＳＹサポ－ト,,株式会社,東京都,港区,港南２丁目１６番１号,,13,103,1080075,,,,,,,2021-07-14,1,,,,,エスワイサポート,0
633,3010401161461,新規,0,2021-07-14,2021-07-14,株式会社ＬＯＣＡＬ２,,株式会社,東京都,港区,白金台３丁目１６番１１号峯岸ビル４階,,13,103,1080071,,,,,,,2021-07-14,1,,,,,ローカルツー,0
634,3010401161478,新規,0,2021-07-14,2021-07-14,ＥＮＣＬ株式会社,,株式会社,東京都,港区,六本木６丁目１０番１号,,13,103,1060032,,,,,,,2021-07-14,1,,,,,イーエヌシーエル,0
637,3010403025714,新規,0,2021-07-14,2021-07-14,合同会社ＳＡＰ　Ｏｇｕ,,合同会社,東京都,港区,虎ノ門５丁目１番４号,,13,103,1050001,,,,,,,2021-07-14,1,,,,,エスエーピーオグ,0
646,3010701041256,新規,0,2021-07-14,2021-07-14,株式会社ＮｅｏＧｒｏｗｔｈ,,株式会社,東京都,品川区,西五反田８丁目２－１２,,13,109,1410031,,,,,,,2021-07-14,1,,,,,ネオグロース,0
657,3010901049033,新規,0,2021-07-14,2021-07-14,株式会社Ｍｅｒｒｙ＆Ｃｏ．,,株式会社,東京都,世田谷区,三軒茶屋２丁目１３番１９号,,13,112,1540024,,,,,,,2021-07-14,1,,,,,メリーアンドコー,0
663,3011001141754,新規,0,2021-07-14,2021-07-14,株式会社ＥＳＴＷＯＯＤ,,株式会社,東京都,渋谷区,神宮前４丁目２３番１０号カラート表参道２階,,13,113,1500001,,,,,,,2021-07-14,1,,,,,エストウッド,0
668,3011101095751,新規,0,2021-07-14,2021-07-14,株式会社ＨＹＵＧＡ　ＧＲＯＵＰ,,株式会社,東京都,新宿区,西新宿７丁目６番５号グローリア初穂生沼ビル５０１,,13,104,1600023,,,,,,,2021-07-14,1,,,,,ヒューガグループ,0
670,3011103010849,新規,0,2021-07-14,2021-07-14,合同会社Ｆａｂ　Ｔｉｍｅ,,合同会社,東京都,新宿区,新宿１丁目３６番２号新宿第七葉山ビル３階,,13,104,1600022,,,,,,,2021-07-14,1,,,,,ファブタイム,0
671,3011103010857,新規,0,2021-07-14,2021-07-14,Ｃｌｏｕｄ　Ｎｉｎｅ合同会社,,合同会社,東京都,新宿区,天神町３６番１号神楽坂ユウビル２階,,13,104,1620808,,,,,,,2021-07-14,1,,,,,クラウドナイン,0
672,3011103010865,新規,0,2021-07-14,2021-07-14,合同会社キープ,,合同会社,東京都,新宿区,大久保１丁目１５番１５－６０３号,,13,104,1690072,,,,,,,2021-07-14,1,,,,,キープ,0
675,3011303004097,新規,0,2021-07-14,2021-07-14,日本メディカルイノベーションパートナーズグループ合同会社,,合同会社,東京都,杉並区,和田１丁目１番１２号ペガサスビル６Ｆ,,13,115,1660012,,,,,,,2021-07-14,1,,,,,ニホンメディカルイノベーションパートナーズグループ,0
677,3011403003379,新規,0,2021-07-14,2021-07-14,合同会社ＳＡＮＧ,,合同会社,東京都,板橋区,中丸町５５－６－５０１,,13,119,1730026,,,,,,,2021-07-14,1,,,,,サング,0
685,3012401038103,新規,0,2021-07-14,2021-07-14,株式会社ＲｅａｌＥｓｔａｔｅ,,株式会社,東京都,三鷹市,下連雀３丁目１５番７号,,13,204,1810013,,,,,,,2021-07-14,1,,,,,リアルエステート,0
696,3013303005744,新規,0,2021-07-14,2021-07-14,ＴＡＸＥＤＯ合同会社,,合同会社,東京都,豊島区,千川２丁目１１番１８号,,13,116,1710041,,,,,,,2021-07-14,1,,,,,タキシード,0
700,3020001142209,新規,0,2021-07-14,2021-07-14,株式会社ＷＢｉ,,株式会社,神奈川県,川崎市高津区,坂戸３丁目１５－１ヴィラパストラル１０３,,14,134,2130012,,,,,,,2021-07-14,1,,,,,ダブリュービーアイ,0
707,3021001073402,新規,0,2021-07-14,2021-07-14,株式会社ラヴァンド,,株式会社,神奈川県,平塚市,ふじみ野２丁目２０番５号,,14,203,2591211,,,,,,,2021-07-14,1,,,,,ラヴァンド,0
714,3021005012249,新規,0,2021-07-14,2021-07-14,一般社団法人マーブル,,その他の設立登記法人,神奈川県,相模原市中央区,宮下本町２丁目３番１６号,,14,152,2520211,,,,,,,2021-07-14,1,,,,,マーブル,0
716,3030001143156,新規,0,2021-07-14,2021-07-14,株式会社アイシーエム,,株式会社,埼玉県,春日部市,緑町４丁目９番２８号,,11,214,3440063,,,,,,,2021-07-14,1,,,,,アイシーエム,0
717,3030001143247,新規,0,2021-07-14,2021-07-14,フィン不動産コンサルティング株式会社,,株式会社,埼玉県,上尾市,大字原市３９３０番地５,,11,219,3620021,,,,,,,2021-07-14,1,,,,,フィンフドウサンコンサルティング,0
718,3030001143305,新規,0,2021-07-14,2021-07-14,株式会社ＡＳＵＫＡ,,株式会社,埼玉県,秩父市,本町４番３号,,11,207,3680044,,,,,,,2021-07-14,1,,,,,アスカ,0
719,3030001143338,新規,0,2021-07-14,2021-07-14,株式会社カオハナ,,株式会社,埼玉県,入間市,大字上藤沢３８１番地１０,,11,225,3580013,,,,,,,2021-07-14,1,,,,,カオハナ,0
728,3040001119130,新規,0,2021-07-14,2021-07-14,株式会社ＴＥＬＬＵＳ,,株式会社,千葉県,船橋市,西船６丁目６番４１－５０７号,,12,204,2730031,,,,,,,2021-07-14,1,,,,,テルース,0
731,3040003018157,新規,0,2021-07-14,2021-07-14,合同会社フェアリーＭＤＫ,,合同会社,千葉県,市川市,南行徳１丁目１７－２サウスコートⅡ－１０１,00123640,12,203,2720138,,,,,,,2021-07-14,1,,,,,フェアリーエムディケー,0
732,3050001049525,新規,0,2021-07-14,2021-07-14,株式会社茨城木工所,,株式会社,茨城県,常総市,原宿３番地,,08,211,3002702,,,,,,,2021-07-14,1,,,,,,0
735,3060001033858,新規,0,2021-07-14,2021-07-14,株式会社日本環境,,株式会社,栃木県,塩谷郡塩谷町,大字船生３１０４番地,,09,384,3292441,,,,,,,2021-07-14,1,,,,,ニホンカンキョウ,0
742,3070003004179,新規,0,2021-07-14,2021-07-14,ｒｅｌｕｘａ合同会社,,合同会社,群馬県,高崎市,岩押町四丁目５９番１２メゾンいわおし２０２,,10,202,3700044,,,,,,,2021-07-14,1,,,,,リラクサ,0
743,3070005009878,新規,0,2021-07-14,2021-07-14,一般社団法人デコリーナサロン女志力好上委員会,,その他の設立登記法人,群馬県,太田市,東本町１８番地１６,,10,205,3730026,,,,,,,2021-07-14,1,,,,,デコリーナサロンジョシリョクコウジョウイインカイ,0
747,3080401025197,新規,0,2021-07-14,2021-07-14,株式会社Ｔｈｅ　Ｃａｍｐａｎｕｌａ,,株式会社,静岡県,浜松市西区,入野町１６４４３番地の１８,,22,133,4328061,,,,,,,2021-07-14,1,,,,,ザカンパニュラ,0
750,3110001035923,新規,0,2021-07-14,2021-07-14,株式会社無計画,,株式会社,新潟県,新潟市中央区,関屋大川前１丁目３番４３号,,15,103,9518142,,,,,,,2021-07-14,1,,,,,ムケイカク,0
762,3120001238277,新規,0,2021-07-14,2021-07-14,淳煕日本株式会社,,株式会社,大阪府,大阪市西成区,千本南１丁目１７番２１号２０５－Ａ室,,27,122,5570055,,,,,,,2021-07-14,1,,,,,ジュンキイニホン,0
763,3120001238962,新規,0,2021-07-14,2021-07-14,株式会社ＹＵ－ＳＨＩＮ,,株式会社,大阪府,大阪市大正区,泉尾５丁目１３－４,,27,108,5510031,,,,,,,2021-07-14,1,,,,,ユウシン,0
764,3120001239003,新規,0,2021-07-14,2021-07-14,株式会社Ｌｉｆｅ　Ｄｅｓｉｇｎ　Ｇｒｏｕｐ,,株式会社,大阪府,大阪市北区,西天満２丁目３番１号,,27,127,5300047,,,,,,,2021-07-14,1,,,,,ライフデザイングループ,0
765,3120001239044,新規,0,2021-07-14,2021-07-14,株式会社ＴＡＩＬ　ＷＩＮＤ,,株式会社,大阪府,大阪市中央区,南船場３丁目２－２８日宝タイヨービル５０７,,27,128,5420081,,,,,,,2021-07-14,1,,,,,テイルウィンド,0
766,3120001239077,新規,0,2021-07-14,2021-07-14,ＢＲ株式会社,,株式会社,大阪府,大阪市北区,西天満４丁目５－８八方商事第２ビル５０２,,27,127,5300047,,,,,,,2021-07-14,1,,,,,ビーアール,0
771,3120003019840,新規,0,2021-07-14,2021-07-14,リタ・グロース合同会社,,合同会社,大阪府,大阪市都島区,東野田町１丁目２１番７号,,27,102,5340024,,,,,,,2021-07-14,1,,,,,リタグロース,0
774,3120005022371,新規,0,2021-07-14,2021-07-14,医療法人かわさきクリニック,,その他の設立登記法人,大阪府,大阪市都島区,都島本通２丁目１４番４号カルナビル２階,,27,102,5340021,,,,,,,2021-07-14,1,,,,,カワサキクリニック,0
778,3120101063971,新規,0,2021-07-14,2021-07-14,株式会社ビークリーン,,株式会社,大阪府,岸和田市,作才町１１３番地,,27,202,5960826,,,,,,,2021-07-14,1,,,,,ビークリーン,0
779,3120101063988,新規,0,2021-07-14,2021-07-14,株式会社ラッシュプランナーズ,,株式会社,大阪府,堺市北区,百舌鳥梅北町５丁３７２番地５,,27,146,5918031,,,,,,,2021-07-14,1,,,,,ラッシュプランナーズ,0
783,3120901044618,新規,0,2021-07-14,2021-07-14,株式会社Ｅａｒｔｈ　Ｖｉｌｌａｇｅ,,株式会社,大阪府,高槻市,大字中畑小字小畑１号,,27,207,5691001,,,,,,,2021-07-14,1,,,,,アースビレッジ,0
784,3120901044634,新規,0,2021-07-14,2021-07-14,木匠技建株式会社,,株式会社,大阪府,豊中市,二葉町２丁目１－１２,,27,203,5610825,,,,,,,2021-07-14,1,,,,,モクショウギケン,0
799,3140003016514,新規,0,2021-07-14,2021-07-14,合同会社ｗｉｌｌ,,合同会社,兵庫県,神戸市兵庫区,湊山町５番１０－３０２号,,28,105,6520012,,,,,,,2021-07-14,1,,,,,ウィル,0
804,3160003002330,新規,0,2021-07-14,2021-07-14,グローアップ合同会社,,合同会社,滋賀県,大津市,梅林２丁目１番２８号,,25,201,5200051,,,,,,,2021-07-14,1,,,,,グローアップ,0
813,3180001146986,新規,0,2021-07-14,2021-07-14,菜花株式会社,,株式会社,愛知県,名古屋市昭和区,南分町３丁目３５番地の１,,23,107,4660849,,,,,,,2021-07-14,1,,,,,ナバナ,0
814,3180001146994,新規,0,2021-07-14,2021-07-14,Ｐ．Ｆアドバンス株式会社,,株式会社,愛知県,名古屋市中川区,打出２丁目１７５番地ＢＡＹ１０３,,23,110,4540926,,,,,,,2021-07-14,1,,,,,ピーエフアドバンス,0
821,3190001028507,新規,0,2021-07-14,2021-07-14,株式会社ＪＩＹＵ　ＨＡＬＡＬ　ＦＯＯＤＳ,,株式会社,三重県,四日市市,七つ屋町５５番地,,24,202,5100856,,,,,,,2021-07-14,1,,,,,ジユハラルフーズ,0
823,3190003003722,新規,0,2021-07-14,2021-07-14,合同会社ＭＴＲ,,合同会社,三重県,桑名市,有楽町４１番地２ダイアパレス桑名駅前Ⅱ１４０１号,00123635,24,205,5110079,,,,,,,2021-07-14,1,,,,,エムティーアール,0
830,3210001018538,新規,0,2021-07-14,2021-07-14,株式会社川口洋菓子,,株式会社,福井県,福井市,大願寺３丁目１番２０号,,18,201,9100001,,,,,,,2021-07-14,1,,,,,カワグヨウガシ,0
831,3210005009970,新規,0,2021-07-14,2021-07-14,福井６次産業農業協同組合,,その他の設立登記法人,福井県,福井市,黒丸町１０号１６番地１,,18,201,9100052,,,,,,,2021-07-14,1,,,,,フクイロクジサンギョウ,0
841,3240001058283,新規,0,2021-07-14,2021-07-14,Ｇｒｅｅｎ　Ｌｉｆｅ株式会社,,株式会社,広島県,三原市,本郷町南方８９１４番地１,,34,204,7290413,,,,,,,2021-07-14,1,,,,,グリーンライフ,0
848,3250001019004,新規,0,2021-07-14,2021-07-14,株式会社永谷システム,,株式会社,山口県,岩国市,周東町上久原３３０番地９,,35,208,7420413,,,,,,,2021-07-14,1,,,,,ナガタニシステム,0
874,3320003003568,新規,0,2021-07-14,2021-07-14,合同会社大戸商会,,合同会社,大分県,大分市,恵比寿町７番１２号エクセレントリブＡ－１０２号,,44,201,8700322,,,,,,,2021-07-14,1,,,,,ネギショウカイ,0
878,3330003008979,新規,0,2021-07-14,2021-07-14,合同会社ＭＫシステム,,合同会社,熊本県,熊本市北区,植木町岩野３１６番地７,,43,105,8610136,,,,,,,2021-07-14,1,,,,,エムケイシステム,0
886,3360005006466,新規,0,2021-07-14,2021-07-14,一般社団法人沖縄雇用福祉協会,,その他の設立登記法人,沖縄県,豊見城市,字根差部３７８番地２５,,47,212,9010205,,,,,,,2021-07-14,1,,,,,オキナワコヨウフクシキョウカイ,0
896,3370005010310,新規,0,2021-07-14,2021-07-14,一般社団法人みらいとわ,,その他の設立登記法人,宮城県,仙台市泉区,泉中央１丁目４５番地の３,,04,105,9813133,,,,,,,2021-07-14,1,,,,,ミライトワ,0
947,4010001219634,新規,0,2021-07-14,2021-07-14,株式会社Ｇｏｏｄ　Ｊｏｂ,,株式会社,東京都,中央区,日本橋浜町１丁目１１－３,,13,102,1030007,,,,,,,2021-07-14,1,,,,,グッドジョブ,0
950,4010003035294,新規,0,2021-07-14,2021-07-14,ＨＩＮＯＤＥ１４合同会社,,合同会社,東京都,中央区,京橋１丁目６番１３号,,13,102,1040031,,,,,,,2021-07-14,1,,,,,ヒノデジュウヨン,0
951,4010003035303,新規,0,2021-07-14,2021-07-14,ＨＩＮＯＤＥ２３合同会社,,合同会社,東京都,中央区,京橋１丁目６番１３号,,13,102,1040031,,,,,,,2021-07-14,1,,,,,ヒノデニジュウサン,0
952,4010003035311,新規,0,2021-07-14,2021-07-14,合同会社億万長者養成学校,,合同会社,東京都,中央区,銀座６丁目６番１号,,13,102,1040061,,,,,,,2021-07-14,1,,,,,オクマンチョウジャヨウセイガッコウ,0
965,4010401161460,新規,0,2021-07-14,2021-07-14,株式会社ＷＡＯＮ,,株式会社,東京都,港区,元麻布３丁目２－２０丸統ビル３Ｆ,,13,103,1060046,,,,,,,2021-07-14,1,,,,,ワオン,0
966,4010401161477,新規,0,2021-07-14,2021-07-14,株式会社ｓｉｒｏ,,株式会社,東京都,港区,芝５丁目３２番１２号シャーメゾンステージ田町,,13,103,1080014,,,,,,,2021-07-14,1,,,,,シロ,0
967,4010401161485,新規,0,2021-07-14,2021-07-14,法律家ドットコム株式会社,,株式会社,東京都,港区,虎ノ門３丁目１番１号,,13,103,1050001,,,,,,,2021-07-14,1,,,,,ホウリツカドットコム,0
968,4010401161493,新規,0,2021-07-14,2021-07-14,株式会社Ｐｅｅｔｓｌｉｓｔ,,株式会社,東京都,港区,浜松町２丁目２番１５号浜松町ダイヤビル２階,,13,103,1050013,,,,,,,2021-07-14,1,,,,,ピーツリスト,0
969,4010403025705,新規,0,2021-07-14,2021-07-14,合同会社トラネコ,,合同会社,東京都,港区,浜松町２丁目２番地１５号,,13,103,1050013,,,,,,,2021-07-14,1,,,,,トラネコ,0
970,4010403025713,新規,0,2021-07-14,2021-07-14,合同会社スイッチバック,,合同会社,東京都,港区,芝浦４丁目１９番１,,13,103,1080023,,,,,,,2021-07-14,1,,,,,,0
972,4010701041263,新規,0,2021-07-14,2021-07-14,ｂｅｙ株式会社,,株式会社,東京都,品川区,西五反田３丁目１２－１４西五反田プレイス１Ｆ,,13,109,1410031,,,,,,,2021-07-14,1,,,,,ベイ,0
979,4011001022516,新規,0,2021-07-14,2021-07-14,株式会社ミスキャスト,,株式会社,東京都,渋谷区,幡ヶ谷２丁目３番１０号,,13,113,1510072,,,,,,,2021-07-14,1,,,,,ミスキャスト,0
994,4011301027025,新規,0,2021-07-14,2021-07-14,岩通ビジネスサービス株式会社,,株式会社,東京都,杉並区,久我山１丁目７番４１号,,13,115,1680082,,,,,,,2021-07-14,1,,,,,イワツウビジネスサービス,0
998,4011403003386,新規,0,2021-07-14,2021-07-14,ｇｏｓｏｄａｎ合同会社,,合同会社,東京都,板橋区,双葉町２７番１２号,,13,119,1730011,,,,,,,2021-07-14,1,,,,,ゴソウダン,0
1000,4011605002384,新規,0,2021-07-14,2021-07-14,一般社団法人みらいと,,その他の設立登記法人,東京都,練馬区,早宮２丁目２４番７サンライズハイツ００２号室,,13,120,1790085,,,,,,,2021-07-14,1,,,,,ミライト,0
1002,4012305001965,新規,0,2021-07-14,2021-07-14,弁護士法人ノア,,その他の設立登記法人,東京都,町田市,森野１丁目１０番６号パールビル３ーＡ,,13,209,1940022,,,,,,,2021-07-14,1,,,,,ノア,0
1010,4012803002548,新規,0,2021-07-14,2021-07-14,合同会社サンダベーナ,,合同会社,東京都,立川市,富士見町６丁目４５番１４号,,13,202,1900013,,,,,,,2021-07-14,1,,,,,サンダベーナ,0
1012,4013301047713,新規,0,2021-07-14,2021-07-14,株式会社ＪＨＣ北関東,,株式会社,東京都,豊島区,池袋２丁目６５番１号１０階,,13,116,1710014,,,,,,,2021-07-14,1,,,,,ジェイエイチシーキタカントウ,0
1023,4020001142199,新規,0,2021-07-14,2021-07-14,株式会社エドカ,,株式会社,神奈川県,横浜市青葉区,美しが丘１丁目１３番地１０吉村ビル１０７号,,14,117,2250002,,,,,,,2021-07-14,1,,,,,エドカ,0
1041,4030001143337,新規,0,2021-07-14,2021-07-14,株式会社笹沼工業,,株式会社,埼玉県,桶川市,坂田西３丁目５番地の５４,,11,231,3630018,,,,,,,2021-07-14,1,,,,,ササヌマコウギョウ,0
1042,4030001143361,新規,0,2021-07-14,2021-07-14,株式会社ポルティーニ,,株式会社,埼玉県,越谷市,レイクタウン８丁目１３番地２ザ・シーズンズグランアルト１１８号,,11,222,3430828,,,,,,,2021-07-14,1,,,,,ポルティーニ,0
1044,4030003017613,新規,0,2021-07-14,2021-07-14,華の神楽合同会社,,合同会社,埼玉県,秩父市,吉田久長１５９３－４,,11,207,3691501,,,,,,,2021-07-14,1,,,,,,0
1045,4030005020441,新規,0,2021-07-14,2021-07-14,一般社団法人埼玉県在宅福祉事業者協議会,,その他の設立登記法人,埼玉県,川口市,中青木２丁目２２－３４,,11,203,3320032,,,,,,,2021-07-14,1,,,,,サイタマケンザイタクフクジジギョウシャキョウギカイ,0
1054,4040003018156,新規,0,2021-07-14,2021-07-14,ＭＵＧＡ合同会社,,合同会社,千葉県,千葉市花見川区,幕張町２丁目３０２３－１,,12,102,2620032,,,,,,,2021-07-14,1,,,,,ムガ,0
1067,4060003003759,新規,0,2021-07-14,2021-07-14,合同会社Ｍａｎｅｔｔｉａ,,合同会社,栃木県,鹿沼市,上材木町１７９１番地,,09,205,3220065,,,,,,,2021-07-14,1,,,,,,0
1070,4070001038269,新規,0,2021-07-14,2021-07-14,株式会社Ｌｉｆｅ　Ｐｌｕｓ,,株式会社,群馬県,太田市,東矢島町７８番地,,10,205,3730816,,,,,,,2021-07-14,1,,,,,ライフプラス,0
1074,4080101022650,新規,0,2021-07-14,2021-07-14,株式会社ありがとう,,株式会社,静岡県,裾野市,平松３０７番地の１７,,22,220,4101127,,,,,,,2021-07-14,1,,,,,アリガトウ,0
1076,4080401025196,新規,0,2021-07-14,2021-07-14,株式会社Ｏ．Ｌ．Ｎ．,,株式会社,静岡県,袋井市,下山梨１５０２－３,,22,216,4370123,,,,,,,2021-07-14,1,,,,,オーエルエヌ,0
1081,4090001017097,新規,0,2021-07-14,2021-07-14,富士観光株式会社,,株式会社,山梨県,南都留郡山中湖村,山中１５５番地の１,,19,425,4010501,,,,,,,2021-07-14,1,,,,,フジカンコウ,0
1083,4100001034438,新規,0,2021-07-14,2021-07-14,株式会社ＹＵＲＩＫＯ,,株式会社,長野県,上田市,中央西２丁目２番２１号,,20,203,3860023,,,,,,,2021-07-14,1,,,,,ユリコ,0
1085,4110001035922,新規,0,2021-07-14,2021-07-14,株式会社ＧＲＯＷＴＨ,,株式会社,新潟県,新潟市西区,五十嵐中島４丁目１番２号ウィンベル３０２号,,15,107,9502162,,,,,,,2021-07-14,1,,,,,グロウス,0
1095,4120001238929,新規,0,2021-07-14,2021-07-14,株式会社Ｓｏｕｔｈ,,株式会社,大阪府,大阪市淀川区,加島４丁目２番４３号,,27,123,5320031,,,,,,,2021-07-14,1,,,,,サウス,0
1096,4120001239010,新規,0,2021-07-14,2021-07-14,株式会社ＳＥＲＯ＆ＴＯＮＩＮ,,株式会社,大阪府,枚方市,枚方上之町３番１０号,,27,210,5730037,,,,,,,2021-07-14,1,,,,,セロアンドトニン,0
1097,4120001239035,新規,0,2021-07-14,2021-07-14,丸栄商事株式会社,,株式会社,大阪府,大阪市阿倍野区,西田辺町１丁目６番３号,,27,119,5450014,,,,,,,2021-07-14,1,,,,,マルエイショウジ,0
1099,4120005022387,新規,0,2021-07-14,2021-07-14,医療法人志源会,,その他の設立登記法人,大阪府,大阪市城東区,中浜３丁目１４番１５号,,27,118,5360024,,,,,,,2021-07-14,1,,,,,シゲンカイ,0
1125,4160001023468,新規,0,2021-07-14,2021-07-14,Ｌａｕｌｅａ株式会社,,株式会社,滋賀県,大津市,和邇北浜６２２番地の４３,,25,201,5200521,,,,,,,2021-07-14,1,,,,,ラウレア,0
1139,4180003022739,新規,0,2021-07-14,2021-07-14,ご縁の風合同会社,,合同会社,愛知県,名古屋市緑区,八つ松２丁目１０７番地ファミリアーレ滝ノ水南第２・１０５号,,23,114,4580810,,,,,,,2021-07-14,1,,,,,ゴエンノカゼ,0
1140,4180005019361,新規,0,2021-07-14,2021-07-14,一般社団法人青少年養育支援センター陽氣会,,その他の設立登記法人,愛知県,名古屋市昭和区,折戸町５丁目３３番地,,23,107,4660858,,,,,,,2021-07-14,1,,,,,セイショウネンヨウイクシエンセンターヨウキカイ,0
1150,4190001028506,新規,0,2021-07-14,2021-07-14,株式会社山田製作所,,株式会社,三重県,四日市市,楠町北一色２２７番地の１,,24,202,5100107,,,,,,,2021-07-14,1,,,,,ヤマダセイサクショ,0
1151,4190003003721,新規,0,2021-07-14,2021-07-14,合同会社エバークリーン,,合同会社,三重県,四日市市,あがたが丘３丁目１８番地,,24,202,5121202,,,,,,,2021-07-14,1,,,,,エバークリーン,0
1163,4240001058274,新規,0,2021-07-14,2021-07-14,株式会社アンドエム,,株式会社,広島県,安芸郡府中町,浜田本町３番２７号,,34,302,7350023,,,,,,,2021-07-14,1,,,,,アンドエム,0
1170,4260001035767,新規,0,2021-07-14,2021-07-14,株式会社イエローハウス,,株式会社,岡山県,岡山市北区,野田４丁目２番２０号エステート野田Ⅱ２０２号室,00123649,33,101,7000971,,,,,,,2021-07-14,1,,,,,イエローハウス,0
1182,4290801027622,新規,0,2021-07-14,2021-07-14,出川工業株式会社,,株式会社,福岡県,北九州市戸畑区,浅生３丁目８番５－３０１号,,40,105,8040062,,,,,,,2021-07-14,1,,,,,デガワコウギョウ,0
1195,4340003003490,新規,0,2021-07-14,2021-07-14,合同会社徳丸屋,,合同会社,鹿児島県,薩摩郡さつま町,虎居町１３番地７,,46,392,8951812,,,,,,,2021-07-14,1,,,,,トクマルヤ,0
1200,4360003011285,新規,0,2021-07-14,2021-07-14,合同会社ＬｉｎｋＵｐ,,合同会社,沖縄県,中頭郡中城村,字北浜３６３番地１,,47,328,9012414,,,,,,,2021-07-14,1,,,,,リンクアップ,0
1202,4370001047330,新規,0,2021-07-14,2021-07-14,株式会社アクシス,,株式会社,宮城県,黒川郡大和町,小野字釜ケ入２１,,04,421,9813623,,,,,,,2021-07-14,1,,,,,アクシス,0
1218,4410001012890,新規,0,2021-07-14,2021-07-14,株式会社ｈｏｕｓｅ　ｎｅｏ,,株式会社,秋田県,秋田市,広面字樋ノ沖７８番地２,,05,201,0100041,,,,,,,2021-07-14,1,,,,,ハウスネオ,0
1238,4460101007027,新規,0,2021-07-14,2021-07-14,十勝サイロ株式会社,,株式会社,北海道,帯広市,大通南２７丁目１６番地１,,01,207,0800010,,,,,,,2021-07-14,1,,,,,トカチサイロ,0
1253,5010001219674,新規,0,2021-07-14,2021-07-14,ソーシャス株式会社,,株式会社,東京都,中央区,日本橋３丁目２番１４号１階,,13,102,1030027,,,,,,,2021-07-14,1,,,,,ソーシャス,0
1254,5010001219682,新規,0,2021-07-14,2021-07-14,株式会社ＳＭＢＣデジタルマーケティング,,株式会社,東京都,千代田区,丸の内１丁目３番２号,,13,101,1000005,,,,,,,2021-07-14,1,,,,,エスエムビーシーデジタルマーケティング,0
1255,5010001219716,新規,0,2021-07-14,2021-07-14,そだてるソーラーファーム株式会社,,株式会社,東京都,千代田区,霞が関３丁目２番５号,,13,101,1000013,,,,,,,2021-07-14,1,,,,,ソダテルソーラーファーム,0
1257,5010003035293,新規,0,2021-07-14,2021-07-14,ＨＩＮＯＤＥ１３合同会社,,合同会社,東京都,中央区,京橋１丁目６番１３号,,13,102,1040031,,,,,,,2021-07-14,1,,,,,ヒノデジュウサン,0
1258,5010003035302,新規,0,2021-07-14,2021-07-14,ＨＩＮＯＤＥ２２合同会社,,合同会社,東京都,中央区,京橋１丁目６番１３号,,13,102,1040031,,,,,,,2021-07-14,1,,,,,ヒノデニジュウニ,0
1259,5010003035310,新規,0,2021-07-14,2021-07-14,合同会社Ｓａｌｏｎ　ｄｅ　Ｎａｇａｈａｍａ,,合同会社,東京都,中央区,勝どき３丁目９番１２－７０３号室,,13,102,1040054,,,,,,,2021-07-14,1,,,,,サロンデナガハマ,0
1260,5010003035319,新規,0,2021-07-14,2021-07-14,Ｓｃｉｅｎｔ　Ｌａｂｓ合同会社,,合同会社,東京都,中央区,日本橋兜町１７番２号,,13,102,1030026,,,,,,,2021-07-14,1,,,,,サイエントラボ,0
1261,5010005033626,新規,0,2021-07-14,2021-07-14,税理士法人はやぶさトラスト会計,,その他の設立登記法人,東京都,千代田区,九段北１丁目１０番５号,,13,101,1020073,,,,,,,2021-07-14,1,,,,,ハヤブサトラストカイケイ,0
1266,5010401161476,新規,0,2021-07-14,2021-07-14,株式会社ＵＬＴｏＲＡ２３,,株式会社,東京都,港区,東新橋２丁目１８－３,,13,103,1050021,,,,,,,2021-07-14,1,,,,,ウルトラニジュウサン,0
1267,5010401161484,新規,0,2021-07-14,2021-07-14,ＩＴｂｏｏｋフリーワーク株式会社,,株式会社,東京都,港区,虎ノ門２丁目３番１７号,,13,103,1050001,,,,,,,2021-07-14,1,,,,,アイティブックフリーワーク,0
1268,5010401161518,新規,0,2021-07-14,2021-07-14,株式会社ＩＳＦ　ＨＤ,,株式会社,東京都,港区,虎ノ門１丁目２３番１号ジャフコグループ株式会社内,,13,103,1050001,,,,,,,2021-07-14,1,,,,,アイエスエフホールディングス,0
1269,5010401161526,新規,0,2021-07-14,2021-07-14,株式会社ＰＯＬＹＳＨ,,株式会社,東京都,港区,西麻布２丁目１０番１号,,13,103,1060031,,,,,,,2021-07-14,1,,,,,ポリッシュ,0
1270,5010403025712,新規,0,2021-07-14,2021-07-14,エイチアイピー合同会社,,合同会社,東京都,港区,三田２丁目８番１号ザ・パークハウス三田タワー２１０５,,13,103,1080073,,,,,,,2021-07-14,1,,,,,エイチアイピー,0
1284,5011001141645,新規,0,2021-07-14,2021-07-14,ＤＣ３株式会社,,株式会社,東京都,目黒区,八雲３丁目２０番８号,,13,110,1520023,,,,,,,2021-07-14,1,,,,,ディーシーサン,0
1285,5011001141760,新規,0,2021-07-14,2021-07-14,株式会社ｂｏｌｅ,,株式会社,東京都,渋谷区,広尾２丁目１１番９－１０２号,,13,113,1500012,,,,,,,2021-07-14,1,,,,,ボウル,0
1286,5011005009129,新規,0,2021-07-14,2021-07-14,一般社団法人個人投資家が生き残る方法,,その他の設立登記法人,東京都,目黒区,自由が丘２丁目１６番１２号,,13,110,1520035,,,,,,,2021-07-14,1,,,,,コジントウシカガイキノコルホウホウ,0
1290,5011101095650,新規,0,2021-07-14,2021-07-14,シンキエスタ株式会社,,株式会社,東京都,新宿区,高田馬場４丁目４０－１８－８０１,,13,104,1690075,,,,,,,2021-07-14,1,,,,,シンキエスタ,0
1291,5011101095717,新規,0,2021-07-14,2021-07-14,Ｆｉｒｓｔ　Ｃｕｒｒｅｎｃｙ　Ｊａｐａｎ株式会社,,株式会社,東京都,新宿区,新宿１丁目１１番３号,,13,104,1600022,,,,,,,2021-07-14,1,,,,,ファーストカレンシージャパン,0
1298,5011403003385,新規,0,2021-07-14,2021-07-14,村田投資合同会社,,合同会社,東京都,板橋区,高島平５丁目２３番４号,,13,119,1750082,,,,,,,2021-07-14,1,,,,,ムラタトウシ,0
1301,5011603003350,新規,0,2021-07-14,2021-07-14,合同会社もじラボ,,合同会社,東京都,練馬区,桜台５丁目２番７号,,13,120,1760002,,,,,,,2021-07-14,1,,,,,モジラボ,0
1305,5012701016582,新規,0,2021-07-14,2021-07-14,株式会社Ｃ－ｐｌｕｓ,,株式会社,東京都,東村山市,恩多町３丁目２１番地９６,,13,213,1890011,,,,,,,2021-07-14,1,,,,,シープラス,0
1307,5012803002547,新規,0,2021-07-14,2021-07-14,ユニバース・インベストメント合同会社,,合同会社,東京都,昭島市,中神町１丁目２２番５０号,,13,207,1960022,,,,,,,2021-07-14,1,,,,,ユニバースインベストメント,0
1314,5013301047720,新規,0,2021-07-14,2021-07-14,ＥＩＥ株式会社,,株式会社,東京都,豊島区,高田３丁目５番１７号グローリア初穂高田馬場４２３号室,,13,116,1710033,,,,,,,2021-07-14,1,,,,,イーアイイー,0
1328,5020003020162,新規,0,2021-07-14,2021-07-14,合同会社Ｌａｎｉ,,合同会社,神奈川県,横浜市鶴見区,諏訪坂１９－２６,,14,101,2300014,,,,,,,2021-07-14,1,,,,,ラニ,0
1352,5030001143294,新規,0,2021-07-14,2021-07-14,小嶋デザイン株式会社,,株式会社,埼玉県,戸田市,下前１丁目１１番２０－１２３５号,,11,224,3350016,,,,,,,2021-07-14,1,,,,,コジマデザイン,0
1353,5030001143352,新規,0,2021-07-14,2021-07-14,株式会社ＫＡＧＵＲＡ,,株式会社,埼玉県,和光市,新倉１丁目１９番８５号,,11,229,3510115,,,,,,,2021-07-14,1,,,,,カグラ,0
1361,5030003017629,新規,0,2021-07-14,2021-07-14,合同会社Ｒａｉｎｂｏｗ,,合同会社,埼玉県,さいたま市北区,奈良町７９番地２６,,11,102,3310822,,,,,,,2021-07-14,1,,,,,レインボー,0
1362,5030003017637,新規,0,2021-07-14,2021-07-14,合同会社ｈｒａｔ,,合同会社,埼玉県,さいたま市北区,土呂町２丁目９４－１１－２０１,,11,102,3310804,,,,,,,2021-07-14,1,,,,,ハラット,0
1367,5030005020449,新規,0,2021-07-14,2021-07-14,社会福祉法人ＬＥＡＤ　Ｃａｒｅ　ａｎｄ　Ｅｄｕｃａｔｉｏｎ　Ｃｅｎｔｅｒ,,その他の設立登記法人,埼玉県,さいたま市南区,南浦和３丁目５５６－３,,11,108,3360017,,,,,,,2021-07-14,1,,,,,リードケアアンドエデュケーションセンター,0
1372,5040001119376,新規,0,2021-07-14,2021-07-14,株式会社ネイビー,,株式会社,千葉県,船橋市,習志野台１丁目８番１６号,,12,204,2740063,,,,,,,2021-07-14,1,,,,,ネイビー,0
1376,5050001049507,新規,0,2021-07-14,2021-07-14,株式会社アラ・ケイ,,株式会社,茨城県,下妻市,下木戸３９８番地１,,08,210,3040028,,,,,,,2021-07-14,1,,,,,アラケイ,0
1385,5060001033864,新規,0,2021-07-14,2021-07-14,滋富貿易日本株式会社,,株式会社,栃木県,宇都宮市,御幸ケ原町２３４番地,,09,201,3210982,,,,,,,2021-07-14,1,,,,,ジフボウエキニッポン,0
1386,5060001033914,新規,0,2021-07-14,2021-07-14,指田工業株式会社,,株式会社,栃木県,鹿沼市,松原２丁目５４番地,,09,205,3220012,,,,,,,2021-07-14,1,,,,,サシダコウギョウ,0
1389,5070001038276,新規,0,2021-07-14,2021-07-14,株式会社半田商事,,株式会社,群馬県,伊勢崎市,上植木本町２２６９番地５,,10,204,3720013,,,,,,,2021-07-14,1,,,,,ハンダショウジ,0
1390,5070005009876,新規,0,2021-07-14,2021-07-14,下発知農事實行組合,,その他の設立登記法人,群馬県,沼田市,下発知町２４２番地,,10,206,3780074,,,,,,,2021-07-14,1,,,,,シモホッチ,0
1397,5080101022658,新規,0,2021-07-14,2021-07-14,株式会社Ｅ・Ｍ・Ａ,,株式会社,静岡県,富士宮市,万野原新田３３４３番地の４,,22,207,4180001,,,,,,,2021-07-14,1,,,,,イーエムエー,0
1401,5080401025195,新規,0,2021-07-14,2021-07-14,株式会社優水,,株式会社,静岡県,浜松市南区,西町２８８番地の２,,22,134,4300821,,,,,,,2021-07-14,1,,,,,ユウスイ,0
1416,5120001238829,新規,0,2021-07-14,2021-07-14,株式会社ティーエークリエーション,,株式会社,大阪府,大阪市北区,天満２丁目７－６－５０１,,27,127,5300043,,,,,,,2021-07-14,1,,,,,ティーエークリエーション,0
1417,5120001238960,新規,0,2021-07-14,2021-07-14,株式会社梔子,,株式会社,大阪府,大阪市中央区,心斎橋筋２丁目１番７号４階,,27,128,5420085,,,,,,,2021-07-14,1,,,,,クチナシ,0
1418,5120001238977,新規,0,2021-07-14,2021-07-14,株式会社ＬｕｘｕＴｕｒｆ,,株式会社,大阪府,大阪市中央区,南船場２丁目７番１６号,,27,128,5420081,,,,,,,2021-07-14,1,,,,,ラグジュターフ,0
1419,5120001238985,新規,0,2021-07-14,2021-07-14,カツラギ企画株式会社,,株式会社,大阪府,大阪市西成区,南津守５丁目４番６号,,27,122,5570063,,,,,,,2021-07-14,1,,,,,カツラギキカク,0
1420,5120001238993,新規,0,2021-07-14,2021-07-14,レオンズグループ株式会社,,株式会社,大阪府,寝屋川市,香里本通町５番２９号,,27,215,5720082,,,,,,,2021-07-14,1,,,,,レオンズグループ,0
1421,5120001239026,新規,0,2021-07-14,2021-07-14,株式会社カラーボックス,,株式会社,大阪府,大阪市中央区,難波２丁目３番１１号,,27,128,5420076,,,,,,,2021-07-14,1,,,,,カラーボックス,0
1422,5120001239067,新規,0,2021-07-14,2021-07-14,株式会社Ａｔｈｌｅｔｅ　ＣＡＭＰ,,株式会社,大阪府,大阪市都島区,都島南通２丁目１０番１２－１３０８号ルクレ京橋１３０８号室,,27,102,5340023,,,,,,,2021-07-14,1,,,,,アスリートキャンプ,0
1423,5120001239075,新規,0,2021-07-14,2021-07-14,ナチュラルバイオジャパン株式会社,,株式会社,大阪府,大阪市北区,芝田２丁目８番１１号共栄ビル３階,,27,127,5300012,,,,,,,2021-07-14,1,,,,,ナチュラルバイオジャパン,0
1424,5120003019830,新規,0,2021-07-14,2021-07-14,Ｄ－ｎｏｋｓ合同会社,,合同会社,大阪府,大阪市中央区,久太郎町４丁目１番３号大阪センタービル６Ｆ－１５７,,27,128,5410056,,,,,,,2021-07-14,1,,,,,ディノックス,0
1428,5120005022378,新規,0,2021-07-14,2021-07-14,ＳＨ土地家屋調査士法人,,その他の設立登記法人,大阪府,大阪市中央区,南船場１丁目３番２７号５Ｃ,,27,128,5420081,,,,,,,2021-07-14,1,,,,,エスエイチ,0
1439,5122001034992,新規,0,2021-07-14,2021-07-14,株式会社勇翔シャッター,,株式会社,大阪府,東大阪市,森河内西１丁目１番１７号,,27,227,5770061,,,,,,,2021-07-14,1,,,,,ユウショウシャッター,0
1446,5140001122304,新規,0,2021-07-14,2021-07-14,株式会社Ｍｅｄｉｅｓｔ,,株式会社,兵庫県,神戸市中央区,楠町７丁目５番２号,,28,110,6500017,,,,,,,2021-07-14,1,,,,,メディエスト,0
1447,5140001122329,新規,0,2021-07-14,2021-07-14,株式会社だるまやで,,株式会社,兵庫県,宝塚市,小林５丁目９番１１３号,,28,214,6650034,,,,,,,2021-07-14,1,,,,,ダルマヤデ,0
1460,5180001146951,新規,0,2021-07-14,2021-07-14,Ａｒｋ　Ｔｏｃ株式会社,,株式会社,愛知県,名古屋市守山区,永森町１４５,,23,113,4630086,,,,,,,2021-07-14,1,,,,,エイアールケイタックスオペレーションセンター,0
1461,5180001146984,新規,0,2021-07-14,2021-07-14,株式会社ＫＳＫ,,株式会社,愛知県,名古屋市名東区,香流３丁目１２２番地ユニーブル山の手北２０１号,,23,115,4650005,,,,,,,2021-07-14,1,,,,,ケーエスケー,0
1466,5180003022746,新規,0,2021-07-14,2021-07-14,Ｙ’ｓ　ｔｅｃｈｎｏ合同会社,,合同会社,愛知県,名古屋市中村区,草薙町３丁目６０番地の５,,23,105,4530064,,,,,,,2021-07-14,1,,,,,ワイズテクノ,0
1471,5190001028505,新規,0,2021-07-14,2021-07-14,株式会社３１０,,株式会社,三重県,鈴鹿市,江島町１５１１番地,,24,207,5100237,,,,,,,2021-07-14,1,,,,,サンイチマル,0
1479,5210001018536,新規,0,2021-07-14,2021-07-14,株式会社ＺＥＲＯ６,,株式会社,福井県,福井市,松本３丁目１９番２５号,,18,201,9100003,,,,,,,2021-07-14,1,,,,,ゼロック,0
1494,5240003005199,新規,0,2021-07-14,2021-07-14,合同会社ＬＩＮＫ,,合同会社,広島県,広島市南区,翠３丁目１１番１３号,,34,103,7340005,,,,,,,2021-07-14,1,,,,,リンク,0
1495,5250001019002,新規,0,2021-07-14,2021-07-14,株式会社とよかわ,,株式会社,山口県,防府市,大字新田１１６３番地の５,,35,206,7470825,,,,,,,2021-07-14,1,,,,,トヨカワ,0
1498,5260003003630,新規,0,2021-07-14,2021-07-14,フェイト合同会社,,合同会社,岡山県,津山市,河辺７２３番地県営住宅２－３０５,,33,203,7080842,,,,,,,2021-07-14,1,,,,,フェイト,0
1512,5290801027621,新規,0,2021-07-14,2021-07-14,株式会社Ｓｅｌｅｎｅ,,株式会社,福岡県,北九州市小倉南区,守恒本町２丁目１番４０号ニューバースビラ１０４号,,40,107,8020971,,,,,,,2021-07-14,1,,,,,セレネ,0
1514,5290803003884,新規,0,2021-07-14,2021-07-14,シドラボ合同会社,,合同会社,福岡県,北九州市若松区,白山１丁目６番３４号,,40,103,8080035,,,,,,,2021-07-14,1,,,,,シドラボ,0
1534,5360001029080,新規,0,2021-07-14,2021-07-14,株式会社レンタリース沖縄,,株式会社,沖縄県,豊見城市,字上田５６６番地１０７号,,47,212,9010243,,,,,,,2021-07-14,1,,,,,,0
1544,5380001032041,新規,0,2021-07-14,2021-07-14,株式会社カシマグリーンファーム,,株式会社,福島県,南相馬市,原町区上渋佐字原田１０２番地の１,,07,212,9750034,,,,,,,2021-07-14,1,,,,,,0
1558,5410001012898,新規,0,2021-07-14,2021-07-14,秋田ランテック株式会社,,株式会社,秋田県,横手市,駅南１丁目７番４５号,,05,203,0130062,,,,,,,2021-07-14,1,,,,,アキタランテック,0
1567,5430001084515,新規,0,2021-07-14,2021-07-14,株式会社Ｇｅｎａｕ,,株式会社,北海道,札幌市東区,東雁来六条２丁目１番２５号,,01,103,0070826,,,,,,,2021-07-14,1,,,,,ゲナウ,0
1569,5430003012944,新規,0,2021-07-14,2021-07-14,合同会社バックステージ,,合同会社,北海道,北広島市,南町１丁目２番地７,,01,234,0611143,,,,,,,2021-07-14,1,,,,,バックステージ,0
1583,6010001219582,新規,0,2021-07-14,2021-07-14,Ｃａｌｍ　ｆｉｅｌｄ　ｃａｒｅ株式会社,,株式会社,東京都,中央区,八丁堀２丁目２６番６号,,13,102,1040032,,,,,,,2021-07-14,1,,,,,カームフィールドケア,0
1584,6010001219657,新規,0,2021-07-14,2021-07-14,株式会社中澤経理事務所,,株式会社,東京都,千代田区,神田小川町３丁目７番地３,,13,101,1010052,,,,,,,2021-07-14,1,,,,,ナカザワケイリジムショ,0
1585,6010001219681,新規,0,2021-07-14,2021-07-14,日本自然科技株式会社,,株式会社,東京都,中央区,東日本橋２丁目２８番５号５０８,,13,102,1030004,,,,,,,2021-07-14,1,,,,,,0
1586,6010001219748,新規,0,2021-07-14,2021-07-14,株式会社音羽書房,,株式会社,東京都,文京区,音羽１丁目２１番９号,,13,105,1120013,,,,,,,2021-07-14,1,,,,,オトワショボウ,0
1589,6010003035292,新規,0,2021-07-14,2021-07-14,ＨＩＮＯＤＥ１２合同会社,,合同会社,東京都,中央区,京橋１丁目６番１３号,,13,102,1040031,,,,,,,2021-07-14,1,,,,,ヒノデジュウニ,0
1590,6010003035301,新規,0,2021-07-14,2021-07-14,ＨＩＮＯＤＥ２１合同会社,,合同会社,東京都,中央区,京橋１丁目６番１３号,,13,102,1040031,,,,,,,2021-07-14,1,,,,,ヒノデニジュウイチ,0
1592,6010005033674,新規,0,2021-07-14,2021-07-14,一番町監査法人,,その他の設立登記法人,東京都,千代田区,一番町４番２５相模屋第５ビル３階,,13,101,1020082,,,,,,,2021-07-14,1,,,,,イチバンチョウ,0
1600,6010401161483,新規,0,2021-07-14,2021-07-14,株式会社ＮＥＸＴ　ＩＮＮＯＶＡＴＩＯＮ,,株式会社,東京都,港区,西麻布１丁目１２番１８号,,13,103,1060031,,,,,,,2021-07-14,1,,,,,ネクストイノベーション,0
1601,6010401161500,新規,0,2021-07-14,2021-07-14,株式会社ｎｅｖｅｒｓｅｅｎ,,株式会社,東京都,港区,北青山２丁目７－２０猪瀬ビル２Ｆ,,13,103,1070061,,,,,,,2021-07-14,1,,,,,ネバーシーン,0
1605,6010403025711,新規,0,2021-07-14,2021-07-14,合同会社ＲＡＭＯ,,合同会社,東京都,港区,高輪３丁目１０－３グラスプラス高輪ＡＮＮＥＸ・ＵＰオフィス３０３,,13,103,1080074,,,,,,,2021-07-14,1,,,,,ラーモ,0
1610,6010701041229,新規,0,2021-07-14,2021-07-14,ビューテックラボ株式会社,,株式会社,東京都,品川区,東五反田４丁目８番１２－２０１号,,13,109,1410022,,,,,,,2021-07-14,1,,,,,ビューテックラボ,0
1611,6010701041253,新規,0,2021-07-14,2021-07-14,株式会社ビューティフレックス,,株式会社,東京都,品川区,東五反田１丁目２０番７号,,13,109,1410022,,,,,,,2021-07-14,1,,,,,ビューティフレックス,0
1614,6010801032128,新規,0,2021-07-14,2021-07-14,株式会社キャリア・ブリッジ,,株式会社,東京都,大田区,中央８丁目５番２０号,,13,111,1430024,,,,,,,2021-07-14,1,,,,,キャリアブリッジ,0
1625,6011001141735,新規,0,2021-07-14,2021-07-14,株式会社ＷＡＶＥＲＳ,,株式会社,東京都,渋谷区,神宮前６丁目２３番４号桑野ビル２階,,13,113,1500001,,,,,,,2021-07-14,1,,,,,ウェイバーズ,0
1626,6011001141743,新規,0,2021-07-14,2021-07-14,株式会社ＶＩＣＯ,,株式会社,東京都,渋谷区,代官山町９番１０号（ＳｏｄａＣＣｏ）ｃｏ－ｌａｂ代官山,,13,113,1500034,,,,,,,2021-07-14,1,,,,,ヴィーコ,0
1627,6011001141776,新規,0,2021-07-14,2021-07-14,株式会社ＮｅＸＴ,,株式会社,東京都,渋谷区,神宮前６丁目２５番２－７０２号エクセル原宿グレイスコート,,13,113,1500001,,,,,,,2021-07-14,1,,,,,ネクスト,0
1631,6011103010838,新規,0,2021-07-14,2021-07-14,合同会社ＩＮＮＯＶＡＴＩＯＮ　ＡＧＥＮＴ,,合同会社,東京都,新宿区,新宿２丁目１２番１３号新宿アントレサロンビル２階,,13,104,1600022,,,,,,,2021-07-14,1,,,,,イノベーションエージェント,0
1632,6011305002757,新規,0,2021-07-14,2021-07-14,一般社団法人日本レムリアンハープ協会,,その他の設立登記法人,東京都,杉並区,荻窪１丁目５６番３２号,,13,115,1670051,,,,,,,2021-07-14,1,,,,,ニホンレムリアンハープキョウカイ,0
1633,6011403003384,新規,0,2021-07-14,2021-07-14,合同会社ＳＴＡＣ,,合同会社,東京都,板橋区,大山東町１８－６,,13,119,1730014,,,,,,,2021-07-14,1,,,,,スタック,0
1640,6011801039385,新規,0,2021-07-14,2021-07-14,株式会社コンナイジング,,株式会社,東京都,足立区,鹿浜３丁目１番１５－２０２号,,13,121,1230864,,,,,,,2021-07-14,1,,,,,コンナイジング,0
1647,6012401038100,新規,0,2021-07-14,2021-07-14,あしたはれるや株式会社,,株式会社,東京都,調布市,小島町３丁目６６－１モンレーヴ調布４０１,,13,208,1820026,,,,,,,2021-07-14,1,,,,,,0
1648,6012405004619,新規,0,2021-07-14,2021-07-14,一般社団法人やまと排毒師協会,,その他の設立登記法人,東京都,府中市,多磨町１丁目１０番地の４,,13,206,1830002,,,,,,,2021-07-14,1,,,,,ヤマトハイドクシキョウカイ,0
1649,6012801020962,新規,0,2021-07-14,2021-07-14,株式会社つむぐホーム,,株式会社,東京都,東大和市,南街３丁目２番地の２古屋レジデンス１０１号,,13,220,2070014,,,,,,,2021-07-14,1,,,,,ツムグホーム,0
1651,6012803002546,新規,0,2021-07-14,2021-07-14,ＮＴシステム合同会社,,合同会社,東京都,昭島市,田中町１丁目９番地４０号,,13,207,1960014,,,,,,,2021-07-14,1,,,,,エヌティシステム,0
1663,6020001142131,新規,0,2021-07-14,2021-07-14,Ｓ＆Ｅ株式会社,,株式会社,神奈川県,川崎市中原区,下沼部１８８９番地５,,14,133,2110011,,,,,,,2021-07-14,1,,,,,エスアンドイー,0
1665,6020003020145,新規,0,2021-07-14,2021-07-14,合同会社ｎｉｎｅ　ａｒｔｓ　ｐｒｏｄｕｃｔ,,合同会社,神奈川県,川崎市幸区,下平間２９９－２,,14,132,2120053,,,,,,,2021-07-14,1,,,,,ナインアーツプロダクト,0
1682,6030001143062,新規,0,2021-07-14,2021-07-14,株式会社ファミリエ,,株式会社,埼玉県,入間市,宮寺４１４３番地１８,,11,225,3580014,,,,,,,2021-07-14,1,,,,,,0
1683,6030001143252,新規,0,2021-07-14,2021-07-14,株式会社日本ビジョンネットワーク,,株式会社,埼玉県,熊谷市,筑波２丁目４９番地金子ビル３階,,11,202,3600037,,,,,,,2021-07-14,1,,,,,ニホンビジョンネットワーク,0
1684,6030001143319,新規,0,2021-07-14,2021-07-14,株式会社インフィート,,株式会社,埼玉県,日高市,大字旭ケ丘１０７番地１,,11,242,3501203,,,,,,,2021-07-14,1,,,,,インフィート,0
1685,6030001143327,新規,0,2021-07-14,2021-07-14,Ｍｉｒｈａ　Ｔｅｃｈ　Ｊａｐａｎ株式会社,,株式会社,埼玉県,さいたま市桜区,大字大久保領家６０７番地１９,,11,106,3380826,,,,,,,2021-07-14,1,,,,,,0
1686,6030001143351,新規,0,2021-07-14,2021-07-14,株式会社ひとつなぎ,,株式会社,埼玉県,熊谷市,妻沼東５丁目２１番地３,,11,202,3600202,,,,,,,2021-07-14,1,,,,,ヒトツナギ,0
1691,6030003017636,新規,0,2021-07-14,2021-07-14,合同会社エルフェア,,合同会社,埼玉県,坂戸市,鶴舞２丁目８番１号,,11,239,3500241,,,,,,,2021-07-14,1,,,,,エルフェア,0
1696,6040001119334,新規,0,2021-07-14,2021-07-14,富強商事株式会社,00123639,株式会社,千葉県,千葉市稲毛区,小深町５８９番地９,,12,103,2630003,,,,,,,2021-07-14,1,,,,,フキョウショウジ,0
1712,6060003003757,新規,0,2021-07-14,2021-07-14,合同会社ＣＯＣＯＡ,,合同会社,栃木県,宇都宮市,下岡本町４５５２番地,,09,201,3291104,,,,,,,2021-07-14,1,,,,,ココア,0
1719,6080403004329,新規,0,2021-07-14,2021-07-14,合同会社ギブギブ,,合同会社,静岡県,浜松市中区,幸１丁目６番９号,,22,131,4338123,,,,,,,2021-07-14,1,,,,,ギブギブ,0
1741,6120001239017,新規,0,2021-07-14,2021-07-14,株式会社メイヤー,,株式会社,大阪府,大阪市中央区,道修町１丁目５番７号,,27,128,5410045,,,,,,,2021-07-14,1,,,,,メイヤー,0
1742,6120001239041,新規,0,2021-07-14,2021-07-14,株式会社サイクロス,,株式会社,大阪府,大阪市北区,天神橋３丁目２番１０号,,27,127,5300041,,,,,,,2021-07-14,1,,,,,サイクロス,0
1743,6120001239058,新規,0,2021-07-14,2021-07-14,株式会社ＢＥＬＩＥＶＩＮ,,株式会社,大阪府,大阪市北区,南森町２丁目２番２８号,,27,127,5300054,,,,,,,2021-07-14,1,,,,,ビリービン,0
1744,6120001239074,新規,0,2021-07-14,2021-07-14,株式会社ＳＬＡＮＤ,,株式会社,大阪府,大阪市北区,豊崎３丁目１８番３号,,27,127,5310072,,,,,,,2021-07-14,1,,,,,エスランド,0
1745,6120003019846,新規,0,2021-07-14,2021-07-14,合同会社サニートラスト,,合同会社,大阪府,大阪市生野区,生野西１丁目１５番２号,,27,116,5440024,,,,,,,2021-07-14,1,,,,,サニートラスト,0
1746,6120003019854,新規,0,2021-07-14,2021-07-14,光愛ソーラーマネジメント合同会社,,合同会社,大阪府,大阪市中央区,南船場２丁目７番１３号日宝船場中央ビル５Ｆ,,27,128,5420081,,,,,,,2021-07-14,1,,,,,コウアイソーラーマネジメント,0
1749,6120005022377,新規,0,2021-07-14,2021-07-14,一般社団法人インフィニティ国際学院初等部,,その他の設立登記法人,大阪府,大阪市天王寺区,烏ケ辻１丁目２番２２号,,27,109,5430042,,,,,,,2021-07-14,1,,,,,インフィニティコクサイガクインショトウブ,0
1751,6120901044631,新規,0,2021-07-14,2021-07-14,Ａｗｅｓｏｍｅ　Ｗｏｒｋｓ株式会社,,株式会社,大阪府,吹田市,泉町３丁目１７番３９号,,27,205,5640041,,,,,,,2021-07-14,1,,,,,オーサムワークス,0
1755,6122001034991,新規,0,2021-07-14,2021-07-14,ＡＷＥＳＯＭＥ株式会社,,株式会社,大阪府,四條畷市,江瀬美町２番８号４階,,27,229,5750034,,,,,,,2021-07-14,1,,,,,オーサム,0
1762,6140001122303,新規,0,2021-07-14,2021-07-14,株式会社ＬＩＧＨＴＳＨＩＰ,,株式会社,兵庫県,神戸市灘区,篠原南町６丁目１番１０－１１３号,,28,102,6570059,,,,,,,2021-07-14,1,,,,,ライトシップ,0
1763,6140001122352,新規,0,2021-07-14,2021-07-14,株式会社ＪＯＬＴ,,株式会社,兵庫県,西宮市,甲子園口３丁目４番２０号ヌーベル甲子園口３ＩＪＫ号室,,28,204,6638113,,,,,,,2021-07-14,1,,,,,ジョルト,0
1776,6180001146918,新規,0,2021-07-14,2021-07-14,令和物流株式会社,,株式会社,愛知県,名古屋市西区,浮野町１６１番地２－２Ａ,,23,104,4520846,,,,,,,2021-07-14,1,,,,,レイワブツリュウ,0
1777,6180001146967,新規,0,2021-07-14,2021-07-14,飛鳥株式会社,,株式会社,愛知県,名古屋市北区,楠１丁目１５２２番地の１,,23,103,4620012,,,,,,,2021-07-14,1,,,,,アスカ,0
1787,6190001028512,新規,0,2021-07-14,2021-07-14,株式会社Ｗｈｉｔｅ,,株式会社,三重県,伊賀市,服部町２丁目８３番地の１,,24,216,5180007,,,,,,,2021-07-14,1,,,,,ホワイト,0
1806,6240001058280,新規,0,2021-07-14,2021-07-14,株式会社馬呆,,株式会社,広島県,福山市,新涯町５丁目２５番１１号Ａ２０２,,34,207,7210955,,,,,,,2021-07-14,1,,,,,バホ,0
1808,6240003005198,新規,0,2021-07-14,2021-07-14,合同会社ＬＩＮＯ,,合同会社,広島県,広島市安佐南区,東原２丁目８番１８－１０２号,,34,105,7310112,,,,,,,2021-07-14,1,,,,,リノ,0
1816,6270001008316,新規,0,2021-07-14,2021-07-14,株式会社ノノスタイル,,株式会社,鳥取県,鳥取市,二階町４丁目１１８番地,,31,201,6800033,,,,,,,2021-07-14,1,,,,,ノノスタイル,0
1823,6290001093835,新規,0,2021-07-14,2021-07-14,初村第一倉庫株式会社,,株式会社,福岡県,福岡市博多区,吉塚８丁目４番４８号,,40,132,8120041,,,,,,,2021-07-14,1,,,,,ハツムラダイイチソウコ,0
1832,6290803003883,新規,0,2021-07-14,2021-07-14,合同会社八雲計画,,合同会社,福岡県,遠賀郡水巻町,頃末北２丁目５番１号,,40,382,8070022,,,,,,,2021-07-14,1,,,,,ヤクモケイカク,0
1841,6320001018490,新規,0,2021-07-14,2021-07-14,株式会社ＳＨＡＨ　ＺＡＩＢ　ＴＲＡＤＩＮＧ,,株式会社,大分県,中津市,大字犬丸２２３５番地２,,44,203,8790105,,,,,,,2021-07-14,1,,,,,シャゼイブトレーディング,0
1844,6330001028753,新規,0,2021-07-14,2021-07-14,株式会社熊本ファシリティ,,株式会社,熊本県,熊本市中央区,九品寺２丁目６番５７号,,43,101,8620976,,,,,,,2021-07-14,1,,,,,クマモトファシリティ,0
1851,6340003003489,新規,0,2021-07-14,2021-07-14,合同会社聖友,,合同会社,鹿児島県,鹿児島市,谷山中央５丁目３９番２４号,,46,201,8910141,,,,,,,2021-07-14,1,,,,,セイユウ,0
1854,6360001029022,新規,0,2021-07-14,2021-07-14,エコツーライト琉球販売株式会社,,株式会社,沖縄県,那覇市,樋川２丁目１－３開南ビル３階,,47,201,9000022,,,,,,,2021-07-14,1,,,,,,0
1882,6430001084571,新規,0,2021-07-14,2021-07-14,株式会社おかだや,,株式会社,北海道,札幌市豊平区,豊平一条１丁目１番１３号パブリック４８－６０２号,,01,105,0620901,,,,,,,2021-07-14,1,,,,,オカダヤ,0
1883,6430003012951,新規,0,2021-07-14,2021-07-14,合同会社Ｐｉｌｌａｒ　ｏｆ　Ｌｉｇｈｔ,,合同会社,北海道,札幌市中央区,南九条西４丁目３－１－２５０３,,01,101,0640809,,,,,,,2021-07-14,1,,,,,ピラーオブライト,0
1889,6470001018617,新規,0,2021-07-14,2021-07-14,株式会社ｎｅｓｔ建築設計室,,株式会社,香川県,三豊市,財田町財田中５７１番地１,,37,208,7690402,,,,,,,2021-07-14,1,,,,,ネストケンチクセッケイシツ,0
1894,6700150104094,新規,0,2021-07-14,2021-07-14,豊見城市与根西部土地区画整理組合,,その他,沖縄県,豊見城市,字豊崎１－６７７,,47,212,9010225,,,,,,,2021-07-14,1,,,,,トミシロシヨネセイブトチクカクセイリクミアイ,0
1904,7010001219623,新規,0,2021-07-14,2021-07-14,株式会社空間美学,,株式会社,東京都,千代田区,丸の内２丁目３番２号郵船ビルディング一階,,13,101,1000005,,,,,,,2021-07-14,1,,,,,クウカンビガク,0
1905,7010001219680,新規,0,2021-07-14,2021-07-14,栄世株式会社,,株式会社,東京都,千代田区,四番町４番地９新東京国際リーガル内,,13,101,1020081,,,,,,,2021-07-14,1,,,,,エイセイ,0
1909,7010003035291,新規,0,2021-07-14,2021-07-14,合同会社パーソナロジー,,合同会社,東京都,千代田区,永田町２丁目１７番５号ローレル永田町１１３,,13,101,1000014,,,,,,,2021-07-14,1,,,,,パーソナロジー,0
1910,7010003035300,新規,0,2021-07-14,2021-07-14,ＨＩＮＯＤＥ２０合同会社,,合同会社,東京都,中央区,京橋１丁目６番１３号,,13,102,1040031,,,,,,,2021-07-14,1,,,,,ヒノデニジュウ,0
1911,7010003035317,新規,0,2021-07-14,2021-07-14,Ｏｒｃｈｉｄ　Ｏｎｅ合同会社,,合同会社,東京都,千代田区,丸の内３丁目１番１号東京共同会計事務所内,,13,101,1000005,,,,,,,2021-07-14,1,,,,,オーキッドワン,0
1917,7010401161458,新規,0,2021-07-14,2021-07-14,プラム株式会社,,株式会社,東京都,港区,浜松町２丁目２番１５号,,13,103,1050013,,,,,,,2021-07-14,1,,,,,プラム,0
1918,7010401161482,新規,0,2021-07-14,2021-07-14,株式会社エース,,株式会社,東京都,港区,北青山２丁目７番２０号猪瀬ビル２Ｆ,,13,103,1070061,,,,,,,2021-07-14,1,,,,,エース,0
1919,7010403025710,新規,0,2021-07-14,2021-07-14,合同会社ＳＯＹＯＵ　ＣＯＭＰＡＮＹ,,合同会社,東京都,港区,赤坂３丁目１５番２－２階,,13,103,1070052,,,,,,,2021-07-14,1,,,,,ソユカンパニー,0
1921,7010405020016,新規,0,2021-07-14,2021-07-14,一般社団法人ＤＡヘルスケア６,,その他の設立登記法人,東京都,港区,元赤坂１丁目１番７号,,13,103,1070051,,,,,,,2021-07-14,1,,,,,ディーエイヘルスケアシックス,0
1938,7011001141750,新規,0,2021-07-14,2021-07-14,株式会社彩匠堂,,株式会社,東京都,渋谷区,渋谷２丁目４番２号ＳｈｉｂｕｙａＩビル２階,,13,113,1500002,,,,,,,2021-07-14,1,,,,,サイショウドウ,0
1939,7011001141759,新規,0,2021-07-14,2021-07-14,株式会社小町マーケティングラボ,,株式会社,東京都,渋谷区,代々木１丁目２５番５号,,13,113,1510053,,,,,,,2021-07-14,1,,,,,コマチマーケティングラボ,0
1940,7011001141767,新規,0,2021-07-14,2021-07-14,株式会社Ｄｒｅａｍ　Ｓｔｒｅａｍ,,株式会社,東京都,渋谷区,渋谷２丁目２２番７号,,13,113,1500002,,,,,,,2021-07-14,1,,,,,ドリームストリーム,0
1943,7011101095681,新規,0,2021-07-14,2021-07-14,ＦＴＫホールディングス株式会社,,株式会社,東京都,新宿区,西新宿２丁目１番１号,,13,104,1600023,,,,,,,2021-07-14,1,,,,,エフティーケーホールディングス,0
1944,7011101095723,新規,0,2021-07-14,2021-07-14,Ｇｒｅａｔ　Ｗｏｒｋ株式会社,,株式会社,東京都,新宿区,西新宿７丁目１０番地１４号,,13,104,1600023,,,,,,,2021-07-14,1,,,,,グレートワーク,0
1951,7011403003383,新規,0,2021-07-14,2021-07-14,合同会社指圧・和,,合同会社,東京都,板橋区,赤塚１丁目３６番７号須田セブンビル１０３,,13,119,1750092,,,,,,,2021-07-14,1,,,,,シアツワ,0
1956,7012803002545,新規,0,2021-07-14,2021-07-14,村山企画合同会社,,合同会社,東京都,武蔵村山市,三ツ木１丁目１２番地の１０,,13,223,2080032,,,,,,,2021-07-14,1,,,,,ムラヤマキカク,0
1959,7013301047727,新規,0,2021-07-14,2021-07-14,株式会社しろまる,,株式会社,東京都,豊島区,目白２丁目２－１目白カルチャービル６Ｆ,,13,116,1710031,,,,,,,2021-07-14,1,,,,,シロマル,0
1969,7020003020160,新規,0,2021-07-14,2021-07-14,合同会社フリーゲン,,合同会社,神奈川県,川崎市宮前区,鷺沼４丁目１３番地２たまプラーザ東パーク・ホームズ７０１,,14,136,2160004,,,,,,,2021-07-14,1,,,,,フリーゲン,0
1973,7021001073365,新規,0,2021-07-14,2021-07-14,株式会社Ｌｏｒｄｉｓｈ　Ｂｅｈａｖｉｏｒ,,株式会社,神奈川県,茅ヶ崎市,東海岸南２丁目６番５９号,,14,207,2530054,,,,,,,2021-07-14,1,,,,,ローディッシュビヘイビア,0
1982,7030001143326,新規,0,2021-07-14,2021-07-14,ＨＩＮＡＳ株式会社,,株式会社,埼玉県,朝霞市,栄町３丁目４－１４－２０３,,11,227,3510012,,,,,,,2021-07-14,1,,,,,ヒナス,0
1983,7030001143342,新規,0,2021-07-14,2021-07-14,株式会社Ａ－ｓｉｄｅ,,株式会社,埼玉県,三郷市,采女１丁目１６８番地２,,11,237,3410011,,,,,,,2021-07-14,1,,,,,エイサイド,0
1984,7030001143350,新規,0,2021-07-14,2021-07-14,サンユウテック株式会社,,株式会社,埼玉県,川越市,大字久下戸３６１２－２５,,11,201,3500011,,,,,,,2021-07-14,1,,,,,サンユウテック,0
2004,7050005012905,新規,0,2021-07-14,2021-07-14,特定非営利活動法人高齢者ＩＴ支援の会,,その他の設立登記法人,茨城県,龍ケ崎市,平台４丁目１８番地１,,08,208,3010003,,,,,,,2021-07-14,1,,,,,コウレイシャアイティーシエンノカイ,0
2007,7060001033912,新規,0,2021-07-14,2021-07-14,株式会社ＷｉｎＷｉｎコーポレーション,,株式会社,栃木県,宇都宮市,峰２丁目１３番１号,,09,201,3210942,,,,,,,2021-07-14,1,,,,,ウィンウィンコーポレーション,0
2010,7070001038274,新規,0,2021-07-14,2021-07-14,エムエステクノ株式会社,,株式会社,群馬県,高崎市,井出町３１７番地２,,10,202,3703534,,,,,,,2021-07-14,1,,,,,エムエステクノ,0
2012,7080001024323,新規,0,2021-07-14,2021-07-14,稲照株式会社,,株式会社,静岡県,静岡市清水区,長崎２９０番地の１,,22,103,4240065,,,,,,,2021-07-14,1,,,,,イナショウ,0
2018,7090001017094,新規,0,2021-07-14,2021-07-14,株式会社ｉ‐ｃｏｎｎｅｃｔ,,株式会社,山梨県,甲府市,山宮町１８２６番地３,,19,201,4000075,,,,,,,2021-07-14,1,,,,,アイコネクト,0
2035,7120001238959,新規,0,2021-07-14,2021-07-14,株式会社ＲＬＭ,,株式会社,大阪府,大阪市東住吉区,西今川３丁目２番１４号,,27,121,5460042,,,,,,,2021-07-14,1,,,,,アールエルエム,0
2036,7120001238975,新規,0,2021-07-14,2021-07-14,亨往株式会社,,株式会社,大阪府,大阪市浪速区,稲荷２丁目３番２５号,,27,111,5560023,,,,,,,2021-07-14,1,,,,,ホウオウ,0
2037,7120001239016,新規,0,2021-07-14,2021-07-14,株式会社ヴィーナス,,株式会社,大阪府,大阪市中央区,道修町１丁目５番７号,,27,128,5410045,,,,,,,2021-07-14,1,,,,,ヴィーナス,0
2038,7120001239081,新規,0,2021-07-14,2021-07-14,株式会社ＷｉＹＰ,,株式会社,大阪府,大阪市中央区,久太郎町４丁目１－３大阪センタービル６Ｆ,,27,128,5410056,,,,,,,2021-07-14,1,,,,,ウィープ,0
2044,7120005022376,新規,0,2021-07-14,2021-07-14,一般社団法人ミナミ御堂筋の会,,その他の設立登記法人,大阪府,大阪市中央区,西心斎橋２丁目５番９号,,27,128,5420086,,,,,,,2021-07-14,1,,,,,ミナミミドウスジノカイ,0
2047,7120101063976,新規,0,2021-07-14,2021-07-14,株式会社Ｒｉｉｔｔ,,株式会社,大阪府,貝塚市,麻生中１０２４－９,,27,208,5970081,,,,,,,2021-07-14,1,,,,,リット,0
2048,7120101063984,新規,0,2021-07-14,2021-07-14,株式会社マテリアルイノベーション,,株式会社,大阪府,松原市,一津屋６丁目１５番４８号,,27,217,5800003,,,,,,,2021-07-14,1,,,,,マテリアルイノベーション,0
2050,7120105009422,新規,0,2021-07-14,2021-07-14,医療法人智仁会,,その他の設立登記法人,大阪府,藤井寺市,野中４丁目１６番３２号野中クリニックビル２階,,27,226,5830014,,,,,,,2021-07-14,1,,,,,トモヒトカイ,0
2053,7122001034990,新規,0,2021-07-14,2021-07-14,株式会社高瀬工務店,00123634,株式会社,大阪府,東大阪市,吉松１丁目２－１５,,27,227,5770821,,,,,,,2021-07-14,1,,,,,タカセコウムテン,0
2054,7130005016220,新規,0,2021-07-14,2021-07-14,税理士法人高瀬会計事務所,,その他の設立登記法人,京都府,木津川市,州見台４丁目５番地１,,26,214,6190216,,,,,,,2021-07-14,1,,,,,タカセカイケイジムショ,0
2061,7140001122319,新規,0,2021-07-14,2021-07-14,株式会社ＣｉｓＵ,,株式会社,兵庫県,神戸市中央区,旭通４丁目１－３－２６０１,,28,110,6510095,,,,,,,2021-07-14,1,,,,,シーイズユー,0
2062,7140001122327,新規,0,2021-07-14,2021-07-14,株式会社アイズ,,株式会社,兵庫県,姫路市,北条宮の町２５８番地キノシタビル４０２,,28,201,6700948,,,,,,,2021-07-14,1,,,,,アイズ,0
2075,7180001146842,新規,0,2021-07-14,2021-07-14,ｔｏｉｒｏ株式会社,,株式会社,愛知県,春日井市,篠木町８丁目２６７３番地１６,,23,206,4860851,,,,,,,2021-07-14,1,,,,,トイロ,0
2076,7180001146982,新規,0,2021-07-14,2021-07-14,智美健康株式会社,,株式会社,愛知県,名古屋市西区,名駅１丁目１番１７号名駅ダイヤメイテツビル１１階,,23,104,4510045,,,,,,,2021-07-14,1,,,,,トモミケンコウ,0
2077,7180001146999,新規,0,2021-07-14,2021-07-14,株式会社ノア,,株式会社,愛知県,名古屋市中区,丸の内１丁目９番１１号８階,,23,106,4600002,,,,,,,2021-07-14,1,,,,,ノア,0
2083,7180003022744,新規,0,2021-07-14,2021-07-14,祥雨商事合同会社,,合同会社,愛知県,名古屋市中川区,打出２丁目１９４番地の１,,23,110,4540926,,,,,,,2021-07-14,1,,,,,ショウウショウジ,0
2086,7180301035159,新規,0,2021-07-14,2021-07-14,株式会社Ｍａｋｅｒ＆Ｆａｃｔｏｒｙ’ｓＨＵＢ,,株式会社,愛知県,豊橋市,西幸町字浜池３３３番地の９豊橋サイエンスコア１０９号,,23,201,4418113,,,,,,,2021-07-14,1,,,,,メーカーアンドファクトリーズハブ,0
2092,7200003005259,新規,0,2021-07-14,2021-07-14,合同会社アユミノ,,合同会社,岐阜県,土岐市,泉町久尻１５番地の５,,21,212,5095142,,,,,,,2021-07-14,1,,,,,アユミノ,0
2104,7240001017054,新規,0,2021-07-14,2021-07-14,シーエス企画株式会社,,株式会社,広島県,広島市佐伯区,五日市５丁目１６番１６号,,34,108,7315127,,,,,,,2021-07-14,1,,,,,シーエスキカク,0
2125,7290001093834,新規,0,2021-07-14,2021-07-14,初村サイロ株式会社,,株式会社,福岡県,福岡市中央区,那の津５丁目２番２７号,,40,133,8100071,,,,,,,2021-07-14,1,,,,,ハツムラサイロ,0
2126,7290001093900,新規,0,2021-07-14,2021-07-14,株式会社ＥＤＡＨＡ,,株式会社,福岡県,福岡市中央区,天神２丁目３番１０号,,40,133,8100001,,,,,,,2021-07-14,1,,,,,エダハ,0
2131,7290803003882,新規,0,2021-07-14,2021-07-14,合同会社デイアンドデイ,,合同会社,福岡県,北九州市門司区,柳町１丁目１番１８号,,40,101,8000025,,,,,,,2021-07-14,1,,,,,デイアンドデイ,0
2137,7320003003572,新規,0,2021-07-14,2021-07-14,合同会社ＡＢＬＡＺＥ,,合同会社,大分県,大分市,森町西５丁目９番３－２号,,44,201,8700140,,,,,,,2021-07-14,1,,,,,,0
2142,7340003003488,新規,0,2021-07-14,2021-07-14,合同会社ひまわり電工,,合同会社,鹿児島県,鹿児島市,荒田１丁目９番１号,,46,201,8900054,,,,,,,2021-07-14,1,,,,,ヒマワリデンコウ,0
2144,7350001017200,新規,0,2021-07-14,2021-07-14,株式会社喜多工業,,株式会社,宮崎県,東諸県郡国富町,大字本庄１８９１番地１,,45,382,8801101,,,,,,,2021-07-14,1,,,,,キタコウギョウ,0
2145,7350003003891,新規,0,2021-07-14,2021-07-14,ＫｕＲｏＧｉ技建合同会社,,合同会社,宮崎県,宮崎市,学園木花台西１丁目５番地８,,45,201,8892155,,,,,,,2021-07-14,1,,,,,クロギギケン,0
2146,7360003011282,新規,0,2021-07-14,2021-07-14,合同会社ヤイマ・アーツ・アンド・フィルムス,,合同会社,沖縄県,石垣市,字大川２７８番地ＴＡＭＡビルⅡ２Ｆ２０１号室,00123636,47,207,9070022,,,,,,,2021-07-14,1,,,,,,0
2147,7360003011290,新規,0,2021-07-14,2021-07-14,沖縄不動産おきマーク合同会社,,合同会社,沖縄県,那覇市,高良２丁目１０－３１,,47,201,9010145,,,,,,,2021-07-14,1,,,,,オキナワフドウサンオキマーク,0
2152,7380005012459,新規,0,2021-07-14,2021-07-14,陸奥あぶくま開拓舎協同組合,,その他の設立登記法人,福島県,伊達市,保原町字柏町１０２番地３,,07,213,9600651,,,,,,,2021-07-14,1,,,,,,0
2172,7430001084554,新規,0,2021-07-14,2021-07-14,ＫＡＮＯＫＯ株式会社,,株式会社,北海道,札幌市中央区,南二条西８丁目１０番１８号,,01,101,0600062,,,,,,,2021-07-14,1,,,,,カノコ,0
2174,7430003012967,新規,0,2021-07-14,2021-07-14,合同会社アンリーホーム,,合同会社,北海道,札幌市北区,麻生町６丁目５－１３ロジェ麻生,,01,102,0010045,,,,,,,2021-07-14,1,,,,,アンリーホーム,0
2176,7460001005573,新規,0,2021-07-14,2021-07-14,株式会社Ｃｏｎｔｉｎｕａｒ,,株式会社,北海道,釧路市,星が浦北３丁目４番３４号,,01,206,0840911,,,,,,,2021-07-14,1,,,,,コンティノアール,0
2183,7700150104093,新規,0,2021-07-14,2021-07-14,不破郡北部土地改良区,,その他,岐阜県,不破郡垂井町,宮代２９５７番地の１１,,21,361,5032124,,,,,,,2021-07-14,1,,,,,フワグンホクブトチカイリヨウク,0
2184,7700150104102,新規,0,2021-07-14,2021-07-14,エージーエーフィリピンインク,,外国会社等,東京都,江東区,青海２丁目４番２４号青海フロンティアビル,,13,108,1350064,フィリピン共和国バタンガス州サント・トマス市バランガイ・サンタ・アナ、エルアイエスピー３、ミレニアム・ドライブ１－８,,,,,,2021-07-14,1,,,,,エージーエーフイリピンインク,0
2196,8010001219639,新規,0,2021-07-14,2021-07-14,株式会社ｃｏｃｏｔｒａｖｅｌ,,株式会社,東京都,文京区,根津２丁目８－１１－３０４,,13,105,1130031,,,,,,,2021-07-14,1,,,,,ココトラベル,0
2197,8010001219663,新規,0,2021-07-14,2021-07-14,株式会社マスターコンチネンタル,,株式会社,東京都,中央区,銀座１丁目１９番３号,,13,102,1040061,,,,,,,2021-07-14,1,,,,,マスターコンチネンタル,0
2198,8010001219705,新規,0,2021-07-14,2021-07-14,株式会社ハマーズＸ,,株式会社,東京都,千代田区,丸の内１丁目１１－１パシフィックセンチュリープレイス１３階,,13,101,1000005,,,,,,,2021-07-14,1,,,,,ハマーズエックス,0
2200,8010003035241,新規,0,2021-07-14,2021-07-14,合同会社東京レジデンシャル５,,合同会社,東京都,中央区,日本橋１丁目４番１号,,13,102,1030027,,,,,,,2021-07-14,1,,,,,トウキョウレジデンシャルファイブ,0
2201,8010003035282,新規,0,2021-07-14,2021-07-14,Ａｔｒｉｂｅ合同会社,,合同会社,東京都,千代田区,鍛冶町２丁目１０番４号神田奥野ビル８階,,13,101,1010044,,,,,,,2021-07-14,1,,,,,アトライブ,0
2202,8010003035299,新規,0,2021-07-14,2021-07-14,ＨＩＮＯＤＥ１９合同会社,,合同会社,東京都,中央区,京橋１丁目６番１３号,,13,102,1040031,,,,,,,2021-07-14,1,,,,,ヒノデジュウキュウ,0
2203,8010003035316,新規,0,2021-07-14,2021-07-14,海南大崎再生可能エネルギー発電合同会社,,合同会社,東京都,千代田区,丸の内３丁目１番１号東京共同会計事務所内,,13,101,1000005,,,,,,,2021-07-14,1,,,,,カイナンオオサキサイセイカノウエネルギーハツデン,0
2205,8010005033680,新規,0,2021-07-14,2021-07-14,Ｏｒｃｈｉｄ一般社団法人,,その他の設立登記法人,東京都,千代田区,丸の内３丁目１番１号東京共同会計事務所内,,13,101,1000005,,,,,,,2021-07-14,1,,,,,オーキッド,0
2215,8010401161473,新規,0,2021-07-14,2021-07-14,Ｚｏｏｍｍｉｆｙ株式会社,,株式会社,東京都,港区,芝浦４丁目２０番２－７１９号,,13,103,1080023,,,,,,,2021-07-14,1,,,,,ズーミファイ,0
2216,8010401161498,新規,0,2021-07-14,2021-07-14,株式会社ＨＡＡＢ　ＳＫＩＮ,,株式会社,東京都,港区,六本木３丁目３番２７号,,13,103,1060032,,,,,,,2021-07-14,1,,,,,ハーブスキン,0
2217,8010401161515,新規,0,2021-07-14,2021-07-14,株式会社Ｉ’ｓＮＬ,,株式会社,東京都,港区,南青山５丁目１７番２号,,13,103,1070062,,,,,,,2021-07-14,1,,,,,アイズネイル,0
2218,8010403025734,新規,0,2021-07-14,2021-07-14,合同会社ＤＡヘルスケア９,,合同会社,東京都,港区,元赤坂１丁目１番７号,,13,103,1070051,,,,,,,2021-07-14,1,,,,,ディーエイヘルスケアナイン,0
2230,8010901049012,新規,0,2021-07-14,2021-07-14,株式会社リサイト,,株式会社,東京都,世田谷区,上馬４丁目３５番６号たか荘３０１,,13,112,1540011,,,,,,,2021-07-14,1,,,,,リサイト,0
2232,8010903006647,新規,0,2021-07-14,2021-07-14,合同会社柴田木綿子建築設計事務所,,合同会社,東京都,世田谷区,野沢２丁目８番１６号世田谷野沢マートルコート３０２,,13,112,1540003,,,,,,,2021-07-14,1,,,,,シバタユウコケンチクセッケイジムショ,0
2237,8011001141766,新規,0,2021-07-14,2021-07-14,株式会社ナショナル・フオートホールディングス,,株式会社,東京都,渋谷区,神宮前６丁目１３番２号,,13,113,1500001,,,,,,,2021-07-14,1,,,,,ナショナルフオートホールディングス,0
2242,8011101095680,新規,0,2021-07-14,2021-07-14,パタタス株式会社,,株式会社,東京都,新宿区,新宿１丁目３６番２号新宿第七葉山ビル３階,,13,104,1600022,,,,,,,2021-07-14,1,,,,,パタタス,0
2243,8011101095722,新規,0,2021-07-14,2021-07-14,株式会社クラクル,,株式会社,東京都,新宿区,四谷三栄町１３番８号ロイヤル四谷１０３,,13,104,1600008,,,,,,,2021-07-14,1,,,,,クラクル,0
2249,8011601025261,新規,0,2021-07-14,2021-07-14,株式会社Ｇａｎｒｙｕ,,株式会社,東京都,練馬区,栄町３番８号セントラル内田ビル２Ｆ,,13,120,1760006,,,,,,,2021-07-14,1,,,,,ガンリュウ,0
2253,8012303001567,新規,0,2021-07-14,2021-07-14,合同会社Ｆｒａｐ,,合同会社,東京都,町田市,中町４丁目１番７号,,13,209,1940021,,,,,,,2021-07-14,1,,,,,フラップ,0
2256,8012801020960,新規,0,2021-07-14,2021-07-14,株式会社ｄｏｕｇｈｎｕｔ,,株式会社,東京都,国立市,富士見台３丁目１１番地の１ラ・プリマヴェーラ国立１０７,,13,215,1860003,,,,,,,2021-07-14,1,,,,,ドーナツ,0
2257,8012805003037,新規,0,2021-07-14,2021-07-14,一般社団法人昭島市スポーツ協会,,その他の設立登記法人,東京都,昭島市,東町５丁目１３番１号,,13,207,1960033,,,,,,,2021-07-14,1,,,,,アキシマシスポーツキョウカイ,0
2259,8013301047726,新規,0,2021-07-14,2021-07-14,株式会社Ａｍｉｎａ,,株式会社,東京都,豊島区,池袋２丁目６１－７弓削・山崎ビル１０１,,13,116,1710014,,,,,,,2021-07-14,1,,,,,アミナ,0
2260,8013303005748,新規,0,2021-07-14,2021-07-14,合同会社インテリジェンス,,合同会社,東京都,豊島区,目白２丁目２６－１２,,13,116,1710031,,,,,,,2021-07-14,1,,,,,インテリジェンス,0
2269,8020001142071,新規,0,2021-07-14,2021-07-14,Ａｉｒｂｕｙ　Ｊａｐａｎ株式会社,,株式会社,神奈川県,横浜市西区,みなとみらい３丁目７－１ＯＣＥＡＮ・ＧＡＴＥ・ＭＩＮＡＴＯ・ＭＩＲＡＩ・８Ｆ,,14,103,2200012,,,,,,,2021-07-14,1,,,,,エアバイジャパン,0
2270,8020001142212,新規,0,2021-07-14,2021-07-14,株式会社ｅｇｇ　Ｐｌａｎｅｔｓ,,株式会社,神奈川県,横浜市旭区,上白根２丁目６番２号,,14,112,2410002,,,,,,,2021-07-14,1,,,,,エッグプラネッツ,0
2275,8020003020143,新規,0,2021-07-14,2021-07-14,合同会社Ｆ－ＳＰＩＲＩＴ,,合同会社,神奈川県,横浜市旭区,中希望が丘１４４－１希望ヶ丘第二コーポラスＤ棟２０７,,14,112,2410825,,,,,,,2021-07-14,1,,,,,エフスピリット,0
2292,8030001143333,新規,0,2021-07-14,2021-07-14,株式会社Ｆｌａｓｈｌｉｇｈｔ,,株式会社,埼玉県,鴻巣市,人形２丁目１番６７号,,11,217,3650037,,,,,,,2021-07-14,1,,,,,フラッシュライト,0
2293,8030001143341,新規,0,2021-07-14,2021-07-14,株式会社永和ビルド,,株式会社,埼玉県,草加市,谷塚上町６５９番地６,,11,221,3400024,,,,,,,2021-07-14,1,,,,,エイワビルド,0
2296,8030003017584,新規,0,2021-07-14,2021-07-14,合同会社ＳＯＮＶＹ,,合同会社,埼玉県,八潮市,大字鶴ケ曽根８５２－２４,,11,234,3400802,,,,,,,2021-07-14,1,,,,,ソンビ,0
2297,8030003017601,新規,0,2021-07-14,2021-07-14,ＰＡＳＳＩＯＮ合同会社,,合同会社,埼玉県,日高市,武蔵台１丁目１８番２５号,,11,242,3501255,,,,,,,2021-07-14,1,,,,,パッション,0
2299,8040001119324,新規,0,2021-07-14,2021-07-14,株式会社ワンガーデン,,株式会社,千葉県,千葉市中央区,都町５丁目３番５号メゾンセントラル１０３号,,12,101,2600001,,,,,,,2021-07-14,1,,,,,ワンガーデン,0
2300,8040001119381,新規,0,2021-07-14,2021-07-14,株式会社ＲＡＷ,,株式会社,千葉県,柏市,あけぼの４丁目１１番１－５０１号,,12,217,2770841,,,,,,,2021-07-14,1,,,,,ロウ,0
2306,8060003003755,新規,0,2021-07-14,2021-07-14,ＰＭＮ　Ｉｎｔｅｒｎａｔｉｏｎａｌ合同会社,,合同会社,栃木県,真岡市,大和田５５２番地１,,09,209,3214508,,,,,,,2021-07-14,1,,,,,ピーエムエヌインターナショナル,0
2312,8080001002682,新規,0,2021-07-14,2021-07-14,静岡県共済福祉株式会社,,株式会社,静岡県,静岡市駿河区,曲金３丁目８番１号,,22,102,4228006,,,,,,,2021-07-14,1,,,,,シズオカケンキョウサイフクシ,0
2317,8100003006167,新規,0,2021-07-14,2021-07-14,総合企画フトマニ合同会社,,合同会社,長野県,伊那市,ますみヶ丘１０９５－２４,,20,209,3960027,,,,,,,2021-07-14,1,,,,,ソウゴウキカクフトマニ,0
2335,8120001238982,新規,0,2021-07-14,2021-07-14,株式会社ｖ．ｍａｓｈ．ｒｏｏｍ,,株式会社,大阪府,大阪市西区,南堀江２丁目５番３号ブラービ南堀江１３０５号,,27,106,5500015,,,,,,,2021-07-14,1,,,,,ブイマッシュルーム,0
2336,8120001239048,新規,0,2021-07-14,2021-07-14,株式会社関西不動産売却相談所,,株式会社,大阪府,枚方市,岡東町１８番１２号３階,,27,210,5730032,,,,,,,2021-07-14,1,,,,,カンサイフドウサンバイキャクソウダンショ,0
2337,8120001239056,新規,0,2021-07-14,2021-07-14,株式会社イーエムアイ,,株式会社,大阪府,大阪市中央区,北浜２丁目２番２１－３６０５号,,27,128,5410041,,,,,,,2021-07-14,1,,,,,イーエムアイ,0
2338,8120001239080,新規,0,2021-07-14,2021-07-14,ｌａｚｙｓ株式会社,,株式会社,大阪府,大阪市福島区,福島４丁目３番２３－４２０３号,,27,103,5530003,,,,,,,2021-07-14,1,,,,,レイジーズ,0
2340,8120003019844,新規,0,2021-07-14,2021-07-14,ＡＶＯ合同会社,,合同会社,大阪府,大阪市中央区,南船場１丁目９番２４－５０４号,,27,128,5420081,,,,,,,2021-07-14,1,,,,,アヴォ,0
2360,8140001122326,新規,0,2021-07-14,2021-07-14,リステノーラ株式会社,,株式会社,兵庫県,尼崎市,大庄川田町３２番地,,28,202,6600072,,,,,,,2021-07-14,1,,,,,リステノーラ,0
2362,8140003016518,新規,0,2021-07-14,2021-07-14,ＮＥＫＯＮＯＴＥ合同会社,,合同会社,兵庫県,神戸市中央区,中山手通１丁目１３番７号,,28,110,6500004,,,,,,,2021-07-14,1,,,,,ネコノテ,0
2367,8180001146965,新規,0,2021-07-14,2021-07-14,株式会社花の木プランニング,,株式会社,愛知県,名古屋市西区,花の木２丁目６番２号,,23,104,4510062,,,,,,,2021-07-14,1,,,,,ハナノキプランニング,0
2368,8180003022743,新規,0,2021-07-14,2021-07-14,合同会社清白,,合同会社,愛知県,名古屋市緑区,神沢１丁目６１４番地,,23,114,4580014,,,,,,,2021-07-14,1,,,,,スズシロ,0
2370,8180005019366,新規,0,2021-07-14,2021-07-14,社会福祉法人まちスウィング,,その他の設立登記法人,愛知県,春日井市,高森台２丁目５番地１０,,23,206,4870032,,,,,,,2021-07-14,1,,,,,マチスウィング,0
2375,8190001028510,新規,0,2021-07-14,2021-07-14,株式会社ＲＥＭＩＥ,,株式会社,三重県,名張市,桔梗が丘７番町一街区４８番地,,24,208,5180627,,,,,,,2021-07-14,1,,,,,リミエ,0
2377,8190005011594,新規,0,2021-07-14,2021-07-14,特定非営利活動法人さんく,,その他の設立登記法人,三重県,鈴鹿市,中旭が丘４丁目６番地７号,,24,207,5100212,,,,,,,2021-07-14,1,,,,,サンク,0
2383,8200001038895,新規,0,2021-07-14,2021-07-14,株式会社サン・キャリアプラン,,株式会社,岐阜県,各務原市,鵜沼東町６丁目１５３番地,,21,213,5090126,,,,,,,2021-07-14,1,,,,,サンキャリアプラン,0
2393,8240001058279,新規,0,2021-07-14,2021-07-14,Ｐｌａｑｕｅ株式会社,,株式会社,広島県,福山市,神辺町字十九軒屋１２９番地３,,34,207,7202106,,,,,,,2021-07-14,1,,,,,プラーク,0
2394,8240003005196,新規,0,2021-07-14,2021-07-14,合同会社ベトナムの味,,合同会社,広島県,広島市中区,三川町４－１９サンビレッジ並木２階２０１号室,,34,101,7300029,,,,,,,2021-07-14,1,,,,,ベトナムノアジ,0
2414,8320001018489,新規,0,2021-07-14,2021-07-14,株式会社ＩＣＨＩＫＡＮ,,株式会社,大分県,大分市,ひばりケ丘１丁目９番９号,,44,201,8701115,,,,,,,2021-07-14,1,,,,,,0
2421,8350003003890,新規,0,2021-07-14,2021-07-14,合同会社ゆらり,,合同会社,宮崎県,東諸県郡国富町,大字森永１９００番地１,,45,382,8801106,,,,,,,2021-07-14,1,,,,,,0
2425,8360001029086,新規,0,2021-07-14,2021-07-14,株式会社四検沖縄,,株式会社,沖縄県,浦添市,安波茶１丁目２７番９号すえひろビル２０１,,47,208,9012114,,,,,,,2021-07-14,1,,,,,ヨンケンオキナワ,0
2432,8370001047351,新規,0,2021-07-14,2021-07-14,ライテックス・エコサービス株式会社,,株式会社,宮城県,仙台市太白区,八木山東２丁目１６番１６号,,04,104,9820802,,,,,,,2021-07-14,1,,,,,ライテックスエコサービス,0
2463,8440001008924,新規,0,2021-07-14,2021-07-14,ＴＲＵＥ　ＣＯＬＯＲＳ株式会社,,株式会社,北海道,北斗市,本町１丁目５番４号,,01,236,0411201,,,,,,,2021-07-14,1,,,,,トゥルーカラーズ,0
2465,8460103001387,新規,0,2021-07-14,2021-07-14,合同会社ノーサム,,合同会社,北海道,帯広市,大通南１１丁目２０番地５,,01,207,0800010,,,,,,,2021-07-14,1,,,,,ノーサム,0
2481,9010001219679,新規,0,2021-07-14,2021-07-14,株式会社ＬｗＮ,,株式会社,東京都,千代田区,内幸町２丁目１番６号,,13,101,1000011,,,,,,,2021-07-14,1,,,,,エルダブリューエヌ,0
2484,9010003035298,新規,0,2021-07-14,2021-07-14,ＨＩＮＯＤＥ１８合同会社,,合同会社,東京都,中央区,京橋１丁目６番１３号,,13,102,1040031,,,,,,,2021-07-14,1,,,,,ヒノデジュウハチ,0
2490,9010401161431,新規,0,2021-07-14,2021-07-14,株式会社スイミー,,株式会社,東京都,港区,西麻布１丁目３番８号,,13,103,1060031,,,,,,,2021-07-14,1,,,,,スイミー,0
2491,9010401161456,新規,0,2021-07-14,2021-07-14,株式会社ＨＯＮＥＳＴ　ＲＥＡＬＴＹ,,株式会社,東京都,港区,芝浦３丁目１７－１１,,13,103,1080023,,,,,,,2021-07-14,1,,,,,オネストリアルティ,0
2492,9010401161497,新規,0,2021-07-14,2021-07-14,ステムセル株式会社,,株式会社,東京都,港区,北青山３丁目６番７号,,13,103,1070061,,,,,,,2021-07-14,1,,,,,ステムセル,0
2493,9010403025709,新規,0,2021-07-14,2021-07-14,合同会社ＳｍｉｌｅＵｐ,,合同会社,東京都,港区,芝大門１丁目２－５松野ビル１階,,13,103,1050012,,,,,,,2021-07-14,1,,,,,スマイルアップ,0
2494,9010403025717,新規,0,2021-07-14,2021-07-14,塩田合同会社,,合同会社,東京都,港区,高輪４丁目８番１１号,,13,103,1080074,,,,,,,2021-07-14,1,,,,,シオダ,0
2501,9010703005848,新規,0,2021-07-14,2021-07-14,合同会社ｇａｌｅ,,合同会社,東京都,品川区,旗の台６丁目９番１３号シャレー旗の台カワベ第１５－２０５,,13,109,1420064,,,,,,,2021-07-14,1,,,,,ゲール,0
2505,9010901049085,新規,0,2021-07-14,2021-07-14,株式会社ニュー・スクウェア,,株式会社,東京都,世田谷区,東玉川２丁目１９番１７号,,13,112,1580084,,,,,,,2021-07-14,1,,,,,ニュースクウェア,0
2512,9011001141534,新規,0,2021-07-14,2021-07-14,ジャンボリー株式会社,,株式会社,東京都,渋谷区,神宮前４丁目９－１３ミナガワビレッジⅣ,00123633,13,113,1500001,,,,,,,2021-07-14,1,,,,,ジャンボリー,0
2514,9011101095647,新規,0,2021-07-14,2021-07-14,株式会社なつコンサルティング,,株式会社,東京都,新宿区,西新宿３丁目２番９号新宿ワシントンホテルビル本館２Ｆ,,13,104,1600023,,,,,,,2021-07-14,1,,,,,ナツコンサルティング,0
2515,9011101095721,新規,0,2021-07-14,2021-07-14,株式会社ＮＥＸＴ,,株式会社,東京都,新宿区,百人町１丁目１２番１号ノーブルビル４階,,13,104,1690073,,,,,,,2021-07-14,1,,,,,ネクスト,0
2516,9011101095754,新規,0,2021-07-14,2021-07-14,海岸株式会社,,株式会社,東京都,新宿区,北新宿１丁目１６番５号３階,,13,104,1690074,,,,,,,2021-07-14,1,,,,,カイガン,0
2517,9011103010851,新規,0,2021-07-14,2021-07-14,合同会社再生,,合同会社,東京都,新宿区,西新宿１丁目１５番２号第五オムニクスビル地下１階,,13,104,1600023,,,,,,,2021-07-14,1,,,,,サイセイ,0
2521,9011301027053,新規,0,2021-07-14,2021-07-14,東京ナイソー株式会社,,株式会社,東京都,杉並区,堀ノ内２丁目１３番１２号アトラス杉並方南町２０７,,13,115,1660013,,,,,,,2021-07-14,1,,,,,トウキョウナイソー,0
2523,9011403003381,新規,0,2021-07-14,2021-07-14,順徳合同会社,,合同会社,東京都,板橋区,中丸町３３－１５,,13,119,1730026,,,,,,,2021-07-14,1,,,,,ジュントク,0
2525,9011501027134,新規,0,2021-07-14,2021-07-14,宏佐和工建株式会社,,株式会社,東京都,荒川区,西尾久７丁目１４番１０号小平ビル４０３,,13,118,1160011,,,,,,,2021-07-14,1,,,,,ヒロサワコウケン,0
2531,9012301012623,新規,0,2021-07-14,2021-07-14,Ｋｏｍｏｉｋｅ株式会社,,株式会社,東京都,町田市,高ヶ坂２丁目３３番１６号,,13,209,1940014,,,,,,,2021-07-14,1,,,,,コモイケ,0
2535,9012401038106,新規,0,2021-07-14,2021-07-14,株式会社ｅｐｉ,,株式会社,東京都,調布市,調布ケ丘３丁目６０番地１６,,13,208,1820021,,,,,,,2021-07-14,1,,,,,エピ,0
2556,9020003020167,新規,0,2021-07-14,2021-07-14,ＰＯＲＴＦＯＬＩＯ　ＤＯＪＯ　ＪＡＰＡＮ合同会社,,合同会社,神奈川県,横浜市西区,みなとみらい３丁目７番１号,,14,103,2200012,,,,,,,2021-07-14,1,,,,,ポートフォリオドウジョウジャパン,0
2564,9021001073421,新規,0,2021-07-14,2021-07-14,株式会社テクニカルリサーチ,,株式会社,神奈川県,鎌倉市,腰越３丁目１０番１７号,,14,204,2480033,,,,,,,2021-07-14,1,,,,,テクニカルリサーチ,0
2573,9030001143324,新規,0,2021-07-14,2021-07-14,株式会社ＴＯＣ建設,,株式会社,埼玉県,日高市,大字鹿山１９７番地１－１０３号,,11,242,3501231,,,,,,,2021-07-14,1,,,,,ティーオーシーケンセツ,0
2580,9030003017633,新規,0,2021-07-14,2021-07-14,世安商事合同会社,,合同会社,埼玉県,朝霞市,三原３丁目１３番５号,,11,227,3510025,,,,,,,2021-07-14,1,,,,,セイアンショウジ,0
2590,9050001049437,新規,0,2021-07-14,2021-07-14,株式会社茨城貯蓄銀行,,株式会社,茨城県,水戸市,南町４５５番地,,08,201,3100000,,,,,,,2021-07-14,1,,,,,イバラキチョチクギンコウ,0
2596,9080003002606,新規,0,2021-07-14,2021-07-14,合同会社インテグラル,,合同会社,静岡県,焼津市,柳新屋４６９－２シェポン１０２,,22,212,4250074,,,,,,,2021-07-14,1,,,,,インテグラル,0
2601,9080401025191,新規,0,2021-07-14,2021-07-14,株式会社凱希,,株式会社,静岡県,掛川市,上西郷１２９７番地の３ベルリヴァージュ１０２号,,22,213,4360342,,,,,,,2021-07-14,1,,,,,カイキ,0
2603,9090001017092,新規,0,2021-07-14,2021-07-14,Ｄｙｄｅｎ株式会社,,株式会社,山梨県,甲斐市,篠原５２０番地１,,19,210,4000115,,,,,,,2021-07-14,1,,,,,ダイデン,0
2617,9120001238800,新規,0,2021-07-14,2021-07-14,エヌディエー株式会社,,株式会社,大阪府,枚方市,翠香園町３２番１３－１１７号,00123637,27,210,5730095,,,,,,,2021-07-14,1,,,,,エヌディエー,0
2618,9120001239055,新規,0,2021-07-14,2021-07-14,レイリ株式会社,,株式会社,大阪府,大阪市中央区,本町４丁目２番１２号野村不動産御堂筋本町ビル５階,,27,128,5410053,,,,,,,2021-07-14,1,,,,,レイリ,0
2626,9120901044629,新規,0,2021-07-14,2021-07-14,株式会社キュービックプレイ,,株式会社,大阪府,豊中市,北緑丘２丁目１番,,27,203,5600001,,,,,,,2021-07-14,1,,,,,キュービックプレイ,0
2627,9120905006195,新規,0,2021-07-14,2021-07-14,特定非営利活動法人あたらしい安心生活支援センター,,その他の設立登記法人,大阪府,摂津市,三島２丁目１番２０－９１０号,,27,224,5660022,,,,,,,2021-07-14,1,,,,,アタラシイアンシンセイカツシエンセンター,0
2631,9122005003560,新規,0,2021-07-14,2021-07-14,ＮＰＯ法人おーぜん育て合いステーション,,その他の設立登記法人,大阪府,東大阪市,高井田西１丁目６番１８号,,27,227,5770067,,,,,,,2021-07-14,1,,,,,オーゼンソダテアイステーション,0
2635,9140001122325,新規,0,2021-07-14,2021-07-14,株式会社ＦＩＣ,,株式会社,兵庫県,神戸市西区,白水２丁目１６番１５号,,28,111,6512129,,,,,,,2021-07-14,1,,,,,エフアイシー,0
2636,9140003016517,新規,0,2021-07-14,2021-07-14,合同会社ＳＹＬ,,合同会社,兵庫県,三田市,友が丘２丁目１４－７,,28,219,6691516,,,,,,,2021-07-14,1,,,,,エスワイエル,0
2648,9180001146997,新規,0,2021-07-14,2021-07-14,ＭＫＴホールディングス株式会社,,株式会社,愛知県,名古屋市守山区,苗代２丁目３番９号,,23,113,4630046,,,,,,,2021-07-14,1,,,,,エムケイティーホールディングス,0
2649,9180003022742,新規,0,2021-07-14,2021-07-14,Ｈａｐｐｉｎｅｓｓ　Ｌａｂ．合同会社,,合同会社,愛知県,名古屋市緑区,有松愛宕３０９番地の２,,23,114,4580903,,,,,,,2021-07-14,1,,,,,ハピネスラボ,0
2651,9180005019357,新規,0,2021-07-14,2021-07-14,医療法人ｔａｋｋ,,その他の設立登記法人,愛知県,小牧市,常普請２丁目８３番地,,23,219,4850044,,,,,,,2021-07-14,1,,,,,タック,0
2654,9180301035165,新規,0,2021-07-14,2021-07-14,株式会社Ｓ‐ｓｔｏｒｍ,,株式会社,愛知県,安城市,桜井町城阿原２７番地７,,23,212,4441154,,,,,,,2021-07-14,1,,,,,,0
2655,9180305009223,新規,0,2021-07-14,2021-07-14,医療法人健豊会,,その他の設立登記法人,愛知県,豊橋市,白河町９５ハイツ宝２－１０１,,23,201,4418021,,,,,,,2021-07-14,1,,,,,ケンホウカイ,0
2663,9210001018532,新規,0,2021-07-14,2021-07-14,株式会社無限企画,,株式会社,福井県,鯖江市,平井町第５７号１３番地１０,,18,207,9160061,,,,,,,2021-07-14,1,,,,,ムゲンキカク,0
2674,9250005008674,新規,0,2021-07-14,2021-07-14,特定非営利活動法人ＣＲＥＡＴＥ　ＬＡＢＯ,,その他の設立登記法人,山口県,下松市,若宮町３番２２号,,35,207,7440063,,,,,,,2021-07-14,1,,,,,クリエイトラボ,0
2689,9290803003880,新規,0,2021-07-14,2021-07-14,明るい未来合同会社,,合同会社,福岡県,北九州市門司区,西新町２丁目２番１６号,,40,101,8000056,,,,,,,2021-07-14,1,,,,,アカルイミライ,0
2698,9320003003570,新規,0,2021-07-14,2021-07-14,大分ＫＫ設備合同会社,,合同会社,大分県,大分市,大字旦野原９００番地の１４１,,44,201,8701124,,,,,,,2021-07-14,1,,,,,オオイタケイケイセツビ,0
2706,9350001017198,新規,0,2021-07-14,2021-07-14,キラ株式会社,,株式会社,宮崎県,延岡市,北川町長井５２６８－２,,45,203,8890102,,,,,,,2021-07-14,1,,,,,キラ,0
2707,9350002019020,新規,0,2021-07-14,2021-07-14,有限会社五葉建設,,有限会社,宮崎県,西都市,大字岡富８７０番地,,45,208,8810001,,,,,,,2021-07-14,1,,,,,ゴヨウケンセツ,0
2715,9360001029069,新規,0,2021-07-14,2021-07-14,株式会社ＨＵＮＣＨ,,株式会社,沖縄県,那覇市,松山１丁目１４番１９,,47,201,9000032,,,,,,,2021-07-14,1,,,,,ハンチ,0
2731,9390001016535,新規,0,2021-07-14,2021-07-14,株式会社清新,,株式会社,山形県,鶴岡市,播磨字相生２２５番地１,,06,203,9970002,,,,,,,2021-07-14,1,,,,,セイシン,0
2746,9400005008171,新規,0,2021-07-14,2021-07-14,一般社団法人ｉｔо,,その他の設立登記法人,岩手県,北上市,有田町１１番３５号,,03,206,0240081,,,,,,,2021-07-14,1,,,,,イト,0
2755,9430001084528,新規,0,2021-07-14,2021-07-14,易道株式会社,,株式会社,北海道,小樽市,塩谷１丁目２７番１２号,,01,203,0482672,,,,,,,2021-07-14,1,,,,,エキドウ,0
2756,9430001084569,新規,0,2021-07-14,2021-07-14,株式会社Ｓｉｍａｚｕ,,株式会社,北海道,札幌市手稲区,新発寒五条６丁目１１番１１号,,01,109,0060805,,,,,,,2021-07-14,1,,,,,シマズ,0
2760,9460103001386,新規,0,2021-07-14,2021-07-14,ライフデザインシステム合同会社,,合同会社,北海道,河東郡音更町,雄飛が丘仲区１番地２２３,,01,631,0800332,,,,,,,2021-07-14,1,,,,,ライフデザインシステム,0
2764,9480001011428,新規,0,2021-07-14,2021-07-14,大塚綜業株式会社,,株式会社,徳島県,阿波市,土成町宮川内字落久保７１番地２,,36,206,7711508,,,,,,,2021-07-14,1,,,,,オオツカソウギョウ,0
2765,9490001009933,新規,0,2021-07-14,2021-07-14,株式会社ボーノシキグループ,,株式会社,高知県,高知市,北本町４丁目１番１７号,,39,201,7800056,,,,,,,2021-07-14,1,,,,,ボーノシキグループ,0
2769,9490003001566,新規,0,2021-07-14,2021-07-14,合同会社大国地所,,合同会社,高知県,高知市,塚ノ原１５０番地８,,39,201,7800952,,,,,,,2021-07-14,1,,,,,ダイコクジショ,0
2770,9500001023560,新規,0,2021-07-14,2021-07-14,株式会社ｎｉｃｏ,,株式会社,愛媛県,新居浜市,多喜浜５丁目２番１号,,38,205,7920893,,,,,,,2021-07-14,1,,,,,ニコ,0
