sequenceNumber,corporateNumber,process,correct,updateDate,changeDate,name,nameImageId,kind,prefectureName,cityName,streetNumber,addressImageId,prefectureCode,cityCode,postCode,addressOutside,addressOutsideImageId,closeDate,closeCause,successorCorporateNumber,changeCause,assignmentDate,latest,enName,enPrefectureName,enCityName,enAddressOutside,furigana,hihyoji
14,1010002010160,登記記録の閉鎖等,0,2024-07-08,2024-06-26,有限会社サカエ熱工機,,有限会社,東京都,千代田区,飯田橋１丁目７番８号梶山ビル,,13,101,1020072,,,2024-06-26,清算の結了等,,,2015-10-05,1,,,,,サカエネツコウキ,0
15,1010003018104,登記記録の閉鎖等,0,2024-07-08,2024-06-26,合同会社あさひサポート,,合同会社,東京都,中央区,月島３丁目３２番１－４０３号,,13,102,1040052,,,2024-06-26,清算の結了等,,,2015-10-05,1,,,,,アサヒサポート,0
19,1010005031393,登記記録の閉鎖等,0,2024-07-08,2024-06-28,一般社団法人ＳＫＬ,,その他の設立登記法人,東京都,千代田区,神田神保町１丁目１１番地さくら綜合事務所内,,13,101,1010051,,,2024-06-28,清算の結了等,,,2020-02-05,1,,,,,エスケーエル,0
21,1010401099159,登記記録の閉鎖等,0,2024-07-08,2024-06-25,ステップゼロ株式会社,,株式会社,東京都,港区,南青山５丁目１７番２号,,13,103,1070062,,,2024-06-25,清算の結了等,,,2015-10-05,1,,,,,ステップゼロ,0
25,1010403022176,登記記録の閉鎖等,0,2024-07-08,2024-06-21,合同会社スペシャリテ,,合同会社,東京都,港区,南青山４丁目１４番７号,,13,103,1070062,,,2024-06-21,清算の結了等,,,2020-01-21,1,,,,,スペシャリテ,0
26,1010403026490,登記記録の閉鎖等,0,2024-07-08,2024-06-24,ＢＥＡＮＳ２合同会社,,合同会社,東京都,港区,虎ノ門５丁目１番４号,,13,103,1050001,,,2024-06-24,清算の結了等,,,2021-11-11,1,,,,,ビーンズツー,0
29,1010501026533,登記記録の閉鎖等,0,2024-07-08,2024-07-01,日本ハイメタル株式会社,,株式会社,東京都,台東区,上野３丁目６番３号三春ビル,,13,106,1100005,,,2024-07-01,清算の結了等,,,2015-10-05,1,,,,,ニホンハイメタル,0
31,1010601059532,登記記録の閉鎖等,0,2024-07-08,2024-07-01,ｉＵＰＰ　Ｔｅｃｈｎｏｌｏｇｉｅｓ株式会社,,株式会社,東京都,墨田区,文花１丁目１８番１３号,,13,107,1310044,,,2024-07-01,清算の結了等,,,2021-06-23,1,,,,,アイアップテクノロジーズ,0
42,1011005002285,登記記録の閉鎖等,0,2024-07-08,2024-06-21,特定非営利活動法人セルフケア総合研究所,,その他の設立登記法人,東京都,目黒区,中目黒４丁目８番１２号,,13,110,1530061,,,2024-06-21,清算の結了等,,,2015-10-05,1,,,,,セルフケアソウゴウケンキュウショ,0
45,1011101045221,登記記録の閉鎖等,0,2024-07-08,2024-06-27,株式会社バサラインティメイトプロジェクト,,株式会社,東京都,新宿区,市谷台町１４番５号,,13,104,1620066,,,2024-06-27,清算の結了等,,,2015-10-05,1,,,,,バサラインティメイトプロジェクト,0
49,1011103010454,登記記録の閉鎖等,0,2024-07-08,2024-06-28,合同会社ラティチュード,,合同会社,東京都,新宿区,新宿５丁目１０番１０号海老沢ビル２０２,,13,104,1600022,,,2024-06-28,清算の結了等,,,2021-03-09,1,,,,,ラティチュード,0
64,1011801042880,登記記録の閉鎖等,0,2024-07-08,2024-06-26,ＪＨ株式会社,,株式会社,千葉県,千葉市花見川区,長作町１８３番地１１,,12,102,2620044,,,2024-06-26,清算の結了等,,,2023-08-14,1,,,,,ジェイエイチ,0
65,1011802019969,登記記録の閉鎖等,0,2024-07-08,2024-07-03,有限会社ユーコー精器製作所,,有限会社,東京都,足立区,足立４丁目１０番１号,,13,121,1200015,,,2024-07-03,清算の結了等,,,2015-10-05,1,,,,,ユーコーセイキセイサクショ,0
104,1030002045089,登記記録の閉鎖等,0,2024-07-08,2024-07-02,有限会社都市工営,,有限会社,埼玉県,草加市,青柳８丁目２８番１１号,,11,221,3400002,,,2024-07-02,清算の結了等,,,2015-10-05,1,,,,,トシコウエイ,0
105,1030002056672,登記記録の閉鎖等,0,2024-07-08,2024-07-03,有限会社テクマックス,,有限会社,埼玉県,上尾市,大字平方４２６８番地２,,11,219,3620059,,,2024-07-03,清算の結了等,,,2015-10-05,1,,,,,テクマックス,0
126,1040003013696,登記記録の閉鎖等,0,2024-07-08,2024-06-26,合同会社トーラス,,合同会社,千葉県,千葉市稲毛区,稲毛東３丁目１９－１６並木ビル３０１,,12,103,2630031,,,2024-06-26,清算の結了等,,,2019-07-16,1,,,,,トーラス,0
136,1070002001435,登記記録の閉鎖等,0,2024-07-08,2024-07-04,有限会社かねこ電気,,有限会社,群馬県,前橋市,上細井町１８８１番地２,,10,201,3710051,,,2024-07-04,清算の結了等,,,2015-10-05,1,,,,,カネコデンキ,0
163,1120103004637,登記記録の閉鎖等,0,2024-07-08,2024-07-03,合同会社ポルテ,,合同会社,大阪府,堺市堺区,永代町６丁１－１８,,27,141,5900065,,,2024-07-03,清算の結了等,,,2022-04-05,1,,,,,ポルテ,0
164,1120901016726,登記記録の閉鎖等,0,2024-07-08,2024-07-03,株式会社高橋電器製作所,00033452,株式会社,大阪府,吹田市,藤白台２丁目１２番１５号,,27,205,5650873,,,2024-07-03,清算の結了等,,,2015-10-05,1,,,,,タカハシデンキセイサクショ,0
172,1120902022285,登記記録の閉鎖等,0,2024-07-08,2024-07-01,有限会社オリカエステイト,,有限会社,大阪府,箕面市,桜井１丁目１５番１５号,,27,220,5620043,,,2024-07-01,合併による解散等,7120902015127,令和６年７月１日大阪府箕面市桜井二丁目１６番２号株式会社オリカ・クリエイト（7120902015127）に合併し解散,2015-10-05,1,,,,,オリカエステイト,0
176,1122001028180,登記記録の閉鎖等,0,2024-07-08,2024-07-05,株式会社西喜,,株式会社,大阪府,東大阪市,今米１丁目１４番５９号,,27,227,5780903,,,2024-07-05,清算の結了等,,,2015-10-05,1,,,,,ニシキ,0
184,1130002027481,登記記録の閉鎖等,0,2024-07-08,2024-07-01,有限会社愛樹,,有限会社,京都府,宇治市,小倉町天王３７番地９,,26,204,6110042,,,2024-07-01,清算の結了等,,,2015-10-05,1,,,,,,0
206,1180002089724,登記記録の閉鎖等,0,2024-07-08,2024-06-24,有限会社後藤電機,,有限会社,愛知県,海部郡蟹江町,大字蟹江新田字前波６２番地,,23,425,4970044,,,2024-06-24,清算の結了等,,,2015-10-05,1,,,,,ゴトウデンキ,0
211,1180005018746,登記記録の閉鎖等,0,2024-07-08,2024-06-24,一般社団法人はつね福祉会,,その他の設立登記法人,千葉県,鎌ケ谷市,鎌ケ谷１丁目１１番の２８号スリーアイズマンション１０６号室,,12,224,2730105,,,2024-06-24,清算の結了等,,,2020-04-13,1,,,,,ハツネフクシカイ,0
213,1180302006247,登記記録の閉鎖等,0,2024-07-08,2024-06-27,有限会社阿部造園,,有限会社,愛知県,豊橋市,花田町字越水７８番地,,23,201,4418019,,,2024-06-27,清算の結了等,,,2015-10-05,1,,,,,アベゾウエン,0
215,1190001023385,登記記録の閉鎖等,0,2024-07-08,2024-07-04,株式会社さくら,,株式会社,三重県,四日市市,桜台本町４３番地,,24,202,5121213,,,2024-07-04,清算の結了等,,,2016-02-01,1,,,,,サクラ,0
217,1190002020547,登記記録の閉鎖等,0,2024-07-08,2024-07-01,有限会社Ｐ．Ｂ．Ｓ,,有限会社,三重県,四日市市,江村町９７１番地１,,24,202,5121206,,,2024-07-01,清算の結了等,,,2015-10-05,1,,,,,,0
222,1200002027656,登記記録の閉鎖等,0,2024-07-08,2024-07-02,有限会社ヤマグチ保険,,有限会社,岐阜県,下呂市,金山町金山２０５７番地,,21,220,5091622,,,2024-07-02,清算の結了等,,,2015-10-05,1,,,,,ヤマグチホケン,0
239,1290001026964,登記記録の閉鎖等,0,2024-07-08,2024-06-07,株式会社アクセル,,株式会社,福岡県,福岡市南区,市崎１丁目２番８号,,40,134,8150084,,,2024-06-07,清算の結了等,,,2015-10-05,1,,,,,,0
244,1290002054915,登記記録の閉鎖等,0,2024-07-08,2024-07-04,有限会社石川鉄工,,有限会社,福岡県,大牟田市,出雲町３番地７,,40,202,8360854,,,2024-07-04,清算の結了等,,,2015-10-05,1,,,,,イシカワテッコウ,0
246,1290003014876,登記記録の閉鎖等,0,2024-07-08,2024-06-11,ガンバ合同会社,,合同会社,福岡県,筑後市,大字江口７４４,,40,211,8330046,,,2024-06-11,清算の結了等,,,2024-01-24,1,,,,,ガンバ,0
284,1430001055585,登記記録の閉鎖等,0,2024-07-08,2024-07-01,株式会社兼芳柴田商店,,株式会社,北海道,様似郡様似町,大通１丁目１３番地,,01,608,0580014,,,2024-07-01,清算の結了等,,,2015-10-05,1,,,,,カネヨシシバタショウテン,0
288,1430002016248,登記記録の閉鎖等,0,2024-07-08,2024-07-01,有限会社五十村建設,,有限会社,北海道,札幌市西区,西野七条８丁目１番７号,,01,107,0630037,,,2024-07-01,清算の結了等,,,2015-10-05,1,,,,,,0
290,1440002002164,登記記録の閉鎖等,0,2024-07-08,2024-07-01,昭和電設工業有限会社,,有限会社,北海道,函館市,山の手２丁目４９番１０号,,01,202,0410836,,,2024-07-01,清算の結了等,,,2015-10-05,1,,,,,ショウワデンセツコウギョウ,0
292,1480005005532,登記記録の閉鎖等,0,2024-07-08,2024-07-01,徳島県三好林業企業組合,,その他の設立登記法人,徳島県,三好市,東祖谷樫尾２７７番地,,36,208,7780205,,,2024-07-01,清算の結了等,,,2015-10-05,1,,,,,トクシマケンミヨシリンギョウ,0
314,2010001200331,登記記録の閉鎖等,0,2024-07-08,2024-06-27,株式会社ジェナル,,株式会社,東京都,中央区,銀座８丁目１８番７号パークリュクス銀座ｍｏｎｏ３０４号,,13,102,1040061,,,2024-06-27,清算の結了等,,,2019-04-23,1,,,,,ジェナル,0
327,2010401087294,登記記録の閉鎖等,0,2024-07-08,2024-07-01,ソリッドワークス・ジャパン株式会社,,株式会社,東京都,品川区,大崎２丁目１番１号,,13,109,1410032,,,2024-07-01,合併による解散等,6010401032932,令和６年７月１日東京都品川区大崎二丁目１番１号ダッソー・システムズ株式会社（6010401032932）に合併し解散,2015-10-05,1,,,,,ソリッドワークスジャパン,0
346,2011001001810,登記記録の閉鎖等,0,2024-07-08,2024-06-24,株式会社アルファプラス,,株式会社,東京都,渋谷区,神宮前６丁目１９番１６号,,13,113,1500001,,,2024-06-24,清算の結了等,,,2015-10-05,1,,,,,アルファプラス,0
347,2011001004061,登記記録の閉鎖等,0,2024-07-08,2024-06-21,エヌ・ティ・ティ・システムサポート株式会社,,株式会社,東京都,渋谷区,代々木２丁目１６番１６号,,13,113,1510053,,,2024-06-21,清算の結了等,,,2015-10-05,1,,,,,エヌティティシステムサポート,0
348,2011001120461,登記記録の閉鎖等,0,2024-07-08,2024-06-24,株式会社Ｓ’ｓ　Ｐａｒｔｙ,,株式会社,東京都,港区,北青山３丁目１２番７号,,13,103,1070061,,,2024-06-24,清算の結了等,,,2018-02-08,1,,,,,エスズパーティー,0
349,2011001138660,登記記録の閉鎖等,0,2024-07-08,2024-07-01,株式会社ＳＫＷＡＴ,,株式会社,東京都,葛飾区,西亀有３丁目２６番４号,,13,122,1250002,,,2024-07-01,合併による解散等,4011001110650,令和６年７月１日東京都葛飾区西亀有三丁目２６番４号株式会社ＤＡＩＫＥＩ　ＭＩＬＬＳ（4011001110650）に合併し解散,2021-02-19,1,,,,,スクワット,0
364,2011105008396,登記記録の閉鎖等,0,2024-07-08,2024-06-28,一般社団法人日本葬儀パートナーズ,,その他の設立登記法人,東京都,豊島区,池袋２丁目７６番４号,,13,116,1710014,,,2024-06-28,清算の結了等,,,2018-06-21,1,,,,,ニホンソウギパートナーズ,0
366,2011301006641,登記記録の閉鎖等,0,2024-07-08,2024-06-28,株式会社優,,株式会社,東京都,豊島区,高田３丁目３８番１８号,,13,116,1710033,,,2024-06-28,清算の結了等,,,2015-10-05,1,,,,,マサル,0
367,2011301026631,登記記録の閉鎖等,0,2024-07-08,2024-07-01,株式会社杉並自動車学校,,株式会社,東京都,杉並区,宮前５丁目１５番１号,,13,115,1680081,,,2024-07-01,清算の結了等,,,2021-02-17,1,,,,,スギナミジドウシャガッコウ,0
397,2020001136310,登記記録の閉鎖等,0,2024-07-08,2024-06-24,株式会社バックルーム,,株式会社,神奈川県,横浜市西区,中央１丁目１９番５－８０３号,,14,103,2200051,,,2024-06-24,清算の結了等,,,2020-06-04,1,,,,,バックルーム,0
412,2030001038332,登記記録の閉鎖等,0,2024-07-08,2024-07-01,株式会社リヨウマ,,株式会社,埼玉県,草加市,青柳３丁目２番９号,,11,221,3400002,,,2024-07-01,清算の結了等,,,2015-10-05,1,,,,,リヨウマ,0
434,2040001098078,登記記録の閉鎖等,0,2024-07-08,2024-06-26,エイト総合サービス株式会社,,株式会社,千葉県,松戸市,栄町３丁目１５４番地コーポ斉喜１Ｆ,,12,207,2710062,,,2024-06-26,清算の結了等,,,2016-12-20,1,,,,,エイトソウゴウサービス,0
437,2040002018282,登記記録の閉鎖等,0,2024-07-08,2024-06-25,有限会社ケア・パートナー,,有限会社,千葉県,習志野市,藤崎３丁目３７番９号,,12,216,2750017,,,2024-06-25,清算の結了等,,,2015-10-05,1,,,,,ケアパートナー,0
441,2040002071356,登記記録の閉鎖等,0,2024-07-08,2024-06-25,有限会社チャンピオン,,有限会社,千葉県,富津市,千種新田３７９番地１６,,12,226,2930036,,,2024-06-25,清算の結了等,,,2015-10-05,1,,,,,チャンピオン,0
475,2120001055582,登記記録の閉鎖等,0,2024-07-08,2024-07-03,三洸運送株式会社,,株式会社,大阪府,豊中市,走井２丁目１番１２号,,27,203,5610891,,,2024-07-03,清算の結了等,,,2015-10-05,1,,,,,,0
481,2120001236868,登記記録の閉鎖等,0,2024-07-08,2024-07-01,栗本テクノサービス株式会社,,株式会社,大阪府,大阪市中央区,瓦町２丁目４番７号,,27,128,5410048,,,2024-07-01,合併による解散等,8120001143679,令和６年７月１日大阪市中央区瓦町二丁目４番７号Ｋプランニング株式会社（8120001143679）に合併し解散,2021-04-22,1,,,,,クリモトテクノサービス,0
482,2120001240044,登記記録の閉鎖等,0,2024-07-08,2024-07-03,Ｏｕｔｓｉｇｈｔ株式会社,,株式会社,大阪府,大阪市生野区,巽北２丁目１１番１４号１０１号室,,27,116,5440004,,,2024-07-03,清算の結了等,,,2021-09-01,1,,,,,アウトサイト,0
491,2120003013555,登記記録の閉鎖等,0,2024-07-08,2024-06-10,合同会社ＡＩＭ,,合同会社,福岡県,福岡市中央区,今泉１丁目４番２５号７０１,,40,133,8100021,,,2024-06-10,清算の結了等,,,2017-11-16,1,,,,,エイム,0
500,2120103005774,登記記録の閉鎖等,0,2024-07-08,2024-07-03,合同会社きずな,,合同会社,大阪府,富田林市,若松町１丁目１６―８―２階,,27,214,5840024,,,2024-07-03,清算の結了等,,,2024-04-10,1,,,,,キズナ,0
508,2130001034305,登記記録の閉鎖等,0,2024-07-08,2024-07-01,株式会社朝日鐵工,,株式会社,京都府,久世郡久御山町,佐山新開地７７番地２,,26,322,6130034,,,2024-07-01,清算の結了等,,,2015-10-05,1,,,,,,0
509,2130002001543,登記記録の閉鎖等,0,2024-07-08,2024-07-01,有限会社ますや,,有限会社,京都府,京都市右京区,梅津東構口町７７番地１,,26,108,6150914,,,2024-07-01,清算の結了等,,,2015-10-05,1,,,,,,0
523,2140002069167,登記記録の閉鎖等,0,2024-07-08,2024-07-01,有限会社あわじトップジャパン,,有限会社,兵庫県,洲本市,塩屋２丁目３番５５号,,28,205,6560021,,,2024-07-01,清算の結了等,,,2015-10-05,1,,,,,アワジトップジャパン,0
537,2180002071160,登記記録の閉鎖等,0,2024-07-08,2024-06-24,有限会社林業務店,,有限会社,愛知県,春日井市,如意申町１丁目５番地７,,23,206,4860918,,,2024-06-24,清算の結了等,,,2015-10-05,1,,,,,ハヤシギョウムテン,0
538,2180002078668,登記記録の閉鎖等,0,2024-07-08,2024-06-24,有限会社中日本瀝青,,有限会社,愛知県,一宮市,木曽川町玉ノ井字宮東１６番地,,23,203,4930004,,,2024-06-24,清算の結了等,,,2015-10-05,1,,,,,ナカニホンレキセイ,0
541,2180301022558,登記記録の閉鎖等,0,2024-07-08,2024-06-27,株式会社外山紡織,,株式会社,愛知県,西尾市,中畑町小井戸１１番地,,23,213,4440303,,,2024-06-27,清算の結了等,,,2015-10-05,1,,,,,トヤマボウショク,0
544,2190002014507,登記記録の閉鎖等,0,2024-07-08,2024-07-03,有限会社ミナトヤ洋装店,,有限会社,三重県,松阪市,日野町５７４番地の１,,24,204,5150084,,,2024-07-03,清算の結了等,,,2015-10-05,1,,,,,ミナトヤヨウソウテン,0
593,2360001030000,登記記録の閉鎖等,0,2024-07-08,2024-06-28,株式会社Ｕｎｉｖｅｒｓｅ,,株式会社,沖縄県,豊見城市,字高安２５２番地１,,47,212,9010242,,,2024-06-28,清算の結了等,,,2022-02-10,1,,,,,ユニバース,0
594,2360002017590,登記記録の閉鎖等,0,2024-07-08,2024-07-02,有限会社ユーホー,,有限会社,沖縄県,宜野湾市,嘉数４丁目１９番７－１３０３号,,47,205,9012226,,,2024-07-02,清算の結了等,,,2015-10-05,1,,,,,ユーホー,0
597,2370005009205,登記記録の閉鎖等,0,2024-07-08,2024-07-04,一般社団法人日本塩分管理支援協会,,その他の設立登記法人,東京都,調布市,西つつじケ丘４丁目２３番地神代団地２５－４０５,,13,208,1820006,,,2024-07-04,清算の結了等,,,2017-05-08,1,,,,,ニホンエンブンカンリシエンキョウカイ,0
608,2430002015505,登記記録の閉鎖等,0,2024-07-08,2024-07-01,有限会社バードクラフト,,有限会社,北海道,札幌市清田区,北野七条４丁目１１番４５号,,01,110,0040867,,,2024-07-01,清算の結了等,,,2015-10-05,1,,,,,バードクラフト,0
615,2500002003618,登記記録の閉鎖等,0,2024-07-08,2024-07-01,有限会社シルト・ボーネン,,有限会社,愛媛県,松山市,桑原５丁目８番５０号,,38,201,7900911,,,2024-07-01,清算の結了等,,,2015-10-05,1,,,,,シルトボーネン,0
641,3010003015677,登記記録の閉鎖等,0,2024-07-08,2024-06-24,合同会社エーアイＲＳ,,合同会社,東京都,港区,元赤坂１丁目１番８号株式会社赤坂国際会計内,,13,103,1070051,,,2024-06-24,清算の結了等,,,2015-10-05,1,,,,,エーアイアールエス,0
646,3010005006534,登記記録の閉鎖等,0,2024-07-08,2024-06-26,一般社団法人ＤＩＹ情報センター,,その他の設立登記法人,東京都,中央区,京橋２丁目８番１０号,,13,102,1040031,,,2024-06-26,清算の結了等,,,2015-10-05,1,,,,,ディーアイワイジョウホウセンター,0
666,3010701027528,登記記録の閉鎖等,0,2024-07-08,2024-07-01,株式会社ローテーション,,株式会社,東京都,品川区,西大井１丁目７－２９フラワーホーム日ノ出３０３,,13,109,1400015,,,2024-07-01,清算の結了等,,,2015-10-05,1,,,,,ローテーション,0
682,3011101032837,登記記録の閉鎖等,0,2024-07-08,2024-06-27,エヌ・エー・リース株式会社,,株式会社,東京都,新宿区,新宿２丁目９番１８号,,13,104,1600022,,,2024-06-27,清算の結了等,,,2015-10-05,1,,,,,エヌエーリース,0
689,3011601001275,登記記録の閉鎖等,0,2024-07-08,2024-07-02,株式会社小椋,,株式会社,東京都,練馬区,関町北４丁目４番７号,,13,120,1770051,,,2024-07-02,清算の結了等,,,2015-10-05,1,,,,,オグラ,0
690,3011601006027,登記記録の閉鎖等,0,2024-07-08,2024-06-28,福新建設工業株式会社,,株式会社,東京都,練馬区,石神井町３丁目７番５号,,13,120,1770041,,,2024-06-28,清算の結了等,,,2015-10-05,1,,,,,フクシンケンセツコウギョウ,0
701,3012405001890,登記記録の閉鎖等,0,2024-07-08,2024-07-02,特定非営利活動法人日本希少生物保護協会,,その他の設立登記法人,東京都,三鷹市,中原１丁目１４番１３号,,13,204,1810005,,,2024-07-02,清算の結了等,,,2015-10-05,1,,,,,ニホンキショウセイブツホゴキョウカイ,0
715,3020003010033,登記記録の閉鎖等,0,2024-07-08,2024-06-25,合同会社ベネフィット,,合同会社,神奈川県,横浜市戸塚区,矢部町６８７番地１ＮＩＣアーバンハイム戸塚３０１号,,14,110,2440002,,,2024-06-25,清算の結了等,,,2015-10-05,1,,,,,ベネフィット,0
716,3021001032606,登記記録の閉鎖等,0,2024-07-08,2024-07-03,株式会社ケイエス電子産業,,株式会社,神奈川県,小田原市,小船６９１番地１,,14,206,2560806,,,2024-07-03,清算の結了等,,,2015-10-05,1,,,,,ケイエスデンシサンギョウ,0
771,3100002003459,登記記録の閉鎖等,0,2024-07-08,2024-07-01,有限会社トヨキ薬局,,有限会社,長野県,長野市,大字鶴賀権堂町２３７３番地,,20,201,3800833,,,2024-07-01,清算の結了等,,,2015-10-05,1,,,,,トヨキヤッキョク,0
772,3100002013821,登記記録の閉鎖等,0,2024-07-08,2024-07-01,有限会社カルミー,,有限会社,長野県,上田市,小島１４０番地８,,20,203,3861322,,,2024-07-01,清算の結了等,,,2015-10-05,1,,,,,カルミー,0
776,3110001005769,登記記録の閉鎖等,0,2024-07-08,2024-06-28,株式会社ヨネカ,,株式会社,新潟県,新潟市東区,卸新町２丁目２０６６番地１２,,15,102,9500863,,,2024-06-28,清算の結了等,,,2015-10-05,1,,,,,ヨネカ,0
779,3120001014934,登記記録の閉鎖等,0,2024-07-08,2024-07-04,サン包装株式会社,,株式会社,大阪府,大阪市天王寺区,東高津町５番１９号,,27,109,5430021,,,2024-07-04,清算の結了等,,,2015-10-05,1,,,,,サンホウソウ,0
791,3120103003166,登記記録の閉鎖等,0,2024-07-08,2024-07-03,合同会社ジョウソン,,合同会社,大阪府,堺市西区,上野芝向ヶ丘町４丁１３番６号,,27,144,5938303,,,2024-07-03,清算の結了等,,,2018-11-02,1,,,,,ジョウソン,0
803,3130001035715,登記記録の閉鎖等,0,2024-07-08,2024-07-02,株式会社東郷印刷,,株式会社,京都府,亀岡市,篠町森東垣内１６番地の５,,26,206,6210831,,,2024-07-02,清算の結了等,,,2015-10-05,1,,,,,トウゴウインサツ,0
805,3130001056942,登記記録の閉鎖等,0,2024-07-08,2024-07-02,Ｇ－Ｈａｒｖｅｓｔ株式会社,,株式会社,京都府,京都市北区,大宮東小野堀町３８番地,,26,101,6038406,,,2024-07-02,清算の結了等,,,2016-03-03,1,,,,,ジーハーベスト,0
807,3140001035739,登記記録の閉鎖等,0,2024-07-08,2024-07-03,株式会社アクアデザイン,,株式会社,兵庫県,明石市,大久保町松陰１１２７番地の３２,,28,203,6740053,,,2024-07-03,清算の結了等,,,2015-10-05,1,,,,,アクアデザイン,0
813,3140002010963,登記記録の閉鎖等,0,2024-07-08,2024-06-28,有限会社ビッグウェスト,,有限会社,兵庫県,神戸市中央区,上筒井通４丁目１番１４号,,28,110,6510061,,,2024-06-28,清算の結了等,,,2015-10-05,1,,,,,ビッグウエスト,0
825,3150003000962,登記記録の閉鎖等,0,2024-07-08,2024-07-03,合同会社かわかみ,,合同会社,奈良県,奈良市,神功５丁目４番地の２２,,29,201,6310804,,,2024-07-03,清算の結了等,,,2015-10-05,1,,,,,カワカミ,0
843,3190001006025,登記記録の閉鎖等,0,2024-07-08,2024-07-03,株式会社フォーリスト,,株式会社,三重県,伊勢市,倭町２１５番地２,,24,203,5160032,,,2024-07-03,清算の結了等,,,2015-10-05,1,,,,,フォーリスト,0
846,3200001013366,登記記録の閉鎖等,0,2024-07-08,2024-07-01,株式会社レクストワン,,株式会社,岐阜県,大垣市,伝馬町１０７番地,,21,202,5030897,,,2024-07-01,合併による解散等,6200001001236,令和６年７月１日岐阜市江添二丁目９番３号株式会社岐阜冠婚葬祭互助会（6200001001236）に合併し解散,2015-10-05,1,,,,,レクストワン,0
858,3240001053953,登記記録の閉鎖等,0,2024-07-08,2024-06-13,久富商事株式会社,,株式会社,広島県,広島市東区,光町２丁目８番２４－６０１号,,34,102,7320052,,,2024-06-13,清算の結了等,,,2019-02-21,1,,,,,ヒサトミショウジ,0
864,3240005005546,登記記録の閉鎖等,0,2024-07-08,2024-06-27,特定非営利活動法人節分草保存会,,その他の設立登記法人,広島県,庄原市,総領町下領家２４７番地１,,34,210,7293703,,,2024-06-27,清算の結了等,,,2015-10-05,1,,,,,セツブンソウホゾンカイ,0
869,3280001008359,登記記録の閉鎖等,0,2024-07-08,2024-07-02,株式会社夢月,,株式会社,滋賀県,栗東市,小平井３丁目２番２８号ロイヤルハイツ２０１号室,,25,208,5203034,,,2024-07-02,清算の結了等,,,2021-02-19,1,,,,,ムツキ,0
871,3290001023407,登記記録の閉鎖等,0,2024-07-08,2024-06-11,株式会社博多からすみ,,株式会社,福岡県,福岡市西区,大字徳永１０４４番地２,,40,135,8190375,,,2024-06-11,清算の結了等,,,2015-10-05,1,,,,,ハカタカラスミ,0
887,3330003006058,登記記録の閉鎖等,0,2024-07-08,2024-06-24,ラスタリサーチ合同会社,,合同会社,熊本県,熊本市西区,池田１丁目１番８１号,,43,103,8600082,,,2024-06-24,清算の結了等,,,2015-10-05,1,,,,,ラスタリサーチ,0
898,3360005001260,登記記録の閉鎖等,0,2024-07-08,2024-07-02,特定非営利活動法人国際言語センター,,その他の設立登記法人,沖縄県,那覇市,松山２丁目２１番１号－２０７,,47,201,9000032,,,2024-07-02,清算の結了等,,,2015-10-05,1,,,,,コクサイゲンゴセンター,0
904,3430001056185,登記記録の閉鎖等,0,2024-07-08,2024-07-01,株式会社トキタ,,株式会社,北海道,伊達市,梅本町３９番地の３６,,01,233,0520022,,,2024-07-01,合併による解散等,3430001056284,令和６年７月１日北海道伊達市梅本町４番地２４時田自工株式会社（3430001056284）に合併し解散,2015-10-05,1,,,,,トキタ,0
913,3480002011911,登記記録の閉鎖等,0,2024-07-08,2024-07-02,有限会社松谷商店,,有限会社,徳島県,板野郡上板町,鍛冶屋原字北原４８番地,,36,405,7711301,,,2024-07-02,清算の結了等,,,2015-10-05,1,,,,,マツタニショウテン,0
919,4010001135542,登記記録の閉鎖等,0,2024-07-08,2024-06-27,株式会社クレジェンテ,,株式会社,東京都,中央区,銀座７丁目９番１７号,,13,102,1040061,,,2024-06-27,清算の結了等,,,2015-10-05,1,,,,,クレジェンテ,0
929,4010001190315,登記記録の閉鎖等,0,2024-07-08,2024-06-24,株式会社ａｔｔａ,,株式会社,東京都,港区,芝浦３丁目１７番１１－７０３号,,13,103,1080023,,,2024-06-24,清算の結了等,,,2018-03-14,1,,,,,アッタ,0
942,4010401082129,登記記録の閉鎖等,0,2024-07-08,2024-06-24,株式会社スクリュー,,株式会社,東京都,港区,南青山５丁目６番９号,,13,103,1070062,,,2024-06-24,清算の結了等,,,2015-10-05,1,,,,,スクリュー,0
955,4010601017421,登記記録の閉鎖等,0,2024-07-08,2024-07-01,日本建装株式会社,,株式会社,東京都,墨田区,京島２丁目２３番１１号,,13,107,1310046,,,2024-07-01,清算の結了等,,,2015-10-05,1,,,,,ニホンケンソウ,0
1012,4020003009306,登記記録の閉鎖等,0,2024-07-08,2024-06-24,合同会社メディカルトップ,,合同会社,神奈川県,横浜市瀬谷区,阿久和東２丁目７番地２７,,14,114,2460023,,,2024-06-24,清算の結了等,,,2015-10-05,1,,,,,メディカルトップ,0
1015,4030001000323,登記記録の閉鎖等,0,2024-07-08,2024-07-04,株式会社アイアール北斗,,株式会社,埼玉県,さいたま市北区,吉野町２丁目１９３番地１１,,11,102,3310811,,,2024-07-04,合併による解散等,9021001012296,令和６年７月１日神奈川県相模原市中央区田名１９１０番地６株式会社サカイアゼットロジ（9021001012296）に合併し解散,2015-10-05,1,,,,,アイアールホクト,0
1024,4030002029205,登記記録の閉鎖等,0,2024-07-08,2024-07-01,有限会社国土企画,,有限会社,埼玉県,所沢市,美原町４丁目２９６２番地２４,,11,208,3590045,,,2024-07-01,合併による解散等,5030001024065,令和６年６月３０日埼玉県所沢市並木三丁目１番地７－１０４株式会社国土評価（5030001024065）に合併し解散,2015-10-05,1,,,,,コクドキカク,0
1031,4040001074952,登記記録の閉鎖等,0,2024-07-08,2024-06-27,株式会社吉田鉄五郎商店,00019460,株式会社,千葉県,いすみ市,岩船１９６番地,,12,238,2980011,,,2024-06-27,清算の結了等,,,2015-10-05,1,,,,,ヨシダテツゴロウショウテン,0
1058,4070001015004,登記記録の閉鎖等,0,2024-07-08,2024-06-24,株式会社ミツクラコーポレーション,,株式会社,東京都,渋谷区,代々木１丁目２番１２号,,13,113,1510053,,,2024-06-24,清算の結了等,,,2015-10-05,1,,,,,ミツクラコーポレーション,0
1064,4090001018392,登記記録の閉鎖等,0,2024-07-08,2024-07-02,株式会社ヤドカリ,,株式会社,山梨県,南都留郡道志村,１１１５５番地２,,19,422,4020200,,,2024-07-02,清算の結了等,,,2023-10-26,1,,,,,ヤドカリ,0
1066,4100002000686,登記記録の閉鎖等,0,2024-07-08,2024-06-20,エース検器有限会社,,有限会社,長野県,長野市,大字稲葉１７９２番地,,20,201,3800911,,,2024-06-20,清算の結了等,,,2015-10-05,1,,,,,エースケンキ,0
1067,4100002011031,登記記録の閉鎖等,0,2024-07-08,2024-07-02,有限会社内藤製畳所,,有限会社,長野県,佐久市,平賀字川原田２３５６番地４,,20,217,3850034,,,2024-07-02,清算の結了等,,,2015-10-05,1,,,,,ナイトウセイジョウショ,0
1073,4110002033371,登記記録の閉鎖等,0,2024-07-08,2024-06-26,有限会社矢口米穀,,有限会社,新潟県,南魚沼市,樺野沢４７番地１,,15,226,9496431,,,2024-06-26,清算の結了等,,,2015-10-05,1,,,,,ヤグチベイコク,0
1087,4120101025500,登記記録の閉鎖等,0,2024-07-08,2024-07-01,トラモト空調株式会社,,株式会社,大阪府,松原市,西大塚１丁目８番３９号,,27,217,5800011,,,2024-07-01,清算の結了等,,,2015-10-05,1,,,,,トラモトクウチョウ,0
1102,4130003003140,登記記録の閉鎖等,0,2024-07-08,2024-07-01,アクティブジャパンマネジメント合同会社,,合同会社,京都府,京都市右京区,西京極河原町３９番地８,,26,108,6150843,,,2024-07-01,清算の結了等,,,2015-10-05,1,"Active Japan Management.,LLC",Kyoto,"39-8, Kawaracho,Nishikyogoku",,,0
1106,4140001048459,登記記録の閉鎖等,0,2024-07-08,2024-07-01,株式会社共栄会館,,株式会社,兵庫県,尼崎市,東難波町５丁目２１番７号,,28,202,6600892,,,2024-07-01,清算の結了等,,,2015-10-05,1,,,,,キョウエイカイカン,0
1110,4140001113659,登記記録の閉鎖等,0,2024-07-08,2024-07-01,株式会社ケイズエステート,,株式会社,兵庫県,神戸市東灘区,本山北町６丁目２番４０号,,28,101,6580003,,,2024-07-01,合併による解散等,9140001100636,令和６年７月１日神戸市東灘区本山北町六丁目２番４０号株式会社ワイドサポート（9140001100636）に合併し解散,2019-05-16,1,,,,,ケイズエステート,0
1135,4180002071720,登記記録の閉鎖等,0,2024-07-08,2024-06-25,有限会社ケンコー社愛知,,有限会社,愛知県,瀬戸市,窯町４３１番地の１１,,23,204,4801219,,,2024-06-25,清算の結了等,,,2015-10-05,1,,,,,ケンコーシャアイチ,0
1137,4180005018090,登記記録の閉鎖等,0,2024-07-08,2024-06-25,特定非営利活動法人コレクトマネージャー,,その他の設立登記法人,愛知県,名古屋市東区,大幸４丁目１６番１２号,,23,102,4610043,,,2024-06-25,清算の結了等,,,2019-01-04,1,,,,,コレクトマネージャー,0
1140,4180302015195,登記記録の閉鎖等,0,2024-07-08,2024-06-27,有限会社岡本加工,,有限会社,愛知県,蒲郡市,緑町１１番１５号,,23,214,4430048,,,2024-06-27,清算の結了等,,,2015-10-05,1,,,,,オカモトカコウ,0
1143,4190002011460,登記記録の閉鎖等,0,2024-07-08,2024-07-04,有限会社シマ・プランニング,,有限会社,三重県,志摩市,阿児町鵜方３１０４番地１,,24,215,5170501,,,2024-07-04,清算の結了等,,,2015-10-05,1,,,,,シマプランニング,0
1146,4200001041671,登記記録の閉鎖等,0,2024-07-08,2024-07-01,株式会社Ｓｕｎ,,株式会社,岐阜県,大垣市,郭町２丁目２５番地,,21,202,5030887,,,2024-07-01,合併による解散等,1200001007147,令和６年６月３０日岐阜県各務原市蘇原新栄町二丁目９０番地株式会社サンマートサカイ（1200001007147）に合併し解散,2023-09-06,1,,,,,サン,0
1148,4200002025491,登記記録の閉鎖等,0,2024-07-08,2024-07-02,有限会社ダスキン高山,,有限会社,岐阜県,高山市,八軒町２丁目１０８番地の２,,21,203,5060012,,,2024-07-02,清算の結了等,,,2015-10-05,1,,,,,ダスキンタカヤマ,0
1150,4210001002474,登記記録の閉鎖等,0,2024-07-08,2024-07-01,株式会社乗川オートショップ,,株式会社,福井県,福井市,二の宮１丁目１４番９号,,18,201,9100015,,,2024-07-01,清算の結了等,,,2015-10-05,1,,,,,ノリカワオートショップ,0
1161,4230001018592,登記記録の閉鎖等,0,2024-07-08,2024-07-01,株式会社ＮｉＸ福井,,株式会社,富山県,富山市,奥田新町１番２３号,,16,201,9300857,,,2024-07-01,合併による解散等,4230001001202,令和６年７月１日富山市奥田新町１番２３号ＮｉＸ　ＪＡＰＡＮ株式会社（4230001001202）に合併し解散,2020-12-14,1,,,,,ニックスフクイ,0
1166,4240002053266,登記記録の閉鎖等,0,2024-07-08,2024-07-02,シラス電器サービス有限会社,,有限会社,広島県,三原市,本町１丁目８番４４号,,34,204,7230062,,,2024-07-02,清算の結了等,,,2015-10-05,1,,,,,シラスデンキサービス,0
1183,4330002020975,登記記録の閉鎖等,0,2024-07-08,2024-06-27,有限会社坂本電気工事店,,有限会社,熊本県,玉名市,片諏訪２８２番地１,,43,206,8650044,,,2024-06-27,清算の結了等,,,2015-10-05,1,,,,,サカモトデンキコウジテン,0
1204,4380002002713,登記記録の閉鎖等,0,2024-07-08,2024-07-02,有限会社バークレイ,,有限会社,福島県,福島市,宮代字前畑２１番地,,07,201,9600116,,,2024-07-02,清算の結了等,,,2015-10-05,1,,,,,バークレイ,0
1207,4410002011776,登記記録の閉鎖等,0,2024-07-08,2024-06-25,有限会社姫神石材店,,有限会社,秋田県,大仙市,蛭川字上屋敷４７番地,,05,212,0140071,,,2024-06-25,清算の結了等,,,2015-10-05,1,,,,,ヒメガミセキザイテン,0
1212,4430005010039,登記記録の閉鎖等,0,2024-07-08,2024-07-01,中島西口商店街振興組合,,その他の設立登記法人,北海道,室蘭市,中島町３丁目１９番１０号,,01,205,0500074,,,2024-07-01,清算の結了等,,,2015-10-05,1,,,,,ナカジマニシグチ,0
1254,5010003032308,登記記録の閉鎖等,0,2024-07-08,2024-06-24,合同会社藤本企画,,合同会社,東京都,港区,西新橋３丁目１７－７－２９０２,,13,103,1050003,,,2024-06-24,清算の結了等,,,2020-05-26,1,,,,,フジモトキカク,0
1264,5010401095377,登記記録の閉鎖等,0,2024-07-08,2024-06-24,ＴＨＥ　ＴＡＦＦＲＡＩＬ　ＧＲＯＵＰ　ＪＡＰＡＮ株式会社,,株式会社,東京都,港区,虎ノ門４丁目３番２０号,,13,103,1050001,,,2024-06-24,清算の結了等,,,2015-10-05,1,,,,,ザタフレイルグループジャパン,0
1307,5011302009715,登記記録の閉鎖等,0,2024-07-08,2024-07-05,吉田建設有限会社,,有限会社,東京都,杉並区,和泉４丁目５番１３号,,13,115,1680063,,,2024-07-05,清算の結了等,,,2015-10-05,1,,,,,,0
1313,5011602010678,登記記録の閉鎖等,0,2024-07-08,2024-07-01,有限会社吉沢基礎工業,,有限会社,東京都,練馬区,南大泉４丁目３番１９号,,13,120,1780064,,,2024-07-01,清算の結了等,,,2015-10-05,1,,,,,ヨシザワキソコウギョウ,0
1315,5011802011484,登記記録の閉鎖等,0,2024-07-08,2024-07-03,有限会社かばのパン,,有限会社,東京都,足立区,佐野２丁目３５番５号,,13,121,1210053,,,2024-07-03,清算の結了等,,,2015-10-05,1,,,,,カバノパン,0
1317,5011802020444,登記記録の閉鎖等,0,2024-07-08,2024-07-03,有限会社渡辺製罐所,,有限会社,東京都,足立区,西新井２丁目２番８号,,13,121,1230841,,,2024-07-03,清算の結了等,,,2015-10-05,1,,,,,ワタナベセイカンジョ,0
1324,5013102006297,登記記録の閉鎖等,0,2024-07-08,2024-07-03,有限会社田中製作所,,有限会社,東京都,青梅市,東青梅４丁目６番地の２,,13,205,1980042,,,2024-07-03,清算の結了等,,,2015-10-05,1,,,,,,0
1330,5020001067619,登記記録の閉鎖等,0,2024-07-08,2024-06-24,川崎大寿青果株式会社,,株式会社,神奈川県,川崎市宮前区,水沢１丁目１番１号,,14,136,2160012,,,2024-06-24,清算の結了等,,,2015-10-05,1,,,,,カワサキダイジュセイカ,0
1360,5030002058715,登記記録の閉鎖等,0,2024-07-08,2024-07-03,有限会社静岡輪店,,有限会社,埼玉県,朝霞市,本町１丁目２番２６号,,11,227,3510011,,,2024-07-03,清算の結了等,,,2015-10-05,1,,,,,シズオカリンテン,0
1369,5040002053954,登記記録の閉鎖等,0,2024-07-08,2024-06-28,有限会社ビックファイブ,,有限会社,千葉県,松戸市,金ケ作２９８番地の８３,,12,207,2702251,,,2024-06-28,清算の結了等,,,2015-10-05,1,,,,,ビッグファイブ,0
1370,5040002091707,登記記録の閉鎖等,0,2024-07-08,2024-06-25,有限会社丸三商店,,有限会社,千葉県,柏市,かやの町２番１０号,,12,217,2770846,,,2024-06-25,清算の結了等,,,2015-10-05,1,,,,,マルサンショウテン,0
1371,5040005021181,登記記録の閉鎖等,0,2024-07-08,2024-06-26,一般社団法人いきいきライフ協会市川,,その他の設立登記法人,千葉県,市川市,市川１丁目７番１５号カメイビル２０３,,12,203,2720034,,,2024-06-26,清算の結了等,,,2021-04-21,1,,,,,イキイキライフキョウカイイチカワ,0
1375,5050002009278,登記記録の閉鎖等,0,2024-07-08,2024-07-02,田口一建設有限会社,,有限会社,茨城県,東茨城郡大洗町,成田町２２０番地,,08,309,3111313,,,2024-07-02,清算の結了等,,,2015-10-05,1,,,,,タグチカズケンセツ,0
1390,5080402000486,登記記録の閉鎖等,0,2024-07-08,2024-07-01,有限会社阿部総建,,有限会社,静岡県,浜松市中央区,新橋町１３５９番地の２,,22,138,4328058,,,2024-07-01,清算の結了等,,,2015-10-05,1,,,,,アベソウケン,0
1395,5100002022408,登記記録の閉鎖等,0,2024-07-08,2024-06-20,有限会社信濃工業,,有限会社,長野県,松本市,波田６５４２番地２,,20,202,3901401,,,2024-06-20,清算の結了等,,,2015-10-05,1,,,,,シナノコウギョウ,0
1396,5100003005485,登記記録の閉鎖等,0,2024-07-08,2024-07-01,合同会社Ｎ＆Ｒ,,合同会社,長野県,飯田市,中央通り１丁目１５番地１丸光ビル１階,,20,205,3950041,,,2024-07-01,清算の結了等,,,2019-11-18,1,,,,,エヌアンドアール,0
1422,5120005022626,登記記録の閉鎖等,0,2024-07-08,2024-07-03,一般社団法人元気づくり・おおきに会,,その他の設立登記法人,大阪府,大阪市住吉区,南住吉１丁目３番５号,,27,120,5580041,,,2024-07-03,清算の結了等,,,2021-11-25,1,,,,,ゲンキヅクリオオキニカイ,0
1452,5180001006107,登記記録の閉鎖等,0,2024-07-08,2024-06-26,宇賀田運輸株式会社,,株式会社,愛知県,名古屋市港区,正徳町５丁目７１番地,,23,111,4550075,,,2024-06-26,清算の結了等,,,2015-10-05,1,,,,,ウガタウンユ,0
1465,5180005002341,登記記録の閉鎖等,0,2024-07-08,2024-06-24,医療法人いずみ整形外科,,その他の設立登記法人,愛知県,名古屋市中村区,佐古前町２０番１０号,,23,105,4530018,,,2024-06-24,清算の結了等,,,2015-10-05,1,,,,,イズミセイケイゲカ,0
1468,5200001031192,登記記録の閉鎖等,0,2024-07-08,2024-07-01,株式会社山田商店ホールディングス,,株式会社,岐阜県,中津川市,太田町１丁目４番３４号,,21,206,5080033,,,2024-07-01,合併による解散等,6200001023593,令和６年７月１日岐阜県中津川市太田町一丁目４番３４号株式会社山田商店（6200001023593）に合併し解散,2015-10-05,1,,,,,ヤマダショウテンホールディングス,0
1472,5220001007018,登記記録の閉鎖等,0,2024-07-08,2024-07-02,株式会社明光測量,,株式会社,石川県,金沢市,額乙丸町ニ２２４番,,17,201,9218146,,,2024-07-02,清算の結了等,,,2015-10-05,1,,,,,メイコウソクリョウ,0
1473,5220001019599,登記記録の閉鎖等,0,2024-07-08,2024-07-01,株式会社のうか管理,,株式会社,石川県,金沢市,もりの里２丁目２１番地,,17,201,9201167,,,2024-07-01,合併による解散等,2220001020766,令和６年７月１日石川県金沢市もりの里二丁目２１番地株式会社ＭＡＭＥ（2220001020766）に合併し解散,2015-10-05,1,,,,,ノウカカンリ,0
1476,5220005007724,登記記録の閉鎖等,0,2024-07-08,2024-06-27,一般社団法人石川ベンチャー倶楽部,,その他の設立登記法人,石川県,金沢市,新神田４丁目８番１号,,17,201,9218013,,,2024-06-27,清算の結了等,,,2015-10-05,1,,,,,イシカワベンチャークラブ,0
1495,5310001000748,登記記録の閉鎖等,0,2024-07-08,2024-07-01,株式会社真喜商事,,株式会社,長崎県,長崎市,中町４番２８号,,42,201,8500055,,,2024-07-01,合併による解散等,1310001000743,令和６年７月１日長崎市中町４番２８号株式会社真興産業（1310001000743）に合併し解散,2015-10-05,1,,,,,シンキショウジ,0
1506,5360001030360,登記記録の閉鎖等,0,2024-07-08,2024-06-27,株式会社ｃｏｍｐａｓｓ,,株式会社,沖縄県,宮古島市,平良字下里１０９番地７,,47,214,9060013,,,2024-06-27,清算の結了等,,,2022-05-02,1,,,,,コンパス,0
1533,6010001139244,登記記録の閉鎖等,0,2024-07-08,2024-06-26,株式会社草樹社,,株式会社,東京都,中央区,八丁堀４丁目４番１３号,,13,102,1040032,,,2024-06-26,清算の結了等,,,2015-10-05,1,,,,,ソウジュシャ,0
1565,6010003032406,登記記録の閉鎖等,0,2024-07-08,2024-06-27,大聖合同会社,,合同会社,東京都,中央区,日本橋２丁目２番３号ＲＩＳＨＥビルＵＣＦ４０２,,13,102,1030027,,,2024-06-27,清算の結了等,,,2020-06-11,1,,,,,タイセイ,0
1575,6010402004922,登記記録の閉鎖等,0,2024-07-08,2024-06-21,有限会社五建,,有限会社,東京都,港区,三田５丁目１１番１０号プロスパー籐和三田ビル,00050892,13,103,1080073,,,2024-06-21,清算の結了等,,,2015-10-05,1,,,,,ゴケン,0
1576,6010403030430,登記記録の閉鎖等,0,2024-07-08,2024-07-03,和諾家合同会社,,合同会社,東京都,港区,南青山２丁目２番１５号ウイン青山９４２,,13,103,1070062,,,2024-07-03,清算の結了等,,,2023-07-10,1,,,,,ワノタク,0
1593,6010901007203,登記記録の閉鎖等,0,2024-07-08,2024-06-26,株式会社宝木,,株式会社,東京都,渋谷区,恵比寿西２丁目７番１号,,13,113,1500021,,,2024-06-26,清算の結了等,,,2015-10-05,1,,,,,タカラギ,0
1598,6011001069398,登記記録の閉鎖等,0,2024-07-08,2024-06-21,株式会社アブサホールディングス,,株式会社,東京都,渋谷区,西原２丁目１４番１４号,,13,113,1510066,,,2024-06-21,清算の結了等,,,2015-10-05,1,,,,,アブサホールディングス,0
1602,6011001150117,登記記録の閉鎖等,0,2024-07-08,2024-06-26,株式会社レ・ビジュー,,株式会社,東京都,渋谷区,道玄坂１丁目１０番８号渋谷道玄坂東急ビル２Ｆ－Ｃ,,13,113,1500043,,,2024-06-26,清算の結了等,,,2022-10-07,1,,,,,レビジュー,0
1621,6011201014807,登記記録の閉鎖等,0,2024-07-08,2024-06-26,フォーオールクラブ株式会社,,株式会社,東京都,中央区,日本橋堀留町１丁目１番５号日本橋堀留ビル２階,,13,102,1030012,,,2024-06-26,清算の結了等,,,2015-10-05,1,,,,,フォーオールクラブ,0
1624,6011601019216,登記記録の閉鎖等,0,2024-07-08,2024-07-01,株式会社縁造,,株式会社,東京都,練馬区,南田中４丁目１７番１４号,,13,120,1770035,,,2024-07-01,清算の結了等,,,2015-10-05,1,,,,,,0
1652,6030001066759,登記記録の閉鎖等,0,2024-07-08,2024-07-03,株式会社美樹システム,,株式会社,埼玉県,越谷市,大字上間久里１０５１番地２,,11,222,3430043,,,2024-07-03,清算の結了等,,,2015-10-05,1,,,,,ミキシステム,0
1663,6040001058202,登記記録の閉鎖等,0,2024-07-08,2024-06-27,東条酒造株式会社,,株式会社,千葉県,山武市,姫島１０１０番地,,12,237,2891327,,,2024-06-27,清算の結了等,,,2015-10-05,1,,,,,トウジョウシュゾウ,0
1665,6040001110656,登記記録の閉鎖等,0,2024-07-08,2024-06-28,株式会社ＭＢｉｚ,,株式会社,千葉県,千葉市中央区,新宿２丁目３番５号,,12,101,2600021,,,2024-06-28,清算の結了等,,,2019-09-12,1,,,,,エムビズ,0
1680,6050002008741,登記記録の閉鎖等,0,2024-07-08,2024-07-02,有限会社永井技販,,有限会社,茨城県,ひたちなか市,大字武田５２５番地,,08,221,3120025,,,2024-07-02,清算の結了等,,,2015-10-05,1,,,,,ナガイギハン,0
1687,6070001029191,登記記録の閉鎖等,0,2024-07-08,2024-07-02,株式会社ＧＯＡＬＩＥ,,株式会社,群馬県,高崎市,高砂町３２３番地３,,10,202,3700047,,,2024-07-02,清算の結了等,,,2015-10-05,1,,,,,,0
1701,6100002028940,登記記録の閉鎖等,0,2024-07-08,2024-06-28,有限会社丸東遠藤商店,,有限会社,長野県,諏訪市,諏訪１丁目５番１１号,,20,206,3920004,,,2024-06-28,清算の結了等,,,2015-10-05,1,,,,,マルトウエンドウショウテン,0
1731,6130001069198,登記記録の閉鎖等,0,2024-07-08,2024-07-02,株式会社ＳＬＯＷ　ＢＯＸ,,株式会社,京都府,京都市左京区,一乗寺塚本町１５番地２,00122908,26,103,6068176,,,2024-07-02,清算の結了等,,,2021-04-28,1,,,,,スローボックス,0
1733,6140001022338,登記記録の閉鎖等,0,2024-07-08,2024-07-01,アイペック株式会社,,株式会社,兵庫県,神戸市兵庫区,高松町２番２８号,,28,105,6520874,,,2024-07-01,合併による解散等,1140001014281,令和６年７月１日神戸市兵庫区高松町２番２８号株式会社水島酸素商会（1140001014281）に合併し解散,2015-10-05,1,,,,,アイペック,0
1737,6140001061757,登記記録の閉鎖等,0,2024-07-08,2024-07-01,株式会社三浦商店,,株式会社,兵庫県,姫路市,網干区垣内南町１５１２番地,,28,201,6711255,,,2024-07-01,清算の結了等,,,2015-10-05,1,,,,,ミウラショウテン,0
1742,6140002044034,登記記録の閉鎖等,0,2024-07-08,2024-07-03,有限会社森コーポレーション,,有限会社,兵庫県,尼崎市,西難波町１丁目３番１２号,,28,202,6600893,,,2024-07-03,清算の結了等,,,2015-10-05,1,,,,,モリコーポレーション,0
1759,6190002017200,登記記録の閉鎖等,0,2024-07-08,2024-07-03,有限会社ミキウェーブ和田,,有限会社,三重県,桑名市,陽だまりの丘４丁目１１３番地,,24,205,5110867,,,2024-07-03,清算の結了等,,,2015-10-05,1,,,,,ミキウェーブワダ,0
1760,6190003001839,登記記録の閉鎖等,0,2024-07-08,2024-07-02,合同会社ソーシャルライフケアみらい,,合同会社,三重県,鈴鹿市,住吉３丁目５番３号,,24,207,5130826,,,2024-07-02,清算の結了等,,,2015-10-05,1,,,,,ソーシャルライフケアミライ,0
1776,6240001060022,登記記録の閉鎖等,0,2024-07-08,2024-07-01,株式会社ケーズファーマシー,,株式会社,広島県,福山市,大門町大字津之下２０３４番地１,,34,207,7210000,,,2024-07-01,合併による解散等,4240001034688,令和６年７月１日広島県尾道市平原一丁目２０番４４号株式会社タワーメディカル（4240001034688）に合併し解散,2022-07-06,1,,,,,ケーズファーマシー,0
1785,6260002026887,登記記録の閉鎖等,0,2024-07-08,2024-06-24,有限会社宮脇商会,,有限会社,岡山県,高梁市,中井町西方７０２９番地の３,,33,209,7192402,,,2024-06-24,清算の結了等,,,2015-10-05,1,,,,,ミヤワキショウカイ,0
1804,6330002023183,登記記録の閉鎖等,0,2024-07-08,2024-06-28,有限会社渡辺木工所,,有限会社,熊本県,阿蘇郡小国町,大字宮原１５０２番地の３,,43,424,8692501,,,2024-06-28,清算の結了等,,,2015-10-05,1,,,,,ワタナベモッコウショ,0
1808,6350001012375,登記記録の閉鎖等,0,2024-07-08,2024-06-28,株式会社南九州健寿,,株式会社,宮崎県,宮崎市,田代町９７番地１,,45,201,8800855,,,2024-06-28,合併による解散等,8350001000766,令和６年６月１日宮崎市田代町９７番地１株式会社自然舘（8350001000766）に合併し解散,2015-10-05,1,,,,,ミナミキュウシュウケンジュ,0
1814,6360001006310,登記記録の閉鎖等,0,2024-07-08,2024-06-28,株式会社ＥＣＯＭＡＰ,,株式会社,沖縄県,那覇市,寄宮１丁目３１番２２号,,47,201,9020064,,,2024-06-28,清算の結了等,,,2015-10-05,1,,,,,エコマップ,0
1828,6390001014450,登記記録の閉鎖等,0,2024-07-08,2024-06-21,株式会社東北タイヤサービス,,株式会社,山形県,鶴岡市,文下字沼田４４番地１,,06,203,9970003,,,2024-06-21,清算の結了等,,,2016-04-08,1,,,,,トウホクタイヤサービス,0
1833,6420001016336,登記記録の閉鎖等,0,2024-07-08,2024-07-01,きらきらフーズ株式会社,,株式会社,青森県,三戸郡五戸町,大字浅水字十海塚３５番地,,02,442,0391528,,,2024-07-01,清算の結了等,,,2018-09-14,1,,,,,キラキラフーズ,0
1834,6430001056934,登記記録の閉鎖等,0,2024-07-08,2024-07-01,日通室蘭運輸株式会社,,株式会社,北海道,室蘭市,御崎町１丁目３５番地１,,01,205,0510001,,,2024-07-01,清算の結了等,,,2015-10-05,1,,,,,ニッツウムロランウンユ,0
1837,6430005008329,登記記録の閉鎖等,0,2024-07-08,2024-07-02,後志運送事業協同組合,,その他の設立登記法人,北海道,虻田郡京極町,字春日１１３番地,,01,399,0440112,,,2024-07-02,清算の結了等,,,2015-10-05,1,,,,,シリベシウンソウ,0
1845,6470002004178,登記記録の閉鎖等,0,2024-07-08,2024-07-03,有限会社高松冷熱サービス,,有限会社,香川県,高松市,中山町８５５番地２,,37,201,7618004,,,2024-07-03,清算の結了等,,,2015-10-05,1,,,,,タカマツレイネツサービス,0
1848,6500001006089,登記記録の閉鎖等,0,2024-07-08,2024-06-27,株式会社健晃館,,株式会社,愛媛県,松山市,余戸南４丁目１３番３６号,,38,201,7900047,,,2024-06-27,清算の結了等,,,2015-10-05,1,,,,,ケンコウカン,0
1869,7010001239266,登記記録の閉鎖等,0,2024-07-08,2024-06-27,グローバルキャピタルマネージメント株式会社,,株式会社,東京都,千代田区,紀尾井町４番１号新紀尾井町ビル,,13,101,1020094,,,2024-06-27,合併による解散等,9010001073630,令和６年６月２６日東京都千代田区紀尾井町４番１号ニューオータニガーデンコート４Ｆ株式会社レダグループホールディングス（9010001073630）に合併し解散,2023-10-16,1,,,,,グローバルキャピタルマネージメント,0
1882,7010005037154,登記記録の閉鎖等,0,2024-07-08,2024-06-28,エスティアタミ一般社団法人,,その他の設立登記法人,東京都,千代田区,丸の内３丁目１番１号東京共同会計事務所内,,13,101,1000005,,,2024-06-28,清算の結了等,,,2023-08-23,1,,,,,エスティアタミ,0
1887,7010401060965,登記記録の閉鎖等,0,2024-07-08,2024-06-24,コンシャス株式会社,,株式会社,東京都,港区,西麻布２丁目２５番２３号,,13,103,1060031,,,2024-06-24,清算の結了等,,,2015-10-05,1,,,,,コンシャス,0
1894,7010403022427,登記記録の閉鎖等,0,2024-07-08,2024-06-25,ジャパンインフラ４号合同会社,,合同会社,東京都,港区,元赤坂１丁目１番７号,,13,103,1070051,,,2024-06-25,清算の結了等,,,2020-02-26,1,,,,,ジャパンインフラヨンゴウ,0
1913,7010901024635,登記記録の閉鎖等,0,2024-07-08,2024-06-24,株式会社ハドル,,株式会社,東京都,港区,南青山５丁目１番１０号南青山第一マンションズ１０１０号室,,13,103,1070062,,,2024-06-24,清算の結了等,,,2015-10-05,1,,,,,ハドル,0
1920,7011001122643,登記記録の閉鎖等,0,2024-07-08,2024-06-24,株式会社ＮｏｒｔｈＷｏｏｄ,,株式会社,東京都,渋谷区,神宮前３丁目２５番１４号,,13,113,1500001,,,2024-06-24,清算の結了等,,,2018-06-08,1,,,,,ノースウッド,0
1976,7020001133815,登記記録の閉鎖等,0,2024-07-08,2024-06-24,株式会社ムーヴオン,,株式会社,神奈川県,川崎市高津区,久末１５７６番地２３,,14,134,2130026,,,2024-06-24,清算の結了等,,,2019-11-28,1,,,,,ムーヴオン,0
1981,7020002095575,登記記録の閉鎖等,0,2024-07-08,2024-06-25,有限会社池田工業,,有限会社,神奈川県,川崎市川崎区,伊勢町１１番５号,,14,131,2100805,,,2024-06-25,清算の結了等,,,2015-10-05,1,,,,,イケダコウギョウ,0
1995,7030001072434,登記記録の閉鎖等,0,2024-07-08,2024-07-02,株式会社さいたま新都心開発,,株式会社,埼玉県,東松山市,箭弓町３丁目１０番１５号,00015232,11,212,3550028,,,2024-07-02,清算の結了等,,,2015-10-05,1,,,,,サイタマシントシンカイハツ,0
2007,7040002034110,登記記録の閉鎖等,0,2024-07-08,2024-06-26,有限会社サーナ,,有限会社,千葉県,市川市,南行徳４丁目１８番１０号,,12,203,2720138,,,2024-06-26,清算の結了等,,,2015-10-05,1,,,,,サーナ,0
2012,7040005014051,登記記録の閉鎖等,0,2024-07-08,2024-06-24,特定非営利活動法人我孫子ビークルサービス,,その他の設立登記法人,千葉県,我孫子市,都部８３番地の１,,12,222,2701131,,,2024-06-24,清算の結了等,,,2015-10-05,1,,,,,アビコビークルサービス,0
2024,7080002010776,登記記録の閉鎖等,0,2024-07-08,2024-06-26,有限会社富岡屋,,有限会社,静岡県,静岡市清水区,江尻町４番３３号,,22,103,4240818,,,2024-06-26,清算の結了等,,,2015-10-05,1,,,,,トミオカヤ,0
2030,7090001018448,登記記録の閉鎖等,0,2024-07-08,2024-07-02,株式会社バレルベース,,株式会社,山梨県,南都留郡道志村,１１１５５番地３,,19,422,4020200,,,2024-07-02,清算の結了等,,,2023-12-08,1,,,,,バレルベース,0
2034,7100001016318,登記記録の閉鎖等,0,2024-07-08,2024-07-01,日通松本運輸株式会社,,株式会社,長野県,松本市,大字笹賀５６５２番地９,,20,202,3990033,,,2024-07-01,清算の結了等,,,2015-10-05,1,,,,,ニッツウマツモトウンユ,0
2041,7120001169551,登記記録の閉鎖等,0,2024-07-08,2024-07-01,株式会社三立化成ホールディングス,,株式会社,大阪府,大阪市中央区,高麗橋２丁目６番１０号,,27,128,5410043,,,2024-07-01,合併による解散等,6120001219076,令和６年６月３０日大阪市中央区高麗橋二丁目６番１０号株式会社サンリツホールディングス（6120001219076）に合併し解散,2015-10-05,1,,,,,サンリツカセイホールディングス,0
2043,7120001235956,登記記録の閉鎖等,0,2024-07-08,2024-07-03,株式会社ボトル・プラネット,,株式会社,大阪府,大阪市北区,豊崎６丁目１２番１８号,,27,127,5310072,,,2024-07-03,清算の結了等,,,2021-03-15,1,,,,,ボトルプラネット,0
2058,7120101049257,登記記録の閉鎖等,0,2024-07-08,2024-07-03,株式会社ライフクリーンサービス,,株式会社,大阪府,堺市美原区,南余部９１番地,,27,147,5870052,,,2024-07-03,清算の結了等,,,2015-10-05,1,,,,,ライフクリーンサービス,0
2062,7120102002586,登記記録の閉鎖等,0,2024-07-08,2024-07-03,有限会社スワノモリフラワーショップ,,有限会社,大阪府,堺市西区,浜寺諏訪森町中２丁１６６番地の２２,,27,144,5928348,,,2024-07-03,清算の結了等,,,2015-10-05,1,,,,,スワノモリフラワーショップ,0
2064,7120901011944,登記記録の閉鎖等,0,2024-07-08,2024-07-01,平成電気株式会社,,株式会社,大阪府,高槻市,津之江町１丁目２番１号,,27,207,5690822,,,2024-07-01,合併による解散等,3120901011510,令和６年７月１日大阪府高槻市津之江町一丁目２番１号寺田電気工業株式会社（3120901011510）に合併し解散,2015-10-05,1,,,,,ヘイセイデンキ,0
2066,7120902021694,登記記録の閉鎖等,0,2024-07-08,2024-07-04,有限会社安藤商事,,有限会社,大阪府,豊中市,上野西１丁目１２番２９号,,27,203,5600011,,,2024-07-04,清算の結了等,,,2015-10-05,1,,,,,アンドウショウジ,0
2070,7122003001320,登記記録の閉鎖等,0,2024-07-08,2024-07-03,合同会社エムアイティエス,,合同会社,大阪府,東大阪市,南荘町８番２９－３０５号,,27,227,5798024,,,2024-07-03,清算の結了等,,,2017-03-07,1,,,,,エムアイティエス,0
2080,7140001073421,登記記録の閉鎖等,0,2024-07-08,2024-06-27,株式会社蔵皇,,株式会社,東京都,中央区,銀座８丁目１８番７号パークリュクス銀座ｍｏｎｏ３０４号,,13,102,1040061,,,2024-06-27,清算の結了等,,,2015-10-05,1,,,,,ザオウ,0
2085,7140001106734,登記記録の閉鎖等,0,2024-07-08,2024-06-27,株式会社ラディアンテ,,株式会社,東京都,中央区,銀座８丁目１８番７号パークリュクス銀座ｍｏｎｏ３０４号,,13,102,1040061,,,2024-06-27,清算の結了等,,,2017-07-06,1,,,,,ラディアンテ,0
2110,7180002069035,登記記録の閉鎖等,0,2024-07-08,2024-06-24,有限会社小牧金型工業所,,有限会社,愛知県,小牧市,応時３丁目２６３番地,,23,219,4850832,,,2024-06-24,清算の結了等,,,2015-10-05,1,,,,,コマキカナガタコウギョウショ,0
2114,7190001017943,登記記録の閉鎖等,0,2024-07-08,2024-07-05,株式会社きらきら,,株式会社,三重県,津市,修成町１番７号,,24,201,5140837,,,2024-07-05,清算の結了等,,,2015-10-05,1,,,,,キラキラ,0
2115,7190002007258,登記記録の閉鎖等,0,2024-07-08,2024-07-04,有限会社ヤマシタ,,有限会社,三重県,鈴鹿市,南旭が丘２丁目１０番１１号,,24,207,5100213,,,2024-07-04,清算の結了等,,,2015-10-05,1,,,,,ヤマシタ,0
2116,7190002011697,登記記録の閉鎖等,0,2024-07-08,2024-07-02,有限会社マル光ホーム,,有限会社,三重県,志摩市,磯部町恵利原１３４９番地１６,,24,215,5170209,,,2024-07-02,清算の結了等,,,2015-10-05,1,,,,,マルミツホーム,0
2117,7190005006612,登記記録の閉鎖等,0,2024-07-08,2024-07-02,医療法人大原眼科,,その他の設立登記法人,三重県,松阪市,大黒田町６０３番地,,24,204,5150063,,,2024-07-02,清算の結了等,,,2015-10-05,1,,,,,オオハラガンカ,0
2137,7240005014460,登記記録の閉鎖等,0,2024-07-08,2024-07-01,フクヤマ綜合行政書士法人,,その他の設立登記法人,広島県,福山市,今津町５丁目１番１号タカハシグループ本部ビル２階,,34,207,7290111,,,2024-07-01,清算の結了等,,,2017-09-14,1,,,,,フクヤマソウゴウ,0
2138,7250001013110,登記記録の閉鎖等,0,2024-07-08,2024-07-01,株式会社ホームヘルパーさくら,,株式会社,山口県,宇部市,常盤町１丁目３番５号,,35,202,7550031,,,2024-07-01,清算の結了等,,,2015-10-05,1,,,,,ホームヘルパーサクラ,0
2140,7250002004918,登記記録の閉鎖等,0,2024-07-08,2024-07-01,有限会社フォルツァ,,有限会社,山口県,山陽小野田市,日の出２丁目７番１２号,,35,216,7560091,,,2024-07-01,合併による解散等,4250001003849,令和６年７月１日山口県山陽小野田市日の出二丁目７番１２号株式会社竹田園芸（4250001003849）に合併し解散,2015-10-05,1,,,,,フォルツァ,0
2141,7260001017985,登記記録の閉鎖等,0,2024-07-08,2024-06-24,ローム・ロジステック株式会社,,株式会社,岡山県,浅口市,鴨方町益坂７５番地,,33,216,7190234,,,2024-06-24,合併による解散等,8260001017919,令和６年６月１４日岡山県笠岡市富岡１００番地ローム・ワコー株式会社（8260001017919）に合併し解散,2015-10-05,1,,,,,ロームロジステック,0
2151,7300002007287,登記記録の閉鎖等,0,2024-07-08,2024-07-02,有限会社保険のヤマト,,有限会社,佐賀県,杵島郡大町町,大字大町５４２１番地の１,,41,423,8492101,,,2024-07-02,清算の結了等,,,2015-10-05,1,,,,,ホケンノヤマト,0
2152,7310001016882,登記記録の閉鎖等,0,2024-07-08,2024-07-01,株式会社ライト,,株式会社,長崎県,松浦市,福島町塩浜免６７９番地２０,,42,208,8480403,,,2024-07-01,合併による解散等,7310002020834,令和６年６月３０日長崎県松浦市福島町塩浜免３７番地６ライト技研株式会社（7310002020834）に合併し解散,2020-09-29,1,,,,,ライト,0
2178,7370301000993,登記記録の閉鎖等,0,2024-07-08,2024-07-01,トーテック株式会社,,株式会社,宮城県,東松島市,矢本字四反走５８番地１,,04,214,9810503,,,2024-07-01,合併による解散等,4370301000955,令和６年７月１日宮城県東松島市矢本字四反走５８番地１株式会社東幸電機製作所（4370301000955）に合併し解散,2015-10-05,1,,,,,トーテック,0
2182,7370601002624,登記記録の閉鎖等,0,2024-07-08,2024-07-02,株式会社横浜ロジシステムズ,,株式会社,東京都,千代田区,内神田１丁目１５－２神田オーシャンビル３０１,,13,101,1010047,,,2024-07-02,合併による解散等,9010401180407,令和６年６月１５日東京都港区虎ノ門三丁目７番１０号ランディック虎ノ門ビル９階株式会社横浜ロジシステムズ（9010401180407）に合併し解散,2015-10-05,1,,,,,ヨコハマロジシステムズ,0
2205,7470001002537,登記記録の閉鎖等,0,2024-07-08,2024-07-03,大成興業株式会社,,株式会社,香川県,高松市,香西本町１２３番地４,,37,201,7618012,,,2024-07-03,清算の結了等,,,2015-10-05,1,,,,,タイセイコウギョウ,0
2219,8010001104270,登記記録の閉鎖等,0,2024-07-08,2024-06-20,株式会社ＭＴコンサルティング,,株式会社,東京都,中央区,勝どき６丁目３番１－４３１８号,,13,102,1040054,,,2024-06-20,合併による解散等,1010001136667,令和６年６月２０日東京都中央区銀座八丁目３番１１号株式会社金福（1010001136667）に合併し解散,2015-10-05,1,,,,,,0
2220,8010001114773,登記記録の閉鎖等,0,2024-07-08,2024-06-27,株式会社三協堂,,株式会社,東京都,中央区,日本橋浜町１丁目６番３号,,13,102,1030007,,,2024-06-27,清算の結了等,,,2015-10-05,1,,,,,サンキョウドウ,0
2222,8010001121092,登記記録の閉鎖等,0,2024-07-08,2024-06-26,株式会社ビッグメガエース,,株式会社,東京都,千代田区,二番町１番地２,,13,101,1020084,,,2024-06-26,清算の結了等,,,2015-10-05,1,,,,,ビッグメガエース,0
2239,8010401091506,登記記録の閉鎖等,0,2024-07-08,2024-06-24,株式会社Ｎａｔｕｒｅ　Ｌｉｎｋ,,株式会社,東京都,港区,麻布台１丁目５番９号,,13,103,1060041,,,2024-06-24,清算の結了等,,,2015-10-05,1,,,,,ネイチャーリンク,0
2241,8010401111197,登記記録の閉鎖等,0,2024-07-08,2024-06-25,株式会社エーディーエンタテインメント,,株式会社,東京都,目黒区,下目黒２丁目９番２号パークホームズ目黒ザレジデンス７１１号,,13,110,1530064,,,2024-06-25,清算の結了等,,,2015-10-05,1,,,,,エーディーエンタテインメント,0
2285,8011101104012,登記記録の閉鎖等,0,2024-07-08,2024-06-21,Ｅｔｅｒｎａｕｔａ株式会社,,株式会社,東京都,新宿区,西新宿３丁目３番１３号西新宿水間ビル２Ｆ,,13,104,1600023,,,2024-06-21,清算の結了等,,,2023-08-15,1,,,,,,0
2329,8021002002396,登記記録の閉鎖等,0,2024-07-08,2024-07-03,有限会社湘南メディカル,,有限会社,神奈川県,藤沢市,善行６丁目１６番２１号,,14,205,2510871,,,2024-07-03,清算の結了等,,,2015-10-05,1,,,,,ショウナンメディカル,0
2332,8030001071906,登記記録の閉鎖等,0,2024-07-08,2024-07-02,株式会社スマイル,,株式会社,埼玉県,比企郡小川町,大字腰越４４８番地７,,11,343,3550327,,,2024-07-02,清算の結了等,,,2015-10-05,1,,,,,スマイル,0
2343,8030002008254,登記記録の閉鎖等,0,2024-07-08,2024-07-03,有限会社高橋竹材店,,有限会社,埼玉県,さいたま市緑区,原山２丁目５番２３号,,11,109,3360931,,,2024-07-03,清算の結了等,,,2015-10-05,1,,,,,タカハシタケザイテン,0
2362,8040002020068,登記記録の閉鎖等,0,2024-07-08,2024-06-24,有限会社アイ・テイ・エヌ,,有限会社,千葉県,船橋市,みやぎ台３丁目４番２７号,,12,204,2740804,,,2024-06-24,清算の結了等,,,2015-10-05,1,,,,,アイテイエヌ,0
2366,8040003018838,登記記録の閉鎖等,0,2024-07-08,2024-06-28,合同会社ＹＳＰ,,合同会社,千葉県,袖ケ浦市,長浦駅前２丁目１９－１１ロイヤルガーデンＶＩＩ２０１号室,00124721,12,229,2990246,,,2024-06-28,清算の結了等,,,2021-11-01,1,,,,,ワイエスピー,0
2376,8060002028745,登記記録の閉鎖等,0,2024-07-08,2024-06-28,有限会社高崎駐車場,,有限会社,栃木県,小山市,城山町３丁目１４番２６号,,09,208,3230025,,,2024-06-28,清算の結了等,,,2015-10-05,1,,,,,タカサキチュウシャジョウ,0
2377,8060002034520,登記記録の閉鎖等,0,2024-07-08,2024-06-26,有限会社博芳堂,,有限会社,栃木県,下都賀郡壬生町,幸町１丁目４番１３号,,09,361,3210203,,,2024-06-26,清算の結了等,,,2015-10-05,1,,,,,ハクホウドウ,0
2381,8070002014827,登記記録の閉鎖等,0,2024-07-08,2024-07-03,有限会社佐藤自動車,,有限会社,群馬県,安中市,松井田町新堀１１２１番地,,10,211,3790221,,,2024-07-03,清算の結了等,,,2015-10-05,1,,,,,サトウジドウシャ,0
2396,8120001149230,登記記録の閉鎖等,0,2024-07-08,2024-07-05,株式会社大もと,,株式会社,大阪府,枚方市,山之上西町２３番１号,,27,210,5730048,,,2024-07-05,清算の結了等,,,2015-10-05,1,,,,,ダイモト,0
2411,8120002018847,登記記録の閉鎖等,0,2024-07-08,2024-07-02,有限会社セルライフコスメティック,,有限会社,大阪府,大阪市福島区,海老江５丁目３番２０号,,27,103,5530001,,,2024-07-02,清算の結了等,,,2015-10-05,1,,,,,セルライフコスメティック,0
2421,8120901047186,登記記録の閉鎖等,0,2024-07-08,2024-07-02,株式会社ネオコネクト,,株式会社,大阪府,豊中市,上津島１丁目１番１４号,,27,203,5610843,,,2024-07-02,清算の結了等,,,2023-02-28,1,,,,,ネオコネクト,0
2425,8130001060097,登記記録の閉鎖等,0,2024-07-08,2024-07-01,株式会社和,,株式会社,京都府,京都市伏見区,深草直違橋７丁目２７０番地,,26,109,6120889,,,2024-07-01,清算の結了等,,,2017-07-05,1,,,,,ナゴミ,0
2431,8130002023466,登記記録の閉鎖等,0,2024-07-08,2024-07-01,有限会社鳥彌三,,有限会社,京都府,京都市左京区,岩倉花園町６４０番地１６,,26,103,6060024,,,2024-07-01,合併による解散等,8130002007568,令和６年７月１日京都市下京区西石垣通四条下る斉藤町１３６番地株式会社鳥弥三（8130002007568）に合併し解散,2015-10-05,1,,,,,トリヤサン,0
2432,8140001033762,登記記録の閉鎖等,0,2024-07-08,2024-07-01,株式会社ミナトマシナリー,,株式会社,兵庫県,神戸市中央区,港島中町６丁目２番地の１神戸パークシティ３号棟２３０７号,,28,110,6500046,,,2024-07-01,清算の結了等,,,2015-10-05,1,,,,,ミナトマシナリー,0
2437,8140002049799,登記記録の閉鎖等,0,2024-07-08,2024-07-01,有限会社都倉ガス商会,,有限会社,兵庫県,姫路市,飾磨区都倉２丁目１１６番地,,28,201,6728046,,,2024-07-01,清算の結了等,,,2015-10-05,1,,,,,トクラガスショウカイ,0
2443,8160001012855,登記記録の閉鎖等,0,2024-07-08,2024-07-03,株式会社サワダエンジニアリング,,株式会社,滋賀県,草津市,追分５丁目９番２４号,,25,206,5250047,,,2024-07-03,清算の結了等,,,2015-10-05,1,,,,,サワダエンジニアリング,0
2449,8180001147014,登記記録の閉鎖等,0,2024-07-08,2024-06-25,ＺＸ　ＣＯＦＦＥＥ株式会社,,株式会社,愛知県,名古屋市東区,東桜２丁目４－１第三コジマビル２階,,23,102,4610005,,,2024-06-25,清算の結了等,,,2021-07-13,1,,,,,ゼクスコーヒー,0
2456,8180302001563,登記記録の閉鎖等,0,2024-07-08,2024-06-27,有限会社スギヨシ,,有限会社,愛知県,岡崎市,福桶町字上土作４１番地,,23,202,4440233,,,2024-06-27,清算の結了等,,,2015-10-05,1,,,,,スギヨシ,0
2478,8270002008362,登記記録の閉鎖等,0,2024-07-08,2024-07-04,有限会社和久利機械設計事務所,,有限会社,鳥取県,米子市,新開２丁目９番１６号,,31,202,6830801,,,2024-07-04,清算の結了等,,,2015-10-05,1,,,,,ワクリキカイセッケイジムショ,0
2501,8380001018640,登記記録の閉鎖等,0,2024-07-08,2024-07-01,株式会社サトーソーイング,,株式会社,福島県,喜多方市,関柴町上高額字宮越５１９番地の１,,07,208,9660015,,,2024-07-01,清算の結了等,,,2015-10-05,1,,,,,,0
2516,8430002007331,登記記録の閉鎖等,0,2024-07-08,2024-07-01,有限会社新星,,有限会社,北海道,札幌市中央区,南八条西４丁目２８８番地１,,01,101,0640808,,,2024-07-01,清算の結了等,,,2015-10-05,1,,,,,シンセイ,0
2518,8430002063589,登記記録の閉鎖等,0,2024-07-08,2024-07-01,有限会社岩倉建具製作所,,有限会社,北海道,虻田郡洞爺湖町,入江２２２番地の３,,01,584,0495603,,,2024-07-01,清算の結了等,,,2015-10-05,1,,,,,イワクラタテグセイサクショ,0
2563,9010401138933,登記記録の閉鎖等,0,2024-07-08,2024-06-24,株式会社ＨＥＲＯ’Ｓ,,株式会社,東京都,港区,赤坂８丁目５－４０,,13,103,1070052,,,2024-06-24,清算の結了等,,,2018-06-13,1,,,,,ヒーローズ,0
2576,9010601054831,登記記録の閉鎖等,0,2024-07-08,2024-07-04,株式会社リープ,,株式会社,東京都,江東区,南砂２丁目２４番１４－７０９号,,13,108,1360076,,,2024-07-04,合併による解散等,1011501015047,令和６年７月１日東京都荒川区町屋七丁目１４番５号アデニウム町屋１００３株式会社ラ・リューンドゥース（1011501015047）に合併し解散,2018-12-27,1,,,,,リープ,0
2593,9011001148018,登記記録の閉鎖等,0,2024-07-08,2024-06-19,株式会社ジュガール,,株式会社,東京都,渋谷区,道玄坂１丁目１０番８号渋谷道玄坂東急ビル２Ｆ－Ｃ,,13,113,1500043,,,2024-06-19,清算の結了等,,,2022-06-14,1,,,,,ジュガール,0
2631,9021001013749,登記記録の閉鎖等,0,2024-07-08,2024-07-02,フジテクノ株式会社,,株式会社,東京都,小平市,学園西町２丁目２８番６号,,13,211,1870045,,,2024-07-02,清算の結了等,,,2015-10-05,1,,,,,フジテクノ,0
2636,9021002055427,登記記録の閉鎖等,0,2024-07-08,2024-07-04,有限会社金電,,有限会社,神奈川県,小田原市,府川８１番地の３,,14,206,2500052,,,2024-07-04,清算の結了等,,,2015-10-05,1,,,,,カナデン,0
2640,9030001026264,登記記録の閉鎖等,0,2024-07-08,2024-07-01,国際企画印刷株式会社,,株式会社,埼玉県,狭山市,大字上赤坂字不二見ノ丘３４９番地８,,11,215,3501313,,,2024-07-01,清算の結了等,,,2015-10-05,1,,,,,コクサイキカクインサツ,0
2649,9030002012750,登記記録の閉鎖等,0,2024-07-08,2024-07-03,有限会社マイロード,,有限会社,埼玉県,さいたま市大宮区,高鼻町１丁目３７番地２,,11,103,3300803,,,2024-07-03,清算の結了等,,,2015-10-05,1,,,,,マイロード,0
2654,9040001064098,登記記録の閉鎖等,0,2024-07-08,2024-06-25,株式会社ホクソーテクノ,,株式会社,千葉県,香取市,織幡１０１０番地の２,,12,236,2890348,,,2024-06-25,清算の結了等,,,2015-10-05,1,,,,,ホクソーテクノ,0
2683,9070002010585,登記記録の閉鎖等,0,2024-07-08,2024-07-03,有限会社誠和土地,,有限会社,群馬県,高崎市,飯塚町１７７６番地,,10,202,3700069,,,2024-07-03,清算の結了等,,,2015-10-05,1,,,,,セイワトチ,0
2694,9100001017768,登記記録の閉鎖等,0,2024-07-08,2024-06-20,株式会社木曽設備,,株式会社,長野県,木曽郡木曽町,福島１７６４番地,,20,432,3970001,,,2024-06-20,清算の結了等,,,2015-10-05,1,,,,,キソセツビ,0
2698,9120001052375,登記記録の閉鎖等,0,2024-07-08,2024-07-04,株式会社辻秀酒舗,00028252,株式会社,大阪府,大阪市東淀川区,小松５丁目６番４３号,,27,114,5330004,,,2024-07-04,清算の結了等,,,2015-10-05,1,,,,,ツジヒデシュホ,0
2702,9120001102519,登記記録の閉鎖等,0,2024-07-08,2024-07-01,株式会社ヴィサージュ,,株式会社,大阪府,大阪市北区,曾根崎２丁目８番５号,,27,127,5300057,,,2024-07-01,合併による解散等,8120001097974,令和６年７月１日大阪市福島区福島六丁目１３番６号アイブリッジ株式会社（8120001097974）に合併し解散,2015-10-05,1,,,,,ヴィサージュ,0
2705,9120001214578,登記記録の閉鎖等,0,2024-07-08,2024-07-01,株式会社Ｇ－ｌｉｆｅ,,株式会社,大阪府,交野市,私部西３丁目１１番１５号,,27,230,5760041,,,2024-07-01,合併による解散等,4120001189528,令和６年７月１日大阪府交野市私部西五丁目１番５号株式会社Ｇ－ＨＯＵＳＥ（4120001189528）に合併し解散,2018-07-10,1,,,,,ジーライフ,0
2717,9120002063421,登記記録の閉鎖等,0,2024-07-08,2024-07-02,有限会社誠実社,,有限会社,大阪府,大阪市北区,同心２丁目３－９新大野ビル１階,,27,127,5300035,,,2024-07-02,清算の結了等,,,2015-10-05,1,,,,,セイジツシャ,0
2729,9120901041568,登記記録の閉鎖等,0,2024-07-08,2024-07-04,株式会社エス・ケー・シー,,株式会社,大阪府,高槻市,北大樋町６０番１号,,27,207,5690041,,,2024-07-04,清算の結了等,,,2019-07-23,1,,,,,エスケーシー,0
2735,9130001008038,登記記録の閉鎖等,0,2024-07-08,2024-07-01,河合石油株式会社,,株式会社,京都府,京都市西京区,山田四ノ坪町１番地４サンクブランシュ２０５,,26,111,6158262,,,2024-07-01,清算の結了等,,,2015-10-05,1,,,,,カワイセキユ,0
2752,9140002042893,登記記録の閉鎖等,0,2024-07-08,2024-07-03,有限会社森商店,,有限会社,兵庫県,尼崎市,西難波町１丁目３番１２号,,28,202,6600893,,,2024-07-03,清算の結了等,,,2015-10-05,1,,,,,モリショウテン,0
2774,9200001019069,登記記録の閉鎖等,0,2024-07-08,2024-07-01,株式会社レクスト岐阜,,株式会社,岐阜県,岐阜市,花月町１丁目１番地,,21,201,5008128,,,2024-07-01,合併による解散等,6200001001236,令和６年７月１日岐阜市江添二丁目９番３号株式会社岐阜冠婚葬祭互助会（6200001001236）に合併し解散,2015-10-05,1,,,,,レクストギフ,0
2778,9200002006322,登記記録の閉鎖等,0,2024-07-08,2024-07-02,有限会社エヌアンドティ,,有限会社,岐阜県,岐阜市,都通４丁目２１番地,,21,201,5008309,,,2024-07-02,合併による解散等,2200001002502,令和６年７月１日岐阜市都通四丁目２１番地篠田商亊株式会社（2200001002502）に合併し解散,2015-10-05,1,,,,,エヌアンドティ,0
2787,9240002036596,登記記録の閉鎖等,0,2024-07-08,2024-07-01,有限会社信和フーズ,,有限会社,広島県,廿日市市,宮島町４６８番地の３,,34,213,7390588,,,2024-07-01,清算の結了等,,,2015-10-05,1,,,,,シンワフーズ,0
2791,9290001030488,登記記録の閉鎖等,0,2024-07-08,2024-06-07,福岡中央リビング株式会社,,株式会社,福岡県,福岡市中央区,白金１丁目８番２号,,40,133,8100012,,,2024-06-07,清算の結了等,,,2015-10-05,1,,,,,フクオカチュウオウリビング,0
2794,9290001082785,登記記録の閉鎖等,0,2024-07-08,2024-07-01,ビズ・エンジニアリング株式会社,,株式会社,福岡県,福岡市中央区,天神１丁目１５番３２号,,40,133,8100001,,,2024-07-01,合併による解散等,3290001062058,令和６年７月１日福岡市中央区天神一丁目１５番３２号ビズ・リファイン株式会社（3290001062058）に合併し解散,2018-09-18,1,,,,,ビズエンジニアリング,0
2803,9300002000307,登記記録の閉鎖等,0,2024-07-08,2024-07-02,有限会社カネワ工務店,,有限会社,佐賀県,佐賀市,東佐賀町１番７号,,41,201,8400821,,,2024-07-02,清算の結了等,,,2015-10-05,1,,,,,カネワコウムテン,0
2822,9400001008547,登記記録の閉鎖等,0,2024-07-08,2024-06-21,株式会社シマノ,,株式会社,岩手県,二戸市,金田一字馬場１５７番地２,,03,213,0285711,,,2024-06-21,清算の結了等,,,2015-10-05,1,,,,,シマノ,0
2826,9430001053433,登記記録の閉鎖等,0,2024-07-08,2024-07-01,苫小牧エンジン機工株式会社,,株式会社,北海道,苫小牧市,新明町１丁目１番１６号,,01,213,0530055,,,2024-07-01,合併による解散等,2430001013609,令和６年７月１日札幌市白石区本通十一丁目南７番９号林興業株式会社（2430001013609）に合併し解散,2015-10-05,1,,,,,トマコマイエンジンキコウ,0
2837,9480002007573,登記記録の閉鎖等,0,2024-07-08,2024-07-02,エフアイ有限会社,,有限会社,徳島県,小松島市,横須町１１番１３号,,36,203,7730006,,,2024-07-02,清算の結了等,,,2015-10-05,1,,,,,エフアイ,0
2838,9480005006630,登記記録の閉鎖等,0,2024-07-08,2024-06-28,特定非営利活動法人徳島県広域健康スポーツクラブ,,その他の設立登記法人,徳島県,美馬市,脇町大字猪尻字西分１３９番地８,,36,207,7793602,,,2024-06-28,清算の結了等,,,2018-02-16,1,,,,,トクシマケンコウイキケンコウスポーツクラブ,0
