sequenceNumber,corporateNumber,process,correct,updateDate,changeDate,name,nameImageId,kind,prefectureName,cityName,streetNumber,addressImageId,prefectureCode,cityCode,postCode,addressOutside,addressOutsideImageId,closeDate,closeCause,successorCorporateNumber,changeCause,assignmentDate,latest,enName,enPrefectureName,enCityName,enAddressOutside,furigana,hihyoji
62,1011802029794,登記記録の閉鎖等,0,2025-05-07,2025-04-30,広陽装備有限会社,,有限会社,東京都,足立区,西新井栄町２丁目１番１号,,13,121,1230843,,,2025-04-30,清算の結了等,,,2015-10-05,1,,,,,,0
67,1012401020046,登記記録の閉鎖等,0,2025-05-07,2025-04-23,株式会社食療,,株式会社,東京都,国分寺市,西恋ヶ窪１丁目４５番地１９,,13,214,1850013,,,2025-04-23,清算の結了等,,,2015-10-05,1,,,,,ショクリョウ,0
71,1012402010938,登記記録の閉鎖等,0,2025-05-07,2025-04-25,有限会社京王樂屋,,有限会社,東京都,調布市,布田３丁目２７番地２,,13,208,1820024,,,2025-04-25,清算の結了等,,,2015-10-05,1,,,,,ケイオウガクヤ,0
73,1013101004446,登記記録の閉鎖等,0,2025-05-07,2025-04-30,丸公木材株式会社,,株式会社,東京都,西多摩郡日の出町,大字平井２６０８番地,,13,305,1900182,,,2025-04-30,清算の結了等,,,2015-10-05,1,,,,,マルコウモクザイ,0
89,1020002006777,登記記録の閉鎖等,0,2025-05-07,2025-04-17,有限会社ニックス,,有限会社,神奈川県,横浜市都筑区,大熊町６２番地３,,14,118,2240042,,,2025-04-17,清算の結了等,,,2015-10-05,1,,,,,ニックス,0
90,1020003017906,登記記録の閉鎖等,0,2025-05-07,2025-04-07,合同会社Ｋ＆Ｄホーム,,合同会社,神奈川県,横浜市港南区,上永谷２丁目２２番１７号トップ横浜上永谷１０４,,14,111,2330012,,,2025-04-07,清算の結了等,,,2020-05-27,1,,,,,ケーアンドディーホーム,0
94,1021001075383,登記記録の閉鎖等,0,2025-05-07,2025-05-02,株式会社タイラ工務店,,株式会社,神奈川県,大和市,林間１丁目１５番３２号神代ビル１階,,14,213,2420003,,,2025-05-02,清算の結了等,,,2022-03-07,1,,,,,タイラコウムテン,0
109,1040001076984,登記記録の閉鎖等,0,2025-05-07,2025-04-30,株式会社ＭＴロジスティックス,,株式会社,東京都,足立区,花畑３丁目１８番１号,,13,121,1210061,,,2025-04-30,清算の結了等,,,2015-10-05,1,,,,,エムティロジスティックス,0
116,1050001050609,登記記録の閉鎖等,0,2025-05-07,2025-04-25,株式会社Ｇ－ＳＴＹＬＥ,,株式会社,茨城県,坂東市,山１２３４番地１,,08,228,3060502,,,2025-04-25,清算の結了等,,,2022-02-10,1,,,,,ジースタイル,0
120,1060001030948,登記記録の閉鎖等,0,2025-05-07,2025-04-23,株式会社バターのいとこ,,株式会社,栃木県,那須郡那須町,大字高久乙２９０５番地２５,,09,407,3250303,,,2025-04-23,清算の結了等,,,2018-10-09,1,,,,,バターノイトコ,0
124,1070002035466,登記記録の閉鎖等,0,2025-05-07,2025-04-30,有限会社ダイリン,,有限会社,群馬県,利根郡みなかみ町,後閑３２９番地,,10,449,3791305,,,2025-04-30,清算の結了等,,,2015-10-05,1,,,,,,0
128,1080101009329,登記記録の閉鎖等,0,2025-05-07,2025-04-28,株式会社Ｐ・Ｍ・Ｃ,,株式会社,静岡県,富士市,緑町４番４号,,22,210,4170049,,,2025-04-28,清算の結了等,,,2015-10-05,1,,,,,ピーエムシー,0
133,1080402000250,登記記録の閉鎖等,0,2025-05-07,2025-04-24,有限会社アクセル,,有限会社,静岡県,浜松市中央区,上島１丁目２４番６号,,22,138,4338122,,,2025-04-24,清算の結了等,,,2015-10-05,1,,,,,アクセル,0
138,1100002031271,登記記録の閉鎖等,0,2025-05-07,2025-04-30,サンエンジニアリング有限会社,,有限会社,長野県,岡谷市,加茂町３丁目９番２０号,,20,204,3940003,,,2025-04-30,清算の結了等,,,2015-10-05,1,,,,,サンエンジニアリング,0
144,1110005004637,登記記録の閉鎖等,0,2025-05-07,2025-04-01,豊浦商工会,,その他の設立登記法人,新潟県,新発田市,乙次４７５番地３,,15,206,9592323,,,2025-04-01,合併による解散等,5110005017206,令和７年４月１日新潟県新発田市住田５１０番地加治川商工会（5110005004633）及び新潟県新発田市稲荷岡２３７１番地紫雲寺商工会（3110005004635）と合併して新潟県新発田市乙次４７５番地３しばた商工会（5110005017206）を設立し解散,2015-10-05,1,,,,,トヨウラ,0
182,1140005002365,登記記録の閉鎖等,0,2025-05-07,2025-04-01,社会福祉法人神戸市長田区社会福祉協議会,,その他の設立登記法人,兵庫県,神戸市長田区,北町３丁目４番地の３（長田区役所内）,,28,106,6530016,,,2025-04-01,合併による解散等,1140005002340,令和７年４月１日神戸市中央区磯上通三丁目１番３２号社会福祉法人神戸市社会福祉協議会（1140005002340）に合併し解散,2015-10-05,1,,,,,コウベシナガタクシャカイフクシキョウギカイ,0
183,1140005002373,登記記録の閉鎖等,0,2025-05-07,2025-04-01,社会福祉法人神戸市垂水区社会福祉協議会,,その他の設立登記法人,兵庫県,神戸市垂水区,日向１丁目５番１号,,28,108,6550893,,,2025-04-01,合併による解散等,1140005002340,令和７年４月１日神戸市中央区磯上通三丁目１番３２号社会福祉法人神戸市社会福祉協議会（1140005002340）に合併し解散,2015-10-05,1,,,,,コウベシタルミクシャカイフクシキョウギカイ,0
185,1160002007241,登記記録の閉鎖等,0,2025-05-07,2025-04-30,有限会社キクヤオフィスサービス,,有限会社,滋賀県,長浜市,木之本町木之本８０５番地の３,,25,203,5290425,,,2025-04-30,清算の結了等,,,2015-10-05,1,,,,,キクヤオフィスサービス,0
189,1180001073778,登記記録の閉鎖等,0,2025-05-07,2025-04-28,株式会社永楽屋,,株式会社,愛知県,春日井市,明知町４７４番地の１,,23,206,4800303,,,2025-04-28,清算の結了等,,,2015-10-05,1,,,,,エイラクヤ,0
196,1180002031495,登記記録の閉鎖等,0,2025-05-07,2025-04-28,有限会社オーパ,,有限会社,愛知県,名古屋市南区,鳴浜町１丁目４８番地,,23,112,4570806,,,2025-04-28,清算の結了等,,,2015-10-05,1,,,,,オーパ,0
207,1180305002400,登記記録の閉鎖等,0,2025-05-07,2025-04-10,学校法人宮野学園,,その他の設立登記法人,愛知県,豊橋市,旭町字旭３４８番地３,,23,201,4400057,,,2025-04-10,合併による解散等,3180005009017,令和７年４月１日愛知県尾張旭市新居町山の田３２５５番地５学校法人菊武学園（3180005009017）に合併し解散,2015-10-05,1,,,,,,0
212,1200001018763,登記記録の閉鎖等,0,2025-05-07,2025-04-30,森田塗装株式会社,,株式会社,岐阜県,美濃加茂市,西町７丁目１８９番地,,21,211,5050046,,,2025-04-30,清算の結了等,,,2015-10-05,1,,,,,モリタトソウ,0
213,1200001040767,登記記録の閉鎖等,0,2025-05-07,2025-04-02,栄光堂商事株式会社,,株式会社,岐阜県,養老郡養老町,船附１１７１番地１,,21,341,5031382,,,2025-04-02,合併による解散等,5200001042603,令和７年４月２日岐阜県養老郡養老町船附１１７１番地１ＥＫＤ商事株式会社（5200001042603）に合併し解散　,2022-12-14,1,,,,,エイコウドウショウジ,0
229,1270005004299,登記記録の閉鎖等,0,2025-05-07,2025-04-07,伊弉原神社,,その他の設立登記法人,鳥取県,倉吉市,大谷８７７番地１,,31,203,6820941,,,2025-04-07,合併による解散等,3270005004330,令和７年４月７日鳥取県倉吉市国分寺４２６番地國廳裏神社（3270005004330）に合併し解散,2015-10-05,1,,,,,イザハラ,0
236,1290001058454,登記記録の閉鎖等,0,2025-05-07,2025-04-18,株式会社野村エンジニア,,株式会社,福岡県,久留米市,合川町４７０番地９,,40,203,8390861,,,2025-04-18,清算の結了等,,,2015-10-05,1,,,,,ノムラエンジニア,0
237,1290001059956,登記記録の閉鎖等,0,2025-05-07,2025-04-16,株式会社フタガミ,,株式会社,福岡県,福岡市博多区,銀天町３丁目６番２７号,,40,132,8120879,,,2025-04-16,清算の結了等,,,2015-10-05,1,,,,,フタガミ,0
242,1290002038769,登記記録の閉鎖等,0,2025-05-07,2025-04-18,有限会社大田金物店,,有限会社,福岡県,筑紫野市,二日市中央３丁目６番６号,,40,217,8180072,,,2025-04-18,清算の結了等,,,2015-10-05,1,,,,,オオタカナモノテン,0
266,1330001022430,登記記録の閉鎖等,0,2025-05-07,2025-04-25,株式会社村本工業,,株式会社,熊本県,合志市,須屋７１４番地１４,,43,216,8611102,,,2025-04-25,清算の結了等,,,2016-01-13,1,,,,,,0
276,1360001023418,登記記録の閉鎖等,0,2025-05-07,2025-04-11,株式会社クロスワン,,株式会社,東京都,千代田区,丸の内１丁目９番２号,,13,101,1000005,,,2025-04-11,清算の結了等,,,2018-01-22,1,,,,,クロスワン,0
281,1370001048281,登記記録の閉鎖等,0,2025-05-07,2025-04-01,株式会社ＨＣ－Ｌｉｎｋ,,株式会社,宮城県,仙台市太白区,中田町字千刈田３２番地,,04,104,9811103,,,2025-04-01,合併による解散等,1370001018656,令和７年４月１日宮城県名取市本郷字矢口９株式会社平良（1370001018656）に合併し解散,2022-03-04,1,,,,,エイチシーリンク,0
287,1380002000158,登記記録の閉鎖等,0,2025-05-07,2025-04-18,有限会社ワールド旅行開発,,有限会社,福島県,福島市,方木田字葉ノ木立２９番地の２２,,07,201,9608163,,,2025-04-18,清算の結了等,,,2015-10-05,1,,,,,ワールドリョコウカイハツ,0
380,2020001136871,登記記録の閉鎖等,0,2025-05-07,2025-04-17,ＢＡＮＡＮＡ株式会社,,株式会社,神奈川県,横浜市旭区,二俣川１丁目４６番地１１－１０１,,14,112,2410821,,,2025-04-17,清算の結了等,,,2020-07-13,1,,,,,バナナ,0
389,2020002071382,登記記録の閉鎖等,0,2025-05-07,2025-05-01,有限会社草場書房,,有限会社,佐賀県,伊万里市,東山代町里９２９番地,,41,205,8494282,,,2025-05-01,清算の結了等,,,2015-10-05,1,,,,,クサバショボウ,0
391,2020003022905,登記記録の閉鎖等,0,2025-05-07,2025-04-17,ＧＳプランニング合同会社,,合同会社,神奈川県,横浜市瀬谷区,本郷３丁目１９－６,,14,114,2460015,,,2025-04-17,清算の結了等,,,2022-12-16,1,,,,,ジーエスプランニング,0
395,2021001052902,登記記録の閉鎖等,0,2025-05-07,2025-05-02,石村商事株式会社,,株式会社,神奈川県,厚木市,妻田東１丁目１７番４０号,,14,212,2430813,,,2025-05-02,清算の結了等,,,2015-10-05,1,,,,,,0
414,2040005008388,登記記録の閉鎖等,0,2025-05-07,2025-04-01,大佐和漁業協同組合,,その他の設立登記法人,千葉県,富津市,小久保字港町３０８９番地,,12,226,2930042,,,2025-04-01,合併による解散等,2040005008727,令和７年４月１日千葉県富津市萩生１１７４番地５天羽漁業協同組合（2040005008727）に合併し解散,2015-10-05,1,,,,,オオサワ,0
423,2070001004891,登記記録の閉鎖等,0,2025-05-07,2025-04-23,株式会社ぐんまフラワー管理,,株式会社,群馬県,前橋市,柏倉町２６４３番地１,,10,201,3710246,,,2025-04-23,清算の結了等,,,2015-10-05,1,,,,,グンマフラワーカンリ,0
427,2070002023759,登記記録の閉鎖等,0,2025-05-07,2025-04-28,有限会社首藤製作所,,有限会社,群馬県,桐生市,新里町新川３９０番地の５,,10,203,3760121,,,2025-04-28,清算の結了等,,,2015-10-05,1,,,,,,0
431,2080101009245,登記記録の閉鎖等,0,2025-05-07,2025-04-28,株式会社日東建築材料商会,,株式会社,静岡県,富士市,吉原３丁目６番１５号,,22,210,4170051,,,2025-04-28,清算の結了等,,,2015-10-05,1,,,,,,0
434,2100001025067,登記記録の閉鎖等,0,2025-05-07,2025-04-28,株式会社ユーメリア長野,,株式会社,長野県,千曲市,大字上徳間２１３番地１,,20,218,3890805,,,2025-04-28,清算の結了等,,,2015-10-05,1,,,,,ユーメリアナガノ,0
438,2110005002499,登記記録の閉鎖等,0,2025-05-07,2025-04-01,潟東商工会,,その他の設立登記法人,新潟県,新潟市西蒲区,三方２４番地,,15,108,9590505,,,2025-04-01,合併による解散等,2110005017209,令和７年４月１日新潟県新潟市西蒲区巻甲２５７６番地３巻商工会（6110005002842）と新潟市西蒲区曽根１６８番地１３西川商工会（3110005002498）と新潟市西蒲区西中８８９番地１岩室商工会（5110005002496）と新潟市西蒲区中之口６８８番地１中之口商工会（4110005002497）と合併して新潟県新潟市西蒲区巻甲２５７６番地３新潟にしかん商工会（2110005017209）を設立し解散,2015-10-05,1,,,,,カタヒガシ,0
439,2110005013141,登記記録の閉鎖等,0,2025-05-07,2025-04-01,大和商工会,,その他の設立登記法人,新潟県,南魚沼市,浦佐４７８番地５,,15,226,9497302,,,2025-04-01,合併による解散等,6110005017205,令和７年４月１日新潟県南魚沼市六日町７６番地４六日町商工会（3110005013140）及び新潟県南魚沼市塩沢１１１２番地３２塩沢商工会（5110005013139）と合併して新潟県南魚沼市六日町７６番地４南魚沼商工会（6110005017205）を設立し解散,2015-10-05,1,,,,,ヤマト,0
440,2110005013587,登記記録の閉鎖等,0,2025-05-07,2025-04-01,広神商工会,,その他の設立登記法人,新潟県,魚沼市,今泉１４７７番地１,,15,225,9460051,,,2025-04-01,合併による解散等,4110005017207,令和７年４月１日新潟県魚沼市堀之内１３０番地堀之内商工会（7110005013590）、新潟県魚沼市小出島１２０９番地１１小出商工会（8110005013581）、新潟県魚沼市吉田１１４８番地湯之谷商工会（3110005013586）と合併して新潟県魚沼市小出島１２０９番地１１魚沼市商工会（4110005017207）を設立し解散,2015-10-05,1,,,,,ヒロカミ,0
480,2140005002364,登記記録の閉鎖等,0,2025-05-07,2025-04-01,社会福祉法人神戸市灘区社会福祉協議会,00041995,その他の設立登記法人,兵庫県,神戸市灘区,桜口町４丁目２番１号（神戸市灘区役所内）,,28,102,6570036,,,2025-04-01,合併による解散等,1140005002340,令和７年４月１日神戸市中央区磯上通三丁目１番３２号社会福祉法人神戸市社会福祉協議会（1140005002340）に合併し解散,2015-10-05,1,,,,,コウベシナダクシャカイフクシキョウギカイ,0
495,2180002014433,登記記録の閉鎖等,0,2025-05-07,2025-04-28,有限会社名村製作所,,有限会社,愛知県,名古屋市港区,小碓３丁目１３６番地,,23,111,4550801,,,2025-04-28,清算の結了等,,,2015-10-05,1,,,,,ナムラセイサクジョ,0
496,2180002039265,登記記録の閉鎖等,0,2025-05-07,2025-04-28,有限会社ヒビノプランニング,,有限会社,愛知県,名古屋市北区,大杉３丁目５番９号,,23,103,4620837,,,2025-04-28,清算の結了等,,,2015-10-05,1,,,,,ヒビノプランニング,0
498,2180002088106,登記記録の閉鎖等,0,2025-05-07,2025-04-30,有限会社横井工務店,,有限会社,愛知県,東海市,名和町西前郷１番地の５０,,23,222,4760002,,,2025-04-30,清算の結了等,,,2015-10-05,1,,,,,ヨコイコウムテン,0
500,2180003003063,登記記録の閉鎖等,0,2025-05-07,2025-04-24,月見坂大丸合資会社,,合資会社,愛知県,名古屋市天白区,中砂町５７５番地,,23,116,4680065,,,2025-04-24,清算の結了等,,,2015-10-05,1,,,,,ツキミザカダイマル,0
509,2180305002985,登記記録の閉鎖等,0,2025-05-07,2025-04-01,天理教愛橋分教会,,その他の設立登記法人,愛知県,豊橋市,牧野町１７０番地の５,,23,201,4418112,,,2025-04-01,合併による解散等,3180305002992,令和７年４月１日愛知県豊橋市大岩町字車田２０番地天理教愛静大教会（3180305002992）に合併し解散,2015-10-05,1,,,,,テンリキョウアイハシブンキョウカイ,0
510,2190001012222,登記記録の閉鎖等,0,2025-05-07,2025-04-23,株式会社坂口屋,,株式会社,三重県,桑名市,三ツ矢橋３５番地の１２,,24,205,5110057,,,2025-04-23,清算の結了等,,,2015-10-05,1,,,,,サカグチヤ,0
563,2340001015390,登記記録の閉鎖等,0,2025-05-07,2025-04-28,株式会社ＭＩＺＵＨＯ　ＪＡＰＡＮ,,株式会社,鹿児島県,志布志市,有明町伊崎田５６１６番地９,00102685,46,221,8997401,,,2025-04-28,清算の結了等,,,2015-10-05,1,,,,,ミズホジャパン,0
583,2410001012059,登記記録の閉鎖等,0,2025-05-07,2025-04-25,シーガル株式会社,,株式会社,秋田県,由利本荘市,薬師堂字中道１３３番地３コーポサンライズ２、１０１号,,05,210,0150041,,,2025-04-25,清算の結了等,,,2019-01-11,1,,,,,,0
584,2410002010160,登記記録の閉鎖等,0,2025-05-07,2025-04-28,有限会社大高工業,,有限会社,秋田県,能代市,荷八田字前谷地２１０番地,,05,202,0160003,,,2025-04-28,清算の結了等,,,2015-10-05,1,,,,,,0
602,3010001159856,登記記録の閉鎖等,0,2025-05-07,2025-04-11,株式会社三友印刷,,株式会社,東京都,千代田区,神田錦町２丁目７番地,,13,101,1010054,,,2025-04-11,清算の結了等,,,2015-10-05,1,,,,,サンユウインサツ,0
603,3010001179458,登記記録の閉鎖等,0,2025-05-07,2025-04-09,株式会社ＭＪＳ　Ｆｉｎａｎｃｅ＆Ｔｅｃｈｎｏｌｏｇｙ,,株式会社,東京都,新宿区,四谷４丁目２９番地１,,13,104,1600004,,,2025-04-09,合併による解散等,4011101020774,令和７年４月１日東京都新宿区四谷四丁目２９番地１株式会社ミロク情報サービス（4011101020774）に合併し解散,2016-11-07,1,,,,,エムジェイエスファイナンスアンドテクノロジー,0
623,3010401126761,登記記録の閉鎖等,0,2025-05-07,2025-04-03,アストロコラッサル株式会社,,株式会社,東京都,渋谷区,桜丘町２３番１７号シティーコート桜丘内,,13,113,1500031,,,2025-04-03,清算の結了等,,,2016-08-31,1,,,,,アストロコラッサル,0
651,3010901004830,登記記録の閉鎖等,0,2025-05-07,2025-05-01,サナエ建設株式会社,,株式会社,東京都,世田谷区,三軒茶屋２丁目３０番４号,,13,112,1540024,,,2025-05-01,清算の結了等,,,2015-10-05,1,,,,,サナエケンセツ,0
691,3012301007546,登記記録の閉鎖等,0,2025-05-07,2025-04-30,株式会社Ｗｏｍｅｎ’ｓ　Ｌａｂｏ,,株式会社,東京都,町田市,金森３丁目１７番１９号,,13,209,1940012,,,2025-04-30,清算の結了等,,,2015-10-05,1,,,,,ウーマンズラボ,0
694,3012402016099,登記記録の閉鎖等,0,2025-05-07,2025-04-28,シナリー・ルチア有限会社,,有限会社,東京都,練馬区,西大泉５丁目２９番２３号イーハトープ壱番館１１０８号,,13,120,1780065,,,2025-04-28,清算の結了等,,,2015-10-05,1,,,,,シナリールチア,0
698,3013301041485,登記記録の閉鎖等,0,2025-05-07,2025-04-03,株式会社レオコネクト,,株式会社,東京都,渋谷区,渋谷２丁目２１番１号,,13,113,1500002,,,2025-04-03,清算の結了等,,,2017-12-06,1,,,,,レオコネクト,0
711,3020002066002,登記記録の閉鎖等,0,2025-05-07,2025-04-18,有限会社ティーズデザインシステムズ,,有限会社,神奈川県,横浜市神奈川区,鶴屋町２丁目２０番２号,,14,102,2210835,,,2025-04-18,合併による解散等,5020001015346,令和７年４月１８日横浜市西区南幸一丁目５番１号株式会社たしろ薬品（5020001015346）に合併し解散,2015-10-05,1,,,,,ティーズデザインシステムズ,0
729,3030003019890,登記記録の閉鎖等,0,2025-05-07,2025-04-30,合同会社ＬｉｅＮａｒｃ,,合同会社,埼玉県,さいたま市浦和区,常盤９丁目１９番１９号サンシティ２０１号,,11,107,3300061,,,2025-04-30,清算の結了等,,,2022-08-01,1,,,,,リエナルク,0
731,3040001135929,登記記録の閉鎖等,0,2025-05-07,2025-04-17,株式会社Ｓｐｉｎｉｓｈ,,株式会社,千葉県,成田市,公津の杜４丁目１番地２（Ｃ棟６１１号）,,12,211,2860048,,,2025-04-17,清算の結了等,,,2024-10-25,1,,,,,スピニッシュ,0
749,3080101013386,登記記録の閉鎖等,0,2025-05-07,2025-04-14,エナジック株式会社,,株式会社,静岡県,伊東市,湯川６５７番地,,22,208,4140002,,,2025-04-14,合併による解散等,2080101005005,令和７年４月１日静岡県伊豆市瓜生野２０２番地の１伊豆食文化公園株式会社（2080101005005）に合併し解散,2015-10-05,1,,,,,エナジック,0
757,3080402016996,登記記録の閉鎖等,0,2025-05-07,2025-04-14,株式会社ＡＣ,,株式会社,東京都,千代田区,丸の内３丁目４番１号新国際ビル４階,,13,101,1000005,,,2025-04-14,清算の結了等,,,2015-10-05,1,,,,,エーシー,0
763,3110005002498,登記記録の閉鎖等,0,2025-05-07,2025-04-01,西川商工会,,その他の設立登記法人,新潟県,新潟市西蒲区,曽根１６８番地１３,,15,108,9590422,,,2025-04-01,合併による解散等,2110005017209,令和７年４月１日新潟県新潟市西蒲区巻甲２５７６番地３巻商工会（6110005002842）と新潟市西蒲区西中８８９番地１岩室商工会（5110005002496）と新潟市西蒲区中之口６８８番地１中之口商工会（4110005002497）と新潟市西蒲区三方２４番地潟東商工会（2110005002499）と合併して新潟県新潟市西蒲区巻甲２５７６番地３新潟にしかん商工会（2110005017209）を設立し解散,2015-10-05,1,,,,,ニシカワ,0
764,3110005004635,登記記録の閉鎖等,0,2025-05-07,2025-04-01,紫雲寺商工会,,その他の設立登記法人,新潟県,新発田市,稲荷岡２３７１番地,,15,206,9570204,,,2025-04-01,合併による解散等,5110005017206,令和７年４月１日新潟県新発田市乙次４７５番地３豊浦商工会（1110005004637）及び新潟県新発田市住田５１０番地加治川商工会（5110005004633）と合併して新潟県新発田市乙次４７５番地３しばた商工会（5110005017206）を設立し解散,2015-10-05,1,,,,,シウンジ,0
765,3110005013140,登記記録の閉鎖等,0,2025-05-07,2025-04-01,六日町商工会,,その他の設立登記法人,新潟県,南魚沼市,六日町７６番地４,,15,226,9496680,,,2025-04-01,合併による解散等,6110005017205,令和７年４月１日新潟県南魚沼市塩沢１１１２番地３２塩沢商工会（5110005013139）及び新潟県南魚沼市浦佐４７８番地５大和商工会（2110005013141）と合併して新潟県南魚沼市六日町７６番地４南魚沼商工会（6110005017205）を設立し解散,2015-10-05,1,,,,,ムイカマチ,0
766,3110005013586,登記記録の閉鎖等,0,2025-05-07,2025-04-01,湯之谷商工会,,その他の設立登記法人,新潟県,魚沼市,吉田１１４８番地,,15,225,9460075,,,2025-04-01,合併による解散等,4110005017207,令和７年４月１日新潟県魚沼市堀之内１３０番地堀之内商工会（7110005013590）、新潟県魚沼市小出島１２０９番地１１小出商工会（8110005013581）、新潟県魚沼市今泉１４７７番地１広神商工会（2110005013587）と合併して新潟県魚沼市小出島１２０９番地１１魚沼市商工会（4110005017207）を設立し解散,2015-10-05,1,,,,,ユノタニ,0
767,3110005014015,登記記録の閉鎖等,0,2025-05-07,2025-04-01,羽茂赤泊商工会,,その他の設立登記法人,新潟県,佐渡市,羽茂本郷６７３番地１,,15,224,9520504,,,2025-04-01,合併による解散等,9110005013985,令和７年４月１日新潟県佐渡市小木町９４番地南佐渡商工会（9110005013985）に合併し解散,2015-10-05,1,,,,,ハモチアカドマリ,0
778,3120001225746,登記記録の閉鎖等,0,2025-05-07,2025-04-07,ＮＥＴガイド株式会社,,株式会社,大阪府,大阪市北区,中崎西２丁目４番１２号梅田センタービル６階,,27,127,5300015,,,2025-04-07,合併による解散等,5120001136363,令和７年４月１日大阪市北区中崎西二丁目４番１２号梅田センタービル１１階ＴＥＴＲＡＰＯＴ株式会社（5120001136363）に合併し解散,2019-12-13,1,,,,,ネットガイド,0
789,3120003016086,登記記録の閉鎖等,0,2025-05-07,2025-04-16,ＴＨＮテクノサービス合同会社,,合同会社,大阪府,枚方市,東山１丁目６２番地の２０,,27,210,5731114,,,2025-04-16,清算の結了等,,,2019-08-06,1,,,,,ティーエイチエヌテクノサービス,0
800,3120901008250,登記記録の閉鎖等,0,2025-05-07,2025-04-11,ＢＸ文化パネル株式会社,,株式会社,大阪府,吹田市,南吹田５丁目１６番８号,,27,205,5640043,,,2025-04-11,合併による解散等,2120101010116,令和７年４月１日大阪府松原市南新町四丁目５０番地１ＢＸルーテス株式会社（2120101010116）に合併し解散,2015-10-05,1,,,,,,0
823,3140005002017,登記記録の閉鎖等,0,2025-05-07,2025-04-28,医療法人社団てい歯科医院,,その他の設立登記法人,兵庫県,神戸市中央区,御幸通２丁目１番２３号,,28,110,6510087,,,2025-04-28,清算の結了等,,,2015-10-05,1,,,,,テイシカイイン,0
824,3140005002363,登記記録の閉鎖等,0,2025-05-07,2025-04-01,社会福祉法人神戸市東灘区社会福祉協議会,00041994,その他の設立登記法人,兵庫県,神戸市東灘区,住吉東町５丁目２番１号,,28,101,6580052,,,2025-04-01,合併による解散等,1140005002340,令和７年４月１日神戸市中央区磯上通三丁目１番３２号社会福祉法人神戸市社会福祉協議会（1140005002340）に合併し解散,2015-10-05,1,,,,,コウベシヒガシナダクシャカイフクシキョウギカイ,0
825,3140005002371,登記記録の閉鎖等,0,2025-05-07,2025-04-01,社会福祉法人神戸市須磨区社会福祉協議会,,その他の設立登記法人,兵庫県,神戸市須磨区,大黒町４丁目１番１号（須磨区役所内）,,28,107,6540022,,,2025-04-01,合併による解散等,1140005002340,令和７年４月１日神戸市中央区磯上通三丁目１番３２号社会福祉法人神戸市社会福祉協議会（1140005002340）に合併し解散,2015-10-05,1,,,,,コウベシスマクシャカイフクシキョウギカイ,0
829,3180001035982,登記記録の閉鎖等,0,2025-05-07,2025-04-28,株式会社小林商会,,株式会社,愛知県,名古屋市中区,栄１丁目１３番２０号コープ野村御園３０３号室,,23,106,4600008,,,2025-04-28,清算の結了等,,,2015-10-05,1,,,,,コバヤシショウカイ,0
841,3180002051649,登記記録の閉鎖等,0,2025-05-07,2025-04-28,有限会社イハラ,,有限会社,愛知県,北名古屋市,鹿田神明附１０４番地の２,,23,234,4810004,,,2025-04-28,清算の結了等,,,2015-10-05,1,,,,,イハラ,0
847,3190001018929,登記記録の閉鎖等,0,2025-05-07,2025-04-03,株式会社エフティファーム,,株式会社,北海道,勇払郡厚真町,字幌里１７８番地,,01,581,0591611,,,2025-04-03,合併による解散等,8430002057954,令和７年４月１日北海道勇払郡厚真町字幌里３３０番地株式会社厚真ファーム（8430002057954）に合併して解散,2015-10-05,1,,,,,エフティファーム,0
849,3190002018143,登記記録の閉鎖等,0,2025-05-07,2025-04-22,有限会社双葉工業,,有限会社,三重県,いなべ市,北勢町麻生田３３００番地,,24,214,5110427,,,2025-04-22,清算の結了等,,,2015-10-05,1,,,,,フタバコウギョウ,0
850,3200001029775,登記記録の閉鎖等,0,2025-05-07,2025-04-30,株式会社Ｖａｒ　ｃｈｏｏ　ｃｈｏｏ,,株式会社,岐阜県,岐阜市,加納桜田町２丁目３番地,,21,201,5008468,,,2025-04-30,清算の結了等,,,2015-10-05,1,,,,,バーチューチュー,0
902,3340001008781,登記記録の閉鎖等,0,2025-05-07,2025-04-30,株式会社総合技術研究所,,株式会社,鹿児島県,薩摩川内市,平佐町１７６８番地,,46,215,8950012,,,2025-04-30,清算の結了等,,,2015-10-05,1,,,,,ソウゴウギジュツケンキュウジョ,0
911,3380001031755,登記記録の閉鎖等,0,2025-05-07,2025-04-22,株式会社あっぺとっぺ,,株式会社,福島県,福島市,大笹生字座頭石１２番地の１,,07,201,9600251,,,2025-04-22,清算の結了等,,,2021-04-12,1,,,,,アッペトッペ,0
918,3390001014619,登記記録の閉鎖等,0,2025-05-07,2025-04-16,やまがたウッドチップセンター株式会社,,株式会社,山形県,長井市,寺泉３６６２番地２,,06,209,9930061,,,2025-04-16,合併による解散等,2390001014330,令和７年４月１日山形県長井市寺泉３６６４番地８ＮＫＣながいグリーンパワー株式会社（2390001014330）に合併し解散,2016-08-29,1,,,,,ヤマガタウッドチップセンター,0
920,3420003002072,登記記録の閉鎖等,0,2025-05-07,2025-04-28,合同会社澪,,合同会社,青森県,青森市,古館１丁目３番７号,,02,201,0300946,,,2025-04-28,清算の結了等,,,2019-12-13,1,,,,,ミオ,0
927,3460405000034,登記記録の閉鎖等,0,2025-05-07,2025-04-25,根室市土地開発公社,,その他の設立登記法人,北海道,根室市,常盤町２丁目２７番地,,01,223,0870041,,,2025-04-25,清算の結了等,,,2015-10-05,1,,,,,,0
930,3480002010277,登記記録の閉鎖等,0,2025-05-07,2025-04-30,有限会社岩本,,有限会社,徳島県,鳴門市,撫養町立岩字四枚５３番地,,36,202,7720017,,,2025-04-30,清算の結了等,,,2015-10-05,1,,,,,イワモト,0
937,4010001032087,登記記録の閉鎖等,0,2025-05-07,2025-04-11,株式会社リテック,,株式会社,東京都,台東区,上野桜木１丁目１番８号,,13,106,1100002,,,2025-04-11,清算の結了等,,,2015-10-05,1,,,,,,0
943,4010001196535,登記記録の閉鎖等,0,2025-05-07,2025-04-14,株式会社Ｒｙｏｕ,,株式会社,東京都,中央区,銀座２丁目１１番１－３階,,13,102,1040061,,,2025-04-14,清算の結了等,,,2018-11-21,1,,,,,アールユー,0
950,4010003031228,登記記録の閉鎖等,0,2025-05-07,2025-04-11,株式会社Ｃｅｎｔｅｒ　Ｐｏｒｔ,,株式会社,東京都,中央区,日本橋兜町１７番２号兜町第６葉山ビル４階,,13,102,1030026,,,2025-04-11,清算の結了等,,,2019-12-10,1,,,,,センターポート,0
974,4010902024190,登記記録の閉鎖等,0,2025-05-07,2025-05-02,有限会社サンビエール,,有限会社,東京都,世田谷区,東玉川２丁目３１番４号,,13,112,1580084,,,2025-05-02,清算の結了等,,,2015-10-05,1,,,,,サンビエール,0
996,4011502011538,登記記録の閉鎖等,0,2025-05-07,2025-05-01,有限会社モリタプレス印刷,,有限会社,東京都,荒川区,東日暮里２丁目３５番１０号,,13,118,1160014,,,2025-05-01,清算の結了等,,,2015-10-05,1,,,,,モリタプレスインサツ,0
997,4011603003319,登記記録の閉鎖等,0,2025-05-07,2025-04-21,合同会社Ｍａｙ１７,,合同会社,東京都,練馬区,西大泉５丁目１０－１６,,13,120,1780065,,,2025-04-21,清算の結了等,,,2021-06-17,1,,,,,メイセブンティーン,0
1002,4011802003631,登記記録の閉鎖等,0,2025-05-07,2025-04-25,有限会社志賀興業,,有限会社,東京都,葛飾区,西新小岩５丁目１１番１６号,,13,122,1240025,,,2025-04-25,清算の結了等,,,2015-10-05,1,,,,,シガコウギョウ,0
1003,4011802023027,登記記録の閉鎖等,0,2025-05-07,2025-05-01,有限会社アイエヌアールコンサルティング,,有限会社,東京都,中野区,東中野１丁目１９番１５号,,13,114,1640003,,,2025-05-01,清算の結了等,,,2015-10-05,1,,,,,,0
1017,4013305002268,登記記録の閉鎖等,0,2025-05-07,2025-04-16,一般社団法人コンソーシアムすがも花街道,,その他の設立登記法人,東京都,豊島区,西巣鴨３丁目２０番１号,,13,116,1700001,,,2025-04-16,清算の結了等,,,2015-10-05,1,,,,,コンソーシアムスガモハナカイドウ,0
1027,4020002088870,登記記録の閉鎖等,0,2025-05-07,2025-04-16,有限会社友輝,,有限会社,神奈川県,川崎市宮前区,犬蔵２丁目２３番１５号,,14,136,2160011,,,2025-04-16,清算の結了等,,,2015-10-05,1,,,,,ユウキ,0
1041,4030001111228,登記記録の閉鎖等,0,2025-05-07,2025-04-30,おとなの遠足株式会社,,株式会社,東京都,足立区,六木２丁目４番２７号コンフォートＢ,,13,121,1210052,,,2025-04-30,清算の結了等,,,2015-11-06,1,,,,,,0
1050,4030005008908,登記記録の閉鎖等,0,2025-05-07,2025-04-30,特定非営利活動法人小江戸ふぁみりぃ,,その他の設立登記法人,埼玉県,川越市,脇田本町２４番地１５（６０３号室）,,11,201,3501123,,,2025-04-30,清算の結了等,,,2015-10-05,1,,,,,コエドファミリィ,0
1052,4040001045763,登記記録の閉鎖等,0,2025-05-07,2025-04-14,株式会社ルーターズ,,株式会社,東京都,中央区,日本橋富沢町７番１５号ハニー堀留第２ビル９階,,13,102,1030006,,,2025-04-14,清算の結了等,,,2015-10-05,1,,,,,ルーターズ,0
1067,4060002014559,登記記録の閉鎖等,0,2025-05-07,2025-04-23,有限会社赤羽技研,,有限会社,栃木県,日光市,瀬尾２２６番地６,,09,206,3211264,,,2025-04-23,清算の結了等,,,2015-10-05,1,,,,,アカバネギケン,0
1069,4060002020532,登記記録の閉鎖等,0,2025-05-07,2025-04-23,有限会社天狗屋,,有限会社,栃木県,鹿沼市,草久５０６５番地,,09,205,3220101,,,2025-04-23,清算の結了等,,,2015-10-05,1,,,,,テングヤ,0
1076,4070005003459,登記記録の閉鎖等,0,2025-05-07,2025-04-25,一般財団法人群馬県建築構造技術センター,,その他の設立登記法人,群馬県,高崎市,旭町４４番地２,,10,202,3700052,,,2025-04-25,清算の結了等,,,2015-10-05,1,,,,,グンマケンケンチクコウゾウギジュツセンター,0
1081,4080105003977,登記記録の閉鎖等,0,2025-05-07,2025-04-25,特定非営利活動法人アゴーラスポーツクラブ,,その他の設立登記法人,静岡県,熱海市,西熱海町２丁目２９番２４号,,22,205,4130038,,,2025-04-25,清算の結了等,,,2015-10-05,1,,,,,アゴーラスポーツクラブ,0
1083,4080402017787,登記記録の閉鎖等,0,2025-05-07,2025-04-25,有限会社山村繊維工業,,有限会社,静岡県,掛川市,仁藤町１０番地の７,,22,213,4360075,,,2025-04-25,清算の結了等,,,2015-10-05,1,,,,,ヤマムラセンイコウギョウ,0
1094,4100003006625,登記記録の閉鎖等,0,2025-05-07,2025-04-30,合同会社ＩＣＨ,,合同会社,長野県,上田市,八木沢１４５４番地２４,,20,203,3861327,,,2025-04-30,清算の結了等,,,2022-07-15,1,,,,,アイシーエイチ,0
1096,4110001031112,登記記録の閉鎖等,0,2025-05-07,2025-04-23,株式会社ジェイキューブ,,株式会社,新潟県,三条市,横町２丁目９番３９号,,15,204,9550064,,,2025-04-23,清算の結了等,,,2015-11-30,1,,,,,,0
1098,4110005002497,登記記録の閉鎖等,0,2025-05-07,2025-04-01,中之口商工会,,その他の設立登記法人,新潟県,新潟市西蒲区,中之口６８８番地１,,15,108,9501327,,,2025-04-01,合併による解散等,2110005017209,令和７年４月１日新潟県新潟市西蒲区巻甲２５７６番地３巻商工会（6110005002842）と新潟市西蒲区曽根１６８番地１３西川商工会（3110005002498）と新潟市西蒲区西中８８９番地１岩室商工会（5110005002496）と新潟市西蒲区三方２４番地潟東商工会（2110005002499）と合併して新潟県新潟市西蒲区巻甲２５７６番地３新潟にしかん商工会（2110005017209）を設立し解散,2015-10-05,1,,,,,ナカノクチ,0
1109,4120001234399,登記記録の閉鎖等,0,2025-05-07,2025-04-07,Ｖａｌｕｅマーケティング株式会社,,株式会社,大阪府,大阪市北区,中崎西２丁目４番１２号６Ｆ,,27,127,5300015,,,2025-04-07,合併による解散等,5120001136363,令和７年４月１日大阪市北区中崎西二丁目４番１２号梅田センタービル１１階ＴＥＴＲＡＰＯＴ株式会社（5120001136363）に合併し解散,2021-01-13,1,,,,,バリューマーケティング,0
1152,4180001086224,登記記録の閉鎖等,0,2025-05-07,2025-04-18,株式会社勇雅,,株式会社,愛知県,稲沢市,六角堂西町１丁目３番地の３５,,23,220,4928171,,,2025-04-18,清算の結了等,,,2015-10-05,1,,,,,ユウガ,0
1160,4180005006764,登記記録の閉鎖等,0,2025-05-07,2025-04-10,社会福祉法人福寿,,その他の設立登記法人,愛知県,名古屋市緑区,鳴海町字尾崎山４３番地６４１,,23,114,4580821,,,2025-04-10,合併による解散等,1180305008356,令和７年４月１日愛知県豊田市加納町向井山９番１社会福祉法人志楽園福祉会（1180305008356）に合併し解散,2015-10-05,1,,,,,フクジュ,0
1166,4200002010733,登記記録の閉鎖等,0,2025-05-07,2025-04-01,有限会社嵯峨崎,,有限会社,岐阜県,羽島市,下中町石田３６０番地,,21,209,5016315,,,2025-04-01,合併による解散等,2200001012427,令和７年４月１日岐阜県羽島市下中町石田１１３７番地１株式会社鉄馬舎（2200001012427）に合併し解散,2015-10-05,1,,,,,サガサキ,0
1167,4200002021598,登記記録の閉鎖等,0,2025-05-07,2025-04-30,有限会社マルオ小木曽陶器,,有限会社,岐阜県,土岐市,駄知町７２２番地の１０,,21,212,5095401,,,2025-04-30,清算の結了等,,,2015-10-05,1,,,,,マルオオギソトウキ,0
1174,4220001018148,登記記録の閉鎖等,0,2025-05-07,2025-05-01,株式会社サン・シティ,,株式会社,石川県,金沢市,駅西本町１丁目６番４２号,,17,201,9200025,,,2025-05-01,合併による解散等,1220001009835,令和７年５月１日石川県金沢市駅西本町一丁目６番４２号株式会社ＳＵＮ（1220001009835）に合併し解散,2015-10-05,1,,,,,サンシティ,0
1194,4260001039297,登記記録の閉鎖等,0,2025-05-07,2025-04-28,カバヤ食品株式会社,,株式会社,岡山県,岡山市北区,御津野々口１１００番地,,33,101,7092117,,,2025-04-28,合併による解散等,4010401182671,令和７年４月１日東京都港区南青山三丁目１番３号スプライン青山東急ビル３階カバヤ食品株式会社（4010401182671）に合併し解散,2024-08-19,1,,,,,カバヤショクヒン,0
1199,4280005000583,登記記録の閉鎖等,0,2025-05-07,2025-05-02,医療法人歯科恒松医院,,その他の設立登記法人,島根県,松江市,東津田町１１８１番地,,32,201,6900011,,,2025-05-02,清算の結了等,,,2015-10-05,1,,,,,シカツネマツイイン,0
1200,4290001026136,登記記録の閉鎖等,0,2025-05-07,2025-04-23,株式会社ＧＬＯＳエンジニアリング,,株式会社,福岡県,福岡市博多区,博多駅前３丁目９番５号,,40,132,8120011,,,2025-04-23,清算の結了等,,,2015-10-05,1,,,,,グロスエンジニアリング,0
1210,4310002006687,登記記録の閉鎖等,0,2025-05-07,2025-05-02,有限会社尾脇工務店,,有限会社,長崎県,長崎市,本河内３丁目２４番２５号,,42,201,8500012,,,2025-05-02,清算の結了等,,,2015-10-05,1,,,,,オワキコウムテン,0
1214,4320005004340,登記記録の閉鎖等,0,2025-05-07,2025-04-01,農事組合法人荘グリーン,,その他の設立登記法人,大分県,宇佐市,安心院町荘６７１番地,,44,211,8720504,,,2025-04-01,合併による解散等,1320005004260,令和７年４月１日大分県宇佐市安心院町古市１１８番地農事組合法人アグリストあじむＭＩＲＡＩ（1320005004260）に合併し解散,2015-10-05,1,,,,,,0
1228,4380005008641,登記記録の閉鎖等,0,2025-05-07,2025-04-14,医療法人晶晴会,,その他の設立登記法人,福島県,会津若松市,門田町大字日吉字丑渕１１番２１号,,07,202,9650841,,,2025-04-14,合併による解散等,2050005010616,令和７年４月１日茨城県つくば市小野崎字千駄苅２８６番地７医療法人社団興明会（2050005010616）に合併し解散,2015-10-05,1,,,,,ショウセイカイ,0
1258,5010005026860,登記記録の閉鎖等,0,2025-05-07,2025-04-28,Ａｋａｓａｋａ　Ｄｅｖｅｌｏｐｍｅｎｔ特定目的会社,,その他の設立登記法人,東京都,千代田区,霞が関３丁目２番６号東京倶楽部ビルディング１１階,,13,101,1000013,,,2025-04-28,清算の結了等,,,2017-05-19,1,,,,,アカサカデベロップメント,0
1277,5010801011792,登記記録の閉鎖等,0,2025-05-07,2025-04-21,株式会社明聡院,,株式会社,東京都,大田区,西蒲田７丁目１番６号,,13,111,1440051,,,2025-04-21,合併による解散等,2010801007133,令和７年４月２０日東京都大田区西蒲田七丁目１番６号谷口電機株式会社（2010801007133）に合併し解散,2015-10-05,1,,,,,メイソウイン,0
1282,5011001154168,登記記録の閉鎖等,0,2025-05-07,2025-04-22,株式会社フリーダム・トライアングル,,株式会社,東京都,目黒区,自由が丘１丁目４番６号ヒューマン・ハーバー地下１階,,13,110,1520035,,,2025-04-22,合併による解散等,3011001150094,令和７年４月１日東京都目黒区自由が丘一丁目４番６号株式会社ＪＧＫ（3011001150094）に合併し解散,2023-05-02,1,,,,,フリーダムトライアングル,0
1285,5011005005895,登記記録の閉鎖等,0,2025-05-07,2025-05-02,一般社団法人外壁打診調査協会,,その他の設立登記法人,東京都,世田谷区,駒沢４丁目２９番１１号,,13,112,1540012,,,2025-05-02,清算の結了等,,,2015-10-05,1,,,,,ガイヘキダシンチョウサキョウカイ,0
1290,5011201012621,登記記録の閉鎖等,0,2025-05-07,2025-04-23,株式会社福智住宅企画,,株式会社,東京都,練馬区,大泉学園町６丁目８番７号,,13,120,1780061,,,2025-04-23,清算の結了等,,,2015-10-05,1,,,,,フクチジュウタクキカク,0
1336,5020003023074,登記記録の閉鎖等,0,2025-05-07,2025-04-03,ｂｔｊ．ｓｙｓｔｅｍｓ合同会社,,合同会社,神奈川県,横浜市西区,浅間町１丁目４番３号ウィザードビル４０２,,14,103,2200072,,,2025-04-03,清算の結了等,,,2023-01-16,1,,,,,ブトジシステム,0
1343,5021002010154,登記記録の閉鎖等,0,2025-05-07,2025-04-16,有限会社フォレスト,,有限会社,神奈川県,横浜市港南区,上大岡西３丁目１９番１６号,,14,111,2330002,,,2025-04-16,清算の結了等,,,2015-10-05,1,,,,,フォレスト,0
1350,5030001146124,登記記録の閉鎖等,0,2025-05-07,2025-04-30,株式会社ポジティブゴート,,株式会社,東京都,足立区,梅田７丁目８－１３,,13,121,1230851,,,2025-04-30,清算の結了等,,,2022-01-05,1,,,,,ポジティブゴート,0
1356,5030003024666,登記記録の閉鎖等,0,2025-05-07,2025-04-28,合同会社２５ｍｉｌｅ,,合同会社,埼玉県,南埼玉郡宮代町,宮代台１丁目２０番８号,,11,442,3450835,,,2025-04-28,清算の結了等,,,2024-07-04,1,,,,,ニジュウゴマイル,0
1365,5050002006804,登記記録の閉鎖等,0,2025-05-07,2025-04-25,有限会社塩野鉄工建設,,有限会社,茨城県,那珂市,後台２７７８番地,,08,226,3110111,,,2025-04-25,清算の結了等,,,2015-10-05,1,,,,,シオノテッコウケンセツ,0
1370,5060001032016,登記記録の閉鎖等,0,2025-05-07,2025-04-23,株式会社正神工業,,株式会社,栃木県,日光市,小佐越７番地１３６リゾートビラ鬼怒川トリオ１－３０４号,,09,206,3212525,,,2025-04-23,清算の結了等,,,2019-10-25,1,,,,,セイシンコウギョウ,0
1378,5080005001527,登記記録の閉鎖等,0,2025-05-07,2025-04-08,静岡県卸酒販組合,,その他の設立登記法人,静岡県,静岡市葵区,清閑町４番１８号,,22,101,4200047,,,2025-04-08,合併による解散等,1180005003178,令和７年４月１日名古屋市中区栄三丁目１番１号東海卸酒販組合（1180005003178）に合併し解散,2015-10-05,1,,,,,シズオカケンオロシ,0
1390,5110005002496,登記記録の閉鎖等,0,2025-05-07,2025-04-01,岩室商工会,,その他の設立登記法人,新潟県,新潟市西蒲区,西中８８９番地１,,15,108,9530132,,,2025-04-01,合併による解散等,2110005017209,令和７年４月１日新潟県新潟市西蒲区巻甲２５７６番地３巻商工会（6110005002842）と新潟市西蒲区曽根１６８番地１３西川商工会（3110005002498）と新潟市西蒲区中之口６８８番地１中之口商工会（4110005002497）と新潟市西蒲区三方２４番地潟東商工会（2110005002499）と合併して新潟県新潟市西蒲区巻甲２５７６番地３新潟にしかん商工会（2110005017209）を設立し解散,2015-10-05,1,,,,,イワムロ,0
1391,5110005004633,登記記録の閉鎖等,0,2025-05-07,2025-04-01,加治川商工会,,その他の設立登記法人,新潟県,新発田市,住田５１０番地,,15,206,9592415,,,2025-04-01,合併による解散等,5110005017206,令和７年４月１日新潟県新発田市乙次４７５番地３豊浦商工会（1110005004637）及び新潟県新発田市稲荷岡２３７１番地紫雲寺商工会（3110005004635）と合併して新潟県新発田市乙次４７５番地３しばた商工会（5110005017206）を設立し解散,2015-10-05,1,,,,,カジカワ,0
1392,5110005011381,登記記録の閉鎖等,0,2025-05-07,2025-04-01,和島村商工会,,その他の設立登記法人,新潟県,長岡市,小島谷３４３４番地４,,15,202,9494511,,,2025-04-01,合併による解散等,8110005017211,令和７年４月１日新潟県長岡市与板町与板甲１３４番地２与板町商工会（6110005011380）と合併して新潟県長岡市与板町与板甲１３４番地２長岡北商工会（8110005017211）を設立し解散,2015-10-05,1,,,,,ワシマムラ,0
1393,5110005013139,登記記録の閉鎖等,0,2025-05-07,2025-04-01,塩沢商工会,,その他の設立登記法人,新潟県,南魚沼市,塩沢１１１２番地３２,,15,226,9496408,,,2025-04-01,合併による解散等,6110005017205,令和７年４月１日新潟県南魚沼市六日町７６番地４六日町商工会（3110005013140）及び新潟県南魚沼市浦佐４７８番地５大和商工会（2110005013141）と合併して新潟県南魚沼市六日町７６番地４南魚沼商工会（6110005017205）を設立し解散,2015-10-05,1,,,,,シオザワ,0
1394,5120001146684,登記記録の閉鎖等,0,2025-05-07,2025-04-11,東京納品代行西日本株式会社,,株式会社,大阪府,大阪市住之江区,南港東５丁目２番４６号,,27,125,5590031,,,2025-04-11,合併による解散等,7010401094071,令和７年４月１日千葉県市川市二俣新町２２番８号東京納品代行株式会社（7010401094071）に合併し解散,2015-10-05,1,,,,,トウキョウノウヒンダイコウニシニホン,0
1395,5120001212981,登記記録の閉鎖等,0,2025-05-07,2025-04-16,株式会社長谷工コミュニティ西日本,,株式会社,大阪府,大阪市中央区,備後町２丁目１番１号,,27,128,5410051,,,2025-04-16,合併による解散等,6010401024062,令和７年４月１日東京都港区芝二丁目６番１号株式会社長谷工コミュニティ（6010401024062）に合併し解散,2018-05-09,1,,,,,ハセコウコミュニティニシニホン,0
1397,5120001234398,登記記録の閉鎖等,0,2025-05-07,2025-04-07,株式会社日本営業支援協会,,株式会社,大阪府,大阪市北区,中崎西２丁目４番１２号６Ｆ,,27,127,5300015,,,2025-04-07,合併による解散等,5120001136363,令和７年４月１日大阪市北区中崎西二丁目４番１２号梅田センタービル１１階ＴＥＴＲＡＰＯＴ株式会社（5120001136363）に合併し解散,2021-01-13,1,,,,,ニホンエイギョウシエンキョウカイ,0
1407,5120102002191,登記記録の閉鎖等,0,2025-05-07,2025-04-28,有限会社三陽興産,,有限会社,大阪府,堺市南区,岩室９４番地２,,27,145,5900112,,,2025-04-28,清算の結了等,,,2015-10-05,1,,,,,サンヨウコウサン,0
1413,5122001024333,登記記録の閉鎖等,0,2025-05-07,2025-04-30,株式会社マサカツ,,株式会社,大阪府,四條畷市,中野本町３３番１６号,,27,229,5750051,,,2025-04-30,清算の結了等,,,2015-10-05,1,,,,,マサカツ,0
1420,5130001052758,登記記録の閉鎖等,0,2025-05-07,2025-04-30,孝株式会社,,株式会社,京都府,京都市左京区,松ケ崎御所ノ内町１６番地３,,26,103,6060944,,,2025-04-30,清算の結了等,,,2015-10-05,1,,,,,コウ,0
1424,5140001102090,登記記録の閉鎖等,0,2025-05-07,2025-05-01,リノベスト株式会社,,株式会社,兵庫県,神戸市北区,鈴蘭台北町１丁目３－１３－１０１号,,28,109,6511111,,,2025-05-01,合併による解散等,2140002060992,令和７年５月１日兵庫県西宮市段上町一丁目７－３株式会社太洋ホーム（2140002060992）に合併し解散,2016-05-18,1,,,,,リノベスト,0
1429,5140002036882,登記記録の閉鎖等,0,2025-05-07,2025-04-28,有限会社横山住設建材,,有限会社,兵庫県,加古川市,野口町野口９番地の５,,28,210,6750012,,,2025-04-28,清算の結了等,,,2015-10-05,1,,,,,ヨコヤマジュウセツケンザイ,0
1431,5160001011661,登記記録の閉鎖等,0,2025-05-07,2025-04-03,株式会社レストラン蒲生,,株式会社,滋賀県,蒲生郡日野町,大字中山７２４番地１,,25,383,5291658,,,2025-04-03,合併による解散等,4160001011662,令和７年４月１日に滋賀県蒲生郡日野町大字中山７２４番地１エヌデイーシー株式会社（4160001011662）に合併し解散,2015-10-05,1,,,,,レストランガモウ,0
1439,5180002016402,登記記録の閉鎖等,0,2025-05-07,2025-04-28,有限会社東海衛生害虫研究所,,有限会社,愛知県,名古屋市東区,筒井２丁目８番２５号,,23,102,4610003,,,2025-04-28,清算の結了等,,,2015-10-05,1,,,,,トウカイエイセイガイチュウケンキュウジョ,0
1470,5280001000090,登記記録の閉鎖等,0,2025-05-07,2025-04-01,イワタニ山陰株式会社,,株式会社,島根県,松江市,学園２丁目１６番３７号,,32,201,6900825,,,2025-04-01,合併による解散等,3280001003913,令和７年４月１日島根県大田市長久町長久ロ２５３番地２イワタニ島根株式会社（3280001003913）に合併し解散,2015-10-05,1,,,,,イワタニサンイン,0
1478,5290001057147,登記記録の閉鎖等,0,2025-05-07,2025-04-21,株式会社床島サービス,,株式会社,福岡県,福岡市博多区,諸岡５丁目１７番２２号,,40,132,8120894,,,2025-04-21,清算の結了等,,,2015-10-05,1,,,,,トコシマサービス,0
1480,5290001099156,登記記録の閉鎖等,0,2025-05-07,2025-04-21,ＭＧプラス株式会社,,株式会社,福岡県,太宰府市,都府楼南４丁目１１番１号,,40,221,8180105,,,2025-04-21,清算の結了等,,,2022-10-11,1,,,,,エムジープラス,0
1497,5320005009850,登記記録の閉鎖等,0,2025-05-07,2025-04-01,農事組合法人アグリストあじむ,,その他の設立登記法人,大分県,宇佐市,安心院町上市１９６番地,,44,211,8720511,,,2025-04-01,合併による解散等,1320005004260,令和７年４月１日大分県宇佐市安心院町古市１１８番地農事組合法人アグリストあじむＭＩＲＡＩ（1320005004260）に合併し解散,2021-01-21,1,,,,,アグリストアジム,0
1523,5420002017169,登記記録の閉鎖等,0,2025-05-07,2025-04-30,有限会社オクデラテクニカルサービス,,有限会社,青森県,上北郡六戸町,大字犬落瀬字若宮２番地の３,,02,405,0392371,,,2025-04-30,清算の結了等,,,2015-10-05,1,,,,,オクデラテクニカルサービス,0
1526,5430001052216,登記記録の閉鎖等,0,2025-05-07,2025-04-11,ニセコ東急リゾート株式会社,,株式会社,北海道,虻田郡倶知安町,ニセコひらふ一条２丁目９番１号,,01,400,0440080,,,2025-04-11,合併による解散等,7011001016580,令和７年４月１日東京都渋谷区道玄坂一丁目２１番１号東急不動産株式会社（7011001016580）に合併し解散,2015-10-05,1,,,,,ニセコトウキュウリゾート,0
1537,5480001007537,登記記録の閉鎖等,0,2025-05-07,2025-04-28,株式会社大丸,,株式会社,徳島県,三好郡東みよし町,足代１８０１番地,,36,489,7712502,,,2025-04-28,清算の結了等,,,2015-10-05,1,,,,,ダイマル,0
1544,5490005005305,登記記録の閉鎖等,0,2025-05-07,2025-05-01,土佐長岡郡教員組合,,その他の設立登記法人,高知県,南国市,後免町１丁目５番２７号,,39,204,7830011,,,2025-05-01,清算の結了等,,,2015-10-05,1,,,,,トサナガオカグンキョウインクミアイ,0
1557,6010002003250,登記記録の閉鎖等,0,2025-05-07,2025-04-11,鈴木実業有限会社,,有限会社,東京都,文京区,白山４丁目２３番１７号,,13,105,1120001,,,2025-04-11,清算の結了等,,,2015-10-05,1,,,,,スズキジツギョウ,0
1558,6010003024469,登記記録の閉鎖等,0,2025-05-07,2025-05-01,合同会社ＬＨソーラーＭＫ１,,合同会社,広島県,福山市,東吉津町６番４１号パナハイツ東吉津１０３号室,,34,207,7200071,,,2025-05-01,合併による解散等,1240002039680,令和７年５月１日広島県福山市東吉津町６番４１号パナハイツ東吉津１０３号室株式会社エム・ケーエンタプライズ（1240002039680）に合併し解散,2016-12-08,1,,,,,エルエイチソーラーエムケーワン,0
1569,6010401142764,登記記録の閉鎖等,0,2025-05-07,2025-03-31,株式会社ホスピタルヘルスケア,,株式会社,東京都,豊島区,池袋２丁目４３番１号,,13,116,1710014,,,2025-03-31,合併による解散等,7420001005379,令和６年１１月１日東京都豊島区池袋二丁目４３番１号株式会社くすりの窓口（7420001005379）に合併し解散,2018-12-20,1,,,,,ホスピタルヘルスケア,0
1582,6010901001651,登記記録の閉鎖等,0,2025-05-07,2025-04-08,株式会社エーデーエス,,株式会社,大分県,由布市,挾間町鬼崎６８８番地２,,44,213,8795501,,,2025-04-08,合併による解散等,9030001045990,令和７年４月１日埼玉県新座市本多一丁目９番４８号東洋磁気工業株式会社（9030001045990）に合併し解散,2015-10-05,1,,,,,エーデーエス,0
1590,6011001128848,登記記録の閉鎖等,0,2025-05-07,2025-03-21,ドイデンキ株式会社,,株式会社,東京都,渋谷区,恵比寿西１丁目３３番６号ＪＰｎｏｉｅ恵比寿西１Ｆ,,13,113,1500021,,,2025-03-21,合併による解散等,5010401019360,令和７年３月２０日東京都渋谷区恵比寿西一丁目３３番６号ＪＰ　ｎｏｉｅ恵比寿西１Ｆ株式会社ＤＯＩ　ＨＯＬＤＩＮＧＳ（5010401019360）に合併し解散,2019-07-03,1,,,,,ドイデンキ,0
1603,6011301027502,登記記録の閉鎖等,0,2025-05-07,2025-04-23,株式会社ダンビュライト,,株式会社,東京都,杉並区,成田東１丁目３６番３号ダリア新高円寺１０１,,13,115,1660015,,,2025-04-23,清算の結了等,,,2022-01-21,1,,,,,ダンビュライト,0
1606,6011801017696,登記記録の閉鎖等,0,2025-05-07,2025-04-25,株式会社バスク,,株式会社,東京都,足立区,伊興３丁目１５番１８号,,13,121,1210823,,,2025-04-25,清算の結了等,,,2015-10-05,1,,,,,バスク,0
1612,6013102000497,登記記録の閉鎖等,0,2025-05-07,2025-05-01,有限会社たんぽぽ,,有限会社,東京都,福生市,本町１３５番地,,13,218,1970022,,,2025-05-01,清算の結了等,,,2015-10-05,1,,,,,タンポポ,0
1624,6020001083169,登記記録の閉鎖等,0,2025-05-07,2025-04-17,株式会社Ｔ・Ｍ・Ｃ,,株式会社,神奈川県,横浜市中区,本牧和田１番１－４０３号,,14,104,2310827,,,2025-04-17,清算の結了等,,,2015-10-05,1,,,,,,0
1641,6030001021400,登記記録の閉鎖等,0,2025-05-07,2025-04-07,京浜化工株式会社,,株式会社,岡山県,倉敷市,松江１丁目７番２１号,,33,202,7128052,,,2025-04-07,合併による解散等,6500001010116,令和７年４月１日愛媛県新居浜市多喜浜六丁目３番１３号レイズアクト株式会社（6500001010116）に合併し解散,2015-10-05,1,,,,,ケイヒンカコウ,0
1666,6040005001835,登記記録の閉鎖等,0,2025-05-07,2025-04-15,医療法人社団湖聖会,,その他の設立登記法人,東京都,江東区,亀戸３丁目３６番１号,,13,108,1360071,,,2025-04-15,合併による解散等,1080105002759,令和７年４月１日静岡県富士市五貫島１７５番地医療法人財団百葉の会（1080105002759）に合併し解散,2015-10-05,1,,,,,コセイカイ,0
1673,6080101010018,登記記録の閉鎖等,0,2025-05-07,2025-04-24,システム制御株式会社,,株式会社,静岡県,富士市,下横割３３７番地の１８,,22,210,4160943,,,2025-04-24,清算の結了等,,,2015-10-05,1,,,,,,0
1680,6080102016427,登記記録の閉鎖等,0,2025-05-07,2025-04-28,有限会社イワオ製作所,,有限会社,静岡県,富士宮市,山宮２９８４番地の１,,22,207,4180111,,,2025-04-28,清算の結了等,,,2015-10-05,1,,,,,イワオセイサクショ,0
1687,6110005002842,登記記録の閉鎖等,0,2025-05-07,2025-04-01,巻商工会,,その他の設立登記法人,新潟県,新潟市西蒲区,巻甲２５７６番地３,,15,108,9530041,,,2025-04-01,合併による解散等,2110005017209,令和７年４月１日新潟市西蒲区曽根１６８番地１３西川商工会（3110005002498）と新潟市西蒲区西中８８９番地１岩室商工会（5110005002496）と新潟市西蒲区中之口６８８番地１中之口商工会（4110005002497）と新潟市西蒲区三方２４番地潟東商工会（2110005002499）と合併して新潟県新潟市西蒲区巻甲２５７６番地３新潟にしかん商工会（2110005017209）を設立し解散,2015-10-05,1,,,,,マキ,0
1689,6110005011380,登記記録の閉鎖等,0,2025-05-07,2025-04-01,与板町商工会,,その他の設立登記法人,新潟県,長岡市,与板町与板甲１３４番地２,,15,202,9402402,,,2025-04-01,合併による解散等,8110005017211,令和７年４月１日新潟県長岡市小島谷３４３４番地４和島村商工会（5110005011381）と合併して新潟県長岡市与板町与板甲１３４番地２長岡北商工会（8110005017211）を設立し解散,2015-10-05,1,,,,,ヨイタマチ,0
1707,6120002036719,登記記録の閉鎖等,0,2025-05-07,2025-04-30,有限会社総合波動生命科学研究所,,有限会社,大阪府,大阪市生野区,新今里５丁目２番１０号,,27,116,5440001,,,2025-04-30,清算の結了等,,,2015-10-05,1,,,,,ソウゴウハドウセイメイカガクケンキュウショ,0
1710,6120101039358,登記記録の閉鎖等,0,2025-05-07,2025-04-28,アグリセンターカキモト株式会社,,株式会社,大阪府,泉佐野市,日根野５９２７番地の２,,27,213,5980021,,,2025-04-28,清算の結了等,,,2015-10-05,1,,,,,アグリセンターカキモト,0
1736,6140005002369,登記記録の閉鎖等,0,2025-05-07,2025-04-01,社会福祉法人神戸市西区社会福祉協議会,,その他の設立登記法人,兵庫県,神戸市西区,糀台５丁目４番地の１（神戸市西区役所内）,,28,111,6512273,,,2025-04-01,合併による解散等,1140005002340,令和７年４月１日神戸市中央区磯上通三丁目１番３２号社会福祉法人神戸市社会福祉協議会（1140005002340）に合併し解散,2015-10-05,1,,,,,コウベシニシクシャカイフクシキョウギカイ,0
1750,6180001104421,登記記録の閉鎖等,0,2025-05-07,2025-04-24,渡邉電気工事株式会社,,株式会社,愛知県,一宮市,今伊勢町新神戸字新開２７番地２２,,23,203,4910052,,,2025-04-24,清算の結了等,,,2015-10-05,1,,,,,ワタナベデンキコウジ,0
1753,6180001148402,登記記録の閉鎖等,0,2025-05-07,2025-04-28,株式会社リベルタ,,株式会社,愛知県,江南市,山尻町本丸西５８番地,,23,217,4838036,,,2025-04-28,清算の結了等,,,2021-10-29,1,,,,,リベルタ,0
1762,6200001015087,登記記録の閉鎖等,0,2025-05-07,2025-04-30,丸實産業株式会社,,株式会社,岐阜県,養老郡養老町,大坪１６３番地の１,,21,341,5031302,,,2025-04-30,清算の結了等,,,2015-10-05,1,,,,,マルミサンギョウ,0
1784,6280003000014,登記記録の閉鎖等,0,2025-05-07,2025-04-30,合名会社若葉荘,,合名会社,島根県,松江市,春日町６４３番地４,,32,201,6900877,,,2025-04-30,清算の結了等,,,2015-10-05,1,,,,,ワカバソウ,0
1786,6290001068564,登記記録の閉鎖等,0,2025-05-07,2025-04-21,株式会社Ｃｏｍｐａｓｓ２１,,株式会社,福岡県,福岡市博多区,博多駅中央街５番１１号,,40,132,8120012,,,2025-04-21,清算の結了等,,,2015-10-05,1,,,,,コンパスニジュウイチ,0
1793,6290005003740,登記記録の閉鎖等,0,2025-05-07,2025-04-28,医療法人周和会,,その他の設立登記法人,福岡県,福岡市中央区,警固２丁目１９番９号,,40,133,8100023,,,2025-04-28,清算の結了等,,,2015-10-05,1,,,,,シュウワカイ,0
1794,6290801003720,登記記録の閉鎖等,0,2025-05-07,2025-04-30,株式会社森川不動産,,株式会社,福岡県,北九州市小倉北区,高尾２丁目１９番２号,,40,106,8030853,,,2025-04-30,清算の結了等,,,2015-10-05,1,,,,,モリカワフドウサン,0
1799,6320005009817,登記記録の閉鎖等,0,2025-05-07,2025-04-22,ＮＰＯ法人私たちの故郷の再生を支援する会,,その他の設立登記法人,大分県,別府市,船小路町３番４３号,,44,202,8740922,,,2025-04-22,清算の結了等,,,2020-09-18,1,,,,,ワタシタチノフルサトノサイセイヲシエンスルカイ,0
1803,6330002004340,登記記録の閉鎖等,0,2025-05-07,2025-04-25,有限会社サカイホーム,,有限会社,熊本県,熊本市南区,島町４丁目９番１８号,,43,104,8614133,,,2025-04-25,清算の結了等,,,2015-10-05,1,,,,,サカイホーム,0
1817,6360003011696,登記記録の閉鎖等,0,2025-05-07,2025-04-21,合同会社Ｒａｋｕｒａｓｉ,,合同会社,沖縄県,宮古島市,平良字下里１３３２番地１,,47,214,9060013,,,2025-04-21,清算の結了等,,,2022-01-11,1,,,,,ラクラシ,0
1840,7010001109270,登記記録の閉鎖等,0,2025-05-07,2025-04-14,株式会社クライトレーベル,,株式会社,東京都,中央区,八丁堀３丁目１番５号,,13,102,1040032,,,2025-04-14,清算の結了等,,,2015-10-05,1,,,,,クライトレーベル,0
1862,7010501020373,登記記録の閉鎖等,0,2025-05-07,2025-04-14,株式会社フェルテ,,株式会社,東京都,中央区,日本橋馬喰町２丁目７番１３号,,13,102,1030002,,,2025-04-14,清算の結了等,,,2015-10-05,1,,,,,フェルテ,0
1896,7011501015181,登記記録の閉鎖等,0,2025-05-07,2025-04-30,株式会社本間アソシエイツ一級建築士事務所,,株式会社,東京都,荒川区,西尾久６丁目１０番２５号,,13,118,1160011,,,2025-04-30,清算の結了等,,,2015-10-05,1,,,,,ホンマアソシエイツイッキュウケンチクシジムショ,0
1897,7011801019460,登記記録の閉鎖等,0,2025-05-07,2025-04-30,株式会社ちょいす,,株式会社,東京都,葛飾区,金町５丁目１８番３号,,13,122,1250042,,,2025-04-30,清算の結了等,,,2015-10-05,1,,,,,チョイス,0
1910,7020001015369,登記記録の閉鎖等,0,2025-05-07,2025-04-01,株式会社高千穂,,株式会社,神奈川県,横浜市西区,みなとみらい２丁目２番１号横浜ランドマークタワー,,14,103,2200012,,,2025-04-01,合併による解散等,6020001061653,令和７年４月１日横浜市戸塚区品濃町５９４番地２株式会社サンエイ（6020001061653）に合併し解散,2015-10-05,1,,,,,タカチホ,0
1913,7020001031977,登記記録の閉鎖等,0,2025-05-07,2025-04-23,横浜メディカル株式会社,,株式会社,神奈川県,横浜市中区,山下町８４番地６－４０５号,,14,104,2310023,,,2025-04-23,清算の結了等,,,2015-10-05,1,,,,,ヨコハマメディカル,0
1915,7020001090759,登記記録の閉鎖等,0,2025-05-07,2025-04-17,株式会社星商店,,株式会社,神奈川県,横浜市鶴見区,浜町１丁目３番地５エンゼルハイム２０１号,,14,101,2300036,,,2025-04-17,清算の結了等,,,2015-10-05,1,,,,,ホシショウテン,0
1925,7020002018528,登記記録の閉鎖等,0,2025-05-07,2025-04-14,有限会社久保田建設,,有限会社,神奈川県,横浜市港南区,笹下２丁目２８番６号,,14,111,2340052,,,2025-04-14,清算の結了等,,,2015-10-05,1,,,,,クボタケンセツ,0
1928,7020002045984,登記記録の閉鎖等,0,2025-05-07,2025-04-24,有限会社ワークサービス,,有限会社,神奈川県,横浜市中区,諏訪町２番地１０１号,,14,104,2310863,,,2025-04-24,清算の結了等,,,2015-10-05,1,,,,,ワークサービス,0
1929,7020002074208,登記記録の閉鎖等,0,2025-05-07,2025-04-17,有限会社中設備工業所,,有限会社,神奈川県,横浜市鶴見区,生麦４丁目２５番３８号,,14,101,2300052,,,2025-04-17,清算の結了等,,,2015-10-05,1,,,,,ナカセツビコウギョウショ,0
1936,7021002023286,登記記録の閉鎖等,0,2025-05-07,2025-04-30,有限会社博文社,,有限会社,神奈川県,相模原市緑区,橋本５丁目１２番３号,,14,151,2520143,,,2025-04-30,清算の結了等,,,2015-10-05,1,,,,,ハクブンシャ,0
1940,7021005001636,登記記録の閉鎖等,0,2025-05-07,2025-04-01,社会福祉法人茅ケ崎保育園,,その他の設立登記法人,神奈川県,茅ヶ崎市,新栄町３番３２号,,14,207,2530044,,,2025-04-01,合併による解散等,2021005001640,令和７年４月１日神奈川県茅ヶ崎市松が丘一丁目１番７２号社会福祉法人松が丘保育園（2021005001640）に合併したことにより解散,2015-10-05,1,,,,,チガサキホイクエン,0
1973,7070002035270,登記記録の閉鎖等,0,2025-05-07,2025-04-30,有限会社尾瀬パークホテル,,有限会社,群馬県,利根郡片品村,大字戸倉９８２番地,,10,443,3780411,,,2025-04-30,清算の結了等,,,2015-10-05,1,,,,,オゼパークホテル,0
1978,7080101013432,登記記録の閉鎖等,0,2025-05-07,2025-04-28,株式会社柏屋,,株式会社,静岡県,伊東市,中央町９番１９号,,22,208,4140003,,,2025-04-28,清算の結了等,,,2015-10-05,1,,,,,カシワヤ,0
1980,7080401015392,登記記録の閉鎖等,0,2025-05-07,2025-05-02,株式会社エミール,,株式会社,静岡県,掛川市,大坂９１１番地,,22,213,4371421,,,2025-05-02,清算の結了等,,,2015-10-05,1,,,,,エミール,0
1988,7110001009592,登記記録の閉鎖等,0,2025-05-07,2025-04-21,株式会社和久蔵,,株式会社,新潟県,新潟市江南区,亀田本町２丁目４番２０号,,15,104,9500164,,,2025-04-21,清算の結了等,,,2015-10-05,1,,,,,ワクラ,0
1990,7110005013590,登記記録の閉鎖等,0,2025-05-07,2025-04-01,堀之内商工会,,その他の設立登記法人,新潟県,魚沼市,堀之内１３０番地,,15,225,9497413,,,2025-04-01,合併による解散等,4110005017207,令和７年４月１日新潟県魚沼市小出島１２０９番地１１小出商工会（8110005013581）、新潟県魚沼市吉田１１４８番地湯之谷商工会（3110005013586）、新潟県魚沼市今泉１４７７番地１広神商工会（2110005013587）と合併して新潟県魚沼市小出島１２０９番地１１魚沼市商工会（4110005017207）を設立し解散,2015-10-05,1,,,,,ホリノウチ,0
1992,7120001020490,登記記録の閉鎖等,0,2025-05-07,2025-05-01,進邦産業株式会社,,株式会社,大阪府,大阪市平野区,平野宮町１丁目６番３－１１０１号,,27,126,5470046,,,2025-05-01,清算の結了等,,,2015-10-05,1,,,,,シンポウサンギョウ,0
1994,7120001099716,登記記録の閉鎖等,0,2025-05-07,2025-04-14,株式会社メディアフェイス,,株式会社,大阪府,大阪市北区,梅田３丁目３番２０号,,27,127,5300001,,,2025-04-14,清算の結了等,,,2015-10-05,1,,,,,メディアフェイス,0
2010,7120005012575,登記記録の閉鎖等,0,2025-05-07,2025-05-01,医療法人恒遠産婦人科,,その他の設立登記法人,大阪府,枚方市,長尾谷町３丁目１８番２２号,,27,210,5730164,,,2025-05-01,清算の結了等,,,2015-10-05,1,,,,,ツネトウサンフジンカ,0
2015,7120102022898,登記記録の閉鎖等,0,2025-05-07,2025-04-28,有限会社ドゥ・プラン,,有限会社,大阪府,岸和田市,南上町１丁目１８番１号,,27,202,5960078,,,2025-04-28,清算の結了等,,,2015-10-05,1,,,,,ドゥプラン,0
2016,7120105004340,登記記録の閉鎖等,0,2025-05-07,2025-04-02,社会福祉法人ピヨピヨ福祉会,,その他の設立登記法人,大阪府,松原市,西野々２丁目３番５号,,27,217,5800004,,,2025-04-02,合併による解散等,5120105000465,令和７年４月２日大阪府堺市北区新金岡町四丁１番６号社会福祉法人あおば福祉会（5120105000465）に合併し解散,2015-10-05,1,,,,,ピヨピヨフクシカイ,0
2018,7120901007678,登記記録の閉鎖等,0,2025-05-07,2025-04-08,マグネットフォース株式会社,,株式会社,大阪府,吹田市,江の木町２０番１２号,,27,205,5640053,,,2025-04-08,合併による解散等,9030001045990,令和７年４月１日埼玉県新座市本多一丁目９番４８号東洋磁気工業株式会社（9030001045990）に合併し解散,2015-10-05,1,,,,,,0
2023,7130001043499,登記記録の閉鎖等,0,2025-05-07,2025-04-30,株式会社大成,,株式会社,京都府,舞鶴市,田中町２１番地の１,,26,202,6250024,,,2025-04-30,清算の結了等,,,2015-10-05,1,,,,,タイセイ,0
2029,7140001129231,登記記録の閉鎖等,0,2025-05-07,2025-03-31,株式会社バリューイーワーク,,株式会社,兵庫県,神戸市中央区,坂口通７丁目２番１７号,,28,110,6510062,,,2025-03-31,合併による解散等,8140001125072,令和７年３月３１日神戸市中央区坂口通七丁目２番１７号株式会社バリューＦＬＣプロモーション（8140001125072）に合併し解散,2023-02-27,1,,,,,バリューイーワーク,0
2042,7180001073244,登記記録の閉鎖等,0,2025-05-07,2025-04-28,株式会社タイセイシャ,,株式会社,愛知県,名古屋市瑞穂区,御莨町５丁目５番地,,23,108,4670006,,,2025-04-28,清算の結了等,,,2015-10-05,1,,,,,タイセイシャ,0
2055,7180002090437,登記記録の閉鎖等,0,2025-05-07,2025-04-25,有限会社たくみ,,有限会社,愛知県,愛西市,南河田町高台６０番地,,23,232,4968007,,,2025-04-25,清算の結了等,,,2015-10-05,1,,,,,タクミ,0
2062,7230001012205,登記記録の閉鎖等,0,2025-05-07,2025-04-30,株式会社ゼロ,,株式会社,富山県,高岡市,柴野内島１５６番地,,16,202,9330327,,,2025-04-30,清算の結了等,,,2015-10-05,1,,,,,ゼロ,0
2069,7250003003084,登記記録の閉鎖等,0,2025-05-07,2025-04-30,合同会社ＹＫコーポレーション,,合同会社,山口県,岩国市,麻里布町４丁目１９番２７－１４０２号,,35,208,7400018,,,2025-04-30,清算の結了等,,,2022-06-02,1,,,,,ワイケイコーポレーション,0
2094,7340003000592,登記記録の閉鎖等,0,2025-05-07,2025-04-28,合同会社大迫商店,,合同会社,鹿児島県,姶良郡湧水町,木場１６４番地,,46,452,8996201,,,2025-04-28,清算の結了等,,,2015-10-05,1,,,,,オオサコショウテン,0
2102,7370202003014,登記記録の閉鎖等,0,2025-05-07,2025-04-14,有限会社ゑがほ,,有限会社,宮城県,大崎市,鳴子温泉字湯元２番地の４,,04,215,9896823,,,2025-04-14,清算の結了等,,,2015-10-05,1,,,,,エガオ,0
2122,7500003000923,登記記録の閉鎖等,0,2025-05-07,2025-04-16,宗次エンジニアリング合同会社,,合同会社,愛媛県,四国中央市,川滝町下山１８５８番地,,38,213,7990127,,,2025-04-16,清算の結了等,,,2015-10-05,1,,,,,ムネツグエンジニアリング,0
2125,8010001002549,登記記録の閉鎖等,0,2025-05-07,2025-04-14,株式会社光生館,,株式会社,東京都,文京区,大塚３丁目１１番２号音羽ビル７階,,13,105,1120012,,,2025-04-14,清算の結了等,,,2015-10-05,1,,,,,,0
2158,8010801011220,登記記録の閉鎖等,0,2025-05-07,2025-04-18,株式会社マネジメント・イノヴェーション,,株式会社,東京都,大田区,東矢口１丁目９番１７号,,13,111,1460094,,,2025-04-18,清算の結了等,,,2015-10-05,1,,,,,,0
2170,8011101072226,登記記録の閉鎖等,0,2025-05-07,2025-04-11,株式会社ビットワン,,株式会社,東京都,千代田区,丸の内１丁目９番２号,,13,101,1000005,,,2025-04-11,清算の結了等,,,2015-10-05,1,,,,,ビットワン,0
2184,8011505001565,登記記録の閉鎖等,0,2025-05-07,2025-04-30,一般社団法人サントクメディカルジャパン,,その他の設立登記法人,東京都,荒川区,西尾久１丁目１２番５号ロジュマン西尾久２０５号,,13,118,1160011,,,2025-04-30,清算の結了等,,,2015-10-05,1,,,,,サントクメディカルジャパン,0
2211,8020003022081,登記記録の閉鎖等,0,2025-05-07,2025-04-16,合同会社海龍,,合同会社,神奈川県,横浜市神奈川区,羽沢南２丁目４３番７号ルミエール小澤５０２号室,,14,102,2210866,,,2025-04-16,清算の結了等,,,2022-07-11,1,,,,,カイリュウ,0
2222,8021002050008,登記記録の閉鎖等,0,2025-05-07,2025-04-28,有限会社ゴトー,,有限会社,神奈川県,足柄下郡湯河原町,城堀３３０番地,,14,384,2590305,,,2025-04-28,清算の結了等,,,2015-10-05,1,,,,,ゴトー,0
2255,8060001012361,登記記録の閉鎖等,0,2025-05-07,2025-04-23,株式会社ＨＯＵＳＥ　ＯＦ　ＳＵＺＵＹＡ,,株式会社,栃木県,那須塩原市,中央町４番４号,,09,213,3250052,,,2025-04-23,清算の結了等,,,2015-10-05,1,,,,,ハウスオブスズヤ,0
2261,8080005003041,登記記録の閉鎖等,0,2025-05-07,2025-04-28,清水国産材加工事業協同組合,,その他の設立登記法人,静岡県,静岡市清水区,和田島５５５番地,,22,103,4240403,,,2025-04-28,清算の結了等,,,2015-10-05,1,,,,,シミズコクサンザイカコウ,0
2262,8080101012656,登記記録の閉鎖等,0,2025-05-07,2025-04-25,株式会社久保田設計事務所,,株式会社,静岡県,熱海市,咲見町４番３６号,,22,205,4130019,,,2025-04-25,清算の結了等,,,2015-10-05,1,,,,,クボタセッケイジムショ,0
2265,8080401004493,登記記録の閉鎖等,0,2025-05-07,2025-04-25,株式会社ビオフレツクスハママツ,,株式会社,静岡県,浜松市中央区,龍禅寺町５４８番地の１,,22,138,4300924,,,2025-04-25,清算の結了等,,,2015-10-05,1,,,,,ビオフレツクスハママツ,0
2270,8100001005831,登記記録の閉鎖等,0,2025-05-07,2025-04-30,高山石油株式会社,,株式会社,長野県,上高井郡高山村,大字高井４３番地１９,,20,543,3820800,,,2025-04-30,清算の結了等,,,2015-10-05,1,,,,,タカヤマセキユ,0
2281,8110005013581,登記記録の閉鎖等,0,2025-05-07,2025-04-01,小出商工会,,その他の設立登記法人,新潟県,魚沼市,小出島１２０９番地１１,,15,225,9460011,,,2025-04-01,合併による解散等,4110005017207,令和７年４月１日新潟県魚沼市堀之内１３０番地堀之内商工会（7110005013590）、新潟県魚沼市吉田１１４８番地湯之谷商工会（3110005013586）、新潟県魚沼市今泉１４７７番地１広神商工会（2110005013587）と合併して新潟県魚沼市小出島１２０９番地１１魚沼市商工会（4110005017207）を設立し解散,2015-10-05,1,,,,,コイデ,0
2302,8120101035941,登記記録の閉鎖等,0,2025-05-07,2025-04-28,ウェーブ工業株式会社,,株式会社,大阪府,松原市,上田２丁目１番２３号,,27,217,5800016,,,2025-04-28,清算の結了等,,,2015-10-05,1,,,,,ウェーブコウギョウ,0
2305,8120102012064,登記記録の閉鎖等,0,2025-05-07,2025-04-28,有限会社新洋住建,,有限会社,大阪府,堺市西区,鳳西町２丁２３番地１８,,27,144,5938326,,,2025-04-28,清算の結了等,,,2015-10-05,1,,,,,シンヨウジュウケン,0
2325,8140001057183,登記記録の閉鎖等,0,2025-05-07,2025-04-14,株式会社さんふらわあマリンサービス,,株式会社,兵庫県,神戸市東灘区,向洋町東３丁目２１番,,28,101,6580031,,,2025-04-14,合併による解散等,3010701022438,令和７年４月１日東京都千代田区外神田一丁目１８番１３号株式会社ブルーハイウェイサービス（3010701022438）に合併し解散,2015-10-05,1,,,,,サンフラワアマリンサービス,0
2331,8140002057892,登記記録の閉鎖等,0,2025-05-07,2025-04-25,松木共栄印刷有限会社,,有限会社,兵庫県,西宮市,与古道町２番１３号,,28,204,6620917,,,2025-04-25,清算の結了等,,,2015-10-05,1,,,,,マツキキョウエイインサツ,0
2332,8140005002375,登記記録の閉鎖等,0,2025-05-07,2025-04-01,社会福祉法人神戸市兵庫区社会福祉協議会,,その他の設立登記法人,兵庫県,神戸市兵庫区,荒田町１丁目２１番１号,,28,105,6520032,,,2025-04-01,合併による解散等,1140005002340,令和７年４月１日神戸市中央区磯上通三丁目１番３２号社会福祉法人神戸市社会福祉協議会（1140005002340）に合併し解散,2015-10-05,1,,,,,コウベシヒョウゴクシャカイフクシキョウギカイ,0
2341,8180001131249,登記記録の閉鎖等,0,2025-05-07,2025-04-28,株式会社鈴木経済研究所,,株式会社,愛知県,名古屋市熱田区,八番２丁目１３番２２号－２,,23,109,4560059,,,2025-04-28,清算の結了等,,,2018-02-20,1,,,,,スズキケイザイケンキュウジョ,0
2373,8260002028923,登記記録の閉鎖等,0,2025-05-07,2025-04-21,有限会社ティアンドティ企画,,有限会社,岡山県,津山市,北園町３６番地の８,,33,203,7080003,,,2025-04-21,清算の結了等,,,2015-10-05,1,,,,,ティアンドティキカク,0
2374,8270001000444,登記記録の閉鎖等,0,2025-05-07,2025-05-01,株式会社ちゝぶや呉服店,,株式会社,鳥取県,鳥取市,川端１丁目１０１番地,,31,201,6800036,,,2025-05-01,清算の結了等,,,2015-10-05,1,,,,,,0
2409,8340002023486,登記記録の閉鎖等,0,2025-05-07,2025-05-01,有限会社ケイユー,,有限会社,鹿児島県,南さつま市,加世田小湊４０番地,,46,220,8971122,,,2025-05-01,清算の結了等,,,2015-10-05,1,,,,,ケイユー,0
2416,8360005000431,登記記録の閉鎖等,0,2025-05-07,2025-04-18,医療法人緑樹会,,その他の設立登記法人,沖縄県,那覇市,字安里３８８番地５,,47,201,9020067,,,2025-04-18,清算の結了等,,,2015-10-05,1,,,,,リョクジュカイ,0
2432,8410002009461,登記記録の閉鎖等,0,2025-05-07,2025-04-25,有限会社達磨堂仏壇店,,有限会社,秋田県,北秋田市,住吉町８番３号,,05,213,0183322,,,2025-04-25,清算の結了等,,,2015-10-05,1,,,,,ダルマドウブツダンテン,0
2448,9010001010633,登記記録の閉鎖等,0,2025-05-07,2025-04-11,石村商事株式会社,,株式会社,東京都,千代田区,外神田２丁目１７番４号,,13,101,1010021,,,2025-04-11,清算の結了等,,,2015-10-05,1,,,,,イシムラショウジ,0
2456,9010001159677,登記記録の閉鎖等,0,2025-05-07,2025-04-21,サヴィッド・セラピューティックス株式会社,,株式会社,東京都,杉並区,永福３丁目９番１０号,,13,115,1680064,,,2025-04-21,清算の結了等,,,2015-10-05,1,,,,,サヴィッドセラピューティックス,0
2471,9010501001751,登記記録の閉鎖等,0,2025-05-07,2025-04-10,株式会社エイム,,株式会社,東京都,台東区,東上野３丁目１３番２号,,13,106,1100015,,,2025-04-10,合併による解散等,5110001019486,令和７年４月１日東京都台東区東上野三丁目１３番２号株式会社山下商会（5110001019486）に合併し解散,2015-10-05,1,,,,,エイム,0
2507,9011301019380,登記記録の閉鎖等,0,2025-05-07,2025-04-21,株式会社ティースタイル,,株式会社,東京都,杉並区,高円寺北２丁目２９番２０－５０４号フェニックス高円寺伍番館,,13,115,1660002,,,2025-04-21,清算の結了等,,,2015-10-05,1,,,,,ティースタイル,0
2512,9011401023308,登記記録の閉鎖等,0,2025-05-07,2025-05-01,株式会社ＯＰＡＱ　ＦＡＣＴＯＲＹ,,株式会社,東京都,板橋区,南常盤台２丁目２５－６－２０３,,13,119,1740072,,,2025-05-01,清算の結了等,,,2021-04-14,1,,,,,オパキュウファクトリー,0
2516,9011502005361,登記記録の閉鎖等,0,2025-05-07,2025-05-01,有限会社ポイント,,有限会社,東京都,北区,滝野川２丁目３５番５号,,13,117,1140023,,,2025-05-01,清算の結了等,,,2015-10-05,1,,,,,,0
2518,9011801021695,登記記録の閉鎖等,0,2025-05-07,2025-04-30,株式会社ツーウェイ,,株式会社,東京都,足立区,東和３丁目１３番１－１３１６号,,13,121,1200003,,,2025-04-30,清算の結了等,,,2015-10-05,1,,,,,ツーウェイ,0
2523,9012701008502,登記記録の閉鎖等,0,2025-05-07,2025-04-30,株式会社雄,,株式会社,東京都,西東京市,芝久保町３丁目１３番１０号,,13,229,1880014,,,2025-04-30,清算の結了等,,,2015-10-05,1,,,,,ユウ,0
2528,9013302016712,登記記録の閉鎖等,0,2025-05-07,2025-04-14,有限会社クレイン・ソリューション,,有限会社,東京都,豊島区,東池袋３丁目１９番１０－２００１号,,13,116,1700013,,,2025-04-14,清算の結了等,,,2015-10-05,1,,,,,クレインソリューション,0
2533,9020001068794,登記記録の閉鎖等,0,2025-05-07,2025-04-10,株式会社アイ・ビー・エス,,株式会社,神奈川県,川崎市川崎区,新川通１０番１５号,,14,131,2100013,,,2025-04-10,合併による解散等,9010001035143,令和７年３月１日東京都文京区小石川二丁目１番１号アカイリース販売株式会社（9010001035143）に合併し解散,2015-10-05,1,,,,,アイビーエス,0
2550,9030001083685,登記記録の閉鎖等,0,2025-05-07,2025-05-01,株式会社アリタック,,株式会社,埼玉県,川口市,元郷２丁目１５番１－２２０７号エルザタワー５５,,11,203,3320011,,,2025-05-01,清算の結了等,,,2015-10-05,1,,,,,アリタック,0
2559,9030002103715,登記記録の閉鎖等,0,2025-05-07,2025-04-30,有限会社志村油店,,有限会社,埼玉県,川口市,大字安行吉岡１４９５番地,,11,203,3340072,,,2025-04-30,清算の結了等,,,2015-10-05,1,,,,,シムラアブラテン,0
2570,9040005002079,登記記録の閉鎖等,0,2025-05-07,2025-04-16,特定非営利活動法人Ｊ－ＥＮＥＰ,,その他の設立登記法人,千葉県,千葉市中央区,中央４丁目１３番１０号千葉県教育会館別館１Ｆ,,12,101,2600013,,,2025-04-16,清算の結了等,,,2015-10-05,1,,,,,ジェイエネップ,0
2578,9070002030328,登記記録の閉鎖等,0,2025-05-07,2025-04-30,有限会社中村板金塗装,,有限会社,群馬県,邑楽郡大泉町,大字古海３７８番地の２,,10,524,3700524,,,2025-04-30,清算の結了等,,,2015-10-05,1,,,,,ナカムラバンキントソウ,0
2581,9080001018018,登記記録の閉鎖等,0,2025-05-07,2025-04-28,日中企画株式会社,,株式会社,静岡県,静岡市駿河区,小鹿２丁目３９番２８号,,22,102,4228021,,,2025-04-28,清算の結了等,,,2015-10-05,1,,,,,ニッチュウキカク,0
2584,9090001007498,登記記録の閉鎖等,0,2025-05-07,2025-04-21,株式会社ロングショット,,株式会社,山梨県,甲斐市,玉川１３２１番地１,,19,210,4000116,,,2025-04-21,清算の結了等,,,2015-10-05,1,,,,,ロングショット,0
2628,9140002022929,登記記録の閉鎖等,0,2025-05-07,2025-04-30,有限会社明石縫製,,有限会社,兵庫県,神戸市長田区,若松町９丁目２番１１号兵庫県ゴム製品協同組合内,,28,106,6530038,,,2025-04-30,清算の結了等,,,2015-10-05,1,,,,,アカシホウセイ,0
2630,9140005002366,登記記録の閉鎖等,0,2025-05-07,2025-04-01,社会福祉法人神戸市中央区社会福祉協議会,,その他の設立登記法人,兵庫県,神戸市中央区,東町１１５番地（神戸市中央区役所内）,,28,110,6500031,,,2025-04-01,合併による解散等,1140005002340,令和７年４月１日神戸市中央区磯上通三丁目１番３２号社会福祉法人神戸市社会福祉協議会（1140005002340）に合併し解散,2015-10-05,1,,,,,コウベシチュウオウクシャカイフクシキョウギカイ,0
2631,9140005002374,登記記録の閉鎖等,0,2025-05-07,2025-04-01,社会福祉法人神戸市北区社会福祉協議会,,その他の設立登記法人,兵庫県,神戸市北区,鈴蘭台北町１丁目９番１号,,28,109,6511111,,,2025-04-01,合併による解散等,1140005002340,令和７年４月１日神戸市中央区磯上通三丁目１番３２号社会福祉法人神戸市社会福祉協議会（1140005002340）に合併し解散,2015-10-05,1,,,,,コウベシキタクシャカイフクシキョウギカイ,0
2633,9150001006948,登記記録の閉鎖等,0,2025-05-07,2025-05-01,株式会社尾崎測量設計事務所,,株式会社,奈良県,生駒郡平群町,吉新２丁目３番１４号,,29,342,6360932,,,2025-05-01,清算の結了等,,,2015-10-05,1,,,,,オザキソクリョウセッケイジムショ,0
2649,9180001145917,登記記録の閉鎖等,0,2025-05-07,2025-04-22,株式会社Ｗｅｂサービス,,株式会社,愛知県,名古屋市中区,大須１丁目７番１４号パークＩＭビル２Ｆ,,23,106,4600011,,,2025-04-22,清算の結了等,,,2021-04-30,1,,,,,ウェブサービス,0
2658,9180002059570,登記記録の閉鎖等,0,2025-05-07,2025-04-28,有限会社ブレースデザイン,,有限会社,愛知県,名古屋市守山区,桔梗平２丁目１６０５番地,,23,113,4630814,,,2025-04-28,清算の結了等,,,2015-10-05,1,,,,,ブレースデザイン,0
2683,9240002026481,登記記録の閉鎖等,0,2025-05-07,2025-04-30,有限会社ヤマソウ,,有限会社,広島県,広島市東区,中山新町３丁目８番１１号,,34,102,7320021,,,2025-04-30,清算の結了等,,,2015-10-05,1,,,,,ヤマソウ,0
2684,9250002005393,登記記録の閉鎖等,0,2025-05-07,2025-05-01,有限会社西村ビル,,有限会社,山口県,宇部市,芝中町７番２０号,,35,202,7550017,,,2025-05-01,清算の結了等,,,2015-10-05,1,,,,,ニシムラビル,0
2687,9260001033015,登記記録の閉鎖等,0,2025-05-07,2025-04-21,株式会社葵庭匠,,株式会社,岡山県,岡山市北区,福崎５１番地８,,33,101,7011357,,,2025-04-21,清算の結了等,,,2019-04-10,1,,,,,アオイテイショウ,0
2689,9260002002258,登記記録の閉鎖等,0,2025-05-07,2025-04-28,株式会社カパス岡山,,株式会社,岡山県,岡山市北区,下中野７１９番地１０２,,33,101,7000973,,,2025-04-28,合併による解散等,3010501030888,令和７年４月１日東京都千代田区外神田四丁目１０番６号株式会社カパス（3010501030888）に合併し解散,2015-10-05,1,,,,,カパスオカヤマ,0
2702,9290002002916,登記記録の閉鎖等,0,2025-05-07,2025-04-21,有限会社トモヱ,,有限会社,福岡県,福岡市南区,高宮２丁目１番３８－１０３号,,40,134,8150083,,,2025-04-21,清算の結了等,,,2015-10-05,1,,,,,,0
2721,9320003002515,登記記録の閉鎖等,0,2025-05-07,2025-04-25,合同会社大分テクノ,,合同会社,大分県,佐伯市,中村南町９番７号,,44,205,8760854,,,2025-04-25,清算の結了等,,,2016-12-06,1,,,,,オオイタテクノ,0
2736,9370002017682,登記記録の閉鎖等,0,2025-05-07,2025-04-16,有限会社マテックス,,有限会社,宮城県,仙台市宮城野区,鶴巻１丁目２０番２１号,,04,102,9830024,,,2025-04-16,清算の結了等,,,2015-10-05,1,,,,,マテックス,0
2757,9500005003385,登記記録の閉鎖等,0,2025-05-07,2025-04-01,四国たばこ耕作組合,,その他の設立登記法人,香川県,高松市,西内町７番２３号,,37,201,7600022,,,2025-04-01,合併による解散等,6470005006618,令和７年４月１日鳥取県西伯郡南部町東町６２番地１西日本たばこ耕作組合（9280005003986）と合併して香川県高松市西内町７番２３号中四国たばこ耕作組合（6470005006618）を設立し解散,2015-10-05,1,,,,,シコクタバココウサキクミアイ,0
