sequenceNumber,corporateNumber,process,correct,updateDate,changeDate,name,nameImageId,kind,prefectureName,cityName,streetNumber,addressImageId,prefectureCode,cityCode,postCode,addressOutside,addressOutsideImageId,closeDate,closeCause,successorCorporateNumber,changeCause,assignmentDate,latest,enName,enPrefectureName,enCityName,enAddressOutside,furigana,hihyoji
12,1010001226633,新規,0,2022-05-17,2022-05-17,株式会社ＳＡＫＥ　ＪＡＰＡＮ,,株式会社,東京都,千代田区,神田小川町１丁目１０番２号３０２号室,,13,101,1010052,,,,,,,2022-05-17,1,,,,,サケジャパン,0
30,1010501048841,新規,0,2022-05-17,2022-05-17,春日株式会社,,株式会社,東京都,台東区,浅草橋１丁目２５－７シティコープ浅草橋２０２,,13,106,1110053,,,,,,,2022-05-17,1,,,,,カスガ,0
31,1010503006590,新規,0,2022-05-17,2022-05-17,合同会社ベイク,,合同会社,東京都,台東区,浅草橋５丁目１番３７－２０１号ユニーブル秋葉原,,13,106,1110053,,,,,,,2022-05-17,1,,,,,ベイク,0
32,1010601061133,新規,0,2022-05-17,2022-05-17,株式会社レイス,,株式会社,東京都,墨田区,石原４丁目１４番７号アルクビル２０１,,13,107,1300011,,,,,,,2022-05-17,1,,,,,レイス,0
37,1010701042652,新規,0,2022-05-17,2022-05-17,株式会社Ｄｕｃｋ　Ｂｌｕｅ,,株式会社,東京都,品川区,小山４丁目１０－１,,13,109,1420062,,,,,,,2022-05-17,1,,,,,ダックブルー,0
39,1010801032966,新規,0,2022-05-17,2022-05-17,いなち株式会社,,株式会社,東京都,大田区,鵜の木３丁目１７－１３フルーゼ鵜の木２０２,,13,111,1460091,,,,,,,2022-05-17,1,,,,,イナチ,0
40,1010803004170,新規,0,2022-05-17,2022-05-17,合同会社トゥルーヴォイスミー,,合同会社,東京都,大田区,池上７丁目７－１３エスペランス金子１０５,,13,111,1460082,,,,,,,2022-05-17,1,,,,,トゥルーヴォイスミー,0
42,1010903007370,新規,0,2022-05-17,2022-05-17,ＡＯＩＣＨＩ合同会社,,合同会社,東京都,世田谷区,上野毛４丁目３番７号,,13,112,1580093,,,,,,,2022-05-17,1,,,,,アオイチ,0
50,1011001147381,新規,0,2022-05-17,2022-05-17,株式会社ＧＲＥＥＮＥＡＳＴ,,株式会社,東京都,渋谷区,神宮前６丁目２３番４号桑野ビル２階,,13,113,1500001,,,,,,,2022-05-17,1,,,,,グリーンイースト,0
54,1011103011733,新規,0,2022-05-17,2022-05-17,ＴＵＬＩＰＡＮＯ合同会社,,合同会社,東京都,新宿区,西新宿４丁目３２番６号,,13,104,1600023,,,,,,,2022-05-17,1,,,,,トゥリパーノ,0
56,1011303004405,新規,0,2022-05-17,2022-05-17,合同会社ダビデゾー,,合同会社,東京都,杉並区,天沼１丁目２８番２１号,,13,115,1670032,,,,,,,2022-05-17,1,,,,,ダビデゾー,0
64,1012401039210,新規,0,2022-05-17,2022-05-17,株式会社光触媒ワークス,,株式会社,東京都,小金井市,貫井南町２丁目１番１６号,,13,210,1840014,,,,,,,2022-05-17,1,,,,,ヒカリショクバイワークス,0
76,1020003021767,新規,0,2022-05-17,2022-05-17,合同会社ケイムズ,,合同会社,神奈川県,横浜市港北区,大倉山５丁目３番１－５０２号,,14,109,2220037,,,,,,,2022-05-17,1,,,,,ケイムズ,0
108,1040001123431,新規,0,2022-05-17,2022-05-17,株式会社俺ＳＴＵＤｉＯ,,株式会社,千葉県,千葉市中央区,本千葉町５－７地商ビル２階,,12,101,2600014,,,,,,,2022-05-17,1,,,,,オレスタジオ,0
113,1040003020049,新規,0,2022-05-17,2022-05-17,Ｔｏｄａ　Ｍｅｔａ　Ｃｏｍｐｏｓｉｔｅｓ合同会社,,合同会社,千葉県,船橋市,三山２丁目６番６２号,,12,204,2740072,,,,,,,2022-05-17,1,,,,,トドメタコンポジッツ,0
115,1040005021615,新規,0,2022-05-17,2022-05-17,医療法人社団たんざわ矯正歯科,,その他の設立登記法人,千葉県,流山市,おおたかの森北３丁目１番地の１,,12,220,2700119,,,,,,,2022-05-17,1,,,,,タンザワキョウセイシカ,0
119,1060001034874,新規,0,2022-05-17,2022-05-17,株式会社ケイ・エイ,,株式会社,栃木県,さくら市,氏家２５４０番地サンパティオ２,,09,214,3291311,,,,,,,2022-05-17,1,,,,,ケイエイ,0
121,1060003004074,新規,0,2022-05-17,2022-05-17,Ｄｅｔｅｒｇｅｎｔ　ｊａｐａｎ合同会社,,合同会社,栃木県,小山市,大字羽川２８４番地２,,09,208,3230012,,,,,,,2022-05-17,1,,,,,デタージェントジャパン,0
139,1120003021682,新規,0,2022-05-17,2022-05-17,合同会社ＰＥＰ,,合同会社,大阪府,大阪市港区,磯路３丁目１４－１５ロータリー３９－１階,,27,107,5520003,,,,,,,2022-05-17,1,,,,,ペップ,0
141,1120101065581,新規,0,2022-05-17,2022-05-17,株式会社ながはま,,株式会社,大阪府,富田林市,甲田２丁目２０番７号,,27,214,5840036,,,,,,,2022-05-17,1,,,,,ナガハマ,0
143,1120103004703,新規,0,2022-05-17,2022-05-17,合同会社にこむすび,,合同会社,大阪府,堺市南区,御池台２丁４番３８号,,27,145,5900134,,,,,,,2022-05-17,1,,,,,ニコムスビ,0
145,1120901045972,新規,0,2022-05-17,2022-05-17,株式会社アップライド,,株式会社,大阪府,摂津市,新在家２丁目３０－５,,27,224,5660055,,,,,,,2022-05-17,1,,,,,アップライド,0
146,1120903004150,新規,0,2022-05-17,2022-05-17,合同会社未知コーポレーション,,合同会社,大阪府,摂津市,鳥飼銘木町１２番５号,,27,224,5660063,,,,,,,2022-05-17,1,,,,,ミチコーポレーション,0
148,1122001035879,新規,0,2022-05-17,2022-05-17,株式会社ＩＰＰＯ,,株式会社,大阪府,柏原市,大正１丁目６番３３号,,27,221,5820009,,,,,,,2022-05-17,1,,,,,イッポ,0
152,1130001071778,新規,0,2022-05-17,2022-05-17,株式会社朗一,,株式会社,京都府,京都市山科区,安朱馬場ノ西町１４番地２,,26,110,6078007,,,,,,,2022-05-17,1,,,,,ロウイチ,0
153,1130001071786,新規,0,2022-05-17,2022-05-17,株式会社イロンズ,,株式会社,京都府,宇治市,広野町尖山１４－５,,26,204,6110031,,,,,,,2022-05-17,1,,,,,イロンズ,0
156,1130005016481,新規,0,2022-05-17,2022-05-17,一般社団法人床下土風,,その他の設立登記法人,京都府,京都市北区,紫野南舟岡町８,,26,101,6038225,,,,,,,2022-05-17,1,,,,,ユカシタツチカゼ,0
162,1140001125962,新規,0,2022-05-17,2022-05-17,株式会社トダタイル,,株式会社,兵庫県,朝来市,立脇４５６番地１,,28,225,6793403,,,,,,,2022-05-17,1,,,,,トダタイル,0
183,1180301036237,新規,0,2022-05-17,2022-05-17,清水煉工株式会社,,株式会社,愛知県,西尾市,一色町松木島中切５９番地３,,23,213,4440403,,,,,,,2022-05-17,1,,,,,シミズレンコウ,0
185,1180303005330,新規,0,2022-05-17,2022-05-17,ＮＬ合同会社,,合同会社,愛知県,豊橋市,森岡町１１番地１４,,23,201,4411114,,,,,,,2022-05-17,1,,,,,エヌエル,0
191,1210003001510,新規,0,2022-05-17,2022-05-17,合同会社上田テクニカ,,合同会社,福井県,福井市,高木中央１丁目２１０１番地プチドラゴン３０３,,18,201,9100804,,,,,,,2022-05-17,1,,,,,ウエダテクニカ,0
194,1220001024850,新規,0,2022-05-17,2022-05-17,住まいサポート株式会社,,株式会社,石川県,金沢市,小坂町西８番地１５,,17,201,9200811,,,,,,,2022-05-17,1,,,,,スマイサポート,0
225,1320005009994,新規,0,2022-05-17,2022-05-17,農事組合法人ライス宮本,,その他の設立登記法人,大分県,宇佐市,大字赤尾８９３番地の１,,44,211,8790233,,,,,,,2022-05-17,1,,,,,ライスミヤモト,0
233,1360001030414,新規,0,2022-05-17,2022-05-17,株式会社ＳＥＥＬｓ　Ｉｎｔｅｒｎａｔｉｏｎａｌ,,株式会社,沖縄県,那覇市,久茂地１丁目１番１号９階,,47,201,9000015,,,,,,,2022-05-17,1,,,,,シールズインターナショナル,0
234,1360003011998,新規,0,2022-05-17,2022-05-17,合同会社上地組,,合同会社,沖縄県,石垣市,字登野城７２２番地２,,47,207,9070004,,,,,,,2022-05-17,1,,,,,ウエチグミ,0
235,1360003012014,新規,0,2022-05-17,2022-05-17,合同会社ＮＨＡＴ　ＡＮＨ,,合同会社,沖縄県,宜野湾市,大謝名２丁目３番５号１－Ａ,,47,205,9012225,,,,,,,2022-05-17,1,,,,,ニャットアイン,0
247,1380001032813,新規,0,2022-05-17,2022-05-17,株式会社ＩＮＴＡＬＥＳ,,株式会社,福島県,福島市,三河南町１番２０号コラッセふくしま６Ｆ,,07,201,9608053,,,,,,,2022-05-17,1,,,,,インテイルズ,0
249,1390001016897,新規,0,2022-05-17,2022-05-17,株式会社Ｖｉｖｉｄ　ｆａｃｔｏｒｓ,,株式会社,山形県,長井市,館町北６番２７号,,06,209,9930011,,,,,,,2022-05-17,1,,,,,ビビットファクタース,0
254,1420001017850,新規,0,2022-05-17,2022-05-17,株式会社直喜工業,,株式会社,青森県,八戸市,根城７丁目５番１２号プロムナード鹿島Ｃ－２０１,,02,203,0391166,,,,,,,2022-05-17,1,,,,,ナオヨシコウギョウ,0
256,1420005007807,新規,0,2022-05-17,2022-05-17,一般社団法人ＳｍａｌｌＧｏｎｏｈｅ,,その他の設立登記法人,青森県,三戸郡五戸町,大字倉石又重字上エ平１６番地２,,02,442,0391703,,,,,,,2022-05-17,1,,,,,スモールゴノヘ,0
265,1430001086597,新規,0,2022-05-17,2022-05-17,株式会社オンデック,,株式会社,北海道,江別市,大麻沢町１９番地の８,,01,217,0690842,,,,,,,2022-05-17,1,,,,,オンデック,0
266,1430001086639,新規,0,2022-05-17,2022-05-17,株式会社ＥＮＤＬＥＳＳ,,株式会社,北海道,札幌市南区,澄川五条４丁目２番２１－４０５号,,01,106,0050005,,,,,,,2022-05-17,1,,,,,エンドレス,0
273,1450003002204,新規,0,2022-05-17,2022-05-17,合同会社ＦＥ富良野ＰＰＡ１,,合同会社,北海道,富良野市,西町２番２０号,,01,229,0760037,,,,,,,2022-05-17,1,,,,,エフイーフラノピーピーエーイチ,0
274,1460301005064,新規,0,2022-05-17,2022-05-17,株式会社ｇ,,株式会社,北海道,北見市,高栄西町２丁目２番１７号,,01,208,0900058,,,,,,,2022-05-17,1,,,,,グラム,0
293,2010003037680,新規,0,2022-05-17,2022-05-17,ＹＵＣＡＲＩ合同会社,,合同会社,東京都,中央区,銀座１丁目２２番１１号銀座大　竹ビジデンス２階,,13,102,1040061,,,,,,,2022-05-17,1,,,,,ユカリ,0
308,2010401167311,新規,0,2022-05-17,2022-05-17,株式会社ｐｒｅｍｉｃｅｓ,,株式会社,東京都,港区,六本木４丁目３番１１号六本木ユニハウス２２３,,13,103,1060032,,,,,,,2022-05-17,1,,,,,プレミス,0
309,2010401167336,新規,0,2022-05-17,2022-05-17,株式会社桜川協和,,株式会社,東京都,港区,虎ノ門１丁目２１番１９号,,13,103,1050001,,,,,,,2022-05-17,1,,,,,サクラガワキョウワ,0
310,2010401167402,新規,0,2022-05-17,2022-05-17,竹芝準備２号株式会社,,株式会社,東京都,港区,海岸１丁目７番１号,,13,103,1050022,,,,,,,2022-05-17,1,,,,,タケシバジュンビニゴウ,0
312,2010403027587,新規,0,2022-05-17,2022-05-17,合同会社Ｕ,,合同会社,東京都,港区,浜松町２丁目２番１５号浜松町ダイヤビル２Ｆ,,13,103,1050013,,,,,,,2022-05-17,1,,,,,ユー,0
313,2010403027653,新規,0,2022-05-17,2022-05-17,合同会社スリングテック,,合同会社,東京都,港区,赤坂２丁目１７番５５－３０４号,,13,103,1070052,,,,,,,2022-05-17,1,,,,,スリングテック,0
324,2010701042643,新規,0,2022-05-17,2022-05-17,株式会社ＣＬＯＳＥＴ,,株式会社,東京都,品川区,西五反田２丁目９番７号ドルミ五反田アンメゾン４０７号,,13,109,1410031,,,,,,,2022-05-17,1,,,,,クローゼット,0
345,2011103011732,新規,0,2022-05-17,2022-05-17,合同会社日本の食研究所,,合同会社,東京都,新宿区,袋町３番地４クレール神楽坂１４－３階,,13,104,1620828,,,,,,,2022-05-17,1,,,,,ニホンノショクケンキュウジョ,0
346,2011103011749,新規,0,2022-05-17,2022-05-17,合同会社ジェイ・エス・ディー,,合同会社,東京都,新宿区,下宮比町１番４号,,13,104,1620822,,,,,,,2022-05-17,1,,,,,ジェイエスディー,0
349,2011303004404,新規,0,2022-05-17,2022-05-17,合同会社ニューネクスト,,合同会社,東京都,杉並区,西荻南１丁目１６番地２４号セシリア西荻１０２,,13,115,1670053,,,,,,,2022-05-17,1,,,,,ニューネクスト,0
355,2011803005091,新規,0,2022-05-17,2022-05-17,合同会社Ｈ・Ｐ・Ｌ　Ｃｏｍｐａｎｙ,,合同会社,東京都,足立区,綾瀬３丁目２２番６号６０１,,13,121,1200005,,,,,,,2022-05-17,1,,,,,エイチピーエルカンパニー,0
363,2013301049100,新規,0,2022-05-17,2022-05-17,一成株式会社,,株式会社,東京都,豊島区,巣鴨１丁目１７番３号子野ビル５０３号,,13,116,1700002,,,,,,,2022-05-17,1,,,,,イッセイ,0
369,2020003021774,新規,0,2022-05-17,2022-05-17,合同会社Ｍ’ｓ　Ａｒｔｉｓｔ　Ａｓｓｉｓｔ,,合同会社,神奈川県,横浜市中区,元町５丁目２１１番地,,14,104,2310861,,,,,,,2022-05-17,1,,,,,エムズアーティストアシスト,0
373,2021001075985,新規,0,2022-05-17,2022-05-17,株式会社ＡａＨｂｉｔ,,株式会社,神奈川県,鎌倉市,材木座３丁目９－２６,,14,204,2480013,,,,,,,2022-05-17,1,,,,,アービット,0
380,2021003011690,新規,0,2022-05-17,2022-05-17,合同会社カウンテック,,合同会社,神奈川県,相模原市中央区,小山１丁目１３－１０メゾンドオヤマ４０１,,14,152,2520205,,,,,,,2022-05-17,1,,,,,カウンテック,0
388,2030001148197,新規,0,2022-05-17,2022-05-17,株式会社マツダ,,株式会社,埼玉県,川口市,戸塚東１丁目２番３１号東川口グリーンハイツ２０３号,,11,203,3330802,,,,,,,2022-05-17,1,,,,,マツダ,0
400,2040001123208,新規,0,2022-05-17,2022-05-17,株式会社リトルベイビー,,株式会社,千葉県,四街道市,和良比２５４番地１（エステプラザ四街道６０３）,,12,228,2840044,,,,,,,2022-05-17,1,,,,,リトルベイビー,0
401,2040001123356,新規,0,2022-05-17,2022-05-17,株式会社ノルドラボ,,株式会社,千葉県,柏市,酒井根３丁目６番１８号,,12,217,2770053,,,,,,,2022-05-17,1,,,,,ノルドラボ,0
402,2040001123406,新規,0,2022-05-17,2022-05-17,株式会社ＧＥＰＰＥＴＴＯ,,株式会社,千葉県,松戸市,新松戸南２丁目１３２番地の２,,12,207,2700035,,,,,,,2022-05-17,1,,,,,ゼペット,0
403,2040001123422,新規,0,2022-05-17,2022-05-17,株式会社シゲミツ,,株式会社,千葉県,八街市,八街へ１９９番地１３６０,,12,230,2891113,,,,,,,2022-05-17,1,,,,,シゲミツ,0
404,2040001123439,新規,0,2022-05-17,2022-05-17,東金株式会社,,株式会社,千葉県,印旛郡酒々井町,東酒々井６丁目６番（８棟５０５号）,,12,322,2850923,,,,,,,2022-05-17,1,,,,,トウキン,0
408,2040003020023,新規,0,2022-05-17,2022-05-17,合同会社オギノ物産,,合同会社,千葉県,長生郡長生村,七井土１９２２番地２８,,12,423,2994333,,,,,,,2022-05-17,1,,,,,オギノブッサン,0
422,2090003002090,新規,0,2022-05-17,2022-05-17,合同会社オクタリア山加,,合同会社,山梨県,甲府市,丸の内２丁目２番１号ＣＲＯＳＳ５００、１階,,19,201,4000031,,,,,,,2022-05-17,1,,,,,オクタリアヤマカ,0
424,2100001035339,新規,0,2022-05-17,2022-05-17,株式会社国興商事,,株式会社,長野県,下伊那郡阿智村,春日７９２番地,,20,407,3950301,,,,,,,2022-05-17,1,,,,,コッコウショウジ,0
430,2110003004761,新規,0,2022-05-17,2022-05-17,ｆｒｅｅｂｉｒｄ合同会社,,合同会社,新潟県,新潟市東区,臨港１丁目６－８－５,,15,102,9500043,,,,,,,2022-05-17,1,,,,,フリーバード,0
435,2120001245852,新規,0,2022-05-17,2022-05-17,株式会社Ｌ‐Ｐｒｏｄｕｃｅ,,株式会社,大阪府,大阪市中央区,東高麗橋２－３３セレニテ北浜１５０２,,27,128,5400039,,,,,,,2022-05-17,1,,,,,エルプロデュース,0
436,2120001245910,新規,0,2022-05-17,2022-05-17,株式会社アグリブート,,株式会社,大阪府,大阪市中央区,伏見町２丁目６番４号Ｔ＆Ａ淀屋橋ビル２Ｆ,,27,128,5410044,,,,,,,2022-05-17,1,,,,,アグリブート,0
437,2120001245919,新規,0,2022-05-17,2022-05-17,フードメディック株式会社,,株式会社,大阪府,大阪市都島区,中野町４丁目３番６号２Ｂ,,27,102,5340027,,,,,,,2022-05-17,1,,,,,フードメディック,0
438,2120001245927,新規,0,2022-05-17,2022-05-17,株式会社千吉,,株式会社,大阪府,大阪市生野区,生野東２丁目１４番４号,,27,116,5440025,,,,,,,2022-05-17,1,,,,,センキチ,0
466,2180001151327,新規,0,2022-05-17,2022-05-17,株式会社雪成工業,,株式会社,愛知県,海部郡大治町,大字馬島字山西２５番地１,,23,424,4901141,,,,,,,2022-05-17,1,,,,,ユキナリコウギョウ,0
477,2220001024833,新規,0,2022-05-17,2022-05-17,株式会社ＯＮＥ　ＨＡＰＰＩＮＥＳＳ　ＣＣ,,株式会社,石川県,金沢市,額谷３丁目８９番地,,17,201,9218145,,,,,,,2022-05-17,1,,,,,ワンハピネスシーシー,0
481,2240001059786,新規,0,2022-05-17,2022-05-17,株式会社Ｕｍ　ｐａｒａ　ｄｏｉｓ,,株式会社,広島県,広島市中区,田中町５番４－１０１号,,34,101,7300026,,,,,,,2022-05-17,1,,,,,ウンパラドイス,0
496,2290001097501,新規,0,2022-05-17,2022-05-17,株式会社ＭＳＧ,,株式会社,福岡県,福岡市博多区,博多駅東２丁目２番２号博多東ハニービル７階,,40,132,8120013,,,,,,,2022-05-17,1,,,,,エムエスジー,0
499,2290803004126,新規,0,2022-05-17,2022-05-17,合同会社Ｓｓ‐ＯＮＥ,,合同会社,福岡県,中間市,中間３丁目３６番２６号,,40,215,8090034,,,,,,,2022-05-17,1,,,,,エスエスワン,0
502,2330001029747,新規,0,2022-05-17,2022-05-17,株式会社はち,,株式会社,熊本県,八代市,新地町３番１４号,,43,202,8660016,,,,,,,2022-05-17,1,,,,,ハチ,0
508,2360001030396,新規,0,2022-05-17,2022-05-17,株式会社大桜建設,,株式会社,沖縄県,名護市,字為又１７９番地３,,47,209,9050005,,,,,,,2022-05-17,1,,,,,ダイオウケンセツ,0
509,2360001030413,新規,0,2022-05-17,2022-05-17,株式会社ＤＲＥＡＭ　ＣＯＮＮＥＣＴ,,株式会社,沖縄県,浦添市,城間２丁目１７番１５ＳＳマンション４０５,,47,208,9012133,,,,,,,2022-05-17,1,,,,,ドリームコネクト,0
511,2370003005684,新規,0,2022-05-17,2022-05-17,合同会社Ｕ・Ｎ,,合同会社,宮城県,仙台市宮城野区,榴岡５丁目１番１８号,,04,102,9830852,,,,,,,2022-05-17,1,,,,,ウン,0
513,2370005010476,新規,0,2022-05-17,2022-05-17,特定非営利活動法人ＴＯＳＳ中学東北,,その他の設立登記法人,宮城県,石巻市,泉町４丁目２番２２号,,04,202,9860832,,,,,,,2022-05-17,1,,,,,トスチュウガクトウホク,0
518,2400003002934,新規,0,2022-05-17,2022-05-17,合同会社ＴＴＳＫ,,合同会社,岩手県,盛岡市,前九年２丁目３－１９リッチヒルズ館坂１Ｆ,,03,201,0200127,,,,,,,2022-05-17,1,,,,,ティーティーエスケー,0
527,2430001086613,新規,0,2022-05-17,2022-05-17,株式会社美亜プランニング,,株式会社,北海道,札幌市北区,新川四条１２丁目１番２０号,,01,102,0010924,,,,,,,2022-05-17,1,,,,,ミアプランニング,0
528,2430001086638,新規,0,2022-05-17,2022-05-17,ツリー株式会社,,株式会社,北海道,江別市,元江別本町２８番地の８,,01,217,0670041,,,,,,,2022-05-17,1,,,,,ツリー,0
531,2430003013895,新規,0,2022-05-17,2022-05-17,合同会社アール,,合同会社,北海道,札幌市中央区,南六条西１７丁目３番３１号,,01,101,0640806,,,,,,,2022-05-17,1,,,,,アール,0
532,2430003013904,新規,0,2022-05-17,2022-05-17,ＣＭＹＫ合同会社,,合同会社,北海道,札幌市北区,新琴似十条１４丁目５番７号,,01,102,0010910,,,,,,,2022-05-17,1,,,,,シーエムワイケイ,0
555,3010001226623,新規,0,2022-05-17,2022-05-17,ＪＯＩＮホールディングス株式会社,,株式会社,東京都,中央区,日本橋蛎殻町１丁目３９番５号,,13,102,1030014,,,,,,,2022-05-17,1,,,,,ジョインホールディングス,0
556,3010001226648,新規,0,2022-05-17,2022-05-17,株式会社トウエン,,株式会社,東京都,文京区,白山１丁目１９番１２－２０１号,,13,105,1130001,,,,,,,2022-05-17,1,,,,,トウエン,0
561,3010003037688,新規,0,2022-05-17,2022-05-17,恵比寿東口合同会社,,合同会社,東京都,千代田区,丸の内３丁目１番１号東京共同会計事務所内,,13,101,1000005,,,,,,,2022-05-17,1,,,,,エビスヒガシグチ,0
569,3010401167285,新規,0,2022-05-17,2022-05-17,株式会社Ｇｏｏｄｔｉｍｅ,,株式会社,東京都,港区,南青山３丁目８番４０号青山センタービル２階,,13,103,1070062,,,,,,,2022-05-17,1,,,,,グッドタイム,0
578,3010405020969,新規,0,2022-05-17,2022-05-17,特定非営利活動法人Ｗｉｌｌｅｎ,,その他の設立登記法人,東京都,港区,南青山２丁目２番１５号,,13,103,1070062,,,,,,,2022-05-17,1,,,,,ヴィーレン,0
587,3010703006240,新規,0,2022-05-17,2022-05-17,合同会社ｅｎＸ,,合同会社,東京都,品川区,西品川３丁目２０番２２号メゾン新百反１０３,,13,109,1410033,,,,,,,2022-05-17,1,,,,,エンクス,0
588,3010805002939,新規,0,2022-05-17,2022-05-17,特定非営利活動法人マナビファクトリー,,その他の設立登記法人,東京都,大田区,仲池上１丁目２３番４号リアノーム・Ｋ１０１,,13,111,1460081,,,,,,,2022-05-17,1,,,,,マナビファクトリー,0
600,3011605002451,新規,0,2022-05-17,2022-05-17,一般社団法人活気村宣言,,その他の設立登記法人,東京都,練馬区,西大泉１丁目３２番１２号,,13,120,1780065,,,,,,,2022-05-17,1,,,,,カッキムラセンゲン,0
603,3011801040718,新規,0,2022-05-17,2022-05-17,佳宇産業株式会社,,株式会社,東京都,足立区,西新井本町２丁目５番６－２０２号,,13,121,1230845,,,,,,,2022-05-17,1,,,,,カウサンギョウ,0
606,3012401039209,新規,0,2022-05-17,2022-05-17,株式会社Ｎａｄｉａ,,株式会社,東京都,調布市,国領町４丁目３３番地２オーベルグランディオ調布国領８０９,,13,208,1820022,,,,,,,2022-05-17,1,,,,,ナディア,0
632,3021001075943,新規,0,2022-05-17,2022-05-17,株式会社ビーライフ,,株式会社,神奈川県,大和市,西鶴間３丁目２－２,,14,213,2420005,,,,,,,2022-05-17,1,,,,,ビーライフ,0
633,3021003011707,新規,0,2022-05-17,2022-05-17,Ａ‐ＲＩＳＥ合同会社,,合同会社,神奈川県,海老名市,中新田２丁目２７番８－３０１号,,14,215,2430422,,,,,,,2022-05-17,1,,,,,エーライズ,0
645,3030003019420,新規,0,2022-05-17,2022-05-17,西香記合同会社,,合同会社,埼玉県,飯能市,大字川寺４２６番地８,,11,209,3570044,,,,,,,2022-05-17,1,,,,,セイコウキ,0
659,3040001123181,新規,0,2022-05-17,2022-05-17,株式会社ジュエツエステート,,株式会社,千葉県,船橋市,薬円台５丁目３６－１７ー２Ｆ,,12,204,2740077,,,,,,,2022-05-17,1,,,,,ジュエツエステート,0
660,3040001123462,新規,0,2022-05-17,2022-05-17,株式会社ラクトライツ,,株式会社,千葉県,船橋市,夏見台３丁目２６番３号,,12,204,2730866,,,,,,,2022-05-17,1,,,,,ラクトライツ,0
665,3040003020006,新規,0,2022-05-17,2022-05-17,ＭＵＳＫＡＮ合同会社,,合同会社,千葉県,千葉市中央区,登戸１丁目１７番１４号メゾン登戸４０２号,,12,101,2600032,,,,,,,2022-05-17,1,,,,,ムスカン,0
668,3060001034880,新規,0,2022-05-17,2022-05-17,株式会社ＴＭＯエキスパート,,株式会社,栃木県,宇都宮市,八幡台２番１２号,,09,201,3200015,,,,,,,2022-05-17,1,,,,,ティーエムオーエキスパート,0
671,3060003004072,新規,0,2022-05-17,2022-05-17,灯里ＡＫＡＲＩ合同会社,,合同会社,栃木県,宇都宮市,西川田３丁目２１番４６号,,09,201,3210152,,,,,,,2022-05-17,1,,,,,アカリ,0
694,3120003021648,新規,0,2022-05-17,2022-05-17,合同会社Ｓｕｎｒｉｓｅ　Ｅ　Ｊａｐａｎ,,合同会社,大阪府,大阪市中央区,南船場３丁目１番１６号,,27,128,5420081,,,,,,,2022-05-17,1,,,,,サンライズイージャパン,0
695,3120003021689,新規,0,2022-05-17,2022-05-17,ＪＡＰＡＮ　ＭＡＲＩＮＥ　ＬＯＧＩＳＴＩＣＳ合同会社,,合同会社,大阪府,大阪市西区,京町堀３丁目８－１３フドウ京町堀ハイツ１１０２号,,27,106,5500003,,,,,,,2022-05-17,1,,,,,ジャパンマリンロジスティックス,0
701,3120903004149,新規,0,2022-05-17,2022-05-17,合同会社Ｐｒｏｐｐｅｒｓ,,合同会社,大阪府,摂津市,千里丘東５丁目１１番４－５０１号,,27,224,5660011,,,,,,,2022-05-17,1,,,,,プロッパーズ,0
706,3122003002339,新規,0,2022-05-17,2022-05-17,合同会社ＴＳＵＮＡＧＵ,,合同会社,大阪府,東大阪市,若江南町５丁目２番４７号,,27,227,5780943,,,,,,,2022-05-17,1,,,,,ツナグ,0
711,3130003007927,新規,0,2022-05-17,2022-05-17,ＵＴＵ合同会社,,合同会社,京都府,京都市伏見区,醍醐烏橋町１４番地４５,,26,109,6011315,,,,,,,2022-05-17,1,,,,,アップトゥアス,0
717,3140003017669,新規,0,2022-05-17,2022-05-17,アモーレエンタープライズ合同会社,,合同会社,兵庫県,西宮市,甲子園町６番６－７０１号,,28,204,6638152,,,,,,,2022-05-17,1,,,,,アモーレエンタープライズ,0
735,3190001029414,新規,0,2022-05-17,2022-05-17,株式会社宝箱,,株式会社,三重県,鈴鹿市,白子１丁目８番２８号,,24,207,5100243,,,,,,,2022-05-17,1,,,,,タカラバコ,0
750,3240003005622,新規,0,2022-05-17,2022-05-17,合同会社ＺＥＲＯＳＹＳＴＥＭ,,合同会社,広島県,廿日市市,宮浜温泉１丁目１８番３７号,,34,213,7390454,,,,,,,2022-05-17,1,,,,,ゼロシステム,0
751,3240005015396,新規,0,2022-05-17,2022-05-17,社会福祉法人風和会,,その他の設立登記法人,広島県,三原市,皆実１丁目２１番１５号２Ｆ,,34,204,7230052,,,,,,,2022-05-17,1,,,,,カザナギカイ,0
756,3260003003913,新規,0,2022-05-17,2022-05-17,合同会社ログソルＪＡＰＡＮ,,合同会社,岡山県,岡山市北区,原１２０１番地７,,33,101,7012154,,,,,,,2022-05-17,1,,,,,ログソルジャパン,0
757,3270005005519,新規,0,2022-05-17,2022-05-17,一般社団法人なないろプラザ,,その他の設立登記法人,鳥取県,境港市,上道町３７００番地,,31,204,6840033,,,,,,,2022-05-17,1,,,,,ナナイロプラザ,0
758,3280005007480,新規,0,2022-05-17,2022-05-17,一般社団法人Ｃｏｍｍｕｎｉｔｙ　ｏｆ　Ｍａｓｕｄａ　ｔｏ　ｓｕｐｐｏｒｔ　Ｙｏｕｔｈ,,その他の設立登記法人,島根県,益田市,三宅町２番３５号,,32,204,6980006,,,,,,,2022-05-17,1,,,,,コミュニティオブマスダトゥサポートユース,0
773,3330005010520,新規,0,2022-05-17,2022-05-17,一般社団法人やまがの恩送りの会,,その他の設立登記法人,熊本県,山鹿市,熊入町１０９３番地,,43,208,8610511,,,,,,,2022-05-17,1,,,,,ヤマガノオンオクリノカイ,0
778,3360001030395,新規,0,2022-05-17,2022-05-17,株式会社Ａ＆Ａ,,株式会社,沖縄県,中頭郡読谷村,字伊良皆４５６番地６,,47,324,9040303,,,,,,,2022-05-17,1,,,,,エーアンドエー,0
779,3360001030404,新規,0,2022-05-17,2022-05-17,株式会社エヌズライフコンサル,,株式会社,沖縄県,中頭郡西原町,字翁長５９２番地伸ビル４－Ａ,,47,329,9030117,,,,,,,2022-05-17,1,,,,,エヌズライフコンサル,0
780,3360001030412,新規,0,2022-05-17,2022-05-17,株式会社米星,,株式会社,沖縄県,宜野湾市,上原１丁目１７番１０号,,47,205,9012204,,,,,,,2022-05-17,1,,,,,コメホシ,0
781,3360001030420,新規,0,2022-05-17,2022-05-17,株式会社ＴＯＫＩ,,株式会社,沖縄県,那覇市,松尾２丁目１２－３０丸真産業ビル３０２,,47,201,9000014,,,,,,,2022-05-17,1,,,,,トキ,0
790,3400001015887,新規,0,2022-05-17,2022-05-17,株式会社岩中,,株式会社,岩手県,北上市,二子町宿西１１２番地,,03,206,0240104,,,,,,,2022-05-17,1,,,,,イワチュウ,0
792,3420001017849,新規,0,2022-05-17,2022-05-17,株式会社兎月,,株式会社,青森県,弘前市,大字寒沢町１６番地８０山下荘２０６号室,,02,202,0368226,,,,,,,2022-05-17,1,,,,,トゲツ,0
793,3420003002519,新規,0,2022-05-17,2022-05-17,合同会社ＴｒａｎｓＩＤＪＰ,,合同会社,青森県,上北郡おいらせ町,一川目２丁目６５番地２７３,,02,412,0392203,,,,,,,2022-05-17,1,,,,,トランスアイディージェーピー,0
797,3430001086637,新規,0,2022-05-17,2022-05-17,株式会社ヤマダ,,株式会社,北海道,札幌市南区,藤野四条１１丁目１４番２０号,,01,106,0612284,,,,,,,2022-05-17,1,,,,,ヤマダ,0
800,3430003013894,新規,0,2022-05-17,2022-05-17,ナガタ屋合同会社,,合同会社,北海道,虻田郡ニセコ町,字本通３５番地３０,,01,395,0481502,,,,,,,2022-05-17,1,,,,,ナガタヤ,0
801,3440003001460,新規,0,2022-05-17,2022-05-17,合同会社北光宅建,,合同会社,北海道,函館市,上新川町６番４号,,01,202,0400031,,,,,,,2022-05-17,1,,,,,,0
803,3460103001458,新規,0,2022-05-17,2022-05-17,合同会社テラサポ,,合同会社,北海道,帯広市,西十四条南３１丁目３番地２７,,01,207,0800024,,,,,,,2022-05-17,1,,,,,テラサポ,0
821,4010001226671,新規,0,2022-05-17,2022-05-17,三和株式会社,,株式会社,東京都,千代田区,九段南１丁目５番６号,,13,101,1020074,,,,,,,2022-05-17,1,,,,,サンワ,0
843,4010403027602,新規,0,2022-05-17,2022-05-17,合同会社ＡＬＢＡ,,合同会社,東京都,港区,虎ノ門１丁目５番８号,,13,103,1050001,,,,,,,2022-05-17,1,,,,,アルバ,0
844,4010403027643,新規,0,2022-05-17,2022-05-17,合同会社Ｅｓｔｒｅｌｌａ,,合同会社,東京都,港区,浜松町２丁目２番１５号浜松町ダイヤビル２Ｆ,,13,103,1050013,,,,,,,2022-05-17,1,,,,,エストレージャ,0
845,4010403027676,新規,0,2022-05-17,2022-05-17,合同会社ＧＫ０６０,,合同会社,東京都,港区,虎ノ門３丁目２２番１０－２０１号,,13,103,1050001,,,,,,,2022-05-17,1,,,,,ジーケイゼロシックスゼロ,0
870,4011101098852,新規,0,2022-05-17,2022-05-17,ｅｂｉｓｕ株式会社,,株式会社,東京都,新宿区,新宿２丁目３番１１号,,13,104,1600022,,,,,,,2022-05-17,1,,,,,エビス,0
872,4011103011747,新規,0,2022-05-17,2022-05-17,ＴＴＦ合同会社,,合同会社,東京都,新宿区,西新宿３丁目３番１３号西新宿水間ビル６階,,13,104,1600023,,,,,,,2022-05-17,1,,,,,ティーティーエフ,0
876,4011303004410,新規,0,2022-05-17,2022-05-17,合同会社ＧＡＺＥＲ,,合同会社,東京都,杉並区,松ノ木３丁目２４番２０号,,13,115,1660014,,,,,,,2022-05-17,1,,,,,ゲーザ,0
886,4011801040717,新規,0,2022-05-17,2022-05-17,株式会社イールドマーケティング,,株式会社,東京都,葛飾区,青戸１丁目１０番５－７０２号プレミアムフラット青砥駅前,,13,122,1250062,,,,,,,2022-05-17,1,,,,,イールドマーケティング,0
887,4011801040725,新規,0,2022-05-17,2022-05-17,オーアーク株式会社,,株式会社,東京都,足立区,西新井本町５丁目２番４－１０１号,,13,121,1230845,,,,,,,2022-05-17,1,,,,,オーアーク,0
893,4012401039208,新規,0,2022-05-17,2022-05-17,さくら不動産株式会社,,株式会社,東京都,武蔵野市,境南町５丁目１４番１６号,,13,203,1800023,,,,,,,2022-05-17,1,,,,,サクラフドウサン,0
895,4012803002779,新規,0,2022-05-17,2022-05-17,合同会社ネイチャーテック,,合同会社,東京都,立川市,曙町１丁目３２番４２号プラザシティ立川１棟１３０７号,,13,202,1900012,,,,,,,2022-05-17,1,,,,,ネイチャーテック,0
902,4013301049098,新規,0,2022-05-17,2022-05-17,株式会社Ｍｅｌｉｓｓａ,,株式会社,東京都,豊島区,西池袋３丁目２５－２,,13,116,1710021,,,,,,,2022-05-17,1,,,,,,0
904,4020001146547,新規,0,2022-05-17,2022-05-17,株式会社喜喜,,株式会社,神奈川県,横浜市保土ケ谷区,星川１丁目５番１１号,,14,106,2400006,,,,,,,2022-05-17,1,,,,,キキ,0
905,4020003021772,新規,0,2022-05-17,2022-05-17,ものがたり合同会社,,合同会社,神奈川県,横浜市金沢区,釜利谷西１丁目８番４号,,14,108,2360046,,,,,,,2022-05-17,1,,,,,モノガタリ,0
913,4021003011697,新規,0,2022-05-17,2022-05-17,合同会社スタジオこっと,,合同会社,神奈川県,横須賀市,浦郷町１丁目４８番地,,14,201,2370062,,,,,,,2022-05-17,1,,,,,スタジオコット,0
928,4040001123305,新規,0,2022-05-17,2022-05-17,株式会社真心塗装,,株式会社,千葉県,富里市,七栄２６７番地２２,,12,233,2860221,,,,,,,2022-05-17,1,,,,,マゴコロトソウ,0
930,4040003020038,新規,0,2022-05-17,2022-05-17,合同会社ＢＢ　ＧＲＯＵＰ,,合同会社,千葉県,松戸市,新松戸２丁目７２メゾン・ロゼ１階,,12,207,2700034,,,,,,,2022-05-17,1,,,,,ビービーグループ,0
931,4040003020046,新規,0,2022-05-17,2022-05-17,ＬＩＥＮＩＬ合同会社,,合同会社,千葉県,船橋市,本町５丁目４番５号,,12,204,2730005,,,,,,,2022-05-17,1,,,,,リーニル,0
946,4080403004537,新規,0,2022-05-17,2022-05-17,ＪＳＩＪトレーディング合同会社,,合同会社,静岡県,磐田市,水堀２２２番地,,22,211,4380085,,,,,,,2022-05-17,1,,,,,ジェイエスアイジェイトレーディング,0
957,4100003006550,新規,0,2022-05-17,2022-05-17,合同会社Ｄｉｌｓｈａｎ　Ｔｒａｄｉｎｇ,,合同会社,長野県,松本市,大字今井５５８８番地１０,,20,202,3901131,,,,,,,2022-05-17,1,,,,,ディルシャントレーディング,0
958,4100005012877,新規,0,2022-05-17,2022-05-17,一般社団法人ＳＡＫＵ　ＲＥＧＩＯＮ,,その他の設立登記法人,長野県,佐久市,瀬戸１８９２番地１，２－Ｈ,,20,217,3850035,,,,,,,2022-05-17,1,,,,,サクリージョン,0
973,4120001245850,新規,0,2022-05-17,2022-05-17,株式会社創造荘,,株式会社,大阪府,大阪市北区,神山町３番４－２０７号,,27,127,5300026,,,,,,,2022-05-17,1,,,,,ソウゾウソウ,0
974,4120001245933,新規,0,2022-05-17,2022-05-17,株式会社エム・アール・シー,,株式会社,大阪府,大阪市東成区,大今里２丁目８番３１号,,27,115,5370012,,,,,,,2022-05-17,1,,,,,エムアールシー,0
975,4120001245941,新規,0,2022-05-17,2022-05-17,株式会社ＢＩＲＤＳ,,株式会社,大阪府,大阪市天王寺区,上本町８丁目８番３号山和ビル４０２号,,27,109,5430001,,,,,,,2022-05-17,1,,,,,バーズ,0
981,4120101065587,新規,0,2022-05-17,2022-05-17,株式会社Ｍｅｄｖｅｒｉｃｋｓ,,株式会社,大阪府,堺市南区,三原台４丁３番２号,,27,145,5900111,,,,,,,2022-05-17,1,,,,,メドベリックス,0
989,4120901045870,新規,0,2022-05-17,2022-05-17,株式会社北摂企画,,株式会社,大阪府,豊能郡能勢町,倉垣１３５１,,27,322,5630113,,,,,,,2022-05-17,1,,,,,ホクセツキカク,0
990,4120903004156,新規,0,2022-05-17,2022-05-17,合同会社ヘッドルーム,,合同会社,大阪府,箕面市,牧落５丁目８番２－９０７号,,27,220,5620004,,,,,,,2022-05-17,1,,,,,ヘッドルーム,0
992,4122003002338,新規,0,2022-05-17,2022-05-17,フェリックス合同会社,,合同会社,大阪府,東大阪市,足代１丁目２番１３号,,27,227,5770841,,,,,,,2022-05-17,1,,,,,フェリックス,0
996,4130001071767,新規,0,2022-05-17,2022-05-17,株式会社松本組,,株式会社,京都府,京都市北区,衣笠東御所ノ内町１７番地２,,26,101,6038371,,,,,,,2022-05-17,1,,,,,マツモトグミ,0
999,4140001126025,新規,0,2022-05-17,2022-05-17,株式会社グッドライフ,,株式会社,兵庫県,西宮市,中前田町１－２５－３０５,,28,204,6620857,,,,,,,2022-05-17,1,,,,,グッドライフ,0
1003,4150003002685,新規,0,2022-05-17,2022-05-17,合同会社仁Ｓｔｕｄｉｏ,,合同会社,奈良県,生駒市,東旭ケ丘３番２１号,,29,209,6300254,,,,,,,2022-05-17,1,,,,,,0
1004,4160001024185,新規,0,2022-05-17,2022-05-17,株式会社フィックスロジスティクス,,株式会社,滋賀県,大津市,秋葉台２４番３７号,,25,201,5200822,,,,,,,2022-05-17,1,,,,,フィックスロジスティクス,0
1005,4160001024210,新規,0,2022-05-17,2022-05-17,株式会社ＩＥ,,株式会社,滋賀県,大津市,真野普門２丁目５２１番地２,,25,201,5200231,,,,,,,2022-05-17,1,,,,,アイイー,0
1013,4180001151309,新規,0,2022-05-17,2022-05-17,株式会社楽・縁,,株式会社,愛知県,名古屋市中区,金山１丁目１５番１４号トーカンマンション金山１００５号,,23,106,4600022,,,,,,,2022-05-17,1,,,,,ラクエン,0
1014,4180001151325,新規,0,2022-05-17,2022-05-17,株式会社ＲＴＺ,,株式会社,愛知県,名古屋市中区,大須１丁目５番１６号,,23,106,4600011,,,,,,,2022-05-17,1,,,,,アールティージー,0
1024,4180003023828,新規,0,2022-05-17,2022-05-17,ＳＨＩＭＡＤＡ　Ｖｅｎｔｕｒｅｓ合同会社,,合同会社,愛知県,名古屋市中区,栄４丁目４番地９号西新ビル２Ｆ,,23,106,4600008,,,,,,,2022-05-17,1,,,,,シマダベンチャーズ,0
1028,4190001029413,新規,0,2022-05-17,2022-05-17,株式会社ＷＨＩＴＥ　ＢＯＸ,,株式会社,三重県,三重郡菰野町,大字田口新田１９３３番地１,,24,341,5101322,,,,,,,2022-05-17,1,,,,,ホワイトボックス,0
1033,4220001024848,新規,0,2022-05-17,2022-05-17,株式会社Ａｎｌｉｓ,,株式会社,石川県,加賀市,作見町ル４５番地１,,17,206,9220423,,,,,,,2022-05-17,1,,,,,アンリス,0
1049,4260003003912,新規,0,2022-05-17,2022-05-17,合同会社レオ・エナジー,,合同会社,岡山県,倉敷市,神田２丁目３番３３号,,33,202,7128061,,,,,,,2022-05-17,1,,,,,レオエナジー,0
1059,4290003012489,新規,0,2022-05-17,2022-05-17,合同会社ＭＩＹＯｍｉｙｏ,,合同会社,福岡県,福岡市中央区,春吉２丁目１８番６号,,40,133,8100003,,,,,,,2022-05-17,1,,,,,ミヨミヨ,0
1061,4290801028538,新規,0,2022-05-17,2022-05-17,Ｍ’ｓ‐ｓｏｌｕｔｉｏｎ株式会社,,株式会社,福岡県,北九州市若松区,青葉台東２丁目１３番８号,,40,103,8080141,,,,,,,2022-05-17,1,,,,,エムズソリューション,0
1062,4290805009550,新規,0,2022-05-17,2022-05-17,一般社団法人人間発達デザイン研究会,,その他の設立登記法人,福岡県,北九州市八幡西区,藤原３丁目１５番１９号,,40,109,8070873,,,,,,,2022-05-17,1,,,,,ニンゲンハッタツデザインケンキュウカイ,0
1064,4310001017859,新規,0,2022-05-17,2022-05-17,株式会社アンジェラス通り会計事務所,,株式会社,長崎県,長崎市,上野町８－１－１０３,,42,201,8528113,,,,,,,2022-05-17,1,,,,,アンジェラスドオリカイケイジムショ,0
1073,4330001029737,新規,0,2022-05-17,2022-05-17,株式会社佳和,,株式会社,熊本県,宇城市,松橋町曲野２２０番地１,,43,213,8690511,,,,,,,2022-05-17,1,,,,,ヨイワ,0
1077,4340003003788,新規,0,2022-05-17,2022-05-17,合同会社煙福,,合同会社,鹿児島県,鹿児島市,西佐多町２８０番地２２,,46,201,8911301,,,,,,,2022-05-17,1,,,,,エンフク,0
1080,4360001030403,新規,0,2022-05-17,2022-05-17,株式会社ログ,,株式会社,沖縄県,那覇市,樋川１丁目５番３６号ライフワーク樋川６－Ｅ,,47,201,9000022,,,,,,,2022-05-17,1,,,,,ログ,0
1084,4380005012585,新規,0,2022-05-17,2022-05-17,一般社団法人こころのケアまごころ,,その他の設立登記法人,福島県,白河市,新白河３丁目９９番地ビアン本間ＩＩ４０１,00126577,07,205,9610856,,,,,,,2022-05-17,1,,,,,ココロノケアマゴコロ,0
1085,4390001016894,新規,0,2022-05-17,2022-05-17,株式会社ディアプランニング,,株式会社,山形県,山形市,城西町４丁目１番１２－６号,,06,201,9900832,,,,,,,2022-05-17,1,,,,,ディアプランニング,0
1088,4420001017848,新規,0,2022-05-17,2022-05-17,株式会社板橋工業,,株式会社,青森県,八戸市,長者２丁目７番５－２号,,02,203,0310021,,,,,,,2022-05-17,1,,,,,イタバシコウギョウ,0
1103,4462501000932,新規,0,2022-05-17,2022-05-17,株式会社石坂コントラ,,株式会社,北海道,野付郡別海町,西春別４０７番地の１６４,,01,691,0882576,,,,,,,2022-05-17,1,,,,,イシザカコントラ,0
1118,5010001226679,新規,0,2022-05-17,2022-05-17,ＡＴ　ｍａｎａｇｅｍｅｎｔ株式会社,,株式会社,東京都,千代田区,丸の内３丁目１番１号国際ビル,,13,101,1000005,,,,,,,2022-05-17,1,,,,,エーティーマネジメント,0
1123,5010003037612,新規,0,2022-05-17,2022-05-17,合同会社ＲｏｗＣｏｌ,,合同会社,東京都,中央区,銀座１丁目１２－４Ｎ＆ＥＢＬＤ．７階,,13,102,1040061,,,,,,,2022-05-17,1,,,,,ロウカル,0
1126,5010005035003,新規,0,2022-05-17,2022-05-17,一般社団法人六本木リアルティ・スリー,,その他の設立登記法人,東京都,中央区,日本橋１丁目４番１号,,13,102,1030027,,,,,,,2022-05-17,1,,,,,ロッポンギリアルティスリー,0
1127,5010005035011,新規,0,2022-05-17,2022-05-17,エルオージェイ２特定目的会社,,その他の設立登記法人,東京都,千代田区,飯田橋４丁目７番１号結和税理士法人内,,13,101,1020072,,,,,,,2022-05-17,1,,,,,エルオージェイツー,0
1133,5010401167201,新規,0,2022-05-17,2022-05-17,株式会社Ｏｆｆｅｒ　Ｈｕｍａｎ　Ｃｏｎｎｅｃｔｉｏｎ,,株式会社,東京都,港区,虎ノ門３丁目１８－６朝日虎ノ門マンション,,13,103,1050001,,,,,,,2022-05-17,1,,,,,オファーヒューマンコネクション,0
1136,5010403027601,新規,0,2022-05-17,2022-05-17,ＳＦＬ　ＪＡＰＡＮ合同会社,,合同会社,東京都,港区,六本木６丁目１－２０電気ビル５Ｆ，６Ｆ，７Ｆ,,13,103,1060032,,,,,,,2022-05-17,1,,,,,エスエフエルジャパン,0
1137,5010403027675,新規,0,2022-05-17,2022-05-17,合同会社ＧＫ０５９,,合同会社,東京都,港区,虎ノ門３丁目２２番１０－２０１号,,13,103,1050001,,,,,,,2022-05-17,1,,,,,ジーケイゼロファイブナイン,0
1140,5010405020975,新規,0,2022-05-17,2022-05-17,ジー・ジェイ・レジデンス・テン一般社団法人,,その他の設立登記法人,東京都,港区,虎ノ門４丁目３番１号城山トラストタワー２７階ＳａｎｎｅＧｒｏｕｐＪａｐａｎ株式会社内,,13,103,1050001,,,,,,,2022-05-17,1,,,,,ジージェイレジデンステン,0
1141,5010405021016,新規,0,2022-05-17,2022-05-17,ＨＣＢホールディング一般社団法人,,その他の設立登記法人,東京都,港区,西新橋１丁目２番９号メンターキャピタル税理士法人内,,13,103,1050003,,,,,,,2022-05-17,1,,,,,エイチシービーホールディング,0
1160,5011001147403,新規,0,2022-05-17,2022-05-17,株式会社Ｗｅｂｒｙｄａｙ,,株式会社,東京都,渋谷区,渋谷１丁目１７番２号,,13,113,1500002,,,,,,,2022-05-17,1,,,,,ウェブリデイ,0
1168,5011103011746,新規,0,2022-05-17,2022-05-17,合同会社ＫＮＮ企画,,合同会社,東京都,新宿区,新宿５丁目１８番２０号,,13,104,1600022,,,,,,,2022-05-17,1,,,,,ケイエヌエヌキカク,0
1171,5011301027775,新規,0,2022-05-17,2022-05-17,ＮＴＳ株式会社,,株式会社,東京都,杉並区,荻窪２丁目２６－７,,13,115,1670051,,,,,,,2022-05-17,1,,,,,エヌティエス,0
1174,5011601025958,新規,0,2022-05-17,2022-05-17,ＩＯＲＩ株式会社,,株式会社,東京都,練馬区,高松１丁目１１番２号,,13,120,1790075,,,,,,,2022-05-17,1,,,,,イオリ,0
1176,5011801040724,新規,0,2022-05-17,2022-05-17,都株式会社,,株式会社,東京都,足立区,竹の塚２丁目３２番１５号ドミール竹ノ塚１０２号室,,13,121,1210813,,,,,,,2022-05-17,1,,,,,ミヤコ,0
1181,5012701017052,新規,0,2022-05-17,2022-05-17,株式会社ウェル,,株式会社,東京都,清瀬市,上清戸２丁目１２番３３号出下マンション１０８,,13,221,2040013,,,,,,,2022-05-17,1,,,,,ウェル,0
1182,5012803002778,新規,0,2022-05-17,2022-05-17,合同会社ＮＣ１,,合同会社,東京都,国立市,中１丁目１番地の５ミオカステーロ国立ＩＩ２０４,00126580,13,215,1860004,,,,,,,2022-05-17,1,,,,,エヌシーワン,0
1183,5013301049089,新規,0,2022-05-17,2022-05-17,株式会社たま不動産,,株式会社,東京都,豊島区,東池袋３丁目２０－９宏和ビル３階,,13,116,1700013,,,,,,,2022-05-17,1,,,,,タマフドウサン,0
1184,5013303006154,新規,0,2022-05-17,2022-05-17,合同会社諸岡物産,,合同会社,東京都,豊島区,南大塚２丁目２６番５号エーデルハイム１０３号,,13,116,1700005,,,,,,,2022-05-17,1,,,,,モロオカブッサン,0
1193,5020001146546,新規,0,2022-05-17,2022-05-17,ゆく株式会社,,株式会社,神奈川県,川崎市麻生区,上麻生７丁目２５番２４号,,14,137,2150021,,,,,,,2022-05-17,1,,,,,ユク,0
1198,5021003011713,新規,0,2022-05-17,2022-05-17,合同会社ＯｐｅｎＳｅａ,,合同会社,神奈川県,小田原市,根府川６２２番地,,14,206,2500024,,,,,,,2022-05-17,1,,,,,オープンシー,0
1204,5030001148211,新規,0,2022-05-17,2022-05-17,あげおエフエム株式会社,,株式会社,埼玉県,上尾市,大字上１４８１－５３,,11,219,3620001,,,,,,,2022-05-17,1,,,,,アゲオエフエム,0
1214,5030005020861,新規,0,2022-05-17,2022-05-17,一般社団法人オリエンタルヘルスコーチアカデミー,,その他の設立登記法人,埼玉県,志木市,本町４丁目２番２５号ラプラス志木２０１号,,11,228,3530004,,,,,,,2022-05-17,1,,,,,オリエンタルヘルスコーチアカデミー,0
1217,5040001123403,新規,0,2022-05-17,2022-05-17,株式会社アントワークス,,株式会社,千葉県,市川市,新田３丁目１２－１８アシブ市川１０６,,12,203,2720035,,,,,,,2022-05-17,1,,,,,アントワークス,0
1218,5040001123436,新規,0,2022-05-17,2022-05-17,株式会社ＰＨＡＬＡＮＸ,,株式会社,千葉県,習志野市,津田沼７丁目９番３１号,,12,216,2750016,,,,,,,2022-05-17,1,,,,,ファランクス,0
1220,5040003020020,新規,0,2022-05-17,2022-05-17,明成産業合同会社,,合同会社,千葉県,千葉市稲毛区,六方町５３番地１０,,12,103,2630004,,,,,,,2022-05-17,1,,,,,メイセイサンギョウ,0
1221,5040003020045,新規,0,2022-05-17,2022-05-17,合同会社Ｒｉｚホールディングス,,合同会社,千葉県,浦安市,明海４丁目２番,,12,227,2790014,,,,,,,2022-05-17,1,,,,,ライズホールディングス,0
1222,5050001051000,新規,0,2022-05-17,2022-05-17,見野リアルアセット株式会社,,株式会社,茨城県,水戸市,渡里町２６５４,,08,201,3100902,,,,,,,2022-05-17,1,,,,,ミノリアルアセット,0
1225,5050003006563,新規,0,2022-05-17,2022-05-17,合同会社力人,,合同会社,茨城県,稲敷郡阿見町,大字阿見４２８１番地１３ＣＥＲＣＬＥ２号室,,08,443,3000331,,,,,,,2022-05-17,1,,,,,チカラビト,0
1240,5110001036663,新規,0,2022-05-17,2022-05-17,豊邦商事株式会社,,株式会社,新潟県,新潟市南区,杉菜１番５０号,,15,106,9501208,,,,,,,2022-05-17,1,,,,,トヨクニショウジ,0
1247,5120003021563,新規,0,2022-05-17,2022-05-17,合同会社ｖａｌｕｅ　ｃｒｅａｔｉｏｎ,,合同会社,大阪府,大阪市西区,九条１丁目２７－６住友生命九条ビル８０４,,27,106,5500027,,,,,,,2022-05-17,1,,,,,バリュークリエイション,0
1275,5190001029412,新規,0,2022-05-17,2022-05-17,株式会社吉川塾,00126578,株式会社,三重県,松阪市,嬉野黒田町８番地４６,,24,204,5152311,,,,,,,2022-05-17,1,,,,,ヨシカワジュク,0
1278,5220005008672,新規,0,2022-05-17,2022-05-17,特定非営利活動法人ておとりあって,,その他の設立登記法人,石川県,野々市市,本町５丁目１１番１７号,,17,212,9218815,,,,,,,2022-05-17,1,,,,,,0
1281,5240001059783,新規,0,2022-05-17,2022-05-17,株式会社マルシン,,株式会社,広島県,世羅郡世羅町,大字賀茂２７１番地,,34,462,7221626,,,,,,,2022-05-17,1,,,,,マルシン,0
1292,5290001097531,新規,0,2022-05-17,2022-05-17,株式会社Ｎｅｘｔ　Ｓｔａｇｅ,,株式会社,福岡県,福岡市東区,西戸崎３丁目１８番１８号,,40,131,8110321,,,,,,,2022-05-17,1,,,,,ネクストステージ,0
1298,5290005018681,新規,0,2022-05-17,2022-05-17,ＮＰＯ法人しえるの会,,その他の設立登記法人,福岡県,宗像市,池田３３５７番地,,40,220,8113515,,,,,,,2022-05-17,1,,,,,シエルノカイ,0
1302,5340005009460,新規,0,2022-05-17,2022-05-17,特定非営利活動法人おおすみ１００年の森,,その他の設立登記法人,鹿児島県,鹿屋市,下高隈町５４５４番地１１,,46,203,8930132,,,,,,,2022-05-17,1,,,,,オオスミヒャクネンノモリ,0
1304,5360001030393,新規,0,2022-05-17,2022-05-17,株式会社開邦不動産,,株式会社,沖縄県,沖縄市,山内２丁目１５番５号ループキャンビル２階,,47,211,9040034,,,,,,,2022-05-17,1,,,,,カイホウフドウサン,0
1305,5360001030419,新規,0,2022-05-17,2022-05-17,嘉手川工業株式会社,,株式会社,沖縄県,中頭郡嘉手納町,字屋良１００４番地,,47,325,9040202,,,,,,,2022-05-17,1,,,,,カデカワコウギョウ,0
1307,5360005006654,新規,0,2022-05-17,2022-05-17,一般社団法人Ｏｎ‐Ｓｐｏｒｔｓ,,その他の設立登記法人,沖縄県,国頭郡恩納村,字恩納６１３１番地クレアシオン３０１号,,47,311,9040411,,,,,,,2022-05-17,1,,,,,,0
1313,5390001016893,新規,0,2022-05-17,2022-05-17,株式会社ｆａｃｔ,,株式会社,山形県,寒河江市,大字西根字石川西３８５番地の２２,,06,206,9910003,,,,,,,2022-05-17,1,,,,,ファクト,0
1328,5430001086593,新規,0,2022-05-17,2022-05-17,株式会社ＢＯＴＡＮ,,株式会社,北海道,札幌市中央区,南三条西６丁目７番地４アーク３６ビル４Ｆ,,01,101,0600063,,,,,,,2022-05-17,1,,,,,ボタン,0
1331,5470001019079,新規,0,2022-05-17,2022-05-17,株式会社八十八,,株式会社,香川県,高松市,上天神町７７７番地１,,37,201,7618056,,,,,,,2022-05-17,1,,,,,ヤソハチ,0
1351,6010001226455,新規,0,2022-05-17,2022-05-17,株式会社上野グループ,,株式会社,東京都,中央区,築地７丁目５番１－１１０１号,,13,102,1040045,,,,,,,2022-05-17,1,,,,,,0
1352,6010001226686,新規,0,2022-05-17,2022-05-17,株式会社ＣＧＢＯ,,株式会社,東京都,千代田区,神田小川町１丁目３番地１ＮＢＦ小川町ビルディング４階,,13,101,1010052,,,,,,,2022-05-17,1,,,,,シージービーオー,0
1356,6010401167241,新規,0,2022-05-17,2022-05-17,株式会社Ａｎｏｋｕｍａ,,株式会社,東京都,港区,芝大門２丁目３番６号,,13,103,1050012,,,,,,,2022-05-17,1,,,,,アノクマ,0
1357,6010401167274,新規,0,2022-05-17,2022-05-17,株式会社Ｒ　ＤＩＮＩＮＧ,,株式会社,東京都,港区,南麻布２丁目５番１４－９０１号,,13,103,1060047,,,,,,,2022-05-17,1,,,,,アールダイニング,0
1358,6010401167299,新規,0,2022-05-17,2022-05-17,Ｍａｘｅｌｌ　Ｃｏｎｓｕｌｔｉｎｇ株式会社,,株式会社,東京都,港区,芝浦４丁目２０番２－３４０５号,,13,103,1080023,,,,,,,2022-05-17,1,,,,,マクセルコンサルティング,0
1359,6010401167308,新規,0,2022-05-17,2022-05-17,ＭＦＴ　Ｅｎｅｒｇｙ　ＡＰＡＣ３株式会社,,株式会社,東京都,港区,元麻布３丁目１番６号,,13,103,1060046,,,,,,,2022-05-17,1,,,,,エムエフティエナジーエイパックスリー,0
1360,6010401167316,新規,0,2022-05-17,2022-05-17,株式会社ＡＰＰＥＡＬ,,株式会社,東京都,港区,芝浦４丁目２０番２号芝浦アイランドブルームタワー３８２０,,13,103,1080023,,,,,,,2022-05-17,1,,,,,アピール,0
1363,6010403027674,新規,0,2022-05-17,2022-05-17,合同会社ＧＫ０５８,,合同会社,東京都,港区,虎ノ門３丁目２２番１０－２０１号,,13,103,1050001,,,,,,,2022-05-17,1,,,,,ジーケイゼロファイブエイト,0
1376,6011001147435,新規,0,2022-05-17,2022-05-17,株式会社Ａｎｓｅｌ　Ｔｅｃｈｎｏｌｏｇｉｅｓ,,株式会社,東京都,渋谷区,宇田川町３６番２号ノア渋谷１００５,,13,113,1500042,,,,,,,2022-05-17,1,,,,,アンセルテクノロジーズ,0
1383,6011101098842,新規,0,2022-05-17,2022-05-17,株式会社ＣＬＯＡ,,株式会社,東京都,新宿区,歌舞伎町２丁目２７番９号アタックビル４階,,13,104,1600021,,,,,,,2022-05-17,1,,,,,クロア,0
1389,6011301027782,新規,0,2022-05-17,2022-05-17,ソトマメ株式会社,,株式会社,東京都,杉並区,荻窪５丁目２９番１０号本橋ビル５０２,,13,115,1670051,,,,,,,2022-05-17,1,,,,,ソトマメ,0
1392,6011405002203,新規,0,2022-05-17,2022-05-17,特定非営利活動法人グランドフィナーレ,,その他の設立登記法人,東京都,板橋区,小茂根１丁目２４番９－４０１号,,13,119,1730037,,,,,,,2022-05-17,1,,,,,グランドフィナーレ,0
1402,6011801040715,新規,0,2022-05-17,2022-05-17,ＮＴＥＫ株式会社,,株式会社,東京都,足立区,皿沼１丁目１５番７号,,13,121,1230862,,,,,,,2022-05-17,1,,,,,エヌテック,0
1411,6013301049105,新規,0,2022-05-17,2022-05-17,ジェイ・アイ・エヌ株式会社,,株式会社,東京都,豊島区,巣鴨３丁目９番１８号,,13,116,1700002,,,,,,,2022-05-17,1,,,,,ジェイアイエヌ,0
1429,6021001075981,新規,0,2022-05-17,2022-05-17,株式会社Ｐｒｉｍｅ　Ｓｔｅｐ,,株式会社,神奈川県,平塚市,河内６８番地の５,,14,203,2540903,,,,,,,2022-05-17,1,,,,,プライムステップ,0
1441,6030001148045,新規,0,2022-05-17,2022-05-17,株式会社下島工業,,株式会社,埼玉県,春日部市,六軒町３２０番地４,,11,214,3440012,,,,,,,2022-05-17,1,,,,,シモジマコウギョウ,0
1445,6030003019310,新規,0,2022-05-17,2022-05-17,ＦＬＯＷＥＲ合同会社,,合同会社,埼玉県,新座市,片山１丁目１２番１７号,,11,230,3520025,,,,,,,2022-05-17,1,,,,,フラワー,0
1446,6030003019368,新規,0,2022-05-17,2022-05-17,ＦＯＲＴＵＮＡ合同会社,,合同会社,埼玉県,さいたま市岩槻区,大字本宿４６５番地１,,11,110,3390074,,,,,,,2022-05-17,1,,,,,フォルトゥーナ,0
1449,6040001123344,新規,0,2022-05-17,2022-05-17,Ｄｒｉｐｐｅｒｓ株式会社,,株式会社,千葉県,船橋市,湊町２丁目１番１９号ルミエール船橋１０５－Ｂ,,12,204,2730011,,,,,,,2022-05-17,1,,,,,ドリッパーズ,0
1450,6040001123410,新規,0,2022-05-17,2022-05-17,株式会社松戸電設,,株式会社,千葉県,旭市,イの３６０４番地,,12,215,2892511,,,,,,,2022-05-17,1,,,,,マツドデンセツ,0
1451,6040001123427,新規,0,2022-05-17,2022-05-17,ハヤブサ興業株式会社,,株式会社,千葉県,市原市,能満１１０９－７,,12,219,2900011,,,,,,,2022-05-17,1,,,,,ハヤブサコウギョウ,0
1456,6040005021610,新規,0,2022-05-17,2022-05-17,医療法人社団星勇会,,その他の設立登記法人,千葉県,松戸市,本町１５番地の１パークホームズ松戸駅前レジデンス１４０３号,,12,207,2710091,,,,,,,2022-05-17,1,,,,,セイユウカイ,0
1472,6080001024943,新規,0,2022-05-17,2022-05-17,株式会社ＩＯ２Ｕ,,株式会社,静岡県,焼津市,柳新屋５０８番地,,22,212,4250074,,,,,,,2022-05-17,1,,,,,アイオートゥユー,0
1491,6120001245931,新規,0,2022-05-17,2022-05-17,株式会社ＪＷ　Ｃａｐｉｔａｌ　Ｐａｒｔｎｅｒｓ,,株式会社,大阪府,大阪市北区,梅田１丁目１番３号大阪駅前第３ビル２３０７,,27,127,5300001,,,,,,,2022-05-17,1,,,,,ジェイダブリューキャピタルパートナーズ,0
1494,6120003021645,新規,0,2022-05-17,2022-05-17,合同会社ＥＩＧＨＴ,,合同会社,大阪府,大阪市住吉区,万代６丁目２０番５号ＫＵＲＵＭＯＲＥ帝塚山３号,,27,120,5580055,,,,,,,2022-05-17,1,,,,,エイト,0
1542,6220005008671,新規,0,2022-05-17,2022-05-17,一般社団法人能登火様の守り人,,その他の設立登記法人,石川県,七尾市,中島町河内モ部２２番地,,17,202,9292201,,,,,,,2022-05-17,1,,,,,ノトヒサマノモリビト,0
1567,6290003012512,新規,0,2022-05-17,2022-05-17,ＵＩＯ　Ｊａｐａｎ合同会社,,合同会社,福岡県,福岡市中央区,大名２丁目６番１１号,,40,133,8100041,,,,,,,2022-05-17,1,,,,,ユーアイオージャパン,0
1569,6290801028536,新規,0,2022-05-17,2022-05-17,株式会社イノシン,,株式会社,福岡県,直方市,大字下境３９７８番地１１３,,40,204,8220007,,,,,,,2022-05-17,1,,,,,イノシン,0
1573,6340001024735,新規,0,2022-05-17,2022-05-17,奥村事務所株式会社,,株式会社,鹿児島県,鹿児島市,小川町１２番８号,,46,201,8920817,,,,,,,2022-05-17,1,,,,,オクムラジムショ,0
1575,6350001017746,新規,0,2022-05-17,2022-05-17,株式会社紅葉谷林業,,株式会社,宮崎県,小林市,須木内山５１８６番地７内山団地１５－１－１,,45,205,8860115,,,,,,,2022-05-17,1,,,,,モミジヤリンギョウ,0
1577,6360001030401,新規,0,2022-05-17,2022-05-17,株式会社Ｗｉｎｇｓ,,株式会社,沖縄県,中頭郡北谷町,字上勢頭８３７番地１１,,47,326,9040101,,,,,,,2022-05-17,1,,,,,ウィングス,0
1578,6360001030418,新規,0,2022-05-17,2022-05-17,株式会社８ｂｅａｕｔ,,株式会社,沖縄県,石垣市,浜崎町２丁目３－１９メゾンドメームイ１０１,,47,207,9070013,,,,,,,2022-05-17,1,,,,,エイトビュート,0
1597,6430001086634,新規,0,2022-05-17,2022-05-17,株式会社嶋崎商事,00126576,株式会社,北海道,小樽市,桜１丁目２４番２１号,,01,203,0470156,,,,,,,2022-05-17,1,,,,,シマザキショウジ,0
1598,6430001086642,新規,0,2022-05-17,2022-05-17,株式会社やまぐち工業,,株式会社,北海道,札幌市白石区,東札幌四条２丁目２番１２号,,01,104,0030004,,,,,,,2022-05-17,1,,,,,ヤマグチコウギョウ,0
1604,6430003013891,新規,0,2022-05-17,2022-05-17,合同会社ＡＳＴＥＲ　ＩＮＳＵＲＡＮＣＥ　ＳＵＰＰＯＲＴ,,合同会社,北海道,岩見沢市,志文町３０９番地２３号,,01,210,0680833,,,,,,,2022-05-17,1,,,,,アスターインシュランスサポート,0
1609,6500001024215,新規,0,2022-05-17,2022-05-17,株式会社ＳＥＥＤＳ,,株式会社,愛媛県,喜多郡内子町,内子１００１番地,,38,422,7913301,,,,,,,2022-05-17,1,,,,,シーズ,0
1629,7010001226652,新規,0,2022-05-17,2022-05-17,株式会社ｎｉｍ,,株式会社,東京都,中央区,日本橋室町１丁目２番６号日本橋大栄ビル７階,,13,102,1030022,,,,,,,2022-05-17,1,,,,,ニム,0
1637,7010401167208,新規,0,2022-05-17,2022-05-17,株式会社アンドガッツ,,株式会社,東京都,港区,南青山６丁目１２番１号ＴＴＳ南青山ビル３階,,13,103,1070062,,,,,,,2022-05-17,1,,,,,アンドガッツ,0
1638,7010403027649,新規,0,2022-05-17,2022-05-17,ＭｅｔａＬｏｇｉ合同会社,,合同会社,東京都,港区,六本木７丁目６番１８－２６０１号,,13,103,1060032,,,,,,,2022-05-17,1,,,,,メタロジ,0
1645,7010701042639,新規,0,2022-05-17,2022-05-17,日本サイモンホールディング株式会社,,株式会社,東京都,品川区,大井１丁目２５番１号第２河野ビル２Ｆ,,13,109,1400014,,,,,,,2022-05-17,1,,,,,ニホンサイモンホールディング,0
1653,7010901050870,新規,0,2022-05-17,2022-05-17,株式会社アルマザエッヂ,,株式会社,東京都,世田谷区,北沢４丁目４－８,,13,112,1550031,,,,,,,2022-05-17,1,,,,,アルマザエッヂ,0
1663,7011001147161,新規,0,2022-05-17,2022-05-17,Ｔｒａｉｌｂｌａｚｅｒ株式会社,,株式会社,東京都,渋谷区,道玄坂１丁目１０－８渋谷道玄坂東急ビル２Ｆ－Ｃ,,13,113,1500043,,,,,,,2022-05-17,1,,,,,トレイルブレイザー,0
1673,7011401024225,新規,0,2022-05-17,2022-05-17,株式会社Ｍ．ＲｉｃｈＭｏｍ,,株式会社,東京都,板橋区,徳丸５丁目３８番１９号,,13,119,1750083,,,,,,,2022-05-17,1,,,,,エムリッチマム,0
1674,7011401024233,新規,0,2022-05-17,2022-05-17,マイルストーンマネジメント株式会社,,株式会社,東京都,板橋区,南常盤台１丁目１１番６号,,13,119,1740072,,,,,,,2022-05-17,1,,,,,マイルストーンマネジメント,0
1677,7011503005164,新規,0,2022-05-17,2022-05-17,みんなの合同会社,,合同会社,東京都,北区,赤羽北２丁目８－１－１４０２アクトピア北赤羽五番館,,13,117,1150052,,,,,,,2022-05-17,1,,,,,ミンナノ,0
1681,7011801040722,新規,0,2022-05-17,2022-05-17,株式会社ＤＯＲＥ,,株式会社,東京都,葛飾区,西新小岩３丁目１８番４号カルム西新小岩１０号,,13,122,1240025,,,,,,,2022-05-17,1,,,,,ドレ,0
1682,7011803005079,新規,0,2022-05-17,2022-05-17,合同会社ａｎｙ　ｃｈａｎｃｅ,,合同会社,東京都,葛飾区,青戸７丁目３番地１３号,,13,122,1250062,,,,,,,2022-05-17,1,,,,,エニーチャンス,0
1701,7020003021778,新規,0,2022-05-17,2022-05-17,合同会社ＳＡＮＤＳ,,合同会社,神奈川県,横浜市港北区,箕輪町１丁目３０番１,,14,109,2230051,,,,,,,2022-05-17,1,,,,,サンズ,0
1717,7030003019417,新規,0,2022-05-17,2022-05-17,Ｋｅｎｊｉ合同会社,,合同会社,埼玉県,川口市,並木１丁目６番２２号横瀬マンション３０２号,,11,203,3320034,,,,,,,2022-05-17,1,,,,,ケンジ,0
1722,7040001123467,新規,0,2022-05-17,2022-05-17,ｂａｔｆａｃｔｏｒｙ株式会社,,株式会社,千葉県,松戸市,西馬橋４丁目２２０－２,,12,207,2710044,,,,,,,2022-05-17,1,,,,,バットファクトリー,0
1727,7040003020035,新規,0,2022-05-17,2022-05-17,合同会社元三郎,,合同会社,千葉県,柏市,藤心７６番地１０,,12,217,2770034,,,,,,,2022-05-17,1,,,,,ゲンザブロウ,0
1733,7050005013077,新規,0,2022-05-17,2022-05-17,特定非営利活動法人平和ボランティア,,その他の設立登記法人,茨城県,稲敷市,高田１８２０番地１,,08,229,3000511,,,,,,,2022-05-17,1,,,,,ヘイワボランティア,0
1741,7080001024942,新規,0,2022-05-17,2022-05-17,杉浦建築株式会社,,株式会社,静岡県,静岡市駿河区,丸子新田２７５番地の６,,22,102,4210111,,,,,,,2022-05-17,1,,,,,スギウラケンチク,0
1756,7120001245897,新規,0,2022-05-17,2022-05-17,株式会社ＨＡＰＩＳ,,株式会社,大阪府,大阪市福島区,海老江２丁目８番３２号,,27,103,5530001,,,,,,,2022-05-17,1,,,,,ハピス,0
1757,7120001245906,新規,0,2022-05-17,2022-05-17,スレイトン株式会社,,株式会社,大阪府,大阪市港区,市岡元町２丁目６番１１－３０２号,,27,107,5520002,,,,,,,2022-05-17,1,,,,,スレイトン,0
1763,7120003021693,新規,0,2022-05-17,2022-05-17,合同会社Ｘ‐Ｇｕｉｌｄ,,合同会社,大阪府,大阪市北区,梅田１丁目１－３大阪駅前第３ビル２９階１－１－１号室,,27,127,5300001,,,,,,,2022-05-17,1,,,,,クロスギルド,0
1765,7120901045975,新規,0,2022-05-17,2022-05-17,株式会社Ｍ‐Ｆｉｘ,,株式会社,大阪府,高槻市,東上牧３丁目１０番１４号,,27,207,5690002,,,,,,,2022-05-17,1,,,,,エムフィックス,0
1767,7120903004145,新規,0,2022-05-17,2022-05-17,ＮＧＵＹＥＮ　ＫＩＭ合同会社,,合同会社,大阪府,豊中市,利倉西２丁目１番２７号,,27,203,5610844,,,,,,,2022-05-17,1,,,,,グェンキム,0
1769,7130003007931,新規,0,2022-05-17,2022-05-17,合同会社あい,,合同会社,京都府,京都市下京区,綾小路通柳馬場西入綾材木町２００番地４,,26,106,6008072,,,,,,,2022-05-17,1,,,,,アイ,0
1773,7140001126022,新規,0,2022-05-17,2022-05-17,株式会社ＲＡＭＹ,,株式会社,兵庫県,神戸市垂水区,舞多聞西７丁目１番４号,,28,108,6550051,,,,,,,2022-05-17,1,,,,,ラミー,0
1795,7180001151322,新規,0,2022-05-17,2022-05-17,株式会社エルマーナ泉,,株式会社,愛知県,名古屋市東区,泉２丁目４番１７号フォルサ泉３Ａ号,,23,102,4610001,,,,,,,2022-05-17,1,,,,,エルマーナイズミ,0
1797,7180003023833,新規,0,2022-05-17,2022-05-17,合同会社コトイコンサルタンシー,,合同会社,愛知県,名古屋市中村区,名駅１丁目１番１号ＪＰタワー名古屋２１階,,23,105,4500002,,,,,,,2022-05-17,1,,,,,コトイコンサルタクシー,0
1802,7180301036223,新規,0,2022-05-17,2022-05-17,株式会社ＭＧＵ,,株式会社,愛知県,田原市,浦町西側７０番地,,23,231,4413403,,,,,,,2022-05-17,1,,,,,エムジーユウ,0
1803,7180301036231,新規,0,2022-05-17,2022-05-17,ビズライズ株式会社,,株式会社,愛知県,岡崎市,東大友町字並木側１６番地１,,23,202,4440903,,,,,,,2022-05-17,1,,,,,ビズライズ,0
1826,7250001019561,新規,0,2022-05-17,2022-05-17,株式会社由宇商事,,株式会社,山口県,岩国市,由宇町中央１丁目２番８号,,35,208,7401428,,,,,,,2022-05-17,1,,,,,ユウショウジ,0
1835,7290003012494,新規,0,2022-05-17,2022-05-17,合同会社セイド,,合同会社,福岡県,久留米市,宮ノ陣１丁目１１－２７１０,,40,203,8390801,,,,,,,2022-05-17,1,,,,,セイド,0
1836,7290801028543,新規,0,2022-05-17,2022-05-17,ふくろうホーム株式会社,,株式会社,福岡県,北九州市八幡西区,陣原３丁目８番２１号ローズ・フェアリー４０３,,40,109,8070821,,,,,,,2022-05-17,1,,,,,フクロウホーム,0
1847,7340001024734,新規,0,2022-05-17,2022-05-17,株式会社ラポール,,株式会社,鹿児島県,霧島市,隼人町住吉１００番地３,,46,218,8995101,,,,,,,2022-05-17,1,,,,,ラポール,0
1852,7360001030400,新規,0,2022-05-17,2022-05-17,株式会社美健ネイチャーラボ,,株式会社,沖縄県,石垣市,字登野城２２４１番地３９１,,47,207,9070004,,,,,,,2022-05-17,1,,,,,ビケンネイチャーラボ,0
1853,7360001030417,新規,0,2022-05-17,2022-05-17,株式会社離島のミカタ,,株式会社,沖縄県,石垣市,新栄町２３－２４－２Ｆ,,47,207,9070014,,,,,,,2022-05-17,1,,,,,リトウノミカタ,0
1854,7360003012009,新規,0,2022-05-17,2022-05-17,合同会社Ｓｕｒｉ‐ｒｕ,,合同会社,沖縄県,那覇市,繁多川３丁目１４番１６号アーバン繁多川２０２,,47,201,9020071,,,,,,,2022-05-17,1,,,,,,0
1881,7430001086633,新規,0,2022-05-17,2022-05-17,株式会社ＵＰＶＩＬＬＡＧＥ,,株式会社,北海道,札幌市西区,琴似三条３丁目４番４０号,,01,107,0630813,,,,,,,2022-05-17,1,,,,,アップヴィレッジ,0
1890,7490003001659,新規,0,2022-05-17,2022-05-17,合同会社Ｂｅｅ,,合同会社,高知県,宿毛市,平田戸内２１９４番地１５,,39,208,7880000,,,,,,,2022-05-17,1,,,,,ビー,0
1892,7700150104713,新規,0,2022-05-17,2021-09-14,Ｕ．Ｍ．Ｉ　Ｆｉｌｍ　ｍａｋｅｒｓ,,その他,大阪府,箕面市,桜井１丁目２７－２２,,27,220,5620043,,,,,,,2021-09-14,1,,,,,ユーエムアイフイルムメーカース,0
1893,7700150105158,新規,0,2022-05-17,2021-10-07,ＳＨＯＯＺＺ,,その他,福岡県,福岡市南区,屋形原２丁目３３－１,,40,134,8111351,,,,,,,2021-10-07,1,,,,,シユーズ,0
1903,8010001226651,新規,0,2022-05-17,2022-05-17,株式会社ＬＩＢＲＥ,,株式会社,東京都,中央区,銀座１丁目６番６号Ｂ１Ｆ,,13,102,1040061,,,,,,,2022-05-17,1,,,,,リブレ,0
1909,8010003037700,新規,0,2022-05-17,2022-05-17,合同会社オフィス池田,,合同会社,東京都,中央区,日本橋本町４丁目１２番１７号,,13,102,1030023,,,,,,,2022-05-17,1,,,,,オフィスイケダ,0
1926,8010701042646,新規,0,2022-05-17,2022-05-17,Ｇｏｍｅｉｓａ株式会社,,株式会社,東京都,品川区,西五反田１丁目７番１号,,13,109,1410031,,,,,,,2022-05-17,1,,,,,ゴメイサ,0
1927,8010703006236,新規,0,2022-05-17,2022-05-17,合同会社エーアイカンパニー,,合同会社,東京都,品川区,大崎２丁目１１番２号,,13,109,1410032,,,,,,,2022-05-17,1,,,,,エーアイカンパニー,0
1928,8010801032951,新規,0,2022-05-17,2022-05-17,アカウンティング・オートメカ株式会社,,株式会社,東京都,大田区,山王２丁目３－１２－８０３,,13,111,1430023,,,,,,,2022-05-17,1,,,,,アカウンティングオートメカ,0
1929,8010903007380,新規,0,2022-05-17,2022-05-17,世田谷商事合同会社,,合同会社,東京都,世田谷区,経堂２丁目１１番２号,,13,112,1560052,,,,,,,2022-05-17,1,,,,,セタガヤショウジ,0
1940,8011001147342,新規,0,2022-05-17,2022-05-17,株式会社Ｇソリューション,,株式会社,東京都,渋谷区,桜丘町１５番１４号フジビル４０．７Ｆ,,13,113,1500031,,,,,,,2022-05-17,1,,,,,ジーソリューション,0
1944,8011003014697,新規,0,2022-05-17,2022-05-17,合同会社ａｉｒ　ｅｒａ　ｓｔｏｒｙ,,合同会社,東京都,渋谷区,神宮前６丁目２３番４号桑野ビル２階,,13,113,1500001,,,,,,,2022-05-17,1,,,,,エアーエアストーリー,0
1952,8011301027780,新規,0,2022-05-17,2022-05-17,前海紅樹海湾株式会社,,株式会社,東京都,杉並区,梅里２丁目２５番１３号高円寺プラザ２０３号,,13,115,1660011,,,,,,,2022-05-17,1,,,,,ゼンカイコウジュカイワン,0
1958,8011501028018,新規,0,2022-05-17,2022-05-17,Ｄ２ＣアジアＨＤ株式会社,,株式会社,東京都,荒川区,東尾久１丁目４－１２,,13,118,1160012,,,,,,,2022-05-17,1,,,,,ディーツーアジアエイチディ,0
1969,8012403005369,新規,0,2022-05-17,2022-05-17,ＳＹラボ合同会社,,合同会社,東京都,武蔵野市,中町３丁目６番１７－２０７号武蔵野レジデンシア,,13,203,1800006,,,,,,,2022-05-17,1,,,,,エスワイラボ,0
1984,8020003021777,新規,0,2022-05-17,2022-05-17,合同会社ＥＶＡ．ＦＩＲＭＡ　ＮＥＵ,,合同会社,神奈川県,横浜市青葉区,美しが丘西３丁目４３番地２１,,14,117,2250001,,,,,,,2022-05-17,1,,,,,エバフィルマノイ,0
1988,8021001075971,新規,0,2022-05-17,2022-05-17,株式会社ＬＩＦＥ　ＬＩＶＥ,,株式会社,神奈川県,相模原市南区,松が枝町１０番１号ボワ小田急相模原４０２,,14,153,2520313,,,,,,,2022-05-17,1,,,,,ライフライブ,0
2010,8040001123359,新規,0,2022-05-17,2022-05-17,株式会社ＭＫＣ,,株式会社,千葉県,松戸市,竹ケ花西町３０７番地の６,,12,207,2710071,,,,,,,2022-05-17,1,,,,,エムケーシー,0
2011,8040001123417,新規,0,2022-05-17,2022-05-17,元盛せせらぎ酒造株式会社,,株式会社,千葉県,印西市,草深２５０８－１２,,12,231,2701337,,,,,,,2022-05-17,1,,,,,モトモリセセラギシュゾウ,0
2012,8040001123441,新規,0,2022-05-17,2022-05-17,Ｒｉｎ株式会社,,株式会社,千葉県,松戸市,西馬橋幸町１１２番地ロイヤルパレス２０８号,,12,207,2710047,,,,,,,2022-05-17,1,,,,,,0
2013,8040001123466,新規,0,2022-05-17,2022-05-17,服部工業株式会社,,株式会社,千葉県,市原市,辰巳台西４丁目１３番地１,,12,219,2900004,,,,,,,2022-05-17,1,,,,,ハットリコウギョウ,0
2016,8040003020034,新規,0,2022-05-17,2022-05-17,テラス合同会社,,合同会社,千葉県,八街市,東吉田５１７－２３,,12,230,2891114,,,,,,,2022-05-17,1,,,,,テラス,0
2017,8040003020050,新規,0,2022-05-17,2022-05-17,ＪＡＶＩ　ＧＲＯＵＰ合同会社,,合同会社,千葉県,松戸市,新松戸４丁目２４４番地司コーポ１－２０１号,,12,207,2700034,,,,,,,2022-05-17,1,,,,,ジャビグループ,0
2020,8050005013076,新規,0,2022-05-17,2022-05-17,一般社団法人ＳＡＫＡＩ　ＤＡＲＵＳＳＡＬＡＭ　ＩＳＬＡＭＩＣ　ＣＥＮＴＥＲ,,その他の設立登記法人,茨城県,猿島郡境町,上仲町１５４９番地１,,08,546,3060433,,,,,,,2022-05-17,1,,,,,サカイダルサラムイスラミックセンター,0
2028,8080101023273,新規,0,2022-05-17,2022-05-17,株式会社ＩＣＨＩＫＡ,,株式会社,静岡県,三島市,初音台２４番地の５,,22,206,4110018,,,,,,,2022-05-17,1,,,,,イチカ,0
2049,8120001245905,新規,0,2022-05-17,2022-05-17,文江株式会社,,株式会社,大阪府,大阪市港区,市岡元町２丁目６番１１－３０１号,,27,107,5520002,,,,,,,2022-05-17,1,,,,,フミエ,0
2050,8120001245938,新規,0,2022-05-17,2022-05-17,株式会社クラフトテック,,株式会社,大阪府,大阪市西区,京町堀２丁目１３番１０－２０５号,,27,106,5500003,,,,,,,2022-05-17,1,,,,,クラフトテック,0
2062,8120901045974,新規,0,2022-05-17,2022-05-17,株式会社ｍａｋｅ‐ｅｆｆｏｒｔ,,株式会社,大阪府,豊能郡豊能町,ときわ台４丁目１０番地の１９,,27,321,5630102,,,,,,,2022-05-17,1,,,,,メイクエフォート,0
2068,8130003007930,新規,0,2022-05-17,2022-05-17,合同会社ＳＰＡＤＥ,,合同会社,京都府,宇治市,木幡南山５２－７９,,26,204,6110002,,,,,,,2022-05-17,1,,,,,スペード,0
2080,8180001151206,新規,0,2022-05-17,2022-05-17,ティーズエンジニアリング株式会社,,株式会社,愛知県,春日井市,中新町１丁目２５番地３,,23,206,4860956,,,,,,,2022-05-17,1,,,,,ティーズエンジニアリング,0
2081,8180001151338,新規,0,2022-05-17,2022-05-17,株式会社アルファ,,株式会社,愛知県,春日井市,鳥居松町２丁目１８９番地ロイヤルマンション鳥居松５０２号,,23,206,4860844,,,,,,,2022-05-17,1,,,,,アルファ,0
2087,8180003023766,新規,0,2022-05-17,2022-05-17,合同会社ＡＺＩＭＡ,,合同会社,愛知県,名古屋市中村区,那古野１丁目４１番地２号ベルビラ那古野７０２号,,23,105,4500001,,,,,,,2022-05-17,1,,,,,アジマ,0
2111,8260001036852,新規,0,2022-05-17,2022-05-17,株式会社ＴＯＭＯＮＩ,,株式会社,岡山県,岡山市南区,万倍４３番地１,,33,104,7000955,,,,,,,2022-05-17,1,,,,,トモニ,0
2112,8280003001613,新規,0,2022-05-17,2022-05-17,えーる合同会社,,合同会社,島根県,出雲市,中野町７８３番地３,,32,203,6930062,,,,,,,2022-05-17,1,,,,,エール,0
2117,8290801028534,新規,0,2022-05-17,2022-05-17,スリーアローズ株式会社,,株式会社,福岡県,北九州市八幡西区,則松５丁目２１番８号,,40,109,8070831,,,,,,,2022-05-17,1,,,,,,0
2118,8290801028542,新規,0,2022-05-17,2022-05-17,株式会社エステートＹＵＳＨＯ,,株式会社,福岡県,北九州市八幡西区,鷹見台２丁目１２番１５号,,40,109,8070853,,,,,,,2022-05-17,1,,,,,エステートユウショウ,0
2132,8340001024733,新規,0,2022-05-17,2022-05-17,株式会社マーケットデザイン,,株式会社,鹿児島県,霧島市,国分新町２丁目１５番５号,,46,218,8994351,,,,,,,2022-05-17,1,,,,,,0
2135,8360001030416,新規,0,2022-05-17,2022-05-17,株式会社イラブ不動産,,株式会社,沖縄県,那覇市,牧志２丁目１１番２７号,,47,201,9000013,,,,,,,2022-05-17,1,,,,,イラブフドウサン,0
2159,8430001086608,新規,0,2022-05-17,2022-05-17,株式会社ＳＧＲ,,株式会社,北海道,札幌市西区,発寒六条９丁目１３番１０号,,01,107,0630826,,,,,,,2022-05-17,1,,,,,エスジーアール,0
2160,8430001086624,新規,0,2022-05-17,2022-05-17,株式会社Ｇａｒｄｅｎ　Ｖｉｓｉｏｎ　Ａｎｅ,,株式会社,北海道,札幌市厚別区,厚別南４丁目２１番１２号,,01,108,0040022,,,,,,,2022-05-17,1,,,,,ガーデンビジョンアン,0
2163,8430003013907,新規,0,2022-05-17,2022-05-17,合同会社ｃｏｌｌａｂｏｗｏｒｋ,,合同会社,北海道,千歳市,桜木５丁目４番２０－１号,,01,224,0660071,,,,,,,2022-05-17,1,,,,,コラボワーク,0
2182,9010001226485,新規,0,2022-05-17,2022-05-17,ヤタテクノロジーズ株式会社,,株式会社,東京都,中央区,銀座１丁目２２番１１号銀座大竹ビジデンス２階,,13,102,1040061,,,,,,,2022-05-17,1,,,,,ヤタテクノロジーズ,0
2183,9010001226642,新規,0,2022-05-17,2022-05-17,株式会社Ｆｒｏｍ　Ｔｏｋｙｏ,,株式会社,東京都,千代田区,神田小川町２丁目１番９号日米商会ビル４階,,13,101,1010052,,,,,,,2022-05-17,1,,,,,フロムトウキョウ,0
2184,9010001226650,新規,0,2022-05-17,2022-05-17,Ｓｍａｒｔａｉｌｏｒ株式会社,,株式会社,東京都,千代田区,神田小川町２丁目１番地,,13,101,1010052,,,,,,,2022-05-17,1,,,,,スマーテイラー,0
2186,9010003037666,新規,0,2022-05-17,2022-05-17,合同会社Ｓｔｕｄｉｏ　Ｆｏｃｕｓ,,合同会社,東京都,中央区,晴海２丁目３番２－１０１３号,,13,102,1040053,,,,,,,2022-05-17,1,,,,,スタジオフォーカス,0
2187,9010003037699,新規,0,2022-05-17,2022-05-17,合同会社ＣＣ,,合同会社,東京都,千代田区,神田神保町３丁目２３番地４オリオ九段下８０２号,,13,101,1010051,,,,,,,2022-05-17,1,,,,,チヨダクラス,0
2196,9010403027374,新規,0,2022-05-17,2022-05-17,Ａｎｄ　Ｔｒｙ合同会社,,合同会社,東京都,港区,白金２丁目７‐１７‐１０３,,13,103,1080072,,,,,,,2022-05-17,1,,,,,アンドトライ,0
2197,9010403027606,新規,0,2022-05-17,2022-05-17,ＫＹＴＹ合同会社,,合同会社,東京都,港区,浜松町２丁目２番１５号浜松町ダイヤビル２Ｆ,,13,103,1050013,,,,,,,2022-05-17,1,,,,,ケイティ,0
2201,9010601061150,新規,0,2022-05-17,2022-05-17,株式会社ｅｍｍａ,,株式会社,東京都,江東区,千田１３番１４号,,13,108,1350013,,,,,,,2022-05-17,1,,,,,エマ,0
2202,9010701042645,新規,0,2022-05-17,2022-05-17,株式会社嘉宝,,株式会社,東京都,品川区,南大井５丁目５－３プラザ南大井５０５,,13,109,1400013,,,,,,,2022-05-17,1,,,,,カホウ,0
2204,9010803004171,新規,0,2022-05-17,2022-05-17,合同会社Ａｅｇｉｓ,,合同会社,東京都,大田区,仲池上１丁目３３番１０－３０２号,,13,111,1460081,,,,,,,2022-05-17,1,,,,,イージス,0
2207,9010901050737,新規,0,2022-05-17,2022-05-17,虹潤達産業株式会社,,株式会社,東京都,世田谷区,世田谷１丁目４１番２号,,13,112,1540017,,,,,,,2022-05-17,1,,,,,コウジュンタツサンギョウ,0
2219,9011101098864,新規,0,2022-05-17,2022-05-17,Ｅｕｒｏｆｉｎｓ　Ｆｏｏｄ＆Ｆｅｅｄ　Ｔｅｓｔｉｎｇ　Ｊａｐａｎ　Ｈｏｌｄｉｎｇ株式会社,,株式会社,東京都,新宿区,余丁町１０番１０号新宿余丁町ビル４階,,13,104,1620055,,,,,,,2022-05-17,1,,,,,ユーロフィンフードアンドフィードテスティングジャパンホールディング,0
2220,9011103011750,新規,0,2022-05-17,2022-05-17,ヨンチャンランド合同会社,,合同会社,東京都,新宿区,西早稲田２丁目１８番３２号,,13,104,1690051,,,,,,,2022-05-17,1,,,,,ヨンチャンランド,0
2250,9020001146550,新規,0,2022-05-17,2022-05-17,株式会社ＴＥＮＥＴ,,株式会社,神奈川県,横浜市神奈川区,守屋町１丁目２－５,,14,102,2210022,,,,,,,2022-05-17,1,,,,,,0
2253,9020003021776,新規,0,2022-05-17,2022-05-17,合同会社岡崎,,合同会社,神奈川県,横浜市港北区,新吉田東８丁目６番７号,,14,109,2230058,,,,,,,2022-05-17,1,,,,,,0
2254,9020005015529,新規,0,2022-05-17,2022-05-17,一般社団法人日本医療法務学会,,その他の設立登記法人,神奈川県,横浜市中区,本町２丁目２２番地京阪横浜ビル２階,,14,104,2310005,,,,,,,2022-05-17,1,,,,,ニホンイリョウホウムガッカイ,0
2257,9021001075962,新規,0,2022-05-17,2022-05-17,ＣＨＯＥＭＵ株式会社,,株式会社,神奈川県,横須賀市,根岸町５丁目１９番４１号,,14,201,2390807,,,,,,,2022-05-17,1,,,,,チョーエム,0
2268,9030001148240,新規,0,2022-05-17,2022-05-17,三晟株式会社,,株式会社,埼玉県,蕨市,塚越２丁目１３番１７号,,11,223,3350002,,,,,,,2022-05-17,1,,,,,サンセイ,0
2281,9040001123449,新規,0,2022-05-17,2022-05-17,株式会社ケーツーサービス,,株式会社,千葉県,山武市,松尾町武野里２８２９番地,,12,237,2891532,,,,,,,2022-05-17,1,,,,,ケーツーサービス,0
2288,9040003020033,新規,0,2022-05-17,2022-05-17,Ｃｏｃｏｗｏｒｋｓ合同会社,,合同会社,千葉県,夷隅郡御宿町,御宿台１２７番地１０,,12,443,2995112,,,,,,,2022-05-17,1,,,,,ココワークス,0
2297,9060001034875,新規,0,2022-05-17,2022-05-17,株式会社大和グループ,,株式会社,栃木県,宇都宮市,上戸祭４丁目１７番２２－１号,,09,201,3200058,,,,,,,2022-05-17,1,,,,,ヤマトグループ,0
2320,9120001245929,新規,0,2022-05-17,2022-05-17,足尾塗装店株式会社,,株式会社,大阪府,大阪市東淀川区,瑞光５丁目９－２,,27,114,5330005,,,,,,,2022-05-17,1,,,,,アシオトソウテン,0
2323,9120003021691,新規,0,2022-05-17,2022-05-17,ＴＩＤＥ合同会社,,合同会社,大阪府,大阪市福島区,福島７丁目９－４１Ｆ,,27,103,5530003,,,,,,,2022-05-17,1,,,,,タイド,0
2336,9130005016482,新規,0,2022-05-17,2022-05-17,一般社団法人にじいろカエデの木乳児園,,その他の設立登記法人,京都府,京都市右京区,嵯峨野清水町２１－６６,,26,108,6168312,,,,,,,2022-05-17,1,,,,,ニジイロカエデノキニュウジエン,0
2344,9140001125988,新規,0,2022-05-17,2022-05-17,ＫＪＫ株式会社,,株式会社,兵庫県,尼崎市,尾浜町２丁目２７番１６号,,28,202,6610022,,,,,,,2022-05-17,1,,,,,ケイジェイケイ,0
2360,9180001151304,新規,0,2022-05-17,2022-05-17,株式会社バーニーズ,,株式会社,愛知県,名古屋市西区,大野木４丁目１９３番地,,23,104,4520803,,,,,,,2022-05-17,1,,,,,バーニーズ,0
2366,9180003023831,新規,0,2022-05-17,2022-05-17,合同会社御器所サポート,,合同会社,愛知県,名古屋市昭和区,御器所４丁目１８番５号,,23,107,4660051,,,,,,,2022-05-17,1,,,,,ゴキソサポート,0
2368,9180301036213,新規,0,2022-05-17,2022-05-17,株式会社リアストテック,,株式会社,愛知県,豊田市,亀首町雁ケ根３１番地１５７,,23,211,4700375,,,,,,,2022-05-17,1,,,,,リアストテック,0
2370,9180305009339,新規,0,2022-05-17,2022-05-17,バンベール豊田寿管理組合法人,,その他の設立登記法人,愛知県,豊田市,寿町４丁目３６番地,,23,211,4710834,,,,,,,2022-05-17,1,,,,,バンベールトヨタコトブキ,0
2371,9190001029417,新規,0,2022-05-17,2022-05-17,株式会社オフィスワークサポート,,株式会社,三重県,いなべ市,藤原町市場６８５番地１,,24,214,5110511,,,,,,,2022-05-17,1,,,,,オフィスワークサポート,0
2378,9260001036851,新規,0,2022-05-17,2022-05-17,あぐりビジネス株式会社,,株式会社,岡山県,玉野市,八浜町大崎４９２番地１,,33,204,7060224,,,,,,,2022-05-17,1,,,,,アグリビジネス,0
2387,9290001097528,新規,0,2022-05-17,2022-05-17,株式会社ＡＨＳ,,株式会社,福岡県,福岡市西区,大字田尻２５２３番地４,,40,135,8190383,,,,,,,2022-05-17,1,,,,,エーエッチエス,0
2388,9290001097536,新規,0,2022-05-17,2022-05-17,株式会社ＤｅｅＬ,,株式会社,福岡県,福岡市中央区,大名２丁目９－３５トウセン天神ビル９Ｆ,,40,133,8100041,,,,,,,2022-05-17,1,,,,,ディール,0
2389,9290001097552,新規,0,2022-05-17,2022-05-17,株式会社ＳＪジャパン,,株式会社,福岡県,福岡市城南区,南片江２丁目５番９－３０６号,,40,136,8140143,,,,,,,2022-05-17,1,,,,,エスジェイジャパン,0
2394,9290801028541,新規,0,2022-05-17,2022-05-17,株式会社本村住設,,株式会社,福岡県,北九州市八幡西区,星ケ丘４丁目１番７号,,40,109,8071264,,,,,,,2022-05-17,1,,,,,モトムラジュウセツ,0
2397,9310003004363,新規,0,2022-05-17,2022-05-17,合同会社ゆかいなカゴ屋さん,,合同会社,長崎県,諫早市,宗方町３９５番地,,42,204,8540035,,,,,,,2022-05-17,1,,,,,ユカイナカゴヤサン,0
2399,9320003003810,新規,0,2022-05-17,2022-05-17,いみる徳合同会社,,合同会社,大分県,竹田市,荻町恵良原２１９７番地,,44,208,8796113,,,,,,,2022-05-17,1,,,,,イミルトク,0
2403,9330005010515,新規,0,2022-05-17,2022-05-17,一般社団法人常楽寺,,その他の設立登記法人,熊本県,上益城郡益城町,大字小池３８１１,,43,443,8612223,,,,,,,2022-05-17,1,,,,,ジョウラクジ,0
2409,9360001030423,新規,0,2022-05-17,2022-05-17,勇工業株式会社,,株式会社,沖縄県,島尻郡八重瀬町,字友寄５８番地５,,47,362,9010411,,,,,,,2022-05-17,1,,,,,ユウコウギョウ,0
2410,9360003012007,新規,0,2022-05-17,2022-05-17,合同会社ＲＥＳＰＯ,,合同会社,沖縄県,沖縄市,登川１丁目１２番９号,,47,211,9042142,,,,,,,2022-05-17,1,,,,,レスポ,0
2414,9370001048563,新規,0,2022-05-17,2022-05-17,シリウス株式会社,,株式会社,宮城県,仙台市青葉区,台原森林公園１番１－１００６号,,04,101,9810903,,,,,,,2022-05-17,1,,,,,シリウス,0
2418,9390003001956,新規,0,2022-05-17,2022-05-17,合同会社いえる,,合同会社,山形県,天童市,老野森２丁目７番２３号,,06,210,9940013,,,,,,,2022-05-17,1,,,,,イエル,0
2419,9420001017851,新規,0,2022-05-17,2022-05-17,株式会社アイビーガード,,株式会社,青森県,青森市,松森１丁目１２番１３号,,02,201,0300965,,,,,,,2022-05-17,1,,,,,アイビーガード,0
2423,9430001086598,新規,0,2022-05-17,2022-05-17,ＵＮＶＥＬＬ株式会社,,株式会社,北海道,勇払郡厚真町,新町１０５番地,,01,581,0591623,,,,,,,2022-05-17,1,,,,,アンベル,0
2424,9430001086607,新規,0,2022-05-17,2022-05-17,株式会社クローバー,,株式会社,北海道,札幌市白石区,北郷四条４丁目８番３号,,01,104,0030834,,,,,,,2022-05-17,1,,,,,クローバー,0
2425,9430001086615,新規,0,2022-05-17,2022-05-17,株式会社再創,,株式会社,北海道,札幌市豊平区,月寒東四条１８丁目２番６号,,01,105,0620054,,,,,,,2022-05-17,1,,,,,サイソウ,0
2426,9430001086680,新規,0,2022-05-17,2022-05-17,Ｃｒｅａｔｅ　Ｌａｂ株式会社,,株式会社,北海道,札幌市中央区,南九条西９丁目１番３５－２０２号,,01,101,0640809,,,,,,,2022-05-17,1,,,,,クリエイトラボ,0
2428,9430003013906,新規,0,2022-05-17,2022-05-17,合同会社エープラス,,合同会社,北海道,千歳市,錦町１丁目１番地の２たいせつビル１階,,01,224,0660064,,,,,,,2022-05-17,1,,,,,エープラス,0
2429,9460001005695,新規,0,2022-05-17,2022-05-17,株式会社エヌ．イエロー,,株式会社,北海道,釧路市,貝塚３丁目７番２２号,,01,206,0850816,,,,,,,2022-05-17,1,,,,,エヌイエロー,0
2431,9460301005065,新規,0,2022-05-17,2022-05-17,株式会社ウィズ,,株式会社,北海道,北見市,美山町東３丁目７０番地１８２,,01,208,0900069,,,,,,,2022-05-17,1,,,,,ウィズ,0
2434,9480005006903,新規,0,2022-05-17,2022-05-17,特定非営利活動法人スポーツ巡回ネットワーク,,その他の設立登記法人,徳島県,徳島市,東沖洲２丁目１５－２シーサイドフットサル徳島事務局内,,36,201,7700873,,,,,,,2022-05-17,1,,,,,スポーツジュンカイネットワーク,0
