sequenceNumber,corporateNumber,process,correct,updateDate,changeDate,name,nameImageId,kind,prefectureName,cityName,streetNumber,addressImageId,prefectureCode,cityCode,postCode,addressOutside,addressOutsideImageId,closeDate,closeCause,successorCorporateNumber,changeCause,assignmentDate,latest,enName,enPrefectureName,enCityName,enAddressOutside,furigana,hihyoji
8,1010005036038,新規,0,2023-01-04,2023-01-04,一般社団法人Ｗｅｂアート文化基金,,その他の設立登記法人,東京都,中央区,銀座１丁目１２番４号Ｎ＆ＥＢＬＤ．６Ｆ,,13,102,1040061,,,,,,,2023-01-04,1,,,,,ウェブアートブンカキキン,0
13,1010401171586,新規,0,2023-01-04,2023-01-04,ＬＳ‐ＳＨＩＰ第３５号株式会社,,株式会社,東京都,港区,六本木１丁目６番１号,,13,103,1060032,,,,,,,2023-01-04,1,,,,,エルエスシップダイサンジュウゴゴウ,0
14,1010401171594,新規,0,2023-01-04,2023-01-04,ＬＳ‐Ａｖｉａｔｉｏｎ第４８号株式会社,,株式会社,東京都,港区,六本木１丁目６番１号,,13,103,1060032,,,,,,,2023-01-04,1,,,,,エルエスアビエーションダイヨンジュウハチゴウ,0
15,1010401171611,新規,0,2023-01-04,2023-01-04,株式会社ファーストエイト,,株式会社,東京都,港区,六本木５丁目１番１０号,,13,103,1060032,,,,,,,2023-01-04,1,,,,,ファーストエイト,0
16,1010403029213,新規,0,2023-01-04,2023-01-04,合同会社ビクトリア,,合同会社,東京都,港区,南青山２丁目２番１５号,,13,103,1070062,,,,,,,2023-01-04,1,,,,,ビクトリア,0
25,1010903007866,新規,0,2023-01-04,2023-01-04,太子堂クラブ合同会社,,合同会社,東京都,世田谷区,太子堂５丁目１番１３号,,13,112,1540004,,,,,,,2023-01-04,1,,,,,タイシドウクラブ,0
35,1011301028356,新規,0,2023-01-04,2023-01-04,株式会社ＰＬＡＮＴ,,株式会社,東京都,杉並区,井草２丁目３５番１２－６－３０７号,,13,115,1670021,,,,,,,2023-01-04,1,,,,,プラント,0
46,1012701007445,新規,0,2023-01-04,2023-01-04,日産チェリー東村山販売株式会社,,株式会社,東京都,東村山市,本町１丁目９番地１号,,13,213,1890014,,,,,,,2023-01-04,1,,,,,ニッサンチェリーヒガシムラヤマハンバイ,0
53,1013301050125,新規,0,2023-01-04,2023-01-04,致栄株式会社,,株式会社,東京都,豊島区,長崎６丁目１０－１２ベルハイム東長崎１０６,,13,116,1710051,,,,,,,2023-01-04,1,,,,,チエイ,0
64,1020001149429,新規,0,2023-01-04,2023-01-04,株式会社慧美ソリューション,,株式会社,神奈川県,横浜市旭区,中沢３丁目２６番１７号,,14,112,2410814,,,,,,,2023-01-04,1,,,,,,0
65,1020001149619,新規,0,2023-01-04,2023-01-04,Ｌｉｃｅｎｓｅ　Ｐｏｗｅｒ株式会社,,株式会社,神奈川県,横浜市栄区,中野町１１１１番地１９,,14,115,2470015,,,,,,,2023-01-04,1,,,,,ライセンスパワー,0
67,1020003022996,新規,0,2023-01-04,2023-01-04,合同会社ＳａＧａＳ,,合同会社,神奈川県,川崎市多摩区,中野島６丁目２６番１０－２０１号,,14,135,2140012,,,,,,,2023-01-04,1,,,,,サガス,0
70,1021001077834,新規,0,2023-01-04,2023-01-04,株式会社高橋仮設,,株式会社,神奈川県,大和市,深見西７丁目２番５号,,14,213,2420018,,,,,,,2023-01-04,1,,,,,タカハシカセツ,0
74,1021003012558,新規,0,2023-01-04,2023-01-04,合同会社虎ノ子,,合同会社,神奈川県,相模原市中央区,清新５丁目２４番１４号,,14,152,2520216,,,,,,,2023-01-04,1,,,,,トラノコ,0
80,1030001151672,新規,0,2023-01-04,2023-01-04,森本販売株式会社,,株式会社,埼玉県,蕨市,中央１丁目１６番３４号,,11,223,3350004,,,,,,,2023-01-04,1,,,,,モリモトハンバイ,0
85,1040003021591,新規,0,2023-01-04,2023-01-04,プロスパー合同会社,,合同会社,千葉県,船橋市,夏見５丁目１９－６,,12,204,2730865,,,,,,,2023-01-04,1,,,,,プロスパー,0
89,1050001052167,新規,0,2023-01-04,2023-01-04,株式会社ＷＯＲＬＤＦＵＮ,,株式会社,茨城県,結城市,大字結城１１９１０番地１６,,08,207,3070001,,,,,,,2023-01-04,1,,,,,ワールドファン,0
94,1080003002919,新規,0,2023-01-04,2023-01-04,合同会社ウルフベース,,合同会社,静岡県,静岡市葵区,羽鳥１丁目１７－３２,,22,101,4211215,,,,,,,2023-01-04,1,,,,,ウルフベース,0
96,1080401026222,新規,0,2023-01-04,2023-01-04,新浜国際株式会社,,株式会社,静岡県,浜松市中区,田町２２３番地の２１ビオラ田町３階,,22,131,4300944,,,,,,,2023-01-04,1,,,,,ニイハマコクサイ,0
98,1080405007508,新規,0,2023-01-04,2023-01-04,行政書士法人ふじた事務所,,その他の設立登記法人,静岡県,浜松市西区,馬郡町２２３４番地の１０３,,22,133,4310203,,,,,,,2023-01-04,1,,,,,フジタジムショ,0
105,1110001037203,新規,0,2023-01-04,2023-01-04,株式会社ＩＧＹ,,株式会社,新潟県,長岡市,愛宕２丁目６番１１号,,15,202,9400036,,,,,,,2023-01-04,1,,,,,アイジーワイ,0
114,1120001251389,新規,0,2023-01-04,2023-01-04,株式会社花立ビル管理,,株式会社,大阪府,大阪市住吉区,長居３丁目２番９－２０１号,,27,120,5580003,,,,,,,2023-01-04,1,,,,,ハナタテビルカンリ,0
115,1120001251406,新規,0,2023-01-04,2023-01-04,株式会社未来耀きホーム,,株式会社,大阪府,枚方市,西禁野２丁目２－２６－５０２,,27,210,5731192,,,,,,,2023-01-04,1,,,,,ミライカガヤキホーム,0
125,1122003002480,新規,0,2023-01-04,2023-01-04,ＴＯＮＧＳ合同会社,,合同会社,大阪府,東大阪市,小若江３丁目６番９号,,27,227,5770818,,,,,,,2023-01-04,1,,,,,トングス,0
130,1130003008407,新規,0,2023-01-04,2023-01-04,合同会社ｏｆｆｉｃｅ　Ｂｏｕｎｃｅ　Ｂａｃｋ,,合同会社,京都府,京都市伏見区,竹田西桶ノ井町１９番地２０３,,26,109,6128428,,,,,,,2023-01-04,1,,,,,オフィスバウンスバック,0
136,1140001063163,新規,0,2023-01-04,2023-01-04,山陽開発株式会社,,株式会社,兵庫県,姫路市,新在家中の町１２番１４号,,28,201,6700094,,,,,,,2023-01-04,1,,,,,サンヨウカイハツ,0
163,1200001040817,新規,0,2023-01-04,2023-01-04,株式会社おもち,,株式会社,岐阜県,岐阜市,大洞柏台７丁目７番地,,21,201,5013123,,,,,,,2023-01-04,1,,,,,オモチ,0
171,1290001100050,新規,0,2023-01-04,2023-01-04,株式会社アリソンプレイス,,株式会社,福岡県,福岡市早良区,曙２丁目１１番２０－９０１号,,40,137,8140004,,,,,,,2023-01-04,1,,,,,アリソンプレイス,0
172,1290003013358,新規,0,2023-01-04,2023-01-04,合同会社Ｈｅａｔｓ,,合同会社,福岡県,うきは市,吉井町１３２４番地１,,40,225,8391321,,,,,,,2023-01-04,1,,,,,ヒーツ,0
173,1290003013366,新規,0,2023-01-04,2023-01-04,合同会社ＨＡＲＥ,,合同会社,福岡県,福岡市博多区,博多駅前１丁目２３番１号ＰａｒｋＦｒｏｎｔ博多駅前一丁目５Ｆ－Ｂ,,40,132,8120011,,,,,,,2023-01-04,1,,,,,ハレ,0
175,1290005018891,新規,0,2023-01-04,2023-01-04,医療法人すみれ会,,その他の設立登記法人,福岡県,福岡市南区,長丘５丁目２５番１９号,,40,134,8150075,,,,,,,2023-01-04,1,,,,,スミレカイ,0
177,1290801029159,新規,0,2023-01-04,2023-01-04,株式会社ゴーゴーカンパニー,,株式会社,福岡県,北九州市八幡東区,大蔵２丁目４番５号,,40,108,8050048,,,,,,,2023-01-04,1,,,,,ゴーゴーカンパニー,0
181,1300002007680,新規,0,2023-01-04,2023-01-04,有限会社エッセイ,,有限会社,佐賀県,伊万里市,東山代町長浜１５４２番地６,,41,205,8494271,,,,,,,2023-01-04,1,,,,,エッセイ,0
189,1340003004005,新規,0,2023-01-04,2023-01-04,合同会社まこと,,合同会社,鹿児島県,鹿児島市,東谷山５丁目２４－８トパーズ東谷山２０１,,46,201,8910113,,,,,,,2023-01-04,1,,,,,マコト,0
191,1360003012600,新規,0,2023-01-04,2023-01-04,合同会社ｅ．Ｓｕｎｄａｙ,,合同会社,沖縄県,那覇市,上之屋１丁目４番４７号,,47,201,9000011,,,,,,,2023-01-04,1,,,,,イーサンデー,0
209,1430001088107,新規,0,2023-01-04,2023-01-04,アンクルセブン株式会社,,株式会社,北海道,虻田郡倶知安町,ニセコひらふ五条２丁目６番１５号,,01,400,0440086,,,,,,,2023-01-04,1,,,,,アンクルセブン,0
210,1430001088123,新規,0,2023-01-04,2023-01-04,株式会社小川工業,,株式会社,北海道,札幌市白石区,川北三条１丁目５番１６号,,01,104,0030853,,,,,,,2023-01-04,1,,,,,オガワコウギョウ,0
222,1480001011963,新規,0,2023-01-04,2023-01-04,かきの株式会社,,株式会社,徳島県,海部郡美波町,山河内字外ノ牟井１番地６,,36,387,7792307,,,,,,,2023-01-04,1,,,,,カキノ,0
234,2010001231946,新規,0,2023-01-04,2023-01-04,株式会社Ｅｓｔｒｅｌｌａ　Ｗｅｂ　Ｓｔｕｄｉｏ,,株式会社,東京都,千代田区,神田和泉町一丁目６番１６号ヤマトビル４０５,,13,101,1010024,,,,,,,2023-01-04,1,,,,,エストレイアウェブスタジオ,0
235,2010001231954,新規,0,2023-01-04,2023-01-04,株式会社タイセイ,,株式会社,東京都,千代田区,神田和泉町一丁目６番１６号ヤマトビル４０５,,13,101,1010024,,,,,,,2023-01-04,1,,,,,タイセイ,0
244,2010401171585,新規,0,2023-01-04,2023-01-04,ＬＳ‐ＳＨＩＰ第３４号株式会社,,株式会社,東京都,港区,六本木１丁目６番１号,,13,103,1060032,,,,,,,2023-01-04,1,,,,,エルエスシップダイサンジュウヨンゴウ,0
245,2010401171593,新規,0,2023-01-04,2023-01-04,ＬＳ‐Ａｖｉａｔｉｏｎ第４９号株式会社,,株式会社,東京都,港区,六本木１丁目６番１号,,13,103,1060032,,,,,,,2023-01-04,1,,,,,エルエスアビエーションダイヨンジュウキュウゴウ,0
246,2010403029187,新規,0,2023-01-04,2023-01-04,合同会社Ｒｘ,,合同会社,東京都,港区,海岸１丁目１３番１５－２０５号,,13,103,1050022,,,,,,,2023-01-04,1,,,,,アールエックス,0
248,2010405021704,新規,0,2023-01-04,2023-01-04,司法書士法人柏戸事務所,,その他の設立登記法人,東京都,港区,北青山２丁目７番２６号,,13,103,1070061,,,,,,,2023-01-04,1,,,,,カシワドジムショ,0
251,2010603009922,新規,0,2023-01-04,2023-01-04,合同会社花筐,,合同会社,東京都,江東区,亀戸６丁目４０－２１－９０２,,13,108,1360071,,,,,,,2023-01-04,1,,,,,ハナガタミ,0
278,2011303004619,新規,0,2023-01-04,2023-01-04,ＣＨＨＩＭＫＥＳＡＲＩ合同会社,,合同会社,東京都,杉並区,成田西３丁目１７－２３オークハイツ２０５号,,13,115,1660016,,,,,,,2023-01-04,1,,,,,チムケサリ,0
287,2012403005705,新規,0,2023-01-04,2023-01-04,Ｏｒｇａ合同会社,,合同会社,東京都,府中市,四谷１丁目１６－６１,,13,206,1830035,,,,,,,2023-01-04,1,,,,,オルガ,0
288,2012701007444,新規,0,2023-01-04,2023-01-04,日産チェリー田無販売株式会社,,株式会社,東京都,西東京市,田無町１丁目８番２６号,,13,229,1880011,,,,,,,2023-01-04,1,,,,,ニッサンチェリータナシハンバイ,0
289,2012703002609,新規,0,2023-01-04,2023-01-04,合同会社ＭＥＤＰＥＲ,,合同会社,東京都,西東京市,ひばりが丘１丁目４－２５メゾンピレネ２０１号室,,13,229,2020001,,,,,,,2023-01-04,1,,,,,メドパー,0
299,2013301050124,新規,0,2023-01-04,2023-01-04,株式会社ＵｐＦｉｅｌｄ,,株式会社,東京都,豊島区,池袋２丁目３６番１号ＢＩＺｃｏｍｆｏｒｔ６Ｆ,,13,116,1710014,,,,,,,2023-01-04,1,,,,,アップフィールド,0
300,2013301050132,新規,0,2023-01-04,2023-01-04,マダラメデジタル株式会社,,株式会社,東京都,豊島区,巣鴨１丁目１７番３号子野ビル３０４号室,,13,116,1700002,,,,,,,2023-01-04,1,,,,,マダラメデジタル,0
303,2020003022995,新規,0,2023-01-04,2023-01-04,合同会社ビークローバー,,合同会社,神奈川県,川崎市宮前区,西野川１丁目１９－４９,,14,136,2160044,,,,,,,2023-01-04,1,,,,,ビークローバー,0
305,2021001077825,新規,0,2023-01-04,2023-01-04,株式会社Ｋｅｎｍａｔ,,株式会社,神奈川県,相模原市中央区,清新７丁目６番１－８０２号,,14,152,2520216,,,,,,,2023-01-04,1,,,,,ケンマット,0
306,2021002019735,新規,0,2023-01-04,2023-01-04,有限会社ケーアイ,,有限会社,神奈川県,相模原市,南橋本３丁目３番２１号,,14,209,2291133,,,,,,,2023-01-04,1,,,,,ケーアイ,0
324,2040005021845,新規,0,2023-01-04,2023-01-04,一般社団法人さんむ・アクションミュージアム,,その他の設立登記法人,千葉県,山武市,富田トの１１７１番地２,,12,237,2891321,,,,,,,2023-01-04,1,,,,,サンムアクションミュージアム,0
331,2080101023725,新規,0,2023-01-04,2023-01-04,株式会社スズキ,,株式会社,静岡県,駿東郡清水町,久米田７９番地,,22,341,4110911,,,,,,,2023-01-04,1,,,,,スズキ,0
332,2080401026221,新規,0,2023-01-04,2023-01-04,金山株式会社,,株式会社,静岡県,浜松市南区,小沢渡町１９１５番地の１,,22,134,4328063,,,,,,,2023-01-04,1,,,,,キンザン,0
347,2120001251413,新規,0,2023-01-04,2023-01-04,株式会社Ｒａｉｓｅ７,,株式会社,大阪府,枚方市,堤町１０番２４号,,27,210,5730057,,,,,,,2023-01-04,1,,,,,レイズセブン,0
349,2120003023141,新規,0,2023-01-04,2023-01-04,合同会社ＭＩＮＨ　ＮＨＡＴ　ＯＦＦＩＣＩＡＬ,,合同会社,大阪府,大阪市港区,市岡２丁目５番１６号市岡テラスＢ棟２０１号,,27,107,5520012,,,,,,,2023-01-04,1,,,,,ミンニャットオフィシャル,0
351,2120005023379,新規,0,2023-01-04,2023-01-04,司法書士法人水落綜合事務所,,その他の設立登記法人,大阪府,大阪市城東区,中央２丁目１２番１４号,,27,118,5360005,,,,,,,2023-01-04,1,,,,,ミズオチソウゴウジムショ,0
353,2120101066744,新規,0,2023-01-04,2023-01-04,株式会社ＳＦ　Ｐａｒｔｎｅｒｓ,,株式会社,大阪府,堺市南区,深阪南２１３番地２－３０３,,27,145,5900103,,,,,,,2023-01-04,1,,,,,エスエフパートナーズ,0
354,2120901046920,新規,0,2023-01-04,2023-01-04,株式会社はやりお,,株式会社,大阪府,池田市,豊島北２丁目７番１６－２号,,27,204,5630036,,,,,,,2023-01-04,1,,,,,ハヤリオ,0
364,2130003008406,新規,0,2023-01-04,2023-01-04,合同会社ＣＧＣ,,合同会社,京都府,京都市左京区,田中上柳町１２番地,,26,103,6068205,,,,,,,2023-01-04,1,,,,,シージーシー,0
380,2180001154370,新規,0,2023-01-04,2023-01-04,ブエナヴィーダ株式会社,,株式会社,愛知県,名古屋市中区,大須１丁目７番１４号パークＩＭビル２Ｆ,,23,106,4600011,,,,,,,2023-01-04,1,,,,,ブエナヴィーダ,0
385,2190001030059,新規,0,2023-01-04,2023-01-04,株式会社肉のさとう,,株式会社,三重県,四日市市,塩浜本町１丁目８６番地２,,24,202,5100854,,,,,,,2023-01-04,1,,,,,ニクノサトウ,0
390,2200001040816,新規,0,2023-01-04,2023-01-04,株式会社瑞輝,,株式会社,岐阜県,大垣市,開発町５丁目５３９番地１,,21,202,5030002,,,,,,,2023-01-04,1,,,,,ミズキ,0
399,2240001060868,新規,0,2023-01-04,2023-01-04,金広貿易株式会社,,株式会社,広島県,山県郡北広島町,蔵迫４４１番地１,,34,369,7311502,,,,,,,2023-01-04,1,,,,,カネヒロボウエキ,0
400,2240001060876,新規,0,2023-01-04,2023-01-04,株式会社ＫＡＮＡＴＡ,,株式会社,広島県,広島市中区,吉島町９番５号,,34,101,7300821,,,,,,,2023-01-04,1,,,,,カナタ,0
401,2240003005953,新規,0,2023-01-04,2023-01-04,合同会社かがやき,,合同会社,広島県,呉市,三条３丁目６―６,,34,202,7370821,,,,,,,2023-01-04,1,,,,,カガヤキ,0
406,2260001037526,新規,0,2023-01-04,2023-01-04,株式会社アカツキ産業,,株式会社,岡山県,岡山市南区,浦安本町８番地２,,33,104,7028026,,,,,,,2023-01-04,1,,,,,アカツキサンギョウ,0
412,2290001100025,新規,0,2023-01-04,2023-01-04,株式会社おさむ,,株式会社,福岡県,福岡市早良区,原４丁目２５番３７号,,40,137,8140022,,,,,,,2023-01-04,1,,,,,オサム,0
413,2290001100041,新規,0,2023-01-04,2023-01-04,株式会社カマチ,,株式会社,福岡県,福岡市中央区,赤坂１丁目１０－２２ベスト赤坂門ビル２階,,40,133,8100042,,,,,,,2023-01-04,1,,,,,カマチ,0
417,2290003013357,新規,0,2023-01-04,2023-01-04,合同会社Ｗｉｌｌ,,合同会社,福岡県,福岡市中央区,平尾２丁目９番１７－３０７号,,40,133,8100014,,,,,,,2023-01-04,1,,,,,ウィル,0
418,2290005018890,新規,0,2023-01-04,2023-01-04,医療法人高岸小児科医院,00128928,その他の設立登記法人,福岡県,福岡市博多区,銀天町１丁目３－７,,40,132,8120879,,,,,,,2023-01-04,1,,,,,タカギシショウニカイイン,0
429,2320002022859,新規,0,2023-01-04,2023-01-04,江藤建築有限会社,,有限会社,大分県,佐伯市,大字海崎２６２３番地,,44,205,8761105,,,,,,,2023-01-04,1,,,,,エトウケンチク,0
439,2370005010583,新規,0,2023-01-04,2023-01-04,医療法人明星会,,その他の設立登記法人,宮城県,石巻市,蛇田字新埣寺２２０,,04,202,9860861,,,,,,,2023-01-04,1,,,,,メイセイカイ,0
448,2410003003725,新規,0,2023-01-04,2023-01-04,合同会社兎澤組,,合同会社,秋田県,鹿角市,尾去沢字山根１６番地１,,05,209,0185202,,,,,,,2023-01-04,1,,,,,トザワグミ,0
449,2430001088106,新規,0,2023-01-04,2023-01-04,株式会社ＮＯＲＴＨ　ＢＵＹＥＲＳ,,株式会社,北海道,札幌市厚別区,厚別北五条４丁目１６番７号,,01,108,0040075,,,,,,,2023-01-04,1,,,,,ノースバイヤーズ,0
453,2430003014596,新規,0,2023-01-04,2023-01-04,合同会社Ｖｉｌｉｔ　ｗｏｒｋｓ,,合同会社,北海道,札幌市豊平区,平岸四条８丁目５番１３‐２０２号,,01,105,0620934,,,,,,,2023-01-04,1,,,,,ヴァイリットワークス,0
463,2480001011962,新規,0,2023-01-04,2023-01-04,株式会社ジョブズサポート,,株式会社,徳島県,阿南市,羽ノ浦町岩脇奥ノ谷６番地２０９,,36,204,7791107,,,,,,,2023-01-04,1,,,,,ジョブズサポート,0
482,3010401171592,新規,0,2023-01-04,2023-01-04,ＬＳ‐Ａｖｉａｔｉｏｎ第５０号株式会社,,株式会社,東京都,港区,六本木１丁目６番１号,,13,103,1060032,,,,,,,2023-01-04,1,,,,,エルエスアビエーションダイゴジュウゴウ,0
493,3010801033558,新規,0,2023-01-04,2023-01-04,エフテーシー・ジャパン株式会社,,株式会社,東京都,大田区,東糀谷４丁目９番７号,,13,111,1440033,,,,,,,2023-01-04,1,,,,,エフテーシージャパン,0
495,3010903007872,新規,0,2023-01-04,2023-01-04,ＧＰｘ不動産合同会社,,合同会社,東京都,世田谷区,奥沢４丁目２０番２号,,13,112,1580083,,,,,,,2023-01-04,1,,,,,ジーピーエックスフドウサン,0
499,3011001151695,新規,0,2023-01-04,2023-01-04,株式会社バスティオン,,株式会社,東京都,渋谷区,桜丘町１５番１４号フジビル４０・７Ｆ,,13,113,1500031,,,,,,,2023-01-04,1,,,,,バスティオン,0
501,3011003016013,新規,0,2023-01-04,2023-01-04,合同会社Ｐｓｙｃｈｅ,,合同会社,東京都,渋谷区,渋谷２丁目１９番１５号宮益坂ビルディング６０９,,13,113,1500002,,,,,,,2023-01-04,1,,,,,プシュケ,0
508,3011101101344,新規,0,2023-01-04,2023-01-04,株式会社Ｅｎｔｅｒｐｒｉｓｅ,,株式会社,東京都,新宿区,西新宿３丁目３番１３号西新宿水間ビル６階,,13,104,1600023,,,,,,,2023-01-04,1,,,,,エンタープライズ,0
512,3011501028798,新規,0,2023-01-04,2023-01-04,ｄｅｊａ　ｖｅ株式会社,,株式会社,東京都,北区,中里１丁目３３番８号ソフトハイツ駒込１Ｆ,,13,117,1140015,,,,,,,2023-01-04,1,,,,,デジャヴェ,0
531,3020001149617,新規,0,2023-01-04,2023-01-04,ネクスライド株式会社,,株式会社,神奈川県,川崎市中原区,上小田中１丁目２８－１－３０５エバ－グリ－ンフォレスト,,14,133,2110053,,,,,,,2023-01-04,1,,,,,ネクスライド,0
532,3020001149625,新規,0,2023-01-04,2023-01-04,株式会社Ｄｏｕｂｌｅ　Ｕｐ,,株式会社,神奈川県,横浜市緑区,中山５丁目１４番１０号ハイツマツシタＢ－１,,14,113,2260019,,,,,,,2023-01-04,1,,,,,ダブルアップ,0
539,3030001069467,新規,0,2023-01-04,2023-01-04,積善建設株式会社,,株式会社,埼玉県,鶴ヶ島市,松ヶ丘５丁目１番地４,,11,241,3502205,,,,,,,2023-01-04,1,,,,,,0
542,3030001151695,新規,0,2023-01-04,2023-01-04,株式会社ＬＤ８,,株式会社,埼玉県,さいたま市大宮区,仲町２丁目２５番地,,11,103,3300845,,,,,,,2023-01-04,1,,,,,エルディーエイト,0
544,3030003020816,新規,0,2023-01-04,2023-01-04,合同会社Ｕｎｉｏｎ　Ｓｏｌｄｉｅｒ,,合同会社,埼玉県,北足立郡伊奈町,寿２丁目２８５－１０１号室,,11,301,3620807,,,,,,,2023-01-04,1,,,,,ユニオンソルジャー,0
545,3030003020849,新規,0,2023-01-04,2023-01-04,合同会社橋本,,合同会社,埼玉県,日高市,武蔵台６丁目１２番地８,,11,242,3501255,,,,,,,2023-01-04,1,,,,,ハシモト,0
561,3060003004361,新規,0,2023-01-04,2023-01-04,合同会社ＮＹ,,合同会社,栃木県,小山市,神鳥谷２丁目１５－１９ＣＡＬＭひととのやＡ棟,,09,208,3230034,,,,,,,2023-01-04,1,,,,,エヌワイ,0
572,3100003006824,新規,0,2023-01-04,2023-01-04,合同会社福丸,,合同会社,長野県,上田市,天神３丁目４番２５号,,20,203,3860025,,,,,,,2023-01-04,1,,,,,フクマル,0
578,3110003004950,新規,0,2023-01-04,2023-01-04,合同会社新共自動車整備,,合同会社,新潟県,村上市,平林１４１１－２,,15,212,9593431,,,,,,,2023-01-04,1,,,,,,0
584,3120001251354,新規,0,2023-01-04,2023-01-04,洛克昂株式会社,,株式会社,大阪府,大阪市浪速区,恵美須三丁目２番９号パークシャトー３０９号,,27,111,5560000,,,,,,,2023-01-04,1,,,,,ロックオン,0
585,3120001251395,新規,0,2023-01-04,2023-01-04,長居株式会社,,株式会社,大阪府,大阪市天王寺区,悲田院町４番３９号朝日プラザ天王寺パサージュ４０３号室,,27,109,5430055,,,,,,,2023-01-04,1,,,,,ナガイ,0
586,3120001251412,新規,0,2023-01-04,2023-01-04,ＭＵＵＳＡＮ　ＴＲＡＤＩＮＧ株式会社,,株式会社,大阪府,大阪市生野区,生野西２丁目１番３号,,27,116,5440024,,,,,,,2023-01-04,1,,,,,ムーサントレーディング,0
587,3120001251445,新規,0,2023-01-04,2023-01-04,株式会社ＯｎｅＲａｙ,,株式会社,大阪府,大阪市城東区,今福西４丁目４番３１－４０１号,,27,118,5360004,,,,,,,2023-01-04,1,,,,,ワンレイ,0
588,3120001251486,新規,0,2023-01-04,2023-01-04,株式会社ＳＯＬＥ,,株式会社,大阪府,大阪市北区,東天満２丁目９番３号ＡＸＩＳ南森町オーパスビル２階Ａ号室,,27,127,5300044,,,,,,,2023-01-04,1,,,,,ソーレ,0
590,3120101066751,新規,0,2023-01-04,2023-01-04,株式会社ＡＣＦ,,株式会社,大阪府,堺市堺区,熊野町西２丁２番１２－５０６号,,27,141,5900947,,,,,,,2023-01-04,1,,,,,エーシーエフ,0
596,3130001073376,新規,0,2023-01-04,2023-01-04,株式会社かねぐら,,株式会社,京都府,京都市下京区,柳馬場通仏光寺下る万里小路町１８７番地,,26,106,6008075,,,,,,,2023-01-04,1,,,,,カネグラ,0
618,3190001030058,新規,0,2023-01-04,2023-01-04,株式会社石工業,,株式会社,三重県,津市,河芸町千里ヶ丘１０番地３,,24,201,5100302,,,,,,,2023-01-04,1,,,,,セキコウギョウ,0
630,3240001060867,新規,0,2023-01-04,2023-01-04,株式会社Ｋｏｊｉｍａ,,株式会社,広島県,廿日市市,地御前２丁目６番１号,,34,213,7380042,,,,,,,2023-01-04,1,,,,,コジマ,0
631,3240003005952,新規,0,2023-01-04,2023-01-04,スマイルインデックス合同会社,,合同会社,広島県,広島市南区,京橋町１－７アスティ広島京橋ビルディング,,34,103,7320828,,,,,,,2023-01-04,1,,,,,スマイルインデックス,0
634,3260001037525,新規,0,2023-01-04,2023-01-04,株式会社Ｂ＆Ｎ,,株式会社,岡山県,岡山市北区,西古松８９番地１ロイヤルガーデン大元駅北１２０２号室,,33,101,7000927,,,,,,,2023-01-04,1,,,,,ビーアンドエヌ,0
635,3260001037533,新規,0,2023-01-04,2023-01-04,株式会社ｆｒａｍｅ　ｐｌｕｓ,,株式会社,岡山県,岡山市中区,関１７６番地８,,33,102,7038232,,,,,,,2023-01-04,1,,,,,フレームプラス,0
642,3290001100040,新規,0,2023-01-04,2023-01-04,日光株式会社,,株式会社,福岡県,福岡市早良区,藤崎１丁目１番４０藤崎駅ビル５Ｆ,,40,137,8140013,,,,,,,2023-01-04,1,,,,,ニッコウ,0
643,3290003013356,新規,0,2023-01-04,2023-01-04,合同会社Ｌｉｂｅｒｏ,,合同会社,福岡県,うきは市,吉井町１３２４番地１,,40,225,8391321,,,,,,,2023-01-04,1,,,,,リベロ,0
646,3290801029157,新規,0,2023-01-04,2023-01-04,株式会社パックロボ,,株式会社,福岡県,北九州市八幡西区,青山２丁目７番５－４０２号,,40,109,8060043,,,,,,,2023-01-04,1,,,,,パックロボ,0
650,3310003004501,新規,0,2023-01-04,2023-01-04,合同会社ライトハウス,,合同会社,長崎県,長崎市,小江原５丁目２５番１８号,,42,201,8511132,,,,,,,2023-01-04,1,,,,,,0
656,3340001025265,新規,0,2023-01-04,2023-01-04,株式会社鹿児島クインエンゼル,,株式会社,鹿児島県,いちき串木野市,港町１２４番地,,46,219,8960043,,,,,,,2023-01-04,1,,,,,カゴシマクインエンゼル,0
658,3360001031360,新規,0,2023-01-04,2023-01-04,株式会社ＵＭＵＩ,,株式会社,沖縄県,豊見城市,字翁長４７,,47,212,9010223,,,,,,,2023-01-04,1,,,,,ウムイ,0
659,3360005006763,新規,0,2023-01-04,2023-01-04,一般社団法人ＥＯ　Ｏｋｉｎａｗａ,,その他の設立登記法人,沖縄県,那覇市,金城５丁目１６番５号,,47,201,9010155,,,,,,,2023-01-04,1,,,,,イーオーオキナワ,0
665,3370001049410,新規,0,2023-01-04,2023-01-04,株式会社ＴＪ,,株式会社,宮城県,仙台市泉区,八乙女中央５丁目９番１３号,,04,105,9813135,,,,,,,2023-01-04,1,,,,,ティージェー,0
669,3410003003732,新規,0,2023-01-04,2023-01-04,合同会社Ｅｉｇｈｔ．９,,合同会社,秋田県,大仙市,幸町１番１９号,,05,212,0140012,,,,,,,2023-01-04,1,,,,,エイトナイン,0
670,3410005006493,新規,0,2023-01-04,2023-01-04,医療法人あきた美容クリニック,,その他の設立登記法人,秋田県,秋田市,中通２丁目５番１号クロッセ秋田３階,,05,201,0100001,,,,,,,2023-01-04,1,,,,,アキタビヨウクリニック,0
673,3430001088105,新規,0,2023-01-04,2023-01-04,株式会社ＣＯＬＯＲ,,株式会社,北海道,札幌市清田区,真栄一条１丁目４番２７号,,01,110,0040831,,,,,,,2023-01-04,1,,,,,カラー,0
677,3440003001502,新規,0,2023-01-04,2023-01-04,合同会社悦技建,,合同会社,北海道,二海郡八雲町,栄町１番地３８,,01,346,0493117,,,,,,,2023-01-04,1,,,,,エツギケン,0
682,3450003002284,新規,0,2023-01-04,2023-01-04,合同会社オフィス輝,,合同会社,北海道,上川郡東川町,東町２丁目１６番１号,,01,458,0711423,,,,,,,2023-01-04,1,,,,,オフィステル,0
686,3470003002316,新規,0,2023-01-04,2023-01-04,ハレオハナ合同会社,,合同会社,香川県,観音寺市,粟井町１１２２番地１,,37,205,7680052,,,,,,,2023-01-04,1,,,,,ハレオハナ,0
687,3500001024688,新規,0,2023-01-04,2023-01-04,株式会社ＭＴＭ,,株式会社,愛媛県,松山市,清水町１丁目２番地２２村上ビル１Ｆ,,38,201,7900823,,,,,,,2023-01-04,1,,,,,エムティーエム,0
689,4010001017286,新規,0,2023-01-04,2023-01-04,株式会社佐藤春雄建築設計事務所,,株式会社,東京都,千代田区,九段北４丁目３番２２号,,13,101,1020073,,,,,,,2023-01-04,1,,,,,サトウハルオケンチクセッケイジムショ,0
698,4010001231903,新規,0,2023-01-04,2023-01-04,株式会社ＬｉｎＱＦＯＣＵＳ,,株式会社,東京都,中央区,銀座１丁目２２番１１号銀座大竹ビジデンス２階,,13,102,1040061,,,,,,,2023-01-04,1,,,,,リンクフォーカス,0
708,4010401171591,新規,0,2023-01-04,2023-01-04,ＬＳ‐Ａｖｉａｔｉｏｎ第５１号株式会社,,株式会社,東京都,港区,六本木１丁目６番１号,,13,103,1060032,,,,,,,2023-01-04,1,,,,,エルエスアビエーションダイゴジュウイチゴウ,0
709,4010401171617,新規,0,2023-01-04,2023-01-04,株式会社ワザビト,,株式会社,東京都,港区,浜松町２丁目２番１５号浜松町ダイヤビル２Ｆ,,13,103,1050013,,,,,,,2023-01-04,1,,,,,ワザビト,0
710,4010401171625,新規,0,2023-01-04,2023-01-04,株式会社ゴレスタン,,株式会社,東京都,港区,南青山３丁目１番３６号青山丸竹ビル６Ｆ,,13,103,1070062,,,,,,,2023-01-04,1,,,,,ゴレスタン,0
717,4010803004408,新規,0,2023-01-04,2023-01-04,ＳＴＩＪ合同会社,,合同会社,東京都,大田区,鵜の木２丁目２７番１０号沢原ビル４Ｆ,,13,111,1460091,,,,,,,2023-01-04,1,,,,,エスティーアイジェイ,0
724,4011001151703,新規,0,2023-01-04,2023-01-04,株式会社ＤＥＬＩＸ,,株式会社,東京都,目黒区,中央町２丁目２３番２７号セイワガーデンハウス１０１,,13,110,1520001,,,,,,,2023-01-04,1,,,,,デリックス,0
725,4011001151728,新規,0,2023-01-04,2023-01-04,株式会社ＢＡＮＫＥＮ,,株式会社,東京都,渋谷区,渋谷２丁目１９－１５宮益坂ビルディング６０９,,13,113,1500002,,,,,,,2023-01-04,1,,,,,バンケン,0
726,4011003015988,新規,0,2023-01-04,2023-01-04,合同会社トランプル,,合同会社,東京都,渋谷区,神宮前６丁目２３番４号桑野ビル２階,,13,113,1500001,,,,,,,2023-01-04,1,,,,,,0
727,4011003016012,新規,0,2023-01-04,2023-01-04,合同会社努努,,合同会社,東京都,目黒区,目黒２丁目３番１号６０１,,13,110,1530063,,,,,,,2023-01-04,1,,,,,ユメユメ,0
730,4011105010508,新規,0,2023-01-04,2023-01-04,一般社団法人ｗｉｆｉおすすめ協会,,その他の設立登記法人,東京都,新宿区,新宿６丁目２７番２９－７１４号,,13,104,1600022,,,,,,,2023-01-04,1,,,,,ワイファイオススメキョウカイ,0
731,4011301028353,新規,0,2023-01-04,2023-01-04,株式会社ゴーパンダ,,株式会社,東京都,杉並区,高円寺南１丁目１１番６号ハーモニーヒルズ３階,,13,115,1660003,,,,,,,2023-01-04,1,,,,,ゴーパンダ,0
737,4011701025909,新規,0,2023-01-04,2023-01-04,株式会社リプレイマシン,,株式会社,東京都,江戸川区,東葛西２丁目２番６号,,13,123,1340084,,,,,,,2023-01-04,1,,,,,リプレイマシン,0
739,4011703003342,新規,0,2023-01-04,2023-01-04,合同会社風和,,合同会社,東京都,江戸川区,宇喜田町１４８６番地２６,,13,123,1340082,,,,,,,2023-01-04,1,,,,,フウワ,0
746,4013103001199,新規,0,2023-01-04,2023-01-04,合同会社横コミュニケーションズ,,合同会社,東京都,青梅市,長淵１丁目１００３番地の１８,,13,205,1980052,,,,,,,2023-01-04,1,,,,,ヨココミュニケーションズ,0
749,4013305003423,新規,0,2023-01-04,2023-01-04,一般社団法人零和会,,その他の設立登記法人,東京都,豊島区,東池袋３丁目１番１号サンシャイン６０,,13,116,1700013,,,,,,,2023-01-04,1,,,,,レイワカイ,0
756,4020001149640,新規,0,2023-01-04,2023-01-04,株式会社ベルヴァーグ,,株式会社,神奈川県,横浜市神奈川区,橋本町２丁目５番地３ＳＷ－１４０９,,14,102,2210053,,,,,,,2023-01-04,1,,,,,ベルヴァーグ,0
757,4020003022993,新規,0,2023-01-04,2023-01-04,合同会社ＷｉｌｄＺｅａｌ,,合同会社,神奈川県,横浜市港北区,師岡町５５３－１ベルデ大倉山Ｂ２０２,,14,109,2220002,,,,,,,2023-01-04,1,,,,,ワイルドジール,0
758,4021001021260,新規,0,2023-01-04,2023-01-04,株式会社富国ホーム,,株式会社,神奈川県,伊勢原市,東大竹６２７番地,,14,214,2591133,,,,,,,2023-01-04,1,,,,,フコクホーム,0
761,4021001077815,新規,0,2023-01-04,2023-01-04,株式会社ＭＫ,,株式会社,神奈川県,大和市,西鶴間５丁目１番１号,,14,213,2420005,,,,,,,2023-01-04,1,,,,,エムケー,0
762,4021001077823,新規,0,2023-01-04,2023-01-04,株式会社オーケイレストラン,,株式会社,神奈川県,鎌倉市,雪ノ下１丁目６番２８号,,14,204,2480005,,,,,,,2023-01-04,1,,,,,オーケイレストラン,0
763,4021005012710,新規,0,2023-01-04,2023-01-04,エホバの証人の神奈川県三浦会衆,,その他の設立登記法人,神奈川県,三浦市,南下浦町菊名１９８番１,,14,210,2380102,,,,,,,2023-01-04,1,,,,,エホバノショウニンノカナガワケンミウラカイシュウ,0
767,4030001151661,新規,0,2023-01-04,2023-01-04,株式会社Ｔ．Ｓ．Ｔ,,株式会社,埼玉県,熊谷市,八ツ口３８４番地４,,11,202,3600218,,,,,,,2023-01-04,1,,,,,ティーエスティー,0
768,4030001151678,新規,0,2023-01-04,2023-01-04,ＢｅｅＧｏｏｄ’４株式会社,,株式会社,埼玉県,川口市,大字里１１９１番地の１３９,,11,203,3340005,,,,,,,2023-01-04,1,,,,,ビーグッドフォー,0
769,4030001151686,新規,0,2023-01-04,2023-01-04,株式会社ＴＳＧ　ＧＬＯＢＡＬ,,株式会社,埼玉県,さいたま市大宮区,北袋町２丁目４９６番地４第３センチュリー渋谷４０５,,11,103,3300835,,,,,,,2023-01-04,1,,,,,ティエスジーグローバル,0
774,4030003020848,新規,0,2023-01-04,2023-01-04,合同会社ＳＴＹＬＥ,,合同会社,埼玉県,志木市,中宗岡１丁目８番１９号,,11,228,3530002,,,,,,,2023-01-04,1,,,,,スタイル,0
785,4040003021597,新規,0,2023-01-04,2023-01-04,ＣＨＡＭＯＤ　ＥＮＴＥＲＰＲＩＳＥＳ合同会社,,合同会社,千葉県,山武市,麻生新田８５番地１,,12,237,2891203,,,,,,,2023-01-04,1,,,,,チャモードエンタープライゼス,0
789,4060001035564,新規,0,2023-01-04,2023-01-04,スマートグリーンエネルギー那須株式会社,,株式会社,栃木県,那須郡那須町,大字高久乙３３７６番地２５６,,09,407,3250303,,,,,,,2023-01-04,1,,,,,スマートグリーンエネルギーナス,0
795,4100001035972,新規,0,2023-01-04,2023-01-04,アルッガマゲグループ株式会社,,株式会社,長野県,駒ヶ根市,赤穂５３９８番地２,,20,210,3994117,,,,,,,2023-01-04,1,,,,,アルッガマゲグループ,0
798,4110001037200,新規,0,2023-01-04,2023-01-04,アズトリック株式会社,,株式会社,新潟県,阿賀野市,堀越２２４８番地,,15,223,9592055,,,,,,,2023-01-04,1,,,,,アズトリック,0
802,4110005016885,新規,0,2023-01-04,2023-01-04,司法書士法人いしづき事務所,,その他の設立登記法人,新潟県,新潟市中央区,北浜通１番町３８６番地,,15,103,9518111,,,,,,,2023-01-04,1,,,,,イシヅキジムショ,0
810,4120001251386,新規,0,2023-01-04,2023-01-04,株式会社ＹＵＩＫＩ,,株式会社,大阪府,枚方市,山之上西町２番３１号,,27,210,5730048,,,,,,,2023-01-04,1,,,,,ユイキ,0
811,4120001251452,新規,0,2023-01-04,2023-01-04,株式会社ＷＡＫＫＡ,,株式会社,大阪府,寝屋川市,日之出町１２番７号１０２,,27,215,5720835,,,,,,,2023-01-04,1,,,,,ワッカ,0
815,4120101001220,新規,0,2023-01-04,2023-01-04,株式会社関西商工,,株式会社,大阪府,堺市東区,北野田４４番地の５北野田第１ビル,,27,143,5998123,,,,,,,2023-01-04,1,,,,,,0
817,4120103004997,新規,0,2023-01-04,2023-01-04,ＳＧＩ　ｐｈａｒｍａｃｙ合同会社,,合同会社,大阪府,堺市南区,城山台３丁２１番４号,,27,145,5900137,,,,,,,2023-01-04,1,,,,,エスジーアイファーマシー,0
820,4120903004437,新規,0,2023-01-04,2023-01-04,合同会社ビヤロエル,,合同会社,大阪府,茨木市,北春日丘１丁目２番１１－６０２号,,27,211,5670048,,,,,,,2023-01-04,1,,,,,ビヤロエル,0
825,4130003008404,新規,0,2023-01-04,2023-01-04,みつかげ合同会社,,合同会社,京都府,京都市下京区,朱雀宝蔵町４４番地協栄ビル２階京都朱雀スタジオ,,26,106,6008846,,,,,,,2023-01-04,1,,,,,ミツカゲ,0
829,4140001128541,新規,0,2023-01-04,2023-01-04,株式会社ＴＥＮ,,株式会社,兵庫県,加古川市,加古川町平野７９番地１１,,28,210,6750063,,,,,,,2023-01-04,1,,,,,テン,0
830,4140001128558,新規,0,2023-01-04,2023-01-04,株式会社翔龍建設,,株式会社,兵庫県,宝塚市,高司１丁目４番１３号,,28,214,6650051,,,,,,,2023-01-04,1,,,,,ショウリュウケンセツ,0
844,4180005020055,新規,0,2023-01-04,2023-01-04,一般社団法人日興ＨＤ,,その他の設立登記法人,愛知県,名古屋市南区,豊田５丁目５番４８号,,23,112,4570841,,,,,,,2023-01-04,1,,,,,ニッコウホールディングス,0
847,4190001030057,新規,0,2023-01-04,2023-01-04,フリックセキュリティサービス株式会社,,株式会社,三重県,四日市市,日永東２丁目１番２９号,,24,202,5100886,,,,,,,2023-01-04,1,,,,,フリックセキュリティサービス,0
862,4240003005951,新規,0,2023-01-04,2023-01-04,合同会社リアン,,合同会社,広島県,広島市西区,古田台１丁目７番５号,,34,104,7330877,,,,,,,2023-01-04,1,,,,,リアン,0
864,4260001037524,新規,0,2023-01-04,2023-01-04,株式会社ＭｉＳ,,株式会社,岡山県,岡山市東区,西大寺中野１０８番地６,,33,103,7048191,,,,,,,2023-01-04,1,,,,,エムアイエス,0
872,4290001100031,新規,0,2023-01-04,2023-01-04,株式会社Ｍｅｄｉｔａｔｉｏｎ　ＪＡＰＡＮ,,株式会社,福岡県,福岡市中央区,高砂２丁目１０番１３－８０４号,,40,133,8100011,,,,,,,2023-01-04,1,,,,,メディテイションジャパン,0
873,4290001100056,新規,0,2023-01-04,2023-01-04,ナガヨシ通商株式会社,,株式会社,福岡県,福岡市博多区,博多駅南３丁目２１番３１－１３０３号,,40,132,8120016,,,,,,,2023-01-04,1,,,,,ナガヨシツウショウ,0
876,4290003013347,新規,0,2023-01-04,2023-01-04,合同会社縁,,合同会社,福岡県,福岡市東区,香椎駅前３丁目１２番１－２号,,40,131,8130013,,,,,,,2023-01-04,1,,,,,エニシ,0
877,4290003013363,新規,0,2023-01-04,2023-01-04,合同会社金平糖,,合同会社,福岡県,春日市,下白水北１丁目１２もくせいテラス１０６,,40,218,8160854,,,,,,,2023-01-04,1,,,,,コンペイトウ,0
881,4290803004297,新規,0,2023-01-04,2023-01-04,合同会社レアーレ,,合同会社,福岡県,北九州市小倉南区,中曽根６丁目４番２２号,,40,107,8000222,,,,,,,2023-01-04,1,,,,,レアーレ,0
886,4310001018196,新規,0,2023-01-04,2023-01-04,株式会社萬屋工業,,株式会社,長崎県,大村市,小路口本町３５７番地９,,42,205,8560020,,,,,,,2023-01-04,1,,,,,ヨロズヤコウギョウ,0
888,4310003004500,新規,0,2023-01-04,2023-01-04,合同会社春の家,,合同会社,長崎県,大村市,古賀島町３４６番地６,,42,205,8560817,,,,,,,2023-01-04,1,,,,,ハルノヤ,0
891,4320002014986,新規,0,2023-01-04,2023-01-04,有限会社久保工務店,,有限会社,大分県,宇佐市,大字金屋７３８番地の１,,44,211,8720021,,,,,,,2023-01-04,1,,,,,クボコウムテン,0
898,4330003009646,新規,0,2023-01-04,2023-01-04,ムラカミ自動車合同会社,,合同会社,熊本県,玉名市,天水町小天５８４２番地,,43,206,8615401,,,,,,,2023-01-04,1,,,,,ムラカミジドウシャ,0
900,4340001025264,新規,0,2023-01-04,2023-01-04,株式会社ｆｅｌｉｃｅ　ｈｏｕｓｅ,,株式会社,鹿児島県,霧島市,溝辺町麓３丁目３番地,,46,218,8996404,,,,,,,2023-01-04,1,,,,,フェリーチェハウス,0
902,4340003004010,新規,0,2023-01-04,2023-01-04,合同会社鎭守工業,,合同会社,鹿児島県,鹿児島市,下福元町７４２３番地２０,,46,201,8910144,,,,,,,2023-01-04,1,,,,,チンジュコウギョウ,0
906,4360003012597,新規,0,2023-01-04,2023-01-04,合同会社Ｓｐｏｏｎ,,合同会社,沖縄県,沖縄市,上地２丁目５番４３号１Ｆ,,47,211,9040031,,,,,,,2023-01-04,1,,,,,スプーン,0
921,4400001016109,新規,0,2023-01-04,2023-01-04,株式会社コクセイ,,株式会社,岩手県,一関市,萩荘字川崎４４番地３,,03,209,0210902,,,,,,,2023-01-04,1,,,,,コクセイ,0
923,4410001013352,新規,0,2023-01-04,2023-01-04,株式会社プレミアムネクスト,,株式会社,秋田県,秋田市,大町４丁目４番３８号,,05,201,0100921,,,,,,,2023-01-04,1,,,,,プレミアムネクスト,0
924,4420001018103,新規,0,2023-01-04,2023-01-04,ＡＧＨＡ　ＮＡＤＥＥＭ　ＴＲＡＤＩＮＧ株式会社,,株式会社,青森県,十和田市,大字三本木字北平１１０番地５Ｃ－２号,,02,206,0340001,,,,,,,2023-01-04,1,,,,,アガナディームトレーディング,0
929,4450002003761,新規,0,2023-01-04,2023-01-04,有限会社トージツ,,有限会社,北海道,旭川市,緑が丘東二条４丁目１番７号,,01,204,0788802,,,,,,,2023-01-04,1,,,,,トージツ,0
930,4450003002283,新規,0,2023-01-04,2023-01-04,合同会社藤井企画,,合同会社,北海道,上川郡東川町,西町５丁目２番１０号,,01,458,0711425,,,,,,,2023-01-04,1,,,,,フジイキカク,0
931,4480001011960,新規,0,2023-01-04,2023-01-04,株式会社藍田,,株式会社,徳島県,板野郡上板町,引野字安楽寺谷９０番地１０,,36,405,7711311,,,,,,,2023-01-04,1,,,,,ランデン,0
934,4490005006881,新規,0,2023-01-04,2023-01-04,特定非営利活動法人Ｎａｅｄｏｋｏ．,,その他の設立登記法人,高知県,高岡郡津野町,白石甲１４２１シェアオフィス白石,,39,411,7850211,,,,,,,2023-01-04,1,,,,,,0
935,4500001024687,新規,0,2023-01-04,2023-01-04,株式会社捨買力屋,,株式会社,愛媛県,松山市,西石井５丁目７番７号,,38,201,7900931,,,,,,,2023-01-04,1,,,,,シャカリキヤ,0
953,5010401171590,新規,0,2023-01-04,2023-01-04,ＬＳ‐Ａｖｉａｔｉｏｎ第５２号株式会社,,株式会社,東京都,港区,六本木１丁目６番１号,,13,103,1060032,,,,,,,2023-01-04,1,,,,,エルエスアビエーションダイゴジュウニゴウ,0
957,5010405021692,新規,0,2023-01-04,2023-01-04,ジー・ジェイ・レジデンス・エイト特定目的会社,,その他の設立登記法人,東京都,港区,六本木１丁目９番１０号アークヒルズ仙石山森タワー４０階,,13,103,1060032,,,,,,,2023-01-04,1,,,,,ジージェイレジデンスエイト,0
961,5010601062367,新規,0,2023-01-04,2023-01-04,ＤＦ株式会社,,株式会社,東京都,江東区,大島３丁目１７－１５グランクオール西大島４０２号室,,13,108,1360072,,,,,,,2023-01-04,1,,,,,ディーエフ,0
976,5011101101284,新規,0,2023-01-04,2023-01-04,Ａｌｕｓｋｉｅ株式会社,,株式会社,東京都,新宿区,河田町３番５２,,13,104,1620054,,,,,,,2023-01-04,1,,,,,アラスキン,0
985,5011803005444,新規,0,2023-01-04,2023-01-04,合同会社ウチノイエ,,合同会社,東京都,足立区,千住宮元町２６番１３号せんつく２,,13,121,1200043,,,,,,,2023-01-04,1,,,,,ウチノイエ,0
986,5012405004818,新規,0,2023-01-04,2023-01-04,一般社団法人和婚アカデミー,,その他の設立登記法人,東京都,調布市,上石原３丁目５７番地１３７,,13,208,1820035,,,,,,,2023-01-04,1,,,,,ワコンアカデミー,0
997,5020003022984,新規,0,2023-01-04,2023-01-04,飛合同会社,,合同会社,神奈川県,横浜市鶴見区,鶴見中央４丁目３１番１７号良友ビル７０１,,14,101,2300051,,,,,,,2023-01-04,1,,,,,トビ,0
1002,5021001077830,新規,0,2023-01-04,2023-01-04,株式会社ソーケンアセットマネジメント,,株式会社,神奈川県,秦野市,南矢名２丁目１１番５号,,14,211,2570003,,,,,,,2023-01-04,1,,,,,ソーケンアセットマネジメント,0
1008,5030001151545,新規,0,2023-01-04,2023-01-04,株式会社ティアラッテ,,株式会社,埼玉県,さいたま市南区,辻１丁目３０番７号,00128924,11,108,3360026,,,,,,,2023-01-04,1,,,,,ティアラッテ,0
1011,5030003020839,新規,0,2023-01-04,2023-01-04,合同会社カドヤ,,合同会社,埼玉県,川口市,大字安行領根岸１９２０番地根岸台高層住宅ＲＣ－Ｂ１１３号,,11,203,3330834,,,,,,,2023-01-04,1,,,,,カドヤ,0
1012,5030003020847,新規,0,2023-01-04,2023-01-04,合同会社鶴丸,,合同会社,埼玉県,富士見市,東みずほ台２丁目１５番地２０,,11,235,3540015,,,,,,,2023-01-04,1,,,,,ツルマル,0
1014,5040001125465,新規,0,2023-01-04,2023-01-04,株式会社ＴＲＵＳＴＩＮＧ,,株式会社,千葉県,千葉市花見川区,作新台６丁目３－９,,12,102,2620045,,,,,,,2023-01-04,1,,,,,トラスティング,0
1015,5040001126414,新規,0,2023-01-04,2023-01-04,株式会社Ｒｅｔ,,株式会社,千葉県,市川市,幸２丁目２番１７号ライフタウン幸ＩＩ－２０２号,00128923,12,203,2720123,,,,,,,2023-01-04,1,,,,,レット,0
1018,5040003021588,新規,0,2023-01-04,2023-01-04,アウトドアデザインワークス合同会社,,合同会社,千葉県,山武郡横芝光町,木戸２２３－５５,,12,410,2891726,,,,,,,2023-01-04,1,,,,,アウトドアデザインワークス,0
1035,5110001037166,新規,0,2023-01-04,2023-01-04,ジョイ・エンタープライズ株式会社,,株式会社,新潟県,新潟市中央区,万代１丁目１番２５号,,15,103,9500088,,,,,,,2023-01-04,1,,,,,ジョイエンタープライズ,0
1036,5110001037199,新規,0,2023-01-04,2023-01-04,株式会社ミナトＦＳ,,株式会社,新潟県,新潟市北区,松浜みなと３１番１５号,,15,101,9503127,,,,,,,2023-01-04,1,,,,,ミナトエフエス,0
1044,5120001251105,新規,0,2023-01-04,2023-01-04,株式会社ワーククリエイト,,株式会社,大阪府,大阪市西区,西本町１丁目２番１号アクシス本町ビル３０７号,,27,106,5500005,,,,,,,2023-01-04,1,,,,,ワーククリエイト,0
1045,5120001251402,新規,0,2023-01-04,2023-01-04,金株式会社,,株式会社,大阪府,大阪市住吉区,長居東４丁目１５－２１－４０３,,27,120,5580004,,,,,,,2023-01-04,1,,,,,キン,0
1046,5120001251427,新規,0,2023-01-04,2023-01-04,南南文化株式会社,,株式会社,大阪府,大阪市此花区,西九条１丁目２１番１０号,,27,104,5540012,,,,,,,2023-01-04,1,,,,,ナンナンブンカ,0
1047,5120001251443,新規,0,2023-01-04,2023-01-04,株式会社リマインド,,株式会社,大阪府,大阪市北区,太融寺町２番２１号１００８号,,27,127,5300051,,,,,,,2023-01-04,1,,,,,リマインド,0
1048,5120001251501,新規,0,2023-01-04,2023-01-04,株式会社Ｈ・Ｎ・Ｉ,,株式会社,大阪府,大阪市平野区,背戸口１丁目２２番２２号,,27,126,5470034,,,,,,,2023-01-04,1,,,,,,0
1056,5130001073341,新規,0,2023-01-04,2023-01-04,ｅｌｓｅ株式会社,,株式会社,京都府,京都市南区,塩屋２７７番地ＳＯＳＡＫ・ＫＹＯＴＯ－Ｃ号室,,26,107,6010000,,,,,,,2023-01-04,1,,,,,エルス,0
1057,5130001073390,新規,0,2023-01-04,2023-01-04,株式会社エン,,株式会社,京都府,城陽市,寺田宮ノ谷２番地の７０,,26,207,6100121,,,,,,,2023-01-04,1,,,,,エン,0
1101,5240001060865,新規,0,2023-01-04,2023-01-04,株式会社トータスクリエイト,,株式会社,広島県,広島市西区,古江上１丁目５９７番地１（６０３）,,34,104,7330875,,,,,,,2023-01-04,1,,,,,トータスクリエイト,0
1103,5240003005950,新規,0,2023-01-04,2023-01-04,合同会社ＢＯＮＤ　ＬＩＦＥ,,合同会社,広島県,広島市中区,大手町５丁目６番１４－１３０３号,,34,101,7300051,,,,,,,2023-01-04,1,,,,,ボンドライフ,0
1107,5260001037523,新規,0,2023-01-04,2023-01-04,株式会社スマイルクック,,株式会社,岡山県,岡山市南区,新福１丁目３番７号,,33,104,7000943,,,,,,,2023-01-04,1,,,,,スマイルクック,0
1108,5260001037531,新規,0,2023-01-04,2023-01-04,株式会社石野鉄工所,,株式会社,岡山県,和気郡和気町,大中山１７５３番地９,,33,346,7090432,,,,,,,2023-01-04,1,,,,,イシノテッコウショ,0
1114,5290003013354,新規,0,2023-01-04,2023-01-04,Ｕａｒｅ合同会社,,合同会社,福岡県,福岡市中央区,天神４丁目６番２８号天神ファーストビル７階,,40,133,8100001,,,,,,,2023-01-04,1,,,,,ユーアー,0
1115,5290003013362,新規,0,2023-01-04,2023-01-04,ＭＶＤ合同会社,,合同会社,福岡県,福岡市博多区,那珂６丁目２４－２２－２０６号室,,40,132,8120893,,,,,,,2023-01-04,1,,,,,エムブイディー,0
1116,5290005018888,新規,0,2023-01-04,2023-01-04,医療法人コントリビューション,,その他の設立登記法人,福岡県,福岡市博多区,博多駅前３丁目２２番１号ハットビル２階,,40,132,8120011,,,,,,,2023-01-04,1,,,,,コントリビューション,0
1117,5310001018187,新規,0,2023-01-04,2023-01-04,株式会社ＯＮＩＺＵＫＡ,,株式会社,長崎県,諫早市,有喜町４０４番地２,,42,204,8540121,,,,,,,2023-01-04,1,,,,,オニヅカ,0
1121,5330003009645,新規,0,2023-01-04,2023-01-04,合同会社ＴＮ商事,,合同会社,熊本県,熊本市中央区,南坪井町７番７－９１０号,,43,101,8600848,,,,,,,2023-01-04,1,,,,,ティーエヌショウジ,0
1136,5380001033361,新規,0,2023-01-04,2023-01-04,株式会社ＰＳＰ,,株式会社,福島県,会津若松市,平安町２番１２号,,07,202,9650026,,,,,,,2023-01-04,1,,,,,,0
1138,5390001017108,新規,0,2023-01-04,2023-01-04,株式会社福来雀あずき宿,,株式会社,山形県,山形市,馬見ケ崎１丁目１８番１４号,,06,201,9900810,,,,,,,2023-01-04,1,,,,,フクライスズメアズキヤド,0
1143,5430001088094,新規,0,2023-01-04,2023-01-04,株式会社Ｆ．Ｏ．Ｃ　Ｌｉｆｅ’ｓ,,株式会社,北海道,恵庭市,恵み野東２丁目１２番２２,,01,231,0611371,,,,,,,2023-01-04,1,,,,,エフオーシーライフズ,0
1144,5430005014617,新規,0,2023-01-04,2023-01-04,一般社団法人石狩ソフトボール協会,,その他の設立登記法人,北海道,石狩市,花川南一条３丁目２７０番地,,01,235,0613201,,,,,,,2023-01-04,1,,,,,ソフトボールキョウカイ,0
1152,5500001024686,新規,0,2023-01-04,2023-01-04,株式会社スワロー,,株式会社,愛媛県,松山市,千舟町４丁目２番８号西川ビル３階,,38,201,7900011,,,,,,,2023-01-04,1,,,,,スワロー,0
1157,6010003039450,新規,0,2023-01-04,2023-01-04,合同会社Ａｓｐｉｒａｃｉｏｎ,,合同会社,東京都,中央区,銀座１丁目２２番１１号２Ｆ,,13,102,1040061,,,,,,,2023-01-04,1,,,,,アスピラシオン,0
1162,6010401171631,新規,0,2023-01-04,2023-01-04,株式会社ｉｎ　ｔｈｅ　ＺＯＮＥ,,株式会社,東京都,港区,港南４丁目６－４－２４０９号,,13,103,1080075,,,,,,,2023-01-04,1,,,,,インザゾーン,0
1167,6010405021700,新規,0,2023-01-04,2023-01-04,札幌北３条一般社団法人,,その他の設立登記法人,東京都,港区,元赤坂１丁目１番８号株式会社赤坂国際会計内,,13,103,1070051,,,,,,,2023-01-04,1,,,,,サッポロキタサンジョウ,0
1168,6010501049819,新規,0,2023-01-04,2023-01-04,株式会社財務経営ソリューションズ,,株式会社,東京都,台東区,根岸１丁目５番１３号深沢ビル３０１,,13,106,1100003,,,,,,,2023-01-04,1,,,,,ザイムケイエイソリューションズ,0
1169,6010601062374,新規,0,2023-01-04,2023-01-04,株式会社ＳＴＨ,,株式会社,東京都,江東区,東陽１丁目１０番７号,,13,108,1350016,,,,,,,2023-01-04,1,,,,,エスティーエイチ,0
1170,6010803004380,新規,0,2023-01-04,2023-01-04,合同会社Ｌｅｓｌｉｅｎｓ,,合同会社,東京都,大田区,南久が原２丁目７番１０号１階,,13,111,1460084,,,,,,,2023-01-04,1,,,,,レリアン,0
1172,6010901052216,新規,0,2023-01-04,2023-01-04,株式会社Ｋ‐ＰＬＵＳ,,株式会社,東京都,世田谷区,南烏山６丁目３番１５号ｉＫビル５Ｆ,,13,112,1570062,,,,,,,2023-01-04,1,,,,,ケイプラス,0
1173,6010901052240,新規,0,2023-01-04,2023-01-04,株式会社ダイキチデザインワークス,,株式会社,東京都,世田谷区,若林３丁目３１番１６号,,13,112,1540023,,,,,,,2023-01-04,1,,,,,ダイキチデザインワークス,0
1178,6011001151726,新規,0,2023-01-04,2023-01-04,株式会社ＬＸホールディング,,株式会社,東京都,渋谷区,広尾１丁目１番３９号,,13,113,1500012,,,,,,,2023-01-04,1,,,,,エルエックスホールディング,0
1179,6011003016010,新規,0,2023-01-04,2023-01-04,合同会社マイムズ・アセッツ,,合同会社,東京都,目黒区,青葉台１丁目１１番１６号,,13,110,1530042,,,,,,,2023-01-04,1,,,,,マイムズアセッツ,0
1180,6011103012545,新規,0,2023-01-04,2023-01-04,ＴＧＲ＆ＣＯ合同会社,,合同会社,東京都,新宿区,新宿７丁目６番１３－東山荘１０３号,,13,104,1600022,,,,,,,2023-01-04,1,,,,,ティジーアールアンドシーオ,0
1189,6013301050129,新規,0,2023-01-04,2023-01-04,株式会社ｐｒｏｐ,,株式会社,東京都,豊島区,池袋２丁目６８番１０号池袋ダイカンプラザ１００４号室,,13,116,1710014,,,,,,,2023-01-04,1,,,,,プロップ,0
1190,6013303006434,新規,0,2023-01-04,2023-01-04,合同会社弘洋,,合同会社,東京都,豊島区,北大塚３丁目２７番１号,,13,116,1700004,,,,,,,2023-01-04,1,,,,,コウヨウ,0
1197,6021001077821,新規,0,2023-01-04,2023-01-04,株式会社ラディアント,,株式会社,神奈川県,相模原市緑区,原宿２丁目２番８号,,14,151,2520102,,,,,,,2023-01-04,1,,,,,ラディアント,0
1200,6021003012545,新規,0,2023-01-04,2023-01-04,のじグリーン合同会社,,合同会社,神奈川県,藤沢市,鵠沼海岸４丁目１４番６号,,14,205,2510037,,,,,,,2023-01-04,1,,,,,ノジグリーン,0
1201,6021003012553,新規,0,2023-01-04,2023-01-04,合同会社ＣＨＩＫＡＺＵＫＩ,,合同会社,神奈川県,相模原市南区,大野台２丁目１６―１―１,,14,153,2520331,,,,,,,2023-01-04,1,,,,,チカズキ,0
1202,6021003012561,新規,0,2023-01-04,2023-01-04,合同会社ヴェリティー,,合同会社,神奈川県,横須賀市,大津町１丁目１９番３０号１Ｆ,,14,201,2390808,,,,,,,2023-01-04,1,,,,,ヴェリティー,0
1203,6030001151668,新規,0,2023-01-04,2023-01-04,株式会社グローリー,,株式会社,埼玉県,鴻巣市,滝馬室７２９番地６,,11,217,3650044,,,,,,,2023-01-04,1,,,,,グローリー,0
1206,6030005021099,新規,0,2023-01-04,2023-01-04,一般社団法人賑ノ杜,,その他の設立登記法人,埼玉県,さいたま市大宮区,高鼻町２丁目１番地１Ｂｉｂｌｉ２－１２,,11,103,3300803,,,,,,,2023-01-04,1,,,,,ニギワイノモリ,0
1211,6040003021595,新規,0,2023-01-04,2023-01-04,合同会社金軒,,合同会社,千葉県,印旛郡酒々井町,下岩橋２２８－１０コーポサンロード２０５号室,,12,322,2850907,,,,,,,2023-01-04,1,,,,,キンケン,0
1217,6080001025371,新規,0,2023-01-04,2023-01-04,プロミネント伊藤株式会社,,株式会社,静岡県,静岡市葵区,川合１丁目６番４０号,,22,101,4200923,,,,,,,2023-01-04,1,,,,,プロミネントイトウ,0
1218,6080101023721,新規,0,2023-01-04,2023-01-04,株式会社新富士野荘,,株式会社,静岡県,裾野市,千福が丘３丁目１４番１６,,22,220,4101115,,,,,,,2023-01-04,1,,,,,シンフジノソウ,0
1234,6120001251384,新規,0,2023-01-04,2023-01-04,株式会社Ｃａｎｄｙ,,株式会社,大阪府,大阪市北区,梅田１丁目１－３大阪駅前第３ビル２９階１－１－１号室,,27,127,5300001,,,,,,,2023-01-04,1,,,,,キャンディ,0
1235,6120001251426,新規,0,2023-01-04,2023-01-04,Ｃａｅｓａｒ　Ｆｉｎａｎｃｉａｌ　Ｇｒｏｕｐ株式会社,,株式会社,大阪府,大阪市港区,夕凪２丁目１８番８号,,27,107,5520004,,,,,,,2023-01-04,1,,,,,カエサルファイナンシャルグループ,0
1236,6120001251450,新規,0,2023-01-04,2023-01-04,株式会社Ｎ’ｓ　ｒｅｇｉｏｎ．,,株式会社,大阪府,大阪市北区,豊崎３丁目１８番３－３４０６号,,27,127,5310072,,,,,,,2023-01-04,1,,,,,エヌズリージョン,0
1244,6120101066757,新規,0,2023-01-04,2023-01-04,株式会社モリ工房,,株式会社,大阪府,堺市美原区,黒山７８１番地１,,27,147,5870002,,,,,,,2023-01-04,1,,,,,モリコウボウ,0
1254,6130001073373,新規,0,2023-01-04,2023-01-04,株式会社ＷＩＬＬ　ＶＩＬＬＡＧＥ,,株式会社,京都府,京都市南区,吉祥院石原長田町１番地１桂川ハイツ３号館６０１号室,,26,107,6018383,,,,,,,2023-01-04,1,,,,,ウィルヴィレッジ,0
1262,6140001128548,新規,0,2023-01-04,2023-01-04,株式会社ＭＲＰ,,株式会社,兵庫県,明石市,桜町１２－２１明石観光ビル４階,,28,203,6730885,,,,,,,2023-01-04,1,,,,,エムアールピー,0
1265,6140003018524,新規,0,2023-01-04,2023-01-04,合同会社３姉妹,,合同会社,兵庫県,神戸市中央区,北長狭通４丁目１－５,,28,110,6500012,,,,,,,2023-01-04,1,,,,,サンシマイ,0
1266,6140005026426,新規,0,2023-01-04,2023-01-04,医療法人社団瀬戸内科医院,,その他の設立登記法人,兵庫県,西宮市,北口町１８番１０号,,28,204,6638035,,,,,,,2023-01-04,1,,,,,セトナイカイイン,0
1273,6180001154342,新規,0,2023-01-04,2023-01-04,株式会社Ｔ＆Ｓ,,株式会社,愛知県,名古屋市名東区,新宿２丁目８３番地の１,,23,115,4650063,,,,,,,2023-01-04,1,,,,,ティーアンドエス,0
1274,6180001154359,新規,0,2023-01-04,2023-01-04,株式会社暖家,,株式会社,愛知県,名古屋市天白区,原１丁目２００１番地,,23,116,4680015,,,,,,,2023-01-04,1,,,,,ダンケ,0
1280,6180003024659,新規,0,2023-01-04,2023-01-04,合同会社トライアングル,,合同会社,愛知県,北名古屋市,片場天王森３番地９,,23,234,4810002,,,,,,,2023-01-04,1,,,,,トライアングル,0
1281,6180003024667,新規,0,2023-01-04,2023-01-04,合同会社ＦＡＩ　ＰＡＣ　ＪＡＰＡＮ,,合同会社,愛知県,名古屋市西区,名西２丁目３４－２４,,23,104,4510064,,,,,,,2023-01-04,1,,,,,ファイパックジャパン,0
1283,6180005020053,新規,0,2023-01-04,2023-01-04,医療法人Ａｉｌｅ,,その他の設立登記法人,愛知県,名古屋市中村区,千成通１丁目５０番地の１Ａ．Ｉ．ＢＵＩＬＤ．稲穂２Ｆ,,23,105,4530818,,,,,,,2023-01-04,1,,,,,エール,0
1290,6200001040812,新規,0,2023-01-04,2023-01-04,株式会社売れるＩＴサービス社,,株式会社,岐阜県,関市,倉知２９１６番地３９,,21,205,5013936,,,,,,,2023-01-04,1,,,,,ウレルアイティーサービスシャ,0
1301,6240001060872,新規,0,2023-01-04,2023-01-04,株式会社カキショウ,,株式会社,広島県,広島市南区,本浦町１番７号,,34,103,7340047,,,,,,,2023-01-04,1,,,,,カキショウ,0
1310,6290001100046,新規,0,2023-01-04,2023-01-04,株式会社愛グループ少額短期保険設立準備会社,,株式会社,福岡県,福岡市中央区,天神１丁目１５番３３号プライマリー天神,,40,133,8100001,,,,,,,2023-01-04,1,,,,,アイグループショウガクタンキホケンセツリツジュンビガイシャ,0
1311,6290001100054,新規,0,2023-01-04,2023-01-04,株式会社ＩＲＢ,,株式会社,福岡県,福岡市南区,市崎２丁目６番１６号,,40,134,8150084,,,,,,,2023-01-04,1,,,,,アイアールビー,0
1320,6330001030445,新規,0,2023-01-04,2023-01-04,株式会社ｓｐｅｓ,,株式会社,熊本県,八代市,敷川内町２１２７番地１,,43,202,8695151,,,,,,,2023-01-04,1,,,,,スペース,0
1322,6350001018100,新規,0,2023-01-04,2023-01-04,すずき牧場株式会社,,株式会社,宮崎県,児湯郡新富町,大字新田１５０８４番地１,,45,402,8891406,,,,,,,2023-01-04,1,,,,,スズキボクジョウ,0
1331,6380001033360,新規,0,2023-01-04,2023-01-04,秋昇貿易株式会社,,株式会社,福島県,郡山市,大槻町字西ノ宮西５９番地の７,,07,203,9630201,,,,,,,2023-01-04,1,,,,,,0
1334,6410001006024,新規,0,2023-01-04,2023-01-04,松栄工業株式会社,,株式会社,秋田県,大館市,二井田字吉富士７３番地の１,,05,204,0185751,,,,,,,2023-01-04,1,,,,,ショウエイコウギョウ,0
1342,6430001088119,新規,0,2023-01-04,2023-01-04,株式会社スマイルエイトリース,,株式会社,北海道,札幌市北区,篠路町拓北１６２番地６１,,01,102,0028054,,,,,,,2023-01-04,1,,,,,スマイルエイトリース,0
1344,6430003014592,新規,0,2023-01-04,2023-01-04,ＫＩＲＩ合同会社,,合同会社,北海道,札幌市豊平区,月寒東二条３丁目７番１９－３０２号,,01,105,0620052,,,,,,,2023-01-04,1,,,,,キリ,0
1351,6480001011967,新規,0,2023-01-04,2023-01-04,株式会社早見電設,,株式会社,徳島県,名西郡石井町,石井字石井１１４８番地４,,36,341,7793233,,,,,,,2023-01-04,1,,,,,ハヤミデンセツ,0
1352,6480003001909,新規,0,2023-01-04,2023-01-04,三浦合同会社,,合同会社,徳島県,徳島市,徳島本町１丁目１５番地山下ビル４階,,36,201,7700854,,,,,,,2023-01-04,1,,,,,ミウラ,0
1365,7010005036057,新規,0,2023-01-04,2023-01-04,自然エネルギーＳＥＢＥ１一般社団法人,,その他の設立登記法人,東京都,千代田区,丸の内３丁目１番１号東京共同会計事務所内,,13,101,1000005,,,,,,,2023-01-04,1,,,,,シゼンエネルギーエスイービーイーワン,0
1375,7010405021699,新規,0,2023-01-04,2023-01-04,一般社団法人えびの市浦太陽光発電所,,その他の設立登記法人,東京都,港区,西新橋１丁目２番９号メンターキャピタル税理士法人内,,13,103,1050003,,,,,,,2023-01-04,1,,,,,エビノシウラタイヨウコウハツデンショ,0
1379,7010601062373,新規,0,2023-01-04,2023-01-04,株式会社健和,,株式会社,東京都,江東区,有明３丁目７番２６号有明フロンティアビルＢ棟９階,,13,108,1350063,,,,,,,2023-01-04,1,,,,,ケンワ,0
1384,7010801013556,新規,0,2023-01-04,2023-01-04,日産チェリー池上販売株式会社,,株式会社,東京都,大田区,仲池上２丁目２３番１６号,,13,111,1460081,,,,,,,2023-01-04,1,,,,,,0
1386,7010801033562,新規,0,2023-01-04,2023-01-04,アリスト株式会社,,株式会社,東京都,大田区,北糀谷１丁目７番９号,,13,111,1440032,,,,,,,2023-01-04,1,,,,,アリスト,0
1389,7010903007869,新規,0,2023-01-04,2023-01-04,日本武尊合同会社,,合同会社,東京都,世田谷区,用賀３丁目１１番１０号,,13,112,1580097,,,,,,,2023-01-04,1,,,,,ヤマトタケル,0
1393,7011001151709,新規,0,2023-01-04,2023-01-04,株式会社ＧＬＥＩＺ,,株式会社,東京都,渋谷区,宇田川町４１番３５号エスコート渋谷７０２,,13,113,1500042,,,,,,,2023-01-04,1,,,,,グレイズ,0
1397,7011101101340,新規,0,2023-01-04,2023-01-04,株式会社Ｍ‐Ｖｅｒｓｅ,,株式会社,東京都,新宿区,西新宿６丁目１５番１号,,13,104,1600023,,,,,,,2023-01-04,1,,,,,エムヴァース,0
1401,7011103012544,新規,0,2023-01-04,2023-01-04,合同会社Ａ＆Ｓｏｎｓ,,合同会社,東京都,新宿区,西早稲田１丁目６番３号,,13,104,1690051,,,,,,,2023-01-04,1,,,,,エーアンドサンズ,0
1408,7011801014981,新規,0,2023-01-04,2023-01-04,日産チェリー足立販売株式会社,,株式会社,東京都,足立区,青井６丁目２５番６号,,13,121,1210012,,,,,,,2023-01-04,1,,,,,,0
1413,7011801041737,新規,0,2023-01-04,2023-01-04,株式会社ＷＹ’ｓ,,株式会社,東京都,葛飾区,東新小岩８丁目３６番６号,,13,122,1240023,,,,,,,2023-01-04,1,,,,,ワイズ,0
1422,7012403005758,新規,0,2023-01-04,2023-01-04,合同会社ありがとう屋,,合同会社,東京都,府中市,府中町２丁目２－２光ビル３Ｆ,,13,206,1830055,,,,,,,2023-01-04,1,,,,,アリガトウヤ,0
1427,7013303006433,新規,0,2023-01-04,2023-01-04,Ｔｒｉｇｏ合同会社,,合同会社,東京都,豊島区,南池袋３丁目９番５－９１６号,,13,116,1710022,,,,,,,2023-01-04,1,,,,,トリーゴ,0
1432,7020001149596,新規,0,2023-01-04,2023-01-04,横浜ラジオロジカ株式会社,,株式会社,神奈川県,横浜市金沢区,福浦３丁目９番地横浜市立大学医学部研究棟Ａ２２１号,,14,108,2360004,,,,,,,2023-01-04,1,,,,,ヨコハマラジオロジカ,0
1451,7030001151667,新規,0,2023-01-04,2023-01-04,株式会社フェリックス,,株式会社,埼玉県,坂戸市,清水町４６番８号レオパレスソユーズ１０６号室,,11,239,3500222,,,,,,,2023-01-04,1,,,,,フェリックス,0
1452,7030001151683,新規,0,2023-01-04,2023-01-04,株式会社ドリア,,株式会社,埼玉県,蓮田市,大字黒浜３５３６番地２,,11,238,3490101,,,,,,,2023-01-04,1,,,,,ドリア,0
1455,7030003020853,新規,0,2023-01-04,2023-01-04,合同会社ＢＲＩＤＧＥ,,合同会社,埼玉県,所沢市,若狭１丁目２９７２番地の３５,,11,208,3591151,,,,,,,2023-01-04,1,,,,,ブリッジ,0
1459,7040001126412,新規,0,2023-01-04,2023-01-04,株式会社ラハマエンタープライズ,,株式会社,千葉県,野田市,三ツ堀１３６７番地２１,,12,208,2780011,,,,,,,2023-01-04,1,,,,,ラハマエンタープライズ,0
1460,7040001126420,新規,0,2023-01-04,2023-01-04,ＥＡＧＬＥ株式会社,,株式会社,千葉県,佐倉市,表町３丁目１８番地７エクセルさくら２－Ａ,,12,212,2850811,,,,,,,2023-01-04,1,,,,,イーグル,0
1462,7040002068182,新規,0,2023-01-04,2023-01-04,有限会社今関写真,,有限会社,千葉県,袖ケ浦市,福王台３丁目１４番地の７,,12,229,2990261,,,,,,,2023-01-04,1,,,,,イマゼキシャシン,0
1472,7080001025370,新規,0,2023-01-04,2023-01-04,株式会社ＯＮＥ　ＴＲＥＥ,,株式会社,静岡県,静岡市葵区,西千代田町２３番３４号ライブイン西千代田１０５,,22,101,4200847,,,,,,,2023-01-04,1,,,,,ワンツリー,0
1473,7080101023712,新規,0,2023-01-04,2023-01-04,株式会社スタジオバウム,,株式会社,静岡県,三島市,中島２４３番地の２,,22,206,4110814,,,,,,,2023-01-04,1,,,,,スタジオバウム,0
1474,7080401026225,新規,0,2023-01-04,2023-01-04,株式会社キビカ,,株式会社,静岡県,浜松市東区,丸塚町２１４－１,,22,132,4350046,,,,,,,2023-01-04,1,,,,,キビカ,0
1476,7100001036002,新規,0,2023-01-04,2023-01-04,株式会社エスティースペース,,株式会社,長野県,長野市,南石堂町１４２３番地４南石堂Ａ－１ビル３０２号,,20,201,3810000,,,,,,,2023-01-04,1,,,,,エスティースペース,0
1484,7120001251433,新規,0,2023-01-04,2023-01-04,武サービス株式会社,,株式会社,大阪府,大阪市浪速区,日本橋東１丁目１－５（２Ｆ）,,27,111,5560006,,,,,,,2023-01-04,1,,,,,タケサービス,0
1489,7120103004978,新規,0,2023-01-04,2023-01-04,ＣＲＡＺＹ　ＫＮＯＣＫ合同会社,,合同会社,大阪府,和泉市,寺田町２丁目４番５９号,,27,219,5940062,,,,,,,2023-01-04,1,,,,,クレイジーノック,0
1502,7130001073372,新規,0,2023-01-04,2023-01-04,富士鳴沢総合開発株式会社,,株式会社,京都府,京都市右京区,嵯峨野宮ノ元町５５－４,,26,108,6168315,,,,,,,2023-01-04,1,,,,,フジナルサワソウゴウカイハツ,0
1503,7130001073397,新規,0,2023-01-04,2023-01-04,株式会社Ｋ＆Ｙ,,株式会社,京都府,京都市北区,紫野上御所田町１１番地５,,26,101,6038166,,,,,,,2023-01-04,1,,,,,ケイアンドワイ,0
1512,7140001128555,新規,0,2023-01-04,2023-01-04,株式会社ゾロワークス,,株式会社,兵庫県,神戸市兵庫区,天王町３丁目５,,28,105,6520021,,,,,,,2023-01-04,1,,,,,ゾロワークス,0
1513,7140001128605,新規,0,2023-01-04,2023-01-04,株式会社エスエヌケイ,,株式会社,兵庫県,神戸市西区,森友４丁目７６,,28,111,6512132,,,,,,,2023-01-04,1,,,,,エスエヌケイ,0
1518,7140003018523,新規,0,2023-01-04,2023-01-04,合同会社カワニシ,,合同会社,兵庫県,神戸市中央区,加納町２丁目９－１８－４０４,,28,110,6500001,,,,,,,2023-01-04,1,,,,,カワニシ,0
1519,7140005026425,新規,0,2023-01-04,2023-01-04,医療法人くろかわ皮フ科,,その他の設立登記法人,兵庫県,尼崎市,南武庫之荘１丁目１２番１号松弥サウスモール２Ｆ,,28,202,6610033,,,,,,,2023-01-04,1,,,,,クロカワヒフカ,0
1527,7180003024641,新規,0,2023-01-04,2023-01-04,Ａｌｌｅｇｒｏ　ＭｉｃｒｏＳｙｓｔｅｍｓ　Ｊａｐａｎ合同会社,,合同会社,愛知県,名古屋市中村区,名駅４丁目４番１０号名古屋クロスコートタワー１０階,,23,105,4500002,,,,,,,2023-01-04,1,,,,,アレグロマイクロシステムズジャパン,0
1531,7210005010074,新規,0,2023-01-04,2023-01-04,一般社団法人あわらＣｏｎｎｅｃｔ,,その他の設立登記法人,福井県,あわら市,花乃杜１丁目３番２７号フォレスタデフィオーレ１０３号室,,18,208,9190633,,,,,,,2023-01-04,1,,,,,アワラコネクト,0
1533,7240001060863,新規,0,2023-01-04,2023-01-04,中村産業株式会社,,株式会社,広島県,呉市,吉浦池ノ浦町１２番１２号,,34,202,7370844,,,,,,,2023-01-04,1,,,,,ナカムラサンギョウ,0
1534,7240001060871,新規,0,2023-01-04,2023-01-04,株式会社ＵＢＸ　ＪＡＰＡＮ,,株式会社,広島県,広島市安佐南区,相田１丁目１番３３号,,34,105,7310141,,,,,,,2023-01-04,1,,,,,ユーボックスジャパン,0
1535,7240001060888,新規,0,2023-01-04,2023-01-04,株式会社旭広告ソリューションズ,,株式会社,広島県,広島市南区,旭２丁目８番６号,,34,103,7340036,,,,,,,2023-01-04,1,,,,,アサヒコウコクソリューションズ,0
1539,7260001037521,新規,0,2023-01-04,2023-01-04,株式会社路地裏ミートガーデン,,株式会社,岡山県,岡山市南区,福吉町１９－１８,,33,104,7028048,,,,,,,2023-01-04,1,,,,,ロジウラミートガーデン,0
1540,7260003004131,新規,0,2023-01-04,2023-01-04,第八白虎合同会社,,合同会社,岡山県,笠岡市,大井南２１番地１０,,33,205,7140013,,,,,,,2023-01-04,1,,,,,ダイハチハクト,0
1542,7280001008850,新規,0,2023-01-04,2023-01-04,高誠テック株式会社,,株式会社,島根県,出雲市,大島町１１７１番地３,,32,203,6990821,,,,,,,2023-01-04,1,,,,,コウセイテック,0
1547,7290001100004,新規,0,2023-01-04,2023-01-04,株式会社ＦｌｙＡｗａｙ,,株式会社,福岡県,福岡市東区,青葉６丁目９番６号,,40,131,8130025,,,,,,,2023-01-04,1,,,,,フライアウェイ,0
1548,7290001100037,新規,0,2023-01-04,2023-01-04,株式会社太宰府建設,,株式会社,福岡県,太宰府市,朱雀１丁目１番１３－７０８号,,40,221,8180103,,,,,,,2023-01-04,1,,,,,ダザイフケンセツ,0
1555,7290005018886,新規,0,2023-01-04,2023-01-04,医療法人ふるり,,その他の設立登記法人,福岡県,春日市,惣利１丁目２９番,,40,218,8160813,,,,,,,2023-01-04,1,,,,,フルリ,0
1558,7290801029153,新規,0,2023-01-04,2023-01-04,株式会社ＢＴＳおこしかけ,,株式会社,福岡県,北九州市八幡東区,荒生田２丁目１番１９号,,40,108,8050015,,,,,,,2023-01-04,1,,,,,ビーティーエスオコシカケ,0
1561,7310001018185,新規,0,2023-01-04,2023-01-04,株式会社ｌａｕｇｈｔａｌｅ,,株式会社,長崎県,佐世保市,名切町３１３番地７,,42,202,8570023,,,,,,,2023-01-04,1,,,,,ラフテル,0
1564,7330003009651,新規,0,2023-01-04,2023-01-04,合同会社ンヴェゴロン,,合同会社,熊本県,阿蘇郡南阿蘇村,大字長野３０８番地,,43,433,8691403,,,,,,,2023-01-04,1,,,,,ンヴェゴロン,0
1568,7340001025261,新規,0,2023-01-04,2023-01-04,株式会社ハウスメンテかのや,,株式会社,鹿児島県,鹿屋市,上谷町１０番４号,,46,203,8930061,,,,,,,2023-01-04,1,,,,,ハウスメンテカノヤ,0
1569,7340003004008,新規,0,2023-01-04,2023-01-04,合同会社日本塩川,,合同会社,鹿児島県,鹿児島市,易居町９番２２－５０３号,,46,201,8920815,,,,,,,2023-01-04,1,,,,,ニッポンシオカワ,0
1583,7380005012657,新規,0,2023-01-04,2023-01-04,御幸教会,,その他の設立登記法人,福島県,南相馬市,原町区青葉町１丁目２００－６,,07,212,9750039,,,,,,,2023-01-04,1,,,,,ミユキキョウカイ,0
1602,8010001231825,新規,0,2023-01-04,2023-01-04,バートデザイン株式会社,,株式会社,東京都,中央区,日本橋茅場町１丁目９番２号,,13,102,1030025,,,,,,,2023-01-04,1,,,,,バートデザイン,0
1603,8010001231949,新規,0,2023-01-04,2023-01-04,株式会社Ｒｅｖｅｒｓｅ,,株式会社,東京都,文京区,千駄木３丁目４８－６アパートメンツ千駄木１００２号,,13,105,1130022,,,,,,,2023-01-04,1,,,,,リバース,0
1608,8010005036048,新規,0,2023-01-04,2023-01-04,一般社団法人和華文化交流協会,,その他の設立登記法人,東京都,千代田区,神田佐久間町３丁目２１番７号千代田電通ビル,,13,101,1010025,,,,,,,2023-01-04,1,,,,,ワカブンカコウリュウキョウカイ,0
1609,8010005036056,新規,0,2023-01-04,2023-01-04,ナンキョク特定目的会社,,その他の設立登記法人,東京都,千代田区,丸の内３丁目１番１号東京共同会計事務所内,,13,101,1000005,,,,,,,2023-01-04,1,,,,,ナンキョク,0
1615,8010401171588,新規,0,2023-01-04,2023-01-04,ＰＩＰ　ＪＡＰＡＮ株式会社,,株式会社,東京都,港区,芝大門２丁目４－４富士ビル５階,,13,103,1050012,,,,,,,2023-01-04,1,,,,,ピーアイピージャパン,0
1616,8010401171605,新規,0,2023-01-04,2023-01-04,クロスロー株式会社,,株式会社,東京都,港区,浜松町２丁目２番１５号浜松町ダイヤビル２Ｆ,,13,103,1050013,,,,,,,2023-01-04,1,,,,,クロスロー,0
1617,8010401171621,新規,0,2023-01-04,2023-01-04,Ｂｌｏｓｓｏｍ　Ｂｉｄｃｏ株式会社,,株式会社,東京都,港区,白金台３丁目１０番１０号,,13,103,1080071,,,,,,,2023-01-04,1,,,,,ブロッサムビッドコー,0
1618,8010403029215,新規,0,2023-01-04,2023-01-04,合同会社ワスカラン,,合同会社,東京都,港区,芝浦１丁目６番４１－３４１１号,,13,103,1050023,,,,,,,2023-01-04,1,,,,,ワスカラン,0
1624,8010901052247,新規,0,2023-01-04,2023-01-04,株式会社ＰＨ,,株式会社,東京都,世田谷区,代田１丁目１５番１６号,,13,112,1550033,,,,,,,2023-01-04,1,,,,,ピーエイチ,0
1627,8011001151708,新規,0,2023-01-04,2023-01-04,株式会社ブレイシング・チューン,,株式会社,東京都,渋谷区,恵比寿１丁目１５番９号日宝恵比寿ビル４０３,,13,113,1500013,,,,,,,2023-01-04,1,,,,,ブレイシングチューン,0
1628,8011001151716,新規,0,2023-01-04,2023-01-04,ＤＢＡＯ株式会社,,株式会社,東京都,目黒区,上目黒３丁目１番６号松島ビル５０１,,13,110,1530051,,,,,,,2023-01-04,1,,,,,ディービーエーオー,0
1634,8011101101331,新規,0,2023-01-04,2023-01-04,ＭＪＣ株式会社,,株式会社,東京都,新宿区,西落合１丁目３３番２２号,,13,104,1610031,,,,,,,2023-01-04,1,,,,,エムジェイシー,0
1662,8020001149595,新規,0,2023-01-04,2023-01-04,株式会社４６Ｒ,,株式会社,神奈川県,川崎市多摩区,登戸６２１番地リヴェール１０２号室,,14,135,2140014,,,,,,,2023-01-04,1,,,,,ヨンロクアール,0
1663,8020001149604,新規,0,2023-01-04,2023-01-04,株式会社ＸＯＮＥ,,株式会社,神奈川県,横浜市港北区,日吉２丁目２３番４号シュエット日吉１０２,,14,109,2230061,,,,,,,2023-01-04,1,,,,,エックスワン,0
1670,8030003020852,新規,0,2023-01-04,2023-01-04,合同会社ＳｍａｒｔＯｎｅ,,合同会社,埼玉県,さいたま市見沼区,大字蓮沼１１９７番地１、２０２号室,,11,104,3370015,,,,,,,2023-01-04,1,,,,,スマートワン,0
1683,8040003021593,新規,0,2023-01-04,2023-01-04,合同会社相原建設,,合同会社,千葉県,八千代市,保品１０３５番地１,,12,221,2760013,,,,,,,2023-01-04,1,,,,,アイハラケンセツ,0
1688,8050001052160,新規,0,2023-01-04,2023-01-04,株式会社葡萄蔦,,株式会社,茨城県,行方市,羽生５９９番地,,08,233,3113507,,,,,,,2023-01-04,1,,,,,ブドウヅタ,0
1694,8060001035569,新規,0,2023-01-04,2023-01-04,株式会社リボーン,,株式会社,栃木県,宇都宮市,宝木本町２０４５番地１５,,09,201,3200075,,,,,,,2023-01-04,1,,,,,リボーン,0
1700,8080401026224,新規,0,2023-01-04,2023-01-04,株式会社栄花,,株式会社,静岡県,浜松市南区,本郷町３５３番地の１,,22,134,4300812,,,,,,,2023-01-04,1,,,,,エイガ,0
1712,8120001251399,新規,0,2023-01-04,2023-01-04,株式会社ＩＲＳ,,株式会社,大阪府,枚方市,三栗１丁目１番２８号－１Ｆ,,27,210,5731171,,,,,,,2023-01-04,1,,,,,アイアールエス,0
1713,8120001251432,新規,0,2023-01-04,2023-01-04,株式会社ＺＥＲＯ　ＮＥＸＴ,,株式会社,大阪府,大阪市中央区,鎗屋町２丁目２番１０号三洋谷町ビル４階,,27,128,5400027,,,,,,,2023-01-04,1,,,,,ゼロネクスト,0
1714,8120101066755,新規,0,2023-01-04,2023-01-04,杉本建設株式会社,,株式会社,大阪府,岸和田市,尾生町１６５８番地の１,,27,202,5960816,,,,,,,2023-01-04,1,,,,,スギモトケンセツ,0
1716,8120901046923,新規,0,2023-01-04,2023-01-04,株式会社ＡＲＴ　ＲＹＯＵ,,株式会社,大阪府,高槻市,古曽部町２丁目６番１号メゾン高槻古曽部６０５号室,,27,207,5691115,,,,,,,2023-01-04,1,,,,,アートリョウ,0
1720,8122003002482,新規,0,2023-01-04,2023-01-04,コンバーティングサポート合同会社,,合同会社,大阪府,東大阪市,旭町１８番３４号,,27,227,5798048,,,,,,,2023-01-04,1,,,,,コンバーティングサポート,0
1721,8130001073371,新規,0,2023-01-04,2023-01-04,株式会社栗山,,株式会社,京都府,京都市南区,大宮通八条下る九条町４１２番地２６,,26,107,6018473,,,,,,,2023-01-04,1,,,,,クリヤマ,0
1730,8140001128471,新規,0,2023-01-04,2023-01-04,フクシア株式会社,,株式会社,兵庫県,姫路市,北今宿３丁目７番４１号,,28,201,6700057,,,,,,,2023-01-04,1,,,,,フクシア,0
1731,8140003018522,新規,0,2023-01-04,2023-01-04,合同会社ＳＮＹ,,合同会社,兵庫県,神戸市灘区,鶴甲２丁目３番３－２０２号,,28,102,6570011,,,,,,,2023-01-04,1,,,,,エスエヌワイ,0
1733,8140005026424,新規,0,2023-01-04,2023-01-04,医療法人恵寿会,,その他の設立登記法人,兵庫県,姫路市,本町２１８番地,,28,201,6700012,,,,,,,2023-01-04,1,,,,,ケイジュカイ,0
1745,8180003024665,新規,0,2023-01-04,2023-01-04,合同会社ＩＭプロパティ,,合同会社,愛知県,春日井市,柏井町２丁目２４番地１,,23,206,4860927,,,,,,,2023-01-04,1,,,,,アイエムプロパティ,0
1754,8200005013432,新規,0,2023-01-04,2023-01-04,一般社団法人ｃｏｎｅｔ,,その他の設立登記法人,岐阜県,可児郡御嵩町,井尻３４番地２１,,21,521,5050115,,,,,,,2023-01-04,1,,,,,コネット,0
1756,8210001019192,新規,0,2023-01-04,2023-01-04,株式会社ＴＥＲＲＡ　ｗｏｒｋｓ,,株式会社,福井県,福井市,和田東１丁目２１０１番地,,18,201,9188237,,,,,,,2023-01-04,1,,,,,テラワークス,0
1761,8240001060862,新規,0,2023-01-04,2023-01-04,株式会社がむしゃら,,株式会社,広島県,広島市佐伯区,薬師が丘３丁目５番７号,,34,108,7315154,,,,,,,2023-01-04,1,,,,,ガムシャラ,0
1763,8240003005956,新規,0,2023-01-04,2023-01-04,ＲＡＩＺｅｋｋａ合同会社,,合同会社,広島県,広島市佐伯区,石内北２丁目１２番２号,,34,108,7315109,,,,,,,2023-01-04,1,,,,,ライゼッカ,0
1768,8260001037520,新規,0,2023-01-04,2023-01-04,株式会社ｄｕｒｏ,,株式会社,岡山県,井原市,井原町１９７番地１出原ビル１階,,33,207,7150019,,,,,,,2023-01-04,1,,,,,ドゥーロ,0
1771,8270001008693,新規,0,2023-01-04,2023-01-04,株式会社ＯＮＥ　ＢＲＩＬＬＩＡＮＣＥ,,株式会社,鳥取県,倉吉市,小鴨１１５,,31,203,6820931,,,,,,,2023-01-04,1,,,,,ワンブリリアンス,0
1782,8310001018184,新規,0,2023-01-04,2023-01-04,株式会社ｅｄｅ,,株式会社,長崎県,大村市,寿古町３０６番地２,,42,205,8560801,,,,,,,2023-01-04,1,,,,,エデ,0
1787,8320001007582,新規,0,2023-01-04,2023-01-04,株式会社安東組,,株式会社,大分県,宇佐市,住吉町１丁目１７番地,,44,211,8720033,,,,,,,2023-01-04,1,,,,,,0
1791,8330003009650,新規,0,2023-01-04,2023-01-04,合同会社エバ・ウィース,,合同会社,熊本県,熊本市中央区,本荘６丁目１－３大栄ビル１Ｆ,,43,101,8600811,,,,,,,2023-01-04,1,,,,,エバウィース,0
1793,8340005009540,新規,0,2023-01-04,2023-01-04,一般社団法人キリシマみらいタス交響楽団,,その他の設立登記法人,鹿児島県,鹿児島市,加治屋町１１番２０－５０３号,,46,201,8920846,,,,,,,2023-01-04,1,,,,,キリシマミライタスコウキョウガクダン,0
1800,8370001049397,新規,0,2023-01-04,2023-01-04,株式会社ソラクト,,株式会社,宮城県,仙台市若林区,南小泉３丁目７番１－７号,,04,103,9840827,,,,,,,2023-01-04,1,,,,,ソラクト,0
1804,8370005010586,新規,0,2023-01-04,2023-01-04,一般社団法人いくらこグループ,,その他の設立登記法人,宮城県,仙台市青葉区,福沢町５番４１－３０１号,,04,101,9800002,,,,,,,2023-01-04,1,,,,,イクラコグループ,0
1817,8480001011965,新規,0,2023-01-04,2023-01-04,株式会社藤時,,株式会社,徳島県,徳島市,川内町平石若宮２６８番地の３,,36,201,7710137,,,,,,,2023-01-04,1,,,,,フジトキ,0
1821,8500001024691,新規,0,2023-01-04,2023-01-04,株式会社ｉｌｏ,,株式会社,愛媛県,松山市,南久米町２６２番地３,,38,201,7900924,,,,,,,2023-01-04,1,,,,,イロ,0
1824,9010001024740,新規,0,2023-01-04,2023-01-04,株式会社トラベルエキスパーツ,,株式会社,東京都,千代田区,九段南３丁目４番１５号,,13,101,1020074,,,,,,,2023-01-04,1,,,,,トラベルエキスパーツ,0
1826,9010001056643,新規,0,2023-01-04,2023-01-04,ベレッツアクラブジャパン株式会社,,株式会社,東京都,中央区,京橋３丁目３番８号,,13,102,1040031,,,,,,,2023-01-04,1,,,,,ベレッツアクラブジャパン,0
1833,9010003039464,新規,0,2023-01-04,2023-01-04,合同会社スヤスヤ,,合同会社,東京都,中央区,月島４丁目１６番２２－７０３号,,13,102,1040052,,,,,,,2023-01-04,1,,,,,スヤスヤ,0
1834,9010005036055,新規,0,2023-01-04,2023-01-04,弁護士法人ＭＩＡ法律事務所,,その他の設立登記法人,東京都,中央区,銀座２丁目８番１８－７０２号,,13,102,1040061,,,,,,,2023-01-04,1,,,,,エムアイエーホウリツジムショ,0
1836,9010105002196,新規,0,2023-01-04,2023-01-04,一般社団法人獨楽庵,,その他の設立登記法人,東京都,八王子市,元横山町２丁目４番２１号,,13,201,1920063,,,,,,,2023-01-04,1,,,,,ドクラクアン,0
1838,9010401171471,新規,0,2023-01-04,2023-01-04,株式会社Ｆｏｒｅｓｔ　Ｊａｐａｎ,,株式会社,東京都,港区,赤坂１丁目３番１９号,,13,103,1070052,,,,,,,2023-01-04,1,,,,,フォレストジャパン,0
1839,9010401171587,新規,0,2023-01-04,2023-01-04,ＬＳ‐ＳＨＩＰ第３６号株式会社,,株式会社,東京都,港区,六本木１丁目６番１号,,13,103,1060032,,,,,,,2023-01-04,1,,,,,エルエスシップダイサンジュウロクゴウ,0
1840,9010401171629,新規,0,2023-01-04,2023-01-04,Ｆｕｔｏｋｏｒｏ株式会社,,株式会社,東京都,港区,南青山３丁目１番３６号青山丸竹ビル６Ｆ,,13,103,1070062,,,,,,,2023-01-04,1,,,,,フトコロ,0
1847,9010701012879,新規,0,2023-01-04,2023-01-04,日産チェリー品川販売株式会社,,株式会社,東京都,品川区,戸越６丁目１番１６号,,13,109,1420041,,,,,,,2023-01-04,1,,,,,,0
1848,9010901014444,新規,0,2023-01-04,2023-01-04,日産チェリー世田谷西販売株式会社,,株式会社,東京都,世田谷区,上用賀６丁目３２番３０号,,13,112,1580098,,,,,,,2023-01-04,1,,,,,,0
1870,9012305002034,新規,0,2023-01-04,2023-01-04,特定非営利活動法人ＳＴＡＮＤ　ＡＬＩＶＥ,,その他の設立登記法人,東京都,町田市,相原町１７７１番地２７,,13,209,1940211,,,,,,,2023-01-04,1,,,,,スタンドアライブ,0
1878,9020001149603,新規,0,2023-01-04,2023-01-04,株式会社フェアウェイ,,株式会社,神奈川県,横浜市戸塚区,上矢部町４７番地３ラムーナ横浜戸塚スカイリッジ８０３号,,14,110,2450053,,,,,,,2023-01-04,1,,,,,フェアウェイ,0
1889,9021003012559,新規,0,2023-01-04,2023-01-04,慈提庵合同会社,,合同会社,神奈川県,平塚市,豊田平等寺３４０－１,,14,203,2540086,,,,,,,2023-01-04,1,,,,,ジダイアン,0
1897,9040001126419,新規,0,2023-01-04,2023-01-04,小蜜蜂株式会社,,株式会社,千葉県,四街道市,大日３３番地１２,,12,228,2840001,,,,,,,2023-01-04,1,,,,,コミツバチ,0
1898,9040001126435,新規,0,2023-01-04,2023-01-04,株式会社テーズ,,株式会社,千葉県,千葉市花見川区,さつきが丘２丁目３５番地１０,,12,102,2620014,,,,,,,2023-01-04,1,,,,,テーズ,0
1905,9080401026223,新規,0,2023-01-04,2023-01-04,株式会社ＧＴＣ　ＳＯＬＵＴＩＯＮ,,株式会社,静岡県,浜松市北区,細江町中川６３７４番地の１,,22,135,4311304,,,,,,,2023-01-04,1,,,,,ジーティーシーソリューション,0
1907,9100001036000,新規,0,2023-01-04,2023-01-04,株式会社ナガニック,,株式会社,長野県,安曇野市,三郷明盛１０６４－１,,20,220,3998101,,,,,,,2023-01-04,1,,,,,ナガニック,0
1917,9120001251381,新規,0,2023-01-04,2023-01-04,株式会社ＭＫＣ,,株式会社,大阪府,大阪市生野区,勝山南１丁目１番２０号シルクロード勝山２０２,,27,116,5440021,,,,,,,2023-01-04,1,,,,,エムケーシー,0
1918,9120001251431,新規,0,2023-01-04,2023-01-04,株式会社ＳＴＵＤ　Ｘ,,株式会社,大阪府,大阪市中央区,南船場４丁目１０－１８ナサプライムハウス別館７階,,27,128,5420081,,,,,,,2023-01-04,1,,,,,スタッドエックス,0
1919,9120001251448,新規,0,2023-01-04,2023-01-04,株式会社無限,,株式会社,大阪府,大阪市浪速区,元町２丁目８番１１号,,27,111,5560016,,,,,,,2023-01-04,1,,,,,ムゲン,0
1920,9120001251497,新規,0,2023-01-04,2023-01-04,株式会社野間電設,,株式会社,大阪府,大阪市生野区,中川西２丁目２２番１０号,,27,116,5440032,,,,,,,2023-01-04,1,,,,,ノマデンセツ,0
1923,9120005023372,新規,0,2023-01-04,2023-01-04,一般社団法人地域生活サポート協会,,その他の設立登記法人,大阪府,大阪市平野区,平野西１丁目７番１４号,,27,126,5470033,,,,,,,2023-01-04,1,,,,,チイキセイカツサポートキョウカイ,0
1930,9130001073387,新規,0,2023-01-04,2023-01-04,ひとみ株式会社,,株式会社,京都府,京都市北区,西賀茂今原町７３番地,,26,101,6038842,,,,,,,2023-01-04,1,,,,,ヒトミ,0
1931,9130003008399,新規,0,2023-01-04,2023-01-04,合同会社ＲＣＰ,,合同会社,京都府,京都市下京区,正面通若宮東入鍵屋町６２０番地２,,26,106,6008317,,,,,,,2023-01-04,1,,,,,アールシーピー,0
1932,9130003008408,新規,0,2023-01-04,2023-01-04,センターウエスト合同会社,,合同会社,京都府,宇治市,木幡南山８０－７００,,26,204,6110002,,,,,,,2023-01-04,1,,,,,センターウエスト,0
1937,9140001128578,新規,0,2023-01-04,2023-01-04,株式会社ＨＯＰＥ,,株式会社,兵庫県,西宮市,山口町下山口４丁目２２番１２号,,28,204,6511412,,,,,,,2023-01-04,1,,,,,ホープ,0
1938,9140001128611,新規,0,2023-01-04,2023-01-04,セリュートラスト株式会社,,株式会社,兵庫県,明石市,大久保町駅前２丁目１番地の１０,,28,203,6740058,,,,,,,2023-01-04,1,,,,,セリュートラスト,0
1948,9150001026054,新規,0,2023-01-04,2023-01-04,株式会社侑和建設,,株式会社,奈良県,天理市,乙木町６０７番１,,29,204,6320047,,,,,,,2023-01-04,1,,,,,ユウワケンセツ,0
1959,9180001154372,新規,0,2023-01-04,2023-01-04,ＨａＬＵ株式会社,,株式会社,愛知県,名古屋市港区,春田野２丁目２４０４番地１フラワーＩＩ１０６号,00128929,23,111,4550873,,,,,,,2023-01-04,1,,,,,ハル,0
1969,9200003005785,新規,0,2023-01-04,2023-01-04,エヌズエージェンシー合同会社,,合同会社,岐阜県,岐阜市,茜部寺屋敷２丁目５８番地,,21,201,5008267,,,,,,,2023-01-04,1,,,,,エヌズエージェンシー,0
1977,9240001060878,新規,0,2023-01-04,2023-01-04,アセットプランニング株式会社,,株式会社,広島県,広島市南区,段原日出１丁目６番６号,,34,103,7320818,,,,,,,2023-01-04,1,,,,,アセットプランニング,0
1979,9240003005947,新規,0,2023-01-04,2023-01-04,合同会社ｐｉｓＰｉｓ,,合同会社,広島県,尾道市,因島三庄町３３４７番地１,,34,205,7222322,,,,,,,2023-01-04,1,,,,,ピスピス,0
1983,9280001005185,新規,0,2023-01-04,2023-01-04,日原工業株式会社,,株式会社,島根県,鹿足郡津和野町,日原１６９番地１,,32,501,6995221,,,,,,,2023-01-04,1,,,,,ニチハラコウギョウ,0
1994,9290005018884,新規,0,2023-01-04,2023-01-04,医療法人ＢＴＣ　Ｂｅａｕｔｙ　Ｔｕｎｉｎｇ　Ｃｌｉｎｉｃ,,その他の設立登記法人,福岡県,福岡市中央区,天神５丁目７－７メディカルシティ天神５Ｆ,,40,133,8100001,,,,,,,2023-01-04,1,,,,,ビーティーシービューティチューニングクリニック,0
1995,9290005018892,新規,0,2023-01-04,2023-01-04,一般社団法人ＩＢＵＫＩ,,その他の設立登記法人,福岡県,福岡市早良区,百道浜１丁目３番７０－５８０５号,,40,137,8140001,,,,,,,2023-01-04,1,,,,,イブキ,0
2003,9330001030442,新規,0,2023-01-04,2023-01-04,株式会社協同,,株式会社,熊本県,熊本市北区,高平２丁目２２番６号,,43,105,8600085,,,,,,,2023-01-04,1,,,,,キョウドウ,0
2032,9500001024690,新規,0,2023-01-04,2023-01-04,株式会社ａｌｏ,,株式会社,愛媛県,松山市,生石町６２３番地８,,38,201,7900051,,,,,,,2023-01-04,1,,,,,アロ,0
