sequenceNumber,corporateNumber,process,correct,updateDate,changeDate,name,nameImageId,kind,prefectureName,cityName,streetNumber,addressImageId,prefectureCode,cityCode,postCode,addressOutside,addressOutsideImageId,closeDate,closeCause,successorCorporateNumber,changeCause,assignmentDate,latest,enName,enPrefectureName,enCityName,enAddressOutside,furigana,hihyoji
1,1010001038673,登記記録の閉鎖等,0,2025-08-29,2025-08-07,株式会社エム・エス商事,,株式会社,東京都,中央区,日本橋人形町２丁目３４番１１号,,13,102,1030013,,,2025-08-07,清算の結了等,,,2015-10-05,1,,,,,エムエスショウジ,0
11,1010001183057,登記記録の閉鎖等,0,2025-08-29,2025-08-08,ＪＰＶ第８号株式会社,,株式会社,東京都,千代田区,霞が関３丁目２番１号,,13,101,1000013,,,2025-08-08,清算の結了等,,,2017-04-27,1,,,,,ジェイピーブイダイハチゴウ,0
29,1010402012062,登記記録の閉鎖等,0,2025-08-29,2025-07-31,有限会社まんじ安井,,有限会社,東京都,港区,赤坂８丁目１３番１９号インペリアル赤坂一番館１０３号,,13,103,1070052,,,2025-07-31,清算の結了等,,,2015-10-05,1,,,,,マンジヤスイ,0
34,1010405015566,登記記録の閉鎖等,0,2025-08-29,2025-07-31,一般社団法人シアトル,,その他の設立登記法人,東京都,港区,虎ノ門３丁目２２番１０－２０１号,,13,103,1050001,,,2025-07-31,清算の結了等,,,2017-03-08,1,,,,,シアトル,0
40,1010603007019,登記記録の閉鎖等,0,2025-08-29,2025-08-25,合同会社アーバン不動産管理,,合同会社,東京都,江戸川区,本一色２丁目１３番２４号,,13,123,1330044,,,2025-08-25,清算の結了等,,,2017-12-12,1,,,,,アーバンフドウサンカンリ,0
52,1010905001487,登記記録の閉鎖等,0,2025-08-29,2025-08-26,特定非営利活動法人カミイノ,,その他の設立登記法人,東京都,世田谷区,上北沢４丁目３３番３号,,13,112,1560057,,,2025-08-26,清算の結了等,,,2015-10-05,1,,,,,カミイノ,0
66,1011302010899,登記記録の閉鎖等,0,2025-08-29,2025-08-26,有限会社ワンアップ,,有限会社,東京都,八王子市,横川町１０８番地横川町住宅１３－１０５,,13,201,1930823,,,2025-08-26,清算の結了等,,,2015-10-05,1,,,,,ワンアップ,0
67,1011501012770,登記記録の閉鎖等,0,2025-08-29,2025-08-26,フライアット株式会社,,株式会社,東京都,荒川区,南千住３丁目３７番４号,,13,118,1160003,,,2025-08-26,清算の結了等,,,2015-10-05,1,,,,,フライアット,0
80,1020001156350,登記記録の閉鎖等,0,2025-08-29,2025-08-05,株式会社サンクリエイト,,株式会社,神奈川県,川崎市宮前区,野川本町１丁目８番３３－６０７号エスペランサ野川,,14,136,2160041,,,2025-08-05,清算の結了等,,,2024-03-18,1,,,,,サンクリエイト,0
82,1020002038374,登記記録の閉鎖等,0,2025-08-29,2025-08-12,有限会社佐野製作所,,有限会社,神奈川県,横浜市港北区,綱島東４丁目１０－１３,,14,109,2230052,,,2025-08-12,清算の結了等,,,2015-10-05,1,,,,,サノセイサクショ,0
104,1040001130824,登記記録の閉鎖等,0,2025-08-29,2025-08-05,株式会社ＫＳ　Ｅｎｔｅｒｐｒｉｓｅ,,株式会社,千葉県,我孫子市,新木野１丁目１０番３７号,,12,222,2701114,,,2025-08-05,清算の結了等,,,2023-11-08,1,,,,,ケーエスエンタープライズ,0
113,1060002039113,登記記録の閉鎖等,0,2025-08-29,2025-08-25,有限会社ジーマ,,有限会社,栃木県,佐野市,赤見町３２５７番地１,,09,204,3270104,,,2025-08-25,清算の結了等,,,2015-10-05,1,,,,,ジーマ,0
128,1120001075160,登記記録の閉鎖等,0,2025-08-29,2025-08-25,株式会社器設計,,株式会社,大阪府,大阪市中央区,安土町１丁目７番２０号,,27,128,5410052,,,2025-08-25,清算の結了等,,,2015-10-05,1,,,,,ウツワセッケイ,0
134,1120001199265,登記記録の閉鎖等,0,2025-08-29,2025-08-22,株式会社カプリース,,株式会社,大阪府,豊中市,島江町２丁目２０番１９号,,27,203,5610826,,,2025-08-22,清算の結了等,,,2016-07-04,1,,,,,カプリース,0
137,1120001262766,登記記録の閉鎖等,0,2025-08-29,2025-08-20,中和株式会社,,株式会社,大阪府,大阪市生野区,巽北１丁目７番３号２０３号室,00133911,27,116,5440004,,,2025-08-20,清算の結了等,,,2024-03-01,1,,,,,チュウワ,0
157,1120102027309,登記記録の閉鎖等,0,2025-08-29,2025-08-25,有限会社パラテック,,有限会社,大阪府,和泉市,唐国町２丁目１３番４９号,,27,219,5941151,,,2025-08-25,清算の結了等,,,2015-10-05,1,,,,,パラテック,0
171,1130001063296,登記記録の閉鎖等,0,2025-08-29,2025-08-18,創粋ホーム株式会社,,株式会社,京都府,京都市下京区,上珠数屋町通東洞院西入上珠数屋町３３１番地,,26,106,6008150,,,2025-08-18,清算の結了等,,,2018-11-07,1,,,,,ソウスイホーム,0
180,1170002009162,登記記録の閉鎖等,0,2025-08-29,2025-08-28,有限会社ヨコヤ,,有限会社,和歌山県,田辺市,南新町１７５番地,,30,206,6460042,,,2025-08-28,清算の結了等,,,2015-10-05,1,,,,,ヨコヤ,0
183,1180001106249,登記記録の閉鎖等,0,2025-08-29,2025-08-05,株式会社ＩＳＯ,,株式会社,愛知県,名古屋市東区,泉２丁目２９番１７号,,23,102,4610001,,,2025-08-05,清算の結了等,,,2015-10-05,1,,,,,アイエスオー,0
187,1180002089492,登記記録の閉鎖等,0,2025-08-29,2025-08-06,有限会社ボディーショップ明幸,,有限会社,愛知県,津島市,寺野町字青塚前２６番地,,23,208,4960003,,,2025-08-06,清算の結了等,,,2015-10-05,1,,,,,ボディーショップメイコウ,0
188,1180003027022,登記記録の閉鎖等,0,2025-08-29,2025-08-04,合同会社ラ・ジェム,,合同会社,愛知県,瀬戸市,新明町２０番地の２,,23,204,4890849,,,2025-08-04,清算の結了等,,,2024-07-03,1,,,,,ラジェム,0
193,1180303003648,登記記録の閉鎖等,0,2025-08-29,2025-08-12,山藤合同会社,,合同会社,愛知県,蒲郡市,松原町５番１３号,,23,214,4430033,,,2025-08-12,清算の結了等,,,2016-07-19,1,,,,,ヤマフジ,0
196,1200005007333,登記記録の閉鎖等,0,2025-08-29,2025-08-27,特定非営利活動法人宿木,,その他の設立登記法人,岐阜県,美濃加茂市,太田本町２丁目８番１０号,,21,211,5050042,,,2025-08-27,清算の結了等,,,2015-10-05,1,,,,,ヤドリギ,0
199,1230005008584,登記記録の閉鎖等,0,2025-08-29,2025-08-27,協同組合入善町キラキラカード会,,その他の設立登記法人,富山県,下新川郡入善町,入膳５２３２番地５（入善町商工会内）,,16,342,9390626,,,2025-08-27,清算の結了等,,,2015-10-05,1,,,,,ニュウゼンマチキラキラカードカイ,0
202,1240001002474,登記記録の閉鎖等,0,2025-08-29,2025-08-27,株式会社協和,,株式会社,広島県,広島市西区,商工センター４丁目９番９号,,34,104,7330833,,,2025-08-27,清算の結了等,,,2015-10-05,1,,,,,キョウワ,0
203,1240001027785,登記記録の閉鎖等,0,2025-08-29,2025-08-27,株式会社シンエイ,,株式会社,広島県,江田島市,大柿町柿浦２７２３番地１２,,34,215,7372211,,,2025-08-27,清算の結了等,,,2015-10-05,1,,,,,シンエイ,0
204,1240002046512,登記記録の閉鎖等,0,2025-08-29,2025-08-22,有限会社エヌアンドワイコーポレーション,,有限会社,広島県,福山市,新涯町１丁目３４番１４－２号,,34,207,7210955,,,2025-08-22,清算の結了等,,,2015-10-05,1,,,,,エヌアンドワイコーポレーション,0
205,1240002051215,登記記録の閉鎖等,0,2025-08-29,2025-08-27,有限会社ハート・アップ,,有限会社,広島県,尾道市,山波町８８５番地の７,,34,205,7220052,,,2025-08-27,清算の結了等,,,2015-10-05,1,,,,,ハートアップ,0
211,1260005005827,登記記録の閉鎖等,0,2025-08-29,2025-08-15,医療法人三渓会,,その他の設立登記法人,岡山県,高梁市,巨瀬町５０８５番地の１,,33,209,7161311,,,2025-08-15,清算の結了等,,,2015-10-05,1,,,,,サンケイカイ,0
215,1290001084723,登記記録の閉鎖等,0,2025-08-29,2025-08-04,株式会社Ｈ＆Ｚ１０２ホールディングス,,株式会社,福岡県,福岡市博多区,半道橋１丁目６番２１－１００２号,,40,132,8120897,,,2025-08-04,清算の結了等,,,2019-04-05,1,,,,,エイチアンドゼットイチマルニホールディングス,0
219,1290003004415,登記記録の閉鎖等,0,2025-08-29,2025-08-01,合同会社薫風,,合同会社,福岡県,福岡市南区,三宅１丁目１７番７号,,40,134,8111344,,,2025-08-01,清算の結了等,,,2015-10-05,1,,,,,クンプウ,0
220,1290005018727,登記記録の閉鎖等,0,2025-08-29,2025-08-04,一般社団法人文化芸術創造推進協議会,,その他の設立登記法人,福岡県,福岡市南区,大楠３丁目２１番５号高宮東ビル２階,,40,134,8150082,,,2025-08-04,清算の結了等,,,2022-06-20,1,,,,,ブンカゲイジュツソウゾウスイシンキョウギカイ,0
222,1300001003169,登記記録の閉鎖等,0,2025-08-29,2025-08-27,五代商事株式会社,,株式会社,佐賀県,神埼市,神埼町本堀３１３０番地の１６,,41,210,8420003,,,2025-08-27,清算の結了等,,,2015-10-05,1,,,,,ゴダイショウジ,0
228,1330001025953,登記記録の閉鎖等,0,2025-08-29,2025-08-18,株式会社山繕林業,,株式会社,熊本県,上益城郡益城町,大字古閑１０７番１４,,43,443,8612234,,,2025-08-18,清算の結了等,,,2018-12-25,1,,,,,ヤマゼンリンギョウ,0
235,1340002018014,登記記録の閉鎖等,0,2025-08-29,2025-08-25,浜崎水産有限会社,,有限会社,鹿児島県,いちき串木野市,元町７２番地,,46,219,8960014,,,2025-08-25,清算の結了等,,,2015-10-05,1,,,,,,0
242,1380002027226,登記記録の閉鎖等,0,2025-08-29,2025-08-06,有限会社諏訪測建,,有限会社,福島県,いわき市,小名浜諏訪町２６番地の３５,,07,204,9718161,,,2025-08-06,清算の結了等,,,2015-10-05,1,,,,,スワソクケン,0
246,1430001036668,登記記録の閉鎖等,0,2025-08-29,2025-08-06,セクル投資株式会社,,株式会社,北海道,札幌市東区,北三十五条東１５丁目１番１７号オーシャンビル,,01,103,0070835,,,2025-08-06,清算の結了等,,,2015-10-05,1,,,,,セクルトウシ,0
261,2010001183056,登記記録の閉鎖等,0,2025-08-29,2025-08-08,ＪＰＶ第７号株式会社,,株式会社,東京都,千代田区,霞が関３丁目２番１号,,13,101,1000013,,,2025-08-08,清算の結了等,,,2017-04-27,1,,,,,ジェイピーブイダイナナゴウ,0
268,2010005021889,登記記録の閉鎖等,0,2025-08-29,2025-08-04,つばき一般社団法人,,その他の設立登記法人,東京都,中央区,銀座１丁目６番１１号土志田ビルディング３Ｆ,,13,102,1040061,,,2025-08-04,清算の結了等,,,2015-10-05,1,,,,,ツバキ,0
300,2011002016411,登記記録の閉鎖等,0,2025-08-29,2025-08-12,有限会社クリエイティブインプレス,,有限会社,神奈川県,横浜市青葉区,美しが丘西３丁目６３番地６,,14,117,2250001,,,2025-08-12,清算の結了等,,,2015-10-05,1,,,,,クリエイティブインプレス,0
326,2013202011002,登記記録の閉鎖等,0,2025-08-29,2025-08-05,有限会社バンクス・テクニカル・サービス,,有限会社,東京都,目黒区,目黒３丁目２１番２１号,,13,110,1530063,,,2025-08-05,清算の結了等,,,2015-10-05,1,,,,,バンクステクニカルサービス,0
328,2013301045867,登記記録の閉鎖等,0,2025-08-29,2025-08-12,株式会社トラストホーム,,株式会社,神奈川県,横浜市南区,宿町２丁目３４番地ＨＧ５ビルディング１０１号室,,14,105,2320017,,,2025-08-12,清算の結了等,,,2020-07-06,1,,,,,トラストホーム,0
329,2020001071359,登記記録の閉鎖等,0,2025-08-29,2025-08-12,株式会社日本生活ガイド,,株式会社,神奈川県,川崎市幸区,下平間８４番地３,,14,132,2120053,,,2025-08-12,清算の結了等,,,2015-10-05,1,,,,,ニホンセイカツガイド,0
340,2021002055409,登記記録の閉鎖等,0,2025-08-29,2025-08-22,有限会社志沢商事,,有限会社,神奈川県,足柄上郡大井町,金子字根岸向１１７番地１,,14,362,2580019,,,2025-08-22,清算の結了等,,,2015-10-05,1,,,,,シザワショウジ,0
344,2030001025933,登記記録の閉鎖等,0,2025-08-29,2025-08-25,株式会社ユーブイコート,,株式会社,埼玉県,所沢市,大字亀ケ谷１３１－３,,11,208,3590014,,,2025-08-25,清算の結了等,,,2015-10-05,1,,,,,ユーブイコート,0
349,2030001166298,登記記録の閉鎖等,0,2025-08-29,2025-08-22,東新インターナショナル株式会社,,株式会社,埼玉県,草加市,谷塚町１８０４番地１５,,11,221,3400023,,,2025-08-22,清算の結了等,,,2025-05-07,1,,,,,トウシンインターナショナル,0
365,2040002044873,登記記録の閉鎖等,0,2025-08-29,2025-08-05,有限会社奥田装飾,,有限会社,千葉県,松戸市,松飛台５４３番地の１,,12,207,2702214,,,2025-08-05,清算の結了等,,,2015-10-05,1,,,,,オクダソウショク,0
367,2050001028091,登記記録の閉鎖等,0,2025-08-29,2025-08-19,高峰建設株式会社,,株式会社,茨城県,牛久市,田宮町４６６番地１５６,,08,219,3001236,,,2025-08-19,清算の結了等,,,2015-10-05,1,,,,,タカミネケンセツ,0
369,2050005010657,登記記録の閉鎖等,0,2025-08-29,2025-08-14,一般社団法人日本水中考古学調査会,,その他の設立登記法人,茨城県,東茨城郡大洗町,磯浜町６６１８番地の２,,08,309,3111301,,,2025-08-14,清算の結了等,,,2015-10-05,1,,,,,ニホンスイチュウコウコガクチョウサカイ,0
379,2080102012586,登記記録の閉鎖等,0,2025-08-29,2025-08-27,マルマン設備サービス有限会社,,有限会社,静岡県,田方郡函南町,桑原５４７番地の９,,22,325,4190101,,,2025-08-27,清算の結了等,,,2015-10-05,1,,,,,マルマンセツビサービス,0
403,2120001064170,登記記録の閉鎖等,0,2025-08-29,2025-08-25,サテライト・システム株式会社,,株式会社,大阪府,大阪市北区,堂島２丁目１番３１号,,27,127,5300003,,,2025-08-25,合併による解散等,2010403015906,令和７年８月１日東京都千代田区有楽町一丁目２番２号東宝日比谷ビルＭＰデベロップメント株式会社（2010403015906）に合併し解散,2015-10-05,1,,,,,サテライトシステム,0
405,2120001197177,登記記録の閉鎖等,0,2025-08-29,2025-08-15,株式会社サンゼン,,株式会社,大阪府,守口市,東郷通３丁目１３番６号,,27,209,5700041,,,2025-08-15,清算の結了等,,,2016-03-30,1,,,,,サンゼン,0
411,2120001222199,登記記録の閉鎖等,0,2025-08-29,2025-08-15,ＯＲＡ株式会社,,株式会社,大阪府,大阪市住吉区,長居東４丁目４番２４－３０１号,,27,120,5580004,,,2025-08-15,清算の結了等,,,2019-07-05,1,,,,,オーアールエー,0
421,2120101003029,登記記録の閉鎖等,0,2025-08-29,2025-08-25,株式会社シー・アイ・シー,,株式会社,大阪府,堺市東区,菩提町１丁２３９番地,,27,143,5998103,,,2025-08-25,清算の結了等,,,2015-10-05,1,,,,,,0
429,2130001000141,登記記録の閉鎖等,0,2025-08-29,2025-08-12,株式会社嵐山辨慶,,株式会社,京都府,京都市右京区,嵯峨天龍寺芒ノ馬場町３４番地,00035012,26,108,6168385,,,2025-08-12,清算の結了等,,,2015-10-05,1,,,,,アラシヤマベンケイ,0
430,2130001013077,登記記録の閉鎖等,0,2025-08-29,2025-08-12,徳富建設株式会社,,株式会社,京都府,京都市山科区,西野山射庭ノ上町８０番地の７,,26,110,6078307,,,2025-08-12,清算の結了等,,,2015-10-05,1,,,,,,0
434,2140001100997,登記記録の閉鎖等,0,2025-08-29,2025-08-15,株式会社Ｆｏｏｄｓ　Ｊｏｉｎｔ,,株式会社,大阪府,大阪市西区,九条南２丁目１６－２６－２０１,,27,106,5500025,,,2025-08-15,清算の結了等,,,2016-02-10,1,,,,,フーズジョイント,0
436,2140002001690,登記記録の閉鎖等,0,2025-08-29,2025-08-26,有限会社新生物流,,有限会社,兵庫県,神戸市東灘区,本山北町６丁目２番３２号,,28,101,6580003,,,2025-08-26,清算の結了等,,,2015-10-05,1,,,,,シンセイブツリュウ,0
440,2140005015382,登記記録の閉鎖等,0,2025-08-29,2025-08-18,医療法人社団坂東医院,,その他の設立登記法人,兵庫県,三田市,富士が丘６丁目１番地の２,,28,219,6691547,,,2025-08-18,清算の結了等,,,2015-10-05,1,,,,,バンドウイイン,0
449,2180002069411,登記記録の閉鎖等,0,2025-08-29,2025-08-06,有限会社大正電工,,有限会社,愛知県,小牧市,堀の内４丁目８２番地の２,,23,219,4850046,,,2025-08-06,清算の結了等,,,2015-10-05,1,,,,,タイショウデンコウ,0
453,2180301015371,登記記録の閉鎖等,0,2025-08-29,2025-08-21,株式会社中部ウォール,,株式会社,愛知県,碧南市,若松町２丁目２９１番地,,23,209,4470836,,,2025-08-21,清算の結了等,,,2015-10-05,1,,,,,チュウブウォール,0
458,2200005013256,登記記録の閉鎖等,0,2025-08-29,2025-08-27,一般社団法人わかおホールディングス,,その他の設立登記法人,岐阜県,美濃加茂市,あじさいヶ丘１丁目７番地,,21,211,5050029,,,2025-08-27,清算の結了等,,,2021-10-01,1,,,,,ワカオホールディングス,0
459,2220001017960,登記記録の閉鎖等,0,2025-08-29,2025-08-27,株式会社ウェーブネット,,株式会社,石川県,かほく市,白尾ル８８番地,,17,209,9291177,,,2025-08-27,清算の結了等,,,2015-10-05,1,,,,,ウェーブネット,0
465,2240002053920,登記記録の閉鎖等,0,2025-08-29,2025-08-26,有限会社西村木材工業,,有限会社,広島県,三原市,本郷南７丁目１９番２０号,,34,204,7290417,,,2025-08-26,清算の結了等,,,2015-10-05,1,,,,,ニシムラモクザイコウギョウ,0
478,2320002017792,登記記録の閉鎖等,0,2025-08-29,2025-08-22,有限会社伊藤山林,,有限会社,大分県,竹田市,大字入田３４９５番地,,44,208,8780033,,,2025-08-22,清算の結了等,,,2015-10-05,1,,,,,,0
483,2340003002643,登記記録の閉鎖等,0,2025-08-29,2025-08-25,合同会社Ｌｉｎｋ,,合同会社,鹿児島県,鹿屋市,串良町岡崎２３８９－３,,46,203,8931603,,,2025-08-25,清算の結了等,,,2018-08-30,1,,,,,リンク,0
484,2350005005494,登記記録の閉鎖等,0,2025-08-29,2025-08-25,医療法人隆久会,,その他の設立登記法人,宮崎県,宮崎市,大島町西田２１５４番地２,,45,201,8800824,,,2025-08-25,清算の結了等,,,2015-10-05,1,,,,,リュウキュウカイ,0
485,2360001001083,登記記録の閉鎖等,0,2025-08-29,2025-08-20,株式会社ジョゼ,,株式会社,沖縄県,那覇市,久茂地１丁目２番１号,,47,201,9000015,,,2025-08-20,清算の結了等,,,2015-10-05,1,,,,,ジョゼ,0
506,2400002003504,登記記録の閉鎖等,0,2025-08-29,2025-08-13,有限会社大和企画,,有限会社,岩手県,盛岡市,盛岡駅前北通７番１０号,,03,201,0200033,,,2025-08-13,清算の結了等,,,2015-10-05,1,,,,,ヤマトキカク,0
510,2430001001662,登記記録の閉鎖等,0,2025-08-29,2025-08-08,株式会社井上設計,,株式会社,北海道,札幌市中央区,大通西１５丁目３番１３号中央吉井ビル４０５,,01,101,0600042,,,2025-08-08,清算の結了等,,,2015-10-05,1,,,,,イノウエセッケイ,0
513,2430001073677,登記記録の閉鎖等,0,2025-08-29,2025-08-08,株式会社信建工業,,株式会社,北海道,札幌市手稲区,前田八条１８丁目９番２５号,,01,109,0060818,,,2025-08-08,清算の結了等,,,2017-04-07,1,,,,,シンケンコウギョウ,0
517,2430005006856,登記記録の閉鎖等,0,2025-08-29,2025-08-13,特定非営利活動法人美唄のぞみ会,,その他の設立登記法人,北海道,美唄市,西四条南１丁目３番２４号,,01,215,0720027,,,2025-08-13,清算の結了等,,,2015-10-05,1,,,,,ビバイノゾミカイ,0
518,2450001007988,登記記録の閉鎖等,0,2025-08-29,2025-08-27,株式会社ファームイン道北,,株式会社,北海道,上川郡和寒町,字朝日１９６番地,,01,464,0980126,,,2025-08-27,合併による解散等,3450001002204,令和７年８月２７日北海道旭川市永山北二条七丁目１５８番地の１株式会社道北暖房設備（3450001002204）に合併し解散,2015-10-05,1,,,,,ファームインドウホク,0
519,2450001012385,登記記録の閉鎖等,0,2025-08-29,2025-08-26,株式会社中川町農業振興公社,,株式会社,北海道,中川郡中川町,字中川１１４番地６,,01,471,0982802,,,2025-08-26,清算の結了等,,,2018-04-06,1,,,,,ナカガワチョウノウギョウシンコウコウシャ,0
523,2470001003119,登記記録の閉鎖等,0,2025-08-29,2025-08-27,日本恩金株式会社,,株式会社,香川県,高松市,旅籠町１４番地８,,37,201,7600000,,,2025-08-27,清算の結了等,,,2015-10-05,1,,,,,ニホンオンキン,0
541,3010001249649,登記記録の閉鎖等,0,2025-08-29,2025-08-07,株式会社イエトコト,,株式会社,東京都,千代田区,大手町１丁目６番１号大手町ビルＳｐａｃｅｓ大手町,,13,101,1000004,,,2025-08-07,清算の結了等,,,2024-11-08,1,,,,,イエトコト,0
546,3010005027349,登記記録の閉鎖等,0,2025-08-29,2025-08-04,ＲＣ　Ｉｎｖｅｓｔｍｅｎｔ一般社団法人,,その他の設立登記法人,東京都,中央区,銀座１丁目６番１１号土志田ビルディング３Ｆ,,13,102,1040061,,,2025-08-04,清算の結了等,,,2017-08-28,1,,,,,アールシーインベストメント,0
547,3010005032489,登記記録の閉鎖等,0,2025-08-29,2025-08-04,一般社団法人ミレーネ,,その他の設立登記法人,東京都,中央区,日本橋１丁目４番１号日本橋一丁目ビルディング,,13,102,1030027,,,2025-08-04,清算の結了等,,,2020-11-04,1,,,,,ミレーネ,0
552,3010403013842,登記記録の閉鎖等,0,2025-08-29,2025-08-22,合同会社伊勢原ｃｏｍａ,,合同会社,埼玉県,富士見市,西みずほ台２丁目１番地２,,11,235,3540018,,,2025-08-22,合併による解散等,4030001046498,令和７年８月２０日埼玉県富士見市西みずほ台二丁目１番地２株式会社ジャパンコーポレーション（4030001046498）に合併し解散,2015-10-05,1,,,,,イセハラコマ,0
555,3010405021612,登記記録の閉鎖等,0,2025-08-29,2025-07-31,一般社団法人虎ノ門スリー,,その他の設立登記法人,東京都,港区,虎ノ門３丁目２２番１０－２０１号,,13,103,1050001,,,2025-07-31,清算の結了等,,,2022-11-22,1,,,,,トラノモンスリー,0
558,3010503006102,登記記録の閉鎖等,0,2025-08-29,2025-08-12,カワれる合同会社,,合同会社,東京都,台東区,浅草６丁目２番５－２０２号アール・ケープラザ浅草,,13,106,1110032,,,2025-08-12,清算の結了等,,,2020-11-25,1,,,,,カワレル,0
570,3011001120378,登記記録の閉鎖等,0,2025-08-29,2025-08-27,株式会社Ｖｉｓｉｏｌｉｏｎ,,株式会社,東京都,渋谷区,代々木１丁目２５－５,,13,113,1510053,,,2025-08-27,合併による解散等,2010401092690,令和７年６月５日東京都千代田区外神田六丁目１４番３号株式会社メテオライズ（2010401092690）に合併し解散,2018-01-30,1,,,,,ビジョリオン,0
575,3011101094051,登記記録の閉鎖等,0,2025-08-29,2025-07-28,ナチュライフ株式会社,,株式会社,東京都,新宿区,新宿７丁目１９番１１号Ｂ１,,13,104,1600022,,,2025-07-28,清算の結了等,,,2021-02-15,1,,,,,ナチュライフ,0
588,3011501019186,登記記録の閉鎖等,0,2025-08-29,2025-08-25,株式会社ディーオ,,株式会社,埼玉県,さいたま市北区,日進町２丁目１３３０番,,11,102,3310823,,,2025-08-25,清算の結了等,,,2015-10-05,1,,,,,ディーオ,0
593,3011602005036,登記記録の閉鎖等,0,2025-08-29,2025-08-12,有限会社城西南湖,,有限会社,東京都,練馬区,高松６丁目４番１６号,,13,120,1790075,,,2025-08-12,清算の結了等,,,2015-10-05,1,,,,,ジョウサイナンコ,0
601,3012401035067,登記記録の閉鎖等,0,2025-08-29,2025-08-27,株式会社岩佐画工舎,,株式会社,東京都,小金井市,東町４丁目９番１１号,,13,210,1840011,,,2025-08-27,清算の結了等,,,2019-03-22,1,,,,,イワサガコウシャ,0
605,3020001047275,登記記録の閉鎖等,0,2025-08-29,2025-08-06,株式会社信用工業,,株式会社,神奈川県,横浜市戸塚区,俣野町８７１番地,,14,110,2450066,,,2025-08-06,清算の結了等,,,2015-10-05,1,,,,,シンヨウコウギョウ,0
621,3021002074283,登記記録の閉鎖等,0,2025-08-29,2025-08-20,宝建設有限会社,,有限会社,神奈川県,横須賀市,日の出町１丁目２番地,,14,201,2380006,,,2025-08-20,清算の結了等,,,2025-02-25,1,,,,,タカラケンセツ,0
632,3030002058329,登記記録の閉鎖等,0,2025-08-29,2025-08-22,有限会社エム企画,,有限会社,埼玉県,朝霞市,本町１丁目２９番４８号,,11,227,3510011,,,2025-08-22,清算の結了等,,,2015-10-05,1,,,,,エムキカク,0
643,3040002051051,登記記録の閉鎖等,0,2025-08-29,2025-08-05,有限会社いちさんご,,有限会社,千葉県,流山市,加４丁目１８番５,,12,220,2700176,,,2025-08-05,清算の結了等,,,2015-10-05,1,,,,,イチサンゴ,0
655,3090001004336,登記記録の閉鎖等,0,2025-08-29,2025-08-25,株式会社エール・ヒューマンソリューション・パートナーズ,,株式会社,山梨県,中巨摩郡昭和町,紙漉阿原２４１１番地森田ビル２０２,,19,384,4093861,,,2025-08-25,清算の結了等,,,2015-10-05,1,,,,,,0
659,3100002030585,登記記録の閉鎖等,0,2025-08-29,2025-08-28,有限会社両角金物店,,有限会社,長野県,茅野市,ちの１９１６番地１,,20,214,3910001,,,2025-08-28,清算の結了等,,,2015-10-05,1,,,,,モロズミカナモノテン,0
660,3100003005132,登記記録の閉鎖等,0,2025-08-29,2025-08-28,合同会社バリスタ,,合同会社,長野県,長野市,大字鶴賀田町２４１２番地,,20,201,3800815,,,2025-08-28,清算の結了等,,,2018-10-16,1,,,,,バリスタ,0
667,3120001154524,登記記録の閉鎖等,0,2025-08-29,2025-08-22,アンパサンド株式会社,,株式会社,大阪府,大阪市阿倍野区,美章園２丁目２５番８号,,27,119,5450003,,,2025-08-22,合併による解散等,1120101048594,令和７年８月１日大阪市大正区三軒家東二丁目４番２０号株式会社ワンズクリエーション（1120101048594）に合併し解散,2015-10-05,1,,,,,アンパサンド,0
671,3120001177104,登記記録の閉鎖等,0,2025-08-29,2025-08-18,株式会社新事業開発研究所,,株式会社,大阪府,豊中市,庄内西町３丁目１９番４号,,27,203,5610832,,,2025-08-18,清算の結了等,,,2015-10-05,1,,,,,,0
674,3120001203644,登記記録の閉鎖等,0,2025-08-29,2025-08-21,アイクリート株式会社,,株式会社,大阪府,大阪市北区,松ケ枝町７番２２号高橋ビル東６号館５階,,27,127,5300037,,,2025-08-21,清算の結了等,,,2017-02-14,1,,,,,アイクリート,0
676,3120001273654,登記記録の閉鎖等,0,2025-08-29,2025-08-20,株式会社飛躍教育,,株式会社,大阪府,守口市,高瀬町１丁目１０－１４中尾ハイツ１０１号室,,27,209,5700053,,,2025-08-20,清算の結了等,,,2025-03-14,1,,,,,ヒヤクキョウイク,0
678,3120002052735,登記記録の閉鎖等,0,2025-08-29,2025-08-18,有限会社協働研究所,,有限会社,大阪府,豊中市,庄内西町３丁目１９番４号,,27,203,5610832,,,2025-08-18,清算の結了等,,,2015-10-05,1,,,,,,0
679,3120003020419,登記記録の閉鎖等,0,2025-08-29,2025-08-12,合同会社ビービーアイランド,,合同会社,大阪府,大阪市阿倍野区,阿倍野筋５丁目３－２２アークアベニューアベノ４０３号室,,27,119,5450052,,,2025-08-12,清算の結了等,,,2021-10-14,1,,,,,ビービーアイランド,0
682,3120005015706,登記記録の閉鎖等,0,2025-08-29,2025-08-28,ブリッジ協同組合,,その他の設立登記法人,大阪府,大阪市北区,菅栄町２－１８,,27,127,5300031,,,2025-08-28,清算の結了等,,,2015-10-05,1,,,,,ブリッジ,0
688,3120901028645,登記記録の閉鎖等,0,2025-08-29,2025-08-20,株式会社てんはうす,,株式会社,大阪府,箕面市,箕面５丁目７番８号,,27,220,5620001,,,2025-08-20,清算の結了等,,,2015-10-05,1,,,,,テンハウス,0
692,3120901038132,登記記録の閉鎖等,0,2025-08-29,2025-08-21,株式会社倉栄工業,,株式会社,大阪府,豊中市,庄内西町２丁目７番３２号,,27,203,5610832,,,2025-08-21,清算の結了等,,,2017-03-06,1,,,,,,0
693,3120901040757,登記記録の閉鎖等,0,2025-08-29,2025-08-18,株式会社Ｓｍｉｌｅ,,株式会社,大阪府,茨木市,中穂積３丁目１６番１７－５０６号,,27,211,5670034,,,2025-08-18,清算の結了等,,,2018-12-20,1,,,,,スマイル,0
707,3130001041820,登記記録の閉鎖等,0,2025-08-29,2025-08-12,株式会社にしとも,,株式会社,京都府,綾部市,下八田町大迫１１番地,,26,203,6230116,,,2025-08-12,清算の結了等,,,2015-10-05,1,,,,,ニシトモ,0
711,3140001129747,登記記録の閉鎖等,0,2025-08-29,2025-08-25,Ｒｏｂｏｔｓ　Ｔｅｃｈ株式会社,,株式会社,兵庫県,神戸市西区,岩岡町野中５２８番地の２８,,28,111,6512405,,,2025-08-25,清算の結了等,,,2023-04-21,1,,,,,ロボッツテック,0
715,3160001004642,登記記録の閉鎖等,0,2025-08-29,2025-08-27,株式会社十彩,,株式会社,滋賀県,彦根市,西沼波町１６４番地,,25,202,5220038,,,2025-08-27,清算の結了等,,,2015-10-05,1,,,,,トイロ,0
719,3180001054702,登記記録の閉鎖等,0,2025-08-29,2025-08-04,株式会社ネットパーク２１,,株式会社,愛知県,名古屋市中区,金山１丁目８番２０号,,23,106,4600022,,,2025-08-04,合併による解散等,8180001047560,令和７年８月１日名古屋市東区代官町３５番１６号サイバーネックス株式会社（8180001047560）に合併し解散,2015-10-05,1,,,,,ネットパークニジュウイチ,0
733,3190002006750,登記記録の閉鎖等,0,2025-08-29,2025-08-27,有限会社東海建材商会,,有限会社,三重県,鈴鹿市,岸岡町３０８７番地,,24,207,5100226,,,2025-08-27,清算の結了等,,,2015-10-05,1,,,,,トウカイケンザイショウカイ,0
735,3200001021848,登記記録の閉鎖等,0,2025-08-29,2025-08-27,東濃故紙センター株式会社,,株式会社,岐阜県,瑞浪市,土岐町６５６９番地の３,,21,208,5096101,,,2025-08-27,合併による解散等,1180001045546,令和７年８月１日愛知県清須市西須ケ口９３番地株式会社宮崎（1180001045546）に合併し解散,2015-10-05,1,,,,,,0
743,3220002016936,登記記録の閉鎖等,0,2025-08-29,2025-08-27,有限会社ジュンコ・コーポレーション,,有限会社,石川県,かほく市,外日角ハ６７番地２,,17,209,9291176,,,2025-08-27,清算の結了等,,,2015-10-05,1,,,,,ジュンココーポレーション,0
748,3230001009106,登記記録の閉鎖等,0,2025-08-29,2025-08-28,埴生開発株式会社,,株式会社,富山県,小矢部市,埴生１８４０番地,,16,209,9320836,,,2025-08-28,清算の結了等,,,2015-10-05,1,,,,,ハニュウカイハツ,0
762,3300002010212,登記記録の閉鎖等,0,2025-08-29,2025-08-26,有限会社おおうら設計事務所,,有限会社,佐賀県,唐津市,千々賀１２００番地,,41,202,8470831,,,2025-08-26,清算の結了等,,,2015-10-05,1,,,,,オオウラセッケイジムショ,0
766,3330001032378,登記記録の閉鎖等,0,2025-08-29,2025-08-05,株式会社ヘルムケア,,株式会社,熊本県,熊本市東区,渡鹿８丁目８番２６号ナツグランジュ３０５号,,43,102,8620970,,,2025-08-05,清算の結了等,,,2024-08-15,1,,,,,ヘルムケア,0
774,3370001017367,登記記録の閉鎖等,0,2025-08-29,2025-08-08,株式会社ＯＡＳＩ’Ｓ,,株式会社,宮城県,仙台市泉区,泉中央３丁目１０番３号泉セントラルビル３０４,,04,105,9813133,,,2025-08-08,清算の結了等,,,2015-10-05,1,,,,,オアシズ,0
779,3380002000271,登記記録の閉鎖等,0,2025-08-29,2025-08-14,有限会社阿部鋼建,,有限会社,福島県,福島市,山口字茶畑８番地の４,,07,201,9608202,,,2025-08-14,清算の結了等,,,2015-10-05,1,,,,,アベコウケン,0
781,3390001009841,登記記録の閉鎖等,0,2025-08-29,2025-08-25,株式会社クロスマップ,,株式会社,山形県,米沢市,下花沢２丁目４番５０号,,06,202,9920023,,,2025-08-25,清算の結了等,,,2015-10-05,1,,,,,クロスマップ,0
782,3390005007643,登記記録の閉鎖等,0,2025-08-29,2025-08-25,医療法人社団つかさ会,,その他の設立登記法人,山形県,西村山郡河北町,谷地字所岡３９番地の５,,06,321,9993511,,,2025-08-25,清算の結了等,,,2015-10-05,1,,,,,ツカサカイ,0
785,3402705000413,登記記録の閉鎖等,0,2025-08-29,2025-08-12,特定非営利活動法人教育サポーターズひたかみ,,その他の設立登記法人,岩手県,陸前高田市,竹駒町字相川１５番地１,,03,210,0292203,,,2025-08-12,清算の結了等,,,2015-10-05,1,,,,,キョウイクサポーターズヒタカミ,0
786,3420003001529,登記記録の閉鎖等,0,2025-08-29,2025-08-08,合同会社万来,,合同会社,青森県,八戸市,南類家１丁目２番３号,,02,203,0310004,,,2025-08-08,清算の結了等,,,2015-12-14,1,,,,,バンライ,0
788,3430001021676,登記記録の閉鎖等,0,2025-08-29,2025-08-01,北海道インターロツキングブロツク株式会社,00088367,株式会社,北海道,札幌市中央区,南六条西１７丁目１番１号,,01,101,0640806,,,2025-08-01,合併による解散等,6430001000842,令和７年８月１日札幌市中央区南六条西十七丁目１番１号渥美工業株式会社（6430001000842）に合併し解散,2015-10-05,1,,,,,ホッカイドウインターロッキングブロック,0
790,3430001054874,登記記録の閉鎖等,0,2025-08-29,2025-08-07,城山建設株式会社,,株式会社,北海道,苫小牧市,明野新町２丁目３番２１号,,01,213,0530054,,,2025-08-07,清算の結了等,,,2015-10-05,1,,,,,シロヤマケンセツ,0
791,3430002026732,登記記録の閉鎖等,0,2025-08-29,2025-08-01,有限会社庭園グリーンサービス,,有限会社,東京都,新宿区,西新宿７丁目１番７号,,13,104,1600023,,,2025-08-01,清算の結了等,,,2015-10-05,1,,,,,テイエングリーンサービス,0
796,3460005001416,登記記録の閉鎖等,0,2025-08-29,2025-08-25,一般社団法人立支舎,,その他の設立登記法人,北海道,釧路市,昭和中央６丁目９番８号,,01,206,0840910,,,2025-08-25,清算の結了等,,,2015-10-05,1,,,,,リッシシャ,0
802,4010001107855,登記記録の閉鎖等,0,2025-08-29,2025-08-05,株式会社Ｓ・Ｒ・Ｐ,,株式会社,千葉県,松戸市,大橋３５９番地の１６,,12,207,2702224,,,2025-08-05,清算の結了等,,,2015-10-05,1,,,,,エスアールピー,0
807,4010001241547,登記記録の閉鎖等,0,2025-08-29,2025-08-07,株式会社ジェーン,,株式会社,東京都,中央区,八重洲１丁目８番１７号新槇町ビル６階,,13,102,1030028,,,2025-08-07,清算の結了等,,,2024-01-19,1,,,,,ジェーン,0
821,4010401142989,登記記録の閉鎖等,0,2025-08-29,2025-08-06,株式会社日本ヒューマンキャリア,,株式会社,東京都,千代田区,有楽町１丁目７番１号,,13,101,1000006,,,2025-08-06,清算の結了等,,,2019-01-08,1,,,,,ニホンヒューマンキャリア,0
836,4010601002142,登記記録の閉鎖等,0,2025-08-29,2025-08-07,芝塗装株式会社,,株式会社,千葉県,市川市,行徳駅前４丁目２１番３号,,12,203,2720133,,,2025-08-07,清算の結了等,,,2015-10-05,1,,,,,シバトソウ,0
839,4010901025090,登記記録の閉鎖等,0,2025-08-29,2025-08-28,株式会社コウサンテクノ,,株式会社,東京都,世田谷区,世田谷１丁目１１番１３号,,13,112,1540017,,,2025-08-28,清算の結了等,,,2015-10-05,1,,,,,コウサンテクノ,0
858,4011705001336,登記記録の閉鎖等,0,2025-08-29,2025-08-08,特定非営利活動法人微笑みの会,,その他の設立登記法人,東京都,江戸川区,鹿骨１丁目６３番７号,,13,123,1330073,,,2025-08-08,清算の結了等,,,2015-10-05,1,,,,,ホホエミノカイ,0
863,4013202001810,登記記録の閉鎖等,0,2025-08-29,2025-07-30,有限会社加藤クリーニング店,,有限会社,東京都,目黒区,中目黒３丁目６番３号,,13,110,1530061,,,2025-07-30,清算の結了等,,,2015-10-05,1,,,,,カトウクリーニングテン,0
873,4021002000825,登記記録の閉鎖等,0,2025-08-29,2025-08-22,有限会社エステート小林,,有限会社,神奈川県,藤沢市,片瀬海岸３丁目１番３４号,,14,205,2510035,,,2025-08-22,清算の結了等,,,2015-10-05,1,,,,,エステートコバヤシ,0
891,4040001000124,登記記録の閉鎖等,0,2025-08-29,2025-07-31,株式会社粟飯原電気,,株式会社,千葉県,千葉市若葉区,桜木５丁目１７番３８号,,12,104,2640028,,,2025-07-31,清算の結了等,,,2015-10-05,1,,,,,アイバラデンキ,0
893,4040001048411,登記記録の閉鎖等,0,2025-08-29,2025-08-05,南武運送株式会社,,株式会社,千葉県,八街市,八街は２番地２７２,,12,230,2891107,,,2025-08-05,清算の結了等,,,2015-10-05,1,,,,,ナンブウンソウ,0
894,4040001051051,登記記録の閉鎖等,0,2025-08-29,2025-08-05,岡本化学工業株式会社,,株式会社,千葉県,袖ケ浦市,百目木６５３番地１,,12,229,2990213,,,2025-08-05,清算の結了等,,,2015-10-05,1,,,,,オカモトカガクコウギョウ,0
907,4070001032387,登記記録の閉鎖等,0,2025-08-29,2025-08-26,ケービーインダストリー株式会社,,株式会社,群馬県,伊勢崎市,日乃出町４２４番地９,,10,204,3720022,,,2025-08-26,清算の結了等,,,2016-07-11,1,,,,,ケービーインダストリー,0
910,4080101023319,登記記録の閉鎖等,0,2025-08-29,2025-08-28,長富商事株式会社,,株式会社,静岡県,御殿場市,二枚橋２７１番地の５,,22,215,4120021,,,2025-08-28,清算の結了等,,,2022-06-06,1,,,,,ナガトミショウジ,0
911,4080102015587,登記記録の閉鎖等,0,2025-08-29,2025-08-27,有限会社フジ物流コンサルタント,,有限会社,静岡県,富士市,蓼原１８番地の２,,22,210,4160931,,,2025-08-27,清算の結了等,,,2015-10-05,1,,,,,フジブツリュウコンサルタント,0
918,4120001033999,登記記録の閉鎖等,0,2025-08-29,2025-08-21,株式会社リバーコーポレーション,,株式会社,大阪府,大阪市北区,豊崎２丁目８番１３号,,27,127,5310072,,,2025-08-21,清算の結了等,,,2015-10-05,1,,,,,リバーコーポレーション,0
920,4120001054161,登記記録の閉鎖等,0,2025-08-29,2025-08-20,エース物産株式会社,,株式会社,大阪府,大阪市淀川区,西中島３丁目１０番１３号物産ビル５０２号,,27,123,5320011,,,2025-08-20,清算の結了等,,,2015-10-05,1,,,,,エースブッサン,0
925,4120001153236,登記記録の閉鎖等,0,2025-08-29,2025-08-15,株式会社Ｓ．Ａ．Ｔ,,株式会社,大阪府,枚方市,招提中町１丁目１５番１号,,27,210,5731152,,,2025-08-15,清算の結了等,,,2015-10-05,1,,,,,サット,0
935,4120002065678,登記記録の閉鎖等,0,2025-08-29,2025-08-18,有限会社クラックユニット,,有限会社,大阪府,吹田市,五月が丘北２５番４５－４０２号,,27,205,5650834,,,2025-08-18,清算の結了等,,,2015-10-05,1,,,,,クラックユニット,0
939,4120103002605,登記記録の閉鎖等,0,2025-08-29,2025-08-13,合同会社ＴＳＳＲ,,合同会社,大阪府,和泉市,伏屋町３丁目１４番３８－８０５号,,27,219,5940031,,,2025-08-13,清算の結了等,,,2016-11-29,1,,,,,ティーエスエスアール,0
948,4120902010667,登記記録の閉鎖等,0,2025-08-29,2025-08-22,高槻製畳有限会社,,有限会社,大阪府,高槻市,津之江町２丁目２１番１１号,,27,207,5690822,,,2025-08-22,清算の結了等,,,2015-10-05,1,,,,,タカツキセイジョウ,0
951,4120902020030,登記記録の閉鎖等,0,2025-08-29,2025-08-19,有限会社森本自動車工業,,有限会社,大阪府,豊中市,原田中１丁目１６番１６号,,27,203,5610807,,,2025-08-19,清算の結了等,,,2015-10-05,1,,,,,モリモトジドウシャコウギョウ,0
953,4120905003387,登記記録の閉鎖等,0,2025-08-29,2025-08-21,照国眞教本部教会,,その他の設立登記法人,大阪府,箕面市,瀬川１８３番地の２,,27,220,5620000,,,2025-08-21,清算の結了等,,,2015-10-05,1,,,,,テルクニシンキョウホンブキョウカイ,0
958,4122001027964,登記記録の閉鎖等,0,2025-08-29,2025-08-22,ライフリライト株式会社,,株式会社,大阪府,箕面市,粟生間谷西７丁目４番１３－１０１号,,27,220,5620023,,,2025-08-22,清算の結了等,,,2015-10-05,1,,,,,ライフリライト,0
997,4260001026485,登記記録の閉鎖等,0,2025-08-29,2025-08-12,株式会社セイト,,株式会社,岡山県,岡山市南区,郡９７１番地３,,33,104,7028011,,,2025-08-12,清算の結了等,,,2015-10-05,1,,,,,セイト,0
1005,4280001000521,登記記録の閉鎖等,0,2025-08-29,2025-08-27,株式会社ナカシン,,株式会社,島根県,松江市,矢田町２５０番地８９,,32,201,6900021,,,2025-08-27,合併による解散等,7280001000576,令和７年８月２７日島根県松江市矢田町２５０番２株式会社パッケージ中澤（7280001000576）に合併し解散,2015-10-05,1,,,,,ナカシン,0
1017,4300001000056,登記記録の閉鎖等,0,2025-08-29,2025-08-26,飯盛教材株式会社,,株式会社,佐賀県,佐賀市,末広１丁目４番２６号,,41,201,8400032,,,2025-08-26,清算の結了等,,,2015-10-05,1,,,,,イサガイキョウザイ,0
1019,4310001013247,登記記録の閉鎖等,0,2025-08-29,2025-08-27,コスモサービス株式会社,,株式会社,長崎県,長崎市,丸山町５番２号ステアＢＬＤ２０１号,,42,201,8500902,,,2025-08-27,清算の結了等,,,2015-10-05,1,,,,,コスモサービス,0
1020,4310001015078,登記記録の閉鎖等,0,2025-08-29,2025-08-26,株式会社エコーＴｗｏ,,株式会社,長崎県,佐世保市,比良町５番２号,,42,202,8570040,,,2025-08-26,清算の結了等,,,2017-08-14,1,,,,,エコーツー,0
1029,4370003004949,登記記録の閉鎖等,0,2025-08-29,2025-08-08,ファクトリー伊達合同会社,,合同会社,宮城県,宮城郡七ヶ浜町,汐見台２丁目３番地の２７,,04,404,9850821,,,2025-08-08,清算の結了等,,,2020-10-07,1,,,,,ファクトリーダテ,0
1030,4370005001151,登記記録の閉鎖等,0,2025-08-29,2025-08-08,医療法人社団一整会,,その他の設立登記法人,宮城県,仙台市青葉区,通町１丁目６番１６－２４０４号,,04,101,9810915,,,2025-08-08,清算の結了等,,,2015-10-05,1,,,,,イッセイカイ,0
1031,4370201003505,登記記録の閉鎖等,0,2025-08-29,2025-08-08,株式会社仲村製茶,,株式会社,宮城県,大崎市,古川大宮１丁目４番５号,,04,215,9896221,,,2025-08-08,清算の結了等,,,2015-10-05,1,,,,,ナカムラセイチャ,0
1043,4420002009877,登記記録の閉鎖等,0,2025-08-29,2025-08-19,有限会社松原製材所,,有限会社,青森県,三戸郡三戸町,大字同心町字同心町平６４番地４,,02,441,0390134,,,2025-08-19,清算の結了等,,,2015-10-05,1,,,,,マツバラセイザイショ,0
1045,4430001018878,登記記録の閉鎖等,0,2025-08-29,2025-08-01,北日本レイス工業株式会社,,株式会社,北海道,札幌市中央区,南六条西１７丁目１番１号,,01,101,0640806,,,2025-08-01,合併による解散等,6430001000842,令和７年８月１日札幌市中央区南六条西十七丁目１番１号渥美工業株式会社（6430001000842）に合併し解散,2015-10-05,1,,,,,キタニホンレイスコウギョウ,0
1046,4430001042085,登記記録の閉鎖等,0,2025-08-29,2025-08-08,株式会社ゼロイチ,,株式会社,北海道,札幌市中央区,北一条西３丁目２番地,,01,101,0600001,,,2025-08-08,清算の結了等,,,2015-10-05,1,,,,,ゼロイチ,0
1058,5010001173608,登記記録の閉鎖等,0,2025-08-29,2025-08-08,ＪＰＡ第３２号株式会社,,株式会社,東京都,千代田区,霞が関３丁目２番１号,,13,101,1000013,,,2025-08-08,清算の結了等,,,2016-02-17,1,,,,,ジェイピーエーダイサンジュウニゴウ,0
1064,5010003019643,登記記録の閉鎖等,0,2025-08-29,2025-08-08,合同会社ホーク,,合同会社,東京都,千代田区,丸の内１丁目４番１号東京共同会計事務所内,,13,101,1000005,,,2025-08-08,清算の結了等,,,2015-10-05,1,,,,,ホーク,0
1105,5011101066635,登記記録の閉鎖等,0,2025-08-29,2025-08-07,株式会社クロナス,,株式会社,東京都,中央区,京橋１丁目６－１２ＮＳ京橋ビル６階,,13,102,1040031,,,2025-08-07,清算の結了等,,,2015-10-05,1,,,,,クロナス,0
1106,5011101066718,登記記録の閉鎖等,0,2025-08-29,2025-08-01,株式会社鈴商,,株式会社,東京都,新宿区,北新宿１丁目３２番１８号,,13,104,1690074,,,2025-08-01,清算の結了等,,,2015-10-05,1,,,,,スズショウ,0
1130,5020002021467,登記記録の閉鎖等,0,2025-08-29,2025-08-12,有限会社四季美だるま薬局,,有限会社,神奈川県,横浜市旭区,四季美台１６番地５,,14,112,2410025,,,2025-08-12,清算の結了等,,,2015-10-05,1,,,,,シキミダルマヤッキョク,0
1148,5030002119269,登記記録の閉鎖等,0,2025-08-29,2025-08-25,有限会社エル・テネンズヤマシナ,,有限会社,埼玉県,飯能市,稲荷町２１番１０－６０１号,,11,209,3570037,,,2025-08-25,清算の結了等,,,2015-10-05,1,,,,,エルテネンズヤマシナ,0
1158,5050001009213,登記記録の閉鎖等,0,2025-08-29,2025-08-18,株式会社水郷サービス,,株式会社,茨城県,土浦市,大岩田１３６１番地３,,08,203,3000835,,,2025-08-18,清算の結了等,,,2015-10-05,1,,,,,スイゴウサービス,0
1187,5120001161691,登記記録の閉鎖等,0,2025-08-29,2025-08-21,ｍａｒｉｎｅｂｅｌｌ　ＭＯＫＵ株式会社,,株式会社,大阪府,大阪市阿倍野区,文の里１丁目８－２１アークビル４０２号室,,27,119,5450004,,,2025-08-21,清算の結了等,,,2015-10-05,1,,,,,マリンベルモク,0
1204,5120901012044,登記記録の閉鎖等,0,2025-08-29,2025-08-26,株式会社丸井地所,,株式会社,大阪府,高槻市,芥川町１丁目２番Ａ－１１０号,,27,207,5691123,,,2025-08-26,清算の結了等,,,2015-10-05,1,,,,,,0
1208,5120901027876,登記記録の閉鎖等,0,2025-08-29,2025-08-15,株式会社リ・マイン,,株式会社,大阪府,豊中市,若竹町１丁目２２番６号,,27,203,5610811,,,2025-08-15,清算の結了等,,,2015-10-05,1,,,,,リマイン,0
1217,5130005006009,登記記録の閉鎖等,0,2025-08-29,2025-08-08,特定非営利活動法人パーキンソン病支援センター,,その他の設立登記法人,京都府,八幡市,男山泉１２番地７,,26,210,6148366,,,2025-08-08,清算の結了等,,,2015-10-05,1,,,,,パーキンソンビョウシエンセンター,0
1224,5140005011684,登記記録の閉鎖等,0,2025-08-29,2025-08-27,特定非営利活動法人Ｗｉｌｌ　ａｓｓｉｓｔ,,その他の設立登記法人,兵庫県,尼崎市,武庫元町１丁目４番５号,,28,202,6610043,,,2025-08-27,清算の結了等,,,2015-10-05,1,,,,,ウィルアシスト,0
1227,5150001002793,登記記録の閉鎖等,0,2025-08-29,2025-08-27,株式会社テックソリューション,,株式会社,奈良県,奈良市,左京３丁目２番１４号,,29,201,6310801,,,2025-08-27,清算の結了等,,,2015-10-05,1,,,,,テックソリューション,0
1236,5180001128289,登記記録の閉鎖等,0,2025-08-29,2025-08-05,株式会社ＥＰ,,株式会社,愛知県,海部郡蟹江町,大字今字道下２９番地１０,,23,425,4970032,,,2025-08-05,清算の結了等,,,2017-06-16,1,,,,,イーピー,0
1239,5180002052026,登記記録の閉鎖等,0,2025-08-29,2025-08-06,有限会社美材ナカエ,,有限会社,愛知県,北名古屋市,六ツ師宮西４０番地の２,,23,234,4810001,,,2025-08-06,清算の結了等,,,2015-10-05,1,,,,,ビザイナカエ,0
1249,5200005012890,登記記録の閉鎖等,0,2025-08-29,2025-08-27,司法書士法人馬渕事務所,,その他の設立登記法人,岐阜県,大垣市,禾森町５丁目１９３番地,,21,202,5030852,,,2025-08-27,清算の結了等,,,2019-01-17,1,,,,,マブチジムショ,0
1263,5260002027465,登記記録の閉鎖等,0,2025-08-29,2025-08-20,有限会社哲多ビンヤード,,有限会社,岡山県,新見市,哲多町矢戸３１３６番地,,33,210,7180306,,,2025-08-20,清算の結了等,,,2015-10-05,1,,,,,テッタビンヤード,0
1270,5290002052535,登記記録の閉鎖等,0,2025-08-29,2025-08-01,サンハート物流株式会社,,株式会社,福岡県,久留米市,山川沓形町１－２４,,40,203,8390815,,,2025-08-01,清算の結了等,,,2015-10-05,1,,,,,サンハートブツリュウ,0
1271,5290003008346,登記記録の閉鎖等,0,2025-08-29,2025-08-22,合同会社オリエント警備,,合同会社,福岡県,福岡市東区,八田１丁目６番１７号,,40,131,8130031,,,2025-08-22,清算の結了等,,,2018-08-30,1,,,,,オリエントケイビ,0
1278,5330003006254,登記記録の閉鎖等,0,2025-08-29,2025-08-14,合同会社Ｍ－ｃｕｂｉｃ,,合同会社,熊本県,山鹿市,上吉田６４０番地,,43,208,8610524,,,2025-08-14,清算の結了等,,,2015-10-05,1,,,,,エムキュービック,0
1280,5340005004981,登記記録の閉鎖等,0,2025-08-29,2025-08-25,特定非営利活動法人あんどぅる,,その他の設立登記法人,鹿児島県,大島郡与論町,大字茶花９１３番地１,,46,535,8919301,,,2025-08-25,清算の結了等,,,2015-10-05,1,,,,,アンドウル,0
1288,5370001043262,登記記録の閉鎖等,0,2025-08-29,2025-08-12,株式会社こゆゆ,,株式会社,宮城県,仙台市宮城野区,宮千代３丁目９番地の１１,,04,102,9830044,,,2025-08-12,清算の結了等,,,2018-07-05,1,,,,,コユユ,0
1314,6010001134014,登記記録の閉鎖等,0,2025-08-29,2025-08-07,株式会社Ｌ＆Ｎホールディングス,,株式会社,東京都,中央区,日本橋茅場町２丁目１７番３号,,13,102,1030025,,,2025-08-07,清算の結了等,,,2015-10-05,1,,,,,,0
1317,6010001245513,登記記録の閉鎖等,0,2025-08-29,2025-08-07,株式会社ソリット,,株式会社,東京都,千代田区,神田小川町３丁目７番地－６０２号,,13,101,1010052,,,2025-08-07,清算の結了等,,,2024-06-07,1,,,,,ソリット,0
1319,6010002024503,登記記録の閉鎖等,0,2025-08-29,2025-08-07,有限会社フィナンシャルブレーン,,有限会社,東京都,中央区,銀座１丁目４番４号,,13,102,1040061,,,2025-08-07,清算の結了等,,,2015-10-05,1,,,,,フィナンシャルブレーン,0
1320,6010003045300,登記記録の閉鎖等,0,2025-08-29,2025-08-08,合同会社Ｙ２,,合同会社,東京都,千代田区,丸の内１丁目４番１号東京共同会計事務所内,,13,101,1000005,,,2025-08-08,清算の結了等,,,2024-10-31,1,,,,,ワイツー,0
1324,6010401012926,登記記録の閉鎖等,0,2025-08-29,2025-07-30,株式会社新宮館,,株式会社,東京都,港区,高輪１丁目５番８号,,13,103,1080074,,,2025-07-30,清算の結了等,,,2015-10-05,1,,,,,ニイミヤカン,0
1331,6010401121875,登記記録の閉鎖等,0,2025-08-29,2025-08-25,株式会社グッドビリーヴホールディングス,,株式会社,大阪府,高槻市,上田辺町７番１７号,,27,207,5690805,,,2025-08-25,清算の結了等,,,2015-12-04,1,,,,,,0
1354,6010701041022,登記記録の閉鎖等,0,2025-08-29,2025-08-14,株式会社オーシャンズ,,株式会社,新潟県,新潟市中央区,南笹口１丁目１－３８コープオリンピア８０８,,15,103,9500912,,,2025-08-14,清算の結了等,,,2021-06-01,1,,,,,オーシャンズ,0
1391,6020001048106,登記記録の閉鎖等,0,2025-08-29,2025-08-12,株式会社白澤鉄筋工業,,株式会社,神奈川県,横浜市神奈川区,羽沢南３丁目１番１号羽沢ガーデンハウス２０１,,14,102,2210866,,,2025-08-12,清算の結了等,,,2015-10-05,1,,,,,シラサワテッキンコウギョウ,0
1402,6021001004643,登記記録の閉鎖等,0,2025-08-29,2025-08-25,株式会社アール・コア,,株式会社,神奈川県,藤沢市,鵠沼海岸１丁目１２番１号,,14,205,2510037,,,2025-08-25,清算の結了等,,,2015-10-05,1,,,,,アールコア,0
1407,6021002004881,登記記録の閉鎖等,0,2025-08-29,2025-08-21,有限会社宮崎倉庫,,有限会社,神奈川県,藤沢市,鵠沼神明２丁目６番２１号,,14,205,2510021,,,2025-08-21,清算の結了等,,,2015-10-05,1,,,,,ミヤザキソウコ,0
1415,6030001038683,登記記録の閉鎖等,0,2025-08-29,2025-08-25,サンセー工業株式会社,,株式会社,埼玉県,八潮市,大字西袋１４４１番地２,,11,234,3400833,,,2025-08-25,清算の結了等,,,2015-10-05,1,,,,,サンセーコウギョウ,0
1421,6030002117346,登記記録の閉鎖等,0,2025-08-29,2025-08-25,有限会社ヤナイ,,有限会社,埼玉県,深谷市,西島町３丁目１４番地３,,11,218,3660824,,,2025-08-25,清算の結了等,,,2015-10-05,1,,,,,ヤナイ,0
1422,6040001034384,登記記録の閉鎖等,0,2025-08-29,2025-08-05,株式会社ＪＣＮ,,株式会社,千葉県,市川市,平田３丁目５番２－４２５号,,12,203,2720031,,,2025-08-05,清算の結了等,,,2015-10-05,1,,,,,ジェイシーエヌ,0
1428,6050005013565,登記記録の閉鎖等,0,2025-08-29,2025-08-18,行政書士法人橋本事務所,,その他の設立登記法人,茨城県,水戸市,栄町２丁目６番３８号,,08,201,3100064,,,2025-08-18,清算の結了等,,,2025-02-21,1,,,,,ハシモトジムショ,0
1429,6060001017321,登記記録の閉鎖等,0,2025-08-29,2025-08-26,株式会社壬生ゴルフ,,株式会社,栃木県,下都賀郡壬生町,本丸２丁目７番７号,,09,361,3210225,,,2025-08-26,清算の結了等,,,2015-10-05,1,,,,,ミブゴルフ,0
1439,6090001015702,登記記録の閉鎖等,0,2025-08-29,2025-08-25,ＥＴＲＡＭ株式会社,,株式会社,山梨県,甲斐市,下今井２７９３番地１,,19,210,4000105,,,2025-08-25,清算の結了等,,,2018-08-22,1,,,,,エトラム,0
1453,6120003015267,登記記録の閉鎖等,0,2025-08-29,2025-08-15,ＰＨＥＯＢＥ　ＪＡＰＡＮ合同会社,,合同会社,大阪府,大阪市天王寺区,勝山２丁目２１番３－１０１号,,27,109,5430043,,,2025-08-15,清算の結了等,,,2019-02-04,1,,,,,フィービージャパン,0
1460,6120102015259,登記記録の閉鎖等,0,2025-08-29,2025-08-18,有限会社寺本,,有限会社,大阪府,大阪狭山市,岩室２丁目９６番地の１,,27,231,5890032,,,2025-08-18,清算の結了等,,,2015-10-05,1,,,,,テラモト,0
1464,6120901021226,登記記録の閉鎖等,0,2025-08-29,2025-08-20,株式会社ザルツバーデン,,株式会社,大阪府,豊能郡能勢町,森上３１７番地,,27,322,5630362,,,2025-08-20,清算の結了等,,,2015-10-05,1,,,,,ザルツバーデン,0
1466,6120901029888,登記記録の閉鎖等,0,2025-08-29,2025-08-21,日本ビルテック株式会社,,株式会社,大阪府,池田市,井口堂３丁目７番１８－３０６号,,27,204,5630023,,,2025-08-21,清算の結了等,,,2015-10-05,1,,,,,,0
1484,6150001022436,登記記録の閉鎖等,0,2025-08-29,2025-08-15,ＳＫＩＰｕ株式会社,,株式会社,大阪府,大阪市福島区,福島２丁目１０番１９号メガロコープ福島５１４号室,,27,103,5530003,,,2025-08-15,清算の結了等,,,2018-08-07,1,,,,,スキップ,0
1492,6180001100783,登記記録の閉鎖等,0,2025-08-29,2025-08-06,株式会社オフィスティーナム,,株式会社,愛知県,名古屋市緑区,大清水１丁目２１１番地,,23,114,4580805,,,2025-08-06,清算の結了等,,,2015-10-05,1,,,,,オフィスティーナム,0
1497,6180003025946,登記記録の閉鎖等,0,2025-08-29,2025-08-06,合同会社ＰａｌＰｅ,,合同会社,愛知県,名古屋市緑区,桃山２丁目８５番地,,23,114,4580002,,,2025-08-06,清算の結了等,,,2023-11-07,1,,,,,パルペ,0
1507,6250002005173,登記記録の閉鎖等,0,2025-08-29,2025-08-27,有限会社田中建設,,有限会社,山口県,宇部市,あすとぴあ６丁目１番５号,,35,202,7550152,,,2025-08-27,清算の結了等,,,2015-10-05,1,,,,,タナカケンセツ,0
1515,6280002008223,登記記録の閉鎖等,0,2025-08-29,2025-08-27,有限会社キシダ塗装,,有限会社,島根県,浜田市,治和町ロ８１３番地,,32,202,6971326,,,2025-08-27,清算の結了等,,,2015-10-05,1,,,,,キシダトソウ,0
1517,6290001029293,登記記録の閉鎖等,0,2025-08-29,2025-08-25,株式会社ヤマダ積算オフィス,,株式会社,福岡県,福岡市中央区,大手門１丁目６番１号,,40,133,8100074,,,2025-08-25,清算の結了等,,,2015-10-05,1,,,,,ヤマダセキサンオフィス,0
1530,6320002005579,登記記録の閉鎖等,0,2025-08-29,2025-08-21,有限会社樋口商店,,有限会社,大分県,大分市,大字丸亀１８１番地,,44,201,8700122,,,2025-08-21,清算の結了等,,,2015-10-05,1,,,,,ヒグチショウテン,0
1536,6350002017332,登記記録の閉鎖等,0,2025-08-29,2025-08-26,有限会社Ｉｓｈｉｉ,,有限会社,宮崎県,串間市,大字南方４９１番地１,,45,207,8880007,,,2025-08-26,清算の結了等,,,2015-10-05,1,,,,,イシイ,0
1539,6360001019262,登記記録の閉鎖等,0,2025-08-29,2025-08-22,日本鳳凰商事株式会社,,株式会社,沖縄県,那覇市,金城２丁目１６番地６コーラル金城５０２,,47,201,9010155,,,2025-08-22,清算の結了等,,,2015-10-05,1,,,,,ニホンホウオウショウジ,0
1553,6370302002429,登記記録の閉鎖等,0,2025-08-29,2025-08-08,有限会社桃生製作所,,有限会社,宮城県,石巻市,桃生町寺崎字新町２１番地の７,,04,202,9860314,,,2025-08-08,清算の結了等,,,2015-10-05,1,,,,,モノウセイサクショ,0
1560,6400001014168,登記記録の閉鎖等,0,2025-08-29,2025-08-12,株式会社リトルウィンド,,株式会社,岩手県,久慈市,旭町第７地割１４５番地６ハイム・ディアコート２０５号,,03,207,0280014,,,2025-08-12,清算の結了等,,,2018-05-25,1,,,,,リトルウィンド,0
1568,6430002030483,登記記録の閉鎖等,0,2025-08-29,2025-08-07,有限会社翼ハウジング,,有限会社,北海道,札幌市西区,西野三条１０丁目１０番１５号,,01,107,0630033,,,2025-08-07,清算の結了等,,,2015-10-05,1,,,,,ツバサハウジング,0
1578,7010001006617,登記記録の閉鎖等,0,2025-08-29,2025-08-01,株式会社美松堂,,株式会社,東京都,千代田区,神田神保町３丁目５番地,,13,101,1010051,,,2025-08-01,合併による解散等,8010001002144,令和７年８月１日東京都千代田区神田神保町三丁目５番地株式会社美松堂（8010001002144）に合併し解散,2015-10-05,1,,,,,ビショウドウ,0
1583,7010001163945,登記記録の閉鎖等,0,2025-08-29,2025-08-08,ＪＰＡ第２３号株式会社,,株式会社,東京都,千代田区,霞が関３丁目２番１号,,13,101,1000013,,,2025-08-08,清算の結了等,,,2015-10-05,1,,,,,ジェイピーエーダイニジュウサンゴウ,0
1603,7010403032178,登記記録の閉鎖等,0,2025-08-29,2025-07-31,ＣＫ　Ｃｏｎｓｕｌｔｉｎｇ合同会社,,合同会社,東京都,港区,西新橋３丁目２４番８号山内ビル３階,,13,103,1050003,,,2025-07-31,清算の結了等,,,2024-03-21,1,,,,,シーケーコンサルティング,0
1610,7010405020726,登記記録の閉鎖等,0,2025-08-29,2025-07-31,一般社団法人虎ノ門ツー,,その他の設立登記法人,東京都,港区,虎ノ門３丁目２２番１０－２０１号,,13,103,1050001,,,2025-07-31,清算の結了等,,,2022-02-21,1,,,,,トラノモンツー,0
1614,7010501026222,登記記録の閉鎖等,0,2025-08-29,2025-08-04,株式会社アウトグロー,,株式会社,東京都,台東区,三筋２丁目１５番１８号宮田金属ビル５Ｆ,,13,106,1110055,,,2025-08-04,清算の結了等,,,2015-10-05,1,,,,,,0
1615,7010502000804,登記記録の閉鎖等,0,2025-08-29,2025-08-14,有限会社石坂ガラス建材,,有限会社,東京都,台東区,台東２丁目１６番３号,,13,106,1100016,,,2025-08-14,清算の結了等,,,2015-10-05,1,,,,,,0
1622,7010903002829,登記記録の閉鎖等,0,2025-08-29,2025-08-22,合同会社ｍａｋｅｆｒｅｅ,,合同会社,東京都,世田谷区,南烏山５丁目１０番１１号マノワールドレスポワール１０１,,13,112,1570062,,,2025-08-22,清算の結了等,,,2015-10-05,1,,,,,,0
1627,7011001111828,登記記録の閉鎖等,0,2025-08-29,2025-08-25,株式会社ナレッジマネジメント研究所,,株式会社,東京都,品川区,西五反田２丁目９－７ドルミ五反田アンメゾン４０７号,,13,109,1410031,,,2025-08-25,清算の結了等,,,2016-07-13,1,,,,,ナレッジマネジメントケンキュウジョ,0
1645,7011402004507,登記記録の閉鎖等,0,2025-08-29,2025-08-27,有限会社下田青果,,有限会社,東京都,板橋区,赤塚３丁目１８番２号,00066073,13,119,1750092,,,2025-08-27,清算の結了等,,,2015-10-05,1,,,,,シモダセイカ,0
1649,7011801032224,登記記録の閉鎖等,0,2025-08-29,2025-08-12,株式会社ソウルメイトカンパニー,,株式会社,神奈川県,横浜市瀬谷区,瀬谷６丁目２３番地９－１０１号,,14,114,2460031,,,2025-08-12,清算の結了等,,,2016-08-23,1,,,,,ソウルメイトカンパニー,0
1672,7030001030326,登記記録の閉鎖等,0,2025-08-29,2025-08-04,株式会社ＬＩＦＥ　ＡＴＥＬＩＥＲ,,株式会社,千葉県,四街道市,みそら２丁目１５番３号,,12,228,2840023,,,2025-08-04,清算の結了等,,,2015-10-05,1,,,,,ライフアトリエ,0
1677,7030001143219,登記記録の閉鎖等,0,2025-08-29,2025-08-22,株式会社ライフのマジョリティ,,株式会社,埼玉県,蕨市,北町１丁目１６番１２号,,11,223,3350001,,,2025-08-22,清算の結了等,,,2021-07-08,1,,,,,ライフノマジョリティ,0
1686,7030005016957,登記記録の閉鎖等,0,2025-08-29,2025-08-22,一般社団法人日本マインドフルネス精神療法協会,,その他の設立登記法人,埼玉県,蓮田市,椿山３丁目１７番５号,,11,238,3490144,,,2025-08-22,清算の結了等,,,2015-10-05,1,,,,,ニホンマインドフルネスセイシンリョウホウキョウカイ,0
1691,7040002049802,登記記録の閉鎖等,0,2025-08-29,2025-08-04,有限会社貴澤,,有限会社,千葉県,松戸市,殿平賀２９６番地,,12,207,2700004,,,2025-08-04,清算の結了等,,,2015-10-05,1,,,,,タカザワ,0
1697,7060002029876,登記記録の閉鎖等,0,2025-08-29,2025-08-26,有限会社山根工業,,有限会社,栃木県,下都賀郡野木町,大字川田字北坪６０９番地１６,,09,364,3290105,,,2025-08-26,清算の結了等,,,2015-10-05,1,,,,,ヤマネコウギョウ,0
1699,7070001024258,登記記録の閉鎖等,0,2025-08-29,2025-08-26,片山建設株式会社,,株式会社,群馬県,藤岡市,西平井１２１６番地,,10,209,3750044,,,2025-08-26,清算の結了等,,,2015-10-05,1,,,,,カタヤマケンセツ,0
1707,7100002020442,登記記録の閉鎖等,0,2025-08-29,2025-08-12,有限会社清和会,,有限会社,神奈川県,横浜市青葉区,しらとり台１０番地１５,,14,117,2270054,,,2025-08-12,清算の結了等,,,2015-10-05,1,,,,,セイワカイ,0
1711,7120001091615,登記記録の閉鎖等,0,2025-08-29,2025-08-25,株式会社ユー・ツー,,株式会社,大阪府,大阪市中央区,安土町１丁目７番２０号,,27,128,5410052,,,2025-08-25,清算の結了等,,,2015-10-05,1,,,,,ユーツー,0
1714,7120001158422,登記記録の閉鎖等,0,2025-08-29,2025-08-14,コトブキ物流株式会社,,株式会社,大阪府,門真市,四宮５丁目３番２４号,,27,223,5710017,,,2025-08-14,清算の結了等,,,2015-10-05,1,,,,,コトブキブツリュウ,0
1724,7120002081094,登記記録の閉鎖等,0,2025-08-29,2025-08-20,アイサット有限会社,,有限会社,大阪府,門真市,江端町８番６－１００１号,,27,223,5710012,,,2025-08-20,清算の結了等,,,2015-10-05,1,,,,,アイサット,0
1729,7120005008375,登記記録の閉鎖等,0,2025-08-29,2025-08-27,医療法人啓青会野々村クリニック,,その他の設立登記法人,大阪府,大阪市西区,西本町１丁目５番９号日清ビル３階,,27,106,5500005,,,2025-08-27,清算の結了等,,,2015-10-05,1,,,,,ケイセイカイノノムラクリニック,0
1732,7120101026652,登記記録の閉鎖等,0,2025-08-29,2025-08-15,南尚工業株式会社,,株式会社,大阪府,大阪狭山市,狭山４丁目１１３８番地の５,,27,231,5890005,,,2025-08-15,清算の結了等,,,2015-10-05,1,,,,,ナンショウコウギョウ,0
1737,7120901013156,登記記録の閉鎖等,0,2025-08-29,2025-08-25,株式会社グッドビリーヴ,,株式会社,大阪府,高槻市,上田辺町７番１７号,,27,207,5690805,,,2025-08-25,清算の結了等,,,2015-10-05,1,,,,,,0
1739,7120901033633,登記記録の閉鎖等,0,2025-08-29,2025-08-26,株式会社アール・ディー・エス,,株式会社,大阪府,豊中市,走井２丁目１４番１８号,,27,203,5610891,,,2025-08-26,清算の結了等,,,2015-10-05,1,,,,,,0
1742,7120901035217,登記記録の閉鎖等,0,2025-08-29,2025-08-26,株式会社清水工業,,株式会社,大阪府,豊中市,春日町２丁目１７番２２号,,27,203,5600052,,,2025-08-26,清算の結了等,,,2015-10-05,1,,,,,,0
1772,7180001102317,登記記録の閉鎖等,0,2025-08-29,2025-08-27,株式会社田兵,,株式会社,愛知県,名古屋市北区,八代町２丁目４１番地の１,,23,103,4620043,,,2025-08-27,清算の結了等,,,2015-10-05,1,,,,,タヘイ,0
1776,7180001152849,登記記録の閉鎖等,0,2025-08-29,2025-08-05,株式会社援人,,株式会社,愛知県,名古屋市緑区,篭山１丁目１０９－１シティコーポ小坂南１０１号,,23,114,4580007,,,2025-08-05,清算の結了等,,,2022-09-13,1,,,,,エンジン,0
1780,7180002088828,登記記録の閉鎖等,0,2025-08-29,2025-08-06,有限会社ＤＢＬ,,有限会社,愛知県,東海市,富木島町東山田７７番地の３８,,23,222,4760011,,,2025-08-06,清算の結了等,,,2015-10-05,1,,,,,ディービーエル,0
1785,7210005010066,登記記録の閉鎖等,0,2025-08-29,2025-08-21,一般社団法人福井県任意売却支援協会,,その他の設立登記法人,福井県,福井市,二の宮２丁目２番１０号,,18,201,9100015,,,2025-08-21,清算の結了等,,,2022-11-07,1,,,,,フクイケンニンイバイキャクシエンキョウカイ,0
1788,7240001002510,登記記録の閉鎖等,0,2025-08-29,2025-08-27,協和木工株式会社,,株式会社,広島県,広島市西区,井口２丁目５番２３号,,34,104,7330842,,,2025-08-27,清算の結了等,,,2015-10-05,1,,,,,キョウワモッコウ,0
1789,7240001052480,登記記録の閉鎖等,0,2025-08-29,2025-08-27,株式会社つなぐ,,株式会社,広島県,尾道市,吉和町５１２３番地４,,34,205,7220008,,,2025-08-27,清算の結了等,,,2018-03-05,1,,,,,ツナグ,0
1792,7240002052199,登記記録の閉鎖等,0,2025-08-29,2025-08-21,有限会社ケイエイ,,有限会社,広島県,尾道市,因島中庄町２０２５番地１,,34,205,7222211,,,2025-08-21,清算の結了等,,,2015-10-05,1,,,,,ケイエイ,0
1812,7340002006806,登記記録の閉鎖等,0,2025-08-29,2025-08-26,有限会社中尾商事,,有限会社,鹿児島県,鹿児島市,武３丁目３２番１－１１０８号,,46,201,8900045,,,2025-08-26,清算の結了等,,,2015-10-05,1,,,,,ナカオショウジ,0
1822,7360003003890,登記記録の閉鎖等,0,2025-08-29,2025-08-21,合名会社アラジン貿易,,合名会社,沖縄県,宜野湾市,真志喜１丁目５番９号マーシーアパートＣ－１０２,,47,205,9012224,,,2025-08-21,清算の結了等,,,2015-10-05,1,,,,,アラジンボウエキ,0
1832,7400002008705,登記記録の閉鎖等,0,2025-08-29,2025-08-12,有限会社ヤマサ,,有限会社,岩手県,花巻市,石鳥谷町中寺林第６地割４７番地２１,,03,205,0283171,,,2025-08-12,清算の結了等,,,2015-10-05,1,,,,,ヤマサ,0
1838,7430001000841,登記記録の閉鎖等,0,2025-08-29,2025-08-01,株式会社アツミ,,株式会社,北海道,札幌市中央区,南六条西１７丁目１番１号,,01,101,0640806,,,2025-08-01,合併による解散等,6430001000842,令和７年８月１日札幌市中央区南六条西十七丁目１番１号渥美工業株式会社（6430001000842）に合併し解散,2015-10-05,1,,,,,アツミ,0
1842,7430005002041,登記記録の閉鎖等,0,2025-08-29,2025-08-12,医療法人社団水口整形外科医院,,その他の設立登記法人,北海道,札幌市手稲区,新発寒五条６丁目１番５号,,01,109,0060805,,,2025-08-12,清算の結了等,,,2015-10-05,1,,,,,ミズグチセイケイゲカイイン,0
1854,8010001199427,登記記録の閉鎖等,0,2025-08-29,2025-08-08,ＪＰＡ第１８４号株式会社,,株式会社,東京都,千代田区,霞が関３丁目２番１号,,13,101,1000013,,,2025-08-08,清算の結了等,,,2019-03-22,1,,,,,ジェイピーエーダイヒャクハチジュウヨンゴウ,0
1856,8010001211835,登記記録の閉鎖等,0,2025-08-29,2025-08-08,ＪＰＡ第２０５号株式会社,,株式会社,東京都,千代田区,霞が関３丁目２番１号,,13,101,1000013,,,2025-08-08,清算の結了等,,,2020-08-27,1,,,,,ジェイピーエーダイニヒャクゴゴウ,0
1865,8010401151788,登記記録の閉鎖等,0,2025-08-29,2025-08-28,ＡＣＡ　Ｎｅｘｔ　Ｐａｒｔｎｅｒｓ株式会社,,株式会社,東京都,港区,西新橋１丁目１６番３号,,13,103,1050003,,,2025-08-28,合併による解散等,4010501016374,令和７年８月１日東京都港区西新橋一丁目１６番３号ＡＣＡ　Ｎｅｘｔ株式会社（4010501016374）に合併し解散,2020-03-19,1,,,,,エーシーエーネクストパートナーズ,0
1880,8010501031923,登記記録の閉鎖等,0,2025-08-29,2025-08-04,株式会社ＦＵＭＩ,,株式会社,東京都,台東区,浅草５丁目３４番９号,,13,106,1110032,,,2025-08-04,清算の結了等,,,2015-10-05,1,,,,,フミ,0
1883,8010505001278,登記記録の閉鎖等,0,2025-08-29,2025-08-01,医療法人社団道草会,,その他の設立登記法人,東京都,台東区,東上野３丁目３６番１号上野第二ビル３０１号室,,13,106,1100015,,,2025-08-01,清算の結了等,,,2015-10-05,1,,,,,ミチクサカイ,0
1898,8011101054868,登記記録の閉鎖等,0,2025-08-29,2025-08-01,株式会社やわらぎ,,株式会社,東京都,新宿区,中落合２丁目２４番１３号,,13,104,1610032,,,2025-08-01,清算の結了等,,,2015-10-05,1,,,,,ヤワラギ,0
1899,8011101108194,登記記録の閉鎖等,0,2025-08-29,2025-08-01,ＰＲＥＳＳ　ＣＯＮＦＥＲＥＮＣＥ　ＡＰＯＬＯＧＹ株式会社,,株式会社,東京都,新宿区,西新宿７丁目５番５号Ｐｌａｚａ西新宿ＵＣＦ４階,,13,104,1600023,,,2025-08-01,清算の結了等,,,2024-08-07,1,,,,,プレスカンファレンスアポロジー,0
1902,8011102005267,登記記録の閉鎖等,0,2025-08-29,2025-08-06,有限会社坂本屋,,有限会社,東京都,新宿区,四谷１丁目１８番地,,13,104,1600004,,,2025-08-06,清算の結了等,,,2015-10-05,1,,,,,サカモトヤ,0
1903,8011202001190,登記記録の閉鎖等,0,2025-08-29,2025-08-05,有限会社オー・シー・エス,,有限会社,千葉県,船橋市,藤原７丁目２７番６号,,12,204,2730047,,,2025-08-05,清算の結了等,,,2015-10-05,1,,,,,オーシーエス,0
1912,8011602001071,登記記録の閉鎖等,0,2025-08-29,2025-08-13,有限会社稲葉塗装,,有限会社,東京都,練馬区,東大泉７丁目５番３号,,13,120,1780063,,,2025-08-13,清算の結了等,,,2015-10-05,1,,,,,イナバトソウ,0
1945,8030001117147,登記記録の閉鎖等,0,2025-08-29,2025-08-21,清龍エンタープライズ株式会社,,株式会社,埼玉県,蓮田市,大字閏戸６５９番地２,,11,238,3490133,,,2025-08-21,清算の結了等,,,2016-11-08,1,,,,,セイリュウエンタープライズ,0
1951,8030002074767,登記記録の閉鎖等,0,2025-08-29,2025-08-25,有限会社フーズネットワークオーシーエス,,有限会社,埼玉県,川越市,上野田町５５番地１７,,11,201,3501112,,,2025-08-25,清算の結了等,,,2015-10-05,1,,,,,フーズネットワークオーシーエス,0
1953,8030002086746,登記記録の閉鎖等,0,2025-08-29,2025-08-22,有限会社染織ともえ,,有限会社,埼玉県,越谷市,大字大林５８８番地１２,,11,222,3430021,,,2025-08-22,清算の結了等,,,2015-10-05,1,,,,,ソメオリトモエ,0
1962,8040002099961,登記記録の閉鎖等,0,2025-08-29,2025-08-04,有限会社ドミンゴ,,有限会社,千葉県,鴨川市,東町５５９番地３５,,12,223,2960041,,,2025-08-04,清算の結了等,,,2015-10-05,1,,,,,ドミンゴ,0
1970,8060001009564,登記記録の閉鎖等,0,2025-08-29,2025-08-25,株式会社ウメノ,,株式会社,栃木県,芳賀郡益子町,大字生田目１１０９番地１,,09,342,3214215,,,2025-08-25,清算の結了等,,,2015-10-05,1,,,,,ウメノ,0
1976,8070002036326,登記記録の閉鎖等,0,2025-08-29,2025-08-27,有限会社木州屋,,有限会社,群馬県,吾妻郡嬬恋村,大字三原７４３番地,,10,425,3771526,,,2025-08-27,清算の結了等,,,2015-10-05,1,,,,,キシュウヤ,0
1977,8080101015527,登記記録の閉鎖等,0,2025-08-29,2025-08-27,ライフマガジン株式会社,,株式会社,静岡県,伊東市,吉田１０００番地の３２３,,22,208,4140051,,,2025-08-27,清算の結了等,,,2015-10-05,1,,,,,ライフマガジン,0
1991,8120001025340,登記記録の閉鎖等,0,2025-08-29,2025-08-22,真鍋工芸株式会社,,株式会社,大阪府,大阪市天王寺区,空堀町１７番２２号,,27,109,5430012,,,2025-08-22,清算の結了等,,,2015-10-05,1,,,,,マナベコウゲイ,0
1995,8120001212574,登記記録の閉鎖等,0,2025-08-29,2025-08-15,株式会社コントラーズ,,株式会社,大阪府,大阪市北区,野崎町７番８号,,27,127,5300055,,,2025-08-15,清算の結了等,,,2018-04-10,1,,,,,コントラーズ,0
2004,8120101023310,登記記録の閉鎖等,0,2025-08-29,2025-08-25,株式会社アダチ歯材,,株式会社,大阪府,堺市南区,檜尾２０６番地１２,,27,145,5900142,,,2025-08-25,清算の結了等,,,2015-10-05,1,,,,,アダチシザイ,0
2006,8120101050230,登記記録の閉鎖等,0,2025-08-29,2025-08-18,株式会社マイウェイ,,株式会社,大阪府,堺市東区,日置荘田中町２８５番地３,,27,143,5998113,,,2025-08-18,清算の結了等,,,2015-10-05,1,,,,,マイウェイ,0
2018,8120901042360,登記記録の閉鎖等,0,2025-08-29,2025-08-22,株式会社福祉アンドハート,,株式会社,大阪府,箕面市,船場東２丁目１－２０ＡＢＣビル２Ｆ,,27,220,5620035,,,2025-08-22,清算の結了等,,,2020-02-06,1,,,,,,0
2028,8130002029182,登記記録の閉鎖等,0,2025-08-29,2025-08-18,有限会社山諭工務店,,有限会社,京都府,京都市上京区,七本松通一条上る滝ケ鼻町１００６番地３８,,26,102,6028336,,,2025-08-18,清算の結了等,,,2015-10-05,1,,,,,,0
2030,8140001056879,登記記録の閉鎖等,0,2025-08-29,2025-08-27,株式会社北兵庫,,株式会社,鳥取県,鳥取市,秋里９８０番地第５ガーデンハイツ３０７号,,31,201,6800902,,,2025-08-27,清算の結了等,,,2015-10-05,1,,,,,キタヒョウゴ,0
2054,8190002019260,登記記録の閉鎖等,0,2025-08-29,2025-08-27,有限会社イチヤマキ廣瀬商店,00076096,有限会社,三重県,四日市市,東富田町２７番８号,,24,202,5108006,,,2025-08-27,清算の結了等,,,2015-10-05,1,,,,,イチヤマキヒロセショウテン,0
2063,8260001029294,登記記録の閉鎖等,0,2025-08-29,2025-08-20,株式会社ＢＩＥＮ,,株式会社,岡山県,岡山市北区,中山下１丁目１１番１５号新田第１ビル４０２,,33,101,7000821,,,2025-08-20,清算の結了等,,,2016-03-03,1,,,,,ビエン,0
2075,8320002017787,登記記録の閉鎖等,0,2025-08-29,2025-08-22,有限会社伊藤,,有限会社,大分県,竹田市,大字入田３４９５番地,,44,208,8780033,,,2025-08-22,清算の結了等,,,2015-10-05,1,,,,,,0
2087,8370001044225,登記記録の閉鎖等,0,2025-08-29,2025-08-12,株式会社トータルソリューション,,株式会社,宮城県,仙台市宮城野区,福室３丁目３５番１７号カーサ・ブランＢ棟,,04,102,9830005,,,2025-08-12,清算の結了等,,,2019-04-04,1,,,,,トータルソリューション,0
2095,8390001001018,登記記録の閉鎖等,0,2025-08-29,2025-08-25,センシヨー株式会社,,株式会社,山形県,山形市,流通センター２丁目８番地の１,,06,201,9900071,,,2025-08-25,清算の結了等,,,2015-10-05,1,,,,,センショー,0
2102,8430003004451,登記記録の閉鎖等,0,2025-08-29,2025-08-07,合同会社中島設備,,合同会社,北海道,札幌市北区,太平一条１丁目１番１－１０５号,,01,102,0028001,,,2025-08-07,清算の結了等,,,2015-10-05,1,,,,,ナカジマセツビ,0
2118,9010001153358,登記記録の閉鎖等,0,2025-08-29,2025-08-07,株式会社エスト,,株式会社,東京都,中央区,新川１丁目３番７号,,13,102,1040033,,,2025-08-07,清算の結了等,,,2015-10-05,1,,,,,エスト,0
2119,9010001164644,登記記録の閉鎖等,0,2025-08-29,2025-08-07,株式会社ダイナミックサイエンス,,株式会社,東京都,中央区,日本橋小舟町１１番１３号日本橋ＮＹビル７階,,13,102,1030024,,,2025-08-07,清算の結了等,,,2015-10-05,1,,,,,ダイナミックサイエンス,0
2120,9010001199426,登記記録の閉鎖等,0,2025-08-29,2025-08-08,ＪＰＡ第１８３号株式会社,,株式会社,東京都,千代田区,霞が関３丁目２番１号,,13,101,1000013,,,2025-08-08,清算の結了等,,,2019-03-22,1,,,,,ジェイピーエーダイヒャクハチジュウサンゴウ,0
2124,9010001245436,登記記録の閉鎖等,0,2025-08-29,2025-08-07,株式会社バイト,,株式会社,東京都,文京区,白山５丁目１３番２－２０４号,,13,105,1120001,,,2025-08-07,清算の結了等,,,2024-06-05,1,,,,,バイト,0
2127,9010003044943,登記記録の閉鎖等,0,2025-08-29,2025-08-05,Ｓｏｎｇ　Ｂｉｄｃｏ合同会社,,合同会社,東京都,中央区,日本橋室町４丁目３番９号,,13,102,1030022,,,2025-08-05,合併による解散等,1010003044942,令和７年８月１日東京都中央区日本橋室町四丁目３番９号Ｓｏｎｇ　Ｈｏｌｄｉｎｇｓ合同会社（1010003044942）に合併し解散,2024-09-19,1,,,,,ソンビドコ,0
2135,9010402022277,登記記録の閉鎖等,0,2025-08-29,2025-07-30,有限会社菅村茂樹広告事務所,,有限会社,東京都,港区,赤坂９丁目６番２９号パシフィック乃木坂７０４,,13,103,1070052,,,2025-07-30,清算の結了等,,,2015-10-05,1,,,,,スガムラシゲキコウコクジムショ,0
2142,9010501000885,登記記録の閉鎖等,0,2025-08-29,2025-08-12,株式会社石川工務店,,株式会社,東京都,台東区,浅草７丁目６番１号,,13,106,1110032,,,2025-08-12,清算の結了等,,,2015-10-05,1,,,,,イシカワコウムテン,0
2156,9011001154692,登記記録の閉鎖等,0,2025-08-29,2025-07-30,株式会社ｍａｎｏａ,,株式会社,東京都,渋谷区,恵比寿１丁目１３番６号恵比寿ＩＳビル７号棟６階,,13,113,1500013,,,2025-07-30,清算の結了等,,,2023-05-29,1,,,,,マノア,0
2162,9011101100274,登記記録の閉鎖等,0,2025-08-29,2025-07-30,ダブルレインボー株式会社,,株式会社,東京都,新宿区,西新宿３丁目９番７号フロンティア新宿タワーオフィス３３３号室,,13,104,1600023,,,2025-07-30,清算の結了等,,,2022-09-26,1,,,,,ダブルレインボー,0
2172,9011601026317,登記記録の閉鎖等,0,2025-08-29,2025-08-06,ヒューマンソリューション株式会社,,株式会社,北海道,札幌市中央区,南五条西４丁目７番地１,,01,101,0640805,,,2025-08-06,清算の結了等,,,2022-10-19,1,,,,,ヒューマンソリューション,0
2185,9020001143820,登記記録の閉鎖等,0,2025-08-29,2025-08-08,株式会社ラ・ソナリサ,,株式会社,神奈川県,横浜市港南区,東永谷３丁目１５番３０－４２０号,,14,111,2330011,,,2025-08-08,清算の結了等,,,2021-11-05,1,,,,,ラソナリサ,0
2190,9020002065691,登記記録の閉鎖等,0,2025-08-29,2025-08-12,有限会社ヒューマンネットワーク横浜,,有限会社,神奈川県,横浜市中区,弥生町２丁目１５番地１,,14,104,2310058,,,2025-08-12,清算の結了等,,,2015-10-05,1,,,,,,0
2195,9021001009219,登記記録の閉鎖等,0,2025-08-29,2025-08-25,株式会社水江社,,株式会社,神奈川県,藤沢市,村岡東４丁目１６番地の２４,,14,205,2510012,,,2025-08-25,清算の結了等,,,2015-10-05,1,,,,,スイコウシャ,0
2213,9040002032979,登記記録の閉鎖等,0,2025-08-29,2025-07-22,エムアンドエム有限会社,,有限会社,千葉県,市川市,南行徳１丁目９番１５－５０１号,,12,203,2720138,,,2025-07-22,清算の結了等,,,2015-10-05,1,,,,,エムアンドエム,0
2223,9070002002681,登記記録の閉鎖等,0,2025-08-29,2025-08-27,有限会社新藤会計事務所,,有限会社,群馬県,前橋市,箱田町１１７２番地の１７,,10,201,3710837,,,2025-08-27,清算の結了等,,,2015-10-05,1,,,,,,0
2230,9090001007127,登記記録の閉鎖等,0,2025-08-29,2025-08-25,株式会社ＭＯＮＳＴＥＲ,,株式会社,山梨県,甲府市,大里町４２１３番地１,,19,201,4000053,,,2025-08-25,清算の結了等,,,2015-10-05,1,,,,,,0
2238,9120001174054,登記記録の閉鎖等,0,2025-08-29,2025-08-18,株式会社北摂アグリフード,,株式会社,大阪府,豊中市,庄内西町３丁目１９番４号,,27,203,5610832,,,2025-08-18,清算の結了等,,,2015-10-05,1,,,,,,0
2242,9120001224206,登記記録の閉鎖等,0,2025-08-29,2025-08-15,株式会社Ｆｅｖｓ,,株式会社,大阪府,大阪市北区,中津１丁目１３番１７－１００７号,,27,127,5310071,,,2025-08-15,清算の結了等,,,2019-10-08,1,,,,,フェヴス,0
2252,9120002009928,登記記録の閉鎖等,0,2025-08-29,2025-08-20,有限会社豊国機工製作所,,有限会社,大阪府,大阪市生野区,田島５丁目２２番５号,,27,116,5440011,,,2025-08-20,清算の結了等,,,2015-10-05,1,,,,,ホウコクキコウセイサクショ,0
2275,9130003007946,登記記録の閉鎖等,0,2025-08-29,2025-08-12,合同会社Ｏｄａ,,合同会社,京都府,京田辺市,花住坂３丁目１０番６花住坂ガーデン弐番館１０５,,26,211,6100352,,,2025-08-12,清算の結了等,,,2022-05-24,1,,,,,オダ,0
2283,9140005020582,登記記録の閉鎖等,0,2025-08-29,2025-08-12,特定非営利活動法人近畿ＮＰＯセンター,,その他の設立登記法人,兵庫県,宝塚市,長寿ガ丘６番１３号,,28,214,6650001,,,2025-08-12,清算の結了等,,,2015-10-05,1,,,,,キンキエヌピオセンター,0
2291,9180002038509,登記記録の閉鎖等,0,2025-08-29,2025-08-05,有限会社神谷,,有限会社,愛知県,名古屋市中区,大須３丁目２０番１３号,,23,106,4600011,,,2025-08-05,清算の結了等,,,2015-10-05,1,,,,,カミヤ,0
2295,9180005014317,登記記録の閉鎖等,0,2025-08-29,2025-08-27,弁護士法人エルシンクネット,,その他の設立登記法人,愛知県,名古屋市中区,丸の内３丁目１７番２８号第２リックスビル２Ｆ,,23,106,4600002,,,2025-08-27,清算の結了等,,,2015-10-05,1,,,,,エルシンクネット,0
2305,9260001019880,登記記録の閉鎖等,0,2025-08-29,2025-07-31,株式会社大建,,株式会社,岡山県,苫田郡鏡野町,馬場７６７番地,,33,606,7080366,,,2025-07-31,合併による解散等,7260001020444,令和７年７月３１日岡山県苫田郡鏡野町馬場７７２番地株式会社中西工業所（7260001020444）に合併し解散,2015-10-05,1,,,,,ダイケン,0
2322,9350005001628,登記記録の閉鎖等,0,2025-08-29,2025-08-22,特定非営利活動法人自立就労支援機構未来,,その他の設立登記法人,宮崎県,宮崎市,大塚町８１０－４ＳＴＭ－１ビル１０１号,,45,201,8800951,,,2025-08-22,清算の結了等,,,2015-10-05,1,,,,,ジリツシュウロウシエンキコウミライ,0
2335,9370003004498,登記記録の閉鎖等,0,2025-08-29,2025-08-13,合同会社あやめ薬局,,合同会社,宮城県,大崎市,古川駅前大通５丁目３番２３－２号,,04,215,9896162,,,2025-08-13,清算の結了等,,,2019-06-13,1,,,,,アヤメヤッキョク,0
2341,9430001026083,登記記録の閉鎖等,0,2025-08-29,2025-07-18,株式会社アクト工房,,株式会社,北海道,札幌市清田区,真栄三条２丁目１６番１号,,01,110,0040833,,,2025-07-18,清算の結了等,,,2015-10-05,1,,,,,アクトコウボウ,0
2345,9430003010234,登記記録の閉鎖等,0,2025-08-29,2025-08-08,合同会社イルカネット,,合同会社,北海道,札幌市手稲区,稲穂三条５丁目４番１号,,01,109,0060033,,,2025-08-08,清算の結了等,,,2019-03-13,1,,,,,イルカネット,0
