sequenceNumber,corporateNumber,process,correct,updateDate,changeDate,name,nameImageId,kind,prefectureName,cityName,streetNumber,addressImageId,prefectureCode,cityCode,postCode,addressOutside,addressOutsideImageId,closeDate,closeCause,successorCorporateNumber,changeCause,assignmentDate,latest,enName,enPrefectureName,enCityName,enAddressOutside,furigana,hihyoji
19,1010102000219,登記記録の閉鎖等,0,2025-06-20,2025-06-18,有限会社暁製作所,,有限会社,東京都,八王子市,諏訪町３３２番地の４,,13,201,1930812,,,2025-06-18,清算の結了等,,,2015-10-05,1,,,,,アカツキセイサクジョ,0
22,1010401112490,登記記録の閉鎖等,0,2025-06-20,2025-06-09,ＮＮＧ　Ｎａｖｉｇａｔｉｏｎｓ株式会社,,株式会社,東京都,杉並区,浜田山４丁目１６番４－９０３号,,13,115,1680065,,,2025-06-09,清算の結了等,,,2015-10-05,1,,,,,エヌエヌジーナビゲーションズ,0
23,1010401147652,登記記録の閉鎖等,0,2025-06-20,2025-05-29,株式会社ｈｍｃ,,株式会社,東京都,港区,六本木３丁目７番１－３７０７号,,13,103,1060032,,,2025-05-29,清算の結了等,,,2019-08-26,1,,,,,エイチエムシー,0
31,1010501039568,登記記録の閉鎖等,0,2025-06-20,2025-06-18,金祥株式会社,,株式会社,東京都,台東区,蔵前１丁目３番９号蔵前深田ビル２０２,,13,106,1110051,,,2025-06-18,清算の結了等,,,2016-05-23,1,,,,,キンショウ,0
35,1010703002357,登記記録の閉鎖等,0,2025-06-20,2025-06-12,合同会社ＳＬＥＥ,,合同会社,東京都,品川区,上大崎２丁目６番２５－４０３号,,13,109,1410021,,,2025-06-12,清算の結了等,,,2015-10-05,1,,,,,,0
62,1011501030608,登記記録の閉鎖等,0,2025-06-20,2025-06-16,瑞安株式会社,,株式会社,東京都,荒川区,東尾久２丁目２番９号三祥ビル２０２,,13,118,1160012,,,2025-06-16,清算の結了等,,,2024-04-30,1,,,,,ズイアン,0
70,1011802014755,登記記録の閉鎖等,0,2025-06-20,2025-06-16,有限会社セトウチ工業,,有限会社,東京都,足立区,興野２丁目２５番３１号,,13,121,1230844,,,2025-06-16,清算の結了等,,,2015-10-05,1,,,,,,0
83,1020001125891,登記記録の閉鎖等,0,2025-06-20,2025-06-16,株式会社クレイヴ,,株式会社,神奈川県,横浜市瀬谷区,本郷２丁目２１番地の８,,14,114,2460015,,,2025-06-16,清算の結了等,,,2018-04-13,1,,,,,クレイヴ,0
89,1020002094541,登記記録の閉鎖等,0,2025-06-20,2025-06-03,有限会社杉浦計画事務所,,有限会社,神奈川県,川崎市多摩区,長沢４丁目３５番１３号,,14,135,2140035,,,2025-06-03,清算の結了等,,,2015-10-05,1,,,,,スギウラケイカクジムショ,0
110,1040002073568,登記記録の閉鎖等,0,2025-06-20,2025-06-04,有限会社ジェー・シー・ティー,,有限会社,千葉県,市原市,ちはら台東５丁目１０番地１０,,12,219,2900141,,,2025-06-04,清算の結了等,,,2015-10-05,1,,,,,ジェーシーティー,0
122,1060001031442,登記記録の閉鎖等,0,2025-06-20,2025-06-13,株式会社ＨＥＬＬＯ,,株式会社,栃木県,足利市,八幡町２丁目１９番地２,,09,202,3260824,,,2025-06-13,清算の結了等,,,2019-04-01,1,,,,,ハロー,0
132,1090001019014,登記記録の閉鎖等,0,2025-06-20,2025-06-10,アイランド株式会社,,株式会社,山梨県,笛吹市,八代町南１１７６番地１,,19,211,4060822,,,2025-06-10,清算の結了等,,,2024-11-20,1,,,,,アイランド,0
138,1100002011471,登記記録の閉鎖等,0,2025-06-20,2025-06-16,有限会社山下製作所,,有限会社,長野県,佐久市,太田部１７２番地,,20,217,3850033,,,2025-06-16,清算の結了等,,,2015-10-05,1,,,,,ヤマシタセイサクジョ,0
139,1100002035958,登記記録の閉鎖等,0,2025-06-20,2025-06-16,有限会社岡建,,有限会社,長野県,飯田市,上郷飯沼５１８番地１,,20,205,3950002,,,2025-06-16,清算の結了等,,,2015-10-05,1,,,,,オカケン,0
146,1120001266288,登記記録の閉鎖等,0,2025-06-20,2025-06-16,一方株式会社,,株式会社,大阪府,大阪市住之江区,安立２丁目１０番１４号三坂ビル１０３号室,,27,125,5590003,,,2025-06-16,清算の結了等,,,2024-07-01,1,,,,,イッポウ,0
163,1140001034890,登記記録の閉鎖等,0,2025-06-20,2025-06-13,株式会社マウンテンストリーム,,株式会社,兵庫県,明石市,西明石西町１丁目６番３２号,,28,203,6730049,,,2025-06-13,清算の結了等,,,2015-10-05,1,,,,,マウンテンストリーム,0
167,1150001017746,登記記録の閉鎖等,0,2025-06-20,2025-06-17,ＤＯＣＯ　ＥＳＴＡＴＥ　ＪＡＰＡＮ株式会社,,株式会社,奈良県,香芝市,上中１１８３番地の１アシビハイツ９－２０４号,,29,210,6390265,,,2025-06-17,清算の結了等,,,2015-10-05,1,,,,,ドコエステートジャパン,0
174,1170003000236,登記記録の閉鎖等,0,2025-06-20,2025-06-19,合資会社八畑商店,,合資会社,和歌山県,海南市,岡田１２３３番地の１８,,30,202,6420012,,,2025-06-19,清算の結了等,,,2015-10-05,1,,,,,ヤハタショウテン,0
177,1180001109961,登記記録の閉鎖等,0,2025-06-20,2025-06-16,株式会社ＧＵＲＵＭＥＤＩＡ　ＣＯＲＰＯＲＡＴＩＯＮ,,株式会社,愛知県,名古屋市中区,大須１丁目７番１４号,,23,106,4600011,,,2025-06-16,清算の結了等,,,2015-10-05,1,,,,,グルメディアコーポレーション,0
191,1200002011767,登記記録の閉鎖等,0,2025-06-20,2025-06-18,有限会社訪問介護みのり,,有限会社,岐阜県,羽島郡岐南町,上印食４丁目２２番地,,21,302,5016001,,,2025-06-18,清算の結了等,,,2015-10-05,1,,,,,ホウモンカイゴミノリ,0
194,1220005008239,登記記録の閉鎖等,0,2025-06-20,2025-06-12,医療法人社団先仁会,,その他の設立登記法人,東京都,中央区,銀座５丁目６番２号,,13,102,1040061,,,2025-06-12,清算の結了等,,,2017-12-18,1,,,,,センジンカイ,0
195,1230001016839,登記記録の閉鎖等,0,2025-06-20,2025-06-16,株式会社Ｌａｙｓ　ｐｈｉｌｏｓｏｐｈｙ,,株式会社,大阪府,泉佐野市,上之郷２５８８番地エスポワールＣ１０２,,27,213,5980024,,,2025-06-16,清算の結了等,,,2017-02-24,1,,,,,レイズフィロソフィー,0
200,1280002011660,登記記録の閉鎖等,0,2025-06-20,2025-06-18,有限会社ダイイチ電工,,有限会社,島根県,仁多郡奥出雲町,三成２５１番地２,,32,343,6991511,,,2025-06-18,清算の結了等,,,2015-10-05,1,,,,,ダイイチデンコウ,0
235,1430002004863,登記記録の閉鎖等,0,2025-06-20,2025-06-13,寒地住建有限会社,,有限会社,北海道,札幌市東区,北十九条東８丁目５番１１号,,01,103,0650019,,,2025-06-13,清算の結了等,,,2015-10-05,1,,,,,カンチジュウケン,0
237,1450001006347,登記記録の閉鎖等,0,2025-06-20,2025-06-18,株式会社幾寅自工総合センター,,株式会社,北海道,空知郡南富良野町,字幾寅市街地７８９番地,,01,462,0792400,,,2025-06-18,清算の結了等,,,2015-10-05,1,,,,,イクトラジコウソウゴウセンター,0
270,2010801001730,登記記録の閉鎖等,0,2025-06-20,2025-06-12,株式会社松尾工務店,,株式会社,東京都,大田区,東糀谷６丁目７番１号,,13,111,1440033,,,2025-06-12,清算の結了等,,,2015-10-05,1,,,,,マツオコウムテン,0
274,2010903007782,登記記録の閉鎖等,0,2025-06-20,2025-06-18,合同会社ＣＲＢ,,合同会社,東京都,世田谷区,成城９丁目２７番２号,,13,112,1570066,,,2025-06-18,清算の結了等,,,2022-11-15,1,,,,,シーアールビー,0
310,2012801010273,登記記録の閉鎖等,0,2025-06-20,2025-06-16,株式会社スペースインテリアクラ,,株式会社,東京都,立川市,砂川町８丁目６８番地の２０,,13,202,1900031,,,2025-06-16,清算の結了等,,,2015-10-05,1,,,,,スペースインテリアクラ,0
315,2020002074385,登記記録の閉鎖等,0,2025-06-20,2025-06-18,有限会社エヌズプランニング,,有限会社,神奈川県,横浜市鶴見区,栄町通４丁目４８番地の２,,14,101,2300038,,,2025-06-18,清算の結了等,,,2015-10-05,1,,,,,エヌズプランニング,0
327,2021002001271,登記記録の閉鎖等,0,2025-06-20,2025-06-19,有限会社カノウ,,有限会社,神奈川県,藤沢市,大庭５２２１番地の６,,14,205,2510861,,,2025-06-19,清算の結了等,,,2015-10-05,1,,,,,カノウ,0
330,2030001159211,登記記録の閉鎖等,0,2025-06-20,2025-06-11,株式会社ＡＤＶＩＳＡ,,株式会社,群馬県,館林市,日向町１０２６番地２１,,10,207,3740076,,,2025-06-11,清算の結了等,,,2024-03-15,1,,,,,アドバイザ,0
336,2030002089515,登記記録の閉鎖等,0,2025-06-20,2025-06-12,有限会社坂巻工業,,有限会社,埼玉県,北葛飾郡松伏町,大字大川戸２３５番地,,11,465,3430106,,,2025-06-12,清算の結了等,,,2015-10-05,1,,,,,サカマキコウギョウ,0
341,2040001045121,登記記録の閉鎖等,0,2025-06-20,2025-06-19,青木企画株式会社,,株式会社,神奈川県,大和市,中央林間１丁目１番地１１号４１３,,14,213,2420007,,,2025-06-19,清算の結了等,,,2015-10-05,1,,,,,,0
358,2080001005419,登記記録の閉鎖等,0,2025-06-20,2025-06-13,株式会社山商,,株式会社,静岡県,静岡市葵区,瀬名５丁目４番４７号,,22,101,4200911,,,2025-06-13,清算の結了等,,,2015-10-05,1,,,,,ヤマショウ,0
359,2080102000426,登記記録の閉鎖等,0,2025-06-20,2025-06-16,有限会社魚栄,,有限会社,静岡県,沼津市,千本緑町１丁目２３番地の２,,22,203,4100855,,,2025-06-16,清算の結了等,,,2015-10-05,1,,,,,,0
364,2100001028400,登記記録の閉鎖等,0,2025-06-20,2025-06-16,株式会社クリーン信州,,株式会社,長野県,上田市,長瀬１１０７番地５,,20,203,3860407,,,2025-06-16,清算の結了等,,,2015-10-05,1,,,,,クリーンシンシュウ,0
365,2100002011792,登記記録の閉鎖等,0,2025-06-20,2025-06-16,有限会社イーワイ,,有限会社,長野県,佐久市,田口４９４６番地１,,20,217,3840412,,,2025-06-16,清算の結了等,,,2015-10-05,1,,,,,イーワイ,0
370,2110002034594,登記記録の閉鎖等,0,2025-06-20,2025-06-06,有限会社新英空調サービス,,有限会社,新潟県,佐渡市,河原田諏訪町５４番地１,,15,224,9521315,,,2025-06-06,清算の結了等,,,2015-10-05,1,,,,,シンエイクウチョウサービス,0
383,2120002036937,登記記録の閉鎖等,0,2025-06-20,2025-06-09,有限会社タックメディカル,,有限会社,大阪府,大阪市中央区,石町１丁目１番１１－１３０５号,,27,128,5400033,,,2025-06-09,合併による解散等,7120002006670,令和７年６月１日大阪市東成区東中本一丁目１５番２３号株式会社切通コンタクトレンズ（7120002006670）に合併し解散,2015-10-05,1,,,,,タックメディカル,0
390,2130001002501,登記記録の閉鎖等,0,2025-06-20,2025-06-13,株式会社池村理科器械店,,株式会社,京都府,京都市上京区,寺町通丸太町上る信富町３０９番地,,26,102,6020875,,,2025-06-13,清算の結了等,,,2015-10-05,1,,,,,イケムラリカキカイ,0
396,2140003017430,登記記録の閉鎖等,0,2025-06-20,2025-06-16,合同会社Ａｐｐｌｉｃａｔ,,合同会社,兵庫県,姫路市,別所町佐土４６６番地１０,,28,201,6710224,,,2025-06-16,清算の結了等,,,2022-03-08,1,,,,,アプリキャット,0
413,2200003004141,登記記録の閉鎖等,0,2025-06-20,2025-06-17,鈴木電通合同会社,,合同会社,岐阜県,美濃加茂市,下米田町西脇２５８番地１２,,21,211,5050018,,,2025-06-17,清算の結了等,,,2018-03-12,1,,,,,スズキデンツウ,0
417,2220001019940,登記記録の閉鎖等,0,2025-06-20,2025-06-12,株式会社プロダクトアート東京,,株式会社,石川県,金沢市,富樫１丁目４番１０号ダイアパレスクレスト富樫３０３号,,17,201,9218171,,,2025-06-12,清算の結了等,,,2015-10-05,1,,,,,プロダクトアートトウキョウ,0
428,2240002023642,登記記録の閉鎖等,0,2025-06-20,2025-06-17,ユナイト有限会社,,有限会社,広島県,広島市中区,大手町５丁目８番２０号,,34,101,7300051,,,2025-06-17,清算の結了等,,,2015-10-05,1,,,,,ユナイト,0
441,2310005007032,登記記録の閉鎖等,0,2025-06-20,2025-06-17,医療法人松本耳鼻咽喉科,,その他の設立登記法人,長崎県,五島市,池田町２番１７号,,42,211,8530018,,,2025-06-17,清算の結了等,,,2015-10-05,1,,,,,マツモトジビインコウカ,0
450,2370001025445,登記記録の閉鎖等,0,2025-06-20,2025-06-09,株式会社ＳＰＧ,,株式会社,宮城県,仙台市青葉区,立町１４番３号パリスビル５０５,,04,101,9800822,,,2025-06-09,清算の結了等,,,2015-10-05,1,,,,,エスピージー,0
475,3010001191322,登記記録の閉鎖等,0,2025-06-20,2025-05-29,株式会社エルエスサポート,,株式会社,東京都,中央区,日本橋茅場町２丁目５番６号,,13,102,1030025,,,2025-05-29,清算の結了等,,,2018-04-23,1,,,,,エルエスサポート,0
477,3010001226805,登記記録の閉鎖等,0,2025-06-20,2025-06-05,株式会社アバックグループ,,株式会社,東京都,中央区,銀座６丁目１０番１号ＧＩＮＺＡＳＩＸ８階,,13,102,1040061,,,2025-06-05,合併による解散等,4010701028129,令和７年５月３１日東京都中央区銀座六丁目１０番１号ＧＩＮＺＡＳＩＸ８階株式会社アバック（4010701028129）に合併し解散,2022-05-23,1,,,,,アバックグループ,0
484,3010401039600,登記記録の閉鎖等,0,2025-06-20,2025-05-29,株式会社Ｃｈａｎｎｅｌ　Ｊ,,株式会社,東京都,港区,虎ノ門３丁目７番８号,,13,103,1050001,,,2025-05-29,清算の結了等,,,2015-10-05,1,,,,,チャンネルジェイ,0
488,3010401161445,登記記録の閉鎖等,0,2025-06-20,2025-05-28,Ｄｏｒｎｂｒａｃｈｔ　Ｊａｐａｎ株式会社,,株式会社,東京都,港区,赤坂２丁目２３番１号アークヒルズ・フロントタワーＩｎＣｏｎｔｒｏｌ内,,13,103,1070052,,,2025-05-28,清算の結了等,,,2021-07-12,1,,,,,ドンブラハジャパン,0
535,3013301042087,登記記録の閉鎖等,0,2025-06-20,2025-05-29,株式会社ＥＰＡＲＫテクノロジーズ,,株式会社,東京都,港区,芝浦４丁目１６番２５号,,13,103,1080023,,,2025-05-29,合併による解散等,9013301051140,令和７年５月１日東京都港区芝浦四丁目１６番２５号株式会社アイエフシフト（9013301051140）に合併し解散,2018-04-09,1,,,,,イーパークテクノロジーズ,0
537,3020001027723,登記記録の閉鎖等,0,2025-06-20,2025-06-18,株式会社自在社,,株式会社,神奈川県,横浜市金沢区,能見台東４番１シティタワー横浜サウス１２１０号,,14,108,2360058,,,2025-06-18,清算の結了等,,,2015-10-05,1,,,,,ジザイシャ,0
538,3020001108259,登記記録の閉鎖等,0,2025-06-20,2025-05-29,株式会社ショウ・アップ,,株式会社,東京都,港区,麻布十番１丁目５番２５号,,13,103,1060045,,,2025-05-29,清算の結了等,,,2015-10-05,1,,,,,ショウアップ,0
554,3030002064384,登記記録の閉鎖等,0,2025-06-20,2025-06-13,有限会社南信精鍍工業所,,有限会社,埼玉県,和光市,下新倉５丁目１５番４号,,11,229,3510111,,,2025-06-13,清算の結了等,,,2015-10-05,1,,,,,ナンシンセイトコウギョウショ,0
559,3040003021425,登記記録の閉鎖等,0,2025-06-20,2025-05-29,合同会社リアクセス,,合同会社,東京都,港区,北青山１丁目３－１アールキューブ青山３Ｆ,,13,103,1070061,,,2025-05-29,清算の結了等,,,2022-12-08,1,,,,,リアクセス,0
563,3050002022737,登記記録の閉鎖等,0,2025-06-20,2025-06-16,有限会社ジャパンつくば,,有限会社,茨城県,つくば市,要２９０番地１,,08,220,3002622,,,2025-06-16,清算の結了等,,,2015-10-05,1,,,,,ジャパンツクバ,0
582,3120001144632,登記記録の閉鎖等,0,2025-06-20,2025-06-13,神戸養鰻株式会社,,株式会社,兵庫県,神戸市西区,今寺３３番地の１５,,28,111,6512114,,,2025-06-13,清算の結了等,,,2015-10-05,1,,,,,コウベヨウマン,0
599,3120005000807,登記記録の閉鎖等,0,2025-06-20,2025-06-19,金蓮寺,,その他の設立登記法人,大阪府,大阪市天王寺区,大道１丁目１５番地の３,,27,109,5430052,,,2025-06-19,清算の結了等,,,2015-10-05,1,,,,,コンレンジ,0
603,3120102000494,登記記録の閉鎖等,0,2025-06-20,2025-06-18,有限会社今福荘,00032642,有限会社,大阪府,堺市東区,日置荘西町６丁３番２９号,,27,143,5998114,,,2025-06-18,清算の結了等,,,2015-10-05,1,,,,,イマフクソウ,0
604,3120102002136,登記記録の閉鎖等,0,2025-06-20,2025-06-13,有限会社皐月,,有限会社,大阪府,堺市堺区,中之町西４丁１番２８－２０４号,,27,141,5900957,,,2025-06-13,清算の結了等,,,2015-10-05,1,,,,,サツキ,0
609,3130001024073,登記記録の閉鎖等,0,2025-06-20,2025-06-18,株式会社ソフィア・クレイドル,,株式会社,京都府,京都市上京区,宮垣町９１－１０２,,26,102,6020853,,,2025-06-18,清算の結了等,,,2015-10-05,1,,,,,ソフィアクレイドル,0
644,3200005012711,登記記録の閉鎖等,0,2025-06-20,2025-06-18,一般社団法人全日本プレス技術協会,,その他の設立登記法人,岐阜県,岐阜市,福富迎田１９番地３,,21,201,5012563,,,2025-06-18,清算の結了等,,,2017-08-23,1,,,,,ゼンニホンプレスギジュツキョウカイ,0
652,3260001001893,登記記録の閉鎖等,0,2025-06-20,2025-06-13,株式会社かわかみ企画,,株式会社,岡山県,岡山市北区,下伊福西町２番１８号,,33,101,7000054,,,2025-06-13,清算の結了等,,,2015-10-05,1,,,,,カワカミキカク,0
657,3290001090769,登記記録の閉鎖等,0,2025-06-20,2025-06-05,株式会社隆興,,株式会社,福岡県,春日市,宝町４丁目１２－３シンフォニア宝町Ａ,,40,218,8160807,,,2025-06-05,清算の結了等,,,2020-10-30,1,,,,,リュウコウ,0
666,3290805004172,登記記録の閉鎖等,0,2025-06-20,2025-06-18,医療法人彩恵会,,その他の設立登記法人,福岡県,北九州市八幡西区,鷹の巣１丁目１９番２１号,,40,109,8060047,,,2025-06-18,清算の結了等,,,2015-10-05,1,,,,,サイケイカイ,0
668,3310001015517,登記記録の閉鎖等,0,2025-06-20,2025-06-16,株式会社美山建設,,株式会社,長崎県,長崎市,西海町２５７３番地３３,,42,201,8513101,,,2025-06-16,清算の結了等,,,2018-04-26,1,,,,,ミヤマケンセツ,0
681,3370002003382,登記記録の閉鎖等,0,2025-06-20,2025-06-11,有限会社高忠,00081829,有限会社,宮城県,仙台市太白区,あすと長町３丁目１０番２５号,,04,104,9820007,,,2025-06-11,清算の結了等,,,2015-10-05,1,,,,,タカチュウ,0
717,4010401175725,登記記録の閉鎖等,0,2025-06-20,2025-05-30,ＲＥＤ　ＡＶＥＮＵＥ日本株式会社,,株式会社,東京都,中央区,日本橋浜町２丁目１番１０号ＡＣＮ日本橋浜町ビル６Ｆ,,13,102,1030007,,,2025-05-30,清算の結了等,,,2023-07-20,1,,,,,レッドアベニューニッポン,0
729,4010505002180,登記記録の閉鎖等,0,2025-06-20,2025-06-16,一般社団法人経営者支援ネットワーク,,その他の設立登記法人,東京都,中央区,日本橋兜町１１番７号ビーエム兜町ビル５階,,13,102,1030026,,,2025-06-16,清算の結了等,,,2015-10-05,1,,,,,ケイエイシャシエンネットワーク,0
735,4010701023006,登記記録の閉鎖等,0,2025-06-20,2025-06-12,株式会社スケール,,株式会社,東京都,大田区,中央５丁目６番１９号,,13,111,1430024,,,2025-06-12,清算の結了等,,,2015-10-05,1,,,,,スケール,0
765,4011401005863,登記記録の閉鎖等,0,2025-06-20,2025-06-16,株式会社眞柄建築設計事務所,,株式会社,東京都,板橋区,東山町１３番１３号,,13,119,1740073,,,2025-06-16,清算の結了等,,,2015-10-05,1,,,,,マガラケンチクセッケイジムショ,0
771,4011702004886,登記記録の閉鎖等,0,2025-06-20,2025-06-03,有限会社佐々木カメラ,,有限会社,千葉県,市川市,入船４番２０号２０３室（ライオンズマンション市川行徳）,,12,203,2720134,,,2025-06-03,清算の結了等,,,2015-10-05,1,,,,,ササキカメラ,0
772,4011801032978,登記記録の閉鎖等,0,2025-06-20,2025-06-17,足立電機株式会社,,株式会社,東京都,足立区,東保木間２丁目８番７号,,13,121,1210063,,,2025-06-17,清算の結了等,,,2017-03-03,1,,,,,アダチデンキ,0
778,4011805002498,登記記録の閉鎖等,0,2025-06-20,2025-06-16,一般社団法人長尾,,その他の設立登記法人,東京都,中央区,日本橋人形町３丁目５番２号,,13,102,1030013,,,2025-06-16,清算の結了等,,,2015-10-05,1,,,,,ナガオ,0
800,4020002040030,登記記録の閉鎖等,0,2025-06-20,2025-06-16,有限会社平安精機製作所,,有限会社,神奈川県,横浜市鶴見区,平安町１丁目５１番地の４,,14,101,2300031,,,2025-06-16,清算の結了等,,,2015-10-05,1,,,,,ヘイアンセイキセイサクショ,0
804,4021001074969,登記記録の閉鎖等,0,2025-06-20,2025-06-16,リジェネレイション９株式会社,,株式会社,神奈川県,藤沢市,長後９２４－１３,,14,205,2520801,,,2025-06-16,清算の結了等,,,2022-01-17,1,,,,,リジェネレイションナイン,0
809,4021002060712,登記記録の閉鎖等,0,2025-06-20,2025-06-17,有限会社石塚工務店,,有限会社,神奈川県,中郡二宮町,二宮７４２番地,,14,342,2590123,,,2025-06-17,清算の結了等,,,2015-10-05,1,,,,,イシヅカコウムテン,0
840,4070002021091,登記記録の閉鎖等,0,2025-06-20,2025-06-13,有限会社国定食堂,,有限会社,群馬県,伊勢崎市,上田町２１７番地４２,,10,204,3792225,,,2025-06-13,清算の結了等,,,2015-10-05,1,,,,,クニサダショクドウ,0
851,4120001022837,登記記録の閉鎖等,0,2025-06-20,2025-06-13,オオニシプロフェッショナルビューティサービス株式会社,,株式会社,大阪府,八尾市,久宝園３丁目６３番地,,27,212,5810817,,,2025-06-13,清算の結了等,,,2015-10-05,1,,,,,オオニシプロフェッショナルビューティサービス,0
881,4130002012885,登記記録の閉鎖等,0,2025-06-20,2025-06-17,有限会社メデイカルコンタクトレンズ山科,,有限会社,京都府,京都市山科区,椥ノ辻中在家町１７番地,00047501,26,110,6070000,,,2025-06-17,清算の結了等,,,2015-10-05,1,,,,,メデイカルコンタクトレンズヤマシナ,0
896,4150005007971,登記記録の閉鎖等,0,2025-06-20,2025-06-18,一般社団法人エリシオングループ病院地権者組合,,その他の設立登記法人,奈良県,奈良市,石木町８００番地,,29,201,6310054,,,2025-06-18,清算の結了等,,,2015-10-05,1,,,,,エリシオングループビョウインチケンシャクミアイ,0
899,4160001020291,登記記録の閉鎖等,0,2025-06-20,2025-06-02,株式会社まんまるや,,株式会社,滋賀県,東近江市,五個荘清水鼻町１１４番地１,,25,213,5291445,,,2025-06-02,合併による解散等,3160001016448,令和７年６月１日滋賀県東近江市五個荘清水鼻町１２３番地４株式会社フラットサークル（3160001016448）に合併し解散,2017-06-23,1,,,,,マンマルヤ,0
909,4180001158758,登記記録の閉鎖等,0,2025-06-20,2025-06-16,株式会社ｔｒｕｓｔ　ｙｏｕｒ　ｇｕｔ,,株式会社,愛知県,半田市,住吉町３丁目９６番地の２,,23,205,4750862,,,2025-06-16,清算の結了等,,,2023-11-06,1,,,,,トラストユアガット,0
912,4180003005330,登記記録の閉鎖等,0,2025-06-20,2025-06-12,合資会社長寿園,,合資会社,愛知県,名古屋市中区,橘１丁目２番２号,,23,106,4600016,,,2025-06-12,清算の結了等,,,2015-10-05,1,,,,,チョウジュエン,0
916,4180301002194,登記記録の閉鎖等,0,2025-06-20,2025-06-16,株式会社本多鉄工,,株式会社,愛知県,岡崎市,矢作町字西河原２２番地,,23,202,4440943,,,2025-06-16,清算の結了等,,,2015-10-05,1,,,,,ホンダテッコウ,0
920,4200001003309,登記記録の閉鎖等,0,2025-06-20,2025-06-16,中部サッシセンター株式会社,,株式会社,岐阜県,岐阜市,六条南２丁目１７番２０号,,21,201,5008358,,,2025-06-16,清算の結了等,,,2015-10-05,1,,,,,チュウブサッシセンター,0
966,4410001011439,登記記録の閉鎖等,0,2025-06-20,2025-06-17,株式会社田口工業,,株式会社,秋田県,秋田市,河辺赤平字小曽根４５番地,,05,201,0192623,,,2025-06-17,清算の結了等,,,2017-02-16,1,,,,,タグチコウギョウ,0
983,5010001234112,登記記録の閉鎖等,0,2025-06-20,2025-05-30,株式会社プライム,,株式会社,東京都,中央区,日本橋室町１丁目１１番１２号日本橋水野ビル７階,,13,102,1030022,,,2025-05-30,清算の結了等,,,2023-04-06,1,,,,,プライム,0
1007,5010901016171,登記記録の閉鎖等,0,2025-06-20,2025-06-16,株式会社ヒーロコーポレーション,,株式会社,東京都,世田谷区,梅丘１丁目２２番４号,,13,112,1540022,,,2025-06-16,清算の結了等,,,2015-10-05,1,,,,,ヒーロコーポレーション,0
1009,5010903006468,登記記録の閉鎖等,0,2025-06-20,2025-06-18,合同会社ＳＡ－ＬＩＮＫ,,合同会社,東京都,世田谷区,船橋５丁目２１番１２号,,13,112,1560055,,,2025-06-18,清算の結了等,,,2021-04-16,1,,,,,エスエイリンク,0
1063,5021001052107,登記記録の閉鎖等,0,2025-06-20,2025-06-19,株式会社ティー・ディー・シー,,株式会社,神奈川県,相模原市中央区,千代田１丁目６番８号,,14,152,2520237,,,2025-06-19,清算の結了等,,,2015-10-05,1,,,,,ティーディーシー,0
1067,5021002051669,登記記録の閉鎖等,0,2025-06-20,2025-06-16,県湘開発有限会社,,有限会社,神奈川県,小田原市,南鴨宮３丁目２３番２１号,,14,206,2500875,,,2025-06-16,清算の結了等,,,2015-10-05,1,,,,,,0
1079,5030001150357,登記記録の閉鎖等,0,2025-06-20,2025-06-13,長岡総研株式会社,,株式会社,埼玉県,深谷市,岡１丁目１６番地５,,11,218,3690201,,,2025-06-13,清算の結了等,,,2022-10-07,1,,,,,ナガオカソウケン,0
1083,5030002021920,登記記録の閉鎖等,0,2025-06-20,2025-06-16,有限会社やぶそば,,有限会社,埼玉県,さいたま市岩槻区,本町２丁目１番３１号,,11,110,3390057,,,2025-06-16,清算の結了等,,,2015-10-05,1,,,,,ヤブソバ,0
1084,5030003021795,登記記録の閉鎖等,0,2025-06-20,2025-06-18,ＣＩＲＣＬＥ　ＯＦ　ＬＩＦＥ合同会社,,合同会社,東京都,府中市,住吉町５丁目２１番６８号１階,,13,206,1830034,,,2025-06-18,清算の結了等,,,2023-05-31,1,,,,,サークルオブライフ,0
1092,5040001074101,登記記録の閉鎖等,0,2025-06-20,2025-06-04,佐久間企画株式会社,,株式会社,千葉県,南房総市,和田町仁我浦１５７番地の１,,12,234,2992703,,,2025-06-04,清算の結了等,,,2015-10-05,1,,,,,サクマキカク,0
1094,5040001128518,登記記録の閉鎖等,0,2025-06-20,2025-06-03,株式会社トミオナーサリー,,株式会社,千葉県,千葉市若葉区,高品町２５０番地１,,12,104,2640024,,,2025-06-03,清算の結了等,,,2023-05-24,1,,,,,トミオナーサリー,0
1114,5060001031414,登記記録の閉鎖等,0,2025-06-20,2025-06-16,株式会社ＦｅｌｓｅｎＧａｔｅ,,株式会社,栃木県,小山市,大字粟宮１００６番地２,,09,208,3290201,,,2025-06-16,清算の結了等,,,2019-03-22,1,,,,,フェルゼンゲート,0
1115,5060002020044,登記記録の閉鎖等,0,2025-06-20,2025-06-13,有限会社粂川測量,,有限会社,栃木県,鹿沼市,上石川２３２４番地３７,,09,205,3220015,,,2025-06-13,清算の結了等,,,2015-10-05,1,,,,,クメカワソクリョウ,0
1123,5080005001262,登記記録の閉鎖等,0,2025-06-20,2025-06-11,医療法人社団清峰会,,その他の設立登記法人,静岡県,静岡市葵区,御幸町８番地の１ダイヤ静岡ビル２階,,22,101,4200857,,,2025-06-11,清算の結了等,,,2015-10-05,1,,,,,セイホウカイ,0
1124,5080101021833,登記記録の閉鎖等,0,2025-06-20,2025-06-16,Ｎｉｃｋ　Ｎａｍｅ株式会社,,株式会社,静岡県,沼津市,沢田町１０番５号,,22,203,4100052,,,2025-06-16,清算の結了等,,,2020-06-03,1,,,,,ニックネーム,0
1148,5120005024151,登記記録の閉鎖等,0,2025-06-20,2025-06-17,一般社団法人豊澄,,その他の設立登記法人,大阪府,大阪市西淀川区,歌島２丁目９番１７号,,27,113,5550021,,,2025-06-17,清算の結了等,,,2024-02-14,1,,,,,トヨズミ,0
1151,5120105006818,登記記録の閉鎖等,0,2025-06-20,2025-06-18,医療法人原田整形外科クリニック,,その他の設立登記法人,大阪府,大阪市住之江区,南港中２丁目３番１２－１１４号,,27,125,5590033,,,2025-06-18,清算の結了等,,,2015-10-05,1,,,,,ハラダセイケイゲカクリニック,0
1155,5120903002679,登記記録の閉鎖等,0,2025-06-20,2025-06-11,Ｙａｏｋｉ＆Ｃｏｍｐａｎｙ合同会社,,合同会社,大阪府,茨木市,玉櫛２丁目１２番６号,,27,211,5670895,,,2025-06-11,清算の結了等,,,2018-12-12,1,,,,,ヤオキアンドカンパニー,0
1159,5130002018469,登記記録の閉鎖等,0,2025-06-20,2025-06-16,有限会社五十嵐計量器店,,有限会社,京都府,京都市山科区,小山南溝町２８番地の１１,,26,110,6078111,,,2025-06-16,清算の結了等,,,2015-10-05,1,,,,,イガラシケイリョウキテン,0
1181,5180301002730,登記記録の閉鎖等,0,2025-06-20,2025-06-16,ＩＳＯ株式会社,,株式会社,愛知県,岡崎市,若松町字向山１番地１,,23,202,4440826,,,2025-06-16,清算の結了等,,,2015-10-05,1,,,,,イソ,0
1184,5180301026259,登記記録の閉鎖等,0,2025-06-20,2025-06-13,株式会社ウォーターワークス,,株式会社,愛知県,みよし市,莇生町汁田２０番地２,,23,236,4700206,,,2025-06-13,清算の結了等,,,2015-10-05,1,,,,,ウォーターワークス,0
1190,5190002017077,登記記録の閉鎖等,0,2025-06-20,2025-06-12,有限会社フラット・ビイ,,有限会社,三重県,桑名市,西鍋屋町６５番地,,24,205,5110054,,,2025-06-12,清算の結了等,,,2015-10-05,1,,,,,,0
1204,5260001020330,登記記録の閉鎖等,0,2025-06-20,2025-06-12,山本林産株式会社,,株式会社,岡山県,津山市,堀坂２１１番地,,33,203,7081103,,,2025-06-12,清算の結了等,,,2015-10-05,1,,,,,ヤマモトリンサン,0
1221,5330001004400,登記記録の閉鎖等,0,2025-06-20,2025-06-11,株式会社マルヰ,,株式会社,熊本県,熊本市中央区,新市街３番１８号,,43,101,8600803,,,2025-06-11,清算の結了等,,,2015-10-05,1,,,,,マルイ,0
1245,5430005011572,登記記録の閉鎖等,0,2025-06-20,2025-06-12,特定非営利活動法人北海道インターナショナル協議会,,その他の設立登記法人,北海道,札幌市白石区,本通１６丁目南４番２５号独立行政法人国際協力機構北海道国際センター（札幌）内,,01,104,0030026,,,2025-06-12,清算の結了等,,,2015-10-05,1,,,,,ホッカイドウインターナショナルキョウギカイ,0
1248,5470002013477,登記記録の閉鎖等,0,2025-06-20,2025-06-17,有限会社ビッグフット,,有限会社,香川県,仲多度郡まんのう町,真野４番地第１,,37,406,7660025,,,2025-06-17,清算の結了等,,,2015-10-05,1,,,,,,0
1252,5500001001784,登記記録の閉鎖等,0,2025-06-20,2025-06-16,株式会社三聖地所,,株式会社,愛媛県,松山市,西垣生町１８００番地２,,38,201,7918044,,,2025-06-16,清算の結了等,,,2015-10-05,1,,,,,サンセイジショ,0
1264,6010003010270,登記記録の閉鎖等,0,2025-06-20,2025-06-02,合資会社富士見コーポレーション,,合資会社,東京都,千代田区,富士見２丁目１２番９号,,13,101,1020071,,,2025-06-02,清算の結了等,,,2015-10-05,1,,,,,フジミコーポレーション,0
1292,6010901040617,登記記録の閉鎖等,0,2025-06-20,2025-06-17,株式会社初穂,,株式会社,東京都,世田谷区,玉川１丁目１５番２－２７０５号,,13,112,1580094,,,2025-06-17,清算の結了等,,,2017-08-07,1,,,,,ハツホ,0
1309,6011302015134,登記記録の閉鎖等,0,2025-06-20,2025-06-10,有限会社新星写植,,有限会社,東京都,杉並区,桃井４丁目１５番１３号,,13,115,1670034,,,2025-06-10,清算の結了等,,,2015-10-05,1,,,,,シンセイシャショク,0
1323,6012701016375,登記記録の閉鎖等,0,2025-06-20,2025-06-16,株式会社ハートフィールドＪＰ,,株式会社,東京都,小平市,小川町１丁目８００番地の１３,,13,211,1870032,,,2025-06-16,清算の結了等,,,2021-03-24,1,,,,,ハートフィールドジャパン,0
1325,6012802006366,登記記録の閉鎖等,0,2025-06-20,2025-06-10,有限会社ワイ・エム・シー企画ハウス,,有限会社,東京都,東大和市,中央２丁目８４６番地の５,,13,220,2070015,,,2025-06-10,清算の結了等,,,2015-10-05,1,,,,,ワイエムシーキカクハウス,0
1326,6013201010182,登記記録の閉鎖等,0,2025-06-20,2025-05-28,株式会社パーフェクトサークル,,株式会社,東京都,渋谷区,宇田川町３６番２号,,13,113,1500042,,,2025-05-28,清算の結了等,,,2015-10-05,1,,,,,パーフェクトサークル,0
1327,6013202002848,登記記録の閉鎖等,0,2025-06-20,2025-05-28,有限会社桜井ダイカスト,,有限会社,東京都,目黒区,東が丘２丁目１３番２０号,,13,110,1520021,,,2025-05-28,清算の結了等,,,2015-10-05,1,,,,,サクライダイカスト,0
1329,6013301027275,登記記録の閉鎖等,0,2025-06-20,2025-06-16,きかさこ年金株式会社,,株式会社,神奈川県,横浜市南区,山王町２丁目１９番１号,,14,105,2320013,,,2025-06-16,清算の結了等,,,2015-10-05,1,,,,,キカサコネンキン,0
1338,6020002101755,登記記録の閉鎖等,0,2025-06-20,2025-06-16,三光コーポレーション有限会社,,有限会社,神奈川県,川崎市川崎区,駅前本町１８番地１,,14,131,2100007,,,2025-06-16,清算の結了等,,,2015-10-05,1,,,,,サンコウコーポレーション,0
1341,6021001052329,登記記録の閉鎖等,0,2025-06-20,2025-06-16,株式会社傳,,株式会社,神奈川県,大和市,南林間２丁目１７番１５号,,14,213,2420006,,,2025-06-16,清算の結了等,,,2015-10-05,1,,,,,デン,0
1345,6021002049786,登記記録の閉鎖等,0,2025-06-20,2025-06-16,有限会社ケイズ・コーポレーション,,有限会社,神奈川県,足柄下郡真鶴町,岩４８番地５,,14,383,2590202,,,2025-06-16,清算の結了等,,,2015-10-05,1,,,,,ケイズコーポレーション,0
1366,6050003007742,登記記録の閉鎖等,0,2025-06-20,2025-06-16,合同会社ヒメユリ,,合同会社,茨城県,つくば市,筑穂１丁目１－１３,,08,220,3003257,,,2025-06-16,清算の結了等,,,2023-08-24,1,,,,,ヒメユリ,0
1378,6060003000242,登記記録の閉鎖等,0,2025-06-20,2025-06-13,合資会社池田商店,,合資会社,栃木県,宇都宮市,大谷町５６５番地,,09,201,3210345,,,2025-06-13,清算の結了等,,,2023-08-31,1,,,,,イケダショウテン,0
1387,6080102011923,登記記録の閉鎖等,0,2025-06-20,2025-06-16,有限会社ヤマダ時計店,,有限会社,静岡県,駿東郡長泉町,下土狩１２９８番地,,22,342,4110943,,,2025-06-16,清算の結了等,,,2015-10-05,1,,,,,ヤマダトケイテン,0
1396,6120001256004,登記記録の閉鎖等,0,2025-06-20,2025-06-16,株式会社Ｔプランズ,,株式会社,大阪府,大阪市中央区,北浜３丁目５番１９号淀屋橋ホワイトビル８１４,,27,128,5410041,,,2025-06-16,清算の結了等,,,2023-06-28,1,,,,,ティープランズ,0
1417,6130002034564,登記記録の閉鎖等,0,2025-06-20,2025-06-16,有限会社藤原食品,,有限会社,京都府,舞鶴市,字浜４４５番地,,26,202,6250036,,,2025-06-16,清算の結了等,,,2015-10-05,1,,,,,フジワラショクヒン,0
1427,6180002003936,登記記録の閉鎖等,0,2025-06-20,2025-06-16,有限会社川村聖治建築設計事務所,,有限会社,愛知県,名古屋市千種区,月ケ丘２丁目１番１１号,,23,101,4640043,,,2025-06-16,清算の結了等,,,2015-10-05,1,,,,,カワムラセイジケンチクセッケイジムショ,0
1430,6180301026448,登記記録の閉鎖等,0,2025-06-20,2025-06-17,株式会社近藤鑑定事務所,,株式会社,愛知県,岡崎市,明大寺町字道城ケ入２３番地９,,23,202,4440864,,,2025-06-17,清算の結了等,,,2015-10-05,1,,,,,コンドウカンテイジムショ,0
1435,6200001013603,登記記録の閉鎖等,0,2025-06-20,2025-06-17,株式会社小林組,,株式会社,岐阜県,大垣市,北方町１丁目１６０３番地の１,,21,202,5030019,,,2025-06-17,清算の結了等,,,2015-10-05,1,,,,,,0
1441,6200005011272,登記記録の閉鎖等,0,2025-06-20,2025-06-17,特定非営利活動法人こぎつねくんわーるど,,その他の設立登記法人,岐阜県,恵那市,岩村町富田７２４番地１,,21,210,5097402,,,2025-06-17,清算の結了等,,,2015-10-05,1,,,,,コギツネクンワールド,0
1446,6250001007162,登記記録の閉鎖等,0,2025-06-20,2025-06-18,株式会社タイコー,,株式会社,山口県,下関市,一の宮町５丁目８番１６号,,35,201,7510806,,,2025-06-18,清算の結了等,,,2015-10-05,1,,,,,タイコー,0
1450,6250005008479,登記記録の閉鎖等,0,2025-06-20,2025-06-18,一般社団法人美祢まちづくり研究所,,その他の設立登記法人,山口県,美祢市,大嶺町東分来福台４丁目１７番地８,,35,213,7592212,,,2025-06-18,清算の結了等,,,2019-03-07,1,,,,,ミネマチヅクリケンキュウショ,0
1455,6290001063318,登記記録の閉鎖等,0,2025-06-20,2025-06-05,株式会社インターメディエーション,,株式会社,福岡県,福岡市博多区,博多駅南４丁目４番地１７号第５博多ＩＲビル６０１号,,40,132,8120016,,,2025-06-05,清算の結了等,,,2015-10-05,1,,,,,インターメディエーション,0
1466,6320005009949,登記記録の閉鎖等,0,2025-06-20,2025-06-16,さくら咲税理士法人,,その他の設立登記法人,大分県,大分市,金池南１丁目１３番６号,,44,201,8700839,,,2025-06-16,清算の結了等,,,2021-12-03,1,,,,,サクラサク,0
1488,6370002017628,登記記録の閉鎖等,0,2025-06-20,2025-06-09,有限会社ナンシンリース,,有限会社,宮城県,仙台市宮城野区,高砂１丁目３１番地の１,,04,102,9830014,,,2025-06-09,清算の結了等,,,2015-10-05,1,,,,,,0
1502,6470001016281,登記記録の閉鎖等,0,2025-06-20,2025-06-11,株式会社ウェーブリンクス,,株式会社,香川県,高松市,宮脇町１丁目８番２８号,,37,201,7600005,,,2025-06-11,清算の結了等,,,2017-05-02,1,,,,,ウェーブリンクス,0
1503,6490002012658,登記記録の閉鎖等,0,2025-06-20,2025-06-19,有限会社高知中央クレーン,,有限会社,高知県,南国市,岡豊町滝本４４２番地,,39,204,7830040,,,2025-06-19,清算の結了等,,,2015-10-05,1,,,,,コウチチュウオウクレーン,0
1551,7011001121505,登記記録の閉鎖等,0,2025-06-20,2025-05-27,ファーストトラストマネジメント株式会社,,株式会社,東京都,渋谷区,広尾１丁目１１番５号,,13,113,1500012,,,2025-05-27,清算の結了等,,,2018-04-06,1,,,,,ファーストトラストマネジメント,0
1562,7011101098263,登記記録の閉鎖等,0,2025-06-20,2025-05-29,ＫＺＭ　Ｃｏｍｐａｎｙ株式会社,,株式会社,東京都,港区,南青山３丁目１番３６号青山丸竹ビル６Ｆ,,13,103,1070062,,,2025-05-29,清算の結了等,,,2022-03-25,1,,,,,ケーゼットエムカンパニー,0
1563,7011101099757,登記記録の閉鎖等,0,2025-06-20,2025-06-02,株式会社Ｊａｐａｎ　ｉｎｃｕｂａｔｉｏｎ　Ｇｒｏｕｐ,,株式会社,東京都,新宿区,新宿６丁目２４番２０号,,13,104,1600022,,,2025-06-02,合併による解散等,5010003026383,令和７年６月１日東京都新宿区新宿六丁目２４番２０号株式会社ルモンズエンターテインメント（5010003026383）に合併し解散,2022-08-08,1,,,,,ジャパンインキュベーショングループ,0
1566,7011402007815,登記記録の閉鎖等,0,2025-06-20,2025-06-16,有限会社プラザさいわい,,有限会社,東京都,板橋区,大谷口上町７番２ラ・アトレ中板橋ＩＩ５０３号,00132275,13,119,1730032,,,2025-06-16,清算の結了等,,,2015-10-05,1,,,,,プラザサイワイ,0
1570,7012303001568,登記記録の閉鎖等,0,2025-06-20,2025-06-12,合同会社成人病予防研究会,,合同会社,東京都,町田市,金井ヶ丘２丁目３－２０,,13,209,1950076,,,2025-06-12,清算の結了等,,,2021-07-26,1,,,,,セイジンビョウヨボウケンキュウカイ,0
1580,7013301001213,登記記録の閉鎖等,0,2025-06-20,2025-06-06,今井商事株式会社,,株式会社,東京都,豊島区,南大塚３丁目５２番１０号,,13,116,1700005,,,2025-06-06,合併による解散等,6013301001214,令和７年４月１日東京都豊島区南大塚三丁目５２番１０号今井保全株式会社（6013301001214）に合併し解散,2015-10-05,1,,,,,イマイショウジ,0
1587,7020001155454,登記記録の閉鎖等,0,2025-06-20,2025-06-17,株式会社イチ・プレステージ,,株式会社,神奈川県,横浜市中区,諏訪町１９番地,,14,104,2310863,,,2025-06-17,清算の結了等,,,2024-01-24,1,,,,,イチプレステージ,0
1593,7020005009598,登記記録の閉鎖等,0,2025-06-20,2025-06-06,特定非営利活動法人技術立脚型経営研究会,,その他の設立登記法人,神奈川県,横浜市神奈川区,鶴屋町２丁目２３番５号銀洋第２ビル,,14,102,2210835,,,2025-06-06,清算の結了等,,,2015-10-05,1,,,,,ギジュツリッキャクガタケイエイケンキュウカイ,0
1618,7040001010161,登記記録の閉鎖等,0,2025-06-20,2025-06-03,株式会社秩父興業,,株式会社,千葉県,千葉市緑区,高田町１５８９番地２,,12,105,2660003,,,2025-06-03,清算の結了等,,,2015-10-05,1,,,,,チチブコウギョウ,0
1622,7040002060957,登記記録の閉鎖等,0,2025-06-20,2025-06-03,有限会社ストアー仙石,,有限会社,千葉県,佐倉市,表町３丁目１５番地１,,12,212,2850811,,,2025-06-03,清算の結了等,,,2015-10-05,1,,,,,ストアーセンゴク,0
1625,7040005005793,登記記録の閉鎖等,0,2025-06-20,2025-06-03,医療法人社団しゅうせい会,,その他の設立登記法人,千葉県,松戸市,小金原４丁目２８番地の４,,12,207,2700021,,,2025-06-03,清算の結了等,,,2015-10-05,1,,,,,シュウセイカイ,0
1637,7080101018852,登記記録の閉鎖等,0,2025-06-20,2025-06-16,クリーンライフ株式会社,,株式会社,静岡県,三島市,４６５１番地の３４,,22,206,4110000,,,2025-06-16,清算の結了等,,,2016-01-13,1,,,,,クリーンライフ,0
1639,7090001016708,登記記録の閉鎖等,0,2025-06-20,2025-06-03,オフィスＫ株式会社,,株式会社,千葉県,鎌ケ谷市,丸山１丁目５番３号,,12,224,2730103,,,2025-06-03,清算の結了等,,,2020-11-06,1,,,,,オフィスケイ,0
1641,7090005006738,登記記録の閉鎖等,0,2025-06-20,2025-06-09,御嶽教山崎教会,,その他の設立登記法人,山梨県,北杜市,須玉町大蔵１４６２番地,,19,209,4080113,,,2025-06-09,清算の結了等,,,2015-10-05,1,,,,,ミタケキョウヤマザキキョウカイ,0
1645,7110001037065,登記記録の閉鎖等,0,2025-06-20,2025-06-06,株式会社Ｓｍａｌｌｏｕｔ,,株式会社,新潟県,新潟市中央区,堀之内南１丁目１番２２号坂木ビル１Ｆ,,15,103,9500982,,,2025-06-06,清算の結了等,,,2022-10-27,1,,,,,スモールアウト,0
1662,7120101026784,登記記録の閉鎖等,0,2025-06-20,2025-06-13,株式会社セイジ電工,,株式会社,大阪府,松原市,天美東２丁目１４４番地の７２,,27,217,5800032,,,2025-06-13,清算の結了等,,,2015-10-05,1,,,,,セイジデンコウ,0
1663,7120101029143,登記記録の閉鎖等,0,2025-06-20,2025-06-13,オークレース株式会社,,株式会社,大阪府,大阪狭山市,池尻中３丁目９番５号,,27,231,5890007,,,2025-06-13,清算の結了等,,,2015-10-05,1,,,,,オークレース,0
1664,7120101029639,登記記録の閉鎖等,0,2025-06-20,2025-06-17,株式会社メディスクリプツ,,株式会社,大阪府,堺市北区,百舌鳥本町１丁４４番地６,,27,146,5918036,,,2025-06-17,清算の結了等,,,2015-10-05,1,,,,,メディスクリプツ,0
1672,7120901018378,登記記録の閉鎖等,0,2025-06-20,2025-06-11,株式会社セレスジャパン,,株式会社,大阪府,豊中市,新千里西町１丁目１番１０－１３３６号,,27,203,5600083,,,2025-06-11,清算の結了等,,,2015-10-05,1,,,,,セレスジャパン,0
1696,7180001074795,登記記録の閉鎖等,0,2025-06-20,2025-06-16,株式会社さくらギフト,,株式会社,愛知県,春日井市,東野町１丁目１２番地１４,,23,206,4860817,,,2025-06-16,清算の結了等,,,2015-10-05,1,,,,,サクラギフト,0
1709,7190001000032,登記記録の閉鎖等,0,2025-06-20,2025-06-13,株式会社曙座,00075569,株式会社,三重県,津市,大門３２番３号,,24,201,5140027,,,2025-06-13,清算の結了等,,,2015-10-05,1,,,,,アケボノザ,0
1717,7200002005986,登記記録の閉鎖等,0,2025-06-20,2025-06-13,有限会社ベネフィット,,有限会社,岐阜県,岐阜市,大宝町２丁目１２番地,,21,201,5008851,,,2025-06-13,清算の結了等,,,2015-10-05,1,,,,,ベネフィット,0
1746,7360003002901,登記記録の閉鎖等,0,2025-06-20,2025-06-17,合資会社ハンセン商事,,合資会社,沖縄県,沖縄市,比屋根１丁目９番８号,,47,211,9042173,,,2025-06-17,清算の結了等,,,2015-10-05,1,,,,,ハンセンショウジ,0
1766,7450003000656,登記記録の閉鎖等,0,2025-06-20,2025-06-10,ノースファーム４４合同会社,,合同会社,北海道,名寄市,字智恵文十四線北３１番地,,01,221,0982181,,,2025-06-10,清算の結了等,,,2015-10-05,1,,,,,ノースファームヨンジュウヨン,0
1772,7500002001807,登記記録の閉鎖等,0,2025-06-20,2025-06-16,オグラ型枠有限会社,,有限会社,愛媛県,松山市,津吉町５１１番地１１,,38,201,7911122,,,2025-06-16,清算の結了等,,,2015-10-05,1,,,,,,0
1773,7500002021433,登記記録の閉鎖等,0,2025-06-20,2025-06-16,有限会社エヌ・エヌ・エフ,,有限会社,愛媛県,四国中央市,川之江町番外６８３番地５３,,38,213,7990101,,,2025-06-16,清算の結了等,,,2015-10-05,1,,,,,エヌエヌエフ,0
1777,8010001228136,登記記録の閉鎖等,0,2025-06-20,2025-06-05,株式会社アバックストア,,株式会社,東京都,中央区,銀座６丁目１０番１号ＧＩＮＺＡＳＩＸ８階,,13,102,1040061,,,2025-06-05,合併による解散等,4010701028129,令和７年５月３１日東京都中央区銀座六丁目１０番１号ＧＩＮＺＡＳＩＸ８階株式会社アバック（4010701028129）に合併し解散,2022-07-15,1,,,,,アバックストア,0
1798,8010501040916,登記記録の閉鎖等,0,2025-06-20,2025-06-05,株式会社左右舎,,株式会社,東京都,台東区,浅草１丁目４２番４－３０２号,,13,106,1110032,,,2025-06-05,清算の結了等,,,2017-04-14,1,,,,,サユウシャ,0
1800,8010502007014,登記記録の閉鎖等,0,2025-06-20,2025-06-06,有限会社タカアキ,,有限会社,東京都,台東区,根岸３丁目１番７号,,13,106,1100003,,,2025-06-06,清算の結了等,,,2015-10-05,1,,,,,タカアキ,0
1820,8011301026238,登記記録の閉鎖等,0,2025-06-20,2025-06-04,株式会社トラスト管財,,株式会社,東京都,杉並区,西荻南３丁目１２番１号日伸西荻プラザ６０５号,,13,115,1670053,,,2025-06-04,合併による解散等,3011301020773,令和７年５月３０日東京都杉並区西荻北二丁目２５番１２号株式会社トラスト（3011301020773）に合併し解散,2020-09-16,1,,,,,トラストカンザイ,0
1827,8011601021467,登記記録の閉鎖等,0,2025-06-20,2025-06-13,株式会社ユタカ,,株式会社,東京都,練馬区,中村３丁目１３番１１号,,13,120,1760024,,,2025-06-13,清算の結了等,,,2017-01-19,1,,,,,ユタカ,0
1854,8020005012295,登記記録の閉鎖等,0,2025-06-20,2025-06-17,特定非営利活動法人パソコンよこはま宿,,その他の設立登記法人,神奈川県,横浜市保土ケ谷区,境木本町５０番３０号,,14,106,2400033,,,2025-06-17,清算の結了等,,,2015-10-15,1,,,,,パソコンヨコハマジュク,0
1858,8021002001456,登記記録の閉鎖等,0,2025-06-20,2025-06-16,有限会社絹屋質舖,,有限会社,神奈川県,藤沢市,長後７０２番地,,14,205,2520801,,,2025-06-16,清算の結了等,,,2015-10-05,1,,,,,キヌヤシチホ,0
1889,8060001014746,登記記録の閉鎖等,0,2025-06-20,2025-06-13,株式会社藤本畜産,,株式会社,栃木県,下都賀郡野木町,大字南赤塚８３０番地２,,09,364,3290112,,,2025-06-13,清算の結了等,,,2015-10-05,1,,,,,フジモトチクサン,0
1899,8070002022243,登記記録の閉鎖等,0,2025-06-20,2025-06-12,有限会社快生堂,,有限会社,群馬県,伊勢崎市,下植木町９８０番地６０,,10,204,3720024,,,2025-06-12,清算の結了等,,,2015-10-05,1,,,,,カイセイドウ,0
1901,8080005007265,登記記録の閉鎖等,0,2025-06-20,2025-06-13,一般社団法人ＹＡＩＺＵ　ＦＯＯＴＢＡＬＬ　ＰＲＯＪＥＣＴ２０２０,,その他の設立登記法人,静岡県,焼津市,焼津１丁目１６番２０号,,22,212,4250026,,,2025-06-13,清算の結了等,,,2020-02-28,1,,,,,ヤイズフットボールプロジェクトニーマルニーマル,0
1904,8080403003519,登記記録の閉鎖等,0,2025-06-20,2025-06-19,合同会社ＴＲＵＳＴ,,合同会社,静岡県,浜松市中央区,篠原町１２０２２番地の３,,22,138,4310201,,,2025-06-19,清算の結了等,,,2017-09-07,1,,,,,トラスト,0
1908,8090005002471,登記記録の閉鎖等,0,2025-06-20,2025-06-09,丸山教夏目原支教会,,その他の設立登記法人,山梨県,笛吹市,御坂町夏目原１２９６番地,,19,211,4060804,,,2025-06-09,清算の結了等,,,2015-10-05,1,,,,,マルヤマキョウナツメハラシキョウカイ,0
1911,8100001009015,登記記録の閉鎖等,0,2025-06-20,2025-06-16,株式会社浅間建工,,株式会社,長野県,小諸市,大字耳取５６番地１,,20,208,3840084,,,2025-06-16,合併による解散等,8100001008339,令和７年６月１４日長野県小諸市大字耳取５６番地１株式会社浅間鋼機（8100001008339）に合併し解散,2015-10-05,1,,,,,アサマケンコウ,0
1932,8120002036312,登記記録の閉鎖等,0,2025-06-20,2025-06-12,有限会社商通,,有限会社,大阪府,大阪市中央区,北久宝寺町４丁目３番８号本町アーバンライフ２０９,,27,128,5410057,,,2025-06-12,清算の結了等,,,2015-10-05,1,,,,,ショウツウ,0
1953,8140001099523,登記記録の閉鎖等,0,2025-06-20,2025-06-12,株式会社チアフルエステートリース,,株式会社,兵庫県,明石市,大久保町駅前１丁目１８番地の１９,,28,203,6740058,,,2025-06-12,清算の結了等,,,2015-10-05,1,,,,,チアフルエステートリース,0
1961,8140002064154,登記記録の閉鎖等,0,2025-06-20,2025-06-16,有限会社遊神堂,,有限会社,岐阜県,大垣市,三塚町４０７番地,,21,202,5030808,,,2025-06-16,清算の結了等,,,2015-10-05,1,,,,,ユウシンドウ,0
1964,8160001009307,登記記録の閉鎖等,0,2025-06-20,2025-06-16,株式会社リビング・ワイズ,,株式会社,滋賀県,彦根市,後三条町３２６番地６,,25,202,5220086,,,2025-06-16,清算の結了等,,,2015-10-05,1,,,,,リビングワイズ,0
1971,8180001139705,登記記録の閉鎖等,0,2025-06-20,2025-06-12,株式会社双清,,株式会社,愛知県,名古屋市東区,泉１丁目１４番３号ＨＡＳＥＧＡＷＡビル５階Ｅ号室,,23,102,4610001,,,2025-06-12,清算の結了等,,,2020-01-17,1,,,,,ソウセイ,0
1980,8220001009151,登記記録の閉鎖等,0,2025-06-20,2025-06-18,株式会社サカノ,,株式会社,石川県,白山市,八田中町７６２番地１,,17,210,9240002,,,2025-06-18,清算の結了等,,,2015-10-05,1,,,,,サカノ,0
2008,8310005000782,登記記録の閉鎖等,0,2025-06-20,2025-06-18,一般財団法人長崎市野母崎振興公社,,その他の設立登記法人,長崎県,長崎市,野母町１６６５番地,,42,201,8510505,,,2025-06-18,清算の結了等,,,2015-10-05,1,,,,,ナガサキシノモザキシンコウコウシャ,0
2018,8360003009722,登記記録の閉鎖等,0,2025-06-20,2025-06-11,Ｌａ　ｍｅｒ　ｄｅ　Ｑｕａｔｒｅ　Ｆｒｅ’ｒｅｓ合同会社,,合同会社,沖縄県,那覇市,高良２丁目１１番１－４０２号,,47,201,9010145,,,2025-06-11,清算の結了等,,,2019-09-05,1,,,,,ラマードゥキャトルフレール,0
2033,8450005002369,登記記録の閉鎖等,0,2025-06-20,2025-06-17,全建総連名寄建設労働組合,,その他の設立登記法人,北海道,名寄市,東三条南６丁目１８番地３,,01,221,0960003,,,2025-06-17,清算の結了等,,,2015-10-05,1,,,,,ゼンケンソウレンナヨロケンセツ,0
2050,9010005036617,登記記録の閉鎖等,0,2025-06-20,2025-06-12,一般社団法人ブルーグリーン,,その他の設立登記法人,東京都,千代田区,麹町１丁目４－４、２階,,13,101,1020083,,,2025-06-12,清算の結了等,,,2023-05-11,1,,,,,,0
2061,9010402024117,登記記録の閉鎖等,0,2025-06-20,2025-06-17,ゴールドマン・サックス・ジャパン・ホールディングス有限会社,,有限会社,東京都,港区,虎ノ門２丁目６番１号虎ノ門ヒルズステーションタワー,,13,103,1050001,,,2025-06-17,清算の結了等,,,2015-10-05,1,"GOLDMAN SACHS JAPAN HOLDINGS, LTD.",,,,ゴールドマンサックスジャパンホールディングス,0
2063,9010501022062,登記記録の閉鎖等,0,2025-06-20,2025-05-29,ベストランディング株式会社,,株式会社,東京都,文京区,湯島２丁目１４番４号,,13,105,1130034,,,2025-05-29,清算の結了等,,,2015-10-05,1,,,,,ベストランディング,0
2068,9010902003875,登記記録の閉鎖等,0,2025-06-20,2025-06-18,有限会社カイプロジェクト,,有限会社,東京都,世田谷区,桜丘３丁目３７番３２,,13,112,1560054,,,2025-06-18,清算の結了等,,,2015-10-05,1,,,,,カイプロジェクト,0
2084,9011401019264,登記記録の閉鎖等,0,2025-06-20,2025-06-16,株式会社劇団Ｋｕｍａ,,株式会社,東京都,板橋区,蓮根３丁目１４番２５－３０８号,,13,119,1740046,,,2025-06-16,清算の結了等,,,2016-02-24,1,,,,,ゲキダンクマ,0
2091,9011801007389,登記記録の閉鎖等,0,2025-06-20,2025-06-17,株式会社クリスタル,,株式会社,東京都,足立区,関原３丁目４８番２号,,13,121,1230852,,,2025-06-17,清算の結了等,,,2015-10-05,1,,,,,クリスタル,0
2113,9020002085327,登記記録の閉鎖等,0,2025-06-20,2025-06-16,有限会社結城屋,,有限会社,神奈川県,川崎市中原区,上小田中５丁目１１番２１号,,14,133,2110053,,,2025-06-16,清算の結了等,,,2015-10-05,1,,,,,ユウキヤ,0
2126,9030002038960,登記記録の閉鎖等,0,2025-06-20,2025-06-18,株式会社瀬田花屋,,株式会社,埼玉県,久喜市,菖蒲町菖蒲５２１３番地２,,11,232,3460106,,,2025-06-18,合併による解散等,4070001003272,令和７年５月３１日群馬県前橋市大友町一丁目２番１１号株式会社メモリードグループ（4070001003272）に合併し解散,2015-10-05,1,,,,,セタハナヤ,0
2133,9040001010548,登記記録の閉鎖等,0,2025-06-20,2025-06-03,株式会社ブレインズコーポレーション,,株式会社,千葉県,千葉市中央区,南町１丁目２番８号,,12,101,2600842,,,2025-06-03,清算の結了等,,,2015-10-05,1,,,,,ブレインズコーポレーション,0
2154,9080101019840,登記記録の閉鎖等,0,2025-06-20,2025-06-16,株式会社マイホームしずおか,,株式会社,静岡県,富士市,伝法１６６３番地の５,,22,210,4170061,,,2025-06-16,清算の結了等,,,2017-05-31,1,,,,,マイホームシズオカ,0
2155,9080102008454,登記記録の閉鎖等,0,2025-06-20,2025-06-16,有限会社ツノダ内装,,有限会社,静岡県,伊豆市,土肥１０８４番地の５,,22,222,4103302,,,2025-06-16,清算の結了等,,,2015-10-05,1,,,,,ツノダナイソウ,0
2156,9080402019515,登記記録の閉鎖等,0,2025-06-20,2025-06-17,有限会社あーす・まうす,,有限会社,静岡県,磐田市,見付１２１９番地の９,,22,211,4380086,,,2025-06-17,清算の結了等,,,2015-10-05,1,,,,,アースマウス,0
2169,9120001220048,登記記録の閉鎖等,0,2025-06-20,2025-06-09,ｍｕｋａｄｏ株式会社,,株式会社,大阪府,大阪市淀川区,西中島２丁目１２番８号,,27,123,5320011,,,2025-06-09,清算の結了等,,,2019-04-03,1,,,,,ムカド,0
2183,9120101026502,登記記録の閉鎖等,0,2025-06-20,2025-06-13,株式会社オリエンタルバルブ製作所,,株式会社,大阪府,大阪狭山市,西山台２丁目１２番１号,,27,231,5890022,,,2025-06-13,清算の結了等,,,2015-10-05,1,,,,,オリエンタルバルブセイサクショ,0
2187,9120102006123,登記記録の閉鎖等,0,2025-06-20,2025-06-16,有限会社ひかり化成,,有限会社,大阪府,堺市中区,深阪２丁３番６０号,,27,142,5998253,,,2025-06-16,清算の結了等,,,2015-10-05,1,,,,,ヒカリカセイ,0
2196,9122002009718,登記記録の閉鎖等,0,2025-06-20,2025-06-12,株式会社大阪システム発送,,株式会社,大阪府,東大阪市,西石切町６丁目５番３９号,,27,227,5798013,,,2025-06-12,清算の結了等,,,2015-10-05,1,,,,,オオサカシステムハッソウ,0
2205,9140002065060,登記記録の閉鎖等,0,2025-06-20,2025-06-13,株式会社コヲセヰ,,株式会社,大阪府,大阪市中央区,東心斎橋１丁目１番１２号,,27,128,5420083,,,2025-06-13,清算の結了等,,,2015-10-05,1,,,,,コオセイ,0
2207,9180001109293,登記記録の閉鎖等,0,2025-06-20,2025-06-12,大政工業株式会社,,株式会社,愛知県,瀬戸市,田中町４０番地の１１,,23,204,4890961,,,2025-06-12,清算の結了等,,,2015-10-05,1,,,,,タイセイコウギョウ,0
2227,9240002046174,登記記録の閉鎖等,0,2025-06-20,2025-06-13,有限会社赤木石油店,,有限会社,広島県,神石郡神石高原町,下豊松７７７番地の２,,34,545,7201704,,,2025-06-13,清算の結了等,,,2015-10-05,1,,,,,アカギセキユテン,0
2230,9250005002025,登記記録の閉鎖等,0,2025-06-20,2025-06-17,協同組合宇部表具内装センター,,その他の設立登記法人,山口県,宇部市,大字善和字大日２０３番地１２４,,35,202,7590134,,,2025-06-17,清算の結了等,,,2015-10-05,1,,,,,ウベヒョウグナイソウセンター,0
2234,9260002002596,登記記録の閉鎖等,0,2025-06-20,2025-06-10,有限会社割烹ままかり,,有限会社,岡山県,岡山市北区,表町３丁目９番２号,,33,101,7000822,,,2025-06-10,清算の結了等,,,2015-10-05,1,,,,,カッポウママカリ,0
2245,9310005002092,登記記録の閉鎖等,0,2025-06-20,2025-06-17,医療法人中嶋整形外科,,その他の設立登記法人,長崎県,長崎市,油屋町４番１６号,,42,201,8500832,,,2025-06-17,清算の結了等,,,2015-10-05,1,,,,,ナカシマセイケイゲカ,0
2249,9330002008306,登記記録の閉鎖等,0,2025-06-20,2025-06-11,有限会社八兵衛,,有限会社,熊本県,熊本市中央区,米屋町３丁目３５番地,,43,101,8600029,,,2025-06-11,清算の結了等,,,2015-10-05,1,,,,,ハチベエ,0
2259,9370301002641,登記記録の閉鎖等,0,2025-06-20,2025-06-11,株式会社エヌ・アンド・エスケイ,,株式会社,宮城県,仙台市青葉区,錦ケ丘５丁目６番地の２,,04,101,9893123,,,2025-06-11,清算の結了等,,,2015-10-05,1,,,,,エヌアンドエスケイ,0
2280,9430005001933,登記記録の閉鎖等,0,2025-06-20,2025-06-11,医療法人社団西尾皮膚科医院,,その他の設立登記法人,北海道,札幌市白石区,南郷通１丁目北１番地１,,01,104,0030023,,,2025-06-11,清算の結了等,,,2015-10-05,1,,,,,ニシオヒフカイイン,0
