sequenceNumber,corporateNumber,process,correct,updateDate,changeDate,name,nameImageId,kind,prefectureName,cityName,streetNumber,addressImageId,prefectureCode,cityCode,postCode,addressOutside,addressOutsideImageId,closeDate,closeCause,successorCorporateNumber,changeCause,assignmentDate,latest,enName,enPrefectureName,enCityName,enAddressOutside,furigana,hihyoji
5,1010001247191,新規,0,2024-08-08,2024-08-08,株式会社Ｒｅ．ｍｕｓｅ　ｂｅａｕｔｅ,,株式会社,東京都,中央区,銀座３丁目２番１１号,,13,102,1040061,,,,,,,2024-08-08,1,,,,,レミューズボーテ,0
6,1010001247209,新規,0,2024-08-08,2024-08-08,株式会社セブン＆アイ・エナジーマネジメント,,株式会社,東京都,千代田区,二番町８番地８,,13,101,1020084,,,,,,,2024-08-08,1,,,,,セブンアンドアイエナジーマネジメント,0
8,1010003044455,新規,0,2024-08-08,2024-08-08,合同会社ＡＭＣ,,合同会社,東京都,千代田区,一番町１５－１一番町ファーストビル４階,,13,101,1020082,,,,,,,2024-08-08,1,,,,,エイエムシイ,0
9,1010003044488,新規,0,2024-08-08,2024-08-08,合同会社タナボタン,,合同会社,東京都,中央区,銀座４丁目１４番３号銀座斉藤ビル２階,,13,102,1040061,,,,,,,2024-08-08,1,,,,,タナボタン,0
12,1010401184299,新規,0,2024-08-08,2024-08-08,株式会社日成ディスカバリー,,株式会社,東京都,港区,港南３丁目５番１６号,,13,103,1080075,,,,,,,2024-08-08,1,,,,,ニッセイディスカバリー,0
13,1010401184308,新規,0,2024-08-08,2024-08-08,ミズカイ株式会社,,株式会社,東京都,港区,浜松町２丁目２番１５号浜松町ダイヤビル２Ｆ,,13,103,1050013,,,,,,,2024-08-08,1,,,,,ミズカイ,0
14,1010401184316,新規,0,2024-08-08,2024-08-08,株式会社イーコン・ジェノミクス,,株式会社,東京都,港区,元赤坂１丁目２番７号赤坂Ｋタワー,,13,103,1070051,,,,,,,2024-08-08,1,,,,,イーコンジェノミクス,0
15,1010401184324,新規,0,2024-08-08,2024-08-08,ＭＣＰ３０株式会社,,株式会社,東京都,港区,元赤坂１丁目１番８号株式会社赤坂国際会計内,,13,103,1070051,,,,,,,2024-08-08,1,,,,,エムシーピースリーゼロ,0
16,1010401184349,新規,0,2024-08-08,2024-08-08,ＡＤＸ株式会社,,株式会社,東京都,港区,虎ノ門４丁目３番１号城山トラストタワー３３階,,13,103,1050001,,,,,,,2024-08-08,1,,,,,エイディーエックス,0
18,1010403033215,新規,0,2024-08-08,2024-08-08,合同会社ＭｉｎｄＭｉｃ,,合同会社,東京都,港区,南青山３丁目１番３６号青山丸竹ビル６Ｆ,,13,103,1070062,,,,,,,2024-08-08,1,,,,,マインドマイク,0
19,1010405023461,新規,0,2024-08-08,2024-08-08,一般社団法人健和会,,その他の設立登記法人,東京都,港区,南青山２丁目２２番１４－１３０１号,,13,103,1070062,,,,,,,2024-08-08,1,,,,,ケンワカイ,0
21,1010501052728,新規,0,2024-08-08,2024-08-08,Ｆｌｅｘ　Ｉｎｆｏ株式会社,,株式会社,東京都,台東区,東上野３丁目１８－１,,13,106,1100015,,,,,,,2024-08-08,1,,,,,フレックスインフォー,0
29,1010801035309,新規,0,2024-08-08,2024-08-08,株式会社エース,,株式会社,東京都,大田区,西六郷１丁目２４番１２－３０２号,,13,111,1440056,,,,,,,2024-08-08,1,,,,,エース,0
30,1010801035317,新規,0,2024-08-08,2024-08-08,株式会社ＡＩ‐ＢＯＯＳＴ,,株式会社,東京都,大田区,北馬込２丁目４０番２－２０４号,,13,111,1430021,,,,,,,2024-08-08,1,,,,,エーアイブースト,0
42,1011001163750,新規,0,2024-08-08,2024-08-08,株式会社Ｖｉｓｉｏｎ　Ｐｌｕｓ,,株式会社,東京都,渋谷区,恵比寿西２丁目８番４号ＥＸ恵比寿西ビル５階,,13,113,1500021,,,,,,,2024-08-08,1,,,,,ビジョンプラス,0
47,1011103014769,新規,0,2024-08-08,2024-08-08,合同会社絵空,,合同会社,東京都,新宿区,西新宿３丁目３番１３号西新宿水間ビル２Ｆ,,13,104,1600023,,,,,,,2024-08-08,1,,,,,エソラ,0
50,1011301029908,新規,0,2024-08-08,2024-08-08,いづもブルー株式会社,,株式会社,東京都,杉並区,荻窪５丁目３０番６号福村産業荻窪ビル３２１号室,,13,115,1670051,,,,,,,2024-08-08,1,,,,,イヅモブルー,0
58,1011801044662,新規,0,2024-08-08,2024-08-08,株式会社ＩＫＦ,,株式会社,東京都,足立区,梅田８丁目１４番２－１２０９号,,13,121,1230851,,,,,,,2024-08-08,1,,,,,アイケーエフ,0
72,1020001158454,新規,0,2024-08-08,2024-08-08,株式会社ｐｉＣＨ,,株式会社,神奈川県,川崎市中原区,上小田中１丁目３３番５－２０５号,,14,133,2110053,,,,,,,2024-08-08,1,,,,,ピッチ,0
73,1020001158487,新規,0,2024-08-08,2024-08-08,株式会社キーモカ,,株式会社,神奈川県,川崎市麻生区,王禅寺東６丁目１０番２５号,,14,137,2150018,,,,,,,2024-08-08,1,,,,,キーモカ,0
95,1030003024892,新規,0,2024-08-08,2024-08-08,合同会社ファースト,,合同会社,埼玉県,所沢市,星の宮２丁目５－６,,11,208,3591127,,,,,,,2024-08-08,1,,,,,ファースト,0
96,1030003024901,新規,0,2024-08-08,2024-08-08,合同会社ＣＯＲＥ　ＣＯＮＮＥＣＴ,,合同会社,埼玉県,朝霞市,泉水３丁目１３番６－Ａ－２０４号,,11,227,3510024,,,,,,,2024-08-08,1,,,,,コアコネクト,0
101,1040001134866,新規,0,2024-08-08,2024-08-08,アール・ロシェ株式会社,,株式会社,千葉県,柏市,今谷上町２１番地４,,12,217,2770074,,,,,,,2024-08-08,1,,,,,アールロシェ,0
104,1040003025568,新規,0,2024-08-08,2024-08-08,合同会社Ｈａｐｐｙ　Ｔｒａｎｓｐｏｒｔ,,合同会社,千葉県,鎌ケ谷市,道野辺中央３丁目５番２０号,,12,224,2730113,,,,,,,2024-08-08,1,,,,,ハッピートランスポート,0
108,1050001055203,新規,0,2024-08-08,2024-08-08,株式会社ＭＡホールディングス,,株式会社,茨城県,取手市,紫水２丁目１５番地２,,08,217,3001508,,,,,,,2024-08-08,1,,,,,エムエーホールディングス,0
110,1050003008596,新規,0,2024-08-08,2024-08-08,合同会社金剛興業,,合同会社,茨城県,水戸市,東前１丁目５８番地の８,,08,201,3111136,,,,,,,2024-08-08,1,,,,,コンゴウコウギョウ,0
114,1070003005534,新規,0,2024-08-08,2024-08-08,合同会社和楽,,合同会社,群馬県,吾妻郡東吾妻町,大字三島４３９９,,10,429,3770813,,,,,,,2024-08-08,1,,,,,,0
117,1080001026432,新規,0,2024-08-08,2024-08-08,丸仲アセットホールディングス株式会社,,株式会社,静岡県,静岡市駿河区,丸子新田１７５番地の１,,22,102,4210111,,,,,,,2024-08-08,1,,,,,マルナカアセットホールディングス,0
119,1080401027369,新規,0,2024-08-08,2024-08-08,リンクレイ株式会社,,株式会社,静岡県,浜松市中央区,豊町８３９,,22,138,4313101,,,,,,,2024-08-08,1,,,,,リンクレイ,0
124,1100001037724,新規,0,2024-08-08,2024-08-08,Ｂｌｏｓｓｏｍ　ｍｅ株式会社,,株式会社,長野県,松本市,南松本１丁目２番２７号,,20,202,3900832,,,,,,,2024-08-08,1,,,,,ブロッサムミー,0
127,1100003007709,新規,0,2024-08-08,2024-08-08,合同会社ハッピーキヨ,,合同会社,長野県,小県郡青木村,大字村松１７２１番地２,,20,349,3861602,,,,,,,2024-08-08,1,,,,,ハッピーキヨ,0
143,1120001267542,新規,0,2024-08-08,2024-08-08,株式会社ＦＲＥＤＭＡＮ,,株式会社,大阪府,大阪市西区,立売堀１丁目６－１３天祥ビル３１５,,27,106,5500012,,,,,,,2024-08-08,1,,,,,フレッドマン,0
147,1120901049552,新規,0,2024-08-08,2024-08-08,友邦国際株式会社,,株式会社,大阪府,高槻市,高槻町１１番７号エクセレント中央,,27,207,5690803,,,,,,,2024-08-08,1,,,,,ユウホウコクサイ,0
148,1120901049593,新規,0,2024-08-08,2024-08-08,株式会社央,,株式会社,大阪府,茨木市,大同町２番１号ランドマークＩＩＩ１Ｆ,00135873,27,211,5670844,,,,,,,2024-08-08,1,,,,,ナカバ,0
150,1130001077651,新規,0,2024-08-08,2024-08-08,株式会社唯有,,株式会社,京都府,京都市東山区,祇園町南側５３２－２０１,,26,105,6050074,,,,,,,2024-08-08,1,,,,,ユウ,0
151,1130001077668,新規,0,2024-08-08,2024-08-08,株式会社アマロジック,,株式会社,京都府,京都市上京区,中長者町通新町西入仲之町２８８－４,,26,102,6028072,,,,,,,2024-08-08,1,,,,,アマロジック,0
152,1130003009768,新規,0,2024-08-08,2024-08-08,合同会社ニーク,,合同会社,京都府,京都市中京区,釜座通二条下る上松屋町７０２番地３,,26,104,6040035,,,,,,,2024-08-08,1,,,,,ニーク,0
153,1130005017158,新規,0,2024-08-08,2024-08-08,一般社団法人地域こども未来創造協会,,その他の設立登記法人,京都府,長岡京市,井ノ内下印田８－１,,26,209,6170813,,,,,,,2024-08-08,1,,,,,チイキコドモミライソウゾウキョウカイ,0
164,1140003020947,新規,0,2024-08-08,2024-08-08,Ｔｒｙ．Ｆｉｎｄ合同会社,,合同会社,兵庫県,神戸市中央区,新港町１４－１－１０１Ａ,,28,110,6500041,,,,,,,2024-08-08,1,,,,,トライアンドファインド,0
169,1170005007097,新規,0,2024-08-08,2024-08-08,医療法人久和会,,その他の設立登記法人,和歌山県,橋本市,東家４丁目１８番１３号,,30,203,6480072,,,,,,,2024-08-08,1,,,,,キュウワカイ,0
179,1180001162630,新規,0,2024-08-08,2024-08-08,株式会社ＧＲ　ＢＡＳＥ,,株式会社,愛知県,名古屋市守山区,幸心２丁目６４９番地の５,,23,113,4630079,,,,,,,2024-08-08,1,,,,,ジーアールベース,0
180,1180001162639,新規,0,2024-08-08,2024-08-08,ＳＨＩＲＯ株式会社,,株式会社,愛知県,春日井市,高山町１丁目２番地２２,,23,206,4860912,,,,,,,2024-08-08,1,,,,,シロー,0
181,1180001162671,新規,0,2024-08-08,2024-08-08,フロアテックマネジメント株式会社,,株式会社,愛知県,名古屋市守山区,幸心３丁目１１２０番地,,23,113,4630079,,,,,,,2024-08-08,1,,,,,フロアテックマネジメント,0
182,1180001162721,新規,0,2024-08-08,2024-08-08,株式会社Ｐｅｎｔａｓ・ＫＯＵ,,株式会社,愛知県,名古屋市緑区,鳴海町字京田１６３番地,,23,114,4580801,,,,,,,2024-08-08,1,,,,,ペンタスコウ,0
183,1180001162762,新規,0,2024-08-08,2024-08-08,株式会社あいちＦＧマーケティング,,株式会社,愛知県,名古屋市中区,栄３丁目１４番１２号,,23,106,4600008,,,,,,,2024-08-08,1,,,,,アイチエフジーマーケティング,0
184,1180001162770,新規,0,2024-08-08,2024-08-08,株式会社ＫＯＪＡ,,株式会社,愛知県,名古屋市港区,小割通１丁目６番地,,23,111,4550077,,,,,,,2024-08-08,1,,,,,コジャ,0
185,1180001162795,新規,0,2024-08-08,2024-08-08,株式会社ピッカール,,株式会社,愛知県,名古屋市中村区,名駅１丁目１番１号ＪＰタワー名古屋２１階,,23,105,4500002,,,,,,,2024-08-08,1,,,,,ピッカール,0
188,1180003027170,新規,0,2024-08-08,2024-08-08,サン図面工房合同会社,,合同会社,愛知県,名古屋市中村区,名駅４丁目２４番５号第２森ビル４０１,,23,105,4500002,,,,,,,2024-08-08,1,,,,,サンズメンコウボウ,0
189,1180003027179,新規,0,2024-08-08,2024-08-08,合同会社ニチエツ,,合同会社,愛知県,瀬戸市,共栄通５丁目７８番地,,23,204,4890809,,,,,,,2024-08-08,1,,,,,ニチエツ,0
190,1180003027195,新規,0,2024-08-08,2024-08-08,合同会社トライ,,合同会社,愛知県,名古屋市東区,泉１丁目２０番２８号プライムアーバン泉７０５号,,23,102,4610001,,,,,,,2024-08-08,1,,,,,トライ,0
191,1180003027204,新規,0,2024-08-08,2024-08-08,合同会社匠商店,,合同会社,愛知県,名古屋市昭和区,小坂町２丁目６番地の１（シティハイムオークハイツ１０２号）,,23,107,4660021,,,,,,,2024-08-08,1,,,,,タクミショウテン,0
192,1180005020727,新規,0,2024-08-08,2024-08-08,行政書士法人ＭＯＲＥ,,その他の設立登記法人,愛知県,小牧市,曙町３１番地３・１Ｆ,00135888,23,219,4850047,,,,,,,2024-08-08,1,,,,,モア,0
210,1220005008874,新規,0,2024-08-08,2024-08-08,一般社団法人日本伝統大麻奉納会,,その他の設立登記法人,石川県,鹿島郡中能登町,二宮子部１２番地１,,17,407,9291811,,,,,,,2024-08-08,1,,,,,ニホンデントウタイマホウノウカイ,0
222,1280001009227,新規,0,2024-08-08,2024-08-08,株式会社ＮＦＥＳ　Ｔｅｃｈｎｏｌｏｇｉｅｓ,,株式会社,島根県,松江市,朝日町４８４－１９島根銀行本店ビル１１Ｆ,,32,201,6900003,,,,,,,2024-08-08,1,,,,,エヌフェステクノロジーズ,0
223,1280005007623,新規,0,2024-08-08,2024-08-08,ＮＰＯ法人アズイット出雲,,その他の設立登記法人,島根県,出雲市,松寄下町１１３８番地２,,32,203,6930052,,,,,,,2024-08-08,1,,,,,アズイットイズモ,0
229,1310001019156,新規,0,2024-08-08,2024-08-08,株式会社ＡＩＭＥ,,株式会社,長崎県,佐世保市,広田３丁目７番１６号グリーンヒル今里Ａ棟１０１号,,42,202,8593223,,,,,,,2024-08-08,1,,,,,エイム,0
236,1350001019136,新規,0,2024-08-08,2024-08-08,株式会社ＬＩＣＯ,,株式会社,宮崎県,北諸県郡三股町,大字宮村２７８８番地８,,45,341,8891912,,,,,,,2024-08-08,1,,,,,リコ,0
238,1360001034043,新規,0,2024-08-08,2024-08-08,株式会社ノア,,株式会社,沖縄県,沖縄市,上地４丁目８番８号,,47,211,9040031,,,,,,,2024-08-08,1,,,,,ノア,0
240,1370005010824,新規,0,2024-08-08,2024-08-08,一般社団法人ＬＩＮＫ,,その他の設立登記法人,宮城県,登米市,迫町佐沼字大網３９０‐１５アルテラスおおあみＢ４,,04,212,9870511,,,,,,,2024-08-08,1,,,,,リンク,0
260,1490003001920,新規,0,2024-08-08,2024-08-08,合同会社ＯＲＩＧＥＮ,,合同会社,高知県,香美市,香北町太郎丸３６８番地１,,39,212,7814214,,,,,,,2024-08-08,1,,,,,オリヘン,0
269,2010001247216,新規,0,2024-08-08,2024-08-08,株式会社Ｔｉａｒａ　Ｔｏｋｙｏ,,株式会社,東京都,文京区,湯島３丁目２９番５号梅香殿１Ａ,,13,105,1130034,,,,,,,2024-08-08,1,,,,,ティアラトウキョウ,0
270,2010001247232,新規,0,2024-08-08,2024-08-08,株式会社Ｓｉｎｃ,,株式会社,東京都,中央区,日本橋茅場町２丁目１２番１０号,,13,102,1030025,,,,,,,2024-08-08,1,,,,,シンク,0
271,2010001247273,新規,0,2024-08-08,2024-08-08,シンシア株式会社,,株式会社,東京都,千代田区,神田和泉町１番地６－１６ヤマトビル４０５,,13,101,1010024,,,,,,,2024-08-08,1,,,,,シンシア,0
272,2010001247298,新規,0,2024-08-08,2024-08-08,ワールドワン株式会社,,株式会社,東京都,千代田区,神田多町２丁目１番地神田東山ビル７Ｆ,,13,101,1010046,,,,,,,2024-08-08,1,,,,,ワールドワン,0
273,2010001247364,新規,0,2024-08-08,2024-08-08,ｉｍｅｃ　Ｊａｐａｎ株式会社,,株式会社,東京都,千代田区,丸の内２丁目３番２号郵船ビルディング１階,,13,101,1000005,,,,,,,2024-08-08,1,,,,,アイメックジャパン,0
274,2010003044512,新規,0,2024-08-08,2024-08-08,南青山ｖｉａ合同会社,,合同会社,東京都,千代田区,麹町１丁目７番地相互半蔵門ビルディング３階ＧＩキャピタル・マネジメント株式会社内,,13,101,1020083,,,,,,,2024-08-08,1,,,,,ミナミアオヤマヴィア,0
279,2010401184307,新規,0,2024-08-08,2024-08-08,株式会社ＳＰＲＩＮＧ,,株式会社,東京都,港区,白金３丁目８番７号Ｒ７８番館白金高輪３０１,,13,103,1080072,,,,,,,2024-08-08,1,,,,,スプリング,0
280,2010401184323,新規,0,2024-08-08,2024-08-08,ＭＣＰ２９株式会社,,株式会社,東京都,港区,元赤坂１丁目１番８号株式会社赤坂国際会計内,,13,103,1070051,,,,,,,2024-08-08,1,,,,,エムシーピーツーナイン,0
282,2010403033180,新規,0,2024-08-08,2024-08-08,ＳＰＯＲＴＳ　Ｖａｎｔａｇｅ合同会社,,合同会社,東京都,港区,三田４丁目１７番２５号,,13,103,1080073,,,,,,,2024-08-08,1,,,,,スポーツバンテージ,0
284,2010501052710,新規,0,2024-08-08,2024-08-08,アイデアラボ株式会社,,株式会社,東京都,台東区,上野６丁目７番１６号川久保ビル４０５号室,,13,106,1100005,,,,,,,2024-08-08,1,,,,,アイデアラボ,0
288,2010901055726,新規,0,2024-08-08,2024-08-08,株式会社ｔａｇａｍｉＲ＆Ｉ,,株式会社,東京都,世田谷区,深沢２丁目１番３－１６０５号,,13,112,1580081,,,,,,,2024-08-08,1,,,,,タガミアールアンドアイ,0
290,2010903009275,新規,0,2024-08-08,2024-08-08,合同会社プレフェイス,,合同会社,東京都,世田谷区,若林２丁目７番１０号,,13,112,1540023,,,,,,,2024-08-08,1,,,,,プレフェイス,0
293,2011001163898,新規,0,2024-08-08,2024-08-08,株式会社ＳＩＪＩＭＩ,,株式会社,東京都,目黒区,碑文谷３丁目２番７号,,13,110,1520003,,,,,,,2024-08-08,1,,,,,シジミ,0
294,2011001163907,新規,0,2024-08-08,2024-08-08,株式会社ＷｉｎＣ,,株式会社,東京都,渋谷区,道玄坂１丁目１２番１号渋谷マークシティウエスト２０階,,13,113,1500043,,,,,,,2024-08-08,1,,,,,ウィンク,0
295,2011001163915,新規,0,2024-08-08,2024-08-08,株式会社ＰＥＲＶＥＲＺＥ,,株式会社,東京都,渋谷区,恵比寿２丁目３６番１３号,,13,113,1500013,,,,,,,2024-08-08,1,,,,,パーバーズ,0
299,2011003019719,新規,0,2024-08-08,2024-08-08,Ｆａｂｆａｎ合同会社,,合同会社,東京都,渋谷区,道玄坂１丁目１０番８号渋谷道玄坂東急ビル２Ｆ－Ｃ,,13,113,1500043,,,,,,,2024-08-08,1,,,,,ファブファン,0
305,2011103014792,新規,0,2024-08-08,2024-08-08,合同会社ＣＩＥＲ,,合同会社,東京都,新宿区,中落合２丁目２６－２５－１０１,,13,104,1610032,,,,,,,2024-08-08,1,,,,,シエル,0
308,2011401026317,新規,0,2024-08-08,2024-08-08,株式会社Ｌｅｖｋａ,,株式会社,東京都,板橋区,板橋４丁目４０番１１号,,13,119,1730004,,,,,,,2024-08-08,1,,,,,レフカ,0
310,2011403004469,新規,0,2024-08-08,2024-08-08,合同会社ワイエス,,合同会社,東京都,板橋区,中台１丁目５０番４号ボヌール１０２,,13,119,1740064,,,,,,,2024-08-08,1,,,,,ワイエス,0
314,2011501031002,新規,0,2024-08-08,2024-08-08,株式会社アサヒピュアケミ,,株式会社,東京都,北区,西が丘１丁目２１番１号,,13,117,1150056,,,,,,,2024-08-08,1,,,,,アサヒピュアケミ,0
318,2011601027949,新規,0,2024-08-08,2024-08-08,株式会社アドバンス,,株式会社,東京都,練馬区,高松５丁目１９番１７号,,13,120,1790075,,,,,,,2024-08-08,1,,,,,アドバンス,0
319,2011803006387,新規,0,2024-08-08,2024-08-08,ＳＨＵＢＨＡＭ合同会社,,合同会社,東京都,葛飾区,東立石４丁目１番１－１０８号,,13,122,1240013,,,,,,,2024-08-08,1,,,,,スバン,0
329,2020001158387,新規,0,2024-08-08,2024-08-08,ジェネラルランド株式会社,,株式会社,神奈川県,川崎市川崎区,池上新町２丁目５番１１号,,14,131,2100832,,,,,,,2024-08-08,1,,,,,ジェネラルランド,0
330,2020001158395,新規,0,2024-08-08,2024-08-08,医食同源株式会社,,株式会社,神奈川県,川崎市川崎区,砂子１丁目１０番地２ソシオ砂子ビル,,14,131,2100006,,,,,,,2024-08-08,1,,,,,イショクドウゲン,0
331,2020001158429,新規,0,2024-08-08,2024-08-08,株式会社ケンブリッジ,,株式会社,神奈川県,横浜市都筑区,東方町１０４３番地５,,14,118,2240045,,,,,,,2024-08-08,1,,,,,ケンブリッジ,0
332,2020001158437,新規,0,2024-08-08,2024-08-08,ＮＡ　Ｆａｍｉｌｙ　Ｏｆｆｉｃｅ株式会社,,株式会社,神奈川県,横浜市磯子区,杉田４丁目７－６日神パレス杉田Ｂ棟３０７号室,,14,107,2350033,,,,,,,2024-08-08,1,,,,,エヌエーファミリーオフィス,0
333,2020001158461,新規,0,2024-08-08,2024-08-08,株式会社ＦＪＡＭ,,株式会社,神奈川県,横浜市港南区,芹が谷４丁目２６番３７号,,14,111,2330006,,,,,,,2024-08-08,1,,,,,エフジェイエーエム,0
336,2020003026591,新規,0,2024-08-08,2024-08-08,合同会社ＴＥＥ,,合同会社,神奈川県,川崎市川崎区,大師河原１丁目１番１０－４１２号,,14,131,2100811,,,,,,,2024-08-08,1,,,,,ティー,0
337,2020003026600,新規,0,2024-08-08,2024-08-08,合同会社Ｐ．Ｓ．Ｒ商事,,合同会社,神奈川県,横浜市神奈川区,松見町３丁目５６１番１号棟,,14,102,2210005,,,,,,,2024-08-08,1,,,,,ピーエスアールショウジ,0
341,2021001082908,新規,0,2024-08-08,2024-08-08,株式会社八丁設備,,株式会社,神奈川県,茅ヶ崎市,萩園２３３７番地１５,,14,207,2530071,,,,,,,2024-08-08,1,,,,,ハッチョウセツビ,0
344,2021003014867,新規,0,2024-08-08,2024-08-08,合同会社ＨＹＰＥＲ　ＰＬＵＳ,,合同会社,神奈川県,大和市,上草柳８丁目７番１０－３号,,14,213,2420029,,,,,,,2024-08-08,1,,,,,ハイパープラス,0
350,2030001161745,新規,0,2024-08-08,2024-08-08,株式会社スマート設計,,株式会社,埼玉県,さいたま市大宮区,桜木町１丁目９番地１８,,11,103,3300854,,,,,,,2024-08-08,1,,,,,スマートセッケイ,0
351,2030001161852,新規,0,2024-08-08,2024-08-08,中天国際株式会社,,株式会社,埼玉県,川口市,西川口１丁目１９番１０号ホワイトハウス３０２,,11,203,3320021,,,,,,,2024-08-08,1,,,,,チュウテンコクサイ,0
352,2030001161869,新規,0,2024-08-08,2024-08-08,株式会社タイムバース,,株式会社,埼玉県,所沢市,くすのき台１丁目１３－２ガーデンシティ所沢２Ｆ,,11,208,3590037,,,,,,,2024-08-08,1,,,,,タイムバース,0
367,2060001037389,新規,0,2024-08-08,2024-08-08,株式会社インスピリット,,株式会社,栃木県,宇都宮市,鶴田町１７０４番地１４７,,09,201,3200851,,,,,,,2024-08-08,1,,,,,インスピリット,0
372,2070001042058,新規,0,2024-08-08,2024-08-08,エスエイチ菅谷株式会社,,株式会社,群馬県,高崎市,菅谷町６３番地１,,10,202,3703522,,,,,,,2024-08-08,1,,,,,エスエイチスガヤ,0
376,2070003005533,新規,0,2024-08-08,2024-08-08,合同会社翔不動産,,合同会社,群馬県,太田市,大島町３１７番地２７,,10,205,3730055,,,,,,,2024-08-08,1,,,,,ショウフドウサン,0
382,2080001026431,新規,0,2024-08-08,2024-08-08,ＡＢＬコンサルタント株式会社,,株式会社,静岡県,静岡市葵区,川合３丁目１２番１２号,,22,101,4200923,,,,,,,2024-08-08,1,,,,,エービーエルコンサルタント,0
387,2100001037723,新規,0,2024-08-08,2024-08-08,株式会社フルスペック,,株式会社,長野県,塩尻市,大字大門８２番地８,,20,215,3990744,,,,,,,2024-08-08,1,,,,,フルスペック,0
392,2110003005479,新規,0,2024-08-08,2024-08-08,合同会社ＪＵＺＵ,,合同会社,新潟県,柏崎市,鏡町１番７号,,15,205,9450053,,,,,,,2024-08-08,1,,,,,ジュズ,0
395,2120001267517,新規,0,2024-08-08,2024-08-08,株式会社よしもとブロードテック,,株式会社,大阪府,大阪市中央区,難波千日前１１番６号,,27,128,5420075,,,,,,,2024-08-08,1,,,,,ヨシモトブロードテック,0
396,2120001267541,新規,0,2024-08-08,2024-08-08,株式会社随心社,,株式会社,大阪府,大阪市東成区,深江北２丁目９番２３－２０７号,,27,115,5370001,,,,,,,2024-08-08,1,,,,,ズイシンシャ,0
404,2120005024484,新規,0,2024-08-08,2024-08-08,行政書士法人モア,,その他の設立登記法人,大阪府,大阪市浪速区,大国１丁目１１番１０号３０２,,27,111,5560014,,,,,,,2024-08-08,1,,,,,モア,0
409,2120101070110,新規,0,2024-08-08,2024-08-08,株式会社Ｅ‐ＲＯ,,株式会社,大阪府,堺市西区,鳳西町１丁３９番２号５０１号室,,27,144,5938326,,,,,,,2024-08-08,1,,,,,イーロ,0
412,2120901049576,新規,0,2024-08-08,2024-08-08,グッドライフＨＤ株式会社,,株式会社,大阪府,高槻市,大畑町１７番２４号,,27,207,5691144,,,,,,,2024-08-08,1,,,,,グッドライフホールディングス,0
416,2130001077650,新規,0,2024-08-08,2024-08-08,株式会社輝,,株式会社,京都府,京田辺市,大住ケ丘２丁目１８番地２,,26,211,6100351,,,,,,,2024-08-08,1,,,,,カガヤキ,0
417,2130005017157,新規,0,2024-08-08,2024-08-08,医療法人碧一会,,その他の設立登記法人,京都府,舞鶴市,字浜２００１番地４,,26,202,6250036,,,,,,,2024-08-08,1,,,,,アオイチカイ,0
420,2140003020839,新規,0,2024-08-08,2024-08-08,合同会社アーバ,,合同会社,兵庫県,神戸市東灘区,住吉台５－２－６０１,,28,101,6580062,,,,,,,2024-08-08,1,,,,,アーバ,0
423,2150001027488,新規,0,2024-08-08,2024-08-08,株式会社ＳＬＫ,,株式会社,奈良県,奈良市,漢国町１１番地の３－７０２号,,29,201,6308242,,,,,,,2024-08-08,1,,,,,エスエルケー,0
425,2160001026150,新規,0,2024-08-08,2024-08-08,株式会社Ｔｃｏｍｐａｎｙ,,株式会社,滋賀県,大津市,北大路１丁目１７－１１,,25,201,5200843,,,,,,,2024-08-08,1,,,,,ティーカンパニー,0
426,2160003003255,新規,0,2024-08-08,2024-08-08,合同会社ＭＩＲＯＫＵ,,合同会社,滋賀県,東近江市,八日市東本町６－５５ＪＡＮＴＹ２１、３階,,25,213,5270025,,,,,,,2024-08-08,1,,,,,ミロク,0
427,2160003003263,新規,0,2024-08-08,2024-08-08,大宝産業合同会社,,合同会社,滋賀県,栗東市,綣６丁目２番２８号,,25,208,5203031,,,,,,,2024-08-08,1,,,,,ダイホウサンギョウ,0
437,2180001162605,新規,0,2024-08-08,2024-08-08,株式会社ＳＯＵＳＨＩＮＥ,,株式会社,愛知県,名古屋市中区,門前町６番２８号,,23,106,4600018,,,,,,,2024-08-08,1,,,,,ソウシン,0
438,2180001162679,新規,0,2024-08-08,2024-08-08,ＫＫＮＢＯ株式会社,,株式会社,愛知県,小牧市,大字池之内字赤坂１４９５番地,,23,219,4850804,,,,,,,2024-08-08,1,,,,,ケーケーエヌビーオー,0
439,2180001162729,新規,0,2024-08-08,2024-08-08,株式会社カムラッド,,株式会社,愛知県,名古屋市瑞穂区,彌富町字月見ケ岡３７番地の１,,23,108,4670035,,,,,,,2024-08-08,1,,,,,カムラッド,0
440,2180001162761,新規,0,2024-08-08,2024-08-08,株式会社ＳＥＥＳＯＥ,,株式会社,愛知県,丹羽郡扶桑町,大字柏森字辻田３３１番地１０２,00135874,23,362,4800103,,,,,,,2024-08-08,1,,,,,シーソー,0
450,2190001031560,新規,0,2024-08-08,2024-08-08,ＬＬＥＲＥＮＡＴＥＭＩＳ株式会社,,株式会社,三重県,鈴鹿市,国府町２４０３番地,,24,207,5130836,,,,,,,2024-08-08,1,,,,,ジェレナテミス,0
458,2200001042795,新規,0,2024-08-08,2024-08-08,ＨＫＥホールディングス株式会社,,株式会社,岐阜県,羽島市,舟橋町本町５丁目３２番地,,21,209,5016303,,,,,,,2024-08-08,1,,,,,エイチケーイーホールディングス,0
470,2240001063664,新規,0,2024-08-08,2024-08-08,Ｓｈｏｒｔ　Ｓｌｅｅｐ　Ｓｔｕｄｉｏ株式会社,,株式会社,広島県,広島市南区,段原３丁目９番３４号,,34,103,7320811,,,,,,,2024-08-08,1,,,,,ショートスリープスタジオ,0
476,2250001020771,新規,0,2024-08-08,2024-08-08,株式会社ＡＣＴＹ,,株式会社,山口県,防府市,大字田島６５６番地の５,,35,206,7470834,,,,,,,2024-08-08,1,,,,,アクティ,0
481,2270001009029,新規,0,2024-08-08,2024-08-08,株式会社岸野舎,,株式会社,鳥取県,倉吉市,巌城１６００番地３,,31,203,6820801,,,,,,,2024-08-08,1,,,,,キシノヤ,0
485,2290003015601,新規,0,2024-08-08,2024-08-08,合同会社ＲＥＹ,,合同会社,福岡県,福岡市中央区,梅光園３丁目５番１－４０４号,,40,133,8100035,,,,,,,2024-08-08,1,,,,,レイ,0
486,2290005019451,新規,0,2024-08-08,2024-08-08,一般社団法人Ｆｅｎｏｌ,,その他の設立登記法人,福岡県,糟屋郡新宮町,杜の宮１丁目１番３号,,40,345,8110122,,,,,,,2024-08-08,1,,,,,フェノール,0
488,2310001019155,新規,0,2024-08-08,2024-08-08,株式会社我楽工房,,株式会社,長崎県,諫早市,飯盛町平古場１２２２番地３,,42,204,8541111,,,,,,,2024-08-08,1,,,,,ガラクコウボウ,0
489,2320001020649,新規,0,2024-08-08,2024-08-08,株式会社Ｋｉｗａｍｉ,,株式会社,大分県,宇佐市,大字宮熊２１９２番地の１,,44,211,8790151,,,,,,,2024-08-08,1,,,,,キワミ,0
494,2350001019135,新規,0,2024-08-08,2024-08-08,向陽建設株式会社,,株式会社,宮崎県,都城市,乙房町１６０３番地１２,,45,202,8850112,,,,,,,2024-08-08,1,,,,,コウヨウケンセツ,0
501,2370001051607,新規,0,2024-08-08,2024-08-08,株式会社ＴＯサービス,,株式会社,宮城県,大崎市,古川字城西２０－１,,04,215,9896223,,,,,,,2024-08-08,1,,,,,ティーオーサービス,0
522,2470003002696,新規,0,2024-08-08,2024-08-08,合同会社ＡＥＶＵＭ,,合同会社,香川県,高松市,牟礼町大町５０１番地３５,,37,201,7610122,,,,,,,2024-08-08,1,,,,,エヴム,0
534,3010001247181,新規,0,2024-08-08,2024-08-08,株式会社水と光子,,株式会社,東京都,千代田区,神田和泉町１番地６－１６－ヤマトビル４０５,,13,101,1010024,,,,,,,2024-08-08,1,,,,,ミズトコウシ,0
537,3010003044503,新規,0,2024-08-08,2024-08-08,合同会社ＤＪＤ,,合同会社,東京都,中央区,銀座１丁目２２番１１号,,13,102,1040061,,,,,,,2024-08-08,1,,,,,ディージェーディー,0
538,3010003044552,新規,0,2024-08-08,2024-08-08,合同会社藤井会計センターＦＦＣ,,合同会社,東京都,文京区,本郷２丁目４番１号倉田ビル２０１,,13,105,1130033,,,,,,,2024-08-08,1,,,,,フジイカイケイセンターエフエフシー,0
544,3010401184272,新規,0,2024-08-08,2024-08-08,株式会社ミクカンパニー,,株式会社,東京都,港区,北青山１丁目３番１号アールキューブ青山３階,,13,103,1070061,,,,,,,2024-08-08,1,,,,,ミクカンパニー,0
545,3010401184314,新規,0,2024-08-08,2024-08-08,株式会社ＬｅＬｉｅｎＭ．Ｇ,,株式会社,東京都,港区,南青山１丁目２３番１２号Ｍ＆ＯＮＥ南青山ｖｉｌｌａ１階,,13,103,1070062,,,,,,,2024-08-08,1,,,,,ルリアンエムジー,0
546,3010401184322,新規,0,2024-08-08,2024-08-08,ＭＣＰ２８株式会社,,株式会社,東京都,港区,元赤坂１丁目１番８号株式会社赤坂国際会計内,,13,103,1070051,,,,,,,2024-08-08,1,,,,,エムシーピーツーエイト,0
547,3010403033196,新規,0,2024-08-08,2024-08-08,ニュータイプ・トレーディング合同会社,,合同会社,東京都,港区,三田１丁目３番４０号天翔オフィス麻布十番３０９,,13,103,1080073,,,,,,,2024-08-08,1,,,,,ニュータイプトレーディング,0
557,3010905004653,新規,0,2024-08-08,2024-08-08,一般社団法人メディカルコスメ,,その他の設立登記法人,東京都,世田谷区,代田３丁目４番１０号,,13,112,1550033,,,,,,,2024-08-08,1,,,,,メディカルコスメ,0
559,3011001163897,新規,0,2024-08-08,2024-08-08,株式会社Ｎｉｄ　ＣＲＡＦＴＭＡＮ’Ｓ,,株式会社,東京都,目黒区,青葉台４丁目６－１７松見坂武蔵野マンション,,13,110,1530042,,,,,,,2024-08-08,1,,,,,ニドクラフトマンズ,0
560,3011005010633,新規,0,2024-08-08,2024-08-08,一般社団法人ラクロア,,その他の設立登記法人,東京都,渋谷区,神泉町１０番１５号アネックス神泉３０１,,13,113,1500045,,,,,,,2024-08-08,1,,,,,ラクロア,0
562,3011101108323,新規,0,2024-08-08,2024-08-08,株式会社ＸＲＰ商会,,株式会社,東京都,新宿区,北新宿１丁目２３番１７－５０６号,,13,104,1690074,,,,,,,2024-08-08,1,,,,,エックスアールピーショウカイ,0
564,3011103014800,新規,0,2024-08-08,2024-08-08,合同会社ホシノクロスボーダー,,合同会社,東京都,新宿区,西新宿３丁目３番１３号西新宿水間ビル２Ｆ,,13,104,1600023,,,,,,,2024-08-08,1,,,,,ホシノクロスボーダー,0
569,3011301029897,新規,0,2024-08-08,2024-08-08,心無諍株式会社,,株式会社,東京都,杉並区,高円寺南３丁目２５－８ブリリアント高円寺ＩＩ２０６号室,00135875,13,115,1660003,,,,,,,2024-08-08,1,,,,,,0
571,3011303005252,新規,0,2024-08-08,2024-08-08,合同会社２１ｓｔ　Ｃｅｎｔｕｒｙ　Ｌｉｆｅ,,合同会社,東京都,杉並区,天沼３丁目１０－２１セゾン荻窪３０６,,13,115,1670032,,,,,,,2024-08-08,1,,,,,トゥエンティファーストセンチュリーライフ,0
583,3011603004417,新規,0,2024-08-08,2024-08-08,合同会社トーラス,,合同会社,東京都,練馬区,桜台５丁目３１番１９号,,13,120,1760002,,,,,,,2024-08-08,1,,,,,トーラス,0
592,3012403006702,新規,0,2024-08-08,2024-08-08,合同会社ＬＯＯＫ　ＵＰ,,合同会社,東京都,府中市,天神町１丁目１３－４８,,13,206,1830053,,,,,,,2024-08-08,1,,,,,ルックアップ,0
596,3013301052953,新規,0,2024-08-08,2024-08-08,株式会社ＴＲＯＣ,,株式会社,東京都,豊島区,東池袋３丁目９番１号オガタビル１０１,,13,116,1700013,,,,,,,2024-08-08,1,,,,,トーキ,0
598,3020001158428,新規,0,2024-08-08,2024-08-08,株式会社ｂｕｉｌｄｅｒ,,株式会社,神奈川県,川崎市高津区,東野川２丁目２３番４－９号,,14,134,2130029,,,,,,,2024-08-08,1,,,,,ビルダー,0
599,3020001158436,新規,0,2024-08-08,2024-08-08,株式会社ＡＩＳＷＯＲＫＳ,,株式会社,神奈川県,横浜市神奈川区,斎藤分町６番３５号,,14,102,2210811,,,,,,,2024-08-08,1,,,,,アイスワークス,0
600,3020001158452,新規,0,2024-08-08,2024-08-08,ＰＥＮＴＡＧＯＮ株式会社,,株式会社,神奈川県,横浜市中区,弁天通２丁目２８番地ライオンズマンション関内３０７号室,,14,104,2310007,,,,,,,2024-08-08,1,,,,,ペンタゴン,0
601,3020001158519,新規,0,2024-08-08,2024-08-08,株式会社Ｒｅ３０,,株式会社,神奈川県,横浜市戸塚区,名瀬町７９７番地５戸塚名瀬パークホームズ弐番館４０１号,,14,110,2450051,,,,,,,2024-08-08,1,,,,,アールイーサーティ,0
602,3020001158601,新規,0,2024-08-08,2024-08-08,株式会社Ｋ３,,株式会社,神奈川県,横浜市中区,元町４丁目１６８番地,,14,104,2310861,,,,,,,2024-08-08,1,,,,,ケースリー,0
610,3021003014874,新規,0,2024-08-08,2024-08-08,合同会社カガミ,,合同会社,神奈川県,鎌倉市,佐助２丁目１６－１１,,14,204,2480017,,,,,,,2024-08-08,1,,,,,カガミ,0
618,3030001161835,新規,0,2024-08-08,2024-08-08,榎本銘木株式会社,,株式会社,埼玉県,春日部市,小渕１２５５番地２,,11,214,3440007,,,,,,,2024-08-08,1,,,,,エノモトメイボク,0
621,3030003024858,新規,0,2024-08-08,2024-08-08,合同会社ダイバーインク,,合同会社,埼玉県,新座市,石神３丁目１１番３１号,,11,230,3520033,,,,,,,2024-08-08,1,,,,,ダイバーインク,0
627,3040001134914,新規,0,2024-08-08,2024-08-08,株式会社伊橋製作所,,株式会社,千葉県,山武郡芝山町,小池２４８９番地２,,12,409,2891624,,,,,,,2024-08-08,1,,,,,イハシセイサクショ,0
632,3040003025566,新規,0,2024-08-08,2024-08-08,合同会社横芝,,合同会社,千葉県,匝瑳市,飯倉台１９番地４ユウコウビル３０３号,,12,235,2892148,,,,,,,2024-08-08,1,,,,,ヨコシバ,0
639,3070001042057,新規,0,2024-08-08,2024-08-08,株式会社ＢＥＴＡＳ　ＨＵＩＴ,,株式会社,群馬県,館林市,高根町４２６番地の２,,10,207,3740074,,,,,,,2024-08-08,1,,,,,ビータスユイット,0
640,3070001042065,新規,0,2024-08-08,2024-08-08,ＭＪ　ｂｕｓｉｎｅｓｓ株式会社,,株式会社,群馬県,太田市,下田島町５７８番地１０,,10,205,3730844,,,,,,,2024-08-08,1,,,,,エムジェイビジネス,0
652,3100001037722,新規,0,2024-08-08,2024-08-08,カーナ商事株式会社,,株式会社,長野県,安曇野市,穂高柏原１０７４番地２０,,20,220,3998304,,,,,,,2024-08-08,1,,,,,カーナショウジ,0
653,3100001037730,新規,0,2024-08-08,2024-08-08,株式会社ソワコン,,株式会社,長野県,松本市,高宮中１４番１８号,,20,202,3900834,,,,,,,2024-08-08,1,,,,,ソワコン,0
655,3100003007698,新規,0,2024-08-08,2024-08-08,合同会社武六園,,合同会社,長野県,中野市,大字竹原１０６１番地１,,20,211,3830007,,,,,,,2024-08-08,1,,,,,タケロクエン,0
667,3120001267598,新規,0,2024-08-08,2024-08-08,株式会社タイキ建設,,株式会社,大阪府,大阪市西成区,岸里東２丁目１３番１３号ハイムアサダ１階Ａ号,,27,122,5570042,,,,,,,2024-08-08,1,,,,,タイキケンセツ,0
668,3120001267607,新規,0,2024-08-08,2024-08-08,株式会社カーム,,株式会社,大阪府,大阪市港区,三先２丁目２０番２－４０６号,,27,107,5520016,,,,,,,2024-08-08,1,,,,,カーム,0
672,3120105009896,新規,0,2024-08-08,2024-08-08,一般社団法人飛信会,,その他の設立登記法人,大阪府,堺市堺区,向陵西町４丁１２番２１号,,27,141,5900026,,,,,,,2024-08-08,1,,,,,ヒシンカイ,0
680,3130001077625,新規,0,2024-08-08,2024-08-08,株式会社ＰＡＬ,,株式会社,京都府,京都市下京区,善長寺町１５２,,26,106,6008431,,,,,,,2024-08-08,1,,,,,ピーエーエル,0
681,3130001077641,新規,0,2024-08-08,2024-08-08,ＳＩ株式会社,,株式会社,京都府,京都市右京区,西京極午塚町７７－１６,00135883,26,108,6150885,,,,,,,2024-08-08,1,,,,,エスアイ,0
682,3130001077658,新規,0,2024-08-08,2024-08-08,株式会社さいとう商店,,株式会社,京都府,乙訓郡大山崎町,字下植野小字宮脇１番地１９６,,26,303,6180081,,,,,,,2024-08-08,1,,,,,サイトウショウテン,0
684,3130003009774,新規,0,2024-08-08,2024-08-08,合同会社オーケーエム,,合同会社,京都府,京都市下京区,高槻町３４６サピエンスコート烏丸七条４１０号室,,26,106,6008174,,,,,,,2024-08-08,1,,,,,オーケーエム,0
689,3140001135456,新規,0,2024-08-08,2024-08-08,株式会社Ｇ＆ＴＬａｂｏｒａｔｏｒｙ,,株式会社,兵庫県,西宮市,津門呉羽町３番２８号,,28,204,6638245,,,,,,,2024-08-08,1,,,,,ジーアンドティーラボラトリー,0
691,3140003020945,新規,0,2024-08-08,2024-08-08,合同会社ＨＯＭＡ,,合同会社,兵庫県,たつの市,龍野町富永３１３番地８,,28,229,6794167,,,,,,,2024-08-08,1,,,,,ホウマ,0
693,3160001026125,新規,0,2024-08-08,2024-08-08,株式会社ＬＩＮＫＳ,,株式会社,滋賀県,彦根市,大藪町２４２５番地,,25,202,5220053,,,,,,,2024-08-08,1,,,,,リンクス,0
694,3160001026141,新規,0,2024-08-08,2024-08-08,株式会社ＫＲＮ,,株式会社,滋賀県,米原市,夫馬１３６５番地１,,25,214,5210224,,,,,,,2024-08-08,1,,,,,カレン,0
695,3160003003262,新規,0,2024-08-08,2024-08-08,合同会社太山,,合同会社,滋賀県,東近江市,百済寺本町１番地１,,25,213,5270143,,,,,,,2024-08-08,1,,,,,タイサン,0
697,3170001018261,新規,0,2024-08-08,2024-08-08,和歌山スーパーフレーム設計株式会社,,株式会社,和歌山県,和歌山市,松江北７丁目６番５号,,30,201,6408425,,,,,,,2024-08-08,1,,,,,ワカヤマスーパーフレームセッケイ,0
699,3180001162579,新規,0,2024-08-08,2024-08-08,株式会社ご縁サポートＣｏｎｎｅｃｔ,,株式会社,愛知県,稲沢市,稲沢町前田１９２番地３幸成ビル１０２,,23,220,4928217,,,,,,,2024-08-08,1,,,,,ゴエンサポートコネクト,0
700,3180001162595,新規,0,2024-08-08,2024-08-08,株式会社木ぐみ舎,,株式会社,愛知県,春日井市,出川町２丁目１０番地１９,,23,206,4870025,,,,,,,2024-08-08,1,,,,,キグミヤ,0
701,3180001162604,新規,0,2024-08-08,2024-08-08,株式会社伸星工業,,株式会社,愛知県,春日井市,東野町９丁目１１番地２７,,23,206,4860817,,,,,,,2024-08-08,1,,,,,シンセイコウギョウ,0
702,3180001162629,新規,0,2024-08-08,2024-08-08,株式会社ＮＯＡ,,株式会社,愛知県,瀬戸市,塩草が丘３丁目２０番地,,23,204,4890899,,,,,,,2024-08-08,1,,,,,エヌオーエー,0
703,3180001162637,新規,0,2024-08-08,2024-08-08,株式会社リッチフィールド,,株式会社,愛知県,名古屋市中区,栄５丁目２６－３９ＧＳ栄ビル３Ｆ,,23,106,4600008,,,,,,,2024-08-08,1,,,,,リッチフィールド,0
704,3180001162653,新規,0,2024-08-08,2024-08-08,エイチワークス株式会社,,株式会社,愛知県,愛西市,佐屋町宅地９７番地,,23,232,4960901,,,,,,,2024-08-08,1,,,,,エイチワークス,0
705,3180001162728,新規,0,2024-08-08,2024-08-08,株式会社アジェット,,株式会社,愛知県,名古屋市中川区,上流町２丁目４２番地ステーブル上流２０１号,,23,110,4540846,,,,,,,2024-08-08,1,,,,,アジェット,0
710,3180003027160,新規,0,2024-08-08,2024-08-08,さざんか合同会社,,合同会社,愛知県,日進市,三本木町一番割８番地,,23,230,4700101,,,,,,,2024-08-08,1,,,,,サザンカ,0
711,3180003027177,新規,0,2024-08-08,2024-08-08,合同会社エフピーパンチ,,合同会社,愛知県,名古屋市中区,丸の内３丁目４番１０号大津橋ビル２Ｆ,,23,106,4600002,,,,,,,2024-08-08,1,,,,,エフピーパンチ,0
712,3180003027185,新規,0,2024-08-08,2024-08-08,合同会社Ｍａｙａｔｔ　ｃｏｒｐｏｒａｔｉｏｎ,,合同会社,愛知県,名古屋市西区,中小田井３丁目３９０番地,,23,104,4520822,,,,,,,2024-08-08,1,,,,,マヤットコーポレーション,0
714,3180005020725,新規,0,2024-08-08,2024-08-08,一般社団法人こんなん女性支援協会,,その他の設立登記法人,愛知県,名古屋市守山区,廿軒家１３番４０号,,23,113,4630065,,,,,,,2024-08-08,1,,,,,コンナンジョセイシエンキョウカイ,0
717,3200001042803,新規,0,2024-08-08,2024-08-08,株式会社ＩＴＰドリームファーム,,株式会社,岐阜県,中津川市,飯沼２７番地の８,,21,206,5097322,,,,,,,2024-08-08,1,,,,,アイティーピードリームファーム,0
722,3250001020770,新規,0,2024-08-08,2024-08-08,株式会社ＣＲＡＦＴ　ＷＯＲＫＳ,,株式会社,山口県,宇部市,恩田町３丁目３番４７号,,35,202,7550023,,,,,,,2024-08-08,1,,,,,クラフトワークス,0
725,3260001039356,新規,0,2024-08-08,2024-08-08,株式会社リサーチマネジメント,,株式会社,岡山県,津山市,高野山西５２７番地１,,33,203,7081124,,,,,,,2024-08-08,1,,,,,リサーチマネジメント,0
730,3270001009028,新規,0,2024-08-08,2024-08-08,株式会社きゃんばす,,株式会社,鳥取県,米子市,安倍４９２番地,,31,202,6830846,,,,,,,2024-08-08,1,,,,,キャンバス,0
747,3400003003304,新規,0,2024-08-08,2024-08-08,合同会社シフルズ,,合同会社,岩手県,盛岡市,山王町３－２７,,03,201,0200821,,,,,,,2024-08-08,1,,,,,シフルズ,0
759,3500001025810,新規,0,2024-08-08,2024-08-08,株式会社Ｓ・Ｋプラント,,株式会社,愛媛県,八幡浜市,保内町川之石３番耕地２９８番地５,,38,204,7960201,,,,,,,2024-08-08,1,,,,,エスケープラント,0
767,4010001247049,新規,0,2024-08-08,2024-08-08,株式会社ＦｏｃｕｓＬｉｆｅ,,株式会社,東京都,千代田区,神田岩本町４－１２ＴＱ岩本町３階,,13,101,1010033,,,,,,,2024-08-08,1,,,,,フォーカスライフ,0
771,4010005038618,新規,0,2024-08-08,2024-08-08,一般社団法人グローバル・スプラウト協会,,その他の設立登記法人,東京都,千代田区,神田紺屋町４６番地,,13,101,1010035,,,,,,,2024-08-08,1,,,,,グローバルスプラウトキョウカイ,0
777,4010401184288,新規,0,2024-08-08,2024-08-08,ＧＣＪＩ２０株式会社,,株式会社,東京都,港区,元赤坂１丁目１番８号株式会社赤坂国際会計内,,13,103,1070051,,,,,,,2024-08-08,1,,,,,ジーシージェイアイトゥエンティ,0
778,4010401184296,新規,0,2024-08-08,2024-08-08,株式会社Ｓｗｅａｒ,,株式会社,東京都,港区,北青山２丁目１４番４号ｔｈｅＡＲＧＹＬＥａｏｙａｍａ６Ｆ,,13,103,1070061,,,,,,,2024-08-08,1,,,,,スウェア,0
780,4010405023426,新規,0,2024-08-08,2024-08-08,一般社団法人デジタルイラスト教育協会,,その他の設立登記法人,東京都,港区,南青山３丁目１番３６号青山丸竹ビル６Ｆ,,13,103,1070062,,,,,,,2024-08-08,1,,,,,デジタルイラストキョウイクキョウカイ,0
781,4010405023483,新規,0,2024-08-08,2024-08-08,一般社団法人ＪＦＲブリッジ２,,その他の設立登記法人,東京都,港区,元赤坂１丁目１番８号赤坂コミュニティビル４階,,13,103,1070051,,,,,,,2024-08-08,1,,,,,ジェイエフアールブリッジツー,0
782,4010501052717,新規,0,2024-08-08,2024-08-08,株式会社ＤｒｏｐＳｔｏｎｅ　Ｇｒｏｕｐ,,株式会社,東京都,台東区,東上野２丁目１９番９号東宝工芸社第三ビル５階,,13,106,1100015,,,,,,,2024-08-08,1,,,,,ドロップストーングループ,0
783,4010501052733,新規,0,2024-08-08,2024-08-08,株式会社オプト,,株式会社,東京都,台東区,浅草橋２丁目３－１小菅ビル２Ｆ,,13,106,1110053,,,,,,,2024-08-08,1,,,,,オプト,0
789,4010803005050,新規,0,2024-08-08,2024-08-08,ひらの合同会社,,合同会社,東京都,大田区,山王２丁目６番６号コンセール山王壱番館３０１号室,,13,111,1430023,,,,,,,2024-08-08,1,,,,,ヒラノ,0
794,4010905004644,新規,0,2024-08-08,2024-08-08,一般社団法人私の履歴書ｆｏｒ　ｔｈｅ　ｆｕｔｕｒｅラボ,,その他の設立登記法人,東京都,世田谷区,瀬田４丁目１番９－１０１号,,13,112,1580095,,,,,,,2024-08-08,1,,,,,ワタシノリレキショフォーザフューチャーラボ,0
797,4011001163764,新規,0,2024-08-08,2024-08-08,株式会社グローバルロジサポート,,株式会社,東京都,目黒区,上目黒１丁目１６番１２号鈴房ビル２０１Ａ中目ＦＯ,,13,110,1530051,,,,,,,2024-08-08,1,,,,,グローバルロジサポート,0
798,4011001163863,新規,0,2024-08-08,2024-08-08,ｓｗｅｅｔ　ｓｐｏｔ株式会社,,株式会社,東京都,渋谷区,道玄坂１丁目１０番８号渋谷道玄坂東急ビル２Ｆ－Ｃ,,13,113,1500043,,,,,,,2024-08-08,1,,,,,スウィートスポット,0
799,4011001163954,新規,0,2024-08-08,2024-08-08,株式会社ＲＵＮ,,株式会社,東京都,渋谷区,渋谷２丁目１９－１５宮益坂ビルディング６０９,,13,113,1500002,,,,,,,2024-08-08,1,,,,,ラン,0
801,4011003019469,新規,0,2024-08-08,2024-08-08,ＷａｋｕＨＳ合同会社,,合同会社,東京都,渋谷区,神宮前６丁目２３番３号桑野ビル２階,,13,113,1500001,,,,,,,2024-08-08,1,,,,,ワクース,0
802,4011003019700,新規,0,2024-08-08,2024-08-08,合同会社ライフアシストソリューションズ,,合同会社,東京都,渋谷区,恵比寿西２丁目８番４号ＥＸ恵比寿西ビル５階,,13,113,1500021,,,,,,,2024-08-08,1,,,,,ライフアシストソリューションズ,0
803,4011003019709,新規,0,2024-08-08,2024-08-08,合同会社プロミネンス,,合同会社,東京都,渋谷区,神泉町１番２２－３０４号,,13,113,1500045,,,,,,,2024-08-08,1,,,,,プロミネンス,0
808,4011501030992,新規,0,2024-08-08,2024-08-08,株式会社Ａ．Ｇ．Ｌ,,株式会社,東京都,北区,桐ケ丘１丁目１９番４６－４１０号,,13,117,1150054,,,,,,,2024-08-08,1,,,,,エージーエル,0
809,4011503006165,新規,0,2024-08-08,2024-08-08,合同会社フォレスピア,,合同会社,東京都,荒川区,町屋３丁目５番１２号,,13,118,1160001,,,,,,,2024-08-08,1,,,,,フォレスピア,0
810,4011601027955,新規,0,2024-08-08,2024-08-08,株式会社クラミル,,株式会社,東京都,練馬区,石神井台２丁目２９－３３－２０３,,13,120,1770045,,,,,,,2024-08-08,1,,,,,クラミル,0
812,4011701027517,新規,0,2024-08-08,2024-08-08,株式会社ＱＵＡＴＴＲＯ８,,株式会社,東京都,江戸川区,西葛西７丁目１５番５－１００１号,,13,123,1340088,,,,,,,2024-08-08,1,,,,,クワトロエイト,0
813,4011803006385,新規,0,2024-08-08,2024-08-08,リーベ合同会社,,合同会社,東京都,葛飾区,金町３丁目１７番１３号３階,,13,122,1250042,,,,,,,2024-08-08,1,,,,,リーベ,0
829,4020003026697,新規,0,2024-08-08,2024-08-08,合同会社Ｃｅｎｔｅｒ　Ｃａｐｉｔａｌ,,合同会社,神奈川県,横浜市中区,西竹之丸１０番地５,,14,104,2310852,,,,,,,2024-08-08,1,,,,,センターキャピタル,0
836,4021001082955,新規,0,2024-08-08,2024-08-08,偶然商事株式会社,,株式会社,神奈川県,相模原市南区,大野台７丁目２８－２,,14,153,2520331,,,,,,,2024-08-08,1,,,,,グウゼンショウジ,0
844,4030001161842,新規,0,2024-08-08,2024-08-08,株式会社山栄,,株式会社,埼玉県,熊谷市,本石１丁目８０番地マルテンビル３０２号室,,11,202,3600815,,,,,,,2024-08-08,1,,,,,サンエイ,0
845,4030001161850,新規,0,2024-08-08,2024-08-08,株式会社シンドウ,,株式会社,埼玉県,さいたま市南区,沼影１丁目１１番２号Ｃ－２２０３,,11,108,3360027,,,,,,,2024-08-08,1,,,,,シンドウ,0
846,4030005021803,新規,0,2024-08-08,2024-08-08,一般社団法人ＡＢＫ,,その他の設立登記法人,埼玉県,さいたま市岩槻区,南平野４丁目１１番地３２,,11,110,3390051,,,,,,,2024-08-08,1,,,,,エービーケー,0
853,4040001134888,新規,0,2024-08-08,2024-08-08,株式会社ＫＩＮＥｓｉｎ運輸開発機構,,株式会社,千葉県,松戸市,横須賀２丁目１１番地の１３,,12,207,2700031,,,,,,,2024-08-08,1,,,,,キネシンウンユカイハツキコウ,0
862,4050005013476,新規,0,2024-08-08,2024-08-08,一般社団法人地域創生デジタルプラットフォーム,,その他の設立登記法人,茨城県,水戸市,宮町１丁目２番４号ＭＹＭビル３階,,08,201,3100015,,,,,,,2024-08-08,1,,,,,チイキソウセイデジタルプラットフォーム,0
866,4070003005531,新規,0,2024-08-08,2024-08-08,ＭＡＲＩＵＭ　ＩＮＴＥＲＮＡＴＩＯＮＡＬ合同会社,,合同会社,群馬県,桐生市,広沢町６丁目４８０番地の１,,10,203,3760013,,,,,,,2024-08-08,1,,,,,マリアムインターナショナル,0
890,4120901049582,新規,0,2024-08-08,2024-08-08,株式会社ＥＮメディカルジャパン,,株式会社,大阪府,吹田市,五月が丘北１４番１号,,27,205,5650834,,,,,,,2024-08-08,1,,,,,エンメディカルジャパン,0
895,4130001077665,新規,0,2024-08-08,2024-08-08,フォーレスタニ株式会社,,株式会社,京都府,京都市中京区,東洞院通押小路下る船屋町４０３番地２０３号,,26,104,6040836,,,,,,,2024-08-08,1,,,,,フォーレスタニ,0
898,4130005017155,新規,0,2024-08-08,2024-08-08,一般社団法人京都産業都市創成研究所,,その他の設立登記法人,京都府,京都市下京区,中堂寺粟田町９３京都リサーチパーク４号館３階ＫＲＰＢＩＺＮＥＸＴ内,,26,106,6008815,,,,,,,2024-08-08,1,,,,,キョウトサンギョウトシソウセイケンキュウショ,0
903,4140001135463,新規,0,2024-08-08,2024-08-08,株式会社弘源,,株式会社,兵庫県,神戸市中央区,雲井通３丁目５番１５号宝星ビル２０３号室,,28,110,6510096,,,,,,,2024-08-08,1,,,,,ヒロゲン,0
908,4160001026140,新規,0,2024-08-08,2024-08-08,株式会社虹,,株式会社,滋賀県,東近江市,聖徳町１番３７号,,25,213,5270038,,,,,,,2024-08-08,1,,,,,ニジ,0
909,4160001026149,新規,0,2024-08-08,2024-08-08,株式会社大森興業,,株式会社,滋賀県,大津市,真野２丁目１９番５７号,,25,201,5200232,,,,,,,2024-08-08,1,,,,,オオモリコウギョウ,0
910,4160003003261,新規,0,2024-08-08,2024-08-08,合同会社ＳＴＵＲＭ,,合同会社,滋賀県,彦根市,後三条町５０１番地３（２０３号）,,25,202,5220086,,,,,,,2024-08-08,1,,,,,シュトルム,0
919,4180001162586,新規,0,2024-08-08,2024-08-08,株式会社Ｕｎｓｔｏｐｐａｂｌｅ,,株式会社,愛知県,名古屋市北区,黒川本通３丁目５５番地,,23,103,4620841,,,,,,,2024-08-08,1,,,,,アンストッパブル,0
920,4180001162776,新規,0,2024-08-08,2024-08-08,ＳＯＯＲＡＹＡ　ＭＯＢＩＬＩＴＹ株式会社,,株式会社,愛知県,名古屋市名東区,野間町１６番地,,23,115,4650056,,,,,,,2024-08-08,1,,,,,スラーヤモビリティー,0
921,4180001162792,新規,0,2024-08-08,2024-08-08,株式会社健栄工業,,株式会社,愛知県,海部郡蟹江町,桜２丁目３８番地,,23,425,4970038,,,,,,,2024-08-08,1,,,,,ケンエイコウギョウ,0
947,4260005011384,新規,0,2024-08-08,2024-08-08,特定非営利活動法人ＥＩＴＡＫＯ,,その他の設立登記法人,岡山県,総社市,西郡３４３番地３,,33,208,7191164,,,,,,,2024-08-08,1,,,,,エイタコ,0
948,4280001009232,新規,0,2024-08-08,2024-08-08,株式会社冨山,,株式会社,島根県,浜田市,相生町１３９１番地８,,32,202,6970034,,,,,,,2024-08-08,1,,,,,トミヤマ,0
961,4290003015649,新規,0,2024-08-08,2024-08-08,合同会社エボコン,,合同会社,福岡県,久留米市,野伏間１丁目２－１７,,40,203,8300058,,,,,,,2024-08-08,1,,,,,エボコン,0
962,4300001013867,新規,0,2024-08-08,2024-08-08,株式会社サイカンＷｉｎｎｅｒｓ,,株式会社,佐賀県,多久市,北多久町大字小侍１８０３番地１,,41,204,8460002,,,,,,,2024-08-08,1,,,,,サイカンウィナーズ,0
964,4310001019153,新規,0,2024-08-08,2024-08-08,株式会社和久農園春貴,,株式会社,長崎県,佐世保市,上柚木町２６４３番地,,42,202,8570126,,,,,,,2024-08-08,1,,,,,ワクノウエンハルキ,0
968,4310005008788,新規,0,2024-08-08,2024-08-08,一般社団法人ＳＨＩＮＯ,,その他の設立登記法人,長崎県,長崎市,岩川町７番１０－６０１号,,42,201,8528106,,,,,,,2024-08-08,1,,,,,シノ,0
973,4370001051605,新規,0,2024-08-08,2024-08-08,日泉不動産株式会社,,株式会社,宮城県,仙台市泉区,泉中央３丁目２７番地３,,04,105,9813133,,,,,,,2024-08-08,1,,,,,ニッセンフドウサン,0
978,4380001034716,新規,0,2024-08-08,2024-08-08,株式会社フレンズ企画,,株式会社,福島県,いわき市,平字倉前１１２番１,,07,204,9708026,,,,,,,2024-08-08,1,,,,,フレンズキカク,0
981,4390001017703,新規,0,2024-08-08,2024-08-08,Ｂｉｏ　Ｓｅｒｖｅ株式会社,,株式会社,山形県,山形市,若宮３丁目７番３０－１４０１号ドゥペール吉原弐番館,,06,201,9902453,,,,,,,2024-08-08,1,,,,,ビオサーブ,0
999,4450005004419,新規,0,2024-08-08,2024-08-08,社会保険労務士法人グレイスパートナーズ,,その他の設立登記法人,北海道,旭川市,春光町１０番地,,01,204,0700902,,,,,,,2024-08-08,1,,,,,グレイスパートナーズ,0
1000,4460101007588,新規,0,2024-08-08,2024-08-08,株式会社ＫＯＴＥＲＡ　ＨＤ,,株式会社,北海道,河東郡上士幌町,字上士幌東２線２２９番地,,01,633,0801408,,,,,,,2024-08-08,1,,,,,コテラホールディングス,0
1002,4470001020335,新規,0,2024-08-08,2024-08-08,株式会社Ｋ・ＴＲＵＳＴ,,株式会社,香川県,丸亀市,土器町西７丁目２６番地８,,37,202,7630081,,,,,,,2024-08-08,1,,,,,ケイトラスト,0
1003,4470003002694,新規,0,2024-08-08,2024-08-08,合同会社まるきた,,合同会社,香川県,仲多度郡多度津町,大字青木３５６番地６,,37,404,7640033,,,,,,,2024-08-08,1,,,,,マルキタ,0
1005,4480001012562,新規,0,2024-08-08,2024-08-08,ヘキサテクノ株式会社,,株式会社,徳島県,板野郡藍住町,勝瑞字西勝地１３７番地１,,36,403,7711270,,,,,,,2024-08-08,1,,,,,,0
1011,4500001025801,新規,0,2024-08-08,2024-08-08,株式会社翔永工業,,株式会社,愛媛県,今治市,郷本町３丁目３番３号,,38,202,7940823,,,,,,,2024-08-08,1,,,,,ショウエイコウギョウ,0
1013,4700150126685,新規,0,2024-08-08,2024-08-08,Ｈａｋｕｂａ　９　Ｌｉｍｉｔｅｄ,,外国会社等,長野県,北安曇郡小谷村,大字千国乙１２８４０－１,,20,486,3999422,３／Ｆ，Ａ　Ｋｕｎｇ　Ｎｇａｍ　Ｌｏｔ　６３５，Ｓｈａｕ　Ｋｅｉ　Ｗａｎ，Ｈｏｎｇ　Ｋｏｎｇ,,,,,,2024-08-08,1,,,,,ハクバナインリミテツド,0
1017,5010001247213,新規,0,2024-08-08,2024-08-08,ＡＩＭ介護株式会社,,株式会社,東京都,中央区,日本橋３丁目１番４号,,13,102,1030027,,,,,,,2024-08-08,1,,,,,エイアイエムカイゴ,0
1018,5010001247254,新規,0,2024-08-08,2024-08-08,家蓮株式会社,,株式会社,東京都,文京区,白山１丁目６－４同栄マンション２階文京ＶＥＮＴＵＲＥＢＡＳＥ２１３号室,,13,105,1130001,,,,,,,2024-08-08,1,,,,,カレン,0
1019,5010001247295,新規,0,2024-08-08,2024-08-08,株式会社ＴＭＹｓｈｏｅｓ＆ｍｏｒｅ,,株式会社,東京都,中央区,銀座１丁目１２番４号Ｎ＆ＥＢＬＤ．６Ｆ,,13,102,1040061,,,,,,,2024-08-08,1,,,,,ティーエムワイシューズアンドモア,0
1020,5010003044575,新規,0,2024-08-08,2024-08-08,合同会社ＨＭＺＥＨ１,,合同会社,東京都,中央区,銀座４丁目６番１号三幸アセットマネジメント株式会社内,,13,102,1040061,,,,,,,2024-08-08,1,,,,,エイチエムゼッチワン,0
1026,5010401184287,新規,0,2024-08-08,2024-08-08,Ｔ＆Ｍ　ＬＡＢ株式会社,,株式会社,東京都,港区,港南４丁目２番７－２１１９号,,13,103,1080075,,,,,,,2024-08-08,1,,,,,ティーアンドエムラボ,0
1027,5010401184295,新規,0,2024-08-08,2024-08-08,株式会社メディカルクロノス,,株式会社,東京都,港区,南青山３丁目１番３６号青山丸竹ビル６階,,13,103,1070062,,,,,,,2024-08-08,1,,,,,メディカルクロノス,0
1028,5010401184320,新規,0,2024-08-08,2024-08-08,ＪＧ２４株式会社,,株式会社,東京都,港区,虎ノ門１丁目３番１号,,13,103,1050001,,,,,,,2024-08-08,1,,,,,ジェイジーニジュウヨン,0
1029,5010403033178,新規,0,2024-08-08,2024-08-08,ＲＵＮ　ＡＧＥＮＴ合同会社,,合同会社,東京都,港区,北青山１丁目３番１号アールキューブ青山３階,,13,103,1070061,,,,,,,2024-08-08,1,,,,,ランエージェント,0
1030,5010403033194,新規,0,2024-08-08,2024-08-08,ジョージアンドファミリー合同会社,,合同会社,東京都,港区,南青山５丁目１２番３－５０３号,,13,103,1070062,,,,,,,2024-08-08,1,,,,,ジョージアンドファミリー,0
1038,5010603011017,新規,0,2024-08-08,2024-08-08,合同会社ピナクルデータ,,合同会社,東京都,墨田区,江東橋４丁目２７－１４楽天地ビル３Ｆ,,13,107,1300022,,,,,,,2024-08-08,1,,,,,ピナクルデータ,0
1046,5010901055772,新規,0,2024-08-08,2024-08-08,株式会社ａ＆．,,株式会社,東京都,世田谷区,玉川１丁目１９番５号グランデュオ二子玉川６－５０２,,13,112,1580094,,,,,,,2024-08-08,1,,,,,エーアンドピリオド,0
1053,5011001163714,新規,0,2024-08-08,2024-08-08,株式会社原島企画,,株式会社,東京都,渋谷区,道玄坂１丁目１０番８号渋谷道玄坂東急ビル２Ｆ－Ｃ,,13,113,1500043,,,,,,,2024-08-08,1,,,,,ハラジマキカク,0
1054,5011001163805,新規,0,2024-08-08,2024-08-08,Ｌｉｔｔｙ株式会社,,株式会社,東京都,渋谷区,道玄坂１丁目１０番８号渋谷道玄坂東急ビル２Ｆ－Ｃ,,13,113,1500043,,,,,,,2024-08-08,1,,,,,リッティ,0
1057,5011003019708,新規,0,2024-08-08,2024-08-08,Ｋｉ合同会社,,合同会社,東京都,渋谷区,渋谷２丁目１９－１５宮益坂ビルディング６０９,,13,113,1500002,,,,,,,2024-08-08,1,,,,,キー,0
1058,5011003019716,新規,0,2024-08-08,2024-08-08,ロケーショナリー合同会社,,合同会社,東京都,渋谷区,千駄ヶ谷３丁目１５番３号,,13,113,1510051,,,,,,,2024-08-08,1,,,,,ロケーショナリー,0
1059,5011003019724,新規,0,2024-08-08,2024-08-08,Ｎａｉｕｓｅ合同会社,,合同会社,東京都,渋谷区,道玄坂１丁目１０番８号渋谷道玄坂東急ビル２Ｆ－Ｃ,,13,113,1500043,,,,,,,2024-08-08,1,,,,,ナイウス,0
1064,5011401026339,新規,0,2024-08-08,2024-08-08,カーゴ株式会社,,株式会社,東京都,板橋区,小豆沢３丁目１２番２号,,13,119,1740051,,,,,,,2024-08-08,1,,,,,カーゴ,0
1073,5011601027970,新規,0,2024-08-08,2024-08-08,株式会社ＦＲＡＮＫＮＥＳＳ,,株式会社,東京都,練馬区,中村南１丁目３０番１４号メゾンドシマダ４０３号室,,13,120,1760025,,,,,,,2024-08-08,1,,,,,フランクネス,0
1078,5011801044642,新規,0,2024-08-08,2024-08-08,株式会社ネオスターパック,,株式会社,東京都,足立区,綾瀬４丁目１９番１７－５０８号,,13,121,1200005,,,,,,,2024-08-08,1,,,,,ネオスターパック,0
1079,5011803006384,新規,0,2024-08-08,2024-08-08,悠悠合同会社,,合同会社,東京都,葛飾区,西新小岩４丁目２１－２１－１００３号,,13,122,1240025,,,,,,,2024-08-08,1,,,,,ユウユウ,0
1091,5020001158426,新規,0,2024-08-08,2024-08-08,キッズわん株式会社,,株式会社,神奈川県,川崎市中原区,今井上町１番３７号,,14,133,2110067,,,,,,,2024-08-08,1,,,,,キッズワン,0
1092,5020001158434,新規,0,2024-08-08,2024-08-08,株式会社ＴＥＮＰＡＣＨＩ,,株式会社,神奈川県,川崎市幸区,新小倉２番７－１３３６号,,14,132,2120031,,,,,,,2024-08-08,1,,,,,テンパチ,0
1093,5020001158467,新規,0,2024-08-08,2024-08-08,株式会社ＬＤデザイン,,株式会社,神奈川県,川崎市多摩区,宿河原６丁目３２番７号,,14,135,2140021,,,,,,,2024-08-08,1,,,,,エルディデザイン,0
1094,5020003026630,新規,0,2024-08-08,2024-08-08,合同会社ＹＵＫＩ,,合同会社,神奈川県,横浜市鶴見区,市場大和町４番８号ＩＰビル４０１,,14,101,2300025,,,,,,,2024-08-08,1,,,,,ユウキ,0
1108,5030001161825,新規,0,2024-08-08,2024-08-08,株式会社Ａｍｉｓｔａｄ,,株式会社,埼玉県,春日部市,下蛭田４２２番地６,,11,214,3440043,,,,,,,2024-08-08,1,,,,,アミスタッド,0
1110,5030003024889,新規,0,2024-08-08,2024-08-08,合同会社ＯＡＳＩＳ,,合同会社,埼玉県,さいたま市北区,日進町２丁目８０１番地１ロイヤルパーク日進１階,,11,102,3310823,,,,,,,2024-08-08,1,,,,,オアシス,0
1112,5030005021802,新規,0,2024-08-08,2024-08-08,一般社団法人ＳＡＩＴＡＭＡ　ＫＵＭＡＧＡＹＡ　ＭＵＳＬＩＭ　ＣＯＭＭＵＮＩＴＹ,,その他の設立登記法人,埼玉県,比企郡ときがわ町,大字玉川２１７番地,,11,349,3550342,,,,,,,2024-08-08,1,,,,,サイタマクマガヤムスリムコミュニティ,0
1117,5040001134879,新規,0,2024-08-08,2024-08-08,コテラクラフツ株式会社,,株式会社,千葉県,市川市,宮久保５丁目９番８号,,12,203,2720822,,,,,,,2024-08-08,1,,,,,コテラクラフツ,0
1118,5040001134887,新規,0,2024-08-08,2024-08-08,眞仲環境株式会社,,株式会社,千葉県,我孫子市,都３番地３,,12,222,2701102,,,,,,,2024-08-08,1,,,,,マナカカンキョウ,0
1122,5040003025564,新規,0,2024-08-08,2024-08-08,合同会社幸通,,合同会社,千葉県,浦安市,海楽１丁目１８番１８号,,12,227,2790003,,,,,,,2024-08-08,1,,,,,コウトウ,0
1140,5080001026429,新規,0,2024-08-08,2024-08-08,株式会社ルナ,,株式会社,静岡県,静岡市葵区,土太夫町３９番地,,22,101,4200018,,,,,,,2024-08-08,1,,,,,ルナ,0
1144,5080401027365,新規,0,2024-08-08,2024-08-08,株式会社カリー,,株式会社,静岡県,浜松市中央区,上島４丁目２３番１０号コスモスハイツＡ－２号,,22,138,4338122,,,,,,,2024-08-08,1,,,,,カリー,0
1147,5100001037729,新規,0,2024-08-08,2024-08-08,株式会社信越発電,,株式会社,長野県,飯山市,大字飯山２６５２番地３,,20,213,3892253,,,,,,,2024-08-08,1,,,,,シンエツハツデン,0
1148,5100003007713,新規,0,2024-08-08,2024-08-08,合同会社池田農園,,合同会社,長野県,中野市,大字新野１０９番地,,20,211,3830034,,,,,,,2024-08-08,1,,,,,イケダノウエン,0
1151,5110001038635,新規,0,2024-08-08,2024-08-08,株式会社レイドバック,,株式会社,新潟県,新発田市,中曽根町３丁目７番３号,,15,206,9570067,,,,,,,2024-08-08,1,,,,,レイドバック,0
1159,5120001267605,新規,0,2024-08-08,2024-08-08,日本海恩徳株式会社,00135870,株式会社,大阪府,大阪市淀川区,新北野１丁目１２番１０号,,27,123,5320025,,,,,,,2024-08-08,1,,,,,ニホンカイオントク,0
1161,5120003027247,新規,0,2024-08-08,2024-08-08,合同会社ＰＫＲ,,合同会社,大阪府,大阪市西区,西本町２丁目５番１０号コンフィデンス西本町１００２号室,,27,106,5500005,,,,,,,2024-08-08,1,,,,,ピーケーアール,0
1171,5130001077631,新規,0,2024-08-08,2024-08-08,Ｄｅｆ　Ｗｏｒｋｓ株式会社,,株式会社,京都府,京都市中京区,御倉町７５番地,,26,104,6048166,,,,,,,2024-08-08,1,,,,,デフワークス,0
1172,5130001077648,新規,0,2024-08-08,2024-08-08,リヴ不動産株式会社,,株式会社,京都府,向日市,寺戸町七ノ坪１４１番地,,26,208,6170002,,,,,,,2024-08-08,1,,,,,リヴフドウサン,0
1185,5140001135264,新規,0,2024-08-08,2024-08-08,株式会社ミラクシア,,株式会社,兵庫県,加古郡播磨町,古田１丁目９－１４－１,,28,382,6750146,,,,,,,2024-08-08,1,,,,,ミラクシア,0
1196,5180001162627,新規,0,2024-08-08,2024-08-08,ＬＩＦＥ‐ＥＰ株式会社,,株式会社,愛知県,春日井市,味美町３丁目８６番地１,,23,206,4860968,,,,,,,2024-08-08,1,,,,,ライフイーピー,0
1197,5180001162701,新規,0,2024-08-08,2024-08-08,株式会社Ｆｕｌｌ　Ｈｏｕｓｅ,,株式会社,愛知県,名古屋市南区,豊田５丁目１９番２７号,,23,112,4570841,,,,,,,2024-08-08,1,,,,,フルハウス,0
1198,5180001162734,新規,0,2024-08-08,2024-08-08,株式会社Ｇｒｅｅｎ　ｓｔｏｎｅ　ｃａｐｉｔａｌ,,株式会社,愛知県,名古屋市中区,栄１丁目２４番４０号,,23,106,4600008,,,,,,,2024-08-08,1,,,,,グリーンストーンキャピタル,0
1201,5180005020723,新規,0,2024-08-08,2024-08-08,一般社団法人人間コンシェルジュ協会,,その他の設立登記法人,愛知県,名古屋市昭和区,阿由知通３丁目１０番地の１栗山ビル２階,,23,107,4660027,,,,,,,2024-08-08,1,,,,,ニンゲンコンシェルジュキョウカイ,0
1206,5200001042792,新規,0,2024-08-08,2024-08-08,株式会社アルクア飛騨,,株式会社,岐阜県,下呂市,萩原町羽根１７９７番地１,,21,220,5092506,,,,,,,2024-08-08,1,,,,,アルクアヒダ,0
1210,5230001020481,新規,0,2024-08-08,2024-08-08,株式会社セレハート,,株式会社,富山県,富山市,牛島町１１番１‐５０１号,,16,201,9300858,,,,,,,2024-08-08,1,,,,,セレハート,0
1214,5250001020760,新規,0,2024-08-08,2024-08-08,株式会社みほり峠,,株式会社,山口県,山口市,大内中央１丁目８番１号,,35,203,7530252,,,,,,,2024-08-08,1,,,,,ミホリトウゲ,0
1215,5250003003549,新規,0,2024-08-08,2024-08-08,合同会社ただいま,,合同会社,山口県,萩市,大字堀内１２２番地２０,,35,204,7580057,,,,,,,2024-08-08,1,,,,,タダイマ,0
1222,5300001013866,新規,0,2024-08-08,2024-08-08,株式会社ひまわりＳＲオフィス,,株式会社,佐賀県,佐賀市,本庄町大字袋２４１番地３４,,41,201,8400023,,,,,,,2024-08-08,1,,,,,ヒマワリエスアールオフィス,0
1224,5310005008787,新規,0,2024-08-08,2024-08-08,一般社団法人ＳＯＵＹＡ,,その他の設立登記法人,長崎県,長崎市,岩川町７番１０－６０１号,,42,201,8528106,,,,,,,2024-08-08,1,,,,,ソウヤ,0
1256,5460105002295,新規,0,2024-08-08,2024-08-08,一般社団法人小寺管財,,その他の設立登記法人,北海道,河東郡上士幌町,字上士幌東２線２３０番地２７,,01,633,0801408,,,,,,,2024-08-08,1,,,,,コテラカンザイ,0
1259,5470003002693,新規,0,2024-08-08,2024-08-08,合同会社オフィスＵＫ,,合同会社,香川県,東かがわ市,引田２０５８番地１,,37,207,7692901,,,,,,,2024-08-08,1,,,,,オフィスユーケー,0
1264,5500003003300,新規,0,2024-08-08,2024-08-08,合同会社向灘柑橘財産管理組合,,合同会社,愛媛県,八幡浜市,向灘３０００番地１,,38,204,7960001,,,,,,,2024-08-08,1,,,,,ムカイナダカンキツザイサンカンリクミアイ,0
1265,5700150126684,新規,0,2024-08-08,2024-08-08,Ｓｉｎｏ　Ｌｉｏｎ　Ｈｏｌｄｉｎｇ　Ｌｉｍｉｔｅｄ,,外国会社等,,,,,,,,Ｔｒｉｄｅｎｔ　Ｃｈａｍｂｅｒ．Ｐ．０．Ｂｏｘ　１４６，Ｒｏａｄ　Ｔｏｗｎ　Ｔｏｒｔｏｌａ，Ｂ．Ｖ．Ｉ．,,,,,,2024-08-08,1,,,,,シノライオンホールデイングスリミテツド,0
1272,6010001247195,新規,0,2024-08-08,2024-08-08,ｅマインド株式会社,,株式会社,東京都,中央区,日本橋室町１丁目１１番１２号日本橋水野ビル７階,,13,102,1030022,,,,,,,2024-08-08,1,,,,,イマインド,0
1273,6010001247212,新規,0,2024-08-08,2024-08-08,ＢＵＺＰＯＳ株式会社,,株式会社,東京都,中央区,銀座１丁目１２番４号Ｎ＆ＥＢＬＤ．６Ｆ,,13,102,1040061,,,,,,,2024-08-08,1,,,,,バズポス,0
1274,6010001247253,新規,0,2024-08-08,2024-08-08,星天楽株式会社,,株式会社,東京都,文京区,白山１丁目６－４同栄マンション２階文京ＶＥＮＴＵＲＥＢＡＳＥ２０７号室,,13,105,1130001,,,,,,,2024-08-08,1,,,,,セイテンラク,0
1275,6010001247278,新規,0,2024-08-08,2024-08-08,株式会社Ｈｉａｎａｕ,,株式会社,東京都,中央区,銀座１丁目１２－４Ｎ＆ＥＢＬＤ，７階,,13,102,1040061,,,,,,,2024-08-08,1,,,,,ヒアナウ,0
1276,6010001247286,新規,0,2024-08-08,2024-08-08,ＬｉｆｅＤｉａｒｙ株式会社,,株式会社,東京都,中央区,銀座１丁目１２番４号Ｎ＆ＥＢＬＤ．６Ｆ,,13,102,1040061,,,,,,,2024-08-08,1,,,,,ライフダイアリ,0
1277,6010001247303,新規,0,2024-08-08,2024-08-08,Ｃａｌｌｕｎａ株式会社,,株式会社,東京都,千代田区,一番町１４番地２パークコート一番町７０６号,,13,101,1020082,,,,,,,2024-08-08,1,,,,,カルーナ,0
1283,6010005038608,新規,0,2024-08-08,2024-08-08,一般社団法人事業承継結婚推進機構,,その他の設立登記法人,東京都,千代田区,六番町５番地５,,13,101,1020085,,,,,,,2024-08-08,1,,,,,ジギョウショウケイケッコンスイシンキコウ,0
1284,6010005038665,新規,0,2024-08-08,2024-08-08,一般社団法人ＫＵＲＥＮＡＩ,,その他の設立登記法人,東京都,千代田区,丸の内１丁目４番１号東京共同会計事務所内,,13,101,1000005,,,,,,,2024-08-08,1,,,,,クレナイ,0
1286,6010401184237,新規,0,2024-08-08,2024-08-08,株式会社ＹｏｕＴ,,株式会社,東京都,港区,赤坂２丁目２１－２第１村嶋ビル３０１,,13,103,1070052,,,,,,,2024-08-08,1,,,,,ユート,0
1287,6010401184278,新規,0,2024-08-08,2024-08-08,株式会社ＦＣ　ＳＴＵＤＩＯ　ＪＡＰＡＮ,,株式会社,東京都,港区,南青山３丁目３番３号リビエラ南青山ビルＡ,,13,103,1070062,,,,,,,2024-08-08,1,,,,,エフシーストゥディオジャパン,0
1288,6010401184286,新規,0,2024-08-08,2024-08-08,クラスメソッドテクノロジーズ株式会社,,株式会社,東京都,港区,西新橋１丁目１番１号,,13,103,1050003,,,,,,,2024-08-08,1,,,,,クラスメソッドテクノロジーズ,0
1289,6010401184311,新規,0,2024-08-08,2024-08-08,Ｄｉｇｉｔａｌ　Ｗａｖｅ株式会社,,株式会社,東京都,港区,六本木４丁目３番１１号六本木ユニハウス２２３,,13,103,1060032,,,,,,,2024-08-08,1,,,,,デジタルウェーブ,0
1290,6010401184344,新規,0,2024-08-08,2024-08-08,株式会社ヴェリテ,,株式会社,東京都,港区,白金台５丁目１３番１８号,,13,103,1080071,,,,,,,2024-08-08,1,,,,,ヴェリテ,0
1292,6010403033202,新規,0,2024-08-08,2024-08-08,Ａｄｖｅｎｔｕｒｅ５合同会社,,合同会社,東京都,港区,西麻布１丁目２番１３号,,13,103,1060031,,,,,,,2024-08-08,1,,,,,アドベンチャーファイブ,0
1296,6010601065708,新規,0,2024-08-08,2024-08-08,ビジネスジェットサービス株式会社,,株式会社,東京都,江東区,潮見２丁目３番２３号,,13,108,1350052,,,,,,,2024-08-08,1,,,,,ビジネスジェットサービス,0
1303,6010905004650,新規,0,2024-08-08,2024-08-08,一般社団法人日本ダーニング協会,,その他の設立登記法人,東京都,世田谷区,東玉川２丁目３番１４号,,13,112,1580084,,,,,,,2024-08-08,1,,,,,ニホンダーニングキョウカイ,0
1309,6011001163754,新規,0,2024-08-08,2024-08-08,株式会社ザプリズム,,株式会社,東京都,渋谷区,元代々木町３９番３号－２０３,,13,113,1510062,,,,,,,2024-08-08,1,,,,,,0
1310,6011001163969,新規,0,2024-08-08,2024-08-08,バクソウ株式会社,,株式会社,東京都,渋谷区,渋谷２丁目１９－１５宮益坂ビルディング６０９,,13,113,1500002,,,,,,,2024-08-08,1,,,,,バクソウ,0
1311,6011003019715,新規,0,2024-08-08,2024-08-08,合同会社ＣｒｏｓｓＡＩ,,合同会社,東京都,渋谷区,渋谷２丁目１９－１５宮益坂ビルディング６０９,,13,113,1500002,,,,,,,2024-08-08,1,,,,,クロスエーアイ,0
1312,6011003019723,新規,0,2024-08-08,2024-08-08,合同会社Ｍｅｔａ　ｌａｎｄ,,合同会社,東京都,渋谷区,円山町５番５号Ｎａｖｉ渋谷Ｖ３階,,13,113,1500044,,,,,,,2024-08-08,1,,,,,メタランド,0
1313,6011003019756,新規,0,2024-08-08,2024-08-08,合同会社アポロン,,合同会社,東京都,渋谷区,円山町２番１６号,,13,113,1500044,,,,,,,2024-08-08,1,,,,,アポロン,0
1314,6011005010614,新規,0,2024-08-08,2024-08-08,一般財団法人榎本財団,,その他の設立登記法人,東京都,目黒区,青葉台１丁目６番５９号,,13,110,1530042,,,,,,,2024-08-08,1,,,,,エノモトザイダン,0
1323,6011701027523,新規,0,2024-08-08,2024-08-08,Ｑ電気株式会社,,株式会社,東京都,江戸川区,中葛西５丁目１４番１３号,,13,123,1340083,,,,,,,2024-08-08,1,,,,,キュウデンキ,0
1326,6011803006383,新規,0,2024-08-08,2024-08-08,リブレイ合同会社,,合同会社,東京都,葛飾区,青戸５丁目１２番４－５０２号Ｄ’クラディア青戸,,13,122,1250062,,,,,,,2024-08-08,1,,,,,リブレイ,0
1335,6020001158284,新規,0,2024-08-08,2024-08-08,株式会社神奈川建設,,株式会社,神奈川県,横浜市南区,南太田３丁目６－１６ダンディライオンビル２Ｆ,,14,105,2320006,,,,,,,2024-08-08,1,,,,,カナガワケンセツ,0
1336,6020001158383,新規,0,2024-08-08,2024-08-08,株式会社上内架設,,株式会社,神奈川県,川崎市川崎区,小田３丁目１番１７号,,14,131,2100846,,,,,,,2024-08-08,1,,,,,ウエウチカセツ,0
1337,6020001158433,新規,0,2024-08-08,2024-08-08,株式会社上宿,,株式会社,神奈川県,横浜市青葉区,あざみ野２丁目２１番地２６,,14,117,2250011,,,,,,,2024-08-08,1,,,,,カミジュク,0
1343,6021005013161,新規,0,2024-08-08,2024-08-08,社会保険労務士法人りんく,,その他の設立登記法人,神奈川県,相模原市中央区,共和４丁目１３番５号ディアコートサガミ１Ｆ,,14,152,2520234,,,,,,,2024-08-08,1,,,,,リンク,0
1349,6030001161849,新規,0,2024-08-08,2024-08-08,株式会社綾設備工業,,株式会社,埼玉県,さいたま市緑区,東浦和７丁目３番地２,,11,109,3360926,,,,,,,2024-08-08,1,,,,,アヤセツビコウギョウ,0
1354,6030005021801,新規,0,2024-08-08,2024-08-08,一般社団法人安心と住まいのＧメン,,その他の設立登記法人,埼玉県,さいたま市北区,本郷町１５７９番地,,11,102,3310802,,,,,,,2024-08-08,1,,,,,アンシントスマイノジーメン,0
1360,6040003025563,新規,0,2024-08-08,2024-08-08,ＹＫ合同会社,,合同会社,千葉県,流山市,松ケ丘５丁目６６９番地の２９グリーンキャッスル松ケ丘Ｃ－３,,12,220,2700141,,,,,,,2024-08-08,1,,,,,ワイケー,0
1361,6040003025588,新規,0,2024-08-08,2024-08-08,合同会社ＮＴＤ,,合同会社,千葉県,船橋市,本町１丁目１１－１０,,12,204,2730005,,,,,,,2024-08-08,1,,,,,エヌティディ,0
1365,6080003003268,新規,0,2024-08-08,2024-08-08,合同会社ＳＴ‐１,,合同会社,静岡県,静岡市清水区,下野東４番６号,,22,103,4240028,,,,,,,2024-08-08,1,,,,,エスティワン,0
1371,6100003007712,新規,0,2024-08-08,2024-08-08,守ぶどう園合同会社,,合同会社,長野県,中野市,大字中野２３７５番地,,20,211,3830013,,,,,,,2024-08-08,1,,,,,マモルブドウエン,0
1377,6120001267579,新規,0,2024-08-08,2024-08-08,株式会社ＡＣＭ関西,,株式会社,大阪府,大阪市淀川区,三津屋中２丁目１１番７号ライゼホビー０１号,,27,123,5320036,,,,,,,2024-08-08,1,,,,,エーシーエムカンサイ,0
1378,6120001267595,新規,0,2024-08-08,2024-08-08,株式会社菘,,株式会社,大阪府,大阪市東淀川区,小松１丁目９番３５号ランドマークＩＩ４０６号,00135885,27,114,5330004,,,,,,,2024-08-08,1,,,,,スズナ,0
1379,6120001267620,新規,0,2024-08-08,2024-08-08,ＮＤ株式会社,,株式会社,大阪府,大阪市阿倍野区,阿倍野筋３丁目１０番１号あべのベルタ２１５号,,27,119,5450052,,,,,,,2024-08-08,1,,,,,エヌディー,0
1383,6120003027254,新規,0,2024-08-08,2024-08-08,合同会社Ｆｅｅｌ　Ｆｏｒｃｅ,,合同会社,大阪府,大阪市北区,天満４丁目１５番８号,,27,127,5300043,,,,,,,2024-08-08,1,,,,,フィールフォース,0
1391,6120901049572,新規,0,2024-08-08,2024-08-08,株式会社ＥＪ　ｉｎｔｅｒｎａｔｉｏｎａｌ,,株式会社,大阪府,高槻市,大塚町３丁目２６番３－１１０５号,,27,207,5690034,,,,,,,2024-08-08,1,,,,,イージェイインターナショナル,0
1393,6122003002963,新規,0,2024-08-08,2024-08-08,合同会社ホイっと,,合同会社,大阪府,東大阪市,南上小阪１０－１３,,27,227,5770814,,,,,,,2024-08-08,1,,,,,ホイット,0
1398,6130001077647,新規,0,2024-08-08,2024-08-08,株式会社山一造園,,株式会社,京都府,亀岡市,東つつじケ丘曙台３丁目９番５号,,26,206,6210833,,,,,,,2024-08-08,1,,,,,ヤマイチゾウエン,0
1409,6140001135387,新規,0,2024-08-08,2024-08-08,株式会社ＳＬＩＣＥ１９４７,,株式会社,兵庫県,神戸市中央区,中山手通２丁目１３番８号,,28,110,6500004,,,,,,,2024-08-08,1,,,,,スライス,0
1410,6140001135395,新規,0,2024-08-08,2024-08-08,株式会社あわじＭ＆Ｓ,,株式会社,兵庫県,洲本市,五色町都志５２４－８,,28,205,6561301,,,,,,,2024-08-08,1,,,,,アワジエムアンドエス,0
1415,6140003020942,新規,0,2024-08-08,2024-08-08,ＴＨＡＮＧＰＨＡＴ合同会社,,合同会社,兵庫県,姫路市,砥堀６９６番地１,,28,201,6700802,,,,,,,2024-08-08,1,,,,,タンファット,0
1416,6140003020950,新規,0,2024-08-08,2024-08-08,合同会社なおジム,,合同会社,兵庫県,神戸市垂水区,福田４丁目４番２２－３０１号,,28,108,6550013,,,,,,,2024-08-08,1,,,,,ナオジム,0
1418,6150001027492,新規,0,2024-08-08,2024-08-08,羽雪株式会社,,株式会社,奈良県,奈良市,小西町５番地アルテ館２－Ｄ,,29,201,6308226,,,,,,,2024-08-08,1,,,,,ハユキ,0
1420,6160001026139,新規,0,2024-08-08,2024-08-08,株式会社ＬＥＯＮ　ＧＹＭ,,株式会社,滋賀県,近江八幡市,上田町１２４４番地６,,25,204,5230015,,,,,,,2024-08-08,1,,,,,レオンジム,0
1428,6180001162568,新規,0,2024-08-08,2024-08-08,株式会社ｖｉｓｃａｒｉａ,,株式会社,愛知県,名古屋市中村区,名駅４丁目２４番５号第２森ビル４０１,,23,105,4500002,,,,,,,2024-08-08,1,,,,,ビスカリア,0
1429,6180001162618,新規,0,2024-08-08,2024-08-08,株式会社ナカムラ技建,,株式会社,愛知県,犬山市,字青塚５８番地１１,,23,215,4840945,,,,,,,2024-08-08,1,,,,,ナカムラギケン,0
1430,6180001162634,新規,0,2024-08-08,2024-08-08,株式会社ＬＡＮＡＫＩＬＡ,,株式会社,愛知県,名古屋市中川区,八田町２６０８番地,,23,110,4540877,,,,,,,2024-08-08,1,,,,,ラナキラ,0
1431,6180001162650,新規,0,2024-08-08,2024-08-08,株式会社イワタ・オフィス,,株式会社,愛知県,一宮市,萩原町松山５６６番地の８,,23,203,4910000,,,,,,,2024-08-08,1,,,,,イワタオフィス,0
1432,6180001162667,新規,0,2024-08-08,2024-08-08,株式会社Ｔｒｉｇｇｅｒ,,株式会社,愛知県,名古屋市中村区,名駅南３丁目１２番１６号ルポゼ名駅南４０１号,,23,105,4500003,,,,,,,2024-08-08,1,,,,,トリガー,0
1433,6180001162691,新規,0,2024-08-08,2024-08-08,株式会社Ｙ’ｓ,,株式会社,愛知県,名古屋市緑区,諸の木２丁目７０２番地,,23,114,4580817,,,,,,,2024-08-08,1,,,,,ワイズ,0
1434,6180001162790,新規,0,2024-08-08,2024-08-08,ＥｔｈｉｃａｌＪａｐａｎ株式会社,,株式会社,愛知県,名古屋市西区,名駅２丁目３４番１７号セントラル名古屋１１０１号,,23,104,4510045,,,,,,,2024-08-08,1,,,,,エシカルジャパン,0
1437,6180003027174,新規,0,2024-08-08,2024-08-08,合同会社アツイキモチ,,合同会社,愛知県,一宮市,春明字東張渕３０番地,,23,203,4910003,,,,,,,2024-08-08,1,,,,,アツイキモチ,0
1438,6180003027199,新規,0,2024-08-08,2024-08-08,合同会社フロウ,,合同会社,愛知県,名古屋市瑞穂区,松栄町２丁目４―２,,23,108,4670025,,,,,,,2024-08-08,1,,,,,フロウ,0
1439,6180005020722,新規,0,2024-08-08,2024-08-08,一般社団法人結,,その他の設立登記法人,愛知県,名古屋市熱田区,金山町１丁目３番２号,,23,109,4560002,,,,,,,2024-08-08,1,,,,,ムスブ,0
1444,6190001031557,新規,0,2024-08-08,2024-08-08,株式会社サンズイ,,株式会社,三重県,亀山市,関町新所７５２番地１０,,24,210,5191111,,,,,,,2024-08-08,1,,,,,サンズイ,0
1451,6240001063628,新規,0,2024-08-08,2024-08-08,株式会社ＪＭＭ,,株式会社,広島県,福山市,箕島町５８１６番地１１３,,34,207,7210957,,,,,,,2024-08-08,1,,,,,ジェイエムエム,0
1455,6260005011390,新規,0,2024-08-08,2024-08-08,一般社団法人スペシャルオリンピックス日本・岡山,,その他の設立登記法人,岡山県,岡山市北区,磨屋町３－１０ＴＯＧＩＴＯＧＩ２Ｆ,,33,101,7000826,,,,,,,2024-08-08,1,,,,,スペシャルオリンピックスニッポンオカヤマ,0
1471,6310001019151,新規,0,2024-08-08,2024-08-08,株式会社佰膳,,株式会社,長崎県,大村市,原口町１０５０番地,,42,205,8560811,,,,,,,2024-08-08,1,,,,,ヒャクゼン,0
1472,6310005008786,新規,0,2024-08-08,2024-08-08,一般社団法人蒔野,,その他の設立登記法人,長崎県,長崎市,岩川町７番１０－６０１号,,42,201,8528106,,,,,,,2024-08-08,1,,,,,シノ,0
1475,6340001026715,新規,0,2024-08-08,2024-08-08,株式会社Ｆａｒｍｅｒｓ　Ｖｉｌｌａ　Ｕｍｅ,,株式会社,鹿児島県,志布志市,志布志町田之浦３００番地３,,46,221,8997212,,,,,,,2024-08-08,1,,,,,ファーマーズヴィラウメ,0
1486,6370001051603,新規,0,2024-08-08,2024-08-08,株式会社霜ばしら本舗大盛堂,,株式会社,宮城県,柴田郡大河原町,字西桜町３番地５,,04,321,9891273,,,,,,,2024-08-08,1,,,,,シモバシラホンポタイセイドウ,0
1500,6490001010844,新規,0,2024-08-08,2024-08-08,株式会社アイ・アール,,株式会社,高知県,宿毛市,和田１０５０番地,,39,208,7880052,,,,,,,2024-08-08,1,,,,,アイアール,0
1503,6700150126683,新規,0,2024-08-08,2024-08-08,Ｓｅａｓｏｎ　Ｏｎｅ　Ｄｅｖｅｌｏｐｍｅｎｔ　Ｌｉｍｉｔｅｄ,,外国会社等,,,,,,,,Ｒｏｏｍ１３０３，１３／Ｆ．，ＢｅｌｇｉａｎＢａｎｋＢｕｉｌｄｉｎｇ，７２１－７２５ＮａｔｈａｎＲｏａｄ，Ｍｏｎｇｋｏｋ，Ｋｏｗｌｏｏｎ，ＨｏｎｇＫｏｎｇ,,,,,,2024-08-08,1,,,,,シーズンワンテデイベロツプメントリミテツド,0
1506,7010001247252,新規,0,2024-08-08,2024-08-08,三発株式会社,,株式会社,東京都,文京区,白山１丁目６－４同栄マンション２階文京ＶＥＮＴＵＲＥＢＡＳＥ２０８号室,,13,105,1130001,,,,,,,2024-08-08,1,,,,,サンハツ,0
1507,7010001247285,新規,0,2024-08-08,2024-08-08,株式会社カケハシ,,株式会社,東京都,中央区,日本橋小網町３－１８－８０７,,13,102,1030016,,,,,,,2024-08-08,1,,,,,カケハシ,0
1508,7010001247302,新規,0,2024-08-08,2024-08-08,株式会社ＭＣＧ　Ｐａｒｔｎｅｒｓ,,株式会社,東京都,中央区,銀座１丁目１２番４号Ｎ＆Ｅ－ＢＬＤ．７階,,13,102,1040061,,,,,,,2024-08-08,1,,,,,エムシージーパートナーズ,0
1509,7010003044466,新規,0,2024-08-08,2024-08-08,合同会社ＹＬＮ,,合同会社,東京都,中央区,銀座１丁目１２番４号Ｎ＆ＥＢＬＤ．６Ｆ,,13,102,1040061,,,,,,,2024-08-08,1,,,,,ワイエルエヌ,0
1510,7010003044557,新規,0,2024-08-08,2024-08-08,合同会社ＡＬＭＡ　ＭＡＴＥＲ,,合同会社,東京都,中央区,銀座１丁目１２－４Ｎ＆ＥＢＬＤ．７階,,13,102,1040061,,,,,,,2024-08-08,1,,,,,アルママーテル,0
1513,7010005038607,新規,0,2024-08-08,2024-08-08,一般社団法人Ｇｒｅｅｎ＆Ｓｍｉｌｅ,,その他の設立登記法人,東京都,中央区,日本橋富沢町１１－１９,,13,102,1030006,,,,,,,2024-08-08,1,,,,,グリーンアンドスマイル,0
1514,7010005038664,新規,0,2024-08-08,2024-08-08,ＨＢＳエナジー１号ホールディングス一般社団法人,,その他の設立登記法人,東京都,千代田区,麹町２丁目８番地ＭＬＣ麹町ビル４階フィンポート税理士法人内,,13,101,1020083,,,,,,,2024-08-08,1,,,,,エイチビーエスエナジーイチゴウホールディングス,0
1521,7010401183832,新規,0,2024-08-08,2024-08-08,株式会社ＳＵＭ,,株式会社,東京都,港区,南青山３丁目１番３６号青山丸竹ビル６Ｆ,,13,103,1070062,,,,,,,2024-08-08,1,,,,,サム,0
1522,7010401184211,新規,0,2024-08-08,2024-08-08,ＩｎｆｉｎｉｔｙＣｌｕｂ株式会社,,株式会社,東京都,港区,六本木２丁目４番９号,,13,103,1060032,,,,,,,2024-08-08,1,,,,,インフィニティクラブ,0
1523,7010401184269,新規,0,2024-08-08,2024-08-08,株式会社Ｎｏｄｅ　ｃｏｒｅ,,株式会社,東京都,港区,北青山１丁目３番１号アールキューブ青山３階,,13,103,1070061,,,,,,,2024-08-08,1,,,,,ノードコア,0
1524,7010401184285,新規,0,2024-08-08,2024-08-08,株式会社長谷川企画,,株式会社,東京都,港区,虎ノ門１丁目１７番１号虎ノ門ヒルズビジネスタワー１６Ｆ,,13,103,1050001,,,,,,,2024-08-08,1,,,,,ハセガワキカク,0
1525,7010401184319,新規,0,2024-08-08,2024-08-08,Ｇａｌｌｅｒｙ空株式会社,,株式会社,東京都,港区,南青山２丁目２番１５号ウィン青山１２１４号,,13,103,1070062,,,,,,,2024-08-08,1,,,,,ギャラリークウ,0
1526,7010401184327,新規,0,2024-08-08,2024-08-08,Ｈｅａｖｅｎ　Ｓａｋｅ株式会社,,株式会社,東京都,港区,六本木７丁目７番７号トライセブンロッポンギ８階,,13,103,1060032,,,,,,,2024-08-08,1,,,,,ヘブンサケ,0
1528,7010405023423,新規,0,2024-08-08,2024-08-08,Ａ４ＪＰ　Ｍｉｎａｍｉ　Ａｏｙａｍａ特定目的会社,,その他の設立登記法人,東京都,港区,六本木１丁目６番１号泉ガーデンタワー１２階,,13,103,1060032,,,,,,,2024-08-08,1,,,,,エーフォージェイピーミナミアオヤマ,0
1529,7010501052697,新規,0,2024-08-08,2024-08-08,株式会社セカンドインフィニティ,,株式会社,東京都,台東区,浅草２丁目３番３号,,13,106,1110032,,,,,,,2024-08-08,1,,,,,セカンドインフィニティ,0
1530,7010503007542,新規,0,2024-08-08,2024-08-08,ＩＮＡＩリーガルコンサルティング合同会社,,合同会社,東京都,台東区,元浅草１丁目２０番５号工藤ビル３階,,13,106,1110041,,,,,,,2024-08-08,1,,,,,イナイリーガルコンサルティング,0
1531,7010601065707,新規,0,2024-08-08,2024-08-08,株式会社三才社,,株式会社,東京都,江東区,有明２丁目１－３－３０１０号室,,13,108,1350063,,,,,,,2024-08-08,1,,,,,サンサイシャ,0
1533,7010803005048,新規,0,2024-08-08,2024-08-08,合同会社ＮＮコンサルティング,,合同会社,東京都,大田区,南馬込４丁目１０番１１号グランヴェール南馬込１０５号室,,13,111,1430025,,,,,,,2024-08-08,1,,,,,エヌエヌコンサルティング,0
1536,7011001163761,新規,0,2024-08-08,2024-08-08,株式会社ＲＥＥＤＳ,,株式会社,東京都,渋谷区,円山町５番５号Ｎａｖｉ渋谷Ｖ３階,00135876,13,113,1500044,,,,,,,2024-08-08,1,,,,,リーズ,0
1538,7011003019714,新規,0,2024-08-08,2024-08-08,サンゼンエンジン合同会社,,合同会社,東京都,渋谷区,道玄坂１丁目１０番８号渋谷道玄坂東急ビル２Ｆ－Ｃ,,13,113,1500043,,,,,,,2024-08-08,1,,,,,サンゼンエンジン,0
1539,7011005010613,新規,0,2024-08-08,2024-08-08,一般財団法人榎本育英財団,,その他の設立登記法人,東京都,目黒区,青葉台１丁目６番５９号,,13,110,1530042,,,,,,,2024-08-08,1,,,,,エノモトイクエイザイダン,0
1543,7011103014747,新規,0,2024-08-08,2024-08-08,合同会社ＷＡＲＡＳＩＢＥ,,合同会社,東京都,新宿区,西新宿３丁目３番１３号西新宿水間ビル２Ｆ,,13,104,1600023,,,,,,,2024-08-08,1,,,,,ワラシベ,0
1547,7011501031022,新規,0,2024-08-08,2024-08-08,株式会社Ｃａｒｅ　Ｌｉｇｈｔ,,株式会社,東京都,荒川区,町屋１丁目３－１２－２０８,,13,118,1160001,,,,,,,2024-08-08,1,,,,,ケアライト,0
1549,7011603004413,新規,0,2024-08-08,2024-08-08,合同会社シュウワークス,,合同会社,東京都,練馬区,春日町６丁目１８番２１号,,13,120,1790074,,,,,,,2024-08-08,1,,,,,シュウワークス,0
1551,7011801044657,新規,0,2024-08-08,2024-08-08,株式会社Ｓ．ＨＯＭＥ,,株式会社,東京都,葛飾区,新小岩３丁目８番１号,,13,122,1240024,,,,,,,2024-08-08,1,,,,,エスホーム,0
1556,7012701018395,新規,0,2024-08-08,2024-08-08,株式会社Ｌｕｃｋｓ,,株式会社,東京都,東村山市,秋津町２丁目４番地３,,13,213,1890001,,,,,,,2024-08-08,1,,,,,ラックス,0
1558,7012703003065,新規,0,2024-08-08,2024-08-08,合同会社ユイック,,合同会社,東京都,東村山市,富士見町１丁目１２番地２ヴィラージュ・ヴェール１番館２０６,,13,213,1890024,,,,,,,2024-08-08,1,,,,,ユイック,0
1570,7020001158390,新規,0,2024-08-08,2024-08-08,ＡｎｙＳｔｙｌｅ株式会社,,株式会社,神奈川県,川崎市中原区,丸子通２丁目６８２ジュネス若狭２Ｆ,,14,133,2110006,,,,,,,2024-08-08,1,,,,,エニースタイル,0
1571,7020001158424,新規,0,2024-08-08,2024-08-08,ＲＯＣＫＥＴＳ株式会社,,株式会社,神奈川県,横浜市青葉区,松風台１番地１２ロイヤルシーズン青葉台ＥＡＳＴ８０３,,14,117,2270067,,,,,,,2024-08-08,1,,,,,ロケッツ,0
1572,7020001158432,新規,0,2024-08-08,2024-08-08,ｉＤＸ寺子屋ホールディングス株式会社,,株式会社,神奈川県,川崎市中原区,中丸子１２８１番地１１,,14,133,2110012,,,,,,,2024-08-08,1,,,,,アイディーエックステラコヤホールディングス,0
1574,7020003026570,新規,0,2024-08-08,2024-08-08,ｙｕｒａｉｔｏ合同会社,,合同会社,神奈川県,川崎市宮前区,馬絹２丁目３番５２－２０８号グランドコンシェルジュ宮崎台,,14,136,2160035,,,,,,,2024-08-08,1,,,,,ユライト,0
1575,7020003026629,新規,0,2024-08-08,2024-08-08,合同会社アンジー,,合同会社,神奈川県,横浜市鶴見区,本町通３丁目１５８番地１０,,14,101,2300048,,,,,,,2024-08-08,1,,,,,アンジー,0
1591,7040003025562,新規,0,2024-08-08,2024-08-08,合同会社シンヤ,,合同会社,千葉県,柏市,松ケ崎７４７番地１メゾン長妻１‐２０５号,,12,217,2770835,,,,,,,2024-08-08,1,,,,,シンヤ,0
1597,7050001055214,新規,0,2024-08-08,2024-08-08,株式会社９ｓｔａｇｅ,,株式会社,茨城県,取手市,東４丁目４番２４号,,08,217,3020005,,,,,,,2024-08-08,1,,,,,ナインステージ,0
1603,7070003005537,新規,0,2024-08-08,2024-08-08,合同会社ｈａｎｅｈａｎｅ,,合同会社,群馬県,太田市,由良町３５６番地１,,10,205,3730036,,,,,,,2024-08-08,1,,,,,,0
1614,7080403005078,新規,0,2024-08-08,2024-08-08,合同会社大久保管財,,合同会社,静岡県,磐田市,見付２２９６番地２,,22,211,4380086,,,,,,,2024-08-08,1,,,,,オオクボカンザイ,0
1617,7100001037702,新規,0,2024-08-08,2024-08-08,南信州薪センター株式会社,,株式会社,長野県,飯田市,龍江９０４３番地２,,20,205,3992221,,,,,,,2024-08-08,1,,,,,ミナミシンシュウマキセンター,0
1619,7100003007703,新規,0,2024-08-08,2024-08-08,合同会社まち活ぷらす,,合同会社,長野県,岡谷市,中央町２丁目４番２５号,,20,204,3940027,,,,,,,2024-08-08,1,,,,,マチカツプラス,0
1626,7120001267512,新規,0,2024-08-08,2024-08-08,株式会社Ａｇｒｉ　Ｃｏｎｎｅｃｔ　Ｈａｌ,,株式会社,大阪府,大阪市都島区,友渕町２丁目８番７－３１２都島ロイヤルハイツ３１２号室,,27,102,5340016,,,,,,,2024-08-08,1,,,,,アグリコネクトハル,0
1627,7120001267578,新規,0,2024-08-08,2024-08-08,株式会社久宝寺緑地パートナーズ,,株式会社,大阪府,大阪市西区,九条南２丁目７番２３号,,27,106,5500025,,,,,,,2024-08-08,1,,,,,キュウホウジリョクチパートナーズ,0
1628,7120001267594,新規,0,2024-08-08,2024-08-08,株式会社奏,,株式会社,大阪府,大阪市東淀川区,小松１丁目９番３５号ランドマークＩＩ４０６号,00135884,27,114,5330004,,,,,,,2024-08-08,1,,,,,カナデ,0
1630,7120003027088,新規,0,2024-08-08,2024-08-08,合同会社はなびし,,合同会社,大阪府,枚方市,松丘町１７番２５号,,27,210,5730012,,,,,,,2024-08-08,1,,,,,ハナビシ,0
1631,7120003027261,新規,0,2024-08-08,2024-08-08,合同会社Ｋｉｎａｃｏｓ,,合同会社,大阪府,大阪市城東区,関目１丁目６番２５号,,27,118,5360008,,,,,,,2024-08-08,1,,,,,キナコス,0
1632,7120005024463,新規,0,2024-08-08,2024-08-08,特定非営利活動法人すくすくおおさか,,その他の設立登記法人,大阪府,大阪市天王寺区,四天王寺１丁目１２－２４,,27,109,5430051,,,,,,,2024-08-08,1,,,,,スクスクオオサカ,0
1633,7120005024488,新規,0,2024-08-08,2024-08-08,一般社団法人わしん,,その他の設立登記法人,大阪府,大阪市西区,南堀江２丁目１０番１０号,,27,106,5500015,,,,,,,2024-08-08,1,,,,,ワシン,0
1634,7120103005984,新規,0,2024-08-08,2024-08-08,合同会社大江貿易,,合同会社,大阪府,堺市堺区,柳之町西１丁３番１５号,,27,141,5900930,,,,,,,2024-08-08,1,,,,,ダジャンボウエキ,0
1643,7130001077670,新規,0,2024-08-08,2024-08-08,株式会社ＬＥＡＰ,,株式会社,京都府,京都市西京区,牛ケ瀬林ノ本町２９番地,,26,111,6158031,,,,,,,2024-08-08,1,,,,,リープ,0
1644,7130001077679,新規,0,2024-08-08,2024-08-08,株式会社双竜建物管理,,株式会社,京都府,京都市左京区,静市市原町１０９５番地１１,,26,103,6011123,,,,,,,2024-08-08,1,,,,,ソウリュウタテモノカンリ,0
1657,7140003020933,新規,0,2024-08-08,2024-08-08,合同会社Ｓｐｉｃａ,,合同会社,兵庫県,神戸市東灘区,森北町５丁目１－１１－２０２,,28,101,6580001,,,,,,,2024-08-08,1,,,,,スピカ,0
1658,7140003020941,新規,0,2024-08-08,2024-08-08,ＧＨ合同会社,,合同会社,兵庫県,尼崎市,西立花町２丁目１７番９号ベップハイツ２０２,,28,202,6600054,,,,,,,2024-08-08,1,,,,,ジーエイチ,0
1660,7150001027483,新規,0,2024-08-08,2024-08-08,株式会社ＣＨＯＩＣＥ,,株式会社,奈良県,奈良市,六条西３丁目２３番３２号,,29,201,6308044,,,,,,,2024-08-08,1,,,,,チョイス,0
1666,7180001162716,新規,0,2024-08-08,2024-08-08,株式会社屋根一,,株式会社,愛知県,大府市,共西町２丁目２４２番地,,23,223,4740062,,,,,,,2024-08-08,1,,,,,ヤネイチ,0
1677,7210001019870,新規,0,2024-08-08,2024-08-08,株式会社ジャスト精工,,株式会社,福井県,丹生郡越前町,気比庄３１号７番地１,,18,423,9160133,,,,,,,2024-08-08,1,,,,,ジャストセイコウ,0
1693,7300003002163,新規,0,2024-08-08,2024-08-08,合同会社アミュール,,合同会社,佐賀県,鹿島市,大字納富分１１５３番地１,,41,207,8491312,,,,,,,2024-08-08,1,,,,,アミュール,0
1695,7310003004828,新規,0,2024-08-08,2024-08-08,合同会社ＥＡＳＴ　ｏｎｅ　ＨＯＭＥ,,合同会社,長崎県,雲仙市,瑞穂町西郷丁１番地８８,,42,213,8591205,,,,,,,2024-08-08,1,,,,,イーストワンホーム,0
1696,7310005008785,新規,0,2024-08-08,2024-08-08,一般社団法人想野,,その他の設立登記法人,長崎県,長崎市,岩川町７番１０－６０１号,,42,201,8528106,,,,,,,2024-08-08,1,,,,,ソウヤ,0
1704,7340003004569,新規,0,2024-08-08,2024-08-08,合同会社ａｍｔ,,合同会社,鹿児島県,鹿児島市,西田１丁目１１－１０－小倉ハイツ２０２号,,46,201,8900046,,,,,,,2024-08-08,1,,,,,エーエムティー,0
1717,7370001051619,新規,0,2024-08-08,2024-08-08,株式会社ＷＡＴＡＲＵ,,株式会社,宮城県,名取市,飯野坂３丁目１番１１号,,04,207,9811225,,,,,,,2024-08-08,1,,,,,ワタル,0
1735,7470001020340,新規,0,2024-08-08,2024-08-08,株式会社ベルストーン,,株式会社,香川県,観音寺市,新田町８６８番地１,,37,205,7680033,,,,,,,2024-08-08,1,,,,,ベルストーン,0
1739,7500005008725,新規,0,2024-08-08,2024-08-08,行政書士法人アカンパニー,,その他の設立登記法人,愛媛県,松山市,古川西２丁目３番１８号－３Ｆ,,38,201,7900944,,,,,,,2024-08-08,1,,,,,アカンパニー,0
1740,7700150126682,新規,0,2024-08-08,2024-08-08,ＦＡＶＯＲＩ，ＬＬＣ,,外国会社等,,,,,,,,７００　Ｒｉｃｈａｒｄｓ　Ｓｔｒｅｅｔ，Ｓｕｉｔｅ　２４１０，Ｈｏｎｏｌｕｌｕ，ＨＩ　９６８１３,,,,,,2024-08-08,1,,,,,フアボリエルエルシー,0
1746,8010001247227,新規,0,2024-08-08,2024-08-08,株式会社ＭＫトラスト・マネジメント,,株式会社,東京都,中央区,銀座１丁目２２番１１号銀座大竹ビジデンス２Ｆ,,13,102,1040061,,,,,,,2024-08-08,1,,,,,エムケートラストマネジメント,0
1748,8010005038663,新規,0,2024-08-08,2024-08-08,メープルインフラホールディングス一般社団法人,,その他の設立登記法人,東京都,千代田区,麹町２丁目８番地ＭＬＣ麹町ビル４階フィンポート税理士法人内,,13,101,1020083,,,,,,,2024-08-08,1,,,,,メープルインフラホールディングス,0
1749,8010401184268,新規,0,2024-08-08,2024-08-08,ダイナミックソリューショングループ株式会社,,株式会社,東京都,港区,虎ノ門１丁目１７－１虎ノ門ビジネスタワー１５階,,13,103,1050001,,,,,,,2024-08-08,1,,,,,ダイナミックソリューショングループ,0
1750,8010401184276,新規,0,2024-08-08,2024-08-08,株式会社アルジーファクトリー,,株式会社,東京都,港区,西新橋２丁目１１番８号,,13,103,1050003,,,,,,,2024-08-08,1,,,,,アルジーファクトリー,0
1751,8010401184292,新規,0,2024-08-08,2024-08-08,デジタルグリッドアセットマネジメント株式会社,,株式会社,東京都,港区,赤坂１丁目７番１号,,13,103,1070052,,,,,,,2024-08-08,1,,,,,デジタルグリッドアセットマネジメント,0
1752,8010401184318,新規,0,2024-08-08,2024-08-08,株式会社Ｇｒａｎｄ　Ｂｌｅｕ＆Ｃｏ．,,株式会社,東京都,港区,六本木５丁目１６番２３－１０１号,,13,103,1060032,,,,,,,2024-08-08,1,,,,,グランブルーアンドコー,0
1753,8010401184326,新規,0,2024-08-08,2024-08-08,ＭＣＰ３２株式会社,,株式会社,東京都,港区,元赤坂１丁目１番８号株式会社赤坂国際会計内,,13,103,1070051,,,,,,,2024-08-08,1,,,,,エムシーピースリーツー,0
1754,8010403033191,新規,0,2024-08-08,2024-08-08,合同会社パドラーインベストメント,,合同会社,東京都,港区,北青山３丁目５番１４号７階,,13,103,1070061,,,,,,,2024-08-08,1,,,,,パドラーインベストメント,0
1755,8010403033209,新規,0,2024-08-08,2024-08-08,Ｃａｎａｌ　Ｓｉｄｅ合同会社,,合同会社,東京都,港区,西新橋１丁目２２番５号６階,,13,103,1050003,,,,,,,2024-08-08,1,,,,,カナルサイド,0
1756,8010405023422,新規,0,2024-08-08,2024-08-08,一般社団法人日本女性芸術家協会,,その他の設立登記法人,東京都,港区,芝２丁目１６－９芝ＹＳビル３階,,13,103,1050014,,,,,,,2024-08-08,1,,,,,ニホンジョセイゲイジュツカキョウカイ,0
1768,8010905004649,新規,0,2024-08-08,2024-08-08,一般社団法人テロワール・アンド・トラディション・ジャパン,,その他の設立登記法人,東京都,世田谷区,弦巻２丁目４０番１６号,,13,112,1540016,,,,,,,2024-08-08,1,,,,,テロワールアンドトラディションジャパン,0
1772,8011001163752,新規,0,2024-08-08,2024-08-08,株式会社ジテキ,,株式会社,東京都,渋谷区,道玄坂１丁目１０番８号渋谷道玄坂東急ビル２Ｆ－Ｃ,,13,113,1500043,,,,,,,2024-08-08,1,,,,,ジテキ,0
1773,8011001163760,新規,0,2024-08-08,2024-08-08,シェルパス株式会社,,株式会社,東京都,目黒区,自由が丘１丁目３番１９号３０５,,13,110,1520035,,,,,,,2024-08-08,1,,,,,シェルパス,0
1774,8011001163868,新規,0,2024-08-08,2024-08-08,株式会社ｂｒｉｄｇｅ,,株式会社,東京都,渋谷区,恵比寿南１丁目１１番１５号恵比寿ＫＤビル５階,,13,113,1500022,,,,,,,2024-08-08,1,,,,,ブリッジ,0
1775,8011001163876,新規,0,2024-08-08,2024-08-08,株式会社ＳＭＫＳ,,株式会社,東京都,渋谷区,代々木５丁目１８番４号,,13,113,1510053,,,,,,,2024-08-08,1,,,,,エスエムケーエス,0
1776,8011001163884,新規,0,2024-08-08,2024-08-08,ＡＩタレントフォース株式会社,,株式会社,東京都,渋谷区,渋谷１丁目３番１５号,,13,113,1500002,,,,,,,2024-08-08,1,,,,,エーアイタレントフォース,0
1780,8011101108351,新規,0,2024-08-08,2024-08-08,ＤＥＭＬ株式会社,,株式会社,東京都,新宿区,神楽坂６丁目８番地文悠ビル７階,,13,104,1620825,,,,,,,2024-08-08,1,,,,,ディメル,0
1786,8011401026336,新規,0,2024-08-08,2024-08-08,日本久智グローバル株式会社,,株式会社,東京都,板橋区,弥生町３番３号メゾトーネＭ３０１号室,,13,119,1730021,,,,,,,2024-08-08,1,,,,,ニホンヒサトモ,0
1787,8011403004463,新規,0,2024-08-08,2024-08-08,合同会社Ｃ‐ｓｅｐｔ,,合同会社,東京都,板橋区,宮本町２４－５ＭＡＸＩＶ板橋本町１０２号室,,13,119,1740054,,,,,,,2024-08-08,1,,,,,シーセプト,0
1788,8011501031021,新規,0,2024-08-08,2024-08-08,東＿商事株式会社,00135872,株式会社,東京都,北区,浮間１丁目１番１４号リムジンビル２１０,,13,117,1150051,,,,,,,2024-08-08,1,,,,,トウシンショウジ,0
1792,8011603004412,新規,0,2024-08-08,2024-08-08,合同会社ＯＦＦＩＣＥ６３４,,合同会社,東京都,練馬区,関町南４丁目１２番５号,,13,120,1770053,,,,,,,2024-08-08,1,,,,,オフィスロクサンヨン,0
1794,8011801044664,新規,0,2024-08-08,2024-08-08,株式会社Ｗｏｎｄｅｒ,,株式会社,東京都,足立区,島根２丁目１８－１２ドミールヤマト２－２０２,,13,121,1210815,,,,,,,2024-08-08,1,,,,,ワンダー,0
1803,8012403006706,新規,0,2024-08-08,2024-08-08,ＩＰ　Ａｍｐｌｉｆｙ合同会社,,合同会社,東京都,小金井市,梶野町４丁目１０－３０,,13,210,1840002,,,,,,,2024-08-08,1,,,,,アイピーアンプリファイ,0
1806,8013301052949,新規,0,2024-08-08,2024-08-08,株式会社ＦａｎＰｌａｃｅＣｒｅａｔｅ,,株式会社,東京都,豊島区,西池袋１丁目１０番１５号,,13,116,1710021,,,,,,,2024-08-08,1,,,,,ファンプレイスクリエイト,0
1807,8013301052957,新規,0,2024-08-08,2024-08-08,株式会社Ｗｏｎｆｉｃｔｉｏｎ,,株式会社,東京都,豊島区,目白３丁目２８番１２号ハウスフォーラム目白１０１号,,13,116,1710031,,,,,,,2024-08-08,1,,,,,ウォンフィクション,0
1809,8020001158431,新規,0,2024-08-08,2024-08-08,株式会社ゾルカ,,株式会社,神奈川県,横浜市旭区,中希望が丘１０６番地１２ＫＫビル希望ヶ丘３Ｆ,,14,112,2410825,,,,,,,2024-08-08,1,,,,,ゾルカ,0
1810,8020003026677,新規,0,2024-08-08,2024-08-08,ＣＣＬ　Ｐａｒｔｎｅｒｓ合同会社,,合同会社,神奈川県,横浜市中区,南仲通１丁目１３番地９０２号室,,14,104,2310006,,,,,,,2024-08-08,1,,,,,シーシーエルパートナーズ,0
1813,8021001082951,新規,0,2024-08-08,2024-08-08,株式会社ＯＮＥ’ｚ,,株式会社,神奈川県,平塚市,老松町１番１７－５０５号,,14,203,2540033,,,,,,,2024-08-08,1,,,,,ワンズ,0
1819,8030001161847,新規,0,2024-08-08,2024-08-08,株式会社ＡＡＡ,,株式会社,埼玉県,さいたま市桜区,田島２丁目３番８号プレディーナ２０２,,11,106,3380837,,,,,,,2024-08-08,1,,,,,スリーエー,0
1820,8030001161855,新規,0,2024-08-08,2024-08-08,株式会社偉業商事,,株式会社,埼玉県,蓮田市,関山４丁目１番１９号,,11,238,3490121,,,,,,,2024-08-08,1,,,,,イギョウショウジ,0
1823,8030003024894,新規,0,2024-08-08,2024-08-08,あかばね資産管理合同会社,,合同会社,埼玉県,さいたま市中央区,新中里２丁目１４番２３号,,11,105,3380011,,,,,,,2024-08-08,1,,,,,アカバネシサンカンリ,0
1828,8040001134876,新規,0,2024-08-08,2024-08-08,株式会社上山メディカルエンジニアリング,,株式会社,千葉県,船橋市,前貝塚町１８７番地１０,,12,204,2730042,,,,,,,2024-08-08,1,,,,,カミヤマエンジニアリング,0
1829,8040001134892,新規,0,2024-08-08,2024-08-08,プラユスセレクト株式会社,,株式会社,千葉県,船橋市,高根台１丁目２番１号,,12,204,2740065,,,,,,,2024-08-08,1,,,,,プラユスセレクト,0
1839,8070001042052,新規,0,2024-08-08,2024-08-08,株式会社Ｌｉａ,,株式会社,群馬県,高崎市,藤塚町５１番地６,,10,202,3700875,,,,,,,2024-08-08,1,,,,,リア,0
1840,8070001042069,新規,0,2024-08-08,2024-08-08,ＩＪＡＰＡＮ株式会社,,株式会社,群馬県,伊勢崎市,昭和町１６５６－５伊勢崎ヴィレッジ２,,10,204,3720014,,,,,,,2024-08-08,1,,,,,,0
1843,8070003005536,新規,0,2024-08-08,2024-08-08,ｅＨＯＮＤＡ合同会社,,合同会社,群馬県,伊勢崎市,喜多町１２５－２,,10,204,3720056,,,,,,,2024-08-08,1,,,,,イーホンダ,0
1853,8100001037726,新規,0,2024-08-08,2024-08-08,株式会社テクノ,,株式会社,長野県,諏訪市,小和田２０番１号,,20,206,3920024,,,,,,,2024-08-08,1,,,,,テクノ,0
1854,8110001038632,新規,0,2024-08-08,2024-08-08,株式会社北越企画,,株式会社,新潟県,新潟市江南区,江口５４６７番地１,,15,104,9500101,,,,,,,2024-08-08,1,,,,,ホクエツキカク,0
1860,8110005017120,新規,0,2024-08-08,2024-08-08,トーカンマンション上大川前管理組合法人,,その他の設立登記法人,新潟県,新潟市中央区,上大川前通３番町１３０番地１,,15,103,9518068,,,,,,,2024-08-08,1,,,,,トーカンマンションカミオオカワマエ,0
1867,8120001267528,新規,0,2024-08-08,2024-08-08,大成株式会社,,株式会社,大阪府,大阪市東住吉区,矢田４丁目１９番１号,,27,121,5460023,,,,,,,2024-08-08,1,,,,,タイセイ,0
1868,8120001267602,新規,0,2024-08-08,2024-08-08,株式会社ブルーモンクコンサルティング,,株式会社,大阪府,大阪市阿倍野区,阪南町３丁目１－８,,27,119,5450021,,,,,,,2024-08-08,1,,,,,ブルーモンクコンサルティング,0
1872,8120003027260,新規,0,2024-08-08,2024-08-08,合同会社ＵＣＨＲＯＮＩＡ,,合同会社,大阪府,大阪市天王寺区,大道２丁目１２番２２号グランドール天王寺３０２号,,27,109,5430052,,,,,,,2024-08-08,1,,,,,ユークロニア,0
1873,8120005024470,新規,0,2024-08-08,2024-08-08,一般社団法人ワールド・アーカイブス,,その他の設立登記法人,大阪府,大阪市北区,梅田２丁目２－２ヒルトンプラザウエストオフィスタワー１９Ｆ,,27,127,5300001,,,,,,,2024-08-08,1,,,,,ワールドアーカイブス,0
1874,8120005024487,新規,0,2024-08-08,2024-08-08,一般社団法人Ｍｅｄｉｃａｌ　Ｓｏｌｕｔｉｏｎ　Ｊａｐａｎ,,その他の設立登記法人,大阪府,大阪市北区,堂島２丁目２番８－３６０４号,,27,127,5300003,,,,,,,2024-08-08,1,,,,,メディカルソリューションジャパン,0
1880,8120901049579,新規,0,2024-08-08,2024-08-08,株式会社ＴｔｏＴ　ＭＩＲＡＩＥ,,株式会社,大阪府,吹田市,五月が丘北５番３－５０６号,,27,205,5650834,,,,,,,2024-08-08,1,,,,,トトトミライエ,0
1881,8122003002961,新規,0,2024-08-08,2024-08-08,西原パートナーズ合同会社,,合同会社,大阪府,東大阪市,衣摺３丁目１０－６,,27,227,5770827,,,,,,,2024-08-08,1,,,,,ニシハラパートナーズ,0
1884,8130001077637,新規,0,2024-08-08,2024-08-08,ＰＡＩＲ株式会社,,株式会社,京都府,京都市左京区,下鴨高木町２５番地,,26,103,6060864,,,,,,,2024-08-08,1,,,,,ペア,0
1886,8130003009761,新規,0,2024-08-08,2024-08-08,Ｔａｓｕｋｕ合同会社,,合同会社,京都府,宇治市,小倉町南浦１５－６２,,26,204,6110042,,,,,,,2024-08-08,1,,,,,タスク,0
1890,8140001135419,新規,0,2024-08-08,2024-08-08,株式会社シーフロント,,株式会社,兵庫県,神戸市中央区,海岸通４番地新明海ビル６０２号室,,28,110,6500024,,,,,,,2024-08-08,1,,,,,シーフロント,0
1895,8160001026145,新規,0,2024-08-08,2024-08-08,株式会社ユイコンタクト,,株式会社,滋賀県,守山市,播磨田町４４７番地５,,25,207,5240012,,,,,,,2024-08-08,1,,,,,ユイコンタクト,0
1903,8180001162599,新規,0,2024-08-08,2024-08-08,株式会社柳希,,株式会社,愛知県,名古屋市西区,名西１丁目２２番１号,,23,104,4510064,,,,,,,2024-08-08,1,,,,,ヤナキ,0
1904,8180001162649,新規,0,2024-08-08,2024-08-08,株式会社マーケティングリンク,,株式会社,愛知県,名古屋市名東区,神丘町１丁目４０番地の３,,23,115,4650083,,,,,,,2024-08-08,1,,,,,マーケティングリンク,0
1905,8180001162764,新規,0,2024-08-08,2024-08-08,ＧＲＩＰ株式会社,,株式会社,愛知県,名古屋市中村区,名駅３丁目２６番６号,,23,105,4500002,,,,,,,2024-08-08,1,,,,,グリップ,0
1906,8180001162789,新規,0,2024-08-08,2024-08-08,株式会社ムーブ,,株式会社,愛知県,名古屋市中村区,名駅４丁目２４番５号第２森ビル４０１,,23,105,4500002,,,,,,,2024-08-08,1,,,,,ムーブ,0
1913,8180003027206,新規,0,2024-08-08,2024-08-08,合同会社冨着工業,,合同会社,愛知県,名古屋市中区,新栄２丁目４０番６号グランルクレ新栄ウエスト３０４号,,23,106,4600007,,,,,,,2024-08-08,1,,,,,フチャクコウギョウ,0
1916,8180005020720,新規,0,2024-08-08,2024-08-08,一般社団法人東郷子ども食堂,,その他の設立登記法人,愛知県,愛知郡東郷町,大字春木字下鏡田１８４番地,,23,302,4700162,,,,,,,2024-08-08,1,,,,,トウゴウコドモショクドウ,0
1934,8240001063551,新規,0,2024-08-08,2024-08-08,株式会社原田,,株式会社,広島県,広島市中区,大手町３丁目１－３ＩＴ大手町ビル６階,,34,101,7300051,,,,,,,2024-08-08,1,,,,,ハラダ,0
1948,8310001019158,新規,0,2024-08-08,2024-08-08,株式会社蒔野,,株式会社,長崎県,長崎市,岩川町７番１０－６０１号,,42,201,8528106,,,,,,,2024-08-08,1,,,,,シノ,0
1953,8340001026713,新規,0,2024-08-08,2024-08-08,株式会社アップトリム,,株式会社,鹿児島県,鹿児島市,西別府町３２８５番地２１,,46,201,8900033,,,,,,,2024-08-08,1,,,,,アップトリム,0
1960,8350003004724,新規,0,2024-08-08,2024-08-08,川越コンサルティング合同会社,,合同会社,宮崎県,宮崎市,清武町新町１丁目６番地５,,45,201,8891611,,,,,,,2024-08-08,1,,,,,カワゴエコンサルティング,0
1964,8360003014210,新規,0,2024-08-08,2024-08-08,合同会社浮屋,,合同会社,沖縄県,糸満市,字座波１０９２番地の２,,47,210,9010314,,,,,,,2024-08-08,1,,,,,ウキヤ,0
1970,8410001013910,新規,0,2024-08-08,2024-08-08,株式会社Ｌ＆Ａ,,株式会社,秋田県,能代市,字芝童森９番地６２,,05,202,0160872,,,,,,,2024-08-08,1,,,,,エルアンドエー,0
1979,8470001020315,新規,0,2024-08-08,2024-08-08,ＳＡＮＥＩホールディングス株式会社,,株式会社,香川県,観音寺市,柞田町甲５番地,,37,205,7680040,,,,,,,2024-08-08,1,,,,,サンエイホールディングス,0
1980,8500003003297,新規,0,2024-08-08,2024-08-08,合同会社Ｍｏｎ　Ｔｒｅｓｏｒ,,合同会社,愛媛県,新居浜市,篠場町４番１５号,,38,205,7920836,,,,,,,2024-08-08,1,,,,,モントレゾール,0
1984,8700150126681,新規,0,2024-08-08,2024-08-08,Ｂａｋｋｅｒ　Ｗｉｎｄ　Ｂｅｈｅｅｒ　Ｂ．Ｖ．,,外国会社等,,,,,,,,ネーデルランド王国アムステルダム　コルテアウデルケルカダイク　１Ｕ２,,,,,,2024-08-08,1,,,,,バツカーウインドベルヒールブイヴイ,0
1990,9010003044506,新規,0,2024-08-08,2024-08-08,合同会社高橋商事,,合同会社,東京都,中央区,晴海３丁目１３－２,,13,102,1040053,,,,,,,2024-08-08,1,,,,,タカハシショウジ,0
1991,9010003044539,新規,0,2024-08-08,2024-08-08,Ｓｈｉｎ　Ｈａｙａｍｉ合同会社,,合同会社,東京都,中央区,銀座１丁目２２番１１号銀座大竹ビジデンス２Ｆ,,13,102,1040061,,,,,,,2024-08-08,1,,,,,シンハヤミ,0
1995,9010401184218,新規,0,2024-08-08,2024-08-08,Ｄｅ　Ｃａｐｉｔａｌ　Ｄｉｇｉｔａｌ株式会社,,株式会社,東京都,港区,六本木７丁目１５番７号,,13,103,1060032,,,,,,,2024-08-08,1,,,,,ディキャピタルデジタル,0
1996,9010401184275,新規,0,2024-08-08,2024-08-08,レガロ高輪株式会社,,株式会社,東京都,港区,高輪３丁目２１番７号レガロ高輪５０１,,13,103,1080074,,,,,,,2024-08-08,1,,,,,レガロタカナワ,0
1997,9010401184300,新規,0,2024-08-08,2024-08-08,株式会社ＳＲＳコーポレート,,株式会社,東京都,港区,虎ノ門５丁目３番１４号,,13,103,1050001,,,,,,,2024-08-08,1,,,,,エスアールエスコーポレート,0
1998,9010401184309,新規,0,2024-08-08,2024-08-08,株式会社青山編集室,,株式会社,東京都,港区,南青山５丁目１１番２４号グレイセス２階,,13,103,1070062,,,,,,,2024-08-08,1,,,,,アオヤマヘンシュウシツ,0
1999,9010401184317,新規,0,2024-08-08,2024-08-08,ワイエム・コンサルト株式会社,,株式会社,東京都,港区,新橋２丁目５番１号ＥＸＣＥＬ新橋,,13,103,1050004,,,,,,,2024-08-08,1,,,,,ワイエムコンサルト,0
2000,9010401184325,新規,0,2024-08-08,2024-08-08,ＭＣＰ３１株式会社,,株式会社,東京都,港区,元赤坂１丁目１番８号株式会社赤坂国際会計内,,13,103,1070051,,,,,,,2024-08-08,1,,,,,エムシーピースリーワン,0
2005,9010403033182,新規,0,2024-08-08,2024-08-08,合同会社北陸ＧＨ,,合同会社,東京都,港区,南青山４丁目１番６号,,13,103,1070062,,,,,,,2024-08-08,1,,,,,ホクリクジーエイチ,0
2006,9010403033208,新規,0,2024-08-08,2024-08-08,Ｉｃｈｉｇａｙａ合同会社,,合同会社,東京都,港区,西新橋１丁目２２番５号６階,,13,103,1050003,,,,,,,2024-08-08,1,,,,,イチガヤ,0
2007,9010501052729,新規,0,2024-08-08,2024-08-08,三友株式会社,,株式会社,東京都,台東区,蔵前４丁目１６－６－６０１,,13,106,1110051,,,,,,,2024-08-08,1,,,,,サンユウ,0
2017,9010901055769,新規,0,2024-08-08,2024-08-08,株式会社ＣＹＢ,,株式会社,東京都,世田谷区,桜丘４丁目２４番２３号,,13,112,1560054,,,,,,,2024-08-08,1,,,,,シーワイビー,0
2024,9011001163751,新規,0,2024-08-08,2024-08-08,ＤＡＩＷＡ株式会社,,株式会社,東京都,目黒区,中央町２丁目３６番１５号,,13,110,1520001,,,,,,,2024-08-08,1,,,,,ダイワ,0
2025,9011001163801,新規,0,2024-08-08,2024-08-08,株式会社星影,,株式会社,東京都,目黒区,青葉台１丁目２３番１４号３０１室,,13,110,1530042,,,,,,,2024-08-08,1,,,,,ホシカゲ,0
2026,9011003019761,新規,0,2024-08-08,2024-08-08,ｈｉｒａｓｔａｒ合同会社,,合同会社,東京都,渋谷区,道玄坂１丁目１０番８号渋谷道玄坂東急ビル２Ｆ－Ｃ,,13,113,1500043,,,,,,,2024-08-08,1,,,,,ヒラスター,0
2037,9011101108326,新規,0,2024-08-08,2024-08-08,株式会社Ｄｅｓｔｉｎａｔｉｏｎ　Ｌａｂｏ,,株式会社,東京都,新宿区,西新宿３丁目３番１３号,,13,104,1600023,,,,,,,2024-08-08,1,,,,,デスティネーションラボ,0
2038,9011101108334,新規,0,2024-08-08,2024-08-08,Ｃ‐ＦＯＲＣＥ株式会社,,株式会社,東京都,新宿区,四谷２丁目１２番５号四谷ＩＳＹビル４Ｆ,,13,104,1600004,,,,,,,2024-08-08,1,,,,,シーフォース,0
2040,9011401026335,新規,0,2024-08-08,2024-08-08,株式会社ＢＬＯ,,株式会社,東京都,板橋区,大山東町５８番５号オーケーエフビル１Ｆ,,13,119,1730014,,,,,,,2024-08-08,1,,,,,ブロ,0
2042,9011801044663,新規,0,2024-08-08,2024-08-08,株式会社ＷＯＯＤ　ＧＥＡＲ,,株式会社,東京都,足立区,鹿浜５丁目２８番３号,,13,121,1230864,,,,,,,2024-08-08,1,,,,,ウッドギア,0
2044,9012303002028,新規,0,2024-08-08,2024-08-08,合同会社ＦＬＡＴＲＯＣＫ,,合同会社,東京都,町田市,南成瀬７丁目３番地５,,13,209,1940045,,,,,,,2024-08-08,1,,,,,フラットロック,0
2046,9012401042165,新規,0,2024-08-08,2024-08-08,クエストスフィア株式会社,,株式会社,東京都,調布市,小島町２丁目５１番地２号寿ビル２Ｆ,,13,208,1820026,,,,,,,2024-08-08,1,,,,,クエストスフィア,0
2050,9013301052948,新規,0,2024-08-08,2024-08-08,株式会社ＮＯ　ＣＡＲＥ,,株式会社,東京都,豊島区,東池袋２丁目６２番８号１２０１号室,,13,116,1700013,,,,,,,2024-08-08,1,,,,,ノーケア,0
2051,9013303007248,新規,0,2024-08-08,2024-08-08,合同会社楽歩,,合同会社,東京都,豊島区,目白３丁目１３番２３号,,13,116,1710031,,,,,,,2024-08-08,1,,,,,ラフ,0
2054,9020001158546,新規,0,2024-08-08,2024-08-08,Ｎｅｓｉａ株式会社,,株式会社,神奈川県,横浜市鶴見区,上の宮２丁目９番１号サンクタス菊名パンタシア２０６,,14,101,2300075,,,,,,,2024-08-08,1,,,,,ネシア,0
2056,9020003026602,新規,0,2024-08-08,2024-08-08,合同会社福ノ鳥,,合同会社,神奈川県,横浜市保土ケ谷区,和田２丁目１５番９号,,14,106,2400065,,,,,,,2024-08-08,1,,,,,フクノトリ,0
2057,9021001082892,新規,0,2024-08-08,2024-08-08,株式会社匠人,,株式会社,神奈川県,藤沢市,辻堂２丁目９番３号,,14,205,2510047,,,,,,,2024-08-08,1,,,,,ショウジン,0
2067,9030001161805,新規,0,2024-08-08,2024-08-08,株式会社ＭＩＮＴＯＭＡ,,株式会社,埼玉県,さいたま市南区,白幡２丁目１２番１５号,,11,108,3360022,,,,,,,2024-08-08,1,,,,,ミントマ,0
2068,9030001161846,新規,0,2024-08-08,2024-08-08,株式会社ＮＥＲＵ,,株式会社,埼玉県,川越市,神明町２７番地３０,,11,201,3500823,,,,,,,2024-08-08,1,,,,,ネル,0
2069,9030001161862,新規,0,2024-08-08,2024-08-08,株式会社ＲＥＩＫＯ,,株式会社,埼玉県,川越市,大字大仙波４３９番地,,11,201,3500032,,,,,,,2024-08-08,1,,,,,レイコ,0
2076,9030003024893,新規,0,2024-08-08,2024-08-08,合同会社ＴＥＢ,,合同会社,埼玉県,蓮田市,椿山４丁目１７番２号,,11,238,3490144,,,,,,,2024-08-08,1,,,,,ティーイービー,0
2086,9040001134883,新規,0,2024-08-08,2024-08-08,雙葉株式会社,,株式会社,千葉県,香取郡多古町,多古３５４６番地６,,12,347,2892241,,,,,,,2024-08-08,1,,,,,フタバ,0
2095,9050001055195,新規,0,2024-08-08,2024-08-08,ｓａｗａｎ株式会社,,株式会社,茨城県,つくば市,島名２９８３番地（万博公園西Ｅ３２街区４）,,08,220,3002655,,,,,,,2024-08-08,1,,,,,サワン,0
2101,9080105006447,新規,0,2024-08-08,2024-08-08,一般社団法人富士至誠実践塾,,その他の設立登記法人,静岡県,富士市,宮下４１４番地の２,,22,210,4160947,,,,,,,2024-08-08,1,,,,,フジシセイジッセンジュク,0
2108,9100005013202,新規,0,2024-08-08,2024-08-08,一般社団法人信州蔦木宿,,その他の設立登記法人,長野県,諏訪郡富士見町,落合１９８４番地１,,20,362,3990214,,,,,,,2024-08-08,1,,,,,シンシュウツタキジュク,0
2110,9110001038631,新規,0,2024-08-08,2024-08-08,カエツ・アヴァンティ株式会社,,株式会社,新潟県,新潟市北区,嘉山４丁目３番１９号,,15,101,9503322,,,,,,,2024-08-08,1,,,,,カエツアヴァンティ,0
2111,9110003005480,新規,0,2024-08-08,2024-08-08,合同会社弥栄醸造,,合同会社,新潟県,柏崎市,大字石曽根１５６３－１,,15,205,9451436,,,,,,,2024-08-08,1,,,,,イヤサカジョウゾウ,0
2125,9120001267592,新規,0,2024-08-08,2024-08-08,Ｄａｖｅ　ｇｏｏｄｓ株式会社,,株式会社,大阪府,大阪市生野区,巽中１丁目８番１３号野本マンション３０１,00135871,27,116,5440013,,,,,,,2024-08-08,1,,,,,ダイグッズ,0
2126,9120001267618,新規,0,2024-08-08,2024-08-08,株式会社Ｍｙｓ,,株式会社,大阪府,大阪市住吉区,我孫子４丁目４番地１０号メゾンブランカあびこ１０５号,,27,120,5580014,,,,,,,2024-08-08,1,,,,,ミース,0
2131,9120005024486,新規,0,2024-08-08,2024-08-08,一般社団法人メンズウェル学会,,その他の設立登記法人,大阪府,大阪市北区,曾根崎２丁目１５番２４号７階,,27,127,5300057,,,,,,,2024-08-08,1,,,,,メンズウェルガッカイ,0
2137,9120103005999,新規,0,2024-08-08,2024-08-08,合同会社Ｔｒａｎｓｐｏｒｔ　ＧＴＮ,,合同会社,大阪府,堺市堺区,南島町６丁１番地３,,27,141,5900904,,,,,,,2024-08-08,1,,,,,トランスポートジーティーエヌ,0
2138,9120105009899,新規,0,2024-08-08,2024-08-08,医療法人琉恵会,,その他の設立登記法人,大阪府,堺市堺区,向陵中町６丁７番２９号,,27,141,5900024,,,,,,,2024-08-08,1,,,,,ルケイカイ,0
2140,9120901049578,新規,0,2024-08-08,2024-08-08,株式会社にじいろブランコ,,株式会社,大阪府,高槻市,芥川町１丁目１５番２３号,,27,207,5691123,,,,,,,2024-08-08,1,,,,,ニジイロブランコ,0
2146,9130001077479,新規,0,2024-08-08,2024-08-08,ザ・スタイル株式会社,,株式会社,京都府,京都市上京区,塔之段通今出川上る二丁目上塔之段町４８０番地１,,26,102,6020000,,,,,,,2024-08-08,1,,,,,ザスタイル,0
2147,9130003009752,新規,0,2024-08-08,2024-08-08,ａｍｏｒ　ｆｌｏｓ合同会社,,合同会社,京都府,京都市中京区,御池通東洞院東入笹屋町４３６番地永和御池ビル,,26,104,6048187,,,,,,,2024-08-08,1,,,,,アモルフロス,0
2148,9130003009760,新規,0,2024-08-08,2024-08-08,合同会社ＶＥＧＡ,,合同会社,京都府,木津川市,州見台７丁目１８番地４ヒールコート２０２号,,26,214,6190216,,,,,,,2024-08-08,1,,,,,ヴェガ,0
2167,9180001162689,新規,0,2024-08-08,2024-08-08,株式会社ササ輝,,株式会社,愛知県,半田市,相賀町１番地の１３０,,23,205,4750801,,,,,,,2024-08-08,1,,,,,ササキ,0
2168,9180001162796,新規,0,2024-08-08,2024-08-08,株式会社Ｙ＆Ｈ,,株式会社,愛知県,名古屋市昭和区,滝川町２６―４瀧川グランドヒルズサウスヒル１０３,,23,107,4660826,,,,,,,2024-08-08,1,,,,,ワイアンドエイチ,0
2171,9180005020728,新規,0,2024-08-08,2024-08-08,一般社団法人窪田経営塾立志会,,その他の設立登記法人,愛知県,名古屋市西区,名駅１丁目１番１７号名駅ダイヤメイテツビル１１階,,23,104,4510045,,,,,,,2024-08-08,1,,,,,クボタケイエイジュクリッシカイ,0
2175,9200001042797,新規,0,2024-08-08,2024-08-08,株式会社山内工業,,株式会社,岐阜県,海津市,平田町幡長１５３２番地１,,21,221,5030304,,,,,,,2024-08-08,1,,,,,ヤマウチコウギョウ,0
2176,9200001042806,新規,0,2024-08-08,2024-08-08,成専インテグレーション株式会社,,株式会社,岐阜県,各務原市,新鵜沼台５丁目１４９番地,,21,213,5090122,,,,,,,2024-08-08,1,,,,,ナルセンインテグレーション,0
2192,9300001013870,新規,0,2024-08-08,2024-08-08,株式会社Ｃｈｕｒａ　Ｍａｋｉｎｇ,,株式会社,佐賀県,佐賀市,下田町３番１７号リバーサイド下田Ｃ棟２０１,,41,201,8400031,,,,,,,2024-08-08,1,,,,,チュラメイキング,0
2195,9310001019157,新規,0,2024-08-08,2024-08-08,株式会社想野,,株式会社,長崎県,長崎市,岩川町７番１０－６０１号,,42,201,8528106,,,,,,,2024-08-08,1,,,,,ソウヤ,0
2196,9310001019165,新規,0,2024-08-08,2024-08-08,株式会社ドラッグエンゼル,,株式会社,長崎県,長崎市,平和町５番２３号深堀ビル,,42,201,8528116,,,,,,,2024-08-08,1,,,,,ドラッグエンゼル,0
2205,9350003004723,新規,0,2024-08-08,2024-08-08,合同会社月鶴,,合同会社,宮崎県,都城市,横市町５７０７番地５,,45,202,8850091,,,,,,,2024-08-08,1,,,,,ゲッカク,0
2206,9360005007087,新規,0,2024-08-08,2024-08-08,地方独立行政法人名護市行政事務機構,,その他の設立登記法人,沖縄県,名護市,港１丁目１番１号,,47,209,9050014,,,,,,,2024-08-08,1,,,,,ナゴシギョウセイジムキコウ,0
2208,9370005010825,新規,0,2024-08-08,2024-08-08,一般社団法人はっぴーくーる,,その他の設立登記法人,宮城県,仙台市若林区,卸町２丁目８番地の６－２階,,04,103,9840015,,,,,,,2024-08-08,1,,,,,ハッピークール,0
2211,9390001017707,新規,0,2024-08-08,2024-08-08,事業戦略サポートセンター株式会社,,株式会社,山形県,酒田市,亀ケ崎１丁目６番４６－９号,,06,204,9980842,,,,,,,2024-08-08,1,,,,,ジギョウセンリャクサポートセンター,0
2220,9470001020339,新規,0,2024-08-08,2024-08-08,田中屋株式会社,,株式会社,香川県,高松市,紺屋町５－６アルファパークナード高松１００５,,37,201,7600027,,,,,,,2024-08-08,1,,,,,タナカヤ,0
