sequenceNumber,corporateNumber,process,correct,updateDate,changeDate,name,nameImageId,kind,prefectureName,cityName,streetNumber,addressImageId,prefectureCode,cityCode,postCode,addressOutside,addressOutsideImageId,closeDate,closeCause,successorCorporateNumber,changeCause,assignmentDate,latest,enName,enPrefectureName,enCityName,enAddressOutside,furigana,hihyoji
6,1010001211107,登記記録の閉鎖等,0,2024-12-09,2024-12-02,株式会社メディモ,,株式会社,東京都,練馬区,春日町６丁目８番３２号,,13,120,1790074,,,2024-12-02,清算の結了等,,,2020-07-28,1,,,,,メディモ,0
24,1010005011544,登記記録の閉鎖等,0,2024-12-09,2024-11-27,特定非営利活動法人開発政策研究機構,,その他の設立登記法人,東京都,新宿区,新宿５丁目５番３号,,13,104,1600022,,,2024-11-27,清算の結了等,,,2015-10-05,1,,,,,カイハツセイサクケンキュウキコウ,0
33,1010401155985,登記記録の閉鎖等,0,2024-12-09,2024-11-26,ＩＣＨＩＰＡ株式会社,,株式会社,東京都,中央区,八丁堀４丁目１０番２号,,13,102,1040032,,,2024-11-26,清算の結了等,,,2020-10-22,1,,,,,イチパ,0
40,1010501044964,登記記録の閉鎖等,0,2024-12-09,2024-12-02,エムハチ株式会社,,株式会社,東京都,台東区,小島２丁目２０番１１号ＬＩＧビル,,13,106,1110056,,,2024-12-02,清算の結了等,,,2019-12-03,1,,,,,エムハチ,0
55,1011001102865,登記記録の閉鎖等,0,2024-12-09,2024-11-26,Ｂｏｒｑｓ　Ｊａｐａｎ株式会社,,株式会社,東京都,中央区,晴海２丁目３番３０－２１２１号,,13,102,1040053,,,2024-11-26,清算の結了等,,,2015-10-05,1,,,,,ボルクスジャパン,0
87,1011701024970,登記記録の閉鎖等,0,2024-12-09,2024-11-26,ディーエックスマスター株式会社,,株式会社,東京都,江戸川区,西葛西６丁目２４番５号第２コースタルビル６０２室,,13,123,1340088,,,2024-11-26,清算の結了等,,,2022-01-17,1,,,,,ディーエックスマスター,0
94,1012701009680,登記記録の閉鎖等,0,2024-12-09,2024-11-28,クリエイティブエージェント株式会社,,株式会社,東京都,西東京市,富士町４丁目３１番１４号ビレッジ東伏見１０３号,,13,229,2020014,,,2024-11-28,清算の結了等,,,2015-10-05,1,,,,,クリエイティブエージェント,0
99,1013201018453,登記記録の閉鎖等,0,2024-12-09,2024-11-13,株式会社Ｋ＆Ａ,,株式会社,東京都,目黒区,中根２丁目１１番１号,,13,110,1520031,,,2024-11-13,清算の結了等,,,2015-10-05,1,,,,,ケーアンドエ,0
102,1013305002832,登記記録の閉鎖等,0,2024-12-09,2024-11-13,一般社団法人ライト・フォー・チルドレン,,その他の設立登記法人,東京都,渋谷区,道玄坂２丁目２５－７プラザ道玄坂５階,,13,113,1500043,,,2024-11-13,清算の結了等,,,2018-09-25,1,,,,,ライトフォーチルドレン,0
133,1050003003820,登記記録の閉鎖等,0,2024-12-09,2024-12-04,北友会健康管理合同会社,,合同会社,茨城県,つくば市,古来４１８番地４,,08,220,3050021,,,2024-12-04,清算の結了等,,,2017-07-14,1,,,,,ホクユウカイケンコウカンリ,0
140,1070001036531,登記記録の閉鎖等,0,2024-12-09,2024-12-02,かんとう株式会社,,株式会社,群馬県,高崎市,上大島町２３３－２,,10,202,3703335,,,2024-12-02,清算の結了等,,,2020-01-30,1,,,,,カントウ,0
149,1080401025372,登記記録の閉鎖等,0,2024-12-09,2024-12-04,株式会社ワンワン久保,,株式会社,静岡県,菊川市,丹野２５１番地の１,,22,224,4371501,,,2024-12-04,清算の結了等,,,2021-10-06,1,,,,,ワンワンクボ,0
155,1110002034075,登記記録の閉鎖等,0,2024-12-09,2024-12-03,有限会社森新商店,,有限会社,新潟県,魚沼市,堀之内２６９番地,,15,225,9497413,,,2024-12-03,清算の結了等,,,2015-10-05,1,,,,,モリシンショウテン,0
160,1120001080672,商号の登記の抹消,0,2024-12-09,2024-11-28,株式会社山孝,,株式会社,大阪府,東大阪市,長田中４丁目５番１５号,,27,227,5770013,,,,,,,2015-10-05,0,,,,,ヤマコウ,0
171,1120002008838,登記記録の閉鎖等,0,2024-12-09,2024-12-04,有限会社みつだクリーニング,,有限会社,大阪府,大阪市城東区,今福西５丁目１０番３号,,27,118,5360004,,,2024-12-04,清算の結了等,,,2015-10-05,1,,,,,ミツダクリーニング,0
173,1120003023836,登記記録の閉鎖等,0,2024-12-09,2024-12-05,ＪＲＭ　Ｗａｔｃｈｅｓ合同会社,,合同会社,大阪府,大阪市東住吉区,鷹合４丁目２３番１２号,,27,121,5460014,,,2024-12-05,清算の結了等,,,2023-04-18,1,,,,,ジェイアールエムウォッチズ,0
181,1120102018745,登記記録の閉鎖等,0,2024-12-09,2024-12-03,有限会社ニシノハウス,,有限会社,大阪府,藤井寺市,大井５丁目２番１２号,,27,226,5830008,,,2024-12-03,清算の結了等,,,2015-10-05,1,,,,,ニシノハウス,0
193,1130001005100,登記記録の閉鎖等,0,2024-12-09,2024-12-05,株式会社團建築設計事務所,,株式会社,京都府,京都市左京区,岩倉幡枝町６４１番地２０,,26,103,6060015,,,2024-12-05,清算の結了等,,,2015-10-05,1,,,,,ダンケンチクセッケイジムショ,0
200,1140001011428,登記記録の閉鎖等,0,2024-12-09,2024-12-03,神戸インターナショナル株式会社,,株式会社,兵庫県,神戸市西区,見津が丘２丁目２番１号,,28,111,6512228,,,2024-12-03,清算の結了等,,,2015-10-05,1,,,,,,0
212,1160003000872,登記記録の閉鎖等,0,2024-12-09,2024-12-05,合同会社アビーロード,,合同会社,滋賀県,長浜市,七条町２３８番地４,,25,203,5260817,,,2024-12-05,清算の結了等,,,2015-10-05,1,,,,,アビーロード,0
214,1180001088454,登記記録の閉鎖等,0,2024-12-09,2024-12-02,株式会社出口設備,,株式会社,愛知県,岩倉市,大地町葉広４６番地１,,23,228,4820026,,,2024-12-02,清算の結了等,,,2015-10-05,1,,,,,デグチセツビ,0
229,1180302010026,登記記録の閉鎖等,0,2024-12-09,2024-12-02,有限会社御園,,有限会社,愛知県,豊橋市,松葉町１丁目９０番地,,23,201,4400897,,,2024-12-02,清算の結了等,,,2015-10-05,1,,,,,ミソノ,0
230,1190002008617,登記記録の閉鎖等,0,2024-12-09,2024-11-25,有限会社輝報企画,,有限会社,三重県,伊勢市,村松町１３５２番地３,,24,203,5150507,,,2024-11-25,清算の結了等,,,2015-10-05,1,,,,,キホウキカク,0
236,1220002002681,登記記録の閉鎖等,0,2024-12-09,2024-12-03,有限会社小松屋,,有限会社,石川県,金沢市,石引２丁目６番１１号,,17,201,9200935,,,2024-12-03,清算の結了等,,,2015-10-05,1,,,,,コマツヤ,0
243,1260001012348,登記記録の閉鎖等,0,2024-12-09,2024-12-02,株式会社サン・エム・コーポレーション,,株式会社,岡山県,岡山市北区,高柳東町１３番１２号,,33,101,7000034,,,2024-12-02,合併による解散等,7260001002269,令和６年１２月１日岡山市北区高柳東町１３番１２号研精堂印刷株式会社（7260001002269）に合併し解散,2015-10-05,1,,,,,サンエムコーポレーション,0
244,1260002021496,登記記録の閉鎖等,0,2024-12-09,2024-12-02,有限会社三原屋,,有限会社,岡山県,倉敷市,連島町西之浦５３番地,,33,202,7128001,,,2024-12-02,清算の結了等,,,2015-10-05,1,,,,,ミハラヤ,0
247,1280002006636,登記記録の閉鎖等,0,2024-12-09,2024-12-05,有限会社ミハラ,,有限会社,島根県,出雲市,大社町杵築西２２１０番地,,32,203,6990751,,,2024-12-05,清算の結了等,,,2015-10-05,1,,,,,ミハラ,0
250,1290001064007,登記記録の閉鎖等,0,2024-12-09,2024-11-25,株式会社丸正,,株式会社,福岡県,糸島市,高来寺２７４番地３,,40,230,8191563,,,2024-11-25,清算の結了等,,,2015-10-05,1,,,,,マルショウ,0
266,1350001010326,登記記録の閉鎖等,0,2024-12-09,2024-12-05,株式会社ワンストップ,,株式会社,宮崎県,東諸県郡国富町,大字宮王丸２７７番地,,45,382,8801102,,,2024-12-05,清算の結了等,,,2015-10-05,1,,,,,ワンストップ,0
276,1370802001653,登記記録の閉鎖等,0,2024-12-09,2024-12-02,デイケア桜有限会社,,有限会社,宮城県,岩沼市,二木１丁目１２番１３号,,04,211,9892448,,,2024-12-02,清算の結了等,,,2015-10-05,1,,,,,デイケアサクラ,0
283,1390002012284,登記記録の閉鎖等,0,2024-12-09,2024-12-02,東根ガス有限会社,,有限会社,山形県,東根市,神町中央２丁目９番２１号,,06,211,9993763,,,2024-12-02,清算の結了等,,,2015-10-05,1,,,,,ヒガシネガス,0
286,1420002012710,登記記録の閉鎖等,0,2024-12-09,2024-12-03,有限会社大成商事,,有限会社,青森県,弘前市,大字駅前３丁目３番地９,,02,202,0368002,,,2024-12-03,清算の結了等,,,2015-10-05,1,,,,,タイセイショウジ,0
292,1430003006347,登記記録の閉鎖等,0,2024-12-09,2024-12-03,アイドリング合同会社,,合同会社,北海道,札幌市北区,新川三条１７丁目１番１９号,,01,102,0010923,,,2024-12-03,清算の結了等,,,2015-10-05,1,,,,,アイドリング,0
295,1440002008797,登記記録の閉鎖等,0,2024-12-09,2024-12-05,有限会社緑土産業,,有限会社,北海道,山越郡長万部町,字長万部４２９番地１５１,,01,347,0493521,,,2024-12-05,清算の結了等,,,2015-10-05,1,,,,,リョクドサンギョウ,0
296,1480005003610,登記記録の閉鎖等,0,2024-12-09,2024-12-06,医療法人橘歯科,,その他の設立登記法人,徳島県,板野郡藍住町,勝瑞字東勝地２３０番地,,36,403,7711273,,,2024-12-06,清算の結了等,,,2015-10-05,1,,,,,タチバナシカ,0
297,1500001017149,登記記録の閉鎖等,0,2024-12-09,2024-12-04,株式会社せいよ３Ｒ,,株式会社,愛媛県,西予市,野村町野村１４号３０９番地１,,38,214,7971212,,,2024-12-04,清算の結了等,,,2015-10-05,1,,,,,セイヨスリーアール,0
361,2011702003130,登記記録の閉鎖等,0,2024-12-09,2024-12-02,有限会社ポパイ,,有限会社,東京都,江戸川区,南小岩５丁目９番１９号,,13,123,1330056,,,2024-12-02,清算の結了等,,,2015-10-05,1,,,,,ポパイ,0
368,2012703001370,登記記録の閉鎖等,0,2024-12-09,2024-12-02,合同会社ケアこかげ,,合同会社,東京都,西東京市,新町１丁目１３番１２号デュエット新町１０２,,13,229,2020023,,,2024-12-02,清算の結了等,,,2016-10-17,1,,,,,ケアコカゲ,0
370,2012802002550,登記記録の閉鎖等,0,2024-12-09,2024-12-02,有限会社隆運,,有限会社,東京都,立川市,高松町３丁目１５番１５号モアグランデ立川１０１号,,13,202,1900011,,,2024-12-02,清算の結了等,,,2015-10-05,1,,,,,リュウウン,0
371,2012802004209,登記記録の閉鎖等,0,2024-12-09,2024-12-02,有限会社エムアンドケイ,,有限会社,東京都,武蔵村山市,大南３丁目５４番地の５,,13,223,2080013,,,2024-12-02,清算の結了等,,,2015-10-05,1,,,,,,0
383,2013401005374,登記記録の閉鎖等,0,2024-12-09,2024-11-29,不二食品株式会社,,株式会社,東京都,日野市,百草９９９番地２８１－１１１,,13,212,1910033,,,2024-11-29,清算の結了等,,,2015-10-05,1,,,,,フジショクヒン,0
407,2030002038001,登記記録の閉鎖等,0,2024-12-09,2024-12-03,有限会社クリーニングママ,,有限会社,埼玉県,久喜市,久喜北２丁目１８番１４号,,11,232,3460007,,,2024-12-03,清算の結了等,,,2015-10-05,1,,,,,クリーニングママ,0
411,2030003024371,登記記録の閉鎖等,0,2024-12-09,2024-12-03,ＡＮＪＵ合同会社,,合同会社,埼玉県,春日部市,栄町１丁目２１５番地１号棟,,11,214,3440058,,,2024-12-03,清算の結了等,,,2024-05-27,1,,,,,アンジュ,0
418,2040002051671,登記記録の閉鎖等,0,2024-12-09,2024-12-02,有限会社白樺不動産,,有限会社,千葉県,流山市,南流山１丁目６番１１,,12,220,2700163,,,2024-12-02,清算の結了等,,,2015-10-05,1,,,,,シラカバフドウサン,0
422,2050002024874,登記記録の閉鎖等,0,2024-12-09,2024-12-04,有限会社山室物流,,有限会社,茨城県,古河市,下辺見４９２番地１,,08,204,3060235,,,2024-12-04,清算の結了等,,,2015-10-05,1,,,,,ヤマムロブツリュウ,0
431,2080402017863,登記記録の閉鎖等,0,2024-12-09,2024-12-05,有限会社サンルーム雅,,有限会社,静岡県,掛川市,杉谷南１丁目４番地の１０,,22,213,4360030,,,2024-12-05,清算の結了等,,,2015-10-05,1,,,,,サンルームミヤビ,0
463,2120102012813,登記記録の閉鎖等,0,2024-12-09,2024-12-04,ＢＵＮＴＥＣ有限会社,,有限会社,大阪府,高石市,取石４丁目６番３３号,,27,225,5920013,,,2024-12-04,清算の結了等,,,2015-10-05,1,,,,,ブンテック,0
475,2140001089091,登記記録の閉鎖等,0,2024-12-09,2024-12-02,株式会社パルテールコーポレーション,,株式会社,兵庫県,神戸市北区,有野町二郎字澤２５番１号,,28,109,6511311,,,2024-12-02,清算の結了等,,,2015-10-05,1,,,,,パルテールコーポレーション,0
484,2180001087793,登記記録の閉鎖等,0,2024-12-09,2024-12-02,株式会社フタセ,,株式会社,愛知県,岩倉市,大地町葉広４６番地１,,23,228,4820026,,,2024-12-02,清算の結了等,,,2015-10-05,1,,,,,フタセ,0
486,2180001137623,登記記録の閉鎖等,0,2024-12-09,2024-12-02,株式会社マリエール,,株式会社,愛知県,一宮市,緑４丁目１番２号,,23,203,4910862,,,2024-12-02,合併による解散等,8180001082368,令和６年１２月１日愛知県一宮市緑四丁目１番２号株式会社セレール（8180001082368）に合併し解散,2019-08-07,1,,,,,マリエール,0
487,2180001148042,登記記録の閉鎖等,0,2024-12-09,2024-12-02,株式会社アンビッツ・クロス,,株式会社,愛知県,名古屋市東区,泉１丁目１１番６号ミソカビル２Ｆ,,23,102,4610001,,,2024-12-02,清算の結了等,,,2021-10-05,1,,,,,アンビッツクロス,0
499,2180301034520,登記記録の閉鎖等,0,2024-12-09,2024-12-06,株式会社大宝,,株式会社,愛知県,岡崎市,丸山町字道円４２番地,,23,202,4440006,,,2024-12-06,清算の結了等,,,2021-01-13,1,,,,,タイホウ,0
502,2190001023467,登記記録の閉鎖等,0,2024-12-09,2024-12-02,株式会社エムズスリー,,株式会社,三重県,四日市市,鵜の森１丁目７番１３号３０１号,,24,202,5100074,,,2024-12-02,合併による解散等,6190001014925,令和６年１２月１日三重県四日市市鵜の森一丁目７番１３号株式会社紺文（6190001014925）に合併し解散,2016-03-04,1,,,,,エムズスリー,0
518,2250002011159,登記記録の閉鎖等,0,2024-12-09,2024-11-22,有限会社三宅商会,,有限会社,山口県,下関市,綾羅木新町１丁目８番１９号,,35,201,7510865,,,2024-11-22,清算の結了等,,,2015-10-05,1,,,,,ミヤケショウカイ,0
520,2260001039159,登記記録の閉鎖等,0,2024-12-09,2024-12-03,株式会社いまやエンジニアリング,,株式会社,岡山県,倉敷市,有城３５３番地,,33,202,7100031,,,2024-12-03,清算の結了等,,,2024-06-11,1,,,,,イマヤエンジニアリング,0
525,2290001092345,登記記録の閉鎖等,0,2024-12-09,2024-11-26,ウィズタイム株式会社,,株式会社,福岡県,三潴郡大木町,大字横溝６２５番地１,,40,522,8300405,,,2024-11-26,清算の結了等,,,2021-03-17,1,,,,,ウィズタイム,0
526,2290001099051,登記記録の閉鎖等,0,2024-12-09,2024-11-11,株式会社Ｔａｋｅ２,,株式会社,福岡県,宗像市,樟陽台１丁目３番地１５,,40,220,8113408,,,2024-11-11,清算の結了等,,,2022-09-30,1,,,,,,0
533,2330001027370,登記記録の閉鎖等,0,2024-12-09,2024-12-02,株式会社Ｓｔｏｎｅ　Ｉｎｎｏｖａｔｉｏｎ　Ｊａｐａｎ,,株式会社,熊本県,熊本市中央区,出水７丁目５６番４１号,,43,101,8620941,,,2024-12-02,清算の結了等,,,2020-04-07,1,,,,,,0
542,2370001039008,登記記録の閉鎖等,0,2024-12-09,2024-11-29,ＴＶ‐ＷＡＣ株式会社,,株式会社,宮城県,遠田郡美里町,関根字谷地浦５番地,,04,505,9870006,,,2024-11-29,清算の結了等,,,2016-01-07,1,,,,,テレビワック,0
565,2500001006051,登記記録の閉鎖等,0,2024-12-09,2024-12-04,株式会社スカイムーン,,株式会社,愛媛県,伊予郡松前町,大字筒井３９９番地１,,38,401,7913120,,,2024-12-04,清算の結了等,,,2015-10-05,1,,,,,スカイムーン,0
573,3010001232720,登記記録の閉鎖等,0,2024-12-09,2024-11-27,ＤＸ商事株式会社,,株式会社,東京都,千代田区,岩本町１丁目１１番２号,,13,101,1010032,,,2024-11-27,清算の結了等,,,2023-02-07,1,,,,,ディーエックスショウジ,0
597,3010901024192,登記記録の閉鎖等,0,2024-12-09,2024-12-02,株式会社トータルネットワークオフィス,,株式会社,東京都,世田谷区,若林３丁目１６番１号,,13,112,1540023,,,2024-12-02,清算の結了等,,,2015-10-05,1,,,,,トータルネットワークオフィス,0
632,3011702012460,登記記録の閉鎖等,0,2024-12-09,2024-12-04,有限会社ラシュレニイムラ,,有限会社,東京都,江戸川区,鹿骨１丁目２５番６号あかねホームズＢ－１０２号,,13,123,1330073,,,2024-12-04,清算の結了等,,,2015-10-05,1,,,,,,0
634,3011801011025,登記記録の閉鎖等,0,2024-12-09,2024-12-05,日東耐熱販売株式会社,,株式会社,東京都,足立区,江北７丁目１１番１０号,,13,121,1230872,,,2024-12-05,清算の結了等,,,2015-10-05,1,,,,,ニットウタイネツハンバイ,0
656,3020005001039,登記記録の閉鎖等,0,2024-12-09,2024-11-06,宗教法人天理教横濱港分教会,00011973,その他の設立登記法人,神奈川県,横浜市港南区,港南３丁目１９番２１号,,14,111,2330003,,,2024-11-06,合併による解散等,4080105001626,令和６年１１月１日静岡県伊豆の国市大仁２３０番地天理教北豆分教会（4080105001626）に合併し解散,2015-10-05,1,,,,,テンリキョウヨコハマミナトブンキョウカイ,0
660,3030001137001,登記記録の閉鎖等,0,2024-12-09,2024-12-04,株式会社大渕興業,,株式会社,埼玉県,さいたま市岩槻区,大字末田１８４１番地５３,,11,110,3390021,,,2024-12-04,清算の結了等,,,2020-06-23,1,,,,,オオブチコウギョウ,0
668,3030002102375,登記記録の閉鎖等,0,2024-12-09,2024-12-05,有限会社久保田工業所,00017654,有限会社,埼玉県,川口市,柳崎２丁目１５番１６号,,11,203,3330861,,,2024-12-05,清算の結了等,,,2015-10-05,1,,,,,,0
671,3040001127604,登記記録の閉鎖等,0,2024-12-09,2024-11-28,司産業株式会社,,株式会社,千葉県,市原市,八幡８２８番地,,12,219,2900062,,,2024-11-28,清算の結了等,,,2023-03-31,1,,,,,ツカササンギョウ,0
681,3050002022729,登記記録の閉鎖等,0,2024-12-09,2024-12-03,有限会社ＡＦＣＯＭ,,有限会社,茨城県,つくば市,横町４９７番地２,,08,220,3050017,,,2024-12-03,清算の結了等,,,2015-10-05,1,,,,,アフコム,0
686,3060002020970,登記記録の閉鎖等,0,2024-12-09,2024-12-04,有限会社ミノル商会,,有限会社,栃木県,鹿沼市,上殿町２９８番地,,09,205,3220045,,,2024-12-04,清算の結了等,,,2015-10-05,1,,,,,ミノルショウカイ,0
692,3080101019383,登記記録の閉鎖等,0,2024-12-09,2024-12-03,株式会社共生,,株式会社,静岡県,熱海市,清水町１番地の３,,22,205,4130021,,,2024-12-03,清算の結了等,,,2016-09-28,1,,,,,キョウセイ,0
694,3080403004728,登記記録の閉鎖等,0,2024-12-09,2024-11-13,合同会社スピカ,,合同会社,静岡県,浜松市中央区,船越町５４番１０号,,22,138,4300913,,,2024-11-13,合併による解散等,8180001161782,令和６年１１月１日名古屋市北区平安二丁目１４番１号株式会社プラネット（8180001161782）に合併し解散,2023-02-10,1,,,,,スピカ,0
695,3090001008683,登記記録の閉鎖等,0,2024-12-09,2024-12-02,株式会社市川製作所,,株式会社,山梨県,大月市,初狩町中初狩２７８番地,,19,206,4010022,,,2024-12-02,清算の結了等,,,2015-10-05,1,,,,,イチカワセイサクショ,0
726,3130001035087,登記記録の閉鎖等,0,2024-12-09,2024-12-05,南丹電機株式会社,,株式会社,京都府,南丹市,八木町八木西町裏８０番地,,26,213,6290141,,,2024-12-05,清算の結了等,,,2015-10-05,1,,,,,ナンタンデンキ,0
741,3140003015788,登記記録の閉鎖等,0,2024-12-09,2024-12-03,ｉＳ　ｉＭＡＧＥＳＴＡＮＤＡＲｄ合同会社,,合同会社,兵庫県,神崎郡神河町,柏尾４７１番地の３,,28,446,6792424,,,2024-12-03,清算の結了等,,,2021-01-08,1,,,,,アイエスイメージスタンダード,0
750,3170001017032,登記記録の閉鎖等,0,2024-12-09,2024-12-04,株式会社ミヤモト,,株式会社,和歌山県,有田市,辻堂１２番地の１,00126113,30,204,6490311,,,2024-12-04,清算の結了等,,,2022-03-31,1,,,,,ミヤモト,0
762,3180301005933,登記記録の閉鎖等,0,2024-12-09,2024-12-02,株式会社鈴木五六青果店,,株式会社,愛知県,豊橋市,駅前大通２丁目７１番地先,,23,201,4400888,,,2024-12-02,清算の結了等,,,2015-10-05,1,,,,,スズキゴロクセイカテン,0
763,3180301031896,登記記録の閉鎖等,0,2024-12-09,2024-12-05,株式会社ＫＲＳ,,株式会社,愛知県,碧南市,鶴見町６丁目９１番地,,23,209,4470057,,,2024-12-05,清算の結了等,,,2018-10-03,1,,,,,ケーアールエス,0
765,3190001030850,登記記録の閉鎖等,0,2024-12-09,2024-11-25,株式会社奥志摩観光ホテル南風荘,,株式会社,三重県,志摩市,浜島町浜島１４１６番地,,24,215,5170404,,,2024-11-25,清算の結了等,,,2023-11-15,1,,,,,オクシマカンコウホテルナンプウソウ,0
769,3230001011318,登記記録の閉鎖等,0,2024-12-09,2024-12-04,株式会社ソフトバウム,,株式会社,富山県,高岡市,大坪町２丁目３番２号,,16,202,9330918,,,2024-12-04,清算の結了等,,,2015-10-05,1,,,,,ソフトバウム,0
772,3260002011272,登記記録の閉鎖等,0,2024-12-09,2024-12-02,是友建具有限会社,,有限会社,岡山県,岡山市東区,瀬戸町瀬戸３３３番地,,33,103,7090861,,,2024-12-02,清算の結了等,,,2015-10-05,1,,,,,コレトモタテグ,0
806,3370202003538,登記記録の閉鎖等,0,2024-12-09,2024-12-02,有限会社みちのくナーセリー,,有限会社,宮城県,大崎市,鹿島台深谷字塚ノ入３４番地,,04,215,9894105,,,2024-12-02,清算の結了等,,,2015-10-05,1,,,,,ミチノクナーセリー,0
818,3430002059006,登記記録の閉鎖等,0,2024-12-09,2024-12-03,有限会社盛武建設,,有限会社,北海道,苫小牧市,大成町１丁目４番８号,,01,213,0530806,,,2024-12-03,清算の結了等,,,2024-11-22,1,,,,,セイブケンセツ,0
819,3430003011015,登記記録の閉鎖等,0,2024-12-09,2024-12-06,合同会社ＪａｍＸＴｅｃｈ,,合同会社,北海道,北広島市,希望ヶ丘３丁目１番地３６,,01,234,0611261,,,2024-12-06,清算の結了等,,,2019-11-26,1,,,,,ジャムステック,0
822,3440002007665,登記記録の閉鎖等,0,2024-12-09,2024-12-06,有限会社シーイーエス,,有限会社,北海道,亀田郡七飯町,字上藤城３１３番地の１１８,,01,337,0411104,,,2024-12-06,清算の結了等,,,2015-10-05,1,,,,,シーイーエス,0
824,3460102000824,登記記録の閉鎖等,0,2024-12-09,2024-12-03,有限会社川野自動車工業,,有限会社,北海道,河西郡芽室町,西八条６丁目２番地７,,01,637,0820038,,,2024-12-03,清算の結了等,,,2015-10-05,1,,,,,カワノジドウシャコウギョウ,0
829,3500001005688,登記記録の閉鎖等,0,2024-12-09,2024-12-03,株式会社ユーエス,,株式会社,愛媛県,松山市,鷹子町７９８番地１－７０２号,,38,201,7900925,,,2024-12-03,清算の結了等,,,2015-10-05,1,,,,,ユーエス,0
830,3500001012461,登記記録の閉鎖等,0,2024-12-09,2024-12-04,株式会社ヤスヒロ,,株式会社,愛媛県,今治市,郷桜井４丁目６番５３号,,38,202,7991523,,,2024-12-04,清算の結了等,,,2015-10-05,1,,,,,ヤスヒロ,0
837,4010001245143,登記記録の閉鎖等,0,2024-12-09,2024-11-25,株式会社アイエム企画,,株式会社,東京都,千代田区,神田富山町８番地,,13,101,1010043,,,2024-11-25,清算の結了等,,,2024-06-07,1,,,,,アイエムキカク,0
846,4010401122644,登記記録の閉鎖等,0,2024-12-09,2024-11-19,エムスリーアイ株式会社,,株式会社,東京都,港区,赤坂１丁目１１番４４号,,13,103,1070052,,,2024-11-19,清算の結了等,,,2016-01-20,1,,,,,エムスリーアイ,0
852,4010402012497,登記記録の閉鎖等,0,2024-12-09,2024-11-19,有限会社三田ネームプレート製作所,,有限会社,東京都,港区,三田５丁目１６番４号,,13,103,1080073,,,2024-11-19,清算の結了等,,,2015-10-05,1,,,,,ミタネームプレートセイサクショ,0
858,4010701025687,登記記録の閉鎖等,0,2024-12-09,2024-12-05,株式会社シュガーロード,,株式会社,福岡県,北九州市八幡西区,陣原２丁目８番１０号,,40,109,8070821,,,2024-12-05,清算の結了等,,,2015-10-05,1,,,,,シュガーロード,0
860,4010803004688,登記記録の閉鎖等,0,2024-12-09,2024-11-26,Ｌｕｎｅ合同会社,,合同会社,東京都,大田区,矢口３丁目９番１７号,,13,111,1460093,,,2024-11-26,清算の結了等,,,2023-09-21,1,,,,,リュヌ,0
864,4011001164283,登記記録の閉鎖等,0,2024-12-09,2024-11-13,株式会社ヒカカク,,株式会社,東京都,渋谷区,代々木１丁目１１－２フロンティア代々木３Ｆ－Ｂ,,13,113,1510053,,,2024-11-13,合併による解散等,2010401098688,令和６年１０月１日東京都港区虎ノ門三丁目４番８号株式会社じげん（2010401098688）に合併し解散,2024-08-28,1,,,,,ヒカカク,0
876,4011101099413,登記記録の閉鎖等,0,2024-12-09,2024-12-02,ＡＬＪ　ＮＥＸＴ　ＢＲＩＤＧＥ株式会社,,株式会社,東京都,新宿区,新宿３丁目８番８号４Ｆ,,13,104,1600022,,,2024-12-02,清算の結了等,,,2022-07-05,1,,,,,エーエルジェイネクストブリッジ,0
879,4011301021408,登記記録の閉鎖等,0,2024-12-09,2024-12-04,株式会社ＤＥＮ,,株式会社,東京都,杉並区,宮前３丁目２５番１４号,,13,115,1680081,,,2024-12-04,清算の結了等,,,2015-10-05,1,,,,,デン,0
887,4012401011463,登記記録の閉鎖等,0,2024-12-09,2024-11-20,ティー・マーク株式会社,,株式会社,東京都,港区,麻布台２丁目３番３号,,13,103,1060041,,,2024-11-20,清算の結了等,,,2015-10-05,1,,,,,ティーマーク,0
888,4012705002200,登記記録の閉鎖等,0,2024-12-09,2024-11-29,一般社団法人日本サルスエラ協会,,その他の設立登記法人,東京都,東村山市,青葉町２丁目９番地９５,,13,213,1890002,,,2024-11-29,清算の結了等,,,2020-03-30,1,,,,,ニホンサルスエラキョウカイ,0
893,4013401006602,登記記録の閉鎖等,0,2024-12-09,2024-12-09,株式会社ジン,,株式会社,東京都,多摩市,関戸２丁目３９番地の１７コートビレッヂ４０１,,13,224,2060011,,,2024-12-09,清算の結了等,,,2015-10-05,1,,,,,ジン,0
904,4021001040657,登記記録の閉鎖等,0,2024-12-09,2024-12-05,第一北栄株式会社,00012612,株式会社,神奈川県,横須賀市,衣笠栄町１丁目２２番地,,14,201,2380031,,,2024-12-05,清算の結了等,,,2015-10-05,1,,,,,ダイイチホクエイ,0
905,4021001050251,登記記録の閉鎖等,0,2024-12-09,2024-12-06,株式会社プロステージ,,株式会社,神奈川県,相模原市南区,相模大野７丁目１８番９号,,14,153,2520303,,,2024-12-06,清算の結了等,,,2015-10-05,1,,,,,プロステージ,0
912,4021005011365,登記記録の閉鎖等,0,2024-12-09,2024-12-06,一般社団法人日中都市まち建築技術交流協会,,その他の設立登記法人,神奈川県,小田原市,中町１丁目１５番１３号,,14,206,2500005,,,2024-12-06,清算の結了等,,,2018-07-26,1,,,,,ニッチュウトシマチケンチクギジュツコウリュウキョウカイ,0
920,4030003021111,登記記録の閉鎖等,0,2024-12-09,2024-11-25,合同会社ＲＡＳＩＱＵＥ,,合同会社,東京都,中央区,銀座１丁目１２番４号Ｎ＆ＥＢＬＤ．７階,,13,102,1040061,,,2024-11-25,清算の結了等,,,2023-02-07,1,,,,,ラシーク,0
957,4110002019651,登記記録の閉鎖等,0,2024-12-09,2024-12-02,有限会社ツバメ車体工業,,有限会社,新潟県,燕市,白山町３丁目２３番１０号,,15,213,9591251,,,2024-12-02,清算の結了等,,,2015-10-05,1,,,,,ツバメシャタイコウギョウ,0
969,4120101052263,登記記録の閉鎖等,0,2024-12-09,2024-12-02,株式会社アーサーテックス,,株式会社,大阪府,泉大津市,神明町３番２４号,,27,206,5950064,,,2024-12-02,合併による解散等,3120101042141,令和６年１１月３０日大阪府泉大津市神明町３番２４号株式会社エム・エーイ（3120101042141）に合併し解散,2015-10-05,1,,,,,アーサーテックス,0
976,4122001036800,登記記録の閉鎖等,0,2024-12-09,2024-12-03,株式会社エイブル引越サービス,,株式会社,大阪府,東大阪市,川俣１丁目３番８号,,27,227,5770063,,,2024-12-03,合併による解散等,4010401004280,令和６年１２月１日東京都港区元赤坂一丁目５番５号株式会社エイブル（4010401004280）に合併し解散,2023-03-17,1,,,,,エイブルヒッコシサービス,0
980,4130001005023,登記記録の閉鎖等,0,2024-12-09,2024-11-29,大成住宅株式会社,,株式会社,京都府,京都市北区,紫野下御輿町１３番地の１,,26,101,6038235,,,2024-11-29,清算の結了等,,,2015-10-05,1,,,,,タイセイジュウタク,0
1025,4180002007682,登記記録の閉鎖等,0,2024-12-09,2024-11-29,有限会社江本商会,,有限会社,愛知県,名古屋市昭和区,菊園町５丁目１９番地,,23,107,4660843,,,2024-11-29,清算の結了等,,,2015-10-05,1,,,,,エモトショウカイ,0
1033,4200001002145,登記記録の閉鎖等,0,2024-12-09,2024-12-05,株式会社酒井実業,,株式会社,岐阜県,岐阜市,金町２丁目６番地,,21,201,5008842,,,2024-12-05,清算の結了等,,,2015-10-05,1,,,,,サカイジツギョウ,0
1039,4230001001284,登記記録の閉鎖等,0,2024-12-09,2024-12-02,昭和不動産株式会社,,株式会社,富山県,富山市,白銀町６番８号,,16,201,9300048,,,2024-12-02,合併による解散等,2230002005682,令和６年１２月１日富山市白銀町６番８号株式会社水上本店（2230002005682）に合併し解散,2015-10-05,1,,,,,ショウワフドウサン,0
1047,4250002009903,登記記録の閉鎖等,0,2024-12-09,2024-12-05,有限会社タルタニフルーツ,,有限会社,山口県,下関市,長門町１０番１号,,35,201,7500026,,,2024-12-05,清算の結了等,,,2015-10-05,1,,,,,タルタニフルーツ,0
1048,4250002011504,登記記録の閉鎖等,0,2024-12-09,2024-12-04,有限会社吉永建工,00002691,有限会社,山口県,下関市,稗田中町４番１１号,,35,201,7510856,,,2024-12-04,清算の結了等,,,2015-10-05,1,,,,,ヨシナガケンコウ,0
1049,4260002015017,登記記録の閉鎖等,0,2024-12-09,2024-12-02,有限会社福本電気工事,,有限会社,岡山県,赤磐市,戸津野１９２番地の２,,33,213,7012431,,,2024-12-02,清算の結了等,,,2015-10-05,1,,,,,フクモトデンキコウジ,0
1056,4290002010931,登記記録の閉鎖等,0,2024-12-09,2024-11-12,有限会社佐々庄,,有限会社,福岡県,福岡市中央区,荒戸３丁目２番４号,,40,133,8100062,,,2024-11-12,清算の結了等,,,2015-10-05,1,,,,,,0
1064,4330003003707,登記記録の閉鎖等,0,2024-12-09,2024-11-27,合資会社原理美容院,,合資会社,熊本県,水俣市,桜井町１丁目４番５号,,43,205,8670045,,,2024-11-27,清算の結了等,,,2015-10-05,1,,,,,ハラリビヨウイン,0
1069,4340005009321,登記記録の閉鎖等,0,2024-12-09,2024-12-04,税理士法人グレイス,,その他の設立登記法人,鹿児島県,鹿児島市,西田２丁目２７番３２号,,46,201,8900046,,,2024-12-04,清算の結了等,,,2021-08-06,1,,,,,グレイス,0
1078,4370005002281,登記記録の閉鎖等,0,2024-12-09,2024-11-29,特定非営利活動法人みやぎダンス,,その他の設立登記法人,宮城県,仙台市青葉区,八幡７丁目８－１９コーポ優和１０１号室,,04,101,9800871,,,2024-11-29,清算の結了等,,,2015-10-05,1,,,,,ミヤギダンス,0
1087,4430001050550,登記記録の閉鎖等,0,2024-12-09,2024-11-01,丸和倉庫株式会社,,株式会社,北海道,小樽市,色内３丁目３番２５号,,01,203,0470031,,,2024-11-01,合併による解散等,2430001021347,令和６年１１月１日札幌市中央区（札幌市北五条西十八丁目９番地６）富士物産株式会社（2430001021347）に合併し解散,2015-10-05,1,,,,,マルワソウコ,0
1089,4430002024041,登記記録の閉鎖等,0,2024-12-09,2024-12-02,有限会社富士管財,,有限会社,北海道,札幌市中央区,北五条西８丁目１番地１ラ・トゥール札幌伊藤ガーデン６０８号,,01,101,0600005,,,2024-12-02,清算の結了等,,,2015-10-05,1,,,,,フジカンザイ,0
1094,4470001003050,登記記録の閉鎖等,0,2024-12-09,2024-12-05,長尾コンクリート工業株式会社,,株式会社,香川県,高松市,松島町１丁目７番１３号,,37,201,7600068,,,2024-12-05,清算の結了等,,,2015-10-05,1,,,,,ナガオコンクリートコウギョウ,0
1103,5010001081661,登記記録の閉鎖等,0,2024-12-09,2024-11-25,プラスインターナショナル株式会社,,株式会社,東京都,港区,新橋２丁目１６番１号,,13,103,1050004,,,2024-11-25,清算の結了等,,,2015-10-05,1,,,,,プラスインターナショナル,0
1113,5010005002969,登記記録の閉鎖等,0,2024-12-09,2024-12-04,一般財団法人経済産業調査会,,その他の設立登記法人,東京都,中央区,銀座２丁目８番９号,,13,102,1040061,,,2024-12-04,清算の結了等,,,2015-10-05,1,,,,,ケイザイサンギョウチョウサカイ,0
1152,5011102017901,登記記録の閉鎖等,0,2024-12-09,2024-11-15,有限会社エヌエスジェイ,,有限会社,東京都,港区,虎ノ門１丁目３番１号東京虎ノ門グローバルスクエア１４階,,13,103,1050001,,,2024-11-15,清算の結了等,,,2015-10-05,1,,,,,エヌエスジェイ,0
1159,5011601016734,登記記録の閉鎖等,0,2024-12-09,2024-12-02,株式会社プラム社,,株式会社,東京都,練馬区,早宮４丁目１番１６号,,13,120,1790085,,,2024-12-02,清算の結了等,,,2015-10-05,1,,,,,プラムシャ,0
1173,5012402004003,登記記録の閉鎖等,0,2024-12-09,2024-12-05,有限会社中村測量事務所,,有限会社,東京都,国分寺市,西恋ヶ窪３丁目２７番７号,,13,214,1850013,,,2024-12-05,清算の結了等,,,2015-10-05,1,,,,,ナカムラソクリョウジムショ,0
1179,5020001097599,登記記録の閉鎖等,0,2024-12-09,2024-11-28,シゲル精範株式会社,,株式会社,神奈川県,横浜市鶴見区,江ケ崎町１０番１６号,,14,101,2300002,,,2024-11-28,清算の結了等,,,2015-10-05,1,,,,,シゲルセイハン,0
1184,5020001158459,登記記録の閉鎖等,0,2024-12-09,2024-12-02,株式会社Ｗｒｉｇｈｔ　Ｆｌｙｅｒ,,株式会社,神奈川県,横浜市神奈川区,金港町５－１４クアドリフォリオ８階,,14,102,2210056,,,2024-12-02,清算の結了等,,,2024-08-13,1,,,,,ライトフライヤー,0
1188,5020002038412,登記記録の閉鎖等,0,2024-12-09,2024-11-29,有限会社しおばら洋品店,,有限会社,神奈川県,横浜市鶴見区,馬場１丁目７番２６号,,14,101,2300076,,,2024-11-29,清算の結了等,,,2015-10-05,1,,,,,シオバラヨウヒンテン,0
1190,5020002070571,登記記録の閉鎖等,0,2024-12-09,2024-11-28,有限会社石川章保険事務所,,有限会社,神奈川県,横浜市西区,岡野２丁目１１番２６－３２３号,,14,103,2200073,,,2024-11-28,清算の結了等,,,2015-10-05,1,,,,,イシカワアキラホケンジムショ,0
1198,5030001060309,登記記録の閉鎖等,0,2024-12-09,2024-12-04,大東開発株式会社,,株式会社,埼玉県,本庄市,見福２丁目１８番２２号,,11,211,3670044,,,2024-12-04,清算の結了等,,,2015-10-05,1,,,,,ダイトウカイハツ,0
1220,5040002021671,登記記録の閉鎖等,0,2024-12-09,2024-12-02,有限会社協和テラオカ,,有限会社,千葉県,船橋市,高根台６丁目３７番１９号,,12,204,2740065,,,2024-12-02,清算の結了等,,,2015-10-05,1,,,,,キョウワテラオカ,0
1223,5040005019622,登記記録の閉鎖等,0,2024-12-09,2024-12-02,一般社団法人終活援護会,,その他の設立登記法人,千葉県,松戸市,松戸新田５７３番地の２,,12,207,2702241,,,2024-12-02,清算の結了等,,,2017-08-04,1,,,,,シュウカツエンゴカイ,0
1226,5050002033930,登記記録の閉鎖等,0,2024-12-09,2024-12-05,有限会社草間電気商会,,有限会社,茨城県,稲敷市,江戸崎甲５５７番地,,08,229,3000504,,,2024-12-05,清算の結了等,,,2015-10-05,1,,,,,クサマデンキショウカイ,0
1240,5080401002590,登記記録の閉鎖等,0,2024-12-09,2024-12-03,株式会社スタジオプロス,,株式会社,静岡県,浜松市中央区,下石田町１７４６番地の１,,22,138,4350006,,,2024-12-03,清算の結了等,,,2024-08-26,1,,,,,スタジオプロス,0
1278,5120901029484,登記記録の閉鎖等,0,2024-12-09,2024-12-02,大阪クラウンキャブ販売株式会社,,株式会社,大阪府,豊中市,中桜塚１丁目２３番２８－２１２号,,27,203,5610881,,,2024-12-02,清算の結了等,,,2015-10-05,1,,,,,オオサカクラウンキャブハンバイ,0
1286,5130002001144,登記記録の閉鎖等,0,2024-12-09,2024-12-05,有限会社ティー・エム・ピー,,有限会社,京都府,京都市北区,小山初音町１４番地,,26,101,6038172,,,2024-12-05,清算の結了等,,,2015-10-05,1,,,,,ティーエムピー,0
1288,5130002027123,登記記録の閉鎖等,0,2024-12-09,2024-12-05,有限会社朝岡運送,,有限会社,京都府,久世郡久御山町,佐山北代２３番地の５２,,26,322,6130034,,,2024-12-05,清算の結了等,,,2015-10-05,1,,,,,アサオカウンソウ,0
1289,5130002030358,登記記録の閉鎖等,0,2024-12-09,2024-12-04,有限会社シーシーグループ,,有限会社,京都府,八幡市,八幡柿木垣内１番２６号,,26,210,6148036,,,2024-12-04,清算の結了等,,,2015-10-05,1,,,,,シーシーグループ,0
1293,5140001120704,登記記録の閉鎖等,0,2024-12-09,2024-11-14,株式会社メイクユースオブ,,株式会社,兵庫県,尼崎市,塚口本町５丁目５番１－２２６号,,28,202,6610001,,,2024-11-14,合併による解散等,8120901039241,令和６年１０月３１日大阪市淀川区西中島六丁目１番３号株式会社シナジーグローバル（8120901039241）に合併し解散,2021-03-09,1,,,,,メイクユースオブ,0
1298,5140002037617,登記記録の閉鎖等,0,2024-12-09,2024-12-04,有限会社松尾電器商会,,有限会社,兵庫県,加古郡播磨町,野添１６３５番地,,28,382,6750151,,,2024-12-04,清算の結了等,,,2015-10-05,1,,,,,マツオデンキショウカイ,0
1315,5200002027751,登記記録の閉鎖等,0,2024-12-09,2024-12-05,有限会社オゼキ電機,,有限会社,岐阜県,郡上市,美並町上田２３２番地５,,21,219,5014101,,,2024-12-05,清算の結了等,,,2015-10-05,1,,,,,オゼキデンキ,0
1318,5220002008956,登記記録の閉鎖等,0,2024-12-09,2024-12-02,有限会社エフ・ネッツ,,有限会社,石川県,白山市,宮永市町６４８番地３,,17,210,9240016,,,2024-12-02,清算の結了等,,,2015-10-05,1,,,,,エフネッツ,0
1319,5220002013758,登記記録の閉鎖等,0,2024-12-09,2024-11-29,有限会社向田鈑金工作所,,有限会社,石川県,七尾市,府中町６０番地２,,17,202,9260041,,,2024-11-29,清算の結了等,,,2015-10-05,1,,,,,コウダバンキンコウサクショ,0
1323,5240005001444,登記記録の閉鎖等,0,2024-12-09,2024-12-04,医療法人宮崎クリニック,,その他の設立登記法人,広島県,広島市中区,中町７番３５号,,34,101,7300037,,,2024-12-04,清算の結了等,,,2015-10-05,1,,,,,ミヤザキクリニック,0
1324,5250002001735,登記記録の閉鎖等,0,2024-12-09,2024-12-03,有限会社ゆーたん,,有限会社,山口県,山口市,松美町２番７７号,,35,203,7530053,,,2024-12-03,清算の結了等,,,2015-10-05,1,,,,,ユータン,0
1331,5260002027861,登記記録の閉鎖等,0,2024-12-09,2024-12-02,有限会社江見泰暢写真場,,有限会社,岡山県,津山市,山下２８番地の１３,,33,203,7080022,,,2024-12-02,清算の結了等,,,2015-10-05,1,,,,,エミチョウヨウシャシンジョウ,0
1358,5350003001278,登記記録の閉鎖等,0,2024-12-09,2024-12-03,アイティークリーン企画合同会社,,合同会社,宮崎県,延岡市,別府町３９０５番地１１,,45,203,8820861,,,2024-12-03,清算の結了等,,,2015-10-05,1,,,,,アイティークリーンキカク,0
1364,5370001014338,登記記録の閉鎖等,0,2024-12-09,2024-12-02,株式会社アイックスセキュリティ,,株式会社,宮城県,仙台市泉区,松陵５丁目２１番６号,,04,105,9813108,,,2024-12-02,合併による解散等,2370001019892,令和６年１２月１日仙台市太白区鹿野一丁目１番４３号株式会社アイックス（2370001019892）に合併し解散,2015-10-05,1,,,,,アイックスセキュリティ,0
1365,5370002004288,登記記録の閉鎖等,0,2024-12-09,2024-12-02,有限会社仙台北エム・ティー・シー,,有限会社,宮城県,仙台市太白区,羽黒台３１番２号,,04,104,9820817,,,2024-12-02,清算の結了等,,,2015-10-05,1,,,,,センダイキタエムティーシー,0
1374,5410003001701,登記記録の閉鎖等,0,2024-12-09,2024-12-02,合名会社西亀商店,,合名会社,秋田県,能代市,川反町７番２１号,,05,202,0160802,,,2024-12-02,合併による解散等,6410001007229,令和６年１２月１日秋田県能代市川反町７番２１号菱大木材株式会社（6410001007229）に合併し解散,2015-10-05,1,,,,,ニシカメショウテン,0
1379,5430002062395,登記記録の閉鎖等,0,2024-12-09,2024-12-05,有限会社松山旅館,,有限会社,北海道,浦河郡浦河町,大通４丁目１８番地,,01,607,0570013,,,2024-12-05,清算の結了等,,,2015-10-05,1,,,,,,0
1384,5490001001621,登記記録の閉鎖等,0,2024-12-09,2024-12-06,株式会社戸口商会,,株式会社,高知県,高知市,南ノ丸町４１番地,,39,201,7808016,,,2024-12-06,清算の結了等,,,2015-10-05,1,,,,,トグチショウカイ,0
1387,5500002013713,登記記録の閉鎖等,0,2024-12-09,2024-11-01,有限会社リー企画,,有限会社,愛媛県,八幡浜市,千代田町１４６０番地８０,,38,204,7960076,,,2024-11-01,合併による解散等,7500001008324,令和６年１１月１日愛媛県八幡浜市千代田町１４６０番地８０清水商事株式会社（7500001008324）に合併し解散,2015-10-05,1,,,,,リーキカク,0
1393,6010001041796,登記記録の閉鎖等,0,2024-12-09,2024-11-01,株式会社久栄,,株式会社,東京都,中央区,銀座８丁目１１番５号,,13,102,1040061,,,2024-11-01,合併による解散等,1010002024053,令和６年１１月１日東京都中央区銀座八丁目１１番５号株式会社久友（1010002024053）に合併し、解散,2015-10-05,1,,,,,キュウエイ,0
1407,6010401124779,登記記録の閉鎖等,0,2024-12-09,2024-11-28,株式会社ものづくり,,株式会社,神奈川県,川崎市高津区,上作延５３３番地１,,14,134,2130034,,,2024-11-28,清算の結了等,,,2016-05-24,1,,,,,モノヅクリ,0
1408,6010401144034,登記記録の閉鎖等,0,2024-12-09,2024-11-25,Ａｔｅａｍ８株式会社,,株式会社,東京都,中央区,日本橋小舟町８番１３号天翔日本橋ビル４階,,13,102,1030024,,,2024-11-25,清算の結了等,,,2019-02-27,1,,,,,エイチームエト,0
1416,6010403027963,登記記録の閉鎖等,0,2024-12-09,2024-11-18,ＤＯＵＢＬＥ　ＰＩ合同会社,,合同会社,東京都,港区,新橋４丁目３１－３第三名和ビル１Ｆ－９Ｆ,,13,103,1050004,,,2024-11-18,清算の結了等,,,2022-06-27,1,DOUBLE PI LLC,Tokyo,"Dai-3 Meiwa Building 1F-9F, 4-31-3 Shinbashi, Minato ku",,ダブルパイ,0
1418,6010501029309,登記記録の閉鎖等,0,2024-12-09,2024-12-02,コンビネクスト株式会社,,株式会社,東京都,台東区,元浅草２丁目６番７号,,13,106,1110041,,,2024-12-02,清算の結了等,,,2015-10-05,1,,,,,コンビネクスト,0
1422,6010601062597,登記記録の閉鎖等,0,2024-12-09,2024-12-03,株式会社ＫＥＳ,,株式会社,東京都,江東区,豊洲３丁目４番１号,,13,108,1350061,,,2024-12-03,清算の結了等,,,2023-02-14,1,,,,,ケーイーエス,0
1457,6011701011337,登記記録の閉鎖等,0,2024-12-09,2024-12-05,株式会社アイエス,,株式会社,東京都,江戸川区,小松川３丁目５番１号,,13,123,1320034,,,2024-12-05,清算の結了等,,,2015-10-05,1,,,,,アイエス,0
1459,6011801031920,登記記録の閉鎖等,0,2024-12-09,2024-12-04,株式会社東京足立販売,,株式会社,東京都,足立区,谷中３丁目１０番１０号,,13,121,1200006,,,2024-12-04,清算の結了等,,,2016-06-08,1,,,,,トウキョウアダチハンバイ,0
1473,6013303001682,登記記録の閉鎖等,0,2024-12-09,2024-12-04,ヴィティス・エピキュリア・ジャパン合同会社,,合同会社,東京都,豊島区,高田１丁目３４番１６号,,13,116,1710033,,,2024-12-04,清算の結了等,,,2015-10-05,1,,,,,ヴィティスエピキュリアジャパン,0
1486,6021001016333,登記記録の閉鎖等,0,2024-12-09,2024-12-05,株式会社昌電社,,株式会社,神奈川県,相模原市緑区,川尻４６７７番地,,14,151,2520111,,,2024-12-05,清算の結了等,,,2015-10-05,1,,,,,ショウデンシャ,0
1493,6030001035722,登記記録の閉鎖等,0,2024-12-09,2024-11-21,株式会社ワイエルシー,,株式会社,埼玉県,草加市,柳島町８５２番地,,11,221,3400033,,,2024-11-21,清算の結了等,,,2024-09-04,1,,,,,ワイエルシー,0
1496,6030001069316,登記記録の閉鎖等,0,2024-12-09,2024-12-04,株式会社大越製作所,,株式会社,埼玉県,入間郡毛呂山町,大字西大久保７５０番地の２,,11,326,3500433,,,2024-12-04,清算の結了等,,,2015-10-05,1,,,,,オオコシセイサクショ,0
1512,6050002022131,登記記録の閉鎖等,0,2024-12-09,2024-12-04,有限会社萬年喜鮨,,有限会社,茨城県,つくば市,小野崎１３６０番地,,08,220,3050034,,,2024-12-04,清算の結了等,,,2015-10-05,1,,,,,マネキズシ,0
1521,6080103000842,登記記録の閉鎖等,0,2024-12-09,2024-12-02,合資会社上田洋品店,,合資会社,静岡県,熱海市,網代１３０番地の２,,22,205,4130103,,,2024-12-02,清算の結了等,,,2015-10-05,1,,,,,ウエダヨウヒンテン,0
1526,6110002003372,登記記録の閉鎖等,0,2024-12-09,2024-12-02,有限会社鈴木三郎商店,,有限会社,新潟県,新潟市東区,上木戸３２５番地１,,15,102,9500891,,,2024-12-02,清算の結了等,,,2015-10-05,1,,,,,スズキサブロウショウテン,0
1532,6120001118889,登記記録の閉鎖等,0,2024-12-09,2024-12-04,株式会社ウエイブコミュニケイション,,株式会社,大阪府,大阪市天王寺区,東高津町４番１５号,,27,109,5430021,,,2024-12-04,清算の結了等,,,2015-10-05,1,,,,,ウエイブミュニケイション,0
1548,6120102012413,登記記録の閉鎖等,0,2024-12-09,2024-12-04,有限会社ティケイ,,有限会社,大阪府,堺市美原区,丹上５７２番地,,27,147,5870011,,,2024-12-04,清算の結了等,,,2015-10-05,1,,,,,ティケイ,0
1555,6130001049308,登記記録の閉鎖等,0,2024-12-09,2024-12-02,株式会社ナイスリフォーム,,株式会社,京都府,京都市右京区,太秦堀ケ内町２３番地の３,,26,108,6168152,,,2024-12-02,合併による解散等,3130001000818,令和６年１２月１日京都市右京区太秦堀ケ内町２３－３株式会社嵯峨ガスセンター（3130001000818）に合併し解散,2015-10-05,1,,,,,ナイスリフォーム,0
1556,6130001050959,登記記録の閉鎖等,0,2024-12-09,2024-12-05,株式会社京都新聞岩倉販売所,,株式会社,京都府,京都市左京区,岩倉三宅町３７６の９,,26,103,6060022,,,2024-12-05,清算の結了等,,,2015-10-05,1,,,,,キョウトシンブンイワクラハンバイショ,0
1562,6130002030051,登記記録の閉鎖等,0,2024-12-09,2024-12-05,有限会社ＣＡＳＡＭＩＡ,,有限会社,大阪府,大阪市北区,天満橋１丁目８番１０－６０５号,,27,127,5300042,,,2024-12-05,清算の結了等,,,2015-10-05,1,,,,,カーサミーア,0
1564,6140001053374,登記記録の閉鎖等,0,2024-12-09,2024-12-02,インレット株式会社,,株式会社,兵庫県,尼崎市,武庫之荘本町２丁目９－２０－３０７,,28,202,6610031,,,2024-12-02,清算の結了等,,,2015-10-05,1,,,,,インレット,0
1582,6180001079127,登記記録の閉鎖等,0,2024-12-09,2024-11-29,株式会社中山工芸,,株式会社,愛知県,瀬戸市,塩草町１１番地の１７７,,23,204,4890895,,,2024-11-29,清算の結了等,,,2015-10-05,1,,,,,ナカヤマコウゲイ,0
1594,6180301025482,登記記録の閉鎖等,0,2024-12-09,2024-12-05,株式会社Ｍ’ｓライク,,株式会社,愛知県,刈谷市,小垣江町塩浜３３番地,,23,210,4480813,,,2024-12-05,合併による解散等,5180001028869,令和６年１２月１日名古屋市緑区大高町字坊主山４番地３８松本工業株式会社（5180001028869）に合併し解散,2015-10-05,1,,,,,エムズライク,0
1598,6190001021236,登記記録の閉鎖等,0,2024-12-09,2024-12-04,株式会社ソレイユ,,株式会社,三重県,桑名市,長島町源部外面１４１番地,,24,205,5111125,,,2024-12-04,清算の結了等,,,2015-10-05,1,,,,,ソレイユ,0
1599,6190002023859,登記記録の閉鎖等,0,2024-12-09,2024-12-03,有限会社須賀書店,,有限会社,三重県,三重郡菰野町,大羽根園松ケ枝町１６番地の４,,24,341,5101245,,,2024-12-03,清算の結了等,,,2015-10-05,1,,,,,スガショテン,0
1604,6200003005326,登記記録の閉鎖等,0,2024-12-09,2024-12-04,合同会社ＬＡＧＯＭ,,合同会社,岐阜県,岐阜市,琴塚１丁目４番８号寿マンション琴塚２０６,00124386,21,201,5008222,,,2024-12-04,清算の結了等,,,2021-09-30,1,,,,,ラーゴム,0
1609,6240002016576,登記記録の閉鎖等,0,2024-12-09,2024-12-03,有限会社村田,,有限会社,広島県,広島市西区,己斐上３丁目５２番２０号,,34,104,7330815,,,2024-12-03,清算の結了等,,,2015-10-05,1,,,,,ムラタ,0
1615,6290005000647,登記記録の閉鎖等,0,2024-12-09,2024-11-20,御嶽教畝傍教会,,その他の設立登記法人,福岡県,福岡市中央区,舞鶴３丁目５番４号,,40,133,8100073,,,2024-11-20,清算の結了等,,,2015-10-05,1,,,,,オンタケキョウウネビキョウカイ,0
1620,6310002018631,登記記録の閉鎖等,0,2024-12-09,2024-12-05,有限会社がまだす電気,,有限会社,長崎県,南島原市,西有家町里坊２００５番地,,42,214,8592211,,,2024-12-05,清算の結了等,,,2015-10-05,1,,,,,ガマダスデンキ,0
1624,6330005000592,登記記録の閉鎖等,0,2024-12-09,2024-11-05,天理教東＿畑分教会,00098281,その他の設立登記法人,熊本県,熊本市東区,長嶺東５丁目１１番２４号,,43,102,8618038,,,2024-11-05,合併による解散等,5330005000585,令和６年１１月５日熊本市中央区水前寺三丁目１１番２号天理教東肥大教会（5330005000585）に合併し解散,2015-10-05,1,,,,,テンリキョウヒガシヒロハタブンキョウカイ,0
1627,6350002002937,登記記録の閉鎖等,0,2024-12-09,2024-12-04,有限会社田原設備,,有限会社,宮崎県,宮崎市,恒久南２丁目５番地２７,,45,201,8800915,,,2024-12-04,清算の結了等,,,2015-10-05,1,,,,,タハラセツビ,0
1628,6360005006629,登記記録の閉鎖等,0,2024-12-09,2024-12-02,一般社団法人日本総合医療福祉学院,,その他の設立登記法人,沖縄県,豊見城市,字豊崎３番地２６,,47,212,9010225,,,2024-12-02,清算の結了等,,,2022-04-11,1,,,,,ニホンソウゴウイリョウフクシガクイン,0
1629,6370002010962,登記記録の閉鎖等,0,2024-12-09,2024-12-02,有限会社小松義春企業,,有限会社,宮城県,仙台市青葉区,中央１丁目６番１３号,,04,101,9800021,,,2024-12-02,合併による解散等,4370001017878,令和６年１２月１日宮城県富谷市富ケ丘二丁目４番６号株式会社コマツコーポレーション（4370001017878）に合併し解散,2015-10-05,1,,,,,コマツヨシハルキギョウ,0
1630,6380002035868,登記記録の閉鎖等,0,2024-12-09,2024-12-02,株式会社中原企画,,株式会社,宮城県,仙台市宮城野区,榴岡４丁目１２番１号,,04,102,9830852,,,2024-12-02,合併による解散等,9380001020620,令和６年１２月１日仙台市宮城野区榴岡四丁目１２番１号株式会社つばめエイジェンシー（9380001020620）に合併し解散,2015-10-05,1,,,,,ナカハラキカク,0
1635,6410005002317,登記記録の閉鎖等,0,2024-12-09,2024-12-03,上直根牧野農業協同組合,,その他の設立登記法人,秋田県,由利本荘市,鳥海町上直根字小宮内９番地,,05,210,0150515,,,2024-12-03,清算の結了等,,,2015-10-05,1,,,,,カミヒタネボクヤ,0
1640,6430001079869,登記記録の閉鎖等,0,2024-12-09,2024-12-02,株式会社津田林業,,株式会社,北海道,沙流郡平取町,字岩知志４６番地４,,01,602,0550414,,,2024-12-02,清算の結了等,,,2019-09-24,1,,,,,ツダリンギョウ,0
1643,6430003014163,登記記録の閉鎖等,0,2024-12-09,2024-12-03,合同会社Ｓ＆Ｅ,,合同会社,北海道,札幌市中央区,南三条西８丁目２－１ＳＡＫＵＲＡ－Ｓ３,,01,101,0600063,,,2024-12-03,清算の結了等,,,2022-08-05,1,,,,,エスアンドイー,0
1646,6470002013047,登記記録の閉鎖等,0,2024-12-09,2024-12-03,ハイフィールド有限会社,,有限会社,香川県,善通寺市,原田町１４０１番地,,37,204,7650032,,,2024-12-03,清算の結了等,,,2015-10-05,1,,,,,ハイフィールド,0
1648,6500002016228,登記記録の閉鎖等,0,2024-12-09,2024-12-04,有限会社越智計算センター,,有限会社,愛媛県,新居浜市,一宮町１丁目７番４号,,38,205,7920025,,,2024-12-04,清算の結了等,,,2015-10-05,1,,,,,オチケイサンセンター,0
1663,7010005010549,登記記録の閉鎖等,0,2024-12-09,2024-12-03,医療法人社団杉交会,,その他の設立登記法人,東京都,文京区,千石２丁目１３番１３号１階,,13,105,1120011,,,2024-12-03,清算の結了等,,,2015-10-05,1,,,,,スギコウカイ,0
1677,7010701034652,登記記録の閉鎖等,0,2024-12-09,2024-12-02,株式会社フェルメールブルー,,株式会社,東京都,品川区,上大崎１丁目５番５７号,,13,109,1410021,,,2024-12-02,清算の結了等,,,2017-08-25,1,,,,,フェルメールブルー,0
1692,7011001147673,登記記録の閉鎖等,0,2024-12-09,2024-11-13,ｒｕｉｒｕｉ株式会社,,株式会社,東京都,渋谷区,渋谷２丁目１９－１５宮益坂ビルディング６０９,,13,113,1500002,,,2024-11-13,清算の結了等,,,2022-05-25,1,,,,,ルイルイ,0
1700,7011005002734,登記記録の閉鎖等,0,2024-12-09,2024-11-07,渋谷ローヤルコーポ管理組合法人,,その他の設立登記法人,東京都,渋谷区,桜丘町９番１５号,,13,113,1500031,,,2024-11-07,清算の結了等,,,2015-10-05,1,,,,,シブヤローヤルコーポ,0
1713,7011102007017,登記記録の閉鎖等,0,2024-12-09,2024-12-02,有限会社澄商会,,有限会社,東京都,新宿区,片町４番地,,13,104,1600001,,,2024-12-02,清算の結了等,,,2015-10-05,1,,,,,スミショウカイ,0
1721,7011601022318,登記記録の閉鎖等,0,2024-12-09,2024-12-02,株式会社コーモス,,株式会社,東京都,練馬区,中村北３丁目１０番７号総建中村ハイムＢ－１号,,13,120,1760023,,,2024-12-02,清算の結了等,,,2018-01-15,1,,,,,コーモス,0
1722,7011602020386,登記記録の閉鎖等,0,2024-12-09,2024-12-02,有限会社パルスブレイン,,有限会社,東京都,練馬区,石神井町１丁目１６番２号,,13,120,1770041,,,2024-12-02,清算の結了等,,,2015-10-05,1,,,,,パルスブレイン,0
1729,7012802002736,登記記録の閉鎖等,0,2024-12-09,2024-11-29,有限会社伊藤書店,,有限会社,東京都,昭島市,松原町４丁目１２番３号,,13,207,1960003,,,2024-11-29,清算の結了等,,,2015-10-05,1,,,,,イトウショテン,0
1742,7030001043138,登記記録の閉鎖等,0,2024-12-09,2024-12-04,株式会社コンドウウェルディング,,株式会社,埼玉県,北足立郡伊奈町,中央２丁目２３５番地,,11,301,3620809,,,2024-12-04,清算の結了等,,,2015-10-05,1,,,,,コンドウウェルディング,0
1749,7040001119085,登記記録の閉鎖等,0,2024-12-09,2024-12-02,株式会社龍標,,株式会社,千葉県,千葉市中央区,新宿２丁目６番１号マックスタワー１５０７号,,12,101,2600021,,,2024-12-02,清算の結了等,,,2021-06-28,1,,,,,リュウヒョウ,0
1753,7040002086408,登記記録の閉鎖等,0,2024-12-09,2024-12-03,有限会社杉森興業,,有限会社,千葉県,山武郡横芝光町,古川６０番地,,12,410,2891731,,,2024-12-03,清算の結了等,,,2015-10-05,1,,,,,スギモリコウギョウ,0
1755,7050001000509,登記記録の閉鎖等,0,2024-12-09,2024-12-03,エーステクニカル株式会社,,株式会社,茨城県,水戸市,赤塚２丁目２１１番地１９,,08,201,3114141,,,2024-12-03,清算の結了等,,,2015-10-05,1,,,,,エーステクニカル,0
1761,7050003004689,登記記録の閉鎖等,0,2024-12-09,2024-12-04,合同会社北友会メディカル,,合同会社,茨城県,ひたちなか市,大字津田１８９５番地,,08,221,3120032,,,2024-12-04,清算の結了等,,,2019-06-03,1,,,,,ホクユウカイメディカル,0
1763,7060002029281,登記記録の閉鎖等,0,2024-12-09,2024-12-04,有限会社べえかりい木馬,,有限会社,栃木県,小山市,城東２丁目１９番１５号,,09,208,3230807,,,2024-12-04,清算の結了等,,,2015-10-05,1,,,,,ベエカリイモクバ,0
1764,7060002037540,登記記録の閉鎖等,0,2024-12-09,2024-12-04,有限会社メディカル・マネジメント・オフィス,,有限会社,栃木県,足利市,福居町９０７番地１,,09,202,3260338,,,2024-12-04,清算の結了等,,,2015-10-05,1,,,,,メディカルマネジメントオフィス,0
1765,7060005003977,登記記録の閉鎖等,0,2024-12-09,2024-12-02,特定非営利活動法人ゆっくりサロン,,その他の設立登記法人,栃木県,那須郡那須町,大字湯本５１２番地１０,,09,407,3250301,,,2024-12-02,清算の結了等,,,2015-10-05,1,,,,,ユックリサロン,0
1766,7070002015108,登記記録の閉鎖等,0,2024-12-09,2024-12-04,有限会社町田家具店,,有限会社,群馬県,安中市,高別当５５９番地４,,10,211,3790132,,,2024-12-04,清算の結了等,,,2015-10-05,1,,,,,マチダカグテン,0
1772,7110001017281,登記記録の閉鎖等,0,2024-12-09,2024-12-03,株式会社黒川不動産,,株式会社,新潟県,柏崎市,新橋１０番２３号,,15,205,9450056,,,2024-12-03,清算の結了等,,,2015-10-05,1,,,,,クロカワフドウサン,0
1779,7120001233472,商号の登記の抹消,0,2024-12-09,2024-11-25,日本三菱軽工株式会社,,株式会社,大阪府,寝屋川市,三井南町９番１７号,,27,215,5720019,,,,,,,2020-12-01,1,,,,,,0
1786,7120003027055,登記記録の閉鎖等,0,2024-12-09,2024-12-03,合同会社嘉誠,,合同会社,大阪府,大阪市浪速区,恵美須西２丁目１４－１２－４０６室,,27,111,5560003,,,2024-12-03,清算の結了等,,,2024-07-19,1,,,,,カセイ,0
1792,7120102019655,登記記録の閉鎖等,0,2024-12-09,2024-12-03,有限会社エムシーサービス,,有限会社,大阪府,河内長野市,天野町９０６番地１７３,,27,216,5860086,,,2024-12-03,清算の結了等,,,2015-10-05,1,,,,,エムシーサービス,0
1805,7140001060312,登記記録の閉鎖等,0,2024-12-09,2024-11-28,株式会社中岡工務店,,株式会社,兵庫県,姫路市,西今宿６丁目１４番３６号,,28,201,6700061,,,2024-11-28,清算の結了等,,,2023-12-19,1,,,,,ナカオカコウムテン,0
1821,7160003000339,登記記録の閉鎖等,0,2024-12-09,2024-12-05,合名会社財ＤＡＮ原資債元利保証社,,合名会社,滋賀県,大津市,穴太３丁目３番１９号六庵内,,25,201,5200114,,,2024-12-05,合併による解散等,3120001138964,令和６年１２月１日京都市下京区烏丸通松原上ル因幡堂町６８２番地ハン六ホールディングス株式会社（3120001138964）に合併し解散,2015-10-05,1,,,,,ザイダンゲンシサイガンリホショウシャ,0
1841,7180302027626,登記記録の閉鎖等,0,2024-12-09,2024-12-02,有限会社城所鉄筋技工所,,有限会社,愛知県,新城市,豊島字東大坪１１番地１,,23,221,4411345,,,2024-12-02,清算の結了等,,,2015-10-05,1,,,,,キドコロテッキンギコウジョ,0
1851,7230005004925,登記記録の閉鎖等,0,2024-12-09,2024-11-01,八幡社,,その他の設立登記法人,富山県,南砺市,利賀村北原４７５番地,,16,210,9320371,,,2024-11-01,合併による解散等,9230005004915,令和６年１１月１日富山県南砺市利賀村長崎１番地蔦崎社（9230005004915）に合併し解散,2015-10-05,1,,,,,ハチマンシャ,0
1853,7240002044188,登記記録の閉鎖等,0,2024-12-09,2024-12-03,有限会社オーケープランニング,,有限会社,広島県,福山市,新涯町５丁目１９番２７号,,34,207,7210955,,,2024-12-03,清算の結了等,,,2015-10-05,1,,,,,オーケープランニング,0
1857,7260001004892,登記記録の閉鎖等,0,2024-12-09,2024-12-02,株式会社中務製瓦工業所,00003068,株式会社,岡山県,岡山市南区,妹尾４０３１番地,,33,104,7010205,,,2024-12-02,清算の結了等,,,2015-10-05,1,,,,,ナカツカサセイガコウギョウショ,0
1863,7290001086672,登記記録の閉鎖等,0,2024-12-09,2024-11-27,株式会社百田工業,,株式会社,福岡県,糟屋郡須惠町,大字佐谷３９３番地１,,40,344,8112115,,,2024-11-27,清算の結了等,,,2019-10-03,1,,,,,モモタコウギョウ,0
1867,7290002038482,登記記録の閉鎖等,0,2024-12-09,2024-11-05,有限会社井内工業,,有限会社,福岡県,春日市,天神山７丁目８６番地,,40,218,8160855,,,2024-11-05,清算の結了等,,,2015-10-05,1,,,,,イウチコウギョウ,0
1877,7350002017653,登記記録の閉鎖等,0,2024-12-09,2024-11-26,有限会社朝広教文社,,有限会社,宮崎県,小林市,細野５６５０番地３,,45,205,8860004,,,2024-11-26,清算の結了等,,,2015-10-05,1,,,,,アサヒロキョウブンシャ,0
1882,7370005001818,登記記録の閉鎖等,0,2024-12-09,2024-12-02,医療法人社団慶健会,,その他の設立登記法人,宮城県,仙台市青葉区,落合６丁目１番地の１,,04,101,9893126,,,2024-12-02,清算の結了等,,,2015-10-05,1,,,,,シャダンケイケンカイ,0
1890,7400002003796,登記記録の閉鎖等,0,2024-12-09,2024-11-28,伊東クリーニング資材有限会社,,有限会社,岩手県,滝沢市,鵜飼石留４１番地６,,03,216,0200673,,,2024-11-28,清算の結了等,,,2015-10-05,1,,,,,イトウクリーニングシザイ,0
1892,7420001004686,登記記録の閉鎖等,0,2024-12-09,2024-12-02,株式会社カーメイク青森,,株式会社,青森県,青森市,大字野木字野尻４３番地４,,02,201,0300142,,,2024-12-02,合併による解散等,1420001011267,令和６年１２月１日青森県上北郡六戸町大字折茂字上折茂６９番地２０株式会社日産青森サービスセンター（1420001011267）に合併し解散,2015-10-05,1,,,,,カーメイクアオモリ,0
1895,7430001075140,登記記録の閉鎖等,0,2024-12-09,2024-12-03,株式会社大万スクール,,株式会社,北海道,札幌市東区,北六条東５丁目１番７,,01,103,0600906,,,2024-12-03,清算の結了等,,,2017-10-13,1,,,,,ダイマンスクール,0
1897,7430001079942,登記記録の閉鎖等,0,2024-12-09,2024-12-04,株式会社セキュラ札幌サービス,,株式会社,北海道,札幌市白石区,南郷通１６丁目北９番８号,,01,104,0030023,,,2024-12-04,清算の結了等,,,2019-10-02,1,,,,,セキュラサッポロサービス,0
1899,7430002057914,登記記録の閉鎖等,0,2024-12-09,2024-12-03,有限会社浅野鉄工,,有限会社,北海道,苫小牧市,あけぼの町１丁目３番９号,,01,213,0591366,,,2024-12-03,清算の結了等,,,2015-10-05,1,,,,,アサノテッコウ,0
1919,8010401024911,登記記録の閉鎖等,0,2024-12-09,2024-11-21,株式会社ビジネスアクト,,株式会社,東京都,港区,赤坂４丁目１３番５号赤坂オフィスハイツ１４７号,,13,103,1070052,,,2024-11-21,清算の結了等,,,2015-10-05,1,,,,,ビジネスアクト,0
1920,8010401125783,登記記録の閉鎖等,0,2024-12-09,2024-12-04,株式会社Ｖｅｎｚ,,株式会社,東京都,渋谷区,渋谷２丁目３番４号スタービル青山３階,,13,113,1500002,,,2024-12-04,清算の結了等,,,2016-07-12,1,,,,,ベンズ,0
1923,8010401177065,登記記録の閉鎖等,0,2024-12-09,2024-11-19,株式会社ＲＩＤＤＥＲ　ＪＡＰＡＮ,,株式会社,東京都,港区,赤坂４丁目８番１９号,,13,103,1070052,,,2024-11-19,清算の結了等,,,2023-09-12,1,,,,,リダージャパン,0
1931,8010601002964,登記記録の閉鎖等,0,2024-12-09,2024-12-05,江信特殊硝子株式会社,,株式会社,東京都,江東区,住吉２丁目２５番５号,,13,108,1350002,,,2024-12-05,合併による解散等,3010001246035,令和６年１２月１日東京都千代田区大手町一丁目５番１号江信特殊硝子株式会社（3010001246035）に合併し解散,2015-10-05,1,,,,,コウシントクシュガラス,0
1954,8011303003037,登記記録の閉鎖等,0,2024-12-09,2024-11-28,姿勢美スマイル合同会社,,合同会社,東京都,渋谷区,元代々木町２５番８号レスポワール代々木公園２０５号,,13,113,1510062,,,2024-11-28,清算の結了等,,,2018-06-11,1,,,,,シセイビスマイル,0
1961,8011802007629,登記記録の閉鎖等,0,2024-12-09,2024-11-29,有限会社ミヤコ住宅,,有限会社,東京都,葛飾区,奥戸２丁目２７番１号,,13,122,1240022,,,2024-11-29,清算の結了等,,,2015-10-05,1,,,,,ミヤコジュウタク,0
1968,8012801000723,登記記録の閉鎖等,0,2024-12-09,2024-12-04,新和産業株式会社,,株式会社,東京都,立川市,曙町３丁目４６番７号,00058620,13,202,1900012,,,2024-12-04,清算の結了等,,,2015-10-05,1,,,,,,0
1972,8013401005105,登記記録の閉鎖等,0,2024-12-09,2024-12-02,株式会社山崎製作所,,株式会社,東京都,日野市,平山５丁目２３番地の１,,13,212,1910043,,,2024-12-02,清算の結了等,,,2015-10-05,1,,,,,,0
1979,8020002063820,登記記録の閉鎖等,0,2024-12-09,2024-11-29,有限会社井上精機,,有限会社,神奈川県,横浜市都筑区,池辺町２７４０番地,,14,118,2240053,,,2024-11-29,清算の結了等,,,2015-10-05,1,,,,,イノウエセイキ,0
1984,8021001056872,登記記録の閉鎖等,0,2024-12-09,2024-12-05,株式会社アクア薬局,,株式会社,神奈川県,秦野市,鶴巻北２丁目２番１号ライオンズマンション鶴巻温泉１０６号室,,14,211,2570001,,,2024-12-05,合併による解散等,8021001050396,令和６年１２月１日神奈川県足柄上郡中井町井ノ口１８７６番地の１株式会社なかいまち薬局（8021001050396）に合併し解散,2015-10-05,1,,,,,アクアヤッキョク,0
1994,8030001158050,登記記録の閉鎖等,0,2024-12-09,2024-12-04,株式会社ナカムラ内装,,株式会社,埼玉県,北葛飾郡杉戸町,大字倉松１９５番地５,,11,464,3450034,,,2024-12-04,清算の結了等,,,2024-01-12,1,,,,,ナカムラナイソウ,0
1996,8030003008088,登記記録の閉鎖等,0,2024-12-09,2024-12-05,合同会社蓮工業,,合同会社,埼玉県,春日部市,道口蛭田１７６番地１０ハウスセブン１０２,,11,214,3440045,,,2024-12-05,清算の結了等,,,2015-11-12,1,,,,,レンコウギョウ,0
2002,8040002048299,登記記録の閉鎖等,0,2024-12-09,2024-12-03,有限会社藤木製作所,,有限会社,千葉県,松戸市,松戸５７４番地,,12,207,2710092,,,2024-12-03,清算の結了等,,,2015-10-05,1,,,,,フジキセイサクショ,0
2015,8080401011218,登記記録の閉鎖等,0,2024-12-09,2024-12-04,株式会社ハル,,株式会社,静岡県,浜松市中央区,住吉５丁目２５番１０号,,22,138,4300906,,,2024-12-04,清算の結了等,,,2015-10-05,1,,,,,ハル,0
2020,8110001028658,登記記録の閉鎖等,0,2024-12-09,2024-12-03,株式会社カラフルライフ,,株式会社,新潟県,新潟市秋葉区,小須戸７８番地４,,15,105,9560101,,,2024-12-03,清算の結了等,,,2015-10-05,1,,,,,カラフルライフ,0
2037,8120002062465,登記記録の閉鎖等,0,2024-12-09,2024-12-03,有限会社ＳＡＮＹ,,有限会社,大阪府,大阪市城東区,新喜多２丁目５番２５号,,27,118,5360015,,,2024-12-03,清算の結了等,,,2015-10-05,1,,,,,サニー,0
2069,8140002045864,登記記録の閉鎖等,0,2024-12-09,2024-12-03,有限会社アガソーイング,,有限会社,兵庫県,豊岡市,庄境１０１番地の５,,28,209,6680873,,,2024-12-03,清算の結了等,,,2015-10-05,1,,,,,アガソーイング,0
2071,8140002065326,登記記録の閉鎖等,0,2024-12-09,2024-11-26,有限会社美容室ぷらすわん,,有限会社,兵庫県,川西市,久代４丁目５番２５号,,28,217,6660024,,,2024-11-26,清算の結了等,,,2015-10-05,1,,,,,ビヨウシツプラスワン,0
2076,8160002008968,登記記録の閉鎖等,0,2024-12-09,2024-12-05,有限会社オーディー,,有限会社,滋賀県,彦根市,野瀬町６４２番地,,25,202,5220055,,,2024-12-05,清算の結了等,,,2015-10-05,1,,,,,オーディー,0
2097,8180302012370,登記記録の閉鎖等,0,2024-12-09,2024-12-02,有限会社設計室基,,有限会社,愛知県,豊橋市,嵩山町字神畑４１番地の２,,23,201,4411111,,,2024-12-02,清算の結了等,,,2015-10-05,1,,,,,セッケイシツモトイ,0
2100,8210001003130,登記記録の閉鎖等,0,2024-12-09,2024-12-03,福陽精機株式会社,,株式会社,福井県,あわら市,次郎丸第１５号２０番地１,,18,208,9190745,,,2024-12-03,清算の結了等,,,2015-10-05,1,,,,,フクヨウセイキ,0
2104,8240001016344,登記記録の閉鎖等,0,2024-12-09,2024-12-04,株式会社ロンシャン,,株式会社,広島県,広島市中区,江波南２丁目１２番１０－２１１号,,34,101,7300835,,,2024-12-04,清算の結了等,,,2015-10-05,1,,,,,ロンシャン,0
2111,8250002014156,登記記録の閉鎖等,0,2024-12-09,2024-12-05,有限会社サカクラ管工事,,有限会社,山口県,長門市,東深川１１９６番地の３,,35,211,7594101,,,2024-12-05,清算の結了等,,,2015-10-05,1,,,,,サカクラカンコウジ,0
2116,8290001094063,登記記録の閉鎖等,0,2024-12-09,2024-11-29,ふくおかクリエイト株式会社,,株式会社,福岡県,福岡市中央区,港３丁目３番１４号,,40,133,8100075,,,2024-11-29,合併による解散等,3290001009950,令和６年１１月２９日福岡市中央区港三丁目３番１４号福岡造船株式会社（3290001009950）に合併し解散,2021-08-04,1,,,,,フクオカクリエイト,0
2128,8310001016709,登記記録の閉鎖等,0,2024-12-09,2024-12-02,株式会社Ｅ－Ｒｅｌａｔｉｏｎｓ,,株式会社,長崎県,大村市,古賀島町９４番地３１グレイスフル山本３０７号,,42,205,8560817,,,2024-12-02,合併による解散等,9310001015222,令和６年１２月１日長崎県諫早市栗面町７７０番地７イーネストホールディングス株式会社（9310001015222）に合併し解散,2020-06-02,1,,,,,イーリレーションズ,0
2132,8330002008884,登記記録の閉鎖等,0,2024-12-09,2024-12-02,有限会社フォーレスト開発,,有限会社,熊本県,熊本市中央区,水前寺６丁目８番８号,,43,101,8620950,,,2024-12-02,清算の結了等,,,2015-10-05,1,,,,,,0
2135,8330005005334,登記記録の閉鎖等,0,2024-12-09,2024-11-05,天理教肥之隈分教会,,その他の設立登記法人,熊本県,宇土市,馬之瀬町８０番地３,,43,211,8690405,,,2024-11-05,合併による解散等,5330005000585,令和６年１１月５日熊本市中央区水前寺三丁目１１番２号天理教東肥大教会（5330005000585）に合併し解散,2015-10-05,1,,,,,テンリキョウヒノクマブンキョウカイ,0
2151,8430002003487,登記記録の閉鎖等,0,2024-12-09,2024-12-02,有限会社エム・ティ・シー,,有限会社,北海道,札幌市中央区,南十二条西２３丁目１番１－６０１号,,01,101,0640912,,,2024-12-02,清算の結了等,,,2015-10-05,1,,,,,,0
2154,8480002001742,登記記録の閉鎖等,0,2024-12-09,2024-12-06,有限会社近藤ビル,,有限会社,徳島県,徳島市,栄町１丁目５８番地,,36,201,7700921,,,2024-12-06,清算の結了等,,,2015-10-05,1,,,,,コンドウビル,0
2157,8500001025327,登記記録の閉鎖等,0,2024-12-09,2024-11-29,ＮＰＳ・イヨサン株式会社,,株式会社,愛媛県,四国中央市,豊岡町豊田２３番地１,,38,213,7990433,,,2024-11-29,清算の結了等,,,2023-11-24,1,,,,,エヌエスピーイヨサン,0
2158,8500002013826,登記記録の閉鎖等,0,2024-12-09,2024-11-01,有限会社フレッシュ菜,,有限会社,愛媛県,八幡浜市,千代田町１４６０番地８０,,38,204,7960076,,,2024-11-01,合併による解散等,7500001008324,令和６年１１月１日愛媛県八幡浜市千代田町１４６０番地８０清水商事株式会社（7500001008324）に合併し解散,2015-10-05,1,,,,,フレッシュサイ,0
2182,9010501012121,登記記録の閉鎖等,0,2024-12-09,2024-12-02,株式会社フジトレイディング,,株式会社,東京都,台東区,上野５丁目１３番１１号,,13,106,1100005,,,2024-12-02,清算の結了等,,,2015-10-05,1,,,,,フジトレイディング,0
2192,9010803004774,登記記録の閉鎖等,0,2024-12-09,2024-11-26,オフィス・ゼロ合同会社,,合同会社,東京都,大田区,矢口３丁目９番１７号,,13,111,1460093,,,2024-11-26,清算の結了等,,,2023-12-13,1,,,,,オフィスゼロ,0
2195,9011001040158,登記記録の閉鎖等,0,2024-12-09,2024-12-02,株式会社ＡＦＣ,,株式会社,東京都,品川区,東五反田１丁目６番３号いちご東五反田ビル２階,,13,109,1410022,,,2024-12-02,合併による解散等,5010701007833,令和６年１２月１日東京都品川区東五反田一丁目６番３号いちご東五反田ビル２階株式会社ＩＨＭ（5010701007833）に合併し解散,2015-10-05,1,,,,,エーエフシー,0
2203,9011101100241,登記記録の閉鎖等,0,2024-12-09,2024-12-02,株式会社アガルートテクノロジーズ,,株式会社,東京都,新宿区,新小川町５番５号,,13,104,1620814,,,2024-12-02,合併による解散等,8010501043258,令和６年１２月１日東京都新宿区新小川町５番５号サンケンビル４Ｆ株式会社プラハ（8010501043258）に合併し解散,2022-09-20,1,,,,,アガルートテクノロジーズ,0
2211,9011205001492,登記記録の閉鎖等,0,2024-12-09,2024-12-06,医療法人社団下赤整形外科クリニック,,その他の設立登記法人,東京都,中野区,松が丘１丁目３３番１５号アリスビル１Ｆ,,13,114,1650024,,,2024-12-06,清算の結了等,,,2015-10-05,1,,,,,シモアカセイケイゲカクリニック,0
2214,9011401000447,登記記録の閉鎖等,0,2024-12-09,2024-12-04,株式会社あらむや,,株式会社,東京都,板橋区,南常盤台１丁目７番８号,,13,119,1740072,,,2024-12-04,清算の結了等,,,2015-10-05,1,,,,,アラムヤ,0
2219,9011701021531,登記記録の閉鎖等,0,2024-12-09,2024-12-02,株式会社オフィスしろお,,株式会社,東京都,江戸川区,一之江４丁目３番１６号,,13,123,1320024,,,2024-12-02,清算の結了等,,,2018-02-15,1,,,,,オフィスシロオ,0
2224,9011802020721,登記記録の閉鎖等,0,2024-12-09,2024-12-05,南場工業有限会社,,有限会社,東京都,足立区,千住東１丁目１６番３号,,13,121,1200025,,,2024-12-05,清算の結了等,,,2015-10-05,1,,,,,ナンバコウギョウ,0
2231,9020001048409,登記記録の閉鎖等,0,2024-12-09,2024-12-02,株式会社つばさ,,株式会社,神奈川県,横浜市磯子区,磯子２丁目２８番１７－３０４号,,14,107,2350016,,,2024-12-02,清算の結了等,,,2015-10-05,1,,,,,ツバサ,0
2248,9030001106784,登記記録の閉鎖等,0,2024-12-09,2024-12-04,株式会社エーゼット,,株式会社,埼玉県,鴻巣市,小松４丁目２番１１－１０５号,,11,217,3650041,,,2024-12-04,清算の結了等,,,2015-10-05,1,,,,,エーゼット,0
2252,9030002040537,登記記録の閉鎖等,0,2024-12-09,2024-12-03,有限会社田口自動車,,有限会社,埼玉県,加須市,小野袋１８６４番地,,11,210,3491202,,,2024-12-03,清算の結了等,,,2015-10-05,1,,,,,タグチジドウシャ,0
2265,9040002043605,登記記録の閉鎖等,0,2024-12-09,2024-12-02,有限会社安房機工,,有限会社,千葉県,鎌ケ谷市,くぬぎ山３丁目１１番１０号,,12,224,2730128,,,2024-12-02,清算の結了等,,,2015-10-05,1,,,,,アワキコウ,0
2272,9050005012234,登記記録の閉鎖等,0,2024-12-09,2024-12-04,税理士法人大谷会計事務所,,その他の設立登記法人,茨城県,水戸市,新荘２丁目１５番２１号,,08,201,3100036,,,2024-12-04,清算の結了等,,,2018-01-10,1,,,,,オオタニカイケイジムショ,0
2279,9070002017515,登記記録の閉鎖等,0,2024-12-09,2024-12-06,有限会社鮨友,,有限会社,群馬県,藤岡市,中大塚２７５番地１,,10,209,3750053,,,2024-12-06,清算の結了等,,,2015-10-05,1,,,,,スシトモ,0
2287,9080002002904,登記記録の閉鎖等,0,2024-12-09,2024-12-03,有限会社杉山鍍金工業所,,有限会社,静岡県,静岡市葵区,伊呂波町５番１０号,,22,101,4200946,,,2024-12-03,清算の結了等,,,2015-10-05,1,,,,,スギヤマメッキコウギョウショ,0
2288,9080103003017,登記記録の閉鎖等,0,2024-12-09,2024-12-03,合同会社リブリッジ,,合同会社,静岡県,富士市,伝法１６６８番地１６,,22,210,4170061,,,2024-12-03,清算の結了等,,,2024-03-29,1,,,,,リブリッジ,0
2296,9120001249483,登記記録の閉鎖等,0,2024-12-09,2024-12-06,株式会社御幣島製作所,,株式会社,大阪府,大阪市北区,堂島２丁目２番８－１６０３号,,27,127,5300003,,,2024-12-06,清算の結了等,,,2022-10-14,1,,,,,ミテジマセイサクショ,0
2299,9120101006074,登記記録の閉鎖等,0,2024-12-09,2024-12-03,株式会社ファウンド,,株式会社,大阪府,堺市堺区,北三国ヶ丘町８丁４番１３号,,27,141,5900021,,,2024-12-03,清算の結了等,,,2015-10-05,1,,,,,ファウンド,0
2328,9150005002324,登記記録の閉鎖等,0,2024-12-09,2024-12-02,医療法人香悠会稲田医院,,その他の設立登記法人,奈良県,生駒市,元町１丁目５番５号,,29,209,6300257,,,2024-12-02,清算の結了等,,,2015-10-05,1,,,,,コウユウカイイナダイイン,0
2331,9160002011475,登記記録の閉鎖等,0,2024-12-09,2024-12-04,有限会社美装百瀬,,有限会社,滋賀県,高島市,マキノ町中庄７９９番地,,25,212,5201823,,,2024-12-04,清算の結了等,,,2015-10-05,1,,,,,ビソウモモセ,0
2334,9180001128104,登記記録の閉鎖等,0,2024-12-09,2024-12-02,株式会社ＫＥＮＴＯ,,株式会社,愛知県,名古屋市西区,上名古屋３丁目７番２２号－２,,23,104,4510025,,,2024-12-02,清算の結了等,,,2017-06-06,1,,,,,ケント,0
2351,9260002004758,登記記録の閉鎖等,0,2024-12-09,2024-12-02,有限会社ジオ・デザイン研究所,,有限会社,岡山県,総社市,奥坂２３４番地１,,33,208,7191101,,,2024-12-02,清算の結了等,,,2015-10-05,1,,,,,ジオデザインケンキュウショ,0
2352,9260002011085,登記記録の閉鎖等,0,2024-12-09,2024-12-02,有限会社山陽タクシー,,有限会社,岡山県,赤磐市,下市５１０番地４,,33,213,7090816,,,2024-12-02,清算の結了等,,,2015-10-05,1,,,,,サンヨウタクシー,0
2365,9290802003345,登記記録の閉鎖等,0,2024-12-09,2024-12-05,有限会社白石電化サービス,,有限会社,福岡県,北九州市小倉北区,皿山町２４番４号,,40,106,8030854,,,2024-12-05,清算の結了等,,,2015-10-05,1,,,,,シライシデンカサービス,0
2367,9290802025868,登記記録の閉鎖等,0,2024-12-09,2024-12-05,有限会社新橋保険事務所,,有限会社,福岡県,田川市,大字伊田４９２３番地,,40,206,8250002,,,2024-12-05,清算の結了等,,,2015-10-05,1,,,,,シンバシホケンジムショ,0
2375,9330002022174,登記記録の閉鎖等,0,2024-12-09,2024-12-02,有限会社角口水産,,有限会社,熊本県,玉名市,岱明町鍋２３２０番地８５,,43,206,8690211,,,2024-12-02,清算の結了等,,,2015-10-05,1,,,,,カドグチスイサン,0
2376,9330003002654,登記記録の閉鎖等,0,2024-12-09,2024-12-02,合資会社萬屋呉服店,,合資会社,熊本県,阿蘇郡小国町,大字宮原２０３４番地の４,,43,424,8692501,,,2024-12-02,清算の結了等,,,2015-10-05,1,,,,,ヨロズヤゴフクテン,0
2377,9330005007040,登記記録の閉鎖等,0,2024-12-09,2024-11-05,天理教天草分教会,,その他の設立登記法人,熊本県,天草市,川原町５番５号,,43,215,8630024,,,2024-11-05,合併による解散等,5330005000585,令和６年１１月５日熊本市中央区水前寺三丁目１１番２号天理教東肥大教会（5330005000585）に合併し解散,2015-10-05,1,,,,,テンリキョウアマクサブンキョウカイ,0
2384,9370001048159,登記記録の閉鎖等,0,2024-12-09,2024-12-02,株式会社ハーチ,,株式会社,宮城県,仙台市青葉区,八幡２丁目７番２１号,,04,101,9800871,,,2024-12-02,合併による解散等,9370001025389,令和６年１２月１日仙台市青葉区桜ケ丘一丁目１番１０号株式会社チェリーヒルズ（9370001025389）に合併し解散,2022-02-03,1,,,,,ハーチ,0
2393,9400002008455,登記記録の閉鎖等,0,2024-12-09,2024-11-29,有限会社花巻水道工業所,,有限会社,岩手県,花巻市,東町９番１５号,,03,205,0250088,,,2024-11-29,清算の結了等,,,2015-10-05,1,,,,,ハナマキスイドウコウギョウショ,0
2399,9430001043277,登記記録の閉鎖等,0,2024-12-09,2024-12-04,ブライトハビングプロジェクト株式会社,,株式会社,北海道,江別市,野幌屯田町４５番地の８,,01,217,0690803,,,2024-12-04,清算の結了等,,,2015-10-05,1,,,,,ブライトハビングプロジェクト,0
2405,9430002063588,登記記録の閉鎖等,0,2024-12-09,2024-12-02,有限会社井上,,有限会社,北海道,虻田郡洞爺湖町,高砂町３７番地の１４,,01,584,0495605,,,2024-12-02,清算の結了等,,,2015-10-05,1,,,,,イノウエ,0
2410,9500003002744,登記記録の閉鎖等,0,2024-12-09,2024-12-05,ｃｅｎ合同会社,,合同会社,愛媛県,今治市,矢田甲８２４番地７,,38,202,7940073,,,2024-12-05,清算の結了等,,,2022-01-04,1,,,,,セン,0
