sequenceNumber,corporateNumber,process,correct,updateDate,changeDate,name,nameImageId,kind,prefectureName,cityName,streetNumber,addressImageId,prefectureCode,cityCode,postCode,addressOutside,addressOutsideImageId,closeDate,closeCause,successorCorporateNumber,changeCause,assignmentDate,latest,enName,enPrefectureName,enCityName,enAddressOutside,furigana,hihyoji
7,1010001246986,新規,0,2024-08-06,2024-08-06,ＦＫホールディングス株式会社,,株式会社,東京都,千代田区,丸の内２丁目１番１号明治安田生命ビル１１階,,13,101,1000005,,,,,,,2024-08-06,1,,,,,エフケーホールディングス,0
8,1010001247010,新規,0,2024-08-06,2024-08-06,株式会社ｃｒａｆｔｂａｓｅ,,株式会社,東京都,中央区,日本橋茅場町２丁目７－４,,13,102,1030025,,,,,,,2024-08-06,1,,,,,クラフトベース,0
9,1010001247167,新規,0,2024-08-06,2024-08-06,ＮＡＯＭＡＴＳＵ株式会社,,株式会社,東京都,千代田区,神田佐久間町２丁目１８番地１秋葉原ＳＴＮフロント１０階,,13,101,1010025,,,,,,,2024-08-06,1,,,,,ナオマツ,0
10,1010001247175,新規,0,2024-08-06,2024-08-06,株式会社Ａｒｃｈｅ　Ｗｏｒｋｓ,,株式会社,東京都,千代田区,九段南１丁目５番６号りそな九段ビル５ＦＫＳフロア,,13,101,1020074,,,,,,,2024-08-06,1,,,,,アルケーワークス,0
11,1010001247217,新規,0,2024-08-06,2024-08-06,株式会社ＦＩＴＳ,,株式会社,東京都,千代田区,丸の内２丁目３番２号郵船ビルディング１階,,13,101,1000005,,,,,,,2024-08-06,1,,,,,フィッツ,0
12,1010001247225,新規,0,2024-08-06,2024-08-06,アトレスター株式会社,,株式会社,東京都,千代田区,丸の内１丁目１１番１号パシフィックセンチュリープレイス丸の内１３階,,13,101,1000005,,,,,,,2024-08-06,1,,,,,アトレスター,0
13,1010001247258,新規,0,2024-08-06,2024-08-06,株式会社シンセカイ,,株式会社,東京都,中央区,銀座１丁目１２番４号Ｎ＆Ｅ、ＢＬＤ．７階,,13,102,1040061,,,,,,,2024-08-06,1,,,,,シンセカイ,0
16,1010003044463,新規,0,2024-08-06,2024-08-06,合同会社Ｍａｋｅ　ｔｈｅ　ｓｔｏｒｙ,,合同会社,東京都,千代田区,神田三崎町１丁目４番８号Ｂ１Ｆ,,13,101,1010061,,,,,,,2024-08-06,1,,,,,メイクザストリー,0
17,1010003044521,新規,0,2024-08-06,2024-08-06,ＺｅｎｉｔｈＺｏｎｅ合同会社,,合同会社,東京都,中央区,銀座１丁目２２番１１号銀座大竹ビジデンス２Ｆ,,13,102,1040061,,,,,,,2024-08-06,1,,,,,ゼニスゾーン,0
19,1010005038629,新規,0,2024-08-06,2024-08-06,アセンディア税理士法人,,その他の設立登記法人,東京都,中央区,日本橋２丁目１番３号,,13,102,1030027,,,,,,,2024-08-06,1,,,,,アセンディア,0
20,1010005038637,新規,0,2024-08-06,2024-08-06,アザレア一般社団法人,,その他の設立登記法人,東京都,千代田区,丸の内１丁目４番１号東京共同会計事務所内,,13,101,1000005,,,,,,,2024-08-06,1,,,,,アザレア,0
23,1010101016273,新規,0,2024-08-06,2024-08-06,株式会社恵比須通商,,株式会社,東京都,八王子市,めじろ台４丁目８番地１１,,13,201,1930833,,,,,,,2024-08-06,1,,,,,エビスツウショウ,0
32,1010401184209,新規,0,2024-08-06,2024-08-06,Ｒｏｃｋ　Ａｓｓｉｓｔ株式会社,,株式会社,東京都,港区,南青山１丁目１５番２７号ＹＭビル１階,,13,103,1070062,,,,,,,2024-08-06,1,,,,,ロックアシスト,0
33,1010601065704,新規,0,2024-08-06,2024-08-06,株式会社Ｇａｔｅ　Ｓｔａｒ,,株式会社,東京都,江東区,豊洲２丁目５番１号,,13,108,1350061,,,,,,,2024-08-06,1,,,,,ゲートスター,0
34,1010603011012,新規,0,2024-08-06,2024-08-06,Ｔ．ｒ．ｃ合同会社,,合同会社,東京都,墨田区,業平２丁目１２－１－１,,13,107,1300002,,,,,,,2024-08-06,1,,,,,ティーアールシー,0
36,1010701046364,新規,0,2024-08-06,2024-08-06,ＢＯＳＳ株式会社,,株式会社,東京都,品川区,西五反田８丁目１番１１－７０３号,,13,109,1410031,,,,,,,2024-08-06,1,,,,,ボス,0
37,1010701046380,新規,0,2024-08-06,2024-08-06,株式会社シトラス,,株式会社,東京都,品川区,西五反田１丁目２６番２号五反田サンハイツビル２Ｆ２４０号室,,13,109,1410031,,,,,,,2024-08-06,1,,,,,シトラス,0
38,1010801035300,新規,0,2024-08-06,2024-08-06,武田興業株式会社,,株式会社,東京都,大田区,大森本町２丁目３０番４号２０２号室,,13,111,1430011,,,,,,,2024-08-06,1,,,,,タケダコウギョウ,0
39,1010803005053,新規,0,2024-08-06,2024-08-06,合同会社ｎｕｔｓ,,合同会社,東京都,大田区,大森東２丁目２９－５,,13,111,1430012,,,,,,,2024-08-06,1,,,,,ナッツ,0
40,1010901055751,新規,0,2024-08-06,2024-08-06,株式会社うえもと,,株式会社,東京都,世田谷区,奥沢３丁目３２番７号シャングリラ奥沢１Ｆ,,13,112,1580083,,,,,,,2024-08-06,1,,,,,ウエモト,0
52,1011101108291,新規,0,2024-08-06,2024-08-06,株式会社ＪＫ,,株式会社,東京都,新宿区,高田馬場２丁目８－２６興和ビルディング６階,,13,104,1690075,,,,,,,2024-08-06,1,,,,,ジェイケイ,0
56,1011501031003,新規,0,2024-08-06,2024-08-06,株式会社Ａ＆ＫＭ,,株式会社,東京都,荒川区,南千住６丁目３７番７－９０８号,,13,118,1160003,,,,,,,2024-08-06,1,,,,,エイアンドケイエム,0
59,1011601027958,新規,0,2024-08-06,2024-08-06,株式会社ＧＯＯＤ　ＯＶＥＲ　ＡＬＬ　ＴＩＭＥ,,株式会社,東京都,練馬区,上石神井３丁目４－６,,13,120,1770044,,,,,,,2024-08-06,1,,,,,グッドオーバーオールタイム,0
62,1012301014032,新規,0,2024-08-06,2024-08-06,株式会社ＬＩＦＩＸ絆,,株式会社,東京都,町田市,中町１丁目２番６号セントラルシティハイツ１０１,,13,209,1940021,,,,,,,2024-08-06,1,,,,,リフィックスキズナ,0
63,1012301014040,新規,0,2024-08-06,2024-08-06,株式会社ＪＪ．ＣＯＭ,,株式会社,東京都,町田市,図師町２２５４番地４２,,13,209,1940203,,,,,,,2024-08-06,1,,,,,ジェイジェイドットコム,0
66,1012703003062,新規,0,2024-08-06,2024-08-06,合同会社結,,合同会社,東京都,清瀬市,中里４丁目８４７－３,,13,221,2040003,,,,,,,2024-08-06,1,,,,,ユイ,0
67,1012805003282,新規,0,2024-08-06,2024-08-06,一般社団法人インターナショナルエステティックセラピスト協会,,その他の設立登記法人,東京都,立川市,高松町３丁目８番１号ファーレ高松ビル４０１号,,13,202,1900011,,,,,,,2024-08-06,1,,,,,インターナショナルエステティックセラピストキョーカイ,0
77,1020001158297,新規,0,2024-08-06,2024-08-06,株式会社Ｊｚｐｌｕｓ,,株式会社,神奈川県,川崎市中原区,新丸子東３丁目１３０１番地Ｇ３８０７,,14,133,2110004,,,,,,,2024-08-06,1,,,,,ジェイズプラス,0
78,1020001158322,新規,0,2024-08-06,2024-08-06,ＢＯＴＯ株式会社,,株式会社,神奈川県,横浜市西区,浅間町１丁目９－２０・２Ｆ,,14,103,2200072,,,,,,,2024-08-06,1,,,,,ボト,0
79,1020001158355,新規,0,2024-08-06,2024-08-06,株式会社Ｆヨコアド,,株式会社,神奈川県,横浜市西区,みなとみらい２丁目２番１号,,14,103,2200012,,,,,,,2024-08-06,1,,,,,エフヨコアド,0
82,1020003026584,新規,0,2024-08-06,2024-08-06,Ｆａｒ　Ｅａｓｔ　Ｅｘｐｏｒｔｓ合同会社,,合同会社,神奈川県,横浜市港南区,上大岡東１丁目３７番６号興和ビル２０４,,14,111,2330001,,,,,,,2024-08-06,1,,,,,ファーイーストエクスポーツ,0
87,1021001082850,新規,0,2024-08-06,2024-08-06,ＳＡＴＯＲＵ株式会社,,株式会社,神奈川県,相模原市中央区,南橋本２丁目１番５－４号,,14,152,2520253,,,,,,,2024-08-06,1,,,,,サトル,0
88,1021001082875,新規,0,2024-08-06,2024-08-06,株式会社ｋ３,,株式会社,神奈川県,三浦郡葉山町,下山口５０４番地の４６,,14,301,2400116,,,,,,,2024-08-06,1,,,,,ケースリー,0
89,1021001082891,新規,0,2024-08-06,2024-08-06,株式会社ファイヤ・ピット,,株式会社,神奈川県,中郡大磯町,高麗３丁目３番４５号１０１号室,,14,341,2550001,,,,,,,2024-08-06,1,,,,,ファイヤピット,0
96,1030001161787,新規,0,2024-08-06,2024-08-06,カスタマーサポートデスク株式会社,,株式会社,埼玉県,ふじみ野市,丸山５番９号,,11,245,3560035,,,,,,,2024-08-06,1,,,,,カスタマーサポートデスク,0
106,1040001134809,新規,0,2024-08-06,2024-08-06,株式会社Ｓｕｎ,,株式会社,千葉県,柏市,中央１丁目２番２８号浜島ビル１Ｆ,,12,217,2770023,,,,,,,2024-08-06,1,,,,,サン,0
107,1040001134882,新規,0,2024-08-06,2024-08-06,ＤａＮｅｅｌ　Ｉｎｓｉｇｈｔ株式会社,,株式会社,千葉県,船橋市,本町６丁目１８番１９第３山中ビル４０１号室,,12,204,2730005,,,,,,,2024-08-06,1,,,,,ダニールインサイト,0
114,1050001055178,新規,0,2024-08-06,2024-08-06,株式会社サンカンパニー,,株式会社,茨城県,神栖市,大野原３丁目１番１２号,,08,232,3140144,,,,,,,2024-08-06,1,,,,,サンカンパニー,0
130,1080001026416,新規,0,2024-08-06,2024-08-06,株式会社ｎｉｓｈｉｏ　ｐａｉｎｔ,,株式会社,静岡県,焼津市,田尻２７０２番地,,22,212,4250052,,,,,,,2024-08-06,1,,,,,ニシオペイント,0
132,1080103003107,新規,0,2024-08-06,2024-08-06,合同会社ＫＲＭ,,合同会社,静岡県,熱海市,上多賀９６３－８,,22,205,4130101,,,,,,,2024-08-06,1,,,,,ケーアールエム,0
133,1080103003115,新規,0,2024-08-06,2024-08-06,合同会社ＡＣＥ　ＳＴＯＣＫ,,合同会社,静岡県,御殿場市,御殿場５２２番地の１,,22,215,4120028,,,,,,,2024-08-06,1,,,,,エースストック,0
134,1080401027336,新規,0,2024-08-06,2024-08-06,株式会社Ｔｗｉｎｓ,,株式会社,静岡県,浜松市中央区,小池町７２４番地の１,,22,138,4350056,,,,,,,2024-08-06,1,,,,,ツインズ,0
135,1080401027360,新規,0,2024-08-06,2024-08-06,株式会社Ｏｖｅｒ,,株式会社,静岡県,浜松市中央区,瓜内町８６５番地,,22,138,4300854,,,,,,,2024-08-06,1,,,,,オーバー,0
140,1090003002612,新規,0,2024-08-06,2024-08-06,合同会社ＡＩＲ　ＭＡＸ,,合同会社,山梨県,南都留郡忍野村,忍草３２３４番地３,,19,424,4010511,,,,,,,2024-08-06,1,,,,,エアーマックス,0
141,1090005007642,新規,0,2024-08-06,2024-08-06,特定非営利活動法人橋上まちづくりの会,,その他の設立登記法人,山梨県,山梨市,牧丘町西保下２４７１番地,,19,205,4040004,,,,,,,2024-08-06,1,,,,,ハシガミマチヅクリノカイ,0
144,1110001038630,新規,0,2024-08-06,2024-08-06,株式会社ＯＲＩＧＩＮ,,株式会社,新潟県,新潟市北区,柳原４丁目８番１１号,,15,101,9503326,,,,,,,2024-08-06,1,,,,,オリジン,0
162,1120001267427,新規,0,2024-08-06,2024-08-06,株式会社フィーバータイム,,株式会社,大阪府,大阪市北区,西天満６丁目７－２新日本梅新ビル４階Ｄ１,,27,127,5300047,,,,,,,2024-08-06,1,,,,,フィーバータイム,0
163,1120001267451,新規,0,2024-08-06,2024-08-06,ＬｏｗｅｒＦａｃｉａｌ　ｄｅｓｉｇｎ株式会社,,株式会社,大阪府,大阪市西区,北堀江１丁目２０番１３号,,27,106,5500014,,,,,,,2024-08-06,1,,,,,ロウアフェイシャルデザイン,0
164,1120001267484,新規,0,2024-08-06,2024-08-06,株式会社ユニークホールディングス,,株式会社,大阪府,大阪市中央区,高津１丁目３番５号,,27,128,5420072,,,,,,,2024-08-06,1,,,,,ユニークホールディングス,0
165,1120001267501,新規,0,2024-08-06,2024-08-06,Ｓｕｎ　Ｓｔｙｌｅ株式会社,,株式会社,大阪府,交野市,幾野２丁目３番２号,,27,230,5760054,,,,,,,2024-08-06,1,,,,,サンスタイル,0
166,1120001267526,新規,0,2024-08-06,2024-08-06,水流株式会社,,株式会社,大阪府,寝屋川市,打上中町１４－２３,,27,215,5720857,,,,,,,2024-08-06,1,,,,,スイリュウ,0
167,1120001267550,新規,0,2024-08-06,2024-08-06,株式会社ｌｅａ,,株式会社,大阪府,大阪市西成区,天下茶屋３丁目２８番２１－２０１号,,27,122,5570014,,,,,,,2024-08-06,1,,,,,レア,0
168,1120001267559,新規,0,2024-08-06,2024-08-06,株式会社ＳＯＬＴＩＣ,,株式会社,大阪府,枚方市,釈尊寺町２８８１番地１,,27,210,5730081,,,,,,,2024-08-06,1,,,,,ソルティック,0
174,1120103005998,新規,0,2024-08-06,2024-08-06,合同会社ＣａｒｅＯｆｆｉｃｅＮａｇａｔａ,,合同会社,大阪府,堺市中区,楢葉３３－４,00135826,27,142,5998252,,,,,,,2024-08-06,1,,,,,ケアオフィスナガタ,0
178,1120905006640,新規,0,2024-08-06,2024-08-06,晴海事業協同組合,,その他の設立登記法人,大阪府,吹田市,山田西３丁目３３番Ｃ－７０３号,,27,205,5650824,,,,,,,2024-08-06,1,,,,,ハルミ,0
181,1122001038329,新規,0,2024-08-06,2024-08-06,株式会社ボーダー,,株式会社,大阪府,東大阪市,高井田本通３丁目６番２１号,,27,227,5770066,,,,,,,2024-08-06,1,,,,,ボーダー,0
183,1130001077593,新規,0,2024-08-06,2024-08-06,株式会社Ｙ’ｓ　ｍａｎａｇｅｍｅｎｔ,,株式会社,京都府,長岡京市,花山１丁目３５,,26,209,6170842,,,,,,,2024-08-06,1,,,,,ワイズマネージメント,0
185,1130003009743,新規,0,2024-08-06,2024-08-06,合同会社ＡＬＬ‐ＩＮ,,合同会社,京都府,京都市山科区,厨子奥若林町１－３４,,26,110,6078451,,,,,,,2024-08-06,1,,,,,オールイン,0
186,1130003009751,新規,0,2024-08-06,2024-08-06,Ｃｏｍｐａｓｓｉｏｎａｔｅ　Ｎｅｘｕｓ合同会社,,合同会社,京都府,京都市南区,東九条南山王町１－１ペルル京都南高倉通２１４,,26,107,6018011,,,,,,,2024-08-06,1,,,,,コンパッショネイトネクサス,0
197,1150001027480,新規,0,2024-08-06,2024-08-06,中山陳玄堂ビル株式会社,,株式会社,奈良県,奈良市,小西町１５番地,,29,201,6308226,,,,,,,2024-08-06,1,,,,,ナカヤマチンゲンドウビル,0
198,1150003003331,新規,0,2024-08-06,2024-08-06,合同会社未来サポーター燈,,合同会社,奈良県,生駒郡斑鳩町,龍田西６丁目１１番９号,00135833,29,344,6360154,,,,,,,2024-08-06,1,,,,,ミライサポーターアカリ,0
210,1180003027187,新規,0,2024-08-06,2024-08-06,合同会社ＬＵＸ,,合同会社,愛知県,常滑市,飛香台４丁目２番地の１４,,23,216,4790868,,,,,,,2024-08-06,1,,,,,ルクス,0
213,1180301038902,新規,0,2024-08-06,2024-08-06,株式会社優璃,,株式会社,愛知県,安城市,三河安城本町２丁目１番地１０ＫＡＧＡＹＡＫＩＳＱＵＡＲＥ８０１,,23,212,4460059,,,,,,,2024-08-06,1,,,,,ユイユイ,0
217,1180305009602,新規,0,2024-08-06,2024-08-06,とよた税理士法人,,その他の設立登記法人,愛知県,豊田市,山之手５丁目４番地３,,23,211,4710833,,,,,,,2024-08-06,1,,,,,トヨタ,0
219,1190001031553,新規,0,2024-08-06,2024-08-06,株式会社テントライト,,株式会社,三重県,津市,高茶屋小森町２２７３番地３,,24,201,5140817,,,,,,,2024-08-06,1,,,,,テントライト,0
227,1220001026145,新規,0,2024-08-06,2024-08-06,株式会社山神,,株式会社,石川県,金沢市,松寺町丑５６番地１,,17,201,9200011,,,,,,,2024-08-06,1,,,,,ヤマガミ,0
228,1220001026153,新規,0,2024-08-06,2024-08-06,株式会社フルカワ,,株式会社,石川県,金沢市,鳴和１丁目１０番１６号,,17,201,9200804,,,,,,,2024-08-06,1,,,,,フルカワ,0
231,1240003006795,新規,0,2024-08-06,2024-08-06,合同会社エムオー企画,,合同会社,広島県,広島市南区,段原３丁目２１番１７－２号,,34,103,7320811,,,,,,,2024-08-06,1,,,,,エムオーキカク,0
235,1260001039341,新規,0,2024-08-06,2024-08-06,株式会社ＫＮＣ,,株式会社,岡山県,倉敷市,北畝３丁目５番９号,,33,202,7128032,,,,,,,2024-08-06,1,,,,,ケイエヌシー,0
237,1260005011387,新規,0,2024-08-06,2024-08-06,一般社団法人アクションまきび,,その他の設立登記法人,岡山県,倉敷市,真備町箭田３３番地３,,33,202,7101301,,,,,,,2024-08-06,1,,,,,アクションマキビ,0
241,1290001106519,新規,0,2024-08-06,2024-08-06,株式会社海苔の海新丸,,株式会社,福岡県,柳川市,大和町中島１６１１番地,,40,207,8390254,,,,,,,2024-08-06,1,,,,,ノリノカイシンマル,0
242,1290001106626,新規,0,2024-08-06,2024-08-06,Ｅｌｅｐｈａｎｔ　Ｌａｂｓ株式会社,,株式会社,福岡県,福岡市城南区,七隈２丁目８番１８－３号サンヴァレー城南Ａ棟,,40,136,8140133,,,,,,,2024-08-06,1,,,,,エレファントラボ,0
243,1290001106790,新規,0,2024-08-06,2024-08-06,株式会社Ｆｒｅｅｓｉａ,,株式会社,福岡県,筑紫野市,大字若江７２１番地（フォレスト若江３０２号）,,40,217,8180023,,,,,,,2024-08-06,1,,,,,フリージア,0
245,1300003002160,新規,0,2024-08-06,2024-08-06,合同会社ハピネス,,合同会社,佐賀県,三養基郡みやき町,大字中津隈３８６２番地,,41,346,8490114,,,,,,,2024-08-06,1,,,,,ハピネス,0
251,1340001026703,新規,0,2024-08-06,2024-08-06,Ｌｉｍｅｉｈｏｍｅ株式会社,,株式会社,鹿児島県,曽於郡大崎町,永吉６１７３番地５,,46,468,8997306,,,,,,,2024-08-06,1,,,,,リーメイホーム,0
253,1340003004509,新規,0,2024-08-06,2024-08-06,タイヘイ合同会社,,合同会社,鹿児島県,奄美市,名瀬金久町８番地６号,,46,222,8940031,,,,,,,2024-08-06,1,,,,,タイヘイ,0
256,1350001019128,新規,0,2024-08-06,2024-08-06,株式会社仁田脇青果,,株式会社,宮崎県,宮崎市,新別府町雀田１１８５番地,,45,201,8800834,,,,,,,2024-08-06,1,,,,,ニタワキセイカ,0
260,1360001034027,新規,0,2024-08-06,2024-08-06,株式会社Ｋ‐ｔｅｃｈｎｏｌｏｇｙ,,株式会社,沖縄県,沖縄市,中央３丁目８番１７号（３０２）,,47,211,9040004,,,,,,,2024-08-06,1,,,,,ケイテクノロジー,0
261,1360003014200,新規,0,2024-08-06,2024-08-06,合同会社ＧＲＥＥＮ,,合同会社,沖縄県,うるま市,字川田２８５番地２,,47,213,9042232,,,,,,,2024-08-06,1,,,,,グリーン,0
262,1360003014209,新規,0,2024-08-06,2024-08-06,マディガン沖縄合同会社,,合同会社,沖縄県,中頭郡読谷村,字宇座１８６１,,47,324,9040328,,,,,,,2024-08-06,1,,,,,マディガンオキナワ,0
264,1360005007086,新規,0,2024-08-06,2024-08-06,一般社団法人ＳＭＩＬＥ,,その他の設立登記法人,沖縄県,那覇市,田原３丁目８番１号ユリ香ハウス２階,,47,201,9010156,,,,,,,2024-08-06,1,,,,,スマイル,0
266,1370001051608,新規,0,2024-08-06,2024-08-06,株式会社ファーストフェーズ,,株式会社,宮城県,仙台市青葉区,本町１丁目４番８－５０２号,,04,101,9800014,,,,,,,2024-08-06,1,,,,,ファーストフェーズ,0
267,1370001051616,新規,0,2024-08-06,2024-08-06,株式会社チキンクラム,,株式会社,宮城県,牡鹿郡女川町,鷲神浜字荒立８５－１３,,04,581,9862243,,,,,,,2024-08-06,1,,,,,チキンクラム,0
269,1370003006709,新規,0,2024-08-06,2024-08-06,Ｒ＆Ｒ合同会社,,合同会社,宮城県,仙台市青葉区,昭和町２－３０,,04,101,9810913,,,,,,,2024-08-06,1,,,,,アールアンドアール,0
274,1380001034710,新規,0,2024-08-06,2024-08-06,ＳＴＡＲＬＩＮＧ　ＦＡＣＴＯＲＹ株式会社,,株式会社,福島県,須賀川市,越久字発米１２番地２,,07,207,9620051,,,,,,,2024-08-06,1,,,,,スターリングファクトリー,0
275,1380001034719,新規,0,2024-08-06,2024-08-06,株式会社ＡＬＫＡ,,株式会社,福島県,安達郡大玉村,大山字南新田５３番地１,,07,322,9691301,,,,,,,2024-08-06,1,,,,,アルカ,0
282,1420001018824,新規,0,2024-08-06,2024-08-06,株式会社Ｐｌｕｓ　Ｃｏｒｅ,,株式会社,青森県,八戸市,内丸３丁目５－３９ライオンズ内丸４０３,,02,203,0310075,,,,,,,2024-08-06,1,,,,,プラスコア,0
286,1430001092389,新規,0,2024-08-06,2024-08-06,株式会社ＰＡＰＰ,,株式会社,北海道,札幌市豊平区,西岡三条９丁目８番２１号,,01,105,0620033,,,,,,,2024-08-06,1,,,,,パプ,0
287,1430001092397,新規,0,2024-08-06,2024-08-06,株式会社ＣＬＡＭ,,株式会社,北海道,札幌市南区,澄川六条１３丁目３番２１号,,01,106,0050006,,,,,,,2024-08-06,1,,,,,クラム,0
288,1430001092414,新規,0,2024-08-06,2024-08-06,株式会社ＦＹマネージメント,,株式会社,北海道,札幌市白石区,中央二条３丁目６番２４号,,01,104,0030012,,,,,,,2024-08-06,1,,,,,エフワイマネージメント,0
289,1430001092430,新規,0,2024-08-06,2024-08-06,株式会社リエース,,株式会社,北海道,札幌市豊平区,豊平八条９丁目１番４号１０１,,01,105,0620908,,,,,,,2024-08-06,1,,,,,リエース,0
295,1470003002697,新規,0,2024-08-06,2024-08-06,合同会社前川ファーム,,合同会社,香川県,高松市,多肥上町７１０番地６,,37,201,7618076,,,,,,,2024-08-06,1,,,,,マエカワファーム,0
298,1490001010832,新規,0,2024-08-06,2024-08-06,株式会社ニシガワ,,株式会社,高知県,高知市,朝倉丙１８２１番地１ハイム２４咥内１０１号室,,39,201,7808063,,,,,,,2024-08-06,1,,,,,ニシガワ,0
299,1490001010840,新規,0,2024-08-06,2024-08-06,株式会社コレオ建機サービス,,株式会社,高知県,高岡郡四万十町,瀬里８５番地８,,39,412,7860302,,,,,,,2024-08-06,1,,,,,コレオケンキサービス,0
305,1500001025795,新規,0,2024-08-06,2024-08-06,株式会社利剣,,株式会社,愛媛県,松山市,古川南１丁目２１番２３－２号,,38,201,7900943,,,,,,,2024-08-06,1,,,,,リケン,0
307,1700150126671,新規,0,2024-08-06,2024-08-06,Ｙｉｗｕ　Ｙｏｕｊｉａ　Ｂａｉａｎ　Ｔｒａｄｉｎｇ　Ｃｏ．，Ｌｔｄ．,,外国会社等,,,,,,,,１ｓｔ　Ｆｌｏｏｒ，Ｂｕｉｌｄｉｎｇ　３，Ｐｉｎｇｓｈｉｔｏｕ　Ｎｅｗ　Ｖｉｌｌａｇｅ，Ｎｉａｎｓａｎｌｉ　Ｓｔｒｅｅｔ，Ｙｉｗｕ　Ｃｉｔｙ，Ｊｉｎｈｕａ　Ｃｉｔｙ，Ｚｈｅｊｉａｎｇ　Ｐｒｏｖｉｎｃｅ,,,,,,2024-08-06,1,,,,,イーウーシーヨウジャーバイアンシャンマオヨウシエンゴンスー,0
312,2010001247050,新規,0,2024-08-06,2024-08-06,株式会社結Ｃｒｅａｔｉｏｎ,,株式会社,東京都,千代田区,九段南２丁目３番２５号,,13,101,1020074,,,,,,,2024-08-06,1,,,,,ユイクリエーション,0
313,2010001247158,新規,0,2024-08-06,2024-08-06,株式会社タックナビ,,株式会社,東京都,中央区,銀座７丁目１３番６号サガミビル２Ｆ,,13,102,1040061,,,,,,,2024-08-06,1,,,,,タックナビ,0
314,2010001247199,新規,0,2024-08-06,2024-08-06,カーゴアシスト株式会社,,株式会社,東京都,千代田区,神田小川町２丁目４番地１４,,13,101,1010052,,,,,,,2024-08-06,1,,,,,カーゴアシスト,0
315,2010001247208,新規,0,2024-08-06,2024-08-06,株式会社桑原総建,,株式会社,東京都,中央区,日本橋室町１丁目１１番１２号日本橋水野ビル７階,,13,102,1030022,,,,,,,2024-08-06,1,,,,,クワバラソウケン,0
316,2010003044529,新規,0,2024-08-06,2024-08-06,合同会社ＴＯＦＵ　Ｍａｒｋｅｔｉｎｇ,,合同会社,東京都,中央区,銀座１丁目２２番１１号銀座大竹ビジデンス２Ｆ,,13,102,1040061,,,,,,,2024-08-06,1,,,,,トウフマーケティング,0
319,2010005038636,新規,0,2024-08-06,2024-08-06,山佐ＫＬＭ３一般社団法人,,その他の設立登記法人,東京都,千代田区,丸の内１丁目４番１号東京共同会計事務所内,,13,101,1000005,,,,,,,2024-08-06,1,,,,,ヤマサケイエルエムスリー,0
320,2010105002285,新規,0,2024-08-06,2024-08-06,税理士法人谷口＆パートナーズ,,その他の設立登記法人,東京都,八王子市,北野町５５６番地１１,,13,201,1920906,,,,,,,2024-08-06,1,,,,,タニグチアンドパートナーズ,0
329,2010601065694,新規,0,2024-08-06,2024-08-06,株式会社ＢＵＸ,,株式会社,東京都,墨田区,東駒形１丁目１番２号,,13,107,1300005,,,,,,,2024-08-06,1,,,,,バックス,0
332,2010703007289,新規,0,2024-08-06,2024-08-06,合同会社ＴＡＫＡＨＡ,,合同会社,東京都,品川区,南品川５丁目８－２２新福寿コーポ２０１,,13,109,1400004,,,,,,,2024-08-06,1,,,,,タカハ,0
334,2010801035299,新規,0,2024-08-06,2024-08-06,株式会社フリーストーン,,株式会社,東京都,大田区,山王２丁目５番６号ＳＡＮＮＯＢＲＩＤＧＥ,,13,111,1430023,,,,,,,2024-08-06,1,,,,,フリーストーン,0
336,2010901055750,新規,0,2024-08-06,2024-08-06,株式会社Ｏｆｎ,,株式会社,東京都,世田谷区,下馬６丁目１１番１１－５０１号,,13,112,1540002,,,,,,,2024-08-06,1,,,,,オーエフエヌ,0
337,2010903009267,新規,0,2024-08-06,2024-08-06,合同会社Ｓｎｏｗｃａｐ,,合同会社,東京都,世田谷区,玉川３丁目２０番２号マノア玉川第３ビル５０１号室,,13,112,1580094,,,,,,,2024-08-06,1,,,,,スノーキャップ,0
341,2011003019784,新規,0,2024-08-06,2024-08-06,合同会社ＫｌｅｉｎＢａｕ,,合同会社,東京都,渋谷区,道玄坂１丁目１６－６二葉ビル８ｂ,,13,113,1500043,,,,,,,2024-08-06,1,,,,,クラインバウ,0
349,2011101108282,新規,0,2024-08-06,2024-08-06,Ｂ＆Ｂ株式会社,,株式会社,東京都,新宿区,下落合４丁目２１番２８号,,13,104,1610033,,,,,,,2024-08-06,1,,,,,ビーアンドビー,0
350,2011101108316,新規,0,2024-08-06,2024-08-06,株式会社Ａｔｈｅｎａ,,株式会社,東京都,新宿区,四谷４丁目１７－３リエトコート四谷１０２,,13,104,1600004,,,,,,,2024-08-06,1,,,,,アテナ,0
353,2011203004454,新規,0,2024-08-06,2024-08-06,ＤＩＬＩＧＥＮＴ合同会社,,合同会社,東京都,中野区,野方６丁目１５－２太陽野方ビル２０１,,13,114,1650027,,,,,,,2024-08-06,1,,,,,デリジェント,0
357,2011401026325,新規,0,2024-08-06,2024-08-06,株式会社ＷＩＳＨ　ＯＮＥ,,株式会社,東京都,板橋区,板橋１丁目１６番９号ヤマセビル１階,,13,119,1730004,,,,,,,2024-08-06,1,,,,,ウィッシュワン,0
363,2011501031010,新規,0,2024-08-06,2024-08-06,株式会社Ｔｈｕｍｂｓ‐ｕｐ,,株式会社,東京都,北区,中里２丁目１７番１１号,,13,117,1140015,,,,,,,2024-08-06,1,,,,,サムズアップ,0
370,2011701027510,新規,0,2024-08-06,2024-08-06,株式会社ＴＳＦ,,株式会社,東京都,江戸川区,中葛西７丁目１８番１３ー２０１号サルーテ,,13,123,1340083,,,,,,,2024-08-06,1,,,,,ティーエスエフ,0
376,2011801044661,新規,0,2024-08-06,2024-08-06,株式会社ＭＩＹＡＢＩ,,株式会社,東京都,足立区,竹の塚４丁目３番２０－１０７号,,13,121,1210813,,,,,,,2024-08-06,1,,,,,ミヤビ,0
392,2020001158338,新規,0,2024-08-06,2024-08-06,株式会社ＺＹＵＵＫＥＮ,,株式会社,神奈川県,川崎市川崎区,塩浜２丁目１１番１１号,,14,131,2100826,,,,,,,2024-08-06,1,,,,,,0
393,2020001158346,新規,0,2024-08-06,2024-08-06,株式会社ヨシダ商会,,株式会社,神奈川県,横浜市保土ケ谷区,上菅田町４７８番地１グランデール１０１号,,14,106,2400051,,,,,,,2024-08-06,1,,,,,ヨシダショウカイ,0
394,2020001158354,新規,0,2024-08-06,2024-08-06,株式会社ＭＳ,,株式会社,神奈川県,川崎市中原区,今井南町１９番４４号,,14,133,2110064,,,,,,,2024-08-06,1,,,,,エムエス,0
399,2021001082858,新規,0,2024-08-06,2024-08-06,株式会社Ｍａｍａ＆Ｂａｂｙ　ｃｏｎｄｉｔｉｏｎｉｎｇ,,株式会社,神奈川県,鎌倉市,台２丁目２０－１３－２０２,,14,204,2470061,,,,,,,2024-08-06,1,,,,,ママアンドベビーコンディショニング,0
400,2021001082874,新規,0,2024-08-06,2024-08-06,株式会社ハイセー,,株式会社,神奈川県,逗子市,山の根３丁目６番７号サンコーポ１０２,,14,208,2490002,,,,,,,2024-08-06,1,,,,,ハイセー,0
411,2030001161778,新規,0,2024-08-06,2024-08-06,株式会社ＭＬＣ,,株式会社,埼玉県,川越市,大字下赤坂１６９番地４,,11,201,3501155,,,,,,,2024-08-06,1,,,,,エムエルシー,0
412,2030001161786,新規,0,2024-08-06,2024-08-06,株式会社ティースリー,,株式会社,埼玉県,朝霞市,根岸台４丁目７番６４号,,11,227,3510005,,,,,,,2024-08-06,1,,,,,ティースリー,0
413,2030003024875,新規,0,2024-08-06,2024-08-06,合同会社ＣＯＭＦＯＲＴ,,合同会社,埼玉県,さいたま市北区,別所町４５－３－２－１０３,,11,102,3310821,,,,,,,2024-08-06,1,,,,,コンフォート,0
422,2040001134824,新規,0,2024-08-06,2024-08-06,株式会社ケーエムテック,,株式会社,千葉県,君津市,大和田１丁目４番地２,,12,225,2991146,,,,,,,2024-08-06,1,,,,,ケーエムテック,0
426,2050001055193,新規,0,2024-08-06,2024-08-06,株式会社Ｃｏｎｔｉｇｏ,,株式会社,茨城県,鹿嶋市,大字宮中２３３３－２７８,,08,222,3140031,,,,,,,2024-08-06,1,,,,,コンティゴ,0
427,2050001055202,新規,0,2024-08-06,2024-08-06,株式会社常陸の国,,株式会社,茨城県,水戸市,笠原町１２６７番地３,,08,201,3100852,,,,,,,2024-08-06,1,,,,,ヒタチノクニ,0
439,2080001026415,新規,0,2024-08-06,2024-08-06,株式会社Ｈ＆Ｃ　Ｉｎｖｅｓｔｍｅｎｔ,,株式会社,静岡県,牧之原市,布引原７４０番地２,,22,226,4210407,,,,,,,2024-08-06,1,,,,,エイチアンドシーインベストメント,0
440,2080003003271,新規,0,2024-08-06,2024-08-06,合同会社タコカフェＦＣ５,,合同会社,静岡県,静岡市葵区,上足洗４丁目９番２２号,,22,101,4200841,,,,,,,2024-08-06,1,,,,,タコカフェエフシーファイブ,0
442,2080103003114,新規,0,2024-08-06,2024-08-06,合同会社ジェネラル,,合同会社,静岡県,沼津市,山王台３番８号シティパル山王台１０１,,22,203,4100035,,,,,,,2024-08-06,1,,,,,ジェネラル,0
443,2080401027368,新規,0,2024-08-06,2024-08-06,株式会社アイルグレース,,株式会社,静岡県,浜松市中央区,豊町８３９,,22,138,4313101,,,,,,,2024-08-06,1,,,,,アイルグレース,0
445,2090001018849,新規,0,2024-08-06,2024-08-06,株式会社ＫＲ塗装,,株式会社,山梨県,甲府市,太田町６番８号,,19,201,4000865,,,,,,,2024-08-06,1,,,,,ケーアールトソウ,0
446,2100001037715,新規,0,2024-08-06,2024-08-06,テラス株式会社,,株式会社,長野県,松本市,大字惣社５１０番地１７,,20,202,3900305,,,,,,,2024-08-06,1,,,,,テラス,0
449,2110001038621,新規,0,2024-08-06,2024-08-06,株式会社あさひ建設,,株式会社,新潟県,阿賀野市,熊居新田４６０番地,,15,223,9592083,,,,,,,2024-08-06,1,,,,,アサヒケンセツ,0
457,2120001267260,新規,0,2024-08-06,2024-08-06,Ｃｅｌｌｖｉｔａｌ株式会社,,株式会社,大阪府,大阪市中央区,備後町３丁目６－２大雅ビル２階,,27,128,5410051,,,,,,,2024-08-06,1,,,,,セルバイタル,0
458,2120001267426,新規,0,2024-08-06,2024-08-06,株式会社エヌ・ジェー・エヌ・ジェー,,株式会社,大阪府,大阪市中央区,松屋町住吉５番２４号ハイツ澤４０３,,27,128,5400017,,,,,,,2024-08-06,1,,,,,エヌジェーエヌジェー,0
459,2120001267475,新規,0,2024-08-06,2024-08-06,ＫＵＲＵＭＩ株式会社,,株式会社,大阪府,大阪市天王寺区,筆ケ崎町２番１０－３１０１号,,27,109,5430027,,,,,,,2024-08-06,1,,,,,クルミ,0
460,2120001267483,新規,0,2024-08-06,2024-08-06,鼎衡株式会社,,株式会社,大阪府,大阪市住吉区,殿辻１丁目２番２６号－２０２－Ａ号,,27,120,5580042,,,,,,,2024-08-06,1,,,,,テイコウ,0
461,2120001267491,新規,0,2024-08-06,2024-08-06,株式会社ＪＡＲＯＭ　Ｔｒａｄｉｎｇ,,株式会社,大阪府,大阪市中央区,今橋１丁目７番１９号北浜ビルディング１２Ｆ,,27,128,5410042,,,,,,,2024-08-06,1,,,,,ジャロムトレーディング,0
462,2120001267509,新規,0,2024-08-06,2024-08-06,甘蘭河原町店分割準備株式会社,,株式会社,大阪府,大阪市北区,天満２丁目１－１２,,27,127,5300043,,,,,,,2024-08-06,1,,,,,カンランカワラマチテンブンカツジュンビ,0
463,2120001267525,新規,0,2024-08-06,2024-08-06,Ｐｏｉｎｔ２４株式会社,,株式会社,大阪府,大阪市住之江区,御崎１丁目７番１６号御崎ハイツ３０１室,,27,125,5590013,,,,,,,2024-08-06,1,,,,,ポイントニジュウヨン,0
464,2120001267533,新規,0,2024-08-06,2024-08-06,株式会社ＷＭ　Ｈｏｌｄｉｎｇｓ,,株式会社,大阪府,大阪市中央区,宗右衛門町１番１３号宗右衛門町クリスタルビル４Ｆ,,27,128,5420084,,,,,,,2024-08-06,1,,,,,ダブルエムホールディングス,0
467,2120003027142,新規,0,2024-08-06,2024-08-06,ティーエス・インヴェストメント合同会社,,合同会社,大阪府,大阪市港区,市岡３丁目３番１７号,,27,107,5520012,,,,,,,2024-08-06,1,,,,,ティーエスインヴェストメント,0
468,2120003027200,新規,0,2024-08-06,2024-08-06,合同会社リダン,,合同会社,大阪府,大阪市北区,梅田１丁目２番２号大阪駅前第２ビル１２－１２,,27,127,5300001,,,,,,,2024-08-06,1,,,,,リダン,0
469,2120003027233,新規,0,2024-08-06,2024-08-06,合同会社ＳＷＩＦＴ　ＭＡＬＬ,,合同会社,大阪府,大阪市阿倍野区,播磨町２丁目４番１９号,,27,119,5450022,,,,,,,2024-08-06,1,,,,,スイフトモール,0
470,2120003027241,新規,0,2024-08-06,2024-08-06,合同会社ｗｅａｌｐｓ,,合同会社,大阪府,大阪市中央区,淡路町３丁目６番１２号ローズプラザ６０４号,,27,128,5410047,,,,,,,2024-08-06,1,,,,,ウェルプス,0
472,2120101070093,新規,0,2024-08-06,2024-08-06,株式会社えむ,,株式会社,大阪府,岸和田市,土生町１５０４番地の１,,27,202,5960825,,,,,,,2024-08-06,1,,,,,エム,0
473,2120101070102,新規,0,2024-08-06,2024-08-06,株式会社ＷＯＲＫ　ＯＵＴ,,株式会社,大阪府,貝塚市,小瀬１丁目２５番４５号,,27,208,5970021,,,,,,,2024-08-06,1,,,,,ワークアウト,0
477,2120903005288,新規,0,2024-08-06,2024-08-06,合同会社近畿東海ＢＡＳＥ,,合同会社,大阪府,茨木市,蔵垣内３丁目８番１１号,,27,211,5670878,,,,,,,2024-08-06,1,,,,,キンキトウカイベイス,0
490,2140001135382,新規,0,2024-08-06,2024-08-06,株式会社サニタスイノベーションズ,,株式会社,兵庫県,神戸市中央区,磯上通８丁目１番２９号カサベラビルＣ＆Ｍ４０３号室,,28,110,6510086,,,,,,,2024-08-06,1,,,,,サニタスイノベーションズ,0
491,2140001135390,新規,0,2024-08-06,2024-08-06,株式会社インテリアナサダ,,株式会社,兵庫県,姫路市,白国５丁目７番１１号,,28,201,6700808,,,,,,,2024-08-06,1,,,,,インテリアナサダ,0
492,2140001135399,新規,0,2024-08-06,2024-08-06,陽咲株式会社,,株式会社,兵庫県,芦屋市,大東町５番１１－５０１号,,28,206,6590023,,,,,,,2024-08-06,1,,,,,ハルサク,0
493,2140001135424,新規,0,2024-08-06,2024-08-06,株式会社関通分割準備会社,,株式会社,兵庫県,尼崎市,西向島町１１１番地の４,,28,202,6600857,,,,,,,2024-08-06,1,,,,,カンツウブンカツジュンビガイシャ,0
494,2140003020921,新規,0,2024-08-06,2024-08-06,合同会社令和エージェント,,合同会社,兵庫県,神戸市東灘区,住吉東町１丁目３番１２号,,28,101,6580052,,,,,,,2024-08-06,1,,,,,レイワエージェント,0
497,2150003003330,新規,0,2024-08-06,2024-08-06,大永合同会社,,合同会社,奈良県,奈良市,神功５丁目９番１８号,,29,201,6310804,,,,,,,2024-08-06,1,,,,,ダイエイ,0
509,2180001162596,新規,0,2024-08-06,2024-08-06,株式会社サンキテック,,株式会社,愛知県,日進市,岩崎町石兼５０番地１１,,23,230,4700131,,,,,,,2024-08-06,1,,,,,サンキテック,0
510,2180001162737,新規,0,2024-08-06,2024-08-06,株式会社ＷＳ,,株式会社,愛知県,豊明市,新田町下一ノ割７１番地２,,23,229,4701112,,,,,,,2024-08-06,1,,,,,ダブルエス,0
515,2180003027137,新規,0,2024-08-06,2024-08-06,合同会社ＭＪｎｅｘｔ,,合同会社,愛知県,一宮市,向山南１丁目１番９号,,23,203,4910868,,,,,,,2024-08-06,1,,,,,エムジェエネクスト,0
516,2180003027145,新規,0,2024-08-06,2024-08-06,美麗ＪＡＰＡＮ合同会社,,合同会社,愛知県,名古屋市中村区,名駅１丁目１番１号ＪＰタワー名古屋２１階,,23,105,4500002,,,,,,,2024-08-06,1,,,,,ビレイジャパン,0
517,2180003027161,新規,0,2024-08-06,2024-08-06,ハヌル合同会社,,合同会社,愛知県,弥富市,操出２丁目１３０番地６,,23,235,4980061,,,,,,,2024-08-06,1,,,,,ハヌル,0
518,2180003027203,新規,0,2024-08-06,2024-08-06,Ｓｑｕｉｄ合同会社,,合同会社,愛知県,一宮市,三ツ井５丁目１０番２９号,,23,203,4910827,,,,,,,2024-08-06,1,,,,,スクイッド,0
523,2180301038926,新規,0,2024-08-06,2024-08-06,株式会社ソフトインテック,,株式会社,愛知県,刈谷市,若松町３丁目９ＹＦＢＬＤＧ３Ｆ,,23,210,4480858,,,,,,,2024-08-06,1,,,,,ソフトインテック,0
525,2180303006212,新規,0,2024-08-06,2024-08-06,合同会社ｍｏｖｅｏ,,合同会社,愛知県,岡崎市,若松東２丁目２４番地２ＦＬＡＴＳわかまつ,,23,202,4440822,,,,,,,2024-08-06,1,,,,,モベオ,0
526,2180305009601,新規,0,2024-08-06,2024-08-06,一般社団法人東三河おとまち文化振興会,,その他の設立登記法人,愛知県,豊川市,中条町今宮３６番地の６,,23,207,4420818,,,,,,,2024-08-06,1,,,,,ヒガシミカワオトマチブンカシンコウカイ,0
533,2200005013652,新規,0,2024-08-06,2024-08-06,一般社団法人トーラス・アカデミー,,その他の設立登記法人,岐阜県,美濃加茂市,本郷町７丁目２番地５１号,,21,211,5050027,,,,,,,2024-08-06,1,,,,,トーラスアカデミー,0
535,2210001019867,新規,0,2024-08-06,2024-08-06,株式会社丸岡塗装,,株式会社,福井県,坂井市,丸岡町下安田第１３号１番地１４,,18,210,9100363,,,,,,,2024-08-06,1,,,,,マルオカトソウ,0
539,2220001026144,新規,0,2024-08-06,2024-08-06,株式会社ドゥハウスプラス,,株式会社,石川県,金沢市,示野町西３番地,,17,201,9200059,,,,,,,2024-08-06,1,,,,,ドゥハウスプラス,0
540,2220001026152,新規,0,2024-08-06,2024-08-06,東でんき株式会社,,株式会社,石川県,金沢市,直江東２丁目３８番地,,17,201,9208213,,,,,,,2024-08-06,1,,,,,ヒガシデンキ,0
548,2240001063656,新規,0,2024-08-06,2024-08-06,株式会社ウカガイマス,,株式会社,広島県,福山市,今町１－６アルティメトｂｕｉｌｄｇ．今町７０６号,,34,207,7200046,,,,,,,2024-08-06,1,,,,,ウカガイマス,0
555,2260001039340,新規,0,2024-08-06,2024-08-06,株式会社ＬＥＭＯＮｅｄ,,株式会社,岡山県,岡山市北区,本町１０番１６号幸武本町ビル２Ｆ,,33,101,7000901,,,,,,,2024-08-06,1,,,,,レモネード,0
556,2260003004846,新規,0,2024-08-06,2024-08-06,合同会社かもめ不動産,,合同会社,岡山県,備前市,浦伊部８２１番地２,,33,211,7050002,,,,,,,2024-08-06,1,,,,,カモメフドウサン,0
557,2260005011386,新規,0,2024-08-06,2024-08-06,協同組合ＡＣＥ,,その他の設立登記法人,岡山県,岡山市南区,郡１１３５番地２,,33,104,7028011,,,,,,,2024-08-06,1,,,,,エーシーイー,0
562,2290801030768,新規,0,2024-08-06,2024-08-06,株式会社リディアルスタッフ小倉,,株式会社,福岡県,北九州市小倉北区,米町１丁目１番１号,,40,106,8020003,,,,,,,2024-08-06,1,,,,,リディアルスタッフコクラ,0
568,2330001032321,新規,0,2024-08-06,2024-08-06,株式会社西菱,,株式会社,熊本県,合志市,御代志１６６１番地１ルーロ合志２１４,,43,216,8611104,,,,,,,2024-08-06,1,,,,,セイリョウ,0
569,2340003004565,新規,0,2024-08-06,2024-08-06,合同会社かなめ,,合同会社,鹿児島県,鹿児島市,上之園町１９番地１４ラ・カーサグランデ上之園２０３号,,46,201,8900052,,,,,,,2024-08-06,1,,,,,カナメ,0
577,2370001051598,新規,0,2024-08-06,2024-08-06,株式会社クサバ,,株式会社,宮城県,仙台市青葉区,宮町２丁目３番６号,,04,101,9800004,,,,,,,2024-08-06,1,,,,,クサバ,0
578,2370001051615,新規,0,2024-08-06,2024-08-06,株式会社Ｈｙｌｅ,,株式会社,宮城県,大崎市,古川北町２丁目５番２３号－１０３,,04,215,9896171,,,,,,,2024-08-06,1,,,,,ヒューレイ,0
579,2370001051623,新規,0,2024-08-06,2024-08-06,株式会社Ｄｏｎ‐ｇｌｅｅ,,株式会社,宮城県,仙台市太白区,山田本町２１－７,,04,104,9820816,,,,,,,2024-08-06,1,,,,,ドングリー,0
585,2380003005832,新規,0,2024-08-06,2024-08-06,三恵漁業合同会社,,合同会社,福島県,相馬市,尾浜字原９８番地の１,,07,209,9760022,,,,,,,2024-08-06,1,,,,,サンケイギョギョウ,0
586,2390003002267,新規,0,2024-08-06,2024-08-06,合同会社ＣｕｒｅＬｕｃｉａ,,合同会社,山形県,鶴岡市,睦町７番４４号,,06,203,9970817,,,,,,,2024-08-06,1,,,,,キュアルチア,0
587,2410001013908,新規,0,2024-08-06,2024-08-06,昭栄住建株式会社,,株式会社,秋田県,鹿角市,八幡平字小豆沢碇３番地５,,05,209,0185141,,,,,,,2024-08-06,1,,,,,ショウエイジュウケン,0
588,2420001018823,新規,0,2024-08-06,2024-08-06,株式会社フォーライズ,,株式会社,青森県,八戸市,大字鮫町字小舟渡平１０番地１２７,,02,203,0310841,,,,,,,2024-08-06,1,,,,,フォーライズ,0
589,2420003002965,新規,0,2024-08-06,2024-08-06,メグミノアース２２合同会社,,合同会社,青森県,青森市,港町２丁目１４番８号,,02,201,0300901,,,,,,,2024-08-06,1,,,,,メグミノアースニジュウニ,0
593,2430001092396,新規,0,2024-08-06,2024-08-06,兜株式会社,,株式会社,北海道,札幌市中央区,北一条西２６丁目２番２８号,,01,101,0640821,,,,,,,2024-08-06,1,,,,,カブト,0
594,2430001092405,新規,0,2024-08-06,2024-08-06,ＧＬＣ不動産株式会社,,株式会社,北海道,札幌市中央区,南二条西１８丁目２９１番地２２２,,01,101,0600062,,,,,,,2024-08-06,1,,,,,ジーエルシーフドウサン,0
595,2430001092413,新規,0,2024-08-06,2024-08-06,クリアネクスト株式会社,,株式会社,北海道,小樽市,花園２丁目７番１号－２０１号,,01,203,0470024,,,,,,,2024-08-06,1,,,,,クリアネクスト,0
597,2430003016650,新規,0,2024-08-06,2024-08-06,合同会社Ｃａｎｄｙ　Ｆａｒｍ,,合同会社,北海道,浦河郡浦河町,荻伏町４９９番地の１９,,01,607,0593451,,,,,,,2024-08-06,1,,,,,キャンディファーム,0
598,2430003016659,新規,0,2024-08-06,2024-08-06,合同会社ギブルム,,合同会社,北海道,札幌市白石区,南郷通１丁目北５番１４－１２２号,,01,104,0030023,,,,,,,2024-08-06,1,,,,,ギブルム,0
600,2470001020329,新規,0,2024-08-06,2024-08-06,株式会社アスリーム,,株式会社,香川県,高松市,勅使町１９６番地１,,37,201,7618058,,,,,,,2024-08-06,1,,,,,アスリーム,0
601,2490001010831,新規,0,2024-08-06,2024-08-06,ｎｏｓｓｏｎ株式会社,,株式会社,高知県,高岡郡日高村,沖名３－２,,39,410,7812152,,,,,,,2024-08-06,1,,,,,ノッソン,0
603,2500001025794,新規,0,2024-08-06,2024-08-06,株式会社Ｂｅ　Ｃｌｅａｎ,,株式会社,愛媛県,伊予郡松前町,大字恵久美１３５番地１,,38,401,7913141,,,,,,,2024-08-06,1,,,,,ビークリーン,0
604,2700150126670,新規,0,2024-08-06,2024-08-06,Ｓｍａｒｔ　Ｚｏｎｅ　Ｔｅｃｈｎｏｌｏｇｙ　Ｌｉｍｉｔｅｄ,,外国会社等,,,,,,,,ＦＬＡＴ／ＲＭ　Ｅ　６／Ｆ　ＣＨＩＮＡ　ＦＥＮ　ＨＩＮ　ＢＵＩＬＤＩＮＧ　５　ＣＨＥＵＮＧ　ＹＵＥ　ＳＴＲＥＥＴ　ＣＨＥＵＮＧ　ＳＨＡ　ＷＡＮ　ＫＬ,,,,,,2024-08-06,1,,,,,チュワンリンコージーヨウシエンゴンスー,0
612,3010001247207,新規,0,2024-08-06,2024-08-06,霞ヶ関モビリティ株式会社,,株式会社,東京都,千代田区,霞が関３丁目２番１号,,13,101,1000013,,,,,,,2024-08-06,1,,,,,カスミガセキモビリティ,0
613,3010001247215,新規,0,2024-08-06,2024-08-06,ＨＡＦホールディングス株式会社,,株式会社,東京都,千代田区,神田東松下町１８番地,,13,101,1010042,,,,,,,2024-08-06,1,,,,,ハフホールディングス,0
624,3010403033147,新規,0,2024-08-06,2024-08-06,Ａｔｅｌｉｅｒ　Ｌａｐｉｎ合同会社,,合同会社,東京都,港区,芝浦２丁目１４－７加瀬ビル８９－６０４号,,13,103,1080023,,,,,,,2024-08-06,1,,,,,アトリエラパン,0
625,3010403033155,新規,0,2024-08-06,2024-08-06,合同会社ｍｉｒａｉ,,合同会社,東京都,港区,芝５丁目２６－２４田町スクエア２Ｆ,,13,103,1080014,,,,,,,2024-08-06,1,,,,,ミライ,0
626,3010403033205,新規,0,2024-08-06,2024-08-06,合同会社ひょうたん工房,,合同会社,東京都,港区,南青山３丁目１番３６号青山丸竹ビル６Ｆ,,13,103,1070062,,,,,,,2024-08-06,1,,,,,ヒョウタンコウボウ,0
628,3010405023410,新規,0,2024-08-06,2024-08-06,一般社団法人日本海外投資家協会,,その他の設立登記法人,東京都,港区,虎ノ門１丁目１３番５号ＶＯＲＴ虎ノ門ＩＩ３階,00135825,13,103,1050001,,,,,,,2024-08-06,1,,,,,ニホンカイガイトウシカキョウカイ,0
631,3010601065652,新規,0,2024-08-06,2024-08-06,株式会社ａｂ,,株式会社,東京都,江東区,牡丹１丁目６－１１グランパセオ３０８,,13,108,1350046,,,,,,,2024-08-06,1,,,,,エービー,0
633,3010701046362,新規,0,2024-08-06,2024-08-06,株式会社ＴＮＮｅコンサルティング,,株式会社,東京都,品川区,大崎２丁目７番１８－２０２号,,13,109,1410032,,,,,,,2024-08-06,1,,,,,ティーエヌエヌイーコンサルティング,0
634,3010701046370,新規,0,2024-08-06,2024-08-06,株式会社トップアクト,,株式会社,東京都,品川区,西品川１丁目２９番１２号ＣＳＲ品川,,13,109,1410033,,,,,,,2024-08-06,1,,,,,トップアクト,0
641,3010903009266,新規,0,2024-08-06,2024-08-06,合同会社ＩＥ３,,合同会社,東京都,世田谷区,代田３丁目４番８号,,13,112,1550033,,,,,,,2024-08-06,1,,,,,アイイースリー,0
648,3011001163674,新規,0,2024-08-06,2024-08-06,テルパス株式会社,,株式会社,東京都,目黒区,目黒本町２丁目２７－９Ｚｅｓｔｙ学芸大学４０１,,13,110,1520002,,,,,,,2024-08-06,1,,,,,テルパス,0
659,3011701027518,新規,0,2024-08-06,2024-08-06,ＴＩＫ　ｔｒｅｎｄ株式会社,,株式会社,東京都,江戸川区,西葛西７丁目６番１６号,,13,123,1340088,,,,,,,2024-08-06,1,,,,,ティアイケートレンド,0
665,3012301014039,新規,0,2024-08-06,2024-08-06,株式会社ＲＡＶＥ　ＪＡＰＡＮ,,株式会社,東京都,町田市,森野５丁目２８番２－２０８号,,13,209,1940022,,,,,,,2024-08-06,1,,,,,レイブジャパン,0
667,3012401042146,新規,0,2024-08-06,2024-08-06,ＰＰＹＣ株式会社,,株式会社,東京都,武蔵野市,吉祥寺本町１丁目３１番１１号,,13,203,1800004,,,,,,,2024-08-06,1,,,,,ピーピーワイシー,0
668,3012701018382,新規,0,2024-08-06,2024-08-06,株式会社澤田工業,,株式会社,東京都,小平市,仲町１４６番地の３,,13,211,1870042,,,,,,,2024-08-06,1,,,,,サワダコウギョウ,0
669,3012701018390,新規,0,2024-08-06,2024-08-06,株式会社Ｋａｎａｌｏａ,,株式会社,東京都,西東京市,南町２丁目１２番２０号,,13,229,1880012,,,,,,,2024-08-06,1,,,,,カナロア,0
673,3020001158378,新規,0,2024-08-06,2024-08-06,株式会社ライフトラストナビ,,株式会社,神奈川県,横浜市港北区,箕輪町３丁目２１番１６－１号,,14,109,2230051,,,,,,,2024-08-06,1,,,,,ライフトラストナビ,0
679,3021001082931,新規,0,2024-08-06,2024-08-06,株式会社縁道,,株式会社,神奈川県,藤沢市,遠藤１４２０番地の２,,14,205,2520816,,,,,,,2024-08-06,1,,,,,エンドウ,0
684,3030001161769,新規,0,2024-08-06,2024-08-06,株式会社エスティプランニング,,株式会社,埼玉県,川口市,本町４丁目４番１２－２０１号,,11,203,3320012,,,,,,,2024-08-06,1,,,,,エスティプランニング,0
685,3030003024874,新規,0,2024-08-06,2024-08-06,合同会社はれる家,,合同会社,埼玉県,さいたま市浦和区,北浦和３丁目１９番２１号－６０７,,11,107,3300074,,,,,,,2024-08-06,1,,,,,ハレルヤ,0
690,3040001134872,新規,0,2024-08-06,2024-08-06,株式会社Ｌｏｃａｌｅ,,株式会社,千葉県,市川市,行徳駅前１丁目２１番１３号,,12,203,2720133,,,,,,,2024-08-06,1,,,,,ロカーレ,0
691,3040001134880,新規,0,2024-08-06,2024-08-06,株式会社ゼウス,,株式会社,千葉県,柏市,東１丁目２番４４号カンターレ浜嶋ビル４Ｆ,,12,217,2770014,,,,,,,2024-08-06,1,,,,,ゼウス,0
695,3040003025525,新規,0,2024-08-06,2024-08-06,合同会社優美花,,合同会社,千葉県,我孫子市,白山２丁目１７番５号,,12,222,2701154,,,,,,,2024-08-06,1,,,,,ユミカ,0
710,3050005013477,新規,0,2024-08-06,2024-08-06,一般社団法人大和,,その他の設立登記法人,茨城県,笠間市,八雲２丁目１１番５０号,,08,216,3091736,,,,,,,2024-08-06,1,,,,,ヤマト,0
713,3060001037363,新規,0,2024-08-06,2024-08-06,株式会社ＡｃｔＬａｂ,,株式会社,栃木県,小山市,若木町３丁目１２番４号フェアリー２０１号室,,09,208,3230028,,,,,,,2024-08-06,1,,,,,アクトラボ,0
714,3060001037371,新規,0,2024-08-06,2024-08-06,株式会社ＫＰＬＵＳ,,株式会社,栃木県,栃木市,都賀町木３１２４番地,,09,203,3280104,,,,,,,2024-08-06,1,,,,,ケープラス,0
718,3070001042040,新規,0,2024-08-06,2024-08-06,株式会社Ｂｌｕｅ　Ｃｏｍｐａｎｙ,,株式会社,群馬県,前橋市,下大島町１０５５番地５０,,10,201,3792152,,,,,,,2024-08-06,1,,,,,ブルーカンパニー,0
721,3080103003113,新規,0,2024-08-06,2024-08-06,合同会社Ｌｕｎａｖｅ,,合同会社,静岡県,沼津市,大岡１００９番地の１プロバンスイリＩＩ－２０５,00135840,22,203,4100022,,,,,,,2024-08-06,1,,,,,ルナヴェ,0
729,3090001018848,新規,0,2024-08-06,2024-08-06,株式会社Ｋｏｎｄｏホールディングス,,株式会社,山梨県,甲府市,住吉５丁目５４７番地２,,19,201,4000851,,,,,,,2024-08-06,1,,,,,コンドウホールディングス,0
730,3100001021494,新規,0,2024-08-06,2024-08-06,株式会社カベック,,株式会社,長野県,上伊那郡箕輪町,大字中箕輪１３１５３番地２,,20,383,3994601,,,,,,,2024-08-06,1,,,,,カベック,0
731,3100001037714,新規,0,2024-08-06,2024-08-06,株式会社ＹＳＫ建興,,株式会社,長野県,松本市,筑摩４丁目２２番１８号,,20,202,3900821,,,,,,,2024-08-06,1,,,,,ワイエスケーケンコウ,0
736,3110001038629,新規,0,2024-08-06,2024-08-06,株式会社海芳,,株式会社,新潟県,柏崎市,田塚３丁目１０番２７号,00135830,15,205,9450032,,,,,,,2024-08-06,1,,,,,カイホウ,0
746,3120001267458,新規,0,2024-08-06,2024-08-06,Ｐｌａｉｎ　Ｔｒｅａｔｓ株式会社,,株式会社,大阪府,枚方市,田口山３丁目６－１,,27,210,5730001,,,,,,,2024-08-06,1,,,,,プレーントリーツ,0
747,3120001267474,新規,0,2024-08-06,2024-08-06,銘＿株式会社,00135824,株式会社,大阪府,大阪市淀川区,木川西１丁目６番２７－３０２号Ａ２,,27,123,5320013,,,,,,,2024-08-06,1,,,,,メイギョク,0
748,3120001267482,新規,0,2024-08-06,2024-08-06,株式会社東豊,,株式会社,大阪府,大阪市中央区,船場中央２丁目３番船場センタービル６号館Ｂ１１７号室,,27,128,5410055,,,,,,,2024-08-06,1,,,,,トウホウ,0
749,3120001267499,新規,0,2024-08-06,2024-08-06,株式会社ホープス,,株式会社,大阪府,大阪市中央区,平野町１丁目５番１１号胡屋ビル７Ｆ,,27,128,5410046,,,,,,,2024-08-06,1,,,,,ホープス,0
750,3120001267524,新規,0,2024-08-06,2024-08-06,株式会社オープンケア,,株式会社,大阪府,門真市,舟田町５番３２号,,27,223,5710021,,,,,,,2024-08-06,1,,,,,オープンケア,0
751,3120001267532,新規,0,2024-08-06,2024-08-06,株式会社ＲＥＴ’ｓ,,株式会社,大阪府,大阪市都島区,東野田町１丁目３－１２,,27,102,5340024,,,,,,,2024-08-06,1,,,,,レッツ,0
752,3120001267565,新規,0,2024-08-06,2024-08-06,株式会社ＢＴＰ,,株式会社,大阪府,大阪市港区,築港４丁目４－２,,27,107,5520021,,,,,,,2024-08-06,1,,,,,ビーティーピー,0
755,3120003027240,新規,0,2024-08-06,2024-08-06,合同会社ＯＫＡＭＯＴＯ,,合同会社,大阪府,大阪市東淀川区,淡路４丁目７番２１号,,27,114,5330032,,,,,,,2024-08-06,1,,,,,オカモト,0
756,3120005024475,新規,0,2024-08-06,2024-08-06,一般社団法人Ｂｕｍｐｙ,,その他の設立登記法人,大阪府,大阪市中央区,南船場３丁目６番２７号３Ｆ,,27,128,5420081,,,,,,,2024-08-06,1,,,,,バンピー,0
761,3120101070101,新規,0,2024-08-06,2024-08-06,Ｍ＆ＭＯＲＥ　ＰＬＵＳ株式会社,,株式会社,大阪府,泉佐野市,市場西２丁目４番１号,,27,213,5980006,,,,,,,2024-08-06,1,,,,,エムアンドモアプラス,0
762,3120103005996,新規,0,2024-08-06,2024-08-06,ヴィレッジ・イン合同会社,,合同会社,大阪府,大阪狭山市,池尻中２丁目１３－３６,,27,231,5890007,,,,,,,2024-08-06,1,,,,,ヴィレッジイン,0
764,3120903005287,新規,0,2024-08-06,2024-08-06,合同会社アキタスコンサルティング,,合同会社,大阪府,茨木市,東宮町３番５－１０２号,,27,211,5670812,,,,,,,2024-08-06,1,,,,,アキタスコンサルティング,0
770,3140001135415,新規,0,2024-08-06,2024-08-06,株式会社ＡＩＲ　ＴＲＡＳＨ,,株式会社,兵庫県,豊岡市,岩井１５９８番地３５,,28,209,6680081,,,,,,,2024-08-06,1,,,,,エアートラッシュ,0
771,3140001135423,新規,0,2024-08-06,2024-08-06,株式会社ＭＩＬＥＳＴＯＮＥ,,株式会社,兵庫県,神戸市北区,桂木２丁目１４番地の６,,28,109,6511223,,,,,,,2024-08-06,1,,,,,マイルストーン,0
774,3140003020920,新規,0,2024-08-06,2024-08-06,合同会社Ｔｅｎｒｙｏ,,合同会社,兵庫県,伊丹市,瑞穂町６丁目２４番地７,,28,207,6640013,,,,,,,2024-08-06,1,,,,,テンリョウ,0
775,3140003020929,新規,0,2024-08-06,2024-08-06,ｅ‐ｐｌｕｓ合同会社,,合同会社,兵庫県,加古川市,東神吉町天下原１９７番地の５,,28,210,6750058,,,,,,,2024-08-06,1,,,,,イープラス,0
786,3180001162562,新規,0,2024-08-06,2024-08-06,株式会社ＣＨＡＮＤ　ＩＮＴＥＲＮＡＴＩＯＮＡＬ,,株式会社,愛知県,春日井市,神屋町６９８番地８０ヴェルディＡ号,,23,206,4800304,,,,,,,2024-08-06,1,,,,,チャンドインターナショナル,0
789,3190001031551,新規,0,2024-08-06,2024-08-06,株式会社松なが組,,株式会社,三重県,四日市市,羽津町８番１号,,24,202,5100017,,,,,,,2024-08-06,1,,,,,マツナガグミ,0
790,3190003004761,新規,0,2024-08-06,2024-08-06,ハート＆ソウル工業合同会社,,合同会社,三重県,鈴鹿市,寺家７丁目５‐１ＴＲＵＥＰＩＮＥ２Ｃ,,24,207,5100254,,,,,,,2024-08-06,1,,,,,ハートアンドソウルコウギョウ,0
794,3210001019858,新規,0,2024-08-06,2024-08-06,株式会社フクジビエ,,株式会社,福井県,坂井市,春江町江留上緑２８－２,,18,210,9190461,,,,,,,2024-08-06,1,,,,,フクジビエ,0
795,3220001026151,新規,0,2024-08-06,2024-08-06,株式会社Ｋ‐ＦＴＦ,,株式会社,石川県,金沢市,窪４丁目１９１番地,,17,201,9218151,,,,,,,2024-08-06,1,,,,,ケイエフティーエフ,0
798,3260001039348,新規,0,2024-08-06,2024-08-06,株式会社ＹＭＤ,,株式会社,岡山県,岡山市北区,白石２１３番地６プレゼンス白石１０３号室,,33,101,7010143,,,,,,,2024-08-06,1,,,,,ワイエムディー,0
799,3260005011385,新規,0,2024-08-06,2024-08-06,一般社団法人ＪＰトレクラブ,,その他の設立登記法人,岡山県,倉敷市,広江１丁目３番６２号,,33,202,7128043,,,,,,,2024-08-06,1,,,,,ジェイピートレクラブ,0
800,3290001106806,新規,0,2024-08-06,2024-08-06,株式会社友忠,,株式会社,福岡県,久留米市,山本町豊田２６番地１０,,40,203,8390827,,,,,,,2024-08-06,1,,,,,トモチュウ,0
802,3290003015674,新規,0,2024-08-06,2024-08-06,合同会社ＤＲＶＦ２号,,合同会社,福岡県,福岡市中央区,大名２丁目４番２２号,,40,133,8100041,,,,,,,2024-08-06,1,,,,,ディーアールブイエフニゴウ,0
805,3290801030767,新規,0,2024-08-06,2024-08-06,株式会社常昇機設工業,,株式会社,福岡県,北九州市小倉北区,真鶴２丁目１１番２０号,,40,106,8030844,,,,,,,2024-08-06,1,,,,,ジョウショウキセツコウギョウ,0
808,3300001013868,新規,0,2024-08-06,2024-08-06,株式会社ＡＮ商事,,株式会社,佐賀県,佐賀市,木原１丁目１２番３号,,41,201,8400015,,,,,,,2024-08-06,1,,,,,エーエヌショウジ,0
812,3320001020648,新規,0,2024-08-06,2024-08-06,ＫＳＳ株式会社,,株式会社,大分県,大分市,三川上２丁目１番２号,,44,201,8700143,,,,,,,2024-08-06,1,,,,,ケイエスエス,0
813,3330001032320,新規,0,2024-08-06,2024-08-06,カムレイドワークス株式会社,,株式会社,熊本県,熊本市南区,富合町木原１３３０番地,,43,104,8614153,,,,,,,2024-08-06,1,,,,,カムレイドワークス,0
814,3330001032329,新規,0,2024-08-06,2024-08-06,株式会社グリーンカキハラ,,株式会社,熊本県,八代市,鏡町貝洲９６９番地,,43,202,8694223,,,,,,,2024-08-06,1,,,,,グリーンカキハラ,0
815,3330003010506,新規,0,2024-08-06,2024-08-06,合同会社Ｙｅｓフーズ,,合同会社,熊本県,山鹿市,南島１１５１－１,,43,208,8610535,,,,,,,2024-08-06,1,,,,,イエスフーズ,0
816,3340001026718,新規,0,2024-08-06,2024-08-06,ＮＥＸＴ‐ＧＥＮ株式会社,,株式会社,鹿児島県,鹿児島市,荒田１丁目３１番２７号,,46,201,8900054,,,,,,,2024-08-06,1,,,,,ネクストゲン,0
818,3340003004564,新規,0,2024-08-06,2024-08-06,Ｅｆｆｏｒｔ合同会社,,合同会社,鹿児島県,鹿児島市,船津町１－１１－３Ｆ,,46,201,8920831,,,,,,,2024-08-06,1,,,,,エフォート,0
821,3350001019126,新規,0,2024-08-06,2024-08-06,株式会社パシオ,,株式会社,宮崎県,都城市,鷹尾３丁目４街区６号,,45,202,8850081,,,,,,,2024-08-06,1,,,,,パシオ,0
824,3360001034033,新規,0,2024-08-06,2024-08-06,株式会社ＰＯＮＯ,,株式会社,沖縄県,那覇市,前島３丁目２５番地２号泊ポートビル１階,,47,201,9000016,,,,,,,2024-08-06,1,,,,,ポノ,0
825,3360003014207,新規,0,2024-08-06,2024-08-06,合同会社ＣＳＴ,,合同会社,沖縄県,那覇市,首里鳥堀町２丁目２９－２Ｆ,,47,201,9030805,,,,,,,2024-08-06,1,,,,,シーエスティー,0
826,3370001051606,新規,0,2024-08-06,2024-08-06,株式会社Ｗｉｌｌ　Ｇｒａｃｅ,,株式会社,宮城県,仙台市太白区,羽黒台３８番８号,,04,104,9820817,,,,,,,2024-08-06,1,,,,,ウィルグレイス,0
827,3370001051614,新規,0,2024-08-06,2024-08-06,株式会社古梅園,,株式会社,宮城県,仙台市宮城野区,福田町２丁目１４サンライズ宮城野２０５号,,04,102,9830023,,,,,,,2024-08-06,1,,,,,コバイエン,0
837,3420003002964,新規,0,2024-08-06,2024-08-06,二葉グリーン合同会社,,合同会社,青森県,むつ市,下北町２０番６号,,02,208,0350061,,,,,,,2024-08-06,1,,,,,フタバグリーン,0
844,3430001092420,新規,0,2024-08-06,2024-08-06,株式会社ＫＬＩＭ　ｕｎｉ,,株式会社,北海道,札幌市清田区,清田二条１丁目１５番１６号,,01,110,0040842,,,,,,,2024-08-06,1,,,,,クリムユニ,0
846,3430003016600,新規,0,2024-08-06,2024-08-06,合同会社Ｇｅｎｅｒａｌ　Ｃｌｅａｎ,,合同会社,北海道,恵庭市,南島松５９４,,01,231,0611375,,,,,,,2024-08-06,1,,,,,ジェネラルクリーン,0
848,3460101007589,新規,0,2024-08-06,2024-08-06,げんき商会株式会社,,株式会社,北海道,中川郡本別町,美里別１２９番地９,,01,646,0893300,,,,,,,2024-08-06,1,,,,,ゲンキショウカイ,0
851,3480001012563,新規,0,2024-08-06,2024-08-06,椿会計株式会社,,株式会社,徳島県,徳島市,大原町東千代ケ丸１９番地７３,,36,201,7708012,,,,,,,2024-08-06,1,,,,,ツバキカイケイ,0
860,3700150126521,新規,0,2024-08-06,2024-07-23,三泉商店会,,その他,大阪府,大阪市大正区,泉尾１丁目１３－７,,27,108,5510031,,,,,,,2024-07-23,1,,,,,サンセンシヨウテンカイ,0
864,4010001247107,新規,0,2024-08-06,2024-08-06,株式会社レシラム,,株式会社,東京都,千代田区,九段南１丁目５番６号りそな九段ビル５階ＫＳフロア,,13,101,1020074,,,,,,,2024-08-06,1,,,,,レシラム,0
865,4010001247148,新規,0,2024-08-06,2024-08-06,株式会社Ｔｅｃｈ　ＨＲ　ｏｆｆｉｃｅ,,株式会社,東京都,中央区,京橋１丁目１番５号セントラルビル２階ｆａｂｂｉｔ京橋,,13,102,1040031,,,,,,,2024-08-06,1,,,,,テックエイチアールオフィス,0
866,4010001247156,新規,0,2024-08-06,2024-08-06,ＹＣＨＹ株式会社,,株式会社,東京都,千代田区,神田神保町２丁目３４－１鳴海ビル２１９号室,,13,101,1010051,,,,,,,2024-08-06,1,,,,,エイソウカンウ,0
867,4010001247172,新規,0,2024-08-06,2024-08-06,株式会社ＳｐａｃｅＣａｎｖａｓ,,株式会社,東京都,中央区,銀座６丁目６番１号,,13,102,1040061,,,,,,,2024-08-06,1,,,,,スペースキャンバス,0
868,4010001247189,新規,0,2024-08-06,2024-08-06,ｉＦＲＥＥ株式会社,,株式会社,東京都,千代田区,神田和泉町１番地６－１６ヤマトビル４０５,,13,101,1010024,,,,,,,2024-08-06,1,,,,,アイフリー,0
869,4010001247214,新規,0,2024-08-06,2024-08-06,マシマ興産株式会社,,株式会社,東京都,千代田区,富士見１丁目５番８号,,13,101,1020071,,,,,,,2024-08-06,1,,,,,マシマコウサン,0
870,4010001247222,新規,0,2024-08-06,2024-08-06,株式会社ＬｉｎｋＵｐ,,株式会社,東京都,千代田区,神田和泉町１番地６の１６ヤマトビル４０５,,13,101,1010024,,,,,,,2024-08-06,1,,,,,リンクアップ,0
871,4010001247230,新規,0,2024-08-06,2024-08-06,株式会社Ｋｕｒｉｓｉｄｅ,,株式会社,東京都,千代田区,外神田２丁目１８番５号光洋ビル３階,,13,101,1010021,,,,,,,2024-08-06,1,,,,,クリサイド,0
872,4010001247271,新規,0,2024-08-06,2024-08-06,株式会社千里の馬,,株式会社,東京都,千代田区,神田和泉町１番地６－１６ヤマトビル４０５,,13,101,1010024,,,,,,,2024-08-06,1,,,,,センリノウマ,0
873,4010003044436,新規,0,2024-08-06,2024-08-06,合同会社Ｆｉｊｉ,,合同会社,東京都,文京区,向丘１６－２４Ｈｏｕｓｅｉｓ,,13,105,1120000,,,,,,,2024-08-06,1,,,,,フィジー,0
878,4010101016270,新規,0,2024-08-06,2024-08-06,株式会社ワイケー興業,,株式会社,東京都,八王子市,堀之内２丁目１番地１５,,13,201,1920355,,,,,,,2024-08-06,1,,,,,ワイケーコウギョウ,0
882,4010401184222,新規,0,2024-08-06,2024-08-06,久仁株式会社,,株式会社,東京都,港区,北青山３丁目６番７号青山パラシオタワー１１階,,13,103,1070061,,,,,,,2024-08-06,1,,,,,クニ,0
884,4010403033170,新規,0,2024-08-06,2024-08-06,合同会社わくわく庵,,合同会社,東京都,港区,南青山３丁目１－３６青山丸竹ビル６Ｆ,,13,103,1070062,,,,,,,2024-08-06,1,,,,,ワクワクアン,0
886,4010405023450,新規,0,2024-08-06,2024-08-06,一般社団法人ｗｅｂ３振興協会,,その他の設立登記法人,東京都,港区,新橋１丁目１２番９号７階ビジネスエアポート新橋,,13,103,1050004,,,,,,,2024-08-06,1,,,,,ウェブスリーシンコウキョウカイ,0
892,4010701046353,新規,0,2024-08-06,2024-08-06,株式会社ＦＥＲＮＡ,,株式会社,東京都,品川区,大崎４丁目２番１３－５１２号,,13,109,1410032,,,,,,,2024-08-06,1,,,,,フェルナ,0
894,4010703007295,新規,0,2024-08-06,2024-08-06,ＡＳＰＩＣＩＯ合同会社,,合同会社,東京都,品川区,北品川５丁目５番１５号,,13,109,1410001,,,,,,,2024-08-06,1,,,,,アスピシオ,0
897,4010901055740,新規,0,2024-08-06,2024-08-06,株式会社や藏,,株式会社,東京都,世田谷区,松原６丁目１番１２号ワコーレ梅ケ丘５０１,,13,112,1560043,,,,,,,2024-08-06,1,,,,,ヤゾウ,0
898,4010901055749,新規,0,2024-08-06,2024-08-06,株式会社Ｔｅｎ　Ｋｉｎｇｓ,,株式会社,東京都,世田谷区,成城７丁目９番８号,,13,112,1570066,,,,,,,2024-08-06,1,,,,,テンキングス,0
902,4011001163847,新規,0,2024-08-06,2024-08-06,株式会社アドバンテッジヘルスケア,,株式会社,東京都,目黒区,上目黒２丁目１番１号,,13,110,1530051,,,,,,,2024-08-06,1,,,,,アドバンテッジヘルスケア,0
905,4011101108289,新規,0,2024-08-06,2024-08-06,株式会社ＡｍＵｍＡ,,株式会社,東京都,新宿区,神楽坂２丁目１２番地１,,13,104,1620825,,,,,,,2024-08-06,1,,,,,アミュ,0
906,4011201025698,新規,0,2024-08-06,2024-08-06,株式会社大野建設,,株式会社,東京都,中野区,鷺宮４丁目１２番２号,,13,114,1650032,,,,,,,2024-08-06,1,,,,,オオノケンセツ,0
908,4011303005251,新規,0,2024-08-06,2024-08-06,合同会社Ｉ’ｓ　ｃｏｍｐａｎｙ,,合同会社,東京都,杉並区,下井草４丁目３２番１７－５０４号第一陵雲閣,,13,115,1670022,,,,,,,2024-08-06,1,,,,,アイズカンパニー,0
910,4011401026323,新規,0,2024-08-06,2024-08-06,株式会社ＳＯＨＯ建設,,株式会社,東京都,板橋区,志村３丁目１４番５号志村城山マンション５０２,,13,119,1740056,,,,,,,2024-08-06,1,,,,,ソーホーケンセツ,0
913,4011701027509,新規,0,2024-08-06,2024-08-06,株式会社オガタク本舗,,株式会社,東京都,江戸川区,平井６丁目１８番１３号,,13,123,1320035,,,,,,,2024-08-06,1,,,,,オガタクホンポ,0
914,4011801044627,新規,0,2024-08-06,2024-08-06,株式会社ミライン,,株式会社,東京都,足立区,入谷２丁目１２番１９号,,13,121,1210836,,,,,,,2024-08-06,1,,,,,ミライン,0
916,4012301014038,新規,0,2024-08-06,2024-08-06,株式会社ＬＥＡＬＥ,,株式会社,東京都,町田市,金森東４丁目２６番３号,,13,209,1940015,,,,,,,2024-08-06,1,,,,,レアーレ,0
926,4013301052928,新規,0,2024-08-06,2024-08-06,Ｅｕｒｙａ株式会社,,株式会社,東京都,豊島区,南大塚２丁目１番１０号,,13,116,1700005,,,,,,,2024-08-06,1,,,,,イオヤ,0
931,4020001158336,新規,0,2024-08-06,2024-08-06,株式会社Ｆｉｎｄ　Ｙｏｕｒ　Ｃｏｌｏｒｓ,,株式会社,神奈川県,横浜市神奈川区,金港町５－１４クアドリフォリオ８階,,14,102,2210056,,,,,,,2024-08-06,1,,,,,ファインドユアカラーズ,0
932,4020001158344,新規,0,2024-08-06,2024-08-06,株式会社ビガリ,,株式会社,神奈川県,川崎市中原区,上小田中３丁目２９番１－９０２号,,14,133,2110053,,,,,,,2024-08-06,1,,,,,ビガリ,0
933,4020001158352,新規,0,2024-08-06,2024-08-06,株式会社茂木設備,,株式会社,神奈川県,川崎市高津区,下野毛２丁目３番１４号,,14,134,2130006,,,,,,,2024-08-06,1,,,,,モギセツビ,0
942,4021003014849,新規,0,2024-08-06,2024-08-06,合同会社Ｎｉｎｅｔｙ,,合同会社,神奈川県,鎌倉市,植木６６５番地１２,,14,204,2470073,,,,,,,2024-08-06,1,,,,,ナインティ,0
944,4021005013163,新規,0,2024-08-06,2024-08-06,司法書士法人Ｋ＆Ｋ,,その他の設立登記法人,神奈川県,鎌倉市,大船３丁目１番４号長嶋ビル６階,,14,204,2470056,,,,,,,2024-08-06,1,,,,,ケーアンドケー,0
951,4030001161669,新規,0,2024-08-06,2024-08-06,株式会社ＮＯＯＬ,,株式会社,埼玉県,春日部市,大枝９７８番地１６,,11,214,3440023,,,,,,,2024-08-06,1,,,,,ノール,0
952,4030001161776,新規,0,2024-08-06,2024-08-06,株式会社つなぐ不動産,,株式会社,埼玉県,川越市,大字天沼新田１７６番地２,,11,201,3500806,,,,,,,2024-08-06,1,,,,,ツナグフドウサン,0
958,4030003024857,新規,0,2024-08-06,2024-08-06,内田家合同会社,,合同会社,埼玉県,鴻巣市,筑波１丁目２－９,,11,217,3690114,,,,,,,2024-08-06,1,,,,,ウチダヤ,0
960,4040001134855,新規,0,2024-08-06,2024-08-06,トロン商会株式会社,,株式会社,千葉県,茂原市,大芝７９０－８,,12,210,2970033,,,,,,,2024-08-06,1,,,,,トロンショウカイ,0
964,4040003025573,新規,0,2024-08-06,2024-08-06,合同会社迦陵頻伽,,合同会社,千葉県,千葉市中央区,南生実町５４番地１－Ｄ－７,,12,101,2600814,,,,,,,2024-08-06,1,,,,,カリョウビンガ,0
966,4040005022461,新規,0,2024-08-06,2024-08-06,一般社団法人ａｍｉｎｏｗａ,,その他の設立登記法人,千葉県,船橋市,三山８丁目１番５号,,12,204,2740072,,,,,,,2024-08-06,1,,,,,アミノワ,0
967,4050001055191,新規,0,2024-08-06,2024-08-06,株式会社細谷左官工業,,株式会社,茨城県,鉾田市,湯坪２１５８番地２８８,,08,234,3111425,,,,,,,2024-08-06,1,,,,,ホソヤサカンコウギョウ,0
971,4050003008593,新規,0,2024-08-06,2024-08-06,ＴＡＪ　ＭＵＨＡＭＭＡＤ　ＢＵＳＩＮＥＳＳ　ＣＥＮＴＥＲ合同会社,,合同会社,茨城県,常総市,杉山１４２０番地８,,08,211,3002744,,,,,,,2024-08-06,1,,,,,タージュムハンマドビジネスセンター,0
975,4060001037370,新規,0,2024-08-06,2024-08-06,株式会社Ｓｅｃｏｎｄ,,株式会社,栃木県,宇都宮市,屋板町５１７番地１,,09,201,3210112,,,,,,,2024-08-06,1,,,,,セカンド,0
980,4070001042015,新規,0,2024-08-06,2024-08-06,三進プレス工業株式会社,,株式会社,群馬県,館林市,大字赤生田２６３２番地,,10,207,,,,,,,,2024-08-06,1,,,,,,0
981,4070001042064,新規,0,2024-08-06,2024-08-06,株式会社智建,,株式会社,群馬県,みどり市,大間々町大間々１９００番地５,,10,212,3760101,,,,,,,2024-08-06,1,,,,,トモケン,0
983,4080001026413,新規,0,2024-08-06,2024-08-06,株式会社鳥藤,,株式会社,静岡県,静岡市葵区,紺屋町１３番地６,,22,101,4200852,,,,,,,2024-08-06,1,,,,,トリフジ,0
984,4080001026421,新規,0,2024-08-06,2024-08-06,株式会社法和工業,,株式会社,静岡県,静岡市清水区,田町３９番地の１１,,22,103,4240804,,,,,,,2024-08-06,1,,,,,ホウワコウギョウ,0
992,4080401027366,新規,0,2024-08-06,2024-08-06,株式会社叶,,株式会社,静岡県,浜松市浜名区,小松１１５３番地,,22,139,4340042,,,,,,,2024-08-06,1,,,,,カナウ,0
995,4100001037713,新規,0,2024-08-06,2024-08-06,エイコーン株式会社,,株式会社,長野県,伊那市,西箕輪７７０１番地４,,20,209,3994501,,,,,,,2024-08-06,1,,,,,エイコーン,0
999,4110001038603,新規,0,2024-08-06,2024-08-06,株式会社ＯＮＤＥＫＯ,,株式会社,新潟県,佐渡市,吉井本郷１０５９番地,,15,224,9521202,,,,,,,2024-08-06,1,,,,,オンデコ,0
1000,4110001038611,新規,0,2024-08-06,2024-08-06,サンシード株式会社,,株式会社,新潟県,中魚沼郡津南町,大字下船渡丁１４３４番地７,,15,482,9498201,,,,,,,2024-08-06,1,,,,,サンシード,0
1008,4120001267390,新規,0,2024-08-06,2024-08-06,株式会社駿逸,00135837,株式会社,大阪府,大阪市北区,本庄東１丁目２２－２０－２０１号室,,27,127,5310074,,,,,,,2024-08-06,1,,,,,シュンイツ,0
1009,4120001267473,新規,0,2024-08-06,2024-08-06,凱特株式会社,,株式会社,大阪府,大阪市城東区,中央１丁目４番７号サンライズ中央２０５号,,27,118,5360005,,,,,,,2024-08-06,1,,,,,カイトク,0
1010,4120001267481,新規,0,2024-08-06,2024-08-06,株式会社うさぎ星,,株式会社,大阪府,大阪市東淀川区,豊里７丁目２８番１１号,,27,114,5330013,,,,,,,2024-08-06,1,,,,,ウサギボシ,0
1011,4120001267498,新規,0,2024-08-06,2024-08-06,アイクリエイト株式会社,,株式会社,大阪府,大阪市中央区,本町２丁目３番４号アソルティ本町４Ｆ,,27,128,5410053,,,,,,,2024-08-06,1,,,,,アイクリエイト,0
1012,4120001267507,新規,0,2024-08-06,2024-08-06,ゼネラル・アフェアーズ・ジャパン株式会社,,株式会社,大阪府,大阪市中央区,久太郎町４丁目１番３号大阪センタービル６Ｆ－３１５,,27,128,5410056,,,,,,,2024-08-06,1,,,,,ゼネラルアフェアーズジャパン,0
1013,4120001267515,新規,0,2024-08-06,2024-08-06,又見株式会社,,株式会社,大阪府,大阪市淀川区,西宮原３丁目２－１－６０３号,,27,123,5320004,,,,,,,2024-08-06,1,,,,,ユウケン,0
1014,4120001267548,新規,0,2024-08-06,2024-08-06,株式会社７２７ＬＡＢＯ,,株式会社,大阪府,大阪市中央区,島之内２丁目７番１９－７２７号,,27,128,5420082,,,,,,,2024-08-06,1,,,,,ナナニナナラボ,0
1015,4120001267572,新規,0,2024-08-06,2024-08-06,株式会社ＭＥＭ,,株式会社,大阪府,大阪市東成区,大今里西１丁目２５－１３南星ビル４０２号室,,27,115,5370014,,,,,,,2024-08-06,1,,,,,メム,0
1020,4120003027198,新規,0,2024-08-06,2024-08-06,合同会社Ｅｍｐｏｗｅｒ,,合同会社,大阪府,大阪市都島区,都島中通３丁目５番１３－７０１号,,27,102,5340022,,,,,,,2024-08-06,1,,,,,エンパワー,0
1021,4120005024474,新規,0,2024-08-06,2024-08-06,一般社団法人カラフル,,その他の設立登記法人,大阪府,大阪市浪速区,恵美須西３丁目１３番３４号グランエクラ今宮戎７０２号,,27,111,5560003,,,,,,,2024-08-06,1,,,,,カラフル,0
1023,4120101070100,新規,0,2024-08-06,2024-08-06,株式会社Ｂ．ＧＯ,,株式会社,大阪府,堺市西区,浜寺諏訪森町西２丁１５３番地４,,27,144,5928347,,,,,,,2024-08-06,1,,,,,ビーゴー,0
1028,4120901049533,新規,0,2024-08-06,2024-08-06,株式会社Ｓ‐ＳＴＹＬＥ,,株式会社,大阪府,高槻市,神内２丁目２１番６号,,27,207,5690007,,,,,,,2024-08-06,1,,,,,エススタイル,0
1029,4122001038334,新規,0,2024-08-06,2024-08-06,株式会社ｓｔａｙ　ｃｌｏｓｅ,,株式会社,大阪府,東大阪市,長堂３丁目２番６号ラムール布施５０１号,,27,227,5770056,,,,,,,2024-08-06,1,,,,,ステイクローズ,0
1040,4140001135315,新規,0,2024-08-06,2024-08-06,株式会社Ｒ’ｓ　Ｄａｙ,,株式会社,兵庫県,神戸市中央区,東川崎町１丁目８番４号神戸市産業振興センター５階５－５,,28,110,6500044,,,,,,,2024-08-06,1,,,,,アールズデイ,0
1041,4140001135414,新規,0,2024-08-06,2024-08-06,南栄重量株式会社,,株式会社,兵庫県,西宮市,戸田町４番３号３０１,,28,204,6620916,,,,,,,2024-08-06,1,,,,,ナンエイジュウリョウ,0
1046,4150001027478,新規,0,2024-08-06,2024-08-06,株式会社Ｃｏｎｎｅｃｔｉｏｎ,,株式会社,奈良県,奈良市,学園朝日町１０番６－２グラシアスコート学園前ＷＥＳＴ３０３号,,29,201,6310016,,,,,,,2024-08-06,1,,,,,コネクション,0
1055,4180001162702,新規,0,2024-08-06,2024-08-06,株式会社ＳＴＡＲＳＥＩＫＩ　ＩＮＴＥＲＮＡＴＩＯＮＡＬ,,株式会社,愛知県,名古屋市瑞穂区,下坂町２丁目３６番地,,23,108,4670827,,,,,,,2024-08-06,1,,,,,スターセイキインターナショナル,0
1056,4180001162727,新規,0,2024-08-06,2024-08-06,株式会社Ｏｔｈｅｌｌｏ,,株式会社,愛知県,半田市,有楽町５丁目２１６番地の２,,23,205,4750837,,,,,,,2024-08-06,1,,,,,オセロ,0
1059,4180003027184,新規,0,2024-08-06,2024-08-06,ＡＬＧ合同会社,,合同会社,愛知県,名古屋市中村区,名駅４丁目２４番５号第２森ビル４０１,,23,105,4500002,,,,,,,2024-08-06,1,,,,,エーエルジー,0
1069,4220001026150,新規,0,2024-08-06,2024-08-06,株式会社ＭＪ,,株式会社,石川県,金沢市,粟崎町３丁目２４３番地４,,17,201,9200226,,,,,,,2024-08-06,1,,,,,エムジェイ,0
1071,4230001020474,新規,0,2024-08-06,2024-08-06,富山ライフホーム株式会社,,株式会社,富山県,射水市,戸破４０７１番地ＨＩＢＡＲＩ・ＮＥＳＴ,,16,211,9390351,,,,,,,2024-08-06,1,,,,,トヤマライフホーム,0
1074,4240001063638,新規,0,2024-08-06,2024-08-06,株式会社マツウラ,,株式会社,広島県,廿日市市,宮内４丁目７番１５－１０２号,,34,213,7380034,,,,,,,2024-08-06,1,,,,,マツウラ,0
1075,4240001063654,新規,0,2024-08-06,2024-08-06,株式会社ｍｉｌｕｍａ,,株式会社,広島県,江田島市,江田島町秋月２丁目５５２４－１,,34,215,7372131,,,,,,,2024-08-06,1,,,,,ミルマ,0
1082,4260001039339,新規,0,2024-08-06,2024-08-06,株式会社ホクラ,,株式会社,岡山県,岡山市南区,豊成１丁目２０番４号,,33,104,7000942,,,,,,,2024-08-06,1,,,,,ホクラ,0
1084,4270001009027,新規,0,2024-08-06,2024-08-06,株式会社アズワン,,株式会社,鳥取県,倉吉市,上余戸４６７番地２,,31,203,6820032,,,,,,,2024-08-06,1,,,,,アズワン,0
1087,4290001106755,新規,0,2024-08-06,2024-08-06,株式会社たにぐち農縁,,株式会社,福岡県,福岡市博多区,博多駅前１丁目２３番２号ＰａｒｋＦｒｏｎｔ博多駅前１丁目５Ｆ－Ｂ,,40,132,8120011,,,,,,,2024-08-06,1,,,,,タニグチノウエン,0
1088,4290001106796,新規,0,2024-08-06,2024-08-06,株式会社クレア,,株式会社,福岡県,糟屋郡須惠町,大字須恵１９番地３１,,40,344,8112100,,,,,,,2024-08-06,1,,,,,クレア,0
1090,4290005019458,新規,0,2024-08-06,2024-08-06,ＮＰＯ法人モクラボ九州人,,その他の設立登記法人,福岡県,福岡市博多区,博多駅東２丁目１８番２８－９０１号,,40,132,8120013,,,,,,,2024-08-06,1,,,,,モクラボキュウシュウジン,0
1092,4290801030766,新規,0,2024-08-06,2024-08-06,株式会社ＰＬＵＳ　ＯＮＥ,,株式会社,福岡県,北九州市八幡西区,木屋瀬５丁目２０番２５号,,40,109,8071261,,,,,,,2024-08-06,1,,,,,プラスワン,0
1093,4290801030774,新規,0,2024-08-06,2024-08-06,ＶｉＶｉ株式会社,,株式会社,福岡県,北九州市小倉北区,京町３丁目１０番２５号３階,,40,106,8020002,,,,,,,2024-08-06,1,,,,,ヴィヴィ,0
1094,4290805009765,新規,0,2024-08-06,2024-08-06,一般社団法人リマポエポエ,,その他の設立登記法人,福岡県,北九州市門司区,柳町１丁目４番１５中大門ビル１０６号,,40,101,8000025,,,,,,,2024-08-06,1,,,,,リマポエポエ,0
1098,4330001032328,新規,0,2024-08-06,2024-08-06,株式会社ＡｄＦｕｎｃｔｉｏｎｓ,,株式会社,熊本県,熊本市西区,池田４丁目２２番１号,,43,103,8600082,,,,,,,2024-08-06,1,,,,,アドファンクションズ,0
1109,4360001033975,新規,0,2024-08-06,2024-08-06,Ｏｋａｒａｏｋａｒａ株式会社,,株式会社,沖縄県,沖縄市,中央１丁目７－８,,47,211,9040004,,,,,,,2024-08-06,1,,,,,オカラオカラ,0
1111,4360003014197,新規,0,2024-08-06,2024-08-06,合同会社大城禎人建築設計事務所,,合同会社,沖縄県,中頭郡中城村,字南上原５５０番地２５街区７－３画地２Ｆ,,47,328,9012424,,,,,,,2024-08-06,1,,,,,オオシロヨシトケンチクセッケイジムショ,0
1114,4370001051613,新規,0,2024-08-06,2024-08-06,株式会社ＫＡＷＡＳＡＫＩ,,株式会社,宮城県,仙台市宮城野区,小鶴１丁目１６番２５号,,04,102,9830031,,,,,,,2024-08-06,1,,,,,カワサキ,0
1115,4370001051621,新規,0,2024-08-06,2024-08-06,株式会社高昌機械整備,,株式会社,宮城県,石巻市,不動町２丁目７番２２号,,04,202,9860017,,,,,,,2024-08-06,1,,,,,タカショウキカイセイビ,0
1118,4370003006714,新規,0,2024-08-06,2024-08-06,合同会社庄司,,合同会社,宮城県,仙台市青葉区,大倉字向田１６番地の３０,,04,101,9893213,,,,,,,2024-08-06,1,,,,,ショウジ,0
1119,4380001034708,新規,0,2024-08-06,2024-08-06,株式会社ＴＳＣ,,株式会社,福島県,大沼郡会津美里町,字高田前川原３５４９番地,,07,447,9696203,,,,,,,2024-08-06,1,,,,,ティーエスシー,0
1122,4390001017694,新規,0,2024-08-06,2024-08-06,株式会社ＳＬＣ,,株式会社,山形県,天童市,北目４丁目９番１０号１階,,06,210,9940042,,,,,,,2024-08-06,1,,,,,エスエルシー,0
1126,4410001013906,新規,0,2024-08-06,2024-08-06,株式会社大秋工業,,株式会社,秋田県,男鹿市,脇本脇本字上野８６番地２０,,05,206,0100342,,,,,,,2024-08-06,1,,,,,ダイシュウコウギョウ,0
1127,4420003002971,新規,0,2024-08-06,2024-08-06,合同会社北不動産,,合同会社,青森県,八戸市,南白山台３丁目３－２７,,02,203,0391112,,,,,,,2024-08-06,1,,,,,キタフドウサン,0
1130,4430001092345,新規,0,2024-08-06,2024-08-06,株式会社趣,,株式会社,北海道,札幌市西区,西野四条４丁目１２番３号,,01,107,0630034,,,,,,,2024-08-06,1,,,,,オモムキ,0
1131,4430001092394,新規,0,2024-08-06,2024-08-06,株式会社ＨＥＲＯ　ＴＲＡＩＮ,,株式会社,北海道,札幌市白石区,中央二条２丁目２－５０,,01,104,0030012,,,,,,,2024-08-06,1,,,,,ヒーロートレイン,0
1132,4430001092411,新規,0,2024-08-06,2024-08-06,株式会社髪遊美,,株式会社,北海道,札幌市東区,北十条東８丁目２番７号西松ビル２階,,01,103,0650010,,,,,,,2024-08-06,1,,,,,カミユウビ,0
1135,4430003016665,新規,0,2024-08-06,2024-08-06,合同会社ニキア,,合同会社,北海道,小樽市,真栄１丁目１２番１７号,,01,203,0470003,,,,,,,2024-08-06,1,,,,,ニキア,0
1138,4470001020327,新規,0,2024-08-06,2024-08-06,株式会社松田酒販,,株式会社,香川県,丸亀市,西平山町２８６番地,,37,202,7630041,,,,,,,2024-08-06,1,,,,,マツダシュハン,0
1146,4500003003301,新規,0,2024-08-06,2024-08-06,合同会社Ｔ＆Ｆ,,合同会社,愛媛県,西条市,丹原町北田野２６３－５,,38,206,7910523,,,,,,,2024-08-06,1,,,,,ティーアンドエフ,0
1156,5010003044542,新規,0,2024-08-06,2024-08-06,合同会社ナイス・プラン,,合同会社,東京都,中央区,八丁堀３丁目９番２－７０３号,,13,102,1040032,,,,,,,2024-08-06,1,,,,,ナイスプラン,0
1158,5010005038641,新規,0,2024-08-06,2024-08-06,ＤＨＦ４一般社団法人,,その他の設立登記法人,東京都,千代田区,丸の内１丁目４番１号東京共同会計事務所内,,13,101,1000005,,,,,,,2024-08-06,1,,,,,ディーエイチエフフォー,0
1160,5010103002400,新規,0,2024-08-06,2024-08-06,合同会社ＧＩＭＡＹＡ,,合同会社,東京都,八王子市,追分町１８番１６号,,13,201,1920056,,,,,,,2024-08-06,1,,,,,ギヤマヤ,0
1164,5010401184171,新規,0,2024-08-06,2024-08-06,株式会社ＷＥＳＴＲＯＣＫ,,株式会社,東京都,港区,高輪３丁目１０番１５－２０２号,,13,103,1080074,,,,,,,2024-08-06,1,,,,,ウエストロック,0
1165,5010501052724,新規,0,2024-08-06,2024-08-06,株式会社ｎｙａｏ,,株式会社,東京都,台東区,西浅草３丁目２２番３－３４０８号,,13,106,1110035,,,,,,,2024-08-06,1,,,,,ニャオ,0
1170,5010703007294,新規,0,2024-08-06,2024-08-06,合同会社ＵＬＵＬＡ,,合同会社,東京都,品川区,西五反田２丁目９番７号ドルミ五反田アンメゾン４０７号,,13,109,1410031,,,,,,,2024-08-06,1,,,,,ウルラ,0
1171,5010801035296,新規,0,2024-08-06,2024-08-06,ブラザー株式会社,,株式会社,東京都,大田区,東糀谷４丁目１番２１－１０８号,,13,111,1440033,,,,,,,2024-08-06,1,,,,,ブラザー,0
1172,5010901055748,新規,0,2024-08-06,2024-08-06,Ｇｒａｎｄｖｉｓｔａ　Ｂｉｏｔｅｃｈｎｏｌｏｇｙ　Ｊａｐａｎ株式会社,,株式会社,東京都,世田谷区,代田２丁目６番２５号,,13,112,1550033,,,,,,,2024-08-06,1,,,,,グランドビスタバイオテクノロジージャパン,0
1173,5010903009264,新規,0,2024-08-06,2024-08-06,合同会社Ｒ＆Ａ,,合同会社,東京都,世田谷区,岡本３丁目１４番１１号,,13,112,1570076,,,,,,,2024-08-06,1,,,,,アールアンドエー,0
1182,5011103014716,新規,0,2024-08-06,2024-08-06,合同会社クラスケ,,合同会社,東京都,新宿区,西新宿３丁目３番１３号西新宿水間ビル６階合同会社クラスケ,,13,104,1600023,,,,,,,2024-08-06,1,,,,,クラスケ,0
1185,5011403004466,新規,0,2024-08-06,2024-08-06,合同会社Ｈ２,,合同会社,東京都,板橋区,徳丸４丁目３６番９号,,13,119,1750083,,,,,,,2024-08-06,1,,,,,エイチツー,0
1186,5011405002303,新規,0,2024-08-06,2024-08-06,一般社団法人東京ハンガリー語教育団体,,その他の設立登記法人,東京都,板橋区,赤塚４丁目２３番５号,,13,119,1750092,,,,,,,2024-08-06,1,,,,,トウキョウハンガリーゴキョウイクダンタイ,0
1188,5011701027508,新規,0,2024-08-06,2024-08-06,らいとケアサービス株式会社,,株式会社,東京都,江戸川区,東小松川２丁目１１番９号ＫＹＳビル１Ｆ,,13,123,1320033,,,,,,,2024-08-06,1,,,,,ライトケアサービス,0
1192,5011801044650,新規,0,2024-08-06,2024-08-06,龍鵬国際株式会社,,株式会社,東京都,足立区,東和３丁目１３番１－３３０号,,13,121,1200003,,,,,,,2024-08-06,1,,,,,タツホウコクサイ,0
1197,5013103001363,新規,0,2024-08-06,2024-08-06,北斗山人合同会社,,合同会社,東京都,青梅市,梅郷６丁目１５６１番地の１,,13,205,1980063,,,,,,,2024-08-06,1,,,,,,0
1200,5013301052935,新規,0,2024-08-06,2024-08-06,株式会社１０２クリエイティブ,,株式会社,東京都,豊島区,池袋４丁目２２番１０号,,13,116,1710014,,,,,,,2024-08-06,1,,,,,イチマルニクリエイティブ,0
1206,5020001158351,新規,0,2024-08-06,2024-08-06,株式会社至誠,,株式会社,神奈川県,横浜市中区,真砂町４丁目４３番地木下商事ビルＢ１Ｆ,,14,104,2310016,,,,,,,2024-08-06,1,,,,,シセイ,0
1207,5020001158483,新規,0,2024-08-06,2024-08-06,一鐵ソリューションズ株式会社,,株式会社,神奈川県,横浜市金沢区,能見台１丁目３０番地１３,,14,108,2360057,,,,,,,2024-08-06,1,,,,,イッテツソリューションズ,0
1217,5021001082938,新規,0,2024-08-06,2024-08-06,株式会社ウォーターズ,,株式会社,神奈川県,藤沢市,鵠沼松が岡３丁目２０番１３号フローレンス湘南１１０２号,,14,205,2510038,,,,,,,2024-08-06,1,,,,,ウォーターズ,0
1221,5021005013162,新規,0,2024-08-06,2024-08-06,税理士法人プラネット,,その他の設立登記法人,神奈川県,平塚市,松風町２６番２９号,,14,203,2540812,,,,,,,2024-08-06,1,,,,,プラネット,0
1226,5030001161635,新規,0,2024-08-06,2024-08-06,株式会社広至,,株式会社,埼玉県,東松山市,大字松山１０９０－１,,11,212,3550005,,,,,,,2024-08-06,1,,,,,コウシ,0
1227,5030001161775,新規,0,2024-08-06,2024-08-06,株式会社リクライズ,,株式会社,埼玉県,草加市,柳島町５２５番地１草加スカイハイツ１２２号,,11,221,3400033,,,,,,,2024-08-06,1,,,,,リクライズ,0
1228,5030001161783,新規,0,2024-08-06,2024-08-06,株式会社朱雀輪業,,株式会社,埼玉県,熊谷市,葛和田１３９９番地２,,11,202,3600222,,,,,,,2024-08-06,1,,,,,スザクリンギョウ,0
1229,5030001161800,新規,0,2024-08-06,2024-08-06,吉田さんち株式会社,,株式会社,埼玉県,深谷市,岡２５１２番地,,11,218,3690201,,,,,,,2024-08-06,1,,,,,ヨシダサンチ,0
1235,5040001134813,新規,0,2024-08-06,2024-08-06,株式会社ｆｉｒｓｔ,,株式会社,千葉県,市川市,南大野２丁目１７番２５－１０６号,,12,203,2720804,,,,,,,2024-08-06,1,,,,,ファースト,0
1236,5040001134821,新規,0,2024-08-06,2024-08-06,株式会社渡部機工,,株式会社,千葉県,野田市,関宿台町５４５０番地１,,12,208,2700202,,,,,,,2024-08-06,1,,,,,,0
1237,5040003025572,新規,0,2024-08-06,2024-08-06,Ｋａｒｅｑｕｅｓｔ合同会社,,合同会社,千葉県,浦安市,高洲７丁目１番１－１３１６号パークシティモアナヴィラ新浦安,,12,227,2790023,,,,,,,2024-08-06,1,,,,,ケアクエスト,0
1241,5050001055174,新規,0,2024-08-06,2024-08-06,株式会社ＳＴＴ,,株式会社,茨城県,常陸大宮市,氷之沢２９０７番地,,08,225,3192513,,,,,,,2024-08-06,1,,,,,エスティーティー,0
1242,5050001055182,新規,0,2024-08-06,2024-08-06,株式会社ＳＵＮ　ＦＡＮＴＡＳＩＡ,,株式会社,茨城県,小美玉市,羽刈３８５番地７９,,08,236,3190121,,,,,,,2024-08-06,1,,,,,サンファンタジア,0
1244,5050003008584,新規,0,2024-08-06,2024-08-06,ＡＢＵＺＡＲ合同会社,,合同会社,茨城県,稲敷市,神宮寺４３９,,08,229,3000622,,,,,,,2024-08-06,1,,,,,アブザール,0
1252,5070001041965,新規,0,2024-08-06,2024-08-06,株式会社ｃａｒ　ｍｏｒｅ,,株式会社,群馬県,伊勢崎市,境美原１４番地１,,10,204,3700115,,,,,,,2024-08-06,1,,,,,カーモア,0
1253,5070001042047,新規,0,2024-08-06,2024-08-06,株式会社ＦＴＣ,,株式会社,群馬県,藤岡市,岡之郷１１０７番地,,10,209,3750011,,,,,,,2024-08-06,1,,,,,エフティーシー,0
1257,5080001026395,新規,0,2024-08-06,2024-08-06,株式会社平石油店,,株式会社,静岡県,焼津市,中港町２３６番地,,22,212,4250000,,,,,,,2024-08-06,1,,,,,タイラセキユテン,0
1258,5080001026420,新規,0,2024-08-06,2024-08-06,株式会社駿河丸康工業,,株式会社,静岡県,静岡市清水区,由比入山２００３番地の１,,22,103,4213101,,,,,,,2024-08-06,1,,,,,スルガマルヤスコウギョウ,0
1263,5080401027357,新規,0,2024-08-06,2024-08-06,株式会社ＳａＮＸ,,株式会社,静岡県,浜松市中央区,佐藤１丁目３８番２０号,,22,138,4300807,,,,,,,2024-08-06,1,,,,,サンクス,0
1267,5090001018846,新規,0,2024-08-06,2024-08-06,升恒建設株式会社,,株式会社,山梨県,南巨摩郡富士川町,小室９４１－１,,19,368,4000512,,,,,,,2024-08-06,1,,,,,ショウコウケンセツ,0
1275,5110003005468,新規,0,2024-08-06,2024-08-06,合同会社ＴＯＫＡ,,合同会社,新潟県,長岡市,美沢３丁目５５７番地,,15,202,9400856,,,,,,,2024-08-06,1,,,,,トカ,0
1285,5120001267415,新規,0,2024-08-06,2024-08-06,株式会社ｈａｒｕ,,株式会社,大阪府,大阪市阿倍野区,阪南町５丁目２２番７号,,27,119,5450021,,,,,,,2024-08-06,1,,,,,ハル,0
1286,5120001267456,新規,0,2024-08-06,2024-08-06,株式会社近畿リアルティ,,株式会社,大阪府,大阪市北区,西天満５丁目１６番１５号,,27,127,5300047,,,,,,,2024-08-06,1,,,,,キンキリアルティ,0
1287,5120001267497,新規,0,2024-08-06,2024-08-06,株式会社Ｍｅｄｉｅｘ,,株式会社,大阪府,大阪市港区,築港４丁目１０番３０－２０２号,,27,107,5520021,,,,,,,2024-08-06,1,,,,,メディクス,0
1288,5120001267522,新規,0,2024-08-06,2024-08-06,株式会社ＳＯＮＩＣ　ＦＯＲＭ,,株式会社,大阪府,大阪市淀川区,東中島１－１８－４ホワイトハイツカドタ３０７,,27,123,5320000,,,,,,,2024-08-06,1,,,,,ソニックフォーム,0
1289,5120001267530,新規,0,2024-08-06,2024-08-06,株式会社有賀産業,,株式会社,大阪府,守口市,馬場町３丁目６番１号,,27,209,5700062,,,,,,,2024-08-06,1,,,,,アリガサンギョウ,0
1290,5120001267539,新規,0,2024-08-06,2024-08-06,株式会社スウィフト,,株式会社,大阪府,大阪市東淀川区,瑞光５丁目３番３０号,,27,114,5330005,,,,,,,2024-08-06,1,,,,,スウィフト,0
1291,5120001267547,新規,0,2024-08-06,2024-08-06,Ｋａｋｕ　Ｋａｋｕ株式会社,,株式会社,大阪府,大阪市港区,市岡３丁目１３番９号藤原文化２０２Ｄ,,27,107,5520012,,,,,,,2024-08-06,1,,,,,カクカク,0
1293,5120003027239,新規,0,2024-08-06,2024-08-06,合同会社Ｍａｌａｋ,,合同会社,大阪府,大阪市北区,天神橋４丁目６番１５号ロイヤル天神橋２１２号室,,27,127,5300041,,,,,,,2024-08-06,1,,,,,マラック,0
1294,5120005024481,新規,0,2024-08-06,2024-08-06,社会保険労務士法人Ｘ‐Ｙ‐Ｚパートナークリエイト．,,その他の設立登記法人,大阪府,大阪市阿倍野区,阪南町５丁目２３－１５西田辺林ビル３０２号室,,27,119,5450021,,,,,,,2024-08-06,1,,,,,エックスワイジーパートナークリエイト,0
1298,5120101070074,新規,0,2024-08-06,2024-08-06,琉璃国際観光株式会社,,株式会社,大阪府,泉佐野市,葵町３丁目９番１４－１号,,27,213,5980014,,,,,,,2024-08-06,1,,,,,リュウリコクサイカンコウ,0
1299,5120103005986,新規,0,2024-08-06,2024-08-06,Ｅｅ‐Ｓｔｙｌｅ合同会社,,合同会社,大阪府,岸和田市,北町１２番９号５Ｆ,,27,202,5960056,,,,,,,2024-08-06,1,,,,,イースタイル,0
1305,5130001077615,新規,0,2024-08-06,2024-08-06,株式会社Ｋｏｕｓｈｏｕ,,株式会社,京都府,木津川市,木津町内垣外１３２木津藤河店舗２階,,26,214,6190217,,,,,,,2024-08-06,1,,,,,コウショウ,0
1306,5130001077623,新規,0,2024-08-06,2024-08-06,株式会社ＴＹＰＥ　ＫＹＯＴＯ,,株式会社,京都府,京都市下京区,松原通烏丸西入玉津島町２９４番地,,26,106,6008427,,,,,,,2024-08-06,1,,,,,タイプキョウト,0
1312,5140001135363,新規,0,2024-08-06,2024-08-06,株式会社Ａｇｕｒｉ,,株式会社,兵庫県,姫路市,青山西１丁目６番８号Ａ１０５,,28,201,6712224,,,,,,,2024-08-06,1,,,,,アグリ,0
1313,5140001135413,新規,0,2024-08-06,2024-08-06,株式会社ＳＰＬ,,株式会社,兵庫県,神戸市灘区,大内通６丁目２番１３号,,28,102,6570833,,,,,,,2024-08-06,1,,,,,エスピーエル,0
1316,5140003020885,新規,0,2024-08-06,2024-08-06,合同会社ＫＭ舎,,合同会社,兵庫県,姫路市,勝原区宮田３８７番地５,,28,201,6711213,,,,,,,2024-08-06,1,,,,,ケーエムシャ,0
1317,5140003020919,新規,0,2024-08-06,2024-08-06,合同会社ＩＷＡ,,合同会社,兵庫県,芦屋市,西蔵町４番８－３０４号,,28,206,6590026,,,,,,,2024-08-06,1,,,,,アイダブリューエー,0
1323,5170001018251,新規,0,2024-08-06,2024-08-06,株式会社Ｌｅｖｉ,,株式会社,和歌山県,和歌山市,有本１９６番地２,,30,201,6408390,,,,,,,2024-08-06,1,,,,,リヴァイ,0
1324,5170003002088,新規,0,2024-08-06,2024-08-06,ｓｉｔｏａ合同会社,,合同会社,和歌山県,和歌山市,伝法橋南ノ丁１１番地１－１５０２,,30,201,6408204,,,,,,,2024-08-06,1,,,,,シトア,0
1333,5180001162511,新規,0,2024-08-06,2024-08-06,株式会社ＣＯＭＥＴ,,株式会社,愛知県,名古屋市瑞穂区,彌富通３丁目９番地の１坂野マンション４０２号,,23,108,4670064,,,,,,,2024-08-06,1,,,,,コメット,0
1334,5180001162692,新規,0,2024-08-06,2024-08-06,株式会社ＤＥＳＭＯＳ,,株式会社,愛知県,名古屋市西区,牛島町６番１号名古屋ルーセントタワー４０階,,23,104,4510046,,,,,,,2024-08-06,1,,,,,デスモス,0
1335,5180001162726,新規,0,2024-08-06,2024-08-06,光クラフト株式会社,,株式会社,愛知県,一宮市,島村字南裏山４１番地２,,23,203,4910121,,,,,,,2024-08-06,1,,,,,ヒカリクラフト,0
1336,5180001162742,新規,0,2024-08-06,2024-08-06,Ｕ＆Ｃ株式会社,,株式会社,愛知県,清須市,新清洲１丁目７番地４レジデンス五条２０２,,23,233,4520943,,,,,,,2024-08-06,1,,,,,ユーアンドシー,0
1338,5180003027183,新規,0,2024-08-06,2024-08-06,合同会社キフネ,,合同会社,愛知県,春日井市,貴船町９０番地１,,23,206,4860826,,,,,,,2024-08-06,1,,,,,キフネ,0
1341,5180303006201,新規,0,2024-08-06,2024-08-06,Ｗｉｔｈ　Ｂ合同会社,,合同会社,愛知県,田原市,谷熊町谷熊下３０番地,,23,231,4413412,,,,,,,2024-08-06,1,,,,,ウィズビー,0
1349,5240001063637,新規,0,2024-08-06,2024-08-06,創心ａｒｃｈｉｔｅｃｔ株式会社,,株式会社,広島県,廿日市市,陽光台１丁目１２番地６,,34,213,7380060,,,,,,,2024-08-06,1,,,,,ソウシンアーキテクト,0
1350,5240001063645,新規,0,2024-08-06,2024-08-06,株式会社松章工業,,株式会社,広島県,尾道市,山波町２４３番地７,,34,205,7220052,,,,,,,2024-08-06,1,,,,,マツショウコウギョウ,0
1352,5260001039354,新規,0,2024-08-06,2024-08-06,日興産業株式会社,,株式会社,岡山県,井原市,笹賀町４５８番地１０,,33,207,7150025,,,,,,,2024-08-06,1,,,,,ニッコウサンギョウ,0
1353,5260003004843,新規,0,2024-08-06,2024-08-06,合同会社くろすらいふ,,合同会社,岡山県,総社市,総社２丁目７番６号,,33,208,7191126,,,,,,,2024-08-06,1,,,,,クロスライフ,0
1354,5270001009026,新規,0,2024-08-06,2024-08-06,株式会社ＮＥＸＴ　ＡＤＶＥＮＴＵＲＥ,,株式会社,鳥取県,倉吉市,上井町１丁目８番地７,,31,203,6820022,,,,,,,2024-08-06,1,,,,,ネクストアドベンチャー,0
1360,5290803004800,新規,0,2024-08-06,2024-08-06,合同会社ハイブリッジ,,合同会社,福岡県,田川郡添田町,大字落合１０６５,,40,602,8240722,,,,,,,2024-08-06,1,,,,,ハイブリッジ,0
1361,5290805009764,新規,0,2024-08-06,2024-08-06,一般社団法人猫の里北九州,,その他の設立登記法人,福岡県,北九州市小倉北区,中井５丁目１１番６号,,40,106,8030836,,,,,,,2024-08-06,1,,,,,,0
1362,5310001019128,新規,0,2024-08-06,2024-08-06,株式会社ＵＭＩＢＯＷｓ,,株式会社,長崎県,対馬市,上県町佐須奈乙１８３８番地１１,,42,209,8171602,,,,,,,2024-08-06,1,,,,,ウミボウズ,0
1364,5320001020638,新規,0,2024-08-06,2024-08-06,クラサスケミカル株式会社,,株式会社,大分県,大分市,大字中ノ洲２番地,,44,201,8700111,,,,,,,2024-08-06,1,,,,,クラサスケミカル,0
1366,5320003004440,新規,0,2024-08-06,2024-08-06,ＴＡＢＩＤＯＫＵ合同会社,,合同会社,大分県,佐伯市,直川大字上直見３８７３番地,,44,205,8793102,,,,,,,2024-08-06,1,,,,,タビドーク,0
1367,5330001032319,新規,0,2024-08-06,2024-08-06,株式会社風太運送,,株式会社,熊本県,熊本市中央区,本山１丁目８番１７号,,43,101,8600821,,,,,,,2024-08-06,1,,,,,フウタウンソウ,0
1371,5340003004562,新規,0,2024-08-06,2024-08-06,吉直商会合同会社,,合同会社,鹿児島県,鹿屋市,川西町３９３０番地,,46,203,8930032,,,,,,,2024-08-06,1,,,,,ヨシナオショウカイ,0
1373,5350001019124,新規,0,2024-08-06,2024-08-06,株式会社大仁志配管総業,,株式会社,宮崎県,宮崎市,阿波岐原町竹割２０７０番地,,45,201,8800835,,,,,,,2024-08-06,1,,,,,オオニシハイカンソウギョウ,0
1377,5360001034048,新規,0,2024-08-06,2024-08-06,株式会社ケアサポ,,株式会社,沖縄県,宮古島市,平良字下里１１０５－７,,47,214,9060013,,,,,,,2024-08-06,1,,,,,ケアサポ,0
1385,5370001051612,新規,0,2024-08-06,2024-08-06,株式会社ＦＩＲＳＴ,,株式会社,宮城県,仙台市宮城野区,鶴ケ谷７丁目３３番地の１１－２０２,,04,102,9830824,,,,,,,2024-08-06,1,,,,,ファースト,0
1391,5380001034707,新規,0,2024-08-06,2024-08-06,ＬｅａｄｅｒＸ株式会社,,株式会社,福島県,いわき市,四倉町字芳ノ沢１番地の２７,,07,204,9790201,,,,,,,2024-08-06,1,,,,,リーダックス,0
1392,5380001034715,新規,0,2024-08-06,2024-08-06,ガラパゴス株式会社,,株式会社,福島県,郡山市,桑野３丁目１２番４０号,,07,203,9638025,,,,,,,2024-08-06,1,,,,,ガラパゴス,0
1400,5420003002970,新規,0,2024-08-06,2024-08-06,合同会社ウィークエンド,,合同会社,青森県,弘前市,大字大町１丁目１７－３２,,02,202,0368004,,,,,,,2024-08-06,1,,,,,ウィークエンド,0
1408,5430001092393,新規,0,2024-08-06,2024-08-06,飛鳥エステート株式会社,,株式会社,北海道,千歳市,新富２丁目８番１３号,,01,224,0660037,,,,,,,2024-08-06,1,,,,,アスカエステート,0
1409,5430001092410,新規,0,2024-08-06,2024-08-06,株式会社Ｔｈｅ　Ｇｕａｒｄｉａｎｓ,,株式会社,北海道,石狩郡当別町,獅子内２２２７番地１５５,,01,303,0613772,,,,,,,2024-08-06,1,,,,,ザガーディアンズ,0
1410,5430001092419,新規,0,2024-08-06,2024-08-06,株式会社柴田管工,,株式会社,北海道,苫小牧市,明徳町３丁目８番５号,,01,213,0591273,,,,,,,2024-08-06,1,,,,,シバタカンコウ,0
1411,5430001092427,新規,0,2024-08-06,2024-08-06,株式会社東雲,,株式会社,北海道,札幌市中央区,南一条西２２丁目２番１５号シーズンビル２階,,01,101,0640801,,,,,,,2024-08-06,1,,,,,シノノメ,0
1418,5430005015045,新規,0,2024-08-06,2024-08-06,弁護士法人ＳＡＮＥ法律事務所,,その他の設立登記法人,北海道,札幌市中央区,南三条西１２丁目３２５番９号ＳＡＫＵＲＡ－Ｗ１２　Ａ室,,01,101,0600063,,,,,,,2024-08-06,1,,,,,サネホウリツジムショ,0
1420,5450001014379,新規,0,2024-08-06,2024-08-06,株式会社Ｌｅｌｉａｓ,,株式会社,北海道,旭川市,永山四条７丁目１番１６号,,01,204,0798414,,,,,,,2024-08-06,1,,,,,ルリアス,0
1424,5500001025791,新規,0,2024-08-06,2024-08-06,ｅ‐ＫＣ配達株式会社,,株式会社,愛媛県,松山市,余戸南５丁目４番地１号,,38,201,7900047,,,,,,,2024-08-06,1,,,,,イーケーシーハイタツ,0
1425,5500001025800,新規,0,2024-08-06,2024-08-06,ｃａｓｔｌｅｆａｃｔｏｒｙ株式会社,,株式会社,愛媛県,松山市,本町３丁目１番地６,,38,201,7900811,,,,,,,2024-08-06,1,,,,,キャッスルファクトリー,0
1431,6010001247006,新規,0,2024-08-06,2024-08-06,株式会社大森商店,,株式会社,東京都,中央区,日本橋室町１丁目８番８号,,13,102,1030022,,,,,,,2024-08-06,1,,,,,オオモリショウテン,0
1432,6010001247030,新規,0,2024-08-06,2024-08-06,株式会社グローバルデンタルパートナーズ,,株式会社,東京都,中央区,日本橋室町１丁目１３番７号,,13,102,1030022,,,,,,,2024-08-06,1,,,,,グローバルデンタルパートナーズ,0
1433,6010001247187,新規,0,2024-08-06,2024-08-06,株式会社ＳＴＥＬＡＱ,,株式会社,東京都,千代田区,三番町６番３号,,13,101,1020075,,,,,,,2024-08-06,1,,,,,ステラック,0
1434,6010001247229,新規,0,2024-08-06,2024-08-06,犬猫王国株式会社,,株式会社,東京都,中央区,銀座６丁目１０番１号ＧＩＮＺＡＳＩＸ１３Ｆ,,13,102,1040061,,,,,,,2024-08-06,1,,,,,イヌネコオウコク,0
1444,6010005038640,新規,0,2024-08-06,2024-08-06,一般社団法人ＩＳＴレジデンス５,,その他の設立登記法人,東京都,千代田区,丸の内１丁目４番１号東京共同会計事務所内,,13,101,1000005,,,,,,,2024-08-06,1,,,,,アイエスティレジデンスファイブ,0
1457,6010501052665,新規,0,2024-08-06,2024-08-06,明華株式会社,,株式会社,東京都,台東区,浅草橋５丁目１番３１－３０４号,,13,106,1110053,,,,,,,2024-08-06,1,,,,,ハルカ,0
1458,6010503007535,新規,0,2024-08-06,2024-08-06,オフィス木村合同会社,,合同会社,東京都,台東区,下谷２丁目２２番４号,,13,106,1100004,,,,,,,2024-08-06,1,,,,,オフィスキムラ,0
1460,6010701046368,新規,0,2024-08-06,2024-08-06,株式会社ＣＡＳＴＥＲ,,株式会社,東京都,品川区,東五反田５丁目２２番３８号第二山崎ビル３階,,13,109,1410022,,,,,,,2024-08-06,1,,,,,キャスター,0
1461,6010701046376,新規,0,2024-08-06,2024-08-06,株式会社Ｍｅｓｕｔ,,株式会社,東京都,品川区,西五反田３丁目４－１０－１７０８,,13,109,1410031,,,,,,,2024-08-06,1,,,,,メスト,0
1462,6010703007293,新規,0,2024-08-06,2024-08-06,ＬＹＨ　Ｍｅｄｉｃａｌ　Ｊａｐａｎ合同会社,,合同会社,東京都,品川区,大井３丁目１８番１５－１１０６号,,13,109,1400014,,,,,,,2024-08-06,1,,,,,エルワイエイチメディカルジャパン,0
1463,6010705003662,新規,0,2024-08-06,2024-08-06,Ｍ＆Ｉ税理士法人,,その他の設立登記法人,東京都,品川区,西大井２丁目１４番２８号,,13,109,1400015,,,,,,,2024-08-06,1,,,,,エムアンドアイ,0
1464,6010801035295,新規,0,2024-08-06,2024-08-06,株式会社ソレイユ,,株式会社,東京都,大田区,西蒲田７丁目４－４－６Ｆ,,13,111,1440051,,,,,,,2024-08-06,1,,,,,ソレイユ,0
1465,6010801035304,新規,0,2024-08-06,2024-08-06,株式会社エヌセキュア,,株式会社,東京都,大田区,中央１丁目１６番８－６１７号,,13,111,1430024,,,,,,,2024-08-06,1,,,,,エヌセキュア,0
1467,6010903009239,新規,0,2024-08-06,2024-08-06,合同会社ＫＭＲ,,合同会社,東京都,世田谷区,成城２丁目３５番１１号成城ホームズ１階,,13,112,1570066,,,,,,,2024-08-06,1,,,,,ケーエムアール,0
1474,6011001163606,新規,0,2024-08-06,2024-08-06,株式会社青と緑,,株式会社,東京都,目黒区,目黒本町３丁目６番７号,,13,110,1520002,,,,,,,2024-08-06,1,,,,,アオトミドリ,0
1483,6011503006171,新規,0,2024-08-06,2024-08-06,ＹＡＷ　ＭＹＡＮＭＡＲ合同会社,,合同会社,東京都,北区,中里２丁目１６番１６号ウエストパークビル１０２号,,13,117,1140015,,,,,,,2024-08-06,1,,,,,ヨーミャンマー,0
1484,6011701027515,新規,0,2024-08-06,2024-08-06,株式会社ＫＩｉ,,株式会社,東京都,江戸川区,西葛西６丁目１３番１４号丸清ビル１階,,13,123,1340088,,,,,,,2024-08-06,1,,,,,キイ,0
1486,6011703003927,新規,0,2024-08-06,2024-08-06,合同会社ベルキ,,合同会社,東京都,江戸川区,東葛西４丁目３７－７－５１２,,13,123,1340084,,,,,,,2024-08-06,1,,,,,ベルキ,0
1487,6012301014036,新規,0,2024-08-06,2024-08-06,株式会社ｕｎｉｑｕｅ,,株式会社,東京都,町田市,原町田４丁目９番１６号,,13,209,1940013,,,,,,,2024-08-06,1,,,,,ユニーク,0
1488,6012303002030,新規,0,2024-08-06,2024-08-06,合同会社ＫＭオフィス坂元,,合同会社,東京都,町田市,小川４丁目１０－４,,13,209,1940003,,,,,,,2024-08-06,1,,,,,ケーエムオフィスサカモト,0
1490,6012701018388,新規,0,2024-08-06,2024-08-06,楽和株式会社,,株式会社,東京都,西東京市,南町２丁目２２番１１号ゆりフラット２０２号,,13,229,1880012,,,,,,,2024-08-06,1,,,,,ラクワ,0
1491,6012703003058,新規,0,2024-08-06,2024-08-06,合同会社ｓｏｗａｋａ,,合同会社,東京都,西東京市,柳沢３丁目４番７－３０４号,,13,229,2020022,,,,,,,2024-08-06,1,,,,,ソワカ,0
1495,6013301052950,新規,0,2024-08-06,2024-08-06,株式会社マイチーム,,株式会社,東京都,豊島区,高松２丁目１４番２９号－１０,,13,116,1710042,,,,,,,2024-08-06,1,,,,,マイチーム,0
1502,6020001158350,新規,0,2024-08-06,2024-08-06,株式会社プランドウ,,株式会社,神奈川県,川崎市麻生区,細山６丁目１番２３号,,14,137,2150001,,,,,,,2024-08-06,1,,,,,プランドウ,0
1503,6020001158359,新規,0,2024-08-06,2024-08-06,株式会社セリオン,,株式会社,神奈川県,川崎市川崎区,小田７丁目２番１号,,14,131,2100846,,,,,,,2024-08-06,1,,,,,セリオン,0
1504,6020001158375,新規,0,2024-08-06,2024-08-06,株式会社ロータス,,株式会社,神奈川県,横浜市西区,浅間町１丁目７番１号ＢＩＺｃｏｍｆｏｒｔ横浜西口２５号室,,14,103,2200072,,,,,,,2024-08-06,1,,,,,ロータス,0
1510,6020003026588,新規,0,2024-08-06,2024-08-06,伝承合同会社,,合同会社,神奈川県,横浜市中区,野毛町３丁目１１７番地１Ｒｉｓｉｎｇｐｌａｃｅ桜木町二番館７０８号室,,14,104,2310064,,,,,,,2024-08-06,1,,,,,デンショウ,0
1511,6020005016496,新規,0,2024-08-06,2024-08-06,一般社団法人Ｍｉｒａｉｅｒ,,その他の設立登記法人,神奈川県,横浜市鶴見区,馬場３丁目１８番３号,,14,101,2300076,,,,,,,2024-08-06,1,,,,,ミライア,0
1513,6021001082912,新規,0,2024-08-06,2024-08-06,株式会社ゴールデンリーフジャパン,,株式会社,神奈川県,逗子市,沼間２丁目１１番１１号,,14,208,2490004,,,,,,,2024-08-06,1,,,,,ゴールデンリーフジャパン,0
1514,6021001082929,新規,0,2024-08-06,2024-08-06,株式会社ｓｍｉｌｅ‐ｐｏｒｔ,,株式会社,神奈川県,相模原市中央区,田名１９０３番地２０ライル相模原Ａ棟１０６,,14,152,2520244,,,,,,,2024-08-06,1,,,,,スマイルサポート,0
1521,6030001161766,新規,0,2024-08-06,2024-08-06,株式会社ＴＩＳ,,株式会社,埼玉県,新座市,東北２丁目３７番１０号高野ビル６０１号室,,11,230,3520001,,,,,,,2024-08-06,1,,,,,ティーアイエス,0
1522,6030001161790,新規,0,2024-08-06,2024-08-06,ＥＳ　Ｃｏｒｐｏｒａｔｉｏｎ株式会社,,株式会社,埼玉県,八潮市,大字南後谷３４５番地１号１００６,,11,234,3400831,,,,,,,2024-08-06,1,,,,,イーエスコーポレーション,0
1523,6030001161808,新規,0,2024-08-06,2024-08-06,株式会社楽暢観光,,株式会社,埼玉県,三郷市,彦糸１丁目８９番地１２,,11,237,3410001,,,,,,,2024-08-06,1,,,,,ラクヨウカンコウ,0
1526,6030005021792,新規,0,2024-08-06,2024-08-06,一般社団法人悠のいほり,,その他の設立登記法人,埼玉県,秩父郡皆野町,大字三沢４１７０番地２,,11,362,3691411,,,,,,,2024-08-06,1,,,,,ユウノイオリ,0
1529,6040001134812,新規,0,2024-08-06,2024-08-06,株式会社Ｒｅｖｉｖｅ　ｐａｉｎｔ,,株式会社,千葉県,船橋市,二和西６丁目９番１５号,,12,204,2740806,,,,,,,2024-08-06,1,,,,,リバイブペイント,0
1530,6040003025480,新規,0,2024-08-06,2024-08-06,合同会社パラソル,,合同会社,千葉県,船橋市,南三咲１丁目２８－３２,,12,204,2740813,,,,,,,2024-08-06,1,,,,,パラソル,0
1533,6050001055173,新規,0,2024-08-06,2024-08-06,株式会社ＭＯＡ,,株式会社,茨城県,水戸市,泉町３丁目５番３号二番街ビル１階,,08,201,3100026,,,,,,,2024-08-06,1,,,,,モア,0
1536,6050003008591,新規,0,2024-08-06,2024-08-06,合同会社ＬＩＬ,,合同会社,茨城県,水戸市,平須町５８７番地の３０,,08,201,3100853,,,,,,,2024-08-06,1,,,,,リル,0
1541,6060001037369,新規,0,2024-08-06,2024-08-06,株式会社なみきみち,,株式会社,栃木県,芳賀郡芳賀町,大字稲毛田７０１番地８,,09,345,3213303,,,,,,,2024-08-06,1,,,,,ナミキミチ,0
1544,6060003005183,新規,0,2024-08-06,2024-08-06,合同会社１００かりん,,合同会社,栃木県,宇都宮市,下岡本町４５４３番地１１,,09,201,3291104,,,,,,,2024-08-06,1,,,,,ヒャクカリン,0
1545,6070001042046,新規,0,2024-08-06,2024-08-06,にゃんクリーニング株式会社,,株式会社,群馬県,高崎市,鼻高町５１番地２３,,10,202,3700868,,,,,,,2024-08-06,1,,,,,ニャンクリーニング,0
1546,6070001042054,新規,0,2024-08-06,2024-08-06,株式会社Ｈｕｎｄｒｅｄ,,株式会社,群馬県,前橋市,後閑町６９５番地１,,10,201,3710813,,,,,,,2024-08-06,1,,,,,ハンドレッド,0
1549,6080001026411,新規,0,2024-08-06,2024-08-06,株式会社ＷＡＫｏｔｔｏ　Ｐｌａｎｎｉｎｇ,,株式会社,静岡県,藤枝市,高洲１丁目２－８,,22,214,4260046,,,,,,,2024-08-06,1,,,,,ワコットプランニング,0
1551,6080101024926,新規,0,2024-08-06,2024-08-06,Ｒｉｚ株式会社,,株式会社,静岡県,富士宮市,小泉７１８－５,,22,207,4180022,,,,,,,2024-08-06,1,,,,,リズ,0
1552,6080101024942,新規,0,2024-08-06,2024-08-06,株式会社Ｍ＆Ｙ,,株式会社,静岡県,沼津市,岡宮８６７番地の１－２０１,,22,203,4100011,,,,,,,2024-08-06,1,,,,,エムアンドワイ,0
1557,6080403005070,新規,0,2024-08-06,2024-08-06,合同会社ＴＥＴＵＲＯ,,合同会社,静岡県,浜松市中央区,大瀬町１５７６番地,,22,138,4313113,,,,,,,2024-08-06,1,,,,,テツロ,0
1559,6090001018853,新規,0,2024-08-06,2024-08-06,株式会社康友クリーンサービス,,株式会社,山梨県,南アルプス市,曲輪田２８８１番地,,19,208,4000311,,,,,,,2024-08-06,1,,,,,コウユウクリーンサービス,0
1561,6100001037703,新規,0,2024-08-06,2024-08-06,株式会社ハウスリメイク,,株式会社,長野県,松本市,大字里山辺３４１１番地９ロビイプライズＤ１０１,,20,202,3900221,,,,,,,2024-08-06,1,,,,,ハウスリメイク,0
1562,6100003007687,新規,0,2024-08-06,2024-08-06,合同会社シュベルノヴァ,,合同会社,長野県,北安曇郡白馬村,大字北城２９１８番地１,,20,485,3999301,,,,,,,2024-08-06,1,,,,,シュベルノヴァ,0
1566,6110001038634,新規,0,2024-08-06,2024-08-06,株式会社青空機械,,株式会社,新潟県,新潟市東区,中山４丁目４番１３号３,,15,102,9500861,,,,,,,2024-08-06,1,,,,,アオゾラキカイ,0
1582,6120001267232,新規,0,2024-08-06,2024-08-06,永安株式会社,,株式会社,大阪府,大阪市西成区,花園北１丁目６－１５－１０１,,27,122,5570016,,,,,,,2024-08-06,1,,,,,エイアン,0
1583,6120001267496,新規,0,2024-08-06,2024-08-06,株式会社ＮＡＩ,,株式会社,大阪府,大阪市西区,南堀江３丁目９－２８－７０１,,27,106,5500015,,,,,,,2024-08-06,1,,,,,エヌエーアイ,0
1584,6120001267521,新規,0,2024-08-06,2024-08-06,株式会社ウェルハート,,株式会社,大阪府,大阪市阿倍野区,帝塚山１丁目１１番８－５０２号,00135836,27,119,5450037,,,,,,,2024-08-06,1,,,,,ウェルハート,0
1585,6120001267554,新規,0,2024-08-06,2024-08-06,雅高ジャパン株式会社,,株式会社,大阪府,大阪市住吉区,長居２丁目３番１９号コーポコナカ３０３号室,,27,120,5580003,,,,,,,2024-08-06,1,,,,,ガコウジャパン,0
1588,6120003027221,新規,0,2024-08-06,2024-08-06,合同会社エスケー,,合同会社,大阪府,大阪市淀川区,田川３丁目４番１５－４０１,,27,123,5320027,,,,,,,2024-08-06,1,,,,,エスケー,0
1591,6120101070098,新規,0,2024-08-06,2024-08-06,ポース株式会社,,株式会社,大阪府,堺市堺区,海山町２丁１２７番地１,,27,141,5900982,,,,,,,2024-08-06,1,,,,,ポース,0
1592,6120103005985,新規,0,2024-08-06,2024-08-06,合同会社ＭＩＹＡＢＩ興業,,合同会社,大阪府,河内長野市,旭ケ丘３６番１８号,,27,216,5860084,,,,,,,2024-08-06,1,,,,,ミヤビコウギョウ,0
1595,6122001038332,新規,0,2024-08-06,2024-08-06,株式会社ＧＩＳ,,株式会社,大阪府,東大阪市,横枕西２番１０号,,27,227,5780956,,,,,,,2024-08-06,1,,,,,ジーアイエス,0
1596,6122003002955,新規,0,2024-08-06,2024-08-06,合同会社ＳＯ１６,,合同会社,大阪府,東大阪市,小若江３丁目６番９号近畿大学ＫＩＮＣＵＢＡＢａｓｅｃａｍｐ,,27,227,5770818,,,,,,,2024-08-06,1,,,,,エスオーイチロク,0
1602,6130001077614,新規,0,2024-08-06,2024-08-06,株式会社かめ,,株式会社,京都府,京都市山科区,東野八反畑町５８番地１１ラヴィータ５０３号室,,26,110,6078145,,,,,,,2024-08-06,1,,,,,カメ,0
1603,6130001077622,新規,0,2024-08-06,2024-08-06,株式会社えがおのれんさ,,株式会社,京都府,京都市下京区,綾小路通堀川西入妙満寺町５８０番地４,,26,106,6008392,,,,,,,2024-08-06,1,,,,,エガオノレンサ,0
1614,6140003020918,新規,0,2024-08-06,2024-08-06,Ｆｌｙ　ｔｏ　ｔｈｅ　ｆｕｔｕｒｅ合同会社,,合同会社,兵庫県,姫路市,岡田４２３番地,,28,201,6700982,,,,,,,2024-08-06,1,,,,,フライトゥーザフューチャー,0
1618,6150001027476,新規,0,2024-08-06,2024-08-06,株式会社ナンデヤ,,株式会社,奈良県,奈良市,三条町４９７番地の１冨川ビル３階南側,,29,201,6308244,,,,,,,2024-08-06,1,,,,,ナンデヤ,0
1622,6170003002079,新規,0,2024-08-06,2024-08-06,ミカド合同会社,,合同会社,和歌山県,和歌山市,直川１８５６番地,,30,201,6408481,,,,,,,2024-08-06,1,,,,,ミカド,0
1628,6180001162642,新規,0,2024-08-06,2024-08-06,株式会社Ｎｅｏ,,株式会社,愛知県,名古屋市中川区,富田町大字千音寺字市場下屋敷３８８２番地,,23,110,4540971,,,,,,,2024-08-06,1,,,,,ネオ,0
1630,6180003027182,新規,0,2024-08-06,2024-08-06,合同会社ＦＬＡＧｓ,,合同会社,愛知県,名古屋市中村区,名駅３丁目４―１０アルティメイト名駅１ｓｔ２階,,23,105,4500002,,,,,,,2024-08-06,1,,,,,フラッグス,0
1631,6180003027190,新規,0,2024-08-06,2024-08-06,合同会社ＢＧ＆Ｍ,,合同会社,愛知県,名古屋市守山区,元郷２丁目３１５番地プリマベーラＩＩ１０３,00135828,23,113,4630025,,,,,,,2024-08-06,1,,,,,ビージーアンドエム,0
1632,6180005020714,新規,0,2024-08-06,2024-08-06,特定非営利活動法人あおぞら支援,,その他の設立登記法人,愛知県,名古屋市昭和区,花見通２丁目１８番地,,23,107,4660831,,,,,,,2024-08-06,1,,,,,アオゾラシエン,0
1636,6190001031532,新規,0,2024-08-06,2024-08-06,株式会社ＹＯＳＩＮＯ,,株式会社,三重県,名張市,下比奈知２０９４番地２,,24,208,5180413,,,,,,,2024-08-06,1,,,,,ヨシノ,0
1637,6190001031549,新規,0,2024-08-06,2024-08-06,株式会社ＪＳＲエフテック,,株式会社,三重県,四日市市,大治田１丁目６番１６号,,24,202,5100875,,,,,,,2024-08-06,1,,,,,ジェイエスアールエフテック,0
1638,6190003004759,新規,0,2024-08-06,2024-08-06,Ｒｕｋｕ合同会社,,合同会社,三重県,四日市市,あかつき台１丁目３番地２０,,24,202,5128046,,,,,,,2024-08-06,1,,,,,ルーク,0
1640,6200001042800,新規,0,2024-08-06,2024-08-06,株式会社月渓翠,,株式会社,岐阜県,岐阜市,加納南陽町２丁目３０番地レジデンス南陽１０１,,21,201,5008276,,,,,,,2024-08-06,1,,,,,ゲッケイジュ,0
1644,6220001026149,新規,0,2024-08-06,2024-08-06,株式会社ＣＲＥＥＲ,,株式会社,石川県,河北郡津幡町,井上の荘４丁目３５番地,,17,361,9290335,,,,,,,2024-08-06,1,,,,,クレエ,0
1651,6240001063660,新規,0,2024-08-06,2024-08-06,Ｗｉｔｈ優株式会社,,株式会社,広島県,広島市西区,南観音３丁目１１番６号,,34,104,7330035,,,,,,,2024-08-06,1,,,,,ウィズユウ,0
1655,6240003006790,新規,0,2024-08-06,2024-08-06,合同会社ＣＡＬＭＡ,,合同会社,広島県,広島市安芸区,中野３丁目３番１１－３１３号,,34,107,7390321,,,,,,,2024-08-06,1,,,,,カルマ,0
1660,6260001039337,新規,0,2024-08-06,2024-08-06,株式会社ビーナビ,,株式会社,岡山県,岡山市北区,中仙道２丁目５‐１５,,33,101,7000964,,,,,,,2024-08-06,1,,,,,ビーナビ,0
1661,6260001039345,新規,0,2024-08-06,2024-08-06,株式会社奥川ファーム,,株式会社,岡山県,岡山市東区,金田４２０番地,,33,103,7048196,,,,,,,2024-08-06,1,,,,,オクガワファーム,0
1667,6290001106803,新規,0,2024-08-06,2024-08-06,株式会社ＴＥＡＭ　ＣＯＮＱＵＥＲ,,株式会社,福岡県,福岡市中央区,赤坂１丁目８番２３号,,40,133,8100042,,,,,,,2024-08-06,1,,,,,チームコンカー,0
1671,6300001013865,新規,0,2024-08-06,2024-08-06,株式会社ｈｏｐｅ　ｌｉｇｈｔ,,株式会社,佐賀県,西松浦郡有田町,泉山２丁目３７８番地１,,41,401,8440001,,,,,,,2024-08-06,1,,,,,ホープライト,0
1676,6340001026698,新規,0,2024-08-06,2024-08-06,株式会社ニシダビークル,,株式会社,鹿児島県,大島郡龍郷町,中勝４３４番地１,,46,527,8940106,,,,,,,2024-08-06,1,,,,,ニシダビークル,0
1677,6340001026707,新規,0,2024-08-06,2024-08-06,株式会社湯淺左官工業,,株式会社,鹿児島県,志布志市,有明町原田２１１４番地２,,46,221,8997511,,,,,,,2024-08-06,1,,,,,ユアササカンコウギョウ,0
1680,6350001019131,新規,0,2024-08-06,2024-08-06,株式会社中村,,株式会社,宮崎県,西諸県郡高原町,大字西麓１３０１番地１,,45,361,8894412,,,,,,,2024-08-06,1,,,,,ナカムラ,0
1683,6360001034047,新規,0,2024-08-06,2024-08-06,株式会社オギドウ薬局,,株式会社,沖縄県,那覇市,辻２丁目１２番１６号２階,00135832,47,201,9000037,,,,,,,2024-08-06,1,,,,,オギドウヤッキョク,0
1685,6360003014204,新規,0,2024-08-06,2024-08-06,合同会社宮古島電気管理,,合同会社,沖縄県,宮古島市,平良字東仲宗根４３番地２,,47,214,9060007,,,,,,,2024-08-06,1,,,,,ミヤコジマデンキカンリ,0
1686,6370001051611,新規,0,2024-08-06,2024-08-06,株式会社ｒｏｏｍｓ,,株式会社,宮城県,仙台市青葉区,堤通雨宮町１番６７－１３１４号,,04,101,9810914,,,,,,,2024-08-06,1,,,,,ルームス,0
1687,6370001051628,新規,0,2024-08-06,2024-08-06,株式会社ＨＡＫＯＢＵ,,株式会社,宮城県,仙台市若林区,遠見塚２丁目３０－１１－７号,,04,103,9840823,,,,,,,2024-08-06,1,,,,,ハコブ,0
1689,6380001034714,新規,0,2024-08-06,2024-08-06,いわき養蜂株式会社,,株式会社,福島県,いわき市,四倉町字東一丁目６８番地の１１,,07,204,9790201,,,,,,,2024-08-06,1,,,,,イワキヨウホウ,0
1690,6380003005837,新規,0,2024-08-06,2024-08-06,合同会社アークスフィア,,合同会社,福島県,福島市,松木町２番２号,,07,201,9608018,,,,,,,2024-08-06,1,,,,,アークスフィア,0
1694,6410001013904,新規,0,2024-08-06,2024-08-06,株式会社ＥＮＤＡ　ＨＯＭＥ,,株式会社,秋田県,湯沢市,小野字飯塚８２番地,,05,207,0190205,,,,,,,2024-08-06,1,,,,,エンダホーム,0
1703,6430001092401,新規,0,2024-08-06,2024-08-06,株式会社Ｃｏｔａｎ,,株式会社,北海道,札幌市豊平区,美園六条６丁目３番１５号アイルＶＩＰ,,01,105,0620006,,,,,,,2024-08-06,1,,,,,コタン,0
1705,6430003016564,新規,0,2024-08-06,2024-08-06,コアラ岩内合同会社,,合同会社,北海道,岩内郡岩内町,字野束２５８番地３２０,,01,402,0450024,,,,,,,2024-08-06,1,,,,,コアライワナイ,0
1706,6430003016655,新規,0,2024-08-06,2024-08-06,合同会社ドリームヒルズ,,合同会社,北海道,石狩郡当別町,スウェーデンヒルズＥ５－２－２,,01,303,0613777,,,,,,,2024-08-06,1,,,,,ドリームヒルズ,0
1707,6430003016663,新規,0,2024-08-06,2024-08-06,合同会社じばつ林家ＫＵＤＯ,,合同会社,北海道,幌泉郡えりも町,字目黒１０１番地の４,,01,609,0580422,,,,,,,2024-08-06,1,,,,,ジバツリンカクドウ,0
1708,6440001009478,新規,0,2024-08-06,2024-08-06,さかならいふ株式会社,,株式会社,北海道,函館市,豊川町２７番６号市場内２Ｆ,,01,202,0400065,,,,,,,2024-08-06,1,,,,,,0
1712,6460301005241,新規,0,2024-08-06,2024-08-06,株式会社ＧＵＬＦ　ＪＡＰＡＮ　ＵＳＥＤ　ＣＡＲ　ＡＵＴＯ　ＰＡＲＴＳ．ＴＲ,,株式会社,北海道,北見市,留辺蘂町元町４３番地１,,01,208,0910001,,,,,,,2024-08-06,1,,,,,ガルフジャパンユーストゥカーオートパーツティーアール,0
1713,6470003002692,新規,0,2024-08-06,2024-08-06,合同会社イベプラネットハーツ,,合同会社,香川県,高松市,中野町２９番５号高松プラザビル４Ｆ－４２４,,37,201,7600008,,,,,,,2024-08-06,1,,,,,イベプラネットハーツ,0
1717,6500001025799,新規,0,2024-08-06,2024-08-06,株式会社ｈｅｒｉｔａｇｅ,,株式会社,愛媛県,松山市,歩行町２丁目４番地サンシャイン松山１０１号,,38,201,7900801,,,,,,,2024-08-06,1,,,,,ヘリテージ,0
1718,6500001025808,新規,0,2024-08-06,2024-08-06,株式会社海月,,株式会社,愛媛県,宇和島市,吉田町立間２－１００５－１,,38,203,7993730,,,,,,,2024-08-06,1,,,,,ミズキ,0
1723,7010001247153,新規,0,2024-08-06,2024-08-06,株式会社エイチフォース,,株式会社,東京都,中央区,晴海５丁目６番５－１４０５号,,13,102,1040053,,,,,,,2024-08-06,1,,,,,エイチフォース,0
1724,7010001247194,新規,0,2024-08-06,2024-08-06,株式会社Ｃａｖａｇｎａ　Ｇｒｏｕｐ　Ｊａｐａｎ,,株式会社,東京都,中央区,新富１丁目１５番３号新富ミハマビル４階ジパング,,13,102,1040041,,,,,,,2024-08-06,1,,,,,カヴァーニャグループジャパン,0
1725,7010001247211,新規,0,2024-08-06,2024-08-06,株式会社ＰＣ,,株式会社,東京都,中央区,晴海３丁目１３番１－２４０４号,,13,102,1040053,,,,,,,2024-08-06,1,,,,,ピーシー,0
1731,7010003044516,新規,0,2024-08-06,2024-08-06,稲庭プロパティ・マネジメント合同会社,,合同会社,東京都,千代田区,永田町２丁目１１番１号山王パークタワー２１階,,13,101,1000014,,,,,,,2024-08-06,1,,,,,イナニワプロパティマネジメント,0
1735,7010101016268,新規,0,2024-08-06,2024-08-06,株式会社ＨＣ,,株式会社,東京都,八王子市,横山町９番１５号８０８ビル４Ｆ,,13,201,1920081,,,,,,,2024-08-06,1,,,,,エイチシー,0
1745,7010401184120,新規,0,2024-08-06,2024-08-06,宇和子株式会社,,株式会社,東京都,港区,六本木４丁目８番７号六本木嶋田ビル５階Ｂ５室,,13,103,1060032,,,,,,,2024-08-06,1,,,,,ウワコ,0
1749,7010601065698,新規,0,2024-08-06,2024-08-06,株式会社ｋｕｒｏｇｏ　ｗｏｒｋｓ,,株式会社,東京都,墨田区,江東橋５丁目７－５サンクタス錦糸町クレフ４０４,,13,107,1300022,,,,,,,2024-08-06,1,,,,,クロゴワークス,0
1751,7010701046350,新規,0,2024-08-06,2024-08-06,株式会社ＨＡＲＵ,,株式会社,東京都,品川区,東五反田２丁目１０番１号パークタワーグランスカイ２９１６室,,13,109,1410022,,,,,,,2024-08-06,1,,,,,ハル,0
1752,7010705003661,新規,0,2024-08-06,2024-08-06,一般社団法人全国年収協会,,その他の設立登記法人,東京都,品川区,西五反田１丁目２６番２号五反田サンハイツビル内,,13,109,1410031,,,,,,,2024-08-06,1,,,,,ゼンコクネンシュウキョウカイ,0
1754,7010801035303,新規,0,2024-08-06,2024-08-06,株式会社ＵＭＩＮｅＣｏ,,株式会社,東京都,大田区,羽田１丁目１９番１７号－１Ｆ,,13,111,1440043,,,,,,,2024-08-06,1,,,,,ウミネコ,0
1757,7010805003124,新規,0,2024-08-06,2024-08-06,レベルアップ社会保険労務士法人,,その他の設立登記法人,東京都,大田区,大森西７丁目５番１３号三常ビル２Ｆ,,13,111,1430015,,,,,,,2024-08-06,1,,,,,レベルアップ,0
1758,7010901055746,新規,0,2024-08-06,2024-08-06,株式会社ｉｎ　ｔｏ,,株式会社,東京都,世田谷区,用賀４丁目１３番１１号日興パレス用賀２階,,13,112,1580097,,,,,,,2024-08-06,1,,,,,イントゥー,0
1759,7010901055754,新規,0,2024-08-06,2024-08-06,株式会社Ｍｏｎ　Ｏｍｂｒｅ,,株式会社,東京都,世田谷区,池尻４丁目８－１－４１７,,13,112,1540001,,,,,,,2024-08-06,1,,,,,モンオンブル,0
1760,7010901055762,新規,0,2024-08-06,2024-08-06,株式会社シマダ,,株式会社,東京都,世田谷区,奥沢２丁目１７－３ベルハイム自由が丘１０１,,13,112,1580083,,,,,,,2024-08-06,1,,,,,シマダ,0
1762,7010903009254,新規,0,2024-08-06,2024-08-06,ＲＥＩＣＳ合同会社,,合同会社,東京都,世田谷区,太子堂３丁目２７－３３－２０３,,13,112,1540004,,,,,,,2024-08-06,1,,,,,レイクス,0
1767,7011001163679,新規,0,2024-08-06,2024-08-06,株式会社土の道,,株式会社,東京都,目黒区,目黒１丁目９番４－４０２号オーベル目黒,,13,110,1530063,,,,,,,2024-08-06,1,,,,,ツチノミチ,0
1782,7011601027952,新規,0,2024-08-06,2024-08-06,株式会社福亀プランニング,,株式会社,東京都,練馬区,関町南３丁目３１番１１－１０２号,,13,120,1770053,,,,,,,2024-08-06,1,,,,,フクカメプランニング,0
1787,7012301014027,新規,0,2024-08-06,2024-08-06,株式会社ＮＧＩグランディール,,株式会社,東京都,町田市,鶴間６丁目５６番４８号２Ｆ,,13,209,1940004,,,,,,,2024-08-06,1,,,,,エヌジーアイグランディール,0
1788,7012301014035,新規,0,2024-08-06,2024-08-06,株式会社アシスト,,株式会社,東京都,町田市,南大谷７丁目１１番２６号,,13,209,1940031,,,,,,,2024-08-06,1,,,,,アシスト,0
1791,7012801023378,新規,0,2024-08-06,2024-08-06,株式会社ＳＹ２Ｋ,,株式会社,東京都,日野市,大字日野１５７７番地日野宿山屋敷住宅南七番館Ｃ－２号室,,13,212,1910012,,,,,,,2024-08-06,1,,,,,エスワイツーケー,0
1792,7012803003469,新規,0,2024-08-06,2024-08-06,合同会社響,,合同会社,東京都,昭島市,中神町２丁目１７番１２号－１０３,,13,207,1960022,,,,,,,2024-08-06,1,,,,,ヒビキ,0
1793,7013101009480,新規,0,2024-08-06,2024-08-06,株式会社ベイグロース,,株式会社,東京都,西多摩郡日の出町,大字平井１２４０番地１－２０２,,13,305,1900182,,,,,,,2024-08-06,1,,,,,ベイグロース,0
1801,7020001158374,新規,0,2024-08-06,2024-08-06,株式会社ブリッジスターズ,,株式会社,神奈川県,横浜市西区,北幸１丁目１１番１５号横浜ＳＴビル１１階,,14,103,2200004,,,,,,,2024-08-06,1,,,,,ブリッジスターズ,0
1805,7020003026579,新規,0,2024-08-06,2024-08-06,合同会社添田製作所,,合同会社,神奈川県,横浜市栄区,犬山町８番１号,,14,115,2470026,,,,,,,2024-08-06,1,,,,,ソエダセイサクショ,0
1815,7030001161781,新規,0,2024-08-06,2024-08-06,株式会社カナタ工業,,株式会社,埼玉県,加須市,小野袋６０４番地５,,11,210,3491202,,,,,,,2024-08-06,1,,,,,カナタコウギョウ,0
1816,7030001161831,新規,0,2024-08-06,2024-08-06,株式会社ＯＭＧ,,株式会社,埼玉県,朝霞市,幸町１丁目９－３,,11,227,3510015,,,,,,,2024-08-06,1,,,,,オーエムジー,0
1819,7030003024870,新規,0,2024-08-06,2024-08-06,合同会社ＶＩＶＡＣＥ,,合同会社,埼玉県,草加市,神明２丁目８番１８－６０４号,,11,221,3400012,,,,,,,2024-08-06,1,,,,,ヴィヴァーチェ,0
1821,7040001134480,新規,0,2024-08-06,2024-08-06,自然の家株式会社,,株式会社,千葉県,南房総市,白浜町滝口３２４－１,,12,234,2950103,,,,,,,2024-08-06,1,,,,,シゼンノイエ,0
1822,7040001134811,新規,0,2024-08-06,2024-08-06,田中建設株式会社,,株式会社,千葉県,四街道市,鷹の台１丁目６番３７号,,12,228,2840033,,,,,,,2024-08-06,1,,,,,タナカケンセツ,0
1823,7040001134852,新規,0,2024-08-06,2024-08-06,株式会社菖蕾社,,株式会社,千葉県,船橋市,前原東２丁目１３番３０号,,12,204,2740824,,,,,,,2024-08-06,1,,,,,ショウライシャ,0
1824,7040001134869,新規,0,2024-08-06,2024-08-06,株式会社Ｔａｋｅ‐ｍ,,株式会社,千葉県,船橋市,本町５丁目２番１２－８１３号,,12,204,2730005,,,,,,,2024-08-06,1,,,,,テイクエム,0
1829,7040003025513,新規,0,2024-08-06,2024-08-06,合同会社Ｎｅｘｏｌｕ,,合同会社,千葉県,市川市,南八幡５丁目２－１６ドミール１０３,,12,203,2720023,,,,,,,2024-08-06,1,,,,,ネクソル,0
1840,7080001026410,新規,0,2024-08-06,2024-08-06,株式会社ｉｎｉ,,株式会社,静岡県,静岡市葵区,研屋町７番地ノブレスコート８０３号,,22,101,4200029,,,,,,,2024-08-06,1,,,,,アイエヌアイ,0
1841,7080001026419,新規,0,2024-08-06,2024-08-06,株式会社ＪＩＴ,,株式会社,静岡県,静岡市葵区,紺屋町２番地の７きんかビル３階,,22,101,4200852,,,,,,,2024-08-06,1,,,,,ジェイアイティー,0
1842,7080003003267,新規,0,2024-08-06,2024-08-06,ｅｎｉｓｈｉ合同会社,,合同会社,静岡県,静岡市葵区,東瀬名町１７番６０－２号,,22,101,4200912,,,,,,,2024-08-06,1,,,,,エニシ,0
1844,7080101024941,新規,0,2024-08-06,2024-08-06,株式会社ｉｉｒｏ,,株式会社,静岡県,伊東市,富戸１３１７番地の４６０９,,22,208,4130231,,,,,,,2024-08-06,1,,,,,イイロ,0
1851,7090003002615,新規,0,2024-08-06,2024-08-06,ＪＡＰＡＮ　ＷＡＮＤＥＲＳ合同会社,,合同会社,山梨県,韮崎市,中田町中條４３０６番地１,,19,207,4070262,,,,,,,2024-08-06,1,,,,,ジャパンワンダーズ,0
1853,7100001037735,新規,0,2024-08-06,2024-08-06,株式会社うなぎおさか,,株式会社,長野県,岡谷市,湊５丁目１番４号,,20,204,3940044,,,,,,,2024-08-06,1,,,,,ウナギオサカ,0
1856,7110001038633,新規,0,2024-08-06,2024-08-06,ライフ・サポート・ワンチーム株式会社,,株式会社,新潟県,新潟市西区,青山５丁目８番１６号,,15,107,9502002,,,,,,,2024-08-06,1,,,,,ライフサポートワンチーム,0
1872,7120001267454,新規,0,2024-08-06,2024-08-06,株式会社ＴＫＸ,,株式会社,大阪府,大阪市天王寺区,清水谷町５番１６号,,27,109,5430011,,,,,,,2024-08-06,1,,,,,ティケーエックス,0
1873,7120001267462,新規,0,2024-08-06,2024-08-06,株式会社フォルト,,株式会社,大阪府,大阪市旭区,赤川２丁目５番６号,,27,117,5350005,,,,,,,2024-08-06,1,,,,,フォルト,0
1874,7120001267479,新規,0,2024-08-06,2024-08-06,株式会社リスポーシャルサービス,,株式会社,大阪府,大阪市淀川区,田川北３丁目８番１２号,,27,123,5320021,,,,,,,2024-08-06,1,,,,,リスポーシャルサービス,0
1875,7120001267520,新規,0,2024-08-06,2024-08-06,株式会社バンブー,,株式会社,大阪府,大阪市中央区,北久宝寺町２丁目６番１号ＲＥ－０１７．７０５号室,,27,128,5410057,,,,,,,2024-08-06,1,,,,,バンブー,0
1876,7120003027154,新規,0,2024-08-06,2024-08-06,ＤＵＯＮＧ　ＴＨＩ　ＤＩＵ合同会社,,合同会社,大阪府,大阪市平野区,加美北１丁目２３番２７号１０２号室,,27,126,5470001,,,,,,,2024-08-06,1,,,,,ズォンティジュ,0
1877,7120003027229,新規,0,2024-08-06,2024-08-06,カインドサポート合同会社,,合同会社,大阪府,大阪市東住吉区,南田辺３丁目２１番１０号エクシード南田辺,,27,121,5460033,,,,,,,2024-08-06,1,,,,,カインドサポート,0
1878,7120003027237,新規,0,2024-08-06,2024-08-06,合同会社フォーレスト,,合同会社,大阪府,大阪市中央区,南船場３丁目２番２２号おおきに南船場ビル２０５,,27,128,5420081,,,,,,,2024-08-06,1,,,,,フォーレスト,0
1879,7120005024471,新規,0,2024-08-06,2024-08-06,一般社団法人誠華会,,その他の設立登記法人,大阪府,大阪市西区,北堀江２丁目２番６号,,27,106,5500014,,,,,,,2024-08-06,1,,,,,セイカカイ,0
1880,7120101070097,新規,0,2024-08-06,2024-08-06,株式会社ＷｉｎｄＢｅｌｌ,,株式会社,大阪府,堺市堺区,昭和通２丁２８－２,,27,141,5900825,,,,,,,2024-08-06,1,,,,,ウィンドベル,0
1892,7130001077613,新規,0,2024-08-06,2024-08-06,株式会社キシマサ,,株式会社,京都府,宇治市,小倉町南浦４３番地の４サンパティオ小倉１１１号,,26,204,6110042,,,,,,,2024-08-06,1,,,,,キシマサ,0
1893,7130001077638,新規,0,2024-08-06,2024-08-06,株式会社ＫＹＯＴＯ　ＳＩＬＫ　ＨＵＢ,,株式会社,京都府,京都市中京区,両替町通姉小路下る柿本町４１２番地,,26,104,6048173,,,,,,,2024-08-06,1,,,,,キョウトシルクハブ,0
1895,7130003009746,新規,0,2024-08-06,2024-08-06,コレクションセカイ合同会社,,合同会社,京都府,京都市右京区,梅津フケノ川町１５番地６,,26,108,6150921,,,,,,,2024-08-06,1,,,,,コレクションセカイ,0
1897,7140001135337,新規,0,2024-08-06,2024-08-06,株式会社ｍｏｎａｍｉｅ,,株式会社,兵庫県,神戸市中央区,磯上通８丁目１番２９号カサベラビルＣ＆Ｍ４０３号室,,28,110,6510086,,,,,,,2024-08-06,1,,,,,モナミエ,0
1898,7140001135378,新規,0,2024-08-06,2024-08-06,株式会社ＭＢ,,株式会社,兵庫県,尼崎市,久々知西町２丁目３番１３号１０１,,28,202,6610978,,,,,,,2024-08-06,1,,,,,エムビー,0
1899,7140003020917,新規,0,2024-08-06,2024-08-06,合同会社三友電気保安サービス,,合同会社,兵庫県,姫路市,網干区津市場４５６番地４,,28,201,6711224,,,,,,,2024-08-06,1,,,,,サンユウデンキホアンサービス,0
1903,7150001027475,新規,0,2024-08-06,2024-08-06,株式会社クウネルフ,,株式会社,奈良県,橿原市,新賀町１７６－３,,29,205,6340006,,,,,,,2024-08-06,1,,,,,クウネルフ,0
1911,7180001162732,新規,0,2024-08-06,2024-08-06,ラナップ株式会社,,株式会社,愛知県,名古屋市天白区,保呂町１００４番地,,23,116,4680041,,,,,,,2024-08-06,1,,,,,ラナップ,0
1933,7240001063643,新規,0,2024-08-06,2024-08-06,株式会社泉洗絨広島,,株式会社,広島県,広島市西区,草津浜町１４番４号,,34,104,7330862,,,,,,,2024-08-06,1,,,,,イズミセンジュウヒロシマ,0
1934,7240001063651,新規,0,2024-08-06,2024-08-06,株式会社ランクス,,株式会社,広島県,広島市東区,中山新町３丁目２７番１８号,,34,102,7320021,,,,,,,2024-08-06,1,,,,,ランクス,0
1935,7240001063668,新規,0,2024-08-06,2024-08-06,株式会社グレイスホーム,,株式会社,広島県,広島市安佐南区,西原５丁目５番２３号,,34,105,7310113,,,,,,,2024-08-06,1,,,,,グレイスホーム,0
1940,7260001039360,新規,0,2024-08-06,2024-08-06,株式会社ＡＲＫ,,株式会社,岡山県,倉敷市,茶屋町１１４０－５,,33,202,7101101,,,,,,,2024-08-06,1,,,,,アーク,0
1943,7260003004825,新規,0,2024-08-06,2024-08-06,合同会社ウゴカス,,合同会社,岡山県,笠岡市,美の浜２６－２９,,33,205,7140042,,,,,,,2024-08-06,1,,,,,ウゴカス,0
1944,7260003004841,新規,0,2024-08-06,2024-08-06,合同会社カプリアイランド,,合同会社,岡山県,瀬戸内市,邑久町山田庄６８２番地１２,,33,212,7014246,,,,,,,2024-08-06,1,,,,,カプリアイランド,0
1947,7270005005606,新規,0,2024-08-06,2024-08-06,特定非営利活動法人遊山のもり,,その他の設立登記法人,鳥取県,倉吉市,広栄町９７１－２,,31,203,6820035,,,,,,,2024-08-06,1,,,,,ユサンノモリ,0
1954,7290801030771,新規,0,2024-08-06,2024-08-06,北九州エナジー株式会社,,株式会社,福岡県,北九州市小倉北区,金田２丁目６－１－１２０３,,40,106,8030816,,,,,,,2024-08-06,1,,,,,キタキュウシュウエナジー,0
1956,7300001013864,新規,0,2024-08-06,2024-08-06,株式会社ＴＥＮＳＥＩ,,株式会社,佐賀県,佐賀市,川副町大字早津江津５番地,,41,201,8402202,,,,,,,2024-08-06,1,,,,,テンセイ,0
1958,7310003004836,新規,0,2024-08-06,2024-08-06,１ｇｕｉｄｅ合同会社,,合同会社,長崎県,雲仙市,瑞穂町伊福甲１４３―５,,42,213,8591213,,,,,,,2024-08-06,1,,,,,ワンガイド,0
1959,7330001032317,新規,0,2024-08-06,2024-08-06,株式会社ＳＹＵＹＵ企画,,株式会社,熊本県,熊本市東区,長嶺東３丁目３番５－２０２号ヴィラコンフォート,,43,102,8618038,,,,,,,2024-08-06,1,,,,,シューユキカク,0
1960,7340001026697,新規,0,2024-08-06,2024-08-06,株式会社ｗａｌｌ,,株式会社,鹿児島県,薩摩川内市,平佐町３９７７番地３,,46,215,8950012,,,,,,,2024-08-06,1,,,,,ウォール,0
1961,7340001026706,新規,0,2024-08-06,2024-08-06,株式会社大根占福岡製茶,,株式会社,鹿児島県,肝属郡錦江町,城元１５５５番地１,,46,490,8932302,,,,,,,2024-08-06,1,,,,,オオネジメフクオカセイチャ,0
1962,7340001026722,新規,0,2024-08-06,2024-08-06,株式会社ＭＡＴＳＵＫＩＧＡＲＤＥＮＩＮＧ,,株式会社,鹿児島県,指宿市,山川福元４９２５,,46,210,8910511,,,,,,,2024-08-06,1,,,,,マツキガーデニング,0
1966,7340003004560,新規,0,2024-08-06,2024-08-06,合同会社ＳＵＭＯＭＯ,,合同会社,鹿児島県,鹿児島市,喜入生見町６９６７番地,,46,201,8910206,,,,,,,2024-08-06,1,,,,,スモモ,0
1969,7350001019122,新規,0,2024-08-06,2024-08-06,株式会社ＣＲＡＦＴ,,株式会社,宮崎県,延岡市,南一ケ岡４丁目５－５,,45,203,8890506,,,,,,,2024-08-06,1,,,,,クラフト,0
1973,7360001034046,新規,0,2024-08-06,2024-08-06,株式会社肉や企画,,株式会社,沖縄県,うるま市,与那城平安座２５２,,47,213,9042426,,,,,,,2024-08-06,1,,,,,ニクヤキカク,0
1978,7360003014203,新規,0,2024-08-06,2024-08-06,合同会社玉将工業,,合同会社,沖縄県,国頭郡本部町,字北里１１４４番地１,,47,308,9050209,,,,,,,2024-08-06,1,,,,,タマショウコウギョウ,0
1980,7370001051602,新規,0,2024-08-06,2024-08-06,株式会社ＩＤＥＡＬ,,株式会社,宮城県,亘理郡亘理町,長瀞字曽根２３－１４５,,04,361,9892341,,,,,,,2024-08-06,1,,,,,イデアル,0
1981,7370001051610,新規,0,2024-08-06,2024-08-06,株式会社つなげる,,株式会社,宮城県,亘理郡亘理町,逢隈田沢字川窪９番地３,00135829,04,361,9892383,,,,,,,2024-08-06,1,,,,,ツナゲル,0
1982,7370003006711,新規,0,2024-08-06,2024-08-06,合同会社ａｐｐｕｉ,,合同会社,宮城県,仙台市青葉区,二日町６‐２６,,04,101,9800802,,,,,,,2024-08-06,1,,,,,アピュイ,0
1985,7380001034705,新規,0,2024-08-06,2024-08-06,王子ランドビルディング株式会社,,株式会社,福島県,郡山市,並木５丁目５番地３８,,07,203,9638026,,,,,,,2024-08-06,1,,,,,オウジランドビルディング,0
1986,7380003005836,新規,0,2024-08-06,2024-08-06,トリエイミ合同会社,,合同会社,福島県,会津若松市,町北町大字上荒久田字鈴木２４番地の１４,,07,202,9650053,,,,,,,2024-08-06,1,,,,,トリエイミ,0
1987,7380005012855,新規,0,2024-08-06,2024-08-06,土地家屋調査士法人中部測量設計,,その他の設立登記法人,福島県,郡山市,深沢２丁目１０番１号,,07,203,9638874,,,,,,,2024-08-06,1,,,,,チュウブソクリョウセッケイ,0
1988,7390001017700,新規,0,2024-08-06,2024-08-06,株式会社エンパイアー,,株式会社,山形県,山形市,飯田３丁目６－３２飯田マンションはまなす２０５,,06,201,9902332,,,,,,,2024-08-06,1,,,,,エンパイアー,0
1992,7410001013903,新規,0,2024-08-06,2024-08-06,株式会社渡辺工務店,,株式会社,秋田県,大仙市,北楢岡字高花２５‐２,00135831,05,212,0191702,,,,,,,2024-08-06,1,,,,,ワタナベコウムテン,0
1994,7420001018810,新規,0,2024-08-06,2024-08-06,株式会社閃光,,株式会社,青森県,青森市,大字新城字山田５８７番地２１１,,02,201,0380042,,,,,,,2024-08-06,1,,,,,センコウ,0
1997,7430001092375,新規,0,2024-08-06,2024-08-06,株式会社西商,,株式会社,北海道,苫小牧市,大成町１丁目６番２５号,,01,213,0530806,,,,,,,2024-08-06,1,,,,,セイショウ,0
1998,7430001092383,新規,0,2024-08-06,2024-08-06,株式会社北海道宣光,,株式会社,北海道,札幌市白石区,北郷三条２丁目１１番５号若草物語ＩＩ１０１,00135835,01,104,0030833,,,,,,,2024-08-06,1,,,,,ホッカイドウセンコウ,0
1999,7430001092391,新規,0,2024-08-06,2024-08-06,エレクトテクニカ株式会社,,株式会社,北海道,苫小牧市,ウトナイ南８丁目５番２３号,,01,213,0591307,,,,,,,2024-08-06,1,,,,,エレクトテクニカ,0
2000,7430001092409,新規,0,2024-08-06,2024-08-06,株式会社Ｃｈｉｒａｉ,,株式会社,北海道,石狩郡当別町,幸町５１番地３１－１Ｆ,,01,303,0610217,,,,,,,2024-08-06,1,,,,,チライ,0
2001,7430001092433,新規,0,2024-08-06,2024-08-06,株式会社エス企画工房,,株式会社,北海道,札幌市東区,中沼西一条１丁目４番１５号,,01,103,0070891,,,,,,,2024-08-06,1,,,,,エスキカクコウボウ,0
2002,7430003016646,新規,0,2024-08-06,2024-08-06,電電合同会社,,合同会社,北海道,札幌市中央区,南八条西５丁目２８９番地７２プラザ８５－５０５号,,01,101,0640808,,,,,,,2024-08-06,1,,,,,デンデン,0
2003,7430003016654,新規,0,2024-08-06,2024-08-06,合同会社ユーエン,,合同会社,北海道,苫小牧市,明野元町１丁目４番２８号,,01,213,0530051,,,,,,,2024-08-06,1,,,,,ユーエン,0
2004,7440001009477,新規,0,2024-08-06,2024-08-06,株式会社マルユウ鉄工,,株式会社,北海道,茅部郡森町,字港町２８番地,,01,345,0492302,,,,,,,2024-08-06,1,,,,,マルユウテッコウ,0
2007,7460301005240,新規,0,2024-08-06,2024-08-06,Ｄｏｏｍｏ株式会社,,株式会社,北海道,北見市,美里９７番地１０,,01,208,0900007,,,,,,,2024-08-06,1,,,,,ドゥーモ,0
2008,7460303000834,新規,0,2024-08-06,2024-08-06,ＭＬＰ合同会社,,合同会社,北海道,北見市,高栄東町１丁目２４番２７号,,01,208,0900051,,,,,,,2024-08-06,1,,,,,エムエルピー,0
2009,7470001020332,新規,0,2024-08-06,2024-08-06,Ｍ８株式会社,,株式会社,香川県,綾歌郡綾川町,萱原９２８番地１１,,37,387,7612304,,,,,,,2024-08-06,1,,,,,エムエイト,0
2011,7500001025798,新規,0,2024-08-06,2024-08-06,富久株式会社,,株式会社,愛媛県,松山市,富久町２２８番地３,,38,201,7918034,,,,,,,2024-08-06,1,,,,,トミヒサ,0
2012,7500003003298,新規,0,2024-08-06,2024-08-06,合同会社ＭＳＫパートナーズ,,合同会社,愛媛県,松山市,宮田町１０６番地２,,38,201,7900066,,,,,,,2024-08-06,1,,,,,エムエスケーパートナーズ,0
2022,8010001247037,新規,0,2024-08-06,2024-08-06,株式会社ＰＲ１ＭＥＰＩＣＫ,,株式会社,東京都,千代田区,神田佐久間町２丁目１８番地１秋葉原ＳＴＮフロント１３階,,13,101,1010025,,,,,,,2024-08-06,1,,,,,プライムピック,0
2023,8010001247094,新規,0,2024-08-06,2024-08-06,株式会社Ｍ・Ｋ・Ｔ,,株式会社,東京都,中央区,銀座８丁目４番２号たくみビル３階,,13,102,1040061,,,,,,,2024-08-06,1,,,,,エムケーティー,0
2024,8010001247177,新規,0,2024-08-06,2024-08-06,株式会社ＹＫＲＫ,,株式会社,東京都,中央区,勝どき６丁目３番２－３７１１号,,13,102,1040054,,,,,,,2024-08-06,1,,,,,ワイケーアールケー,0
2025,8010001247185,新規,0,2024-08-06,2024-08-06,株式会社アイズ,,株式会社,東京都,中央区,勝どき６丁目３番２－３００２号,,13,102,1040054,,,,,,,2024-08-06,1,,,,,アイズ,0
2026,8010001247243,新規,0,2024-08-06,2024-08-06,輝源株式会社,,株式会社,東京都,千代田区,神田鍛冶町３丁目７－２１－８０２号室,,13,101,1010045,,,,,,,2024-08-06,1,,,,,キゲン,0
2027,8010003044465,新規,0,2024-08-06,2024-08-06,合同会社しゅし,,合同会社,東京都,中央区,日本橋室町１丁目１１番１２号７階,,13,102,1030022,,,,,,,2024-08-06,1,,,,,シュシ,0
2028,8010003044515,新規,0,2024-08-06,2024-08-06,上ノ国湯ノ岱ウインド合同会社,,合同会社,東京都,千代田区,永田町２丁目１１番１号山王パークタワー２１階,,13,101,1000014,,,,,,,2024-08-06,1,,,,,カミノクニユノタイウインド,0
2029,8010005038639,新規,0,2024-08-06,2024-08-06,一般社団法人ＩＲＳ５,,その他の設立登記法人,東京都,千代田区,丸の内１丁目４番１号東京共同会計事務所内,,13,101,1000005,,,,,,,2024-08-06,1,,,,,アイアールエスファイブ,0
2030,8010101016267,新規,0,2024-08-06,2024-08-06,株式会社秋精工,,株式会社,東京都,八王子市,川町７０４番地１,,13,201,1930821,,,,,,,2024-08-06,1,,,,,アキセイコウ,0
2045,8010701046374,新規,0,2024-08-06,2024-08-06,エイトリッチ株式会社,,株式会社,東京都,品川区,西五反田２丁目９－７,,13,109,1410031,,,,,,,2024-08-06,1,,,,,エイトリッチ,0
2048,8010803005047,新規,0,2024-08-06,2024-08-06,合同会社ＦＥＲＮＥ,,合同会社,東京都,大田区,蒲田１丁目７番１６号ラ・ベルメゾン３０１,,13,111,1440052,,,,,,,2024-08-06,1,,,,,フェルネ,0
2060,8011101108260,新規,0,2024-08-06,2024-08-06,株式会社Ｊｅｌｌｙ　Ｂｒａｓ,,株式会社,東京都,新宿区,西新宿３丁目２番地９号新宿ワシントンホテルビル本館２階,,13,104,1600023,,,,,,,2024-08-06,1,,,,,ジェリーブラス,0
2061,8011103014721,新規,0,2024-08-06,2024-08-06,合同会社日橋留学,,合同会社,東京都,新宿区,西新宿３丁目３番１３号西新宿水間ビル６階,,13,104,1600023,,,,,,,2024-08-06,1,,,,,ニッキョウリュウガク,0
2066,8011401026303,新規,0,2024-08-06,2024-08-06,株式会社Ｃｒａｆｔ　ＧＲ,,株式会社,東京都,板橋区,弥生町１番２－２０３号ステラコート大山,,13,119,1730021,,,,,,,2024-08-06,1,,,,,クラフトジーアール,0
2067,8011401026328,新規,0,2024-08-06,2024-08-06,株式会社中村設備工業,,株式会社,東京都,板橋区,徳丸６丁目３１番７号,,13,119,1750083,,,,,,,2024-08-06,1,,,,,ナカムラセツビコウギョウ,0
2069,8011501030980,新規,0,2024-08-06,2024-08-06,株式会社明智,,株式会社,東京都,北区,赤羽２丁目４３番３号若葉コーポ３０１,,13,117,1150045,,,,,,,2024-08-06,1,,,,,アケチ,0
2070,8011501031005,新規,0,2024-08-06,2024-08-06,佳生アドバイザリー株式会社,,株式会社,東京都,北区,中十条２丁目１７番４号,,13,117,1140032,,,,,,,2024-08-06,1,,,,,カオアドバイザリー,0
2074,8012301014026,新規,0,2024-08-06,2024-08-06,くじら不動産株式会社,,株式会社,東京都,町田市,南町田１丁目５番２５号第２ブラッキービル３０２,,13,209,1940005,,,,,,,2024-08-06,1,,,,,クジラフドウサン,0
2075,8012301014034,新規,0,2024-08-06,2024-08-06,株式会社ｉｎｉｔｙ,,株式会社,東京都,町田市,森野１丁目２３番２号河内ビル１階,,13,209,1940022,,,,,,,2024-08-06,1,,,,,アイニティ,0
2076,8012303002029,新規,0,2024-08-06,2024-08-06,合同会社ゆうき商事,,合同会社,東京都,町田市,原町田３丁目３番２７‐１００４号,,13,209,1940013,,,,,,,2024-08-06,1,,,,,ユウキショウジ,0
2078,8012803003476,新規,0,2024-08-06,2024-08-06,プロットデバイス合同会社,,合同会社,東京都,立川市,砂川町２丁目６５番地の１ドラゴンマンション立川弐番館４０５号,,13,202,1900031,,,,,,,2024-08-06,1,,,,,プロットデバイス,0
2089,8020001158349,新規,0,2024-08-06,2024-08-06,株式会社ｅｘｓｉａ,,株式会社,神奈川県,横浜市港南区,笹下３丁目１４番１２号メゾン宮川１０１,,14,111,2340052,,,,,,,2024-08-06,1,,,,,イクシア,0
2090,8020001158357,新規,0,2024-08-06,2024-08-06,株式会社ルミエール,,株式会社,神奈川県,横浜市金沢区,能見台３丁目２５番地１５,,14,108,2360057,,,,,,,2024-08-06,1,,,,,ルミエール,0
2093,8021001082893,新規,0,2024-08-06,2024-08-06,株式会社ＹＫＭ,,株式会社,神奈川県,大和市,つきみ野２丁目６番地１７,,14,213,2420002,,,,,,,2024-08-06,1,,,,,ワイケイエム,0
2094,8021001082919,新規,0,2024-08-06,2024-08-06,エヌ．ケー．アール株式会社,,株式会社,神奈川県,小田原市,飯田岡３３９－１,,14,206,2500854,,,,,,,2024-08-06,1,,,,,エヌケーアール,0
2104,8030001161789,新規,0,2024-08-06,2024-08-06,株式会社県央物流,,株式会社,埼玉県,鴻巣市,本宮町４番２８号,,11,217,3650076,,,,,,,2024-08-06,1,,,,,ケンオウブツリュウ,0
2105,8030001161797,新規,0,2024-08-06,2024-08-06,株式会社ヴィレッジフィールド,,株式会社,埼玉県,さいたま市桜区,田島５丁目１９番８号,,11,106,3380837,,,,,,,2024-08-06,1,,,,,ヴィレッジフィールド,0
2106,8030001161814,新規,0,2024-08-06,2024-08-06,株式会社リブラック,,株式会社,埼玉県,川口市,芝新町４番８号ＵＲＢＡＮＦＯＲＵＭ蕨,,11,203,3330851,,,,,,,2024-08-06,1,,,,,リブラック,0
2112,8040001134637,新規,0,2024-08-06,2024-08-06,株式会社臨機応変,,株式会社,千葉県,千葉市美浜区,稲毛海岸３丁目３番１３－５０１号,,12,106,2610005,,,,,,,2024-08-06,1,,,,,リンキオウヘン,0
2113,8040001134777,新規,0,2024-08-06,2024-08-06,株式会社寿ＣＲＡＦＴ,,株式会社,千葉県,佐倉市,藤治台１０番地５,,12,212,2850816,,,,,,,2024-08-06,1,,,,,コトブキクラフト,0
2114,8040001134810,新規,0,2024-08-06,2024-08-06,株式会社栄福商事,,株式会社,千葉県,船橋市,二和東５丁目１４番１３号,,12,204,2740805,,,,,,,2024-08-06,1,,,,,エイフクショウジ,0
2115,8040001134827,新規,0,2024-08-06,2024-08-06,株式会社シアルトレーディング,,株式会社,千葉県,柏市,手賀１４２５番地１,,12,217,2701465,,,,,,,2024-08-06,1,,,,,シアルトレーディング,0
2122,8040003025586,新規,0,2024-08-06,2024-08-06,ＰＲＥＭＡ合同会社,,合同会社,千葉県,千葉市美浜区,高洲２丁目７街区１６棟１０３号室,,12,106,2610004,,,,,,,2024-08-06,1,,,,,プレマ,0
2128,8050001055196,新規,0,2024-08-06,2024-08-06,株式会社サバイバー,,株式会社,茨城県,水戸市,見川５丁目１５６番地の４,,08,201,3100912,,,,,,,2024-08-06,1,,,,,サバイバー,0
2129,8050001055205,新規,0,2024-08-06,2024-08-06,株式会社ＱＵＯＬＩＵＰ,,株式会社,茨城県,つくば市,さくらの森３－７,,08,220,3050019,,,,,,,2024-08-06,1,,,,,クオリアップ,0
2131,8050003008581,新規,0,2024-08-06,2024-08-06,ＳＵＧＡＭＵ　ＣＯＲＰＯＲＡＴＩＯＮ合同会社,,合同会社,茨城県,常陸太田市,栄町１１９番地の４,,08,212,3130005,,,,,,,2024-08-06,1,,,,,スガムコーポレーション,0
2135,8080001026426,新規,0,2024-08-06,2024-08-06,株式会社相川工建,,株式会社,静岡県,静岡市葵区,幸町３番地の１５,,22,101,4200067,,,,,,,2024-08-06,1,,,,,アイカワコウケン,0
2148,8080403005077,新規,0,2024-08-06,2024-08-06,合同会社ＭＡＡＫ,,合同会社,静岡県,浜松市中央区,板屋町１０２番１５,,22,138,4300928,,,,,,,2024-08-06,1,,,,,マーク,0
2149,8090005007644,新規,0,2024-08-06,2024-08-06,一般社団法人未来創造くらぶ・つなぐ,,その他の設立登記法人,山梨県,甲斐市,篠原１４８１番地２,,19,210,4000115,,,,,,,2024-08-06,1,,,,,ミライソウゾウクラブツナグ,0
2150,8100001037718,新規,0,2024-08-06,2024-08-06,株式会社ケイプロパティーマネージメント,,株式会社,長野県,伊那市,西町６３６２番地１,,20,209,3960026,,,,,,,2024-08-06,1,,,,,ケイプロパティーマネージメント,0
2152,8100003007693,新規,0,2024-08-06,2024-08-06,ｍｏｍｏｓｉｖａｓｏｆｔ合同会社,,合同会社,長野県,松本市,本庄１丁目１３－１１本庄ビル２Ｆ,,20,202,3900814,,,,,,,2024-08-06,1,,,,,モモシバソフト,0
2164,8120001267412,新規,0,2024-08-06,2024-08-06,大和商事株式会社,,株式会社,大阪府,大阪市港区,波除２丁目９番２０号,,27,107,5520001,,,,,,,2024-08-06,1,,,,,,0
2165,8120001267511,新規,0,2024-08-06,2024-08-06,株式会社ダック便,,株式会社,大阪府,寝屋川市,香里北之町２－６,,27,215,5720080,,,,,,,2024-08-06,1,,,,,ダックビン,0
2166,8120001267544,新規,0,2024-08-06,2024-08-06,株式会社Ｄｅｒｍａ　Ｎａｖｉ,,株式会社,大阪府,大阪市北区,梅田１丁目２番２号大阪駅前第２ビル１２－１２,,27,127,5300001,,,,,,,2024-08-06,1,,,,,デルマナビ,0
2167,8120003027236,新規,0,2024-08-06,2024-08-06,ＸＹ合同会社,,合同会社,大阪府,大阪市住之江区,中加賀屋３丁目９番２１号,,27,125,5590017,,,,,,,2024-08-06,1,,,,,エックスワイ,0
2172,8120101070105,新規,0,2024-08-06,2024-08-06,株式会社Ｌｉｎｏ　ｌｉｅｂｅ,,株式会社,大阪府,羽曳野市,誉田６丁目８番５号,,27,222,5830857,,,,,,,2024-08-06,1,,,,,リノリーベ,0
2175,8122001038330,新規,0,2024-08-06,2024-08-06,株式会社カラーズバリュー大阪,,株式会社,大阪府,東大阪市,布市町３丁目２番５７号,,27,227,5798004,,,,,,,2024-08-06,1,,,,,カラーズバリューオオサカ,0
2189,8140001135393,新規,0,2024-08-06,2024-08-06,株式会社ヴィクトワール,,株式会社,兵庫県,芦屋市,川西町９番３号,,28,206,6590072,,,,,,,2024-08-06,1,,,,,ヴィクトワール,0
2190,8140001135402,新規,0,2024-08-06,2024-08-06,株式会社ｅｘｐｏ,,株式会社,兵庫県,加東市,上滝野２３２５番地,,28,228,6790211,,,,,,,2024-08-06,1,,,,,エクスポ,0
2191,8140003020908,新規,0,2024-08-06,2024-08-06,トラスト会計コンサルティング合同会社,,合同会社,兵庫県,丹波篠山市,郡家２４１番地１－２階,,28,221,6692341,,,,,,,2024-08-06,1,,,,,トラストカイケイコンサルティング,0
2193,8150001027474,新規,0,2024-08-06,2024-08-06,株式会社ＲｅＬｉｅｎエンターテインメント,,株式会社,奈良県,奈良市,西大寺南町７番１５号,,29,201,6310824,,,,,,,2024-08-06,1,,,,,リリアンエンターテインメント,0
2194,8150001027482,新規,0,2024-08-06,2024-08-06,株式会社スリーピース,,株式会社,奈良県,奈良市,神功５丁目３－３ルルデハイツＩＩ－１０３,00135834,29,201,6310804,,,,,,,2024-08-06,1,,,,,スリーピース,0
2195,8150003003333,新規,0,2024-08-06,2024-08-06,合同会社ＢＬＯＯＭＩＮＧ,,合同会社,奈良県,奈良市,学園新田町３０３４番地の２－４１３号,,29,201,6310025,,,,,,,2024-08-06,1,,,,,ブルーミング,0
2198,8180001162657,新規,0,2024-08-06,2024-08-06,株式会社ＷＥＬＬＳ,,株式会社,愛知県,名古屋市熱田区,花表町３番２８号ファミリアーレ神宮前レジデンス５０９号,,23,109,4560033,,,,,,,2024-08-06,1,,,,,ウエルズ,0
2199,8180001162748,新規,0,2024-08-06,2024-08-06,株式会社オフィス朝,,株式会社,愛知県,稲沢市,国府宮神田町２４番地,,23,220,4928139,,,,,,,2024-08-06,1,,,,,オフィスアサ,0
2200,8180001162780,新規,0,2024-08-06,2024-08-06,株式会社大中小,,株式会社,愛知県,名古屋市北区,田幡２丁目１６番８号ライオンズマンション黒川第二１０５号室,,23,103,4620843,,,,,,,2024-08-06,1,,,,,ダイチュウショウ,0
2204,8180003027172,新規,0,2024-08-06,2024-08-06,合同会社Ｚａｉ　Ｐｌａｎｎｉｎｇ　Ｏｆｆｉｃｅ,,合同会社,愛知県,名古屋市名東区,亀の井２丁目５９番地の２,,23,115,4650094,,,,,,,2024-08-06,1,,,,,ザイプランニングオフィス,0
2205,8180003027189,新規,0,2024-08-06,2024-08-06,ほくろ合同会社,,合同会社,愛知県,名古屋市中村区,名駅４丁目２４番５号第２森ビル４０１,,23,105,4500002,,,,,,,2024-08-06,1,,,,,ホクロ,0
2206,8180301038929,新規,0,2024-08-06,2024-08-06,株式会社ＣＥＬＭＳ,,株式会社,愛知県,刈谷市,青山町１丁目１５８番地４,,23,210,4480014,,,,,,,2024-08-06,1,,,,,セルムス,0
2209,8190003004765,新規,0,2024-08-06,2024-08-06,合同会社ＲＥＣＩＴＹ,,合同会社,三重県,津市,上浜町６丁目１４番地３ポレスター大谷参番館１４０２号室,,24,201,5140008,,,,,,,2024-08-06,1,,,,,リシティ,0
2210,8190005011974,新規,0,2024-08-06,2024-08-06,一般社団法人百合が丘総合スポーツクラブ,,その他の設立登記法人,三重県,名張市,百合が丘西４番町２１６番地,,24,208,5180484,,,,,,,2024-08-06,1,,,,,ユリガオカソウゴウスポーツクラブ,0
2211,8210001019853,新規,0,2024-08-06,2024-08-06,株式会社ＴＳＧ,,株式会社,福井県,丹生郡越前町,朝日第１６号１番地１３,,18,423,9160146,,,,,,,2024-08-06,1,,,,,ティーエスジー,0
2212,8220001026155,新規,0,2024-08-06,2024-08-06,株式会社アヴィネス,,株式会社,石川県,金沢市,高柳町一字１４番地１,,17,201,9200005,,,,,,,2024-08-06,1,,,,,アヴィネス,0
2215,8240001063659,新規,0,2024-08-06,2024-08-06,株式会社Ｔ．ＣＯＮＮＥＣＴ,,株式会社,広島県,福山市,神辺町字上御領１３６１番地８,,34,207,7202111,,,,,,,2024-08-06,1,,,,,ティーコネクト,0
2216,8240001063667,新規,0,2024-08-06,2024-08-06,株式会社ゴンリード,,株式会社,広島県,広島市中区,大手町１丁目１番２０号相生橋ビル７階Ａ号室,,34,101,7300051,,,,,,,2024-08-06,1,,,,,ゴンリード,0
2218,8240003006789,新規,0,2024-08-06,2024-08-06,合同会社ｇｒａｂ　ｍｉｎｅ,,合同会社,広島県,東広島市,西条町寺家６５０６番地３－３０１号,,34,212,7390041,,,,,,,2024-08-06,1,,,,,グラブマイン,0
2220,8240005015805,新規,0,2024-08-06,2024-08-06,特定非営利活動法人てしろでともに,,その他の設立登記法人,広島県,福山市,南手城町４丁目９番３０号,,34,207,7210963,,,,,,,2024-08-06,1,,,,,テシロデトモニ,0
2225,8260001039335,新規,0,2024-08-06,2024-08-06,トクラグローバルソリューションズ株式会社,,株式会社,岡山県,倉敷市,水江１５４４番地１,,33,202,7100802,,,,,,,2024-08-06,1,,,,,トクラグローバルソリューションズ,0
2226,8260001039351,新規,0,2024-08-06,2024-08-06,株式会社ＣＨＩＬＬ,,株式会社,岡山県,岡山市北区,神田町１丁目８番９号,,33,101,7000935,,,,,,,2024-08-06,1,,,,,チル,0
2227,8260003004849,新規,0,2024-08-06,2024-08-06,バンソウシャテック合同会社,,合同会社,岡山県,倉敷市,亀島１丁目２６番７１号,,33,202,7128013,,,,,,,2024-08-06,1,,,,,バンソウシャテック,0
2228,8270001009023,新規,0,2024-08-06,2024-08-06,株式会社ＴＯＴＴＯＲＩ星乃丘ワイナリー,,株式会社,鳥取県,東伯郡琴浦町,大字槻下８３３番地２５,,31,371,6892305,,,,,,,2024-08-06,1,,,,,トットリホシノオカワイナリー,0
2232,8290001106801,新規,0,2024-08-06,2024-08-06,シマザキ技建株式会社,,株式会社,福岡県,大川市,大字大野島１２６４番地１,,40,212,8310045,,,,,,,2024-08-06,1,,,,,シマザキギケン,0
2233,8290001106826,新規,0,2024-08-06,2024-08-06,ＴＯＰ　ＨＯＵＳＥ株式会社,,株式会社,福岡県,福岡市早良区,内野１丁目４番２３号,,40,137,8111123,,,,,,,2024-08-06,1,,,,,トップハウス,0
2236,8290005019479,新規,0,2024-08-06,2024-08-06,一般社団法人ケセラセラ,,その他の設立登記法人,福岡県,久留米市,国分町１６２１番地宮崎ビル２Ｆ,,40,203,8390863,,,,,,,2024-08-06,1,,,,,ケセラセラ,0
2238,8290801030770,新規,0,2024-08-06,2024-08-06,株式会社三愛,,株式会社,福岡県,北九州市八幡西区,穴生１丁目６番４－３０１号,,40,109,8060049,,,,,,,2024-08-06,1,,,,,サンアイ,0
2239,8300001013863,新規,0,2024-08-06,2024-08-06,株式会社ＳＵＮ　ＲＩＣＨＥ,,株式会社,佐賀県,唐津市,和多田海士町５番地２３,,41,202,8470071,,,,,,,2024-08-06,1,,,,,サンリーチェ,0
2240,8300003002162,新規,0,2024-08-06,2024-08-06,合同会社アークシステム,,合同会社,佐賀県,佐賀市,久保田町大字新田３０７１番地５３,,41,201,8490203,,,,,,,2024-08-06,1,,,,,アークシステム,0
2242,8320001020651,新規,0,2024-08-06,2024-08-06,株式会社小売りのミカタ,,株式会社,大分県,大分市,大道町２丁目３番２号,,44,201,8700822,,,,,,,2024-08-06,1,,,,,コウリノミカタ,0
2243,8320003004438,新規,0,2024-08-06,2024-08-06,合同会社ときどき晴れ,,合同会社,大分県,大分市,高城本町５番３０－２０３号,,44,201,8700157,,,,,,,2024-08-06,1,,,,,トキドキハレ,0
2244,8320003004446,新規,0,2024-08-06,2024-08-06,合同会社誉警備,,合同会社,大分県,中津市,大字東浜１７４番地２,,44,203,8710006,,,,,,,2024-08-06,1,,,,,ホマレケイビ,0
2245,8330001032340,新規,0,2024-08-06,2024-08-06,株式会社火ノ国アニメーション,,株式会社,熊本県,熊本市中央区,坪井２丁目１番４２号ＳＤＫ熊本ビル５Ｆ,,43,101,8600863,,,,,,,2024-08-06,1,,,,,ヒノクニアニメーション,0
2246,8330003010501,新規,0,2024-08-06,2024-08-06,オフィスＺＥＲＯ合同会社,,合同会社,熊本県,熊本市南区,馬渡１丁目１６－１４－９０５,,43,104,8620968,,,,,,,2024-08-06,1,,,,,オフィスゼロ,0
2250,8350001019113,新規,0,2024-08-06,2024-08-06,株式会社山元会計,,株式会社,宮崎県,都城市,上長飯町５１８６番地７,,45,202,8850042,,,,,,,2024-08-06,1,,,,,ヤマモトカイケイ,0
2251,8360001034020,新規,0,2024-08-06,2024-08-06,株式会社Ｇ‐ＷＯＲＫＳ,,株式会社,沖縄県,那覇市,金城４丁目２番１号,,47,201,9010155,,,,,,,2024-08-06,1,,,,,ジーワークス,0
2252,8360003014193,新規,0,2024-08-06,2024-08-06,Ｍｅｓ合同会社,,合同会社,沖縄県,浦添市,牧港３丁目１２番６－１,,47,208,9012131,,,,,,,2024-08-06,1,,,,,エムイーエス,0
2253,8360003014202,新規,0,2024-08-06,2024-08-06,合同会社北谷ベース,,合同会社,沖縄県,中頭郡北谷町,北谷２丁目１１番地５－２０４,,47,326,9040116,,,,,,,2024-08-06,1,,,,,チャタンベース,0
2254,8370001051601,新規,0,2024-08-06,2024-08-06,株式会社エイチ・ティー・ワークス,,株式会社,宮城県,仙台市宮城野区,宮城野１丁目１２－１５,,04,102,9830045,,,,,,,2024-08-06,1,,,,,エイチティーワークス,0
2255,8370003006710,新規,0,2024-08-06,2024-08-06,合同会社Ｐａｉｎ　Ｍｏｎｔａｇｎｅ０３０,,合同会社,宮城県,仙台市青葉区,錦ケ丘１丁目３７番地の３,,04,101,9893123,,,,,,,2024-08-06,1,,,,,パンモンターニュゼロサンゼロ,0
2257,8400001016749,新規,0,2024-08-06,2024-08-06,ｃａｌｍ株式会社,,株式会社,岩手県,花巻市,双葉町７番６号１階,,03,205,0250085,,,,,,,2024-08-06,1,,,,,カルム,0
2258,8420001018826,新規,0,2024-08-06,2024-08-06,株式会社モネクタ,,株式会社,青森県,弘前市,大字西茂森１丁目２４番地９,,02,202,0368273,,,,,,,2024-08-06,1,,,,,モネクタ,0
2263,8430001092382,新規,0,2024-08-06,2024-08-06,株式会社アイド,,株式会社,北海道,岩見沢市,幌向南二条２丁目２０７番地１６,,01,210,0690372,,,,,,,2024-08-06,1,,,,,アイド,0
2264,8430001092408,新規,0,2024-08-06,2024-08-06,プロメーロ株式会社,,株式会社,北海道,札幌市白石区,川下二条６丁目２番３８号,,01,104,0030862,,,,,,,2024-08-06,1,,,,,プロメーロ,0
2265,8430001092416,新規,0,2024-08-06,2024-08-06,株式会社メロリス,,株式会社,北海道,札幌市中央区,南十一条西１４丁目１番３１号コローレ山鼻５０７号,,01,101,0640811,,,,,,,2024-08-06,1,,,,,メロリス,0
2266,8430001092432,新規,0,2024-08-06,2024-08-06,株式会社あると,,株式会社,北海道,札幌市中央区,南四条西２７丁目１番地,,01,101,0640804,,,,,,,2024-08-06,1,,,,,アルト,0
2275,8490001010842,新規,0,2024-08-06,2024-08-06,株式会社分ち合ふ農園,,株式会社,高知県,安芸市,赤野乙２９３３番地１６５,,39,203,7840034,,,,,,,2024-08-06,1,,,,,,0
2276,8500001025806,新規,0,2024-08-06,2024-08-06,株式会社ＢＯＮＤ,,株式会社,愛媛県,松山市,畑寺１丁目４番３７号,,38,201,7900913,,,,,,,2024-08-06,1,,,,,ボンド,0
2283,9010001246995,新規,0,2024-08-06,2024-08-06,株式会社キャリア・ドアーズ,,株式会社,東京都,千代田区,東神田１丁目２番２号,,13,101,1010031,,,,,,,2024-08-06,1,,,,,キャリアドアーズ,0
2284,9010001247093,新規,0,2024-08-06,2024-08-06,わたしはじまる株式会社,,株式会社,東京都,中央区,八丁堀３丁目１１番１３－１００３号,,13,102,1040032,,,,,,,2024-08-06,1,,,,,ワタシハジマル,0
2285,9010001247135,新規,0,2024-08-06,2024-08-06,大地地産株式会社,,株式会社,東京都,文京区,大塚５丁目８番１２－３０２号,,13,105,1120012,,,,,,,2024-08-06,1,,,,,ダイチチサン,0
2286,9010001247218,新規,0,2024-08-06,2024-08-06,株式会社プロファインド,,株式会社,東京都,千代田区,紀尾井町３番１０号,,13,101,1020094,,,,,,,2024-08-06,1,,,,,プロファインド,0
2288,9010003044464,新規,0,2024-08-06,2024-08-06,合同会社花水木,,合同会社,東京都,中央区,銀座１丁目１２番４号Ｎ＆ＥＢＬＤ．７階,,13,102,1040061,,,,,,,2024-08-06,1,,,,,ハナミズキ,0
2289,9010101016274,新規,0,2024-08-06,2024-08-06,株式会社ｆａｉｒ,,株式会社,東京都,八王子市,西寺方町１０１９番地６９,,13,201,1920153,,,,,,,2024-08-06,1,,,,,フェア,0
2291,9010105002287,新規,0,2024-08-06,2024-08-06,ベル司法書士法人,,その他の設立登記法人,東京都,八王子市,並木町２番８号ファミール八王子並木町９０２号,,13,201,1930831,,,,,,,2024-08-06,1,,,,,ベル,0
2296,9010403033141,新規,0,2024-08-06,2024-08-06,合同会社ｗｅｂ３事業企画,,合同会社,東京都,港区,新橋１丁目１２番９号７階ビジネスエアポート新橋,,13,103,1050004,,,,,,,2024-08-06,1,,,,,ウェブスリージギョウキカク,0
2297,9010403033199,新規,0,2024-08-06,2024-08-06,合同会社フォーシーアコンサルティング,,合同会社,東京都,港区,麻布台２丁目３－７メゾンドヴィレ麻布台１１０６号,,13,103,1060041,,,,,,,2024-08-06,1,,,,,フォーシーアコンサルティング,0
2298,9010405023454,新規,0,2024-08-06,2024-08-06,一般社団法人Ｔｈｅ　Ｃｅｌｌ　Ｃｌｉｎｉｃ,,その他の設立登記法人,東京都,港区,赤坂３丁目２番１２号,,13,103,1070052,,,,,,,2024-08-06,1,,,,,ザセルクリニック,0
2304,9010701046365,新規,0,2024-08-06,2024-08-06,ステラキャリアズ株式会社,,株式会社,東京都,品川区,上大崎３丁目２番１号,,13,109,1410021,,,,,,,2024-08-06,1,,,,,ステラキャリアズ,0
2307,9010803005046,新規,0,2024-08-06,2024-08-06,Ｍ　Ａｄｖｉｓｏｒｙ合同会社,,合同会社,東京都,大田区,千鳥３丁目２１－６－６０６,,13,111,1460083,,,,,,,2024-08-06,1,,,,,エムアドバイザリー,0
2308,9010901055752,新規,0,2024-08-06,2024-08-06,株式会社たすきづな,,株式会社,東京都,世田谷区,上野毛４丁目３２番１３号上野毛アンクレー１０１,,13,112,1580093,,,,,,,2024-08-06,1,,,,,タスキヅナ,0
2311,9011001163925,新規,0,2024-08-06,2024-08-06,ルネッサンス・インベストメンツ株式会社,,株式会社,東京都,渋谷区,恵比寿４丁目２０番３号恵比寿ガーデンプレイスタワー,,13,113,1500013,,,,,,,2024-08-06,1,,,,,ルネッサンスインベストメンツ,0
2314,9011101108359,新規,0,2024-08-06,2024-08-06,ｐｏｋｋｅ株式会社,,株式会社,東京都,新宿区,西新宿３丁目３番１３号西新宿水間ビル６階,,13,104,1600023,,,,,,,2024-08-06,1,,,,,ポッケ,0
2320,9011401026302,新規,0,2024-08-06,2024-08-06,株式会社漢塾,,株式会社,東京都,板橋区,前野町３丁目４７－２,,13,119,1740063,,,,,,,2024-08-06,1,,,,,オトコジュク,0
2321,9011401026327,新規,0,2024-08-06,2024-08-06,株式会社Ｆａｍｉｌｉａ,,株式会社,東京都,板橋区,徳丸２丁目４番１１号メゾン小田１０１号,,13,119,1750083,,,,,,,2024-08-06,1,,,,,ファミリア,0
2324,9011501030996,新規,0,2024-08-06,2024-08-06,株式会社タメルラボ．,,株式会社,東京都,北区,西ケ原１丁目７番８号ｖｅｒｔｅｘ駒込,,13,117,1140024,,,,,,,2024-08-06,1,,,,,タメルラボ,0
2325,9011501031004,新規,0,2024-08-06,2024-08-06,Ｈｏｏｈ株式会社,,株式会社,東京都,荒川区,荒川２丁目４５番３号,,13,118,1160002,,,,,,,2024-08-06,1,,,,,フー,0
2330,9012301014033,新規,0,2024-08-06,2024-08-06,株式会社ＢｕｚｚＬｉｍｉｎａｌ,,株式会社,東京都,町田市,原町田６丁目９番８号ＡＥＴＡ町田４Ｆ,,13,209,1940013,,,,,,,2024-08-06,1,,,,,バズリミナル,0
2335,9012401042140,新規,0,2024-08-06,2024-08-06,株式会社ＸｅｎｏＯｎｅ,,株式会社,東京都,武蔵野市,吉祥寺本町２丁目８―４ｉ―ｏｆｆｉｃｅ吉祥寺,,13,203,1800004,,,,,,,2024-08-06,1,,,,,ゼノワン,0
2339,9012801023376,新規,0,2024-08-06,2024-08-06,松本設計コンストラクションマネジメント株式会社,,株式会社,東京都,国立市,中１丁目１４番地５,,13,215,1860004,,,,,,,2024-08-06,1,,,,,マツモトセッケイコンストラクションマネジメント,0
2340,9012805003283,新規,0,2024-08-06,2024-08-06,一般社団法人風の子,,その他の設立登記法人,東京都,国立市,富士見台３丁目７番地,,13,215,1860003,,,,,,,2024-08-06,1,,,,,カゼノコ,0
2343,9013305003625,新規,0,2024-08-06,2024-08-06,行政書士法人オー・エヌ・イー,,その他の設立登記法人,東京都,豊島区,南大塚３丁目２０番１３号ＥＭハウス１階,,13,116,1700005,,,,,,,2024-08-06,1,,,,,オーエヌイー,0
2348,9020001158348,新規,0,2024-08-06,2024-08-06,Ｃｏｎｔｉｎｉｃｓ株式会社,,株式会社,神奈川県,横浜市港北区,高田東４丁目５番２号グリーンメゾン４０１,,14,109,2230065,,,,,,,2024-08-06,1,,,,,コンティニクス,0
2349,9020003026577,新規,0,2024-08-06,2024-08-06,合同会社Ｍｉｓａｎｏ　Ｓｈｏｐ,,合同会社,神奈川県,横浜市都筑区,大丸８－１０－３０４,,14,118,2240061,,,,,,,2024-08-06,1,,,,,ミサノショップ,0
2350,9020003026585,新規,0,2024-08-06,2024-08-06,合同会社ＳＨＩＮＥ,,合同会社,神奈川県,横浜市西区,桜木町６丁目３２番地－９０５号,,14,103,2200021,,,,,,,2024-08-06,1,,,,,シャイン,0
2351,9020003026668,新規,0,2024-08-06,2024-08-06,合同会社ＷｉｌｄＺｅｓｔ,,合同会社,神奈川県,横浜市港北区,新吉田町５５８７－１６,,14,109,2230056,,,,,,,2024-08-06,1,,,,,ワイルドゼスト,0
2355,9021001082918,新規,0,2024-08-06,2024-08-06,ファンフィット株式会社,,株式会社,神奈川県,厚木市,水引２丁目８－２２レブメゾンシミズ参番館１２,,14,212,2430004,,,,,,,2024-08-06,1,,,,,ファンフィット,0
2356,9021003014852,新規,0,2024-08-06,2024-08-06,合同会社ＴＦアーキテクト,,合同会社,神奈川県,藤沢市,石川２７６７番地３４,,14,205,2520815,,,,,,,2024-08-06,1,,,,,,0
2363,9030001161838,新規,0,2024-08-06,2024-08-06,株式会社Ｍｉｃｈｉｋｕｓａ,,株式会社,埼玉県,川口市,飯原町３番１２号,,11,203,3320024,,,,,,,2024-08-06,1,,,,,ミチクサ,0
2365,9030003024860,新規,0,2024-08-06,2024-08-06,アメツチ合同会社,,合同会社,埼玉県,川越市,岸町１丁目４６番地３０‐２０５号室,,11,201,3501131,,,,,,,2024-08-06,1,,,,,アメツチ,0
2366,9030003024869,新規,0,2024-08-06,2024-08-06,合同会社Ｌｉｂｅｒｔａ,,合同会社,埼玉県,東松山市,松本町２丁目１－４９,,11,212,3550014,,,,,,,2024-08-06,1,,,,,リベルタ,0
2368,9030005021798,新規,0,2024-08-06,2024-08-06,一般社団法人サウンドベースボールジャパン,,その他の設立登記法人,埼玉県,所沢市,大字下安松８７６番地１,,11,208,3590024,,,,,,,2024-08-06,1,,,,,サウンドベースボールジャパン,0
2371,9040001134743,新規,0,2024-08-06,2024-08-06,株式会社Ｍｉｒｒｏｒ　Ｆｏｒｃｅ,,株式会社,千葉県,船橋市,夏見４丁目２３－１０－２０４,,12,204,2730865,,,,,,,2024-08-06,1,,,,,ミラーフォース,0
2372,9040001134801,新規,0,2024-08-06,2024-08-06,株式会社未来創建,,株式会社,千葉県,東金市,求名１６番地２５,,12,213,2830002,,,,,,,2024-08-06,1,,,,,ミライソウケン,0
2373,9040001134818,新規,0,2024-08-06,2024-08-06,株式会社ＹＴＭ,,株式会社,千葉県,印西市,宗甫７６番地２５,,12,231,2701333,,,,,,,2024-08-06,1,,,,,ワイティーエム,0
2378,9050001055179,新規,0,2024-08-06,2024-08-06,株式会社ＦａｒｍＯＮ,,株式会社,茨城県,つくば市,みどりの２丁目３１番地１４ピオニエ１０６号室,,08,220,3050881,,,,,,,2024-08-06,1,,,,,ファームオン,0
2379,9050001055187,新規,0,2024-08-06,2024-08-06,株式会社細野ライフカラー,,株式会社,茨城県,取手市,椚木９１０番地,,08,217,3001511,,,,,,,2024-08-06,1,,,,,ホソノライフカラー,0
2381,9050003008589,新規,0,2024-08-06,2024-08-06,むすび開発合同会社,,合同会社,茨城県,つくば市,みどりの１丁目５７番１７号,,08,220,3050881,,,,,,,2024-08-06,1,,,,,ムスビカイハツ,0
2387,9070001042051,新規,0,2024-08-06,2024-08-06,株式会社ＮＥＯ　ＬＩＦＥ　ＨＯＭＥ,,株式会社,群馬県,高崎市,石原町４１１番地９,,10,202,3700864,,,,,,,2024-08-06,1,,,,,ネオライフホーム,0
2389,9080001026425,新規,0,2024-08-06,2024-08-06,株式会社Ｇｒａｎ．ｉ,,株式会社,静岡県,静岡市駿河区,手越原１０２番地の１４,,22,102,4210131,,,,,,,2024-08-06,1,,,,,グランアイ,0
2397,9080403005076,新規,0,2024-08-06,2024-08-06,合同会社ＯｒｃａＩｎｖｅｓｔ,,合同会社,静岡県,浜松市浜名区,寺島３０７０番地の１０,,22,139,4340035,,,,,,,2024-08-06,1,,,,,オルカインベスト,0
2400,9090001018842,新規,0,2024-08-06,2024-08-06,株式会社サノホーム,,株式会社,山梨県,甲府市,湯田１丁目２番３号,,19,201,4000864,,,,,,,2024-08-06,1,,,,,サノホーム,0
2401,9090003002613,新規,0,2024-08-06,2024-08-06,合同会社まなのいえ,,合同会社,山梨県,笛吹市,春日居町国府４３６番９１,,19,211,4060014,,,,,,,2024-08-06,1,,,,,マナノイエ,0
2403,9100001037709,新規,0,2024-08-06,2024-08-06,ＹＫアントレッド株式会社,,株式会社,長野県,松本市,大字島内４２６５番地２,,20,202,3900851,,,,,,,2024-08-06,1,,,,,ワイケイアントレッド,0
2404,9100001037733,新規,0,2024-08-06,2024-08-06,みらい不動産株式会社,,株式会社,長野県,松本市,大字和田３５８４番地,,20,202,3901242,,,,,,,2024-08-06,1,,,,,ミライフドウサン,0
2408,9110001038623,新規,0,2024-08-06,2024-08-06,株式会社忠助,,株式会社,新潟県,十日町市,松之山湯本１３８０番地１,,15,210,9421432,,,,,,,2024-08-06,1,,,,,チュウスケ,0
2418,9120001267221,新規,0,2024-08-06,2024-08-06,桃喜文化株式会社,,株式会社,大阪府,大阪市西淀川区,姫島２丁目４番１０号パークアベニュー２階Ａ室,,27,113,5550033,,,,,,,2024-08-06,1,,,,,トウキブンカ,0
2419,9120001267485,新規,0,2024-08-06,2024-08-06,株式会社Ｍｉｒａｉｚ,,株式会社,大阪府,枚方市,南中振２丁目３５番１号,,27,210,5730094,,,,,,,2024-08-06,1,,,,,ミライズ,0
2420,9120001267510,新規,0,2024-08-06,2024-08-06,株式会社ピーエックス,,株式会社,大阪府,大阪市淀川区,西中島５丁目７番１７号ビジネスヴィップ第二新大阪２０１号室,,27,123,5320011,,,,,,,2024-08-06,1,,,,,ピーエックス,0
2421,9120001267527,新規,0,2024-08-06,2024-08-06,株式会社創成電気防災,,株式会社,大阪府,大阪市大正区,北村１丁目１５番１６号,,27,108,5510032,,,,,,,2024-08-06,1,,,,,ソウセイデンキボウサイ,0
2422,9120001267543,新規,0,2024-08-06,2024-08-06,株式会社Ｍｚｋ,,株式会社,大阪府,守口市,大久保町３丁目３１番９号,,27,209,5700012,,,,,,,2024-08-06,1,,,,,エムゼットケー,0
2423,9120001267551,新規,0,2024-08-06,2024-08-06,株式会社井上高明,,株式会社,大阪府,大阪市北区,中之島６丁目１番３８－４０１０号,,27,127,5300005,,,,,,,2024-08-06,1,,,,,イノウエタカアキ,0
2424,9120001267568,新規,0,2024-08-06,2024-08-06,株式会社ａｔａｋａｎ,,株式会社,大阪府,大阪市北区,梅田１丁目２番２号大阪駅前第２ビル１２－１２,,27,127,5300001,,,,,,,2024-08-06,1,,,,,アタカン,0
2426,9120003027227,新規,0,2024-08-06,2024-08-06,合同会社ＭＡ,,合同会社,大阪府,大阪市天王寺区,勝山１丁目１番２６－６０１号,,27,109,5430043,,,,,,,2024-08-06,1,,,,,エムエー,0
2428,9120101070120,新規,0,2024-08-06,2024-08-06,株式会社Ｎｅｘｉａ,,株式会社,大阪府,堺市中区,福田２２番地リ：エストＩＩ－１０１号,00135827,27,142,5998241,,,,,,,2024-08-06,1,,,,,ネクシア,0
2430,9120103005990,新規,0,2024-08-06,2024-08-06,合同会社ＴＥＲＲＡ,,合同会社,大阪府,泉佐野市,中庄８２９－６,,27,213,5980002,,,,,,,2024-08-06,1,,,,,テラ,0
2432,9120901049553,新規,0,2024-08-06,2024-08-06,株式会社遊心クリエイト,,株式会社,大阪府,高槻市,上田辺町３番９号ＣＡＳＡＭＩＡｄｕｅ２０２号,,27,207,5690805,,,,,,,2024-08-06,1,,,,,ユウシンクリエイト,0
2434,9122001038305,新規,0,2024-08-06,2024-08-06,株式会社ＳＴＵＤＩＯ　Ｍ’ｓ,,株式会社,大阪府,東大阪市,鷹殿町１４番２２号,,27,227,5798036,,,,,,,2024-08-06,1,,,,,スタジオエムズ,0
2441,9130001077644,新規,0,2024-08-06,2024-08-06,株式会社ＧＯＰＡＧＩ,,株式会社,京都府,京都市伏見区,醍醐池田町１番地１,,26,109,6011362,,,,,,,2024-08-06,1,,,,,コパギ,0
2447,9140001135401,新規,0,2024-08-06,2024-08-06,株式会社篠田農園,,株式会社,兵庫県,西脇市,落方町５０２番地の１,,28,213,6770068,,,,,,,2024-08-06,1,,,,,シノダノウエン,0
2448,9140001135442,新規,0,2024-08-06,2024-08-06,株式会社キャリーアップ,,株式会社,兵庫県,神戸市長田区,日吉町６丁目２番１０－５０５号,,28,106,6530039,,,,,,,2024-08-06,1,,,,,キャリーアップ,0
2452,9150003003332,新規,0,2024-08-06,2024-08-06,合同会社ヒノマルキカク,,合同会社,奈良県,桜井市,大字阿部１１４０番地１０１,,29,206,6330054,,,,,,,2024-08-06,1,,,,,ヒノマルキカク,0
2453,9160001026136,新規,0,2024-08-06,2024-08-06,株式会社小梶工業,,株式会社,滋賀県,栗東市,小平井３丁目２番４セレーノ２０２号,,25,208,5203034,,,,,,,2024-08-06,1,,,,,コカジコウギョウ,0
2455,9170001018256,新規,0,2024-08-06,2024-08-06,株式会社ギバーエイト,,株式会社,和歌山県,岩出市,川尻６－８ミムラビル１０２号,,30,209,6496231,,,,,,,2024-08-06,1,,,,,ギバーエイト,0
2463,9180001162573,新規,0,2024-08-06,2024-08-06,株式会社ｓｕｚｕｈｉｒｏ,,株式会社,愛知県,名古屋市名東区,亀の井３丁目１１４番地の４,,23,115,4650094,,,,,,,2024-08-06,1,,,,,スズヒロ,0
2464,9180001162697,新規,0,2024-08-06,2024-08-06,株式会社ＮＥＸＴ　ＦＵＴＵＲＥ,,株式会社,愛知県,海部郡大治町,大字長牧字中道２７番地２,,23,424,4901131,,,,,,,2024-08-06,1,,,,,ネクストフューチャー,0
2465,9180001162739,新規,0,2024-08-06,2024-08-06,株式会社ＲｉｖｅｒＬａｂｏ,,株式会社,愛知県,名古屋市天白区,植田南２丁目２０３番地の１,,23,116,4680053,,,,,,,2024-08-06,1,,,,,リバラボ,0
2468,9180003027139,新規,0,2024-08-06,2024-08-06,合同会社Ｔｈｏｕｇｈｔ,,合同会社,愛知県,名古屋市天白区,野並３丁目２３３番地セイント野並１０２,,23,116,4680045,,,,,,,2024-08-06,1,,,,,ソート,0
2469,9180003027155,新規,0,2024-08-06,2024-08-06,合同会社グリーン,,合同会社,愛知県,知多市,新舞子字北畑５１番地,,23,224,4780036,,,,,,,2024-08-06,1,,,,,グリーン,0
2470,9180003027188,新規,0,2024-08-06,2024-08-06,合同会社ＡＳＣＥＬＬＡ,,合同会社,愛知県,名古屋市天白区,平針南２丁目１０２番地平針住宅１街区Ａ棟５０６号,,23,116,4680020,,,,,,,2024-08-06,1,,,,,アスケラ,0
2475,9190001031554,新規,0,2024-08-06,2024-08-06,株式会社ネオアドバンス,,株式会社,三重県,桑名市,長島町福吉１５４番地,,24,205,5111137,,,,,,,2024-08-06,1,,,,,ネオアドバンス,0
2476,9190003004764,新規,0,2024-08-06,2024-08-06,合同会社ワイズ,,合同会社,三重県,津市,垂水１３７６番地２,,24,201,5140821,,,,,,,2024-08-06,1,,,,,ワイズ,0
2477,9210003001825,新規,0,2024-08-06,2024-08-06,合同会社Ｃｏｃｏ　Ｉｍｐａｃｔ,,合同会社,福井県,福井市,二の宮１丁目５番１０号,,18,201,9100015,,,,,,,2024-08-06,1,,,,,ココインパクト,0
2481,9240001063658,新規,0,2024-08-06,2024-08-06,株式会社Ｅｎ‐ＳｏＢｌｏｏｍ,,株式会社,広島県,呉市,中通２丁目７番１－６０３号,,34,202,7370046,,,,,,,2024-08-06,1,,,,,エンソーブルーム,0
2483,9240003006796,新規,0,2024-08-06,2024-08-06,合同会社ａｓａｇａｏ,,合同会社,広島県,福山市,三吉町南２丁目４番２２号月光福山中央壱番館２０２号室,,34,207,7200032,,,,,,,2024-08-06,1,,,,,アサガオ,0
2484,9250001020765,新規,0,2024-08-06,2024-08-06,株式会社高松塗装,,株式会社,山口県,下関市,稗田中町１９番２－３号エクリュ稗田Ｃ－８号,,35,201,7510856,,,,,,,2024-08-06,1,,,,,タカマツトソウ,0
2485,9260001039350,新規,0,2024-08-06,2024-08-06,スアルティ株式会社,,株式会社,岡山県,岡山市北区,高柳西町１１番２２号,,33,101,7000035,,,,,,,2024-08-06,1,,,,,スアルティ,0
2491,9290001106593,新規,0,2024-08-06,2024-08-06,株式会社ＬＵＭＩＮＯＰＡＴＨ,,株式会社,福岡県,福岡市博多区,美野島３丁目１４番５号,,40,132,8120017,,,,,,,2024-08-06,1,,,,,ルミノパス,0
2492,9290001106610,新規,0,2024-08-06,2024-08-06,アウルズワン株式会社,,株式会社,福岡県,福岡市西区,大字吉武８３３番地１,,40,135,8190036,,,,,,,2024-08-06,1,,,,,アウルズワン,0
2493,9290001106750,新規,0,2024-08-06,2024-08-06,株式会社秀建工業,,株式会社,福岡県,福岡市西区,野方４丁目１４番１３号,,40,135,8190043,,,,,,,2024-08-06,1,,,,,シュウケンコウギョウ,0
2494,9290001106791,新規,0,2024-08-06,2024-08-06,株式会社ＳＯＨ,,株式会社,福岡県,三潴郡大木町,大字笹渕１０２６番地１９,,40,522,8300401,,,,,,,2024-08-06,1,,,,,ソー,0
2495,9290001106833,新規,0,2024-08-06,2024-08-06,博東工業株式会社,,株式会社,福岡県,福岡市東区,馬出５丁目１９番３号,,40,131,8120054,,,,,,,2024-08-06,1,,,,,ハクトウコウギョウ,0
2498,9290003015603,新規,0,2024-08-06,2024-08-06,ＲＯＵＴＥ　ＺＥＲＯ８合同会社,,合同会社,福岡県,福岡市中央区,高砂１丁目２０番１４号スコーレ高砂４０２号,,40,133,8100011,,,,,,,2024-08-06,1,,,,,ルートゼロエイト,0
2499,9290003015652,新規,0,2024-08-06,2024-08-06,合同会社ＯＤＯ,,合同会社,福岡県,福岡市西区,今津４８０１番地５６,,40,135,8190165,,,,,,,2024-08-06,1,,,,,オーディーオー,0
2500,9300001013862,新規,0,2024-08-06,2024-08-06,株式会社葉隠会計社,,株式会社,佐賀県,佐賀市,鍋島４丁目３番１号,,41,201,8490937,,,,,,,2024-08-06,1,,,,,ハガクレカイケイシャ,0
2501,9300003002161,新規,0,2024-08-06,2024-08-06,合同会社ＴＲＤ,,合同会社,佐賀県,神埼市,神埼町的３６０番地７,,41,210,8420123,,,,,,,2024-08-06,1,,,,,ティーアールディー,0
2502,9310001019140,新規,0,2024-08-06,2024-08-06,株式会社ＳＦＩグループ,,株式会社,長崎県,東彼杵郡波佐見町,井石郷１５５５番地１,,42,323,8593711,,,,,,,2024-08-06,1,,,,,エスエフアイグループ,0
2503,9310005008783,新規,0,2024-08-06,2024-08-06,一般社団法人しまんなかＫＩＤＳ,,その他の設立登記法人,長崎県,五島市,富江町黒瀬５１９番地１０,,42,211,8530211,,,,,,,2024-08-06,1,,,,,シマンナカキッズ,0
2507,9330001032331,新規,0,2024-08-06,2024-08-06,興南エクスプレス株式会社,,株式会社,熊本県,熊本市南区,城南町隈庄７９６番地８,,43,104,8614203,,,,,,,2024-08-06,1,,,,,コウナンエクスプレス,0
2511,9340002021423,新規,0,2024-08-06,2024-08-06,森山絹織物有限会社,,有限会社,鹿児島県,奄美市,名瀬柳町１２番１１号,,46,222,8940032,,,,,,,2024-08-06,1,,,,,モリヤマキヌオリモノ,0
2514,9360003014201,新規,0,2024-08-06,2024-08-06,合同会社Ｍｅａｔ　Ｌａｂ,,合同会社,沖縄県,国頭郡金武町,字屋嘉２７４０－８０７,,47,314,9041203,,,,,,,2024-08-06,1,,,,,ミートラボ,0
2517,9370001051609,新規,0,2024-08-06,2024-08-06,株式会社ＪＯＫＥＲ,,株式会社,宮城県,仙台市青葉区,下愛子字町３番地の２－Ｂ号,,04,101,9893125,,,,,,,2024-08-06,1,,,,,ジョーカー,0
2523,9400003003307,新規,0,2024-08-06,2024-08-06,合同会社菊丸,,合同会社,岩手県,下閉伊郡山田町,織笠第１１地割２１４番地４,,03,482,0281361,,,,,,,2024-08-06,1,,,,,キクマル,0
2524,9420001018825,新規,0,2024-08-06,2024-08-06,株式会社Ｃｈｏｕｅｔｔｅ,,株式会社,青森県,青森市,浪館前田３丁目２２番９号,,02,201,0380024,,,,,,,2024-08-06,1,,,,,シュエット,0
2528,9430001092398,新規,0,2024-08-06,2024-08-06,株式会社ｅｎｇｒａｖｅ,,株式会社,北海道,札幌市中央区,宮の森四条１０丁目５番３号,,01,101,0640954,,,,,,,2024-08-06,1,,,,,エングレイヴ,0
2531,9430003016644,新規,0,2024-08-06,2024-08-06,令和コーポレーション合同会社,,合同会社,北海道,岩見沢市,一条東４丁目２番地５,,01,210,0680001,,,,,,,2024-08-06,1,,,,,レイワコーポレーション,0
2537,9450003002527,新規,0,2024-08-06,2024-08-06,合同会社ＭＧＲ,,合同会社,北海道,旭川市,七条通６丁目２４２８番地,,01,204,0700037,,,,,,,2024-08-06,1,,,,,エムジーアール,0
2539,9490001010841,新規,0,2024-08-06,2024-08-06,えれ株式会社,,株式会社,高知県,高岡郡日高村,下分２８８５番地２,,39,410,7812151,,,,,,,2024-08-06,1,,,,,エレ,0
2544,9500001025805,新規,0,2024-08-06,2024-08-06,株式会社２４８,,株式会社,愛媛県,伊予郡松前町,大字北川原１４５０番地１,,38,401,7913131,,,,,,,2024-08-06,1,,,,,ニヨンハチ,0
2546,9700150126672,新規,0,2024-08-06,2024-08-06,ＲＥＡＬＴＥＣＨＳＥＭＩＣＯＮＤＵＣＴＯＲＴＥＣＨＮＯＬＯＧＹＬＩＭＩＴＥＤ,,外国会社等,,,,,,,,ＦＬＡＴ／ＲＭ０２，８／Ｆ．，ＮＥＷＴＲＥＡＳＵＲＥＣＥＮＴＥＲ，１０ＮＧＦＯＮＧＳＴＲＥＥＴ，ＳＡＮＰＯＫＯＮＧ，ＫＯＷＬＯＯＭ，ＨＯＮＧＫＯＮＧ．,,,,,,2024-08-06,1,,,,,リアルテツクセミコンダクターテクノロジーリミテツド,0
