sequenceNumber,corporateNumber,process,correct,updateDate,changeDate,name,nameImageId,kind,prefectureName,cityName,streetNumber,addressImageId,prefectureCode,cityCode,postCode,addressOutside,addressOutsideImageId,closeDate,closeCause,successorCorporateNumber,changeCause,assignmentDate,latest,enName,enPrefectureName,enCityName,enAddressOutside,furigana,hihyoji
7,1010001233431,新規,0,2023-03-03,2023-03-03,株式会社インタートレード,,株式会社,東京都,千代田区,飯田橋４丁目５番１２号,,13,101,1020072,,,,,,,2023-03-03,1,,,,,インタートレード,0
8,1010001233464,新規,0,2023-03-03,2023-03-03,シグナルメディカル株式会社,,株式会社,東京都,中央区,日本橋兜町１８番５号,,13,102,1030026,,,,,,,2023-03-03,1,,,,,シグナルメディカル,0
10,1010003039926,新規,0,2023-03-03,2023-03-03,ＪＦ１１淀屋橋合同会社,,合同会社,東京都,千代田区,丸の内３丁目１番１号東京共同会計事務所内,,13,101,1000005,,,,,,,2023-03-03,1,,,,,ジェイエフイレブンヨドヤバシ,0
11,1010003039959,新規,0,2023-03-03,2023-03-03,クレジット・ギャランティ７号合同会社,,合同会社,東京都,千代田区,内神田２丁目２番６号５階あすな会計事務所内,,13,101,1010047,,,,,,,2023-03-03,1,,,,,クレジットギャランティナナゴウ,0
12,1010005036319,新規,0,2023-03-03,2023-03-03,税理士法人ケイガン,,その他の設立登記法人,東京都,中央区,新富２丁目１番３号中央時宝ビル３階,,13,102,1040041,,,,,,,2023-03-03,1,,,,,ケイガン,0
13,1010005036327,新規,0,2023-03-03,2023-03-03,一般社団法人ＳＱＳ工法協会,,その他の設立登記法人,東京都,千代田区,神田小川町３丁目７番５号株式会社サーフェステクノロジー内,,13,101,1010052,,,,,,,2023-03-03,1,,,,,エスキューエスコウホウキョウカイ,0
19,1010401172758,新規,0,2023-03-03,2023-03-03,株式会社クラウドチャージ,,株式会社,東京都,港区,愛宕２丁目５番１号愛宕グリーンヒルズＭＯＲＩタワー２７階,,13,103,1050002,,,,,,,2023-03-03,1,,,,,クラウドチャージ,0
20,1010401172857,新規,0,2023-03-03,2023-03-03,株式会社アールドットコム,,株式会社,東京都,港区,六本木３丁目１３番１４号,,13,103,1060032,,,,,,,2023-03-03,1,,,,,アールドットコム,0
21,1010401172865,新規,0,2023-03-03,2023-03-03,Ｎｅｘｔ　ＡＩ株式会社,,株式会社,東京都,港区,愛宕２丁目５番１号愛宕グリーンヒルズＭＯＲＩタワー３４Ｆ,,13,103,1050002,,,,,,,2023-03-03,1,,,,,ネクストエーアイ,0
22,1010401172873,新規,0,2023-03-03,2023-03-03,株式会社ＡＴＨＥＮＡ　ＳＱＵＡＲＥ,,株式会社,東京都,港区,赤坂４丁目４－８ＶＯＲＴ赤坂ＩＩ２Ｆ,00129624,13,103,1070052,,,,,,,2023-03-03,1,,,,,アセナスクエア,0
23,1010401172923,新規,0,2023-03-03,2023-03-03,株式会社Ｈｉｇｈ　Ｄｒａｗ,,株式会社,東京都,港区,南麻布４丁目１番１４－５０４号,,13,103,1060047,,,,,,,2023-03-03,1,,,,,ハイドロー,0
27,1010501050087,新規,0,2023-03-03,2023-03-03,ｋ．ｔ．ｍ　ｌｉｆ株式会社,,株式会社,東京都,台東区,台東３丁目３３番３号,,13,106,1100016,,,,,,,2023-03-03,1,,,,,ケーティーエムライフ,0
28,1010501050095,新規,0,2023-03-03,2023-03-03,千田スマート株式会社,,株式会社,東京都,台東区,小島２丁目２０番１１号ＬＩＧビル１Ｆ,,13,106,1110056,,,,,,,2023-03-03,1,,,,,センダスマート,0
32,1010603010047,新規,0,2023-03-03,2023-03-03,４ＷＧ　Ｇｌｏｂａｌ合同会社,,合同会社,東京都,江東区,北砂３丁目４番３３－５０６号,,13,108,1360073,,,,,,,2023-03-03,1,,,,,フォーダブルジーグローバル,0
34,1010701043931,新規,0,2023-03-03,2023-03-03,株式会社ティーハイブ,,株式会社,東京都,品川区,東五反田２丁目８番５号ＫＮビル５Ｆ,,13,109,1410022,,,,,,,2023-03-03,1,,,,,ティーハイブ,0
35,1010901052658,新規,0,2023-03-03,2023-03-03,株式会社グロースＪ,,株式会社,東京都,世田谷区,代田６丁目１８－１７下北沢アパートメンツＦ,,13,112,1550033,,,,,,,2023-03-03,1,,,,,グロースジェイ,0
36,1010903007998,新規,0,2023-03-03,2023-03-03,タンザニアコミューンエナジー合同会社,,合同会社,東京都,世田谷区,太子堂２丁目１７－５佐藤ビル３階,,13,112,1540004,,,,,,,2023-03-03,1,,,,,タンザニアコミューンエナジー,0
37,1010903008014,新規,0,2023-03-03,2023-03-03,合同会社Ｓｋｙアーキテクト不動産,,合同会社,東京都,世田谷区,上祖師谷４丁目２パークウエスト３棟４１８,,13,112,1570065,,,,,,,2023-03-03,1,,,,,スカイアーキテクトフドウサン,0
39,1011001152844,新規,0,2023-03-03,2023-03-03,ＨＡＺＩＭＥ株式会社,,株式会社,東京都,渋谷区,桜丘町２３番１７号シティコート桜丘４０８,,13,113,1500031,,,,,,,2023-03-03,1,,,,,ハジメ,0
40,1011001152852,新規,0,2023-03-03,2023-03-03,株式会社閃光舎,,株式会社,東京都,渋谷区,神泉町１０番１５号,,13,113,1500045,,,,,,,2023-03-03,1,,,,,センコウシャ,0
41,1011001152877,新規,0,2023-03-03,2023-03-03,ＥＩＬ　ＧＬＯＢＡＬ株式会社,,株式会社,東京都,渋谷区,富ヶ谷１丁目１４番１４号４階,,13,113,1510063,,,,,,,2023-03-03,1,,,,,イアイエルグローバル,0
42,1011001152885,新規,0,2023-03-03,2023-03-03,シブヤスタートアップス株式会社,,株式会社,東京都,渋谷区,神南１丁目１１番３号,,13,113,1500041,,,,,,,2023-03-03,1,,,,,シブヤスタートアップス,0
43,1011001152902,新規,0,2023-03-03,2023-03-03,Ｂｒｙｃｅ株式会社,,株式会社,東京都,渋谷区,神宮前６丁目１９番１５号,,13,113,1500001,,,,,,,2023-03-03,1,,,,,ブライス,0
46,1011003016403,新規,0,2023-03-03,2023-03-03,ａｍｉＰｒｏ合同会社,,合同会社,東京都,渋谷区,神宮前６丁目２３番４号桑野ビル２階,,13,113,1500001,,,,,,,2023-03-03,1,,,,,アミプロ,0
49,1011101102014,新規,0,2023-03-03,2023-03-03,株式会社オオニシ,,株式会社,東京都,新宿区,西新宿３丁目３番１３号西新宿水間ビル６階,,13,104,1600023,,,,,,,2023-03-03,1,,,,,オオニシ,0
51,1011103012756,新規,0,2023-03-03,2023-03-03,エフスリー合同会社,,合同会社,東京都,新宿区,市谷甲良町２番１５号,,13,104,1620856,,,,,,,2023-03-03,1,,,,,エフスリー,0
52,1011103012764,新規,0,2023-03-03,2023-03-03,合同会社Ｌｉｂｕｉｄ,,合同会社,東京都,新宿区,西新宿３丁目３番１３号西新宿水間ビル６階,,13,104,1600023,,,,,,,2023-03-03,1,,,,,リビッド,0
53,1011105010576,新規,0,2023-03-03,2023-03-03,医療法人社団真輝会,,その他の設立登記法人,東京都,新宿区,歌舞伎町１丁目６番１号シロービル４階,,13,104,1600021,,,,,,,2023-03-03,1,,,,,シンキカイ,0
54,1011201024471,新規,0,2023-03-03,2023-03-03,株式会社ＣＯＴＡＰｉ,,株式会社,東京都,中野区,中野６丁目２１番１号,,13,114,1640001,,,,,,,2023-03-03,1,,,,,コタピ,0
64,1011801041998,新規,0,2023-03-03,2023-03-03,興寶貿易株式会社,,株式会社,東京都,足立区,梅島３丁目３４－６興和ビル１０１号室,,13,121,1210816,,,,,,,2023-03-03,1,,,,,コウホウボウエキ,0
65,1011801042014,新規,0,2023-03-03,2023-03-03,株式会社モチヅキ,,株式会社,東京都,足立区,六木３丁目５０番１号－１,,13,121,1210052,,,,,,,2023-03-03,1,,,,,モチヅキ,0
68,1012401040234,新規,0,2023-03-03,2023-03-03,株式会社シグマプラス,,株式会社,東京都,稲城市,若葉台３丁目１番地の１,,13,225,2060824,,,,,,,2023-03-03,1,,,,,シグマプラス,0
78,1020001150469,新規,0,2023-03-03,2023-03-03,株式会社ＳＩＤＱ,,株式会社,神奈川県,横浜市中区,石川町３丁目１０８番地２,,14,104,2310868,,,,,,,2023-03-03,1,,,,,スィドゥク,0
79,1020001150477,新規,0,2023-03-03,2023-03-03,シンヨコベース株式会社,,株式会社,神奈川県,横浜市港北区,新横浜１丁目１６番地４,,14,109,2220033,,,,,,,2023-03-03,1,,,,,シンヨコベース,0
80,1020001150519,新規,0,2023-03-03,2023-03-03,タナベコーポレーション株式会社,,株式会社,神奈川県,横浜市中区,山下町７１番地２,,14,104,2310023,,,,,,,2023-03-03,1,,,,,タナベコーポレーション,0
81,1020001150527,新規,0,2023-03-03,2023-03-03,株式会社ＴＳ不動産,,株式会社,神奈川県,横浜市港北区,新横浜３丁目１８番地６新横浜ＴＳビル６階,,14,109,2220033,,,,,,,2023-03-03,1,,,,,ティーエスフドウサン,0
84,1020003023433,新規,0,2023-03-03,2023-03-03,合同会社うるるはあと,,合同会社,神奈川県,横浜市瀬谷区,橋戸３丁目６２番１０号,,14,114,2460037,,,,,,,2023-03-03,1,,,,,ウルルハアト,0
86,1021001078353,新規,0,2023-03-03,2023-03-03,株式会社トータルコミュニケーションズ,,株式会社,神奈川県,伊勢原市,上粕屋１５１５番地の４グランドヒルズ２０２号,,14,214,2591141,,,,,,,2023-03-03,1,,,,,トータルコミュニケーションズ,0
88,1021003012839,新規,0,2023-03-03,2023-03-03,ｋｉｉｔｏｓ　ａｉｎａ合同会社,,合同会社,神奈川県,相模原市緑区,西橋本１丁目２１番６－３０４号,,14,151,2520131,,,,,,,2023-03-03,1,,,,,キーストアイナ,0
89,1021003012847,新規,0,2023-03-03,2023-03-03,スタンダードグリーン合同会社,,合同会社,神奈川県,海老名市,門沢橋３丁目１７番１号,,14,215,2430426,,,,,,,2023-03-03,1,,,,,スタンダードグリーン,0
96,1030001152638,新規,0,2023-03-03,2023-03-03,株式会社ＰＡさいたま,,株式会社,埼玉県,さいたま市中央区,下落合６丁目１８番１７号４０２号室,,11,105,3380002,,,,,,,2023-03-03,1,,,,,ピーエーサイタマ,0
97,1030001152670,新規,0,2023-03-03,2023-03-03,株式会社ＢＩＬＬＳ,,株式会社,埼玉県,草加市,谷塚上町１６３番地４,,11,221,3400024,,,,,,,2023-03-03,1,,,,,ビルス,0
98,1030001152695,新規,0,2023-03-03,2023-03-03,株式会社５,,株式会社,埼玉県,和光市,諏訪４番１５号,,11,229,3510102,,,,,,,2023-03-03,1,,,,,ファイブ,0
99,1030001152712,新規,0,2023-03-03,2023-03-03,株式会社Ｒｅｖｉｖａｌ,,株式会社,埼玉県,川口市,大字道合２８１番地の９,,11,203,3330835,,,,,,,2023-03-03,1,,,,,リバイバル,0
100,1030001152720,新規,0,2023-03-03,2023-03-03,株式会社彩り,,株式会社,埼玉県,さいたま市南区,文蔵２丁目２３番１－２１０号,,11,108,3360025,,,,,,,2023-03-03,1,,,,,イロドリ,0
104,1030003021295,新規,0,2023-03-03,2023-03-03,合同会社ｎａｎｏ,,合同会社,埼玉県,さいたま市桜区,栄和４丁目２６番１号ストリーム栄和Ｂ１０３,,11,106,3380823,,,,,,,2023-03-03,1,,,,,ナノ,0
105,1030003021304,新規,0,2023-03-03,2023-03-03,合同会社ＶＯＩＳ,,合同会社,埼玉県,川越市,泉町２番地２６レーベンスクエアサントレッセ１１２２号室,,11,201,3500026,,,,,,,2023-03-03,1,,,,,ヴォイス,0
106,1030003021312,新規,0,2023-03-03,2023-03-03,合同会社ｋａｚｕグリーンサービス,,合同会社,埼玉県,久喜市,西大輪３７２番地８,,11,232,3400206,,,,,,,2023-03-03,1,,,,,カズグリーンサービス,0
107,1030005021153,新規,0,2023-03-03,2023-03-03,一般社団法人Ｖｉｓｉｏｎ　Ｐｌｕｓ,,その他の設立登記法人,埼玉県,さいたま市大宮区,宮町１丁目６０番地大宮ラクーン３Ｆ,,11,103,3300802,,,,,,,2023-03-03,1,,,,,ヴィジョンプラス,0
113,1040001127300,新規,0,2023-03-03,2023-03-03,株式会社四季,,株式会社,千葉県,袖ケ浦市,蔵波２９２２番地９１,,12,229,2990243,,,,,,,2023-03-03,1,,,,,シキ,0
116,1040003022094,新規,0,2023-03-03,2023-03-03,健生工業合同会社,,合同会社,千葉県,市原市,君塚３丁目２０番１４号,,12,219,2900051,,,,,,,2023-03-03,1,,,,,ケンセイコウギョウ,0
117,1040003022103,新規,0,2023-03-03,2023-03-03,合同会社ＵＮＩ,,合同会社,千葉県,千葉市中央区,栄町２４番９号,,12,101,2600016,,,,,,,2023-03-03,1,,,,,ユニ,0
118,1050001052464,新規,0,2023-03-03,2023-03-03,株式会社Ｇ’ｅｋ,,株式会社,茨城県,神栖市,萩原９１２番地１,,08,232,3140122,,,,,,,2023-03-03,1,,,,,ジーク,0
120,1060001035732,新規,0,2023-03-03,2023-03-03,アイ・クリエート株式会社,,株式会社,栃木県,小山市,大字神鳥谷１８５３番地１,,09,208,3230827,,,,,,,2023-03-03,1,,,,,アイクリエート,0
123,1060003004454,新規,0,2023-03-03,2023-03-03,合同会社セカンド,,合同会社,栃木県,宇都宮市,元今泉１丁目５番１号カーサリラサンテ４０１号,,09,201,3210954,,,,,,,2023-03-03,1,,,,,セカンド,0
126,1070001040186,新規,0,2023-03-03,2023-03-03,株式会社Ｌｕｚ,,株式会社,群馬県,太田市,飯塚町６０６番地３,,10,205,3730817,,,,,,,2023-03-03,1,,,,,ラズ,0
134,1090003002265,新規,0,2023-03-03,2023-03-03,合同会社清水企画,,合同会社,山梨県,甲府市,青沼１丁目１０番１６号,,19,201,4000867,,,,,,,2023-03-03,1,,,,,シミズキカク,0
138,1110001037319,新規,0,2023-03-03,2023-03-03,株式会社Ｔコネクション,,株式会社,新潟県,長岡市,下条町７９番地２,,15,202,9401146,,,,,,,2023-03-03,1,,,,,ティーコネクション,0
149,1120001252882,新規,0,2023-03-03,2023-03-03,株式会社クニカ・リペア,,株式会社,大阪府,大阪市住吉区,帝塚山西２丁目１３番１４号,,27,120,5580052,,,,,,,2023-03-03,1,,,,,クニカリペア,0
150,1120001252908,新規,0,2023-03-03,2023-03-03,株式会社ＨＫＫ,,株式会社,大阪府,大阪市浪速区,難波中３丁目１６番３号,,27,111,5560011,,,,,,,2023-03-03,1,,,,,エイチケーケー,0
151,1120001252916,新規,0,2023-03-03,2023-03-03,株式会社泉州ｒａｘａ,,株式会社,大阪府,大阪市天王寺区,玉造本町５番１７号グランデカワノ真田山９０１号,,27,109,5430013,,,,,,,2023-03-03,1,,,,,センシュウラシャ,0
153,1120003023539,新規,0,2023-03-03,2023-03-03,合同会社えすと,,合同会社,大阪府,大阪市生野区,中川４丁目１８番３号,,27,116,5440005,,,,,,,2023-03-03,1,,,,,エスト,0
154,1120005023495,新規,0,2023-03-03,2023-03-03,一般社団法人オリーバーズ,,その他の設立登記法人,大阪府,大阪市福島区,福島６丁目２４番１６号奥田ビル２階,,27,103,5530003,,,,,,,2023-03-03,1,,,,,オリーバーズ,0
156,1120901047201,新規,0,2023-03-03,2023-03-03,株式会社フットハンド,,株式会社,大阪府,箕面市,粟生間谷東２丁目２４番５号,,27,220,5620022,,,,,,,2023-03-03,1,,,,,フットハンド,0
159,1122001036737,新規,0,2023-03-03,2023-03-03,株式会社ＳＯＲＡ,,株式会社,大阪府,柏原市,本郷５丁目１番４３号,,27,221,5820001,,,,,,,2023-03-03,1,,,,,ソラ,0
162,1130001073799,新規,0,2023-03-03,2023-03-03,株式会社クラフトマネジメント,,株式会社,京都府,京都市中京区,押小路通小川東入古城町３６９番地,,26,104,6040045,,,,,,,2023-03-03,1,,,,,クラフトマネジメント,0
166,1140001129303,新規,0,2023-03-03,2023-03-03,株式会社シーエスエム,,株式会社,兵庫県,神戸市中央区,再度筋町１３番１１号,,28,110,6500005,,,,,,,2023-03-03,1,,,,,シーエスエム,0
167,1140003018792,新規,0,2023-03-03,2023-03-03,合同会社６４,,合同会社,兵庫県,神戸市東灘区,住吉台４番７－１０２号,,28,101,6580062,,,,,,,2023-03-03,1,,,,,ロクヨン,0
169,1140005026496,新規,0,2023-03-03,2023-03-03,一般社団法人Ｊｏｉｎ　Ａｃｔｉｖｉｔｙ　Ｌｉｆｅ,,その他の設立登記法人,兵庫県,神戸市西区,曙町２２番地の１,,28,111,6512134,,,,,,,2023-03-03,1,,,,,ジョインアクティビティライフ,0
181,1180001155163,新規,0,2023-03-03,2023-03-03,株式会社Ｏ．Ｎ．Ｏ,,株式会社,愛知県,名古屋市緑区,大高町字下塩田５番地の３,,23,114,4598001,,,,,,,2023-03-03,1,,,,,オーエヌオー,0
187,1180003024911,新規,0,2023-03-03,2023-03-03,ｅ．ｍ．ｉ合同会社,,合同会社,愛知県,小牧市,大字小牧２３７４番地クレストステージ小牧２０１号,,23,219,4850041,,,,,,,2023-03-03,1,,,,,イーエムアイ,0
192,1180301037144,新規,0,2023-03-03,2023-03-03,株式会社シブヤメッキ,,株式会社,愛知県,西尾市,吉良町荻原川中４８番地２,,23,213,4440524,,,,,,,2023-03-03,1,,,,,シブヤメッキ,0
194,1190003004251,新規,0,2023-03-03,2023-03-03,ＡＩＺＡＨ　ＮＩＰＰＯＮ合同会社,,合同会社,三重県,鈴鹿市,三日市２丁目２８番５号佐野アパート２Ｆ,,24,207,5130807,,,,,,,2023-03-03,1,,,,,アイザーニッポン,0
199,1240001061149,新規,0,2023-03-03,2023-03-03,株式会社建匠,,株式会社,広島県,広島市東区,尾長東３丁目６番１８号,,34,102,7320046,,,,,,,2023-03-03,1,,,,,ケンショウ,0
203,1250001019988,新規,0,2023-03-03,2023-03-03,株式会社カーグラスＱＱ,,株式会社,山口県,山口市,大内矢田北３丁目２３番２６号,,35,203,7530221,,,,,,,2023-03-03,1,,,,,カーグラスキュウキュウ,0
204,1250001019996,新規,0,2023-03-03,2023-03-03,株式会社東大式進学塾,,株式会社,山口県,宇部市,北琴芝１丁目８番３０号,,35,202,7550036,,,,,,,2023-03-03,1,,,,,トウダイシキシンガクジュク,0
205,1250003003230,新規,0,2023-03-03,2023-03-03,合同会社アイエステート,,合同会社,山口県,山口市,大内氷上７丁目９番１１号,,35,203,7530231,,,,,,,2023-03-03,1,,,,,アイエステート,0
211,1260001037683,新規,0,2023-03-03,2023-03-03,株式会社Ｌｉｆｅ　Ｃｒｅａｔｅ,,株式会社,岡山県,岡山市北区,芳賀１７２８番地９０,,33,101,7011221,,,,,,,2023-03-03,1,,,,,ライフクリエイト,0
216,1290001100736,新規,0,2023-03-03,2023-03-03,サンガード警備株式会社,,株式会社,福岡県,福岡市東区,箱崎ふ頭４丁目１０番７号,,40,131,8120051,,,,,,,2023-03-03,1,,,,,サンガードケイビ,0
217,1290001100769,新規,0,2023-03-03,2023-03-03,株式会社まちてらすＭＯＶＩＥ,,株式会社,福岡県,福岡市東区,千早１丁目２番１５号,,40,131,8130044,,,,,,,2023-03-03,1,,,,,マチテラスムービー,0
218,1290001100785,新規,0,2023-03-03,2023-03-03,株式会社ＹＡＨＭＡＮ,,株式会社,福岡県,福岡市博多区,石城町１２番５号,,40,132,8120032,,,,,,,2023-03-03,1,,,,,ヤーマン,0
219,1290003013606,新規,0,2023-03-03,2023-03-03,植木内装合同会社,,合同会社,福岡県,福岡市南区,柏原４丁目３番１号コスモハイツカルモ２０１号,,40,134,8111353,,,,,,,2023-03-03,1,,,,,ウエキナイソウ,0
222,1290801029324,新規,0,2023-03-03,2023-03-03,株式会社ベノワ,,株式会社,福岡県,北九州市若松区,二島６丁目４番５５号,,40,103,8080103,,,,,,,2023-03-03,1,,,,,ベノワ,0
223,1290801029332,新規,0,2023-03-03,2023-03-03,株式会社ＢＥＬＬ　ＷＥＬＬ,,株式会社,福岡県,行橋市,西宮市１丁目１１番２３号２Ｆ,,40,213,8240031,,,,,,,2023-03-03,1,,,,,ベルウェル,0
236,1340003004062,新規,0,2023-03-03,2023-03-03,合同会社土建道,,合同会社,鹿児島県,出水市,福ノ江町７３２番地,,46,208,8990133,,,,,,,2023-03-03,1,,,,,ドケンドウ,0
237,1340005009563,新規,0,2023-03-03,2023-03-03,一般社団法人ことの葉,,その他の設立登記法人,鹿児島県,南さつま市,加世田武田１８２７７番地６,,46,220,8970002,,,,,,,2023-03-03,1,,,,,コトノハ,0
238,1350001018212,新規,0,2023-03-03,2023-03-03,株式会社テラス,,株式会社,宮崎県,延岡市,樫山町２丁目３０２０番地１,,45,203,8820004,,,,,,,2023-03-03,1,,,,,テラス,0
244,1370001049651,新規,0,2023-03-03,2023-03-03,株式会社ＴＨＲＥＥｅ,,株式会社,宮城県,仙台市青葉区,高松２丁目２２番４１号,,04,101,9810907,,,,,,,2023-03-03,1,,,,,スリー,0
249,1380001033522,新規,0,2023-03-03,2023-03-03,株式会社ＳＨＭ,,株式会社,福島県,福島市,笹谷字中川６９番地の１,,07,201,9600241,,,,,,,2023-03-03,1,,,,,エスエイチエム,0
250,1380003005404,新規,0,2023-03-03,2023-03-03,尾形会計合同会社,,合同会社,福島県,福島市,鎌田字卸町１２番地の５,,07,201,9600102,,,,,,,2023-03-03,1,,,,,オガタカイケイ,0
256,1430003014762,新規,0,2023-03-03,2023-03-03,合同会社サンリーゾ,,合同会社,北海道,江別市,大麻高町１９番地の１８,,01,217,0690853,,,,,,,2023-03-03,1,,,,,サンリーゾ,0
257,1430003014787,新規,0,2023-03-03,2023-03-03,リボーン合同会社,,合同会社,北海道,石狩市,樽川４６２番地３１６,,01,235,0613251,,,,,,,2023-03-03,1,,,,,リボーン,0
262,1470001019495,新規,0,2023-03-03,2023-03-03,株式会社ルクサポ,,株式会社,香川県,高松市,香南町池内８６９番地１０,,37,201,7611405,,,,,,,2023-03-03,1,,,,,ルクサポ,0
263,1470003002359,新規,0,2023-03-03,2023-03-03,貿易投資サービス合同会社,,合同会社,香川県,高松市,木太町２６１０番地１１,,37,201,7600080,,,,,,,2023-03-03,1,,,,,ボウエキトウシサービス,0
266,1480003001946,新規,0,2023-03-03,2023-03-03,合同会社総合サービス,,合同会社,徳島県,徳島市,南昭和町５丁目５０－４,,36,201,7700944,,,,,,,2023-03-03,1,,,,,ソウゴウサービス,0
273,1700150114593,新規,0,2023-03-03,2023-03-03,Ｓｈａｎｇｈａｉ　Ｈｅｎｇｔｅｎｇ　Ｉｎｔｅｒｎａｔｉｏｎａｌ　Ｆｒｅｉｇｈｔ　Ｆｏｒｗａｒｄｉｎｇ　Ｃｏ．，Ｌｔｄ．,,外国会社等,,,,,,,,Ｆｌｏｏｒ　３ｔｈ，Ｂｕｉｌｄｉｎｇ　２，Ｎｏ．５１１，Ｘｉａｏｗａｎ　Ｒｏａｄ，Ｆｅｎｇｘｉａｎ　Ｄｉｓｔｒｉｃｔ，Ｓｈａｎｇｈａｉ，Ｃｈｉｎａ,,,,,,2023-03-03,1,,,,,シヤンハイヘンテンインターナシヨナルフレイトフオワーデイングカンパニーリミテツド,0
274,1700150114602,新規,0,2023-03-03,2023-03-03,ｓｈｅｎｚｈｅｎｓｈｉｆａｘｉａｎｚｈｅｈｕｗａｉｙｏｎｇｐｉｎｙｏｕｘｉａｎｇｏｎｇｓｉ,,外国会社等,,,,,,,,ｓｈａｎｇｘｕｅｋｅｊｉｃｈｅｎｇｂｅｉｑｕ３ｈａｏＡｄｏｎｇ４０１　ｌｏｎｇｇａｎｇｑｕｂａｎｔｉａｎｊｉｅｄａｏｘｉｎｘｕｅｓｈｅｑｕ　ｓｈｅｎｚｈｅｎ　ｇｕａｎｇｄｏｎｇ　５１８１２９　ＣＮ,,,,,,2023-03-03,1,,,,,シエンジエンシフアーシエンジヤホーワイヨンピンヨウシエンゴンス,0
286,2010001233348,新規,0,2023-03-03,2023-03-03,ＪＰＶ第１２号株式会社,,株式会社,東京都,千代田区,霞が関３丁目２番１号,,13,101,1000013,,,,,,,2023-03-03,1,,,,,ジェイピーブイダイジュウニゴウ,0
287,2010001233389,新規,0,2023-03-03,2023-03-03,株式会社Ｔ’ｓ　ＦＯＯＤ,,株式会社,東京都,中央区,八丁堀３丁目２２番１１号深山ビル１階,,13,102,1040032,,,,,,,2023-03-03,1,,,,,ティーズフード,0
288,2010001233422,新規,0,2023-03-03,2023-03-03,ユニオンホールディングス株式会社,,株式会社,東京都,千代田区,九段南１丁目６番５号九段会館テラスＣｌａｓｓｉｃＯｆｆｉｃｅ２階Ｂ,,13,101,1020074,,,,,,,2023-03-03,1,,,,,ユニオンホールディングス,0
289,2010003039933,新規,0,2023-03-03,2023-03-03,日本国際藝術音楽弦の友親善協会合同会社,,合同会社,東京都,中央区,築地７丁目１６－５，３０２号室,,13,102,1040045,,,,,,,2023-03-03,1,,,,,ニホンコクサイゲイジュツオンガクゲンノトモシンゼンキョウカイ,0
294,2010401172724,新規,0,2023-03-03,2023-03-03,株式会社たいみな,,株式会社,東京都,港区,六本木６丁目１５番１号,,13,103,1060032,,,,,,,2023-03-03,1,,,,,タイミナ,0
295,2010401172831,新規,0,2023-03-03,2023-03-03,ＳＢＩシンプレクス・ソリューションズ株式会社,,株式会社,東京都,港区,六本木３丁目１番１号,,13,103,1060032,,,,,,,2023-03-03,1,,,,,エスビーアイシンプレクスソリューションズ,0
297,2010403029641,新規,0,2023-03-03,2023-03-03,合同会社田中事務所,,合同会社,東京都,港区,白金３丁目１番１３号日恵ビル２階,,13,103,1080072,,,,,,,2023-03-03,1,,,,,タナカジムショ,0
298,2010403029658,新規,0,2023-03-03,2023-03-03,合同会社エフ,,合同会社,東京都,港区,浜松町２丁目２番１５号浜松町ダイヤビル２Ｆ,,13,103,1050013,,,,,,,2023-03-03,1,,,,,エフ,0
301,2010405021860,新規,0,2023-03-03,2023-03-03,一般社団法人ブルータイド,,その他の設立登記法人,東京都,港区,海岸３丁目２０番２０号,,13,103,1080022,,,,,,,2023-03-03,1,,,,,ブルータイド,0
302,2010501050086,新規,0,2023-03-03,2023-03-03,株式会社ＩＬＦＴ,,株式会社,東京都,台東区,台東１丁目３１番７号,,13,106,1100016,,,,,,,2023-03-03,1,,,,,アイエルエフティー,0
303,2010501050094,新規,0,2023-03-03,2023-03-03,ＭＭ技建株式会社,,株式会社,東京都,台東区,東上野１丁目１５番４号,,13,106,1100015,,,,,,,2023-03-03,1,,,,,エムエムギケン,0
308,2011001152876,新規,0,2023-03-03,2023-03-03,株式会社ＩＴｏ,,株式会社,東京都,目黒区,上目黒３丁目１番５号第１０東都ビル６階,,13,110,1530051,,,,,,,2023-03-03,1,,,,,,0
309,2011001152884,新規,0,2023-03-03,2023-03-03,ＭＩ　Ｉｎｖｅｓｔｍｅｎｔ株式会社,,株式会社,東京都,目黒区,緑が丘１丁目１６番２６号,,13,110,1520034,,,,,,,2023-03-03,1,,,,,エムアイインベストメント,0
310,2011001152901,新規,0,2023-03-03,2023-03-03,株式会社スパークル,,株式会社,東京都,渋谷区,道玄坂１丁目１０番８号渋谷道玄坂東急ビル２Ｆ－Ｃ,,13,113,1500043,,,,,,,2023-03-03,1,,,,,スパークル,0
311,2011101102013,新規,0,2023-03-03,2023-03-03,株式会社ＥＣ　Ｉｎｎｏｖａｔｉｏｎｓ,,株式会社,東京都,新宿区,下宮比町２番１６－３０３号,,13,104,1620822,,,,,,,2023-03-03,1,,,,,イーシーイノベーションズ,0
312,2011101102038,新規,0,2023-03-03,2023-03-03,株式会社ＫＳＮ,,株式会社,東京都,新宿区,西新宿６丁目５番１号新宿アイランドタワー９階,,13,104,1600023,,,,,,,2023-03-03,1,,,,,ケーエスエヌ,0
313,2011103012747,新規,0,2023-03-03,2023-03-03,ＪａｐａｎＬ＆Ｒ合同会社,,合同会社,東京都,新宿区,榎町３４－３榎町ビル７階０６号室,,13,104,1620806,,,,,,,2023-03-03,1,,,,,,0
314,2011103012755,新規,0,2023-03-03,2023-03-03,マリアージュパートナー合同会社,,合同会社,東京都,新宿区,新宿６丁目２７番４６－５０３号,,13,104,1600022,,,,,,,2023-03-03,1,,,,,マリアージュパートナー,0
315,2011103012763,新規,0,2023-03-03,2023-03-03,合同会社ＴＡＭＡ,,合同会社,東京都,新宿区,矢来町９８番地,,13,104,1620805,,,,,,,2023-03-03,1,,,,,タマ,0
316,2011105010575,新規,0,2023-03-03,2023-03-03,医療法人社団櫻会,,その他の設立登記法人,東京都,新宿区,新宿３丁目２３番１号都里一ビル４階,,13,104,1600022,,,,,,,2023-03-03,1,,,,,サクラカイ,0
322,2011401024923,新規,0,2023-03-03,2023-03-03,株式会社ＳＫＯＫ,,株式会社,東京都,板橋区,高島平１丁目３番１５号川口ビル３０１,,13,119,1750082,,,,,,,2023-03-03,1,,,,,スコック,0
323,2011403003933,新規,0,2023-03-03,2023-03-03,合同会社アーケーションズ,,合同会社,東京都,板橋区,南町１４番１－１００４号,,13,119,1730027,,,,,,,2023-03-03,1,,,,,アーケーションズ,0
325,2011503005499,新規,0,2023-03-03,2023-03-03,合同会社ウィンキューブ,,合同会社,東京都,荒川区,西尾久３丁目１９番１７号,,13,118,1160011,,,,,,,2023-03-03,1,,,,,ウィンキューブ,0
327,2011601026637,新規,0,2023-03-03,2023-03-03,株式会社ＴＳテクノ,,株式会社,東京都,練馬区,南田中１丁目４番９号,,13,120,1770035,,,,,,,2023-03-03,1,,,,,ティーエステクノ,0
330,2011801041997,新規,0,2023-03-03,2023-03-03,株式会社エステート創建,,株式会社,東京都,足立区,竹の塚１丁目３６－７エンゼルハイム竹ノ塚駅前２０１号,,13,121,1210813,,,,,,,2023-03-03,1,,,,,エステートソウケン,0
331,2011801042005,新規,0,2023-03-03,2023-03-03,株式会社目留,,株式会社,東京都,足立区,足立３丁目１１番３３号,,13,121,1200015,,,,,,,2023-03-03,1,,,,,マル,0
332,2011801042013,新規,0,2023-03-03,2023-03-03,株式会社ＭＡＫＡＬＹ,,株式会社,東京都,足立区,伊興本町２丁目２番４６号,,13,121,1210807,,,,,,,2023-03-03,1,,,,,マカリー,0
334,2012405004837,新規,0,2023-03-03,2023-03-03,医療法人社団香友会,,その他の設立登記法人,東京都,稲城市,大丸９３６番地の１,,13,225,2060801,,,,,,,2023-03-03,1,,,,,コウユウカイ,0
347,2020001150443,新規,0,2023-03-03,2023-03-03,株式会社サンクロップ,,株式会社,神奈川県,横浜市戸塚区,吉田町１９０３番地１５,,14,110,2440817,,,,,,,2023-03-03,1,,,,,サンクロップ,0
348,2020001150468,新規,0,2023-03-03,2023-03-03,株式会社ＳＫ　ｃｒａｆｔｓｍａｎ,,株式会社,神奈川県,横浜市旭区,柏町１番地２８グレースカシワ３０１,,14,112,2410835,,,,,,,2023-03-03,1,,,,,エスケークラフトマン,0
349,2020001150484,新規,0,2023-03-03,2023-03-03,株式会社Ｐ．Ｌ．Ｓ,,株式会社,神奈川県,横浜市保土ケ谷区,西谷４丁目５番２５－４０１号,,14,106,2400054,,,,,,,2023-03-03,1,,,,,ピーエルエス,0
350,2020001150501,新規,0,2023-03-03,2023-03-03,株式会社笑ｖｅｒｙｄａｙ,,株式会社,神奈川県,横浜市中区,宮川町２丁目１７番地４,,14,104,2310065,,,,,,,2023-03-03,1,,,,,エブリデイ,0
351,2020001150518,新規,0,2023-03-03,2023-03-03,株式会社ＤＴＵＳ,,株式会社,神奈川県,横浜市栄区,飯島町１３９５番地,,14,115,2440842,,,,,,,2023-03-03,1,,,,,ディータス,0
352,2020001150534,新規,0,2023-03-03,2023-03-03,株式会社ＩＢ商会,,株式会社,神奈川県,横浜市保土ケ谷区,上菅田町１０９２番地２グリーングラスＫ１０３号,,14,106,2400051,,,,,,,2023-03-03,1,,,,,アイビーショウカイ,0
354,2020003023424,新規,0,2023-03-03,2023-03-03,合同会社Ｇｙｍｓ,,合同会社,神奈川県,横浜市港北区,日吉本町１丁目１８番７号日吉パールハイツ１Ａ,,14,109,2230062,,,,,,,2023-03-03,1,,,,,ジームス,0
355,2020003023440,新規,0,2023-03-03,2023-03-03,合同会社ＦＳＣ,,合同会社,神奈川県,川崎市麻生区,向原１丁目８番１２号Ａ－１０２,,14,137,2150007,,,,,,,2023-03-03,1,,,,,エフエスシー,0
359,2021003012821,新規,0,2023-03-03,2023-03-03,合同会社ダイフク,,合同会社,神奈川県,秦野市,平沢１０８３番地,,14,211,2570015,,,,,,,2023-03-03,1,,,,,ダイフク,0
365,2030001152612,新規,0,2023-03-03,2023-03-03,株式会社Ｎ　Ｃｒａｆｔ,,株式会社,埼玉県,越谷市,東大沢３丁目２２番地３０,,11,222,3430022,,,,,,,2023-03-03,1,,,,,エヌクラフト,0
366,2030001152686,新規,0,2023-03-03,2023-03-03,株式会社ｆｏｔｏｆａ,,株式会社,埼玉県,東松山市,幸町１１－１６,,11,212,3550025,,,,,,,2023-03-03,1,,,,,フォトファ,0
367,2030001152694,新規,0,2023-03-03,2023-03-03,株式会社大輝興業,,株式会社,埼玉県,さいたま市岩槻区,府内４丁目２番２号,,11,110,3390042,,,,,,,2023-03-03,1,,,,,ダイキコウギョウ,0
368,2030001152728,新規,0,2023-03-03,2023-03-03,株式会社建将,,株式会社,埼玉県,上尾市,大字小敷谷３６２番地１５,,11,219,3620064,,,,,,,2023-03-03,1,,,,,ケンショウ,0
377,2030003021294,新規,0,2023-03-03,2023-03-03,合同会社ロスヴィノス企画,,合同会社,埼玉県,富士見市,上沢３丁目１１番６号,,11,235,3540034,,,,,,,2023-03-03,1,,,,,ロスヴィノスキカク,0
384,2040001127299,新規,0,2023-03-03,2023-03-03,株式会社イースタン・ナレッジ,,株式会社,千葉県,香取郡東庄町,大友３７番地,,12,349,2890621,,,,,,,2023-03-03,1,,,,,イースタンナレッジ,0
385,2040001127308,新規,0,2023-03-03,2023-03-03,株式会社ライフデザインラボ,,株式会社,千葉県,市原市,山木１２０９－１１,,12,219,2900005,,,,,,,2023-03-03,1,,,,,ライフデザインラボ,0
386,2040001127316,新規,0,2023-03-03,2023-03-03,株式会社Ｔ＆Ｈ,,株式会社,千葉県,東金市,広瀬５９５番地１４,,12,213,2830041,,,,,,,2023-03-03,1,,,,,ティーアンドエイチ,0
387,2040001127357,新規,0,2023-03-03,2023-03-03,株式会社ｐａｒｒｅｔｔｅ,,株式会社,千葉県,市原市,八幡１５００－２,,12,219,2900062,,,,,,,2023-03-03,1,,,,,パレット,0
388,2040001127365,新規,0,2023-03-03,2023-03-03,株式会社エフズワン,,株式会社,千葉県,茂原市,小林２５１６番地１０,,12,210,2970074,,,,,,,2023-03-03,1,,,,,エフズワン,0
389,2040001127373,新規,0,2023-03-03,2023-03-03,株式会社ユアプロ,,株式会社,千葉県,我孫子市,根戸１８１２番地の２ヒルズ柏３０１,,12,222,2701168,,,,,,,2023-03-03,1,,,,,ユアプロ,0
392,2040003022093,新規,0,2023-03-03,2023-03-03,合同会社万秋楽,,合同会社,千葉県,千葉市緑区,土気町１６５６番地１２,,12,105,2670061,,,,,,,2023-03-03,1,,,,,マンジラク,0
393,2040003022110,新規,0,2023-03-03,2023-03-03,合同会社しかり,,合同会社,千葉県,柏市,布施２７０番地９,,12,217,2770825,,,,,,,2023-03-03,1,,,,,シカリ,0
396,2050001052463,新規,0,2023-03-03,2023-03-03,株式会社ネクストユニット,,株式会社,茨城県,土浦市,上高津１２９１番地４,,08,203,3000811,,,,,,,2023-03-03,1,,,,,ネクストユニット,0
402,2060001035748,新規,0,2023-03-03,2023-03-03,株式会社エル・ボーテ,,株式会社,栃木県,小山市,神鳥谷５丁目１８番２９アーバンコート２Ｆ,,09,208,3230034,,,,,,,2023-03-03,1,,,,,エルボーテ,0
406,2070001040185,新規,0,2023-03-03,2023-03-03,株式会社山本スチール,,株式会社,群馬県,高崎市,下和田町４丁目３番３５－１号,,10,202,3700846,,,,,,,2023-03-03,1,,,,,ヤマモトスチール,0
410,2080101023832,新規,0,2023-03-03,2023-03-03,粋響株式会社,,株式会社,静岡県,富士宮市,大岩１７６５番地の４５,,22,207,4180013,,,,,,,2023-03-03,1,,,,,スイキョウ,0
411,2080401026337,新規,0,2023-03-03,2023-03-03,株式会社ヤマトココロ,,株式会社,静岡県,袋井市,田町２丁目６番地の６,,22,216,4370063,,,,,,,2023-03-03,1,,,,,ヤマトココロ,0
412,2080401026345,新規,0,2023-03-03,2023-03-03,株式会社すずまる,,株式会社,静岡県,掛川市,下俣１０１５番地の３,,22,213,4360025,,,,,,,2023-03-03,1,,,,,スズマル,0
413,2080401026353,新規,0,2023-03-03,2023-03-03,株式会社あぐり王国,,株式会社,静岡県,浜松市中区,寺島町１７番地フレクション浜松１階,,22,131,4300925,,,,,,,2023-03-03,1,,,,,アグリオウコク,0
414,2090001017999,新規,0,2023-03-03,2023-03-03,株式会社フロー,,株式会社,山梨県,甲斐市,西八幡４４８３番地３,,19,210,4000117,,,,,,,2023-03-03,1,,,,,フロー,0
415,2090001018007,新規,0,2023-03-03,2023-03-03,アネックス株式会社,,株式会社,山梨県,南都留郡山中湖村,平野３８９番地の２,,19,425,4010502,,,,,,,2023-03-03,1,,,,,アネックス,0
416,2100001036196,新規,0,2023-03-03,2023-03-03,株式会社ＡＬＬＡＮ　ＧＲＯＵＰ,,株式会社,長野県,上水内郡飯綱町,大字牟礼２５７８番地４,,20,590,3891211,,,,,,,2023-03-03,1,,,,,アラングループ,0
420,2100005012978,新規,0,2023-03-03,2023-03-03,医療法人優愛会,,その他の設立登記法人,長野県,安曇野市,穂高北穂高１４３番地７,,20,220,3998302,,,,,,,2023-03-03,1,,,,,ユウアイカイ,0
422,2110001037334,新規,0,2023-03-03,2023-03-03,クリエイトコーポレーション株式会社,,株式会社,新潟県,新発田市,城北町２丁目１０番３１号,,15,206,9570051,,,,,,,2023-03-03,1,,,,,クリエイトコーポレーション,0
430,2120001252790,新規,0,2023-03-03,2023-03-03,Ｒ‐ＳＴＹＬＥ株式会社,,株式会社,大阪府,大阪市平野区,加美西１丁目１７番３－４０６号,,27,126,5470005,,,,,,,2023-03-03,1,,,,,アールスタイル,0
431,2120001252898,新規,0,2023-03-03,2023-03-03,ＪＣＤコンサルティング株式会社,,株式会社,大阪府,大阪市北区,堂島２丁目３番７号シンコービル２Ｆ,,27,127,5300003,,,,,,,2023-03-03,1,,,,,ジェイシーディーコンサルティング,0
432,2120001252972,新規,0,2023-03-03,2023-03-03,株式会社エムジージャパン,,株式会社,大阪府,大阪市浪速区,敷津西１丁目１２番１号,,27,111,5560015,,,,,,,2023-03-03,1,,,,,エムジージャパン,0
433,2120001253005,新規,0,2023-03-03,2023-03-03,パートナーズファーマシー株式会社,,株式会社,大阪府,大阪市東淀川区,東中島１丁目１７番１８号,,27,114,5330033,,,,,,,2023-03-03,1,,,,,パートナーズファーマシー,0
439,2120101067081,新規,0,2023-03-03,2023-03-03,株式会社幸大自動車,,株式会社,大阪府,泉南郡熊取町,新野田２丁目２１番２号,,27,361,5900454,,,,,,,2023-03-03,1,,,,,コウダイジドウシャ,0
440,2120101067098,新規,0,2023-03-03,2023-03-03,高盛株式会社,,株式会社,大阪府,堺市東区,菩提町４丁１５８番地,,27,143,5998103,,,,,,,2023-03-03,1,,,,,タカセイ,0
441,2120901047200,新規,0,2023-03-03,2023-03-03,株式会社丸利不動産,,株式会社,大阪府,豊中市,庄内西町２丁目１番８号,,27,203,5610832,,,,,,,2023-03-03,1,,,,,マルトシフドウサン,0
443,2122001036744,新規,0,2023-03-03,2023-03-03,株式会社大晴,,株式会社,大阪府,八尾市,沼４丁目５番地,,27,212,5810036,,,,,,,2023-03-03,1,,,,,タイセイ,0
444,2122001036752,新規,0,2023-03-03,2023-03-03,株式会社ビューティービレッジ,,株式会社,大阪府,東大阪市,俊徳町５丁目５－５－２０４,,27,227,5770831,,,,,,,2023-03-03,1,,,,,ビューティービレッジ,0
448,2130001073765,新規,0,2023-03-03,2023-03-03,株式会社奥仙,,株式会社,京都府,長岡京市,奥海印寺八戸木７番地,,26,209,6170853,,,,,,,2023-03-03,1,,,,,オクセン,0
449,2130001073781,新規,0,2023-03-03,2023-03-03,株式会社地球宝石箱,,株式会社,京都府,京都市左京区,一乗寺庵野町１０番地４,,26,103,6068166,,,,,,,2023-03-03,1,,,,,チキュウホウセキバコ,0
454,2140001129244,新規,0,2023-03-03,2023-03-03,株式会社Ａ　ｐｈｏｔｏ　ｗｏｒｋｓ,,株式会社,兵庫県,姫路市,伊伝居４８２番地４アルファステイツ城北伊伝居１００３号,,28,201,6700871,,,,,,,2023-03-03,1,,,,,エイフォトワークス,0
455,2140001129285,新規,0,2023-03-03,2023-03-03,株式会社ＬＥＣＳ,,株式会社,兵庫県,伊丹市,西野３丁目２２２番地ウエストフィールド３０３号,,28,207,6640028,,,,,,,2023-03-03,1,,,,,レックス,0
456,2140001129302,新規,0,2023-03-03,2023-03-03,加藤金属株式会社,,株式会社,兵庫県,西宮市,上大市４丁目１８番５２号,,28,204,6638003,,,,,,,2023-03-03,1,,,,,カトウキンゾク,0
457,2140001129319,新規,0,2023-03-03,2023-03-03,株式会社クルール,,株式会社,兵庫県,神戸市垂水区,舞子台６丁目１２番２５号,,28,108,6550046,,,,,,,2023-03-03,1,,,,,クルール,0
458,2140001129335,新規,0,2023-03-03,2023-03-03,株式会社木下保険パートナーズ,,株式会社,兵庫県,神戸市東灘区,向洋町中７丁目２番地の１－１０番館３０２号,,28,101,6580032,,,,,,,2023-03-03,1,,,,,キノシタホケンパートナーズ,0
460,2140003018800,新規,0,2023-03-03,2023-03-03,ＭＯＮＥＴ合同会社,,合同会社,兵庫県,神戸市灘区,篠原中町１丁目３番１１号,,28,102,6570066,,,,,,,2023-03-03,1,,,,,モネ,0
464,2160003002810,新規,0,2023-03-03,2023-03-03,合同会社Ｈ＆Ｏ,,合同会社,滋賀県,近江八幡市,日吉野町７７０番地（２０６号）,,25,204,5230033,,,,,,,2023-03-03,1,,,,,エイチアンドオー,0
469,2180001155170,新規,0,2023-03-03,2023-03-03,株式会社ステップ,,株式会社,愛知県,名古屋市東区,東桜２丁目１０番１号,,23,102,4610005,,,,,,,2023-03-03,1,,,,,ステップ,0
473,2190003004250,新規,0,2023-03-03,2023-03-03,合同会社ライファーエイト,,合同会社,三重県,津市,久居元町２２２０番地１１,,24,201,5141125,,,,,,,2023-03-03,1,,,,,ライファーエイト,0
479,2200001041013,新規,0,2023-03-03,2023-03-03,和泉屋電通商会株式会社,,株式会社,岐阜県,美濃加茂市,西町５丁目１０８番地２ヴィラウェスト南館１０１,,21,211,5050046,,,,,,,2023-03-03,1,,,,,イヅミヤデンツウショウカイ,0
480,2200001041021,新規,0,2023-03-03,2023-03-03,エヌ・ライブ株式会社,,株式会社,岐阜県,羽島郡岐南町,平成５丁目９１番地サンツイン１３１号室,,21,302,5016013,,,,,,,2023-03-03,1,,,,,エヌライブ,0
481,2210003001617,新規,0,2023-03-03,2023-03-03,合同会社ＡＣＭ,,合同会社,福井県,福井市,南四ツ居１丁目１番３６号,,18,201,9188204,,,,,,,2023-03-03,1,,,,,エーシーエム,0
482,2220001025294,新規,0,2023-03-03,2023-03-03,株式会社はおぷらす,,株式会社,石川県,白山市,宮永市町２９０番地,,17,210,9240016,,,,,,,2023-03-03,1,,,,,ハオプラス,0
485,2230001019733,新規,0,2023-03-03,2023-03-03,株式会社ホリタシーリング,,株式会社,富山県,中新川郡上市町,横法音寺５６番地２,,16,322,9300355,,,,,,,2023-03-03,1,,,,,ホリタシーリング,0
491,2240001061156,新規,0,2023-03-03,2023-03-03,株式会社神石スカイサービス,,株式会社,広島県,神石郡神石高原町,近田８３５番地２,,34,545,7201622,,,,,,,2023-03-03,1,,,,,ジンセキスカイサービス,0
492,2240001061172,新規,0,2023-03-03,2023-03-03,株式会社ＳＹＵＹＵＵ,,株式会社,広島県,福山市,瀬戸町大字地頭分１３５４番地（１０１）,,34,207,7200837,,,,,,,2023-03-03,1,,,,,シュウユウ,0
495,2250001019995,新規,0,2023-03-03,2023-03-03,株式会社Ｓｏｃｉａｌ　Ｌｉｎｋ,,株式会社,山口県,山口市,秋穂東６１７６番地４,,35,203,7541101,,,,,,,2023-03-03,1,,,,,ソーシャルリンク,0
505,2290001100719,新規,0,2023-03-03,2023-03-03,株式会社ｍｉａ．ａｎｄ,,株式会社,福岡県,大川市,大字幡保９８番地の７,,40,212,8310033,,,,,,,2023-03-03,1,,,,,ミアアンド,0
508,2290003013613,新規,0,2023-03-03,2023-03-03,村田さんち合同会社,,合同会社,福岡県,福岡市博多区,空港前３丁目５－２０－３０１,,40,132,8120002,,,,,,,2023-03-03,1,,,,,ムラタサンチ,0
514,2310001018297,新規,0,2023-03-03,2023-03-03,ティーツーホールディングス株式会社,,株式会社,長崎県,平戸市,木引町２８２番地１,,42,207,8595151,,,,,,,2023-03-03,1,,,,,ティーツーホールディングス,0
518,2310005008666,新規,0,2023-03-03,2023-03-03,ＮＰＯ法人Ｒｅｄ　Ｗｏｏｄ　Ｊａｐａｎ　Ｎａｇａｓａｋｉ,,その他の設立登記法人,長崎県,諫早市,久山町１５２８番地１グランディールレゾン５０２号,,42,204,8540066,,,,,,,2023-03-03,1,,,,,レッドウッドジャパンナガサキ,0
521,2320001019600,新規,0,2023-03-03,2023-03-03,株式会社エスティールーフ,,株式会社,大分県,大分市,大字皆春１０８９番地の１６,,44,201,8700131,,,,,,,2023-03-03,1,,,,,エスティールーフ,0
523,2330001030639,新規,0,2023-03-03,2023-03-03,株式会社本郷建設工業,,株式会社,熊本県,上益城郡甲佐町,大字緑町３２番地５,,43,444,8614602,,,,,,,2023-03-03,1,,,,,ホンゴウケンセツコウギョウ,0
527,2350001018211,新規,0,2023-03-03,2023-03-03,株式会社友希研磨工業,,株式会社,宮崎県,延岡市,川島町３７２４番地１,,45,203,8820017,,,,,,,2023-03-03,1,,,,,ユウキケンマコウギョウ,0
529,2360001031626,新規,0,2023-03-03,2023-03-03,株式会社あおぞら,,株式会社,沖縄県,豊見城市,字我那覇４１１番地,,47,212,9010231,,,,,,,2023-03-03,1,,,,,アオゾラ,0
539,2400001016168,新規,0,2023-03-03,2023-03-03,株式会社一関山本農場,,株式会社,岩手県,一関市,中里字上大林２２９番地,,03,209,0210002,,,,,,,2023-03-03,1,,,,,イチノセキヤマモトノウジョウ,0
540,2420001018170,新規,0,2023-03-03,2023-03-03,株式会社ワイド・ラピッズ,,株式会社,青森県,八戸市,根城９丁目１７番２号,,02,203,0391166,,,,,,,2023-03-03,1,,,,,ワイドラピッズ,0
544,2430001088502,新規,0,2023-03-03,2023-03-03,株式会社ライブオン,,株式会社,北海道,札幌市西区,西野四条７丁目１３番３－１０１号,,01,107,0630034,,,,,,,2023-03-03,1,,,,,ライブオン,0
545,2430001088551,新規,0,2023-03-03,2023-03-03,株式会社ＪＯＩＮ,,株式会社,北海道,札幌市白石区,平和通１５丁目北１６番１号,,01,104,0030029,,,,,,,2023-03-03,1,,,,,ジョイン,0
550,2450003002302,新規,0,2023-03-03,2023-03-03,合同会社丹羽鉄工,,合同会社,北海道,稚内市,大黒１丁目４番１３号,,01,214,0970005,,,,,,,2023-03-03,1,,,,,ニワテッコウ,0
553,2470001019486,新規,0,2023-03-03,2023-03-03,株式会社Ｆ・Ｔ建材,,株式会社,香川県,坂出市,府中町７１０番地１,,37,203,7620024,,,,,,,2023-03-03,1,,,,,エフティーケンザイ,0
554,2470001019503,新規,0,2023-03-03,2023-03-03,株式会社はぐ,,株式会社,香川県,高松市,香西本町１４７番地２サンクレスト香西１０１,,37,201,7618012,,,,,,,2023-03-03,1,,,,,ハグ,0
558,2500001024788,新規,0,2023-03-03,2023-03-03,武田石油株式会社,,株式会社,愛媛県,宇和島市,津島町北灘甲４３３番地,,38,203,7983361,,,,,,,2023-03-03,1,,,,,タケダセキユ,0
561,2700150114592,新規,0,2023-03-03,2023-03-03,ＱＩＮＧＤＡＯ　ＱＨ　ＩＮＴＥＲＮＡＴＩＯＮＡＬ　ＬＯＧＩＳＴＩＣＳ　ＣＯ．，ＬＴＤ,,外国会社等,,,,,,,,Ｒ３０１，Ｕ３，ＢＬＤＧ．４，ＮＯ．５７，ＬＩＵＨＵＡＢＯ　ＲＤ．，ＨＵＡＮＧＤＡＯ　ＤＩＳＴ．，ＱＩＮＧＤＡＯ，ＳＨＡＮＤＯＮＧ，ＣＨＩＮＡ,,,,,,2023-03-03,1,,,,,チンタオチンハーインターナシヨナルロジステイクスカンパニーリミテツド,0
562,2700150114601,新規,0,2023-03-03,2023-03-03,ｓｈｅｎｚｈｅｎ　ｙｕａｎｄａｏｙｕａｎｓｈｉｙｅ　ｙｏｕｘｉａｎｇｏｎｇｓｉ,,外国会社等,,,,,,,,Ｃｈｕａｎｇｋｅｚｈｏｎｇｘｉｎ３１２　Ｈｅｐｉｎｇｌｕ６０ｈａｏＯＴＯ　Ｌｏｎｇｈｕａｊｉｅｄａｏ　Ｌｏｎｇｈｕａｘｉｎｑｕ　Ｓｈｅｎｚｈｅｎｓｈｉ　５１８０００　ＣＮ,,,,,,2023-03-03,1,,,,,シエンジエンユエンダオユエンシーイエヨウシエンゴンス,0
571,3010001233446,新規,0,2023-03-03,2023-03-03,ＴＯＨＯ　Ｔｏｍｂｏピクチャーズ株式会社,,株式会社,東京都,千代田区,有楽町１丁目２番２号,,13,101,1000006,,,,,,,2023-03-03,1,,,,,トウホウトンボピクチャーズ,0
572,3010001233479,新規,0,2023-03-03,2023-03-03,上塘株式会社,,株式会社,東京都,文京区,白山５丁目３６番１１－６１４号,,13,105,1120001,,,,,,,2023-03-03,1,,,,,カミトモ,0
573,3010003039957,新規,0,2023-03-03,2023-03-03,渋谷イーストワン合同会社,,合同会社,東京都,千代田区,丸の内３丁目１番１号東京共同会計事務所内,,13,101,1000005,,,,,,,2023-03-03,1,,,,,シブヤイーストワン,0
574,3010005036325,新規,0,2023-03-03,2023-03-03,一般社団法人アクエリアス,,その他の設立登記法人,東京都,中央区,銀座１丁目６番１１号アースタックス税理士法人内,,13,102,1040061,,,,,,,2023-03-03,1,,,,,アクエリアス,0
575,3010005036333,新規,0,2023-03-03,2023-03-03,一般社団法人Ｏｍｏｒｉ　ＭＭ２,,その他の設立登記法人,東京都,中央区,銀座２丁目１０番８号マニエラ銀座ビル４階,,13,102,1040061,,,,,,,2023-03-03,1,,,,,オオモリエムエムツー,0
589,3010403029649,新規,0,2023-03-03,2023-03-03,夢前夢ふる里太陽光発電合同会社,,合同会社,東京都,港区,六本木３丁目２番１号六本木グランドタワー,,13,103,1060032,,,,,,,2023-03-03,1,,,,,ユメサキユメフルサトタイヨウコウハツデン,0
603,3010703006612,新規,0,2023-03-03,2023-03-03,合同会社ボトルカンパニー,,合同会社,東京都,品川区,東五反田２丁目１０－１－１５０１,,13,109,1410022,,,,,,,2023-03-03,1,,,,,ボトルカンパニー,0
605,3010803004458,新規,0,2023-03-03,2023-03-03,じゃこん合同会社,,合同会社,東京都,大田区,西六郷２丁目４６－４－３Ｆ,,13,111,1440056,,,,,,,2023-03-03,1,,,,,ジャコン,0
610,3011001152850,新規,0,2023-03-03,2023-03-03,株式会社プエリア,,株式会社,東京都,渋谷区,円山町５－５Ｎａｖｉ渋谷Ｖ３階,,13,113,1500044,,,,,,,2023-03-03,1,,,,,プエリア,0
611,3011001152867,新規,0,2023-03-03,2023-03-03,株式会社メンズビューティークリエーション,,株式会社,東京都,渋谷区,恵比寿２丁目１７番１６号ＨＪＰＬＡＣＥ恵比寿３０１,,13,113,1500013,,,,,,,2023-03-03,1,,,,,メンズビューティークリエーション,0
612,3011001152909,新規,0,2023-03-03,2023-03-03,カナン株式会社,,株式会社,東京都,渋谷区,元代々木町３０番１３号ＣＨ,,13,113,1510062,,,,,,,2023-03-03,1,,,,,カナン,0
613,3011003016376,新規,0,2023-03-03,2023-03-03,合同会社ニュークリエイト,,合同会社,東京都,渋谷区,円山町５番５号,,13,113,1500044,,,,,,,2023-03-03,1,,,,,ニュークリエイト,0
616,3011101101955,新規,0,2023-03-03,2023-03-03,株式会社ＯＲＩＰＵＬＡ,,株式会社,東京都,新宿区,市谷薬王寺町７１－２８ＨＪＰＬＡＣＥＩＣＨＩＧＡＹＡ１０１号,,13,104,1620063,,,,,,,2023-03-03,1,,,,,オリプラ,0
617,3011101102004,新規,0,2023-03-03,2023-03-03,ＴＨＥ　ＦＩＲＳＴ　ＰＬＡＣＥ株式会社,,株式会社,東京都,新宿区,大久保２丁目６番１７号,,13,104,1690072,,,,,,,2023-03-03,1,,,,,ザファーストプレイス,0
618,3011101102012,新規,0,2023-03-03,2023-03-03,株式会社ＭＲＴ,,株式会社,東京都,新宿区,山吹町２６５番地１１プレミスト山吹神楽坂１０１,,13,104,1620801,,,,,,,2023-03-03,1,,,,,エムアールティー,0
619,3011101102045,新規,0,2023-03-03,2023-03-03,ラデナ・サイエンス株式会社,,株式会社,東京都,新宿区,西新宿３丁目３番１３号西新宿水間ビル６階,,13,104,1600023,,,,,,,2023-03-03,1,,,,,ラデナサイエンス,0
620,3011103012762,新規,0,2023-03-03,2023-03-03,ＡＵＬＩＴ合同会社,,合同会社,東京都,新宿区,高田馬場３丁目３３－３ブランシャール高田馬場,,13,104,1690075,,,,,,,2023-03-03,1,,,,,アユリット,0
621,3011103012770,新規,0,2023-03-03,2023-03-03,合同会社ケインズ,,合同会社,東京都,新宿区,西新宿３丁目３番１３号西新宿水間ビル６階,,13,104,1600023,,,,,,,2023-03-03,1,,,,,ケインズ,0
623,3011105010574,新規,0,2023-03-03,2023-03-03,医療法人社団フェルズ,,その他の設立登記法人,東京都,新宿区,新宿３丁目１７番４号新宿レミナビル５階,,13,104,1600022,,,,,,,2023-03-03,1,,,,,フェルズ,0
624,3011201024461,新規,0,2023-03-03,2023-03-03,株式会社プロスペックＨＤ,,株式会社,東京都,中野区,中野１丁目２７番６号,,13,114,1640001,,,,,,,2023-03-03,1,,,,,プロスペックホールディングス,0
636,3011601026628,新規,0,2023-03-03,2023-03-03,株式会社アドバンスブリッジ,,株式会社,東京都,練馬区,氷川台４丁目４０番１４号セザール氷川台１０２,,13,120,1790084,,,,,,,2023-03-03,1,,,,,アドバンスブリッジ,0
639,3011703003401,新規,0,2023-03-03,2023-03-03,ｓｏｎｏ　ｆｅｌｉｃｅ　ｈａ‐ｎａ合同会社,,合同会社,東京都,江戸川区,中葛西５丁目４１番２４号,,13,123,1340083,,,,,,,2023-03-03,1,,,,,ソノフェリーチェハーナ,0
642,3012401040232,新規,0,2023-03-03,2023-03-03,株式会社ＴＷＩＮＳ,,株式会社,東京都,府中市,八幡町２丁目６番地の２５,,13,206,1830016,,,,,,,2023-03-03,1,,,,,ツインズ,0
645,3012801022169,新規,0,2023-03-03,2023-03-03,株式会社Ｔ．ＣＯＲＰＯＲＡＴＩＯＮ,,株式会社,東京都,立川市,富士見町２丁目８番３号,,13,202,1900013,,,,,,,2023-03-03,1,,,,,ティーコーポレーション,0
648,3013301050387,新規,0,2023-03-03,2023-03-03,瑞森株式会社,,株式会社,東京都,豊島区,東池袋３丁目１３番１２号グランメール池袋７０８,,13,116,1700013,,,,,,,2023-03-03,1,,,,,ミズモリ,0
654,3020001150475,新規,0,2023-03-03,2023-03-03,株式会社レボルクス,,株式会社,神奈川県,横浜市旭区,四季美台３６番地２０,,14,112,2410025,,,,,,,2023-03-03,1,,,,,レボルクス,0
655,3020001150483,新規,0,2023-03-03,2023-03-03,株式会社ｎｕｌｌ,,株式会社,神奈川県,川崎市中原区,今井南町七番３１－３０６号,,14,133,2110064,,,,,,,2023-03-03,1,,,,,ナル,0
656,3020001150500,新規,0,2023-03-03,2023-03-03,株式会社シンシア,,株式会社,神奈川県,横浜市西区,高島２丁目７番２‐３６０２号,,14,103,2200011,,,,,,,2023-03-03,1,,,,,シンシア,0
657,3020001150509,新規,0,2023-03-03,2023-03-03,株式会社旭リフォーム,,株式会社,神奈川県,横浜市旭区,西川島町６０番地２８,,14,112,2410012,,,,,,,2023-03-03,1,,,,,アサヒリフォーム,0
658,3020001150517,新規,0,2023-03-03,2023-03-03,株式会社ＣＡＮ　ＨＩＬＬ,,株式会社,神奈川県,横浜市中区,相生町２丁目４２関内ＡＭビル２階,,14,104,2310012,,,,,,,2023-03-03,1,,,,,キャンヒル,0
659,3020001150525,新規,0,2023-03-03,2023-03-03,Ｌｏｃａｍｏｃａ株式会社,,株式会社,神奈川県,横浜市鶴見区,鶴見中央２丁目３番３－９１６号,,14,101,2300051,,,,,,,2023-03-03,1,,,,,ロカモカ,0
660,3020001150541,新規,0,2023-03-03,2023-03-03,株式会社リアン,,株式会社,神奈川県,横浜市旭区,矢指町１８５６－１－Ｎｏ．５,,14,112,2410811,,,,,,,2023-03-03,1,,,,,リアン,0
668,3020003023423,新規,0,2023-03-03,2023-03-03,合同会社Ｓｅｅｄ,,合同会社,神奈川県,川崎市高津区,久本１丁目６番８号,,14,134,2130011,,,,,,,2023-03-03,1,,,,,シード,0
682,3040001127281,新規,0,2023-03-03,2023-03-03,ＩＰＦジャパン株式会社,,株式会社,千葉県,習志野市,東習志野３丁目５番地１２号ｅｍラフォーレ２０３号室,,12,216,2750001,,,,,,,2023-03-03,1,,,,,アイピーエフジャパン,0
683,3040001127298,新規,0,2023-03-03,2023-03-03,株式会社ＨＩ‐ＳＮＩＰＥ,,株式会社,千葉県,四街道市,大日４番地３,,12,228,2840001,,,,,,,2023-03-03,1,,,,,ハイスナイプ,0
686,3040003022076,新規,0,2023-03-03,2023-03-03,好運来合同会社,,合同会社,千葉県,松戸市,根本１１５番地の１ベルシェ松戸ＩＩ－６０６号,00129608,12,207,2710077,,,,,,,2023-03-03,1,,,,,コウウンライ,0
687,3040003022084,新規,0,2023-03-03,2023-03-03,合同会社Ｉ＆Ｙｏｕ,,合同会社,千葉県,市川市,南行徳３丁目１３番１－１０１号樹マンション,,12,203,2720138,,,,,,,2023-03-03,1,,,,,アイアンドユー,0
688,3040003022092,新規,0,2023-03-03,2023-03-03,合同会社フレンズフィールド,,合同会社,千葉県,千葉市中央区,南町３丁目１番４号セレナハイム蘇我７０４号,,12,101,2600842,,,,,,,2023-03-03,1,,,,,フレンズフィールド,0
689,3040003022101,新規,0,2023-03-03,2023-03-03,宝豊堂合同会社,,合同会社,千葉県,松戸市,上本郷２３９１－１第一京葉マンション２０２,,12,207,2710064,,,,,,,2023-03-03,1,,,,,ホウホウドウ,0
693,3050001052462,新規,0,2023-03-03,2023-03-03,欣欣サービス株式会社,,株式会社,茨城県,水戸市,栗崎町１５３５番地の１,,08,201,3111133,,,,,,,2023-03-03,1,,,,,シンシンサービス,0
695,3050003007274,新規,0,2023-03-03,2023-03-03,ＧＩＴＡ合同会社,,合同会社,茨城県,牛久市,南１丁目１２番地１２（シティハイム富士１０２）,,08,219,3001222,,,,,,,2023-03-03,1,,,,,ギタ,0
707,3080001025481,新規,0,2023-03-03,2023-03-03,株式会社イケヤ酒店,,株式会社,静岡県,焼津市,坂本５０３番地,,22,212,4250004,,,,,,,2023-03-03,1,,,,,イケヤサケテン,0
709,3080405007530,新規,0,2023-03-03,2023-03-03,一般社団法人浜松再生可能エネルギー研究所,,その他の設立登記法人,静岡県,浜松市東区,有玉台２丁目１９番１５号,,22,132,4313126,,,,,,,2023-03-03,1,,,,,ハママツサイセイカノウエネルギーケンキュウジョ,0
710,3090001017998,新規,0,2023-03-03,2023-03-03,株式会社豆政計,,株式会社,山梨県,甲府市,千塚３丁目９番３号ルネマンション千塚Ｂ,,19,201,4000074,,,,,,,2023-03-03,1,,,,,マメマサハカリ,0
711,3090001018006,新規,0,2023-03-03,2023-03-03,株式会社野口設計,,株式会社,山梨県,甲斐市,名取４３２番地５,,19,210,4000112,,,,,,,2023-03-03,1,,,,,ノグチセッケイ,0
712,3100001036187,新規,0,2023-03-03,2023-03-03,株式会社シライタ,,株式会社,長野県,松本市,白板２丁目３番３０号,,20,202,3900863,,,,,,,2023-03-03,1,,,,,シライタ,0
713,3100001036195,新規,0,2023-03-03,2023-03-03,株式会社ＳＯＮ,,株式会社,長野県,安曇野市,穂高有明７７１３番地２,,20,220,3998301,,,,,,,2023-03-03,1,,,,,ソン,0
714,3100001036204,新規,0,2023-03-03,2023-03-03,株式会社Ｔａｋｕ　Ｆｏｒｅｓｔ,,株式会社,長野県,安曇野市,三郷小倉６５６８番地,,20,220,3998103,,,,,,,2023-03-03,1,,,,,タクフォレスト,0
721,3110001037333,新規,0,2023-03-03,2023-03-03,株式会社フィオリータ,,株式会社,新潟県,新潟市中央区,米山１丁目７番１号,,15,103,9500916,,,,,,,2023-03-03,1,,,,,フィオリータ,0
722,3110001037341,新規,0,2023-03-03,2023-03-03,株式会社井口農場,,株式会社,新潟県,南魚沼市,茗荷沢３４８番地,,15,226,9497231,,,,,,,2023-03-03,1,,,,,イグチノウジョウ,0
734,3120001252856,新規,0,2023-03-03,2023-03-03,株式会社ＨＲＴＥＣＨＬＡＢ,,株式会社,大阪府,大阪市北区,梅田１丁目２番２号,,27,127,5300001,,,,,,,2023-03-03,1,,,,,エイチアールテックラボ,0
735,3120001252906,新規,0,2023-03-03,2023-03-03,株式会社岡田建装,,株式会社,大阪府,大阪市東淀川区,東淡路５丁目４番９号,,27,114,5330023,,,,,,,2023-03-03,1,,,,,オカダケンソウ,0
736,3120003023529,新規,0,2023-03-03,2023-03-03,合同会社バルクテック,,合同会社,大阪府,大阪市西成区,鶴見橋１丁目１番２３号,,27,122,5570031,,,,,,,2023-03-03,1,,,,,バルクテック,0
740,3120101067072,新規,0,2023-03-03,2023-03-03,株式会社Ｌ＆Ｐｌａｂｏ,,株式会社,大阪府,河内長野市,旭ケ丘１５番７号,,27,216,5860084,,,,,,,2023-03-03,1,,,,,エルトピラボ,0
744,3120901047199,新規,0,2023-03-03,2023-03-03,株式会社リアル,,株式会社,大阪府,池田市,荘園１丁目９番２６号２０３号,,27,204,5630038,,,,,,,2023-03-03,1,,,,,リアル,0
748,3122001036735,新規,0,2023-03-03,2023-03-03,株式会社Ｔｈｅ．Ｍ,,株式会社,大阪府,八尾市,青山町２丁目４番１８号,,27,212,5810018,,,,,,,2023-03-03,1,,,,,ザエム,0
754,3130001073756,新規,0,2023-03-03,2023-03-03,株式会社パートオブライフ,,株式会社,京都府,京都市山科区,小野西浦６７番地１グリーンヒルズ小野１階,,26,110,6078258,,,,,,,2023-03-03,1,,,,,パートオブライフ,0
755,3130001073797,新規,0,2023-03-03,2023-03-03,株式会社輝山,,株式会社,京都府,京丹後市,峰山町菅９４７番地の１０,,26,212,6270041,,,,,,,2023-03-03,1,,,,,コウザン,0
756,3130001073806,新規,0,2023-03-03,2023-03-03,Ｎａｎａｉｒｏ株式会社,,株式会社,京都府,京都市下京区,七条通油小路東入大黒町２２７番地第２キョートビル４０２,,26,106,6008223,,,,,,,2023-03-03,1,,,,,ナナイロ,0
757,3130003008553,新規,0,2023-03-03,2023-03-03,合同会社ＩＳホールディングス,,合同会社,京都府,京都市下京区,四条堀川町２８５番地プレサンス京都四条堀川８０２号,,26,106,6000000,,,,,,,2023-03-03,1,,,,,アイエスホールディングス,0
758,3130003008561,新規,0,2023-03-03,2023-03-03,ソイル・コミュニケーション合同会社,,合同会社,京都府,京都市西京区,大枝北福西町１丁目３番地の１、３０棟８１１号,,26,111,6101112,,,,,,,2023-03-03,1,,,,,ソイルコミュニケーション,0
765,3140001129276,新規,0,2023-03-03,2023-03-03,株式会社双貴物流,,株式会社,兵庫県,神戸市西区,池上５丁目９番地の１・ＩＩ－１０１号,00129622,28,111,6512111,,,,,,,2023-03-03,1,,,,,ソウキブツリュウ,0
766,3140001129284,新規,0,2023-03-03,2023-03-03,株式会社ＬＣＧ開発,,株式会社,兵庫県,尼崎市,昭和通４丁目１１７－５０３号室,,28,202,6600881,,,,,,,2023-03-03,1,,,,,エルシージーカイハツ,0
767,3140001129318,新規,0,2023-03-03,2023-03-03,株式会社双葉,,株式会社,兵庫県,伊丹市,梅ノ木２丁目４－１４デューＮＨ新伊丹１０１,,28,207,6640856,,,,,,,2023-03-03,1,,,,,フタバ,0
768,3140001129359,新規,0,2023-03-03,2023-03-03,株式会社ＴＥＩＳ,,株式会社,兵庫県,宝塚市,亀井町１０番６３号,,28,214,6650047,,,,,,,2023-03-03,1,,,,,テイズ,0
770,3140003018782,新規,0,2023-03-03,2023-03-03,合同会社播磨総園,,合同会社,兵庫県,たつの市,揖保川町山津屋１５９番地３アーバンプラスＦ１０１,,28,229,6711631,,,,,,,2023-03-03,1,,,,,ハリマソウエン,0
771,3140005026494,新規,0,2023-03-03,2023-03-03,特定非営利活動法人命と性の相談室,,その他の設立登記法人,兵庫県,神戸市北区,小倉台７丁目７番地の１１,,28,109,6511211,,,,,,,2023-03-03,1,,,,,イノチトセイノソウダンシツ,0
781,3180003024934,新規,0,2023-03-03,2023-03-03,合同会社マセレ,,合同会社,愛知県,名古屋市中村区,名駅３丁目４－１０アルティメイト名駅１ｓｔ２階,,23,105,4500002,,,,,,,2023-03-03,1,,,,,マセレ,0
786,3180301037142,新規,0,2023-03-03,2023-03-03,株式会社Ｅ＆Ｋ,,株式会社,愛知県,岡崎市,竜美東３丁目１１番地７,,23,202,4440878,,,,,,,2023-03-03,1,,,,,イーアンドケイ,0
792,3190001030198,新規,0,2023-03-03,2023-03-03,株式会社ギフトラボ,,株式会社,三重県,伊賀市,西明寺６２３－１０,,24,216,5180809,,,,,,,2023-03-03,1,,,,,ギフトラボ,0
793,3190001030207,新規,0,2023-03-03,2023-03-03,Ｔｓｕｊｉ広告株式会社,,株式会社,三重県,伊勢市,小俣町湯田５７１番地,,24,203,5190506,,,,,,,2023-03-03,1,,,,,ツジコウコク,0
795,3200001041012,新規,0,2023-03-03,2023-03-03,アイエスメンテ株式会社,,株式会社,岐阜県,高山市,国府町宇津江１４７８番地,,21,203,5094121,,,,,,,2023-03-03,1,,,,,アイエスメンテ,0
796,3200001041020,新規,0,2023-03-03,2023-03-03,株式会社ぶるたん,,株式会社,岐阜県,羽島郡岐南町,平成５丁目９１番地サンツイン２３２号室,,21,302,5016013,,,,,,,2023-03-03,1,,,,,ブルタン,0
797,3200005013453,新規,0,2023-03-03,2023-03-03,一般社団法人豊楽会,,その他の設立登記法人,岐阜県,各務原市,各務船山町１丁目８９番地,,21,213,5090107,,,,,,,2023-03-03,1,,,,,ホウラクカイ,0
803,3220003003462,新規,0,2023-03-03,2023-03-03,にかほ両前寺風力発電合同会社,,合同会社,石川県,金沢市,鳴和１丁目１８番３号,,17,201,9200804,,,,,,,2023-03-03,1,,,,,ニカホリョウゼンジフウリョクハツデン,0
805,3230003001977,新規,0,2023-03-03,2023-03-03,合同会社ＺＥＡＸ,,合同会社,富山県,射水市,片口７１４番地,,16,211,9340032,,,,,,,2023-03-03,1,,,,,ジークス,0
809,3240001061163,新規,0,2023-03-03,2023-03-03,株式会社ヤマサン,,株式会社,広島県,広島市安佐北区,白木町大字三田２３７４番地２９,,34,106,7391521,,,,,,,2023-03-03,1,,,,,ヤマサン,0
814,3240005015529,新規,0,2023-03-03,2023-03-03,医療法人かわい皮ふ科クリニック,,その他の設立登記法人,広島県,広島市佐伯区,楽々園５丁目９番５－３０１号,,34,108,7315136,,,,,,,2023-03-03,1,,,,,カワイヒフカクリニック,0
816,3250003003229,新規,0,2023-03-03,2023-03-03,合同会社アルタイル,,合同会社,山口県,周南市,平和通２丁目１９番地,,35,215,7450015,,,,,,,2023-03-03,1,,,,,アルタイル,0
826,3270001008731,新規,0,2023-03-03,2023-03-03,かとう水産株式会社,,株式会社,鳥取県,境港市,渡町３０７１番地,,31,204,6840072,,,,,,,2023-03-03,1,,,,,カトウスイサン,0
830,3290001100668,新規,0,2023-03-03,2023-03-03,株式会社村山電工,,株式会社,福岡県,飯塚市,小正２１５番地４,,40,205,8200089,,,,,,,2023-03-03,1,,,,,ムラヤマデンコウ,0
831,3290001100718,新規,0,2023-03-03,2023-03-03,株式会社レコ,,株式会社,福岡県,糟屋郡篠栗町,大字尾仲４２４番地,,40,342,8112413,,,,,,,2023-03-03,1,,,,,レコ,0
834,3290003013612,新規,0,2023-03-03,2023-03-03,合同会社Ｃ‐ＣＵＢＥ,,合同会社,福岡県,福岡市博多区,博多駅前３丁目１１－２４ラフォーレ博多駅前３０４,,40,132,8120011,,,,,,,2023-03-03,1,,,,,シーキューブ,0
836,3290801029330,新規,0,2023-03-03,2023-03-03,株式会社コクラ理工,,株式会社,福岡県,北九州市小倉南区,田原２丁目２番１号,,40,107,8000225,,,,,,,2023-03-03,1,,,,,コクラリコウ,0
837,3290801029339,新規,0,2023-03-03,2023-03-03,株式会社聖フーズ,,株式会社,福岡県,行橋市,西宮市１丁目３番１－４０３号,,40,213,8240031,,,,,,,2023-03-03,1,,,,,ヒジリフーズ,0
838,3290803004356,新規,0,2023-03-03,2023-03-03,リキドリーム合同会社,,合同会社,福岡県,北九州市八幡西区,友田３丁目８番１７号,,40,109,8070828,,,,,,,2023-03-03,1,,,,,リキドリーム,0
841,3310001018288,新規,0,2023-03-03,2023-03-03,株式会社ケイエムエル,,株式会社,長崎県,西海市,大瀬戸町瀬戸樫浦郷２２７８番地５,,42,212,8572302,,,,,,,2023-03-03,1,,,,,ケイエムエル,0
846,3310005008665,新規,0,2023-03-03,2023-03-03,医療法人ＴＩＤ,,その他の設立登記法人,長崎県,南島原市,西有家町須川１１９７番地１９,,42,214,8592212,,,,,,,2023-03-03,1,,,,,ティーアイディー,0
849,3320001019608,新規,0,2023-03-03,2023-03-03,株式会社クリーンファクトリー,,株式会社,大分県,由布市,挾間町下市２８５番地の１,,44,213,8795504,,,,,,,2023-03-03,1,,,,,クリーンファクトリー,0
852,3330001030638,新規,0,2023-03-03,2023-03-03,株式会社岬電工,,株式会社,熊本県,宇土市,北段原町２５１番地１,,43,211,8690451,,,,,,,2023-03-03,1,,,,,ミサキデンコウ,0
854,3330003009746,新規,0,2023-03-03,2023-03-03,ＸＯＳＳ　ＳＴＵＤＩＯ合同会社,,合同会社,熊本県,熊本市東区,尾ノ上４丁目１１－４７クオリア尾ノ上３０５,,43,102,8620913,,,,,,,2023-03-03,1,,,,,クロススタジオ,0
870,3430001088542,新規,0,2023-03-03,2023-03-03,株式会社やまり,,株式会社,北海道,札幌市中央区,南八条西１０丁目１２７８番地３２ノースランドありふじ１０２号,,01,101,0640808,,,,,,,2023-03-03,1,,,,,ヤマリ,0
871,3430001088559,新規,0,2023-03-03,2023-03-03,株式会社エスコネクト,,株式会社,北海道,札幌市中央区,南四条西１０丁目１００５番地１,,01,101,0640804,,,,,,,2023-03-03,1,,,,,エスコネクト,0
872,3430003014785,新規,0,2023-03-03,2023-03-03,合同会社ＥＸＰＲＯＳ,,合同会社,北海道,札幌市豊平区,平岸三条９丁目４番１９号,,01,105,0620933,,,,,,,2023-03-03,1,,,,,エクスプロス,0
873,3430005014643,新規,0,2023-03-03,2023-03-03,一般社団法人かすたねっとクラブ,,その他の設立登記法人,北海道,札幌市東区,北四十六条東１５丁目４番５号,,01,103,0070846,,,,,,,2023-03-03,1,,,,,カスタネットクラブ,0
875,3460103001516,新規,0,2023-03-03,2023-03-03,合同会社遠藤農産,,合同会社,北海道,中川郡幕別町,字大豊２０５番地の３,,01,643,0890622,,,,,,,2023-03-03,1,,,,,エンドウノウサン,0
876,3460105002256,新規,0,2023-03-03,2023-03-03,無限責任平和第一負債整理組合,00129559,その他の設立登記法人,北海道,河西郡芽室町,大字西士狩村字美蔓西十五線５２番地,,01,637,0820000,,,,,,,2023-03-03,1,,,,,,0
879,3470001019493,新規,0,2023-03-03,2023-03-03,株式会社ＧＲＡＢ,,株式会社,香川県,丸亀市,金倉町１９３５番地,,37,202,7630053,,,,,,,2023-03-03,1,,,,,グラブ,0
881,3480003001944,新規,0,2023-03-03,2023-03-03,アグリイノベーション合同会社,,合同会社,徳島県,板野郡藍住町,勝瑞字成長１２８番地８,,36,403,7711272,,,,,,,2023-03-03,1,,,,,アグリイノベーション,0
882,3490001010418,新規,0,2023-03-03,2023-03-03,株式会社アスタノ,,株式会社,高知県,高知市,本町２丁目４番３０－３０７号,,39,201,7800870,,,,,,,2023-03-03,1,,,,,アスタノ,0
884,3700150114591,新規,0,2023-03-03,2023-03-03,Ｓｈｅｎｚｈｅｎ　Ｒｕｉｇｅ　Ｉｎｔｅｒｎａｔｉｏｎａｌ　Ｆｒｅｉｇｈｔ　Ｆｏｒｗａｒｄｉｎｇ　Ｃｏ．，Ｌｔｄ,,外国会社等,,,,,,,,Ａ１０２，Ｎｏ．１０７，Ｙｏｎｇｆｕ　Ｒｄ．，Ｈｅｐｉｎｇ　Ｃｏｍｍ．，Ｆｕｈａｉ　Ｓｔ．，Ｂａｎａｏ　Ｄｉｓｔ．，Ｓｈｅｎｚｈｅｎ，Ｃｈｉｎａ,,,,,,2023-03-03,1,,,,,シエンチエンルイジインターナシヨナルフレイトフオワーデイングカンパニーリミテツド,0
885,3700150114600,新規,0,2023-03-03,2023-03-03,ｙｉｓｈｅｎｇｘｉｎｇｙｕｎｓｈａｎｇｍａｏｙｏｕｘｉａｎｇｏｎｇｓｉ,,外国会社等,,,,,,,,ｂａｎｔｉａｎｊｉｅｄａｏｓｈｉｅｒｘｉａｎｇｓｈｕｚｈｕａｎｇｙｕａｎＬ３ｄｏｎｇ３Ｂ　ｓｈｅｎｚｈｅｎ，Ｌｏｎｇｇａｎｇ　Ｄｉｓｔｒｉｃｔ　ｇｕａｎｇｄｏｎｇ　５１８１２９　ＣＮ,,,,,,2023-03-03,1,,,,,イーシヨンシンユンシヤンマオシエンジエンヨウシエンゴンス,0
894,4010005036324,新規,0,2023-03-03,2023-03-03,一般社団法人アストロノーツ,,その他の設立登記法人,東京都,中央区,銀座１丁目７番７号ポーラ銀座ビル４階,,13,102,1040061,,,,,,,2023-03-03,1,,,,,アストロノーツ,0
900,4010401172739,新規,0,2023-03-03,2023-03-03,株式会社ＮＳＳＫ‐Ａ２,,株式会社,東京都,港区,愛宕２丁目５番１号愛宕グリーンヒルズＭＯＲＩタワー,,13,103,1050002,,,,,,,2023-03-03,1,,,,,エヌエスエスケーエーツー,0
901,4010401172805,新規,0,2023-03-03,2023-03-03,株式会社Ｂｖｃｈｉ,,株式会社,東京都,港区,南青山２丁目２番１５号ウィン青山９４２,,13,103,1070062,,,,,,,2023-03-03,1,,,,,ビヴィッチ,0
902,4010401172870,新規,0,2023-03-03,2023-03-03,株式会社アセットエクイティ,,株式会社,東京都,港区,麻布十番２丁目２番１号,,13,103,1060045,,,,,,,2023-03-03,1,,,,,アセットエクイティ,0
905,4010403029598,新規,0,2023-03-03,2023-03-03,合同会社ＳＵＺＵＶＥＲＳＥ　ＪＡＰＡＮ,,合同会社,東京都,港区,虎ノ門城山トラストタワー２１階,,13,103,1050000,,,,,,,2023-03-03,1,,,,,スズバースジャパン,0
906,4010403029648,新規,0,2023-03-03,2023-03-03,備前雲の上太陽光発電合同会社,,合同会社,東京都,港区,六本木３丁目２番１号六本木グランドタワー,,13,103,1060032,,,,,,,2023-03-03,1,,,,,ビゼンクモノウエタイヨウコウハツデン,0
909,4010405021859,新規,0,2023-03-03,2023-03-03,弁護士法人アスコープ,,その他の設立登記法人,東京都,港区,三田１丁目４番２８号三田国際ビル２６階,,13,103,1080073,,,,,,,2023-03-03,1,,,,,アスコープ,0
916,4010705003482,新規,0,2023-03-03,2023-03-03,医療法人社団賢悠会,,その他の設立登記法人,東京都,品川区,旗の台２丁目１番２９号ＦＯＲＵＣＥ１階,,13,109,1420064,,,,,,,2023-03-03,1,,,,,ケンユウカイ,0
917,4010801033730,新規,0,2023-03-03,2023-03-03,アジリティコーポレーション株式会社,,株式会社,東京都,大田区,南六郷１丁目２５番２号,,13,111,1440045,,,,,,,2023-03-03,1,,,,,アジリティコーポレーション,0
918,4010803004457,新規,0,2023-03-03,2023-03-03,Ｉｎ　Ｃｏｍｍｏｄｉｔｉｅｓ　ＪＰ合同会社,,合同会社,東京都,大田区,羽田空港１丁目１番４号,,13,111,1440041,,,,,,,2023-03-03,1,,,,,インコモディティズジェーピー,0
923,4011001152858,新規,0,2023-03-03,2023-03-03,株式会社ＲＡＤＳＣＡＬＥ,,株式会社,東京都,渋谷区,道玄坂１丁目１０番８号渋谷道玄坂東急ビル２Ｆ－Ｃ,,13,113,1500043,,,,,,,2023-03-03,1,,,,,ラッドスケール,0
924,4011001152908,新規,0,2023-03-03,2023-03-03,株式会社ＴｒｉｐｌｅＳ,,株式会社,東京都,渋谷区,渋谷１丁目１番３号３Ｆ,,13,113,1500002,,,,,,,2023-03-03,1,,,,,トリプルエス,0
929,4011101102036,新規,0,2023-03-03,2023-03-03,株式会社ＳｏｍｅＬ,,株式会社,東京都,新宿区,西新宿３丁目３番１３号西新宿水間ビル６階,,13,104,1600023,,,,,,,2023-03-03,1,,,,,ソメル,0
931,4011103012761,新規,0,2023-03-03,2023-03-03,合同会社Ｌｉｍｉｔ３０,,合同会社,東京都,新宿区,西新宿３丁目３番１３号西新宿水間ビル２Ｆ,,13,104,1600023,,,,,,,2023-03-03,1,,,,,リミットサンジュウ,0
933,4011105010573,新規,0,2023-03-03,2023-03-03,一般社団法人スーパーコンピューティング・ジャパン,,その他の設立登記法人,東京都,新宿区,西新宿３丁目３番１３号西新宿水間ビル６階,,13,104,1600023,,,,,,,2023-03-03,1,,,,,スーパーコンピューティングジャパン,0
938,4011301028510,新規,0,2023-03-03,2023-03-03,株式会社悦び家政婦紹介所,,株式会社,東京都,杉並区,和田２丁目３３番９号,,13,115,1660012,,,,,,,2023-03-03,1,,,,,ヨロコビカセイフショウカイジョ,0
941,4011401024938,新規,0,2023-03-03,2023-03-03,株式会社ＭＡＲＵＫＯ,,株式会社,東京都,板橋区,蓮根１丁目２９－１４カ行マンション１０６,,13,119,1740046,,,,,,,2023-03-03,1,,,,,マルコ,0
944,4011601026627,新規,0,2023-03-03,2023-03-03,株式会社Ｒｅｖａｒｃ,,株式会社,東京都,練馬区,貫井４丁目２番３２号,,13,120,1760021,,,,,,,2023-03-03,1,,,,,レヴァーク,0
952,4012703002648,新規,0,2023-03-03,2023-03-03,北秋総合合同会社,,合同会社,東京都,東村山市,青葉町２丁目９番地２６,,13,213,1890002,,,,,,,2023-03-03,1,,,,,ホクシュウソウゴウ,0
953,4012801022176,新規,0,2023-03-03,2023-03-03,株式会社Ｉ創家,,株式会社,東京都,立川市,柴崎町１丁目９番１１号,,13,202,1900023,,,,,,,2023-03-03,1,,,,,アイソウカ,0
968,4020001150458,新規,0,2023-03-03,2023-03-03,株式会社しんわ,,株式会社,神奈川県,横浜市港北区,菊名３丁目１９番２９－４０４号,,14,109,2220011,,,,,,,2023-03-03,1,,,,,シンワ,0
969,4020001150474,新規,0,2023-03-03,2023-03-03,株式会社シノミヤ設備,,株式会社,神奈川県,横浜市保土ケ谷区,西谷３丁目３１番１３号,,14,106,2400054,,,,,,,2023-03-03,1,,,,,シノミヤセツビ,0
970,4020001150482,新規,0,2023-03-03,2023-03-03,株式会社リーフエー,,株式会社,神奈川県,横浜市保土ケ谷区,新桜ケ丘１丁目５８番２０号,,14,106,2400036,,,,,,,2023-03-03,1,,,,,リーフエー,0
971,4020001150508,新規,0,2023-03-03,2023-03-03,株式会社遠藤,,株式会社,神奈川県,横浜市中区,福富町西通１番地７,,14,104,2310042,,,,,,,2023-03-03,1,,,,,エンドウ,0
972,4020001150516,新規,0,2023-03-03,2023-03-03,ウォーターワンホールディングス株式会社,,株式会社,神奈川県,横浜市西区,平沼１丁目１番３号,,14,103,2200023,,,,,,,2023-03-03,1,,,,,ウォーターワンホールディングス,0
973,4020001150524,新規,0,2023-03-03,2023-03-03,株式会社金城,,株式会社,神奈川県,川崎市川崎区,中島２丁目２番１６－２０２号中島ハイツ,,14,131,2100806,,,,,,,2023-03-03,1,,,,,キンジョウ,0
974,4020001150549,新規,0,2023-03-03,2023-03-03,株式会社ＮＫプラン,,株式会社,神奈川県,横浜市西区,浅間町１丁目４番３号ウィザードビル４０２,,14,103,2200072,,,,,,,2023-03-03,1,,,,,エヌケープラン,0
975,4020001150557,新規,0,2023-03-03,2023-03-03,ＲＥＩＢＵ株式会社,,株式会社,神奈川県,横浜市神奈川区,松見町３丁目９１１番地１５朝日プラザ妙蓮寺ＩＩ６０２号,00129626,14,102,2210005,,,,,,,2023-03-03,1,,,,,レイブ,0
977,4020003023430,新規,0,2023-03-03,2023-03-03,三管合同会社,,合同会社,神奈川県,横浜市磯子区,磯子７丁目３番４－２０５号,,14,107,2350016,,,,,,,2023-03-03,1,,,,,ミカン,0
978,4020003023447,新規,0,2023-03-03,2023-03-03,ユニコーン合同会社,,合同会社,神奈川県,川崎市麻生区,虹ケ丘２丁目２番１５－４０２号,,14,137,2150015,,,,,,,2023-03-03,1,,,,,ユニコーン,0
991,4030001152627,新規,0,2023-03-03,2023-03-03,株式会社ＢＡＮＤＥ,,株式会社,埼玉県,越谷市,千間台西６丁目１０番地２,,11,222,3430041,,,,,,,2023-03-03,1,,,,,バンデ,0
992,4030001152651,新規,0,2023-03-03,2023-03-03,株式会社エヌイージーユー,,株式会社,埼玉県,戸田市,南町４番２８－６０８号,,11,224,3350025,,,,,,,2023-03-03,1,,,,,エヌイージーユー,0
993,4030001152692,新規,0,2023-03-03,2023-03-03,株式会社三芳土木開発,,株式会社,埼玉県,入間郡三芳町,大字上富２２７９,,11,324,3540045,,,,,,,2023-03-03,1,,,,,ミヨシドボクカイハツ,0
994,4030001152718,新規,0,2023-03-03,2023-03-03,株式会社フリーティブ,,株式会社,埼玉県,さいたま市緑区,大字南部領辻３２１９番地５,00129610,11,109,3360973,,,,,,,2023-03-03,1,,,,,フリーティブ,0
995,4030001152726,新規,0,2023-03-03,2023-03-03,株式会社ＷＡＵＲＡ,,株式会社,埼玉県,さいたま市浦和区,仲町１丁目９番１２号グレインビル地下１階,,11,107,3300062,,,,,,,2023-03-03,1,,,,,ワウラ,0
1002,4030003021284,新規,0,2023-03-03,2023-03-03,合同会社緑丸,,合同会社,埼玉県,三郷市,新和５丁目２５６番地１,,11,237,3410034,,,,,,,2023-03-03,1,,,,,ミドリマル,0
1003,4040001127289,新規,0,2023-03-03,2023-03-03,株式会社ＬＩＲＩＺＥ,,株式会社,千葉県,旭市,萬力１０９１番地,,12,215,2890517,,,,,,,2023-03-03,1,,,,,リライズ,0
1004,4040001127297,新規,0,2023-03-03,2023-03-03,株式会社サンピース,,株式会社,千葉県,松戸市,松戸１６６７番地,,12,207,2710092,,,,,,,2023-03-03,1,,,,,サンピース,0
1005,4040001127339,新規,0,2023-03-03,2023-03-03,株式会社ネクストＰＶ,,株式会社,千葉県,柏市,花野井８２４番地５４,,12,217,2770812,,,,,,,2023-03-03,1,,,,,ネクストピーブイ,0
1006,4040003022075,新規,0,2023-03-03,2023-03-03,合同会社イニコ,,合同会社,千葉県,千葉市美浜区,稲毛海岸４丁目１２番９号,,12,106,2610005,,,,,,,2023-03-03,1,,,,,イニコ,0
1007,4040003022083,新規,0,2023-03-03,2023-03-03,合同会社早川エクステリア,,合同会社,千葉県,佐倉市,城６７９番地１２,,12,212,2850815,,,,,,,2023-03-03,1,,,,,ハヤカワエクステリア,0
1008,4040003022100,新規,0,2023-03-03,2023-03-03,合同会社未来建設,,合同会社,千葉県,成田市,寺台５５１番地,,12,211,2860022,,,,,,,2023-03-03,1,,,,,ミライケンセツ,0
1011,4060001035738,新規,0,2023-03-03,2023-03-03,リリーコーポレーション株式会社,,株式会社,栃木県,宇都宮市,西大寛２丁目２番１５号,,09,201,3200866,,,,,,,2023-03-03,1,,,,,リリーコーポレーション,0
1014,4070001040183,新規,0,2023-03-03,2023-03-03,株式会社メディカル,,株式会社,群馬県,前橋市,東片貝町１０７９番地,,10,201,3710012,,,,,,,2023-03-03,1,,,,,メディカル,0
1019,4080401026343,新規,0,2023-03-03,2023-03-03,株式会社Ａ‐ｖｏｌｔｅｃ,,株式会社,静岡県,浜松市東区,恒武町２３７番地の１,,22,132,4313108,,,,,,,2023-03-03,1,,,,,アボルテック,0
1020,4080401026351,新規,0,2023-03-03,2023-03-03,株式会社シーマンズ,,株式会社,静岡県,御前崎市,御前崎６７番地の９,,22,223,4371621,,,,,,,2023-03-03,1,,,,,シーマンズ,0
1023,4080403004743,新規,0,2023-03-03,2023-03-03,合同会社エル,,合同会社,静岡県,浜松市西区,志都呂１丁目３７番５０号,,22,133,4328069,,,,,,,2023-03-03,1,,,,,エル,0
1025,4090001017997,新規,0,2023-03-03,2023-03-03,株式会社ホノベ工業,,株式会社,山梨県,甲斐市,亀沢２４３２番地,,19,210,4001113,,,,,,,2023-03-03,1,,,,,ホノベコウギョウ,0
1026,4090001018005,新規,0,2023-03-03,2023-03-03,株式会社志村葡萄研究所,,株式会社,山梨県,笛吹市,御坂町下黒駒５２０番地１,,19,211,4060812,,,,,,,2023-03-03,1,,,,,シムラブドウケンキュウジョ,0
1029,4100001036203,新規,0,2023-03-03,2023-03-03,Ｌｏｔｕｓ株式会社,,株式会社,長野県,長野市,西後町町並１５８３リプロ表参道２Ｆ,,20,201,3810000,,,,,,,2023-03-03,1,,,,,ロータス,0
1031,4100003006906,新規,0,2023-03-03,2023-03-03,合同会社帯刀農園,,合同会社,長野県,安曇野市,三郷小倉５３３８番地１,,20,220,3998103,,,,,,,2023-03-03,1,,,,,オビナタノウエン,0
1032,4100005012976,新規,0,2023-03-03,2023-03-03,医療法人ヘッジホッグ,,その他の設立登記法人,長野県,長野市,大字徳間５４４番地１６,,20,201,3810041,,,,,,,2023-03-03,1,,,,,ヘッジホッグ,0
1034,4110001037324,新規,0,2023-03-03,2023-03-03,株式会社コティ,,株式会社,新潟県,長岡市,三和３丁目３番地４,,15,202,9401151,,,,,,,2023-03-03,1,,,,,コティ,0
1050,4120001252888,新規,0,2023-03-03,2023-03-03,エルトスラボラトリー株式会社,,株式会社,大阪府,大阪市北区,豊崎３丁目１５－５ＴＫビル２Ｆ,,27,127,5310072,,,,,,,2023-03-03,1,,,,,エルトスラボラトリー,0
1051,4120001252896,新規,0,2023-03-03,2023-03-03,Ｔ’ｓ　ＷＯＲＫＳ株式会社,,株式会社,大阪府,門真市,千石東町１２番２６号,,27,223,5710013,,,,,,,2023-03-03,1,,,,,ティーズワークス,0
1052,4120001252913,新規,0,2023-03-03,2023-03-03,イナテック株式会社,,株式会社,大阪府,枚方市,渚西１丁目５番２７号,,27,210,5731178,,,,,,,2023-03-03,1,,,,,イナテック,0
1053,4120001252946,新規,0,2023-03-03,2023-03-03,株式会社アイディールシティー,,株式会社,大阪府,大阪市西区,江戸堀１丁目２３－１９－１００３号,,27,106,5500002,,,,,,,2023-03-03,1,,,,,アイディールシティー,0
1062,4120003023528,新規,0,2023-03-03,2023-03-03,ヨシノリ合同会社,,合同会社,大阪府,大阪市浪速区,湊町１丁目４番３６－２４０８号,,27,111,5560017,,,,,,,2023-03-03,1,,,,,ヨシノリ,0
1063,4120101067088,新規,0,2023-03-03,2023-03-03,株式会社廣政重陸,00129613,株式会社,大阪府,羽曳野市,はびきの５丁目２２番５－４０１号,,27,222,5830872,,,,,,,2023-03-03,1,,,,,ヒロマサジュウリク,0
1064,4120101067096,新規,0,2023-03-03,2023-03-03,Ｊ’ａｄｏｒｅ　ＬＢ株式会社,,株式会社,大阪府,泉佐野市,俵屋４１６番地の６,,27,213,5980003,,,,,,,2023-03-03,1,,,,,ジャドールエルビー,0
1070,4120103005095,新規,0,2023-03-03,2023-03-03,エルジョーカー合同会社,,合同会社,大阪府,堺市美原区,平尾２０２０番地１,,27,147,5870022,,,,,,,2023-03-03,1,,,,,エルジョーカー,0
1075,4120901047207,新規,0,2023-03-03,2023-03-03,株式会社Ｇｏｏｔｅｌａ,,株式会社,大阪府,池田市,旭丘２丁目６番１１号,,27,204,5630022,,,,,,,2023-03-03,1,,,,,グーテラ,0
1077,4122001036742,新規,0,2023-03-03,2023-03-03,株式会社ＢＬＩＳＳ,,株式会社,大阪府,東大阪市,吉原１丁目９番１１－１０１号,,27,227,5780904,,,,,,,2023-03-03,1,,,,,ブリス,0
1080,4130001073730,新規,0,2023-03-03,2023-03-03,株式会社ＴＳＮ　Ｊａｐａｎ,,株式会社,京都府,京都市山科区,安朱南屋敷町３５番地ラクトＤ４階,,26,110,6078011,,,,,,,2023-03-03,1,,,,,ティエスエヌジャパン,0
1081,4130001073763,新規,0,2023-03-03,2023-03-03,株式会社アーツシンク,,株式会社,京都府,舞鶴市,字浜６８８－２Ａ,,26,202,6250036,,,,,,,2023-03-03,1,,,,,アーツシンク,0
1082,4130001073796,新規,0,2023-03-03,2023-03-03,株式会社Ａ・Ｙ,,株式会社,京都府,向日市,鶏冠井町馬司３番地の３,,26,208,6170004,,,,,,,2023-03-03,1,,,,,エーワイ,0
1083,4130003008560,新規,0,2023-03-03,2023-03-03,合同会社アトリエアリオ,,合同会社,京都府,京都市下京区,清水町４５４番地１林ビル５０５号,,26,106,6008025,,,,,,,2023-03-03,1,,,,,アトリエアリオ,0
1086,4140001129267,新規,0,2023-03-03,2023-03-03,株式会社ＫＧＶＣ,,株式会社,兵庫県,西宮市,上ケ原一番町１番１５５号,,28,204,6620891,,,,,,,2023-03-03,1,,,,,ケージーヴイシー,0
1087,4140001129283,新規,0,2023-03-03,2023-03-03,Ａｗｅｓｏｍｅ＆Ｃｏ株式会社,,株式会社,兵庫県,神戸市東灘区,西岡本７丁目１７番１号,,28,101,6580073,,,,,,,2023-03-03,1,,,,,オーサムアンドコー,0
1088,4140001129300,新規,0,2023-03-03,2023-03-03,株式会社ＡＣＲ,,株式会社,兵庫県,神戸市中央区,元町通１丁目１０－４,,28,110,6500022,,,,,,,2023-03-03,1,,,,,エーシーアール,0
1089,4140001129317,新規,0,2023-03-03,2023-03-03,株式会社ＳＳＴ,,株式会社,兵庫県,神戸市中央区,御幸通８丁目１－６神戸国際会館２２Ｆ,,28,110,6510087,,,,,,,2023-03-03,1,,,,,エスエスティ,0
1090,4140001129333,新規,0,2023-03-03,2023-03-03,株式会社ケーツー,,株式会社,兵庫県,西宮市,越水町１３番２１号,,28,204,6620864,,,,,,,2023-03-03,1,,,,,ケーツー,0
1092,4140003018773,新規,0,2023-03-03,2023-03-03,ＮＹＣ合同会社,,合同会社,兵庫県,宝塚市,清荒神１丁目５－１４－２０１,,28,214,6650836,,,,,,,2023-03-03,1,,,,,エヌワイシー,0
1094,4150001026208,新規,0,2023-03-03,2023-03-03,株式会社Ｂｉｌｌｙ,,株式会社,奈良県,奈良市,大宮町４丁目３１０番地の７,,29,201,6308115,,,,,,,2023-03-03,1,,,,,ビリー,0
1095,4160001024862,新規,0,2023-03-03,2023-03-03,ロギア株式会社,,株式会社,滋賀県,長浜市,大戌亥町１１５７番地,,25,203,5260043,,,,,,,2023-03-03,1,,,,,ロギア,0
1096,4160001024879,新規,0,2023-03-03,2023-03-03,株式会社ＣＲＥＹ,,株式会社,滋賀県,守山市,梅田町２番１号セルバ守山１１２Ａ,,25,207,5240037,,,,,,,2023-03-03,1,,,,,クレイ,0
1098,4160003002809,新規,0,2023-03-03,2023-03-03,合同会社ｌａｎｄｓｃａｐｅ,,合同会社,滋賀県,大津市,伊香立途中町３００番地,,25,201,5200361,,,,,,,2023-03-03,1,,,,,ランドスケイプ,0
1110,4180003024933,新規,0,2023-03-03,2023-03-03,合同会社ＩＣＨＩ．,,合同会社,愛知県,名古屋市中村区,名駅４丁目２４番５号第２森ビル４０１,,23,105,4500002,,,,,,,2023-03-03,1,,,,,イチ,0
1114,4200001041011,新規,0,2023-03-03,2023-03-03,株式会社Ｋ‐ａｕｔｏ,,株式会社,岐阜県,瑞浪市,釜戸町３５０４番地の３０,,21,208,5096472,,,,,,,2023-03-03,1,,,,,ケーオート,0
1115,4200001041044,新規,0,2023-03-03,2023-03-03,株式会社東京堂大薬房,,株式会社,岐阜県,岐阜市,徹明通２丁目１８番地,,21,201,5008879,,,,,,,2023-03-03,1,,,,,トウキョウドウダイヤクボウ,0
1119,4200003005880,新規,0,2023-03-03,2023-03-03,合同会社三友電設,,合同会社,岐阜県,山県市,梅原９３９番地１,,21,215,5012115,,,,,,,2023-03-03,1,,,,,サンユウデンセツ,0
1120,4220001025292,新規,0,2023-03-03,2023-03-03,株式会社マネジメント白山,,株式会社,石川県,白山市,平松町２７０‐１,,17,210,9240841,,,,,,,2023-03-03,1,,,,,マネジメントハクサン,0
1121,4220003003461,新規,0,2023-03-03,2023-03-03,ＳｅａＴｒｕｔｈ合同会社,,合同会社,石川県,金沢市,四十万町リ３５０番地１,,17,201,9218133,,,,,,,2023-03-03,1,,,,,シートゥルース,0
1129,4240005015528,新規,0,2023-03-03,2023-03-03,医療法人ＮＣＧ,,その他の設立登記法人,広島県,広島市安佐南区,緑井２丁目２８番２８号,,34,105,7310103,,,,,,,2023-03-03,1,,,,,エヌシージー,0
1131,4250001019985,新規,0,2023-03-03,2023-03-03,株式会社エム,,株式会社,山口県,山口市,小郡新町５丁目１０番１７号,,35,203,7540031,,,,,,,2023-03-03,1,,,,,エム,0
1146,4290001100782,新規,0,2023-03-03,2023-03-03,エスコネ株式会社,,株式会社,福岡県,福岡市博多区,博多駅前４丁目１６番６－２０２号,,40,132,8120011,,,,,,,2023-03-03,1,,,,,エスコネ,0
1147,4290005018963,新規,0,2023-03-03,2023-03-03,一般社団法人のぼせもん,,その他の設立登記法人,福岡県,福岡市博多区,博多駅前１丁目２３番１号ＰａｒｋＦｒｏｎｔ博多駅前１丁目５Ｆ－Ｂ,,40,132,8120011,,,,,,,2023-03-03,1,,,,,ノボセモン,0
1148,4290801029313,新規,0,2023-03-03,2023-03-03,株式会社Ｏｆｆｉｃｅ　Ｋｉｓｈｉｎｏ,,株式会社,福岡県,田川郡川崎町,大字田原１０２１－７,,40,605,8270004,,,,,,,2023-03-03,1,,,,,オフィスキシノ,0
1153,4310001018287,新規,0,2023-03-03,2023-03-03,株式会社翔建,,株式会社,長崎県,佐世保市,吉井町直谷１０５３番地１,,42,202,8596305,,,,,,,2023-03-03,1,,,,,ショウケン,0
1156,4320003004037,新規,0,2023-03-03,2023-03-03,合同会社宝聖商会,,合同会社,大分県,大分市,大字津留１９２９番地１大商ビル１０２,,44,201,8700930,,,,,,,2023-03-03,1,,,,,ホウセイショウカイ,0
1158,4330001030653,新規,0,2023-03-03,2023-03-03,株式会社ＭｅｅｔＵ,,株式会社,熊本県,熊本市中央区,新町２丁目１２番２１号グラディート新町２Ｆ,,43,101,8600004,,,,,,,2023-03-03,1,,,,,ミーツ,0
1159,4330001030661,新規,0,2023-03-03,2023-03-03,クロース株式会社,,株式会社,熊本県,熊本市北区,植木町岩野７６－１,,43,105,8610136,,,,,,,2023-03-03,1,,,,,クロース,0
1162,4340001025396,新規,0,2023-03-03,2023-03-03,株式会社リベルテ,,株式会社,鹿児島県,肝属郡肝付町,後田５６２５番地５,,46,492,8931203,,,,,,,2023-03-03,1,,,,,リベルテ,0
1163,4340001025405,新規,0,2023-03-03,2023-03-03,株式会社南九ホールディングス,,株式会社,鹿児島県,鹿屋市,下堀町９５７８番地５,,46,203,8930047,,,,,,,2023-03-03,1,,,,,ナンキュウホールディングス,0
1170,4370001049657,新規,0,2023-03-03,2023-03-03,城南企画株式会社,,株式会社,宮城県,大崎市,松山千石字大欅２番地１３,,04,215,9871304,,,,,,,2023-03-03,1,,,,,ジョウナンキカク,0
1171,4370001049665,新規,0,2023-03-03,2023-03-03,Ｋ・電航株式会社,,株式会社,宮城県,塩竈市,泉沢町１１番２０号,,04,203,9850062,,,,,,,2023-03-03,1,,,,,ケイデンコウ,0
1178,4420001018169,新規,0,2023-03-03,2023-03-03,北星工業株式会社,,株式会社,青森県,八戸市,大字石手洗字一本木７番地１９,,02,203,0310013,,,,,,,2023-03-03,1,,,,,ホクセイコウギョウ,0
1184,4430001088566,新規,0,2023-03-03,2023-03-03,株式会社Ｎｏｒｔｈ　Ｌｕｃｅ,,株式会社,北海道,札幌市豊平区,福住一条３丁目１３番１－６０４号,,01,105,0620041,,,,,,,2023-03-03,1,,,,,ノースルーチェ,0
1187,4430005014642,新規,0,2023-03-03,2023-03-03,特定非営利活動法人ユニバーサルプラットホーム,,その他の設立登記法人,北海道,北広島市,中央３丁目８－４三和ビル２０３号,,01,234,0611121,,,,,,,2023-03-03,1,,,,,ユニバーサルプラットホーム,0
1191,4470001019492,新規,0,2023-03-03,2023-03-03,マムス株式会社,,株式会社,香川県,高松市,塩屋町８番地８－８８井上ビル１Ｆ,,37,201,7600047,,,,,,,2023-03-03,1,,,,,マムス,0
1192,4470001019501,新規,0,2023-03-03,2023-03-03,株式会社Ｎプラス,,株式会社,香川県,高松市,香川町浅野２１２６番地６０,,37,201,7611703,,,,,,,2023-03-03,1,,,,,エヌプラス,0
1193,4470003002356,新規,0,2023-03-03,2023-03-03,合同会社訪問看護ステーションたいよう,,合同会社,香川県,仲多度郡多度津町,幸町１番１５－１号,,37,404,7640024,,,,,,,2023-03-03,1,,,,,ホウモンカンゴステーションタイヨウ,0
1197,4490001010417,新規,0,2023-03-03,2023-03-03,株式会社孝丸水産,,株式会社,高知県,須崎市,大谷２３５番地６３,,39,206,7850055,,,,,,,2023-03-03,1,,,,,タカマルスイサン,0
1200,4500001024778,新規,0,2023-03-03,2023-03-03,株式会社せとうちエンターテインメント,,株式会社,愛媛県,新居浜市,高木町３番１３号,,38,205,7920031,,,,,,,2023-03-03,1,,,,,セトウチエンターテインメント,0
1201,4500003002988,新規,0,2023-03-03,2023-03-03,合同会社リブ,,合同会社,愛媛県,西条市,楠甲２０３４番地３,,38,206,7991302,,,,,,,2023-03-03,1,,,,,リブ,0
1202,4700150113956,新規,0,2023-03-03,2023-01-26,静岡県サーフィン連盟,,その他,静岡県,静岡市駿河区,中島１４５番地の１,,22,102,4228046,,,,,,,2023-01-26,1,,,,,シズオカケンサーフインレンメイ,0
1203,4700150114590,新規,0,2023-03-03,2023-03-03,Ｚｈｅｊｉａｎｇ　Ｃａｒｏｔｅ　Ｉｎｄｕｓｔｒｙ＆Ｔｒａｄｅ　Ｃｏ　Ｌｔｄ,,外国会社等,,,,,,,,Ｂｕｉｌｄｉｎｇ　２，Ｎｏ．６６６，Ｓｈａｎｇｂａｉｘｉａｎ，Ｍａｚｈｕｌｉｎｇ　Ｖｉｌｌａｇｅ，Ｊｉａｎｇｎａｎ　Ｓｔｒｅｅｔ，Ｙｏｎｇｋａｎｇ　Ｃｉｔｙ，Ｊｉｎｈｕａ　Ｃｉｔｙ，Ｚｈｅｊｉａｎｇ　Ｐｒｏｖｉｎｃｅ,,,,,,2023-03-03,1,,,,,ジヤアジヤンカーロートインダストリーアンドトレードカンパニーリミテツド,0
1204,4700150114599,新規,0,2023-03-03,2023-03-03,ＳＨＥＮＺＨＥＮＳＨＩ　ＭＵＣＩＧＵＯＪＩ　ＤＩＡＮＺＩＳＨＡＮＧＷＵ　ＹＯＵＸＩＡＮＧＯＮＧＳＩ,,外国会社等,,,,,,,,ｑｉａｎｈａｉｓｈｅｎｇａｎｇｈｅｚｕｏｑｕ　ｑｉａｎｗａｉ　ｙｉｌｕ　１ｈａｏＡｄｏｎｇ２０１　ｓｈｅｎｚｈｅｎ　ｇｕａｎｇｄｏｎｇ　５１８０５２　ＣＮ,,,,,,2023-03-03,1,,,,,シエンジエンシムウツーグオジデイエンズーシヤンウヨウシエンゴンス,0
1214,5010001233428,新規,0,2023-03-03,2023-03-03,株式会社ＶＯＩＣＥ,,株式会社,東京都,千代田区,大手町１丁目５番１号大手町ファーストスクエアイーストタワー４階,,13,101,1000004,,,,,,,2023-03-03,1,,,,,ボイス,0
1215,5010001233436,新規,0,2023-03-03,2023-03-03,株式会社永興企画,,株式会社,東京都,中央区,銀座１丁目１２番４号Ｎ＆Ｅ．ＢＬＤ．６Ｆ,,13,102,1040061,,,,,,,2023-03-03,1,,,,,エイコウキカク,0
1216,5010001233444,新規,0,2023-03-03,2023-03-03,株式会社ａｃｔｅｎａｂｌｅ,,株式会社,東京都,中央区,銀座１丁目２２番１１号銀座大竹ビジデンス２階,,13,102,1040061,,,,,,,2023-03-03,1,,,,,アクテナブル,0
1222,5010005036315,新規,0,2023-03-03,2023-03-03,医療法人社団真瑞会,,その他の設立登記法人,東京都,文京区,小石川１丁目５番１号パークコート文京小石川ザタワー３階,,13,105,1120002,,,,,,,2023-03-03,1,,,,,シンズイカイ,0
1223,5010005036323,新規,0,2023-03-03,2023-03-03,奥山土地家屋調査士法人,,その他の設立登記法人,東京都,文京区,白山５丁目３１番１３号,,13,105,1120001,,,,,,,2023-03-03,1,,,,,オクヤマ,0
1224,5010005036331,新規,0,2023-03-03,2023-03-03,社会保険労務士法人人材ビジネスコンサルティング,,その他の設立登記法人,東京都,千代田区,内幸町１丁目３－１幸ビルディング９階,,13,101,1000011,,,,,,,2023-03-03,1,,,,,ジンザイビジネスコンサルティング,0
1226,5010103002094,新規,0,2023-03-03,2023-03-03,Ｍａｋｋｉｋｉ合同会社,,合同会社,東京都,八王子市,台町２丁目１４番９号,,13,201,1930931,,,,,,,2023-03-03,1,,,,,マッキキ,0
1233,5010401172738,新規,0,2023-03-03,2023-03-03,株式会社ＮＳＳＫ‐Ａ１,,株式会社,東京都,港区,愛宕２丁目５番１号愛宕グリーンヒルズＭＯＲＩタワー,,13,103,1050002,,,,,,,2023-03-03,1,,,,,エヌエスエスケーエーワン,0
1234,5010501050083,新規,0,2023-03-03,2023-03-03,株式会社ＬＩＭＯＮＤＥ,,株式会社,東京都,台東区,清川２丁目１８番１号浅草Ｂｅｒｇ３８・２１,,13,106,1110022,,,,,,,2023-03-03,1,,,,,リモンド,0
1235,5010501050091,新規,0,2023-03-03,2023-03-03,オープン・イノベーション・オフィス株式会社,,株式会社,東京都,台東区,三筋２丁目２番４－２０１号バージュアル新御徒町,,13,106,1110055,,,,,,,2023-03-03,1,,,,,オープンイノベーションオフィス,0
1243,5011001152881,新規,0,2023-03-03,2023-03-03,株式会社エラボレイト,,株式会社,東京都,渋谷区,千駄ヶ谷３丁目５１番１０号ＰＯＲＴＡＬＰＯＩＮＴＨＡＲＡＪＵＫＵＦＤ－３４,,13,113,1510051,,,,,,,2023-03-03,1,,,,,エラボレイト,0
1244,5011001152980,新規,0,2023-03-03,2023-03-03,株式会社ＣＯＬＯＲＶＥＲＳＥ　ＪＡＰＡＮ,,株式会社,東京都,渋谷区,渋谷２丁目２１－１渋谷ヒカリエ３３Ｆ,,13,113,1500002,,,,,,,2023-03-03,1,,,,,カラーバースジャパン,0
1246,5011003016374,新規,0,2023-03-03,2023-03-03,合同会社ＤＹＮＡＭＩＴＥ,,合同会社,東京都,目黒区,下目黒２丁目４番８号ＬａｐｕｌｅＭｅｇｕｒｏ－１０４,,13,110,1530064,,,,,,,2023-03-03,1,,,,,ダイナマイト,0
1248,5011101101945,新規,0,2023-03-03,2023-03-03,あなたの為の不動産株式会社,,株式会社,東京都,新宿区,歌舞伎町２丁目１９番１３号,,13,104,1600021,,,,,,,2023-03-03,1,,,,,アナタノタメノフドウサン,0
1249,5011101102027,新規,0,2023-03-03,2023-03-03,株式会社エアーアディクション,,株式会社,東京都,新宿区,西新宿７丁目７番２８号第２山本ビル４階,,13,104,1600023,,,,,,,2023-03-03,1,,,,,エアーアディクション,0
1254,5011105010572,新規,0,2023-03-03,2023-03-03,一般財団法人コミュニケーション開発機構,,その他の設立登記法人,東京都,新宿区,西新宿６丁目１５番１号セントラルパークタワーラ・トゥール新宿７０４,,13,104,1600023,,,,,,,2023-03-03,1,,,,,コミュニケーションカイハツキコウ,0
1256,5011401024937,新規,0,2023-03-03,2023-03-03,株式会社パステルパートナーズ,,株式会社,東京都,板橋区,宮本町１７番１３号－２０１,,13,119,1740054,,,,,,,2023-03-03,1,,,,,パステルパートナーズ,0
1261,5011803005543,新規,0,2023-03-03,2023-03-03,合同会社ＳＵＮＲＩＳＥ,,合同会社,東京都,足立区,西新井栄町２丁目３番５号２Ｆ,,13,121,1230843,,,,,,,2023-03-03,1,,,,,サンライズ,0
1265,5012401040230,新規,0,2023-03-03,2023-03-03,株式会社日創,,株式会社,東京都,稲城市,矢野口３１１７番地の１,,13,225,2060812,,,,,,,2023-03-03,1,,,,,ニッソウ,0
1266,5012405004834,新規,0,2023-03-03,2023-03-03,特定非営利活動法人Ｍｉｔａｋａみんなの防災,,その他の設立登記法人,東京都,三鷹市,新川６丁目３７番１号元気創造プラザ５階,,13,204,1810004,,,,,,,2023-03-03,1,,,,,ミタカミンナノボウサイ,0
1268,5012701017507,新規,0,2023-03-03,2023-03-03,株式会社ＴＫ不動産,,株式会社,東京都,東久留米市,新川町２丁目９番４０号,,13,222,2030013,,,,,,,2023-03-03,1,,,,,ティーケイフドウサン,0
1280,5013301050385,新規,0,2023-03-03,2023-03-03,株式会社イチエトラスト,,株式会社,東京都,豊島区,南池袋２丁目３５番４号ユニティ池袋５Ｆ,,13,116,1710022,,,,,,,2023-03-03,1,,,,,イチエトラスト,0
1287,5020001150465,新規,0,2023-03-03,2023-03-03,株式会社ＫＲＭ,,株式会社,神奈川県,横浜市都筑区,南山田町３８０９番地,,14,118,2240026,,,,,,,2023-03-03,1,,,,,ケーアールエム,0
1288,5020001150481,新規,0,2023-03-03,2023-03-03,株式会社ワンダフルプラス,,株式会社,神奈川県,横浜市神奈川区,子安通３丁目３６９番地,,14,102,2210021,,,,,,,2023-03-03,1,,,,,ワンダフルプラス,0
1289,5020001150498,新規,0,2023-03-03,2023-03-03,株式会社Ｂｅｓｔ　Ｍｅｍｏｒｙ,,株式会社,神奈川県,横浜市港南区,芹が谷２丁目１９番２３号,,14,111,2330006,,,,,,,2023-03-03,1,,,,,ベストメモリー,0
1290,5020001150507,新規,0,2023-03-03,2023-03-03,株式会社ＳＷＥＲＰ,,株式会社,神奈川県,横浜市鶴見区,鶴見中央４丁目６－９,,14,101,2300051,,,,,,,2023-03-03,1,,,,,スウェルプ,0
1291,5020001150515,新規,0,2023-03-03,2023-03-03,株式会社ＣｏｌｏｒＺ,,株式会社,神奈川県,横浜市港北区,日吉６丁目３番３５－５０３号,,14,109,2230061,,,,,,,2023-03-03,1,,,,,カラーズ,0
1292,5020001150523,新規,0,2023-03-03,2023-03-03,ＮＡ　Ｇｒｏｕｐ株式会社,,株式会社,神奈川県,横浜市青葉区,美しが丘１丁目１３番地１０吉村ビル１０７号,,14,117,2250002,,,,,,,2023-03-03,1,,,,,エヌエーグループ,0
1293,5020001150531,新規,0,2023-03-03,2023-03-03,株式会社ｏｎｅｗａｙ,,株式会社,神奈川県,横浜市旭区,笹野台２丁目７番１４号,,14,112,2410816,,,,,,,2023-03-03,1,,,,,ワンウェイ,0
1300,5020003023421,新規,0,2023-03-03,2023-03-03,合同会社ビーズガレージ,,合同会社,神奈川県,横浜市中区,新山下１丁目４番２２号,,14,104,2310801,,,,,,,2023-03-03,1,,,,,ビーズガレージ,0
1307,5021001078341,新規,0,2023-03-03,2023-03-03,株式会社ｅ建設,,株式会社,神奈川県,海老名市,杉久保北４丁目７番１８号,,14,215,2430410,,,,,,,2023-03-03,1,,,,,イーケンセツ,0
1314,5030001152634,新規,0,2023-03-03,2023-03-03,株式会社アートテック,,株式会社,埼玉県,さいたま市北区,宮原町３丁目３７２カシワ商事宮原駅前ビル３Ｆ,,11,102,3310812,,,,,,,2023-03-03,1,,,,,アートテック,0
1315,5030001152650,新規,0,2023-03-03,2023-03-03,株式会社祥建工業,,株式会社,埼玉県,久喜市,菖蒲町三箇３２１番地６,,11,232,3460104,,,,,,,2023-03-03,1,,,,,ショウケンコウギョウ,0
1316,5030001152659,新規,0,2023-03-03,2023-03-03,株式会社ＯＲＩＮＡＳＳ,,株式会社,埼玉県,草加市,谷塚町１７７６番地５,,11,221,3400023,,,,,,,2023-03-03,1,,,,,オリナス,0
1317,5030001152667,新規,0,2023-03-03,2023-03-03,ヨコネクト株式会社,,株式会社,埼玉県,さいたま市大宮区,三橋３丁目２０９番地４,,11,103,3300856,,,,,,,2023-03-03,1,,,,,ヨコネクト,0
1321,5030003021283,新規,0,2023-03-03,2023-03-03,リノーバス建築合同会社,,合同会社,埼玉県,久喜市,久喜東５丁目２２番１１号２階,,11,232,3460016,,,,,,,2023-03-03,1,,,,,リノーバスケンチク,0
1322,5030003021317,新規,0,2023-03-03,2023-03-03,合同会社ＡＦＬＯＡＴ,,合同会社,埼玉県,飯能市,大字久下４５８番地６,,11,209,3570064,,,,,,,2023-03-03,1,,,,,アフロート,0
1325,5030005021158,新規,0,2023-03-03,2023-03-03,一般社団法人ウェルアルクコミュニケーションズ,,その他の設立登記法人,埼玉県,富士見市,水谷東２丁目７番１０号,,11,235,3540013,,,,,,,2023-03-03,1,,,,,ウェルアルクコミュニケーションズ,0
1329,5040001127313,新規,0,2023-03-03,2023-03-03,株式会社ＭａｎｄＭ,,株式会社,千葉県,船橋市,藤原７丁目４２番６６号,,12,204,2730047,,,,,,,2023-03-03,1,,,,,エムアンドエム,0
1330,5040001127338,新規,0,2023-03-03,2023-03-03,Ｉｎｓｔｅａｄ　ｏｆ　ｙｏｕ株式会社,,株式会社,千葉県,千葉市緑区,誉田町２丁目２１番地１５５６,,12,105,2660005,,,,,,,2023-03-03,1,,,,,インスティードオブユー,0
1331,5040001127354,新規,0,2023-03-03,2023-03-03,株式会社Ａ‐ｓｔｙｌｅ,,株式会社,千葉県,松戸市,八ケ崎２丁目１３番地１ダイアパレス松戸・馬橋パークアベニュー３０５号,,12,207,2700023,,,,,,,2023-03-03,1,,,,,エースタイル,0
1334,5040003022009,新規,0,2023-03-03,2023-03-03,合同会社一真会,,合同会社,千葉県,八街市,八街に１２１－４３,,12,230,2891103,,,,,,,2023-03-03,1,,,,,イッシンカイ,0
1335,5040003022074,新規,0,2023-03-03,2023-03-03,小沢企画合同会社,,合同会社,千葉県,習志野市,袖ケ浦３丁目３番３－３０６号,,12,216,2750021,,,,,,,2023-03-03,1,,,,,オザワキカク,0
1336,5040003022082,新規,0,2023-03-03,2023-03-03,合同会社ｆｅｌｉｚ,,合同会社,千葉県,船橋市,西船４丁目２０番５号三和ビル５階,,12,204,2730031,,,,,,,2023-03-03,1,,,,,フェリース,0
1337,5040003022099,新規,0,2023-03-03,2023-03-03,ＮＷＰ合同会社,,合同会社,千葉県,野田市,野田２７９番地の１０,,12,208,2780037,,,,,,,2023-03-03,1,,,,,ノダワクワクプロジェクト,0
1338,5040003022116,新規,0,2023-03-03,2023-03-03,合同会社フルールセゾン,,合同会社,千葉県,旭市,中谷里１５５２番地,,12,215,2892523,,,,,,,2023-03-03,1,,,,,フルールセゾン,0
1340,5050001052460,新規,0,2023-03-03,2023-03-03,株式会社孝和ファーマシー,,株式会社,茨城県,鹿嶋市,大字和８２５番地９,,08,222,3112215,,,,,,,2023-03-03,1,,,,,コウワファーマシー,0
1341,5050001052469,新規,0,2023-03-03,2023-03-03,株式会社育成牧場ブルー・ステーブル,,株式会社,茨城県,稲敷郡美浦村,大字受領１２４９番地,,08,442,3000424,,,,,,,2023-03-03,1,,,,,イクセイボクジョウブルーステーブル,0
1342,5050001052477,新規,0,2023-03-03,2023-03-03,株式会社テラボーズ,,株式会社,茨城県,那珂市,下大賀１２９８番地２,,08,226,3192107,,,,,,,2023-03-03,1,,,,,テラボーズ,0
1343,5050003007289,新規,0,2023-03-03,2023-03-03,合同会社サンライズ,,合同会社,茨城県,水戸市,内原１丁目９６９―２１ガレントワークス内原１０９,,08,201,3190317,,,,,,,2023-03-03,1,,,,,サンライズ,0
1344,5060001035753,新規,0,2023-03-03,2023-03-03,株式会社心遊縁,,株式会社,栃木県,栃木市,大宮町２６５３－８,,09,203,3280011,,,,,,,2023-03-03,1,,,,,シンユウエン,0
1347,5070001040182,新規,0,2023-03-03,2023-03-03,株式会社ＴＭＳ,,株式会社,群馬県,邑楽郡千代田町,大字木崎５８２番地,,10,523,3700721,,,,,,,2023-03-03,1,,,,,ティーエムエス,0
1348,5070001040199,新規,0,2023-03-03,2023-03-03,株式会社ＴＩＤＥ,,株式会社,群馬県,利根郡みなかみ町,綱子２９４番地１,,10,449,3791725,,,,,,,2023-03-03,1,,,,,タイド,0
1349,5080101023838,新規,0,2023-03-03,2023-03-03,株式会社七由多,,株式会社,静岡県,田方郡函南町,平井８３２番地の１２１,,22,325,4190107,,,,,,,2023-03-03,1,,,,,ナユタ,0
1350,5090001017996,新規,0,2023-03-03,2023-03-03,株式会社ＡＫエフ,,株式会社,山梨県,南都留郡西桂町,小沼２７１７番地４,,19,423,4030022,,,,,,,2023-03-03,1,,,,,エイケイエフ,0
1351,5090001018004,新規,0,2023-03-03,2023-03-03,ビーステイション株式会社,,株式会社,山梨県,笛吹市,石和町四日市場１８１９番地,,19,211,4060032,,,,,,,2023-03-03,1,,,,,ビーステイション,0
1354,5100001036193,新規,0,2023-03-03,2023-03-03,株式会社ヒラサワ塗装,,株式会社,長野県,伊那市,中央５４０８番地３,,20,209,3960015,,,,,,,2023-03-03,1,,,,,ヒラサワトソウ,0
1355,5100001036202,新規,0,2023-03-03,2023-03-03,株式会社ＡＺＵＭＩＮＯ３６ＳＴＡＹ,,株式会社,長野県,安曇野市,穂高有明２１４５番地３６,,20,220,3998301,,,,,,,2023-03-03,1,,,,,アヅミノサンロクステイ,0
1357,5100003006905,新規,0,2023-03-03,2023-03-03,プロスペリタ合同会社,,合同会社,長野県,長野市,上松２丁目３０番１４号,,20,201,3800802,,,,,,,2023-03-03,1,,,,,プロスペリタ,0
1366,5120001252788,新規,0,2023-03-03,2023-03-03,ＰＨＯＥＢＥＬＵ株式会社,,株式会社,大阪府,大阪市浪速区,恵美須西１丁目２番５号４０１室,,27,111,5560003,,,,,,,2023-03-03,1,,,,,フェビル,0
1367,5120001252813,新規,0,2023-03-03,2023-03-03,ＥＴＫ株式会社,,株式会社,大阪府,大阪市西区,靱本町１丁目１０－４井出ビル９０３,,27,106,5500004,,,,,,,2023-03-03,1,,,,,イーティーケー,0
1368,5120001252879,新規,0,2023-03-03,2023-03-03,株式会社Ｄ‐ＬＩＦＥ,,株式会社,大阪府,交野市,星田北２丁目７３番７号,,27,230,5760017,,,,,,,2023-03-03,1,,,,,ディーライフ,0
1371,5120101067054,新規,0,2023-03-03,2023-03-03,株式会社ツカサ技研,,株式会社,大阪府,松原市,別所８丁目１５番１０号,,27,217,5800005,,,,,,,2023-03-03,1,,,,,ツカサギケン,0
1372,5120101067087,新規,0,2023-03-03,2023-03-03,株式会社オーライ製作所,,株式会社,大阪府,堺市北区,南花田町４０６番地,,27,146,5918011,,,,,,,2023-03-03,1,,,,,オーライセイサクショ,0
1373,5120103005103,新規,0,2023-03-03,2023-03-03,クローバー合同会社,,合同会社,大阪府,堺市北区,百舌鳥陵南町３丁１８７番地,,27,146,5918034,,,,,,,2023-03-03,1,,,,,クローバー,0
1374,5120105009696,新規,0,2023-03-03,2023-03-03,一般社団法人自治会ねっと堺,,その他の設立登記法人,大阪府,堺市南区,釜室１１１番地,,27,145,5900122,,,,,,,2023-03-03,1,,,,,ジチカイネットサカイ,0
1377,5120901047197,新規,0,2023-03-03,2023-03-03,北本グループ株式会社,,株式会社,大阪府,茨木市,丑寅２丁目３番１６号,,27,211,5670877,,,,,,,2023-03-03,1,,,,,キタモトグループ,0
1378,5120903004519,新規,0,2023-03-03,2023-03-03,合同会社Ａｌｌ,,合同会社,大阪府,箕面市,半町４丁目１６番２‐３０３号,,27,220,5620044,,,,,,,2023-03-03,1,,,,,オール,0
1379,5122001036733,新規,0,2023-03-03,2023-03-03,株式会社ファーストテクノ,,株式会社,大阪府,東大阪市,西石切町２丁目４番１号ダイアパレス新石切フォレストタウン２９２－２２１号,,27,227,5798013,,,,,,,2023-03-03,1,,,,,ファーストテクノ,0
1380,5122001036741,新規,0,2023-03-03,2023-03-03,株式会社西野熔工所,,株式会社,大阪府,東大阪市,新喜多１丁目６番２７号,,27,227,5770052,,,,,,,2023-03-03,1,,,,,ニシノヨウコウショ,0
1382,5130001073770,新規,0,2023-03-03,2023-03-03,株式会社タイシンジャパン,,株式会社,京都府,京田辺市,三山木直田２８番地１０,,26,211,6100313,,,,,,,2023-03-03,1,,,,,タイシンジャパン,0
1383,5130001073795,新規,0,2023-03-03,2023-03-03,ＹＡＭＡＴＯ株式会社,,株式会社,京都府,宇治市,小倉町東山４０番地の１,,26,204,6110042,,,,,,,2023-03-03,1,,,,,ヤマト,0
1390,5140001129324,新規,0,2023-03-03,2023-03-03,株式会社アレンシア,,株式会社,兵庫県,西宮市,松籟荘９番１７号,,28,204,6620822,,,,,,,2023-03-03,1,,,,,アレンシア,0
1391,5140001129332,新規,0,2023-03-03,2023-03-03,ＮＫ警備株式会社,,株式会社,兵庫県,加古川市,平荘町池尻５４９番地,,28,210,6751233,,,,,,,2023-03-03,1,,,,,,0
1392,5140003018756,新規,0,2023-03-03,2023-03-03,合同会社サリコロ,,合同会社,兵庫県,神戸市東灘区,青木５丁目１２番２０号,,28,101,6580027,,,,,,,2023-03-03,1,,,,,サリコロ,0
1393,5140003018789,新規,0,2023-03-03,2023-03-03,合同会社Ｍｉｍｏｓａ,,合同会社,兵庫県,西宮市,今津久寿川町２番２３号,,28,204,6638222,,,,,,,2023-03-03,1,,,,,ミモザ,0
1394,5140003018797,新規,0,2023-03-03,2023-03-03,合同会社ライヒエステート,,合同会社,兵庫県,神戸市西区,桜が丘西町２丁目１１番地の１５,,28,111,6512227,,,,,,,2023-03-03,1,,,,,ライヒエステート,0
1397,5150001026207,新規,0,2023-03-03,2023-03-03,株式会社高政,,株式会社,奈良県,吉野郡吉野町,大字橋屋１２５番地,,29,441,6393118,,,,,,,2023-03-03,1,,,,,タカマサ,0
1398,5160001024861,新規,0,2023-03-03,2023-03-03,株式会社なぎさ,,株式会社,滋賀県,大津市,打出浜１５番５号,,25,201,5200806,,,,,,,2023-03-03,1,,,,,ナギサ,0
1399,5160001024878,新規,0,2023-03-03,2023-03-03,株式会社プロスペリテ,,株式会社,滋賀県,草津市,橋岡町４５番地３,,25,206,5250065,,,,,,,2023-03-03,1,,,,,プロスペリテ,0
1400,5170003001841,新規,0,2023-03-03,2023-03-03,合同会社Ｐｉｅｃｅ　ｏｆ　Ｐｅａｃｅ,,合同会社,和歌山県,和歌山市,西庄７７６番地,,30,201,6400112,,,,,,,2023-03-03,1,,,,,ピースオブピース,0
1410,5180001155168,新規,0,2023-03-03,2023-03-03,株式会社美佑,,株式会社,愛知県,尾張旭市,新居町諏訪南１３０５番地,,23,226,4880072,,,,,,,2023-03-03,1,,,,,ビユウ,0
1411,5180001155176,新規,0,2023-03-03,2023-03-03,Ａｃａｄｅｍｉｃ　ｔｏ　Ｂｕｓｉｎｅｓｓ株式会社,,株式会社,愛知県,名古屋市南区,豊２丁目２１番８号,,23,112,4570863,,,,,,,2023-03-03,1,,,,,アカデミックトゥビジネス,0
1422,5200003005888,新規,0,2023-03-03,2023-03-03,合同会社ＫｕｒｕｗａｍａｃｈｉＨｉｇａｓｈｉ,,合同会社,岐阜県,安八郡安八町,南今ケ渕５２３－１,,21,383,5030115,,,,,,,2023-03-03,1,,,,,クルワマチヒガシ,0
1425,5230003001975,新規,0,2023-03-03,2023-03-03,合同会社ムライスタディ,,合同会社,富山県,富山市,大町２６１番地１２,,16,201,9398073,,,,,,,2023-03-03,1,,,,,ムライスタディ,0
1428,5240001061145,新規,0,2023-03-03,2023-03-03,株式会社仁井農園,,株式会社,広島県,庄原市,西城町大佐甲１１３番地,,34,210,7295722,,,,,,,2023-03-03,1,,,,,ニイノウエン,0
1433,5250001019992,新規,0,2023-03-03,2023-03-03,株式会社ゆやマリンワークス,,株式会社,山口県,長門市,油谷向津具上１１０４４番地６,,35,211,7594622,,,,,,,2023-03-03,1,,,,,ユヤマリンワークス,0
1439,5290001100682,新規,0,2023-03-03,2023-03-03,レッドフォース株式会社,,株式会社,福岡県,糟屋郡粕屋町,大字上大隈５７０番地１,,40,349,8112301,,,,,,,2023-03-03,1,,,,,レッドフォース,0
1440,5290001100716,新規,0,2023-03-03,2023-03-03,株式会社継展,,株式会社,福岡県,久留米市,六ツ門町１番地１,,40,203,8300031,,,,,,,2023-03-03,1,,,,,ケイテン,0
1441,5290001100732,新規,0,2023-03-03,2023-03-03,株式会社山本総業,,株式会社,福岡県,春日市,須玖南５丁目６０番地春日須玖パークホームズ９０５号,,40,218,8160863,,,,,,,2023-03-03,1,,,,,ヤマモトソウギョウ,0
1442,5290001100740,新規,0,2023-03-03,2023-03-03,株式会社Ｈｉｋｅ’ｎ’Ｃｏｎｎｅｃｔ,,株式会社,福岡県,福岡市西区,大字千里４３９番地１ハイツ千里台ＩＩＩＡ桜館２０１号,00129625,40,135,8190374,,,,,,,2023-03-03,1,,,,,ハイコンコネクト,0
1443,5290001100749,新規,0,2023-03-03,2023-03-03,株式会社乙女堂,,株式会社,福岡県,福岡市中央区,天神３丁目４番８号,,40,133,8100001,,,,,,,2023-03-03,1,,,,,オトメドウ,0
1444,5290001100773,新規,0,2023-03-03,2023-03-03,福南通信株式会社,,株式会社,福岡県,大牟田市,一浦町６２番地１,,40,202,8360863,,,,,,,2023-03-03,1,,,,,フクナンツウシン,0
1445,5290001100781,新規,0,2023-03-03,2023-03-03,株式会社エスビーシー,,株式会社,福岡県,糟屋郡志免町,御手洗２丁目１３番１４号Ａ,,40,343,8112206,,,,,,,2023-03-03,1,,,,,エスビーシー,0
1448,5290003013610,新規,0,2023-03-03,2023-03-03,合同会社ハラ,,合同会社,福岡県,福岡市中央区,春吉３丁目１４番７－２４０２号イル・グラッツィア天神ＩＩ４０２号,00129623,40,133,8100003,,,,,,,2023-03-03,1,,,,,ハラ,0
1449,5290801029337,新規,0,2023-03-03,2023-03-03,株式会社Ｓｔｙｌｅ,,株式会社,福岡県,中間市,朝霧１丁目６番７号,,40,215,8090021,,,,,,,2023-03-03,1,,,,,スタイル,0
1450,5290803004362,新規,0,2023-03-03,2023-03-03,Ｓ＆Ｂ合同会社,,合同会社,福岡県,北九州市小倉北区,中井１丁目４‐３６ニュー副田１０２号,,40,106,8030836,,,,,,,2023-03-03,1,,,,,エスアンドビー,0
1452,5300001013230,新規,0,2023-03-03,2023-03-03,株式会社ＭＰコントラクト,,株式会社,佐賀県,佐賀市,末広２丁目４－４６ヴィラ末広Ｂ,,41,201,8400032,,,,,,,2023-03-03,1,,,,,エムピーコントラクト,0
1454,5310001018286,新規,0,2023-03-03,2023-03-03,株式会社ＦＬＩＧＨＴ　ＯＮＥ,,株式会社,長崎県,佐世保市,江迎町小川内７４１番地７,,42,202,8596123,,,,,,,2023-03-03,1,,,,,フライトワン,0
1455,5320001019597,新規,0,2023-03-03,2023-03-03,株式会社千稔,,株式会社,大分県,宇佐市,大字長洲４２６３番地の１６４,,44,211,8720001,,,,,,,2023-03-03,1,,,,,センネン,0
1456,5320001019606,新規,0,2023-03-03,2023-03-03,株式会社ハレワタルソラ,,株式会社,大分県,佐伯市,大字護江２８５番地,,44,205,8761103,,,,,,,2023-03-03,1,,,,,ハレワタルソラ,0
1462,5330001030644,新規,0,2023-03-03,2023-03-03,株式会社ＳＴＥＰ,,株式会社,熊本県,熊本市東区,小山７丁目１番１０５号,,43,102,8618045,,,,,,,2023-03-03,1,,,,,ステップ,0
1464,5330003009744,新規,0,2023-03-03,2023-03-03,合同会社Ｌａｒｇｅ　Ｐｌａｇｅ,,合同会社,熊本県,熊本市西区,野中２丁目１０番３０号,,43,103,8600059,,,,,,,2023-03-03,1,,,,,ラルジュプラージュ,0
1474,5350001018217,新規,0,2023-03-03,2023-03-03,リンクフードジャパン株式会社,,株式会社,宮崎県,都城市,高木町４５１６番地２,,45,202,8850003,,,,,,,2023-03-03,1,,,,,リンクフードジャパン,0
1475,5350003004306,新規,0,2023-03-03,2023-03-03,合同会社ＴＡＩＳＯ,,合同会社,宮崎県,宮崎市,大橋３丁目８４番地,,45,201,8800022,,,,,,,2023-03-03,1,,,,,タイソー,0
1479,5370001049664,新規,0,2023-03-03,2023-03-03,株式会社Ｒａｉｓｅ,,株式会社,宮城県,仙台市青葉区,国分町２丁目１０番１４号,,04,101,9800803,,,,,,,2023-03-03,1,,,,,レイズ,0
1495,5400003003038,新規,0,2023-03-03,2023-03-03,合同会社ＥＸ‐Ｇ,,合同会社,岩手県,滝沢市,後２６８番地２１２０,,03,216,0200601,,,,,,,2023-03-03,1,,,,,エクスジー,0
1504,5460001005773,新規,0,2023-03-03,2023-03-03,株式会社ＮＡＴＵＲＥ　ＣＡＲＥ,,株式会社,北海道,釧路市,鳥取北１０丁目１３番１３号,,01,206,0840907,,,,,,,2023-03-03,1,,,,,ネイチャーケア,0
1511,5490003001751,新規,0,2023-03-03,2023-03-03,ＭＴＫ合同会社,,合同会社,高知県,高知市,九反田３－９－１階,,39,201,7810832,,,,,,,2023-03-03,1,,,,,エムティケー,0
1513,5500001024785,新規,0,2023-03-03,2023-03-03,ｍ．ｉコーポレーション株式会社,,株式会社,愛媛県,新居浜市,観音原町甲２番地の３,,38,205,7920851,,,,,,,2023-03-03,1,,,,,エムアイコーポレーション,0
1517,5700150114598,新規,0,2023-03-03,2023-03-03,Ｚｈｏｎｇｓｈａｎｓｈｉ　Ｋｕｓｈｉｌａｎ　Ｊｅｗｅｌｌｅｒｙ．ＬＴＤ,,外国会社等,,,,,,,,Ｍｉｎ　Ｚｈｏｎｇ　Ｚｈｅｎ　Ｌａｎｇ　Ｗａｎｇ　Ｃｕｎ　Ｓｈｉ　Ｌｉｎｇ　Ｌｕ（Ｌｅ　Ｙａｎ　Ｙｏｕ　Ｅｒ　Ｙｕａｎ　Ｘｉｅ　Ｄｕｉ　Ｍｉａｎ）Ｚｈｏｎｇｓｈａｎ　Ｇｕａｎｇｄｏｎｇ　５２８４４１　ＣＮ,,,,,,2023-03-03,1,,,,,ジヨーンシヤンシークーシーランジユエリーリミテツド,0
1528,6010001233385,新規,0,2023-03-03,2023-03-03,ＩＩＳＴジャパン株式会社,,株式会社,東京都,千代田区,丸の内１丁目６番２号新丸の内センタービルディング２１階,,13,101,1000005,,,,,,,2023-03-03,1,,,,,アイアイエスティジャパン,0
1532,6010005036306,新規,0,2023-03-03,2023-03-03,ハイドランジア一般社団法人,,その他の設立登記法人,東京都,千代田区,丸の内３丁目１番１号,,13,101,1000005,,,,,,,2023-03-03,1,,,,,ハイドランジア,0
1533,6010005036322,新規,0,2023-03-03,2023-03-03,医療法人社団ＧＩＮＺＡ　ＨＩＮＡ　ＯＲＴＨＯ,,その他の設立登記法人,東京都,中央区,銀座６丁目１３番９号ＧＩＲＡＣ・ＧＩＮＺＡ３階３０２,,13,102,1040061,,,,,,,2023-03-03,1,,,,,ギンザヒナオルソ,0
1541,6010401172737,新規,0,2023-03-03,2023-03-03,株式会社ＮＳＳＫ‐ＺＺ,,株式会社,東京都,港区,愛宕２丁目５番１号愛宕グリーンヒルズＭＯＲＩタワー,,13,103,1050002,,,,,,,2023-03-03,1,,,,,エヌエスエスケーゼットゼット,0
1542,6010401172778,新規,0,2023-03-03,2023-03-03,株式会社Ｌｉｖｅ　Ｎｏｗ,,株式会社,東京都,港区,南青山３丁目１番３６号青山丸竹ビル６Ｆ,,13,103,1070062,,,,,,,2023-03-03,1,,,,,リブナウ,0
1546,6010403029613,新規,0,2023-03-03,2023-03-03,インサイドインサイト合同会社,,合同会社,東京都,港区,浜松町２丁目２番１５号浜松町ダイヤビル２Ｆ,,13,103,1050013,,,,,,,2023-03-03,1,,,,,インサイドインサイト,0
1547,6010403029646,新規,0,2023-03-03,2023-03-03,合同会社ｔａＭＥＬ,,合同会社,東京都,港区,元赤坂１丁目１番７号,,13,103,1070051,,,,,,,2023-03-03,1,,,,,タメル,0
1552,6010901052629,新規,0,2023-03-03,2023-03-03,株式会社ＢＭＢ,,株式会社,東京都,世田谷区,代沢５丁目１９番４号浜口コーポ２０２,,13,112,1550032,,,,,,,2023-03-03,1,,,,,ビーエムビー,0
1553,6010901052645,新規,0,2023-03-03,2023-03-03,株式会社フロムアセット,,株式会社,東京都,世田谷区,南烏山５丁目１７番１１号,,13,112,1570062,,,,,,,2023-03-03,1,,,,,フロムアセット,0
1559,6011001152848,新規,0,2023-03-03,2023-03-03,ノブレス・オブリージュ株式会社,,株式会社,東京都,渋谷区,円山町５－４フィールＡ渋谷６１９号室,,13,113,1500044,,,,,,,2023-03-03,1,,,,,ノブレスオブリージュ,0
1560,6011001152930,新規,0,2023-03-03,2023-03-03,株式会社ＹＭＣ,,株式会社,東京都,目黒区,碑文谷３丁目８番７号,,13,110,1520003,,,,,,,2023-03-03,1,,,,,ワイエムシー,0
1565,6011101102018,新規,0,2023-03-03,2023-03-03,株式会社ｋａｔｓｉｎａ,,株式会社,東京都,新宿区,下落合２丁目１３番２２号,,13,104,1610033,,,,,,,2023-03-03,1,,,,,カチナ,0
1566,6011101102026,新規,0,2023-03-03,2023-03-03,株式会社ＣＯＭＯＤＯ　ＳＴＹＬＥ,,株式会社,東京都,新宿区,西新宿３丁目３番１３号西新宿水間ビル６階,,13,104,1600023,,,,,,,2023-03-03,1,,,,,コモドスタイル,0
1567,6011101102034,新規,0,2023-03-03,2023-03-03,株式会社ＤＹＢ,,株式会社,東京都,新宿区,西新宿３丁目３番１３号西新宿水間ビル６階,,13,104,1600023,,,,,,,2023-03-03,1,,,,,ディーワイビー,0
1569,6011105010571,新規,0,2023-03-03,2023-03-03,医療法人社団東新会,,その他の設立登記法人,東京都,新宿区,新宿３丁目２２番２号新宿サンパークＡＮＮＥＸ地下２階,,13,104,1600022,,,,,,,2023-03-03,1,,,,,トウシンカイ,0
1579,6011601026625,新規,0,2023-03-03,2023-03-03,株式会社パシオン博洋,,株式会社,東京都,練馬区,早宮２丁目１７番５０－４０３号,,13,120,1790085,,,,,,,2023-03-03,1,,,,,パシオンハクヨウ,0
1584,6011803005542,新規,0,2023-03-03,2023-03-03,合同会社灯火,,合同会社,東京都,葛飾区,細田４丁目３４―１６,,13,122,1240021,,,,,,,2023-03-03,1,,,,,トモシビ,0
1587,6012701017506,新規,0,2023-03-03,2023-03-03,ＰＥＡＫ　ＨＵＮＴ株式会社,,株式会社,東京都,西東京市,柳沢５丁目９番２２号,,13,229,2020022,,,,,,,2023-03-03,1,,,,,ピークハント,0
1598,6020001150472,新規,0,2023-03-03,2023-03-03,株式会社ハイロングバレーリゾート,,株式会社,神奈川県,横浜市神奈川区,金港町７番地３金港ビル７階,,14,102,2210056,,,,,,,2023-03-03,1,,,,,ハイロングバレーリゾート,0
1599,6020001150497,新規,0,2023-03-03,2023-03-03,株式会社ケイウェアシステムズ,,株式会社,神奈川県,川崎市幸区,古川町１７０－１６,,14,132,2120025,,,,,,,2023-03-03,1,,,,,ケイウェアシステムズ,0
1600,6020001150506,新規,0,2023-03-03,2023-03-03,株式会社アークヌミスマティクス,,株式会社,神奈川県,横浜市神奈川区,鶴屋町３丁目３４－６－６Ｆ,,14,102,2210835,,,,,,,2023-03-03,1,,,,,アークヌミスマティクス,0
1601,6020001150514,新規,0,2023-03-03,2023-03-03,株式会社ＨＡＮＳＳＡ,,株式会社,神奈川県,横浜市瀬谷区,瀬谷５丁目３６番地１９,,14,114,2460031,,,,,,,2023-03-03,1,,,,,ハンザ,0
1602,6020001150522,新規,0,2023-03-03,2023-03-03,株式会社百撰堂,,株式会社,神奈川県,川崎市川崎区,駅前本町１１番地２川崎フロンティアビル４階,,14,131,2100007,,,,,,,2023-03-03,1,,,,,,0
1603,6020001150530,新規,0,2023-03-03,2023-03-03,株式会社石橋ダクト,,株式会社,神奈川県,横浜市鶴見区,江ケ崎町１３番２１号,,14,101,2300002,,,,,,,2023-03-03,1,,,,,イシバシダクト,0
1604,6020001150547,新規,0,2023-03-03,2023-03-03,株式会社柏原工業,,株式会社,神奈川県,横浜市金沢区,富岡東３丁目１４番２５号フローリスト富岡Ｄ２０１,,14,108,2360051,,,,,,,2023-03-03,1,,,,,カシハラコウギョウ,0
1607,6020003023429,新規,0,2023-03-03,2023-03-03,ブラウパウゼ合同会社,,合同会社,神奈川県,横浜市西区,浅間町１丁目４番３号ウィザードビル４０２,,14,103,2200072,,,,,,,2023-03-03,1,,,,,ブラウパウゼ,0
1608,6020003023437,新規,0,2023-03-03,2023-03-03,合同会社ＧＣサービス,,合同会社,神奈川県,横浜市瀬谷区,阿久和東３丁目１番地５９ルミエール・アイユーＥ棟２,,14,114,2460023,,,,,,,2023-03-03,1,,,,,ジーシーサービス,0
1609,6021001078340,新規,0,2023-03-03,2023-03-03,ウィズアス株式会社,,株式会社,神奈川県,茅ヶ崎市,菱沼２丁目６－１６ウィズアス１０２,,14,207,2530011,,,,,,,2023-03-03,1,,,,,ウィズアス,0
1610,6021001078349,新規,0,2023-03-03,2023-03-03,株式会社ＧＲＡＮＤＥＭＡＩＮ,,株式会社,神奈川県,藤沢市,鵠沼桜が岡２丁目１１番２０号,,14,205,2510027,,,,,,,2023-03-03,1,,,,,グランドマン,0
1620,6030001152625,新規,0,2023-03-03,2023-03-03,株式会社椿防水,,株式会社,埼玉県,新座市,野火止３丁目１２番２６号,,11,230,3520011,,,,,,,2023-03-03,1,,,,,ツバキボウスイ,0
1621,6030001152633,新規,0,2023-03-03,2023-03-03,株式会社トータス不動産,,株式会社,埼玉県,志木市,柏町４丁目１番１２号,,11,228,3530007,,,,,,,2023-03-03,1,,,,,トータスフドウサン,0
1622,6030001152682,新規,0,2023-03-03,2023-03-03,新和通信株式会社,,株式会社,埼玉県,行田市,西新町１００番地２７,,11,206,3610042,,,,,,,2023-03-03,1,,,,,シンワツウシン,0
1623,6030001152690,新規,0,2023-03-03,2023-03-03,貝徳商事株式会社,,株式会社,埼玉県,川口市,西川口３丁目１４番１４－７１３号フドウ西川口ハイツ,,11,203,3320021,,,,,,,2023-03-03,1,,,,,カイトクショウジ,0
1624,6030001152708,新規,0,2023-03-03,2023-03-03,株式会社ＢＩＺＰＯＷＥＲ,,株式会社,埼玉県,さいたま市大宮区,桜木町１丁目３７８,,11,103,3300854,,,,,,,2023-03-03,1,,,,,ビズパワー,0
1631,6030003021299,新規,0,2023-03-03,2023-03-03,合同会社ウィステリア,,合同会社,埼玉県,所沢市,狭山ケ丘１丁目５５番地６号ベルハイム狭山ヶ丘１０３号室,,11,208,3591161,,,,,,,2023-03-03,1,,,,,ウィステリア,0
1632,6030003021308,新規,0,2023-03-03,2023-03-03,Ｍ＆Ｋホールディングス合同会社,,合同会社,埼玉県,さいたま市緑区,大字中尾３２８２番地１,,11,109,3360932,,,,,,,2023-03-03,1,,,,,エムアンドケーホールディングス,0
1633,6030003021316,新規,0,2023-03-03,2023-03-03,合同会社らんとまんふぁーむ,,合同会社,埼玉県,幸手市,大字惣新田１９８０番地,,11,240,3400133,,,,,,,2023-03-03,1,,,,,,0
1635,6030005021149,新規,0,2023-03-03,2023-03-03,労働者協同組合ぴゅあまむ,,その他の設立登記法人,埼玉県,坂戸市,西坂戸１丁目２３番６号,,11,239,3500247,,,,,,,2023-03-03,1,,,,,ピュアマム,0
1639,6040001127287,新規,0,2023-03-03,2023-03-03,株式会社マハロホーム,,株式会社,千葉県,市川市,南八幡３丁目１８番２号（ＲＯＵＴＥ１０２号）,,12,203,2720023,,,,,,,2023-03-03,1,,,,,マハロホーム,0
1640,6040001127320,新規,0,2023-03-03,2023-03-03,株式会社日本医療向上研究所,,株式会社,千葉県,習志野市,奏の杜２丁目７番７号,,12,216,2750028,,,,,,,2023-03-03,1,,,,,ニホンイリョウコウジョウケンキュウショ,0
1641,6040001127378,新規,0,2023-03-03,2023-03-03,株式会社ＡＬＯＨＡ　ＬＩＦＥ,,株式会社,千葉県,富津市,鶴岡４８８番地２,,12,226,2930054,,,,,,,2023-03-03,1,,,,,アロハライフ,0
1645,6040003022081,新規,0,2023-03-03,2023-03-03,Ｌａ　Ｒｕｏｔａ　ｄｅｌｌａ　Ｆｏｒｔｕｎａ合同会社,,合同会社,千葉県,千葉市緑区,おゆみ野中央７丁目２４番１６号,,12,105,2660032,,,,,,,2023-03-03,1,,,,,ラルオータデラフォルトゥーナ,0
1646,6040003022098,新規,0,2023-03-03,2023-03-03,合同会社Ｇ．Ｂｕｃｋｓ,,合同会社,千葉県,八千代市,八千代台南１丁目６－５石井国際ビル３０３号室,,12,221,2760033,,,,,,,2023-03-03,1,,,,,ジーバックス,0
1647,6040003022115,新規,0,2023-03-03,2023-03-03,合同会社丸矢,,合同会社,千葉県,山武市,五木田３８４番地,,12,237,2891316,,,,,,,2023-03-03,1,,,,,マルヤ,0
1648,6040005021916,新規,0,2023-03-03,2023-03-03,一般社団法人市原市立有秋公民館運営委員会,,その他の設立登記法人,千葉県,市原市,有秋台西１丁目３番地２,,12,219,2990125,,,,,,,2023-03-03,1,,,,,イチハラシリツユウシュウコウミンカンウンエイイインカイ,0
1650,6050001052468,新規,0,2023-03-03,2023-03-03,株式会社サンパギタ,,株式会社,茨城県,那珂市,額田南郷長堀１９３０番地１,,08,226,3110107,,,,,,,2023-03-03,1,,,,,サンパギタ,0
1652,6050003007288,新規,0,2023-03-03,2023-03-03,合同会社ウィズ・プランニング,,合同会社,茨城県,稲敷市,椎塚２０４１番地,,08,229,3000512,,,,,,,2023-03-03,1,,,,,ウィズプランニング,0
1655,6060001035752,新規,0,2023-03-03,2023-03-03,株式会社ＳＫＨ,,株式会社,栃木県,宇都宮市,徳次郎町３１０７番地,,09,201,3212116,,,,,,,2023-03-03,1,,,,,エスケーエイチ,0
1656,6070001040181,新規,0,2023-03-03,2023-03-03,株式会社トータックス施工販売,,株式会社,群馬県,邑楽郡明和町,須賀５３７番地,,10,522,3700717,,,,,,,2023-03-03,1,,,,,トータックスセコウハンバイ,0
1657,6070001040198,新規,0,2023-03-03,2023-03-03,株式会社ブルーミング,,株式会社,群馬県,前橋市,天川町２７番地４,,10,201,3710802,,,,,,,2023-03-03,1,,,,,ブルーミング,0
1664,6080001025495,新規,0,2023-03-03,2023-03-03,株式会社オオヒロ,,株式会社,静岡県,藤枝市,青葉町１丁目３番１８号,,22,214,4260066,,,,,,,2023-03-03,1,,,,,オオヒロ,0
1670,6100001036184,新規,0,2023-03-03,2023-03-03,株式会社ＦＯＬＬＯＷ,,株式会社,長野県,上水内郡信濃町,大字柏原９５１番地,,20,583,3891305,,,,,,,2023-03-03,1,,,,,フォロー,0
1671,6100001036192,新規,0,2023-03-03,2023-03-03,株式会社ＮＥＥＤ,,株式会社,長野県,須坂市,墨坂４丁目１１－８,,20,207,3820099,,,,,,,2023-03-03,1,,,,,ニード,0
1672,6100003006904,新規,0,2023-03-03,2023-03-03,合同会社サクラ総合管理,,合同会社,長野県,佐久市,田口２５２２番地,,20,217,3840412,,,,,,,2023-03-03,1,,,,,サクラソウゴウカンリ,0
1676,6110001037330,新規,0,2023-03-03,2023-03-03,株式会社蔵人,,株式会社,新潟県,妙高市,大字雪森６９３番地５,,15,217,9440098,,,,,,,2023-03-03,1,,,,,クロウド,0
1688,6120001252804,新規,0,2023-03-03,2023-03-03,株式会社ミライスタート,,株式会社,大阪府,大阪市中央区,千日前２丁目３番３号３０３室,,27,128,5420074,,,,,,,2023-03-03,1,,,,,ミライスタート,0
1689,6120001252853,新規,0,2023-03-03,2023-03-03,株式会社ＹＫ　ｌａｂ,,株式会社,大阪府,大阪市北区,堂島２丁目３－４－５０１,,27,127,5300003,,,,,,,2023-03-03,1,,,,,ワイケイラボ,0
1690,6120001252944,新規,0,2023-03-03,2023-03-03,株式会社ＨＢＨ,,株式会社,大阪府,大阪市北区,梅田１丁目２番２号大阪駅前第２ビル１２－１２,,27,127,5300001,,,,,,,2023-03-03,1,,,,,エイチビーエイチ,0
1696,6120003023534,新規,0,2023-03-03,2023-03-03,合同会社ＹＳＮ,,合同会社,大阪府,大阪市中央区,東心斎橋１丁目５番２号,,27,128,5420083,,,,,,,2023-03-03,1,,,,,ワイエスエヌ,0
1698,6120005023499,新規,0,2023-03-03,2023-03-03,一般社団法人美温活リンパストレッチ協会,,その他の設立登記法人,大阪府,大阪市城東区,野江４丁目１番４４号,,27,118,5360006,,,,,,,2023-03-03,1,,,,,ビオンカツリンパストレッチキョウカイ,0
1701,6120101067086,新規,0,2023-03-03,2023-03-03,株式会社泰西タイル,,株式会社,大阪府,羽曳野市,東阪田１７７番地１－１０３号,,27,222,5830846,,,,,,,2023-03-03,1,,,,,タイセイタイル,0
1709,6120901047196,新規,0,2023-03-03,2023-03-03,株式会社Ｑｕａｓａｒ,,株式会社,大阪府,吹田市,山田東２丁目３２番１－３０５号,,27,205,5650821,,,,,,,2023-03-03,1,,,,,クエーサー,0
1710,6120901047205,新規,0,2023-03-03,2023-03-03,株式会社ＹＵＫＯＨ,,株式会社,大阪府,池田市,鉢塚１丁目７番７号,,27,204,5630024,,,,,,,2023-03-03,1,,,,,ユーコー,0
1711,6120901047213,新規,0,2023-03-03,2023-03-03,株式会社グラース,,株式会社,大阪府,摂津市,鳥飼八防１丁目１６番７号,,27,224,5660054,,,,,,,2023-03-03,1,,,,,グラース,0
1713,6120903004518,新規,0,2023-03-03,2023-03-03,合同会社マガタ,,合同会社,大阪府,吹田市,垂水町１丁目１１番９－３２０号,,27,205,5640062,,,,,,,2023-03-03,1,,,,,マガタ,0
1715,6122003002526,新規,0,2023-03-03,2023-03-03,児島電気合同会社,,合同会社,大阪府,東大阪市,南鴻池町２丁目１３番３２号,,27,227,5780961,,,,,,,2023-03-03,1,,,,,コジマデンキ,0
1717,6130001073786,新規,0,2023-03-03,2023-03-03,株式会社ＩＣ工業,,株式会社,京都府,京都市右京区,太秦北路町１０番地２コーポひなが３－Ｂ,,26,108,6168182,,,,,,,2023-03-03,1,,,,,アイシーコウギョウ,0
1718,6130001073811,新規,0,2023-03-03,2023-03-03,株式会社ＧＲＥＥＮ　ＡＲＴ　ＰＬＵＳ,,株式会社,京都府,京都市上京区,竹屋町通千本東入主税町１１０３,,26,102,6028155,,,,,,,2023-03-03,1,,,,,グリーンアートプラス,0
1719,6130003008567,新規,0,2023-03-03,2023-03-03,リシェス合同会社,,合同会社,京都府,京都市右京区,西院日照町７５番地アクアプレイス京都西院７０７号室,,26,108,6150065,,,,,,,2023-03-03,1,,,,,リシェス,0
1723,6140001129281,新規,0,2023-03-03,2023-03-03,株式会社Ｌｉｉｒｏ,,株式会社,兵庫県,神戸市中央区,北長狭通４丁目９－８エムコート元町２階,,28,110,6500012,,,,,,,2023-03-03,1,,,,,リイロ,0
1726,6140003018771,新規,0,2023-03-03,2023-03-03,合同会社ＢＫＲ,,合同会社,兵庫県,姫路市,西二階町４３番地ベルドミール２０５,,28,201,6700901,,,,,,,2023-03-03,1,,,,,ビーケーアール,0
1731,6160001024860,新規,0,2023-03-03,2023-03-03,株式会社Ｍ,,株式会社,滋賀県,大津市,におの浜２丁目２番５－１１０号,,25,201,5200801,,,,,,,2023-03-03,1,,,,,エム,0
1732,6160001024877,新規,0,2023-03-03,2023-03-03,株式会社しびりこ,,株式会社,滋賀県,栗東市,観音寺４５９,,25,208,5203002,,,,,,,2023-03-03,1,,,,,シビリコ,0
1737,6180001155209,新規,0,2023-03-03,2023-03-03,株式会社ＧＲＯＷＳ,,株式会社,愛知県,海部郡蟹江町,本町６丁目１８０番地,,23,425,4970034,,,,,,,2023-03-03,1,,,,,グロース,0
1738,6180001155217,新規,0,2023-03-03,2023-03-03,株式会社ＥＸＳＥＥＤ,,株式会社,愛知県,名古屋市南区,星崎１丁目１３９番地,,23,112,4570064,,,,,,,2023-03-03,1,,,,,エクシード,0
1744,6190001030204,新規,0,2023-03-03,2023-03-03,株式会社Ｔ．Ｋ．Ｄホールディングス,,株式会社,三重県,四日市市,広永町１１６７番地４,,24,202,5128061,,,,,,,2023-03-03,1,,,,,ティーケーディーホールディングス,0
1750,6200003005870,新規,0,2023-03-03,2023-03-03,合同会社Ｎａｒｕ,,合同会社,岐阜県,各務原市,那加楽天地町３６番地１ラ・カーサ・ミーア２０２,,21,213,5040967,,,,,,,2023-03-03,1,,,,,ナル,0
1751,6200005013450,新規,0,2023-03-03,2023-03-03,一般社団法人オレンジリボン岐阜ネット,,その他の設立登記法人,岐阜県,岐阜市,長良森町１丁目１１番地,,21,201,5020065,,,,,,,2023-03-03,1,,,,,オレンジリボンギフネット,0
1753,6210001019252,新規,0,2023-03-03,2023-03-03,株式会社Ｌｉｎｏ　Ａｒｔ,,株式会社,福井県,福井市,仁位町２５－６,,18,201,9102336,,,,,,,2023-03-03,1,,,,,リノアール,0
1757,6240001061136,新規,0,2023-03-03,2023-03-03,株式会社ＮＥＰＥＮＴＨＥ,,株式会社,広島県,広島市中区,十日市町１丁目５番１８－２０７号,,34,101,7300805,,,,,,,2023-03-03,1,,,,,ネペンテ,0
1758,6240001061152,新規,0,2023-03-03,2023-03-03,株式会社スリーエイト,,株式会社,広島県,広島市中区,大手町１丁目１番２１号,,34,101,7300051,,,,,,,2023-03-03,1,,,,,スリーエイト,0
1761,6250001019991,新規,0,2023-03-03,2023-03-03,株式会社ユニオンイノベーション,,株式会社,山口県,宇部市,大字棚井４７番地第１,,35,202,7590121,,,,,,,2023-03-03,1,,,,,ユニオンイノベーション,0
1764,6260001037695,新規,0,2023-03-03,2023-03-03,株式会社ＥＬＬＥ,,株式会社,岡山県,岡山市南区,福田１５番地２,,33,104,7028021,,,,,,,2023-03-03,1,,,,,エル,0
1773,6290001100715,新規,0,2023-03-03,2023-03-03,株式会社コスモソフトクリエイト,,株式会社,福岡県,福岡市南区,大楠２丁目２１番２０号,,40,134,8150082,,,,,,,2023-03-03,1,,,,,コスモソフトクリエイト,0
1774,6290001100748,新規,0,2023-03-03,2023-03-03,株式会社Ｒ．Ｃｒｅａｔｉｏｎ,,株式会社,福岡県,福岡市博多区,中洲２丁目２番２号,,40,132,8100801,,,,,,,2023-03-03,1,,,,,アールクリエーション,0
1775,6290001100756,新規,0,2023-03-03,2023-03-03,株式会社楓,,株式会社,福岡県,福岡市早良区,南庄４丁目１３番１１－３０５号,,40,137,8140031,,,,,,,2023-03-03,1,,,,,カエデ,0
1778,6290801029328,新規,0,2023-03-03,2023-03-03,株式会社ＢＬＵＥＳ,,株式会社,福岡県,直方市,大字下境３２５８,,40,204,8220007,,,,,,,2023-03-03,1,,,,,ブルース,0
1781,6290803004361,新規,0,2023-03-03,2023-03-03,ＰＴＴ合同会社,,合同会社,福岡県,北九州市小倉北区,大田町１３‐１杜ビル３０２号室,,40,106,8020015,,,,,,,2023-03-03,1,,,,,ピーティーティー,0
1784,6310001018285,新規,0,2023-03-03,2023-03-03,一観十工業株式会社,,株式会社,長崎県,北松浦郡佐々町,平野免６２５番地３４,,42,391,8570342,,,,,,,2023-03-03,1,,,,,ヒミトコウギョウ,0
1787,6320001019605,新規,0,2023-03-03,2023-03-03,株式会社エスクオリティー,,株式会社,大分県,中津市,大字宮夫３７番地２,,44,203,8710012,,,,,,,2023-03-03,1,,,,,エスクオリティー,0
1791,6330001030651,新規,0,2023-03-03,2023-03-03,株式会社ほんわかフードサービス,,株式会社,熊本県,熊本市中央区,琴平本町１０番３２号,,43,101,8600814,,,,,,,2023-03-03,1,,,,,ホンワカフードサービス,0
1793,6340001025394,新規,0,2023-03-03,2023-03-03,株式会社ＡＺＡＭＩ,,株式会社,鹿児島県,大島郡伊仙町,大字犬田布５１０番地２,,46,532,8918327,,,,,,,2023-03-03,1,,,,,アザミ,0
1795,6340003004058,新規,0,2023-03-03,2023-03-03,大崎車輌サービス工場合同会社,,合同会社,鹿児島県,曽於郡大崎町,神領２０４３番地１,,46,468,8997302,,,,,,,2023-03-03,1,,,,,オオサキシャリョウサービスコウジョウ,0
1796,6340003004066,新規,0,2023-03-03,2023-03-03,合同会社ＭＡＲＩＭＯ,,合同会社,鹿児島県,鹿児島市,西陵４丁目１９番３号,,46,201,8900032,,,,,,,2023-03-03,1,,,,,マリモ,0
1801,6350005006142,新規,0,2023-03-03,2023-03-03,特定非営利活動法人りぃやん,,その他の設立登記法人,宮崎県,日南市,大字星倉１８９７番地３,,45,204,8892533,,,,,,,2023-03-03,1,,,,,リィヤン,0
1805,6370001049655,新規,0,2023-03-03,2023-03-03,ＧＣＴ　ＴＯＯＬ株式会社,,株式会社,宮城県,仙台市青葉区,郷六字葛岡２１－１,,04,101,9893121,,,,,,,2023-03-03,1,,,,,ジーシーティーツール,0
1806,6370001049663,新規,0,2023-03-03,2023-03-03,田幸硝子建窓株式会社,,株式会社,宮城県,仙台市青葉区,大町２丁目９番１３－１１０１号,,04,101,9800804,,,,,,,2023-03-03,1,,,,,タコウガラスケンソウ,0
1813,6380005012682,新規,0,2023-03-03,2023-03-03,一般社団法人グッドライフ,,その他の設立登記法人,福島県,福島市,南矢野目字鼓原１０－１八景プラザ１０３,,07,201,9600112,,,,,,,2023-03-03,1,,,,,グッドライフ,0
1821,6430001088531,新規,0,2023-03-03,2023-03-03,株式会社サンク,,株式会社,北海道,札幌市中央区,南一条西４丁目１３番地日之出ビル６階,,01,101,0600061,,,,,,,2023-03-03,1,,,,,サンク,0
1822,6430001088548,新規,0,2023-03-03,2023-03-03,株式会社道洋工業,,株式会社,北海道,札幌市清田区,清田十条４丁目１７番２３号,,01,110,0040840,,,,,,,2023-03-03,1,,,,,ミチヒロコウギョウ,0
1823,6430001088556,新規,0,2023-03-03,2023-03-03,株式会社アイエイチフーズ,,株式会社,北海道,札幌市東区,北二十二条東３丁目３番１５－１０１号,,01,103,0650022,,,,,,,2023-03-03,1,,,,,アイエイチフーズ,0
1828,6460103001513,新規,0,2023-03-03,2023-03-03,合同会社ＲＢ,,合同会社,北海道,帯広市,西十二条南４０丁目４番地１２アルルーム３－１０５号室,,01,207,0800022,,,,,,,2023-03-03,1,,,,,アールビー,0
1829,6470001019490,新規,0,2023-03-03,2023-03-03,株式会社ゼロクリ,,株式会社,香川県,高松市,多肥下町３２５番地３,,37,201,7618075,,,,,,,2023-03-03,1,,,,,ゼロクリ,0
1833,6490001010415,新規,0,2023-03-03,2023-03-03,株式会社Ｈｉｒｏｔｅｃｈ,,株式会社,高知県,高知市,長浜４５９６番地１,,39,201,7810270,,,,,,,2023-03-03,1,,,,,ヒロテック,0
1838,6490003001750,新規,0,2023-03-03,2023-03-03,なごみ企画合同会社,,合同会社,高知県,高知市,西秦泉寺１５２番地３ヴィラ西秦１０１号,,39,201,7800033,,,,,,,2023-03-03,1,,,,,ナゴミキカク,0
1839,6500001024784,新規,0,2023-03-03,2023-03-03,株式会社花真珠,,株式会社,愛媛県,宇和島市,伊吹町甲９４６番地２,,38,203,7980022,,,,,,,2023-03-03,1,,,,,ハナシンジュ,0
1841,6500005008585,新規,0,2023-03-03,2023-03-03,ＮＰＯ法人ＷｉｓｈＭｅＬｕｃｋ,,その他の設立登記法人,愛媛県,松山市,福音寺町７２０番地４清水マンション５０１号,,38,201,7900921,,,,,,,2023-03-03,1,,,,,ウィッシュミーラック,0
1843,6700150114589,新規,0,2023-03-03,2023-03-03,ＧＯＯＧＦＩＴ　ＴＥＣＨ　ＬＩＭＩＴＥＤ,,外国会社等,,,,,,,,ＲＯＯＭ　２２０４　２２／Ｆ　ＴＵＮＧ　ＣＨＩＵ　ＣＯＭＭＥＲＣＩＡＬ　ＣＥＮＴＲＥ，１９３　ＬＯＣＫＨＡＲＴ　ＲＯＡＤ　ＷＡＮＣＨＡＩ，ＨＯＮＧ　ＫＯＮＧ，９９９０７７,,,,,,2023-03-03,1,,,,,グーグフイツトテツクリミテツド,0
1844,6700150114597,新規,0,2023-03-03,2023-03-03,ｓｈｅｎｚｈｅｎｓｈｉ　ｌｅｃｈｕａｎｇｔｉａｎｃｈｅｎｇ　ｋｅｊｉｙｏｕｘｉａｎｇｏｎｇｓｉ,,外国会社等,,,,,,,,Ｃ１４０３，Ｂｌｏｃｋ　Ｃ，Ｚｈａｎｔａｏ　Ｔｅｃｈｎｏｌｏｇｙ　Ｂｕｉｌｄｉｎｇ，Ｉｎｔｅｒｓｅｃｔｉｏｎ　ｏｆ　Ｍｉｎｚｈｉ　Ａｖｅｎｕｅ　ａｎｄ　Ｇｏｎｇｙｅ　Ｅａｓｔ　Ｒｏａｄ，Ｘｉｎｎｉｕ　Ｃｏｍｍｕｎｉｔｙ，Ｍｉｎｚｈｉ　Ｓｔｒｅｅｔ，Ｌｏｎｇｈｕａ　Ｄｉｓｔｒｉｃｔ，Ｓｈｅｎｚｈｅｎ　５１８０００　ＣＮ,,,,,,2023-03-03,1,,,,,シエンジエンシラチユワンテイエンチヨンカージヨウシエンゴンス,0
1855,7010001233285,新規,0,2023-03-03,2023-03-03,ちゃきる株式会社,,株式会社,東京都,中央区,銀座６丁目４番１８号,,13,102,1040061,,,,,,,2023-03-03,1,,,,,チャキル,0
1856,7010001233384,新規,0,2023-03-03,2023-03-03,デルタパシフィックラボ株式会社,,株式会社,東京都,中央区,日本橋３丁目２番１４号新槇町ビル別館第一１階,,13,102,1030027,,,,,,,2023-03-03,1,,,,,デルタパシフィックラボ,0
1857,7010001233450,新規,0,2023-03-03,2023-03-03,株式会社チャイルドサポート,,株式会社,東京都,中央区,銀座１丁目２２番１１号,,13,102,1040061,,,,,,,2023-03-03,1,,,,,チャイルドサポート,0
1858,7010001233459,新規,0,2023-03-03,2023-03-03,株式会社旅ＭＥＴＡ,,株式会社,東京都,千代田区,有楽町２丁目１０－１１,,13,101,1000006,,,,,,,2023-03-03,1,,,,,タビメタ,0
1863,7010005036305,新規,0,2023-03-03,2023-03-03,ローズ一般社団法人,,その他の設立登記法人,東京都,千代田区,丸の内３丁目１番１号,,13,101,1000005,,,,,,,2023-03-03,1,,,,,ローズ,0
1864,7010005036321,新規,0,2023-03-03,2023-03-03,弁理士法人あお葉国際特許事務所,,その他の設立登記法人,東京都,中央区,日本橋本石町３丁目２番６号ストークビルヂング本石５階,,13,102,1030021,,,,,,,2023-03-03,1,,,,,アオバコクサイトッキョジムショ,0
1870,7010401172736,新規,0,2023-03-03,2023-03-03,株式会社ＮＳＳＫ‐Ｚ,,株式会社,東京都,港区,愛宕２丁目５番１号愛宕グリーンヒルズＭＯＲＩタワー,,13,103,1050002,,,,,,,2023-03-03,1,,,,,エヌエスエスケーゼット,0
1874,7010405021856,新規,0,2023-03-03,2023-03-03,一般社団法人助成金コンサルティングＦＰ協会,,その他の設立登記法人,東京都,港区,虎ノ門１丁目１番２１号新虎ノ門実業会館５階,,13,103,1050001,,,,,,,2023-03-03,1,,,,,ジョセイキンコンサルティングエフピーキョウカイ,0
1879,7010501050081,新規,0,2023-03-03,2023-03-03,ハーモニーブルー株式会社,,株式会社,東京都,台東区,千束１丁目３番１号,,13,106,1110031,,,,,,,2023-03-03,1,,,,,ハーモニーブルー,0
1882,7010601062646,新規,0,2023-03-03,2023-03-03,サードレイヤー株式会社,,株式会社,東京都,江東区,東陽５丁目２６番１号５０２,,13,108,1350016,,,,,,,2023-03-03,1,,,,,サードレイヤー,0
1885,7010701043918,新規,0,2023-03-03,2023-03-03,株式会社ファルコウォータープルーフ,,株式会社,東京都,品川区,荏原６丁目１２番１９号,,13,109,1420063,,,,,,,2023-03-03,1,,,,,ファルコウォータープルーフ,0
1886,7010801033711,新規,0,2023-03-03,2023-03-03,株式会社シュワーボ,,株式会社,東京都,大田区,西糀谷４丁目１６－１７－３０１,,13,111,1440034,,,,,,,2023-03-03,1,,,,,シュワーボ,0
1887,7010801033736,新規,0,2023-03-03,2023-03-03,株式会社コーン,,株式会社,東京都,大田区,西六郷２丁目５３番９号,,13,111,1440056,,,,,,,2023-03-03,1,,,,,コーン,0
1888,7010803004462,新規,0,2023-03-03,2023-03-03,ＰＭａｎ合同会社,,合同会社,東京都,大田区,山王１丁目１９－１５－５０２,,13,111,1430023,,,,,,,2023-03-03,1,,,,,ピーマン,0
1898,7011001152698,新規,0,2023-03-03,2023-03-03,株式会社Ａｎｉｍａ,,株式会社,東京都,渋谷区,神泉町１０番１７－４０３号,,13,113,1500045,,,,,,,2023-03-03,1,,,,,アニマ,0
1899,7011001152847,新規,0,2023-03-03,2023-03-03,株式会社ＹＡＧＵＲＡ,,株式会社,東京都,渋谷区,神南１丁目９番７号丸栄ビル１０３号室,,13,113,1500041,,,,,,,2023-03-03,1,,,,,ヤグラ,0
1900,7011001152905,新規,0,2023-03-03,2023-03-03,Ｉｎｔｅｎｔ　Ｅｘｃｈａｎｇｅ株式会社,,株式会社,東京都,目黒区,下目黒１丁目８番１号アルコタワー７階,,13,110,1530064,,,,,,,2023-03-03,1,,,,,インテントエクスチェンジ,0
1902,7011003016356,新規,0,2023-03-03,2023-03-03,ＹＰＣ　ｉｎｃ．合同会社,,合同会社,東京都,渋谷区,恵比寿３丁目４０番７－１０１号,,13,113,1500013,,,,,,,2023-03-03,1,,,,,ワイピーシーインク,0
1903,7011003016364,新規,0,2023-03-03,2023-03-03,合同会社ＡＯ　Ｍａｒｋｅｔｉｎｇ,,合同会社,東京都,渋谷区,神宮前６丁目２３番４号桑野ビル２階,,13,113,1500001,,,,,,,2023-03-03,1,,,,,アオマーケティング,0
1909,7011101101976,新規,0,2023-03-03,2023-03-03,株式会社ぬりかべ,,株式会社,東京都,新宿区,西落合３丁目１７番５号,,13,104,1610031,,,,,,,2023-03-03,1,,,,,ヌリカベ,0
1910,7011101102009,新規,0,2023-03-03,2023-03-03,日生光資産管理株式会社,,株式会社,東京都,新宿区,富久町２番１９号市ヶ谷ヒルサイドハイツ３０７号,,13,104,1620067,,,,,,,2023-03-03,1,,,,,ニチセイコウシサンカンリ,0
1911,7011101102025,新規,0,2023-03-03,2023-03-03,株式会社ＮＥＯＮ,,株式会社,東京都,新宿区,歌舞伎町１丁目２番１号ナインティ－新宿ビル８階,,13,104,1600021,,,,,,,2023-03-03,1,,,,,ネオン,0
1913,7011103012750,新規,0,2023-03-03,2023-03-03,合同会社ストック,,合同会社,東京都,新宿区,富久町４０番８号,,13,104,1620067,,,,,,,2023-03-03,1,,,,,ストック,0
1914,7011103012759,新規,0,2023-03-03,2023-03-03,ＩＴＵ合同会社,,合同会社,東京都,新宿区,西新宿７丁目９番１５－４０１号,,13,104,1600023,,,,,,,2023-03-03,1,,,,,アイティーユー,0
1915,7011103012767,新規,0,2023-03-03,2023-03-03,合同会社ニューツーリズム・トリップベース３号,,合同会社,東京都,新宿区,四谷２丁目９番地１５東京ユナイテッド綜合事務所内,,13,104,1600004,,,,,,,2023-03-03,1,,,,,ニューツーリズムトリップベースサンゴウ,0
1918,7011401024943,新規,0,2023-03-03,2023-03-03,株式会社コフレ・スリア,,株式会社,東京都,板橋区,東坂下２丁目１０番７－Ｈ８号,,13,119,1740042,,,,,,,2023-03-03,1,,,,,コフレスリア,0
1924,7011605002497,新規,0,2023-03-03,2023-03-03,一般社団法人ヴィスノヴァ,,その他の設立登記法人,東京都,練馬区,豊玉中２丁目９番１１号ワイズ・ガーデン３０２,,13,120,1760013,,,,,,,2023-03-03,1,,,,,ヴィスノヴァ,0
1925,7011701026045,新規,0,2023-03-03,2023-03-03,誠伸ホールディングス株式会社,,株式会社,東京都,江戸川区,東葛西３丁目１６番３号,,13,123,1340084,,,,,,,2023-03-03,1,,,,,セイシンホールディングス,0
1926,7011701026053,新規,0,2023-03-03,2023-03-03,株式会社電脳マーケット,,株式会社,東京都,江戸川区,西小岩４丁目９番１０号,,13,123,1330057,,,,,,,2023-03-03,1,,,,,デンノウマーケット,0
1928,7011801042009,新規,0,2023-03-03,2023-03-03,株式会社ＵＮＩＬ,,株式会社,東京都,葛飾区,東金町３丁目１９番２号いとうビル４０１号室,,13,122,1250041,,,,,,,2023-03-03,1,,,,,ユニル,0
1929,7011803005541,新規,0,2023-03-03,2023-03-03,Ｈｅｌｅｎａ合同会社,,合同会社,東京都,足立区,花畑４丁目２２番１０－２０１号,,13,121,1210061,,,,,,,2023-03-03,1,,,,,ヘレナ,0
1933,7013301050375,新規,0,2023-03-03,2023-03-03,株式会社Ｂａｌｌｏｏｎ,,株式会社,東京都,豊島区,南大塚２丁目３８番１号リードシー大塚ビル８階,,13,116,1700005,,,,,,,2023-03-03,1,,,,,バルーン,0
1934,7013301050383,新規,0,2023-03-03,2023-03-03,Ｓａｆｅ　Ｈｏｍｅｓ株式会社,,株式会社,東京都,豊島区,西池袋５丁目５番２１－２８０２号,,13,116,1710021,,,,,,,2023-03-03,1,,,,,セーフホームズ,0
1935,7013301050391,新規,0,2023-03-03,2023-03-03,株式会社イジョイ,,株式会社,東京都,豊島区,東池袋２丁目６０番８－２０１号,,13,116,1700013,,,,,,,2023-03-03,1,,,,,イジョイ,0
1945,7020001150505,新規,0,2023-03-03,2023-03-03,株式会社真直,,株式会社,神奈川県,横浜市金沢区,谷津町１６０番地４３,,14,108,2360016,,,,,,,2023-03-03,1,,,,,マッスグ,0
1946,7020001150521,新規,0,2023-03-03,2023-03-03,株式会社Ｕｍｉｄａｓ,,株式会社,神奈川県,横浜市港南区,東永谷２丁目１３番２２号,,14,111,2330011,,,,,,,2023-03-03,1,,,,,,0
1948,7020003023436,新規,0,2023-03-03,2023-03-03,合同会社ＫＫメディカルプランニング,,合同会社,神奈川県,横浜市西区,みなとみらい４丁目９番２－Ｄ２３０８号,,14,103,2200012,,,,,,,2023-03-03,1,,,,,ケーケーメディカルプランニング,0
1949,7020003023444,新規,0,2023-03-03,2023-03-03,Ｔａｇａｎｏ　Ｐｈｏｔｏｇｒａｐｈ合同会社,,合同会社,神奈川県,横浜市西区,北幸２丁目１０番地２８むつみビル３Ｆ,,14,103,2200004,,,,,,,2023-03-03,1,,,,,タガノフォトグラフ,0
1952,7021001078315,新規,0,2023-03-03,2023-03-03,株式会社ＭＡＲＵＫＯ屋,,株式会社,神奈川県,大和市,上草柳１０９７番地１,,14,213,2420029,,,,,,,2023-03-03,1,,,,,マルコヤ,0
1966,7030001152640,新規,0,2023-03-03,2023-03-03,勝建設株式会社,,株式会社,埼玉県,白岡市,西７丁目６番２,,11,246,3490205,,,,,,,2023-03-03,1,,,,,ショウケンセツ,0
1967,7030001152649,新規,0,2023-03-03,2023-03-03,株式会社ハミングバード,,株式会社,埼玉県,志木市,柏町３丁目９番６７－６０２号,,11,228,3530007,,,,,,,2023-03-03,1,,,,,ハミングバード,0
1968,7030001152665,新規,0,2023-03-03,2023-03-03,株式会社アルク,,株式会社,埼玉県,春日部市,一ノ割４丁目３番１０号,,11,214,3440031,,,,,,,2023-03-03,1,,,,,アルク,0
1969,7030001152707,新規,0,2023-03-03,2023-03-03,Ｂｒｉｇｈｔ　Ｓｋｙ株式会社,,株式会社,埼玉県,深谷市,田谷２１６番地３,,11,218,3660821,,,,,,,2023-03-03,1,,,,,ブライトスカイ,0
1970,7030001152731,新規,0,2023-03-03,2023-03-03,株式会社経海緯域,,株式会社,埼玉県,川口市,西川口１丁目３０番２０－６０１号,,11,203,3320021,,,,,,,2023-03-03,1,,,,,ケイカイイヨク,0
1977,7030003021307,新規,0,2023-03-03,2023-03-03,合同会社クラン,,合同会社,埼玉県,桶川市,大字上日出谷１２４８番地の９,,11,231,3630026,,,,,,,2023-03-03,1,,,,,クラン,0
1978,7030003021315,新規,0,2023-03-03,2023-03-03,合同会社ＮＫＹ,,合同会社,埼玉県,さいたま市大宮区,仲町１丁目８０番地もりくま４－２０４号室,,11,103,3300845,,,,,,,2023-03-03,1,,,,,エヌケイワイ,0
1979,7030003021323,新規,0,2023-03-03,2023-03-03,ミナクニ合同会社,,合同会社,埼玉県,さいたま市浦和区,常盤８丁目１４番２４－２１５号,,11,107,3300061,,,,,,,2023-03-03,1,,,,,ミナクニ,0
1983,7040001127195,新規,0,2023-03-03,2023-03-03,株式会社Ｈａｎａｂｉｒａ,,株式会社,千葉県,千葉市中央区,末広２丁目３番８号,,12,101,2600843,,,,,,,2023-03-03,1,,,,,ハナビラ,0
1984,7040001127286,新規,0,2023-03-03,2023-03-03,株式会社ブルーミング,,株式会社,千葉県,船橋市,本町５丁目１１番２アフロディーテ船橋１０１号,,12,204,2730005,,,,,,,2023-03-03,1,,,,,ブルーミング,0
1985,7040001127328,新規,0,2023-03-03,2023-03-03,株式会社ケーズブライト,,株式会社,千葉県,千葉市花見川区,畑町６６２番地４９２,,12,102,2620018,,,,,,,2023-03-03,1,,,,,ケーズブライト,0
1986,7040001127352,新規,0,2023-03-03,2023-03-03,株式会社ＬＩＦＡＣＴ,,株式会社,千葉県,千葉市花見川区,作新台５丁目２２番３５号,,12,102,2620045,,,,,,,2023-03-03,1,,,,,リファクト,0
1987,7040001127377,新規,0,2023-03-03,2023-03-03,株式会社いはら,,株式会社,千葉県,八街市,根古谷３０２－２,,12,230,2891136,,,,,,,2023-03-03,1,,,,,イハラ,0
1990,7040003022048,新規,0,2023-03-03,2023-03-03,合同会社ふりー,,合同会社,千葉県,佐倉市,表町４丁目７－１４プライムアセット佐倉２号棟,,12,212,2850811,,,,,,,2023-03-03,1,,,,,フリー,0
1991,7040003022097,新規,0,2023-03-03,2023-03-03,ＭＩＺＵＫＩ　ＬＡＮＫＡ合同会社,,合同会社,千葉県,富里市,十倉１３７６－１,,12,233,2860212,,,,,,,2023-03-03,1,,,,,ミズキランカ,0
1992,7040003022114,新規,0,2023-03-03,2023-03-03,なおき鍼灸院・整骨院合同会社,,合同会社,千葉県,君津市,南子安１丁目７－１３,,12,225,2991162,,,,,,,2023-03-03,1,,,,,ナオキシンキュウインセイコツイン,0
1996,7050003007279,新規,0,2023-03-03,2023-03-03,合同会社イナヅマ,,合同会社,茨城県,水戸市,松本町１４番１２号,,08,201,3100052,,,,,,,2023-03-03,1,,,,,イナヅマ,0
1999,7060001035735,新規,0,2023-03-03,2023-03-03,株式会社つくし保育園,,株式会社,栃木県,さくら市,上野１４２番地１５,,09,214,3291306,,,,,,,2023-03-03,1,,,,,ツクシホイクエン,0
2003,7070001040197,新規,0,2023-03-03,2023-03-03,株式会社メヘルダコーポレーション,,株式会社,群馬県,高崎市,吉井町多比良３５５６番地２,,10,202,3702115,,,,,,,2023-03-03,1,,,,,メヘルダコーポレーション,0
2004,7070005010089,新規,0,2023-03-03,2023-03-03,社会福祉法人みらい,,その他の設立登記法人,群馬県,北群馬郡榛東村,大字新井２４００番地１,,10,344,3703503,,,,,,,2023-03-03,1,,,,,ミライ,0
2009,7080401026340,新規,0,2023-03-03,2023-03-03,株式会社美匠,,株式会社,静岡県,菊川市,西方５１６番地の２,,22,224,4390037,,,,,,,2023-03-03,1,,,,,ビショウ,0
2011,7100001036191,新規,0,2023-03-03,2023-03-03,株式会社Ｓｙｓｐａｌｅ,,株式会社,長野県,安曇野市,三郷明盛３５９９番地５,,20,220,3998101,,,,,,,2023-03-03,1,,,,,シスパーレ,0
2012,7100001036200,新規,0,2023-03-03,2023-03-03,株式会社蒼,,株式会社,長野県,千曲市,杭瀬下６丁目５番地１,,20,218,3870011,,,,,,,2023-03-03,1,,,,,アオイ,0
2015,7110001037338,新規,0,2023-03-03,2023-03-03,株式会社パーノトリア,,株式会社,新潟県,三条市,東本成寺３０２番地１,,15,204,9550823,,,,,,,2023-03-03,1,,,,,パーノトリア,0
2016,7110003004996,新規,0,2023-03-03,2023-03-03,合同会社中山事務所,,合同会社,新潟県,長岡市,大島本町５丁目１１１番地１,,15,202,9402112,,,,,,,2023-03-03,1,,,,,ナカヤマジムショ,0
2020,7120001252753,新規,0,2023-03-03,2023-03-03,光洋株式会社,,株式会社,大阪府,大阪市西成区,玉出東１丁目３番１５号,,27,122,5570043,,,,,,,2023-03-03,1,,,,,コウヨウ,0
2021,7120001252860,新規,0,2023-03-03,2023-03-03,潤成国際株式会社,,株式会社,大阪府,大阪市生野区,巽北１丁目２１－２９生野ハイツ７１８号室,00129612,27,116,5440004,,,,,,,2023-03-03,1,,,,,ジュンセイコクサイ,0
2022,7120001252869,新規,0,2023-03-03,2023-03-03,株式会社いろは不動産流通システム,,株式会社,大阪府,大阪市浪速区,桜川３丁目６番２３号,,27,111,5560022,,,,,,,2023-03-03,1,,,,,イロハフドウサンリュウツウシステム,0
2023,7120001252943,新規,0,2023-03-03,2023-03-03,株式会社ＫＥＹＡＫＩ,,株式会社,大阪府,大阪市大正区,南恩加島５丁目８番７３号,,27,108,5510021,,,,,,,2023-03-03,1,,,,,ケヤキ,0
2024,7120001252976,新規,0,2023-03-03,2023-03-03,株式会社Ｘｒｏｓｆｏｒｇｅ,,株式会社,大阪府,大阪市住之江区,御崎４丁目１１番１０－４０１号,,27,125,5590013,,,,,,,2023-03-03,1,,,,,クロスフォージ,0
2032,7120003023525,新規,0,2023-03-03,2023-03-03,合同会社ＳＯＡＴＡ,,合同会社,大阪府,大阪市東住吉区,山坂５丁目１１番３７号シャルム鶴ケ丘２０５号,,27,121,5460035,,,,,,,2023-03-03,1,,,,,ソアタ,0
2033,7120003023541,新規,0,2023-03-03,2023-03-03,合同会社ＵＸＴＲＡＳ,,合同会社,大阪府,大阪市都島区,内代町２丁目２－１８－１２０１,,27,102,5340013,,,,,,,2023-03-03,1,,,,,ユーエックストラス,0
2034,7120005023498,新規,0,2023-03-03,2023-03-03,一般社団法人ワンパーパス,,その他の設立登記法人,大阪府,大阪市城東区,古市１丁目２２番６号,,27,118,5360001,,,,,,,2023-03-03,1,,,,,ワンパーパス,0
2038,7120101067044,新規,0,2023-03-03,2023-03-03,株式会社中西工業所,,株式会社,大阪府,泉大津市,末広町１丁目８番１２号,,27,206,5950002,,,,,,,2023-03-03,1,,,,,ナカニシコウギョウショ,0
2039,7120101067060,新規,0,2023-03-03,2023-03-03,株式会社まさ,,株式会社,大阪府,阪南市,新町３２番地の１,,27,232,5990205,,,,,,,2023-03-03,1,,,,,マサ,0
2040,7120101067085,新規,0,2023-03-03,2023-03-03,株式会社デク,,株式会社,大阪府,堺市堺区,砂道町３丁３－６,,27,141,5900002,,,,,,,2023-03-03,1,,,,,デク,0
2042,7120103005092,新規,0,2023-03-03,2023-03-03,Ｇ＆Ｂ合同会社,,合同会社,大阪府,富田林市,若松町西１丁目１８８８番地１第二北野ビル２０１号室,,27,214,5840025,,,,,,,2023-03-03,1,,,,,ジーアンドビー,0
2044,7120901047195,新規,0,2023-03-03,2023-03-03,アルテックス株式会社,,株式会社,大阪府,摂津市,新在家２丁目３０番５号Ｂ棟１０２号,,27,224,5660055,,,,,,,2023-03-03,1,,,,,アルテックス,0
2045,7120901047204,新規,0,2023-03-03,2023-03-03,株式会社モンドグリーン,,株式会社,大阪府,吹田市,江の木町２４番９－１００２号,,27,205,5640053,,,,,,,2023-03-03,1,,,,,モンドグリーン,0
2047,7120905006437,新規,0,2023-03-03,2023-03-03,一般社団法人中小企業ものづくり共創協会,,その他の設立登記法人,大阪府,摂津市,鳥飼本町４丁目１８番２３号,,27,224,5660052,,,,,,,2023-03-03,1,,,,,チュウショウキギョウモノヅクリキョウソウキョウカイ,0
2050,7122003002525,新規,0,2023-03-03,2023-03-03,ダイセイ合同会社,,合同会社,大阪府,八尾市,南太子堂１丁目３番４３号,,27,212,5810056,,,,,,,2023-03-03,1,,,,,ダイセイ,0
2051,7130001073777,新規,0,2023-03-03,2023-03-03,株式会社ＬＩＢＥＲＴＡ,,株式会社,京都府,舞鶴市,森本町２６番地１４,,26,202,6250067,,,,,,,2023-03-03,1,,,,,リベルタ,0
2052,7130001073802,新規,0,2023-03-03,2023-03-03,株式会社ひとり製作所,,株式会社,京都府,京都市西京区,上桂東ノ口町１２３番地サーパス桂第２－６０９号,,26,111,6158221,,,,,,,2023-03-03,1,,,,,ヒトリセイサクショ,0
2054,7130003008558,新規,0,2023-03-03,2023-03-03,京西グローバル合同会社,,合同会社,京都府,宇治市,小倉町南浦８１番地の３３,,26,204,6110042,,,,,,,2023-03-03,1,,,,,キョウセイグローバル,0
2060,7140001129289,新規,0,2023-03-03,2023-03-03,株式会社ナガタガレーヂ,,株式会社,兵庫県,神戸市長田区,菅原通３丁目２０３－１０,,28,106,6530015,,,,,,,2023-03-03,1,,,,,ナガタガレーヂ,0
2061,7140001129297,新規,0,2023-03-03,2023-03-03,株式会社関西総建,,株式会社,兵庫県,加古川市,平荘町小畑９９９番地の１,,28,210,6751235,,,,,,,2023-03-03,1,,,,,カンサイソウケン,0
2076,7180001155166,新規,0,2023-03-03,2023-03-03,ＥＭｂａｓｅ株式会社,,株式会社,愛知県,名古屋市中村区,松重町４番５５号,,23,105,4500004,,,,,,,2023-03-03,1,,,,,イーエムベース,0
2077,7180001155190,新規,0,2023-03-03,2023-03-03,ヒラタ株式会社,,株式会社,愛知県,名古屋市中区,錦２丁目１５番１９号,,23,106,4600003,,,,,,,2023-03-03,1,,,,,ヒラタ,0
2078,7180001155224,新規,0,2023-03-03,2023-03-03,株式会社しふくのとき,,株式会社,愛知県,名古屋市熱田区,切戸町３丁目１３番地アメニティ日比野ＩＩ３０２号,00129607,23,109,4560076,,,,,,,2023-03-03,1,,,,,シフクノトキ,0
2088,7200001041009,新規,0,2023-03-03,2023-03-03,株式会社ログランド奥美濃,,株式会社,岐阜県,郡上市,大和町栗巣６７８番地,,21,219,5014603,,,,,,,2023-03-03,1,,,,,ログランドオクミノ,0
2089,7200001041033,新規,0,2023-03-03,2023-03-03,こころ株式会社,,株式会社,岐阜県,各務原市,鵜沼三ツ池町２丁目２５６番地５,,21,213,5090146,,,,,,,2023-03-03,1,,,,,ココロ,0
2090,7200001041041,新規,0,2023-03-03,2023-03-03,ＦＩＮＳ　Ｅｓｔａｔｅ株式会社,,株式会社,岐阜県,岐阜市,若宮町３丁目１６平和ビル１階,,21,201,5008828,,,,,,,2023-03-03,1,,,,,フィンズエステイト,0
2091,7200003005878,新規,0,2023-03-03,2023-03-03,ａｄｗｏｒｔｈ合同会社,,合同会社,岐阜県,各務原市,那加新田町１丁目６７番地１,,21,213,5040045,,,,,,,2023-03-03,1,,,,,アドワース,0
2092,7200003005886,新規,0,2023-03-03,2023-03-03,合同会社ｙｕｃｃａ　ｐｅａｌ,,合同会社,岐阜県,岐阜市,上川手１１９－２,,21,201,5008245,,,,,,,2023-03-03,1,,,,,ユッカパール,0
2099,7220001025298,新規,0,2023-03-03,2023-03-03,株式会社ＯＮＥＦＩＬＭ,,株式会社,石川県,金沢市,赤土町ワ７３番地３,,17,201,9200353,,,,,,,2023-03-03,1,,,,,ワンフィルム,0
2102,7230001019729,新規,0,2023-03-03,2023-03-03,株式会社エイチファーミング,,株式会社,富山県,下新川郡入善町,新屋１７２２番地４,,16,342,9390637,,,,,,,2023-03-03,1,,,,,エイチファーミング,0
2105,7240001061168,新規,0,2023-03-03,2023-03-03,株式会社ワイズ・アプレイザル,,株式会社,広島県,福山市,三之丸町８番２６号,,34,207,7200066,,,,,,,2023-03-03,1,,,,,ワイズアプレイザル,0
2107,7240002047769,新規,0,2023-03-03,2023-03-03,有限会社一晃園,,有限会社,広島県,安芸郡熊野町,萩原６丁目７番１０号,,34,307,7314213,,,,,,,2023-03-03,1,,,,,イッコウエン,0
2111,7250001019990,新規,0,2023-03-03,2023-03-03,株式会社酒井組,,株式会社,山口県,下関市,汐入町１番１２号,,35,201,7500059,,,,,,,2023-03-03,1,,,,,サカイグミ,0
2113,7260001037703,新規,0,2023-03-03,2023-03-03,つくし建設株式会社,,株式会社,岡山県,倉敷市,真備町箭田７４１番地１０,00129609,33,202,7101301,,,,,,,2023-03-03,1,,,,,ツクシケンセツ,0
2115,7270003001499,新規,0,2023-03-03,2023-03-03,ＡｎｙＭａｖｅ合同会社,,合同会社,鳥取県,鳥取市,津ノ井２５０番地１２,,31,201,6891102,,,,,,,2023-03-03,1,,,,,エニーメイヴ,0
2121,7290001100722,新規,0,2023-03-03,2023-03-03,株式会社ＣＨＩＮＣＨＩＮ,,株式会社,福岡県,福岡市中央区,赤坂１丁目７番２７号,,40,133,8100042,,,,,,,2023-03-03,1,,,,,チンチン,0
2122,7290001100739,新規,0,2023-03-03,2023-03-03,株式会社フジタマシンサービス,,株式会社,福岡県,大野城市,つつじケ丘５丁目６番１６号,,40,219,8160962,,,,,,,2023-03-03,1,,,,,フジタマシンサービス,0
2123,7290001100755,新規,0,2023-03-03,2023-03-03,株式会社Ｆｉｔ・テック,,株式会社,福岡県,春日市,白水ヶ丘３丁目１６番地,,40,218,8160845,,,,,,,2023-03-03,1,,,,,フィットテック,0
2124,7290001100763,新規,0,2023-03-03,2023-03-03,株式会社壱,,株式会社,福岡県,飯塚市,有安６７６番地１,,40,205,8200111,,,,,,,2023-03-03,1,,,,,イチ,0
2125,7290003013609,新規,0,2023-03-03,2023-03-03,合同会社ＡＧＬＩＮＫ,,合同会社,福岡県,八女市,黒木町木屋４０７８番地,,40,210,8341204,,,,,,,2023-03-03,1,,,,,アグリンク,0
2128,7290801029343,新規,0,2023-03-03,2023-03-03,株式会社エステック,,株式会社,福岡県,北九州市小倉南区,城野４丁目２番９号,,40,107,8020802,,,,,,,2023-03-03,1,,,,,エステック,0
2132,7320001019604,新規,0,2023-03-03,2023-03-03,株式会社Ｔ・Ｒ・Ｓ,,株式会社,大分県,中津市,大字永添１２７番地５,,44,203,8710162,,,,,,,2023-03-03,1,,,,,ティーアールエス,0
2133,7320003004034,新規,0,2023-03-03,2023-03-03,合同会社ハートリンク,,合同会社,大分県,大分市,大字三芳１１９９番地の３６,,44,201,8700030,,,,,,,2023-03-03,1,,,,,ハートリンク,0
2136,7330001030650,新規,0,2023-03-03,2023-03-03,株式会社ピザポケット熊本,,株式会社,熊本県,熊本市中央区,白山１丁目９番１０号,,43,101,8620959,,,,,,,2023-03-03,1,,,,,ピザポケットクマモト,0
2140,7330005010624,新規,0,2023-03-03,2023-03-03,あさぎり地域づくり協同組合,,その他の設立登記法人,熊本県,球磨郡あさぎり町,上北１９７２番地１,,43,514,8680422,,,,,,,2023-03-03,1,,,,,アサギリチイキヅクリ,0
2145,7350001018215,新規,0,2023-03-03,2023-03-03,株式会社匠,,株式会社,宮崎県,延岡市,野地町１丁目４０８４番地１,,45,203,8820802,,,,,,,2023-03-03,1,,,,,タクミ,0
2146,7360005006792,新規,0,2023-03-03,2023-03-03,一般社団法人長生楽沖縄,,その他の設立登記法人,沖縄県,宜野湾市,大謝名４丁目３－１７,,47,205,9012225,,,,,,,2023-03-03,1,,,,,チョウセイラクオキナワ,0
2156,7380001033517,新規,0,2023-03-03,2023-03-03,株式会社尾形建工所,,株式会社,福島県,福島市,八島町１２番２０号ＢＣビル３階,,07,201,9608136,,,,,,,2023-03-03,1,,,,,オガタケンコウショ,0
2162,7400001016171,新規,0,2023-03-03,2023-03-03,日匠株式会社,,株式会社,岩手県,盛岡市,中央通３丁目１１番６号グランディール中央５０１,,03,201,0200021,,,,,,,2023-03-03,1,,,,,,0
2163,7410001013416,新規,0,2023-03-03,2023-03-03,株式会社加賀機設,,株式会社,秋田県,北秋田市,阿仁水無字湯口内４４５番地２,,05,213,0184611,,,,,,,2023-03-03,1,,,,,カガキセツ,0
2169,7430001088555,新規,0,2023-03-03,2023-03-03,株式会社エーチーム,,株式会社,北海道,札幌市白石区,菊水上町三条３丁目３７番８号,,01,104,0030813,,,,,,,2023-03-03,1,,,,,エーチーム,0
2170,7430001088571,新規,0,2023-03-03,2023-03-03,Ｓａｌｉｅｒｉ株式会社,,株式会社,北海道,札幌市北区,北二十条西３丁目２番３２－２０６号,,01,102,0010020,,,,,,,2023-03-03,1,,,,,サリエリ,0
2179,7470001019498,新規,0,2023-03-03,2023-03-03,株式会社ＯＶＥＲ　Ｔｈｅ　ＴＨＲＥＥ,,株式会社,香川県,小豆郡土庄町,甲３６３３番地,,37,322,7614101,,,,,,,2023-03-03,1,,,,,オーバーザスリー,0
2181,7480001012023,新規,0,2023-03-03,2023-03-03,株式会社ｌａ．ｍｏｎｏｎ,,株式会社,徳島県,徳島市,住吉５丁目３番５５号Ａ棟１０３,,36,201,7700861,,,,,,,2023-03-03,1,,,,,ラモノン,0
2186,7500001024783,新規,0,2023-03-03,2023-03-03,株式会社ＴＯＭＯ設計,,株式会社,愛媛県,宇和島市,保手１丁目１番１号,,38,203,7980088,,,,,,,2023-03-03,1,,,,,トモセッケイ,0
2187,7500001024791,新規,0,2023-03-03,2023-03-03,株式会社グロウテック,,株式会社,愛媛県,松山市,西石井５丁目１４－２６－１Ｆ,,38,201,7900931,,,,,,,2023-03-03,1,,,,,グロウテック,0
2191,7700150113978,新規,0,2023-03-03,2023-03-03,ＯＢＳＢＯＴ　Ｔｅｃｈｎｏｌｏｇｙ　Ｌｉｍｉｔｅｄ,,外国会社等,,,,,,,,ＲＯＯＭ　Ｃ　１３／Ｆ　ＩＮＦＯＴＥＣＨ　ＣＥＮＴＥＲ，２１　ＨＵＮＧ　ＴＯ　ＲＯＡＤ，ＫＷＵＮ　ＴＯＮＧ　ＫＬ，Ｈｏｎｇ　Ｋｏｎｇ，Ｃｈｉｎａ,,,,,,2023-03-03,1,,,,,エイエイカギユウゲンコウシ,0
2192,7700150114588,新規,0,2023-03-03,2023-03-03,ＭＡＳＳ　ＭＡＲＧＩＮ　ＬＩＭＩＴＥＤ,,外国会社等,,,,,,,,ＲＭ　１８０５－０６，１８／Ｆ，ＨＯＬＬＹＷＯＯＤ　ＰＬＡＺＡ，６１０　ＮＡＴＨＡＮ　ＲＯＡＤ，ＫＯＷＬＯＯＮ　ＨＯＮＧ　ＫＯＮＧ,,,,,,2023-03-03,1,,,,,マスマージンリミテッド,0
2193,7700150114596,新規,0,2023-03-03,2023-03-03,ｓｈｅｎｚｈｅｎ　ｂｅｎｆｅｉ　ｔｒａｄｅ　ｌｔｄ,,外国会社等,,,,,,,,Ｒｏｏｍ　５０１－０６，Ｂｕｉｌｄｉｎｇ　２，Ｊｉａｎｇｎａｎ　Ｔｉｍｅｓ　Ｂｕｉｌｄｉｎｇ，Ｓｈａｎｇｘｉａｏｋｅｎｇｓｈａｎ，Ｇａｎｇｔｏｕ　Ｖｉｌｌａｇｅ，Ｇａｎｇｔｏｕ　Ｃｏｍｍｕｎｉｔｙ，Ｂａｎｔｉａｎ　Ｓｔｒｅｅｔ，Ｌｏｎｇｇａｎｇ　Ｄｉｓｔｒｉｃｔ，Ｓｈｅｎｚｈｅｎ,,,,,,2023-03-03,1,,,,,シンセンベンフエイトレードリミテツド,0
2202,8010001233409,新規,0,2023-03-03,2023-03-03,株式会社Ｔ＆Ａフィナンシャルマネジメント,,株式会社,東京都,千代田区,丸の内１丁目１番３号日本生命丸の内ガーデンタワー３Ｆ,,13,101,1000005,,,,,,,2023-03-03,1,,,,,ティーアンドエーフィナンシャルマネジメント,0
2203,8010003039977,新規,0,2023-03-03,2023-03-03,ＣＪリゾート２合同会社,,合同会社,東京都,千代田区,神田錦町１丁目２１番１号,,13,101,1010054,,,,,,,2023-03-03,1,,,,,シージェーリゾートツー,0
2204,8010005036320,新規,0,2023-03-03,2023-03-03,一般社団法人医業経営集団未来,,その他の設立登記法人,東京都,千代田区,麹町３丁目１番８号,,13,101,1020083,,,,,,,2023-03-03,1,,,,,イギョウケイエイシュウダンミライ,0
2205,8010005036329,新規,0,2023-03-03,2023-03-03,社会保険労務士法人番町,,その他の設立登記法人,東京都,千代田区,一番町２７番地２,,13,101,1020082,,,,,,,2023-03-03,1,,,,,バンチョウ,0
2215,8010401172727,新規,0,2023-03-03,2023-03-03,株式会社ｅｌｌｅＴｈｅｒｍｏ,,株式会社,東京都,港区,虎ノ門１丁目１７－１虎ノ門ヒルズビジネスタワー,,13,103,1050001,,,,,,,2023-03-03,1,,,,,エレサーモ,0
2216,8010401172842,新規,0,2023-03-03,2023-03-03,松村ペット商店株式会社,,株式会社,東京都,港区,六本木６丁目１０番１号,,13,103,1060032,,,,,,,2023-03-03,1,,,,,マツムラペットショウテン,0
2217,8010401172859,新規,0,2023-03-03,2023-03-03,ＮＫＫデルタ株式会社,,株式会社,東京都,港区,南青山３丁目１番３号スプライン青山東急ビル３階,,13,103,1070062,,,,,,,2023-03-03,1,,,,,エヌケーケーデルタ,0
2220,8010403029636,新規,0,2023-03-03,2023-03-03,ゼロワン合同会社,,合同会社,東京都,港区,浜松町２丁目２番１５号浜松町ダイヤビル２Ｆ,,13,103,1050013,,,,,,,2023-03-03,1,,,,,ゼロワン,0
2231,8010801033735,新規,0,2023-03-03,2023-03-03,株式会社ＳＫグループ,,株式会社,東京都,大田区,西蒲田７丁目２１番８－１０２号,,13,111,1440051,,,,,,,2023-03-03,1,,,,,エスケーグループ,0
2236,8010903008016,新規,0,2023-03-03,2023-03-03,合同会社ガリコ,,合同会社,東京都,世田谷区,玉川１丁目１５番３－１４０５号,,13,112,1580094,,,,,,,2023-03-03,1,,,,,ガリコ,0
2243,8011001152623,新規,0,2023-03-03,2023-03-03,株式会社ダブルエイチ,,株式会社,東京都,目黒区,中目黒３丁目７番４号,,13,110,1530061,,,,,,,2023-03-03,1,,,,,ダブルエイチ,0
2244,8011001152821,新規,0,2023-03-03,2023-03-03,株式会社エクス,,株式会社,東京都,渋谷区,代々木２丁目３３－１ＬＩＦＥＲＯＸＩＳＬＥ３０４号室,,13,113,1510053,,,,,,,2023-03-03,1,,,,,エクス,0
2245,8011001152904,新規,0,2023-03-03,2023-03-03,株式会社Ｚｅｓｔ　Ｇｕｉｌｄ　Ｓｔｙｌｅ　Ｗｏｒｋｓ,,株式会社,東京都,渋谷区,渋谷２丁目１９－１５宮益坂ビルディング６０９,,13,113,1500002,,,,,,,2023-03-03,1,,,,,ゼストギルドスタイルワークス,0
2246,8011001152945,新規,0,2023-03-03,2023-03-03,株式会社カリメラ,,株式会社,東京都,渋谷区,代々木３丁目１番３号,,13,113,1510053,,,,,,,2023-03-03,1,,,,,カリメラ,0
2250,8011003016371,新規,0,2023-03-03,2023-03-03,ソフトウィング合同会社,,合同会社,東京都,渋谷区,道玄坂１丁目１０番８号渋谷道玄坂東急ビル２Ｆ－Ｃ,,13,113,1500043,,,,,,,2023-03-03,1,,,,,ソフトウィング,0
2251,8011005009968,新規,0,2023-03-03,2023-03-03,一般社団法人心屋カウンセリング協会,,その他の設立登記法人,東京都,渋谷区,道玄坂１丁目１０番８号渋谷道玄坂東急ビル２Ｆ－Ｃ,,13,113,1500043,,,,,,,2023-03-03,1,,,,,ココロヤカウンセリングキョウカイ,0
2253,8011101102024,新規,0,2023-03-03,2023-03-03,株式会社Ｓｉｅｒｒａ　Ｊａｐａｎ,,株式会社,東京都,新宿区,新宿７丁目２７番１２－７１２号,,13,104,1600022,,,,,,,2023-03-03,1,,,,,シエラジャパン,0
2254,8011101102032,新規,0,2023-03-03,2023-03-03,株式会社ＬｉＦ,,株式会社,東京都,新宿区,新宿２丁目１２－１３新宿アントレサロンビル,,13,104,1600022,,,,,,,2023-03-03,1,,,,,エルアイエフ,0
2255,8011101102040,新規,0,2023-03-03,2023-03-03,株式会社アーシャ,,株式会社,東京都,新宿区,神楽坂６丁目４４番地ディヴレ神楽坂２０５,,13,104,1620825,,,,,,,2023-03-03,1,,,,,アーシャ,0
2257,8011103012725,新規,0,2023-03-03,2023-03-03,合同会社ＦＣＲｌａｂ．,,合同会社,東京都,新宿区,市谷田町３丁目８番市ヶ谷科学技術イノベーションセンタービル２Ｆ,,13,104,1620843,,,,,,,2023-03-03,1,,,,,エフシーアールラボ,0
2261,8011501029016,新規,0,2023-03-03,2023-03-03,ドルイドアジア株式会社,,株式会社,東京都,北区,田端新町１丁目７－１４ビズフィールド西日暮里４０１号室,,13,117,1140012,,,,,,,2023-03-03,1,,,,,ドルイドアジア,0
2262,8011503005502,新規,0,2023-03-03,2023-03-03,合同会社ＴｒｅＯｎｅｓｔａ,,合同会社,東京都,北区,田端１丁目１６－３ステージファースト田端アジールコート５０１,,13,117,1140014,,,,,,,2023-03-03,1,,,,,トレオネスタ,0
2264,8011605002496,新規,0,2023-03-03,2023-03-03,医療法人社団嘉例会,,その他の設立登記法人,東京都,練馬区,大泉学園町６丁目１９番３８号,,13,120,1780061,,,,,,,2023-03-03,1,,,,,カレイカイ,0
2265,8011701026044,新規,0,2023-03-03,2023-03-03,株式会社チームメイプル,,株式会社,東京都,江戸川区,清新町１丁目１番６－４０２号,,13,123,1340087,,,,,,,2023-03-03,1,,,,,チームメイプル,0
2266,8011701026052,新規,0,2023-03-03,2023-03-03,株式会社エムイーコーポレーション,,株式会社,東京都,江戸川区,松江３丁目１２番７号ＹＳビル３Ｆ,,13,123,1320025,,,,,,,2023-03-03,1,,,,,エムイーコーポレーション,0
2267,8012403005864,新規,0,2023-03-03,2023-03-03,クロッシュ・ブッキングス合同会社,,合同会社,東京都,三鷹市,下連雀３丁目９－１２富士見マンション２０７,,13,204,1810013,,,,,,,2023-03-03,1,,,,,クロッシュブッキングス,0
2271,8013101009125,新規,0,2023-03-03,2023-03-03,ＫＳＥホールディングス株式会社,,株式会社,東京都,西多摩郡瑞穂町,大字二本木３８３番地１７,,13,303,1901201,,,,,,,2023-03-03,1,,,,,ケーエスイーホールディングス,0
2274,8013301050390,新規,0,2023-03-03,2023-03-03,株式会社Ｓｉｌｋｖｅｒｓｅ,,株式会社,東京都,豊島区,西池袋５丁目２－１３菱和パレス立教通り２０３,,13,116,1710021,,,,,,,2023-03-03,1,,,,,シルクバース,0
2279,8020001150470,新規,0,2023-03-03,2023-03-03,株式会社Ｃｒｅａｔｉｖｅ　Ｗｏｒｋｓ　Ｊａｐａｎ,,株式会社,神奈川県,横浜市都筑区,南山田２丁目３９番１３－３０３号,,14,118,2240029,,,,,,,2023-03-03,1,,,,,クリエイティブワークスジャパン,0
2280,8020001150479,新規,0,2023-03-03,2023-03-03,ＨＤＬ株式会社,,株式会社,神奈川県,川崎市多摩区,菅稲田堤１丁目１３番３１号,,14,135,2140003,,,,,,,2023-03-03,1,,,,,エイチディーエル,0
2281,8020001150504,新規,0,2023-03-03,2023-03-03,株式会社フォールズ,,株式会社,神奈川県,横浜市中区,蓬莱町２丁目６番地３アルテビル３０５,,14,104,2310048,,,,,,,2023-03-03,1,,,,,フォールズ,0
2282,8020001150512,新規,0,2023-03-03,2023-03-03,株式会社リレイト,,株式会社,神奈川県,横浜市鶴見区,栄町通３丁目３３番地８,,14,101,2300038,,,,,,,2023-03-03,1,,,,,リレイト,0
2283,8020001150520,新規,0,2023-03-03,2023-03-03,株式会社Ｓｕｎｒｉｓｅ,,株式会社,神奈川県,横浜市都筑区,池辺町３５３３番地,,14,118,2240053,,,,,,,2023-03-03,1,,,,,サンライズ,0
2284,8020001150529,新規,0,2023-03-03,2023-03-03,株式会社横浜市ＳＤＧｓオフィス,,株式会社,神奈川県,横浜市中区,住吉町１丁目１３番地,,14,104,2310013,,,,,,,2023-03-03,1,,,,,ヨコハマシエスディージーズオフィス,0
2285,8020001150545,新規,0,2023-03-03,2023-03-03,株式会社Ｊａｐａｎ　Ｍｅｄｉｃａｌ　Ｅｑｕｉｐｍｅｎｔ　Ｓｅｒｖｉｃｅ,,株式会社,神奈川県,横浜市金沢区,能見台５丁目１２番地２５,,14,108,2360057,,,,,,,2023-03-03,1,,,,,ジャパンメディカルイクイプメントサービス,0
2288,8020003023427,新規,0,2023-03-03,2023-03-03,ＷｈｉｔｅＬｉｐ合同会社,,合同会社,神奈川県,横浜市西区,北幸２丁目１０番２８号,,14,103,2200004,,,,,,,2023-03-03,1,,,,,ホワイトリップ,0
2289,8020003023435,新規,0,2023-03-03,2023-03-03,カオスバース合同会社,,合同会社,神奈川県,横浜市保土ケ谷区,瀬戸ケ谷町３２番地３ユニーブル保土ケ谷４０４号,,14,106,2400024,,,,,,,2023-03-03,1,,,,,カオスバース,0
2291,8021001078330,新規,0,2023-03-03,2023-03-03,鈴木商店株式会社,,株式会社,神奈川県,南足柄市,三竹６７３番地２,,14,217,2500116,,,,,,,2023-03-03,1,,,,,スズキショウテン,0
2292,8021001078339,新規,0,2023-03-03,2023-03-03,株式会社ＡＮＺＡＩ,,株式会社,神奈川県,大和市,中央林間４丁目１５番１５－２０２号,,14,213,2420007,,,,,,,2023-03-03,1,,,,,アンザイ,0
2300,8030001152607,新規,0,2023-03-03,2023-03-03,株式会社ＳＷＥＴ,,株式会社,埼玉県,さいたま市岩槻区,大字釣上新田６０７番地３,,11,110,3390025,,,,,,,2023-03-03,1,,,,,スウェット,0
2301,8030001152648,新規,0,2023-03-03,2023-03-03,株式会社三禾,,株式会社,埼玉県,川口市,青木１丁目９－５,,11,203,3320031,,,,,,,2023-03-03,1,,,,,ミカ,0
2302,8030001152689,新規,0,2023-03-03,2023-03-03,ＰＬＡＮＴデザイン株式会社,,株式会社,埼玉県,さいたま市浦和区,神明１丁目２１番９号,,11,107,3300065,,,,,,,2023-03-03,1,,,,,プラントデザイン,0
2303,8030001152706,新規,0,2023-03-03,2023-03-03,株式会社ロジパ,,株式会社,埼玉県,さいたま市大宮区,桜木町１丁目３７８番地,,11,103,3300854,,,,,,,2023-03-03,1,,,,,ロジパ,0
2304,8030001152722,新規,0,2023-03-03,2023-03-03,株式会社共栄建設,,株式会社,埼玉県,さいたま市桜区,道場１丁目８番２１号ルミエール１０１,,11,106,3380835,,,,,,,2023-03-03,1,,,,,キョウエイケンセツ,0
2305,8030001152730,新規,0,2023-03-03,2023-03-03,源株式会社,,株式会社,埼玉県,所沢市,小手指南５丁目５－１２,,11,208,3591146,,,,,,,2023-03-03,1,,,,,ミナモト,0
2309,8030003021297,新規,0,2023-03-03,2023-03-03,合同会社テルミット,,合同会社,埼玉県,さいたま市大宮区,桜木町４丁目８５６番地サクセスバード２０５,,11,103,3300854,,,,,,,2023-03-03,1,,,,,テルミット,0
2310,8030003021306,新規,0,2023-03-03,2023-03-03,ＮＯＮＡＬｓｔｏｒｅ合同会社,,合同会社,埼玉県,坂戸市,大字石井２３４０番地３６,,11,239,3500212,,,,,,,2023-03-03,1,,,,,ノンアルストア,0
2312,8040001127285,新規,0,2023-03-03,2023-03-03,株式会社碧,,株式会社,千葉県,市川市,新田４丁目１３番１２号２Ｆ,,12,203,2720035,,,,,,,2023-03-03,1,,,,,アオ,0
2313,8040001127351,新規,0,2023-03-03,2023-03-03,株式会社スターフィールド,,株式会社,千葉県,船橋市,日の出２丁目３番１８号,,12,204,2730015,,,,,,,2023-03-03,1,,,,,スターフィールド,0
2314,8040001127368,新規,0,2023-03-03,2023-03-03,株式会社ＰＯＯＬＹ,,株式会社,千葉県,市川市,大野町１丁目４８８番地１３,,12,203,2720805,,,,,,,2023-03-03,1,,,,,プーリー,0
2318,8050003007286,新規,0,2023-03-03,2023-03-03,合同会社クリオネ,,合同会社,茨城県,つくば市,松塚４８６－１,,08,220,3050015,,,,,,,2023-03-03,1,,,,,クリオネ,0
2319,8060001035750,新規,0,2023-03-03,2023-03-03,株式会社松本建装,,株式会社,栃木県,下都賀郡壬生町,大字助谷２７１７番地８,,09,361,3210233,,,,,,,2023-03-03,1,,,,,マツモトケンソウ,0
2321,8070001040171,新規,0,2023-03-03,2023-03-03,株式会社アースワンダー,,株式会社,群馬県,吾妻郡中之条町,大字西中之条１２９５番地５,,10,421,3770425,,,,,,,2023-03-03,1,,,,,アースワンダー,0
2322,8070001040196,新規,0,2023-03-03,2023-03-03,昭和商会株式会社,,株式会社,群馬県,伊勢崎市,緑町１５番２５号,,10,204,3720043,,,,,,,2023-03-03,1,,,,,ショウワショウカイ,0
2329,8080101023835,新規,0,2023-03-03,2023-03-03,原まちシンビオシスベース株式会社,,株式会社,静岡県,沼津市,東椎路４７７番地,,22,203,4100302,,,,,,,2023-03-03,1,,,,,ハラマチシンビオシスベース,0
2331,8080401026356,新規,0,2023-03-03,2023-03-03,株式会社山口ファーム,,株式会社,静岡県,浜松市北区,三ヶ日町大谷９番地,,22,135,4311407,,,,,,,2023-03-03,1,,,,,ヤマグチファーム,0
2336,8100001036190,新規,0,2023-03-03,2023-03-03,株式会社楓,,株式会社,長野県,飯田市,山本６７２２番地１０,,20,205,3950244,,,,,,,2023-03-03,1,,,,,カエデ,0
2337,8100001036199,新規,0,2023-03-03,2023-03-03,株式会社千代子,,株式会社,長野県,長野市,三輪１丁目２５番１１号,,20,201,3800803,,,,,,,2023-03-03,1,,,,,チヨコ,0
2340,8110001037329,新規,0,2023-03-03,2023-03-03,株式会社ＳＥＩＫＥＮ,,株式会社,新潟県,新潟市江南区,亀田緑町２丁目３番２９号,,15,104,9500152,,,,,,,2023-03-03,1,,,,,セイケン,0
2341,8110001037337,新規,0,2023-03-03,2023-03-03,株式会社銀の麦,,株式会社,新潟県,燕市,東太田６０７４番地１,,15,213,9591289,,,,,,,2023-03-03,1,,,,,ギンノムギ,0
2353,8120001252819,新規,0,2023-03-03,2023-03-03,株式会社京阪ポスティング,,株式会社,大阪府,門真市,元町５番３６号２階,,27,223,5710057,,,,,,,2023-03-03,1,,,,,ケイハンポスティング,0
2354,8120001252876,新規,0,2023-03-03,2023-03-03,株式会社ｈｉｔｏ　ｔｗｏ,,株式会社,大阪府,大阪市城東区,野江２丁目１８番１８号１０２号室,,27,118,5360006,,,,,,,2023-03-03,1,,,,,ヒトツ,0
2355,8120001252934,新規,0,2023-03-03,2023-03-03,株式会社Ｆｏｃｕｓ　ａｎｄ　Ｃｒｅａｔｅ,,株式会社,大阪府,大阪市北区,梅田１丁目１－３大阪駅前第３ビル２９階１－１－１号室,,27,127,5300001,,,,,,,2023-03-03,1,,,,,フォーカスアンドクリエイト,0
2359,8120901047203,新規,0,2023-03-03,2023-03-03,株式会社活留工務店,,株式会社,大阪府,吹田市,泉町１丁目２０番１４号,,27,205,5640041,,,,,,,2023-03-03,1,,,,,イケルコウムテン,0
2360,8120903004524,新規,0,2023-03-03,2023-03-03,Ｌ．ＳＰＡＲＥＳ合同会社,,合同会社,大阪府,豊中市,宝山町１８番７号,,27,203,5610893,,,,,,,2023-03-03,1,,,,,エルスペア,0
2365,8130001073784,新規,0,2023-03-03,2023-03-03,株式会社エバラス,,株式会社,京都府,京都市伏見区,桃山町泰長老１５３番地８,,26,109,6128034,,,,,,,2023-03-03,1,,,,,エバラス,0
2366,8130001073792,新規,0,2023-03-03,2023-03-03,京和楽株式会社,,株式会社,京都府,南丹市,日吉町殿田向山３番地１,,26,213,6290341,,,,,,,2023-03-03,1,,,,,キョウワラク,0
2367,8130003008557,新規,0,2023-03-03,2023-03-03,合同会社胤コーポレーション,,合同会社,京都府,京都市右京区,太秦青木ケ原町６－１０,,26,108,6168171,,,,,,,2023-03-03,1,,,,,ツグミコーポレーション,0
2374,8140001129313,新規,0,2023-03-03,2023-03-03,株式会社メディカルユアーズロボティクス,,株式会社,兵庫県,神戸市灘区,桜口町４丁目１番１号ウェルブ六甲道４番街１番館３０１号,,28,102,6570036,,,,,,,2023-03-03,1,,,,,メディカルユアーズロボティクス,0
2375,8140001129338,新規,0,2023-03-03,2023-03-03,株式会社Ｇ’Ｓエクステリア,,株式会社,兵庫県,神戸市垂水区,舞子坂１丁目９番８８号,,28,108,6550044,,,,,,,2023-03-03,1,,,,,ジーエスエクステリア,0
2386,8160005011168,新規,0,2023-03-03,2023-03-03,医療法人トリプルウィン,,その他の設立登記法人,滋賀県,野洲市,久野部１９４番地１,,25,210,5202353,,,,,,,2023-03-03,1,,,,,トリプルウィン,0
2392,8180001155165,新規,0,2023-03-03,2023-03-03,株式会社ＢＡＲＢＥＲＳ　ＰＯＩＮＴ,,株式会社,愛知県,名古屋市昭和区,御器所３丁目６番９号,,23,107,4660051,,,,,,,2023-03-03,1,,,,,バーバーズポイント,0
2393,8180001155215,新規,0,2023-03-03,2023-03-03,株式会社ＡＺ　Ｂｅａｕｔｙ　Ｃｏｍｐａｎｙ,,株式会社,愛知県,名古屋市守山区,守山２丁目４番３０号,,23,113,4630067,,,,,,,2023-03-03,1,,,,,アズビューティーカンパニー,0
2402,8200001041032,新規,0,2023-03-03,2023-03-03,株式会社ＴＭコーポレーション,,株式会社,岐阜県,羽島市,竹鼻町狐穴３４４６番地,,21,209,5016232,,,,,,,2023-03-03,1,,,,,ティーエムコーポレーション,0
2403,8200003005877,新規,0,2023-03-03,2023-03-03,合同会社ウェルフェアー,,合同会社,岐阜県,岐阜市,切通６丁目１４番１４－６０２号フレスト切通,,21,201,5008237,,,,,,,2023-03-03,1,,,,,ウェルフェアー,0
2406,8220001025297,新規,0,2023-03-03,2023-03-03,株式会社カクタス,,株式会社,石川県,金沢市,本多町２丁目１番１７号,,17,201,9200964,,,,,,,2023-03-03,1,,,,,カクタス,0
2408,8230001019728,新規,0,2023-03-03,2023-03-03,Ｔ＆Ｍ株式会社,,株式会社,富山県,富山市,秋吉１３５番地１,,16,201,9300953,,,,,,,2023-03-03,1,,,,,ティーアンドエム,0
2409,8230001019736,新規,0,2023-03-03,2023-03-03,株式会社オフィスＴＫ,,株式会社,富山県,富山市,秋吉１１４番地１１セラヴィ２０１号,,16,201,9300953,,,,,,,2023-03-03,1,,,,,オフィスティケー,0
2415,8250001019981,新規,0,2023-03-03,2023-03-03,株式会社萩原,,株式会社,山口県,長門市,西深川１６８９番地,,35,211,7594102,,,,,,,2023-03-03,1,,,,,ハギハラ,0
2416,8250001019998,新規,0,2023-03-03,2023-03-03,株式会社４ｔａｓｓ,,株式会社,山口県,下関市,秋根北町９番１７号サンフォレストＶ２０３,,35,201,7510876,,,,,,,2023-03-03,1,,,,,シタス,0
2417,8260001037677,新規,0,2023-03-03,2023-03-03,株式会社Ｑｕｍａ,,株式会社,岡山県,井原市,大江町３９５１番地,,33,207,7150023,,,,,,,2023-03-03,1,,,,,クーマ,0
2418,8260001037685,新規,0,2023-03-03,2023-03-03,ＫＩＺＵＮＡｆａｃｔｏｒｙ株式会社,,株式会社,岡山県,倉敷市,西田７５１番地５,,33,202,7100027,,,,,,,2023-03-03,1,,,,,キズナファクトリー,0
2419,8260001037693,新規,0,2023-03-03,2023-03-03,株式会社ｐｅｎｄｕｌｕｍ,,株式会社,岡山県,岡山市北区,伊島町２丁目２０番２６号エクセレント津島２Ｆ,,33,101,7000016,,,,,,,2023-03-03,1,,,,,ペンジュラム,0
2423,8260003004221,新規,0,2023-03-03,2023-03-03,合同会社Ｋ　Ｃｏｍｐａｎｙ,,合同会社,岡山県,岡山市北区,庭瀬８２４番地４スマートライフ北棟２０１,,33,101,7010153,,,,,,,2023-03-03,1,,,,,ケイカンパニー,0
2424,8270003001498,新規,0,2023-03-03,2023-03-03,合同会社朔望理,,合同会社,鳥取県,鳥取市,河原町佐貫９２３,,31,201,6801243,,,,,,,2023-03-03,1,,,,,サノリ,0
2428,8290801029326,新規,0,2023-03-03,2023-03-03,株式会社アース,,株式会社,福岡県,北九州市小倉北区,竪町２丁目４番１９－１３０６号,,40,106,8030818,,,,,,,2023-03-03,1,,,,,アース,0
2429,8290801029342,新規,0,2023-03-03,2023-03-03,株式会社丸亀ホールディングス,,株式会社,福岡県,京都郡みやこ町,勝山大久保１０８２番地の３,,40,625,8240801,,,,,,,2023-03-03,1,,,,,マルガメホールディングス,0
2448,8360001031612,新規,0,2023-03-03,2023-03-03,株式会社Ｂ．Ｎ　ＲＹＵＫＹＵ,,株式会社,沖縄県,那覇市,与儀２丁目４番１号ｖｉｃｔｏｉｒｅ１階,,47,201,9020076,,,,,,,2023-03-03,1,,,,,ビーエヌリュウキュウ,0
2449,8360001031645,新規,0,2023-03-03,2023-03-03,とよむパートナーズ株式会社,,株式会社,沖縄県,中頭郡中城村,字久場１９６３番地,,47,328,9012401,,,,,,,2023-03-03,1,,,,,トヨムパートナーズ,0
2454,8380003005406,新規,0,2023-03-03,2023-03-03,合同会社天翔重工業,,合同会社,福島県,伊達郡川俣町,大字鶴沢字松ヶ窪４５番地の３,,07,308,9601406,,,,,,,2023-03-03,1,,,,,テンショウジュウコウギョウ,0
2455,8400001016162,新規,0,2023-03-03,2023-03-03,株式会社エクイプ,,株式会社,岩手県,盛岡市,上堂２丁目４番２４号,,03,201,0200125,,,,,,,2023-03-03,1,,,,,エクイプ,0
2456,8400003003035,新規,0,2023-03-03,2023-03-03,クシネ合同会社,,合同会社,岩手県,滝沢市,巣子２０２番地４３,,03,216,0200611,,,,,,,2023-03-03,1,,,,,クシネ,0
2458,8400005008305,新規,0,2023-03-03,2023-03-03,農事組合法人東田西部,,その他の設立登記法人,岩手県,奥州市,胆沢南都田字五木田４６番地,,03,215,0230401,,,,,,,2023-03-03,1,,,,,ハルタセイブ,0
2459,8410001013407,新規,0,2023-03-03,2023-03-03,株式会社スズキファーム,,株式会社,秋田県,男鹿市,福米沢字家ノ下１８８番地２,,05,206,0100411,,,,,,,2023-03-03,1,,,,,スズキファーム,0
2460,8410001013415,新規,0,2023-03-03,2023-03-03,株式会社川原電気工事,,株式会社,秋田県,秋田市,土崎港南２丁目３番２１号,,05,201,0110943,,,,,,,2023-03-03,1,,,,,カワハラデンキコウジ,0
2467,8430001088505,新規,0,2023-03-03,2023-03-03,株式会社暮支度,,株式会社,北海道,札幌市中央区,北一条西２０丁目２番１号,,01,101,0640821,,,,,,,2023-03-03,1,,,,,クラシタク,0
2475,8450001013915,新規,0,2023-03-03,2023-03-03,株式会社ホームメイク,,株式会社,北海道,留萌市,元町５丁目４８番地,,01,212,0770004,,,,,,,2023-03-03,1,,,,,ホームメイク,0
2479,8470001019489,新規,0,2023-03-03,2023-03-03,株式会社エーカオ,,株式会社,香川県,丸亀市,柞原町５４８番地３０,,37,202,7630073,,,,,,,2023-03-03,1,,,,,エーカオ,0
2480,8470001019497,新規,0,2023-03-03,2023-03-03,株式会社ココハル,,株式会社,香川県,善通寺市,上吉田町５５９番地２,,37,204,7650012,,,,,,,2023-03-03,1,,,,,ココハル,0
2481,8470005006491,新規,0,2023-03-03,2023-03-03,医療法人このはな会,,その他の設立登記法人,香川県,綾歌郡綾川町,小野甲５６６番地,,37,387,7612307,,,,,,,2023-03-03,1,,,,,コノハナカイ,0
2482,8490001010413,新規,0,2023-03-03,2023-03-03,株式会社ＯＪコンサルト企画,,株式会社,高知県,高知市,杉井流１１番５号ヴィラージュ２０２,,39,201,7800072,,,,,,,2023-03-03,1,,,,,オージェイコンサルトキカク,0
2483,8490005006886,新規,0,2023-03-03,2023-03-03,労働者協同組合土佐共同組合,,その他の設立登記法人,高知県,土佐市,高岡町乙３５６３,,39,205,7811102,,,,,,,2023-03-03,1,,,,,,0
2484,8500001024790,新規,0,2023-03-03,2023-03-03,株式会社愛媛晶電,,株式会社,愛媛県,新居浜市,土橋２丁目１０番２３号,,38,205,7920043,,,,,,,2023-03-03,1,,,,,エヒメショウデン,0
2485,8700150114595,新規,0,2023-03-03,2023-03-03,Ｇｕａｎｇｚｈｏｕｓｈｉ　Ｂｅｉｃｈｅｎｇ　Ｔｒａｄｅ　Ｃｏ　Ｌｔｄ,,外国会社等,,,,,,,,Ｐａｎｙｕｑｕ，Ｓｈｉｑｉａｏｊｉｅ，Ｊｉｅｊｉｎｚｈｏｎｇｌｕ，１１－１３　Ｈａｏ　Ｆｕｄｕｄａｓｈａ，３　Ｃｅｎｇ，Ｓｈａｎｇｃｈａｎｇ，３０９　Ｚｈｉｓａｎ　Ｇｕａｎｇｚｈｏｕ　Ｇｕａｎｇｄｏｎｇ　５１１４０４　ＣＮ,,,,,,2023-03-03,1,,,,,グワンジヨウシベイチヨントレードカンパニーリミテツド,0
2486,8700150114604,新規,0,2023-03-03,2023-03-03,有限会社ＤＩＡＮＡ　Ｅ－ＣＯＭＭＥＲＣＥ　ＣＯＲＰＯＲＡＴＩＯＮ,,外国会社等,,,,,,,,イタリア国トッレーリア市（パドバ県）サンダニエレ通り１３７／１３９,,,,,,2023-03-03,1,,,,,ユウゲンガイシャダイアナイーコマースコーポレーション,0
2497,9010001233127,新規,0,2023-03-03,2023-03-03,Ｆｏｒｌｅｉｎｏ株式会社,,株式会社,東京都,中央区,築地４丁目４番１４号ラフィネ東銀座９１０号室,,13,102,1040045,,,,,,,2023-03-03,1,,,,,フォレイノ,0
2498,9010001233366,新規,0,2023-03-03,2023-03-03,株式会社将来,,株式会社,東京都,文京区,本郷６丁目１６番１２号トップ本郷５０４,,13,105,1130033,,,,,,,2023-03-03,1,,,,,ショウライ,0
2499,9010001233374,新規,0,2023-03-03,2023-03-03,株式会社ソラセンテス,,株式会社,東京都,文京区,本郷３丁目１７番６－３０６号,,13,105,1130033,,,,,,,2023-03-03,1,,,,,ソラセンテス,0
2500,9010001233432,新規,0,2023-03-03,2023-03-03,株式会社ＴＯＫＹＯ　ＶＯＲＧ,,株式会社,東京都,千代田区,神田多町２丁目１神田東山ビル７Ｆ／８Ｆ,,13,101,1010046,,,,,,,2023-03-03,1,,,,,トウキョウボーグ,0
2501,9010001233465,新規,0,2023-03-03,2023-03-03,株式会社ＤＩ　ｍｅｄｉｃａｌ,,株式会社,東京都,千代田区,有楽町１丁目２－１４柴田ビル３Ｆ,,13,101,1000006,,,,,,,2023-03-03,1,,,,,ディーアイメディカル,0
2503,9010003039919,新規,0,2023-03-03,2023-03-03,合同会社クリーンパワー,,合同会社,東京都,千代田区,平河町１丁目３番１３号平河町フロントビル７階株式会社シリウス・アドバイザリー内,,13,101,1020093,,,,,,,2023-03-03,1,,,,,クリーンパワー,0
2504,9010003039968,新規,0,2023-03-03,2023-03-03,ＪＦＬＹＥＲ合同会社,,合同会社,東京都,中央区,銀座１丁目１２番４号Ｎ＆ＥＢＬＤ．６Ｆ,,13,102,1040061,,,,,,,2023-03-03,1,,,,,ジェイフライヤー,0
2507,9010401172817,新規,0,2023-03-03,2023-03-03,株式会社Ｅｒｉｓ,,株式会社,東京都,港区,六本木３丁目１８番２－６０４号,,13,103,1060032,,,,,,,2023-03-03,1,,,,,エリス,0
2508,9010401172858,新規,0,2023-03-03,2023-03-03,ＮＫＫホールディングス株式会社,,株式会社,東京都,港区,南青山３丁目１番３号スプライン青山東急ビル３階,,13,103,1070062,,,,,,,2023-03-03,1,,,,,エヌケーケーホールディングス,0
2509,9010401172882,新規,0,2023-03-03,2023-03-03,株式会社ＳＵＳＨＩ,,株式会社,東京都,港区,麻布十番１丁目２番７号ラフィネ麻布十番７０１号室,,13,103,1060045,,,,,,,2023-03-03,1,,,,,スシ,0
2510,9010401172908,新規,0,2023-03-03,2023-03-03,ＳＡＵＮＡ　ＴＯＫＹＯ　ＡＫＡＳＡＫＡ株式会社,,株式会社,東京都,港区,赤坂３丁目１２番１３号６階,,13,103,1070052,,,,,,,2023-03-03,1,,,,,サウナトウキョウアカサカ,0
2512,9010403029643,新規,0,2023-03-03,2023-03-03,１９３合同会社,,合同会社,東京都,港区,南青山３丁目１番３６号青山丸竹ビル６Ｆ,,13,103,1070062,,,,,,,2023-03-03,1,,,,,イッキュウサン,0
2516,9010501050088,新規,0,2023-03-03,2023-03-03,ＴＯＰＰＡＮデジタル株式会社,,株式会社,東京都,台東区,台東１丁目５番１号,,13,106,1100016,,,,,,,2023-03-03,1,,,,,トッパンデジタル,0
2517,9010501050096,新規,0,2023-03-03,2023-03-03,株式会社ＭＥＲＲＹ,,株式会社,東京都,台東区,台東２丁目３１番３号アサヒビル５Ｆ,,13,106,1100016,,,,,,,2023-03-03,1,,,,,メリィ,0
2518,9010503006906,新規,0,2023-03-03,2023-03-03,ＬＵＣＡ合同会社,,合同会社,東京都,台東区,松が谷４丁目１９番７－５０１号,,13,106,1110036,,,,,,,2023-03-03,1,,,,,ルカ,0
2525,9010601062719,新規,0,2023-03-03,2023-03-03,株式会社ハンカチ,,株式会社,東京都,墨田区,錦糸１丁目２番１号アルカセントラル１４Ｆ,,13,107,1300013,,,,,,,2023-03-03,1,,,,,ハンカチ,0
2526,9010801033734,新規,0,2023-03-03,2023-03-03,株式会社ゼスティ,,株式会社,東京都,大田区,大森北１丁目３２番１－７０６号,,13,111,1430016,,,,,,,2023-03-03,1,,,,,ゼスティ,0
2531,9010903008007,新規,0,2023-03-03,2023-03-03,ＴＡＭＡＡ合同会社,,合同会社,東京都,世田谷区,代沢２丁目４３番地４号,,13,112,1550032,,,,,,,2023-03-03,1,,,,,タマア,0
2532,9010905004441,新規,0,2023-03-03,2023-03-03,医療法人社団優駿乃結,,その他の設立登記法人,東京都,世田谷区,砧６丁目３２番３号,,13,112,1570073,,,,,,,2023-03-03,1,,,,,ユウシュンノムスビ,0
2534,9011101101999,新規,0,2023-03-03,2023-03-03,株式会社ｓｅｓａｍｅ,,株式会社,東京都,新宿区,大久保１丁目２番１号４０７,,13,104,1690072,,,,,,,2023-03-03,1,,,,,セサミ,0
2535,9011101102007,新規,0,2023-03-03,2023-03-03,株式会社Ｎｅｕｇｅａｒ,,株式会社,東京都,新宿区,新宿４丁目１番６号ＪＲ新宿ミライナタワー１８Ｆ,,13,104,1600022,,,,,,,2023-03-03,1,,,,,ノイギア,0
2536,9011101102031,新規,0,2023-03-03,2023-03-03,株式会社Ｌａｖａｎｄｕｒａ,,株式会社,東京都,新宿区,四谷４丁目６番６号ラピスコート四谷１０２号室,,13,104,1600004,,,,,,,2023-03-03,1,,,,,ラヴァンドゥラ,0
2537,9011103012757,新規,0,2023-03-03,2023-03-03,合同会社ＣＯＭＭＵＮＩＭＡＫＥＲ,,合同会社,東京都,新宿区,西新宿３丁目３番１３号西新宿水間ビル６階,,13,104,1600023,,,,,,,2023-03-03,1,,,,,コミュニメイカー,0
2538,9011201024464,新規,0,2023-03-03,2023-03-03,株式会社Ｍ．Ａ．プランニング,,株式会社,東京都,中野区,中央３丁目４５番５号,,13,114,1640011,,,,,,,2023-03-03,1,,,,,エムエープランニング,0
2547,9011601026630,新規,0,2023-03-03,2023-03-03,株式会社ファム,,株式会社,東京都,練馬区,石神井町３丁目２５番１２－１１０４号,,13,120,1770041,,,,,,,2023-03-03,1,,,,,ファム,0
2550,9011701026051,新規,0,2023-03-03,2023-03-03,株式会社Ｃｏｎｔｉｇｏ,,株式会社,東京都,江戸川区,中葛西５丁目２４番５号,,13,123,1340083,,,,,,,2023-03-03,1,,,,,,0
2555,9011801042007,新規,0,2023-03-03,2023-03-03,株式会社イデア,,株式会社,東京都,足立区,皿沼２丁目２２番８－１０２号,,13,121,1230862,,,,,,,2023-03-03,1,,,,,イデア,0
2556,9011801042015,新規,0,2023-03-03,2023-03-03,令平和株式会社,,株式会社,東京都,足立区,舎人５丁目１３番２８号,,13,121,1210831,,,,,,,2023-03-03,1,,,,,レーヘイワ,0
2559,9012301013332,新規,0,2023-03-03,2023-03-03,株式会社Ｎａｌｌｏｗ‐Ｚ,,株式会社,東京都,町田市,木曽東１丁目４５番３４号,,13,209,1940036,,,,,,,2023-03-03,1,,,,,ナロウズ,0
2561,9012403005855,新規,0,2023-03-03,2023-03-03,ピッカルディア合同会社,,合同会社,東京都,府中市,西府町５丁目６番地１５,,13,206,1830031,,,,,,,2023-03-03,1,,,,,ピッカルディア,0
2562,9012801022163,新規,0,2023-03-03,2023-03-03,株式会社ＳＫＹ開発,,株式会社,東京都,立川市,西砂町６丁目３７番６０号,,13,202,1900034,,,,,,,2023-03-03,1,,,,,エスケーワイカイハツ,0
2566,9013301050381,新規,0,2023-03-03,2023-03-03,株式会社ｇコネクト総研,,株式会社,東京都,豊島区,上池袋１丁目２９番１５号ラ・セーヌ２３上池袋３０２号,,13,116,1700012,,,,,,,2023-03-03,1,,,,,ジーコネクトソウケン,0
2574,9020001150461,新規,0,2023-03-03,2023-03-03,中興商事株式会社,,株式会社,神奈川県,横浜市瀬谷区,橋戸３丁目３番地３４,,14,114,2460037,,,,,,,2023-03-03,1,,,,,チュウコウショウジ,0
2575,9020001150478,新規,0,2023-03-03,2023-03-03,株式会社椿山工務店,,株式会社,神奈川県,横浜市南区,東蒔田町３番地１５日清第二横浜コーポ５０５号室,,14,105,2320045,,,,,,,2023-03-03,1,,,,,ツバキヤマコウムテン,0
2576,9020001150511,新規,0,2023-03-03,2023-03-03,株式会社ファミーリア,,株式会社,神奈川県,横浜市西区,みなとみらい３丁目７番１号オーシャンゲートみなとみらい８階,,14,103,2200012,,,,,,,2023-03-03,1,,,,,ファミーリア,0
2577,9020003023418,新規,0,2023-03-03,2023-03-03,合同会社Ａ・Ｓ・Ｆ,,合同会社,神奈川県,横浜市戸塚区,戸塚町２１３２番地３８,,14,110,2440003,,,,,,,2023-03-03,1,,,,,エーエスエフ,0
2578,9020003023434,新規,0,2023-03-03,2023-03-03,合同会社Ｅｎｌｏｏｐ,,合同会社,神奈川県,横浜市青葉区,荏田西５丁目１１番地２３,,14,117,2250014,,,,,,,2023-03-03,1,,,,,,0
2580,9021001078338,新規,0,2023-03-03,2023-03-03,市村ビジネス総研株式会社,,株式会社,神奈川県,大和市,中央林間３丁目２１番８号,,14,213,2420007,,,,,,,2023-03-03,1,,,,,イチムラビジネスソウケン,0
2581,9021001078354,新規,0,2023-03-03,2023-03-03,侑直株式会社,,株式会社,神奈川県,三浦市,初声町和田２９６４番地,,14,210,2380114,,,,,,,2023-03-03,1,,,,,ユウナオ,0
2592,9030001152639,新規,0,2023-03-03,2023-03-03,株式会社葉月総業,,株式会社,埼玉県,所沢市,小手指南５丁目２９番地の２０,,11,208,3591146,,,,,,,2023-03-03,1,,,,,ハヅキソウギョウ,0
2593,9030001152647,新規,0,2023-03-03,2023-03-03,株式会社一越商事,,株式会社,埼玉県,春日部市,大衾４０６－１２,,11,214,3440116,,,,,,,2023-03-03,1,,,,,イチコシショウジ,0
2594,9030001152671,新規,0,2023-03-03,2023-03-03,大鵬株式会社,,株式会社,埼玉県,川口市,西川口１丁目６番１号小野田ビル８０１号,,11,203,3320021,,,,,,,2023-03-03,1,,,,,オウホウ,0
2595,9030001152713,新規,0,2023-03-03,2023-03-03,株式会社ササキ・トランスポート・サービス,,株式会社,埼玉県,川口市,大字木曽呂４７８番地の６９,,11,203,3330831,,,,,,,2023-03-03,1,,,,,ササキトランスポートサービス,0
2596,9030001152721,新規,0,2023-03-03,2023-03-03,ＴＯＮＡＭＩ株式会社,,株式会社,埼玉県,上尾市,大字原市５４７番地１,,11,219,3620021,,,,,,,2023-03-03,1,,,,,トナミ,0
2601,9030003021305,新規,0,2023-03-03,2023-03-03,合同会社Ｋ・Ａ鈑金,,合同会社,埼玉県,蕨市,北町３丁目４番２２号カーサ・エスペランサ２０３号,,11,223,3350001,,,,,,,2023-03-03,1,,,,,ケイエイバンキン,0
2602,9030003021313,新規,0,2023-03-03,2023-03-03,合同会社Ｒｉｍｐａｃｔ,,合同会社,埼玉県,春日部市,栄町１丁目５４番地２,,11,214,3440058,,,,,,,2023-03-03,1,,,,,リンパクト,0
2604,9040001127318,新規,0,2023-03-03,2023-03-03,坂東工業株式会社,,株式会社,千葉県,市原市,平田１１５２番地入舟ハイツ１０１,,12,219,2900053,,,,,,,2023-03-03,1,,,,,バンドウコウギョウ,0
2605,9040001127342,新規,0,2023-03-03,2023-03-03,株式会社Ｓｕｎｎｙ　Ｈａｒｂｏｒ,,株式会社,千葉県,市川市,若宮３丁目２５番４号,,12,203,2720812,,,,,,,2023-03-03,1,,,,,サニーハーバー,0
2606,9040001127359,新規,0,2023-03-03,2023-03-03,株式会社グローバルエージェンシー,,株式会社,千葉県,鎌ケ谷市,東中沢２丁目５番２４－４号,,12,224,2730112,,,,,,,2023-03-03,1,,,,,グローバルエージェンシー,0
2609,9040003022112,新規,0,2023-03-03,2023-03-03,合同会社ＶＥＬ,,合同会社,千葉県,我孫子市,岡発戸６０１番地,,12,222,2701137,,,,,,,2023-03-03,1,,,,,ヴェル,0
2614,9050003007285,新規,0,2023-03-03,2023-03-03,合同会社ＰＤＬ,,合同会社,茨城県,土浦市,永国台２番地７８,,08,203,3000810,,,,,,,2023-03-03,1,,,,,ピーディーエル,0
2619,9070001040179,新規,0,2023-03-03,2023-03-03,アミクリーン株式会社,,株式会社,群馬県,邑楽郡明和町,下江黒２６５番地１,,10,522,3700703,,,,,,,2023-03-03,1,,,,,アミクリーン,0
2620,9080001025492,新規,0,2023-03-03,2023-03-03,株式会社Ｋ＆Ｋ　ＳＯＬＵＴＩＯＮＳ,,株式会社,静岡県,島田市,岸町６９０番地の１,,22,209,4270005,,,,,,,2023-03-03,1,,,,,ケーアンドケーソリューションズ,0
2623,9080401026355,新規,0,2023-03-03,2023-03-03,株式会社ケイメディカル,,株式会社,静岡県,磐田市,見付１７６３番地６,,22,211,4380086,,,,,,,2023-03-03,1,,,,,ケイメディカル,0
2625,9090001018009,新規,0,2023-03-03,2023-03-03,株式会社ＯＺ,,株式会社,山梨県,甲府市,上今井町１６２６番地１３,,19,201,4000845,,,,,,,2023-03-03,1,,,,,オズ,0
2631,9100001036198,新規,0,2023-03-03,2023-03-03,株式会社信陽工業,,株式会社,長野県,長野市,篠ノ井山布施５０８８番地１,,20,201,3888017,,,,,,,2023-03-03,1,,,,,シンヨウコウギョウ,0
2633,9110001037336,新規,0,2023-03-03,2023-03-03,株式会社りりぱっと,,株式会社,新潟県,三条市,東三条１丁目９番１２号,,15,204,9550047,,,,,,,2023-03-03,1,,,,,リリパット,0
2645,9120001252735,新規,0,2023-03-03,2023-03-03,株式会社Ｋｅｙｓ,,株式会社,大阪府,大阪市中央区,糸屋町１丁目２番３号恵ビル２Ｆ,,27,128,5400022,,,,,,,2023-03-03,1,,,,,キース,0
2648,9120003023548,新規,0,2023-03-03,2023-03-03,合同会社ヴィダロカ,,合同会社,大阪府,大阪市此花区,朝日２丁目１８－８,,27,104,5540011,,,,,,,2023-03-03,1,,,,,ヴィダロカ,0
2651,9120101067083,新規,0,2023-03-03,2023-03-03,株式会社Ａｌｌ,,株式会社,大阪府,堺市東区,菩提町５丁１９５番地１３,,27,143,5998103,,,,,,,2023-03-03,1,,,,,オール,0
2654,9120901047193,新規,0,2023-03-03,2023-03-03,株式会社なごみ,,株式会社,大阪府,豊中市,新千里西町３丁目９番３号,,27,203,5600083,,,,,,,2023-03-03,1,,,,,ナゴミ,0
2655,9120901047210,新規,0,2023-03-03,2023-03-03,イエス・アンド株式会社,,株式会社,大阪府,吹田市,原町２丁目２６番１－４０１号,,27,205,5640004,,,,,,,2023-03-03,1,,,,,イエスアンド,0
2660,9122001036746,新規,0,2023-03-03,2023-03-03,株式会社ミヤモリ,,株式会社,大阪府,八尾市,上尾町５丁目２５番地,,27,212,5810851,,,,,,,2023-03-03,1,,,,,ミヤモリ,0
2661,9130001073775,新規,0,2023-03-03,2023-03-03,株式会社ＳＸマーケティング,,株式会社,京都府,京都市右京区,西京極南大入町７２,,26,108,6150883,,,,,,,2023-03-03,1,,,,,エスエックスマーケティング,0
2662,9130001073783,新規,0,2023-03-03,2023-03-03,株式会社テクノ・ビルコン,,株式会社,京都府,京都市右京区,常盤古御所町６－１３,,26,108,6168214,,,,,,,2023-03-03,1,,,,,テクノビルコン,0
2663,9130003008556,新規,0,2023-03-03,2023-03-03,合同会社西川,,合同会社,京都府,京田辺市,田辺道場３番地,,26,211,6100331,,,,,,,2023-03-03,1,,,,,ニシカワ,0
2672,9140001129279,新規,0,2023-03-03,2023-03-03,株式会社Ｓ．Ｎ経営労務コンサルティング,,株式会社,兵庫県,神戸市東灘区,本山北町３丁目２番１７－２０１号,,28,101,6580003,,,,,,,2023-03-03,1,,,,,エスエヌケイエイロウムコンサルティング,0
2673,9140001129337,新規,0,2023-03-03,2023-03-03,大体なんでもします株式会社,,株式会社,兵庫県,神戸市兵庫区,湊町２丁目３－３０,,28,105,6520812,,,,,,,2023-03-03,1,,,,,ダイタイナンデモシマス,0
2674,9140001129361,新規,0,2023-03-03,2023-03-03,株式会社縁の樹,,株式会社,兵庫県,伊丹市,南鈴原３丁目１８１番地,,28,207,6640883,,,,,,,2023-03-03,1,,,,,エンノジュ,0
2675,9140002046399,新規,0,2023-03-03,2023-03-03,清水工業有限会社,,有限会社,兵庫県,美方郡香美町,香住区間室１７番地の１,,28,585,6696561,,,,,,,2023-03-03,1,,,,,,0
2676,9140003018793,新規,0,2023-03-03,2023-03-03,合同会社ブレス,,合同会社,兵庫県,西宮市,北口町１番２－９０９号,,28,204,6638035,,,,,,,2023-03-03,1,,,,,ブレス,0
2680,9160005011167,新規,0,2023-03-03,2023-03-03,一般財団法人近畿予防医学研究所財団,,その他の設立登記法人,滋賀県,大津市,湖城が丘１９番９号,,25,201,5200821,,,,,,,2023-03-03,1,,,,,キンキヨボウイガクケンキュウショザイダン,0
2693,9180001155156,新規,0,2023-03-03,2023-03-03,エムズホールディングス株式会社,,株式会社,愛知県,名古屋市港区,川間町２丁目１番地３,,23,111,4550076,,,,,,,2023-03-03,1,,,,,エムズホールディングス,0
2698,9180303005629,新規,0,2023-03-03,2023-03-03,合同会社ＧＡＯ,,合同会社,愛知県,岡崎市,細川町字上大針５５番地２２９,,23,202,4442149,,,,,,,2023-03-03,1,,,,,ジーエーオー,0
2705,9200001041007,新規,0,2023-03-03,2023-03-03,株式会社ＫＤＫ＆Ｃｏ．,,株式会社,岐阜県,揖斐郡大野町,大字西方１００９番地,,21,403,5010514,,,,,,,2023-03-03,1,,,,,ケイディーケイアンドコー,0
2706,9200001041015,新規,0,2023-03-03,2023-03-03,株式会社ウシニナル,,株式会社,岐阜県,可児市,広見１２３６番地１,,21,214,5090214,,,,,,,2023-03-03,1,,,,,ウシニナル,0
2707,9200001041023,新規,0,2023-03-03,2023-03-03,株式会社岐阜正貴,,株式会社,岐阜県,美濃市,松森２００番地,,21,207,5013753,,,,,,,2023-03-03,1,,,,,ギフセイキ,0
2717,9240003006037,新規,0,2023-03-03,2023-03-03,合同会社ｇｒｅｅｎ,,合同会社,広島県,福山市,向陽町１丁目５９番地２６３,,34,207,7200081,,,,,,,2023-03-03,1,,,,,グリーン,0
2718,9240005015531,新規,0,2023-03-03,2023-03-03,一般社団法人ヒロシマ・ミュージック・プロジェクト,,その他の設立登記法人,広島県,廿日市市,阿品台５丁目２番１３号,,34,213,7380053,,,,,,,2023-03-03,1,,,,,ヒロシマミュージックプロジェクト,0
2719,9250001019980,新規,0,2023-03-03,2023-03-03,まねき不動産株式会社,,株式会社,山口県,山口市,阿知須４３５２番地３－１０３号,,35,203,7541277,,,,,,,2023-03-03,1,,,,,マネキフドウサン,0
2720,9250001019997,新規,0,2023-03-03,2023-03-03,株式会社Ｌｏｇｎｉｔｅ,,株式会社,山口県,宇部市,南小串２丁目２番７－３０７号,,35,202,7550046,,,,,,,2023-03-03,1,,,,,ログナイト,0
2725,9270003001497,新規,0,2023-03-03,2023-03-03,合同会社ＣｏＣｏＬｏネット,,合同会社,鳥取県,鳥取市,浜坂３丁目１８番２４号,,31,201,6800001,,,,,,,2023-03-03,1,,,,,ココロネット,0
2726,9280003001703,新規,0,2023-03-03,2023-03-03,合同会社ＫＮＯＴ,,合同会社,島根県,大田市,温泉津町温泉津ロ１７６番地１,,32,205,6992501,,,,,,,2023-03-03,1,,,,,ノット,0
2728,9290001100679,新規,0,2023-03-03,2023-03-03,九州麦酒株式会社,,株式会社,福岡県,福岡市中央区,清川３丁目２１番１０号,,40,133,8100005,,,,,,,2023-03-03,1,,,,,キュウシュウビール,0
2729,9290001100737,新規,0,2023-03-03,2023-03-03,株式会社寿興業,,株式会社,福岡県,福岡市早良区,原６丁目９番１７－２０３号,,40,137,8140022,,,,,,,2023-03-03,1,,,,,コトブキコウギョウ,0
2730,9290001100761,新規,0,2023-03-03,2023-03-03,株式会社佐伯工務店,,株式会社,福岡県,糸島市,油比６０８番地１,,40,230,8191115,,,,,,,2023-03-03,1,,,,,サエキコウムテン,0
2733,9290003013607,新規,0,2023-03-03,2023-03-03,Ｙｕｚｕｒｉ合同会社,,合同会社,福岡県,福岡市博多区,博多駅前３丁目２７番２５号第二岡部ビル８階・９階,,40,132,8120011,,,,,,,2023-03-03,1,,,,,ユズリ,0
2734,9290003013615,新規,0,2023-03-03,2023-03-03,合同会社Ｄｉｖａ,,合同会社,福岡県,福岡市博多区,博多駅前１丁目２１番２０－１０１４号ロイヤル博多駅前,,40,132,8120011,,,,,,,2023-03-03,1,,,,,ディーヴァ,0
2735,9290005018967,新規,0,2023-03-03,2023-03-03,一般社団法人おおのじょうＭＯＮＯ創りＬａｂ,,その他の設立登記法人,福岡県,大野城市,南ケ丘１丁目１５番１１号,,40,219,8160964,,,,,,,2023-03-03,1,,,,,オオノジョウモノヅクリラボ,0
2739,9310001018290,新規,0,2023-03-03,2023-03-03,ＭＴＥホールディングス株式会社,,株式会社,長崎県,佐世保市,三川内新町８番地９,,42,202,8593153,,,,,,,2023-03-03,1,,,,,エムティーイーホールディングス,0
2741,9320001019593,新規,0,2023-03-03,2023-03-03,株式会社長森商会,,株式会社,大分県,臼杵市,大字吉小野６８８番地,,44,206,8750071,,,,,,,2023-03-03,1,,,,,ナガモリショウカイ,0
2743,9330001030649,新規,0,2023-03-03,2023-03-03,株式会社ミライズ,,株式会社,熊本県,菊池郡大津町,大字吹田１３０２番地７９,,43,403,8691218,,,,,,,2023-03-03,1,,,,,ミライズ,0
2744,9330005010622,新規,0,2023-03-03,2023-03-03,ＮＰＯ法人こどもあい,,その他の設立登記法人,熊本県,熊本市東区,広木町６番２０号Ｄ－ｒｏｏｍかわせみ１０１号,,43,102,8620906,,,,,,,2023-03-03,1,,,,,コドモアイ,0
2747,9340001025400,新規,0,2023-03-03,2023-03-03,株式会社五番街,,株式会社,鹿児島県,鹿児島市,松原町１０－２１－５０５号,,46,201,8920833,,,,,,,2023-03-03,1,,,,,ゴバンガイ,0
2748,9340003004063,新規,0,2023-03-03,2023-03-03,農業生産法人合同会社奄美ファーム,,合同会社,鹿児島県,奄美市,名瀬大熊町３１番地１６,,46,222,8940009,,,,,,,2023-03-03,1,,,,,ノウギョウセイサンホウジンアマミファーム,0
2749,9350001018213,新規,0,2023-03-03,2023-03-03,株式会社ＨＯＴ　ＤＯＧＳ,,株式会社,宮崎県,宮崎市,大島町馬場尻１８７８番地１,,45,201,8800824,,,,,,,2023-03-03,1,,,,,ホットドッグス,0
2752,9360001031636,新規,0,2023-03-03,2023-03-03,株式会社デジカル,,株式会社,沖縄県,国頭郡本部町,字豊原８１７番地２,,47,308,9050204,,,,,,,2023-03-03,1,,,,,デジカル,0
2754,9370001049669,新規,0,2023-03-03,2023-03-03,株式会社ハミングバード・ホスピタリティ,,株式会社,宮城県,仙台市青葉区,本町２丁目６番１６号,,04,101,9800014,,,,,,,2023-03-03,1,,,,,ハミングバードホスピタリティ,0
2755,9370003006016,新規,0,2023-03-03,2023-03-03,合同会社ティエム昇降機サービス,,合同会社,宮城県,仙台市若林区,若林６丁目６番６３号,,04,103,9840826,,,,,,,2023-03-03,1,,,,,ティエムショウコウキサービス,0
2761,9380001033523,新規,0,2023-03-03,2023-03-03,アクア建築設計事務所株式会社,,株式会社,福島県,伊達郡国見町,大字石母田字弁天沢４１番地５,,07,303,9691701,,,,,,,2023-03-03,1,,,,,アクアケンチクセッケイジムショ,0
2766,9400005008304,新規,0,2023-03-03,2023-03-03,一般社団法人虹パーク,,その他の設立登記法人,岩手県,一関市,花泉町花泉字狼沢１８番地１,,03,209,0293101,,,,,,,2023-03-03,1,,,,,ニジパーク,0
2776,9430001088545,新規,0,2023-03-03,2023-03-03,株式会社縁ＪＯＹ,,株式会社,北海道,札幌市北区,屯田六条７丁目５番３０－５０２号,,01,102,0020856,,,,,,,2023-03-03,1,,,,,エンジョイ,0
2779,9450003002304,新規,0,2023-03-03,2023-03-03,合同会社ｍｏｕｎｔａｉｎ　ｆｉｅｌｄ,,合同会社,北海道,旭川市,豊岡六条３丁目５－２４,,01,204,0788236,,,,,,,2023-03-03,1,,,,,,0
2783,9490001010412,新規,0,2023-03-03,2023-03-03,株式会社ＭＫ鉄工,,株式会社,高知県,高知市,南ノ丸町２６番地９,,39,201,7818016,,,,,,,2023-03-03,1,,,,,エムケーテッコウ,0
2784,9490003001748,新規,0,2023-03-03,2023-03-03,合同会社ＺＥＲＯ,,合同会社,高知県,安芸郡奈半利町,乙５２４７番地,,39,302,7816402,,,,,,,2023-03-03,1,,,,,ゼロ,0
2785,9500001024781,新規,0,2023-03-03,2023-03-03,株式会社アイコウ建設,,株式会社,愛媛県,松山市,森松町３１０番地１,,38,201,7911113,,,,,,,2023-03-03,1,,,,,アイコウケンセツ,0
2789,9700150114594,新規,0,2023-03-03,2023-03-03,Ｔ４Ｕ　ＴＥＣＨＮＯＬＯＧＹ　ＣＯＮＳＵＬＴＩＮＧ＆ＳＥＲＶＩＣＥ　ＬＩＭＩＴＥＤ　ＣＯＭＰＡＮＹ,,外国会社等,,,,,,,,１０４ｈａｏ　６ｚｈｕａｎｇ　ｍｅｉｄｉｘｉｎｃｕｎ　ｎａｎｙｕａｎｌｕ３６４ｈａｏ　ｂｅｉｊｉａｏｚｈｅｎ　ｓｈｕｎｄｅｑｕ　ｆｏｓｈａｎｓｈｉ　５２８３１１　ＣＮ,,,,,,2023-03-03,1,,,,,テイーフオーユーテクノロジーコンサルテイングアンドサービスリミテツドカンパニー,0
2790,9700150114603,新規,0,2023-03-03,2023-03-03,亜洲住宿有限公司,,外国会社等,東京都,新宿区,西新宿６丁目２５－１６－６０３号　ライオンズマンション西新宿,,13,104,1600023,中華人民共和国,,,,,,2023-03-03,1,,,,,アジアステイユウゲンコウシ,0
