sequenceNumber,corporateNumber,process,correct,updateDate,changeDate,name,nameImageId,kind,prefectureName,cityName,streetNumber,addressImageId,prefectureCode,cityCode,postCode,addressOutside,addressOutsideImageId,closeDate,closeCause,successorCorporateNumber,changeCause,assignmentDate,latest,enName,enPrefectureName,enCityName,enAddressOutside,furigana,hihyoji
17,1010005030511,登記記録の閉鎖等,0,2022-12-28,2022-12-22,一般社団法人運用１２号,,その他の設立登記法人,東京都,千代田区,飯田橋１丁目３番２号曙杉館４階清和コンサルティング株式会社内,,13,101,1020072,,,2022-12-22,清算の結了等,,,2019-07-25,1,,,,,ウンヨウジュウニゴウ,0
18,1010101003882,登記記録の閉鎖等,0,2022-12-28,2022-12-27,株式会社ムサシ堂,,株式会社,東京都,八王子市,横川町４４５番地６,,13,201,1930823,,,2022-12-27,清算の結了等,,,2015-10-05,1,,,,,ムサシドウ,0
42,1010703005681,登記記録の閉鎖等,0,2022-12-28,2022-12-23,合同会社Ｂｒａｉｎｄａｎｃｅ,,合同会社,東京都,品川区,豊町３丁目７－６メゾンドラペ１０３,,13,109,1420042,,,2022-12-23,清算の結了等,,,2021-03-24,1,,,,,ブレインダンス,0
46,1010801008818,登記記録の閉鎖等,0,2022-12-28,2022-12-21,南部自動車株式会社,,株式会社,東京都,大田区,田園調布５丁目１３番８号,,13,111,1450071,,,2022-12-21,清算の結了等,,,2015-10-05,1,,,,,ナンブジドウシャ,0
52,1011001032253,登記記録の閉鎖等,0,2022-12-28,2022-12-26,株式会社エナジー・フラッシュ,,株式会社,東京都,渋谷区,宇田川町１５－１渋谷パルコＢ１Ｆ,,13,113,1500042,,,2022-12-26,清算の結了等,,,2015-10-05,1,,,,,エナジーフラッシュ,0
63,1011105003084,登記記録の閉鎖等,0,2022-12-28,2022-12-23,特定非営利活動法人日本ゴールド倶楽部,,その他の設立登記法人,東京都,新宿区,西新宿１丁目２５番１号新宿センタービル３１階辻・本郷税理士法人内,00054139,13,104,1600023,,,2022-12-23,清算の結了等,,,2015-10-05,1,,,,,ニホンゴールドクラブ,0
67,1011302009181,登記記録の閉鎖等,0,2022-12-28,2022-12-22,有限会社村上工業所,,有限会社,東京都,杉並区,井草２丁目４番５号,,13,115,1670021,,,2022-12-22,清算の結了等,,,2015-10-05,1,,,,,ムラカミコウギョウショ,0
74,1011802013897,登記記録の閉鎖等,0,2022-12-28,2022-12-23,有限会社芝田食品,,有限会社,東京都,足立区,中央本町４丁目１３番１３号,,13,121,1210011,,,2022-12-23,清算の結了等,,,2015-10-05,1,,,,,シバタショクヒン,0
75,1012301006830,登記記録の閉鎖等,0,2022-12-28,2022-12-23,株式会社ロイヤルコーポレーション,,株式会社,東京都,町田市,本町田３６２１番地２、３０５,,13,209,1940032,,,2022-12-23,清算の結了等,,,2015-10-05,1,,,,,ロイヤルコーポレーション,0
91,1020002067943,登記記録の閉鎖等,0,2022-12-28,2022-12-26,有限会社エヌティーシステム,,有限会社,神奈川県,横浜市緑区,寺山町６１８番地３ライフヒルズ中山３０３号,,14,113,2260013,,,2022-12-26,清算の結了等,,,2015-10-05,1,,,,,エヌティーシステム,0
102,1040001041518,登記記録の閉鎖等,0,2022-12-28,2022-12-26,株式会社Ｊ－ＴＲＥＮＤ,,株式会社,千葉県,松戸市,新松戸３丁目３５６第２パールハイツＡ２０３号室,,12,207,2700034,,,2022-12-26,清算の結了等,,,2015-10-05,1,,,,,,0
110,1060002033891,登記記録の閉鎖等,0,2022-12-28,2022-12-23,有限会社山井製作所,,有限会社,栃木県,栃木市,都賀町平川１６１番地１,,09,203,3280112,,,2022-12-23,清算の結了等,,,2015-10-05,1,,,,,ヤマイセイサクジョ,0
114,1080102021679,登記記録の閉鎖等,0,2022-12-28,2022-12-26,有限会社川崎水産,,有限会社,静岡県,賀茂郡松崎町,松崎４５３番地,,22,305,4103611,,,2022-12-26,清算の結了等,,,2015-10-05,1,,,,,カワサキスイサン,0
117,1100001005318,登記記録の閉鎖等,0,2022-12-28,2022-12-23,株式会社彰建舎,,株式会社,長野県,長野市,西和田１丁目１６番２２号,,20,201,3810037,,,2022-12-23,清算の結了等,,,2015-10-05,1,,,,,,0
118,1110001007940,登記記録の閉鎖等,0,2022-12-28,2022-12-22,新潟エヌ・デー・ケー株式会社,,株式会社,新潟県,新潟市西蒲区,川崎２５１番地１,,15,108,9590432,,,2022-12-22,清算の結了等,,,2015-10-05,1,,,,,ニイガタエヌデーケー,0
121,1120001120239,登記記録の閉鎖等,0,2022-12-28,2022-12-23,株式会社ケイエヌコーポレーション,,株式会社,大阪府,大阪市淀川区,加島２丁目４番７号,,27,123,5320031,,,2022-12-23,清算の結了等,,,2015-10-05,1,,,,,ケイエヌコーポレーション,0
123,1120001191486,登記記録の閉鎖等,0,2022-12-28,2022-12-26,Ｇｏｏｄ　ｈｏｍｅ　ｄｅｓｉｇｎ株式会社,,株式会社,大阪府,大阪市旭区,高殿４丁目１９番１５号,,27,117,5350031,,,2022-12-26,清算の結了等,,,2015-10-05,1,,,,,,0
148,1140001026335,登記記録の閉鎖等,0,2022-12-28,2022-12-23,株式会社マツモト,,株式会社,兵庫県,神戸市灘区,六甲町５丁目５番１号,,28,102,6570053,,,2022-12-23,清算の結了等,,,2015-10-05,1,,,,,マツモト,0
157,1140005023428,登記記録の閉鎖等,0,2022-12-28,2022-12-16,特定非営利活動法人日本アラブ相互文化センター,,その他の設立登記法人,兵庫県,三木市,別所町下石野１１０８番地の３４,,28,215,6730453,,,2022-12-16,清算の結了等,,,2017-03-13,1,,,,,,0
159,1150001006583,登記記録の閉鎖等,0,2022-12-28,2022-12-26,株式会社タニイチ,,株式会社,奈良県,天理市,西長柄町６７８番地,,29,204,6320063,,,2022-12-26,清算の結了等,,,2015-10-05,1,,,,,タニイチ,0
160,1150001016681,登記記録の閉鎖等,0,2022-12-28,2022-12-23,株式会社箸尾井上新聞舗,00043104,株式会社,奈良県,北葛城郡広陵町,大字萱野６５２番地,,29,426,6350805,,,2022-12-23,清算の結了等,,,2015-10-05,1,,,,,ハシオイノウエシンブンホ,0
173,1180002049174,登記記録の閉鎖等,0,2022-12-28,2022-12-23,有限会社エフォートヨシダ,,有限会社,愛知県,名古屋市名東区,猪高台２丁目２３３番地,,23,115,4650028,,,2022-12-23,清算の結了等,,,2015-10-05,1,,,,,エフォートヨシダ,0
181,1210005009980,登記記録の閉鎖等,0,2022-12-28,2022-12-26,一般社団法人ありのままに生きる学校,,その他の設立登記法人,福井県,坂井市,春江町井向第１４号５５番地,,18,210,9190403,,,2022-12-26,清算の結了等,,,2021-08-16,1,,,,,アリノママニイキルガッコウ,0
194,1260002004278,登記記録の閉鎖等,0,2022-12-28,2022-12-27,有限会社栄木工,,有限会社,岡山県,岡山市南区,藤田２０２０番地の７,,33,104,7010221,,,2022-12-27,清算の結了等,,,2015-10-05,1,,,,,サカエモッコウ,0
196,1280002000630,登記記録の閉鎖等,0,2022-12-28,2022-12-26,有限会社貴賓室,,有限会社,島根県,松江市,嫁島町１１番９号,,32,201,6900047,,,2022-12-26,清算の結了等,,,2015-10-05,1,,,,,キヒンシツ,0
202,1300002011311,登記記録の閉鎖等,0,2022-12-28,2022-12-22,大和綜合建設株式会社,,株式会社,福岡県,福岡市中央区,薬院１丁目１２－１９ロマネスク薬院第二２０３号,,40,133,8100022,,,2022-12-22,清算の結了等,,,2015-10-05,1,,,,,ヤマトソウゴウケンセツ,0
203,1310001013712,登記記録の閉鎖等,0,2022-12-28,2022-12-26,長崎ホスピタリティ株式会社,,株式会社,長崎県,長崎市,五島町５番３５号,,42,201,8500036,,,2022-12-26,清算の結了等,,,2015-10-05,1,,,,,ナガサキホスピタリティ,0
207,1330002021778,登記記録の閉鎖等,0,2022-12-28,2022-12-23,有限会社坂田茗香園,,有限会社,熊本県,荒尾市,大正町１丁目２番２２号,,43,204,8640054,,,2022-12-23,清算の結了等,,,2015-10-05,1,,,,,サカタメイコウエン,0
211,1350001000896,登記記録の閉鎖等,0,2022-12-28,2022-12-27,株式会社セービック九州,,株式会社,宮崎県,宮崎市,鶴島３丁目４３番地１,,45,201,8800014,,,2022-12-27,清算の結了等,,,2015-10-05,1,,,,,セービックキュウシュウ,0
220,1370402002184,登記記録の閉鎖等,0,2022-12-28,2022-12-22,有限会社みうらクリーニング,,有限会社,宮城県,登米市,迫町佐沼字梅ノ木４丁目１番地の８,,04,212,9870511,,,2022-12-22,清算の結了等,,,2015-10-05,1,,,,,ミウラクリーニング,0
222,1380002003730,登記記録の閉鎖等,0,2022-12-28,2022-12-23,有限会社森共,,有限会社,福島県,福島市,飯坂町字湯沢１５番地,,07,201,9600201,,,2022-12-23,清算の結了等,,,2015-10-05,1,,,,,モリキョウ,0
223,1380002013366,登記記録の閉鎖等,0,2022-12-28,2022-12-22,有限会社クサカベ企画,,有限会社,福島県,郡山市,大槻町字御花畑２５番地の１２,,07,203,9630201,,,2022-12-22,清算の結了等,,,2015-10-05,1,,,,,クサカベキカク,0
238,1460302000023,登記記録の閉鎖等,0,2022-12-28,2022-12-27,有限会社アイビーワークス,,有限会社,北海道,北見市,東陵町１６７番地２５,,01,208,0900061,,,2022-12-27,清算の結了等,,,2015-10-05,1,,,,,アイビーワークス,0
243,2010001087182,登記記録の閉鎖等,0,2022-12-28,2022-12-23,ＳＭＢＣローンビジネス・プランニング株式会社,,株式会社,東京都,千代田区,丸の内１丁目３番２号,,13,101,1000005,,,2022-12-23,清算の結了等,,,2015-10-05,1,,,,,エスエムビーシーローンビジネスプランニング,0
249,2010001190250,登記記録の閉鎖等,0,2022-12-28,2022-12-20,株式会社ファクタートレーディング,,株式会社,東京都,千代田区,神田鍛冶町３丁目３番地１栄立ビル５階,,13,101,1010045,,,2022-12-20,清算の結了等,,,2018-03-13,1,,,,,ファクタートレーディング,0
250,2010001200190,登記記録の閉鎖等,0,2022-12-28,2022-12-22,Ｃｌｏｅ株式会社,,株式会社,東京都,中央区,日本橋浜町２丁目１８番地５号,,13,102,1030007,,,2022-12-22,清算の結了等,,,2019-04-22,1,,,,,クロエ,0
258,2010401134749,登記記録の閉鎖等,0,2022-12-28,2022-12-16,株式会社感謝,,株式会社,東京都,港区,六本木５丁目１８番１９－４０８号,,13,103,1060032,,,2022-12-16,清算の結了等,,,2017-11-01,1,,,,,カンシャ,0
277,2010901012553,登記記録の閉鎖等,0,2022-12-28,2022-12-23,株式会社夜詩江,,株式会社,東京都,世田谷区,太子堂２丁目１４番１６－１０３号,,13,112,1540004,,,2022-12-23,清算の結了等,,,2015-10-05,1,,,,,ヨシエ,0
294,2012402003362,登記記録の閉鎖等,0,2022-12-28,2022-12-20,有限会社桂,,有限会社,東京都,国分寺市,東恋ヶ窪３丁目２０番地１１ライオンズガーデン国分寺３０６,,13,214,1850014,,,2022-12-20,清算の結了等,,,2015-10-05,1,,,,,カツラ,0
347,2080402013557,登記記録の閉鎖等,0,2022-12-28,2022-12-26,有限会社天賀,,有限会社,静岡県,浜松市西区,和地町１８２４番地,,22,133,4311115,,,2022-12-26,清算の結了等,,,2015-10-05,1,,,,,テンガ,0
349,2090001002489,登記記録の閉鎖等,0,2022-12-28,2022-12-23,株式会社旅行企画センター,,株式会社,山梨県,甲府市,城東２丁目２２番５号ＮＩＣＥＵＲＢＡＮ甲府中央２０４,,19,201,4000861,,,2022-12-23,清算の結了等,,,2015-10-05,1,,,,,リョコウキカクセンター,0
377,2120002043685,登記記録の閉鎖等,0,2022-12-28,2022-12-27,大森経理有限会社,,有限会社,大阪府,大阪市中央区,北久宝寺町１丁目５番６号,,27,128,5410057,,,2022-12-27,清算の結了等,,,2015-10-05,1,,,,,,0
385,2130001011171,登記記録の閉鎖等,0,2022-12-28,2022-12-21,仲和繊維株式会社,,株式会社,京都府,京田辺市,田辺南里３８番地の５１,,26,211,6100331,,,2022-12-21,清算の結了等,,,2015-10-05,1,,,,,ナカカズセンイ,0
388,2140001083961,登記記録の閉鎖等,0,2022-12-28,2022-12-26,株式会社ウェイブ,,株式会社,大阪府,八尾市,若草町２番２－８０４号,,27,212,5810011,,,2022-12-26,清算の結了等,,,2015-10-05,1,,,,,ウェイブ,0
393,2140002019733,登記記録の閉鎖等,0,2022-12-28,2022-12-23,有限会社和建ホーム住宅販売,,有限会社,兵庫県,神戸市須磨区,道正台１丁目１番３－７０９号,,28,107,6540122,,,2022-12-23,清算の結了等,,,2015-10-05,1,,,,,ワケンホームジュウタクハンバイ,0
407,2180002068644,登記記録の閉鎖等,0,2022-12-28,2022-12-21,有限会社エム・イー・スクール,,有限会社,愛知県,小牧市,小木５丁目４０８番地,,23,219,4850058,,,2022-12-21,清算の結了等,,,2015-10-05,1,,,,,エムイースクール,0
412,2190001012610,登記記録の閉鎖等,0,2022-12-28,2022-12-27,株式会社水谷組,,株式会社,三重県,桑名市,大字矢田４８７番地の３,,24,205,5110821,,,2022-12-27,清算の結了等,,,2015-10-05,1,,,,,,0
413,2200001004969,登記記録の閉鎖等,0,2022-12-28,2022-12-26,株式会社丸金モータース,,株式会社,岐阜県,岐阜市,岩栄町１丁目３１番地,,21,201,5008134,,,2022-12-26,清算の結了等,,,2015-10-05,1,,,,,マルキンモータース,0
417,2210002014280,登記記録の閉鎖等,0,2022-12-28,2022-12-27,有限会社ユニキャスト,,有限会社,福井県,小浜市,松ヶ崎１丁目３番３１号,,18,204,9170018,,,2022-12-27,清算の結了等,,,2015-10-05,1,,,,,ユニキャスト,0
419,2240002031298,登記記録の閉鎖等,0,2022-12-28,2022-12-26,有限会社渡辺木工所,,有限会社,広島県,三次市,甲奴町本郷５１１番地,,34,209,7294101,,,2022-12-26,清算の結了等,,,2015-10-05,1,,,,,ワタナベモッコウショ,0
422,2260003001406,登記記録の閉鎖等,0,2022-12-28,2022-12-28,Ｔｒ技工岡山合同会社,,合同会社,岡山県,岡山市北区,東古松４丁目６番３号,,33,101,7000921,,,2022-12-28,清算の結了等,,,2015-10-05,1,,,,,ティーアールギコウオカヤマ,0
433,2300002001526,登記記録の閉鎖等,0,2022-12-28,2022-12-26,有限会社ムラタ車体,,有限会社,佐賀県,佐賀市,木原３丁目１２番５号,,41,201,8400015,,,2022-12-26,清算の結了等,,,2015-10-05,1,,,,,ムラタシャタイ,0
434,2300002006896,登記記録の閉鎖等,0,2022-12-28,2022-12-26,有限会社丸建重機建設,,有限会社,佐賀県,鹿島市,古枝乙１７３１番地１,,41,207,8491321,,,2022-12-26,清算の結了等,,,2015-10-05,1,,,,,マルケンジュウキケンセツ,0
437,2310002000254,登記記録の閉鎖等,0,2022-12-28,2022-12-27,有限会社ありあけ,,有限会社,長崎県,長崎市,界２丁目４番８号,,42,201,8510122,,,2022-12-27,清算の結了等,,,2015-10-05,1,,,,,アリアケ,0
462,2380001025980,登記記録の閉鎖等,0,2022-12-28,2022-12-23,株式会社一粒舎,,株式会社,福島県,郡山市,富久山町久保田字乙高７２番５,,07,203,9638071,,,2022-12-23,清算の結了等,,,2015-10-05,1,,,,,イチリュウシャ,0
471,2410002013527,登記記録の閉鎖等,0,2022-12-28,2022-12-26,有限会社横井工業,,有限会社,秋田県,横手市,大雄字下新処１３８番地,,05,203,0130485,,,2022-12-26,清算の結了等,,,2015-10-05,1,,,,,ヨコイコウギョウ,0
482,2470001007986,登記記録の閉鎖等,0,2022-12-28,2022-12-26,株式会社エィシーシー,,株式会社,香川県,善通寺市,善通寺町２０６９番地１９,,37,204,7650004,,,2022-12-26,清算の結了等,,,2015-10-05,1,,,,,エィシーシー,0
484,2470005005128,登記記録の閉鎖等,0,2022-12-28,2022-12-27,医療法人社団喜田医院,,その他の設立登記法人,香川県,高松市,高松町２５００番地５,,37,201,7610104,,,2022-12-27,清算の結了等,,,2015-10-05,1,,,,,キタイイン,0
488,2500002020051,登記記録の閉鎖等,0,2022-12-28,2022-12-26,金福海運有限会社,,有限会社,愛媛県,今治市,伯方町北浦甲２８８番地の１０,,38,202,7942304,,,2022-12-26,清算の結了等,,,2015-10-05,1,,,,,カネフクカイウン,0
505,3010003024406,登記記録の閉鎖等,0,2022-12-28,2022-12-22,合同会社パペルイムジカ,,合同会社,東京都,中央区,銀座６丁目１３番１６号銀座ＷａｌｌビルＵＣＦ５階,,13,102,1040061,,,2022-12-22,清算の結了等,,,2016-11-21,1,,,,,パペルイムジカ,0
530,3010603008766,登記記録の閉鎖等,0,2022-12-28,2022-12-23,ワンダーベース合同会社,,合同会社,東京都,墨田区,千歳１丁目１番１－４０３号,,13,107,1300025,,,2022-12-23,清算の結了等,,,2021-02-12,1,,,,,ワンダーベース,0
545,3011101038850,登記記録の閉鎖等,0,2022-12-28,2022-12-16,株式会社フル・グループ,,株式会社,東京都,渋谷区,初台１丁目４９番２－１３０３号,,13,113,1510061,,,2022-12-16,合併による解散等,4011101049673,令和４年１２月１５日東京都渋谷区初台一丁目４９番２－１３０３号株式会社エフエスジー（4011101049673）に合併し解散,2015-10-05,1,,,,,フルグループ,0
551,3011402007843,登記記録の閉鎖等,0,2022-12-28,2022-12-26,有限会社ブラツクボツクス,,有限会社,東京都,板橋区,大山金井町４３番８号,,13,119,1730024,,,2022-12-26,清算の結了等,,,2015-10-05,1,,,,,ブラツクボツクス,0
554,3011701020919,登記記録の閉鎖等,0,2022-12-28,2022-12-14,株式会社エフドアーズ,,株式会社,東京都,港区,海岸１丁目２番３号１０４号室,,13,103,1050022,,,2022-12-14,合併による解散等,1010401085745,令和４年１２月１日東京都港区海岸一丁目２番３号－１０４株式会社カスケード東京（1010401085745）に合併し解散,2017-06-09,1,,,,,エフドアーズ,0
555,3011701021256,登記記録の閉鎖等,0,2022-12-28,2022-12-22,株式会社翔輝ＥＸＰＲＥＳＳ,,株式会社,東京都,江戸川区,南葛西１丁目１－２－２０５,,13,123,1340085,,,2022-12-22,清算の結了等,,,2017-10-16,1,,,,,ショウキエクスプレス,0
562,3012402018905,登記記録の閉鎖等,0,2022-12-28,2022-12-23,有限会社サムメディカル,,有限会社,東京都,三鷹市,上連雀４丁目１番１１号,,13,204,1810012,,,2022-12-23,清算の結了等,,,2015-10-05,1,,,,,サムメディカル,0
568,3013305000347,登記記録の閉鎖等,0,2022-12-28,2022-12-19,医療法人社団高仁会,00060150,その他の設立登記法人,東京都,豊島区,東池袋５丁目２７番８号,,13,116,1700013,,,2022-12-19,清算の結了等,,,2015-10-05,1,,,,,コウジンカイ,0
579,3021001059839,登記記録の閉鎖等,0,2022-12-28,2022-12-26,長京株式会社,,株式会社,埼玉県,川口市,西川口３丁目１４番１４－４０６号フドウ西川口ハイツ,,11,203,3320021,,,2022-12-26,清算の結了等,,,2016-07-20,1,,,,,チョウキョウ,0
600,3070001029327,登記記録の閉鎖等,0,2022-12-28,2022-12-20,株式会社Ｔ＆Ｓ,,株式会社,群馬県,太田市,新道町１２５３番地５,,10,205,3730037,,,2022-12-20,清算の結了等,,,2015-10-05,1,,,,,ティーアンドエス,0
611,3110001014209,登記記録の閉鎖等,0,2022-12-28,2022-12-23,株式会社サン・ミール,,株式会社,新潟県,三条市,西大崎２丁目２０番１５号,,15,204,9550033,,,2022-12-23,清算の結了等,,,2015-10-05,1,,,,,サンミール,0
613,3110001032656,登記記録の閉鎖等,0,2022-12-28,2022-12-26,株式会社ＡＢＣみずきの,,株式会社,新潟県,新潟市西区,みずき野６丁目８番１号,,15,107,9502264,,,2022-12-26,清算の結了等,,,2017-08-22,1,,,,,エービーシーミズキノ,0
614,3120001011072,登記記録の閉鎖等,0,2022-12-28,2022-12-26,株式会社丸善,,株式会社,大阪府,大阪市東住吉区,今川５丁目５番１５号,,27,121,5460003,,,2022-12-26,清算の結了等,,,2015-10-05,1,,,,,マルゼン,0
635,3130001023389,登記記録の閉鎖等,0,2022-12-28,2022-12-23,株式会社京都マリンサービス,,株式会社,京都府,京都市中京区,烏丸通二条上る蒔絵屋町２６３番地京栄烏丸ビル,,26,104,6040857,,,2022-12-23,清算の結了等,,,2015-10-05,1,,,,,キョウトマリンサービス,0
658,3180001020448,登記記録の閉鎖等,0,2022-12-28,2022-12-22,株式会社名古屋磨鋼製作所,,株式会社,愛知県,名古屋市中川区,西日置２丁目２０番１４号,,23,110,4540004,,,2022-12-22,清算の結了等,,,2015-10-05,1,,,,,ナゴヤマコウセイサクショ,0
662,3180001129314,登記記録の閉鎖等,0,2022-12-28,2022-12-23,株式会社タクワ,,株式会社,愛知県,愛知郡東郷町,大字春木字弥計５３１番地,,23,302,4700162,,,2022-12-23,清算の結了等,,,2017-09-12,1,,,,,タクワ,0
669,3180002073288,登記記録の閉鎖等,0,2022-12-28,2022-12-21,有限会社ネオ・ドリーム,,有限会社,愛知県,瀬戸市,菱野町７３番地,,23,204,4890934,,,2022-12-21,清算の結了等,,,2015-10-05,1,,,,,ネオドリーム,0
670,3180003022558,登記記録の閉鎖等,0,2022-12-28,2022-12-23,合同会社ステップワン,,合同会社,愛知県,一宮市,大和町苅安賀字北川田１１８８番地アルカンシェルＴＤ２０２号,,23,203,4910934,,,2022-12-23,清算の結了等,,,2021-05-31,1,,,,,ステップワン,0
671,3210001008497,登記記録の閉鎖等,0,2022-12-28,2022-12-27,株式会社成建,,株式会社,福井県,福井市,高木中央２丁目１６０２番地,,18,201,9100804,,,2022-12-27,清算の結了等,,,2015-10-05,1,,,,,セイケン,0
677,3250002002867,登記記録の閉鎖等,0,2022-12-28,2022-12-26,有限会社浦戸海運,,有限会社,山口県,防府市,大字新田１９０２番地,,35,206,7470825,,,2022-12-26,清算の結了等,,,2015-10-05,1,,,,,,0
708,3380005010318,登記記録の閉鎖等,0,2022-12-28,2022-12-22,特定非営利活動法人役立ちや,,その他の設立登記法人,福島県,郡山市,安積荒井３丁目３７２番地,,07,203,9630117,,,2022-12-22,清算の結了等,,,2015-10-05,1,,,,,ヤクタチヤ,0
711,3410001010870,登記記録の閉鎖等,0,2022-12-28,2022-12-26,株式会社ＡＰＡ　ＨＯＵＳＥ,,株式会社,秋田県,大館市,字代野２１２番地３,,05,204,0170035,,,2022-12-26,清算の結了等,,,2015-10-05,1,,,,,,0
740,4010005029468,登記記録の閉鎖等,0,2022-12-28,2022-12-26,一般社団法人ＫＲＦ８０,,その他の設立登記法人,東京都,千代田区,内幸町２丁目１番６号,,13,101,1000011,,,2022-12-26,清算の結了等,,,2018-12-10,1,,,,,ケイアールエフエイティ,0
761,4010502014427,登記記録の閉鎖等,0,2022-12-28,2022-12-26,有限会社コスモシステム,,有限会社,東京都,台東区,竜泉１丁目１８番９－７０２号,,13,106,1100012,,,2022-12-26,清算の結了等,,,2015-10-05,1,,,,,コスモシステム,0
764,4010701033475,登記記録の閉鎖等,0,2022-12-28,2022-12-22,サイトリミック株式会社,,株式会社,東京都,千代田区,神田鍛冶町３丁目４番地,,13,101,1010045,,,2022-12-22,清算の結了等,,,2016-12-19,1,,,,,サイトリミック,0
770,4011001114718,登記記録の閉鎖等,0,2022-12-28,2022-12-12,株式会社ボルテージＶＲ,,株式会社,東京都,渋谷区,恵比寿４丁目２０番３号恵比寿ガーデンプレイスタワー,,13,113,1500013,,,2022-12-12,清算の結了等,,,2017-02-07,1,,,,,ボルテージヴイアール,0
783,4011101093523,登記記録の閉鎖等,0,2022-12-28,2022-12-21,株式会社フェレス,,株式会社,東京都,新宿区,西新宿８丁目３番１号西新宿ＧＦビル１Ｆ,,13,104,1600023,,,2022-12-21,清算の結了等,,,2020-12-18,1,,,,,フェレス,0
791,4011401018964,登記記録の閉鎖等,0,2022-12-28,2022-12-27,株式会社ワンワールド,,株式会社,東京都,板橋区,高島平３丁目１０番１号,,13,119,1750082,,,2022-12-27,清算の結了等,,,2015-10-16,1,,,,,ワンワールド,0
797,4011703002674,登記記録の閉鎖等,0,2022-12-28,2022-12-22,Ｎａｓｃｅｒｅ合同会社,,合同会社,東京都,江戸川区,松島４丁目３８番１９－５０１号,,13,123,1320031,,,2022-12-22,清算の結了等,,,2020-10-16,1,,,,,ナーシェレ,0
798,4011801010975,登記記録の閉鎖等,0,2022-12-28,2022-12-26,日新機械興業株式会社,,株式会社,東京都,足立区,綾瀬４丁目８番１４－６０５号,,13,121,1200005,,,2022-12-26,清算の結了等,,,2015-10-05,1,,,,,ニッシンキカイコウギョウ,0
801,4012301007066,登記記録の閉鎖等,0,2022-12-28,2022-12-21,田中建設工業株式会社,,株式会社,東京都,町田市,南成瀬４丁目８番地１５,,13,209,1940045,,,2022-12-21,清算の結了等,,,2015-10-05,1,,,,,タナカケンセツコウギョウ,0
803,4012402021239,登記記録の閉鎖等,0,2022-12-28,2022-12-23,有限会社加藤商店,,有限会社,東京都,武蔵野市,吉祥寺南町４丁目４番７号,,13,203,1800003,,,2022-12-23,清算の結了等,,,2015-10-05,1,,,,,カトウショウテン,0
809,4013301041427,登記記録の閉鎖等,0,2022-12-28,2022-12-23,株式会社ファーストコンタクトサービス,,株式会社,東京都,豊島区,東池袋１丁目１０番１号,,13,116,1700013,,,2022-12-23,清算の結了等,,,2017-11-24,1,,,,,ファーストコンタクトサービス,0
814,4020001071225,登記記録の閉鎖等,0,2022-12-28,2022-12-23,株式会社ティ・ケイ・コーポレーション,,株式会社,神奈川県,川崎市幸区,南加瀬５丁目５番３０号,,14,132,2120055,,,2022-12-23,清算の結了等,,,2015-10-05,1,,,,,ティケイコーポレーション,0
822,4020003007664,登記記録の閉鎖等,0,2022-12-28,2022-12-23,三恵テクニクス合同会社,,合同会社,神奈川県,横浜市神奈川区,白幡西町７番６号,,14,102,2210074,,,2022-12-23,清算の結了等,,,2015-10-05,1,,,,,サンケイテクニクス,0
827,4021001006476,登記記録の閉鎖等,0,2022-12-28,2022-12-23,マルトミ物産株式会社,,株式会社,神奈川県,高座郡寒川町,一之宮３丁目３０番１９号,,14,321,2530111,,,2022-12-23,清算の結了等,,,2015-10-05,1,,,,,マルトミブッサン,0
831,4030001001809,登記記録の閉鎖等,0,2022-12-28,2022-12-26,株式会社加藤土地建物,,株式会社,埼玉県,さいたま市浦和区,本太４丁目１３番２号,,11,107,3300052,,,2022-12-26,清算の結了等,,,2015-10-05,1,,,,,カトウトチタテモノ,0
850,4060001006276,登記記録の閉鎖等,0,2022-12-28,2022-12-21,株式会社ベル・エポック,,株式会社,栃木県,宇都宮市,城東２丁目４番６号,,09,201,3210935,,,2022-12-21,清算の結了等,,,2015-10-05,1,,,,,ベルエポック,0
908,4140002055652,登記記録の閉鎖等,0,2022-12-28,2022-12-21,有限会社イトウ・システム・サービス,,有限会社,兵庫県,西宮市,高木西町１８番１３号,,28,204,6638032,,,2022-12-21,清算の結了等,,,2015-10-05,1,,,,,イトウシステムサービス,0
913,4140003011951,登記記録の閉鎖等,0,2022-12-28,2022-12-22,マジェスティジャパン合同会社,,合同会社,兵庫県,三木市,岩宮１３４番地の１,,28,215,6730412,,,2022-12-22,清算の結了等,,,2017-02-27,1,,,,,マジェスティジャパン,0
914,4140003014797,登記記録の閉鎖等,0,2022-12-28,2022-12-23,合同会社ＮＡＮＡ,,合同会社,兵庫県,西宮市,鳴尾町５丁目７番１２号,,28,204,6638184,,,2022-12-23,清算の結了等,,,2020-03-13,1,,,,,ナナ,0
918,4180002051937,登記記録の閉鎖等,0,2022-12-28,2022-12-22,株式会社大栄,,株式会社,愛知県,北名古屋市,鹿田１７５１番地の２,,23,234,4810004,,,2022-12-22,清算の結了等,,,2015-10-05,1,,,,,ダイエイ,0
923,4180003013663,登記記録の閉鎖等,0,2022-12-28,2022-12-23,今枝株式会社,,株式会社,愛知県,弥富市,鯏浦町下本田９１番地,,23,235,4980021,,,2022-12-23,清算の結了等,,,2015-10-05,1,,,,,イマエダ,0
924,4190001026732,登記記録の閉鎖等,0,2022-12-28,2022-12-26,株式会社ユーケーフーズ,,株式会社,三重県,名張市,希央台１番町７番地,,24,208,5180771,,,2022-12-26,清算の結了等,,,2019-09-11,1,,,,,ユーケーフーズ,0
925,4190002008382,登記記録の閉鎖等,0,2022-12-28,2022-12-26,有限会社エイプリル,,有限会社,三重県,伊勢市,河崎１丁目５番４５号,,24,203,5160009,,,2022-12-26,清算の結了等,,,2015-10-05,1,,,,,エイプリル,0
929,4200002013604,登記記録の閉鎖等,0,2022-12-28,2022-12-26,服部石材有限会社,,有限会社,岐阜県,岐阜市,西鶉６丁目９番地２,,21,201,5008286,,,2022-12-26,清算の結了等,,,2015-10-05,1,,,,,ハットリセキザイ,0
936,4240002020068,登記記録の閉鎖等,0,2022-12-28,2022-12-26,有限会社エフ・リバー設備,,有限会社,広島県,広島市佐伯区,美鈴が丘東４丁目１３番１８号,,34,108,7315111,,,2022-12-26,清算の結了等,,,2015-10-05,1,,,,,エフリバーセツビ,0
938,4260005008050,登記記録の閉鎖等,0,2022-12-28,2022-12-28,社会福祉法人浜っ子,,その他の設立登記法人,岡山県,備前市,日生町日生８０３番地の１,,33,211,7013204,,,2022-12-28,清算の結了等,,,2015-10-05,1,,,,,ハマッコ,0
942,4290001063501,登記記録の閉鎖等,0,2022-12-28,2022-12-22,株式会社プレシアス,,株式会社,福岡県,福岡市南区,老司２丁目２７番１７号,,40,134,8111346,,,2022-12-22,清算の結了等,,,2015-10-05,1,,,,,プレシアス,0
961,4310002014054,登記記録の閉鎖等,0,2022-12-28,2022-12-27,有限会社二股商会,,有限会社,長崎県,西海市,西彼町喰場郷９１番地２,,42,212,8513305,,,2022-12-27,清算の結了等,,,2015-10-05,1,,,,,フタマタショウカイ,0
962,4320005002451,登記記録の閉鎖等,0,2022-12-28,2022-12-26,特定非営利活動法人豊の国商人塾,,その他の設立登記法人,大分県,大分市,金池町３丁目１番６４号,,44,201,8700026,,,2022-12-26,清算の結了等,,,2015-10-05,1,,,,,トヨノクニショウニンジュク,0
980,4380001019031,登記記録の閉鎖等,0,2022-12-28,2022-12-26,ゼネラルホスピタリティー株式会社,,株式会社,福島県,会津若松市,インター西９８,,07,202,9650059,,,2022-12-26,清算の結了等,,,2015-10-05,1,,,,,ゼネラルホスピタリティー,0
981,4380001029716,登記記録の閉鎖等,0,2022-12-28,2022-12-23,株式会社Ｒｉｂｒｅ,,株式会社,福島県,郡山市,字名倉１６５番地,,07,203,9638845,,,2022-12-23,清算の結了等,,,2019-01-21,1,,,,,リーブル,0
989,4430001078047,登記記録の閉鎖等,0,2022-12-28,2022-12-26,株式会社華聯資源,,株式会社,北海道,札幌市中央区,大通西２１丁目３番１号,,01,101,0640820,,,2022-12-26,清算の結了等,,,2019-01-08,1,,,,,ファーレンシゲン,0
995,4430005002052,登記記録の閉鎖等,0,2022-12-28,2022-12-23,医療法人社団増田内科クリニック,,その他の設立登記法人,北海道,札幌市厚別区,もみじ台南１丁目２番９号,,01,108,0040012,,,2022-12-23,清算の結了等,,,2015-10-05,1,,,,,マスダナイカクリニック,0
996,4430005002911,登記記録の閉鎖等,0,2022-12-28,2022-12-23,北海道豆腐油揚商工組合,,その他の設立登記法人,北海道,札幌市東区,北八条東３丁目１番１５号,,01,103,0600908,,,2022-12-23,清算の結了等,,,2015-10-05,1,,,,,ホッカイドウトウフアブラアゲ,0
1001,5010001135434,登記記録の閉鎖等,0,2022-12-28,2022-12-22,こぶし立川ＰＦＩ株式会社,,株式会社,東京都,千代田区,飯田橋２丁目１８番２号,,13,101,1020072,,,2022-12-22,清算の結了等,,,2015-10-05,1,,,,,コブシタチカワピーエフアイ,0
1004,5010001184555,登記記録の閉鎖等,0,2022-12-28,2022-12-21,株式会社健康ファースト,,株式会社,東京都,千代田区,飯田橋１丁目７番１０号９階,,13,101,1020072,,,2022-12-21,清算の結了等,,,2017-07-04,1,,,,,ケンコウファースト,0
1006,5010001205798,登記記録の閉鎖等,0,2022-12-28,2022-12-23,株式会社宝宝樹日本,,株式会社,東京都,千代田区,麹町１丁目１２番地,,13,101,1020083,,,2022-12-23,清算の結了等,,,2019-12-03,1,,,,,バオバオジュニホン,0
1011,5010003023389,登記記録の閉鎖等,0,2022-12-28,2022-12-23,ビー・アシスト合同会社,,合同会社,東京都,文京区,千石２丁目１１番９－４０２号,,13,105,1120011,,,2022-12-23,清算の結了等,,,2016-04-21,1,,,,,ビーアシスト,0
1013,5010005028799,登記記録の閉鎖等,0,2022-12-28,2022-12-22,一般社団法人開発６０号,,その他の設立登記法人,東京都,千代田区,飯田橋１丁目３番２号曙杉館４階清和コンサルティング株式会社内,,13,101,1020072,,,2022-12-22,清算の結了等,,,2018-07-18,1,,,,,カイハツロクジュウゴウ,0
1071,5020003015476,登記記録の閉鎖等,0,2022-12-28,2022-12-23,合同会社ＫＭ,,合同会社,神奈川県,横浜市磯子区,岡村７丁目１番１３号,,14,107,2350021,,,2022-12-23,清算の結了等,,,2019-01-21,1,,,,,ケーエム,0
1086,5040001061644,登記記録の閉鎖等,0,2022-12-28,2022-12-23,株式会社おおはし工務所,,株式会社,千葉県,旭市,中谷里８５５２番地,,12,215,2892523,,,2022-12-23,清算の結了等,,,2015-10-05,1,,,,,オオハシコウムショ,0
1100,5060002000797,登記記録の閉鎖等,0,2022-12-28,2022-12-23,有限会社アサヒメディカルサービス,,有限会社,栃木県,宇都宮市,西川田町９２９番地４,,09,201,3210151,,,2022-12-23,清算の結了等,,,2015-10-05,1,,,,,アサヒメディカルサービス,0
1101,5060002006902,登記記録の閉鎖等,0,2022-12-28,2022-12-23,有限会社南地楼,,有限会社,栃木県,宇都宮市,陽東３丁目１８番９号,,09,201,3210904,,,2022-12-23,清算の結了等,,,2015-10-05,1,,,,,ナンチロウ,0
1102,5070001017569,登記記録の閉鎖等,0,2022-12-28,2022-12-21,株式会社狩野桂一商店,,株式会社,東京都,中央区,日本橋茅場町２丁目３番６号宗和ビル７階,,13,102,1030025,,,2022-12-21,清算の結了等,,,2015-10-05,1,,,,,カノウケイイチショウテン,0
1113,5120001110797,登記記録の閉鎖等,0,2022-12-28,2022-12-27,株式会社エンデライト,,株式会社,大阪府,堺市南区,赤坂台２丁５番２－４１０号,,27,145,5900144,,,2022-12-27,清算の結了等,,,2015-10-05,1,,,,,エンデライト,0
1115,5120001121373,登記記録の閉鎖等,0,2022-12-28,2022-12-23,株式会社サクトバイオテック,,株式会社,大阪府,大阪市淀川区,西中島２丁目１０番１号,,27,123,5320011,,,2022-12-23,清算の結了等,,,2015-10-05,1,,,,,サクトバイオテック,0
1122,5120001202900,登記記録の閉鎖等,0,2022-12-28,2022-12-26,株式会社ロジ・ホールディングス,,株式会社,大阪府,大阪市平野区,平野本町５丁目６番２４号,,27,126,5470044,,,2022-12-26,清算の結了等,,,2017-01-12,1,,,,,ロジホールディングス,0
1133,5120101044607,登記記録の閉鎖等,0,2022-12-28,2022-12-23,株式会社坂下工務店,,株式会社,和歌山県,和歌山市,西浜８０３番地１９,,30,201,6410036,,,2022-12-23,清算の結了等,,,2015-10-05,1,,,,,サカシタコウムテン,0
1143,5140001021175,登記記録の閉鎖等,0,2022-12-28,2022-12-21,しゅんこう商事株式会社,,株式会社,兵庫県,神戸市中央区,雲井通７丁目１番１号ミント神戸１６Ｆ,,28,110,6510096,,,2022-12-21,清算の結了等,,,2015-10-05,1,,,,,シュンコウショウジ,0
1145,5140001118847,登記記録の閉鎖等,0,2022-12-28,2022-12-23,株式会社トーハイ,,株式会社,兵庫県,尼崎市,西立花町２丁目７番１号,,28,202,6600054,,,2022-12-23,清算の結了等,,,2020-09-24,1,,,,,トーハイ,0
1149,5170005004628,登記記録の閉鎖等,0,2022-12-28,2022-12-26,医療法人森信会,,その他の設立登記法人,和歌山県,田辺市,たきない町１０番３４号,,30,206,6460015,,,2022-12-26,清算の結了等,,,2015-10-05,1,,,,,シンシンカイ,0
1166,5190003004099,登記記録の閉鎖等,0,2022-12-28,2022-12-27,合同会社三重シール,,合同会社,三重県,松阪市,平成町２番地２,,24,204,5150824,,,2022-12-27,清算の結了等,,,2022-10-04,1,,,,,ミエシール,0
1177,5260002002476,登記記録の閉鎖等,0,2022-12-28,2022-12-27,有限会社カクモト商会,,有限会社,岡山県,岡山市北区,北長瀬本町１２番３１号,,33,101,7000961,,,2022-12-27,清算の結了等,,,2015-10-05,1,,,,,カクモトショウカイ,0
1179,5280002003497,登記記録の閉鎖等,0,2022-12-28,2022-12-26,有限会社ハートフル・ウィング,,有限会社,島根県,松江市,古曽志町５６７番地３６２,,32,201,6900151,,,2022-12-26,清算の結了等,,,2015-10-05,1,,,,,ハートフルウィング,0
1187,5290001097804,登記記録の閉鎖等,0,2022-12-28,2022-12-22,株式会社ＳｋｙＳｉｇｎ,,株式会社,福岡県,福岡市博多区,博多駅南１丁目１５番１号,,40,132,8120016,,,2022-12-22,清算の結了等,,,2022-06-09,1,,,,,スカイサイン,0
1223,5430002064400,登記記録の閉鎖等,0,2022-12-28,2022-12-23,有限会社創研美装,,有限会社,北海道,室蘭市,祝津町２丁目１３番１０号,,01,205,0510036,,,2022-12-23,清算の結了等,,,2015-10-05,1,,,,,ソウケンビソウ,0
1303,6011101021408,登記記録の閉鎖等,0,2022-12-28,2022-12-23,株式会社山加水産,,株式会社,東京都,新宿区,高田馬場１丁目２６番１２号,,13,104,1690075,,,2022-12-23,清算の結了等,,,2015-10-05,1,,,,,ヤマカスイサン,0
1313,6011303003699,登記記録の閉鎖等,0,2022-12-28,2022-12-20,合同会社インサイトコマース,,合同会社,東京都,杉並区,西荻南４丁目３１番１１号,,13,115,1670053,,,2022-12-20,清算の結了等,,,2020-07-06,1,,,,,インサイトコマース,0
1368,6050002006373,登記記録の閉鎖等,0,2022-12-28,2022-12-23,有限会社Ｍ・Ｒ・Ｔ・ＪＡＰＡＮ,,有限会社,茨城県,水戸市,鯉淵町４８８８番地の２６４,,08,201,3190323,,,2022-12-23,清算の結了等,,,2015-10-05,1,,,,,エムアールティージャパン,0
1410,6120901026935,登記記録の閉鎖等,0,2022-12-28,2022-12-23,太陽エステート株式会社,,株式会社,大阪府,豊中市,曽根南町１丁目１７番１号,,27,203,5610804,,,2022-12-23,清算の結了等,,,2022-07-27,1,,,,,タイヨウエステート,0
1432,6180001004183,登記記録の閉鎖等,0,2022-12-28,2022-12-21,新広陽株式会社,,株式会社,愛知県,名古屋市名東区,社が丘１丁目７０６番地の１アークヒルズ社が丘３０２号,,23,115,4650051,,,2022-12-21,清算の結了等,,,2015-10-05,1,,,,,シンコウヨウ,0
1443,6180002013076,登記記録の閉鎖等,0,2022-12-28,2022-12-22,有限会社アズシステム,,有限会社,愛知県,名古屋市南区,西田町１丁目３番地,,23,112,4570073,,,2022-12-22,清算の結了等,,,2015-10-05,1,,,,,アズシステム,0
1449,6190001008282,登記記録の閉鎖等,0,2022-12-28,2022-12-26,株式会社フォレスト幸,,株式会社,三重県,度会郡度会町,小萩８番地,,24,470,5161247,,,2022-12-26,清算の結了等,,,2015-10-05,1,,,,,フオレストミユキ,0
1472,6290802017174,登記記録の閉鎖等,0,2022-12-28,2022-12-23,藤森塗研有限会社,,有限会社,福岡県,遠賀郡水巻町,二東１丁目１４番１４号,,40,382,8070054,,,2022-12-23,清算の結了等,,,2015-10-05,1,,,,,フジモリトケン,0
1476,6310002020752,登記記録の閉鎖等,0,2022-12-28,2022-12-26,有限会社岐宿農研,,有限会社,長崎県,五島市,岐宿町岐宿２９０５番地２,,42,211,8530701,,,2022-12-26,清算の結了等,,,2015-10-05,1,,,,,キシクノウケン,0
1481,6340001002682,登記記録の閉鎖等,0,2022-12-28,2022-12-14,株式会社多香良商事,,株式会社,鹿児島県,鹿児島市,上荒田町３２番９号,,46,201,8900055,,,2022-12-14,清算の結了等,,,2015-10-05,1,,,,,タカラショウジ,0
1496,6380002011299,登記記録の閉鎖等,0,2022-12-28,2022-12-23,有限会社西川薬局,,有限会社,福島県,郡山市,富久山町久保田字伊賀河原４番地,,07,203,9638071,,,2022-12-23,清算の結了等,,,2015-10-05,1,,,,,ニシカワヤッキョク,0
1498,6380002022726,登記記録の閉鎖等,0,2022-12-28,2022-12-22,有限会社大津工業所,,有限会社,福島県,いわき市,東田町金子平１番地の１１８,,07,204,9748212,,,2022-12-22,清算の結了等,,,2015-10-05,1,,,,,オオツコウギョウショ,0
1507,6430005012553,登記記録の閉鎖等,0,2022-12-28,2022-12-23,一般社団法人北海道出会いサポートセンター,,その他の設立登記法人,北海道,札幌市中央区,北五条西２６丁目１番７号,,01,101,0640825,,,2022-12-23,清算の結了等,,,2015-10-05,1,,,,,ホッカイドウデアイサポートセンター,0
1516,6500002021070,登記記録の閉鎖等,0,2022-12-28,2022-12-26,有限会社合田栄商店,,有限会社,愛媛県,四国中央市,三島中央３丁目１７番２０号,,38,213,7990405,,,2022-12-26,清算の結了等,,,2015-10-05,1,,,,,,0
1522,7010001199320,登記記録の閉鎖等,0,2022-12-28,2022-12-22,株式会社ＳＴＯＣＫ８３,,株式会社,東京都,千代田区,永田町２丁目１２番４号,,13,101,1000014,,,2022-12-22,合併による解散等,4011001013481,令和４年１２月１２日東京都渋谷区宇田川町２番１号泰和企業株式会社（4011001013481）に合併し解散,2019-03-18,1,,,,,ストックハチジュウサン,0
1524,7010002043650,登記記録の閉鎖等,0,2022-12-28,2022-12-22,有限会社グーフィー＆パートナーズ,,有限会社,東京都,中央区,月島１丁目８－１－２１０４,,13,102,1040052,,,2022-12-22,清算の結了等,,,2015-10-05,1,,,,,グーフィーアンドパートナーズ,0
1527,7010005025646,登記記録の閉鎖等,0,2022-12-28,2022-12-26,一般社団法人ＣＯＡＣＨ,,その他の設立登記法人,東京都,中央区,日本橋１丁目４番１号,,13,102,1030027,,,2022-12-26,清算の結了等,,,2016-08-09,1,,,,,コーチ,0
1528,7010005032650,登記記録の閉鎖等,0,2022-12-28,2022-12-26,一般社団法人川崎東門前ホールディングス,,その他の設立登記法人,東京都,千代田区,内幸町２丁目１番６号,,13,101,1000011,,,2022-12-26,清算の結了等,,,2020-12-07,1,,,,,カワサキヒガシモンゼンホールディングス,0
1532,7010401161697,登記記録の閉鎖等,0,2022-12-28,2022-12-16,株式会社Ｉｓｌａｎｄ,,株式会社,東京都,港区,六本木３丁目８番９－５０１号,,13,103,1060032,,,2022-12-16,清算の結了等,,,2021-07-28,1,,,,,アイランド,0
1548,7010501001902,登記記録の閉鎖等,0,2022-12-28,2022-12-15,小澤商事株式会社,,株式会社,東京都,台東区,上野１丁目１６番１６号,,13,106,1100005,,,2022-12-15,清算の結了等,,,2015-10-05,1,,,,,オザワショウジ,0
1559,7011001020839,登記記録の閉鎖等,0,2022-12-28,2022-12-21,株式会社ペンタインターナショナル,,株式会社,東京都,渋谷区,神宮前４丁目１８番６号,,13,113,1500001,,,2022-12-21,清算の結了等,,,2015-10-05,1,,,,,ペンタインターナショナル,0
1578,7011701010965,登記記録の閉鎖等,0,2022-12-28,2022-12-23,株式会社ミキ薬局,,株式会社,東京都,江戸川区,篠崎町７丁目２１番８号,,13,123,1330061,,,2022-12-23,清算の結了等,,,2015-10-05,1,,,,,ミキヤッキョク,0
1582,7013402003967,登記記録の閉鎖等,0,2022-12-28,2022-12-21,有限会社ヤマグチ,,有限会社,東京都,稲城市,平尾３丁目１番地の１平尾住宅２３棟２１０号,,13,225,2060823,,,2022-12-21,清算の結了等,,,2015-10-05,1,,,,,ヤマグチ,0
1595,7030002003421,登記記録の閉鎖等,0,2022-12-28,2022-12-26,有限会社カネタ,,有限会社,埼玉県,さいたま市桜区,町谷４丁目２６番３号,,11,106,3380836,,,2022-12-26,清算の結了等,,,2015-10-05,1,,,,,カネタ,0
1601,7030003012909,登記記録の閉鎖等,0,2022-12-28,2022-12-26,暖陽内装合同会社,,合同会社,埼玉県,三郷市,彦沢１丁目１０７番地ハピネス１－１０１,,11,237,3410057,,,2022-12-26,清算の結了等,,,2019-01-11,1,,,,,ハルヒナイソウ,0
1606,7040001036470,登記記録の閉鎖等,0,2022-12-28,2022-12-23,荷受畜産商事株式会社,,株式会社,千葉県,松戸市,松戸新田１８番地４１,,12,207,2702241,,,2022-12-23,清算の結了等,,,2015-10-05,1,,,,,ニウケチクサンショウジ,0
1617,7080001020421,登記記録の閉鎖等,0,2022-12-28,2022-12-27,株式会社マンゴー農園恵比寿三郎商店,,株式会社,静岡県,藤枝市,青南町４丁目１０番地５１,,22,214,4260063,,,2022-12-27,清算の結了等,,,2015-10-05,1,,,,,マンゴーノウエンエビスサブロウショウテン,0
1618,7080002014942,登記記録の閉鎖等,0,2022-12-28,2022-12-27,有限会社長野建材,,有限会社,静岡県,牧之原市,男神３９９番地の２,,22,226,4210517,,,2022-12-27,清算の結了等,,,2015-10-05,1,,,,,ナガノケンザイ,0
1626,7110002023304,登記記録の閉鎖等,0,2022-12-28,2022-12-21,有限会社長谷川商会,,有限会社,新潟県,上越市,中央３丁目１４番２８号,,15,222,9420001,,,2022-12-21,合併による解散等,6110001019337,令和４年１２月２１日新潟県上越市中央三丁目１４番２８号ハセガワ電化株式会社（6110001019337）に合併し解散,2015-10-05,1,,,,,ハセガワショウカイ,0
1630,7120001108393,登記記録の閉鎖等,0,2022-12-28,2022-12-27,株式会社燦ケミカル,,株式会社,大阪府,大阪市東住吉区,住道矢田５丁目１０番２０号,,27,121,5460022,,,2022-12-27,清算の結了等,,,2015-10-05,1,,,,,,0
1633,7120001213689,登記記録の閉鎖等,0,2022-12-28,2022-12-26,ラルーナ株式会社,,株式会社,大阪府,大阪市西区,立売堀１丁目８番１号５Ｆ,,27,106,5500012,,,2022-12-26,清算の結了等,,,2018-05-30,1,,,,,ラルーナ,0
1663,7140001113012,登記記録の閉鎖等,0,2022-12-28,2022-12-23,株式会社ハウストラスト,,株式会社,兵庫県,神戸市長田区,前原町１丁目１８番１５号,,28,106,6530803,,,2022-12-23,清算の結了等,,,2019-03-15,1,,,,,ハウストラスト,0
1674,7180001045243,登記記録の閉鎖等,0,2022-12-28,2022-12-23,丹羽電工株式会社,,株式会社,愛知県,清須市,春日夢の森２丁目７９番地,,23,233,4520961,,,2022-12-23,清算の結了等,,,2015-10-05,1,,,,,ニワデンコウ,0
1679,7180001103819,登記記録の閉鎖等,0,2022-12-28,2022-12-22,株式会社Ｃ－ｒｏｏｍ,,株式会社,愛知県,名古屋市千種区,今池５丁目２２番１６号,,23,101,4640850,,,2022-12-22,清算の結了等,,,2015-10-05,1,,,,,シールーム,0
1701,7240002008151,登記記録の閉鎖等,0,2022-12-28,2022-12-26,有限会社新林運送,,有限会社,広島県,広島市東区,戸坂山根３丁目８番３号,,34,102,7320002,,,2022-12-26,清算の結了等,,,2015-10-05,1,,,,,ニイバヤシウンソウ,0
1702,7240002021674,登記記録の閉鎖等,0,2022-12-28,2022-12-23,有限会社エヌディー建築計画,,有限会社,広島県,広島市中区,上幟町１番１４号,,34,101,7300014,,,2022-12-23,清算の結了等,,,2015-10-05,1,,,,,エヌディーケンチクケイカク,0
1716,7290005013648,登記記録の閉鎖等,0,2022-12-28,2022-12-22,糸島市再生事業協同組合,,その他の設立登記法人,福岡県,糸島市,有田９１７番地１,,40,230,8191132,,,2022-12-22,清算の結了等,,,2015-10-05,1,,,,,イトシマシサイセイ,0
1723,7330001014166,登記記録の閉鎖等,0,2022-12-28,2022-12-23,株式会社ＦＢフレッシュファームやつしろ,,株式会社,熊本県,八代市,千丁町古閑出２５０２番地,,43,202,8694704,,,2022-12-23,清算の結了等,,,2015-10-05,1,,,,,エフビーフレッシュファームヤツシロ,0
1729,7350002009881,登記記録の閉鎖等,0,2022-12-28,2022-12-27,有限会社五空,,有限会社,宮崎県,宮崎市,祇園２丁目８３番地,,45,201,8800024,,,2022-12-27,清算の結了等,,,2015-10-05,1,,,,,ゴクウ,0
1738,7400001013895,登記記録の閉鎖等,0,2022-12-28,2022-12-23,株式会社ＧＲＡＣ,,株式会社,岩手県,盛岡市,黒石野１丁目２５番８号,,03,201,0200111,,,2022-12-23,清算の結了等,,,2017-10-16,1,,,,,グラック,0
1747,7430002018511,登記記録の閉鎖等,0,2022-12-28,2022-12-26,有限会社本多内装,,有限会社,北海道,札幌市北区,新川五条５丁目３番１１号,,01,102,0010925,,,2022-12-26,清算の結了等,,,2015-10-05,1,,,,,ホンダナイソウ,0
1751,7430005012957,登記記録の閉鎖等,0,2022-12-28,2022-12-23,特定非営利活動法人ＮＰＯコスモス,,その他の設立登記法人,北海道,小樽市,築港１２番２１２号ベイシティガーデン小樽フロントＢ,,01,203,0470008,,,2022-12-23,清算の結了等,,,2016-10-13,1,,,,,,0
1772,8010003025754,登記記録の閉鎖等,0,2022-12-28,2022-12-23,ＴＦＪ１合同会社,,合同会社,東京都,千代田区,内神田２丁目２番６号５階あすな会計事務所内,,13,101,1010047,,,2022-12-23,清算の結了等,,,2017-07-27,1,,,,,ティエフジェイワン,0
1794,8010902009535,登記記録の閉鎖等,0,2022-12-28,2022-12-21,有限会社たのうち,,有限会社,東京都,府中市,片町２丁目２４番地５,,13,206,1830021,,,2022-12-21,清算の結了等,,,2015-10-05,1,,,,,タノウチ,0
1805,8011301016081,登記記録の閉鎖等,0,2022-12-28,2022-12-20,株式会社Ｎ＆Ｐ,,株式会社,東京都,杉並区,上井草２丁目２９番２０号,,13,115,1670023,,,2022-12-20,清算の結了等,,,2015-10-05,1,,,,,,0
1812,8011701000445,登記記録の閉鎖等,0,2022-12-28,2022-12-22,株式会社飯田製作所,,株式会社,東京都,江戸川区,松江７丁目１３番２０号,,13,123,1320025,,,2022-12-22,清算の結了等,,,2015-10-05,1,,,,,イイダセイサクショ,0
1848,8030002001325,登記記録の閉鎖等,0,2022-12-28,2022-12-23,有限会社イオス,,有限会社,埼玉県,さいたま市北区,吉野町１丁目３６３番地１３,,11,102,3310811,,,2022-12-23,清算の結了等,,,2015-10-05,1,,,,,イオス,0
1850,8030002047624,登記記録の閉鎖等,0,2022-12-28,2022-12-16,有限会社野口ビルサービス,,有限会社,埼玉県,草加市,草加１丁目８番７号,,11,221,3400043,,,2022-12-16,清算の結了等,,,2015-10-05,1,,,,,ノグチビルサービス,0
1852,8030002072309,登記記録の閉鎖等,0,2022-12-28,2022-12-22,有限会社井手防水,,有限会社,埼玉県,川越市,宮元町７７番地１４,,11,201,3500838,,,2022-12-22,清算の結了等,,,2015-10-05,1,,,,,イデボウスイ,0
1859,8040001106553,登記記録の閉鎖等,0,2022-12-28,2022-12-26,プッシュアップ株式会社,,株式会社,千葉県,成田市,下方１０３０番地,,12,211,2860005,,,2022-12-26,清算の結了等,,,2018-10-19,1,,,,,プッシュアップ,0
1867,8040002079427,登記記録の閉鎖等,0,2022-12-28,2022-12-26,有限会社海幸,,有限会社,千葉県,山武市,森１２８４番地３,,12,237,2891214,,,2022-12-26,清算の結了等,,,2015-10-05,1,,,,,カイコウ,0
1869,8040003006256,登記記録の閉鎖等,0,2022-12-28,2022-12-26,合同会社Ｅ．Ｇ．Ｙ．ダイヤモンド,,合同会社,千葉県,千葉市緑区,鎌取町２７３番地２３７,,12,105,2660011,,,2022-12-26,清算の結了等,,,2015-10-05,1,,,,,,0
1888,8110001024418,登記記録の閉鎖等,0,2022-12-28,2022-12-22,株式会社東京モードソーイング,,株式会社,新潟県,長岡市,天下島１丁目４番５号,,15,202,9400232,,,2022-12-22,清算の結了等,,,2015-10-05,1,,,,,トウキョウモードソーイング,0
1894,8120001062086,登記記録の閉鎖等,0,2022-12-28,2022-12-26,オーミ事務販売株式会社,,株式会社,大阪府,大阪市北区,天満４丁目１４番４号,,27,127,5300043,,,2022-12-26,清算の結了等,,,2015-10-05,1,,,,,オーミジムハンバイ,0
1895,8120001065725,登記記録の閉鎖等,0,2022-12-28,2022-12-27,新晃化学株式会社,,株式会社,大阪府,大阪市北区,南扇町５番１５号,,27,127,5300052,,,2022-12-27,清算の結了等,,,2015-10-05,1,,,,,シンコウカガク,0
1911,8120003017542,登記記録の閉鎖等,0,2022-12-28,2022-12-23,テスティア合同会社,,合同会社,大阪府,大阪市中央区,島之内１丁目１５番１４－２０４号,,27,128,5420082,,,2022-12-23,清算の結了等,,,2020-06-04,1,,,,,テスティア,0
1927,8140001016255,登記記録の閉鎖等,0,2022-12-28,2022-12-23,株式会社ジョイント,,株式会社,兵庫県,神戸市長田区,梅ケ香町２丁目８番２０号,,28,106,6530021,,,2022-12-23,清算の結了等,,,2015-10-05,1,,,,,ジョイント,0
1939,8180002009691,登記記録の閉鎖等,0,2022-12-28,2022-12-22,有限会社水星,,有限会社,愛知県,名古屋市瑞穂区,新聞町２８番２６号,,23,108,4670000,,,2022-12-22,清算の結了等,,,2015-10-05,1,,,,,スイセイ,0
1944,8180005016470,登記記録の閉鎖等,0,2022-12-28,2022-12-26,一般社団法人親子コミュニケーション協会,,その他の設立登記法人,愛知県,名古屋市東区,代官町２４番１号,,23,102,4610002,,,2022-12-26,清算の結了等,,,2015-10-05,1,,,,,オヤココミュニケーションキョウカイ,0
1953,8200005011378,登記記録の閉鎖等,0,2022-12-28,2022-12-26,公益社団法人大垣青年クラブ,,その他の設立登記法人,岐阜県,大垣市,見取町１丁目１３番地１号,,21,202,5030025,,,2022-12-26,清算の結了等,,,2015-10-05,1,,,,,オオガキセイネンクラブ,0
1954,8210001003155,登記記録の閉鎖等,0,2022-12-28,2022-12-27,株式会社富士越,,株式会社,福井県,福井市,高木中央２丁目１６０２番地,,18,201,9100804,,,2022-12-27,清算の結了等,,,2015-10-05,1,,,,,フジコシ,0
1967,8290001068604,登記記録の閉鎖等,0,2022-12-28,2022-12-22,株式会社ハラカツ商店,,株式会社,福岡県,嘉麻市,山野２００４番地８,,40,227,8200202,,,2022-12-22,清算の結了等,,,2015-10-05,1,,,,,,0
1984,8340001005898,登記記録の閉鎖等,0,2022-12-28,2022-12-27,株式会社救急サービス,,株式会社,鹿児島県,鹿児島市,西別府町３１１６番地１４５,,46,201,8900033,,,2022-12-27,清算の結了等,,,2015-10-05,1,,,,,キュウキュウサービス,0
1998,8430005005646,登記記録の閉鎖等,0,2022-12-28,2022-12-26,宗教法人稲荷神社,,その他の設立登記法人,北海道,江別市,文京台東町２０番地４,,01,217,0690834,,,2022-12-26,清算の結了等,,,2015-10-05,1,,,,,イナリジンジャ,0
2001,8440002008675,登記記録の閉鎖等,0,2022-12-28,2022-12-21,有限会社ヤママル勇内山鮮魚店,,有限会社,北海道,二海郡八雲町,内浦町１２８番地の３９,,01,346,0493104,,,2022-12-21,清算の結了等,,,2015-10-05,1,,,,,ヤママルユウナイヤマセンギョテン,0
2012,9010002024244,登記記録の閉鎖等,0,2022-12-28,2022-12-20,有限会社美洗舎,,有限会社,東京都,中央区,築地６丁目３番７号,,13,102,1040045,,,2022-12-20,清算の結了等,,,2015-10-05,1,,,,,ビセンシャ,0
2047,9010801010436,登記記録の閉鎖等,0,2022-12-28,2022-12-21,不二興業株式会社,,株式会社,東京都,大田区,田園調布５丁目１３番６号,,13,111,1450071,,,2022-12-21,清算の結了等,,,2015-10-05,1,,,,,フジコウギョウ,0
2051,9011001095623,登記記録の閉鎖等,0,2022-12-28,2022-12-26,株式会社パワーズ,,株式会社,東京都,渋谷区,恵比寿南３丁目４－１７,,13,113,1500022,,,2022-12-26,清算の結了等,,,2015-10-05,1,,,,,,0
2070,9012703002503,登記記録の閉鎖等,0,2022-12-28,2022-12-09,合同会社ＡＭＡＹＡＮ,,合同会社,東京都,東久留米市,本町１丁目５番１８号,,13,222,2030053,,,2022-12-09,清算の結了等,,,2022-08-03,1,,,,,アマヤン,0
2083,9020001129233,登記記録の閉鎖等,0,2022-12-28,2022-12-26,株式会社ニシムラ,,株式会社,神奈川県,横浜市中区,桜木町１丁目１番地８,,14,104,2310062,,,2022-12-26,清算の結了等,,,2018-12-26,1,,,,,ニシムラ,0
2096,9021001061368,登記記録の閉鎖等,0,2022-12-28,2022-12-22,株式会社ＨＫＤ,,株式会社,東京都,中央区,銀座１丁目９番８号,,13,102,1040061,,,2022-12-22,清算の結了等,,,2017-02-14,1,,,,,,0
2098,9021002012048,登記記録の閉鎖等,0,2022-12-28,2022-12-23,有限会社ポージー,,有限会社,神奈川県,茅ヶ崎市,富士見町６番１６号,,14,207,2530031,,,2022-12-23,清算の結了等,,,2015-10-05,1,,,,,ポージー,0
2113,9040002005381,登記記録の閉鎖等,0,2022-12-28,2022-12-23,有限会社システムキャタリスト,,有限会社,千葉県,千葉市花見川区,幕張町２丁目１０１０番地４２,,12,102,2620032,,,2022-12-23,清算の結了等,,,2015-10-05,1,,,,,システムキャタリスト,0
2124,9080002015055,登記記録の閉鎖等,0,2022-12-28,2022-12-26,有限会社磯駒,,有限会社,静岡県,牧之原市,静波２１６５番地の４,,22,226,4210422,,,2022-12-26,清算の結了等,,,2015-10-05,1,,,,,イソコマ,0
2135,9110001025778,登記記録の閉鎖等,0,2022-12-28,2022-12-22,株式会社冷凍空調きたむら,,株式会社,新潟県,長岡市,町田町７１２番地,,15,202,9401111,,,2022-12-22,清算の結了等,,,2015-10-05,1,,,,,レイトウクウチョウキタムラ,0
2147,9120001199712,登記記録の閉鎖等,0,2022-12-28,2022-12-27,株式会社シーエックス,,株式会社,大阪府,守口市,東郷通１丁目４－１４,,27,209,5700041,,,2022-12-27,清算の結了等,,,2016-07-28,1,,,,,シーエックス,0
2169,9130002018837,登記記録の閉鎖等,0,2022-12-28,2022-12-22,有限会社テキスタイルリブラ,,有限会社,京都府,京都市西京区,大原野東野町３番地の４０２,,26,111,6101122,,,2022-12-22,清算の結了等,,,2015-10-05,1,,,,,テキスタイルリブラ,0
2181,9140002051779,登記記録の閉鎖等,0,2022-12-28,2022-12-22,夢前タクシー有限会社,,有限会社,兵庫県,姫路市,夢前町塩田１３７番地の３,,28,201,6712112,,,2022-12-22,清算の結了等,,,2015-10-05,1,,,,,ユメサキタクシー,0
2182,9140003009421,登記記録の閉鎖等,0,2022-12-28,2022-12-23,合同会社ＦＳＷ,,合同会社,兵庫県,姫路市,広畑区正門通１丁目８番地１０,,28,201,6711116,,,2022-12-23,清算の結了等,,,2015-10-05,1,,,,,エフエスダブリュー,0
2189,9180001020327,登記記録の閉鎖等,0,2022-12-28,2022-12-23,株式会社長組,,株式会社,愛知県,名古屋市中川区,高畑２丁目１０３番地豊常ビル２１０号,,23,110,4540911,,,2022-12-23,清算の結了等,,,2015-10-05,1,,,,,オサクミ,0
2190,9180001067491,登記記録の閉鎖等,0,2022-12-28,2022-12-22,東郷シーエヌエス株式会社,,株式会社,愛知県,愛知郡東郷町,大字諸輪字北山１５８番地の２３パステリオ和合１０１号,,23,302,4700151,,,2022-12-22,清算の結了等,,,2015-10-05,1,,,,,トウゴウシーエヌエス,0
2203,9180302016932,登記記録の閉鎖等,0,2022-12-28,2022-12-22,有限会社柘植機工,,有限会社,愛知県,安城市,箕輪町半夏８番地,,23,212,4460051,,,2022-12-22,清算の結了等,,,2015-10-05,1,,,,,ツゲキコウ,0
2207,9210001004598,登記記録の閉鎖等,0,2022-12-28,2022-12-26,アサミカンパニー株式会社,,株式会社,福井県,福井市,高木中央２丁目３５０１番地の２,,18,201,9100804,,,2022-12-26,清算の結了等,,,2015-10-05,1,,,,,アサミカンパニー,0
2214,9250001012259,登記記録の閉鎖等,0,2022-12-28,2022-12-26,株式会社梅津プランニング,,株式会社,山口県,岩国市,室の木町１丁目８番３６号,,35,208,7400021,,,2022-12-26,清算の結了等,,,2015-10-05,1,,,,,ウメヅプランニング,0
2216,9260002016398,登記記録の閉鎖等,0,2022-12-28,2022-12-26,有限会社イー・ディー・ケー,,有限会社,岡山県,倉敷市,中島１３６１番地の１,,33,202,7100803,,,2022-12-26,清算の結了等,,,2015-10-05,1,,,,,イーディーケー,0
2226,9290802020563,登記記録の閉鎖等,0,2022-12-28,2022-12-26,有限会社日若,,有限会社,福岡県,直方市,新町３丁目５番５号タウニィ日若１０１号,,40,204,8220015,,,2022-12-26,清算の結了等,,,2015-10-05,1,,,,,ヒワカ,0
2239,9360001000112,登記記録の閉鎖等,0,2022-12-28,2022-12-26,株式会社リック,,株式会社,沖縄県,那覇市,久茂地２丁目１４番１号５Ｆ,,47,201,9000015,,,2022-12-26,清算の結了等,,,2015-10-05,1,,,,,リック,0
2245,9360003008376,登記記録の閉鎖等,0,2022-12-28,2022-12-26,合同会社オリエンタル・ブリッジ,,合同会社,沖縄県,南城市,大里字稲嶺２３５５番地１８,,47,215,9011204,,,2022-12-26,清算の結了等,,,2017-08-24,1,,,,,オリエンタルブリッジ,0
2260,9430002040694,登記記録の閉鎖等,0,2022-12-28,2022-12-23,有限会社アイプロントサービス,,有限会社,北海道,札幌市西区,八軒六条西１丁目１番６号,,01,107,0630846,,,2022-12-23,清算の結了等,,,2015-10-05,1,,,,,アイプロントサービス,0
2261,9430002066343,登記記録の閉鎖等,0,2022-12-28,2022-12-27,有限会社哲建工業,,有限会社,北海道,登別市,若山町２丁目１４番地１４,,01,230,0590026,,,2022-12-27,清算の結了等,,,2015-10-05,1,,,,,テッケンコウギョウ,0
2267,9460105001426,登記記録の閉鎖等,0,2022-12-28,2022-12-21,銀河通り商店街協同組合,,その他の設立登記法人,北海道,中川郡本別町,北４丁目３番地１１,,01,646,0893334,,,2022-12-21,清算の結了等,,,2015-10-05,1,,,,,ギンガドオリショウテンガイ,0
