sequenceNumber,corporateNumber,process,correct,updateDate,changeDate,name,nameImageId,kind,prefectureName,cityName,streetNumber,addressImageId,prefectureCode,cityCode,postCode,addressOutside,addressOutsideImageId,closeDate,closeCause,successorCorporateNumber,changeCause,assignmentDate,latest,enName,enPrefectureName,enCityName,enAddressOutside,furigana,hihyoji
5,1010001160337,登記記録の閉鎖等,0,2025-05-16,2025-04-28,山佐産業ＭＵ１リース株式会社,,株式会社,東京都,千代田区,丸の内１丁目４番１号東京共同会計事務所内,,13,101,1000005,,,2025-04-28,清算の結了等,,,2015-10-05,1,,,,,ヤマササンギョウエムユーイチリース,0
16,1010003035818,登記記録の閉鎖等,0,2025-05-16,2025-04-28,合同会社ＴＵＬＩＰ６,,合同会社,東京都,千代田区,丸の内１丁目４番１号東京共同会計事務所内,,13,101,1000005,,,2025-04-28,清算の結了等,,,2021-09-09,1,,,,,チューリップシックス,0
17,1010003036790,登記記録の閉鎖等,0,2025-05-16,2025-04-28,合同会社オルタナ１０,,合同会社,東京都,千代田区,丸の内１丁目４番１号東京共同会計事務所内,,13,101,1000005,,,2025-04-28,清算の結了等,,,2022-01-18,1,,,,,オルタナテン,0
19,1010005033919,登記記録の閉鎖等,0,2025-05-16,2025-04-10,一般社団法人日本インドアゴルフ協会,,その他の設立登記法人,東京都,渋谷区,恵比寿１丁目１５番９号日宝恵比寿ビル４０３,,13,113,1500013,,,2025-04-10,清算の結了等,,,2021-09-08,1,,,,,ニホンインドアゴルフキョウカイ,0
21,1010101003305,登記記録の閉鎖等,0,2025-05-16,2025-05-12,株式会社ビケン,,株式会社,東京都,八王子市,城山手２丁目２９番９号,,13,201,1930825,,,2025-05-12,清算の結了等,,,2015-10-05,1,,,,,,0
29,1010402017763,登記記録の閉鎖等,0,2025-05-16,2025-04-10,有限会社セ・ラ・ヴィ,,有限会社,東京都,港区,芝２丁目２０番１２号,,13,103,1050014,,,2025-04-10,清算の結了等,,,2015-10-05,1,,,,,,0
30,1010403020915,登記記録の閉鎖等,0,2025-05-16,2025-04-10,合同会社那覇西２丁目開発,,合同会社,東京都,港区,元赤坂１丁目１番８号株式会社赤坂国際会計内,,13,103,1070051,,,2025-04-10,清算の結了等,,,2019-06-20,1,,,,,ナハニシニチョウメカイハツ,0
42,1010803002554,登記記録の閉鎖等,0,2025-05-16,2025-04-14,リテラ合同会社,,合同会社,東京都,渋谷区,神宮前１丁目１５番１３号ファルファーレ原宿,,13,113,1500001,,,2025-04-14,清算の結了等,,,2018-01-09,1,,,,,リテラ,0
47,1011001004467,登記記録の閉鎖等,0,2025-05-16,2025-04-10,エム・ワイ・ケー建物株式会社,,株式会社,東京都,渋谷区,神宮前１丁目１番８号,,13,113,1500001,,,2025-04-10,清算の結了等,,,2015-10-05,1,,,,,エムワイケータテモノ,0
48,1011001028193,登記記録の閉鎖等,0,2025-05-16,2025-04-09,デジタル・アドバタイジング・コンソーシアム株式会社,,株式会社,東京都,渋谷区,恵比寿４丁目２０番３号,,13,113,1500013,,,2025-04-09,合併による解散等,3011001113101,令和７年４月１日東京都渋谷区恵比寿四丁目２０番３号株式会社Ｈａｋｕｈｏｄｏ　ＤＹ　ＯＮＥ（3011001113101）に合併し解散,2015-10-05,1,,,,,デジタルアドバタイジングコンソーシアム,0
61,1011102011395,登記記録の閉鎖等,0,2025-05-16,2025-04-21,有限会社富士研磨,00054010,有限会社,東京都,新宿区,天神町８１番地,,13,104,1620808,,,2025-04-21,清算の結了等,,,2015-10-05,1,,,,,フジケンマ,0
64,1011301012946,登記記録の閉鎖等,0,2025-05-16,2025-05-09,株式会社Ｏｆｆｉｃｅ－ＫＯＢＹ,,株式会社,長野県,茅野市,北山５５２２－４４４滝見平８７－Ｂ番,,20,214,3910301,,,2025-05-09,清算の結了等,,,2015-10-05,1,,,,,オフィースコビー,0
88,1012802007600,登記記録の閉鎖等,0,2025-05-16,2025-05-07,有限会社小町工務店,,有限会社,東京都,昭島市,玉川町５丁目１８番１７号,,13,207,1960034,,,2025-05-07,清算の結了等,,,2015-10-05,1,,,,,コマチコウムテン,0
113,1030001125841,登記記録の閉鎖等,0,2025-05-16,2025-05-07,ｓｈｉｎｏｂｉ株式会社,,株式会社,埼玉県,所沢市,緑町１丁目６番１４－５０８号,,11,208,3591111,,,2025-05-07,清算の結了等,,,2018-05-25,1,,,,,シノビ,0
120,1040001086694,登記記録の閉鎖等,0,2025-05-16,2025-04-28,株式会社服部,,株式会社,千葉県,野田市,野田３４７番地,,12,208,2780037,,,2025-04-28,清算の結了等,,,2015-10-05,1,,,,,ハットリ,0
121,1040001110405,登記記録の閉鎖等,0,2025-05-16,2025-04-28,株式会社トラスト・データ・サービス,,株式会社,千葉県,浦安市,富士見１丁目９番２６号,,12,227,2790043,,,2025-04-28,清算の結了等,,,2019-08-16,1,,,,,トラストデータサービス,0
133,1060001022342,登記記録の閉鎖等,0,2025-05-16,2025-05-08,株式会社トータルステーション益子,,株式会社,栃木県,那須郡那珂川町,馬頭１５１９番地３,,09,411,3240613,,,2025-05-08,清算の結了等,,,2015-10-05,1,,,,,トータルステーションマシコ,0
166,1120003022268,登記記録の閉鎖等,0,2025-05-16,2025-05-09,合同会社はなカンパニー,,合同会社,大阪府,大阪市北区,芝田２丁目８番１１号,,27,127,5300012,,,2025-05-09,清算の結了等,,,2022-08-12,1,,,,,ハナカンパニー,0
178,1122002014386,登記記録の閉鎖等,0,2025-05-16,2025-05-12,有限会社ナガタ金型精工所,,有限会社,大阪府,八尾市,志紀町南３丁目１０７番地の５,,27,212,5810033,,,2025-05-12,清算の結了等,,,2015-10-05,1,,,,,ナガタカナガタセイコウショ,0
179,1130001026690,登記記録の閉鎖等,0,2025-05-16,2025-05-09,ＥＳＰ株式会社,,株式会社,京都府,京都市左京区,下鴨北園町１５番地１,,26,103,6060831,,,2025-05-09,合併による解散等,5130001071907,令和７年５月１日京都市左京区下鴨北園町１５番地１ＯＹＯインベストメンツ株式会社（5130001071907）に合併し解散,2015-10-05,1,,,,,イーエスピー,0
197,1160003001929,登記記録の閉鎖等,0,2025-05-16,2025-05-13,合同会社キタガワ,,合同会社,滋賀県,愛知郡愛荘町,島川６５８番地,,25,425,5291223,,,2025-05-13,清算の結了等,,,2019-10-30,1,,,,,キタガワ,0
204,1180001102090,登記記録の閉鎖等,0,2025-05-16,2025-05-14,株式会社ヨコミチ,,株式会社,愛知県,津島市,百島町字中割１４４番地,,23,208,4960019,,,2025-05-14,清算の結了等,,,2015-10-05,1,,,,,ヨコミチ,0
209,1180001149306,登記記録の閉鎖等,0,2025-05-16,2025-05-08,株式会社晴る,,株式会社,愛知県,海部郡蟹江町,八幡１丁目１０６番地ライオンズ蟹江シエルマークス１１０３号,,23,425,4970056,,,2025-05-08,清算の結了等,,,2022-01-05,1,,,,,ハル,0
212,1180002004187,登記記録の閉鎖等,0,2025-05-16,2025-05-13,有限会社コムズ,,有限会社,愛知県,名古屋市千種区,春岡１丁目２７番１６号,,23,101,4640848,,,2025-05-13,清算の結了等,,,2015-10-05,1,,,,,コムズ,0
224,1200002009051,登記記録の閉鎖等,0,2025-05-16,2025-05-13,有限会社エコーション,,有限会社,岐阜県,各務原市,那加長塚町３丁目４７番地,,21,213,5040046,,,2025-05-13,清算の結了等,,,2015-10-05,1,,,,,エコーション,0
226,1200005013050,登記記録の閉鎖等,0,2025-05-16,2025-05-08,特定非営利活動法人エラシカ岐阜ビーチサッカークラブ,,その他の設立登記法人,岐阜県,岐阜市,石原３丁目３０番地３,,21,201,5012535,,,2025-05-08,清算の結了等,,,2020-04-14,1,,,,,エラシカギフビーチサッカークラブ,0
229,1220003001088,登記記録の閉鎖等,0,2025-05-16,2025-05-12,合資会社三盛酒店,,合資会社,石川県,七尾市,大津町ケ部９６番地,,17,202,9292126,,,2025-05-12,清算の結了等,,,2015-10-05,1,,,,,サンモリサケテン,0
241,1290001086447,登記記録の閉鎖等,0,2025-05-16,2025-04-30,株式会社中村屋,,株式会社,福岡県,福岡市中央区,天神２丁目３番１０号,,40,133,8100001,,,2025-04-30,清算の結了等,,,2019-09-09,1,,,,,ナカムラヤ,0
242,1290003002633,登記記録の閉鎖等,0,2025-05-16,2025-04-15,合名会社協和刷子製作所,,合名会社,福岡県,久留米市,国分町１５４０番地,,40,203,8390863,,,2025-04-15,清算の結了等,,,2015-10-05,1,,,,,キョウワブラシセイサクショ,0
247,1290801011389,登記記録の閉鎖等,0,2025-05-16,2025-05-14,大正産業株式会社,,株式会社,福岡県,中間市,中央１丁目２５番１５号,,40,215,8090030,,,2025-05-14,清算の結了等,,,2015-10-05,1,,,,,タイショウサンギョウ,0
253,1330001010451,登記記録の閉鎖等,0,2025-05-16,2025-05-08,株式会社ＵＢＣ,,株式会社,熊本県,熊本市中央区,新町４丁目２番７－７０２号,,43,101,8600004,,,2025-05-08,清算の結了等,,,2015-10-05,1,,,,,ユービーシー,0
254,1330001030111,登記記録の閉鎖等,0,2025-05-16,2025-05-02,株式会社Ｔ・Ｔ・ＨＯＭＥ,,株式会社,熊本県,玉名郡南関町,大字関東７７１番地,,43,367,8610802,,,2025-05-02,清算の結了等,,,2022-09-14,1,,,,,ティーティーホーム,0
260,1350001015408,登記記録の閉鎖等,0,2025-05-16,2025-05-13,株式会社Ｗｅｓｔ　Ｗｏｍａｎ’ｓ,,株式会社,宮崎県,宮崎市,大塚町八所３６０１番地５,,45,201,8800951,,,2025-05-13,清算の結了等,,,2018-08-07,1,,,,,ウエストウーマンズ,0
272,1380001030585,登記記録の閉鎖等,0,2025-05-16,2025-04-24,株式会社浜鶏,,株式会社,福島県,双葉郡富岡町,大字小浜字中央７２７番地,,07,543,9791111,,,2025-04-24,清算の結了等,,,2020-01-08,1,,,,,ハマドリ,0
275,1400002013017,登記記録の閉鎖等,0,2025-05-16,2025-04-28,有限会社北桜堂新社,,有限会社,岩手県,久慈市,十八日町２丁目１５番地,,03,207,0280065,,,2025-04-28,清算の結了等,,,2015-10-05,1,,,,,ホクオウドウシンシャ,0
279,1430001050025,登記記録の閉鎖等,0,2025-05-16,2025-05-12,株式会社札樽美工印刷,00088691,株式会社,北海道,小樽市,オタモイ１丁目２５番２６号,,01,203,0482671,,,2025-05-12,清算の結了等,,,2015-10-05,1,,,,,サッソンビコウインサツ,0
280,1430001060346,登記記録の閉鎖等,0,2025-05-16,2025-05-12,日鉄ビジネスサービス室蘭株式会社,,株式会社,北海道,室蘭市,仲町１２番地,,01,205,0500087,,,2025-05-12,合併による解散等,8040001052104,令和７年４月１日千葉県木更津市築地１番１日鉄ビジネスサービス株式会社（8040001052104）に合併し解散,2015-10-05,1,,,,,ニッテツビジネスサービスムロラン,0
300,2010003028168,登記記録の閉鎖等,0,2025-05-16,2025-04-24,ＤＨＨＦ１合同会社,,合同会社,東京都,千代田区,飯田橋４丁目７番１号結和税理士法人内,,13,101,1020072,,,2025-04-24,清算の結了等,,,2018-08-28,1,,,,,ディーエイチエイチエフワン,0
304,2010005034148,登記記録の閉鎖等,0,2025-05-16,2025-05-12,一般社団法人ＰＤＭＯ,,その他の設立登記法人,東京都,練馬区,高野台１丁目３番７号ＮＦプラザＩＩ１３０１号室,00134980,13,120,1770033,,,2025-05-12,清算の結了等,,,2021-11-02,1,,,,,パドモ,0
319,2010501032976,登記記録の閉鎖等,0,2025-05-16,2025-05-13,阿拉坦株式会社,,株式会社,埼玉県,草加市,栄町１丁目８番８号,,11,221,3400011,,,2025-05-13,清算の結了等,,,2015-10-05,1,,,,,アラタン,0
357,2011201002690,登記記録の閉鎖等,0,2025-05-16,2025-05-08,菅機材株式会社,,株式会社,東京都,練馬区,旭町２丁目９番１３号,,13,120,1790071,,,2025-05-08,清算の結了等,,,2015-10-05,1,,,,,スガキザイ,0
360,2011301016293,登記記録の閉鎖等,0,2025-05-16,2025-04-30,株式会社グリーン環境エステート,,株式会社,東京都,杉並区,荻窪５丁目８番１０－１０１号シャトー富士,,13,115,1670051,,,2025-04-30,合併による解散等,6011301018039,令和７年４月３０日東京都杉並区荻窪五丁目８番１０－１０１号シャトー富士グリーン開発株式会社（6011301018039）に合併し解散,2015-10-05,1,,,,,グリーンカンキョウエステート,0
365,2011502000096,登記記録の閉鎖等,0,2025-05-16,2025-05-13,有限会社アイデザイン,,有限会社,静岡県,沼津市,本白銀町４８８番地,,22,203,4100867,,,2025-05-13,清算の結了等,,,2015-10-05,1,,,,,アイデザイン,0
367,2011701019458,登記記録の閉鎖等,0,2025-05-16,2025-04-25,株式会社敷島,,株式会社,千葉県,山武郡九十九里町,真亀９６４番１４号,,12,403,2830114,,,2025-04-25,清算の結了等,,,2015-12-08,1,,,,,シキシマ,0
368,2011702000532,登記記録の閉鎖等,0,2025-05-16,2025-05-07,有限会社東工業所,,有限会社,東京都,江戸川区,松江２丁目１５番２号,,13,123,1320025,,,2025-05-07,清算の結了等,,,2015-10-05,1,,,,,アズマコウギョウショ,0
378,2013202007132,登記記録の閉鎖等,0,2025-05-16,2025-04-11,有限会社ヴェリタ,,有限会社,東京都,目黒区,中根２丁目１１番８号,,13,110,1520031,,,2025-04-11,清算の結了等,,,2015-10-05,1,,,,,ヴェリタ,0
389,2020001147381,登記記録の閉鎖等,0,2025-05-16,2025-05-02,東神ホームサービス株式会社,,株式会社,神奈川県,横浜市都筑区,仲町台１丁目２－２８ヨコハマパレス４０１,,14,118,2240041,,,2025-05-02,清算の結了等,,,2022-07-13,1,,,,,トウシンホームサービス,0
394,2020005005420,登記記録の閉鎖等,0,2025-05-16,2025-04-25,特定非営利活動法人暮らしサポートの会福ちゃんパワー,,その他の設立登記法人,神奈川県,横浜市港北区,篠原北２丁目５番７号,,14,109,2220021,,,2025-04-25,清算の結了等,,,2015-10-05,1,,,,,クラシサポートノカイフクチャンパワー,0
396,2021001009522,登記記録の閉鎖等,0,2025-05-16,2025-05-13,株式会社マージエンタープライズ,,株式会社,神奈川県,鎌倉市,鎌倉山２丁目１５番１０号,,14,204,2480031,,,2025-05-13,清算の結了等,,,2015-10-05,1,,,,,マージエンタープライズ,0
413,2030003024586,登記記録の閉鎖等,0,2025-05-16,2025-04-21,Ｅｘｐｅｒａｎｚａ合同会社,,合同会社,埼玉県,上尾市,大字瓦葺１６５１番地１４,,11,219,3620022,,,2025-04-21,清算の結了等,,,2024-06-26,1,,,,,エクスペランザ,0
438,2080001015252,登記記録の閉鎖等,0,2025-05-16,2025-05-13,株式会社増田洋服店,,株式会社,静岡県,焼津市,本町４丁目１３番１３号,,22,212,4250022,,,2025-05-13,清算の結了等,,,2015-10-05,1,,,,,マスダヨウフクテン,0
439,2080003003049,登記記録の閉鎖等,0,2025-05-16,2025-05-13,合同会社ＬＹＮＸ,,合同会社,静岡県,静岡市葵区,瀬名川１丁目６－２３－１,,22,101,4200913,,,2025-05-13,清算の結了等,,,2023-09-07,1,,,,,リンクス,0
446,2100002011925,登記記録の閉鎖等,0,2025-05-16,2025-05-12,有限会社小日向建設,,有限会社,長野県,南佐久郡南牧村,大字野辺山２１７番地８８,,20,305,3841305,,,2025-05-12,清算の結了等,,,2015-10-05,1,,,,,オビナタケンセツ,0
479,2130002035211,登記記録の閉鎖等,0,2025-05-16,2025-05-14,有限会社メルシー,,有限会社,京都府,京都市山科区,東野中井ノ上町１４番地８,,26,110,6078142,,,2025-05-14,合併による解散等,3122001012604,令和７年４月２４日大阪府東大阪市俊徳町四丁目５番２７号日研ハウス工業株式会社（3122001012604）に合併し解散,2015-10-05,1,,,,,メルシー,0
493,2160001018206,登記記録の閉鎖等,0,2025-05-16,2025-05-14,株式会社パインハウス,,株式会社,滋賀県,彦根市,野口町２２６番地,,25,202,5220221,,,2025-05-14,清算の結了等,,,2015-10-05,1,,,,,パインハウス,0
507,2200001012071,登記記録の閉鎖等,0,2025-05-16,2025-05-13,株式会社アグリ・コム,,株式会社,愛知県,一宮市,大和町馬引字焼野８８番地１,,23,203,4910931,,,2025-05-13,合併による解散等,1011701006291,令和７年５月１日東京都江戸川区西小岩一丁目７番６号株式会社アージュホールディングス（1011701006291）に合併し解散,2015-10-05,1,,,,,アグリコム,0
512,2230002009444,登記記録の閉鎖等,0,2025-05-16,2025-05-01,有限会社ヤマダ農産,,有限会社,富山県,砺波市,大窪９７番地の２,,16,208,9391303,,,2025-05-01,合併による解散等,8230005005550,令和７年５月１日富山県南砺市上川崎１３９番地の３株式会社サカタニ農産（8230005005550）に合併し解散,2015-10-05,1,,,,,ヤマダノウサン,0
522,2260002002181,登記記録の閉鎖等,0,2025-05-16,2025-05-07,有限会社岡田機械,,有限会社,岡山県,岡山市東区,西大寺射越２１２番地の１,,33,103,7048121,,,2025-05-07,清算の結了等,,,2015-10-05,1,,,,,オカダキカイ,0
527,2300001008910,登記記録の閉鎖等,0,2025-05-16,2025-05-13,株式会社マルケイ佐賀,,株式会社,佐賀県,鳥栖市,曽根崎町四ツ木１３３８番地１,,41,203,8410025,,,2025-05-13,清算の結了等,,,2015-10-05,1,,,,,マルケイサガ,0
538,2340002021173,登記記録の閉鎖等,0,2025-05-16,2025-05-01,有限会社日生プラント,,有限会社,鹿児島県,大島郡龍郷町,中勝１６２５番地,,46,527,8940106,,,2025-05-01,合併による解散等,3340001010746,令和７年５月１日鹿児島県大島郡龍郷町中勝１６２３番地株式会社丸大産業（3340001010746）に合併し解散,2015-10-05,1,,,,,ニッセイプラント,0
539,2340002028177,登記記録の閉鎖等,0,2025-05-16,2025-05-12,木場酒造有限会社,,有限会社,鹿児島県,曽於市,末吉町諏訪方８８８１番地２,,46,217,8998604,,,2025-05-12,清算の結了等,,,2015-10-05,1,,,,,コバシュゾウ,0
545,2370301003506,登記記録の閉鎖等,0,2025-05-16,2025-04-30,村上左官工業株式会社,,株式会社,宮城県,牡鹿郡女川町,内山１番地６,,04,581,9862249,,,2025-04-30,清算の結了等,,,2015-10-05,1,,,,,ムラカミサカンコウギョウ,0
553,2390001017507,登記記録の閉鎖等,0,2025-05-16,2025-05-07,株式会社ニットオカザキ,,株式会社,山形県,寒河江市,大字米沢５７８番地の２,,06,206,9900525,,,2025-05-07,清算の結了等,,,2024-02-01,1,,,,,ニットオカザキ,0
556,2400002009237,登記記録の閉鎖等,0,2025-05-16,2025-04-28,有限会社菊池建築工芸,,有限会社,岩手県,北上市,和賀町長沼１地割１５３番地,,03,206,0240333,,,2025-04-28,清算の結了等,,,2015-10-05,1,,,,,キクチケンチクコウゲイ,0
561,2420001012396,登記記録の閉鎖等,0,2025-05-16,2025-05-14,総鮮物産株式会社,,株式会社,青森県,むつ市,柳町１丁目８番８号,,02,208,0350031,,,2025-05-14,清算の結了等,,,2015-10-05,1,,,,,ソウセンブッサン,0
570,2470002015039,登記記録の閉鎖等,0,2025-05-16,2025-05-14,有限会社せと通船,,有限会社,香川県,坂出市,築港町１丁目２番３０号,,37,203,7620055,,,2025-05-14,清算の結了等,,,2015-10-05,1,,,,,セトツウセン,0
585,3010101004078,登記記録の閉鎖等,0,2025-05-16,2025-05-09,吉田光機株式会社,,株式会社,山梨県,甲府市,宝１丁目１８番１号ハイツ花丘３０２,,19,201,4000034,,,2025-05-09,清算の結了等,,,2015-10-05,1,,,,,ヨシダコウキ,0
601,3010603007751,登記記録の閉鎖等,0,2025-05-16,2025-05-09,映像の花見合同会社,,合同会社,東京都,江東区,亀戸９丁目１０番１－１０１５号,,13,108,1360071,,,2025-05-09,清算の結了等,,,2019-04-08,1,,,,,エイゾウノハナミ,0
606,3010901003072,登記記録の閉鎖等,0,2025-05-16,2025-05-14,株式会社キッド・アイラック・エンタープライズ,,株式会社,東京都,世田谷区,松原２丁目４３番１１号,,13,112,1560043,,,2025-05-14,清算の結了等,,,2015-10-05,1,,,,,キッドアイラックエンタープライズ,0
607,3011001052885,登記記録の閉鎖等,0,2025-05-16,2025-04-10,株式会社ドルフィンキックス,,株式会社,東京都,目黒区,青葉台１丁目１８番２号,,13,110,1530042,,,2025-04-10,清算の結了等,,,2015-10-05,1,,,,,ドルフィンキックス,0
608,3011001062356,登記記録の閉鎖等,0,2025-05-16,2025-05-01,株式会社ビジュビュー,,株式会社,東京都,渋谷区,千駄ヶ谷５丁目２７番５号,,13,113,1510051,,,2025-05-01,合併による解散等,1010001205447,令和７年５月１日東京都渋谷区千駄ヶ谷五丁目２７番５号株式会社ビューマインド（1010001205447）に合併し解散,2015-10-05,1,,,,,ビジュビュー,0
618,3011002035666,登記記録の閉鎖等,0,2025-05-16,2025-04-24,有限会社クロスポイント,,有限会社,東京都,千代田区,神田佐久間町１丁目８番４号アルテール秋葉原１００８,,13,101,1010025,,,2025-04-24,清算の結了等,,,2015-10-05,1,,,,,クロスポイント,0
636,3011802006073,登記記録の閉鎖等,0,2025-05-16,2025-05-13,有限会社根本商事,,有限会社,東京都,葛飾区,亀有５丁目４７番４号,,13,122,1250061,,,2025-05-13,清算の結了等,,,2015-10-05,1,,,,,ネモトショウジ,0
651,3020002030123,登記記録の閉鎖等,0,2025-05-16,2025-05-13,株式会社三彩社,,株式会社,神奈川県,横浜市南区,永田東３丁目７番１５号,,14,105,2320072,,,2025-05-13,合併による解散等,4180001085663,令和７年４月３０日愛知県稲沢市陸田一里山町５３番地ＡＲＣ株式会社（4180001085663）に合併し解散,2015-10-05,1,,,,,サンサイシャ,0
661,3021003015286,登記記録の閉鎖等,0,2025-05-16,2025-05-01,合同会社フクサン,,合同会社,神奈川県,横須賀市,神明町１番地５２,,14,201,2390832,,,2025-05-01,合併による解散等,4021001078912,令和７年５月１日神奈川県横須賀市神明町１番地５２株式会社ＳＭＴＤ（4021001078912）に合併し解散,2024-11-28,1,,,,,フクサン,0
673,3030001155572,登記記録の閉鎖等,0,2025-05-16,2025-05-09,株式会社武州電工,,株式会社,埼玉県,蓮田市,西新宿２丁目１１６番地,,11,238,3490141,,,2025-05-09,合併による解散等,4130001052619,令和７年５月１日京都市南区上鳥羽南花名町２３番地京都テクニカル株式会社（4130001052619）に合併し解散,2023-08-22,1,,,,,ブシュウデンコウ,0
677,3030003024585,登記記録の閉鎖等,0,2025-05-16,2025-04-21,合同会社ＬＩＦＥＦＵＬＬ,,合同会社,埼玉県,上尾市,大字瓦葺１６５１番地１４,,11,219,3620022,,,2025-04-21,清算の結了等,,,2024-06-26,1,,,,,ライフフル,0
681,3030005018387,登記記録の閉鎖等,0,2025-05-16,2025-05-12,一般社団法人ワンフォーオール,,その他の設立登記法人,埼玉県,戸田市,笹目８丁目１０番２３号,,11,224,3350034,,,2025-05-12,清算の結了等,,,2017-03-15,1,,,,,ワンフォーオール,0
697,3060002030706,登記記録の閉鎖等,0,2025-05-16,2025-05-08,有限会社中沢不動産,,有限会社,栃木県,下野市,石橋１６９番地８,,09,216,3290511,,,2025-05-08,清算の結了等,,,2015-10-05,1,,,,,ナカザワフドウサン,0
715,3100005010535,登記記録の閉鎖等,0,2025-05-16,2025-05-07,特定非営利活動法人トライアド,,その他の設立登記法人,長野県,小県郡青木村,大字村松９５４番地１,,20,349,3861602,,,2025-05-07,清算の結了等,,,2015-10-05,1,,,,,トライアド,0
717,3110001038372,登記記録の閉鎖等,0,2025-05-16,2025-05-01,株式会社Ｇｅｎｕｉｎｅ吉田,,株式会社,新潟県,新潟市中央区,東大通２丁目４番１０号日本生命新潟ビル９Ｆ,,15,103,9500087,,,2025-05-01,清算の結了等,,,2024-05-02,1,,,,,ジェニエンヨシダ,0
746,3120003011277,登記記録の閉鎖等,0,2025-05-16,2025-04-30,ハングリー合同会社,,合同会社,大阪府,大阪市北区,天神橋３丁目７番地１３ブラーヴォ扇町１階,,27,127,5300041,,,2025-04-30,清算の結了等,,,2016-01-06,1,,,,,ハングリー,0
749,3120003024139,登記記録の閉鎖等,0,2025-05-16,2025-05-01,合同会社ＤＡＩＳＵＫＥ,,合同会社,大阪府,大阪市中央区,谷町９丁目５番１６号ウエムラバロンヴェールビル２０１号,,27,128,5420012,,,2025-05-01,清算の結了等,,,2023-05-24,1,,,,,ダイスケ,0
753,3120102019898,登記記録の閉鎖等,0,2025-05-16,2025-05-09,有限会社ショービ,,有限会社,大阪府,河内長野市,西之山町１６番１９号,,27,216,5860024,,,2025-05-09,清算の結了等,,,2015-10-05,1,,,,,ショービ,0
755,3120901002872,登記記録の閉鎖等,0,2025-05-16,2025-05-09,大阪住重建機株式会社,,株式会社,大阪府,高槻市,柱本５丁目１番６号,,27,207,5690844,,,2025-05-09,合併による解散等,2010701012943,令和７年４月１日東京都品川区大崎二丁目１番１号住友建機販売株式会社（2010701012943）に合併し解散,2015-10-05,1,,,,,,0
767,3130003005212,登記記録の閉鎖等,0,2025-05-16,2025-05-13,合同会社月沈原,,合同会社,京都府,京都市上京区,西橋詰町２７７番地,,26,102,6028138,,,2025-05-13,清算の結了等,,,2017-10-04,1,,,,,ゲッチンゲン,0
777,3150001018321,登記記録の閉鎖等,0,2025-05-16,2025-05-02,ヒカリテクノサポート株式会社,,株式会社,奈良県,天理市,荒蒔町１８７番地１,,29,204,6320082,,,2025-05-02,清算の結了等,,,2015-10-05,1,,,,,ヒカリテクノサポート,0
780,3180001005894,登記記録の閉鎖等,0,2025-05-16,2025-05-12,ワールドメディアビジネス株式会社,,株式会社,愛知県,名古屋市名東区,本郷３丁目１４４番地,,23,115,4650024,,,2025-05-12,合併による解散等,7180001068054,令和７年５月１日愛知県長久手市城屋敷８０１番地株式会社ティーエムホールディングス（7180001068054）に合併し解散,2015-10-05,1,,,,,ワールドメディアビジネス,0
781,3180001094475,登記記録の閉鎖等,0,2025-05-16,2025-05-12,日鉄ビジネスサービス東海株式会社,,株式会社,愛知県,東海市,東海町４丁目７０番地の１,,23,222,4760015,,,2025-05-12,合併による解散等,8040001052104,令和７年４月１日千葉県木更津市築地１番１日鉄ビジネスサービス株式会社（8040001052104）に合併し解散,2015-10-05,1,,,,,ニッテツビジネスサービストウカイ,0
792,3190002016691,登記記録の閉鎖等,0,2025-05-16,2025-05-09,有限会社昭榮製作所,,有限会社,三重県,桑名市,大字星川６９６番地の１,,24,205,5110912,,,2025-05-09,清算の結了等,,,2015-10-05,1,,,,,,0
793,3190005006608,登記記録の閉鎖等,0,2025-05-16,2025-05-07,医療法人垂水会,,その他の設立登記法人,三重県,松阪市,新町９４６番地の１,,24,204,5150075,,,2025-05-07,清算の結了等,,,2015-10-05,1,,,,,タルミカイ,0
797,3210005000789,登記記録の閉鎖等,0,2025-05-16,2025-05-13,福井県花商協同組合,,その他の設立登記法人,福井県,福井市,大和田１丁目１０１番地,,18,201,9100836,,,2025-05-13,清算の結了等,,,2015-10-05,1,,,,,フクイケンカショウ,0
803,3240002042880,登記記録の閉鎖等,0,2025-05-16,2025-05-14,有限会社プラスター,,有限会社,広島県,福山市,沖野上町２丁目６番２３号,,34,207,7200825,,,2025-05-14,清算の結了等,,,2015-10-05,1,,,,,プラスター,0
810,3260001024977,登記記録の閉鎖等,0,2025-05-16,2025-04-30,株式会社ディーオン,,株式会社,岡山県,岡山市北区,平野９２０番地,,33,101,7010151,,,2025-04-30,清算の結了等,,,2015-10-05,1,,,,,ディーオン,0
814,3260003003574,登記記録の閉鎖等,0,2025-05-16,2025-04-30,合同会社ヒロカピ,,合同会社,岡山県,倉敷市,上東１０２７番地１,,33,202,7010111,,,2025-04-30,清算の結了等,,,2021-06-04,1,,,,,ヒロカピ,0
821,3290801022772,登記記録の閉鎖等,0,2025-05-16,2025-05-14,株式会社ピュアライト,,株式会社,福岡県,行橋市,泉中央２丁目６番２５号,,40,213,8240034,,,2025-05-14,清算の結了等,,,2016-07-27,1,,,,,ピュアライト,0
825,3330001004831,登記記録の閉鎖等,0,2025-05-16,2025-04-28,株式会社陽光測量設計,,株式会社,熊本県,熊本市東区,戸島西１丁目１７番３９号,,43,102,8618043,,,2025-04-28,清算の結了等,,,2015-10-05,1,,,,,ヨウコウソクリョウセッケイ,0
837,3370202000080,登記記録の閉鎖等,0,2025-05-16,2025-04-30,有限会社イシモリ,,有限会社,宮城県,大崎市,古川台町１１番１号,,04,215,9896163,,,2025-04-30,清算の結了等,,,2015-10-05,1,,,,,イシモリ,0
838,3380001010908,登記記録の閉鎖等,0,2025-05-16,2025-05-08,和知設備工業株式会社,,株式会社,福島県,白河市,みさか２丁目４８番地３５,,07,205,9610836,,,2025-05-08,清算の結了等,,,2015-10-05,1,,,,,ワチセツビコウギョウ,0
842,3390001002276,登記記録の閉鎖等,0,2025-05-16,2025-04-23,郵船ロジスティクス東北株式会社,,株式会社,山形県,山形市,大字漆山字大段１８５０番地２３,,06,201,9902161,,,2025-04-23,合併による解散等,4010401090222,令和７年４月１日東京都品川区東品川四丁目１２番４号郵船ロジスティクス株式会社（4010401090222）に合併し解散,2015-10-05,1,,,,,ユウセンロジスティクストウホク,0
843,3390003000724,登記記録の閉鎖等,0,2025-05-16,2025-05-07,合同会社いぶき,,合同会社,山形県,新庄市,石川町２番３号,,06,205,9960086,,,2025-05-07,清算の結了等,,,2015-10-05,1,,,,,イブキ,0
873,4010005034939,登記記録の閉鎖等,0,2025-05-16,2025-05-14,ＲＢソーラーコーラルホールディングス一般社団法人,,その他の設立登記法人,東京都,中央区,八丁堀４丁目２番１０号ＡＯＪ税理士法人内,,13,102,1040032,,,2025-05-14,清算の結了等,,,2022-04-26,1,,,,,アールビーソーラーコーラルホールディングス,0
884,4010402006466,登記記録の閉鎖等,0,2025-05-16,2025-05-14,有限会社新網商事,,有限会社,東京都,世田谷区,給田１丁目１３番１１号,,13,112,1570064,,,2025-05-14,清算の結了等,,,2015-10-05,1,,,,,シンアミショウジ,0
894,4010601013957,登記記録の閉鎖等,0,2025-05-16,2025-05-08,成毛製工株式会社,,株式会社,東京都,墨田区,京島１丁目１番２－８０１号,,13,107,1310046,,,2025-05-08,清算の結了等,,,2015-10-05,1,,,,,ナルケセイコウ,0
906,4010903005248,登記記録の閉鎖等,0,2025-05-16,2025-05-14,いてよし合同会社,,合同会社,東京都,世田谷区,若林４丁目２５－１４コーナー松陰２Ｆ,,13,112,1540023,,,2025-05-14,清算の結了等,,,2019-10-02,1,,,,,イテヨシ,0
908,4011001110568,登記記録の閉鎖等,0,2025-05-16,2025-04-11,ＢｏｔＥｇｇ株式会社,,株式会社,東京都,目黒区,碑文谷５丁目２０番７号プチメゾン学芸大３０２,,13,110,1520003,,,2025-04-11,清算の結了等,,,2016-04-21,1,,,,,ボットエッグ,0
939,4011501007504,登記記録の閉鎖等,0,2025-05-16,2025-05-12,株式会社田中工務店,,株式会社,東京都,荒川区,町屋１丁目２７番１６号,,13,118,1160001,,,2025-05-12,清算の結了等,,,2015-10-05,1,,,,,,0
940,4011601016009,登記記録の閉鎖等,0,2025-05-16,2025-05-12,株式会社ＳＡＫＵＲＡパワー,,株式会社,東京都,西東京市,下保谷２丁目１－１,,13,229,2020004,,,2025-05-12,合併による解散等,5290001049821,令和７年４月１日福岡県久留米市三潴町田川３２番地３ベストアメニティ株式会社（5290001049821）に合併し解散,2015-10-05,1,,,,,サクラパワー,0
944,4011801001297,登記記録の閉鎖等,0,2025-05-16,2025-05-12,株式会社黒田商店,,株式会社,東京都,葛飾区,白鳥３丁目１４番２号,,13,122,1250063,,,2025-05-12,清算の結了等,,,2015-10-05,1,,,,,クロダショウテン,0
949,4012401018054,登記記録の閉鎖等,0,2025-05-16,2025-05-12,株式会社センチネル,,株式会社,東京都,武蔵野市,吉祥寺本町１丁目１１番３０号,,13,203,1800004,,,2025-05-12,清算の結了等,,,2015-10-05,1,,,,,センチネル,0
982,4030001120815,登記記録の閉鎖等,0,2025-05-16,2025-05-13,株式会社ダブルストック,,株式会社,埼玉県,八潮市,大瀬４丁目３番地４,,11,234,3400822,,,2025-05-13,清算の結了等,,,2017-06-13,1,,,,,ダブルストック,0
997,4040003014171,登記記録の閉鎖等,0,2025-05-16,2025-04-28,合同会社クレア,,合同会社,千葉県,千葉市中央区,新宿１丁目５番１号シャトーライフ千葉Ｉ２０１号,,12,101,2600021,,,2025-04-28,清算の結了等,,,2019-10-08,1,,,,,クレア,0
1006,4050003008445,登記記録の閉鎖等,0,2025-05-16,2025-05-09,合同会社プランディエスト,,合同会社,茨城県,水戸市,塩崎町３９５番地,,08,201,3111114,,,2025-05-09,清算の結了等,,,2024-06-12,1,,,,,プランディエスト,0
1013,4060002029045,登記記録の閉鎖等,0,2025-05-16,2025-05-07,有限会社日興電設,,有限会社,栃木県,小山市,大字小薬３４５番地２,,09,208,3230008,,,2025-05-07,清算の結了等,,,2015-10-05,1,,,,,ニッコウデンセツ,0
1015,4070001026488,登記記録の閉鎖等,0,2025-05-16,2025-05-12,株式会社フジエレック,,株式会社,群馬県,高崎市,棟高町５９７番地,,10,202,3703521,,,2025-05-12,清算の結了等,,,2015-10-05,1,,,,,フジエレック,0
1018,4080002002990,登記記録の閉鎖等,0,2025-05-16,2025-05-09,有限会社スター塗装,,有限会社,静岡県,静岡市葵区,西千代田町２３番３－１０２号,,22,101,4200847,,,2025-05-09,清算の結了等,,,2015-10-05,1,,,,,スタートソウ,0
1023,4080402008415,登記記録の閉鎖等,0,2025-05-16,2025-05-12,有限会社谷野板金製作所,,有限会社,静岡県,浜松市中央区,篠原町２３０６９番地,,22,138,4310201,,,2025-05-12,清算の結了等,,,2015-10-05,1,,,,,ヤノバンキンセイサクショ,0
1031,4100002005842,登記記録の閉鎖等,0,2025-05-16,2025-05-13,有限会社羽入田農機,,有限会社,長野県,上水内郡飯綱町,大字普光寺７５番地,,20,590,3891206,,,2025-05-13,清算の結了等,,,2015-10-05,1,,,,,ハニュウダノウキ,0
1051,4120003024187,登記記録の閉鎖等,0,2025-05-16,2025-05-01,合同会社東原,,合同会社,大阪府,大阪市淀川区,西中島３丁目１９番２号三ツ矢ビル２０３号,,27,123,5320011,,,2025-05-01,清算の結了等,,,2023-05-31,1,,,,,ヒガシハラ,0
1068,4140001011012,登記記録の閉鎖等,0,2025-05-16,2025-05-14,マルエス三生株式会社,,株式会社,兵庫県,神戸市中央区,元町通３丁目９番７号,,28,110,6500022,,,2025-05-14,清算の結了等,,,2015-10-05,1,,,,,,0
1070,4140001022496,登記記録の閉鎖等,0,2025-05-16,2025-05-12,株式会社ジェイスタッフ,,株式会社,兵庫県,神戸市東灘区,住吉山手３丁目７番３号,,28,101,6580063,,,2025-05-12,清算の結了等,,,2015-10-05,1,,,,,ジェイスタッフ,0
1071,4140001068936,登記記録の閉鎖等,0,2025-05-16,2025-05-12,株式会社三和機械製作所,,株式会社,兵庫県,芦屋市,春日町１２番７号,,28,206,6590021,,,2025-05-12,清算の結了等,,,2015-10-05,1,,,,,サンワキカイセイサクショ,0
1081,4140002040159,登記記録の閉鎖等,0,2025-05-16,2025-05-12,有限会社エトワール,,有限会社,兵庫県,尼崎市,東園田町５丁目４１番地,,28,202,6610953,,,2025-05-12,清算の結了等,,,2015-10-05,1,,,,,エトワール,0
1104,4180003026731,登記記録の閉鎖等,0,2025-05-16,2025-05-12,合同会社１６１６ＫＡ．不動産,,合同会社,愛知県,小牧市,間々本町１１３,,23,219,4850048,,,2025-05-12,清算の結了等,,,2024-05-02,1,,,,,イロイロケーエーフドウサン,0
1107,4180301018463,登記記録の閉鎖等,0,2025-05-16,2025-05-14,伸立電機株式会社,,株式会社,愛知県,豊田市,上丘町長根６２番地,,23,211,4730931,,,2025-05-14,合併による解散等,8190001005575,令和７年５月１日三重県鈴鹿市高岡町６５４番地の１株式会社鈴鹿（8190001005575）に合併し解散,2015-10-05,1,,,,,シンリツデンキ,0
1113,4220001005781,登記記録の閉鎖等,0,2025-05-16,2025-05-14,株式会社平和測量設計事務所,,株式会社,石川県,金沢市,黒田１丁目８８番地,,17,201,9218051,,,2025-05-14,清算の結了等,,,2015-10-05,1,,,,,ヘイワソクリョウセッケイジムショ,0
1114,4220001011235,登記記録の閉鎖等,0,2025-05-16,2025-05-14,株式会社ロココ,,株式会社,石川県,金沢市,大額２丁目３６番地,,17,201,9218147,,,2025-05-14,清算の結了等,,,2015-10-05,1,,,,,ロココ,0
1118,4240003002263,登記記録の閉鎖等,0,2025-05-16,2025-05-08,合同会社ロハススタイル,,合同会社,広島県,広島市安佐北区,落合２丁目３０番１８号,,34,106,7391731,,,2025-05-08,清算の結了等,,,2015-10-05,1,,,,,ロハススタイル,0
1125,4270002008639,登記記録の閉鎖等,0,2025-05-16,2025-05-14,有限会社長谷川モータース,,有限会社,鳥取県,日野郡日南町,湯河３３７番地の２,,31,401,6895226,,,2025-05-14,清算の結了等,,,2015-10-05,1,,,,,ハセガワモータース,0
1139,4340001023268,登記記録の閉鎖等,0,2025-05-16,2025-05-08,株式会社奄美ハナハナ,,株式会社,鹿児島県,大島郡大和村,大字大棚字石川乙１２３３番地３５,,46,523,8943106,,,2025-05-08,合併による解散等,1012301003051,令和７年４月１日東京都町田市鶴間五丁目６番２２号株式会社グレイ美術（1012301003051）に合併し解散,2020-11-17,1,,,,,アマミハナハナ,0
1140,4350001018234,登記記録の閉鎖等,0,2025-05-16,2025-05-09,Ｂａｖｉ　Ｊａｐａｎ株式会社,,株式会社,宮崎県,えびの市,大字亀沢２８０番地３,,45,209,8894155,,,2025-05-09,清算の結了等,,,2023-03-16,1,,,,,バービージャパン,0
1153,4390001017793,登記記録の閉鎖等,0,2025-05-16,2025-05-07,未羽ネットサービス株式会社,,株式会社,山形県,上山市,旭町２丁目９番３１号,,06,207,9993106,,,2025-05-07,清算の結了等,,,2024-11-14,1,,,,,ミウネットサービス,0
1163,4430005010559,登記記録の閉鎖等,0,2025-05-16,2025-05-07,一般財団法人学際数学研究所,,その他の設立登記法人,北海道,札幌市白石区,南郷通１９丁目北２番２０－４０２号,,01,104,0030023,,,2025-05-07,清算の結了等,,,2015-10-05,1,,,,,ガクサイスウガクケンキュウジョ,0
1172,5010001030338,登記記録の閉鎖等,0,2025-05-16,2025-04-25,株式会社峰沢商工,,株式会社,東京都,千代田区,岩本町２丁目６番１３号,,13,101,1010032,,,2025-04-25,清算の結了等,,,2015-10-05,1,,,,,ミネサワショウコウ,0
1173,5010001036954,登記記録の閉鎖等,0,2025-05-16,2025-04-28,株式会社イースト,,株式会社,千葉県,船橋市,藤原３丁目１８番２３号,,12,204,2730047,,,2025-04-28,清算の結了等,,,2015-10-05,1,,,,,イースト,0
1176,5010001108423,登記記録の閉鎖等,0,2025-05-16,2025-04-23,株式会社グランディーネ,,株式会社,東京都,中央区,京橋２丁目５番１７号,,13,102,1040031,,,2025-04-23,清算の結了等,,,2015-10-05,1,,,,,グランディーネ,0
1177,5010001168293,登記記録の閉鎖等,0,2025-05-16,2025-05-13,株式会社Ｆ．Ｇ．Ｌ,,株式会社,埼玉県,狭山市,入間川２丁目２１番２６号,,11,215,3501305,,,2025-05-13,清算の結了等,,,2015-10-05,1,,,,,エフジーエル,0
1185,5010005007448,登記記録の閉鎖等,0,2025-05-16,2025-05-12,特定非営利活動法人まわり住民の会,,その他の設立登記法人,東京都,文京区,本郷５丁目１９番４号,,13,105,1130033,,,2025-05-12,清算の結了等,,,2015-10-05,1,,,,,マワリジュウミンノカイ,0
1211,5011001073392,登記記録の閉鎖等,0,2025-05-16,2025-04-25,株式会社マイペース,,株式会社,東京都,文京区,千駄木５丁目２７番１号,,13,105,1130022,,,2025-04-25,清算の結了等,,,2015-10-05,1,,,,,マイペース,0
1230,5011802000108,登記記録の閉鎖等,0,2025-05-16,2025-05-12,有限会社青砥製作所,,有限会社,東京都,葛飾区,青戸１丁目１３番１３号,,13,122,1250062,,,2025-05-12,清算の結了等,,,2015-10-05,1,,,,,アオトセイサクジョ,0
1233,5012801010106,登記記録の閉鎖等,0,2025-05-16,2025-05-07,株式会社リペア再生サービス,,株式会社,東京都,昭島市,宮沢町４９４－１１－１１１３号,,13,207,1960024,,,2025-05-07,清算の結了等,,,2015-10-05,1,,,,,リペアサイセイサービス,0
1245,5021001068581,登記記録の閉鎖等,0,2025-05-16,2025-05-13,貞屋株式会社,,株式会社,神奈川県,茅ヶ崎市,白浜町６番６号,,14,207,2530036,,,2025-05-13,清算の結了等,,,2019-11-12,1,,,,,サダヤ,0
1252,5021003009872,登記記録の閉鎖等,0,2025-05-16,2025-05-15,合同会社ＲＥＴ,,合同会社,神奈川県,秦野市,落合５６７番地の２,,14,211,2570025,,,2025-05-15,清算の結了等,,,2020-11-27,1,,,,,レト,0
1262,5030001089224,登記記録の閉鎖等,0,2025-05-16,2025-05-13,新堀不動産管理株式会社,,株式会社,埼玉県,大里郡寄居町,大字富田３２１５番地,,11,408,3691216,,,2025-05-13,清算の結了等,,,2015-10-05,1,,,,,,0
1294,5080401026821,登記記録の閉鎖等,0,2025-05-16,2025-05-12,斉藤配管株式会社,,株式会社,静岡県,浜松市中央区,三島町７３９番地の５,,22,138,4300853,,,2025-05-12,清算の結了等,,,2023-11-02,1,,,,,サイトウハイカン,0
1298,5090001017170,登記記録の閉鎖等,0,2025-05-16,2025-05-09,株式会社ＥＡＳＹ‐ＮＥＴ,,株式会社,愛知県,名古屋市西区,上名古屋３丁目２３－１７,,23,104,4510025,,,2025-05-09,清算の結了等,,,2021-09-01,1,,,,,イージーネット,0
1307,5100005010590,登記記録の閉鎖等,0,2025-05-16,2025-05-12,特定非営利活動法人虔十公園林の會,,その他の設立登記法人,長野県,小諸市,大字山浦５１７９番地１茶房読書の森内,,20,208,3840807,,,2025-05-12,清算の結了等,,,2015-10-05,1,,,,,ケンジュウコウエンリンノカイ,0
1314,5120001064291,登記記録の閉鎖等,0,2025-05-16,2025-05-08,株式会社サン企画,,株式会社,大阪府,大阪市北区,中津３丁目３５番１６－３０３号,,27,127,5310071,,,2025-05-08,清算の結了等,,,2015-10-05,1,,,,,サンキカク,0
1316,5120001116836,登記記録の閉鎖等,0,2025-05-16,2025-05-08,株式会社ＳＡＫＬＩＫＩＴ,,株式会社,大阪府,大阪市西区,江戸堀２丁目１－１,,27,106,5500002,,,2025-05-08,清算の結了等,,,2015-10-05,1,,,,,サクライキ,0
1346,5122001003428,登記記録の閉鎖等,0,2025-05-16,2025-05-15,昭栄産業株式会社,,株式会社,大阪府,東大阪市,玉串町東３丁目３番８７号,,27,227,5780932,,,2025-05-15,清算の結了等,,,2015-10-05,1,,,,,ショウエイサンギョウ,0
1355,5140001059240,登記記録の閉鎖等,0,2025-05-16,2025-05-12,株式会社ジエビツク,,株式会社,兵庫県,姫路市,青山北１丁目１０番１５号,,28,201,6712221,,,2025-05-12,清算の結了等,,,2015-10-05,1,,,,,ジエビツク,0
1357,5140001093140,登記記録の閉鎖等,0,2025-05-16,2025-05-08,株式会社ラルーチェ,,株式会社,兵庫県,神戸市兵庫区,下沢通６丁目１番１５－５０１号,,28,105,6520047,,,2025-05-08,清算の結了等,,,2015-10-05,1,,,,,ラルーチェ,0
1369,5150001019111,登記記録の閉鎖等,0,2025-05-16,2025-05-14,株式会社ウエムラテック,,株式会社,奈良県,生駒郡安堵町,大字東安堵１３５５番地,,29,345,6391061,,,2025-05-14,清算の結了等,,,2015-10-05,1,,,,,ウエムラテック,0
1371,5160005010874,登記記録の閉鎖等,0,2025-05-16,2025-05-12,一般社団法人医局にっぽん,,その他の設立登記法人,滋賀県,彦根市,稲部町２６３番地７,,25,202,5211113,,,2025-05-12,清算の結了等,,,2020-11-04,1,,,,,イキョクニッポン,0
1372,5180001063973,登記記録の閉鎖等,0,2025-05-16,2025-05-12,株式会社アイフードマテリアル,,株式会社,愛知県,名古屋市千種区,北千種２丁目３番５号,,23,101,4640083,,,2025-05-12,清算の結了等,,,2015-10-05,1,,,,,アイフードマテリアル,0
1373,5180001114628,登記記録の閉鎖等,0,2025-05-16,2025-05-09,株式会社イーネクスト,,株式会社,愛知県,春日井市,美濃町２丁目３９番地２,,23,206,4860917,,,2025-05-09,清算の結了等,,,2015-10-05,1,,,,,イーネクスト,0
1380,5180002053189,登記記録の閉鎖等,0,2025-05-16,2025-05-12,有限会社えいざん,,有限会社,愛知県,清須市,西枇杷島町南松原１３番地１,,23,233,4520053,,,2025-05-12,清算の結了等,,,2015-10-05,1,,,,,エイザン,0
1406,5240002014688,登記記録の閉鎖等,0,2025-05-16,2025-05-15,古江建鋼有限会社,,有限会社,広島県,広島市西区,古江西町２０番２号,,34,104,7330874,,,2025-05-15,清算の結了等,,,2015-10-05,1,,,,,フルエケンコウ,0
1454,5390002011308,登記記録の閉鎖等,0,2025-05-16,2025-05-08,有限会社井上印刷,,有限会社,山形県,最上郡最上町,大字向町７３５番地の３,,06,362,9996101,,,2025-05-08,清算の結了等,,,2015-10-05,1,,,,,イノウエインサツ,0
1466,5440001007425,登記記録の閉鎖等,0,2025-05-16,2025-05-14,株式会社Ｄａｉｍｏｎｓスタジオ,,株式会社,北海道,函館市,松風町４番２号,,01,202,0400035,,,2025-05-14,清算の結了等,,,2015-10-05,1,,,,,ダイモンズスタジオ,0
1478,6010001054071,登記記録の閉鎖等,0,2025-05-16,2025-05-12,株式会社ノーブル,,株式会社,静岡県,裾野市,千福が丘４丁目１１番１８,,22,220,4101115,,,2025-05-12,清算の結了等,,,2015-10-05,1,,,,,ノーブル,0
1479,6010001145333,登記記録の閉鎖等,0,2025-05-16,2025-04-09,株式会社アイレップ,,株式会社,東京都,渋谷区,恵比寿４丁目２０番３号,,13,113,1500013,,,2025-04-09,合併による解散等,3011001113101,令和７年４月１日東京都渋谷区恵比寿四丁目２０番３号株式会社Ｈａｋｕｈｏｄｏ　ＤＹ　ＯＮＥ（3011001113101）に合併し解散,2015-10-05,1,,,,,アイレップ,0
1482,6010001203347,登記記録の閉鎖等,0,2025-05-16,2025-05-13,株式会社ＮＧＴＧ０１,,株式会社,東京都,渋谷区,渋谷１丁目３－１８ビラ・モデルナＡ４０２,,13,113,1500002,,,2025-05-13,合併による解散等,1030001071094,令和７年４月１日埼玉県東松山市大字下野本１４１４番地株式会社豊島製作所（1030001071094）に合併し解散,2019-08-15,1,,,,,エヌジーティジーゼロイチ,0
1495,6010005031562,登記記録の閉鎖等,0,2025-05-16,2025-05-14,Ａｌｐｈａ　Ｉｎｖｅｓｔｍｅｎｔ　Ｊａｐａｎ特定目的会社,,その他の設立登記法人,東京都,千代田区,丸の内１丁目４番１号東京共同会計事務所内,,13,101,1000005,,,2025-05-14,清算の結了等,,,2020-03-11,1,,,,,アルファインベストメントジャパン,0
1503,6010502017527,登記記録の閉鎖等,0,2025-05-16,2025-04-24,有限会社ライズ,,有限会社,東京都,中央区,築地６丁目２４番３号,,13,102,1040045,,,2025-04-24,清算の結了等,,,2015-10-05,1,,,,,ライズ,0
1506,6010602012832,登記記録の閉鎖等,0,2025-05-16,2025-05-12,有限会社田中抜型製作所,,有限会社,東京都,墨田区,堤通１丁目６番４号,,13,107,1310034,,,2025-05-12,清算の結了等,,,2015-10-05,1,,,,,タナカヌキガタセイサクジョ,0
1554,6020002094603,登記記録の閉鎖等,0,2025-05-16,2025-05-07,有限会社田島創研,,有限会社,神奈川県,川崎市麻生区,王禅寺東２丁目１２番１１号,,14,137,2150018,,,2025-05-07,清算の結了等,,,2015-10-05,1,,,,,タジマソウケン,0
1559,6021001009270,登記記録の閉鎖等,0,2025-05-16,2025-05-08,株式会社爽画廊,,株式会社,神奈川県,鎌倉市,二階堂３５８番地１,,14,204,2480002,,,2025-05-08,清算の結了等,,,2015-10-05,1,,,,,ソウガロウ,0
1586,6040001122602,登記記録の閉鎖等,0,2025-05-16,2025-04-28,株式会社ＴＴＥ,,株式会社,千葉県,我孫子市,天王台１丁目２０－９中村ビル３階,,12,222,2701143,,,2025-04-28,清算の結了等,,,2022-03-14,1,,,,,ティーティーイー,0
1601,6060002024201,登記記録の閉鎖等,0,2025-05-16,2025-05-09,日商不動産有限会社,,有限会社,栃木県,那須塩原市,石林８８８番地２０,,09,213,3292711,,,2025-05-09,清算の結了等,,,2015-10-05,1,,,,,ニッショウフドウサン,0
1604,6080002017822,登記記録の閉鎖等,0,2025-05-16,2025-05-13,有限会社鳶片山,,有限会社,静岡県,藤枝市,鬼島２６６番地,,22,214,4260008,,,2025-05-13,清算の結了等,,,2015-10-05,1,,,,,トビカタヤマ,0
1618,6120001030243,登記記録の閉鎖等,0,2025-05-16,2025-05-07,朝日自動車株式会社,,株式会社,大阪府,大阪市住之江区,南港東３丁目１番２７号,,27,125,5590031,,,2025-05-07,清算の結了等,,,2015-10-05,1,,,,,アサヒジドウシャ,0
1639,6120005006017,登記記録の閉鎖等,0,2025-05-16,2025-05-07,タクシー振興事業協同組合,,その他の設立登記法人,大阪府,大阪市住之江区,南港東３丁目１番２７号,,27,125,5590031,,,2025-05-07,清算の結了等,,,2015-10-05,1,,,,,タクシーシンコウ,0
1673,6180002065092,登記記録の閉鎖等,0,2025-05-16,2025-05-12,有限会社石井塗装,,有限会社,愛知県,春日井市,鳥居松町２丁目１１１番地の１,,23,206,4860844,,,2025-05-12,清算の結了等,,,2015-10-05,1,,,,,イシイトソウ,0
1690,6220002006372,登記記録の閉鎖等,0,2025-05-16,2025-05-13,有限会社ローヤルテツク,,有限会社,石川県,金沢市,松村２丁目３４４番地,,17,201,9200348,,,2025-05-13,清算の結了等,,,2015-10-05,1,,,,,ローヤルテツク,0
1695,6240002012856,登記記録の閉鎖等,0,2025-05-16,2025-05-14,有限会社広島ゴルフガーデン,,有限会社,広島県,広島市安佐南区,相田１丁目１７番８号,,34,105,7310141,,,2025-05-14,清算の結了等,,,2015-10-05,1,,,,,ヒロシマゴルフガーデン,0
1697,6240002036657,登記記録の閉鎖等,0,2025-05-16,2025-05-02,有限会社竹内モータース,,有限会社,広島県,廿日市市,桜尾１丁目２番６号,,34,213,7380004,,,2025-05-02,清算の結了等,,,2015-10-05,1,,,,,,0
1699,6280002006193,登記記録の閉鎖等,0,2025-05-16,2025-05-15,有限会社吉村酒店,,有限会社,島根県,出雲市,今市町２７１番地５,,32,203,6930001,,,2025-05-15,清算の結了等,,,2015-10-05,1,,,,,ヨシムラサケテン,0
1715,6310001008179,登記記録の閉鎖等,0,2025-05-16,2025-05-14,株式会社ミヤタ石産,,株式会社,長崎県,諫早市,宗方町６６８番地１,,42,204,8540035,,,2025-05-14,清算の結了等,,,2015-10-05,1,,,,,ミヤタセキサン,0
1718,6320201000265,登記記録の閉鎖等,0,2025-05-16,2025-05-02,株式会社明和企画,,株式会社,大分県,津久見市,中央町９番１号,,44,207,8792441,,,2025-05-02,合併による解散等,9320001020700,令和７年５月１日大分市青崎一丁目２番３６号龍南ホールディングス株式会社（9320001020700）に合併し解散,2015-10-05,1,,,,,メイワキカク,0
1727,6360001004842,登記記録の閉鎖等,0,2025-05-16,2025-05-01,株式会社アイディーズ,,株式会社,沖縄県,豊見城市,字豊崎３番地７１,,47,212,9010225,,,2025-05-01,合併による解散等,1360001022254,令和７年５月１日沖縄県豊見城市字豊崎３番地７１マギー株式会社（1360001022254）に合併し解散,2015-10-05,1,,,,,アイディーズ,0
1745,6400002007146,登記記録の閉鎖等,0,2025-05-16,2025-04-30,有限会社長谷川工業,,有限会社,岩手県,紫波郡紫波町,稲藤字太田元２４番地３,,03,321,0283451,,,2025-04-30,清算の結了等,,,2015-10-05,1,,,,,ハセガワコウギョウ,0
1749,6470002014482,登記記録の閉鎖等,0,2025-05-16,2025-05-13,有限会社フレンズ,,有限会社,香川県,丸亀市,綾歌町岡田西１５６６番地２,,37,202,7612403,,,2025-05-13,清算の結了等,,,2015-10-05,1,,,,,フレンズ,0
1755,7010001010239,登記記録の閉鎖等,0,2025-05-16,2025-04-24,株式会社アメニティー建築研究所,,株式会社,東京都,文京区,小石川５丁目２４番３号,,13,105,1120002,,,2025-04-24,清算の結了等,,,2015-10-05,1,,,,,アメニティーケンチクケンキュウジョ,0
1756,7010001079373,登記記録の閉鎖等,0,2025-05-16,2025-05-13,東京厚板販売リース株式会社,,株式会社,東京都,中央区,新川１丁目２番１２号,,13,102,1040033,,,2025-05-13,合併による解散等,1011701005260,令和７年５月１日東京都江戸川区松江七丁目２４番１７号鐵商株式会社（1011701005260）に合併し解散,2015-10-05,1,,,,,トウキョウアツイタハンバイリース,0
1782,7010601057299,登記記録の閉鎖等,0,2025-05-16,2025-05-14,株式会社Ｆ２Ｆ,,株式会社,東京都,江東区,豊洲６丁目２番３１号ＳＫＹＺＴＯＷＥＲ＆ＧＡＲＤＥＮ４１２６,,13,108,1350061,,,2025-05-14,清算の結了等,,,2020-05-11,1,,,,,エフトゥエフ,0
1805,7011402017772,登記記録の閉鎖等,0,2025-05-16,2025-05-14,有限会社多良福,,有限会社,東京都,板橋区,泉町３８番４号,,13,119,1740055,,,2025-05-14,清算の結了等,,,2015-10-05,1,,,,,タラフク,0
1811,7011605001706,登記記録の閉鎖等,0,2025-05-16,2025-05-08,特定非営利活動法人健康づくりの食育支援隊,,その他の設立登記法人,東京都,練馬区,富士見台３丁目６０番６号,,13,120,1770034,,,2025-05-08,清算の結了等,,,2015-10-05,1,,,,,ケンコウヅクリノショクイクシエンタイ,0
1823,7020002052205,登記記録の閉鎖等,0,2025-05-16,2025-05-13,有限会社マエザワ工業,,有限会社,神奈川県,横浜市港北区,日吉本町６丁目３４番８号,,14,109,2230062,,,2025-05-13,清算の結了等,,,2015-10-05,1,,,,,マエザワ,0
1835,7021002021546,登記記録の閉鎖等,0,2025-05-16,2025-05-14,有限会社清洗舎,,有限会社,神奈川県,相模原市中央区,上溝２丁目４番１９号,,14,152,2520243,,,2025-05-14,清算の結了等,,,2015-10-05,1,,,,,セイセンシャ,0
1851,7030002003421,登記記録の閉鎖等,0,2025-05-16,2025-05-09,有限会社カネタ,,有限会社,埼玉県,さいたま市桜区,町谷４丁目２６番３号,,11,106,3380836,,,2025-05-09,清算の結了等,,,2015-10-05,1,,,,,カネタ,0
1858,7040001132237,登記記録の閉鎖等,0,2025-05-16,2025-04-28,ＰＭ　ＨＡＲＭＯＮＹ株式会社,,株式会社,千葉県,千葉市花見川区,幕張町５丁目３７３番地８,,12,102,2620032,,,2025-04-28,清算の結了等,,,2024-02-16,1,,,,,ピーエムハーモニー,0
1866,7050002025109,登記記録の閉鎖等,0,2025-05-16,2025-05-08,有限会社清水イー・ライフプランニング,,有限会社,茨城県,古河市,古河５６６番地の５,,08,204,3060016,,,2025-05-08,清算の結了等,,,2015-10-05,1,,,,,シミズイーライフプランニング,0
1876,7080402003082,登記記録の閉鎖等,0,2025-05-16,2025-05-12,有限会社サンエス自動車工業,,有限会社,静岡県,浜松市中央区,西ケ崎町９８１番地,,22,138,4313115,,,2025-05-12,清算の結了等,,,2015-10-05,1,,,,,サンエスジドウシャコウギョウ,0
1880,7100001000247,登記記録の閉鎖等,0,2025-05-16,2025-05-13,伊藤商事株式会社,,株式会社,長野県,長野市,篠ノ井布施高田８５２番地３,,20,201,3888007,,,2025-05-13,清算の結了等,,,2015-10-05,1,,,,,イトウショウジ,0
1914,7122001009258,登記記録の閉鎖等,0,2025-05-16,2025-05-12,株式会社鶴田宝石,,株式会社,大阪府,東大阪市,上石切町１丁目５番４１号,,27,227,5798012,,,2025-05-12,清算の結了等,,,2015-10-05,1,,,,,ツルタホウセキ,0
1941,7180001100642,登記記録の閉鎖等,0,2025-05-16,2025-05-13,株式会社塚本商店,,株式会社,愛知県,知多市,つつじが丘２丁目１０番地の７,,23,224,4780054,,,2025-05-13,清算の結了等,,,2015-10-05,1,,,,,ツカモトショウテン,0
1944,7180001142676,登記記録の閉鎖等,0,2025-05-16,2025-05-12,株式会社エバーボックス,,株式会社,愛知県,名古屋市東区,泉１丁目１１番６号ミソカビル２Ｆ,,23,102,4610001,,,2025-05-12,清算の結了等,,,2020-09-03,1,,,,,エバーボックス,0
1946,7180003005930,登記記録の閉鎖等,0,2025-05-16,2025-05-12,合資会社宮松商會,,合資会社,愛知県,名古屋市中区,大須４丁目６番２３号,,23,106,4600011,,,2025-05-12,清算の結了等,,,2015-10-05,1,,,,,ミヤマツショウカイ,0
1954,7220002011396,登記記録の閉鎖等,0,2025-05-16,2025-05-14,有限会社ヨネダテキスタイル,,有限会社,石川県,小松市,長田町ホ９０番地,,17,203,9230034,,,2025-05-14,清算の結了等,,,2015-10-05,1,,,,,ヨネダテキスタイル,0
1957,7240002038132,登記記録の閉鎖等,0,2025-05-16,2025-05-14,有限会社アイエヌ,,有限会社,広島県,廿日市市,前空２丁目４番６号,,34,213,7390424,,,2025-05-14,清算の結了等,,,2024-01-24,1,,,,,アイエヌ,0
1983,7350002004817,登記記録の閉鎖等,0,2025-05-16,2025-05-13,有限会社宮崎パシフィック,,有限会社,宮崎県,宮崎市,中央通７番２２号,,45,201,8800002,,,2025-05-13,清算の結了等,,,2015-10-05,1,,,,,ミヤザキパシフィック,0
1990,7380002014540,登記記録の閉鎖等,0,2025-05-16,2025-04-23,有限会社コスモウェーブ,,有限会社,東京都,千代田区,岩本町３丁目１１番８号イワモトチョービル４Ｆ４０８,,13,101,1010032,,,2025-04-23,清算の結了等,,,2015-10-05,1,,,,,コスモウェーブ,0
2040,8010601053875,登記記録の閉鎖等,0,2025-05-16,2025-05-13,株式会社オートリペア坂本,,株式会社,東京都,墨田区,立花４丁目２６番１９－７０４号,,13,107,1310043,,,2025-05-13,清算の結了等,,,2018-09-05,1,,,,,オートリペアサカモト,0
2059,8011001090939,登記記録の閉鎖等,0,2025-05-16,2025-04-10,Ｙ・Ｓ企画株式会社,,株式会社,東京都,目黒区,中目黒３丁目３番１７号,,13,110,1530061,,,2025-04-10,清算の結了等,,,2015-10-05,1,,,,,ワイエスキカク,0
2062,8011001144579,登記記録の閉鎖等,0,2025-05-16,2025-04-10,株式会社ＯｎｅＴｈｉｒｄ,,株式会社,東京都,渋谷区,西原３丁目４５番１６号ＳｈｅｒｒｙＡ,,13,113,1510066,,,2025-04-10,清算の結了等,,,2021-12-16,1,,,,,ワンサード,0
2065,8011003002850,登記記録の閉鎖等,0,2025-05-16,2025-05-02,エイチ・リーシング合同会社,,合同会社,東京都,渋谷区,代官山町２０番９号,,13,113,1500034,,,2025-05-02,合併による解散等,8011003005168,令和７年５月１日東京都渋谷区代官山町２０番９号スマート・リーシング合同会社（8011003005168）に合併し解散,2015-10-05,1,,,,,エイチリーシング,0
2075,8011302001826,登記記録の閉鎖等,0,2025-05-16,2025-05-01,有限会社エラン,,有限会社,東京都,杉並区,本天沼３丁目２１番１１号,,13,115,1670031,,,2025-05-01,清算の結了等,,,2015-10-05,1,,,,,エラン,0
2081,8011502000537,登記記録の閉鎖等,0,2025-05-16,2025-05-07,有限会社いでい,,有限会社,東京都,北区,志茂２丁目２７番４号,,13,117,1150042,,,2025-05-07,清算の結了等,,,2015-10-05,1,,,,,イデイ,0
2103,8013202000899,登記記録の閉鎖等,0,2025-05-16,2025-04-15,有限会社ウィズ,,有限会社,東京都,目黒区,下目黒３丁目４番４号,,13,110,1530064,,,2025-04-15,清算の結了等,,,2015-10-05,1,,,,,ウィズ,0
2105,8020001090444,登記記録の閉鎖等,0,2025-05-16,2025-05-13,株式会社エンドレス,,株式会社,神奈川県,横浜市中区,伊勢佐木町３丁目９９番地１山田ビル２Ｆ,,14,104,2310045,,,2025-05-13,清算の結了等,,,2015-10-05,1,,,,,エンドレス,0
2107,8020001107099,登記記録の閉鎖等,0,2025-05-16,2025-05-09,株式会社大健総合サービス,,株式会社,神奈川県,横浜市神奈川区,羽沢町９２６－１９９,,14,102,2210863,,,2025-05-09,清算の結了等,,,2015-10-05,1,,,,,ダイケンソウゴウサービス,0
2118,8021001039159,登記記録の閉鎖等,0,2025-05-16,2025-05-14,株式会社宮川設備工業,,株式会社,神奈川県,平塚市,四之宮５丁目５番３６号,,14,203,2540014,,,2025-05-14,清算の結了等,,,2015-10-05,1,,,,,ミヤガワセツビコウギョウ,0
2155,8080101023315,登記記録の閉鎖等,0,2025-05-16,2025-05-12,株式会社Ａ‐ＢＯＸ,,株式会社,静岡県,富士市,入山瀬３丁目７番２９号,,22,210,4190204,,,2025-05-12,清算の結了等,,,2022-06-06,1,,,,,エーボックス,0
2210,8140002032020,登記記録の閉鎖等,0,2025-05-16,2025-05-13,有限会社平成不動産,,有限会社,兵庫県,たつの市,揖西町中垣内甲１３１番地３,,28,229,6794002,,,2025-05-13,清算の結了等,,,2015-10-05,1,,,,,ヘイセイフドウサン,0
2213,8140002064609,登記記録の閉鎖等,0,2025-05-16,2025-05-07,有限会社竹内坪庭設計事務所,,有限会社,兵庫県,川西市,鴬台１丁目２２番地の５,,28,217,6660133,,,2025-05-07,清算の結了等,,,2015-10-05,1,,,,,タケウチツボニワセッケイジムショ,0
2217,8150001017194,登記記録の閉鎖等,0,2025-05-16,2025-05-15,株式会社リリテイル,,株式会社,奈良県,葛城市,東室９６番地３,,29,211,6392102,,,2025-05-15,清算の結了等,,,2015-10-05,1,,,,,リリテイル,0
2228,8180003023568,登記記録の閉鎖等,0,2025-05-16,2025-05-13,合同会社ロゼリア,,合同会社,愛知県,名古屋市中川区,打中１丁目１２７番地の１,,23,110,4540927,,,2025-05-13,清算の結了等,,,2022-03-03,1,,,,,ロゼリア,0
2230,8180005019283,登記記録の閉鎖等,0,2025-05-16,2025-05-13,一般社団法人にじいろライフ,,その他の設立登記法人,愛知県,春日井市,東神明町２丁目９番地２６,,23,206,4870021,,,2025-05-13,清算の結了等,,,2021-05-19,1,,,,,ニジイロライフ,0
2231,8180301008601,登記記録の閉鎖等,0,2025-05-16,2025-05-15,株式会社フソウ化成,,株式会社,愛知県,豊橋市,新栄町字南小向１３２番地の２,,23,201,4418016,,,2025-05-15,清算の結了等,,,2015-10-05,1,,,,,,0
2232,8180301017098,登記記録の閉鎖等,0,2025-05-16,2025-05-07,株式会社都,,株式会社,愛知県,知立市,新林町新池３８番地１２,,23,225,4720017,,,2025-05-07,清算の結了等,,,2015-10-05,1,,,,,ミヤコ,0
2241,8190001021721,登記記録の閉鎖等,0,2025-05-16,2025-05-01,株式会社あおい,,株式会社,三重県,鈴鹿市,神戸１丁目１０番２号,,24,207,5130801,,,2025-05-01,合併による解散等,2190001019259,令和７年５月１日三重県鈴鹿市神戸一丁目１０番２号株式会社オーエーワン（2190001019259）に合併し解散,2015-10-05,1,,,,,アオイ,0
2242,8190001026118,登記記録の閉鎖等,0,2025-05-16,2025-05-07,株式会社ヤマヨシ,,株式会社,三重県,津市,香良洲町１７３７番地の１,,24,201,5140315,,,2025-05-07,清算の結了等,,,2019-01-09,1,,,,,ヤマヨシ,0
2255,8240002007879,登記記録の閉鎖等,0,2025-05-16,2025-05-15,有限会社ジョイ,,有限会社,広島県,広島市西区,己斐本町１丁目２３番５号,,34,104,7330812,,,2025-05-15,清算の結了等,,,2015-10-05,1,,,,,ジョイ,0
2270,8290003015133,登記記録の閉鎖等,0,2025-05-16,2025-04-30,マービンテストソリューションズジャパン合同会社,,合同会社,福岡県,糟屋郡新宮町,中央駅前１丁目６番１号,,40,345,8110120,,,2025-04-30,清算の結了等,,,2024-03-28,1,,,,,マービンテストソリューションズジャパン,0
2271,8290801000303,登記記録の閉鎖等,0,2025-05-16,2025-05-14,無限美株式会社,,株式会社,福岡県,北九州市戸畑区,中原西２丁目９番３３号,,40,105,8040011,,,2025-05-14,清算の結了等,,,2015-10-05,1,,,,,ムゲンビ,0
2276,8300001009837,登記記録の閉鎖等,0,2025-05-16,2025-05-13,向陽パートナーズ株式会社,,株式会社,佐賀県,鳥栖市,高田町２１番地３,,41,203,8410044,,,2025-05-13,清算の結了等,,,2015-10-05,1,,,,,コウヨウパートナーズ,0
2278,8320001009249,登記記録の閉鎖等,0,2025-05-16,2025-05-12,株式会社ヨシオカ,,株式会社,大分県,佐伯市,大字鶴望４３８２番地７,,44,205,8760012,,,2025-05-12,清算の結了等,,,2015-10-05,1,,,,,ヨシオカ,0
2279,8320001010941,登記記録の閉鎖等,0,2025-05-16,2025-05-08,豊前油脂株式会社,,株式会社,大分県,中津市,大字永添２７４３番地の２,,44,203,8710162,,,2025-05-08,清算の結了等,,,2015-10-05,1,,,,,ブゼンユシ,0
2299,8400003001022,登記記録の閉鎖等,0,2025-05-16,2025-04-28,合同会社アグリコラボサークル,,合同会社,岩手県,紫波郡紫波町,宮手字久々舘９６番地２,,03,321,0283447,,,2025-04-28,清算の結了等,,,2015-10-05,1,,,,,アグリコラボサークル,0
2307,8440001001029,登記記録の閉鎖等,0,2025-05-16,2025-05-14,青函電気株式会社,,株式会社,北海道,函館市,西桔梗町８１８番地１０,,01,202,0410824,,,2025-05-14,清算の結了等,,,2015-10-05,1,,,,,セイカンデンキ,0
2316,9010001007035,登記記録の閉鎖等,0,2025-05-16,2025-04-24,株式会社ペイジ・ワン,,株式会社,東京都,文京区,小日向１丁目９番５号,,13,105,1120006,,,2025-04-24,清算の結了等,,,2015-10-05,1,,,,,ペイジワン,0
2318,9010001160338,登記記録の閉鎖等,0,2025-05-16,2025-04-28,山佐産業ＭＵ２リース株式会社,,株式会社,東京都,千代田区,丸の内１丁目４番１号東京共同会計事務所内,,13,101,1000005,,,2025-04-28,清算の結了等,,,2015-10-05,1,,,,,ヤマササンギョウエムユーニリース,0
2325,9010002021357,登記記録の閉鎖等,0,2025-05-16,2025-04-25,有限会社寿司辰,,有限会社,東京都,中央区,新富２丁目４番１２号,,13,102,1040041,,,2025-04-25,清算の結了等,,,2015-10-05,1,,,,,スシタツ,0
2332,9010101008882,登記記録の閉鎖等,0,2025-05-16,2025-05-09,株式会社市ヶ谷鑑定事務所,,株式会社,東京都,八王子市,絹ケ丘１丁目３０番３号,,13,201,1920912,,,2025-05-09,清算の結了等,,,2015-10-05,1,,,,,イチガヤカンテイジムショ,0
2351,9010903004732,登記記録の閉鎖等,0,2025-05-16,2025-05-14,リーフエイジ合同会社,,合同会社,東京都,世田谷区,大原２丁目２７番１１－４０４号,,13,112,1560041,,,2025-05-14,清算の結了等,,,2019-01-10,1,,,,,リーフエイジ,0
2353,9011001113401,登記記録の閉鎖等,0,2025-05-16,2025-04-10,株式会社キューベース,,株式会社,東京都,渋谷区,神宮前２丁目３５番９号原宿リビン６０７号室,,13,113,1500001,,,2025-04-10,清算の結了等,,,2016-10-31,1,,,,,キューベース,0
2354,9011001125867,登記記録の閉鎖等,0,2025-05-16,2025-04-09,ＴＡＣＣＨＩ株式会社,,株式会社,東京都,港区,西新橋３丁目２４番８号山内ビル３階,,13,103,1050003,,,2025-04-09,清算の結了等,,,2018-12-28,1,,,,,タッチ,0
2355,9011001139578,登記記録の閉鎖等,0,2025-05-16,2025-03-06,株式会社Ｍｄｏ,,株式会社,東京都,渋谷区,松濤１丁目２８－２,,13,113,1500046,,,2025-03-06,清算の結了等,,,2021-04-12,1,,,,,エムディーオー,0
2359,9011101087702,登記記録の閉鎖等,0,2025-05-16,2025-04-14,Ｇａｒｏｕ株式会社,,株式会社,東京都,渋谷区,渋谷２丁目２２番３号,,13,113,1500002,,,2025-04-14,清算の結了等,,,2019-05-15,1,,,,,ガルー,0
2368,9011401003111,登記記録の閉鎖等,0,2025-05-16,2025-05-14,株式会社照信銘木,,株式会社,東京都,板橋区,高島平２丁目６番１号,,13,119,1750082,,,2025-05-14,清算の結了等,,,2015-10-05,1,,,,,ショウシンメイボク,0
2372,9011602009477,登記記録の閉鎖等,0,2025-05-16,2025-05-12,有限会社富士商会,,有限会社,東京都,練馬区,桜台１丁目４４番１５号,,13,120,1760002,,,2025-05-12,清算の結了等,,,2015-10-05,1,,,,,フジショウカイ,0
2379,9012805002120,登記記録の閉鎖等,0,2025-05-16,2025-05-02,特定非営利活動法人あの会,,その他の設立登記法人,東京都,立川市,幸町５丁目８５番地の３ミリオンコート玉川上水１０７号室,,13,202,1900002,,,2025-05-02,清算の結了等,,,2015-10-05,1,,,,,アノカイ,0
2386,9020001068316,登記記録の閉鎖等,0,2025-05-16,2025-04-28,株式会社日本教育センター出版局,,株式会社,神奈川県,川崎市宮前区,有馬９丁目３番地１４号,,14,136,2160003,,,2025-04-28,清算の結了等,,,2024-09-25,1,,,,,ニホンキョウイクセンターシュッパンキョク,0
2388,9020001139926,登記記録の閉鎖等,0,2025-05-16,2025-05-02,株式会社アメージングマネジメント,,株式会社,神奈川県,横浜市磯子区,磯子３丁目１３番Ｍ－１００２号,,14,107,2350016,,,2025-05-02,清算の結了等,,,2021-02-12,1,,,,,アメージングマネジメント,0
2404,9030001002538,登記記録の閉鎖等,0,2025-05-16,2025-05-14,県南住宅設備株式会社,,株式会社,埼玉県,さいたま市緑区,原山２丁目１番２６号,,11,109,3360931,,,2025-05-14,清算の結了等,,,2015-10-05,1,,,,,ケンナンジュウタクセツビ,0
2418,9040003009745,登記記録の閉鎖等,0,2025-05-16,2025-04-28,ＭＫワーカーズ合同会社,,合同会社,千葉県,柏市,つくしが丘１丁目１３番２１号,,12,217,2770072,,,2025-04-28,清算の結了等,,,2017-03-07,1,,,,,,0
2469,9120905001881,登記記録の閉鎖等,0,2025-05-16,2025-05-07,医療法人南茂医院,,その他の設立登記法人,大阪府,高槻市,赤大路町２３番３０号,,27,207,5691146,,,2025-05-07,清算の結了等,,,2015-10-05,1,,,,,ナンモイイン,0
2489,9160003002250,登記記録の閉鎖等,0,2025-05-16,2025-05-14,合同会社ｎａｇｏｒｉ,,合同会社,滋賀県,長浜市,南高田町５８３番地フォレスト２、３－Ｂ号室,,25,203,5260032,,,2025-05-14,清算の結了等,,,2021-03-23,1,,,,,ナゴリ,0
2490,9160005009392,登記記録の閉鎖等,0,2025-05-16,2025-05-12,特定非営利活動法人文化をつなぐ会,,その他の設立登記法人,滋賀県,守山市,勝部１丁目１６番２７－８０２号,,25,207,5240041,,,2025-05-12,清算の結了等,,,2015-10-05,1,,,,,ブンカヲツナグカイ,0
2495,9180003004138,登記記録の閉鎖等,0,2025-05-16,2025-05-01,合資会社ナルミ無線商会,,合資会社,愛知県,名古屋市緑区,六田１丁目８５番地の２,,23,114,4580036,,,2025-05-01,清算の結了等,,,2015-10-05,1,,,,,ナルミムセンショウカイ,0
2499,9180301011950,登記記録の閉鎖等,0,2025-05-16,2025-05-15,株式会社ＫＥＩＡＩ,,株式会社,愛知県,豊川市,豊川栄町２１番地,,23,207,4420036,,,2025-05-15,清算の結了等,,,2015-10-05,1,,,,,ケイアイ,0
2508,9220002004068,登記記録の閉鎖等,0,2025-05-16,2025-05-13,有限会社堂鉄工所,,有限会社,石川県,金沢市,松村６丁目１０２番地,,17,201,9200348,,,2025-05-13,清算の結了等,,,2015-10-05,1,,,,,ドウテッコウショ,0
2510,9230001004927,登記記録の閉鎖等,0,2025-05-16,2025-05-14,株式会社ユニバーサルジャパン,,株式会社,富山県,富山市,婦中町分田１５７番地,,16,201,9392718,,,2025-05-14,清算の結了等,,,2015-10-05,1,,,,,ユニバーサルジャパン,0
2530,9260005011322,登記記録の閉鎖等,0,2025-05-16,2025-05-09,一般社団法人ゴッド心理学研究所,,その他の設立登記法人,岡山県,津山市,中島２３２番地１１,,33,203,7080871,,,2025-05-09,清算の結了等,,,2024-03-06,1,,,,,ゴッドシンリガクケンキュウジョ,0
2549,9330001015179,登記記録の閉鎖等,0,2025-05-16,2025-05-12,株式会社五嶋建設,,株式会社,熊本県,天草市,有明町須子１０８４番地,,43,215,8617202,,,2025-05-12,清算の結了等,,,2015-10-05,1,,,,,ゴトウケンセツ,0
2554,9350001008321,登記記録の閉鎖等,0,2025-05-16,2025-05-12,南宮崎オート株式会社,,株式会社,宮崎県,宮崎市,大字芳士字祝田７４４番地,,45,201,8800123,,,2025-05-12,清算の結了等,,,2015-10-05,1,,,,,ミナミミヤザキオート,0
2562,9370301000380,登記記録の閉鎖等,0,2025-05-16,2025-04-30,株式会社梶原食品,,株式会社,宮城県,石巻市,成田字小塚宅地３３番地２,,04,202,9860102,,,2025-04-30,清算の結了等,,,2015-10-05,1,,,,,カジワラショクヒン,0
2567,9380003005413,登記記録の閉鎖等,0,2025-05-16,2025-04-28,合同会社風音,,合同会社,福島県,会津若松市,北滝沢１丁目６番６８号,,07,202,9650015,,,2025-04-28,清算の結了等,,,2023-03-17,1,,,,,カザオト,0
2569,9410002002548,登記記録の閉鎖等,0,2025-05-16,2025-05-14,有限会社中央ポンプ工業,,有限会社,秋田県,秋田市,仁井田字古川向９６番地１,,05,201,0101423,,,2025-05-14,清算の結了等,,,2015-10-05,1,,,,,チュウオウポンプコウギョウ,0
2575,9460001001463,登記記録の閉鎖等,0,2025-05-16,2025-05-14,松島物流株式会社,,株式会社,北海道,釧路市,中鶴野３２番７号,,01,206,0840929,,,2025-05-14,清算の結了等,,,2015-10-05,1,,,,,マツシマブツリュウ,0
2581,9490002000536,登記記録の閉鎖等,0,2025-05-16,2025-05-14,有限会社氏原ラジエーター,,有限会社,高知県,高知市,南川添１４番２６号,,39,201,7810082,,,2025-05-14,清算の結了等,,,2015-10-05,1,,,,,ウジハララジエーター,0
