sequenceNumber,corporateNumber,process,correct,updateDate,changeDate,name,nameImageId,kind,prefectureName,cityName,streetNumber,addressImageId,prefectureCode,cityCode,postCode,addressOutside,addressOutsideImageId,closeDate,closeCause,successorCorporateNumber,changeCause,assignmentDate,latest,enName,enPrefectureName,enCityName,enAddressOutside,furigana,hihyoji
7,1010001227689,新規,0,2022-06-28,2022-06-28,株式会社トレンドコレクション,,株式会社,東京都,千代田区,神田神保町３丁目２番１号サンライトビル７０１,,13,101,1010051,,,,,,,2022-06-28,1,,,,,トレンドコレクション,0
9,1010003038003,新規,0,2022-06-28,2022-06-28,ｓｅｒａｐｈｉｍ合同会社,,合同会社,東京都,中央区,銀座１丁目２２－１１銀座大竹ビジデンス２階,,13,102,1040061,,,,,,,2022-06-28,1,,,,,セラフィム,0
13,1010101015234,新規,0,2022-06-28,2022-06-28,ＴＯＭＯ企画株式会社,,株式会社,東京都,八王子市,弐分方町６２３番地,,13,201,1930822,,,,,,,2022-06-28,1,,,,,トモキカク,0
14,1010103001942,新規,0,2022-06-28,2022-06-28,合同会社Ｖｉｒｔｕａｌ　Ｃｒｅａｔｏｒ,,合同会社,東京都,八王子市,寺町２９－２４芙蓉ハイム４０２,,13,201,1920073,,,,,,,2022-06-28,1,,,,,バーチャルクリエイター,0
23,1010401168186,新規,0,2022-06-28,2022-06-28,株式会社ＡＭＩ,,株式会社,東京都,港区,芝大門２丁目２番１号－６２３,,13,103,1050012,,,,,,,2022-06-28,1,,,,,アミ,0
24,1010401168194,新規,0,2022-06-28,2022-06-28,ＮＫライフサイエンス株式会社,,株式会社,東京都,港区,愛宕２丁目５番１号愛宕グリーンヒルズＭＯＲＩタワー３４Ｆ,,13,103,1050002,,,,,,,2022-06-28,1,,,,,エヌケーライフサイエンス,0
25,1010401168211,新規,0,2022-06-28,2022-06-28,株式会社Ｄｉａｍｏｎｄ,,株式会社,東京都,港区,南青山２丁目２番１５－１０３３号,,13,103,1070062,,,,,,,2022-06-28,1,,,,,ダイヤモンド,0
26,1010403028009,新規,0,2022-06-28,2022-06-28,合同会社Ｖｏｉｄ　Ｒｉｆｔ,,合同会社,東京都,港区,浜松町２丁目６―４,,13,103,1050013,,,,,,,2022-06-28,1,,,,,ヴォイドリフト,0
31,1010701042875,新規,0,2022-06-28,2022-06-28,株式会社ＴＴ　Ｔｒａｄｅ,,株式会社,東京都,品川区,西品川３丁目２０番２０号,,13,109,1410033,,,,,,,2022-06-28,1,,,,,ティーティートレード,0
47,1011001148330,新規,0,2022-06-28,2022-06-28,株式会社Ｄｉｇｉｔａｌ　Ｖｉｓｉｏｎ　Ｉｎｄｕｓｔｒｉｅｓ,,株式会社,東京都,渋谷区,桜丘町２６番地１セルリアンタワー１５階,,13,113,1500031,,,,,,,2022-06-28,1,,,,,デジタルビジョンインダストリーズ,0
49,1011101099341,新規,0,2022-06-28,2022-06-28,株式会社ジャスティスネクスト,,株式会社,東京都,新宿区,高田馬場１丁目２８番３号,,13,104,1690075,,,,,,,2022-06-28,1,,,,,ジャスティスネクスト,0
50,1011101099358,新規,0,2022-06-28,2022-06-28,ＥＰＳ創健医薬発展株式会社,,株式会社,東京都,新宿区,筑土八幡町２番１号,,13,104,1620815,,,,,,,2022-06-28,1,,,,,イーピーエスソウケンイヤクハッテン,0
54,1011301027886,新規,0,2022-06-28,2022-06-28,戸田工業株式会社,,株式会社,東京都,杉並区,高円寺北４丁目３４番１９号プラザドウクリムゾン１１１,,13,115,1660002,,,,,,,2022-06-28,1,,,,,トダコウギョウ,0
56,1011401024354,新規,0,2022-06-28,2022-06-28,株式会社エムシープラス,,株式会社,東京都,板橋区,南町５７番２号,,13,119,1730027,,,,,,,2022-06-28,1,,,,,エムシープラス,0
57,1011505002479,新規,0,2022-06-28,2022-06-28,一般社団法人ふぇみ・ゼミ＆カフェ,,その他の設立登記法人,東京都,北区,赤羽１丁目５９番９号ネスト赤羽２０７号室,,13,117,1150045,,,,,,,2022-06-28,1,,,,,,0
59,1011701025408,新規,0,2022-06-28,2022-06-28,株式会社アサナト,,株式会社,東京都,江戸川区,松江４丁目１６番１８号,,13,123,1320025,,,,,,,2022-06-28,1,,,,,アサナト,0
62,1011801040926,新規,0,2022-06-28,2022-06-28,株式会社ＦＩＧＨＴＩＮＧ　ＢＵＬＬ,,株式会社,東京都,足立区,梅田２丁目１１番２号,,13,121,1230851,,,,,,,2022-06-28,1,,,,,ファイティングブル,0
63,1011805003185,新規,0,2022-06-28,2022-06-28,特定非営利活動法人ＣＣＦ　ＪＡＰＡＮ,,その他の設立登記法人,東京都,足立区,西新井３丁目１７番１－１１２号,,13,121,1230841,,,,,,,2022-06-28,1,,,,,シーシーエフジャパン,0
64,1012401039342,新規,0,2022-06-28,2022-06-28,株式会社田代工業,,株式会社,東京都,稲城市,東長沼１７２０番地の１４,,13,225,2060802,,,,,,,2022-06-28,1,,,,,タシロコウギョウ,0
65,1012403005433,新規,0,2022-06-28,2022-06-28,合同会社ＪＯＹ,,合同会社,東京都,府中市,府中町３丁目２－４－１０５,,13,206,1830055,,,,,,,2022-06-28,1,,,,,ジョイ,0
66,1012703002485,新規,0,2022-06-28,2022-06-28,アクトスリー合同会社,,合同会社,東京都,東村山市,萩山町３丁目９番地７６,,13,213,1890012,,,,,,,2022-06-28,1,,,,,アクトスリー,0
71,1013301049308,新規,0,2022-06-28,2022-06-28,麒麟商事株式会社,,株式会社,東京都,豊島区,東池袋３丁目１１番７－６０３号,,13,116,1700013,,,,,,,2022-06-28,1,,,,,キリンショウジ,0
82,1020001147036,新規,0,2022-06-28,2022-06-28,株式会社ＦｏｃｓＰｌａｎ,,株式会社,神奈川県,横浜市南区,大橋町３丁目６２番１号,,14,105,2320054,,,,,,,2022-06-28,1,,,,,フォックスプラン,0
85,1020003021973,新規,0,2022-06-28,2022-06-28,ＫＵＫＵＲＩ合同会社,,合同会社,神奈川県,川崎市幸区,古市場１丁目６２番７号,,14,132,2120052,,,,,,,2022-06-28,1,,,,,ククリ,0
86,1020003022006,新規,0,2022-06-28,2022-06-28,合同会社ｉ‐ＳＯＬ,,合同会社,神奈川県,横浜市青葉区,美しが丘１丁目１３番地１０吉村ビル１０７号,,14,117,2250002,,,,,,,2022-06-28,1,,,,,アイソル,0
91,1021001076373,新規,0,2022-06-28,2022-06-28,株式会社ＫＹＢＵＲＺ　ＪＡＰＡＮ,,株式会社,神奈川県,鎌倉市,城廻１２３番地１,,14,204,2470074,,,,,,,2022-06-28,1,,,,,キーバスジャパン,0
92,1021001076381,新規,0,2022-06-28,2022-06-28,株式会社光美重機,,株式会社,神奈川県,厚木市,三田１丁目１番７－１０８号,,14,212,2430211,,,,,,,2022-06-28,1,,,,,ミツミジュウキ,0
101,1030001148900,新規,0,2022-06-28,2022-06-28,株式会社ＢＡＳＫ,,株式会社,埼玉県,八潮市,中央１丁目１７番地１８,,11,234,3400816,,,,,,,2022-06-28,1,,,,,バスク,0
102,1030001148909,新規,0,2022-06-28,2022-06-28,株式会社ＬＤ７,,株式会社,埼玉県,さいたま市大宮区,仲町２丁目２５番地,,11,103,3300845,,,,,,,2022-06-28,1,,,,,エルディーセブン,0
108,1030003019694,新規,0,2022-06-28,2022-06-28,合同会社ラベンダー,,合同会社,埼玉県,朝霞市,志ケ丘二丁目７番８号,,11,227,3510000,,,,,,,2022-06-28,1,,,,,ラベンダー,0
112,1040001123992,新規,0,2022-06-28,2022-06-28,株式会社ＴＫＭ,,株式会社,千葉県,市川市,真間１丁目５番１３号,,12,203,2720826,,,,,,,2022-06-28,1,,,,,ティーケーエム,0
113,1040001124009,新規,0,2022-06-28,2022-06-28,ハトネッツ少額短期保険準備株式会社,,株式会社,千葉県,千葉市中央区,中央港１丁目１７番３号,,12,101,2600024,,,,,,,2022-06-28,1,,,,,ハトネッツショウガクタンキホケンジュンビ,0
114,1040001124017,新規,0,2022-06-28,2022-06-28,株式会社ＺＩＮ,,株式会社,千葉県,佐倉市,稲荷台２丁目１－１,,12,212,2850864,,,,,,,2022-06-28,1,,,,,ジン,0
115,1040001124041,新規,0,2022-06-28,2022-06-28,名鏡貿易株式会社,,株式会社,千葉県,柏市,若柴１７８番地４柏の葉キャンパス１４８街区１パークシティ柏の葉キャンパスザ・ゲートタワーウェスト３階,,12,217,2770871,,,,,,,2022-06-28,1,,,,,メイキョウボウエキ,0
125,1050001051301,新規,0,2022-06-28,2022-06-28,株式会社ＬＦＯ,,株式会社,茨城県,古河市,仁連１４７３番地,,08,204,3060125,,,,,,,2022-06-28,1,,,,,エルエフオー,0
139,1100003006603,新規,0,2022-06-28,2022-06-28,合同会社ＡＦＬＯＡＴ,,合同会社,長野県,上田市,真田町本原１６７２番地,,20,203,3862202,,,,,,,2022-06-28,1,,,,,アフロート,0
146,1120001246942,新規,0,2022-06-28,2022-06-28,株式会社従容,,株式会社,大阪府,大阪市浪速区,日本橋東３丁目１５番３号ハイツクシノ４０１号室,,27,111,5560006,,,,,,,2022-06-28,1,,,,,ショウヨウ,0
152,1120105009584,新規,0,2022-06-28,2022-06-28,一般社団法人日本美容医療普及協会,,その他の設立登記法人,大阪府,泉佐野市,羽倉崎２丁目１番１０７号,,27,213,5980046,,,,,,,2022-06-28,1,,,,,ニホンビヨウイリョウフキュウキョウカイ,0
155,1120901046153,新規,0,2022-06-28,2022-06-28,四和株式会社,,株式会社,大阪府,箕面市,白島２丁目２５番２４号,,27,220,5620012,,,,,,,2022-06-28,1,,,,,フォーワ,0
161,1130001072058,新規,0,2022-06-28,2022-06-28,皆楽商貿物流株式会社,,株式会社,京都府,京都市伏見区,醍醐柏森町８番地１０,,26,109,6011336,,,,,,,2022-06-28,1,,,,,カイラクショウボウブツリュウ,0
162,1130001072066,新規,0,2022-06-28,2022-06-28,ＮＳＬ株式会社,,株式会社,京都府,京都市南区,上鳥羽南唐戸町７番地Ｋビル４００４号室,,26,107,6018107,,,,,,,2022-06-28,1,,,,,エヌエスエル,0
163,1130001072074,新規,0,2022-06-28,2022-06-28,株式会社Ａ．Ｓ．Ｋ,,株式会社,京都府,城陽市,寺田北東西２７番地の１,,26,207,6100121,,,,,,,2022-06-28,1,,,,,エーエスケー,0
174,1140001126515,新規,0,2022-06-28,2022-06-28,株式会社北海道和牛マスター,,株式会社,兵庫県,西宮市,鳴尾浜１丁目２２番１３,,28,204,6638142,,,,,,,2022-06-28,1,,,,,ホッカイドウワギュウマスター,0
175,1140001126556,新規,0,2022-06-28,2022-06-28,株式会社幸心,,株式会社,兵庫県,宝塚市,すみれガ丘１丁目１番４号,,28,214,6650847,,,,,,,2022-06-28,1,,,,,コウシン,0
178,1140003017852,新規,0,2022-06-28,2022-06-28,ＥＣＢＳ合同会社,,合同会社,兵庫県,宝塚市,星の荘２４－２６Ｂｉｒｉｎ２０１,,28,214,6650866,,,,,,,2022-06-28,1,,,,,イーシービーエス,0
179,1140003017860,新規,0,2022-06-28,2022-06-28,合同会社レンバーン,,合同会社,兵庫県,神戸市灘区,大和町２丁目２番１１号,,28,102,6570031,,,,,,,2022-06-28,1,,,,,レンバーン,0
187,1180001151914,新規,0,2022-06-28,2022-06-28,名東トラスト不動産株式会社,,株式会社,愛知県,名古屋市名東区,本郷２丁目６２番地,,23,115,4650024,,,,,,,2022-06-28,1,,,,,メイトウトラストフドウサン,0
188,1180001151922,新規,0,2022-06-28,2022-06-28,株式会社ｓｅａｒｃｈニャース,,株式会社,愛知県,名古屋市北区,大曽根４丁目６番１１号,,23,103,4620825,,,,,,,2022-06-28,1,,,,,サーチニャース,0
191,1180301036369,新規,0,2022-06-28,2022-06-28,株式会社矢田外装,,株式会社,愛知県,刈谷市,今川町井田６１番地,,23,210,4480005,,,,,,,2022-06-28,1,,,,,ヤタガイソウ,0
198,1220003003316,新規,0,2022-06-28,2022-06-28,Ｆａｉｔｈｆｕｌ合同会社,,合同会社,石川県,金沢市,彦三町１丁目２番１号,,17,201,9200901,,,,,,,2022-06-28,1,,,,,フェイスフル,0
202,1240001059993,新規,0,2022-06-28,2022-06-28,株式会社鈴鹿運輸機工,,株式会社,広島県,三原市,糸崎２丁目１０番２０号,,34,204,7290324,,,,,,,2022-06-28,1,,,,,スズカウンユキコウ,0
208,1250003003107,新規,0,2022-06-28,2022-06-28,合同会社生活支援事務所椿,,合同会社,山口県,下関市,長府中土居本町７－３,,35,201,7520964,,,,,,,2022-06-28,1,,,,,セイカツシエンジムショツバキ,0
216,1290001098062,新規,0,2022-06-28,2022-06-28,株式会社ＳＴＥＬＬＡ,,株式会社,福岡県,福岡市東区,香椎照葉５丁目１－１２センターマークスタワー３２０６,,40,131,8130017,,,,,,,2022-06-28,1,,,,,ステラ,0
220,1290003012681,新規,0,2022-06-28,2022-06-28,金合同会社,,合同会社,福岡県,久留米市,天神町１４２番地１,,40,203,8300033,,,,,,,2022-06-28,1,,,,,キン,0
222,1290803004151,新規,0,2022-06-28,2022-06-28,合同会社ＢＪＣ,,合同会社,福岡県,北九州市戸畑区,千防３丁目５番９号千防マンション４０１,,40,105,8040081,,,,,,,2022-06-28,1,,,,,ビージェーシー,0
227,1330001029871,新規,0,2022-06-28,2022-06-28,株式会社土ＰＬＡＳ　Ｍｙ　ＮＡＳ,,株式会社,熊本県,熊本市西区,中原町１０９３番地５,,43,103,8615271,,,,,,,2022-06-28,1,,,,,プラスマイナス,0
234,1360001030620,新規,0,2022-06-28,2022-06-28,株式会社一,,株式会社,沖縄県,沖縄市,上地１丁目１７番３３号２Ｆ,,47,211,9040031,,,,,,,2022-06-28,1,,,,,ハジメ,0
235,1360005006682,新規,0,2022-06-28,2022-06-28,一般社団法人エクリ相続事務センター,,その他の設立登記法人,沖縄県,那覇市,田原２丁目４番地４,,47,201,9010156,,,,,,,2022-06-28,1,,,,,エクリソウゾクジムセンター,0
239,1390001016947,新規,0,2022-06-28,2022-06-28,ＭーＦｉｒｓｔ株式会社,,株式会社,山形県,山形市,みはらしの丘２丁目３４番地,,06,201,9902317,,,,,,,2022-06-28,1,,,,,エムファースト,0
251,1410001013223,新規,0,2022-06-28,2022-06-28,株式会社エス・エム・ケー,,株式会社,秋田県,潟上市,天王字北野３０２番地４５,,05,211,0100201,,,,,,,2022-06-28,1,,,,,,0
260,1430001086837,新規,0,2022-06-28,2022-06-28,株式会社青山家具製作所,,株式会社,北海道,小樽市,相生町９番６号,,01,203,0470028,,,,,,,2022-06-28,1,,,,,アオヤマカグセイサクショ,0
261,1430001086903,新規,0,2022-06-28,2022-06-28,株式会社ＫＢ,,株式会社,北海道,恵庭市,島松寿町２丁目３８番地３,,01,231,0611355,,,,,,,2022-06-28,1,,,,,ケービー,0
262,1430001086911,新規,0,2022-06-28,2022-06-28,ＡＺＩＺ　ＴＲＡＤＩＮＧ株式会社,,株式会社,北海道,江別市,野幌町２１番地の１２,,01,217,0690813,,,,,,,2022-06-28,1,,,,,アジズトレーディング,0
268,1470005006449,新規,0,2022-06-28,2022-06-28,特定非営利活動法人三木町北部地区の生活環境を良くする会,,その他の設立登記法人,香川県,木田郡三木町,大字井上４０３３－１、立石構造改善センター内,,37,341,7610705,,,,,,,2022-06-28,1,,,,,ミキチョウホクブチクノセイカツカンキョウヲヨクスルカイ,0
272,1500005008499,新規,0,2022-06-28,2022-06-28,一般社団法人ｇｒｅｅｎ　ｓｉｇｈｔ,,その他の設立登記法人,愛媛県,伊予郡砥部町,大南２３０７番地７,,38,402,7912132,,,,,,,2022-06-28,1,,,,,グリーンサイト,0
274,1700150110527,新規,0,2022-06-28,2022-06-28,Ｂｌａｃｋｓｔｏｎｅ　Ｃａｐｉｔａｌ　Ｐａｒｔｎｅｒｓ（Ｃａｙｍａｎ）ＶＩＩ　Ｌ．Ｐ．,00127035,外国会社等,,,,,,,,１９０　Ｅｌｇｉｎ　Ａｖｅｎｕｅ，　Ｇｅｏｒｇｅ　Ｔｏｗｎ，　Ｇｒａｎｄ　Ｃａｙｍａｎ，　ＫＹ１－９００５，　Ｃａｙｍａｎ　Ｉｓｌａｎｄｓ,,,,,,2022-06-28,1,,,,,ブラツクストーンキヤピタルパートナーズケイマンセブンエルピー,0
275,1700150110551,新規,0,2022-06-28,2022-06-28,ｂｅｚｅｌ　ｉｎｃ．,,外国会社等,北海道,札幌市東区,北三十条東７丁目３番２０号,,01,103,0650030,アメリカ合衆国ハワイ州ホノルル市ユニオン・モール１１３６番３０１号,,,,,,2022-06-28,1,,,,,ベゼルインク,0
285,2010001227597,新規,0,2022-06-28,2022-06-28,ＴＯＴＥ株式会社,,株式会社,東京都,千代田区,神田須田町１丁目１０番地４プラウド千代田淡路町１００２号,,13,101,1010041,,,,,,,2022-06-28,1,,,,,トート,0
286,2010001227639,新規,0,2022-06-28,2022-06-28,株式会社ＣＨＩＬＤ　ＬＩＮＫ,,株式会社,東京都,中央区,銀座７丁目１３番６号,,13,102,1040061,,,,,,,2022-06-28,1,,,,,チャイルドリンク,0
287,2010003037920,新規,0,2022-06-28,2022-06-28,デクスター合同会社,,合同会社,東京都,中央区,銀座１丁目１２番４号Ｎ＆ＥＢＬＤ．６Ｆ,,13,102,1040061,,,,,,,2022-06-28,1,,,,,デクスター,0
298,2010403027959,新規,0,2022-06-28,2022-06-28,グッドフェローズ合同会社,,合同会社,東京都,港区,浜松町２丁目２番１５号浜松町ダイヤビル２Ｆ,,13,103,1050013,,,,,,,2022-06-28,1,,,,,グッドフェローズ,0
299,2010403027983,新規,0,2022-06-28,2022-06-28,ＬＭネクスト合同会社,,合同会社,東京都,港区,浜松町２丁目２番１５号浜松町ダイヤビル２階,,13,103,1050013,,,,,,,2022-06-28,1,,,,,エルエムネクスト,0
300,2010405021150,新規,0,2022-06-28,2022-06-28,特定目的会社アールイープロジェクトツー,,その他の設立登記法人,東京都,港区,六本木６丁目１０番１号六本木ヒルズ森タワー,,13,103,1060032,,,,,,,2022-06-28,1,,,,,アールイープロジェクトツー,0
306,2010701042874,新規,0,2022-06-28,2022-06-28,日本健康総合研究所株式会社,,株式会社,東京都,品川区,西中延２丁目１６番１号,,13,109,1420054,,,,,,,2022-06-28,1,,,,,ニホンケンコウソウゴウケンキュウジョ,0
309,2010901051114,新規,0,2022-06-28,2022-06-28,株式会社ＩＦＡＮＤ,,株式会社,東京都,世田谷区,太子堂４丁目３０－１３,,13,112,1540004,,,,,,,2022-06-28,1,,,,,イファンド,0
310,2010901051130,新規,0,2022-06-28,2022-06-28,株式会社ＬＩＬＯ　ＤＥＳＩＧＮ,,株式会社,東京都,世田谷区,深沢５丁目２４番１０号,,13,112,1580081,,,,,,,2022-06-28,1,,,,,リロデザイン,0
319,2011003014942,新規,0,2022-06-28,2022-06-28,合同会社Ｚ‐ＬＡＢＯ,,合同会社,東京都,渋谷区,代々木２丁目５番５号,,13,113,1510053,,,,,,,2022-06-28,1,,,,,ジーラボ,0
320,2011003014950,新規,0,2022-06-28,2022-06-28,合同会社リヴィエールアール,,合同会社,東京都,渋谷区,元代々木町２５番８号,,13,113,1510062,,,,,,,2022-06-28,1,,,,,リヴィエールアール,0
327,2011101099340,新規,0,2022-06-28,2022-06-28,クオリス株式会社,,株式会社,東京都,新宿区,荒木町７番地１４,,13,104,1600007,,,,,,,2022-06-28,1,,,,,クオリス,0
328,2011101099349,新規,0,2022-06-28,2022-06-28,株式会社新都市ヒューマンリソース,,株式会社,東京都,新宿区,四谷４丁目３２番６号,,13,104,1600004,,,,,,,2022-06-28,1,,,,,シントシヒューマンリソース,0
330,2011103011880,新規,0,2022-06-28,2022-06-28,ＣＳ長野大町合同会社,,合同会社,東京都,新宿区,西新宿２丁目１番１号新宿三井ビル５０階,,13,104,1600023,,,,,,,2022-06-28,1,,,,,シーエスナガノオオマチ,0
333,2011301027893,新規,0,2022-06-28,2022-06-28,リコンティ株式会社,,株式会社,東京都,杉並区,浜田山３丁目３－２,,13,115,1680065,,,,,,,2022-06-28,1,,,,,リコンティ,0
334,2011303004453,新規,0,2022-06-28,2022-06-28,合同会社ハバタキＭＡＸ,,合同会社,東京都,杉並区,西荻南４丁目１１番２１号,,13,115,1670053,,,,,,,2022-06-28,1,,,,,ハバタキマックス,0
335,2011401024353,新規,0,2022-06-28,2022-06-28,株式会社ＯＮＥＲＥＶ,,株式会社,東京都,板橋区,成増１丁目２４番６－４０１号,,13,119,1750094,,,,,,,2022-06-28,1,,,,,ワンレヴ,0
337,2011701025415,新規,0,2022-06-28,2022-06-28,株式会社皆見,,株式会社,東京都,江戸川区,北葛西５丁目１２番１８－２０２号,,13,123,1340081,,,,,,,2022-06-28,1,,,,,ミナミ,0
338,2011801040925,新規,0,2022-06-28,2022-06-28,株式会社ｈａｒｕ,,株式会社,東京都,葛飾区,堀切５丁目１番３号,,13,122,1240006,,,,,,,2022-06-28,1,,,,,ハル,0
343,2012405004754,新規,0,2022-06-28,2022-06-28,一般社団法人日本女子野球研究所,,その他の設立登記法人,東京都,府中市,本町２丁目６番地の７アゼリア１０２号室,,13,206,1830027,,,,,,,2022-06-28,1,,,,,ニッポンジョシヤキュウケンキュウジョ,0
350,2013301049315,新規,0,2022-06-28,2022-06-28,ＮＯＩサービス株式会社,,株式会社,東京都,豊島区,東池袋１丁目４４番１０号タイガースビル７０５室,,13,116,1700013,,,,,,,2022-06-28,1,,,,,ノイサービス,0
352,2013303006207,新規,0,2022-06-28,2022-06-28,キュウデン合同会社,,合同会社,東京都,豊島区,池袋２丁目１８－１リバティ池袋ビル２階Ｂ号室,,13,116,1710014,,,,,,,2022-06-28,1,,,,,キュウデン,0
365,2020001147068,新規,0,2022-06-28,2022-06-28,株式会社ＭＭプランニング,,株式会社,神奈川県,横浜市神奈川区,台町１０番地１リリファ横浜ヒルズ５０７,,14,102,2210834,,,,,,,2022-06-28,1,,,,,エムエムプランニング,0
366,2020001147084,新規,0,2022-06-28,2022-06-28,株式会社４４,,株式会社,神奈川県,横浜市鶴見区,岸谷４丁目５番２２号,,14,101,2300078,,,,,,,2022-06-28,1,,,,,ヨンヨン,0
372,2020003022013,新規,0,2022-06-28,2022-06-28,合同会社ＨａｐｐｙＦａｃｅ,,合同会社,神奈川県,横浜市緑区,長津田みなみ台１丁目１番地７マイキャッスル長津田６０７号,,14,113,2260018,,,,,,,2022-06-28,1,,,,,ハッピーフェイス,0
373,2021001076380,新規,0,2022-06-28,2022-06-28,株式会社マイルセイバージャパン,,株式会社,神奈川県,相模原市緑区,下九沢５２９番地３,,14,151,2520134,,,,,,,2022-06-28,1,,,,,マイルセイバージャパン,0
374,2021003011880,新規,0,2022-06-28,2022-06-28,合同会社ＢＥＡＳＴ,,合同会社,神奈川県,足柄上郡大井町,金子１７６４番地１サイドヒル豊年１０４,,14,362,2580019,,,,,,,2022-06-28,1,,,,,ビースト,0
380,2030001148882,新規,0,2022-06-28,2022-06-28,ｏｔｏｍｏ株式会社,,株式会社,埼玉県,坂戸市,浅羽野１丁目１番地１１,,11,239,3500237,,,,,,,2022-06-28,1,,,,,オトモ,0
381,2030001148899,新規,0,2022-06-28,2022-06-28,株式会社ＤＬＬ,,株式会社,埼玉県,東松山市,若松町２丁目１０番４２号－１０２,,11,212,3550037,,,,,,,2022-06-28,1,,,,,,0
382,2030001148908,新規,0,2022-06-28,2022-06-28,株式会社ＬＤ８,,株式会社,埼玉県,さいたま市大宮区,仲町２丁目２５番地,,11,103,3300845,,,,,,,2022-06-28,1,,,,,エルディーエイト,0
383,2030001148924,新規,0,2022-06-28,2022-06-28,株式会社ウィズプロフェッショナル,,株式会社,埼玉県,さいたま市見沼区,東大宮６丁目５６番地１３,,11,104,3370051,,,,,,,2022-06-28,1,,,,,ウィズプロフェッショナル,0
386,2030003019685,新規,0,2022-06-28,2022-06-28,合同会社ＯｎｃｏＶｅｔｓ,,合同会社,埼玉県,さいたま市緑区,大字三室６３６番地８５,,11,109,3360911,,,,,,,2022-06-28,1,,,,,オンコベッツ,0
393,2040003020337,新規,0,2022-06-28,2022-06-28,合同会社船橋,,合同会社,千葉県,船橋市,丸山５丁目１６番７号,,12,204,2730048,,,,,,,2022-06-28,1,,,,,フナバシ,0
400,2070001039368,新規,0,2022-06-28,2022-06-28,株式会社鴻上組,,株式会社,群馬県,伊勢崎市,三和町３２０４番地２,,10,204,3720011,,,,,,,2022-06-28,1,,,,,コウガミグミ,0
421,2120001246958,新規,0,2022-06-28,2022-06-28,Ａｋａｒｉｎｇｏ　Ｍａｒｋｅｔｉｎｇ株式会社,,株式会社,大阪府,大阪市住吉区,南住吉４丁目６番１９号,,27,120,5580041,,,,,,,2022-06-28,1,,,,,アカリンゴマーケティング,0
426,2120003021987,新規,0,2022-06-28,2022-06-28,合同会社リンクスプロデュース,,合同会社,大阪府,大阪市東淀川区,淡路３丁目３番２７号淡路タカラハイツ２０１,,27,114,5330032,,,,,,,2022-06-28,1,,,,,リンクスプロデュース,0
430,2120101065795,新規,0,2022-06-28,2022-06-28,株式会社１ｓｔ,,株式会社,大阪府,羽曳野市,はびきの５丁目２４番１４号,,27,222,5830872,,,,,,,2022-06-28,1,,,,,ファースト,0
432,2120103004751,新規,0,2022-06-28,2022-06-28,合同会社ワイエスビー,,合同会社,大阪府,堺市北区,長曽根町１４７６番地２,,27,146,5918025,,,,,,,2022-06-28,1,,,,,ワイエスビー,0
433,2120901046160,新規,0,2022-06-28,2022-06-28,株式会社ＲＡＧＩＢＡＳＥ,,株式会社,大阪府,茨木市,沢良宜西３丁目１２番３１号,,27,211,5670868,,,,,,,2022-06-28,1,,,,,ラギベース,0
435,2130001072065,新規,0,2022-06-28,2022-06-28,株式会社サラダプラン,,株式会社,京都府,京都市山科区,椥辻東浦町６－１イーグルコート椥辻５番館７０１号,,26,110,6078160,,,,,,,2022-06-28,1,,,,,サラダプラン,0
437,2130005016514,新規,0,2022-06-28,2022-06-28,一般社団法人イマカラ,,その他の設立登記法人,京都府,京都市右京区,嵯峨野千代ノ道町１番地１,,26,108,6168321,,,,,,,2022-06-28,1,,,,,イマカラ,0
444,2140001126539,新規,0,2022-06-28,2022-06-28,株式会社Ｄｒｅ,,株式会社,兵庫県,姫路市,大津区新町２丁目１８番地,,28,201,6711135,,,,,,,2022-06-28,1,,,,,ディーアールイー,0
450,2150003002720,新規,0,2022-06-28,2022-06-28,ＳＵＳＡＮＯＯ合同会社,,合同会社,奈良県,香芝市,瓦口２３０２番地,,29,210,6390225,,,,,,,2022-06-28,1,,,,,スサノオ,0
451,2160001024311,新規,0,2022-06-28,2022-06-28,株式会社Ｆａｉｎａ,,株式会社,滋賀県,彦根市,平田町５６９番地,,25,202,5220041,,,,,,,2022-06-28,1,,,,,ファイナ,0
457,2180001151905,新規,0,2022-06-28,2022-06-28,株式会社Ｗｅｅｇｉｅ,,株式会社,愛知県,名古屋市昭和区,福江３丁目９番２１号,,23,107,4660059,,,,,,,2022-06-28,1,,,,,ウェージー,0
458,2180001151938,新規,0,2022-06-28,2022-06-28,ＵｐＨｉｌｌ　ＦＰ　ｓｅｒｖｉｃｅ株式会社,,株式会社,愛知県,名古屋市緑区,八つ松１丁目１０４番地,,23,114,4580810,,,,,,,2022-06-28,1,,,,,アップヒルエフピーサービス,0
464,2180301036368,新規,0,2022-06-28,2022-06-28,株式会社Ｙ＆Ｚコーポレーション,,株式会社,愛知県,豊橋市,潮崎町１７番地１ピュアライフ潮崎５０４,,23,201,4418069,,,,,,,2022-06-28,1,,,,,ワイアンドゼットコーポレーション,0
470,2190005011716,新規,0,2022-06-28,2022-06-28,一般社団法人ＮＥＬＣｒｅｗ,,その他の設立登記法人,三重県,伊勢市,上地町３９５番地８,,24,203,5160051,,,,,,,2022-06-28,1,,,,,ネルクルー,0
472,2200001040221,新規,0,2022-06-28,2022-06-28,株式会社ｍｉｅｕｘｌｉｅ,,株式会社,岐阜県,岐阜市,宇佐南３丁目６番２０号,,21,201,5008367,,,,,,,2022-06-28,1,,,,,ミュリー,0
475,2210003001526,新規,0,2022-06-28,2022-06-28,３１４４合同会社,,合同会社,福井県,福井市,運動公園１丁目３０６番地,,18,201,9188046,,,,,,,2022-06-28,1,,,,,サンイチヨンヨン,0
484,2250005008755,新規,0,2022-06-28,2022-06-28,一般社団法人岩国終活支援センター,,その他の設立登記法人,山口県,岩国市,岩国１丁目１４番２１号,,35,208,7410062,,,,,,,2022-06-28,1,,,,,イワクニシュウカツシエンセンター,0
491,2290001098078,新規,0,2022-06-28,2022-06-28,株式会社ディスティニー,,株式会社,福岡県,福岡市中央区,天神２丁目３－１０天神パインクレスト７１９号,,40,133,8100001,,,,,,,2022-06-28,1,,,,,ディスティニー,0
500,2300003001863,新規,0,2022-06-28,2022-06-28,合同会社Ｍ＆Ｈパートナーズ,,合同会社,佐賀県,佐賀市,鍋島町大字八戸溝２３４番地３,,41,201,8490932,,,,,,,2022-06-28,1,,,,,エムアンドエイチパートナーズ,0
505,2340001024838,新規,0,2022-06-28,2022-06-28,株式会社神龍,,株式会社,鹿児島県,薩摩川内市,東開聞町１４番７号,,46,215,8950051,,,,,,,2022-06-28,1,,,,,シンリュウ,0
511,2360001030603,新規,0,2022-06-28,2022-06-28,株式会社ＹＫＴ通信システム,,株式会社,沖縄県,島尻郡八重瀬町,字東風平１８２番地６コーポ光ながじょーぐゎー３０２号,,47,362,9010401,,,,,,,2022-06-28,1,,,,,ワイケイティツウシンシステム,0
512,2360001030611,新規,0,2022-06-28,2022-06-28,株式会社まるとまるっと,,株式会社,沖縄県,浦添市,勢理客４丁目１３番１号浦添市産業振興センター・結の街５０１－１,,47,208,9012122,,,,,,,2022-06-28,1,,,,,マルトマルット,0
515,2360003012120,新規,0,2022-06-28,2022-06-28,合同会社ＧＲＡＮＤ　ＡＳＫＥＹ,,合同会社,沖縄県,那覇市,宇栄原３丁目１６番５３号ｒｏｂｃｏｎｄ４０２,,47,201,9010153,,,,,,,2022-06-28,1,,,,,グランドアスキー,0
517,2360005006681,新規,0,2022-06-28,2022-06-28,一般社団法人Ｓｕｎｍａｎａ,,その他の設立登記法人,沖縄県,那覇市,銘苅１丁目１１番８－１００１号,,47,201,9000004,,,,,,,2022-06-28,1,,,,,サンマナ,0
521,2380001032928,新規,0,2022-06-28,2022-06-28,株式会社イルスキルガレージ,,株式会社,福島県,郡山市,鳴神２丁目８９番地,,07,203,9630207,,,,,,,2022-06-28,1,,,,,イルスキルガレージ,0
522,2390001016946,新規,0,2022-06-28,2022-06-28,株式会社Ｂｉｚサポート,,株式会社,山形県,山形市,花楯１丁目２番１２号２Ｆ,,06,201,9900067,,,,,,,2022-06-28,1,,,,,ビズサポート,0
538,2430003014035,新規,0,2022-06-28,2022-06-28,ルーク合同会社,,合同会社,北海道,札幌市北区,新川二条３丁目７－１９,,01,102,0010922,,,,,,,2022-06-28,1,,,,,ルーク,0
539,2460001005710,新規,0,2022-06-28,2022-06-28,株式会社住星,,株式会社,北海道,釧路市,昭和北３丁目１５番５号,,01,206,0840901,,,,,,,2022-06-28,1,,,,,ジュウセイ,0
554,2700150110526,新規,0,2022-06-28,2022-06-28,Ｂｌａｃｋｓｔｏｎｅ　Ｃａｐｉｔａｌ　Ｐａｒｔｎｅｒｓ　Ａｓｉａ　Ｌ．Ｐ．,,外国会社等,,,,,,,,１９０　Ｅｌｇｉｎ　Ａｖｅｎｕｅ，　Ｇｅｏｒｇｅ　Ｔｏｗｎ，　Ｇｒａｎｄ　Ｃａｙｍａｎ，　ＫＹ１－９００５，　Ｃａｙｍａｎ　Ｉｓｌａｎｄｓ,,,,,,2022-06-28,1,,,,,ブラツクストーンキヤピタルパートナーズアジアエルピー,0
564,3010001227638,新規,0,2022-06-28,2022-06-28,株式会社若山文庫,,株式会社,東京都,中央区,銀座２丁目１１番１９号,,13,102,1040061,,,,,,,2022-06-28,1,,,,,ワカヤマブンコ,0
565,3010001227679,新規,0,2022-06-28,2022-06-28,株式会社渋谷不動産,,株式会社,東京都,千代田区,永田町２丁目１４番３号赤坂東急ビル８階,,13,101,1000014,,,,,,,2022-06-28,1,,,,,,0
568,3010003037993,新規,0,2022-06-28,2022-06-28,Ｓ＆Ｄ合同会社,,合同会社,東京都,千代田区,神田神保町２丁目４６赤石建設ビル４０１,,13,101,1010051,,,,,,,2022-06-28,1,,,,,,0
571,3010103001940,新規,0,2022-06-28,2022-06-28,合同会社いつきセレモニー,,合同会社,東京都,八王子市,小宮町７４７番地の１,,13,201,1920031,,,,,,,2022-06-28,1,,,,,イツキセレモニー,0
572,3010401168201,新規,0,2022-06-28,2022-06-28,株式会社Ｒｅ‐ｐｏｒｔ,,株式会社,東京都,港区,芝３丁目２２番８号ベルファース芝公園１７０３,,13,103,1050014,,,,,,,2022-06-28,1,,,,,リポート,0
573,3010403027941,新規,0,2022-06-28,2022-06-28,日比谷クラウドサービス合同会社,,合同会社,東京都,港区,西新橋１丁目２番９号日比谷セントラルビル１４階,,13,103,1050003,,,,,,,2022-06-28,1,,,,,ヒビヤクラウドサービス,0
574,3010403027990,新規,0,2022-06-28,2022-06-28,合同会社ザ・セミナーズ,,合同会社,東京都,港区,南青山２丁目２番１５号,,13,103,1070062,,,,,,,2022-06-28,1,,,,,ザセミナーズ,0
590,3010901051121,新規,0,2022-06-28,2022-06-28,株式会社Ｍハウス,,株式会社,東京都,世田谷区,梅丘１丁目１５番１１号,,13,112,1540022,,,,,,,2022-06-28,1,,,,,エムハウス,0
606,3011101099348,新規,0,2022-06-28,2022-06-28,株式会社ＲＩＤＩＣ,,株式会社,東京都,新宿区,四谷１丁目２２番地５,,13,104,1600004,,,,,,,2022-06-28,1,,,,,リディック,0
607,3011101099356,新規,0,2022-06-28,2022-06-28,株式会社仁愛,,株式会社,東京都,新宿区,新宿６丁目２０番８ー１３０１号,,13,104,1600022,,,,,,,2022-06-28,1,,,,,ジンアイ,0
608,3011405002206,新規,0,2022-06-28,2022-06-28,一般社団法人在日華人旅行業協会,,その他の設立登記法人,東京都,板橋区,仲宿６３番７号,,13,119,1730005,,,,,,,2022-06-28,1,,,,,ザイニチカジンリョコウギョウキョウカイ,0
615,3012401039340,新規,0,2022-06-28,2022-06-28,ＤｉｐｏｌｅＪａｐａｎ株式会社,,株式会社,東京都,狛江市,東和泉４丁目６番１０号タマリバーヒルズ１０１号,,13,219,2010014,,,,,,,2022-06-28,1,,,,,ディポールジャパン,0
617,3012801021682,新規,0,2022-06-28,2022-06-28,株式会社ＬＯＴＵＳ,,株式会社,東京都,立川市,錦町２丁目１番３１号衛門ビル４階,,13,202,1900022,,,,,,,2022-06-28,1,,,,,ロータス,0
618,3013301049314,新規,0,2022-06-28,2022-06-28,株式会社ＢＬＯＯＭ,,株式会社,東京都,豊島区,北大塚１丁目１５番１－６０７号,,13,116,1700004,,,,,,,2022-06-28,1,,,,,ブルーム,0
624,3020001147083,新規,0,2022-06-28,2022-06-28,ＪＡＰＡＮ　ＴＵＵ株式会社,,株式会社,神奈川県,横浜市都筑区,中川中央１丁目５番４,,14,118,2240003,,,,,,,2022-06-28,1,,,,,ジャパンツウ,0
625,3020001147091,新規,0,2022-06-28,2022-06-28,サンテラス株式会社,,株式会社,神奈川県,横浜市神奈川区,神大寺２丁目３２番５号,,14,102,2210801,,,,,,,2022-06-28,1,,,,,サンテラス,0
629,3020003021971,新規,0,2022-06-28,2022-06-28,合同会社シエリ,,合同会社,神奈川県,横浜市港北区,綱島東２丁目１－１０－４０６,,14,109,2230052,,,,,,,2022-06-28,1,,,,,シエリ,0
632,3021001040014,新規,0,2022-06-28,2022-06-28,株式会社漆原,,株式会社,神奈川県,横須賀市,根岸町４丁目２５番９号,,14,201,2390807,,,,,,,2022-06-28,1,,,,,ウルシハラ,0
642,3030001148898,新規,0,2022-06-28,2022-06-28,株式会社Ｓｔｕｄｉｏ　Ｂｅｒｇｃｈｅｎ,,株式会社,埼玉県,さいたま市西区,大字水判土４２４番地５,,11,101,3310059,,,,,,,2022-06-28,1,,,,,スタジオベルクシェン,0
643,3030001148915,新規,0,2022-06-28,2022-06-28,株式会社ｊａｐａｎｐｌｕｓ,,株式会社,埼玉県,春日部市,栄町２丁目６５番地５,,11,214,3440058,,,,,,,2022-06-28,1,,,,,ジャパンプラス,0
648,3030005020905,新規,0,2022-06-28,2022-06-28,新蕨ハイツ管理組合法人,,その他の設立登記法人,埼玉県,蕨市,塚越７丁目１７番７号,,11,223,3350002,,,,,,,2022-06-28,1,,,,,シンワラビハイツ,0
652,3040001124023,新規,0,2022-06-28,2022-06-28,株式会社サトウ工務店,,株式会社,千葉県,四街道市,鹿放ケ丘３６９番地,,12,228,2840008,,,,,,,2022-06-28,1,,,,,サトウコウムテン,0
668,3060001035012,新規,0,2022-06-28,2022-06-28,リーハウス建設株式会社,,株式会社,栃木県,那須塩原市,高林１７２１番地７６,,09,213,3250107,,,,,,,2022-06-28,1,,,,,リーハウスケンセツ,0
671,3070001039367,新規,0,2022-06-28,2022-06-28,株式会社ナカデン,,株式会社,群馬県,邑楽郡邑楽町,大字中野２９２７番地２,,10,525,3700603,,,,,,,2022-06-28,1,,,,,ナカデン,0
688,3110003004793,新規,0,2022-06-28,2022-06-28,ＴＳマネージメントコンサルティング合同会社,,合同会社,新潟県,新潟市西区,小針上山５番５号ルミエール青山１－Ｃ,,15,107,9502011,,,,,,,2022-06-28,1,,,,,ティーエスマネージメントコンサルティング,0
698,3120001246957,新規,0,2022-06-28,2022-06-28,株式会社ＡＬＰＨＡ,,株式会社,大阪府,大阪市北区,大淀南２丁目９番１７号プラザハイツ３０６,,27,127,5310075,,,,,,,2022-06-28,1,,,,,アルファ,0
699,3120001246965,新規,0,2022-06-28,2022-06-28,株式会社スレダボ,,株式会社,大阪府,大阪市中央区,淡路町２丁目６番１１号淡路町パークビルＢ１階,,27,128,5410047,,,,,,,2022-06-28,1,,,,,スレダボ,0
701,3120003021953,新規,0,2022-06-28,2022-06-28,合同会社ＮｅｘｔＳｅｌｆ,,合同会社,大阪府,大阪市北区,梅田１丁目１番地３号大阪駅前第３ビル２９階１－１－１号室,,27,127,5300001,,,,,,,2022-06-28,1,,,,,ネクストセルフ,0
702,3120003021986,新規,0,2022-06-28,2022-06-28,合同会社イシュタル,,合同会社,大阪府,大阪市北区,天神橋２丁目１番２４号スペースフォーリブス３０１号室,,27,127,5300041,,,,,,,2022-06-28,1,,,,,イシュタル,0
719,3140001126488,新規,0,2022-06-28,2022-06-28,ウィンホールディングス株式会社,,株式会社,兵庫県,宝塚市,平井山荘２２番３号,,28,214,6650817,,,,,,,2022-06-28,1,,,,,ウィンホールディングス,0
720,3140001126538,新規,0,2022-06-28,2022-06-28,株式会社つむぎ,,株式会社,兵庫県,神戸市灘区,備後町３丁目１番１７号,,28,102,6570037,,,,,,,2022-06-28,1,,,,,ツムギ,0
721,3140001126546,新規,0,2022-06-28,2022-06-28,株式会社ＡＳＭ,,株式会社,兵庫県,神戸市長田区,苅藻通７丁目４番１号,,28,106,6530032,,,,,,,2022-06-28,1,,,,,エーエスエム,0
722,3140003017859,新規,0,2022-06-28,2022-06-28,イブプランニング合同会社,,合同会社,兵庫県,宝塚市,山手台西２丁目１４番１号,,28,214,6650886,,,,,,,2022-06-28,1,,,,,イブプランニング,0
726,3170003001744,新規,0,2022-06-28,2022-06-28,あいしん合同会社,,合同会社,和歌山県,和歌山市,梅原７７番地５,,30,201,6408452,,,,,,,2022-06-28,1,,,,,アイシン,0
734,3180001151912,新規,0,2022-06-28,2022-06-28,株式会社万和,,株式会社,愛知県,瀬戸市,苗場町５１番地シャルマンコーポ新瀬戸ヒルズ５０４,,23,204,4890983,,,,,,,2022-06-28,1,,,,,マンワ,0
735,3180001151920,新規,0,2022-06-28,2022-06-28,株式会社Ｗｏｎｄｅｒｆｕｌ　Ｌｉｆｅ,,株式会社,愛知県,清須市,清洲２３５０番地２,,23,233,4520942,,,,,,,2022-06-28,1,,,,,ワンダフルライフ,0
736,3180001151937,新規,0,2022-06-28,2022-06-28,チーム・リンクス株式会社,,株式会社,愛知県,名古屋市千種区,春岡１丁目３４番１７号,,23,101,4640848,,,,,,,2022-06-28,1,,,,,チームリンクス,0
739,3180301036367,新規,0,2022-06-28,2022-06-28,株式会社ｏｎｅ,,株式会社,愛知県,刈谷市,神明町５丁目４０３番地４,,23,210,4480034,,,,,,,2022-06-28,1,,,,,ワン,0
743,3190003004019,新規,0,2022-06-28,2022-06-28,合同会社ＴａｂｏＮａｃａｙａ　ＬｏｕｎｇｅＨａｉｒ,,合同会社,三重県,四日市市,笹川５丁目６５－３０,,24,202,5100944,,,,,,,2022-06-28,1,,,,,タボナカヤラウンジヘアー,0
750,3210005010037,新規,0,2022-06-28,2022-06-28,一般社団法人和楽,,その他の設立登記法人,福井県,坂井市,丸岡町友末第１１号１５番地,,18,210,9100344,,,,,,,2022-06-28,1,,,,,ワラク,0
757,3240001060000,新規,0,2022-06-28,2022-06-28,シンライ株式会社,,株式会社,広島県,福山市,入船町２丁目９番２５号,,34,207,7200801,,,,,,,2022-06-28,1,,,,,シンライ,0
762,3250001019631,新規,0,2022-06-28,2022-06-28,株式会社ＣＲ開発,,株式会社,山口県,下関市,大字延行１２７番地,,35,201,7510867,,,,,,,2022-06-28,1,,,,,シーアールカイハツ,0
781,3290001098052,新規,0,2022-06-28,2022-06-28,株式会社長栄,,株式会社,福岡県,飯塚市,伊川５３０番地１,,40,205,8200054,,,,,,,2022-06-28,1,,,,,チョウエイ,0
791,3300003001862,新規,0,2022-06-28,2022-06-28,合同会社Ｆ‐Ｃｏｒｐｏｒａｔｉｏｎ,,合同会社,佐賀県,神埼郡吉野ヶ里町,吉田１４０１番地２,,41,327,8420031,,,,,,,2022-06-28,1,,,,,エフコーポレーション,0
803,3330005010529,新規,0,2022-06-28,2022-06-28,一般社団法人ヘルスシステム研究所,,その他の設立登記法人,熊本県,天草市,佐伊津町４６３－５苓州の里,,43,215,8632171,,,,,,,2022-06-28,1,,,,,ヘルスシステムケンキュウジョ,0
804,3340001024837,新規,0,2022-06-28,2022-06-28,山佐林業株式会社,,株式会社,鹿児島県,肝属郡肝付町,前田９５７番地４３,,46,492,8931206,,,,,,,2022-06-28,1,,,,,ヤマサリンギョウ,0
806,3360001030593,新規,0,2022-06-28,2022-06-28,株式会社陸,,株式会社,沖縄県,名護市,字宮里９５７番地１ベルク宮里７０３号,,47,209,9050011,,,,,,,2022-06-28,1,,,,,リク,0
807,3360001030610,新規,0,2022-06-28,2022-06-28,ａｎｄ　ｏｋｉｎａｗａ株式会社,,株式会社,沖縄県,那覇市,字識名１１０６番地２,,47,201,9020078,,,,,,,2022-06-28,1,,,,,アンドオキナワ,0
810,3370001048726,新規,0,2022-06-28,2022-06-28,株式会社フォレストテックＭ・Ｋ・Ｋ,,株式会社,宮城県,柴田郡大河原町,字新東１６番地６,,04,321,9891246,,,,,,,2022-06-28,1,,,,,フォレストテックエムケーケー,0
812,3370201003555,新規,0,2022-06-28,2022-06-28,矢崎建設株式会社,,株式会社,宮城県,栗原市,築館源光１７番２９号,,04,213,9872211,,,,,,,2022-06-28,1,,,,,ヤザキケンセツ,0
813,3380003005212,新規,0,2022-06-28,2022-06-28,合同会社叶和,,合同会社,福島県,喜多方市,熱塩加納町宮川字中才４０５９,,07,208,9660105,,,,,,,2022-06-28,1,,,,,トワ,0
826,3420001017915,新規,0,2022-06-28,2022-06-28,株式会社Ａ‐ＰＬＵＳ,,株式会社,青森県,青森市,大字筒井字桜川３６番地６,,02,201,0300944,,,,,,,2022-06-28,1,,,,,エープラス,0
831,3430001086918,新規,0,2022-06-28,2022-06-28,株式会社クリーンコーポレーションホテルマネジメント北海道,,株式会社,北海道,札幌市中央区,南二十二条西６丁目２番２５号エムズ南２２条第３ビル４階,,01,101,0640922,,,,,,,2022-06-28,1,,,,,クリーンコーポレーションホテルマネジメントホッカイドウ,0
836,3700150110525,新規,0,2022-06-28,2022-06-28,ＮＯＭＶＤＩＣ　ＣＯＲＰＯＲＡＴＩＯＮ,,外国会社等,,,,,,,,１２０　Ｏｒａｎｇｅ　Ｓｔｒｅｅｔ，　Ｃｉｔｙ　ｏｆ　Ｗｉｌｍｉｎｇｔｏｎ，　Ｃｏｕｎｔｒｙ　ｏｆ　Ｎｅｗ　Ｃａｓｔｌｅ，　Ｄｅｌａｗａｒｅ　１９８０１，Ｕ．Ｓ．Ａ．,,,,,,2022-06-28,1,,,,,ノーブテイツクコーポレーシヨン,0
844,4010001227612,新規,0,2022-06-28,2022-06-28,株式会社みらい会計舎,,株式会社,東京都,千代田区,神田鍛冶町３丁目７番２１号天翔神田ビル３階,,13,101,1010045,,,,,,,2022-06-28,1,,,,,ミライカイケイシャ,0
846,4010005035185,新規,0,2022-06-28,2022-06-28,一般社団法人全日本募金会,,その他の設立登記法人,東京都,中央区,京橋２丁目７番８号,,13,102,1040031,,,,,,,2022-06-28,1,,,,,ゼンニホンボキンカイ,0
850,4010401168134,新規,0,2022-06-28,2022-06-28,株式会社Ｄｅｅｐｂｏｘ,,株式会社,東京都,港区,高輪４丁目１０番３１号,,13,103,1080074,,,,,,,2022-06-28,1,,,,,ディープボックス,0
851,4010401168191,新規,0,2022-06-28,2022-06-28,株式会社ＺＵＤＯＵ,,株式会社,東京都,港区,東麻布１丁目９番１１－７０４号,,13,103,1060044,,,,,,,2022-06-28,1,,,,,ズドウ,0
852,4010401168200,新規,0,2022-06-28,2022-06-28,株式会社コンヴィヴィアル,,株式会社,東京都,港区,白金１丁目２５番１８－６０１号,,13,103,1080072,,,,,,,2022-06-28,1,,,,,コンヴィヴィアル,0
853,4010401168225,新規,0,2022-06-28,2022-06-28,株式会社古今点,,株式会社,東京都,港区,高輪４丁目１５番１９－９０２号,,13,103,1080074,,,,,,,2022-06-28,1,,,,,ココンテン,0
859,4010405021108,新規,0,2022-06-28,2022-06-28,一般社団法人日本ＣＢＤ普及協会,,その他の設立登記法人,東京都,港区,北青山３丁目１２番７－１００３号,,13,103,1070061,,,,,,,2022-06-28,1,,,,,ニホンシービーディーフキュウキョウカイ,0
860,4010405021149,新規,0,2022-06-28,2022-06-28,特定目的会社アールイープロジェクトワン,,その他の設立登記法人,東京都,港区,六本木６丁目１０番１号六本木ヒルズ森タワー,,13,103,1060032,,,,,,,2022-06-28,1,,,,,アールイープロジェクトワン,0
869,4010801033078,新規,0,2022-06-28,2022-06-28,ＣｒｙｐｔｏＢｒａｉｎｓ株式会社,,株式会社,東京都,大田区,大森西２丁目２番地２２号,,13,111,1430015,,,,,,,2022-06-28,1,,,,,クリプトブレインズ,0
871,4010803004218,新規,0,2022-06-28,2022-06-28,合同会社ＳＯＬＡＴＩＯ,,合同会社,東京都,大田区,南千束３丁目１７番１０号ＳＯＬＡＴＩＯ３０１,,13,111,1450063,,,,,,,2022-06-28,1,,,,,ソラティーオ,0
881,4011001148369,新規,0,2022-06-28,2022-06-28,株式会社Ｎ　Ｃｒａｆｔ．,,株式会社,東京都,渋谷区,神宮前６丁目２３番４号２Ｆ,,13,113,1500001,,,,,,,2022-06-28,1,,,,,エヌクラフト,0
882,4011001148377,新規,0,2022-06-28,2022-06-28,株式会社ミキモ,,株式会社,東京都,目黒区,東が丘１丁目２番２０号,,13,110,1520021,,,,,,,2022-06-28,1,,,,,ミキモ,0
897,4011101099355,新規,0,2022-06-28,2022-06-28,株式会社ｍｕｓｕｂｕ,,株式会社,東京都,新宿区,高田馬場１丁目３１番７－４０４号,,13,104,1690075,,,,,,,2022-06-28,1,,,,,ムスブ,0
910,4012803002820,新規,0,2022-06-28,2022-06-28,美香合同会社,,合同会社,東京都,日野市,大字上田３９５－２１,,13,212,1910014,,,,,,,2022-06-28,1,,,,,ミカ,0
912,4013301049313,新規,0,2022-06-28,2022-06-28,株式会社ライスボンズ,,株式会社,東京都,豊島区,西巣鴨２丁目１２番１１号,,13,116,1700001,,,,,,,2022-06-28,1,,,,,ライスボンズ,0
919,4020001147066,新規,0,2022-06-28,2022-06-28,株式会社Ｃｅｒｃｌｅ,,株式会社,神奈川県,横浜市西区,みなとみらい４丁目９番２－Ｄ２８０８号,,14,103,2200012,,,,,,,2022-06-28,1,,,,,セルクル,0
920,4020001147108,新規,0,2022-06-28,2022-06-28,株式会社Ｒｅｓｏ　Ｔｒａｄｉｎｇ,,株式会社,神奈川県,横浜市神奈川区,大口仲町１７３番地１２,,14,102,2210003,,,,,,,2022-06-28,1,,,,,レゾトレーディング,0
921,4020001147116,新規,0,2022-06-28,2022-06-28,株式会社Ｒｅａｌｔｏｒ,,株式会社,神奈川県,横浜市港南区,上永谷４丁目１１番３号,,14,111,2330012,,,,,,,2022-06-28,1,,,,,リアルター,0
924,4020003022011,新規,0,2022-06-28,2022-06-28,合同会社エイチアイエスコーポレーション,,合同会社,神奈川県,横浜市磯子区,森５丁目４番３号,,14,107,2350023,,,,,,,2022-06-28,1,,,,,エイチアイエスコーポレーション,0
931,4021003011879,新規,0,2022-06-28,2022-06-28,合同会社Ｄｒｏｏｐｉｎｇ　ｅｙｅｓ,,合同会社,神奈川県,愛甲郡清川村,煤ヶ谷１１０４番地の６９,,14,402,2430112,,,,,,,2022-06-28,1,,,,,ドロッピングアイズ,0
937,4030001148872,新規,0,2022-06-28,2022-06-28,株式会社ＧＥＮＫＯ,,株式会社,埼玉県,川口市,南町２丁目２番６号,,11,203,3320026,,,,,,,2022-06-28,1,,,,,ゲンコ,0
938,4030001148889,新規,0,2022-06-28,2022-06-28,株式会社エストイン,,株式会社,埼玉県,越谷市,大字大道７４０番地１,,11,222,3430035,,,,,,,2022-06-28,1,,,,,エストイン,0
939,4030001148897,新規,0,2022-06-28,2022-06-28,株式会社アイメンテ,,株式会社,埼玉県,さいたま市桜区,大字白鍬２０３番地１１,,11,106,3380811,,,,,,,2022-06-28,1,,,,,アイメンテ,0
940,4030001148930,新規,0,2022-06-28,2022-06-28,株式会社ぼくらのみらい,,株式会社,埼玉県,さいたま市緑区,大字大間木１５４５－１－５棟５０４号,,11,109,3360923,,,,,,,2022-06-28,1,,,,,ボクラノミライ,0
953,4040001123998,新規,0,2022-06-28,2022-06-28,株式会社Ｖ＆Ｃ,,株式会社,千葉県,柏市,篠籠田１５０８番地７グリーンビレッジＩＩ－２０５号,00127038,12,217,2770862,,,,,,,2022-06-28,1,,,,,ブイアンドシー,0
958,4040003020343,新規,0,2022-06-28,2022-06-28,合同会社ＳＴＡＲＴ,,合同会社,千葉県,市原市,五井東２丁目１２番地２９,,12,219,2900055,,,,,,,2022-06-28,1,,,,,スタート,0
967,4070001039374,新規,0,2022-06-28,2022-06-28,株式会社Ｔ　Ｔ　Ａｒｃｈｉｔｅｃｔｓ,,株式会社,群馬県,前橋市,元総社町５９番地７,,10,201,3710846,,,,,,,2022-06-28,1,,,,,ティーティーアーキテクツ,0
987,4120001246989,新規,0,2022-06-28,2022-06-28,株式会社アスクライト,,株式会社,大阪府,大阪市住之江区,浜口西１丁目４８３番地１,,27,125,5590006,,,,,,,2022-06-28,1,,,,,アスクライト,0
988,4120003021985,新規,0,2022-06-28,2022-06-28,合同会社渚治郎兵衛,00127031,合同会社,大阪府,枚方市,渚本町１２番８号,,27,210,5731181,,,,,,,2022-06-28,1,,,,,ナギサジロウベエ,0
999,4120101065802,新規,0,2022-06-28,2022-06-28,Ｊａｄｅ　ｓｔｙｌｅ株式会社,,株式会社,大阪府,堺市西区,浜寺石津町西４丁１番１８号,,27,144,5928333,,,,,,,2022-06-28,1,,,,,ジェイドスタイル,0
1000,4120902023306,新規,0,2022-06-28,2022-06-28,有限会社三協スプリング製作所,,有限会社,大阪府,豊中市,穂積２丁目６番７号,,27,203,5610856,,,,,,,2022-06-28,1,,,,,サンキョウスプリングセイサクショ,0
1006,4130001072063,新規,0,2022-06-28,2022-06-28,株式会社Ｆｏｒ　Ｌｉｂｅｒｔｙ,,株式会社,京都府,城陽市,寺田東ノ口１２番地の４,,26,207,6100121,,,,,,,2022-06-28,1,,,,,フォーリバティー,0
1007,4130001072071,新規,0,2022-06-28,2022-06-28,株式会社十倉康吉商店,,株式会社,京都府,亀岡市,大井町土田１丁目２０－１,,26,206,6210011,,,,,,,2022-06-28,1,,,,,トクラヤスキチショウテン,0
1008,4130003008016,新規,0,2022-06-28,2022-06-28,京境商事合同会社,,合同会社,京都府,京都市下京区,朱雀宝蔵町４４番地協栄ビル２階京都朱雀スタジオ,,26,106,6008846,,,,,,,2022-06-28,1,,,,,ケイケイショウジ,0
1009,4130003008032,新規,0,2022-06-28,2022-06-28,合同会社ジャパンネットマーケット,,合同会社,京都府,京都市中京区,西ノ京月輪町３－１５,,26,104,6048444,,,,,,,2022-06-28,1,,,,,ジャパンネットマーケット,0
1018,4140001126529,新規,0,2022-06-28,2022-06-28,株式会社玉越板金,,株式会社,兵庫県,姫路市,玉手２丁目３５３番地６,,28,201,6700985,,,,,,,2022-06-28,1,,,,,タマコシバンキン,0
1019,4140001126537,新規,0,2022-06-28,2022-06-28,株式会社ＴＯＫＩＷＡ,,株式会社,兵庫県,豊岡市,引野５４０番地,,28,209,6680843,,,,,,,2022-06-28,1,,,,,トキワ,0
1022,4150001025655,新規,0,2022-06-28,2022-06-28,株式会社リボーン,,株式会社,奈良県,香芝市,畑４丁目５４８,,29,210,6390245,,,,,,,2022-06-28,1,,,,,リボーン,0
1033,4180001151911,新規,0,2022-06-28,2022-06-28,株式会社Ｎスクエア,,株式会社,愛知県,丹羽郡扶桑町,大字小淵１２４７番地１,,23,362,4800106,,,,,,,2022-06-28,1,,,,,エヌスクエア,0
1038,4180303005369,新規,0,2022-06-28,2022-06-28,木陽合同会社,,合同会社,愛知県,岡崎市,日名南町１４番地１１アベニュー日名公園１０２,,23,202,4440915,,,,,,,2022-06-28,1,,,,,モクヨウ,0
1040,4190001029545,新規,0,2022-06-28,2022-06-28,ＩＨＤ株式会社,,株式会社,三重県,三重郡菰野町,大字川北８８８番地,,24,341,5101224,,,,,,,2022-06-28,1,,,,,アイエイチディー,0
1050,4210001018974,新規,0,2022-06-28,2022-06-28,株式会社Ｓｙｚｙｇｙ,,株式会社,福井県,坂井市,春江町江留下屋敷７２－１,,18,210,9190414,,,,,,,2022-06-28,1,,,,,シジジー,0
1054,4230001019426,新規,0,2022-06-28,2022-06-28,株式会社アクタス,,株式会社,富山県,富山市,上飯野２５番地６,,16,201,9300827,,,,,,,2022-06-28,1,,,,,アクタス,0
1056,4240001059999,新規,0,2022-06-28,2022-06-28,ミヤキョウグラシ株式会社,,株式会社,広島県,広島市中区,袋町４番３１号,,34,101,7300036,,,,,,,2022-06-28,1,,,,,ミヤキョウグラシ,0
1058,4240003005687,新規,0,2022-06-28,2022-06-28,合同会社ＨＤＰ,,合同会社,広島県,廿日市市,四季が丘３丁目８－５,,34,213,7380036,,,,,,,2022-06-28,1,,,,,エイチディーピー,0
1069,4290001098043,新規,0,2022-06-28,2022-06-28,株式会社九州介護医療センター,,株式会社,福岡県,福岡市中央区,清川１丁目９番２０号,,40,133,8100005,,,,,,,2022-06-28,1,,,,,キュウシュウカイゴイリョウセンター,0
1070,4290001098051,新規,0,2022-06-28,2022-06-28,株式会社ワイズ,,株式会社,福岡県,福津市,若木台６丁目１０番地の８,,40,224,8113221,,,,,,,2022-06-28,1,,,,,ワイズ,0
1071,4290001098084,新規,0,2022-06-28,2022-06-28,株式会社ｓｅｒｉ,,株式会社,福岡県,福岡市中央区,長浜２丁目２番８－８０１号,,40,133,8100072,,,,,,,2022-06-28,1,,,,,セリ,0
1072,4290003012679,新規,0,2022-06-28,2022-06-28,合同会社ｒｅｓｏ,,合同会社,福岡県,春日市,下白水北５丁目４８番地２,,40,218,8160854,,,,,,,2022-06-28,1,,,,,レゾ,0
1087,4350001017830,新規,0,2022-06-28,2022-06-28,株式会社クロスワン,,株式会社,宮崎県,宮崎市,千草町２番１４号,,45,201,8800006,,,,,,,2022-06-28,1,,,,,クロスワン,0
1091,4360003012110,新規,0,2022-06-28,2022-06-28,合同会社銘心,,合同会社,沖縄県,浦添市,字沢岻１２５７,,47,208,9012112,,,,,,,2022-06-28,1,,,,,メイシン,0
1092,4360003012119,新規,0,2022-06-28,2022-06-28,合同会社玲泉,,合同会社,沖縄県,宮古島市,平良字西仲宗根４９３番地５,,47,214,9060006,,,,,,,2022-06-28,1,,,,,レイセン,0
1106,4430001086909,新規,0,2022-06-28,2022-06-28,ＮＥＷＰＡＧＥ株式会社,,株式会社,北海道,札幌市中央区,南八条西２０丁目１番２１－２０２号,,01,101,0640808,,,,,,,2022-06-28,1,,,,,ニューページ,0
1107,4430001086917,新規,0,2022-06-28,2022-06-28,株式会社クリーンコーポレーション札幌,,株式会社,北海道,札幌市中央区,南二十二条西６丁目２番２５号エムズ南２２条第３ビル４階,,01,101,0640922,,,,,,,2022-06-28,1,,,,,クリーンコーポレーションサッポロ,0
1108,4430003014041,新規,0,2022-06-28,2022-06-28,合同会社Ｂｏｏｇｉｅ’ｓ,,合同会社,北海道,苫小牧市,春日町３丁目１１番２１号,,01,213,0530031,,,,,,,2022-06-28,1,,,,,ブギーズ,0
1109,4430003014058,新規,0,2022-06-28,2022-06-28,合同会社梅木組,,合同会社,北海道,札幌市中央区,南九条西６丁目１番３０－４０８号,,01,101,0640809,,,,,,,2022-06-28,1,,,,,ウメキグミ,0
1112,4460001005709,新規,0,2022-06-28,2022-06-28,株式会社セナヴィーノ,,株式会社,北海道,川上郡弟子屈町,字奥春別原野４０８番地２２,,01,665,0883200,,,,,,,2022-06-28,1,,,,,セナヴィーノ,0
1116,4500001024299,新規,0,2022-06-28,2022-06-28,株式会社ピュアライン,,株式会社,愛媛県,松山市,南堀端町３番地７サーパス南堀端１４０１号,,38,201,7900006,,,,,,,2022-06-28,1,,,,,ピュアライン,0
1117,4700150110524,新規,0,2022-06-28,2022-06-28,ＮＥＷＷＩＮＧ　ＬＩＭＩＴＥＤ,,外国会社等,新潟県,南魚沼郡湯沢町,大字土樽１６１３,,15,461,9496103,Ｖｉｓｔｒａ　Ｃｏｒｐｏｒａｔｅ　Ｓｅｒｖｉｃｅｓ　Ｃｅｎｔｒｅ，　Ｗｉｃｋｈａｍｓ　Ｃａｙ　ＩＩ，　Ｒｏａｄ　Ｔｏｗｎ　Ｔｏｒｔｏｌａ　ＶＧ１１１０　Ｂｒｉｔｉｓｈ,00127034,,,,,2022-06-28,1,,,,,ニユーウイングリミテツド,0
1118,4700150110557,新規,0,2022-06-28,2022-06-28,ＪＣＵ　Ｍｙａｎｍａｒ　株式会社,,外国会社等,沖縄県,豊見城市,字宜保２６６番地の２１,,47,212,9010244,ミャンマー連邦共和国ヤンゴン、南オクラパ郡区１４／３小区、インマーストリート、１７６／１番、１階（Ａ）,,,,,,2022-06-28,1,,,,,ジエーシーユーミヤンマーカブシキガイシヤ,0
1127,5010001227644,新規,0,2022-06-28,2022-06-28,株式会社グラビクタ,,株式会社,東京都,千代田区,神田佐久間町１丁目１４番地,,13,101,1010025,,,,,,,2022-06-28,1,,,,,グラビクタ,0
1128,5010001227685,新規,0,2022-06-28,2022-06-28,株式会社テクノキング,,株式会社,東京都,中央区,勝どき４丁目１１－９Ｌｏｇ勝どき１００１,,13,102,1040054,,,,,,,2022-06-28,1,,,,,テクノキング,0
1131,5010003037942,新規,0,2022-06-28,2022-06-28,合同会社コネクトワイド,,合同会社,東京都,中央区,銀座１丁目２２－１１銀座大竹ビジデンス２階,,13,102,1040061,,,,,,,2022-06-28,1,,,,,コネクトワイド,0
1133,5010005035176,新規,0,2022-06-28,2022-06-28,一般社団法人医療サイバーセキュリティ協議会,,その他の設立登記法人,東京都,中央区,佃２丁目２番１１号,,13,102,1040051,,,,,,,2022-06-28,1,,,,,イリョウサイバーセキュリティキョウギカイ,0
1134,5010005035184,新規,0,2022-06-28,2022-06-28,Ｆｕｔａｔｓｕ特定目的会社,,その他の設立登記法人,東京都,千代田区,霞が関３丁目２番５号,,13,101,1000013,,,,,,,2022-06-28,1,,,,,フタツ,0
1138,5010401168216,新規,0,2022-06-28,2022-06-28,株式会社サイレックスペイ,,株式会社,東京都,港区,港南２丁目１６－１品川イーストワンタワー４階,,13,103,1080075,,,,,,,2022-06-28,1,,,,,サイレックスペイ,0
1143,5010405021148,新規,0,2022-06-28,2022-06-28,特定目的会社三河ロジデベロップメント,,その他の設立登記法人,東京都,港区,六本木６丁目１０番１号六本木ヒルズ森タワー,,13,103,1060032,,,,,,,2022-06-28,1,,,,,ミカワロジデベロップメント,0
1144,5010501049027,新規,0,2022-06-28,2022-06-28,株式会社ＪＰＮ,,株式会社,東京都,台東区,浅草２丁目１１－７和田ビルＢ１,,13,106,1110032,,,,,,,2022-06-28,1,,,,,ジェイピーエヌ,0
1145,5010503006629,新規,0,2022-06-28,2022-06-28,合同会社ＧＩＮＮＥＺ,,合同会社,東京都,台東区,東浅草２丁目１０番８－６０３号,,13,106,1110025,,,,,,,2022-06-28,1,,,,,ギンネズ,0
1146,5010701042888,新規,0,2022-06-28,2022-06-28,株式会社ネクスト,,株式会社,東京都,品川区,東五反田１丁目８番３号ディーウイング島津山６０２,,13,109,1410022,,,,,,,2022-06-28,1,,,,,ネクスト,0
1160,5011001148351,新規,0,2022-06-28,2022-06-28,株式会社ヒルトップ２,,株式会社,東京都,渋谷区,南平台町６番１８号,,13,113,1500036,,,,,,,2022-06-28,1,,,,,ヒルトップツー,0
1164,5011101099354,新規,0,2022-06-28,2022-06-28,株式会社ＲＧＪ,,株式会社,東京都,新宿区,歌舞伎町１丁目１７番７号ＪＡビル２階,,13,104,1600021,,,,,,,2022-06-28,1,,,,,アールジージェイ,0
1179,5011801040930,新規,0,2022-06-28,2022-06-28,運通株式会社,,株式会社,東京都,葛飾区,東新小岩２丁目１０番５－４０４号,,13,122,1240023,,,,,,,2022-06-28,1,,,,,ユントン,0
1180,5012401039347,新規,0,2022-06-28,2022-06-28,ｓｕｋｈａｖａｔｉ株式会社,,株式会社,東京都,稲城市,坂浜３９３番地の１センチュリー坂浜１０９,,13,225,2060822,,,,,,,2022-06-28,1,,,,,スカーバティー,0
1182,5012403005454,新規,0,2022-06-28,2022-06-28,合同会社ＥＡＳＹ　ＴＨＲＥＥ,,合同会社,東京都,府中市,浅間町４丁目２４番地１０,,13,206,1830001,,,,,,,2022-06-28,1,,,,,イージースリー,0
1187,5013301049312,新規,0,2022-06-28,2022-06-28,株式会社幸桜,,株式会社,東京都,豊島区,千川２丁目２番４号,,13,116,1710041,,,,,,,2022-06-28,1,,,,,サチザクラ,0
1201,5020003022010,新規,0,2022-06-28,2022-06-28,合同会社小嶋企画,,合同会社,神奈川県,川崎市中原区,丸子通２丁目６８０番地レーヴ５０２,,14,133,2110006,,,,,,,2022-06-28,1,,,,,コジマキカク,0
1211,5021003011878,新規,0,2022-06-28,2022-06-28,合同会社Ｔｒｅｅ　Ｖｉｌｌａｇｅ,,合同会社,神奈川県,足柄下郡湯河原町,吉浜１２５１番地,,14,384,2590312,,,,,,,2022-06-28,1,,,,,ツリービレッジ,0
1216,5030001148905,新規,0,2022-06-28,2022-06-28,株式会社Ｕｍａｒｋｅｔ,,株式会社,埼玉県,川口市,弥平２丁目１７番１１－１Ｆ,,11,203,3320002,,,,,,,2022-06-28,1,,,,,ユーマーケット,0
1221,5040001124005,新規,0,2022-06-28,2022-06-28,株式会社Ｐｌａｙ　Ｌｉｆｅ　Ｓｔｕｄｉｏ,,株式会社,千葉県,市川市,鬼高２丁目１６－１２,,12,203,2720015,,,,,,,2022-06-28,1,,,,,プレイライフスタジオ,0
1222,5040001124013,新規,0,2022-06-28,2022-06-28,株式会社Ａｐｅｃｓコーポレーション,,株式会社,千葉県,千葉市稲毛区,宮野木町１８０９番地６５,,12,103,2630054,,,,,,,2022-06-28,1,,,,,エイペクスコーポレーション,0
1226,5040003020342,新規,0,2022-06-28,2022-06-28,合同会社Ｌｉｔｔｌｅ　Ｅｌｋ,,合同会社,千葉県,市川市,南八幡１丁目１４番８号,,12,203,2720023,,,,,,,2022-06-28,1,,,,,リトルエルク,0
1230,5050003006646,新規,0,2022-06-28,2022-06-28,合同会社のびのび,,合同会社,茨城県,水戸市,渡里町２８６５番地の１１,,08,201,3100902,,,,,,,2022-06-28,1,,,,,ノビノビ,0
1236,5090003002121,新規,0,2022-06-28,2022-06-28,合同会社エムイーグル,,合同会社,山梨県,甲府市,東光寺町２０５７番地１９グリーンヒル愛宕１１－９,,19,201,4000808,,,,,,,2022-06-28,1,,,,,エムイーグル,0
1246,5120001246971,新規,0,2022-06-28,2022-06-28,株式会社Ｃｒｅｓｃｅｎｔ,,株式会社,大阪府,枚方市,茄子作３丁目３０番３７号,,27,210,5730071,,,,,,,2022-06-28,1,,,,,クレスセント,0
1247,5120001246988,新規,0,2022-06-28,2022-06-28,株式会社ＶＩＮＡＪＡＰＡＮ,,株式会社,大阪府,大阪市平野区,加美北３丁目７番３４号,,27,126,5470001,,,,,,,2022-06-28,1,,,,,ヴィナジャパン,0
1250,5120005023013,新規,0,2022-06-28,2022-06-28,一般社団法人彩里,,その他の設立登記法人,大阪府,大阪市西淀川区,姫島４丁目４番１８号,,27,113,5550033,,,,,,,2022-06-28,1,,,,,サイリ,0
1253,5120901046158,新規,0,2022-06-28,2022-06-28,株式会社エスケイビル,,株式会社,大阪府,豊中市,緑丘１丁目３２番１１－８０７号,,27,203,5600002,,,,,,,2022-06-28,1,,,,,エスケイビル,0
1265,5140003017865,新規,0,2022-06-28,2022-06-28,合同会社ＡＡＭＡ,,合同会社,兵庫県,豊岡市,大手町１番２４号,,28,209,6680031,,,,,,,2022-06-28,1,,,,,アーマ,0
1269,5150003002718,新規,0,2022-06-28,2022-06-28,合同会社ビューティーストア,,合同会社,奈良県,磯城郡田原本町,大字宮古３２９－４,,29,363,6360302,,,,,,,2022-06-28,1,,,,,ビューティーストア,0
1282,5180001151885,新規,0,2022-06-28,2022-06-28,株式会社Ｍｉｕｉｔ,,株式会社,愛知県,名古屋市港区,辰巳町３３番３号,,23,111,4550003,,,,,,,2022-06-28,1,,,,,ミウイット,0
1283,5180001151919,新規,0,2022-06-28,2022-06-28,Ｔ・ＴＥＡＭ株式会社,,株式会社,愛知県,名古屋市中川区,大当郎３丁目１１０４番地の２,,23,110,4540943,,,,,,,2022-06-28,1,,,,,ティーチーム,0
1284,5180001151927,新規,0,2022-06-28,2022-06-28,株式会社セカンドテクノ,,株式会社,愛知県,名古屋市瑞穂区,新開町１１番１９号,,23,108,4670856,,,,,,,2022-06-28,1,,,,,セカンドテクノ,0
1286,5180003023975,新規,0,2022-06-28,2022-06-28,ＤＯＧＡＮ工業合同会社,,合同会社,愛知県,津島市,神守町字六反田２１番地,,23,208,4960005,,,,,,,2022-06-28,1,,,,,ドガンコウギョウ,0
1293,5190003004025,新規,0,2022-06-28,2022-06-28,合同会社サンメンテナンス,,合同会社,三重県,伊賀市,柘植町７２２７番地２,,24,216,5191402,,,,,,,2022-06-28,1,,,,,サンメンテナンス,0
1309,5280005007487,新規,0,2022-06-28,2022-06-28,弁護士法人佐藤力法律事務所,,その他の設立登記法人,島根県,松江市,伊勢宮町５１９番地１,,32,201,6900006,,,,,,,2022-06-28,1,,,,,サトウツトムホウリツジムショ,0
1312,5290001098067,新規,0,2022-06-28,2022-06-28,森山株式会社,,株式会社,福岡県,福岡市博多区,吉塚３丁目２８番１４－５０３号,,40,132,8120041,,,,,,,2022-06-28,1,,,,,モリヤマ,0
1314,5290003012678,新規,0,2022-06-28,2022-06-28,Ｇ＆Ｅ合同会社,,合同会社,福岡県,福岡市西区,大字吉武８３３番地９,,40,135,8190036,,,,,,,2022-06-28,1,,,,,ジーアンドイー,0
1319,5300001012975,新規,0,2022-06-28,2022-06-28,株式会社Ｗｉｍ,,株式会社,佐賀県,佐賀市,久保泉町大字下和泉６１１－６,,41,201,8490903,,,,,,,2022-06-28,1,,,,,ウィム,0
1323,5330003009430,新規,0,2022-06-28,2022-06-28,合同会社ピエリス,,合同会社,熊本県,阿蘇郡小国町,大字下城２５３０番地１,,43,424,8692503,,,,,,,2022-06-28,1,,,,,ピエリス,0
1324,5340001024843,新規,0,2022-06-28,2022-06-28,株式会社ＵＮ,,株式会社,鹿児島県,鹿屋市,串良町有里５１３７番地３,,46,203,8931602,,,,,,,2022-06-28,1,,,,,ユーエヌ,0
1328,5360001030600,新規,0,2022-06-28,2022-06-28,株式会社丸西工業,,株式会社,沖縄県,中頭郡西原町,字小那覇１０４９番地２,,47,329,9030103,,,,,,,2022-06-28,1,,,,,マルニシコウギョウ,0
1329,5360001030609,新規,0,2022-06-28,2022-06-28,株式会社サンボックス沖縄,,株式会社,沖縄県,那覇市,曙２丁目２６番６タカダ曙マンション２０３号,,47,201,9000002,,,,,,,2022-06-28,1,,,,,サンボックス,0
1336,5370001048724,新規,0,2022-06-28,2022-06-28,株式会社ＭＯＴＨＥＲ　ＢＯＯＴＨ,,株式会社,宮城県,仙台市泉区,福岡字岳山９－８,,04,105,9813225,,,,,,,2022-06-28,1,,,,,マザーブース,0
1347,5430001086908,新規,0,2022-06-28,2022-06-28,Ｔ‐ＰＬＡＣＥ株式会社,,株式会社,北海道,札幌市東区,北十五条東９丁目１番３２－４０２号,,01,103,0650015,,,,,,,2022-06-28,1,,,,,ティープレイス,0
1348,5430001086916,新規,0,2022-06-28,2022-06-28,株式会社ＳＹＵ．ＯｏＯ,,株式会社,北海道,札幌市中央区,南十三条西１１丁目１番６－２０２号,,01,101,0640913,,,,,,,2022-06-28,1,,,,,シュウオーオオー,0
1375,6010003038007,新規,0,2022-06-28,2022-06-28,スリーアローズ合同会社,,合同会社,東京都,文京区,本郷２丁目２５番１４号第１ライトビル１０６,,13,105,1130033,,,,,,,2022-06-28,1,,,,,スリーアローズ,0
1382,6010401168181,新規,0,2022-06-28,2022-06-28,株式会社ＭＩＹＡＶＩ,,株式会社,東京都,港区,六本木３丁目４番５－６０４号,,13,103,1060032,,,,,,,2022-06-28,1,,,,,ミヤビ,0
1383,6010401168207,新規,0,2022-06-28,2022-06-28,株式会社マッチビズ,,株式会社,東京都,港区,南青山２丁目２番１５号,,13,103,1070062,,,,,,,2022-06-28,1,,,,,マッチビズ,0
1384,6010401168223,新規,0,2022-06-28,2022-06-28,株式会社ＤＥＳＩＧＲＡＭＭＹ,,株式会社,東京都,港区,麻布十番２丁目２０番７号麻布十番高木ビル８Ｆ／９Ｆ麻布十番ＢＩＲＴＨ,00127036,13,103,1060045,,,,,,,2022-06-28,1,,,,,デジグラミー,0
1385,6010403027996,新規,0,2022-06-28,2022-06-28,合同会社デベロッパーアドボケイト,,合同会社,東京都,港区,三田１－６－３シティタワー麻布十番３２０２,,13,103,1050000,,,,,,,2022-06-28,1,,,,,デベロッパーアドボケイト,0
1386,6010405021106,新規,0,2022-06-28,2022-06-28,一般社団法人ウェルカムジャパン,,その他の設立登記法人,東京都,港区,浜松町２丁目２番１５号,,13,103,1050013,,,,,,,2022-06-28,1,,,,,ウェルカムジャパン,0
1388,6010501049034,新規,0,2022-06-28,2022-06-28,株式会社ｉｎｃｌｕｓ　ｗｉｎｅ＆ｂｒｅｗｉｎｇ,,株式会社,東京都,台東区,上野桜木１丁目１１番１１号,,13,106,1100002,,,,,,,2022-06-28,1,,,,,アンクリュワインアンドブルーイング,0
1390,6010601061401,新規,0,2022-06-28,2022-06-28,株式会社ＳＹ工業,,株式会社,東京都,墨田区,東墨田３丁目１４番２１号,,13,107,1310042,,,,,,,2022-06-28,1,,,,,エスワイコウギョウ,0
1391,6010801033076,新規,0,2022-06-28,2022-06-28,株式会社ＬＩＦＥ　ＢＡＳＥ,,株式会社,東京都,大田区,田園調布本町４１－１６,,13,111,1450072,,,,,,,2022-06-28,1,,,,,ライフベース,0
1401,6011001148144,新規,0,2022-06-28,2022-06-28,株式会社アートリティー,,株式会社,東京都,目黒区,駒場４丁目７番１号,,13,110,1530041,,,,,,,2022-06-28,1,,,,,アートリティ,0
1402,6011001148350,新規,0,2022-06-28,2022-06-28,株式会社タオ,,株式会社,東京都,渋谷区,東１丁目２６番３２号,,13,113,1500011,,,,,,,2022-06-28,1,,,,,タオ,0
1403,6011001148375,新規,0,2022-06-28,2022-06-28,株式会社クワトロガッチ,,株式会社,東京都,渋谷区,代々木４丁目２１番３号,,13,113,1510053,,,,,,,2022-06-28,1,,,,,クワトロガッチ,0
1406,6011003014872,新規,0,2022-06-28,2022-06-28,合同会社Ｃｉｔｒｉｎｅ,,合同会社,東京都,渋谷区,道玄坂１丁目１０番８号渋谷道玄坂東急ビル２Ｆ－Ｃ,,13,113,1500043,,,,,,,2022-06-28,1,,,,,シトリン,0
1412,6011305002831,新規,0,2022-06-28,2022-06-28,一般社団法人ＳＬＡＰＰ訴訟から市民を守る会,,その他の設立登記法人,東京都,杉並区,高円寺南４丁目４１番９号,,13,115,1660003,,,,,,,2022-06-28,1,,,,,スラップソショウカラシミンヲマモルカイ,0
1413,6011401024358,新規,0,2022-06-28,2022-06-28,ＢＨ管理株式会社,,株式会社,東京都,板橋区,中台３丁目２０番８号,,13,119,1740064,,,,,,,2022-06-28,1,,,,,ビーエイチカンリ,0
1418,6011603003630,新規,0,2022-06-28,2022-06-28,ＫＮ４ＭＵＳＩＣ合同会社,,合同会社,東京都,練馬区,北町１丁目４４番２７－２０２号,,13,120,1790081,,,,,,,2022-06-28,1,,,,,ケイエヌフォーミュージック,0
1423,6012803002819,新規,0,2022-06-28,2022-06-28,合同会社コムレイズ,,合同会社,東京都,立川市,柴崎町６丁目７番１８号２０５,,13,202,1900023,,,,,,,2022-06-28,1,,,,,コムレイズ,0
1424,6013101008954,新規,0,2022-06-28,2022-06-28,株式会社オネスト,,株式会社,東京都,あきる野市,原小宮２丁目７番地２４,,13,228,1970811,,,,,,,2022-06-28,1,,,,,オネスト,0
1427,6013301049311,新規,0,2022-06-28,2022-06-28,株式会社小田原社中,,株式会社,東京都,豊島区,東池袋３丁目２０番９号池袋ＡＥ－５ビル３Ｆ,,13,116,1700013,,,,,,,2022-06-28,1,,,,,オダワラシャチュウ,0
1442,6021001076385,新規,0,2022-06-28,2022-06-28,ＳｕＳｕ　ａｎｄ株式会社,,株式会社,神奈川県,厚木市,旭町１丁目２１番８号あさひビル２０２号,,14,212,2430014,,,,,,,2022-06-28,1,,,,,ススアンド,0
1456,6040001124020,新規,0,2022-06-28,2022-06-28,株式会社フューチャーデジ,,株式会社,千葉県,千葉市中央区,中央３丁目５番１４千葉中央ハイツ３０３号室,,12,101,2600013,,,,,,,2022-06-28,1,,,,,フューチャーデジ,0
1459,6040003020341,新規,0,2022-06-28,2022-06-28,合同会社ＴＡＮｅＴ,,合同会社,千葉県,浦安市,舞浜２丁目４０－３,,12,227,2790031,,,,,,,2022-06-28,1,,,,,ターネット,0
1463,6050001051305,新規,0,2022-06-28,2022-06-28,株式会社ウォーリーハウス,,株式会社,茨城県,坂東市,岩井４８７７番地１,,08,228,3060631,,,,,,,2022-06-28,1,,,,,ウォーリーハウス,0
1464,6050003006645,新規,0,2022-06-28,2022-06-28,合同会社ＡＢＥ,,合同会社,茨城県,常総市,水海道山田町４５５２番地ヴィラフォーレ３０１,,08,211,3030031,,,,,,,2022-06-28,1,,,,,アベ,0
1469,6060001035026,新規,0,2022-06-28,2022-06-28,ＳＢＴ　ＴＯＫＹＯ株式会社,,株式会社,栃木県,鹿沼市,北赤塚町１０２１番地２,,09,205,3220533,,,,,,,2022-06-28,1,,,,,エスビーティートウキョウ,0
1473,6080101023382,新規,0,2022-06-28,2022-06-28,株式会社業務代行サービス,,株式会社,静岡県,裾野市,千福が丘３丁目１４番１６,,22,220,4101115,,,,,,,2022-06-28,1,,,,,ギョウムダイコウサービス,0
1474,6080103002616,新規,0,2022-06-28,2022-06-28,合同会社Ｋカメラワークスタジオ,,合同会社,静岡県,伊東市,富戸１０２０番地の２９２ロワジール伊豆高原２－４０４号,,22,208,4130231,,,,,,,2022-06-28,1,,,,,ケーカメラワークスタジオ,0
1487,6120003021983,新規,0,2022-06-28,2022-06-28,なごみ合同会社,,合同会社,大阪府,大阪市住吉区,殿辻２丁目１－３エムズ殿辻３Ｆ,,27,120,5580042,,,,,,,2022-06-28,1,,,,,ナゴミ,0
1489,6120101065800,新規,0,2022-06-28,2022-06-28,株式会社Ｅ‐ｓｅｌｅｃｔｉｏｎ,,株式会社,大阪府,和泉市,寺田町１丁目６番３５号,,27,219,5940062,,,,,,,2022-06-28,1,,,,,イーセレクション,0
1496,6130001072078,新規,0,2022-06-28,2022-06-28,Ｌａ　Ｍａｇｎｏｌｉａｓ株式会社,,株式会社,京都府,京都市南区,八条内田町４４番地２,,26,107,6018475,,,,,,,2022-06-28,1,,,,,ラマグノリアス,0
1503,6140001126535,新規,0,2022-06-28,2022-06-28,株式会社Ｓｍｉｌｅ　Ｗｏｏｄ工房,,株式会社,兵庫県,姫路市,大津区吉美２１１番地４,,28,201,6711133,,,,,,,2022-06-28,1,,,,,スマイルウッドコウボウ,0
1506,6140003017856,新規,0,2022-06-28,2022-06-28,Ｄｅｌｉｇｈｔ合同会社,,合同会社,兵庫県,神戸市東灘区,鴨子ケ原３丁目１１番２号,,28,101,6580064,,,,,,,2022-06-28,1,,,,,ディライト,0
1507,6140003017864,新規,0,2022-06-28,2022-06-28,ｓｏｌａｎａ合同会社,,合同会社,兵庫県,神戸市中央区,二宮町３丁目２－１１７０２号室,,28,110,6510093,,,,,,,2022-06-28,1,,,,,ソラナ,0
1511,6150005009405,新規,0,2022-06-28,2022-06-28,大和国際人材派遣協同組合,,その他の設立登記法人,奈良県,御所市,大字東辻４６番地の２,,29,208,6392205,,,,,,,2022-06-28,1,,,,,ヤマトコクサイジンザイハケン,0
1519,6180001151918,新規,0,2022-06-28,2022-06-28,株式会社ＧＡＬＩＬＥＯ　ＳＩＧＮ　ＷＯＲＫＳ,,株式会社,愛知県,西春日井郡豊山町,大字豊場字中之町１２１番地４,,23,342,4800202,,,,,,,2022-06-28,1,,,,,ガリレオサインワークス,0
1520,6180001151926,新規,0,2022-06-28,2022-06-28,株式会社森田建設,,株式会社,愛知県,名古屋市中村区,新富町３丁目２番１２号,,23,105,4530031,,,,,,,2022-06-28,1,,,,,モリタケンセツ,0
1521,6180001151934,新規,0,2022-06-28,2022-06-28,株式会社ＡＲＤ,,株式会社,愛知県,瀬戸市,平町２丁目９番地６,,23,204,4890916,,,,,,,2022-06-28,1,,,,,エーアールディー,0
1524,6180003023982,新規,0,2022-06-28,2022-06-28,合同会社ケイプラン,,合同会社,愛知県,瀬戸市,高根町１丁目４０番地,,23,204,4890931,,,,,,,2022-06-28,1,,,,,ケイプラン,0
1525,6180003023990,新規,0,2022-06-28,2022-06-28,合同会社幸結び,,合同会社,愛知県,知多郡東浦町,大字緒川字上之山２０番地の２,,23,442,4702102,,,,,,,2022-06-28,1,,,,,サチムスビ,0
1528,6180301036364,新規,0,2022-06-28,2022-06-28,ディスカバリー株式会社,,株式会社,愛知県,安城市,桜井町大役田３４番地１９,,23,212,4441154,,,,,,,2022-06-28,1,,,,,ディスカバリー,0
1542,6230003001875,新規,0,2022-06-28,2022-06-28,合同会社ｅｓｐｏｉｒ,,合同会社,富山県,富山市,小杉２８４番地２４,,16,201,9398063,,,,,,,2022-06-28,1,,,,,エスポワール,0
1544,6240001059997,新規,0,2022-06-28,2022-06-28,株式会社きらり,,株式会社,広島県,広島市安佐南区,長楽寺１丁目３番５‐３０１号,,34,105,7310143,,,,,,,2022-06-28,1,,,,,キラリ,0
1568,6290001098058,新規,0,2022-06-28,2022-06-28,株式会社ＦＩＲＥ,,株式会社,福岡県,久留米市,三潴町玉満８４３番地１,,40,203,8300112,,,,,,,2022-06-28,1,,,,,ファイヤー,0
1569,6290001098074,新規,0,2022-06-28,2022-06-28,株式会社ｍｕｓｈａ,,株式会社,福岡県,福岡市博多区,博多駅南３丁目１番１号博多南マークビル４Ｆ,,40,132,8120016,,,,,,,2022-06-28,1,,,,,ムシャ,0
1571,6290003012685,新規,0,2022-06-28,2022-06-28,合同会社チーズ,,合同会社,福岡県,糸島市,浦志３丁目１１番２２号,,40,230,8191112,,,,,,,2022-06-28,1,,,,,チーズ,0
1572,6290801028668,新規,0,2022-06-28,2022-06-28,株式会社ｃｕｌｔｉｖａｔｅ,,株式会社,福岡県,北九州市門司区,栄町２番１７号,,40,101,8010863,,,,,,,2022-06-28,1,,,,,カルティベイト,0
1574,6320001019159,新規,0,2022-06-28,2022-06-28,株式会社ケイ・エス企画,,株式会社,大分県,中津市,大字犬丸６０５番地１,,44,203,8790105,,,,,,,2022-06-28,1,,,,,ケイエスキカク,0
1576,6330001029875,新規,0,2022-06-28,2022-06-28,株式会社ＴＧＣのミ,,株式会社,熊本県,上益城郡山都町,御所３２３９番地１,,43,447,8613502,,,,,,,2022-06-28,1,,,,,ティージーシーノミ,0
1584,6360001030582,新規,0,2022-06-28,2022-06-28,Ｓａｇｅ‐Ｓｅｎｔｉｎｅｌ　Ｓｍａｒｔ　Ｓｏｌｕｔｉｏｎｓ株式会社,,株式会社,沖縄県,国頭郡恩納村,字谷茶１９１９番地１アイスクエア・インキュベーター,,47,311,9040412,,,,,,,2022-06-28,1,,,,,セージセンチネルスマートソリューションズ,0
1585,6360001030616,新規,0,2022-06-28,2022-06-28,Ｊａｐａｎ　Ｗｅｄｄｉｎｇ　Ｃｈａｐｅｌ株式会社,,株式会社,沖縄県,那覇市,前島３丁目２５番２号泊ポートビル５階５１１号室,,47,201,9000016,,,,,,,2022-06-28,1,,,,,ジャパンウエディングチャペル,0
1586,6360001030632,新規,0,2022-06-28,2022-06-28,株式会社ＴＮＧ．ｔｓｕｎａｇｕ,,株式会社,沖縄県,中頭郡北中城村,字ライカム４６１番地,,47,327,9012306,,,,,,,2022-06-28,1,,,,,ティーエヌジーツナグ,0
1588,6360003012125,新規,0,2022-06-28,2022-06-28,合同会社月兎,,合同会社,沖縄県,国頭郡宜野座村,字惣慶１５７８番地２Ｆ,,47,313,9041303,,,,,,,2022-06-28,1,,,,,ゲット,0
1591,6370003005747,新規,0,2022-06-28,2022-06-28,ＫｅｅＭｅｅＯｏｏ合同会社,,合同会社,宮城県,仙台市若林区,新寺４丁目７番１０号４０３,,04,103,9840051,,,,,,,2022-06-28,1,,,,,キーミーオー,0
1603,6400005008249,新規,0,2022-06-28,2022-06-28,一般社団法人岩手県腎臓病の会,,その他の設立登記法人,岩手県,盛岡市,三本柳８地割１番地３,,03,201,0200831,,,,,,,2022-06-28,1,,,,,イワテケンジンゾウビョウノカイ,0
1610,6420001017912,新規,0,2022-06-28,2022-06-28,株式会社ソラノエ,,株式会社,青森県,五所川原市,字烏森３２番地２９,,02,205,0370032,,,,,,,2022-06-28,1,,,,,ソラノエ,0
1622,6430001086907,新規,0,2022-06-28,2022-06-28,株式会社テイクライン,,株式会社,北海道,札幌市厚別区,厚別中央一条２丁目５番３号,,01,108,0040051,,,,,,,2022-06-28,1,,,,,テイクライン,0
1623,6430001086915,新規,0,2022-06-28,2022-06-28,ＭＥＧＵＭＥＩ株式会社,,株式会社,北海道,虻田郡留寿都村,字留寿都２３１番地１１,,01,397,0481731,,,,,,,2022-06-28,1,,,,,メグメイ,0
1626,6430003014048,新規,0,2022-06-28,2022-06-28,ＹＡＱＯＯＢ　ＴＲＡＤＩＮＧ合同会社,,合同会社,北海道,石狩郡当別町,樺戸町５４１番地,,01,303,0610218,,,,,,,2022-06-28,1,,,,,ヤクーブトレーディング,0
1655,7010403027987,新規,0,2022-06-28,2022-06-28,合同会社Ｉｂｌｉｓ,,合同会社,東京都,港区,南青山２丁目２番１５号,,13,103,1070062,,,,,,,2022-06-28,1,,,,,イブリース,0
1658,7010405021105,新規,0,2022-06-28,2022-06-28,弁理士法人六本木通り特許事務所,,その他の設立登記法人,東京都,港区,六本木６丁目２番３１号六本木ヒルズノースタワー１７階,,13,103,1060032,,,,,,,2022-06-28,1,,,,,ロッポンギドオリトッキョジムショ,0
1661,7010501049025,新規,0,2022-06-28,2022-06-28,株式会社アンドオア,,株式会社,東京都,台東区,上野桜木１丁目４番６号,,13,106,1100002,,,,,,,2022-06-28,1,,,,,アンドオア,0
1667,7011001148291,新規,0,2022-06-28,2022-06-28,株式会社Ａｉｌｌｉｏｎ,,株式会社,東京都,渋谷区,東２丁目２７番１号協和第一ビル５Ｆ,,13,113,1500011,,,,,,,2022-06-28,1,,,,,エリオン,0
1674,7011103011892,新規,0,2022-06-28,2022-06-28,ラローズ合同会社,,合同会社,東京都,新宿区,西新宿７丁目１－７新宿ダイカンプラザＡ内,,13,104,1600023,,,,,,,2022-06-28,1,,,,,ラローズ,0
1678,7011201023914,新規,0,2022-06-28,2022-06-28,株式会社マジックタッチ,,株式会社,東京都,中野区,南台３丁目３７番８号,,13,114,1640014,,,,,,,2022-06-28,1,,,,,マジックタッチ,0
1682,7011305002830,新規,0,2022-06-28,2022-06-28,一般社団法人日本身体拘束研究所,,その他の設立登記法人,東京都,杉並区,天沼２丁目３番９号伊藤ビル２階,,13,115,1670032,,,,,,,2022-06-28,1,,,,,ニホンシンタイコウソクケンキュウジョ,0
1685,7011403003706,新規,0,2022-06-28,2022-06-28,合同会社ＬＩＧ,,合同会社,東京都,板橋区,清水町３８番１－１４０２号,,13,119,1740053,,,,,,,2022-06-28,1,,,,,リグ,0
1705,7013303006210,新規,0,2022-06-28,2022-06-28,Ａｍｉｎ　Ｉｎｔｅｒｎａｔｉｏｎａｌ合同会社,,合同会社,東京都,豊島区,南大塚２丁目３４－３斎木アパート３０１号,,13,116,1700005,,,,,,,2022-06-28,1,,,,,アミンインターナショナル,0
1713,7020001146932,新規,0,2022-06-28,2022-06-28,株式会社ヴィクトリー,,株式会社,神奈川県,横浜市港南区,日野中央３丁目９－１－６０６,,14,111,2340053,,,,,,,2022-06-28,1,,,,,ヴィクトリー,0
1723,7030001148795,新規,0,2022-06-28,2022-06-28,株式会社天建,,株式会社,埼玉県,越谷市,大字袋山７６１番地の５,,11,222,3430032,,,,,,,2022-06-28,1,,,,,,0
1724,7030001148894,新規,0,2022-06-28,2022-06-28,株式会社ＦＡＩＲＳ,,株式会社,埼玉県,本庄市,柏２丁目２番２号,,11,211,3670045,,,,,,,2022-06-28,1,,,,,フェアーズ,0
1725,7030001148903,新規,0,2022-06-28,2022-06-28,株式会社テネラメンテ,,株式会社,埼玉県,比企郡吉見町,大字江綱１４９６番地１１,,11,347,3550136,,,,,,,2022-06-28,1,,,,,テネラメンテ,0
1726,7030001148911,新規,0,2022-06-28,2022-06-28,株式会社ＬＩＴ,,株式会社,埼玉県,戸田市,美女木８丁目８番地の３３,,11,224,3350031,,,,,,,2022-06-28,1,,,,,リット,0
1734,7040001123995,新規,0,2022-06-28,2022-06-28,株式会社オネスト,,株式会社,千葉県,市川市,市川１丁目２番１０号,,12,203,2720034,,,,,,,2022-06-28,1,,,,,オネスト,0
1741,7040003020332,新規,0,2022-06-28,2022-06-28,合同会社ＹＧＫ,,合同会社,千葉県,松戸市,八ケ崎３丁目７３番地の１０,,12,207,2700023,,,,,,,2022-06-28,1,,,,,ワイジーケー,0
1742,7040003020340,新規,0,2022-06-28,2022-06-28,合同会社橘屋,,合同会社,千葉県,市川市,行徳駅前２丁目１７－２２,,12,203,2720133,,,,,,,2022-06-28,1,,,,,タチバナヤ,0
1746,7050001051304,新規,0,2022-06-28,2022-06-28,株式会社ＤＳ,,株式会社,茨城県,神栖市,矢田部７８２２番地１９,,08,232,3140341,,,,,,,2022-06-28,1,,,,,ディーエス,0
1751,7050003006644,新規,0,2022-06-28,2022-06-28,アークウェアーズ合同会社,,合同会社,茨城県,つくば市,上ノ室８２０番地１,,08,220,3050023,,,,,,,2022-06-28,1,,,,,アークウェアーズ,0
1753,7060001035025,新規,0,2022-06-28,2022-06-28,株式会社Ｍ,,株式会社,栃木県,那須塩原市,三島３丁目２番地１,,09,213,3292752,,,,,,,2022-06-28,1,,,,,エム,0
1758,7080105006267,新規,0,2022-06-28,2022-06-28,社団法人今沢上原防風林保護会,,その他の設立登記法人,静岡県,沼津市,今沢２１３番地の１,,22,203,4100875,,,,,,,2022-06-28,1,,,,,,0
1762,7100001035474,新規,0,2022-06-28,2022-06-28,データイン株式会社,,株式会社,長野県,上田市,秋和８４３,,20,203,3860041,,,,,,,2022-06-28,1,,,,,データイン,0
1763,7100005012890,新規,0,2022-06-28,2022-06-28,一般社団法人長野解体一括見積協会,,その他の設立登記法人,長野県,長野市,大字鶴賀七瀬南部３６８番地１南部ビル２Ｆ・Ａ号,,20,201,3800905,,,,,,,2022-06-28,1,,,,,ナガノカイタイイッカツミツモリキョウカイ,0
1773,7120001246986,新規,0,2022-06-28,2022-06-28,株式会社３９ファクトリー,,株式会社,大阪府,大阪市北区,曾根崎新地１丁目２番１６号,,27,127,5300002,,,,,,,2022-06-28,1,,,,,サンキューファクトリー,0
1778,7120101065799,新規,0,2022-06-28,2022-06-28,株式会社Ｓ・Ｔ・Ａ,,株式会社,大阪府,高石市,羽衣５丁目１番地４３号グランドメゾン羽衣伽羅橋２０７,,27,225,5920002,,,,,,,2022-06-28,1,,,,,エスティーエー,0
1781,7120901046156,新規,0,2022-06-28,2022-06-28,株式会社ギフテッドホールディングス,,株式会社,大阪府,三島郡島本町,江川２丁目１３番水無瀬駅前団地１号棟１０８号室,,27,301,6180013,,,,,,,2022-06-28,1,,,,,ギフテッドホールディングス,0
1792,7140001126542,新規,0,2022-06-28,2022-06-28,株式会社美夜組,,株式会社,兵庫県,尼崎市,上ノ島町１丁目３７番１－５０２号,,28,202,6610014,,,,,,,2022-06-28,1,,,,,ミヤグミ,0
1793,7140001126559,新規,0,2022-06-28,2022-06-28,株式会社イーコートテック,,株式会社,兵庫県,加古川市,尾上町口里４９５番地の１８,,28,210,6750022,,,,,,,2022-06-28,1,,,,,イーテックコート,0
1794,7140003017847,新規,0,2022-06-28,2022-06-28,ＯＵＥＳＬＡＴＩ　ＴＲＡＤＩＮＧ合同会社,,合同会社,兵庫県,神戸市西区,神出町古神１５７－１７,,28,111,6512302,,,,,,,2022-06-28,1,,,,,ウエスラテイトレーディング,0
1797,7150001025652,新規,0,2022-06-28,2022-06-28,株式会社侍,,株式会社,奈良県,生駒郡斑鳩町,興留１丁目６番３１号,,29,344,6360123,,,,,,,2022-06-28,1,,,,,サムライ,0
1799,7160003002608,新規,0,2022-06-28,2022-06-28,ランドアグリード合同会社,,合同会社,滋賀県,蒲生郡竜王町,大字岩井５８７番地,,25,384,5202522,,,,,,,2022-06-28,1,,,,,ランドアグリード,0
1807,7180001151900,新規,0,2022-06-28,2022-06-28,ＩＥソリューションズ株式会社,,株式会社,愛知県,名古屋市中村区,椿町１９番７号チサンマンション椿町６０６号室,,23,105,4530015,,,,,,,2022-06-28,1,,,,,アイイーソリューションズ,0
1808,7180001151909,新規,0,2022-06-28,2022-06-28,株式会社Ｆｒｅｅｍｓ,,株式会社,愛知県,東海市,東海町６丁目２番７号,,23,222,4760015,,,,,,,2022-06-28,1,,,,,フリームス,0
1809,7180001151917,新規,0,2022-06-28,2022-06-28,株式会社ＴＫＰ,,株式会社,愛知県,東海市,富木島町新山田２２番地の１フルラージュ（２０２号）,,23,222,4760011,,,,,,,2022-06-28,1,,,,,ティケイピイ,0
1813,7180301036363,新規,0,2022-06-28,2022-06-28,えすず株式会社,,株式会社,愛知県,豊田市,御船町山屋敷８９番地３０,,23,211,4700371,,,,,,,2022-06-28,1,,,,,エスズ,0
1817,7190001029542,新規,0,2022-06-28,2022-06-28,株式会社ＣＲＥＥＲ　ＪＡＰＯＮ,,株式会社,三重県,四日市市,平尾町２７６７番地６,,24,202,5121205,,,,,,,2022-06-28,1,,,,,クレエジャポン,0
1824,7230003001874,新規,0,2022-06-28,2022-06-28,合同会社咲華,,合同会社,富山県,富山市,粟島町１丁目７番２－２０２号Ｄ－ｒｏｏｍフレンド,,16,201,9318314,,,,,,,2022-06-28,1,,,,,サイカ,0
1825,7240001059996,新規,0,2022-06-28,2022-06-28,株式会社花井ホールディングス,,株式会社,広島県,広島市安芸区,中野６丁目５０番１４号,,34,107,7390321,,,,,,,2022-06-28,1,,,,,ハナイホールディングス,0
1831,7270001008570,新規,0,2022-06-28,2022-06-28,株式会社Ｎｉｃｈｅ,,株式会社,鳥取県,倉吉市,駄経寺町２丁目３２番地,,31,203,6820816,,,,,,,2022-06-28,1,,,,,ニッチ,0
1835,7290001098065,新規,0,2022-06-28,2022-06-28,ソリッソ株式会社,,株式会社,福岡県,福岡市中央区,高砂１丁目２２番２５号ソリッソ薬院３階,,40,133,8100011,,,,,,,2022-06-28,1,,,,,ソリッソ,0
1836,7290001098073,新規,0,2022-06-28,2022-06-28,株式会社Ｋ・Ｍ自動車,,株式会社,福岡県,福岡市東区,千早１丁目４０番６－１０１号,,40,131,8130044,,,,,,,2022-06-28,1,,,,,ケイエムジドウシャ,0
1842,7310001017922,新規,0,2022-06-28,2022-06-28,株式会社メイオン,,株式会社,長崎県,長崎市,油屋町１番１号ＦＦＧ思案橋ビル１Ｆ,,42,201,8500832,,,,,,,2022-06-28,1,,,,,メイオン,0
1855,7360003012116,新規,0,2022-06-28,2022-06-28,合同会社東栄企画,,合同会社,沖縄県,うるま市,与那城字屋慶名２４３２番地,,47,213,9042303,,,,,,,2022-06-28,1,,,,,トウエイキカク,0
1857,7370003005746,新規,0,2022-06-28,2022-06-28,合同会社センダイオートトレーディング,,合同会社,宮城県,仙台市青葉区,八幡５丁目３番１７号ルナ八幡Ａ２０７号,,04,101,9800871,,,,,,,2022-06-28,1,,,,,センダイオートトレーディング,0
1859,7390003001974,新規,0,2022-06-28,2022-06-28,合同会社豊興業,,合同会社,山形県,新庄市,大字鳥越１４９８番地の３１,,06,205,9960041,,,,,,,2022-06-28,1,,,,,ユタカコウギョウ,0
1861,7400003002954,新規,0,2022-06-28,2022-06-28,合同会社小野庄商店,,合同会社,岩手県,奥州市,水沢字寺小路２２番地,,03,215,0230811,,,,,,,2022-06-28,1,,,,,,0
1863,7420001017911,新規,0,2022-06-28,2022-06-28,株式会社グリーンラッシュ,,株式会社,青森県,南津軽郡大鰐町,大字大鰐字前田４８番地１６,,02,362,0380211,,,,,,,2022-06-28,1,,,,,グリーンラッシュ,0
1867,7430001086914,新規,0,2022-06-28,2022-06-28,株式会社Ｂ‐Ｓｅｌｅｃｔ札幌,,株式会社,北海道,札幌市中央区,宮の森三条５丁目２番２５－２０４号,,01,101,0640953,,,,,,,2022-06-28,1,,,,,ビーセレクトサッポロ,0
1885,8010001227583,新規,0,2022-06-28,2022-06-28,ＴＹ１株式会社,,株式会社,東京都,中央区,新川１丁目６番１１号,,13,102,1040033,,,,,,,2022-06-28,1,,,,,ティーワイワン,0
1886,8010001227666,新規,0,2022-06-28,2022-06-28,エンデバー・ユナイテッド・パートナーズ・２４株式会社,,株式会社,東京都,千代田区,丸の内２丁目５番１号丸の内二丁目ビル６階,,13,101,1000005,,,,,,,2022-06-28,1,,,,,エンデバーユナイテッドパートナーズトゥエンティフォー,0
1899,8010401168171,新規,0,2022-06-28,2022-06-28,株式会社ＰＡＹ　ＦＯＲＷＡＲＤ,,株式会社,東京都,港区,東新橋２丁目１０番１０号東新橋ビル６０６号室,,13,103,1050021,,,,,,,2022-06-28,1,,,,,,0
1900,8010401168196,新規,0,2022-06-28,2022-06-28,株式会社ＤＥ．メディカルサプライ,,株式会社,東京都,港区,芝５丁目２９－２０－２０１,,13,103,1080014,,,,,,,2022-06-28,1,,,,,ディーイーメディカルサプライ,0
1901,8010403027978,新規,0,2022-06-28,2022-06-28,Ｉｍｐａｃｔ　ｏｎ合同会社,,合同会社,東京都,港区,浜松町１丁目１１－１１アルテリア浜松町８０４号室,,13,103,1050013,,,,,,,2022-06-28,1,,,,,インパクトオン,0
1902,8010403027986,新規,0,2022-06-28,2022-06-28,合同会社サカワソリューション,,合同会社,東京都,港区,浜松町２丁目２番１５号浜松町ダイヤビル２Ｆ,,13,103,1050013,,,,,,,2022-06-28,1,,,,,サカワソリューション,0
1903,8010405021104,新規,0,2022-06-28,2022-06-28,一般社団法人ｅｎ　Ｖｉｓｉｏｎ,,その他の設立登記法人,東京都,港区,赤坂８丁目４番１４号青山タワープレイス八階,,13,103,1070052,,,,,,,2022-06-28,1,,,,,エンビジョン,0
1907,8010501049024,新規,0,2022-06-28,2022-06-28,シェルビー株式会社,,株式会社,東京都,台東区,駒形２丁目７番４号,,13,106,1110043,,,,,,,2022-06-28,1,,,,,シェルビー,0
1912,8010701042869,新規,0,2022-06-28,2022-06-28,財商株式会社,,株式会社,東京都,品川区,北品川３丁目１番１－７０３号,,13,109,1400001,,,,,,,2022-06-28,1,,,,,ザイショウ,0
1918,8010901051125,新規,0,2022-06-28,2022-06-28,アテナ株式会社,,株式会社,東京都,世田谷区,玉川田園調布１丁目１４番１５号,,13,112,1580085,,,,,,,2022-06-28,1,,,,,アテナ,0
1930,8011001148357,新規,0,2022-06-28,2022-06-28,株式会社テクノスタンダード,,株式会社,東京都,渋谷区,渋谷３丁目１０番地１５ＹＫビル７階,,13,113,1500002,,,,,,,2022-06-28,1,,,,,,0
1936,8011101099343,新規,0,2022-06-28,2022-06-28,リフトパートナーズ株式会社,,株式会社,東京都,新宿区,市谷田町３丁目８番地,,13,104,1620843,,,,,,,2022-06-28,1,,,,,リフトパートナーズ,0
1937,8011101099351,新規,0,2022-06-28,2022-06-28,株式会社Ｐｏｔｅｎｔｉａｌ,,株式会社,東京都,新宿区,新宿５丁目１８番２０号ルックハイツ新宿８０３号,,13,104,1600022,,,,,,,2022-06-28,1,,,,,ポテンシャル,0
1938,8011103011891,新規,0,2022-06-28,2022-06-28,合同会社大家の家,,合同会社,東京都,新宿区,西新宿３丁目３－１３西新宿水間ビル６Ｆ,,13,104,1600023,,,,,,,2022-06-28,1,,,,,オオヤノイエ,0
1940,8011105010306,新規,0,2022-06-28,2022-06-28,一般社団法人経筋バランスケアセラピスト協会,,その他の設立登記法人,東京都,新宿区,上落合３丁目８－２５ＦＬＡＭＰ１３０３,,13,104,1610034,,,,,,,2022-06-28,1,,,,,ケイキンバランスケアセラピストキョウカイ,0
1941,8011203003855,新規,0,2022-06-28,2022-06-28,合同会社ＲＥＮ　ＡＵＴＯ　ＳＥＲＶＩＣＥ,,合同会社,東京都,中野区,上鷺宮５丁目２４番２７号第５ホワイトパレス１０２,,13,114,1650031,,,,,,,2022-06-28,1,,,,,レンオートサービス,0
1948,8011801040928,新規,0,2022-06-28,2022-06-28,Ａｃｅ　Ｔｅｃ株式会社,,株式会社,東京都,足立区,皿沼１丁目６番１２号,,13,121,1230862,,,,,,,2022-06-28,1,,,,,エーステック,0
1949,8011801040936,新規,0,2022-06-28,2022-06-28,株式会社ＡＩＲ　ＬＡＢ,,株式会社,東京都,足立区,南花畑２丁目２３番５号,,13,121,1210062,,,,,,,2022-06-28,1,,,,,エーアイアールラボ,0
1950,8011803005152,新規,0,2022-06-28,2022-06-28,合同会社ＮＴ建機リース,,合同会社,東京都,葛飾区,東堀切１丁目２０番１３号,,13,122,1240004,,,,,,,2022-06-28,1,,,,,エヌティーケンキリース,0
1959,8020001147079,新規,0,2022-06-28,2022-06-28,株式会社ハフニアムアーキテクツ,,株式会社,神奈川県,川崎市麻生区,上麻生３丁目２番１－１０８号,,14,137,2150021,,,,,,,2022-06-28,1,,,,,ハフニアムアーキテクツ,0
1960,8020001147087,新規,0,2022-06-28,2022-06-28,株式会社ユーアクト,,株式会社,神奈川県,横浜市保土ケ谷区,初音ケ丘２９－３２,,14,106,2400016,,,,,,,2022-06-28,1,,,,,ユーアクト,0
1963,8020005015587,新規,0,2022-06-28,2022-06-28,一般社団法人国際書道教育協会,,その他の設立登記法人,神奈川県,横浜市南区,蒔田町１０１８－１５－３１５,,14,105,2320043,,,,,,,2022-06-28,1,,,,,コクサイショドウキョウイクキョウカイ,0
1967,8021001076334,新規,0,2022-06-28,2022-06-28,株式会社ＰＡＬＭＬＯＯＰ,,株式会社,神奈川県,鎌倉市,津６０３番地７８,,14,204,2480032,,,,,,,2022-06-28,1,,,,,パームループ,0
1968,8021001076383,新規,0,2022-06-28,2022-06-28,株式会社ブランドン,,株式会社,神奈川県,足柄下郡箱根町,湯本６９１－１０浅野ビル２階,,14,382,2500311,,,,,,,2022-06-28,1,,,,,ブランドン,0
1974,8030001148902,新規,0,2022-06-28,2022-06-28,株式会社土井商事,,株式会社,埼玉県,さいたま市見沼区,東大宮４丁目１番地３,,11,104,3370051,,,,,,,2022-06-28,1,,,,,ドイショウジ,0
1978,8030003019696,新規,0,2022-06-28,2022-06-28,合同会社ＫＤＣ,,合同会社,埼玉県,川越市,石原町１丁目４２番４号,,11,201,3500824,,,,,,,2022-06-28,1,,,,,ケーディーシー,0
1988,8050003006643,新規,0,2022-06-28,2022-06-28,太陽と庭合同会社,,合同会社,茨城県,筑西市,幸町１丁目２番１６号,,08,227,3080848,,,,,,,2022-06-28,1,,,,,タイヨウトニワ,0
1989,8060001035024,新規,0,2022-06-28,2022-06-28,株式会社ヴィンテージ,,株式会社,栃木県,那須塩原市,三島３丁目２番地１,,09,213,3292752,,,,,,,2022-06-28,1,,,,,ヴィンテージ,0
1993,8070001039387,新規,0,2022-06-28,2022-06-28,株式会社ＴＨＲＥＥ　ＦＵＮ．,,株式会社,群馬県,みどり市,笠懸町阿左美８６２番地８プリムローズＢ０２０４,,10,212,3792311,,,,,,,2022-06-28,1,,,,,スリーファン,0
2008,8120001246977,新規,0,2022-06-28,2022-06-28,株式会社昇志,,株式会社,大阪府,守口市,東郷通２丁目９番１６号,,27,209,5700041,,,,,,,2022-06-28,1,,,,,ショウシ,0
2009,8120001247018,新規,0,2022-06-28,2022-06-28,株式会社Ｐｒｏｊｅｃｔ　Ｗ,,株式会社,大阪府,大阪市淀川区,木川西２丁目２番２０号,,27,123,5320013,,,,,,,2022-06-28,1,,,,,プロジェクトダブル,0
2011,8120003021890,新規,0,2022-06-28,2022-06-28,合同会社ｏｆｆｉｃｅ　ｏｎｅ　ｈｅａｒｔ,,合同会社,大阪府,大阪市此花区,朝日２丁目１８番８号３Ｆ－６３７,,27,104,5540011,,,,,,,2022-06-28,1,,,,,オフィスワンハート,0
2012,8120003021973,新規,0,2022-06-28,2022-06-28,合同会社Ｅｃｏ　Ｊａｐａｎ,,合同会社,大阪府,大阪市西成区,出城２丁目２－１２－２０１オーキッドヒルズ,,27,122,5570024,,,,,,,2022-06-28,1,,,,,エコジャパン,0
2017,8120101065815,新規,0,2022-06-28,2022-06-28,株式会社アプローズホーム,,株式会社,大阪府,堺市中区,陶器北１７５番地,,27,142,5998242,,,,,,,2022-06-28,1,,,,,アプローズホーム,0
2023,8130001072043,新規,0,2022-06-28,2022-06-28,京都・リニューアブル・エナジー株式会社,,株式会社,京都府,福知山市,字堀２５９３番地,,26,201,6200000,,,,,,,2022-06-28,1,,,,,キョウトリニューアブルエナジー,0
2026,8140001126533,新規,0,2022-06-28,2022-06-28,スワローホームズ株式会社,,株式会社,兵庫県,神戸市東灘区,本山南町８丁目６番２６号,,28,101,6580015,,,,,,,2022-06-28,1,,,,,スワローホームズ,0
2027,8140001126541,新規,0,2022-06-28,2022-06-28,やまだ屋株式会社,,株式会社,兵庫県,姫路市,広畑区才９１５番地１,,28,201,6711104,,,,,,,2022-06-28,1,,,,,ヤマダヤ,0
2047,8180001151916,新規,0,2022-06-28,2022-06-28,名古屋川清株式会社,,株式会社,愛知県,名古屋市熱田区,池内町４番１号,,23,109,4560005,,,,,,,2022-06-28,1,,,,,ナゴヤカワセイ,0
2049,8180003023980,新規,0,2022-06-28,2022-06-28,合同会社Ｆｉｌｌ　Ｆｉｎｅ,,合同会社,愛知県,名古屋市瑞穂区,津賀田町３丁目２４－１４,,23,108,4670823,,,,,,,2022-06-28,1,,,,,フィルファイン,0
2050,8180003023989,新規,0,2022-06-28,2022-06-28,合同会社ＳＴＹ,,合同会社,愛知県,岩倉市,稲荷町羽根５番地８,,23,228,4820006,,,,,,,2022-06-28,1,,,,,エスティワイ,0
2051,8180005019820,新規,0,2022-06-28,2022-06-28,ＮＰＯ法人伝心ＬＡＢ,,その他の設立登記法人,愛知県,名古屋市緑区,黒沢台２丁目４０３番地,,23,114,4580003,,,,,,,2022-06-28,1,,,,,デンシンラボ,0
2053,8180301036370,新規,0,2022-06-28,2022-06-28,株式会社高岡ヤンマーホールディングス,,株式会社,愛知県,豊田市,若林東町東山４０番地８,,23,211,4730914,,,,,,,2022-06-28,1,,,,,タカオカヤンマーホールディングス,0
2078,8260001036992,新規,0,2022-06-28,2022-06-28,ＨＩＧＨＥＲ　ＳＥＷＩＮＧ株式会社,,株式会社,岡山県,岡山市南区,彦崎２８７２番地１５,,33,104,7091213,,,,,,,2022-06-28,1,,,,,ハイアーソーイング,0
2085,8290001098080,新規,0,2022-06-28,2022-06-28,ＡＬＩＫＡＮ株式会社,,株式会社,福岡県,飯塚市,仁保２３２番地２,,40,205,8200115,,,,,,,2022-06-28,1,,,,,アリカン,0
2087,8290003012642,新規,0,2022-06-28,2022-06-28,合同会社ゼロワン,,合同会社,福岡県,大牟田市,大字白銀７７７－２,,40,202,8370912,,,,,,,2022-06-28,1,,,,,ゼロワン,0
2088,8290003012683,新規,0,2022-06-28,2022-06-28,合同会社Ｍ．Ｉ．Ｓ,,合同会社,福岡県,福岡市中央区,薬院２丁目２番２８－１００２号,,40,133,8100022,,,,,,,2022-06-28,1,,,,,エムアイエス,0
2089,8290801028666,新規,0,2022-06-28,2022-06-28,株式会社ブラウンズ,,株式会社,福岡県,北九州市門司区,大里本町３丁目６番２２号,,40,101,8000063,,,,,,,2022-06-28,1,,,,,ブラウンズ,0
2094,8330001029873,新規,0,2022-06-28,2022-06-28,株式会社ＭＭＲ,,株式会社,熊本県,玉名市,横島町共栄４６１番地１,,43,206,8650073,,,,,,,2022-06-28,1,,,,,エムエムアール,0
2100,8360001030572,新規,0,2022-06-28,2022-06-28,農業生産法人株式会社石垣ファーム,,株式会社,沖縄県,名護市,字三原１０５番地,,47,209,9052264,,,,,,,2022-06-28,1,,,,,ノウギョウセイサンホウジンイシガキファーム,0
2104,8380001032930,新規,0,2022-06-28,2022-06-28,株式会社和空調,,株式会社,福島県,いわき市,小名浜相子島字永夫２６番地の４,,07,204,9718123,,,,,,,2022-06-28,1,,,,,ナゴミクウチョウ,0
2108,8400001015924,新規,0,2022-06-28,2022-06-28,株式会社エネグリ,,株式会社,岩手県,盛岡市,中央通３丁目１５番１３号ＢＥＲＥＯ桜城１０１,,03,201,0200021,,,,,,,2022-06-28,1,,,,,エネグリ,0
2123,8430001086905,新規,0,2022-06-28,2022-06-28,株式会社ＨＴＴ．ａｕｔｏ,,株式会社,北海道,石狩市,樽川４５５番地３３３,,01,235,0613251,,,,,,,2022-06-28,1,,,,,エイチティーティーオート,0
2140,8700150110529,新規,0,2022-06-28,2022-06-28,Ｓｈｅｎｚｈｅｎ　Ｌｏｎｇｈａｉ　Ｉｎｄｕｓｔｒｉａｌ　Ｃｏ．，　Ｌｔｄ,,外国会社等,,,,,,,,１０４，　ｕｎｉｔ　４，　ｂｕｉｌｄｉｎｇ　７，　Ｌｕｈｕ　ｃｏｍｍｕｎｉｔｙ　ｉｎｖｅｓｔｍｅｎｔ　ａｔｔｒａｃｔｉｏｎ　Ｐａｒｋ，　Ｇｕａｎｌａｎ　ｓｔｒｅｅｔ，　Ｌｏｎｇｈｕａ,,,,,,2022-06-28,1,,,,,シエンチエンロンカイインダストリアルカンパニーリミテツド,0
2141,8700150110561,新規,0,2022-06-28,2022-06-28,沙留ほたてがい漁業生産部会,,その他,北海道,紋別郡興部町,字沙留１４３番地の１,,01,561,0981941,,,,,,,2022-06-28,1,,,,,サルルホタテガイギョギョウセイサンブカイ,0
2147,9010001227582,新規,0,2022-06-28,2022-06-28,ＯＹ１株式会社,,株式会社,東京都,中央区,新川１丁目６番１１号,,13,102,1040033,,,,,,,2022-06-28,1,,,,,オーワイワン,0
2148,9010001227608,新規,0,2022-06-28,2022-06-28,株式会社ＣＰ２,,株式会社,東京都,千代田区,丸の内３丁目１番１号東京共同会計事務所内,,13,101,1000005,,,,,,,2022-06-28,1,,,,,シーピーツー,0
2149,9010001227640,新規,0,2022-06-28,2022-06-28,ＮＡＶＹＳ株式会社,,株式会社,東京都,中央区,銀座１丁目２２番１１号銀座大竹ビジデンス２階,,13,102,1040061,,,,,,,2022-06-28,1,,,,,ネイビーズ,0
2151,9010003037988,新規,0,2022-06-28,2022-06-28,ＬＩＰＡＣＯ　ＪＡＰＡＮ合同会社,,合同会社,東京都,中央区,日本橋２丁目２番３号ＲＩＳＨＥビルＵＣＦ４階,,13,102,1030027,,,,,,,2022-06-28,1,,,,,リパコジャパン,0
2152,9010003038004,新規,0,2022-06-28,2022-06-28,合同会社太陽農園,,合同会社,東京都,中央区,日本橋茅場町２丁目７－６晴花ビル６Ｆ,,13,102,1030025,,,,,,,2022-06-28,1,,,,,タイヨウノウエン,0
2153,9010401168204,新規,0,2022-06-28,2022-06-28,株式会社クレストビューティリトリート,,株式会社,東京都,港区,港南２丁目１６－１品川イーストワンタワー７階ＳＰＡＣＥＳ品川７０８,,13,103,1080075,,,,,,,2022-06-28,1,,,,,クレストビューティリトリート,0
2157,9010405021152,新規,0,2022-06-28,2022-06-28,ＪＭアリエス特定目的会社,,その他の設立登記法人,東京都,港区,六本木１丁目９番１０号アークヒルズ仙石山森タワー４０階,,13,103,1060032,,,,,,,2022-06-28,1,,,,,ジェイエムアリエス,0
2171,9011001147746,新規,0,2022-06-28,2022-06-28,株式会社ＫＡＧホールディングズ,,株式会社,東京都,渋谷区,代々木２丁目２１番８－９０３号,,13,113,1510053,,,,,,,2022-06-28,1,,,,,ケーエージーホールディングズ,0
2178,9011101099342,新規,0,2022-06-28,2022-06-28,株式会社ＤＯＦＥ,,株式会社,東京都,新宿区,西新宿３丁目７番１号新宿パークタワーＮ３０Ｆ,,13,104,1600023,,,,,,,2022-06-28,1,,,,,ドーフ,0
2180,9011103011890,新規,0,2022-06-28,2022-06-28,あかせ合同会社,,合同会社,東京都,新宿区,新宿６丁目２７番２９ー６０２号,,13,104,1600022,,,,,,,2022-06-28,1,,,,,アカセ,0
2186,9011801040902,新規,0,2022-06-28,2022-06-28,ＤＫ　Ｈｏｕｓｉｎｇ株式会社,,株式会社,東京都,足立区,鹿浜７丁目２５番１５号第１５まさひろ商事ビル２０３,,13,121,1230864,,,,,,,2022-06-28,1,,,,,ディーケーハウジング,0
2187,9011803005151,新規,0,2022-06-28,2022-06-28,後藤合同会社,,合同会社,東京都,足立区,六木３丁目３２番１７号,,13,121,1210052,,,,,,,2022-06-28,1,,,,,ゴトウ,0
2194,9013301049309,新規,0,2022-06-28,2022-06-28,株式会社ＧＯＥＳ　ＯＮ,,株式会社,東京都,豊島区,東池袋１丁目２７番５号,,13,116,1700013,,,,,,,2022-06-28,1,,,,,ゴーズオン,0
2195,9013303006209,新規,0,2022-06-28,2022-06-28,２４６合同会社,,合同会社,東京都,豊島区,南池袋１丁目９番１８号,,13,116,1710022,,,,,,,2022-06-28,1,,,,,ニイヨンロク,0
2200,9020001147045,新規,0,2022-06-28,2022-06-28,株式会社リーガルライト,,株式会社,神奈川県,横浜市中区,蓬莱町２丁目６番３号,,14,104,2310048,,,,,,,2022-06-28,1,,,,,リーガルライト,0
2201,9020001147078,新規,0,2022-06-28,2022-06-28,進生商事株式会社,,株式会社,神奈川県,横浜市港北区,新横浜３丁目７番地１８日総第１８ビルエキスパートオフィス新横浜７１１,,14,109,2220033,,,,,,,2022-06-28,1,,,,,シンセイショウジ,0
2202,9020001147086,新規,0,2022-06-28,2022-06-28,株式会社Ｌｉｖｒｅｒ,,株式会社,神奈川県,横浜市南区,大岡３丁目２４－１－３０６,,14,105,2320061,,,,,,,2022-06-28,1,,,,,リブレ,0
2203,9020001147103,新規,0,2022-06-28,2022-06-28,ヌーポテンシアジャパン株式会社,,株式会社,神奈川県,横浜市緑区,長津田町２９９３番地１,,14,113,2260026,,,,,,,2022-06-28,1,,,,,ヌーポテンシアジャパン,0
2205,9020003022007,新規,0,2022-06-28,2022-06-28,合同会社ＨＯＡＮＧ　ＨＵＹＥＮ,,合同会社,神奈川県,横浜市磯子区,森１丁目１０番２０号,,14,107,2350023,,,,,,,2022-06-28,1,,,,,ホァンフェン,0
2208,9021001076374,新規,0,2022-06-28,2022-06-28,株式会社西尾タイル工業,,株式会社,神奈川県,相模原市南区,相模台３丁目１０番１１号,,14,153,2520321,,,,,,,2022-06-28,1,,,,,ニシオタイルコウギョウ,0
2209,9021001076382,新規,0,2022-06-28,2022-06-28,ＴＫＨＲ株式会社,,株式会社,神奈川県,伊勢原市,高森５丁目１３番２０４号,,14,214,2591114,,,,,,,2022-06-28,1,,,,,ティーケーエイチアール,0
2210,9021002032005,新規,0,2022-06-28,2022-06-28,有限会社松栄プランニング,,有限会社,神奈川県,厚木市,鳶尾５丁目２５番４号,,14,212,2430204,,,,,,,2022-06-28,1,,,,,ショウエイプランニング,0
2211,9021003011882,新規,0,2022-06-28,2022-06-28,ａｓａｎａｇｉ　ｗｏｒｋｓ合同会社,,合同会社,神奈川県,逗子市,山の根１丁目４番１５－２０７号,,14,208,2490002,,,,,,,2022-06-28,1,,,,,アサナギワークス,0
2217,9030001148926,新規,0,2022-06-28,2022-06-28,株式会社東三工業,,株式会社,埼玉県,川口市,飯塚１丁目１－６山崎ハイツ１０２号,,11,203,3320023,,,,,,,2022-06-28,1,,,,,トウサンコウギョウ,0
2228,9040003020339,新規,0,2022-06-28,2022-06-28,ＫＹＯＴＯ　ＭＯＴＯＲＳ合同会社,,合同会社,千葉県,山武市,麻生新田１１１番地１７２,,12,237,2891203,,,,,,,2022-06-28,1,,,,,キョウトモータース,0
2229,9060001035023,新規,0,2022-06-28,2022-06-28,株式会社ＳＴＥＰ　ＯＮＥ,,株式会社,栃木県,小山市,大字下河原田９５４栃木県南地方卸売市場内２Ｆ,,09,208,3230052,,,,,,,2022-06-28,1,,,,,ステップワン,0
2236,9070001039386,新規,0,2022-06-28,2022-06-28,株式会社Ｃｌｏｕｄ　Ｎｉｎｅ,,株式会社,群馬県,高崎市,倉賀野町２２５８番地１南号室,,10,202,3701201,,,,,,,2022-06-28,1,,,,,クラウドナイン,0
2239,9100001035472,新規,0,2022-06-28,2022-06-28,愛和興建株式会社,,株式会社,長野県,駒ヶ根市,赤穂１６７１１番地３,,20,210,3994117,,,,,,,2022-06-28,1,,,,,アイワコウケン,0
2253,9120003021980,新規,0,2022-06-28,2022-06-28,Ｈｕｋｕｔｓｕ合同会社,,合同会社,大阪府,大阪市西成区,天下茶屋１丁目８－１６シティプラザ花園２０３号室,,27,122,5570014,,,,,,,2022-06-28,1,,,,,フクツ,0
2257,9120103004753,新規,0,2022-06-28,2022-06-28,合同会社浅野ＷＯＲＫＳ,,合同会社,大阪府,富田林市,寺池台２丁目２番３０号,,27,214,5840073,,,,,,,2022-06-28,1,,,,,アサノワークス,0
2266,9140001126524,新規,0,2022-06-28,2022-06-28,株式会社Ｎｅｘｔ　Ｉｎｎｏｖａｔｉｏｎ,,株式会社,兵庫県,姫路市,夢前町菅生澗７４番地３６,,28,201,6712134,,,,,,,2022-06-28,1,,,,,ネクストイノベーション,0
2267,9140001126540,新規,0,2022-06-28,2022-06-28,株式会社マルイ,,株式会社,兵庫県,明石市,魚住町中尾５２６番地の２プレステージ明石魚住ラッフィナート４０６号,,28,203,6740082,,,,,,,2022-06-28,1,,,,,マルイ,0
2268,9140001126549,新規,0,2022-06-28,2022-06-28,株式会社Ｐ・Ｍ,,株式会社,兵庫県,西宮市,若松町１番２号,,28,204,6620035,,,,,,,2022-06-28,1,,,,,ピーエム,0
2269,9140001126557,新規,0,2022-06-28,2022-06-28,株式会社カオス,,株式会社,兵庫県,西宮市,甲子園口４丁目８番１７号,,28,204,6638113,,,,,,,2022-06-28,1,,,,,カオス,0
2270,9140003017853,新規,0,2022-06-28,2022-06-28,合同会社ＹＵ,,合同会社,兵庫県,姫路市,八代３５２番地１,,28,201,6700872,,,,,,,2022-06-28,1,,,,,ユー,0
2273,9140005026217,新規,0,2022-06-28,2022-06-28,特定非営利活動法人神戸ロボットクラブ,,その他の設立登記法人,兵庫県,神戸市中央区,東川崎町１丁目８番１号,,28,110,6500044,,,,,,,2022-06-28,1,,,,,,0
2284,9180001151931,新規,0,2022-06-28,2022-06-28,ライフサイクル株式会社,,株式会社,愛知県,春日井市,柏井町１丁目５０番地１,,23,206,4860927,,,,,,,2022-06-28,1,,,,,ライフサイクル,0
2285,9180001151948,新規,0,2022-06-28,2022-06-28,株式会社Ｅコネクト,,株式会社,愛知県,名古屋市西区,市場木８２番地リバーサイドマンション１Ｂ,,23,104,4510000,,,,,,,2022-06-28,1,,,,,イーコネクト,0
2314,9260001036983,新規,0,2022-06-28,2022-06-28,株式会社凸凹ａｃｔ．,,株式会社,岡山県,都窪郡早島町,前潟３１番地,,33,423,7010303,,,,,,,2022-06-28,1,,,,,デコボコアクト,0
2323,9290001098030,新規,0,2022-06-28,2022-06-28,雅国企画株式会社,,株式会社,福岡県,福岡市中央区,白金２丁目４－２８ロマネスク白金４０６号室,,40,133,8100012,,,,,,,2022-06-28,1,,,,,ガコクキカク,0
2324,9290001098055,新規,0,2022-06-28,2022-06-28,株式会社平島工務店,,株式会社,福岡県,太宰府市,大字北谷８２５番地１,,40,221,8180114,,,,,,,2022-06-28,1,,,,,ヒラシマコウムテン,0
2325,9290001098063,新規,0,2022-06-28,2022-06-28,株式会社エム・エス・ワン,,株式会社,福岡県,福岡市東区,美和台６丁目３番１２号,,40,131,8110212,,,,,,,2022-06-28,1,,,,,エムエスワン,0
2326,9290001098071,新規,0,2022-06-28,2022-06-28,株式会社Ｒｉｇｈｔ　Ｎｏｗ,,株式会社,福岡県,春日市,春日原北町５丁目６０番地１－Ｂ,,40,218,8160802,,,,,,,2022-06-28,1,,,,,ライトナウ,0
2338,9330001029872,新規,0,2022-06-28,2022-06-28,株式会社ＢＯＵＢＯＵ,,株式会社,熊本県,熊本市北区,武蔵ケ丘１丁目１５番１７号,,43,105,8618001,,,,,,,2022-06-28,1,,,,,ボーボー,0
2345,9350001017735,新規,0,2022-06-28,2022-06-28,Ｌａｕｎｃｈ　Ｆｏｒｔｈ株式会社,,株式会社,宮崎県,都城市,菓子野町１０４００－９,,45,202,8850111,,,,,,,2022-06-28,1,,,,,ロンチフォース,0
2365,9430001086912,新規,0,2022-06-28,2022-06-28,株式会社ｄｈｐ国土資源開発,,株式会社,北海道,札幌市中央区,南一条西７丁目１番３号,,01,101,0600061,,,,,,,2022-06-28,1,,,,,ディーエッチピーコクドシゲンカイハツ,0
2366,9430003014045,新規,0,2022-06-28,2022-06-28,ＤＩＸ合同会社,,合同会社,北海道,札幌市中央区,北六条西２７丁目１－３０ブランズ円山北６条７０２,,01,101,0640826,,,,,,,2022-06-28,1,,,,,ディーアイエックス,0
2372,9700150110528,新規,0,2022-06-28,2022-06-28,Ｆｒａｃｔａ,,外国会社等,,,,,,,,４９０　Ｓ．　Ｃａｌｉｆｏｒｎｉａ　Ａｖｅ．　Ｓｕｉｔｅ　３１０　Ｐａｌｏ　Ａｌｔｏ　ＣＡ　９４３０６,,,,,,2022-06-28,1,,,,,フラクタ,0
