sequenceNumber,corporateNumber,process,correct,updateDate,changeDate,name,nameImageId,kind,prefectureName,cityName,streetNumber,addressImageId,prefectureCode,cityCode,postCode,addressOutside,addressOutsideImageId,closeDate,closeCause,successorCorporateNumber,changeCause,assignmentDate,latest,enName,enPrefectureName,enCityName,enAddressOutside,furigana,hihyoji
5,1010005040923,新規,0,2025-11-17,2025-11-17,一般社団法人日本ＤＸ人材アセスメント機構,,その他の設立登記法人,東京都,千代田区,大手町１丁目５番１号大手町ファーストスクエアイーストタワー４階,,13,101,1000004,,,,,,,2025-11-17,1,,,,,ニホンディーエックスジンザイアセスメントキコウ,0
6,1010005040948,新規,0,2025-11-17,2025-11-17,一般社団法人シナモン,,その他の設立登記法人,東京都,中央区,銀座１丁目６番１１号アースタックス税理士法人内,,13,102,1040061,,,,,,,2025-11-17,1,,,,,シナモン,0
7,1010005040964,新規,0,2025-11-17,2025-11-17,一般社団法人レジ２,,その他の設立登記法人,東京都,千代田区,丸の内１丁目４番１号東京共同会計事務所内,,13,101,1000005,,,,,,,2025-11-17,1,,,,,レジツー,0
16,1010401194471,新規,0,2025-11-17,2025-11-17,Ｇｏｍｅ　Ｂｅａｕｔｙ株式会社,,株式会社,東京都,港区,芝大門１丁目２番１４号Ｈ１Ｏ浜松町１００１号,,13,103,1050012,,,,,,,2025-11-17,1,,,,,ゴメビューティー,0
17,1010401194505,新規,0,2025-11-17,2025-11-17,ＡＳＴＲＡＶＩＳＴＡ　ＲＥＡＬ　ＥＳＴＡＴＥ　ＪＡＰＡＮ株式会社,,株式会社,東京都,港区,麻布十番２丁目８番８号,,13,103,1060045,,,,,,,2025-11-17,1,,,,,アストラビスタリアルエステートジャパン,0
18,1010401194546,新規,0,2025-11-17,2025-11-17,株式会社スモウクリエイティブ,,株式会社,東京都,港区,南青山３丁目１番３６号青山丸竹ビル６Ｆ,,13,103,1070062,,,,,,,2025-11-17,1,,,,,スモウクリエイティブ,0
21,1010405024939,新規,0,2025-11-17,2025-11-17,一般社団法人国際ホワイトカーボン協会,,その他の設立登記法人,東京都,港区,東麻布２丁目３３番２号,,13,103,1060044,,,,,,,2025-11-17,1,,,,,コクサイホワイトカーボンキョウカイ,0
28,1010601068277,新規,0,2025-11-17,2025-11-17,株式会社ＭＴＳ,,株式会社,東京都,墨田区,錦糸１丁目２－１アルカセントラル１４階,,13,107,1300013,,,,,,,2025-11-17,1,,,,,エムティーエス,0
33,1010801036777,新規,0,2025-11-17,2025-11-17,株式会社優創,,株式会社,東京都,大田区,羽田１丁目１５番７号,,13,111,1440043,,,,,,,2025-11-17,1,,,,,ユウソウ,0
34,1010801036785,新規,0,2025-11-17,2025-11-17,株式会社Ｇｒｅａｓｅ　ｕｐ,,株式会社,東京都,大田区,上池台１丁目３２番７号ＴＩＦＦＡＮＹ１３２－１０２,,13,111,1450064,,,,,,,2025-11-17,1,,,,,グリスアップ,0
35,1010803005607,新規,0,2025-11-17,2025-11-17,合同会社ＫＧマリン,,合同会社,東京都,大田区,蒲田本町２丁目８－２１－２０２,,13,111,1440053,,,,,,,2025-11-17,1,,,,,ケージーマリン,0
36,1010901058457,新規,0,2025-11-17,2025-11-17,株式会社リバーショア,,株式会社,東京都,世田谷区,若林４丁目１７番１１号ＴＳビル１Ｆ,,13,112,1540023,,,,,,,2025-11-17,1,,,,,リバーショア,0
37,1010903010408,新規,0,2025-11-17,2025-11-17,合同会社ＲＩＳＥ　ＰＲＯ,,合同会社,東京都,世田谷区,上馬２丁目２２－５グレーシアフィット三軒茶屋３０２号,,13,112,1540011,,,,,,,2025-11-17,1,,,,,ライズプロ,0
41,1011001173493,新規,0,2025-11-17,2025-11-17,株式会社某企画,,株式会社,東京都,渋谷区,恵比寿４丁目２０－３恵比寿ガーデンプレイス１８階,,13,113,1500013,,,,,,,2025-11-17,1,,,,,ボウキカク,0
42,1011001173502,新規,0,2025-11-17,2025-11-17,株式会社Ｍｓ．Ａｃａｄｅｍｙ,,株式会社,東京都,渋谷区,円山町５番３号ＭＩＥＵＸ渋谷ビル８階,,13,113,1500044,,,,,,,2025-11-17,1,,,,,ミスアカデミー,0
43,1011001173527,新規,0,2025-11-17,2025-11-17,ＭＩＯＵ株式会社,,株式会社,東京都,渋谷区,道玄坂１丁目１０番８号渋谷道玄坂東急ビル２Ｆ－Ｃ,,13,113,1500043,,,,,,,2025-11-17,1,,,,,ミオー,0
44,1011001173576,新規,0,2025-11-17,2025-11-17,ＲＩＶＥＲＥＮＣＥ株式会社,,株式会社,東京都,目黒区,下目黒１丁目１番１４号コノトラビル７Ｆ,,13,110,1530064,,,,,,,2025-11-17,1,,,,,リバレンス,0
45,1011001173601,新規,0,2025-11-17,2025-11-17,株式会社フィールドゲート・アセット,,株式会社,東京都,目黒区,上目黒３丁目３６番１２－１０２号プレステージ上目黒諏訪山,,13,110,1530051,,,,,,,2025-11-17,1,,,,,フィールドゲートアセット,0
46,1011001173808,新規,0,2025-11-17,2025-11-17,株式会社ＢｕｚｚＩｎｎｏｖａｔｉｏｎ,,株式会社,東京都,渋谷区,桜丘町１２番１０号,,13,113,1500031,,,,,,,2025-11-17,1,,,,,バズイノベーション,0
49,1011003022896,新規,0,2025-11-17,2025-11-17,合同会社ＫＤＭ,,合同会社,東京都,渋谷区,幡ヶ谷２丁目２５－１－２０１,,13,113,1510072,,,,,,,2025-11-17,1,,,,,ケイディエム,0
55,1011101113944,新規,0,2025-11-17,2025-11-17,政通人和株式会社,,株式会社,東京都,新宿区,大久保１丁目１０－６アムス新大久保２０１室,,13,104,1690072,,,,,,,2025-11-17,1,,,,,セイツウジンワ,0
59,1011103016617,新規,0,2025-11-17,2025-11-17,ｐｏｐｐｉｎ合同会社,,合同会社,東京都,新宿区,西新宿６丁目５番１号新宿アイランドタワー２階,,13,104,1600023,,,,,,,2025-11-17,1,,,,,ポッピン,0
62,1011501032810,新規,0,2025-11-17,2025-11-17,志誠国際貿易株式会社,,株式会社,東京都,荒川区,町屋１丁目４－５－２０１,,13,118,1160001,,,,,,,2025-11-17,1,,,,,シセイコクサイボウエキ,0
63,1011503006779,新規,0,2025-11-17,2025-11-17,ＴＲＡＦＩＵＮＩＴＹ合同会社,,合同会社,東京都,荒川区,西日暮里１丁目３８－７,,13,118,1160013,,,,,,,2025-11-17,1,,,,,トラフィユニティ,0
65,1011603004922,新規,0,2025-11-17,2025-11-17,合同会社トラスト,,合同会社,東京都,練馬区,中村南２丁目１６番５号メゾン・ド・ボヌール鷺宮４０２,,13,120,1760025,,,,,,,2025-11-17,1,,,,,トラスト,0
66,1012801024299,新規,0,2025-11-17,2025-11-17,ＢＡＭＢＯ株式会社,,株式会社,東京都,立川市,富士見町６丁目２５番４０４号,,13,202,1900013,,,,,,,2025-11-17,1,,,,,バンボー,0
69,1013301055314,新規,0,2025-11-17,2025-11-17,株式会社競馬大遊山,,株式会社,東京都,豊島区,東池袋３丁目１３番１２号,,13,116,1700013,,,,,,,2025-11-17,1,,,,,ケイバダイユウザン,0
74,1020001165640,新規,0,2025-11-17,2025-11-17,東州株式会社,,株式会社,神奈川県,横浜市中区,相生町４丁目６９番地１－１００１号,,14,104,2310012,,,,,,,2025-11-17,1,,,,,トウシュウ,0
75,1020001165814,新規,0,2025-11-17,2025-11-17,株式会社ＴＫホーム,,株式会社,神奈川県,横浜市旭区,今宿西町３５２番地１,,14,112,2410031,,,,,,,2025-11-17,1,,,,,ティーケーホーム,0
76,1020001165839,新規,0,2025-11-17,2025-11-17,株式会社アルテミス,,株式会社,神奈川県,横浜市中区,松影町２丁目６番地１,,14,104,2310025,,,,,,,2025-11-17,1,,,,,アルテミス,0
82,1020003029785,新規,0,2025-11-17,2025-11-17,メテオ商事合同会社,,合同会社,神奈川県,横浜市青葉区,美しが丘１丁目３５－２インペリアルＭ３０１,,14,117,2250002,,,,,,,2025-11-17,1,,,,,メテオショウジ,0
85,1021001086760,新規,0,2025-11-17,2025-11-17,株式会社湘南Ｆｒｏｎｔｉｅｒ,,株式会社,神奈川県,茅ヶ崎市,中島８３０番地４,,14,207,2530073,,,,,,,2025-11-17,1,,,,,ショウナンフロンティア,0
86,1021001086785,新規,0,2025-11-17,2025-11-17,株式会社Ｒａｔｅｌ,,株式会社,神奈川県,高座郡寒川町,宮山３０４９番地１,,14,321,2530106,,,,,,,2025-11-17,1,,,,,ラーテル,0
87,1021001086793,新規,0,2025-11-17,2025-11-17,株式会社リワークスサポート,,株式会社,神奈川県,藤沢市,鵠沼石上１丁目７番８号,,14,205,2510025,,,,,,,2025-11-17,1,,,,,リワークスサポート,0
93,1021003016815,新規,0,2025-11-17,2025-11-17,Ｎａ合同会社,,合同会社,神奈川県,大和市,中央林間９丁目１６番７号,,14,213,2420007,,,,,,,2025-11-17,1,,,,,エヌエー,0
95,1030003028101,新規,0,2025-11-17,2025-11-17,合同会社古書修復工房,,合同会社,埼玉県,川口市,芝高木２丁目１０番１４－４０１号ジェム川口芝公園,,11,203,3330868,,,,,,,2025-11-17,1,,,,,コショシュウフクコウボウ,0
99,1040001141326,新規,0,2025-11-17,2025-11-17,株式会社Ｔｏｋｙｏ　Ｎａｔｕｒａｌ　Ｌａｂ,,株式会社,千葉県,千葉市中央区,祐光２丁目１５番７号３階,,12,101,2600007,,,,,,,2025-11-17,1,,,,,トーキョーナチュラルラボ,0
100,1040001141334,新規,0,2025-11-17,2025-11-17,株式会社ケイテック,,株式会社,千葉県,君津市,泉５０６番地１,,12,225,2991112,,,,,,,2025-11-17,1,,,,,ケイテック,0
101,1040001141342,新規,0,2025-11-17,2025-11-17,ＭＲＮ株式会社,,株式会社,千葉県,富里市,七栄８９７番地１５,,12,233,2860221,,,,,,,2025-11-17,1,,,,,エムアールエヌ,0
109,1070001043560,新規,0,2025-11-17,2025-11-17,株式会社Ｅｌｒｉｓｅ,,株式会社,群馬県,高崎市,飯塚町３８１番地１,,10,202,3700069,,,,,,,2025-11-17,1,,,,,エルライズ,0
117,1100003008475,新規,0,2025-11-17,2025-11-17,Ｎａｇａｎｏ　Ｓｋｉ　Ｔｏｕｒｓ合同会社,,合同会社,長野県,下高井郡野沢温泉村,大字豊郷４３６６番地１,,20,563,3892502,,,,,,,2025-11-17,1,,,,,ナガノスキーツアーズ,0
129,1120001281997,新規,0,2025-11-17,2025-11-17,株式会社吉生,,株式会社,大阪府,大阪市阿倍野区,北畠２丁目９番３５号,,27,119,5450035,,,,,,,2025-11-17,1,,,,,キチセ,0
130,1120001282005,新規,0,2025-11-17,2025-11-17,株式会社リセスタハウジング,,株式会社,大阪府,大阪市西区,江戸堀１丁目２３－１９グランビルド江戸堀８０５号,,27,106,5500002,,,,,,,2025-11-17,1,,,,,リセスタハウジング,0
131,1120001282021,新規,0,2025-11-17,2025-11-17,株式会社リアンＭＹＤ,,株式会社,大阪府,大阪市都島区,都島南通１丁目５番５－２０１号,,27,102,5340023,,,,,,,2025-11-17,1,,,,,リアンエムワイディー,0
139,1120005025252,新規,0,2025-11-17,2025-11-17,一般社団法人ＦＩＦＴＹ‐ＦＩＦＴＹ,,その他の設立登記法人,大阪府,大阪市阿倍野区,天王寺町南３丁目１－１１ネオクレスト天王寺４０１号室,,27,119,5450002,,,,,,,2025-11-17,1,,,,,チュウヨウ,0
143,1120103006848,新規,0,2025-11-17,2025-11-17,合同会社ＣＲＯＷＮ,,合同会社,大阪府,和泉市,のぞみ野３丁目４－３０ミリオンシティビル２０３号,,27,219,5941105,,,,,,,2025-11-17,1,,,,,クラウン,0
146,1122001039896,新規,0,2025-11-17,2025-11-17,株式会社Ｒｉｈｔｉｎｇ　Ｊａｐａｎ,,株式会社,大阪府,東大阪市,吉田５丁目５番２１号,,27,227,5780924,,,,,,,2025-11-17,1,,,,,リーティンジャパン,0
148,1130001081050,新規,0,2025-11-17,2025-11-17,株式会社リムニ,,株式会社,京都府,京都市下京区,七条通油小路東入大黒町２２７番地第２キョートビル４０２,,26,106,6008223,,,,,,,2025-11-17,1,,,,,リムニ,0
151,1130003010932,新規,0,2025-11-17,2025-11-17,合同会社ハタ商会,,合同会社,京都府,南丹市,日吉町畑郷堂ノ下６１番地,,26,213,6290313,,,,,,,2025-11-17,1,,,,,ハタショウカイ,0
190,1190001032700,新規,0,2025-11-17,2025-11-17,株式会社アンドウセンイ,,株式会社,三重県,松阪市,大津町６２４番地１,,24,204,5150031,,,,,,,2025-11-17,1,,,,,アンドウセンイ,0
194,1200001044438,新規,0,2025-11-17,2025-11-17,株式会社山登ゴムホールディングス,,株式会社,岐阜県,美濃加茂市,本郷町６丁目５番２２号,,21,211,5050027,,,,,,,2025-11-17,1,,,,,ヤマトゴムホールディングス,0
195,1200001044446,新規,0,2025-11-17,2025-11-17,株式会社アセットデザイン,,株式会社,岐阜県,岐阜市,北一色２丁目１番４号,,21,201,5008227,,,,,,,2025-11-17,1,,,,,アセットデザイン,0
197,1200003007145,新規,0,2025-11-17,2025-11-17,合同会社リフォレストブルー,,合同会社,岐阜県,土岐市,肥田浅野朝日町１丁目１６番地,,21,212,5095117,,,,,,,2025-11-17,1,,,,,リフォレストブルー,0
198,1210001020388,新規,0,2025-11-17,2025-11-17,ＴＭ商事株式会社,,株式会社,福井県,越前市,押田１丁目４番３１号,,18,209,9150083,,,,,,,2025-11-17,1,,,,,ティーエムショウジ,0
202,1220003004165,新規,0,2025-11-17,2025-11-17,合同会社樹工業,,合同会社,石川県,金沢市,福増町北８４０番地１,,17,201,9200376,,,,,,,2025-11-17,1,,,,,イツキコウギョウ,0
206,1250001021424,新規,0,2025-11-17,2025-11-17,株式会社ドットアップ,,株式会社,山口県,防府市,今市町１７番４３号,,35,206,7470042,,,,,,,2025-11-17,1,,,,,ドットアップ,0
207,1260001040737,新規,0,2025-11-17,2025-11-17,株式会社ＭＫ　ＧＡＲＡＧＥ,,株式会社,岡山県,倉敷市,四十瀬３４８番地３,,33,202,7100835,,,,,,,2025-11-17,1,,,,,エムケーガレージ,0
209,1260003005416,新規,0,2025-11-17,2025-11-17,合同会社ｍｏ’ｏ　Ｌｉｎｋｓ,,合同会社,岡山県,岡山市南区,曽根４５９－５,,33,104,7010214,,,,,,,2025-11-17,1,,,,,モオリンクス,0
211,1290001112186,新規,0,2025-11-17,2025-11-17,株式会社ＳｔｕｄｙＳｈｏｒｔ,,株式会社,福岡県,福岡市中央区,天神２丁目２番１２号Ｔ＆Ｊビルディング７Ｆ,,40,133,8100001,,,,,,,2025-11-17,1,,,,,スタディーショート,0
217,1300001014414,新規,0,2025-11-17,2025-11-17,ＪＵＭＥＩＲＡＨ　ＩＮＶＥＳＴＭＥＮＴ株式会社,,株式会社,佐賀県,佐賀市,駅前中央１丁目１３番３１－１２０１号,,41,201,8400801,,,,,,,2025-11-17,1,,,,,ジュメイラインベストメント,0
219,1310005008881,新規,0,2025-11-17,2025-11-17,特定非営利活動法人諫早こどもみらい応援団,,その他の設立登記法人,長崎県,諫早市,堂崎町１０番地５,,42,204,8540076,,,,,,,2025-11-17,1,,,,,イサハヤコドモミライオウエンダン,0
220,1320001021441,新規,0,2025-11-17,2025-11-17,株式会社ＫＵＮＡＩパートナーズ,,株式会社,大分県,大分市,中島西３丁目７番９号ナイスモア中島２０１,,44,201,8700047,,,,,,,2025-11-17,1,,,,,クナイパートナーズ,0
226,1340003005011,新規,0,2025-11-17,2025-11-17,合同会社ＤＫＳ,,合同会社,鹿児島県,鹿児島市,西田２丁目２４番１２号ＬａＬｕｃｅ鹿児島中央４０２号,,46,201,8900046,,,,,,,2025-11-17,1,,,,,ディーケイエス,0
229,1360001036048,新規,0,2025-11-17,2025-11-17,株式会社琉球キムチ,,株式会社,沖縄県,那覇市,曙３丁目１８番１０号,,47,201,9000002,,,,,,,2025-11-17,1,,,,,リュウキュウキムチ,0
236,1380001035700,新規,0,2025-11-17,2025-11-17,株式会社Ｍ’ｓ,,株式会社,福島県,郡山市,御前南５丁目１７２番地,,07,203,9630209,,,,,,,2025-11-17,1,,,,,エムズ,0
248,1430001095680,新規,0,2025-11-17,2025-11-17,株式会社Ｅｚｏ　Ｍｏｍｉｊｉ,,株式会社,北海道,恵庭市,黄金南１丁目２６番地１９,,01,231,0611409,,,,,,,2025-11-17,1,,,,,エゾモミジ,0
249,1430001095689,新規,0,2025-11-17,2025-11-17,株式会社ｓｔｕｄｉｏ　ＦＩＴ,,株式会社,北海道,千歳市,東郊１丁目７－１,,01,224,0660021,,,,,,,2025-11-17,1,,,,,スタジオフィット,0
255,1500001026629,新規,0,2025-11-17,2025-11-17,株式会社藤本水産,,株式会社,愛媛県,松山市,住吉２丁目２番１９号,,38,201,7918062,,,,,,,2025-11-17,1,,,,,フジモトスイサン,0
261,2010005040947,新規,0,2025-11-17,2025-11-17,弁護士法人永松総合法律事務所,,その他の設立登記法人,東京都,中央区,新川１丁目２８番３３号Ｇｌａｎｆｆｉｃｅ茅場町５階,,13,102,1040033,,,,,,,2025-11-17,1,,,,,ナガマツソウゴウホウリツジムショ,0
272,2010401194487,新規,0,2025-11-17,2025-11-17,株式会社ＩＮＦＩＮＩＴＹ　ＥＩＧＨＴ,,株式会社,東京都,港区,北青山１丁目３番１号アールキューブ青山３階,,13,103,1070061,,,,,,,2025-11-17,1,,,,,インフィニティエイト,0
273,2010401194512,新規,0,2025-11-17,2025-11-17,株式会社プラスワンリペア,,株式会社,東京都,港区,浜松町２丁目２番１５号浜松町ダイヤビル２階,,13,103,1050013,,,,,,,2025-11-17,1,,,,,プラスワンリペア,0
274,2010401194545,新規,0,2025-11-17,2025-11-17,ＰＩＶＩ株式会社,,株式会社,東京都,港区,北青山１丁目３番１号アールキューブ青山３階,,13,103,1070061,,,,,,,2025-11-17,1,,,,,ピヴィ,0
281,2010403036588,新規,0,2025-11-17,2025-11-17,Ｅｐｉｓｏｄｅ３合同会社,,合同会社,東京都,港区,新橋４丁目１４番１号新橋ＡＵＮＢＬＤＧ４階,,13,103,1050004,,,,,,,2025-11-17,1,,,,,エピソードスリー,0
284,2010601068276,新規,0,2025-11-17,2025-11-17,株式会社Ｒｅ‐Ｂｕｉｌｄ,,株式会社,東京都,江東区,南砂７丁目１０番９－１１１０号,,13,108,1360076,,,,,,,2025-11-17,1,,,,,リビルド,0
291,2011001173484,新規,0,2025-11-17,2025-11-17,Ｌｕｍｉｎｏｕｓ株式会社,,株式会社,東京都,渋谷区,神宮前６丁目２３番４号桑野ビル２階,,13,113,1500001,,,,,,,2025-11-17,1,,,,,ルミナス,0
292,2011001173492,新規,0,2025-11-17,2025-11-17,株式会社Ｓｏａｒｅｎｃｅ,,株式会社,東京都,渋谷区,円山町５－３,,13,113,1500044,,,,,,,2025-11-17,1,,,,,ソアレンス,0
293,2011001173583,新規,0,2025-11-17,2025-11-17,株式会社ＳＧＡＭ,,株式会社,東京都,目黒区,下目黒１丁目３番２８号４Ｆ,,13,110,1530064,,,,,,,2025-11-17,1,,,,,エスジーエーエム,0
294,2011001173609,新規,0,2025-11-17,2025-11-17,株式会社ＲｅＭａｙ,,株式会社,東京都,目黒区,自由が丘１丁目８－１９－４Ｆ,,13,110,1520035,,,,,,,2025-11-17,1,,,,,リーメイ,0
295,2011001173625,新規,0,2025-11-17,2025-11-17,株式会社ユナイテッドスクエアホールディングス,,株式会社,東京都,渋谷区,神宮前３丁目４０番９号,,13,113,1500001,,,,,,,2025-11-17,1,,,,,ユナイテッドスクエアホールディングス,0
296,2011001173699,新規,0,2025-11-17,2025-11-17,Ａｒｋａｄｉａｈ　Ｔｅｃｈｎｏｌｏｇｙ株式会社,,株式会社,東京都,渋谷区,道玄坂１丁目１０番８号,,13,113,1500043,,,,,,,2025-11-17,1,,,,,アーカディアテクノロジー,0
297,2011001173823,新規,0,2025-11-17,2025-11-17,Ｔｅｒｒｙ　Ｓｔｒａｔｅｇｙ　Ｌａｂ株式会社,,株式会社,東京都,目黒区,東が丘１丁目３番７号,,13,110,1520021,,,,,,,2025-11-17,1,,,,,テリーストラテジーラボ,0
298,2011003022937,新規,0,2025-11-17,2025-11-17,合同会社つる,,合同会社,東京都,渋谷区,代々木５丁目５６番３号,,13,113,1510053,,,,,,,2025-11-17,1,,,,,ツル,0
308,2011403004948,新規,0,2025-11-17,2025-11-17,合同会社Ｃｌｏｕｄ８,,合同会社,東京都,板橋区,東山町７番２号,,13,119,1740073,,,,,,,2025-11-17,1,,,,,クラウドエイト,0
310,2011601029160,新規,0,2025-11-17,2025-11-17,株式会社ＣＹＣＬＥ　ＣＵＲＡＴＯＲＳ,,株式会社,東京都,練馬区,中村２丁目２６番９号,,13,120,1760024,,,,,,,2025-11-17,1,,,,,サイクルキュレーターズ,0
314,2012801024356,新規,0,2025-11-17,2025-11-17,株式会社Ｎｏｄｏ,,株式会社,東京都,立川市,一番町１丁目６０番地の６,,13,202,1900033,,,,,,,2025-11-17,1,,,,,ノード,0
321,2020001165714,新規,0,2025-11-17,2025-11-17,株式会社獅志翔會,,株式会社,神奈川県,横浜市戸塚区,下倉田町９２５番地１０,,14,110,2440815,,,,,,,2025-11-17,1,,,,,シシドカイ,0
322,2020001165813,新規,0,2025-11-17,2025-11-17,株式会社小島エステート,,株式会社,神奈川県,横浜市港北区,綱島東４丁目１番１号,,14,109,2230052,,,,,,,2025-11-17,1,,,,,コジマエステート,0
323,2020001165821,新規,0,2025-11-17,2025-11-17,株式会社ＩＳＨＩＺＵＥ,,株式会社,神奈川県,川崎市高津区,梶ケ谷３丁目２番地５－６０３号,,14,134,2130015,,,,,,,2025-11-17,1,,,,,イシズエ,0
324,2020001165838,新規,0,2025-11-17,2025-11-17,株式会社Ｍ　ｂｌｉｓｓ,,株式会社,神奈川県,横浜市緑区,上山１丁目１番６号,,14,113,2260012,,,,,,,2025-11-17,1,,,,,エムブリス,0
325,2020001165854,新規,0,2025-11-17,2025-11-17,株式会社三奈,,株式会社,神奈川県,川崎市多摩区,菅４丁目１２番２６号－２０４,,14,135,2140001,,,,,,,2025-11-17,1,,,,,ミナ,0
331,2020003029784,新規,0,2025-11-17,2025-11-17,アルブルデテ合同会社,,合同会社,神奈川県,横浜市都筑区,南山田３丁目２９番９号,,14,118,2240029,,,,,,,2025-11-17,1,,,,,アルブルデテ,0
335,2021001086768,新規,0,2025-11-17,2025-11-17,株式会社Ｂｅ　Ｙｏｕｎｇ,,株式会社,神奈川県,相模原市南区,東林間４丁目１２番８号,,14,153,2520311,,,,,,,2025-11-17,1,,,,,ビーヤング,0
336,2021001086776,新規,0,2025-11-17,2025-11-17,株式会社Ｌｕｎａ　ｃｒｅｃｉｅｎｔｅ,,株式会社,神奈川県,藤沢市,片瀬海岸２丁目８－１５,,14,205,2510035,,,,,,,2025-11-17,1,,,,,,0
337,2021001086784,新規,0,2025-11-17,2025-11-17,株式会社Ｍ＆Ｃ,,株式会社,神奈川県,平塚市,めぐみが丘２丁目１５番６号,,14,203,2591220,,,,,,,2025-11-17,1,,,,,エムアンドシー,0
339,2021003016789,新規,0,2025-11-17,2025-11-17,合同会社ノア,,合同会社,神奈川県,藤沢市,辻堂元町２丁目１４番１０号,,14,205,2510043,,,,,,,2025-11-17,1,,,,,ノア,0
346,2030001169706,新規,0,2025-11-17,2025-11-17,株式会社アース・プラス,,株式会社,埼玉県,久喜市,菖蒲町小林２６５１番地,,11,232,3460115,,,,,,,2025-11-17,1,,,,,アースプラス,0
351,2040001141333,新規,0,2025-11-17,2025-11-17,Ｒｅあゆみ株式会社,,株式会社,千葉県,千葉市花見川区,幕張町５丁目４１１番地１ロイヤルシャトー幕張５１３号,,12,102,2620032,,,,,,,2025-11-17,1,,,,,リアユミ,0
352,2040001141341,新規,0,2025-11-17,2025-11-17,株式会社ＭＫＲ,,株式会社,千葉県,浦安市,当代島３丁目１６番３号,,12,227,2790001,,,,,,,2025-11-17,1,,,,,エムケイアール,0
353,2040001141358,新規,0,2025-11-17,2025-11-17,株式会社Ｍ＆Ｈ,,株式会社,千葉県,千葉市若葉区,若松町２１７０番地２５,,12,104,2640021,,,,,,,2025-11-17,1,,,,,エムアンドエイチ,0
354,2040001141416,新規,0,2025-11-17,2025-11-17,ＧＬＯＢＡＬＯＮＥ　ＤＩＮＩＮＧ株式会社,,株式会社,千葉県,佐倉市,石川５５９番地６２,,12,212,2850813,,,,,,,2025-11-17,1,,,,,グローバルワンダイニング,0
355,2040001141424,新規,0,2025-11-17,2025-11-17,株式会社ソレアード,,株式会社,千葉県,船橋市,田喜野井７丁目２７番１１号,,12,204,2740073,,,,,,,2025-11-17,1,,,,,ソレアード,0
361,2050001057611,新規,0,2025-11-17,2025-11-17,株式会社ＹＵＳＵＲＡＧＯ,,株式会社,茨城県,つくば市,小野崎１１２５,,08,220,3050034,,,,,,,2025-11-17,1,,,,,ユスラゴ,0
362,2050003009750,新規,0,2025-11-17,2025-11-17,合同会社ＨＲ・トレーディング,,合同会社,茨城県,古河市,谷貝１０７１番地３２,,08,204,3060113,,,,,,,2025-11-17,1,,,,,エイチアールトレーディング,0
368,2090001019608,新規,0,2025-11-17,2025-11-17,グロウィズ株式会社,,株式会社,山梨県,甲府市,北口１丁目６番２４号,,19,201,4000024,,,,,,,2025-11-17,1,,,,,グロウィズ,0
371,2100003008482,新規,0,2025-11-17,2025-11-17,合同会社Ｐａｔｒｉｍｏｎｉｕｍ　Ｆａｍｉｌｉａｅ研究所,,合同会社,長野県,北佐久郡軽井沢町,大字長倉２１４７番地１０２７,,20,321,3890111,,,,,,,2025-11-17,1,,,,,パトリモニウムファミリアエケンキュウジョ,0
374,2110001039727,新規,0,2025-11-17,2025-11-17,株式会社ランス,,株式会社,新潟県,新潟市中央区,姥ケ山６丁目４‐１８,,15,103,9500923,,,,,,,2025-11-17,1,,,,,ランス,0
387,2120001281971,新規,0,2025-11-17,2025-11-17,株式会社ｍｉｎｔ　Ｍｕｓｉｃ,,株式会社,大阪府,大阪市西区,北堀江１丁目２－１６おおきにサイタサイタビル３階,,27,106,5500014,,,,,,,2025-11-17,1,,,,,ミントミュージック,0
388,2120001282004,新規,0,2025-11-17,2025-11-17,株式会社アイズ,,株式会社,大阪府,大阪市生野区,勝山北５丁目９番１号,,27,116,5440033,,,,,,,2025-11-17,1,,,,,アイズ,0
389,2120001282012,新規,0,2025-11-17,2025-11-17,ＭＮＹ株式会社,,株式会社,大阪府,大阪市淀川区,西三国４丁目８番１９号,,27,123,5320006,,,,,,,2025-11-17,1,,,,,メニュー,0
390,2120001282029,新規,0,2025-11-17,2025-11-17,株式会社Ｎｏｖａ　Ｌｉｎｋ,,株式会社,大阪府,大阪市福島区,海老江８丁目１３番１号,,27,103,5530001,,,,,,,2025-11-17,1,,,,,ノヴァリンク,0
391,2120001282045,新規,0,2025-11-17,2025-11-17,イチロク株式会社,,株式会社,大阪府,大阪市西区,江戸堀１丁目２５番２２号アトラクシア江戸堀４０５,,27,106,5500002,,,,,,,2025-11-17,1,,,,,イチロク,0
392,2120001282053,新規,0,2025-11-17,2025-11-17,株式会社ランド・クリンテック,,株式会社,大阪府,大阪市中央区,石町２丁目３番９号天満橋コードビル４Ｆ,,27,128,5400033,,,,,,,2025-11-17,1,,,,,ランドクリンテック,0
393,2120001282086,新規,0,2025-11-17,2025-11-17,ｗｉｌｌ．ｓｍｉｌｅ株式会社,,株式会社,大阪府,大阪市西成区,潮路２丁目４番３６号,,27,122,5570052,,,,,,,2025-11-17,1,,,,,ウィルスマイル,0
396,2120101072783,新規,0,2025-11-17,2025-11-17,吉田塗装工業株式会社,,株式会社,大阪府,阪南市,尾崎町８丁目３９番１６号,,27,232,5990201,,,,,,,2025-11-17,1,,,,,ヨシダトソウコウギョウ,0
397,2120101072791,新規,0,2025-11-17,2025-11-17,株式会社ストラム,,株式会社,大阪府,藤井寺市,野中１丁目９７番１号第３セイワビル１階１Ｄ号室,,27,226,5830014,,,,,,,2025-11-17,1,,,,,ストラム,0
399,2120103006855,新規,0,2025-11-17,2025-11-17,合同会社ファシリティマスターズ,,合同会社,大阪府,堺市北区,長曽根町３０３２番地５べアーネスト１０７号,,27,146,5918025,,,,,,,2025-11-17,1,,,,,ファシリティマスターズ,0
405,2122001039879,新規,0,2025-11-17,2025-11-17,株式会社ビション,,株式会社,大阪府,大東市,末広町１番２２１１号,,27,218,5740036,,,,,,,2025-11-17,1,,,,,ビション,0
406,2122001039895,新規,0,2025-11-17,2025-11-17,株式会社セスン,,株式会社,大阪府,東大阪市,加納２丁目３番３号,,27,227,5780901,,,,,,,2025-11-17,1,,,,,セスン,0
411,2140001140705,新規,0,2025-11-17,2025-11-17,株式会社ＬＯＵＩＳ,,株式会社,兵庫県,尼崎市,若王寺３丁目１５番３５－１０１号,,28,202,6610974,,,,,,,2025-11-17,1,,,,,ルイス,0
412,2140001140746,新規,0,2025-11-17,2025-11-17,株式会社ハートわんにゃんクリニック,,株式会社,兵庫県,加東市,社１１７７番地２,,28,228,6731431,,,,,,,2025-11-17,1,,,,,ハートワンニャンクリニック,0
420,2160001027231,新規,0,2025-11-17,2025-11-17,美佳美株式会社,,株式会社,滋賀県,栗東市,高野２９５－１１武村店舗２号室,,25,208,5203045,,,,,,,2025-11-17,1,,,,,ミカミ,0
427,2180001169542,新規,0,2025-11-17,2025-11-17,株式会社ＢＩＴＯマネジメント,,株式会社,愛知県,名古屋市中区,正木４丁目６番１号モラリエ金山９０１号,,23,106,4600024,,,,,,,2025-11-17,1,,,,,ビトマネジメント,0
428,2180001169559,新規,0,2025-11-17,2025-11-17,株式会社煌,,株式会社,愛知県,知多郡美浜町,大字奥田字儀路２７番地,,23,446,4703233,,,,,,,2025-11-17,1,,,,,キラメキ,0
436,2190005012086,新規,0,2025-11-17,2025-11-17,特定非営利活動法人友愛,,その他の設立登記法人,三重県,亀山市,高塚町１３番地６,,24,210,5190119,,,,,,,2025-11-17,1,,,,,ユウアイ,0
438,2200001044412,新規,0,2025-11-17,2025-11-17,株式会社ＤＡＩＷＡ,,株式会社,岐阜県,安八郡輪之内町,楡俣新田１９９番地の１,,21,382,5030203,,,,,,,2025-11-17,1,,,,,ダイワ,0
439,2200001044420,新規,0,2025-11-17,2025-11-17,株式会社藤和商事,,株式会社,岐阜県,羽島市,正木町曲利６６４－１－１－３,,21,209,5016227,,,,,,,2025-11-17,1,,,,,トウワショウジ,0
447,2220001027027,新規,0,2025-11-17,2025-11-17,アキュティムジャパン株式会社,,株式会社,石川県,金沢市,弥生２丁目７－１７グリーンスクエア有松Ａ,,17,201,9218036,,,,,,,2025-11-17,1,,,,,アキュティムジャパン,0
448,2220003004164,新規,0,2025-11-17,2025-11-17,合同会社まるがるカンパニー,,合同会社,石川県,白山市,博労２丁目５０番地,,17,210,9240863,,,,,,,2025-11-17,1,,,,,マルガルカンパニー,0
460,2290001112086,新規,0,2025-11-17,2025-11-17,株式会社ナレータ,,株式会社,福岡県,福岡市中央区,輝国２丁目６番１４―４０４号,,40,133,8100032,,,,,,,2025-11-17,1,,,,,ナレータ,0
461,2290001112136,新規,0,2025-11-17,2025-11-17,株式会社シンフォニー,,株式会社,福岡県,大野城市,東大利３丁目１６番２１－６０１号,,40,219,8160941,,,,,,,2025-11-17,1,,,,,シンフォニー,0
462,2290001112177,新規,0,2025-11-17,2025-11-17,株式会社ｓｏａｒ,,株式会社,福岡県,福岡市南区,三宅１丁目５番２２号,,40,134,8111344,,,,,,,2025-11-17,1,,,,,ソア,0
463,2290001112185,新規,0,2025-11-17,2025-11-17,株式会社リンク・ラボ,,株式会社,福岡県,福岡市博多区,竹下５丁目９番１０－２０１号,,40,132,8120895,,,,,,,2025-11-17,1,,,,,リンクラボ,0
465,2300001014413,新規,0,2025-11-17,2025-11-17,株式会社神波,,株式会社,佐賀県,唐津市,山下町１１６３番地１,,41,202,8470842,,,,,,,2025-11-17,1,,,,,カンナミ,0
468,2320001021440,新規,0,2025-11-17,2025-11-17,株式会社よづ,,株式会社,大分県,大分市,大字下郡３０７６番地の３,,44,201,8700951,,,,,,,2025-11-17,1,,,,,ヨヅ,0
471,2330003004327,新規,0,2025-11-17,2025-11-17,合資会社白石自動車整備工場,,合資会社,熊本県,球磨郡あさぎり町,免田東４２２９番地の１,,43,514,8680408,,,,,,,2025-11-17,1,,,,,,0
472,2330003011323,新規,0,2025-11-17,2025-11-17,久鼎建筑合同会社,,合同会社,熊本県,菊池市,泗水町吉富２５５０番地３,,43,210,8611201,,,,,,,2025-11-17,1,,,,,キュウテイケンセツ,0
474,2340005009918,新規,0,2025-11-17,2025-11-17,田布施村農業會,,その他の設立登記法人,鹿児島県,南さつま市,金峰町尾下４２２番地,,46,220,8993403,,,,,,,2025-11-17,1,,,,,,0
480,2360003015404,新規,0,2025-11-17,2025-11-17,合同会社総合商社まあちゃん,,合同会社,沖縄県,宮古島市,平良字東仲宗根２８６番地３,,47,214,9060007,,,,,,,2025-11-17,1,,,,,ソウゴウショウシャマアチャン,0
484,2380001035690,新規,0,2025-11-17,2025-11-17,株式会社円翔,,株式会社,福島県,白河市,泉田七々入１５番地,,07,205,9610003,,,,,,,2025-11-17,1,,,,,エンショウ,0
485,2380003006186,新規,0,2025-11-17,2025-11-17,合同会社Ａｗｅｓｏｍｅｓ,,合同会社,福島県,郡山市,大槻町字柏山３７番地の３２,,07,203,9630201,,,,,,,2025-11-17,1,,,,,オーサムズ,0
487,2390001018158,新規,0,2025-11-17,2025-11-17,株式会社ＧＯＡＴ,,株式会社,山形県,寒河江市,栄町８番４１号,,06,206,9910034,,,,,,,2025-11-17,1,,,,,ゴート,0
489,2390005009137,新規,0,2025-11-17,2025-11-17,特定非営利活動法人メメ・コモンズ,,その他の設立登記法人,山形県,米沢市,東３丁目６番３４号,,06,202,9920026,,,,,,,2025-11-17,1,,,,,メメコモンズ,0
492,2420001019342,新規,0,2025-11-17,2025-11-17,株式会社角冷設,,株式会社,青森県,八戸市,大字白銀町字新九郎蒔目１０番地１１,,02,203,0310822,,,,,,,2025-11-17,1,,,,,カドレイセツ,0
499,2430001095663,新規,0,2025-11-17,2025-11-17,株式会社Ｈａｎｇ　Ｏｕｔ　Ｐｌａｃｅ,,株式会社,北海道,札幌市豊平区,月寒東五条１８丁目２番５５号第３グリーンヒル１階,,01,105,0620055,,,,,,,2025-11-17,1,,,,,ハングアウトプレイス,0
500,2430001095688,新規,0,2025-11-17,2025-11-17,５６０ｗｏｒｋｓ株式会社,,株式会社,北海道,札幌市清田区,里塚緑ケ丘６丁目２２番２３号,,01,110,0040805,,,,,,,2025-11-17,1,,,,,ゴローワークス,0
507,2440001009713,新規,0,2025-11-17,2025-11-17,株式会社ＳＡＮＷＡ,,株式会社,北海道,上磯郡知内町,字重内３１番地,,01,333,0491103,,,,,,,2025-11-17,1,,,,,サンワ,0
511,2470003003018,新規,0,2025-11-17,2025-11-17,ＳＡＬＯＮ　ＢＥＳＯ合同会社,,合同会社,香川県,高松市,高松町２５０８番地２,,37,201,7610104,,,,,,,2025-11-17,1,,,,,サロンベソ,0
522,3010001260127,新規,0,2025-11-17,2025-11-17,株式会社丸の内インベストメントグループ,,株式会社,東京都,千代田区,丸の内２丁目３－２郵船ビルディング１階,,13,101,1000005,,,,,,,2025-11-17,1,,,,,マルノウチインベストメントグループ,0
523,3010001260283,新規,0,2025-11-17,2025-11-17,株式会社ワンダーデザイン,,株式会社,東京都,中央区,銀座１丁目１２番４号Ｎ＆ＥＢＬＤ．６Ｆ,,13,102,1040061,,,,,,,2025-11-17,1,,,,,ワンダーデザイン,0
524,3010001260325,新規,0,2025-11-17,2025-11-17,ワイルート株式会社,,株式会社,東京都,千代田区,神田須田町１丁目７番８号ＶＯＲＴ秋葉原ＩＶ２Ｆ,,13,101,1010041,,,,,,,2025-11-17,1,,,,,ワイルート,0
525,3010001260341,新規,0,2025-11-17,2025-11-17,スキャパレリ・ジャパン株式会社,,株式会社,東京都,中央区,銀座３丁目４番１号,,13,102,1040061,,,,,,,2025-11-17,1,,,,,スキャパレリジャパン,0
528,3010005040921,新規,0,2025-11-17,2025-11-17,弁理士法人佐藤特許事務所,,その他の設立登記法人,東京都,中央区,新川１丁目３番２１号,,13,102,1040033,,,,,,,2025-11-17,1,,,,,サトウトッキョジムショ,0
529,3010005040938,新規,0,2025-11-17,2025-11-17,一般社団法人青を繋ぐ,,その他の設立登記法人,東京都,中央区,日本橋室町１丁目１１番１２号日本橋水野ビル７階,,13,102,1030022,,,,,,,2025-11-17,1,,,,,アオヲツナグ,0
530,3010005040946,新規,0,2025-11-17,2025-11-17,一般社団法人ＦＵＮＡＤＥ３,,その他の設立登記法人,東京都,中央区,京橋２丁目１２番６号ＡＯＪ税理士法人内,,13,102,1040031,,,,,,,2025-11-17,1,,,,,フナデスリー,0
540,3010401194486,新規,0,2025-11-17,2025-11-17,川窪海事株式会社,,株式会社,東京都,港区,六本木３丁目１６番１２号六本木ＫＳビル５Ｆ,,13,103,1060032,,,,,,,2025-11-17,1,,,,,カワクボカイジ,0
541,3010401194511,新規,0,2025-11-17,2025-11-17,株式会社ＭＹＴＡＳ,,株式会社,東京都,港区,港南１丁目８番１５号Ｗビルリブポート品川２Ｆ,,13,103,1080075,,,,,,,2025-11-17,1,,,,,マイタス,0
543,3010403036587,新規,0,2025-11-17,2025-11-17,合同会社ＬＵＣＩＡ,,合同会社,東京都,港区,赤坂２丁目８番１８号妙和ビル２Ｆ,,13,103,1070052,,,,,,,2025-11-17,1,,,,,ルチア,0
548,3010601068275,新規,0,2025-11-17,2025-11-17,株式会社アンチエイジングヘルステック,,株式会社,東京都,江東区,有明１丁目４番１１－２７０７号,,13,108,1350063,,,,,,,2025-11-17,1,,,,,アンチエイジングヘルステック,0
549,3010603011910,新規,0,2025-11-17,2025-11-17,アール・エス・マネジメント合同会社,,合同会社,東京都,江東区,有明２丁目１番２－１０１１号,,13,108,1350063,,,,,,,2025-11-17,1,,,,,アールエスマネジメント,0
565,3011001173608,新規,0,2025-11-17,2025-11-17,株式会社ジョリーリタ,,株式会社,東京都,渋谷区,千駄ヶ谷４丁目１１番９－４０８号,,13,113,1510051,,,,,,,2025-11-17,1,,,,,ジョリーリタ,0
566,3011001173632,新規,0,2025-11-17,2025-11-17,株式会社ＹＵＲＡＲＡ,,株式会社,東京都,渋谷区,道玄坂１丁目１０番８号渋谷道玄坂東急ビル２Ｆ－Ｃ,,13,113,1500043,,,,,,,2025-11-17,1,,,,,ユララ,0
567,3011001173649,新規,0,2025-11-17,2025-11-17,株式会社リームズエステート,,株式会社,東京都,渋谷区,千駄ヶ谷１丁目１４番１号神宮外苑テラス４０１,,13,113,1510051,,,,,,,2025-11-17,1,,,,,リームズエステート,0
570,3011003022894,新規,0,2025-11-17,2025-11-17,合同会社ＨＯＳＯ,,合同会社,東京都,渋谷区,富ヶ谷２丁目９番１３号ワイズファースト１０１,,13,113,1510063,,,,,,,2025-11-17,1,,,,,ホソ,0
593,3012701019190,新規,0,2025-11-17,2025-11-17,株式会社一木土,,株式会社,東京都,小平市,学園東町４９０番地の１７,,13,211,1870043,,,,,,,2025-11-17,1,,,,,ヒトコト,0
594,3012801024355,新規,0,2025-11-17,2025-11-17,Ｃｒｅｓｔｏｎｅ株式会社,,株式会社,東京都,立川市,錦町５丁目５番２３号,,13,202,1900022,,,,,,,2025-11-17,1,,,,,クレストン,0
595,3012803003927,新規,0,2025-11-17,2025-11-17,ＮＥＷＴＲＡＬ　ＦＯＯＴ　ＷＯＲＫＳ合同会社,,合同会社,東京都,立川市,曙町３丁目５－３０ザ・パークハウス立川２１２,00141563,13,202,1900012,,,,,,,2025-11-17,1,,,,,ニュートラルフットワークス,0
613,3020001165820,新規,0,2025-11-17,2025-11-17,株式会社ＬＴＫＨ,,株式会社,神奈川県,横浜市神奈川区,栗田谷２１番２２号,,14,102,2210804,,,,,,,2025-11-17,1,,,,,エルティケイエイチ,0
614,3020001165829,新規,0,2025-11-17,2025-11-17,株式会社英代,,株式会社,神奈川県,横浜市港北区,師岡町２５９番地４０,,14,109,2220002,,,,,,,2025-11-17,1,,,,,エイダイ,0
620,3020003029767,新規,0,2025-11-17,2025-11-17,合同会社ロイヤル,,合同会社,神奈川県,川崎市中原区,中丸子７２４番地リバーサイド多摩１０３,,14,133,2110012,,,,,,,2025-11-17,1,,,,,ロイヤル,0
621,3020003029783,新規,0,2025-11-17,2025-11-17,合同会社ＳＥＲＥＮＩＴＹ,,合同会社,神奈川県,横浜市西区,老松町１４番１アルス横浜野毛坂３０９号,,14,103,2200032,,,,,,,2025-11-17,1,,,,,セレニティ,0
622,3020003029791,新規,0,2025-11-17,2025-11-17,合同会社重幸,,合同会社,神奈川県,横浜市瀬谷区,宮沢１丁目５１番地５５,,14,114,2460038,,,,,,,2025-11-17,1,,,,,ジュウコウ,0
623,3020003029800,新規,0,2025-11-17,2025-11-17,オリディス合同会社,,合同会社,神奈川県,横浜市港北区,日吉１丁目１９番２５号,,14,109,2230061,,,,,,,2025-11-17,1,,,,,オリディス,0
624,3021001086759,新規,0,2025-11-17,2025-11-17,株式会社ＺＡＩ,,株式会社,神奈川県,平塚市,夕陽ケ丘３番２１号,,14,203,2540806,,,,,,,2025-11-17,1,,,,,ゼットエイアイ,0
625,3021001086775,新規,0,2025-11-17,2025-11-17,株式会社ラシク,,株式会社,神奈川県,相模原市中央区,横山２丁目１５番８号,,14,152,2520242,,,,,,,2025-11-17,1,,,,,ラシク,0
626,3021001086783,新規,0,2025-11-17,2025-11-17,株式会社ニューフィールド,,株式会社,神奈川県,足柄下郡箱根町,仙石原１８１番地,,14,382,2500631,,,,,,,2025-11-17,1,,,,,ニューフィールド,0
627,3021001086791,新規,0,2025-11-17,2025-11-17,株式会社ファーストリーフ,,株式会社,神奈川県,茅ヶ崎市,矢畑６８２番地１０,,14,207,2530085,,,,,,,2025-11-17,1,,,,,ファーストリーフ,0
628,3021003016788,新規,0,2025-11-17,2025-11-17,合同会社湘南テックギア,,合同会社,神奈川県,平塚市,黒部丘６－１９－３１１,,14,203,2540821,,,,,,,2025-11-17,1,,,,,,0
629,3021003016796,新規,0,2025-11-17,2025-11-17,ナナラ合同会社,,合同会社,神奈川県,足柄上郡山北町,山北６１５番地１,,14,364,2580113,,,,,,,2025-11-17,1,,,,,ナナラ,0
630,3021005013461,新規,0,2025-11-17,2025-11-17,一般社団法人ＳＫＹグリーフシェアの会,,その他の設立登記法人,神奈川県,小田原市,栢山２４３０番地,,14,206,2500852,,,,,,,2025-11-17,1,,,,,スカイグリーフシェアノカイ,0
637,3040001141324,新規,0,2025-11-17,2025-11-17,ＬＩＣＨＴ工業株式会社,,株式会社,千葉県,印西市,原山１丁目３番地５棟１０６号,,12,231,2701341,,,,,,,2025-11-17,1,,,,,リヒトコウギョウ,0
638,3040001141349,新規,0,2025-11-17,2025-11-17,株式会社ＵＰＤ,,株式会社,千葉県,船橋市,習志野台４丁目４８番１７号,,12,204,2740063,,,,,,,2025-11-17,1,,,,,ユーピーディー,0
639,3040001141365,新規,0,2025-11-17,2025-11-17,株式会社ＴＲＴ,,株式会社,千葉県,千葉市中央区,登戸２丁目１番２４号ＪＫタワー千葉登戸１２０１号,,12,101,2600032,,,,,,,2025-11-17,1,,,,,ティーアールティー,0
641,3040003028940,新規,0,2025-11-17,2025-11-17,合同会社アイヤラー,,合同会社,千葉県,市川市,新田２丁目２４番１４号,,12,203,2720035,,,,,,,2025-11-17,1,,,,,アイヤラー,0
642,3040003028965,新規,0,2025-11-17,2025-11-17,合同会社ｓｏｕｒｉｒｅ,,合同会社,千葉県,市原市,草刈６５７番地１,,12,219,2900001,,,,,,,2025-11-17,1,,,,,スリール,0
645,3050001057577,新規,0,2025-11-17,2025-11-17,ゆうき不動産リアルティ株式会社,,株式会社,茨城県,結城市,中央町２丁目６番地４,,08,207,3070052,,,,,,,2025-11-17,1,,,,,ユウキフドウサンリアルティ,0
648,3050003009717,新規,0,2025-11-17,2025-11-17,合同会社ＪＰ,,合同会社,茨城県,坂東市,大崎５３番地１６,,08,228,3060622,,,,,,,2025-11-17,1,,,,,ジェーピー,0
649,3050003009758,新規,0,2025-11-17,2025-11-17,合同会社ＩＦＯ,,合同会社,茨城県,つくば市,島名１３７４番地１（香取台Ａ９街区３）,,08,220,3002655,,,,,,,2025-11-17,1,,,,,アイエフオー,0
650,3050003009766,新規,0,2025-11-17,2025-11-17,合同会社Ｓ‐ＯＮＥ‐ＷＥＤＤＩＮＧ．Ｃｏ,,合同会社,茨城県,つくば市,赤塚６３３番地１－６０６号,,08,220,3050062,,,,,,,2025-11-17,1,,,,,エスワンウェデイング,0
654,3070001043559,新規,0,2025-11-17,2025-11-17,Ｂｌｏｏｍ　Ｂａｓｅ株式会社,,株式会社,群馬県,太田市,世良田町３１２８番地１,,10,205,3700426,,,,,,,2025-11-17,1,,,,,ブルームベース,0
656,3100001039116,新規,0,2025-11-17,2025-11-17,株式会社Ｆｌｅｕｒｉｒ,,株式会社,長野県,長野市,大字若槻東条１２１０番地１,,20,201,3810084,,,,,,,2025-11-17,1,,,,,フルリール,0
659,3110001039734,新規,0,2025-11-17,2025-11-17,アイスライス株式会社,,株式会社,新潟県,南魚沼市,六日町１４０,,15,226,9496680,,,,,,,2025-11-17,1,,,,,アイスライス,0
664,3120001281905,新規,0,2025-11-17,2025-11-17,株式会社Ｍｉｃｒｏ　Ｄｒｏｎｅ　Ｊａｐａｎ,,株式会社,大阪府,大阪市中央区,北浜２丁目６番１８号,,27,128,5410041,,,,,,,2025-11-17,1,,,,,マイクロドローンジャパン,0
665,3120001281970,新規,0,2025-11-17,2025-11-17,株式会社ルーフトークス,,株式会社,大阪府,大阪市中央区,瓦町２丁目６番１１号いずみやビル２０２号室,,27,128,5410048,,,,,,,2025-11-17,1,,,,,ルーフトークス,0
666,3120001282003,新規,0,2025-11-17,2025-11-17,株式会社ＴＩＡＦＬＩＸ,,株式会社,大阪府,大阪市港区,弁天３丁目１番２－１４０４号,,27,107,5520007,,,,,,,2025-11-17,1,,,,,ティアフリックス,0
667,3120001282028,新規,0,2025-11-17,2025-11-17,スパイラル・エッジ株式会社,,株式会社,大阪府,大阪市東淀川区,東淡路４丁目２７番２１号,,27,114,5330023,,,,,,,2025-11-17,1,,,,,スパイラルエッジ,0
668,3120001282060,新規,0,2025-11-17,2025-11-17,株式会社村上通信,,株式会社,大阪府,大阪市鶴見区,放出東２丁目１５番２５号,,27,124,5380044,,,,,,,2025-11-17,1,,,,,ムラカミツウシン,0
671,3120005025259,新規,0,2025-11-17,2025-11-17,一般社団法人化粧品価値創出コンソーシアム,,その他の設立登記法人,大阪府,大阪市中央区,島町１丁目１番３号,,27,128,5400034,,,,,,,2025-11-17,1,,,,,ケショウヒンカチソウシュツコンソーシアム,0
674,3120101072808,新規,0,2025-11-17,2025-11-17,株式会社ｋ．ｚｏｏ,,株式会社,大阪府,和泉市,和気町２丁目７－９,,27,219,5940073,,,,,,,2025-11-17,1,,,,,ケイズー,0
678,3122001039894,新規,0,2025-11-17,2025-11-17,株式会社ＥＶＥＲ　ＬＡＳＴ,,株式会社,大阪府,大東市,西楠の里町６番３９号,,27,218,5740005,,,,,,,2025-11-17,1,,,,,エバーラスト,0
682,3130005017511,新規,0,2025-11-17,2025-11-17,一般社団法人シャインイースト,,その他の設立登記法人,京都府,京都市伏見区,竹田西桶ノ井町４０番地,,26,109,6128428,,,,,,,2025-11-17,1,,,,,シャインイースト,0
684,3140001140646,新規,0,2025-11-17,2025-11-17,鰻潮水産株式会社,,株式会社,兵庫県,神戸市長田区,名倉町１丁目１－５－１階,,28,106,6530883,,,,,,,2025-11-17,1,,,,,ウナギシオスイサン,0
685,3140001140753,新規,0,2025-11-17,2025-11-17,株式会社ｅｎｎｅ,,株式会社,兵庫県,神戸市中央区,新港町１３番２,,28,110,6500041,,,,,,,2025-11-17,1,,,,,エンヌ,0
715,3180001169525,新規,0,2025-11-17,2025-11-17,株式会社ＡＨＫＳ,,株式会社,愛知県,名古屋市北区,大我麻町４２番地,,23,103,4620064,,,,,,,2025-11-17,1,,,,,アークス,0
729,3200005013817,新規,0,2025-11-17,2025-11-17,医療法人アンソレイユ,,その他の設立登記法人,岐阜県,土岐市,肥田町肥田２８３４番地の２,,21,212,5095115,,,,,,,2025-11-17,1,,,,,アンソレイユ,0
737,3240001065800,新規,0,2025-11-17,2025-11-17,株式会社与元,,株式会社,広島県,広島市安佐南区,安東２丁目１５番３０－１０１号,,34,105,7310153,,,,,,,2025-11-17,1,,,,,ヨゲン,0
741,3260001040743,新規,0,2025-11-17,2025-11-17,株式会社ネクストスカイゲートウェイ,,株式会社,岡山県,岡山市北区,出石町２丁目６番１９号,,33,101,7000812,,,,,,,2025-11-17,1,,,,,ネクストスカイゲートウェイ,0
750,3290001112036,新規,0,2025-11-17,2025-11-17,株式会社Ｓｅａｓｏｎ,,株式会社,福岡県,福岡市博多区,博多駅前１丁目２３番２号ＰａｒｋＦｒｏｎｔ博多駅前１丁目５Ｆ－Ｂ,,40,132,8120011,,,,,,,2025-11-17,1,,,,,シーズン,0
751,3290001112176,新規,0,2025-11-17,2025-11-17,ａｌｐｅｎｇｌｏｗｅｅ株式会社,,株式会社,福岡県,福岡市博多区,博多駅南５丁目４番３号,,40,132,8120016,,,,,,,2025-11-17,1,,,,,アルペングロウィー,0
752,3290001112201,新規,0,2025-11-17,2025-11-17,株式会社ラ・バニーユ,,株式会社,福岡県,福岡市中央区,警固３丁目９番５３号,,40,133,8100023,,,,,,,2025-11-17,1,,,,,ラバニーユ,0
757,3290003017704,新規,0,2025-11-17,2025-11-17,合同会社ＤＡＮＢＯ,,合同会社,福岡県,福岡市中央区,那の津３丁目１３番３号,,40,133,8100071,,,,,,,2025-11-17,1,,,,,ダンボ,0
758,3290003017720,新規,0,2025-11-17,2025-11-17,合同会社エイチケー,,合同会社,福岡県,筑後市,大字熊野２８２番地２,,40,211,8330055,,,,,,,2025-11-17,1,,,,,エイチケー,0
762,3290805009873,新規,0,2025-11-17,2025-11-17,特定非営利活動法人ともに・スマイル,,その他の設立登記法人,福岡県,遠賀郡岡垣町,中央台２丁目１番４号三洋タウン岡垣Ｂ棟１０２号,,40,383,8114218,,,,,,,2025-11-17,1,,,,,トモニスマイル,0
763,3300003002373,新規,0,2025-11-17,2025-11-17,合同会社Ｕｍ,,合同会社,佐賀県,佐賀市,鍋島町八戸３１６９－４,,41,201,8400857,,,,,,,2025-11-17,1,,,,,ウム,0
771,3360003015403,新規,0,2025-11-17,2025-11-17,合同会社漲馬,,合同会社,沖縄県,浦添市,伊祖５丁目１０番８号,,47,208,9012132,,,,,,,2025-11-17,1,,,,,ハリマ,0
800,4010001258401,新規,0,2025-11-17,2025-11-17,株式会社アシスト,,株式会社,東京都,千代田区,神田須田町１丁目７番８号ＶＯＲＴ秋葉原ＩＶ２Ｆ,00141558,13,101,1010041,,,,,,,2025-11-17,1,,,,,アシスト,0
801,4010001260266,新規,0,2025-11-17,2025-11-17,ｘＳｔａｔｅ株式会社,,株式会社,東京都,千代田区,五番町１２番地７－２号棟０５５,,13,101,1020076,,,,,,,2025-11-17,1,,,,,エックスステート,0
804,4010003049410,新規,0,2025-11-17,2025-11-17,ウォルトンヒース・プロパティー合同会社,,合同会社,東京都,千代田区,九段南３丁目７番７号,,13,101,1020074,,,,,,,2025-11-17,1,,,,,ウォルトンヒースプロパティー,0
805,4010003049443,新規,0,2025-11-17,2025-11-17,ＪｕｓｔＤｉｄＩｔＪａｐａｎ合同会社,,合同会社,東京都,中央区,晴海３丁目１０－１Ｄａｉｗａ晴海ビル２Ｆ,,13,102,1040053,,,,,,,2025-11-17,1,,,,,ジャストディディットジャパン,0
811,4010401194378,新規,0,2025-11-17,2025-11-17,株式会社クレオス,,株式会社,東京都,港区,南青山３丁目３－３リビエラ南青山ビルＡ館４Ｆ,,13,103,1070062,,,,,,,2025-11-17,1,,,,,クレオス,0
812,4010401194460,新規,0,2025-11-17,2025-11-17,Ｈａｄｅｓ　ＡＩ　Ｓｏｌｕｔｉｏｎｓ株式会社,,株式会社,東京都,港区,赤坂２丁目８番１４－５０４号,,13,103,1070052,,,,,,,2025-11-17,1,,,,,ハデスエーアイソリューションズ,0
813,4010401194510,新規,0,2025-11-17,2025-11-17,株式会社ラクレボ,,株式会社,東京都,港区,南青山４丁目１８番３－４０６号,,13,103,1070062,,,,,,,2025-11-17,1,,,,,ラクレボ,0
814,4010401194527,新規,0,2025-11-17,2025-11-17,株式会社マルヴィア,,株式会社,東京都,港区,南青山３丁目１７番１４号,,13,103,1070062,,,,,,,2025-11-17,1,,,,,マルヴィア,0
817,4010403036553,新規,0,2025-11-17,2025-11-17,合同会社磐田蓄電池第一号プロジェクト,,合同会社,東京都,港区,赤坂４丁目１－２９赤菱ビル５階,,13,103,1070052,,,,,,,2025-11-17,1,,,,,イワタチクデンチダイイチゴウプロジェクト,0
818,4010403036586,新規,0,2025-11-17,2025-11-17,インテレクチュアルパテントバリュークリエーションカンパニー合同会社,,合同会社,東京都,港区,南青山２丁目２番１５号,,13,103,1070062,,,,,,,2025-11-17,1,,,,,インテレクチュアルパテントバリュークリエーションカンパニー,0
819,4010403036594,新規,0,2025-11-17,2025-11-17,ＬＥＧＯ　Ｄｉｓｃｏｖｅｒｙ　Ｃｅｎｔｅｒ　Ｊａｐａｎ合同会社,,合同会社,東京都,港区,赤坂４丁目１５番１号赤坂ガーデンシティ２階,,13,103,1070052,,,,,,,2025-11-17,1,,,,,レゴディスカバリーセンタージャパン,0
820,4010405024993,新規,0,2025-11-17,2025-11-17,一般社団法人赤坂見附ファンディング,,その他の設立登記法人,東京都,港区,赤坂４丁目１番地２９赤菱ビル５階,,13,103,1070052,,,,,,,2025-11-17,1,,,,,アカサカミツケファンディング,0
830,4010901058363,新規,0,2025-11-17,2025-11-17,エレガントリープ株式会社,,株式会社,東京都,世田谷区,深沢８丁目１８番３号,,13,112,1580081,,,,,,,2025-11-17,1,,,,,エレガントリープ,0
831,4010901058470,新規,0,2025-11-17,2025-11-17,株式会社Ａｍｂｅｒ　Ｂｌｏｓｓｏｍ,,株式会社,東京都,世田谷区,下馬６丁目３０番１２号ミラルーチェ学芸大学１０１,,13,112,1540002,,,,,,,2025-11-17,1,,,,,アンバーブロッサム,0
832,4010901058479,新規,0,2025-11-17,2025-11-17,Ｓｉｘ　Ｓｉｇｍａ　Ｓｅｒｖｉｃｅｓ株式会社,,株式会社,東京都,世田谷区,上馬１丁目５番１０－１４０４号,,13,112,1540011,,,,,,,2025-11-17,1,,,,,シックスシグマサービシーズ,0
833,4010901058487,新規,0,2025-11-17,2025-11-17,株式会社コマクロ,,株式会社,東京都,世田谷区,駒沢２丁目１７番９号,,13,112,1540012,,,,,,,2025-11-17,1,,,,,コマクロ,0
834,4010903010413,新規,0,2025-11-17,2025-11-17,Ｗ　ＭＡＮＡＧＥＭＥＮＴ合同会社,,合同会社,東京都,世田谷区,太子堂４丁目１８番１５号マガザン三軒茶屋２‐３Ｆ‐３,,13,112,1540004,,,,,,,2025-11-17,1,,,,,ダブルマネジメント,0
838,4011001173581,新規,0,2025-11-17,2025-11-17,グローバルクリエイト株式会社,,株式会社,東京都,目黒区,目黒３丁目４番２９号,,13,110,1530063,,,,,,,2025-11-17,1,,,,,グローバルクリエイト,0
839,4011001173598,新規,0,2025-11-17,2025-11-17,ｎａｎａｂｏｘ株式会社,,株式会社,東京都,渋谷区,円山町５番３号ＭＩＥＵＸ渋谷ビル８階,,13,113,1500044,,,,,,,2025-11-17,1,,,,,ナナボックス,0
840,4011001173631,新規,0,2025-11-17,2025-11-17,株式会社エントレドス,,株式会社,東京都,目黒区,中目黒３丁目６番８号プラチナフォルム中目黒ＩＩ－３０１,00141564,13,110,1530061,,,,,,,2025-11-17,1,,,,,エントレドス,0
841,4011001173648,新規,0,2025-11-17,2025-11-17,株式会社４３,,株式会社,東京都,目黒区,青葉台１丁目２６番１－１２０２号青葉台フラワーマンション,,13,110,1530042,,,,,,,2025-11-17,1,,,,,ヨンジュウサン,0
842,4011003022803,新規,0,2025-11-17,2025-11-17,合同会社ｇｒｅｅｎ‐ｌｉｔ,,合同会社,東京都,渋谷区,代々木４丁目１５番６号ブルグレイス参宮橋２１２,,13,113,1510053,,,,,,,2025-11-17,1,,,,,グリーンライト,0
843,4011003022910,新規,0,2025-11-17,2025-11-17,合同会社センジュ,,合同会社,東京都,渋谷区,円山町５－３ＭＩＥＵＸ渋谷ビル８階,,13,113,1500044,,,,,,,2025-11-17,1,,,,,センジュ,0
853,4011103016688,新規,0,2025-11-17,2025-11-17,合同会社ｂｏａｒ　ｇｒｏｉｎ,,合同会社,東京都,新宿区,歌舞伎町２丁目９番１８号ライオンズプラザ新宿Ｂ１０７,,13,104,1600021,,,,,,,2025-11-17,1,,,,,ボアーグロイン,0
859,4011601029175,新規,0,2025-11-17,2025-11-17,ＳＵＧＩコンサルティング株式会社,,株式会社,東京都,練馬区,東大泉２丁目３２番１０号,,13,120,1780063,,,,,,,2025-11-17,1,,,,,スギコンサルティング,0
866,4011803007185,新規,0,2025-11-17,2025-11-17,合同会社ＬＩＢＥＲＴＹ,,合同会社,東京都,足立区,大谷田４丁目１番２号,,13,121,1200001,,,,,,,2025-11-17,1,,,,,リバティー,0
869,4013301055303,新規,0,2025-11-17,2025-11-17,株式会社オギワラコーポレーション,,株式会社,東京都,豊島区,目白１丁目３番１７号目白ガーデンヒルズＣ棟８０７号,,13,116,1710031,,,,,,,2025-11-17,1,,,,,,0
879,4020001165828,新規,0,2025-11-17,2025-11-17,Ｌｕｃｋｙ　Ｓｔａｒ株式会社,,株式会社,神奈川県,川崎市川崎区,東田町４番地２７北村企業ビル３Ｆ,,14,131,2100005,,,,,,,2025-11-17,1,,,,,ラッキースター,0
883,4020003029790,新規,0,2025-11-17,2025-11-17,合同会社あすはな,,合同会社,神奈川県,横浜市泉区,和泉町５７３２番地１－２０２号,,14,116,2450016,,,,,,,2025-11-17,1,,,,,アスハナ,0
884,4020003029799,新規,0,2025-11-17,2025-11-17,水の木合同会社,,合同会社,神奈川県,横浜市神奈川区,大口仲町２０８－５ＴＯＰ妙蓮寺第２－１０１室,,14,102,2210003,,,,,,,2025-11-17,1,,,,,ミズノキ,0
887,4021001086774,新規,0,2025-11-17,2025-11-17,株式会社加藤養鶏園,,株式会社,神奈川県,綾瀬市,吉岡１０１４番地,,14,218,2521124,,,,,,,2025-11-17,1,,,,,カトウヨウケイエン,0
888,4021001086782,新規,0,2025-11-17,2025-11-17,株式会社ＣＴ,,株式会社,神奈川県,大和市,つきみ野４丁目６番地つきみ野ビレジＣ－２－６０５,,14,213,2420002,,,,,,,2025-11-17,1,,,,,シーティー,0
891,4021003016705,新規,0,2025-11-17,2025-11-17,合同会社ＮＥＴＨＵ　ＮＩＰＰＯＮ　ＬＡＮＫＡ,,合同会社,神奈川県,厚木市,関口４８０番地１,,14,212,2430804,,,,,,,2025-11-17,1,,,,,ネトゥニッポンランカ,0
892,4021003016795,新規,0,2025-11-17,2025-11-17,合同会社アイエヌアシスト,,合同会社,神奈川県,小田原市,中里４１５番地アクティブ中里Ａ２０３号室,,14,206,2500872,,,,,,,2025-11-17,1,,,,,アイエヌアシスト,0
899,4030001169745,新規,0,2025-11-17,2025-11-17,株式会社ＣＲＯＳＳ　ＢＩＮＤ,,株式会社,埼玉県,久喜市,久喜東１丁目１１－２１ＺＥＲＯＩＣＨＩＷＯＲＫＳ２０９,,11,232,3460016,,,,,,,2025-11-17,1,,,,,クロスバインド,0
900,4030001169753,新規,0,2025-11-17,2025-11-17,株式会社Ｓｔｅｖｅ,,株式会社,埼玉県,さいたま市南区,太田窪４丁目１２－１４,,11,108,3360015,,,,,,,2025-11-17,1,,,,,スティーブ,0
907,4040001141414,新規,0,2025-11-17,2025-11-17,株式会社さくらメンテナンス,,株式会社,千葉県,千葉市美浜区,幸町２丁目１０番１棟２０７号,,12,106,2610001,,,,,,,2025-11-17,1,,,,,サクラメンテナンス,0
914,4050001057584,新規,0,2025-11-17,2025-11-17,株式会社ＧＮＪ,,株式会社,茨城県,水戸市,元吉田町３２８番地の２,,08,201,3100836,,,,,,,2025-11-17,1,,,,,ジーエヌジェー,0
915,4050001057592,新規,0,2025-11-17,2025-11-17,Ｅｓｃｏｎｄｉｔｅ株式会社,,株式会社,茨城県,石岡市,国府１丁目２番５号,,08,205,3150014,,,,,,,2025-11-17,1,,,,,エスコンディーテ,0
919,4050005013732,新規,0,2025-11-17,2025-11-17,一般社団法人Ａｒｒｏｗ　Ｓｔｅｐ,,その他の設立登記法人,茨城県,水戸市,渡里町３４２番地,,08,201,3100902,,,,,,,2025-11-17,1,,,,,アローステップ,0
925,4070001043566,新規,0,2025-11-17,2025-11-17,株式会社山口屋,,株式会社,群馬県,太田市,東長岡町１３５０番地１,,10,205,3730812,,,,,,,2025-11-17,1,,,,,ヤマグチヤ,0
930,4080001027279,新規,0,2025-11-17,2025-11-17,株式会社奏ホールディングス,,株式会社,静岡県,焼津市,小土９５０番地の７,,22,212,4250086,,,,,,,2025-11-17,1,,,,,カナデホールディングス,0
932,4080401028265,新規,0,2025-11-17,2025-11-17,カカオネシア株式会社,,株式会社,静岡県,浜松市中央区,板屋町１０２番地の１５,,22,138,4300928,,,,,,,2025-11-17,1,,,,,カカオネシア,0
933,4090001019606,新規,0,2025-11-17,2025-11-17,株式会社ジェイエステート,,株式会社,山梨県,甲府市,国玉町９６５番地３オオキタハイム３０１,,19,201,4000815,,,,,,,2025-11-17,1,,,,,ジェイエステート,0
936,4100003008464,新規,0,2025-11-17,2025-11-17,合同会社きじまヴィレッジ,,合同会社,長野県,下高井郡木島平村,大字上木島３２７８－２１２,,20,562,3892303,,,,,,,2025-11-17,1,,,,,キジマヴィレッジ,0
951,4120001281929,新規,0,2025-11-17,2025-11-17,株式会社７３,,株式会社,大阪府,大阪市北区,菅栄町１２番７－１１０１号,,27,127,5300031,,,,,,,2025-11-17,1,,,,,ナミ,0
952,4120001281945,新規,0,2025-11-17,2025-11-17,時創ＡＩ株式会社,,株式会社,大阪府,大阪市中央区,南久宝寺町４丁目４－７エムバランス御堂筋本町９Ｆ,,27,128,5410058,,,,,,,2025-11-17,1,,,,,ジソウエーアイ,0
953,4120001281953,新規,0,2025-11-17,2025-11-17,株式会社インフルエンサーアルファ,,株式会社,大阪府,大阪市北区,曾根崎新地１丁目１１番９号京屋ビル４Ｆ,,27,127,5300002,,,,,,,2025-11-17,1,,,,,インフルエンサーアルファ,0
954,4120001281994,新規,0,2025-11-17,2025-11-17,味匠堂株式会社,,株式会社,大阪府,大阪市中央区,久太郎町３丁目１－６－６Ｆ,,27,128,5410056,,,,,,,2025-11-17,1,,,,,ミショウドウ,0
955,4120001282027,新規,0,2025-11-17,2025-11-17,ナカジマコーポレーション株式会社,,株式会社,大阪府,大阪市港区,波除４丁目７番１号,,27,107,5520001,,,,,,,2025-11-17,1,,,,,ナカジマコーポレーション,0
957,4120003031217,新規,0,2025-11-17,2025-11-17,合同会社Ｓｈｉｎｙ　Ｄａｙｓ,,合同会社,大阪府,門真市,栄町４－７エンゼルハイツ１階Ｂ,,27,223,5710047,,,,,,,2025-11-17,1,,,,,シャイニーデイズ,0
960,4120005025258,新規,0,2025-11-17,2025-11-17,一般社団法人日本グリッドアイアン未来育成アカデミー,,その他の設立登記法人,大阪府,大阪市中央区,南船場１丁目５番１３－８０１号,,27,128,5420081,,,,,,,2025-11-17,1,,,,,ニホングリッドアイアンミライイクセイアカデミー,0
963,4120101072781,新規,0,2025-11-17,2025-11-17,株式会社ワンエイト,,株式会社,大阪府,和泉市,松尾寺町１８９７番地の１,,27,219,5941154,,,,,,,2025-11-17,1,,,,,ワンエイト,0
964,4120101072798,新規,0,2025-11-17,2025-11-17,株式会社Ｌｕａｎａ　Ｉｎｔｅｒｉｏｒ　Ｗｏｒｋ,,株式会社,大阪府,堺市西区,山田１丁１０９８番地８３,,27,144,5938316,,,,,,,2025-11-17,1,,,,,ルアナインテリアワーク,0
965,4120101072807,新規,0,2025-11-17,2025-11-17,株式会社ＵＮＯ,,株式会社,大阪府,河内長野市,小塩町４３１－５,,27,216,5860035,,,,,,,2025-11-17,1,,,,,ウノ,0
966,4120101072815,新規,0,2025-11-17,2025-11-17,株式会社ワンレイズ,,株式会社,大阪府,堺市堺区,熊野町東２丁１－１０ヨネザワビルＩＩ４０２,00141549,27,141,5900946,,,,,,,2025-11-17,1,,,,,ワンレイズ,0
967,4120103006853,新規,0,2025-11-17,2025-11-17,合同会社あっこ,,合同会社,大阪府,松原市,天美北５丁目１番１７号,,27,217,5800031,,,,,,,2025-11-17,1,,,,,アッコ,0
975,4122001039893,新規,0,2025-11-17,2025-11-17,株式会社Ｔｕｕ　Ａｓｓｅｔ　Ｍａｎａｇｅｍｅｎｔ,,株式会社,大阪府,東大阪市,横沼町３丁目３番７号,,27,227,5770808,,,,,,,2025-11-17,1,,,,,ツーアセットマネジメント,0
976,4122003003385,新規,0,2025-11-17,2025-11-17,ｉｒｏｄｏＬＡＢ合同会社,,合同会社,大阪府,東大阪市,神田町３－５アベニュー瓢箪山１０１号,,27,227,5798058,,,,,,,2025-11-17,1,,,,,イロドラボ,0
979,4130001081048,新規,0,2025-11-17,2025-11-17,株式会社ＡｉｄＬｉｎｘ,,株式会社,京都府,京都市下京区,中堂寺坊城町２８－７,,26,106,6008811,,,,,,,2025-11-17,1,,,,,エイドリンクス,0
982,4130003010938,新規,0,2025-11-17,2025-11-17,合同会社Ｂｒｉｄｇｅ,,合同会社,京都府,宇治市,小倉町山際１６番地の７,,26,204,6110042,,,,,,,2025-11-17,1,,,,,ブリッジ,0
987,4140001140744,新規,0,2025-11-17,2025-11-17,リグオーツ・キャップ株式会社,,株式会社,兵庫県,神戸市中央区,磯辺通１丁目１番１８号カサベラ国際プラザビル７０７号室,,28,110,6510084,,,,,,,2025-11-17,1,,,,,リグオーツキャップ,0
994,4150001028550,新規,0,2025-11-17,2025-11-17,株式会社ＮＩＫＫＥ,,株式会社,奈良県,北葛城郡広陵町,大字疋相４１５番地３,,29,426,6350824,,,,,,,2025-11-17,1,,,,,ニケ,0
1004,4190003005271,新規,0,2025-11-17,2025-11-17,合同会社ＣｏｄｅＳａｆｅ,,合同会社,三重県,松阪市,五月町１４１０番地４,,24,204,5150065,,,,,,,2025-11-17,1,,,,,コードセーフ,0
1007,4200003007150,新規,0,2025-11-17,2025-11-17,ＡＴｍｉｅ合同会社,,合同会社,岐阜県,関市,西福野町２丁目５番１号,,21,205,5013244,,,,,,,2025-11-17,1,,,,,アトミー,0
1011,4240001065758,新規,0,2025-11-17,2025-11-17,株式会社彩蔵ファーム,,株式会社,広島県,世羅郡世羅町,大字安田１９２８番地,,34,462,7221202,,,,,,,2025-11-17,1,,,,,アヤクラファーム,0
1014,4240003007485,新規,0,2025-11-17,2025-11-17,合同会社ＤＥＬＴＡ　ＯＦＦＩＣＥ,,合同会社,広島県,安芸郡府中町,桃山２丁目７番２６号,,34,302,7350026,,,,,,,2025-11-17,1,,,,,デルタオフィス,0
1018,4260001040734,新規,0,2025-11-17,2025-11-17,問屋町まちづくり株式会社,,株式会社,岡山県,岡山市北区,問屋町１５番地１０１,,33,101,7000977,,,,,,,2025-11-17,1,,,,,トイヤチョウマチヅクリ,0
1023,4290001111870,新規,0,2025-11-17,2025-11-17,株式会社ＲｏｙａｌＣｌｏａｋ,,株式会社,福岡県,福岡市東区,香椎駅前３丁目２７番１１０１号よろい坂ハイツ１,,40,131,8130013,,,,,,,2025-11-17,1,,,,,ロイヤルクローク,0
1024,4290001112142,新規,0,2025-11-17,2025-11-17,株式会社有田ワールド,,株式会社,福岡県,福岡市早良区,西新４丁目１番１－２９０２号ＢｒｉｌｌｉａＴｏｗｅｒ西新,,40,137,8140002,,,,,,,2025-11-17,1,,,,,アリタワールド,0
1025,4290001112191,新規,0,2025-11-17,2025-11-17,大濠うなぎブランドパートナーズ株式会社,,株式会社,福岡県,福岡市中央区,荒戸２丁目４番４５－４０４号,,40,133,8100062,,,,,,,2025-11-17,1,,,,,オオホリウナギブランドパートナーズ,0
1027,4290003017612,新規,0,2025-11-17,2025-11-17,ｈｏｔｏｒｉ合同会社,,合同会社,福岡県,糟屋郡粕屋町,花ヶ浦２丁目１４番２０号,,40,349,8112310,,,,,,,2025-11-17,1,,,,,ホトリ,0
1028,4290003017703,新規,0,2025-11-17,2025-11-17,ＮｅｘｔＦｒｅｅ合同会社,,合同会社,福岡県,福岡市東区,若宮１丁目２７－２８,,40,131,8130036,,,,,,,2025-11-17,1,,,,,ネクストフリー,0
1029,4290005019870,新規,0,2025-11-17,2025-11-17,一般社団法人ＲＥＡＣＨＯＵＴ,,その他の設立登記法人,福岡県,福岡市中央区,天神３丁目１６番１７号,,40,133,8100001,,,,,,,2025-11-17,1,,,,,リーチアウト,0
1032,4310003005127,新規,0,2025-11-17,2025-11-17,合同会社稲田アセットマネジメント,,合同会社,長崎県,雲仙市,吾妻町大木場名１１１番地１松浦アパート２０３号,,42,213,8591106,,,,,,,2025-11-17,1,,,,,イナダアセットマネジメント,0
1034,4320001021439,新規,0,2025-11-17,2025-11-17,高山林産株式会社,,株式会社,大分県,佐伯市,宇目大字小野市２４７１番地,,44,205,8793301,,,,,,,2025-11-17,1,,,,,タカヤマリンサン,0
1037,4340001027789,新規,0,2025-11-17,2025-11-17,株式会社前山商店,,株式会社,鹿児島県,枕崎市,恵比須町１９４番地,,46,204,8980009,,,,,,,2025-11-17,1,,,,,マエヤマショウテン,0
1044,4370001053238,新規,0,2025-11-17,2025-11-17,株式会社Ｒ’ａｇｅ,,株式会社,宮城県,仙台市青葉区,国分町２丁目９番１７号,,04,101,9800803,,,,,,,2025-11-17,1,,,,,アールエイジ,0
1055,4430001095694,新規,0,2025-11-17,2025-11-17,株式会社ＦＵＪＩＳＹＳ　ＣＬＥＡＮＩＮＧ,,株式会社,北海道,札幌市中央区,南十四条西１１丁目２－１７アパルトマン式部１０２,,01,101,0640914,,,,,,,2025-11-17,1,,,,,フジシスクリーニング,0
1057,4430003018323,新規,0,2025-11-17,2025-11-17,一條食品合同会社,,合同会社,北海道,日高郡新ひだか町,静内吉野町１丁目２番２０号,,01,610,0560018,,,,,,,2025-11-17,1,,,,,イチジョウショクヒン,0
1059,4450003002738,新規,0,2025-11-17,2025-11-17,ＧｒｏｗＡｂｌｅ合同会社,,合同会社,北海道,留萌市,野本町１６２番地,,01,212,0770025,,,,,,,2025-11-17,1,,,,,グロウアブル,0
1062,4470005006660,新規,0,2025-11-17,2025-11-17,労働者協同組合フリージアの会,,その他の設立登記法人,香川県,観音寺市,瀬戸町２丁目１４－６,,37,205,7680065,,,,,,,2025-11-17,1,,,,,フリージアノカイ,0
1067,4700150132956,新規,0,2025-11-17,2025-11-17,Ｃａｐｅｏｃｅａｎ　Ｆａｍｉｌｙ　Ｌｉｍｉｔｅｄ　Ｐａｒｔｎｅｒｓｈｉｐ,,外国会社等,,,,,,,,１８５６５　Ｅ．ＳＴＯＮＥＧＡＴＥ　ＬＡＮＥ　ＲＯＷＬＡＮＤ　ＨＥＩＧＨＴＳ　ＣＡ　９１７４８,,,,,,2025-11-17,1,,,,,カペオシアンフアミリーリミテツドパートナーシツプ,0
1080,5010001260414,新規,0,2025-11-17,2025-11-17,株式会社Ｌｅｓ　Ｂｌｅｕｓ,,株式会社,東京都,中央区,日本橋室町１丁目１１番１２号日本橋水野ビル７階,,13,102,1030022,,,,,,,2025-11-17,1,,,,,レブル,0
1082,5010003049351,新規,0,2025-11-17,2025-11-17,ＡＭＡＲＥＡ合同会社,,合同会社,東京都,中央区,銀座１丁目２８番１１号セントラル銀座１１０５,,13,102,1040061,,,,,,,2025-11-17,1,,,,,アマレア,0
1083,5010005040944,新規,0,2025-11-17,2025-11-17,一般社団法人環境行動デザインハブ,,その他の設立登記法人,東京都,千代田区,紀尾井町３番２９号,,13,101,1020094,,,,,,,2025-11-17,1,,,,,カンキョウコウドウデザインハブ,0
1088,5010401194336,新規,0,2025-11-17,2025-11-17,株式会社ｉｎｆｉｃｒｅ,,株式会社,東京都,港区,西新橋３丁目９番１号マウンテン虎ノ門４０２号室,,13,103,1050003,,,,,,,2025-11-17,1,,,,,インフィクリー,0
1092,5010405024910,新規,0,2025-11-17,2025-11-17,一般社団法人ＲＫミライ,,その他の設立登記法人,東京都,港区,新橋３丁目１－９・３０１ＳＨＩＭＢＡＳＨＩ・ＢＵＩＬＤＩＮＧ７Ｆ,,13,103,1050004,,,,,,,2025-11-17,1,,,,,アールケーミライ,0
1099,5010703008004,新規,0,2025-11-17,2025-11-17,合同会社メイドインヘブン,,合同会社,東京都,品川区,東五反田１丁目２５番１９号,,13,109,1410022,,,,,,,2025-11-17,1,,,,,メイドインヘブン,0
1103,5010901058453,新規,0,2025-11-17,2025-11-17,ピエロ株式会社,,株式会社,東京都,世田谷区,池尻３丁目２４番１８号ＳｗｅｅｔＰｅａＭｉｓｈｕｋｕ１０２号室,,13,112,1540001,,,,,,,2025-11-17,1,,,,,ピエロ,0
1104,5010901058461,新規,0,2025-11-17,2025-11-17,株式会社グレープケア,,株式会社,東京都,世田谷区,奥沢５丁目２６番４号ダイヤハイツ自由が丘,,13,112,1580083,,,,,,,2025-11-17,1,,,,,グレープケア,0
1105,5010901058478,新規,0,2025-11-17,2025-11-17,株式会社ＡＮＴＨＯＳ,,株式会社,東京都,世田谷区,三軒茶屋１丁目３５番２２－７０２号,,13,112,1540024,,,,,,,2025-11-17,1,,,,,アンソス,0
1110,5011001173507,新規,0,2025-11-17,2025-11-17,株式会社エッセンシャルリンク,,株式会社,東京都,目黒区,鷹番１丁目１－５フラットフォー本社ビル４Ｆ,,13,110,1520004,,,,,,,2025-11-17,1,,,,,エッセンシャルリンク,0
1111,5011001173580,新規,0,2025-11-17,2025-11-17,株式会社サイバーグリップ,,株式会社,東京都,渋谷区,渋谷２丁目２４番１２号,,13,113,1500002,,,,,,,2025-11-17,1,,,,,サイバーグリップ,0
1112,5011001173597,新規,0,2025-11-17,2025-11-17,株式会社アース・クリーンラボ,,株式会社,東京都,渋谷区,千駄ヶ谷３丁目２８番５－３０５号,,13,113,1510051,,,,,,,2025-11-17,1,,,,,アースクリーンラボ,0
1115,5011005011241,新規,0,2025-11-17,2025-11-17,医療法人社団ＥＲＩＳＴ,,その他の設立登記法人,東京都,渋谷区,恵比寿西２丁目２番８号寿豊ビル４Ｆ,,13,113,1500021,,,,,,,2025-11-17,1,,,,,エリスト,0
1123,5011103016506,新規,0,2025-11-17,2025-11-17,ＦａｉｒｙＴａｉｌ合同会社,,合同会社,東京都,新宿区,西新宿３丁目３番１３号西新宿水間ビル６階,,13,104,1600023,,,,,,,2025-11-17,1,,,,,フェアリーテイル,0
1124,5011103016704,新規,0,2025-11-17,2025-11-17,合同会社Ｈａｉｌ　Ｍａｒｙ,,合同会社,東京都,新宿区,歌舞伎町２丁目３２－７－３１５,,13,104,1600021,,,,,,,2025-11-17,1,,,,,ヘイルメリー,0
1127,5011301030928,新規,0,2025-11-17,2025-11-17,株式会社Ａｒｔｓ,,株式会社,東京都,杉並区,阿佐谷南１丁目３５―２３第一横川ビルＢ１階,,13,115,1660004,,,,,,,2025-11-17,1,,,,,アーツ,0
1128,5011301031042,新規,0,2025-11-17,2025-11-17,中小企業資産戦略株式会社,,株式会社,東京都,杉並区,成田西１丁目１６番３号,,13,115,1660016,,,,,,,2025-11-17,1,,,,,チュウショウキギョウシサンセンリャク,0
1130,5011305003079,新規,0,2025-11-17,2025-11-17,特定非営利活動法人マザーズハート,,その他の設立登記法人,東京都,杉並区,高井戸東１丁目１番１３号,,13,115,1680072,,,,,,,2025-11-17,1,,,,,マザーズハート,0
1137,5011803007184,新規,0,2025-11-17,2025-11-17,合同会社おち実業,,合同会社,東京都,葛飾区,水元２丁目２１番１９号アネックスセンターフィールドＢ１０２,,13,122,1250032,,,,,,,2025-11-17,1,,,,,オチジツギョウ,0
1139,5012303002246,新規,0,2025-11-17,2025-11-17,合同会社宗方フードサービス,,合同会社,東京都,町田市,つくし野１丁目２４番地７５,,13,209,1940001,,,,,,,2025-11-17,1,,,,,ムネカタフードサービス,0
1142,5013301055319,新規,0,2025-11-17,2025-11-17,ＸＭメディカルサービス株式会社,,株式会社,東京都,豊島区,高田３丁目８番５号セントラル・ワセダ３０１Ｂ,,13,116,1710033,,,,,,,2025-11-17,1,,,,,エックスエムメディカルサービス,0
1145,5013303007961,新規,0,2025-11-17,2025-11-17,Ｙ＆Ｙｃｒｅａｔｅ合同会社,,合同会社,東京都,豊島区,東池袋２丁目６２番８号ＢＩＧオフィスプラザ池袋１２０６,,13,116,1700013,,,,,,,2025-11-17,1,,,,,ワイアンドワイクリエイト,0
1152,5020001165703,新規,0,2025-11-17,2025-11-17,株式会社Ａ’ｓ,,株式会社,神奈川県,横浜市都筑区,北山田２丁目３番３号,,14,118,2240021,,,,,,,2025-11-17,1,,,,,アズ,0
1153,5020001165819,新規,0,2025-11-17,2025-11-17,株式会社ＡＧＳ,,株式会社,神奈川県,横浜市鶴見区,栄町通４丁目４４－９－２０２,,14,101,2300038,,,,,,,2025-11-17,1,,,,,エージーエス,0
1154,5020001165827,新規,0,2025-11-17,2025-11-17,株式会社クロスアロー,,株式会社,神奈川県,横浜市鶴見区,矢向４丁目２９番１２号エクセルプラザ２０８,,14,101,2300001,,,,,,,2025-11-17,1,,,,,クロスアロー,0
1159,5021001086765,新規,0,2025-11-17,2025-11-17,株式会社Ｋ＆Ｈ,,株式会社,神奈川県,座間市,明王８－２１,,14,216,2520022,,,,,,,2025-11-17,1,,,,,ケーアンドエイチ,0
1160,5021001086773,新規,0,2025-11-17,2025-11-17,株式会社ヒラカワ興業,,株式会社,神奈川県,相模原市緑区,三ケ木１０１８番地５,,14,151,2520159,,,,,,,2025-11-17,1,,,,,ヒラカワコウギョウ,0
1161,5021001086781,新規,0,2025-11-17,2025-11-17,株式会社北商,,株式会社,神奈川県,海老名市,大谷北２丁目２番６８－１０３号,,14,215,2430419,,,,,,,2025-11-17,1,,,,,ホクショウ,0
1171,5040001141322,新規,0,2025-11-17,2025-11-17,株式会社ＨＵＢ,,株式会社,千葉県,旭市,新町７２６番地１４,,12,215,2892501,,,,,,,2025-11-17,1,,,,,エイチユービー,0
1172,5040001141330,新規,0,2025-11-17,2025-11-17,株式会社訪問介護みゆき,,株式会社,千葉県,長生郡白子町,剃金２７２９番地６ダイアパレス白子第２・８０２号,,12,424,2994203,,,,,,,2025-11-17,1,,,,,ホウモンカイゴミユキ,0
1173,5040003028939,新規,0,2025-11-17,2025-11-17,合同会社Ｒｅｌｉｅ,,合同会社,千葉県,船橋市,習志野台５丁目２３番２３号,,12,204,2740063,,,,,,,2025-11-17,1,,,,,ルリエ,0
1179,5050005013731,新規,0,2025-11-17,2025-11-17,特定非営利活動法人ＨＡＰＰＹＨＯＵＳＥ,,その他の設立登記法人,茨城県,東茨城郡茨城町,大字前田１７０７番地１１３,,08,302,3113115,,,,,,,2025-11-17,1,,,,,ハッピーハウス,0
1181,5060001038772,新規,0,2025-11-17,2025-11-17,株式会社ＫＯＴＯＮＯＨＡ,,株式会社,栃木県,小山市,大字鉢形４４１番地４,,09,208,3230801,,,,,,,2025-11-17,1,,,,,コトノハ,0
1182,5070001043565,新規,0,2025-11-17,2025-11-17,株式会社かける,,株式会社,群馬県,前橋市,駒形町１０７６番地１０,,10,201,3792122,,,,,,,2025-11-17,1,,,,,,0
1188,5100005013420,新規,0,2025-11-17,2025-11-17,一般社団法人あさひ会,,その他の設立登記法人,長野県,東筑摩郡朝日村,大字古見１３３７番地１,,20,451,3901104,,,,,,,2025-11-17,1,,,,,アサヒカイ,0
1191,5110005017288,新規,0,2025-11-17,2025-11-17,医療法人社団木村歯科医院,,その他の設立登記法人,新潟県,小千谷市,城内１丁目４番１８号,,15,208,9470028,,,,,,,2025-11-17,1,,,,,キムラシカイイン,0
1202,5120001281845,新規,0,2025-11-17,2025-11-17,ＳＯＬＡＲＩＳ株式会社,,株式会社,大阪府,大阪市淀川区,西中島３丁目１－４プロジェクトビル４Ｆ,,27,123,5320011,,,,,,,2025-11-17,1,,,,,ソラリス,0
1203,5120001281928,新規,0,2025-11-17,2025-11-17,株式会社認定申請ＰＬＡＮ,,株式会社,大阪府,大阪市中央区,内平野町１丁目３番１２号ａｊディナスティ大手前ビル５階,,27,128,5400037,,,,,,,2025-11-17,1,,,,,ニンテイシンセイプラン,0
1204,5120001281969,新規,0,2025-11-17,2025-11-17,株式会社角田出版,,株式会社,大阪府,枚方市,楠葉美咲２丁目７番１２号,,27,210,5731112,,,,,,,2025-11-17,1,,,,,カドタシュッパン,0
1205,5120001281977,新規,0,2025-11-17,2025-11-17,株式会社アルノヴァ,,株式会社,大阪府,大阪市住之江区,南港中３丁目９番２６－１２０６号,,27,125,5590033,,,,,,,2025-11-17,1,,,,,アルノヴァ,0
1210,5120005025257,新規,0,2025-11-17,2025-11-17,一般社団法人日本フェムライフ統合ケア協会,,その他の設立登記法人,大阪府,大阪市都島区,都島本通２丁目１４番９号ファーブルマルオカ,,27,102,5340021,,,,,,,2025-11-17,1,,,,,ニホンフェムライフトウゴウケアキョウカイ,0
1217,5130001081047,新規,0,2025-11-17,2025-11-17,株式会社ＭｅｄＳｉｄｅ,,株式会社,京都府,城陽市,寺田深谷６４番地の２０９,,26,207,6100121,,,,,,,2025-11-17,1,,,,,メドサイド,0
1219,5130005017518,新規,0,2025-11-17,2025-11-17,特定非営利活動法人未来へ繋ぐこどもロボット・ＡＩ教室,,その他の設立登記法人,京都府,京都市中京区,麩屋町通六角下る坂井町４５２番地ハイマート麸屋町２０２,,26,104,6048065,,,,,,,2025-11-17,1,,,,,ミライヘツナグコドモロボットエーアイキョウシツ,0
1225,5140001140743,新規,0,2025-11-17,2025-11-17,株式会社ウィズライフ,,株式会社,兵庫県,姫路市,勝原区下太田９番地３,,28,201,6711201,,,,,,,2025-11-17,1,,,,,ウィズライフ,0
1238,5180003029353,新規,0,2025-11-17,2025-11-17,ＳＵＬＥＣＯ　ＪＡＰＡＮ合同会社,,合同会社,愛知県,名古屋市中村区,名駅３丁目２０番２０号名駅錦ビル６階,,23,105,4500002,,,,,,,2025-11-17,1,,,,,スレコジャパン,0
1239,5180003029361,新規,0,2025-11-17,2025-11-17,合同会社シフォン,,合同会社,愛知県,名古屋市北区,三軒町３４番地の１,,23,103,4620004,,,,,,,2025-11-17,1,,,,,シフォン,0
1240,5180005021309,新規,0,2025-11-17,2025-11-17,医療法人ＭＩＣＨＥＬ,,その他の設立登記法人,愛知県,名古屋市瑞穂区,妙音通４丁目２１番地,,23,108,4670842,,,,,,,2025-11-17,1,,,,,ミシェル,0
1249,5180303006812,新規,0,2025-11-17,2025-11-17,合同会社ＣｌｏｕｄＮｉｎｅ,,合同会社,愛知県,豊橋市,浪ノ上町３番地１,,23,201,4400003,,,,,,,2025-11-17,1,,,,,クラウドナイン,0
1254,5210001020392,新規,0,2025-11-17,2025-11-17,株式会社ＧＵＮＯ,,株式会社,福井県,南条郡南越前町,東大道第３３号１３番地の９,,18,404,9190223,,,,,,,2025-11-17,1,,,,,グーノ,0
1257,5220001027024,新規,0,2025-11-17,2025-11-17,株式会社ＴＣＬ,,株式会社,石川県,白山市,木津町２５６番地７,,17,210,9240821,,,,,,,2025-11-17,1,,,,,ティーシーエル,0
1263,5250001021429,新規,0,2025-11-17,2025-11-17,岡部通信建設株式会社,,株式会社,山口県,防府市,大字新田１７１５番地の７,,35,206,7470825,,,,,,,2025-11-17,1,,,,,オカベツウシンケンセツ,0
1275,5290003017677,新規,0,2025-11-17,2025-11-17,合同会社リーフ,,合同会社,福岡県,三井郡大刀洗町,大字高樋２４５４番地１スカイラーク菊池２０３,00141550,40,503,8301221,,,,,,,2025-11-17,1,,,,,リーフ,0
1276,5290003017693,新規,0,2025-11-17,2025-11-17,合同会社鍛醸,,合同会社,福岡県,久留米市,螢川町７－１エムズコート１０２,,40,203,8300015,,,,,,,2025-11-17,1,,,,,タンジョウ,0
1284,5340001027788,新規,0,2025-11-17,2025-11-17,ＷＩＴＨＤＯＭ　ＷＯＯＤ株式会社,,株式会社,鹿児島県,鹿児島市,東開町３番地２０３,,46,201,8910115,,,,,,,2025-11-17,1,,,,,ウイズダムウッド,0
1287,5360001036036,新規,0,2025-11-17,2025-11-17,株式会社Ｓｔａｒ　ｂｕｌｌ,,株式会社,沖縄県,宜野湾市,大山２丁目１６番２０号,,47,205,9012223,,,,,,,2025-11-17,1,,,,,スターブル,0
1288,5360001036044,新規,0,2025-11-17,2025-11-17,ゆいまーるクリエイト株式会社,,株式会社,沖縄県,糸満市,字糸満２２７０番地Ｕｍｉｋａｊｉ２０１,,47,210,9010361,,,,,,,2025-11-17,1,,,,,ユイマールクリエイト,0
1297,5380001035705,新規,0,2025-11-17,2025-11-17,株式会社うないて,,株式会社,福島県,会津若松市,湊町大字赤井字笹山原３８６番地,,07,202,9650201,,,,,,,2025-11-17,1,,,,,ウナイテ,0
1306,5430001095685,新規,0,2025-11-17,2025-11-17,株式会社Ｍｐｒｏ,,株式会社,北海道,札幌市西区,発寒十一条４丁目１５番１２号,,01,107,0630831,,,,,,,2025-11-17,1,,,,,エムプロ,0
1312,5490003002064,新規,0,2025-11-17,2025-11-17,合同会社一,,合同会社,高知県,高知市,東雲町７番１３－１７号コーポいまい２０１号室,,39,201,7810805,,,,,,,2025-11-17,1,,,,,,0
1316,5500001026633,新規,0,2025-11-17,2025-11-17,株式会社Ｃｏｏｍｙ　Ｌａｂ,,株式会社,愛媛県,松山市,竹原４丁目１０番１５号愛媛マンション６０６号,,38,201,7900053,,,,,,,2025-11-17,1,,,,,キューミーラボ,0
1325,6010001260248,新規,0,2025-11-17,2025-11-17,株式会社Ａｒｃｔｉｅｒ,,株式会社,東京都,千代田区,神田神保町３丁目１１番６号神保町ビル１０階,,13,101,1010051,,,,,,,2025-11-17,1,,,,,アークティア,0
1326,6010001260272,新規,0,2025-11-17,2025-11-17,株式会社ダイチ,,株式会社,東京都,中央区,築地６丁目１９番地２１号ニチレイ東銀座レジデンス,,13,102,1040045,,,,,,,2025-11-17,1,,,,,ダイチ,0
1327,6010001260289,新規,0,2025-11-17,2025-11-17,株式会社メディフィード,,株式会社,東京都,中央区,日本橋横山町１番４号４０１号,,13,102,1030003,,,,,,,2025-11-17,1,,,,,メディフィード,0
1328,6010001260371,新規,0,2025-11-17,2025-11-17,株式会社ロードスタージャパン,,株式会社,東京都,千代田区,神田小川町３丁目８番中北ビル４階,,13,101,1010052,,,,,,,2025-11-17,1,,,,,ロードスタージャパン,0
1331,6010005040943,新規,0,2025-11-17,2025-11-17,Ｓｐｒｉｎｔ　Ａｓｓｅｔ２一般社団法人２,,その他の設立登記法人,東京都,千代田区,霞が関３丁目２番５号,,13,101,1000013,,,,,,,2025-11-17,1,,,,,スプリントアセットツーツー,0
1342,6010401194442,新規,0,2025-11-17,2025-11-17,エムキャピタル株式会社,,株式会社,東京都,港区,南青山３丁目３－３リビエラ南青山ビルＡ館４Ｆ,,13,103,1070062,,,,,,,2025-11-17,1,,,,,エムキャピタル,0
1343,6010401194467,新規,0,2025-11-17,2025-11-17,株式会社ＤｕａｌＥｄｇｅ,,株式会社,東京都,港区,芝浦２丁目６番１１－７０８号,,13,103,1080023,,,,,,,2025-11-17,1,,,,,デュアルエッジ,0
1344,6010401194509,新規,0,2025-11-17,2025-11-17,株式会社８ｎｏｄｅ,,株式会社,東京都,港区,南青山３丁目１番３６号青山丸竹ビル６Ｆ,,13,103,1070062,,,,,,,2025-11-17,1,,,,,エイトノード,0
1355,6010801036789,新規,0,2025-11-17,2025-11-17,株式会社しろ商会,,株式会社,東京都,大田区,新蒲田２丁目１７番２号,,13,111,1440054,,,,,,,2025-11-17,1,,,,,シロショウカイ,0
1358,6010901058452,新規,0,2025-11-17,2025-11-17,株式会社おもち,,株式会社,東京都,世田谷区,北沢２丁目３０番１４号重宗ビル３Ｆ,,13,112,1550031,,,,,,,2025-11-17,1,,,,,オモチ,0
1359,6010901058460,新規,0,2025-11-17,2025-11-17,ルミエールＰＦ株式会社,,株式会社,東京都,世田谷区,太子堂４丁目１８番１５号マガザン三軒茶屋２・３Ｆ－３,,13,112,1540004,,,,,,,2025-11-17,1,,,,,ルミエールピーエフ,0
1360,6010901058477,新規,0,2025-11-17,2025-11-17,ＵＮＩＣＯイベント共創株式会社,,株式会社,東京都,世田谷区,鎌田４丁目２番４号,,13,112,1570077,,,,,,,2025-11-17,1,,,,,ウニコイベントキョウソウ,0
1365,6011001173506,新規,0,2025-11-17,2025-11-17,株式会社ｃｏｌｚａｕｒａ,,株式会社,東京都,渋谷区,神宮前６丁目２３番４号桑野ビル２階,,13,113,1500001,,,,,,,2025-11-17,1,,,,,コルザアウラ,0
1366,6011003022917,新規,0,2025-11-17,2025-11-17,合同会社ＧｏＧｏＧｌｉｄｅｒ,,合同会社,東京都,渋谷区,東４丁目８－１メゾンドハラ４０Ｃ,,13,113,1500011,,,,,,,2025-11-17,1,,,,,ゴーゴーグライダー,0
1372,6011101113873,新規,0,2025-11-17,2025-11-17,ＥｃｌａＮｃｅ株式会社,,株式会社,東京都,新宿区,新宿１丁目９番１１号安藤ビル３階,,13,104,1600022,,,,,,,2025-11-17,1,,,,,イクランス,0
1380,6011501032814,新規,0,2025-11-17,2025-11-17,株式会社ＣＥＤＲＥ,,株式会社,東京都,北区,東十条３丁目１３番２０－１０１号コーポ杉,,13,117,1140001,,,,,,,2025-11-17,1,,,,,セードル,0
1381,6011503006782,新規,0,2025-11-17,2025-11-17,合同会社ロード,,合同会社,東京都,北区,岩淵町３７番５－２０１号アーンジュ赤羽岩淵,,13,117,1150041,,,,,,,2025-11-17,1,,,,,ロード,0
1388,6012401043819,新規,0,2025-11-17,2025-11-17,株式会社プライムアセットマネジメント,,株式会社,東京都,三鷹市,井の頭５丁目７番２８号－１,,13,204,1810001,,,,,,,2025-11-17,1,,,,,プライムアセットマネジメント,0
1402,6020001165792,新規,0,2025-11-17,2025-11-17,株式会社Ｄｒｏｐｌｅｔ,,株式会社,神奈川県,横浜市西区,浅間町１丁目４番３号ウィザードビル４０２,,14,103,2200072,,,,,,,2025-11-17,1,,,,,ドロップレット,0
1403,6020001165818,新規,0,2025-11-17,2025-11-17,株式会社ＶＩＳＴＡ,,株式会社,神奈川県,横浜市青葉区,田奈町１２番地５６,,14,117,2270064,,,,,,,2025-11-17,1,,,,,ビスタ,0
1404,6020001165850,新規,0,2025-11-17,2025-11-17,株式会社インフォテックＫＡＮＡＵ,,株式会社,神奈川県,川崎市川崎区,港町５番３－５２９号,,14,131,2100807,,,,,,,2025-11-17,1,,,,,,0
1406,6021001086764,新規,0,2025-11-17,2025-11-17,株式会社カナトラ,,株式会社,神奈川県,横須賀市,長井５丁目６番２号,,14,201,2380316,,,,,,,2025-11-17,1,,,,,カナトラ,0
1407,6021001086780,新規,0,2025-11-17,2025-11-17,２７ユナイテッド株式会社,,株式会社,神奈川県,秦野市,幸町４番２５号ＩＹＭオフィス１０１,,14,211,2570048,,,,,,,2025-11-17,1,,,,,トゥエンティセブンユナイテッド,0
1408,6021003016777,新規,0,2025-11-17,2025-11-17,合同会社ＭｏｍｍｙＳｍｉｌｅ,,合同会社,神奈川県,座間市,座間２丁目２８２番地の４,,14,216,2520027,,,,,,,2025-11-17,1,,,,,マミースマイル,0
1409,6021003016793,新規,0,2025-11-17,2025-11-17,合同会社Ｅｎｅｒｇｙ　ｍｅｅｔｓ　Ｍｏｂｉｌｉｔｙ,,合同会社,神奈川県,鎌倉市,御成町１１－２ヤノヤビル２Ｆ,,14,204,2480012,,,,,,,2025-11-17,1,,,,,,0
1418,6030001169751,新規,0,2025-11-17,2025-11-17,株式会社山優,,株式会社,埼玉県,さいたま市南区,内谷３丁目１０番１１号２０１号室,,11,108,3360034,,,,,,,2025-11-17,1,,,,,ヤマユウ,0
1427,6040001141346,新規,0,2025-11-17,2025-11-17,株式会社リエル,,株式会社,千葉県,船橋市,高根台１丁目８番１号,,12,204,2740065,,,,,,,2025-11-17,1,,,,,リエル,0
1432,6040003028970,新規,0,2025-11-17,2025-11-17,グロース・ウイズ合同会社,,合同会社,千葉県,船橋市,東中山２丁目１３番地３０フェアテラス下総中山８０９室,,12,204,2730036,,,,,,,2025-11-17,1,,,,,グロースウイズ,0
1437,6050001057590,新規,0,2025-11-17,2025-11-17,株式会社Ｒａｄｉａｎｔ,,株式会社,茨城県,つくば市,谷田部１２２３番地１,,08,220,3050861,,,,,,,2025-11-17,1,,,,,ラディアント,0
1439,6080001027277,新規,0,2025-11-17,2025-11-17,深澤工業株式会社,,株式会社,静岡県,焼津市,石脇下１９６番地,,22,212,4250016,,,,,,,2025-11-17,1,,,,,フカザワコウギョウ,0
1443,6110001039723,新規,0,2025-11-17,2025-11-17,株式会社凪,,株式会社,新潟県,新潟市中央区,関屋田町１丁目２３番地,,15,103,9518136,,,,,,,2025-11-17,1,,,,,ナギ,0
1444,6110001039731,新規,0,2025-11-17,2025-11-17,株式会社プロッセルテクノロジーズ,,株式会社,新潟県,新潟市中央区,笹口１丁目２番,,15,103,9500911,,,,,,,2025-11-17,1,,,,,プロッセルテクノロジーズ,0
1457,6120001281951,新規,0,2025-11-17,2025-11-17,優和商事株式会社,,株式会社,大阪府,大阪市東成区,大今里南３丁目１０番４号,,27,115,5370013,,,,,,,2025-11-17,1,,,,,ユウワショウジ,0
1458,6120001282009,新規,0,2025-11-17,2025-11-17,株式会社ＨＲＣ,,株式会社,大阪府,大阪市中央区,糸屋町１丁目２番１１－１７０１号,,27,128,5400022,,,,,,,2025-11-17,1,,,,,エイチアールシー,0
1459,6120001282017,新規,0,2025-11-17,2025-11-17,和診メディカルマネジメント株式会社,,株式会社,大阪府,大阪市福島区,福島２丁目４番６－８０５号,,27,103,5530003,,,,,,,2025-11-17,1,,,,,ワシンメディカルマネジメント,0
1460,6120001282025,新規,0,2025-11-17,2025-11-17,株式会社ＤｉＰｉｌｏｔ,,株式会社,大阪府,大阪市北区,梅田１丁目２番２号大阪駅前第２ビル１２－１２,,27,127,5300001,,,,,,,2025-11-17,1,,,,,ディパイロット,0
1461,6120001282041,新規,0,2025-11-17,2025-11-17,株式会社絃水,,株式会社,大阪府,交野市,幾野２丁目６番４号,,27,230,5760054,,,,,,,2025-11-17,1,,,,,ゲンスイ,0
1462,6120001282099,新規,0,2025-11-17,2025-11-17,タナベ興産株式会社,,株式会社,大阪府,大阪市淀川区,三津屋南２丁目１３番２８号,,27,123,5320035,,,,,,,2025-11-17,1,,,,,タナベコウサン,0
1471,6120003031248,新規,0,2025-11-17,2025-11-17,インステンロンドン合同会社,,合同会社,大阪府,大阪市中央区,道修町４丁目１番１号,,27,128,5410045,,,,,,,2025-11-17,1,,,,,インステンロンドン,0
1473,6120101072763,新規,0,2025-11-17,2025-11-17,株式会社ＭＵＺＩＫＯ　ＡＵＴＯ,,株式会社,大阪府,堺市西区,浜寺石津町東２丁２番３２号,,27,144,5928335,,,,,,,2025-11-17,1,,,,,ムジコオート,0
1479,6122003003391,新規,0,2025-11-17,2025-11-17,合同会社ＳＴ,,合同会社,大阪府,柏原市,本郷４丁目２番６号ハイツフローラ２０１号,,27,221,5820001,,,,,,,2025-11-17,1,,,,,エスティー,0
1483,6130001081046,新規,0,2025-11-17,2025-11-17,株式会社ＲＥＣ,,株式会社,京都府,福知山市,前田新町３４８－２,,26,201,6200866,,,,,,,2025-11-17,1,,,,,レック,0
1486,6130003010928,新規,0,2025-11-17,2025-11-17,モノノケサーカス合同会社,,合同会社,京都府,京都市北区,大将軍坂田町１番地２,,26,101,6038335,,,,,,,2025-11-17,1,,,,,モノノケサーカス,0
1493,6140001140767,新規,0,2025-11-17,2025-11-17,青空株式会社,,株式会社,兵庫県,宝塚市,山本野里１丁目２番１２号,,28,214,6650814,,,,,,,2025-11-17,1,,,,,アオゾラ,0
1494,6140001140775,新規,0,2025-11-17,2025-11-17,株式会社ＰＩＮＥ‐ＴＥＣ,,株式会社,兵庫県,神戸市北区,小倉台７丁目１４番地の１９,,28,109,6511211,,,,,,,2025-11-17,1,,,,,パインテック,0
1499,6140003022831,新規,0,2025-11-17,2025-11-17,みろく合同会社,,合同会社,兵庫県,姫路市,飾磨区城南町３丁目１２番地３,,28,201,6728083,,,,,,,2025-11-17,1,,,,,ミロク,0
1507,6180001169522,新規,0,2025-11-17,2025-11-17,株式会社ｙｕｍｅｋａｎａ,,株式会社,愛知県,名古屋市中村区,名駅４丁目２４番５号第２森ビル４０１,,23,105,4500002,,,,,,,2025-11-17,1,,,,,ユメカナ,0
1508,6180001169547,新規,0,2025-11-17,2025-11-17,株式会社ＢｅｌｌＴｒｅａ,,株式会社,愛知県,名古屋市瑞穂区,桃園町３番１０号,,23,108,4670855,,,,,,,2025-11-17,1,,,,,ベルトレア,0
1515,6180003029369,新規,0,2025-11-17,2025-11-17,合同会社名高屋,,合同会社,愛知県,名古屋市中村区,名駅３丁目４－１０アルティメイト名駅１ｓｔ２階,,23,105,4500002,,,,,,,2025-11-17,1,,,,,ナタカヤ,0
1518,6180301040432,新規,0,2025-11-17,2025-11-17,株式会社Ｌｅｍｕｒｉａ,,株式会社,愛知県,岡崎市,矢作町字末広１１１番地４８,,23,202,4440943,,,,,,,2025-11-17,1,,,,,レムリア,0
1519,6190001032704,新規,0,2025-11-17,2025-11-17,株式会社ＣＴＥ,,株式会社,三重県,鈴鹿市,南江島町１２番８号‐３０２号,,24,207,5100235,,,,,,,2025-11-17,1,,,,,シーティーイー,0
1524,6240003007483,新規,0,2025-11-17,2025-11-17,合同会社寄り添いリンク,,合同会社,広島県,広島市安佐南区,西原４丁目３３－４１第二森下ビル７０３,,34,105,7310113,,,,,,,2025-11-17,1,,,,,ヨリソイリンク,0
1529,6270001009330,新規,0,2025-11-17,2025-11-17,株式会社テトテ,,株式会社,鳥取県,鳥取市,吉成９５番地６７,,31,201,6800864,,,,,,,2025-11-17,1,,,,,,0
1536,6290001112149,新規,0,2025-11-17,2025-11-17,株式会社Ｅｎｕｔｒｏｆ,,株式会社,福岡県,福岡市早良区,四箇１丁目１６番２号,,40,137,8111103,,,,,,,2025-11-17,1,,,,,エヌトロフ,0
1537,6290001112165,新規,0,2025-11-17,2025-11-17,ＹＯＡＳＯＢＩクリエイト株式会社,,株式会社,福岡県,福岡市中央区,小笹１丁目１２番１４号,,40,133,8100033,,,,,,,2025-11-17,1,,,,,ヨアソビクリエイト,0
1538,6290001112181,新規,0,2025-11-17,2025-11-17,株式会社Ｌｉｌｔｓ,,株式会社,福岡県,久留米市,田主丸町志塚島字高縄手９４８番地１,,40,203,8391222,,,,,,,2025-11-17,1,,,,,リルツ,0
1542,6320001021445,新規,0,2025-11-17,2025-11-17,ＩＺＯＲＩＷＯＲＫＳ株式会社,,株式会社,大分県,大分市,日吉町１１番２３号,,44,201,8700918,,,,,,,2025-11-17,1,,,,,イゾリワークス,0
1548,6340001027779,新規,0,2025-11-17,2025-11-17,ＪＰＡＭ株式会社,,株式会社,鹿児島県,鹿児島市,宇宿５丁目５番６－２０８号,,46,201,8900073,,,,,,,2025-11-17,1,,,,,ジェイパム,0
1549,6350001019809,新規,0,2025-11-17,2025-11-17,スギタ設備修理株式会社,,株式会社,宮崎県,児湯郡高鍋町,大字北高鍋８９４番地２,,45,401,8840002,,,,,,,2025-11-17,1,,,,,スギタセツビシュウリ,0
1559,6370003007371,新規,0,2025-11-17,2025-11-17,合同会社喜元,,合同会社,宮城県,仙台市青葉区,中央２丁目１１－１９仙南ビル４階－Ａ,,04,101,9800021,,,,,,,2025-11-17,1,,,,,キゲン,0
1563,6380003006182,新規,0,2025-11-17,2025-11-17,Ｔｅｓｌａ　Ｌａｂ合同会社,,合同会社,福島県,いわき市,草木台３丁目４番地の６,,07,204,9728301,,,,,,,2025-11-17,1,,,,,テスララボ,0
1567,6390001018154,新規,0,2025-11-17,2025-11-17,株式会社パレッジ,,株式会社,山形県,鶴岡市,苗津町４番２７号,,06,203,9970809,,,,,,,2025-11-17,1,,,,,パレッジ,0
1574,6450001014790,新規,0,2025-11-17,2025-11-17,株式会社Ｋｓサポート,,株式会社,北海道,旭川市,豊岡四条８丁目１番８号,,01,204,0788234,,,,,,,2025-11-17,1,,,,,ケーズサポート,0
1575,6460103001760,新規,0,2025-11-17,2025-11-17,合同会社ミラアーク,,合同会社,北海道,河西郡芽室町,西一条２丁目１７番地１,,01,637,0820031,,,,,,,2025-11-17,1,,,,,ミラアーク,0
1576,6460303000892,新規,0,2025-11-17,2025-11-17,合同会社ライフアシスト,,合同会社,北海道,北見市,三楽町１０番地,,01,208,0900019,,,,,,,2025-11-17,1,,,,,ライフアシスト,0
1578,6500001026632,新規,0,2025-11-17,2025-11-17,株式会社森森,,株式会社,愛媛県,松山市,味酒町１丁目２番地３朝日プラザステーションコア松山７０５号,,38,201,7900814,,,,,,,2025-11-17,1,,,,,モリモリ,0
1586,7010003049416,新規,0,2025-11-17,2025-11-17,Ｄｉｓｔｒｉｂｕｔｉｏｎ　ＴＲ　Ｆｒｕｉｔｓ合同会社,,合同会社,東京都,中央区,銀座６丁目１３番１６号銀座ＷａｌｌビルＵＣＦ５０１,,13,102,1040061,,,,,,,2025-11-17,1,,,,,ディストリビューションティーアールフルーツ,0
1587,7010003049432,新規,0,2025-11-17,2025-11-17,合同会社ＧｌｏｓｓＴｒｅｅ,,合同会社,東京都,千代田区,神田和泉町１番地６－１６ヤマトビル４０５,,13,101,1010024,,,,,,,2025-11-17,1,,,,,グロスツリー,0
1588,7010005040950,新規,0,2025-11-17,2025-11-17,星野リゾート箱根強羅開発特定目的会社,,その他の設立登記法人,東京都,中央区,日本橋１丁目４番１号日本橋一丁目ビルディング,,13,102,1030027,,,,,,,2025-11-17,1,,,,,ホシノリゾートハコネゴウラカイハツ,0
1589,7010103002695,新規,0,2025-11-17,2025-11-17,Ｚｅｎｔｒｙ合同会社,,合同会社,東京都,八王子市,東浅川町８９番地２－２０２,,13,201,1930834,,,,,,,2025-11-17,1,,,,,ゼントリー,0
1596,7010401194516,新規,0,2025-11-17,2025-11-17,株式会社うなを,,株式会社,東京都,港区,赤坂７丁目１０番９号赤坂伊藤ビル２階,,13,103,1070052,,,,,,,2025-11-17,1,,,,,ウナヲ,0
1600,7010403036575,新規,0,2025-11-17,2025-11-17,Ｓｃｅｙｅ合同会社,,合同会社,東京都,港区,元麻布３丁目１番６号,,13,103,1060046,,,,,,,2025-11-17,1,,,,,スカイ,0
1602,7010405024925,新規,0,2025-11-17,2025-11-17,行政書士法人ＳＩＮＣＥＲＩＴＹ,,その他の設立登記法人,東京都,港区,新橋５丁目６番４号トゥシェ新橋７階,,13,103,1050004,,,,,,,2025-11-17,1,,,,,シンサリティ,0
1605,7010701048603,新規,0,2025-11-17,2025-11-17,株式会社ＮｅｘＬｏｇｉｃ,,株式会社,東京都,品川区,二葉２丁目１４番地３号プラチナフォルム大井町ＷＥＳＴ２０１,,13,109,1420043,,,,,,,2025-11-17,1,,,,,ネクスロジック,0
1606,7010801036788,新規,0,2025-11-17,2025-11-17,株式会社Ｊ‐ＳＯＸアドバイザー,,株式会社,東京都,大田区,久が原４丁目１３番４号,,13,111,1460085,,,,,,,2025-11-17,1,,,,,ジェイソックスアドバイザー,0
1609,7010901058476,新規,0,2025-11-17,2025-11-17,株式会社ＳｙｎａｐＸ,,株式会社,東京都,世田谷区,下馬１丁目１７番１号３０１,,13,112,1540002,,,,,,,2025-11-17,1,,,,,シナプス,0
1610,7010903010419,新規,0,2025-11-17,2025-11-17,合同会社ＬＥＭ,,合同会社,東京都,世田谷区,新町３丁目９番１２号,,13,112,1540014,,,,,,,2025-11-17,1,,,,,レム,0
1611,7011001173612,新規,0,2025-11-17,2025-11-17,株式会社Ｋｏｍｉｃ　Ｓｔｕｄｉｏｓ,,株式会社,東京都,渋谷区,恵比寿西２丁目８番４号ＥＸ恵比寿西ビル５階,,13,113,1500021,,,,,,,2025-11-17,1,,,,,コミックストゥディオズ,0
1612,7011001173629,新規,0,2025-11-17,2025-11-17,株式会社Ｓｏｍａｎｉ　Ｊａｐａａｎ,,株式会社,東京都,渋谷区,渋谷２丁目１４番１３号岡崎ビル５０７号,,13,113,1500002,,,,,,,2025-11-17,1,,,,,ソマニジャパン,0
1613,7011001173752,新規,0,2025-11-17,2025-11-17,Ｃｌａｒｉｔｙ　Ａｓｓｅｔ株式会社,,株式会社,東京都,目黒区,大橋１丁目５番１－２９１８号,,13,110,1530044,,,,,,,2025-11-17,1,,,,,クラリティアセット,0
1614,7011001173802,新規,0,2025-11-17,2025-11-17,株式会社ＯｎＳｅｎｔｉａｌ,,株式会社,東京都,渋谷区,神南１丁目１１番４号ＦＰＧリンクス神南５階,,13,113,1500041,,,,,,,2025-11-17,1,,,,,オンセンシャル,0
1615,7011003022874,新規,0,2025-11-17,2025-11-17,キズナホールディングス合同会社,,合同会社,東京都,目黒区,自由が丘１丁目２４－１３,,13,110,1520035,,,,,,,2025-11-17,1,,,,,キズナホールディングス,0
1616,7011003022899,新規,0,2025-11-17,2025-11-17,合同会社ＳＬサポート,,合同会社,東京都,渋谷区,神南１丁目１１番４号ＦＰＧリンクス神南５階,,13,113,1500041,,,,,,,2025-11-17,1,,,,,エスエルサポート,0
1617,7011003022908,新規,0,2025-11-17,2025-11-17,２ＣＵ合同会社,,合同会社,東京都,目黒区,下目黒１丁目１番１４号　コノトラビル７Ｆ,,13,110,1530064,,,,,,,2025-11-17,1,,,,,トゥーシーユー,0
1623,7011101113955,新規,0,2025-11-17,2025-11-17,株式会社びっぐべいびー,,株式会社,東京都,新宿区,新宿１丁目２３番１号ＴｈｅＰＯＲＴＡＬ新宿御苑９階,,13,104,1600022,,,,,,,2025-11-17,1,,,,,ビッグベイビー,0
1625,7011301031049,新規,0,2025-11-17,2025-11-17,株式会社ナルシスコ,,株式会社,東京都,杉並区,天沼３丁目６番１号池田園ビル４階,,13,115,1670032,,,,,,,2025-11-17,1,,,,,ナルシスコ,0
1626,7011701028933,新規,0,2025-11-17,2025-11-17,株式会社Ｐｉｖｏｎａ,,株式会社,東京都,江戸川区,北篠崎２丁目２０番１８号,,13,123,1330053,,,,,,,2025-11-17,1,,,,,ピヴォナ,0
1636,7013301055300,新規,0,2025-11-17,2025-11-17,グラキース株式会社,,株式会社,東京都,豊島区,南池袋２丁目４９番７号池袋パークビル１階,,13,116,1710022,,,,,,,2025-11-17,1,,,,,グラキース,0
1641,7020001165750,新規,0,2025-11-17,2025-11-17,株式会社ＬＵＤＥ,,株式会社,神奈川県,横浜市鶴見区,豊岡町２７番１１号シティコア鶴見２０１号,,14,101,2300062,,,,,,,2025-11-17,1,,,,,ルード,0
1642,7020001165800,新規,0,2025-11-17,2025-11-17,株式会社ＴＥＲＡ,,株式会社,神奈川県,川崎市幸区,中幸町３丁目２４番地１ナイスアーバンステイツ川崎１００８,,14,132,2120012,,,,,,,2025-11-17,1,,,,,テラ,0
1643,7020001165825,新規,0,2025-11-17,2025-11-17,株式会社ｔａＵｔａｕ,,株式会社,神奈川県,横浜市中区,三吉町４番地６第四レッツビル３０２号室,,14,104,2310034,,,,,,,2025-11-17,1,,,,,タユタウ,0
1644,7020001165841,新規,0,2025-11-17,2025-11-17,株式会社Ｌｉｎｏｒｅ,,株式会社,神奈川県,横浜市中区,相生町６丁目１００－３ＰｌａｔｉｎｅＴｏｗｅｒ馬車道４０２,,14,104,2310012,,,,,,,2025-11-17,1,,,,,リノーレ,0
1648,7021001086771,新規,0,2025-11-17,2025-11-17,株式会社ａｔｅｌｉｅｒ　Ｋ‐ｐｌｕｓ,,株式会社,神奈川県,相模原市緑区,町屋１丁目４番１０号,,14,151,2520101,,,,,,,2025-11-17,1,,,,,アトリエケープラス,0
1650,7021003016784,新規,0,2025-11-17,2025-11-17,合同会社農住橋,,合同会社,神奈川県,大和市,深見東１丁目２－３７,,14,213,2420012,,,,,,,2025-11-17,1,,,,,ノウジュハシ,0
1651,7021003016792,新規,0,2025-11-17,2025-11-17,つづく制作室合同会社,,合同会社,神奈川県,相模原市中央区,横山２丁目１５番８号,,14,152,2520242,,,,,,,2025-11-17,1,,,,,,0
1659,7040001141312,新規,0,2025-11-17,2025-11-17,株式会社Ｒｅ,,株式会社,千葉県,野田市,瀬戸９８５番地の９,,12,208,2780012,,,,,,,2025-11-17,1,,,,,アールイー,0
1660,7040001141329,新規,0,2025-11-17,2025-11-17,株式会社ＭＫＹ企画,,株式会社,千葉県,市川市,南行徳１丁目１６番８号,,12,203,2720138,,,,,,,2025-11-17,1,,,,,エムケイワイキカク,0
1661,7040001141345,新規,0,2025-11-17,2025-11-17,株式会社Ｌｕｘ,,株式会社,千葉県,富里市,七栄４８９番地１１０,,12,233,2860221,,,,,,,2025-11-17,1,,,,,ルクス,0
1663,7040003028920,新規,0,2025-11-17,2025-11-17,合同会社Ｓ．Ｔ．Ａ,,合同会社,千葉県,印西市,小林浅間２丁目１番地９２,,12,231,2701315,,,,,,,2025-11-17,1,,,,,エスティエー,0
1675,7080401028262,新規,0,2025-11-17,2025-11-17,ウィンバードホールディングス株式会社,,株式会社,静岡県,湖西市,新居町中之郷３９９４番地,,22,221,4310301,,,,,,,2025-11-17,1,,,,,ウィンバードホールディングス,0
1679,7100005013419,新規,0,2025-11-17,2025-11-17,一般社団法人まつもと地域クラブサポート機構,,その他の設立登記法人,長野県,松本市,出川２丁目１９番７号コベールビル１Ｆ,,20,202,3900827,,,,,,,2025-11-17,1,,,,,マツモトチイキクラブサポートキコウ,0
1693,7120001281934,新規,0,2025-11-17,2025-11-17,株式会社Ｉ’ＳＥＥＫ,,株式会社,大阪府,大阪市北区,浮田２丁目２番１４号辻芳ビル３階,,27,127,5300021,,,,,,,2025-11-17,1,,,,,アイシーク,0
1694,7120001281967,新規,0,2025-11-17,2025-11-17,株式会社カラヤブリ,,株式会社,大阪府,大阪市西区,京町堀１丁目４番３号ＴＣＦ肥後橋ビル２Ｆ,,27,106,5500003,,,,,,,2025-11-17,1,,,,,カラヤブリ,0
1695,7120001282081,新規,0,2025-11-17,2025-11-17,ツナグ株式会社,,株式会社,大阪府,大阪市東淀川区,東中島２丁目５－２４千寿ビル１階,,27,114,5330033,,,,,,,2025-11-17,1,,,,,ツナグ,0
1699,7120003031230,新規,0,2025-11-17,2025-11-17,合同会社隆松,,合同会社,大阪府,大阪市北区,梅田１丁目２番２号大阪駅前第２ビル１２－１２,,27,127,5300001,,,,,,,2025-11-17,1,,,,,リュウショウ,0
1702,7120101072779,新規,0,2025-11-17,2025-11-17,株式会社ヒトエル,,株式会社,大阪府,藤井寺市,北條町１１番２１号,,27,226,5830002,,,,,,,2025-11-17,1,,,,,ヒトエル,0
1703,7120103006850,新規,0,2025-11-17,2025-11-17,合同会社グリーンリーフ,,合同会社,大阪府,岸和田市,葛城町９５番地の５２,,27,202,5960824,,,,,,,2025-11-17,1,,,,,グリーンリーフ,0
1713,7122001039890,新規,0,2025-11-17,2025-11-17,株式会社ライフサポート,,株式会社,大阪府,八尾市,桜ヶ丘４丁目３３番地,,27,212,5810869,,,,,,,2025-11-17,1,,,,,ライフサポート,0
1717,7130001081012,新規,0,2025-11-17,2025-11-17,株式会社Ｓａｍｐｏｈ,,株式会社,京都府,城陽市,寺田樋尻１２－６２朝日ビル１Ｆ,00141559,26,207,6100121,,,,,,,2025-11-17,1,,,,,サンポウ,0
1725,7140001140741,新規,0,2025-11-17,2025-11-17,株式会社ＲＥＩＷＡ,,株式会社,兵庫県,尼崎市,東本町３丁目１９番地の２ザカラー東本町Ｂ棟１０１,,28,202,6600824,,,,,,,2025-11-17,1,,,,,レイワ,0
1726,7140001140799,新規,0,2025-11-17,2025-11-17,株式会社セブンスリー,,株式会社,兵庫県,明石市,大久保町西脇５０７－１リヴェールコート３－１０１,,28,203,6740054,,,,,,,2025-11-17,1,,,,,セブンスリー,0
1730,7140005027695,新規,0,2025-11-17,2025-11-17,一般財団法人ＮＩＳＨＩＭＵＲＡ基金,,その他の設立登記法人,兵庫県,神戸市中央区,港島南町１丁目５番２神戸キメックセンタービル５Ｆ,,28,110,6500047,,,,,,,2025-11-17,1,,,,,ニシムラキキン,0
1741,7210001020390,新規,0,2025-11-17,2025-11-17,株式会社アックスコーポレーション,,株式会社,福井県,敦賀市,若葉町２丁目７０４番地の１ＡＴＫＳＳビル,,18,202,9140125,,,,,,,2025-11-17,1,,,,,アックスコーポレーション,0
1748,7230001021180,新規,0,2025-11-17,2025-11-17,ＴＮＫミチ山株式会社,,株式会社,富山県,高岡市,福岡町本領４３８番地,,16,202,9390135,,,,,,,2025-11-17,1,,,,,ティーエヌケーミチヤマ,0
1751,7240001065796,新規,0,2025-11-17,2025-11-17,真山株式会社,,株式会社,広島県,尾道市,久保１丁目５番１６号,,34,205,7220045,,,,,,,2025-11-17,1,,,,,マヤマ,0
1760,7290001112189,新規,0,2025-11-17,2025-11-17,株式会社ＰＡＬ,,株式会社,福岡県,糸島市,波多江６８１番地,,40,230,8191104,,,,,,,2025-11-17,1,,,,,パル,0
1763,7290005019884,新規,0,2025-11-17,2025-11-17,司法書士法人奏,,その他の設立登記法人,福岡県,福岡市博多区,博多駅東２丁目２番２号博多東ハニービル２階,,40,132,8120013,,,,,,,2025-11-17,1,,,,,カナデ,0
1764,7310001019852,新規,0,2025-11-17,2025-11-17,株式会社ＡＣＢホールディングス,,株式会社,長崎県,佐世保市,有福町１５２４番地４３,,42,202,8593241,,,,,,,2025-11-17,1,,,,,エーシービーホールディングス,0
1769,7340001027786,新規,0,2025-11-17,2025-11-17,株式会社そらいろ,,株式会社,鹿児島県,鹿児島市,東開町２番５号鹿児島食品雑貨流通センター内,,46,201,8910115,,,,,,,2025-11-17,1,,,,,ソライロ,0
1770,7350003005070,新規,0,2025-11-17,2025-11-17,合同会社Ａｕｒａ　Ｈａｉｒ＆Ｍａｋｅ,,合同会社,宮崎県,都城市,早水町３８８５番地早水パークビューＣ＆Ｓ１番館Ｃ,,45,202,8850016,,,,,,,2025-11-17,1,,,,,アウラヘアーアンドメイク,0
1775,7360001036042,新規,0,2025-11-17,2025-11-17,株式会社グランベース,,株式会社,沖縄県,那覇市,長田２丁目２７番３５号,,47,201,9020077,,,,,,,2025-11-17,1,,,,,グランベース,0
1782,7370003007370,新規,0,2025-11-17,2025-11-17,合同会社Ｋｉｎａｒｉ　Ｓｔｕｄｉｏ,,合同会社,宮城県,黒川郡大衡村,駒場字古屋敷１４番地２,,04,424,9813604,,,,,,,2025-11-17,1,,,,,キナリスタジオ,0
1784,7380001035703,新規,0,2025-11-17,2025-11-17,株式会社フィットホールディングス,,株式会社,福島県,いわき市,平谷川瀬字吉野作１８３番地の１,,07,204,9708036,,,,,,,2025-11-17,1,,,,,フィットホールディングス,0
1789,7430001095683,新規,0,2025-11-17,2025-11-17,ヒナギプランニング株式会社,,株式会社,北海道,札幌市北区,屯田四条３丁目１２番１９号,,01,102,0020854,,,,,,,2025-11-17,1,,,,,ヒナギプランニング,0
1791,7430003018320,新規,0,2025-11-17,2025-11-17,合同会社おおぞら介護タクシー,,合同会社,北海道,石狩市,花畔三条１丁目１７０,,01,235,0613283,,,,,,,2025-11-17,1,,,,,オオゾラカイゴタクシー,0
1793,7460303000891,新規,0,2025-11-17,2025-11-17,合同会社Ａ．ＳＩＬＬＹＳ,,合同会社,北海道,北見市,花月町１１番地４４,,01,208,0900066,,,,,,,2025-11-17,1,,,,,エイシリーズ,0
1797,7490005007010,新規,0,2025-11-17,2025-11-17,特定非営利活動法人しまんとねこ,,その他の設立登記法人,高知県,四万十市,中村百笑町７番２７－６号,,39,210,7870038,,,,,,,2025-11-17,1,,,,,シマントネコ,0
1801,7700150088774,新規,0,2025-11-17,2018-05-16,小樽地域雇用創造協議会,,その他,北海道,小樽市,稲穂２丁目１７番１号小樽市産業会館１階,,01,203,0470032,,,,,,,2018-05-16,1,,,,,オタルチイキコヨウソウゾウキヨウギカイ,0
1812,8010001260320,新規,0,2025-11-17,2025-11-17,株式会社ＢＥＳＴＡＧＥ,,株式会社,東京都,中央区,日本橋２丁目１６－４ｒｅｍｉｘ日本橋６階,,13,102,1030027,,,,,,,2025-11-17,1,,,,,ビーステージ,0
1815,8010003049423,新規,0,2025-11-17,2025-11-17,仁山高原ウインド合同会社,,合同会社,東京都,千代田区,永田町２丁目１１番１号山王パークタワー２１階,,13,101,1000014,,,,,,,2025-11-17,1,,,,,ニヤマコウゲンウインド,0
1821,8010401194481,新規,0,2025-11-17,2025-11-17,パシオン株式会社,,株式会社,東京都,港区,芝浦４丁目１５番１号,,13,103,1080023,,,,,,,2025-11-17,1,,,,,パシオン,0
1822,8010401194523,新規,0,2025-11-17,2025-11-17,株式会社燦和堂,,株式会社,東京都,港区,赤坂３丁目１８－８－１０１号室,,13,103,1070052,,,,,,,2025-11-17,1,,,,,サンワドウ,0
1825,8010403036574,新規,0,2025-11-17,2025-11-17,合同会社ディレクション,,合同会社,東京都,港区,南青山３丁目１番３６号青山丸竹ビル６Ｆ,,13,103,1070062,,,,,,,2025-11-17,1,,,,,ディレクション,0
1826,8010403036599,新規,0,2025-11-17,2025-11-17,Ｙｕｆｕ　Ｃａｐｉｔａｌ合同会社,,合同会社,東京都,港区,西麻布３丁目１９番２２号,,13,103,1060031,,,,,,,2025-11-17,1,,,,,ユフキャピタル,0
1830,8010501055030,新規,0,2025-11-17,2025-11-17,株式会社ＮＥＸＵＳ　ＡＶＡＮＴ,,株式会社,東京都,台東区,池之端４丁目２４番１０号サマディテラス４０３,,13,106,1100008,,,,,,,2025-11-17,1,,,,,ネクサスアヴァン,0
1836,8010603011922,新規,0,2025-11-17,2025-11-17,Ｓａｋｕｒａ＆Ｓａｍｕｒａｉ合同会社,,合同会社,東京都,墨田区,京島３丁目４６番９号,,13,107,1310046,,,,,,,2025-11-17,1,,,,,サクラアンドサムライ,0
1839,8010701048602,新規,0,2025-11-17,2025-11-17,株式会社ＭＡＹトラスト,,株式会社,東京都,品川区,東五反田２丁目７番７号１００１,,13,109,1410022,,,,,,,2025-11-17,1,,,,,メイトラスト,0
1841,8010801036779,新規,0,2025-11-17,2025-11-17,株式会社シーオーシップ,,株式会社,東京都,大田区,蒲田４丁目２２番８号,,13,111,1440052,,,,,,,2025-11-17,1,,,,,シーオーシップ,0
1850,8011001173578,新規,0,2025-11-17,2025-11-17,株式会社ＢＣＨ‐Ｂ,,株式会社,東京都,渋谷区,代々木２丁目３３番７号,,13,113,1510053,,,,,,,2025-11-17,1,,,,,ビーシーエイチビー,0
1851,8011001173644,新規,0,2025-11-17,2025-11-17,株式会社ｋａｃｈｉｍｅ,,株式会社,東京都,渋谷区,神南１丁目１１番４号ＦＰＧリンクス神南５階,,13,113,1500041,,,,,,,2025-11-17,1,,,,,カチメ,0
1852,8011001173834,新規,0,2025-11-17,2025-11-17,株式会社ファーウィット,,株式会社,東京都,渋谷区,円山町５番３号ＭＩＥＵＸ渋谷ビル８階,,13,113,1500044,,,,,,,2025-11-17,1,,,,,ファーウィット,0
1853,8011003022931,新規,0,2025-11-17,2025-11-17,合同会社執行リーガルサポート,,合同会社,東京都,渋谷区,笹塚２丁目１２番１号グランドアーク笹塚１０階,,13,113,1510073,,,,,,,2025-11-17,1,,,,,シッコウリーガルサポート,0
1854,8011003022948,新規,0,2025-11-17,2025-11-17,合同会社ＩＮＳＡＮＣＴＩＯＮ,,合同会社,東京都,渋谷区,渋谷３丁目６番２号,,13,113,1500002,,,,,,,2025-11-17,1,,,,,インサンクション,0
1857,8011101113921,新規,0,2025-11-17,2025-11-17,ＷＥ　ＡＲＥ　ＴＯＫＹＯ株式会社,,株式会社,東京都,新宿区,西新宿３丁目３番地２３号,,13,104,1600023,,,,,,,2025-11-17,1,,,,,ウィーアートウキョウ,0
1859,8011103016593,新規,0,2025-11-17,2025-11-17,合同会社ＳＨＥＥＲ,,合同会社,東京都,新宿区,百人町１丁目９－２０セゾン百人町１０５,,13,104,1690073,,,,,,,2025-11-17,1,,,,,シェール,0
1860,8011103016619,新規,0,2025-11-17,2025-11-17,プリファード・バイ・ネイチャー合同会社,,合同会社,東京都,新宿区,新宿７丁目１２番１号新宿平和ビル１階,,13,104,1600022,,,,,,,2025-11-17,1,,,,,プリファードバイネイチャー,0
1874,8011801047048,新規,0,2025-11-17,2025-11-17,株式会社Ａ　ｃｕｂｅｄ　Ｍａｒｉａｇｅ,,株式会社,東京都,足立区,千住河原町１９番９－１１０１号,,13,121,1200037,,,,,,,2025-11-17,1,,,,,エーキューブドマリアージュ,0
1880,8012703003411,新規,0,2025-11-17,2025-11-17,合同会社ウェルネスアライン,,合同会社,東京都,東久留米市,南沢５丁目８－４,,13,222,2030023,,,,,,,2025-11-17,1,,,,,ウェルネスアライン,0
1883,8013303007959,新規,0,2025-11-17,2025-11-17,合同会社フェニックス,,合同会社,東京都,豊島区,高田３丁目１６－４ＧｏｌｊｅＢｌｄ．６Ｆ,,13,116,1710033,,,,,,,2025-11-17,1,,,,,フェニックス,0
1894,8020001165808,新規,0,2025-11-17,2025-11-17,株式会社Ｔ’ｓコンシェル,,株式会社,神奈川県,横浜市戸塚区,吉田町８３２番地ノーブルコート１０１号,,14,110,2440817,,,,,,,2025-11-17,1,,,,,ティーズコンシェル,0
1895,8020001165816,新規,0,2025-11-17,2025-11-17,株式会社コラル,,株式会社,神奈川県,横浜市保土ケ谷区,権太坂２丁目２４番２０号,,14,106,2400026,,,,,,,2025-11-17,1,,,,,コラル,0
1896,8020001165824,新規,0,2025-11-17,2025-11-17,ＳＷインベストメント株式会社,,株式会社,神奈川県,横浜市緑区,三保町１８０６番地２サニーコート壱番館６０１号,,14,113,2260015,,,,,,,2025-11-17,1,,,,,エスダブリューインベストメント,0
1897,8020001165832,新規,0,2025-11-17,2025-11-17,株式会社ＳＡＧＥ,,株式会社,神奈川県,横浜市都筑区,中川６丁目１番１１－６０１号,,14,118,2240001,,,,,,,2025-11-17,1,,,,,セージ,0
1898,8020001165849,新規,0,2025-11-17,2025-11-17,株式会社ＦＯＲＣＥ,,株式会社,神奈川県,横浜市中区,山下町１５８番地１パークホームズ横濱山下町５１１号室,,14,104,2310023,,,,,,,2025-11-17,1,,,,,フォース,0
1899,8020001165873,新規,0,2025-11-17,2025-11-17,株式会社Ｇ‐ＡＲＭＳ　Ｔｅｃｈｎｏｌｏｇｉｅｓ,,株式会社,神奈川県,横浜市金沢区,釜利谷南２丁目５３－１５,,14,108,2360045,,,,,,,2025-11-17,1,,,,,ジーアームステクノロジー,0
1900,8020003029688,新規,0,2025-11-17,2025-11-17,ひふみ合同会社,,合同会社,神奈川県,横浜市神奈川区,大口通３６番地３アークプラザ大口１０２号,,14,102,2210002,,,,,,,2025-11-17,1,,,,,ヒフミ,0
1901,8020003029795,新規,0,2025-11-17,2025-11-17,ｎｏｌａｃｔｉｏｎ合同会社,,合同会社,神奈川県,横浜市西区,北幸２丁目１０番４８号むつみビル３階,,14,103,2200004,,,,,,,2025-11-17,1,,,,,ノラクション,0
1902,8020003029804,新規,0,2025-11-17,2025-11-17,Ｆｉｆｔｙ　Ｏｎｅ　Ｄｅｇ合同会社,,合同会社,神奈川県,横浜市緑区,鴨居２丁目１番３号ヒサージュガーデン１０１号,,14,113,2260003,,,,,,,2025-11-17,1,,,,,フィフティワンデグ,0
1903,8020005017039,新規,0,2025-11-17,2025-11-17,一般社団法人ＪＢ,,その他の設立登記法人,神奈川県,横浜市保土ケ谷区,仏向町７３４番地の５,,14,106,2400044,,,,,,,2025-11-17,1,,,,,ジェイビー,0
1906,8021001086762,新規,0,2025-11-17,2025-11-17,アール・ドット・エー株式会社,,株式会社,神奈川県,茅ヶ崎市,矢畑７４５―６,,14,207,2530085,,,,,,,2025-11-17,1,,,,,アールドットエー,0
1907,8021001086779,新規,0,2025-11-17,2025-11-17,株式会社鈴木組,,株式会社,神奈川県,横須賀市,鷹取１丁目１５番１２号,,14,201,2370067,,,,,,,2025-11-17,1,,,,,スズキグミ,0
1908,8021001086787,新規,0,2025-11-17,2025-11-17,株式会社小泉工業,,株式会社,神奈川県,足柄上郡中井町,田中７９番地１３,,14,361,2590145,,,,,,,2025-11-17,1,,,,,コイズミコウギョウ,0
1909,8021003016783,新規,0,2025-11-17,2025-11-17,合同会社ベルグラース,,合同会社,神奈川県,横須賀市,長沢４丁目２０番２０号,,14,201,2390842,,,,,,,2025-11-17,1,,,,,ベルグラース,0
1910,8021003016791,新規,0,2025-11-17,2025-11-17,まごころデリバリー合同会社,,合同会社,神奈川県,相模原市中央区,清新８丁目６－６－１０１,,14,152,2520216,,,,,,,2025-11-17,1,,,,,,0
1919,8040001141311,新規,0,2025-11-17,2025-11-17,桧株式会社,,株式会社,千葉県,船橋市,薬円台６丁目１７番１２号ドミール薬円台４０３,,12,204,2740077,,,,,,,2025-11-17,1,,,,,ヒノキ,0
1920,8040001141328,新規,0,2025-11-17,2025-11-17,株式会社Ｓｔｏｃｋｂｒｉｄｇｅ,,株式会社,千葉県,柏市,今谷南町４番２０号,,12,217,2770073,,,,,,,2025-11-17,1,,,,,ストックブリッジ,0
1921,8040001141360,新規,0,2025-11-17,2025-11-17,株式会社ＲＩＮｘＧＡＲ,,株式会社,千葉県,東金市,堀上２５１番地１,,12,213,2830063,,,,,,,2025-11-17,1,,,,,リンガル,0
1926,8050005013729,新規,0,2025-11-17,2025-11-17,一般社団法人茨城フィットネス指導者協会,,その他の設立登記法人,茨城県,水戸市,千波町４８３番１,,08,201,3100851,,,,,,,2025-11-17,1,,,,,イバラキフィットネスシドウシャキョウカイ,0
1931,8070005010443,新規,0,2025-11-17,2025-11-17,一般社団法人アートマン,,その他の設立登記法人,群馬県,沼田市,桜町１９７５番地３３,,10,206,3780052,,,,,,,2025-11-17,1,,,,,アートマン,0
1934,8080403005390,新規,0,2025-11-17,2025-11-17,合同会社Ｋ＆Ｋコーポレーション,,合同会社,静岡県,浜松市中央区,中島４丁目８番５号,,22,138,4300856,,,,,,,2025-11-17,1,,,,,ケイアンドケイコーポレーション,0
1936,8100001039111,新規,0,2025-11-17,2025-11-17,株式会社クリンビーホールディングス,,株式会社,長野県,諏訪市,大字四賀３０１１番地３,,20,206,3920012,,,,,,,2025-11-17,1,,,,,クリンビーホールディングス,0
1948,8120001281891,新規,0,2025-11-17,2025-11-17,株式会社ＲｅＶａｌｕｅ,,株式会社,大阪府,大阪市西成区,松２丁目１番６－６０１号,,27,122,5570034,,,,,,,2025-11-17,1,,,,,リバリュー,0
1949,8120001281974,新規,0,2025-11-17,2025-11-17,株式会社ＬＩＢＥＲＴ,,株式会社,大阪府,大阪市中央区,淡路町１丁目６－９ＤＰスクエア堺筋本町８Ｆ,,27,128,5410047,,,,,,,2025-11-17,1,,,,,リバート,0
1950,8120001281990,新規,0,2025-11-17,2025-11-17,株式会社Ｌｕｐｉｎｕｓ,,株式会社,大阪府,門真市,宮前町１５番１５号,,27,223,5710074,,,,,,,2025-11-17,1,,,,,ルピナス,0
1960,8120101072811,新規,0,2025-11-17,2025-11-17,金源株式会社,,株式会社,大阪府,堺市堺区,北瓦町１丁２番１５号ポピービル３０４号室,,27,141,5900076,,,,,,,2025-11-17,1,,,,,キンゲン,0
1970,8130001081028,新規,0,2025-11-17,2025-11-17,藤芳インフラ株式会社,,株式会社,京都府,京都市下京区,七条通油小路東入大黒町２２７番地第２キョートビル４０２,,26,106,6008223,,,,,,,2025-11-17,1,,,,,フジヨシインフラ,0
1977,8140001140740,新規,0,2025-11-17,2025-11-17,Ａｎｄ　Ｙａｍａｔｏ株式会社,,株式会社,兵庫県,姫路市,大津区吉美３８０番地,,28,201,6711133,,,,,,,2025-11-17,1,,,,,アンドヤマト,0
1978,8140005027703,新規,0,2025-11-17,2025-11-17,特定非営利活動法人だんごの家,,その他の設立登記法人,兵庫県,明石市,中崎２丁目５番１０－８０５号,,28,203,6730883,,,,,,,2025-11-17,1,,,,,ダンゴノイエ,0
1980,8150003003746,新規,0,2025-11-17,2025-11-17,合同会社シャンペーン,,合同会社,奈良県,橿原市,南八木町２丁目４番６号,,29,205,6340077,,,,,,,2025-11-17,1,,,,,シャンペーン,0
1996,8180301040422,新規,0,2025-11-17,2025-11-17,世界モータース株式会社,,株式会社,愛知県,刈谷市,一ツ木町３丁目１４－３エステートＮＯＮ４０２号,,23,210,4480003,,,,,,,2025-11-17,1,,,,,セカイモータース,0
1997,8180301040430,新規,0,2025-11-17,2025-11-17,株式会社スマイルワークス,,株式会社,愛知県,西尾市,寺津町四ノ割横道西１０番地１,,23,213,4440324,,,,,,,2025-11-17,1,,,,,スマイルワークス,0
1999,8190001032693,新規,0,2025-11-17,2025-11-17,株式会社ブリッジワークス,,株式会社,三重県,伊勢市,船江２丁目２４番１７号,,24,203,5160008,,,,,,,2025-11-17,1,,,,,ブリッジワークス,0
2001,8200003007139,新規,0,2025-11-17,2025-11-17,合同会社Ｆｕｎ　Ｌｉｆｅ　Ｓｕｐｐｏｒｔ,,合同会社,岐阜県,可児郡御嵩町,上恵土１１４６番地２ダイアナビル１階２・３号室,,21,521,5050126,,,,,,,2025-11-17,1,,,,,ファンライフサポート,0
2014,8250001021426,新規,0,2025-11-17,2025-11-17,中村被服ホールディングス株式会社,,株式会社,山口県,防府市,大字浜方２６５番地の１,,35,206,7470833,,,,,,,2025-11-17,1,,,,,ナカムラヒフクホールディングス,0
2020,8260001040747,新規,0,2025-11-17,2025-11-17,株式会社プライムレジデンス,,株式会社,岡山県,岡山市北区,田中１８２番地１０２,,33,101,7000951,,,,,,,2025-11-17,1,,,,,プライムレジデンス,0
2021,8270001009329,新規,0,2025-11-17,2025-11-17,ブリカグループ株式会社,,株式会社,鳥取県,米子市,安倍６９８番地６,,31,202,6830846,,,,,,,2025-11-17,1,,,,,ブリカグループ,0
2025,8290001112048,新規,0,2025-11-17,2025-11-17,三友倉庫株式会社,,株式会社,福岡県,糟屋郡宇美町,ひばりが丘１丁目４番１２号,,40,341,8112106,,,,,,,2025-11-17,1,,,,,ミツトモソウコ,0
2026,8290001112080,新規,0,2025-11-17,2025-11-17,株式会社ＭＫＤ,,株式会社,福岡県,筑紫野市,二日市中央５丁目１２番１６号,,40,217,8180072,,,,,,,2025-11-17,1,,,,,エムケーディー,0
2027,8290001112114,新規,0,2025-11-17,2025-11-17,ダイユー株式会社,,株式会社,福岡県,福岡市博多区,金の隈２丁目２番２９号,,40,132,8120863,,,,,,,2025-11-17,1,,,,,ダイユー,0
2028,8290001112171,新規,0,2025-11-17,2025-11-17,株式会社明徹丸,,株式会社,福岡県,大川市,大字小保９６８番地,,40,212,8310041,,,,,,,2025-11-17,1,,,,,メイテツマル,0
2030,8290003017708,新規,0,2025-11-17,2025-11-17,合同会社絆輝,,合同会社,福岡県,春日市,昇町５丁目１５１番地,,40,218,8160851,,,,,,,2025-11-17,1,,,,,キズキ,0
2031,8290003017724,新規,0,2025-11-17,2025-11-17,合同会社あめ,,合同会社,福岡県,福岡市東区,馬出６丁目１４番１０号,,40,131,8120054,,,,,,,2025-11-17,1,,,,,アメ,0
2038,8320001021443,新規,0,2025-11-17,2025-11-17,株式会社藤栄建設工業,,株式会社,大分県,杵築市,大字奈多５６７番地,,44,210,8730032,,,,,,,2025-11-17,1,,,,,トウエイケンセツコウギョウ,0
2044,8340003005021,新規,0,2025-11-17,2025-11-17,合同会社Ｎ　Ｂｒｅｅｚｅ,,合同会社,鹿児島県,鹿児島市,荒田２丁目３２番２１号,,46,201,8900054,,,,,,,2025-11-17,1,,,,,エヌブリーズ,0
2047,8360001036041,新規,0,2025-11-17,2025-11-17,ＪＰＮ　ＷＯＲＫＳ株式会社,,株式会社,沖縄県,那覇市,牧志２丁目１７－２７－４０１,,47,201,9000013,,,,,,,2025-11-17,1,,,,,ジャパンワークス,0
2050,8360003015398,新規,0,2025-11-17,2025-11-17,合同会社ＡＹＡＲＩＳＥ,,合同会社,沖縄県,沖縄市,比屋根４丁目１２番２号１Ｆ,,47,211,9042173,,,,,,,2025-11-17,1,,,,,アヤライズ,0
2055,8380001035702,新規,0,2025-11-17,2025-11-17,ｎＡＣＥ株式会社,,株式会社,福島県,いわき市,平中神谷字後原７２番地の１,,07,204,9708021,,,,,,,2025-11-17,1,,,,,ナイス,0
2057,8390001018160,新規,0,2025-11-17,2025-11-17,高木塗装株式会社,00141560,株式会社,山形県,米沢市,塩井町塩野１７１８番地,,06,202,9920042,,,,,,,2025-11-17,1,,,,,タカキトソウ,0
2063,8460103001759,新規,0,2025-11-17,2025-11-17,クリアエンジン合同会社,,合同会社,北海道,足寄郡足寄町,南一条４丁目７,,01,647,0893711,,,,,,,2025-11-17,1,,,,,クリアエンジン,0
2064,8500001026622,新規,0,2025-11-17,2025-11-17,株式会社ＥＰＲ,,株式会社,愛媛県,新居浜市,久保田町２丁目１番３８号ヴィアソーレＢ棟Ｂ－１０５号,,38,205,7920026,,,,,,,2025-11-17,1,,,,,エピア,0
2065,8500001026630,新規,0,2025-11-17,2025-11-17,株式会社シディット,,株式会社,愛媛県,新居浜市,高田２丁目３番６号,,38,205,7920887,,,,,,,2025-11-17,1,,,,,シディット,0
2069,9010001260311,新規,0,2025-11-17,2025-11-17,株式会社ＣＲＥＡＭＰＩＥ,,株式会社,東京都,千代田区,神田神保町３丁目１１番６号神保町ビル１０階,,13,101,1010051,,,,,,,2025-11-17,1,,,,,クリームパイ,0
2070,9010001260419,新規,0,2025-11-17,2025-11-17,株式会社ＫＧＡ,,株式会社,東京都,中央区,銀座１丁目２２番１１号銀座大竹ビジデンス２Ｆ,,13,102,1040061,,,,,,,2025-11-17,1,,,,,ケージーエー,0
2072,9010003049439,新規,0,2025-11-17,2025-11-17,合同会社Ｓｔｒａｉｔ　Ｐ　ＧＫ,,合同会社,東京都,中央区,新川１丁目１７番１８号,,13,102,1040033,,,,,,,2025-11-17,1,,,,,ストレイトピージーケー,0
2073,9010005040965,新規,0,2025-11-17,2025-11-17,一般社団法人２０,,その他の設立登記法人,東京都,千代田区,丸の内１丁目４番１号東京共同会計事務所内,,13,101,1000005,,,,,,,2025-11-17,1,,,,,ニジュウ,0
2079,9010401194365,新規,0,2025-11-17,2025-11-17,株式会社ＭＥＭＳ,,株式会社,東京都,港区,北青山１丁目２－３青山ビルヂング１１階ジャスミー内,,13,103,1070061,,,,,,,2025-11-17,1,,,,,メムス,0
2080,9010401194480,新規,0,2025-11-17,2025-11-17,ＡＩ情報株式会社,,株式会社,東京都,港区,虎ノ門４丁目３番２０号神谷町ＭＴビル１４階,,13,103,1050001,,,,,,,2025-11-17,1,,,,,エーアイジョウホウ,0
2082,9010403036532,新規,0,2025-11-17,2025-11-17,合同会社ＣＯＳＸＣＯＳ　ＪＡＰＡＮ　ＥＸＰ,,合同会社,東京都,港区,南青山４丁目１５－３７－３－Ｆ号,,13,103,1070062,,,,,,,2025-11-17,1,,,,,コスバイコスジャパンエクスペリエンス,0
2083,9010403036598,新規,0,2025-11-17,2025-11-17,禾心合同会社,,合同会社,東京都,港区,西麻布３丁目１９番２２号,,13,103,1060031,,,,,,,2025-11-17,1,,,,,ヘシン,0
2091,9010801036786,新規,0,2025-11-17,2025-11-17,株式会社トレフルドール,,株式会社,東京都,大田区,西蒲田７丁目２５番３号,,13,111,1440051,,,,,,,2025-11-17,1,,,,,トレフルドール,0
2099,9011001173569,新規,0,2025-11-17,2025-11-17,株式会社テクのけ,,株式会社,東京都,渋谷区,道玄坂１丁目１０番８号渋谷道玄坂東急ビル２Ｆ－Ｃ,,13,113,1500043,,,,,,,2025-11-17,1,,,,,テクノケ,0
2100,9011001173577,新規,0,2025-11-17,2025-11-17,株式会社ＨａｐｔＣｏｒｅ,,株式会社,東京都,渋谷区,神宮前６丁目２３番４号桑野ビル２階,,13,113,1500001,,,,,,,2025-11-17,1,,,,,ハプトコア,0
2101,9011001173585,新規,0,2025-11-17,2025-11-17,株式会社Ｂ．Ｂ．Ｃ．,,株式会社,東京都,目黒区,碑文谷５丁目１９番８号,,13,110,1520003,,,,,,,2025-11-17,1,,,,,ビービーシー,0
2102,9011001173627,新規,0,2025-11-17,2025-11-17,ＳＹＯＧ株式会社,,株式会社,東京都,目黒区,下目黒４丁目３番２号,,13,110,1530064,,,,,,,2025-11-17,1,,,,,エスワイオージー,0
2105,9011003022906,新規,0,2025-11-17,2025-11-17,ＹＭＤ合同会社,,合同会社,東京都,渋谷区,神山町１８番７－４０９号,,13,113,1500047,,,,,,,2025-11-17,1,,,,,ワイエムディー,0
2106,9011003022947,新規,0,2025-11-17,2025-11-17,ロングライフマネジメント合同会社,,合同会社,東京都,渋谷区,代々木２丁目２３番１－１０２４号,,13,113,1510053,,,,,,,2025-11-17,1,,,,,ロングライフマネジメント,0
2111,9011101113879,新規,0,2025-11-17,2025-11-17,株式会社Ｐｏｌａｒｉｓｉａ,,株式会社,東京都,新宿区,西新宿３丁目３番１３号西新宿水間ビル６階,,13,104,1600023,,,,,,,2025-11-17,1,,,,,ポラリシア,0
2112,9011101113895,新規,0,2025-11-17,2025-11-17,Ｎｅｓｔ株式会社,,株式会社,東京都,新宿区,舟町７－４３ＭＳビル３階,,13,104,1600006,,,,,,,2025-11-17,1,,,,,ネスト,0
2115,9011103016683,新規,0,2025-11-17,2025-11-17,合同会社アークハート,,合同会社,東京都,新宿区,高田馬場２丁目１番１号センテニアルタワー１９０１,,13,104,1690075,,,,,,,2025-11-17,1,,,,,アークハート,0
2121,9011603004923,新規,0,2025-11-17,2025-11-17,桜企画合同会社,,合同会社,東京都,練馬区,桜台６丁目１７番２５号,,13,120,1760002,,,,,,,2025-11-17,1,,,,,サクラキカク,0
2134,9012803003921,新規,0,2025-11-17,2025-11-17,合同会社ＡＤＲＯＰ,,合同会社,東京都,立川市,錦町２丁目１番３１号衛門ビル地下１階,,13,202,1900022,,,,,,,2025-11-17,1,,,,,アドロップ,0
2139,9013301055307,新規,0,2025-11-17,2025-11-17,株式会社ｍｏｏｎｓ,,株式会社,東京都,豊島区,東池袋４丁目５番１－４１３号,,13,116,1700013,,,,,,,2025-11-17,1,,,,,ムーンズ,0
2140,9013301055315,新規,0,2025-11-17,2025-11-17,株式会社だんらんハウジング,,株式会社,東京都,豊島区,東池袋５丁目７番４号,,13,116,1700013,,,,,,,2025-11-17,1,,,,,ダンランハウジング,0
2149,9020001165807,新規,0,2025-11-17,2025-11-17,株式会社ＹＣＧ山下情報通信設備,,株式会社,神奈川県,横浜市港北区,新横浜２丁目５番１３号加瀬２２６ビル,,14,109,2220033,,,,,,,2025-11-17,1,,,,,ワイシージーヤマシタジョウホウツウシンセツビ,0
2153,9020003029786,新規,0,2025-11-17,2025-11-17,ＡＳＴ‐Ｐ合同会社,,合同会社,神奈川県,横浜市青葉区,美しが丘３丁目３番地３,,14,117,2250002,,,,,,,2025-11-17,1,,,,,エーエスティーピー,0
2154,9020003029794,新規,0,2025-11-17,2025-11-17,ＡＫｉ　ｗｏｒｋｓ合同会社,,合同会社,神奈川県,川崎市幸区,新川崎６番１－１０１０号,,14,132,2120032,,,,,,,2025-11-17,1,,,,,アキワークス,0
2158,9021001086761,新規,0,2025-11-17,2025-11-17,株式会社シンユウホールディングス,,株式会社,神奈川県,大和市,深見西３丁目２番２７号,,14,213,2420018,,,,,,,2025-11-17,1,,,,,シンユウホールディングス,0
2159,9021001086786,新規,0,2025-11-17,2025-11-17,株式会社ＡＬＩＶＩＯＣＡＲＥ,,株式会社,神奈川県,厚木市,愛名１３１１番地,,14,212,2430038,,,,,,,2025-11-17,1,,,,,アリビオケア,0
2162,9021003016790,新規,0,2025-11-17,2025-11-17,合同会社エムエスファイナンス,,合同会社,神奈川県,伊勢原市,高森３丁目８番８号,,14,214,2591114,,,,,,,2025-11-17,1,,,,,,0
2171,9030001169749,新規,0,2025-11-17,2025-11-17,株式会社ひまわりエンタープライズ,,株式会社,埼玉県,越谷市,新越谷２丁目２２番１号レオパレス風１１２,,11,222,3430857,,,,,,,2025-11-17,1,,,,,ヒマワリエンタープライズ,0
2174,9030005022334,新規,0,2025-11-17,2025-11-17,医療法人社団Ｅｓｔｅｔｉｋａ,,その他の設立登記法人,埼玉県,戸田市,下戸田１丁目１８番２号パティオ戸田公園２階,,11,224,3350011,,,,,,,2025-11-17,1,,,,,エステテイカ,0
2177,9040001141343,新規,0,2025-11-17,2025-11-17,株式会社ＦＦＬ,,株式会社,千葉県,流山市,大字西深井６２３番地の２,,12,220,2700107,,,,,,,2025-11-17,1,,,,,エフエフエル,0
2188,9070003006194,新規,0,2025-11-17,2025-11-17,クロスボーダースポーツ合同会社,,合同会社,群馬県,館林市,上三林町２４２８,,10,207,3740046,,,,,,,2025-11-17,1,,,,,,0
2190,9080401028260,新規,0,2025-11-17,2025-11-17,ハコアラボ株式会社,,株式会社,静岡県,浜松市中央区,菅原町１０番４５号,,22,138,4328041,,,,,,,2025-11-17,1,,,,,ハコアラボ,0
2207,9120001281841,新規,0,2025-11-17,2025-11-17,ＢｏｏｍＢａｓｅ株式会社,,株式会社,大阪府,大阪市中央区,瓦町１丁目２番１２－６０２号,,27,128,5410048,,,,,,,2025-11-17,1,,,,,ブームベース,0
2208,9120001281932,新規,0,2025-11-17,2025-11-17,株式会社ＭＩＲＡＩＺ・３,,株式会社,大阪府,大阪市北区,梅田１丁目１番３号大阪駅前第３ビル２９階１－１－１号,,27,127,5300001,,,,,,,2025-11-17,1,,,,,ミライズスリー,0
2209,9120001282006,新規,0,2025-11-17,2025-11-17,株式会社クラスパートナー,,株式会社,大阪府,大阪市此花区,伝法３丁目１２－１４,,27,104,5540002,,,,,,,2025-11-17,1,,,,,クラスパートナー,0
2210,9120001282014,新規,0,2025-11-17,2025-11-17,株式会社ＭＩＲＥＬＯ,,株式会社,大阪府,大阪市北区,長柄西１丁目３－１４,,27,127,5310061,,,,,,,2025-11-17,1,,,,,ミレロ,0
2215,9120005025253,新規,0,2025-11-17,2025-11-17,一般社団法人Ｆｕｔｕｒｅ　Ａｔｈｌｅｔｅ,,その他の設立登記法人,大阪府,大阪市中央区,久太郎町１丁目９番７号,,27,128,5410056,,,,,,,2025-11-17,1,,,,,フューチャーアスリート,0
2218,9120101072760,新規,0,2025-11-17,2025-11-17,株式会社ＴＡＲＡコーポレーション,,株式会社,大阪府,堺市中区,深井畑山町２６２５番地６,,27,142,5998248,,,,,,,2025-11-17,1,,,,,タラコーポレーション,0
2220,9120103006849,新規,0,2025-11-17,2025-11-17,氷石合同会社,,合同会社,大阪府,岸和田市,極楽寺町２丁目８番１２号,,27,202,5960832,,,,,,,2025-11-17,1,,,,,ヒョウセキ,0
2224,9122001039930,新規,0,2025-11-17,2025-11-17,株式会社ＵＴカンパニー,,株式会社,大阪府,東大阪市,南上小阪４番２６号,,27,227,5770814,,,,,,,2025-11-17,1,,,,,ユーティーカンパニー,0
2232,9130003010925,新規,0,2025-11-17,2025-11-17,ａｎｄＪ合同会社,,合同会社,京都府,八幡市,八幡源氏垣外８３番地,,26,210,6148025,,,,,,,2025-11-17,1,,,,,アンドジェイ,0
2235,9140001140756,新規,0,2025-11-17,2025-11-17,株式会社ＥＮＢＥＲ,,株式会社,兵庫県,神戸市西区,春日台４丁目１７番地の７,,28,111,6512276,,,,,,,2025-11-17,1,,,,,エンバー,0
2238,9150001028546,新規,0,2025-11-17,2025-11-17,株式会社ＴＳＫサポート,,株式会社,奈良県,奈良市,学園大和町４丁目６番地タツミビル２０７号室,,29,201,6310041,,,,,,,2025-11-17,1,,,,,ティーエスケーサポート,0
2240,9160003003653,新規,0,2025-11-17,2025-11-17,合同会社ハッシュ,,合同会社,滋賀県,野洲市,小南２１４０番地１,,25,210,5202301,,,,,,,2025-11-17,1,,,,,ハッシュ,0
2249,9180001169263,新規,0,2025-11-17,2025-11-17,高山電設株式会社,00141565,株式会社,愛知県,名古屋市北区,大我麻町２９７番地の９,,23,103,4620064,,,,,,,2025-11-17,1,,,,,タカヤマデンセツ,0
2262,9190001032692,新規,0,2025-11-17,2025-11-17,なごし株式会社,,株式会社,三重県,津市,一身田上津部田３００５番１の１０６,,24,201,5140061,,,,,,,2025-11-17,1,,,,,ナゴシ,0
2265,9200001044422,新規,0,2025-11-17,2025-11-17,ボデーショップやまおか株式会社,,株式会社,岐阜県,恵那市,山岡町馬場山田１６２０番地,,21,210,5097602,,,,,,,2025-11-17,1,,,,,ボデーショップヤマオカ,0
2266,9200001044439,新規,0,2025-11-17,2025-11-17,株式会社トラストリンク,,株式会社,岐阜県,安八郡神戸町,大字神戸１１１２番地の１,,21,381,5032305,,,,,,,2025-11-17,1,,,,,トラストリンク,0
2273,9220001027029,新規,0,2025-11-17,2025-11-17,株式会社まるよう,,株式会社,石川県,河北郡内灘町,字千鳥台４丁目１２９番地,,17,365,9200277,,,,,,,2025-11-17,1,,,,,マルヨウ,0
2274,9230001021179,新規,0,2025-11-17,2025-11-17,株式会社ＲＢ,,株式会社,富山県,富山市,桜橋通り３－１富山電気ビルディング本館２階,,16,201,9300004,,,,,,,2025-11-17,1,,,,,,0
2275,9230003002532,新規,0,2025-11-17,2025-11-17,合同会社リライフ,,合同会社,富山県,富山市,水落３０,,16,201,9318301,,,,,,,2025-11-17,1,,,,,リライフ,0
2278,9240001065794,新規,0,2025-11-17,2025-11-17,株式会社ＳＨＩＧＥＭＯ,,株式会社,広島県,広島市中区,江波南１丁目３３番２号,,34,101,7300835,,,,,,,2025-11-17,1,,,,,シゲモ,0
2281,9260001040738,新規,0,2025-11-17,2025-11-17,株式会社ＳＯＴＯＡＲＴ,,株式会社,岡山県,津山市,大田４９２番地１１,,33,203,7080806,,,,,,,2025-11-17,1,,,,,ソトアート,0
2285,9290001112162,新規,0,2025-11-17,2025-11-17,株式会社スリーアップ,,株式会社,福岡県,久留米市,合川町１５２番地４エンゼルハイム久留米東７０３号,,40,203,8390861,,,,,,,2025-11-17,1,,,,,スリーアップ,0
2286,9290001112170,新規,0,2025-11-17,2025-11-17,株式会社ネストリー,,株式会社,福岡県,福岡市中央区,天神２丁目２番１２号Ｔ＆Ｊビルディング７Ｆ,,40,133,8100001,,,,,,,2025-11-17,1,,,,,ネストリー,0
2287,9290001112179,新規,0,2025-11-17,2025-11-17,株式会社アース,,株式会社,福岡県,福岡市中央区,春吉３丁目２６－１９,,40,133,8100003,,,,,,,2025-11-17,1,,,,,アース,0
2288,9290001112187,新規,0,2025-11-17,2025-11-17,株式会社ＵＩアカウンティング・アドバイザリー,,株式会社,福岡県,福岡市中央区,天神２丁目２番１２号Ｔ＆Ｊビルディング７Ｆ,,40,133,8100001,,,,,,,2025-11-17,1,,,,,ユーアイアカウンティングアドバイザリー,0
2289,9290001112204,新規,0,2025-11-17,2025-11-17,株式会社Ｏ‐ＬＩＮＫＳ,,株式会社,福岡県,福岡市中央区,大手門１丁目９番１０号アルテミス大濠公園１１０１号,,40,133,8100074,,,,,,,2025-11-17,1,,,,,オーリンクス,0
2290,9290001112220,新規,0,2025-11-17,2025-11-17,株式会社エスシー・エス,,株式会社,福岡県,福岡市西区,姪の浜３丁目４番３－４０２号,,40,135,8190002,,,,,,,2025-11-17,1,,,,,エスシーエス,0
2296,9310005008882,新規,0,2025-11-17,2025-11-17,特定非営利活動法人スタートアップサポート,,その他の設立登記法人,長崎県,大村市,水主町２丁目７３６番地,,42,205,8560827,,,,,,,2025-11-17,1,,,,,スタートアップサポート,0
2315,9370001053233,新規,0,2025-11-17,2025-11-17,ＭＩＲＡＩ　Ｅｎｅｒｇｙ　Ｓｏｌｕｔｉｏｎｓ株式会社,,株式会社,宮城県,仙台市泉区,南中山１丁目２８番地の１８輝ビル５Ｆ,,04,105,9813213,,,,,,,2025-11-17,1,,,,,ミライエナジーソリューションズ,0
2319,9390003002459,新規,0,2025-11-17,2025-11-17,合同会社信和警備,,合同会社,山形県,米沢市,万世町桑山４３３４,,06,202,9921123,,,,,,,2025-11-17,1,,,,,シンワケイビ,0
2325,9430001095657,新規,0,2025-11-17,2025-11-17,株式会社ＹＵＴＯ　ＡＤＶＩＳＯＲＹ,,株式会社,北海道,札幌市中央区,北六条西２５丁目１－１－１００１,,01,101,0600006,,,,,,,2025-11-17,1,,,,,ユウトアドバイザリー,0
2326,9430001095673,新規,0,2025-11-17,2025-11-17,光洲国際開発株式会社,,株式会社,北海道,札幌市中央区,南九条西４丁目２番１０－７０３号,,01,101,0640809,,,,,,,2025-11-17,1,,,,,コウシュウコクサイカイハツ,0
2332,9440003001728,新規,0,2025-11-17,2025-11-17,合同会社地域社会医学研究所,,合同会社,北海道,函館市,西桔梗町８２２番１号,,01,202,0410824,,,,,,,2025-11-17,1,,,,,,0
2333,9450001014788,新規,0,2025-11-17,2025-11-17,株式会社ｉｎｃｅｐｔｉｏｎ,,株式会社,北海道,旭川市,十一条通２１丁目１番地の１オーベル１１条Ａ１０２号,,01,204,0788221,,,,,,,2025-11-17,1,,,,,インセプション,0
2334,9460101007781,新規,0,2025-11-17,2025-11-17,株式会社ＺＥＵＳ・ＴＲＡＮＳＰＯＲＴ,,株式会社,北海道,河東郡音更町,宝来西町南１丁目６番地４,,01,631,0800134,,,,,,,2025-11-17,1,,,,,ゼウストランスポート,0
2336,9490001011212,新規,0,2025-11-17,2025-11-17,株式会社ＩＭＰＡＣＴ,,株式会社,高知県,高知市,はりまや町２丁目１番１０号エリアビル,,39,201,7800822,,,,,,,2025-11-17,1,,,,,インパクト,0
