sequenceNumber,corporateNumber,process,correct,updateDate,changeDate,name,nameImageId,kind,prefectureName,cityName,streetNumber,addressImageId,prefectureCode,cityCode,postCode,addressOutside,addressOutsideImageId,closeDate,closeCause,successorCorporateNumber,changeCause,assignmentDate,latest,enName,enPrefectureName,enCityName,enAddressOutside,furigana,hihyoji
9,1010001248660,新規,0,2024-10-01,2024-10-01,ブロシス株式会社,,株式会社,東京都,中央区,築地４丁目２番７－６０１号,,13,102,1040045,,,,,,,2024-10-01,1,,,,,ブロシス,0
12,1010101016331,新規,0,2024-10-01,2024-10-01,株式会社ＨＣホールディングス,,株式会社,東京都,八王子市,石川町２９６６番地９,,13,201,1920032,,,,,,,2024-10-01,1,,,,,エイチシーホールディングス,0
16,1010401185438,新規,0,2024-10-01,2024-10-01,株式会社ＭＲＫ　Ｔｒａｄｉｎｇ,,株式会社,東京都,港区,虎ノ門５丁目１２番８号クローバー神谷町３０１,,13,103,1050001,,,,,,,2024-10-01,1,,,,,エムアールケートレーディング,0
21,1010601066009,新規,0,2024-10-01,2024-10-01,ラストマイスター株式会社,,株式会社,東京都,墨田区,京島２丁目９番１－２０２号,,13,107,1310046,,,,,,,2024-10-01,1,,,,,ラストマイスター,0
22,1010701046604,新規,0,2024-10-01,2024-10-01,株式会社エクスコネクト,,株式会社,東京都,品川区,小山３丁目２３番１９号,,13,109,1420062,,,,,,,2024-10-01,1,,,,,エクスコネクト,0
23,1010701046612,新規,0,2024-10-01,2024-10-01,株式会社ＯＤＹデリバリーズ,,株式会社,東京都,品川区,西五反田２丁目２８番５号,,13,109,1410031,,,,,,,2024-10-01,1,,,,,オーディーワイデリバリーズ,0
31,1011001164897,新規,0,2024-10-01,2024-10-01,ちゃんとホールディングス株式会社,,株式会社,東京都,渋谷区,広尾１丁目１番３９号,,13,113,1500012,,,,,,,2024-10-01,1,,,,,,0
32,1011001164906,新規,0,2024-10-01,2024-10-01,株式会社Ｒｅ‐Ｄｙｎａｍｉｃ,,株式会社,東京都,渋谷区,道玄坂１丁目１０番８号渋谷道玄坂東急ビル２Ｆ－Ｃ,,13,113,1500043,,,,,,,2024-10-01,1,,,,,リダイナミック,0
33,1011003020090,新規,0,2024-10-01,2024-10-01,ＧＲＡＮＤ　ＣＨＩＰ合同会社,,合同会社,東京都,渋谷区,神泉町１０番１５号アネックス神泉３０１,,13,113,1500045,,,,,,,2024-10-01,1,,,,,グランドチップ,0
42,1011103014983,新規,0,2024-10-01,2024-10-01,合同会社ＮＥＴ．ＮＩＴ,,合同会社,東京都,新宿区,西新宿３丁目３番１３号西新宿水間ビル２Ｆ,,13,104,1600023,,,,,,,2024-10-01,1,,,,,ネットニット,0
49,1011501031176,新規,0,2024-10-01,2024-10-01,株式会社ガトゴルド,,株式会社,東京都,荒川区,東尾久３丁目３番１０号中野マンション５０３,,13,118,1160012,,,,,,,2024-10-01,1,,,,,ガトゴルド,0
59,1012801023474,新規,0,2024-10-01,2024-10-01,株式会社Ｃａｎｔａｂｉｌｅ,,株式会社,東京都,東大和市,蔵敷３丁目６９１番地の２芝中住宅ロ５‐４０７,,13,220,2070032,,,,,,,2024-10-01,1,,,,,カンタービレ,0
68,1020001159428,新規,0,2024-10-01,2024-10-01,株式会社ＪＹＭＣＳ,,株式会社,神奈川県,川崎市宮前区,神木本町４丁目６番１２－１号,,14,136,2160031,,,,,,,2024-10-01,1,,,,,ジンクス,0
69,1020003026997,新規,0,2024-10-01,2024-10-01,合同会社ＰＮＦ,,合同会社,神奈川県,横浜市中区,麦田町２丁目５９ＬＵＭＥＥＤ横濱山手４０１,,14,104,2310849,,,,,,,2024-10-01,1,,,,,ピーエヌエフ,0
71,1021001083262,新規,0,2024-10-01,2024-10-01,株式会社ＷＥ＆ＬＰ,,株式会社,神奈川県,小田原市,栢山３３３９番地の８,,14,206,2500852,,,,,,,2024-10-01,1,,,,,ウェルプ,0
72,1021001083329,新規,0,2024-10-01,2024-10-01,株式会社ＰＯＷＥＲＳ　ＬＡＢＯ,,株式会社,神奈川県,茅ヶ崎市,共恵１丁目３番１４－１００８号,,14,207,2530056,,,,,,,2024-10-01,1,,,,,パワーズラボ,0
75,1021003015049,新規,0,2024-10-01,2024-10-01,Ｍ＆Ｍ　ＭＯＴＯＲＳ合同会社,,合同会社,神奈川県,愛甲郡愛川町,田代３１０番１,,14,401,2430306,,,,,,,2024-10-01,1,,,,,エムエンドエムモータース,0
76,1021003015057,新規,0,2024-10-01,2024-10-01,合同会社ＮＯ　ＮＡＭＥＳ,,合同会社,神奈川県,鎌倉市,山ノ内２３２番地１２９,,14,204,2470062,,,,,,,2024-10-01,1,,,,,ノーネイムズ,0
82,1030001162678,新規,0,2024-10-01,2024-10-01,株式会社ＲＯＪＩＮ,,株式会社,埼玉県,蕨市,中央３丁目９番４号,,11,223,3350004,,,,,,,2024-10-01,1,,,,,ロージン,0
94,1030003025206,新規,0,2024-10-01,2024-10-01,ＨａｖｅＦｕｎ合同会社,,合同会社,埼玉県,深谷市,西島町１丁目５番５号,,11,218,3660824,,,,,,,2024-10-01,1,,,,,ハブファン,0
95,1030003025214,新規,0,2024-10-01,2024-10-01,ＬＩＰ合同会社,,合同会社,埼玉県,川口市,元郷３丁目５番１５号,,11,203,3320011,,,,,,,2024-10-01,1,,,,,エルアイピー,0
96,1030003025222,新規,0,2024-10-01,2024-10-01,ソラトハス合同会社,,合同会社,埼玉県,川越市,大字砂７４１番地５,,11,201,3501133,,,,,,,2024-10-01,1,,,,,ソラトハス,0
104,1040001135542,新規,0,2024-10-01,2024-10-01,フォローミートレーディング株式会社,,株式会社,千葉県,印西市,武西学園台１丁目３番地１－１２０号,,12,231,2701355,,,,,,,2024-10-01,1,,,,,フォローミートレーディング,0
105,1040001135550,新規,0,2024-10-01,2024-10-01,大広株式会社,,株式会社,千葉県,山武市,上横地６２２３番地９,,12,237,2891313,,,,,,,2024-10-01,1,,,,,オオヒロ,0
106,1040001135559,新規,0,2024-10-01,2024-10-01,株式会社ｑｕｐａ,,株式会社,千葉県,浦安市,高洲５丁目１番Ｂ－１４０３号レジアスフォート新浦安,,12,227,2790023,,,,,,,2024-10-01,1,,,,,キューパ,0
107,1040001135567,新規,0,2024-10-01,2024-10-01,株式会社ＴＹａｇｅｎｔ,,株式会社,千葉県,木更津市,清川１丁目３番１３号,,12,206,2920051,,,,,,,2024-10-01,1,,,,,ティーワイエージェント,0
108,1040001135575,新規,0,2024-10-01,2024-10-01,金翔国際株式会社,,株式会社,千葉県,印西市,草深９番地６６,,12,231,2701337,,,,,,,2024-10-01,1,,,,,キンショウコクサイ,0
110,1040003025873,新規,0,2024-10-01,2024-10-01,ＳＡＨＤＨＡ　ＭＯＴＯＲＳ合同会社,,合同会社,千葉県,山武市,小松１６８番地３５,,12,237,2891302,,,,,,,2024-10-01,1,,,,,サハダモータース,0
112,1050001055475,新規,0,2024-10-01,2024-10-01,株式会社茨城トータルサービス,,株式会社,茨城県,ひたちなか市,大字田彦１２０６番地６,,08,221,3120063,,,,,,,2024-10-01,1,,,,,,0
113,1050003008704,新規,0,2024-10-01,2024-10-01,合同会社ｊｉｕ,,合同会社,茨城県,ひたちなか市,大字中根３６６１番地の４,,08,221,3120011,,,,,,,2024-10-01,1,,,,,ジウ,0
116,1060001037530,新規,0,2024-10-01,2024-10-01,井上工業株式会社,,株式会社,栃木県,下都賀郡壬生町,大字安塚１１６６番地１太陽マンション４０２号,,09,361,3210201,,,,,,,2024-10-01,1,,,,,イノウエコウギョウ,0
117,1070001042216,新規,0,2024-10-01,2024-10-01,株式会社ウィル,,株式会社,群馬県,高崎市,岩押町２１番２号,,10,202,3700044,,,,,,,2024-10-01,1,,,,,ウィル,0
119,1080001026515,新規,0,2024-10-01,2024-10-01,株式会社Ｓｈｅｅｐ　Ｅｘｔｒｅｍｅ,,株式会社,静岡県,牧之原市,静波６５７番地１５,,22,226,4210422,,,,,,,2024-10-01,1,,,,,シープエクストリーム,0
123,1080401027468,新規,0,2024-10-01,2024-10-01,株式会社ＹＹ　ＦＡＣＴＯＲＹ,,株式会社,静岡県,浜松市中央区,大平台２丁目３９番２３号トレビアン大平台Ａ,,22,138,4328068,,,,,,,2024-10-01,1,,,,,ワイワイファクトリー,0
124,1080401027476,新規,0,2024-10-01,2024-10-01,株式会社Ｒ．Ｃ．Ｓホールディングス,,株式会社,静岡県,磐田市,西平松字酉新田２１３８番地３,,22,211,4380217,,,,,,,2024-10-01,1,,,,,アールシーエスホールディングス,0
127,1090001018924,新規,0,2024-10-01,2024-10-01,株式会社なないろそらの家,,株式会社,山梨県,南アルプス市,加賀美１８３０番地,,19,208,4000335,,,,,,,2024-10-01,1,,,,,ナナイロソラノイエ,0
128,1090003002653,新規,0,2024-10-01,2024-10-01,合同会社ＣＲＥ,,合同会社,山梨県,笛吹市,石和町下平井３９５深富荘８号,,19,211,4060027,,,,,,,2024-10-01,1,,,,,シーアールイー,0
129,1100001037880,新規,0,2024-10-01,2024-10-01,株式会社ＬＡＮＤエンターテイメント,,株式会社,長野県,松本市,並柳４丁目３－４１,,20,202,3900825,,,,,,,2024-10-01,1,,,,,ランドエンターテイメント,0
139,1120001268508,新規,0,2024-10-01,2024-10-01,全友株式会社,,株式会社,大阪府,大阪市西区,西本町２丁目４－１９グランドメゾン靭２２１号,,27,106,5500005,,,,,,,2024-10-01,1,,,,,ゼンユウ,0
140,1120001268763,新規,0,2024-10-01,2024-10-01,株式会社楽勝観光バス,,株式会社,大阪府,枚方市,楠葉面取町１丁目２３番１４号,,27,210,5731113,,,,,,,2024-10-01,1,,,,,ラクショウカンコウバス,0
141,1120001268805,新規,0,2024-10-01,2024-10-01,青鳥デザイン株式会社,,株式会社,大阪府,大阪市天王寺区,生玉町１１番２９－２１０号,,27,109,5430071,,,,,,,2024-10-01,1,,,,,アオトリデザイン,0
142,1120001268838,新規,0,2024-10-01,2024-10-01,株式会社おいしもんず,,株式会社,大阪府,大阪市福島区,福島３丁目１番６５－４０５号,,27,103,5530003,,,,,,,2024-10-01,1,,,,,オイシモンズ,0
143,1120001268846,新規,0,2024-10-01,2024-10-01,株式会社コネクト,,株式会社,大阪府,大阪市中央区,南船場４丁目２番４号日本生命御堂筋ビル９階,,27,128,5420081,,,,,,,2024-10-01,1,,,,,コネクト,0
144,1120001268854,新規,0,2024-10-01,2024-10-01,株式会社ｍｉｍｏｎａ,,株式会社,大阪府,大阪市福島区,福島３丁目１番６１－１１０３号,,27,103,5530003,,,,,,,2024-10-01,1,,,,,ミモナ,0
145,1120001268879,新規,0,2024-10-01,2024-10-01,株式会社Ｃｙｎａｐｓｅ,,株式会社,大阪府,大阪市中央区,東高麗橋３番５－６１４号,,27,128,5400039,,,,,,,2024-10-01,1,,,,,シナプス,0
146,1120001268904,新規,0,2024-10-01,2024-10-01,株式会社ＴＭ,,株式会社,大阪府,大阪市北区,芝田２丁目８－１１共栄ビル３Ｆ,,27,127,5300012,,,,,,,2024-10-01,1,,,,,ティーエム,0
147,1120001268929,新規,0,2024-10-01,2024-10-01,昊元株式会社,,株式会社,大阪府,大阪市都島区,高倉町１丁目６番１３号ベルサイドハイツ３０Ｂ号室,,27,102,5340011,,,,,,,2024-10-01,1,,,,,コウゲン,0
149,1120003027622,新規,0,2024-10-01,2024-10-01,合同会社もみじ介護センター,,合同会社,大阪府,大阪市浪速区,難波中２丁目８番４－４０２号,,27,111,5560011,,,,,,,2024-10-01,1,,,,,モミジカイゴセンター,0
150,1120101070342,新規,0,2024-10-01,2024-10-01,株式会社Ｐａｔｈｐｉｘ,,株式会社,大阪府,泉佐野市,日根野３３７９番地の２３,,27,213,5980021,,,,,,,2024-10-01,1,,,,,パスピックス,0
153,1122001038477,新規,0,2024-10-01,2024-10-01,テトララボ株式会社,,株式会社,大阪府,東大阪市,長田西６丁目３番１３号,,27,227,5770016,,,,,,,2024-10-01,1,,,,,テトララボ,0
154,1122003003009,新規,0,2024-10-01,2024-10-01,Ｂｒａｄｙ合同会社,,合同会社,大阪府,東大阪市,小阪２丁目１０－２８－２Ｂ,,27,227,5770801,,,,,,,2024-10-01,1,,,,,ブレディ,0
159,1130001078030,新規,0,2024-10-01,2024-10-01,株式会社ＡＲＹ　Ｊａｐａｎ,,株式会社,京都府,京都市山科区,大宅岩屋殿３番地７２,,26,110,6078172,,,,,,,2024-10-01,1,,,,,アリージャパン,0
165,1140003021136,新規,0,2024-10-01,2024-10-01,合同会社Ｄａｎｎｙ,,合同会社,兵庫県,神戸市中央区,元町通１丁目１４－６,,28,110,6500022,,,,,,,2024-10-01,1,,,,,ダニー,0
171,1180001163331,新規,0,2024-10-01,2024-10-01,株式会社光源ホールディングス,,株式会社,愛知県,名古屋市名東区,牧の里３丁目１０４番地の２,,23,115,4650068,,,,,,,2024-10-01,1,,,,,コウゲンホールディングス,0
172,1180001163397,新規,0,2024-10-01,2024-10-01,株式会社ディライトクルー,,株式会社,愛知県,名古屋市中区,丸の内３丁目７番２６号ＡＣＡビル５Ｆ,,23,106,4600002,,,,,,,2024-10-01,1,,,,,ディライトクルー,0
173,1180001163406,新規,0,2024-10-01,2024-10-01,株式会社日芸鑑,,株式会社,愛知県,東海市,荒尾町向屋敷６８番地の２,,23,222,4760003,,,,,,,2024-10-01,1,,,,,ニチゲイカン,0
178,1180003027385,新規,0,2024-10-01,2024-10-01,合同会社ＭＡＮＡ‐ＷＥＬＬ,,合同会社,愛知県,小牧市,大字三ツ渕２３５０番地３５,,23,219,4850075,,,,,,,2024-10-01,1,,,,,マナウェル,0
192,1190003004805,新規,0,2024-10-01,2024-10-01,合同会社ＬＩＶＥＩＴＵＰ,,合同会社,三重県,松阪市,大阿坂町３７４番地１,,24,204,5152342,,,,,,,2024-10-01,1,,,,,リヴイットアップ,0
200,1250001020830,新規,0,2024-10-01,2024-10-01,株式会社ＨＯＭＥ,,株式会社,山口県,下関市,山の田中央町１８番２３－３０３号,,35,201,7510837,,,,,,,2024-10-01,1,,,,,ホーム,0
203,1260001039473,新規,0,2024-10-01,2024-10-01,メイショクフーズ株式会社,,株式会社,岡山県,岡山市南区,藤田１４２３番地,,33,104,7010221,,,,,,,2024-10-01,1,,,,,メイショクフーズ,0
204,1260001039498,新規,0,2024-10-01,2024-10-01,マルニ商事株式会社,,株式会社,岡山県,岡山市北区,蕃山町３－１２,,33,101,7000818,,,,,,,2024-10-01,1,,,,,マルニショウジ,0
210,1290001107351,新規,0,2024-10-01,2024-10-01,株式会社金昇,,株式会社,福岡県,福岡市東区,馬出２丁目１９番５－１０２号,,40,131,8120054,,,,,,,2024-10-01,1,,,,,キンショウ,0
211,1290001107368,新規,0,2024-10-01,2024-10-01,ＢＩＥ　ＬＡＢＯ株式会社,,株式会社,福岡県,福岡市中央区,大濠１丁目８番３２号メゾン大濠５０２,,40,133,8100052,,,,,,,2024-10-01,1,,,,,ビーアイイーラボ,0
222,1330003010573,新規,0,2024-10-01,2024-10-01,合同会社Ｕｉｉ,,合同会社,熊本県,宇城市,三角町中村１９０１番地１７,,43,213,8693204,,,,,,,2024-10-01,1,,,,,ウイ,0
230,1370003006766,新規,0,2024-10-01,2024-10-01,合同会社Ｒ　ａｎｄ　Ｓ,,合同会社,宮城県,仙台市泉区,向陽台２丁目１６番８号,,04,105,9813102,,,,,,,2024-10-01,1,,,,,アールアンドエス,0
247,1700150127356,新規,0,2024-10-01,2024-10-01,Ｔｉａｎｊｉｎ　Ｈｕｉｙｕｅ　Ｉｎｔｅｒｎａｔｉｏｎａｌ　Ｔｒａｄｉｎｇ　Ｃｏ．，　Ｌｔｄ．,,外国会社等,,,,,,,,７－１－１０９－１１２、Ｙｉｈｏｎｇ　Ｄｏｎｇｌｉ，Ｄｏｎｇｘｉｎ　Ｓｔｒｅｅｔ，Ｈｅｄｏｎｇ　Ｄｉｓｔｒｉｃｔ，Ｔｉａｎｊｉｎ　Ｃｉｔｙ,,,,,,2024-10-01,1,,,,,テイエンジンシーフイユエグオジーマオイーヨウシエンゴンスー,0
253,2010001248676,新規,0,2024-10-01,2024-10-01,株式会社瑞鷹,,株式会社,東京都,千代田区,麹町３丁目５番地４麹町インテリジェントビルＢ－１,,13,101,1020083,,,,,,,2024-10-01,1,,,,,ズイヨウ,0
254,2010003044999,新規,0,2024-10-01,2024-10-01,九州蓄電サービス合同会社,,合同会社,東京都,千代田区,神田練塀町３番地,,13,101,1010022,,,,,,,2024-10-01,1,,,,,キュウシュウチクデンサービス,0
260,2010401185230,新規,0,2024-10-01,2024-10-01,株式会社遊びるど,,株式会社,東京都,港区,南青山２丁目２－１５ＷｉｎＡｏｙａｍａビルＵＣＦ９階,,13,103,1070062,,,,,,,2024-10-01,1,,,,,アソビルド,0
266,2010503007588,新規,0,2024-10-01,2024-10-01,合同会社ノコロジー,,合同会社,東京都,台東区,浅草橋５丁目２４－８－５０３クリオ浅草橋,,13,106,1110053,,,,,,,2024-10-01,1,,,,,ノコロジー,0
267,2010601065983,新規,0,2024-10-01,2024-10-01,株式会社ＯＦＦ,,株式会社,東京都,江東区,豊洲１丁目３番１－２１０３,,13,108,1350061,,,,,,,2024-10-01,1,,,,,オフ,0
283,2011001164871,新規,0,2024-10-01,2024-10-01,ｓｏ株式会社,,株式会社,東京都,渋谷区,渋谷２丁目１９－１５宮益坂ビルディング６０９,,13,113,1500002,,,,,,,2024-10-01,1,,,,,ソー,0
284,2011001164905,新規,0,2024-10-01,2024-10-01,株式会社ブルー,,株式会社,東京都,目黒区,中根２丁目１１番１４号アパートメントハウス中根１０１,,13,110,1520031,,,,,,,2024-10-01,1,,,,,ブルー,0
287,2011003020098,新規,0,2024-10-01,2024-10-01,ツムギソウ合同会社,,合同会社,東京都,渋谷区,本町４丁目１４番７号,,13,113,1510071,,,,,,,2024-10-01,1,,,,,ツムギソウ,0
288,2011003020107,新規,0,2024-10-01,2024-10-01,ＲｅＭｉｌｉｓｓ合同会社,,合同会社,東京都,目黒区,中根２丁目１３番１２号マナミリヨン２０２,,13,110,1520031,,,,,,,2024-10-01,1,,,,,リミリス,0
294,2011101108935,新規,0,2024-10-01,2024-10-01,株式会社ｓｑｕａｒｅ,,株式会社,東京都,新宿区,新宿１丁目２４番１号大塚ビル２Ｆ,,13,104,1600022,,,,,,,2024-10-01,1,,,,,スクエア,0
295,2011101108992,新規,0,2024-10-01,2024-10-01,株式会社ｓｔｕｄｉｏＯＤ,,株式会社,東京都,新宿区,西新宿３丁目３番１３号西新宿水間ビル２Ｆ,,13,104,1600023,,,,,,,2024-10-01,1,,,,,スタジオオーディー,0
298,2011501031183,新規,0,2024-10-01,2024-10-01,株式会社ミーア,,株式会社,東京都,荒川区,町屋１丁目５－３－１２０１,,13,118,1160001,,,,,,,2024-10-01,1,,,,,ミーア,0
299,2011501031191,新規,0,2024-10-01,2024-10-01,浩豊株式会社,,株式会社,東京都,北区,十条仲原１丁目３－５鈴木ビル２０５号室,,13,117,1140031,,,,,,,2024-10-01,1,,,,,コウホウ,0
308,2013301053151,新規,0,2024-10-01,2024-10-01,株式会社ＲＩＶＥＲ　ＨＯＰＥ,,株式会社,東京都,豊島区,高田３丁目３６番４号ＳＵＮＲＩＳＥビル１０３号室,,13,116,1710033,,,,,,,2024-10-01,1,,,,,リバーホープ,0
314,2020001159303,新規,0,2024-10-01,2024-10-01,株式会社スマイルクラフト,,株式会社,神奈川県,横浜市旭区,三反田町１４３－１,,14,112,2410013,,,,,,,2024-10-01,1,,,,,スマイルクラフト,0
315,2020001159419,新規,0,2024-10-01,2024-10-01,株式会社ビタハウジング,,株式会社,神奈川県,川崎市麻生区,細山４丁目１４番３号,,14,137,2150001,,,,,,,2024-10-01,1,,,,,ビタハウジング,0
317,2020003026971,新規,0,2024-10-01,2024-10-01,合同会社ＰＬＵＳ,,合同会社,神奈川県,川崎市川崎区,砂子２丁目１０番地２カワサキミッドマークタワー１００４,,14,131,2100006,,,,,,,2024-10-01,1,,,,,プラス,0
318,2020005016558,新規,0,2024-10-01,2024-10-01,一般社団法人花の雲,,その他の設立登記法人,神奈川県,横浜市中区,滝之上４番地３０５号室,,14,104,2310837,,,,,,,2024-10-01,1,,,,,ハナノクモ,0
325,2030001162677,新規,0,2024-10-01,2024-10-01,株式会社饗庭工業,,株式会社,埼玉県,蓮田市,東６丁目４番２６号ＢｉｇＵハイツ１０２号,,11,238,3490111,,,,,,,2024-10-01,1,,,,,アイバコウギョウ,0
326,2030001162702,新規,0,2024-10-01,2024-10-01,株式会社東方善水,,株式会社,埼玉県,川口市,江戸３丁目３１番１号,,11,203,3340074,,,,,,,2024-10-01,1,,,,,トウホウゼンスイ,0
330,2030003025147,新規,0,2024-10-01,2024-10-01,合同会社ＬｉｎｋＡｐｐ,,合同会社,埼玉県,川口市,並木１丁目２番２号,,11,203,3320034,,,,,,,2024-10-01,1,,,,,リンクアップ,0
331,2030003025196,新規,0,2024-10-01,2024-10-01,合同会社国際興業,,合同会社,埼玉県,さいたま市南区,曲本５丁目１番２号１０２,,11,108,3360033,,,,,,,2024-10-01,1,,,,,コクサイコウギョウ,0
332,2030003025205,新規,0,2024-10-01,2024-10-01,一開発合同会社,,合同会社,埼玉県,狭山市,狭山台４丁目２２番地の１,,11,215,3501304,,,,,,,2024-10-01,1,,,,,ハジメカイハツ,0
333,2030003025213,新規,0,2024-10-01,2024-10-01,合同会社ＦＵＫＡＴＡ,,合同会社,埼玉県,越谷市,宮本町３丁目１３０,,11,222,3430806,,,,,,,2024-10-01,1,,,,,フカタ,0
337,2040001135541,新規,0,2024-10-01,2024-10-01,ＡＭＡＮＯＯ　ＡＤ株式会社,,株式会社,千葉県,柏市,小青田１丁目１番２２号ジョイア２０３号室,,12,217,2770803,,,,,,,2024-10-01,1,,,,,アマノーアド,0
338,2040001135574,新規,0,2024-10-01,2024-10-01,株式会社ｍｙ　Ｓｔｏｒｙ,,株式会社,千葉県,浦安市,富士見３丁目２３番３７号,,12,227,2790043,,,,,,,2024-10-01,1,,,,,マイストーリー,0
339,2040001135599,新規,0,2024-10-01,2024-10-01,Ｙ＆Ｔ株式会社,,株式会社,千葉県,市原市,君塚３丁目２０番地２５,,12,219,2900051,,,,,,,2024-10-01,1,,,,,ワイアンドティー,0
344,2040003025856,新規,0,2024-10-01,2024-10-01,合同会社ピアーチェエンタープライズ,,合同会社,千葉県,成田市,囲護台１１０１番地８月香館１０１,,12,211,2860035,,,,,,,2024-10-01,1,,,,,ピアーチェエンタープライズ,0
350,2070001042215,新規,0,2024-10-01,2024-10-01,株式会社うすい高等部,,株式会社,群馬県,高崎市,栄町６番４３号,,10,202,3700841,,,,,,,2024-10-01,1,,,,,ウスイコウトウブ,0
353,2070003005590,新規,0,2024-10-01,2024-10-01,合同会社ＭＥＲＵＭＡ　ＣＯＲＰＯＲＡＴＩＯＮ,,合同会社,群馬県,桐生市,東久方町２丁目５番３２号２０Ｂ号室,,10,203,3760053,,,,,,,2024-10-01,1,,,,,メルマコーポレーション,0
357,2080103003155,新規,0,2024-10-01,2024-10-01,合同会社ブロンズ,,合同会社,静岡県,沼津市,根古屋１６７番地の１４,,22,203,4100309,,,,,,,2024-10-01,1,,,,,ブロンズ,0
360,2080403005108,新規,0,2024-10-01,2024-10-01,スターネオ合同会社,,合同会社,静岡県,浜松市中央区,天王町１２８３番地の１,,22,138,4350052,,,,,,,2024-10-01,1,,,,,スターネオ,0
366,2110001038729,新規,0,2024-10-01,2024-10-01,株式会社ＹＯＨＡＫＵ,,株式会社,新潟県,佐渡市,蚫２１０,,15,224,9520851,,,,,,,2024-10-01,1,,,,,ヨハク,0
374,2120001268829,新規,0,2024-10-01,2024-10-01,株式会社Ｇｏｌｄ　Ｒｅｃｔ,,株式会社,大阪府,大阪市中央区,南本町２丁目６番５号ファースト船場ビル６０９,,27,128,5410054,,,,,,,2024-10-01,1,,,,,ゴールドレクト,0
375,2120001268837,新規,0,2024-10-01,2024-10-01,株式会社フェニックス,,株式会社,大阪府,大阪市東成区,東小橋３丁目１番１５号,,27,115,5370024,,,,,,,2024-10-01,1,,,,,フェニックス,0
376,2120001268861,新規,0,2024-10-01,2024-10-01,株式会社いま,,株式会社,大阪府,大阪市北区,浮田２丁目５－２７,,27,127,5300021,,,,,,,2024-10-01,1,,,,,イマ,0
377,2120001268878,新規,0,2024-10-01,2024-10-01,株式会社スリーアイ・ビー,,株式会社,大阪府,大阪市北区,豊崎１丁目１０－６グランヴィラッセ３０３,,27,127,5310072,,,,,,,2024-10-01,1,,,,,スリーアイビー,0
378,2120001268886,新規,0,2024-10-01,2024-10-01,ホロムアコンサルティング株式会社,,株式会社,大阪府,大阪市北区,東天満２丁目９番４号千代田ビル東館２０２,,27,127,5300044,,,,,,,2024-10-01,1,,,,,ホロムアコンサルティング,0
386,2120003027563,新規,0,2024-10-01,2024-10-01,ｇｉｖｅｓｗｅｅｔｓ合同会社,,合同会社,大阪府,寝屋川市,石津元町２－２８,,27,215,5720025,,,,,,,2024-10-01,1,,,,,ギブスイーツ,0
387,2120003027638,新規,0,2024-10-01,2024-10-01,サクラステイ合同会社,,合同会社,大阪府,大阪市港区,磯路３丁目２－７,,27,107,5520003,,,,,,,2024-10-01,1,,,,,サクラステイ,0
392,2120101070341,新規,0,2024-10-01,2024-10-01,株式会社介護ナビ,,株式会社,大阪府,泉大津市,松之浜町２丁目３番７号,,27,206,5950072,,,,,,,2024-10-01,1,,,,,カイゴナビ,0
394,2120105009914,新規,0,2024-10-01,2024-10-01,ＮＰＯ法人リンクス,,その他の設立登記法人,大阪府,富田林市,若松町西１丁目１８６６番地３ルナコート富田林１００２号,,27,214,5840025,,,,,,,2024-10-01,1,,,,,リンクス,0
398,2120901049832,新規,0,2024-10-01,2024-10-01,株式会社ＮＫＤ,,株式会社,大阪府,豊中市,西緑丘１丁目５番１５号,,27,203,5600005,,,,,,,2024-10-01,1,,,,,エヌケーディー,0
399,2122001038492,新規,0,2024-10-01,2024-10-01,株式会社ＥＨＴ　ＭＡＮＡＧＥＭＥＮＴ,,株式会社,大阪府,東大阪市,永和２丁目１７番１８号,,27,227,5770809,,,,,,,2024-10-01,1,,,,,イーエイチティーマネジメント,0
408,2140003021135,新規,0,2024-10-01,2024-10-01,Ａｌｌ　Ｐａｃｋｓ合同会社,,合同会社,兵庫県,神戸市西区,玉津町小山一丁目１９番４０号,,28,111,6512144,,,,,,,2024-10-01,1,,,,,オールパックス,0
417,2180001163388,新規,0,2024-10-01,2024-10-01,株式会社Ｌｏ．Ｂｅａｕ,,株式会社,愛知県,名古屋市熱田区,新尾頭１丁目６番１０号第１５フクマルビル９０３号,,23,109,4560018,,,,,,,2024-10-01,1,,,,,ラボウ,0
418,2180001163405,新規,0,2024-10-01,2024-10-01,株式会社ＧＥＮ,,株式会社,愛知県,名古屋市中区,錦３丁目１１番１５号錦１０１ビル１Ｆ,,23,106,4600003,,,,,,,2024-10-01,1,,,,,ゲン,0
419,2180001163421,新規,0,2024-10-01,2024-10-01,株式会社エバーグリーンズ,,株式会社,愛知県,春日井市,六軒屋町６丁目２１９番地１,,23,206,4860842,,,,,,,2024-10-01,1,,,,,エバーグリーンズ,0
420,2180001163446,新規,0,2024-10-01,2024-10-01,マルヨコ株式会社,,株式会社,愛知県,瀬戸市,上之山町３丁目１３７番地,,23,204,4890964,,,,,,,2024-10-01,1,,,,,マルヨコ,0
432,2250005008953,新規,0,2024-10-01,2024-10-01,一般社団法人Ｓｈａｄｏｗ,,その他の設立登記法人,山口県,下松市,生野屋西２丁目３番１３号,,35,207,7440032,,,,,,,2024-10-01,1,,,,,シャドー,0
435,2260001039464,新規,0,2024-10-01,2024-10-01,株式会社サンニ,,株式会社,岡山県,井原市,下出部町４７３－１,,33,207,7150022,,,,,,,2024-10-01,1,,,,,サンニ,0
436,2260001039497,新規,0,2024-10-01,2024-10-01,株式会社Ｈｉｇｈ　Ｎｅｗ　Ａｐｐｌｉｃａｔｉｏｎ,,株式会社,岡山県,岡山市北区,柳町１丁目１３－１６,,33,101,7000904,,,,,,,2024-10-01,1,,,,,ハイニューアプリケーション,0
438,2290001107350,新規,0,2024-10-01,2024-10-01,株式会社竹博メタル,,株式会社,福岡県,糟屋郡宇美町,貴船３丁目６番２８号,,40,341,8112131,,,,,,,2024-10-01,1,,,,,タケヒロメタル,0
439,2290001107367,新規,0,2024-10-01,2024-10-01,金帆株式会社,,株式会社,福岡県,福岡市博多区,吉塚１丁目２２番３７－１号１階,,40,132,8120041,,,,,,,2024-10-01,1,,,,,キンホ,0
450,2310003004873,新規,0,2024-10-01,2024-10-01,合同会社Ｔｙｐｈｏｏｎ,,合同会社,長崎県,諫早市,船越町１０７１番地２メゾンロゼ１０１号,,42,204,8540041,,,,,,,2024-10-01,1,,,,,タイフーン,0
459,2360003014331,新規,0,2024-10-01,2024-10-01,合同会社エイト企画,,合同会社,沖縄県,那覇市,繁多川３丁目３番５号プランビル繁多川５階,,47,201,9020071,,,,,,,2024-10-01,1,,,,,エイトキカク,0
460,2360005007102,新規,0,2024-10-01,2024-10-01,一般社団法人ひとつなぎ,,その他の設立登記法人,沖縄県,宜野湾市,赤道１丁目３番１１号Ｂ１,,47,205,9012205,,,,,,,2024-10-01,1,,,,,ヒトツナギ,0
461,2370001051739,新規,0,2024-10-01,2024-10-01,株式会社ＯＨＥ,,株式会社,宮城県,仙台市宮城野区,扇町１丁目５番６号,,04,102,9830034,,,,,,,2024-10-01,1,,,,,オウエ,0
462,2370001051755,新規,0,2024-10-01,2024-10-01,株式会社ＰＲ,,株式会社,宮城県,仙台市泉区,歩坂町５５番１６号,,04,105,9813106,,,,,,,2024-10-01,1,,,,,ピーアール,0
476,2430003016840,新規,0,2024-10-01,2024-10-01,ＹＵＫＩ　ＹＡＢＡＩ合同会社,,合同会社,北海道,虻田郡倶知安町,南四条西２丁目２番５８号,,01,400,0440034,,,,,,,2024-10-01,1,,,,,ユキヤバイ,0
492,3010001248527,新規,0,2024-10-01,2024-10-01,株式会社ジロール,,株式会社,東京都,文京区,小日向１丁目２３番９－１０４号,,13,105,1120006,,,,,,,2024-10-01,1,,,,,,0
493,3010001248650,新規,0,2024-10-01,2024-10-01,須永マップス株式会社,,株式会社,東京都,千代田区,紀尾井町３番１０号紀尾井町ガーデンタワー２５０４号（Ｃ／Ｏｓｈｉｍａｄａ－ｏｆｆｉｃｅ）,,13,101,1020094,,,,,,,2024-10-01,1,,,,,スナガマップス,0
498,3010401185403,新規,0,2024-10-01,2024-10-01,天祐酒商株式会社,,株式会社,東京都,港区,虎ノ門５丁目１３番１号虎ノ門４０ＭＴビル７Ｆ,,13,103,1050001,,,,,,,2024-10-01,1,,,,,テンユウシュショウ,0
499,3010401185469,新規,0,2024-10-01,2024-10-01,株式会社ＭＥＴＩＳ‐Ｔｅｃｈ,,株式会社,東京都,港区,南青山２丁目２番１５号,,13,103,1070062,,,,,,,2024-10-01,1,,,,,メーティステック,0
502,3010403033493,新規,0,2024-10-01,2024-10-01,合同会社７,,合同会社,東京都,港区,芝３丁目１４番１５－５０３号,,13,103,1050014,,,,,,,2024-10-01,1,,,,,セブン,0
503,3010403033510,新規,0,2024-10-01,2024-10-01,合同会社平久保サンセットパートナーズ,,合同会社,東京都,港区,南青山７丁目１０番３号,,13,103,1070062,,,,,,,2024-10-01,1,,,,,ヒラクボサンセットパートナーズ,0
509,3010501052957,新規,0,2024-10-01,2024-10-01,ＭＩＮＩＬＩＮＥ株式会社,,株式会社,東京都,台東区,根岸３丁目８番３－３０２号ホーユーパレス鶯谷駅前,,13,106,1100003,,,,,,,2024-10-01,1,,,,,ミニライン,0
510,3010503007579,新規,0,2024-10-01,2024-10-01,城嶋製作合同会社,,合同会社,東京都,台東区,東上野１丁目９－２,,13,106,1100015,,,,,,,2024-10-01,1,,,,,ジョウジマセイサク,0
520,3011001164887,新規,0,2024-10-01,2024-10-01,株式会社マスデジタル,,株式会社,東京都,渋谷区,道玄坂１丁目１０番８号渋谷道玄坂東急ビル２Ｆ－Ｃ,,13,113,1500043,,,,,,,2024-10-01,1,,,,,マスデジタル,0
521,3011001164895,新規,0,2024-10-01,2024-10-01,株式会社Ｌａｕｇｈｔｅｒ,,株式会社,東京都,渋谷区,広尾１丁目１番３５－３１０号,,13,113,1500012,,,,,,,2024-10-01,1,,,,,ラフター,0
522,3011001164904,新規,0,2024-10-01,2024-10-01,株式会社ＴＷｎｅｔ,,株式会社,東京都,渋谷区,渋谷２丁目１９－１５宮益坂ビルディング６０９,,13,113,1500002,,,,,,,2024-10-01,1,,,,,ティーダブルネット,0
525,3011003020072,新規,0,2024-10-01,2024-10-01,ｏｐｕｓ合同会社,,合同会社,東京都,渋谷区,渋谷２丁目１９－１５宮益坂ビルディング６０９,,13,113,1500002,,,,,,,2024-10-01,1,,,,,オーパス,0
526,3011003020106,新規,0,2024-10-01,2024-10-01,合同会社全国農業再興推進研究開発機構,,合同会社,東京都,目黒区,鷹番１丁目１番５号４階,,13,110,1520004,,,,,,,2024-10-01,1,,,,,ゼンコクノウギョウサイコウスイシンケンキュウカイハツキコウ,0
529,3011101108570,新規,0,2024-10-01,2024-10-01,株式会社ＮＥＲＬＡ,,株式会社,東京都,新宿区,西新宿３丁目３番１３号西新宿水間ビル２Ｆ,,13,104,1600023,,,,,,,2024-10-01,1,,,,,ネルラ,0
530,3011101108934,新規,0,2024-10-01,2024-10-01,百年美人株式会社,,株式会社,東京都,新宿区,新宿１丁目２４番１号大塚ビル２Ｆ,,13,104,1600022,,,,,,,2024-10-01,1,,,,,ヒャクネンビジン,0
531,3011101108967,新規,0,2024-10-01,2024-10-01,株式会社門塀,,株式会社,東京都,新宿区,西新宿３丁目３番１３号西新宿水間ビル６階,,13,104,1600023,,,,,,,2024-10-01,1,,,,,モンペイ,0
535,3011201025815,新規,0,2024-10-01,2024-10-01,株式会社おたやＨＤ,,株式会社,東京都,中野区,野方５丁目３番１号野方ＷＩＺ２０５,,13,114,1650027,,,,,,,2024-10-01,1,,,,,オタヤホールディングス,0
540,3011401026464,新規,0,2024-10-01,2024-10-01,株式会社Ｎｕｄｇｅ,,株式会社,東京都,板橋区,板橋２丁目６４番１３号Ｙ＆Ｉビル４０１号,,13,119,1730004,,,,,,,2024-10-01,1,,,,,ナッジ,0
544,3011803006469,新規,0,2024-10-01,2024-10-01,合同会社大粋,,合同会社,東京都,葛飾区,東金町１丁目２７番１号,,13,122,1250041,,,,,,,2024-10-01,1,,,,,ダイキ,0
546,3011805003398,新規,0,2024-10-01,2024-10-01,医療法人社団育菜会,,その他の設立登記法人,東京都,葛飾区,立石１丁目１５番５号みずほメディカルモール４階,,13,122,1240012,,,,,,,2024-10-01,1,,,,,イクナカイ,0
555,3013301053150,新規,0,2024-10-01,2024-10-01,吉祥株式会社,,株式会社,東京都,豊島区,目白５丁目８番１９号吉祥ビル１０１,,13,116,1710031,,,,,,,2024-10-01,1,,,,,キッショウ,0
565,3020001159310,新規,0,2024-10-01,2024-10-01,ＹＴＹＧ投資事業株式会社,,株式会社,神奈川県,横浜市中区,山下町１番地Ｍ２０５Ｂ,,14,104,2310023,,,,,,,2024-10-01,1,,,,,ワイティーワイジートウシジギョウ,0
572,3030001162676,新規,0,2024-10-01,2024-10-01,株式会社勝商事,,株式会社,埼玉県,上尾市,大字大谷本郷５７９－６,,11,219,3620044,,,,,,,2024-10-01,1,,,,,マサルショウジ,0
577,3030003025204,新規,0,2024-10-01,2024-10-01,リズムエコー合同会社,,合同会社,埼玉県,川越市,大字小ケ谷２４４番地６（第２コヤノハイツ１０２号室）,,11,201,3501104,,,,,,,2024-10-01,1,,,,,リズムエコー,0
583,3040001135540,新規,0,2024-10-01,2024-10-01,おにわがかり株式会社,,株式会社,千葉県,松戸市,横須賀２丁目１３番地の３,,12,207,2700031,,,,,,,2024-10-01,1,,,,,オニワガカリ,0
584,3040001135549,新規,0,2024-10-01,2024-10-01,株式会社ノアハナ,,株式会社,千葉県,松戸市,五香１丁目１５番５号,,12,207,2702213,,,,,,,2024-10-01,1,,,,,ノアハナ,0
585,3040001135581,新規,0,2024-10-01,2024-10-01,株式会社Ｌｕｍｉｎｏｕｓ,,株式会社,千葉県,千葉市花見川区,作新台７丁目７番１５号,,12,102,2620045,,,,,,,2024-10-01,1,,,,,ルミナス,0
593,3050001055473,新規,0,2024-10-01,2024-10-01,ＭＩＲＲＯＲ株式会社,,株式会社,茨城県,水戸市,泉町３丁目７－３０,,08,201,3100026,,,,,,,2024-10-01,1,,,,,ミラー,0
594,3050003008693,新規,0,2024-10-01,2024-10-01,合同会社みどり開発,,合同会社,茨城県,坂東市,辺田１５２４番地５－１０１号室,,08,228,3060632,,,,,,,2024-10-01,1,,,,,ミドリカイハツ,0
595,3070001042214,新規,0,2024-10-01,2024-10-01,株式会社うすい学園,,株式会社,群馬県,高崎市,岩押町２１番２号,,10,202,3700044,,,,,,,2024-10-01,1,,,,,ウスイガクエン,0
596,3080001026513,新規,0,2024-10-01,2024-10-01,株式会社ＨＩＮＯＤＥ,,株式会社,静岡県,焼津市,焼津２丁目４番２３号,,22,212,4250026,,,,,,,2024-10-01,1,,,,,ヒノデ,0
599,3080103003154,新規,0,2024-10-01,2024-10-01,ｍｉｎａｍｏ合同会社,,合同会社,静岡県,三島市,初音台１３番地の１０,,22,206,4110018,,,,,,,2024-10-01,1,,,,,ミナモ,0
602,3100001037887,新規,0,2024-10-01,2024-10-01,株式会社アイレイル,,株式会社,長野県,松本市,沢村１丁目１３－６,,20,202,3900877,,,,,,,2024-10-01,1,,,,,アイレイル,0
604,3110001038728,新規,0,2024-10-01,2024-10-01,株式会社エネクト,,株式会社,新潟県,長岡市,川袋町７４２‐５,,15,202,9402463,,,,,,,2024-10-01,1,,,,,エネクト,0
612,3120001268828,新規,0,2024-10-01,2024-10-01,清泉株式会社,,株式会社,大阪府,大阪市住之江区,粉浜１丁目３番２５－２０３号,,27,125,5590001,,,,,,,2024-10-01,1,,,,,セイセン,0
613,3120001268844,新規,0,2024-10-01,2024-10-01,株式会社Ｍｉｋｕｒｉｙａ　Ｍｅｄｉｃａｌ　Ａｓｓｏｃｉａｔｉｏｎ,,株式会社,大阪府,大阪市淀川区,西中島３丁目２２番２０号,,27,123,5320011,,,,,,,2024-10-01,1,,,,,ミクリヤメディカルアソシエーション,0
614,3120001268877,新規,0,2024-10-01,2024-10-01,株式会社スリー,,株式会社,大阪府,大阪市東住吉区,駒川１丁目１５番４－１００７号,,27,121,5460043,,,,,,,2024-10-01,1,,,,,スリー,0
617,3120003027620,新規,0,2024-10-01,2024-10-01,ＬＥＡＬＥ合同会社,,合同会社,大阪府,大阪市北区,芝田２丁目８番１１号共栄ビル３階,,27,127,5300012,,,,,,,2024-10-01,1,,,,,レアーレ,0
618,3120003027629,新規,0,2024-10-01,2024-10-01,合同会社ＭＹＳＳ,,合同会社,大阪府,大阪市中央区,南船場３丁目２番２２－２０５号,,27,128,5420081,,,,,,,2024-10-01,1,,,,,エムワイエスエス,0
619,3120105009913,新規,0,2024-10-01,2024-10-01,一般社団法人みんなの福祉研究所,,その他の設立登記法人,大阪府,堺市中区,福田１１８３番地１,,27,142,5998241,,,,,,,2024-10-01,1,,,,,ミンナノフクシケンキュウショ,0
628,3140001135927,新規,0,2024-10-01,2024-10-01,株式会社オフィスＬｅｅ,,株式会社,兵庫県,神戸市兵庫区,湊町３丁目１番１０－７０４号,,28,105,6520812,,,,,,,2024-10-01,1,,,,,オフィスリー,0
642,3180001163387,新規,0,2024-10-01,2024-10-01,株式会社ティアラ,,株式会社,愛知県,小牧市,桜井本町３６番地,,23,219,4850043,,,,,,,2024-10-01,1,,,,,ティアラ,0
643,3180001163395,新規,0,2024-10-01,2024-10-01,株式会社Ｕ．Ｍ．Ｐ,,株式会社,愛知県,名古屋市東区,泉１丁目１７番３９‐４０２号,,23,102,4610001,,,,,,,2024-10-01,1,,,,,ユーエムピー,0
644,3180001163412,新規,0,2024-10-01,2024-10-01,株式会社ＭＡＣプロモーションＨＤ,,株式会社,愛知県,名古屋市北区,金城町２丁目２５番２,,23,103,4620047,,,,,,,2024-10-01,1,,,,,マックプロモーションホールディングス,0
647,3180003027391,新規,0,2024-10-01,2024-10-01,ヌート合同会社,,合同会社,愛知県,名古屋市中村区,名駅４丁目２４番５号第２森ビル４０１,,23,105,4500002,,,,,,,2024-10-01,1,,,,,ヌート,0
650,3190001031675,新規,0,2024-10-01,2024-10-01,株式会社ＳＢトップ,,株式会社,三重県,津市,神納４０３番地,,24,201,5140054,,,,,,,2024-10-01,1,,,,,エスビートップ,0
660,3230003002307,新規,0,2024-10-01,2024-10-01,Ｌ　ＮＯＡＨ合同会社,,合同会社,富山県,富山市,下奥井１丁目１２番３４号,,16,201,9300817,,,,,,,2024-10-01,1,,,,,エルノア,0
661,3240003006876,新規,0,2024-10-01,2024-10-01,ひ日美合同会社,,合同会社,広島県,尾道市,美ノ郷町三成１１７６－１,,34,205,7220215,,,,,,,2024-10-01,1,,,,,ヒビミ,0
668,3280001009266,新規,0,2024-10-01,2024-10-01,井野下建築株式会社,,株式会社,島根県,邑智郡邑南町,日貫３６６６番地１７,,32,449,6994311,,,,,,,2024-10-01,1,,,,,イノシタケンチク,0
672,3290001107341,新規,0,2024-10-01,2024-10-01,株式会社西日本新聞エリアセンター原北,,株式会社,福岡県,福岡市早良区,小田部２丁目１２番８号,,40,137,8140032,,,,,,,2024-10-01,1,,,,,ニシニホンシンブンエリアセンターハラキタ,0
673,3290001107358,新規,0,2024-10-01,2024-10-01,株式会社ＥＡＲＴＨ,,株式会社,福岡県,うきは市,吉井町１８－１０,,40,225,8391321,,,,,,,2024-10-01,1,,,,,アース,0
674,3290001107399,新規,0,2024-10-01,2024-10-01,株式会社誠心工業,,株式会社,福岡県,福岡市博多区,西月隈５丁目１２番２２－１０１号,,40,132,8120857,,,,,,,2024-10-01,1,,,,,セイシンコウギョウ,0
675,3290003015848,新規,0,2024-10-01,2024-10-01,ワイム合同会社,,合同会社,福岡県,宗像市,須恵４丁目２番１２号,,40,220,8113405,,,,,,,2024-10-01,1,,,,,ワイム,0
676,3290003015864,新規,0,2024-10-01,2024-10-01,合同会社Ｙｏｓｈｉｏ　Ｈｉｒｏｓｈｉ　Ａｔｅｌｉｅｒ,,合同会社,福岡県,福岡市南区,平和１丁目２３番１３－５０６号,,40,134,8150071,,,,,,,2024-10-01,1,,,,,ヨシオヒロシアトリエ,0
681,3310001019220,新規,0,2024-10-01,2024-10-01,ＳＦエンジ株式会社,,株式会社,長崎県,諫早市,永昌東町１－１,,42,204,8540071,,,,,,,2024-10-01,1,,,,,エスエフエンジ,0
687,3340003004614,新規,0,2024-10-01,2024-10-01,ｈｏｐｅ合同会社,,合同会社,鹿児島県,鹿児島市,谷山中央２丁目６７５－１シャイニー谷山中央９０１,,46,201,8910141,,,,,,,2024-10-01,1,,,,,ホープ,0
703,3390005009086,新規,0,2024-10-01,2024-10-01,一般社団法人いいで農村未来研究所,,その他の設立登記法人,山形県,西置賜郡飯豊町,大字萩生１４９９番地の５,,06,403,9990602,,,,,,,2024-10-01,1,,,,,イイデノウソンミライケンキュウショ,0
707,3430003016831,新規,0,2024-10-01,2024-10-01,合同会社佰泉パートナーズ,,合同会社,北海道,札幌市東区,北丘珠三条１丁目１３番８号,,01,103,0070883,,,,,,,2024-10-01,1,,,,,ハクセンパートナーズ,0
710,3470001020352,新規,0,2024-10-01,2024-10-01,株式会社８０８,,株式会社,香川県,坂出市,林田町３０２２番地１,,37,203,7620012,,,,,,,2024-10-01,1,,,,,ハチマルハチ,0
720,4010001248633,新規,0,2024-10-01,2024-10-01,株式会社Ｒｉｚｅ　Ａｌｌｉａｎｃｅ,,株式会社,東京都,中央区,銀座１丁目２２番１１号銀座大竹ビジデンス２Ｆ,,13,102,1040061,,,,,,,2024-10-01,1,,,,,ライズアライアンス,0
721,4010001248658,新規,0,2024-10-01,2024-10-01,株式会社Ｂｒｉｌｌｉａｎｔ　Ｍｏｍｅｎｔ,,株式会社,東京都,中央区,銀座１丁目２２番１１号２Ｆ,,13,102,1040061,,,,,,,2024-10-01,1,,,,,ブリリアントモーメント,0
724,4010003045070,新規,0,2024-10-01,2024-10-01,合同会社ＧＢＡ　Ｉｎｖｅｓｔｍｅｎｔｓ,,合同会社,東京都,千代田区,丸の内１丁目４番１号東京共同会計事務所内,,13,101,1000005,,,,,,,2024-10-01,1,,,,,ジービーエーインベストメンツ,0
734,4010401185344,新規,0,2024-10-01,2024-10-01,ＯＮ　ＡＦＲＩＣＡ株式会社,,株式会社,東京都,港区,浜松町１丁目２８－１４マルソルビル２Ｆ,,13,103,1050013,,,,,,,2024-10-01,1,,,,,オンアフリカ,0
735,4010401185410,新規,0,2024-10-01,2024-10-01,株式会社ＣＵＬＬＩＮＡＮ,,株式会社,東京都,港区,赤坂３丁目１１番１３－４階,,13,103,1070052,,,,,,,2024-10-01,1,,,,,カリナン,0
738,4010501052964,新規,0,2024-10-01,2024-10-01,株式会社星屑,,株式会社,東京都,台東区,上野３丁目１６番２号,,13,106,1100005,,,,,,,2024-10-01,1,,,,,ホシクズ,0
746,4010705003680,新規,0,2024-10-01,2024-10-01,一般社団法人歯科医師医療経営サポート機構,,その他の設立登記法人,東京都,品川区,東大井５丁目２１番９号,,13,109,1400011,,,,,,,2024-10-01,1,,,,,,0
752,4010901056037,新規,0,2024-10-01,2024-10-01,株式会社ＹＵＲＡＧＩ,,株式会社,東京都,世田谷区,豪徳寺２丁目１１番４号,,13,112,1540021,,,,,,,2024-10-01,1,,,,,ユラギ,0
755,4011001164861,新規,0,2024-10-01,2024-10-01,株式会社Ｃｌａｓｓ３Ｍ,,株式会社,東京都,渋谷区,神宮前６丁目２３番４号桑野ビル２階,,13,113,1500001,,,,,,,2024-10-01,1,,,,,クラススリーエム,0
756,4011001164886,新規,0,2024-10-01,2024-10-01,株式会社ｐｉｃｓ,,株式会社,東京都,渋谷区,神泉町１０番１５号アネックス神泉３０１,,13,113,1500045,,,,,,,2024-10-01,1,,,,,ピックス,0
758,4011003020047,新規,0,2024-10-01,2024-10-01,Ｎ２合同会社,,合同会社,東京都,渋谷区,渋谷２丁目１９‐１５宮益坂ビルディング６０９,,13,113,1500002,,,,,,,2024-10-01,1,,,,,エヌツー,0
759,4011003020088,新規,0,2024-10-01,2024-10-01,合同会社アルケミストパートナーズ,,合同会社,東京都,渋谷区,恵比寿西２丁目８番４号ＥＸ恵比寿西ビル５階,,13,113,1500021,,,,,,,2024-10-01,1,,,,,アルケミストパートナーズ,0
762,4011101108925,新規,0,2024-10-01,2024-10-01,株式会社ＲＯＣＯＭＯＣＯ,,株式会社,東京都,新宿区,荒木町一丁目２番,,13,104,1600007,,,,,,,2024-10-01,1,,,,,ロコモコ,0
765,4011201025822,新規,0,2024-10-01,2024-10-01,株式会社ＫＩＳＥＴＳＵ　ＴＯＫＹＯ,,株式会社,東京都,中野区,東中野３丁目１２番１３号,,13,114,1640003,,,,,,,2024-10-01,1,,,,,キセツトーキョー,0
766,4011403004517,新規,0,2024-10-01,2024-10-01,Ｍ’ｓアンドパートナー合同会社,,合同会社,東京都,板橋区,坂下２丁目１番２３－１１５号プレミスト志村三丁目,,13,119,1740043,,,,,,,2024-10-01,1,,,,,エムズアンドパートナー,0
774,4012403006767,新規,0,2024-10-01,2024-10-01,合同会社ＡＫ．１,,合同会社,東京都,武蔵野市,中町３丁目３番６号チサンマンション武蔵野２０７,,13,203,1800006,,,,,,,2024-10-01,1,,,,,エーケーワン,0
782,4021001083359,新規,0,2024-10-01,2024-10-01,株式会社Ｃｏｍｐａｓｓ　ａｃｃｏｕｎｔｉｎｇ,,株式会社,神奈川県,逗子市,久木８丁目６番３９号,,14,208,2490001,,,,,,,2024-10-01,1,,,,,コンパスアカウンティング,0
783,4021001083367,新規,0,2024-10-01,2024-10-01,株式会社ＲＡＳＨｉＫＵ,,株式会社,神奈川県,平塚市,代官町２６番４サンメゾン平塚代官町２０４,,14,203,2540807,,,,,,,2024-10-01,1,,,,,ラシク,0
793,4030001162659,新規,0,2024-10-01,2024-10-01,Ｂｅａｕｔｙ　Ｌｉｆｅ株式会社,,株式会社,埼玉県,草加市,金明町４８４－１－２１３号室,,11,221,3400052,,,,,,,2024-10-01,1,,,,,ビューティーライフ,0
794,4030001162683,新規,0,2024-10-01,2024-10-01,ＫＩＮＧ　ＧＲＯＵＰ株式会社,,株式会社,埼玉県,さいたま市見沼区,東大宮４丁目１５番９号１Ｆ,,11,104,3370051,,,,,,,2024-10-01,1,,,,,キンググループ,0
795,4030001162691,新規,0,2024-10-01,2024-10-01,和優良品株式会社,,株式会社,埼玉県,川越市,富士見町３１－３８ウインベルソロ川越第六・５０８号,,11,201,3500033,,,,,,,2024-10-01,1,,,,,ワユウリョウヒン,0
796,4030001162700,新規,0,2024-10-01,2024-10-01,株式会社クールズ,,株式会社,埼玉県,富士見市,水谷東３丁目２０番１号,,11,235,3540013,,,,,,,2024-10-01,1,,,,,クールズ,0
800,4030003025178,新規,0,2024-10-01,2024-10-01,Ｍｕｓｔｏｆａ　ｓｕｐｅｒ　ｆｏｏｄ合同会社,,合同会社,埼玉県,蕨市,南町３丁目５－１５パーク２１・１０３号室,,11,223,3350003,,,,,,,2024-10-01,1,,,,,ムストファスーパーフード,0
801,4030003025203,新規,0,2024-10-01,2024-10-01,合同会社マリア,,合同会社,埼玉県,越谷市,新越谷１丁目１７番地７－４０１号,,11,222,3430857,,,,,,,2024-10-01,1,,,,,マリア,0
804,4040001135548,新規,0,2024-10-01,2024-10-01,株式会社アポロギア,,株式会社,千葉県,長生郡長柄町,徳増３１５番地,,12,426,2970213,,,,,,,2024-10-01,1,,,,,アポロギア,0
805,4040001135572,新規,0,2024-10-01,2024-10-01,株式会社ｎｉｃｏ．ｃｏｍ,,株式会社,千葉県,野田市,中野台１９５－１８,,12,208,2780035,,,,,,,2024-10-01,1,,,,,ニコドットコム,0
806,4040001135580,新規,0,2024-10-01,2024-10-01,ＭＡＹＤＯ株式会社,,株式会社,千葉県,市川市,二俣１丁目１－１２－２０４号サンプラザ市川第２,,12,203,2720001,,,,,,,2024-10-01,1,,,,,メードー,0
810,4060001037528,新規,0,2024-10-01,2024-10-01,株式会社ｂａｌａｎｃｅ,,株式会社,栃木県,宇都宮市,大通り４丁目１番２２号,,09,201,3200811,,,,,,,2024-10-01,1,,,,,バランス,0
820,4080403005106,新規,0,2024-10-01,2024-10-01,ＤｒｏｎｅＥｉｋｙｕＲｉｓｅ合同会社,,合同会社,静岡県,浜松市浜名区,染地台３丁目２番４０号,,22,139,4340046,,,,,,,2024-10-01,1,,,,,ドローンエイキュウライズ,0
821,4100001037878,新規,0,2024-10-01,2024-10-01,株式会社ＳＨＩＧＥ,,株式会社,長野県,上伊那郡辰野町,大字平出１７９２番地２,,20,382,3990422,,,,,,,2024-10-01,1,,,,,シゲ,0
833,4120001268819,新規,0,2024-10-01,2024-10-01,ＧＯＫＵ株式会社,,株式会社,大阪府,大阪市西成区,太子２丁目２番２０号１０２号室,,27,122,5570002,,,,,,,2024-10-01,1,,,,,ゴク,0
834,4120001268843,新規,0,2024-10-01,2024-10-01,ｓｐｅｃｔｒｏｎ株式会社,,株式会社,大阪府,大阪市北区,梅田２丁目２番２号ヒルトンプラザウエスト４階ＧＲＡＮＭＡＳＨ内,,27,127,5300001,,,,,,,2024-10-01,1,,,,,スペクトロン,0
835,4120001268851,新規,0,2024-10-01,2024-10-01,ダイドードリンコインターナショナル株式会社,,株式会社,大阪府,大阪市北区,中之島２丁目２番７号,,27,127,5300005,,,,,,,2024-10-01,1,,,,,ダイドードリンコインターナショナル,0
836,4120001268868,新規,0,2024-10-01,2024-10-01,株式会社仁道,,株式会社,大阪府,寝屋川市,池田本町２０番３６号楽ガレ１号室,,27,215,5720030,,,,,,,2024-10-01,1,,,,,ジンドウ,0
837,4120001268876,新規,0,2024-10-01,2024-10-01,ＣＲ　ＯＮＥ株式会社,,株式会社,大阪府,大阪市生野区,巽北１丁目２１－２９－１１６,,27,116,5440004,,,,,,,2024-10-01,1,,,,,シーアールワン,0
838,4120001268884,新規,0,2024-10-01,2024-10-01,株式会社ファイトジャパン,,株式会社,大阪府,大阪市平野区,西脇３丁目７番２８号,,27,126,5470035,,,,,,,2024-10-01,1,,,,,ファイトジャパン,0
839,4120001268901,新規,0,2024-10-01,2024-10-01,株式会社ｖａｌｕｅ４８１,,株式会社,大阪府,大阪市北区,梅田１丁目２番２号大阪駅前第２ビル１２－１２,,27,127,5300001,,,,,,,2024-10-01,1,,,,,バリュフォー,0
840,4120001268918,新規,0,2024-10-01,2024-10-01,株式会社テイストリバー,,株式会社,大阪府,守口市,南寺方南通２丁目１６番２２号,,27,209,5700044,,,,,,,2024-10-01,1,,,,,テイストリバー,0
842,4120003027636,新規,0,2024-10-01,2024-10-01,ＹＡＳＵ合同会社,,合同会社,大阪府,大阪市阿倍野区,北畠３丁目１１－１９,,27,119,5450035,,,,,,,2024-10-01,1,,,,,ヤス,0
849,4120901049830,新規,0,2024-10-01,2024-10-01,株式会社Ｋｏｐｆｋｉｎｏ,,株式会社,大阪府,高槻市,芥川町２丁目８番２２－８０５号,,27,207,5691123,,,,,,,2024-10-01,1,,,,,コップフキーノ,0
850,4122001038482,新規,0,2024-10-01,2024-10-01,株式会社大雅電気,,株式会社,大阪府,八尾市,上尾町２丁目１６番１０号,,27,212,5810851,,,,,,,2024-10-01,1,,,,,ヒロマサデンキ,0
856,4130001078060,新規,0,2024-10-01,2024-10-01,スモールイノベーション株式会社,,株式会社,京都府,京都市下京区,新町通り下る四条町３６６四条敷島ビル１階閑居ｒｏｏｍ２,,26,106,6000000,,,,,,,2024-10-01,1,,,,,スモールイノベーション,0
857,4130003009889,新規,0,2024-10-01,2024-10-01,合同会社Ｍ．Ｆ．ｌｉｎｋ,,合同会社,京都府,向日市,鶏冠井町草田３４番地の８,,26,208,6170004,,,,,,,2024-10-01,1,,,,,エムエフリンク,0
858,4130003009897,新規,0,2024-10-01,2024-10-01,ＳＵＰＥＲ　ＴＩＧＥＲ合同会社,,合同会社,京都府,京都市中京区,天神山町２８０石勘ビル４Ｆ,,26,104,6048221,,,,,,,2024-10-01,1,,,,,スーパータイガー,0
871,4180001163394,新規,0,2024-10-01,2024-10-01,株式会社Ｂｅユニーク,,株式会社,愛知県,名古屋市名東区,小井堀町１００１番地ユニーブル藤ヶ丘サウスパーク１０３号,,23,115,4650044,,,,,,,2024-10-01,1,,,,,ビーユニーク,0
872,4180001163411,新規,0,2024-10-01,2024-10-01,ＳＥＥＤ株式会社,,株式会社,愛知県,名古屋市中区,栄２丁目８番９号クリエイトセンター伏見ビル４階Ｂ,,23,106,4600008,,,,,,,2024-10-01,1,,,,,シード,0
873,4180001163444,新規,0,2024-10-01,2024-10-01,ソーダン株式会社,,株式会社,愛知県,名古屋市中村区,名駅４丁目２４番５号第２森ビル４０１,,23,105,4500002,,,,,,,2024-10-01,1,,,,,ソーダン,0
877,4180003027408,新規,0,2024-10-01,2024-10-01,合同会社ＴＭ,,合同会社,愛知県,名古屋市中区,錦３丁目４番２５号,,23,106,4600003,,,,,,,2024-10-01,1,,,,,ティーエム,0
879,4180303006292,新規,0,2024-10-01,2024-10-01,合同会社ｉｌｉ,,合同会社,愛知県,豊川市,美和通２番地９フロンティア１０１,,23,207,4420000,,,,,,,2024-10-01,1,,,,,アイエルアイ,0
880,4190001031674,新規,0,2024-10-01,2024-10-01,ＧＲＯＵＰＥＲ株式会社,,株式会社,三重県,伊勢市,御薗町長屋６９９‐２Ｆ,,24,203,5160804,,,,,,,2024-10-01,1,,,,,グルーパー,0
883,4230003002306,新規,0,2024-10-01,2024-10-01,ＬＨＩＪＩＲＯ合同会社,,合同会社,富山県,富山市,大泉東町２丁目１６番１‐２０１号メゾン・ド・ティファニ,,16,201,9398093,,,,,,,2024-10-01,1,,,,,レイジロ,0
884,4250001020828,新規,0,2024-10-01,2024-10-01,株式会社ｍｅｃ,,株式会社,山口県,岩国市,御庄３丁目１０３番地１１,,35,208,7410083,,,,,,,2024-10-01,1,,,,,メック,0
885,4250001020836,新規,0,2024-10-01,2024-10-01,株式会社タノシー,,株式会社,山口県,山口市,小郡上郷１７５４番地１,,35,203,7540001,,,,,,,2024-10-01,1,,,,,タノシー,0
887,4260001039495,新規,0,2024-10-01,2024-10-01,株式会社ＳＮＢ企画,,株式会社,岡山県,倉敷市,西阿知町６０番地１２,,33,202,7100807,,,,,,,2024-10-01,1,,,,,エスエヌビーキカク,0
889,4260003004902,新規,0,2024-10-01,2024-10-01,合同会社ＰＬＺＡＮＴ　ＧＯＬＦ,,合同会社,岡山県,津山市,山方３４番地１,,33,203,7080813,,,,,,,2024-10-01,1,,,,,プレザントゴルフ,0
897,4290001107357,新規,0,2024-10-01,2024-10-01,株式会社照和エステート,,株式会社,福岡県,福岡市早良区,昭代１丁目１９番２０－３Ｆ,,40,137,8140012,,,,,,,2024-10-01,1,,,,,ショウワエステート,0
898,4290001107381,新規,0,2024-10-01,2024-10-01,株式会社すや,,株式会社,福岡県,糸島市,美咲が丘３丁目３番１１号,,40,230,8191136,,,,,,,2024-10-01,1,,,,,スヤ,0
914,4360005007100,新規,0,2024-10-01,2024-10-01,一般社団法人Ｔｒｕｅ,,その他の設立登記法人,沖縄県,国頭郡今帰仁村,字古宇利２３１６番地１,,47,306,9050406,,,,,,,2024-10-01,1,,,,,トゥルー,0
916,4390005009085,新規,0,2024-10-01,2024-10-01,一般社団法人伝統建築調査修復舎,,その他の設立登記法人,山形県,山形市,上桜田２丁目６番９号,,06,201,9902421,,,,,,,2024-10-01,1,,,,,デントウケンチクチョウサシュウフクシャ,0
918,4430003016830,新規,0,2024-10-01,2024-10-01,合同会社Ｋオフィス,,合同会社,北海道,江別市,大麻扇町３番地８,,01,217,0690843,,,,,,,2024-10-01,1,,,,,ケイオフィス,0
920,4460305002022,新規,0,2024-10-01,2024-10-01,無限責任更葉負債整理組合,,その他の設立登記法人,北海道,斜里郡斜里町,大字斜里村字以久科,,01,545,0994100,,,,,,,2024-10-01,1,,,,,ムゲンセキニンコウヨウ,0
927,4500001025900,新規,0,2024-10-01,2024-10-01,電テック株式会社,,株式会社,愛媛県,四国中央市,金生町山田井７４８番地２,,38,213,7990112,,,,,,,2024-10-01,1,,,,,デンテック,0
932,5010001248541,新規,0,2024-10-01,2024-10-01,湯海株式会社,,株式会社,東京都,中央区,銀座１丁目１２－４Ｎ＆ＥＢＬＤ．７階,,13,102,1040061,,,,,,,2024-10-01,1,,,,,ユカイ,0
933,5010001248649,新規,0,2024-10-01,2024-10-01,株式会社Ｍａｔｔｉａ,,株式会社,東京都,中央区,晴海３丁目１３番１－２９１６号,,13,102,1040053,,,,,,,2024-10-01,1,,,,,マッティア,0
934,5010001248657,新規,0,2024-10-01,2024-10-01,龍躍株式会社,,株式会社,東京都,文京区,白山１丁目６－４同栄マンション２階文京ＶＥＮＴＵＲＥＢＡＳＥ２２７号室,,13,105,1130001,,,,,,,2024-10-01,1,,,,,リュウヤク,0
943,5010401185384,新規,0,2024-10-01,2024-10-01,株式会社ハリソンワールド,,株式会社,東京都,港区,北青山１丁目３番１号アールキューブ青山３階,,13,103,1070061,,,,,,,2024-10-01,1,,,,,ハリソンワールド,0
944,5010401185401,新規,0,2024-10-01,2024-10-01,株式会社ＥＬＮＸ　ＴＲＡＶＥＬ,,株式会社,東京都,港区,三田５丁目２番２７号,,13,103,1080073,,,,,,,2024-10-01,1,,,,,エルナクストラベル,0
945,5010401185426,新規,0,2024-10-01,2024-10-01,アーク株式会社,,株式会社,東京都,港区,元麻布３丁目１番６号,,13,103,1060046,,,,,,,2024-10-01,1,,,,,アーク,0
952,5010703007369,新規,0,2024-10-01,2024-10-01,タルト合同会社,,合同会社,東京都,品川区,東五反田４丁目７－２９－２０１,,13,109,1410022,,,,,,,2024-10-01,1,,,,,タルト,0
955,5010901056044,新規,0,2024-10-01,2024-10-01,株式会社ＴＲＵＮＫ,,株式会社,東京都,世田谷区,太子堂３丁目３１番６号,,13,112,1540004,,,,,,,2024-10-01,1,,,,,トランク,0
957,5011001164794,新規,0,2024-10-01,2024-10-01,株式会社Ｅｘｅ．Ｇａｍｉｎｇ,,株式会社,東京都,渋谷区,代々木１丁目２－９アーバンパーク代々木３０１号室,,13,113,1510053,,,,,,,2024-10-01,1,,,,,エグゼゲーミング,0
958,5011001164885,新規,0,2024-10-01,2024-10-01,株式会社Ａｎｃｈｏｒ,,株式会社,東京都,渋谷区,桜丘町２３番１７号シティコート桜丘４０８,,13,113,1500031,,,,,,,2024-10-01,1,,,,,アンカー,0
961,5011003020095,新規,0,2024-10-01,2024-10-01,ライクホームズ合同会社,,合同会社,東京都,渋谷区,代々木４丁目２７番２８号,,13,113,1510053,,,,,,,2024-10-01,1,,,,,ライクホームズ,0
969,5011401026470,新規,0,2024-10-01,2024-10-01,ＧＭパートナーズ株式会社,,株式会社,東京都,板橋区,板橋２丁目６４番１２－１００４号,,13,119,1730004,,,,,,,2024-10-01,1,,,,,ジーエムパートナーズ,0
972,5011701027656,新規,0,2024-10-01,2024-10-01,株式会社Ｌｉｎｏ,,株式会社,東京都,江戸川区,松江７丁目２４番１５号,,13,123,1320025,,,,,,,2024-10-01,1,,,,,リノ,0
993,5020003026952,新規,0,2024-10-01,2024-10-01,合同会社クラージュ,,合同会社,神奈川県,横浜市戸塚区,下倉田町１１０５番地カネコハイツ１０２号,,14,110,2440815,,,,,,,2024-10-01,1,,,,,クラージュ,0
1003,5030001162617,新規,0,2024-10-01,2024-10-01,株式会社チカラキョウダイ,,株式会社,埼玉県,川口市,芝塚原１丁目７番２８号富士見ハイツ３０４号,,11,203,3330856,,,,,,,2024-10-01,1,,,,,チカラキョウダイ,0
1004,5030001162633,新規,0,2024-10-01,2024-10-01,株式会社ＢＩＧホールディングス,,株式会社,埼玉県,富士見市,大字鶴馬２５２３番地６,,11,235,3540021,,,,,,,2024-10-01,1,,,,,ビッグホールディングス,0
1005,5030001162674,新規,0,2024-10-01,2024-10-01,株式会社ＨＬサポート,,株式会社,埼玉県,さいたま市南区,根岸３丁目３４番６号－１０１,,11,108,3360024,,,,,,,2024-10-01,1,,,,,エイチエルサポート,0
1006,5030001162690,新規,0,2024-10-01,2024-10-01,株式会社セロトーレ,,株式会社,埼玉県,秩父郡横瀬町,大字横瀬２１４２番地４フィオーレＩ１０３号室,00136444,11,361,3680072,,,,,,,2024-10-01,1,,,,,セロトーレ,0
1008,5030003025202,新規,0,2024-10-01,2024-10-01,合同会社ＴＭＫファミーユ,,合同会社,埼玉県,蕨市,中央６丁目３番４５号,,11,223,3350004,,,,,,,2024-10-01,1,,,,,ティーエムケーファミーユ,0
1009,5030003025219,新規,0,2024-10-01,2024-10-01,ＨＡＰＰＩＮＡＣＨ合同会社,,合同会社,埼玉県,さいたま市中央区,大戸４丁目３番７－４０３号,,11,105,3380012,,,,,,,2024-10-01,1,,,,,ハピナッチ,0
1016,5040001135547,新規,0,2024-10-01,2024-10-01,億鼎電子株式会社,,株式会社,千葉県,柏市,柏インター南９番地３,,12,217,2770874,,,,,,,2024-10-01,1,,,,,オクテイデンシ,0
1017,5040001135555,新規,0,2024-10-01,2024-10-01,株式会社スギウラ,,株式会社,千葉県,柏市,南柏１丁目６番５号,,12,217,2770855,,,,,,,2024-10-01,1,,,,,スギウラ,0
1020,5040005022519,新規,0,2024-10-01,2024-10-01,一般社団法人ＣＵＣ　ＲＵＧＢＹ　ＣＬＵＢ,,その他の設立登記法人,千葉県,市川市,国府台１丁目３番１号千葉商科大学,,12,203,2720827,,,,,,,2024-10-01,1,,,,,シーユーシーラグビークラブ,0
1023,5050001055447,新規,0,2024-10-01,2024-10-01,千田株式会社,,株式会社,茨城県,つくば市,手子生３９４番地,,08,220,3002647,,,,,,,2024-10-01,1,,,,,チダ,0
1035,5090003002658,新規,0,2024-10-01,2024-10-01,アルファ小水力発電合同会社,,合同会社,山梨県,中巨摩郡昭和町,清水新居５３７番地,,19,384,4093867,,,,,,,2024-10-01,1,,,,,アルファショウスイリョクハツデン,0
1036,5100003007795,新規,0,2024-10-01,2024-10-01,合同会社ＲＡＤＩＵＳ　Ｏｎｅ,,合同会社,長野県,塩尻市,大門八番町１番２８号,,20,215,3990737,,,,,,,2024-10-01,1,,,,,レイディアスワン,0
1047,5120001268834,新規,0,2024-10-01,2024-10-01,Ｓｔｅｌｌａ　Ｌｕｃｅ　Ｋ．Ｙ株式会社,,株式会社,大阪府,大阪市都島区,中野町１丁目１３番２４号,,27,102,5340027,,,,,,,2024-10-01,1,,,,,ステラルーチェケイワイ,0
1048,5120001268859,新規,0,2024-10-01,2024-10-01,株式会社Ｍｉｇｉｗａ,,株式会社,大阪府,大阪市北区,東天満２丁目１０番３１号,,27,127,5300044,,,,,,,2024-10-01,1,,,,,ミギワ,0
1049,5120001268867,新規,0,2024-10-01,2024-10-01,株式会社ｃｏｓｈ,,株式会社,大阪府,大阪市北区,梅田１丁目２番２号大阪駅前第２ビル１２－１２,,27,127,5300001,,,,,,,2024-10-01,1,,,,,コシュ,0
1050,5120001268883,新規,0,2024-10-01,2024-10-01,ＪｅｗｅｌｅｓＰａｒｔｙ株式会社,,株式会社,大阪府,大阪市中央区,上町１丁目２１番５－３０１号,,27,128,5400005,,,,,,,2024-10-01,1,,,,,ジュエルズパーティー,0
1051,5120001268909,新規,0,2024-10-01,2024-10-01,Ｌａｕｇｈ　ｒｉｄｅ株式会社,,株式会社,大阪府,大阪市西区,九条南３丁目１番１８－４０３号,,27,106,5500025,,,,,,,2024-10-01,1,,,,,ラフライド,0
1052,5120001268925,新規,0,2024-10-01,2024-10-01,リエム株式会社,,株式会社,大阪府,大阪市天王寺区,勝山２丁目１４番２６号,,27,109,5430043,,,,,,,2024-10-01,1,,,,,リエム,0
1056,5120003027610,新規,0,2024-10-01,2024-10-01,星野合同会社,,合同会社,大阪府,大阪市生野区,新今里３丁目５番１８号ＳＥＩＫＡビル４０２号室,,27,116,5440001,,,,,,,2024-10-01,1,,,,,ホシノ,0
1057,5120003027619,新規,0,2024-10-01,2024-10-01,合同会社ぱぴーぶー,,合同会社,大阪府,大阪市西淀川区,御幣島２丁目１０番１２号メゾンドール千舟８０３号,,27,113,5550012,,,,,,,2024-10-01,1,,,,,パピーブー,0
1068,5130001077672,新規,0,2024-10-01,2024-10-01,株式会社ＣＹＲＵＳ９,,株式会社,京都府,京都市中京区,壬生西土居ノ内町１１番地３,,26,104,6048847,,,,,,,2024-10-01,1,,,,,サイラスナイン,0
1070,5130003009888,新規,0,2024-10-01,2024-10-01,合同会社ｆａｌｏ,,合同会社,京都府,京都市右京区,梅津南上田町３４番地４,,26,108,6150913,,,,,,,2024-10-01,1,,,,,ファロ,0
1086,5180001163402,新規,0,2024-10-01,2024-10-01,株式会社ＳＡＫＵＲＡ　ＣＰＡ　Ｎｅｔｗｏｒｋ,,株式会社,愛知県,名古屋市西区,名駅１丁目１番１７号名駅ダイヤメイテツビル１１階,,23,104,4510045,,,,,,,2024-10-01,1,,,,,サクラシーピーエーネットワーク,0
1087,5180001163419,新規,0,2024-10-01,2024-10-01,株式会社ＬＤＬ,,株式会社,愛知県,春日井市,稲口町１丁目１１番地１０,,23,206,4860905,,,,,,,2024-10-01,1,,,,,エルディーエル,0
1088,5180001163427,新規,0,2024-10-01,2024-10-01,パークレイ株式会社,,株式会社,愛知県,清須市,阿原神門１９４番地８,,23,233,4520901,,,,,,,2024-10-01,1,,,,,パークレイ,0
1090,5180003027381,新規,0,2024-10-01,2024-10-01,合同会社ガーディアン,,合同会社,愛知県,半田市,栄町３丁目４５番地２,,23,205,4750846,,,,,,,2024-10-01,1,,,,,ガーディアン,0
1091,5180003027398,新規,0,2024-10-01,2024-10-01,合同会社ランブラー,,合同会社,愛知県,日進市,赤池５丁目５０６番地,,23,230,4700125,,,,,,,2024-10-01,1,,,,,ランブラー,0
1092,5180003027407,新規,0,2024-10-01,2024-10-01,合同会社金冠,,合同会社,愛知県,名古屋市緑区,八つ松１丁目４０１番地の２,,23,114,4580810,,,,,,,2024-10-01,1,,,,,キンカン,0
1100,5180303006275,新規,0,2024-10-01,2024-10-01,合同会社朝岡,,合同会社,愛知県,西尾市,丁田町上ノ切６３番地,,23,213,4450062,,,,,,,2024-10-01,1,,,,,アサオカ,0
1101,5180303006283,新規,0,2024-10-01,2024-10-01,合同会社ＯＮＥ　ＯＵＴ　ＣＯＭＰＡＮＹ,,合同会社,愛知県,岡崎市,上六名３丁目６番地１２レジデンス座王２０２,,23,202,4440858,,,,,,,2024-10-01,1,,,,,ワンアウトカンパニー,0
1102,5190001031673,新規,0,2024-10-01,2024-10-01,株式会社トータルグッドジョブ,,株式会社,三重県,四日市市,北浜田町１番２４号,,24,202,5100062,,,,,,,2024-10-01,1,,,,,トータルグッドジョブ,0
1114,5240001063868,新規,0,2024-10-01,2024-10-01,顕佳株式会社,,株式会社,広島県,広島市南区,松原町５番２－２２０６号,,34,103,7320822,,,,,,,2024-10-01,1,,,,,ケンカ,0
1122,5250001020835,新規,0,2024-10-01,2024-10-01,株式会社Ｎｉｃｏ,,株式会社,山口県,下関市,豊北町神田３４８９番地２,,35,201,7500000,,,,,,,2024-10-01,1,,,,,ニコ,0
1123,5260001039494,新規,0,2024-10-01,2024-10-01,Ｊ企画株式会社,,株式会社,岡山県,岡山市北区,錦町８番３号ブランシエラ岡山７０２,,33,101,7000902,,,,,,,2024-10-01,1,,,,,ジェイキカク,0
1127,5270003001674,新規,0,2024-10-01,2024-10-01,Ｖｉｓｉｔ　Ｆｕｒａｎｏ合同会社,,合同会社,鳥取県,鳥取市,鹿野町鹿野７７４番地,,31,201,6890405,,,,,,,2024-10-01,1,,,,,ヴィジットフラノ,0
1128,5290001107348,新規,0,2024-10-01,2024-10-01,株式会社オーケートラスト,,株式会社,福岡県,福岡市東区,奈多１丁目１２番５８－１０２号,,40,131,8110204,,,,,,,2024-10-01,1,,,,,オーケートラスト,0
1129,5290001107356,新規,0,2024-10-01,2024-10-01,悠揚株式会社,,株式会社,福岡県,朝倉市,平塚９８５番地３,,40,228,8380059,,,,,,,2024-10-01,1,,,,,ユウヨウ,0
1132,5290003015846,新規,0,2024-10-01,2024-10-01,合同会社飲食プロ,,合同会社,福岡県,福岡市中央区,大手門３丁目１２－３２宮田ビル１階,,40,133,8100074,,,,,,,2024-10-01,1,,,,,インショクプロ,0
1135,5320003004481,新規,0,2024-10-01,2024-10-01,合同会社お金の相談所,,合同会社,大分県,大分市,城崎町１丁目１番５号城崎コスギビル３０３号,,44,201,8700045,,,,,,,2024-10-01,1,,,,,オカネノソウダンショ,0
1150,5360003014337,新規,0,2024-10-01,2024-10-01,合同会社宇宙,,合同会社,沖縄県,那覇市,銘苅２丁目１２－１９－２０１号,,47,201,9000004,,,,,,,2024-10-01,1,,,,,ウチュウ,0
1156,5370003006762,新規,0,2024-10-01,2024-10-01,ｍｉｔｅｋｉｔｅｋｉ合同会社,,合同会社,宮城県,仙台市宮城野区,東仙台２丁目３番６－２号サニープラザ東仙台２０１,,04,102,9830833,,,,,,,2024-10-01,1,,,,,ミテキテキ,0
1159,5400001016801,新規,0,2024-10-01,2024-10-01,みちのく企画株式会社,,株式会社,岩手県,八幡平市,柏台１丁目１９番１号,,03,214,0287303,,,,,,,2024-10-01,1,,,,,ミチノクキカク,0
1163,5460103001654,新規,0,2024-10-01,2024-10-01,合同会社ガラスの靴,,合同会社,北海道,帯広市,西七条南１３丁目２番地３Ｅｓｔｅｌａ１０１,,01,207,0800017,,,,,,,2024-10-01,1,,,,,ガラスノクツ,0
1167,5500003003333,新規,0,2024-10-01,2024-10-01,合同会社Ｌｕｇｌｙ,,合同会社,愛媛県,今治市,宮窪町宮窪１０２２番地,,38,202,7942203,,,,,,,2024-10-01,1,,,,,ラグリー,0
1174,6010001248549,新規,0,2024-10-01,2024-10-01,株式会社Ｃａｍｐｈｏｒ　Ｔｒｅｅ,,株式会社,東京都,千代田区,麹町５丁目３番地６第７秋山ビルディング７階,,13,101,1020083,,,,,,,2024-10-01,1,,,,,カンファーツリー,0
1175,6010001248598,新規,0,2024-10-01,2024-10-01,株式会社ａｍｉｋｕｓ,,株式会社,東京都,千代田区,神田多町２丁目１番地神田東山ビル７階,,13,101,1010046,,,,,,,2024-10-01,1,,,,,アミクス,0
1176,6010001248664,新規,0,2024-10-01,2024-10-01,美盈株式会社,,株式会社,東京都,文京区,本駒込５丁目３９番１４－２０３号,,13,105,1130021,,,,,,,2024-10-01,1,,,,,ビエイ,0
1185,6010401185400,新規,0,2024-10-01,2024-10-01,株式会社Ｏｒｉｅｎｔａｌ　Ｎｅｔｗｏｒｋ,,株式会社,東京都,港区,芝大門１丁目３番１１号ＹＳＫビル８階,,13,103,1050012,,,,,,,2024-10-01,1,,,,,オリエンタルネットワーク,0
1186,6010401185417,新規,0,2024-10-01,2024-10-01,株式会社Ｂａｓｉｌ,,株式会社,東京都,港区,六本木４丁目８番１号シンシア六本木７０１,,13,103,1060032,,,,,,,2024-10-01,1,,,,,バジル,0
1187,6010401185425,新規,0,2024-10-01,2024-10-01,株式会社ジーアイエム商事,,株式会社,東京都,港区,東麻布１丁目２７番８号,,13,103,1060044,,,,,,,2024-10-01,1,,,,,ジーアイエムショウジ,0
1189,6010403033499,新規,0,2024-10-01,2024-10-01,東京スライビング・アセットマネジメント合同会社,,合同会社,東京都,港区,高輪１丁目２７－３７高輪ザ・レジデンスタワー棟２９０６,,13,103,1080074,,,,,,,2024-10-01,1,,,,,トウキョウスライビングアセットマネジメント,0
1192,6010405023564,新規,0,2024-10-01,2024-10-01,一般社団法人日本地域メディア協会,,その他の設立登記法人,東京都,港区,虎ノ門５丁目３番２０号仙石山アネックス２１４,,13,103,1050001,,,,,,,2024-10-01,1,,,,,ニホンチイキメディアキョウカイ,0
1195,6010603011123,新規,0,2024-10-01,2024-10-01,合同会社ＫＡＮＳＨＡ,,合同会社,東京都,江東区,白河３丁目１１番１０－７０４号,,13,108,1350021,,,,,,,2024-10-01,1,,,,,カンシャ,0
1196,6010701046608,新規,0,2024-10-01,2024-10-01,株式会社コアマーケ,,株式会社,東京都,品川区,西五反田１丁目２６番２号五反田サンハイツ９１１,,13,109,1410031,,,,,,,2024-10-01,1,,,,,コアマーケ,0
1200,6010805003133,新規,0,2024-10-01,2024-10-01,一般社団法人永耀会,,その他の設立登記法人,東京都,大田区,北千束３丁目１７番１０号,,13,111,1450062,,,,,,,2024-10-01,1,,,,,エイヨウカイ,0
1204,6011001164637,新規,0,2024-10-01,2024-10-01,株式会社ＧＣエンターテイメント,,株式会社,東京都,渋谷区,代々木１丁目１３番８号山野代々木ビル２階,,13,113,1510053,,,,,,,2024-10-01,1,,,,,,0
1207,6011003020128,新規,0,2024-10-01,2024-10-01,ＡＭ’ｓ合同会社,,合同会社,東京都,渋谷区,恵比寿３丁目３１‐２,,13,113,1500013,,,,,,,2024-10-01,1,,,,,アムズ,0
1214,6011203004491,新規,0,2024-10-01,2024-10-01,Ｙｕｋｉｐｈｏｅｂｅ合同会社,,合同会社,東京都,中野区,中央１丁目２８番７号ジョイフル中野坂上２０１号室,,13,114,1640011,,,,,,,2024-10-01,1,,,,,ユキフィービー,0
1228,6011501031188,新規,0,2024-10-01,2024-10-01,株式会社ＨＥＡＲＴ,,株式会社,東京都,荒川区,西日暮里６丁目６４番６－１０１号,,13,118,1160013,,,,,,,2024-10-01,1,,,,,ハート,0
1229,6011501031196,新規,0,2024-10-01,2024-10-01,株式会社ＧＩＬ,,株式会社,東京都,北区,浮間２丁目１１番１０号,,13,117,1150051,,,,,,,2024-10-01,1,,,,,ジーアイエル,0
1231,6011503006238,新規,0,2024-10-01,2024-10-01,合同会社フリーウェイズオーディオ,,合同会社,東京都,北区,滝野川６丁目２７番１３号,,13,117,1140023,,,,,,,2024-10-01,1,,,,,フリーウェイズオーディオ,0
1237,6012403006765,新規,0,2024-10-01,2024-10-01,合同会社大矢商事,,合同会社,東京都,調布市,入間町２丁目２８‐１８,,13,208,1820004,,,,,,,2024-10-01,1,,,,,オオヤショウジ,0
1239,6012801023478,新規,0,2024-10-01,2024-10-01,株式会社まもる,,株式会社,東京都,東大和市,芋窪４丁目１４６８番地の２,,13,220,2070033,,,,,,,2024-10-01,1,,,,,マモル,0
1243,6013301053148,新規,0,2024-10-01,2024-10-01,株式会社オルトロン,,株式会社,東京都,豊島区,西池袋３丁目４番８号田中ビル２０５号,,13,116,1710021,,,,,,,2024-10-01,1,,,,,オルトロン,0
1244,6013301053156,新規,0,2024-10-01,2024-10-01,株式会社ＦＥＮＩＸ,,株式会社,東京都,豊島区,東池袋１丁目４４番１５号プランドール１Ｆ,,13,116,1700013,,,,,,,2024-10-01,1,,,,,フェニックス,0
1252,6020001159332,新規,0,2024-10-01,2024-10-01,株式会社ケントップ,,株式会社,神奈川県,川崎市麻生区,東百合丘１丁目１９番８号,,14,137,2150012,,,,,,,2024-10-01,1,,,,,ケントップ,0
1253,6020001159448,新規,0,2024-10-01,2024-10-01,株式会社Ｒ運送,,株式会社,神奈川県,横浜市西区,霞ケ丘１６－４－２０１,,14,103,2200035,,,,,,,2024-10-01,1,,,,,アールウンソウ,0
1254,6020003026951,新規,0,2024-10-01,2024-10-01,ＮＥＰＡＡＳＩＡＮ合同会社,,合同会社,神奈川県,川崎市川崎区,浅田３丁目１０番２２号,,14,131,2100847,,,,,,,2024-10-01,1,,,,,ネパアジアン,0
1257,6021001083332,新規,0,2024-10-01,2024-10-01,株式会社スペシャルサポーターズ,,株式会社,神奈川県,茅ヶ崎市,中海岸１丁目５番３０ー８号,,14,207,2530055,,,,,,,2024-10-01,1,,,,,スペシャルサポーターズ,0
1258,6021001083357,新規,0,2024-10-01,2024-10-01,株式会社鍵井藝術,,株式会社,神奈川県,鎌倉市,七里ガ浜東５丁目５番２０号,,14,204,2480025,,,,,,,2024-10-01,1,,,,,カギイゲイジュツ,0
1265,6030001162673,新規,0,2024-10-01,2024-10-01,株式会社壮大電設,,株式会社,埼玉県,鴻巣市,屈巣２６９３番地１４,,11,217,3650014,,,,,,,2024-10-01,1,,,,,ソウダイデンセツ,0
1266,6030001162681,新規,0,2024-10-01,2024-10-01,緑景株式会社,,株式会社,埼玉県,本庄市,寿３丁目２－１,,11,211,3670023,,,,,,,2024-10-01,1,,,,,リョクケイ,0
1271,6030003025077,新規,0,2024-10-01,2024-10-01,兼輝合同会社,,合同会社,埼玉県,久喜市,上内１３６７番地２７,,11,232,3400211,,,,,,,2024-10-01,1,,,,,カネテル,0
1272,6030003025201,新規,0,2024-10-01,2024-10-01,Ｒ＆ＭＢｒｏｔｈｅｒｓ合同会社,,合同会社,埼玉県,川越市,霞ケ関東４丁目４番地８,,11,201,3501103,,,,,,,2024-10-01,1,,,,,アールアンドエムブラザーズ,0
1273,6030003025226,新規,0,2024-10-01,2024-10-01,グローバルホスピタリティ合同会社,,合同会社,埼玉県,さいたま市中央区,本町東３丁目１２－２７,,11,105,3380003,,,,,,,2024-10-01,1,,,,,グローバルホスピタリティ,0
1277,6040001135546,新規,0,2024-10-01,2024-10-01,株式会社Ｓｔｅｐ　Ｂｙ　Ｓｔｅｐ,,株式会社,千葉県,八千代市,緑が丘西５丁目２５－１５,,12,221,2760040,,,,,,,2024-10-01,1,,,,,ステップバイステップ,0
1278,6040001135562,新規,0,2024-10-01,2024-10-01,株式会社錦澤産業,,株式会社,千葉県,柏市,柏４３６番地２ソフィア柏公園１－７１４号,,12,217,2770005,,,,,,,2024-10-01,1,,,,,キンザワサンギョウ,0
1279,6040001135587,新規,0,2024-10-01,2024-10-01,市田株式会社,,株式会社,千葉県,浦安市,日の出６丁目２１番１４号,,12,227,2790013,,,,,,,2024-10-01,1,,,,,イチダ,0
1281,6040003025860,新規,0,2024-10-01,2024-10-01,Ｓｏｉｌ　ａｎｄ　Ｒａｉｎ合同会社,,合同会社,千葉県,柏市,十余二２８７番地４０２,,12,217,2770872,,,,,,,2024-10-01,1,,,,,ソイルアンドレイン,0
1282,6040003025869,新規,0,2024-10-01,2024-10-01,合同会社モバイルリンク,,合同会社,千葉県,木更津市,東太田４丁目７－１０,,12,206,2920043,,,,,,,2024-10-01,1,,,,,モバイルリンク,0
1284,6050001055470,新規,0,2024-10-01,2024-10-01,株式会社常建,,株式会社,茨城県,那珂市,菅谷２２１７番地３,,08,226,3110105,,,,,,,2024-10-01,1,,,,,ジョウケン,0
1288,6070003005579,新規,0,2024-10-01,2024-10-01,合同会社ＭＡＲＳ,,合同会社,群馬県,前橋市,元総社町１２６８番地１オークスＤ－１０１号,,10,201,3710846,,,,,,,2024-10-01,1,,,,,マーズ,0
1293,6080401027471,新規,0,2024-10-01,2024-10-01,株式会社Ｉｍｐｒｏｖｅ,,株式会社,静岡県,浜松市中央区,天王町１１３３番地の１ビジネスパーク天王２号室,,22,138,4350052,,,,,,,2024-10-01,1,,,,,インプルーブ,0
1297,6090001018928,新規,0,2024-10-01,2024-10-01,株式会社タイネクスト,,株式会社,山梨県,富士吉田市,上吉田５４６４－１０,,19,202,4030005,,,,,,,2024-10-01,1,,,,,タイネクスト,0
1298,6100001037884,新規,0,2024-10-01,2024-10-01,ＡＲＲＯＷＳ株式会社,,株式会社,長野県,松本市,大字神林２６５４番地２１,,20,202,3901243,,,,,,,2024-10-01,1,,,,,アローズ,0
1303,6120001268742,新規,0,2024-10-01,2024-10-01,ＡＫ　ＴＲＡＤＩＮＧ株式会社,,株式会社,大阪府,枚方市,牧野北町５－１２白川マンション５０６号,,27,210,5731149,,,,,,,2024-10-01,1,,,,,エーケートレーディング,0
1304,6120001268858,新規,0,2024-10-01,2024-10-01,株式会社バーチャルファミリア,,株式会社,大阪府,大阪市北区,梅田１丁目２番２号大阪駅前第２ビル１２－１２,,27,127,5300001,,,,,,,2024-10-01,1,,,,,バーチャルファミリア,0
1305,6120001268866,新規,0,2024-10-01,2024-10-01,株式会社ＴＡＭＡＧＯ,,株式会社,大阪府,大阪市福島区,鷺洲５丁目１２番１号,,27,103,5530002,,,,,,,2024-10-01,1,,,,,タマゴ,0
1306,6120001268882,新規,0,2024-10-01,2024-10-01,株式会社ＳＨＯＥＩ,,株式会社,大阪府,大阪市生野区,小路東２丁目２５番２号,,27,116,5440003,,,,,,,2024-10-01,1,,,,,ショーエイ,0
1307,6120001268890,新規,0,2024-10-01,2024-10-01,株式会社ＡＬＬＫＮＯＴ,,株式会社,大阪府,大阪市北区,梅田１丁目１－３大阪駅前第３ビル２９階１－１－１号室,,27,127,5300001,,,,,,,2024-10-01,1,,,,,オールノット,0
1308,6120001268916,新規,0,2024-10-01,2024-10-01,株式会社ネイチャーベースコンサルティング,,株式会社,大阪府,大阪市北区,堂島１丁目３番８号堂島リンデンビル３Ｆ３号室,,27,127,5300003,,,,,,,2024-10-01,1,,,,,ネイチャーベースコンサルティング,0
1309,6120003027618,新規,0,2024-10-01,2024-10-01,合同会社ＫＳクリエイト,,合同会社,大阪府,枚方市,茄子作３丁目２０番５－２０６号,,27,210,5730071,,,,,,,2024-10-01,1,,,,,ケイエスクリエイト,0
1310,6120003027634,新規,0,2024-10-01,2024-10-01,合同会社Ｌｉｂｅｒａｌ　Ｆａｍｉｌｉａ,,合同会社,大阪府,大阪市城東区,中央１丁目７番２７号,,27,118,5360005,,,,,,,2024-10-01,1,,,,,リベラルファミリア,0
1311,6120003027642,新規,0,2024-10-01,2024-10-01,祭合同会社,,合同会社,大阪府,大阪市天王寺区,東高津町９番２３号８Ｆ,,27,109,5430021,,,,,,,2024-10-01,1,,,,,マツリ,0
1313,6120101070346,新規,0,2024-10-01,2024-10-01,株式会社ばあむ,,株式会社,大阪府,堺市堺区,香ヶ丘町４丁１番５号,,27,141,5900011,,,,,,,2024-10-01,1,,,,,バアム,0
1315,6120901049837,新規,0,2024-10-01,2024-10-01,アクア技研株式会社,,株式会社,大阪府,高槻市,若松町４番１号,,27,207,5690054,,,,,,,2024-10-01,1,,,,,アクアギケン,0
1324,6130001078034,新規,0,2024-10-01,2024-10-01,Ｂｌｉｓｓ　Ｌｉｎｋ株式会社,,株式会社,京都府,京都市北区,紫野郷ノ上町２２－４３,,26,101,6038304,,,,,,,2024-10-01,1,,,,,ブリスリンク,0
1327,6140001135890,新規,0,2024-10-01,2024-10-01,株式会社Ｆ‐Ｌａｂ,,株式会社,兵庫県,神戸市垂水区,高丸７丁目８番８号,,28,108,6550016,,,,,,,2024-10-01,1,,,,,エフラボ,0
1328,6140001135932,新規,0,2024-10-01,2024-10-01,浜辺商事株式会社,,株式会社,兵庫県,神戸市中央区,日暮通５丁目４番３号ミナーレ三宮東３０５室,,28,110,6510077,,,,,,,2024-10-01,1,,,,,ハマベショウジ,0
1334,6160001026246,新規,0,2024-10-01,2024-10-01,株式会社エム・アール・セブン,,株式会社,滋賀県,大津市,鳥居川町１３番９号,,25,201,5200854,,,,,,,2024-10-01,1,,,,,エムアールセブン,0
1335,6160003003292,新規,0,2024-10-01,2024-10-01,鈴蘭合同会社,,合同会社,滋賀県,栗東市,辻２５１番地８（２０３号）辻ハイツ,00136442,25,208,5203042,,,,,,,2024-10-01,1,,,,,スズラン,0
1336,6160005011343,新規,0,2024-10-01,2024-10-01,一般社団法人脳とココロを育むセラピー協会,,その他の設立登記法人,滋賀県,東近江市,東沖野５丁目３６番１９号,,25,213,5270033,,,,,,,2024-10-01,1,,,,,ノウトココロヲハグクムセラピーキョウカイ,0
1347,6180001163343,新規,0,2024-10-01,2024-10-01,株式会社トミーランド,,株式会社,愛知県,名古屋市中川区,十番町１丁目２８８番地,,23,110,4540055,,,,,,,2024-10-01,1,,,,,トミーランド,0
1348,6180001163418,新規,0,2024-10-01,2024-10-01,株式会社ＲｅｌａＣｒａ,,株式会社,愛知県,名古屋市天白区,平針台１丁目４０１番地シティコーポ平針台１棟２０５号,,23,116,4680030,,,,,,,2024-10-01,1,,,,,リラクラ,0
1352,6180301039094,新規,0,2024-10-01,2024-10-01,株式会社キズキ・デポ,,株式会社,愛知県,知立市,上重原１丁目１５番地,,23,225,4720058,,,,,,,2024-10-01,1,,,,,キズキデポ,0
1355,6190001031672,新規,0,2024-10-01,2024-10-01,かみさまの台所株式会社,,株式会社,三重県,四日市市,山之一色町１０８４番地７,,24,202,5120906,,,,,,,2024-10-01,1,,,,,カミサマノダイドコロ,0
1358,6220001026231,新規,0,2024-10-01,2024-10-01,株式会社ＱＲパートナーズ,,株式会社,石川県,金沢市,武蔵町１番１６号,,17,201,9200855,,,,,,,2024-10-01,1,,,,,キューアールパートナーズ,0
1361,6230001020539,新規,0,2024-10-01,2024-10-01,ＮａｔｕｒａｌＣａｐｉｔａｌ株式会社,,株式会社,富山県,富山市,八尾町中島１１３番地,,16,201,9392436,,,,,,,2024-10-01,1,,,,,ナチュラルキャピタル,0
1367,6290001107330,新規,0,2024-10-01,2024-10-01,株式会社室見動物病院,,株式会社,福岡県,福岡市早良区,室見１丁目１１番９号,,40,137,8140015,,,,,,,2024-10-01,1,,,,,ムロミドウブツビョウイン,0
1368,6290001107339,新規,0,2024-10-01,2024-10-01,株式会社フルオール,,株式会社,福岡県,福岡市中央区,桜坂２丁目５番４８号,,40,133,8100024,,,,,,,2024-10-01,1,,,,,フルオール,0
1369,6290001107347,新規,0,2024-10-01,2024-10-01,株式会社ＳＡＮＷＡ,,株式会社,福岡県,福岡市早良区,梅林６丁目８番３２号,,40,137,8140172,,,,,,,2024-10-01,1,,,,,サンワ,0
1370,6290001107355,新規,0,2024-10-01,2024-10-01,株式会社クリエイトオブビジネス,,株式会社,福岡県,福岡市中央区,渡辺通５丁目２５番１５－４０４号,,40,133,8100004,,,,,,,2024-10-01,1,,,,,,0
1372,6290003015837,新規,0,2024-10-01,2024-10-01,合同会社コマキシステム,,合同会社,福岡県,福岡市南区,大橋４丁目２５番３０号ベルエール大橋３０３,,40,134,8150033,,,,,,,2024-10-01,1,,,,,コマキシステム,0
1373,6290003015845,新規,0,2024-10-01,2024-10-01,合同会社フードフクオカ,,合同会社,福岡県,福岡市中央区,大手門３丁目１２－３２宮田ビル１階,,40,133,8100074,,,,,,,2024-10-01,1,,,,,フードフクオカ,0
1374,6290003015853,新規,0,2024-10-01,2024-10-01,合同会社Ｄｉｇｉｎｏｍａ,,合同会社,福岡県,福岡市博多区,博多駅前１丁目２３番２号ＰａｒｋＦｒｏｎｔ博多駅前１丁目５Ｆ－Ｂ,,40,132,8120011,,,,,,,2024-10-01,1,,,,,デジノマ,0
1375,6290005019522,新規,0,2024-10-01,2024-10-01,一般社団法人九大ＩＣＦ,,その他の設立登記法人,福岡県,福岡市西区,九大新町５番５研究開発棟１１１号室,,40,135,8190388,,,,,,,2024-10-01,1,,,,,キュウダイアイシーエフ,0
1380,6300001013915,新規,0,2024-10-01,2024-10-01,株式会社タケオ,,株式会社,佐賀県,武雄市,武雄町大字武雄７２６６番地７,,41,206,8430022,,,,,,,2024-10-01,1,,,,,タケオ,0
1381,6300003002180,新規,0,2024-10-01,2024-10-01,ライフ＆ボディ合同会社,,合同会社,佐賀県,佐賀市,鍋島４丁目１０－８フォーレスト鍋島１階１０１号,,41,201,8490937,,,,,,,2024-10-01,1,,,,,ライフアンドボディ,0
1401,6400001016800,新規,0,2024-10-01,2024-10-01,株式会社結,,株式会社,岩手県,奥州市,胆沢南都田字午房谷地１４６番地１,,03,215,0230401,,,,,,,2024-10-01,1,,,,,ユイ,0
1404,6430001092764,新規,0,2024-10-01,2024-10-01,株式会社Ｓ．Ｍジャパントレーディング,,株式会社,北海道,札幌市東区,北十二条東４丁目１番３５号ハウス１２－１Ｆ,,01,103,0650012,,,,,,,2024-10-01,1,,,,,エスエムジャパントレーディング,0
1405,6450005004425,新規,0,2024-10-01,2024-10-01,特定非営利活動法人エリアゴルフジュニアクラブ,,その他の設立登記法人,北海道,旭川市,春光台二条２丁目２番１２号,,01,204,0718142,,,,,,,2024-10-01,1,,,,,エリアゴルフジュニアクラブ,0
1409,6500001025907,新規,0,2024-10-01,2024-10-01,ＮＯＡＨ株式会社,,株式会社,愛媛県,松山市,山越３丁目１５番５３号Ｋ’ＳＢ山越１号－４０２号,,38,201,7918013,,,,,,,2024-10-01,1,,,,,ノア,0
1410,6500005008734,新規,0,2024-10-01,2024-10-01,一般社団法人愛媛の芸術と文化の振興協議会,,その他の設立登記法人,愛媛県,松山市,束本１丁目３番３４号コーポラスＴツカモト１０１号,,38,201,7900916,,,,,,,2024-10-01,1,,,,,エヒメノゲイジュツトブンカノシンコウキョウギカイ,0
1420,7010001248572,新規,0,2024-10-01,2024-10-01,株式会社ＭＯＮＳＩＳ,,株式会社,東京都,中央区,佃２丁目１番２－５０２号,,13,102,1040051,,,,,,,2024-10-01,1,,,,,モンシス,0
1421,7010001248663,新規,0,2024-10-01,2024-10-01,ＨＬＬキャピタル株式会社,,株式会社,東京都,中央区,銀座１丁目２４番３号,,13,102,1040061,,,,,,,2024-10-01,1,,,,,エイチエルエルキャピタル,0
1425,7010003045027,新規,0,2024-10-01,2024-10-01,ヒカリマークス合同会社,,合同会社,東京都,千代田区,平河町１丁目３番６号ＢＩＺＭＡＲＫＳ麹町ＴＨＥ　ＨＵＢ半蔵門,,13,101,1020093,,,,,,,2024-10-01,1,,,,,ヒカリマークス,0
1439,7010401185465,新規,0,2024-10-01,2024-10-01,株式会社ＢＵＺＺ　ＬＩＮＫ,,株式会社,東京都,港区,赤坂２丁目１３番１号,,13,103,1070052,,,,,,,2024-10-01,1,,,,,バズリンク,0
1442,7010501052986,新規,0,2024-10-01,2024-10-01,株式会社ＢＬＵＥ,,株式会社,東京都,台東区,浅草４丁目２番５号プランドール浅草１０１,,13,106,1110032,,,,,,,2024-10-01,1,,,,,ブルー,0
1450,7010901056042,新規,0,2024-10-01,2024-10-01,株式会社あたらしいチーム,,株式会社,東京都,世田谷区,北沢２丁目１１番１５号,,13,112,1550031,,,,,,,2024-10-01,1,,,,,アタラシイチーム,0
1454,7011001164859,新規,0,2024-10-01,2024-10-01,株式会社フォルメンテーラ,,株式会社,東京都,渋谷区,代官山町８－７Ｄａｉｗａ代官山ビル,,13,113,1500034,,,,,,,2024-10-01,1,,,,,フォルメンテーラ,0
1455,7011001164867,新規,0,2024-10-01,2024-10-01,株式会社マイソース,,株式会社,東京都,渋谷区,道玄坂１丁目１０番８号渋谷道玄坂東急ビル２Ｆ－Ｃ,,13,113,1500043,,,,,,,2024-10-01,1,,,,,マイソース,0
1456,7011001164891,新規,0,2024-10-01,2024-10-01,株式会社Ｐｏｒｔ,,株式会社,東京都,渋谷区,神南１丁目２０－２第一清水ビル４Ｆ,,13,113,1500041,,,,,,,2024-10-01,1,,,,,ポート,0
1457,7011003020102,新規,0,2024-10-01,2024-10-01,ビーカインド・ラボ合同会社,,合同会社,東京都,渋谷区,広尾１丁目７－２０,,13,113,1500012,,,,,,,2024-10-01,1,,,,,ビーカインドラボ,0
1461,7011101108930,新規,0,2024-10-01,2024-10-01,株式会社志和,,株式会社,東京都,新宿区,北新宿１丁目９－６,,13,104,1690074,,,,,,,2024-10-01,1,,,,,シワ,0
1462,7011103014986,新規,0,2024-10-01,2024-10-01,ＡＺＵＲＥ合同会社,,合同会社,東京都,新宿区,西新宿７丁目５番５号,,13,104,1600023,,,,,,,2024-10-01,1,,,,,アズール,0
1468,7011601028083,新規,0,2024-10-01,2024-10-01,株式会社フレイザープレイス,,株式会社,東京都,練馬区,中村２丁目２６番１１号,,13,120,1760024,,,,,,,2024-10-01,1,,,,,フレイザープレイス,0
1470,7011803006473,新規,0,2024-10-01,2024-10-01,合同会社ＥＢＵＲ,,合同会社,東京都,足立区,千住宮元町１２番１１号プラシア北千住２０５,,13,121,1200043,,,,,,,2024-10-01,1,,,,,エブル,0
1481,7020003026983,新規,0,2024-10-01,2024-10-01,日本先鋒国際貿易合同会社,,合同会社,神奈川県,横浜市鶴見区,豊岡町８番２０－４０２号,,14,101,2300062,,,,,,,2024-10-01,1,,,,,ニホンセンポウコクサイボウエキ,0
1484,7021001083364,新規,0,2024-10-01,2024-10-01,株式会社ｆｕｎｗａｖｅ,,株式会社,神奈川県,茅ヶ崎市,東海岸南６丁目４－３７－Ｃ３０７,,14,207,2530054,,,,,,,2024-10-01,1,,,,,ファンウェーブ,0
1492,7030001162680,新規,0,2024-10-01,2024-10-01,株式会社ダブルスター,,株式会社,埼玉県,川口市,八幡木２丁目２８－１３－１Ｆ,,11,203,3340012,,,,,,,2024-10-01,1,,,,,ダブルスター,0
1495,7030003025200,新規,0,2024-10-01,2024-10-01,合同会社まめ大福,,合同会社,埼玉県,川口市,大字藤兵衛新田１１８,,11,203,3330803,,,,,,,2024-10-01,1,,,,,マメダイフク,0
1496,7030003025209,新規,0,2024-10-01,2024-10-01,ジャパン・コンストラクション・トレーニングＳＣ合同会社,,合同会社,埼玉県,新座市,大和田５丁目９番１８号,,11,230,3520004,,,,,,,2024-10-01,1,,,,,ジャパンコンストラクショントレーニングエスシー,0
1497,7030003025225,新規,0,2024-10-01,2024-10-01,合同会社エコパン貿易,,合同会社,埼玉県,越谷市,中島２丁目８１番地,,11,222,3430013,,,,,,,2024-10-01,1,,,,,エコパンボウエキ,0
1501,7040001135545,新規,0,2024-10-01,2024-10-01,株式会社Ｆｅｌｉｚ,,株式会社,千葉県,柏市,根戸４３３番地１３,,12,217,2770831,,,,,,,2024-10-01,1,,,,,フェリス,0
1502,7040001135594,新規,0,2024-10-01,2024-10-01,株式会社ｍｉｇｏｒｏ,,株式会社,千葉県,習志野市,谷津２丁目２１番１号,,12,216,2750026,,,,,,,2024-10-01,1,,,,,ミゴロ,0
1504,7040003025851,新規,0,2024-10-01,2024-10-01,ＶＩＳＴＡ　ＴＲＡＤＩＮＧ合同会社,,合同会社,千葉県,山武市,武勝４６０番地９,,12,237,2891218,,,,,,,2024-10-01,1,,,,,ビスタトレーディング,0
1505,7040005022517,新規,0,2024-10-01,2024-10-01,ＣＯＬＯＲ協同組合,,その他の設立登記法人,千葉県,市原市,大厩字川上台１３８２番地２,00136441,12,219,2900002,,,,,,,2024-10-01,1,,,,,カラー,0
1508,7070001042210,新規,0,2024-10-01,2024-10-01,株式会社ＲＥ‐ＢＯＲＮ,,株式会社,群馬県,富岡市,七日市３４６番地５,,10,210,3702343,,,,,,,2024-10-01,1,,,,,リボーン,0
1510,7070003005594,新規,0,2024-10-01,2024-10-01,合同会社ＧＥＭ　ＣＩＴＹ　ＭＯＴＯＲＳ,,合同会社,群馬県,前橋市,柏倉町１６３４番地,,10,201,3710246,,,,,,,2024-10-01,1,,,,,ジーイーエムシティモータース,0
1512,7080103003150,新規,0,2024-10-01,2024-10-01,富士モーターズ合同会社,,合同会社,静岡県,富士市,前田６８８－１１,,22,210,4160937,,,,,,,2024-10-01,1,,,,,フジモーターズ,0
1513,7080401027470,新規,0,2024-10-01,2024-10-01,ソコラボ株式会社,,株式会社,静岡県,浜松市中央区,栄町６８番地シェアハウス栄町２０２,,22,138,4328025,,,,,,,2024-10-01,1,,,,,ソコラボ,0
1526,7120001268725,新規,0,2024-10-01,2024-10-01,友上商事株式会社,,株式会社,大阪府,大阪市住之江区,南港北２丁目１番１０号ＡＴＣ・Ｏ’ｓ棟５Ｆ－Ｒ１１３室,,27,125,5590034,,,,,,,2024-10-01,1,,,,,トモウエショウジ,0
1527,7120001268840,新規,0,2024-10-01,2024-10-01,株式会社ＳＥＩＷＡ,,株式会社,大阪府,枚方市,中宮本町３番１号,,27,210,5731196,,,,,,,2024-10-01,1,,,,,セイワ,0
1528,7120001268857,新規,0,2024-10-01,2024-10-01,株式会社コロキチ,,株式会社,大阪府,大阪市西区,南堀江３丁目９番１３号堀江家具ＷＥＳＴビル３Ｆ,,27,106,5500015,,,,,,,2024-10-01,1,,,,,コロキチ,0
1529,7120001268865,新規,0,2024-10-01,2024-10-01,株式会社企と美デザイン,,株式会社,大阪府,大阪市中央区,安土町２丁目３番１３号,,27,128,5410052,,,,,,,2024-10-01,1,,,,,キトビデザイン,0
1530,7120001268873,新規,0,2024-10-01,2024-10-01,ＫＡ株式会社,,株式会社,大阪府,大阪市北区,浪花町６番５号ドルフ浪花２０１号室,,27,127,5300022,,,,,,,2024-10-01,1,,,,,ケーエー,0
1531,7120001268907,新規,0,2024-10-01,2024-10-01,株式会社またたび,,株式会社,大阪府,大阪市北区,梅田１丁目２番２号大阪駅前第２ビル１２－１２,,27,127,5300001,,,,,,,2024-10-01,1,,,,,マタタビ,0
1532,7120001268923,新規,0,2024-10-01,2024-10-01,株式会社インバウンドホールディングス,,株式会社,大阪府,大阪市西区,新町１丁目５－７四ツ橋ビル２階,,27,106,5500013,,,,,,,2024-10-01,1,,,,,インバウンドホールディングス,0
1534,7120003027633,新規,0,2024-10-01,2024-10-01,合同会社Ｓｍｉｌｅ　Ｌｉｆｅ,,合同会社,大阪府,大阪市東住吉区,西今川１丁目２４番２号喜多マンション４０１号,,27,121,5460042,,,,,,,2024-10-01,1,,,,,スマイルライフ,0
1535,7120003027641,新規,0,2024-10-01,2024-10-01,合同会社ＧＩＣ,,合同会社,大阪府,大阪市北区,南森町２丁目４番３１－１１０４号,,27,127,5300054,,,,,,,2024-10-01,1,,,,,ジーアイシー,0
1541,7122001038488,新規,0,2024-10-01,2024-10-01,日本ホテル清掃株式会社,,株式会社,大阪府,四條畷市,清滝中町１５－１４,,27,229,5750061,,,,,,,2024-10-01,1,,,,,ニホンホテルセイソウ,0
1552,7180001163400,新規,0,2024-10-01,2024-10-01,田中電気設備株式会社,,株式会社,愛知県,名古屋市東区,出来町１丁目７番５号,,23,102,4610032,,,,,,,2024-10-01,1,,,,,タナカデンキセツビ,0
1553,7180003027405,新規,0,2024-10-01,2024-10-01,合同会社ＮＰＣ,,合同会社,愛知県,春日井市,林島町３丁目６番地１３,,23,206,4860854,,,,,,,2024-10-01,1,,,,,エヌピーシー,0
1560,7190003004808,新規,0,2024-10-01,2024-10-01,ＷＡＴＥＲ９０商店合同会社,,合同会社,三重県,鈴鹿市,東旭が丘６丁目３番１３号,,24,207,5100211,,,,,,,2024-10-01,1,,,,,ウォーターナインティショウテン,0
1568,7290001107271,新規,0,2024-10-01,2024-10-01,株式会社アイオン,,株式会社,福岡県,福岡市博多区,比恵町１番３０号サンいずみビル３階,,40,132,8120014,,,,,,,2024-10-01,1,,,,,アイオン,0
1569,7290001107338,新規,0,2024-10-01,2024-10-01,株式会社まる陽,,株式会社,福岡県,福岡市中央区,長浜１丁目４番４５－１２０４号,,40,133,8100072,,,,,,,2024-10-01,1,,,,,マルヨウ,0
1570,7290001107346,新規,0,2024-10-01,2024-10-01,株式会社後藤開発,,株式会社,福岡県,糟屋郡須惠町,須恵１０８６－５,,40,344,8112100,,,,,,,2024-10-01,1,,,,,ゴトウカイハツ,0
1571,7290001107354,新規,0,2024-10-01,2024-10-01,株式会社リオルジュ,,株式会社,福岡県,福岡市博多区,博多駅前３丁目２３番７号,,40,132,8120011,,,,,,,2024-10-01,1,,,,,リオルジュ,0
1572,7290001107362,新規,0,2024-10-01,2024-10-01,株式会社正榮,,株式会社,福岡県,福岡市東区,美和台５丁目７－４,,40,131,8110212,,,,,,,2024-10-01,1,,,,,ショウエイ,0
1573,7290001107387,新規,0,2024-10-01,2024-10-01,株式会社ＭＫ,,株式会社,福岡県,福岡市東区,香椎照葉５丁目１番１４－９１３号,,40,131,8130017,,,,,,,2024-10-01,1,,,,,エムケー,0
1578,7300001013906,新規,0,2024-10-01,2024-10-01,株式会社ＥＭＨ,,株式会社,佐賀県,佐賀市,大財２丁目１番１５号グランピアマンション１２０４,,41,201,8400811,,,,,,,2024-10-01,1,,,,,,0
1582,7310001019225,新規,0,2024-10-01,2024-10-01,Ｕ’ｓ　ｆｏｏｄｉｎｇ株式会社,,株式会社,長崎県,大村市,宮小路３丁目１３３８番地１０３号,,42,205,8560807,,,,,,,2024-10-01,1,,,,,ユーズフーディング,0
1591,7340003004619,新規,0,2024-10-01,2024-10-01,合同会社Ｋｅｙ,,合同会社,鹿児島県,鹿児島市,春山町９５４番地９,,46,201,8992704,,,,,,,2024-10-01,1,,,,,キー,0
1599,7400005008446,新規,0,2024-10-01,2024-10-01,一般社団法人おおがま結の会,,その他の設立登記法人,岩手県,滝沢市,大釜風林４９３番地１,,03,216,0200757,,,,,,,2024-10-01,1,,,,,オオガマユイノカイ,0
1607,7430001092755,新規,0,2024-10-01,2024-10-01,太陽不動産株式会社,,株式会社,北海道,札幌市厚別区,下野幌テクノパーク２丁目６番６号,,01,108,0040015,,,,,,,2024-10-01,1,,,,,タイヨウフドウサン,0
1608,7430001092763,新規,0,2024-10-01,2024-10-01,株式会社Ｄネクスト,,株式会社,北海道,札幌市中央区,南一条西９丁目５番地１札幌１９Ｌビル８階Ｂ,,01,101,0600061,,,,,,,2024-10-01,1,,,,,ディーネクスト,0
1625,7700150127383,新規,0,2024-10-01,2024-10-01,Ｎｏｔｉｏｎ　Ｉｎｔｅｒｎａｔｉｏｎａｌ　Ｉｎｃ．,,外国会社等,,,,,,,,３５００　Ｓｏｕｔｈ　ＤｕＰｏｎｔ　Ｈｉｇｈｗａｙ　Ｋｅｎｔ　Ｃｏｕｎｔｙ　Ｄｏｖｅｒ，ＤＥ，１９９０１，ＵＳＡ,,,,,,2024-10-01,1,,,,,ノーシヨンインターナシヨナルインク,0
1631,8010001248596,新規,0,2024-10-01,2024-10-01,株式会社Ｈｕｍａｎｉｔｙ２．０,,株式会社,東京都,千代田区,神田三崎町２丁目９番６号,,13,101,1010061,,,,,,,2024-10-01,1,,,,,ヒューマニティーニテンゼロ,0
1636,8010101016341,新規,0,2024-10-01,2024-10-01,株式会社ＡＩＭ,,株式会社,東京都,八王子市,元本郷町３丁目２１－９,,13,201,1920051,,,,,,,2024-10-01,1,,,,,エイム,0
1644,8010401185407,新規,0,2024-10-01,2024-10-01,株式会社ＹＤ,,株式会社,東京都,港区,麻布十番１丁目２番１号ボヌール麻布十番２０３,,13,103,1060045,,,,,,,2024-10-01,1,,,,,ワイディ,0
1648,8010501052977,新規,0,2024-10-01,2024-10-01,六甲旭日株式会社,,株式会社,東京都,台東区,北上野２丁目２５番９号－３０２号室,,13,106,1100014,,,,,,,2024-10-01,1,,,,,ロッコウキョクジツ,0
1649,8010503007582,新規,0,2024-10-01,2024-10-01,世界難民医療機構合同会社,,合同会社,東京都,台東区,浅草橋５丁目２－３鈴和ビル,,13,106,1110053,,,,,,,2024-10-01,1,,,,,セカイナンミンイリョウキコウ,0
1661,8011001164899,新規,0,2024-10-01,2024-10-01,Ｙａｓｍｉｎ株式会社,,株式会社,東京都,渋谷区,西原１丁目６番７号,,13,113,1510066,,,,,,,2024-10-01,1,,,,,ヤスミン,0
1662,8011001164908,新規,0,2024-10-01,2024-10-01,株式会社ＡＳＴＲＯ,,株式会社,東京都,渋谷区,道玄坂１丁目１０番８号,,13,113,1500043,,,,,,,2024-10-01,1,,,,,アストロ,0
1663,8011001164916,新規,0,2024-10-01,2024-10-01,株式会社ＢＭＧ,,株式会社,東京都,渋谷区,道玄坂１丁目１０番８号渋谷道玄坂東急ビル２Ｆ－Ｃ,,13,113,1500043,,,,,,,2024-10-01,1,,,,,ビーエムジー,0
1669,8011101108145,新規,0,2024-10-01,2024-10-01,ＫＵＭＯＴＯＳ　ＥＬＥＣＴＲＩＣ株式会社,,株式会社,東京都,新宿区,百人町２丁目１３番１３号Ｊハウス２０２,,13,104,1690073,,,,,,,2024-10-01,1,,,,,クモトスエレクトリック,0
1670,8011101108946,新規,0,2024-10-01,2024-10-01,株式会社ＲＡＺＢＡＭ　ＪＡＰＡＮ,,株式会社,東京都,新宿区,四谷４丁目３番地エクシーナ四谷６０２,,13,104,1600004,,,,,,,2024-10-01,1,,,,,ラズバムジャパン,0
1680,8011801044904,新規,0,2024-10-01,2024-10-01,さんてっく設備株式会社,,株式会社,東京都,足立区,西新井本町２丁目９番５号メゾン・ド・ボヌール栗駒３０２,,13,121,1230845,,,,,,,2024-10-01,1,,,,,サンテックセツビ,0
1682,8011803006480,新規,0,2024-10-01,2024-10-01,仁成合同会社,,合同会社,東京都,葛飾区,新小岩２丁目５番２号大塚ビル３０２,,13,122,1240024,,,,,,,2024-10-01,1,,,,,ニンセイ,0
1684,8012403006771,新規,0,2024-10-01,2024-10-01,合同会社魁凰,,合同会社,東京都,多摩市,永山５丁目７番地の２４,,13,224,2060025,,,,,,,2024-10-01,1,,,,,カイオウ,0
1687,8013101009521,新規,0,2024-10-01,2024-10-01,ＡＹＨＡＮ　ＩＮＴＥＲＮＡＴＩＯＮＡＬ株式会社,,株式会社,東京都,青梅市,今井５丁目２４７７番地の２５,,13,205,1980023,,,,,,,2024-10-01,1,,,,,アイハンインターナショナル,0
1695,8021003015050,新規,0,2024-10-01,2024-10-01,エアリティア合同会社,,合同会社,神奈川県,海老名市,上郷３丁目６番７２号,,14,215,2430434,,,,,,,2024-10-01,1,,,,,エアリティア,0
1706,8030003025216,新規,0,2024-10-01,2024-10-01,合同会社豊禾,,合同会社,埼玉県,越谷市,大字大林２５３番３５メゾンドミール２０２号室,,11,222,3430021,,,,,,,2024-10-01,1,,,,,ユタカ,0
1708,8030005021857,新規,0,2024-10-01,2024-10-01,一般社団法人らっくんぼ,,その他の設立登記法人,埼玉県,八潮市,大字鶴ケ曽根７９８番地９,,11,234,3400802,,,,,,,2024-10-01,1,,,,,ラックンボ,0
1709,8030005021865,新規,0,2024-10-01,2024-10-01,一般社団法人コドモギルド,,その他の設立登記法人,埼玉県,さいたま市桜区,大字上大久保９９２番地１０,,11,106,3380824,,,,,,,2024-10-01,1,,,,,コドモギルド,0
1711,8040001135544,新規,0,2024-10-01,2024-10-01,株式会社フジテクノ,,株式会社,千葉県,市川市,新田５丁目７番１６－２０５号ライネスハイム市川,,12,203,2720035,,,,,,,2024-10-01,1,,,,,フジテクノ,0
1712,8040001135569,新規,0,2024-10-01,2024-10-01,株式会社ｓａｌｏｎ　ｄｅ　ｈａｒｕ,,株式会社,千葉県,成田市,加良部４丁目２５番地２,,12,211,2860036,,,,,,,2024-10-01,1,,,,,サロンドハル,0
1713,8040001135577,新規,0,2024-10-01,2024-10-01,株式会社かなでエンタープライズ,,株式会社,千葉県,我孫子市,本町３丁目３番８－４０１号アビコパークビル,,12,222,2701151,,,,,,,2024-10-01,1,,,,,カナデエンタープライズ,0
1714,8040001135593,新規,0,2024-10-01,2024-10-01,株式会社Ａｄｖａｎｃｅ,,株式会社,千葉県,千葉市若葉区,桜木３丁目１１番１３号ジュネス桜木１０６号,,12,104,2640028,,,,,,,2024-10-01,1,,,,,アドバンス,0
1715,8040003025842,新規,0,2024-10-01,2024-10-01,合同会社ＳＦＡ,,合同会社,千葉県,浦安市,北栄１丁目１２番３３－４０３号ステーションタワー浦安,,12,227,2790002,,,,,,,2024-10-01,1,,,,,エスエフエー,0
1716,8040003025867,新規,0,2024-10-01,2024-10-01,合同会社Ｕ＆Ｍｅ,,合同会社,千葉県,松戸市,小金原１丁目２８番地の２１,,12,207,2700021,,,,,,,2024-10-01,1,,,,,ユーアンドミー,0
1724,8080101025022,新規,0,2024-10-01,2024-10-01,株式会社アトランディング,,株式会社,静岡県,沼津市,下香貫八重９７―３,,22,203,4100822,,,,,,,2024-10-01,1,,,,,アトランディング,0
1725,8080403005110,新規,0,2024-10-01,2024-10-01,合同会社ワイズ,,合同会社,静岡県,浜松市中央区,早出町２２４番地の１３,,22,138,4350054,,,,,,,2024-10-01,1,,,,,ワイズ,0
1729,8110001038731,新規,0,2024-10-01,2024-10-01,株式会社スマイルライナー,,株式会社,新潟県,五泉市,船越９７３番地１２,,15,218,9591805,,,,,,,2024-10-01,1,,,,,スマイルライナー,0
1737,8120001268732,新規,0,2024-10-01,2024-10-01,ＷＥＬＬ　ＨＯＵＳＥ株式会社,,株式会社,大阪府,大阪市中央区,本町４丁目６－２７－２階,,27,128,5410053,,,,,,,2024-10-01,1,,,,,ウェルハウス,0
1738,8120001268781,新規,0,2024-10-01,2024-10-01,株式会社ＨＫＣ　ｃｏｎｓｕｌｔａｎｔｓ,,株式会社,大阪府,大阪市中央区,谷町１丁目５番７号ストークビル天満橋９０４号,,27,128,5400012,,,,,,,2024-10-01,1,,,,,エイチケーシーコンサルタンツ,0
1739,8120001268798,新規,0,2024-10-01,2024-10-01,千北株式会社,,株式会社,大阪府,大阪市西成区,岸里東２丁目１４番２２号,,27,122,5570042,,,,,,,2024-10-01,1,,,,,センホク,0
1740,8120001268807,新規,0,2024-10-01,2024-10-01,万武株式会社,,株式会社,大阪府,大阪市淀川区,西三国１丁目１１番２号２０３号室,,27,123,5320006,,,,,,,2024-10-01,1,,,,,マンブ,0
1741,8120001268922,新規,0,2024-10-01,2024-10-01,株式会社Ｄａｙ　Ｄ　Ｂｒｏｔｈｅｒｓ,,株式会社,大阪府,大阪市住吉区,長居東４丁目１１番２４号門脇ビル５Ｃ,,27,120,5580004,,,,,,,2024-10-01,1,,,,,デイディブラザーズ,0
1745,8120003027582,新規,0,2024-10-01,2024-10-01,合同会社ｉｓＮＥＯ,,合同会社,大阪府,大阪市浪速区,元町１丁目９－９津和九ビル６階,,27,111,5560016,,,,,,,2024-10-01,1,,,,,アイエスネオ,0
1746,8120003027616,新規,0,2024-10-01,2024-10-01,合同会社Ｃｕｏｒｅ,,合同会社,大阪府,大阪市北区,本庄東２丁目１５番１８－４０４号,,27,127,5310074,,,,,,,2024-10-01,1,,,,,クオーレ,0
1749,8120101070344,新規,0,2024-10-01,2024-10-01,あゆみトラストリード株式会社,,株式会社,大阪府,堺市堺区,大浜北町１丁２－１大阪管財ビル１階,,27,141,5900974,,,,,,,2024-10-01,1,,,,,アユミトラストリード,0
1756,8122001038479,新規,0,2024-10-01,2024-10-01,株式会社ＦＵＬＬＷＡ,,株式会社,大阪府,八尾市,龍華町１丁目４番２－２８０１号,,27,212,5810069,,,,,,,2024-10-01,1,,,,,フルワ,0
1757,8122001038487,新規,0,2024-10-01,2024-10-01,関西環境マネジメント株式会社,,株式会社,大阪府,八尾市,高砂町５丁目５５－７２,,27,212,5810822,,,,,,,2024-10-01,1,,,,,カンサイカンキョウマネジメント,0
1761,8130001078032,新規,0,2024-10-01,2024-10-01,株式会社ＨａＬテック,,株式会社,京都府,京田辺市,河原西久保田１９－２０,,26,211,6100361,,,,,,,2024-10-01,1,,,,,ハルテック,0
1766,8130003009885,新規,0,2024-10-01,2024-10-01,合同会社ＲＨＳ,,合同会社,京都府,京都市上京区,大宮通丸太町上る一町目８５２番地,,26,102,6028134,,,,,,,2024-10-01,1,,,,,アールエイチエス,0
1773,8140003021105,新規,0,2024-10-01,2024-10-01,北地電工合同会社,,合同会社,兵庫県,神戸市北区,西大池１丁目２５番３６号,,28,109,6511201,,,,,,,2024-10-01,1,,,,,キタチデンコウ,0
1783,8180001163390,新規,0,2024-10-01,2024-10-01,株式会社ビービーシー,,株式会社,愛知県,名古屋市中区,栄５丁目１５番１７号,,23,106,4600008,,,,,,,2024-10-01,1,,,,,ビービーシー,0
1784,8180001163399,新規,0,2024-10-01,2024-10-01,株式会社ｐｕｒｉｓｍ,,株式会社,愛知県,名古屋市中村区,並木１丁目２６７番地,,23,105,4530856,,,,,,,2024-10-01,1,,,,,プリズム,0
1785,8180001163408,新規,0,2024-10-01,2024-10-01,株式会社ＴＷＯ．ＯＮＥ‐２,,株式会社,愛知県,一宮市,浜町３丁目１５番地ラフォルテ１０５,,23,203,4910034,,,,,,,2024-10-01,1,,,,,トゥワントゥ,0
1786,8180001163440,新規,0,2024-10-01,2024-10-01,株式会社Ｔｈｅ　ｒｅｉｍｉ　ｃｏｓｍｅｔｉｃ,,株式会社,愛知県,名古屋市中区,栄２丁目２番１号広小路伏見中駒ビル２Ｆ－９,,23,106,4600008,,,,,,,2024-10-01,1,,,,,ザレイミコスメティック,0
1792,8180003027429,新規,0,2024-10-01,2024-10-01,合同会社アルカリンクル暮らし,,合同会社,愛知県,名古屋市緑区,鳴海町字花井町６番地１０,,23,114,4580801,,,,,,,2024-10-01,1,,,,,アルカリンクルグラシ,0
1806,8220005008884,新規,0,2024-10-01,2024-10-01,一般社団法人金沢大学教育ＮｅｗＰｌａｔｆｏｒｍ,,その他の設立登記法人,石川県,金沢市,野町３丁目１１番１号,,17,201,9218031,,,,,,,2024-10-01,1,,,,,カナザワダイガクキョウイクニュープラットフォーム,0
1811,8260001039500,新規,0,2024-10-01,2024-10-01,株式会社ＴＡＫＡＮＯＨＡ,,株式会社,岡山県,岡山市北区,芳賀５３０３番地,,33,101,7011221,,,,,,,2024-10-01,1,,,,,タカノハ,0
1812,8260003004907,新規,0,2024-10-01,2024-10-01,合同会社エイチ,,合同会社,岡山県,岡山市北区,昭和町４番１７号プレミスト岡山ザ・レジデンス１２１１号室,,33,101,7000032,,,,,,,2024-10-01,1,,,,,エイチ,0
1813,8260005011406,新規,0,2024-10-01,2024-10-01,一般社団法人瀬戸内野球振興会,,その他の設立登記法人,岡山県,岡山市東区,中川町１０７８番地１４２,,33,103,7048176,,,,,,,2024-10-01,1,,,,,セトウチヤキュウシンコウカイ,0
1817,8290001107279,新規,0,2024-10-01,2024-10-01,株式会社ＹＡＩＹＡＷＯＲＫＳ,,株式会社,福岡県,福岡市博多区,対馬小路３番３－７０１号エンクレスト天神ＳＴＡＧＥ,,40,132,8120020,,,,,,,2024-10-01,1,,,,,ヤイヤワークス,0
1818,8290001107345,新規,0,2024-10-01,2024-10-01,株式会社ＦＲＰユナイテッド,,株式会社,福岡県,福岡市博多区,博多駅前４丁目３３番７－９１６号,,40,132,8120011,,,,,,,2024-10-01,1,,,,,エフアールピーユナイテッド,0
1819,8290001107394,新規,0,2024-10-01,2024-10-01,株式会社ｓｔａｒｇｌｏｗ,,株式会社,福岡県,福津市,宮司浜２丁目３７番２号,,40,224,8113311,,,,,,,2024-10-01,1,,,,,スターグロー,0
1820,8290003015843,新規,0,2024-10-01,2024-10-01,ＰａｃｉｆｉｃＶｅｎｔｕｒｅｓ合同会社,,合同会社,福岡県,福岡市中央区,六本松２丁目２番３０号,,40,133,8100044,,,,,,,2024-10-01,1,,,,,パシフィックベンチャーズ,0
1821,8290003015868,新規,0,2024-10-01,2024-10-01,合同会社ｔｗｏ　ｍａｋｅ,,合同会社,福岡県,春日市,小倉３丁目１９８番地２,,40,218,8160824,,,,,,,2024-10-01,1,,,,,トゥーメイク,0
1822,8290003015876,新規,0,2024-10-01,2024-10-01,合同会社ＬＹＮ,,合同会社,福岡県,福岡市博多区,吉塚２丁目３番２４号吉塚ＡＧビル６号館２０３号室,,40,132,8120041,,,,,,,2024-10-01,1,,,,,リン,0
1823,8310001019232,新規,0,2024-10-01,2024-10-01,株式会社Ｔ・Ｗ,,株式会社,長崎県,長崎市,西山３丁目１２番６号,,42,201,8500001,,,,,,,2024-10-01,1,,,,,ティーダブリュ,0
1825,8320001020734,新規,0,2024-10-01,2024-10-01,株式会社マイタウン,,株式会社,大分県,大分市,高城西町７番２４号,,44,201,8700154,,,,,,,2024-10-01,1,,,,,マイタウン,0
1828,8330001032497,新規,0,2024-10-01,2024-10-01,甘季株式会社,,株式会社,熊本県,合志市,豊岡２５２０番地７,,43,216,8611115,,,,,,,2024-10-01,1,,,,,アマリ,0
1829,8330003010575,新規,0,2024-10-01,2024-10-01,合同会社檜の郷,,合同会社,熊本県,阿蘇市,一の宮町宮地２２７３番地北古神団地２２３号,,43,214,8692612,,,,,,,2024-10-01,1,,,,,ヒノキノサト,0
1831,8340003004618,新規,0,2024-10-01,2024-10-01,合同会社ｓａｃａｅ,,合同会社,鹿児島県,鹿児島市,下伊敷１丁目８番１４号,,46,201,8900005,,,,,,,2024-10-01,1,,,,,サカエ,0
1841,8390003002286,新規,0,2024-10-01,2024-10-01,合同会社ＭＳＫ工業,,合同会社,山形県,東根市,温泉町１丁目２１番１８号,,06,211,9993702,,,,,,,2024-10-01,1,,,,,エムエスケーコウギョウ,0
1842,8400001016798,新規,0,2024-10-01,2024-10-01,株式会社岩手町企画,,株式会社,岩手県,岩手郡岩手町,大字江刈内第７地割７番地２,,03,303,0284303,,,,,,,2024-10-01,1,,,,,イワテマチキカク,0
1851,8450003002544,新規,0,2024-10-01,2024-10-01,合同会社八王子商事,,合同会社,北海道,深川市,湯内１７１０－１,,01,228,0740146,,,,,,,2024-10-01,1,,,,,ハチオウジショウジ,0
1859,8700150127382,新規,0,2024-10-01,2024-10-01,Ｓｈｅｎｚｈｅｎ　Ｙｕｔｉａｎｈｕａｙａｎｇ　Ｔｅｃｈｎｏｌｏｇｙ　Ｃｏ．,,外国会社等,,,,,,,,Ｒｏｏｍ　２１１６，Ｂｕｉｌｄｉｎｇ　３，ＣＯＦＣＯ　Ｃｌｏｕｄ　Ｖｉｅｗ　Ｐｌａｚａ，Ｗｏ　Ｗａｎ　Ｃｏｍｍｕｎｉｔｙ，Ｍａｒｔｉａｎ　Ｓｔｒｅｅｔ，Ｇｕａｎｇｍｉｎｇ　Ｄｉｓｔｒｉｃｔ，Ｓｈｅｎｚｈｅｎ，Ｇｕａｎｇｄｏｎｇ，Ｃｈｉｎａ．,,,,,,2024-10-01,1,,,,,シエンジエンシーイーテイエンフワーヤンコージーヨウシエンゴンスー,0
1876,9010001248595,新規,0,2024-10-01,2024-10-01,株式会社泰明館,,株式会社,東京都,文京区,湯島３丁目４番６号ハイ・シティ湯島７０１,,13,105,1130034,,,,,,,2024-10-01,1,,,,,タイメイカン,0
1877,9010001248620,新規,0,2024-10-01,2024-10-01,株式会社メドサーモインスティテュート,,株式会社,東京都,中央区,日本橋室町１丁目１１番１２号日本橋水野ビル７Ｆ,,13,102,1030022,,,,,,,2024-10-01,1,,,,,メドサーモインスティテュート,0
1882,9010003045009,新規,0,2024-10-01,2024-10-01,ＧＪ知財コンサルティング合同会社,,合同会社,東京都,中央区,日本橋蛎殻町１丁目１３－７日本橋人形町プレイス７階,,13,102,1030014,,,,,,,2024-10-01,1,,,,,ジージェイチザイコンサルティング,0
1891,9010401185389,新規,0,2024-10-01,2024-10-01,株式会社Ｍｏｎｏｓｔｙｌｅ,,株式会社,東京都,港区,南青山３丁目１番３６号青山丸竹ビル６Ｆ,,13,103,1070062,,,,,,,2024-10-01,1,,,,,モノスタイル,0
1892,9010401185430,新規,0,2024-10-01,2024-10-01,株式会社えきＭａａＳ,,株式会社,東京都,港区,芝大門２丁目２番１号,,13,103,1050012,,,,,,,2024-10-01,1,,,,,エキマース,0
1899,9010703007365,新規,0,2024-10-01,2024-10-01,ヴァリー合同会社,,合同会社,東京都,品川区,小山５丁目５－４－２０６,,13,109,1420062,,,,,,,2024-10-01,1,,,,,ヴァリー,0
1902,9010801035425,新規,0,2024-10-01,2024-10-01,株式会社ＡＲＳＥＥＫ,,株式会社,東京都,大田区,大森西３丁目１２番３０号ドエルウーチ１０６,,13,111,1430015,,,,,,,2024-10-01,1,,,,,アルスシーク,0
1914,9011001164849,新規,0,2024-10-01,2024-10-01,ジャパンサステナブルグロース株式会社,,株式会社,東京都,渋谷区,渋谷２丁目１９－１５宮益坂ビルディング６０９,,13,113,1500002,,,,,,,2024-10-01,1,,,,,ジャパンサステナブルグロース,0
1915,9011001164898,新規,0,2024-10-01,2024-10-01,株式会社Ｍｏｑｚ,,株式会社,東京都,渋谷区,渋谷２丁目１９－１５宮益坂ビルディング６０９,,13,113,1500002,,,,,,,2024-10-01,1,,,,,モキューズ,0
1916,9011001164915,新規,0,2024-10-01,2024-10-01,Ｒ．Ｐｒｏｍｏｔｉｏｎ．Ｇｒｏｕｐ株式会社,,株式会社,東京都,渋谷区,南平台町１７番１－２０６号,,13,113,1500036,,,,,,,2024-10-01,1,,,,,アールプロモーショングループ,0
1917,9011003020100,新規,0,2024-10-01,2024-10-01,とらすとみー合同会社,,合同会社,東京都,渋谷区,神宮前６丁目２３番４号桑野ビル２階,,13,113,1500001,,,,,,,2024-10-01,1,,,,,トラストミー,0
1930,9011101108937,新規,0,2024-10-01,2024-10-01,株式会社Ｍｙ　Ｒｏｏｍ　Ｗａｌｋｅｒ,,株式会社,東京都,新宿区,西新宿３丁目９番７号フロンティア新宿タワー１０１５号室,,13,104,1600023,,,,,,,2024-10-01,1,,,,,マイルームウォーカー,0
1933,9011103014984,新規,0,2024-10-01,2024-10-01,合同会社Ｍ＆Ｊ,,合同会社,東京都,新宿区,新宿６丁目２７番４８－５１５号,,13,104,1600022,,,,,,,2024-10-01,1,,,,,エムアンドジェイ,0
1943,9011801044894,新規,0,2024-10-01,2024-10-01,株式会社ｅ‐ｍｏｔｉｏｎ,,株式会社,東京都,葛飾区,青戸５丁目１９番３号,,13,122,1250062,,,,,,,2024-10-01,1,,,,,イーモーション,0
1944,9011801044903,新規,0,2024-10-01,2024-10-01,株式会社Ｃ．Ｒ．Ｅ．Ａ．Ｍ,,株式会社,東京都,足立区,綾瀬１丁目１１番１４号,,13,121,1200005,,,,,,,2024-10-01,1,,,,,クリーム,0
1945,9012401042330,新規,0,2024-10-01,2024-10-01,株式会社シーカラー,,株式会社,東京都,府中市,白糸台４丁目１５番地の７,,13,206,1830011,,,,,,,2024-10-01,1,,,,,シーカラー,0
1947,9012801023475,新規,0,2024-10-01,2024-10-01,株式会社ＭＣＫ　Ｐａｒｔｎｅｒｓ,,株式会社,東京都,国分寺市,泉町１丁目３番２号,,13,214,1850024,,,,,,,2024-10-01,1,,,,,エムシーケーパートナーズ,0
1951,9013301053153,新規,0,2024-10-01,2024-10-01,薬剤師求人転職株式会社,,株式会社,東京都,豊島区,池袋２丁目４３番１号池袋青柳ビル６Ｆ,,13,116,1710014,,,,,,,2024-10-01,1,,,,,ヤクザイシキュウジンテンショク,0
1952,9013303007322,新規,0,2024-10-01,2024-10-01,合同会社ライズ,,合同会社,東京都,豊島区,高松３丁目１０－３,,13,116,1710042,,,,,,,2024-10-01,1,,,,,ライズ,0
1960,9020003026957,新規,0,2024-10-01,2024-10-01,合同会社ｓｕｎｏｔｔｅｒ,,合同会社,神奈川県,横浜市港北区,新横浜１丁目１９－１８パルク新横浜５０１,,14,109,2220033,,,,,,,2024-10-01,1,,,,,サンオッター,0
1961,9021001083338,新規,0,2024-10-01,2024-10-01,株式会社ヤットク,,株式会社,神奈川県,逗子市,桜山９丁目３―５５―ファミール逗子シーサイドヒルズ２０１,,14,208,2490005,,,,,,,2024-10-01,1,,,,,ヤットク,0
1970,9030001162687,新規,0,2024-10-01,2024-10-01,株式会社エーデルカーズ,,株式会社,埼玉県,川越市,大字下広谷１９８番地１３,,11,201,3500804,,,,,,,2024-10-01,1,,,,,エーデルカーズ,0
1971,9030001162695,新規,0,2024-10-01,2024-10-01,ナズル株式会社,,株式会社,埼玉県,川口市,柳崎３丁目１７－１４小川コーポ２０２号室,,11,203,3330861,,,,,,,2024-10-01,1,,,,,ナズル,0
1979,9040001135543,新規,0,2024-10-01,2024-10-01,株式会社アールケイ給排水改修コンサルタンツ,,株式会社,千葉県,市川市,原木４丁目１７番１５号,,12,203,2720004,,,,,,,2024-10-01,1,,,,,アールケイキュウハイスイカイシュウコンサルタンツ,0
1980,9040001135568,新規,0,2024-10-01,2024-10-01,株式会社２０２,,株式会社,千葉県,松戸市,岩瀬１１４,,12,207,2710076,,,,,,,2024-10-01,1,,,,,,0
1981,9040003025858,新規,0,2024-10-01,2024-10-01,合同会社ビーラボ,,合同会社,千葉県,千葉市若葉区,若松町３６１番地２１１,,12,104,2640021,,,,,,,2024-10-01,1,,,,,ビーラボ,0
1991,9070003005592,新規,0,2024-10-01,2024-10-01,ＵＤＥＫＩＫＩ合同会社,,合同会社,群馬県,伊勢崎市,喜多町１４７番地１,,10,204,3720056,,,,,,,2024-10-01,1,,,,,ウデキキ,0
1992,9080001026516,新規,0,2024-10-01,2024-10-01,株式会社富士山,,株式会社,静岡県,静岡市葵区,羽鳥３丁目５番１２メゾンリメイラ２０５,,22,101,4211215,,,,,,,2024-10-01,1,,,,,フジヤマ,0
1997,9090001018925,新規,0,2024-10-01,2024-10-01,株式会社ティースリーマーケティング,,株式会社,山梨県,甲斐市,竜王新町１２８０番地コーポツチヤ２０２,,19,210,4000111,,,,,,,2024-10-01,1,,,,,ティースリーマーケティング,0
2016,9120001268707,新規,0,2024-10-01,2024-10-01,株式会社ＬＮ３,,株式会社,大阪府,大阪市住吉区,万代４丁目１２－８,,27,120,5580055,,,,,,,2024-10-01,1,,,,,ルンスリー,0
2017,9120001268723,新規,0,2024-10-01,2024-10-01,株式会社ｌｅｔ　ｉｔ　ｂｅ,,株式会社,大阪府,大阪市北区,神山町６－４ＡＸＩＳＵＭＥＤＡＢＬＤ３０２号室,,27,127,5300026,,,,,,,2024-10-01,1,,,,,レットイットビー,0
2018,9120001268772,新規,0,2024-10-01,2024-10-01,かなうプランニング株式会社,,株式会社,大阪府,大阪市旭区,清水３丁目２４番４号,,27,117,5350021,,,,,,,2024-10-01,1,,,,,カナウプランニング,0
2019,9120001268797,新規,0,2024-10-01,2024-10-01,緑舟綜合株式会社,,株式会社,大阪府,大阪市中央区,本町橋６番２１号シャンボール内本町６０４Ｂ,,27,128,5400029,,,,,,,2024-10-01,1,,,,,リョクシュウソウゴウ,0
2020,9120001268806,新規,0,2024-10-01,2024-10-01,東潤株式会社,,株式会社,大阪府,大阪市住吉区,遠里小野３丁目３－２５ロイヤル遠里小野３０２号,,27,120,5580032,,,,,,,2024-10-01,1,,,,,トウジュン,0
2021,9120001268814,新規,0,2024-10-01,2024-10-01,阪誠株式会社,,株式会社,大阪府,大阪市浪速区,日本橋東１丁目９番３号,,27,111,5560006,,,,,,,2024-10-01,1,,,,,サカセイ,0
2022,9120001268839,新規,0,2024-10-01,2024-10-01,株式会社ＭＯＲＩＴＡ,,株式会社,大阪府,大阪市北区,梅田２丁目５番１３号桜橋第一ビル,,27,127,5300001,,,,,,,2024-10-01,1,,,,,モリタ,0
2023,9120001268863,新規,0,2024-10-01,2024-10-01,株式会社ＭＯＪＩＮ,,株式会社,大阪府,大阪市中央区,安堂寺町１丁目２番２６－６０２号,,27,128,5420061,,,,,,,2024-10-01,1,,,,,モジン,0
2024,9120001268888,新規,0,2024-10-01,2024-10-01,株式会社ＥＩＳＥＩ,,株式会社,大阪府,大阪市天王寺区,四天王寺１丁目１４番１０－８０１号,,27,109,5430051,,,,,,,2024-10-01,1,,,,,エイセイ,0
2025,9120001268896,新規,0,2024-10-01,2024-10-01,ＳＨＩＮＧＡ株式会社,,株式会社,大阪府,大阪市旭区,太子橋３丁目２番１－５１０号,,27,117,5350001,,,,,,,2024-10-01,1,,,,,シンガ,0
2026,9120001268905,新規,0,2024-10-01,2024-10-01,九通株式会社,,株式会社,大阪府,大阪市生野区,生野西４丁目１２－３ハイツ西村２０２号,,27,116,5440024,,,,,,,2024-10-01,1,,,,,キュウツウ,0
2027,9120001268921,新規,0,2024-10-01,2024-10-01,株式会社ｓｔｕｄｉｏＭ,,株式会社,大阪府,大阪市住之江区,粉浜１丁目５番６号,,27,125,5590001,,,,,,,2024-10-01,1,,,,,スタジオエム,0
2028,9120001268946,新規,0,2024-10-01,2024-10-01,堂島汽船株式会社,,株式会社,大阪府,大阪市北区,堂島２丁目３番８号,,27,127,5300003,,,,,,,2024-10-01,1,,,,,ドウジマキセン,0
2033,9120003027615,新規,0,2024-10-01,2024-10-01,合同会社ＭＡＣＨＩＵＭ,,合同会社,大阪府,大阪市平野区,平野本町３丁目１３－１９ハイツみくりあ１階１Ｄ号室,,27,126,5470044,,,,,,,2024-10-01,1,,,,,マチウム,0
2034,9120003027623,新規,0,2024-10-01,2024-10-01,合同会社エンジョーイ,,合同会社,大阪府,大阪市中央区,森ノ宮中央２丁目１３番３５－１４１７号,,27,128,5400003,,,,,,,2024-10-01,1,,,,,エンジョーイ,0
2035,9120003027631,新規,0,2024-10-01,2024-10-01,グローパーソン合同会社,,合同会社,大阪府,大阪市北区,梅田２丁目５番１３号桜橋第一ビル３０４号,,27,127,5300001,,,,,,,2024-10-01,1,,,,,グローパーソン,0
2036,9120003027648,新規,0,2024-10-01,2024-10-01,合同会社雲海社,,合同会社,大阪府,大阪市北区,梅田１丁目１‐３大阪駅前第３ビル２９階１‐１‐１号室,,27,127,5300001,,,,,,,2024-10-01,1,,,,,ウンカイシャ,0
2037,9120005024552,新規,0,2024-10-01,2024-10-01,陽太税理士法人,,その他の設立登記法人,大阪府,大阪市淀川区,西中島５丁目７番１９号第７新大阪ビル５０２Ａ,,27,123,5320011,,,,,,,2024-10-01,1,,,,,ヒナタ,0
2039,9122005003783,新規,0,2024-10-01,2024-10-01,一般社団法人日本建物石綿対策建設業組合,,その他の設立登記法人,大阪府,東大阪市,西堤学園町１丁目１番２６号,,27,227,5770044,,,,,,,2024-10-01,1,,,,,ニホンタテモノイシワタタイサクケンセツギョウクミアイ,0
2047,9140003021129,新規,0,2024-10-01,2024-10-01,合同会社ｍａｈａｌｏ,,合同会社,兵庫県,西宮市,獅子ケ口町８番３２－２０２号,,28,204,6620026,,,,,,,2024-10-01,1,,,,,マハロ,0
2049,9160001026243,新規,0,2024-10-01,2024-10-01,株式会社ＮＯＷＤＯＯＲ,,株式会社,滋賀県,守山市,今浜町２５７３番地６,,25,207,5240101,,,,,,,2024-10-01,1,,,,,ナウドア,0
2050,9170001018322,新規,0,2024-10-01,2024-10-01,株式会社Ｒｅａｌｉｚｅ,,株式会社,和歌山県,和歌山市,三葛３５５番地５,,30,201,6410011,,,,,,,2024-10-01,1,,,,,リアライズ,0
2064,9180303006296,新規,0,2024-10-01,2024-10-01,合同会社アイアイ,,合同会社,愛知県,西尾市,新村町山屋敷１０８番地,,23,213,4450002,,,,,,,2024-10-01,1,,,,,アイアイ,0
2077,9260001039499,新規,0,2024-10-01,2024-10-01,株式会社森本工業,,株式会社,岡山県,備前市,三石２５３１番地３,,33,211,7050132,,,,,,,2024-10-01,1,,,,,モリモトコウギョウ,0
2089,9290001107336,新規,0,2024-10-01,2024-10-01,株式会社Ｔ２デンタル,,株式会社,福岡県,糟屋郡須惠町,大字旅石７２番地４３３,,40,344,8112221,,,,,,,2024-10-01,1,,,,,ティーツーデンタル,0
2090,9290001107352,新規,0,2024-10-01,2024-10-01,ＩＮＬＥＡＰ７．Ｃｏ．株式会社,,株式会社,福岡県,福岡市西区,豊浜２丁目１５番１号,,40,135,8190014,,,,,,,2024-10-01,1,,,,,インリープセブン,0
2091,9290001107360,新規,0,2024-10-01,2024-10-01,ＳＨＩＯＭＩ株式会社,,株式会社,福岡県,福岡市城南区,片江５丁目４０番１６号,,40,136,8140142,,,,,,,2024-10-01,1,,,,,シオミ,0
2092,9290001107385,新規,0,2024-10-01,2024-10-01,株式会社サカマタ,,株式会社,福岡県,福岡市博多区,奈良屋町１０番３号西日本奈良屋ビル４０３号,,40,132,8120023,,,,,,,2024-10-01,1,,,,,サカマタ,0
2093,9290001107402,新規,0,2024-10-01,2024-10-01,株式会社アシストＢＢ,,株式会社,福岡県,福岡市城南区,長尾３丁目２６番１号２Ｆ,,40,136,8140123,,,,,,,2024-10-01,1,,,,,アシストビービー,0
2094,9290001107410,新規,0,2024-10-01,2024-10-01,Ｉｚａ株式会社,,株式会社,福岡県,福岡市博多区,博多駅前１丁目２３番２号,,40,132,8120011,,,,,,,2024-10-01,1,,,,,イザ,0
2095,9290003015842,新規,0,2024-10-01,2024-10-01,合同会社ｂｌａｎｃｏ,,合同会社,福岡県,福岡市博多区,博多駅前１丁目２３番２号ＰａｒｋＦｒｏｎｔ博多駅前１丁目５Ｆ－Ｂ,,40,132,8120011,,,,,,,2024-10-01,1,,,,,ブランコ,0
2103,9330005010829,新規,0,2024-10-01,2024-10-01,ＮＰＯ法人Ｓｏｌｅｄａｄ,,その他の設立登記法人,熊本県,阿蘇市,小里２７５番地１,,43,214,8692307,,,,,,,2024-10-01,1,,,,,ソリダッド,0
2111,9370001051740,新規,0,2024-10-01,2024-10-01,株式会社亮建,,株式会社,宮城県,仙台市若林区,沖野３丁目１３番９５号,,04,103,9840831,,,,,,,2024-10-01,1,,,,,リョウケン,0
2115,9410003003982,新規,0,2024-10-01,2024-10-01,合同会社Ｉ＆Ｔ,,合同会社,秋田県,能代市,二ツ井町小繋字神明社下３９番地１,,05,202,0183102,,,,,,,2024-10-01,1,,,,,,0
2120,9430003016834,新規,0,2024-10-01,2024-10-01,合同会社ＨＲＫ,,合同会社,北海道,札幌市北区,あいの里一条３丁目３番２２号,,01,102,0028071,,,,,,,2024-10-01,1,,,,,エイチアールケー,0
2123,9470001020396,新規,0,2024-10-01,2024-10-01,株式会社Ｐ．Ｏ．Ｈ,,株式会社,香川県,丸亀市,郡家町３０８６番地１,,37,202,7630093,,,,,,,2024-10-01,1,,,,,ピーオーエッチ,0
2128,9700150127035,新規,0,2024-10-01,2024-09-04,ヴィナシス金町　商業部会,,その他,東京都,葛飾区,金町６丁目２－１,,13,122,1250042,,,,,,,2024-09-04,1,,,,,ヴイナシスカナマチシヨウギヨウブカイ,0
2129,9700150127357,新規,0,2024-10-01,2024-10-01,ＮＥＷ　ＳＴＥＰ　実行委員会,,その他,熊本県,菊池市,亘３７番地１,,43,210,8611308,,,,,,,2024-10-01,1,,,,,ニューステップジッコウイインカイ,0
