sequenceNumber,corporateNumber,process,correct,updateDate,changeDate,name,nameImageId,kind,prefectureName,cityName,streetNumber,addressImageId,prefectureCode,cityCode,postCode,addressOutside,addressOutsideImageId,closeDate,closeCause,successorCorporateNumber,changeCause,assignmentDate,latest,enName,enPrefectureName,enCityName,enAddressOutside,furigana,hihyoji
2,1010001011787,登記記録の閉鎖等,0,2026-02-03,2026-01-13,ＡＧＣロジスティクス株式会社,,株式会社,東京都,千代田区,丸の内１丁目５番１号,,13,101,1000005,,,2026-01-13,合併による解散等,2010001008650,令和８年１月１日東京都千代田区丸の内一丁目５番１号ＡＧＣ株式会社（2010001008650）に合併し解散,2015-10-05,1,,,,,エイジーシーロジスティクス,0
7,1010005013953,登記記録の閉鎖等,0,2026-02-03,2026-01-30,山佐ＢＡＷ２一般社団法人,,その他の設立登記法人,東京都,千代田区,丸の内１丁目４番１号東京共同会計事務所内,,13,101,1000005,,,2026-01-30,清算の結了等,,,2015-10-05,1,,,,,ヤマサビーエーダブリューニ,0
21,1010601009330,登記記録の閉鎖等,0,2026-02-03,2026-01-22,宇田川紙器株式会社,,株式会社,東京都,江東区,有明１丁目４番２０－３００１号,,13,108,1350063,,,2026-01-22,清算の結了等,,,2015-10-05,1,,,,,ウダガワシキ,0
49,1011302002129,登記記録の閉鎖等,0,2026-02-03,2026-01-27,有限会社小俣商店,,有限会社,東京都,杉並区,西荻南２丁目２９番１６号,,13,115,1670053,,,2026-01-27,清算の結了等,,,2015-10-05,1,,,,,オマタショウテン,0
51,1011503003669,登記記録の閉鎖等,0,2026-02-03,2026-01-29,合同会社ＴＲＹＣＥＰＳ,,合同会社,東京都,北区,志茂４丁目７番２号,,13,117,1150042,,,2026-01-29,清算の結了等,,,2018-06-28,1,,,,,トライセプス,0
58,1011701011085,登記記録の閉鎖等,0,2026-02-03,2026-01-28,株式会社イーアスター,,株式会社,東京都,江戸川区,西一之江３丁目１４番１４号コーポラスヤザワ２０２,,13,123,1320023,,,2026-01-28,清算の結了等,,,2015-10-05,1,,,,,イーアスター,0
63,1012403006308,登記記録の閉鎖等,0,2026-02-03,2026-01-23,レイスレス合同会社,,合同会社,東京都,大田区,東矢口１丁目１７－１１蓮沼ビル１階,,13,111,1460094,,,2026-01-23,清算の結了等,,,2023-12-08,1,,,,,レイスレス,0
69,1020001012941,登記記録の閉鎖等,0,2026-02-03,2026-01-21,互助観光株式会社,,株式会社,神奈川県,横浜市南区,大岡３丁目８番２８号,,14,105,2320061,,,2026-01-21,清算の結了等,,,2015-10-05,1,,,,,ゴジョカンコウ,0
79,1021001025900,登記記録の閉鎖等,0,2026-02-03,2026-01-14,株式会社ホウユウ,,株式会社,神奈川県,大和市,南林間５丁目３番３号,,14,213,2420006,,,2026-01-14,清算の結了等,,,2015-10-05,1,,,,,ホウユウ,0
93,1030003009381,登記記録の閉鎖等,0,2026-02-03,2026-01-28,合同会社みぎひだり堂,,合同会社,埼玉県,戸田市,笹目８丁目１４番２１号,,11,224,3350034,,,2026-01-28,清算の結了等,,,2016-10-04,1,,,,,ミギヒダリドウ,0
103,1050002008903,登記記録の閉鎖等,0,2026-02-03,2026-01-20,有限会社プロダクツ一生,,有限会社,茨城県,ひたちなか市,勝田中央７番１４号,,08,221,3120045,,,2026-01-20,清算の結了等,,,2015-10-05,1,,,,,プロダクツイッセー,0
107,1060001035484,登記記録の閉鎖等,0,2026-02-03,2026-01-30,株式会社ＶＯＲＴＴＥＸ,,株式会社,栃木県,真岡市,荒町２丁目７番地９,,09,209,3214305,,,2026-01-30,清算の結了等,,,2022-11-28,1,,,,,ボルテックス,0
114,1070002020344,登記記録の閉鎖等,0,2026-02-03,2026-01-30,有限会社小黒養豚,,有限会社,群馬県,伊勢崎市,境三ツ木２３７番地の７,,10,204,3700113,,,2026-01-30,清算の結了等,,,2015-10-05,1,,,,,オグロヨウトン,0
123,1100001001317,登記記録の閉鎖等,0,2026-02-03,2026-01-29,株式会社シーアイ,,株式会社,長野県,長野市,居町１７４４番地,,20,201,3800901,,,2026-01-29,清算の結了等,,,2015-10-05,1,,,,,シーアイ,0
138,1120003015560,登記記録の閉鎖等,0,2026-02-03,2026-01-30,合同会社ＭＳＲ,,合同会社,大阪府,大阪市生野区,生野西４丁目２番５号,,27,116,5440024,,,2026-01-30,清算の結了等,,,2019-04-09,1,,,,,エムエスアール,0
149,1140001072998,登記記録の閉鎖等,0,2026-02-03,2026-01-28,株式会社ロマージュ,,株式会社,兵庫県,西宮市,郷免町１番２５号,,28,204,6620965,,,2026-01-28,清算の結了等,,,2015-10-05,1,,,,,ロマージュ,0
159,1180001016456,登記記録の閉鎖等,0,2026-02-03,2026-01-22,株式会社金三,,株式会社,愛知県,名古屋市東区,代官町３２番１１号,,23,102,4610002,,,2026-01-22,清算の結了等,,,2015-10-05,1,,,,,キンゾウ,0
160,1180001059249,登記記録の閉鎖等,0,2026-02-03,2026-01-28,愛青工業株式会社,,株式会社,愛知県,名古屋市熱田区,一番１丁目６番１３号,,23,109,4560053,,,2026-01-28,清算の結了等,,,2015-10-05,1,,,,,アイセイコウギョウ,0
163,1180001112577,登記記録の閉鎖等,0,2026-02-03,2026-01-19,Ｋ’ｓ　Ｈｏｌｄｉｎｇｓ株式会社,,株式会社,大阪府,大阪市生野区,新今里４丁目５番１２－４０１０,,27,116,5440001,,,2026-01-19,清算の結了等,,,2015-10-05,1,,,,,ケーズホールディングス,0
168,1180302021774,登記記録の閉鎖等,0,2026-02-03,2026-01-28,有限会社カネナガ建設,,有限会社,愛知県,豊田市,市木町岩本１７番地９,,23,211,4710006,,,2026-01-28,清算の結了等,,,2015-10-05,1,,,,,カネナガケンセツ,0
176,1240001058087,登記記録の閉鎖等,0,2026-02-03,2026-01-29,株式会社クオリティ,,株式会社,広島県,広島市中区,江波南１丁目８番１号,,34,101,7300835,,,2026-01-29,清算の結了等,,,2021-06-07,1,,,,,クオリティ,0
189,1290002051045,登記記録の閉鎖等,0,2026-02-03,2026-01-21,有限会社エスピーライフ,,有限会社,福岡県,久留米市,南４丁目４－２,,40,203,8300051,,,2026-01-21,清算の結了等,,,2015-10-05,1,,,,,エスピーライフ,0
192,1290801013063,登記記録の閉鎖等,0,2026-02-03,2026-01-16,株式会社こやのせ地所,,株式会社,福岡県,北九州市八幡西区,木屋瀬１丁目２５番１４号,,40,109,8071261,,,2026-01-16,清算の結了等,,,2015-10-05,1,,,,,コヤノセチショ,0
202,1340005001223,登記記録の閉鎖等,0,2026-02-03,2026-01-29,医療法人長嶺整形外科医院,,その他の設立登記法人,鹿児島県,鹿児島市,呉服町５番１２号,,46,201,8920826,,,2026-01-29,清算の結了等,,,2015-10-05,1,,,,,ナガミネセイケイゲカイイン,0
205,1370201000488,登記記録の閉鎖等,0,2026-02-03,2026-02-02,株式会社グローリーグループ,,株式会社,宮城県,遠田郡美里町,南小牛田字町屋敷９３番地１,,04,505,9870003,,,2026-02-02,清算の結了等,,,2015-10-05,1,,,,,グローリーグループ,0
207,1380001026971,登記記録の閉鎖等,0,2026-02-03,2026-01-29,関根メンテナンス株式会社,,株式会社,福島県,伊達市,月舘町御代田字下男鹿作３９番地,,07,213,9600906,,,2026-01-29,清算の結了等,,,2016-06-06,1,,,,,セキネメンテナンス,0
210,1380002000752,登記記録の閉鎖等,0,2026-02-03,2026-01-30,有限会社オートショツプ矢吹,,有限会社,福島県,福島市,宮代字田尻１２番地の１０,,07,201,9600116,,,2026-01-30,清算の結了等,,,2015-10-05,1,,,,,オートショップヤブキ,0
218,1410002002480,登記記録の閉鎖等,0,2026-02-03,2026-01-30,有限会社ダグラスホーム,,有限会社,秋田県,秋田市,御野場新町４丁目２番１号,,05,201,0101425,,,2026-01-30,清算の結了等,,,2015-10-05,1,,,,,ダグラスホーム,0
233,2010001171861,登記記録の閉鎖等,0,2026-02-03,2026-01-13,楽天カー株式会社,,株式会社,東京都,世田谷区,玉川１丁目１４番１号,,13,112,1580094,,,2026-01-13,合併による解散等,9010701020592,令和８年１月１日東京都世田谷区玉川一丁目１４番１号楽天グループ株式会社（9010701020592）に合併し解散,2015-11-20,1,,,,,ラクテンカー,0
243,2010002003659,登記記録の閉鎖等,0,2026-02-03,2026-01-09,有限会社たこ,,有限会社,東京都,文京区,本郷４丁目１６番６号,,13,105,1130033,,,2026-01-09,清算の結了等,,,2015-10-05,1,,,,,タコ,0
265,2010701025367,登記記録の閉鎖等,0,2026-02-03,2026-01-13,楽天チケット株式会社,,株式会社,東京都,世田谷区,玉川１丁目１４番１号,,13,112,1580094,,,2026-01-13,合併による解散等,9010701020592,令和８年１月１日東京都世田谷区玉川一丁目１４番１号楽天グループ株式会社（9010701020592）に合併し解散,2015-10-05,1,,,,,ラクテンチケット,0
273,2011001090580,登記記録の閉鎖等,0,2026-02-03,2026-01-05,株式会社ちゃんぽん商会,,株式会社,東京都,目黒区,目黒３丁目１番２号,,13,110,1530063,,,2026-01-05,清算の結了等,,,2015-10-05,1,,,,,チャンポンショウカイ,0
275,2011001107054,登記記録の閉鎖等,0,2026-02-03,2026-01-08,株式会社システムオーデザインコンサルティング,,株式会社,東京都,目黒区,中根１丁目２１番１６－８０１号秀和第２自由ケ丘レジデンス,,13,110,1520031,,,2026-01-08,清算の結了等,,,2015-10-05,1,,,,,システムオーデザインコンサルティング,0
283,2011301022721,登記記録の閉鎖等,0,2026-02-03,2026-01-27,安心ハウジング株式会社,,株式会社,東京都,杉並区,西荻南２丁目２９番１８号,,13,115,1670053,,,2026-01-27,清算の結了等,,,2016-11-28,1,,,,,アンシンハウジング,0
284,2011301028099,登記記録の閉鎖等,0,2026-02-03,2026-01-26,株式会社きれか,,株式会社,東京都,杉並区,高円寺南１丁目２４番７号,,13,115,1660003,,,2026-01-26,清算の結了等,,,2022-09-09,1,,,,,キレカ,0
286,2011402001194,登記記録の閉鎖等,0,2026-02-03,2026-01-26,有限会社植竹,,有限会社,東京都,豊島区,池袋本町４丁目４６番１１－８５７号,,13,116,1700011,,,2026-01-26,清算の結了等,,,2015-10-05,1,,,,,ウエタケ,0
293,2012401010599,登記記録の閉鎖等,0,2026-02-03,2026-01-29,エターナル・テクノロジーズ株式会社,,株式会社,東京都,府中市,栄町３丁目１１番地の１３府中武蔵野ハイライズ１１１,,13,206,1830051,,,2026-01-29,清算の結了等,,,2015-10-05,1,,,,,エターナルテクノロジーズ,0
327,2030001061697,登記記録の閉鎖等,0,2026-02-03,2026-01-28,株式会社協和トレーディング,,株式会社,埼玉県,鴻巣市,川面５６８番地,,11,217,3650061,,,2026-01-28,清算の結了等,,,2015-10-05,1,,,,,キョウワトレーディング,0
332,2030002029272,登記記録の閉鎖等,0,2026-02-03,2026-01-28,小林米穀有限会社,,有限会社,埼玉県,所沢市,大字上安松１２１５番地,,11,208,3590025,,,2026-01-28,清算の結了等,,,2015-10-05,1,,,,,コバヤシベイコク,0
354,2080001002952,登記記録の閉鎖等,0,2026-02-03,2026-01-30,静岡ポピー株式会社,,株式会社,静岡県,静岡市駿河区,下川原２丁目２１番８号,,22,102,4210113,,,2026-01-30,清算の結了等,,,2015-10-05,1,,,,,シズオカポピー,0
367,2120001052010,登記記録の閉鎖等,0,2026-02-03,2026-01-30,昭和重機株式会社,,株式会社,大阪府,大阪市東淀川区,豊里５丁目９番３号,,27,114,5330013,,,2026-01-30,清算の結了等,,,2015-10-05,1,,,,,ショウワジュウキ,0
377,2120901048388,登記記録の閉鎖等,0,2026-02-03,2026-01-29,株式会社ＡＲＩＡ　ＳＴＵＤＩＯ,,株式会社,大阪府,豊中市,永楽荘２丁目２番９－１０２号,,27,203,5600051,,,2026-01-29,清算の結了等,,,2023-11-24,1,,,,,,0
381,2130001048676,登記記録の閉鎖等,0,2026-02-03,2026-01-30,株式会社シンカ,,株式会社,京都府,京都市北区,紫野下鳥田町２５番地６,,26,101,6038175,,,2026-01-30,清算の結了等,,,2015-10-05,1,,,,,シンカ,0
387,2140001104552,登記記録の閉鎖等,0,2026-02-03,2026-01-30,株式会社ＰＵＵＲＥ,,株式会社,大阪府,大阪市淀川区,西宮原２丁目６番１６－６１０号,,27,123,5320004,,,2026-01-30,清算の結了等,,,2017-01-06,1,,,,,プーレ,0
389,2140001127958,登記記録の閉鎖等,0,2026-02-03,2026-01-30,ＨＭＧ株式会社,,株式会社,兵庫県,神戸市長田区,東尻池町２丁目１４番１３号,,28,106,6530022,,,2026-01-30,清算の結了等,,,2022-11-04,1,,,,,エイチエムジー,0
407,2180003022765,登記記録の閉鎖等,0,2026-02-03,2026-01-30,ＧＲＩＳＨＭＡ合同会社,,合同会社,愛知県,名古屋市中川区,西日置町１０丁目１１２番地,,23,110,4540005,,,2026-01-30,清算の結了等,,,2021-07-20,1,,,,,グリシュマ,0
408,2190001017584,登記記録の閉鎖等,0,2026-02-03,2026-01-30,ＴＡＦシステム株式会社,,株式会社,三重県,四日市市,西村町５４７番地１,,24,202,5121305,,,2026-01-30,清算の結了等,,,2015-10-05,1,,,,,タフシステム,0
456,2370001042952,登記記録の閉鎖等,0,2026-02-03,2026-02-02,株式会社グローリー,,株式会社,宮城県,栗原市,築館字上高森４９番地１０,00113202,04,213,9872246,,,2026-02-02,清算の結了等,,,2018-04-20,1,,,,,グローリー,0
461,2390002008728,登記記録の閉鎖等,0,2026-02-03,2026-01-29,有限会社セルフハウジングシステム,,有限会社,山形県,東田川郡庄内町,余目字沢田７５番地４,,06,428,9997781,,,2026-01-29,清算の結了等,,,2015-10-05,1,,,,,セルフハウジングシステム,0
462,2390005002892,登記記録の閉鎖等,0,2026-02-03,2026-01-22,医療法人大井医院,,その他の設立登記法人,山形県,酒田市,亀ケ崎４丁目５番４６号,,06,204,9980842,,,2026-01-22,清算の結了等,,,2015-10-05,1,,,,,オオイイイン,0
472,2430001049669,登記記録の閉鎖等,0,2026-02-03,2026-02-02,稲垣工芸株式会社,,株式会社,北海道,小樽市,新光５丁目９番１号,,01,203,0470152,,,2026-02-02,清算の結了等,,,2015-10-05,1,,,,,イナガキコウゲイ,0
477,2460001000356,登記記録の閉鎖等,0,2026-02-03,2026-01-28,株式会社国原産業,,株式会社,北海道,釧路郡釧路町,中央６丁目１９番地,,01,661,0880606,,,2026-01-28,合併による解散等,1430001082464,令和８年１月２３日札幌市西区発寒十五条十三丁目３番４０号株式会社北海道ＢＰ（1430001082464）に合併し解散,2015-10-05,1,,,,,クニハラサンギョウ,0
481,3010001071508,登記記録の閉鎖等,0,2026-02-03,2026-01-13,株式会社西川陶器,,株式会社,東京都,文京区,後楽２丁目２０番２号,,13,105,1120004,,,2026-01-13,清算の結了等,,,2015-10-05,1,,,,,,0
554,3011802022979,登記記録の閉鎖等,0,2026-02-03,2026-01-30,有限会社エアキューブ,,有限会社,東京都,葛飾区,高砂１丁目２５番２３－３０５号,,13,122,1250054,,,2026-01-30,清算の結了等,,,2015-10-05,1,,,,,エアキューブ,0
555,3011802027400,登記記録の閉鎖等,0,2026-02-03,2026-01-29,アドバンス有限会社,,有限会社,東京都,足立区,本木南町１８番２０号,,13,121,1230855,,,2026-01-29,清算の結了等,,,2015-10-05,1,,,,,アドバンス,0
558,3013102006885,登記記録の閉鎖等,0,2026-02-03,2026-01-30,有限会社モトハシ,,有限会社,東京都,青梅市,塩船３２８番地,,13,205,1980011,,,2026-01-30,清算の結了等,,,2015-10-05,1,,,,,,0
568,3020002086768,登記記録の閉鎖等,0,2026-02-03,2026-01-26,有限会社綜合統計企画,,有限会社,神奈川県,川崎市幸区,南加瀬５丁目３５番２８号,,14,132,2120055,,,2026-01-26,清算の結了等,,,2015-10-05,1,,,,,ソウゴウトウゴウキカク,0
572,3021001024834,登記記録の閉鎖等,0,2026-02-03,2026-01-14,株式会社青木モータース,,株式会社,神奈川県,大和市,草柳１丁目９番地１１,,14,213,2420026,,,2026-01-14,清算の結了等,,,2015-10-05,1,,,,,アオキモータース,0
579,3040001040154,登記記録の閉鎖等,0,2026-02-03,2026-01-05,アイエスエム・インタナショナル株式会社,,株式会社,千葉県,流山市,南流山３丁目１０番７号,,12,220,2700163,,,2026-01-05,合併による解散等,2040001040188,令和８年１月１日千葉県流山市南流山三丁目１０番地１６サンコーテクノ株式会社（2040001040188）に合併し解散,2015-10-05,1,,,,,アイエスエムインタナショナル,0
581,3040001081000,登記記録の閉鎖等,0,2026-02-03,2025-12-05,オンライン・ビジネス・ソリューション株式会社,,株式会社,東京都,台東区,浅草橋２丁目２９番１１号６階,,13,106,1110053,,,2025-12-05,合併による解散等,9010501053058,令和７年１２月１日東京都台東区浅草橋二丁目２９番１１号６階ビット・スキャン・テクノロジー株式会社（9010501053058）に合併し解散,2015-10-05,1,,,,,オンラインビジネスソリューション,0
595,3070001014106,登記記録の閉鎖等,0,2026-02-03,2026-01-30,新生産業株式会社,,株式会社,群馬県,伊勢崎市,美茂呂町３７０９番地３,,10,204,3720037,,,2026-01-30,清算の結了等,,,2015-10-05,1,,,,,シンセイサンギョウ,0
610,3110002021344,登記記録の閉鎖等,0,2026-02-03,2026-01-29,有限会社藤巻製作所,,有限会社,新潟県,柏崎市,扇町４番３３号,,15,205,9450044,,,2026-01-29,清算の結了等,,,2015-10-05,1,,,,,フジマキセイサクショ,0
615,3120001259166,登記記録の閉鎖等,0,2026-02-03,2026-01-13,ＲｅＳｏｗグループ株式会社,,株式会社,大阪府,大阪市阿倍野区,阿倍野筋１丁目１番４３号あべのハルカス２９階,,27,119,5450052,,,2026-01-13,合併による解散等,5120001280921,令和８年１月１日大阪市阿倍野区阿倍野筋一丁目１番４３号あべのハルカス２９階ＲｅＳｏｗホールディングス株式会社（5120001280921）に合併し解散,2023-10-30,1,,,,,リソウグループ,0
617,3120101041845,登記記録の閉鎖等,0,2026-02-03,2026-01-28,藤原高速運輸株式会社,,株式会社,大阪府,和泉市,平井町３２２番地の１,,27,219,5941115,,,2026-01-28,清算の結了等,,,2015-10-05,1,,,,,フジワラコウソクウンユ,0
619,3120103006045,登記記録の閉鎖等,0,2026-02-03,2026-01-28,合同会社武中商店,,合同会社,大阪府,岸和田市,八幡町７－１－２１４,,27,202,5960023,,,2026-01-28,清算の結了等,,,2024-09-10,1,,,,,タケナカショウテン,0
630,3140002062971,登記記録の閉鎖等,0,2026-02-03,2026-01-28,有限会社ワールドハチハチ,,有限会社,兵庫県,加東市,東古瀬１３７番地３,,28,228,6731423,,,2026-01-28,清算の結了等,,,2015-10-05,1,,,,,ワールドハチハチ,0
642,3180003010265,登記記録の閉鎖等,0,2026-02-03,2026-01-28,合資会社中興,,合資会社,愛知県,小牧市,大字北外山２６８０番地の１,,23,219,4850023,,,2026-01-28,清算の結了等,,,2015-10-05,1,,,,,チュウコウ,0
657,3220002011689,登記記録の閉鎖等,0,2026-02-03,2026-02-02,有限会社山本テクスチュア,,有限会社,石川県,能美市,福島町タ７２番地,,17,211,9290112,,,2026-02-02,清算の結了等,,,2015-10-05,1,,,,,ヤマモトテクスチュア,0
658,3240001003958,登記記録の閉鎖等,0,2026-02-03,2026-01-27,栄産業株式会社,,株式会社,広島県,広島市中区,光南２丁目７番６号,,34,101,7300825,,,2026-01-27,清算の結了等,,,2015-10-05,1,,,,,サカエサンギョウ,0
666,3260001036287,登記記録の閉鎖等,0,2026-02-03,2026-01-30,株式会社ＴＲＩＢＥ,,株式会社,岡山県,岡山市北区,奉還町３丁目８番９号,,33,101,7000026,,,2026-01-30,清算の結了等,,,2021-12-07,1,,,,,トライブ,0
681,3330003003352,登記記録の閉鎖等,0,2026-02-03,2026-01-28,株式会社ＭＳＩ,,株式会社,熊本県,熊本市東区,桜木４丁目１６番２９－２号２０２,,43,102,8612101,,,2026-01-28,清算の結了等,,,2015-10-05,1,,,,,エムエスアイ,0
713,4010102011007,登記記録の閉鎖等,0,2026-02-03,2026-01-28,有限会社イシン・ハチオウジ・オペレーションズ,,有限会社,東京都,八王子市,明神町４丁目６番１２号,,13,201,1920046,,,2026-01-28,合併による解散等,4010401116076,令和８年１月１日東京都文京区本郷一丁目２５番２７号株式会社イシン・スイドウバシ・オペレーションズ（4010401116076）に合併し解散,2015-10-05,1,,,,,イシンハチオウジオペレーションズ,0
735,4010801018987,登記記録の閉鎖等,0,2026-02-03,2026-01-23,保田商店株式会社,,株式会社,東京都,大田区,大森東５丁目３６番２号,,13,111,1430012,,,2026-01-23,清算の結了等,,,2015-10-05,1,,,,,ヤスダショウテン,0
741,4011001128321,登記記録の閉鎖等,0,2026-02-03,2026-01-08,株式会社ＢＯＯＫＳＣＡＰＥ,,株式会社,東京都,目黒区,自由が丘１丁目８番９号岡田ビル,,13,110,1520035,,,2026-01-08,清算の結了等,,,2019-06-04,1,,,,,ブックスケープ,0
754,4011101099231,登記記録の閉鎖等,0,2026-02-03,2026-01-06,デイラボ株式会社,,株式会社,東京都,新宿区,西新宿８丁目８番１３号,,13,104,1600023,,,2026-01-06,合併による解散等,6011101058739,令和８年１月１日東京都新宿区西新宿７－４－７イマス浜田ビル５階株式会社エスペラント（6011101058739）に合併し解散,2022-06-15,1,,,,,デイラボ,0
762,4011303003981,登記記録の閉鎖等,0,2026-02-03,2026-01-26,食楽アライ合同会社,,合同会社,東京都,杉並区,高円寺北２丁目１０番７号ヴィラグリーンＢ号室,,13,115,1660002,,,2026-01-26,清算の結了等,,,2021-04-09,1,,,,,ショクラクアライ,0
765,4011402002447,登記記録の閉鎖等,0,2026-02-03,2026-01-29,有限会社亀山パン店,,有限会社,東京都,板橋区,常盤台４丁目２９番１５号,,13,119,1740071,,,2026-01-29,清算の結了等,,,2015-10-05,1,,,,,カメヤマパンテン,0
773,4013301028234,登記記録の閉鎖等,0,2026-02-03,2026-01-26,ガーデンハイツ株式会社,,株式会社,東京都,豊島区,高田１丁目３８番１１号,,13,116,1710033,,,2026-01-26,清算の結了等,,,2015-10-05,1,,,,,ガーデンハイツ,0
774,4013301052300,登記記録の閉鎖等,0,2026-02-03,2026-01-21,株式会社ライフタイムジャパン,,株式会社,東京都,台東区,日本堤２丁目７番３号Ａｒｂｌｅ三ノ輪１０２,,13,106,1110021,,,2026-01-21,清算の結了等,,,2024-04-02,1,,,,,ライフタイムジャパン,0
809,4070001042015,登記記録の閉鎖等,0,2026-02-03,2026-01-27,三進プレス工業株式会社,,株式会社,群馬県,館林市,大字赤生田２６３２番地,,10,207,,,,2026-01-27,清算の結了等,,,2024-08-06,1,,,,,,1
810,4070002020341,登記記録の閉鎖等,0,2026-02-03,2026-01-29,有限会社小此木製作所,,有限会社,群馬県,伊勢崎市,境木島１３３番地の６,,10,204,3700104,,,2026-01-29,清算の結了等,,,2015-10-05,1,,,,,オコノギセイサクジョ,0
820,4110001005215,登記記録の閉鎖等,0,2026-02-03,2026-01-29,株式会社萬善,,株式会社,新潟県,新潟市中央区,水道町２丁目８０８番地３７,,15,103,9518121,,,2026-01-29,清算の結了等,,,2015-10-05,1,,,,,バンゼン,0
821,4110002011162,登記記録の閉鎖等,0,2026-02-03,2026-01-28,有限会社旬屋,,有限会社,新潟県,新潟市西蒲区,巻甲２２２７番地,,15,108,9530041,,,2026-01-28,清算の結了等,,,2015-10-05,1,,,,,シュンヤ,0
823,4110002017993,登記記録の閉鎖等,0,2026-02-03,2026-01-29,有限会社アルフア,,有限会社,新潟県,三条市,西本成寺２丁目２６番２号,,15,204,9550845,,,2026-01-29,清算の結了等,,,2015-10-05,1,,,,,アルフア,0
829,4120001123049,登記記録の閉鎖等,0,2026-02-03,2026-01-30,株式会社マキ,,株式会社,大阪府,大阪市大正区,南恩加島６丁目４番１８号,,27,108,5510021,,,2026-01-30,清算の結了等,,,2015-10-05,1,,,,,マキ,0
831,4120001199857,登記記録の閉鎖等,0,2026-02-03,2026-01-30,株式会社マツ,,株式会社,大阪府,大阪市大正区,平尾２丁目２３番１７－１１３号,,27,108,5510012,,,2026-01-30,清算の結了等,,,2016-08-03,1,,,,,マツ,0
843,4120901011716,登記記録の閉鎖等,0,2026-02-03,2026-01-30,日本キャリー観光株式会社,,株式会社,大阪府,高槻市,岡本町４３番１号,,27,207,5691137,,,2026-01-30,清算の結了等,,,2015-10-05,1,,,,,,0
850,4130001042495,登記記録の閉鎖等,0,2026-02-03,2026-01-30,株式会社ナムラ,,株式会社,京都府,向日市,向日町北山１番地,,26,208,6170005,,,2026-01-30,清算の結了等,,,2015-10-05,1,,,,,ナムラ,0
882,4200001003416,登記記録の閉鎖等,0,2026-02-03,2026-01-30,株式会社千代田商会,,株式会社,岐阜県,岐阜市,茜部菱野４丁目６６番地,,21,201,5008268,,,2026-01-30,清算の結了等,,,2015-10-05,1,,,,,,0
901,4310002005524,登記記録の閉鎖等,0,2026-02-03,2026-02-02,有限会社ミモザ,,有限会社,長崎県,長崎市,平和町１０番１７号,,42,201,8528116,,,2026-02-02,清算の結了等,,,2015-10-05,1,,,,,ミモザ,0
904,4320002014458,登記記録の閉鎖等,0,2026-02-03,2026-02-02,有限会社佐藤食品工業,,有限会社,大分県,豊後高田市,水取３４３番地１,,44,209,8790625,,,2026-02-02,清算の結了等,,,2015-10-05,1,,,,,,0
918,4380001022885,登記記録の閉鎖等,0,2026-02-03,2026-01-29,クリーン・テクト株式会社,,株式会社,福島県,福島市,西中央５丁目５４番地の６,,07,201,9608074,,,2026-01-29,清算の結了等,,,2015-10-05,1,,,,,,0
921,4390002014848,登記記録の閉鎖等,0,2026-02-03,2026-01-29,有限会社オクヤマ,,有限会社,山形県,長井市,台町２番２号,,06,209,9930016,,,2026-01-29,清算の結了等,,,2015-10-05,1,,,,,オクヤマ,0
928,4440002004273,登記記録の閉鎖等,0,2026-02-03,2026-01-29,株式会社松杵商事,,株式会社,北海道,函館市,松風町７番１８号,,01,202,0400035,,,2026-01-29,清算の結了等,,,2015-10-05,1,,,,,マツキネショウジ,0
930,4460301005004,登記記録の閉鎖等,0,2026-02-03,2026-01-30,株式会社あぐり,,株式会社,北海道,網走郡津別町,字大通３０番地１,,01,544,0920231,,,2026-01-30,清算の結了等,,,2021-08-10,1,,,,,アグリ,0
934,4500002007906,登記記録の閉鎖等,0,2026-02-03,2026-01-30,有限会社トミナルデンソー,,有限会社,愛媛県,松山市,古三津４丁目１５０番地,,38,201,7918067,,,2026-01-30,清算の結了等,,,2015-10-05,1,,,,,トミナルデンソー,0
935,4500003001172,登記記録の閉鎖等,0,2026-02-03,2026-02-02,合同会社獺祭,,合同会社,愛媛県,松山市,生石町６４０番地ハイライズ・ビュー８０３号,,38,201,7900051,,,2026-02-02,清算の結了等,,,2015-10-05,1,,,,,ダッサイ,0
943,5010401068151,登記記録の閉鎖等,0,2026-02-03,2026-01-09,株式会社ａｃｔｉｏｎ　ｔｈｉｓ　ｄａｙ,,株式会社,東京都,港区,六本木６丁目１番２０号六本木電気ビル７Ｆ,,13,103,1060032,,,2026-01-09,清算の結了等,,,2015-10-05,1,,,,,アクションディスデイ,0
954,5010501005839,登記記録の閉鎖等,0,2026-02-03,2026-01-20,桂ビル興業株式会社,,株式会社,東京都,台東区,蔵前３丁目１６番４号,,13,106,1110051,,,2026-01-20,清算の結了等,,,2025-03-26,1,,,,,カツラビルコウギョウ,0
964,5011001117785,登記記録の閉鎖等,0,2026-02-03,2026-01-08,株式会社スリーステージ,,株式会社,東京都,港区,麻布十番１丁目５番１０号,,13,103,1060045,,,2026-01-08,清算の結了等,,,2017-08-15,1,,,,,スリーステージ,0
995,5020001057033,登記記録の閉鎖等,0,2026-02-03,2026-01-27,エルファーム株式会社,,株式会社,神奈川県,横浜市金沢区,柴町３９１番地マリンシティ金沢文庫Ｆ棟３１０号,,14,108,2360012,,,2026-01-27,清算の結了等,,,2015-10-05,1,,,,,エルファーム,0
1021,5040003003033,登記記録の閉鎖等,0,2026-02-03,2026-01-05,ゴルフクラブ数値．ｃｏｍ合同会社,,合同会社,千葉県,浦安市,富士見５丁目１２番５－６０１号ライオンズマンション舞浜第２,,12,227,2790043,,,2026-01-05,清算の結了等,,,2015-10-05,1,,,,,ゴルフクラブスウチドットコム,0
1022,5040003021472,登記記録の閉鎖等,0,2026-02-03,2026-01-13,ＶＩＳＩＯＮ　ｘ　ＶＩＳＩＯＮ合同会社,,合同会社,千葉県,柏市,松ケ崎２４７番地６栗林クレス３０３号,,12,217,2770835,,,2026-01-13,清算の結了等,,,2022-12-14,1,,,,,ビジョンビジョン,0
1036,5100003007291,登記記録の閉鎖等,0,2026-02-03,2026-01-26,おだるま合同会社,,合同会社,長野県,東筑摩郡生坂村,３３１０－８,,20,448,3997201,,,2026-01-26,清算の結了等,,,2023-12-04,1,,,,,オダルマ,0
1037,5110002024155,登記記録の閉鎖等,0,2026-02-03,2026-01-28,パル設計有限会社,,有限会社,新潟県,上越市,安塚区牧野１４番地１,,15,222,9420412,,,2026-01-28,清算の結了等,,,2015-10-05,1,,,,,パルセッケイ,0
1038,5120001046273,登記記録の閉鎖等,0,2026-02-03,2026-01-30,株式会社日鋼商会,,株式会社,大阪府,大阪市西区,靱本町１丁目１９番２３－８１２号,,27,106,5500004,,,2026-01-30,清算の結了等,,,2015-10-05,1,,,,,ニッコウショウカイ,0
1058,5140005014778,登記記録の閉鎖等,0,2026-02-03,2026-01-30,洗心教本部教会,,その他の設立登記法人,兵庫県,神崎郡福崎町,八千種３１１４番地,,28,443,6792202,,,2026-01-30,清算の結了等,,,2015-10-05,1,,,,,センシンキョウホンブキョウカイ,0
1060,5160002000242,登記記録の閉鎖等,0,2026-02-03,2026-01-30,上田太有限会社,,有限会社,滋賀県,大津市,滋賀里１丁目２７番地,,25,201,5200006,,,2026-01-30,清算の結了等,,,2015-10-05,1,,,,,ウエダタ,0
1061,5170001008368,登記記録の閉鎖等,0,2026-02-03,2026-02-02,株式会社ダブルエージェンシー,,株式会社,和歌山県,紀の川市,貴志川町神戸１０２２番地１,,30,208,6400413,,,2026-02-02,清算の結了等,,,2015-10-05,1,,,,,ダブルエージェンシー,0
1084,5220002009112,登記記録の閉鎖等,0,2026-02-03,2026-01-30,有限会社興松電気,,有限会社,石川県,白山市,千代野西７丁目８番地９,,17,210,9240072,,,2026-01-30,清算の結了等,,,2015-10-05,1,,,,,コウショウデンキ,0
1094,5260002022499,登記記録の閉鎖等,0,2026-02-03,2026-01-30,有限会社ケイ・ジイ・アイカンパニー,,有限会社,岡山県,倉敷市,北畝７丁目３番８号,,33,202,7128032,,,2026-01-30,清算の結了等,,,2015-10-05,1,,,,,ケイジイアイカンパニー,0
1099,5290002054837,登記記録の閉鎖等,0,2026-02-03,2026-01-19,安全プロパン有限会社,,有限会社,福岡県,大牟田市,日出町３丁目１番地の１,,40,202,8360802,,,2026-01-19,清算の結了等,,,2015-10-05,1,,,,,アンゼンプロパン,0
1100,5290003005673,登記記録の閉鎖等,0,2026-02-03,2026-01-21,タスカル合同会社,,合同会社,福岡県,福岡市中央区,今川１丁目１２番４０号,,40,133,8100054,,,2026-01-21,清算の結了等,,,2015-10-05,1,,,,,タスカル,0
1108,5310002005201,登記記録の閉鎖等,0,2026-02-03,2026-01-30,有限会社松下熔接工場,,有限会社,長崎県,長崎市,出島町１３番１２号,,42,201,8500862,,,2026-01-30,清算の結了等,,,2015-10-05,1,,,,,マツシタヨウセツコウジョウ,0
1109,5310002008856,登記記録の閉鎖等,0,2026-02-03,2026-02-02,有限会社ＵＮ　ＥＱＵＡＬＥＤ,,有限会社,長崎県,長崎市,住吉町１３番４号ＬＡ　ＢＥＬＬＡビル１階,,42,201,8528154,,,2026-02-02,清算の結了等,,,2015-10-05,1,,,,,,0
1113,5320005001931,登記記録の閉鎖等,0,2026-02-03,2026-02-02,医療法人敬正会,,その他の設立登記法人,大分県,大分市,金池町３丁目１番７７号,,44,201,8700026,,,2026-02-02,清算の結了等,,,2015-10-05,1,,,,,ケイセイカイ,0
1117,5330002026848,登記記録の閉鎖等,0,2026-02-03,2026-01-28,有限会社松永全司商店,,有限会社,熊本県,八代市,千丁町新牟田５２１番地,,43,202,8694703,,,2026-01-28,清算の結了等,,,2015-10-05,1,,,,,マツナガゼンジショウテン,0
1126,5360002010238,登記記録の閉鎖等,0,2026-02-03,2026-01-26,有限会社ＫＲＴ,,有限会社,沖縄県,南城市,大里字大城１８７１番地１２,,47,215,9011203,,,2026-01-26,清算の結了等,,,2015-10-05,1,,,,,ケイアールティー,0
1150,5480001005813,登記記録の閉鎖等,0,2026-02-03,2026-01-30,株式会社カミングシステム,,株式会社,徳島県,鳴門市,里浦町里浦字坂田４３２番地１５５ビラ・フェニックス岡崎海岸２０４号室,,36,202,7720021,,,2026-01-30,清算の結了等,,,2015-10-05,1,,,,,カミングシステム,0
1161,6010002037488,登記記録の閉鎖等,0,2026-02-03,2026-01-09,有限会社ＭＥＳＳＡ,,有限会社,東京都,中央区,銀座６丁目３番１７号,,13,102,1040061,,,2026-01-09,清算の結了等,,,2015-10-05,1,,,,,メサ,0
1164,6010005021662,登記記録の閉鎖等,0,2026-02-03,2026-01-29,一般財団法人日本栄養療法推進協議会,,その他の設立登記法人,東京都,文京区,大塚５丁目３番１３号,,13,105,1120012,,,2026-01-29,清算の結了等,,,2015-10-05,1,,,,,ニホンエイヨウリョウホウスイシンキョウギカイ,0
1168,6010401104888,登記記録の閉鎖等,0,2026-02-03,2026-01-29,株式会社Ｉ・Ｇ・Ｓ,,株式会社,東京都,港区,南麻布３丁目２０番１号麻布グリーンテラス５階,,13,103,1060047,,,2026-01-29,清算の結了等,,,2015-10-05,1,,,,,アイジーエス,0
1171,6010401173784,登記記録の閉鎖等,0,2026-02-03,2025-12-23,ＡＺＢＡＳＥ株式会社,,株式会社,東京都,港区,浜松町２丁目２番１５号浜松町ダイヤビル２Ｆ,,13,103,1050013,,,2025-12-23,清算の結了等,,,2023-04-17,1,,,,,アズベース,0
1220,6011501023607,登記記録の閉鎖等,0,2026-02-03,2026-01-13,楽天マート株式会社,,株式会社,東京都,世田谷区,玉川１丁目１４番１号,,13,112,1580094,,,2026-01-13,合併による解散等,9010701020592,令和８年１月１日東京都世田谷区玉川一丁目１４番１号楽天グループ株式会社（9010701020592）に合併し解散,2018-04-05,1,,,,,ラクテンマート,0
1225,6011801009198,登記記録の閉鎖等,0,2026-02-03,2026-02-02,株式会社ソシアル,,株式会社,東京都,足立区,梅田５丁目２番３号,,13,121,1230851,,,2026-02-02,清算の結了等,,,2015-10-05,1,,,,,ソシアル,0
1228,6012301011768,登記記録の閉鎖等,0,2026-02-03,2026-02-02,株式会社佐藤建装,,株式会社,東京都,町田市,鶴川５丁目５番地１４、２階,,13,209,1950061,,,2026-02-02,清算の結了等,,,2019-06-04,1,,,,,サトウケンソウ,0
1234,6013202014141,登記記録の閉鎖等,0,2026-02-03,2026-01-08,有限会社ワンストップエフピー,,有限会社,東京都,目黒区,目黒１丁目４番１６号目黒Ｇビル７Ｆ,,13,110,1530063,,,2026-01-08,清算の結了等,,,2015-10-05,1,,,,,ワンストップエフピー,0
1235,6013402006764,登記記録の閉鎖等,0,2026-02-03,2026-01-29,有限会社工藤設備,,有限会社,東京都,多摩市,聖ヶ丘２丁目２２番地３－３,,13,224,2060022,,,2026-01-29,清算の結了等,,,2015-10-05,1,,,,,,0
1236,6020001054491,登記記録の閉鎖等,0,2026-02-03,2026-01-21,株式会社横浜ディスプレイ,,株式会社,神奈川県,横浜市旭区,上川井町２０４６番地１,,14,112,2410802,,,2026-01-21,清算の結了等,,,2015-10-05,1,,,,,ヨコハマディスプレイ,0
1247,6021001013223,登記記録の閉鎖等,0,2026-02-03,2026-01-26,株式会社テラテック,,株式会社,神奈川県,相模原市緑区,橋本台３丁目１８番２５号,,14,151,2520132,,,2026-01-26,清算の結了等,,,2015-10-05,1,,,,,テラテック,0
1248,6021001023156,登記記録の閉鎖等,0,2026-02-03,2026-01-13,株式会社アイ・ケイ・ディー,,株式会社,神奈川県,秦野市,南矢名１８５７番地の１３０,,14,211,2570003,,,2026-01-13,清算の結了等,,,2015-10-05,1,,,,,アイケイディー,0
1254,6021003006167,登記記録の閉鎖等,0,2026-02-03,2025-12-23,合同会社Ｌｉｆｅ,,合同会社,神奈川県,相模原市中央区,共和４丁目１６番２０号ダイアパレス淵野辺１０５号,,14,152,2520234,,,2025-12-23,清算の結了等,,,2016-09-02,1,,,,,,0
1259,6030002027611,登記記録の閉鎖等,0,2026-02-03,2026-01-28,有限会社菊池,,有限会社,埼玉県,戸田市,上戸田３丁目５番７号,,11,224,3350022,,,2026-01-28,清算の結了等,,,2015-10-05,1,,,,,キクチ,0
1264,6040001111010,登記記録の閉鎖等,0,2026-02-03,2026-01-14,ＴＹＴ．株式会社,,株式会社,千葉県,市原市,能満１８６６番地４０,,12,219,2900011,,,2026-01-14,清算の結了等,,,2019-10-04,1,,,,,ティーワイティードット,0
1280,6070001018954,登記記録の閉鎖等,0,2026-02-03,2026-01-30,株式会社オリテム,,株式会社,群馬県,太田市,泉町１３５７番地の３,,10,205,3730845,,,2026-01-30,清算の結了等,,,2015-10-05,1,,,,,オリテム,0
1291,6100002031837,登記記録の閉鎖等,0,2026-02-03,2026-01-29,有限会社マルヨ清水,,有限会社,長野県,岡谷市,中央町３丁目１番２０号,,20,204,3940027,,,2026-01-29,清算の結了等,,,2015-10-05,1,,,,,マルヨシミズ,0
1292,6110001010790,登記記録の閉鎖等,0,2026-02-03,2026-01-28,レジデンシャルバンク株式会社,,株式会社,新潟県,新潟市中央区,米山１丁目１番地１１,,15,103,9500916,,,2026-01-28,清算の結了等,,,2015-10-05,1,,,,,レジデンシャルバンク,0
1295,6120001169461,登記記録の閉鎖等,0,2026-02-03,2026-01-30,株式会社コーウン,,株式会社,大阪府,大阪市生野区,小路東５丁目２２番１２号ハイツ紀の国３０８号,,27,116,5440003,,,2026-01-30,清算の結了等,,,2015-10-05,1,,,,,コーウン,0
1307,6120901038947,登記記録の閉鎖等,0,2026-02-03,2026-02-02,石けん百貨株式会社,,株式会社,大阪府,茨木市,郡４丁目４番１９号,,27,211,5670072,,,2026-02-02,清算の結了等,,,2017-09-19,1,,,,,,0
1321,6180001096460,登記記録の閉鎖等,0,2026-02-03,2026-01-29,株式会社すぎ屋,,株式会社,愛知県,津島市,牛田町字角田３７番地,,23,208,4960018,,,2026-01-29,清算の結了等,,,2025-12-26,1,,,,,スギヤ,0
1351,6240005001088,登記記録の閉鎖等,0,2026-02-03,2026-02-02,医療法人社団あゆみ会,,その他の設立登記法人,広島県,広島市安佐北区,狩留家町１２９８番地の１,,34,106,7391753,,,2026-02-02,清算の結了等,,,2015-10-05,1,,,,,アユミカイ,0
1376,6330002024974,登記記録の閉鎖等,0,2026-02-03,2026-01-28,有限会社レグルス,,有限会社,熊本県,下益城郡美里町,馬場１４４８番地,,43,348,8614406,,,2026-01-28,清算の結了等,,,2015-10-05,1,,,,,レグルス,0
1392,6390002001464,登記記録の閉鎖等,0,2026-02-03,2026-01-30,有限会社鈴木熔接工業,,有限会社,山形県,山形市,大字中野４０１６番地,,06,201,9900892,,,2026-01-30,清算の結了等,,,2015-10-05,1,,,,,スズキヨウセツコウギョウ,0
1393,6390002012098,登記記録の閉鎖等,0,2026-02-03,2026-01-30,有限会社アジヤ,,有限会社,山形県,東根市,一本木１丁目５番２４号,,06,211,9993717,,,2026-01-30,清算の結了等,,,2015-10-05,1,,,,,アジヤ,0
1399,6410002013127,登記記録の閉鎖等,0,2026-02-03,2026-01-30,有限会社玉屋紙店,,有限会社,秋田県,横手市,大町４番２５号,,05,203,0130021,,,2026-01-30,清算の結了等,,,2015-10-05,1,,,,,タマヤカミテン,0
1401,6430001080471,登記記録の閉鎖等,0,2026-02-03,2026-01-29,株式会社Ｒｅｌａｔｉｖｉｔｙ,,株式会社,北海道,札幌市中央区,南六条西１８丁目１番２号ウェルス医大前２０１号室,,01,101,0640806,,,2026-01-29,清算の結了等,,,2019-12-16,1,,,,,リラティビティ,0
1402,6430002022200,登記記録の閉鎖等,0,2026-02-03,2026-01-28,有限会社ルベ・ブラウン,,有限会社,北海道,札幌市豊平区,西岡二条８丁目１番３０号,,01,105,0620032,,,2026-01-28,清算の結了等,,,2015-10-05,1,,,,,ルベブラウン,0
1403,6430002051587,登記記録の閉鎖等,0,2026-02-03,2026-02-02,有限会社山ヤ松田商店,,有限会社,北海道,空知郡南幌町,元町２丁目３番８号,,01,423,0690238,,,2026-02-02,清算の結了等,,,2015-10-05,1,,,,,,0
1408,6470005006221,登記記録の閉鎖等,0,2026-02-03,2026-01-30,一般社団法人ＬＵＸ手法認定協会,,その他の設立登記法人,香川県,高松市,香川町大野９１６番地１,,37,201,7611701,,,2026-01-30,清算の結了等,,,2019-10-11,1,,,,,ラックス,0
1414,6500005002836,登記記録の閉鎖等,0,2026-02-03,2026-01-30,医療法人堀川外科胃腸科医院,,その他の設立登記法人,愛媛県,喜多郡内子町,内子１６１７番地,,38,422,7913301,,,2026-01-30,清算の結了等,,,2015-10-05,1,,,,,ホリカワゲカイチョウカイイン,0
1462,7011101111967,登記記録の閉鎖等,0,2026-02-03,2026-01-06,株式会社ジェイ・ケイ・エム,,株式会社,東京都,新宿区,下宮比町１番４号,,13,104,1620822,,,2026-01-06,清算の結了等,,,2025-05-30,1,,,,,ジェイケイエム,0
1463,7011105004903,登記記録の閉鎖等,0,2026-02-03,2026-01-06,特定非営利活動法人筍,,その他の設立登記法人,東京都,新宿区,上落合３丁目２９番７号コーポ・プロスパ２０２,,13,104,1610034,,,2026-01-06,清算の結了等,,,2015-10-05,1,,,,,タケノコ,0
1464,7011301018566,登記記録の閉鎖等,0,2026-02-03,2026-01-28,株式会社ｆｍ,,株式会社,東京都,杉並区,高円寺北１丁目２０番７号,,13,115,1660002,,,2026-01-28,清算の結了等,,,2015-10-05,1,,,,,エフエム,0
1465,7011303004085,登記記録の閉鎖等,0,2026-02-03,2026-01-26,合同会社ナナホシ,,合同会社,東京都,杉並区,方南２丁目２０番１０号ラ・パルフェ・ド・グリシン４０３,,13,115,1680062,,,2026-01-26,清算の結了等,,,2021-07-07,1,,,,,ナナホシ,0
1473,7011802021861,登記記録の閉鎖等,0,2026-02-03,2026-01-30,有限会社関谷,,有限会社,東京都,葛飾区,東新小岩６丁目２８番９号,,13,122,1240023,,,2026-01-30,清算の結了等,,,2015-10-05,1,,,,,セキヤ,0
1493,7020003024715,登記記録の閉鎖等,0,2026-02-03,2026-01-26,ＶＵＤＤＹ　ＢＡＳＥ合同会社,,合同会社,神奈川県,川崎市川崎区,観音１丁目１３番１０号,,14,131,2100831,,,2026-01-26,清算の結了等,,,2023-10-05,1,,,,,ヴュディーベイス,0
1504,7040002029878,登記記録の閉鎖等,0,2026-02-03,2026-01-07,有限会社ノアノア花屋,,有限会社,千葉県,八千代市,八千代台東１丁目１番１０号ユアエルム内,,12,221,2760032,,,2026-01-07,清算の結了等,,,2015-10-05,1,,,,,ノアノアハナヤ,0
1505,7040002083660,登記記録の閉鎖等,0,2026-02-03,2026-01-05,有限会社内村自動車整備工場,,有限会社,千葉県,香取郡多古町,南玉造６１番地の１,,12,347,2892325,,,2026-01-05,清算の結了等,,,2015-10-05,1,,,,,ウチムラジドウシャセイビコウジョウ,0
1522,7110002018254,登記記録の閉鎖等,0,2026-02-03,2026-01-28,有限会社協進建工,,有限会社,新潟県,加茂市,大字加茂新田１０００４番地１,,15,209,9591311,,,2026-01-28,清算の結了等,,,2015-10-05,1,,,,,キョウシンケンコウ,0
1523,7110002032040,登記記録の閉鎖等,0,2026-02-03,2026-01-28,阿部建築有限会社,,有限会社,新潟県,小千谷市,本町１丁目６番６号,,15,208,9470021,,,2026-01-28,清算の結了等,,,2015-10-05,1,,,,,アベケンチク,0
1538,7120901012364,登記記録の閉鎖等,0,2026-02-03,2026-01-27,株式会社エコプラン,,株式会社,大阪府,三島郡島本町,水無瀬２丁目２番５号２０２,,27,301,6180014,,,2026-01-27,合併による解散等,2020001046179,令和８年１月１日横浜市中区住吉町六丁目６８番１号株式会社エス・アイ・ティー（2020001046179）に合併し解散,2015-10-05,1,,,,,エコプラン,0
1545,7140001077067,登記記録の閉鎖等,0,2026-02-03,2026-01-28,株式会社ライフマネジメント,,株式会社,兵庫県,加西市,北条町横尾１１０７番地,,28,220,6752311,,,2026-01-28,清算の結了等,,,2015-10-05,1,,,,,ライフマネジメント,0
1556,7180001079282,登記記録の閉鎖等,0,2026-02-03,2026-01-29,丸茂商事株式会社,,株式会社,愛知県,瀬戸市,北脇町３１番地,,23,204,4890918,,,2026-01-29,清算の結了等,,,2015-10-05,1,,,,,マルシゲショウジ,0
1594,7240002051746,登記記録の閉鎖等,0,2026-02-03,2026-01-28,吉末建設有限会社,,有限会社,広島県,尾道市,美ノ郷町三成１１５５番地の１,,34,205,7220215,,,2026-01-28,清算の結了等,,,2015-10-05,1,,,,,ヨシスエケンセツ,0
1599,7260002002623,登記記録の閉鎖等,0,2026-02-03,2026-01-28,片山殖産有限会社,,有限会社,岡山県,岡山市中区,桑野３５３番地の５,,33,102,7028002,,,2026-01-28,清算の結了等,,,2015-10-05,1,,,,,カタヤマショクサン,0
1607,7290003014185,登記記録の閉鎖等,0,2026-02-03,2026-01-20,合同会社いろどり,,合同会社,福岡県,福岡市博多区,博多駅前２丁目１９番１７号トーカン博多第５ビル３１２号室,,40,132,8120011,,,2026-01-20,清算の結了等,,,2023-08-02,1,,,,,イロドリ,0
1616,7320003000140,登記記録の閉鎖等,0,2026-02-03,2026-01-30,合資会社宮崎酒舗,,合資会社,大分県,大分市,千代町２丁目３番１号,,44,201,8700033,,,2026-01-30,清算の結了等,,,2015-10-05,1,,,,,ミヤザキシュホ,0
1625,7340002002854,登記記録の閉鎖等,0,2026-02-03,2026-01-28,有限会社鹿児島整体術研究所,,有限会社,鹿児島県,鹿児島市,和田３丁目３３番１０号,,46,201,8910143,,,2026-01-28,清算の結了等,,,2015-10-05,1,,,,,カゴシマセイタイジュツケンキュウショ,0
1630,7360002001648,登記記録の閉鎖等,0,2026-02-03,2026-01-30,有限会社恒設備設計,,有限会社,沖縄県,那覇市,寄宮２丁目２８番１４号２Ｆ,,47,201,9020064,,,2026-01-30,清算の結了等,,,2015-10-05,1,,,,,コウセツビセッケイ,0
1633,7370002014566,登記記録の閉鎖等,0,2026-02-03,2026-01-30,有限会社仙台リビング広告社,,有限会社,宮城県,仙台市青葉区,錦町１丁目１番９号三徳ビル２Ｆ,,04,101,9800012,,,2026-01-30,清算の結了等,,,2015-10-05,1,,,,,センダイリビングコウコクシャ,0
1636,7370101000228,登記記録の閉鎖等,0,2026-02-03,2026-02-02,宮城エレクトロン株式会社,,株式会社,宮城県,柴田郡村田町,大字村田字西田６３番地,,04,322,9891305,,,2026-02-02,合併による解散等,3370101001262,令和８年２月１日宮城県刈田郡蔵王町大字円田字屋敷１９番地の１ユーワ精巧株式会社（3370101001262）に合併し解散,2015-10-05,1,,,,,ミヤギエレクトロン,0
1644,7430001026457,登記記録の閉鎖等,0,2026-02-03,2026-02-02,株式会社エスビーエス,,株式会社,北海道,札幌市南区,澄川３８９番地６ベニーチェ札幌内,,01,106,0050007,,,2026-02-02,清算の結了等,,,2015-10-05,1,,,,,エスビーエス,0
1667,8010401117319,登記記録の閉鎖等,0,2026-02-03,2026-01-13,ＧａｌａｘＥ．Ｈｅａｌｔｈｃａｒｅ　Ｓｏｌｕｔｉｏｎｓ　Ｊａｐａｎ株式会社,,株式会社,東京都,中央区,日本橋３丁目９番１号日本橋三丁目スクエア１１階,,13,102,1030027,,,2026-01-13,清算の結了等,,,2015-10-05,1,,,,,ギャラクシーヘルスケアソリューションズジャパン,0
1670,8010401172198,登記記録の閉鎖等,0,2026-02-03,2026-01-07,カタリナマーケティングジャパン株式会社,,株式会社,東京都,港区,虎ノ門２丁目２番１号住友不動産虎ノ門タワー,,13,103,1050001,,,2026-01-07,合併による解散等,4010401170775,令和８年１月６日東京都港区南青山三丁目１番３号スプライン青山東急ビル３階Ｙｏｓｅｍｉｔｅ１株式会社（4010401170775）に合併し解散,2023-01-31,1,,,,,カタリナマーケティングジャパン,0
1708,8011101091093,登記記録の閉鎖等,0,2026-02-03,2026-01-05,株式会社ＢＩＴ　Ｒｅｔａｉｌ＆Ｒｅｓｔａｕｒａｎｔ,,株式会社,東京都,新宿区,新宿５丁目１１番２２号,,13,104,1600022,,,2026-01-05,合併による解散等,4011101017977,令和７年１２月３１日東京都新宿区新宿五丁目１１番２２号中島ビル株式会社ビジネス・インフオメイシヨン・トレイデイング（4011101017977）に合併し解散,2020-04-16,1,,,,,ビットリテールアンドレストラン,0
1720,8011501032135,登記記録の閉鎖等,0,2026-02-03,2026-01-28,株式会社御嵐商事,,株式会社,東京都,北区,中里１丁目２１番２号中里ビル１Ｆ,,13,117,1140015,,,2026-01-28,清算の結了等,,,2025-05-29,1,,,,,オアラシショウジ,0
1762,8040003017559,登記記録の閉鎖等,0,2026-02-03,2026-01-09,合同会社Ｍ＆Ｂ,,合同会社,千葉県,松戸市,八ケ崎６丁目５６番地の１９ジュネコーポ八ケ崎１０２号,,12,207,2700023,,,2026-01-09,清算の結了等,,,2021-04-16,1,,,,,エムアンドビー,0
1785,8100002021027,登記記録の閉鎖等,0,2026-02-03,2026-01-30,有限会社ナビコ,,有限会社,長野県,塩尻市,大字広丘野村２２３９番地,,20,215,3990702,,,2026-01-30,清算の結了等,,,2015-10-05,1,,,,,ナビコ,0
1789,8120001019937,登記記録の閉鎖等,0,2026-02-03,2026-01-30,株式会社関西美術,,株式会社,大阪府,大阪市中央区,北久宝寺町２丁目５番７号,,27,128,5410057,,,2026-01-30,清算の結了等,,,2015-10-05,1,,,,,カンサイビジュツ,0
1803,8130002018243,登記記録の閉鎖等,0,2026-02-03,2026-01-30,有限会社クリークカンパニー,,有限会社,京都府,京都市右京区,西京極堤町４４番地２,,26,108,6150863,,,2026-01-30,清算の結了等,,,2015-10-05,1,,,,,,0
1815,8150003002806,登記記録の閉鎖等,0,2026-02-03,2026-01-26,合同会社トゥスタート,,合同会社,奈良県,奈良市,中町２２１番地の６,,29,201,6310052,,,2026-01-26,清算の結了等,,,2022-11-01,1,,,,,トゥスタート,0
1821,8180001138871,登記記録の閉鎖等,0,2026-02-03,2026-01-29,株式会社ＳＥＡ－ＭＥＤ,,株式会社,愛知県,一宮市,萩原町河田方字三味浦５５番地１,,23,203,4910366,,,2026-01-29,清算の結了等,,,2019-11-14,1,,,,,シーメッド,0
1830,8200001027527,登記記録の閉鎖等,0,2026-02-03,2026-01-30,株式会社野々村美容商事,,株式会社,岐阜県,岐阜市,光町１丁目２８番地,,21,201,5020901,,,2026-01-30,清算の結了等,,,2015-10-05,1,,,,,,0
1851,8310002005198,登記記録の閉鎖等,0,2026-02-03,2026-01-30,有限会社松下水産,,有限会社,長崎県,長崎市,京泊２丁目５番４号,,42,201,8512211,,,2026-01-30,合併による解散等,8310005000122,令和８年１月３０日長崎市京泊二丁目５番４号株式会社新長崎（8310005000122）に合併し解散,2015-10-05,1,,,,,マツシタスイサン,0
1856,8340002013784,登記記録の閉鎖等,0,2026-02-03,2026-01-28,有限会社スウェルカンパニー,,有限会社,鹿児島県,霧島市,国分広瀬３丁目１０４４番２７号,,46,218,8994321,,,2026-01-28,清算の結了等,,,2015-10-05,1,,,,,スウェルカンパニー,0
1863,8380001000474,登記記録の閉鎖等,0,2026-02-03,2026-01-29,ＶＡＮメディカ株式会社,,株式会社,福島県,福島市,太平寺字堰ノ上５２番地の１,,07,201,9608151,,,2026-01-29,清算の結了等,,,2015-10-05,1,,,,,ヴァンメディカ,0
1909,9010401099473,登記記録の閉鎖等,0,2026-02-03,2026-01-13,株式会社Ｍｏｎｚｅｎ　Ｃｏｒｐｏｒａｔｉｏｎ　Ｊａｐａｎ,,株式会社,東京都,世田谷区,玉川１丁目１４番１号,,13,112,1580094,,,2026-01-13,合併による解散等,9010701020592,令和８年１月１日東京都世田谷区玉川一丁目１４番１号楽天グループ株式会社（9010701020592）に合併し解散,2015-10-05,1,,,,,モンゼンコーポレーションジャパン,0
1925,9010501026807,登記記録の閉鎖等,0,2026-02-03,2025-12-16,株式会社オフィスＦ２１,,株式会社,東京都,台東区,寿３丁目２０番７－６０３号,,13,106,1110042,,,2025-12-16,清算の結了等,,,2015-10-05,1,,,,,オフィスエフニジュウイチ,0
1967,9020002105365,登記記録の閉鎖等,0,2026-02-03,2026-01-28,有限会社くふう,,有限会社,神奈川県,川崎市中原区,新城５丁目９番９号,,14,133,2110044,,,2026-01-28,清算の結了等,,,2015-10-05,1,,,,,クフウ,0
1970,9020005003517,登記記録の閉鎖等,0,2026-02-03,2026-01-26,関東地区機械産業協同組合,,その他の設立登記法人,神奈川県,横浜市鶴見区,矢向５丁目９番７号,,14,101,2300001,,,2026-01-26,清算の結了等,,,2015-10-05,1,,,,,カントウチクキカイサンギョウ,0
1978,9030002053464,登記記録の閉鎖等,0,2026-02-03,2026-01-29,有限会社金子陶器店,,有限会社,埼玉県,上尾市,仲町１丁目８番２８号,,11,219,3620035,,,2026-01-29,清算の結了等,,,2015-10-05,1,,,,,カネコトウキテン,0
1979,9030002078791,登記記録の閉鎖等,0,2026-02-03,2026-01-29,有限会社ＴＹ企画,,有限会社,埼玉県,川越市,大字寺尾２１０番地３,,11,201,3501141,,,2026-01-29,清算の結了等,,,2015-10-05,1,,,,,ティワイキカク,0
1994,9080005004658,登記記録の閉鎖等,0,2026-02-03,2026-01-29,釜谷茶農業協同組合,,その他の設立登記法人,静岡県,島田市,横岡５７３番地の３,,22,209,4280004,,,2026-01-29,清算の結了等,,,2015-10-05,1,,,,,カマヤチャ,0
1998,9100001024839,登記記録の閉鎖等,0,2026-02-03,2026-01-29,株式会社アルムあぶらや,,株式会社,長野県,須坂市,臥竜６丁目１２番２４号,,20,207,3820028,,,2026-01-29,清算の結了等,,,2015-10-05,1,,,,,アルムアブラヤ,0
2000,9100002036230,登記記録の閉鎖等,0,2026-02-03,2026-01-27,有限会社久保田鉄工製作所,,有限会社,長野県,飯田市,錦町２丁目１９番地,,20,205,3950083,,,2026-01-27,清算の結了等,,,2015-10-05,1,,,,,クボタテッコウセイサクショ,0
2019,9120001275083,登記記録の閉鎖等,0,2026-02-03,2026-01-20,大阪東方海事株式会社,,株式会社,大阪府,大阪市天王寺区,上本町５丁目７番２－４１０号,,27,109,5430001,,,2026-01-20,清算の結了等,,,2025-05-14,1,,,,,オオサカトウホウカイジ,0
2023,9120002016940,登記記録の閉鎖等,0,2026-02-03,2026-01-30,有限会社ホワイト・ローズ,,有限会社,大阪府,大阪市住之江区,浜口西２丁目１２番７号,,27,125,5590006,,,2026-01-30,清算の結了等,,,2015-10-05,1,,,,,ホワイトローズ,0
2028,9120005022812,登記記録の閉鎖等,0,2026-02-03,2026-01-26,特定非営利活動法人スミエモ,,その他の設立登記法人,大阪府,大阪市住之江区,新北島１丁目２－１オスカードリーム５階,,27,125,5590024,,,2026-01-26,清算の結了等,,,2022-03-08,1,,,,,スミエモ,0
2031,9130001065608,登記記録の閉鎖等,0,2026-02-03,2026-01-27,新関西グリーン物流株式会社,,株式会社,京都府,八幡市,川口堀ノ内１番地の１,,26,210,6148103,,,2026-01-27,清算の結了等,,,2019-11-08,1,,,,,シンカンサイグリーンブツリュウ,0
2042,9140003011204,登記記録の閉鎖等,0,2026-02-03,2026-01-30,合同会社Ｐ－ｓｈ－ｓｈ,,合同会社,兵庫県,神戸市垂水区,歌敷山１丁目３番１５号パールコースト１０３号,,28,108,6550037,,,2026-01-30,清算の結了等,,,2016-02-02,1,,,,,,0
2044,9150002007912,登記記録の閉鎖等,0,2026-02-03,2026-01-30,有限会社サンウッズ,,有限会社,奈良県,磯城郡田原本町,大字八尾５８４番地５メゾン良１０７号室,,29,363,6360311,,,2026-01-30,清算の結了等,,,2015-10-05,1,,,,,サンウッズ,0
2045,9160001016260,登記記録の閉鎖等,0,2026-02-03,2026-01-30,株式会社フリオネス,,株式会社,滋賀県,野洲市,栄１９－３,,25,210,5202333,,,2026-01-30,清算の結了等,,,2015-10-05,1,,,,,フリオネス,0
2060,9180301001571,登記記録の閉鎖等,0,2026-02-03,2026-01-27,東永産業株式会社,,株式会社,愛知県,岡崎市,竜美東１丁目２番地３,,23,202,4440878,,,2026-01-27,清算の結了等,,,2015-10-05,1,,,,,トウエイサンギョウ,0
2065,9180302002379,登記記録の閉鎖等,0,2026-02-03,2026-01-27,有限会社リフォーム・カタオカ,,有限会社,愛知県,岡崎市,細光町字山下１２番地,,23,202,4443615,,,2026-01-27,清算の結了等,,,2015-10-05,1,,,,,リフォームカタオカ,0
2066,9180303006338,登記記録の閉鎖等,0,2026-02-03,2026-01-28,ＯＭＡＭＯＲＩ合同会社,,合同会社,愛知県,豊田市,上渡合町前田２８１番地１,,23,211,4700462,,,2026-01-28,清算の結了等,,,2024-11-12,1,,,,,オマモリ,0
2070,9200001005985,登記記録の閉鎖等,0,2026-02-03,2026-01-30,株式会社渡辺養蜂場,,株式会社,岐阜県,岐阜市,加納鉄砲町２丁目４３番地,,21,201,5008453,,,2026-01-30,清算の結了等,,,2015-10-05,1,,,,,ワタナベヨウホウジョウ,0
2071,9200001042847,登記記録の閉鎖等,0,2026-02-03,2026-01-28,株式会社ＴＯＫＯＭＡＳＡ,,株式会社,岐阜県,揖斐郡池田町,上田１１５６番地の３メゾン・ダンデライオンＥ１０１,,21,404,5032415,,,2026-01-28,清算の結了等,,,2024-08-20,1,,,,,トコマサ,0
2083,9240005014095,登記記録の閉鎖等,0,2026-02-03,2026-01-30,医療法人ＪＲ広島病院,,その他の設立登記法人,広島県,広島市東区,二葉の里３丁目１番３６号,,34,102,7320057,,,2026-01-30,清算の結了等,,,2016-02-25,1,,,,,ジェイアールヒロシマビョウイン,0
2097,9290801017354,登記記録の閉鎖等,0,2026-02-03,2026-01-19,株式会社プロフィット・ラボ,,株式会社,福岡県,北九州市小倉北区,清水３丁目７番８号,,40,106,8030841,,,2026-01-19,清算の結了等,,,2015-10-05,1,,,,,,0
2102,9310005007190,登記記録の閉鎖等,0,2026-02-03,2026-02-02,医療法人入船クリニック,,その他の設立登記法人,長崎県,諫早市,真崎町１６１０番地７,,42,204,8540084,,,2026-02-02,清算の結了等,,,2015-10-05,1,,,,,イリフネクリニック,0
2111,9380001000721,登記記録の閉鎖等,0,2026-02-03,2026-01-21,株式会社セイコー,,株式会社,福島県,福島市,新町２番１１号,,07,201,9608036,,,2026-01-21,清算の結了等,,,2015-10-05,1,,,,,セイコー,0
2112,9380001018714,登記記録の閉鎖等,0,2026-02-03,2026-01-29,峰岸鉄工建設株式会社,,株式会社,福島県,喜多方市,熱塩加納町加納字村東甲１７８６番地４,,07,208,9660103,,,2026-01-29,清算の結了等,,,2015-10-05,1,,,,,,0
