sequenceNumber,corporateNumber,process,correct,updateDate,changeDate,name,nameImageId,kind,prefectureName,cityName,streetNumber,addressImageId,prefectureCode,cityCode,postCode,addressOutside,addressOutsideImageId,closeDate,closeCause,successorCorporateNumber,changeCause,assignmentDate,latest,enName,enPrefectureName,enCityName,enAddressOutside,furigana,hihyoji
6,1010001247588,新規,0,2024-08-28,2024-08-28,株式会社コンテナマネジメントサービス,,株式会社,東京都,千代田区,神田和泉町１番地６－１６ヤマトビル４０５,,13,101,1010024,,,,,,,2024-08-28,1,,,,,コンテナマネジメントサービス,0
7,1010001247729,新規,0,2024-08-28,2024-08-28,３Ｄ　ＭＡＴＳ　ＪＡＰＡＮ株式会社,,株式会社,東京都,中央区,日本橋本町３丁目３番６号ワカ末ビル７階,,13,102,1030023,,,,,,,2024-08-28,1,,,,,スリーディーマッツジャパン,0
8,1010001247852,新規,0,2024-08-28,2024-08-28,株式会社エイチ・エス・ジェイホールディングス,,株式会社,東京都,千代田区,神田神保町３丁目１２－３神保町スリービル８階,,13,101,1010051,,,,,,,2024-08-28,1,,,,,エイチエスジェイホールディングス,0
10,1010003044703,新規,0,2024-08-28,2024-08-28,長信投資管理合同会社,,合同会社,東京都,千代田区,内幸町２丁目２番２号富国生命ビル渥美坂井法律事務所内,,13,101,1000011,,,,,,,2024-08-28,1,,,,,チョウシントウシカンリ,0
11,1010003044744,新規,0,2024-08-28,2024-08-28,合同会社道,,合同会社,東京都,文京区,千駄木１丁目６番２号,,13,105,1130022,,,,,,,2024-08-28,1,,,,,ミチ,0
13,1010005038711,新規,0,2024-08-28,2024-08-28,一般社団法人中野プロパティ,,その他の設立登記法人,東京都,千代田区,神田小川町３丁目２６番８号神田小川町三丁目ビル６階,,13,101,1010052,,,,,,,2024-08-28,1,,,,,ナカノプロパティ,0
14,1010105002294,新規,0,2024-08-28,2024-08-28,医療法人社団にじいろこどもとみんなのクリニック,,その他の設立登記法人,東京都,八王子市,散田町３丁目１７番１号コピオ西八王子駅前２階,,13,201,1930832,,,,,,,2024-08-28,1,,,,,ニジイロコドモトミンナノクリニック,0
19,1010401184539,新規,0,2024-08-28,2024-08-28,株式会社ＩＶＹ,,株式会社,東京都,港区,南青山３丁目１番３６号,,13,103,1070062,,,,,,,2024-08-28,1,,,,,アイビー,0
20,1010401184588,新規,0,2024-08-28,2024-08-28,ＧＬホールディングス株式会社,,株式会社,東京都,港区,南青山１丁目１０番３号,,13,103,1070062,,,,,,,2024-08-28,1,,,,,ジーエルホールディングス,0
21,1010401184745,新規,0,2024-08-28,2024-08-28,株式会社ＪａｎｄＹ,,株式会社,東京都,港区,南麻布５丁目３番４６号Ａ,,13,103,1060047,,,,,,,2024-08-28,1,,,,,ジェイアンドワイ,0
24,1010501052827,新規,0,2024-08-28,2024-08-28,新日建株式会社,,株式会社,東京都,台東区,台東４丁目１０番７号安井ビル１階,,13,106,1100016,,,,,,,2024-08-28,1,,,,,シンニッケン,0
28,1010603011045,新規,0,2024-08-28,2024-08-28,ＨＯＰＥ合同会社,,合同会社,東京都,江東区,辰巳１丁目７番２８－６１２号,,13,108,1350053,,,,,,,2024-08-28,1,,,,,ホープ,0
37,1011001164253,新規,0,2024-08-28,2024-08-28,株式会社世界一,,株式会社,東京都,渋谷区,神宮前３丁目３１番地２・１階,,13,113,1500001,,,,,,,2024-08-28,1,,,,,セカイイチ,0
38,1011001164311,新規,0,2024-08-28,2024-08-28,株式会社ｋｎｏｃｔａｖｅ,,株式会社,東京都,渋谷区,恵比寿４丁目２０番３号恵比寿ガーデンプレイスタワー１９階,,13,113,1500013,,,,,,,2024-08-28,1,,,,,ノクターブ,0
39,1011001164336,新規,0,2024-08-28,2024-08-28,株式会社ＭＥＳＨ‐Ｘ,,株式会社,東京都,渋谷区,神宮前５丁目５２番２号,,13,113,1500001,,,,,,,2024-08-28,1,,,,,メッシュエックス,0
45,1011101108498,新規,0,2024-08-28,2024-08-28,株式会社１ｄｅｓｉｇｎ,,株式会社,東京都,新宿区,大京町３１－１４御苑住宅１階,,13,104,1600015,,,,,,,2024-08-28,1,,,,,ワンデザイン,0
46,1011101108580,新規,0,2024-08-28,2024-08-28,株式会社アンリミテッド・フューチャー・グループ,,株式会社,東京都,新宿区,新宿１丁目３６番２号新宿第七葉山ビル３Ｆ,,13,104,1600022,,,,,,,2024-08-28,1,,,,,アンリミテッドフューチャーグループ,0
47,1011101108597,新規,0,2024-08-28,2024-08-28,株式会社Ｐｒｉｔｈｍａ,,株式会社,東京都,新宿区,市谷田町３丁目８番,,13,104,1620843,,,,,,,2024-08-28,1,,,,,プリズマ,0
48,1011103014835,新規,0,2024-08-28,2024-08-28,合同会社ＡｓｉａｎＦａｌｃｏｎ　Ｉｎｖｅｓｔｍｅｎｔ,,合同会社,東京都,新宿区,南元町２５－１０,,13,104,1600012,,,,,,,2024-08-28,1,,,,,アジアンファルコンインベストメント,0
52,1011801044753,新規,0,2024-08-28,2024-08-28,株式会社ハル,,株式会社,東京都,足立区,舎人４丁目２番１２号,,13,121,1210831,,,,,,,2024-08-28,1,,,,,ハル,0
67,1020001158768,新規,0,2024-08-28,2024-08-28,株式会社ｋｈ,,株式会社,神奈川県,横浜市港北区,高田東４丁目２０番１号,,14,109,2230065,,,,,,,2024-08-28,1,,,,,ケイエイチ,0
68,1020001158867,新規,0,2024-08-28,2024-08-28,株式会社Ｍｅｔａｓｅｑｕｏｉａ,,株式会社,神奈川県,横浜市泉区,和泉町３２６２番地１コスモＡｏｉガレージハウス横浜ゆめが丘３号棟Ｂ号室,,14,116,2450016,,,,,,,2024-08-28,1,,,,,メタセコイヤ,0
69,1020001158875,新規,0,2024-08-28,2024-08-28,株式会社友和,,株式会社,神奈川県,横浜市中区,相生町１丁目７番地,,14,104,2310012,,,,,,,2024-08-28,1,,,,,ユウワ,0
70,1020001158925,新規,0,2024-08-28,2024-08-28,ＴＡＫＥＳ株式会社,,株式会社,神奈川県,川崎市川崎区,京町３丁目２０番１－５１１号,,14,131,2100848,,,,,,,2024-08-28,1,,,,,,0
71,1020001158941,新規,0,2024-08-28,2024-08-28,株式会社Ｉ‐Ｓｅｉｋａ,,株式会社,神奈川県,横浜市磯子区,磯子３丁目１１番２７号ジュウェル磯子２１１号,,14,107,2350016,,,,,,,2024-08-28,1,,,,,アイセイカ,0
75,1020003026725,新規,0,2024-08-28,2024-08-28,ＲＩＭＩＡ合同会社,,合同会社,神奈川県,横浜市鶴見区,矢向２丁目７－２０－６,,14,101,2300001,,,,,,,2024-08-28,1,,,,,リミア,0
76,1020003026816,新規,0,2024-08-28,2024-08-28,合同会社バルグリーン,,合同会社,神奈川県,横浜市磯子区,森１丁目１０－２０ライオンズステーション１０６,,14,107,2350023,,,,,,,2024-08-28,1,,,,,バルグリーン,0
79,1021001083080,新規,0,2024-08-28,2024-08-28,株式会社ＡＢカンパニー,,株式会社,神奈川県,相模原市緑区,西橋本１丁目７番７号,,14,151,2520131,,,,,,,2024-08-28,1,,,,,エービーカンパニー,0
80,1021001083106,新規,0,2024-08-28,2024-08-28,株式会社ＬＥＶＥＬ　Ａｒｃｈｉｔｅｃｔｓ一級建築士事務所,,株式会社,神奈川県,藤沢市,柄沢２丁目３５番地の１２,,14,205,2510003,,,,,,,2024-08-28,1,,,,,レベルアーキテクツイッキュウケンチクシジムショ,0
81,1021001083114,新規,0,2024-08-28,2024-08-28,株式会社エステートスワマ,,株式会社,神奈川県,藤沢市,湘南台６丁目１４番地の３,,14,205,2520804,,,,,,,2024-08-28,1,,,,,エステートスワマ,0
85,1030001162141,新規,0,2024-08-28,2024-08-28,株式会社ＴＯＭＯＮＥＡ,,株式会社,埼玉県,加須市,下高柳４８０番地１,,11,210,3470033,,,,,,,2024-08-28,1,,,,,トモニア,0
86,1030001162190,新規,0,2024-08-28,2024-08-28,Ａ・Ｋサービス株式会社,,株式会社,埼玉県,新座市,栗原５丁目６番２０号Ａ－２０３,,11,230,3520035,,,,,,,2024-08-28,1,,,,,エイケイサービス,0
91,1030003025016,新規,0,2024-08-28,2024-08-28,遠大合同会社,,合同会社,埼玉県,新座市,新座１丁目３番２号,,11,230,3520006,,,,,,,2024-08-28,1,,,,,エンダイ,0
94,1040001135113,新規,0,2024-08-28,2024-08-28,いろはコンサルティング株式会社,,株式会社,千葉県,成田市,上町５５１,,12,211,2860032,,,,,,,2024-08-28,1,,,,,イロハコンサルティング,0
95,1040001135146,新規,0,2024-08-28,2024-08-28,株式会社アートセレクト,,株式会社,千葉県,野田市,宮崎８５番地１９,,12,208,2780005,,,,,,,2024-08-28,1,,,,,アートセレクト,0
113,1100003007634,新規,0,2024-08-28,2024-08-28,合同会社ＹｅｌｌｏｗＢｕｓ,,合同会社,長野県,北安曇郡白馬村,大字北城８３６－１９２,,20,485,3999301,,,,,,,2024-08-28,1,,,,,イエローバス,0
122,1120001268037,新規,0,2024-08-28,2024-08-28,株式会社Ｎａｌｕ　ｗａｖｅ,,株式会社,大阪府,大阪市西区,靱本町１丁目１４番１１号３０１,,27,106,5500004,,,,,,,2024-08-28,1,,,,,ナルウェーブ,0
123,1120001268053,新規,0,2024-08-28,2024-08-28,秀艷株式会社,,株式会社,大阪府,大阪市城東区,関目５丁目１９番９号関目花博公館５０１Ｂ,,27,118,5360008,,,,,,,2024-08-28,1,,,,,シュウエン,0
124,1120001268061,新規,0,2024-08-28,2024-08-28,株式会社まかし,,株式会社,大阪府,大阪市淀川区,宮原２丁目１－４９,,27,123,5320003,,,,,,,2024-08-28,1,,,,,マカシ,0
125,1120001268078,新規,0,2024-08-28,2024-08-28,大原コンサルティング株式会社,,株式会社,大阪府,大阪市北区,西天満３丁目６番３号西天満福岡ビル５階,,27,127,5300047,,,,,,,2024-08-28,1,,,,,オオハラコンサルティング,0
126,1120001268103,新規,0,2024-08-28,2024-08-28,ＳＵＮＮＹ株式会社,,株式会社,大阪府,大阪市平野区,平野宮町１丁目４番３４号,,27,126,5470046,,,,,,,2024-08-28,1,,,,,サニー,0
127,1120003027390,新規,0,2024-08-28,2024-08-28,合同会社Ｃｏｅｕｒ　Ｔｅｎｄｒｅ,,合同会社,大阪府,枚方市,野村中町２０番２９号,,27,210,5730144,,,,,,,2024-08-28,1,,,,,クールタンドル,0
128,1120101070202,新規,0,2024-08-28,2024-08-28,株式会社神谷設備,,株式会社,大阪府,南河内郡千早赤阪村,大字小吹６８番地６７０,,27,383,5850053,,,,,,,2024-08-28,1,,,,,カミタニセツビ,0
130,1120103006030,新規,0,2024-08-28,2024-08-28,合同会社アクワーク,,合同会社,大阪府,泉佐野市,大西２丁目３－１４,,27,213,5980043,,,,,,,2024-08-28,1,,,,,アクワーク,0
139,1130001077809,新規,0,2024-08-28,2024-08-28,宝ヶ池ホールディングス株式会社,,株式会社,京都府,京都市左京区,上高野車地町１５４番地,,26,103,6060053,,,,,,,2024-08-28,1,,,,,タカラガイケホールディングス,0
148,1150001027522,新規,0,2024-08-28,2024-08-28,株式会社リトレ,,株式会社,奈良県,宇陀市,榛原萩原２８４３番地の２６,,29,212,6330253,,,,,,,2024-08-28,1,,,,,リトレ,0
149,1180001162985,新規,0,2024-08-28,2024-08-28,安達株式会社,,株式会社,愛知県,名古屋市西区,五才美町６番地メゾンヤスフク２０５号,,23,104,4520806,,,,,,,2024-08-28,1,,,,,アダチ,0
150,1180001163034,新規,0,2024-08-28,2024-08-28,株式会社ヒトノワトラスト,,株式会社,愛知県,名古屋市千種区,内山３丁目１０番１２号,,23,101,4640075,,,,,,,2024-08-28,1,,,,,ヒトノワトラスト,0
157,1180003027286,新規,0,2024-08-28,2024-08-28,Ｋｒｅｓｔ合同会社,,合同会社,愛知県,長久手市,西原山１番地１,,23,238,4801138,,,,,,,2024-08-28,1,,,,,クレスト,0
160,1190001031586,新規,0,2024-08-28,2024-08-28,株式会社東亜ＨＤ,,株式会社,三重県,桑名市,大字大福５１３番地１,,24,205,5110834,,,,,,,2024-08-28,1,,,,,トウアホールディングス,0
167,1230001020502,新規,0,2024-08-28,2024-08-28,株式会社ＡＬ,,株式会社,富山県,中新川郡立山町,前沢２９９３番地,,16,323,9300221,,,,,,,2024-08-28,1,,,,,エーエル,0
168,1230003002283,新規,0,2024-08-28,2024-08-28,新堰不動産合同会社,,合同会社,富山県,富山市,五福字与平塚４９２５番地３,,16,201,9300887,,,,,,,2024-08-28,1,,,,,シンセキフドウサン,0
170,1240001063748,新規,0,2024-08-28,2024-08-28,ＢＩＺＯＬＶＨＯＭＥ株式会社,,株式会社,広島県,福山市,新涯町２丁目８番４号,,34,207,7210955,,,,,,,2024-08-28,1,,,,,ビゾルヴホーム,0
175,1290001107038,新規,0,2024-08-28,2024-08-28,株式会社ごきげんコーポレーション,,株式会社,福岡県,福岡市博多区,祇園町２－２１－６０１,,40,132,8120038,,,,,,,2024-08-28,1,,,,,ゴキゲンコーポレーション,0
176,1290001107062,新規,0,2024-08-28,2024-08-28,ＫＭＪ株式会社,,株式会社,福岡県,福岡市中央区,天神２丁目２番１２号７階,,40,133,8100001,,,,,,,2024-08-28,1,,,,,ケイエムジェイ,0
177,1290001107087,新規,0,2024-08-28,2024-08-28,株式会社Ｒｕｎａ,,株式会社,福岡県,福岡市南区,横手１丁目６番２１号,,40,134,8111311,,,,,,,2024-08-28,1,,,,,ルナ,0
180,1290003015742,新規,0,2024-08-28,2024-08-28,こんどう経営労務サポート合同会社,,合同会社,福岡県,糸島市,伊都の杜１丁目１番７－４０１号,,40,230,8191130,,,,,,,2024-08-28,1,,,,,コンドウケイエイロウムサポート,0
186,1320001020682,新規,0,2024-08-28,2024-08-28,株式会社ひの・インテリア,,株式会社,大分県,由布市,湯布院町川上３７２８番地１３,,44,213,8795102,,,,,,,2024-08-28,1,,,,,ヒノインテリア,0
189,1330003010540,新規,0,2024-08-28,2024-08-28,Ｄ＆Ｔ　ＧＲＯＵＰ合同会社,,合同会社,熊本県,熊本市西区,上熊本３丁目２－３,,43,103,8600079,,,,,,,2024-08-28,1,,,,,ディーアンドティーグループ,0
195,1380001034751,新規,0,2024-08-28,2024-08-28,株式会社リスト,,株式会社,福島県,いわき市,平字五色町７７番地レジデンス兼喜３－Ｂ,,07,204,9708026,,,,,,,2024-08-28,1,,,,,リスト,0
206,1420001018840,新規,0,2024-08-28,2024-08-28,ツキタチ株式会社,,株式会社,青森県,青森市,本町２丁目９―２,,02,201,0300802,,,,,,,2024-08-28,1,,,,,ツキタチ,0
228,1700150126911,新規,0,2024-08-28,2024-08-28,ＭＥＭＡ　ＥＮＴＥＲＰＲＩＳＥＳ,,外国会社等,神奈川県,厚木市,飯山南２丁目２１番１７－２０２,,14,212,2430218,スリランカ民主社会主義共和国、マワネッラ、エラムドゥハラ、Ｎｏ．１５,,,,,,2024-08-28,1,,,,,メマエンタープライズ,0
235,2010001247686,新規,0,2024-08-28,2024-08-28,株式会社Ｂｒｉｄｇｅ　ｍｅｎｔｏ,,株式会社,東京都,中央区,勝どき４丁目６番２号,,13,102,1040054,,,,,,,2024-08-28,1,,,,,ブリッジメント,0
236,2010001247851,新規,0,2024-08-28,2024-08-28,株式会社エイチ・エス・ジェイグループ,,株式会社,東京都,千代田区,神田神保町３丁目１２－３神保町スリービル８階,,13,101,1010051,,,,,,,2024-08-28,1,,,,,エイチエスジェイグループ,0
238,2010003044702,新規,0,2024-08-28,2024-08-28,ＲＹ　Ａｓｓｅｔ　Ｍａｎａｇｅｍｅｎｔ　Ｊａｐａｎ合同会社,,合同会社,東京都,中央区,新川１丁目２２番１２－１１０２号,,13,102,1040033,,,,,,,2024-08-28,1,,,,,アールワイアセットマネジメントジャパン,0
239,2010003044719,新規,0,2024-08-28,2024-08-28,合同会社松崎アセットマネジメント,,合同会社,東京都,中央区,佃１丁目１１番３－７０６号,,13,102,1040051,,,,,,,2024-08-28,1,,,,,マツザキアセットマネジメント,0
240,2010003044727,新規,0,2024-08-28,2024-08-28,合同会社ＧＳＴ,,合同会社,東京都,千代田区,神田和泉町１番地６－１６ヤマトビル４０５,,13,101,1010024,,,,,,,2024-08-28,1,,,,,ジーエスティー,0
242,2010101016289,新規,0,2024-08-28,2024-08-28,幻瞳株式会社,,株式会社,東京都,八王子市,寺町４３－９,,13,201,1920073,,,,,,,2024-08-28,1,,,,,ゲンドウ,0
243,2010101016297,新規,0,2024-08-28,2024-08-28,株式会社ＤＳＫ,,株式会社,東京都,八王子市,散田町５丁目１９番８号,,13,201,1930832,,,,,,,2024-08-28,1,,,,,ディーエスケー,0
250,2010403033313,新規,0,2024-08-28,2024-08-28,Ｕｍａｍｉ　Ｂｉｏｗｏｒｋｓ合同会社,,合同会社,東京都,港区,西新橋１丁目１番１号１０階,,13,103,1050003,,,,,,,2024-08-28,1,,,,,ウマミバイオワークス,0
253,2010701046470,新規,0,2024-08-28,2024-08-28,株式会社ｒｅｔｉｐ,,株式会社,東京都,品川区,東中延１丁目１０番地１５号,,13,109,1420052,,,,,,,2024-08-28,1,,,,,レティップ,0
254,2010801035349,新規,0,2024-08-28,2024-08-28,大正ホーム株式会社,,株式会社,東京都,大田区,大森南３丁目２４－３,,13,111,1430013,,,,,,,2024-08-28,1,,,,,タイショウホーム,0
256,2010803005077,新規,0,2024-08-28,2024-08-28,合同会社エスト,,合同会社,東京都,大田区,南雪谷２丁目５番１２号シルクハウス雪谷２０２,,13,111,1450066,,,,,,,2024-08-28,1,,,,,エスト,0
262,2011001164310,新規,0,2024-08-28,2024-08-28,株式会社Ａｎｇｅｌｉｃ　Ｓｔａｒｄｕｓｔ,,株式会社,東京都,渋谷区,道玄坂１丁目１０番８号渋谷道玄坂東急ビル２Ｆ－Ｃ,,13,113,1500043,,,,,,,2024-08-28,1,,,,,エンジェリックスターダスト,0
263,2011001164319,新規,0,2024-08-28,2024-08-28,ステップテック株式会社,,株式会社,東京都,渋谷区,神宮前６丁目２３番４号桑野ビル２階,,13,113,1500001,,,,,,,2024-08-28,1,,,,,ステップテック,0
265,2011003019710,新規,0,2024-08-28,2024-08-28,合同会社フルックス,,合同会社,東京都,目黒区,碑文谷１丁目２６－１８碑文谷ヒルズサレジオ通り５１３,,13,110,1520003,,,,,,,2024-08-28,1,,,,,,0
266,2011003019900,新規,0,2024-08-28,2024-08-28,地域未来創造合同会社,,合同会社,東京都,渋谷区,神南１丁目１１番４号ＦＰＧリンクス神南５階,,13,113,1500041,,,,,,,2024-08-28,1,,,,,チイキミライソウゾウ,0
267,2011005010576,新規,0,2024-08-28,2024-08-28,一般社団法人日本アイケア協会,,その他の設立登記法人,東京都,渋谷区,代々木３丁目４６番１６号小野木ビル４０２,,13,113,1510053,,,,,,,2024-08-28,1,,,,,ニホンアイケアキョウカイ,0
274,2011101108571,新規,0,2024-08-28,2024-08-28,ＰＥＡＫ　ＷＥＬＬ株式会社,,株式会社,東京都,新宿区,西新宿３丁目３番１３号西新宿水間ビル２Ｆ,,13,104,1600023,,,,,,,2024-08-28,1,,,,,ピークウェル,0
278,2011401026374,新規,0,2024-08-28,2024-08-28,ＳＨＵＨＡＮＩ株式会社,,株式会社,東京都,板橋区,富士見町１４番５号,,13,119,1740062,,,,,,,2024-08-28,1,,,,,スハニ,0
279,2011401026382,新規,0,2024-08-28,2024-08-28,株式会社順惠商社,,株式会社,東京都,板橋区,西台１丁目１番１４－１０１号,,13,119,1740045,,,,,,,2024-08-28,1,,,,,ジュンエショウシャ,0
286,2011701027576,新規,0,2024-08-28,2024-08-28,株式会社ＴＩＭＥＬＥＳＳ,,株式会社,東京都,江戸川区,松江５丁目１０番７号ケインアベニュー船堀３０６号室,,13,123,1320025,,,,,,,2024-08-28,1,,,,,タイムレス,0
289,2011803006429,新規,0,2024-08-28,2024-08-28,合同会社蔵識,,合同会社,東京都,足立区,青井５丁目１１番２７－３０７号,,13,121,1210012,,,,,,,2024-08-28,1,,,,,クラシキ,0
291,2012401042221,新規,0,2024-08-28,2024-08-28,産業心身コンサルティングオフィス株式会社,,株式会社,東京都,武蔵野市,吉祥寺南町５丁目２番１２号,,13,203,1800003,,,,,,,2024-08-28,1,,,,,サンギョウシンシンコンサルティングオフィス,0
301,2020001158701,新規,0,2024-08-28,2024-08-28,株式会社ＡＰＩＬＬＯＸ,,株式会社,神奈川県,横浜市神奈川区,金港町５－１４クアドリフォリオ８階,,14,102,2210056,,,,,,,2024-08-28,1,,,,,アピロックス,0
302,2020001158734,新規,0,2024-08-28,2024-08-28,ｋｏｔｏｈｏｇｕ株式会社,,株式会社,神奈川県,川崎市川崎区,駅前本町１１番地２川崎フロンティアビル４階,,14,131,2100007,,,,,,,2024-08-28,1,,,,,コトホグ,0
303,2020001158742,新規,0,2024-08-28,2024-08-28,株式会社ＴＥＫＯ　ＴＥＫＯ,,株式会社,神奈川県,横浜市神奈川区,金港町１５－１４クアドリフォリオ８階,,14,102,2210056,,,,,,,2024-08-28,1,,,,,テコテコ,0
304,2020001158759,新規,0,2024-08-28,2024-08-28,株式会社メディカルアンチエイジング,,株式会社,神奈川県,横浜市神奈川区,松本町２丁目２０－５プリオルヨコハマ１０２,,14,102,2210841,,,,,,,2024-08-28,1,,,,,メディカルアンチエイジング,0
308,2020003026732,新規,0,2024-08-28,2024-08-28,合同会社Ａｕｇｅｒｅ,,合同会社,神奈川県,横浜市中区,長者町６丁目８８番地１号グラン・アルベーラ横濱・関内７０９号,,14,104,2310033,,,,,,,2024-08-28,1,,,,,アウジェーレ,0
310,2021001083105,新規,0,2024-08-28,2024-08-28,株式会社ＢＢ,,株式会社,神奈川県,藤沢市,大庭５２０４番地の２,,14,205,2510861,,,,,,,2024-08-28,1,,,,,ビービー,0
314,2030001162157,新規,0,2024-08-28,2024-08-28,株式会社ＡＧｉｔＯ,,株式会社,埼玉県,さいたま市大宮区,仲町１丁目６６番地２ドミノ杉浦ビル２Ｆ,,11,103,3300845,,,,,,,2024-08-28,1,,,,,アジト,0
316,2030003024999,新規,0,2024-08-28,2024-08-28,ｕｒｏｃｏ合同会社,,合同会社,埼玉県,川口市,元郷４丁目１９番１５－２号,,11,203,3320011,,,,,,,2024-08-28,1,,,,,ウロコ,0
317,2030003025007,新規,0,2024-08-28,2024-08-28,ワクテカ商会合同会社,,合同会社,埼玉県,春日部市,大畑６６,,11,214,3440022,,,,,,,2024-08-28,1,,,,,ワクテカショウカイ,0
318,2030003025015,新規,0,2024-08-28,2024-08-28,興和合同会社,,合同会社,埼玉県,新座市,栄５丁目１０－５,,11,230,3520014,,,,,,,2024-08-28,1,,,,,コウワ,0
324,2040003025690,新規,0,2024-08-28,2024-08-28,Ｇライズ合同会社,,合同会社,千葉県,船橋市,豊富町１４７８－２５,,12,204,2740053,,,,,,,2024-08-28,1,,,,,ジーライズ,0
344,2100001037780,新規,0,2024-08-28,2024-08-28,株式会社Ｋ‐Ｂｒａｎｄ,,株式会社,長野県,松本市,旭２丁目３番１１号スカイコート１０１,,20,202,3900802,,,,,,,2024-08-28,1,,,,,ケーブランド,0
350,2110001038670,新規,0,2024-08-28,2024-08-28,株式会社ｈａｎａｙａ,,株式会社,新潟県,新潟市中央区,近江２丁目３３番２号,,15,103,9500971,,,,,,,2024-08-28,1,,,,,ハナヤ,0
363,2120001268052,新規,0,2024-08-28,2024-08-28,和豊株式会社,,株式会社,大阪府,大阪市東成区,深江北３丁目４番２１号エクラ深江橋２１２Ｂ,,27,115,5370001,,,,,,,2024-08-28,1,,,,,ワホウ,0
364,2120001268102,新規,0,2024-08-28,2024-08-28,株式会社ハンユウ,,株式会社,大阪府,大阪市生野区,生野東３丁目１３番２７号,,27,116,5440025,,,,,,,2024-08-28,1,,,,,ハンユウ,0
365,2120001268110,新規,0,2024-08-28,2024-08-28,ＪＨＸＳ株式会社,,株式会社,大阪府,大阪市中央区,島之内２丁目６番１６第２右田ビル２Ｂ室,,27,128,5420082,,,,,,,2024-08-28,1,,,,,ジェイエイチエックスエス,0
366,2120001268135,新規,0,2024-08-28,2024-08-28,道基株式会社,,株式会社,大阪府,大阪市大正区,平尾４丁目１１－７－１０５,,27,108,5510012,,,,,,,2024-08-28,1,,,,,ドウキ,0
371,2120003027357,新規,0,2024-08-28,2024-08-28,大通合同会社,,合同会社,大阪府,大阪市西淀川区,花川２丁目２１番３号エル２０１号室,,27,113,5550023,,,,,,,2024-08-28,1,,,,,ダイツウ,0
372,2120003027398,新規,0,2024-08-28,2024-08-28,合同会社Ｌｕｍｉｅｒｅ,,合同会社,大阪府,大阪市西成区,潮路１丁目１番１３号アンフィニ１６岸里４０５,,27,122,5570052,,,,,,,2024-08-28,1,,,,,ルミエール,0
377,2120101070201,新規,0,2024-08-28,2024-08-28,株式会社ＡＴコアテック,,株式会社,大阪府,岸和田市,春木宮川町１０番１８号,,27,202,5960024,,,,,,,2024-08-28,1,,,,,エーティーコアテック,0
382,2120901049675,新規,0,2024-08-28,2024-08-28,アシダプランニング株式会社,,株式会社,大阪府,吹田市,片山町１丁目１番３６０３号,,27,205,5640082,,,,,,,2024-08-28,1,,,,,アシダプランニング,0
384,2122001038393,新規,0,2024-08-28,2024-08-28,株式会社Ｇｏｏｄ　Ｌｕｃｋ,,株式会社,大阪府,大東市,南津の辺町２３番２０号アークレジデンス野崎駅前１０２号,,27,218,5740016,,,,,,,2024-08-28,1,,,,,グッドラック,0
395,2180003027285,新規,0,2024-08-28,2024-08-28,合同会社エムズ,,合同会社,愛知県,名古屋市昭和区,鶴羽町２丁目１３番地の２,,23,107,4660011,,,,,,,2024-08-28,1,,,,,エムズ,0
402,2210001019891,新規,0,2024-08-28,2024-08-28,株式会社Ａｎ‐ｆａｃｉｌ,,株式会社,福井県,福井市,新田塚２丁目１１６番７号,,18,201,9100067,,,,,,,2024-08-28,1,,,,,アンファーシル,0
405,2230003002282,新規,0,2024-08-28,2024-08-28,合同会社Ｓｕｓｔｉｎ,,合同会社,富山県,小矢部市,福上３５７番地,,16,209,9320823,,,,,,,2024-08-28,1,,,,,サスティン,0
414,2290001107020,新規,0,2024-08-28,2024-08-28,株式会社Ａｕｇｕｓｔａ,,株式会社,福岡県,福岡市中央区,那の川２丁目７－２,,40,133,8100015,,,,,,,2024-08-28,1,,,,,オーガスタ,0
415,2290001107045,新規,0,2024-08-28,2024-08-28,株式会社ＶｏＬ,,株式会社,福岡県,福岡市中央区,清川１丁目１１－１５－１０１,,40,133,8100005,,,,,,,2024-08-28,1,,,,,ヴォル,0
416,2290001107078,新規,0,2024-08-28,2024-08-28,株式会社アビリティ・キュー,,株式会社,福岡県,福岡市中央区,薬院２丁目１３番３３号,,40,133,8100022,,,,,,,2024-08-28,1,,,,,アビリティキュー,0
417,2290001107086,新規,0,2024-08-28,2024-08-28,株式会社ヨシデンキ,,株式会社,福岡県,福岡市西区,下山門４丁目１８番３号,,40,135,8190052,,,,,,,2024-08-28,1,,,,,ヨシデンキ,0
419,2290003015709,新規,0,2024-08-28,2024-08-28,合同会社パークリース,,合同会社,福岡県,久留米市,東和町６番２０号,,40,203,8300035,,,,,,,2024-08-28,1,,,,,パークリース,0
420,2290003015725,新規,0,2024-08-28,2024-08-28,合同会社ＴＭＥＧＵ,,合同会社,福岡県,福岡市博多区,吉塚７丁目７番５１－２０１号グラビティハイツ,,40,132,8120041,,,,,,,2024-08-28,1,,,,,ティーエムエグ,0
423,2310001019147,新規,0,2024-08-28,2024-08-28,株式会社ＢｏｏＳＴ,,株式会社,長崎県,五島市,池田町５－２２,,42,211,8530018,,,,,,,2024-08-28,1,,,,,ブースト,0
437,2360003014249,新規,0,2024-08-28,2024-08-28,合同会社オズマティック,,合同会社,沖縄県,那覇市,牧志２丁目１７－２７－４０１,,47,201,9000013,,,,,,,2024-08-28,1,,,,,オズマティック,0
438,2360003014265,新規,0,2024-08-28,2024-08-28,アイのモリ合同会社,,合同会社,沖縄県,中頭郡北谷町,字吉原７２２－７Ｄ．ｇｒａｎＵ２０１,,47,326,9040105,,,,,,,2024-08-28,1,,,,,アイノモリ,0
444,2370005010831,新規,0,2024-08-28,2024-08-28,一般社団法人東日本企業人協会,,その他の設立登記法人,宮城県,仙台市青葉区,国分町１丁目７番１８号,,04,101,9800803,,,,,,,2024-08-28,1,,,,,ヒガシニホンキギョウジンキョウカイ,0
450,2430001092561,新規,0,2024-08-28,2024-08-28,株式会社シュウゼン,,株式会社,北海道,札幌市北区,屯田四条６丁目７番７号第３北進建鉄ビル,,01,102,0020854,,,,,,,2024-08-28,1,,,,,シュウゼン,0
460,2500001025852,新規,0,2024-08-28,2024-08-28,株式会社Ｃｏｒｒｅｃｔ,,株式会社,愛媛県,松山市,東石井５丁目２番１１号,,38,201,7900932,,,,,,,2024-08-28,1,,,,,コレクト,0
464,2700150126761,新規,0,2024-08-28,2024-08-16,東京浅草中央ロータリークラブ,,その他,東京都,台東区,西浅草３丁目１７－１浅草ビューホテル内,,13,106,1110035,,,,,,,2024-08-16,1,,,,,トウキヨウアサクサチユウオウロータリークラブ,0
465,2700150126910,新規,0,2024-08-28,2024-08-28,ＭＡＲＫＷＯＮ　ＥＮＴＥＲＰＲＩＳＥＳ,,外国会社等,神奈川県,愛甲郡愛川町,中津１２０５番１８－Ｂ,,14,401,2430303,スリランカ民主社会主義共和国、キャンディ、コトゥゴデッラレーン、Ｎｏ．１８／９,,,,,,2024-08-28,1,,,,,マークウオンエンタープライズ,0
476,3010001247727,新規,0,2024-08-28,2024-08-28,株式会社ＴＡＫＩＯＮ,,株式会社,東京都,千代田区,有楽町１丁目１番３号,,13,101,1000006,,,,,,,2024-08-28,1,,,,,タキオン,0
477,3010001247801,新規,0,2024-08-28,2024-08-28,株式会社ＢＲＥＥＧＥ,,株式会社,東京都,千代田区,神田須田町１丁目７番地８ＶＯＲＴ秋葉原ＩＶ２Ｆ,00136093,13,101,1010041,,,,,,,2024-08-28,1,,,,,ブリージ,0
478,3010001247842,新規,0,2024-08-28,2024-08-28,株式会社エダモニア,,株式会社,東京都,千代田区,大手町１丁目６番１号大手町ビル,,13,101,1000004,,,,,,,2024-08-28,1,,,,,エダモニア,0
482,3010003044635,新規,0,2024-08-28,2024-08-28,カメリア合同会社,,合同会社,東京都,中央区,銀座１丁目６番１１号アースタックス税理士法人内,,13,102,1040061,,,,,,,2024-08-28,1,,,,,カメリア,0
483,3010003044701,新規,0,2024-08-28,2024-08-28,合同会社大阪本町ホテル,,合同会社,東京都,千代田区,内神田１丁目３番７号４０１あすな会計事務所内,,13,101,1010047,,,,,,,2024-08-28,1,,,,,オオサカホンマチホテル,0
484,3010005038718,新規,0,2024-08-28,2024-08-28,山佐産業ＬＨ一般社団法人,,その他の設立登記法人,東京都,千代田区,丸の内１丁目４番１号東京共同会計事務所内,,13,101,1000005,,,,,,,2024-08-28,1,,,,,ヤマササンギョウエルエイチ,0
486,3010101016296,新規,0,2024-08-28,2024-08-28,株式会社スカイベル,,株式会社,東京都,八王子市,大塚２０２番地９,,13,201,1920352,,,,,,,2024-08-28,1,,,,,スカイベル,0
493,3010401184512,新規,0,2024-08-28,2024-08-28,株式会社Ｈｅａｌｔｈｉｓ　Ｊａｐａｎ,,株式会社,東京都,港区,南青山３丁目１番３６号青山丸竹ビル６Ｆ,,13,103,1070062,,,,,,,2024-08-28,1,,,,,ヘルシスジャパン,0
494,3010401184710,新規,0,2024-08-28,2024-08-28,株式会社グリー,,株式会社,東京都,港区,六本木６丁目１１番１号,,13,103,1060032,,,,,,,2024-08-28,1,,,,,グリー,0
495,3010401184727,新規,0,2024-08-28,2024-08-28,株式会社ＯＤＯＣ,,株式会社,東京都,港区,赤坂３丁目９－３赤坂見附駅前ビル７Ｆ,,13,103,1070052,,,,,,,2024-08-28,1,,,,,オドック,0
496,3010401184743,新規,0,2024-08-28,2024-08-28,株式会社凰プランニング,,株式会社,東京都,港区,虎ノ門３丁目１８番６－６１４号,,13,103,1050001,,,,,,,2024-08-28,1,,,,,オオトリプランニング,0
501,3010601065826,新規,0,2024-08-28,2024-08-28,株式会社エンパイヤ,,株式会社,東京都,墨田区,東墨田３丁目１４番７号,,13,107,1310042,,,,,,,2024-08-28,1,,,,,エンパイヤ,0
518,3010901055873,新規,0,2024-08-28,2024-08-28,株式会社ワイプラス,,株式会社,東京都,世田谷区,弦巻５丁目６番１６－４０５号,,13,112,1540016,,,,,,,2024-08-28,1,,,,,ワイプラス,0
519,3010903009324,新規,0,2024-08-28,2024-08-28,合同会社ＨＫ,,合同会社,東京都,世田谷区,赤堤２丁目４２番１２号,,13,112,1560044,,,,,,,2024-08-28,1,,,,,エイチケー,0
528,3011001164359,新規,0,2024-08-28,2024-08-28,株式会社アクセルス,,株式会社,東京都,渋谷区,円山町５番５号Ｎａｖｉ渋谷ｖ３階,,13,113,1500044,,,,,,,2024-08-28,1,,,,,アクセルス,0
532,3011201025749,新規,0,2024-08-28,2024-08-28,株式会社アルトエンター,,株式会社,東京都,中野区,新井２丁目２５－５シャトールヴィラ中野２０５,,13,114,1650026,,,,,,,2024-08-28,1,,,,,アルトエンター,0
543,3011605002600,新規,0,2024-08-28,2024-08-28,一般社団法人ＡＬＬ　ＯＮＥ,,その他の設立登記法人,東京都,練馬区,旭町１丁目３３番２２－３０４号,,13,120,1790071,,,,,,,2024-08-28,1,,,,,オールワン,0
548,3012303002041,新規,0,2024-08-28,2024-08-28,合同会社ネクミラ,,合同会社,東京都,町田市,鶴川１丁目３番地５３マンション芝白金ＩＩＩ３０３,00136090,13,209,1950061,,,,,,,2024-08-28,1,,,,,ネクミラ,0
562,3020001158741,新規,0,2024-08-28,2024-08-28,株式会社ハーモニスタ,,株式会社,神奈川県,横浜市中区,桜木町１丁目１－７ヒューリックみなとみらい１０階,,14,104,2310062,,,,,,,2024-08-28,1,,,,,ハーモニスタ,0
563,3020001158758,新規,0,2024-08-28,2024-08-28,Ｉ．Ｃリアルエステート株式会社,,株式会社,神奈川県,横浜市港南区,野庭町３３番地１８,,14,111,2340056,,,,,,,2024-08-28,1,,,,,アイシーリアルエステート,0
564,3020001158907,新規,0,2024-08-28,2024-08-28,株式会社ＲＯＮＮＩＥＫＩＴＨ,,株式会社,神奈川県,川崎市中原区,井田中ノ町２３番２１号,,14,133,2110034,,,,,,,2024-08-28,1,,,,,ロニーキス,0
568,3020003026707,新規,0,2024-08-28,2024-08-28,みのりび合同会社,,合同会社,神奈川県,横浜市西区,浅間町１丁目４番３号ウィザードビル４０２,,14,103,2200072,,,,,,,2024-08-28,1,,,,,ミノリビ,0
569,3020003026715,新規,0,2024-08-28,2024-08-28,合同会社ＷＡＳＡＫＩ,,合同会社,神奈川県,川崎市宮前区,馬絹６丁目２９－１１サンハイツＡー２０３,,14,136,2160035,,,,,,,2024-08-28,1,,,,,ワサキ,0
570,3020003026764,新規,0,2024-08-28,2024-08-28,合同会社ＭＴコーポレーション,,合同会社,神奈川県,横浜市西区,藤棚町２丁目２２６番地,,14,103,2200053,,,,,,,2024-08-28,1,,,,,エムティコーポレーション,0
577,3021001083104,新規,0,2024-08-28,2024-08-28,さくらＩＴコンサルティング株式会社,,株式会社,神奈川県,秦野市,鶴巻南４丁目１３番２号,,14,211,2570002,,,,,,,2024-08-28,1,,,,,サクラアイティーコンサルティング,0
581,3030001162164,新規,0,2024-08-28,2024-08-28,株式会社マルヤカンパニー,,株式会社,埼玉県,八潮市,大字八條１６１２番地１,,11,234,3400801,,,,,,,2024-08-28,1,,,,,マルヤカンパニー,0
582,3030001162172,新規,0,2024-08-28,2024-08-28,株式会社ジュガ,,株式会社,埼玉県,坂戸市,南町９番９号,,11,239,3500233,,,,,,,2024-08-28,1,,,,,ジュガ,0
583,3030001162197,新規,0,2024-08-28,2024-08-28,株式会社ＤＫ,,株式会社,埼玉県,戸田市,笹目３丁目２０番地の２６ベルテＩＩＩ－３０３号室,00136097,11,224,3350034,,,,,,,2024-08-28,1,,,,,ディーケー,0
587,3030003025006,新規,0,2024-08-28,2024-08-28,日本ＯＧＭ合同会社,,合同会社,埼玉県,川口市,大字里１２８番地,,11,203,3340005,,,,,,,2024-08-28,1,,,,,ニッポンオージーエム,0
588,3030003025014,新規,0,2024-08-28,2024-08-28,ＰＡＬＳ合同会社,,合同会社,埼玉県,所沢市,日吉町１０番１０－１０２号ザ・パークハウス所沢日吉町,,11,208,3591123,,,,,,,2024-08-28,1,,,,,パルス,0
589,3030003025022,新規,0,2024-08-28,2024-08-28,合同会社ケセラセラ,,合同会社,埼玉県,さいたま市浦和区,常盤１丁目６番２１－９０２号,,11,107,3300061,,,,,,,2024-08-28,1,,,,,ケセラセラ,0
595,3040001135144,新規,0,2024-08-28,2024-08-28,アースホーム株式会社,,株式会社,千葉県,習志野市,大久保２丁目１－１,,12,216,2750011,,,,,,,2024-08-28,1,,,,,アースホーム,0
596,3040001135152,新規,0,2024-08-28,2024-08-28,ＳＲ　ＴＯＫＹＯ株式会社,,株式会社,千葉県,佐倉市,岩富町６５６－１,,12,212,2850072,,,,,,,2024-08-28,1,,,,,エスアールトウキョウ,0
600,3040003025698,新規,0,2024-08-28,2024-08-28,ＳＹＥＤ　ＴＲＡＤＥＲＳ合同会社,,合同会社,千葉県,船橋市,習志野台４丁目５９番１７号ピュアハウス習志野１階１０２号,,12,204,2740063,,,,,,,2024-08-28,1,,,,,サイードトレーダーズ,0
620,3100001037805,新規,0,2024-08-28,2024-08-28,株式会社ヤクシンタイワ,,株式会社,長野県,茅野市,宮川５８９９番地２,,20,214,3910013,,,,,,,2024-08-28,1,,,,,ヤクシンタイワ,0
621,3100003007748,新規,0,2024-08-28,2024-08-28,Ｈａｋｕｂａ　Ｃｒｅａｔｉｖｅ　Ｃｏ合同会社,,合同会社,長野県,大町市,平２５５３番地１,,20,212,3980001,,,,,,,2024-08-28,1,,,,,ハクバクリエーティブコー,0
623,3110001038661,新規,0,2024-08-28,2024-08-28,株式会社のじま住設,,株式会社,新潟県,新潟市秋葉区,新津本町２丁目１０番１９号,,15,105,9560864,,,,,,,2024-08-28,1,,,,,ノジマジュウセツ,0
632,3120001268101,新規,0,2024-08-28,2024-08-28,株式会社ＪＮ海運,,株式会社,大阪府,大阪市港区,福崎２丁目８番３９号,,27,107,5520013,,,,,,,2024-08-28,1,,,,,ジェイエヌカイウン,0
633,3120001268118,新規,0,2024-08-28,2024-08-28,イーナチュレ株式会社,,株式会社,大阪府,大阪市北区,梅田１丁目２番２号大阪駅前第２ビル１２－１２,,27,127,5300001,,,,,,,2024-08-28,1,,,,,イーナチュレ,0
634,3120001268142,新規,0,2024-08-28,2024-08-28,友光株式会社,,株式会社,大阪府,大阪市中央区,日本橋１丁目１３番１６号１２０１号室,,27,128,5420073,,,,,,,2024-08-28,1,,,,,ユウコウ,0
636,3120003027389,新規,0,2024-08-28,2024-08-28,合同会社エムテック,,合同会社,大阪府,大阪市西区,新町１丁目２番１３号,,27,106,5500013,,,,,,,2024-08-28,1,,,,,エムテック,0
637,3120003027406,新規,0,2024-08-28,2024-08-28,合同会社ＷｅｂＲｅｘ,,合同会社,大阪府,大阪市淀川区,十八条３丁目１番２９－１０１号,,27,123,5320001,,,,,,,2024-08-28,1,,,,,ウェブレックス,0
638,3120101070191,新規,0,2024-08-28,2024-08-28,嘉玉株式会社,,株式会社,大阪府,堺市堺区,中瓦町１丁２－９－６０２,,27,141,5900077,,,,,,,2024-08-28,1,,,,,カギョク,0
645,3122001038401,新規,0,2024-08-28,2024-08-28,株式会社Ｈ＆Ｓ,,株式会社,大阪府,東大阪市,長堂３丁目２４番１１号１Ｆ,,27,227,5770056,,,,,,,2024-08-28,1,,,,,エイチアンドエス,0
647,3130001077815,新規,0,2024-08-28,2024-08-28,株式会社Ｓａｔｓｕｋｉ,,株式会社,京都府,京都市伏見区,新町９丁目４１２－１,,26,109,6128081,,,,,,,2024-08-28,1,,,,,サツキ,0
654,3140001135613,新規,0,2024-08-28,2024-08-28,株式会社ＬＡＵＬＥＡ,,株式会社,兵庫県,神戸市垂水区,桃山台３丁目４番１４号,,28,108,6550854,,,,,,,2024-08-28,1,,,,,ラウレア,0
655,3140003020994,新規,0,2024-08-28,2024-08-28,合同会社ふたば,,合同会社,兵庫県,尼崎市,瓦宮２丁目３６番１２号,,28,202,6610971,,,,,,,2024-08-28,1,,,,,,0
659,3170001018286,新規,0,2024-08-28,2024-08-28,株式会社サークルマウンテン,,株式会社,和歌山県,和歌山市,本町２丁目３７番地ＵＥＤＥビル１Ｆ,,30,201,6408033,,,,,,,2024-08-28,1,,,,,サークルマウンテン,0
666,3180001163024,新規,0,2024-08-28,2024-08-28,株式会社Ｓａｑｕｔａ八,,株式会社,愛知県,名古屋市瑞穂区,初日町２丁目１１番地の２,,23,108,4670028,,,,,,,2024-08-28,1,,,,,サクータハチ,0
667,3180001163032,新規,0,2024-08-28,2024-08-28,株式会社郷戸構造設計事務所,,株式会社,愛知県,名古屋市東区,泉１丁目３番７号第一戸嶋屋ビル６Ｓ,,23,102,4610001,,,,,,,2024-08-28,1,,,,,ゴウトコウゾウセッケイジムショ,0
692,3210001019890,新規,0,2024-08-28,2024-08-28,株式会社ｅｒｒｏｒ,,株式会社,福井県,福井市,若栄町１２１９,,18,201,9100831,,,,,,,2024-08-28,1,,,,,エラー,0
695,3240001063746,新規,0,2024-08-28,2024-08-28,エスケイサービス株式会社,,株式会社,広島県,広島市西区,草津港１丁目４番２１号,,34,104,7330832,,,,,,,2024-08-28,1,,,,,エスケイサービス,0
708,3290001107052,新規,0,2024-08-28,2024-08-28,あおい株式会社,,株式会社,福岡県,福岡市早良区,原６丁目３０―９コスモビル７０１,,40,137,8140022,,,,,,,2024-08-28,1,,,,,アオイ,0
709,3290001107077,新規,0,2024-08-28,2024-08-28,株式会社ドリームプロジェクト,,株式会社,福岡県,福岡市東区,香椎駅前１丁目１０番１号,,40,131,8130013,,,,,,,2024-08-28,1,,,,,ドリームプロジェクト,0
713,3290801030833,新規,0,2024-08-28,2024-08-28,株式会社Ｔｏ　Ｂｅ　Ｐｌｕｓ,,株式会社,福岡県,田川郡福智町,赤池９４２－２,,40,610,8221101,,,,,,,2024-08-28,1,,,,,トゥービープラス,0
719,3330003010539,新規,0,2024-08-28,2024-08-28,合同会社あーる,,合同会社,熊本県,玉名市,六田１８番地１９,,43,206,8650058,,,,,,,2024-08-28,1,,,,,アール,0
728,3360001034116,新規,0,2024-08-28,2024-08-28,株式会社オープランニング沖縄,,株式会社,沖縄県,那覇市,松島１丁目２３番１号（６０２号）,,47,201,9020069,,,,,,,2024-08-28,1,,,,,オープランニングオキナワ,0
729,3360003014248,新規,0,2024-08-28,2024-08-28,合同会社比嘉電設,,合同会社,沖縄県,沖縄市,美里１丁目１１番１号仲村アパート１０２,,47,211,9042153,,,,,,,2024-08-28,1,,,,,ヒガデンセツ,0
730,3360003014264,新規,0,2024-08-28,2024-08-28,合同会社ＦＬＩＧＨＴ,,合同会社,沖縄県,浦添市,内間２丁目１１番１７号,,47,208,9012121,,,,,,,2024-08-28,1,,,,,フライト,0
734,3380005012859,新規,0,2024-08-28,2024-08-28,一般社団法人甘草普及会,,その他の設立登記法人,福島県,須賀川市,長禄町５８番地１シャンボール須賀川４０１号,,07,207,9620857,,,,,,,2024-08-28,1,,,,,カンゾウフキュウカイ,0
735,3410001013923,新規,0,2024-08-28,2024-08-28,株式会社真坂工務店,,株式会社,秋田県,由利本荘市,中俣字鳶ケ台１１３番地１,,05,210,0180845,,,,,,,2024-08-28,1,,,,,マサカコウムテン,0
740,3490003001927,新規,0,2024-08-28,2024-08-28,合同会社ＹＵＭＩＫＯ,,合同会社,高知県,香南市,夜須町西山４３３番地１,,39,211,7815603,,,,,,,2024-08-28,1,,,,,ユミコ,0
741,3500001025851,新規,0,2024-08-28,2024-08-28,株式会社ＫＡＭＡ,,株式会社,愛媛県,四国中央市,中曽根町２２０６番地３,,38,213,7990413,,,,,,,2024-08-28,1,,,,,カマ,0
742,3700150126728,新規,0,2024-08-28,2024-08-13,岡山県内科医会,,その他,岡山県,岡山市北区,大供２丁目２－１６川口メディカルクリニック内,,33,101,7000913,,,,,,,2024-08-13,1,,,,,オカヤマケンナイカイカイ,0
743,3700150126934,新規,0,2024-08-28,2024-08-28,ＰＡＷＮ　ＰＲＯＭＯＴＩＯＮ　ＥＮＴＥＲＴＡＩＮＭＥＮＴ　ＰＴＥ．ＬＴＤ．,,外国会社等,東京都,中野区,江原町１丁目２９番４号,,13,114,1650023,３２　ＰＥＫＩＮ　ＳＴＲＥＥＴ　＃０５－０１　ＳＩＮＧＡＰＯＲＥ,,,,,,2024-08-28,1,,,,,ポーンプロモーションエンタテインメントプライベートリミテッド,0
749,4010001247825,新規,0,2024-08-28,2024-08-28,ＡＢ５Ａ２４０３株式会社,,株式会社,東京都,千代田区,丸の内２丁目４番１号,,13,101,1000005,,,,,,,2024-08-28,1,,,,,エービーゴエーニヨンゼロサン,0
755,4010003044642,新規,0,2024-08-28,2024-08-28,朝晩ヘルプ合同会社,,合同会社,東京都,文京区,春日１丁目１２番１号,,13,105,1120003,,,,,,,2024-08-28,1,,,,,アサバンヘルプ,0
756,4010003044667,新規,0,2024-08-28,2024-08-28,四谷合同会社,,合同会社,東京都,千代田区,神田小川町３丁目２６番８号神田小川町三丁目ビル６階,,13,101,1010052,,,,,,,2024-08-28,1,,,,,ヨツヤ,0
758,4010005038709,新規,0,2024-08-28,2024-08-28,一般社団法人社長の学校,,その他の設立登記法人,東京都,中央区,日本橋室町１丁目１１番１２号日本橋水野ビル７階,,13,102,1030022,,,,,,,2024-08-28,1,,,,,シャチョウノガッコウ,0
759,4010005038741,新規,0,2024-08-28,2024-08-28,一般社団法人由布院ＰＪ,,その他の設立登記法人,東京都,千代田区,霞が関３丁目２番５号,,13,101,1000013,,,,,,,2024-08-28,1,,,,,ユフインピージェイ,0
760,4010101016295,新規,0,2024-08-28,2024-08-28,ワンハピネス株式会社,,株式会社,東京都,八王子市,久保山町１丁目２０番地８,,13,201,1920023,,,,,,,2024-08-28,1,,,,,ワンハピネス,0
770,4010401184759,新規,0,2024-08-28,2024-08-28,株式会社チェンジ,,株式会社,東京都,港区,北青山１丁目３番１号アールキューブ青山３Ｆ,,13,103,1070061,,,,,,,2024-08-28,1,,,,,チェンジ,0
777,4010601065825,新規,0,2024-08-28,2024-08-28,Ｃａｔｅｎｄａ　Ｊａｐａｎ株式会社,,株式会社,東京都,江東区,豊洲６丁目２番３１－１９１７号,,13,108,1350061,,,,,,,2024-08-28,1,,,,,カテンダジャパン,0
795,4011001163896,新規,0,2024-08-28,2024-08-28,株式会社ユカイクリエイツ,,株式会社,東京都,渋谷区,渋谷２丁目１９－１５宮益坂ビルディング６０９,,13,113,1500002,,,,,,,2024-08-28,1,,,,,ユカイクリエイツ,0
796,4011001164127,新規,0,2024-08-28,2024-08-28,株式会社ＥＶＥ,,株式会社,東京都,渋谷区,代々木２丁目５－１羽田ビル８０５,,13,113,1510053,,,,,,,2024-08-28,1,,,,,イヴ,0
797,4011001164283,新規,0,2024-08-28,2024-08-28,株式会社ヒカカク,,株式会社,東京都,渋谷区,代々木１丁目１１－２フロンティア代々木３Ｆ－Ｂ,,13,113,1510053,,,,,,,2024-08-28,1,,,,,ヒカカク,0
798,4011001164333,新規,0,2024-08-28,2024-08-28,ＱＵＩＣＫ　ＩＮＴＥＲＮＡＴＩＯＮＡＬ株式会社,,株式会社,東京都,目黒区,三田１丁目４番４－１５１０号,,13,110,1530062,,,,,,,2024-08-28,1,,,,,クイックインターナショナル,0
804,4011301029954,新規,0,2024-08-28,2024-08-28,ＢｅＷｅｌｌ株式会社,,株式会社,東京都,杉並区,荻窪５丁目１７番１１－２０７号室,,13,115,1670051,,,,,,,2024-08-28,1,,,,,ビーウェル,0
805,4011401026380,新規,0,2024-08-28,2024-08-28,株式会社ｌｉｎｄｅｎ　ｇｌｏｂａｌ,,株式会社,東京都,板橋区,板橋２丁目６５－８ＭＳビル５階,,13,119,1730004,,,,,,,2024-08-28,1,,,,,リンデングローバル,0
809,4011801044759,新規,0,2024-08-28,2024-08-28,株式会社橋本総業,,株式会社,東京都,葛飾区,奥戸６丁目１４番１４号,,13,122,1240022,,,,,,,2024-08-28,1,,,,,ハシモトソウギョウ,0
810,4011803006410,新規,0,2024-08-28,2024-08-28,ナム建設合同会社,,合同会社,東京都,足立区,谷中２丁目１８－１３ウイング北綾瀬１０１号,,13,121,1200006,,,,,,,2024-08-28,1,,,,,ナムケンセツ,0
811,4011803006427,新規,0,2024-08-28,2024-08-28,ＭＭ合同会社,,合同会社,東京都,葛飾区,南水元３丁目３番９,,13,122,1250035,,,,,,,2024-08-28,1,,,,,エムエム,0
812,4012301014062,新規,0,2024-08-28,2024-08-28,株式会社ポエンテ,,株式会社,東京都,町田市,野津田町１３９９番地２,,13,209,1950063,,,,,,,2024-08-28,1,,,,,ポエンテ,0
818,4012801023422,新規,0,2024-08-28,2024-08-28,株式会社柳澤寿男事務所,00136099,株式会社,東京都,国分寺市,東元町４丁目１４番２３号,,13,214,1850022,,,,,,,2024-08-28,1,,,,,ヤナギサワトシオジムショ,0
825,4020001158740,新規,0,2024-08-28,2024-08-28,Ｎｅｘｔｈｉｎｇ株式会社,,株式会社,神奈川県,横浜市西区,みなとみらい３丁目７番１号オーシャンゲートみなとみらい８階,,14,103,2200012,,,,,,,2024-08-28,1,,,,,ネクシング,0
826,4020001158757,新規,0,2024-08-28,2024-08-28,株式会社栗山衛生,,株式会社,神奈川県,川崎市川崎区,渡田１丁目１４－９,,14,131,2100837,,,,,,,2024-08-28,1,,,,,クリヤマエイセイ,0
827,4020001158773,新規,0,2024-08-28,2024-08-28,株式会社ｍｉｃｏｔ,,株式会社,神奈川県,横浜市青葉区,鴨志田町５６３番地２０,,14,117,2270033,,,,,,,2024-08-28,1,,,,,ミコト,0
828,4020001158914,新規,0,2024-08-28,2024-08-28,ＡｎｚｅｎＢａｎｋ株式会社,,株式会社,神奈川県,横浜市港北区,大豆戸町６１０番地１,,14,109,2220032,,,,,,,2024-08-28,1,,,,,アンゼンバンク,0
829,4020001158939,新規,0,2024-08-28,2024-08-28,ＴＤホールディングス株式会社,,株式会社,神奈川県,横浜市保土ケ谷区,神戸町１３４番地横浜ビジネスパークイーストタワー１２階,,14,106,2400005,,,,,,,2024-08-28,1,,,,,ティーディーホールディングス,0
830,4020001158955,新規,0,2024-08-28,2024-08-28,株式会社善,,株式会社,神奈川県,横浜市青葉区,元石川町３６１１番地,,14,117,2250004,,,,,,,2024-08-28,1,,,,,,0
832,4020003026730,新規,0,2024-08-28,2024-08-28,Ｓｕｐｒｅｍｅ合同会社,,合同会社,神奈川県,横浜市港北区,大曽根台８－２６－４,,14,109,2220004,,,,,,,2024-08-28,1,,,,,シュプリーム,0
833,4020003026747,新規,0,2024-08-28,2024-08-28,合同会社グリーニングプラン,,合同会社,神奈川県,横浜市神奈川区,松見町３丁目８４１－３レオパレス妙蓮寺第２－１０３,,14,102,2210005,,,,,,,2024-08-28,1,,,,,グリーニングプラン,0
851,4030001162130,新規,0,2024-08-28,2024-08-28,株式会社鴻泰,,株式会社,埼玉県,蕨市,北町１丁目２３－１１北町第５ホワイトハウス１０３号,,11,223,3350001,,,,,,,2024-08-28,1,,,,,コウタイ,0
852,4030001162171,新規,0,2024-08-28,2024-08-28,株式会社丸商,,株式会社,埼玉県,さいたま市大宮区,桜木町２丁目３番地７Ｆ,,11,103,3300854,,,,,,,2024-08-28,1,,,,,マルショウ,0
853,4030001162188,新規,0,2024-08-28,2024-08-28,晴月株式会社,,株式会社,埼玉県,蕨市,塚越３丁目３１番８号,,11,223,3350002,,,,,,,2024-08-28,1,,,,,ハツキ,0
854,4030001162196,新規,0,2024-08-28,2024-08-28,Ｃｕｔｅ　Ｐｏｗｅｒ株式会社,,株式会社,埼玉県,三郷市,早稲田７丁目５番地１号棟４０１号,,11,237,3410018,,,,,,,2024-08-28,1,,,,,キュートパワー,0
859,4030003024980,新規,0,2024-08-28,2024-08-28,合同会社ＢＮ,,合同会社,埼玉県,蓮田市,緑町３丁目４番８号レオパレスＭＩＮＥ１０６号,,11,238,3490104,,,,,,,2024-08-28,1,,,,,ビーエヌ,0
860,4030003025005,新規,0,2024-08-28,2024-08-28,合同会社琉心,,合同会社,埼玉県,新座市,栗原５丁目１３番１８号,,11,230,3520035,,,,,,,2024-08-28,1,,,,,リュウシン,0
865,4040001135135,新規,0,2024-08-28,2024-08-28,株式会社千葉センター不動産,,株式会社,千葉県,千葉市中央区,中央２丁目３番１６号,,12,101,2600013,,,,,,,2024-08-28,1,,,,,チバセンターフドウサン,0
866,4040003025581,新規,0,2024-08-28,2024-08-28,合同会社ＨＥＲＯ,,合同会社,千葉県,匝瑳市,高２５３－３,,12,235,2892132,,,,,,,2024-08-28,1,,,,,ヒーロー,0
867,4040003025672,新規,0,2024-08-28,2024-08-28,合同会社ＢＬＩＮＫＷＯＲＫＳ,,合同会社,千葉県,成田市,久住中央１丁目１８－１,,12,211,2860819,,,,,,,2024-08-28,1,,,,,ブリンクワークス,0
891,4100003007747,新規,0,2024-08-28,2024-08-28,合同会社ＴＥＮＤＥＲ,,合同会社,長野県,岡谷市,川岸東５丁目１６番３４号,,20,204,3940045,,,,,,,2024-08-28,1,,,,,テンダー,0
892,4100003007755,新規,0,2024-08-28,2024-08-28,合同会社一太,,合同会社,長野県,長野市,大字稲葉２６１６番地１ビューテラス倉石Ｎ１０２,,20,201,3800911,,,,,,,2024-08-28,1,,,,,イッタ,0
905,4120001267952,新規,0,2024-08-28,2024-08-28,株式会社Ｊ　ＳＡＦＥＴＹ,,株式会社,大阪府,大阪市東成区,深江北２丁目１１番２８号,,27,115,5370001,,,,,,,2024-08-28,1,,,,,ジェイセイフティー,0
906,4120001268059,新規,0,2024-08-28,2024-08-28,株式会社セキュリティベース,,株式会社,大阪府,大阪市北区,芝田２丁目８番１１号共栄ビル３Ｆ,,27,127,5300012,,,,,,,2024-08-28,1,,,,,セキュリティベース,0
907,4120001268100,新規,0,2024-08-28,2024-08-28,ＮＯＢＵＲＩＮ　ＣＯＭＰＡＮＹ株式会社,,株式会社,大阪府,大阪市中央区,常盤町１丁目４番９号竹宏ビル４０５号室,,27,128,5400028,,,,,,,2024-08-28,1,,,,,ノブリンカンパニー,0
908,4120001268109,新規,0,2024-08-28,2024-08-28,香柏国際貿易株式会社,,株式会社,大阪府,大阪市中央区,森ノ宮中央２丁目１１－６シュライン森ノ宮４０１号,,27,128,5400003,,,,,,,2024-08-28,1,,,,,カハクコクサイボウエキ,0
909,4120001268117,新規,0,2024-08-28,2024-08-28,株式会社ニコイット,,株式会社,大阪府,大阪市中央区,南船場３丁目１１－１０心斎橋大陽ビルＢ１Ｆ,,27,128,5420081,,,,,,,2024-08-28,1,,,,,ニコイット,0
912,4120003027363,新規,0,2024-08-28,2024-08-28,合同会社けいあいケアサービス,,合同会社,大阪府,大阪市北区,本庄東２丁目１番２３－２０２号,,27,127,5310074,,,,,,,2024-08-28,1,,,,,ケイアイケアサービス,0
913,4120003027413,新規,0,2024-08-28,2024-08-28,リュクスグローバル合同会社,,合同会社,大阪府,大阪市西区,西本町１丁目４番１号,,27,106,5500005,,,,,,,2024-08-28,1,,,,,リュクスグローバル,0
915,4120005024516,新規,0,2024-08-28,2024-08-28,一般社団法人宝友会,,その他の設立登記法人,大阪府,大阪市中央区,北久宝寺町１丁目４番８号,,27,128,5410057,,,,,,,2024-08-28,1,,,,,ホウユウカイ,0
919,4120901049673,新規,0,2024-08-28,2024-08-28,株式会社エステート・セイキンドウ,,株式会社,大阪府,豊中市,本町２丁目１番３７－２０２号,,27,203,5600021,,,,,,,2024-08-28,1,,,,,エステートセイキンドウ,0
925,4130001077707,新規,0,2024-08-28,2024-08-28,株式会社Ｅｎ　Ｌｉｎｋ,,株式会社,京都府,京都市下京区,烏丸通仏光寺下る大政所町６８０－１第八長谷ビル２Ｆ,,26,106,6008413,,,,,,,2024-08-28,1,,,,,エンリンク,0
926,4130001077797,新規,0,2024-08-28,2024-08-28,株式会社一期一会,,株式会社,京都府,京都市南区,久世東土川町９４番地プチメゾン２０２号,,26,107,6018204,,,,,,,2024-08-28,1,,,,,イチゴイチエ,0
927,4130001077814,新規,0,2024-08-28,2024-08-28,株式会社吉村電気工事,00136088,株式会社,京都府,京都市南区,久世上久世町８２０番地２０,,26,107,6018212,,,,,,,2024-08-28,1,,,,,ヨシムラデンキコウジ,0
930,4140001135620,新規,0,2024-08-28,2024-08-28,グリーンリーフホーム株式会社,,株式会社,兵庫県,尼崎市,七松町２丁目４番１３号鎌谷ビル２階,,28,202,6600052,,,,,,,2024-08-28,1,,,,,グリーンリーフホーム,0
931,4140001135629,新規,0,2024-08-28,2024-08-28,株式会社みなとプロパティ・マネジメント,,株式会社,兵庫県,姫路市,広畑区東新町３丁目１３５番地,,28,201,6711121,,,,,,,2024-08-28,1,,,,,ミナトプロパティマネジメント,0
932,4140001135637,新規,0,2024-08-28,2024-08-28,株式会社シンユウホーム,,株式会社,兵庫県,伊丹市,瑞ケ丘４丁目３１番地３,,28,207,6640017,,,,,,,2024-08-28,1,,,,,シンユウホーム,0
935,4150001027528,新規,0,2024-08-28,2024-08-28,株式会社ＣＬＯＵＴ,,株式会社,奈良県,宇陀市,室生大野２６番地の２,,29,212,6330315,,,,,,,2024-08-28,1,,,,,クラウト,0
937,4160001026181,新規,0,2024-08-28,2024-08-28,エムテクノ株式会社,,株式会社,滋賀県,大津市,横木１丁目１２番５号,,25,201,5200063,,,,,,,2024-08-28,1,,,,,エムテクノ,0
939,4170001018285,新規,0,2024-08-28,2024-08-28,株式会社ＥＫＫＳＨＯＰ,,株式会社,和歌山県,橋本市,城山台４丁目２３番地の２,,30,203,6480054,,,,,,,2024-08-28,1,,,,,イーケイケイショップ,0
945,4180001162958,新規,0,2024-08-28,2024-08-28,株式会社ｆｏｒ　Ｌ,,株式会社,愛知県,大府市,中央町６丁目１２番地マンション中央４１５号,,23,223,4740025,,,,,,,2024-08-28,1,,,,,フォーエル,0
959,4190001031591,新規,0,2024-08-28,2024-08-28,株式会社中井酒造,,株式会社,三重県,伊賀市,上野西大手町３７２１番地,,24,216,5180878,,,,,,,2024-08-28,1,,,,,ナカイシュゾウ,0
960,4200001042876,新規,0,2024-08-28,2024-08-28,ヤマガタヤ産業ホールディングス株式会社,,株式会社,岐阜県,羽島郡岐南町,みやまち１丁目３番地,,21,302,5016019,,,,,,,2024-08-28,1,,,,,ヤマガタヤサンギョウホールディングス,0
964,4240005015809,新規,0,2024-08-28,2024-08-28,一般社団法人しわのわ,,その他の設立登記法人,広島県,東広島市,志和町志和東４４５６番地３,,34,212,7390262,,,,,,,2024-08-28,1,,,,,シワノワ,0
972,4290001107043,新規,0,2024-08-28,2024-08-28,株式会社ＢＬＵＥ　ＺＯＮＥ,,株式会社,福岡県,福岡市中央区,天神４丁目６－２８天神ファーストビル７階,,40,133,8100001,,,,,,,2024-08-28,1,,,,,ブルーゾーン,0
978,4300001013891,新規,0,2024-08-28,2024-08-28,株式会社シンセイ建設,,株式会社,佐賀県,三養基郡基山町,大字園部２８３４番地,,41,341,8410203,,,,,,,2024-08-28,1,,,,,シンセイケンセツ,0
981,4310001019186,新規,0,2024-08-28,2024-08-28,株式会社縁,,株式会社,長崎県,大村市,日泊町６８７番地２,,42,205,8560846,,,,,,,2024-08-28,1,,,,,エニシ,0
993,4380001034749,新規,0,2024-08-28,2024-08-28,株式会社ＷＥＢ,,株式会社,福島県,福島市,岡島字鬼返り１３番地４,,07,201,9608201,,,,,,,2024-08-28,1,,,,,ウェブ,0
994,4380001034757,新規,0,2024-08-28,2024-08-28,株式会社ｃｏｃｏ,,株式会社,福島県,郡山市,喜久田町字双又３０番地の１７,,07,203,9630551,,,,,,,2024-08-28,1,,,,,ココ,0
996,4380005012858,新規,0,2024-08-28,2024-08-28,特定非営利活動法人ミナクル,,その他の設立登記法人,福島県,会津若松市,材木町２丁目３番３４号,,07,202,9650853,,,,,,,2024-08-28,1,,,,,ミナクル,0
1000,4410001013922,新規,0,2024-08-28,2024-08-28,Ａｔｈｒｅｅ　Ｊａｐａｎ株式会社,,株式会社,秋田県,秋田市,中通２丁目２－３２,,05,201,0100001,,,,,,,2024-08-28,1,,,,,アスリージャパン,0
1003,4430001092551,新規,0,2024-08-28,2024-08-28,株式会社鶴亀,,株式会社,北海道,札幌市中央区,南六条西１２丁目１３０１番地１０,,01,101,0640806,,,,,,,2024-08-28,1,,,,,ツルカメ,0
1006,4480001012579,新規,0,2024-08-28,2024-08-28,株式会社バイオリッジ,,株式会社,徳島県,徳島市,住吉２丁目４番４４号アンソレイユ住吉１－１,,36,201,7700861,,,,,,,2024-08-28,1,,,,,バイオリッジ,0
1010,4700150126909,新規,0,2024-08-28,2024-08-28,ＮＡＳＨ　ＴＲＡＤＩＮＧ　ＣＯＭＰＡＮＹ　ＰＶＴ　ＬＴＤ,,外国会社等,千葉県,東金市,松之郷３２１６番地１６Ｃ,,12,213,2830805,スリランカ民主社会主義共和国、ガレウェラ、ランウェディヤワ、Ｎｏ．２２４／Ｂ,,,,,,2024-08-28,1,,,,,ナシユトレーデイングカンパニープライベートリミテツド,0
1011,4700150126933,新規,0,2024-08-28,2024-08-28,東京プロジェクションマッピング実行委員会,,その他,東京都,新宿区,西新宿２丁目８－１,,13,104,1600023,,,,,,,2024-08-28,1,,,,,トウキョウプロジェクションマッピングジッコウイインカイ,0
1018,5010001247733,新規,0,2024-08-28,2024-08-28,株式会社ＥｍＥｃｏ,,株式会社,東京都,文京区,根津２丁目１番１６－１１１０号,,13,105,1130031,,,,,,,2024-08-28,1,,,,,エメコ,0
1019,5010001247790,新規,0,2024-08-28,2024-08-28,株式会社インクループ,,株式会社,東京都,中央区,八重洲１丁目３番４号,,13,102,1030028,,,,,,,2024-08-28,1,,,,,インクループ,0
1025,5010003044699,新規,0,2024-08-28,2024-08-28,合同会社優成,,合同会社,東京都,千代田区,外神田３丁目６番４号第一勧業信用組合秋葉原ビル５階,,13,101,1010021,,,,,,,2024-08-28,1,,,,,ユウセイ,0
1026,5010003044708,新規,0,2024-08-28,2024-08-28,Ｅｔａｉｌ　Ｄｅｐｏｔ合同会社,,合同会社,東京都,千代田区,丸の内１丁目１１番１号,,13,101,1000005,,,,,,,2024-08-28,1,,,,,イーテイルデポ,0
1038,5010601065824,新規,0,2024-08-28,2024-08-28,株式会社ＰＩＥＤ　ＰＩＰＥＲ　ＰＲＯＤＵＣＴＩＯＮＳ,,株式会社,東京都,江東区,門前仲町１丁目１３番１２－３０９号,,13,108,1350048,,,,,,,2024-08-28,1,,,,,パイドパイパープロダクションズ,0
1044,5010901055871,新規,0,2024-08-28,2024-08-28,ＰＡＲＳＥ株式会社,,株式会社,東京都,世田谷区,代沢４丁目１８番１８号プリマヴェーラ代沢２０２,,13,112,1550032,,,,,,,2024-08-28,1,,,,,パース,0
1049,5011001164258,新規,0,2024-08-28,2024-08-28,株式会社フィンフォーオール,,株式会社,東京都,渋谷区,恵比寿西１丁目３３番６号ＪＰｎｏｉｅ１Ｆ,,13,113,1500021,,,,,,,2024-08-28,1,,,,,,0
1050,5011001164324,新規,0,2024-08-28,2024-08-28,株式会社Ａｕｒｅｌｉｏｎ,,株式会社,東京都,渋谷区,道玄坂１丁目１０番８号渋谷道玄坂東急ビル２Ｆ‐Ｃ,,13,113,1500043,,,,,,,2024-08-28,1,,,,,オレリオン,0
1052,5011003019856,新規,0,2024-08-28,2024-08-28,合同会社ＩＳＰ,,合同会社,東京都,渋谷区,恵比寿３丁目４２番１４号ｋ＆ｍアネックス１０３,,13,113,1500013,,,,,,,2024-08-28,1,,,,,アイエスピー,0
1053,5011003019880,新規,0,2024-08-28,2024-08-28,思豪合同会社,,合同会社,東京都,渋谷区,神宮前３丁目２７番１５号,,13,113,1500001,,,,,,,2024-08-28,1,,,,,シゴウ,0
1054,5011003019889,新規,0,2024-08-28,2024-08-28,合同会社ツーワンデジタル,,合同会社,東京都,渋谷区,渋谷２丁目１９－１５宮益坂ビルディング６０９,,13,113,1500002,,,,,,,2024-08-28,1,,,,,ツーワンデジタル,0
1057,5011101108577,新規,0,2024-08-28,2024-08-28,株式会社プラットシード,,株式会社,東京都,新宿区,西新宿３丁目３番１３号西新宿水間ビル６階,,13,104,1600023,,,,,,,2024-08-28,1,,,,,プラットシード,0
1058,5011101108585,新規,0,2024-08-28,2024-08-28,株式会社ＮＯＲＡＩＮ　ＮＯＲＡＩＮＢＯＷ,,株式会社,東京都,新宿区,大京町２番地４ＴｈｅＲｏｏｍ四谷大京町２０２,,13,104,1600015,,,,,,,2024-08-28,1,,,,,ノーレインノーレインボー,0
1062,5011301029953,新規,0,2024-08-28,2024-08-28,祥晴建築株式会社,,株式会社,東京都,杉並区,阿佐谷北２丁目２１番４号ＭＪＵＫ・Ｎ,,13,115,1660001,,,,,,,2024-08-28,1,,,,,ショウセイケンチク,0
1072,5012301014061,新規,0,2024-08-28,2024-08-28,ヨンキュウイチ株式会社,,株式会社,東京都,町田市,玉川学園７丁目２６番１８号,,13,209,1940041,,,,,,,2024-08-28,1,,,,,ヨンキュウイチ,0
1093,5020001158475,新規,0,2024-08-28,2024-08-28,株式会社アクアライン,,株式会社,神奈川県,川崎市高津区,下作延２丁目３５番１－３１３号,,14,134,2130033,,,,,,,2024-08-28,1,,,,,アクアライン,0
1094,5020001158715,新規,0,2024-08-28,2024-08-28,佳和雅株式会社,,株式会社,神奈川県,横浜市青葉区,新石川１丁目１１番２０,,14,117,2250003,,,,,,,2024-08-28,1,,,,,ケイワミヤビ,0
1095,5020001158723,新規,0,2024-08-28,2024-08-28,ＥＭＥ　ＣＡＰＩＴＡＬ株式会社,,株式会社,神奈川県,横浜市中区,桜木町２丁目２港陽ビル３Ｆ,,14,104,2310062,,,,,,,2024-08-28,1,,,,,エメキャピタル,0
1096,5020001158731,新規,0,2024-08-28,2024-08-28,Ａｕｔｏｇｒａｐｈ株式会社,,株式会社,神奈川県,横浜市青葉区,あざみ野南４丁目１９－１４あざみ野南ヒルズＢ２０１,,14,117,2250012,,,,,,,2024-08-28,1,,,,,オートグラフ,0
1097,5020001158896,新規,0,2024-08-28,2024-08-28,ＳＭＢＳ　Ｉｎｔｅｒｎａｔｉｏｎａｌ株式会社,,株式会社,神奈川県,横浜市都筑区,北山田１丁目１２番４号１Ｆ,,14,118,2240021,,,,,,,2024-08-28,1,,,,,エスエムビーエスインターナショナル,0
1098,5020001158970,新規,0,2024-08-28,2024-08-28,株式会社ウェルビー,,株式会社,神奈川県,横浜市緑区,長津田６丁目１１番７号,,14,113,2260027,,,,,,,2024-08-28,1,,,,,ウェルビー,0
1101,5020003026746,新規,0,2024-08-28,2024-08-28,ＧＩＢＩＥＲ　ＦＡＣＴＯＲＹ合同会社,,合同会社,神奈川県,横浜市保土ケ谷区,保土ケ谷町２丁目１５０番９号,,14,106,2400021,,,,,,,2024-08-28,1,,,,,ジビエファクトリー,0
1102,5020003026787,新規,0,2024-08-28,2024-08-28,Ｂｒａｖｅｒｙ　Ｌｉｖｅ合同会社,,合同会社,神奈川県,横浜市西区,高島２丁目１１番２号スカイメナー横浜５１９,,14,103,2200011,,,,,,,2024-08-28,1,,,,,ブラベリーライブ,0
1103,5020003026804,新規,0,2024-08-28,2024-08-28,合同会社Ｃｒｅａ　Ｂｏｎｈｅｕｒ,,合同会社,神奈川県,横浜市旭区,白根２丁目１６番１－５０８号,,14,112,2410005,,,,,,,2024-08-28,1,,,,,クレアボヌール,0
1104,5021001083085,新規,0,2024-08-28,2024-08-28,株式会社とも・コーポレーション,,株式会社,神奈川県,相模原市中央区,淵野辺４丁目４－２ＫＳマンション,,14,152,2520206,,,,,,,2024-08-28,1,,,,,トモコーポレーション,0
1109,5030001162146,新規,0,2024-08-28,2024-08-28,株式会社前田商店,,株式会社,埼玉県,さいたま市見沼区,深作１丁目２４番地２４,,11,104,3370003,,,,,,,2024-08-28,1,,,,,マエダショウテン,0
1110,5030001162170,新規,0,2024-08-28,2024-08-28,株式会社ＢＡコンセルジュ,,株式会社,埼玉県,上尾市,二ツ宮１０１０番地２グランコート上尾２０３,,11,219,3620017,,,,,,,2024-08-28,1,,,,,ビーエーコンセルジュ,0
1111,5030001162195,新規,0,2024-08-28,2024-08-28,株式会社蕾商事,,株式会社,埼玉県,川越市,大字大袋新田４３５番地７,,11,201,3501167,,,,,,,2024-08-28,1,,,,,ツボミショウジ,0
1114,5030003024996,新規,0,2024-08-28,2024-08-28,合同会社ＴＳＲ,,合同会社,埼玉県,朝霞市,泉水３丁目３番１３－２号,,11,227,3510024,,,,,,,2024-08-28,1,,,,,ティエスアール,0
1115,5030003025004,新規,0,2024-08-28,2024-08-28,合同会社大宮伝統保存協会,,合同会社,埼玉県,さいたま市北区,宮原町１丁目８５６番地３ガーデンアクシス３０２,,11,102,3310812,,,,,,,2024-08-28,1,,,,,オオミヤデントウホゾンキョウカイ,0
1124,5040001135134,新規,0,2024-08-28,2024-08-28,＿坤株式会社,00136091,株式会社,千葉県,市川市,曽谷１丁目１番１２号,,12,203,2720832,,,,,,,2024-08-28,1,,,,,エンクン,0
1125,5040001135142,新規,0,2024-08-28,2024-08-28,株式会社海漸,,株式会社,千葉県,浦安市,当代島３丁目３番１－３０２号,,12,227,2790001,,,,,,,2024-08-28,1,,,,,カイゼン,0
1129,5040003025580,新規,0,2024-08-28,2024-08-28,合同会社ｙ．ｏ．ｋ,,合同会社,千葉県,成田市,中野２９４－１,,12,211,2870237,,,,,,,2024-08-28,1,,,,,ワイオーケー,0
1130,5040003025696,新規,0,2024-08-28,2024-08-28,合同会社Ｍｙｓｉｇ,,合同会社,千葉県,習志野市,津田沼４丁目１０番５－２０２号,,12,216,2750016,,,,,,,2024-08-28,1,,,,,ミーシグ,0
1139,5080101024968,新規,0,2024-08-28,2024-08-28,啓航株式会社,,株式会社,静岡県,田方郡函南町,平井１７５３番１０４３ラッキークレスト２０３室,,22,325,4190107,,,,,,,2024-08-28,1,,,,,ケイコウ,0
1141,5100003007746,新規,0,2024-08-28,2024-08-28,ＴＥＮ合同会社,,合同会社,長野県,茅野市,ちの３５０２－１ベルビア２Ｆ２０１,,20,214,3910001,,,,,,,2024-08-28,1,,,,,テン,0
1144,5110001038668,新規,0,2024-08-28,2024-08-28,株式会社ダイチテラス,,株式会社,新潟県,阿賀野市,横山１番地,,15,223,9591957,,,,,,,2024-08-28,1,,,,,ダイチテラス,0
1148,5120001268041,新規,0,2024-08-28,2024-08-28,株式会社ＮＭＮＷＮＨＮＬ,,株式会社,大阪府,大阪市西区,新町１丁目２３－１６－３０５,,27,106,5500013,,,,,,,2024-08-28,1,,,,,ノーナンチャラ,0
1149,5120001268074,新規,0,2024-08-28,2024-08-28,Ｌｉｎｋ　Ｐｏｉｎｔ株式会社,,株式会社,大阪府,大阪市中央区,安堂寺町２丁目６番１１－１５０２号,,27,128,5420061,,,,,,,2024-08-28,1,,,,,リンクポイント,0
1150,5120001268108,新規,0,2024-08-28,2024-08-28,興和商事株式会社,,株式会社,大阪府,大阪市住之江区,西住之江１丁目８－２０－１０２,,27,125,5590005,,,,,,,2024-08-28,1,,,,,コウワショウジ,0
1157,5120003027387,新規,0,2024-08-28,2024-08-28,合同会社ＴＲＹ,,合同会社,大阪府,大阪市西淀川区,大和田１丁目３番３７－７０２号,,27,113,5550032,,,,,,,2024-08-28,1,,,,,トライ,0
1159,5120005024515,新規,0,2024-08-28,2024-08-28,一般社団法人徳医会,,その他の設立登記法人,大阪府,大阪市中央区,本町１丁目４番１３号ＳＳＩ本町７階,,27,128,5410053,,,,,,,2024-08-28,1,,,,,トクイカイ,0
1163,5130001077805,新規,0,2024-08-28,2024-08-28,株式会社Ｇ．Ｃ．Ｉ,,株式会社,京都府,京都市東山区,三条通大橋東入二町目７９番地,,26,105,6050001,,,,,,,2024-08-28,1,,,,,ジーシーイー,0
1164,5130003009797,新規,0,2024-08-28,2024-08-28,エファルト合同会社,,合同会社,京都府,京都市伏見区,向島善阿弥町２０番地２６,,26,109,6128121,,,,,,,2024-08-28,1,,,,,エファルト,0
1165,5130005017170,新規,0,2024-08-28,2024-08-28,こと税理士法人,,その他の設立登記法人,京都府,京都市中京区,西ノ京南聖町２１番地９津田ビル４階,,26,104,6048412,,,,,,,2024-08-28,1,,,,,コト,0
1169,5140001135628,新規,0,2024-08-28,2024-08-28,株式会社イーユーテン・ホールディングス,,株式会社,兵庫県,神戸市北区,谷上東町７－１０,,28,109,6511245,,,,,,,2024-08-28,1,,,,,イーユーテンホールディングス,0
1170,5140001135636,新規,0,2024-08-28,2024-08-28,株式会社Ａファーム,,株式会社,兵庫県,姫路市,夢前町杉之内１７,,28,201,6712111,,,,,,,2024-08-28,1,,,,,エーファーム,0
1172,5140003021009,新規,0,2024-08-28,2024-08-28,合同会社Ｐｌｅａｓｕｒｅ　Ｔｏｎｅ,,合同会社,兵庫県,西宮市,中前田町７番３０－４０１号,,28,204,6620857,,,,,,,2024-08-28,1,,,,,プレジャートーン,0
1173,5140005027193,新規,0,2024-08-28,2024-08-28,一般社団法人Ｋ＆Ｋ　Ｇｕａｒｄｉａｎｓ,,その他の設立登記法人,兵庫県,神戸市中央区,熊内町５丁目２番３０－８０５号,,28,110,6510056,,,,,,,2024-08-28,1,,,,,ケイアンドケイガーディアンズ,0
1175,5170001018284,新規,0,2024-08-28,2024-08-28,株式会社Ａｙｍａ,,株式会社,和歌山県,和歌山市,西浜９５６,,30,201,6410036,,,,,,,2024-08-28,1,,,,,アイマ,0
1176,5170003002096,新規,0,2024-08-28,2024-08-28,ＨＩ・ＪＵＳＴ合同会社,,合同会社,和歌山県,和歌山市,園部７２９番地,,30,201,6408483,,,,,,,2024-08-28,1,,,,,ハイジャスト,0
1206,5260001039404,新規,0,2024-08-28,2024-08-28,株式会社凪・ホールディングス,,株式会社,岡山県,岡山市中区,倉富３２５番地,,33,102,7038264,,,,,,,2024-08-28,1,,,,,ナギホールディングス,0
1208,5290001106969,新規,0,2024-08-28,2024-08-28,株式会社問屋,,株式会社,福岡県,福岡市博多区,博多駅前４丁目２０番地１７号４－３,,40,132,8120011,,,,,,,2024-08-28,1,,,,,トンヤ,0
1209,5290001107067,新規,0,2024-08-28,2024-08-28,株式会社エムズ・ランド,,株式会社,福岡県,久留米市,東合川町３９７番地,,40,203,8390807,,,,,,,2024-08-28,1,,,,,エムズランド,0
1210,5290003015739,新規,0,2024-08-28,2024-08-28,合同会社ｅｌｅｆｏｌｏ,,合同会社,福岡県,福岡市博多区,山王１丁目７番地１ＪｕｓｔｉｃｅＶ．Ｐ６０４,,40,132,8120015,,,,,,,2024-08-28,1,,,,,エレフォロ,0
1211,5290003015747,新規,0,2024-08-28,2024-08-28,オフィスＹ．Ｂ合同会社,,合同会社,福岡県,福岡市東区,二又瀬新町６－６,,40,131,8120065,,,,,,,2024-08-28,1,,,,,オフィスワイビー,0
1221,5350001019157,新規,0,2024-08-28,2024-08-28,ワンブルーコンサルティング株式会社,,株式会社,宮崎県,宮崎市,錦町１番２５号シティテラス宮崎１５１３号,,45,201,8800811,,,,,,,2024-08-28,1,,,,,ワンブルーコンサルティング,0
1225,5370001051678,新規,0,2024-08-28,2024-08-28,株式会社アップクリーン,,株式会社,宮城県,仙台市若林区,東七番丁１７,,04,103,9840074,,,,,,,2024-08-28,1,,,,,アップクリーン,0
1231,5380001034756,新規,0,2024-08-28,2024-08-28,株式会社紺野建築板金,,株式会社,福島県,伊達郡桑折町,大字松原字下舘７３番地の２,,07,301,9691653,,,,,,,2024-08-28,1,,,,,コンノケンチクバンキン,0
1236,5430001092550,新規,0,2024-08-28,2024-08-28,すずき工務店株式会社,,株式会社,北海道,札幌市北区,太平七条６丁目５番１５号,,01,102,0028007,,,,,,,2024-08-28,1,,,,,スズキコウムテン,0
1240,5430003016730,新規,0,2024-08-28,2024-08-28,合同会社Ｌ．ｉ．Ｍ,,合同会社,北海道,札幌市北区,北二十二条西８丁目１‐３８,,01,102,0010022,,,,,,,2024-08-28,1,,,,,リム,0
1243,5460303000836,新規,0,2024-08-28,2024-08-28,合同会社サードプレイス,,合同会社,北海道,網走市,潮見２丁目１０番９号,,01,211,0930042,,,,,,,2024-08-28,1,,,,,サードプレイス,0
1244,5470001020359,新規,0,2024-08-28,2024-08-28,株式会社フーズ和屋,,株式会社,香川県,高松市,香川町大野２２５１番地６,,37,201,7611701,,,,,,,2024-08-28,1,,,,,フーズナゴミヤ,0
1250,5700150126916,新規,0,2024-08-28,2024-08-28,Ｓｈｅｎｚｈｅｎｓｈｉ　ｊｉｎｇｃｉ　ｔｅｃｈ　ｃｏ．，ｌｔｄ,,外国会社等,,,,,,,,Ｒｏｏｍ　８０５，Ｗｅｉｆｅｎｇ　Ｂｕｉｌｄｉｎｇ，Ｎｏ．６３０１，Ｂａｏａｎ　Ａｖｅｎｕｅ，Ｑｉａｏｔｏｕ　Ｃｏｍｍｕｎｉｔｙ，Ｆｕｈａｉ　Ｓｔｒｅｅｔ，Ｂａｏａｎ　Ｄｉｓｔｒｉｃｔ，Ｓｈｅｎｚｈｅｎ　５１８０００,,,,,,2024-08-28,1,,,,,シンセンシジンチテックカンパニーリミテッド,0
1251,5700150126932,新規,0,2024-08-28,2024-08-28,ＺｈｕＪｉＴｏｎｇＴｕＤｉａｎＺｉＳｈａｎｇＷｕＹｏｕＸｉａｎＧｏｎｇＳｉ,,外国会社等,,,,,,,,ｈｕａｎｄｏｎｇｊｉｅｄａｏｄｏｎｇｘｉａｎｇｌｕ９ｈａｏｃｈｅｎｇｓｈａｎｇｃｈｅｎｇ２１ｚｈｕａｎｇｅｒｄａｎｙｕａｎ１５０１ｓｈｉＺｈｕＪｉ　ＺｈｅＪｉａｎｇ,,,,,,2024-08-28,1,,,,,ジュージートントゥーディエンズーシャンウーヨウシエンゴンスー,0
1258,6010003044681,新規,0,2024-08-28,2024-08-28,合同会社ＨＭ名駅,,合同会社,東京都,中央区,日本橋１丁目４番１号日本橋一丁目ビルディング,,13,102,1030027,,,,,,,2024-08-28,1,,,,,エイチエムメイエキ,0
1265,6010401184765,新規,0,2024-08-28,2024-08-28,株式会社ＧＣＳ,,株式会社,東京都,港区,芝４丁目３番５号３Ｆ,,13,103,1080014,,,,,,,2024-08-28,1,,,,,ジーシーエス,0
1267,6010501052797,新規,0,2024-08-28,2024-08-28,ＳＸＭＡＩＬＥ　ＳＴＹＬＥ株式会社,,株式会社,東京都,台東区,元浅草１丁目２０番９号ＥｓｔａｔｅＯｎｅＢｌｄｇ．４階,,13,106,1110041,,,,,,,2024-08-28,1,,,,,セメレスタイル,0
1268,6010601065781,新規,0,2024-08-28,2024-08-28,万容株式会社,,株式会社,東京都,江東区,豊洲６丁目２番２９ベイズタワー＆ガーデン１０１２号室,,13,108,1350061,,,,,,,2024-08-28,1,,,,,マンヨ,0
1269,6010601065823,新規,0,2024-08-28,2024-08-28,ルナクロス株式会社,,株式会社,東京都,江東区,豊洲３丁目５－３－２２９,,13,108,1350061,,,,,,,2024-08-28,1,,,,,ルナクロス,0
1274,6010705003670,新規,0,2024-08-28,2024-08-28,一般社団法人アニマルケアマスタリー協会,,その他の設立登記法人,東京都,品川区,西品川１丁目１番１号大崎ガーデンタワーＴＵＮＮＥＬ東京９階,,13,109,1410033,,,,,,,2024-08-28,1,,,,,アニマルケアマスタリーキョウカイ,0
1275,6010803005081,新規,0,2024-08-28,2024-08-28,合同会社ＡＡＫＫ,,合同会社,東京都,大田区,南馬込３丁目７番１－３号,,13,111,1430025,,,,,,,2024-08-28,1,,,,,エーエーケーケー,0
1287,6011003019888,新規,0,2024-08-28,2024-08-28,ＷＡ合同会社,,合同会社,東京都,渋谷区,恵比寿４丁目６番２号パーク・ノヴァ恵比寿３０３,,13,113,1500013,,,,,,,2024-08-28,1,,,,,ワ,0
1299,6011103014830,新規,0,2024-08-28,2024-08-28,ＩＫＡＲＩ　ＩＭＰＯＲＴＳ合同会社,,合同会社,東京都,新宿区,山吹町３５９オオシビル,,13,104,1620801,,,,,,,2024-08-28,1,,,,,イカリインポーツ,0
1300,6011105011132,新規,0,2024-08-28,2024-08-28,一般財団法人樽井常一記念財団,,その他の設立登記法人,東京都,新宿区,下宮比町二丁目２８番飯田橋ハイタウン４３２号室,,13,104,1620822,,,,,,,2024-08-28,1,,,,,タルイツネカズキネンザイダン,0
1303,6011303005266,新規,0,2024-08-28,2024-08-28,合同会社颯丸,,合同会社,東京都,杉並区,高円寺南４丁目３４番２２号ＬｉｌｉＢｌａｎｃａ高円寺３０５号,,13,115,1660003,,,,,,,2024-08-28,1,,,,,ハヤテマル,0
1307,6011503006196,新規,0,2024-08-28,2024-08-28,合同会社フィルスペ,,合同会社,東京都,北区,王子１丁目２番１－４０２号室,,13,117,1140002,,,,,,,2024-08-28,1,,,,,フィルスペ,0
1310,6011801044732,新規,0,2024-08-28,2024-08-28,Ｆ．Ａ．Ｎ．株式会社,,株式会社,東京都,足立区,西保木間３丁目２５３－２５,,13,121,1210812,,,,,,,2024-08-28,1,,,,,ファン,0
1313,6012701018421,新規,0,2024-08-28,2024-08-28,大明国際株式会社,,株式会社,東京都,西東京市,田無町２丁目１４番９－７０８号,,13,229,1880011,,,,,,,2024-08-28,1,,,,,ダイメイコクサイ,0
1316,6013301053040,新規,0,2024-08-28,2024-08-28,雅株式会社,,株式会社,東京都,豊島区,目白５丁目４番６号,,13,116,1710031,,,,,,,2024-08-28,1,,,,,ミヤビ,0
1322,6020001158706,新規,0,2024-08-28,2024-08-28,株式会社レバンタール,,株式会社,神奈川県,横浜市神奈川区,千若町３丁目１番地,,14,102,2210036,,,,,,,2024-08-28,1,,,,,レバンタール,0
1323,6020001158912,新規,0,2024-08-28,2024-08-28,株式会社Ｌｉｆｅ　Ｂｏｄｙｃａｒｅ,,株式会社,神奈川県,横浜市栄区,長倉町１－１３８７－１メディカルプラザ２階,,14,115,2470023,,,,,,,2024-08-28,1,,,,,ライフボディケア,0
1324,6020001158920,新規,0,2024-08-28,2024-08-28,関東ネット株式会社,,株式会社,神奈川県,横浜市磯子区,森６丁目２１番２１－１０２号,,14,107,2350023,,,,,,,2024-08-28,1,,,,,カントウネット,0
1325,6020003026712,新規,0,2024-08-28,2024-08-28,合同会社トライムーブ,,合同会社,神奈川県,横浜市金沢区,谷津町１２１番地８,,14,108,2360016,,,,,,,2024-08-28,1,,,,,トライムーブ,0
1326,6020003026729,新規,0,2024-08-28,2024-08-28,合同会社かたるば,,合同会社,神奈川県,横浜市港北区,菊名６丁目１３番３１－１０２号,,14,109,2220011,,,,,,,2024-08-28,1,,,,,カタルバ,0
1327,6020003026753,新規,0,2024-08-28,2024-08-28,合同会社日向端電設,,合同会社,神奈川県,川崎市川崎区,日進町２６－１１トーア川崎マンション９０６,,14,131,2100024,,,,,,,2024-08-28,1,,,,,ヒナハタデンセツ,0
1328,6020005016513,新規,0,2024-08-28,2024-08-28,司法書士法人横浜ベイ法務事務所,,その他の設立登記法人,神奈川県,横浜市中区,本町３丁目２４番１号本町中央ビル３階,,14,104,2310005,,,,,,,2024-08-28,1,,,,,ヨコハマベイホウムジムショ,0
1332,6021001083035,新規,0,2024-08-28,2024-08-28,株式会社Ｙ’ｓ　Ａｓｓｉｓｔ,,株式会社,神奈川県,相模原市中央区,淵野辺２丁目７番１０－６１０号,,14,152,2520206,,,,,,,2024-08-28,1,,,,,ワイズアシスト,0
1333,6021001083092,新規,0,2024-08-28,2024-08-28,株式会社ｚｅｒｏＯＮＥ,,株式会社,神奈川県,綾瀬市,上土棚中４丁目１番５－６０６号,,14,218,2521113,,,,,,,2024-08-28,1,,,,,ゼロワン,0
1334,6021001083101,新規,0,2024-08-28,2024-08-28,株式会社コネクト,,株式会社,神奈川県,三浦郡葉山町,長柄９８４番地の１１,,14,301,2400113,,,,,,,2024-08-28,1,,,,,コネクト,0
1339,6030001162137,新規,0,2024-08-28,2024-08-28,Ｃｈｉｎａ　Ｃｕｓｔｏｍ　Ｍａｎｕｆａｃｔｕｒｉｎｇ株式会社,,株式会社,埼玉県,川口市,西川口１丁目３０番２０号創業館・西川口オフィス１階１号室,,11,203,3320021,,,,,,,2024-08-28,1,,,,,チャイナカスタムマニュファクチャリング,0
1340,6030001162203,新規,0,2024-08-28,2024-08-28,株式会社ワクワクワーク,,株式会社,埼玉県,川口市,飯原町６番５６号１０５,,11,203,3320024,,,,,,,2024-08-28,1,,,,,ワクワクワーク,0
1342,6030003025011,新規,0,2024-08-28,2024-08-28,合同会社マウォイ,,合同会社,埼玉県,加須市,久下２丁目２２番４号,,11,210,3470063,,,,,,,2024-08-28,1,,,,,マウォイ,0
1357,6040003025695,新規,0,2024-08-28,2024-08-28,合同会社Ｎｅｘｔｓｔａｇｅ,,合同会社,千葉県,東金市,東上宿１４番地７平賀ビル２０１号室,,12,213,2830067,,,,,,,2024-08-28,1,,,,,ネクストステージ,0
1360,6060001037435,新規,0,2024-08-28,2024-08-28,株式会社ＺＥＭＵＧＥ,,株式会社,栃木県,宇都宮市,一条３丁目１番３８号,,09,201,3200821,,,,,,,2024-08-28,1,,,,,ゼムゲ,0
1361,6070001042112,新規,0,2024-08-28,2024-08-28,株式会社太田流通サービス,,株式会社,群馬県,太田市,飯田町９１６番地,,10,205,3730851,,,,,,,2024-08-28,1,,,,,オオタリュウツウサービス,0
1362,6070003005562,新規,0,2024-08-28,2024-08-28,合同会社コスモビル管理,,合同会社,群馬県,沼田市,東原新町１８３８番地７コスモビル２０１号,,10,206,3780053,,,,,,,2024-08-28,1,,,,,コスモビルカンリ,0
1368,6110003005500,新規,0,2024-08-28,2024-08-28,合同会社ＲＯＯＴＥ,,合同会社,新潟県,長岡市,下柳２丁目５番１号メゾン・サンレイクＤ２０１号室,,15,202,9402013,,,,,,,2024-08-28,1,,,,,ルーテ,0
1377,6120001268032,新規,0,2024-08-28,2024-08-28,株式会社ＴＫ３,,株式会社,大阪府,大阪市住之江区,浜口東２丁目１２番５－９０３号,,27,125,5590002,,,,,,,2024-08-28,1,,,,,ティーケースリー,0
1378,6120001268049,新規,0,2024-08-28,2024-08-28,株式会社阪和商事,,株式会社,大阪府,大阪市中央区,博労町１丁目２番１号オーセンテック東船場２－５０１号,,27,128,5410059,,,,,,,2024-08-28,1,,,,,ハンワショウジ,0
1379,6120001268098,新規,0,2024-08-28,2024-08-28,株式会社Ｂｅ‐ＳＭｉｌｉｎｇ,,株式会社,大阪府,大阪市鶴見区,鶴見３丁目３番３号,,27,124,5380053,,,,,,,2024-08-28,1,,,,,ビースマイリング,0
1380,6120001268107,新規,0,2024-08-28,2024-08-28,株式会社ＮＯＥ,,株式会社,大阪府,大阪市西区,靱本町２丁目４番７号,,27,106,5500004,,,,,,,2024-08-28,1,,,,,ノエ,0
1381,6120001268115,新規,0,2024-08-28,2024-08-28,株式会社ＧＬボーロンジャパン,,株式会社,大阪府,大阪市中央区,平野町３丁目１番７号,,27,128,5410046,,,,,,,2024-08-28,1,,,,,ジーエルボーロンジャパン,0
1382,6120001268123,新規,0,2024-08-28,2024-08-28,Ｌｅ　ｃｉｅｌ株式会社,,株式会社,大阪府,大阪市北区,梅田２丁目５番１３号桜橋第一ビル３０４号,,27,127,5300001,,,,,,,2024-08-28,1,,,,,ルシエル,0
1386,6120003027386,新規,0,2024-08-28,2024-08-28,ＺＡＲＩＮＡ合同会社,,合同会社,大阪府,大阪市西淀川区,出来島２丁目６ー９池田文化２０４,,27,113,5550031,,,,,,,2024-08-28,1,,,,,ザリナ,0
1387,6120003027394,新規,0,2024-08-28,2024-08-28,合同会社マニキ,,合同会社,大阪府,大阪市福島区,海老江１丁目５番３０－１９１５号,,27,103,5530001,,,,,,,2024-08-28,1,,,,,マニキ,0
1388,6120003027403,新規,0,2024-08-28,2024-08-28,実立合同会社,,合同会社,大阪府,大阪市東成区,玉津１丁目３番２１号,,27,115,5370023,,,,,,,2024-08-28,1,,,,,ジツリツ,0
1389,6120003027411,新規,0,2024-08-28,2024-08-28,合同会社ＫＴＵ,,合同会社,大阪府,大阪市平野区,瓜破東７丁目１番３２号レオパレスコーラルＩ１０１号室,00136092,27,126,5470022,,,,,,,2024-08-28,1,,,,,ケーティーユー,0
1394,6120103006026,新規,0,2024-08-28,2024-08-28,ＡＭ合同会社,,合同会社,大阪府,河内長野市,清見台３丁目１－１６,,27,216,5860043,,,,,,,2024-08-28,1,,,,,エーエム,0
1395,6120103006034,新規,0,2024-08-28,2024-08-28,合同会社ＢＩＧ　ＢＥＡＴ,,合同会社,大阪府,堺市堺区,三条通６番２０号ｃａｓａ堺三条３０２号,,27,141,5900046,,,,,,,2024-08-28,1,,,,,ビッグビート,0
1400,6122001038398,新規,0,2024-08-28,2024-08-28,株式会社Ｉｓ　Ｌｉｆｅ,,株式会社,大阪府,東大阪市,荒本新町２番２６号中野ビル２０１,,27,227,5770022,,,,,,,2024-08-28,1,,,,,イズライフ,0
1403,6130001077829,新規,0,2024-08-28,2024-08-28,８８ｃｏｍｐａｓｓ株式会社,,株式会社,京都府,京都市北区,紫野西御所田町１４－２サンケイビル２Ｆ,,26,101,6038165,,,,,,,2024-08-28,1,,,,,ハチジュウハチコンパス,0
1409,6140001135627,新規,0,2024-08-28,2024-08-28,株式会社宇垣設備,,株式会社,兵庫県,尼崎市,水明町２９番地の１,,28,202,6600082,,,,,,,2024-08-28,1,,,,,ウガキセツビ,0
1410,6140001135643,新規,0,2024-08-28,2024-08-28,Ｊａｐａｎ　Ｒｅｎｔａｌ　Ｃａｒ株式会社,,株式会社,兵庫県,芦屋市,涼風町２４－１２,,28,206,6590036,,,,,,,2024-08-28,1,,,,,ジャパンレンタカー,0
1413,6140005027192,新規,0,2024-08-28,2024-08-28,赤穂土木協同組合,,その他の設立登記法人,兵庫県,赤穂市,加里屋１５１０番地,,28,212,6780239,,,,,,,2024-08-28,1,,,,,アコウドボク,0
1424,6180001162997,新規,0,2024-08-28,2024-08-28,Ｍａｉｓｏｎ　Ａｉｌｅｓ株式会社,,株式会社,愛知県,名古屋市東区,泉１丁目３番２７号浜名ビル３階,,23,102,4610001,,,,,,,2024-08-28,1,,,,,メゾンエール,0
1425,6180001163021,新規,0,2024-08-28,2024-08-28,株式会社ベターレイト,,株式会社,愛知県,瀬戸市,さつき台４丁目８０番地の２６,,23,204,4890982,,,,,,,2024-08-28,1,,,,,ベターレイト,0
1439,6240003006824,新規,0,2024-08-28,2024-08-28,合同会社Ｆｒｅｅ,,合同会社,広島県,広島市中区,千田町１丁目３番９‐１０３号,,34,101,7300052,,,,,,,2024-08-28,1,,,,,フリー,0
1441,6260001039403,新規,0,2024-08-28,2024-08-28,株式会社ＹＯコンサル,,株式会社,岡山県,岡山市北区,柳町１丁目４番８号,,33,101,7000904,,,,,,,2024-08-28,1,,,,,ワイオーコンサル,0
1442,6260005011399,新規,0,2024-08-28,2024-08-28,特定非営利活動法人へいわ,,その他の設立登記法人,岡山県,井原市,下稲木町７０９番地３,,33,207,7150017,,,,,,,2024-08-28,1,,,,,ヘイワ,0
1443,6270005005607,新規,0,2024-08-28,2024-08-28,一般社団法人ままんずｌｉｎｋｓ,,その他の設立登記法人,鳥取県,鳥取市,田園町１丁目２０４番地６,,31,201,6800803,,,,,,,2024-08-28,1,,,,,ママンズリンクス,0
1449,6290003015671,新規,0,2024-08-28,2024-08-28,合同会社ＮＯＭＥＮ,,合同会社,福岡県,福岡市早良区,田村４丁目２９番２９－３０２号グレースハイツマユミ,,40,137,8140175,,,,,,,2024-08-28,1,,,,,ノーメン,0
1450,6290003015738,新規,0,2024-08-28,2024-08-28,合同会社ステイドリーム,,合同会社,福岡県,飯塚市,多田６６番地６,,40,205,8200116,,,,,,,2024-08-28,1,,,,,ステイドリーム,0
1451,6290003015746,新規,0,2024-08-28,2024-08-28,西山不動産合同会社,,合同会社,福岡県,福岡市中央区,天神４丁目６－２８天神ファーストビル７階,,40,133,8100001,,,,,,,2024-08-28,1,,,,,ニシヤマフドウサン,0
1461,6360001034121,新規,0,2024-08-28,2024-08-28,アイパートナーズ株式会社,,株式会社,沖縄県,那覇市,牧志１丁目２番３１号はいさいおきなわビル４階,,47,201,9000013,,,,,,,2024-08-28,1,,,,,アイパートナーズ,0
1462,6360003014261,新規,0,2024-08-28,2024-08-28,合同会社ケイティ設備,,合同会社,沖縄県,沖縄市,泡瀬３丁目３９番２１号１Ｆ,,47,211,9042172,,,,,,,2024-08-28,1,,,,,ケイティセツビ,0
1463,6370001051677,新規,0,2024-08-28,2024-08-28,株式会社ＡＵＴＯＳ　ＯＮＥ,,株式会社,宮城県,仙台市青葉区,芋沢字吉成３７‐３,,04,101,9893212,,,,,,,2024-08-28,1,,,,,オータスワン,0
1471,6400005008439,新規,0,2024-08-28,2024-08-28,医療法人社団しわみらい会,,その他の設立登記法人,岩手県,紫波郡紫波町,日詰字東裏２０番２,,03,321,0283305,,,,,,,2024-08-28,1,,,,,シワミライカイ,0
1473,6430001092558,新規,0,2024-08-28,2024-08-28,株式会社テスタ,,株式会社,北海道,札幌市西区,発寒九条１３丁目３番１６号,,01,107,0630829,,,,,,,2024-08-28,1,,,,,テスタ,0
1483,6470001020358,新規,0,2024-08-28,2024-08-28,株式会社フォレスト,,株式会社,香川県,高松市,香川町川東下１３０５番地,,37,201,7611705,,,,,,,2024-08-28,1,,,,,フォレスト,0
1486,6500001025849,新規,0,2024-08-28,2024-08-28,株式会社ｇｉｒａｓｏｌｅ,,株式会社,愛媛県,伊予郡松前町,大字南黒田７５１番地７,,38,401,7913101,,,,,,,2024-08-28,1,,,,,ジラソーレ,0
1488,6500003003316,新規,0,2024-08-28,2024-08-28,遮二無二合同会社,,合同会社,愛媛県,四国中央市,土居町中村１６－９,,38,213,7990701,,,,,,,2024-08-28,1,,,,,シャニムニ,0
1490,6700150126915,新規,0,2024-08-28,2024-08-28,Ｚｙｘｅｌ　Ｎｅｔｗｏｒｋｓ　Ｃｏｒｐｏｒａｔｉｏｎ,,外国会社等,,,,,,,,１１Ｆ．，Ｎｏ．２２５，Ｓｅｃ　３，Ｂｅｉｘｉｎ　Ｒｄ．，Ｘｉｎｄｉａｎ　Ｄｉｓｔ．，Ｎｅｗ　Ｔａｉｐｅｉ　Ｃｉｔｙ　２３１０３０，Ｔａｉｗａｎ（Ｒ．Ｏ．Ｃ）,,,,,,2024-08-28,1,,,,,チョウキンネットワークズコーポレーション,0
1500,7010001247649,新規,0,2024-08-28,2024-08-28,ＰｒｏＶｉｓｉｏｎ株式会社,,株式会社,東京都,千代田区,神田須田町１丁目,,13,101,1010041,,,,,,,2024-08-28,1,,,,,プロビジョン,0
1501,7010001247731,新規,0,2024-08-28,2024-08-28,株式会社ＳＭＤ,,株式会社,東京都,中央区,銀座１丁目２２番１１号銀座大竹ビジデンス２階,,13,102,1040061,,,,,,,2024-08-28,1,,,,,エスエムディー,0
1502,7010001247756,新規,0,2024-08-28,2024-08-28,株式会社ＳＫ,,株式会社,東京都,千代田区,丸の内２丁目２－１,,13,101,1000005,,,,,,,2024-08-28,1,,,,,エスケー,0
1503,7010001247764,新規,0,2024-08-28,2024-08-28,株式会社麦丸,,株式会社,東京都,文京区,本郷６丁目２５番１４号,,13,105,1130033,,,,,,,2024-08-28,1,,,,,ムギマル,0
1504,7010001247855,新規,0,2024-08-28,2024-08-28,株式会社スターリード,,株式会社,東京都,中央区,日本橋堀留町１丁目１０番９号ログズ日本橋堀留町ビル１０階,,13,102,1030012,,,,,,,2024-08-28,1,,,,,スターリード,0
1510,7010003044623,新規,0,2024-08-28,2024-08-28,合同会社ＬＥＯＮ,,合同会社,東京都,中央区,京橋２丁目１２番６号ＡＯＪ税理士法人内,,13,102,1040031,,,,,,,2024-08-28,1,,,,,レオン,0
1511,7010003044656,新規,0,2024-08-28,2024-08-28,合同会社厚木金田ロジ,,合同会社,東京都,中央区,日本橋１丁目４番１号,,13,102,1030027,,,,,,,2024-08-28,1,,,,,アツギカネダロジ,0
1512,7010003044697,新規,0,2024-08-28,2024-08-28,ちよだ基盤開発合同会社,,合同会社,東京都,千代田区,大手町１丁目１番１号,,13,101,1000004,,,,,,,2024-08-28,1,,,,,チヨダキバンカイハツ,0
1513,7010003044706,新規,0,2024-08-28,2024-08-28,合同会社Ｅｑｕｉｎｏｘ,,合同会社,東京都,中央区,銀座１丁目１２－４Ｎ＆ＥＢＬＤ．７階,,13,102,1040061,,,,,,,2024-08-28,1,,,,,イクイノックス,0
1514,7010003044714,新規,0,2024-08-28,2024-08-28,合同会社国土アセットキャピタル,,合同会社,東京都,中央区,銀座１丁目２２番１１号銀座大竹ビジデンス２Ｆ,,13,102,1040061,,,,,,,2024-08-28,1,,,,,コクドアセットキャピタル,0
1530,7010401184731,新規,0,2024-08-28,2024-08-28,アンシンバイオ株式会社,,株式会社,東京都,港区,三田１丁目２番１８号ＴＴＤビル,,13,103,1080073,,,,,,,2024-08-28,1,,,,,アンシンバイオ,0
1531,7010401184797,新規,0,2024-08-28,2024-08-28,ＩＫＯＫＯ　ＪＡＰＡＮ株式会社,,株式会社,東京都,港区,赤坂２丁目８番１１号,,13,103,1070052,,,,,,,2024-08-28,1,,,,,イッココジャパン,0
1532,7010403033291,新規,0,2024-08-28,2024-08-28,合同会社ＫＴ,,合同会社,東京都,港区,北青山１丁目３番１号アールキューブ青山３階,,13,103,1070061,,,,,,,2024-08-28,1,,,,,ケーティー,0
1533,7010503007559,新規,0,2024-08-28,2024-08-28,合同会社ＡＣＨＩＨＡ,,合同会社,東京都,台東区,駒形１丁目２番１５－１２０１号エルスタンザ駒形,,13,106,1110043,,,,,,,2024-08-28,1,,,,,アチハ,0
1542,7011001164223,新規,0,2024-08-28,2024-08-28,Ｉｓｌａｎｄｓ株式会社,,株式会社,東京都,渋谷区,東１丁目２９番３号渋谷ブリッジＢ棟,,13,113,1500011,,,,,,,2024-08-28,1,,,,,アイランズ,0
1543,7011001164272,新規,0,2024-08-28,2024-08-28,株式会社ｍ．ｅｄｉｔ,,株式会社,東京都,渋谷区,上原３丁目２６番６－５０２号,,13,113,1510064,,,,,,,2024-08-28,1,,,,,エムエディット,0
1546,7011003019879,新規,0,2024-08-28,2024-08-28,合同会社ＴＭＲ,,合同会社,東京都,渋谷区,神宮前６丁目２３番４号桑野ビル２階,,13,113,1500001,,,,,,,2024-08-28,1,,,,,ティーエムアール,0
1555,7011401026386,新規,0,2024-08-28,2024-08-28,ケイロスフィア株式会社,,株式会社,東京都,板橋区,中台３丁目２６－１６－３０４Ｄ,,13,119,1740064,,,,,,,2024-08-28,1,,,,,ケイロスフィア,0
1559,7011801044764,新規,0,2024-08-28,2024-08-28,雲之源株式会社,,株式会社,東京都,足立区,新田３丁目３７－１１－９２０,,13,121,1230865,,,,,,,2024-08-28,1,,,,,クニノモト,0
1562,7012401042225,新規,0,2024-08-28,2024-08-28,株式会社サーモグレーズＴｅｒｒａ,,株式会社,東京都,多摩市,一ノ宮４丁目６番地の６,,13,224,2060002,,,,,,,2024-08-28,1,,,,,サーモグレーズテラ,0
1565,7013101009497,新規,0,2024-08-28,2024-08-28,株式会社Ｒｅｎｏｖａｎ　Ｊａｐａｎ,,株式会社,東京都,あきる野市,小川東１丁目１４番地１５,,13,228,1970822,,,,,,,2024-08-28,1,,,,,リノバンジャパン,0
1570,7013301053048,新規,0,2024-08-28,2024-08-28,株式会社Ｎｏｕｖｅｌｌｅ　Ｃｏｕｌｅｕｒ,,株式会社,東京都,豊島区,高田３丁目９－１２,,13,116,1710033,,,,,,,2024-08-28,1,,,,,ヌーベルクルール,0
1577,7020001158762,新規,0,2024-08-28,2024-08-28,ＡＩコンサルティングジャパン株式会社,,株式会社,神奈川県,横浜市西区,北幸２丁目１０－４８むつみビル３階,,14,103,2200004,,,,,,,2024-08-28,1,,,,,エイアイコンサルティングジャパン,0
1578,7020001158894,新規,0,2024-08-28,2024-08-28,ビューティークラフトスタジオ株式会社,,株式会社,神奈川県,横浜市神奈川区,入江２丁目４番３２号,,14,102,2210014,,,,,,,2024-08-28,1,,,,,ビューティークラフトスタジオ,0
1579,7020001158928,新規,0,2024-08-28,2024-08-28,株式会社Ｂ‐Ｗｅｌｌｎｅｓｓ,,株式会社,神奈川県,横浜市栄区,笠間３丁目４５番地,,14,115,2470006,,,,,,,2024-08-28,1,,,,,ビーウェルネス,0
1581,7020003026744,新規,0,2024-08-28,2024-08-28,合同会社ＨＩＴＯＭＩ,,合同会社,神奈川県,川崎市中原区,井田杉山町３０番１６－５１６号,,14,133,2110036,,,,,,,2024-08-28,1,,,,,ヒトミ,0
1582,7020003026802,新規,0,2024-08-28,2024-08-28,ｃａｃ合同会社,,合同会社,神奈川県,横浜市旭区,鶴ケ峰１丁目６番地２１,,14,112,2410022,,,,,,,2024-08-28,1,,,,,シーエーシー,0
1584,7021003014953,新規,0,2024-08-28,2024-08-28,合同会社ＣＲＥＳＴ,,合同会社,神奈川県,横須賀市,池上７丁目１３番１－４０８号,,14,201,2380035,,,,,,,2024-08-28,1,,,,,クレスト,0
1591,7030001162193,新規,0,2024-08-28,2024-08-28,Ａｇｒｉｃｏ　Ｆａｒｍ株式会社,,株式会社,埼玉県,東松山市,大字上野本１２５４番地,,11,212,3550073,,,,,,,2024-08-28,1,,,,,アグリコファーム,0
1599,7030003025002,新規,0,2024-08-28,2024-08-28,合同会社ＡＲＵＫＡ,,合同会社,埼玉県,坂戸市,南町５番９号ミナミファイブ２０２号室,,11,239,3500233,,,,,,,2024-08-28,1,,,,,アルカ,0
1600,7030003025010,新規,0,2024-08-28,2024-08-28,合同会社ハンナ,,合同会社,埼玉県,所沢市,堀之内５１８番地,,11,208,3591165,,,,,,,2024-08-28,1,,,,,ハンナ,0
1604,7040001135132,新規,0,2024-08-28,2024-08-28,株式会社ｃｏｃｏ．ｏｒａｎｇｅ,,株式会社,千葉県,千葉市若葉区,小倉台２丁目１０２１番地３２,,12,104,2640006,,,,,,,2024-08-28,1,,,,,ココオレンジ,0
1605,7040001135149,新規,0,2024-08-28,2024-08-28,株式会社Ｂｒｅｍｅｎ,,株式会社,千葉県,船橋市,小室町３０８０番地ルネサンス船橋小室公園５１０号,,12,204,2701471,,,,,,,2024-08-28,1,,,,,ブレーメン,0
1607,7040003025645,新規,0,2024-08-28,2024-08-28,合同会社グリーンアシスト,,合同会社,千葉県,旭市,琴田２６９５－３２,,12,215,2892502,,,,,,,2024-08-28,1,,,,,グリーンアシスト,0
1612,7070003005561,新規,0,2024-08-28,2024-08-28,ＰＡＴＨＩＶＡＲＡ合同会社,,合同会社,群馬県,前橋市,文京町１丁目４０－１８ダイアパレス前橋文京町１０１,,10,201,3710801,,,,,,,2024-08-28,1,,,,,パティバラ,0
1621,7100003007744,新規,0,2024-08-28,2024-08-28,合同会社ＦｒｅｅＡｌｙｓｓｕｍ,,合同会社,長野県,小諸市,大字耳取字宮の北１９９０番８ハイツベルデ２０８,,20,208,3840084,,,,,,,2024-08-28,1,,,,,フリーアリッサム,0
1631,7120001267818,新規,0,2024-08-28,2024-08-28,ＭｏＤｅ株式会社,,株式会社,大阪府,大阪市淀川区,田川北１丁目１０－１３ガーデンレジデンス田川２０２,,27,123,5320021,,,,,,,2024-08-28,1,,,,,モード,0
1632,7120001268031,新規,0,2024-08-28,2024-08-28,株式会社ＤＲＭ,,株式会社,大阪府,大阪市住之江区,浜口東２丁目１２番５－９０３号,,27,125,5590002,,,,,,,2024-08-28,1,,,,,ディーアールエム,0
1633,7120001268080,新規,0,2024-08-28,2024-08-28,株式会社ｍｅｅｅｎ,,株式会社,大阪府,大阪市浪速区,難波中３丁目９－３南朝日ビル８０２号室,,27,111,5560011,,,,,,,2024-08-28,1,,,,,ミーン,0
1634,7120001268089,新規,0,2024-08-28,2024-08-28,Ｋ４Ｃ株式会社,,株式会社,大阪府,大阪市浪速区,難波中３丁目９－３－２０８,,27,111,5560011,,,,,,,2024-08-28,1,,,,,ケイフォーシー,0
1635,7120001268097,新規,0,2024-08-28,2024-08-28,ｚｅｓｔｆｕｌ株式会社,,株式会社,大阪府,大阪市北区,中崎西３丁目３番５号,,27,127,5300015,,,,,,,2024-08-28,1,,,,,ゼストフル,0
1636,7120001268106,新規,0,2024-08-28,2024-08-28,株式会社Ｉ’ｓ工房,,株式会社,大阪府,門真市,石原町３６番１３号,,27,223,5710067,,,,,,,2024-08-28,1,,,,,アイズコウボウ,0
1639,7120003027369,新規,0,2024-08-28,2024-08-28,Ｅｐｉｐｈａｎｙ　Ｃｒｅａｔｉｏｎ合同会社,,合同会社,大阪府,大阪市中央区,本町橋５－１４Ｏｚｉ本町橋５０３,,27,128,5400029,,,,,,,2024-08-28,1,,,,,エピファニークリエーション,0
1640,7120003027393,新規,0,2024-08-28,2024-08-28,天恩合同会社,,合同会社,大阪府,大阪市西成区,長橋３丁目６番１９号長橋ハイツ２０１号室,,27,122,5570025,,,,,,,2024-08-28,1,,,,,テンオン,0
1641,7120003027410,新規,0,2024-08-28,2024-08-28,合同会社ＣＯＣＯＲＯ,,合同会社,大阪府,大阪市生野区,桃谷４丁目２－１２,,27,116,5440034,,,,,,,2024-08-28,1,,,,,ココロ,0
1644,7120905006643,新規,0,2024-08-28,2024-08-28,一般社団法人Ｋｅ　Ａｌａ　Ｍａ’ｏｍａ’ｏ,,その他の設立登記法人,大阪府,茨木市,上泉町１０番１９号,,27,211,5670811,,,,,,,2024-08-28,1,,,,,ケアラマオマオ,0
1652,7130005017169,新規,0,2024-08-28,2024-08-28,ＫＹＯＴＯ泉チャーチ,,その他の設立登記法人,京都府,京都市山科区,西野楳本町１０番地４,,26,110,6078358,,,,,,,2024-08-28,1,,,,,キョウトイズミチャーチ,0
1655,7140001135634,新規,0,2024-08-28,2024-08-28,株式会社Ｒａｉｓｅ,,株式会社,兵庫県,神戸市長田区,日吉町６丁目６番１８号,,28,106,6530039,,,,,,,2024-08-28,1,,,,,レイズ,0
1656,7140001135642,新規,0,2024-08-28,2024-08-28,株式会社ＦＥＬＩＣＥ,,株式会社,兵庫県,神戸市須磨区,北落合５丁目６番２号,,28,107,6540151,,,,,,,2024-08-28,1,,,,,フェリーチェ,0
1659,7140005027191,新規,0,2024-08-28,2024-08-28,一般社団法人関西韓日協力フォーラム,,その他の設立登記法人,兵庫県,神戸市東灘区,向洋町中５丁目１５番地、１１１７号,,28,101,6580032,,,,,,,2024-08-28,1,,,,,カンサイカンニチキョウリョクフォーラム,0
1665,7160003003275,新規,0,2024-08-28,2024-08-28,合同会社ＳＦ　Ａｓｓｅｔ,,合同会社,滋賀県,近江八幡市,西本郷町東１番地８,,25,204,5230818,,,,,,,2024-08-28,1,,,,,エスエフアセット,0
1666,7170001018282,新規,0,2024-08-28,2024-08-28,株式会社エフシープランニングオフィス,,株式会社,和歌山県,和歌山市,美園町３丁目３４番地けやきＯＮＥビル３０５,,30,201,6408331,,,,,,,2024-08-28,1,,,,,エフシープランニングオフィス,0
1678,7180001162947,新規,0,2024-08-28,2024-08-28,株式会社Ｈファースト,,株式会社,愛知県,名古屋市東区,泉１丁目１２番２５号,,23,102,4610001,,,,,,,2024-08-28,1,,,,,エイチファースト,0
1679,7180001163053,新規,0,2024-08-28,2024-08-28,株式会社ダイレクトソリューションズ,,株式会社,愛知県,名古屋市中村区,名駅１丁目１―１ＪＰタワー名古屋２１階,,23,105,4500002,,,,,,,2024-08-28,1,,,,,ダイレクトソリューションズ,0
1682,7180003027280,新規,0,2024-08-28,2024-08-28,合同会社福岡,,合同会社,愛知県,長久手市,打越５０２番地,,23,238,4801152,,,,,,,2024-08-28,1,,,,,フクオカ,0
1686,7190001031589,新規,0,2024-08-28,2024-08-28,永文株式会社,,株式会社,三重県,四日市市,諏訪栄町２番１０号,,24,202,5100086,,,,,,,2024-08-28,1,,,,,エイブン,0
1687,7200001042865,新規,0,2024-08-28,2024-08-28,株式会社バイロンデザイン,,株式会社,岐阜県,羽島郡岐南町,三宅２丁目３３番地の７,,21,302,5016002,,,,,,,2024-08-28,1,,,,,バイロンデザイン,0
1696,7240001063742,新規,0,2024-08-28,2024-08-28,株式会社ｉｔｏ,,株式会社,広島県,広島市中区,平野町３番３３－９０３号,,34,101,7300047,,,,,,,2024-08-28,1,,,,,アイティーオー,0
1697,7240001063750,新規,0,2024-08-28,2024-08-28,チームばんそう株式会社,,株式会社,広島県,広島市西区,観音町１４番９号進和ビル２Ｆ,,34,104,7330031,,,,,,,2024-08-28,1,,,,,チームバンソウ,0
1698,7240005015814,新規,0,2024-08-28,2024-08-28,一般社団法人ＪＯＹＬＥＴ,,その他の設立登記法人,広島県,福山市,大門町７丁目２６番８号,,34,207,7210926,,,,,,,2024-08-28,1,,,,,ジョイレット,0
1706,7290001107049,新規,0,2024-08-28,2024-08-28,株式会社ダイシン,,株式会社,福岡県,福岡市東区,塩浜１丁目３６番１５号,,40,131,8110203,,,,,,,2024-08-28,1,,,,,ダイシン,0
1707,7290001107057,新規,0,2024-08-28,2024-08-28,株式会社トップライド九州,,株式会社,福岡県,福岡市中央区,天神３丁目３番５－１号ＦｕｌｌＦｕｌｌＢＬＤ．２Ｆ,,40,133,8100001,,,,,,,2024-08-28,1,,,,,トップライドキュウシュウ,0
1709,7290003015646,新規,0,2024-08-28,2024-08-28,合同会社ＰｒｏＢＵＤＤＹ,,合同会社,福岡県,福岡市西区,室見が丘３丁目１３番７号,,40,135,8190030,,,,,,,2024-08-28,1,,,,,プロバディ,0
1710,7290003015679,新規,0,2024-08-28,2024-08-28,合同会社ＡＤＡＰＴ,,合同会社,福岡県,糸島市,志摩吉田１０２３,,40,230,8191302,,,,,,,2024-08-28,1,,,,,アダプト,0
1711,7290003015729,新規,0,2024-08-28,2024-08-28,つなぐ合同会社,,合同会社,福岡県,春日市,白水ヶ丘３丁目１２３番地,,40,218,8160845,,,,,,,2024-08-28,1,,,,,ツナグ,0
1712,7290003015737,新規,0,2024-08-28,2024-08-28,合同会社ぷいえい,,合同会社,福岡県,福岡市早良区,弥生２丁目１－８Ｂ１０１,,40,137,8140014,,,,,,,2024-08-28,1,,,,,プイエイ,0
1718,7300001013889,新規,0,2024-08-28,2024-08-28,Ｕｌｕｎｏａ　ｂａｓｅ株式会社,,株式会社,佐賀県,嬉野市,嬉野町大字下宿乙３１６番地３,,41,209,8430301,,,,,,,2024-08-28,1,,,,,ウルノアベース,0
1720,7310003004844,新規,0,2024-08-28,2024-08-28,合同会社将誠,,合同会社,長崎県,長崎市,出島町１３－３エフフラット出島６０１,,42,201,8500862,,,,,,,2024-08-28,1,,,,,ショウセイ,0
1721,7310003004852,新規,0,2024-08-28,2024-08-28,ＴＹエナジー合同会社,,合同会社,長崎県,五島市,籠淵町６０６番地１,,42,211,8530041,,,,,,,2024-08-28,1,,,,,ティーワイエナジー,0
1722,7310005008793,新規,0,2024-08-28,2024-08-28,ＮＰＯ法人いしだたみ・認知症行方不明者家族等の支え合いの会,,その他の設立登記法人,長崎県,長崎市,葉山１丁目２５番１１号江東ハイツ２０１,,42,201,8528053,,,,,,,2024-08-28,1,,,,,イシダタミニンチショウユクエフメイシャカゾクトウノササエアイノカイ,0
1723,7320001020685,新規,0,2024-08-28,2024-08-28,株式会社ＨＡＣＨＩ,,株式会社,大分県,大分市,にじが丘１丁目７番地の７,,44,201,8700874,,,,,,,2024-08-28,1,,,,,ハチ,0
1725,7330001032408,新規,0,2024-08-28,2024-08-28,株式会社高戸工業,,株式会社,熊本県,宇土市,城之浦町１０１番地４インフィールド駅前通り１１号棟,,43,211,8690442,,,,,,,2024-08-28,1,,,,,タカドコウギョウ,0
1731,7360001034070,新規,0,2024-08-28,2024-08-28,ガイアホールディングス株式会社,,株式会社,沖縄県,島尻郡与那原町,字東浜９１番地２,,47,348,9011304,,,,,,,2024-08-28,1,,,,,ガイアホールディングス,0
1732,7360001034120,新規,0,2024-08-28,2024-08-28,株式会社ヒカリサテライト,,株式会社,沖縄県,那覇市,曙２丁目４番１３号ＯＫＫ　Ｂｌｄｇ．３－Ａ,,47,201,9000002,,,,,,,2024-08-28,1,,,,,ヒカリサテライト,0
1733,7360003014260,新規,0,2024-08-28,2024-08-28,ｍｉｍｉ合同会社,,合同会社,沖縄県,那覇市,辻１丁目１６番９号サングリーンビル１階,,47,201,9000037,,,,,,,2024-08-28,1,,,,,ミミ,0
1742,7400005008438,新規,0,2024-08-28,2024-08-28,医療法人ＭＤＯ,,その他の設立登記法人,岩手県,二戸市,石切所字前小路１－５,,03,213,0286103,,,,,,,2024-08-28,1,,,,,エムディーオー,0
1753,7470001020357,新規,0,2024-08-28,2024-08-28,株式会社ＧＯ　ＬＩＦＥ,,株式会社,香川県,高松市,桜町１丁目６番１８号,,37,201,7600074,,,,,,,2024-08-28,1,,,,,ゴーライフ,0
1757,7500001025848,新規,0,2024-08-28,2024-08-28,株式会社サンフレンドリー,,株式会社,愛媛県,松山市,和泉北４丁目７番５号,,38,201,7900038,,,,,,,2024-08-28,1,,,,,サンフレンドリー,0
1761,7700150126914,新規,0,2024-08-28,2024-08-28,Ｉｎｔｅｌｌｉｘ　Ｄｉｓｐｌａｙｓ　Ｌｉｍｉｔｅｄ,,外国会社等,,,,,,,,ＵＮＩＴ　Ｄ１８，３／Ｆ，ＷＯＮＧ　ＫＩＮＧ　ＩＮＤＵＳＴＲＩＡＬ　ＢＵＩＬＤＩＮＧ，ＮＯ．２－４　ＴＡＩ　ＹＡＵ　ＳＴＲＥＥＴ　ＫＬ　ＨＯＮＧＫＯＮＧ　９９９０７７　ＨＫ,,,,,,2024-08-28,1,,,,,インテリックスディスプレイズリミテッド,0
1762,7700150126930,新規,0,2024-08-28,2024-08-28,Ｗｅｎｚｈｏｕｆｅｉｎｉｄｉａｎｚｉｓｈａｎｇｗｕｙｏｕｘｉａｎｇｏｎｇｓｉ,,外国会社等,,,,,,,,Ｚｈｅｊｉａｎｇｓｈｅｎｇｗｅｎｚｈｏｕｓｈｉｏｕｈａｉｑｕｃｈａｓｈａｎｊｉｅｄａｏｗｅｎｚｈｏｕｄａｘｕｅｏｕｊｉａｎｇｘｕｅｙｕａｎｚｈｏｎｇｃｈｕａｎｇｋｏｎｇｊｉａｎ７－１０３３ｓｈｉ,,,,,,2024-08-28,1,,,,,オンシユウシフエニイーコマースカンパニリミテツド,0
1773,8010001247739,新規,0,2024-08-28,2024-08-28,株式会社ＡＦＭ,,株式会社,東京都,千代田区,神田須田町１丁目７番８号ＶＯＲＴ秋葉原ＩＶ２Ｆ,00136087,13,101,1010041,,,,,,,2024-08-28,1,,,,,エイエフエム,0
1774,8010001247788,新規,0,2024-08-28,2024-08-28,株式会社ｓｅｌｇ,,株式会社,東京都,文京区,本郷３丁目４番３号,,13,105,1130033,,,,,,,2024-08-28,1,,,,,セルグ,0
1775,8010001247796,新規,0,2024-08-28,2024-08-28,インシュアビリティサービス株式会社,,株式会社,東京都,中央区,京橋２丁目７番８号,,13,102,1040031,,,,,,,2024-08-28,1,,,,,インシュアビリティサービス,0
1776,8010001247805,新規,0,2024-08-28,2024-08-28,株式会社Ｐ＆Ｍ,,株式会社,東京都,中央区,銀座１丁目１２番４号Ｎ＆ＥＢＬＤ．６Ｆ,,13,102,1040061,,,,,,,2024-08-28,1,,,,,ピーアンドエム,0
1777,8010001247862,新規,0,2024-08-28,2024-08-28,株式会社ペンギンモード,,株式会社,東京都,中央区,銀座６丁目６番１号,,13,102,1040061,,,,,,,2024-08-28,1,,,,,ペンギンモード,0
1779,8010003044713,新規,0,2024-08-28,2024-08-28,合同会社Ｂｅ面,,合同会社,東京都,千代田区,神田須田町１丁目７番８号ＶＯＲＴ秋葉原ＩＶ２Ｆ,00136102,13,101,1010041,,,,,,,2024-08-28,1,,,,,ビーメン,0
1780,8010005038630,新規,0,2024-08-28,2024-08-28,行政書士法人大手町国際法務事務所,,その他の設立登記法人,東京都,千代田区,内神田１丁目１５番７号ＧＲＡＮＤＩＲ・ＯＴＥＭＡＣＨＩ２０４号室,,13,101,1010047,,,,,,,2024-08-28,1,,,,,オオテマチコクサイホウムジムショ,0
1785,8010401184755,新規,0,2024-08-28,2024-08-28,株式会社凡才,,株式会社,東京都,港区,南青山３丁目１番３６号青山丸竹ビル６Ｆ,,13,103,1070062,,,,,,,2024-08-28,1,,,,,ボンサイ,0
1787,8010601065813,新規,0,2024-08-28,2024-08-28,鋭創精機株式会社,,株式会社,東京都,墨田区,両国２丁目１７番１７号両国ダイヤハイツ２０２－Ｇ,,13,107,1300026,,,,,,,2024-08-28,1,,,,,ズイソウセイキ,0
1790,8010701046457,新規,0,2024-08-28,2024-08-28,株式会社ＦｉｖｅＣｒａｆｔ,,株式会社,東京都,品川区,東五反田１丁目８番１１号シルバープラザ五反田６０６,,13,109,1410022,,,,,,,2024-08-28,1,,,,,ファイブクラフト,0
1797,8011001164222,新規,0,2024-08-28,2024-08-28,Ｎｉｍｉｋｋｏ株式会社,,株式会社,東京都,渋谷区,東１丁目２９番３号渋谷ブリッジＢー５,,13,113,1500011,,,,,,,2024-08-28,1,,,,,ニミッコ,0
1798,8011001164288,新規,0,2024-08-28,2024-08-28,株式会社東京豚饅,,株式会社,東京都,渋谷区,恵比寿４丁目２３番１３号,,13,113,1500013,,,,,,,2024-08-28,1,,,,,トウキョウブタマン,0
1804,8011101108582,新規,0,2024-08-28,2024-08-28,ミライマネジメント株式会社,,株式会社,東京都,新宿区,余丁町８－３０－１０１,,13,104,1620055,,,,,,,2024-08-28,1,,,,,ミライマネジメント,0
1806,8011203004473,新規,0,2024-08-28,2024-08-28,高尾ふもと不動産合同会社,,合同会社,東京都,中野区,大和町１丁目４６番１２号,,13,114,1650034,,,,,,,2024-08-28,1,,,,,タカオフモトフドウサン,0
1807,8011303005272,新規,0,2024-08-28,2024-08-28,合同会社カロス,,合同会社,東京都,杉並区,方南２丁目４番１９号ＦＬＡＴＫ３０４,,13,115,1680062,,,,,,,2024-08-28,1,,,,,カロス,0
1812,8011701027579,新規,0,2024-08-28,2024-08-28,株式会社Ｌａｔｔｅ,,株式会社,東京都,江戸川区,西小岩４丁目１４番２２－１２０１号,,13,123,1330057,,,,,,,2024-08-28,1,,,,,ラテ,0
1814,8011801044763,新規,0,2024-08-28,2024-08-28,株式会社Ｅｌｅｎｉｓｈ,,株式会社,東京都,足立区,青井２丁目１４－１９,,13,121,1200012,,,,,,,2024-08-28,1,,,,,エレニッシュ,0
1836,8020001158753,新規,0,2024-08-28,2024-08-28,株式会社Ｋ’ｓシステム,,株式会社,神奈川県,横浜市戸塚区,原宿２丁目１３番３３－１０１号,,14,110,2450063,,,,,,,2024-08-28,1,,,,,ケーズシステム,0
1837,8020001158761,新規,0,2024-08-28,2024-08-28,株式会社そらや,,株式会社,神奈川県,横浜市西区,浅間町１丁目４－３ウィザードビル４０２,,14,103,2200072,,,,,,,2024-08-28,1,,,,,ソラヤ,0
1838,8020001158893,新規,0,2024-08-28,2024-08-28,株式会社林事務所,,株式会社,神奈川県,横浜市西区,浅間町４丁目３４９番地３まつばらんど別館２階,,14,103,2200072,,,,,,,2024-08-28,1,,,,,ハヤシジムショ,0
1839,8020001158927,新規,0,2024-08-28,2024-08-28,はそだ不動産株式会社,,株式会社,神奈川県,川崎市多摩区,宿河原５丁目２３番２９－１号,,14,135,2140021,,,,,,,2024-08-28,1,,,,,ハソダフドウサン,0
1840,8020003026792,新規,0,2024-08-28,2024-08-28,モールハングアウト・グローバルマーケティング合同会社,,合同会社,神奈川県,横浜市西区,北幸１丁目１番８号エキニア横浜５階ＨａｍａＰｏｒｔ内,,14,103,2200004,,,,,,,2024-08-28,1,,,,,モールハングアウトグローバルマーケティング,0
1841,8021001083108,新規,0,2024-08-28,2024-08-28,株式会社ＦＯＲＴ,,株式会社,神奈川県,大和市,大和南１丁目５番１７号中村ビル３階,,14,213,2420016,,,,,,,2024-08-28,1,,,,,フォート,0
1843,8021003014952,新規,0,2024-08-28,2024-08-28,合同会社ＣＩＰ,,合同会社,神奈川県,藤沢市,湘南台７丁目５３－６マルセードル湘南１０１,,14,205,2520804,,,,,,,2024-08-28,1,,,,,シーアイピー,0
1851,8030003025001,新規,0,2024-08-28,2024-08-28,合同会社トキテハウス,,合同会社,埼玉県,戸田市,大字新曽２０３７－１,,11,224,3350021,,,,,,,2024-08-28,1,,,,,トキテハウス,0
1856,8040001135131,新規,0,2024-08-28,2024-08-28,株式会社イメージストリーム,,株式会社,千葉県,流山市,おおたかの森西４丁目１２番地の２Ｆｏｒｅｓｔａ・Ａｓｔｏｒｅ－２０２,,12,220,2700128,,,,,,,2024-08-28,1,,,,,イメージストリーム,0
1857,8040001135148,新規,0,2024-08-28,2024-08-28,株式会社タカ建設,,株式会社,千葉県,市原市,南国分寺台５丁目１１番地９,,12,219,2900075,,,,,,,2024-08-28,1,,,,,タカケンセツ,0
1866,8060001037433,新規,0,2024-08-28,2024-08-28,フォーリーフ株式会社,,株式会社,栃木県,足利市,田中町７－８,,09,202,3260822,,,,,,,2024-08-28,1,,,,,フォーリーフ,0
1867,8060001037441,新規,0,2024-08-28,2024-08-28,株式会社ＯＭＳ,,株式会社,栃木県,大田原市,本町１丁目２７０５番地６７,,09,210,3240041,,,,,,,2024-08-28,1,,,,,オーエムエス,0
1871,8060003005223,新規,0,2024-08-28,2024-08-28,合同会社バンブー,,合同会社,栃木県,宇都宮市,元今泉３丁目４番４号,,09,201,3210954,,,,,,,2024-08-28,1,,,,,バンブー,0
1890,8120001268030,新規,0,2024-08-28,2024-08-28,バイロン開発株式会社,,株式会社,大阪府,大阪市北区,中之島２丁目３番１８号中之島フェスティバルタワー１６階,,27,127,5300005,,,,,,,2024-08-28,1,,,,,バイロンカイハツ,0
1891,8120001268047,新規,0,2024-08-28,2024-08-28,株式会社Ａｍｙｏｒｕ,,株式会社,大阪府,大阪市中央区,南船場３丁目２番２２号おおきに南船場ビル２０５,,27,128,5420081,,,,,,,2024-08-28,1,,,,,アミョル,0
1892,8120001268055,新規,0,2024-08-28,2024-08-28,小医同学株式会社,,株式会社,大阪府,大阪市中央区,松屋町９番２０号ローレルステート松屋町１２０６Ｂ,,27,128,5420067,,,,,,,2024-08-28,1,,,,,コイドウガク,0
1893,8120001268071,新規,0,2024-08-28,2024-08-28,株式会社柴田青果,,株式会社,大阪府,大阪市平野区,瓜破５丁目４番２６号,,27,126,5470024,,,,,,,2024-08-28,1,,,,,シバタセイカ,0
1894,8120001268096,新規,0,2024-08-28,2024-08-28,株式会社アシスト,,株式会社,大阪府,大阪市阿倍野区,松崎町４丁目２番４号,,27,119,5450053,,,,,,,2024-08-28,1,,,,,アシスト,0
1895,8120001268113,新規,0,2024-08-28,2024-08-28,株式会社中本都市設計,,株式会社,大阪府,大阪市中央区,本町１丁目６番１８号,,27,128,5410053,,,,,,,2024-08-28,1,,,,,ナカモトトシセッケイ,0
1896,8120003027368,新規,0,2024-08-28,2024-08-28,レオテクノロジーズ合同会社,,合同会社,大阪府,大阪市北区,梅田２丁目２番２号ヒルトンプラザウエストオフィスタワー１９階,,27,127,5300001,,,,,,,2024-08-28,1,,,,,レオテクノロジーズ,0
1898,8120101070212,新規,0,2024-08-28,2024-08-28,株式会社アバンセ,,株式会社,大阪府,泉大津市,春日町９番１－１０２号,,27,206,5950061,,,,,,,2024-08-28,1,,,,,アバンセ,0
1902,8120901049678,新規,0,2024-08-28,2024-08-28,株式会社グレートジャーニー,,株式会社,大阪府,高槻市,奥天神町２丁目１１番１４号,,27,207,5691118,,,,,,,2024-08-28,1,,,,,グレートジャーニー,0
1903,8120901049686,新規,0,2024-08-28,2024-08-28,欣満株式会社,,株式会社,大阪府,摂津市,鳥飼銘木町９－７,,27,224,5660063,,,,,,,2024-08-28,1,,,,,キンマン,0
1911,8130001077802,新規,0,2024-08-28,2024-08-28,株式会社ＹＯＮＥ,,株式会社,京都府,亀岡市,篠町柏原町頭２４番地１,,26,206,6210821,,,,,,,2024-08-28,1,,,,,ヨネ,0
1912,8130001077827,新規,0,2024-08-28,2024-08-28,ぬりかべ不動産株式会社,,株式会社,京都府,京都市山科区,西野今屋敷町１９番地２,,26,110,6078341,,,,,,,2024-08-28,1,,,,,ヌリカベフドウサン,0
1917,8140001135633,新規,0,2024-08-28,2024-08-28,ｈａｊｉｍｅ株式会社,,株式会社,兵庫県,神戸市中央区,中山手通３丁目１０番１７－１０２号,,28,110,6500004,,,,,,,2024-08-28,1,,,,,ハジメ,0
1918,8140003021014,新規,0,2024-08-28,2024-08-28,合同会社Ｌｉｂｅｒｔａ,,合同会社,兵庫県,尼崎市,上ノ島町１丁目２番１２－４０３号,,28,202,6610014,,,,,,,2024-08-28,1,,,,,リベルタ,0
1919,8150001027524,新規,0,2024-08-28,2024-08-28,アルファガード株式会社,,株式会社,奈良県,奈良市,大宮町５丁目３番１４号不動ビル３１０,,29,201,6308115,,,,,,,2024-08-28,1,,,,,アルファガード,0
1920,8160001026186,新規,0,2024-08-28,2024-08-28,株式会社小林建設工業,,株式会社,滋賀県,草津市,草津町２００９番地,,25,206,5250036,,,,,,,2024-08-28,1,,,,,コバヤシケンセツコウギョウ,0
1942,8210003001834,新規,0,2024-08-28,2024-08-28,ケーティーメンテナンス合同会社,,合同会社,福井県,勝山市,荒土町別所第５号１４番地,,18,206,9110048,,,,,,,2024-08-28,1,,,,,ケーティーメンテナンス,0
1945,8230001020504,新規,0,2024-08-28,2024-08-28,株式会社井田自動車,,株式会社,富山県,富山市,八尾町井田４８６６番地１,,16,201,9392306,,,,,,,2024-08-28,1,,,,,イダジドウシャ,0
1946,8230003002277,新規,0,2024-08-28,2024-08-28,合同会社オーワ,,合同会社,富山県,富山市,千成町３３番１５号,,16,201,9300815,,,,,,,2024-08-28,1,,,,,オーワ,0
1952,8290001107023,新規,0,2024-08-28,2024-08-28,株式会社Ｙｏｓｈｉｍｉ,,株式会社,福岡県,福岡市南区,若久６丁目２番２号,,40,134,8150042,,,,,,,2024-08-28,1,,,,,ヨシミ,0
1953,8290001107056,新規,0,2024-08-28,2024-08-28,株式会社黒田水産,,株式会社,福岡県,柳川市,吉富町１０９番地,,40,207,8320055,,,,,,,2024-08-28,1,,,,,クロダスイサン,0
1957,8290003015728,新規,0,2024-08-28,2024-08-28,合同会社モクシー,,合同会社,福岡県,福岡市博多区,竹下５丁目２３番２０－４０１号アマール竹下,,40,132,8120895,,,,,,,2024-08-28,1,,,,,,0
1958,8290003015736,新規,0,2024-08-28,2024-08-28,アイディール合同会社,,合同会社,福岡県,福岡市中央区,天神４丁目６－２８天神ファーストビル７階,,40,133,8100001,,,,,,,2024-08-28,1,,,,,アイディール,0
1959,8290003015744,新規,0,2024-08-28,2024-08-28,令和通商合同会社,,合同会社,福岡県,久留米市,白山町４０５番地１１号,,40,203,8300041,,,,,,,2024-08-28,1,,,,,レイワツウショウ,0
1960,8290003015752,新規,0,2024-08-28,2024-08-28,合同会社ＴＨＡＰＡ　ＨＡＬＡＬ　ＦＯＯＤ,,合同会社,福岡県,福岡市南区,若久６丁目２０番２９号１階,,40,134,8150042,,,,,,,2024-08-28,1,,,,,タパハラールフード,0
1961,8290003015760,新規,0,2024-08-28,2024-08-28,合同会社ユニオン保険,,合同会社,福岡県,飯塚市,下三緒３８番地８,,40,205,8200012,,,,,,,2024-08-28,1,,,,,ユニオンホケン,0
1968,8310005008792,新規,0,2024-08-28,2024-08-28,一般社団法人在宅支援長崎,,その他の設立登記法人,長崎県,西彼杵郡時津町,浦郷４２８番地１３,,42,308,8512105,,,,,,,2024-08-28,1,,,,,ザイタクシエンナガサキ,0
1970,8320001020684,新規,0,2024-08-28,2024-08-28,株式会社日日計画,,株式会社,大分県,佐伯市,弥生大字上小倉２４８番地,,44,205,8760112,,,,,,,2024-08-28,1,,,,,ニチニチケイカク,0
1971,8330001032407,新規,0,2024-08-28,2024-08-28,ＨＥＲＯ’Ｓベーカリー株式会社,,株式会社,熊本県,熊本市東区,山ノ内３丁目９番１号,,43,102,8620914,,,,,,,2024-08-28,1,,,,,ヒーローズベーカリー,0
1978,8340001026762,新規,0,2024-08-28,2024-08-28,株式会社朝の海,,株式会社,鹿児島県,奄美市,名瀬金久町４番１５号,,46,222,8940031,,,,,,,2024-08-28,1,,,,,アサノウミ,0
1988,8430003016728,新規,0,2024-08-28,2024-08-28,合同会社Ｒｅｇｉｏｎｓ,,合同会社,北海道,札幌市中央区,南六条東３丁目１番３号ＤＰレジデンス６３‐４０３号,,01,101,0600056,,,,,,,2024-08-28,1,,,,,リージョンズ,0
1995,8700150126698,新規,0,2024-08-28,2024-08-09,旧青森国際ホテル跡地地区市街地再開発準備組合,,その他,青森県,青森市,大字安田字近野１４６－７,,02,201,0380021,,,,,,,2024-08-09,1,,,,,キユウアオモリコクサイホテルアトチチクシガイチサイカイハツジユンビクミアイ,0
1996,8700150126913,新規,0,2024-08-28,2024-08-28,Ｌｉｎｋ　Ｃａｒｏｌ　ＧｍｂＨ,,外国会社等,,,,,,,,Ｇｅｎｆｅｒ　Ｓｔｒａｅ　９　６０４３７　Ｆｒａｎｋｆｕｒｔ　ａｍ　Ｍａｉｎ,,,,,,2024-08-28,1,,,,,リンクキャロルゲーエムベーハー,0
2001,9010001247861,新規,0,2024-08-28,2024-08-28,株式会社ＫＴコンサルティング,,株式会社,東京都,中央区,銀座６丁目６番１号,,13,102,1040061,,,,,,,2024-08-28,1,,,,,ケイティーコンサルティング,0
2002,9010001247878,新規,0,2024-08-28,2024-08-28,ＨＯＲＩＺＯＮ株式会社,,株式会社,東京都,文京区,白山１丁目６－４同栄マンション２階文京ＶＥＮＴＵＲＥＢＡＳＥ２２２号室,,13,105,1130001,,,,,,,2024-08-28,1,,,,,ホリゾン,0
2007,9010003044670,新規,0,2024-08-28,2024-08-28,日本旗艦キャピタル合同会社,,合同会社,東京都,中央区,日本橋兜町８－１－４０３号,,13,102,1030026,,,,,,,2024-08-28,1,,,,,ニホンキカンキャピタル,0
2008,9010003044720,新規,0,2024-08-28,2024-08-28,セブンスターズジャパン合同会社,,合同会社,東京都,千代田区,神田和泉町１番地６－１６ヤマトビル４０５,,13,101,1010024,,,,,,,2024-08-28,1,,,,,セブンスターズジャパン,0
2009,9010003044745,新規,0,2024-08-28,2024-08-28,ＭＩＡ　ＴＵＮＧ　Ｔｒａｎｓｐｏｒｔａｔｉｏｎ合同会社,,合同会社,東京都,千代田区,麹町１丁目５番１０号川島ビル３階,,13,101,1020083,,,,,,,2024-08-28,1,,,,,ミアトゥントランスポーテーション,0
2012,9010005038712,新規,0,2024-08-28,2024-08-28,一般社団法人ＸＲＰＬ　Ｊａｐａｎ,,その他の設立登記法人,東京都,中央区,銀座１丁目２２番１１号銀座大竹ビジデンス２Ｆ,,13,102,1040061,,,,,,,2024-08-28,1,,,,,エックスアールピーエルジャパン,0
2028,9010601065812,新規,0,2024-08-28,2024-08-28,パナリゾート株式会社,,株式会社,東京都,江東区,深川１丁目９番１１号ベルシード門前仲町４０１,,13,108,1350033,,,,,,,2024-08-28,1,,,,,パナリゾート,0
2029,9010603011046,新規,0,2024-08-28,2024-08-28,合同会社Ｓｅｃｒｅｔ　Ｃｏｄｅ,,合同会社,東京都,江東区,南砂４丁目３番１１号,,13,108,1360076,,,,,,,2024-08-28,1,,,,,シークレットコード,0
2032,9010701046456,新規,0,2024-08-28,2024-08-28,株式会社ＤＮＡホールディングス,,株式会社,東京都,品川区,西五反田１丁目２７番２号,,13,109,1410031,,,,,,,2024-08-28,1,,,,,ディーエヌエーホールディングス,0
2033,9010701046464,新規,0,2024-08-28,2024-08-28,株式会社ねこ,,株式会社,東京都,品川区,北品川２丁目５番２－６０１号,,13,109,1400001,,,,,,,2024-08-28,1,,,,,,0
2046,9011001164262,新規,0,2024-08-28,2024-08-28,Ｇｌａｓｓｈｏｕｓｅ　Ｂａｌｌｏｏｎ　Ｊａｐａｎ株式会社,,株式会社,東京都,渋谷区,代々木２丁目２３番１号,,13,113,1510053,,,,,,,2024-08-28,1,,,,,グラスハウスバルーンジャパン,0
2047,9011001164329,新規,0,2024-08-28,2024-08-28,株式会社チャティコ,,株式会社,東京都,渋谷区,代々木１丁目５８－２アクシア代々木９０２,,13,113,1510053,,,,,,,2024-08-28,1,,,,,チャティコ,0
2048,9011003019786,新規,0,2024-08-28,2024-08-28,合同会社ＢＬＡＳＴ,,合同会社,東京都,渋谷区,円山町５番５号Ｎａｖｉ渋谷Ｖ３階,,13,113,1500044,,,,,,,2024-08-28,1,,,,,ブラスト,0
2050,9011403004487,新規,0,2024-08-28,2024-08-28,合同会社ｐｉｎｏｋｉｏ,,合同会社,東京都,板橋区,弥生町５７番７号,,13,119,1730021,,,,,,,2024-08-28,1,,,,,ピノキオ,0
2054,9012405005036,新規,0,2024-08-28,2024-08-28,医療法人社団升利会,,その他の設立登記法人,東京都,武蔵野市,吉祥寺本町２丁目２番２号ルルビル３階,,13,203,1800004,,,,,,,2024-08-28,1,,,,,ショウリカイ,0
2057,9013303007280,新規,0,2024-08-28,2024-08-28,Ｙｍａｎａｇｅｎｃｙ合同会社,,合同会社,東京都,豊島区,巣鴨４丁目１１番８号サンライズコーポ３０５,,13,116,1700002,,,,,,,2024-08-28,1,,,,,ワイマネジェンシー,0
2065,9020001158744,新規,0,2024-08-28,2024-08-28,ＫＲＳ　Ｐｌａｎｎｉｎｇ株式会社,,株式会社,神奈川県,横浜市港北区,高田西２丁目１６番８－１号,,14,109,2230066,,,,,,,2024-08-28,1,,,,,ケイアールエスプランニング,0
2066,9020001158760,新規,0,2024-08-28,2024-08-28,シャインフーズ株式会社,,株式会社,神奈川県,川崎市宮前区,菅生１丁目６－２,,14,136,2160015,,,,,,,2024-08-28,1,,,,,シャインフーズ,0
2067,9020001158876,新規,0,2024-08-28,2024-08-28,ＫＰＳ株式会社,,株式会社,神奈川県,横浜市泉区,和泉が丘１丁目２０番１９号,,14,116,2450022,,,,,,,2024-08-28,1,,,,,ケーピーエス,0
2068,9020001158884,新規,0,2024-08-28,2024-08-28,ＭＫＭコーポレーション株式会社,,株式会社,神奈川県,横浜市都筑区,茅ケ崎南３丁目１番３１号,,14,118,2240037,,,,,,,2024-08-28,1,,,,,エムケイエムコーポレーション,0
2069,9020001158926,新規,0,2024-08-28,2024-08-28,株式会社ｈｏｐｅ,,株式会社,神奈川県,川崎市多摩区,西生田２丁目１３－１２ソフィアＩＶ１Ｆ,00136100,14,135,2140037,,,,,,,2024-08-28,1,,,,,ホープ,0
2073,9020003026593,新規,0,2024-08-28,2024-08-28,スコーピオ合同会社,,合同会社,神奈川県,横浜市鶴見区,東寺尾北台１６－２１,,14,101,2300016,,,,,,,2024-08-28,1,,,,,スコーピオ,0
2074,9020003026742,新規,0,2024-08-28,2024-08-28,合同会社Ｏａｓｉｓ,,合同会社,神奈川県,横浜市西区,西戸部町２丁目１９０番地,,14,103,2200046,,,,,,,2024-08-28,1,,,,,オアシス,0
2076,9021001083107,新規,0,2024-08-28,2024-08-28,株式会社レアプラス,,株式会社,神奈川県,厚木市,下依知２丁目２６番８号,,14,212,2430806,,,,,,,2024-08-28,1,,,,,レアプラス,0
2083,9030001162126,新規,0,2024-08-28,2024-08-28,Ｗｏｒｋｉｎｇ　Ｊａｐａｎ株式会社,,株式会社,埼玉県,比企郡ときがわ町,大字玉川２４７６番地１,,11,349,3550342,,,,,,,2024-08-28,1,,,,,ワーキングジャパン,0
2084,9030001162150,新規,0,2024-08-28,2024-08-28,株式会社縦横貿易,,株式会社,埼玉県,蕨市,北町１丁目２３番１１号北町第５ホワイトハウス２０３,,11,223,3350001,,,,,,,2024-08-28,1,,,,,,0
2085,9030001162167,新規,0,2024-08-28,2024-08-28,ＧＦＡＭ２１株式会社,,株式会社,埼玉県,さいたま市大宮区,三橋４丁目７８９番１,,11,103,3300856,,,,,,,2024-08-28,1,,,,,ジーファムニジュウイチ,0
2086,9030001162183,新規,0,2024-08-28,2024-08-28,株式会社Ｓｔｙｌｅ　Ｍｏｄｅｒｎ,,株式会社,埼玉県,富士見市,鶴瀬東２丁目１－２３,,11,235,3540024,,,,,,,2024-08-28,1,,,,,スタイルモダン,0
2087,9030001162200,新規,0,2024-08-28,2024-08-28,ＫＹＯＤＡＩ株式会社,,株式会社,埼玉県,川口市,西川口１丁目１９番８号,,11,203,3320021,,,,,,,2024-08-28,1,,,,,キョウダイ,0
2092,9030003024992,新規,0,2024-08-28,2024-08-28,合同会社オフィス・凛香,,合同会社,埼玉県,秩父郡小鹿野町,両神薄３３８１番地,,11,365,3680201,,,,,,,2024-08-28,1,,,,,オフィスリンカ,0
2093,9030003025000,新規,0,2024-08-28,2024-08-28,合同会社ライノ,,合同会社,埼玉県,さいたま市大宮区,北袋町１丁目６０１番地１Ｂ５２５,,11,103,3300835,,,,,,,2024-08-28,1,,,,,ライノ,0
2094,9030003025009,新規,0,2024-08-28,2024-08-28,シンタロウテクノロジー合同会社,,合同会社,埼玉県,鶴ヶ島市,大字下新田５６番地７,,11,241,3502222,,,,,,,2024-08-28,1,,,,,シンタロウテクノロジー,0
2095,9030003025025,新規,0,2024-08-28,2024-08-28,合同会社Ｇｒａｃｅ　Ｒｉｓｅ,,合同会社,埼玉県,春日部市,粕壁東１丁目２番２－９０２号,,11,214,3440062,,,,,,,2024-08-28,1,,,,,グレイスライズ,0
2096,9030005021831,新規,0,2024-08-28,2024-08-28,縁協同組合,,その他の設立登記法人,埼玉県,戸田市,美女木２丁目１２番地の１５,,11,224,3350031,,,,,,,2024-08-28,1,,,,,エニシ,0
2102,9040001135097,新規,0,2024-08-28,2024-08-28,大永コーポレーション株式会社,,株式会社,千葉県,千葉市中央区,蘇我３丁目１番１０号,,12,101,2600822,,,,,,,2024-08-28,1,,,,,ダイエイコーポレーション,0
2103,9040001135147,新規,0,2024-08-28,2024-08-28,萬駿株式会社,,株式会社,千葉県,市川市,南行徳１丁目４番２２－１０２号グレイスビル,,12,203,2720138,,,,,,,2024-08-28,1,,,,,ワンジュン,0
2109,9060003005214,新規,0,2024-08-28,2024-08-28,合同会社こう房,,合同会社,栃木県,鹿沼市,銀座２丁目１８６９,,09,205,3220052,,,,,,,2024-08-28,1,,,,,コウボウ,0
2114,9070005010310,新規,0,2024-08-28,2024-08-28,一般社団法人シオンハート,,その他の設立登記法人,群馬県,渋川市,白井５８１番地１,,10,208,3770204,,,,,,,2024-08-28,1,,,,,シオンハート,0
2133,9120001268054,新規,0,2024-08-28,2024-08-28,盈富株式会社,,株式会社,大阪府,大阪市城東区,関目５丁目１９番９号関目花博公館６０３Ａ,,27,118,5360008,,,,,,,2024-08-28,1,,,,,エイフ,0
2134,9120001268062,新規,0,2024-08-28,2024-08-28,株式会社Ａｓｔｒａｅａ,,株式会社,大阪府,枚方市,片鉾本町２９番５号,,27,210,5731157,,,,,,,2024-08-28,1,,,,,アストライア,0
2135,9120001268087,新規,0,2024-08-28,2024-08-28,株式会社ＣＯＤＹ,,株式会社,大阪府,大阪市北区,曾根崎２丁目８－５お初天神ＥＡＳＴＢＬＤＧ３Ｆ,,27,127,5300057,,,,,,,2024-08-28,1,,,,,コーディー,0
2136,9120001268104,新規,0,2024-08-28,2024-08-28,城東リアルエステート株式会社,,株式会社,大阪府,大阪市城東区,鴫野東１丁目１番１３－５０１号,,27,118,5360013,,,,,,,2024-08-28,1,,,,,ジョウトウリアルエステート,0
2137,9120001268112,新規,0,2024-08-28,2024-08-28,株式会社ＯＫＧ,,株式会社,大阪府,大阪市西区,阿波座１丁目６番１３号カーニープレイス本町,,27,106,5500011,,,,,,,2024-08-28,1,,,,,オーケージー,0
2140,9120005024511,新規,0,2024-08-28,2024-08-28,一般社団法人地域活性化フォーラム,,その他の設立登記法人,大阪府,大阪市北区,梅田１丁目２番２号大阪駅前第２ビル１２－１２,,27,127,5300001,,,,,,,2024-08-28,1,,,,,チイキカッセイカフォーラム,0
2142,9120103006031,新規,0,2024-08-28,2024-08-28,合同会社Ｔｅｉｏ　ｃｏｎｓｔｒｕｃｔｉｏｎ,,合同会社,大阪府,藤井寺市,青山２丁目２番４号,,27,226,5830015,,,,,,,2024-08-28,1,,,,,テイオーコンストラクション,0
2143,9120901049685,新規,0,2024-08-28,2024-08-28,株式会社Ｇｒｏｗ　ｕｐ,,株式会社,大阪府,豊中市,東豊中町５丁目３２－８－１０２,,27,203,5600003,,,,,,,2024-08-28,1,,,,,グロウアップ,0
2145,9120903005315,新規,0,2024-08-28,2024-08-28,合同会社佐々木不動産,,合同会社,大阪府,箕面市,箕面６丁目５番７６号,,27,220,5620001,,,,,,,2024-08-28,1,,,,,ササキフドウサン,0
2147,9122001038395,新規,0,2024-08-28,2024-08-28,株式会社Ｐｒｏｓｐｅｃｔ,,株式会社,大阪府,東大阪市,長田西２丁目７番１７－４０６号,,27,227,5770016,,,,,,,2024-08-28,1,,,,,プロスペクト,0
2150,9130001077826,新規,0,2024-08-28,2024-08-28,株式会社士業パートナーズ,,株式会社,京都府,京都市北区,上賀茂桜井町８８番地３第二メゾンナカジマ２０２,,26,101,6038054,,,,,,,2024-08-28,1,,,,,シギョウパートナーズ,0
2157,9160001026185,新規,0,2024-08-28,2024-08-28,株式会社ブルーオーシャン,,株式会社,滋賀県,大津市,大物６８３－３ロイヤルリゾート琵琶湖９０４,,25,201,5200512,,,,,,,2024-08-28,1,,,,,ブルーオーシャン,0
2158,9160005011332,新規,0,2024-08-28,2024-08-28,一般社団法人木づかいプロジェクト,,その他の設立登記法人,滋賀県,東近江市,今在家町５７０番地,,25,213,5270107,,,,,,,2024-08-28,1,,,,,キヅカイプロジェクト,0
2168,9180001163019,新規,0,2024-08-28,2024-08-28,ＹＡＧＵＲＡ株式会社,,株式会社,愛知県,名古屋市中村区,名駅４丁目２４番５号第２森ビル４０１,,23,105,4500002,,,,,,,2024-08-28,1,,,,,ヤグラ,0
2179,9230001020503,新規,0,2024-08-28,2024-08-28,株式会社ふるかわ商会,,株式会社,富山県,高岡市,西藤平蔵３４０番地１,,16,202,9330824,,,,,,,2024-08-28,1,,,,,フルカワショウカイ,0
2184,9240001063749,新規,0,2024-08-28,2024-08-28,株式会社ＭＭＴ,,株式会社,広島県,広島市中区,住吉町１０番２号正岡ビル１０３号,,34,101,7300813,,,,,,,2024-08-28,1,,,,,エムエムティ,0
2190,9290003015735,新規,0,2024-08-28,2024-08-28,ＧＯＬＥＩＲＯ合同会社,,合同会社,福岡県,福岡市博多区,博多駅前１丁目２３番２号ＰａｒｋＦｒｏｎｔ博多駅前１丁目５Ｆ－Ｂ,,40,132,8120011,,,,,,,2024-08-28,1,,,,,ゴレイロ,0
2193,9290801030836,新規,0,2024-08-28,2024-08-28,株式会社三陽地所,,株式会社,福岡県,北九州市小倉北区,霧ケ丘３丁目１番１０－９０６号,,40,106,8020052,,,,,,,2024-08-28,1,,,,,サンヨウジショ,0
2196,9310003004850,新規,0,2024-08-28,2024-08-28,合同会社ひとつばたご,,合同会社,長崎県,対馬市,上対馬町比田勝３番地１,,42,209,8171701,,,,,,,2024-08-28,1,,,,,ヒトツバタゴ,0
2202,9330001032406,新規,0,2024-08-28,2024-08-28,株式会社未来機工,,株式会社,熊本県,八代市,鏡町貝洲８５７番地１,,43,202,8694223,,,,,,,2024-08-28,1,,,,,ミライキコウ,0
2203,9330001032414,新規,0,2024-08-28,2024-08-28,株式会社桑野商店,00136098,株式会社,熊本県,天草市,楠浦町２８８４番地の１,,43,215,8630044,,,,,,,2024-08-28,1,,,,,クワノショウテン,0
2204,9350005006255,新規,0,2024-08-28,2024-08-28,一般社団法人日向市空き家アドバイザー協議会,,その他の設立登記法人,宮崎県,日向市,大字幸脇１７７５番地,,45,206,8891112,,,,,,,2024-08-28,1,,,,,ヒュウガシアキヤアドバイザーキョウギカイ,0
2206,9360003014259,新規,0,2024-08-28,2024-08-28,合同会社Ｌｉｔｔｏ,,合同会社,沖縄県,うるま市,字大田１５１番地４,,47,213,9042224,,,,,,,2024-08-28,1,,,,,リット,0
2207,9370003006734,新規,0,2024-08-28,2024-08-28,竜宮合同会社,,合同会社,宮城県,仙台市青葉区,二日町７番３２号勾当台ハイツ９１０,,04,101,9800802,,,,,,,2024-08-28,1,,,,,リュウグウ,0
2212,9380001034752,新規,0,2024-08-28,2024-08-28,株式会社令和ソリューション,,株式会社,福島県,郡山市,大槻町字菅田３５番地の２,,07,203,9630201,,,,,,,2024-08-28,1,,,,,レイワソリューション,0
2218,9400001016772,新規,0,2024-08-28,2024-08-28,株式会社プロスター,,株式会社,岩手県,盛岡市,東見前８地割２７番地８,,03,201,0200832,,,,,,,2024-08-28,1,,,,,プロスター,0
2233,9450001014391,新規,0,2024-08-28,2024-08-28,株式会社カ・ピリ’ナ,,株式会社,北海道,旭川市,神楽四条６丁目１番１５号,,01,204,0708004,,,,,,,2024-08-28,1,,,,,カピリナ,0
2235,9500001025846,新規,0,2024-08-28,2024-08-28,株式会社ＹＯＵ,,株式会社,愛媛県,新居浜市,久保田三丁目２番２０号,,38,205,7920000,,,,,,,2024-08-28,1,,,,,ユウ,0
2237,9700150126912,新規,0,2024-08-28,2024-08-28,Ｚｈｅｎｇｚｈｏｕｈｅｉｆａｎｍａｏｙｉ　Ｃｏ．，Ｌｔｄ．,,外国会社等,,,,,,,,Ｒｏｏｍ　２３０４，２３ｒｄ　Ｆｌｏｏｒ，Ｕｎｉｔ　１，Ｂｕｉｌｄｉｎｇ　２２，Ｙｏｎｇｆｅｎｇ　Ｌｅｃｈｅｎｇ　Ｙａｎｇｇｕａｎｇｌｉ　ｃｏｍｍｕｎｉｔｙ，Ｌｏｎｇｈｕ　Ｔｏｗｎ　Ｘｉｎｚｈｅｎｇ　ｃｉｔｙ,,,,,,2024-08-28,1,,,,,ジョンジョウヘイファンマオイーヨウシエンゴンスー,0
2238,9700150126929,新規,0,2024-08-28,2024-08-28,ＷａｓｈｉｎｇｔｏｎＭｉｌｌｓＥｌｅｃｔｒｏＭｉｎｅｒａｌｓＬｉｍｉｔｅｄ,,外国会社等,神奈川県,横浜市西区,みなとみらい４丁目４番２号横浜ブルーアベニュー１２階,,14,103,2200012,英国マンチェスター、トラフォード・パーク、モスリー・ロード６４,,,,,,2024-08-28,1,,,,,ワシントンミルズエレクトロミネラルズリミテツド,0
