sequenceNumber,corporateNumber,process,correct,updateDate,changeDate,name,nameImageId,kind,prefectureName,cityName,streetNumber,addressImageId,prefectureCode,cityCode,postCode,addressOutside,addressOutsideImageId,closeDate,closeCause,successorCorporateNumber,changeCause,assignmentDate,latest,enName,enPrefectureName,enCityName,enAddressOutside,furigana,hihyoji
7,1010001251747,新規,0,2025-01-29,2025-01-29,株式会社そらふね,,株式会社,東京都,中央区,銀座１丁目１２番４号Ｎ＆ＥＢＬＤ．６Ｆ,,13,102,1040061,,,,,,,2025-01-29,1,,,,,ソラフネ,0
8,1010001251755,新規,0,2025-01-29,2025-01-29,ＡＩパートナーズ株式会社,,株式会社,東京都,千代田区,二番町１番２号,,13,101,1020084,,,,,,,2025-01-29,1,,,,,エーアイパートナーズ,0
9,1010001251796,新規,0,2025-01-29,2025-01-29,株式会社ＩｎｎｏＶｅｓｔ,,株式会社,東京都,中央区,銀座１丁目１２－４Ｎ＆ＥＢＬＤ．７階,,13,102,1040061,,,,,,,2025-01-29,1,,,,,イノベスト,0
10,1010001251805,新規,0,2025-01-29,2025-01-29,株式会社ＣｏｍＴＹ,,株式会社,東京都,中央区,銀座１丁目１２番４号Ｎ＆ＥＢＬＤ．６Ｆ,,13,102,1040061,,,,,,,2025-01-29,1,,,,,コムティ,0
11,1010001251838,新規,0,2025-01-29,2025-01-29,株式会社本多建設,,株式会社,東京都,中央区,日本橋久松町９番１２号和円ビル６階,,13,102,1030005,,,,,,,2025-01-29,1,,,,,ホンダケンセツ,0
12,1010003046212,新規,0,2025-01-29,2025-01-29,Ｌｅｍｏｎａｄｅ合同会社,,合同会社,東京都,中央区,銀座１丁目１２―４Ｎ＆ＥＢｌｄ．６Ｆ,,13,102,1040061,,,,,,,2025-01-29,1,,,,,レモネード,0
13,1010003046220,新規,0,2025-01-29,2025-01-29,合同会社Ａｓｔｒａｃｔ　Ｊａｐａｎ,,合同会社,東京都,千代田区,神田佐久間町２丁目１８番地１秋葉原ＳＴＮフロント１０階,,13,101,1010025,,,,,,,2025-01-29,1,,,,,アストラクトジャパン,0
15,1010005039461,新規,0,2025-01-29,2025-01-29,一般社団法人斜面インフラマネジメント協会,,その他の設立登記法人,東京都,中央区,東日本橋３丁目１０番６号日特建設株式会社事業本部内,,13,102,1030004,,,,,,,2025-01-29,1,,,,,シャメンインフラマネジメントキョウカイ,0
22,1010601066636,新規,0,2025-01-29,2025-01-29,株式会社ＳＷＳ３,,株式会社,東京都,江東区,東陽２丁目４番２号新宮ビル２階,,13,108,1350016,,,,,,,2025-01-29,1,,,,,エスダブリューエススリー,0
25,1010701047172,新規,0,2025-01-29,2025-01-29,ＮｅｏＢａｔｔｅｒｙ株式会社,,株式会社,東京都,品川区,東品川１丁目３番１５号ＴｈｅＰａｒｋＲｅｘＴＥＮＮＯＺｔｈｅＤＯＣＫ,,13,109,1400002,,,,,,,2025-01-29,1,,,,,ネオバッテリー,0
28,1010901056700,新規,0,2025-01-29,2025-01-29,株式会社ライフアセット,,株式会社,東京都,世田谷区,野毛３丁目２１番１８－１０５号,,13,112,1580092,,,,,,,2025-01-29,1,,,,,ライフアセット,0
29,1010901056725,新規,0,2025-01-29,2025-01-29,株式会社ＦＬＡＰ,,株式会社,東京都,世田谷区,南烏山６丁目４番１号,,13,112,1570062,,,,,,,2025-01-29,1,,,,,フラップ,0
36,1011001167347,新規,0,2025-01-29,2025-01-29,株式会社オールリンクリフォームズ,,株式会社,東京都,渋谷区,渋谷２丁目１２番９号,,13,113,1500002,,,,,,,2025-01-29,1,,,,,オールリンクリフォームズ,0
130,1011303005403,新規,0,2025-01-29,2025-01-29,合同会社ＥＳＨ,,合同会社,東京都,杉並区,下高井戸４丁目３１－７－３１２,,13,115,1680073,,,,,,,2025-01-29,1,,,,,イーエスエッチ,0
132,1011401026771,新規,0,2025-01-29,2025-01-29,株式会社Ｇ＆Ｔパター,,株式会社,東京都,板橋区,板橋４丁目３５番７号,,13,119,1730004,,,,,,,2025-01-29,1,,,,,ジーアンドティーパター,0
134,1011501031614,新規,0,2025-01-29,2025-01-29,株式会社文景,,株式会社,東京都,荒川区,東日暮里４丁目３３番１２号,,13,118,1160014,,,,,,,2025-01-29,1,,,,,ブンケイ,0
137,1012801023722,新規,0,2025-01-29,2025-01-29,株式会社ニーナ,,株式会社,東京都,立川市,錦町１丁目４番４号サニービル２Ｆ－ＣＳ２３２,,13,202,1900022,,,,,,,2025-01-29,1,,,,,ニーナ,0
141,1013303007503,新規,0,2025-01-29,2025-01-29,合同会社武井会計,,合同会社,東京都,豊島区,長崎３丁目２２番１８号,,13,116,1710051,,,,,,,2025-01-29,1,,,,,タケイカイケイ,0
145,1020005016690,新規,0,2025-01-29,2025-01-29,社会保険労務士法人Ｂｅｉｎｇ,,その他の設立登記法人,神奈川県,横浜市中区,元浜町３丁目２１番地２ヘリオス関内ビル９Ｆ,,14,104,2310004,,,,,,,2025-01-29,1,,,,,ビーイング,0
345,1021001084335,新規,0,2025-01-29,2025-01-29,ヘルスル株式会社,,株式会社,神奈川県,藤沢市,辻堂東海岸３丁目６番１７号,,14,205,2510045,,,,,,,2025-01-29,1,,,,,ヘルスル,0
364,1021003015528,新規,0,2025-01-29,2025-01-29,昭夫商会合同会社,,合同会社,神奈川県,茅ヶ崎市,円蔵２３２８－８,,14,207,2530084,,,,,,,2025-01-29,1,,,,,アキオショウカイ,0
371,1030001164583,新規,0,2025-01-29,2025-01-29,株式会社勇美,,株式会社,埼玉県,所沢市,中富南２丁目２５番地の２３,,11,208,3590003,,,,,,,2025-01-29,1,,,,,ユウビ,0
372,1030001164591,新規,0,2025-01-29,2025-01-29,グランマルシェ株式会社,,株式会社,埼玉県,春日部市,谷原新田１８１８番地２、２階,,11,214,3440035,,,,,,,2025-01-29,1,,,,,グランマルシェ,0
373,1030001164625,新規,0,2025-01-29,2025-01-29,寅二郎ヴィレッジ株式会社,,株式会社,埼玉県,久喜市,北青柳９７５番１,,11,232,3460024,,,,,,,2025-01-29,1,,,,,トラジロウヴィレッジ,0
379,1030003025965,新規,0,2025-01-29,2025-01-29,ＨＩＥＰ　ＴＨＡＮＧ合同会社,,合同会社,埼玉県,坂戸市,南町３４番７号ＫＩＶオフィス南町Ｄ号室,,11,239,3500233,,,,,,,2025-01-29,1,,,,,ヒエップタン,0
384,1040001137167,新規,0,2025-01-29,2025-01-29,Ｔ‐ｗｏｒｋｓ株式会社,,株式会社,千葉県,市原市,ちはら台西５丁目３番地７ラ・メール６５－２０４号室,,12,219,2900143,,,,,,,2025-01-29,1,,,,,ティーワークス,0
385,1040001137183,新規,0,2025-01-29,2025-01-29,株式会社ＤＰＳ,,株式会社,千葉県,船橋市,本中山２丁目２２番７号,,12,204,2730035,,,,,,,2025-01-29,1,,,,,ディーピーエス,0
386,1040001137209,新規,0,2025-01-29,2025-01-29,株式会社暁光,,株式会社,千葉県,八街市,八街に１０７－５,,12,230,2891103,,,,,,,2025-01-29,1,,,,,ギョウコウ,0
387,1040001137225,新規,0,2025-01-29,2025-01-29,ｙａｅｍｉｌａｎ株式会社,,株式会社,千葉県,浦安市,堀江６丁目１２番２４号,,12,227,2790041,,,,,,,2025-01-29,1,,,,,ヤエミラン,0
391,1040003026698,新規,0,2025-01-29,2025-01-29,ヒルクレスト合同会社,,合同会社,千葉県,千葉市花見川区,横戸町５番地５３スプランドールＥＡＳＴ,,12,102,2620001,,,,,,,2025-01-29,1,,,,,ヒルクレスト,0
396,1050001056085,新規,0,2025-01-29,2025-01-29,株式会社ＳＫ,,株式会社,茨城県,牛久市,柏田町１５９２番地５,,08,219,3001211,,,,,,,2025-01-29,1,,,,,エスケイ,0
399,1050003008976,新規,0,2025-01-29,2025-01-29,Ｎｏｗ　Ｌｏａｄｉｎｇ　Ｎｅｗ　Ｊａｐａｎ合同会社,,合同会社,茨城県,つくば市,観音台１丁目３８番地４１,,08,220,3050856,,,,,,,2025-01-29,1,,,,,ナウロウディングニュージャパン,0
408,1080101025276,新規,0,2025-01-29,2025-01-29,株式会社ＴＳＣＪ,,株式会社,静岡県,三島市,千枚原５番地の１３,,22,206,4110027,,,,,,,2025-01-29,1,,,,,ティーエスシージェイ,0
413,1100001038235,新規,0,2025-01-29,2025-01-29,株式会社ＮＡＭＵ,,株式会社,長野県,上田市,中央５丁目６番２４号,,20,203,3860012,,,,,,,2025-01-29,1,,,,,ナム,0
416,1110003005645,新規,0,2025-01-29,2025-01-29,合同会社アイティーエー,,合同会社,新潟県,上越市,大字下源入１２９‐１イーストハイツ１Ｂ,,15,222,9420051,,,,,,,2025-01-29,1,,,,,アイティーエー,0
431,1120001272286,新規,0,2025-01-29,2025-01-29,株式会社ハイハット,,株式会社,大阪府,大阪市中央区,宗右衛門町４番６号平の家ビル４０２号,,27,128,5420084,,,,,,,2025-01-29,1,,,,,,0
432,1120001272328,新規,0,2025-01-29,2025-01-29,株式会社ＶＩＬＬＡＧＥ,,株式会社,大阪府,大阪市西区,北堀江２丁目１６番６号シャインウエル丸央５０２,,27,106,5500014,,,,,,,2025-01-29,1,,,,,ヴィレッジ,0
433,1120001272336,新規,0,2025-01-29,2025-01-29,株式会社アーデンエナジー,,株式会社,大阪府,大阪市浪速区,日本橋５丁目１２番９－３０５号,,27,111,5560005,,,,,,,2025-01-29,1,,,,,アーデンエナジー,0
434,1120001272360,新規,0,2025-01-29,2025-01-29,Ｄエステート株式会社,,株式会社,大阪府,枚方市,岡東町２６番３号,,27,210,5730032,,,,,,,2025-01-29,1,,,,,ディーエステート,0
435,1120001272377,新規,0,2025-01-29,2025-01-29,株式会社コハダ,,株式会社,大阪府,大阪市福島区,福島８丁目１３番２０号,,27,103,5530003,,,,,,,2025-01-29,1,,,,,コハダ,0
436,1120001272393,新規,0,2025-01-29,2025-01-29,株式会社ａｎｄ　Ｗｉｓｈ,,株式会社,大阪府,大阪市西区,北堀江１丁目２１‐１２米澤ビル北堀江ＩＩ８０２号室,,27,106,5500014,,,,,,,2025-01-29,1,,,,,アンドウィッシュ,0
437,1120001272402,新規,0,2025-01-29,2025-01-29,潤株式会社,,株式会社,大阪府,大阪市生野区,新今里３丁目４番１７号ＯＧビル１０１Ａ,,27,116,5440001,,,,,,,2025-01-29,1,,,,,ウルオ,0
438,1120001272410,新規,0,2025-01-29,2025-01-29,株式会社Ｏｖｅｎ,,株式会社,大阪府,大阪市北区,曾根崎新地１丁目６番２４号,,27,127,5300002,,,,,,,2025-01-29,1,,,,,オーブン,0
440,1120003028496,新規,0,2025-01-29,2025-01-29,ＧＬＯＢＡＬ　ＢＯＯＴＨ合同会社,,合同会社,大阪府,大阪市北区,豊崎３丁目１０－２－１２０１,,27,127,5310072,,,,,,,2025-01-29,1,,,,,グローバルブース,0
443,1120101070978,新規,0,2025-01-29,2025-01-29,株式会社ボトムターン,,株式会社,大阪府,堺市北区,野遠町１１０番地４９,,27,146,5918013,,,,,,,2025-01-29,1,,,,,ボトムターン,0
573,1120903005529,新規,0,2025-01-29,2025-01-29,合同会社リフレイン,,合同会社,大阪府,豊中市,服部豊町１丁目１３番２７－４０１号,,27,203,5610859,,,,,,,2025-01-29,1,,,,,リフレイン,0
578,1130001078880,新規,0,2025-01-29,2025-01-29,株式会社ＬＩＥＮ,,株式会社,京都府,京都市上京区,大宮通一条上る下石橋町７１３番地,,26,102,6028225,,,,,,,2025-01-29,1,,,,,リエン,0
583,1140001137223,新規,0,2025-01-29,2025-01-29,株式会社ＰＲＥＢＥ,,株式会社,兵庫県,神崎郡市川町,鶴居２１６番地,,28,442,6792334,,,,,,,2025-01-29,1,,,,,プレベ,0
584,1140001137231,新規,0,2025-01-29,2025-01-29,株式会社Ｐｅａｒｌ　Ｐｒｉｎｃｅｓｓ,,株式会社,兵庫県,神戸市垂水区,高丸７丁目２番１２号,,28,108,6550016,,,,,,,2025-01-29,1,,,,,パールプリンセス,0
585,1140001137248,新規,0,2025-01-29,2025-01-29,株式会社尚建築,,株式会社,兵庫県,加古川市,平荘町養老２２８番地の２,,28,210,6751231,,,,,,,2025-01-29,1,,,,,ショウケンチク,0
586,1140001137264,新規,0,2025-01-29,2025-01-29,株式会社Ｗｅｂたん,,株式会社,兵庫県,芦屋市,朝日ケ丘町８番１８－１１６号,,28,206,6590012,,,,,,,2025-01-29,1,,,,,ウェブタン,0
588,1140003021598,新規,0,2025-01-29,2025-01-29,合同会社ＭＲＴ,,合同会社,兵庫県,加古川市,加古川町美乃利８６番地の６,,28,210,6750062,,,,,,,2025-01-29,1,,,,,エムアールティ,0
591,1140005027362,新規,0,2025-01-29,2025-01-29,行政書士法人アークマネージメント,,その他の設立登記法人,兵庫県,宝塚市,栄町２丁目１番２号ソリオ２,,28,214,6650845,,,,,,,2025-01-29,1,,,,,アークマネージメント,0
599,1180001165154,新規,0,2025-01-29,2025-01-29,株式会社成梛ｔｅｃｈ,,株式会社,愛知県,一宮市,千秋町町屋字南郷１２５８番地,,23,203,4910813,,,,,,,2025-01-29,1,,,,,セナテック,0
600,1180001165253,新規,0,2025-01-29,2025-01-29,株式会社ＬＧＳ,,株式会社,愛知県,名古屋市西区,木前町２０番地,,23,104,4520834,,,,,,,2025-01-29,1,,,,,エルジーエス,0
606,1180003027897,新規,0,2025-01-29,2025-01-29,合同会社ゆらす,,合同会社,愛知県,名古屋市中村区,名駅４丁目２４番５号第２森ビル４０１,,23,105,4500002,,,,,,,2025-01-29,1,,,,,ユラス,0
607,1180003027922,新規,0,2025-01-29,2025-01-29,知多エナジーソリューションズ合同会社,,合同会社,愛知県,知多市,北浜町２３番地,,23,224,4780046,,,,,,,2025-01-29,1,,,,,チタエナジーソリューションズ,0
609,1180303006436,新規,0,2025-01-29,2025-01-29,合同会社ＦＦ　Ｌａｂｏ,,合同会社,愛知県,豊田市,汐見町２丁目１６番地３,,23,211,4710041,,,,,,,2025-01-29,1,,,,,エフエフラボ,0
612,1220001026459,新規,0,2025-01-29,2025-01-29,ワグネル・ラン株式会社,,株式会社,石川県,小松市,沖町５９２番地,,17,203,9230861,,,,,,,2025-01-29,1,,,,,ワグネルラン,0
613,1220003003943,新規,0,2025-01-29,2025-01-29,合同会社ＭＫトラスト,,合同会社,石川県,七尾市,直津町カ部３８番地,,17,202,9260844,,,,,,,2025-01-29,1,,,,,エムケートラスト,0
614,1230005009434,新規,0,2025-01-29,2025-01-29,一般社団法人高志の国歴史的建造物保存再生研究所,,その他の設立登記法人,富山県,富山市,上二杉３４５番地,,16,201,9392256,,,,,,,2025-01-29,1,,,,,コシノクニレキシテキケンゾウブツホゾンサイセイケンキュウショ,0
616,1240001064457,新規,0,2025-01-29,2025-01-29,株式会社Ｋオフィス,,株式会社,広島県,広島市佐伯区,五日市中央１丁目６－５－３－２０５,,34,108,7315128,,,,,,,2025-01-29,1,,,,,ケイオフィス,0
619,1260001039688,新規,0,2025-01-29,2025-01-29,株式会社ＣＯＯＬ　ＲＩＺＩＮＧ,,株式会社,岡山県,岡山市中区,原尾島２丁目７―５アルファステイツ原尾島２０４,,33,102,7038235,,,,,,,2025-01-29,1,,,,,クールライジング,0
624,1290001108746,新規,0,2025-01-29,2025-01-29,株式会社ＩＣ,,株式会社,福岡県,福岡市博多区,中洲４丁目５番５号エーデル中洲５階Ｂ号室,,40,132,8100801,,,,,,,2025-01-29,1,,,,,アイシー,0
625,1290003016328,新規,0,2025-01-29,2025-01-29,合同会社八．,,合同会社,福岡県,福岡市中央区,大名１丁目１０－１０ＫＩビル１Ｆ,,40,133,8100041,,,,,,,2025-01-29,1,,,,,ハチ,0
626,1290003016336,新規,0,2025-01-29,2025-01-29,ＭＩＲＡＩＮＯ合同会社,,合同会社,福岡県,福岡市博多区,山王２丁目８－６,,40,132,8120015,,,,,,,2025-01-29,1,,,,,ミライノ,0
627,1290005019634,新規,0,2025-01-29,2025-01-29,医療法人飛翔会,,その他の設立登記法人,福岡県,福岡市城南区,片江４丁目７番１号,,40,136,8140142,,,,,,,2025-01-29,1,,,,,ヒショウカイ,0
632,1320001020914,新規,0,2025-01-29,2025-01-29,株式会社ムラカミ,,株式会社,大分県,大分市,大字葛木３０３番地３,,44,201,8700133,,,,,,,2025-01-29,1,,,,,ムラカミ,0
642,1350001019383,新規,0,2025-01-29,2025-01-29,株式会社Ｓｅａｔｏｐｉａ,,株式会社,宮崎県,宮崎市,大字内海７４８１番地１０５,,45,201,8892301,,,,,,,2025-01-29,1,,,,,シートピア,0
645,1360003014646,新規,0,2025-01-29,2025-01-29,合同会社琉ジャパン,,合同会社,沖縄県,名護市,宮里１丁目２１番地１８号浦崎ビル１０１,,47,209,9050011,,,,,,,2025-01-29,1,,,,,リュウジャパン,0
646,1370001052176,新規,0,2025-01-29,2025-01-29,株式会社Ｏｌｉｖｅ　Ｌｅａｖｅｓ　Ｅｓｔａｔｅ,,株式会社,宮城県,仙台市太白区,長町南３丁目３－３７Ｓビル１Ｆ,,04,104,9820012,,,,,,,2025-01-29,1,,,,,オリーブリーブスエステート,0
647,1370001052192,新規,0,2025-01-29,2025-01-29,株式会社ＬＡＬ　ＪＡＰＡＮ　ＡＵＴＯ,,株式会社,宮城県,栗原市,高清水南原３９番地２４,,04,213,9872154,,,,,,,2025-01-29,1,,,,,ラールジャパンオート,0
651,1400001016929,新規,0,2025-01-29,2025-01-29,株式会社ａｍａｍｓｋｓｋ,,株式会社,岩手県,滝沢市,穴口２０３－２７フレグランス・ウインド１０１,,03,216,0200633,,,,,,,2025-01-29,1,,,,,アムアムスクスク,0
656,1440001009557,新規,0,2025-01-29,2025-01-29,株式会社アイサポート,,株式会社,北海道,函館市,戸倉町３３番１６号,,01,202,0420953,,,,,,,2025-01-29,1,,,,,アイサポート,0
658,1470001020560,新規,0,2025-01-29,2025-01-29,株式会社Ｒｉｃｃａ　ａｒｃ　Ｊａｐａｎ,,株式会社,香川県,高松市,天神前８番１号横山ビル１０３号,,37,201,7600018,,,,,,,2025-01-29,1,,,,,,0
664,1700150064814,新規,0,2025-01-29,2015-10-09,霧島市職員互助会,,その他,鹿児島県,霧島市,国分中央３丁目４５番１号,,46,218,8994332,,,,,,,2015-10-09,1,,,,,キリシマシシヨクインゴジヨカイ,0
669,2010001251795,新規,0,2025-01-29,2025-01-29,エクイティ・ラボ株式会社,,株式会社,東京都,千代田区,霞が関３丁目２番５号霞が関ビル３５階,,13,101,1000013,,,,,,,2025-01-29,1,,,,,エクイティラボ,0
670,2010001251804,新規,0,2025-01-29,2025-01-29,株式会社ＧＯ　ＷＥＬＬ,,株式会社,東京都,中央区,銀座７丁目１３番６号サガミビル２階,,13,102,1040061,,,,,,,2025-01-29,1,,,,,ゴーウェル,0
671,2010001251820,新規,0,2025-01-29,2025-01-29,アセントウェブ株式会社,,株式会社,東京都,中央区,銀座１丁目２２番１１号銀座大竹ビジデンス２Ｆ,,13,102,1040061,,,,,,,2025-01-29,1,,,,,アセントウェブ,0
672,2010001251837,新規,0,2025-01-29,2025-01-29,ＧＳ　Ｅｎｒｉｃｈ株式会社,,株式会社,東京都,千代田区,平河町１丁目３番６号ＢＩＺＭＡＲＫＳ麹町,,13,101,1020093,,,,,,,2025-01-29,1,,,,,ジーエスエンリッチ,0
673,2010001251853,新規,0,2025-01-29,2025-01-29,株式会社３６１Ｓｐｏｒｔｓ　Ｊａｐａｎ,,株式会社,東京都,中央区,銀座１丁目２２番１１号銀座大竹ビジデンス２階,,13,102,1040061,,,,,,,2025-01-29,1,,,,,スリーシックスティーワンスポーツジャパン,0
674,2010001251878,新規,0,2025-01-29,2025-01-29,ＥＶ充電サービス承継株式会社,,株式会社,東京都,中央区,京橋３丁目１番１号東京スクエアガーデンＷｅＷｏｒｋ内１４階,,13,102,1040031,,,,,,,2025-01-29,1,,,,,イーブイジュウデンサービスショウケイ,0
675,2010001251903,新規,0,2025-01-29,2025-01-29,Ｄｕｒｏｐｔｉｘマテリアル株式会社,,株式会社,東京都,千代田区,永田町２丁目１１番１号,,13,101,1000014,,,,,,,2025-01-29,1,,,,,デュロプティクスマテリアル,0
679,2010003046236,新規,0,2025-01-29,2025-01-29,レンフローホールディングス合同会社,,合同会社,東京都,中央区,日本橋本町４丁目１０番１０－６０２号,,13,102,1030023,,,,,,,2025-01-29,1,,,,,レンフローホールディングス,0
687,2010405023972,新規,0,2025-01-29,2025-01-29,一般社団法人ともにメディカル,,その他の設立登記法人,東京都,港区,海岸１丁目１３番１５－１２０８号,,13,103,1050022,,,,,,,2025-01-29,1,,,,,トモニメディカル,0
695,2010601066635,新規,0,2025-01-29,2025-01-29,株式会社ＳＷＳ２,,株式会社,東京都,江東区,東陽２丁目４番２号新宮ビル２階,,13,108,1350016,,,,,,,2025-01-29,1,,,,,エスダブリューエストゥー,0
696,2010601066668,新規,0,2025-01-29,2025-01-29,株式会社ＨＲＡ,,株式会社,東京都,墨田区,墨田４丁目４３番３号Ｅ２０１,,13,107,1310031,,,,,,,2025-01-29,1,,,,,ハリア,0
697,2010601066676,新規,0,2025-01-29,2025-01-29,株式会社Ｗｉｓｓｅｎｓｌｕｃｋｅ,,株式会社,東京都,江東区,新大橋２丁目１５－９加藤ビル１０１,,13,108,1350007,,,,,,,2025-01-29,1,,,,,ヴィッセンルーケ,0
700,2010701047171,新規,0,2025-01-29,2025-01-29,株式会社リノボックス,,株式会社,東京都,品川区,西品川１丁目１－１住友不動産大崎ガーデンタワー９階,,13,109,1410033,,,,,,,2025-01-29,1,,,,,リノボックス,0
706,2010901056716,新規,0,2025-01-29,2025-01-29,株式会社成城企画,,株式会社,東京都,世田谷区,成城８丁目１４番１５号,,13,112,1570066,,,,,,,2025-01-29,1,,,,,セイジョウキカク,0
707,2010903009671,新規,0,2025-01-29,2025-01-29,ＨＩＪＫＬＭ合同会社,,合同会社,東京都,世田谷区,池尻３丁目２１－１－２０１,,13,112,1540001,,,,,,,2025-01-29,1,,,,,エイチアイジェイケイエルエム,0
715,2011001167437,新規,0,2025-01-29,2025-01-29,株式会社オルカ,,株式会社,東京都,渋谷区,笹塚１丁目４７番１号,,13,113,1510073,,,,,,,2025-01-29,1,,,,,オルカ,0
717,2011003020817,新規,0,2025-01-29,2025-01-29,合同会社スカイワニ,,合同会社,東京都,目黒区,下目黒１丁目１番１４号コノトラビル７Ｆ,,13,110,1530064,,,,,,,2025-01-29,1,,,,,スカイワニ,0
722,2011101110412,新規,0,2025-01-29,2025-01-29,株式会社ＩＣ‐Ｗｏｒｋ,,株式会社,東京都,新宿区,西新宿２丁目３番３号ＫＤＤＩビルアネックス１階,,13,104,1600023,,,,,,,2025-01-29,1,,,,,アイシーワーク,0
723,2011101110437,新規,0,2025-01-29,2025-01-29,株式会社ＹＴＰ,,株式会社,東京都,新宿区,西新宿３丁目３番１３号西新宿水間ビル６階,,13,104,1600023,,,,,,,2025-01-29,1,,,,,ワイティーピー,0
724,2011103015469,新規,0,2025-01-29,2025-01-29,合同会社ＳＭＤ,,合同会社,東京都,新宿区,富久町３６番１７－１号,,13,104,1620067,,,,,,,2025-01-29,1,,,,,エスエムディー,0
725,2011105011292,新規,0,2025-01-29,2025-01-29,一般社団法人サトリプロジェクト,,その他の設立登記法人,東京都,新宿区,新宿１丁目１５番１２号柳生ビル６０２,,13,104,1600022,,,,,,,2025-01-29,1,,,,,サトリプロジェクト,0
728,2011201026087,新規,0,2025-01-29,2025-01-29,株式会社ウェルダーナ,,株式会社,東京都,中野区,東中野５丁目２４番１１号フロレスタＣ,,13,114,1640003,,,,,,,2025-01-29,1,,,,,ウェルダーナ,0
730,2011203004586,新規,0,2025-01-29,2025-01-29,ＬＩＦＥ　ＢＥＴ合同会社,,合同会社,東京都,中野区,江古田４丁目３０番地１６号,,13,114,1650022,,,,,,,2025-01-29,1,,,,,ライフベット,0
812,2011401026721,新規,0,2025-01-29,2025-01-29,株式会社ｄｏｇ,,株式会社,東京都,板橋区,南常盤台１丁目１１－６レフア南常盤台１０１号室,,13,119,1740072,,,,,,,2025-01-29,1,,,,,ドッグ,0
814,2011501031638,新規,0,2025-01-29,2025-01-29,Ｈｏｎｕ　Ｃａｒｅ　Ｐａｒｔｎｅｒｓ株式会社,,株式会社,東京都,北区,東十条４丁目５－１６ＨＪフレール２０３,,13,117,1140001,,,,,,,2025-01-29,1,,,,,ホヌケアパートナーズ,0
819,2011503006407,新規,0,2025-01-29,2025-01-29,合同会社マルケン商事,,合同会社,東京都,荒川区,町屋５丁目３番７号,,13,118,1160001,,,,,,,2025-01-29,1,,,,,マルケンショウジ,0
829,2012401042700,新規,0,2025-01-29,2025-01-29,ＳＨＩＭＯ　ＧＬＯＢＡＬ株式会社,,株式会社,東京都,調布市,仙川町１丁目１２番地４３安藤ビル３階,,13,208,1820002,,,,,,,2025-01-29,1,,,,,シモグローバル,0
832,2012801023721,新規,0,2025-01-29,2025-01-29,株式会社デントライド,,株式会社,東京都,国立市,中１丁目１７－４１,,13,215,1860004,,,,,,,2025-01-29,1,,,,,デントライド,0
836,2013301053671,新規,0,2025-01-29,2025-01-29,株式会社ｉＭａｘ,,株式会社,東京都,豊島区,北大塚２丁目１５－９ＩＴＹ大塚ビル９Ｆ,,13,116,1700004,,,,,,,2025-01-29,1,,,,,アイマックス,0
837,2013301053688,新規,0,2025-01-29,2025-01-29,紙筆墨株式会社,,株式会社,東京都,豊島区,南池袋３丁目１３番７号ビジネスヴィップ池袋５０１号室－Ｂ,,13,116,1710022,,,,,,,2025-01-29,1,,,,,シヒツボク,0
1024,2021001084350,新規,0,2025-01-29,2025-01-29,株式会社ＩＣＨＩＫＯＵ,,株式会社,神奈川県,南足柄市,千津島１３３３番地,,14,217,2500102,,,,,,,2025-01-29,1,,,,,イチコウ,0
1051,2021005013264,新規,0,2025-01-29,2025-01-29,医療法人桂冠会,,その他の設立登記法人,神奈川県,海老名市,本郷２６６６番地１ふるさとビル１階１０２号室,,14,215,2430417,,,,,,,2025-01-29,1,,,,,ケイカンカイ,0
1059,2030001164574,新規,0,2025-01-29,2025-01-29,朝香エステート株式会社,,株式会社,埼玉県,所沢市,大字北秋津７７８番地の２７,,11,208,3590038,,,,,,,2025-01-29,1,,,,,,0
1060,2030001164590,新規,0,2025-01-29,2025-01-29,株式会社アステラス,,株式会社,埼玉県,熊谷市,村岡３９９番地５ダイアパレスリバーコート熊谷１０２２,,11,202,3600162,,,,,,,2025-01-29,1,,,,,アステラス,0
1061,2030001164599,新規,0,2025-01-29,2025-01-29,株式会社ＦｕｔｕｒｅＰａｔｈ,,株式会社,埼玉県,三郷市,谷中１３番地,,11,237,3410032,,,,,,,2025-01-29,1,,,,,フューチャーパス,0
1062,2030001164640,新規,0,2025-01-29,2025-01-29,株式会社石毛塗装店,,株式会社,埼玉県,上尾市,大字上尾村５７６番地６,,11,219,3620013,,,,,,,2025-01-29,1,,,,,イシゲトソウテン,0
1068,2030003025931,新規,0,2025-01-29,2025-01-29,合同会社ランチャー,,合同会社,埼玉県,所沢市,小手指南３丁目５３番地の６,,11,208,3591146,,,,,,,2025-01-29,1,,,,,ランチャー,0
1069,2030003025964,新規,0,2025-01-29,2025-01-29,合同会社ｃｏｌｌｉｅ,,合同会社,埼玉県,朝霞市,本町２丁目２７番９号プチ・キャロット４０４,,11,227,3510011,,,,,,,2025-01-29,1,,,,,コリー,0
1070,2030005022019,新規,0,2025-01-29,2025-01-29,一般社団法人あかぎ会,,その他の設立登記法人,埼玉県,さいたま市岩槻区,諏訪２丁目１－６カメタニビルズ２３－１階,,11,110,3390007,,,,,,,2025-01-29,1,,,,,アカギカイ,0
1076,2040001137166,新規,0,2025-01-29,2025-01-29,ティーダ株式会社,,株式会社,千葉県,八千代市,八千代台東１丁目１８番２号,,12,221,2760032,,,,,,,2025-01-29,1,,,,,ティーダ,0
1077,2040001137190,新規,0,2025-01-29,2025-01-29,株式会社Ｋ２グローバル,,株式会社,千葉県,松戸市,松戸２２８５番地の２９,,12,207,2710092,,,,,,,2025-01-29,1,,,,,ケーツーグローバル,0
1078,2040001137208,新規,0,2025-01-29,2025-01-29,株式会社輝煌国際,,株式会社,千葉県,成田市,大清水１３３番地１藤崎ウエルズＥ号室,,12,211,2860122,,,,,,,2025-01-29,1,,,,,キコウコクサイ,0
1079,2040001137216,新規,0,2025-01-29,2025-01-29,東贏株式会社,,株式会社,千葉県,香取市,北１丁目１１番地８,,12,236,2870002,,,,,,,2025-01-29,1,,,,,トウエイ,0
1081,2040003026730,新規,0,2025-01-29,2025-01-29,合同会社ＤＭ３０号,,合同会社,千葉県,柏市,柏４丁目５番１０号,,12,217,2770005,,,,,,,2025-01-29,1,,,,,ディーエムサンジュウゴウ,0
1082,2040003026739,新規,0,2025-01-29,2025-01-29,リードステップ合同会社,,合同会社,千葉県,市川市,八幡３丁目２３－５カーサビンタラ３Ｂ,,12,203,2720021,,,,,,,2025-01-29,1,,,,,リードステップ,0
1085,2050001056051,新規,0,2025-01-29,2025-01-29,株式会社ヌメロサンドゥ,,株式会社,茨城県,守谷市,野木崎５６１番地の６,,08,224,3020117,,,,,,,2025-01-29,1,,,,,ヌメロサンドゥ,0
1091,2080001026737,新規,0,2025-01-29,2025-01-29,株式会社ＨＡＬ,,株式会社,静岡県,藤枝市,前島１丁目７番５１号Ｆｒｉｅｎｄｌｙ仲田１Ｆ,,22,214,4260067,,,,,,,2025-01-29,1,,,,,ハル,0
1098,2080103003246,新規,0,2025-01-29,2025-01-29,ＤＭＣ合同会社,,合同会社,静岡県,富士市,荒田島町１番１３号ラシェット１,,22,210,4170043,,,,,,,2025-01-29,1,,,,,ディーエムシー,0
1101,2080401027715,新規,0,2025-01-29,2025-01-29,松本電気株式会社,,株式会社,静岡県,浜松市中央区,半田町９１番地の１,,22,138,4313124,,,,,,,2025-01-29,1,,,,,マツモトデンキ,0
1105,2100001038242,新規,0,2025-01-29,2025-01-29,株式会社Ｌｅｖｅｎ,,株式会社,長野県,伊那市,西箕輪７２００番地２７,,20,209,3994501,,,,,,,2025-01-29,1,,,,,レイブン,0
1106,2100001038250,新規,0,2025-01-29,2025-01-29,株式会社ｄｎａ‐ｐｒｏｊｅｃｔｓ,,株式会社,長野県,松本市,大字島立７３２番地１,,20,202,3900852,,,,,,,2025-01-29,1,,,,,ディーエヌエープロジェクツ,0
1110,2110001039017,新規,0,2025-01-29,2025-01-29,株式会社つばさＳＴ,,株式会社,新潟県,新潟市西区,小新２丁目５番１４号ピュアみやび二番館２０３号,,15,107,9502023,,,,,,,2025-01-29,1,,,,,ツバササポート,0
1117,2120001272343,新規,0,2025-01-29,2025-01-29,株式会社トトヤセ,,株式会社,大阪府,大阪市天王寺区,堀越町９番６－５０１号,,27,109,5430056,,,,,,,2025-01-29,1,,,,,トトヤセ,0
1118,2120001272392,新規,0,2025-01-29,2025-01-29,大通国際株式会社,,株式会社,大阪府,大阪市中央区,森ノ宮中央２丁目１０番７号ロイヤル難波宮３０５,,27,128,5400003,,,,,,,2025-01-29,1,,,,,ダイツウコクサイ,0
1119,2120003028487,新規,0,2025-01-29,2025-01-29,Ｎ．Ｍ．Ｋ．合同会社,,合同会社,大阪府,大阪市西成区,花園北２丁目７－８入善ハウス２０３号,,27,122,5570016,,,,,,,2025-01-29,1,,,,,エヌエムケイ,0
1122,2120005024740,新規,0,2025-01-29,2025-01-29,医療法人つるみ通りまつだ歯科クリニック,,その他の設立登記法人,大阪府,大阪市鶴見区,横堤４丁目２番３５号シェ・モア・ヨコヅツミ１階,,27,124,5380052,,,,,,,2025-01-29,1,,,,,ツルミドオリマツダシカクリニック,0
1123,2120005024765,新規,0,2025-01-29,2025-01-29,社会保険労務士法人ＮＡＫＡＮＯ,,その他の設立登記法人,大阪府,大阪市中央区,平野町３丁目１－７日宝平野町セントラルビル４０７,,27,128,5410046,,,,,,,2025-01-29,1,,,,,ナカノ,0
1261,2140001137214,新規,0,2025-01-29,2025-01-29,株式会社原組,,株式会社,兵庫県,尼崎市,浜２丁目２３番２５号,,28,202,6610967,,,,,,,2025-01-29,1,,,,,ハラグミ,0
1262,2140001137222,新規,0,2025-01-29,2025-01-29,株式会社ｉｚｕ‐ｓｏｌｕｔｉｏｎ．,,株式会社,兵庫県,伊丹市,野間６丁目２番１２－３０７号,,28,207,6640873,,,,,,,2025-01-29,1,,,,,イズソリューション,0
1263,2140001137230,新規,0,2025-01-29,2025-01-29,プラムズ株式会社,,株式会社,兵庫県,神戸市東灘区,向洋町中５丁目１１番地５０２号棟７０２号室,,28,101,6580032,,,,,,,2025-01-29,1,,,,,プラムズ,0
1266,2140003021572,新規,0,2025-01-29,2025-01-29,飛麟合同会社,,合同会社,兵庫県,神戸市中央区,元町通２丁目９－１元町プラザビル９階９１６－５号室,,28,110,6500022,,,,,,,2025-01-29,1,,,,,ヒリン,0
1274,2180001165038,新規,0,2025-01-29,2025-01-29,テラザワデザインアーク株式会社,,株式会社,愛知県,犬山市,大字羽黒字高橋郷２―４,,23,215,4840894,,,,,,,2025-01-29,1,,,,,テラザワデザインアーク,0
1275,2180001165145,新規,0,2025-01-29,2025-01-29,株式会社貴進,,株式会社,愛知県,名古屋市中川区,一色新町１丁目９０４－６０２,,23,110,4540946,,,,,,,2025-01-29,1,,,,,タカシン,0
1276,2180001165186,新規,0,2025-01-29,2025-01-29,ＳＦＩＭＡ株式会社,,株式会社,愛知県,名古屋市中村区,名駅４丁目２４番５号第２森ビル４０１,,23,105,4500002,,,,,,,2025-01-29,1,,,,,スフィーマ,0
1277,2180003027921,新規,0,2025-01-29,2025-01-29,ＡＣＴミラーチ合同会社,,合同会社,愛知県,名古屋市中区,栄４丁目８－１９エポックビル３Ｆ,,23,106,4600008,,,,,,,2025-01-29,1,,,,,エーシーティーミラーチ,0
1278,2180005020932,新規,0,2025-01-29,2025-01-29,一般社団法人Ｈａｐｐｙ　Ｓｅｉｚｅ　Ｐｒｏｊｅｃｔ,,その他の設立登記法人,愛知県,愛西市,稲葉町米野１５番地１,,23,232,4960907,,,,,,,2025-01-29,1,,,,,ハッピーセイズプロジェクト,0
1279,2180301039478,新規,0,2025-01-29,2025-01-29,株式会社ｍｉ‐ｔｏ,,株式会社,愛知県,豊田市,本新町９丁目１１０,,23,211,4710046,,,,,,,2025-01-29,1,,,,,ミート,0
1285,2220001026458,新規,0,2025-01-29,2025-01-29,株式会社ＭＯＲＹＺＡＥ,,株式会社,石川県,かほく市,白尾ル２１０番地１,,17,209,9291177,,,,,,,2025-01-29,1,,,,,モリゼ,0
1286,2220001026466,新規,0,2025-01-29,2025-01-29,株式会社ｉｃｈｉｆｕｋｕ,,株式会社,石川県,金沢市,泉１丁目５番４５－２号,,17,201,9218041,,,,,,,2025-01-29,1,,,,,イチフク,0
1292,2240001064431,新規,0,2025-01-29,2025-01-29,株式会社さくらＩＮＴＥＲＮＡＴＩＯＮＡＬ,,株式会社,広島県,尾道市,東御所町５番１号,,34,205,7220036,,,,,,,2025-01-29,1,,,,,サクラインターナショナル,0
1293,2240001064448,新規,0,2025-01-29,2025-01-29,株式会社ＯＭＩ　ＰＡＩＮＴ,,株式会社,広島県,福山市,東川口町３丁目９番３３号,,34,207,7200821,,,,,,,2025-01-29,1,,,,,オオミペイント,0
1294,2240001064456,新規,0,2025-01-29,2025-01-29,株式会社ｘ‐ｆａｃｔｏｒ,,株式会社,広島県,広島市中区,竹屋町６－１５－１０１,,34,101,7300048,,,,,,,2025-01-29,1,,,,,エックスファクター,0
1306,2290001108695,新規,0,2025-01-29,2025-01-29,株式会社ＨＡＣＯプラニング,,株式会社,福岡県,福岡市西区,姪の浜５丁目１７番２５号,,40,135,8190002,,,,,,,2025-01-29,1,,,,,ハコプラニング,0
1307,2290001108778,新規,0,2025-01-29,2025-01-29,株式会社Ｐｏｒｃｈ,,株式会社,福岡県,糸島市,志摩芥屋１２４番地１－１３号棟,,40,230,8191335,,,,,,,2025-01-29,1,,,,,ポーチ,0
1308,2290001108786,新規,0,2025-01-29,2025-01-29,株式会社アイメイト,,株式会社,福岡県,福岡市中央区,警固２丁目１１番１０号,,40,133,8100023,,,,,,,2025-01-29,1,,,,,アイメイト,0
1311,2290005019633,新規,0,2025-01-29,2025-01-29,特定非営利活動法人しぃとる柳川,,その他の設立登記法人,福岡県,柳川市,大和町皿垣開５８６番地,,40,207,8390261,,,,,,,2025-01-29,1,,,,,シィトルヤナガワ,0
1312,2300001014066,新規,0,2025-01-29,2025-01-29,株式会社ｈａｒａ自動車,,株式会社,佐賀県,佐賀市,八幡小路１－７,,41,201,8400834,,,,,,,2025-01-29,1,,,,,ハラジドウシャ,0
1317,2320001020913,新規,0,2025-01-29,2025-01-29,株式会社ＧｒｅｅｎＡｒｃ,,株式会社,大分県,大分市,金池町２丁目４－６,,44,201,8700026,,,,,,,2025-01-29,1,,,,,グリーンアーク,0
1318,2320005010217,新規,0,2025-01-29,2025-01-29,大分不要品買取・片付けサポート事業協同組合,,その他の設立登記法人,大分県,由布市,庄内町大字東長宝４６５の３番地,,44,213,8795400,,,,,,,2025-01-29,1,,,,,オオイタフヨウヒンカイトリカタヅケサポートジギョウ,0
1320,2330001032833,新規,0,2025-01-29,2025-01-29,株式会社菊池栗農園,,株式会社,熊本県,菊池市,七城町岡田４３５－６,,43,210,8611368,,,,,,,2025-01-29,1,,,,,キクチクリノウエン,0
1325,2340003004730,新規,0,2025-01-29,2025-01-29,合同会社武士,,合同会社,鹿児島県,鹿児島市,荒田１丁目４２番２号,,46,201,8900054,,,,,,,2025-01-29,1,,,,,ムサシ,0
1333,2390001017861,新規,0,2025-01-29,2025-01-29,株式会社ＺＥＲＯライン,,株式会社,山形県,北村山郡大石田町,大字川前４番地,,06,341,9994133,,,,,,,2025-01-29,1,,,,,ゼロライン,0
1336,2400001016928,新規,0,2025-01-29,2025-01-29,株式会社ｍｅｅｔｍｅ,,株式会社,岩手県,下閉伊郡岩泉町,門字横道５３－２,,03,483,0285641,,,,,,,2025-01-29,1,,,,,ミートミー,0
1347,2500001026116,新規,0,2025-01-29,2025-01-29,株式会社ｇｉｖｅ,,株式会社,愛媛県,松山市,湊町４丁目１０番地６湊ブレスビル２階,,38,201,7900012,,,,,,,2025-01-29,1,,,,,ギブ,0
1350,2700150117372,新規,0,2025-01-29,2025-01-29,上海心之作五金工具有限公司,00137792,外国会社等,,,,,,,,上海市松江区九亭鎮得心路８号第一幢第一層東側,00137793,,,,,2025-01-29,1,,,,,シャンハイシンジーズオウージンゴンジゥユーシャンゴンスー,0
1364,3010001251729,新規,0,2025-01-29,2025-01-29,株式会社ＫＡＮＩＸ,,株式会社,東京都,千代田区,大手町１丁目５番１号,,13,101,1000004,,,,,,,2025-01-29,1,,,,,カニックス,0
1365,3010001251753,新規,0,2025-01-29,2025-01-29,株式会社ＣＯＲＥ　ＺＩＰＳ,,株式会社,東京都,中央区,日本橋茅場町１丁目９番４号長寿ビル３Ｆ,,13,102,1030025,,,,,,,2025-01-29,1,,,,,コアジップス,0
1366,3010001251786,新規,0,2025-01-29,2025-01-29,株式会社ＵＣＨＩＮＯ,,株式会社,東京都,中央区,日本橋人形町２丁目１４番１０号,,13,102,1030013,,,,,,,2025-01-29,1,,,,,ウチノ,0
1367,3010001251803,新規,0,2025-01-29,2025-01-29,株式会社ＯＺ　Ｃａｐｉｔａｌ　Ｐａｒｔｎｅｒｓ,,株式会社,東京都,千代田区,外神田３丁目１２番８号,,13,101,1010021,,,,,,,2025-01-29,1,,,,,オズキャピタルパートナーズ,0
1368,3010001251811,新規,0,2025-01-29,2025-01-29,株式会社フードファクターサイエンス,,株式会社,東京都,文京区,小日向２丁目３０番２０号,,13,105,1120006,,,,,,,2025-01-29,1,,,,,フードファクターサイエンス,0
1369,3010001251828,新規,0,2025-01-29,2025-01-29,エム資産管理株式会社,,株式会社,東京都,千代田区,三番町２番地２,,13,101,1020075,,,,,,,2025-01-29,1,,,,,エムシサンカンリ,0
1370,3010001251844,新規,0,2025-01-29,2025-01-29,尊膳師株式会社,,株式会社,東京都,中央区,日本橋蛎殻町１丁目３番５号共同ビル２階２３号,,13,102,1030014,,,,,,,2025-01-29,1,,,,,ソンゼンシ,0
1371,3010001251852,新規,0,2025-01-29,2025-01-29,諒設備株式会社,,株式会社,東京都,千代田区,東神田１丁目１１番７号ハイツ神田岩本町１００９,,13,101,1010031,,,,,,,2025-01-29,1,,,,,マコトセツビ,0
1372,3010001251893,新規,0,2025-01-29,2025-01-29,地域ヘルスケア連携基盤株式会社,,株式会社,東京都,千代田区,丸の内１丁目８番１号,,13,101,1000005,,,,,,,2025-01-29,1,,,,,チイキヘルスケアレンケイキバン,0
1375,3010003046193,新規,0,2025-01-29,2025-01-29,合同会社Ｇｙｍ　Ｌｅａｄｅｒ　Ｋ,,合同会社,東京都,中央区,銀座１丁目１２－４Ｎ＆Ｅ．ＢＬＤ．７階,,13,102,1040061,,,,,,,2025-01-29,1,,,,,ジムリーダーケー,0
1376,3010003046227,新規,0,2025-01-29,2025-01-29,合同会社ＧＸ　ＩＮＶＥＳＴＭＥＮＴ４号,,合同会社,東京都,中央区,京橋２丁目１２番６号ＡＯＪ税理士法人内,,13,102,1040031,,,,,,,2025-01-29,1,,,,,ジーエックスインベストメントヨンゴウ,0
1378,3010005039484,新規,0,2025-01-29,2025-01-29,ＤＯＦ２号一般社団法人,,その他の設立登記法人,東京都,千代田区,丸の内１丁目４番１号東京共同会計事務所内,,13,101,1000005,,,,,,,2025-01-29,1,,,,,ディーオーエフニゴウ,0
1386,3010601066634,新規,0,2025-01-29,2025-01-29,株式会社ＳＷＳ１,,株式会社,東京都,江東区,東陽２丁目４番２号新宮ビル２階,,13,108,1350016,,,,,,,2025-01-29,1,,,,,エスダブリューエスワン,0
1387,3010603011349,新規,0,2025-01-29,2025-01-29,ＯｆｆＩｃｅ　Ｍｅｒｃｅ合同会社,,合同会社,東京都,江東区,北砂２丁目１１番８号,,13,108,1360073,,,,,,,2025-01-29,1,,,,,オフィスメルセ,0
1388,3010701047162,新規,0,2025-01-29,2025-01-29,株式会社ミライストラテジー,,株式会社,東京都,品川区,平塚２丁目１番１６号ダイアパレス戸越５０４,,13,109,1420051,,,,,,,2025-01-29,1,,,,,ミライストラテジー,0
1403,3011101110428,新規,0,2025-01-29,2025-01-29,株式会社ＧＥＮＥＲＡ,,株式会社,東京都,新宿区,西新宿５丁目８番２号惠徳ビル,,13,104,1600023,,,,,,,2025-01-29,1,,,,,ジェネラ,0
1404,3011101110436,新規,0,2025-01-29,2025-01-29,株式会社２ｎｄ　ｈｏｕｓｅ,,株式会社,東京都,新宿区,四谷坂町６番３２号コージーコート四谷坂町４０４,,13,104,1600002,,,,,,,2025-01-29,1,,,,,セカンドハウス,0
1405,3011101110452,新規,0,2025-01-29,2025-01-29,株式会社文芸社パブリッシング・ホールディングス,,株式会社,東京都,新宿区,新宿１丁目１０番１号,,13,104,1600022,,,,,,,2025-01-29,1,,,,,ブンゲイシャパブリッシングホールディングス,0
1406,3011101110477,新規,0,2025-01-29,2025-01-29,株式会社エム・ホールディングス,,株式会社,東京都,新宿区,下宮比町１番４号,,13,104,1620822,,,,,,,2025-01-29,1,,,,,エムホールディングス,0
1411,3011105011309,新規,0,2025-01-29,2025-01-29,東京オンヌリキリスト教会,,その他の設立登記法人,東京都,新宿区,北新宿３丁目３９番７号,,13,104,1690074,,,,,,,2025-01-29,1,,,,,トウキョウオンヌリキリストキョウカイ,0
1503,3011503006397,新規,0,2025-01-29,2025-01-29,合同会社ＴＯＰＴＥＮ,,合同会社,東京都,北区,神谷１丁目３１番４号,,13,117,1150043,,,,,,,2025-01-29,1,,,,,トップテン,0
1504,3011503006406,新規,0,2025-01-29,2025-01-29,合同会社アイケー,,合同会社,東京都,北区,十条仲原１丁目４番８号十条銀座商店街会館３０３号,,13,117,1140031,,,,,,,2025-01-29,1,,,,,アイケー,0
1512,3012803003613,新規,0,2025-01-29,2025-01-29,合同会社グランドライン,,合同会社,東京都,立川市,柴崎町１丁目１７－１８,,13,202,1900023,,,,,,,2025-01-29,1,,,,,グランドライン,0
1514,3013301053563,新規,0,2025-01-29,2025-01-29,株式会社エイチス,,株式会社,東京都,豊島区,目白４丁目１９番２３号オーベル目白アヴァンタージュ１０５号,,13,116,1710031,,,,,,,2025-01-29,1,,,,,エイチス,0
1515,3013301053687,新規,0,2025-01-29,2025-01-29,株式会社Ｂｕｃｋｅｔ　Ｌｉｓｔ　Ｃｌｕｂ,,株式会社,東京都,豊島区,東池袋２丁目３８番４－６０２号,,13,116,1700013,,,,,,,2025-01-29,1,,,,,バケットリストクラブ,0
1516,3013301053712,新規,0,2025-01-29,2025-01-29,株式会社ソラクア,,株式会社,東京都,豊島区,駒込１丁目１４番１２号サニークレスト六義園６０１号室,,13,116,1700003,,,,,,,2025-01-29,1,,,,,ソラクア,0
1704,3021001084325,新規,0,2025-01-29,2025-01-29,ＡＰＥＸ株式会社,,株式会社,神奈川県,藤沢市,辻堂西海岸３丁目１番４１～５１９号,,14,205,2510046,,,,,,,2025-01-29,1,,,,,アペックス,0
1726,3021003015518,新規,0,2025-01-29,2025-01-29,合同会社Ｓｎｏｗ,,合同会社,神奈川県,相模原市南区,上鶴間本町４丁目４９番１８号エスペラン相模大野３０６,,14,153,2520318,,,,,,,2025-01-29,1,,,,,スノー,0
1727,3021003015526,新規,0,2025-01-29,2025-01-29,合同会社エバーグリーン湘南平塚,,合同会社,神奈川県,平塚市,南原１丁目２０番２８号,,14,203,2540065,,,,,,,2025-01-29,1,,,,,エバーグリーンショウナンヒラツカ,0
1736,3030001164573,新規,0,2025-01-29,2025-01-29,株式会社ＬＥＩＦＩＴＨ,,株式会社,埼玉県,川越市,藤木町７－６,,11,201,3500018,,,,,,,2025-01-29,1,,,,,レイフィス,0
1737,3030001164581,新規,0,2025-01-29,2025-01-29,株式会社ＮＹＡシステム,,株式会社,埼玉県,上尾市,大字中新井２５９番地３,,11,219,3620052,,,,,,,2025-01-29,1,,,,,エヌワイエイシステム,0
1738,3030001164598,新規,0,2025-01-29,2025-01-29,株式会社ＵＬＴＩＭＡＴＥ,,株式会社,埼玉県,草加市,稲荷４丁目１番２１－２０２号,,11,221,3400003,,,,,,,2025-01-29,1,,,,,アルティメット,0
1741,3030003025955,新規,0,2025-01-29,2025-01-29,合同会社イシハラ商店,,合同会社,埼玉県,越谷市,大字平方４７８番地８,,11,222,3430002,,,,,,,2025-01-29,1,,,,,イシハラショウテン,0
1742,3030005022018,新規,0,2025-01-29,2025-01-29,特定非営利活動法人子どもたちをいじめから守る文化芸術協会,,その他の設立登記法人,埼玉県,所沢市,日吉町１０番１０－１１０１号ザ・パークハウス所沢日吉町,,11,208,3591123,,,,,,,2025-01-29,1,,,,,コドモタチヲイジメカラマモルブンカゲイジュツキョウカイ,0
1749,3040001137165,新規,0,2025-01-29,2025-01-29,株式会社Ｇｅｒｂｅｒａ　ｔｈｅ　Ｖｏｙａｇｅｓ,,株式会社,千葉県,船橋市,夏見６丁目５番１１‐１０８号,,12,204,2730865,,,,,,,2025-01-29,1,,,,,ガーベラザボヤージュ,0
1750,3040001137215,新規,0,2025-01-29,2025-01-29,株式会社つなぐ,,株式会社,千葉県,柏市,高田３８３番地１,,12,217,2770861,,,,,,,2025-01-29,1,,,,,ツナグ,0
1756,3050001056067,新規,0,2025-01-29,2025-01-29,恵株式会社,,株式会社,茨城県,古河市,尾崎４３５番地３３,,08,204,3060101,,,,,,,2025-01-29,1,,,,,メグミ,0
1757,3050001056091,新規,0,2025-01-29,2025-01-29,ＡＰプランニング株式会社,,株式会社,茨城県,ひたちなか市,大字東石川２１－１,,08,221,3120052,,,,,,,2025-01-29,1,,,,,エーピープランニング,0
1759,3050003008982,新規,0,2025-01-29,2025-01-29,合同会社クレードル,,合同会社,茨城県,土浦市,右籾２１４０番地５,,08,203,3000837,,,,,,,2025-01-29,1,,,,,クレードル,0
1761,3060001037850,新規,0,2025-01-29,2025-01-29,株式会社エヌティーピー,,株式会社,栃木県,宇都宮市,下荒針町３９８８番１号,,09,201,3210346,,,,,,,2025-01-29,1,,,,,エヌティーピー,0
1762,3060001037859,新規,0,2025-01-29,2025-01-29,株式会社ゆき,,株式会社,栃木県,那須烏山市,神長７７３番地,,09,215,3210632,,,,,,,2025-01-29,1,,,,,ユキ,0
1772,3070001042593,新規,0,2025-01-29,2025-01-29,株式会社ＳＳＫ,,株式会社,群馬県,佐波郡玉村町,大字福島１３１０番地４,,10,464,3701105,,,,,,,2025-01-29,1,,,,,エスエスケー,0
1780,3080401027714,新規,0,2025-01-29,2025-01-29,ＦＡＳＴＣＡＲ株式会社,,株式会社,静岡県,磐田市,大原２２９１番地１,,22,211,4371211,,,,,,,2025-01-29,1,,,,,ファストカー,0
1783,3100001038241,新規,0,2025-01-29,2025-01-29,河和機巧株式会社,,株式会社,長野県,北安曇郡池田町,大字池田３３４６番地６,,20,481,3998601,,,,,,,2025-01-29,1,,,,,カワキコウ,0
1784,3100001038258,新規,0,2025-01-29,2025-01-29,株式会社ヌベレーセントラル,,株式会社,長野県,下伊那郡高森町,牛牧２２５８番地１,,20,403,3993105,,,,,,,2025-01-29,1,,,,,ヌベレーセントラル,0
1795,3120001272334,新規,0,2025-01-29,2025-01-29,株式会社ＯＦＦＥＮＳＩＶＥ,,株式会社,大阪府,大阪市淀川区,十三東１丁目１４番２３号大盛マンション１０２,,27,123,5320023,,,,,,,2025-01-29,1,,,,,オフェンシブ,0
1796,3120001272342,新規,0,2025-01-29,2025-01-29,株式会社ＫＭコーポレーション,,株式会社,大阪府,大阪市淀川区,木川東２丁目５番１０号,,27,123,5320012,,,,,,,2025-01-29,1,,,,,ケーエムコーポレーション,0
1797,3120001272350,新規,0,2025-01-29,2025-01-29,Ｃ＆Ｙ株式会社,,株式会社,大阪府,大阪市中央区,谷町７丁目３－４新谷町第３ビル３階,,27,128,5420012,,,,,,,2025-01-29,1,,,,,シーアンドワイ,0
1798,3120001272359,新規,0,2025-01-29,2025-01-29,株式会社ＭＩＭ,,株式会社,大阪府,大阪市中央区,南本町４丁目３番１６号ブランズタワー２３０８号,,27,128,5410054,,,,,,,2025-01-29,1,,,,,エムアイエム,0
1799,3120001272383,新規,0,2025-01-29,2025-01-29,株式会社Ｌ．Ｃ．Ｐ．,,株式会社,大阪府,大阪市北区,梅田１丁目１番３号大阪駅前第３ビル２９階１－１－１号室,,27,127,5300001,,,,,,,2025-01-29,1,,,,,エルシーピー,0
1800,3120001272400,新規,0,2025-01-29,2025-01-29,株式会社ユーコーラル,,株式会社,大阪府,大阪市平野区,瓜破東３丁目８番２０号,,27,126,5470022,,,,,,,2025-01-29,1,,,,,ユーコーラル,0
1803,3120003028486,新規,0,2025-01-29,2025-01-29,Ａｓｔｒａｅａ．Ｌａｂ合同会社,,合同会社,大阪府,大阪市北区,梅田１丁目２番２号大阪駅前第２ビル１２‐１２,,27,127,5300001,,,,,,,2025-01-29,1,,,,,アストライアラボ,0
1805,3120005024764,新規,0,2025-01-29,2025-01-29,ソルビス税理士法人,,その他の設立登記法人,大阪府,大阪市北区,梅田１丁目３番１－４００号大阪駅前第１ビル４階１－１０７号,,27,127,5300001,,,,,,,2025-01-29,1,,,,,ソルビス,0
1942,3130001078887,新規,0,2025-01-29,2025-01-29,株式会社興禧,,株式会社,京都府,京都市上京区,一条通御前通東入西町２４番地ベラジオ雅び北野白梅町２０５,,26,102,6028371,,,,,,,2025-01-29,1,,,,,コウキ,0
1946,3140001137238,新規,0,2025-01-29,2025-01-29,株式会社オルキーナ,,株式会社,兵庫県,丹波篠山市,東吹１０９０番地１,,28,221,6692202,,,,,,,2025-01-29,1,,,,,オルキーナ,0
1947,3140003021596,新規,0,2025-01-29,2025-01-29,合同会社ＨＹＳ,,合同会社,兵庫県,西宮市,霞町３番５３－２号,,28,204,6620052,,,,,,,2025-01-29,1,,,,,エイチワイエス,0
1957,3180001165202,新規,0,2025-01-29,2025-01-29,株式会社ｙｏｎｇ,,株式会社,愛知県,名古屋市中区,栄３丁目８番１１６号２階,,23,106,4600008,,,,,,,2025-01-29,1,,,,,ヨン,0
1958,3180001165210,新規,0,2025-01-29,2025-01-29,株式会社ＭＹｐａｒｔｎｅｒｓ,,株式会社,愛知県,名古屋市中区,新栄２丁目８番４号－１００４,,23,106,4600007,,,,,,,2025-01-29,1,,,,,マイパートナーズ,0
1959,3180001165219,新規,0,2025-01-29,2025-01-29,株式会社レナセルパートナー,,株式会社,愛知県,名古屋市千種区,仲田２丁目１４番１６号Ｇ１ビル池下オフィス９Ｆ,,23,101,4640074,,,,,,,2025-01-29,1,,,,,レナセルパートナー,0
1960,3180001165235,新規,0,2025-01-29,2025-01-29,株式会社縁,,株式会社,愛知県,名古屋市緑区,南大高３丁目１０８番地フロレアルエクラージュ１０２号,,23,114,4598016,,,,,,,2025-01-29,1,,,,,エニシ,0
1973,3240001064455,新規,0,2025-01-29,2025-01-29,株式会社ＨｉＮＩＣ,,株式会社,広島県,広島市安佐南区,伴東４丁目１７番９－２０５号,,34,105,7313164,,,,,,,2025-01-29,1,,,,,ハイニク,0
1975,3250001020985,新規,0,2025-01-29,2025-01-29,株式会社キャリアプラン,,株式会社,山口県,宇部市,大字西岐波１６９０番地の２,,35,202,7550151,,,,,,,2025-01-29,1,,,,,キャリアプラン,0
1984,3290001108744,新規,0,2025-01-29,2025-01-29,株式会社Ｌｉｎｏ’ｓ,,株式会社,福岡県,福岡市中央区,天神２丁目２番１２号Ｔ＆Ｊビルディング７Ｆ,,40,133,8100001,,,,,,,2025-01-29,1,,,,,リノズ,0
1985,3290003016318,新規,0,2025-01-29,2025-01-29,合同会社たつみ,,合同会社,福岡県,久留米市,津福本町７７６番地５,,40,203,8300047,,,,,,,2025-01-29,1,,,,,タツミ,0
1988,3290801031237,新規,0,2025-01-29,2025-01-29,三合産業株式会社,,株式会社,福岡県,北九州市小倉北区,砂津２丁目６番１４号,,40,106,8020014,,,,,,,2025-01-29,1,,,,,サンゴウサンギョウ,0
1991,3300001014065,新規,0,2025-01-29,2025-01-29,株式会社サンライズホーム,,株式会社,佐賀県,佐賀市,川副町大字小々森４３０番地,,41,201,8402214,,,,,,,2025-01-29,1,,,,,サンライズホーム,0
1993,3310001019427,新規,0,2025-01-29,2025-01-29,株式会社室田,,株式会社,長崎県,雲仙市,吾妻町牛口名５９７番地１,,42,213,8591107,,,,,,,2025-01-29,1,,,,,ムロタ,0
2005,3360003014636,新規,0,2025-01-29,2025-01-29,ｏｃｔａ合同会社,,合同会社,沖縄県,那覇市,久米２丁目２３－６センターコートＩ－３０３,00137815,47,201,9000033,,,,,,,2025-01-29,1,,,,,オクタ,0
2007,3370001052166,新規,0,2025-01-29,2025-01-29,ＥＮＣＡＬＭ株式会社,,株式会社,宮城県,仙台市太白区,八本松１丁目１４－６－２,,04,104,9820001,,,,,,,2025-01-29,1,,,,,エンカアム,0
2008,3370001052190,新規,0,2025-01-29,2025-01-29,Ｅ‐ＳＴＹＬＥ株式会社,,株式会社,宮城県,柴田郡柴田町,船岡東３丁目７番２１号,,04,323,9891604,,,,,,,2025-01-29,1,,,,,イースタイル,0
2009,3370005010888,新規,0,2025-01-29,2025-01-29,一般社団法人なないろサポート,,その他の設立登記法人,宮城県,東松島市,矢本字大溜２２９番地５,,04,214,9810503,,,,,,,2025-01-29,1,,,,,ナナイロサポート,0
2016,3410001014046,新規,0,2025-01-29,2025-01-29,株式会社ＤＯＮ百姓,,株式会社,秋田県,横手市,大森町字大中島３８７番地,,05,203,0130514,,,,,,,2025-01-29,1,,,,,ドンビャクショウ,0
2019,3430001093567,新規,0,2025-01-29,2025-01-29,株式会社山鼻ベース,,株式会社,北海道,札幌市中央区,南二十一条西９丁目２番６号,,01,101,0640921,,,,,,,2025-01-29,1,,,,,ヤマハナベース,0
2020,3430001093583,新規,0,2025-01-29,2025-01-29,株式会社ＨＢＳホールディングス,,株式会社,北海道,札幌市厚別区,厚別中央三条６丁目３番１号,,01,108,0040053,,,,,,,2025-01-29,1,,,,,エイチビーエスホールディングス,0
2026,3460401001267,新規,0,2025-01-29,2025-01-29,デジタルニュースねむろ株式会社,,株式会社,北海道,根室市,昆布盛１４９番地１２,,01,223,0881784,,,,,,,2025-01-29,1,,,,,デジタルニュースネムロ,0
2043,4010001251661,新規,0,2025-01-29,2025-01-29,Ｈａｒｍｏｎｙ株式会社,,株式会社,東京都,文京区,千石４丁目２６－２－３Ｂ０６,,13,105,1120011,,,,,,,2025-01-29,1,,,,,ハーモニー,0
2044,4010001251752,新規,0,2025-01-29,2025-01-29,株式会社プロパティアドバイザーズ,,株式会社,東京都,中央区,銀座４丁目１２番２０号,,13,102,1040061,,,,,,,2025-01-29,1,,,,,プロパティアドバイザーズ,0
2045,4010001251802,新規,0,2025-01-29,2025-01-29,株式会社シエリー,,株式会社,東京都,中央区,日本橋中洲１番９－６１０号,,13,102,1030008,,,,,,,2025-01-29,1,,,,,シエリー,0
2046,4010001251827,新規,0,2025-01-29,2025-01-29,リ・シェル株式会社,,株式会社,東京都,中央区,日本橋小舟町９番１０号５０３室,,13,102,1030024,,,,,,,2025-01-29,1,,,,,リシェル,0
2055,4010003046044,新規,0,2025-01-29,2025-01-29,ＭＮキャピタルパートナーズ合同会社,,合同会社,東京都,中央区,日本橋２丁目１番１７号丹生ビル２階,,13,102,1030027,,,,,,,2025-01-29,1,,,,,エムエヌキャピタルパートナーズ,0
2056,4010003046201,新規,0,2025-01-29,2025-01-29,合同会社趣味屋,,合同会社,東京都,中央区,銀座７丁目１３番６号サガミビル２階,,13,102,1040061,,,,,,,2025-01-29,1,,,,,シュミヤ,0
2057,4010003046226,新規,0,2025-01-29,2025-01-29,合同会社ＧＸ　ＩＮＶＥＳＴＭＥＮＴ３号,,合同会社,東京都,中央区,京橋２丁目１２番６号ＡＯＪ税理士法人内,,13,102,1040031,,,,,,,2025-01-29,1,,,,,ジーエックスインベストメントサンゴウ,0
2070,4010601066633,新規,0,2025-01-29,2025-01-29,株式会社ＳＷＧ管理,,株式会社,東京都,江東区,東陽２丁目４番２号新宮ビル２階,,13,108,1350016,,,,,,,2025-01-29,1,,,,,エスダブリュージーカンリ,0
2072,4010603011348,新規,0,2025-01-29,2025-01-29,合同会社ＡＫＡＧＩ＆ｃｏｍｐａｎｙ,,合同会社,東京都,江東区,高橋１４－２０高柳ビル２階２０１号室,,13,108,1350005,,,,,,,2025-01-29,1,,,,,アカギアンドカンパニー,0
2076,4010901056672,新規,0,2025-01-29,2025-01-29,株式会社メルシーボク,,株式会社,東京都,世田谷区,豪徳寺１丁目５１番１５号スターレジデンス豪徳寺２０２,,13,112,1540021,,,,,,,2025-01-29,1,,,,,メルシーボク,0
2085,4011101110435,新規,0,2025-01-29,2025-01-29,ＷｉｎｄＷａｇｏｎ株式会社,,株式会社,東京都,新宿区,早稲田鶴巻町５７１番地９０１,,13,104,1620041,,,,,,,2025-01-29,1,,,,,ウインドワゴン,0
2086,4011101110443,新規,0,2025-01-29,2025-01-29,株式会社ＲｏＭｏＫｏ,,株式会社,東京都,新宿区,百人町１丁目１８番８号大久保カドビル２０４号室Ｎ０７,,13,104,1690073,,,,,,,2025-01-29,1,,,,,ロモコ,0
2091,4011201026060,新規,0,2025-01-29,2025-01-29,Ｔｏｋｙｏ　Ｄｒｉｆｔ　Ｅｘｐｏｒｔ株式会社,,株式会社,東京都,中野区,本町６丁目３５番１４の３０２室,,13,114,1640012,,,,,,,2025-01-29,1,,,,,トウキョウドリフトエクスポート,0
2092,4011203004584,新規,0,2025-01-29,2025-01-29,合同会社Ｋ９,,合同会社,東京都,中野区,上高田３丁目２９－４チェンバーコート２０２,,13,114,1640002,,,,,,,2025-01-29,1,,,,,ケーナイン,0
2093,4011203004592,新規,0,2025-01-29,2025-01-29,合同会社ｉｎｆｉｎｉｔｙ,,合同会社,東京都,中野区,本町６丁目１３番１０－７０３号,,13,114,1640012,,,,,,,2025-01-29,1,,,,,インフィニティ,0
2177,4011503006405,新規,0,2025-01-29,2025-01-29,ｎＴｘ合同会社,,合同会社,東京都,北区,赤羽台２丁目１番１９－６０４号,,13,117,1150053,,,,,,,2025-01-29,1,,,,,エヌティエックス,0
2185,4012401042707,新規,0,2025-01-29,2025-01-29,株式会社ナナテン,,株式会社,東京都,三鷹市,野崎１丁目２２番１５－１０２号,,13,204,1810014,,,,,,,2025-01-29,1,,,,,ナナテン,0
2186,4012401042715,新規,0,2025-01-29,2025-01-29,ＴＣＳＧ株式会社,,株式会社,東京都,多摩市,大字和田１４６４番地メゾン中和田３０１号室,,13,224,2060000,,,,,,,2025-01-29,1,,,,,ティーシーエスジー,0
2188,4012701018679,新規,0,2025-01-29,2025-01-29,株式会社Ｏｎｅ　ｉｓ　Ａｌｌ,,株式会社,東京都,小平市,小川町１丁目９３３－９６,,13,211,1870032,,,,,,,2025-01-29,1,,,,,ワンイズオール,0
2191,4013101009616,新規,0,2025-01-29,2025-01-29,Ａｙｏｎｚ　Ｊａｐａｎ株式会社,,株式会社,東京都,羽村市,神明台２丁目８番地１６,,13,227,2050023,,,,,,,2025-01-29,1,,,,,アイオンズジャパン,0
2197,4013301053587,新規,0,2025-01-29,2025-01-29,株式会社トップチェーン,,株式会社,東京都,豊島区,西池袋５丁目２６－１６ＣＨＩＢＡビル５１２室,,13,116,1710021,,,,,,,2025-01-29,1,,,,,トップチェーン,0
2381,4021001084349,新規,0,2025-01-29,2025-01-29,株式会社天福,,株式会社,神奈川県,綾瀬市,上土棚北３丁目２４－２,,14,218,2521111,,,,,,,2025-01-29,1,,,,,テンフク,0
2408,4030001164589,新規,0,2025-01-29,2025-01-29,株式会社ＨＥＡ．,,株式会社,埼玉県,さいたま市大宮区,土手町１丁目４６番地１ライオンズプラザ大宮６１２,,11,103,3300801,,,,,,,2025-01-29,1,,,,,エイチイーエー,0
2412,4040001137164,新規,0,2025-01-29,2025-01-29,株式会社ＴＨＥ　ＭＯＳＳ　ＲＯＣＫ,,株式会社,千葉県,市川市,南行徳３丁目２４番１－１１４号,,12,203,2720138,,,,,,,2025-01-29,1,,,,,ザモスロック,0
2413,4040001137206,新規,0,2025-01-29,2025-01-29,株式会社ビルド,,株式会社,千葉県,柏市,北柏２丁目１３番地３,,12,217,2770832,,,,,,,2025-01-29,1,,,,,ビルド,0
2415,4040003026729,新規,0,2025-01-29,2025-01-29,合同会社ＤＭ２８号,,合同会社,千葉県,柏市,柏４丁目５番１０号,,12,217,2770005,,,,,,,2025-01-29,1,,,,,ディーエムニジュウハチゴウ,0
2417,4050001056082,新規,0,2025-01-29,2025-01-29,株式会社ピカワン,,株式会社,茨城県,土浦市,上高津１７１１番地５,,08,203,3000811,,,,,,,2025-01-29,1,,,,,ピカワン,0
2418,4050001056090,新規,0,2025-01-29,2025-01-29,ＵＳＩ工業株式会社,,株式会社,茨城県,ひたちなか市,平磯町５３４９番地５,,08,221,3111203,,,,,,,2025-01-29,1,,,,,ユーエスアイコウギョウ,0
2421,4060001037874,新規,0,2025-01-29,2025-01-29,元睦株式会社,,株式会社,栃木県,宇都宮市,中河原町１－７,,09,201,3200815,,,,,,,2025-01-29,1,,,,,ゲンム,0
2428,4080101025281,新規,0,2025-01-29,2025-01-29,ＭＫ機工株式会社,,株式会社,静岡県,沼津市,豊町３番地の２６,,22,203,4100018,,,,,,,2025-01-29,1,,,,,エムケイキコウ,0
2430,4080401027713,新規,0,2025-01-29,2025-01-29,エコサービスはままつ株式会社,,株式会社,静岡県,浜松市中央区,布橋２丁目６番１号,,22,138,4328012,,,,,,,2025-01-29,1,,,,,エコサービスハママツ,0
2433,4100001038249,新規,0,2025-01-29,2025-01-29,農業生産法人株式会社ライラック農園,,株式会社,長野県,下伊那郡松川町,大島３４１８番地,,20,402,3993304,,,,,,,2025-01-29,1,,,,,ノウギョウセイサンホウジンライラックノウエン,0
2444,4120001272052,新規,0,2025-01-29,2025-01-29,株式会社クニタカ,,株式会社,大阪府,大阪市福島区,鷺洲４丁目３番２３－１１０７号,,27,103,5530002,,,,,,,2025-01-29,1,,,,,クニタカ,0
2445,4120001272325,新規,0,2025-01-29,2025-01-29,株式会社フォーディックス,,株式会社,大阪府,枚方市,池之宮２丁目５番１－４１２号,,27,210,5730005,,,,,,,2025-01-29,1,,,,,フォーディックス,0
2446,4120001272333,新規,0,2025-01-29,2025-01-29,株式会社アウトスタンディングス,,株式会社,大阪府,大阪市平野区,加美北５丁目１０番１号,,27,126,5470001,,,,,,,2025-01-29,1,,,,,アウトスタンディングス,0
2447,4120001272374,新規,0,2025-01-29,2025-01-29,ＳＩＭＬＡＢ　Ｓｏｌｕｔｉｏｎｓ株式会社,,株式会社,大阪府,大阪市中央区,南久宝寺町４丁目５番６号３階,,27,128,5410058,,,,,,,2025-01-29,1,,,,,シムラボソリューションズ,0
2448,4120001272399,新規,0,2025-01-29,2025-01-29,株式会社ｉｒｏｈａ,,株式会社,大阪府,大阪市阿倍野区,阿倍野筋３丁目１０番１号,,27,119,5450052,,,,,,,2025-01-29,1,,,,,イロハ,0
2449,4120001272408,新規,0,2025-01-29,2025-01-29,株式会社Ｂｕｉｌ’ｓ,,株式会社,大阪府,枚方市,春日野２丁目１４番１４号,,27,210,5730131,,,,,,,2025-01-29,1,,,,,ビルス,0
2450,4120001272416,新規,0,2025-01-29,2025-01-29,株式会社ＩＳＥＩＫＡＩ,,株式会社,大阪府,大阪市北区,西天満４丁目１１番２３号,,27,127,5300047,,,,,,,2025-01-29,1,,,,,イセイカイ,0
2451,4120001272424,新規,0,2025-01-29,2025-01-29,ＸＩＮＡＮ株式会社,,株式会社,大阪府,大阪市西成区,花園北１丁目６－１５－２０１室,,27,122,5570016,,,,,,,2025-01-29,1,,,,,シンアン,0
2455,4120003028452,新規,0,2025-01-29,2025-01-29,合同会社ケンショウシャ,,合同会社,大阪府,大阪市都島区,都島本通５丁目１２番１９号,,27,102,5340021,,,,,,,2025-01-29,1,,,,,ケンショウシャ,0
2456,4120005024747,新規,0,2025-01-29,2025-01-29,特定非営利活動法人ママの居場所作り隊,,その他の設立登記法人,大阪府,大阪市此花区,西九条１丁目９番１４号,,27,104,5540012,,,,,,,2025-01-29,1,,,,,ママノイバショツクリタイ,0
2585,4120903005526,新規,0,2025-01-29,2025-01-29,合同会社ＤＣ,,合同会社,大阪府,吹田市,南吹田５丁目６番１８－１０１号,,27,205,5640043,,,,,,,2025-01-29,1,,,,,デイシー,0
2588,4122005003805,新規,0,2025-01-29,2025-01-29,医療法人まえだ歯科クリニック,,その他の設立登記法人,大阪府,東大阪市,南荘町５番１４号,,27,227,5798024,,,,,,,2025-01-29,1,,,,,マエダシカクリニック,0
2599,4140001137212,新規,0,2025-01-29,2025-01-29,株式会社光恵,,株式会社,兵庫県,三木市,志染町西自由が丘１丁目６７５番地の２,,28,215,6730551,,,,,,,2025-01-29,1,,,,,ヒカリエ,0
2600,4140001137229,新規,0,2025-01-29,2025-01-29,一二三株式会社,,株式会社,兵庫県,西宮市,苦楽園四番町１６番３１号,,28,204,6620088,,,,,,,2025-01-29,1,,,,,ヒフミ,0
2605,4140005027368,新規,0,2025-01-29,2025-01-29,特定非営利活動法人まごころ日和,,その他の設立登記法人,兵庫県,神戸市垂水区,名谷町字加市２０６７アプローズ１０６号,,28,108,6550852,,,,,,,2025-01-29,1,,,,,マゴコロビヨリ,0
2621,4180003027928,新規,0,2025-01-29,2025-01-29,合同会社渡邉会計,,合同会社,愛知県,名古屋市中村区,名駅３丁目３番２号,,23,105,4500002,,,,,,,2025-01-29,1,,,,,ワタナベカイケイ,0
2623,4180005020930,新規,0,2025-01-29,2025-01-29,一般社団法人名古屋大学アメリカンフットボール部ＧＲＡＭＰＵＳ,,その他の設立登記法人,愛知県,名古屋市昭和区,宮東町２７９番地,,23,107,4660804,,,,,,,2025-01-29,1,,,,,ナゴヤダイガクアメリカンフットボールブグランパス,0
2624,4180301039468,新規,0,2025-01-29,2025-01-29,ｉｄｅｓａｎ株式会社,,株式会社,愛知県,豊田市,小手沢町札ノ前９番地１,,23,211,4442533,,,,,,,2025-01-29,1,,,,,イデサン,0
2625,4180301039476,新規,0,2025-01-29,2025-01-29,株式会社ＡＰＩＳ,,株式会社,愛知県,豊橋市,駅前大通３丁目４７番地２,,23,201,4400888,,,,,,,2025-01-29,1,,,,,アピス,0
2631,4190001031963,新規,0,2025-01-29,2025-01-29,株式会社Ｓｅｖｅｎ　Ｌｉｍｉｔｅｄ,,株式会社,三重県,鈴鹿市,郡山町６６３‐７８５,,24,207,5100263,,,,,,,2025-01-29,1,,,,,セブンリミテッド,0
2632,4200001043387,新規,0,2025-01-29,2025-01-29,株式会社栄興,,株式会社,岐阜県,大垣市,島里１丁目９５番地５,,21,202,5030935,,,,,,,2025-01-29,1,,,,,エイコウ,0
2639,4220001026456,新規,0,2025-01-29,2025-01-29,株式会社藤建,,株式会社,石川県,野々市市,押野４丁目３２４番地,,17,212,9218802,,,,,,,2025-01-29,1,,,,,トウケン,0
2651,4240001064454,新規,0,2025-01-29,2025-01-29,株式会社日本補助金機構,,株式会社,広島県,福山市,東陽台２丁目２９番５号,,34,207,7210912,,,,,,,2025-01-29,1,,,,,ニホンホジョキンキコウ,0
2658,4260005011442,新規,0,2025-01-29,2025-01-29,一般社団法人ＨｅａｌｔｈＴｅｃｈＨｕｂ中四国,,その他の設立登記法人,岡山県,岡山市北区,東古松１丁目１４番７号７０３号,,33,101,7000921,,,,,,,2025-01-29,1,,,,,ヘルステックハブチュウシコク,0
2660,4280005007645,新規,0,2025-01-29,2025-01-29,医療法人ＬＵＮＡ八重垣レディースクリニック,,その他の設立登記法人,島根県,松江市,東出雲町意宇南５丁目４－２,,32,201,6990111,,,,,,,2025-01-29,1,,,,,ルナヤエガキレディースクリニック,0
2664,4290001108735,新規,0,2025-01-29,2025-01-29,株式会社ＧＯＬＦＵＳＩＯＮ,,株式会社,福岡県,福岡市博多区,店屋町２番２９号,,40,132,8120025,,,,,,,2025-01-29,1,,,,,ゴルフュージョン,0
2669,4290003016333,新規,0,2025-01-29,2025-01-29,合同会社共生,,合同会社,福岡県,福岡市東区,香椎２丁目２０－９,,40,131,8130011,,,,,,,2025-01-29,1,,,,,キョウセイ,0
2670,4290005019631,新規,0,2025-01-29,2025-01-29,特定非営利活動法人はぐもぐ,,その他の設立登記法人,福岡県,福岡市中央区,天神１丁目１番１号,,40,133,8100001,,,,,,,2025-01-29,1,,,,,ハグモグ,0
2685,4400003003385,新規,0,2025-01-29,2025-01-29,合同会社ＴＭＣ,,合同会社,岩手県,盛岡市,本宮１丁目２９番１５号ヒルズレジデンシャルＢ１０３号,,03,201,0200866,,,,,,,2025-01-29,1,,,,,ティーエムシー,0
2696,4500001026106,新規,0,2025-01-29,2025-01-29,健聖通商株式会社,,株式会社,愛媛県,四国中央市,三島宮川１丁目６番２７号,,38,213,7990404,,,,,,,2025-01-29,1,,,,,ケンセイツウショウ,0
2697,4500001026114,新規,0,2025-01-29,2025-01-29,ソノリス株式会社,,株式会社,愛媛県,新居浜市,坂井町２丁目２番１８号,,38,205,7920812,,,,,,,2025-01-29,1,,,,,ソノリス,0
2717,5010001251792,新規,0,2025-01-29,2025-01-29,株式会社ＩＲＯＨＡ,,株式会社,東京都,中央区,銀座３丁目１２番１１号４Ｆ,,13,102,1040061,,,,,,,2025-01-29,1,,,,,イロハ,0
2718,5010001251801,新規,0,2025-01-29,2025-01-29,イエローシードラビー株式会社,,株式会社,東京都,中央区,日本橋３丁目２番１４号,,13,102,1030027,,,,,,,2025-01-29,1,,,,,イエローシードラビー,0
2719,5010001251850,新規,0,2025-01-29,2025-01-29,セブンキャピタル株式会社,,株式会社,東京都,中央区,銀座７丁目４番１２号銀座メディカルビル４階,,13,102,1040061,,,,,,,2025-01-29,1,,,,,セブンキャピタル,0
2720,5010001251859,新規,0,2025-01-29,2025-01-29,株式会社フォーワード,,株式会社,東京都,中央区,日本橋人形町３丁目７番１０号日本橋ＤＯＬＬ－３、２Ｆ,,13,102,1030013,,,,,,,2025-01-29,1,,,,,フォーワード,0
2721,5010001251875,新規,0,2025-01-29,2025-01-29,株式会社ＴＨＥ　ＦＯＯＤＳ,,株式会社,東京都,中央区,日本橋蛎殻町２丁目１１番２号,,13,102,1030014,,,,,,,2025-01-29,1,,,,,ザフーズ,0
2724,5010003045953,新規,0,2025-01-29,2025-01-29,ライフスタイル合同会社,,合同会社,東京都,中央区,銀座１丁目１２番４号Ｎ＆Ｅビル６階,,13,102,1040061,,,,,,,2025-01-29,1,,,,,ライフスタイル,0
2725,5010003046217,新規,0,2025-01-29,2025-01-29,あいどな合同会社,,合同会社,東京都,中央区,八重洲２丁目１番１号ＹＡＮＭＡＲ・ＴＯＫＹＯ１２階,,13,102,1040028,,,,,,,2025-01-29,1,,,,,アイドナ,0
2726,5010003046225,新規,0,2025-01-29,2025-01-29,合同会社ＧＸ　ＩＮＶＥＳＴＭＥＮＴ２号,,合同会社,東京都,中央区,京橋２丁目１２番６号ＡＯＪ税理士法人内,,13,102,1040031,,,,,,,2025-01-29,1,,,,,ジーエックスインベストメントニゴウ,0
2727,5010003046233,新規,0,2025-01-29,2025-01-29,Ｓ‐Ｐｏｗｅｒ東京３合同会社,,合同会社,東京都,中央区,日本橋１丁目４番１号,,13,102,1030027,,,,,,,2025-01-29,1,,,,,エスパワートウキョウサン,0
2740,5010601066632,新規,0,2025-01-29,2025-01-29,株式会社ＳＷＳ管理,,株式会社,東京都,江東区,東陽２丁目４番２号新宮ビル２階,,13,108,1350016,,,,,,,2025-01-29,1,,,,,エスダブリューエスカンリ,0
2744,5010701047152,新規,0,2025-01-29,2025-01-29,株式会社ウェルサブ,,株式会社,東京都,品川区,西大井３丁目６－１１－Ｃ,,13,109,1400015,,,,,,,2025-01-29,1,,,,,ウェルサブ,0
2745,5010701047160,新規,0,2025-01-29,2025-01-29,株式会社ｒｉｖｅｒ,,株式会社,東京都,品川区,上大崎３丁目２番１号,,13,109,1410021,,,,,,,2025-01-29,1,,,,,リバー,0
2746,5010701047177,新規,0,2025-01-29,2025-01-29,Ａｍｏｖａｉｒ株式会社,,株式会社,東京都,品川区,東大井３丁目２０番３０号,,13,109,1400011,,,,,,,2025-01-29,1,,,,,,0
2749,5010901056738,新規,0,2025-01-29,2025-01-29,株式会社みずいろ,,株式会社,東京都,世田谷区,砧６丁目２３番１１号,,13,112,1570073,,,,,,,2025-01-29,1,,,,,ミズイロ,0
2753,5010905004726,新規,0,2025-01-29,2025-01-29,一般社団法人ＡＳＯＢＩ,,その他の設立登記法人,東京都,世田谷区,松原４丁目８番１０号２０１,,13,112,1560043,,,,,,,2025-01-29,1,,,,,アソビ,0
2764,5011003020855,新規,0,2025-01-29,2025-01-29,合同会社サニー,,合同会社,東京都,渋谷区,東京都渋谷区渋谷２―１９―１５宮益坂ビルディング６０９,,13,113,1500000,,,,,,,2025-01-29,1,,,,,サニー,0
2769,5011101110401,新規,0,2025-01-29,2025-01-29,ＡｉｄＵ株式会社,,株式会社,東京都,新宿区,中落合２丁目４番１６号,,13,104,1610032,,,,,,,2025-01-29,1,,,,,エイドユー,0
2770,5011101110418,新規,0,2025-01-29,2025-01-29,株式会社Ｎｅｘｔ　Ｂｌｏｏｍ,,株式会社,東京都,新宿区,西新宿３丁目３番１３号西新宿水間ビル６階,,13,104,1600023,,,,,,,2025-01-29,1,,,,,ネクストブルーム,0
2772,5011105011307,新規,0,2025-01-29,2025-01-29,一般社団法人Ｆｕｔｓａｌ　Ｃｌｕｂ　Ｒｅｇａｌｏ,,その他の設立登記法人,東京都,新宿区,西新宿３丁目３番１３号西新宿水間ビル２Ｆ,,13,104,1600023,,,,,,,2025-01-29,1,,,,,フットサルクラブリガロ,0
2848,5011401026768,新規,0,2025-01-29,2025-01-29,株式会社創敬,,株式会社,東京都,板橋区,坂下２丁目１番２３－７０３号,,13,119,1740043,,,,,,,2025-01-29,1,,,,,ソウケイ,0
2849,5011401026776,新規,0,2025-01-29,2025-01-29,株式会社Ｅｖｏｌｕｔｉｏｎ　ａｎｄ　Ｃｈａｎｇｅ,,株式会社,東京都,板橋区,中丸町１１番２号ワコーレ要町ビル８Ｆ,,13,119,1730026,,,,,,,2025-01-29,1,,,,,エヴォリューションアンドチェンジ,0
2850,5011403004598,新規,0,2025-01-29,2025-01-29,合同会社ｌｕｘ　ｃｈｒｏｎｏｓ,,合同会社,東京都,板橋区,大山金井町５３番７号,,13,119,1730024,,,,,,,2025-01-29,1,,,,,ルックスクロノス,0
2853,5011503006404,新規,0,2025-01-29,2025-01-29,合同会社やどりん,,合同会社,東京都,荒川区,町屋２丁目１６番１０－２０１号,,13,118,1160001,,,,,,,2025-01-29,1,,,,,ヤドリン,0
2857,5011801045541,新規,0,2025-01-29,2025-01-29,株式会社プルエッジリンクス,,株式会社,東京都,足立区,千住１丁目２３－１４大倭ビル５０２,,13,121,1200034,,,,,,,2025-01-29,1,,,,,プルエッジリンクス,0
2861,5012401042714,新規,0,2025-01-29,2025-01-29,株式会社のいにかち,,株式会社,東京都,府中市,分梅町１丁目１７番地の２４,,13,206,1830033,,,,,,,2025-01-29,1,,,,,,0
2862,5012701018678,新規,0,2025-01-29,2025-01-29,ピュアバブル株式会社,,株式会社,東京都,小平市,天神町１丁目１５番１－７０３号,,13,211,1870004,,,,,,,2025-01-29,1,,,,,ピュアバブル,0
2864,5013303007508,新規,0,2025-01-29,2025-01-29,合同会社スカイリンク,,合同会社,東京都,豊島区,巣鴨５丁目１５番１４号ヴィレスト巣鴨２０５号,,13,116,1700002,,,,,,,2025-01-29,1,,,,,スカイリンク,0
3079,5030001164571,新規,0,2025-01-29,2025-01-29,ホープフルホーム株式会社,,株式会社,埼玉県,三郷市,鷹野３丁目２８番地４,,11,237,3410035,,,,,,,2025-01-29,1,,,,,ホープフルホーム,0
3080,5030001164588,新規,0,2025-01-29,2025-01-29,株式会社Ｇｌｕｃｋ,,株式会社,埼玉県,越谷市,レイクタウン５丁目１２番地２－２１８号,,11,222,3430828,,,,,,,2025-01-29,1,,,,,グリュック,0
3081,5030001164596,新規,0,2025-01-29,2025-01-29,ガーデンフィールド株式会社,,株式会社,埼玉県,戸田市,上戸田１丁目１２番１５号,,11,224,3350022,,,,,,,2025-01-29,1,,,,,ガーデンフィールド,0
3082,5030003025961,新規,0,2025-01-29,2025-01-29,合同会社トワイズム,,合同会社,埼玉県,さいたま市見沼区,春岡１丁目５番地８春岡ドリームハウスＡ棟,,11,104,3370008,,,,,,,2025-01-29,1,,,,,トワイズム,0
3083,5030005022016,新規,0,2025-01-29,2025-01-29,一般社団法人埼玉県雇用対策協議会,,その他の設立登記法人,埼玉県,さいたま市大宮区,桜木町１丁目７番地５,,11,103,3300854,,,,,,,2025-01-29,1,,,,,サイタマケンコヨウタイサクキョウギカイ,0
3090,5040001137155,新規,0,2025-01-29,2025-01-29,袖ケ浦コンサル株式会社,,株式会社,千葉県,袖ケ浦市,上泉１２０５番地９７,,12,229,2990205,,,,,,,2025-01-29,1,,,,,ソデガウラコンサル,0
3091,5040001137163,新規,0,2025-01-29,2025-01-29,ＫＳＫ株式会社,,株式会社,千葉県,千葉市稲毛区,園生町６２９番地３,,12,103,2630051,,,,,,,2025-01-29,1,,,,,ケイエスケイ,0
3092,5040001137205,新規,0,2025-01-29,2025-01-29,ＡＶＩＯＲ株式会社,,株式会社,千葉県,千葉市中央区,中央２丁目３－１６千葉センタースクエアビル５階,,12,101,2600013,,,,,,,2025-01-29,1,,,,,アヴィオール,0
3094,5040003026728,新規,0,2025-01-29,2025-01-29,合同会社ＤＭ２７号,,合同会社,千葉県,柏市,柏４丁目５番１０号,,12,217,2770005,,,,,,,2025-01-29,1,,,,,ディーエムニジュウナナゴウ,0
3095,5040005022650,新規,0,2025-01-29,2025-01-29,医療法人社団瑛心会,,その他の設立登記法人,千葉県,松戸市,常盤平１丁目８番地２階,,12,207,2702261,,,,,,,2025-01-29,1,,,,,エイシンカイ,0
3122,5120001272349,新規,0,2025-01-29,2025-01-29,株式会社さきざき,,株式会社,大阪府,大阪市北区,梅田１丁目１番３号大阪駅前第３ビル２９階１－１－１号室,,27,127,5300001,,,,,,,2025-01-29,1,,,,,サキザキ,0
3123,5120001272357,新規,0,2025-01-29,2025-01-29,思源株式会社,,株式会社,大阪府,大阪市旭区,中宮２丁目１９番５号ルベール公園前５０３号,,27,117,5350003,,,,,,,2025-01-29,1,,,,,シゲン,0
3124,5120001272373,新規,0,2025-01-29,2025-01-29,ＰＨ　ＭｅｄＴｅｃｈ株式会社,,株式会社,大阪府,大阪市中央区,南久宝寺町４丁目５番６号３階,,27,128,5410058,,,,,,,2025-01-29,1,,,,,ピーエイチメドテック,0
3125,5120001272381,新規,0,2025-01-29,2025-01-29,真屋商会株式会社,,株式会社,大阪府,大阪市平野区,長吉川辺２丁目１番５２号,,27,126,5470014,,,,,,,2025-01-29,1,,,,,マヤショウカイ,0
3126,5120001272398,新規,0,2025-01-29,2025-01-29,株式会社リスタル,,株式会社,大阪府,大阪市中央区,南船場３丁目８番７号,,27,128,5420081,,,,,,,2025-01-29,1,,,,,リスタル,0
3127,5120001272415,新規,0,2025-01-29,2025-01-29,晃大株式会社,,株式会社,大阪府,大阪市生野区,桃谷５丁目７番１６号,,27,116,5440034,,,,,,,2025-01-29,1,,,,,コウダイ,0
3128,5120001272423,新規,0,2025-01-29,2025-01-29,株式会社アシストセールス,,株式会社,大阪府,大阪市中央区,瓦町３丁目３番１６号ＯＷＬ瓦町ビル４階,,27,128,5410048,,,,,,,2025-01-29,1,,,,,アシストセールス,0
3130,5120003028484,新規,0,2025-01-29,2025-01-29,ｌａｇｅｍａｙｏ合同会社,,合同会社,大阪府,大阪市西区,江戸堀１丁目１９番２号ラインビルド肥後橋２０６号室,,27,106,5500002,,,,,,,2025-01-29,1,,,,,ラジェマヨ,0
3131,5120003028501,新規,0,2025-01-29,2025-01-29,合同会社Ｄｅｌｉｃｌｉｃｋ,,合同会社,大阪府,大阪市平野区,長吉六反５丁目６―４,,27,126,5470012,,,,,,,2025-01-29,1,,,,,デリクリック,0
3134,5120101070982,新規,0,2025-01-29,2025-01-29,華宸商事株式会社,,株式会社,大阪府,泉南郡岬町,望海坂２丁目３－３,,27,366,5990304,,,,,,,2025-01-29,1,,,,,カシンショウジ,0
3136,5120103006258,新規,0,2025-01-29,2025-01-29,合同会社ウィング,,合同会社,大阪府,和泉市,はつが野３丁目２１－４,,27,219,5941106,,,,,,,2025-01-29,1,,,,,ウィング,0
3285,5120903005525,新規,0,2025-01-29,2025-01-29,マルフク精工合同会社,,合同会社,大阪府,豊中市,千成町２丁目２番２３－６０９号,,27,203,5610829,,,,,,,2025-01-29,1,,,,,マルフクセイコウ,0
3287,5122001038861,新規,0,2025-01-29,2025-01-29,株式会社Ｍｅｉ,,株式会社,大阪府,四條畷市,岡山２丁目２０－９,,27,229,5750002,,,,,,,2025-01-29,1,,,,,メイ,0
3289,5130001078893,新規,0,2025-01-29,2025-01-29,株式会社ＺＵＵＮ,,株式会社,京都府,京都市上京区,東三本木通丸太町上る上之町４９３番地１－Ｂ号,,26,102,6020863,,,,,,,2025-01-29,1,,,,,ズーン,0
3293,5140001137194,新規,0,2025-01-29,2025-01-29,株式会社スパークプラグ,,株式会社,兵庫県,美方郡新温泉町,芦屋１００,,28,586,6696701,,,,,,,2025-01-29,1,,,,,スパークプラグ,0
3294,5140001137203,新規,0,2025-01-29,2025-01-29,株式会社ツーナイン,,株式会社,兵庫県,神戸市中央区,下山手通２丁目１３番３号建創ビル８１５号,,28,110,6500011,,,,,,,2025-01-29,1,,,,,ツーナイン,0
3295,5140001137211,新規,0,2025-01-29,2025-01-29,株式会社Ｋｏｎｙ,,株式会社,兵庫県,神戸市東灘区,西岡本３丁目１６番３号,,28,101,6580073,,,,,,,2025-01-29,1,,,,,コニー,0
3297,5160001026511,新規,0,2025-01-29,2025-01-29,株式会社ｔｗｏ‐ｓｅｖｅｎ,,株式会社,滋賀県,東近江市,上大森町１１０７番地,,25,213,5270062,,,,,,,2025-01-29,1,,,,,ツーセブン,0
3301,5170005007127,新規,0,2025-01-29,2025-01-29,医療法人ＫＡＹ　ＣＬＩＮＩＣ,,その他の設立登記法人,和歌山県,和歌山市,小雑賀３丁目３番１４号,,30,201,6410007,,,,,,,2025-01-29,1,,,,,ケイクリニック,0
3307,5180001165159,新規,0,2025-01-29,2025-01-29,株式会社いえとそと屋,,株式会社,愛知県,名古屋市中区,大須３丁目３０番２５号,,23,106,4600011,,,,,,,2025-01-29,1,,,,,イエトソトヤ,0
3310,5180003027910,新規,0,2025-01-29,2025-01-29,如月屋合同会社,,合同会社,愛知県,清須市,鍋片１丁目１４０プラシード１－３０３,,23,233,4520907,,,,,,,2025-01-29,1,,,,,キサラギヤ,0
3314,5190003004925,新規,0,2025-01-29,2025-01-29,合同会社ＨＡＭ,,合同会社,三重県,四日市市,大矢知町３２８番地５,,24,202,5108034,,,,,,,2025-01-29,1,,,,,ハム,0
3319,5200001043394,新規,0,2025-01-29,2025-01-29,加藤商事株式会社,,株式会社,岐阜県,岐阜市,城田寺１３４６番地,,21,201,5020859,,,,,,,2025-01-29,1,,,,,カトウショウジ,0
3330,5240003007039,新規,0,2025-01-29,2025-01-29,合同会社開隆,,合同会社,広島県,神石郡神石高原町,上豊松６４７６番地８,,34,545,7201702,,,,,,,2025-01-29,1,,,,,カイリュウ,0
3337,5260001039858,新規,0,2025-01-29,2025-01-29,ＴｈｉｎｋＣｏａｔｅｒ株式会社,,株式会社,岡山県,井原市,井原町１１３１番地１,,33,207,7150019,,,,,,,2025-01-29,1,,,,,シンクコーター,0
3341,5290001108734,新規,0,2025-01-29,2025-01-29,株式会社Ｓｙｕｐｒｏ,,株式会社,福岡県,福岡市博多区,上川端町１４番２０号チュリス川端１１０４号,,40,132,8120026,,,,,,,2025-01-29,1,,,,,シュプロ,0
3342,5290001108767,新規,0,2025-01-29,2025-01-29,株式会社柚光,,株式会社,福岡県,福岡市博多区,比恵町１０番１号,,40,132,8120014,,,,,,,2025-01-29,1,,,,,ユカリ,0
3348,5290801031235,新規,0,2025-01-29,2025-01-29,株式会社Ａｃｅ,,株式会社,福岡県,北九州市小倉南区,上吉田６丁目９番２５号,,40,107,8000201,,,,,,,2025-01-29,1,,,,,エース,0
3351,5300003002223,新規,0,2025-01-29,2025-01-29,合同会社Ｗｅａｒ　ｃｏｎｆｉｄｅｎｃｅ,,合同会社,佐賀県,神埼郡吉野ヶ里町,豆田２６７７－１,,41,327,8420033,,,,,,,2025-01-29,1,,,,,ウェアーコンフィデンス,0
3354,5330001032839,新規,0,2025-01-29,2025-01-29,株式会社エヌティ・ウェブデザイン,,株式会社,熊本県,熊本市中央区,平成３丁目１５番５号,,43,101,8600833,,,,,,,2025-01-29,1,,,,,エヌティウェブデザイン,0
3356,5340001027086,新規,0,2025-01-29,2025-01-29,株式会社ＣＡＰＴＡＩＮ’Ｓ　ＡＮＧＥＬ,,株式会社,鹿児島県,鹿児島市,中央町２８番地１０－２０１号,,46,201,8900053,,,,,,,2025-01-29,1,,,,,キャプテンズエンジェル,0
3357,5340001027094,新規,0,2025-01-29,2025-01-29,株式会社ランブリッジ不動産管理,,株式会社,鹿児島県,鹿児島市,下荒田１丁目３５番２１号,,46,201,8900056,,,,,,,2025-01-29,1,,,,,ランブリッジフドウサンカンリ,0
3365,5370001052189,新規,0,2025-01-29,2025-01-29,吉田株式会社,,株式会社,宮城県,登米市,中田町石森字本町７７番地１ライフタウンゆざわＦ棟,,04,212,9870601,,,,,,,2025-01-29,1,,,,,ヨシダ,0
3366,5370003006903,新規,0,2025-01-29,2025-01-29,ＹＫ．ｓｔｙｌｅ合同会社,,合同会社,宮城県,大崎市,三本木伊場野字勅使１４８番地２,,04,215,9896303,,,,,,,2025-01-29,1,,,,,ワイケースタイル,0
3367,5370005010903,新規,0,2025-01-29,2025-01-29,一般社団法人ものうＧＨＩＢＬＩ,,その他の設立登記法人,宮城県,石巻市,桃生町寺崎字新町２９番地１,,04,202,9860314,,,,,,,2025-01-29,1,,,,,モノウギブリ,0
3370,5380001035069,新規,0,2025-01-29,2025-01-29,株式会社ｏｉｋａｚｅ,,株式会社,福島県,郡山市,富久山町久保田字郷花７番地の３,,07,203,9638071,,,,,,,2025-01-29,1,,,,,オイカゼ,0
3373,5400001016925,新規,0,2025-01-29,2025-01-29,ＰＨＣ奥州株式会社,,株式会社,岩手県,奥州市,水沢字横町１６５番地コーポ小原１階,,03,215,0230801,,,,,,,2025-01-29,1,,,,,ピーエイチシーオウシュウ,0
3374,5420005007943,新規,0,2025-01-29,2025-01-29,一般社団法人いずみ社会福祉士事務所,,その他の設立登記法人,青森県,十和田市,西一番町１２番１７号,,02,206,0340092,,,,,,,2025-01-29,1,,,,,イズミシャカイフクシシジムショ,0
3376,5430001093565,新規,0,2025-01-29,2025-01-29,株式会社ｍｉｒａｉＷｏｒｋｓ,,株式会社,北海道,札幌市白石区,本通２丁目北７－２７－７０１,,01,104,0030027,,,,,,,2025-01-29,1,,,,,ミライワークス,0
3385,5490003001974,新規,0,2025-01-29,2025-01-29,合同会社Ｍｉｃｈｅｌｌｅ　Ｌａｂ,,合同会社,高知県,高知市,杉井流１３－２９,,39,201,7800072,,,,,,,2025-01-29,1,,,,,,0
3386,5500001026121,新規,0,2025-01-29,2025-01-29,株式会社ｃｏｔｏｒｉ　ｃｏｔｏｒｉ,,株式会社,愛媛県,伊予郡砥部町,川登３０３番地,,38,402,7912143,,,,,,,2025-01-29,1,,,,,コトリコトリ,0
3403,6010001251107,新規,0,2025-01-29,2025-01-29,株式会社Ｏｎｅ　ｆｅａｔ．,,株式会社,東京都,千代田区,神田和泉町１番地６－１６ヤマトビル４０５,,13,101,1010024,,,,,,,2025-01-29,1,,,,,ワンフィート,0
3404,6010001251800,新規,0,2025-01-29,2025-01-29,株式会社フェイスアップ,,株式会社,東京都,中央区,新川２丁目１６番１０号プライムアーバン新川,,13,102,1040033,,,,,,,2025-01-29,1,,,,,フェイスアップ,0
3405,6010001251809,新規,0,2025-01-29,2025-01-29,Ｌｏｐ株式会社,,株式会社,東京都,中央区,銀座１丁目１２番４号Ｎ＆ＥＢＬＤ．７Ｆ,,13,102,1040061,,,,,,,2025-01-29,1,,,,,ロップ,0
3406,6010001251817,新規,0,2025-01-29,2025-01-29,ＡＲＫシステムズ株式会社,,株式会社,東京都,千代田区,九段南１丁目６番５号九段会館テラス,,13,101,1020074,,,,,,,2025-01-29,1,,,,,アークシステムズ,0
3407,6010001251825,新規,0,2025-01-29,2025-01-29,株式会社リンクス,,株式会社,東京都,千代田区,九段南１丁目６番５号,,13,101,1020074,,,,,,,2025-01-29,1,,,,,リンクス,0
3408,6010001251833,新規,0,2025-01-29,2025-01-29,株式会社１２３ミュージック,,株式会社,東京都,千代田区,霞が関１丁目４番１号日土地ビル１Ｆ,,13,101,1000013,,,,,,,2025-01-29,1,,,,,ワンツースリーミュージック,0
3409,6010001251858,新規,0,2025-01-29,2025-01-29,株式会社Ｅｎｇｏｏｎ,,株式会社,東京都,千代田区,五番町６番地２,,13,101,1020076,,,,,,,2025-01-29,1,,,,,エングーン,0
3410,6010001251908,新規,0,2025-01-29,2025-01-29,森株式会社,,株式会社,東京都,文京区,本郷６丁目２５番１４号,,13,105,1130033,,,,,,,2025-01-29,1,,,,,モリ,0
3415,6010003046216,新規,0,2025-01-29,2025-01-29,合同会社ＴＳＵＲＵ,,合同会社,東京都,中央区,日本橋室町１丁目１１番１２号　日本橋水野ビル７階,,13,102,1030022,,,,,,,2025-01-29,1,,,,,ツル,0
3416,6010003046224,新規,0,2025-01-29,2025-01-29,合同会社ワールドワイド・コネクト,,合同会社,東京都,中央区,日本橋横山町５番１３号,,13,102,1030003,,,,,,,2025-01-29,1,,,,,ワールドワイドコネクト,0
3427,6010603011338,新規,0,2025-01-29,2025-01-29,ヘルスケアＰＥＳサポート合同会社,,合同会社,東京都,江東区,白河１丁目７－１８－１４０８,,13,108,1350021,,,,,,,2025-01-29,1,,,,,ヘルスケアペスサポート,0
3428,6010603011354,新規,0,2025-01-29,2025-01-29,合同会社山喜屋,,合同会社,東京都,江東区,亀戸７丁目６３番３－４１９号,,13,108,1360071,,,,,,,2025-01-29,1,,,,,ヤマキヤ,0
3429,6010701047168,新規,0,2025-01-29,2025-01-29,株式会社Ｔｏｔａｌ,,株式会社,東京都,品川区,平塚２丁目４番４号ボナール戸越２０７室,,13,109,1420051,,,,,,,2025-01-29,1,,,,,トータル,0
3430,6010701047176,新規,0,2025-01-29,2025-01-29,ｈａｐｐｙ株式会社,,株式会社,東京都,品川区,北品川１丁目２３番２３号,,13,109,1400001,,,,,,,2025-01-29,1,,,,,ハッピー,0
3434,6010901056729,新規,0,2025-01-29,2025-01-29,株式会社ＺＱＨｅａｒｔ,,株式会社,東京都,世田谷区,三軒茶屋２丁目２番１３,,13,112,1540024,,,,,,,2025-01-29,1,,,,,ズキュハート,0
3435,6010901056737,新規,0,2025-01-29,2025-01-29,株式会社アグアンテ,,株式会社,東京都,世田谷区,南烏山３丁目１２番１－Ｈ４０１号,,13,112,1570062,,,,,,,2025-01-29,1,,,,,アグアンテ,0
3438,6010903009668,新規,0,2025-01-29,2025-01-29,合同会社エムエーティー,,合同会社,東京都,世田谷区,宮坂１丁目１番５号,,13,112,1560051,,,,,,,2025-01-29,1,,,,,エムエーティー,0
3451,6011101110375,新規,0,2025-01-29,2025-01-29,株式会社アクテ,,株式会社,東京都,新宿区,中落合３丁目１６番２号,,13,104,1610032,,,,,,,2025-01-29,1,,,,,アクテ,0
3452,6011101110425,新規,0,2025-01-29,2025-01-29,Ａｔｅｌｉｅｒ＆Ｃｏ．株式会社,,株式会社,東京都,新宿区,西新宿３丁目３番１３号,,13,104,1600023,,,,,,,2025-01-29,1,,,,,アトリエアンドカンパニー,0
3453,6011101110433,新規,0,2025-01-29,2025-01-29,株式会社エッセンシャル,,株式会社,東京都,新宿区,西新宿３丁目３番１３号西新宿水間ビル６Ｆ,,13,104,1600023,,,,,,,2025-01-29,1,,,,,エッセンシャル,0
3530,6011401026759,新規,0,2025-01-29,2025-01-29,株式会社ＴｏｐＬｅｄＪａｐａｎ,,株式会社,東京都,板橋区,中丸町５番６オクトピア池袋１０１号,,13,119,1730026,,,,,,,2025-01-29,1,,,,,トップレッドジャパン,0
3532,6011503006394,新規,0,2025-01-29,2025-01-29,ＢＲＩＧＨＴ　ＧＯＡＬ合同会社,,合同会社,東京都,北区,上十条３丁目２９番２３号,,13,117,1140034,,,,,,,2025-01-29,1,,,,,ブライトゴールド,0
3538,6012301014234,新規,0,2025-01-29,2025-01-29,株式会社助さん工房,,株式会社,東京都,町田市,玉川学園８丁目１０番５号１Ｖｅｒｏｎａ玉川学園１０１,,13,209,1940041,,,,,,,2025-01-29,1,,,,,スケサンコウボウ,0
3539,6012301014242,新規,0,2025-01-29,2025-01-29,株式会社ｆｕ,,株式会社,東京都,町田市,図師町８４番地２１,,13,209,1940203,,,,,,,2025-01-29,1,,,,,エフユー,0
3543,6012401042713,新規,0,2025-01-29,2025-01-29,リエントラント株式会社,,株式会社,東京都,調布市,深大寺東町６丁目６番地５２,,13,208,1820012,,,,,,,2025-01-29,1,,,,,リエントラント,0
3545,6012703003173,新規,0,2025-01-29,2025-01-29,合同会社醸,,合同会社,東京都,小平市,小川町１丁目２４１０－１未来工房１０２号,,13,211,1870032,,,,,,,2025-01-29,1,,,,,ジョウ,0
3547,6012801023718,新規,0,2025-01-29,2025-01-29,株式会社エシュペー,,株式会社,東京都,立川市,富士見町１丁目１９番１４号,,13,202,1900013,,,,,,,2025-01-29,1,,,,,エシュペー,0
3551,6013303007507,新規,0,2025-01-29,2025-01-29,大越合同会社,,合同会社,東京都,豊島区,北大塚３丁目２１番７号,,13,116,1700004,,,,,,,2025-01-29,1,,,,,オオゴシ,0
3736,6021001084330,新規,0,2025-01-29,2025-01-29,株式会社モンステラ,,株式会社,神奈川県,厚木市,寿町２丁目１番８－１１０１号,,14,212,2430003,,,,,,,2025-01-29,1,,,,,モンステラ,0
3759,6030001164546,新規,0,2025-01-29,2025-01-29,株式会社ＬｉｎｋｅｄＶｅｒｓｅ,,株式会社,埼玉県,上尾市,向山４丁目１１番地７,,11,219,3620045,,,,,,,2025-01-29,1,,,,,リンクトバース,0
3760,6030001164587,新規,0,2025-01-29,2025-01-29,株式会社Ｈｏｐｌｕｓ,,株式会社,埼玉県,上尾市,緑丘２丁目１番１号宏和ビル２０２,,11,219,3620015,,,,,,,2025-01-29,1,,,,,ホープラス,0
3761,6030001164604,新規,0,2025-01-29,2025-01-29,株式会社レガリス,,株式会社,埼玉県,川口市,大字安行領根岸１５番地の２,,11,203,3330834,,,,,,,2025-01-29,1,,,,,レガリス,0
3763,6030003025960,新規,0,2025-01-29,2025-01-29,藤井合同会社,,合同会社,埼玉県,さいたま市大宮区,北袋町２丁目２８番地３,,11,103,3300835,,,,,,,2025-01-29,1,,,,,フジイ,0
3764,6030003025993,新規,0,2025-01-29,2025-01-29,合同会社ＥＩＪＩＮ,,合同会社,埼玉県,さいたま市南区,太田窪２丁目２１－３－２,,11,108,3360015,,,,,,,2025-01-29,1,,,,,エイジン,0
3770,6040003026719,新規,0,2025-01-29,2025-01-29,合同会社ＨＡＹＡＫＡＷＡ,,合同会社,千葉県,印西市,高花６丁目３６番地１６,,12,231,2701342,,,,,,,2025-01-29,1,,,,,ハヤカワ,0
3771,6040003026727,新規,0,2025-01-29,2025-01-29,合同会社ＤＭ２６号,,合同会社,千葉県,柏市,柏４丁目５番１０号,,12,217,2770005,,,,,,,2025-01-29,1,,,,,ディーエムニジュウロクゴウ,0
3773,6050001056080,新規,0,2025-01-29,2025-01-29,株式会社プラスワン,,株式会社,茨城県,つくば市,千現２丁目９番地１８,,08,220,3050047,,,,,,,2025-01-29,1,,,,,プラスワン,0
3774,6050001056097,新規,0,2025-01-29,2025-01-29,株式会社ＡＬＩ　ＣＯＭＰＡＮＹ,,株式会社,茨城県,水戸市,栗崎町１２４５番地の１,,08,201,3111133,,,,,,,2025-01-29,1,,,,,アリカンパニー,0
3776,6050003008971,新規,0,2025-01-29,2025-01-29,ＤＩＬＳＨＡＮ　ＥＮＴＥＲＰＲＩＳＥＳ合同会社,,合同会社,茨城県,坂東市,中里７５４－１０,,08,228,3060634,,,,,,,2025-01-29,1,,,,,ディルシャンエンタープライセス,0
3781,6060001037864,新規,0,2025-01-29,2025-01-29,株式会社アドバンス,,株式会社,栃木県,佐野市,堀米町７４番地６,,09,204,3270843,,,,,,,2025-01-29,1,,,,,アドバンス,0
3782,6060001037872,新規,0,2025-01-29,2025-01-29,株式会社一乃胡,,株式会社,栃木県,佐野市,大橋町３２３４番地１,,09,204,3270003,,,,,,,2025-01-29,1,,,,,イチノエビス,0
3784,6060003005407,新規,0,2025-01-29,2025-01-29,ＧＢ　ＩＮＴＥＲＮＡＴＩＯＮＡＬ合同会社,,合同会社,栃木県,栃木市,柳橋町６番２９号ＭＹＣＬＯＣＫ２０５号,,09,203,3280051,,,,,,,2025-01-29,1,,,,,ジビインターナショナル,0
3787,6070003005769,新規,0,2025-01-29,2025-01-29,合同会社ライズ,,合同会社,群馬県,伊勢崎市,市場町１丁目４３番地２,,10,204,3792211,,,,,,,2025-01-29,1,,,,,ライズ,0
3798,6100001038239,新規,0,2025-01-29,2025-01-29,株式会社ｂｉｇｍｕｎｃｈ,,株式会社,長野県,松本市,中央３丁目３番１号,,20,202,3900811,,,,,,,2025-01-29,1,,,,,ビッグマンチ,0
3810,6120001272307,新規,0,2025-01-29,2025-01-29,株式会社ＡＲＴ　ＦＵＴＵＲＥ,,株式会社,大阪府,大阪市北区,梅田１丁目２番２号大阪駅前第２ビル１２－１２,,27,127,5300001,,,,,,,2025-01-29,1,,,,,アートフューチャー,0
3811,6120001272331,新規,0,2025-01-29,2025-01-29,株式会社ハンターナック,,株式会社,大阪府,大阪市東住吉区,矢田５丁目１２番７号,,27,121,5460023,,,,,,,2025-01-29,1,,,,,ハンターナック,0
3812,6120001272348,新規,0,2025-01-29,2025-01-29,株式会社アクセス,,株式会社,大阪府,大阪市北区,梅田１丁目２番２号大阪駅前第２ビル１２－１２,,27,127,5300001,,,,,,,2025-01-29,1,,,,,アクセス,0
3813,6120001272356,新規,0,2025-01-29,2025-01-29,株式会社森陽ホーム,,株式会社,大阪府,大阪市北区,西天満５丁目１６番１５号エフワンビル５Ｆ,,27,127,5300047,,,,,,,2025-01-29,1,,,,,シンヨウホーム,0
3814,6120001272430,新規,0,2025-01-29,2025-01-29,ＰｉｖｏｔＰａｔｈ株式会社,,株式会社,大阪府,大阪市北区,天満２丁目１－１２天満橋ＳＥビル４階,,27,127,5300043,,,,,,,2025-01-29,1,,,,,ピボットパス,0
3960,6130001078876,新規,0,2025-01-29,2025-01-29,株式会社澁谷,,株式会社,京都府,京都市中京区,河原町夷川西入一筋目上ル西革堂町１９３－１,,26,104,6040000,,,,,,,2025-01-29,1,,,,,シブヤ,0
3965,6140001137210,新規,0,2025-01-29,2025-01-29,株式会社アリス,,株式会社,兵庫県,姫路市,飾磨区城南町３丁目６７番地プリムローズ英賀保２０５,,28,201,6728083,,,,,,,2025-01-29,1,,,,,アリス,0
3966,6140001137235,新規,0,2025-01-29,2025-01-29,株式会社翔蒼,,株式会社,兵庫県,宍粟市,山崎町五十波１０１３番地,,28,227,6712515,,,,,,,2025-01-29,1,,,,,ショウア,0
3967,6140001137251,新規,0,2025-01-29,2025-01-29,株式会社シンエイト,,株式会社,兵庫県,西宮市,今津真砂町１番１７－３０４号,,28,204,6638224,,,,,,,2025-01-29,1,,,,,シンエイト,0
3975,6170001018473,新規,0,2025-01-29,2025-01-29,株式会社西組,,株式会社,和歌山県,伊都郡かつらぎ町,大字教良寺５９１番地,,30,341,6497132,,,,,,,2025-01-29,1,,,,,ニシグミ,0
3979,6170005007126,新規,0,2025-01-29,2025-01-29,医療法人みんなのこどもアレルギークリニック,,その他の設立登記法人,和歌山県,和歌山市,友田町４丁目１３０番地Ａタワークリニックモール２階,,30,201,6408342,,,,,,,2025-01-29,1,,,,,ミンナノコドモアレルギークリニック,0
3989,6180001165166,新規,0,2025-01-29,2025-01-29,株式会社ＤＯＬＰＨＩＮＳ,,株式会社,愛知県,名古屋市中村区,千原町４番５１号ＢＬＵＥ・ＯＣＥＡＮ・ＳＡＫＯ,,23,105,4530011,,,,,,,2025-01-29,1,,,,,ドルフィンズ,0
3990,6180001165224,新規,0,2025-01-29,2025-01-29,株式会社マール,,株式会社,愛知県,名古屋市中区,栄３丁目１２番６号ライオンズマンション栄６１４号,,23,106,4600008,,,,,,,2025-01-29,1,,,,,マール,0
3991,6180001165240,新規,0,2025-01-29,2025-01-29,株式会社ファイン,,株式会社,愛知県,名古屋市緑区,兵庫１丁目７０６番地,,23,114,4580802,,,,,,,2025-01-29,1,,,,,ファイン,0
3993,6180003027926,新規,0,2025-01-29,2025-01-29,合同会社エヌエフ,,合同会社,愛知県,一宮市,栄１丁目２－３５,,23,203,4910858,,,,,,,2025-01-29,1,,,,,エヌエフ,0
3997,6180301039458,新規,0,2025-01-29,2025-01-29,株式会社ＭＯＳＣＯ,,株式会社,愛知県,豊田市,西町１丁目２００番地参合館２Ｆ,,23,211,4710025,,,,,,,2025-01-29,1,,,,,モスコ,0
4001,6200001043385,新規,0,2025-01-29,2025-01-29,株式会社Ａｒｅａ５２,,株式会社,岐阜県,大垣市,東町１丁目４１５番地６,,21,202,5030802,,,,,,,2025-01-29,1,,,,,エリアゴジュウニ,0
4013,6260003005048,新規,0,2025-01-29,2025-01-29,合同会社アエル,,合同会社,岡山県,岡山市中区,浜１丁目１９番４１号旭ビル２０１号,,33,102,7038256,,,,,,,2025-01-29,1,,,,,アエル,0
4015,6270001009140,新規,0,2025-01-29,2025-01-29,株式会社Ｍａｒｖｅｌ,,株式会社,鳥取県,米子市,新開６丁目１－４６リアンベルＡ棟１０４号,,31,202,6830801,,,,,,,2025-01-29,1,,,,,マーベル,0
4018,6290001108733,新規,0,2025-01-29,2025-01-29,株式会社ＨｒＳホールディングス,,株式会社,福岡県,福岡市博多区,山王２丁目６番２０号,,40,132,8120015,,,,,,,2025-01-29,1,,,,,エイチアールエスホールディングス,0
4019,6290001108790,新規,0,2025-01-29,2025-01-29,株式会社ＪＵＮＧＩ　ＴＯＮＧＳＡＮＧ　ＪＡＰＡＮ,,株式会社,福岡県,福岡市博多区,博多駅前４丁目３３番１１－３０７号朝日プラザ博多,,40,132,8120011,,,,,,,2025-01-29,1,,,,,ジョンイトンサンジャパン,0
4020,6290001108824,新規,0,2025-01-29,2025-01-29,Ｏｐｔｉｏｎｓ株式会社,,株式会社,福岡県,福岡市中央区,天神２丁目２―１２Ｔ＆Ｊビルディング７Ｆ,,40,133,8100001,,,,,,,2025-01-29,1,,,,,オプションズ,0
4023,6290003016364,新規,0,2025-01-29,2025-01-29,合同会社ＹＯＳＨＩ,,合同会社,福岡県,福岡市中央区,天神２丁目２番１２号Ｔ＆Ｊビルディング７Ｆ,,40,133,8100001,,,,,,,2025-01-29,1,,,,,ヨシ,0
4024,6290805009805,新規,0,2025-01-29,2025-01-29,一般社団法人ははとこ,,その他の設立登記法人,福岡県,北九州市八幡西区,千代４丁目９番８号,,40,109,8071112,,,,,,,2025-01-29,1,,,,,ハハトコ,0
4026,6300003002222,新規,0,2025-01-29,2025-01-29,合同会社レオン,,合同会社,佐賀県,神埼市,神埼町横武１４０９番地９,,41,210,8420012,,,,,,,2025-01-29,1,,,,,レオン,0
4032,6330003010767,新規,0,2025-01-29,2025-01-29,合同会社はちかｆａｒｍ,,合同会社,熊本県,熊本市中央区,上水前寺１丁目５－９,,43,101,8620951,,,,,,,2025-01-29,1,,,,,ハチカファーム,0
4033,6340001027093,新規,0,2025-01-29,2025-01-29,株式会社Ｒｉｐｐｌｅ,,株式会社,鹿児島県,鹿児島市,紫原６丁目１番１５号２階,,46,201,8900082,,,,,,,2025-01-29,1,,,,,リップル,0
4037,6360003014641,新規,0,2025-01-29,2025-01-29,合同会社Ｗｅｌｌ‐Ｂｅｉｎｇ,,合同会社,沖縄県,那覇市,牧志２丁目１６番３６号那覇セントラルホテル内メイン館２階,,47,201,9000013,,,,,,,2025-01-29,1,,,,,ウェルビーイング,0
4045,6380001035068,新規,0,2025-01-29,2025-01-29,株式会社いち建設,,株式会社,福島県,郡山市,田村町徳定字代畑１番地の１,,07,203,9631165,,,,,,,2025-01-29,1,,,,,イチケンセツ,0
4052,6430001093556,新規,0,2025-01-29,2025-01-29,幸栄商事株式会社,,株式会社,北海道,札幌市中央区,北三条西２０丁目２番１６号,,01,101,0640823,,,,,,,2025-01-29,1,,,,,コウエイショウジ,0
4056,6460003001035,新規,0,2025-01-29,2025-01-29,合同会社コンサルティングオフィスＬｅｅ,,合同会社,北海道,釧路市,鶴ケ岱１丁目２番６号,,01,206,0850821,,,,,,,2025-01-29,1,,,,,コンサルティングオフィスリー,0
4058,6500001026120,新規,0,2025-01-29,2025-01-29,株式会社八千代,,株式会社,愛媛県,四国中央市,土居町中村１４２３番地５,,38,213,7990701,,,,,,,2025-01-29,1,,,,,ヤチヨ,0
4062,6500003003423,新規,0,2025-01-29,2025-01-29,合同会社つむぎ,,合同会社,愛媛県,宇和島市,宇和津町１丁目１番９号,,38,203,7980043,,,,,,,2025-01-29,1,,,,,ツムギ,0
4063,6500005008759,新規,0,2025-01-29,2025-01-29,特定非営利活動法人いっぺーまーさん,,その他の設立登記法人,愛媛県,四国中央市,土居町蕪崎８１３番地１,,38,213,7990724,,,,,,,2025-01-29,1,,,,,イッペーマーサン,0
4079,7010001251790,新規,0,2025-01-29,2025-01-29,Ｃｉｒｃｕｌａｒｉｓｅ　Ｊａｐａｎ株式会社,,株式会社,東京都,千代田区,大手町２丁目２番１号新大手町ビル３階,,13,101,1000004,,,,,,,2025-01-29,1,,,,,サーキュライズジャパン,0
4080,7010001251799,新規,0,2025-01-29,2025-01-29,株式会社Ｒｅｌａｔｉｏｎａｌ,,株式会社,東京都,中央区,銀座１丁目１２番４号Ｎ＆ＥＢＬＤ．６Ｆ,,13,102,1040061,,,,,,,2025-01-29,1,,,,,リレーショナル,0
4081,7010001251816,新規,0,2025-01-29,2025-01-29,株式会社エターナル,,株式会社,東京都,千代田区,平河町２丁目５番５号,,13,101,1020093,,,,,,,2025-01-29,1,,,,,エターナル,0
4082,7010001251824,新規,0,2025-01-29,2025-01-29,株式会社まなブーケ,,株式会社,東京都,中央区,銀座６丁目６番１号風月堂ビル５階,,13,102,1040061,,,,,,,2025-01-29,1,,,,,マナブーケ,0
4083,7010001251832,新規,0,2025-01-29,2025-01-29,株式会社ＰＴＣ,,株式会社,東京都,中央区,新川２丁目２２番１２－２０３号,,13,102,1040033,,,,,,,2025-01-29,1,,,,,ピーティーシー,0
4085,7010003046207,新規,0,2025-01-29,2025-01-29,合同会社ＴＬＣ　ｆｏｒ　Ｋｉｄｓ,,合同会社,東京都,中央区,湊３丁目１１番８号セザールスカイタワー銀座東４０３,,13,102,1040043,,,,,,,2025-01-29,1,,,,,ティーエルシーフォーキッズ,0
4086,7010003046223,新規,0,2025-01-29,2025-01-29,三業合同会社,,合同会社,東京都,中央区,銀座１丁目１２番４号Ｎ＆ＥＢＬＤ．６Ｆ,,13,102,1040061,,,,,,,2025-01-29,1,,,,,サンゴウ,0
4087,7010101016499,新規,0,2025-01-29,2025-01-29,ＭＩＲＡＫＵホールディングス株式会社,,株式会社,東京都,八王子市,宇津木町７１９番地の３,,13,201,1920024,,,,,,,2025-01-29,1,,,,,ミラクホールディングス,0
4097,7010601066663,新規,0,2025-01-29,2025-01-29,ＺＡＮ株式会社,,株式会社,東京都,江東区,白河２丁目１４番２号ＷＯＲＫＬＡＢＥＬ清澄白河４０２,,13,108,1350021,,,,,,,2025-01-29,1,,,,,ザン,0
4098,7010701047175,新規,0,2025-01-29,2025-01-29,エムワイコンサルタンツ株式会社,,株式会社,東京都,品川区,東五反田２丁目１０番１－１９１０号,,13,109,1410022,,,,,,,2025-01-29,1,,,,,エムワイコンサルタンツ,0
4103,7010901056703,新規,0,2025-01-29,2025-01-29,株式会社ＧＡＴＴＯ,,株式会社,東京都,世田谷区,喜多見８丁目１８番２号,,13,112,1570067,,,,,,,2025-01-29,1,,,,,ガット,0
4104,7010901056744,新規,0,2025-01-29,2025-01-29,ＣｈｉｃＨｉｖｅ株式会社,,株式会社,東京都,世田谷区,経堂５丁目２７番１６－２０１号,,13,112,1560052,,,,,,,2025-01-29,1,,,,,シックハイブ,0
4113,7011003020878,新規,0,2025-01-29,2025-01-29,ＮＴシーズ合同会社,,合同会社,東京都,渋谷区,道玄坂１丁目１０番８号渋谷道玄坂東急ビル２ＦーＣ,,13,113,1500043,,,,,,,2025-01-29,1,,,,,エヌティーシーズ,0
4114,7011005010844,新規,0,2025-01-29,2025-01-29,一般社団法人Ｐｌａｎｅｔａｒｙ　Ｈｅａｌｔｈ　Ｉｎｓｉｇｈｔｓ,,その他の設立登記法人,東京都,目黒区,上目黒３丁目１４番９－１０１号,,13,110,1530051,,,,,,,2025-01-29,1,,,,,プラネタリーヘルスインサイツ,0
4119,7011101110374,新規,0,2025-01-29,2025-01-29,ＧＬＯＶ株式会社,,株式会社,東京都,新宿区,西新宿４丁目８番１１号ＳＨＩＮＪＵＫＵＮＥＷＶＩＬＬＡ１０１,,13,104,1600023,,,,,,,2025-01-29,1,,,,,グローブ,0
4120,7011101110432,新規,0,2025-01-29,2025-01-29,マコト商事株式会社,,株式会社,東京都,新宿区,富久町１５番１－５２０４号,,13,104,1620067,,,,,,,2025-01-29,1,,,,,マコトショウジ,0
4121,7011103015464,新規,0,2025-01-29,2025-01-29,合同会社サポート・マネジメント,,合同会社,東京都,新宿区,西新宿３丁目３番１３号西新宿水間ビル２Ｆ,,13,104,1600023,,,,,,,2025-01-29,1,,,,,サポートマネジメント,0
4212,7011501031609,新規,0,2025-01-29,2025-01-29,株式会社Ｏ‐ＳＴＵＤＩＯ,,株式会社,東京都,荒川区,西日暮里６丁目３７－１,,13,118,1160013,,,,,,,2025-01-29,1,,,,,オースタジオ,0
4216,7011803006663,新規,0,2025-01-29,2025-01-29,合同会社ハッピーミート,,合同会社,東京都,足立区,西保木間２丁目１８番１０号,,13,121,1210812,,,,,,,2025-01-29,1,,,,,ハッピーミート,0
4220,7012703003189,新規,0,2025-01-29,2025-01-29,Ｆｉｌｌ　Ａｓｓｅｔ合同会社,,合同会社,東京都,東久留米市,小山４丁目３－３,,13,222,2030051,,,,,,,2025-01-29,1,,,,,フィルアセット,0
4221,7012801023717,新規,0,2025-01-29,2025-01-29,株式会社ＭＵＫＵＭＩＲＵ,,株式会社,東京都,昭島市,朝日町３丁目４番２号,,13,207,1960025,,,,,,,2025-01-29,1,,,,,ムクミル,0
4223,7013301053683,新規,0,2025-01-29,2025-01-29,リタ国際株式会社,,株式会社,東京都,豊島区,池袋４丁目１４－１１ａＬＡＴＯＩＫＥＢＵＫＵＲＯ１０９号室,,13,116,1710014,,,,,,,2025-01-29,1,,,,,リタコクサイ,0
4224,7013303007506,新規,0,2025-01-29,2025-01-29,合同会社Ｎｏｗｔｕｒｅ,,合同会社,東京都,豊島区,北大塚１丁目２２番１２号シティオ大塚４０２号,,13,116,1700004,,,,,,,2025-01-29,1,,,,,ナウチャー,0
4225,7013305003684,新規,0,2025-01-29,2025-01-29,一般社団法人軽貨物ドライバー支援協会,,その他の設立登記法人,東京都,豊島区,西池袋３丁目２５番２号大晴ビル２階,,13,116,1710021,,,,,,,2025-01-29,1,,,,,ケイカモツドライバーシエンキョウカイ,0
4407,7021001084313,新規,0,2025-01-29,2025-01-29,株式会社Ｒｅｓｉｌｉｅｎｃｅ　ｐｏｗｅｒｓ,,株式会社,神奈川県,愛甲郡愛川町,三増８５８番地の４,,14,401,2430308,,,,,,,2025-01-29,1,,,,,レジリエンスパワーズ,0
4408,7021001084346,新規,0,2025-01-29,2025-01-29,株式会社ＣＨＯＰ　ＳＰＡＣＥ,,株式会社,神奈川県,逗子市,沼間２丁目１３７２番地の１５,,14,208,2490004,,,,,,,2025-01-29,1,,,,,チョップスペース,0
4430,7021003015522,新規,0,2025-01-29,2025-01-29,ナゴヤ測量合同会社,,合同会社,神奈川県,相模原市南区,若松６丁目１番１４－５号,,14,153,2520334,,,,,,,2025-01-29,1,,,,,ナゴヤソクリョウ,0
4439,7030001164586,新規,0,2025-01-29,2025-01-29,株式会社セノラ,,株式会社,埼玉県,行田市,大字若小玉１８１７番地１,,11,206,3610017,,,,,,,2025-01-29,1,,,,,セノラ,0
4440,7030001164594,新規,0,2025-01-29,2025-01-29,株式会社ＭＩＹＡＨＡＲＡ,,株式会社,埼玉県,熊谷市,上之１８０４番地７クリアマンションＩＩＩ３０２,00137823,11,202,3600012,,,,,,,2025-01-29,1,,,,,ミヤハラ,0
4458,7040003026701,新規,0,2025-01-29,2025-01-29,ＭＲ　ＴＲＡＤＩＮＧ合同会社,,合同会社,千葉県,八千代市,大和田新田１５番地高津団地５街区１５棟３０４号,,12,221,2760046,,,,,,,2025-01-29,1,,,,,エムアールトレーディング,0
4459,7040003026726,新規,0,2025-01-29,2025-01-29,合同会社ＤＭ２９号,,合同会社,千葉県,柏市,柏４丁目５番１０号,,12,217,2770005,,,,,,,2025-01-29,1,,,,,ディーエムニジュウキュウゴウ,0
4460,7040005022649,新規,0,2025-01-29,2025-01-29,一般社団法人日本慣らしトリミング協会,,その他の設立登記法人,千葉県,船橋市,海神６丁目１６－１５－２,,12,204,2730021,,,,,,,2025-01-29,1,,,,,ニホンナラシトリミングキョウカイ,0
4464,7050001056039,新規,0,2025-01-29,2025-01-29,株式会社職人．,,株式会社,茨城県,稲敷郡美浦村,大字信太５６７番地８,,08,442,3000414,,,,,,,2025-01-29,1,,,,,ショクニン,0
4467,7050003008979,新規,0,2025-01-29,2025-01-29,合同会社ＲＡＹＳＩＡ,,合同会社,茨城県,つくば市,天久保３丁目２１－３星谷ビル２－Ａ,,08,220,3050005,,,,,,,2025-01-29,1,,,,,レイシア,0
4468,7050005013548,新規,0,2025-01-29,2025-01-29,つくば労働者協同組合,,その他の設立登記法人,茨城県,つくば市,手子生２４１５番地,,08,220,3002647,,,,,,,2025-01-29,1,,,,,ツクバ,0
4469,7060001037871,新規,0,2025-01-29,2025-01-29,東日本エアサービス株式会社,,株式会社,栃木県,足利市,江川町２丁目１７番地８,,09,202,3260067,,,,,,,2025-01-29,1,,,,,ヒガシニホンエアサービス,0
4470,7060003005406,新規,0,2025-01-29,2025-01-29,ＴＨＥＧＡＮＧＺ合同会社,,合同会社,栃木県,宇都宮市,東宿郷６丁目７－１１ガーディアンビル１Ｆ,,09,201,3210953,,,,,,,2025-01-29,1,,,,,ザガンズ,0
4478,7080401027702,新規,0,2025-01-29,2025-01-29,三協ピアノ株式会社,,株式会社,静岡県,浜松市中央区,中野町１６６番地,,22,138,4350004,,,,,,,2025-01-29,1,,,,,サンキョウピアノ,0
4479,7080403005193,新規,0,2025-01-29,2025-01-29,合同会社あんだんて,,合同会社,静岡県,浜松市浜名区,新都田５丁目３４番１３号,,22,139,4312103,,,,,,,2025-01-29,1,,,,,アンダンテ,0
4484,7100001038246,新規,0,2025-01-29,2025-01-29,株式会社ミノリデイズ,,株式会社,長野県,松本市,梓川梓１００５番地,,20,202,3901702,,,,,,,2025-01-29,1,,,,,ミノリデイズ,0
4485,7100001038254,新規,0,2025-01-29,2025-01-29,株式会社ＳｋｙＣｌｏｖｅｒ,,株式会社,長野県,飯田市,箕瀬町１丁目２４２６番地２箕瀬レジデンス１０２,,20,205,3950054,,,,,,,2025-01-29,1,,,,,スカイクローバー,0
4486,7100003007967,新規,0,2025-01-29,2025-01-29,合同会社ＤＯＵＢＬＥ　ＷＩＤＥ,,合同会社,長野県,小県郡青木村,大字当郷１６４３番地２,,20,349,3861603,,,,,,,2025-01-29,1,,,,,ダブルワイド,0
4500,7120001272289,新規,0,2025-01-29,2025-01-29,株式会社まゆたま,,株式会社,大阪府,大阪市中央区,東心斎橋１丁目９－１９－３０７号室,,27,128,5420083,,,,,,,2025-01-29,1,,,,,マユタマ,0
4501,7120001272322,新規,0,2025-01-29,2025-01-29,株式会社モリテックラバーホールディング,,株式会社,大阪府,大阪市港区,磯路２丁目１６番８号モリハイツ１０１,,27,107,5520003,,,,,,,2025-01-29,1,,,,,モリテックラバーホールディング,0
4502,7120001272330,新規,0,2025-01-29,2025-01-29,株式会社ＴＸ‐ＵＮＩＴＥＤ,,株式会社,大阪府,大阪市浪速区,恵美須東１丁目１７番９号ＡＮＮＥＸ通天閣,,27,111,5560002,,,,,,,2025-01-29,1,,,,,ティーエックスユナイテッド,0
4503,7120001272339,新規,0,2025-01-29,2025-01-29,株式会社ビンクス,,株式会社,大阪府,大阪市北区,堂島１丁目３番３号,,27,127,5300003,,,,,,,2025-01-29,1,,,,,,0
4504,7120001272363,新規,0,2025-01-29,2025-01-29,株式会社クラウドファースト,,株式会社,大阪府,大阪市北区,曾根崎２丁目１６－１９,,27,127,5300057,,,,,,,2025-01-29,1,,,,,クラウドファースト,0
4505,7120001272396,新規,0,2025-01-29,2025-01-29,株式会社ルナ・ピェーナ,,株式会社,大阪府,大阪市生野区,新今里３丁目１９番１６号,,27,116,5440001,,,,,,,2025-01-29,1,,,,,ルナピェーナ,0
4506,7120001272421,新規,0,2025-01-29,2025-01-29,株式会社グランドリーム,,株式会社,大阪府,大阪市西成区,萩之茶屋３丁目８番２８号,,27,122,5570004,,,,,,,2025-01-29,1,,,,,グランドリーム,0
4512,7120003028482,新規,0,2025-01-29,2025-01-29,合同会社グランツ,,合同会社,大阪府,大阪市北区,豊崎３丁目１５－５ＴＫビル２Ｆ,,27,127,5310072,,,,,,,2025-01-29,1,,,,,グランツ,0
4513,7120003028490,新規,0,2025-01-29,2025-01-29,ＢＡＯ　ＴＲＡＮＧ合同会社,,合同会社,大阪府,大阪市生野区,新今里３丁目２２番１９号サンハイツ今里５０２号,,27,116,5440001,,,,,,,2025-01-29,1,,,,,バオチャン,0
4648,7130001078875,新規,0,2025-01-29,2025-01-29,株式会社遊水,,株式会社,京都府,京田辺市,大住ケ丘５丁目２番地８,,26,211,6100351,,,,,,,2025-01-29,1,,,,,ユウスイ,0
4655,7140001137110,新規,0,2025-01-29,2025-01-29,株式会社ひるねプラス,,株式会社,兵庫県,西宮市,宮前町４番６号,,28,204,6620947,,,,,,,2025-01-29,1,,,,,ヒルネプラス,0
4656,7140001137218,新規,0,2025-01-29,2025-01-29,株式会社アオハル不動産販売,,株式会社,兵庫県,加古川市,加古川町溝之口１５１番地の１エンブレイス加古川５１３号,,28,210,6750064,,,,,,,2025-01-29,1,,,,,アオハルフドウサンハンバイ,0
4657,7140001137226,新規,0,2025-01-29,2025-01-29,株式会社喜多豊,,株式会社,兵庫県,姫路市,飾磨区阿成植木１０２２番地,,28,201,6728030,,,,,,,2025-01-29,1,,,,,キタトミ,0
4658,7140001137242,新規,0,2025-01-29,2025-01-29,型商事株式会社,,株式会社,兵庫県,神戸市中央区,旗塚通１丁目６番２号サニープレイス３０１号室,,28,110,6510068,,,,,,,2025-01-29,1,,,,,ケイショウジ,0
4659,7140001137250,新規,0,2025-01-29,2025-01-29,株式会社ＴＡＧ,,株式会社,兵庫県,神戸市中央区,琴ノ緒町３丁目３番２５－１１０５号,,28,110,6510094,,,,,,,2025-01-29,1,,,,,ティーエージー,0
4665,7180001165108,新規,0,2025-01-29,2025-01-29,株式会社捗り荘,,株式会社,愛知県,名古屋市中川区,八熊３丁目１８番１５号,,23,110,4540013,,,,,,,2025-01-29,1,,,,,ハカドリソウ,0
4666,7180001165149,新規,0,2025-01-29,2025-01-29,株式会社ＩＬＡＢ,,株式会社,愛知県,名古屋市中村区,名駅４丁目２４番５号,,23,105,4500002,,,,,,,2025-01-29,1,,,,,アイラボ,0
4667,7180001165231,新規,0,2025-01-29,2025-01-29,株式会社癸智,,株式会社,愛知県,名古屋市東区,矢田１丁目１１番７号（ウェリットメゾンＩＩ１０１号）,00137814,23,102,4610040,,,,,,,2025-01-29,1,,,,,キチ,0
4669,7180005020928,新規,0,2025-01-29,2025-01-29,一般社団法人水平打法プロゴルフ協会,,その他の設立登記法人,愛知県,名古屋市中区,正木３丁目１３－１０－４０２,,23,106,4600024,,,,,,,2025-01-29,1,,,,,スイヘイダホウプロゴルフキョウカイ,0
4670,7180301039473,新規,0,2025-01-29,2025-01-29,株式会社ウチヤマプラス,,株式会社,愛知県,西尾市,下羽角町郷内４２番地３,,23,213,4450012,,,,,,,2025-01-29,1,,,,,ウチヤマプラス,0
4675,7210003001884,新規,0,2025-01-29,2025-01-29,合同会社ＭＵＫＯＵ,,合同会社,福井県,坂井市,坂井町下関第５１号５０番地１,,18,210,9190501,,,,,,,2025-01-29,1,,,,,ムコウ,0
4687,7240003007037,新規,0,2025-01-29,2025-01-29,合同会社ｉＤ・ＵＰ,,合同会社,広島県,広島市安佐北区,口田５丁目２６番１５号,,34,106,7391734,,,,,,,2025-01-29,1,,,,,アイディーアップ,0
4691,7260001039831,新規,0,2025-01-29,2025-01-29,桐皇海運株式会社,,株式会社,岡山県,備前市,日生町日生８５４番地,,33,211,7013204,,,,,,,2025-01-29,1,,,,,トウオウカイウン,0
4694,7290001108708,新規,0,2025-01-29,2025-01-29,ＩｎｔｅｌｌｉＲｅｍｉｔ　Ｃｈａｉｎ網絡科技株式会社,,株式会社,福岡県,福岡市東区,箱崎１丁目３２番８フォルム九大前ＩＩ６０１号,00137811,40,131,8120053,,,,,,,2025-01-29,1,,,,,インテリレミットチェインモウラクカギ,0
4695,7290001108798,新規,0,2025-01-29,2025-01-29,株式会社１９８９,,株式会社,福岡県,春日市,若葉台東４丁目７－１,,40,218,8160821,,,,,,,2025-01-29,1,,,,,イチキュウハチキュウ,0
4697,7290003016330,新規,0,2025-01-29,2025-01-29,合同会社言ノ花,,合同会社,福岡県,久留米市,三潴町西牟田６４９７番地１,,40,203,8300111,,,,,,,2025-01-29,1,,,,,コトノハナ,0
4698,7290003016363,新規,0,2025-01-29,2025-01-29,合同会社岩元設計室,,合同会社,福岡県,福岡市中央区,谷２丁目２－２８,,40,133,8100031,,,,,,,2025-01-29,1,,,,,イワモトセッケイシツ,0
4701,7310001019431,新規,0,2025-01-29,2025-01-29,ワンコ・サービス株式会社,,株式会社,長崎県,東彼杵郡波佐見町,長野郷２８５１番地,,42,323,8593725,,,,,,,2025-01-29,1,,,,,ワンコサービス,0
4706,7330003010741,新規,0,2025-01-29,2025-01-29,合同会社おひさま,,合同会社,熊本県,荒尾市,西原町２丁目７番６号,,43,204,8640053,,,,,,,2025-01-29,1,,,,,オヒサマ,0
4707,7330003010766,新規,0,2025-01-29,2025-01-29,合同会社ａｒｋｓ,,合同会社,熊本県,玉名市,築地１６１７番地４,,43,206,8650065,,,,,,,2025-01-29,1,,,,,アークス,0
4711,7360003014649,新規,0,2025-01-29,2025-01-29,合同会社Ｊ　Ｇｒｏｕｐ,,合同会社,沖縄県,石垣市,美崎町１６番地３砂川アパート２０２,,47,207,9070012,,,,,,,2025-01-29,1,,,,,ジェイグループ,0
4714,7370001052187,新規,0,2025-01-29,2025-01-29,株式会社ユージング,,株式会社,宮城県,仙台市泉区,将監１２丁目７番８号,,04,105,9813132,,,,,,,2025-01-29,1,,,,,,0
4728,7460301005273,新規,0,2025-01-29,2025-01-29,株式会社ＧＫＮ,,株式会社,北海道,北見市,山下町４丁目４番７号２０３号室,,01,208,0900037,,,,,,,2025-01-29,1,,,,,ジーケーエヌ,0
4730,7480001012733,新規,0,2025-01-29,2025-01-29,株式会社岩倉商事,,株式会社,徳島県,鳴門市,大津町大幸宮ノ本２０番地２,,36,202,7720044,,,,,,,2025-01-29,1,,,,,イワクラショウジ,0
4737,8010001251798,新規,0,2025-01-29,2025-01-29,株式会社Ｙａｍａｂｕｋｉ　Ｉｎｆｏｔｅｃｈ,,株式会社,東京都,千代田区,神田駿河台２丁目１１番７号３０１,,13,101,1010062,,,,,,,2025-01-29,1,,,,,ヤマブキインフォテック,0
4738,8010001251823,新規,0,2025-01-29,2025-01-29,株式会社Ｌｅａｌｅａ,,株式会社,東京都,八丈島八丈町,大賀郷１３４番地１,,13,401,1001401,,,,,,,2025-01-29,1,,,,,レアレア,0
4739,8010001251856,新規,0,2025-01-29,2025-01-29,株式会社ＳＡＦＥＹ,,株式会社,東京都,中央区,湊１丁目３－１０幸ビルＩＩ２Ｆ,00137824,13,102,1040043,,,,,,,2025-01-29,1,,,,,セーフィー,0
4741,8010003046172,新規,0,2025-01-29,2025-01-29,合同会社ＳＥＥＤＳ,,合同会社,東京都,文京区,小石川５丁目１４番５号,,13,105,1120002,,,,,,,2025-01-29,1,,,,,シーズ,0
4742,8010003046189,新規,0,2025-01-29,2025-01-29,合同会社未来,,合同会社,東京都,文京区,白山４丁目１６番３号ＧＲＡＤＯ白山１０１,,13,105,1120001,,,,,,,2025-01-29,1,,,,,ミライ,0
4743,8010003046206,新規,0,2025-01-29,2025-01-29,合同会社Ｋａｂｏｓｓｅ,,合同会社,東京都,中央区,銀座１丁目２２番１１号銀座大竹ビジデンス２Ｆ,,13,102,1040061,,,,,,,2025-01-29,1,,,,,カボッセ,0
4744,8010003046222,新規,0,2025-01-29,2025-01-29,Ｓｔｒｏｂｅｓ　Ｓｅｃｕｒｉｔｙ合同会社,,合同会社,東京都,千代田区,神田小川町１丁目６番１号宝ビル９Ｆ,,13,101,1010052,,,,,,,2025-01-29,1,,,,,ストローブスセキュリティ,0
4747,8010105002321,新規,0,2025-01-29,2025-01-29,一般社団法人Ｐｒｉｓｏｎ　Ａｒｔｓ　Ｃｏｎｎｅｃｔｉｏｎｓ,,その他の設立登記法人,東京都,八王子市,高尾町１６７５番地１０,,13,201,1930844,,,,,,,2025-01-29,1,,,,,プリズンアーツコネクションズ,0
4754,8010601066662,新規,0,2025-01-29,2025-01-29,株式会社ＴＨ,,株式会社,東京都,江東区,深川２丁目１２番４－２０２号,,13,108,1350033,,,,,,,2025-01-29,1,,,,,ティーエイチ,0
4757,8010701047174,新規,0,2025-01-29,2025-01-29,株式会社レジスタ,,株式会社,東京都,品川区,東品川４丁目１２番８号品川シーサイドイーストタワー１５階,,13,109,1400002,,,,,,,2025-01-29,1,,,,,レジスタ,0
4762,8010901056727,新規,0,2025-01-29,2025-01-29,株式会社アンカー,,株式会社,東京都,世田谷区,千歳台４丁目２２番５－１０３,,13,112,1570071,,,,,,,2025-01-29,1,,,,,アンカー,0
4763,8010901056743,新規,0,2025-01-29,2025-01-29,株式会社ＡＢＬＥ＆ＢＡＫＥＲ,,株式会社,東京都,世田谷区,太子堂３丁目２５―６サンオービル２Ｆ,,13,112,1540004,,,,,,,2025-01-29,1,,,,,エイブルアンドベイカー,0
4771,8011003020704,新規,0,2025-01-29,2025-01-29,合同会社極彩天,,合同会社,東京都,渋谷区,恵比寿西２丁目８－４ＥＸ恵比寿西ビル５Ｆ,,13,113,1500021,,,,,,,2025-01-29,1,,,,,ゴクサイテン,0
4774,8011101110431,新規,0,2025-01-29,2025-01-29,株式会社ＫＳホールディングス,,株式会社,東京都,新宿区,新宿６丁目２７番２９－２９０４号,,13,104,1600022,,,,,,,2025-01-29,1,,,,,ケイエスホールディングス,0
4775,8011101110456,新規,0,2025-01-29,2025-01-29,株式会社ＢａｓｅＥａｓｅ,,株式会社,東京都,新宿区,西新宿５丁目１番１号,,13,104,1600023,,,,,,,2025-01-29,1,,,,,ベースイーズ,0
4861,8011401026773,新規,0,2025-01-29,2025-01-29,ＣＯＡＣＨＩＮＧＰＯＰ　ＡＧＥＮＣＹ株式会社,,株式会社,東京都,板橋区,東坂下２丁目２２番２６－９０４号,,13,119,1740042,,,,,,,2025-01-29,1,,,,,コーチングポップエージェンシー,0
4865,8011805003427,新規,0,2025-01-29,2025-01-29,一般社団法人全日本華人互助連合会,,その他の設立登記法人,東京都,足立区,舎人５丁目１１番１６号友好ビル１階,,13,121,1210831,,,,,,,2025-01-29,1,,,,,ゼンニホンカジンゴジョレンゴウカイ,0
4866,8012303002103,新規,0,2025-01-29,2025-01-29,ｃｕｌｍｉｎａｎｔ合同会社,,合同会社,東京都,町田市,南大谷１丁目２４番１２号,,13,209,1940031,,,,,,,2025-01-29,1,,,,,キュルミナント,0
4869,8012401042703,新規,0,2025-01-29,2025-01-29,Ｔｈｅ　Ｌａｋｅｓ株式会社,,株式会社,東京都,多摩市,和田１８４９番地の１,,13,224,2060001,,,,,,,2025-01-29,1,,,,,ザレイクス,0
5080,8021001084295,新規,0,2025-01-29,2025-01-29,株式会社ＢＩＳＯＵ　ＢＩＳＯＵ,,株式会社,神奈川県,相模原市南区,文京２丁目２５番６号,,14,153,2520307,,,,,,,2025-01-29,1,,,,,ビズビズ,0
5103,8030001164577,新規,0,2025-01-29,2025-01-29,株式会社ハナブサ・コーポレーション,,株式会社,埼玉県,新座市,栄３丁目１０番９号栄ビル３Ｆ,,11,230,3520014,,,,,,,2025-01-29,1,,,,,ハナブサコーポレーション,0
5104,8030001164593,新規,0,2025-01-29,2025-01-29,グランデメルカド株式会社,,株式会社,埼玉県,春日部市,谷原新田１８１８番地２、２階,,11,214,3440035,,,,,,,2025-01-29,1,,,,,グランデメルカド,0
5105,8030001164602,新規,0,2025-01-29,2025-01-29,株式会社ＳＴＳ,,株式会社,埼玉県,富士見市,羽沢３丁目３番１７号,,11,235,3540033,,,,,,,2025-01-29,1,,,,,エスティーエス,0
5106,8030001164610,新規,0,2025-01-29,2025-01-29,株式会社Ｆ７,,株式会社,埼玉県,さいたま市見沼区,大字御蔵１４８０－２０,,11,104,3370033,,,,,,,2025-01-29,1,,,,,エフナナ,0
5108,8030003025975,新規,0,2025-01-29,2025-01-29,合同会社ｆａｉｔ　ａ　ｌａ　ｍａｉｎ,,合同会社,埼玉県,新座市,西堀１丁目１１－４,,11,230,3520031,,,,,,,2025-01-29,1,,,,,フェアラマン,0
5111,8040001137177,新規,0,2025-01-29,2025-01-29,株式会社遊輝,,株式会社,千葉県,松戸市,串崎南町２６番地－３０８号,,12,207,2702215,,,,,,,2025-01-29,1,,,,,ユウキ,0
5115,8040003026667,新規,0,2025-01-29,2025-01-29,合同会社鈴木ベッツ,,合同会社,千葉県,千葉市稲毛区,園生町５８１番地２,,12,103,2630051,,,,,,,2025-01-29,1,,,,,スズキベッツ,0
5116,8040003026725,新規,0,2025-01-29,2025-01-29,合同会社アルファベット,,合同会社,千葉県,千葉市中央区,富士見１丁目１０番６号カネナカ第３ビル２階,,12,101,2600015,,,,,,,2025-01-29,1,,,,,アルファベット,0
5118,8040005022648,新規,0,2025-01-29,2025-01-29,一般社団法人在外ミャンマー職業人起業家同友会,,その他の設立登記法人,千葉県,千葉市中央区,中央４丁目１３－２桂ビル４０１,,12,101,2600013,,,,,,,2025-01-29,1,,,,,ザイガイミャンマーショクギョウジンキギョウカドウユウカイ,0
5120,8050001056087,新規,0,2025-01-29,2025-01-29,株式会社アサヒヤ,,株式会社,茨城県,ひたちなか市,大字枝川１５０２番地１,,08,221,3120035,,,,,,,2025-01-29,1,,,,,アサヒヤ,0
5121,8060005010295,新規,0,2025-01-29,2025-01-29,一般社団法人とちぎ円満相続サポートセンター,,その他の設立登記法人,栃木県,宇都宮市,大通り５丁目２番８号アサノビル３０１号室,,09,201,3200811,,,,,,,2025-01-29,1,,,,,トチギエンマンソウゾクサポートセンター,0
5128,8080403005192,新規,0,2025-01-29,2025-01-29,合同会社シティハイツ,,合同会社,静岡県,浜松市浜名区,染地台６丁目９番２４号,,22,139,4340046,,,,,,,2025-01-29,1,,,,,シティハイツ,0
5136,8100001038245,新規,0,2025-01-29,2025-01-29,株式会社はなやのミカタ,,株式会社,長野県,長野市,大字北尾張部７１５番地７,,20,201,3810014,,,,,,,2025-01-29,1,,,,,ハナヤノミカタ,0
5137,8100001038253,新規,0,2025-01-29,2025-01-29,株式会社Ｓ１,,株式会社,長野県,長野市,広田１５０番地,,20,201,3812213,,,,,,,2025-01-29,1,,,,,エスワン,0
5139,8100003007875,新規,0,2025-01-29,2025-01-29,Ｐｅａｋ　Ｐｈｙｓｉｏｔｈｅｒａｐｙ合同会社,,合同会社,長野県,北安曇郡白馬村,大字北城５０５６番地,,20,485,3999301,,,,,,,2025-01-29,1,,,,,ピークフィジオセラピー,0
5149,8120001272081,新規,0,2025-01-29,2025-01-29,大麦株式会社,,株式会社,大阪府,大阪市東住吉区,東田辺３丁目１－１－３Ｆ－Ａ,,27,121,5460032,,,,,,,2025-01-29,1,,,,,オオムギ,0
5150,8120001272189,新規,0,2025-01-29,2025-01-29,株式会社ローズヨーコ,,株式会社,大阪府,大阪市浪速区,大国３丁目９番２３－２０２号,,27,111,5560014,,,,,,,2025-01-29,1,,,,,ローズヨーコ,0
5151,8120001272305,新規,0,2025-01-29,2025-01-29,株式会社ｒｅｃｈｅｒｃｈｅ,,株式会社,大阪府,大阪市北区,芝田２丁目８番１１号共栄ビル３Ｆ,,27,127,5300012,,,,,,,2025-01-29,1,,,,,ルシェルシュ,0
5152,8120001272354,新規,0,2025-01-29,2025-01-29,芸境株式会社,,株式会社,大阪府,大阪市住吉区,長居２丁目１０番３－２０７号,,27,120,5580003,,,,,,,2025-01-29,1,,,,,ゲイサカイ,0
5153,8120001272370,新規,0,2025-01-29,2025-01-29,株式会社Ａｔｈｌｅｔｅ‐Ｂｒｉｄｇｅ,,株式会社,大阪府,大阪市西区,北堀江１丁目１番３号四橋日生ビル別館２Ｃ,,27,106,5500014,,,,,,,2025-01-29,1,,,,,アスリートブリッジ,0
5154,8120001272404,新規,0,2025-01-29,2025-01-29,株式会社ＭＡＫＯＴＯ,,株式会社,大阪府,門真市,岸和田２丁目１０番１３号,,27,223,5710002,,,,,,,2025-01-29,1,,,,,マコト,0
5155,8120001272420,新規,0,2025-01-29,2025-01-29,碧マネジメント株式会社,,株式会社,大阪府,守口市,大日東町４番Ａ－２２０２号,,27,209,5700016,,,,,,,2025-01-29,1,,,,,アオイマネジメント,0
5160,8120003028473,新規,0,2025-01-29,2025-01-29,Ｏｐｅｎ　Ｈａｎｄｓ　Ｌａｂｏ合同会社,,合同会社,大阪府,大阪市天王寺区,細工谷１丁目４番３０－１００２号,,27,109,5430032,,,,,,,2025-01-29,1,,,,,オープンハンズラボ,0
5161,8120003028481,新規,0,2025-01-29,2025-01-29,合同会社ｋａｎｏｒｉ,,合同会社,大阪府,大阪市北区,大淀中２丁目６番１７－１３０２号,,27,127,5310076,,,,,,,2025-01-29,1,,,,,カノリ,0
5162,8120005024768,新規,0,2025-01-29,2025-01-29,太陽グラントソントン行政書士法人,,その他の設立登記法人,大阪府,大阪市北区,中崎西２丁目４番１２号梅田センタービル,,27,127,5300015,,,,,,,2025-01-29,1,,,,,タイヨウグラントソントン,0
5164,8120105009966,新規,0,2025-01-29,2025-01-29,一般社団法人南大阪スポーツアカデミー,,その他の設立登記法人,大阪府,泉佐野市,日根野１６３４番地の１７,,27,213,5980021,,,,,,,2025-01-29,1,,,,,ミナミオオサカスポーツアカデミー,0
5294,8120901050363,新規,0,2025-01-29,2025-01-29,ＳＴＹＤＩＡ株式会社,,株式会社,大阪府,吹田市,春日４丁目１番３－５０２号,,27,205,5650853,,,,,,,2025-01-29,1,,,,,ステイディア,0
5301,8130001078866,新規,0,2025-01-29,2025-01-29,株式会社アドバリューズ,,株式会社,京都府,京都市下京区,烏丸通仏光寺下る大政所町６８０－１第八長谷ビル２Ｆ,,26,106,6008413,,,,,,,2025-01-29,1,,,,,アドバリューズ,0
5302,8130002035866,新規,0,2025-01-29,2025-01-29,有限会社みやざき工芸,,有限会社,京都府,京都市北区,大宮南箱ノ井町２２番地,,26,101,6038476,,,,,,,2025-01-29,1,,,,,ミヤザキコウゲイ,0
5311,8140001137233,新規,0,2025-01-29,2025-01-29,株式会社ヨコヤマスターライズ,,株式会社,兵庫県,伊丹市,池尻１丁目２１０番地,,28,207,6640027,,,,,,,2025-01-29,1,,,,,ヨコヤマスターライズ,0
5316,8140003021575,新規,0,2025-01-29,2025-01-29,合同会社ＳＮＢ,,合同会社,兵庫県,尼崎市,武庫之荘１丁目４番６号,,28,202,6610035,,,,,,,2025-01-29,1,,,,,エスエヌビー,0
5326,8180001165197,新規,0,2025-01-29,2025-01-29,里ｅｎｅ株式会社,,株式会社,愛知県,名古屋市中川区,高畑１丁目２３８ＥＳＰＡＣＥ・ＵＮ４Ａ,,23,110,4540911,,,,,,,2025-01-29,1,,,,,サトエネ,0
5327,8180001165222,新規,0,2025-01-29,2025-01-29,株式会社Ｅ‐ＦＯＲＣＥ,,株式会社,愛知県,名古屋市西区,枇杷島５丁目１２番６号,,23,104,4510053,,,,,,,2025-01-29,1,,,,,イーフォース,0
5328,8180001165230,新規,0,2025-01-29,2025-01-29,ＦＯＲＥＶＥＲ　ＧＬＯＲＹ株式会社,,株式会社,愛知県,名古屋市港区,魁町４丁目２４番地の２,,23,111,4550043,,,,,,,2025-01-29,1,,,,,フォーエバーグローリー,0
5331,8180005020935,新規,0,2025-01-29,2025-01-29,医療法人こうのとり,,その他の設立登記法人,愛知県,北名古屋市,鹿田道下５０番地,,23,234,4810004,,,,,,,2025-01-29,1,,,,,コウノトリ,0
5336,8200005013713,新規,0,2025-01-29,2025-01-29,行政書士法人山崎事務所,00137813,その他の設立登記法人,岐阜県,岐阜市,加納清水町１丁目１４番地１,,21,201,5008429,,,,,,,2025-01-29,1,,,,,ヤマサキジムショ,0
5348,8240003007036,新規,0,2025-01-29,2025-01-29,合同会社ヤノオートステージ,,合同会社,広島県,広島市安佐北区,小河原町１０６２番１号,,34,106,7391754,,,,,,,2025-01-29,1,,,,,ヤノオートステージ,0
5355,8290001108707,新規,0,2025-01-29,2025-01-29,Ｊｏｙ　Ｒａｃｅ網絡科技株式会社,,株式会社,福岡県,福岡市中央区,平尾１丁目１０番２６ダイナコート平尾５０４号,,40,133,8100014,,,,,,,2025-01-29,1,,,,,ジョイレースモウラクカギ,0
5358,8290005019636,新規,0,2025-01-29,2025-01-29,一般社団法人アーバンデザインセンターおおむた,,その他の設立登記法人,福岡県,大牟田市,不知火町１丁目４番地２,,40,202,8360843,,,,,,,2025-01-29,1,,,,,アーバンデザインセンターオオムタ,0
5360,8300003002220,新規,0,2025-01-29,2025-01-29,ケイエムロジ合同会社,,合同会社,佐賀県,鳥栖市,西新町１４２８番地５１シティ西新Ｄ棟２０３,,41,203,8410074,,,,,,,2025-01-29,1,,,,,ケイエムロジ,0
5367,8330001032844,新規,0,2025-01-29,2025-01-29,株式会社初音エステート,,株式会社,熊本県,玉名市,天水町小天２１４－４,,43,206,8615401,,,,,,,2025-01-29,1,,,,,ハツネエステート,0
5370,8370001052112,新規,0,2025-01-29,2025-01-29,株式会社アリウル,,株式会社,宮城県,仙台市青葉区,昭和町２－２３,,04,101,9810913,,,,,,,2025-01-29,1,,,,,アリウル,0
5371,8370001052186,新規,0,2025-01-29,2025-01-29,東日本電通株式会社,,株式会社,宮城県,仙台市泉区,八乙女中央４丁目４番８－４０２号,,04,105,9813135,,,,,,,2025-01-29,1,,,,,ヒガシニホンデンツウ,0
5372,8370003006917,新規,0,2025-01-29,2025-01-29,合同会社ＡＳ,,合同会社,宮城県,石巻市,中里５丁目５番１８号,,04,202,9860815,,,,,,,2025-01-29,1,,,,,アズ,0
5384,8430001093570,新規,0,2025-01-29,2025-01-29,アルカナファイナンス株式会社,,株式会社,北海道,札幌市西区,西野六条２丁目５－１２,,01,107,0630036,,,,,,,2025-01-29,1,,,,,アルカナファイナンス,0
5385,8430003017222,新規,0,2025-01-29,2025-01-29,合同会社ＭＩＮＯＲＵ,,合同会社,北海道,札幌市中央区,南十八条西１２丁目４番１６号４０１号室,,01,101,0640918,,,,,,,2025-01-29,1,,,,,ミノル,0
5387,8480003002228,新規,0,2025-01-29,2025-01-29,合同会社アンクラウン,,合同会社,徳島県,吉野川市,鴨島町鴨島４８５番地４２,,36,205,7760010,,,,,,,2025-01-29,1,,,,,アンクラウン,0
5391,8500003003421,新規,0,2025-01-29,2025-01-29,ＢＡＧＭＡＴＩ合同会社,,合同会社,愛媛県,西予市,宇和町卯之町３丁目３９７番地１Ｆ,,38,214,7970015,,,,,,,2025-01-29,1,,,,,バグマティ,0
5404,9010001251764,新規,0,2025-01-29,2025-01-29,株式会社日本デジタルセンター,,株式会社,東京都,千代田区,麹町３丁目５番地４麹町インテリジェントビルＢ－１,,13,101,1020083,,,,,,,2025-01-29,1,,,,,ニホンデジタルセンター,0
5405,9010001251789,新規,0,2025-01-29,2025-01-29,魚福堂株式会社,,株式会社,東京都,千代田区,神田須田町１丁目１８番６号第一谷ビル４階,,13,101,1010041,,,,,,,2025-01-29,1,,,,,ウオフクドウ,0
5406,9010001251797,新規,0,2025-01-29,2025-01-29,株式会社コーセー分割準備会社,,株式会社,東京都,中央区,日本橋３丁目６番２号,,13,102,1030027,,,,,,,2025-01-29,1,,,,,コーセーブンカツジュンビカイシャ,0
5407,9010001251806,新規,0,2025-01-29,2025-01-29,株式会社Ｐｒｅｆｅｒｒｅｄ　Ｃｏｍｐｕｔｉｎｇ　Ｉｎｆｒａｓｔｒｕｃｔｕｒｅ,,株式会社,東京都,千代田区,大手町１丁目６番１号大手町ビル,,13,101,1000004,,,,,,,2025-01-29,1,,,,,プリファードコンピューティングインフラストラクチャー,0
5408,9010001251814,新規,0,2025-01-29,2025-01-29,株式会社ＡＣＴ　ＯＮＥ　ＶＩＴＡＬ,,株式会社,東京都,中央区,日本橋小伝馬町１０－８ウィンド小伝馬町３階,,13,102,1030001,,,,,,,2025-01-29,1,,,,,アクトワンバイタル,0
5411,9010003046196,新規,0,2025-01-29,2025-01-29,合同会社ＹＡＭＡＫＩ　ＧＲＯＵＰ,,合同会社,東京都,文京区,大塚２丁目９番３号住友不動産音羽ビル,,13,105,1120012,,,,,,,2025-01-29,1,,,,,ヤマキグループ,0
5412,9010003046205,新規,0,2025-01-29,2025-01-29,ｓａｋｕｒａＢＩＭｓｔｕｄｉｏ合同会社,,合同会社,東京都,中央区,日本橋１丁目２－１０東洋ビルディング３Ｆ,,13,102,1030027,,,,,,,2025-01-29,1,,,,,サクラビムスタジオ,0
5413,9010003046213,新規,0,2025-01-29,2025-01-29,合同会社絢悠,,合同会社,東京都,千代田区,神田和泉町１番地６－１６ヤマトビル４０５,,13,101,1010024,,,,,,,2025-01-29,1,,,,,ケンユウ,0
5414,9010005039487,新規,0,2025-01-29,2025-01-29,一般社団法人ＥＳ長期脱炭素推進機構,,その他の設立登記法人,東京都,千代田区,紀尾井町４番１号ニューオータニガーデンコート１９階フィンポート税理士法人内,,13,101,1020094,,,,,,,2025-01-29,1,,,,,イーエスチョウキダツタンソスイシンキコウ,0
5421,9010401187451,新規,0,2025-01-29,2025-01-29,Ｍｙ　Ｇｒａｎｄｆａｔｈｅｒ’ｓ　Ｔｈｉｎｇｓ　Ｊａｐａｎ株式会社,,株式会社,東京都,港区,赤坂１丁目３番５号赤坂アビタシオン３Ｆ,,13,103,1070052,,,,,,,2025-01-29,1,,,,,マイグランドファーザーズシングスジャパン,0
5427,9010601066637,新規,0,2025-01-29,2025-01-29,株式会社ＳＷＳ４,,株式会社,東京都,江東区,東陽２丁目４番２号新宮ビル２階,,13,108,1350016,,,,,,,2025-01-29,1,,,,,エスダブリューエスフォー,0
5428,9010601066653,新規,0,2025-01-29,2025-01-29,ＫＮＯＴＩＱ株式会社,,株式会社,東京都,墨田区,横網２丁目６番１１号ライオンズマンション両国リバーステージ１３０３号室,,13,107,1300015,,,,,,,2025-01-29,1,,,,,ノティック,0
5429,9010601066661,新規,0,2025-01-29,2025-01-29,株式会社Ｆｏｏｄｉ　ｅｄｇｅ,,株式会社,東京都,墨田区,両国４丁目７番２－７０３号リヴシティ両国五番館,,13,107,1300026,,,,,,,2025-01-29,1,,,,,フーディエッジ,0
5431,9010701047149,新規,0,2025-01-29,2025-01-29,ＴＨＥ　Ｗ株式会社,,株式会社,東京都,品川区,上大崎１丁目１２－８－４０３,,13,109,1410021,,,,,,,2025-01-29,1,,,,,ザダブル,0
5432,9010701047157,新規,0,2025-01-29,2025-01-29,嘉言株式会社,,株式会社,東京都,品川区,西中延１丁目５番２２－１０２号,,13,109,1420054,,,,,,,2025-01-29,1,,,,,カゲン,0
5433,9010701047173,新規,0,2025-01-29,2025-01-29,ホコバ株式会社,,株式会社,東京都,品川区,東五反田５丁目２２－３３ＴＫ池田山ビル２Ｆ,,13,109,1410022,,,,,,,2025-01-29,1,,,,,ホコバ,0
5435,9010805003155,新規,0,2025-01-29,2025-01-29,税理士法人Ｒａｙ　Ａｃｃｏｕｎｔｉｎｇ,,その他の設立登記法人,東京都,大田区,西蒲田８丁目２４番８号井門西蒲田ビル４階,,13,111,1440051,,,,,,,2025-01-29,1,,,,,レイアカウンティング,0
5443,9011101110422,新規,0,2025-01-29,2025-01-29,株式会社エビンクル,,株式会社,東京都,新宿区,市谷船河原町１１,,13,104,1620826,,,,,,,2025-01-29,1,,,,,エビンクル,0
5446,9011201026089,新規,0,2025-01-29,2025-01-29,株式会社トライチ,,株式会社,東京都,中野区,鷺宮４丁目４３－１－ＧＡＲＺＡ２０６,,13,114,1650032,,,,,,,2025-01-29,1,,,,,トライチ,0
5537,9011501031598,新規,0,2025-01-29,2025-01-29,株式会社ファンビリー,,株式会社,東京都,北区,上十条２丁目７番１２号,,13,117,1140034,,,,,,,2025-01-29,1,,,,,ファンビリー,0
5544,9012401042719,新規,0,2025-01-29,2025-01-29,株式会社ハイ・リンクス,,株式会社,東京都,三鷹市,深大寺３丁目２０‐１０,,13,204,1810016,,,,,,,2025-01-29,1,,,,,ハイリンクス,0
5548,9013303007504,新規,0,2025-01-29,2025-01-29,合同会社Ｐｒｏｇｒｉｓｅ,,合同会社,東京都,豊島区,南池袋１丁目１６番１５号ダイヤゲート池袋５階,,13,116,1710022,,,,,,,2025-01-29,1,,,,,プラグライズ,0
5554,9020005016691,新規,0,2025-01-29,2025-01-29,一般社団法人湘南在宅メディカルネットワーク,,その他の設立登記法人,神奈川県,横浜市都筑区,すみれが丘３２番地１－２０６号,,14,118,2240013,,,,,,,2025-01-29,1,,,,,ショウナンザイタクメディカルネットワーク,0
5731,9030001164576,新規,0,2025-01-29,2025-01-29,株式会社ＧＣＧ,,株式会社,埼玉県,所沢市,くすのき台１丁目１３－２ガーデンシティ所沢２階,,11,208,3590037,,,,,,,2025-01-29,1,,,,,ジーシージー,0
5732,9030001164601,新規,0,2025-01-29,2025-01-29,ｓｉｎｃｅｒｉｔｙ株式会社,,株式会社,埼玉県,川口市,大字安行原１７９１－９,,11,203,3340057,,,,,,,2025-01-29,1,,,,,シンセリティー,0
5733,9030001164650,新規,0,2025-01-29,2025-01-29,株式会社ＲＥＡＬＩＺＥ,,株式会社,埼玉県,春日部市,粕壁６７２４番地１,,11,214,3440061,,,,,,,2025-01-29,1,,,,,リアライズ,0
5739,9040001137151,新規,0,2025-01-29,2025-01-29,株式会社れんげつつじ,,株式会社,千葉県,市川市,大野町３丁目１７８６番地２４,,12,203,2720805,,,,,,,2025-01-29,1,,,,,レンゲツツジ,0
5740,9040001137226,新規,0,2025-01-29,2025-01-29,波動ＡＩ株式会社,,株式会社,千葉県,千葉市中央区,浜野町９７１番１の２Ａの７,,12,101,2600824,,,,,,,2025-01-29,1,,,,,ハドウエーアイ,0
5743,9040003026732,新規,0,2025-01-29,2025-01-29,合同会社花水木,,合同会社,千葉県,鎌ケ谷市,南鎌ケ谷１丁目１２－３５,,12,224,2730106,,,,,,,2025-01-29,1,,,,,ハナミズキ,0
5744,9040003026740,新規,0,2025-01-29,2025-01-29,合同会社オカペン,,合同会社,千葉県,木更津市,富士見１丁目９番１３号,,12,206,2920831,,,,,,,2025-01-29,1,,,,,オカペン,0
5747,9050003008977,新規,0,2025-01-29,2025-01-29,合同会社ＳｏｎｉｃＣａｎｖａｓ,,合同会社,茨城県,守谷市,松並青葉２丁目２６番地２,,08,224,3020132,,,,,,,2025-01-29,1,,,,,ソニックキャンバス,0
5751,9060001037861,新規,0,2025-01-29,2025-01-29,株式会社勝英商事,,株式会社,栃木県,栃木市,大平町横堀６８０番地２,,09,203,3294411,,,,,,,2025-01-29,1,,,,,カツエイショウジ,0
5754,9080001026730,新規,0,2025-01-29,2025-01-29,株式会社Ｊｏｌｌｙ,,株式会社,静岡県,静岡市駿河区,国吉田４丁目１８番１号,,22,102,4228004,,,,,,,2025-01-29,1,,,,,ジョリー,0
5757,9080101025277,新規,0,2025-01-29,2025-01-29,株式会社ＳＵＮＲＩＳＥ,,株式会社,静岡県,富士宮市,山本４６４番地の３,,22,207,4180023,,,,,,,2025-01-29,1,,,,,サンライズ,0
5762,9080403005191,新規,0,2025-01-29,2025-01-29,合同会社希,,合同会社,静岡県,浜松市中央区,新橋町１０７３番地の１,,22,138,4328058,,,,,,,2025-01-29,1,,,,,ノゾミ,0
5773,9120001272171,新規,0,2025-01-29,2025-01-29,東櫻佳溢株式会社,,株式会社,大阪府,大阪市港区,八幡屋３丁目４番８－２０２号,,27,107,5520014,,,,,,,2025-01-29,1,,,,,トウオウカイツ,0
5774,9120001272329,新規,0,2025-01-29,2025-01-29,亀地興業株式会社,,株式会社,大阪府,大阪市大正区,三軒家東１丁目１５番２９号カーサウエスト１０１号,,27,108,5510002,,,,,,,2025-01-29,1,,,,,カメヂコウギョウ,0
5775,9120001272353,新規,0,2025-01-29,2025-01-29,株式会社そしじ,,株式会社,大阪府,大阪市西区,西本町１丁目６－９－２０６,,27,106,5500005,,,,,,,2025-01-29,1,,,,,ソシジ,0
5776,9120001272403,新規,0,2025-01-29,2025-01-29,治学株式会社,,株式会社,大阪府,大阪市中央区,松屋町９番２０号ローレルステート松屋町３０４Ｂ,,27,128,5420067,,,,,,,2025-01-29,1,,,,,チガク,0
5777,9120001272411,新規,0,2025-01-29,2025-01-29,株式会社ＭＯＲＩ,,株式会社,大阪府,大阪市淀川区,西宮原２丁目６番１６－２２９号,,27,123,5320004,,,,,,,2025-01-29,1,,,,,モリ,0
5778,9120001272452,新規,0,2025-01-29,2025-01-29,株式会社ディフストーリー,,株式会社,大阪府,大阪市生野区,勝山北３丁目２番７号,,27,116,5440033,,,,,,,2025-01-29,1,,,,,ディフストーリー,0
5780,9120003028456,新規,0,2025-01-29,2025-01-29,ｗａｒａｂｅ合同会社,,合同会社,大阪府,大阪市生野区,中川西２丁目１番１２号,,27,116,5440032,,,,,,,2025-01-29,1,,,,,ワラベ,0
5781,9120003028489,新規,0,2025-01-29,2025-01-29,恒森合同会社,,合同会社,大阪府,大阪市中央区,常盤町２丁目１番８号ＦＧビル大阪６０４,,27,128,5400028,,,,,,,2025-01-29,1,,,,,コウシン,0
5784,9120005024767,新規,0,2025-01-29,2025-01-29,医療法人ナデシコ会,,その他の設立登記法人,大阪府,大阪市中央区,森ノ宮中央２丁目１番７０号もりのみやキューズモールＢＡＳＥ２０４,,27,128,5400003,,,,,,,2025-01-29,1,,,,,ナデシコカイ,0
5940,9130001078881,新規,0,2025-01-29,2025-01-29,株式会社たのＱ,,株式会社,京都府,京都市下京区,小稲荷町８５番地２Ｇｒａｎｄ－Ｋ京都駅前ビル２０１,,26,106,6008208,,,,,,,2025-01-29,1,,,,,タノキュウ,0
5947,9140001137216,新規,0,2025-01-29,2025-01-29,株式会社いまだ,,株式会社,兵庫県,尼崎市,東桜木町９３番地の１,,28,202,6600864,,,,,,,2025-01-29,1,,,,,イマダ,0
5948,9140001137224,新規,0,2025-01-29,2025-01-29,株式会社ＰｈａｓｅＦｒｅｅ,,株式会社,兵庫県,神戸市兵庫区,上沢通５丁目６番４号,,28,105,6520046,,,,,,,2025-01-29,1,,,,,フェーズフリー,0
5949,9140001137249,新規,0,2025-01-29,2025-01-29,株式会社レトラボ,,株式会社,兵庫県,尼崎市,昭和通２丁目６番６８号,,28,202,6600881,,,,,,,2025-01-29,1,,,,,レトラボ,0
5958,9140003021574,新規,0,2025-01-29,2025-01-29,合同会社ぽやじゅ,,合同会社,兵庫県,神戸市中央区,下山手通４丁目１４番６－１１０１号,,28,110,6500011,,,,,,,2025-01-29,1,,,,,ポヤジュ,0
5959,9140003021590,新規,0,2025-01-29,2025-01-29,合同会社ＵＡＳテクノ,,合同会社,兵庫県,神戸市中央区,磯辺通１丁目１番１８号カサベラ国際プラザビル７０７号室,,28,110,6510084,,,,,,,2025-01-29,1,,,,,ユーエーエステクノ,0
5960,9140003021599,新規,0,2025-01-29,2025-01-29,Ｏｂａｉｄ　Ｕｌｌａｈ　Ｔｒａｄｉｎｇ合同会社,,合同会社,兵庫県,神戸市東灘区,深江浜町７６番地,,28,101,6580023,,,,,,,2025-01-29,1,,,,,オベイドウッラートレーディング,0
5961,9140005027363,新規,0,2025-01-29,2025-01-29,特定非営利活動法人安穏,,その他の設立登記法人,兵庫県,丹波市,山南町小野尻１１９番地,,28,223,6693166,,,,,,,2025-01-29,1,,,,,アンノン,0
5964,9150001027837,新規,0,2025-01-29,2025-01-29,燧石株式会社,,株式会社,奈良県,北葛城郡上牧町,服部台２丁目２番９号,,29,424,6390212,,,,,,,2025-01-29,1,,,,,スイセキ,0
5969,9180001165196,新規,0,2025-01-29,2025-01-29,瀛達不動産株式会社,,株式会社,愛知県,名古屋市中区,丸の内１丁目１５番２８号ナビシティ丸の内２０１号,,23,106,4600002,,,,,,,2025-01-29,1,,,,,エイタツフドウサン,0
5980,9210001020042,新規,0,2025-01-29,2025-01-29,プレージュ株式会社,,株式会社,福井県,越前市,妙法寺町３７１番地,,18,209,9150844,,,,,,,2025-01-29,1,,,,,プレージュ,0
5981,9220003003944,新規,0,2025-01-29,2025-01-29,合同会社みやび,,合同会社,石川県,白山市,鶴来本町２丁目ワ１２１－２,,17,210,9202121,,,,,,,2025-01-29,1,,,,,ミヤビ,0
5983,9230005009435,新規,0,2025-01-29,2025-01-29,北陸税理士データ通信協同組合,,その他の設立登記法人,富山県,氷見市,窪６１５番地,,16,205,9350024,,,,,,,2025-01-29,1,,,,,ホクリクゼイリシデータツウシン,0
5996,9280003001918,新規,0,2025-01-29,2025-01-29,合同会社パインタイガー,,合同会社,島根県,松江市,西生馬町３７番地４,,32,201,6900865,,,,,,,2025-01-29,1,,,,,,0
6006,9290001108706,新規,0,2025-01-29,2025-01-29,仁居株式会社,,株式会社,福岡県,福岡市早良区,西新１丁目１番２１ロマネスク西新オレンジ通り５０９号,,40,137,8140002,,,,,,,2025-01-29,1,,,,,ニンキョ,0
6007,9290001108730,新規,0,2025-01-29,2025-01-29,株式会社ＨＡＹＡＢＵＳＡ　ＳＨＯ,,株式会社,福岡県,福岡市東区,松田３丁目１４番１号,,40,131,8120064,,,,,,,2025-01-29,1,,,,,ハヤブサショウ,0
6008,9290001108771,新規,0,2025-01-29,2025-01-29,株式会社ＮＰＬＵＳ,,株式会社,福岡県,柳川市,筑紫町２９番地,,40,207,8320077,,,,,,,2025-01-29,1,,,,,エヌプラス,0
6009,9290001108796,新規,0,2025-01-29,2025-01-29,株式会社エスフルコンサルティング,,株式会社,福岡県,福岡市東区,馬出１丁目１３番８号,,40,131,8120054,,,,,,,2025-01-29,1,,,,,エスフルコンサルティング,0
6012,9290801031231,新規,0,2025-01-29,2025-01-29,株式会社アークス,,株式会社,福岡県,行橋市,大字徳永５７９番地,,40,213,8240071,,,,,,,2025-01-29,1,,,,,アークス,0
6017,9330001032843,新規,0,2025-01-29,2025-01-29,ＹＭＳ株式会社,,株式会社,熊本県,熊本市東区,下江津５丁目１番２２号,,43,102,8620960,,,,,,,2025-01-29,1,,,,,ワイエムエス,0
6026,9370001052185,新規,0,2025-01-29,2025-01-29,アキ電工株式会社,,株式会社,宮城県,仙台市太白区,長町７丁目９番１７－３０５号,,04,104,9820011,,,,,,,2025-01-29,1,,,,,アキデンコウ,0
6027,9370003006916,新規,0,2025-01-29,2025-01-29,合同会社ＡＮＳＷＥＲ,,合同会社,宮城県,仙台市泉区,住吉台東３丁目６番地の１１,,04,105,9813222,,,,,,,2025-01-29,1,,,,,アンサー,0
6028,9370005010899,新規,0,2025-01-29,2025-01-29,特定非営利活動法人音楽のチカラ,,その他の設立登記法人,宮城県,仙台市青葉区,新坂町３番１９号,,04,101,9810934,,,,,,,2025-01-29,1,,,,,オンガクノチカラ,0
6035,9470001020553,新規,0,2025-01-29,2025-01-29,ＹＯＩ株式会社,,株式会社,香川県,小豆郡小豆島町,坂手甲１０１２号,,37,324,7614425,,,,,,,2025-01-29,1,,,,,ヨイ,0
6036,9470003002797,新規,0,2025-01-29,2025-01-29,合同会社ＫＯＫＹＯ,,合同会社,香川県,高松市,仏生山町甲３２１４―１０,,37,201,7618078,,,,,,,2025-01-29,1,,,,,コキョー,0
