sequenceNumber,corporateNumber,process,correct,updateDate,changeDate,name,nameImageId,kind,prefectureName,cityName,streetNumber,addressImageId,prefectureCode,cityCode,postCode,addressOutside,addressOutsideImageId,closeDate,closeCause,successorCorporateNumber,changeCause,assignmentDate,latest,enName,enPrefectureName,enCityName,enAddressOutside,furigana,hihyoji
22,1010005033068,登記記録の閉鎖等,0,2024-12-10,2024-12-06,特定目的会社リスボン,,その他の設立登記法人,東京都,千代田区,丸の内３丁目１番１号東京共同会計事務所内,,13,101,1000005,,,2024-12-06,清算の結了等,,,2021-03-12,1,,,,,リスボン,0
31,1010405022125,登記記録の閉鎖等,0,2024-12-10,2024-11-26,関西ロジスティクス一般社団法人,,その他の設立登記法人,東京都,港区,元赤坂１丁目１番７号,,13,103,1070051,,,2024-11-26,清算の結了等,,,2023-05-12,1,,,,,カンサイロジスティクス,0
33,1010601031508,登記記録の閉鎖等,0,2024-12-10,2024-12-05,株式会社宮内鉄工所,,株式会社,東京都,江東区,森下３丁目１２番１５号,,13,108,1350004,,,2024-12-05,清算の結了等,,,2024-09-04,1,,,,,,0
34,1010601059994,登記記録の閉鎖等,0,2024-12-10,2024-12-09,株式会社宮建,,株式会社,東京都,江東区,北砂３丁目３５番９号－２０１,,13,108,1360073,,,2024-12-09,清算の結了等,,,2021-10-01,1,,,,,ミヤケン,0
37,1010802007851,登記記録の閉鎖等,0,2024-12-10,2024-12-02,有限会社須山スプリング製作所,,有限会社,東京都,大田区,千鳥２丁目１５番１０号,,13,111,1460083,,,2024-12-02,清算の結了等,,,2015-10-05,1,,,,,スヤマスプリングセイサクショ,0
56,1011303004792,登記記録の閉鎖等,0,2024-12-10,2024-12-06,合同会社山口会計,,合同会社,東京都,杉並区,井草２丁目２４番６号,,13,115,1670021,,,2024-12-06,清算の結了等,,,2023-06-13,1,,,,,,0
64,1011801012537,登記記録の閉鎖等,0,2024-12-10,2024-12-02,ビームス株式会社,,株式会社,東京都,千代田区,神田錦町３丁目１９番地,,13,101,1010054,,,2024-12-02,合併による解散等,3010001150071,令和６年１２月１日東京都文京区西片二丁目２０番３号２０１アヴェイル・ホールディングス株式会社（3010001150071）に合併し解散,2015-10-05,1,,,,,ビームス,0
74,1013301027346,登記記録の閉鎖等,0,2024-12-10,2024-11-29,株式会社菜園クラブ,,株式会社,東京都,豊島区,巣鴨５丁目１４番８－３０２号,,13,116,1700002,,,2024-11-29,清算の結了等,,,2015-10-05,1,,,,,サイエンクラブ,0
89,1020002041502,登記記録の閉鎖等,0,2024-12-10,2024-12-02,有限会社エヴァグリーンインターナショナル,,有限会社,神奈川県,横浜市中区,本郷町２丁目３２番地,,14,104,2310843,,,2024-12-02,清算の結了等,,,2015-10-05,1,,,,,エヴァグリーンインターナショナル,0
108,1030002042094,登記記録の閉鎖等,0,2024-12-10,2024-12-06,有限会社岡田製作所,,有限会社,埼玉県,加須市,中ノ目４６５番地の２号,,11,210,3470124,,,2024-12-06,清算の結了等,,,2015-10-05,1,,,,,オカダセイサクショ,0
110,1030002055559,登記記録の閉鎖等,0,2024-12-10,2024-12-04,有限会社岡野燃料店,,有限会社,埼玉県,桶川市,下日出谷東２丁目１３番地の６,,11,231,3630029,,,2024-12-04,清算の結了等,,,2015-10-05,1,,,,,オカノネンリョウテン,0
120,1040002101650,登記記録の閉鎖等,0,2024-12-10,2024-12-02,有限会社イングリッシュロフト,,有限会社,千葉県,鴨川市,前原６４番地,,12,223,2960002,,,2024-12-02,合併による解散等,7040002100738,令和６年１２月１日千葉県鴨川市前原６４番地株式会社グリーンクラブ（7040002100738）に合併し解散,2015-10-05,1,,,,,イングリッシュロフト,0
121,1040005019840,登記記録の閉鎖等,0,2024-12-10,2024-12-03,特定非営利活動法人お母さんの保育・教育をサポートする会,,その他の設立登記法人,千葉県,市川市,相之川４丁目１３番１９号コートＭ３－３０２号,,12,203,2720143,,,2024-12-03,清算の結了等,,,2018-01-29,1,,,,,オカアサンノホイクキョウイクヲサポートスルカイ,0
122,1050001012542,登記記録の閉鎖等,0,2024-12-10,2024-12-02,株式会社双葉商会,,株式会社,茨城県,土浦市,菅谷町１２７７番地の１,,08,203,3000021,,,2024-12-02,清算の結了等,,,2015-10-05,1,,,,,フタバショウカイ,0
133,1080001012432,登記記録の閉鎖等,0,2024-12-10,2024-12-04,株式会社金井屋,,株式会社,静岡県,静岡市葵区,水落町２０番１６号,,22,101,4200831,,,2024-12-04,清算の結了等,,,2015-10-05,1,,,,,カナイヤ,0
141,1080102009419,登記記録の閉鎖等,0,2024-12-10,2024-12-05,有限会社石川設備工業,,有限会社,静岡県,田方郡函南町,間宮１０２番地の３,,22,325,4190123,,,2024-12-05,清算の結了等,,,2015-10-05,1,,,,,イシカワセツビコウギョウ,0
142,1080102009534,登記記録の閉鎖等,0,2024-12-10,2024-12-05,有限会社イワタ印刷,,有限会社,静岡県,三島市,鶴喰２４番地の２,,22,206,4110813,,,2024-12-05,清算の結了等,,,2015-10-05,1,,,,,イワタインサツ,0
149,1090005006041,登記記録の閉鎖等,0,2024-12-10,2024-12-02,特定非営利活動法人故郷の地球,,その他の設立登記法人,山梨県,西八代郡市川三郷町,市川大門７３４番地１,,19,346,4093601,,,2024-12-02,清算の結了等,,,2015-10-05,1,,,,,フルサトノホシ,0
163,1110002025339,登記記録の閉鎖等,0,2024-12-10,2024-12-04,有限会社油徳,,有限会社,新潟県,十日町市,西本町１丁目４０６番地２,,15,210,9480072,,,2024-12-04,清算の結了等,,,2015-10-05,1,,,,,アブトク,0
175,1120003018893,登記記録の閉鎖等,0,2024-12-10,2024-12-02,合同会社Ｋ企画,,合同会社,大阪府,大阪市中央区,難波２丁目３番１１号４階Ｆ号室,,27,128,5420076,,,2024-12-02,清算の結了等,,,2021-02-15,1,,,,,ケイキカク,0
192,1140003003860,登記記録の閉鎖等,0,2024-12-10,2024-12-04,サン山本合資会社,,合資会社,兵庫県,神戸市灘区,摩耶埠頭摩耶大橋基部亊務所,,28,102,6570854,,,2024-12-04,清算の結了等,,,2015-10-05,1,,,,,サンヤマモト,0
198,1170001002498,登記記録の閉鎖等,0,2024-12-10,2024-12-06,西宏建設株式会社,,株式会社,和歌山県,和歌山市,下町１番地,,30,201,6408220,,,2024-12-06,清算の結了等,,,2015-10-05,1,,,,,ニシヒロケンセツ,0
202,1180001055561,登記記録の閉鎖等,0,2024-12-10,2024-12-02,株式会社エス・ピー・エム,,株式会社,愛知県,名古屋市中区,丸の内２丁目７番１９号,,23,106,4600002,,,2024-12-02,清算の結了等,,,2015-10-05,1,,,,,エスピーエム,0
210,1180002026702,登記記録の閉鎖等,0,2024-12-10,2024-12-06,有限会社メイキ,,有限会社,静岡県,沼津市,西浦平沢２８３番地の４リヴァージュ西伊豆１０４号,,22,203,4100234,,,2024-12-06,清算の結了等,,,2015-10-05,1,,,,,メイキ,0
211,1180002031520,登記記録の閉鎖等,0,2024-12-10,2024-12-03,有限会社大昂,,有限会社,愛知県,名古屋市中区,金山２丁目７番１４号,,23,106,4600022,,,2024-12-03,清算の結了等,,,2015-10-05,1,,,,,タイコウ,0
213,1180003024795,登記記録の閉鎖等,0,2024-12-10,2024-12-02,合同会社ベテルギウス,,合同会社,愛知県,小牧市,新町２丁目２８４,,23,219,4850013,,,2024-12-02,合併による解散等,8180001161782,令和６年１２月１日名古屋市北区平安二丁目１４番１号株式会社プラネット（8180001161782）に合併し解散,2023-02-03,1,,,,,ベテルギウス,0
225,1260001024244,登記記録の閉鎖等,0,2024-12-10,2024-12-04,株式会社倉敷共同配車センター,,株式会社,岡山県,倉敷市,幸町１５番２６号,,33,202,7100051,,,2024-12-04,清算の結了等,,,2015-10-05,1,,,,,クラシキキョウドウハイシャセンター,0
228,1260002024689,登記記録の閉鎖等,0,2024-12-10,2024-12-02,セイコー不動産有限会社,,有限会社,岡山県,倉敷市,大島４６９番地２０,,33,202,7100047,,,2024-12-02,清算の結了等,,,2015-10-05,1,,,,,セイコーフドウサン,0
229,1280001008369,登記記録の閉鎖等,0,2024-12-10,2024-12-05,株式会社Ｌｉｎｋｓ,,株式会社,島根県,出雲市,斐川町荘原２１６番地１,,32,203,6990502,,,2024-12-05,清算の結了等,,,2021-03-04,1,,,,,リンクス,0
243,1320002013487,登記記録の閉鎖等,0,2024-12-10,2024-12-06,有限会社アルファー太平,,有限会社,大分県,別府市,餅ケ浜町１０番３４号,,44,202,8740924,,,2024-12-06,清算の結了等,,,2015-10-05,1,,,,,,0
245,1330001005352,登記記録の閉鎖等,0,2024-12-10,2024-12-03,株式会社ミツマル,,株式会社,熊本県,菊池郡菊陽町,光の森４丁目１２番地１９,,43,404,8691108,,,2024-12-03,清算の結了等,,,2015-10-05,1,,,,,ミツマル,0
251,1360001024515,登記記録の閉鎖等,0,2024-12-10,2024-12-09,株式会社グローバルブランディングジャパン,,株式会社,沖縄県,宜野湾市,嘉数１丁目８番３号,,47,205,9012226,,,2024-12-09,清算の結了等,,,2018-08-30,1,,,,,グローバルブランディングジャパン,0
252,1360003013607,登記記録の閉鎖等,0,2024-12-10,2024-12-06,関口合同会社,,合同会社,沖縄県,名護市,字宮里９７１番地２－３０１号,,47,209,9050011,,,2024-12-06,清算の結了等,,,2024-01-12,1,,,,,セキグチ,0
256,1370003001494,登記記録の閉鎖等,0,2024-12-10,2024-12-03,合同会社ＮＩＮＥ　ＨＡＬＦ　ｇｒｏｕｐ,,合同会社,宮城県,仙台市青葉区,二日町７番３２－８１２号,,04,101,9800802,,,2024-12-03,清算の結了等,,,2015-10-05,1,,,,,ナインハーフグループ,0
263,1380005003307,登記記録の閉鎖等,0,2024-12-10,2024-11-27,ＮＰＯ法人ペンギン村,,その他の設立登記法人,福島県,郡山市,御前南６丁目３０番地,,07,203,9630209,,,2024-11-27,清算の結了等,,,2015-10-05,1,,,,,ペンギンムラ,0
269,1460302003876,登記記録の閉鎖等,0,2024-12-10,2024-12-09,有限会社ドリームＢＡＵ,,有限会社,北海道,北見市,美山町東２丁目６８番地３８,,01,208,0900069,,,2024-12-09,清算の結了等,,,2015-10-05,1,,,,,ドリームバウ,0
272,1480005003271,登記記録の閉鎖等,0,2024-12-10,2024-12-09,Ｄ・Ｏ協同組合,,その他の設立登記法人,徳島県,吉野川市,川島町山田字中須賀１１８番地,,36,205,7793302,,,2024-12-09,清算の結了等,,,2015-10-05,1,,,,,ディーオー,0
280,2010001133325,登記記録の閉鎖等,0,2024-12-10,2024-12-04,株式会社Ｌｉｇｈｔ　Ｂｅｙｏｎｄ　Ｃｏｒｐｏｒａｔｉｏｎ,,株式会社,千葉県,松戸市,西馬橋１丁目３９番２７号,,12,207,2710044,,,2024-12-04,清算の結了等,,,2015-10-05,1,,,,,エルアイジーエイチティービーイーワイオーエヌディーシーオーアールピーオーアールエイティーアイオーエヌ,0
286,2010003021057,登記記録の閉鎖等,0,2024-12-10,2024-11-26,日光１０４サン東平合同会社,,合同会社,東京都,千代田区,丸の内３丁目１番１号東京共同会計事務所内,,13,101,1000005,,,2024-11-26,清算の結了等,,,2015-10-05,1,,,,,ニッコウワンハンドレッドフォーサントウヘイ,0
289,2010005028827,登記記録の閉鎖等,0,2024-12-10,2024-12-06,一般社団法人ＡＬＣ,,その他の設立登記法人,東京都,千代田区,丸の内３丁目１番１号東京共同会計事務所内,,13,101,1000005,,,2024-12-06,清算の結了等,,,2018-07-20,1,,,,,エーエルシー,0
307,2010802008444,登記記録の閉鎖等,0,2024-12-10,2024-12-02,有限会社大善工務店,,有限会社,東京都,大田区,大森西５丁目５番１７号,,13,111,1430015,,,2024-12-02,清算の結了等,,,2015-10-05,1,,,,,ダイゼンコウムテン,0
310,2010903006702,登記記録の閉鎖等,0,2024-12-10,2024-12-03,東門社合同会社,,合同会社,東京都,世田谷区,三軒茶屋１丁目４０番２号ハイシティ三軒茶屋第２－３０５,,13,112,1540024,,,2024-12-03,清算の結了等,,,2021-08-04,1,,,,,トウモンシャ,0
327,2011501014106,登記記録の閉鎖等,0,2024-12-10,2024-12-06,株式会社ネオポリス,,株式会社,東京都,荒川区,荒川８丁目２４番２号,,13,118,1160002,,,2024-12-06,清算の結了等,,,2015-10-05,1,,,,,,0
358,2021002059062,登記記録の閉鎖等,0,2024-12-10,2024-12-09,有限会社新倉米店,,有限会社,神奈川県,平塚市,平塚２丁目１７番２３号,,14,203,2540052,,,2024-12-09,清算の結了等,,,2015-10-05,1,,,,,ニイクラコメテン,0
363,2030001111709,登記記録の閉鎖等,0,2024-12-10,2024-12-04,株式会社栗原管理,,株式会社,埼玉県,深谷市,東方１７３９番地,,11,218,3660041,,,2024-12-04,清算の結了等,,,2015-12-07,1,,,,,クリハラカンリ,0
364,2030001120593,登記記録の閉鎖等,0,2024-12-10,2024-12-04,株式会社ソーコー,,株式会社,埼玉県,越谷市,越ヶ谷１丁目３番２１号,,11,222,3430813,,,2024-12-04,清算の結了等,,,2017-06-05,1,,,,,ソーコー,0
369,2030005016375,登記記録の閉鎖等,0,2024-12-10,2024-12-03,一般社団法人日本反訳士協会,,その他の設立登記法人,埼玉県,比企郡吉見町,大字和名４６番地１０４,,11,347,3550152,,,2024-12-03,清算の結了等,,,2015-10-05,1,,,,,ニホンハンヤクシキョウカイ,0
375,2040001076050,登記記録の閉鎖等,0,2024-12-10,2024-12-02,株式会社米華,,株式会社,千葉県,木更津市,下郡１１０５番地,,12,206,2920205,,,2024-12-02,清算の結了等,,,2015-10-05,1,,,,,コメハナ,0
391,2070001011640,登記記録の閉鎖等,0,2024-12-10,2024-12-03,井川設備株式会社,,株式会社,群馬県,富岡市,富岡９９２番地,,10,210,3702316,,,2024-12-03,清算の結了等,,,2015-10-05,1,,,,,イガワ,0
397,2080401021817,登記記録の閉鎖等,0,2024-12-10,2024-12-04,クロスオーバーテクノロジーズ株式会社,,株式会社,静岡県,浜松市中央区,高林４丁目１２番２号,,22,138,4300907,,,2024-12-04,清算の結了等,,,2016-10-27,1,,,,,クロスオーバーテクノロジーズ,0
400,2100002009077,登記記録の閉鎖等,0,2024-12-10,2024-12-02,ヨナゴ販売有限会社,,有限会社,長野県,上高井郡高山村,堀ノ内１０９番地,,20,543,3820800,,,2024-12-02,清算の結了等,,,2015-10-05,1,,,,,ヨナゴハンバイ,0
402,2110002016840,登記記録の閉鎖等,0,2024-12-10,2024-12-04,有限会社泉田製作所,,有限会社,新潟県,三条市,直江町３丁目１７番３２号,,15,204,9550832,,,2024-12-04,清算の結了等,,,2015-10-05,1,,,,,イズミダセイサクショ,0
403,2110002022211,登記記録の閉鎖等,0,2024-12-10,2024-12-04,有限会社アダチ商会,,有限会社,新潟県,上越市,石橋２丁目１０番２８号,,15,222,9420074,,,2024-12-04,清算の結了等,,,2015-10-05,1,,,,,アダチショウカイ,0
430,2130002009958,登記記録の閉鎖等,0,2024-12-10,2024-12-06,有限会社スワンキー・ドープ,,有限会社,京都府,京都市東山区,鞘町通五条下ル二丁目大阪町３８２番地,00047460,26,105,6050000,,,2024-12-06,清算の結了等,,,2015-10-05,1,,,,,スワンキードープ,0
440,2180001158834,登記記録の閉鎖等,0,2024-12-10,2024-12-03,岩昌株式会社,,株式会社,愛知県,名古屋市南区,柵下町４丁目６番地,,23,112,4570044,,,2024-12-03,清算の結了等,,,2023-11-08,1,,,,,ガンショウ,0
443,2180002076663,登記記録の閉鎖等,0,2024-12-10,2024-12-03,有限会社スタジオエニー,,有限会社,愛知県,一宮市,あずら１丁目９番２６号,,23,203,4910835,,,2024-12-03,清算の結了等,,,2015-10-05,1,,,,,スタジオエニー,0
447,2180301015438,登記記録の閉鎖等,0,2024-12-10,2024-12-02,株式会社ニッシン,,株式会社,愛知県,碧南市,霞浦町３丁目４６番地,,23,209,4470881,,,2024-12-02,合併による解散等,4180301015436,令和６年１２月１日愛知県碧南市港本町４番地３９日進工業株式会社（4180301015436）に合併し解散,2015-10-05,1,,,,,ニッシン,0
475,2320003002331,登記記録の閉鎖等,0,2024-12-10,2024-12-06,合同会社杵築グリーンエナジー,,合同会社,大分県,大分市,大字羽田６７３番地,,44,201,8700942,,,2024-12-06,清算の結了等,,,2015-12-16,1,,,,,,0
480,2330001028377,登記記録の閉鎖等,0,2024-12-10,2024-12-05,南関バンブーエナジー株式会社,,株式会社,熊本県,玉名郡南関町,大字下坂下４６６８番地６,,43,367,8610821,,,2024-12-05,合併による解散等,4320001010251,令和６年１２月１日大分県日田市大字東有田２８１３番地２２日本フォレスト株式会社（4320001010251）に合併し解散,2021-03-11,1,,,,,ナンカンバンブーエナジー,0
488,2420002017469,登記記録の閉鎖等,0,2024-12-10,2024-12-04,有限会社テイエム保険事務所,,有限会社,青森県,十和田市,稲生町３番７号,,02,206,0340011,,,2024-12-04,清算の結了等,,,2015-10-05,1,,,,,テイエムホケンジムショ,0
489,2420003000564,登記記録の閉鎖等,0,2024-12-10,2024-12-03,ちぐさワールド福祉合同会社,,合同会社,青森県,八戸市,大字白銀町字佐部長根２４番地１２３４,,02,203,0310822,,,2024-12-03,清算の結了等,,,2015-10-05,1,,,,,チグサワールドフクシ,0
490,2430002005621,登記記録の閉鎖等,0,2024-12-10,2024-11-25,株式会社基輝鉄工,,株式会社,東京都,港区,芝浦４丁目５番４号,,13,103,1080023,,,2024-11-25,清算の結了等,,,2015-10-05,1,,,,,モトキテッコウ,0
514,3010002015463,登記記録の閉鎖等,0,2024-12-10,2024-12-02,有限会社吉岡建築設計事務所,,有限会社,埼玉県,さいたま市南区,白幡２丁目２番７号,,11,108,3360022,,,2024-12-02,清算の結了等,,,2015-10-05,1,,,,,ヨシオカケンチクセッケイジムショ,0
515,3010003021056,登記記録の閉鎖等,0,2024-12-10,2024-11-26,日光１０３ライフ十二軒町合同会社,,合同会社,東京都,千代田区,丸の内３丁目１番１号東京共同会計事務所内,,13,101,1000005,,,2024-11-26,清算の結了等,,,2015-10-05,1,,,,,ニッコウワンハンドレッドスリーライフジュウニケンチョウ,0
523,3010401060135,登記記録の閉鎖等,0,2024-12-10,2024-11-26,パーセク株式会社,,株式会社,東京都,港区,白金２丁目５－５１白金三光アンクレー３０１,,13,103,1080072,,,2024-11-26,清算の結了等,,,2015-10-05,1,,,,,パーセク,0
526,3010401117496,登記記録の閉鎖等,0,2024-12-10,2024-11-26,アドバンストメディカルＩＰ株式会社,,株式会社,東京都,港区,西新橋１丁目２番９号,,13,103,1050003,,,2024-11-26,清算の結了等,,,2015-10-05,1,,,,,アバンストメディカルアイピー,0
535,3010803002882,登記記録の閉鎖等,0,2024-12-10,2024-12-02,Ｂｌｕｅ　Ｏｃｅａｎ　Ｃｏｎｓｕｌｔｉｎｇ合同会社,,合同会社,東京都,大田区,上池台５丁目１６番１３号,,13,111,1450064,,,2024-12-02,清算の結了等,,,2018-12-18,1,,,,,ブルーオーシャンコンサルティング,0
536,3010901008427,登記記録の閉鎖等,0,2024-12-10,2024-12-05,株式会社東和エステート,,株式会社,東京都,世田谷区,成城３丁目１４番３号,,13,112,1570066,,,2024-12-05,合併による解散等,5011301005079,令和６年１１月３０日東京都杉並区下高井戸五丁目２番１号株式会社東拓建設（5011301005079）に合併し解散,2015-10-05,1,,,,,トウワエステート,0
564,3012303001712,登記記録の閉鎖等,0,2024-12-10,2024-11-27,合同会社アリアンツ,,合同会社,東京都,町田市,小山ヶ丘３丁目１２番地８ドミール多摩境Ｄ１０１,,13,209,1940215,,,2024-11-27,清算の結了等,,,2022-08-23,1,,,,,アリアンツ,0
571,3020001113960,登記記録の閉鎖等,0,2024-12-10,2024-11-29,アジャイルデザイン株式会社,,株式会社,神奈川県,横浜市港北区,新横浜３丁目７番１８号日総第１８ビル５０１号室,,14,109,2220033,,,2024-11-29,清算の結了等,,,2015-12-15,1,,,,,アジャイルデザイン,0
572,3020001138165,登記記録の閉鎖等,0,2024-12-10,2024-11-06,日本三桜株式会社,,株式会社,神奈川県,横浜市中区,末吉町１丁目７番地７－１１０４,,14,104,2310055,,,2024-11-06,清算の結了等,,,2020-10-15,1,,,,,ニッポンサンオウ,0
575,3020003025122,登記記録の閉鎖等,0,2024-12-10,2024-12-02,合同会社三和機工,,合同会社,神奈川県,川崎市幸区,堀川町５８０番地,,14,132,2120013,,,2024-12-02,合併による解散等,7020001072930,令和６年１２月１日川崎市幸区堀川町５８０番地三和運輸株式会社（7020001072930）に合併し解散,2023-12-07,1,,,,,サンワキコウ,0
581,3021002022820,登記記録の閉鎖等,0,2024-12-10,2024-12-09,有限会社トリイ商店,,有限会社,神奈川県,相模原市緑区,西橋本１丁目２１番２８号,,14,151,2520131,,,2024-12-09,清算の結了等,,,2015-10-05,1,,,,,,0
583,3021002042843,登記記録の閉鎖等,0,2024-12-10,2024-12-06,有限会社ユー,,有限会社,神奈川県,大和市,南林間１丁目６番８号,,14,213,2420006,,,2024-12-06,清算の結了等,,,2015-10-05,1,,,,,ユー,0
585,3030001013672,登記記録の閉鎖等,0,2024-12-10,2024-12-03,株式会社ダイモンサービス,,株式会社,埼玉県,さいたま市緑区,大字大門１６５８番地１（１０１）,,11,109,3360963,,,2024-12-03,清算の結了等,,,2015-10-05,1,,,,,ダイモンサービス,0
587,3030001060302,登記記録の閉鎖等,0,2024-12-10,2024-12-04,株式会社大電,,株式会社,埼玉県,本庄市,本庄４丁目３番９号,,11,211,3670051,,,2024-12-04,清算の結了等,,,2015-10-05,1,,,,,ダイデン,0
597,3030002034189,登記記録の閉鎖等,0,2024-12-10,2024-12-03,有限会社ニチエイ精巧,,有限会社,埼玉県,狭山市,大字北入曽６３番地,,11,215,3501315,,,2024-12-03,清算の結了等,,,2015-10-05,1,,,,,ニチエイセイコウ,0
604,3040001024669,登記記録の閉鎖等,0,2024-12-10,2024-12-03,千代田電興株式会社,,株式会社,千葉県,船橋市,西習志野３丁目３３番６号,,12,204,2740815,,,2024-12-03,清算の結了等,,,2015-10-05,1,,,,,チヨダデンコウ,0
609,3050001044419,登記記録の閉鎖等,0,2024-12-10,2024-12-02,県南物流株式会社,,株式会社,茨城県,土浦市,板谷６丁目６４８番地２４,,08,203,3000007,,,2024-12-02,合併による解散等,3050001035698,令和６年１２月１日茨城県土浦市板谷六丁目６４８番地２４株式会社ＩＴＹ（3050001035698）に合併し解散,2018-05-14,1,,,,,ケンナンブツリュウ,0
615,3070002010161,登記記録の閉鎖等,0,2024-12-10,2024-12-05,有限会社劔堂,,有限会社,群馬県,高崎市,金井淵町字伊勢原１９８番地１１,,10,202,3700882,,,2024-12-05,清算の結了等,,,2015-10-05,1,,,,,ツルギドウ,0
620,3080105003565,登記記録の閉鎖等,0,2024-12-10,2024-12-02,富士山育林協同組合,,その他の設立登記法人,静岡県,富士宮市,上井出１３５９番地の１,,22,207,4180103,,,2024-12-02,清算の結了等,,,2015-10-05,1,,,,,フジサンイクリン,0
629,3110001006511,登記記録の閉鎖等,0,2024-12-10,2024-12-03,株式会社リアリティー,,株式会社,新潟県,新潟市江南区,曙町３丁目１５番２３号,,15,104,9500134,,,2024-12-03,清算の結了等,,,2015-10-05,1,,,,,,0
642,3120002046654,登記記録の閉鎖等,0,2024-12-10,2024-12-05,有限会社ナーベルリミテッド,,有限会社,大阪府,八尾市,都塚北１丁目４９番地,,27,212,5810010,,,2024-12-05,清算の結了等,,,2015-10-05,1,,,,,ナーベルリミテッド,0
648,3120901027341,登記記録の閉鎖等,0,2024-12-10,2024-12-02,株式会社大一ユニバーサル商会,,株式会社,大阪府,豊中市,本町３丁目６番４号,,27,203,5600021,,,2024-12-02,清算の結了等,,,2015-10-05,1,,,,,ダイイチユニバーサルショウカイ,0
651,3120902021153,登記記録の閉鎖等,0,2024-12-10,2024-12-02,有限会社ファースト・ストライド,,有限会社,大阪府,豊中市,本町８丁目６番１１号,,27,203,5600021,,,2024-12-02,清算の結了等,,,2015-10-05,1,,,,,ファーストストライド,0
653,3122001023031,登記記録の閉鎖等,0,2024-12-10,2024-12-02,株式会社山西鉄工所,,株式会社,大阪府,八尾市,太田新町２丁目３６番地,,27,212,5810039,,,2024-12-02,清算の結了等,,,2015-10-05,1,,,,,ヤマニシテッコウショ,0
668,3170002010093,登記記録の閉鎖等,0,2024-12-10,2024-12-04,有限会社井ノ上精花園,,有限会社,和歌山県,御坊市,名田町野島１６９１番地,,30,205,6440023,,,2024-12-04,清算の結了等,,,2015-10-05,1,,,,,イノウエセイカエン,0
670,3180001074023,登記記録の閉鎖等,0,2024-12-10,2024-12-02,株式会社キャダック,,株式会社,愛知県,春日井市,白山町１丁目６１番地の６,,23,206,4870034,,,2024-12-02,清算の結了等,,,2015-10-05,1,,,,,キャダック,0
686,3180003017608,登記記録の閉鎖等,0,2024-12-10,2024-11-29,株式会社サイエンスホーム中日本,,株式会社,愛知県,名古屋市天白区,池場５丁目６０１番地,,23,116,4680055,,,2024-11-29,清算の結了等,,,2017-01-12,1,,,,,サイエンスホームナカニホン,0
691,3180301030568,登記記録の閉鎖等,0,2024-12-10,2024-11-29,株式会社新創電工,,株式会社,愛知県,豊田市,大沼町蒲生９番地３,,23,211,4443242,,,2024-11-29,清算の結了等,,,2017-07-24,1,,,,,シンソウデンコウ,0
693,3180302006377,登記記録の閉鎖等,0,2024-12-10,2024-12-03,有限会社泉屋弁当部,,有限会社,愛知県,豊橋市,湊町４１番地,,23,201,4400073,,,2024-12-03,清算の結了等,,,2015-10-05,1,,,,,イズミヤベントウブ,0
699,3200005011358,登記記録の閉鎖等,0,2024-12-10,2024-12-06,税理士法人汲田会計,00077619,その他の設立登記法人,岐阜県,本巣市,仏生寺４５２番地,,21,218,5010407,,,2024-12-06,清算の結了等,,,2015-10-05,1,,,,,クミタカイケイ,0
700,3220001008686,登記記録の閉鎖等,0,2024-12-10,2024-12-05,株式会社ソレイユ,,株式会社,石川県,野々市市,二日市２丁目８６番地,,17,212,9218809,,,2024-12-05,清算の結了等,,,2015-10-05,1,,,,,ソレイユ,0
701,3220001011905,登記記録の閉鎖等,0,2024-12-10,2024-12-05,株式会社北日本レクレーションクラブ,,株式会社,石川県,白山市,幸明町２７０番地,,17,210,9240817,,,2024-12-05,清算の結了等,,,2015-10-05,1,,,,,キタニホンレクレーションクラブ,0
706,3230002012967,登記記録の閉鎖等,0,2024-12-10,2024-12-05,有限会社高木シーリング,00079172,有限会社,富山県,氷見市,神代１２２７番地,,16,205,9350106,,,2024-12-05,清算の結了等,,,2015-10-05,1,,,,,タカギシーリング,0
708,3240001043327,登記記録の閉鎖等,0,2024-12-10,2024-12-04,株式会社公良,,株式会社,広島県,福山市,神辺町大字川南６７２番地,,34,207,7202124,,,2024-12-04,清算の結了等,,,2015-10-05,1,,,,,コウリョウ,0
711,3240002004690,登記記録の閉鎖等,0,2024-12-10,2024-12-06,有限会社共栄,,有限会社,広島県,広島市安佐北区,亀山３丁目２０番１２号,,34,106,7310231,,,2024-12-06,清算の結了等,,,2015-10-05,1,,,,,キョウエイ,0
729,3310001014246,登記記録の閉鎖等,0,2024-12-10,2024-12-06,株式会社Ｃ－ｃｏｒｐｏｒａｔｉｏｎ,,株式会社,長崎県,諫早市,幸町６５番２５号,,42,204,8540022,,,2024-12-06,清算の結了等,,,2016-05-26,1,,,,,,0
734,3330001028376,登記記録の閉鎖等,0,2024-12-10,2024-12-05,南関バンブーフロンティア株式会社,,株式会社,熊本県,玉名郡南関町,大字下坂下４６６８番地６,,43,367,8610821,,,2024-12-05,合併による解散等,4320001010251,令和６年１２月１日大分県日田市大字東有田２８１３番地２２日本フォレスト株式会社（4320001010251）に合併し解散,2021-03-11,1,,,,,ナンカンバンブーフロンティア,0
737,3330003007898,登記記録の閉鎖等,0,2024-12-10,2024-12-02,合同会社宮崎畜産,,合同会社,熊本県,八代市,上野町２０５６番地,,43,202,8660894,,,2024-12-02,清算の結了等,,,2019-04-23,1,,,,,ミヤザキチクサン,0
742,3370001004968,登記記録の閉鎖等,0,2024-12-10,2024-12-03,株式会社ウェルサポート,,株式会社,宮城県,仙台市宮城野区,鶴ケ谷６丁目２２番地の１２,,04,102,9830824,,,2024-12-03,清算の結了等,,,2015-10-05,1,,,,,ウェルサポート,0
754,3420002015926,登記記録の閉鎖等,0,2024-12-10,2024-12-05,有限会社おのえ企画,,有限会社,青森県,平川市,猿賀石林９４番地,,02,210,0360242,,,2024-12-05,清算の結了等,,,2015-10-05,1,,,,,オノエキカク,0
757,3440001004548,登記記録の閉鎖等,0,2024-12-10,2024-12-06,株式会社ミサワデザインハウス,,株式会社,北海道,函館市,住吉町１５番２－１０１号,,01,202,0400045,,,2024-12-06,清算の結了等,,,2015-10-05,1,,,,,ミサワデザインハウス,0
763,3470002001038,登記記録の閉鎖等,0,2024-12-10,2024-12-05,有限会社インテリアささき,,有限会社,香川県,高松市,屋島西町１３５０番地２７,,37,201,7610113,,,2024-12-05,清算の結了等,,,2015-10-05,1,,,,,インテリアササキ,0
764,3470002002481,登記記録の閉鎖等,0,2024-12-10,2024-12-09,有限会社熊野オートサービス,,有限会社,香川県,高松市,小村町３９８番地２,,37,201,7610431,,,2024-12-09,清算の結了等,,,2015-10-05,1,,,,,クマノオートサービス,0
785,4010401069340,登記記録の閉鎖等,0,2024-12-10,2024-11-26,株式会社バリュー・ローン,,株式会社,東京都,港区,西新橋３丁目１６番１１号,,13,103,1050003,,,2024-11-26,清算の結了等,,,2015-10-05,1,,,,,バリューローン,0
786,4010401089801,登記記録の閉鎖等,0,2024-12-10,2024-12-02,株式会社ウーゴズ,,株式会社,神奈川県,横浜市港北区,箕輪町２丁目５番２５－６０２号,,14,109,2230051,,,2024-12-02,清算の結了等,,,2015-10-05,1,,,,,ウーゴズ,0
789,4010403007587,登記記録の閉鎖等,0,2024-12-10,2024-11-26,Ｙａｍａ２合同会社,,合同会社,東京都,港区,西新橋１丁目１番１号ＥＰコンサルティングサービス内,,13,103,1050003,,,2024-11-26,清算の結了等,,,2015-10-05,1,,,,,ヤマツー,0
798,4010901044636,登記記録の閉鎖等,0,2024-12-10,2024-12-09,城南地所株式会社,,株式会社,神奈川県,相模原市中央区,中央１丁目９－１４－２０２,,14,152,2520239,,,2024-12-09,清算の結了等,,,2019-08-05,1,,,,,ジョウナンジショ,0
831,4020002091627,登記記録の閉鎖等,0,2024-12-10,2024-11-29,有限会社オフィステン,,有限会社,神奈川県,川崎市多摩区,長尾７丁目１番５－３０６号,,14,135,2140023,,,2024-11-29,清算の結了等,,,2015-10-05,1,,,,,オフィステン,0
841,4021001067642,登記記録の閉鎖等,0,2024-12-10,2024-12-09,株式会社イチフジ,,株式会社,神奈川県,平塚市,花水台１４番２７号,,14,203,2540824,,,2024-12-09,清算の結了等,,,2019-07-01,1,,,,,イチフジ,0
843,4030001088929,登記記録の閉鎖等,0,2024-12-10,2024-12-05,株式会社ＰＬシステム,,株式会社,埼玉県,熊谷市,広瀬６５５番地８,,11,202,3600833,,,2024-12-05,清算の結了等,,,2015-10-05,1,,,,,ピーエルシステム,0
849,4030002029485,登記記録の閉鎖等,0,2024-12-10,2024-12-04,有限会社佐野屋商店,,有限会社,埼玉県,所沢市,北原町８６６番地２８,,11,208,3590004,,,2024-12-04,清算の結了等,,,2015-10-05,1,,,,,サノヤショウテン,0
855,4040001043206,登記記録の閉鎖等,0,2024-12-10,2024-12-02,株式会社北総造園緑化,,株式会社,千葉県,成田市,大室１０５５番地１,,12,211,2860821,,,2024-12-02,清算の結了等,,,2015-10-05,1,,,,,ホクソウゾウエンリョクカ,0
867,4050002026051,登記記録の閉鎖等,0,2024-12-10,2024-12-04,有限会社クラシックリバー,,有限会社,茨城県,結城郡八千代町,大字菅谷６３７番地６,,08,521,3003572,,,2024-12-04,清算の結了等,,,2015-10-05,1,,,,,クラシックリバー,0
873,4060003003395,登記記録の閉鎖等,0,2024-12-10,2024-12-03,室井鈑金合同会社,,合同会社,栃木県,下都賀郡壬生町,元町９番４０号,,09,361,3210223,,,2024-12-03,清算の結了等,,,2020-06-23,1,,,,,ムロイバンキン,0
875,4070002020498,登記記録の閉鎖等,0,2024-12-10,2024-12-06,有限会社中沢自動車工業,,有限会社,群馬県,伊勢崎市,境下渕名２７４９番地の２,,10,204,3700103,,,2024-12-06,清算の結了等,,,2015-10-05,1,,,,,ナカザワジドウシャコウギョウ,0
888,4100001023119,登記記録の閉鎖等,0,2024-12-10,2024-12-02,マツザワホールディングス株式会社,,株式会社,長野県,下伊那郡高森町,下市田３１２３番地,,20,403,3993103,,,2024-12-02,合併による解散等,7100001023223,令和６年１２月１日長野県下伊那郡高森町下市田３１２３番地株式会社マツザワ（7100001023223）に合併し解散,2015-10-05,1,,,,,マツザワホールディングス,0
894,4110002005321,登記記録の閉鎖等,0,2024-12-10,2024-12-04,有限会社ＨＡＮＡＮＯ企画,,有限会社,新潟県,新潟市東区,本所９９３番地,,15,102,9500804,,,2024-12-04,清算の結了等,,,2015-10-05,1,,,,,ハナノキカク,0
903,4120002059275,登記記録の閉鎖等,0,2024-12-10,2024-12-02,有限会社ネクサス,,有限会社,大阪府,大阪市港区,夕凪２丁目１５番５号ＮＡＯＢＬＤ．,,27,107,5520004,,,2024-12-02,合併による解散等,6120002015672,令和６年１２月１日大阪市港区夕凪二丁目１５番５号ＮＡＯＢＬＤ．辻産業株式会社（6120002015672）に合併し解散,2015-10-05,1,,,,,ネクサス,0
918,4130005014598,登記記録の閉鎖等,0,2024-12-10,2024-11-27,京都町家大工協同組合,,その他の設立登記法人,京都府,向日市,寺戸町大牧１４番地３１,,26,208,6170002,,,2024-11-27,清算の結了等,,,2016-05-18,1,,,,,キョウトマチヤダイク,0
923,4140001063359,登記記録の閉鎖等,0,2024-12-10,2024-12-04,株式会社エフ・プロ,,株式会社,兵庫県,神崎郡市川町,奥８９１番地の３,,28,442,6792325,,,2024-12-04,清算の結了等,,,2015-10-05,1,,,,,エフプロ,0
924,4140001067434,登記記録の閉鎖等,0,2024-12-10,2024-12-03,株式会社エムトラス,,株式会社,兵庫県,神戸市長田区,苅藻島町３丁目９番１８号,,28,106,6530033,,,2024-12-03,合併による解散等,2140002022514,令和６年１２月１日神戸市長田区苅藻島町三丁目９番１８号株式会社ビームスコンストラクション（2140002022514）に合併し解散,2015-10-05,1,,,,,エムトラス,0
933,4180002054873,登記記録の閉鎖等,0,2024-12-10,2024-11-27,有限会社インフォス,,有限会社,愛知県,名古屋市天白区,保呂町２３０４番地ロイヤルメゾン菅田３０１号,,23,116,4680041,,,2024-11-27,清算の結了等,,,2015-10-05,1,,,,,インフォス,0
952,4180302009528,登記記録の閉鎖等,0,2024-12-10,2024-12-03,有限会社プチフローラ,,有限会社,愛知県,豊橋市,大山町字東大山１１０番地,,23,201,4418071,,,2024-12-03,清算の結了等,,,2015-10-05,1,,,,,プチフローラ,0
978,4330002020562,登記記録の閉鎖等,0,2024-12-10,2024-12-03,有限会社リアルライフ,,有限会社,熊本県,上益城郡益城町,大字福富５７０番地１,,43,443,8612235,,,2024-12-03,清算の結了等,,,2015-10-05,1,,,,,,0
979,4330005001155,登記記録の閉鎖等,0,2024-12-10,2024-12-02,医療法人社団橘公會,,その他の設立登記法人,熊本県,熊本市東区,花立３丁目２９番２０号,,43,102,8612118,,,2024-12-02,清算の結了等,,,2015-10-05,1,,,,,キツコウカイ,0
988,4370005008881,登記記録の閉鎖等,0,2024-12-10,2024-12-04,一般社団法人よろづやダノ,,その他の設立登記法人,宮城県,大崎市,古川南町３丁目１番１０号,,04,215,9896155,,,2024-12-04,清算の結了等,,,2015-12-03,1,,,,,ヨロヅヤダノ,0
992,4380001023834,登記記録の閉鎖等,0,2024-12-10,2024-11-29,株式会社源産,,株式会社,福島県,福島市,八木田字並柳１９番地の１,,07,201,9608164,,,2024-11-29,清算の結了等,,,2015-10-05,1,,,,,ゲンサン,0
1004,4500002001438,登記記録の閉鎖等,0,2024-12-10,2024-12-04,有限会社エーシー電設,,有限会社,愛媛県,松山市,太山寺町甲７０２番地２５,,38,201,7992662,,,2024-12-04,清算の結了等,,,2015-10-05,1,,,,,エーシーデンセツ,0
1006,5010001114974,登記記録の閉鎖等,0,2024-12-10,2024-12-03,ＮＯＨＡＲＡ株式会社,,株式会社,静岡県,駿東郡長泉町,東野字八分平５１５番９１,,22,342,4110931,,,2024-12-03,合併による解散等,2010001013246,令和６年１２月１日静岡県駿東郡長泉町東野字八分平５１５番９１オーシーインベストメント株式会社（2010001013246）に合併し解散,2015-10-05,1,,,,,ノハラ,0
1011,5010003021153,登記記録の閉鎖等,0,2024-12-10,2024-11-26,日光９９ライフ北梅田合同会社,,合同会社,東京都,千代田区,丸の内３丁目１番１号東京共同会計事務所内,,13,101,1000005,,,2024-11-26,清算の結了等,,,2015-10-05,1,,,,,ニッコウナインティーナインライフキタウメダ,0
1022,5010401159644,登記記録の閉鎖等,0,2024-12-10,2024-11-22,Ｓｅｎｅｑｕｅ　Ｊａｐａｎ株式会社,,株式会社,東京都,港区,西麻布４丁目１４番１４号株式会社プラス・ワン・サービス内,,13,103,1060031,,,2024-11-22,清算の結了等,,,2021-04-19,1,,,,,セネックジャパン,0
1024,5010401175880,登記記録の閉鎖等,0,2024-12-10,2024-11-26,株式会社ｅｉｇｈｔ　ｓｏｌｕｔｉｏｎｓ,,株式会社,東京都,港区,東麻布１丁目７番３号５階,,13,103,1060044,,,2024-11-26,清算の結了等,,,2023-07-25,1,,,,,エイトソリューションズ,0
1025,5010403007586,登記記録の閉鎖等,0,2024-12-10,2024-11-26,Ｙａｍａ１合同会社,,合同会社,東京都,港区,西新橋１丁目１番１号ＥＰコンサルティングサービス内,,13,103,1050003,,,2024-11-26,清算の結了等,,,2015-10-05,1,,,,,ヤマワン,0
1028,5010405012452,登記記録の閉鎖等,0,2024-12-10,2024-11-22,一般社団法人日本の歌千年,,その他の設立登記法人,東京都,港区,赤坂４丁目４番１４号越川ハイツ１Ｆ,,13,103,1070052,,,2024-11-22,清算の結了等,,,2015-10-05,1,,,,,ニホンノウタセンネン,0
1031,5010601048721,登記記録の閉鎖等,0,2024-12-10,2024-12-09,ｐｅｔｉｔｅ　ｐｒａｉｒｉｅ株式会社,,株式会社,東京都,江東区,枝川１丁目１５番９－４１１号,,13,108,1350051,,,2024-12-09,清算の結了等,,,2015-11-09,1,,,,,プチプレリー,0
1040,5011001094942,登記記録の閉鎖等,0,2024-12-10,2024-11-15,株式会社インテレット,,株式会社,東京都,渋谷区,初台１丁目２６番１４－２０６,,13,113,1510061,,,2024-11-15,清算の結了等,,,2015-10-05,1,,,,,インテレット,0
1069,5013301039206,登記記録の閉鎖等,0,2024-12-10,2024-12-03,株式会社スマートエッジ,,株式会社,東京都,台東区,柳橋１丁目１－１２,,13,106,1110052,,,2024-12-03,清算の結了等,,,2016-08-01,1,,,,,スマートエッジ,0
1074,5020001078236,登記記録の閉鎖等,0,2024-12-10,2024-12-02,株式会社いづみテクノサービス,,株式会社,神奈川県,川崎市川崎区,下並木３番地,,14,131,2100025,,,2024-12-02,合併による解散等,3020001071944,令和６年１２月１日川崎市川崎区下並木３番地穴水株式会社（3020001071944）に合併し解散,2015-10-05,1,,,,,イヅミテクノサービス,0
1079,5020002040533,登記記録の閉鎖等,0,2024-12-10,2024-11-29,有限会社フラット,,有限会社,神奈川県,横浜市鶴見区,馬場４丁目２２番１８－４０３号,,14,101,2300076,,,2024-11-29,清算の結了等,,,2015-10-05,1,,,,,フラット,0
1080,5020002084670,登記記録の閉鎖等,0,2024-12-10,2024-12-02,羽深製本有限会社,,有限会社,神奈川県,川崎市中原区,宮内１丁目２０番２７号,,14,133,2110051,,,2024-12-02,清算の結了等,,,2015-10-05,1,,,,,ハブカセイホン,0
1088,5030001109824,登記記録の閉鎖等,0,2024-12-10,2024-12-06,株式会社成歩,,株式会社,埼玉県,越谷市,七左町７丁目１０１番地２,,11,222,3430851,,,2024-12-06,清算の結了等,,,2015-10-05,1,,,,,セイホ,0
1107,5050003003387,登記記録の閉鎖等,0,2024-12-10,2024-12-02,合同会社Ｔ－Ｓｃｈｏｐ,,合同会社,茨城県,土浦市,蓮河原新町４番８号,00107632,08,203,3000821,,,2024-12-02,清算の結了等,,,2016-08-24,1,,,,,ティースコップ,0
1113,5070001026181,登記記録の閉鎖等,0,2024-12-10,2024-12-09,株式会社千代土地開発,,株式会社,群馬県,北群馬郡吉岡町,大字大久保７９７番地８,,10,345,3703602,,,2024-12-09,清算の結了等,,,2015-10-05,1,,,,,センダイトチカイハツ,0
1115,5070002031783,登記記録の閉鎖等,0,2024-12-10,2024-12-02,有限会社石井ネットワーク,,有限会社,群馬県,太田市,藪塚町１５４８番地の４３,00026844,10,205,3792301,,,2024-12-02,清算の結了等,,,2015-10-05,1,,,,,イシイネットワーク,0
1121,5080102003203,登記記録の閉鎖等,0,2024-12-10,2024-12-02,有限会社ペン徳塗装店,,有限会社,静岡県,沼津市,本字下一丁田８８９番地の２９,,22,203,4100863,,,2024-12-02,清算の結了等,,,2015-10-05,1,,,,,ペントクトソウテン,0
1122,5080401019692,登記記録の閉鎖等,0,2024-12-10,2024-12-04,株式会社トップ防災,,株式会社,静岡県,袋井市,長溝５５番地,,22,216,4371126,,,2024-12-04,清算の結了等,,,2015-10-05,1,,,,,トップボウサイ,0
1154,5130001073432,登記記録の閉鎖等,0,2024-12-10,2024-12-04,ＡＭＩＤＡＯ株式会社,,株式会社,京都府,京都市中京区,烏丸通押小路上る秋野々町５３５番地,,26,104,6040847,,,2024-12-04,合併による解散等,3010001129669,令和６年１２月１日京都市中京区烏丸通押小路上ル秋野々町５３５番地アミタホールディングス株式会社（3010001129669）に合併し解散,2023-01-16,1,,,,,アミダオ,0
1168,5180001139708,登記記録の閉鎖等,0,2024-12-10,2024-12-02,株式会社ＮＢＰ,,株式会社,愛知県,名古屋市中区,錦１丁目１０番１２号,,23,106,4600003,,,2024-12-02,清算の結了等,,,2020-01-21,1,,,,,エヌビーピー,0
1173,5180002040600,登記記録の閉鎖等,0,2024-12-10,2024-12-02,有限会社横井商店,,有限会社,愛知県,清須市,阿原宮前４０番地,,23,233,4520901,,,2024-12-02,清算の結了等,,,2015-10-05,1,,,,,ヨコイショウテン,0
1176,5180002087369,登記記録の閉鎖等,0,2024-12-10,2024-12-02,株式会社アローシステム,,株式会社,愛知県,大府市,共栄町５丁目１９番地の１,,23,223,4740074,,,2024-12-02,合併による解散等,8180001054961,令和６年１１月３０日名古屋市緑区姥子山三丁目１７０３番地株式会社ケーツー（8180001054961）に合併し解散,2015-10-05,1,,,,,アローシステム,0
1178,5180301005122,登記記録の閉鎖等,0,2024-12-10,2024-12-03,今泉木材工業株式会社,,株式会社,愛知県,豊橋市,井原町１４番地の２,,23,201,4400025,,,2024-12-03,清算の結了等,,,2015-10-05,1,,,,,イマイズミモクザイコウギョウ,0
1202,5240002034100,登記記録の閉鎖等,0,2024-12-10,2024-12-04,有限会社マルイ食品,,有限会社,広島県,呉市,東中央１丁目６番１４号,,34,202,7370052,,,2024-12-04,清算の結了等,,,2015-10-05,1,,,,,マルイショクヒン,0
1224,5310002013179,登記記録の閉鎖等,0,2024-12-10,2024-12-02,有限会社長崎種苗販売,,有限会社,長崎県,佐世保市,小佐々町小坂８８１番地,,42,202,8570402,,,2024-12-02,合併による解散等,5310001006464,令和６年１２月１日長崎県佐世保市小佐々町小坂８８１番地株式会社長崎種苗（5310001006464）に合併し解散,2015-10-05,1,,,,,ナガサキシュビョウハンバイ,0
1229,5340001016394,登記記録の閉鎖等,0,2024-12-10,2024-12-05,株式会社鹿児島トラスト,,株式会社,鹿児島県,鹿児島市,下荒田１丁目９番１６号,,46,201,8900056,,,2024-12-05,清算の結了等,,,2015-10-05,1,,,,,カゴシマトラスト,0
1230,5340002004860,登記記録の閉鎖等,0,2024-12-10,2024-12-05,有限会社下島自動車,,有限会社,鹿児島県,鹿児島市,宇宿１丁目５３番１０号,,46,201,8900073,,,2024-12-05,清算の結了等,,,2015-10-05,1,,,,,シモジマジドウシャ,0
1232,5360002004363,登記記録の閉鎖等,0,2024-12-10,2024-12-09,有限会社武蔵産業,,有限会社,沖縄県,那覇市,おもろまち２丁目６番１５号６０１,,47,201,9000006,,,2024-12-09,清算の結了等,,,2015-10-05,1,,,,,,0
1240,5420001007476,登記記録の閉鎖等,0,2024-12-10,2024-12-04,株式会社サン企画,,株式会社,青森県,八戸市,一番町２丁目４番７号,,02,203,0391102,,,2024-12-04,清算の結了等,,,2015-10-05,1,,,,,サンキカク,0
1244,5420002013960,登記記録の閉鎖等,0,2024-12-10,2024-12-04,有限会社八十八夜,,有限会社,青森県,弘前市,大字宮園５丁目５番地１,,02,202,0368063,,,2024-12-04,清算の結了等,,,2015-10-05,1,,,,,ハチジュウハチヤ,0
1246,5420002019826,登記記録の閉鎖等,0,2024-12-10,2024-12-04,有限会社マルミ,,有限会社,青森県,むつ市,小川町２丁目２１番１９号,,02,208,0350071,,,2024-12-04,清算の結了等,,,2015-10-05,1,,,,,マルミ,0
1249,5440001001064,登記記録の閉鎖等,0,2024-12-10,2024-12-04,株式会社総栄建設,,株式会社,北海道,函館市,東山３丁目１６番１１号,,01,202,0410835,,,2024-12-04,清算の結了等,,,2015-10-05,1,,,,,ソウエイケンセツ,0
1253,5490003001504,登記記録の閉鎖等,0,2024-12-10,2024-12-06,メイクアウト合同会社,,合同会社,高知県,高知市,南久保３番７号,,39,201,7810087,,,2024-12-06,清算の結了等,,,2021-01-21,1,,,,,メイクアウト,0
1257,6010001173375,登記記録の閉鎖等,0,2024-12-10,2024-11-25,株式会社ジービーエスシステムズ,,株式会社,東京都,港区,芝公園２丁目４番１号,,13,103,1050011,,,2024-11-25,清算の結了等,,,2016-02-03,1,,,,,ジービーエスシステムズ,0
1260,6010001197110,登記記録の閉鎖等,0,2024-12-10,2024-11-26,株式会社ＫＡＳＨＩＹＡＭＡ　ＤＡＩＫＡＮＹＡＭＡ,,株式会社,東京都,中央区,日本橋３丁目１０番５号,,13,102,1030027,,,2024-11-26,清算の結了等,,,2018-12-17,1,,,,,カシヤマダイカンヤマ,0
1261,6010001201020,登記記録の閉鎖等,0,2024-12-10,2024-11-26,株式会社ＳＡＭＡ,,株式会社,東京都,千代田区,神田駿河台１丁目５番６－１１３号,,13,101,1010062,,,2024-11-26,清算の結了等,,,2019-05-22,1,,,,,サマ,0
1262,6010001212612,登記記録の閉鎖等,0,2024-12-10,2024-11-26,株式会社Ｈ．Ｂ．Ｃ　ＪＡＰＡＮ,,株式会社,東京都,千代田区,平河町１丁目７番７号トースイビル３階,,13,101,1020093,,,2024-11-26,清算の結了等,,,2020-09-30,1,,,,,エイチビーシージャパン,0
1289,6010603009530,登記記録の閉鎖等,0,2024-12-10,2024-12-04,ＫＭエステート合同会社,,合同会社,東京都,江東区,有明３丁目７－２６,,13,108,1350063,,,2024-12-04,清算の結了等,,,2022-05-12,1,,,,,ケーエムエステート,0
1296,6010901010520,登記記録の閉鎖等,0,2024-12-10,2024-12-03,株式会社ふくでん,,株式会社,東京都,世田谷区,弦巻４丁目１２番２号,,13,112,1540016,,,2024-12-03,清算の結了等,,,2015-10-05,1,,,,,フクデン,0
1305,6011101011953,登記記録の閉鎖等,0,2024-12-10,2024-12-03,大祥工業株式会社,,株式会社,東京都,新宿区,北新宿１丁目１９番２４号,,13,104,1690074,,,2024-12-03,清算の結了等,,,2015-10-05,1,,,,,ダイショウコウギョウ,0
1308,6011101100327,登記記録の閉鎖等,0,2024-12-10,2024-12-03,株式会社万林,,株式会社,東京都,新宿区,箪笥町３番地,,13,104,1620833,,,2024-12-03,清算の結了等,,,2022-09-29,1,,,,,バンリン,0
1312,6011203002990,登記記録の閉鎖等,0,2024-12-10,2024-12-06,マルクニ合同会社,,合同会社,東京都,北区,東十条５丁目２－４西ヶ原ハイツ１０－Ｂ号室,,13,117,1140001,,,2024-12-06,清算の結了等,,,2019-04-01,1,,,,,マルクニ,0
1315,6011501004326,登記記録の閉鎖等,0,2024-12-10,2024-12-03,株式会社マエダハウジング,,株式会社,東京都,北区,西ケ原１丁目５番５号,,13,117,1140024,,,2024-12-03,清算の結了等,,,2015-10-05,1,,,,,マエダハウジング,0
1316,6011501004631,登記記録の閉鎖等,0,2024-12-10,2024-12-06,株式会社ムネオ・エス・エス・エックス,,株式会社,東京都,北区,中里１丁目１０番６号,,13,117,1140015,,,2024-12-06,清算の結了等,,,2015-10-05,1,,,,,ムネオエスエスエックス,0
1320,6011602021410,登記記録の閉鎖等,0,2024-12-10,2024-12-02,有限会社尚友流通,,有限会社,東京都,練馬区,早宮４丁目１番１６号,,13,120,1790085,,,2024-12-02,清算の結了等,,,2015-10-05,1,,,,,ショウユウリュウツウ,0
1321,6011802025343,登記記録の閉鎖等,0,2024-12-10,2024-12-06,サザンクロス株式会社,,株式会社,東京都,足立区,新田３丁目１９番１２号,,13,121,1230865,,,2024-12-06,合併による解散等,1013301042469,令和６年１２月１日東京都北区豊島八丁目１番１号ドリームガーデンズ株式会社（1013301042469）に合併し解散,2015-10-05,1,,,,,サザンクロス,0
1325,6012402017920,登記記録の閉鎖等,0,2024-12-10,2024-12-09,有限会社ムサシ,,有限会社,東京都,三鷹市,下連雀４丁目１６番３３号,,13,204,1810013,,,2024-12-09,清算の結了等,,,2015-10-05,1,,,,,ムサシ,0
1337,6020002046752,登記記録の閉鎖等,0,2024-12-10,2024-11-29,総合事務機サービス有限会社,,有限会社,神奈川県,横浜市緑区,十日市場町８６３番地１１,,14,113,2260025,,,2024-11-29,清算の結了等,,,2015-10-05,1,,,,,ソウゴウジムキサービス,0
1346,6021005010448,登記記録の閉鎖等,0,2024-12-10,2024-12-06,医療法人社団ＳＳＦネットワーク,,その他の設立登記法人,神奈川県,秦野市,堀川７４番１号１階,,14,211,2591305,,,2024-12-06,清算の結了等,,,2015-11-18,1,,,,,エスエスエフネットワーク,0
1347,6030001025153,登記記録の閉鎖等,0,2024-12-10,2024-12-04,株式会社無門,,株式会社,埼玉県,所沢市,松が丘２丁目５番地２,,11,208,3591132,,,2024-12-04,清算の結了等,,,2015-10-05,1,,,,,ムモン,0
1348,6030001052825,登記記録の閉鎖等,0,2024-12-10,2024-12-03,株式会社山元非鉄金属,,株式会社,埼玉県,春日部市,備後東５丁目１２番７５号,,11,214,3440032,,,2024-12-03,清算の結了等,,,2015-10-05,1,,,,,ヤマモトヒテツキンゾク,0
1353,6030001151767,登記記録の閉鎖等,0,2024-12-10,2024-12-04,株式会社三基エンジニア,,株式会社,埼玉県,飯能市,大字下赤工３２４番地１２,,11,209,3570126,,,2024-12-04,清算の結了等,,,2023-01-10,1,,,,,サンキエンジニア,0
1362,6040001089016,登記記録の閉鎖等,0,2024-12-10,2024-12-02,株式会社巴,,株式会社,千葉県,野田市,上花輪１３４３番地の１４,,12,208,2780033,,,2024-12-02,合併による解散等,5040001103207,令和６年１２月１日千葉県野田市中野台４４０番地の８株式会社ＮＡＫＡＭＵＲＡホールディングス（5040001103207）に合併し解散,2015-10-05,1,,,,,トモエ,0
1365,6040002101456,登記記録の閉鎖等,0,2024-12-10,2024-12-03,有限会社花南,,有限会社,千葉県,館山市,北条１２６４番地の１０,,12,205,2940045,,,2024-12-03,清算の結了等,,,2015-10-05,1,,,,,カナン,0
1410,6120102019359,登記記録の閉鎖等,0,2024-12-10,2024-12-05,有限会社ティオー,,有限会社,大阪府,藤井寺市,春日丘３丁目１４番７号,,27,226,5830026,,,2024-12-05,清算の結了等,,,2015-10-05,1,,,,,ティオー,0
1416,6130001054811,登記記録の閉鎖等,0,2024-12-10,2024-12-05,かじスト株式会社,,株式会社,京都府,京都市伏見区,淀美豆町４５７番地,,26,109,6130916,,,2024-12-05,清算の結了等,,,2015-10-05,1,,,,,カジスト,0
1421,6140001067382,登記記録の閉鎖等,0,2024-12-10,2024-12-04,ナチュラル株式会社,,株式会社,兵庫県,神戸市東灘区,魚崎北町６丁目２－２０－１０４,,28,101,6580082,,,2024-12-04,清算の結了等,,,2015-10-05,1,,,,,ナチュラル,0
1423,6140001072886,登記記録の閉鎖等,0,2024-12-10,2024-12-04,株式会社檜垣運送,,株式会社,兵庫県,西宮市,北六甲台５丁目６番２号,,28,204,6511413,,,2024-12-04,清算の結了等,,,2015-10-05,1,,,,,ヒガキウンソウ,0
1425,6140002040743,登記記録の閉鎖等,0,2024-12-10,2024-12-04,有限会社ケイズサービス,,有限会社,兵庫県,尼崎市,尾浜町１丁目２７番１５－１０１号,,28,202,6610022,,,2024-12-04,清算の結了等,,,2015-10-05,1,,,,,ケイズサービス,0
1426,6140002042153,登記記録の閉鎖等,0,2024-12-10,2024-12-03,有限会社阪神マンシヨン,,有限会社,兵庫県,尼崎市,北大物町１５番３号,,28,202,6600804,,,2024-12-03,清算の結了等,,,2015-10-05,1,,,,,ハンシンマンション,0
1427,6140003019869,登記記録の閉鎖等,0,2024-12-10,2024-12-04,合同会社Ｕｎｂｏｏｌ,,合同会社,兵庫県,姫路市,二階町１８－３１５,,28,201,6700922,,,2024-12-04,清算の結了等,,,2023-11-30,1,,,,,アンブール,0
1430,6160001023268,登記記録の閉鎖等,0,2024-12-10,2024-12-06,株式会社ＨＡＰＰＹ　ＢＬＥＳＳＩＮＧ,,株式会社,滋賀県,守山市,下之郷３丁目７－９,,25,207,5240013,,,2024-12-06,清算の結了等,,,2021-04-19,1,,,,,ハッピーブレッシング,0
1432,6170001006973,登記記録の閉鎖等,0,2024-12-10,2024-12-06,株式会社ナガシマ,,株式会社,和歌山県,和歌山市,田尻１９９番地の１４,,30,201,6410005,,,2024-12-06,清算の結了等,,,2015-10-05,1,,,,,ナガシマ,0
1438,6180001133296,登記記録の閉鎖等,0,2024-12-10,2024-12-03,シコウテック株式会社,,株式会社,愛知県,東海市,名和町一番割下１番地,,23,222,4760002,,,2024-12-03,清算の結了等,,,2018-08-06,1,,,,,シコウテック,0
1442,6180002051472,登記記録の閉鎖等,0,2024-12-10,2024-12-03,有限会社カーテンコレクションハーモニー,,有限会社,愛知県,名古屋市千種区,日岡町１丁目３３番地,,23,101,4640834,,,2024-12-03,清算の結了等,,,2015-10-05,1,,,,,カーテンコレクションハーモニー,0
1447,6180302009006,登記記録の閉鎖等,0,2024-12-10,2024-12-03,有限会社夏山商店,,有限会社,愛知県,豊橋市,岩屋町字岩屋下８８番地の１,,23,201,4400842,,,2024-12-03,清算の結了等,,,2015-10-05,1,,,,,ナツヤマショウテン,0
1456,6240001057142,登記記録の閉鎖等,0,2024-12-10,2024-12-04,株式会社ＴＲＡＩＺＥ,,株式会社,広島県,広島市中区,大手町１丁目１番２６号大手町一番ビル３０５,,34,101,7300051,,,2024-12-04,清算の結了等,,,2020-12-23,1,,,,,トレイズ,0
1478,6290005018813,登記記録の閉鎖等,0,2024-12-10,2024-11-22,ＮＸ社会保険労務士法人,,その他の設立登記法人,福岡県,福岡市城南区,友丘１丁目１２番１９－１,,40,136,8140112,,,2024-11-22,清算の結了等,,,2022-09-29,1,,,,,エヌエックス,0
1484,6330001017640,登記記録の閉鎖等,0,2024-12-10,2024-12-02,株式会社光工業,,株式会社,熊本県,熊本市東区,戸島６丁目３０番８号,,43,102,8618041,,,2024-12-02,清算の結了等,,,2015-10-05,1,,,,,ヒカリコウギョウ,0
1493,6330003005065,登記記録の閉鎖等,0,2024-12-10,2024-12-02,合同会社希,,合同会社,熊本県,熊本市西区,沖新町９７番地３,,43,103,8615273,,,2024-12-02,合併による解散等,3330003006537,令和６年１２月１日熊本市西区沖新町９７番地３合同会社麻布（3330003006537）に合併し解散,2015-10-05,1,,,,,ノゾミ,0
1510,6400502001409,登記記録の閉鎖等,0,2024-12-10,2024-12-02,有限会社ふるさと物産いわて藤沢,,有限会社,岩手県,一関市,藤沢町藤沢字榴１１４番地９５,,03,209,0293405,,,2024-12-02,清算の結了等,,,2015-10-05,1,,,,,フルサトブッサンイワテフジサワ,0
1518,6470001017049,登記記録の閉鎖等,0,2024-12-10,2024-12-06,株式会社Ｊ‐Ｂｅａｕｔｅ,,株式会社,香川県,高松市,中野町２９番８号ＡＲＫビル５Ｆ,,37,201,7600008,,,2024-12-06,清算の結了等,,,2018-08-31,1,,,,,ジェボウテ,0
1519,6470005001503,登記記録の閉鎖等,0,2024-12-10,2024-11-18,医療法人社団永井小児科医院,,その他の設立登記法人,香川県,高松市,茜町２番２０号,,37,201,7600002,,,2024-11-18,清算の結了等,,,2015-10-05,1,,,,,ナガイショウニカイイン,0
1521,6480001011406,登記記録の閉鎖等,0,2024-12-10,2024-12-09,株式会社カレイド,,株式会社,徳島県,徳島市,昭和町８丁目８７番地１７６,,36,201,7700942,,,2024-12-09,清算の結了等,,,2021-06-25,1,,,,,カレイド,0
1539,7010101000420,登記記録の閉鎖等,0,2024-12-10,2024-12-06,インプレックス株式会社,,株式会社,東京都,八王子市,横山町１－６八王子第一東京海上日動ビルディング６０５,,13,201,1920081,,,2024-12-06,合併による解散等,9140001065020,令和６年１２月１日神戸市中央区港島南町一丁目５番２神戸キメックセンタービル５Ｆ株式会社ジー・キューブ（9140001065020）に合併し解散,2015-10-05,1,,,,,インプレックス,0
1544,7010102010344,登記記録の閉鎖等,0,2024-12-10,2024-12-05,有限会社多摩中央ホーム,,有限会社,東京都,八王子市,東中野２４０番地６,,13,201,1920351,,,2024-12-05,清算の結了等,,,2015-10-05,1,,,,,タマチュウオウホーム,0
1553,7010601043547,登記記録の閉鎖等,0,2024-12-10,2024-12-06,プラス紙工印刷株式会社,,株式会社,東京都,江東区,南砂１丁目１６番６号,,13,108,1360076,,,2024-12-06,清算の結了等,,,2015-10-05,1,,,,,,0
1559,7010702006304,登記記録の閉鎖等,0,2024-12-10,2024-12-03,有限会社布田,,有限会社,東京都,品川区,南品川４丁目１１番７号,,13,109,1400004,,,2024-12-03,清算の結了等,,,2015-10-05,1,,,,,ヌノダ,0
1561,7010801017937,登記記録の閉鎖等,0,2024-12-10,2024-11-26,ラピアス電機株式会社,,株式会社,東京都,大田区,大森西２丁目２番２９号,,13,111,1430015,,,2024-11-26,合併による解散等,6010801005034,令和６年１１月２６日東京都大田区大森西二丁目２番２９号アーネット株式会社（6010801005034）に合併し解散,2015-10-05,1,,,,,ラピアスデンキ,0
1585,7011401022666,登記記録の閉鎖等,0,2024-12-10,2024-12-02,Ｄｉｆｆｅｒ株式会社,,株式会社,東京都,板橋区,大谷口北町５０番６号ＭＡＸＩＶ中板橋５０２号室,,13,119,1730031,,,2024-12-02,清算の結了等,,,2020-07-09,1,,,,,ディファー,0
1593,7011802009626,登記記録の閉鎖等,0,2024-12-10,2024-12-04,有限会社イソップ,,有限会社,東京都,足立区,鹿浜２丁目５番７号,,13,121,1230864,,,2024-12-04,清算の結了等,,,2015-10-05,1,,,,,イソップ,0
1617,7030001127485,登記記録の閉鎖等,0,2024-12-10,2024-12-06,ｍｉｆシステムズ株式会社,,株式会社,埼玉県,さいたま市岩槻区,大字飯塚１９２８番地,,11,110,3390031,,,2024-12-06,清算の結了等,,,2018-09-19,1,,,,,ミフシステムズ,0
1624,7040001071831,登記記録の閉鎖等,0,2024-12-10,2024-11-29,株式会社桐栄,,株式会社,千葉県,野田市,上花輪６２０番地,,12,208,2780033,,,2024-11-29,合併による解散等,8040001071327,令和６年１１月１０日千葉県野田市上花輪６２０番地株式会社タカラ（8040001071327）に合併し解散,2015-10-05,1,,,,,トウエイ,0
1627,7040001121479,登記記録の閉鎖等,0,2024-12-10,2024-12-02,株式会社西峰,,株式会社,千葉県,鎌ケ谷市,新鎌ケ谷３丁目２番９号,,12,224,2730107,,,2024-12-02,合併による解散等,2040001028233,令和６年１２月１日千葉県鎌ケ谷市新鎌ケ谷三丁目２番９号株式会社東洋ハウジング（2040001028233）に合併し解散,2021-12-22,1,,,,,ニシミネ,0
1642,7080102002129,登記記録の閉鎖等,0,2024-12-10,2024-12-06,有限会社大信興業,,有限会社,静岡県,沼津市,下香貫上ノ原１４３３番地の１,,22,203,4100822,,,2024-12-06,清算の結了等,,,2015-10-05,1,,,,,ダイシンコウギョウ,0
1663,7120101034424,登記記録の閉鎖等,0,2024-12-10,2024-12-06,株式会社山口,,株式会社,大阪府,河内長野市,南花台１丁目１６番１９号,,27,216,5860077,,,2024-12-06,清算の結了等,,,2015-10-05,1,,,,,ヤマグチ,0
1668,7130001017916,登記記録の閉鎖等,0,2024-12-10,2024-12-09,株式会社高木美建,,株式会社,京都府,京都市下京区,中堂寺粟田町９３番地,,26,106,6008815,,,2024-12-09,清算の結了等,,,2015-10-05,1,,,,,タカギビケン,0
1672,7130002010630,登記記録の閉鎖等,0,2024-12-10,2024-12-06,有限会社オップアクセス,,有限会社,京都府,京都市左京区,岩倉中在地町１１５番地２,,26,103,6060027,,,2024-12-06,清算の結了等,,,2015-10-05,1,,,,,オップアクセス,0
1679,7150001015240,登記記録の閉鎖等,0,2024-12-10,2024-12-09,貴信商事株式会社,,株式会社,和歌山県,橋本市,山田２１９番地の３,,30,203,6480081,,,2024-12-09,清算の結了等,,,2015-10-05,1,,,,,タカシンショウジ,0
1680,7160001010505,登記記録の閉鎖等,0,2024-12-10,2024-12-05,株式会社辰己工務店,,株式会社,滋賀県,東近江市,南清水町５４６番地１,,25,213,5270127,,,2024-12-05,清算の結了等,,,2015-10-05,1,,,,,タツミコウムテン,0
1689,7180001157402,登記記録の閉鎖等,0,2024-12-10,2024-12-02,株式会社十五夜,,株式会社,愛知県,春日井市,藤山台７丁目１番地１２,,23,206,4870035,,,2024-12-02,清算の結了等,,,2023-08-07,1,,,,,ジュウゴヤ,0
1694,7180301030894,登記記録の閉鎖等,0,2024-12-10,2024-12-02,株式会社良友建設,,株式会社,愛知県,安城市,赤松町恋塚９４番地８,,23,212,4460046,,,2024-12-02,清算の結了等,,,2017-10-30,1,,,,,ヨシトモケンセツ,0
1711,7260002021152,登記記録の閉鎖等,0,2024-12-10,2024-12-02,有限会社マンガヤ事務機,,有限会社,岡山県,倉敷市,児島味野２丁目２番４７号,,33,202,7110913,,,2024-12-02,清算の結了等,,,2015-10-05,1,,,,,マンガヤジムキ,0
1713,7280002011028,登記記録の閉鎖等,0,2024-12-10,2024-12-06,有限会社吉田建設,,有限会社,島根県,隠岐郡隠岐の島町,城北町４３７番地,,32,528,6850016,,,2024-12-06,清算の結了等,,,2015-10-05,1,,,,,ヨシダケンセツ,0
1725,7300001005556,登記記録の閉鎖等,0,2024-12-10,2024-12-06,伊万里情報センター株式会社,,株式会社,佐賀県,伊万里市,立花町１５４２番地８,,41,205,8480027,,,2024-12-06,清算の結了等,,,2015-10-05,1,,,,,イマリジョウホウセンター,0
1731,7310003004745,登記記録の閉鎖等,0,2024-12-10,2024-11-28,合同会社はぁとみらい,,合同会社,長崎県,諫早市,平山町３９０番地１コーポアストリアＡ１０１号,,42,204,8540057,,,2024-11-28,清算の結了等,,,2024-03-11,1,,,,,ハァトミライ,0
1735,7330003004537,登記記録の閉鎖等,0,2024-12-10,2024-12-02,合同会社ナナミー,,合同会社,熊本県,熊本市西区,沖新町９７番地３,,43,103,8615273,,,2024-12-02,合併による解散等,3330003006537,令和６年１２月１日熊本市西区沖新町９７番地３合同会社麻布（3330003006537）に合併し解散,2015-10-05,1,,,,,ナナミー,0
1748,7380001016678,登記記録の閉鎖等,0,2024-12-10,2024-11-27,株式会社フクシマエコテック,,株式会社,福島県,双葉郡富岡町,大字上郡山字太田７１３番地,,07,543,9791131,,,2024-11-27,清算の結了等,,,2015-10-05,1,,,,,フクシマエコテック,0
1750,7430001061396,登記記録の閉鎖等,0,2024-12-10,2024-12-04,協英工業株式会社,,株式会社,北海道,苫小牧市,明野新町１丁目１９番１３号,,01,213,0530054,,,2024-12-04,清算の結了等,,,2015-10-05,1,,,,,キョウエイコウギョウ,0
1753,7460101003089,登記記録の閉鎖等,0,2024-12-10,2024-12-05,清水自動車工業株式会社,,株式会社,北海道,上川郡清水町,南四条９丁目１５番地,,01,636,0890112,,,2024-12-05,清算の結了等,,,2015-10-05,1,,,,,シミズジドウシャコウギョウ,0
1755,7460302004167,登記記録の閉鎖等,0,2024-12-10,2024-12-09,有限会社綾部建設,,有限会社,北海道,網走市,字卯原内６８番地の３,,01,211,0930135,,,2024-12-09,清算の結了等,,,2015-10-05,1,,,,,,0
1762,8010001137840,登記記録の閉鎖等,0,2024-12-10,2024-11-25,株式会社ジービーエス,,株式会社,東京都,港区,芝公園２丁目４番１号,,13,103,1050011,,,2024-11-25,清算の結了等,,,2015-10-05,1,,,,,ジービーエス,0
1769,8010003021051,登記記録の閉鎖等,0,2024-12-10,2024-11-26,日光１００ライフ桜宮合同会社,,合同会社,東京都,千代田区,丸の内３丁目１番１号東京共同会計事務所内,,13,101,1000005,,,2024-11-26,清算の結了等,,,2015-10-05,1,,,,,ニッコウワンハンドレッドライフサクラノミヤ,0
1770,8010003034012,登記記録の閉鎖等,0,2024-12-10,2024-11-26,日光Ｐｌｕｓ１５合同会社２,,合同会社,東京都,千代田区,丸の内３丁目１番１号東京共同会計事務所内,,13,101,1000005,,,2024-11-26,清算の結了等,,,2021-01-27,1,,,,,ニッコウプラスフィフティーンニ,0
1775,8010005029266,登記記録の閉鎖等,0,2024-12-10,2024-12-04,Ｒｈａｐｓｏｄｙ特定目的会社,,その他の設立登記法人,東京都,中央区,銀座１丁目６番１１号土志田ビルディング３Ｆ,,13,102,1040061,,,2024-12-04,清算の結了等,,,2018-10-29,1,,,,,ラプソディー,0
1778,8010101007571,登記記録の閉鎖等,0,2024-12-10,2024-12-09,株式会社ソルジェントホーム,,株式会社,東京都,八王子市,泉町１１６４番地,,13,201,1930814,,,2024-12-09,清算の結了等,,,2015-10-05,1,,,,,ソルジェントホーム,0
1779,8010102001565,登記記録の閉鎖等,0,2024-12-10,2024-12-04,有限会社オグラ,,有限会社,東京都,八王子市,西寺方町３４５番地の５,,13,201,1920153,,,2024-12-04,清算の結了等,,,2015-10-05,1,,,,,オグラ,0
1789,8010601042333,登記記録の閉鎖等,0,2024-12-10,2024-12-09,株式会社アクアモデル,,株式会社,東京都,墨田区,太平４丁目６番１７号－２０４,,13,107,1300012,,,2024-12-09,清算の結了等,,,2015-10-05,1,,,,,,0
1797,8010802016961,登記記録の閉鎖等,0,2024-12-10,2024-12-02,有限会社港北プレス,,有限会社,神奈川県,横浜市港北区,箕輪町２丁目１２番３９号,,14,109,2230051,,,2024-12-02,合併による解散等,9020001019855,令和６年１１月１日横浜市港北区箕輪町二丁目１２番３９号株式会社河合製作所（9020001019855）に合併し解散,2015-10-05,1,,,,,コウホクプレス,0
1810,8011001133227,登記記録の閉鎖等,0,2024-12-10,2024-11-18,東駿株式会社,,株式会社,東京都,渋谷区,代々木３丁目４５番８号ザ・ヨークハウス１１号,,13,113,1510053,,,2024-11-18,清算の結了等,,,2020-04-06,1,,,,,トウシュン,0
1826,8012402011368,登記記録の閉鎖等,0,2024-12-10,2024-12-09,有限会社嶌田鳶工業,,有限会社,東京都,調布市,国領町１丁目１９番地の６,,13,208,1820022,,,2024-12-09,清算の結了等,,,2015-10-05,1,,,,,,0
1838,8020001060769,登記記録の閉鎖等,0,2024-12-10,2024-12-02,株式会社ユニックス,,株式会社,神奈川県,横浜市戸塚区,品濃町１８０３番地２７ヴィルヌーブガーデンズ東戸塚Ａ－２１４号,,14,110,2440801,,,2024-12-02,清算の結了等,,,2015-10-05,1,,,,,ユニックス,0
1844,8020002047410,登記記録の閉鎖等,0,2024-12-10,2024-12-02,有限会社東洋宝飾商会,,有限会社,神奈川県,横浜市磯子区,西町１１番８号,,14,107,2350007,,,2024-12-02,清算の結了等,,,2015-10-05,1,,,,,,0
1848,8021002058488,登記記録の閉鎖等,0,2024-12-10,2024-12-09,有限会社諏訪薬局,,有限会社,神奈川県,平塚市,宮松町１番１０号,,14,203,2540036,,,2024-12-09,清算の結了等,,,2015-10-05,1,,,,,スワヤッキョク,0
1855,8040003012428,登記記録の閉鎖等,0,2024-12-10,2024-12-03,アマテラスベリー合同会社,,合同会社,千葉県,千葉市中央区,松波１丁目８番１１号ベルテ松波３０３号,,12,101,2600044,,,2024-12-03,合併による解散等,2040003006220,令和６年１２月１日千葉市中央区松波一丁目８番１１号ベルテ松波３０３号ＭＯプランニング合同会社（2040003006220）に合併し解散,2018-11-05,1,,,,,アマテラスベリー,0
1874,8110001030374,登記記録の閉鎖等,0,2024-12-10,2024-12-02,佐渡健康アシスト株式会社,,株式会社,新潟県,佐渡市,吾潟１２９番地１,,15,224,9523421,,,2024-12-02,合併による解散等,7110001027751,令和６年１２月１日新潟県佐渡市潟端４０３番地５アイマーク環境株式会社（7110001027751）に合併し解散,2015-10-05,1,,,,,サドケンコウアシスト,0
1883,8120001107700,登記記録の閉鎖等,0,2024-12-10,2024-12-05,株式会社ＮｅｔＶａｌｕｅ,,株式会社,大阪府,大阪市中央区,城見２丁目１番６１号ツイン２１ＭＩＤタワー２６階,,27,128,5400001,,,2024-12-05,合併による解散等,1040001013715,令和６年１２月１日千葉市美浜区中瀬二丁目６番地１ワールドビジネスガーデンマリブウエスト２４階株式会社システムイオ（1040001013715）に合併し解散,2015-10-05,1,,,,,ネットバリュー,0
1906,8122001020668,登記記録の閉鎖等,0,2024-12-10,2024-12-05,ワイド印刷株式会社,,株式会社,大阪府,八尾市,弓削町南３丁目５番地,,27,212,5810034,,,2024-12-05,清算の結了等,,,2015-10-05,1,,,,,ワイドインサツ,0
1907,8122001032498,登記記録の閉鎖等,0,2024-12-10,2024-12-06,令和産業株式会社,,株式会社,大阪府,東大阪市,鴻池町１丁目２８番５号,,27,227,5780972,,,2024-12-06,清算の結了等,,,2019-04-17,1,,,,,レイワサンギョウ,0
1912,8130005015312,登記記録の閉鎖等,0,2024-12-10,2024-11-01,一般社団法人サイクル・リビングラボ,,その他の設立登記法人,京都府,京都市中京区,柳馬場通御池下る柳八幡町６５,,26,104,6048101,,,2024-11-01,清算の結了等,,,2018-05-28,1,,,,,,0
1918,8140003018695,登記記録の閉鎖等,0,2024-12-10,2024-12-04,合同会社Ａｌｌ　Ｄａｙ　Ｆｒｕｉｔｓ,,合同会社,兵庫県,西宮市,二見町３番２０号興信ビル３０３号室,,28,204,6638111,,,2024-12-04,清算の結了等,,,2023-02-07,1,,,,,オールデイフルーツ,0
1921,8150002007426,登記記録の閉鎖等,0,2024-12-10,2024-12-04,有限会社奥田水道工業所,,有限会社,奈良県,橿原市,十市町９２１番地,,29,205,6340008,,,2024-12-04,清算の結了等,,,2015-10-05,1,,,,,オクダスイドウコウギョウショ,0
1927,8180001061677,登記記録の閉鎖等,0,2024-12-10,2024-12-03,株式会社大昂リース,,株式会社,愛知県,名古屋市港区,名港１丁目２０番６号,,23,111,4550037,,,2024-12-03,清算の結了等,,,2015-10-05,1,,,,,タイコウリース,0
1945,8180301028120,登記記録の閉鎖等,0,2024-12-10,2024-12-02,イクナムホールディングス株式会社,,株式会社,愛知県,豊橋市,西幸町字東脇１４８番地,,23,201,4418113,,,2024-12-02,合併による解散等,8180301005053,令和６年１１月３０日愛知県豊橋市若松町字北ケ谷９２番地１イクナム研設株式会社（8180301005053）に合併し解散,2015-10-05,1,,,,,イクナムホールディングス,0
1948,8190002013627,登記記録の閉鎖等,0,2024-12-10,2024-12-04,栄和産業有限会社,,有限会社,三重県,津市,久居野村町８８２番地２３,,24,201,5141113,,,2024-12-04,清算の結了等,,,2015-10-05,1,,,,,エイワサンギョウ,0
1952,8190005003410,登記記録の閉鎖等,0,2024-12-10,2024-12-06,特定非営利活動法人サルシカ,,その他の設立登記法人,三重県,津市,美里町平木７７０番地,,24,201,5142111,,,2024-12-06,清算の結了等,,,2015-10-05,1,,,,,サルシカ,0
1984,8330003003158,登記記録の閉鎖等,0,2024-12-10,2024-12-02,九州畜産合資会社,,合資会社,熊本県,八代市,海士江町２７２０番地１,,43,202,8660893,,,2024-12-02,清算の結了等,,,2015-10-05,1,,,,,キュウシュウチクサン,0
1990,8350002005863,登記記録の閉鎖等,0,2024-12-10,2024-12-06,有限会社モイスティーヌサロンシーズ,,有限会社,宮崎県,宮崎市,橘通東５丁目６番３４号,,45,201,8800805,,,2024-12-06,清算の結了等,,,2015-10-05,1,,,,,モイスティーヌサロンシーズ,0
1991,8350002012307,登記記録の閉鎖等,0,2024-12-10,2024-12-05,有限会社大栄技研工業,,有限会社,宮崎県,延岡市,上伊形町２８８番地１,,45,203,8890502,,,2024-12-05,清算の結了等,,,2015-10-05,1,,,,,ダイエイギケンコウギョウ,0
1993,8350005000077,登記記録の閉鎖等,0,2024-12-10,2024-12-03,一般社団法人宮崎県鍼灸マッサージ師会,,その他の設立登記法人,宮崎県,宮崎市,松橋１丁目７番７号,,45,201,8800013,,,2024-12-03,清算の結了等,,,2015-10-05,1,,,,,ミヤザキケンシンキュウマッサージシカイ,0
1996,8360003006059,登記記録の閉鎖等,0,2024-12-10,2024-12-04,合同会社誠,,合同会社,沖縄県,那覇市,字小禄８１１番１１（１０２号室）,,47,201,9010152,,,2024-12-04,清算の結了等,,,2015-10-05,1,,,,,セイ,0
2003,8390002016072,登記記録の閉鎖等,0,2024-12-10,2024-12-04,有限会社ムツミ自動車,,有限会社,山形県,西村山郡西川町,大字睦合丙２９３番地１,,06,322,9900701,,,2024-12-04,清算の結了等,,,2015-10-05,1,,,,,,0
2006,8400002011154,登記記録の閉鎖等,0,2024-12-10,2024-12-02,早野産業有限会社,,有限会社,岩手県,下閉伊郡岩泉町,岩泉字村木１８番地の１,,03,483,0270501,,,2024-12-02,清算の結了等,,,2015-10-05,1,,,,,ハヤノサンギョウ,0
2008,8420002008405,登記記録の閉鎖等,0,2024-12-10,2024-12-04,有限会社半田研究所,,有限会社,青森県,八戸市,長苗代１丁目１３番８号,,02,203,0391103,,,2024-12-04,清算の結了等,,,2015-10-05,1,,,,,ハンダケンキュウジョ,0
2035,9010003031826,登記記録の閉鎖等,0,2024-12-10,2024-11-20,合同会社ＨＢ,,合同会社,東京都,港区,北青山３丁目６番１９号バイナリー・北青山ビル１０階,,13,103,1070061,,,2024-11-20,清算の結了等,,,2020-03-16,1,,,,,エイチビー,0
2040,9010005011289,登記記録の閉鎖等,0,2024-12-10,2024-12-06,シティスクエア・ホールディングス一般社団法人,,その他の設立登記法人,東京都,千代田区,丸の内３丁目１番１号東京共同会計事務所内,,13,101,1000005,,,2024-12-06,清算の結了等,,,2015-10-05,1,,,,,シティスクエアホールディングス,0
2041,9010005030982,登記記録の閉鎖等,0,2024-12-10,2024-12-06,一般社団法人全国高等学校ｅスポーツ連盟,,その他の設立登記法人,東京都,千代田区,一ツ橋１丁目１番１号,,13,101,1000003,,,2024-12-06,清算の結了等,,,2019-11-07,1,,,,,ゼンコクコウトウガッコウイースポーツレンメイ,0
2043,9010401079285,登記記録の閉鎖等,0,2024-12-10,2024-12-02,株式会社リベロス,,株式会社,東京都,世田谷区,成城８丁目４番１８号,,13,112,1570066,,,2024-12-02,清算の結了等,,,2015-10-05,1,,,,,リベロス,0
2046,9010401133975,登記記録の閉鎖等,0,2024-12-10,2024-11-22,株式会社デジタルデトックス,,株式会社,東京都,港区,南青山２丁目２番１５号ウィン青山９４２,,13,103,1070062,,,2024-11-22,清算の結了等,,,2017-09-29,1,,,,,デジタルデトックス,0
2051,9010403013977,登記記録の閉鎖等,0,2024-12-10,2024-11-22,合同会社Ｗａｌｌｙ,,合同会社,東京都,港区,虎ノ門５丁目１番４号,,13,103,1050001,,,2024-11-22,清算の結了等,,,2015-10-23,1,,,,,ウォーリー,0
2056,9010601014959,登記記録の閉鎖等,0,2024-12-10,2024-12-04,株式会社中村鉄工所,,株式会社,東京都,墨田区,立花５丁目１６番２号,,13,107,1310043,,,2024-12-04,清算の結了等,,,2015-10-05,1,,,,,ナカムラテッコウショ,0
2057,9010801021961,登記記録の閉鎖等,0,2024-12-10,2024-12-02,モダンオーバーシーズ株式会社,,株式会社,東京都,大田区,平和島３丁目４番１号,,13,111,1430006,,,2024-12-02,清算の結了等,,,2015-10-05,1,,,,,モダンオーバーシーズ,0
2058,9011001095004,登記記録の閉鎖等,0,2024-12-10,2024-12-02,日本ケンタッキー・フライド・チキン株式会社,,株式会社,神奈川県,横浜市西区,みなとみらい４丁目４番５号,,14,103,2200012,,,2024-12-02,合併による解散等,4011001017607,令和６年１２月１日神奈川県横浜市西区みなとみらい四丁目４番５号日本ＫＦＣホールディングス株式会社（4011001017607）に合併し解散,2015-10-05,1,,,,,ニホンケンタッキーフライドチキン,0
2059,9011001136600,登記記録の閉鎖等,0,2024-12-10,2024-11-11,ＶｏｉｃｅＡｐｐ株式会社,,株式会社,東京都,渋谷区,笹塚２丁目１９番３号,,13,113,1510073,,,2024-11-11,合併による解散等,3010401090990,令和６年１０月３１日東京都渋谷区笹塚二丁目１９番３号フェアユース株式会社（3010401090990）に合併し解散,2020-10-27,1,,,,,ボイスアップ,0
2074,9011701013801,登記記録の閉鎖等,0,2024-12-10,2024-12-04,株式会社ケイエイチプランニング,,株式会社,東京都,江戸川区,西篠崎２丁目４番１１号,,13,123,1330055,,,2024-12-04,清算の結了等,,,2015-10-05,1,,,,,ケイエイチプランニング,0
2077,9012402005575,登記記録の閉鎖等,0,2024-12-10,2024-12-09,有限会社萬両酒藏,,有限会社,東京都,小金井市,梶野町２丁目５番２１号,,13,210,1840002,,,2024-12-09,清算の結了等,,,2015-10-05,1,,,,,マンリョウシュゾウ,0
2089,9020001077465,登記記録の閉鎖等,0,2024-12-10,2024-11-29,株式会社カタライズ,,株式会社,神奈川県,川崎市川崎区,南渡田町１番１号,,14,131,2100855,,,2024-11-29,清算の結了等,,,2015-10-05,1,,,,,カタライズ,0
2090,9020001086978,登記記録の閉鎖等,0,2024-12-10,2024-11-29,株式会社フリーコンセプト,,株式会社,神奈川県,横浜市戸塚区,下倉田町１７５６番地１４８,,14,110,2440815,,,2024-11-29,清算の結了等,,,2015-10-05,1,,,,,フリーコンセプト,0
2094,9020001117691,登記記録の閉鎖等,0,2024-12-10,2024-12-02,株式会社ＬｏＤ,,株式会社,神奈川県,横浜市青葉区,美しが丘西２丁目８番地５,,14,117,2250001,,,2024-12-02,清算の結了等,,,2016-09-06,1,,,,,エルオーディー,0
2110,9021002028309,登記記録の閉鎖等,0,2024-12-10,2024-12-06,有限会社健整,,有限会社,神奈川県,相模原市南区,新戸１９５６番地エステートプラムＩＩ１０１,00013273,14,153,2520326,,,2024-12-06,清算の結了等,,,2015-10-05,1,,,,,,0
2111,9021002049767,登記記録の閉鎖等,0,2024-12-10,2024-12-09,有限会社御守,,有限会社,神奈川県,足柄下郡真鶴町,真鶴３３３番地１６,,14,383,2590201,,,2024-12-09,清算の結了等,,,2015-10-05,1,,,,,,0
2117,9030001083990,登記記録の閉鎖等,0,2024-12-10,2024-12-05,株式会社オーティーエフ,,株式会社,埼玉県,草加市,原町２丁目３番６－８号,,11,221,3400048,,,2024-12-05,清算の結了等,,,2015-10-05,1,,,,,オーティーエフ,0
2119,9030001141212,登記記録の閉鎖等,0,2024-12-10,2024-12-05,株式会社ＦＯＲＷＡＲＤ,,株式会社,埼玉県,川越市,大字下広谷１６０番地２,,11,201,3500804,,,2024-12-05,清算の結了等,,,2021-03-17,1,,,,,フォワード,0
2124,9030002041642,登記記録の閉鎖等,0,2024-12-10,2024-12-03,有限会社角田商店,,有限会社,埼玉県,羽生市,中央４丁目８番２８号,,11,216,3480058,,,2024-12-03,清算の結了等,,,2015-10-05,1,,,,,カクタショウテン,0
2126,9030002086456,登記記録の閉鎖等,0,2024-12-10,2024-12-05,有限会社清水考作所,,有限会社,埼玉県,越谷市,蒲生４丁目１５番４０号,,11,222,3430838,,,2024-12-05,清算の結了等,,,2015-10-05,1,,,,,,0
2128,9030005009959,登記記録の閉鎖等,0,2024-12-10,2024-12-06,農事組合法人小谷農事組合,,その他の設立登記法人,埼玉県,鴻巣市,小谷８３番地,,11,217,3690133,,,2024-12-06,清算の結了等,,,2015-10-05,1,,,,,コヤノウジクミアイ,0
2132,9040001101256,登記記録の閉鎖等,0,2024-12-10,2024-12-02,株式会社イーハウス,,株式会社,千葉県,流山市,西初石３丁目１０３番地の２,,12,220,2700121,,,2024-12-02,清算の結了等,,,2017-08-03,1,,,,,イーハウス,0
2133,9040001130800,登記記録の閉鎖等,0,2024-12-10,2024-12-03,株式会社タイズ,,株式会社,千葉県,佐倉市,太田１４６２番地,,12,212,2850808,,,2024-12-03,清算の結了等,,,2023-11-07,1,,,,,タイズ,0
2140,9040002098203,登記記録の閉鎖等,0,2024-12-10,2024-12-03,有限会社丸富士,,有限会社,千葉県,野田市,古布内１３５３番地１,,12,208,2700221,,,2024-12-03,清算の結了等,,,2015-10-05,1,,,,,マルフジ,0
2143,9050001033416,登記記録の閉鎖等,0,2024-12-10,2024-12-05,株式会社茨城ミシンセンター,00022413,株式会社,茨城県,水戸市,米沢町１１３番地４,,08,201,3100847,,,2024-12-05,清算の結了等,,,2015-10-05,1,,,,,イバラキミシンセンター,0
2153,9070002012689,登記記録の閉鎖等,0,2024-12-10,2024-12-09,有限会社Ｙ’Ｓ保険センター,,有限会社,群馬県,高崎市,上中居町３８１番地２,,10,202,3700851,,,2024-12-09,清算の結了等,,,2015-10-05,1,,,,,ワイズホケンセンター,0
2159,9080102003645,登記記録の閉鎖等,0,2024-12-10,2024-12-05,有限会社ヤマグチ企画,,有限会社,静岡県,駿東郡清水町,柿田９８５番地の９,,22,341,4110904,,,2024-12-05,清算の結了等,,,2015-10-05,1,,,,,ヤマグチキカク,0
2162,9080102014808,登記記録の閉鎖等,0,2024-12-10,2024-12-04,有限会社富岳輸送,,有限会社,静岡県,富士市,富士岡１７９１番地の３,,22,210,4170841,,,2024-12-04,清算の結了等,,,2015-10-05,1,,,,,フガクユソウ,0
2171,9110001028764,登記記録の閉鎖等,0,2024-12-10,2024-12-04,株式会社野村防災,,株式会社,新潟県,長岡市,呉服町１丁目２番地２０,,15,202,9400056,,,2024-12-04,清算の結了等,,,2015-10-05,1,,,,,ノムラボウサイ,0
2172,9110001034291,登記記録の閉鎖等,0,2024-12-10,2024-11-25,キヨラカ株式会社,,株式会社,新潟県,新潟市秋葉区,新津４４６２番地３,,15,105,9560031,,,2024-11-25,合併による解散等,3110001028233,令和６年１１月１日新潟県新潟市秋葉区新津４４６２番地３ＣＯＢＬＩＮ株式会社（3110001028233）に合併し解散,2019-09-26,1,,,,,キヨラカ,0
2187,9120101006339,登記記録の閉鎖等,0,2024-12-10,2024-12-02,平成企画株式会社,,株式会社,大阪府,堺市西区,鳳北町４丁１６５番地,,27,144,5938328,,,2024-12-02,清算の結了等,,,2015-10-05,1,,,,,ヘイセイキカク,0
2188,9120101028705,登記記録の閉鎖等,0,2024-12-10,2024-12-06,株式会社ワークトランスポート,,株式会社,大阪府,東大阪市,西堤本通東１丁目１番１号,,27,227,5770045,,,2024-12-06,清算の結了等,,,2015-10-05,1,,,,,ワークトランスポート,0
2194,9122001020056,登記記録の閉鎖等,0,2024-12-10,2024-12-05,前田重機株式会社,,株式会社,大阪府,八尾市,八尾木北５丁目２１５番地の１,,27,212,5810016,,,2024-12-05,清算の結了等,,,2015-10-05,1,,,,,マエダジュウキ,0
2202,9130003005173,登記記録の閉鎖等,0,2024-12-10,2024-12-02,合同会社オーバーフロー,,合同会社,大阪府,大阪市北区,梅田１丁目２番２号大阪駅前第２ビル２階５－６号室,,27,127,5300001,,,2024-12-02,清算の結了等,,,2017-09-04,1,,,,,オーバーフロー,0
2212,9140002066315,登記記録の閉鎖等,0,2024-12-10,2024-12-04,有限会社ウエイベース,,有限会社,兵庫県,川西市,清和台西３丁目４番地の４８,,28,217,6660143,,,2024-12-04,清算の結了等,,,2015-10-05,1,,,,,ウエイベース,0
2236,9200003004358,登記記録の閉鎖等,0,2024-12-10,2024-12-06,合同会社ＡＴハピネス,,合同会社,岐阜県,安八郡安八町,牧３８７２番地１,,21,383,5030125,,,2024-12-06,清算の結了等,,,2018-12-18,1,,,,,エーティーハピネス,0
2242,9230002013753,登記記録の閉鎖等,0,2024-12-10,2024-12-05,有限会社大洋薬品,,有限会社,富山県,射水市,生源寺１２０番地,,16,211,9390403,,,2024-12-05,清算の結了等,,,2015-10-05,1,,,,,タイヨウヤクヒン,0
2244,9240001030492,登記記録の閉鎖等,0,2024-12-10,2024-12-05,株式会社ケーアイ,,株式会社,広島県,福山市,木之庄町１丁目２番２８号,,34,207,7200082,,,2024-12-05,清算の結了等,,,2015-10-05,1,,,,,,0
2249,9240002043898,登記記録の閉鎖等,0,2024-12-10,2024-12-05,福山ガラス有限会社,,有限会社,広島県,福山市,千田町大字千田２４５３番地,,34,207,7200013,,,2024-12-05,清算の結了等,,,2015-10-05,1,,,,,フクヤマガラス,0
2250,9250002000023,登記記録の閉鎖等,0,2024-12-10,2024-12-06,有限会社アド環境設計事務所,,有限会社,山口県,山口市,黒川９１２番地の５,,35,203,7530851,,,2024-12-06,清算の結了等,,,2015-10-05,1,,,,,,0
2252,9270005004663,登記記録の閉鎖等,0,2024-12-10,2024-12-05,特定非営利活動法人ハウス・ドック,,その他の設立登記法人,鳥取県,倉吉市,上井３３５番地３０,,31,203,6820021,,,2024-12-05,清算の結了等,,,2015-10-05,1,,,,,ハウスドック,0
2269,9300001010653,登記記録の閉鎖等,0,2024-12-10,2024-12-06,株式会社インテルプロシード,,株式会社,佐賀県,神埼郡吉野ヶ里町,田手１５４０番１,,41,327,8420035,,,2024-12-06,清算の結了等,,,2017-02-06,1,,,,,インテルプロシード,0
2272,9340001021201,登記記録の閉鎖等,0,2024-12-10,2024-12-03,パステムソフト株式会社,,株式会社,鹿児島県,鹿児島市,錦江町９番２５号,,46,201,8920836,,,2024-12-03,合併による解散等,3340001000623,令和６年１２月１日鹿児島市錦江町９番２５号パステムソリューションズ株式会社（3340001000623）に合併し解散,2018-05-24,1,,,,,パステムソフト,0
2284,9390001012897,登記記録の閉鎖等,0,2024-12-10,2024-12-04,和峰商事株式会社,,株式会社,山形県,酒田市,ゆたか１丁目１４番地の３,,06,204,9980006,,,2024-12-04,清算の結了等,,,2015-10-05,1,,,,,ワホウショウジ,0
2295,9430005005785,登記記録の閉鎖等,0,2024-12-10,2024-12-06,医療法人社団はやし眼科,,その他の設立登記法人,北海道,江別市,大麻中町２番地１７,,01,217,0690854,,,2024-12-06,清算の結了等,,,2015-10-05,1,,,,,ハヤシガンカ,0
2300,9470002019149,登記記録の閉鎖等,0,2024-12-10,2024-12-04,有限会社山吾水産,,有限会社,香川県,小豆郡土庄町,豊島唐櫃２５４０番地,,37,322,7614662,,,2024-12-04,清算の結了等,,,2015-10-05,1,,,,,ヤマゴスイサン,0
