sequenceNumber,corporateNumber,process,correct,updateDate,changeDate,name,nameImageId,kind,prefectureName,cityName,streetNumber,addressImageId,prefectureCode,cityCode,postCode,addressOutside,addressOutsideImageId,closeDate,closeCause,successorCorporateNumber,changeCause,assignmentDate,latest,enName,enPrefectureName,enCityName,enAddressOutside,furigana,hihyoji
50,1011005009314,登記記録の閉鎖等,0,2025-04-22,2025-03-26,一般社団法人Ｊａｐａｎ　Ｗｅｌｌｎｅｓｓ　Ｉｎｉｔｉａｔｉｖｅ　Ａｓｓｏｃｉａｔｉｏｎ,,その他の設立登記法人,東京都,渋谷区,神宮前５丁目５０番５号,,13,113,1500001,,,2025-03-26,清算の結了等,,,2021-11-29,1,,,,,ジャパンウェルネスイニシアチブアソシエーション,0
58,1011201002147,登記記録の閉鎖等,0,2025-04-22,2025-04-18,サノヤ株式会社,,株式会社,東京都,中野区,南台１丁目６番１５号,,13,114,1640014,,,2025-04-18,清算の結了等,,,2015-10-05,1,,,,,サノヤ,0
64,1011301024108,登記記録の閉鎖等,0,2025-04-22,2025-04-16,株式会社Ｓｗｏｏｓｈ,,株式会社,東京都,世田谷区,世田谷２丁目４番２号ＳＡＣＲＡＴＥＲＲＡＣＥ３階,,13,112,1540017,,,2025-04-16,清算の結了等,,,2018-05-07,1,,,,,スウォッシュ,0
66,1011303002400,登記記録の閉鎖等,0,2025-04-22,2025-04-17,株式会社ＲＥＮＮ,,株式会社,東京都,中野区,白鷺２丁目６番２２号５０２,,13,114,1650035,,,2025-04-17,清算の結了等,,,2016-02-05,1,,,,,レン,0
67,1011401024916,登記記録の閉鎖等,0,2025-04-22,2025-03-26,嘉霖株式会社,,株式会社,東京都,渋谷区,富ヶ谷２丁目１７番１４号,,13,113,1510063,,,2025-03-26,清算の結了等,,,2023-02-20,1,,,,,カリン,0
74,1011805002781,登記記録の閉鎖等,0,2025-04-22,2025-04-09,一般社団法人下町未来のコミュニティ,,その他の設立登記法人,東京都,足立区,本木２丁目２１番３号,,13,121,1230853,,,2025-04-09,清算の結了等,,,2018-05-22,1,,,,,シタマチミライノコミュニティ,0
77,1013202011317,登記記録の閉鎖等,0,2025-04-22,2025-03-25,有限会社マリイット,,有限会社,東京都,目黒区,上目黒３丁目３３番２２号,,13,110,1530051,,,2025-03-25,清算の結了等,,,2015-10-05,1,,,,,マリイット,0
89,1021003006592,登記記録の閉鎖等,0,2025-04-22,2025-04-21,グッズライフ合同会社,,合同会社,神奈川県,座間市,相模が丘５丁目５番１０号,,14,216,2520001,,,2025-04-21,清算の結了等,,,2017-04-05,1,,,,,,0
100,1030002035676,登記記録の閉鎖等,0,2025-04-22,2025-04-16,西村鉄工有限会社,,有限会社,埼玉県,入間市,大字仏子１６０１番地の１,,11,225,3580053,,,2025-04-16,清算の結了等,,,2015-10-05,1,,,,,ニシムラテッコウ,0
118,1050001045749,登記記録の閉鎖等,0,2025-04-22,2025-04-09,株式会社三和ＮｅＸＴ,,株式会社,茨城県,日立市,諏訪町１丁目３番１０号,,08,202,3160001,,,2025-04-09,清算の結了等,,,2019-03-26,1,,,,,サンワネクスト,0
121,1050003004876,登記記録の閉鎖等,0,2025-04-22,2025-04-09,合同会社恵,,合同会社,茨城県,北茨城市,華川町車１０５５番地,,08,215,3191534,,,2025-04-09,清算の結了等,,,2019-10-11,1,,,,,メグミ,0
122,1050005010501,登記記録の閉鎖等,0,2025-04-22,2025-04-10,特定非営利活動法人ホームホスピス結城,,その他の設立登記法人,茨城県,結城市,大字田間１４８９番地２,,08,207,3070044,,,2025-04-10,清算の結了等,,,2015-10-05,1,,,,,ホームホスピスユウキ,0
126,1070001033116,登記記録の閉鎖等,0,2025-04-22,2025-04-16,株式会社Ｔｈａｎｋｓ　Ｌｏｖｅ　Ｈａｐｐｙ,,株式会社,群馬県,高崎市,下小鳥町７０２番地１,,10,202,3700074,,,2025-04-16,清算の結了等,,,2017-02-07,1,,,,,,0
137,1110001005614,登記記録の閉鎖等,0,2025-04-22,2025-04-10,株式会社山口酸素商会,,株式会社,新潟県,新潟市中央区,関屋新町通１丁目６２番地,,15,103,9518135,,,2025-04-10,清算の結了等,,,2015-10-05,1,,,,,ヤマグチサンソショウカイ,0
141,1120001029728,登記記録の閉鎖等,0,2025-04-22,2025-04-18,フジイスチール株式会社,,株式会社,大阪府,大阪市港区,三先２丁目２０番７５－２００５号,,27,107,5520016,,,2025-04-18,清算の結了等,,,2015-10-05,1,,,,,フジイスチール,0
154,1120002019182,登記記録の閉鎖等,0,2025-04-22,2025-04-14,有限会社フジイプリンティング,,有限会社,大阪府,大阪市福島区,大開１丁目２番６号,,27,103,5530007,,,2025-04-14,清算の結了等,,,2015-10-05,1,,,,,フジイプリンティング,0
173,1140001123594,登記記録の閉鎖等,0,2025-04-22,2025-03-24,株式会社絆,,株式会社,兵庫県,神崎郡福崎町,山崎５２４番地２,,28,443,6792211,,,2025-03-24,清算の結了等,,,2021-10-25,1,,,,,キズナ,0
185,1180001028690,登記記録の閉鎖等,0,2025-04-22,2025-04-10,日豊工業株式会社,,株式会社,愛知県,名古屋市緑区,上旭１丁目８０８番地,,23,114,4580016,,,2025-04-10,清算の結了等,,,2015-10-05,1,,,,,ニッポウコウギョウ,0
201,1200005008793,登記記録の閉鎖等,0,2025-04-22,2025-04-15,特定非営利活動法人エヌピーオー情報ネットワークセンター,,その他の設立登記法人,岐阜県,多治見市,滝呂町１４丁目１５５番地の６２７,,21,204,5070813,,,2025-04-15,清算の結了等,,,2015-10-05,1,,,,,,0
202,1210002012203,登記記録の閉鎖等,0,2025-04-22,2025-04-11,プールマー有限会社,,有限会社,福井県,南条郡南越前町,社谷第３７号２番地の１,,18,404,9190103,,,2025-04-11,清算の結了等,,,2015-10-05,1,,,,,プールマー,0
205,1220002003291,登記記録の閉鎖等,0,2025-04-22,2025-04-16,有限会社杉山ビル,,有限会社,石川県,金沢市,片町１丁目３番２５号,,17,201,9200981,,,2025-04-16,清算の結了等,,,2015-10-05,1,,,,,スギヤマビル,0
224,1320005006645,登記記録の閉鎖等,0,2025-04-22,2025-04-14,農事組合法人おおいし,,その他の設立登記法人,大分県,豊後大野市,緒方町大石４３６番地,,44,212,8796759,,,2025-04-14,清算の結了等,,,2015-10-05,1,,,,,オオイシ,0
240,1400001004297,登記記録の閉鎖等,0,2025-04-22,2025-04-11,株式会社雲水,,株式会社,岩手県,盛岡市,青山４丁目４６番２５号,,03,201,0200133,,,2025-04-11,合併による解散等,9021001020992,令和７年４月１日神奈川県伊勢原市伊勢原二丁目５番４３号株式会社オーイズミフーズ（9021001020992）に合併し解散,2015-10-05,1,,,,,ウンスイ,0
245,1402702000046,登記記録の閉鎖等,0,2025-04-22,2025-04-02,有限会社エイテック,,有限会社,岩手県,大船渡市,赤崎町字諏訪前３７番地４,,03,203,0220007,,,2025-04-02,合併による解散等,3402701000251,令和７年４月１日岩手県大船渡市赤崎町字諏訪前３７番地４株式会社理工電気（3402701000251）に合併し解散,2015-10-05,1,,,,,エイテック,0
249,1430001058506,登記記録の閉鎖等,0,2025-04-22,2025-03-31,株式会社Ｌｕｍｉｒｉｓｅ,,株式会社,北海道,札幌市中央区,北十条西２４丁目３番１号,,01,101,0600010,,,2025-03-31,合併による解散等,1430001059982,令和７年３月３１日札幌市中央区北十条西二十四丁目３番１号北海道ナチュラルバイオグループ株式会社（1430001059982）に合併し解散,2015-10-05,1,,,,,ルミライズ,0
252,1430002037120,登記記録の閉鎖等,0,2025-04-22,2025-04-10,有限会社東武技建,,有限会社,北海道,札幌市東区,北二十条東２１丁目１番１７号,,01,103,0650020,,,2025-04-10,清算の結了等,,,2015-10-05,1,,,,,トウブギケン,0
253,1450001009969,登記記録の閉鎖等,0,2025-04-22,2025-04-21,パートナーズ株式会社,,株式会社,北海道,旭川市,五条通９丁目１７０３番地３０,,01,204,0700035,,,2025-04-21,清算の結了等,,,2015-10-05,1,,,,,パートナーズ,0
261,2010001161417,登記記録の閉鎖等,0,2025-04-22,2025-04-09,株式会社大塚ホールディングス,00072690,株式会社,愛知県,江南市,古知野町北屋敷２０５番地,,23,217,4838272,,,2025-04-09,清算の結了等,,,2015-10-05,1,,,,,オオツカホールディングス,0
269,2010005031459,登記記録の閉鎖等,0,2025-04-22,2025-04-15,パトリオット２一般社団法人,,その他の設立登記法人,東京都,中央区,日本橋１丁目４番１号日本橋一丁目ビルディング,,13,102,1030027,,,2025-04-15,清算の結了等,,,2020-02-18,1,,,,,パトリオットニ,0
272,2010401091156,登記記録の閉鎖等,0,2025-04-22,2025-04-01,株式会社ニコ,,株式会社,東京都,港区,白金１丁目２５番１８－６０１号,,13,103,1080072,,,2025-04-01,清算の結了等,,,2015-10-05,1,,,,,ニコ,0
274,2010401137347,登記記録の閉鎖等,0,2025-04-22,2025-04-11,株式会社ウタイヤレコーズユナイテッド,,株式会社,山口県,宇部市,大字沖宇部１７７番地８,,35,202,7550001,,,2025-04-11,合併による解散等,6250001004952,令和７年４月１日山口県宇部市大字沖宇部１７７番地８株式会社清木場事務所（6250001004952）に合併し解散,2018-03-27,1,,,,,ウタイヤレコーズユナイテッド,0
288,2010801011333,登記記録の閉鎖等,0,2025-04-22,2025-04-16,丸高運送株式会社,00105113,株式会社,東京都,大田区,西蒲田８丁目２４番８号,,13,111,1440051,,,2025-04-16,合併による解散等,7010401136559,令和７年４月１日東京都新宿区富久町１５番１－４００２号株式会社クドウ（7010401136559）に合併し解散,2015-10-05,1,,,,,マルタカウンソウ,0
323,2011803005645,登記記録の閉鎖等,0,2025-04-22,2025-04-16,ＳｈｕＴｅｃ合同会社,,合同会社,東京都,足立区,神明３丁目２５番１４号,,13,121,1210051,,,2025-04-16,清算の結了等,,,2023-05-15,1,,,,,シュウテック,0
325,2012401001375,登記記録の閉鎖等,0,2025-04-22,2025-04-08,株式会社ＰＴＰ,,株式会社,東京都,府中市,府中町１丁目１４番地の１,,13,206,1830055,,,2025-04-08,清算の結了等,,,2015-10-05,1,,,,,ピーティーピー,0
330,2012702014183,登記記録の閉鎖等,0,2025-04-22,2025-04-15,有限会社アイ,,有限会社,東京都,東村山市,野口町４丁目１０番３号,,13,213,1890022,,,2025-04-15,清算の結了等,,,2015-10-05,1,,,,,アイ,0
369,2060002003506,登記記録の閉鎖等,0,2025-04-22,2025-04-11,有限会社ケーエムアイ,,有限会社,栃木県,宇都宮市,中今泉４丁目１９番１号,,09,201,3210968,,,2025-04-11,清算の結了等,,,2015-10-05,1,,,,,ケーエムアイ,0
379,2070003004576,登記記録の閉鎖等,0,2025-04-22,2025-04-16,トレシーズ合同会社,,合同会社,群馬県,高崎市,新町３１８２番１３号,,10,202,3701301,,,2025-04-16,清算の結了等,,,2022-08-01,1,,,,,トレシーズ,0
384,2080402009489,登記記録の閉鎖等,0,2025-04-22,2025-04-14,有限会社マキタ製作所,,有限会社,静岡県,湖西市,白須賀字宿北６２１１番地の１,,22,221,4310451,,,2025-04-14,清算の結了等,,,2015-10-05,1,,,,,マキタセイサクショ,0
403,2120005013413,登記記録の閉鎖等,0,2025-04-22,2025-04-17,特定非営利活動法人ゆいむ,,その他の設立登記法人,大阪府,交野市,私部７丁目１２番５８号,,27,230,5760052,,,2025-04-17,清算の結了等,,,2015-10-05,1,,,,,ユイム,0
404,2120101005867,登記記録の閉鎖等,0,2025-04-22,2025-04-14,株式会社檜垣工務店,,株式会社,大阪府,堺市堺区,向陵西町３丁３番１３号,,27,141,5900026,,,2025-04-14,清算の結了等,,,2015-10-05,1,,,,,ヒガキコウムテン,0
406,2120101060532,登記記録の閉鎖等,0,2025-04-22,2025-04-14,株式会社ＲＥＡＬ,,株式会社,大阪府,和泉市,府中町７丁目５番５２号スカイラークＡＢＣ４Ｆ,,27,219,5940071,,,2025-04-14,清算の結了等,,,2019-09-24,1,,,,,リアル,0
429,2180001094443,登記記録の閉鎖等,0,2025-04-22,2025-04-15,東海共同発電株式会社,,株式会社,愛知県,東海市,東海町５丁目３番地,,23,222,4760015,,,2025-04-15,合併による解散等,3010001008848,令和７年４月１日東京都千代田区丸の内二丁目６番１号日本製鉄株式会社（3010001008848）に合併し解散,2015-10-05,1,,,,,トウカイキョウドウハツデン,0
436,2180302015296,登記記録の閉鎖等,0,2025-04-22,2025-04-07,有限会社かんのんや,,有限会社,愛知県,蒲郡市,府相町１丁目６番地,,23,214,4430054,,,2025-04-07,清算の結了等,,,2015-10-05,1,,,,,カンノンヤ,0
441,2190001018624,登記記録の閉鎖等,0,2025-04-22,2025-04-10,株式会社山和印刷,,株式会社,三重県,四日市市,大字日永５４５０番地２３,,24,202,5100885,,,2025-04-10,清算の結了等,,,2015-10-05,1,,,,,ヤマトインサツ,0
491,2380003004330,登記記録の閉鎖等,0,2025-04-22,2025-04-07,株式会社佐藤土木,,株式会社,福島県,いわき市,内郷内町立町５９番地,,07,204,9738404,,,2025-04-07,清算の結了等,,,2018-09-14,1,,,,,,0
495,2410002001705,登記記録の閉鎖等,0,2025-04-22,2025-04-16,有限会社三水,,有限会社,秋田県,秋田市,楢山共和町８番３２号,,05,201,0100028,,,2025-04-16,清算の結了等,,,2015-10-05,1,,,,,サンスイ,0
499,2430001031965,登記記録の閉鎖等,0,2025-04-22,2025-04-10,株式会社三恵斎藤建設,,株式会社,北海道,札幌市北区,あいの里一条３丁目７番８号,,01,102,0028071,,,2025-04-10,清算の結了等,,,2015-10-05,1,,,,,サンケイサイトウケンセツ,0
500,2430001052573,登記記録の閉鎖等,0,2025-04-22,2025-04-02,株式会社安藤土木,,株式会社,北海道,勇払郡むかわ町,美幸１丁目８５番１,,01,586,0540042,,,2025-04-02,合併による解散等,8430001052659,令和７年４月１日北海道勇払郡むかわ町穂別８１番地１０遠藤建設株式会社（8430001052659）に合併し解散,2015-10-05,1,,,,,アンドウドボク,0
501,2430001083305,登記記録の閉鎖等,0,2025-04-22,2025-04-11,Ｉｃｈｉ　Ｉｃｈｉ株式会社,,株式会社,北海道,虻田郡ニセコ町,字曽我２６３番地１４,,01,395,0481522,,,2025-04-11,清算の結了等,,,2021-01-29,1,,,,,イチイチ,0
503,2430002050527,登記記録の閉鎖等,0,2025-04-22,2025-04-09,有限会社エルムコーポレーション,,有限会社,北海道,岩見沢市,上幌向南一条４丁目１２７６番地２,,01,210,0690362,,,2025-04-09,清算の結了等,,,2015-10-05,1,,,,,エルムコーポレーション,0
504,2430005003044,登記記録の閉鎖等,0,2025-04-22,2025-04-10,北海道医療生活協同組合,,その他の設立登記法人,北海道,札幌市中央区,北四条西１２丁目１番地ほくろうビル４階,,01,101,0600004,,,2025-04-10,清算の結了等,,,2015-10-05,1,,,,,ホッカイドウイリョウ,0
510,2480002006598,登記記録の閉鎖等,0,2025-04-22,2025-04-14,株式会社ケイエスエムコーポレーション,,株式会社,徳島県,徳島市,論田町新開６６番地の９６,,36,201,7708011,,,2025-04-14,清算の結了等,,,2015-10-05,1,,,,,ケイエスエムコーポレーション,0
522,3010005031458,登記記録の閉鎖等,0,2025-04-22,2025-04-15,パトリオット１一般社団法人,,その他の設立登記法人,東京都,中央区,日本橋１丁目４番１号日本橋一丁目ビルディング,,13,102,1030027,,,2025-04-15,清算の結了等,,,2020-02-18,1,,,,,パトリオットイチ,0
530,3010403022819,登記記録の閉鎖等,0,2025-04-22,2025-04-01,ＭＦＪＰＮ合同会社,,合同会社,東京都,港区,虎ノ門３丁目２２番１０－２０１号,,13,103,1050001,,,2025-04-01,清算の結了等,,,2020-04-10,1,,,,,エムエフジェイピーエヌ,0
559,3011101045756,登記記録の閉鎖等,0,2025-04-22,2025-04-21,株式会社ドクターライン,,株式会社,東京都,羽村市,富士見平１丁目９番地１３,,13,227,2050013,,,2025-04-21,清算の結了等,,,2015-10-05,1,,,,,,0
565,3011203003918,登記記録の閉鎖等,0,2025-04-22,2025-04-07,合同会社Ｕ‐ＳＥＮＳＥ,,合同会社,東京都,中野区,中野５丁目５８番９号ソシアルビル山田２０２,,13,114,1640001,,,2025-04-07,清算の結了等,,,2022-10-03,1,,,,,ユーセンス,0
572,3011602010416,登記記録の閉鎖等,0,2025-04-22,2025-04-07,有限会社マルタツ事務機,,有限会社,東京都,練馬区,高松２丁目２０番８号,,13,120,1790075,,,2025-04-07,清算の結了等,,,2015-10-05,1,,,,,マルタツジムキ,0
575,3012401021075,登記記録の閉鎖等,0,2025-04-22,2025-04-09,株式会社スペースブレーン,,株式会社,東京都,武蔵野市,西久保２丁目１５番９号－３０６,,13,203,1800013,,,2025-04-09,清算の結了等,,,2015-10-05,1,,,,,スペースブレーン,0
580,3013302006165,登記記録の閉鎖等,0,2025-04-22,2025-04-04,有限会社玉屋,,有限会社,東京都,豊島区,東池袋３丁目９番１３号,,13,116,1700013,,,2025-04-04,清算の結了等,,,2015-10-05,1,,,,,タマヤ,0
597,3030001063164,登記記録の閉鎖等,0,2025-04-22,2025-04-16,株式会社トウマ,,株式会社,埼玉県,富士見市,大字南畑新田９４５番地の１,,11,235,3540003,,,2025-04-16,清算の結了等,,,2015-10-05,1,,,,,トウマ,0
602,3030003004315,登記記録の閉鎖等,0,2025-04-22,2025-04-16,合同会社慈孝,,合同会社,埼玉県,川口市,戸塚東２丁目４番９号,,11,203,3330802,,,2025-04-16,清算の結了等,,,2015-10-05,1,,,,,ジコウ,0
610,3040002090355,登記記録の閉鎖等,0,2025-04-22,2025-04-04,有限会社シャルム,,有限会社,千葉県,柏市,東逆井１丁目５番１２号,,12,217,2770045,,,2025-04-04,清算の結了等,,,2015-10-05,1,,,,,シャルム,0
626,3070002033724,登記記録の閉鎖等,0,2025-04-22,2025-04-10,有限会社ナカヒサ,,有限会社,群馬県,館林市,小桑原町１２２８番地の１２,,10,207,3740037,,,2025-04-10,清算の結了等,,,2015-10-05,1,,,,,ナカヒサ,0
629,3080003002470,登記記録の閉鎖等,0,2025-04-22,2025-04-16,合同会社シリウス,,合同会社,静岡県,島田市,高砂町６２４５番地１,,22,209,4270054,,,2025-04-16,合併による解散等,8180001161782,令和７年４月１日名古屋市北区平安二丁目１４番１号株式会社プラネット（8180001161782）に合併し解散,2020-08-31,1,,,,,シリウス,0
631,3080102021025,登記記録の閉鎖等,0,2025-04-22,2025-04-11,有限会社セイワ電機工業,,有限会社,静岡県,下田市,六丁目６９６番地の１１,,22,219,4150026,,,2025-04-11,清算の結了等,,,2015-10-05,1,,,,,セイワデンキコウギョウ,0
634,3080402000414,登記記録の閉鎖等,0,2025-04-22,2025-04-21,有限会社アテックス・エンジニアリング,,有限会社,静岡県,浜松市中央区,本郷町１３２９番地の６,,22,138,4300812,,,2025-04-21,清算の結了等,,,2015-10-05,1,,,,,,0
639,3110001037804,登記記録の閉鎖等,0,2025-04-22,2025-04-10,株式会社ＮＥＸＳＴＥＲ,,株式会社,新潟県,妙高市,高柳２丁目９番１０号,,15,217,9440013,,,2025-04-10,清算の結了等,,,2023-08-29,1,,,,,ネクスター,0
640,3120001096015,登記記録の閉鎖等,0,2025-04-22,2025-04-17,株式会社Ｒｕｉ,,株式会社,大阪府,大阪市浪速区,元町３丁目１２番１２－１０５号,,27,111,5560016,,,2025-04-17,合併による解散等,8120901007826,令和７年２月２３日大阪市浪速区元町三丁目１２番１２－１０５号日新ホテル企画株式会社（8120901007826）に合併し解散,2015-10-05,1,,,,,ルイ,0
654,3120002004760,登記記録の閉鎖等,0,2025-04-22,2025-04-18,有限会社シー・ブイ・エス宮下,,有限会社,大阪府,大阪市城東区,野江３丁目６番９号,,27,118,5360006,,,2025-04-18,清算の結了等,,,2015-10-05,1,,,,,シーブイエスミヤシタ,0
663,3120105008667,登記記録の閉鎖等,0,2025-04-22,2025-04-11,特定非営利活動法人ＨＩＧＨ　Ｅｄｕｃａｔｉｏｎ,,その他の設立登記法人,大阪府,岸和田市,土生町９６２番地ヴィレッジＩＩ３０５号,00110132,27,202,5960825,,,2025-04-11,清算の結了等,,,2017-04-13,1,,,,,ハイエデュケイション,0
667,3130001009710,登記記録の閉鎖等,0,2025-04-22,2025-04-16,株式会社美登幸,,株式会社,京都府,京都市東山区,祇園町南側５７０番地の２３７,,26,105,6050074,,,2025-04-16,清算の結了等,,,2015-10-05,1,,,,,ミトコウ,0
669,3140001041349,登記記録の閉鎖等,0,2025-04-22,2025-04-16,株式会社メタルワーク関西,,株式会社,兵庫県,丹波市,山南町野坂字深ノ代２２１番地２,,28,223,6693145,,,2025-04-16,合併による解散等,6013301016880,令和７年４月１日東京都豊島区池袋二丁目７７番５号三和タジマ株式会社（6013301016880）に合併し解散,2015-10-05,1,,,,,メタルワークカンサイ,0
722,3290001104446,登記記録の閉鎖等,0,2025-04-22,2025-04-07,株式会社啓成,,株式会社,福岡県,福岡市西区,西の丘３丁目２２番１８号,,40,135,8190046,,,2025-04-07,清算の結了等,,,2024-01-19,1,,,,,ケイセイ,0
731,3290802016971,登記記録の閉鎖等,0,2025-04-22,2025-04-17,有限会社みやの,,有限会社,福岡県,遠賀郡遠賀町,大字今古賀５３４番地の１,,40,384,8114303,,,2025-04-17,清算の結了等,,,2015-10-05,1,,,,,ミヤノ,0
752,3360001021873,登記記録の閉鎖等,0,2025-04-22,2025-04-01,株式会社ＴＯＭＯ企画,,株式会社,沖縄県,うるま市,みどり町２丁目６番２１号,,47,213,9042215,,,2025-04-01,合併による解散等,7360003010193,令和７年４月１日沖縄県うるま市みどり町二丁目６番２１号合同会社友ホーム（7360003010193）に合併し解散,2017-02-03,1,,,,,トモキカク,0
760,3360003009025,登記記録の閉鎖等,0,2025-04-22,2025-04-01,合同会社Ｚ１号,,合同会社,沖縄県,那覇市,おもろまち２丁目１３番１４号,,47,201,9000006,,,2025-04-01,合併による解散等,5360002018990,令和７年４月１日沖縄県浦添市宮城四丁目１番５号株式会社Ｌ＆Ｅコンサルティング（5360002018990）に合併し解散,2018-08-23,1,,,,,ゼットイチゴウ,0
766,3370005001227,登記記録の閉鎖等,0,2025-04-22,2025-04-01,医療法人香木会伊藤病院,,その他の設立登記法人,宮城県,仙台市青葉区,二日町８番８号,,04,101,9800802,,,2025-04-01,合併による解散等,6370005001331,令和７年４月１日仙台市泉区実沢字立田屋敷１７番地の１医療法人松田会（6370005001331）に合併し解散,2015-10-05,1,,,,,コウボクカイイトウビョウイン,0
770,3390002012852,登記記録の閉鎖等,0,2025-04-22,2025-04-09,有限会社五陽開発,,有限会社,山形県,米沢市,丸の内１丁目１４番２２号,,06,202,9920052,,,2025-04-09,清算の結了等,,,2015-10-05,1,,,,,ゴヨウカハツ,0
774,3420001008113,登記記録の閉鎖等,0,2025-04-22,2025-04-18,又上電気株式会社,,株式会社,青森県,五所川原市,字敷島町１番地５,,02,205,0370067,,,2025-04-18,清算の結了等,,,2015-10-05,1,,,,,マタジョウデンキ,0
775,3420001008195,登記記録の閉鎖等,0,2025-04-22,2025-04-18,株式会社菊地商会,,株式会社,青森県,北津軽郡鶴田町,大字山道字小泉６１番地５,,02,384,0383515,,,2025-04-18,清算の結了等,,,2015-10-05,1,,,,,キクチショウカイ,0
785,3470002000774,登記記録の閉鎖等,0,2025-04-22,2025-04-14,有限会社アーバンハウス,,有限会社,香川県,高松市,今新町７番地１２,,37,201,7600043,,,2025-04-14,清算の結了等,,,2015-10-05,1,,,,,,0
789,3700150104106,登記記録の閉鎖等,0,2025-04-22,2022-04-01,出雲市生涯現役促進協議会,,その他,島根県,出雲市,今市町北本町２丁目１－６,,32,203,6930002,,,2022-04-01,その他の清算の結了等,,,2021-07-14,1,,,,,イズモシシヨウガイゲンエキソクシンキヨウギカイ,0
790,3700150124987,登記記録の閉鎖等,0,2025-04-22,2025-01-29,相続財産法人　亡牧野茂樹相続財産,,その他,和歌山県,西牟婁郡白浜町,２１７７番地,,30,401,6492211,,,2025-01-29,その他の清算の結了等,,,2024-04-22,1,,,,,ソウゾクザイサンホウジンボウマキノシゲキソウゾクザイサン,0
805,4010005030665,登記記録の閉鎖等,0,2025-04-22,2025-04-15,パトリオット特定目的会社,,その他の設立登記法人,東京都,中央区,日本橋１丁目４番１号日本橋一丁目ビルディング,,13,102,1030027,,,2025-04-15,清算の結了等,,,2019-08-28,1,,,,,パトリオット,0
808,4010401036968,登記記録の閉鎖等,0,2025-04-22,2025-04-17,株式会社ブロードネットマックス,,株式会社,東京都,港区,港南４丁目１番８号,,13,103,1080075,,,2025-04-17,合併による解散等,5120001077450,令和７年４月１日大阪市中央区北浜四丁目５番３３号住友電気工業株式会社（5120001077450）に合併し解散,2015-10-05,1,,,,,ブロードネットマックス,0
822,4010601012926,登記記録の閉鎖等,0,2025-04-22,2025-04-04,立山精機株式会社,,株式会社,千葉県,四街道市,大日１１７番地１３,,12,228,2840001,,,2025-04-04,清算の結了等,,,2015-10-05,1,,,,,タテヤマセイキ,0
824,4010601038467,登記記録の閉鎖等,0,2025-04-22,2025-04-08,株式会社白石,,株式会社,東京都,江東区,永代１丁目２番７－１００３号,,13,108,1350034,,,2025-04-08,清算の結了等,,,2015-10-05,1,,,,,,0
852,4011102001344,登記記録の閉鎖等,0,2025-04-22,2025-04-02,有限会社岩倉商店,,有限会社,東京都,新宿区,若葉３丁目２番地,,13,104,1600011,,,2025-04-02,清算の結了等,,,2015-10-05,1,,,,,イワクラショウテン,0
858,4011401006325,登記記録の閉鎖等,0,2025-04-22,2025-04-17,株式会社メガネの富士,,株式会社,東京都,板橋区,板橋４丁目６番１－９０２号,,13,119,1730004,,,2025-04-17,清算の結了等,,,2015-10-05,1,,,,,メガネノフジ,0
860,4011501026082,登記記録の閉鎖等,0,2025-04-22,2025-04-15,株式会社デイドリームファクトリー,,株式会社,東京都,荒川区,南千住３丁目４０番１０－２００９,,13,118,1160003,,,2025-04-15,清算の結了等,,,2020-08-05,1,,,,,デイドリームファクトリー,0
861,4011605000504,登記記録の閉鎖等,0,2025-04-22,2025-04-16,すずしろ医療生活協同組合,,その他の設立登記法人,東京都,練馬区,練馬１丁目１５番１号,,13,120,1760001,,,2025-04-16,合併による解散等,3011505000695,令和７年４月１日東京都北区堀船三丁目３１番１５号東京ふれあい医療生活協同組合（3011505000695）に合併し解散,2015-10-05,1,,,,,スズシロイリョウ,0
877,4013101008881,登記記録の閉鎖等,0,2025-04-22,2025-04-21,株式会社ＯＮＥＡＣＴ,,株式会社,東京都,青梅市,新町４丁目２９番地３コトブキマンション２１０,,13,205,1980024,,,2025-04-21,清算の結了等,,,2022-04-08,1,,,,,ワンアクト,0
898,4040001087657,登記記録の閉鎖等,0,2025-04-22,2025-04-04,セブンホーム株式会社,,株式会社,千葉県,富里市,十倉２５３番地２０３,,12,233,2860212,,,2025-04-04,清算の結了等,,,2015-10-05,1,,,,,セブンホーム,0
904,4040002100674,登記記録の閉鎖等,0,2025-04-22,2025-04-04,有限会社磯谷書店,,有限会社,千葉県,鴨川市,貝渚３２７１番地,,12,223,2960004,,,2025-04-04,清算の結了等,,,2015-10-05,1,,,,,イソヤショテン,0
916,4070001002935,登記記録の閉鎖等,0,2025-04-22,2025-04-01,株式会社ホンダカーズ前橋,,株式会社,群馬県,前橋市,天川大島町２８９番地の１,,10,201,3792154,,,2025-04-01,合併による解散等,7070001013731,令和７年４月１日群馬県伊勢崎市太田町９００番地３株式会社ホンダ中央群馬（7070001013731）に合併し解散,2015-10-05,1,,,,,ホンダカーズマエバシ,0
917,4070001016563,登記記録の閉鎖等,0,2025-04-22,2025-04-01,株式会社ホンダパルカワライ,,株式会社,群馬県,桐生市,広沢町５丁目１６２８番地,,10,203,3760013,,,2025-04-01,合併による解散等,7070001013731,令和７年４月１日群馬県伊勢崎市太田町９００番地３株式会社ホンダ中央群馬（7070001013731）に合併し解散,2015-10-05,1,,,,,ホンダパルカワライ,0
934,4090001017980,登記記録の閉鎖等,0,2025-04-22,2025-04-10,株式会社Ａｎｄｓ,,株式会社,山梨県,中央市,上三條２４３番地２０,,19,214,4093823,,,2025-04-10,清算の結了等,,,2023-02-16,1,,,,,アンズ,0
957,4120105000202,登記記録の閉鎖等,0,2025-04-22,2025-04-11,医療法人八星内科クリニック,,その他の設立登記法人,大阪府,堺市堺区,旭ヶ丘中町１丁３１番地２,,27,141,5900808,,,2025-04-11,清算の結了等,,,2015-10-05,1,,,,,ヤツボシナイカクリニック,0
962,4130002009139,登記記録の閉鎖等,0,2025-04-22,2025-04-17,有限会社ニヒニヒ,,有限会社,京都府,京都市西京区,大枝西長町１番地２６２,,26,111,6101151,,,2025-04-17,清算の結了等,,,2015-10-05,1,,,,,ニヒニヒ,0
983,4180002071118,登記記録の閉鎖等,0,2025-04-22,2025-04-07,株式会社関東サービス,,株式会社,東京都,調布市,上石原３丁目２１番地８,,13,208,1820035,,,2025-04-07,清算の結了等,,,2015-10-05,1,,,,,カントウサービス,0
989,4180302006789,登記記録の閉鎖等,0,2025-04-22,2025-04-11,大橋精工所有限会社,,有限会社,愛知県,豊橋市,神野新田町字ワノ割８５番地,,23,201,4418077,,,2025-04-11,清算の結了等,,,2015-10-05,1,,,,,オオハシセイコウショ,0
990,4190002021138,登記記録の閉鎖等,0,2025-04-22,2025-04-10,有限会社寺村薬局,,有限会社,三重県,四日市市,富田３丁目２番１３号,,24,202,5108014,,,2025-04-10,清算の結了等,,,2015-10-05,1,,,,,テラムラヤッキョク,0
991,4210001011938,登記記録の閉鎖等,0,2025-04-22,2025-04-18,フクイマルマツ株式会社,,株式会社,福井県,越前市,行松町第１７号３番地の２,,18,209,9150853,,,2025-04-18,清算の結了等,,,2015-10-05,1,,,,,,0
994,4220002013395,登記記録の閉鎖等,0,2025-04-22,2025-04-17,有限会社前出新聞舗,,有限会社,石川県,小松市,埴田町ト１８２番地２,,17,203,9230066,,,2025-04-17,清算の結了等,,,2015-10-05,1,,,,,マエデシンブンホ,0
1008,4290001058476,登記記録の閉鎖等,0,2025-04-22,2025-04-04,フォーライズ株式会社,,株式会社,福岡県,福岡市博多区,博多駅南３丁目１８番４号,,40,132,8120016,,,2025-04-04,清算の結了等,,,2015-10-05,1,,,,,フォーライズ,0
1017,4290803002094,登記記録の閉鎖等,0,2025-04-22,2025-04-14,合同会社かずコーポレーション,,合同会社,福岡県,宮若市,水原６２６番地,,40,226,8220151,,,2025-04-14,清算の結了等,,,2015-10-05,1,,,,,カズコーポレーション,0
1027,4350001008301,登記記録の閉鎖等,0,2025-04-22,2025-04-14,万代ホーム株式会社,,株式会社,鹿児島県,鹿児島市,西別府町２９４１番地２６,,46,201,8900033,,,2025-04-14,合併による解散等,5290001016425,令和７年４月１日福岡市博多区博多駅南五丁目１５番９号株式会社オーリック建設（5290001016425）に合併し解散,2015-10-05,1,,,,,マンダイホーム,0
1029,4350003003275,登記記録の閉鎖等,0,2025-04-22,2025-04-14,スノーボール合同会社,,合同会社,宮崎県,宮崎市,橘通東４丁目５番１４号武田ビル６０１号,,45,201,8800805,,,2025-04-14,清算の結了等,,,2019-01-25,1,,,,,スノーボール,0
1043,4400001013428,登記記録の閉鎖等,0,2025-04-22,2025-03-31,株式会社ライブリーホールディングス,,株式会社,岩手県,盛岡市,長田町２番２１号,,03,201,0200062,,,2025-03-31,合併による解散等,1400001006351,令和７年３月３１日岩手県北上市上野町二丁目３２番２１号株式会社ライブリー（1400001006351）に合併し解散,2016-11-01,1,,,,,ライブリーホールディングス,0
1056,4430005012357,登記記録の閉鎖等,0,2025-04-22,2025-04-10,企業組合ワーカーズ・宅配弁当なず菜,,その他の設立登記法人,北海道,札幌市西区,西野三条９丁目１１番８号,,01,107,0630033,,,2025-04-10,清算の結了等,,,2015-10-05,1,,,,,ワーカーズタクハイベントウナズナ,0
1059,4480002003412,登記記録の閉鎖等,0,2025-04-22,2025-04-17,有限会社富永淡水養魚場,,有限会社,徳島県,徳島市,国府町川原田字東野１４７番地の１,,36,201,7793113,,,2025-04-17,清算の結了等,,,2015-10-05,1,,,,,トミナガタンスイヨウギョジョウ,0
1067,4700150095666,登記記録の閉鎖等,0,2025-04-22,2024-03-31,パラウェーブＮＡＧＡＮＯ実行委員会,,その他,長野県,長野市,大字南長野字幅下６９２－２障がい者支援課内,,20,201,3800837,,,2024-03-31,その他の清算の結了等,,,2019-08-20,1,,,,,パラウエーブナガノジツコウイインカイ,0
1081,5010103001699,登記記録の閉鎖等,0,2025-04-22,2025-04-14,合同会社リトルリーフ,,合同会社,東京都,八王子市,横川町６５８番地５,,13,201,1930823,,,2025-04-14,清算の結了等,,,2021-05-10,1,,,,,,0
1090,5010405022212,登記記録の閉鎖等,0,2025-04-22,2025-03-18,特定非営利活動法人東京囃子塾,,その他の設立登記法人,東京都,港区,海岸３丁目９番４０号１７０６号室,,13,103,1080022,,,2025-03-18,清算の結了等,,,2023-06-15,1,,,,,トウキョウハヤジジュク,0
1113,5011101078052,登記記録の閉鎖等,0,2025-04-22,2025-04-03,日神住宅流通株式会社,,株式会社,東京都,新宿区,新宿５丁目８番１号,,13,104,1600022,,,2025-04-03,合併による解散等,3011101015841,令和７年４月１日東京都新宿区新宿五丁目８番１号日神管財株式会社（3011101015841）に合併し解散,2016-08-24,1,,,,,ニッシンジュウタクリュウツウ,0
1131,5011801012005,登記記録の閉鎖等,0,2025-04-22,2025-04-16,株式会社マシモ管材,,株式会社,東京都,足立区,千住大川町１番８号,,13,121,1200031,,,2025-04-16,清算の結了等,,,2015-10-05,1,,,,,マシモカンザイ,0
1137,5020001134113,登記記録の閉鎖等,0,2025-04-22,2025-04-07,ＫＥＹＳＢＩＴ株式会社,,株式会社,神奈川県,横浜市西区,岡野１丁目１２番１４号,,14,103,2200073,,,2025-04-07,清算の結了等,,,2019-12-18,1,,,,,キーズビット,0
1147,5020002074457,登記記録の閉鎖等,0,2025-04-22,2025-04-15,タテック有限会社,,有限会社,滋賀県,大津市,尾花川１９番１号コーポアイリス２０７号室,,25,201,5200031,,,2025-04-15,清算の結了等,,,2015-10-05,1,,,,,タテック,0
1168,5040001133088,登記記録の閉鎖等,0,2025-04-22,2025-04-04,株式会社ライフフィーロ,,株式会社,千葉県,千葉市美浜区,打瀬１丁目２番地２－Ｆ６０１号,,12,106,2610013,,,2025-04-04,清算の結了等,,,2024-04-11,1,,,,,ライフフィーロ,0
1179,5070002007461,登記記録の閉鎖等,0,2025-04-22,2025-04-14,有限会社小池削蹄商会,,有限会社,群馬県,前橋市,茂木町２４４番地１３,,10,201,3710232,,,2025-04-14,清算の結了等,,,2015-10-05,1,,,,,コイケサクテイショウカイ,0
1188,5080401019420,登記記録の閉鎖等,0,2025-04-22,2025-04-11,株式会社ＭｏｒｉｓｈｉＧａｔｅ,,株式会社,静岡県,浜松市中央区,中島１丁目２５番９号,,22,138,4300856,,,2025-04-11,清算の結了等,,,2015-10-05,1,,,,,モリシゲート,0
1190,5090001002593,登記記録の閉鎖等,0,2025-04-22,2025-04-17,イワタニ山梨株式会社,,株式会社,山梨県,甲斐市,竜王新町２２８番地の１,,19,210,4000111,,,2025-04-17,合併による解散等,2020001075855,令和７年４月１日横浜市港北区新横浜三丁目９番地１８新横浜ＴＥＣＨビルＢ館２階イワタニ首都圏株式会社（2020001075855）に合併し解散,2015-10-05,1,,,,,イワタニヤマナシ,0
1192,5090002011775,登記記録の閉鎖等,0,2025-04-22,2025-04-08,有限会社オサノ,,有限会社,山梨県,南都留郡富士河口湖町,船津２１４４番地３,,19,430,4010301,,,2025-04-08,清算の結了等,,,2015-10-05,1,,,,,オサノ,0
1196,5110003005113,登記記録の閉鎖等,0,2025-04-22,2025-04-10,合同会社ＴＭＲ,,合同会社,新潟県,見附市,学校町１丁目１５番２２号,,15,211,9540052,,,2025-04-10,清算の結了等,,,2023-07-11,1,,,,,ティーエムアール,0
1217,5120101043724,登記記録の閉鎖等,0,2025-04-22,2025-04-14,株式会社エコウェーブ,,株式会社,大阪府,和泉市,箕形町２丁目１番４号,,27,219,5940042,,,2025-04-14,清算の結了等,,,2015-10-05,1,,,,,,0
1226,5130001037123,登記記録の閉鎖等,0,2025-04-22,2025-04-15,株式会社インテリジェント・ソリューションズ,,株式会社,京都府,木津川市,木津川台２丁目８番地１,,26,214,6190225,,,2025-04-15,清算の結了等,,,2015-10-05,1,,,,,インテリジェントソリューションズ,0
1246,5180001142678,登記記録の閉鎖等,0,2025-04-22,2025-04-11,株式会社スタジオＡＢ,,株式会社,愛知県,名古屋市名東区,上社４丁目８９番地,,23,115,4650025,,,2025-04-11,清算の結了等,,,2020-09-03,1,,,,,スタジオエービー,0
1266,5220005002881,登記記録の閉鎖等,0,2025-04-22,2025-04-11,石川県機器鈑金協同組合,,その他の設立登記法人,石川県,金沢市,藤江南１丁目７５番地,,17,201,9200346,,,2025-04-11,清算の結了等,,,2015-10-05,1,,,,,イシカワケンキキバンキン,0
1273,5240002031064,登記記録の閉鎖等,0,2025-04-22,2025-04-11,有限会社堰樂建設,,有限会社,広島県,安芸高田市,美土里町横田２６５０番地の１,,34,214,7310611,,,2025-04-11,清算の結了等,,,2015-10-05,1,,,,,セキラクケンセツ,0
1279,5290001006137,登記記録の閉鎖等,0,2025-04-22,2025-04-17,ＳＯＵキッズケア株式会社,,株式会社,福岡県,福岡市中央区,六本松２丁目１２番２５号,,40,133,8100044,,,2025-04-17,合併による解散等,6011101063318,令和７年４月１日東京都中央区日本橋３－１２－２朝日ビルヂング４Ｆ－ＡＳＯＵキッズケア株式会社（6011101063318）に合併し解散,2015-10-05,1,,,,,エスオーユーキッズケア,0
1314,5390002006448,登記記録の閉鎖等,0,2025-04-22,2025-04-10,有限会社フレッチャープラス,,有限会社,山形県,山形市,あかねケ丘１丁目３番２１号,,06,201,9902481,,,2025-04-10,清算の結了等,,,2015-10-05,1,,,,,フレッチャープラス,0
1320,5430001062207,登記記録の閉鎖等,0,2025-04-22,2025-04-08,株式会社櫟物流,,株式会社,北海道,札幌市清田区,美しが丘三条６丁目８番１１号,,01,110,0040813,,,2025-04-08,清算の結了等,,,2015-10-05,1,,,,,イチイブツリュウ,0
1329,5480002012346,登記記録の閉鎖等,0,2025-04-22,2025-04-21,有限会社梅田商店,,有限会社,徳島県,鳴門市,大津町大代１２１３番地１,,36,202,7720041,,,2025-04-21,清算の結了等,,,2015-10-05,1,,,,,ウメダショウテン,0
1334,6010001205129,登記記録の閉鎖等,0,2025-04-22,2025-04-03,株式会社のぞみ企画,,株式会社,東京都,文京区,小石川１丁目４番１２－７０１号,,13,105,1120002,,,2025-04-03,清算の結了等,,,2019-11-07,1,,,,,ノゾミキカク,0
1360,6011001008091,登記記録の閉鎖等,0,2025-04-22,2025-04-01,株式会社コスモス・アイ,,株式会社,東京都,台東区,東上野３丁目１８番７号,,13,106,1100015,,,2025-04-01,合併による解散等,5010501003925,令和７年４月１日東京都台東区東上野三丁目１８番７号コンピュータ・ハイテック株式会社（5010501003925）に合併し解散,2015-10-05,1,,,,,コスモスアイ,0
1378,6012401019348,登記記録の閉鎖等,0,2025-04-22,2025-04-15,コムウェア・ファイナンシャル・システムズ株式会社,,株式会社,東京都,府中市,宮町１丁目４０番地,,13,206,1830023,,,2025-04-15,合併による解散等,7010001064648,令和７年４月１日東京都千代田区大手町二丁目３番１号エヌ・ティ・ティ・コミュニケーションズ株式会社（7010001064648）に合併し解散,2015-10-05,1,,,,,コムウェアファイナンシャルシステムズ,0
1385,6013401006352,登記記録の閉鎖等,0,2025-04-22,2025-04-17,成績アップゼミホールディングス株式会社,,株式会社,東京都,世田谷区,北沢３丁目２４番２３号,,13,112,1550031,,,2025-04-17,清算の結了等,,,2015-10-05,1,,,,,セイセキアップゼミホールディングス,0
1429,6070001009788,登記記録の閉鎖等,0,2025-04-22,2025-04-15,秋間建設株式会社,,株式会社,群馬県,安中市,東上秋間１７７１番地,,10,211,3790102,,,2025-04-15,清算の結了等,,,2015-10-05,1,,,,,アキマケンセツ,0
1468,6120901005848,登記記録の閉鎖等,0,2025-04-22,2025-04-15,キングラン関西株式会社,,株式会社,大阪府,吹田市,南吹田５丁目１番１２号,,27,205,5640043,,,2025-04-15,合併による解散等,3010001014945,令和７年４月１日東京都千代田区神田須田町一丁目１０番地キングラン株式会社（3010001014945）に合併し解散,2015-10-05,1,,,,,,0
1473,6140001001928,登記記録の閉鎖等,0,2025-04-22,2025-04-17,竹内食品株式会社,,株式会社,兵庫県,尼崎市,扶桑町１番１９号センコー尼崎ＰＤセンター内,,28,202,6600891,,,2025-04-17,合併による解散等,2120001010348,令和７年４月１日大阪市生野区鶴橋四丁目１番３５号株式会社大物（2120001010348）に合併し解散,2015-10-05,1,,,,,タケウチショクヒン,0
1477,6140001127459,登記記録の閉鎖等,0,2025-04-22,2025-03-31,株式会社ビースリーメン＆ゴルフ,,株式会社,兵庫県,神戸市中央区,坂口通７丁目２番１７号,,28,110,6510062,,,2025-03-31,合併による解散等,8140001125072,令和７年３月３１日神戸市中央区坂口通七丁目２番１７号株式会社バリューＦＬＣプロモーション（8140001125072）に合併し解散,2022-09-28,1,,,,,ビースリーメンアンドゴルフ,0
1478,6140001129232,登記記録の閉鎖等,0,2025-04-22,2025-03-31,株式会社ビースリーフットケア＆メイク,,株式会社,兵庫県,神戸市中央区,坂口通７丁目２番１７号,,28,110,6510062,,,2025-03-31,合併による解散等,7140001125073,令和７年３月３１日神戸市中央区坂口通七丁目２番１７号株式会社バリューリアルエステート（7140001125073）に合併し解散,2023-02-27,1,,,,,ビースリーフットケアアンドメイク,0
1480,6140002003758,登記記録の閉鎖等,0,2025-04-22,2025-04-14,有限会社マスダ電気工業所,,有限会社,兵庫県,神戸市灘区,新在家南町２丁目４番９号,,28,102,6570864,,,2025-04-14,清算の結了等,,,2015-10-05,1,,,,,マスダテンキコウギョウショ,0
1498,6190002004784,登記記録の閉鎖等,0,2025-04-22,2025-04-10,有限会社東宏建材,,有限会社,三重県,亀山市,安坂山町２２３５番地の２,,24,210,5190223,,,2025-04-10,清算の結了等,,,2015-10-05,1,,,,,トウコウケンザイ,0
1499,6190002012721,登記記録の閉鎖等,0,2025-04-22,2025-04-07,有限会社愛寿,,有限会社,三重県,伊賀市,島ヶ原１１２９５番地の１３４,,24,216,5191711,,,2025-04-07,清算の結了等,,,2015-10-05,1,,,,,アイジュ,0
1500,6190002014008,登記記録の閉鎖等,0,2025-04-22,2025-04-10,西部商事有限会社,,有限会社,三重県,松阪市,東町５９３番地の１,,24,204,5150012,,,2025-04-10,清算の結了等,,,2015-10-05,1,,,,,セイブショウジ,0
1524,6290801021235,登記記録の閉鎖等,0,2025-04-22,2025-04-18,ＶＩＣＴＯＲＩＡ株式会社,,株式会社,東京都,豊島区,西池袋１丁目１１番１号,,13,116,1710021,,,2025-04-18,合併による解散等,3290001020577,令和７年３月３１日福岡市中央区高砂一丁目２番４号株式会社日本テレメッセージ（3290001020577）に合併し解散,2015-10-05,1,,,,,ヴィクトリア,0
1531,6310002001141,登記記録の閉鎖等,0,2025-04-22,2025-04-18,有限会社鹿島船舶,,有限会社,長崎県,長崎市,香焼町１０７０番地１９,,42,201,8510310,,,2025-04-18,清算の結了等,,,2015-10-05,1,,,,,カシマセンパク,0
1537,6330005007547,登記記録の閉鎖等,0,2025-04-22,2025-04-01,医療法人蘇春堂,,その他の設立登記法人,熊本県,人吉市,上青井町１７６番地,,43,203,8680005,,,2025-04-01,合併による解散等,1330005001100,令和７年４月１日熊本市北区室園町１２番１０号医療法人朝日野会（1330005001100）に合併し解散,2015-10-05,1,,,,,ソシュンドウ,0
1548,6390001000112,登記記録の閉鎖等,0,2025-04-22,2025-04-09,株式会社伊藤旅館,,株式会社,山形県,山形市,蔵王温泉２１番地,,06,201,9902301,,,2025-04-09,清算の結了等,,,2015-10-05,1,,,,,イトウリョカン,0
1551,6402702000198,登記記録の閉鎖等,0,2025-04-22,2025-04-02,有限会社サンクリエイト,,有限会社,岩手県,大船渡市,赤崎町字諏訪前３７番地４,,03,203,0220007,,,2025-04-02,合併による解散等,3402701000251,令和７年４月１日岩手県大船渡市赤崎町字諏訪前３７番地４株式会社理工電気（3402701000251）に合併し解散,2015-10-05,1,,,,,サンクリエイト,0
1555,6420002019040,登記記録の閉鎖等,0,2025-04-22,2025-04-18,有限会社吉義運輸,,有限会社,青森県,上北郡六戸町,大字犬落瀬字内山１０５番地５２９,,02,405,0330071,,,2025-04-18,清算の結了等,,,2015-10-05,1,,,,,ヨシギウンユ,0
1556,6430001016228,登記記録の閉鎖等,0,2025-04-22,2025-04-10,株式会社松前屋,,株式会社,北海道,札幌市東区,北二十一条東１丁目４番２４号,,01,103,0650021,,,2025-04-10,清算の結了等,,,2015-10-05,1,,,,,,0
1559,6430001061307,登記記録の閉鎖等,0,2025-04-22,2025-04-11,株式会社サガ・ロッソ,,株式会社,北海道,札幌市清田区,美しが丘三条６丁目１番４－８０３号,,01,110,0040813,,,2025-04-11,清算の結了等,,,2015-10-05,1,,,,,サガロッソ,0
1571,6450001002589,登記記録の閉鎖等,0,2025-04-22,2025-04-21,株式会社藤井調理部,,株式会社,北海道,旭川市,東旭川北一条１丁目３番３５号,,01,204,0788251,,,2025-04-21,清算の結了等,,,2015-10-05,1,,,,,フジイチョウリブ,0
1585,7010005026033,登記記録の閉鎖等,0,2025-04-22,2025-04-14,弁護士法人エンデバー法律事務所,,その他の設立登記法人,東京都,千代田区,平河町２丁目１１番２号,,13,101,1020093,,,2025-04-14,清算の結了等,,,2016-11-21,1,,,,,エンデバーホウリツジムショ,0
1590,7010401073570,登記記録の閉鎖等,0,2025-04-22,2025-04-01,国際炭酸株式会社,,株式会社,東京都,港区,芝４丁目１番２３号,,13,103,1080014,,,2025-04-01,合併による解散等,7010401072267,令和７年４月１日東京都港区芝四丁目１番２３号日本液炭株式会社（7010401072267）に合併し解散,2015-10-05,1,,,,,コクサイタンサン,0
1602,7010602033357,登記記録の閉鎖等,0,2025-04-22,2025-04-02,有限会社エスティーネットワーク,,有限会社,東京都,墨田区,緑４丁目２９番５号錦糸町若林ビル３０２号,,13,107,1300021,,,2025-04-02,清算の結了等,,,2015-10-05,1,,,,,エスティーネットワーク,0
1624,7011005007493,登記記録の閉鎖等,0,2025-04-22,2025-04-09,一般社団法人４４２,,その他の設立登記法人,東京都,小金井市,東町２丁目１番１４号,,13,210,1840011,,,2025-04-09,清算の結了等,,,2018-01-11,1,,,,,ヨンヨンニ,0
1634,7011301027600,登記記録の閉鎖等,0,2025-04-22,2025-04-17,株式会社ＹＵＩ,,株式会社,東京都,千代田区,内神田１丁目８番９号福田ビル２階,,13,101,1010047,,,2025-04-17,合併による解散等,7010401100770,令和７年３月１６日東京都品川区大崎一丁目２番２号フリー株式会社（7010401100770）に合併し解散,2022-03-03,1,,,,,ユイ,0
1635,7011301028912,登記記録の閉鎖等,0,2025-04-22,2025-04-08,リゾルトメディア株式会社,,株式会社,東京都,杉並区,天沼３丁目３番２－７０２号,,13,115,1670032,,,2025-04-08,清算の結了等,,,2023-08-15,1,,,,,リゾルトメディア,0
1641,7011502000678,登記記録の閉鎖等,0,2025-04-22,2025-04-07,有限会社入船寿司,,有限会社,東京都,北区,浮間２丁目１２番１号,,13,117,1150051,,,2025-04-07,清算の結了等,,,2015-10-05,1,,,,,イリフネスシ,0
1653,7012802003858,登記記録の閉鎖等,0,2025-04-22,2025-04-07,有限会社村田内装,,有限会社,東京都,昭島市,郷地町２丁目２９番２３号,,13,207,1960032,,,2025-04-07,清算の結了等,,,2015-10-05,1,,,,,ムラタナイソウ,0
1657,7013301038189,登記記録の閉鎖等,0,2025-04-22,2025-04-17,日本依元素株式会社,,株式会社,東京都,足立区,中央本町３丁目１７－１２－１０１２,,13,121,1210011,,,2025-04-17,清算の結了等,,,2016-01-25,1,,,,,ニホンイゲンソ,0
1676,7030001024138,登記記録の閉鎖等,0,2025-04-22,2025-04-01,株式会社ＭＳフレッシュデリカ,,株式会社,埼玉県,入間市,宮寺４２４６番地,,11,225,3580014,,,2025-04-01,合併による解散等,6030001009189,令和７年４月１日埼玉県さいたま市見沼区卸町二丁目６番地２０株式会社フレッシュキッチン（6030001009189）に合併し解散,2015-10-05,1,,,,,エムエスフレッシュデリカ,0
1682,7030002048292,登記記録の閉鎖等,0,2025-04-22,2025-04-16,有限会社石井電気工事店,,有限会社,埼玉県,三郷市,市助１２９番地の３,,11,237,3410033,,,2025-04-16,清算の結了等,,,2015-10-05,1,,,,,イシイデンキコウジテン,0
1685,7030002087365,登記記録の閉鎖等,0,2025-04-22,2025-04-15,有限会社中山建具,,有限会社,埼玉県,越谷市,七左町６丁目２７番地６,,11,222,3430851,,,2025-04-15,清算の結了等,,,2015-10-05,1,,,,,ナカヤマタテグ,0
1702,7050002003535,登記記録の閉鎖等,0,2025-04-22,2025-04-11,有限会社綿引進工務店,,有限会社,茨城県,水戸市,元吉田町１０２２番地３,,08,201,3100836,,,2025-04-11,清算の結了等,,,2015-10-05,1,,,,,ワタヒキススムコウムテン,0
1704,7050002023368,登記記録の閉鎖等,0,2025-04-22,2025-04-09,株式会社日本スクールサポート協会,,株式会社,茨城県,筑西市,丙２０９番地１３エスタ２１、３Ｆ,,08,227,3080031,,,2025-04-09,清算の結了等,,,2015-10-05,1,,,,,ニホンスクールサポートキョウカイ,0
1719,7110001027124,登記記録の閉鎖等,0,2025-04-22,2025-04-10,株式会社グリーン渡辺,,株式会社,新潟県,魚沼市,吉田１１２４番地３,,15,225,9460075,,,2025-04-10,清算の結了等,,,2015-10-05,1,,,,,グリーンワタナベ,0
1720,7110001037800,登記記録の閉鎖等,0,2025-04-22,2025-04-10,株式会社Ｎａｔｕｌｉｆｅ,,株式会社,新潟県,妙高市,高柳２丁目９番１０号,,15,217,9440013,,,2025-04-10,清算の結了等,,,2023-08-28,1,,,,,ナチュライフ,0
1734,7120003015951,登記記録の閉鎖等,0,2025-04-22,2025-04-18,合同会社Ｅｉｇｈｔ　ｂａｒｓ,,合同会社,神奈川県,愛甲郡愛川町,中津３５０５,,14,401,2430303,,,2025-04-18,清算の結了等,,,2019-07-09,1,,,,,エイトバース,0
1742,7120105009620,登記記録の閉鎖等,0,2025-04-22,2025-04-16,一般社団法人シニアライフサポート協会大阪泉州,,その他の設立登記法人,大阪府,泉南市,信達市場１８９７番地,,27,228,5900504,,,2025-04-16,清算の結了等,,,2022-08-31,1,,,,,シニアライフサポートキョウカイオオサカセンシュウ,0
1745,7130001051312,登記記録の閉鎖等,0,2025-04-22,2025-04-10,株式会社ファイントレンド,,株式会社,京都府,京都市上京区,中立売通裏門東入多門町４３４,,26,102,6028261,,,2025-04-10,清算の結了等,,,2015-10-05,1,,,,,ファイントレンド,0
1757,7140005002260,登記記録の閉鎖等,0,2025-04-22,2025-04-01,学校法人立江寺学園,,その他の設立登記法人,兵庫県,神戸市兵庫区,菊水町１０丁目３９番地の２５,,28,105,6520058,,,2025-04-01,合併による解散等,7140005013456,令和７年４月１日兵庫県姫路市豊沢町８３番地学校法人摺河学園（7140005013456）に合併し解散,2015-10-05,1,,,,,タチエジガクエン,0
1761,7160003002566,登記記録の閉鎖等,0,2025-04-22,2025-04-17,ハーモニー合同会社,,合同会社,滋賀県,大津市,日吉台３丁目６番７号,,25,201,5200112,,,2025-04-17,清算の結了等,,,2022-05-13,1,,,,,ハーモニー,0
1776,7180002057337,登記記録の閉鎖等,0,2025-04-22,2025-04-09,株式会社ＤＦＩ,,株式会社,東京都,江東区,大島２丁目２３番１３号,,13,108,1360072,,,2025-04-09,清算の結了等,,,2015-10-05,1,,,,,ディーエフアイ,0
1777,7180002060786,登記記録の閉鎖等,0,2025-04-22,2025-04-09,有限会社みすず・スタッフ,,有限会社,愛知県,名古屋市西区,中小田井４丁目１４１番地,,23,104,4520822,,,2025-04-09,清算の結了等,,,2015-10-05,1,,,,,ミスズスタッフ,0
1795,7220005007771,登記記録の閉鎖等,0,2025-04-22,2025-04-01,社会福祉法人さくら福祉会,,その他の設立登記法人,石川県,金沢市,材木町２１番２１号,,17,201,9200921,,,2025-04-01,合併による解散等,6220005002435,令和７年４月１日石川県金沢市利屋町は６４番地１社会福祉法人久楽会（6220005002435）に合併し解散,2015-10-05,1,,,,,サクラフクシカイ,0
1804,7250005005302,登記記録の閉鎖等,0,2025-04-22,2025-03-31,蓮華寺,,その他の設立登記法人,山口県,周南市,大字須万２５６０番地,,35,215,7450401,,,2025-03-31,合併による解散等,9250005005548,令和７年３月３１日山口県周南市中央町３番１０号勝榮寺（9250005005548）に合併し解散,2015-10-05,1,,,,,レンゲジ,0
1805,7250005007158,登記記録の閉鎖等,0,2025-04-22,2025-04-11,薬師寺,,その他の設立登記法人,山口県,大島郡周防大島町,大字東安下庄２６９２番地,,35,305,7422805,,,2025-04-11,清算の結了等,,,2015-10-05,1,,,,,ヤクシジ,0
1810,7290001090170,登記記録の閉鎖等,0,2025-04-22,2025-04-08,株式会社Ｆｒｅｅ,,株式会社,福岡県,福岡市中央区,天神５丁目６番１４号リビング天神２Ｆ,,40,133,8100001,,,2025-04-08,清算の結了等,,,2020-09-16,1,,,,,フリー,0
1831,7360001002151,登記記録の閉鎖等,0,2025-04-22,2025-04-01,株式会社米正建設,,株式会社,沖縄県,那覇市,曙１丁目１３番９号,,47,201,9000002,,,2025-04-01,合併による解散等,1360001030224,令和７年４月１日沖縄県浦添市牧港四丁目１４番１７号福山建設株式会社（1360001030224）に合併し解散,2015-10-05,1,,,,,ヨネマサケンセツ,0
1834,7380001014797,登記記録の閉鎖等,0,2025-04-22,2025-04-07,株式会社木皿商運,,株式会社,福島県,いわき市,鹿島町下蔵持字里屋１６番地の３,,07,204,9718143,,,2025-04-07,清算の結了等,,,2015-10-05,1,,,,,,0
1842,7430001063558,登記記録の閉鎖等,0,2025-04-22,2025-04-11,株式会社石川製作所,,株式会社,北海道,札幌市西区,発寒十七条１４丁目３番１号,,01,107,0630837,,,2025-04-11,清算の結了等,,,2015-10-05,1,,,,,イシカワセイサクショ,0
1849,7430002065487,登記記録の閉鎖等,0,2025-04-22,2025-04-09,有限会社トーク,,有限会社,北海道,登別市,新生町２丁目９番地１０,,01,230,0590032,,,2025-04-09,清算の結了等,,,2015-10-05,1,,,,,トーク,0
1852,7450001008874,登記記録の閉鎖等,0,2025-04-22,2025-04-21,株式会社亀谷組,,株式会社,北海道,留萌市,潮静３丁目１２番地,,01,212,0770013,,,2025-04-21,清算の結了等,,,2015-10-05,1,,,,,カメヤグミ,0
1859,7700150107880,登記記録の閉鎖等,0,2025-04-22,2024-12-31,妖精大図鑑,,その他,東京都,目黒区,平町２丁目２１－４ドルフ都立大９０３号室,,13,110,1520032,,,2024-12-31,その他の清算の結了等,,,2022-04-12,1,,,,,ヨウセイダイズカン,0
1885,8010401174640,登記記録の閉鎖等,0,2025-04-22,2025-04-17,Ａｕｒｏｒａｅ　Ｊａｐａｎ株式会社,,株式会社,東京都,港区,元麻布３丁目１番６号,,13,103,1060046,,,2025-04-17,合併による解散等,3160001004106,令和７年４月１日東京都渋谷区東三丁目１７番１５号ＥＶＩＳＵ　ＪＡＰＡＮ株式会社（3160001004106）に合併し解散,2023-05-30,1,,,,,オーロリージャパン,0
1923,8011801031043,登記記録の閉鎖等,0,2025-04-22,2025-04-17,トープラ販売株式会社,,株式会社,東京都,足立区,入谷９丁目６番１４号,,13,121,1210836,,,2025-04-17,清算の結了等,,,2015-11-16,1,,,,,トープラハンバイ,0
1926,8011802029466,登記記録の閉鎖等,0,2025-04-22,2025-04-18,有限会社オクヤマビソー,,有限会社,東京都,足立区,神明２丁目１０番２６号,,13,121,1210051,,,2025-04-18,清算の結了等,,,2015-10-05,1,,,,,オクヤマビソー,0
1950,8020005015546,登記記録の閉鎖等,0,2025-04-22,2025-04-07,一般社団法人Ｋａｌｉｈｉ‐Ｐａｌａｍａ　Ｃｕｌｔｕｒｅ＆Ａｒｔｓ　Ｓｏｃｉｅｔｙ‐Ｊａｐａｎ,,その他の設立登記法人,神奈川県,横浜市神奈川区,栄町１０番地３５ザ・ヨコハマタワーズＥ３２０８号,,14,102,2210052,,,2025-04-07,清算の結了等,,,2022-05-27,1,,,,,カリヒパラマカルチャーアンドアーツソサイエティジャパン,0
1954,8021005002393,登記記録の閉鎖等,0,2025-04-22,2025-04-11,学校法人成章学園,,その他の設立登記法人,神奈川県,相模原市中央区,中央５丁目８番１号,,14,152,2520239,,,2025-04-11,清算の結了等,,,2015-10-05,1,,,,,セイショウガクエン,0
1968,8030002077027,登記記録の閉鎖等,0,2025-04-22,2025-04-15,有限会社小賀坂製作所,,有限会社,埼玉県,入間郡三芳町,大字藤久保４６４番地７,,11,324,3540041,,,2025-04-15,清算の結了等,,,2015-10-05,1,,,,,コガサカセイサクショ,0
1979,8040003006330,登記記録の閉鎖等,0,2025-04-22,2025-04-04,合同会社ＢＥＹＯＮＤ,,合同会社,千葉県,八千代市,勝田台１丁目３８番地２０鈴与ビル１Ｆ,,12,221,2760023,,,2025-04-04,清算の結了等,,,2015-10-05,1,,,,,ビヨンド,0
1983,8050002000358,登記記録の閉鎖等,0,2025-04-22,2025-04-10,有限会社イーコム,,有限会社,茨城県,水戸市,酒門町字西割４２２５番地１０,,08,201,3100841,,,2025-04-10,清算の結了等,,,2015-10-05,1,,,,,イーコム,0
1984,8050002037895,登記記録の閉鎖等,0,2025-04-22,2025-04-10,有限会社藤林商店,,有限会社,茨城県,牛久市,南１丁目３番地２２,,08,219,3001222,,,2025-04-10,清算の結了等,,,2015-10-05,1,,,,,フジバヤシショウテン,0
2007,8120001105043,登記記録の閉鎖等,0,2025-04-22,2025-04-16,株式会社Ｍ２ブレイン,,株式会社,大阪府,大阪市淀川区,西中島１丁目１１番１６号新大阪ＣＳＰビル５１２号,,27,123,5320011,,,2025-04-16,清算の結了等,,,2015-10-05,1,,,,,エムツーブレイン,0
2025,8130001011430,登記記録の閉鎖等,0,2025-04-22,2025-04-14,日東土木株式会社,,株式会社,京都府,京都市西京区,御陵大枝山町２丁目２番地４,,26,111,6101102,,,2025-04-14,清算の結了等,,,2015-10-05,1,,,,,ニットウドボク,0
2034,8140001129230,登記記録の閉鎖等,0,2025-04-22,2025-03-31,株式会社ビースリーフィットネス＆スキンズ,,株式会社,兵庫県,神戸市中央区,坂口通７丁目２番１７号,,28,110,6510062,,,2025-03-31,合併による解散等,7140001125073,令和７年３月３１日神戸市中央区坂口通七丁目２番１７号株式会社バリューリアルエステート（7140001125073）に合併し解散,2023-02-27,1,,,,,ビースリーフィットネスアンドスキンズ,0
2043,8180001121472,登記記録の閉鎖等,0,2025-04-22,2025-04-08,株式会社リムサポート,,株式会社,愛知県,岡崎市,六名東町８番地１７,,23,202,4440847,,,2025-04-08,清算の結了等,,,2015-12-24,1,,,,,リムサポート,0
2051,8180002011359,登記記録の閉鎖等,0,2025-04-22,2025-04-11,有限会社小菅家具,00072861,有限会社,愛知県,名古屋市北区,柳原２丁目１２番１５号,,23,103,4620845,,,2025-04-11,清算の結了等,,,2015-10-05,1,,,,,コスガカグ,0
2075,8240005001499,登記記録の閉鎖等,0,2025-04-22,2025-04-07,学校法人安佐学園,,その他の設立登記法人,広島県,広島市安佐北区,あさひが丘３丁目２３番１８号,,34,106,7313361,,,2025-04-07,合併による解散等,8240005001549,令和７年４月７日広島市安佐北区亀山南四丁目１１番２０号学校法人虹山学園（8240005001549）に合併し解散,2015-10-05,1,,,,,アサガクエン,0
2097,8320002016343,登記記録の閉鎖等,0,2025-04-22,2025-04-14,有限会社今村酒舗,,有限会社,大分県,佐伯市,城下東町１番３号,,44,205,8760848,,,2025-04-14,清算の結了等,,,2015-10-05,1,,,,,,0
2103,8360001000591,登記記録の閉鎖等,0,2025-04-22,2025-04-01,株式会社沖設備,,株式会社,沖縄県,那覇市,壺川２丁目１１番地１１,,47,201,9000025,,,2025-04-01,合併による解散等,6360001000602,令和７年４月１日沖縄県那覇市壺川二丁目１１番地１１株式会社沖電工（6360001000602）に合併し解散,2015-10-05,1,,,,,オキセツビ,0
2122,8410001013167,登記記録の閉鎖等,0,2025-04-22,2025-04-09,株式会社Ｇｒａｔｓ,,株式会社,秋田県,秋田市,中通５丁目１番５１号北都ビルディング,,05,201,0100001,,,2025-04-09,清算の結了等,,,2022-04-20,1,,,,,,0
2155,9010401025231,登記記録の閉鎖等,0,2025-04-22,2025-04-01,株式会社インプレッションフローラ,,株式会社,東京都,港区,西新橋１丁目１７番６号高嶋ビル３階,,13,103,1050003,,,2025-04-01,合併による解散等,8010401041642,令和７年４月１日東京都港区南麻布一丁目６番３０号株式会社イーフローラ（8010401041642）に合併し解散,2015-10-05,1,,,,,インプレッションフローラ,0
2170,9010501020124,登記記録の閉鎖等,0,2025-04-22,2025-04-01,ダイレクト・コミュニケーション株式会社,,株式会社,東京都,台東区,上野３丁目２番２号,,13,106,1100005,,,2025-04-01,合併による解散等,8010501019464,令和７年４月１日東京都台東区上野三丁目２番２号ダイレクト・コンサルティング株式会社（8010501019464）に合併し解散,2015-10-05,1,,,,,ダイレクトコミュニケーション,0
2171,9010505001005,登記記録の閉鎖等,0,2025-04-22,2025-04-01,株式会社ＪＡ新聞連,,株式会社,東京都,台東区,秋葉原２番３号,,13,106,1100006,,,2025-04-01,合併による解散等,1010501026847,令和７年４月１日東京都台東区秋葉原２番３号株式会社日本農業新聞（1010501026847）に合併し解散,2015-10-05,1,,,,,ジェイエイシンブンレン,0
2176,9010603010997,登記記録の閉鎖等,0,2025-04-22,2025-04-08,合同会社プラスイーアール,,合同会社,東京都,江東区,東陽４丁目７番３５号－４０１,,13,108,1350016,,,2025-04-08,清算の結了等,,,2024-08-01,1,,,,,プラスイーアール,0
2177,9010701022787,登記記録の閉鎖等,0,2025-04-22,2025-04-01,株式会社バンダイナムコオンライン,,株式会社,東京都,港区,芝５丁目３７番８号,,13,103,1080014,,,2025-04-01,合併による解散等,7010701019273,令和７年４月１日東京都港区芝五丁目３７番８号株式会社バンダイナムコエンターテインメント（7010701019273）に合併し解散,2015-10-05,1,,,,,バンダイナムコオンライン,0
2180,9010901003348,登記記録の閉鎖等,0,2025-04-22,2025-04-18,株式会社櫛田商店,00052623,株式会社,東京都,世田谷区,粕谷３丁目２８番８号,,13,112,1570063,,,2025-04-18,清算の結了等,,,2015-10-05,1,,,,,クシダショウテン,0
2184,9011001006134,登記記録の閉鎖等,0,2025-04-22,2025-04-02,株式会社キノキリ,,株式会社,東京都,新宿区,中落合２丁目５番３１－４０７号,,13,104,1610032,,,2025-04-02,清算の結了等,,,2015-10-05,1,,,,,キノキリ,0
2187,9011001041841,登記記録の閉鎖等,0,2025-04-22,2025-03-27,雷神株式会社,,株式会社,東京都,渋谷区,渋谷３丁目１５番６号,,13,113,1500002,,,2025-03-27,清算の結了等,,,2015-10-05,1,,,,,ライジン,0
2188,9011001043549,登記記録の閉鎖等,0,2025-04-22,2025-04-02,株式会社インフォシード,,株式会社,東京都,新宿区,西新宿３丁目３番１３号,,13,104,1600023,,,2025-04-02,清算の結了等,,,2015-10-05,1,,,,,インフォシード,0
2204,9011201001918,登記記録の閉鎖等,0,2025-04-22,2025-04-18,株式会社済起堂薬局,,株式会社,東京都,中野区,沼袋２丁目３２番８号,,13,114,1650025,,,2025-04-18,清算の結了等,,,2015-10-05,1,,,,,サイキドウヤッキョク,0
2210,9011402002211,登記記録の閉鎖等,0,2025-04-22,2025-04-16,有限会社和建築設計事務所,,有限会社,東京都,板橋区,泉町６番２号コーポサンプライズ３０２号,,13,119,1740055,,,2025-04-16,清算の結了等,,,2015-10-05,1,,,,,ワケンチクセッケイジムショ,0
2218,9011801044069,登記記録の閉鎖等,0,2025-04-22,2025-04-17,株式会社小林電業社,,株式会社,東京都,葛飾区,堀切７丁目１０番５号,,13,122,1240006,,,2025-04-17,清算の結了等,,,2024-04-17,1,,,,,コバヤシデンギョウシャ,0
2225,9013301036182,登記記録の閉鎖等,0,2025-04-22,2025-04-08,株式会社アース・ビジョン,,株式会社,東京都,豊島区,東池袋１丁目２８番１号,,13,116,1700013,,,2025-04-08,清算の結了等,,,2015-10-05,1,,,,,アースビジョン,0
2226,9013301040333,登記記録の閉鎖等,0,2025-04-22,2025-03-27,株式会社イグネイション,,株式会社,東京都,港区,芝３丁目５番２号,,13,103,1050014,,,2025-03-27,清算の結了等,,,2017-04-07,1,,,,,イグネイション,0
2233,9020003010639,登記記録の閉鎖等,0,2025-04-22,2025-04-18,シムダイニング合同会社,,合同会社,神奈川県,鎌倉市,小町２丁目１０番１８号,,14,204,2480006,,,2025-04-18,清算の結了等,,,2015-11-19,1,,,,,シムダイニング,0
2235,9020005001669,登記記録の閉鎖等,0,2025-04-22,2025-04-08,医療法人社団山崎胃腸科内科クリニック,,その他の設立登記法人,神奈川県,横浜市港南区,港南台９丁目２９番２号,,14,111,2340054,,,2025-04-08,清算の結了等,,,2015-10-05,1,,,,,ヤマザキイチョウカナイカクリニック,0
2243,9021003015454,登記記録の閉鎖等,0,2025-04-22,2025-04-10,合同会社あかりんご助産院,,合同会社,神奈川県,相模原市南区,上鶴間本町４丁目１４番１８号,,14,153,2520318,,,2025-04-10,清算の結了等,,,2025-01-15,1,,,,,アカリンゴジョサンイン,0
2254,9030005015494,登記記録の閉鎖等,0,2025-04-22,2025-04-14,公益財団法人川口産業振興公社,,その他の設立登記法人,埼玉県,川口市,上青木３丁目１２番１８号埼玉県産業技術総合センター内,,11,203,3330844,,,2025-04-14,合併による解散等,9030005015536,令和７年４月１日埼玉県川口市上青木三丁目１２番１８号埼玉県産業技術総合センター内公益財団法人川口市勤労福祉サービスセンター（9030005015536）に合併し解散,2015-10-05,1,,,,,カワグチサンギョウシンコウコウシャ,0
2257,9040001076003,登記記録の閉鎖等,0,2025-04-22,2025-04-02,株式会社コンプリート,,株式会社,千葉県,船橋市,新高根４丁目１５番１０号,,12,204,2740814,,,2025-04-02,清算の結了等,,,2015-10-05,1,,,,,コンプリート,0
2266,9070001019009,登記記録の閉鎖等,0,2025-04-22,2025-04-16,株式会社金原鉄工所,,株式会社,群馬県,邑楽郡大泉町,大字吉田１６８０番地の１,,10,524,3700523,,,2025-04-16,清算の結了等,,,2015-10-05,1,,,,,カネハラテッコウショ,0
2267,9070001042571,登記記録の閉鎖等,0,2025-04-22,2025-04-03,ＭｅｄｉｃｏＳｐａｃｅ　Ｌａｂ．株式会社,,株式会社,群馬県,伊勢崎市,羽黒町１５－１,,10,204,3720844,,,2025-04-03,清算の結了等,,,2025-01-22,1,,,,,メディコスペースラボ,0
2268,9070002020601,登記記録の閉鎖等,0,2025-04-22,2025-04-16,有限会社あさみ通商,,有限会社,群馬県,佐波郡玉村町,大字樋越２２６番地４,00122830,10,464,3701103,,,2025-04-16,清算の結了等,,,2015-10-05,1,,,,,アサミツウショウ,0
2275,9080401021406,登記記録の閉鎖等,0,2025-04-22,2025-04-14,株式会社イースト,,株式会社,静岡県,浜松市浜名区,内野台３丁目１１番１７号,,22,139,4340045,,,2025-04-14,清算の結了等,,,2016-04-07,1,,,,,イースト,0
2278,9090002010518,登記記録の閉鎖等,0,2025-04-22,2025-04-10,有限会社美頭林業,,有限会社,山梨県,上野原市,鶴島４２３１番地,,19,212,4090114,,,2025-04-10,清算の結了等,,,2015-10-05,1,,,,,ミトウリンギョウ,0
2306,9120101027401,登記記録の閉鎖等,0,2025-04-22,2025-04-11,株式会社ｓｋｉｐ,,株式会社,大阪府,松原市,松ケ丘２丁目２０番２７号,,27,217,5800042,,,2025-04-11,清算の結了等,,,2015-10-05,1,,,,,スキップ,0
2313,9130001048959,登記記録の閉鎖等,0,2025-04-22,2025-04-11,株式会社スマートピーアール,,株式会社,京都府,京都市下京区,岩上通木津屋橋下る松本町１２２番地,,26,106,6008256,,,2025-04-11,清算の結了等,,,2015-10-05,1,,,,,スマートピーアール,0
2314,9130001072166,登記記録の閉鎖等,0,2025-04-22,2025-04-14,株式会社ＡＺＵ,,株式会社,京都府,京都市伏見区,羽束師菱川町５８９番地７,,26,109,6128487,,,2025-04-14,清算の結了等,,,2022-07-12,1,,,,,アズ,0
2334,9170001007275,登記記録の閉鎖等,0,2025-04-22,2025-04-17,株式会社辻本組,00045282,株式会社,和歌山県,有田郡有田川町,大字粟生２４５番地の２,,30,366,6430366,,,2025-04-17,清算の結了等,,,2015-10-05,1,,,,,ツジモトグミ,0
2357,9180305003630,登記記録の閉鎖等,0,2025-04-22,2025-03-24,天理教本宮山分教会,,その他の設立登記法人,愛知県,豊川市,足山田町滝場７番地２,,23,207,4411203,,,2025-03-24,合併による解散等,8180305003631,令和７年３月２４日愛知県豊川市長草町案五郎５番地１天理教前濱分教会（8180305003631）に合併し解散,2015-10-05,1,,,,,テンリキョウホングウザンブンキョウカイ,0
2376,9260001039540,登記記録の閉鎖等,0,2025-04-22,2025-04-04,ＫＳＪ８株式会社,,株式会社,岡山県,岡山市北区,錦町１番１号岡山駅前ビル４階,,33,101,7000902,,,2025-04-04,合併による解散等,8120101025851,令和７年３月３１日大阪府松原市天美北四丁目３番１０号山野鋼材株式会社（8120101025851）に合併し解散,2024-10-17,1,,,,,,0
2381,9290001090169,登記記録の閉鎖等,0,2025-04-22,2025-04-08,株式会社Ｂｅｓｔ,,株式会社,福岡県,福岡市中央区,天神５丁目６番１４号リビング天神１Ｆ,,40,133,8100001,,,2025-04-08,清算の結了等,,,2020-09-16,1,,,,,ベスト,0
2392,9320001006385,登記記録の閉鎖等,0,2025-04-22,2025-04-11,ダイヤ商事株式会社,,株式会社,大分県,別府市,大字鶴見１９１５番地の１,,44,202,8740840,,,2025-04-11,清算の結了等,,,2015-10-05,1,,,,,,0
2407,9400001003928,登記記録の閉鎖等,0,2025-04-22,2025-04-11,ＭＵマネジメント株式会社,,株式会社,愛知県,名古屋市東区,葵２丁目１２番８号,,23,102,4610004,,,2025-04-11,合併による解散等,4180001018441,令和７年４月１日名古屋市東区葵二丁目１２番８号名鉄ＮＸ運輸株式会社（4180001018441）に合併し解散,2015-10-05,1,,,,,エムユーマネジメント,0
2419,9430005013755,登記記録の閉鎖等,0,2025-04-22,2025-04-11,医療法人松家内科小児科医院,,その他の設立登記法人,北海道,札幌市中央区,南十七条西６丁目４番１３号,,01,101,0640917,,,2025-04-11,清算の結了等,,,2019-09-10,1,,,,,マツカナイカショウニカイイン,0
2421,9480002015023,登記記録の閉鎖等,0,2025-04-22,2025-04-04,有限会社平成建設,,有限会社,徳島県,美馬郡つるぎ町,一宇字桑平２５２７番地,,36,468,7794306,,,2025-04-04,清算の結了等,,,2015-10-05,1,,,,,ヘイセイケンセツ,0
2422,9480005003859,登記記録の閉鎖等,0,2025-04-22,2025-04-11,麻植郡農協輸送協同組合,,その他の設立登記法人,徳島県,板野郡板野町,西中富字西中須４２番１,,36,404,7790119,,,2025-04-11,清算の結了等,,,2015-10-05,1,,,,,オエグンノウキョウユソウ,0
2426,9500002010450,登記記録の閉鎖等,0,2025-04-22,2025-04-01,有限会社エヒメ立花興業,,有限会社,愛媛県,松山市,立花４丁目１番３９号,,38,201,7900966,,,2025-04-01,合併による解散等,8500002010451,令和７年４月１日愛媛県松山市小栗五丁目４番１０号株式会社城西興業（8500002010451）に合併し解散,2015-10-05,1,,,,,エヒメタチバナコウギョウ,0
