sequenceNumber,corporateNumber,process,correct,updateDate,changeDate,name,nameImageId,kind,prefectureName,cityName,streetNumber,addressImageId,prefectureCode,cityCode,postCode,addressOutside,addressOutsideImageId,closeDate,closeCause,successorCorporateNumber,changeCause,assignmentDate,latest,enName,enPrefectureName,enCityName,enAddressOutside,furigana,hihyoji
9,1010001249089,新規,0,2024-10-22,2024-10-22,ＬＵＭＩＬＥＡＰ株式会社,,株式会社,東京都,文京区,湯島２丁目１番１８－１００８号,,13,105,1130034,,,,,,,2024-10-22,1,,,,,ルミリープ,0
10,1010001249130,新規,0,2024-10-22,2024-10-22,ラッフルズインベストメント株式会社,,株式会社,東京都,千代田区,内神田１丁目１１番１１号,,13,101,1010047,,,,,,,2024-10-22,1,,,,,ラッフルズインベストメント,0
11,1010001249221,新規,0,2024-10-22,2024-10-22,ＧｌｏｗＥｄｇｅ株式会社,,株式会社,東京都,中央区,銀座１丁目１２番４号Ｎ＆ＥＢＬＤ．６Ｆ,,13,102,1040061,,,,,,,2024-10-22,1,,,,,グロウエッジ,0
15,1010003045222,新規,0,2024-10-22,2024-10-22,メロー合同会社,,合同会社,東京都,中央区,銀座１丁目１２番４号Ｎ＆Ｅ・ＢＬＤ．７階,,13,102,1040061,,,,,,,2024-10-22,1,,,,,メロー,0
16,1010003045263,新規,0,2024-10-22,2024-10-22,アイオンエックス合同会社,,合同会社,東京都,千代田区,神田須田町１丁目７番８号ＶＯＲＴ秋葉原ＩＶ２Ｆ,00136709,13,101,1010041,,,,,,,2024-10-22,1,,,,,アイオンエックス,0
18,1010103002437,新規,0,2024-10-22,2024-10-22,ＰＲＯＧＲＥＳＳＩＶＥ　ＰＡＲＴＮＥＲＳ合同会社,,合同会社,東京都,八王子市,田町１番１０号,,13,201,1920064,,,,,,,2024-10-22,1,,,,,プログレッシブパートナーズ,0
25,1010401185660,新規,0,2024-10-22,2024-10-22,株式会社ＢＴＬ,,株式会社,東京都,港区,白金台５丁目１５番５号,,13,103,1080071,,,,,,,2024-10-22,1,,,,,ビーティーエル,0
26,1010401185875,新規,0,2024-10-22,2024-10-22,ＴＧＰ　ＪＡＰＡＮ株式会社,,株式会社,東京都,港区,赤坂１丁目１１番４４号赤坂インターシティ５階Ｆｏｒｖｉｓ・Ｍａｚａｒｓ・Ｊａｐａｎ株式会社内,,13,103,1070052,,,,,,,2024-10-22,1,,,,,ティージーピージャパン,0
37,1010701046703,新規,0,2024-10-22,2024-10-22,株式会社ｉｄｅａ,,株式会社,東京都,品川区,東五反田２丁目９－７ピロティ五反田８０３,,13,109,1410022,,,,,,,2024-10-22,1,,,,,イデア,0
38,1010701046711,新規,0,2024-10-22,2024-10-22,株式会社ししまるカンパニー,,株式会社,東京都,品川区,西五反田１丁目２６番２号五反田サンハイツ９１１,,13,109,1410031,,,,,,,2024-10-22,1,,,,,シシマルカンパニー,0
41,1010803005136,新規,0,2024-10-22,2024-10-22,旅彩合同会社,,合同会社,東京都,大田区,大森南２丁目２４番２－６０８,,13,111,1430013,,,,,,,2024-10-22,1,,,,,タビイロ,0
54,1011001165276,新規,0,2024-10-22,2024-10-22,旭橋貿易株式会社,,株式会社,東京都,渋谷区,渋谷２丁目１９－１５宮益坂ビルディング６０９,,13,113,1500002,,,,,,,2024-10-22,1,,,,,アサヒバシボウエキ,0
55,1011001165326,新規,0,2024-10-22,2024-10-22,Ｔｒａｎｓｆｏｒｍ　Ｎａｖｉ株式会社,,株式会社,東京都,渋谷区,渋谷２丁目１９‐１５宮益坂ビルディング６０９,,13,113,1500002,,,,,,,2024-10-22,1,,,,,トランスフォームナビ,0
56,1011001165466,新規,0,2024-10-22,2024-10-22,株式会社ヒロオキャピタル,,株式会社,東京都,渋谷区,南平台町５番３－７１２号ザ・パークハウス渋谷南平台,,13,113,1500036,,,,,,,2024-10-22,1,,,,,ヒロオキャピタル,0
61,1011101109208,新規,0,2024-10-22,2024-10-22,株式会社セーフティライフ,,株式会社,東京都,新宿区,大久保２丁目５番１９号,,13,104,1690072,,,,,,,2024-10-22,1,,,,,セーフティライフ,0
62,1011101109224,新規,0,2024-10-22,2024-10-22,株式会社ＣＯＭＦＩＮ,,株式会社,東京都,新宿区,百人町１丁目２０－１９盟和ハイツ３０１,,13,104,1690073,,,,,,,2024-10-22,1,,,,,コムフィン,0
64,1011103015081,新規,0,2024-10-22,2024-10-22,合同会社ボトム,,合同会社,東京都,新宿区,西新宿３丁目３－１３－６Ｆ,,13,104,1600023,,,,,,,2024-10-22,1,,,,,ボトム,0
79,1012401042395,新規,0,2024-10-22,2024-10-22,ＨＫ株式会社,,株式会社,東京都,多摩市,連光寺５丁目１２番地の７１パークサイドガレージ１０２,,13,224,2060021,,,,,,,2024-10-22,1,,,,,エイチケイ,0
87,1013301053235,新規,0,2024-10-22,2024-10-22,株式会社Ｐｅａｃｅｖｉａ,,株式会社,東京都,豊島区,西池袋５丁目１２番７号,,13,116,1710021,,,,,,,2024-10-22,1,,,,,ピースヴィア,0
89,1013305003657,新規,0,2024-10-22,2024-10-22,一般社団法人ワークスフィア・コーチング協会,,その他の設立登記法人,東京都,豊島区,上池袋１丁目３５番１２－４０４号,,13,116,1700012,,,,,,,2024-10-22,1,,,,,ワークスフィアコーチングキョウカイ,0
99,1020001159691,新規,0,2024-10-22,2024-10-22,長瀬事業株式会社,,株式会社,神奈川県,川崎市中原区,井田杉山町８番１４号,,14,133,2110036,,,,,,,2024-10-22,1,,,,,ナガセジギョウ,0
100,1020001159709,新規,0,2024-10-22,2024-10-22,株式会社オフィス地図,,株式会社,神奈川県,横浜市金沢区,能見台３丁目５１番地１ふれあいの街Ｄ棟９０２号,,14,108,2360057,,,,,,,2024-10-22,1,,,,,オフィスチズ,0
101,1020001159790,新規,0,2024-10-22,2024-10-22,７ＳＥＡＳ　ＤＩＮＩＮＧ株式会社,,株式会社,神奈川県,横浜市泉区,中田東１丁目６番６号ピュアハウス２０４,,14,116,2450013,,,,,,,2024-10-22,1,,,,,セブンシーズダイニング,0
106,1021001083543,新規,0,2024-10-22,2024-10-22,オフィスマルイチ株式会社,,株式会社,神奈川県,相模原市中央区,氷川町１７番７号ザ・プレステージ・グラン２０２,,14,152,2520215,,,,,,,2024-10-22,1,,,,,オフィスマルイチ,0
108,1021003015131,新規,0,2024-10-22,2024-10-22,合同会社南矢帝,,合同会社,神奈川県,南足柄市,狩野７番地４,,14,217,2500126,,,,,,,2024-10-22,1,,,,,ナンヤテイ,0
123,1040001135880,新規,0,2024-10-22,2024-10-22,株式会社ＳＨＩＮ　ＰＲＯＤＵＣＴＩＯＮＳ,,株式会社,千葉県,鎌ケ谷市,北中沢１丁目１５番３１号,,12,224,2730111,,,,,,,2024-10-22,1,,,,,シンプロダクションズ,0
129,1040003026021,新規,0,2024-10-22,2024-10-22,ミアキス合同会社,,合同会社,千葉県,佐倉市,城２３１番地２０,,12,212,2850815,,,,,,,2024-10-22,1,,,,,ミアキス,0
133,1050001055491,新規,0,2024-10-22,2024-10-22,株式会社これから,,株式会社,茨城県,日立市,諏訪町１丁目２０番１８号,,08,202,3160001,,,,,,,2024-10-22,1,,,,,コレカラ,0
134,1050001055558,新規,0,2024-10-22,2024-10-22,株式会社ＫＩＴＥ,,株式会社,茨城県,つくば市,竹園２丁目８－６,,08,220,3050032,,,,,,,2024-10-22,1,,,,,カイト,0
136,1050003008745,新規,0,2024-10-22,2024-10-22,中雪合同会社,,合同会社,茨城県,結城市,大字結城９８５７－３ブルースクエア１０１号室,,08,207,3070001,,,,,,,2024-10-22,1,,,,,ナカセツ,0
144,1080401027518,新規,0,2024-10-22,2024-10-22,ヘンルーダ・エンジニアリング・アンド・エンターテインメンツ株式会社,,株式会社,静岡県,浜松市中央区,常盤町１番地の１０ユニゾン常盤３０３,,22,138,4300917,,,,,,,2024-10-22,1,,,,,ヘンルーダエンジニアリングアンドエンターテインメンツ,0
147,1100001037939,新規,0,2024-10-22,2024-10-22,東信電気工事株式会社,,株式会社,長野県,岡谷市,長地１２０９番地,,20,204,3940011,,,,,,,2024-10-22,1,,,,,トウシンデンキコウジ,0
149,1100003007808,新規,0,2024-10-22,2024-10-22,Ｍｒ．Ｌｏｄｇｅ合同会社,,合同会社,長野県,北安曇郡小谷村,大字千国乙１２８４０番地１,,20,486,3999422,,,,,,,2024-10-22,1,,,,,ミスターロッヂ,0
150,1100003007824,新規,0,2024-10-22,2024-10-22,合同会社ＮＫＧ設備,,合同会社,長野県,茅野市,ちの１２２０番地１,,20,214,3910001,,,,,,,2024-10-22,1,,,,,エヌケージーセツビ,0
158,1120001269423,新規,0,2024-10-22,2024-10-22,株式会社Ｅｘｃｅｅｄ,,株式会社,大阪府,寝屋川市,上神田２丁目１０番１４号,,27,215,5720052,,,,,,,2024-10-22,1,,,,,エクシード,0
159,1120001269448,新規,0,2024-10-22,2024-10-22,株式会社エント,,株式会社,大阪府,大阪市中央区,南本町２丁目４番６－４０３号,,27,128,5410054,,,,,,,2024-10-22,1,,,,,エント,0
160,1120001269547,新規,0,2024-10-22,2024-10-22,新康隆株式会社,,株式会社,大阪府,大阪市生野区,新今里７丁目５番１８－３０３号,,27,116,5440001,,,,,,,2024-10-22,1,,,,,シンコウリュウ,0
161,1120001269563,新規,0,2024-10-22,2024-10-22,株式会社Ｆｉｎｅ　Ａｓｓｅｔ,,株式会社,大阪府,大阪市港区,波除５丁目１３番２２－４０６号,,27,107,5520001,,,,,,,2024-10-22,1,,,,,ファインアセット,0
162,1120001269605,新規,0,2024-10-22,2024-10-22,株式会社ＬＵＣＥ,,株式会社,大阪府,大阪市中央区,東心斎橋２丁目４番９号ヒットワン第二アートビル４階,,27,128,5420083,,,,,,,2024-10-22,1,,,,,ルーチェ,0
163,1120001269621,新規,0,2024-10-22,2024-10-22,株式会社ルミノーズ,,株式会社,大阪府,枚方市,宮之阪１丁目２０番３－１０６号,,27,210,5730022,,,,,,,2024-10-22,1,,,,,ルミノーズ,0
164,1120001269646,新規,0,2024-10-22,2024-10-22,クラウドエクス株式会社,,株式会社,大阪府,大阪市北区,梅田１丁目２番２号大阪駅前第２ビル１２‐１２,,27,127,5300001,,,,,,,2024-10-22,1,,,,,クラウドエクス,0
182,1122001038493,新規,0,2024-10-22,2024-10-22,株式会社愛歯デンタル,,株式会社,大阪府,東大阪市,水走１丁目１０番３４号,,27,227,5780921,,,,,,,2024-10-22,1,,,,,アイシデンタル,0
196,1140001136142,新規,0,2024-10-22,2024-10-22,株式会社一つ一つ,,株式会社,兵庫県,尼崎市,武庫之荘６丁目１４番２１号,,28,202,6610035,,,,,,,2024-10-22,1,,,,,ヒトツヒトツ,0
197,1140001136159,新規,0,2024-10-22,2024-10-22,株式会社ＥＶＥＲＧＲＥＥＮ,,株式会社,兵庫県,神戸市北区,山田町下谷上字中一里山１５－４０,,28,109,6511102,,,,,,,2024-10-22,1,,,,,エヴァーグリーン,0
198,1140001136191,新規,0,2024-10-22,2024-10-22,ＧＭＳ株式会社,,株式会社,兵庫県,姫路市,玉手４丁目４５－２,,28,201,6700985,,,,,,,2024-10-22,1,,,,,ジーエムエス,0
202,1160003003314,新規,0,2024-10-22,2024-10-22,合同会社ルートラボ,,合同会社,滋賀県,大津市,国分２丁目１４－１１,,25,201,5200844,,,,,,,2024-10-22,1,,,,,ルートラボ,0
204,1170001018354,新規,0,2024-10-22,2024-10-22,株式会社木村テック,,株式会社,和歌山県,和歌山市,砂山南４丁目３番１１号,,30,201,6408272,,,,,,,2024-10-22,1,,,,,キムラテック,0
208,1180001163752,新規,0,2024-10-22,2024-10-22,ラビアン株式会社,,株式会社,愛知県,名古屋市昭和区,石仏町２丁目４番地の５,,23,107,4660023,,,,,,,2024-10-22,1,,,,,ラビアン,0
212,1180003027501,新規,0,2024-10-22,2024-10-22,Ｙ．Ｍ．Ｏｒｃｈｅｓｔｒａ合同会社,,合同会社,愛知県,名古屋市昭和区,紅梅町３丁目２番地の１,,23,107,4660031,,,,,,,2024-10-22,1,,,,,ワイエムオーケストラ,0
216,1190003004838,新規,0,2024-10-22,2024-10-22,合同会社ムータ,,合同会社,三重県,名張市,桔梗が丘西４番町２街区６２番地,,24,208,5180644,,,,,,,2024-10-22,1,,,,,ムータ,0
217,1200003006551,新規,0,2024-10-22,2024-10-22,合同会社ＶＩＳＱ,,合同会社,岐阜県,可児市,下恵土２９８９番地１,,21,214,5090203,,,,,,,2024-10-22,1,,,,,ビスク,0
221,1220001026277,新規,0,2024-10-22,2024-10-22,株式会社カリエル,,株式会社,石川県,白山市,湊町井１番地５７,,17,210,9290217,,,,,,,2024-10-22,1,,,,,カリエル,0
222,1220003003860,新規,0,2024-10-22,2024-10-22,合同会社大井,,合同会社,石川県,加賀市,合河町ヲ２４番地３,,17,206,9220337,,,,,,,2024-10-22,1,,,,,オオイ,0
228,1240001063987,新規,0,2024-10-22,2024-10-22,株式会社２ｎｄＣＲＯＳＳ,,株式会社,広島県,広島市中区,鶴見町１１番８－７０３号,,34,101,7300045,,,,,,,2024-10-22,1,,,,,セカンドクロス,0
231,1250001020847,新規,0,2024-10-22,2024-10-22,ときしげ電工株式会社,,株式会社,山口県,防府市,大字富海２７１５番地１,,35,206,7471111,,,,,,,2024-10-22,1,,,,,トキシゲデンコウ,0
234,1260005011412,新規,0,2024-10-22,2024-10-22,一般社団法人ＯＨＡＮＡ,,その他の設立登記法人,岡山県,岡山市北区,吉備津１０２５番地６,,33,101,7011341,,,,,,,2024-10-22,1,,,,,オハナ,0
249,1290001107665,新規,0,2024-10-22,2024-10-22,株式会社ｐｅｒｉｃｌｅｓ,,株式会社,福岡県,福岡市中央区,天神４丁目６－２８天神ファーストビル７階,,40,133,8100001,,,,,,,2024-10-22,1,,,,,ペリクレス,0
250,1290001107681,新規,0,2024-10-22,2024-10-22,株式会社ｍｇＳｙｓｔｅｍ,,株式会社,福岡県,福岡市博多区,博多駅前１丁目２９番３９号マキシム博多駅前Ｉ２０１,00136714,40,132,8120011,,,,,,,2024-10-22,1,,,,,エムジーシステム,0
253,1290003015965,新規,0,2024-10-22,2024-10-22,合同会社ｅｙｌｌ,,合同会社,福岡県,福岡市中央区,草香江２丁目１番２０号朝日プラザ大濠６０５,,40,133,8100045,,,,,,,2024-10-22,1,,,,,エイル,0
264,1350001019243,新規,0,2024-10-22,2024-10-22,株式会社清照,,株式会社,宮崎県,宮崎市,大字郡司分乙７８１番地３,,45,201,8800924,,,,,,,2024-10-22,1,,,,,セイジョウ,0
265,1360001034349,新規,0,2024-10-22,2024-10-22,株式会社ＡＬＵｍｉｎｕｍ　ｂｏｘ　ｆａｃｔｏｒｙ,,株式会社,沖縄県,島尻郡八重瀬町,字新城１７８０番地１,,47,362,9010503,,,,,,,2024-10-22,1,,,,,アルボックスファクトリー,0
267,1370001051830,新規,0,2024-10-22,2024-10-22,八代目すがわら株式会社,,株式会社,宮城県,仙台市若林区,六丁の目南町２番４７号,,04,103,9840013,,,,,,,2024-10-22,1,,,,,ハチダイメスガワラ,0
277,1430001092892,新規,0,2024-10-22,2024-10-22,株式会社ノクリエ,,株式会社,北海道,北広島市,共栄３１番１２,,01,234,0611112,,,,,,,2024-10-22,1,,,,,ノクリエ,0
280,1430003016908,新規,0,2024-10-22,2024-10-22,合同会社ｔｏ　ｙｏｕ,,合同会社,北海道,札幌市北区,北二十一条西１３丁目１番２号,,01,102,0010021,,,,,,,2024-10-22,1,,,,,トゥーユー,0
287,1490005006959,新規,0,2024-10-22,2024-10-22,一般社団法人ノア,,その他の設立登記法人,高知県,高岡郡越知町,越知甲１７３９番地１,,39,403,7811301,,,,,,,2024-10-22,1,,,,,,0
289,1500001025952,新規,0,2024-10-22,2024-10-22,株式会社ｇ‐ｗｉｔｈ　Ｓｙｓｔｅｍ,,株式会社,愛媛県,松山市,立花５丁目４番２１号ＬＵＮＡＡ－２０１号,,38,201,7900966,,,,,,,2024-10-22,1,,,,,ジーウィズシステム,0
297,2010001249154,新規,0,2024-10-22,2024-10-22,株式会社Ｋ,,株式会社,東京都,中央区,銀座１丁目２２番１１号銀座大竹ビジデンス２Ｆ,,13,102,1040061,,,,,,,2024-10-22,1,,,,,ケイ,0
298,2010001249220,新規,0,2024-10-22,2024-10-22,日承アセットマネジメント株式会社,,株式会社,東京都,千代田区,三番町７番地２－４０６号,,13,101,1020075,,,,,,,2024-10-22,1,,,,,ニッショウアセットマネジメント,0
299,2010001249261,新規,0,2024-10-22,2024-10-22,ジェームズ・フィッシャー・ジャパン株式会社,,株式会社,東京都,中央区,日本橋１丁目４番１号日本橋一丁目三井ビルディング７階,,13,102,1030027,,,,,,,2024-10-22,1,,,,,ジェームズフィッシャージャパン,0
300,2010003045238,新規,0,2024-10-22,2024-10-22,Ｈａｒｔｒｅｅ　Ｐａｒｔｎｅｒｓ　Ｊａｐａｎ合同会社,,合同会社,東京都,千代田区,有楽町１丁目２番２号東宝日比谷ビル９階,,13,101,1000006,,,,,,,2024-10-22,1,,,,,ハートリーパートナーズジャパン,0
301,2010003045246,新規,0,2024-10-22,2024-10-22,合同会社はんなり,,合同会社,東京都,中央区,日本橋本町１丁目２－５本町会館５階,,13,102,1030023,,,,,,,2024-10-22,1,,,,,ハンナリ,0
302,2010003045270,新規,0,2024-10-22,2024-10-22,合同会社スリーワイ,,合同会社,東京都,中央区,銀座１丁目１２番４号Ｎ＆Ｅ，ＢＬＤ．６Ｆ,,13,102,1040061,,,,,,,2024-10-22,1,,,,,スリーワイ,0
311,2010401185817,新規,0,2024-10-22,2024-10-22,株式会社Ｗ　Ａｓｓｅｔ,,株式会社,東京都,港区,六本木３丁目１０－１１青木ビル５階,,13,103,1060032,,,,,,,2024-10-22,1,,,,,ダブルアセット,0
317,2010405023576,新規,0,2024-10-22,2024-10-22,一般財団法人こどものための財団,,その他の設立登記法人,東京都,港区,赤坂７丁目６－２白洲ビル２階,,13,103,1070052,,,,,,,2024-10-22,1,,,,,コドモノタメノザイダン,0
319,2010501053064,新規,0,2024-10-22,2024-10-22,株式会社藤屋,,株式会社,東京都,台東区,西浅草３丁目２７番２１号アルス浅草ラルジュール３０５,,13,106,1110035,,,,,,,2024-10-22,1,,,,,フジヤ,0
322,2010603011168,新規,0,2024-10-22,2024-10-22,楽喜合同会社,,合同会社,東京都,墨田区,本所３丁目４番１０号エンタクビル２０２,,13,107,1300004,,,,,,,2024-10-22,1,,,,,ラッキ,0
324,2010703007388,新規,0,2024-10-22,2024-10-22,理昂合同会社,,合同会社,東京都,品川区,大井２丁目６番１２,,13,109,1400014,,,,,,,2024-10-22,1,,,,,リコウ,0
329,2010903009432,新規,0,2024-10-22,2024-10-22,合同会社ｏｆ　ＣＬＡＳＳＩＣ,,合同会社,東京都,世田谷区,玉川３丁目２０番３号石井ビル２０１,,13,112,1580094,,,,,,,2024-10-22,1,,,,,オブクラシック,0
336,2011001165325,新規,0,2024-10-22,2024-10-22,株式会社ＭａｎｄＥ,,株式会社,東京都,目黒区,下目黒１丁目１番１４号コノトラビル７Ｆ,,13,110,1530064,,,,,,,2024-10-22,1,,,,,エムアンドイー,0
337,2011001165333,新規,0,2024-10-22,2024-10-22,株式会社Ｉ．Ｒ．Ｋ　Ｅｎｔｅｒｔａｉｎｍｅｎｔ,,株式会社,東京都,渋谷区,幡ヶ谷２丁目２５番３号アーバン幡ヶ谷５０２,,13,113,1510072,,,,,,,2024-10-22,1,,,,,アイアールケーエンターテイメント,0
338,2011001165374,新規,0,2024-10-22,2024-10-22,株式会社フリージュ,,株式会社,東京都,渋谷区,富ヶ谷２丁目４１番１４号スカイライフ代々木八幡１０１,,13,113,1510063,,,,,,,2024-10-22,1,,,,,フリージュ,0
339,2011003020222,新規,0,2024-10-22,2024-10-22,ＮＯＴ　Ａ　ＳＴＵＤＩＯ合同会社,,合同会社,東京都,渋谷区,渋谷２丁目１９番１５－６０９号宮益坂ビルディング,,13,113,1500002,,,,,,,2024-10-22,1,,,,,ノットアスタジオ,0
343,2011105011210,新規,0,2024-10-22,2024-10-22,一般社団法人日本Ｌスポーツ協会,,その他の設立登記法人,東京都,新宿区,西新宿７丁目４－７イマス浜田ビル３階２,,13,104,1600023,,,,,,,2024-10-22,1,,,,,ニホンエルスポーツキョウカイ,0
346,2011601028146,新規,0,2024-10-22,2024-10-22,株式会社ペルソナーズ,,株式会社,東京都,練馬区,栄町１０番７－３０２号,,13,120,1760006,,,,,,,2024-10-22,1,,,,,ペルソナーズ,0
358,2012701018508,新規,0,2024-10-22,2024-10-22,株式会社ＹＢケアスタッフ,,株式会社,東京都,西東京市,富士町２丁目１０番１７号東伏見ビル４階,,13,229,2020014,,,,,,,2024-10-22,1,,,,,ワイビーケアスタッフ,0
363,2013301053250,新規,0,2024-10-22,2024-10-22,株式会社おカンパニー,,株式会社,東京都,豊島区,北大塚２丁目１１番７－１２０２号,,13,116,1700004,,,,,,,2024-10-22,1,,,,,オカンパニー,0
370,2020001159699,新規,0,2024-10-22,2024-10-22,株式会社Ｃｈｅｒｉｓｈ,,株式会社,神奈川県,川崎市川崎区,渡田２丁目１８番８号トレリス２０３,,14,131,2100837,,,,,,,2024-10-22,1,,,,,チェリッシュ,0
371,2020001159708,新規,0,2024-10-22,2024-10-22,株式会社ＢＲＵＮＯ,,株式会社,神奈川県,川崎市麻生区,高石６丁目２２番１号３０４号室,,14,137,2150003,,,,,,,2024-10-22,1,,,,,ブルーノ,0
374,2020002109117,新規,0,2024-10-22,2024-10-22,有限会社花月園前だるま薬局,,有限会社,神奈川県,横浜市鶴見区,生麦町１２０１番地,,14,101,2300000,,,,,,,2024-10-22,1,,,,,カゲツエンマエダルマヤッキョク,0
375,2020003027094,新規,0,2024-10-22,2024-10-22,合同会社ＭＩＮＴ,,合同会社,神奈川県,川崎市幸区,南加瀬４丁目１０番３１－６０１,,14,132,2120055,,,,,,,2024-10-22,1,,,,,ミント,0
376,2021001083542,新規,0,2024-10-22,2024-10-22,株式会社ＭＣＳ,,株式会社,神奈川県,藤沢市,遠藤６９４番地の１,,14,205,2520816,,,,,,,2024-10-22,1,,,,,エムシーエス,0
393,2040001135896,新規,0,2024-10-22,2024-10-22,株式会社乙,,株式会社,千葉県,松戸市,新松戸１丁目３７０番直希マンション７０３号室,,12,207,2700034,,,,,,,2024-10-22,1,,,,,キノト,0
398,2040003026020,新規,0,2024-10-22,2024-10-22,合同会社てくてくファーム,,合同会社,千葉県,木更津市,矢那３９８０,00136708,12,206,2920812,,,,,,,2024-10-22,1,,,,,テクテクファーム,0
404,2070001042280,新規,0,2024-10-22,2024-10-22,株式会社ｎｉｎｅ,,株式会社,群馬県,太田市,新田木崎町５２５番地１８,,10,205,3700321,,,,,,,2024-10-22,1,,,,,ナイン,0
405,2070001042297,新規,0,2024-10-22,2024-10-22,株式会社ＣＯＺＹ,,株式会社,群馬県,桐生市,宮前町２丁目１１番地の３,,10,203,3760046,,,,,,,2024-10-22,1,,,,,コージー,0
412,2070003005624,新規,0,2024-10-22,2024-10-22,エムトラスト合同会社,,合同会社,群馬県,藤岡市,下栗須４５２番地１１,,10,209,3750014,,,,,,,2024-10-22,1,,,,,エムトラスト,0
415,2080001026555,新規,0,2024-10-22,2024-10-22,株式会社Ｃａｌｍ　Ｐａｒｔｎｅｒｓ,,株式会社,静岡県,静岡市葵区,上足洗２丁目１番１５－６号,,22,101,4200841,,,,,,,2024-10-22,1,,,,,カルムパートナーズ,0
421,2100001037946,新規,0,2024-10-22,2024-10-22,株式会社紡ぐ,,株式会社,長野県,下伊那郡喬木村,８５０番地２,,20,415,3951100,,,,,,,2024-10-22,1,,,,,ツムグ,0
432,2120001269538,新規,0,2024-10-22,2024-10-22,五愛貿易株式会社,,株式会社,大阪府,大阪市住吉区,住吉１丁目８番４４号インペリアル住吉大社４０３号室,,27,120,5580045,,,,,,,2024-10-22,1,,,,,ゴアイボウエキ,0
433,2120001269570,新規,0,2024-10-22,2024-10-22,昭勝株式会社,,株式会社,大阪府,大阪市東淀川区,下新庄２丁目８－１６セントラル淡路５０３,,27,114,5330021,,,,,,,2024-10-22,1,,,,,アキカツ,0
434,2120001269579,新規,0,2024-10-22,2024-10-22,ＦＮＳ・ＨＤ株式会社,,株式会社,大阪府,大阪市北区,太融寺町８番８号,,27,127,5300051,,,,,,,2024-10-22,1,,,,,エフエヌエスエイチディー,0
436,2120003027794,新規,0,2024-10-22,2024-10-22,合同会社のうじん,,合同会社,大阪府,大阪市淀川区,西中島３丁目８番２号新大阪ＫＧビル５０３号,,27,123,5320011,,,,,,,2024-10-22,1,,,,,ノウジン,0
437,2120003027803,新規,0,2024-10-22,2024-10-22,合同会社ＶＩＯＬＥＴＡ,,合同会社,大阪府,寝屋川市,楠根南町１２番２０号,,27,215,5720811,,,,,,,2024-10-22,1,,,,,ヴィオレッタ,0
441,2120101070440,新規,0,2024-10-22,2024-10-22,株式会社大晃,,株式会社,大阪府,堺市西区,浜寺元町５丁７６９番地セレーノＡ１０５,,27,144,5928343,,,,,,,2024-10-22,1,,,,,ダイコウ,0
442,2120101070457,新規,0,2024-10-22,2024-10-22,株式会社ＭＪジャパン,,株式会社,大阪府,泉佐野市,高松東１丁目１０番３７号泉佐野センタービル４０９－２号,,27,213,5980012,,,,,,,2024-10-22,1,,,,,エムジェイジャパン,0
446,2120901049931,新規,0,2024-10-22,2024-10-22,株式会社ＰＬＡＮＴＥＸ,,株式会社,大阪府,高槻市,西面中２丁目２０番２８号,,27,207,5690842,,,,,,,2024-10-22,1,,,,,プランテックス,0
454,2130001078186,新規,0,2024-10-22,2024-10-22,和華商事株式会社,,株式会社,京都府,京都市伏見区,深草西浦町８丁目１１５－２０７号,,26,109,6120029,,,,,,,2024-10-22,1,,,,,ワカショウジ,0
457,2140001136158,新規,0,2024-10-22,2024-10-22,株式会社エルザマーケティング,,株式会社,兵庫県,姫路市,下手野１丁目１１０番地１,,28,201,6700063,,,,,,,2024-10-22,1,,,,,エルザマーケティング,0
461,2140003021218,新規,0,2024-10-22,2024-10-22,ＢＭアッシュ合同会社,,合同会社,兵庫県,神戸市東灘区,御影郡家１丁目２８番１１号,,28,101,6580048,,,,,,,2024-10-22,1,,,,,ビーエムアッシュ,0
463,2160001026299,新規,0,2024-10-22,2024-10-22,一美工業株式会社,,株式会社,滋賀県,高島市,安曇川町中央１丁目４番９号,,25,212,5201216,,,,,,,2024-10-22,1,,,,,イチビコウギョウ,0
468,2180001163669,新規,0,2024-10-22,2024-10-22,株式会社アルファ,,株式会社,愛知県,大府市,長草町車池１６番地の２２９,,23,223,4740052,,,,,,,2024-10-22,1,,,,,アルファ,0
469,2180001163693,新規,0,2024-10-22,2024-10-22,株式会社ＡＬａｓｈｉ,,株式会社,愛知県,名古屋市熱田区,金山町１丁目１１番２号,,23,109,4560002,,,,,,,2024-10-22,1,,,,,アラシ,0
470,2180001163719,新規,0,2024-10-22,2024-10-22,Ａｓｑｕｉｒｅ株式会社,,株式会社,愛知県,名古屋市中村区,名駅４丁目２４番５号第２森ビル４０１,,23,105,4500002,,,,,,,2024-10-22,1,,,,,アスクワイア,0
471,2180001163727,新規,0,2024-10-22,2024-10-22,株式会社ａｐｕｄａ,,株式会社,愛知県,名古屋市西区,菊井２丁目２０番２２号,,23,104,4510044,,,,,,,2024-10-22,1,,,,,エイプーダ,0
472,2180001163801,新規,0,2024-10-22,2024-10-22,瑞月エステート株式会社,,株式会社,愛知県,大府市,北崎町北屋敷６３番地,,23,223,4740001,,,,,,,2024-10-22,1,,,,,ミヅキエステート,0
475,2180003027483,新規,0,2024-10-22,2024-10-22,合同会社ａｃｔｉｖｅ,,合同会社,愛知県,小牧市,高根３丁目４８５番地,,23,219,4850803,,,,,,,2024-10-22,1,,,,,アクティブ,0
476,2180003027500,新規,0,2024-10-22,2024-10-22,合同会社内藤,,合同会社,愛知県,東海市,大田町下浜田１００５番地ＥＡＳＴＢＬＵＥ３Ａ,,23,222,4770031,,,,,,,2024-10-22,1,,,,,ナイトウ,0
483,2190001031726,新規,0,2024-10-22,2024-10-22,株式会社ＭＪフーズ,,株式会社,三重県,鈴鹿市,若松北１丁目２６番２４号,,24,207,5100223,,,,,,,2024-10-22,1,,,,,エムジェイフーズ,0
484,2190001031734,新規,0,2024-10-22,2024-10-22,ワンハート三重株式会社,,株式会社,三重県,名張市,瀬古口５１７番地３ベルアージュ２１・１００６号,,24,208,5180445,,,,,,,2024-10-22,1,,,,,ワンハートミエ,0
486,2190003004837,新規,0,2024-10-22,2024-10-22,合同会社ＨＩＲＯ．ＡＣ,,合同会社,三重県,名張市,すずらん台東３番町４９番地,,24,208,5180403,,,,,,,2024-10-22,1,,,,,ヒロドットエーシー,0
495,2240001063978,新規,0,2024-10-22,2024-10-22,株式会社ｆｉｅｌｄ　ｇａｔｅ,,株式会社,広島県,広島市西区,天満町１８番１３号タウンパル坂本５０３号室,,34,104,7330022,,,,,,,2024-10-22,1,,,,,フィールドゲート,0
496,2240001063986,新規,0,2024-10-22,2024-10-22,株式会社聖,,株式会社,広島県,福山市,今津町７５番地３,,34,207,7290111,,,,,,,2024-10-22,1,,,,,ヒジリ,0
499,2250001020846,新規,0,2024-10-22,2024-10-22,株式会社便利屋商会,,株式会社,山口県,大島郡周防大島町,大字小松５１４番地１,,35,305,7422106,,,,,,,2024-10-22,1,,,,,ベンリヤショウカイ,0
503,2260003004929,新規,0,2024-10-22,2024-10-22,和心ノ家合同会社,,合同会社,岡山県,倉敷市,茶屋町１５８番地２,,33,202,7101101,,,,,,,2024-10-22,1,,,,,ワシンノイエ,0
510,2290001107697,新規,0,2024-10-22,2024-10-22,株式会社ＫＯ＆ＫＯ,,株式会社,福岡県,福岡市中央区,天神２丁目５番２８号,,40,133,8100001,,,,,,,2024-10-22,1,,,,,コーアンドコー,0
511,2290001107714,新規,0,2024-10-22,2024-10-22,株式会社プロファーリアルティ,,株式会社,福岡県,久留米市,荒木町荒木１３６６番地６,,40,203,8300063,,,,,,,2024-10-22,1,,,,,プロファーリアルティ,0
514,2290003015956,新規,0,2024-10-22,2024-10-22,ＡＳＵＫＡ合同会社,,合同会社,福岡県,福岡市城南区,別府１丁目１６番１０号２階,,40,136,8140104,,,,,,,2024-10-22,1,,,,,アスカ,0
515,2290003015964,新規,0,2024-10-22,2024-10-22,２‐ｔｉｍｅｓ．ｇｒｏｕｐ合同会社,,合同会社,福岡県,糸島市,前原中央２丁目４番１６号,,40,230,8191116,,,,,,,2024-10-22,1,,,,,ツータイムスグループ,0
517,2290801030982,新規,0,2024-10-22,2024-10-22,株式会社メグリス,,株式会社,福岡県,豊前市,大字小石原１８５番地８,,40,214,8280044,,,,,,,2024-10-22,1,,,,,メグリス,0
519,2310001019279,新規,0,2024-10-22,2024-10-22,九十九株式会社,,株式会社,長崎県,東彼杵郡川棚町,石木郷６４５番地２,,42,322,8593604,,,,,,,2024-10-22,1,,,,,ツクモ,0
520,2330005010835,新規,0,2024-10-22,2024-10-22,一般社団法人自立支援ネットワーク,,その他の設立登記法人,熊本県,熊本市東区,江津１丁目２４番１２号,,43,102,8620942,,,,,,,2024-10-22,1,,,,,ジリツシエンネットワーク,0
523,2350003004770,新規,0,2024-10-22,2024-10-22,合同会社平川,,合同会社,宮崎県,都城市,金田町２９１番地,,45,202,8850001,,,,,,,2024-10-22,1,,,,,ヒラカワ,0
525,2360001034356,新規,0,2024-10-22,2024-10-22,株式会社Ｖｅｒｉｓｔａ,,株式会社,沖縄県,沖縄市,海邦２丁目２８番１７号,,47,211,9042162,,,,,,,2024-10-22,1,,,,,ベリスタ,0
526,2360003014406,新規,0,2024-10-22,2024-10-22,合同会社大城工業,,合同会社,沖縄県,中頭郡西原町,字内間４１４－３・３Ｆ・Ｂ－１,,47,329,9030121,,,,,,,2024-10-22,1,,,,,オオシロコウギョウ,0
538,2420001018897,新規,0,2024-10-22,2024-10-22,株式会社Ｓｅｒｅｎｄｉｐ　Ｔｒｉｐ,,株式会社,青森県,青森市,新町１丁目２番１８号１階,,02,201,0300801,,,,,,,2024-10-22,1,,,,,セレンディップトリップ,0
543,2430001092891,新規,0,2024-10-22,2024-10-22,株式会社Ｇｉｒａｆｆｅ　Ｔｅｃｈ,,株式会社,北海道,札幌市北区,新琴似七条１７丁目４番３号,,01,102,0010907,,,,,,,2024-10-22,1,,,,,ジラフテック,0
544,2430001092900,新規,0,2024-10-22,2024-10-22,株式会社Ｓｏｌ,,株式会社,北海道,苫小牧市,船見町２丁目６番地,,01,213,0530007,,,,,,,2024-10-22,1,,,,,ソル,0
545,2430001092917,新規,0,2024-10-22,2024-10-22,株式会社ワールドアセットマネジメント,,株式会社,北海道,札幌市北区,北三十四条西１０丁目６番２１号田中ビル,,01,102,0010034,,,,,,,2024-10-22,1,,,,,ワールドアセットマネジメント,0
548,2430003016907,新規,0,2024-10-22,2024-10-22,Ｋ’ｓ合同会社,,合同会社,北海道,札幌市北区,篠路町上篠路２５７番地３９,,01,102,0028052,,,,,,,2024-10-22,1,,,,,ケイズ,0
549,2430003016915,新規,0,2024-10-22,2024-10-22,合同会社ＬｉｆｅＪｏｉｎｔ,,合同会社,北海道,札幌市中央区,北二条東１丁目５番地２,,01,101,0600032,,,,,,,2024-10-22,1,,,,,ライフジョイント,0
552,2450001014431,新規,0,2024-10-22,2024-10-22,株式会社Ｍｅｓｓａｇｅ,,株式会社,北海道,旭川市,旭町一条１９丁目２１７３番地の１０６,,01,204,0700831,,,,,,,2024-10-22,1,,,,,メッセージ,0
554,2470001020428,新規,0,2024-10-22,2024-10-22,株式会社ＣＩＭＢＡ,,株式会社,香川県,三豊市,三野町吉津甲１０５０番地１４,,37,208,7670033,,,,,,,2024-10-22,1,,,,,シンバ,0
559,2700150076957,新規,0,2024-10-22,2016-11-04,巴川製紙取引先持株会,,その他,静岡県,静岡市駿河区,用宗巴町３番１号,,22,102,4210126,,,,,,,2016-11-04,1,,,,,トモエガワセイシトリヒキサキモチカブカイ,0
568,3010001249178,新規,0,2024-10-22,2024-10-22,Ｚｄａｓｈ株式会社,,株式会社,東京都,中央区,銀座１丁目１２番４号Ｎ＆ＥＢＬＤ．６Ｆ,,13,102,1040061,,,,,,,2024-10-22,1,,,,,ゼットダッシュ,0
571,3010003045245,新規,0,2024-10-22,2024-10-22,アストロ・トゥエンティワン合同会社,,合同会社,東京都,中央区,銀座１丁目６番１１号土志田ビルディング３Ｆ,,13,102,1040061,,,,,,,2024-10-22,1,,,,,アストロトゥエンティワン,0
572,3010003045253,新規,0,2024-10-22,2024-10-22,合同会社ＳＡｉ,,合同会社,東京都,千代田区,神田和泉町１番地６－１６ヤマトビル４０５,,13,101,1010024,,,,,,,2024-10-22,1,,,,,サイ,0
583,3010401185931,新規,0,2024-10-22,2024-10-22,株式会社ギアソリューションズ,,株式会社,東京都,港区,北青山１丁目３番１号アールキューブ青山３階,,13,103,1070061,,,,,,,2024-10-22,1,,,,,ギアソリューションズ,0
587,3010601066106,新規,0,2024-10-22,2024-10-22,株式会社日本ＣＯＥ,,株式会社,東京都,墨田区,両国１丁目１２番１２号塚田ビル３階,,13,107,1300026,,,,,,,2024-10-22,1,,,,,ニホンシーオーイー,0
588,3010601066122,新規,0,2024-10-22,2024-10-22,長興株式会社,,株式会社,東京都,墨田区,向島３丁目２２番７号,,13,107,1310033,,,,,,,2024-10-22,1,,,,,ナガオキ,0
589,3010603011159,新規,0,2024-10-22,2024-10-22,合同会社ウチワ,,合同会社,東京都,墨田区,亀沢２丁目５－４ローヤルマンション２０６,,13,107,1300014,,,,,,,2024-10-22,1,,,,,ウチワ,0
591,3010701046701,新規,0,2024-10-22,2024-10-22,株式会社ＴＢＹ,,株式会社,東京都,品川区,戸越１丁目１６番８号,,13,109,1420041,,,,,,,2024-10-22,1,,,,,ティビーワイ,0
593,3010803005134,新規,0,2024-10-22,2024-10-22,ぷらも合同会社,,合同会社,東京都,大田区,蒲田２丁目５番３号カースルＭ２階,,13,111,1440052,,,,,,,2024-10-22,1,,,,,プラモ,0
595,3010901056161,新規,0,2024-10-22,2024-10-22,株式会社ｐｌｒｏｗ‐ｒｅｒ,,株式会社,東京都,世田谷区,太子堂４丁目１８番１５号マガザン三軒茶屋２－３Ｆ－３,,13,112,1540004,,,,,,,2024-10-22,1,,,,,プローラー,0
601,3011001165373,新規,0,2024-10-22,2024-10-22,株式会社Ｓｉｍｃｌｅ,,株式会社,東京都,渋谷区,道玄坂１丁目１０番８号渋谷道玄坂東急ビル２Ｆ－Ｃ,,13,113,1500043,,,,,,,2024-10-22,1,,,,,シンクル,0
605,3011003020270,新規,0,2024-10-22,2024-10-22,４ｕ４ｍｅＡｐｐｓ合同会社,,合同会社,東京都,渋谷区,神泉町１０番１５号,,13,113,1500045,,,,,,,2024-10-22,1,,,,,フォーユーフォーミーアプス,0
610,3011101109206,新規,0,2024-10-22,2024-10-22,株式会社オフィスＭ,,株式会社,東京都,新宿区,西新宿７丁目９番１４号,,13,104,1600023,,,,,,,2024-10-22,1,,,,,オフィスエム,0
614,3011105011201,新規,0,2024-10-22,2024-10-22,一般社団法人日本パフォーマンス協会,,その他の設立登記法人,東京都,新宿区,上落合３丁目２３番１７号ユニーブル落合Ｂ１Ｆ,,13,104,1610034,,,,,,,2024-10-22,1,,,,,ニホンパフォーマンスキョウカイ,0
615,3011301030104,新規,0,2024-10-22,2024-10-22,株式会社セラーズ,,株式会社,東京都,杉並区,阿佐谷南２丁目２２番２号ライフピアコリーヌ２０１,,13,115,1660004,,,,,,,2024-10-22,1,,,,,セラーズ,0
619,3011401026522,新規,0,2024-10-22,2024-10-22,株式会社シンク,,株式会社,東京都,板橋区,徳丸３丁目２１番６－１０７号,,13,119,1750083,,,,,,,2024-10-22,1,,,,,シンク,0
620,3011403004518,新規,0,2024-10-22,2024-10-22,合同会社Ｑｕｅｅｎ,,合同会社,東京都,板橋区,弥生町３７－１－３０３号小藤田ビル,,13,119,1730021,,,,,,,2024-10-22,1,,,,,クイン,0
625,3011603004490,新規,0,2024-10-22,2024-10-22,合同会社ＯｎｅＰａｔｈ,,合同会社,東京都,練馬区,豊玉北１丁目２０番７号,,13,120,1760012,,,,,,,2024-10-22,1,,,,,ワンパス,0
635,3012401042402,新規,0,2024-10-22,2024-10-22,株式会社ＴＫリスク＆コンサルティング,,株式会社,東京都,三鷹市,下連雀６丁目８番３６号,,13,204,1810013,,,,,,,2024-10-22,1,,,,,,0
640,3013305003655,新規,0,2024-10-22,2024-10-22,特定非営利活動法人学び環境相談クーポノ,,その他の設立登記法人,東京都,豊島区,東池袋１丁目３４番５号いちご東池袋ビル６階,,13,116,1700013,,,,,,,2024-10-22,1,,,,,マナビカンキョウソウダンクーポノ,0
651,3020001159558,新規,0,2024-10-22,2024-10-22,ＭＢＫＰ　Ｌｉｆｅ　ＨＤ株式会社,,株式会社,神奈川県,横浜市港南区,上大岡西１丁目６番１号,,14,111,2330002,,,,,,,2024-10-22,1,,,,,エムビーケーピーライフエイチディー,0
652,3020001159698,新規,0,2024-10-22,2024-10-22,株式会社３５８８,,株式会社,神奈川県,横浜市都筑区,池辺町２２０１番地,,14,118,2240053,,,,,,,2024-10-22,1,,,,,サンゴウハチハチ,0
658,3020003027077,新規,0,2024-10-22,2024-10-22,合同会社ブランドデザインラボ,,合同会社,神奈川県,横浜市青葉区,美しが丘西２丁目２７番地１２,,14,117,2250001,,,,,,,2024-10-22,1,,,,,ブランドデザインラボ,0
668,3030001163063,新規,0,2024-10-22,2024-10-22,株式会社バウム,,株式会社,埼玉県,朝霞市,宮戸４丁目９番４４号,,11,227,3510031,,,,,,,2024-10-22,1,,,,,バウム,0
673,3030005021894,新規,0,2024-10-22,2024-10-22,医療法人スカイブルー,,その他の設立登記法人,埼玉県,上尾市,柏座２丁目４番２８号エリア赤熊１階,,11,219,3620075,,,,,,,2024-10-22,1,,,,,スカイブルー,0
678,3040001135879,新規,0,2024-10-22,2024-10-22,株式会社井伊設備,,株式会社,千葉県,四街道市,つくし座２丁目２番２号,,12,228,2840026,,,,,,,2024-10-22,1,,,,,イイセツビ,0
679,3040001135887,新規,0,2024-10-22,2024-10-22,ＳＫ株式会社,,株式会社,千葉県,成田市,公津の杜３丁目３７番３号メゾン・ド・ビュー１０２,,12,211,2860048,,,,,,,2024-10-22,1,,,,,エスケー,0
688,3070003005623,新規,0,2024-10-22,2024-10-22,合同会社ＡＳ．ＯＮＥ,,合同会社,群馬県,前橋市,古市町１丁目１番８号,,10,201,3710844,,,,,,,2024-10-22,1,,,,,アズワン,0
693,3090003002668,新規,0,2024-10-22,2024-10-22,リジェネス甲府電源開発合同会社,,合同会社,山梨県,甲府市,丸の内２丁目２番１号,,19,201,4000031,,,,,,,2024-10-22,1,,,,,リジェネスコウフデンゲンカイハツ,0
696,3100001037937,新規,0,2024-10-22,2024-10-22,株式会社Ｈｏｓｈｉｎｏ　Ｒｅｓｏｒｔｓ　Ｔｈｅ　Ｗｏｒｌｄ,,株式会社,長野県,北佐久郡軽井沢町,大字長倉２１４８番地,,20,321,3890111,,,,,,,2024-10-22,1,,,,,ホシノリゾートザワールド,0
697,3100001037945,新規,0,2024-10-22,2024-10-22,株式会社中田,,株式会社,長野県,北佐久郡御代田町,大字御代田２３４４番地３ＣｕｏｒｅＣ２０２号室,,20,323,3890206,,,,,,,2024-10-22,1,,,,,ナカタ,0
699,3100003007822,新規,0,2024-10-22,2024-10-22,合同会社Ｉｎｔｅｒｎａｔｉｏｎａｌ　Ｈｕｍａｎ　Ｐｏｗｅｒ,,合同会社,長野県,佐久市,岩村田１０７５番地２,,20,217,3850022,,,,,,,2024-10-22,1,,,,,インターナショナルヒューマンパワー,0
716,3120001269512,新規,0,2024-10-22,2024-10-22,Ｒｕｉｌｉｎ株式会社,,株式会社,大阪府,大阪市中央区,博労町１丁目６番１３号いろはビル３１１号室,,27,128,5410059,,,,,,,2024-10-22,1,,,,,ルイリン,0
717,3120001269603,新規,0,2024-10-22,2024-10-22,株式会社Ｍｙ　Ｌａｎｄ,,株式会社,大阪府,大阪市鶴見区,放出東３丁目２１番４０号ローレルコート放出２０５大阪信用金庫・夢はなて,,27,124,5380044,,,,,,,2024-10-22,1,,,,,マイランド,0
718,3120001269669,新規,0,2024-10-22,2024-10-22,株式会社ＰＥＣＨＥ,,株式会社,大阪府,大阪市浪速区,幸町１丁目３番１１号Ｍプラザ難波駅前１２０７号,,27,111,5560021,,,,,,,2024-10-22,1,,,,,ペーシュ,0
722,3120003027793,新規,0,2024-10-22,2024-10-22,合同会社ひかり,,合同会社,大阪府,大阪市浪速区,日本橋４丁目１番４号シーズ日本橋７０３号,,27,111,5560005,,,,,,,2024-10-22,1,,,,,ヒカリ,0
729,3122001038558,新規,0,2024-10-22,2024-10-22,株式会社アイノテ,,株式会社,大阪府,大東市,大野１丁目５番９号,,27,218,5740042,,,,,,,2024-10-22,1,,,,,アイノテ,0
732,3130001078144,新規,0,2024-10-22,2024-10-22,株式会社凛,,株式会社,京都府,向日市,上植野町南開４０番地の４２,,26,208,6170006,,,,,,,2024-10-22,1,,,,,リン,0
734,3130003009948,新規,0,2024-10-22,2024-10-22,Ｈａｒｕｋａｚｅ合同会社,,合同会社,京都府,京都市北区,大宮南林町６１番地,,26,101,6038403,,,,,,,2024-10-22,1,,,,,ハルカゼ,0
740,3140001136165,新規,0,2024-10-22,2024-10-22,ＴＡＧＡＷＡ株式会社,,株式会社,兵庫県,明石市,魚住町清水２４２６番地の５,,28,203,6740074,,,,,,,2024-10-22,1,,,,,タガワ,0
744,3140003021225,新規,0,2024-10-22,2024-10-22,桜橋合同会社,,合同会社,兵庫県,神戸市中央区,吾妻通６丁目２番１８号,,28,110,6510076,,,,,,,2024-10-22,1,,,,,サクラバシ,0
746,3160001026281,新規,0,2024-10-22,2024-10-22,株式会社ＲＥＳＴＩＫ,,株式会社,滋賀県,草津市,南草津２丁目２番地１－１０１ブランズシティ南草津,,25,206,5250050,,,,,,,2024-10-22,1,,,,,レスティック,0
747,3160001026298,新規,0,2024-10-22,2024-10-22,株式会社アクア,,株式会社,滋賀県,大津市,堅田１丁目１８番１６号,,25,201,5200243,,,,,,,2024-10-22,1,,,,,アクア,0
754,3180001163635,新規,0,2024-10-22,2024-10-22,株式会社有光商事,,株式会社,愛知県,名古屋市昭和区,石仏町２丁目１番地の１５,,23,107,4660023,,,,,,,2024-10-22,1,,,,,,0
755,3180001163718,新規,0,2024-10-22,2024-10-22,森吉トランスポート株式会社,,株式会社,愛知県,一宮市,新生２丁目１番４号,,23,203,4910912,,,,,,,2024-10-22,1,,,,,モリキチトランスポート,0
756,3180001163734,新規,0,2024-10-22,2024-10-22,株式会社ＡＬＢＡ,,株式会社,愛知県,名古屋市中村区,名駅４丁目２４番５号第２森ビル４０１,,23,105,4500002,,,,,,,2024-10-22,1,,,,,アルバ,0
757,3180001163791,新規,0,2024-10-22,2024-10-22,Ｇｏｕｔｏ株式会社,,株式会社,愛知県,名古屋市東区,葵３丁目１８番１７号サンプレー名古屋ビル４Ｆ,,23,102,4610004,,,,,,,2024-10-22,1,,,,,ゴウト,0
761,3190003004836,新規,0,2024-10-22,2024-10-22,合同会社Ｔａｌｅ,,合同会社,三重県,三重郡菰野町,大字田光１４９８番地１,,24,341,5101324,,,,,,,2024-10-22,1,,,,,テイル,0
771,3240001063936,新規,0,2024-10-22,2024-10-22,株式会社リサウンドケア,,株式会社,広島県,広島市南区,仁保１丁目８番４号,,34,103,7340026,,,,,,,2024-10-22,1,,,,,リサウンドケア,0
779,3250002017295,新規,0,2024-10-22,2024-10-22,有限会社高松水産,,有限会社,山口県,周南市,大字大島１４２６番地,,35,215,7450803,,,,,,,2024-10-22,1,,,,,タカマツスイサン,0
781,3260003004928,新規,0,2024-10-22,2024-10-22,合同会社ケムール,,合同会社,岡山県,倉敷市,船穂町柳井原字下道地９２１ー１,,33,202,7100263,,,,,,,2024-10-22,1,,,,,ケムール,0
788,3290801030981,新規,0,2024-10-22,2024-10-22,株式会社ＬＸ企画,,株式会社,福岡県,北九州市小倉北区,船頭町３番３４号,,40,106,8020008,,,,,,,2024-10-22,1,,,,,エルエックスキカク,0
798,3320003004500,新規,0,2024-10-22,2024-10-22,合同会社ジッキョ,,合同会社,大分県,大分市,中島東３丁目３番３５－６０２号サンリット中島東,,44,201,8700043,,,,,,,2024-10-22,1,,,,,ジッキョ,0
801,3350001019241,新規,0,2024-10-22,2024-10-22,株式会社下園住研,,株式会社,宮崎県,西諸県郡高原町,大字広原５０５５番地２３,,45,361,8894411,,,,,,,2024-10-22,1,,,,,シモゾノジュウケン,0
804,3360001034339,新規,0,2024-10-22,2024-10-22,株式会社ＴＨＥ　ＤＡＩＺ,,株式会社,沖縄県,那覇市,真嘉比１丁目６番１０号,,47,201,9020068,,,,,,,2024-10-22,1,,,,,ザダイズ,0
805,3360001034347,新規,0,2024-10-22,2024-10-22,大洋土木ホールディングス株式会社,,株式会社,沖縄県,浦添市,字港川２７２番地１,,47,208,9012134,,,,,,,2024-10-22,1,,,,,ダイヨウホールディングス,0
809,3370001051829,新規,0,2024-10-22,2024-10-22,株式会社ワイムシークレット,,株式会社,宮城県,大崎市,古川稲葉４丁目１６番８号,,04,215,9896135,,,,,,,2024-10-22,1,,,,,ワイムシークレット,0
810,3370001051837,新規,0,2024-10-22,2024-10-22,Ｗｅｌｌ　Ｂｅｉｎｇ株式会社,,株式会社,宮城県,亘理郡亘理町,字先達前７番地,,04,361,9892361,,,,,,,2024-10-22,1,,,,,ウェルビーイング,0
819,3420001018896,新規,0,2024-10-22,2024-10-22,株式会社Ａ‐ＨＥＡＬ,,株式会社,青森県,五所川原市,大字広田字榊森２番地１１,,02,205,0370023,,,,,,,2024-10-22,1,,,,,エーヒール,0
820,3420001018905,新規,0,2024-10-22,2024-10-22,まごころ不動産株式会社,,株式会社,青森県,青森市,中央２丁目１４番１１号１階１号,,02,201,0300822,,,,,,,2024-10-22,1,,,,,マゴコロフドウサン,0
823,3430001092899,新規,0,2024-10-22,2024-10-22,株式会社高野,00136703,株式会社,北海道,札幌市中央区,南五条西９丁目１００８番地セントラルハイム４０７号,,01,101,0640805,,,,,,,2024-10-22,1,,,,,タカノ,0
824,3430001092916,新規,0,2024-10-22,2024-10-22,株式会社みらい,,株式会社,北海道,札幌市清田区,里塚緑ケ丘１丁目４番２７号,,01,110,0040805,,,,,,,2024-10-22,1,,,,,ミライ,0
831,3430003016889,新規,0,2024-10-22,2024-10-22,三代目合同会社,,合同会社,北海道,虻田郡ニセコ町,字曽我９１９－５－２,,01,395,0481522,,,,,,,2024-10-22,1,,,,,サンダイメ,0
832,3430003016897,新規,0,2024-10-22,2024-10-22,花みやび合同会社,,合同会社,北海道,勇払郡むかわ町,文京３番地１０,,01,586,0540000,,,,,,,2024-10-22,1,,,,,ハナミヤビ,0
833,3430003016914,新規,0,2024-10-22,2024-10-22,合同会社アルファ原寸,,合同会社,北海道,苫小牧市,のぞみ町３丁目１番１３号,,01,213,0591272,,,,,,,2024-10-22,1,,,,,アルファゲンスン,0
837,3450001014430,新規,0,2024-10-22,2024-10-22,株式会社メープル,,株式会社,北海道,空知郡南富良野町,字幾寅１１０３番地,,01,462,0792400,,,,,,,2024-10-22,1,,,,,メープル,0
838,3460101007622,新規,0,2024-10-22,2024-10-22,株式会社楽賃不動産,,株式会社,北海道,中川郡幕別町,札内桜町１１８番地６,,01,643,0890535,,,,,,,2024-10-22,1,,,,,ラクチンフドウサン,0
840,3470001020427,新規,0,2024-10-22,2024-10-22,株式会社ファースト,,株式会社,香川県,高松市,鶴市町６２番１,,37,201,7618032,,,,,,,2024-10-22,1,,,,,,0
846,3490003001943,新規,0,2024-10-22,2024-10-22,合同会社ランドナー,,合同会社,高知県,高知市,春野町仁ノ１７９０番地,,39,201,7810323,,,,,,,2024-10-22,1,,,,,ランドナー,0
865,4010003045211,新規,0,2024-10-22,2024-10-22,合同会社あそ,,合同会社,東京都,千代田区,霞が関３丁目２番５号,,13,101,1000013,,,,,,,2024-10-22,1,,,,,アソ,0
866,4010003045228,新規,0,2024-10-22,2024-10-22,合同会社ＳＵＭＯＭＯコンサルティング,,合同会社,東京都,中央区,銀座１丁目１２番４号Ｎ＆ＥＢＬＤ．６Ｆ,,13,102,1040061,,,,,,,2024-10-22,1,,,,,スモモコンサルティング,0
867,4010003045244,新規,0,2024-10-22,2024-10-22,アストロ・トゥエンティ合同会社,,合同会社,東京都,中央区,銀座１丁目６番１１号土志田ビルディング３Ｆ,,13,102,1040061,,,,,,,2024-10-22,1,,,,,アストロトゥエンティ,0
868,4010003045269,新規,0,2024-10-22,2024-10-22,合同会社なな星,,合同会社,東京都,千代田区,一番町１３番地６レグノ・グランデ一番町タワー１７０５号,,13,101,1020082,,,,,,,2024-10-22,1,,,,,ナナホシ,0
878,4010401185906,新規,0,2024-10-22,2024-10-22,株式会社Ｃｏｒａｌ,,株式会社,東京都,港区,南青山２丁目２番１５号,,13,103,1070062,,,,,,,2024-10-22,1,,,,,コーラル,0
879,4010403033641,新規,0,2024-10-22,2024-10-22,ファンプレー合同会社,,合同会社,東京都,港区,赤坂４丁目１４－４,,13,103,1070052,,,,,,,2024-10-22,1,,,,,ファンプレー,0
881,4010405023649,新規,0,2024-10-22,2024-10-22,一般社団法人３Ｅ＆Ｒ推進協会,,その他の設立登記法人,東京都,港区,虎ノ門１丁目１１番２号虎ノ門平和ビル４０１,,13,103,1050001,,,,,,,2024-10-22,1,,,,,スリーイーアンドアールスイシンキョウカイ,0
890,4010901056160,新規,0,2024-10-22,2024-10-22,株式会社サティスファイ,,株式会社,東京都,世田谷区,松原２丁目４３番７号,,13,112,1560043,,,,,,,2024-10-22,1,,,,,サティスファイ,0
891,4010905004685,新規,0,2024-10-22,2024-10-22,一般社団法人太子堂塾,,その他の設立登記法人,東京都,世田谷区,成城４丁目１２番１５号,,13,112,1570066,,,,,,,2024-10-22,1,,,,,タイシドウジュク,0
897,4011001165199,新規,0,2024-10-22,2024-10-22,株式会社クラウドアトラス,,株式会社,東京都,渋谷区,幡ヶ谷１丁目２番２号,,13,113,1510072,,,,,,,2024-10-22,1,,,,,クラウドアトラス,0
898,4011001165323,新規,0,2024-10-22,2024-10-22,株式会社ＯＡＳＩＳ,,株式会社,東京都,渋谷区,道玄坂２丁目２０番２６－２０６号,,13,113,1500043,,,,,,,2024-10-22,1,,,,,オアシス,0
899,4011001165348,新規,0,2024-10-22,2024-10-22,株式会社ＴＥＣＯＲＥ,,株式会社,東京都,渋谷区,本町４丁目３６番６号,,13,113,1510071,,,,,,,2024-10-22,1,,,,,テコア,0
901,4011003020170,新規,0,2024-10-22,2024-10-22,合同会社ＫＩＮＧＳ,,合同会社,東京都,渋谷区,道玄坂１丁目１０番８号渋谷道玄坂東急ビル２Ｆ－Ｃ,,13,113,1500043,,,,,,,2024-10-22,1,,,,,キングス,0
904,4011101109188,新規,0,2024-10-22,2024-10-22,株式会社ＴＦエージェント,,株式会社,東京都,新宿区,西新宿５丁目１番１－２８０２号,,13,104,1600023,,,,,,,2024-10-22,1,,,,,ティーエフエージェント,0
905,4011101109213,新規,0,2024-10-22,2024-10-22,株式会社グローバルマネジメント,,株式会社,東京都,新宿区,北新宿１丁目１０番７号ハイム町田３０３,,13,104,1690074,,,,,,,2024-10-22,1,,,,,グローバルマネジメント,0
909,4011105011200,新規,0,2024-10-22,2024-10-22,Ｔ‐ｇｒｏｕｐ税理士法人,,その他の設立登記法人,東京都,新宿区,新宿２丁目１５番２号岩本和裁ビル３Ｆ,,13,104,1600022,,,,,,,2024-10-22,1,,,,,ティーグループ,0
923,4013301053249,新規,0,2024-10-22,2024-10-22,ＭＳＲＵＢＹ株式会社,,株式会社,東京都,豊島区,北大塚２丁目７－７第５市田ビル５階,,13,116,1700004,,,,,,,2024-10-22,1,,,,,ミスルビー,0
926,4013402001180,新規,0,2024-10-22,2024-10-22,有限会社八王子自動車教習所,,有限会社,東京都,日野市,旭が丘１丁目１番地の２,,13,212,1910065,,,,,,,2024-10-22,1,,,,,ハチオウジジドウシャキョウシュウジョ,0
933,4020003027101,新規,0,2024-10-22,2024-10-22,合同会社ＴＨＥ．,,合同会社,神奈川県,横浜市中区,本牧満坂１２１番地５,,14,104,2310833,,,,,,,2024-10-22,1,,,,,ザドット,0
937,4021001083549,新規,0,2024-10-22,2024-10-22,株式会社デイ・エンジニアリング,,株式会社,神奈川県,綾瀬市,吉岡東４丁目５番２０号,,14,218,2521125,,,,,,,2024-10-22,1,,,,,デイエンジニアリング,0
952,4040001135787,新規,0,2024-10-22,2024-10-22,株式会社リアンホーム,,株式会社,千葉県,鎌ケ谷市,東鎌ケ谷２丁目１４番４３－３号,,12,224,2730104,,,,,,,2024-10-22,1,,,,,リアンホーム,0
955,4040003026019,新規,0,2024-10-22,2024-10-22,結い合同会社,,合同会社,千葉県,千葉市若葉区,小倉町１７６４番地２５,,12,104,2640007,,,,,,,2024-10-22,1,,,,,ユイ,0
956,4040003026027,新規,0,2024-10-22,2024-10-22,ＡＫＩＭＩＴＳＵ合同会社,,合同会社,千葉県,匝瑳市,西小笹字和曽根１０７３番地１０,,12,235,2892125,,,,,,,2024-10-22,1,,,,,アキミツ,0
959,4050001055571,新規,0,2024-10-22,2024-10-22,株式会社にじいろけあ,,株式会社,茨城県,守谷市,久保ケ丘４丁目８番地２,,08,224,3020104,,,,,,,2024-10-22,1,,,,,ニジイロケア,0
964,4060005010258,新規,0,2024-10-22,2024-10-22,医療法人五十六,,その他の設立登記法人,栃木県,宇都宮市,下砥上町６９１番地５,,09,201,3200852,,,,,,,2024-10-22,1,,,,,イソロク,0
965,4070001042287,新規,0,2024-10-22,2024-10-22,株式会社Ｃｈｕｍ’ｓ　ｃｈｏｉｃｅ,,株式会社,群馬県,高崎市,通町１４０番地１４のら猫ビル３Ｆ,,10,202,3700053,,,,,,,2024-10-22,1,,,,,チャムズチョイス,0
966,4070001042295,新規,0,2024-10-22,2024-10-22,ビジネスブレイン株式会社,,株式会社,群馬県,高崎市,下横町１０番地６,,10,202,3700837,,,,,,,2024-10-22,1,,,,,ビジネスブレイン,0
967,4070003005622,新規,0,2024-10-22,2024-10-22,合同会社伊香保マネージメント,,合同会社,群馬県,伊勢崎市,三室町４３２３番地１,,10,204,3792235,,,,,,,2024-10-22,1,,,,,イカホマネージメント,0
968,4080001026561,新規,0,2024-10-22,2024-10-22,株式会社ＪＰＢ,,株式会社,静岡県,静岡市葵区,呉服町２丁目８番３,,22,101,4200031,,,,,,,2024-10-22,1,,,,,ジェイピービー,0
970,4080101025075,新規,0,2024-10-22,2024-10-22,株式会社ＮＥＸＴ,,株式会社,静岡県,沼津市,下香貫柿原２８６１番地の１,,22,203,4100822,,,,,,,2024-10-22,1,,,,,ネクスト,0
973,4080401027523,新規,0,2024-10-22,2024-10-22,株式会社松井革工藝,,株式会社,静岡県,浜松市中央区,佐鳴台１丁目２４－９アシスト第２浜松マンション２０２号,,22,138,4328021,,,,,,,2024-10-22,1,,,,,マツイカワコウゲイ,0
981,4100001037928,新規,0,2024-10-22,2024-10-22,株式会社ＪＡＤＥ　ＫＩＴＣＨＥＮ,,株式会社,長野県,北安曇郡白馬村,大字北城３０２０番地８３７,,20,485,3999301,,,,,,,2024-10-22,1,,,,,ジェイドキッチン,0
982,4100001037936,新規,0,2024-10-22,2024-10-22,株式会社ａ‐ｃｉ,,株式会社,長野県,塩尻市,大門三番町６番９号,,20,215,3990733,,,,,,,2024-10-22,1,,,,,アーチ,0
986,4120001083788,新規,0,2024-10-22,2024-10-22,大和都市管財株式会社,,株式会社,大阪府,大阪市中央区,谷町１丁目５番７号,,27,128,5400012,,,,,,,2024-10-22,1,,,,,,0
991,4120001269494,新規,0,2024-10-22,2024-10-22,ＹＩＦＡＮ株式会社,,株式会社,大阪府,大阪市東淀川区,西淡路５丁目１番１号２階２０４－２号室,,27,114,5330031,,,,,,,2024-10-22,1,,,,,イファン,0
992,4120001269536,新規,0,2024-10-22,2024-10-22,株式会社プロジェクトトリガー,,株式会社,大阪府,大阪市北区,西天満５丁目１５－９,,27,127,5300047,,,,,,,2024-10-22,1,,,,,プロジェクトトリガー,0
993,4120001269552,新規,0,2024-10-22,2024-10-22,デイジーヘルステック株式会社,,株式会社,大阪府,大阪市北区,梅田１丁目１－３大阪駅前第３ビル２９階１－１－１号室,,27,127,5300001,,,,,,,2024-10-22,1,,,,,デイジーヘルステック,0
994,4120001269569,新規,0,2024-10-22,2024-10-22,Ｆｕｊｉ総合サービス株式会社,,株式会社,大阪府,大阪市東成区,大今里南１丁目２２番１４号,,27,115,5370013,,,,,,,2024-10-22,1,,,,,フジソウゴウサービス,0
995,4120003027801,新規,0,2024-10-22,2024-10-22,プロフェッショナルリンク＆ソリューション合同会社,,合同会社,大阪府,大阪市北区,堂島１丁目１番５号関電不動産梅田新道ビルＢ２Ｆ,,27,127,5300003,,,,,,,2024-10-22,1,,,,,プロフェッショナルリンクアンドソリューション,0
1013,4130001078184,新規,0,2024-10-22,2024-10-22,株式会社まるや,,株式会社,京都府,京都市伏見区,中島外山町１１６番地１３,,26,109,6128455,,,,,,,2024-10-22,1,,,,,マルヤ,0
1024,4140003021224,新規,0,2024-10-22,2024-10-22,合同会社大村事務所,,合同会社,兵庫県,神戸市中央区,磯辺通１丁目１番１８号カサベラ国際プラザビル７０７号室,,28,110,6510084,,,,,,,2024-10-22,1,,,,,オオムラジムショ,0
1029,4180001163733,新規,0,2024-10-22,2024-10-22,株式会社Ｍｙ　Ｎｅｘｔ．,,株式会社,愛知県,名古屋市緑区,亀が洞３丁目９０８番地,,23,114,4580804,,,,,,,2024-10-22,1,,,,,マイネクスト,0
1037,4190001031732,新規,0,2024-10-22,2024-10-22,織武株式会社,,株式会社,三重県,亀山市,安坂山町１７２３番地,,24,210,5190223,,,,,,,2024-10-22,1,,,,,オリタケ,0
1039,4200001043057,新規,0,2024-10-22,2024-10-22,Ｌｏｇｉｃ　ｐｒｏｃｅｅｄ株式会社,,株式会社,岐阜県,各務原市,前渡東町８丁目５８８番地,,21,213,5040922,,,,,,,2024-10-22,1,,,,,ロジックプロシード,0
1040,4200003006549,新規,0,2024-10-22,2024-10-22,合同会社のんのんねっと,,合同会社,岐阜県,中津川市,茄子川４０３番地の２３,,21,206,5099132,,,,,,,2024-10-22,1,,,,,ノンノンネット,0
1041,4220001026266,新規,0,2024-10-22,2024-10-22,株式会社ｏｎｅ,,株式会社,石川県,野々市市,横宮町１３番１号クロス１ビル２階,,17,212,9218817,,,,,,,2024-10-22,1,,,,,ワン,0
1042,4220001026282,新規,0,2024-10-22,2024-10-22,アール株式会社,,株式会社,石川県,金沢市,増泉２丁目１２番１２号,,17,201,9218025,,,,,,,2024-10-22,1,,,,,アール,0
1043,4220005008896,新規,0,2024-10-22,2024-10-22,一般社団法人さわやか会,,その他の設立登記法人,石川県,金沢市,此花町５番６号ライフ金沢第１ビル３０２号室,,17,201,9200852,,,,,,,2024-10-22,1,,,,,サワヤカカイ,0
1049,4240001063984,新規,0,2024-10-22,2024-10-22,株式会社ハダリツ,,株式会社,広島県,広島市佐伯区,屋代３丁目９番１４－５号秀友館,,34,108,7315146,,,,,,,2024-10-22,1,,,,,ハダリツ,0
1055,4290001107704,新規,0,2024-10-22,2024-10-22,株式会社Ｙｏ,,株式会社,福岡県,春日市,平田台１丁目２０番地,,40,218,8160812,,,,,,,2024-10-22,1,,,,,ヨー,0
1058,4290801030980,新規,0,2024-10-22,2024-10-22,株式会社ＩＫインシュア,,株式会社,福岡県,宮若市,磯光１８２７番地２２０,,40,226,8230004,,,,,,,2024-10-22,1,,,,,アイケーインシュア,0
1068,4350003004769,新規,0,2024-10-22,2024-10-22,ＭＫ’ｓクリエーション合同会社,,合同会社,宮崎県,東臼杵郡美郷町,北郷入下８１３番地,,45,431,8890902,,,,,,,2024-10-22,1,,,,,エムケイズクリエーション,0
1082,4420001018895,新規,0,2024-10-22,2024-10-22,株式会社Ｐｒｉｍｅ,,株式会社,青森県,五所川原市,字東町１７番地５五所川原商工会館１階,,02,205,0370052,,,,,,,2024-10-22,1,,,,,プライム,0
1085,4430001092907,新規,0,2024-10-22,2024-10-22,Ｌｕｃｋｙ　Ｋｉｒｉｎ株式会社,,株式会社,北海道,札幌市豊平区,豊平四条３丁目１番１号,,01,105,0620904,,,,,,,2024-10-22,1,,,,,ラッキーキリン,0
1086,4430001092915,新規,0,2024-10-22,2024-10-22,錦誠株式会社,,株式会社,北海道,札幌市豊平区,中の島一条９丁目４番１４－２０５号,,01,105,0620921,,,,,,,2024-10-22,1,,,,,キンセイ,0
1089,4430003016905,新規,0,2024-10-22,2024-10-22,合同会社ルミナス,,合同会社,北海道,日高郡新ひだか町,静内中野町３丁目４７番地の２２,,01,610,0560006,,,,,,,2024-10-22,1,,,,,ルミナス,0
1104,5010001249151,新規,0,2024-10-22,2024-10-22,株式会社Ｎａｖｔｔｏ,,株式会社,東京都,千代田区,神田須田町１丁目７番８号ＶＯＲＴ秋葉原ＩＶ２Ｆ,00136711,13,101,1010041,,,,,,,2024-10-22,1,,,,,ナビット,0
1105,5010001249184,新規,0,2024-10-22,2024-10-22,雲未来株式会社,,株式会社,東京都,千代田区,飯田橋２丁目１６－４九段下コート２Ｆ－２１１号室,,13,101,1020072,,,,,,,2024-10-22,1,,,,,クモミライ,0
1108,5010003045268,新規,0,2024-10-22,2024-10-22,合同会社トイツールアセット,,合同会社,東京都,中央区,勝どき４丁目６番２－２７１９号,,13,102,1040054,,,,,,,2024-10-22,1,,,,,トイツールアセット,0
1109,5010101016369,新規,0,2024-10-22,2024-10-22,株式会社Ｐｉｒｉｎａ,,株式会社,東京都,八王子市,東浅川町７７０番地１８,,13,201,1930834,,,,,,,2024-10-22,1,,,,,ピリナ,0
1117,5010403033649,新規,0,2024-10-22,2024-10-22,合同会社ＲＣ,,合同会社,東京都,港区,赤坂４丁目７番６号４０６Ａ,,13,103,1070052,,,,,,,2024-10-22,1,,,,,アールシー,0
1121,5010503007610,新規,0,2024-10-22,2024-10-22,合同会社ブリンク,,合同会社,東京都,台東区,上野６丁目１番６号御徒町グリーンハイツ１００５号,,13,106,1100005,,,,,,,2024-10-22,1,,,,,ブリンク,0
1123,5010601066145,新規,0,2024-10-22,2024-10-22,Ｇｅｎｏｍｉｃｓ　Ｊａｐａｎ株式会社,,株式会社,東京都,江東区,新木場１丁目１７番８号,,13,108,1360082,,,,,,,2024-10-22,1,,,,,ゲノミクスジャパン,0
1124,5010603011165,新規,0,2024-10-22,2024-10-22,合同会社東陽商事,,合同会社,東京都,江東区,東陽２丁目４－３９新東陽ビル４階５１号,,13,108,1350016,,,,,,,2024-10-22,1,,,,,トウヨウショウジ,0
1137,5011001165314,新規,0,2024-10-22,2024-10-22,株式会社ミニマムソフト,,株式会社,東京都,渋谷区,恵比寿西２丁目４番８号,,13,113,1500021,,,,,,,2024-10-22,1,,,,,ミニマムソフト,0
1140,5011005010714,新規,0,2024-10-22,2024-10-22,一般社団法人しあわせ子供クリニック,,その他の設立登記法人,東京都,目黒区,東山３丁目１９番２１号,,13,110,1530043,,,,,,,2024-10-22,1,,,,,シアワセコドモクリニック,0
1147,5011101109212,新規,0,2024-10-22,2024-10-22,株式会社Ｒ企画,,株式会社,東京都,新宿区,歌舞伎町２丁目４５－１７ＧＥＳＴ３３ビル３Ｆ,,13,104,1600021,,,,,,,2024-10-22,1,,,,,アールキカク,0
1148,5011101109220,新規,0,2024-10-22,2024-10-22,株式会社Ｋ．ＫＲＡＦＴ,,株式会社,東京都,新宿区,高田馬場４丁目４－２０クラウンハウス１０３,,13,104,1690075,,,,,,,2024-10-22,1,,,,,ケークラフト,0
1149,5011103015086,新規,0,2024-10-22,2024-10-22,合同会社ＧＲ,,合同会社,東京都,新宿区,西新宿６丁目２０番７－３７０８号,,13,104,1600023,,,,,,,2024-10-22,1,,,,,ジーアール,0
1151,5011201025879,新規,0,2024-10-22,2024-10-22,云星匯株式会社,,株式会社,東京都,中野区,東中野２丁目６－３－１Ｆ,,13,114,1640003,,,,,,,2024-10-22,1,,,,,ウンセイカイ,0
1154,5011305003013,新規,0,2024-10-22,2024-10-22,一般社団法人ＷＡＧＯＵ,,その他の設立登記法人,東京都,杉並区,阿佐谷北５丁目１番１６号,,13,115,1660001,,,,,,,2024-10-22,1,,,,,ワゴウ,0
1155,5011401026520,新規,0,2024-10-22,2024-10-22,錦澤華株式会社,,株式会社,東京都,板橋区,徳丸２丁目１８番１５号東武サンライズマンション２０１号室,,13,119,1750083,,,,,,,2024-10-22,1,,,,,キンサワカ,0
1170,5012401042391,新規,0,2024-10-22,2024-10-22,株式会社あいづのあいつ,,株式会社,東京都,三鷹市,上連雀１丁目１２－１７三鷹ビジネスパーク１号館Ｂ１ＦＭｕｓａｓｈｉｎｏＶａｌｌｅｙ内,,13,204,1810012,,,,,,,2024-10-22,1,,,,,アイヅノアイツ,0
1172,5012403006799,新規,0,2024-10-22,2024-10-22,ｗｏｒｋａｈｏｌｉｃｋｓ合同会社,,合同会社,東京都,調布市,上石原２丁目１０番地２４メゾンド２４－２０３,,13,208,1820035,,,,,,,2024-10-22,1,,,,,ワーカホリックス,0
1175,5013301053248,新規,0,2024-10-22,2024-10-22,ＳＥＩＤＡＩ株式会社,,株式会社,東京都,豊島区,池袋２丁目５４番５－１１０４号,,13,116,1710014,,,,,,,2024-10-22,1,,,,,セイダイ,0
1178,5020001159705,新規,0,2024-10-22,2024-10-22,株式会社ＳＳＳサービス,,株式会社,神奈川県,横浜市神奈川区,金港町５番１４号クアドリフォリオ８階,,14,102,2210056,,,,,,,2024-10-22,1,,,,,エスエスエスサービス,0
1181,5020003027091,新規,0,2024-10-22,2024-10-22,合同会社Ｂｌｏｏｍｉｎｇ　Ｈｅａｒｔ,,合同会社,神奈川県,横浜市青葉区,大場町３９１番地１７,,14,117,2250023,,,,,,,2024-10-22,1,,,,,ブルーミングハート,0
1205,5040001135877,新規,0,2024-10-22,2024-10-22,株式会社勝栄,,株式会社,千葉県,鎌ケ谷市,南初富４丁目１９番１１号,,12,224,2730123,,,,,,,2024-10-22,1,,,,,カツエイ,0
1206,5040001135885,新規,0,2024-10-22,2024-10-22,スノーフレーク株式会社,,株式会社,千葉県,千葉市若葉区,桜木北３丁目８番３９号,,12,104,2640029,,,,,,,2024-10-22,1,,,,,スノーフレーク,0
1207,5040002105350,新規,0,2024-10-22,2024-10-22,有限会社三浦製袋,,有限会社,千葉県,東金市,大豆谷１７０番地,,12,213,2830815,,,,,,,2024-10-22,1,,,,,,0
1210,5040003026026,新規,0,2024-10-22,2024-10-22,ＴＳＭＳ合同会社,,合同会社,千葉県,市川市,宮久保１丁目８－８,,12,203,2720822,,,,,,,2024-10-22,1,,,,,ティーエスエムエス,0
1216,5050001055521,新規,0,2024-10-22,2024-10-22,株式会社カイトネクスト,,株式会社,茨城県,土浦市,東真鍋町２番５号東真鍋Ｕテナント１Ｆ,,08,203,3000052,,,,,,,2024-10-22,1,,,,,カイトネクスト,0
1217,5050001055554,新規,0,2024-10-22,2024-10-22,株式会社Ｒｅ‐ＴＥＮ,,株式会社,茨城県,つくば市,みどりの２丁目２９番地５,,08,220,3050881,,,,,,,2024-10-22,1,,,,,レテン,0
1218,5050001055570,新規,0,2024-10-22,2024-10-22,株式会社東誠,,株式会社,茨城県,那珂市,菅谷１５７５－５ＮＫ第三ビル２０２,,08,226,3110105,,,,,,,2024-10-22,1,,,,,トウセイ,0
1220,5060001037584,新規,0,2024-10-22,2024-10-22,ＡＮＡＳ　ＴＲＡＤＩＮＧ株式会社,,株式会社,栃木県,栃木市,大平町北武井１１０９－２,,09,203,3294412,,,,,,,2024-10-22,1,,,,,アナストレーディング,0
1224,5070001042245,新規,0,2024-10-22,2024-10-22,株式会社ＩＲＩ,,株式会社,群馬県,伊勢崎市,境下渕名２８５７番地３,,10,204,3700103,,,,,,,2024-10-22,1,,,,,アイアールアイ,0
1225,5070001042286,新規,0,2024-10-22,2024-10-22,株式会社ファームアシスト,,株式会社,群馬県,沼田市,町田町６８３番地,,10,206,3780062,,,,,,,2024-10-22,1,,,,,ファームアシスト,0
1232,5080001026560,新規,0,2024-10-22,2024-10-22,株式会社ミュゲ,,株式会社,静岡県,静岡市葵区,唐瀬２丁目９番４８号,,22,101,4200937,,,,,,,2024-10-22,1,,,,,ミュゲ,0
1233,5080003003310,新規,0,2024-10-22,2024-10-22,合同会社ＳＫＪＡＰＡＮ,,合同会社,静岡県,島田市,旭２丁目１番３０号,,22,209,4270018,,,,,,,2024-10-22,1,,,,,エスケージャパン,0
1237,5080103003177,新規,0,2024-10-22,2024-10-22,合同会社楽福プランニング,,合同会社,静岡県,富士市,大淵２９２６－７,,22,210,4170801,,,,,,,2024-10-22,1,,,,,ラクフクプランニング,0
1238,5080401027522,新規,0,2024-10-22,2024-10-22,株式会社天竜空間伝送,,株式会社,静岡県,浜松市浜名区,西美薗３１０２番地,,22,139,4340033,,,,,,,2024-10-22,1,,,,,テンリュウクウカンデンソウ,0
1241,5090003002666,新規,0,2024-10-22,2024-10-22,合同会社ＣＢＡ,,合同会社,山梨県,大月市,駒橋３丁目２番１２号,,19,206,4010011,,,,,,,2024-10-22,1,,,,,シービーエー,0
1242,5100001037927,新規,0,2024-10-22,2024-10-22,株式会社ＢＭ,,株式会社,長野県,松本市,渚３丁目７－１３,,20,202,3900841,,,,,,,2024-10-22,1,,,,,ビーエム,0
1243,5100001037935,新規,0,2024-10-22,2024-10-22,株式会社テクノトラッシュ,,株式会社,長野県,松本市,大字和田８０１９番地,,20,202,3901242,,,,,,,2024-10-22,1,,,,,テクノトラッシュ,0
1244,5100001037943,新規,0,2024-10-22,2024-10-22,株式会社ＹＵ,,株式会社,長野県,下高井郡山ノ内町,大字佐野２５３４番地９０,,20,561,3810402,,,,,,,2024-10-22,1,,,,,ユー,0
1246,5100003007820,新規,0,2024-10-22,2024-10-22,合同会社ながのトータル看護ケア,,合同会社,長野県,松本市,大字岡田町５２７番地１０,,20,202,3900315,,,,,,,2024-10-22,1,,,,,ナガノトータルカンゴケア,0
1248,5110001038791,新規,0,2024-10-22,2024-10-22,株式会社ＴｗｏＳｅｅｄ,,株式会社,新潟県,村上市,瀬波温泉２丁目４番３５号,,15,212,9580037,,,,,,,2024-10-22,1,,,,,トゥーシード,0
1272,5120001268990,新規,0,2024-10-22,2024-10-22,株式会社Ｔ‐ＤＡＴ,,株式会社,大阪府,大阪市西区,北堀江１丁目１５－１９－２階,,27,106,5500014,,,,,,,2024-10-22,1,,,,,ティーダット,0
1273,5120001269493,新規,0,2024-10-22,2024-10-22,天恒株式会社,,株式会社,大阪府,大阪市生野区,生野西２丁目１番３３－２０９号,,27,116,5440024,,,,,,,2024-10-22,1,,,,,テンコウ,0
1274,5120001269535,新規,0,2024-10-22,2024-10-22,株式会社ｅｎｒｉｃｈ　ｔｅｃｈｎｏｌｏｇｙ,,株式会社,大阪府,大阪市北区,西天満５丁目１５－９,,27,127,5300047,,,,,,,2024-10-22,1,,,,,エンリッチテクノロジー,0
1275,5120001269543,新規,0,2024-10-22,2024-10-22,株式会社市,,株式会社,大阪府,交野市,倉治８丁目８番５号ＹＳ１号館１－２,,27,230,5760051,,,,,,,2024-10-22,1,,,,,イチ,0
1276,5120001269551,新規,0,2024-10-22,2024-10-22,株式会社ＮＯＭＩＮＡ　ＪＡＰＡＮ,,株式会社,大阪府,大阪市北区,梅田１丁目１－３大阪駅前第３ビル２９階１－１－１号室,,27,127,5300001,,,,,,,2024-10-22,1,,,,,ノミナジャパン,0
1277,5120001269576,新規,0,2024-10-22,2024-10-22,株式会社ＧＡＴＥ,,株式会社,大阪府,大阪市北区,梅田１丁目２番２号大阪駅前第２ビル１２－１２,,27,127,5300001,,,,,,,2024-10-22,1,,,,,ゲート,0
1278,5120001269618,新規,0,2024-10-22,2024-10-22,顔玉軒株式会社,,株式会社,大阪府,大阪市中央区,平野町４丁目７番８－５０６号,,27,128,5410046,,,,,,,2024-10-22,1,,,,,ヤンイュシャン,0
1279,5120001269626,新規,0,2024-10-22,2024-10-22,株式会社アブソリュート,,株式会社,大阪府,大阪市旭区,生江３丁目１１番１３号,,27,117,5350004,,,,,,,2024-10-22,1,,,,,アブソリュート,0
1280,5120001269634,新規,0,2024-10-22,2024-10-22,株式会社雅,,株式会社,大阪府,大阪市西区,南堀江１丁目３番１２－２７０４号,,27,106,5500015,,,,,,,2024-10-22,1,,,,,ミヤビ,0
1286,5120003027783,新規,0,2024-10-22,2024-10-22,合同会社旬天,,合同会社,大阪府,大阪市住吉区,長居西１丁目１２番２３号,,27,120,5580002,,,,,,,2024-10-22,1,,,,,シュンテン,0
1287,5120003027800,新規,0,2024-10-22,2024-10-22,Ｇｒａｎｄ　Ｃｏｌｏｒ合同会社,,合同会社,大阪府,大阪市中央区,南船場４丁目１３－８エステート心斎橋ビル７０２号,,27,128,5420081,,,,,,,2024-10-22,1,,,,,グランドカラー,0
1292,5120101070462,新規,0,2024-10-22,2024-10-22,Ｈ＆Ａ　Ｊａｐａｎ株式会社,,株式会社,大阪府,貝塚市,堀２丁目２２番９号,,27,208,5970015,,,,,,,2024-10-22,1,,,,,エイチアンドエイジャパン,0
1296,5120901049929,新規,0,2024-10-22,2024-10-22,株式会社カナソムニウム,,株式会社,大阪府,吹田市,新芦屋下１８番２２号,00136710,27,205,5650803,,,,,,,2024-10-22,1,,,,,カナソムニウム,0
1298,5122001038556,新規,0,2024-10-22,2024-10-22,ＧＤ国際株式会社,,株式会社,大阪府,大東市,諸福８丁目５番１号,,27,218,5740044,,,,,,,2024-10-22,1,,,,,ジーディーコクサイ,0
1301,5122003003021,新規,0,2024-10-22,2024-10-22,ＰＨＶ合同会社,,合同会社,大阪府,東大阪市,太平寺１丁目７－８－２０２号,,27,227,5770844,,,,,,,2024-10-22,1,,,,,ピーエィチヴィ,0
1305,5130005017212,新規,0,2024-10-22,2024-10-22,一般社団法人日本墨子研究会,,その他の設立登記法人,京都府,与謝郡与謝野町,字石川２４５６番地,,26,465,6292303,,,,,,,2024-10-22,1,,,,,ニホンボクシケンキュウカイ,0
1311,5140001136163,新規,0,2024-10-22,2024-10-22,株式会社陽建設,,株式会社,兵庫県,神戸市西区,玉津町今津５８３番地の１１,,28,111,6512128,,,,,,,2024-10-22,1,,,,,ヒナタケンセツ,0
1312,5140001136188,新規,0,2024-10-22,2024-10-22,株式会社ＲＥＤ　ＰＬＵＣＫ　ＬＩＮＥ,,株式会社,兵庫県,尼崎市,東園田町３丁目１６番地の１０ハイツアザレア３０２,,28,202,6610953,,,,,,,2024-10-22,1,,,,,レッドプラックライン,0
1316,5150001027618,新規,0,2024-10-22,2024-10-22,株式会社ピース一級建築士事務所,,株式会社,奈良県,奈良市,百楽園４丁目９番５号,,29,201,6310024,,,,,,,2024-10-22,1,,,,,ピースイッキュウケンチクシジムショ,0
1331,5180001163699,新規,0,2024-10-22,2024-10-22,とらいろ株式会社,,株式会社,愛知県,名古屋市中区,正木２丁目４－３ファミルド金山６０１号,,23,106,4600024,,,,,,,2024-10-22,1,,,,,トライロ,0
1332,5180001163708,新規,0,2024-10-22,2024-10-22,野々部技術士事務所株式会社,,株式会社,愛知県,知多郡美浜町,大字布土字中平井６０番地４,,23,446,4702401,,,,,,,2024-10-22,1,,,,,ノノベギジュツシジムショ,0
1333,5180001163732,新規,0,2024-10-22,2024-10-22,モビリティサポート株式会社,,株式会社,愛知県,名古屋市熱田区,尾頭町２番２２号,,23,109,4560017,,,,,,,2024-10-22,1,,,,,モビリティサポート,0
1334,5180001163757,新規,0,2024-10-22,2024-10-22,株式会社極楽,,株式会社,愛知県,名古屋市中村区,名駅４丁目２２番８号駅前横丁ビル１Ｆ,,23,105,4500002,,,,,,,2024-10-22,1,,,,,ゴクラク,0
1337,5180003027497,新規,0,2024-10-22,2024-10-22,合同会社ＫＤＳ,,合同会社,愛知県,名古屋市緑区,大清水３丁目８４５番地,,23,114,4580805,,,,,,,2024-10-22,1,,,,,ケイディエス,0
1338,5180003027530,新規,0,2024-10-22,2024-10-22,ＳＥＡＲＯＭ　ＡＬＬＩＥＫ合同会社,,合同会社,愛知県,名古屋市名東区,神丘町２丁目５１‐１,,23,115,4650083,,,,,,,2024-10-22,1,,,,,セアロンアリエク,0
1341,5180303006317,新規,0,2024-10-22,2024-10-22,合同会社プクハウス,,合同会社,愛知県,刈谷市,青山町１丁目１５９番地３,,23,210,4480014,,,,,,,2024-10-22,1,,,,,プクハウス,0
1347,5200001043056,新規,0,2024-10-22,2024-10-22,株式会社遊遊舎,,株式会社,岐阜県,大垣市,林町４丁目６４番地１－８０５,,21,202,5030015,,,,,,,2024-10-22,1,,,,,ユウユウシャ,0
1348,5200005013674,新規,0,2024-10-22,2024-10-22,一般社団法人全日本ヘリコプターサポート協会,,その他の設立登記法人,岐阜県,美濃加茂市,田島町３丁目２０番地７,,21,211,5050032,,,,,,,2024-10-22,1,,,,,ゼンニッポンヘリコプターサポートキョウカイ,0
1349,5220001026281,新規,0,2024-10-22,2024-10-22,株式会社ＨＬエステート,,株式会社,石川県,河北郡内灘町,字向陽台１丁目２３８番地２,,17,365,9200272,,,,,,,2024-10-22,1,,,,,エイチエルエステート,0
1356,5240001063926,新規,0,2024-10-22,2024-10-22,株式会社香,,株式会社,広島県,福山市,緑町１－３０,,34,207,7200804,,,,,,,2024-10-22,1,,,,,コウ,0
1357,5240003006908,新規,0,2024-10-22,2024-10-22,フクチカ合同会社,,合同会社,広島県,福山市,駅家町大字大橋１０３４番地１,,34,207,7201146,,,,,,,2024-10-22,1,,,,,フクチカ,0
1363,5280002000222,新規,0,2024-10-22,2024-10-22,有限会社井谷住研,,有限会社,島根県,松江市,上乃木３丁目５番６号,,32,201,6900015,,,,,,,2024-10-22,1,,,,,イタニジュウケン,0
1370,5290003015961,新規,0,2024-10-22,2024-10-22,Ｓｍｉｌｅ　Ｃｏｍｐａｎｙ合同会社,,合同会社,福岡県,宗像市,赤間１丁目１０番６号,,40,220,8114146,,,,,,,2024-10-22,1,,,,,スマイルカンパニー,0
1371,5290801030971,新規,0,2024-10-22,2024-10-22,新門司産業株式会社,,株式会社,福岡県,北九州市門司区,柳町４丁目４番１９号,,40,101,8000025,,,,,,,2024-10-22,1,,,,,シンモジサンギョウ,0
1372,5290803004866,新規,0,2024-10-22,2024-10-22,ＹＴ合同会社,,合同会社,福岡県,北九州市小倉南区,横代北町２丁目２５－２０,,40,107,8020821,,,,,,,2024-10-22,1,,,,,ワイティー,0
1379,5340003004637,新規,0,2024-10-22,2024-10-22,合同会社大来産業,,合同会社,鹿児島県,大島郡徳之島町,亀津７５３８番地１,,46,530,8917101,,,,,,,2024-10-22,1,,,,,ダイキサンギョウ,0
1386,5360001034345,新規,0,2024-10-22,2024-10-22,株式会社ＯＮ　ＴＨＥ　ＳＴＲＥＥＴ,,株式会社,沖縄県,島尻郡与那原町,字東浜７８番地の１５サウスポートヒル２０５,,47,348,9011304,,,,,,,2024-10-22,1,,,,,オンザストリート,0
1387,5360003014403,新規,0,2024-10-22,2024-10-22,合同会社Ｏｎｅ．Ｋ,,合同会社,沖縄県,島尻郡与那原町,字与那原６１番地２,,47,348,9011303,,,,,,,2024-10-22,1,,,,,ワンケイ,0
1388,5370001051835,新規,0,2024-10-22,2024-10-22,株式会社叶,,株式会社,宮城県,仙台市泉区,松森字明神３０番地の５０－１０５,,04,105,9813111,,,,,,,2024-10-22,1,,,,,カナエ,0
1389,5370003006787,新規,0,2024-10-22,2024-10-22,合同会社ビーウィズ,,合同会社,宮城県,仙台市太白区,向山４丁目１８番７号ＯＦＦＩＣＥｃａｎｖａｓ１０５,,04,104,9820841,,,,,,,2024-10-22,1,,,,,ビーウィズ,0
1396,5390003002297,新規,0,2024-10-22,2024-10-22,エイチアール合同会社,,合同会社,山形県,山形市,本町２丁目４－１５アーチスセンゾクヤ３階,,06,201,9900043,,,,,,,2024-10-22,1,,,,,エイチアール,0
1397,5400001016834,新規,0,2024-10-22,2024-10-22,株式会社ビルド・ワークス,,株式会社,岩手県,下閉伊郡山田町,織笠第２２地割３番地,,03,482,0281361,,,,,,,2024-10-22,1,,,,,ビルドワークス,0
1401,5420001018903,新規,0,2024-10-22,2024-10-22,株式会社エアグロ,,株式会社,青森県,青森市,大字築木館字岩瀬５番地,,02,201,0300925,,,,,,,2024-10-22,1,,,,,エアグロ,0
1404,5430001092906,新規,0,2024-10-22,2024-10-22,株式会社アルカミコ,,株式会社,北海道,札幌市南区,真駒内緑町４丁目１番２－３０３号,,01,106,0050013,,,,,,,2024-10-22,1,,,,,アルカミコ,0
1405,5430001092914,新規,0,2024-10-22,2024-10-22,株式会社アドウォーク,,株式会社,北海道,札幌市手稲区,星置一条２丁目１番１,,01,109,0060851,,,,,,,2024-10-22,1,,,,,アドウォーク,0
1406,5430003016904,新規,0,2024-10-22,2024-10-22,ＫＪ　ＨＯＵＳＥパートナーズ合同会社,,合同会社,北海道,札幌市豊平区,月寒西一条８丁目４番２２－３０１号,,01,105,0620021,,,,,,,2024-10-22,1,,,,,ケイジェイハウスパートナーズ,0
1407,5430003016912,新規,0,2024-10-22,2024-10-22,合同会社乞菜,,合同会社,北海道,札幌市厚別区,厚別南５丁目１２番１０号,,01,108,0040022,,,,,,,2024-10-22,1,,,,,コウナ,0
1410,5450003002547,新規,0,2024-10-22,2024-10-22,合同会社リサラセラ,,合同会社,北海道,旭川市,永山北二条１１丁目２０番地の１３,,01,204,0798452,,,,,,,2024-10-22,1,,,,,リサラセラ,0
1418,5700150057236,新規,0,2024-10-22,2015-10-09,ＵＡゼンセンクラレ労動組合西条支部,,その他,愛媛県,西条市,朔日市８９２,,38,206,7930027,,,,,,,2015-10-09,1,,,,,ユーエーゼンセンクラレロウドウクミアイサイジヨウシブ,0
1432,6010001249159,新規,0,2024-10-22,2024-10-22,株式会社ファストコム,,株式会社,東京都,千代田区,神田佐久間町２丁目１８番地１,,13,101,1010025,,,,,,,2024-10-22,1,,,,,ファストコム,0
1433,6010001249175,新規,0,2024-10-22,2024-10-22,ＤＳＣ開発株式会社,,株式会社,東京都,千代田区,霞が関３丁目３番１号尚友会館６階,,13,101,1000013,,,,,,,2024-10-22,1,,,,,ディーエスシーカイハツ,0
1437,6010003045176,新規,0,2024-10-22,2024-10-22,合同会社ＷＡＮＡ‐ＭＩ,,合同会社,東京都,千代田区,神田須田町１丁目７番１号ウィン神田高橋ビル４０７,,13,101,1010041,,,,,,,2024-10-22,1,,,,,ワナミ,0
1438,6010003045226,新規,0,2024-10-22,2024-10-22,合同会社ノスティモ,,合同会社,東京都,文京区,小石川４丁目２１番７－２０４号,,13,105,1120002,,,,,,,2024-10-22,1,,,,,ノスティモ,0
1439,6010003045275,新規,0,2024-10-22,2024-10-22,ｃｏｐｅｒｎｉｃｕｓ合同会社,,合同会社,東京都,千代田区,九段北１丁目９番５号,,13,101,1020073,,,,,,,2024-10-22,1,,,,,コペルニクス,0
1450,6010401185854,新規,0,2024-10-22,2024-10-22,株式会社ＤＭＺ,,株式会社,東京都,港区,浜松町２丁目７番１７号イーグル浜松町天翔オフィス浜松町大門１０階１０４１,,13,103,1050013,,,,,,,2024-10-22,1,,,,,ディーエムジー,0
1455,6010405023614,新規,0,2024-10-22,2024-10-22,一般社団法人三田ヨット倶楽部,,その他の設立登記法人,東京都,港区,三田２丁目１５番４５号,,13,103,1080073,,,,,,,2024-10-22,1,,,,,ミタヨットクラブ,0
1458,6010601066128,新規,0,2024-10-22,2024-10-22,新奕株式会社,,株式会社,東京都,墨田区,両国２丁目１７番１７号両国ダイヤハイツ２０２－８号室,,13,107,1300026,,,,,,,2024-10-22,1,,,,,シンエキ,0
1463,6010703007401,新規,0,2024-10-22,2024-10-22,合同会社ＳＵＢＡＲＵ,,合同会社,東京都,品川区,小山６丁目２－５,,13,109,1420062,,,,,,,2024-10-22,1,,,,,スバル,0
1479,6011101108915,新規,0,2024-10-22,2024-10-22,株式会社ティアラ,,株式会社,東京都,新宿区,新小川町１丁目１６クロスレジデンス飯田橋２０７号,,13,104,,,,,,,,2024-10-22,1,,,,,ティアラ,0
1482,6011301030101,新規,0,2024-10-22,2024-10-22,株式会社ｃｏｍｏｄｏ　ｍｕｓｉｃ,,株式会社,東京都,杉並区,和泉１丁目５０番３号,,13,115,1680063,,,,,,,2024-10-22,1,,,,,コモドミュージック,0
1486,6011603004488,新規,0,2024-10-22,2024-10-22,合同会社アカウンティングプロサポート,,合同会社,東京都,練馬区,富士見台３丁目３９番１１号,,13,120,1770034,,,,,,,2024-10-22,1,,,,,アカウンティングプロサポート,0
1487,6011703004017,新規,0,2024-10-22,2024-10-22,合同会社アーチザン,,合同会社,東京都,江戸川区,北小岩６丁目４０番５号エンゼルハイム２０１,,13,123,1330051,,,,,,,2024-10-22,1,,,,,アーチザン,0
1489,6012301014127,新規,0,2024-10-22,2024-10-22,株式会社ＧＦＣ,,株式会社,東京都,町田市,原町田４丁目１２番２３号１０１,,13,209,1940013,,,,,,,2024-10-22,1,,,,,ジーエフシー,0
1494,6012803003528,新規,0,2024-10-22,2024-10-22,ＭＪ合同会社,,合同会社,東京都,武蔵村山市,三ツ藤１丁目３－１０,,13,223,2080021,,,,,,,2024-10-22,1,,,,,エムジェイ,0
1495,6012803003536,新規,0,2024-10-22,2024-10-22,合同会社ゆい,,合同会社,東京都,立川市,幸町６丁目２９番２８号アップルハウス１０１号室,,13,202,1900002,,,,,,,2024-10-22,1,,,,,ユイ,0
1499,6020001159695,新規,0,2024-10-22,2024-10-22,株式会社Ｋ‐ＦＩＶＥ,,株式会社,神奈川県,横浜市金沢区,東朝比奈３丁目１５番１－４２５号,,14,108,2360033,,,,,,,2024-10-22,1,,,,,ケイファイブ,0
1500,6020001159704,新規,0,2024-10-22,2024-10-22,株式会社一宮興業,,株式会社,神奈川県,横浜市旭区,白根１丁目１７番２０－１０１号,,14,112,2410005,,,,,,,2024-10-22,1,,,,,イチミヤコウギョウ,0
1504,6020003027108,新規,0,2024-10-22,2024-10-22,合同会社ケンテック,,合同会社,神奈川県,横浜市鶴見区,駒岡１丁目１２番３１－２０２号,,14,101,2300071,,,,,,,2024-10-22,1,,,,,ケンテック,0
1530,6040001135892,新規,0,2024-10-22,2024-10-22,株式会社うるおい,,株式会社,千葉県,松戸市,日暮３丁目１０番地の２－１０３号,,12,207,2702253,,,,,,,2024-10-22,1,,,,,ウルオイ,0
1533,6040003025984,新規,0,2024-10-22,2024-10-22,合同会社三浦笑店,,合同会社,千葉県,千葉市緑区,おゆみ野中央２丁目１３番地１５,,12,105,2660032,,,,,,,2024-10-22,1,,,,,ミウラショウテン,0
1534,6040003026017,新規,0,2024-10-22,2024-10-22,合同会社我久刺しゅう,,合同会社,千葉県,東金市,八坂台４丁目９番地１０,,12,213,2830801,,,,,,,2024-10-22,1,,,,,ガクシシュウ,0
1537,6050003008749,新規,0,2024-10-22,2024-10-22,合同会社ＫＩＣＣ,,合同会社,茨城県,水戸市,大工町２丁目２番１４号,,08,201,3100031,,,,,,,2024-10-22,1,,,,,ケーアイシーシー,0
1566,6120001269410,新規,0,2024-10-22,2024-10-22,株式会社ＨａｌｅＲｅａ,,株式会社,大阪府,大阪市平野区,長吉長原西１丁目３番１３－２０４号,,27,126,5470015,,,,,,,2024-10-22,1,,,,,ハレレア,0
1568,6120003027782,新規,0,2024-10-22,2024-10-22,合同会社ベルウッド,,合同会社,大阪府,大阪市中央区,南船場１丁目７番８－６０４号,,27,128,5420081,,,,,,,2024-10-22,1,,,,,ベルウッド,0
1569,6120003027790,新規,0,2024-10-22,2024-10-22,合同会社勝学,,合同会社,大阪府,大阪市北区,梅田１丁目２番２号大阪駅前第２ビル１２－１２,,27,127,5300001,,,,,,,2024-10-22,1,,,,,カチガク,0
1580,6122001038539,新規,0,2024-10-22,2024-10-22,株式会社ファミール,,株式会社,大阪府,東大阪市,西堤通東一丁目１番１号大発ビル６２２号室,,27,227,5770042,,,,,,,2024-10-22,1,,,,,ファミール,0
1581,6122001038547,新規,0,2024-10-22,2024-10-22,株式会社フルーヴ,,株式会社,大阪府,東大阪市,新池島町３丁目５番６号,,27,227,5798065,,,,,,,2024-10-22,1,,,,,フルーヴ,0
1582,6122001038555,新規,0,2024-10-22,2024-10-22,株式会社ホーコウ,,株式会社,大阪府,大東市,曙町３番２５号,,27,218,5740076,,,,,,,2024-10-22,1,,,,,ホーコウ,0
1588,6140001136162,新規,0,2024-10-22,2024-10-22,きずなラボ株式会社,,株式会社,兵庫県,尼崎市,東園田町６丁目９８番地の１７,,28,202,6610953,,,,,,,2024-10-22,1,,,,,キズナラボ,0
1589,6140001136170,新規,0,2024-10-22,2024-10-22,株式会社フジヤマ貨物仲介,,株式会社,兵庫県,神戸市中央区,明石町３０,,28,110,6500037,,,,,,,2024-10-22,1,,,,,フジヤマカモツチュウカイ,0
1591,6140003021222,新規,0,2024-10-22,2024-10-22,Ｔｒｕｓｔ‐Ｄｅｖｅｌｏｐｍｅｎｔ合同会社,,合同会社,兵庫県,神戸市灘区,友田町３丁目２－２－１０１,,28,102,6570035,,,,,,,2024-10-22,1,,,,,トラストディベロップメント,0
1592,6140005027242,新規,0,2024-10-22,2024-10-22,一般社団法人高工賃,,その他の設立登記法人,兵庫県,姫路市,広畑区東新町３丁目３番地の２金海福祉ビルディング広畑３０９号,,28,201,6711121,,,,,,,2024-10-22,1,,,,,コウコウチン,0
1595,6170003002112,新規,0,2024-10-22,2024-10-22,合同会社ＵＭＥ,,合同会社,和歌山県,和歌山市,松ケ丘１丁目５番９号,,30,201,6410033,,,,,,,2024-10-22,1,,,,,ユーエムイー,0
1602,6180001163707,新規,0,2024-10-22,2024-10-22,ＡＯ　ｓｃｉｓｓｏｒｓ株式会社,,株式会社,愛知県,名古屋市天白区,島田黒石１００８番地,,23,116,4680028,,,,,,,2024-10-22,1,,,,,アオシザーズ,0
1603,6180001163731,新規,0,2024-10-22,2024-10-22,株式会社タクミテクニック,,株式会社,愛知県,名古屋市中川区,富田町大字千音寺字東屋敷３９８７番地の１,,23,110,4540971,,,,,,,2024-10-22,1,,,,,タクミテクニック,0
1604,6180001163756,新規,0,2024-10-22,2024-10-22,株式会社ＴＲＹ,,株式会社,愛知県,名古屋市中区,新栄１丁目２４番１５号ブルームライフ新栄１００６号,,23,106,4600007,,,,,,,2024-10-22,1,,,,,トライ,0
1608,6180003027463,新規,0,2024-10-22,2024-10-22,合同会社ＦＲＯＧ,,合同会社,愛知県,名古屋市西区,花の木３丁目１６番２０号,,23,104,4510062,,,,,,,2024-10-22,1,,,,,フロッグ,0
1612,6190001031747,新規,0,2024-10-22,2024-10-22,ミキミライホールディングス株式会社,,株式会社,三重県,三重郡川越町,大字当新田３５５番地１,,24,344,5108111,,,,,,,2024-10-22,1,,,,,ミキミライホールディングス,0
1615,6200001043055,新規,0,2024-10-22,2024-10-22,株式会社国輝,,株式会社,岐阜県,本巣市,木知原８０７番地１,,21,218,5011234,,,,,,,2024-10-22,1,,,,,コッキ,0
1618,6230005009413,新規,0,2024-10-22,2024-10-22,特定非営利活動法人おるたなとやま,,その他の設立登記法人,富山県,富山市,羽根１２８番地,,16,201,9300864,,,,,,,2024-10-22,1,,,,,オルタナトヤマ,0
1626,6240003006907,新規,0,2024-10-22,2024-10-22,合同会社ＦｕｌｌＢｅｔ,,合同会社,広島県,広島市安佐南区,中須１丁目２０番１４－９０５号,,34,105,7310121,,,,,,,2024-10-22,1,,,,,フルベット,0
1627,6240005015848,新規,0,2024-10-22,2024-10-22,一般社団法人広島芸術文化支援協会,,その他の設立登記法人,広島県,広島市西区,都町２４番３－２０１号,,34,104,7330023,,,,,,,2024-10-22,1,,,,,ヒロシマゲイジュツブンカシエンキョウカイ,0
1628,6250001020859,新規,0,2024-10-22,2024-10-22,セイショー株式会社,,株式会社,山口県,宇部市,港町１丁目１５番１０,,35,202,7550027,,,,,,,2024-10-22,1,,,,,セイショー,0
1635,6290001107685,新規,0,2024-10-22,2024-10-22,ベスト・キッド株式会社,,株式会社,福岡県,宗像市,くりえいと２丁目３番１号,,40,220,8114184,,,,,,,2024-10-22,1,,,,,ベストキッド,0
1636,6290001107702,新規,0,2024-10-22,2024-10-22,株式会社ＳＫＵ,,株式会社,福岡県,飯塚市,柏の森１３番地６９,,40,205,8200011,,,,,,,2024-10-22,1,,,,,エスケーユー,0
1637,6290001107710,新規,0,2024-10-22,2024-10-22,株式会社みらい,,株式会社,福岡県,福岡市博多区,博多駅南２丁目３番２号４Ｆ,,40,132,8120016,,,,,,,2024-10-22,1,,,,,ミライ,0
1638,6290003015960,新規,0,2024-10-22,2024-10-22,トータルサポート企画合同会社,,合同会社,福岡県,福岡市西区,福重３丁目８番１７号オリエントハイツ新室見ＩＩ－２０１,00136715,40,135,8190022,,,,,,,2024-10-22,1,,,,,トータルサポートキカク,0
1639,6290801030979,新規,0,2024-10-22,2024-10-22,Ａ‐ＨＯＰＥ株式会社,,株式会社,福岡県,宮若市,宮田２５１７番２号,,40,226,8230011,,,,,,,2024-10-22,1,,,,,エイホープ,0
1654,6360001034344,新規,0,2024-10-22,2024-10-22,株式会社築,,株式会社,沖縄県,浦添市,大平１丁目７番９号,,47,208,9012113,,,,,,,2024-10-22,1,,,,,キズク,0
1655,6360003014410,新規,0,2024-10-22,2024-10-22,合同会社又吉組,,合同会社,沖縄県,名護市,港１丁目１２番１－３０１号渡久地アパート,,47,209,9050014,,,,,,,2024-10-22,1,,,,,マタヨシグミ,0
1663,6380001001433,新規,0,2024-10-22,2024-10-22,福島スーパー設備株式会社,,株式会社,福島県,福島市,瀬上町字薬師前２３番地の２,,07,201,9600101,,,,,,,2024-10-22,1,,,,,フクシマスーパーセツビ,0
1664,6380001014567,新規,0,2024-10-22,2024-10-22,株式会社エビスヤ,,株式会社,福島県,いわき市,平字田町３６番地の５,,07,204,9708026,,,,,,,2024-10-22,1,,,,,エビスヤ,0
1665,6380001034846,新規,0,2024-10-22,2024-10-22,株式会社福田創建,,株式会社,福島県,郡山市,富久山町久保田字中台１０９－５,,07,203,9638071,,,,,,,2024-10-22,1,,,,,フクダソウケン,0
1670,6420001018902,新規,0,2024-10-22,2024-10-22,株式会社ｉｃｈｉｄａｉ,,株式会社,青森県,青森市,花園２丁目１５番３号,,02,201,0300966,,,,,,,2024-10-22,1,,,,,イチダイ,0
1675,6430003016894,新規,0,2024-10-22,2024-10-22,合同会社Ｊ・ＳＥＧ,,合同会社,北海道,札幌市北区,篠路八条１丁目２番１３号,,01,102,0028028,,,,,,,2024-10-22,1,,,,,ジェイセグ,0
1676,6430003016903,新規,0,2024-10-22,2024-10-22,合同会社クリエイティブテキスト,,合同会社,北海道,札幌市中央区,南二条西３丁目１２番５号「Ｋ２ＳＱＵＡＲＥ」７Ｆ,,01,101,0600062,,,,,,,2024-10-22,1,,,,,クリエイティブテキスト,0
1677,6430003016911,新規,0,2024-10-22,2024-10-22,パルメックス合同会社,,合同会社,北海道,札幌市北区,北二十六条西３丁目２番２２号,,01,102,0010026,,,,,,,2024-10-22,1,,,,,パルメックス,0
1681,6480001012627,新規,0,2024-10-22,2024-10-22,株式会社貝伸,,株式会社,徳島県,徳島市,南田宮４丁目３番４７号,,36,201,7700004,,,,,,,2024-10-22,1,,,,,カイシン,0
1682,6490001010893,新規,0,2024-10-22,2024-10-22,株式会社ＢＯＧＡ,,株式会社,高知県,高知市,葛島４丁目６番２７号アリビオ葛島２０１,,39,201,7818121,,,,,,,2024-10-22,1,,,,,ボガ,0
1686,6700150127475,新規,0,2024-10-22,2024-10-16,宮城県ＤＸスタートアップ創出イベント実行委員会,,その他,宮城県,仙台市青葉区,本町３丁目８－１,,04,101,9800014,,,,,,,2024-10-16,1,,,,,ミヤギケンデイーエツクススタートアツプソウシユツイベントジツコウイインカイ,0
1698,7010001249133,新規,0,2024-10-22,2024-10-22,日本発達支援基金株式会社,,株式会社,東京都,千代田区,丸の内３丁目２番２号丸の内二重橋ビル２階・３階,,13,101,1000005,,,,,,,2024-10-22,1,,,,,ニホンハッタツシエンキキン,0
1699,7010001249158,新規,0,2024-10-22,2024-10-22,ＳｔｒａｔＡｓｐｉｒｅ　Ｊａｐａｎ株式会社,,株式会社,東京都,中央区,銀座１丁目１２番４号Ｎ＆Ｅ－ＢＬＤ．７階,,13,102,1040061,,,,,,,2024-10-22,1,,,,,ストラタスパイアジャパン,0
1700,7010001249174,新規,0,2024-10-22,2024-10-22,ＳＨＩＮ株式会社,,株式会社,東京都,千代田区,永田町２丁目９－６,,13,101,1000014,,,,,,,2024-10-22,1,,,,,シン,0
1701,7010001249208,新規,0,2024-10-22,2024-10-22,オラクル・コスメティック・ジャパン株式会社,,株式会社,東京都,中央区,入船２丁目５番６号,,13,102,1040042,,,,,,,2024-10-22,1,,,,,オラクルコスメティックジャパン,0
1702,7010001249216,新規,0,2024-10-22,2024-10-22,株式会社ＧＥＮ,,株式会社,東京都,中央区,日本橋兜町５番１号兜町第１平和ビル３階,,13,102,1030026,,,,,,,2024-10-22,1,,,,,ゲン,0
1703,7010001249249,新規,0,2024-10-22,2024-10-22,株式会社Ａｔｌａ,,株式会社,東京都,千代田区,神田和泉町１番地６－１６ヤマトビル４０５,,13,101,1010024,,,,,,,2024-10-22,1,,,,,アトラ,0
1706,7010005038953,新規,0,2024-10-22,2024-10-22,コモンドラゴン労働者協同組合,,その他の設立登記法人,東京都,中央区,月島２丁目１４番１４号,,13,102,1040052,,,,,,,2024-10-22,1,,,,,コモンドラゴンロウドウシャ,0
1712,7010401185804,新規,0,2024-10-22,2024-10-22,株式会社ＳｕｎＰｕｔ,,株式会社,東京都,港区,高輪２丁目１７番１２－９０６号,,13,103,1080074,,,,,,,2024-10-22,1,,,,,サンプット,0
1713,7010401185911,新規,0,2024-10-22,2024-10-22,Ｋｏｒｅａｎ　Ａｉｒ　Ａｉｒｐｏｒｔ　Ｓｅｒｖｉｃｅ株式会社,,株式会社,東京都,港区,芝３丁目４番１５号,,13,103,1050014,,,,,,,2024-10-22,1,,,,,コリアンエアーエアポートサービスジャパン,0
1714,7010401185944,新規,0,2024-10-22,2024-10-22,株式会社ＳＸ　Ｇｒｏｕｐ,,株式会社,東京都,港区,赤坂９丁目７番１号,,13,103,1070052,,,,,,,2024-10-22,1,,,,,エスエックスグループ,0
1716,7010403033622,新規,0,2024-10-22,2024-10-22,合同会社ｐｈｏｔｏｎ,,合同会社,東京都,港区,浜松町２丁目２番１５号浜松町ダイヤビル２Ｆ合同会社ｐｈｏｔｏｎ,,13,103,1050013,,,,,,,2024-10-22,1,,,,,フォトン,0
1717,7010403033647,新規,0,2024-10-22,2024-10-22,合同会社なかたにコンサルタント,,合同会社,東京都,港区,北青山１丁目３番１号アールキューブ青山３階,,13,103,1070061,,,,,,,2024-10-22,1,,,,,ナカタニコンサルタント,0
1718,7010403033655,新規,0,2024-10-22,2024-10-22,ＭＦ４ＪＰＮ２合同会社,,合同会社,東京都,港区,虎ノ門３丁目２２番１０－２０１号,,13,103,1050001,,,,,,,2024-10-22,1,,,,,エムエフフォージェイピーエヌツー,0
1720,7010501053043,新規,0,2024-10-22,2024-10-22,株式会社晴プロジェクト,,株式会社,東京都,台東区,竜泉１丁目９番１０号,,13,106,1100012,,,,,,,2024-10-22,1,,,,,ハルプロジェクト,0
1721,7010501053076,新規,0,2024-10-22,2024-10-22,株式会社Ｎｅｘｔ,,株式会社,東京都,台東区,柳橋１丁目１３－４浅草橋丹羽ビルＢ１階,,13,106,1110052,,,,,,,2024-10-22,1,,,,,ネクスト,0
1727,7010603011163,新規,0,2024-10-22,2024-10-22,ＰＡＭ合同会社,,合同会社,東京都,江東区,亀戸４丁目５２番２号,,13,108,1360071,,,,,,,2024-10-22,1,,,,,ピーエーエム,0
1731,7010901056182,新規,0,2024-10-22,2024-10-22,株式会社Ｐａｔｈａｇｅ,,株式会社,東京都,世田谷区,成城１丁目１４番３４－５１１号,,13,112,1570066,,,,,,,2024-10-22,1,,,,,パサージュ,0
1739,7011001165329,新規,0,2024-10-22,2024-10-22,Ｒｅｐｒｏｃｅｌｌｓ株式会社,,株式会社,東京都,渋谷区,南平台町１２－６－３０１,,13,113,1500036,,,,,,,2024-10-22,1,,,,,レプロセル,0
1740,7011001165337,新規,0,2024-10-22,2024-10-22,株式会社マッシュ・アンド・キー,,株式会社,東京都,渋谷区,恵比寿西１丁目３３番６号１Ｆ,,13,113,1500021,,,,,,,2024-10-22,1,,,,,マッシュアンドキー,0
1748,7011105011206,新規,0,2024-10-22,2024-10-22,相模原ロジ一般社団法人,,その他の設立登記法人,東京都,新宿区,四谷２丁目９番地１５東京ユナイテッド綜合事務所内,,13,104,1600004,,,,,,,2024-10-22,1,,,,,サガミハラロジ,0
1750,7011303005315,新規,0,2024-10-22,2024-10-22,合同会社ＴＯＭＯＮＩ,,合同会社,東京都,杉並区,成田東２丁目３９－２７グランシュテル杉並４０５,,13,115,1660015,,,,,,,2024-10-22,1,,,,,トモニ,0
1751,7011401026519,新規,0,2024-10-22,2024-10-22,聚財株式会社,,株式会社,東京都,板橋区,南町７－４雨佳ビル５階,,13,119,1730027,,,,,,,2024-10-22,1,,,,,シュウザイ,0
1755,7011601028141,新規,0,2024-10-22,2024-10-22,株式会社アドバンス,,株式会社,東京都,練馬区,谷原４丁目１６番１号,,13,120,1770032,,,,,,,2024-10-22,1,,,,,アドバンス,0
1761,7012403006806,新規,0,2024-10-22,2024-10-22,合同会社トゥッティ駐車場,,合同会社,東京都,稲城市,向陽台６丁目１５番地の１,,13,225,2060803,,,,,,,2024-10-22,1,,,,,トゥッティチュウシャジョウ,0
1770,7013301053188,新規,0,2024-10-22,2024-10-22,株式会社Ｃｈｅｒｒｙ　ｏｎ,,株式会社,東京都,豊島区,駒込７丁目１３番１号,,13,116,1700003,,,,,,,2024-10-22,1,,,,,チェリーオン,0
1771,7013301053262,新規,0,2024-10-22,2024-10-22,株式会社Ｇａｎｇｅｓ　Ｍａｎａｇｅｍｅｎｔ,,株式会社,東京都,豊島区,高田３丁目７番９号花輪ビル３階,,13,116,1710033,,,,,,,2024-10-22,1,,,,,ガンジスマネジメント,0
1777,7020001159678,新規,0,2024-10-22,2024-10-22,エイチエスグループ株式会社,,株式会社,神奈川県,横浜市神奈川区,鶴屋町２丁目２３番地２,,14,102,2210835,,,,,,,2024-10-22,1,,,,,エイチエスグループ,0
1778,7020001159703,新規,0,2024-10-22,2024-10-22,株式会社ゼロクロ,,株式会社,神奈川県,川崎市川崎区,中瀬３丁目２０番１７－６０２号,,14,131,2100818,,,,,,,2024-10-22,1,,,,,ゼロクロ,0
1785,7021001083570,新規,0,2024-10-22,2024-10-22,株式会社シンフォニアート,,株式会社,神奈川県,平塚市,菫平１０番２０号,,14,203,2540822,,,,,,,2024-10-22,1,,,,,シンフォニアート,0
1787,7021003015126,新規,0,2024-10-22,2024-10-22,ウォーターライン合同会社,,合同会社,神奈川県,厚木市,温水１６９３－６,,14,212,2430033,,,,,,,2024-10-22,1,,,,,ウォーターライン,0
1804,7040001135842,新規,0,2024-10-22,2024-10-22,エレロジ株式会社,,株式会社,千葉県,流山市,おおたかの森東２丁目１３－３オーベルグランディオおおたかの森１０５,,12,220,2700138,,,,,,,2024-10-22,1,,,,,エレロジ,0
1805,7040001135883,新規,0,2024-10-22,2024-10-22,スリークガーデン株式会社,,株式会社,千葉県,我孫子市,中峠台８番地の１１,,12,222,2701128,,,,,,,2024-10-22,1,,,,,スリークガーデン,0
1822,7070001042292,新規,0,2024-10-22,2024-10-22,株式会社ＩＦＯＬＬＯＷＳ,,株式会社,群馬県,高崎市,岩鼻町２４３番地３,,10,202,3701208,,,,,,,2024-10-22,1,,,,,アイフォローズ,0
1823,7080101025064,新規,0,2024-10-22,2024-10-22,株式会社ＭａｃｈｉＨｕｂ,,株式会社,静岡県,賀茂郡河津町,田中４９０番地,,22,302,4130504,,,,,,,2024-10-22,1,,,,,マチハブ,0
1824,7080101025080,新規,0,2024-10-22,2024-10-22,株式会社ガク,,株式会社,静岡県,沼津市,岡一色２７番地の１エンゼルハイム岡一色第二３０５,,22,203,4100012,,,,,,,2024-10-22,1,,,,,ガク,0
1828,7080405007683,新規,0,2024-10-22,2024-10-22,一般社団法人日星電気奨学会,,その他の設立登記法人,静岡県,浜松市中央区,大久保町１５０９番地,,22,138,4328006,,,,,,,2024-10-22,1,,,,,ニッセイデンキショウガクカイ,0
1831,7100001037941,新規,0,2024-10-22,2024-10-22,株式会社ＳＵＮＳ　ＶＩＬＬＡＧＥ,,株式会社,長野県,北佐久郡軽井沢町,大字長倉４６１４番地７６,,20,321,3890111,,,,,,,2024-10-22,1,,,,,サンズヴィレッジ,0
1833,7100002039383,新規,0,2024-10-22,2024-10-22,有限会社美鈴堂,,有限会社,長野県,伊那市,坂下３３５４番地１,,20,209,3960024,,,,,,,2024-10-22,1,,,,,ビレイドウ,0
1834,7100003007819,新規,0,2024-10-22,2024-10-22,合同会社Ｂａｌｌｒｏｏｍｄａｎｃｅ．Ｅａｕ　Ｃｌａｉｒｅ,,合同会社,長野県,松本市,大字新村３２９１番地５,,20,202,3901241,,,,,,,2024-10-22,1,,,,,ボールルームダンスウクレール,0
1835,7100003007827,新規,0,2024-10-22,2024-10-22,合同会社正光興業,,合同会社,長野県,北佐久郡軽井沢町,大字追分１５９３番地２,,20,321,3890115,,,,,,,2024-10-22,1,,,,,マサミツコウギョウ,0
1836,7100003007843,新規,0,2024-10-22,2024-10-22,合同会社ハタ研,,合同会社,長野県,安曇野市,穂高８１８３番地２,,20,220,3998303,,,,,,,2024-10-22,1,,,,,ハタケン,0
1848,7120001269459,新規,0,2024-10-22,2024-10-22,株式会社ＭＩＳｏｌｕｔｉｏｎｓ,,株式会社,大阪府,大阪市福島区,吉野３丁目２２番１４－６０３号,,27,103,5530006,,,,,,,2024-10-22,1,,,,,エムアイソリューションズ,0
1849,7120001269525,新規,0,2024-10-22,2024-10-22,株式会社エヌジーユー,,株式会社,大阪府,大阪市北区,梅田１丁目２番２号大阪駅前第２ビル１２－１２,,27,127,5300001,,,,,,,2024-10-22,1,,,,,エヌジーユー,0
1850,7120001269533,新規,0,2024-10-22,2024-10-22,株式会社ＭＯＭＯ,,株式会社,大阪府,大阪市住之江区,御崎１丁目１１番１９－２０８号,,27,125,5590013,,,,,,,2024-10-22,1,,,,,モモ,0
1851,7120001269541,新規,0,2024-10-22,2024-10-22,未荷株式会社,,株式会社,大阪府,大阪市平野区,平野上町１丁目６番５号４０５,,27,126,5470045,,,,,,,2024-10-22,1,,,,,ミカ,0
1852,7120001269566,新規,0,2024-10-22,2024-10-22,愛顧株式会社,,株式会社,大阪府,大阪市生野区,勝山北５丁目１８番１８号,,27,116,5440033,,,,,,,2024-10-22,1,,,,,アイコ,0
1853,7120001269574,新規,0,2024-10-22,2024-10-22,興旺株式会社,,株式会社,大阪府,大阪市天王寺区,堀越町９番２０－５０１号,,27,109,5430056,,,,,,,2024-10-22,1,,,,,コウオウ,0
1854,7120001269582,新規,0,2024-10-22,2024-10-22,ＦＩＣＧジャパン株式会社,,株式会社,大阪府,大阪市中央区,備後町３丁目６番２号株式会社エアーズ経営研究所内,,27,128,5410051,,,,,,,2024-10-22,1,,,,,エフアイシージージャパン,0
1879,7130001078181,新規,0,2024-10-22,2024-10-22,株式会社太田建築,,株式会社,京都府,宮津市,字波路２１９２番地の２,,26,205,6260061,,,,,,,2024-10-22,1,,,,,オオタケンチク,0
1880,7130005017219,新規,0,2024-10-22,2024-10-22,砥山礪石師事業協同組合,,その他の設立登記法人,京都府,京都市右京区,鳴滝本町２８番地の５二階,,26,108,6168242,,,,,,,2024-10-22,1,,,,,トヤマレイセキシジギョウ,0
1890,7140001136186,新規,0,2024-10-22,2024-10-22,エムエム株式会社,,株式会社,兵庫県,西宮市,松原町５－２０松原マンション３階,,28,204,6620912,,,,,,,2024-10-22,1,,,,,エムエム,0
1891,7140001136194,新規,0,2024-10-22,2024-10-22,株式会社Ｓｍｉｌｅ　ｗｏｒｋｓ,,株式会社,兵庫県,神戸市須磨区,飛松町２丁目２－４,,28,107,6540012,,,,,,,2024-10-22,1,,,,,スマイルワークス,0
1893,7140003021221,新規,0,2024-10-22,2024-10-22,合同会社ＭＯＲＥ,,合同会社,兵庫県,神戸市東灘区,本山南町７丁目８－３０－４０１,,28,101,6580015,,,,,,,2024-10-22,1,,,,,モア,0
1896,7150001027616,新規,0,2024-10-22,2024-10-22,株式会社Ｂａｎｄ,,株式会社,奈良県,桜井市,大字西之宮２７２番地の８,,29,206,6330066,,,,,,,2024-10-22,1,,,,,バンド,0
1899,7160001026294,新規,0,2024-10-22,2024-10-22,株式会社Ｐｅａｒｂｕｌｂ,,株式会社,滋賀県,守山市,守山６丁目１９番２０号,,25,207,5240022,,,,,,,2024-10-22,1,,,,,ペアバルブ,0
1908,7180001163697,新規,0,2024-10-22,2024-10-22,株式会社シュネープラス,,株式会社,愛知県,名古屋市中村区,名駅３丁目４番１０号アルティメイト名駅１ｓｔ２階,,23,105,4500002,,,,,,,2024-10-22,1,,,,,シュネープラス,0
1909,7180001163722,新規,0,2024-10-22,2024-10-22,ＤＥＬＮＥＳ株式会社,,株式会社,愛知県,名古屋市天白区,井口２丁目９０２番地,,23,116,4680052,,,,,,,2024-10-22,1,,,,,デルネス,0
1910,7180001163747,新規,0,2024-10-22,2024-10-22,株式会社ＷＨＯＬＥ　ＣＡＲＡＶＡＮ,,株式会社,愛知県,名古屋市中区,千代田区五丁目２０－２,,23,106,4600000,,,,,,,2024-10-22,1,,,,,ホールキャラバン,0
1911,7180001163755,新規,0,2024-10-22,2024-10-22,株式会社コブズマート,,株式会社,愛知県,名古屋市守山区,下志段味５丁目４１２番地,,23,113,4630003,,,,,,,2024-10-22,1,,,,,コブズマート,0
1912,7180001163763,新規,0,2024-10-22,2024-10-22,ＫＴマネージメント株式会社,,株式会社,愛知県,名古屋市東区,代官町３０番１－２１１号,,23,102,4610002,,,,,,,2024-10-22,1,,,,,ケーティーマネジメント,0
1913,7180001163805,新規,0,2024-10-22,2024-10-22,株式会社ＫＯＵＹＵ,,株式会社,愛知県,名古屋市緑区,鳴海町字赤塚１０２番地の２,,23,114,4580845,,,,,,,2024-10-22,1,,,,,コウユウ,0
1914,7180001163821,新規,0,2024-10-22,2024-10-22,Ｋ‐ｍｉｓｔｒｙ株式会社,,株式会社,愛知県,名古屋市中村区,岩塚町１丁目１０１－３,,23,105,4530862,,,,,,,2024-10-22,1,,,,,ケミストリー,0
1927,7220001026263,新規,0,2024-10-22,2024-10-22,ＮＯＴＯ　Ｎａｏｒａｉ株式会社,,株式会社,石川県,鹿島郡中能登町,一青ケ１６‐２,,17,407,9291715,,,,,,,2024-10-22,1,,,,,ノトナオライ,0
1928,7230001020579,新規,0,2024-10-22,2024-10-22,株式会社庭山送電,,株式会社,富山県,富山市,婦中町広田５０９９番地２,,16,201,9392745,,,,,,,2024-10-22,1,,,,,ニワヤマソウデン,0
1932,7240005015847,新規,0,2024-10-22,2024-10-22,一般社団法人ミライゴト,,その他の設立登記法人,広島県,福山市,東町３丁目１０番１５号,,34,207,7200052,,,,,,,2024-10-22,1,,,,,ミライゴト,0
1934,7250005008957,新規,0,2024-10-22,2024-10-22,一般社団法人ＭＥＬ,,その他の設立登記法人,山口県,岩国市,岩国１丁目１４番４号,,35,208,7410062,,,,,,,2024-10-22,1,,,,,メル,0
1935,7260003004932,新規,0,2024-10-22,2024-10-22,栗吾合同会社,,合同会社,岡山県,岡山市北区,横井上２０３番地１ビッグバーンズマンション横井Ｂ棟１０６号室,,33,101,7011145,,,,,,,2024-10-22,1,,,,,リツゴ,0
1944,7290001107692,新規,0,2024-10-22,2024-10-22,株式会社Ｓｏｌｅｉｌ　Ｒｉｓｉｎｇ,,株式会社,福岡県,筑後市,大字久富１１９５番地５,,40,211,8330056,,,,,,,2024-10-22,1,,,,,ソレイユライジング,0
1948,7290003015919,新規,0,2024-10-22,2024-10-22,合同会社ＭＹ企画,,合同会社,福岡県,福岡市南区,高宮１丁目２番３１号東急ドエルアルス平尾駅前１１０１号室,,40,134,8150083,,,,,,,2024-10-22,1,,,,,エムワイキカク,0
1949,7290801030986,新規,0,2024-10-22,2024-10-22,ｋｏｋｏｒｏ株式会社,,株式会社,福岡県,北九州市若松区,白山１丁目９－１４,,40,103,8080035,,,,,,,2024-10-22,1,,,,,ココロ,0
1950,7290803004864,新規,0,2024-10-22,2024-10-22,合同会社ロングライフ,,合同会社,福岡県,田川郡福智町,金田４２７番地１０,,40,610,8221201,,,,,,,2024-10-22,1,,,,,ロングライフ,0
1962,7370001051817,新規,0,2024-10-22,2024-10-22,株式会社ＪＵＵＲＩ,,株式会社,宮城県,牡鹿郡女川町,出島字別当浜２番地の３３,,04,581,9862211,,,,,,,2024-10-22,1,,,,,ユーリ,0
1963,7370001051833,新規,0,2024-10-22,2024-10-22,株式会社ＤＥＲＥＫ,,株式会社,宮城県,仙台市青葉区,東照宮２丁目２番１６号１Ｆ,,04,101,9810908,,,,,,,2024-10-22,1,,,,,デレク,0
1965,7370003006785,新規,0,2024-10-22,2024-10-22,合同会社ナギサン,,合同会社,宮城県,仙台市青葉区,土樋１丁目４番２３－２０３号,,04,101,9800065,,,,,,,2024-10-22,1,,,,,ナギサン,0
1970,7400003003341,新規,0,2024-10-22,2024-10-22,ひまわり物産合同会社,,合同会社,岩手県,久慈市,長内町第４４地割８９番地１,,03,207,0280041,,,,,,,2024-10-22,1,,,,,,0
1972,7430001092879,新規,0,2024-10-22,2024-10-22,Ｍｏｕｎｔａｉｎ　Ｍｅｍｏｒｉｅｓ株式会社,,株式会社,北海道,虻田郡留寿都村,字留寿都９０番地,,01,397,0481731,,,,,,,2024-10-22,1,,,,,マウンテンメモリーズ,0
1973,7430001092912,新規,0,2024-10-22,2024-10-22,株式会社グッドゼン,,株式会社,北海道,札幌市中央区,南五条西１５丁目２－３－５０３,,01,101,0640805,,,,,,,2024-10-22,1,,,,,グッドゼン,0
1975,7430003016910,新規,0,2024-10-22,2024-10-22,合同会社西川幸宏建築都市設計事務所,,合同会社,北海道,札幌市西区,山の手四条１１丁目６番１－５０７号,,01,107,0630004,,,,,,,2024-10-22,1,,,,,ニシカワユキヒロケンチクトシセッケイジムショ,0
1977,7430005015092,新規,0,2024-10-22,2024-10-22,一般社団法人ノット・ア・ロット,,その他の設立登記法人,北海道,札幌市中央区,大通西９丁目３番地３３,,01,101,0600042,,,,,,,2024-10-22,1,,,,,ノットアロット,0
1982,7480001012626,新規,0,2024-10-22,2024-10-22,株式会社ヒルマカンパニー,,株式会社,徳島県,三好郡東みよし町,昼間３１３９番地２,,36,489,7712501,,,,,,,2024-10-22,1,,,,,ヒルマカンパニー,0
1983,7490003001948,新規,0,2024-10-22,2024-10-22,合同会社Ｊａｐａｎ　ｔｒａｖｅｌ　ｍｅｍｏｒｉｅｓ,,合同会社,高知県,高知市,瀬戸南町２丁目８番５０号,,39,201,7810253,,,,,,,2024-10-22,1,,,,,,0
1985,7700150026718,新規,0,2024-10-22,2015-10-09,京都府紙商組合,,その他,京都府,京都市右京区,西京極橋詰町３０番地京都紙商事（株）本社ビル３階,,26,108,6150833,,,,,,,2015-10-09,1,,,,,キヨウトフカミシヨウクミアイ,0
1986,7700150127474,新規,0,2024-10-22,2024-10-16,ここから未来プロジェクト推進協議会準備会,,その他,神奈川県,川崎市高津区,諏訪１丁目１９－３１,,14,134,2130004,,,,,,,2024-10-16,1,,,,,ココカラミライプロジエクトスイシンキヨウギカイジユンビカイ,0
1992,8010001249157,新規,0,2024-10-22,2024-10-22,サステファイ株式会社,,株式会社,東京都,中央区,日本橋兜町１７－２兜町第６葉山ビル４Ｆ,,13,102,1030026,,,,,,,2024-10-22,1,,,,,サステファイ,0
1993,8010001249264,新規,0,2024-10-22,2024-10-22,株式会社プライム・ノット,,株式会社,東京都,中央区,銀座７丁目１３番２０号銀座ＴＨビル９階,,13,102,1040061,,,,,,,2024-10-22,1,,,,,プライムノット,0
2004,8010401185737,新規,0,2024-10-22,2024-10-22,株式会社ＷｅｌｃｏＭｅＹｏｕ,,株式会社,東京都,港区,北青山１丁目３番１号アールキューブ青山３階,,13,103,1070061,,,,,,,2024-10-22,1,,,,,ウェルカミュー,0
2005,8010401185852,新規,0,2024-10-22,2024-10-22,イルミネイト株式会社,,株式会社,東京都,港区,南麻布１丁目５－３６南麻布マンション６０４,,13,103,1060047,,,,,,,2024-10-22,1,,,,,イルミネイト,0
2006,8010401185885,新規,0,2024-10-22,2024-10-22,ＭｏｖｉｎｇＸ株式会社,,株式会社,東京都,港区,新橋６丁目８番１－４０４号室,,13,103,1050004,,,,,,,2024-10-22,1,,,,,ムービングエックス,0
2007,8010401185919,新規,0,2024-10-22,2024-10-22,株式会社ａｓｉａｎｖｏｉｃｅ,,株式会社,東京都,港区,赤坂７丁目６番５２－２０２,,13,103,1070052,,,,,,,2024-10-22,1,,,,,アジアンヴォイス,0
2008,8010401185927,新規,0,2024-10-22,2024-10-22,ＪＴＭＳ株式会社,,株式会社,東京都,港区,虎ノ門１丁目１１番１３号,,13,103,1050001,,,,,,,2024-10-22,1,,,,,ジェーティーエムエス,0
2011,8010403033654,新規,0,2024-10-22,2024-10-22,合同会社ワイケイケイケイ,,合同会社,東京都,港区,南青山５丁目４番６号,,13,103,1070062,,,,,,,2024-10-22,1,,,,,ワイケイケイケイ,0
2013,8010405023653,新規,0,2024-10-22,2024-10-22,一般社団法人メンター三田会,,その他の設立登記法人,東京都,港区,三田３丁目４番３号,,13,103,1080073,,,,,,,2024-10-22,1,,,,,メンターミタカイ,0
2014,8010501053075,新規,0,2024-10-22,2024-10-22,株式会社３９００,,株式会社,東京都,台東区,柳橋１丁目１３－４浅草橋丹羽ビルＢ１階,,13,106,1110052,,,,,,,2024-10-22,1,,,,,サンゼンキュウヒャク,0
2017,8010601066126,新規,0,2024-10-22,2024-10-22,株式会社５１２ｌａｂ,,株式会社,東京都,墨田区,両国１丁目５番４号,,13,107,1300026,,,,,,,2024-10-22,1,,,,,ゴーイチニーラボ,0
2018,8010601066134,新規,0,2024-10-22,2024-10-22,タンニングレザー株式会社,,株式会社,東京都,墨田区,向島３丁目１６番６号,,13,107,1310033,,,,,,,2024-10-22,1,,,,,タンニングレザー,0
2019,8010601066142,新規,0,2024-10-22,2024-10-22,ＰＩＣＡ株式会社,,株式会社,東京都,墨田区,石原２丁目６番９号,,13,107,1300011,,,,,,,2024-10-22,1,,,,,ピカ,0
2023,8010703007399,新規,0,2024-10-22,2024-10-22,Ｆｕｊｉｍａｋｉ　Ｅｓｔａｔｅ合同会社,,合同会社,東京都,品川区,北品川３丁目５番４－４０１号,,13,109,1400001,,,,,,,2024-10-22,1,,,,,フジマキエステート,0
2028,8010903009427,新規,0,2024-10-22,2024-10-22,八光電気合同会社,,合同会社,東京都,世田谷区,千歳台２丁目１番１４号１階,,13,112,1570071,,,,,,,2024-10-22,1,,,,,ハチコウデンキ,0
2036,8011005010711,新規,0,2024-10-22,2024-10-22,一般財団法人ハルク財団,,その他の設立登記法人,東京都,渋谷区,渋谷２丁目２４－１２渋谷スクランブルスクエア３９Ｆ,,13,113,1500002,,,,,,,2024-10-22,1,,,,,ハルクザイダン,0
2044,8011101109143,新規,0,2024-10-22,2024-10-22,深沢ＤＡＯ株式会社,,株式会社,東京都,新宿区,矢来町３７パークサイド矢来２０６,,13,104,1620805,,,,,,,2024-10-22,1,,,,,フカザワダオ,0
2045,8011101109226,新規,0,2024-10-22,2024-10-22,ニシキデザイン株式会社,,株式会社,東京都,新宿区,東五軒町１－９ＳＢＳ・Ｄ－５号,,13,104,1620813,,,,,,,2024-10-22,1,,,,,ニシキデザイン,0
2047,8011103015075,新規,0,2024-10-22,2024-10-22,合同会社ＴＮＫ　ＭＡＨＡＬＯ,,合同会社,東京都,新宿区,四谷坂町２－３３パレ坂町２０２,,13,104,1600002,,,,,,,2024-10-22,1,,,,,ティエヌケイマハロ,0
2048,8011201025876,新規,0,2024-10-22,2024-10-22,株式会社インアンドヤン,,株式会社,東京都,中野区,中野４丁目２番１号サンキビル３階,,13,114,1640001,,,,,,,2024-10-22,1,,,,,インアンドヤン,0
2055,8011601028132,新規,0,2024-10-22,2024-10-22,株式会社Ｏ不動産,,株式会社,東京都,練馬区,豊玉上２丁目２４番１号,,13,120,1760011,,,,,,,2024-10-22,1,,,,,オフドウサン,0
2058,8011605002612,新規,0,2024-10-22,2024-10-22,特定非営利活動法人ｖｏｌｕｎｔａｓ,,その他の設立登記法人,東京都,練馬区,練馬１丁目２０番８号日建練馬ビル２Ｆ,,13,120,1760001,,,,,,,2024-10-22,1,,,,,ボランタス,0
2070,8012701018502,新規,0,2024-10-22,2024-10-22,株式会社ＡＴＬＡＳ,,株式会社,東京都,東村山市,萩山町３丁目１１－１９－２０３,,13,213,1890012,,,,,,,2024-10-22,1,,,,,アトラス,0
2071,8012801023518,新規,0,2024-10-22,2024-10-22,株式会社正道シナジー,,株式会社,東京都,武蔵村山市,伊奈平３丁目１５番地の１５,,13,223,2080023,,,,,,,2024-10-22,1,,,,,マサミチシナジー,0
2077,8013301053261,新規,0,2024-10-22,2024-10-22,株式会社ＶＩＶＯ,,株式会社,東京都,豊島区,南長崎２丁目９番１３号,,13,116,1710052,,,,,,,2024-10-22,1,,,,,ヴィーヴォ,0
2079,8013303007348,新規,0,2024-10-22,2024-10-22,ひまわり合同会社,,合同会社,東京都,豊島区,駒込１丁目１６－１０サンハイム駒込２０１,,13,116,1700003,,,,,,,2024-10-22,1,,,,,ヒマワリ,0
2080,8013303007364,新規,0,2024-10-22,2024-10-22,合同会社ｗｉｔｈ　Ｙｏｕｒ　Ｃｏｌｏｒ,,合同会社,東京都,豊島区,上池袋４丁目１－６アイル池袋ＮＯＲＴＨ参番館７０４号室,,13,116,1700012,,,,,,,2024-10-22,1,,,,,ウィズユアカラー,0
2089,8020001159677,新規,0,2024-10-22,2024-10-22,株式会社ＥＳＳインターナショナル,,株式会社,神奈川県,横浜市西区,浅間町１丁目４番地３ウィザードビル４０２,,14,103,2200072,,,,,,,2024-10-22,1,,,,,イーエスエスインターナショナル,0
2090,8020001159702,新規,0,2024-10-22,2024-10-22,Ｄ．Ｎマネジメント株式会社,,株式会社,神奈川県,川崎市宮前区,宮前平２丁目２０番地３,,14,136,2160006,,,,,,,2024-10-22,1,,,,,ディーエヌマネジメント,0
2091,8020001159735,新規,0,2024-10-22,2024-10-22,株式会社Ｐａｕｌｉｎｏ　Ｓｏｌ　Ｎａｓｃｅｎｔｅ,,株式会社,神奈川県,横浜市保土ケ谷区,新井町３４５番地,,14,106,2400053,,,,,,,2024-10-22,1,,,,,パウリーノソウナッセンチ,0
2097,8021001083512,新規,0,2024-10-22,2024-10-22,シューワ興業株式会社,,株式会社,神奈川県,相模原市,中央３丁目７番１２号,,14,209,2290039,,,,,,,2024-10-22,1,,,,,シューワコウギョウ,0
2098,8021001083561,新規,0,2024-10-22,2024-10-22,Ａｇｂｏｒｄｙｋｅ　Ｅｑｕｉｔｙ株式会社,,株式会社,神奈川県,海老名市,本郷１３６１－３,,14,215,2430417,,,,,,,2024-10-22,1,,,,,アグボーダイクエクイティ,0
2113,8040001135882,新規,0,2024-10-22,2024-10-22,ＣＶ株式会社,,株式会社,千葉県,柏市,根戸２０２２番地１コンフォルシア北柏２０１号,,12,217,2770831,,,,,,,2024-10-22,1,,,,,シーブイ,0
2115,8040003026015,新規,0,2024-10-22,2024-10-22,ＲｕｎＡｒｔｓ合同会社,,合同会社,千葉県,旭市,ロの８９７番地,,12,215,2892516,,,,,,,2024-10-22,1,,,,,ランアーツ,0
2116,8040003026023,新規,0,2024-10-22,2024-10-22,合同会社Ｓｈｕ‐ｉｔｓ,,合同会社,千葉県,松戸市,新松戸５丁目１番地新松戸中央パークハウスＢ－５１８,,12,207,2700034,,,,,,,2024-10-22,1,,,,,シューイツ,0
2118,8050001055576,新規,0,2024-10-22,2024-10-22,Ｌｉｂｒａアドバイザリー株式会社,,株式会社,茨城県,潮来市,日の出７丁目１０番地２,,08,223,3112423,,,,,,,2024-10-22,1,,,,,リブラアドバイザリー,0
2121,8050003008739,新規,0,2024-10-22,2024-10-22,ＢＵＮＤＥＳＭＯＴＯＲＳ合同会社,,合同会社,茨城県,坂東市,小山２０８７番地１,,08,228,3060626,,,,,,,2024-10-22,1,,,,,ブンデスモータース,0
2122,8050003008755,新規,0,2024-10-22,2024-10-22,サントーシャ合同会社,,合同会社,茨城県,神栖市,神栖２丁目１５番７号ミリオンフォーチュナ１０１,,08,232,3140143,,,,,,,2024-10-22,1,,,,,サントーシャ,0
2125,8070001042291,新規,0,2024-10-22,2024-10-22,株式会社ル・リアン,,株式会社,群馬県,高崎市,乗附町２１３２番地１ダイアパレス高崎観音山３０２号,,10,202,3700867,,,,,,,2024-10-22,1,,,,,ルリアン,0
2126,8070003005619,新規,0,2024-10-22,2024-10-22,ＫＡＬＥＥＮＡ　ＩＮＴＥＲＮＡＴＩＯＮＡＬ合同会社,,合同会社,群馬県,桐生市,相生町２丁目１１２番地３,,10,203,3760011,,,,,,,2024-10-22,1,,,,,カリーナインターナショナル,0
2127,8080001026558,新規,0,2024-10-22,2024-10-22,株式会社ルシェルブルー,,株式会社,静岡県,静岡市清水区,北脇４９０番地の１７,,22,103,4240052,,,,,,,2024-10-22,1,,,,,ルシェルブルー,0
2129,8080003003316,新規,0,2024-10-22,2024-10-22,合同会社エルビデオグラファ,,合同会社,静岡県,静岡市葵区,紺屋町１７－１葵タワー１Ｆ,,22,101,4200852,,,,,,,2024-10-22,1,,,,,エルビデオグラファ,0
2137,8100001037940,新規,0,2024-10-22,2024-10-22,株式会社瀬戸ライスファーム,,株式会社,長野県,上伊那郡辰野町,大字赤羽４８７番地,,20,382,3990424,,,,,,,2024-10-22,1,,,,,セトライスファーム,0
2140,8100003007826,新規,0,2024-10-22,2024-10-22,ＥｔｈｏｓＬｉｎｋ合同会社,,合同会社,長野県,上伊那郡南箕輪村,１９７番地１Ｐｌａｉｓｉｒｅｔｅｒｎｏ２０４号室,,20,385,3994511,,,,,,,2024-10-22,1,,,,,エトスリンク,0
2146,8120001269532,新規,0,2024-10-22,2024-10-22,ＭＥＩＧＩ株式会社,,株式会社,大阪府,大阪市此花区,春日出中１丁目１１番８号,,27,104,5540022,,,,,,,2024-10-22,1,,,,,メイギ,0
2147,8120001269540,新規,0,2024-10-22,2024-10-22,株式会社ｉｎｆｉｎｉｔｅ　ｌｕｃｋ,,株式会社,大阪府,大阪市西成区,千本北２丁目１５番１８号,,27,122,5570053,,,,,,,2024-10-22,1,,,,,インフィニットラック,0
2148,8120001269557,新規,0,2024-10-22,2024-10-22,ＰＬＡＩＮ　ＣＯＮＳＵＬＴＩＮＧ株式会社,,株式会社,大阪府,大阪市中央区,農人橋２丁目１番３５号,,27,128,5400011,,,,,,,2024-10-22,1,,,,,プレインコンサルティング,0
2149,8120001269573,新規,0,2024-10-22,2024-10-22,花筏株式会社,,株式会社,大阪府,大阪市天王寺区,堀越町９番２０－４０２号,,27,109,5430056,,,,,,,2024-10-22,1,,,,,ハナイカダ,0
2150,8120001269615,新規,0,2024-10-22,2024-10-22,株式会社ＥＭＩＮＡＬ,,株式会社,大阪府,大阪市北区,梅田２丁目２番２号ヒルトンプラザウエストオフィスタワー１９階,,27,127,5300001,,,,,,,2024-10-22,1,,,,,エミナル,0
2155,8120003027789,新規,0,2024-10-22,2024-10-22,ベルカ合同会社,,合同会社,大阪府,大阪市北区,豊崎６丁目１１番５号,,27,127,5310072,,,,,,,2024-10-22,1,,,,,ベルカ,0
2156,8120003027797,新規,0,2024-10-22,2024-10-22,合同会社カウカウ,,合同会社,大阪府,大阪市福島区,吉野２丁目１５番１８号阪神レジャービル３番館１０１号,,27,103,5530006,,,,,,,2024-10-22,1,,,,,カウカウ,0
2157,8120003027806,新規,0,2024-10-22,2024-10-22,合同会社ソノサキ,,合同会社,大阪府,大阪市平野区,長吉長原西４丁目４番２５－１１１４号,,27,126,5470015,,,,,,,2024-10-22,1,,,,,ソノサキ,0
2163,8120901049934,新規,0,2024-10-22,2024-10-22,株式会社センゴク,,株式会社,大阪府,豊中市,宮山町４丁目１８番９号,,27,203,5600056,,,,,,,2024-10-22,1,,,,,センゴク,0
2183,8140001136136,新規,0,2024-10-22,2024-10-22,ＧＯ　Ｎｅｘｔ株式会社,,株式会社,兵庫県,西宮市,甲子園町８－２－３０６号,,28,204,6638152,,,,,,,2024-10-22,1,,,,,ゴーネクスト,0
2184,8140001136144,新規,0,2024-10-22,2024-10-22,株式会社ロイヤル阪神,,株式会社,兵庫県,伊丹市,昆陽東６丁目１２番１５－１号,,28,207,6640886,,,,,,,2024-10-22,1,,,,,ロイヤルハンシン,0
2185,8140001136169,新規,0,2024-10-22,2024-10-22,株式会社ＧＩ,,株式会社,兵庫県,姫路市,大津区北天満町９番地,,28,201,6711142,,,,,,,2024-10-22,1,,,,,ジーアイ,0
2187,8140003021220,新規,0,2024-10-22,2024-10-22,合同会社パンタジア,,合同会社,兵庫県,神戸市中央区,中山手通１丁目６番９号丘ビル２階南号室,,28,110,6500004,,,,,,,2024-10-22,1,,,,,パンタジア,0
2193,8180001163705,新規,0,2024-10-22,2024-10-22,株式会社村義,,株式会社,愛知県,名古屋市天白区,平針５丁目２００４番地,,23,116,4680011,,,,,,,2024-10-22,1,,,,,ムラヨシ,0
2194,8180001163738,新規,0,2024-10-22,2024-10-22,Ｌ．Ｉ．Ｍ株式会社,,株式会社,愛知県,尾張旭市,緑町緑ケ丘１００番地６９,,23,226,4880822,,,,,,,2024-10-22,1,,,,,リム,0
2195,8180001163746,新規,0,2024-10-22,2024-10-22,アークハウス株式会社,,株式会社,愛知県,名古屋市中区,新栄２丁目４２番２号エステムコート名古屋新栄ＩＩＩグローリィ９０４号室,00136706,23,106,4600007,,,,,,,2024-10-22,1,,,,,アークハウス,0
2196,8180001163762,新規,0,2024-10-22,2024-10-22,株式会社ＳＤＭ,,株式会社,愛知県,名古屋市守山区,向台２丁目８０９番地,,23,113,4630036,,,,,,,2024-10-22,1,,,,,エスディーエム,0
2207,8190001031737,新規,0,2024-10-22,2024-10-22,株式会社Ｈｏｌｌｙ,,株式会社,三重県,桑名市,大字五反田１２６４番地７,,24,205,5110946,,,,,,,2024-10-22,1,,,,,ホリー,0
2208,8190001031745,新規,0,2024-10-22,2024-10-22,株式会社ヴェルティス,,株式会社,三重県,伊勢市,岩渕３丁目５番３号スカイマンション３０３号室,,24,203,5160037,,,,,,,2024-10-22,1,,,,,ヴェルティス,0
2211,8210001019952,新規,0,2024-10-22,2024-10-22,株式会社丸雅商事,,株式会社,福井県,坂井市,丸岡町霞町１丁目３２番地１,,18,210,9100231,,,,,,,2024-10-22,1,,,,,マルマサショウジ,0
2213,8220003003862,新規,0,2024-10-22,2024-10-22,合同会社ミレアンス,,合同会社,石川県,金沢市,芳斉１丁目７番２０号（パークサイト玉川・８１０号）,,17,201,9200862,,,,,,,2024-10-22,1,,,,,ミレアンス,0
2225,8250005008956,新規,0,2024-10-22,2024-10-22,一般社団法人リーガルアセットケア,,その他の設立登記法人,山口県,下関市,幡生町２丁目９番２号,,35,201,7510828,,,,,,,2024-10-22,1,,,,,リーガルアセットケア,0
2226,8260001039558,新規,0,2024-10-22,2024-10-22,株式会社Ｇｌａｎｚ不動産,,株式会社,岡山県,岡山市北区,北長瀬表町３丁目２番８号２Ｆ,,33,101,7000962,,,,,,,2024-10-22,1,,,,,グランツフドウサン,0
2243,8290001107700,新規,0,2024-10-22,2024-10-22,株式会社ＭＫフロンティア,,株式会社,福岡県,福岡市中央区,薬院４丁目１番１１号５階,,40,133,8100022,,,,,,,2024-10-22,1,,,,,エムケイフロンティア,0
2247,8290803004863,新規,0,2024-10-22,2024-10-22,合同会社ＮＣＹ,,合同会社,福岡県,北九州市小倉北区,赤坂４丁目１４番１－５０５号,,40,106,8020032,,,,,,,2024-10-22,1,,,,,エヌシーワイ,0
2253,8350001019245,新規,0,2024-10-22,2024-10-22,株式会社星和塗装工業,,株式会社,宮崎県,日向市,大字平岩２３８１番地１,,45,206,8830022,,,,,,,2024-10-22,1,,,,,セイワトソウコウギョウ,0
2256,8360003014409,新規,0,2024-10-22,2024-10-22,ミヴィダ合同会社,,合同会社,沖縄県,中頭郡読谷村,字長浜１３９６番地Ｗｅｓｔ　Ｈｏｕｓｅ,,47,324,9040324,,,,,,,2024-10-22,1,,,,,ミヴィダ,0
2259,8370003006784,新規,0,2024-10-22,2024-10-22,合同会社高速計測研究所,,合同会社,宮城県,仙台市太白区,砂押南町１－２１－１,,04,104,9820024,,,,,,,2024-10-22,1,,,,,コウソクケイソクケンキュウジョ,0
2262,8380001034860,新規,0,2024-10-22,2024-10-22,株式会社枝並不動産,,株式会社,福島県,岩瀬郡鏡石町,境４９９番１号ＨＹＶＡａｎｄＳＴＹＬＥ１階,,07,342,9690401,,,,,,,2024-10-22,1,,,,,エダナミフドウサン,0
2276,8430001092812,新規,0,2024-10-22,2024-10-22,株式会社シェイクスピアカントリークラブ,,株式会社,北海道,石狩市,大字八幡町字高岡３０６番地１１,,01,235,0613361,,,,,,,2024-10-22,1,,,,,シェイクスピアカントリークラブ,0
2277,8430001092911,新規,0,2024-10-22,2024-10-22,株式会社ｔｅｎ,,株式会社,北海道,札幌市中央区,南五条西１５丁目２番３号リズム医大前５０３号室,,01,101,0640805,,,,,,,2024-10-22,1,,,,,テン,0
2279,8430005015091,新規,0,2024-10-22,2024-10-22,小樽三角市場協同組合,,その他の設立登記法人,北海道,小樽市,稲穂３丁目１０番１６号小樽三角市場内,,01,203,0470032,,,,,,,2024-10-22,1,,,,,オタルサンカクイチバ,0
2280,8490005006960,新規,0,2024-10-22,2024-10-22,一般社団法人こうち観光ネットワーク,,その他の設立登記法人,高知県,高知市,幸町２０番１号,,39,201,7800045,,,,,,,2024-10-22,1,,,,,,0
2282,8700150049783,新規,0,2024-10-22,2015-10-09,石川県立七尾産業技術専門校育友会,,その他,石川県,七尾市,津向町ヘ部３４番地,,17,202,9260853,,,,,,,2015-10-09,1,,,,,イシカワケンリツナナオサンギヨウギジユツセンモンコウイクユウカイ,0
2298,9010001249123,新規,0,2024-10-22,2024-10-22,株式会社速見キャピタル,,株式会社,東京都,千代田区,九段南１丁目６番５号,,13,101,1020074,,,,,,,2024-10-22,1,,,,,ハヤミキャピタル,0
2299,9010001249156,新規,0,2024-10-22,2024-10-22,株式会社よん,,株式会社,東京都,中央区,銀座１丁目１５番４号,,13,102,1040061,,,,,,,2024-10-22,1,,,,,ヨン,0
2300,9010001249222,新規,0,2024-10-22,2024-10-22,株式会社フィサリア,,株式会社,東京都,中央区,銀座１丁目１２－４Ｎ＆ＥＢＬＤ．７階,,13,102,1040061,,,,,,,2024-10-22,1,,,,,フィサリア,0
2304,9010003045264,新規,0,2024-10-22,2024-10-22,ＭＣ合同会社,,合同会社,東京都,千代田区,神田和泉町１番地６－１６ヤマトビル４０５,,13,101,1010024,,,,,,,2024-10-22,1,,,,,,0
2311,9010401185819,新規,0,2024-10-22,2024-10-22,株式会社ラボテックホールディングス,,株式会社,東京都,港区,芝公園１丁目５番１３号,,13,103,1050011,,,,,,,2024-10-22,1,,,,,ラボテックホールディングス,0
2312,9010401185901,新規,0,2024-10-22,2024-10-22,株式会社ｔｅＱｕｉｌａ,,株式会社,東京都,港区,六本木３丁目８－５－５０２,,13,103,1060032,,,,,,,2024-10-22,1,,,,,テキーラ,0
2317,9010501053058,新規,0,2024-10-22,2024-10-22,ビット・スキャン・テクノロジー株式会社,,株式会社,東京都,台東区,浅草橋２丁目２９番１１号６階,,13,106,1110053,,,,,,,2024-10-22,1,,,,,ビットスキャンテクノロジー,0
2320,9010601066125,新規,0,2024-10-22,2024-10-22,株式会社セカンドアウト,,株式会社,東京都,墨田区,緑１丁目５－１０－６０２,,13,107,1300021,,,,,,,2024-10-22,1,,,,,,0
2324,9010603011161,新規,0,2024-10-22,2024-10-22,合同会社フューチャー・デイズ,,合同会社,東京都,江東区,三好１丁目８番地３号越前屋ビル２Ｆ,,13,108,1350022,,,,,,,2024-10-22,1,,,,,フューチャーデイズ,0
2325,9010701046712,新規,0,2024-10-22,2024-10-22,株式会社ＡＲＹ,,株式会社,東京都,品川区,西五反田１丁目３番３号ニューロワールビル４０１,,13,109,1410031,,,,,,,2024-10-22,1,,,,,アリー,0
2326,9010701046720,新規,0,2024-10-22,2024-10-22,ポーラスタージャパン株式会社,,株式会社,東京都,品川区,北品川２丁目２２番１０－１４０３号,,13,109,1400001,,,,,,,2024-10-22,1,,,,,ポーラスタージャパン,0
2331,9010903009426,新規,0,2024-10-22,2024-10-22,ＫＫ合同会社,,合同会社,東京都,世田谷区,北沢３丁目７番３号クレアヴェール東北沢２０３,,13,112,1550031,,,,,,,2024-10-22,1,,,,,ケーケー,0
2343,9011001165327,新規,0,2024-10-22,2024-10-22,株式会社東京フェイスラボ,,株式会社,東京都,渋谷区,神山町６番１１－５０２号パークフラッツ渋谷神山町,,13,113,1500047,,,,,,,2024-10-22,1,,,,,トウキョウフェイスラボ,0
2344,9011001165343,新規,0,2024-10-22,2024-10-22,株式会社オモイデ日和,,株式会社,東京都,渋谷区,東２丁目２１番８－４０２号プライムレジデンス渋谷,,13,113,1500011,,,,,,,2024-10-22,1,,,,,オモイデビヨリ,0
2345,9011001165459,新規,0,2024-10-22,2024-10-22,株式会社Ｌ‐ＴＯＰＰＡ,,株式会社,東京都,渋谷区,千駄ヶ谷３丁目１３－１４清和ビル５０２号,,13,113,1510051,,,,,,,2024-10-22,1,,,,,エルトッパ,0
2346,9011001165525,新規,0,2024-10-22,2024-10-22,株式会社ニューディメンジョンＤＮＡ研究所,,株式会社,東京都,渋谷区,本町１丁目１５番９号,,13,113,1510071,,,,,,,2024-10-22,1,,,,,ニューディメンジョンディーエヌエーケンキュウショ,0
2351,9011101109217,新規,0,2024-10-22,2024-10-22,株式会社澪,,株式会社,東京都,新宿区,下落合４丁目９―４１ルミエール下落合３０３,,13,104,1610033,,,,,,,2024-10-22,1,,,,,レイ,0
2352,9011105011195,新規,0,2024-10-22,2024-10-22,一般社団法人Ｕ＆Ｉ,,その他の設立登記法人,東京都,新宿区,西新宿３丁目３番１３号西新宿水間ビル６階,,13,104,1600023,,,,,,,2024-10-22,1,,,,,ユーアンドアイ,0
2353,9011105011204,新規,0,2024-10-22,2024-10-22,一般社団法人ロバート,,その他の設立登記法人,東京都,新宿区,四谷２丁目９番地１５東京ユナイテッド綜合事務所内,,13,104,1600004,,,,,,,2024-10-22,1,,,,,ロバート,0
2354,9011203004506,新規,0,2024-10-22,2024-10-22,ＣＬＯＶＥ合同会社,,合同会社,東京都,中野区,若宮１丁目３６番３号,,13,114,1650033,,,,,,,2024-10-22,1,,,,,クローブ,0
2365,9012801023500,新規,0,2024-10-22,2024-10-22,株式会社ＴＥＮ,,株式会社,東京都,立川市,柴崎町３丁目９番７号多摩川実業ビル１階,,13,202,1900023,,,,,,,2024-10-22,1,,,,,テン,0
2366,9012801023517,新規,0,2024-10-22,2024-10-22,株式会社ＶＩＮＩＯ,,株式会社,東京都,国分寺市,西元町２丁目１６番３４号ザ・ライオンズ武蔵国分寺公園５１６,,13,214,1850023,,,,,,,2024-10-22,1,,,,,ヴィニオ,0
2368,9013301053260,新規,0,2024-10-22,2024-10-22,株式会社ＭＥＲＡＫ‐ＴＥＣＨ,,株式会社,東京都,豊島区,南大塚３丁目３６番１０－８０２号,,13,116,1700005,,,,,,,2024-10-22,1,,,,,メラックテック,0
2378,9020001159684,新規,0,2024-10-22,2024-10-22,株式会社樹,,株式会社,神奈川県,横浜市南区,永楽町１丁目８番地アブニール永楽４０１,,14,105,2320031,,,,,,,2024-10-22,1,,,,,イツキ,0
2379,9020001159775,新規,0,2024-10-22,2024-10-22,株式会社ＬｉｎｏＬａ,,株式会社,神奈川県,川崎市宮前区,土橋２丁目１２番地１０ヴェレーナ宮前平７０２,,14,136,2160005,,,,,,,2024-10-22,1,,,,,リノラ,0
2381,9020003027096,新規,0,2024-10-22,2024-10-22,合同会社クリア,,合同会社,神奈川県,横浜市港北区,日吉１丁目１９番１８－１号,,14,109,2230061,,,,,,,2024-10-22,1,,,,,クリア,0
2382,9020003027146,新規,0,2024-10-22,2024-10-22,合同会社川崎ヤング,,合同会社,神奈川県,横浜市磯子区,栗木３丁目３３番１９号,,14,107,2350041,,,,,,,2024-10-22,1,,,,,カワサキヤング,0
2400,9040001135758,新規,0,2024-10-22,2024-10-22,平井商事株式会社,,株式会社,千葉県,船橋市,前原東１丁目１０番３号,,12,204,2740824,,,,,,,2024-10-22,1,,,,,ヒライショウジ,0
2404,9040003026014,新規,0,2024-10-22,2024-10-22,合同会社Ｅ’ｓ　ｖｅｇｅ,,合同会社,千葉県,千葉市花見川区,朝日ケ丘１丁目３３番１７号,,12,102,2620019,,,,,,,2024-10-22,1,,,,,イーエスベジ,0
2405,9040003026022,新規,0,2024-10-22,2024-10-22,ルカアイランズ合同会社,,合同会社,千葉県,千葉市美浜区,稲毛海岸２丁目３０番１号ザ・ガーデンズ稲毛海岸３２６号,,12,106,2610005,,,,,,,2024-10-22,1,,,,,ルカアイランズ,0
2410,9050003008754,新規,0,2024-10-22,2024-10-22,合同会社そうごう美創,,合同会社,茨城県,那珂市,後台３１３７番地１,,08,226,3110111,,,,,,,2024-10-22,1,,,,,ソウゴウビソウ,0
2412,9070001042290,新規,0,2024-10-22,2024-10-22,株式会社ＡＫ　Ｈｅａｔ　ｐｒｏｔｅｃｔｉｏｎ,,株式会社,群馬県,伊勢崎市,田部井町１丁目１１５６番地７,,10,204,3792222,,,,,,,2024-10-22,1,,,,,エーケーヒートプロテクション,0
2415,9080001026557,新規,0,2024-10-22,2024-10-22,株式会社フレンドファーマシー,,株式会社,静岡県,静岡市葵区,大岩２丁目２３番４号,,22,101,4200886,,,,,,,2024-10-22,1,,,,,フレンドファーマシー,0
2416,9080003003315,新規,0,2024-10-22,2024-10-22,ＷＩＳＥ合同会社,,合同会社,静岡県,静岡市清水区,木の下町９６番地の１,,22,103,4240846,,,,,,,2024-10-22,1,,,,,ワイズ,0
2424,9100001037931,新規,0,2024-10-22,2024-10-22,株式会社Ｂｕｌｌｏｘ,,株式会社,長野県,松本市,寿北６丁目１１番１号淵庵村Ｗ－ＢＡＳＥ１１,,20,202,3990011,,,,,,,2024-10-22,1,,,,,ブロックス,0
2425,9100001037948,新規,0,2024-10-22,2024-10-22,綿半ウッドパワー株式会社,,株式会社,長野県,塩尻市,大字片丘８５０１番地３２,,20,215,3990711,,,,,,,2024-10-22,1,,,,,ワタハンウッドパワー,0
2428,9110001038788,新規,0,2024-10-22,2024-10-22,株式会社Ｎｉｉｔａｋａ,,株式会社,新潟県,長岡市,美沢１丁目２９番地８,,15,202,9400856,,,,,,,2024-10-22,1,,,,,ニイタカ,0
2429,9110005017144,新規,0,2024-10-22,2024-10-22,一般社団法人てぺてこ,,その他の設立登記法人,新潟県,新潟市北区,三軒屋町２番１０号,,15,101,9503124,,,,,,,2024-10-22,1,,,,,テペテコ,0
2442,9120001269267,新規,0,2024-10-22,2024-10-22,大一石油株式会社,,株式会社,大阪府,大阪市旭区,赤川３丁目１３番３９－２０７号,,27,117,5350005,,,,,,,2024-10-22,1,,,,,ダイイチセキユ,0
2443,9120001269548,新規,0,2024-10-22,2024-10-22,和源堂株式会社,,株式会社,大阪府,大阪市西区,本田３丁目１番１９－４０３号,,27,106,5500022,,,,,,,2024-10-22,1,,,,,ワゲンドウ,0
2444,9120001269556,新規,0,2024-10-22,2024-10-22,Ａ＆Ｅ株式会社,,株式会社,大阪府,大阪市西成区,太子２丁目４番１号４５６プラザ２０２,,27,122,5570002,,,,,,,2024-10-22,1,,,,,エーアンドイー,0
2446,9120003027796,新規,0,2024-10-22,2024-10-22,ＶＩ　ＨＵＹ合同会社,,合同会社,大阪府,大阪市西成区,松３丁目１１番２２号,,27,122,5570034,,,,,,,2024-10-22,1,,,,,ヴィユイ,0
2450,9120101070459,新規,0,2024-10-22,2024-10-22,株式会社ラルム,,株式会社,大阪府,河内長野市,上原町１２１番地の５,,27,216,5860037,,,,,,,2024-10-22,1,,,,,ラルム,0
2456,9122001038560,新規,0,2024-10-22,2024-10-22,株式会社ベストメイト,,株式会社,大阪府,四條畷市,岡山東５丁目８番２８号,,27,229,5750003,,,,,,,2024-10-22,1,,,,,ベストメイト,0
2460,9130001078188,新規,0,2024-10-22,2024-10-22,Ｏ‐Ｌｉｎｅ株式会社,,株式会社,京都府,長岡京市,奥海印寺山田１７－３３,,26,209,6170853,,,,,,,2024-10-22,1,,,,,オーライン,0
2463,9130005017217,新規,0,2024-10-22,2024-10-22,京都公同信用金庫,,その他の設立登記法人,京都府,京都市下京区,烏丸通松原上る因幡堂町７１４番地,,26,106,6008415,,,,,,,2024-10-22,1,,,,,キョウトコウドウ,0
2467,9140001136192,新規,0,2024-10-22,2024-10-22,株式会社ＡＲＫ,,株式会社,兵庫県,たつの市,龍野町下川原７４－１,,28,229,6794177,,,,,,,2024-10-22,1,,,,,アーク,0
2480,9180001163646,新規,0,2024-10-22,2024-10-22,株式会社デンタルグース,,株式会社,愛知県,名古屋市瑞穂区,田辺通３丁目４４番地の１３,,23,108,4670027,,,,,,,2024-10-22,1,,,,,デンタルグース,0
2481,9180001163695,新規,0,2024-10-22,2024-10-22,株式会社日工商会,,株式会社,愛知県,瀬戸市,品野町４丁目１０９５番地,,23,204,4801207,,,,,,,2024-10-22,1,,,,,ニッコウショウカイ,0
2482,9180001163745,新規,0,2024-10-22,2024-10-22,株式会社ＶＧ,,株式会社,愛知県,名古屋市中区,栄４丁目２１番２４号,,23,106,4600008,,,,,,,2024-10-22,1,,,,,ブイジー,0
2483,9180003027502,新規,0,2024-10-22,2024-10-22,合同会社スカイブルー,,合同会社,愛知県,知多市,日長字城見坂５０番地の１,,23,224,4780041,,,,,,,2024-10-22,1,,,,,スカイブルー,0
2484,9180005020810,新規,0,2024-10-22,2024-10-22,社会福祉法人言の葉,,その他の設立登記法人,愛知県,春日井市,東野町茨澤３４‐１,,23,206,4860817,,,,,,,2024-10-22,1,,,,,コトノハ,0
2486,9190001031736,新規,0,2024-10-22,2024-10-22,ＧＯＯＤ　ＷＯＲＫＳ株式会社,,株式会社,三重県,多気郡明和町,大字山大淀２９７１番地４,,24,442,5150303,,,,,,,2024-10-22,1,,,,,グッドワークス,0
2487,9200005013670,新規,0,2024-10-22,2024-10-22,一般社団法人大和金属工事職人連合会,,その他の設立登記法人,岐阜県,岐阜市,柳津町南塚５丁目１６２番地,,21,201,5016113,,,,,,,2024-10-22,1,,,,,ヤマトキンゾクコウジショクニンレンゴウカイ,0
2490,9220003003861,新規,0,2024-10-22,2024-10-22,合同会社西野商店,,合同会社,石川県,野々市市,新庄２丁目２７８番地,,17,212,9218824,,,,,,,2024-10-22,1,,,,,ニシノショウテン,0
2495,9250001020856,新規,0,2024-10-22,2024-10-22,株式会社ラピレクト,,株式会社,山口県,宇部市,東小串２丁目２番８号,,35,202,7550068,,,,,,,2024-10-22,1,,,,,ラピレクト,0
2497,9260001039565,新規,0,2024-10-22,2024-10-22,株式会社ゼウス,,株式会社,岡山県,岡山市南区,大福６２３番地２Ｃ棟２０１号室,,33,104,7010204,,,,,,,2024-10-22,1,,,,,ゼウス,0
2498,9260003004930,新規,0,2024-10-22,2024-10-22,合同会社社会福祉咲心会,,合同会社,岡山県,倉敷市,西阿知町西原６２３－１,,33,202,7100806,,,,,,,2024-10-22,1,,,,,シャカイフクシサクシンカイ,0
2504,9290001107674,新規,0,2024-10-22,2024-10-22,ベストセレクト保険株式会社,,株式会社,福岡県,筑紫野市,上古賀３丁目１２番２８号,,40,217,8180041,,,,,,,2024-10-22,1,,,,,ベストセレクトホケン,0
2508,9290801030976,新規,0,2024-10-22,2024-10-22,株式会社アップウェル,,株式会社,福岡県,北九州市八幡西区,穴生４丁目１４番１７－２０５号,,40,109,8060049,,,,,,,2024-10-22,1,,,,,アップウェル,0
2514,9370001051831,新規,0,2024-10-22,2024-10-22,株式会社エクシア,,株式会社,宮城県,登米市,登米町寺池上町１番地１,,04,212,9870702,,,,,,,2024-10-22,1,,,,,エクシア,0
2527,9420003003016,新規,0,2024-10-22,2024-10-22,ＳＵＮ８合同会社,,合同会社,青森県,八戸市,新井田西２丁目８番１号,,02,203,0310816,,,,,,,2024-10-22,1,,,,,サンエイト,0
2531,9430003016900,新規,0,2024-10-22,2024-10-22,合同会社ＴＡＫＵ　ＳＰＡＣＥ　ｖｉｐ,,合同会社,北海道,札幌市中央区,南十二条西１丁目２番２８－１００１号,,01,101,0640912,,,,,,,2024-10-22,1,,,,,タクスペースヴィップ,0
2532,9430003016909,新規,0,2024-10-22,2024-10-22,ＮｏｒｔｈＪａｐａｎ合同会社,,合同会社,北海道,札幌市中央区,大通西１５丁目３－５－１００７,,01,101,0600042,,,,,,,2024-10-22,1,,,,,ノースジャパン,0
2533,9430005015090,新規,0,2024-10-22,2024-10-22,一般社団法人ｎｉｎｃｕｐ,,その他の設立登記法人,北海道,札幌市豊平区,平岸二条１３丁目３番１４－４１１号,,01,105,0620932,,,,,,,2024-10-22,1,,,,,ニンチュプ,0
2534,9440001009509,新規,0,2024-10-22,2024-10-22,株式会社ラシクホーム,,株式会社,北海道,函館市,西桔梗町６９２－３,,01,202,0410824,,,,,,,2024-10-22,1,,,,,ラシクホーム,0
2540,9500001025953,新規,0,2024-10-22,2024-10-22,株式会社Ｖｉｔａｍｉｎｓ,,株式会社,愛媛県,八幡浜市,高野地８３２番地１,,38,204,7960005,,,,,,,2024-10-22,1,,,,,ビタミンズ,0
2542,9700150127101,新規,0,2024-10-22,2024-09-10,宮前の歴史から今を学ぶ会,,その他,神奈川県,川崎市宮前区,宮前平３丁目７－７,,14,136,2160006,,,,,,,2024-09-10,1,,,,,ミヤマエノレキシカライマヲマナブカイ,0
2543,9700150127324,新規,0,2024-10-22,2024-09-27,秋田県立ゆり支援学校ＰＴＡ,,その他,秋田県,由利本荘市,水林４５６－３,,05,210,0150885,,,,,,,2024-09-27,1,,,,,アキタケンリツユリシエンガツコウピーテイーエー,0
