sequenceNumber,corporateNumber,process,correct,updateDate,changeDate,name,nameImageId,kind,prefectureName,cityName,streetNumber,addressImageId,prefectureCode,cityCode,postCode,addressOutside,addressOutsideImageId,closeDate,closeCause,successorCorporateNumber,changeCause,assignmentDate,latest,enName,enPrefectureName,enCityName,enAddressOutside,furigana,hihyoji
14,1010001226699,新規,0,2022-05-19,2022-05-19,ＮＣＧ株式会社,,株式会社,東京都,中央区,日本橋横山町５番１８－２０１号,,13,102,1030003,,,,,,,2022-05-19,1,,,,,エヌシージー,0
21,1010003037657,新規,0,2022-05-19,2022-05-19,Ｊ　ＶＡＬＵＥ　ＭＫＴ合同会社,,合同会社,東京都,千代田区,丸の内１丁目８－１丸ノ内鉄鋼ビル４階,,13,101,1000005,,,,,,,2022-05-19,1,,,,,ジェイバリューエムケーティー,0
22,1010003037673,新規,0,2022-05-19,2022-05-19,ＫＣ　ｐｅａｋｓ合同会社,,合同会社,東京都,千代田区,霞が関３丁目２番１号,,13,101,1000013,,,,,,,2022-05-19,1,,,,,ケーシーピークス,0
24,1010005035023,新規,0,2022-05-19,2022-05-19,一般社団法人ＶＥＲＥＤ２,,その他の設立登記法人,東京都,中央区,八丁堀４丁目２番１０号ＡＯＪ税理士法人内,,13,102,1040032,,,,,,,2022-05-19,1,,,,,ヴェレッドツー,0
28,1010401167196,新規,0,2022-05-19,2022-05-19,株式会社ＥＱＵＩＰ,,株式会社,東京都,港区,南青山６丁目１２番３号,,13,103,1070062,,,,,,,2022-05-19,1,,,,,エクイップ,0
29,1010401167213,新規,0,2022-05-19,2022-05-19,株式会社アンディフロイデ,,株式会社,東京都,港区,芝５丁目２３番１６号,,13,103,1080014,,,,,,,2022-05-19,1,,,,,アンディフロイデ,0
30,1010401167238,新規,0,2022-05-19,2022-05-19,グランドメタルエンジ株式会社,,株式会社,東京都,港区,六本木６丁目１０番１号六本木ヒルズ１６階,,13,103,1060032,,,,,,,2022-05-19,1,,,,,グランドメタルエンジ,0
31,1010401167345,新規,0,2022-05-19,2022-05-19,株式会社ＦＥＬＩＣＩＴＥ,,株式会社,東京都,港区,南青山７丁目１３番２号,,13,103,1070062,,,,,,,2022-05-19,1,,,,,フェリシテ,0
32,1010403027670,新規,0,2022-05-19,2022-05-19,合同会社オクタ,,合同会社,東京都,港区,浜松町２丁目２番１５号浜松町ダイヤビル２階,,13,103,1050013,,,,,,,2022-05-19,1,,,,,オクタ,0
39,1010601061182,新規,0,2022-05-19,2022-05-19,株式会社ヴィズクル,,株式会社,東京都,墨田区,東向島６丁目５８番３号,,13,107,1310032,,,,,,,2022-05-19,1,,,,,ヴィズクル,0
49,1010901050884,新規,0,2022-05-19,2022-05-19,株式会社トリーム,,株式会社,東京都,世田谷区,梅丘１丁目６２番９号,,13,112,1540022,,,,,,,2022-05-19,1,,,,,トリーム,0
50,1010903007387,新規,0,2022-05-19,2022-05-19,イーアンドバイ合同会社,,合同会社,東京都,世田谷区,若林４丁目１２番４号,,13,112,1540023,,,,,,,2022-05-19,1,,,,,イーアンドバイ,0
65,1011101098806,新規,0,2022-05-19,2022-05-19,株式会社ＫＯＲＥＡ　ＦＯＯＤ　ＨＯＬＤＩＮＧＳ,,株式会社,東京都,新宿区,百人町２丁目１番３号Ｋ－ＰＬＡＺＡ３号館５Ｆ,,13,104,1690073,,,,,,,2022-05-19,1,,,,,コリアフードホールディングス,0
67,1011103011766,新規,0,2022-05-19,2022-05-19,エイト・ＫＧ合同会社,,合同会社,東京都,新宿区,上落合３丁目２０－９－２０３,,13,104,1610034,,,,,,,2022-05-19,1,,,,,エイトケイジー,0
71,1011505002470,新規,0,2022-05-19,2022-05-19,一般社団法人ＣＯＣＯＲＯごはん,,その他の設立登記法人,東京都,北区,滝野川３丁目２４番１号,,13,117,1140023,,,,,,,2022-05-19,1,,,,,ココロゴハン,0
74,1011801040736,新規,0,2022-05-19,2022-05-19,秀株式会社,,株式会社,東京都,足立区,新田１丁目１６番１０号１階,,13,121,1230865,,,,,,,2022-05-19,1,,,,,シュウ,0
76,1012403005375,新規,0,2022-05-19,2022-05-19,合同会社Ｍｏｋａｒａ　ｓｔｙｌｅ,,合同会社,東京都,武蔵野市,吉祥寺本町４丁目２３番６号６,,13,203,1800004,,,,,,,2022-05-19,1,,,,,モカラスタイル,0
77,1012803002781,新規,0,2022-05-19,2022-05-19,合同会社自由人,,合同会社,東京都,東大和市,清水６丁目１１９５番地の３グランドール大和２０３号,,13,220,2070004,,,,,,,2022-05-19,1,,,,,ジユウジン,0
87,1020001146525,新規,0,2022-05-19,2022-05-19,恒林日本株式会社,,株式会社,神奈川県,横浜市港北区,新横浜３丁目１７－６,,14,109,2220033,,,,,,,2022-05-19,1,,,,,コウリンニホン,0
88,1020001146541,新規,0,2022-05-19,2022-05-19,デスド株式会社,,株式会社,神奈川県,横浜市旭区,二俣川１丁目２６番２０号ビューハイツ第１－１０１,,14,112,2410821,,,,,,,2022-05-19,1,,,,,デスド,0
92,1021001075994,新規,0,2022-05-19,2022-05-19,三金株式会社,,株式会社,神奈川県,座間市,緑ケ丘３丁目４０番１６号,,14,216,2520021,,,,,,,2022-05-19,1,,,,,サンキン,0
112,1040001123456,新規,0,2022-05-19,2022-05-19,株式会社トニ工業,,株式会社,千葉県,千葉市中央区,仁戸名町３４２番地５１,,12,101,2600801,,,,,,,2022-05-19,1,,,,,トニコウギョウ,0
121,1080101023296,新規,0,2022-05-19,2022-05-19,新和商事株式会社,,株式会社,静岡県,富士宮市,杉田５２０番地の１,,22,207,4180021,,,,,,,2022-05-19,1,,,,,シンワショウジ,0
127,1110001036667,新規,0,2022-05-19,2022-05-19,株式会社ＮＡＧＡｔｒａｄｅ,,株式会社,新潟県,新潟市中央区,蒲原町１１番９号２０１,,15,103,9500083,,,,,,,2022-05-19,1,,,,,ナガトレード,0
134,1120001245960,新規,0,2022-05-19,2022-05-19,東源株式会社,,株式会社,大阪府,大阪市西成区,花園南１丁目１３番１号（２０５）,,27,122,5570015,,,,,,,2022-05-19,1,,,,,トウゲン,0
135,1120001245969,新規,0,2022-05-19,2022-05-19,株式会社ＴＳＯネットワーク,,株式会社,大阪府,大阪市北区,西天満３丁目６番２２号日宝北大阪屋ビル８Ｆ２,,27,127,5300047,,,,,,,2022-05-19,1,,,,,ティーエスオーネットワーク,0
136,1120001245977,新規,0,2022-05-19,2022-05-19,株式会社ディクトスペース,,株式会社,大阪府,大阪市中央区,南本町４丁目５番７号東亜ビル５階,,27,128,5410054,,,,,,,2022-05-19,1,,,,,ディクトスペース,0
137,1120001245985,新規,0,2022-05-19,2022-05-19,ＹＵＫＩＭＡＲＵ株式会社,,株式会社,大阪府,大阪市中央区,北久宝寺町４丁目４番７号ＶＰＯ本町セントラル１００３,,27,128,5410057,,,,,,,2022-05-19,1,,,,,ユキマル,0
140,1120003021708,新規,0,2022-05-19,2022-05-19,合同会社Ｓｏｆｔｓａｎｇ,,合同会社,大阪府,大阪市西成区,松１丁目１０番２９－１０２号,,27,122,5570034,,,,,,,2022-05-19,1,,,,,ソフトサング,0
144,1120101065598,新規,0,2022-05-19,2022-05-19,ｈｕｇｅ　ｗｉｓｄｏｍ株式会社,,株式会社,大阪府,堺市堺区,甲斐町東６丁１－４朝日プラザ堺東８０８号室,,27,141,5900953,,,,,,,2022-05-19,1,,,,,ヒュージウィズダム,0
145,1120101065607,新規,0,2022-05-19,2022-05-19,株式会社オカムラＯｓａｋａ,,株式会社,大阪府,松原市,高見の里４丁目８－１６,,27,217,5800021,,,,,,,2022-05-19,1,,,,,オカムラオオサカ,0
157,1140001126036,新規,0,2022-05-19,2022-05-19,株式会社Ｆｅｅｌ・Ｏｎｅ,,株式会社,兵庫県,神戸市西区,玉津町今津６４０番地の１２,,28,111,6512128,,,,,,,2022-05-19,1,,,,,フィールワン,0
158,1140001126044,新規,0,2022-05-19,2022-05-19,株式会社Ｌｉｆｅ　Ｎａｔｉｖｅ,,株式会社,兵庫県,明石市,大久保町大久保町６６５番地の１,,28,203,6740067,,,,,,,2022-05-19,1,,,,,ライフネイティブ,0
159,1140001126060,新規,0,2022-05-19,2022-05-19,株式会社ビギンズ,,株式会社,兵庫県,神戸市中央区,浜辺通４丁目１番２３号三宮ベンチャービル５２０,,28,110,6510083,,,,,,,2022-05-19,1,,,,,ビギンズ,0
162,1160001024213,新規,0,2022-05-19,2022-05-19,ガストロ病理株式会社,,株式会社,滋賀県,大津市,一里山４丁目２７番２６号,,25,201,5202153,,,,,,,2022-05-19,1,,,,,ガストロビョウリ,0
169,1180001151369,新規,0,2022-05-19,2022-05-19,株式会社松田建築,,株式会社,愛知県,知多郡武豊町,字下門８２番地１,,23,447,4702339,,,,,,,2022-05-19,1,,,,,マツダケンチク,0
184,1240001059770,新規,0,2022-05-19,2022-05-19,ＨＲソリューションズ株式会社,,株式会社,広島県,広島市安佐南区,中筋１丁目１９番５５号,,34,105,7310122,,,,,,,2022-05-19,1,,,,,エイチアールソリューションズ,0
197,1290001097551,新規,0,2022-05-19,2022-05-19,福岡デザインワークス株式会社,,株式会社,福岡県,福岡市博多区,綱場町９番８－４０３号アソシアグロッツォ博多セントラルタワー,,40,132,8120024,,,,,,,2022-05-19,1,,,,,フクオカデザインワークス,0
198,1290001097576,新規,0,2022-05-19,2022-05-19,株式会社ベストソングス,,株式会社,福岡県,福岡市博多区,博多駅前２丁目１番１号,,40,132,8120011,,,,,,,2022-05-19,1,,,,,ベストソングス,0
203,1290003012525,新規,0,2022-05-19,2022-05-19,合同会社ＴＩＶＥ,,合同会社,福岡県,福岡市西区,今宿青木２２１番地１,,40,135,8190162,,,,,,,2022-05-19,1,,,,,ティブ,0
208,1310001017861,新規,0,2022-05-19,2022-05-19,株式会社西海松永工業,,株式会社,長崎県,西海市,西彼町上岳郷４８４番地,,42,212,8513304,,,,,,,2022-05-19,1,,,,,サイカイマツナガコウギョウ,0
216,1350001017750,新規,0,2022-05-19,2022-05-19,株式会社Ｔｈｅ　Ｓｅａ　Ｈｏｕｓｅ,,株式会社,宮崎県,宮崎市,神宮東２丁目１０番２８号グランドヒルズ翔１０１号,,45,201,8800056,,,,,,,2022-05-19,1,,,,,ザシーハウス,0
217,1350003004086,新規,0,2022-05-19,2022-05-19,合同会社碧信,,合同会社,宮崎県,日南市,飫肥２丁目４番１２号,,45,204,8892535,,,,,,,2022-05-19,1,,,,,アオシン,0
219,1360003012006,新規,0,2022-05-19,2022-05-19,合同会社アグリ旬沖縄,,合同会社,沖縄県,浦添市,港川１丁目３４番９－８０２号,,47,208,9012134,,,,,,,2022-05-19,1,,,,,アグリシュンオキナワ,0
235,1430001086655,新規,0,2022-05-19,2022-05-19,株式会社Ｌａ　Ｌｉｂｅｒｔｅ,,株式会社,北海道,札幌市中央区,北一条西８丁目２番地７ホサカビル１階,,01,101,0600001,,,,,,,2022-05-19,1,,,,,ラリベルテ,0
238,1430003013913,新規,0,2022-05-19,2022-05-19,合同会社エイプリル,,合同会社,北海道,札幌市東区,東苗穂七条１丁目２番１４号,,01,103,0070807,,,,,,,2022-05-19,1,,,,,エイプリル,0
239,1430003013921,新規,0,2022-05-19,2022-05-19,合同会社ヤノケン,,合同会社,北海道,千歳市,真々地２丁目４番２１号真々地マンション２０２号,,01,224,0660045,,,,,,,2022-05-19,1,,,,,ヤノケン,0
243,1430005014471,新規,0,2022-05-19,2022-05-19,一般社団法人Ｓａｋｕｒａ　Ａｉｄ,,その他の設立登記法人,北海道,札幌市中央区,南一条西８丁目１０－３,,01,101,0600061,,,,,,,2022-05-19,1,,,,,サクラエイド,0
269,2010001226731,新規,0,2022-05-19,2022-05-19,メタバーサルネイチャーテクノロジーズ株式会社,,株式会社,東京都,文京区,本郷２丁目５４番１４号第一ライトビル５０７,,13,105,1130033,,,,,,,2022-05-19,1,,,,,メタバーサルネイチャーテクノロジーズ,0
272,2010003037697,新規,0,2022-05-19,2022-05-19,ＨＬＢ１０号合同会社,,合同会社,東京都,千代田区,霞が関３丁目２番５号,,13,101,1000013,,,,,,,2022-05-19,1,,,,,エイチエルビージュウゴウ,0
280,2010401167195,新規,0,2022-05-19,2022-05-19,株式会社ＭＯＵＶＥＭＥＮＴ,,株式会社,東京都,港区,南青山６丁目１２番３号,,13,103,1070062,,,,,,,2022-05-19,1,,,,,ムーブモン,0
281,2010401167261,新規,0,2022-05-19,2022-05-19,株式会社スクーラ,,株式会社,東京都,港区,赤坂２丁目２１番４号天翔オフィス赤坂ＡＮＮＥＸ４Ｆ,,13,103,1070052,,,,,,,2022-05-19,1,,,,,スクーラ,0
282,2010401167328,新規,0,2022-05-19,2022-05-19,株式会社ＡＯ　ＣＨＡＮ,,株式会社,東京都,港区,南青山３丁目１５番９号ＭＩＮＯＷＡ表参道３Ｆ,,13,103,1070062,,,,,,,2022-05-19,1,,,,,アオチャン,0
286,2010403027620,新規,0,2022-05-19,2022-05-19,もちもち合同会社,,合同会社,東京都,港区,浜松町２丁目２番１５号浜松町ダイヤビル２Ｆ,,13,103,1050013,,,,,,,2022-05-19,1,,,,,モチモチ,0
289,2010405020978,新規,0,2022-05-19,2022-05-19,一般社団法人Ｅｌ　Ｄｏｒａｄｏ,,その他の設立登記法人,東京都,港区,虎ノ門５丁目１番４号,,13,103,1050001,,,,,,,2022-05-19,1,,,,,エルドラード,0
296,2010605004079,新規,0,2022-05-19,2022-05-19,一般社団法人全国マザーズケア協会,,その他の設立登記法人,東京都,江東区,冬木２１番２３－３１１号,,13,108,1350041,,,,,,,2022-05-19,1,,,,,ゼンコクマザーズケアキョウカイ,0
299,2010701042627,新規,0,2022-05-19,2022-05-19,株式会社ラカリテホールディングス,,株式会社,東京都,品川区,西大井４丁目１８番９号,,13,109,1400015,,,,,,,2022-05-19,1,,,,,ラカリテホールディングス,0
311,2011001147380,新規,0,2022-05-19,2022-05-19,Ｋｉｎｇｓｂｒｉｄｇｅ株式会社,,株式会社,東京都,目黒区,碑文谷５丁目２１番６号,,13,110,1520003,,,,,,,2022-05-19,1,,,,,,0
312,2011001147612,新規,0,2022-05-19,2022-05-19,株式会社Ｋｏａ,,株式会社,東京都,渋谷区,桜丘町１６番１４号ドルチェ渋谷Ｂ２Ｆ,,13,113,1500031,,,,,,,2022-05-19,1,,,,,コア,0
313,2011001147620,新規,0,2022-05-19,2022-05-19,株式会社ＴＲＥＥＨＯＵＳＥ,,株式会社,東京都,目黒区,青葉台３丁目１７番１１号ティーケー青葉台３０４号室,,13,110,1530042,,,,,,,2022-05-19,1,,,,,トゥリーハウス,0
316,2011003014661,新規,0,2022-05-19,2022-05-19,合同会社Ｂｌｕｅ　ｍｏｏｎ,,合同会社,東京都,目黒区,目黒本町３丁目６番２号グランドール小山２０３,,13,110,1520002,,,,,,,2022-05-19,1,,,,,ブルームーン,0
317,2011003014686,新規,0,2022-05-19,2022-05-19,かんたん連絡網合同会社,,合同会社,東京都,渋谷区,神宮前６丁目２３番４号桑野ビル２階,,13,113,1500001,,,,,,,2022-05-19,1,,,,,,0
318,2011003014703,新規,0,2022-05-19,2022-05-19,ＤＥＣＯＤＥＤ合同会社,,合同会社,東京都,渋谷区,神宮前５丁目４７番２号,,13,113,1500001,,,,,,,2022-05-19,1,,,,,デコーデッド,0
323,2011101098862,新規,0,2022-05-19,2022-05-19,株式会社ぐるきち,,株式会社,東京都,新宿区,新宿６丁目２６－２コーラルビル６Ｆ,,13,104,1600022,,,,,,,2022-05-19,1,,,,,グルキチ,0
330,2011605002452,新規,0,2022-05-19,2022-05-19,一般社団法人日本スポーツプロモーション研究所,,その他の設立登記法人,東京都,練馬区,桜台４丁目１４番５号,,13,120,1760002,,,,,,,2022-05-19,1,,,,,ニホンスポーツプロモーションケンキュウショ,0
338,2012301012992,新規,0,2022-05-19,2022-05-19,株式会社ＡｓｕＣａｌｍ,,株式会社,東京都,町田市,小山町２１１番地１,,13,209,1940212,,,,,,,2022-05-19,1,,,,,アスカーム,0
344,2012701017055,新規,0,2022-05-19,2022-05-19,パウダーＸ株式会社,,株式会社,東京都,東久留米市,下里１丁目８－３３下里本間ビル２０２号,,13,222,2030043,,,,,,,2022-05-19,1,,,,,パウダーエックス,0
345,2012801021584,新規,0,2022-05-19,2022-05-19,株式会社トラストワース,,株式会社,東京都,国立市,富士見台３丁目２５番地の２メゾンヴェール国立さくら通り４０４,,13,215,1860003,,,,,,,2022-05-19,1,,,,,トラストワース,0
347,2013301049117,新規,0,2022-05-19,2022-05-19,株式会社ＳＡＨＡＳ,,株式会社,東京都,豊島区,高田３丁目２番１４－３０１号,,13,116,1710033,,,,,,,2022-05-19,1,,,,,サハス,0
357,2020001146557,新規,0,2022-05-19,2022-05-19,株式会社ＬＵＣＫＹ　ＣＬＯＶＥＲ,,株式会社,神奈川県,横浜市瀬谷区,相沢６丁目４６番地１６,,14,114,2460013,,,,,,,2022-05-19,1,,,,,ラッキークローバー,0
358,2020001146565,新規,0,2022-05-19,2022-05-19,株式会社ＯＺ,,株式会社,神奈川県,横浜市中区,曙町１丁目１０番地１０,,14,104,2310057,,,,,,,2022-05-19,1,,,,,オズ,0
389,2040003020056,新規,0,2022-05-19,2022-05-19,ライフ＆ツリー合同会社,,合同会社,千葉県,船橋市,二和東３丁目１－１０,,12,204,2740805,,,,,,,2022-05-19,1,,,,,ライフアンドツリー,0
391,2050001051093,新規,0,2022-05-19,2022-05-19,株式会社桝味,,株式会社,茨城県,東茨城郡茨城町,大字中石崎１０５０番地の３,,08,302,3113124,,,,,,,2022-05-19,1,,,,,マスミ,0
394,2070002036257,新規,0,2022-05-19,2022-05-19,有限会社オガシワオートサービス,,有限会社,群馬県,吾妻郡長野原町,大字古森１番地１,,10,424,3771306,,,,,,,2022-05-19,1,,,,,オガシワオートサービス,0
399,2090001017578,新規,0,2022-05-19,2022-05-19,株式会社ハテナビト,,株式会社,山梨県,南アルプス市,西野１７４０番地１,,19,208,4000213,,,,,,,2022-05-19,1,,,,,ハテナビト,0
412,2120001246000,新規,0,2022-05-19,2022-05-19,株式会社ＣＯＣＯ８,,株式会社,大阪府,大阪市淀川区,西宮原２丁目６番６７－１１０２号,,27,123,5320004,,,,,,,2022-05-19,1,,,,,ココユイット,0
413,2120001246017,新規,0,2022-05-19,2022-05-19,そらとぶタクシー株式会社,,株式会社,大阪府,大阪市住之江区,北加賀屋５丁目５－２８,,27,125,5590011,,,,,,,2022-05-19,1,,,,,ソラトブタクシー,0
424,2120901045988,新規,0,2022-05-19,2022-05-19,株式会社ｃｏｎｎｅｃｔ,,株式会社,大阪府,豊中市,曽根西町４丁目１５番１７号,,27,203,5610801,,,,,,,2022-05-19,1,,,,,コネクト,0
439,2130003007928,新規,0,2022-05-19,2022-05-19,Ａｒｂｏｒｅｔａ合同会社,,合同会社,京都府,京都市伏見区,深草石峰寺山町３２番地,,26,109,6120883,,,,,,,2022-05-19,1,,,,,アーボレータ,0
444,2140001126035,新規,0,2022-05-19,2022-05-19,株式会社かとう不動産,,株式会社,兵庫県,加古川市,平岡町新在家１３７２番地の２１,,28,210,6750101,,,,,,,2022-05-19,1,,,,,カトウフドウサン,0
445,2140001126051,新規,0,2022-05-19,2022-05-19,ＹＥＥ　ＰＥＡＲＬ株式会社,,株式会社,兵庫県,神戸市中央区,山本通２丁目１１番６号ＰｅａｒｌＧａｒｄｅｎ１０１－Ｄ,,28,110,6500003,,,,,,,2022-05-19,1,,,,,イーパール,0
452,2160003002570,新規,0,2022-05-19,2022-05-19,ＡＵＳＴＲＡＬ合同会社,,合同会社,滋賀県,大津市,日吉台３丁目１９番９号,,25,201,5200112,,,,,,,2022-05-19,1,,,,,アウストラル,0
476,2220003003281,新規,0,2022-05-19,2022-05-19,合同会社ＨＯＮＥＳＴ,,合同会社,石川県,小松市,長崎町３丁目８７番地,,17,203,9230004,,,,,,,2022-05-19,1,,,,,ホーネスト,0
486,2290001097534,新規,0,2022-05-19,2022-05-19,株式会社Ｔ＆Ｚグローバル,,株式会社,福岡県,福岡市東区,原田４丁目７－３０,,40,131,8120063,,,,,,,2022-05-19,1,,,,,ティアンドズィーグローバル,0
487,2290001097550,新規,0,2022-05-19,2022-05-19,株式会社エストレージャ,,株式会社,福岡県,福岡市南区,大楠２丁目１１番３２号,,40,134,8150082,,,,,,,2022-05-19,1,,,,,エストレージャ,0
488,2290001097575,新規,0,2022-05-19,2022-05-19,株式会社ツキガタビルディング,,株式会社,福岡県,福岡市博多区,住吉２丁目１７番２９号,,40,132,8120018,,,,,,,2022-05-19,1,,,,,ツキガタビルディング,0
496,2340001024730,新規,0,2022-05-19,2022-05-19,株式会社マツケン,,株式会社,鹿児島県,出水市,黄金町４５６番地１,,46,208,8990125,,,,,,,2022-05-19,1,,,,,マツケン,0
499,2360001030438,新規,0,2022-05-19,2022-05-19,株式会社ライフフォースカイロプラクティック,,株式会社,沖縄県,宜野湾市,伊佐３丁目９番地１８Ｄｒｅｓｓ３９１８、１－Ｃ号室,,47,205,9012221,,,,,,,2022-05-19,1,,,,,ライフフォースカイロプラクティック,0
509,2380001032820,新規,0,2022-05-19,2022-05-19,郷戸屋株式会社,,株式会社,福島県,会津若松市,日新町２番２３号,,07,202,9650861,,,,,,,2022-05-19,1,,,,,ゴウトヤ,0
515,2410003003659,新規,0,2022-05-19,2022-05-19,合同会社森山ビレッジ,,合同会社,秋田県,南秋田郡五城目町,馬場目字町村４９番地,,05,361,0181713,,,,,,,2022-05-19,1,,,,,モリヤマビレッジ,0
521,2430001086654,新規,0,2022-05-19,2022-05-19,株式会社デイズ建築設計事務所,,株式会社,北海道,札幌市中央区,南十条西１０丁目１番２０号さくらビル５階,,01,101,0640810,,,,,,,2022-05-19,1,,,,,デイズケンチクセッケイジムショ,0
522,2430001086662,新規,0,2022-05-19,2022-05-19,株式会社ラクタスホーム,,株式会社,北海道,札幌市北区,新川三条１５丁目３番１０号,,01,102,0010923,,,,,,,2022-05-19,1,,,,,ラクタスホーム,0
523,2430001086679,新規,0,2022-05-19,2022-05-19,ＴＯＣＨＩＴＡＴＥ株式会社,,株式会社,北海道,札幌市南区,石山二条６丁目７番１号,,01,106,0050842,,,,,,,2022-05-19,1,,,,,トチタテ,0
527,2430003013912,新規,0,2022-05-19,2022-05-19,ＴＯＳＨＩＲＯ’Ｓ　ＢＡＳＥ合同会社,,合同会社,北海道,虻田郡倶知安町,字岩尾別４４番地４５リバブルタウン花の丘１０５号室,,01,400,0440082,,,,,,,2022-05-19,1,,,,,トシローズベース,0
528,2430003013920,新規,0,2022-05-19,2022-05-19,合同会社丸北設備,,合同会社,北海道,札幌市北区,篠路七条８丁目２番３０号,,01,102,0028027,,,,,,,2022-05-19,1,,,,,マルキタセツビ,0
529,2430005014470,新規,0,2022-05-19,2022-05-19,一般社団法人創プロＪＥＣＴ,,その他の設立登記法人,北海道,札幌市豊平区,豊平四条１２丁目３番１３－２０７号,,01,105,0620904,,,,,,,2022-05-19,1,,,,,ソウプロジェクト,0
531,2440003001461,新規,0,2022-05-19,2022-05-19,合同会社神凰丸,,合同会社,北海道,亀田郡七飯町,本町３丁目３－２１,,01,337,0411111,,,,,,,2022-05-19,1,,,,,シンオウマル,0
540,2500001024219,新規,0,2022-05-19,2022-05-19,株式会社谷工ホールディングス,,株式会社,愛媛県,大洲市,平野町平地１２０番地,,38,207,7950022,,,,,,,2022-05-19,1,,,,,タニコウホールディングス,0
542,2500003002833,新規,0,2022-05-19,2022-05-19,ＭＭカンパニー合同会社,,合同会社,愛媛県,松山市,和気町２丁目７４０番地２９,,38,201,7992656,,,,,,,2022-05-19,1,,,,,,0
564,3010401167384,新規,0,2022-05-19,2022-05-19,イイノインターナショナル株式会社,,株式会社,東京都,港区,新橋５丁目２７番１号新橋パークプライスビル２Ｆ,,13,103,1050004,,,,,,,2022-05-19,1,,,,,イイノインターナショナル,0
566,3010403027660,新規,0,2022-05-19,2022-05-19,合同会社アンビシャス,,合同会社,東京都,港区,南麻布２丁目１３番１６号,,13,103,1060047,,,,,,,2022-05-19,1,,,,,アンビシャス,0
567,3010403027693,新規,0,2022-05-19,2022-05-19,Ｂｏｙｄ　Ｔｅｃｈｎｏｌｏｇｉｅｓ　Ｊａｐａｎ合同会社,,合同会社,東京都,港区,六本木１丁目９番１０号アークヒルズ仙石山森タワー２８階べーカー＆マッケンジー法律事務所（外国法共同事業）内,,13,103,1060032,,,,,,,2022-05-19,1,,,,,ボイドテクノロジーズジャパン,0
573,3010801032972,新規,0,2022-05-19,2022-05-19,株式会社ＧＬＡＳＴＥＫ,,株式会社,東京都,大田区,南六郷１丁目８番１号ハイツアオキ５０３,,13,111,1440045,,,,,,,2022-05-19,1,,,,,グラステック,0
578,3010903007385,新規,0,2022-05-19,2022-05-19,Ｐｏｃｋｅｔ　Ｐａｒｋ合同会社,,合同会社,東京都,世田谷区,瀬田５丁目２７番３号,,13,112,1580095,,,,,,,2022-05-19,1,,,,,ポケットパーク,0
586,3011001147611,新規,0,2022-05-19,2022-05-19,株式会社ＧＡＭ００８,,株式会社,東京都,渋谷区,千駄ヶ谷４丁目９番７号,,13,113,1510051,,,,,,,2022-05-19,1,,,,,ジーエーエムゼロゼロハチ,0
590,3011003014644,新規,0,2022-05-19,2022-05-19,合同会社ジェダイ,,合同会社,東京都,渋谷区,恵比寿南１丁目１６－４ＡＤＩＫ恵比寿南５０３,,13,113,1500022,,,,,,,2022-05-19,1,,,,,ジェダイ,0
596,3011301027785,新規,0,2022-05-19,2022-05-19,株式会社Ｌａｖａ,,株式会社,東京都,杉並区,高円寺北３丁目４５番１３号ドモスオウトス４階,,13,115,1660002,,,,,,,2022-05-19,1,,,,,ラヴァ,0
602,3011501028047,新規,0,2022-05-19,2022-05-19,株式会社福住,,株式会社,東京都,荒川区,町屋４丁目２番７号,,13,118,1160001,,,,,,,2022-05-19,1,,,,,フクズミ,0
607,3011701025307,新規,0,2022-05-19,2022-05-19,ミライツコンサルティング株式会社,,株式会社,東京都,江戸川区,船堀２丁目２２番１６－４０１号,,13,123,1340091,,,,,,,2022-05-19,1,,,,,ミライツコンサルティング,0
612,3012801021583,新規,0,2022-05-19,2022-05-19,株式会社會田窓業,,株式会社,東京都,武蔵村山市,本町２丁目１８番地の２,,13,223,2080004,,,,,,,2022-05-19,1,,,,,アイダソウギョウ,0
623,3020001146548,新規,0,2022-05-19,2022-05-19,株式会社ダブルタップ,,株式会社,神奈川県,横浜市都筑区,牛久保１丁目１４番１５号グランシャリオ都筑Ｂ－３０２,,14,118,2240012,,,,,,,2022-05-19,1,,,,,ダブルタップ,0
626,3020005015534,新規,0,2022-05-19,2022-05-19,一般社団法人コージープレイス,,その他の設立登記法人,神奈川県,横浜市青葉区,鴨志田町５６９番地１グリーンヒル鴨志田西団地１棟５０１号,,14,117,2270033,,,,,,,2022-05-19,1,,,,,コージープレイス,0
629,3021001076009,新規,0,2022-05-19,2022-05-19,株式会社Ｒｅｍｅｍｂｅｒ．,,株式会社,神奈川県,相模原市中央区,上矢部１丁目１４番２２号ル・クラージュ２０２,,14,152,2520201,,,,,,,2022-05-19,1,,,,,リメンバー,0
633,3021003011723,新規,0,2022-05-19,2022-05-19,合同会社雅Ｗｅｌｄ,,合同会社,神奈川県,茅ヶ崎市,高田２丁目２番６１号,,14,207,2530002,,,,,,,2022-05-19,1,,,,,ミヤビウェルド,0
639,3030001148213,新規,0,2022-05-19,2022-05-19,東新健株式会社,,株式会社,埼玉県,川口市,中青木１丁目５番１７号シトラス６ビル１０２号室,,11,203,3320032,,,,,,,2022-05-19,1,,,,,トウシンケン,0
645,3030005020863,新規,0,2022-05-19,2022-05-19,一般社団法人日本木繊維協会,,その他の設立登記法人,埼玉県,川口市,戸塚東３丁目２番２８号,,11,203,3330802,,,,,,,2022-05-19,1,,,,,ニホンモクセンイキョウカイ,0
657,3050001051092,新規,0,2022-05-19,2022-05-19,株式会社中山工業,,株式会社,茨城県,牛久市,栄町２丁目１１８番地,,08,219,3001233,,,,,,,2022-05-19,1,,,,,ナカヤマコウギョウ,0
658,3050005013080,新規,0,2022-05-19,2022-05-19,特定非営利活動法人ひたちなか自立支援センターおんりーわん,,その他の設立登記法人,茨城県,ひたちなか市,大字稲田１２８５－１１,,08,221,3120061,,,,,,,2022-05-19,1,,,,,ヒタチナカジリツシエンセンターオンリーワン,0
674,3080403004538,新規,0,2022-05-19,2022-05-19,合同会社エスケー,,合同会社,静岡県,浜松市東区,有玉台３丁目６番１１号,,22,132,4313126,,,,,,,2022-05-19,1,,,,,エスケー,0
676,3090001017577,新規,0,2022-05-19,2022-05-19,前沢自動車工業株式会社,,株式会社,山梨県,南アルプス市,榎原７８８番地１,,19,208,4000204,,,,,,,2022-05-19,1,,,,,マエザワジドウシャコウギョウ,0
687,3110001036665,新規,0,2022-05-19,2022-05-19,ボンジュール株式会社,,株式会社,新潟県,新潟市中央区,水道町２丁目８０８番地１１７,,15,103,9518121,,,,,,,2022-05-19,1,,,,,ボンジュール,0
691,3120001246008,新規,0,2022-05-19,2022-05-19,Ｆｉｔ’ｓ株式会社,,株式会社,大阪府,大阪市浪速区,恵美須西３丁目１３番２８－３０７号,,27,111,5560003,,,,,,,2022-05-19,1,,,,,フィッツ,0
696,3120903004157,新規,0,2022-05-19,2022-05-19,合同会社ｔｒｅｖｅ　ｏｕｔ,,合同会社,大阪府,豊中市,上新田２丁目２４－１－１０８,,27,203,5600085,,,,,,,2022-05-19,1,,,,,トリーヴアウト,0
706,3140001126034,新規,0,2022-05-19,2022-05-19,近畿システムエンジニアリング株式会社,,株式会社,兵庫県,神戸市垂水区,神陵台４丁目１番５２－５０４号,,28,108,6550041,,,,,,,2022-05-19,1,,,,,キンキシステムエンジニアリング,0
707,3140001126042,新規,0,2022-05-19,2022-05-19,株式会社Ｆｌｏｗｅｒ,,株式会社,兵庫県,川西市,小花１丁目５番１４－１６号,,28,217,6660015,,,,,,,2022-05-19,1,,,,,フラワー,0
710,3150003002686,新規,0,2022-05-19,2022-05-19,フロンティア南都インベストメント合同会社,,合同会社,奈良県,奈良市,橋本町１６番地,,29,201,6308217,,,,,,,2022-05-19,1,,,,,フロンティアナントインベストメント,0
719,3180001151326,新規,0,2022-05-19,2022-05-19,株式会社ＡＳＥＤ　Ｌａｂ．,,株式会社,愛知県,名古屋市港区,砂美町５０番地の１,,23,111,4550056,,,,,,,2022-05-19,1,,,,,エーエスイーディーラボ,0
730,3190001029422,新規,0,2022-05-19,2022-05-19,株式会社スズカモニカ,,株式会社,三重県,鈴鹿市,道伯２丁目３番１６号,,24,207,5130823,,,,,,,2022-05-19,1,,,,,スズカモニカ,0
749,3290001097558,新規,0,2022-05-19,2022-05-19,株式会社ユタカ,,株式会社,福岡県,飯塚市,目尾３３８番地１,,40,205,8200062,,,,,,,2022-05-19,1,,,,,ユタカ,0
750,3290001097566,新規,0,2022-05-19,2022-05-19,株式会社ＷＥＬＬ,,株式会社,福岡県,福岡市西区,大字田尻６８５番地３,,40,135,8190383,,,,,,,2022-05-19,1,,,,,ウェル,0
751,3290001097582,新規,0,2022-05-19,2022-05-19,ｂｉｚ　ｍａｎａｇｅｍｅｎｔ株式会社,,株式会社,福岡県,糟屋郡篠栗町,大字津波黒１７８番地２メゾンドシエルＩＩ－２０２号,00126602,40,342,8112415,,,,,,,2022-05-19,1,,,,,ビズマネジメント,0
752,3290001097590,新規,0,2022-05-19,2022-05-19,株式会社リエンデ,,株式会社,福岡県,福岡市博多区,博多駅前３丁目７番３５号博多ハイテックビル５０５,,40,132,8120011,,,,,,,2022-05-19,1,,,,,リエンデ,0
755,3290003012523,新規,0,2022-05-19,2022-05-19,合同会社ＷＯＯＤＳ　ＦＩＥＬＤ,,合同会社,福岡県,朝倉市,杷木林田１１３４番地４号,,40,228,8381506,,,,,,,2022-05-19,1,,,,,ウッズフィールド,0
757,3290801028539,新規,0,2022-05-19,2022-05-19,株式会社エイケン,,株式会社,福岡県,田川市,大字川宮１７８２番地４,,40,206,8260042,,,,,,,2022-05-19,1,,,,,エイケン,0
759,3320001019021,新規,0,2022-05-19,2022-05-19,奥村木材株式会社,,株式会社,大分県,宇佐市,大字江須賀１２２２番地の１０,,44,211,8720032,,,,,,,2022-05-19,1,,,,,オクムラモクザイ,0
761,3330001029754,新規,0,2022-05-19,2022-05-19,天空ホールディングス株式会社,,株式会社,熊本県,上益城郡益城町,大字杉堂９３８番地１８,,43,443,8612205,,,,,,,2022-05-19,1,,,,,テンクウホールディングス,0
769,3350001017749,新規,0,2022-05-19,2022-05-19,千夢創商株式会社,,株式会社,宮崎県,宮崎市,花ケ島町京出１３８３番地１サントノーレ花ケ島１００４号,,45,201,8800036,,,,,,,2022-05-19,1,,,,,センムソウショウ,0
772,3360005006656,新規,0,2022-05-19,2022-05-19,一般社団法人生活習慣作り,,その他の設立登記法人,沖縄県,那覇市,字仲井真２３８番地６,,47,201,9020074,,,,,,,2022-05-19,1,,,,,セイカツシュウカンヅクリ,0
781,3380003005179,新規,0,2022-05-19,2022-05-19,合同会社あいづの文庫,,合同会社,福島県,大沼郡会津美里町,寺崎字柿屋敷８８番地,,07,447,9696271,,,,,,,2022-05-19,1,,,,,アイヅノブンコ,0
789,3430001086645,新規,0,2022-05-19,2022-05-19,株式会社佑親,,株式会社,北海道,札幌市白石区,北郷五条３丁目１番１－１２０３号,,01,104,0030835,,,,,,,2022-05-19,1,,,,,ユウシン,0
815,4010401167202,新規,0,2022-05-19,2022-05-19,株式会社日経採用テクノロジー,,株式会社,東京都,港区,浜松町２丁目２番１５号２Ｆ,,13,103,1050013,,,,,,,2022-05-19,1,,,,,ニッケイサイヨウテクノロジー,0
818,4010403027511,新規,0,2022-05-19,2022-05-19,合同会社Ｌａｉｓｓｅｒ　Ｆａｉｒｅ,,合同会社,東京都,港区,三田４丁目３－１３,,13,103,1080073,,,,,,,2022-05-19,1,,,,,レッセフェール,0
830,4011001147429,新規,0,2022-05-19,2022-05-19,三栄不動産株式会社,,株式会社,東京都,渋谷区,東２丁目２９番１２号,,13,113,1500011,,,,,,,2022-05-19,1,,,,,サンエイフドウサン,0
833,4011003014676,新規,0,2022-05-19,2022-05-19,テックサポートプロジェクト合同会社,,合同会社,東京都,渋谷区,神宮前６丁目２３番４号桑野ビル２階,,13,113,1500001,,,,,,,2022-05-19,1,,,,,,0
839,4011103011755,新規,0,2022-05-19,2022-05-19,ＣＳ北海道黒松内合同会社,,合同会社,東京都,新宿区,西新宿２丁目１番１号新宿三井ビル５０階,,13,104,1600023,,,,,,,2022-05-19,1,,,,,シーエスホッカイドウクロマツナイ,0
843,4011301027784,新規,0,2022-05-19,2022-05-19,株式会社ＳＬ＆Ｃｏ．,,株式会社,東京都,杉並区,高円寺南１丁目２４番１１号ＨＩＣビル２Ｆ,,13,115,1660003,,,,,,,2022-05-19,1,,,,,エスエルアンドコー,0
846,4011501028046,新規,0,2022-05-19,2022-05-19,株式会社ｍｅｌｍｙ,,株式会社,東京都,荒川区,西日暮里６丁目４４－３西日暮里シティーハイツ１Ｆ,,13,118,1160013,,,,,,,2022-05-19,1,,,,,,0
849,4012303001678,新規,0,2022-05-19,2022-05-19,アップル商事合同会社,,合同会社,東京都,町田市,中町３丁目９番３－１０１号,,13,209,1940021,,,,,,,2022-05-19,1,,,,,アップルショウジ,0
865,4020003021789,新規,0,2022-05-19,2022-05-19,合同会社のくたーん,,合同会社,神奈川県,川崎市川崎区,藤崎１丁目１８－１２,,14,131,2100804,,,,,,,2022-05-19,1,,,,,ノクターン,0
872,4021001076008,新規,0,2022-05-19,2022-05-19,ＺＵＨＡ　ＮＩＰＰＯＮ株式会社,,株式会社,神奈川県,厚木市,上依知１５８８番地１コーポＰＢ７－２０２,,14,212,2430801,,,,,,,2022-05-19,1,,,,,ズハニッポン,0
888,4030005020862,新規,0,2022-05-19,2022-05-19,一般社団法人Ｔｒｕｍｐ,,その他の設立登記法人,埼玉県,川口市,芝下２丁目１５番５号,,11,203,3330848,,,,,,,2022-05-19,1,,,,,トランプ,0
893,4040001123478,新規,0,2022-05-19,2022-05-19,株式会社Ｖｅｒｓａｔｉｌｅ,,株式会社,千葉県,野田市,木間ケ瀬４９２番地２,,12,208,2700222,,,,,,,2022-05-19,1,,,,,バーサタイル,0
894,4040001123486,新規,0,2022-05-19,2022-05-19,株式会社新町興産,,株式会社,千葉県,千葉市中央区,登戸１丁目１５番３２号,,12,101,2600032,,,,,,,2022-05-19,1,,,,,シンマチコウサン,0
896,4040003020021,新規,0,2022-05-19,2022-05-19,合同会社エネジャック,,合同会社,千葉県,松戸市,西馬橋１丁目４番地１号カーサ西馬橋Ｄ１０１号室,,12,207,2710044,,,,,,,2022-05-19,1,,,,,エネジャック,0
899,4050001051083,新規,0,2022-05-19,2022-05-19,株式会社ビガット,,株式会社,茨城県,守谷市,薬師台４丁目１３－７６,,08,224,3020105,,,,,,,2022-05-19,1,,,,,ビガット,0
900,4050001051091,新規,0,2022-05-19,2022-05-19,株式会社金砂郷いとかわ農場,,株式会社,茨城県,常陸太田市,芦間町１０９１番地,00126600,08,212,3130121,,,,,,,2022-05-19,1,,,,,カナサゴウイトカワノウジョウ,0
918,4110001036664,新規,0,2022-05-19,2022-05-19,株式会社ｍｉｄｉｃａ　ｄｅｓｉｇｎ,,株式会社,新潟県,新潟市中央区,学校町通２番町５３０５－１,,15,103,9518126,,,,,,,2022-05-19,1,,,,,ミヂカデザイン,0
930,4120001245990,新規,0,2022-05-19,2022-05-19,株式会社Ａ．Ｂ．Ｕｎｉｔｅｄ,,株式会社,大阪府,大阪市北区,西天満６丁目２番１１号ＴＡＴＳＵＭＩ梅ヶ枝町ビル３０６号室,,27,127,5300047,,,,,,,2022-05-19,1,,,,,エービーユナイテッド,0
933,4120005022949,新規,0,2022-05-19,2022-05-19,行政書士法人ＫＥＮオフィス,,その他の設立登記法人,大阪府,大阪市北区,中崎西３丁目２番１７号,,27,127,5300015,,,,,,,2022-05-19,1,,,,,ケンオフィス,0
935,4120101065595,新規,0,2022-05-19,2022-05-19,株式会社令和住設,,株式会社,大阪府,堺市西区,菱木３丁２４８３番地５,,27,144,5938315,,,,,,,2022-05-19,1,,,,,レイワジュウセツ,0
954,4140003017692,新規,0,2022-05-19,2022-05-19,合同会社ＨＥＡ,,合同会社,兵庫県,伊丹市,桜ケ丘２丁目２番２７号,,28,207,6640897,,,,,,,2022-05-19,1,,,,,エイチイーエー,0
959,4180001050683,新規,0,2022-05-19,2022-05-19,宝金属工業株式会社,,株式会社,愛知県,名古屋市南区,要町５丁目８０番地,,23,112,4570802,,,,,,,2022-05-19,1,,,,,タカラキンゾクコウギョウ,0
977,4220005008673,新規,0,2022-05-19,2022-05-19,一般社団法人石川イノベーションスクール,,その他の設立登記法人,石川県,金沢市,松島２丁目１９１番地コムビル,,17,201,9200364,,,,,,,2022-05-19,1,,,,,イシカワイノベーションスクール,0
979,4240001059792,新規,0,2022-05-19,2022-05-19,株式会社オールイン,,株式会社,広島県,広島市中区,平野町１番１３－６０３号,,34,101,7300047,,,,,,,2022-05-19,1,,,,,オールイン,0
985,4260001036856,新規,0,2022-05-19,2022-05-19,株式会社もあめーむ,,株式会社,岡山県,岡山市中区,平井４丁目２４番１１－９号,,33,102,7038282,,,,,,,2022-05-19,1,,,,,モアメーム,0
999,4290001097549,新規,0,2022-05-19,2022-05-19,ゴダイ・エンジニアリング株式会社,,株式会社,福岡県,福岡市博多区,西月隈２丁目１番３５号,,40,132,8120857,,,,,,,2022-05-19,1,,,,,ゴダイエンジニアリング,0
1000,4290001097557,新規,0,2022-05-19,2022-05-19,株式会社Ｍａｔ,,株式会社,福岡県,飯塚市,川津９９ー３―４０６,,40,205,8200067,,,,,,,2022-05-19,1,,,,,マット,0
1001,4290001097581,新規,0,2022-05-19,2022-05-19,株式会社リット,,株式会社,福岡県,福岡市博多区,中洲５丁目１－２２松月堂ビル４階ＺＥＲＯＩＣＨＩ,,40,132,8100801,,,,,,,2022-05-19,1,,,,,リット,0
1006,4290801028546,新規,0,2022-05-19,2022-05-19,株式会社安田光子コーポレーション,,株式会社,福岡県,北九州市八幡西区,泉ケ浦１丁目１６番２７号,,40,109,8070854,,,,,,,2022-05-19,1,,,,,ヤスダミツココーポレーション,0
1023,4350003004083,新規,0,2022-05-19,2022-05-19,クミタウェブライフ合同会社,,合同会社,宮崎県,都城市,梅北町４２５４番地,,45,202,8850063,,,,,,,2022-05-19,1,,,,,クミタウェブライフ,0
1024,4360001030444,新規,0,2022-05-19,2022-05-19,株式会社眞榮城建設,,株式会社,沖縄県,沖縄市,比屋根４丁目６番２号サザンウィンド１０３号,,47,211,9042173,,,,,,,2022-05-19,1,,,,,マエシロケンセツ,0
1025,4360001030460,新規,0,2022-05-19,2022-05-19,株式会社沖縄しんらい,,株式会社,沖縄県,那覇市,壺川２丁目１３番４６号１階,,47,201,9000025,,,,,,,2022-05-19,1,,,,,オキナワシンライ,0
1026,4360003012011,新規,0,2022-05-19,2022-05-19,Ｌａｄｄｅｒ合同会社,,合同会社,沖縄県,島尻郡与那原町,字東浜７８番地の６３シブリングスＭＹＴ東浜１０２,,47,348,9011304,,,,,,,2022-05-19,1,,,,,,0
1031,4370005010482,新規,0,2022-05-19,2022-05-19,無限責任廣原村白子田負債整理組合,,その他の設立登記法人,宮城県,加美郡加美町,（加美郡廣原村下多田川）,,04,445,9814200,,,,,,,2022-05-19,1,,,,,,0
1047,4430003013919,新規,0,2022-05-19,2022-05-19,ＮＩＳＴ合同会社,,合同会社,北海道,札幌市中央区,北二条西２１丁目１番１－４０３号,,01,101,0640822,,,,,,,2022-05-19,1,,,,,エヌアイエスティー,0
1053,4490001010185,新規,0,2022-05-19,2022-05-19,高知コム株式会社,,株式会社,高知県,高知市,八反町２丁目１２番３１号寿ビル２０３,,39,201,7800912,,,,,,,2022-05-19,1,,,,,コウチコム,0
1069,5010103001914,新規,0,2022-05-19,2022-05-19,アドバンスト・ウェルス・アドバイザリー合同会社,,合同会社,東京都,八王子市,鑓水２丁目１００番地１１,,13,201,1920375,,,,,,,2022-05-19,1,,,,,,0
1084,5010401167275,新規,0,2022-05-19,2022-05-19,株式会社ｏｎ　ｅｄｇｅ,,株式会社,東京都,港区,赤坂８丁目４－１４青山タワープレイス８Ｆ,,13,103,1070052,,,,,,,2022-05-19,1,,,,,オンエッジ,0
1085,5010401167283,新規,0,2022-05-19,2022-05-19,株式会社ＴＫＫ　Ｉｎｖｅｎｔｏｒｓ,,株式会社,東京都,港区,西麻布１丁目１２番３－６１６号,,13,103,1060031,,,,,,,2022-05-19,1,,,,,ティーケーケーインベンターズ,0
1086,5010401167300,新規,0,2022-05-19,2022-05-19,株式会社ゼロワン,,株式会社,東京都,港区,南青山４丁目１番６号セブン南青山ビル６階,,13,103,1070062,,,,,,,2022-05-19,1,,,,,ゼロワン,0
1091,5010403027634,新規,0,2022-05-19,2022-05-19,合同会社ＲＰＲ,,合同会社,東京都,港区,南青山６丁目７番５－７０３号,,13,103,1070062,,,,,,,2022-05-19,1,,,,,アールピーアール,0
1092,5010403027659,新規,0,2022-05-19,2022-05-19,合同会社北斗清水エナジー,,合同会社,東京都,港区,虎ノ門３丁目２２番１０－２０１号,,13,103,1050001,,,,,,,2022-05-19,1,,,,,ホクトシミズエナジー,0
1093,5010403027691,新規,0,2022-05-19,2022-05-19,新日本開発合同会社,,合同会社,東京都,港区,台場１丁目３番４－３００２号,,13,103,1350091,,,,,,,2022-05-19,1,,,,,シンニホンカイハツ,0
1102,5010601061179,新規,0,2022-05-19,2022-05-19,岩田企画株式会社,,株式会社,東京都,墨田区,立花５丁目２３番１号２階,,13,107,1310043,,,,,,,2022-05-19,1,,,,,イワタキカク,0
1110,5010801032970,新規,0,2022-05-19,2022-05-19,株式会社ＡＬＥＴＴＡ,,株式会社,東京都,大田区,東嶺町２９－８－２階,,13,111,1450074,,,,,,,2022-05-19,1,,,,,アレッタ,0
1114,5010901050872,新規,0,2022-05-19,2022-05-19,株式会社ＴＤ計画,,株式会社,東京都,世田谷区,深沢５丁目１７番７号,,13,112,1580081,,,,,,,2022-05-19,1,,,,,ティーディーケイカク,0
1124,5011001147535,新規,0,2022-05-19,2022-05-19,株式会社ＮＫ　ＶＩＳＩＯＮ,,株式会社,東京都,渋谷区,代官山町１２番３号,,13,113,1500034,,,,,,,2022-05-19,1,,,,,,0
1125,5011001147601,新規,0,2022-05-19,2022-05-19,株式会社いろは,,株式会社,東京都,渋谷区,神宮前４丁目１８番７号,,13,113,1500001,,,,,,,2022-05-19,1,,,,,イロハ,0
1126,5011003014700,新規,0,2022-05-19,2022-05-19,合同会社パートナーズ,,合同会社,東京都,目黒区,中町１丁目３５番１０号,,13,110,1530065,,,,,,,2022-05-19,1,,,,,パートナーズ,0
1129,5011103011754,新規,0,2022-05-19,2022-05-19,ＣＳ福島佐原合同会社,,合同会社,東京都,新宿区,西新宿２丁目１番１号新宿三井ビル５０階,,13,104,1600023,,,,,,,2022-05-19,1,,,,,シーエスフクシマサバラ,0
1131,5011601025966,新規,0,2022-05-19,2022-05-19,株式会社バク,,株式会社,東京都,練馬区,富士見台２丁目２９－２,,13,120,1770034,,,,,,,2022-05-19,1,,,,,バク,0
1133,5011701025313,新規,0,2022-05-19,2022-05-19,株式会社ｃｈａｎｎｅｌ,,株式会社,東京都,江戸川区,平井７丁目３２番地７号,,13,123,1320035,,,,,,,2022-05-19,1,,,,,チャンネル,0
1141,5012801021573,新規,0,2022-05-19,2022-05-19,株式会社秋山ランドコンサルティング,,株式会社,東京都,昭島市,緑町３丁目１９番１５号,,13,207,1960004,,,,,,,2022-05-19,1,,,,,アキヤマランドコンサルティング,0
1151,5020001146562,新規,0,2022-05-19,2022-05-19,株式会社三幸ホールディングス,,株式会社,神奈川県,横浜市都筑区,中川中央１丁目５番１８号,,14,118,2240003,,,,,,,2022-05-19,1,,,,,サンコウホールディングス,0
1152,5020003021788,新規,0,2022-05-19,2022-05-19,トリニテ合同会社,,合同会社,神奈川県,横浜市西区,東ケ丘２６－２１,,14,103,2200033,,,,,,,2022-05-19,1,,,,,トリニテ,0
1159,5021001075990,新規,0,2022-05-19,2022-05-19,ＧＣＩ株式会社,,株式会社,神奈川県,平塚市,須賀２６３１番地の３,,14,203,2540022,,,,,,,2022-05-19,1,,,,,ジーシーアイ,0
1162,5021003011721,新規,0,2022-05-19,2022-05-19,合同会社トラスト,,合同会社,神奈川県,横須賀市,大矢部５丁目１６番６号,,14,201,2380024,,,,,,,2022-05-19,1,,,,,トラスト,0
1163,5021005012528,新規,0,2022-05-19,2022-05-19,医療法人本田医院,,その他の設立登記法人,神奈川県,相模原市南区,上鶴間本町２丁目１０番１５号サンロイヤル町田１階,,14,153,2520318,,,,,,,2022-05-19,1,,,,,ホンダイイン,0
1178,5030003019443,新規,0,2022-05-19,2022-05-19,合同会社Ｇｒｅｅｎｂｅａｎｓ,,合同会社,埼玉県,春日部市,緑町３丁目１１番１９号,,11,214,3440063,,,,,,,2022-05-19,1,,,,,グリーンビーンズ,0
1184,5040001123452,新規,0,2022-05-19,2022-05-19,株式会社樺太,,株式会社,千葉県,船橋市,本町２丁目１７番４号,,12,204,2730005,,,,,,,2022-05-19,1,,,,,カラフト,0
1185,5040001123460,新規,0,2022-05-19,2022-05-19,スタークワイズ株式会社,,株式会社,千葉県,柏市,十余二１５６番地２８,,12,217,2770872,,,,,,,2022-05-19,1,,,,,スタークワイズ,0
1187,5040003020037,新規,0,2022-05-19,2022-05-19,未来のこと合同会社,,合同会社,千葉県,八千代市,八千代台東１丁目２番１７号エコービル３階,,12,221,2760032,,,,,,,2022-05-19,1,,,,,ミライノコト,0
1196,5100001035352,新規,0,2022-05-19,2022-05-19,株式会社エスリー工業,,株式会社,長野県,長野市,篠ノ井会４１５番地７,,20,201,3888004,,,,,,,2022-05-19,1,,,,,エスリーコウギョウ,0
1211,5120001245924,新規,0,2022-05-19,2022-05-19,ライトユープロダクツ株式会社,,株式会社,大阪府,大阪市淀川区,宮原１丁目３番３号１Ｆ,,27,123,5320003,,,,,,,2022-05-19,1,,,,,ライトユープロダクツ,0
1217,5120101065594,新規,0,2022-05-19,2022-05-19,Ｒ＆Ｍパートナーズ株式会社,,株式会社,大阪府,堺市北区,百舌鳥梅北町５丁３２４－１－５０３,,27,146,5918031,,,,,,,2022-05-19,1,,,,,アールアンドエムパートナーズ,0
1234,5140001126032,新規,0,2022-05-19,2022-05-19,株式会社リタ・ファーマシー,,株式会社,兵庫県,神戸市中央区,北長狭通３丁目１番１２号,,28,110,6500012,,,,,,,2022-05-19,1,,,,,リタファーマシー,0
1235,5140001126040,新規,0,2022-05-19,2022-05-19,株式会社ｉブライラント,,株式会社,兵庫県,神戸市長田区,水笠通４丁目１番１－１１３号,,28,106,6530842,,,,,,,2022-05-19,1,,,,,アイブライラント,0
1238,5150001025555,新規,0,2022-05-19,2022-05-19,エフエムジー株式会社,,株式会社,奈良県,大和郡山市,小泉町３６５,,29,203,6391042,,,,,,,2022-05-19,1,,,,,エフエムジー,0
1248,5180001151340,新規,0,2022-05-19,2022-05-19,株式会社ＫＳＫ企画,,株式会社,愛知県,小牧市,間々本町４５番地２,,23,219,4850048,,,,,,,2022-05-19,1,,,,,ケーエスケーキカク,0
1256,5190005011705,新規,0,2022-05-19,2022-05-19,社会福祉法人双和福祉会,,その他の設立登記法人,三重県,四日市市,水沢町２３７８番１,,24,202,5121105,,,,,,,2022-05-19,1,,,,,ソウワフクシカイ,0
1271,5270001008523,新規,0,2022-05-19,2022-05-19,株式会社正々堂ｆｏｏｄｓｅｒｖｉｃｅ,,株式会社,鳥取県,米子市,角盤町２丁目６４番地,,31,202,6830812,,,,,,,2022-05-19,1,,,,,セイセイドウフードサービス,0
1277,5290001097564,新規,0,2022-05-19,2022-05-19,山家の里株式会社,,株式会社,福岡県,筑紫野市,大字山家４３０６番地１,,40,217,8180003,,,,,,,2022-05-19,1,,,,,ヤマエノサト,0
1278,5290001097580,新規,0,2022-05-19,2022-05-19,株式会社システマイズ,,株式会社,福岡県,福岡市中央区,荒戸２丁目４番５号,,40,133,8100062,,,,,,,2022-05-19,1,,,,,システマイズ,0
1283,5320001019077,新規,0,2022-05-19,2022-05-19,株式会社城崎コンソーシアム,,株式会社,大分県,別府市,石垣東１０丁目３番４０号,,44,202,8740919,,,,,,,2022-05-19,1,,,,,シロサキコンソーシアム,0
1289,5360001030443,新規,0,2022-05-19,2022-05-19,ＨｅｒＬｉｆｅＬａｂ株式会社,,株式会社,沖縄県,国頭郡恩納村,字谷茶１９１９番地１ＯＩＳＴイノベーションスクエア・インキュベータ,,47,311,9040412,,,,,,,2022-05-19,1,,,,,ハーライフラボ,0
1291,5360003012019,新規,0,2022-05-19,2022-05-19,合同会社Ｅａｒｔｈ　Ｗｉｎｄ,,合同会社,沖縄県,糸満市,潮崎町３丁目９番地の７,,47,210,9010364,,,,,,,2022-05-19,1,,,,,アースウインド,0
1312,5430001086651,新規,0,2022-05-19,2022-05-19,株式会社Ｏｎｅ　Ｉｎｆｉｎｉｔｙ,,株式会社,北海道,札幌市東区,北二十条東１０丁目４番７号,,01,103,0650020,,,,,,,2022-05-19,1,,,,,ワンインフィニティ,0
1315,5430003013918,新規,0,2022-05-19,2022-05-19,合同会社ファンフード,,合同会社,北海道,札幌市北区,新琴似一条９丁目１１番２２号ピュアシティ新琴似２０１,,01,102,0010901,,,,,,,2022-05-19,1,,,,,ファンフード,0
1317,5430005014468,新規,0,2022-05-19,2022-05-19,一般社団法人野良猫もみな家族だよ,,その他の設立登記法人,北海道,札幌市南区,澄川四条７丁目８番２号,,01,106,0050004,,,,,,,2022-05-19,1,,,,,ノラネコモミナカゾクダヨ,0
1327,5500001024216,新規,0,2022-05-19,2022-05-19,株式会社彦丸,,株式会社,愛媛県,西条市,玉津４７８番地３,,38,206,7930001,,,,,,,2022-05-19,1,,,,,ヒコマル,0
1347,6010103001913,新規,0,2022-05-19,2022-05-19,アムニス合同会社,,合同会社,東京都,八王子市,北野町５０７番地４,,13,201,1920906,,,,,,,2022-05-19,1,,,,,アムニス,0
1354,6010401167282,新規,0,2022-05-19,2022-05-19,株式会社Ｖｉｒｔｕａｌ　Ｗｏｒｌｄ,,株式会社,東京都,港区,浜松町２丁目２番１５号浜松町ダイヤビル２Ｆ,,13,103,1050013,,,,,,,2022-05-19,1,,,,,バーチャルワールド,0
1355,6010401167340,新規,0,2022-05-19,2022-05-19,ＢＡＣＩ東海株式会社,,株式会社,東京都,港区,赤坂１丁目１２番３２号,,13,103,1070052,,,,,,,2022-05-19,1,,,,,ビーエーシーアイトウカイ,0
1356,6010401167349,新規,0,2022-05-19,2022-05-19,株式会社ＰＥＬＩＣＡ,,株式会社,東京都,港区,麻布十番３丁目８番６－２０１号,,13,103,1060045,,,,,,,2022-05-19,1,,,,,ペリカ,0
1357,6010401167381,新規,0,2022-05-19,2022-05-19,株式会社ＳＩＬＩＣＯＮ２ＪＡＰＡＮ,,株式会社,東京都,港区,赤坂２丁目１０番１２号,,13,103,1070052,,,,,,,2022-05-19,1,,,,,シリコンツージャパン,0
1358,6010401167456,新規,0,2022-05-19,2022-05-19,株式会社プロスペックマネジメント,,株式会社,東京都,港区,六本木５丁目１６番３５号,,13,103,1060032,,,,,,,2022-05-19,1,,,,,プロスペックマネジメント,0
1362,6010601061186,新規,0,2022-05-19,2022-05-19,ＪＴＮ　ＣＯＭＭＥＲＣＥ株式会社,,株式会社,東京都,墨田区,緑１丁目２２番８号いとちゅう両国ビル２階,,13,107,1300021,,,,,,,2022-05-19,1,,,,,ジェイティエヌコマース,0
1372,6010905004312,新規,0,2022-05-19,2022-05-19,一般社団法人イケベジ,,その他の設立登記法人,東京都,世田谷区,駒沢５丁目１７番１３号Ａ,,13,112,1540012,,,,,,,2022-05-19,1,,,,,イケベジ,0
1385,6011001147501,新規,0,2022-05-19,2022-05-19,株式会社ＣｏｒａＢＯＯＳＴ,,株式会社,東京都,渋谷区,富ヶ谷２丁目３１－６,,13,113,1510063,,,,,,,2022-05-19,1,,,,,,0
1397,6011103011753,新規,0,2022-05-19,2022-05-19,ＣＳ青森米田合同会社,,合同会社,東京都,新宿区,西新宿２丁目１番１号新宿三井ビル５０階,,13,104,1600023,,,,,,,2022-05-19,1,,,,,シーエスアオモリマイダ,0
1404,6011501028044,新規,0,2022-05-19,2022-05-19,株式会社えどもんど,,株式会社,東京都,荒川区,西日暮里５丁目３１番９号,,13,118,1160013,,,,,,,2022-05-19,1,,,,,エドモンド,0
1412,6020001146545,新規,0,2022-05-19,2022-05-19,株式会社大翔創建,,株式会社,神奈川県,横浜市青葉区,奈良５丁目２６番地１３,,14,117,2270038,,,,,,,2022-05-19,1,,,,,ハルトソウケン,0
1419,6021001075998,新規,0,2022-05-19,2022-05-19,株式会社Ｒ・Ｋホールディングスジャパン,,株式会社,神奈川県,厚木市,上荻野５４６７番地１,,14,212,2430201,,,,,,,2022-05-19,1,,,,,アールケーホールディングスジャパン,0
1432,6030005020860,新規,0,2022-05-19,2022-05-19,特定非営利活動法人誠仁会,,その他の設立登記法人,埼玉県,入間郡毛呂山町,前久保南１丁目１２番地１号,,11,326,3500463,,,,,,,2022-05-19,1,,,,,セイジンカイ,0
1444,6040001123476,新規,0,2022-05-19,2022-05-19,株式会社ＫＡＰＩＬＩＮＡ,,株式会社,千葉県,市川市,下貝塚２丁目１８番２０号,00126607,12,203,2720821,,,,,,,2022-05-19,1,,,,,カピリナ,0
1461,6100003006549,新規,0,2022-05-19,2022-05-19,合同会社ＴＲＹＮＯＷ,,合同会社,長野県,安曇野市,豊科４４９２番地９,,20,220,3998205,,,,,,,2022-05-19,1,,,,,トライノ,0
1463,6110001036662,新規,0,2022-05-19,2022-05-19,株式会社ＡＲＡＲＡＴ　ＣＲＥＷＳ,,株式会社,新潟県,新潟市中央区,紫竹山６丁目３番５号,,15,103,9500914,,,,,,,2022-05-19,1,,,,,アララトクルーズ,0
1471,6120001246005,新規,0,2022-05-19,2022-05-19,株式会社ＳＫプランニング,,株式会社,大阪府,守口市,大庭町２丁目２２番７号,,27,209,5700009,,,,,,,2022-05-19,1,,,,,エスケープランニング,0
1475,6120005022955,新規,0,2022-05-19,2022-05-19,一般社団法人日本低出生体重児協会,,その他の設立登記法人,大阪府,守口市,八雲東町２丁目５９番地１９号,,27,209,5700021,,,,,,,2022-05-19,1,,,,,ニホンテイシュッショウタイジュウジキョウカイ,0
1481,6120101065593,新規,0,2022-05-19,2022-05-19,株式会社アイスル,,株式会社,大阪府,泉佐野市,中庄１５１４番地の１０,,27,213,5980002,,,,,,,2022-05-19,1,,,,,アイスル,0
1482,6120101065602,新規,0,2022-05-19,2022-05-19,株式会社Ｐｈａｓｅ,,株式会社,大阪府,藤井寺市,野中４丁目１３－８,,27,226,5830014,,,,,,,2022-05-19,1,,,,,フェーズ,0
1495,6130005016485,新規,0,2022-05-19,2022-05-19,一般社団法人日本ウクライナ音楽協会,,その他の設立登記法人,京都府,京都市西京区,樫原内垣外町４番地１８,,26,111,6158152,,,,,,,2022-05-19,1,,,,,ニホンウクライナオンガクキョウカイ,0
1502,6140001126031,新規,0,2022-05-19,2022-05-19,ネロアマ株式会社,,株式会社,兵庫県,尼崎市,水堂町４丁目８番１７号,,28,202,6610026,,,,,,,2022-05-19,1,,,,,ネロアマ,0
1515,6180001151372,新規,0,2022-05-19,2022-05-19,株式会社Ｒｏｏｔｓ‐ｓｔｙｌｅ,,株式会社,愛知県,大府市,桃山町１丁目３３９番地の１６,,23,223,4740026,,,,,,,2022-05-19,1,,,,,ルーツスタイル,0
1530,6210001018931,新規,0,2022-05-19,2022-05-19,株式会社つるや,,株式会社,福井県,あわら市,温泉４丁目６０１番地,,18,208,9104104,,,,,,,2022-05-19,1,,,,,ツルヤ,0
1537,6240001059790,新規,0,2022-05-19,2022-05-19,株式会社ｉｔ,,株式会社,広島県,広島市中区,十日市町２丁目３番３０号１Ｆ,,34,101,7300805,,,,,,,2022-05-19,1,,,,,イット,0
1544,6280003001615,新規,0,2022-05-19,2022-05-19,張義商事合同会社,,合同会社,島根県,大田市,大田町大田ロ１１８７番地９,,32,205,6940064,,,,,,,2022-05-19,1,,,,,チョウギショウジ,0
1549,6290001097464,新規,0,2022-05-19,2022-05-19,株式会社Ｎｅｘｔ　Ｚｏｎｅ,,株式会社,福岡県,福岡市博多区,店屋町４‐８,,40,132,8120025,,,,,,,2022-05-19,1,,,,,ネクストゾーン,0
1550,6290001097497,新規,0,2022-05-19,2022-05-19,ＪＡＬグローバルリース株式会社,,株式会社,福岡県,福岡市早良区,城西３丁目１２番２７号,,40,137,8140003,,,,,,,2022-05-19,1,,,,,ジャルグローバルリース,0
1551,6290001097539,新規,0,2022-05-19,2022-05-19,株式会社エムエーデザイン,,株式会社,福岡県,福岡市博多区,博多駅前１丁目１８番１５号,,40,132,8120011,,,,,,,2022-05-19,1,,,,,エムエーデザイン,0
1552,6290001097571,新規,0,2022-05-19,2022-05-19,ＡＬＬ株式会社,,株式会社,福岡県,大牟田市,大字吉野９４４番地８,,40,202,8370904,,,,,,,2022-05-19,1,,,,,オール,0
1554,6290003012520,新規,0,2022-05-19,2022-05-19,合同会社九州香港人倶楽部,,合同会社,福岡県,福岡市博多区,博多駅前４丁目３３番１１号,,40,132,8120011,,,,,,,2022-05-19,1,,,,,キュウシュウホンコンジンクラブ,0
1558,6300003001843,新規,0,2022-05-19,2022-05-19,ＣＯＮＮＥＣＴ＆ＳＵＰＰＯＲＴ合同会社,,合同会社,佐賀県,鳥栖市,藤木町２４５６,,41,203,8410048,,,,,,,2022-05-19,1,,,,,コネクトアンドサポート,0
1567,6340003003794,新規,0,2022-05-19,2022-05-19,合同会社歩,,合同会社,鹿児島県,鹿児島市,西伊敷１丁目２４番３号,,46,201,8900002,,,,,,,2022-05-19,1,,,,,アユミ,0
1568,6360001030426,新規,0,2022-05-19,2022-05-19,株式会社バニラコネクション,,株式会社,沖縄県,中頭郡北中城村,字熱田２７７,,47,327,9012313,,,,,,,2022-05-19,1,,,,,バニラコネクション,0
1569,6360001030434,新規,0,2022-05-19,2022-05-19,モデルアクト株式会社,,株式会社,沖縄県,八重山郡竹富町,字西表６９１番地の１,,47,381,9071542,,,,,,,2022-05-19,1,,,,,モデルアクト,0
1572,6360003012018,新規,0,2022-05-19,2022-05-19,合同会社ＪＬＵ６１１,,合同会社,沖縄県,南城市,字つきしろ１６７８番地１９,,47,215,9011407,,,,,,,2022-05-19,1,,,,,ジェイエルユーロクイチイチ,0
1581,6430001086659,新規,0,2022-05-19,2022-05-19,株式会社Ｆｏｓｓｅｔｔｅ,,株式会社,北海道,札幌市北区,北二十七条西７丁目３番７号,,01,102,0010027,,,,,,,2022-05-19,1,,,,,フォセット,0
1582,6430001086667,新規,0,2022-05-19,2022-05-19,株式会社コミュニティプラス,,株式会社,北海道,札幌市中央区,南一条西２５丁目１番１７号ＭａｒｕｙａｍａＳ１ＢＬ２Ｆ,,01,101,0640801,,,,,,,2022-05-19,1,,,,,コミュニティプラス,0
1588,6430005014467,新規,0,2022-05-19,2022-05-19,特定非営利活動法人農業食料ビジョン研究所,,その他の設立登記法人,北海道,札幌市豊平区,平岸三条８丁目９番２３－４０８号,,01,105,0620933,,,,,,,2022-05-19,1,,,,,ノウギョウショクリョウビジョンケンキュジョ,0
1595,6500005008494,新規,0,2022-05-19,2022-05-19,社会保険労務士法人田坂事務所,,その他の設立登記法人,愛媛県,今治市,松本町３丁目５番地５,,38,202,7940041,,,,,,,2022-05-19,1,,,,,タサカジムショ,0
1596,7010001020551,新規,0,2022-05-19,2022-05-19,株式会社スリー・ケイ,,株式会社,東京都,千代田区,九段南２丁目２番７号,,13,101,1020074,,,,,,,2022-05-19,1,,,,,スリーケイ,0
1605,7010001226628,新規,0,2022-05-19,2022-05-19,株式会社ジェイズ,,株式会社,東京都,文京区,小石川２丁目１６番３号,,13,105,1120002,,,,,,,2022-05-19,1,,,,,ジェイズ,0
1606,7010001226693,新規,0,2022-05-19,2022-05-19,株式会社バンカーズ・ファクタリング,,株式会社,東京都,千代田区,麹町２丁目１２番１号,,13,101,1020083,,,,,,,2022-05-19,1,,,,,バンカーズファクタリング,0
1610,7010003037684,新規,0,2022-05-19,2022-05-19,合同会社ＭＲ　Ｉｎｔｅｒｎａｔｉｏｎａｌ,,合同会社,東京都,中央区,晴海２丁目３－２－１８０４,,13,102,1040053,,,,,,,2022-05-19,1,,,,,エムアールインターナショナル,0
1618,7010401167216,新規,0,2022-05-19,2022-05-19,インク・ブルー株式会社,,株式会社,東京都,港区,白金２丁目１番３８－１０２号,,13,103,1080072,,,,,,,2022-05-19,1,,,,,インクブルー,0
1619,7010401167323,新規,0,2022-05-19,2022-05-19,株式会社Ｒａｄａｎｃｅ,,株式会社,東京都,港区,六本木３丁目４番３３号マルマン六本木ビル３階,,13,103,1060032,,,,,,,2022-05-19,1,,,,,ラッドアンス,0
1620,7010401167364,新規,0,2022-05-19,2022-05-19,株式会社Ｃｒａｚｙ　Ｐｏｐ　Ａｇｅｎｃｙ,,株式会社,東京都,港区,南青山２丁目２番１５号,,13,103,1070062,,,,,,,2022-05-19,1,,,,,クレイジーポップエージェンシー,0
1631,7010901050887,新規,0,2022-05-19,2022-05-19,株式会社ちょくばい,,株式会社,東京都,世田谷区,池尻３丁目２７番３７号,,13,112,1540001,,,,,,,2022-05-19,1,,,,,チョクバイ,0
1632,7010903007381,新規,0,2022-05-19,2022-05-19,合同会社ＹＭＴ,,合同会社,東京都,世田谷区,世田谷２丁目２３番３号ＢＣビル２Ａ,,13,112,1540017,,,,,,,2022-05-19,1,,,,,ワイエムティ,0
1640,7011103011752,新規,0,2022-05-19,2022-05-19,ＣＳ群馬カントリー合同会社,,合同会社,東京都,新宿区,西新宿２丁目１番１号新宿三井ビル５０階,,13,104,1600023,,,,,,,2022-05-19,1,,,,,シーエスグンマカントリー,0
1641,7011105010257,新規,0,2022-05-19,2022-05-19,一般社団法人目標達成トレーナー協会,,その他の設立登記法人,東京都,新宿区,西新宿３丁目５番３号西新宿ダイヤモンドパレス３０６号,,13,104,1600023,,,,,,,2022-05-19,1,,,,,モクヒョウタッセイトレーナーキョウカイ,0
1652,7011603003605,新規,0,2022-05-19,2022-05-19,合同会社ａｃｔｉｖｅ,,合同会社,東京都,練馬区,富士見台１丁目２２番２８号,,13,120,1770034,,,,,,,2022-05-19,1,,,,,アクティブ,0
1654,7011701025311,新規,0,2022-05-19,2022-05-19,Ｈ＆Ｂ株式会社,,株式会社,東京都,江戸川区,一之江６丁目１７番１７号,,13,123,1320024,,,,,,,2022-05-19,1,,,,,エイチアンドビー,0
1658,7011801040739,新規,0,2022-05-19,2022-05-19,株式会社ｍｏｋ　ｐｒｏｊｅｃｔ,,株式会社,東京都,足立区,千住３丁目４番地,,13,121,1200034,,,,,,,2022-05-19,1,,,,,モクプロジェクト,0
1663,7012805003120,新規,0,2022-05-19,2022-05-19,一般社団法人日本建築模型協会,,その他の設立登記法人,東京都,国立市,西２丁目１１番３９号国立ファイナンス２０４,,13,215,1860005,,,,,,,2022-05-19,1,,,,,ニホンケンチクモケイキョウカイ,0
1664,7013301049087,新規,0,2022-05-19,2022-05-19,善財ＳＣ株式会社,,株式会社,東京都,豊島区,池袋１丁目２番６号７０１号室,,13,116,1700014,,,,,,,2022-05-19,1,,,,,ゼンザイエスシー,0
1672,7020001146560,新規,0,2022-05-19,2022-05-19,株式会社島袋興業,,株式会社,神奈川県,横浜市港南区,下永谷６丁目９番１号スリーツリーハウス２０２,,14,111,2330016,,,,,,,2022-05-19,1,,,,,シマブクロコウギョウ,0
1676,7021001075989,新規,0,2022-05-19,2022-05-19,株式会社ほしまち,,株式会社,神奈川県,茅ヶ崎市,共恵１丁目１番５号ＢＬＤＮａｇａｓｈｉｍａ３０１ＣＯＰＬＡＣＥＣｈｉｇａｓａｋｉ,,14,207,2530056,,,,,,,2022-05-19,1,,,,,ホシマチ,0
1677,7021003011711,新規,0,2022-05-19,2022-05-19,合同会社ウェスティーライフ,,合同会社,神奈川県,藤沢市,遠藤６７０４番地の２,,14,205,2520816,,,,,,,2022-05-19,1,,,,,ウェスティーライフ,0
1686,7030003019318,新規,0,2022-05-19,2022-05-19,ｐｏｒｔｅｒ　ｃｏｅｕｒ合同会社,,合同会社,埼玉県,川口市,大字久左衛門新田１３０－２,,11,203,3330804,,,,,,,2022-05-19,1,,,,,ポータークー,0
1696,7040005021592,新規,0,2022-05-19,2022-05-19,中日本再エネ促進事業協同組合,,その他の設立登記法人,千葉県,柏市,旭町１丁目４－１８後藤ビル４Ｆ,,12,217,2770852,,,,,,,2022-05-19,1,,,,,ナカニホンサイエネソクシン,0
1720,7110003004765,新規,0,2022-05-19,2022-05-19,ＴＶＣ　Ｔｒａｄｉｎｇ　Ｓｅｒｖｉｃｅ合同会社,,合同会社,新潟県,長岡市,中沢１丁目１９４４番地,,15,202,9400853,,,,,,,2022-05-19,1,,,,,ティービーシートレーディングサービス,0
1728,7120001245963,新規,0,2022-05-19,2022-05-19,株式会社テック２９,,株式会社,大阪府,大阪市淀川区,木川東３丁目５番１５号ＷＨＯ’ＳＷＨＯＡＰ５０２,,27,123,5320012,,,,,,,2022-05-19,1,,,,,テックニーキュウ,0
1729,7120001245988,新規,0,2022-05-19,2022-05-19,Ｖｉｅｕｒｅｋａ株式会社,,株式会社,大阪府,門真市,大字門真１００６番地,,27,223,5710050,,,,,,,2022-05-19,1,,,,,ビューレカ,0
1731,7120005022954,新規,0,2022-05-19,2022-05-19,一般社団法人オアシスキャリア,,その他の設立登記法人,大阪府,守口市,橋波東之町３丁目２番１２号京阪西三荘スクエアＷｅｓｔ１階,,27,209,5700031,,,,,,,2022-05-19,1,,,,,オアシスキャリア,0
1737,7120101065592,新規,0,2022-05-19,2022-05-19,京兆株式会社,,株式会社,大阪府,南河内郡太子町,大字山田９２４番地６６,,27,381,5830992,,,,,,,2022-05-19,1,,,,,ケイチョウ,0
1741,7120903004153,新規,0,2022-05-19,2022-05-19,合同会社ＲＫＹ,,合同会社,大阪府,池田市,旭丘２丁目８番１３号,,27,204,5630022,,,,,,,2022-05-19,1,,,,,アールケイワイ,0
1750,7140001126055,新規,0,2022-05-19,2022-05-19,株式会社Ｌｅ　ｐｅｔｉｔ　ｐｏｉｓ,,株式会社,兵庫県,西宮市,甲陽園目神山町２９番２３号,,28,204,6620011,,,,,,,2022-05-19,1,,,,,ルプティポワ,0
1753,7140003017640,新規,0,2022-05-19,2022-05-19,もっち合同会社,,合同会社,兵庫県,姫路市,広畑区早瀬町１丁目１８番１号,,28,201,6711151,,,,,,,2022-05-19,1,,,,,モッチ,0
1754,7140005026177,新規,0,2022-05-19,2022-05-19,特定非営利活動法人ＫＯＫＵＡ,,その他の設立登記法人,兵庫県,加古川市,平岡町新在家１４４９,,28,210,6750101,,,,,,,2022-05-19,1,,,,,コクア,0
1757,7150005009395,新規,0,2022-05-19,2022-05-19,医療法人榎本レディースクリニック,,その他の設立登記法人,奈良県,生駒市,北新町１０－３６－４０５ベルテラスいこま,,29,209,6300245,,,,,,,2022-05-19,1,,,,,エノモトレディースクリニック,0
1781,7220001024853,新規,0,2022-05-19,2022-05-19,株式会社Ｄ・Ｅ・Ｉ,,株式会社,石川県,金沢市,春日町３番３号ロイヤルシャトー夢香山５１３,,17,201,9200817,,,,,,,2022-05-19,1,,,,,ディーイーアイ,0
1790,7260003003918,新規,0,2022-05-19,2022-05-19,合同会社Ａｇｒｉ　Ｂｌｕｅ　Ｓｋｙ,,合同会社,岡山県,岡山市南区,豊成１丁目１番１３号,,33,104,7000942,,,,,,,2022-05-19,1,,,,,アグリブルースカイ,0
1797,7290001097579,新規,0,2022-05-19,2022-05-19,株式会社ワールドスタイル,,株式会社,福岡県,福岡市博多区,博多駅前２丁目１番１号,,40,132,8120011,,,,,,,2022-05-19,1,,,,,ワールドスタイル,0
1798,7290001097587,新規,0,2022-05-19,2022-05-19,株式会社セーリングデイ,,株式会社,福岡県,福岡市城南区,七隈２丁目７番１５号,,40,136,8140133,,,,,,,2022-05-19,1,,,,,セーリングデイ,0
1799,7290003012528,新規,0,2022-05-19,2022-05-19,ａｄａｐｔｉｖｅ合同会社,,合同会社,福岡県,福岡市西区,今宿駅前１丁目９－８－５０１,,40,135,8190168,,,,,,,2022-05-19,1,,,,,アダプティブ,0
1802,7300005007078,新規,0,2022-05-19,2022-05-19,特定非営利活動法人きやまＳＧＫ,,その他の設立登記法人,佐賀県,三養基郡基山町,けやき台１丁目３３番地５,,41,341,8410205,,,,,,,2022-05-19,1,,,,,キヤマエスジーケイ,0
1808,7330003009370,新規,0,2022-05-19,2022-05-19,合同会社瀬戸,,合同会社,熊本県,球磨郡錦町,大字西６２２番地４,,43,501,8680303,,,,,,,2022-05-19,1,,,,,セト,0
1812,7340003003793,新規,0,2022-05-19,2022-05-19,合同会社メルシー商事,,合同会社,鹿児島県,鹿児島市,紫原３丁目４０番７号,,46,201,8900082,,,,,,,2022-05-19,1,,,,,メルシーショウジ,0
1817,7370001048565,新規,0,2022-05-19,2022-05-19,株式会社バンナミックス,,株式会社,宮城県,仙台市青葉区,国分町２丁目１４番５号８８国分町ビル２Ｆ,,04,101,9800803,,,,,,,2022-05-19,1,,,,,バンナミックス,0
1837,7430001086699,新規,0,2022-05-19,2022-05-19,株式会社クラルスワン,,株式会社,北海道,札幌市北区,屯田六条２丁目１１番１２号,,01,102,0020856,,,,,,,2022-05-19,1,,,,,クラルスワン,0
1847,7430003013908,新規,0,2022-05-19,2022-05-19,コマサトベース合同会社,,合同会社,北海道,千歳市,文京４丁目６番地の７,,01,224,0660052,,,,,,,2022-05-19,1,,,,,コマサトベース,0
1848,7430003013916,新規,0,2022-05-19,2022-05-19,ＭＥＴＡＺＡＲＵ合同会社,,合同会社,北海道,札幌市中央区,南二十条西９丁目１番１６－５０１号,,01,101,0640920,,,,,,,2022-05-19,1,,,,,メタザル,0
1849,7430003013924,新規,0,2022-05-19,2022-05-19,合同会社Ｓ・Ｋ美装,,合同会社,北海道,札幌市西区,西野七条４丁目５番１４号,,01,107,0630037,,,,,,,2022-05-19,1,,,,,エスケービソウ,0
1853,7490001010182,新規,0,2022-05-19,2022-05-19,株式会社楓,,株式会社,高知県,南国市,篠原１６８１番地グロリオサ２０１,,39,204,7830006,,,,,,,2022-05-19,1,,,,,カエデ,0
1859,8010001226684,新規,0,2022-05-19,2022-05-19,株式会社ｓｌａｎｔｅｄ,,株式会社,東京都,千代田区,神田神保町２丁目４０番地５,,13,101,1010051,,,,,,,2022-05-19,1,,,,,スランテッド,0
1865,8010005035009,新規,0,2022-05-19,2022-05-19,オープンハウスリート投資法人,,その他の設立登記法人,東京都,千代田区,神田淡路町２丁目３番地６,,13,101,1010063,,,,,,,2022-05-19,1,,,,,オープンハウスリート,0
1870,8010401167264,新規,0,2022-05-19,2022-05-19,株式会社永,,株式会社,東京都,港区,南青山２丁目２番１５号ウィン青山１３０２,,13,103,1070062,,,,,,,2022-05-19,1,,,,,トコシエ,0
1871,8010401167322,新規,0,2022-05-19,2022-05-19,株式会社クレイブ,,株式会社,東京都,港区,南青山２丁目２番１５号,,13,103,1070062,,,,,,,2022-05-19,1,,,,,クレイブ,0
1872,8010401167355,新規,0,2022-05-19,2022-05-19,株式会社ＥＭＲ,,株式会社,東京都,港区,南青山５丁目１７番２号,,13,103,1070062,,,,,,,2022-05-19,1,,,,,イーエムアール,0
1873,8010401167363,新規,0,2022-05-19,2022-05-19,株式会社ワイスリー,,株式会社,東京都,港区,白金２丁目５番２０－９０４号,,13,103,1080072,,,,,,,2022-05-19,1,,,,,ワイスリー,0
1875,8010405021013,新規,0,2022-05-19,2022-05-19,土地家屋調査士法人ＰＥＡＫＳ　ＴＯＫＹＯ　ＯＦＦＩＣＥ,,その他の設立登記法人,東京都,港区,新橋２丁目１２番５号池伝ビル９Ｆ,,13,103,1050004,,,,,,,2022-05-19,1,,,,,ピークストーキョーオフィス,0
1876,8010501048843,新規,0,2022-05-19,2022-05-19,株式会社堀江家,,株式会社,東京都,台東区,台東１丁目８番８－１０５号,,13,106,1100016,,,,,,,2022-05-19,1,,,,,ホリエヤ,0
1886,8011001147532,新規,0,2022-05-19,2022-05-19,Ｂ．Ｒｏｓｅ株式会社,,株式会社,東京都,渋谷区,渋谷２丁目１９番１５号,,13,113,1500002,,,,,,,2022-05-19,1,,,,,ビーローズ,0
1887,8011001147573,新規,0,2022-05-19,2022-05-19,株式会社トレースブル,,株式会社,東京都,渋谷区,恵比寿南１丁目３番２－１１０１号エルスタンザ恵比寿,,13,113,1500022,,,,,,,2022-05-19,1,,,,,トレースブル,0
1888,8011001147598,新規,0,2022-05-19,2022-05-19,リゾーツ＆ステイ・ヴィラ管理株式会社,,株式会社,東京都,渋谷区,道玄坂１丁目１０番８号,,13,113,1500043,,,,,,,2022-05-19,1,,,,,リゾーツアンドステイヴィラカンリ,0
1898,8011101098840,新規,0,2022-05-19,2022-05-19,株式会社ＢＴＪ,,株式会社,東京都,新宿区,片町４番６号ＡＮＹビル６階,,13,104,1600001,,,,,,,2022-05-19,1,,,,,ビーティージェイ,0
1913,8012405004740,新規,0,2022-05-19,2022-05-19,特定非営利活動法人東アジア相互理解促進フォーラム,,その他の設立登記法人,東京都,多摩市,鶴牧１丁目１７番地アルテヴィータＡ－１０２,,13,224,2060034,,,,,,,2022-05-19,1,,,,,ヒガシアジアソウゴリカイソクシンフォーラム,0
1918,8013301049053,新規,0,2022-05-19,2022-05-19,株式会社昌和,,株式会社,東京都,豊島区,東池袋２丁目５７－２コスモ東池袋２０１,,13,116,1700013,,,,,,,2022-05-19,1,,,,,ショウワ,0
1926,8020001146543,新規,0,2022-05-19,2022-05-19,株式会社青空横浜,,株式会社,神奈川県,横浜市中区,桜木町１丁目１０１番地１クロスゲート７階,,14,104,2310062,,,,,,,2022-05-19,1,,,,,アオゾラヨコハマ,0
1931,8020003021736,新規,0,2022-05-19,2022-05-19,合同会社ヨクスル,,合同会社,神奈川県,川崎市中原区,田尻町８９番地１,,14,133,2110014,,,,,,,2022-05-19,1,,,,,ヨクスル,0
1932,8020003021793,新規,0,2022-05-19,2022-05-19,合同会社フィエール,,合同会社,神奈川県,横浜市港北区,新横浜１丁目２５―５,,14,109,2220033,,,,,,,2022-05-19,1,,,,,フィエール,0
1934,8020005015538,新規,0,2022-05-19,2022-05-19,一般社団法人日本腸内環境栄養学会,,その他の設立登記法人,神奈川県,横浜市鶴見区,末広町１丁目１－４０横浜市産学共同研究センター１０４号室,,14,101,2300045,,,,,,,2022-05-19,1,,,,,ニホンチョウナイカンキョウエイヨウガッカイ,0
1941,8021001076004,新規,0,2022-05-19,2022-05-19,ミスターワールドワイド株式会社,,株式会社,神奈川県,藤沢市,用田６１５番地の１,,14,205,2520821,,,,,,,2022-05-19,1,,,,,ミスターワールドワイド,0
1962,8040003020018,新規,0,2022-05-19,2022-05-19,合同会社松岡商事,,合同会社,千葉県,松戸市,栄町４丁目２０３番地の４ハイツ北松戸１０１号,,12,207,2710062,,,,,,,2022-05-19,1,,,,,マツオカショウジ,0
1963,8040003020042,新規,0,2022-05-19,2022-05-19,Ｋｕｒａｇｅ合同会社,,合同会社,千葉県,我孫子市,栄８－１８,,12,222,2701141,,,,,,,2022-05-19,1,,,,,クラゲ,0
1964,8040003020059,新規,0,2022-05-19,2022-05-19,合同会社Ｒｅｌｉａｎｃｅ,,合同会社,千葉県,千葉市緑区,おゆみ野南４丁目２２－１サンシャインビレッジＢ－３,,12,105,2660033,,,,,,,2022-05-19,1,,,,,リライアンス,0
1966,8050001051096,新規,0,2022-05-19,2022-05-19,株式会社せきい薬局,,株式会社,茨城県,常総市,新石下４９００番地１,,08,211,3002706,,,,,,,2022-05-19,1,,,,,セキイヤッキョク,0
1976,8090001017556,新規,0,2022-05-19,2022-05-19,株式会社寺田喜作商店,,株式会社,山梨県,甲府市,中央１丁目１１番１２号,,19,201,4000032,,,,,,,2022-05-19,1,,,,,,0
1986,8110003004764,新規,0,2022-05-19,2022-05-19,合同会社富野畑,,合同会社,新潟県,新潟市北区,つくし野２丁目４番７号,,15,101,9503135,,,,,,,2022-05-19,1,,,,,トノハタ,0
1995,8120001245962,新規,0,2022-05-19,2022-05-19,株式会社エスセーリング,,株式会社,大阪府,大阪市大正区,平尾３丁目２３番１７号,,27,108,5510012,,,,,,,2022-05-19,1,,,,,エスセーリング,0
1996,8120001245979,新規,0,2022-05-19,2022-05-19,株式会社わっせ,,株式会社,大阪府,大阪市浪速区,下寺２丁目５－１－８０９,,27,111,5560001,,,,,,,2022-05-19,1,,,,,ワッセ,0
2004,8120003021692,新規,0,2022-05-19,2022-05-19,合同会社蒼侍,,合同会社,大阪府,大阪市中央区,南船場１丁目７－６－５０３,,27,128,5420081,,,,,,,2022-05-19,1,,,,,サムライ,0
2011,8120103004705,新規,0,2022-05-19,2022-05-19,合同会社ｓｉｎ,,合同会社,大阪府,堺市北区,北長尾町５丁５番２３－１号,,27,146,5918043,,,,,,,2022-05-19,1,,,,,シン,0
2024,8140001126046,新規,0,2022-05-19,2022-05-19,コモドパートナー株式会社,,株式会社,兵庫県,芦屋市,春日町７番１号,,28,206,6590021,,,,,,,2022-05-19,1,,,,,コモドパートナー,0
2025,8140001126062,新規,0,2022-05-19,2022-05-19,株式会社ワイルドテン,,株式会社,兵庫県,神戸市兵庫区,小河通４丁目２番１５－３１１号,,28,105,6520895,,,,,,,2022-05-19,1,,,,,ワイルドテン,0
2026,8140003017697,新規,0,2022-05-19,2022-05-19,合同会社プラトニック・スパゲッティ,,合同会社,兵庫県,西宮市,神呪町６番９号,,28,204,6620823,,,,,,,2022-05-19,1,,,,,プラトニックスパゲッティ,0
2027,8150001025552,新規,0,2022-05-19,2022-05-19,株式会社障害者グループホームサービス,,株式会社,奈良県,奈良市,学園大和町３丁目２５６番地,,29,201,6310041,,,,,,,2022-05-19,1,,,,,ショウガイシャグループホームサービス,0
2040,8190001029418,新規,0,2022-05-19,2022-05-19,株式会社石建,,株式会社,三重県,四日市市,大字六呂見５０６番地１７,,24,202,5100881,,,,,,,2022-05-19,1,,,,,イシケン,0
2051,8250001019569,新規,0,2022-05-19,2022-05-19,株式会社大村建設,,株式会社,山口県,下関市,一の宮町２丁目１３番２５号藤田ビル北,,35,201,7510806,,,,,,,2022-05-19,1,,,,,オオムラケンセツ,0
2058,8290001097553,新規,0,2022-05-19,2022-05-19,株式会社ｒｅｎｏ,,株式会社,福岡県,太宰府市,高雄５丁目２番２７号,,40,221,8180122,,,,,,,2022-05-19,1,,,,,リノ,0
2059,8290001097586,新規,0,2022-05-19,2022-05-19,株式会社エイチアンドエフ,,株式会社,福岡県,福岡市東区,香椎照葉７丁目６番３７号,,40,131,8130017,,,,,,,2022-05-19,1,,,,,エイチアンドエフ,0
2060,8290003012527,新規,0,2022-05-19,2022-05-19,合同会社つづる,,合同会社,福岡県,大野城市,横峰１丁目２－２０,,40,219,8160973,,,,,,,2022-05-19,1,,,,,ツヅル,0
2062,8290005018687,新規,0,2022-05-19,2022-05-19,医療法人たけだ眼科クリニック,,その他の設立登記法人,福岡県,筑紫野市,美しが丘南７丁目１番３１号,,40,217,8180034,,,,,,,2022-05-19,1,,,,,タケダガンカクリニック,0
2067,8320003003811,新規,0,2022-05-19,2022-05-19,合同会社グローバルサポート,,合同会社,大分県,大分市,大字杉原７５８番地の１７６,,44,201,8797882,,,,,,,2022-05-19,1,,,,,グローバルサポート,0
2086,8430001086665,新規,0,2022-05-19,2022-05-19,阿南圧送株式会社,,株式会社,北海道,苫小牧市,ときわ町５丁目４番５号,,01,213,0591261,,,,,,,2022-05-19,1,,,,,アナンアッソウ,0
2102,8490001010181,新規,0,2022-05-19,2022-05-19,高知ＦＯＲＥＳＴＶＩＳＩＯＮ株式会社,,株式会社,高知県,高岡郡日高村,本村字シテノ木２９６－１,,39,410,7812164,,,,,,,2022-05-19,1,,,,,コウチフォレストビジョン,0
2104,8700150108878,新規,0,2022-05-19,2022-05-19,伊勢市駅前Ｃ地区市街地再開発組合,,その他,三重県,伊勢市,宮後１丁目１－１４,,24,203,5160072,,,,,,,2022-05-19,1,,,,,イセシエキマエシーチクシガイチサイカイハツクミアイ,0
2111,9010001226741,新規,0,2022-05-19,2022-05-19,ＰＡＮＤＡ　ＳＥＲＶＩＣＥ株式会社,,株式会社,東京都,中央区,銀座４丁目１３番８号５階,,13,102,1040061,,,,,,,2022-05-19,1,,,,,パンダサービス,0
2120,9010005035024,新規,0,2022-05-19,2022-05-19,谷田部プロパティー特定目的会社,,その他の設立登記法人,東京都,千代田区,丸の内１丁目１１番１号,,13,101,1000005,,,,,,,2022-05-19,1,,,,,ヤタベプロパティー,0
2127,9010401167197,新規,0,2022-05-19,2022-05-19,株式会社ＩＦＴ,,株式会社,東京都,港区,高輪２丁目１４－７－５０４,,13,103,1080074,,,,,,,2022-05-19,1,,,,,アイエフティー,0
2128,9010403027639,新規,0,2022-05-19,2022-05-19,合同会社キューアセットマネジメント,,合同会社,東京都,港区,高輪２丁目１６番２号,,13,103,1080074,,,,,,,2022-05-19,1,,,,,キューアセットマネジメント,0
2132,9010701042620,新規,0,2022-05-19,2022-05-19,株式会社Ｙｅｌｌｏｗ　Ｔａｉｌ,,株式会社,東京都,品川区,西五反田２丁目１２番３号第一誠実ビル８Ｆ,,13,109,1410031,,,,,,,2022-05-19,1,,,,,イエローテイル,0
2154,9011001147580,新規,0,2022-05-19,2022-05-19,株式会社翠,,株式会社,東京都,渋谷区,恵比寿西２丁目１１番１６号グランディ代官山３０８,,13,113,1500021,,,,,,,2022-05-19,1,,,,,スイ,0
2155,9011001147630,新規,0,2022-05-19,2022-05-19,株式会社Ｖｉｎｔａｇｅ　Ｂｕｙｅｒ　Ｃｏｌｌｅｇｅ,,株式会社,東京都,渋谷区,渋谷３丁目１番９号渋谷ＹＡＺＡＷＡビル,,13,113,1500002,,,,,,,2022-05-19,1,,,,,ビンテージバイヤーカレッジ,0
2160,9011101098872,新規,0,2022-05-19,2022-05-19,東京医学研究所株式会社,,株式会社,東京都,新宿区,百人町２丁目２３番４７号,,13,104,1690073,,,,,,,2022-05-19,1,,,,,トウキョウイガクケンキュウジョ,0
2167,9011501028033,新規,0,2022-05-19,2022-05-19,ＳＹコンサルティング株式会社,,株式会社,東京都,荒川区,南千住６丁目３６－３,,13,118,1160003,,,,,,,2022-05-19,1,,,,,エスワイコンサルティング,0
2171,9011601025962,新規,0,2022-05-19,2022-05-19,株式会社ＦＩＩＩ　ｇｌｏｂａｌ,,株式会社,東京都,練馬区,豊玉南２丁目９番１６－１０５号,,13,120,1760014,,,,,,,2022-05-19,1,,,,,エフアイアイアイグローバル,0
2177,9012403005368,新規,0,2022-05-19,2022-05-19,合同会社Ｐ．Ｉ．Ｔ．Ｂ　Ｓｅｒｖｉｃｅ,,合同会社,東京都,小金井市,本町４丁目２－２４,,13,210,1840004,,,,,,,2022-05-19,1,,,,,ピーアイティービーサービス,0
2179,9012803002782,新規,0,2022-05-19,2022-05-19,合同会社ゆかりサポートグループ,,合同会社,東京都,日野市,大字日野１４８９番地の３,,13,212,1910012,,,,,,,2022-05-19,1,,,,,ユカリサポートグループ,0
2182,9013301049119,新規,0,2022-05-19,2022-05-19,株式会社アセットポイント,,株式会社,東京都,豊島区,駒込６丁目６番１８号,,13,116,1700003,,,,,,,2022-05-19,1,,,,,アセットポイント,0
2206,9021001076003,新規,0,2022-05-19,2022-05-19,株式会社スマイルアクティビティーズ,,株式会社,神奈川県,相模原市緑区,東橋本１丁目２番１４号,,14,151,2520144,,,,,,,2022-05-19,1,,,,,スマイルアクティビティーズ,0
2208,9021003011718,新規,0,2022-05-19,2022-05-19,合同会社Ｃｏｃｏ　Ｌｅａｆｕｌｌ,,合同会社,神奈川県,茅ヶ崎市,香川５丁目４番２４号,,14,207,2530082,,,,,,,2022-05-19,1,,,,,ココリーフル,0
2257,9120001245945,新規,0,2022-05-19,2022-05-19,ＧＹＷ株式会社,,株式会社,大阪府,枚方市,出口６丁目１番１－６２４号,,27,210,5730065,,,,,,,2022-05-19,1,,,,,ジーワイダブリュー,0
2282,9140001126029,新規,0,2022-05-19,2022-05-19,株式会社Ｐｌｕｓｐｅｃｔ,,株式会社,兵庫県,西宮市,甲子園洲鳥町４番１２号,,28,204,6638151,,,,,,,2022-05-19,1,,,,,プラスペクト,0
2283,9140001126061,新規,0,2022-05-19,2022-05-19,株式会社廣和,,株式会社,兵庫県,西宮市,小松南町３丁目３番１８号,,28,204,6638124,,,,,,,2022-05-19,1,,,,,コウワ,0
2286,9140003017696,新規,0,2022-05-19,2022-05-19,ｐｅｒｓｓｉｏｎｅ合同会社,,合同会社,兵庫県,伊丹市,広畑２丁目４６番１号ＬｕｍｉｎｅｒｒｅＨｉｒｏｈａｔａ３０５号室,,28,207,6640014,,,,,,,2022-05-19,1,,,,,ペリッシーノ,0
2299,9180003023848,新規,0,2022-05-19,2022-05-19,ＳＭＡＬＬ　ＷＯＲＬＤ　ＥＮＴＥＲＴＡＩＮＭＥＮＴ　ＧＲＯＵＰ合同会社,,合同会社,愛知県,名古屋市中区,栄２丁目９番２６号ポーラ名古屋ビル２Ｆ,,23,106,4600008,,,,,,,2022-05-19,1,,,,,スモールワールドエンターテインメントグループ,0
2304,9180303005331,新規,0,2022-05-19,2022-05-19,合同会社ＴＫエージェンシー,,合同会社,愛知県,西尾市,市子町下川田２４番地,,23,213,4450055,,,,,,,2022-05-19,1,,,,,ティーケーエージェンシー,0
2311,9220003003283,新規,0,2022-05-19,2022-05-19,合同会社ＳＰＲＩＮＧ　ＢＡＲＲＥＴＴ,,合同会社,石川県,七尾市,万行２丁目１１８番地,,17,202,9260017,,,,,,,2022-05-19,1,,,,,スプリングバレット,0
2312,9230001019363,新規,0,2022-05-19,2022-05-19,株式会社亀福,,株式会社,富山県,砺波市,小杉１４２番地,,16,208,9391357,,,,,,,2022-05-19,1,,,,,カメフク,0
2318,9240003005625,新規,0,2022-05-19,2022-05-19,合同会社勉強室なかむら,,合同会社,広島県,安芸郡府中町,鶴江２丁目８番２号,,34,302,7350008,,,,,,,2022-05-19,1,,,,,ベンキョウシツナカムラ,0
2326,9290001097577,新規,0,2022-05-19,2022-05-19,株式会社Ｃｏｒｅ　Ｉｎｎｏｖａｔｉｏｎ,,株式会社,福岡県,福岡市東区,松島１丁目９番６号,,40,131,8120062,,,,,,,2022-05-19,1,,,,,コアイノベーション,0
2328,9290003012526,新規,0,2022-05-19,2022-05-19,合同会社職人モード,,合同会社,福岡県,糸島市,浦志１丁目２番１号,,40,230,8191112,,,,,,,2022-05-19,1,,,,,ショクニンモード,0
2329,9290005018678,新規,0,2022-05-19,2022-05-19,医療法人まつもと小児科,,その他の設立登記法人,福岡県,福岡市南区,曰佐４丁目２３番１７号,,40,134,8111313,,,,,,,2022-05-19,1,,,,,マツモトショウニカ,0
2330,9290005018686,新規,0,2022-05-19,2022-05-19,ＳＧパートナーズ協同組合,,その他の設立登記法人,福岡県,福岡市博多区,博多駅南２丁目２番７号Ｂｌａｎｃ・Ｓｔｙｌｅ博多９０６,,40,132,8120016,,,,,,,2022-05-19,1,,,,,エスジーパートナーズ,0
2349,9340003003791,新規,0,2022-05-19,2022-05-19,合同会社ＨＡＭＡ企画,,合同会社,鹿児島県,鹿屋市,西原４丁目８番１９号,,46,203,8930064,,,,,,,2022-05-19,1,,,,,ハマキカク,0
2354,9360001030456,新規,0,2022-05-19,2022-05-19,株式会社オクデジ,,株式会社,沖縄県,那覇市,字安里１０１番地,,47,201,9020067,,,,,,,2022-05-19,1,,,,,オクデジ,0
2363,9370001048571,新規,0,2022-05-19,2022-05-19,株式会社ｇａｌｌｅｙ,,株式会社,宮城県,仙台市泉区,将監４丁目１２－１９,,04,105,9813132,,,,,,,2022-05-19,1,,,,,ガレー,0
2376,9430001086656,新規,0,2022-05-19,2022-05-19,彼末工業株式会社,,株式会社,北海道,札幌市清田区,清田一条２丁目４番４６号清田レモンハイツＩＩ－１０３号,00126601,01,110,0040841,,,,,,,2022-05-19,1,,,,,カノスエコウギョウ,0
2377,9430001086664,新規,0,2022-05-19,2022-05-19,株式会社向井建装,,株式会社,北海道,札幌市厚別区,上野幌二条２丁目１７番１５号,,01,108,0040032,,,,,,,2022-05-19,1,,,,,ムカイケンソウ,0
2384,9430003013914,新規,0,2022-05-19,2022-05-19,合同会社Ｈｅａｖｅｎｌｙ　Ｗｉｎｄ　Ｍｉｎｉｓｔｒｉｅｓ,,合同会社,北海道,札幌市北区,新川四条７丁目８番２１号,,01,102,0010924,,,,,,,2022-05-19,1,,,,,ヘヴンリーウィンドミニストリーズ,0
2390,9460101007195,新規,0,2022-05-19,2022-05-19,株式会社ｎｉｄｏｎｅ,,株式会社,北海道,河西郡中札内村,東二条北４丁目２０番地,,01,638,0891322,,,,,,,2022-05-19,1,,,,,ニドネ,0
2392,9470001019075,新規,0,2022-05-19,2022-05-19,株式会社土谷工業,,株式会社,香川県,高松市,庵治町５２００番地,,37,201,7610130,,,,,,,2022-05-19,1,,,,,ツチタニコウギョウ,0
2399,9500001024220,新規,0,2022-05-19,2022-05-19,イマバリデザイン株式会社,,株式会社,愛媛県,今治市,北日吉町２丁目６番１９号,,38,202,7940054,,,,,,,2022-05-19,1,,,,,イマバリデザイン,0
