sequenceNumber,corporateNumber,process,correct,updateDate,changeDate,name,nameImageId,kind,prefectureName,cityName,streetNumber,addressImageId,prefectureCode,cityCode,postCode,addressOutside,addressOutsideImageId,closeDate,closeCause,successorCorporateNumber,changeCause,assignmentDate,latest,enName,enPrefectureName,enCityName,enAddressOutside,furigana,hihyoji
12,1010001236293,新規,0,2023-06-23,2023-06-23,知内風力開発株式会社,,株式会社,東京都,千代田区,霞が関３丁目２番５号,,13,101,1000013,,,,,,,2023-06-23,1,,,,,シリウチフウリョクカイハツ,0
13,1010001236343,新規,0,2023-06-23,2023-06-23,アイワマーケティングジャパン株式会社,,株式会社,東京都,千代田区,神田須田町１丁目２３番地１,,13,101,1010041,,,,,,,2023-06-23,1,,,,,アイワマーケティングジャパン,0
23,1010403030377,新規,0,2023-06-23,2023-06-23,ＮＡＲＵＩ　Ｐｒｏｐｅｒｔｙ　Ｍａｎａｇｅｍｅｎｔ合同会社,,合同会社,東京都,港区,港南３丁目６番２１－２７０６号,,13,103,1080075,,,,,,,2023-06-23,1,,,,,ナルイプロパティマネジメント,0
28,1010701044450,新規,0,2023-06-23,2023-06-23,Ｄｅｎｔａｌ．Ｄｅｓｉｇｎ．Ｓｔｕｄｉｏ株式会社,,株式会社,東京都,品川区,南大井３丁目２０番１１号伊藤ビル６０６号室,,13,109,1400013,,,,,,,2023-06-23,1,,,,,デンタルデザインスタジオ,0
29,1010801034087,新規,0,2023-06-23,2023-06-23,株式会社ＣＯＭ,,株式会社,東京都,大田区,大森南３丁目１０番１号,,13,111,1430013,,,,,,,2023-06-23,1,,,,,シーオーエム,0
34,1010901053284,新規,0,2023-06-23,2023-06-23,株式会社ストリーム,,株式会社,東京都,世田谷区,玉川台２丁目３０番１号,,13,112,1580096,,,,,,,2023-06-23,1,,,,,ストリーム,0
35,1010901053292,新規,0,2023-06-23,2023-06-23,株式会社リアピ国,,株式会社,東京都,世田谷区,北沢３丁目２５番１号,,13,112,1550031,,,,,,,2023-06-23,1,,,,,リアピコク,0
36,1010903008245,新規,0,2023-06-23,2023-06-23,合同会社コトリギ,,合同会社,東京都,世田谷区,北沢３丁目２７－４立木ビル２Ｆ,,13,112,1550031,,,,,,,2023-06-23,1,,,,,コトリギ,0
43,1011001155244,新規,0,2023-06-23,2023-06-23,株式会社ｔｅｃｈｂｅａｒ,,株式会社,東京都,渋谷区,道玄坂１丁目１６－６二葉ビル８ｂ,,13,113,1500043,,,,,,,2023-06-23,1,,,,,テックベア,0
44,1011001155269,新規,0,2023-06-23,2023-06-23,恵比寿ＣＡＴビル不動産株式会社,,株式会社,東京都,渋谷区,恵比寿西２丁目３－１６,,13,113,1500021,,,,,,,2023-06-23,1,,,,,エビスキャットビルフドウサン,0
50,1011103013184,新規,0,2023-06-23,2023-06-23,ＭＷ合同会社,,合同会社,東京都,新宿区,北新宿１丁目７番２０号,,13,104,1690074,,,,,,,2023-06-23,1,,,,,エムダブリュー,0
54,1011301028802,新規,0,2023-06-23,2023-06-23,株式会社ＴＥＲＵＬＡＮＤ,,株式会社,東京都,杉並区,荻窪３丁目３番１０号‐２Ｆ,,13,115,1670051,,,,,,,2023-06-23,1,,,,,テルランド,0
55,1011301028819,新規,0,2023-06-23,2023-06-23,株式会社ＧｒｏｗＣｈａｎｃｅ,,株式会社,東京都,杉並区,高円寺南５丁目１８番９－３号,,13,115,1660003,,,,,,,2023-06-23,1,,,,,グロウチャンス,0
57,1011405002249,新規,0,2023-06-23,2023-06-23,一般社団法人障がい者卓球選手支援協会,,その他の設立登記法人,東京都,板橋区,本町４１番１－１０２号グローリオ板橋本町,,13,119,1730001,,,,,,,2023-06-23,1,,,,,ショウガイシャタッキュウセンシュシエンキョウカイ,0
60,1011603003965,新規,0,2023-06-23,2023-06-23,合同会社ＹＡＩＣＨＩ,,合同会社,東京都,練馬区,高松３丁目１９番２５号,,13,120,1790075,,,,,,,2023-06-23,1,,,,,ヤイチ,0
61,1011701026364,新規,0,2023-06-23,2023-06-23,株式会社エスティエム,,株式会社,東京都,江戸川区,東小岩６丁目１０番１１号ソルトリバー２０３,,13,123,1330052,,,,,,,2023-06-23,1,,,,,エスティエム,0
74,1020001152201,新規,0,2023-06-23,2023-06-23,株式会社Ｃｏｎｃｌｕｓｉｏｎ,,株式会社,神奈川県,横浜市緑区,上山３丁目１１番２６号,,14,113,2260012,,,,,,,2023-06-23,1,,,,,コンクルージョン,0
75,1020001152218,新規,0,2023-06-23,2023-06-23,株式会社Ｔｒｕｓｔ　Ｐｏｒｔ,,株式会社,神奈川県,横浜市保土ケ谷区,仏向町１３０９番地２６,,14,106,2400044,,,,,,,2023-06-23,1,,,,,トラストポート,0
82,1021001079401,新規,0,2023-06-23,2023-06-23,株式会社クロールアップ,,株式会社,神奈川県,相模原市南区,南台５丁目１１番１９号ペアナードオダサガ１０６,,14,153,2520314,,,,,,,2023-06-23,1,,,,,クロールアップ,0
84,1021003013242,新規,0,2023-06-23,2023-06-23,合同会社フォルフ,,合同会社,神奈川県,厚木市,毛利台２丁目２５番７号,,14,212,2430037,,,,,,,2023-06-23,1,,,,,フォルフ,0
85,1021003013250,新規,0,2023-06-23,2023-06-23,Ｃｈｉｌｌ＆Ｂａｂｙ合同会社,,合同会社,神奈川県,座間市,小松原１丁目２９番３号,,14,216,2520002,,,,,,,2023-06-23,1,,,,,チルアンドベビー,0
97,1030003021972,新規,0,2023-06-23,2023-06-23,合同会社世界樹ジェムストーン,,合同会社,埼玉県,さいたま市桜区,大字下大久保１０２６番１号メゾンプロスパリティー３０３号室,,11,106,3380825,,,,,,,2023-06-23,1,,,,,セカイジュジェムストーン,0
98,1030003022021,新規,0,2023-06-23,2023-06-23,合同会社７２,,合同会社,埼玉県,比企郡鳩山町,鳩ヶ丘３丁目１９－４,,11,348,3500312,,,,,,,2023-06-23,1,,,,,ナナニ,0
99,1030005021310,新規,0,2023-06-23,2023-06-23,一般社団法人さいたまスポーツ健康推進協会,,その他の設立登記法人,埼玉県,さいたま市西区,大字指扇１０２２番地１,,11,101,3310047,,,,,,,2023-06-23,1,,,,,サイタマスポーツケンコウスイシンキョウカイ,0
104,1040001128942,新規,0,2023-06-23,2023-06-23,株式会社リワードグロウ,,株式会社,千葉県,木更津市,請西南４丁目３２番地２３,,12,206,2920807,,,,,,,2023-06-23,1,,,,,リワードグロウ,0
105,1040001128950,新規,0,2023-06-23,2023-06-23,株式会社ＴＥＡＭ　ＭＹ　ＳＫＹ,,株式会社,千葉県,浦安市,北栄３丁目７番１４－３０１号,,12,227,2790002,,,,,,,2023-06-23,1,,,,,チームマイスカイ,0
106,1040001128959,新規,0,2023-06-23,2023-06-23,株式会社ＯＭＩ,,株式会社,千葉県,千葉市美浜区,幕張西６丁目２５番地２１,,12,106,2610026,,,,,,,2023-06-23,1,,,,,オミ,0
109,1040003022838,新規,0,2023-06-23,2023-06-23,合同会社Ｆ３,,合同会社,千葉県,船橋市,前原西６丁目１番７１号,,12,204,2740825,,,,,,,2023-06-23,1,,,,,エフスリー,0
115,1060001036111,新規,0,2023-06-23,2023-06-23,株式会社ケイアイエス,,株式会社,栃木県,宇都宮市,駒生１丁目５番３１号,,09,201,3200066,,,,,,,2023-06-23,1,,,,,ケイアイエス,0
125,1080001025681,新規,0,2023-06-23,2023-06-23,ＴＯＲＩＭＡ株式会社,,株式会社,静岡県,静岡市清水区,殿沢２丁目３番３７号,,22,103,4240912,,,,,,,2023-06-23,1,,,,,トリマ,0
127,1080003003000,新規,0,2023-06-23,2023-06-23,ＳＧＱ合同会社,,合同会社,静岡県,静岡市駿河区,丸子６丁目３番５号,,22,102,4210103,,,,,,,2023-06-23,1,,,,,エスジーキュー,0
132,1090005007576,新規,0,2023-06-23,2023-06-23,一般社団法人ミチヅクリ,,その他の設立登記法人,山梨県,北杜市,高根町清里念場原３５４５番２７６,,19,209,4070301,,,,,,,2023-06-23,1,,,,,ミチヅクリ,0
145,1120001255935,新規,0,2023-06-23,2023-06-23,株式会社エイアール建設,,株式会社,大阪府,大阪市西区,北堀江３丁目４－１９大阪金物会館３０１,,27,106,5500014,,,,,,,2023-06-23,1,,,,,エイアールケンセツ,0
147,1120003024355,新規,0,2023-06-23,2023-06-23,合同会社産業保健キャリア開発,,合同会社,大阪府,大阪市西区,江戸堀１丁目１番１１号大同生命東館,,27,106,5500002,,,,,,,2023-06-23,1,,,,,サンギョウホケンキャリアカイハツ,0
156,1122001037108,新規,0,2023-06-23,2023-06-23,簡拍株式会社,,株式会社,大阪府,東大阪市,上石切町２丁目１２番１４号,,27,227,5798012,,,,,,,2023-06-23,1,,,,,カンハク,0
175,1180001156830,新規,0,2023-06-23,2023-06-23,蒼天開発株式会社,,株式会社,愛知県,名古屋市熱田区,千年１丁目２６番１号,,23,109,4560054,,,,,,,2023-06-23,1,,,,,ソウテンカイハツ,0
176,1180001156839,新規,0,2023-06-23,2023-06-23,株式会社案と,,株式会社,愛知県,愛西市,勝幡町塩畑２６８６番地,,23,232,4968001,,,,,,,2023-06-23,1,,,,,アント,0
177,1180001156855,新規,0,2023-06-23,2023-06-23,株式会社ウィズオオシマ,,株式会社,愛知県,岩倉市,大市場町郷廻１４４番地,,23,228,4820002,,,,,,,2023-06-23,1,,,,,ウィズオオシマ,0
181,1180003025397,新規,0,2023-06-23,2023-06-23,合同会社プラシア,,合同会社,愛知県,名古屋市緑区,鳴海町字細根１１８番地の６２,,23,114,4580827,,,,,,,2023-06-23,1,,,,,プラシア,0
183,1190001030514,新規,0,2023-06-23,2023-06-23,株式会社Ｓｐｅｓ,,株式会社,三重県,四日市市,菅原町１２５番地６,,24,202,5120925,,,,,,,2023-06-23,1,,,,,スペス,0
192,1200001041419,新規,0,2023-06-23,2023-06-23,石井木材株式会社,,株式会社,岐阜県,郡上市,大和町徳永７５０番地２,,21,219,5014607,,,,,,,2023-06-23,1,,,,,イシイモクザイ,0
195,1210003001659,新規,0,2023-06-23,2023-06-23,合同会社かわいｅ灯油やさん,,合同会社,福井県,越前市,帆山町第８号３２番地の１,,18,209,9150051,,,,,,,2023-06-23,1,,,,,カワイイトウユヤサン,0
196,1240001061719,新規,0,2023-06-23,2023-06-23,株式会社てらす,,株式会社,広島県,広島市安佐北区,可部５丁目６番１３－１０２号,,34,106,7310221,,,,,,,2023-06-23,1,,,,,テラス,0
197,1240002003760,新規,0,2023-06-23,2023-06-23,有限会社加川鮮魚店,,有限会社,広島県,広島市安佐北区,口田４丁目３番１２号,,34,106,7391734,,,,,,,2023-06-23,1,,,,,カガワセンギョテン,0
208,1290001102039,新規,0,2023-06-23,2023-06-23,株式会社博多屋,,株式会社,福岡県,福岡市東区,多の津１丁目８番３号,,40,131,8130034,,,,,,,2023-06-23,1,,,,,ハカタヤ,0
209,1290001102047,新規,0,2023-06-23,2023-06-23,株式会社森下堂,,株式会社,福岡県,福岡市中央区,高砂１丁目２２番１０号えびすヒルズ１Ｆ,,40,133,8100011,,,,,,,2023-06-23,1,,,,,モリシタドウ,0
222,1320003004048,新規,0,2023-06-23,2023-06-23,合同会社ｍｏｎｏｅｓｓ,,合同会社,大分県,大分市,大字旦野原４００番地の９０,,44,201,8701124,,,,,,,2023-06-23,1,,,,,モノエス,0
227,1340001025663,新規,0,2023-06-23,2023-06-23,株式会社きんぎょ,,株式会社,鹿児島県,鹿児島市,宮之浦町５７０番地Ａ２０５号,,46,201,8911305,,,,,,,2023-06-23,1,,,,,キンギョ,0
230,1360001032187,新規,0,2023-06-23,2023-06-23,株式会社Ｄｅｌｉｇｈｔｆｕｌ,,株式会社,沖縄県,豊見城市,字我那覇８７番地８,,47,212,9010231,,,,,,,2023-06-23,1,,,,,デライトフル,0
231,1360001032195,新規,0,2023-06-23,2023-06-23,ＥＳＫ株式会社,,株式会社,沖縄県,中頭郡嘉手納町,字兼久７７－１古謝店舗中,,47,325,9040205,,,,,,,2023-06-23,1,,,,,イーエスケイ,0
233,1360003013086,新規,0,2023-06-23,2023-06-23,宮古島ロケーションサービス合同会社,,合同会社,沖縄県,宮古島市,平良字久貝８３５番地７,,47,214,9060015,,,,,,,2023-06-23,1,,,,,ミヤコジマロケーションサービス,0
243,1430001089435,新規,0,2023-06-23,2023-06-23,株式会社ｒｏｕｇｈｍａ,,株式会社,北海道,苫小牧市,光洋町１丁目１－２０,,01,213,0530811,,,,,,,2023-06-23,1,,,,,ラフマ,0
258,1700150117662,新規,0,2023-06-23,2023-06-23,ｑｕａｎｚｈｏｕｓｈｉｌｉｎｇｘｉｎｇｙｉｋｅｊｉｙｏｕｘｉａｎｇｏｎｇｓｉ,,外国会社等,,,,,,,,ｆｕｊｉａｎｓｈｅｎｇｊｉｎｊｉａｎｇｓｈｉｓｈｉｊｉｄａｄａｏ５１８ｈａｏ２８０２ｓｈｉ,,,,,,2023-06-23,1,,,,,チユエンジヨウシーリンシンイーコージーヨウシエンゴンスー,0
259,1700150117679,新規,0,2023-06-23,2023-06-23,ＥＳＹＮＩＣ　ＯＮＬＩＮＥ　ＬＩＭＩＴＥＤ,,外国会社等,,,,,,,,ＦＬＡＴ／ＲＭ　Ａ　９／Ｆ　ＳＩＬＶＥＲＣＯＲＰ　ＩＮＴＥＲＮＡＴＩＯＮＡＬ　ＴＯＷＥＲ　７０７－７１３　ＮＡＴＨＡＮ　ＲＯＡＤ　ＭＯＮＧＫＯＫ　ＫＬ,,,,,,2023-06-23,1,,,,,ユウダクボウエキユウゲンコウシ,0
260,1700150117712,新規,0,2023-06-23,2023-06-23,Ｂｅｉｊｉｎｇ　Ｙｕｌｉｎｇｗａｎ　Ｃｕｌｔｕｒｅ　Ｃｏ．Ｌｔｄ,,外国会社等,,,,,,,,ｂａｉｊｉａｔｕａｎｓｈａｎｇｆｅｎｇｙｕａｎ　１ｈａｏｌｏｕ８ｃｅｎｇ９２２　ｈａｉｄｉａｎｑｕ　Ｂｅｉｊｉｎｇ　１０００９５　ＣＮ,,,,,,2023-06-23,1,,,,,ベイジンイーリンワンウエンフワーヨウシエンゴンスー,0
265,2010001236292,新規,0,2023-06-23,2023-06-23,木古内風力開発株式会社,,株式会社,東京都,千代田区,霞が関３丁目２番５号,,13,101,1000013,,,,,,,2023-06-23,1,,,,,キコナイフウリョクカイハツ,0
266,2010001236375,新規,0,2023-06-23,2023-06-23,株式会社ＳＴソリューション,,株式会社,東京都,千代田区,麹町２丁目１０番地３,,13,101,1020083,,,,,,,2023-06-23,1,,,,,エスティーソリューション,0
267,2010003040932,新規,0,2023-06-23,2023-06-23,ｍｉｙａｇｉ　ｍｏｔｏｙｏｓｈｉ　ｓｏｌａｒ合同会社,,合同会社,東京都,中央区,晴海１丁目８－１０晴海アイランドトリトンスクエアオフィスタワーＸ２５Ｆ,,13,102,1040053,,,,,,,2023-06-23,1,,,,,ミヤギモトヨシソーラー,0
270,2010103002163,新規,0,2023-06-23,2023-06-23,Ａｓｕｎｃｉｏｎ合同会社,,合同会社,東京都,八王子市,大谷町３２０番地１,,13,201,1920034,,,,,,,2023-06-23,1,,,,,アスンション,0
275,2010401175165,新規,0,2023-06-23,2023-06-23,株式会社ＭＡＥ,,株式会社,東京都,港区,南麻布１丁目８番１６号,,13,103,1060047,,,,,,,2023-06-23,1,,,,,エムエーイー,0
276,2010401175223,新規,0,2023-06-23,2023-06-23,ＭａｘＴｏｋｙｏ　Ｈｏｌｄｉｎｇｓ株式会社,,株式会社,東京都,港区,白金１丁目２５－１１－１３０１,,13,103,1080072,,,,,,,2023-06-23,1,,,,,マックストーキョーホールディングス,0
280,2010705003518,新規,0,2023-06-23,2023-06-23,一般社団法人品川宅建運営協議会,,その他の設立登記法人,東京都,品川区,戸越３丁目１１番１６号コアビル,,13,109,1420041,,,,,,,2023-06-23,1,,,,,シナガワタッケンウンエイキョウギカイ,0
281,2010801034078,新規,0,2023-06-23,2023-06-23,株式会社セコケイ,,株式会社,東京都,大田区,西馬込１丁目３０番６号,,13,111,1430026,,,,,,,2023-06-23,1,,,,,セコケイ,0
286,2010901053283,新規,0,2023-06-23,2023-06-23,株式会社ＴＴＫ２０２３,,株式会社,東京都,世田谷区,弦巻５丁目７番３０－６０３号,,13,112,1540016,,,,,,,2023-06-23,1,,,,,ティーティーケーニーゼロニーサン,0
294,2011001155210,新規,0,2023-06-23,2023-06-23,トレジャラーズ株式会社,,株式会社,東京都,渋谷区,道玄坂１丁目１６番６号,,13,113,1500043,,,,,,,2023-06-23,1,,,,,トレジャラーズ,0
295,2011001155219,新規,0,2023-06-23,2023-06-23,株式会社ＩＩＲＯＴ,,株式会社,東京都,渋谷区,松濤１丁目３番８号,,13,113,1500046,,,,,,,2023-06-23,1,,,,,イロット,0
296,2011001155235,新規,0,2023-06-23,2023-06-23,グリーンソーラー株式会社,,株式会社,東京都,目黒区,碑文谷５丁目２番５号,,13,110,1520003,,,,,,,2023-06-23,1,,,,,グリーンソーラー,0
297,2011001155268,新規,0,2023-06-23,2023-06-23,株式会社ＳＨＯＯＰ　ＳＴＵＤＩＯ,,株式会社,東京都,渋谷区,道玄坂１丁目２０番３号６Ｆ,,13,113,1500043,,,,,,,2023-06-23,1,,,,,シュープスタジオ,0
299,2011101103358,新規,0,2023-06-23,2023-06-23,株式会社栢森教育研究所,,株式会社,東京都,新宿区,新宿２丁目１２番１３号新宿アントレサロンビル２階,,13,104,1600022,,,,,,,2023-06-23,1,,,,,カヤモリキョウイクケンキュウジョ,0
300,2011101103374,新規,0,2023-06-23,2023-06-23,株式会社ＮＯＶＯＣＥＬＬ　ＪＡＰＡＮ,,株式会社,東京都,新宿区,百人町４丁目９－７新宿ユーエストビル６階,,13,104,1690073,,,,,,,2023-06-23,1,,,,,ノボセルジャパン,0
305,2011103013183,新規,0,2023-06-23,2023-06-23,合同会社サンリアル,,合同会社,東京都,新宿区,四谷４丁目６番１号,,13,104,1600004,,,,,,,2023-06-23,1,,,,,サンリアル,0
306,2011105010699,新規,0,2023-06-23,2023-06-23,一般財団法人新事業創生機構,,その他の設立登記法人,東京都,新宿区,早稲田鶴巻町５６５番地５０２号,,13,104,1620041,,,,,,,2023-06-23,1,,,,,シンジギョウソセイキコウ,0
308,2011303004809,新規,0,2023-06-23,2023-06-23,Ｂｅｙｏｎｄ　Ｉｎｄｅｘ合同会社,,合同会社,東京都,杉並区,高井戸東３丁目１３番７号ニュー浜田山マンション１０５,,13,115,1680072,,,,,,,2023-06-23,1,,,,,ビヨンドインデックス,0
312,2011503005656,新規,0,2023-06-23,2023-06-23,ＦＡＳＨＩＯＮ　ＳＴＡＲＴ合同会社,,合同会社,東京都,荒川区,東日暮里６丁目２２番５号大和マンション１０３号,,13,118,1160014,,,,,,,2023-06-23,1,,,,,,0
316,2011601026918,新規,0,2023-06-23,2023-06-23,株式会社オリオンスクエア,,株式会社,東京都,練馬区,南田中２丁目１６番１７号アスカハイムＢ－１０１,,13,120,1770035,,,,,,,2023-06-23,1,,,,,オリオンスクエア,0
326,2011803005703,新規,0,2023-06-23,2023-06-23,ｎｋｓ合同会社,,合同会社,東京都,足立区,扇１丁目１番１４号,,13,121,1230873,,,,,,,2023-06-23,1,,,,,エヌケーエス,0
329,2012401040654,新規,0,2023-06-23,2023-06-23,九門株式会社,,株式会社,東京都,府中市,北山町２丁目２８番地の１,,13,206,1830041,,,,,,,2023-06-23,1,,,,,キュウモン,0
330,2012403006034,新規,0,2023-06-23,2023-06-23,合同会社龍,,合同会社,東京都,小金井市,東町４丁目４３番１３号,,13,210,1840011,,,,,,,2023-06-23,1,,,,,タツ,0
338,2020001152183,新規,0,2023-06-23,2023-06-23,株式会社Ｃ‐ＬＩＮＫＳ,,株式会社,神奈川県,横浜市都筑区,川向町１４６番地１１,,14,118,2240044,,,,,,,2023-06-23,1,,,,,シーリンクス,0
339,2020001152200,新規,0,2023-06-23,2023-06-23,株式会社ＳＨＩＭＡＭＯＮ　ＤＥＳＩＧＮ,,株式会社,神奈川県,横浜市中区,山下町２１９番地カーサ丸徳３０３,,14,104,2310023,,,,,,,2023-06-23,1,,,,,シマモンデザイン,0
347,2021001079400,新規,0,2023-06-23,2023-06-23,株式会社Ｓ．Ｋ．ｔｅｃｈ,,株式会社,神奈川県,綾瀬市,深谷中６丁目３番１８号グリーンヒルズＫ２０３,,14,218,2521107,,,,,,,2023-06-23,1,,,,,エスケーテック,0
357,2030001154468,新規,0,2023-06-23,2023-06-23,株式会社Ｎｅｌ,,株式会社,埼玉県,さいたま市桜区,大字神田４３８番地１神山ハイツ１０２,,11,106,3380812,,,,,,,2023-06-23,1,,,,,ネル,0
366,2040001128958,新規,0,2023-06-23,2023-06-23,株式会社てんめや不動産,,株式会社,千葉県,柏市,亀甲台町１丁目５番９号,,12,217,2770031,,,,,,,2023-06-23,1,,,,,テンメヤフドウサン,0
372,2040003022829,新規,0,2023-06-23,2023-06-23,合同会社Ｓｎｉｐｅｒｓ,,合同会社,千葉県,千葉市花見川区,幕張町５丁目１６１番地エクセルフラット２０１号,,12,102,2620032,,,,,,,2023-06-23,1,,,,,スナイパーズ,0
373,2040003022837,新規,0,2023-06-23,2023-06-23,合同会社ＰＵＢＵＤＵ　ＩＮＴＥＲＮＡＴＩＯＮＡＬ,,合同会社,千葉県,柏市,藤ケ谷２１５番地６－Ｎｏ．８,,12,217,2770931,,,,,,,2023-06-23,1,,,,,プブドゥインターナショナル,0
375,2060001036102,新規,0,2023-06-23,2023-06-23,自然派住宅研究所株式会社,,株式会社,栃木県,宇都宮市,中戸祭町２８９９番地２５,,09,201,3200052,,,,,,,2023-06-23,1,,,,,シゼンハジュウタクケンキュウジョ,0
377,2070003004997,新規,0,2023-06-23,2023-06-23,合同会社Ｌｉｎｋ　ａｎｄ　Ｃａｒｅｅｒ,,合同会社,群馬県,伊勢崎市,喜多町４７番地－１０１,,10,204,3720056,,,,,,,2023-06-23,1,,,,,リンクアンドキャリア,0
401,2120001255918,新規,0,2023-06-23,2023-06-23,Ｐｒｏｇｒｅｓｓｅｒ　Ｈｏｌｄｉｎｇ　ＪＰ株式会社,,株式会社,大阪府,大阪市西成区,鶴見橋１丁目６番１９号塩谷マンション３０１号,,27,122,5570031,,,,,,,2023-06-23,1,,,,,プログレッサーホールディングジェイピー,0
402,2120003024354,新規,0,2023-06-23,2023-06-23,合同会社ペン丸,,合同会社,大阪府,大阪市天王寺区,舟橋町６番９号セイワパレス真田山公園東５０１号,,27,109,5430024,,,,,,,2023-06-23,1,,,,,ペンマル,0
407,2120903004703,新規,0,2023-06-23,2023-06-23,合同会社山下資本管財,,合同会社,大阪府,吹田市,千里山西２丁目１番４７号,,27,205,5650851,,,,,,,2023-06-23,1,,,,,ヤマシタシホンカンザイ,0
413,2130003008793,新規,0,2023-06-23,2023-06-23,スカイキューブ合同会社,,合同会社,京都府,相楽郡精華町,光台２丁目２番地２,,26,366,6190237,,,,,,,2023-06-23,1,,,,,スカイキューブ,0
427,2180001156838,新規,0,2023-06-23,2023-06-23,ＳＫ　ＴＲＡＤＩＮＧ株式会社,,株式会社,愛知県,弥富市,狐地１丁目３３番地,,23,235,4980051,,,,,,,2023-06-23,1,,,,,エスケートレーディング,0
428,2180001156846,新規,0,2023-06-23,2023-06-23,株式会社吉瑞,,株式会社,愛知県,名古屋市昭和区,菊園町２丁目２番地の１,,23,107,4660843,,,,,,,2023-06-23,1,,,,,ヨシミズ,0
430,2180301037498,新規,0,2023-06-23,2023-06-23,株式会社ＣＯＮＮＥＣＴ・ＣＢ,,株式会社,愛知県,豊田市,丸山町８丁目３フラワーパーク１０５号室,,23,211,4710832,,,,,,,2023-06-23,1,,,,,コネクトシービー,0
431,2180303005750,新規,0,2023-06-23,2023-06-23,合同会社パンダロケット,,合同会社,愛知県,豊田市,大畑町上屋敷２１４番地,,23,211,4700355,,,,,,,2023-06-23,1,,,,,パンダロケット,0
437,2220003003538,新規,0,2023-06-23,2023-06-23,合同会社ａｋａ　ａｋａ,,合同会社,石川県,金沢市,片町１丁目８番地２０号ＧＡＺＡビル２Ｆ,,17,201,9200981,,,,,,,2023-06-23,1,,,,,アカアカ,0
442,2240001061718,新規,0,2023-06-23,2023-06-23,株式会社夢叶興業,,株式会社,広島県,竹原市,港町２丁目１３番３号,,34,203,7250024,,,,,,,2023-06-23,1,,,,,トワコウギョウ,0
443,2250001020152,新規,0,2023-06-23,2023-06-23,株式会社常盤通り未来共創まちづくり,,株式会社,山口県,宇部市,東琴芝２丁目１番３１号,,35,202,7550034,,,,,,,2023-06-23,1,,,,,トキワドオリミライキョウソウマチヅクリ,0
445,2260001038053,新規,0,2023-06-23,2023-06-23,株式会社巧,,株式会社,岡山県,岡山市北区,平野８９番地９,,33,101,7010151,,,,,,,2023-06-23,1,,,,,タクミ,0
454,2290001102046,新規,0,2023-06-23,2023-06-23,株式会社Ｗ＆Ｓ,,株式会社,福岡県,福岡市東区,松崎１丁目４番１２号,,40,131,8130035,,,,,,,2023-06-23,1,,,,,ダブリュアンドエス,0
457,2290003014058,新規,0,2023-06-23,2023-06-23,ＤＥＥＰＡＫ合同会社,,合同会社,福岡県,福岡市中央区,高砂２丁目８－２０,,40,133,8100011,,,,,,,2023-06-23,1,,,,,ディパク,0
458,2290003014066,新規,0,2023-06-23,2023-06-23,合同会社のびざかり,,合同会社,福岡県,福岡市南区,高木２丁目１１－１０－９０３,,40,134,8150004,,,,,,,2023-06-23,1,,,,,ノビザカリ,0
463,2310001018479,新規,0,2023-06-23,2023-06-23,株式会社イロドリ,,株式会社,長崎県,五島市,三尾野２丁目１－１２勤王ビル１Ｆ,,42,211,8530064,,,,,,,2023-06-23,1,,,,,イロドリ,0
468,2320001019848,新規,0,2023-06-23,2023-06-23,富士不動産建設株式会社,,株式会社,大分県,中津市,大字蛎瀬５８２番地７,,44,203,8710007,,,,,,,2023-06-23,1,,,,,フジフドウサンケンセツ,0
469,2320005010084,新規,0,2023-06-23,2023-06-23,一般社団法人国東シュタイナーあめつちの学校,,その他の設立登記法人,大分県,国東市,国見町岐部３３５１番地,,44,214,8721614,,,,,,,2023-06-23,1,,,,,,0
474,2340001025662,新規,0,2023-06-23,2023-06-23,株式会社やまのうち,,株式会社,鹿児島県,姶良市,加治木町諏訪町１９７番地,,46,225,8995212,,,,,,,2023-06-23,1,,,,,ヤマノウチ,0
481,2360003013069,新規,0,2023-06-23,2023-06-23,Ｂｒａｚｚａｎｉ合同会社,,合同会社,沖縄県,名護市,字稲嶺９８４番地１９ＡＺＡＭＩＨＯＵＳＥ名護１Ｆ,,47,209,9051142,,,,,,,2023-06-23,1,,,,,ブラザニ,0
487,2380001033802,新規,0,2023-06-23,2023-06-23,フォレストリサイクル株式会社,,株式会社,福島県,本宮市,高木字原５８番地１,,07,214,9691101,,,,,,,2023-06-23,1,,,,,フォレストリサイクル,0
488,2380001033810,新規,0,2023-06-23,2023-06-23,株式会社ｈａｍａ．ｓｔ,,株式会社,福島県,双葉郡楢葉町,大字山田岡字堂ノ下６番地４,,07,542,9790513,,,,,,,2023-06-23,1,,,,,ハマスタ,0
509,2430003015198,新規,0,2023-06-23,2023-06-23,合同会社ａｔｅｌｉｅｒ　ｈａｒｕ,,合同会社,北海道,虻田郡倶知安町,南四条東３丁目１１番地６０,,01,400,0440014,,,,,,,2023-06-23,1,,,,,アトリエハル,0
516,2480003001994,新規,0,2023-06-23,2023-06-23,クラシックサーフワークス合同会社,,合同会社,徳島県,海部郡海陽町,宍喰浦字古目８４,,36,388,7750501,,,,,,,2023-06-23,1,,,,,クラシックサーフワークス,0
518,2500001025019,新規,0,2023-06-23,2023-06-23,株式会社Ｑｕｗａｋ,,株式会社,愛媛県,四国中央市,川之江町４０６１－２６,,38,213,7990101,,,,,,,2023-06-23,1,,,,,,0
520,2700150117661,新規,0,2023-06-23,2023-06-23,Ｓｏｎｇｙｕａｎ　Ｌｉｎｓｅｎ　Ｎｅｔｗｏｒｋ　Ｔｅｃｈｎｏｌｏｇｙ　Ｃｏ．，Ｌｔｄ．,,外国会社等,,,,,,,,Ｎｏ．１０２，Ｎｏ．４，Ｃｏｍｍｅｒｃｉａｌ　Ｃｏｍｐｌｅｘ，Ｂｏｘｕｅ　Ｒｏａｄ，Ｎｉｎｇｊｉａｎｇ　Ｄｉｓｔｒｉｃｔ，Ｓｏｎｇｙｕａｎ　Ｃｉｔｙ，Ｎｏ．Ａ０１３５,,,,,,2023-06-23,1,,,,,ソンユエンシーリンセンワンルオコージーヨウシエンゴンスー,0
521,2700150117678,新規,0,2023-06-23,2023-06-23,ＮＥＯＴＥＣＫ　ＴＥＣＨＮＯＬＯＧＹ　ＬＩＭＩＴＥＤ,,外国会社等,,,,,,,,ＦＬＡＴ／ＲＭ　Ａ　９／Ｆ　ＳＩＬＶＥＲＣＯＲＰ　ＩＮＴＥＲＮＡＴＩＯＮＡＬ　ＴＯＷＥＲ　７０７－７１３　ＮＡＴＨＡＮ　ＲＯＡＤ　ＭＯＮＧＫＯＫ　ＫＬ,,,,,,2023-06-23,1,,,,,カイノウシンソクカギユウゲンコウシ,0
522,2700150117711,新規,0,2023-06-23,2023-06-23,Ｍｉｃｒｏ　Ｃｏｍｐｕｔｅｒ（ＨＫ）Ｔｅｃｈ　Ｌｉｍｉｔｅｄ,,外国会社等,,,,,,,,１９Ｈ　Ｍａｘｇｒａｎｄ　Ｐｌａｚａ，Ｎｏ　３　Ｔａｉ　Ｙａｕ　Ｓｔｒｅｅｔ，Ｓａｎ　Ｐｏ　Ｋｏｎｇ，Ｋｏｗｌｏｏｎ　Ｈｏｎｇ　Ｋｏｎｇ,,,,,,2023-06-23,1,,,,,メイガオデイエンナオシヤンガンコージーヨウシエンゴンスー,0
523,2700150117728,新規,0,2023-06-23,2023-06-23,ｓｈｅｎｚｈｅｎ　ｓｈｉ　ｈｕｉ　ｙｉ　ｍａｎ　ｇｕａｎｇ　ｇａｏ　ｙｏｕ　ｘｉａｎ　ｇｏｎｇ　ｓｉ,,外国会社等,,,,,,,,ｓｈｅｎ　ｚｈｅｎ　ｓｈｉ　ｌｏｎｇ　ｈｕａ　ｘｉｎ　ｑｕ　ｄａ　ｌａｎｇ　ｊｉｅ　ｄａｏ　ｈｅｐｉｎｇ　ｌｕ　ｇｕａｎｇ　ｘｉ　ｇｏｎｇ　ｙｅ　ｑｕ　３　ｄｏｎｇ　１　ｌｏｕ　ｃｈａｎｇ　ｆａｎｇ　ｓｈｅｎ　ｚｈｅｎ　ｇｕａｎｇ　ｄｏｎｇ　Ｃｈｉｎａ,,,,,,2023-06-23,1,,,,,シンセンシフイイマンコウコクユウゲンコウシ,0
534,3010001236291,新規,0,2023-06-23,2023-06-23,長万部風力開発株式会社,,株式会社,東京都,千代田区,霞が関３丁目２番５号,,13,101,1000013,,,,,,,2023-06-23,1,,,,,オシャマンベフウリョクカイハツ,0
539,3010401175230,新規,0,2023-06-23,2023-06-23,新和工業株式会社,,株式会社,東京都,港区,新橋２丁目１６番１号ニュー新橋ビル７０８,,13,103,1050004,,,,,,,2023-06-23,1,,,,,シンワコウギョウ,0
541,3010403030391,新規,0,2023-06-23,2023-06-23,合同会社ＴＭＣ　ＪＡＰＡＮ　ＷＯＲＬＤＮＥＴＷＯＲＫ,,合同会社,東京都,港区,南青山３丁目１番３６号,,13,103,1070062,,,,,,,2023-06-23,1,,,,,ティーエムシージャパンワールドネットワーク,0
543,3010405022271,新規,0,2023-06-23,2023-06-23,備後町インベストメンツ特定目的会社,,その他の設立登記法人,東京都,港区,六本木１丁目６番１号泉ガーデンタワー,,13,103,1060032,,,,,,,2023-06-23,1,,,,,ビンゴマチインベストメンツ,0
546,3010503007050,新規,0,2023-06-23,2023-06-23,ディアナ合同会社,,合同会社,東京都,台東区,上野５丁目９‐２１‐Ｌ１,,13,106,1100005,,,,,,,2023-06-23,1,,,,,ディアナ,0
555,3010801034085,新規,0,2023-06-23,2023-06-23,株式会社ｎｉｃｏＣＡＭＰ,,株式会社,東京都,大田区,西六郷２丁目５５番４号,,13,111,1440056,,,,,,,2023-06-23,1,,,,,ニコキャンプ,0
556,3010901053290,新規,0,2023-06-23,2023-06-23,株式会社ＣＴＦ,,株式会社,東京都,世田谷区,等々力５丁目１１番３号－６,,13,112,1580082,,,,,,,2023-06-23,1,,,,,シーティーエフ,0
557,3010903008251,新規,0,2023-06-23,2023-06-23,合同会社金天,,合同会社,東京都,世田谷区,桜上水４丁目２２－８シェフルール桜上水２０４,,13,112,1560045,,,,,,,2023-06-23,1,,,,,キンテン,0
561,3011001155201,新規,0,2023-06-23,2023-06-23,Ｃｒａｚｙ　Ｓｎｏｗ株式会社,,株式会社,東京都,渋谷区,富ヶ谷１丁目１４番１４号４階,,13,113,1510063,,,,,,,2023-06-23,1,,,,,クレイジースノー,0
562,3011001155218,新規,0,2023-06-23,2023-06-23,株式会社テクノカットスタジオ,,株式会社,東京都,目黒区,中町２丁目１２番４号,,13,110,1530065,,,,,,,2023-06-23,1,,,,,テクノカットスタジオ,0
563,3011001155234,新規,0,2023-06-23,2023-06-23,タクトフル株式会社,,株式会社,東京都,渋谷区,渋谷２丁目１９番１５号宮益坂ビルディング６０９,,13,113,1500002,,,,,,,2023-06-23,1,,,,,タクトフル,0
564,3011001155259,新規,0,2023-06-23,2023-06-23,株式会社ナハトマーケティングキャピタル,,株式会社,東京都,渋谷区,道玄坂１丁目１２番１号,,13,113,1500043,,,,,,,2023-06-23,1,,,,,ナハトマーケティングキャピタル,0
569,3011101103365,新規,0,2023-06-23,2023-06-23,ＢＵＩＬＤ株式会社,,株式会社,東京都,新宿区,西新宿３丁目３番１３号西新宿水間ビル６階,,13,104,1600023,,,,,,,2023-06-23,1,,,,,ビルド,0
573,3011301028817,新規,0,2023-06-23,2023-06-23,株式会社上山企画,,株式会社,東京都,杉並区,本天沼１丁目３番２号,,13,115,1670031,,,,,,,2023-06-23,1,,,,,カミヤマキカク,0
575,3011303004808,新規,0,2023-06-23,2023-06-23,合同会社百鬼,,合同会社,東京都,杉並区,高円寺南２丁目１番１５号,,13,115,1660003,,,,,,,2023-06-23,1,,,,,,0
578,3011601026917,新規,0,2023-06-23,2023-06-23,大洋商事株式会社,,株式会社,東京都,練馬区,貫井４丁目６番１２号,,13,120,1760021,,,,,,,2023-06-23,1,,,,,タイヨウショウジ,0
582,3011801042615,新規,0,2023-06-23,2023-06-23,株式会社サニー,,株式会社,東京都,足立区,梅島３丁目３－２４,,13,121,1210816,,,,,,,2023-06-23,1,,,,,サニー,0
583,3011801042623,新規,0,2023-06-23,2023-06-23,株式会社ＯＮＥ,,株式会社,東京都,葛飾区,柴又６丁目１２－１８－２Ｆ,,13,122,1250052,,,,,,,2023-06-23,1,,,,,ワン,0
588,3012701017707,新規,0,2023-06-23,2023-06-23,株式会社ＡＧＲＥＡ,,株式会社,東京都,東村山市,栄町１丁目１０番地６－４０３,,13,213,1890013,,,,,,,2023-06-23,1,,,,,アグレア,0
590,3012805003207,新規,0,2023-06-23,2023-06-23,特定非営利活動法人バードライフサポート虹いろ,,その他の設立登記法人,東京都,国分寺市,東恋ヶ窪４丁目２８番地３メゾン西国分寺３０３,,13,214,1850014,,,,,,,2023-06-23,1,,,,,バードライフサポートニジイロ,0
613,3020003024090,新規,0,2023-06-23,2023-06-23,合同会社インデュア,,合同会社,神奈川県,川崎市高津区,明津１６―３,,14,134,2130024,,,,,,,2023-06-23,1,,,,,インデュア,0
621,3021001079408,新規,0,2023-06-23,2023-06-23,株式会社茅ヶ崎エフエム,,株式会社,神奈川県,茅ヶ崎市,茅ヶ崎１丁目１番１４号,,14,207,2530041,,,,,,,2023-06-23,1,,,,,チガサキエフエム,0
623,3021003013240,新規,0,2023-06-23,2023-06-23,ハコスカ商会合同会社,,合同会社,神奈川県,茅ヶ崎市,芹沢６４６番７,,14,207,2530008,,,,,,,2023-06-23,1,,,,,ハコスカショウカイ,0
624,3021003013249,新規,0,2023-06-23,2023-06-23,合同会社Ｌｉｂｅｒｔｙ,,合同会社,神奈川県,藤沢市,菖蒲沢９３８番地の２ルーフハウスＡ１０５,,14,205,2520823,,,,,,,2023-06-23,1,,,,,リバティー,0
625,3021005012851,新規,0,2023-06-23,2023-06-23,一般社団法人ＪＡＰＡＮ　ＣＹＣＡＤ　ＳＯＣＩＥＴＹ,,その他の設立登記法人,神奈川県,茅ヶ崎市,本村２丁目２番１８号,,14,207,2530042,,,,,,,2023-06-23,1,,,,,ジャパンサイカッドソサイエティー,0
639,3040001128957,新規,0,2023-06-23,2023-06-23,アドラ株式会社,,株式会社,千葉県,千葉市若葉区,若松町９８４－４７１,,12,104,2640021,,,,,,,2023-06-23,1,,,,,アドラ,0
657,3050003007596,新規,0,2023-06-23,2023-06-23,合同会社エルムーブ,,合同会社,茨城県,龍ケ崎市,長峰町１５１１,,08,208,3010804,,,,,,,2023-06-23,1,,,,,エルムーブ,0
663,3060001036101,新規,0,2023-06-23,2023-06-23,株式会社Ｆｅｒｍｅｎｔ　Ｂａｓｅ,,株式会社,栃木県,小山市,西城南６丁目１５番地８,,09,208,3230820,,,,,,,2023-06-23,1,,,,,ファーメントベース,0
671,3110001037639,新規,0,2023-06-23,2023-06-23,ＴＧＬ株式会社,,株式会社,新潟県,柏崎市,田塚２丁目２－２４,,15,205,9450032,,,,,,,2023-06-23,1,,,,,テイジイエル,0
675,3120001255883,新規,0,2023-06-23,2023-06-23,和鸞株式会社,,株式会社,大阪府,大阪市中央区,瓦屋町１丁目１４番１５－１０１号,,27,128,5420066,,,,,,,2023-06-23,1,,,,,ワラン,0
676,3120001255917,新規,0,2023-06-23,2023-06-23,株式会社ＲＩＹＡ,,株式会社,大阪府,大阪市生野区,巽北１丁目１番１号３Ｆ－Ｇ,00130958,27,116,5440004,,,,,,,2023-06-23,1,,,,,リヤ,0
677,3120001255933,新規,0,2023-06-23,2023-06-23,株式会社復米,,株式会社,大阪府,大阪市西成区,鶴見橋１丁目１６－２８－１０１号,,27,122,5570031,,,,,,,2023-06-23,1,,,,,フクマイ,0
678,3120001255941,新規,0,2023-06-23,2023-06-23,株式会社Ｄ＆Ｌ,,株式会社,大阪府,大阪市淀川区,西中島５丁目８－２９－７０７号,,27,123,5320011,,,,,,,2023-06-23,1,,,,,ディーアンドエル,0
680,3120003024345,新規,0,2023-06-23,2023-06-23,合同会社ＲＩＡＮ,,合同会社,大阪府,枚方市,香里園東之町１７番２号,,27,210,5730085,,,,,,,2023-06-23,1,,,,,リアン,0
681,3120003024353,新規,0,2023-06-23,2023-06-23,合同会社シャインエッジ,,合同会社,大阪府,大阪市都島区,御幸町２丁目１３番１１号,,27,102,5340012,,,,,,,2023-06-23,1,,,,,シャインエッジ,0
682,3120005023700,新規,0,2023-06-23,2023-06-23,一般社団法人国際環境技術機構,,その他の設立登記法人,大阪府,大阪市東淀川区,東中島１丁目１７番５号,,27,114,5330033,,,,,,,2023-06-23,1,,,,,コクサイカンキョウギジュツキコウ,0
687,3120101067444,新規,0,2023-06-23,2023-06-23,株式会社椿,,株式会社,大阪府,河内長野市,日野３７２番地の甲,,27,216,5860085,,,,,,,2023-06-23,1,,,,,ツバキ,0
688,3120101067774,新規,0,2023-06-23,2023-06-23,株式会社大羅技建,,株式会社,大阪府,堺市中区,深井清水町１２８２番地１コンフォールふかいのもり２０６号,,27,142,5998273,,,,,,,2023-06-23,1,,,,,オオラギケン,0
697,3130001074597,新規,0,2023-06-23,2023-06-23,株式会社マツモトテッキン,,株式会社,京都府,京都市下京区,大宮通七条下る上之町４２５番地１アイアーツ七条大宮７０１号,,26,106,6008266,,,,,,,2023-06-23,1,,,,,マツモトテッキン,0
718,3210001019362,新規,0,2023-06-23,2023-06-23,株式会社神山農園,,株式会社,福井県,越前市,広瀬町第１３７号８番地,,18,209,9150872,,,,,,,2023-06-23,1,,,,,カミヤマノウエン,0
723,3240001061691,新規,0,2023-06-23,2023-06-23,株式会社ＲｅＲａｙ,,株式会社,広島県,尾道市,因島中庄町７１０番地３,,34,205,7222211,,,,,,,2023-06-23,1,,,,,リレイ,0
724,3240001061717,新規,0,2023-06-23,2023-06-23,株式会社ＮＮＷ,,株式会社,広島県,広島市佐伯区,五日市５丁目１０番１７号２０１号室,,34,108,7315127,,,,,,,2023-06-23,1,,,,,エヌエヌダブル,0
728,3250001020151,新規,0,2023-06-23,2023-06-23,株式会社アンタイド・テクノロジー・コラボレーション,,株式会社,山口県,防府市,大字浜方１０番地の２０,,35,206,7470833,,,,,,,2023-06-23,1,,,,,アンタイドテクノロジーコラボレーション,0
740,3290003014065,新規,0,2023-06-23,2023-06-23,合同会社軽助,,合同会社,福岡県,福岡市博多区,山王２丁目１２番２号コーポ日下部２０６,,40,132,8120015,,,,,,,2023-06-23,1,,,,,ケイスケ,0
741,3290005019070,新規,0,2023-06-23,2023-06-23,特定非営利活動法人福岡県就労支援センター,,その他の設立登記法人,福岡県,大野城市,白木原２丁目５番２５号,,40,219,8160943,,,,,,,2023-06-23,1,,,,,フクオカケンシュウロウシエンセンター,0
743,3310001018478,新規,0,2023-06-23,2023-06-23,株式会社シエイト,,株式会社,長崎県,長崎市,鍛冶屋町６－３－１Ｆ,,42,201,8500831,,,,,,,2023-06-23,1,,,,,シエイト,0
748,3330001030976,新規,0,2023-06-23,2023-06-23,株式会社宗硝子店,,株式会社,熊本県,葦北郡芦北町,大字計石１７３４番地,,43,482,8695453,,,,,,,2023-06-23,1,,,,,ソウガラステン,0
749,3330001030992,新規,0,2023-06-23,2023-06-23,株式会社ジャパンウォーターサプライ,,株式会社,熊本県,宇城市,松橋町豊崎１１８７番地４,,43,213,8690542,,,,,,,2023-06-23,1,,,,,ジャパンウォーターサプライ,0
752,3340001025661,新規,0,2023-06-23,2023-06-23,種子島不動産株式会社,,株式会社,鹿児島県,西之表市,東町７０５３番地３,,46,213,8913113,,,,,,,2023-06-23,1,,,,,タネガシマフドウサン,0
758,3360001032202,新規,0,2023-06-23,2023-06-23,Ｖ８ＴＲＡＤＥ株式会社,,株式会社,沖縄県,中頭郡嘉手納町,字水釜１０７番地,,47,325,9040204,,,,,,,2023-06-23,1,,,,,ヴィーエイトトレード,0
765,3370001050104,新規,0,2023-06-23,2023-06-23,株式会社ＰＡＬ　ＪＯＹ,,株式会社,宮城県,多賀城市,浮島２丁目３２番１３－２０６号,,04,209,9850861,,,,,,,2023-06-23,1,,,,,パルジョイ,0
797,3700150117660,新規,0,2023-06-23,2023-06-23,Ｆｏｓｈａｎ　Ｄａｊｉａｏ　Ｒｉｊｉ　Ｂａｇｓ　＆　Ｃｌｏｔｈｉｎｇ　Ｃｏ．，Ｌｔｄ．,,外国会社等,,,,,,,,ＮａｎＨａｉ，ＳｈｉＳｈａｎ，Ｆｏｒｍｅｒ　Ｓｈｉｓｈａｎ　Ｆａｒｍ，１０４，１／Ｆ，（Ｗｏｒｋｓｈｏｐ１）Ｄａ　ＦｏＳｈａｎ　ＧｕａｎｇＤｏｎｇ　５２８２２５　ＣＮ,,,,,,2023-06-23,1,,,,,フオーシヤンシーダージヤオリージーシヤンバオフーシーヨウシエンゴンスー,0
798,3700150117677,新規,0,2023-06-23,2023-06-23,ＨＯＮＧＫＯＮＧ　ＰＲＯＳＴＥＲ　ＴＲＡＤＩＮＧ　ＬＩＭＩＴＥＤ,,外国会社等,,,,,,,,ＦＬＡＴ／ＲＭ　Ａ　９／Ｆ　ＳＩＬＶＥＲＣＯＲＰ　ＩＮＴＥＲＮＡＴＩＯＮＡＬ　ＴＯＷＥＲ　７０７－７１３　ＮＡＴＨＡＮ　ＲＯＡＤ　ＭＯＮＧＫＯＫ　ＫＬ,,,,,,2023-06-23,1,,,,,ホンコンプロスターボウエキユウゲンコウシ,0
799,3700150117685,新規,0,2023-06-23,2023-06-23,ｓｈｅｎｚｈｅｎ　ｐｕｒｕｉｓｉｄｉａｎｚｉｓｈａｎｇｗｕ　ｙｏｕｘｉａｎｇｏｎｇｓｉ,,外国会社等,,,,,,,,ｌｏｎｇｈｕａｑｕｌｏｎｇｈｕａｊｉｅｄａｏｆｕｋａｎｇｓｈｅｑｕｄｏｎｇｈｕａｎｅｒｌｕ６５ｈａｏ　ｄｅｍｅｉｇｏｎｇｙｅｚｈｏｎｇｘｉｎＡ６ｄｏｎｇ２ｃｅｎｇ２１９ｈａｏ　ｓｈｅｎｚｈｅｎ　ｇｕ,,,,,,2023-06-23,1,,,,,シンセンプルイシデンシシヤンウ,0
800,3700150117710,新規,0,2023-06-23,2023-06-23,Ｓｈｅｎｚｈｅｎ　Ｓｐｏｄａｇ　Ｔｅｃｈｎｏｌｏｇｙ　Ｃｏ．，Ｌｔｄ．,,外国会社等,,,,,,,,Ｂ５１８－６，Ｎｉｕｌａｎｑｉａｎ　Ｂｕｉｌｄｉｎｇ，Ｍｉｎｚｈｉ　Ａｖｅｎｕｅ，Ｘｉｎｎｉｕ　Ｃｏｍｍｕｎｉｔｙ，Ｍｉｎｚｈｉ　Ｓｔｒｅｅｔ，Ｌｏｎｇｈｕａ　Ｄｉｓｔｒｉｃｔ，Ｓｈｅｎｚｈｅｎ，Ｇｕａｎｇ　ｄｏｎｇ，ＣＮ,,,,,,2023-06-23,1,,,,,シエンジエンシースーボーダーゴーコージーヨウシエンゴンスー,0
810,4010003040955,新規,0,2023-06-23,2023-06-23,Ｗａｂｕ合同会社,,合同会社,東京都,千代田区,神田和泉町１番地６－１６ヤマトビル４０５,,13,101,1010024,,,,,,,2023-06-23,1,,,,,ワブ,0
816,4010401175221,新規,0,2023-06-23,2023-06-23,株式会社結芽クリエイト,,株式会社,東京都,港区,北青山２丁目７－２６メゾン青山１００１,,13,103,1070061,,,,,,,2023-06-23,1,,,,,ユメクリエイト,0
828,4010405022270,新規,0,2023-06-23,2023-06-23,備後町インベストメンツ１一般社団法人,,その他の設立登記法人,東京都,港区,六本木１丁目６番１号泉ガーデンタワー,,13,103,1060032,,,,,,,2023-06-23,1,,,,,ビンゴマチインベストメンツワン,0
837,4010801034084,新規,0,2023-06-23,2023-06-23,株式会社東京医歯学総合研究所,,株式会社,東京都,大田区,北千束３丁目３５－５－２０２,,13,111,1450062,,,,,,,2023-06-23,1,,,,,トウキョウイシガクソウゴウケンキュジョ,0
846,4010903008267,新規,0,2023-06-23,2023-06-23,合同会社ＴＫ２,,合同会社,東京都,世田谷区,弦巻４丁目２７番１０号,,13,112,1540016,,,,,,,2023-06-23,1,,,,,ティーケーツー,0
853,4011001155258,新規,0,2023-06-23,2023-06-23,株式会社Ｓａｌｉｎａ,,株式会社,東京都,渋谷区,円山町２３番４号－３０１,,13,113,1500044,,,,,,,2023-06-23,1,,,,,サリナ,0
860,4011101103356,新規,0,2023-06-23,2023-06-23,株式会社ユユｂｅａｕｔｙ,,株式会社,東京都,新宿区,歌舞伎町１丁目２番３号レオ新宿ビル５０８,,13,104,1600021,,,,,,,2023-06-23,1,,,,,ユユビューティー,0
861,4011101103372,新規,0,2023-06-23,2023-06-23,ＪＡＫＴ株式会社,,株式会社,東京都,新宿区,大久保１丁目１０番１５号レックスマンション１００２号,,13,104,1690072,,,,,,,2023-06-23,1,,,,,ジャクト,0
865,4011401025226,新規,0,2023-06-23,2023-06-23,カルマン株式会社,,株式会社,東京都,板橋区,双葉町３９－１１バロンビル５０１室,,13,119,1730011,,,,,,,2023-06-23,1,,,,,カルマン,0
868,4011503005662,新規,0,2023-06-23,2023-06-23,合同会社ＨＡＫＵ,,合同会社,東京都,北区,王子５丁目１番２－１８０３号,,13,117,1140002,,,,,,,2023-06-23,1,,,,,,0
871,4011703003508,新規,0,2023-06-23,2023-06-23,Ｔ‐ｌｉｆｅ合同会社,,合同会社,東京都,江戸川区,西葛西７丁目２２－２０,,13,123,1340088,,,,,,,2023-06-23,1,,,,,ティライフ,0
876,4012401040669,新規,0,2023-06-23,2023-06-23,Ｅａｓｙ　Ｇｏ株式会社,,株式会社,東京都,三鷹市,牟礼４丁目１３－３－２１０６,,13,204,1810002,,,,,,,2023-06-23,1,,,,,イージゴ,0
877,4012701017714,新規,0,2023-06-23,2023-06-23,株式会社仁,,株式会社,東京都,清瀬市,元町１丁目１０－１,,13,221,2040021,,,,,,,2023-06-23,1,,,,,ジン,0
878,4012801022457,新規,0,2023-06-23,2023-06-23,株式会社特務機関社,,株式会社,東京都,日野市,東平山３丁目２２番地の５,,13,212,1910054,,,,,,,2023-06-23,1,,,,,トクムキカンシャ,0
881,4013303006683,新規,0,2023-06-23,2023-06-23,ＴＨＥ　ＤＹＮＡＭＩＣＳ合同会社,,合同会社,東京都,豊島区,池袋２丁目１３－７－３Ｆ見山店舗ビル,,13,116,1710014,,,,,,,2023-06-23,1,,,,,ザダイナミクス,0
886,4020001152207,新規,0,2023-06-23,2023-06-23,株式会社ハロワン,,株式会社,神奈川県,横浜市西区,北幸２丁目１０番２８号むつみビル３Ｆ,,14,103,2200004,,,,,,,2023-06-23,1,,,,,ハロワン,0
892,4020003024098,新規,0,2023-06-23,2023-06-23,合同会社ミライエネ,,合同会社,神奈川県,横浜市神奈川区,中丸１８番地の２,,14,102,2210803,,,,,,,2023-06-23,1,,,,,ミライエネ,0
893,4020003024107,新規,0,2023-06-23,2023-06-23,マナビシステム合同会社,,合同会社,神奈川県,川崎市幸区,塚越４丁目３１４番地２日商岩井塚越マンション１１３,,14,132,2120024,,,,,,,2023-06-23,1,,,,,マナビシステム,0
894,4020005016044,新規,0,2023-06-23,2023-06-23,一般社団法人恵雅会,,その他の設立登記法人,神奈川県,横浜市保土ケ谷区,新桜ケ丘２丁目３０番１７号,,14,106,2400036,,,,,,,2023-06-23,1,,,,,ケイガカイ,0
896,4021001079398,新規,0,2023-06-23,2023-06-23,株式会社ロングアイランドカンパニー,,株式会社,神奈川県,藤沢市,鵠沼海岸１丁目３番３号,,14,205,2510037,,,,,,,2023-06-23,1,,,,,ロングアイランドカンパニー,0
897,4021001079407,新規,0,2023-06-23,2023-06-23,株式会社ＨＩＲＡＴＡ,,株式会社,神奈川県,平塚市,万田２丁目２６番１４号,,14,203,2540913,,,,,,,2023-06-23,1,,,,,ヒラタ,0
913,4030005021308,新規,0,2023-06-23,2023-06-23,社会福祉法人弘勝会色えんぴつ,,その他の設立登記法人,埼玉県,羽生市,大字加羽ケ崎２８１番地２,,11,216,3480031,,,,,,,2023-06-23,1,,,,,コウショウカイイロエンピツ,0
917,4040001128948,新規,0,2023-06-23,2023-06-23,株式会社印西みどりガーデン,,株式会社,千葉県,印西市,戸神６２４番８,,12,231,2701348,,,,,,,2023-06-23,1,,,,,インザイミドリガーデン,0
923,4040003022819,新規,0,2023-06-23,2023-06-23,合同会社スターアラジン,,合同会社,千葉県,八千代市,吉橋２４５８番地,,12,221,2760047,,,,,,,2023-06-23,1,,,,,スターアラジン,0
924,4040003022835,新規,0,2023-06-23,2023-06-23,Ｒｕｔｈ　ｉｎｔｅｒｎａｔｉｏｎａｌ合同会社,,合同会社,千葉県,松戸市,新松戸６丁目８４番地２オークヒルズ新松戸２０３号,,12,207,2700034,,,,,,,2023-06-23,1,,,,,ルーツインターナショナル,0
925,4040005022057,新規,0,2023-06-23,2023-06-23,一般社団法人アレルギーらいふ協会,,その他の設立登記法人,千葉県,市川市,大野町２丁目１８８４番地２２,,12,203,2720805,,,,,,,2023-06-23,1,,,,,アレルギーライフキョウカイ,0
933,4080101024044,新規,0,2023-06-23,2023-06-23,渚メディカル株式会社,,株式会社,静岡県,田方郡函南町,柏谷１３１９番地の５,,22,325,4190112,,,,,,,2023-06-23,1,,,,,ナギサメディカル,0
938,4100001036533,新規,0,2023-06-23,2023-06-23,株式会社Ｐｌａｎ　Ｂ,,株式会社,長野県,長野市,大字川合新田９３４番地１,,20,201,3800913,,,,,,,2023-06-23,1,,,,,プランビー,0
940,4110003005089,新規,0,2023-06-23,2023-06-23,合同会社Ｗ．Ｌ．Ｃｏｎｓｕｌｔｉｎｇ,,合同会社,新潟県,妙高市,大字関山１６７３番地１４,,15,217,9492235,,,,,,,2023-06-23,1,,,,,ダブリューエルコンサルティング,0
945,4120001255882,新規,0,2023-06-23,2023-06-23,株式会社ＩＳＳＡ,,株式会社,大阪府,大阪市城東区,放出西１丁目２番５１－９０８号,,27,118,5360011,,,,,,,2023-06-23,1,,,,,イッサ,0
946,4120001255924,新規,0,2023-06-23,2023-06-23,盛島国際株式会社,,株式会社,大阪府,大阪市天王寺区,味原町１３－１２－４階４０１号室,,27,109,5430023,,,,,,,2023-06-23,1,,,,,セイトウコクサイ,0
947,4120001255932,新規,0,2023-06-23,2023-06-23,株式会社澤源,,株式会社,大阪府,枚方市,招提中町１丁目２８番３１号Ｙ＆Ｉ２階,,27,210,5731152,,,,,,,2023-06-23,1,,,,,タクゲン,0
948,4120001255940,新規,0,2023-06-23,2023-06-23,おばんざい食堂株式会社,,株式会社,大阪府,大阪市中央区,千日前１丁目７番４号,,27,128,5420074,,,,,,,2023-06-23,1,,,,,オバンザイショクドウ,0
949,4120001255965,新規,0,2023-06-23,2023-06-23,株式会社ＡＰＥＸ　ＧＲＯＵＰ,,株式会社,大阪府,大阪市北区,梅田１丁目１番３号大阪駅前第３ビル２９階１－１－１号室,,27,127,5300001,,,,,,,2023-06-23,1,,,,,アペックスグループ,0
950,4120001255973,新規,0,2023-06-23,2023-06-23,株式会社中東国際興業,,株式会社,大阪府,大阪市東淀川区,小松２丁目１６－２７小松ビル２０１号室,,27,114,5330004,,,,,,,2023-06-23,1,,,,,チュウトウコクサイコウギョウ,0
951,4120003024360,新規,0,2023-06-23,2023-06-23,合同会社ビリーフ,,合同会社,大阪府,大阪市北区,天神橋３丁目１番４３号,,27,127,5300041,,,,,,,2023-06-23,1,,,,,ビリーフ,0
952,4120003024369,新規,0,2023-06-23,2023-06-23,心斎橋労務会計合同会社,,合同会社,大阪府,大阪市中央区,博労町３丁目２番１５号プレサンス心斎橋モデルノ１３０２,,27,128,5410059,,,,,,,2023-06-23,1,,,,,シンサイバシロウムカイケイ,0
969,4140005026667,新規,0,2023-06-23,2023-06-23,高尾台ハイツ管理組合法人,,その他の設立登記法人,兵庫県,神戸市垂水区,塩屋町６丁目１番８号,,28,108,6550872,,,,,,,2023-06-23,1,,,,,タカオダイハイツ,0
977,4180001156844,新規,0,2023-06-23,2023-06-23,株式会社名古屋医療福祉,,株式会社,愛知県,名古屋市中川区,西伏屋２丁目１４２０番地ＭＥＬＦＯＲＴＩ１０１号,00130962,23,110,4540982,,,,,,,2023-06-23,1,,,,,ナゴヤイリョウフクシ,0
1000,4240001061716,新規,0,2023-06-23,2023-06-23,株式会社Ｇ‐プライム,,株式会社,広島県,呉市,海岸４丁目３番７号,,34,202,7370823,,,,,,,2023-06-23,1,,,,,ジープライム,0
1008,4260001038051,新規,0,2023-06-23,2023-06-23,株式会社美星コメットファーム,,株式会社,岡山県,井原市,美星町星田２番４７号,,33,207,7141415,,,,,,,2023-06-23,1,,,,,ビセイコメットファーム,0
1010,4260003004340,新規,0,2023-06-23,2023-06-23,合同会社人材エンジェルス,,合同会社,岡山県,岡山市北区,南中央町６－１５ウェーブレジデンス医大前１０１,,33,101,7000837,,,,,,,2023-06-23,1,,,,,ジンザイエンジェルス,0
1017,4290001102028,新規,0,2023-06-23,2023-06-23,株式会社狼煙,,株式会社,福岡県,飯塚市,太郎丸５０４番地４,,40,205,8200076,,,,,,,2023-06-23,1,,,,,ノロシ,0
1018,4290001102052,新規,0,2023-06-23,2023-06-23,株式会社七輪さく,,株式会社,福岡県,糟屋郡志免町,片峰中央３丁目１６－２４,,40,343,8112246,,,,,,,2023-06-23,1,,,,,シチリンサク,0
1029,4330001030991,新規,0,2023-06-23,2023-06-23,株式会社古澤農園,,株式会社,熊本県,阿蘇市,波野大字滝水２３４番地３,,43,214,8692804,,,,,,,2023-06-23,1,,,,,フルサワノウエン,0
1033,4360003013091,新規,0,2023-06-23,2023-06-23,合同会社徳樹,,合同会社,沖縄県,南城市,佐敷字新開１番地８８,,47,215,9011415,,,,,,,2023-06-23,1,,,,,トクジュ,0
1045,4400005008341,新規,0,2023-06-23,2023-06-23,土地家屋調査士法人Ｒｕｎ,,その他の設立登記法人,岩手県,盛岡市,上堂３丁目２番１５号工藤ビル４階,,03,201,0200125,,,,,,,2023-06-23,1,,,,,ラン,0
1058,4460003000955,新規,0,2023-06-23,2023-06-23,合同会社ファンネル,,合同会社,北海道,釧路市,鳥取南８丁目１３番６号,,01,206,0840905,,,,,,,2023-06-23,1,,,,,ファンネル,0
1060,4470001019674,新規,0,2023-06-23,2023-06-23,Ｇｒａｎｄ　Ｈａｒｍｏｎｙ株式会社,,株式会社,香川県,高松市,多肥上町２０７１番地７,,37,201,7618076,,,,,,,2023-06-23,1,,,,,グランドハーモニー,0
1061,4490001010516,新規,0,2023-06-23,2023-06-23,株式会社Ｗｅｌｌｖｙ,,株式会社,高知県,高知市,鴨部８９５番地２１,,39,201,7808050,,,,,,,2023-06-23,1,,,,,ウェルヴィ,0
1063,4700150117635,新規,0,2023-06-23,2023-06-23,中角土地改良区,,その他,三重県,度会郡玉城町,中角７６２,,24,461,5190426,,,,,,,2023-06-23,1,,,,,ナカツノトチカイリヨウク,0
1064,4700150117643,新規,0,2023-06-23,2023-06-23,ｈａｉｋｏｕ　ｇｕｏｒｅｎｄｉａｎｚｉｓｈａｎｇｗｕ　ｙｏｕｘｉａｎｇｏｎｇｓｉ,,外国会社等,,,,,,,,ｈａｉｎａｎｓｈｅｎｇ　ｈａｉｋｏｕｓｈｉ　ｌｏｎｇｈｕａｑｕ　ｊｉｎｍａｏｊｉｅｄａｏ　ｗａｎｇｆｕｘｉａｏｑｕＡ１５４,,,,,,2023-06-23,1,,,,,ハイコオウゴオウレンデンシシヤンウ,0
1074,5010001236364,新規,0,2023-06-23,2023-06-23,株式会社Ｈａｎａｂｉ,,株式会社,東京都,中央区,銀座１丁目２２番１１号２階,,13,102,1040061,,,,,,,2023-06-23,1,,,,,ハナビ,0
1079,5010003040954,新規,0,2023-06-23,2023-06-23,合同会社カラット,,合同会社,東京都,千代田区,鍛冶町１丁目６番２号林ビル４階,,13,101,1010044,,,,,,,2023-06-23,1,,,,,カラット,0
1080,5010003040962,新規,0,2023-06-23,2023-06-23,合同会社喫茶去,,合同会社,東京都,中央区,銀座１丁目１２番４号Ｎ＆ＥＢＬＤ．６Ｆ,,13,102,1040061,,,,,,,2023-06-23,1,,,,,キッサコ,0
1083,5010005036868,新規,0,2023-06-23,2023-06-23,一般社団法人亀島川にぎわい創出協議会,,その他の設立登記法人,東京都,中央区,新川１丁目３－２,,13,102,1040033,,,,,,,2023-06-23,1,,,,,カメジマガワニギワイソウシュツキョウギカイ,0
1091,5010501050637,新規,0,2023-06-23,2023-06-23,株式会社アルタ,,株式会社,東京都,台東区,三ノ輪１丁目５番１号,,13,106,1100011,,,,,,,2023-06-23,1,,,,,アルタ,0
1092,5010503007057,新規,0,2023-06-23,2023-06-23,合同会社Ｌｅｉ,,合同会社,東京都,台東区,入谷２丁目２４番６－７０２号ライオンズフォーシア入谷イースト,,13,106,1100013,,,,,,,2023-06-23,1,,,,,レイ,0
1103,5011001155232,新規,0,2023-06-23,2023-06-23,株式会社コースト,,株式会社,東京都,渋谷区,道玄坂１丁目１０番８号２Ｆ－Ｃ,,13,113,1500043,,,,,,,2023-06-23,1,,,,,コースト,0
1104,5011003017034,新規,0,2023-06-23,2023-06-23,合同会社エニゴ,,合同会社,東京都,渋谷区,道玄坂１丁目１０番８号渋谷道玄坂東急ビル２Ｆ－Ｃ,,13,113,1500043,,,,,,,2023-06-23,1,,,,,エニゴ,0
1105,5011003017042,新規,0,2023-06-23,2023-06-23,ＰＡラボ合同会社,,合同会社,東京都,渋谷区,渋谷３丁目６－２エクラート渋谷５Ｆ,,13,113,1500002,,,,,,,2023-06-23,1,,,,,ピーエーラボ,0
1106,5011003017050,新規,0,2023-06-23,2023-06-23,合同会社菅井夏樹,,合同会社,東京都,目黒区,南２丁目６－９,,13,110,1520013,,,,,,,2023-06-23,1,,,,,スガイナツキ,0
1108,5011101103363,新規,0,2023-06-23,2023-06-23,株式会社Ｐａｂｌｏ,,株式会社,東京都,新宿区,新宿６丁目２７番２９号,,13,104,1600022,,,,,,,2023-06-23,1,,,,,パブロ,0
1111,5011301028807,新規,0,2023-06-23,2023-06-23,ＮＦＡ株式会社,,株式会社,東京都,杉並区,大宮２丁目４番２号,,13,115,1680061,,,,,,,2023-06-23,1,,,,,エヌエフエー,0
1112,5011303004806,新規,0,2023-06-23,2023-06-23,合同会社こんぺいとう,,合同会社,東京都,杉並区,方南２丁目２１－１７ボーセジュール２０１,,13,115,1680062,,,,,,,2023-06-23,1,,,,,コンペイトウ,0
1115,5011501029340,新規,0,2023-06-23,2023-06-23,億上株式会社,,株式会社,東京都,北区,浮間１丁目１番１４－１１６号,,13,117,1150051,,,,,,,2023-06-23,1,,,,,オクジョウ,0
1116,5011503005661,新規,0,2023-06-23,2023-06-23,東易商事合同会社,,合同会社,東京都,荒川区,東尾久２丁目３８番７号ハイツＨＡＮＡＷＡ２０２号室,,13,118,1160012,,,,,,,2023-06-23,1,,,,,トウエキショウジ,0
1120,5012801022456,新規,0,2023-06-23,2023-06-23,株式会社Ｎ‐ＴＲＵＳＴ,,株式会社,東京都,立川市,幸町３丁目１２番地２２,,13,202,1900002,,,,,,,2023-06-23,1,,,,,エヌトラスト,0
1132,5020001152206,新規,0,2023-06-23,2023-06-23,Ｃａｍｐａｃｅ株式会社,,株式会社,神奈川県,川崎市中原区,下小田中１丁目３２番２５号,,14,133,2110041,,,,,,,2023-06-23,1,,,,,キャンペース,0
1138,5021001079397,新規,0,2023-06-23,2023-06-23,株式会社恵美寿,,株式会社,神奈川県,秦野市,東田原６６０番地の１,,14,211,2570028,,,,,,,2023-06-23,1,,,,,エビス,0
1156,5040001128963,新規,0,2023-06-23,2023-06-23,ＮＲ株式会社,,株式会社,千葉県,印西市,木下東２丁目１４－１７,,12,231,2701323,,,,,,,2023-06-23,1,,,,,エヌアール,0
1161,5040003022834,新規,0,2023-06-23,2023-06-23,Ｍｉｇｅｒｕ　ｌａｎｋａ合同会社,,合同会社,千葉県,松戸市,幸谷７６４番地７アエラス２１－１０２号,,12,207,2700017,,,,,,,2023-06-23,1,,,,,ミゲルランカ,0
1162,5040003022842,新規,0,2023-06-23,2023-06-23,岡田商会合同会社,,合同会社,千葉県,浦安市,日の出５丁目３番Ａ－４０２号セレナヴィータ新浦安,,12,227,2790013,,,,,,,2023-06-23,1,,,,,オカダショウカイ,0
1163,5040005022064,新規,0,2023-06-23,2023-06-23,一般社団法人国際魂術コーチアカデミー協会,,その他の設立登記法人,千葉県,松戸市,本町１７番地１１芹澤ビル６Ｆ,,12,207,2710091,,,,,,,2023-06-23,1,,,,,コクサイタマシイジュツコーチアカデミーキョウカイ,0
1166,5050003007594,新規,0,2023-06-23,2023-06-23,合同会社Ｏｎｅ　Ｓｔｅｐ　Ｃｏ　Ｌｔｄ．,,合同会社,茨城県,神栖市,知手中央８丁目１３番１６号,,08,232,3140112,,,,,,,2023-06-23,1,,,,,ワンステップシーオーエルティーディー,0
1168,5060001036108,新規,0,2023-06-23,2023-06-23,ＰＡＴＥＬ　ＴＲＡＤＩＮＧ株式会社,,株式会社,栃木県,小山市,神山１丁目１番３５号いずみマンション２Ｅ,,09,208,3230828,,,,,,,2023-06-23,1,,,,,パテルトレーディング,0
1172,5070001040554,新規,0,2023-06-23,2023-06-23,Ｋ．Ａトレーディング株式会社,,株式会社,群馬県,伊勢崎市,昭和町１６３６番地１,,10,204,3720014,,,,,,,2023-06-23,1,,,,,ケーエートレーディング,0
1173,5070001040562,新規,0,2023-06-23,2023-06-23,株式会社ネコノ手事務代行サービス,,株式会社,群馬県,伊勢崎市,宮子町３４０１－３,,10,204,3720801,,,,,,,2023-06-23,1,,,,,ネコノテジムダイコウサービス,0
1188,5100003007069,新規,0,2023-06-23,2023-06-23,合同会社志青塾,,合同会社,長野県,塩尻市,大字大門５７番地４,,20,215,3990744,,,,,,,2023-06-23,1,,,,,シセイジュク,0
1201,5120001255766,新規,0,2023-06-23,2023-06-23,正和製作技術株式会社,,株式会社,大阪府,大阪市西淀川区,姫里２丁目１３－８,,27,113,5550025,,,,,,,2023-06-23,1,,,,,セイワセイサクギジュツ,0
1202,5120001255774,新規,0,2023-06-23,2023-06-23,日本大洋株式会社,,株式会社,大阪府,大阪市生野区,勝山北５丁目１０－３,,27,116,5440033,,,,,,,2023-06-23,1,,,,,ニホンダイヨウ,0
1203,5120001255832,新規,0,2023-06-23,2023-06-23,ＮＪ．フェミナス株式会社,,株式会社,大阪府,大阪市城東区,鴫野西４丁目１番３３号Ｗｅｌｆａｒｅ大阪京橋ビル,,27,118,5360014,,,,,,,2023-06-23,1,,,,,エヌジェイフェミナス,0
1204,5120001255881,新規,0,2023-06-23,2023-06-23,サンバイ株式会社,,株式会社,大阪府,大阪市西区,南堀江２丁目７番４号,,27,106,5500015,,,,,,,2023-06-23,1,,,,,サンバイ,0
1205,5120001255923,新規,0,2023-06-23,2023-06-23,株式会社ニューヨークセブン,,株式会社,大阪府,大阪市阿倍野区,昭和町１丁目２０番１１号,,27,119,5450011,,,,,,,2023-06-23,1,,,,,ニューヨークセブン,0
1209,5120003024368,新規,0,2023-06-23,2023-06-23,合同会社ＰＡＬＡＣＥ,,合同会社,大阪府,大阪市住之江区,新北島１丁目５番７号,,27,125,5590024,,,,,,,2023-06-23,1,,,,,パレス,0
1211,5120101067780,新規,0,2023-06-23,2023-06-23,株式会社エスアイメディカル,,株式会社,大阪府,堺市北区,金岡町１４２３番地４ビッグカーサ堺しらさぎ駅前２３２６号,,27,146,5918022,,,,,,,2023-06-23,1,,,,,エスアイメディカル,0
1235,5140003019218,新規,0,2023-06-23,2023-06-23,合同会社ＦｒｅｅＬｉｆｅ久太,,合同会社,兵庫県,明石市,貴崎３丁目２番サンハイツ貴崎２号棟１０２号,,28,203,6730037,,,,,,,2023-06-23,1,,,,,フリーライフキュウタ,0
1237,5160005011204,新規,0,2023-06-23,2023-06-23,一般社団法人ＮＥＸＴ,,その他の設立登記法人,滋賀県,長浜市,末広町２４０番地１７ワイエフビル１８,,25,203,5260063,,,,,,,2023-06-23,1,,,,,ネクスト,0
1238,5170001017658,新規,0,2023-06-23,2023-06-23,株式会社ネクストオン,,株式会社,和歌山県,和歌山市,湊１８５０番地,,30,201,6408404,,,,,,,2023-06-23,1,,,,,ネクストオン,0
1251,5180001156843,新規,0,2023-06-23,2023-06-23,株式会社Ｕｓｗｉｎｇ　Ｊａｐａｎ,,株式会社,愛知県,名古屋市中区,新栄１丁目２８番２３号レインボー第２瓦町９２０号室,,23,106,4600007,,,,,,,2023-06-23,1,,,,,ユーエスウィングジャパン,0
1255,5180003025402,新規,0,2023-06-23,2023-06-23,合同会社ＳＯＲＡ,,合同会社,愛知県,名古屋市中区,錦２丁目７番１号ＣＡＭＥＬＬＩＡ丸の内１００３号,,23,106,4600003,,,,,,,2023-06-23,1,,,,,ソラ,0
1257,5180303005748,新規,0,2023-06-23,2023-06-23,合同会社ジャパンドリーム,,合同会社,愛知県,豊橋市,三本木町字新東上６４‐４,,23,201,4418152,,,,,,,2023-06-23,1,,,,,ジャパンドリーム,0
1260,5190001030519,新規,0,2023-06-23,2023-06-23,株式会社エムズエイ,,株式会社,三重県,鈴鹿市,南江島町２３番７号,,24,207,5100235,,,,,,,2023-06-23,1,,,,,エムズエイ,0
1277,5290001102010,新規,0,2023-06-23,2023-06-23,ＭＹ　ＢＥＡＵＴＹ株式会社,,株式会社,福岡県,福岡市中央区,赤坂３丁目８番３１－１４０１号,,40,133,8100042,,,,,,,2023-06-23,1,,,,,マイビューティー,0
1278,5290001102043,新規,0,2023-06-23,2023-06-23,恒業商事株式会社,,株式会社,福岡県,福岡市博多区,博多駅前４丁目４番２０号船津ビル８０２号,,40,132,8120011,,,,,,,2023-06-23,1,,,,,コウギョウショウジ,0
1281,5290003014063,新規,0,2023-06-23,2023-06-23,Ｈａｐｐｉｅｒ合同会社,,合同会社,福岡県,福岡市南区,弥永５丁目２３番１９－２０１号,,40,134,8111323,,,,,,,2023-06-23,1,,,,,ハピア,0
1285,5310005008688,新規,0,2023-06-23,2023-06-23,一般社団法人Ｐｅａｃｅ　Ｅｄｕｃａｔｉｏｎ　Ｌａｂ　Ｎａｇａｓａｋｉ,,その他の設立登記法人,長崎県,長崎市,浜町１１番１９号ＯＩＤＥＯＩＤＥビル３Ｆ,,42,201,8500853,,,,,,,2023-06-23,1,,,,,ピースエデュケーションラボナガサキ,0
1295,5360001032200,新規,0,2023-06-23,2023-06-23,沖縄ドルフィンレンタカー株式会社,,株式会社,沖縄県,那覇市,宇栄原３丁目３３－５小禄マンション２０７号,,47,201,9010153,,,,,,,2023-06-23,1,,,,,オキナワドルフィンレンタカー,0
1296,5360003013090,新規,0,2023-06-23,2023-06-23,合同会社福和,,合同会社,沖縄県,中頭郡西原町,字兼久２５３－３０１,,47,329,9030104,,,,,,,2023-06-23,1,,,,,フクワ,0
1312,5410001013525,新規,0,2023-06-23,2023-06-23,株式会社ミライズ不動産,,株式会社,秋田県,大仙市,大曲日の出町１丁目２０番１５号,,05,212,0140063,,,,,,,2023-06-23,1,,,,,ミライズフドウサン,0
1317,5470001019673,新規,0,2023-06-23,2023-06-23,株式会社ｄｏｏｒ,,株式会社,香川県,高松市,太田下町２１３１番地ソレアード太田Ｂ２０５,,37,201,7618073,,,,,,,2023-06-23,1,,,,,ドア,0
1326,5700150117650,新規,0,2023-06-23,2023-06-23,Ｒｏｂｏｔｉｃｓｗａｒｅ　Ｐｔｅ．Ｌｔｄ．,,外国会社等,広島県,広島市西区,横川町１丁目６－１３,,34,104,7330011,１８　ＡＮＮ　ＳＩＡＮＧ　ＲＯＡＤ　＃０２－０１　ＳＩＮＧＡＰＯＲＥ（０６９６９８）,,,,,,2023-06-23,1,,,,,ロボテイクスウエアプライベートリミテツド,0
1327,5700150117675,新規,0,2023-06-23,2023-06-23,ｓｈｅｎｚｈｅｎｓｈｉｇｅｌｅｋｅｊｉｙｏｕｘｉａｎｇｏｎｇｓｉ,,外国会社等,,,,,,,,ｚｈｕｇｕａｎｇｓｈｅｑｕｚｈｕｇｕａｎｇｌｕｘｉｎｗｕｃｕｎｄｏｎｇｑｕ５０ｈａｏ１０２，ｔａｏｙｕａｎｊｉｅｄａｏ，ｓｈｅｎｚｈｅｎｓｈｉ，ｇｕａｎｇｄｏｎｇ，５１８０００，ＣＮ,,,,,,2023-06-23,1,,,,,シンセンシカラクカギユウゲンコウシ,0
1332,6010001236339,新規,0,2023-06-23,2023-06-23,Ｍｕｓｈｒｏｏｍ株式会社,,株式会社,東京都,千代田区,三番町２－１－１１０４,,13,101,1020075,,,,,,,2023-06-23,1,,,,,マッシュルーム,0
1333,6010001236371,新規,0,2023-06-23,2023-06-23,株式会社Ｐｒｏｆｉｔ　Ｃｏｎｓｕｌｔｉｎｇ,,株式会社,東京都,中央区,日本橋室町１丁目１１－１２,,13,102,1030022,,,,,,,2023-06-23,1,,,,,プロフィットコンサルティング,0
1335,6010003040953,新規,0,2023-06-23,2023-06-23,合同会社Ｙｏｔｅｉ　Ｔｗｏ１,,合同会社,東京都,千代田区,霞が関３丁目２番５号,,13,101,1000013,,,,,,,2023-06-23,1,,,,,ヨウテイツーワン,0
1336,6010005036867,新規,0,2023-06-23,2023-06-23,一般社団法人Ｋパワーサプライ,,その他の設立登記法人,東京都,千代田区,丸の内３丁目１番１号東京共同会計事務所内,,13,101,1000005,,,,,,,2023-06-23,1,,,,,ケイパワーサプライ,0
1340,6010401175186,新規,0,2023-06-23,2023-06-23,日本ゴウノエイ株式会社,,株式会社,東京都,港区,港南２丁目１６番１号品川イーストワンタワー７Ｆ,,13,103,1080075,,,,,,,2023-06-23,1,,,,,ニホンゴウノエイ,0
1341,6010401175252,新規,0,2023-06-23,2023-06-23,リーディングエッジ・モータ・デザイン株式会社,,株式会社,東京都,港区,西新橋１丁目２番９号日比谷セントラルビル１４階,,13,103,1050003,,,,,,,2023-06-23,1,,,,,リーディングエッジモータデザイン,0
1343,6010403030380,新規,0,2023-06-23,2023-06-23,Ｌ４Ｔ　Ｊａｐａｎ合同会社,,合同会社,東京都,港区,赤坂２丁目１４番５号Ｄａｉｗａ赤坂ビル４階,,13,103,1070052,,,,,,,2023-06-23,1,,,,,エルフォーティージャパン,0
1344,6010405022269,新規,0,2023-06-23,2023-06-23,備後町インベストメンツ２一般社団法人,,その他の設立登記法人,東京都,港区,六本木１丁目６番１号泉ガーデンタワー,,13,103,1060032,,,,,,,2023-06-23,1,,,,,ビンゴマチインベストメントツー,0
1346,6010601063265,新規,0,2023-06-23,2023-06-23,株式会社ゴルフメイトジャパン,,株式会社,東京都,江東区,冬木１６－８,,13,108,1350041,,,,,,,2023-06-23,1,,,,,ゴルフメイトジャパン,0
1347,6010601063331,新規,0,2023-06-23,2023-06-23,株式会社ライフワン,,株式会社,東京都,江東区,豊洲４丁目１０番３－７０５号,,13,108,1350061,,,,,,,2023-06-23,1,,,,,ライフワン,0
1352,6010701044454,新規,0,2023-06-23,2023-06-23,株式会社ＰＩＣケニー,,株式会社,東京都,品川区,大崎３丁目５－２エステージ大崎ビル６Ｆ,,13,109,1410032,,,,,,,2023-06-23,1,,,,,ピーアイシーケニー,0
1357,6011001154992,新規,0,2023-06-23,2023-06-23,株式会社ＩＩＩＩＩＮＯＵＴ,,株式会社,東京都,目黒区,鷹番２丁目１８番２号福田ハウス２０１,,13,110,1520004,,,,,,,2023-06-23,1,,,,,イーンアウト,0
1358,6011001155207,新規,0,2023-06-23,2023-06-23,株式会社ＯＡＳＩＳクリニカルパートナーズ,,株式会社,東京都,渋谷区,渋谷１丁目１５－１５テラス渋谷美竹１５１０,,13,113,1500002,,,,,,,2023-06-23,1,,,,,オアシスクリニカルパートナーズ,0
1387,6020001152188,新規,0,2023-06-23,2023-06-23,スワリスパートナーズ株式会社,,株式会社,神奈川県,横浜市西区,浅間町１丁目４番３号ウィザードビル４０２,,14,103,2200072,,,,,,,2023-06-23,1,,,,,スワリスパートナーズ,0
1392,6020003024105,新規,0,2023-06-23,2023-06-23,サードプレイス合同会社,,合同会社,神奈川県,横浜市栄区,笠間３丁目９‐２３Ｃ１０１,,14,115,2470006,,,,,,,2023-06-23,1,,,,,サードプレイス,0
1396,6021001079396,新規,0,2023-06-23,2023-06-23,株式会社青空,,株式会社,神奈川県,伊勢原市,桜台２丁目７番５０号,,14,214,2591132,,,,,,,2023-06-23,1,,,,,アオゾラ,0
1397,6021005012849,新規,0,2023-06-23,2023-06-23,一般社団法人Ｆ‐ＳＴＹＬＥスポーツクラブ,,その他の設立登記法人,神奈川県,平塚市,纒６０１番地の３,,14,203,2540901,,,,,,,2023-06-23,1,,,,,エフスタイルスポーツクラブ,0
1412,6030005021297,新規,0,2023-06-23,2023-06-23,一般社団法人フィオーレ・フォンテ,,その他の設立登記法人,埼玉県,さいたま市中央区,下落合５丁目５番１０号リノ２０１,,11,105,3380002,,,,,,,2023-06-23,1,,,,,フィオーレフォンテ,0
1414,6040001128921,新規,0,2023-06-23,2023-06-23,日出資源再生株式会社,,株式会社,千葉県,香取郡多古町,多古２０００番地２１７,,12,347,2892241,,,,,,,2023-06-23,1,,,,,ヒノデシゲンサイセイ,0
1415,6040001128954,新規,0,2023-06-23,2023-06-23,株式会社日本中央生物医学研究所,,株式会社,千葉県,山武郡九十九里町,片貝５１１５－５,,12,403,2830104,,,,,,,2023-06-23,1,,,,,ニホンチュウオウセイブツイガクケンキュウジョ,0
1418,6040003022841,新規,0,2023-06-23,2023-06-23,海王建設合同会社,,合同会社,千葉県,佐倉市,王子台１丁目２２番地１３海佑ビル５階,,12,212,2850837,,,,,,,2023-06-23,1,,,,,カイオウケンセツ,0
1419,6050001053004,新規,0,2023-06-23,2023-06-23,株式会社安田ハウス,,株式会社,茨城県,稲敷郡美浦村,大字土屋１８３４番地の８,,08,442,3000426,,,,,,,2023-06-23,1,,,,,ヤスダハウス,0
1420,6050001053029,新規,0,2023-06-23,2023-06-23,株式会社ＴＧＳホールディングス,,株式会社,茨城県,日立市,白銀町２丁目１４番１号,,08,202,3170056,,,,,,,2023-06-23,1,,,,,ティジィエスホールディングス,0
1425,6060001036107,新規,0,2023-06-23,2023-06-23,株式会社Ｊａｐａｎ　Ｓｏｌａｒ　Ｗｏｒｋｓ,,株式会社,栃木県,大田原市,美原２丁目３１９６番地１２,,09,210,3240047,,,,,,,2023-06-23,1,,,,,ジャパンソーラーワークス,0
1436,6110003005095,新規,0,2023-06-23,2023-06-23,合同会社プレジール,,合同会社,新潟県,新潟市西区,五十嵐東３丁目６－２２,,15,107,9502045,,,,,,,2023-06-23,1,,,,,プレジール,0
1438,6120001255889,新規,0,2023-06-23,2023-06-23,株式会社Ｅ‐ＣＡＭＯ,,株式会社,大阪府,大阪市西区,北堀江３丁目４番１３号,,27,106,5500014,,,,,,,2023-06-23,1,,,,,イイカモ,0
1439,6120001255906,新規,0,2023-06-23,2023-06-23,株式会社ＢＲＩＮＧＥＲ　ＣＬＵＢ,,株式会社,大阪府,大阪市西区,新町１丁目１４番２１－６２０号,,27,106,5500013,,,,,,,2023-06-23,1,,,,,ブリンガークラブ,0
1440,6120001255922,新規,0,2023-06-23,2023-06-23,株式会社煌心,,株式会社,大阪府,大阪市東淀川区,大桐５丁目１４番１１－４０２号,,27,114,5330011,,,,,,,2023-06-23,1,,,,,コウシン,0
1442,6120003024326,新規,0,2023-06-23,2023-06-23,ワンスタイル合同会社,,合同会社,大阪府,大阪市旭区,清水１丁目８番２２号２階,,27,117,5350021,,,,,,,2023-06-23,1,,,,,ワンスタイル,0
1443,6120005023672,新規,0,2023-06-23,2023-06-23,一般社団法人公務員研修協会,,その他の設立登記法人,大阪府,大阪市中央区,久太郎町１丁目７番１１号,,27,128,5410056,,,,,,,2023-06-23,1,,,,,コウムインケンシュウキョウカイ,0
1457,6122003002609,新規,0,2023-06-23,2023-06-23,Ｈｉｄｅ’ｓ　ｃｏｍｐａｎｙ合同会社,,合同会社,大阪府,八尾市,竹渕西３丁目１４５番地,,27,212,5810051,,,,,,,2023-06-23,1,,,,,ヒデズカンパニー,0
1476,6150001026503,新規,0,2023-06-23,2023-06-23,株式会社インコム,,株式会社,奈良県,奈良市,西大寺新町１丁目１番１２号,,29,201,6310815,,,,,,,2023-06-23,1,,,,,インコム,0
1485,6180001156859,新規,0,2023-06-23,2023-06-23,ＳＥホールディングス株式会社,,株式会社,愛知県,名古屋市名東区,高間町５４４番地,,23,115,4650081,,,,,,,2023-06-23,1,,,,,エスイーホールディングス,0
1491,6180301037494,新規,0,2023-06-23,2023-06-23,株式会社七色,,株式会社,愛知県,安城市,福釜町鴻ノ巣２番地３,,23,212,4460052,,,,,,,2023-06-23,1,,,,,ナナイロ,0
1506,6260001038058,新規,0,2023-06-23,2023-06-23,株式会社ｂｙ３,,株式会社,岡山県,岡山市北区,西崎本町８番１７号,,33,101,7000056,,,,,,,2023-06-23,1,,,,,バイスリー,0
1515,6290003014062,新規,0,2023-06-23,2023-06-23,合同会社ビューティーアップ,,合同会社,福岡県,福岡市博多区,千代２丁目２２番８号,,40,132,8120044,,,,,,,2023-06-23,1,,,,,,0
1526,6330001030981,新規,0,2023-06-23,2023-06-23,株式会社Ｙ’ｓ　Ｌａｂ．,,株式会社,熊本県,熊本市西区,上代１丁目１９番３号,,43,103,8600068,,,,,,,2023-06-23,1,,,,,ワイズラボ,0
1529,6340003004165,新規,0,2023-06-23,2023-06-23,合同会社ウインランニングサイエンス,,合同会社,鹿児島県,鹿児島市,西伊敷６丁目３２番６号,,46,201,8911202,,,,,,,2023-06-23,1,,,,,ウインランニングサイエンス,0
1531,6360001032199,新規,0,2023-06-23,2023-06-23,やんばるカーサポート株式会社,,株式会社,沖縄県,名護市,字宮里１００４番地,,47,209,9050011,,,,,,,2023-06-23,1,,,,,ヤンバルカーサポート,0
1551,6410001013524,新規,0,2023-06-23,2023-06-23,株式会社アンリアライズ,,株式会社,秋田県,大館市,御成町１丁目１２番６号,,05,204,0170044,,,,,,,2023-06-23,1,,,,,,0
1553,6420001018316,新規,0,2023-06-23,2023-06-23,株式会社ＣＡＲ．ＢＡＳＥ．ＺＥＯＮＩＣ,,株式会社,青森県,青森市,大字新城字平岡１２４番地２９,,02,201,0380042,,,,,,,2023-06-23,1,,,,,カーベースジオニック,0
1555,6420003002747,新規,0,2023-06-23,2023-06-23,合同会社シェイド,,合同会社,青森県,弘前市,大字境関字亥ノ宮６５番地１,,02,202,0368076,,,,,,,2023-06-23,1,,,,,シェイド,0
1558,6430001089389,新規,0,2023-06-23,2023-06-23,株式会社バクタム,,株式会社,北海道,札幌市中央区,南二条西１０丁目１０００－２４ＴＡＫＥＴＯビル２Ｆ,,01,101,0600062,,,,,,,2023-06-23,1,,,,,バクタム,0
1559,6430001089414,新規,0,2023-06-23,2023-06-23,Ｎｉｓｅｋｏ　Ｈｏｎｅｙ　Ｃｏｍｐａｎｙ株式会社,,株式会社,北海道,虻田郡倶知安町,ニセコひらふ一条３丁目５番４１号２Ｆ,,01,400,0440080,,,,,,,2023-06-23,1,,,,,ニセコハニーカンパニー,0
1560,6430001089422,新規,0,2023-06-23,2023-06-23,株式会社ケーズムーン,,株式会社,北海道,札幌市中央区,南十四条西９丁目２番１３号山鼻屯田記念会館１階,,01,101,0640914,,,,,,,2023-06-23,1,,,,,ケーズムーン,0
1569,6470001019672,新規,0,2023-06-23,2023-06-23,株式会社ｎｏｖａ,,株式会社,香川県,高松市,木太町１８５６－１－１０３,,37,201,7600080,,,,,,,2023-06-23,1,,,,,ノヴァ,0
1572,6490003001791,新規,0,2023-06-23,2023-06-23,合同会社Ｒｅｅｎａ,,合同会社,高知県,須崎市,野見１７８,,39,206,7850056,,,,,,,2023-06-23,1,,,,,リイナ,0
1576,6700150117633,新規,0,2023-06-23,2023-06-23,Ｇｕａｎｇｚｈｏｕ　Ｓｈｅｎｇｓｈｉ　Ｎｅｔｗｏｒｋ　Ｔｅｃｈｎｏｌｏｇｙ　Ｃｏ．，Ｌｔｄ．,,外国会社等,,,,,,,,Ｒｏｏｍ　５１８，Ｎｏ．３１，Ｘｉａｎｇｐｕ　Ｓｔｒｅｅｔ，Ｄｏｎｇｐｕ　Ｔｏｗｎ，Ｔｉａｎｈｅ　Ｄｉｓｔｒｉｃｔ，Ｇｕａｎｇｚｈｏｕ,,,,,,2023-06-23,1,,,,,グワンジヨウシヨンシーワンルオコージーヨウシエンゴンスー,0
1588,7010003040960,新規,0,2023-06-23,2023-06-23,小野・谷田部グローカル合同会社,,合同会社,東京都,千代田区,霞が関３丁目２番５号霞が関ビルディング５階,,13,101,1000013,,,,,,,2023-06-23,1,,,,,オノヤタベグローカル,0
1593,7010105002223,新規,0,2023-06-23,2023-06-23,一般社団法人ことのは,,その他の設立登記法人,東京都,八王子市,長房町１９６番地３０ハウスゆう２０３号,,13,201,1930824,,,,,,,2023-06-23,1,,,,,コトノハ,0
1596,7010401175227,新規,0,2023-06-23,2023-06-23,ディマーレ株式会社,,株式会社,東京都,港区,麻布台２丁目３番３号,,13,103,1060041,,,,,,,2023-06-23,1,,,,,ディマーレ,0
1597,7010401175235,新規,0,2023-06-23,2023-06-23,アールブランド株式会社,,株式会社,東京都,港区,北青山１丁目３番１号アールキューブ青山３階,,13,103,1070061,,,,,,,2023-06-23,1,,,,,アールブランド,0
1598,7010401175243,新規,0,2023-06-23,2023-06-23,株式会社アウル,,株式会社,東京都,港区,新橋６丁目２２番１号,,13,103,1050004,,,,,,,2023-06-23,1,,,,,アウル,0
1599,7010401175251,新規,0,2023-06-23,2023-06-23,ＰＷＯベンチャー株式会社,,株式会社,東京都,港区,虎ノ門５丁目１１番１５号２Ｆ,,13,103,1050001,,,,,,,2023-06-23,1,,,,,,0
1605,7010603010215,新規,0,2023-06-23,2023-06-23,合同会社ＬＥＡ,,合同会社,東京都,江東区,豊洲６丁目２－３１－４３１１,,13,108,1350061,,,,,,,2023-06-23,1,,,,,レア,0
1607,7010701044437,新規,0,2023-06-23,2023-06-23,株式会社ＮＥＮＥ．,,株式会社,東京都,品川区,西五反田１丁目４番８－３０６号,,13,109,1410031,,,,,,,2023-06-23,1,,,,,ネネ,0
1608,7010701044453,新規,0,2023-06-23,2023-06-23,株式会社ＩＲＯＲＩ,,株式会社,東京都,品川区,南品川５丁目１６－７Ｕ－ｍａｋｅ南品川１Ｆ,,13,109,1400004,,,,,,,2023-06-23,1,,,,,イロリ,0
1609,7010801033983,新規,0,2023-06-23,2023-06-23,株式会社ＢＲＥＡＴＨ,,株式会社,東京都,大田区,田園調布１丁目５５番２０号浅間ビル２１０号,,13,111,1450071,,,,,,,2023-06-23,1,,,,,ブレス,0
1610,7010905004492,新規,0,2023-06-23,2023-06-23,一般社団法人ゆずりあいＪＡＰＡＮ,,その他の設立登記法人,東京都,世田谷区,梅丘１丁目２１番７号,,13,112,1540022,,,,,,,2023-06-23,1,,,,,ユズリアイジャパン,0
1616,7011001155255,新規,0,2023-06-23,2023-06-23,ＪＡＮＡＳ　ＪＡＰＡＮ株式会社,,株式会社,東京都,目黒区,三田２丁目６－１７目黒台スカイマンション５２２,,13,110,1530062,,,,,,,2023-06-23,1,,,,,ジャナスジャパン,0
1618,7011003017008,新規,0,2023-06-23,2023-06-23,合同会社ＫｉｉＮ,,合同会社,東京都,渋谷区,恵比寿西２丁目４－６佐々木ビル２０２,,13,113,1500021,,,,,,,2023-06-23,1,,,,,キーン,0
1621,7011101103345,新規,0,2023-06-23,2023-06-23,ＡＮＮＡ投資株式会社,,株式会社,東京都,新宿区,納戸町２６－８ＡＲＲＯＮビルＢ１－Ａ号室,,13,104,1620837,,,,,,,2023-06-23,1,,,,,アナ,0
1627,7011301028821,新規,0,2023-06-23,2023-06-23,株式会社ＹＣＯ　ＧＲＯＵＰ,,株式会社,東京都,杉並区,高円寺南４丁目２４番１１号宝山ビル１１２Ａ,,13,115,1660003,,,,,,,2023-06-23,1,,,,,,0
1630,7011501029446,新規,0,2023-06-23,2023-06-23,大田株式会社,,株式会社,東京都,北区,王子本町１丁目２２番１号１０３室,,13,117,1140022,,,,,,,2023-06-23,1,,,,,オオタ,0
1633,7011803005707,新規,0,2023-06-23,2023-06-23,エネルギー・ソリューションズ・アドバイザリー合同会社,,合同会社,東京都,足立区,千住曙町４１－２－６０１,,13,121,1200023,,,,,,,2023-06-23,1,,,,,エネルギーソリューションズアドバイザリー,0
1646,7020001009453,新規,0,2023-06-23,2023-06-23,株式会社ユー・エス・アイ,,株式会社,神奈川県,横浜市都筑区,佐江戸町１４６番地１,,14,118,2240054,,,,,,,2023-06-23,1,,,,,ユーエスアイ,0
1651,7020001152187,新規,0,2023-06-23,2023-06-23,株式会社ｍｔ．Ｃａｒｅｅｒ,,株式会社,神奈川県,横浜市泉区,中田南５丁目４２番９－１号,,14,116,2450014,,,,,,,2023-06-23,1,,,,,エムティードットキャリア,0
1657,7020003024087,新規,0,2023-06-23,2023-06-23,合同会社サポートビジネス,,合同会社,神奈川県,横浜市青葉区,奈良３丁目６番地３１号,,14,117,2270038,,,,,,,2023-06-23,1,,,,,サポートビジネス,0
1659,7021001079412,新規,0,2023-06-23,2023-06-23,Ｓｈｏｎａｎ　Ｓｅｃｒｅｔ　Ｓｅｒｖｉｃｅ株式会社,,株式会社,神奈川県,相模原市南区,相模大野３丁目１５番１６号エヌケイビル１０２,,14,153,2520303,,,,,,,2023-06-23,1,,,,,ショウナンシークレットサービス,0
1673,7030003022024,新規,0,2023-06-23,2023-06-23,コスモスアセット合同会社,,合同会社,埼玉県,さいたま市浦和区,常盤９丁目１６番５号２０３,,11,107,3300061,,,,,,,2023-06-23,1,,,,,コスモスアセット,0
1682,7040001128870,新規,0,2023-06-23,2023-06-23,株式会社飛翔建設コーポレーション,,株式会社,千葉県,八千代市,八千代台東２丁目９－１,,12,221,2760032,,,,,,,2023-06-23,1,,,,,ヒショウケンセツコーポレーション,0
1683,7040001128945,新規,0,2023-06-23,2023-06-23,株式会社キミジマ,,株式会社,千葉県,浦安市,堀江６丁目１５番３２号,,12,227,2790041,,,,,,,2023-06-23,1,,,,,キミジマ,0
1684,7040001128953,新規,0,2023-06-23,2023-06-23,株式会社リンドブルム,,株式会社,千葉県,印西市,平賀学園台３丁目２２番８号,,12,231,2701606,,,,,,,2023-06-23,1,,,,,リンドブルム,0
1688,7040003022758,新規,0,2023-06-23,2023-06-23,Ｍｉｎｏｒｉ　ＥｄｕＣｅｎｔｅｒ合同会社,,合同会社,千葉県,市原市,八幡２１０１番地１４,,12,219,2900062,,,,,,,2023-06-23,1,,,,,ミノリエデュセンター,0
1689,7040003022840,新規,0,2023-06-23,2023-06-23,合同会社ＴＡＫＫＵＮファーム,,合同会社,千葉県,いすみ市,弥正１３２９番地３,,12,238,2980124,,,,,,,2023-06-23,1,,,,,タックンファーム,0
1696,7070003004992,新規,0,2023-06-23,2023-06-23,合同会社ＳＲ,,合同会社,群馬県,前橋市,天川大島町３丁目５８－３メゾングランディール１０１,,10,201,3792154,,,,,,,2023-06-23,1,,,,,,0
1700,7100001036530,新規,0,2023-06-23,2023-06-23,株式会社和美鴻業,,株式会社,長野県,松本市,大字笹賀３９６７番地１,,20,202,3990033,,,,,,,2023-06-23,1,,,,,カズミコウギョウ,0
1703,7110003005094,新規,0,2023-06-23,2023-06-23,合同会社ＫＨブレーン,,合同会社,新潟県,新潟市東区,寺山３丁目５番８号,,15,102,9500892,,,,,,,2023-06-23,1,,,,,ケイエイチブレーン,0
1708,7120001255863,新規,0,2023-06-23,2023-06-23,サクラホールディングス株式会社,,株式会社,大阪府,大阪市西成区,千本北２丁目１番９号,,27,122,5570053,,,,,,,2023-06-23,1,,,,,サクラホールディングス,0
1709,7120001255888,新規,0,2023-06-23,2023-06-23,西川建材株式会社,,株式会社,大阪府,枚方市,大字穂谷２１９０番地,,27,210,5730114,,,,,,,2023-06-23,1,,,,,ニシカワケンザイ,0
1710,7120001255938,新規,0,2023-06-23,2023-06-23,紅雲技研株式会社,,株式会社,大阪府,大阪市西成区,松１丁目５番４号１０２号室,,27,122,5570034,,,,,,,2023-06-23,1,,,,,レッドクラウドテクノロジーリサーチ,0
1711,7120001255962,新規,0,2023-06-23,2023-06-23,株式会社ＢＤＲ,,株式会社,大阪府,大阪市都島区,中野町１丁目１３番４号,,27,102,5340027,,,,,,,2023-06-23,1,,,,,ビーディーアール,0
1712,7120003024044,新規,0,2023-06-23,2023-06-23,ＹＭＳ　ＤＥＶＥＬＯＰＭＥＮＴ合同会社,,合同会社,大阪府,大阪市西区,南堀江３丁目６番１号西大阪ビルディング６０３号室,,27,106,5500015,,,,,,,2023-06-23,1,,,,,ワイエムエスデベロップメント,0
1717,7120901047708,新規,0,2023-06-23,2023-06-23,株式会社日光商会,,株式会社,大阪府,豊中市,末広町１丁目８－３０－２０５,,27,203,5600024,,,,,,,2023-06-23,1,,,,,ニッコウショウカイ,0
1729,7150001026502,新規,0,2023-06-23,2023-06-23,株式会社蔦自動車販売,,株式会社,奈良県,磯城郡田原本町,大字唐古１８番地,,29,363,6360226,,,,,,,2023-06-23,1,,,,,ツタジドウシャハンバイ,0
1736,7180001156866,新規,0,2023-06-23,2023-06-23,株式会社Ｂｅａｕｔｙ‐Ｏｎｅ,,株式会社,愛知県,名古屋市中区,栄４丁目１５番１４号栄ハイホーム５１２号,,23,106,4600008,,,,,,,2023-06-23,1,,,,,ビューティーワン,0
1740,7190001030517,新規,0,2023-06-23,2023-06-23,株式会社大明,,株式会社,三重県,桑名市,大字下深谷部５０１番地１,,24,205,5110808,,,,,,,2023-06-23,1,,,,,ダイメイ,0
1754,7290001102041,新規,0,2023-06-23,2023-06-23,郷原筑康園株式会社,,株式会社,福岡県,久留米市,田主丸町志塚島３９０番地２,,40,203,8391222,,,,,,,2023-06-23,1,,,,,ゴウハラチクコウエン,0
1755,7290003014037,新規,0,2023-06-23,2023-06-23,合同会社チームＭ,,合同会社,福岡県,福岡市西区,小戸３丁目９‐２,,40,135,8190001,,,,,,,2023-06-23,1,,,,,チームエム,0
1763,7320001019851,新規,0,2023-06-23,2023-06-23,日本エコロジア株式会社,,株式会社,大分県,大分市,高松２丁目１番１２号,,44,201,8700917,,,,,,,2023-06-23,1,,,,,ニホンエコロジア,0
1785,7430001089413,新規,0,2023-06-23,2023-06-23,Ｌｉｆｅ　Ｃｏｏｒｄｉｎａｔｅ　Ｎｉｓｅｋｏ株式会社,,株式会社,北海道,虻田郡ニセコ町,字本通２４９番地５,,01,395,0481502,,,,,,,2023-06-23,1,,,,,ライフコーディネートニセコ,0
1788,7430003015177,新規,0,2023-06-23,2023-06-23,サクラライズ合同会社,,合同会社,北海道,札幌市東区,北二十三条東９丁目４番１９－３号,,01,103,0650023,,,,,,,2023-06-23,1,,,,,サクラライズ,0
1790,7460103001537,新規,0,2023-06-23,2023-06-23,合同会社ウンパルンパ,,合同会社,北海道,帯広市,大空町８丁目８番地１１,,01,207,0800838,,,,,,,2023-06-23,1,,,,,ウンパルンパ,0
1791,7470001019671,新規,0,2023-06-23,2023-06-23,株式会社グローバルこころ,,株式会社,香川県,高松市,香川町川東上１４４１番地１２,,37,201,7611706,,,,,,,2023-06-23,1,,,,,グローバルココロ,0
1795,7700150117649,新規,0,2023-06-23,2023-06-23,ハイツ西馬込マンション建替組合,,その他,東京都,中央区,八重洲１丁目９番９号東京建物株式会社　内,,13,102,1030028,,,,,,,2023-06-23,1,,,,,ハイツニシマゴメマンシヨンタテカエクミアイ,0
1805,8010001236295,新規,0,2023-06-23,2023-06-23,森風力開発株式会社,,株式会社,東京都,千代田区,霞が関３丁目２番５号,,13,101,1000013,,,,,,,2023-06-23,1,,,,,モリフウリョクカイハツ,0
1806,8010001236345,新規,0,2023-06-23,2023-06-23,株式会社ウェルネスプロパティーズ,,株式会社,東京都,中央区,勝どき５丁目３－１－１００３,,13,102,1040054,,,,,,,2023-06-23,1,,,,,ウェルネスプロパティーズ,0
1808,8010003040968,新規,0,2023-06-23,2023-06-23,合同会社Ｎ２,,合同会社,東京都,千代田区,丸の内３丁目１番１号東京共同会計事務所内,,13,101,1000005,,,,,,,2023-06-23,1,,,,,エヌツー,0
1813,8010401175143,新規,0,2023-06-23,2023-06-23,シロイト株式会社,,株式会社,東京都,港区,南青山２丁目２番１５号ウィン青山１２１４号,,13,103,1070062,,,,,,,2023-06-23,1,,,,,シロイト,0
1814,8010401175250,新規,0,2023-06-23,2023-06-23,株式会社ぷらす・あるふぁ一級建築士事務所,,株式会社,東京都,港区,元赤坂１丁目１番７－１１０１号,,13,103,1070051,,,,,,,2023-06-23,1,,,,,プラスアルファイッキュウケンチクシジムショ,0
1819,8010403030362,新規,0,2023-06-23,2023-06-23,合同会社Ｍａｋｉ　Ｅｎｔｅｒｐｒｉｓｅ,,合同会社,東京都,港区,赤坂９丁目１番７－８６８号,,13,103,1070052,,,,,,,2023-06-23,1,,,,,マキエンタープライズ,0
1821,8010405022275,新規,0,2023-06-23,2023-06-23,福岡小郡一般社団法人,,その他の設立登記法人,東京都,港区,元赤坂１丁目１番８号株式会社赤坂国際会計内,,13,103,1070051,,,,,,,2023-06-23,1,,,,,フクオカオゴオリ,0
1830,8010603010214,新規,0,2023-06-23,2023-06-23,合同会社ＡＤＥ,,合同会社,東京都,江東区,豊洲６丁目２－３１－４３１１,,13,108,1350061,,,,,,,2023-06-23,1,,,,,アデ,0
1831,8010701044452,新規,0,2023-06-23,2023-06-23,株式会社ディケイド,,株式会社,東京都,品川区,上大崎４丁目１番１号,,13,109,1410021,,,,,,,2023-06-23,1,,,,,ディケイド,0
1844,8011001155213,新規,0,2023-06-23,2023-06-23,株式会社Ｎｅｏｇｒａｐｈｉｃａ,,株式会社,東京都,渋谷区,代々木３丁目１番３号,,13,113,1510053,,,,,,,2023-06-23,1,,,,,ネオグラフィカ,0
1845,8011001155270,新規,0,2023-06-23,2023-06-23,株式会社シーク・アミューズメント,,株式会社,東京都,渋谷区,渋谷２丁目１９－１５宮益坂ビルディング６０９,,13,113,1500002,,,,,,,2023-06-23,1,,,,,シークアミューズメント,0
1858,8011701026366,新規,0,2023-06-23,2023-06-23,株式会社ワンワールド,,株式会社,東京都,江戸川区,東小岩１丁目２２－１５－２０３号室,,13,123,1330052,,,,,,,2023-06-23,1,,,,,ワンワールド,0
1862,8011803005706,新規,0,2023-06-23,2023-06-23,ＴＷＴ合同会社,,合同会社,東京都,足立区,新田３丁目３６－２ハートアイランド１２０１,,13,121,1230865,,,,,,,2023-06-23,1,,,,,テイーダブリューテイ,0
1869,8012803003113,新規,0,2023-06-23,2023-06-23,合同会社山王,,合同会社,東京都,日野市,日野本町４丁目２４番地の１８,,13,212,1910011,,,,,,,2023-06-23,1,,,,,サンオウ,0
1874,8020001152203,新規,0,2023-06-23,2023-06-23,株式会社ＹＤＹＳ,,株式会社,神奈川県,横浜市都筑区,茅ケ崎中央４６番５号カネキビル１Ｆ,,14,118,2240032,,,,,,,2023-06-23,1,,,,,ワイディワイエス,0
1875,8020001152211,新規,0,2023-06-23,2023-06-23,株式会社Ｔ‐トレーディング,,株式会社,神奈川県,川崎市高津区,坂戸１丁目１６番１号,,14,134,2130012,,,,,,,2023-06-23,1,,,,,ティートレーディング,0
1877,8020003024103,新規,0,2023-06-23,2023-06-23,合同会社ウイング,,合同会社,神奈川県,横浜市青葉区,新石川３丁目１３番地２５,,14,117,2250003,,,,,,,2023-06-23,1,,,,,ウイング,0
1883,8021001079394,新規,0,2023-06-23,2023-06-23,株式会社エムシーエル制作所,,株式会社,神奈川県,相模原市南区,若松６丁目１０番２５号,,14,153,2520334,,,,,,,2023-06-23,1,,,,,エムシーエルセイサクショ,0
1884,8021001079403,新規,0,2023-06-23,2023-06-23,ジーニアス株式会社,,株式会社,神奈川県,厚木市,寿町２丁目２－５－１４０６,,14,212,2430003,,,,,,,2023-06-23,1,,,,,ジーニアス,0
1885,8021001079411,新規,0,2023-06-23,2023-06-23,株式会社ＥＩＢＥＮ,,株式会社,神奈川県,横須賀市,久里浜２丁目８番９号,,14,201,2390831,,,,,,,2023-06-23,1,,,,,エイベン,0
1887,8021003013244,新規,0,2023-06-23,2023-06-23,ＢＵＳＨＲＡ　ＴＲＡＤＩＮＧ合同会社,,合同会社,神奈川県,伊勢原市,東大竹７０７番地２９ハイツ７０７－２０１号室,,14,214,2591133,,,,,,,2023-06-23,1,,,,,ブシュラトレーディング,0
1888,8021005012839,新規,0,2023-06-23,2023-06-23,特定非営利活動法人Ｔｈｅ　Ｖｉｌｌａｇｅ,,その他の設立登記法人,神奈川県,秦野市,鶴巻南１丁目２８番５６号,,14,211,2570002,,,,,,,2023-06-23,1,,,,,ザビレッジ,0
1894,8030005021312,新規,0,2023-06-23,2023-06-23,一般社団法人つばさ乗馬苑,,その他の設立登記法人,埼玉県,日高市,大字大谷沢６８１番地１,,11,242,3501222,,,,,,,2023-06-23,1,,,,,ツバサジョウバエン,0
1904,8040001128944,新規,0,2023-06-23,2023-06-23,株式会社イケムツ,,株式会社,千葉県,山武市,横田１０７５番地３３,,12,237,2891226,,,,,,,2023-06-23,1,,,,,イケムツ,0
1905,8040001128952,新規,0,2023-06-23,2023-06-23,株式会社Ｒｉｔａｉｚ,,株式会社,千葉県,柏市,若柴１７８－４柏の葉キャンパス１４８街区２ショップ＆オフィス棟６階,,12,217,2770871,,,,,,,2023-06-23,1,,,,,リタイズ,0
1906,8040001128960,新規,0,2023-06-23,2023-06-23,ＩＤＭ‐ｉｎｄｕｓｔｒｉａ株式会社,,株式会社,千葉県,柏市,篠籠田１３８２番地３９,,12,217,2770862,,,,,,,2023-06-23,1,,,,,アイディーエムインダストリア,0
1917,8060001036105,新規,0,2023-06-23,2023-06-23,株式会社ｄａ　Ｖｉｎｃｉ,,株式会社,栃木県,大田原市,中田原６３６番地３,,09,210,3240062,,,,,,,2023-06-23,1,,,,,ダビンチ,0
1921,8060003004605,新規,0,2023-06-23,2023-06-23,ティー＆エム合同会社,,合同会社,栃木県,小山市,東城南１丁目２６番地１７,,09,208,3230829,,,,,,,2023-06-23,1,,,,,ティーアンドエム,0
1922,8060003004613,新規,0,2023-06-23,2023-06-23,ラナ・プレイス合同会社,,合同会社,栃木県,鹿沼市,千渡１７６６－１８Ｄ号室,,09,205,3220002,,,,,,,2023-06-23,1,,,,,ラナプレイス,0
1923,8060003004621,新規,0,2023-06-23,2023-06-23,ＳＡＫＵＲＡ　ＡＵＴＯ合同会社,,合同会社,栃木県,小山市,大字南和泉９５７番地２,,09,208,3230816,,,,,,,2023-06-23,1,,,,,サクラオート,0
1942,8120001255912,新規,0,2023-06-23,2023-06-23,悠会計株式会社,,株式会社,大阪府,大阪市北区,梅田１丁目２番２号大阪駅前第２ビル１２－１２,,27,127,5300001,,,,,,,2023-06-23,1,,,,,ユウカイケイ,0
1943,8120001255920,新規,0,2023-06-23,2023-06-23,和田フードテック株式会社,,株式会社,大阪府,大阪市中央区,安土町２丁目３番１３号,,27,128,5410052,,,,,,,2023-06-23,1,,,,,ワダフードテック,0
1944,8120001255929,新規,0,2023-06-23,2023-06-23,三番日生株式会社,,株式会社,大阪府,大阪市東成区,深江北３丁目４番２１号エクラ深江橋６０７Ａ,,27,115,5370001,,,,,,,2023-06-23,1,,,,,サンバンニッセイ,0
1945,8120001255945,新規,0,2023-06-23,2023-06-23,株式会社ＶＯＩＣＥ．Ｗ,,株式会社,大阪府,大阪市城東区,今福西２丁目１番３号,,27,118,5360004,,,,,,,2023-06-23,1,,,,,ボイスウェルフェア,0
1946,8120001255978,新規,0,2023-06-23,2023-06-23,福済株式会社,,株式会社,大阪府,大阪市西成区,玉出中２丁目１２番１４号朝日プラザパレセーヌ５１１室,,27,122,5570044,,,,,,,2023-06-23,1,,,,,フクサイ,0
1947,8120001256010,新規,0,2023-06-23,2023-06-23,株式会社Ｆ・Ｔ,,株式会社,大阪府,大阪市北区,梅田２丁目５番１３号桜橋第一ビル,,27,127,5300001,,,,,,,2023-06-23,1,,,,,エフティー,0
1979,8180001156849,新規,0,2023-06-23,2023-06-23,株式会社２６ＴＧ,,株式会社,愛知県,春日井市,篠木町７丁目３６番地１９,,23,206,4860851,,,,,,,2023-06-23,1,,,,,ニーロクティージー,0
1985,8180005020258,新規,0,2023-06-23,2023-06-23,社会保険労務士法人ＬＩＮＫ,,その他の設立登記法人,愛知県,名古屋市中区,丸の内２丁目１７－１３ＮＫ丸の内ビル２階,,23,106,4600002,,,,,,,2023-06-23,1,,,,,リンク,0
1987,8190001030516,新規,0,2023-06-23,2023-06-23,株式会社ジャパンリソース,,株式会社,三重県,北牟婁郡紀北町,相賀４８０番地１０１,,24,543,5193406,,,,,,,2023-06-23,1,,,,,ジャパンリソース,0
1999,8250001020155,新規,0,2023-06-23,2023-06-23,株式会社Ｒｅｅ’ｓ,,株式会社,山口県,山口市,富田原町４番３４号,,35,203,7530054,,,,,,,2023-06-23,1,,,,,リース,0
2001,8260003004345,新規,0,2023-06-23,2023-06-23,合同会社晴愛,,合同会社,岡山県,倉敷市,児島柳田町５１６番地２０,,33,202,7110936,,,,,,,2023-06-23,1,,,,,セイラ,0
2012,8320001019850,新規,0,2023-06-23,2023-06-23,株式会社龍神,,株式会社,大分県,佐伯市,蒲江大字蒲江浦４５６３番地１,,44,205,8762401,,,,,,,2023-06-23,1,,,,,,0
2017,8350001018420,新規,0,2023-06-23,2023-06-23,株式会社藤田,,株式会社,宮崎県,宮崎市,下北方町井手下南２５番地２アルファスマート神宮北８０２号,,45,201,8800035,,,,,,,2023-06-23,1,,,,,フジタ,0
2018,8350003004385,新規,0,2023-06-23,2023-06-23,合同会社英建,,合同会社,宮崎県,宮崎市,太田３丁目７番２１号プチメゾン南宮崎２０５号,,45,201,8800903,,,,,,,2023-06-23,1,,,,,エイケン,0
2025,8370001050108,新規,0,2023-06-23,2023-06-23,株式会社ＧＰＰ,,株式会社,宮城県,仙台市青葉区,錦町２丁目３－２４ベレオ錦町３０１,,04,101,9800012,,,,,,,2023-06-23,1,,,,,ジーピーピー,0
2028,8370003006181,新規,0,2023-06-23,2023-06-23,イシデ合同会社,,合同会社,宮城県,柴田郡川崎町,大字前川字手代塚山１－９７,00130960,04,324,9891501,,,,,,,2023-06-23,1,,,,,イシデ,0
2035,8400001016286,新規,0,2023-06-23,2023-06-23,株式会社Ｆｒｅｉ　Ｚｉｎ,,株式会社,岩手県,盛岡市,大通３丁目６番１２号,,03,201,0200022,,,,,,,2023-06-23,1,,,,,フライジン,0
2036,8400003003101,新規,0,2023-06-23,2023-06-23,合同会社ルビア,,合同会社,岩手県,遠野市,上郷町細越１２地割１４番地３,,03,208,0280772,,,,,,,2023-06-23,1,,,,,ルビア,0
2042,8440001009278,新規,0,2023-06-23,2023-06-23,株式会社道水ホールディングス,,株式会社,北海道,函館市,豊川町２７番５号,,01,202,0400065,,,,,,,2023-06-23,1,,,,,ドウスイホールディングス,0
2047,8470001019670,新規,0,2023-06-23,2023-06-23,株式会社Ｌｉｎｋ,,株式会社,香川県,坂出市,府中町１６７７番地８,,37,203,7620024,,,,,,,2023-06-23,1,,,,,リンク,0
2054,8700150117664,新規,0,2023-06-23,2023-06-23,ＢＲＡＮＤＯＮ　ＧＲＯＵＰ　ＳＲＬ,,外国会社等,,,,,,,,ＶＩＡ　ＶＡＮＮＥＬＬＡ　ＧＡＥＴＡＮＩ　２７　ＮＡＰＯＬＩ,,,,,,2023-06-23,1,,,,,ビーアーアーエンデイーオーエンジーアーオーユーピーエスアーエル,0
2055,8700150117680,新規,0,2023-06-23,2023-06-23,ｓｈｅｎｚｈｅｎｚｈｏｎｇｑｉｎｇｊｉａｊｕｙｏｎｇｐｉｎｙｏｕｘｉａｎｇｏｎｇｓｉ,,外国会社等,,,,,,,,ｓｈｅｎｚｈｅｎｓｈｉｌｏｎｇｈｕａｑｕ，ｌｏｎｇｈｕａｊｉｅｄａｏｊｉｎｇｌｏｎｇｓｈｅｑｕｇｏｎｇｙｅｘｉｌｕｚｈｅｎｂａｏｇｏｎｇｙｅｑｕ４ｄｏｎｇ２０１，ｓｈｅｎｚｈｅｎ　ｇｕａｎｇｄｏｎｇ，ＣＮ　５１８０００,,,,,,2023-06-23,1,,,,,シンセンチユウセイカキヨヨウヒンユウゲンコウシ,0
2065,9010001236294,新規,0,2023-06-23,2023-06-23,福島風力開発株式会社,,株式会社,東京都,千代田区,霞が関３丁目２番５号,,13,101,1000013,,,,,,,2023-06-23,1,,,,,フクシマフウリョクカイハツ,0
2066,9010001236328,新規,0,2023-06-23,2023-06-23,株式会社ＭＥＪＯＲＡＲ,,株式会社,東京都,文京区,白山１丁目２１－１５,,13,105,1130001,,,,,,,2023-06-23,1,,,,,メホラール,0
2069,9010003040983,新規,0,2023-06-23,2023-06-23,合同会社ＢＲＭ　Ｌａｂｏ,,合同会社,東京都,文京区,湯島４丁目１１－７,,13,105,1130034,,,,,,,2023-06-23,1,,,,,ビーアールエムラボ,0
2086,9010401175258,新規,0,2023-06-23,2023-06-23,ＷａｒｍＷａｖｅ株式会社,,株式会社,東京都,港区,北青山２丁目７番２０号猪瀬ビル２Ｆ,,13,103,1070061,,,,,,,2023-06-23,1,,,,,ウォームウェーブ,0
2097,9010901053285,新規,0,2023-06-23,2023-06-23,Ｔｗｉｎ　Ｔｒｅｅ株式会社,,株式会社,東京都,世田谷区,代沢３丁目１番２号,,13,112,1550032,,,,,,,2023-06-23,1,,,,,ツインツリー,0
2098,9010903008246,新規,0,2023-06-23,2023-06-23,合同会社アンビエントライト,,合同会社,東京都,世田谷区,上北沢４丁目２９－２９プラシード上北沢０１０１,,13,112,1560057,,,,,,,2023-06-23,1,,,,,アンビエントライト,0
2099,9010903008262,新規,0,2023-06-23,2023-06-23,合同会社アレック,,合同会社,東京都,世田谷区,船橋１丁目１番１５号ヒルサイドビル３０２,,13,112,1560055,,,,,,,2023-06-23,1,,,,,アレック,0
2101,9011001155146,新規,0,2023-06-23,2023-06-23,株式会社スリピ,,株式会社,東京都,渋谷区,道玄坂１丁目１０番８号渋谷道玄坂東急ビル２Ｆ－Ｃ,,13,113,1500043,,,,,,,2023-06-23,1,,,,,スリピ,0
2102,9011001155229,新規,0,2023-06-23,2023-06-23,エンパシー株式会社,,株式会社,東京都,渋谷区,神宮前３丁目２１－２１ＡＲＩＳＴＯ原宿２階,,13,113,1500001,,,,,,,2023-06-23,1,,,,,エンパシー,0
2103,9011001155237,新規,0,2023-06-23,2023-06-23,株式会社Ｌｏｖｅ,,株式会社,東京都,渋谷区,渋谷３丁目３番５号,,13,113,1500002,,,,,,,2023-06-23,1,,,,,ラヴ,0
2106,9011003017039,新規,0,2023-06-23,2023-06-23,合同会社ストラトジックＰＳＭ研究会,,合同会社,東京都,渋谷区,桜丘町２３番１７号シティコート桜丘４０８,,13,113,1500031,,,,,,,2023-06-23,1,,,,,ストラトジックピーエスエムケンキュウカイ,0
2113,9011101103319,新規,0,2023-06-23,2023-06-23,株式会社テラネクスト,,株式会社,東京都,新宿区,下落合３丁目１２番３０号,,13,104,1610033,,,,,,,2023-06-23,1,,,,,テラネクスト,0
2114,9011101103376,新規,0,2023-06-23,2023-06-23,株式会社ｓｔｒａｙａ,,株式会社,東京都,新宿区,高田馬場１丁目３２－１４ＴＳビルＢ１,,13,104,1690075,,,,,,,2023-06-23,1,,,,,ストラーヤ,0
2117,9011103013185,新規,0,2023-06-23,2023-06-23,合同会社おさかな,,合同会社,東京都,新宿区,市谷砂土原町１丁目２番地１４市谷砂土原レジデンス４０１,,13,104,1620842,,,,,,,2023-06-23,1,,,,,オサカナ,0
2127,9011301028803,新規,0,2023-06-23,2023-06-23,Ｓｕｎ株式会社,,株式会社,東京都,杉並区,天沼１丁目１番１４号,,13,115,1670032,,,,,,,2023-06-23,1,,,,,サン,0
2128,9011303004810,新規,0,2023-06-23,2023-06-23,合同会社ＦＲＯＭＥ,,合同会社,東京都,杉並区,松ノ木３丁目２６－７－２０６,,13,115,1660014,,,,,,,2023-06-23,1,,,,,フローム,0
2138,9011701026357,新規,0,2023-06-23,2023-06-23,株式会社優羽,,株式会社,東京都,江戸川区,西篠崎２丁目９番２０号,,13,123,1330055,,,,,,,2023-06-23,1,,,,,ユウワ,0
2144,9012401040664,新規,0,2023-06-23,2023-06-23,株式会社ふじ椿,,株式会社,東京都,武蔵野市,中町１丁目１９番１１号アーバン武蔵野４０１,,13,203,1800006,,,,,,,2023-06-23,1,,,,,フジツバキ,0
2153,9020001152193,新規,0,2023-06-23,2023-06-23,株式会社ＬＳＩＮＧ,,株式会社,神奈川県,横浜市南区,蒔田町字三度台１０１８番地１５ワコーレロイヤルヒルズ６１９号室,,14,105,2320043,,,,,,,2023-06-23,1,,,,,エルシング,0
2160,9020003024102,新規,0,2023-06-23,2023-06-23,グローバルプラチナ合同会社,,合同会社,神奈川県,横浜市中区,本牧元町２４番１号,,14,104,2310822,,,,,,,2023-06-23,1,,,,,グローバルプラチナ,0
2164,9021001079393,新規,0,2023-06-23,2023-06-23,株式会社ケーエス電機,,株式会社,神奈川県,藤沢市,遠藤１４４０番地,,14,205,2520816,,,,,,,2023-06-23,1,,,,,ケーエスデンキ,0
2165,9021001079402,新規,0,2023-06-23,2023-06-23,株式会社Ａｇｒｅａｂｌｅ,,株式会社,神奈川県,秦野市,堀西１１８１番地,,14,211,2591331,,,,,,,2023-06-23,1,,,,,アグレアーブル,0
2168,9021003013243,新規,0,2023-06-23,2023-06-23,合同会社野分,,合同会社,神奈川県,鎌倉市,御成町９番６号,,14,204,2480012,,,,,,,2023-06-23,1,,,,,ノワケ,0
2177,9030003021973,新規,0,2023-06-23,2023-06-23,オプティード合同会社,,合同会社,埼玉県,越谷市,赤山本町３番地２４―１２０１号,,11,222,3430808,,,,,,,2023-06-23,1,,,,,オプティード,0
2183,9040001128852,新規,0,2023-06-23,2023-06-23,株式会社美豊,,株式会社,千葉県,市川市,市川３丁目４０番８号,,12,203,2720034,,,,,,,2023-06-23,1,,,,,ミトミ,0
2184,9040001128893,新規,0,2023-06-23,2023-06-23,株式会社ワイドツリー,,株式会社,千葉県,佐倉市,染井野１丁目８番地６,,12,212,2850831,,,,,,,2023-06-23,1,,,,,ワイドツリー,0
2185,9040001128943,新規,0,2023-06-23,2023-06-23,プレミアムセキュリティ株式会社,,株式会社,千葉県,市川市,香取１丁目４番６号ハッピーマンション香取３０６号,,12,203,2720141,,,,,,,2023-06-23,1,,,,,プレミアムセキュリティ,0
2194,9040005022052,新規,0,2023-06-23,2023-06-23,一般社団法人日本フォトグラファー協会,,その他の設立登記法人,千葉県,千葉市花見川区,幕張町３丁目１５３５番地１クロシェットＢ２０１号,,12,102,2620032,,,,,,,2023-06-23,1,,,,,ニホンフォトグラファーキョウカイ,0
2203,9070005010137,新規,0,2023-06-23,2023-06-23,一般社団法人紺屋町,,その他の設立登記法人,群馬県,前橋市,千代田町４丁目６番５号,,10,201,3710022,,,,,,,2023-06-23,1,,,,,コンヤマチ,0
2204,9080003003001,新規,0,2023-06-23,2023-06-23,合同会社たくみ,,合同会社,静岡県,静岡市駿河区,大和２丁目１番２－２０１号,,22,102,4228077,,,,,,,2023-06-23,1,,,,,タクミ,0
2206,9080401026553,新規,0,2023-06-23,2023-06-23,株式会社ＦＯＸＹ,,株式会社,静岡県,浜松市中区,萩丘５丁目６番１号,,22,131,4338121,,,,,,,2023-06-23,1,,,,,フォクシー,0
2217,9120001255985,新規,0,2023-06-23,2023-06-23,株式会社Ｗ　Ｌａｂｏ．,,株式会社,大阪府,大阪市西区,新町１丁目１４番２１－４０１３号,,27,106,5500013,,,,,,,2023-06-23,1,,,,,ダブルラボ,0
2223,9120003024348,新規,0,2023-06-23,2023-06-23,合同会社電田,,合同会社,大阪府,大阪市中央区,日本橋２丁目２１番１０号宮田ビル１階,,27,128,5420073,,,,,,,2023-06-23,1,,,,,デンデン,0
2228,9120103005289,新規,0,2023-06-23,2023-06-23,合同会社あんりケア,,合同会社,大阪府,高石市,千代田１丁目７番８号,,27,225,5920005,,,,,,,2023-06-23,1,,,,,アンリケア,0
2245,9130003008804,新規,0,2023-06-23,2023-06-23,ジェイナビゲーター合同会社,,合同会社,京都府,京都市下京区,石不動之町６８２番地６,,26,106,6008047,,,,,,,2023-06-23,1,,,,,ジェイナビゲーター,0
2254,9170001017654,新規,0,2023-06-23,2023-06-23,株式会社際ホールディングス,,株式会社,和歌山県,和歌山市,毛革屋丁２５番地,,30,201,6408337,,,,,,,2023-06-23,1,,,,,サイホールディングス,0
2259,9180001156864,新規,0,2023-06-23,2023-06-23,株式会社久留プラスチック,,株式会社,愛知県,小牧市,大字西之島１５８９番地,,23,219,4850077,,,,,,,2023-06-23,1,,,,,クルプラスチック,0
2262,9180003025398,新規,0,2023-06-23,2023-06-23,ＰＡＨ合同会社,,合同会社,愛知県,名古屋市中区,栄３丁目１２番６号ライオンズマンション栄８１１号室,,23,106,4600008,,,,,,,2023-06-23,1,,,,,ピーエーエイチ,0
2276,9200001041428,新規,0,2023-06-23,2023-06-23,エナジーフロー株式会社,,株式会社,岐阜県,大垣市,西之川町１丁目２９９番地５,,21,202,5030018,,,,,,,2023-06-23,1,,,,,エナジーフロー,0
2281,9230001019891,新規,0,2023-06-23,2023-06-23,株式会社大黒屋,,株式会社,富山県,射水市,川口７９０番地２,,16,211,9340058,,,,,,,2023-06-23,1,,,,,ダイコクヤ,0
2289,9260003004344,新規,0,2023-06-23,2023-06-23,ダブルレインボウ合同会社,,合同会社,岡山県,倉敷市,林１３２３－２７,,33,202,7100142,,,,,,,2023-06-23,1,,,,,ダブルレインボウ,0
2291,9280001008972,新規,0,2023-06-23,2023-06-23,株式会社來伸,,株式会社,島根県,松江市,宍道町佐々布１０７番地７,,32,201,6990406,,,,,,,2023-06-23,1,,,,,ライシン,0
2293,9290001102048,新規,0,2023-06-23,2023-06-23,株式会社ＳＯＬエステート,,株式会社,福岡県,糸島市,波多江駅南１丁目１６番１０号,,40,230,8191108,,,,,,,2023-06-23,1,,,,,ソルエステート,0
2294,9290003014068,新規,0,2023-06-23,2023-06-23,ブレスト合同会社,,合同会社,福岡県,福岡市中央区,六本松３丁目７番３６号,,40,133,8100044,,,,,,,2023-06-23,1,,,,,ブレスト,0
2305,9310001018480,新規,0,2023-06-23,2023-06-23,株式会社ライジング,,株式会社,長崎県,大村市,小路口本町５０６番地１,,42,205,8560020,,,,,,,2023-06-23,1,,,,,ライジング,0
2339,9700150117589,新規,0,2023-06-23,2023-06-23,Ｓｈｅｎｚｈｅｎ　Ｈａｎｙｉｎｇ　Ｎｅｗ　Ｅｎｅｒｇｙ　Ｔｅｃｈｎｏｌｏｇｙ　Ｃｏ．，Ｌｔｄ．,,外国会社等,,,,,,,,Ｃｈｉｎａ，ｇｕａｎｇｄｏｎｇ　ｓｈｅｎｚｈｅｎｓｈｉ　ｂａｏａｎｑｕ　ｘｉｘｉａｎｇｊｉｅｄａｏ　ｈｅｄｏｎｇｓｈｅｑｕ　ｂａｏｍｉｎｅｒｌｕ１２７ｈａｏ　ｘｉｎｃｈｅｎｇｇｕａｎｇｃｈａｎｇ　１ｄｏｎｇ２２１１－Ｅ３３０,,,,,,2023-06-23,1,,,,,シンセンシカンエイシンノウゲンカギユウゲンコウシ,0
2340,9700150117663,新規,0,2023-06-23,2023-06-23,ｆｏｓｈａｎｓｈｉｊｉｎｇｈｕｉｈａｎｄｉａｎｚｉｓｈａｎｇｗｕｙｏｕｘｉａｎｇｏｎｇｓｉ,,外国会社等,,,,,,,,ｔｉａｎｈｕａｄｉａｎｓｈａｎｇｄａｌｏｕ　Ｂ１５０８　ｈｅｚｉｓｈｉ　ｍｕｄａｎｑｕ　ｓｈａｎｄｏｎｇｓｈｅｎｇ,,,,,,2023-06-23,1,,,,,フオーシヤンシージンフイハンデイエンズーシヤンウーヨウシエンゴンスー,0
