sequenceNumber,corporateNumber,process,correct,updateDate,changeDate,name,nameImageId,kind,prefectureName,cityName,streetNumber,addressImageId,prefectureCode,cityCode,postCode,addressOutside,addressOutsideImageId,closeDate,closeCause,successorCorporateNumber,changeCause,assignmentDate,latest,enName,enPrefectureName,enCityName,enAddressOutside,furigana,hihyoji
33,1010403028999,登記記録の閉鎖等,0,2024-06-14,2024-06-03,合同会社ソーラーパーク１９号,,合同会社,東京都,港区,六本木３丁目２番１号,,13,103,1060032,,,2024-06-03,合併による解散等,3011001038942,令和６年６月１日東京都港区六本木三丁目２番１号合同会社ＤＭＭ．ｃｏｍ（3011001038942）に合併し解散,2022-11-30,1,,,,,ソーラーパークジュウキュウゴウ,0
34,1010403030716,登記記録の閉鎖等,0,2024-06-14,2024-06-03,合同会社ソーラーパーク３１号,,合同会社,東京都,港区,六本木３丁目２番１号,,13,103,1060032,,,2024-06-03,合併による解散等,3011001038942,令和６年６月１日東京都港区六本木三丁目２番１号合同会社ＤＭＭ．ｃｏｍ（3011001038942）に合併し解散,2023-08-17,1,,,,,ソーラーパーサンジュウイチゴウ,0
38,1010602010592,登記記録の閉鎖等,0,2024-06-14,2024-06-12,有限会社畔柳精機製作所,,有限会社,東京都,墨田区,業平２丁目７番１０号,,13,107,1300002,,,2024-06-12,清算の結了等,,,2015-10-05,1,,,,,クロヤナギセイキセイサクジョ,0
42,1010805002148,登記記録の閉鎖等,0,2024-06-14,2024-06-07,一般社団法人全日本福祉写真協会,,その他の設立登記法人,東京都,大田区,仲六郷１丁目４５番１３号,,13,111,1440055,,,2024-06-07,清算の結了等,,,2015-10-05,1,,,,,ゼンニッポンフクシシャシンキョウカイ,0
43,1010901051767,登記記録の閉鎖等,0,2024-06-14,2024-05-31,株式会社トップレター,,株式会社,東京都,渋谷区,道玄坂１丁目１６－６二葉ビル８ｂ,,13,113,1500043,,,2024-05-31,清算の結了等,,,2022-10-07,1,,,,,トップレター,0
54,1011002033556,登記記録の閉鎖等,0,2024-06-14,2024-06-03,有限会社アートイン,,有限会社,東京都,目黒区,鷹番２丁目２１番４号,,13,110,1520004,,,2024-06-03,清算の結了等,,,2015-10-05,1,,,,,アートイン,0
64,1011105008892,登記記録の閉鎖等,0,2024-06-14,2024-06-05,ＭＭＦＵＳ２ＴＫ一般社団法人,,その他の設立登記法人,東京都,新宿区,四谷２丁目９番地１５東京ユナイテッド綜合事務所内,,13,104,1600004,,,2024-06-05,清算の結了等,,,2019-06-21,1,,,,,エムエムエフユーエスツーティーケー,0
68,1011401013209,登記記録の閉鎖等,0,2024-06-14,2024-06-11,リポット株式会社,,株式会社,東京都,新宿区,新宿３丁目３１番５号,,13,104,1600022,,,2024-06-11,合併による解散等,9010401174532,令和６年６月１日東京都港区芝公園一丁目１番１号住友不動産御成門タワー７階リポット株式会社（9010401174532）に合併し解散,2015-10-05,1,,,,,リポット,0
75,1011802029126,登記記録の閉鎖等,0,2024-06-14,2024-06-10,有限会社ぴの,,有限会社,東京都,足立区,西綾瀬４丁目２番８号,,13,121,1200014,,,2024-06-10,清算の結了等,,,2015-10-05,1,,,,,ピノ,0
81,1012803001536,登記記録の閉鎖等,0,2024-06-14,2024-06-06,トビアス・ソリューション合同会社,,合同会社,東京都,武蔵村山市,中原２丁目１９番地の７,,13,223,2080035,,,2024-06-06,清算の結了等,,,2016-12-13,1,,,,,トビアスソリューション,0
87,1020001124828,登記記録の閉鎖等,0,2024-06-14,2024-06-05,株式会社伴技研,,株式会社,神奈川県,横浜市中区,山下町９１番地,,14,104,2310023,,,2024-06-05,清算の結了等,,,2018-01-31,1,,,,,バンギケン,0
88,1020001135957,登記記録の閉鎖等,0,2024-06-14,2024-06-03,株式会社ｓａｕｒｅｃｔ,,株式会社,東京都,港区,高輪２丁目１４－１４高輪グランドハイツ６０５,,13,103,1080074,,,2024-06-03,清算の結了等,,,2020-04-30,1,,,,,サウレクト,0
89,1020002029480,登記記録の閉鎖等,0,2024-06-14,2024-06-10,有限会社柏木商会,,有限会社,神奈川県,横浜市南区,井土ケ谷中町１１０番地,,14,105,2320052,,,2024-06-10,清算の結了等,,,2015-10-05,1,,,,,カシワギショウカイ,0
129,1080102021753,登記記録の閉鎖等,0,2024-06-14,2024-06-11,有限会社山田電気商会,,有限会社,静岡県,賀茂郡松崎町,道部１８番地の１,,22,305,4103618,,,2024-06-11,清算の結了等,,,2015-10-05,1,,,,,ヤマダデンキショウカイ,0
130,1080401018319,登記記録の閉鎖等,0,2024-06-14,2024-06-04,伴商株式会社,,株式会社,愛知県,豊橋市,宮下町１５６番地の２,,23,201,4400044,,,2024-06-04,清算の結了等,,,2015-10-05,1,,,,,バンショウ,0
144,1120001118258,登記記録の閉鎖等,0,2024-06-14,2024-06-13,株式会社ジーイービー,,株式会社,大阪府,大阪市北区,与力町４番８号,,27,127,5300036,,,2024-06-13,清算の結了等,,,2015-10-05,1,,,,,ジーイービー,0
147,1120001187146,登記記録の閉鎖等,0,2024-06-14,2024-06-13,株式会社結,,株式会社,大阪府,枚方市,伊加賀西町８番５３号,,27,210,5730066,,,2024-06-13,清算の結了等,,,2015-10-05,1,,,,,,0
158,1120003015255,登記記録の閉鎖等,0,2024-06-14,2024-06-13,合同会社ＡＭプランニング,,合同会社,大阪府,大阪市住之江区,粉浜３丁目８番４号,,27,125,5590001,,,2024-06-13,清算の結了等,,,2019-01-30,1,,,,,エーエムプランニング,0
170,1122001027389,登記記録の閉鎖等,0,2024-06-14,2024-06-10,株式会社プロヴァック,,株式会社,大阪府,八尾市,高美町７丁目１番３１号,,27,212,5810017,,,2024-06-10,合併による解散等,2122001018008,令和６年６月１０日大阪府八尾市高美町七丁目１番３１号株式会社尾崎化成（2122001018008）に合併し解散,2015-10-05,1,,,,,プロヴァック,0
181,1140002062362,登記記録の閉鎖等,0,2024-06-14,2024-06-10,有限会社正中プラスチック工業所,,有限会社,兵庫県,加西市,北条町小谷１２０番地の２,,28,220,6752301,,,2024-06-10,清算の結了等,,,2015-10-05,1,,,,,ショウナカプラスチックコウギョウショ,0
212,1200001012601,登記記録の閉鎖等,0,2024-06-14,2024-06-11,ジーブロード株式会社,,株式会社,岐阜県,岐阜市,茜部本郷２丁目１２９番地１,,21,201,5008262,,,2024-06-11,清算の結了等,,,2015-10-05,1,,,,,ジーブロード,0
236,1290001096017,登記記録の閉鎖等,0,2024-06-14,2024-05-24,株式会社らいふ支援サポートすまいる,,株式会社,福岡県,飯塚市,西町８番３１号,,40,205,8200043,,,2024-05-24,清算の結了等,,,2022-01-17,1,,,,,ライフシエンサポートスマイル,0
239,1290001103425,登記記録の閉鎖等,0,2024-06-14,2024-05-22,ウリコネット株式会社,,株式会社,福岡県,福岡市東区,雁の巣２丁目２４番３５号,,40,131,8110206,,,2024-05-22,清算の結了等,,,2023-10-20,1,,,,,ウリコネット,0
259,1340003001811,登記記録の閉鎖等,0,2024-06-14,2024-06-10,ゆうきゅうたいむ合同会社,,合同会社,鹿児島県,鹿児島市,和田１丁目２８番２２号,,46,201,8910143,,,2024-06-10,清算の結了等,,,2015-10-05,1,,,,,ユウキュウタイム,0
286,1490005001745,登記記録の閉鎖等,0,2024-06-14,2024-06-11,医療法人スマイル,,その他の設立登記法人,高知県,高知市,竹島町１３番地１,,39,201,7808018,,,2024-06-11,清算の結了等,,,2015-10-05,1,,,,,スマイル,0
300,2010001211510,登記記録の閉鎖等,0,2024-06-14,2024-06-10,株式会社シンシアホールディングス,,株式会社,東京都,千代田区,有楽町１丁目１３番２号第一生命日比谷ファースト１８階,,13,101,1000006,,,2024-06-10,合併による解散等,1010701013059,令和６年６月１日東京都品川区南大井六丁目２６番３号株式会社シンシア（1010701013059）に合併し解散,2020-08-12,1,,,,,シンシアホールディングス,0
305,2010002052945,登記記録の閉鎖等,0,2024-06-14,2024-06-06,有限会社ソリッド,,有限会社,東京都,千代田区,岩本町２丁目１６番１７号,,13,101,1010032,,,2024-06-06,清算の結了等,,,2015-10-05,1,,,,,ソリッド,0
324,2010403017539,登記記録の閉鎖等,0,2024-06-14,2024-06-03,アドイン合同会社,,合同会社,東京都,港区,浜松町２丁目２番１５号浜松町ダイヤビル２Ｆ,,13,103,1050013,,,2024-06-03,清算の結了等,,,2017-10-31,1,,,,,アドイン,0
327,2010403029006,登記記録の閉鎖等,0,2024-06-14,2024-06-03,合同会社新谷第２発電所,,合同会社,東京都,港区,六本木３丁目２番１号,,13,103,1060032,,,2024-06-03,合併による解散等,3011001038942,令和６年６月１日東京都港区六本木三丁目２番１号合同会社ＤＭＭ．ｃｏｍ（3011001038942）に合併し解散,2022-12-01,1,,,,,シンタニダイニハツデンショ,0
361,2011105008891,登記記録の閉鎖等,0,2024-06-14,2024-06-05,ＭＭＦＵＳ２ＧＰ一般社団法人,,その他の設立登記法人,東京都,新宿区,四谷２丁目９番地１５東京ユナイテッド綜合事務所内,,13,104,1600004,,,2024-06-05,清算の結了等,,,2019-06-21,1,,,,,エムエムエフユーエスツージーピー,0
370,2011602007116,登記記録の閉鎖等,0,2024-06-14,2024-06-12,有限会社トーコーテック,,有限会社,長野県,北佐久郡軽井沢町,大字軽井沢１０４７番地５２,,20,321,3890102,,,2024-06-12,清算の結了等,,,2015-10-05,1,,,,,トーコーテック,0
372,2011701017536,登記記録の閉鎖等,0,2024-06-14,2024-06-05,株式会社日本グローバル商事,,株式会社,東京都,江戸川区,船堀２丁目４番６－２１０号,,13,123,1340091,,,2024-06-05,清算の結了等,,,2015-10-05,1,,,,,ニホングローバルショウジ,0
379,2012805002820,登記記録の閉鎖等,0,2024-06-14,2024-06-03,一般社団法人ローカルラボ多摩,,その他の設立登記法人,東京都,国立市,富士見台１丁目８番３８号,,13,215,1860003,,,2024-06-03,清算の結了等,,,2019-02-25,1,,,,,ローカルラボタマ,0
382,2013402007064,登記記録の閉鎖等,0,2024-06-14,2024-06-10,有限会社Ｙ’ｓコンサルティングオフィス,,有限会社,東京都,稲城市,若葉台３丁目１番地の１,,13,225,2060824,,,2024-06-10,清算の結了等,,,2015-10-05,1,,,,,ワイズコンサルティングオフィス,0
388,2020002046566,登記記録の閉鎖等,0,2024-06-14,2024-06-05,有限会社三水機械工業,,有限会社,神奈川県,横浜市泉区,和泉町７０２８番地２４,,14,116,2450016,,,2024-06-05,清算の結了等,,,2015-10-05,1,,,,,サンスイキカイコウギョウ,0
402,2040001031344,登記記録の閉鎖等,0,2024-06-14,2024-06-05,株式会社オフィスＭＯＵ,,株式会社,千葉県,浦安市,明海１丁目３番１号,,12,227,2790014,,,2024-06-05,清算の結了等,,,2015-10-05,1,,,,,オフィスモウ,0
419,2070001025946,登記記録の閉鎖等,0,2024-06-14,2024-06-12,株式会社ＯＮＯ,,株式会社,群馬県,高崎市,下滝町４７番地７,,10,202,3700026,,,2024-06-12,清算の結了等,,,2015-10-05,1,,,,,オーエヌオー,0
430,2080405007119,登記記録の閉鎖等,0,2024-06-14,2024-06-10,医療法人社団なかむらクリニック,,その他の設立登記法人,静岡県,湖西市,駅南１丁目５番６号,,22,221,4310427,,,2024-06-10,清算の結了等,,,2018-10-26,1,,,,,ナカムラクリニック,0
462,2120002060078,登記記録の閉鎖等,0,2024-06-14,2024-06-11,有限会社ウェイドイン,,有限会社,大阪府,大阪市北区,南森町２丁目３番２０号,,27,127,5300054,,,2024-06-11,清算の結了等,,,2015-10-05,1,,,,,ウェイドイン,0
474,2120101037522,登記記録の閉鎖等,0,2024-06-14,2024-06-10,株式会社光建設,,株式会社,大阪府,岸和田市,岡山町１８４番地の５,,27,202,5960814,,,2024-06-10,清算の結了等,,,2015-10-05,1,,,,,ヒカリケンセツ,0
494,2140001038313,登記記録の閉鎖等,0,2024-06-14,2024-06-11,株式会社かみや,,株式会社,兵庫県,たつの市,龍野町川原町１７４番地の３,,28,229,6794166,,,2024-06-11,清算の結了等,,,2015-10-05,1,,,,,カミヤ,0
497,2140005011571,登記記録の閉鎖等,0,2024-06-14,2024-06-10,医療法人社団近江クリニック,,その他の設立登記法人,兵庫県,尼崎市,栗山町２丁目２番６号,,28,202,6610013,,,2024-06-10,清算の結了等,,,2015-10-05,1,,,,,オウミクリニック,0
499,2150001009197,登記記録の閉鎖等,0,2024-06-14,2024-06-11,株式会社アスカ製作所,,株式会社,奈良県,桜井市,大字草川４９番地の４,,29,206,6330081,,,2024-06-11,清算の結了等,,,2015-10-05,1,,,,,アスカセイサクショ,0
519,2180301012815,登記記録の閉鎖等,0,2024-06-14,2024-06-04,享永カーコーポレーション株式会社,,株式会社,愛知県,安城市,藤井町新切４０番地,,23,212,4441164,,,2024-06-04,合併による解散等,5180301000239,令和６年６月１日愛知県岡崎市六名南二丁目４番地２０株式会社ウィン（5180301000239）に合併し解散,2015-10-05,1,,,,,キョウエイカーコーポレーション,0
520,2180301021691,登記記録の閉鎖等,0,2024-06-14,2024-05-31,株式会社ＭＯＭＯ．インターナショナル,,株式会社,愛知県,豊田市,神田町１丁目１番地１０,,23,211,4710868,,,2024-05-31,清算の結了等,,,2015-10-05,1,,,,,モモインターナショナル,0
532,2210002013365,登記記録の閉鎖等,0,2024-06-14,2024-06-07,有限会社弁天パーク,,有限会社,福井県,鯖江市,深江町６番１４号,,18,207,9160052,,,2024-06-07,清算の結了等,,,2015-10-05,1,,,,,ベンテンパーク,0
534,2230005007180,登記記録の閉鎖等,0,2024-06-14,2024-06-11,特定非営利活動法人アートＮＰＯヒミング,,その他の設立登記法人,富山県,氷見市,朝日本町１５番８号,,16,205,9350022,,,2024-06-11,清算の結了等,,,2015-10-05,1,,,,,アートエヌピーオーヒミング,0
535,2240001002283,登記記録の閉鎖等,0,2024-06-14,2024-06-11,叶屋物産株式会社,,株式会社,広島県,広島市中区,鉄砲町１０番８号,,34,101,7300017,,,2024-06-11,清算の結了等,,,2015-10-05,1,,,,,カノウヤブッサン,0
564,2340003002651,登記記録の閉鎖等,0,2024-06-14,2024-06-06,合同会社きみどり,,合同会社,鹿児島県,西之表市,東町１２８番地,,46,213,8913113,,,2024-06-06,清算の結了等,,,2018-09-12,1,,,,,キミドリ,0
569,2350001000862,登記記録の閉鎖等,0,2024-06-14,2024-06-10,株式会社善栄,,株式会社,宮崎県,宮崎市,丸山２丁目６７番地,,45,201,8800052,,,2024-06-10,清算の結了等,,,2015-10-05,1,,,,,ゼンエイ,0
570,2350001004252,登記記録の閉鎖等,0,2024-06-14,2024-06-07,株式会社子供未来研究所,,株式会社,宮崎県,都城市,久保原町４街区４３号,,45,202,8850086,,,2024-06-07,清算の結了等,,,2015-10-05,1,,,,,コドモミライケンキュウショ,0
591,2380005002324,登記記録の閉鎖等,0,2024-06-14,2024-06-10,特定非営利活動法人福島県緩和ケア支援ネットワーク,,その他の設立登記法人,福島県,福島市,郷野目字宝来町２１番地の３,,07,201,9608161,,,2024-06-10,清算の結了等,,,2015-10-05,1,,,,,,0
598,2400002010467,登記記録の閉鎖等,0,2024-06-14,2024-06-03,有限会社アップルバリー,,有限会社,岩手県,花巻市,藤沢町３５７番地１,,03,205,0250096,,,2024-06-03,合併による解散等,7400001005505,令和６年６月１日岩手県花巻市藤沢町３５７番地１株式会社ミッシェル（7400001005505）に合併し解散,2015-10-05,1,,,,,,0
608,2460302001680,登記記録の閉鎖等,0,2024-06-14,2024-06-12,有限会社ロータス商会,,有限会社,北海道,北見市,東三輪１丁目９６番地３７,,01,208,0900836,,,2024-06-12,清算の結了等,,,2015-10-05,1,,,,,,0
612,2470003000502,登記記録の閉鎖等,0,2024-06-14,2024-06-05,合資会社平井牛乳處理場,,合資会社,香川県,小豆郡土庄町,上庄１４９８番地,,37,322,7614122,,,2024-06-05,清算の結了等,,,2015-10-05,1,,,,,ヒライギュウニュウショリジョウ,0
618,2700150109114,削除,,2024-06-14,,,,,,,,,,,,,,,,,,,,,,,,,
627,3010001166943,登記記録の閉鎖等,0,2024-06-14,2024-06-10,株式会社フードイノベーション,,株式会社,東京都,足立区,千住３丁目６３番地,,13,121,1200034,,,2024-06-10,合併による解散等,2140001050821,令和６年５月３１日兵庫県尼崎市東海岸町１番地の４浜田化学株式会社（2140001050821）に合併し解散,2015-10-05,1,,,,,フードイノベーション,0
632,3010001218249,登記記録の閉鎖等,0,2024-06-14,2024-06-05,第一生物薬品株式会社,,株式会社,東京都,中央区,東日本橋２丁目２８番５号５０８,,13,102,1030004,,,2024-06-05,清算の結了等,,,2021-05-25,1,,,,,ダイイチセイブツヤクヒン,0
633,3010001222242,登記記録の閉鎖等,0,2024-06-14,2024-06-03,株式会社オープンハウス桐生,,株式会社,東京都,千代田区,丸の内３丁目３番１号,,13,101,1000005,,,2024-06-03,合併による解散等,8010001164356,令和６年６月１日東京都千代田区丸の内二丁目７番２号株式会社オープンハウス群馬（8010001164356）に合併し解散,2021-11-05,1,,,,,オープンハウスキリュウ,0
659,3010403029005,登記記録の閉鎖等,0,2024-06-14,2024-06-03,合同会社新谷第１発電所,,合同会社,東京都,港区,六本木３丁目２番１号,,13,103,1060032,,,2024-06-03,合併による解散等,3011001038942,令和６年６月１日東京都港区六本木三丁目２番１号合同会社ＤＭＭ．ｃｏｍ（3011001038942）に合併し解散,2022-12-01,1,,,,,シンタニダイイチハツデンショ,0
660,3010403029211,登記記録の閉鎖等,0,2024-06-14,2024-06-03,合同会社ソーラーパーク１４号,,合同会社,東京都,港区,六本木３丁目２番１号,,13,103,1060032,,,2024-06-03,合併による解散等,3011001038942,令和６年６月１日東京都港区六本木三丁目２番１号合同会社ＤＭＭ．ｃｏｍ（3011001038942）に合併し解散,2022-12-27,1,,,,,ソーラーパークジュウヨンゴウ,0
663,3010405017362,登記記録の閉鎖等,0,2024-06-14,2024-05-31,一般社団法人日本マインド・モチベーター協会,,その他の設立登記法人,東京都,港区,赤坂８丁目１２番１９号,,13,103,1070052,,,2024-05-31,清算の結了等,,,2019-01-23,1,,,,,ニホンマインドモチベーターキョウカイ,0
674,3011001096858,登記記録の閉鎖等,0,2024-06-14,2024-06-05,株式会社名創優品産業,,株式会社,東京都,中央区,銀座６丁目１３番７号新保ビル４０１,,13,102,1040061,,,2024-06-05,清算の結了等,,,2015-10-05,1,,,,,メイソウユウヒンサンギョウ,0
675,3011001105239,登記記録の閉鎖等,0,2024-06-14,2024-06-10,株式会社マーク・コーポレーション,,株式会社,東京都,葛飾区,西新小岩４丁目１９番３号,,13,122,1240025,,,2024-06-10,清算の結了等,,,2015-10-05,1,,,,,マークコーポレーション,0
685,3011203003182,登記記録の閉鎖等,0,2024-06-14,2024-06-12,合同会社ＫＩＭＵＲＡ,,合同会社,東京都,中野区,新井１丁目１４番１６号ライオンズマンション中野第５Ｂ１０８,,13,114,1650026,,,2024-06-12,清算の結了等,,,2019-12-24,1,,,,,キムラ,0
688,3011702010571,登記記録の閉鎖等,0,2024-06-14,2024-06-11,有限会社前野金型製作所,,有限会社,東京都,江戸川区,松江２丁目７番２号,,13,123,1320025,,,2024-06-11,清算の結了等,,,2015-10-05,1,,,,,マエノカナガタセイサクショ,0
693,3011803005041,登記記録の閉鎖等,0,2024-06-14,2024-06-12,エタンセルエンタテインメント合同会社,,合同会社,東京都,足立区,小台２丁目５番地１号１１０３号,,13,121,1200046,,,2024-06-12,清算の結了等,,,2022-04-11,1,,,,,エタンセルエンタテインメント,0
696,3012402001027,登記記録の閉鎖等,0,2024-06-14,2024-06-10,近藤電気工事有限会社,,有限会社,東京都,府中市,朝日町２丁目１８番地の１,,13,206,1830003,,,2024-06-10,清算の結了等,,,2015-10-05,1,,,,,コンドウデンキコウジ,0
722,3030003013885,登記記録の閉鎖等,0,2024-06-14,2024-06-12,合同会社春日部育英キャリアサポート,,合同会社,埼玉県,春日部市,南３丁目１０－１０－３,,11,214,3440064,,,2024-06-12,清算の結了等,,,2019-08-05,1,,,,,カスカベイクエイキャリアサポート,0
740,3050003004494,登記記録の閉鎖等,0,2024-06-14,2024-06-10,Ｐａｒａｍｉ　Ｉｎｔｅｒｎａｔｉｏｎａｌ合同会社,,合同会社,茨城県,小美玉市,先後３２２番１,,08,236,3190108,,,2024-06-10,清算の結了等,,,2019-01-16,1,,,,,パラミインターナショナル,0
741,3050005002406,登記記録の閉鎖等,0,2024-06-14,2024-06-12,全日食チェーン茨城協同組合,,その他の設立登記法人,茨城県,水戸市,青柳町４５６６番地,,08,201,3100004,,,2024-06-12,合併による解散等,6011805000995,令和６年６月１日東京都足立区入谷六丁目２番２号全日食チェーン関東協同組合（6011805000995）に合併し解散,2015-10-05,1,,,,,ゼンニッショクチェーンイバラキ,0
759,3100003006106,登記記録の閉鎖等,0,2024-06-14,2024-06-12,ＳＨＡＲＥ＆ＬＩＮＫ合同会社,,合同会社,長野県,松本市,岡田町２１６－１,,20,202,3900315,,,2024-06-12,清算の結了等,,,2021-05-31,1,,,,,シェアドリンク,0
789,3120102000131,登記記録の閉鎖等,0,2024-06-14,2024-06-07,有限会社マリンコーポレーション,,有限会社,大阪府,高石市,加茂１丁目２番１７号,,27,225,5920011,,,2024-06-07,清算の結了等,,,2015-10-05,1,,,,,マリンコーポレーション,0
831,3180005018884,登記記録の閉鎖等,0,2024-06-14,2024-06-06,特定非営利活動法人知多光貴クラブ,,その他の設立登記法人,愛知県,知多市,新知台２丁目５番地の２６,,23,224,4780064,,,2024-06-06,清算の結了等,,,2020-07-16,1,,,,,チタコウキクラブ,0
847,3220003002092,登記記録の閉鎖等,0,2024-06-14,2024-06-06,合同会社シミズ食品衛生研究所,,合同会社,石川県,七尾市,本府中町ト部２８番地５,,17,202,9260021,,,2024-06-06,清算の結了等,,,2016-01-07,1,,,,,シミズショクヒンエイセイケンキュウショ,0
853,3240005009729,登記記録の閉鎖等,0,2024-06-14,2024-06-11,医療法人暁侑会ワダ歯科クリニック,,その他の設立登記法人,広島県,府中市,高木町６１番地の３,,34,208,7260013,,,2024-06-11,清算の結了等,,,2015-10-05,1,,,,,ギョウユウカイワダシカクリニック,0
866,3290001075142,登記記録の閉鎖等,0,2024-06-14,2024-06-10,株式会社ｄａｔａＸ　Ｆｕｋｕｏｋａ,,株式会社,福岡県,福岡市中央区,天神４丁目４番１１号,,40,133,8100001,,,2024-06-10,合併による解散等,1011101056020,令和６年６月１日東京都新宿区西新宿七丁目２０番１号株式会社データＸ（1011101056020）に合併し解散,2016-09-12,1,,,,,データエックスフクオカ,0
868,3290003013579,登記記録の閉鎖等,0,2024-06-14,2024-04-26,合同会社セカンド,,合同会社,福岡県,福岡市早良区,城西２丁目６‐７ファーネスト西新レジデンス４０１号室,,40,137,8140003,,,2024-04-26,清算の結了等,,,2023-02-27,1,,,,,セカンド,0
869,3290801026047,登記記録の閉鎖等,0,2024-06-14,2024-06-06,株式会社中亜国際旅行社,,株式会社,福岡県,北九州市門司区,原町別院１５番３３号,,40,101,8000037,,,2024-06-06,清算の結了等,,,2019-11-13,1,,,,,チュウアコクサイリョコウシャ,0
882,3330002012593,登記記録の閉鎖等,0,2024-06-14,2024-06-10,有限会社アペルタ,,有限会社,熊本県,熊本市中央区,九品寺４丁目１１番９号,,43,101,8620976,,,2024-06-10,清算の結了等,,,2015-10-05,1,,,,,アペルタ,0
901,3430001031964,登記記録の閉鎖等,0,2024-06-14,2024-06-11,株式会社ライフパストラベル,,株式会社,北海道,札幌市北区,篠路一条８丁目６番３０号,,01,102,0028021,,,2024-06-11,清算の結了等,,,2015-10-05,1,,,,,ライフパストラベル,0
912,3490002000236,登記記録の閉鎖等,0,2024-06-14,2024-06-12,有限会社アサキ商店,,有限会社,高知県,高知市,朝倉己１６６番地７,,39,201,7808066,,,2024-06-12,清算の結了等,,,2015-10-05,1,,,,,アサキショウテン,0
915,3700150116687,削除,,2024-06-14,,,,,,,,,,,,,,,,,,,,,,,,,
931,4010001206582,登記記録の閉鎖等,0,2024-06-14,2024-06-11,ディレクト・ホールディングス株式会社,,株式会社,東京都,千代田区,神田三崎町２丁目１５番６号,,13,101,1010061,,,2024-06-11,合併による解散等,8011201016982,令和６年６月１日大阪市西区立売堀二丁目１番９号日本サイン株式会社（8011201016982）に合併し解散,2020-01-09,1,,,,,ディレクトホールディングス,0
936,4010003038108,登記記録の閉鎖等,0,2024-06-14,2024-06-04,合同会社ＺＥＨＰＪ１,,合同会社,東京都,中央区,銀座４丁目６番１号三幸アセットマネジメント株式会社内,,13,102,1040061,,,2024-06-04,清算の結了等,,,2022-07-12,1,,,,,ゼッチピージェーワン,0
939,4010102010586,登記記録の閉鎖等,0,2024-06-14,2024-06-10,有限会社多摩損害保険事務所,,有限会社,東京都,八王子市,西寺方町６２５番地の２,,13,201,1920153,,,2024-06-10,清算の結了等,,,2015-10-05,1,,,,,タマソンガイホケンジムショ,0
967,4011003017919,登記記録の閉鎖等,0,2024-06-14,2024-05-30,合同会社ＰＲＯＣＥＥＤ,,合同会社,東京都,目黒区,下目黒２丁目８番２－８１０号ハイネス目黒,,13,110,1530064,,,2024-05-30,清算の結了等,,,2023-11-13,1,,,,,プロシード,0
987,4011702000175,登記記録の閉鎖等,0,2024-06-14,2024-06-07,アーテクト有限会社,,有限会社,東京都,江戸川区,東葛西９丁目１０番１号,,13,123,1340084,,,2024-06-07,清算の結了等,,,2015-10-05,1,,,,,アーテクト,0
988,4011702007088,登記記録の閉鎖等,0,2024-06-14,2024-06-05,有限会社高瀬電設,,有限会社,東京都,江戸川区,清新町１丁目１番１８－６１０号,,13,123,1340087,,,2024-06-05,清算の結了等,,,2015-10-05,1,,,,,タカセデンセツ,0
992,4011802003466,登記記録の閉鎖等,0,2024-06-14,2024-06-10,有限会社三陽工業,,有限会社,東京都,葛飾区,西亀有２丁目３９番１８号,,13,122,1240002,,,2024-06-10,清算の結了等,,,2015-10-05,1,,,,,サンヨウコウギョウ,0
994,4012303001521,登記記録の閉鎖等,0,2024-06-14,2024-06-10,サイバリスタ合同会社,,合同会社,東京都,町田市,南大谷１４２６番地２３６,,13,209,1940031,,,2024-06-10,清算の結了等,,,2021-04-13,1,,,,,サイバリスタ,0
1002,4020001093310,登記記録の閉鎖等,0,2024-06-14,2024-06-05,株式会社蒼優,,株式会社,神奈川県,横浜市鶴見区,市場大和町４番２６－８０１号,,14,101,2300025,,,2024-06-05,清算の結了等,,,2015-10-05,1,,,,,ソウユウ,0
1003,4020002020635,登記記録の閉鎖等,0,2024-06-14,2024-06-05,有限会社井上汽缶,,有限会社,神奈川県,横浜市旭区,今宿２丁目６８番１号,,14,112,2410817,,,2024-06-05,清算の結了等,,,2015-10-05,1,,,,,,0
1040,4070002029143,登記記録の閉鎖等,0,2024-06-14,2024-06-10,有限会社小柴工業,,有限会社,群馬県,太田市,由良町３０３６番地,,10,205,3730036,,,2024-06-10,清算の結了等,,,2015-10-05,1,,,,,コシバコウギョウ,0
1052,4110002020312,登記記録の閉鎖等,0,2024-06-14,2024-06-07,有限会社エムアイ技研,,有限会社,新潟県,柏崎市,大字畔屋１０６０番地１,,15,205,9450112,,,2024-06-07,清算の結了等,,,2015-10-05,1,,,,,エムアイギケン,0
1058,4120001039484,登記記録の閉鎖等,0,2024-06-14,2024-06-12,西浦金型工業株式会社,,株式会社,大阪府,大阪市浪速区,塩草３丁目３番５号,,27,111,5560024,,,2024-06-12,清算の結了等,,,2015-10-05,1,,,,,ニシウラカナガタコウギョウ,0
1059,4120001110022,登記記録の閉鎖等,0,2024-06-14,2024-06-13,株式会社ゆとり,,株式会社,大阪府,大阪市西区,九条南４丁目５番２３号,,27,106,5500025,,,2024-06-13,清算の結了等,,,2015-10-05,1,,,,,ユトリ,0
1105,4180001035965,登記記録の閉鎖等,0,2024-06-14,2024-06-06,株式会社小林印刷所,,株式会社,愛知県,名古屋市中区,千代田５丁目１９番１３号,,23,106,4600012,,,2024-06-06,清算の結了等,,,2015-10-05,1,,,,,コバヤシインサツジョ,0
1125,4230002011869,登記記録の閉鎖等,0,2024-06-14,2024-06-12,福島機械工業有限会社,,有限会社,富山県,高岡市,野村６９３番地の２,,16,202,9330014,,,2024-06-12,清算の結了等,,,2015-10-05,1,,,,,フクシマキカイコウギョウ,0
1147,4300001007555,登記記録の閉鎖等,0,2024-06-14,2024-06-11,興和日東株式会社,,株式会社,佐賀県,多久市,東多久町大字別府４１９２番地,,41,204,8460012,,,2024-06-11,合併による解散等,2290001002254,令和６年６月１日福岡市博多区博多駅東二丁目６番２３号株式会社ダブリュコーポレーション（2290001002254）に合併し解散,2015-10-05,1,,,,,コウワニットウ,0
1153,4340002002130,登記記録の閉鎖等,0,2024-06-14,2024-06-10,有限会社大谷画材,,有限会社,鹿児島県,鹿児島市,加治屋町１１番１号,,46,201,8920846,,,2024-06-10,清算の結了等,,,2015-10-05,1,,,,,オオタニガザイ,0
1156,4360001022359,登記記録の閉鎖等,0,2024-06-14,2024-05-24,株式会社サニーコースト,,株式会社,福岡県,福岡市博多区,祇園町８番１３号第一プリンスビル,,40,132,8120038,,,2024-05-24,清算の結了等,,,2017-05-22,1,,,,,サニーコースト,0
1171,4430001053479,登記記録の閉鎖等,0,2024-06-14,2024-06-10,苫小牧熱サービス株式会社,,株式会社,北海道,苫小牧市,日新町４丁目１番１号,,01,213,0530833,,,2024-06-10,清算の結了等,,,2015-10-05,1,,,,,トマコマイネツサービス,0
1185,4470002019351,登記記録の閉鎖等,0,2024-06-14,2024-06-03,有限会社美城,,有限会社,香川県,小豆郡小豆島町,安田甲２３０番地４,,37,324,7614411,,,2024-06-03,合併による解散等,4470002019310,令和６年６月１日香川県小豆郡小豆島町安田甲３３６番地３株式会社早川石油店（4470002019310）に合併し解散,2015-10-05,1,,,,,ミキ,0
1189,4700150113782,削除,,2024-06-14,,,,,,,,,,,,,,,,,,,,,,,,,
1210,5010003040260,登記記録の閉鎖等,0,2024-06-14,2024-06-05,ＡＳＯＲＥ合同会社,,合同会社,東京都,中央区,銀座１丁目２２番１１号銀座大竹ビジデンス２Ｆ,,13,102,1040061,,,2024-06-05,清算の結了等,,,2023-04-10,1,,,,,アソレ,0
1218,5010401135190,登記記録の閉鎖等,0,2024-06-14,2024-06-03,株式会社セプトプリュス,,株式会社,東京都,港区,北青山３丁目５番１７号,,13,103,1070061,,,2024-06-03,合併による解散等,2010401058238,令和６年６月１日東京都港区北青山三丁目５番１７号株式会社セプト（2010401058238）に合併し解散,2017-11-27,1,,,,,セプトプリュス,0
1225,5010403030720,登記記録の閉鎖等,0,2024-06-14,2024-06-03,合同会社ソーラーパーク３５号,,合同会社,東京都,港区,六本木３丁目２番１号,,13,103,1060032,,,2024-06-03,合併による解散等,3011001038942,令和６年６月１日東京都港区六本木三丁目２番１号合同会社ＤＭＭ．ｃｏｍ（3011001038942）に合併し解散,2023-08-17,1,,,,,ソーラーパーサンジュウゴゴウ,0
1236,5010801025751,登記記録の閉鎖等,0,2024-06-14,2024-06-06,株式会社中央エイト,,株式会社,東京都,大田区,中央８丁目３３番３－２０１号,,13,111,1430024,,,2024-06-06,清算の結了等,,,2015-10-05,1,,,,,チュウオウエイト,0
1238,5010901009019,登記記録の閉鎖等,0,2024-06-14,2024-06-12,日本システム株式会社,,株式会社,東京都,品川区,大井６丁目１７番１７号,,13,109,1400014,,,2024-06-12,清算の結了等,,,2015-10-05,1,,,,,ニホンシステム,0
1288,5021002028147,登記記録の閉鎖等,0,2024-06-14,2024-06-12,有限会社相北工業,,有限会社,神奈川県,相模原市緑区,橋本台３丁目１４番９号,,14,151,2520132,,,2024-06-12,清算の結了等,,,2015-10-05,1,,,,,,0
1293,5030001148582,登記記録の閉鎖等,0,2024-06-14,2024-06-11,株式会社Ｌｉｋｎｏｗｌｅｄｇｅ,,株式会社,埼玉県,所沢市,美原町２丁目２９４１番地の２９,,11,208,3590045,,,2024-06-11,清算の結了等,,,2022-06-14,1,,,,,リナレッジ,0
1297,5030002027967,登記記録の閉鎖等,0,2024-06-14,2024-06-10,有限会社會田昇工務店,,有限会社,埼玉県,所沢市,大字山口２８７６番地の５,,11,208,3591145,,,2024-06-10,清算の結了等,,,2015-10-05,1,,,,,アイダノボルコウムテン,0
1301,5030003011078,登記記録の閉鎖等,0,2024-06-14,2024-06-11,ニイジマケアプランニング合同会社,,合同会社,埼玉県,蓮田市,大字高虫１１５０番地８,,11,238,3490137,,,2024-06-11,清算の結了等,,,2017-11-30,1,,,,,ニイジマケアプランニング,0
1303,5030005021620,削除,,2024-06-14,,,,,,,,,,,,,,,,,,,,,,,,,
1307,5040001078481,登記記録の閉鎖等,0,2024-06-14,2024-06-04,株式会社ＦＩＮＥメディカル,,株式会社,千葉県,千葉市若葉区,都賀２丁目１１番８号,,12,104,2640025,,,2024-06-04,清算の結了等,,,2015-10-05,1,,,,,ファインメデイカル,0
1317,5040002032669,登記記録の閉鎖等,0,2024-06-14,2024-06-04,有限会社岩澤商店,,有限会社,千葉県,市川市,八幡３丁目２０番６号,,12,203,2720021,,,2024-06-04,清算の結了等,,,2015-10-05,1,,,,,イワサワショウテン,0
1327,5050005003674,登記記録の閉鎖等,0,2024-06-14,2024-06-10,石岡市御幸通り商店街振興組合,,その他の設立登記法人,茨城県,石岡市,府中１丁目３番５号石岡商工会議所「サポート・ワン」,,08,205,3150013,,,2024-06-10,清算の結了等,,,2015-10-05,1,,,,,イシオカシミユキドオリ,0
1335,5080001008229,登記記録の閉鎖等,0,2024-06-14,2024-06-07,新水産開発株式会社,,株式会社,静岡県,静岡市清水区,西久保４６７番地の１,,22,103,4240038,,,2024-06-07,清算の結了等,,,2015-10-05,1,,,,,シンスイサンカイハツ,0
1376,5120101054894,登記記録の閉鎖等,0,2024-06-14,2024-06-10,株式会社広靜義肢,,株式会社,大阪府,松原市,立部２丁目２２０番地の１,,27,217,5800012,,,2024-06-10,清算の結了等,,,2016-06-08,1,,,,,,0
1378,5120102029152,登記記録の閉鎖等,0,2024-06-14,2024-06-05,有限会社大成断熱,,有限会社,大阪府,羽曳野市,広瀬４５５番地２５号,,27,222,5830845,,,2024-06-05,清算の結了等,,,2024-04-18,1,,,,,タイセイダンネツ,0
1383,5122001000689,登記記録の閉鎖等,0,2024-06-14,2024-06-13,株式会社ヴァリュー,,株式会社,大阪府,東大阪市,布市町４丁目８番３５－１０８号,,27,227,5798004,,,2024-06-13,清算の結了等,,,2015-10-05,1,,,,,ヴァリュー,0
1387,5130001058540,登記記録の閉鎖等,0,2024-06-14,2024-06-13,株式会社リノベックス,,株式会社,京都府,京都市上京区,烏丸通上御霊前下る相国寺門前町６７０番地８エコル３０２号室,,26,102,6020898,,,2024-06-13,清算の結了等,,,2016-10-28,1,,,,,リノベックス,0
1403,5170002000613,登記記録の閉鎖等,0,2024-06-14,2024-06-13,エムケイエコ有限会社,,有限会社,和歌山県,和歌山市,西浜１４９４番地の１７,,30,201,6410036,,,2024-06-13,清算の結了等,,,2015-10-05,1,,,,,エムケイエコ,0
1412,5180002049204,登記記録の閉鎖等,0,2024-06-14,2024-06-12,有限会社和大タイル,,有限会社,愛知県,名古屋市千種区,田代町字四観音道西２１番地の２１,,23,101,4640052,,,2024-06-12,合併による解散等,8180301000285,令和６年６月１日愛知県岡崎市竜美台二丁目８番地８株式会社インテルグロー（8180301000285）に合併し解散,2015-10-05,1,,,,,カズヒロタイル,0
1415,5180302005856,登記記録の閉鎖等,0,2024-06-14,2024-06-06,有限会社共栄塾,,有限会社,愛知県,岡崎市,本宿町字城屋敷６５番地,,23,202,4443505,,,2024-06-06,清算の結了等,,,2015-10-05,1,,,,,キョウエイジュク,0
1416,5180302025202,登記記録の閉鎖等,0,2024-06-14,2024-06-05,有限会社エバーグリーン,,有限会社,愛知県,豊田市,京町４丁目１５番地４,,23,211,4710063,,,2024-06-05,清算の結了等,,,2015-10-05,1,,,,,エバーグリーン,0
1419,5190001025808,登記記録の閉鎖等,0,2024-06-14,2024-06-12,株式会社コミト商会,,株式会社,三重県,いなべ市,大安町梅戸２２４番地,,24,214,5110284,,,2024-06-12,清算の結了等,,,2018-08-22,1,,,,,コミトショウカイ,0
1432,5250001011818,登記記録の閉鎖等,0,2024-06-14,2024-06-07,山本商事株式会社,,株式会社,山口県,岩国市,美和町渋前５１８番地,,35,208,7401225,,,2024-06-07,清算の結了等,,,2015-10-05,1,,,,,ヤマモトショウジ,0
1439,5260002025799,登記記録の閉鎖等,0,2024-06-14,2024-06-04,有限会社仁後車体,,有限会社,岡山県,井原市,西方町１４９２番地,,33,207,7150015,,,2024-06-04,清算の結了等,,,2015-10-05,1,,,,,ニゴシャタイ,0
1442,5270005003909,登記記録の閉鎖等,0,2024-06-14,2024-06-07,特定非営利活動法人がいなネット,,その他の設立登記法人,鳥取県,米子市,河崎５８０番地,,31,202,6830852,,,2024-06-07,清算の結了等,,,2015-10-05,1,,,,,ガイナネット,0
1456,5310005002022,登記記録の閉鎖等,0,2024-06-14,2024-06-07,特定非営利活動法人ＮＥＯＣＩ,,その他の設立登記法人,東京都,中央区,日本橋浜町３丁目３５番５号,,13,102,1030007,,,2024-06-07,清算の結了等,,,2015-10-05,1,,,,,ネオシーアイ,0
1475,5380002015425,登記記録の閉鎖等,0,2024-06-14,2024-06-10,有限会社ワタナベ技建,,有限会社,福島県,田村市,大越町上大越字下内１９８番地,,07,211,9634111,,,2024-06-10,清算の結了等,,,2015-10-05,1,,,,,ワタナベギケン,0
1486,5420002018027,登記記録の閉鎖等,0,2024-06-14,2024-06-10,有限会社カネマン移設,,有限会社,青森県,上北郡おいらせ町,苗平谷地２５番地の４,,02,412,0392223,,,2024-06-10,清算の結了等,,,2015-10-05,1,,,,,カネマンイセツ,0
1500,5700150118483,削除,,2024-06-14,,,,,,,,,,,,,,,,,,,,,,,,,
1515,6010001202539,登記記録の閉鎖等,0,2024-06-14,2024-06-05,株式会社マッシュホームズ,,株式会社,東京都,千代田区,麹町５丁目７番地２,,13,101,1020083,,,2024-06-05,合併による解散等,7011001096549,令和６年６月１日東京都千代田区麹町五丁目７番地１株式会社マッシュデザインラボ（7011001096549）に合併し解散,2019-07-22,1,,,,,マッシュホームズ,0
1526,6010401126197,登記記録の閉鎖等,0,2024-06-14,2024-06-11,オリックス・フードサプライ株式会社,,株式会社,東京都,港区,浜松町２丁目４番１号,,13,103,1050013,,,2024-06-11,清算の結了等,,,2016-08-02,1,,,,,オリックスフードサプライ,0
1528,6010401153588,登記記録の閉鎖等,0,2024-06-14,2024-05-31,株式会社クラウドホースファーム,,株式会社,東京都,港区,海岸２丁目５番１－１００７号,,13,103,1050022,,,2024-05-31,合併による解散等,8010401136764,令和６年５月３１日東京都港区六本木六丁目８番１０号ＮＩＮＪＩＮ株式会社（8010401136764）に合併し解散,2020-06-24,1,,,,,クラウドホースファーム,0
1535,6010403022709,登記記録の閉鎖等,0,2024-06-14,2024-04-23,合同会社ＦＯＣＦ,,合同会社,東京都,港区,六本木６丁目３番１号,,13,103,1060032,,,2024-04-23,清算の結了等,,,2020-03-26,1,,,,,エフオーシーエフ,0
1537,6010403029010,登記記録の閉鎖等,0,2024-06-14,2024-06-03,合同会社ソーラーパーク２０号,,合同会社,東京都,港区,六本木３丁目２番１号,,13,103,1060032,,,2024-06-03,合併による解散等,3011001038942,令和６年６月１日東京都港区六本木三丁目２番１号合同会社ＤＭＭ．ｃｏｍ（3011001038942）に合併し解散,2022-12-01,1,,,,,ソーラーパークニジュウゴウ,0
1548,6010901016699,登記記録の閉鎖等,0,2024-06-14,2024-06-11,株式会社ウェルビーイング,,株式会社,東京都,世田谷区,成城１丁目７番６号,,13,112,1570066,,,2024-06-11,清算の結了等,,,2015-10-05,1,,,,,,0
1556,6011001153045,登記記録の閉鎖等,0,2024-06-14,2024-06-03,株式会社借地アセット,,株式会社,東京都,渋谷区,道玄坂２丁目１８番１１号サンモール道玄坂５１７号,,13,113,1500043,,,2024-06-03,清算の結了等,,,2023-03-09,1,,,,,シャクチアセット,0
1568,6011102022108,登記記録の閉鎖等,0,2024-06-14,2024-06-07,小林ケアサービス有限会社,,有限会社,東京都,新宿区,岩戸町２番１－１４０３号,,13,104,1620832,,,2024-06-07,清算の結了等,,,2015-10-05,1,,,,,コバヤシケアサービス,0
1573,6011302003956,登記記録の閉鎖等,0,2024-06-14,2024-06-07,有限会社サスグループ,,有限会社,東京都,杉並区,善福寺１丁目１２番２号,,13,115,1670041,,,2024-06-07,清算の結了等,,,2015-10-05,1,,,,,サスグループ,0
1603,6020001102993,登記記録の閉鎖等,0,2024-06-14,2024-06-05,株式会社フロントステージ,,株式会社,神奈川県,横浜市都筑区,佐江戸町１７２２番地藤和ライブタウン中山５－５０１号,,14,118,2240054,,,2024-06-05,清算の結了等,,,2015-10-05,1,,,,,フロントステージ,0
1612,6021001042965,登記記録の閉鎖等,0,2024-06-14,2024-06-12,株式会社オアシス,,株式会社,神奈川県,逗子市,桜山６丁目１７番２号,,14,208,2490005,,,2024-06-12,清算の結了等,,,2015-10-05,1,,,,,オアシス,0
1618,6021005009647,登記記録の閉鎖等,0,2024-06-14,2024-06-05,特定非営利活動法人市民後見の会かながわ,,その他の設立登記法人,神奈川県,厚木市,王子２丁目１５番１８号,,14,212,2430817,,,2024-06-05,清算の結了等,,,2015-10-05,1,,,,,シミンコウケンノカイカナガワ,0
1626,6040002065651,登記記録の閉鎖等,0,2024-06-14,2024-06-03,有限会社会津屋渡部畳店,,有限会社,千葉県,佐倉市,臼井１４１１番地５,,12,212,2850863,,,2024-06-03,清算の結了等,,,2015-10-05,1,,,,,アイヅヤワタナベタタミテン,0
1660,6120001205472,登記記録の閉鎖等,0,2024-06-14,2024-06-11,株式会社キャスト,,株式会社,大阪府,大阪市北区,梅田１丁目１番３号大阪駅前第３ビル,,27,127,5300001,,,2024-06-11,合併による解散等,2011001115189,令和６年４月１日東京都渋谷区渋谷一丁目２番５号ＭＦＰＲ渋谷ビル株式会社キューボ（2011001115189）に合併し解散,2017-05-12,1,,,,,キャスト,0
1694,6180001119709,登記記録の閉鎖等,0,2024-06-14,2024-06-06,株式会社英雄,,株式会社,愛知県,春日井市,不二ガ丘１丁目５７番地２,,23,206,4870023,,,2024-06-06,清算の結了等,,,2015-10-05,1,,,,,エイユウ,0
1698,6180002077476,登記記録の閉鎖等,0,2024-06-14,2024-06-10,Ｂ＆Ｗ株式会社,,株式会社,愛知県,一宮市,緑４丁目６番１５号プリエール２１（１０３号室）,,23,203,4910862,,,2024-06-10,合併による解散等,1240001050259,令和６年３月９日広島市中区銀山町３番１号みらい株式会社（1240001050259）に合併し解散,2015-10-05,1,,,,,ビーアンドダブリュー,0
1700,6180301008438,登記記録の閉鎖等,0,2024-06-14,2024-06-05,株式会社黒柳,,株式会社,愛知県,豊橋市,山田町字瀬戸２４番地,,23,201,4418101,,,2024-06-05,清算の結了等,,,2015-10-05,1,,,,,クロヤナギ,0
1702,6180302000352,登記記録の閉鎖等,0,2024-06-14,2024-06-04,イチ・エンタープライズ有限会社,,有限会社,愛知県,岡崎市,六名南２丁目４番地２０,,23,202,4440845,,,2024-06-04,合併による解散等,5180301000239,令和６年６月１日愛知県岡崎市六名南二丁目４番地２０株式会社ウィン（5180301000239）に合併し解散,2015-10-05,1,,,,,イチエンタープライズ,0
1738,6310002009102,登記記録の閉鎖等,0,2024-06-14,2024-06-04,有限会社池亀建設,,有限会社,長崎県,佐世保市,峰坂町５番６号,,42,202,8570861,,,2024-06-04,清算の結了等,,,2015-10-05,1,,,,,イケガメケンセツ,0
1757,6380001017487,登記記録の閉鎖等,0,2024-06-14,2024-06-10,株式会社城南建設,,株式会社,福島県,会津若松市,天神町２４番７号,,07,202,9650832,,,2024-06-10,清算の結了等,,,2015-10-05,1,,,,,ジョウナンケンセツ,0
1770,6410001009745,登記記録の閉鎖等,0,2024-06-14,2024-06-06,ありがとう株式会社,,株式会社,秋田県,秋田市,御所野地蔵田４丁目２３番４号,,05,201,0101413,,,2024-06-06,清算の結了等,,,2015-10-05,1,,,,,アリガトウ,0
1778,6440002008363,登記記録の閉鎖等,0,2024-06-14,2024-06-12,有限会社キープロス,,有限会社,北海道,函館市,中島町１４番５号,,01,202,0400014,,,2024-06-12,清算の結了等,,,2015-10-05,1,,,,,キープロス,0
1783,6470003001422,登記記録の閉鎖等,0,2024-06-14,2024-06-10,サンウェーブ合同会社,,合同会社,香川県,高松市,林町２１３８番地１,,37,201,7610301,,,2024-06-10,清算の結了等,,,2018-06-04,1,,,,,サンウェーブ,0
1792,7010001126943,登記記録の閉鎖等,0,2024-06-14,2024-06-05,オーシャンステージ株式会社,,株式会社,東京都,中央区,築地３丁目２番５号,,13,102,1040045,,,2024-06-05,清算の結了等,,,2015-10-05,1,"Ocean Stage INC.,",Tokyo,"3-2-5, Tsukiji, Chuo ku",,オーシャンステージ,0
1796,7010001222528,登記記録の閉鎖等,0,2024-06-14,2024-06-03,株式会社キミナラ,,株式会社,東京都,中央区,日本橋浜町２丁目３５番７号,,13,102,1030007,,,2024-06-03,合併による解散等,7010001240182,令和６年６月１日東京都中央区日本橋兜町２０番５号兜町八千代ビルディング８階株式会社キミナラ（7010001240182）に合併し解散,2021-11-16,1,,,,,キミナラ,0
1805,7010401048102,登記記録の閉鎖等,0,2024-06-14,2024-06-12,聖和不動産株式会社,,株式会社,東京都,港区,高輪１丁目１９番５－３０３号,,13,103,1080074,,,2024-06-12,清算の結了等,,,2015-10-05,1,,,,,,0
1806,7010401138670,登記記録の閉鎖等,0,2024-06-14,2024-06-03,ＹＵＩ株式会社,,株式会社,東京都,港区,浜松町２丁目２番１５号,,13,103,1050013,,,2024-06-03,清算の結了等,,,2018-05-31,1,,,,,ユイ,0
1809,7010401144017,登記記録の閉鎖等,0,2024-06-14,2024-06-04,大有商事株式会社,,株式会社,東京都,新宿区,高田馬場２丁目１４番２号新陽ビル１０階,,13,104,1690075,,,2024-06-04,清算の結了等,,,2019-02-27,1,,,,,ダイユウショウジ,0
1810,7010401164114,登記記録の閉鎖等,0,2024-06-14,2024-05-31,空間工房株式会社,,株式会社,東京都,港区,芝大門２丁目９－８シャンデールビル２－Ｂ,,13,103,1050012,,,2024-05-31,清算の結了等,,,2021-12-01,1,,,,,クウカンコウボウ,0
1814,7010403009473,登記記録の閉鎖等,0,2024-06-14,2024-06-12,ウエストゲート株式会社,,株式会社,東京都,港区,虎ノ門３丁目２２番１０－２０１号,,13,103,1050001,,,2024-06-12,合併による解散等,9013301032693,令和６年６月１日東京都豊島区東池袋一丁目５番６号カシワエステート合同会社（9013301032693）に合併し解散,2015-10-05,1,,,,,ウエストゲート,0
1816,7010403016643,登記記録の閉鎖等,0,2024-06-14,2024-06-04,ＳＴＣ５合同会社,,合同会社,東京都,千代田区,永田町２丁目１０番１号,,13,101,1000014,,,2024-06-04,清算の結了等,,,2017-05-24,1,,,,,エスティーシーファイブ,0
1817,7010403030719,登記記録の閉鎖等,0,2024-06-14,2024-06-03,合同会社ソーラーパーク３４号,,合同会社,東京都,港区,六本木３丁目２番１号,,13,103,1060032,,,2024-06-03,合併による解散等,3011001038942,令和６年６月１日東京都港区六本木三丁目２番１号合同会社ＤＭＭ．ｃｏｍ（3011001038942）に合併し解散,2023-08-17,1,,,,,ソーラーパーサンジュウヨンゴウ,0
1871,7011802002564,登記記録の閉鎖等,0,2024-06-14,2024-06-10,有限会社林不動産,,有限会社,東京都,葛飾区,東金町１丁目４５番２号,,13,122,1250041,,,2024-06-10,清算の結了等,,,2015-10-05,1,,,,,ハヤシフドウサン,0
1872,7012301007311,登記記録の閉鎖等,0,2024-06-14,2024-06-12,株式会社メトロ建築計画,,株式会社,東京都,町田市,東玉川学園１丁目１４番１８号,,13,209,1940042,,,2024-06-12,清算の結了等,,,2015-10-05,1,,,,,メトロケンチクケイカク,0
1877,7013301029031,登記記録の閉鎖等,0,2024-06-14,2024-06-05,株式会社チバ・プランニング,,株式会社,東京都,豊島区,東池袋４丁目２７番５号,,13,116,1700013,,,2024-06-05,清算の結了等,,,2015-10-05,1,,,,,チバプランニング,0
1901,7021002011217,登記記録の閉鎖等,0,2024-06-14,2024-06-07,株式会社サン・メディカル,,株式会社,神奈川県,茅ヶ崎市,幸町７番２０号,,14,207,2530052,,,2024-06-07,合併による解散等,3120001105881,令和６年６月１日大阪市中央区久太郎町二丁目２番７号株式会社ヘルシーワーク（3120001105881）に合併し解散,2015-10-05,1,,,,,,0
1917,7040001107305,登記記録の閉鎖等,0,2024-06-14,2024-06-04,株式会社ＴＳコンサルティング,,株式会社,千葉県,船橋市,東中山１丁目４番２号,,12,204,2730036,,,2024-06-04,清算の結了等,,,2018-12-14,1,,,,,ティーエスコンサルティング,0
1931,7060002027962,登記記録の閉鎖等,0,2024-06-14,2024-06-06,有限会社白井製作所,,有限会社,栃木県,小山市,大字間々田１６４５番地３,,09,208,3290205,,,2024-06-06,清算の結了等,,,2015-10-05,1,,,,,シライセイサクジョ,0
1952,7110001023965,登記記録の閉鎖等,0,2024-06-14,2024-06-07,株式会社高弥産機,,株式会社,新潟県,長岡市,要町３丁目３番２号,,15,202,9401153,,,2024-06-07,清算の結了等,,,2015-10-05,1,,,,,タカヤサンキ,0
1953,7110005013905,登記記録の閉鎖等,0,2024-06-14,2024-06-07,特定非営利活動法人入広瀬元気クラブ,,その他の設立登記法人,新潟県,魚沼市,大白川８８７番地１２７,,15,225,9460303,,,2024-06-07,清算の結了等,,,2015-10-05,1,,,,,イリヒロセゲンキクラブ,0
1958,7120001172927,登記記録の閉鎖等,0,2024-06-14,2024-06-12,株式会社京,,株式会社,大阪府,大阪市西区,北堀江２丁目２番６号１００２,,27,106,5500014,,,2024-06-12,清算の結了等,,,2015-10-05,1,,,,,キョウ,0
1965,7120101021100,登記記録の閉鎖等,0,2024-06-14,2024-06-05,株式会社協和テクノス,,株式会社,大阪府,堺市南区,晴美台１丁１５番１１号,,27,145,5900113,,,2024-06-05,清算の結了等,,,2015-10-05,1,,,,,キョウワテクノス,0
1988,7140001060270,登記記録の閉鎖等,0,2024-06-14,2024-06-06,株式会社斗南設計,,株式会社,兵庫県,姫路市,元塩町１１８番地,,28,201,6700937,,,2024-06-06,清算の結了等,,,2015-10-05,1,,,,,トナンセッケイ,0
2018,7180305009175,登記記録の閉鎖等,0,2024-06-14,2024-06-06,一般社団法人ＰｌａＴＥｄｇＥ,,その他の設立登記法人,愛知県,岡崎市,稲熊町字６丁目１５１番地１,,23,202,4440071,,,2024-06-06,清算の結了等,,,2021-02-25,1,,,,,プラテッジ,0
2021,7200003001084,登記記録の閉鎖等,0,2024-06-14,2024-06-11,合資会社大野書店,,合資会社,岐阜県,各務原市,那加門前町２丁目１０番地,,21,213,5040911,,,2024-06-11,清算の結了等,,,2015-10-05,1,,,,,オオノショテン,0
2035,7260001026697,削除,,2024-06-14,,,,,,,,,,,,,,,,,,,,,,,,,
2036,7270002010575,登記記録の閉鎖等,0,2024-06-14,2024-06-11,有限会社ＫＳネットワーク,,有限会社,鳥取県,倉吉市,東巌城町３６番地４,,31,203,6820802,,,2024-06-11,清算の結了等,,,2015-10-05,1,,,,,ケイエスネットワーク,0
2060,7350001017778,登記記録の閉鎖等,0,2024-06-14,2024-06-05,株式会社本田,,株式会社,宮崎県,日向市,大字細島１０８番地１０,,45,206,8830001,,,2024-06-05,清算の結了等,,,2022-06-03,1,,,,,ホンダ,0
2067,7370002012801,登記記録の閉鎖等,0,2024-06-14,2024-06-05,有限会社芳賀理容所,,有限会社,宮城県,仙台市青葉区,五橋１丁目６番１１号,,04,101,9800022,,,2024-06-05,清算の結了等,,,2015-10-05,1,,,,,ハガリヨウショ,0
2079,7430001018223,登記記録の閉鎖等,0,2024-06-14,2024-06-13,若松建設株式会社,,株式会社,北海道,札幌市南区,澄川四条６丁目４２３番地,,01,106,0050004,,,2024-06-13,清算の結了等,,,2015-10-05,1,,,,,ワカマツケンセツ,0
2106,8010001177283,登記記録の閉鎖等,0,2024-06-14,2024-06-10,株式会社ＭＩ　Ｖｉｓｉｏｎ,,株式会社,東京都,江東区,豊洲６丁目２番３１－３２１７号,,13,108,1350061,,,2024-06-10,清算の結了等,,,2016-07-28,1,,,,,エムアイビジョン,0
2120,8010003026736,登記記録の閉鎖等,0,2024-06-14,2024-06-05,合同会社浅川労働衛生コンサルタント事務所,,合同会社,東京都,文京区,小石川５丁目１１番３号,,13,105,1120002,,,2024-06-05,清算の結了等,,,2018-01-11,1,,,,,アサカワロウドウエイセイコンサルタントジムショ,0
2123,8010005024928,登記記録の閉鎖等,0,2024-06-14,2024-06-07,一般社団法人日本ボディリズムマネジメント協会,,その他の設立登記法人,東京都,中央区,銀座７丁目１３番６号サガミビル２階,,13,102,1040061,,,2024-06-07,清算の結了等,,,2016-02-05,1,,,,,ニホンボディリズムマネジメントキョウカイ,0
2130,8010401156655,登記記録の閉鎖等,0,2024-06-14,2024-05-31,株式会社ｈａｒｕ　ｈａｒｕ,,株式会社,東京都,港区,麻布台３丁目４番１１号麻布エスビル６Ｆ,,13,103,1060041,,,2024-05-31,清算の結了等,,,2020-11-25,1,,,,,ハルハル,0
2138,8010403029000,登記記録の閉鎖等,0,2024-06-14,2024-06-03,合同会社新谷第３発電所,,合同会社,東京都,港区,六本木３丁目２番１号,,13,103,1060032,,,2024-06-03,合併による解散等,3011001038942,令和６年６月１日東京都港区六本木三丁目２番１号合同会社ＤＭＭ．ｃｏｍ（3011001038942）に合併し解散,2022-11-30,1,,,,,シンタニダイサンハツデンショ,0
2139,8010403030718,登記記録の閉鎖等,0,2024-06-14,2024-06-03,合同会社ソーラーパーク３３号,,合同会社,東京都,港区,六本木３丁目２番１号,,13,103,1060032,,,2024-06-03,合併による解散等,3011001038942,令和６年６月１日東京都港区六本木三丁目２番１号合同会社ＤＭＭ．ｃｏｍ（3011001038942）に合併し解散,2023-08-17,1,,,,,ソーラーパーサンジュウサンゴウ,0
2142,8010501043274,登記記録の閉鎖等,0,2024-06-14,2024-06-10,株式会社安西デザインスタジオ,,株式会社,東京都,台東区,谷中７丁目１８番１３号,,13,106,1100001,,,2024-06-10,清算の結了等,,,2018-11-06,1,,,,,アンザイデザインスタジオ,0
2143,8010601057265,登記記録の閉鎖等,0,2024-06-14,2024-06-10,新日本工業ホールディングス株式会社,,株式会社,東京都,江東区,佐賀１丁目１１番１１号,,13,108,1350031,,,2024-06-10,清算の結了等,,,2020-04-30,1,,,,,シンニホンホールディングス,0
2144,8010601057892,登記記録の閉鎖等,0,2024-06-14,2024-06-12,株式会社アンサンブル,,株式会社,東京都,江東区,亀戸９丁目２２番２０号,,13,108,1360071,,,2024-06-12,清算の結了等,,,2020-09-02,1,,,,,アンサンブル,0
2151,8010901001286,登記記録の閉鎖等,0,2024-06-14,2024-06-06,インフオメーション・サイエンス・システムズ株式会社,,株式会社,東京都,世田谷区,宮坂１丁目３６番９号,,13,112,1560051,,,2024-06-06,清算の結了等,,,2015-10-05,1,,,,,インフオメーションサイエンスシステムズ,0
2191,8011701023470,登記記録の閉鎖等,0,2024-06-14,2024-06-10,株式会社大洋,,株式会社,東京都,江戸川区,平井１丁目２番３号バンブースクエア２０１室,,13,123,1320035,,,2024-06-10,清算の結了等,,,2020-05-01,1,,,,,ダイヨウ,0
2192,8011701023891,登記記録の閉鎖等,0,2024-06-14,2024-06-06,バレンティ株式会社,,株式会社,東京都,江戸川区,上篠崎４丁目１６番１０号,,13,123,1330054,,,2024-06-06,清算の結了等,,,2020-11-10,1,,,,,バレンティ,0
2199,8011801029351,登記記録の閉鎖等,0,2024-06-14,2024-06-03,株式会社自由が丘パブリックリレーションズ,,株式会社,東京都,港区,南青山２丁目２番１５号ウィン青山９４２,,13,103,1070062,,,2024-06-03,清算の結了等,,,2015-10-05,1,,,,,ジユウガオカパブリックリレーションズ,0
2201,8011802012991,登記記録の閉鎖等,0,2024-06-14,2024-06-10,有限会社幸商事,,有限会社,東京都,足立区,舎人２丁目１６番２６号,,13,121,1210831,,,2024-06-10,清算の結了等,,,2015-10-05,1,,,,,ユキショウジ,0
2212,8020003015853,登記記録の閉鎖等,0,2024-06-14,2024-06-05,ポップカンパニー合同会社,,合同会社,神奈川県,横浜市都筑区,すみれが丘６番地１フローラ２号室,,14,118,2240013,,,2024-06-05,清算の結了等,,,2019-04-03,1,,,,,ポップカンパニー,0
2217,8030001081054,登記記録の閉鎖等,0,2024-06-14,2024-06-11,第三インプレッション株式会社,,株式会社,埼玉県,川口市,大字新堀４９２番地１,,11,203,3340061,,,2024-06-11,清算の結了等,,,2015-10-05,1,,,,,ダイサンインプレッション,0
2228,8030003015217,登記記録の閉鎖等,0,2024-06-14,2024-06-11,エマージェンシーサポート合同会社,,合同会社,埼玉県,さいたま市緑区,東浦和５丁目１４番地１ｓｙｌｐｈｉｄｅ１０５,,11,109,3360926,,,2024-06-11,清算の結了等,,,2020-05-08,1,,,,,エマージェンシーサポート,0
2229,8040001012009,登記記録の閉鎖等,0,2024-06-14,2024-06-05,ビズウェーブ株式会社,,株式会社,千葉県,千葉市緑区,あすみが丘７丁目３２番地８,,12,105,2670066,,,2024-06-05,清算の結了等,,,2015-10-05,1,,,,,ビズウェーブ,0
2230,8040001012891,登記記録の閉鎖等,0,2024-06-14,2024-06-05,グリーンアプリ株式会社,,株式会社,千葉県,千葉市緑区,あすみが丘７丁目３２番地８,,12,105,2670066,,,2024-06-05,清算の結了等,,,2015-10-05,1,,,,,グリーンアプリ,0
2239,8040002097643,登記記録の閉鎖等,0,2024-06-14,2024-06-04,有限会社松村運輸,,有限会社,千葉県,野田市,尾崎１６２６番地,,12,208,2700235,,,2024-06-04,清算の結了等,,,2015-10-05,1,,,,,マツムラウンユ,0
2252,8070002034288,登記記録の閉鎖等,0,2024-06-14,2024-06-06,群馬自工有限会社,,有限会社,群馬県,邑楽郡明和町,大輪２１１１番地,,10,522,3700718,,,2024-06-06,清算の結了等,,,2015-10-05,1,,,,,グンマジコウ,0
2256,8080002009165,登記記録の閉鎖等,0,2024-06-14,2024-06-06,有限会社飯田建材,,有限会社,静岡県,静岡市清水区,興津中町４３番地,,22,103,4240204,,,2024-06-06,清算の結了等,,,2015-10-05,1,,,,,イイダケンザイ,0
2267,8080401024599,登記記録の閉鎖等,0,2024-06-14,2024-06-10,キャッシュフローワーズ・ジャパン株式会社,,株式会社,静岡県,浜松市中央区,田町２２３番地の２１、３Ｆ,,22,138,4300944,,,2024-06-10,清算の結了等,,,2020-10-07,1,,,,,キャッシュフローワーズジャパン,0
2280,8120001128952,登記記録の閉鎖等,0,2024-06-14,2024-06-13,株式会社ＧＥＲＡ,,株式会社,大阪府,大阪市中央区,南船場２丁目６番１２号都市公団南船場団地８１０号室,,27,128,5420081,,,2024-06-13,清算の結了等,,,2015-10-05,1,,,,,ゲラ,0
2305,8120903003542,登記記録の閉鎖等,0,2024-06-14,2024-06-07,合同会社Ａｒｔｗｏｒｋ　ｍａｎｏｎ,,合同会社,大阪府,高槻市,本町４番２３号,,27,207,5690074,,,2024-06-07,清算の結了等,,,2021-02-26,1,,,,,アートワークマノン,0
2327,8180001100146,登記記録の閉鎖等,0,2024-06-14,2024-06-11,株式会社タイム,,株式会社,愛知県,名古屋市中村区,名駅５丁目４番１４号,,23,105,4500002,,,2024-06-11,合併による解散等,3120001165744,令和６年６月１日大阪市淀川区西中島五丁目１３番１２号株式会社エイト（3120001165744）に合併し解散,2015-10-05,1,,,,,タイム,0
2351,8190001001161,登記記録の閉鎖等,0,2024-06-14,2024-06-10,三善設備株式会社,,株式会社,三重県,津市,一身田中野字講田３８９番地の７,,24,201,5140112,,,2024-06-10,清算の結了等,,,2015-10-05,1,,,,,ミヨシセツビ,0
2354,8190002023246,登記記録の閉鎖等,0,2024-06-14,2024-06-11,有限会社佐竹建材,,有限会社,三重県,四日市市,水沢町３０１７番地１,,24,202,5121105,,,2024-06-11,清算の結了等,,,2015-10-05,1,,,,,サタケケンザイ,0
2359,8220001020959,登記記録の閉鎖等,0,2024-06-14,2024-06-04,株式会社ワイピーエス,,株式会社,石川県,金沢市,金石北１丁目１７番２２号,,17,201,9200338,,,2024-06-04,清算の結了等,,,2016-04-27,1,,,,,ワイピーエス,0
2375,8250002010898,登記記録の閉鎖等,0,2024-06-14,2024-06-12,有限会社ホーム商会,,有限会社,山口県,下関市,一の宮町２丁目１４番地の４,,35,201,7510806,,,2024-06-12,清算の結了等,,,2015-10-05,1,,,,,ホームショウカイ,0
2384,8310001009423,登記記録の閉鎖等,0,2024-06-14,2024-06-10,株式会社プらセル,,株式会社,長崎県,諫早市,多良見町化屋５０９－３,,42,204,8590401,,,2024-06-10,清算の結了等,,,2015-10-05,1,,,,,プラセル,0
2388,8340001007944,登記記録の閉鎖等,0,2024-06-14,2024-06-10,税所石油株式会社,,株式会社,鹿児島県,姶良市,蒲生町上久徳２８１４番地,00102667,46,225,8995302,,,2024-06-10,清算の結了等,,,2015-10-05,1,,,,,サイショセキユ,0
2390,8350002001739,登記記録の閉鎖等,0,2024-06-14,2024-06-06,有限会社小城印刷,,有限会社,宮崎県,宮崎市,大塚町横立１４０３番地２１,,45,201,8800951,,,2024-06-06,清算の結了等,,,2015-10-05,1,,,,,コジョウインサツ,0
2391,8360002009905,登記記録の閉鎖等,0,2024-06-14,2024-06-10,有限会社小禄サービスセンター,,有限会社,沖縄県,那覇市,字小禄６９３番地,,47,201,9010152,,,2024-06-10,清算の結了等,,,2015-10-05,1,,,,,オロクサービスセンター,0
2401,8380002029967,登記記録の閉鎖等,0,2024-06-14,2024-06-07,有限会社グリーンヴィレッヂ,,有限会社,福島県,郡山市,大槻町字仁池向１０番地の２５,,07,203,9630201,,,2024-06-07,清算の結了等,,,2015-10-05,1,,,,,グリーンヴィレッヂ,0
2416,8440002004864,登記記録の閉鎖等,0,2024-06-14,2024-06-07,有限会社メンテシステム,,有限会社,北海道,函館市,昭和町３４番地３０,,01,202,0410823,,,2024-06-07,清算の結了等,,,2015-10-05,1,,,,,メンテシステム,0
2420,8460301000447,登記記録の閉鎖等,0,2024-06-14,2024-06-12,株式会社佐々木工務店,,株式会社,北海道,常呂郡置戸町,字拓殖３１番地の２５,,01,550,0991123,,,2024-06-12,清算の結了等,,,2015-10-05,1,,,,,,0
2448,9010001237219,登記記録の閉鎖等,0,2024-06-14,2024-06-03,インビジブルホールディングス株式会社,,株式会社,東京都,千代田区,丸の内１丁目５番１号,,13,101,1000005,,,2024-06-03,合併による解散等,1010001033609,令和６年６月３日東京都中央区日本橋本町三丁目３番６号星光ＰＭＣ株式会社（1010001033609）に合併し解散,2023-07-27,1,,,,,インビジブルホールディングス,0
2457,9010101003603,登記記録の閉鎖等,0,2024-06-14,2024-06-05,豊崎ビル管理株式会社,00050171,株式会社,東京都,八王子市,旭町７番１号,,13,201,1920083,,,2024-06-05,清算の結了等,,,2015-10-05,1,,,,,トヨサキビルカンリ,0
2458,9010401048091,登記記録の閉鎖等,0,2024-06-14,2024-06-12,株式会社創和,,株式会社,東京都,港区,高輪１丁目１９番５－３０３号,,13,103,1080074,,,2024-06-12,清算の結了等,,,2015-10-05,1,,,,,ソウワ,0
2466,9010403017549,登記記録の閉鎖等,0,2024-06-14,2024-06-03,サニー企画合同会社,,合同会社,東京都,港区,麻布十番１丁目２番７号ラフィネ麻布十番７０１号室,,13,103,1060045,,,2024-06-03,合併による解散等,4010403016126,令和６年６月１日東京都港区南青山五丁目１７番２号サン企画合同会社（4010403016126）に合併し解散,2017-11-06,1,,,,,サニーキカク,0
2471,9010403030717,登記記録の閉鎖等,0,2024-06-14,2024-06-03,合同会社ソーラーパーク３２号,,合同会社,東京都,港区,六本木３丁目２番１号,,13,103,1060032,,,2024-06-03,合併による解散等,3011001038942,令和６年６月１日東京都港区六本木三丁目２番１号合同会社ＤＭＭ．ｃｏｍ（3011001038942）に合併し解散,2023-08-17,1,,,,,ソーラーパーサンジュウニゴウ,0
2486,9010602019486,登記記録の閉鎖等,0,2024-06-14,2024-06-11,有限会社スタジオフィールドイン,,有限会社,東京都,墨田区,押上２丁目２７番４号,,13,107,1310045,,,2024-06-11,清算の結了等,,,2015-10-05,1,,,,,スタジオフィールドイン,0
2495,9010801018520,登記記録の閉鎖等,0,2024-06-14,2024-06-12,株式会社オーシャンロード,,株式会社,埼玉県,所沢市,和ケ原１丁目１８０番地の２１,,11,208,3591162,,,2024-06-12,清算の結了等,,,2015-10-05,1,,,,,オーシャンロード,0
2500,9010901003323,登記記録の閉鎖等,0,2024-06-14,2024-06-07,株式会社桐山レストラン,,株式会社,東京都,世田谷区,成城５丁目８番６号,,13,112,1570066,,,2024-06-07,清算の結了等,,,2015-10-05,1,,,,,キリヤマレストラン,0
2518,9011301027739,登記記録の閉鎖等,0,2024-06-14,2024-06-10,株式会社浜田山事務所,,株式会社,東京都,杉並区,浜田山３丁目３５番１－１５０２号,,13,115,1680065,,,2024-06-10,清算の結了等,,,2022-05-02,1,,,,,ハマダヤマジムショ,0
2523,9011701005550,登記記録の閉鎖等,0,2024-06-14,2024-06-05,東海油化株式会社,,株式会社,東京都,江戸川区,篠崎町６丁目１７番１８号,,13,123,1330061,,,2024-06-05,清算の結了等,,,2015-10-05,1,,,,,トウカイユカ,0
2524,9011701018098,登記記録の閉鎖等,0,2024-06-14,2024-06-07,株式会社ＡＩＯＮ,,株式会社,東京都,江戸川区,清新町１丁目１番３５－４０１号,,13,123,1340087,,,2024-06-07,清算の結了等,,,2015-10-05,1,,,,,,0
2531,9012301009512,登記記録の閉鎖等,0,2024-06-14,2024-06-10,株式会社ディープ,,株式会社,東京都,町田市,森野２丁目２２番１６号,,13,209,1940022,,,2024-06-10,清算の結了等,,,2015-10-05,1,,,,,ディープ,0
2550,9020003008897,登記記録の閉鎖等,0,2024-06-14,2024-06-10,ロイヤルミュー株式会社,,株式会社,東京都,稲城市,平尾３丁目１番地の１平尾住宅０－１号室,,13,225,2060823,,,2024-06-10,清算の結了等,,,2015-10-05,1,,,,,ロイヤルミュー,0
2553,9021002053711,登記記録の閉鎖等,0,2024-06-14,2024-06-12,有限会社オーイーシー,,有限会社,神奈川県,小田原市,寿町１丁目１番１２号,,14,206,2500002,,,2024-06-12,清算の結了等,,,2015-10-05,1,,,,,オーイーシー,0
2557,9030001028921,登記記録の閉鎖等,0,2024-06-14,2024-06-11,株式会社ジョイント・ワーク,,株式会社,埼玉県,所沢市,大字南永井９３６番地３,,11,208,3590011,,,2024-06-11,清算の結了等,,,2015-10-05,1,,,,,ジョイントワーク,0
2570,9040001119249,登記記録の閉鎖等,0,2024-06-14,2024-05-31,株式会社日建国際学院,,株式会社,千葉県,千葉市中央区,要町２番１２号４階,,12,101,2600017,,,2024-05-31,清算の結了等,,,2021-07-19,1,,,,,ニッケンコクサイガクイン,0
2576,9040002039966,登記記録の閉鎖等,0,2024-06-14,2024-06-04,有限会社ファーストクラフト,,有限会社,千葉県,市川市,北方町４丁目２０８３番地,,12,203,2720811,,,2024-06-04,清算の結了等,,,2015-10-05,1,,,,,ファーストクラフト,0
2583,9060001007162,登記記録の閉鎖等,0,2024-06-14,2024-06-06,株式会社青和,,株式会社,栃木県,宇都宮市,平松４丁目１５番２号,,09,201,3210000,,,2024-06-06,清算の結了等,,,2015-10-05,1,,,,,セイワ,0
2595,9080405000488,登記記録の閉鎖等,0,2024-06-14,2024-06-07,浜松織物卸商協同組合,,その他の設立登記法人,静岡県,浜松市中央区,板屋町５６２番地,,22,138,4300928,,,2024-06-07,清算の結了等,,,2015-10-05,1,,,,,ハママツオリモノオロシショウ,0
2599,9110002016990,登記記録の閉鎖等,0,2024-06-14,2024-06-10,有限会社上町パーキングセンター,,有限会社,新潟県,三条市,本町１丁目８番５号,,15,204,9550071,,,2024-06-10,清算の結了等,,,2015-10-05,1,,,,,カンマチパーキングセンター,0
2605,9120001168691,登記記録の閉鎖等,0,2024-06-14,2024-06-11,株式会社エフシーツー,,株式会社,大阪府,枚方市,東船橋１丁目６１番地２,,27,210,5731115,,,2024-06-11,清算の結了等,,,2015-10-05,1,,,,,エフシーツー,0
2632,9150002011022,登記記録の閉鎖等,0,2024-06-14,2024-06-10,有限会社藪内ポンプ店,,有限会社,奈良県,五條市,二見２丁目１番１７号,,29,207,6370071,,,2024-06-10,清算の結了等,,,2015-10-05,1,,,,,ヤブウチポンプテン,0
2661,9180005020538,登記記録の閉鎖等,0,2024-06-14,2024-06-06,一般社団法人三好,,その他の設立登記法人,愛知県,名古屋市中区,新栄１丁目２５番３０号ＭＹビル４Ｆ,,23,106,4600007,,,2024-06-06,清算の結了等,,,2024-03-12,1,,,,,ミヨシ,0
2701,9290005003713,登記記録の閉鎖等,0,2024-06-14,2024-05-27,大正院,,その他の設立登記法人,福岡県,福岡市中央区,警固３丁目１１番３１号,,40,133,8100023,,,2024-05-27,清算の結了等,,,2015-10-05,1,,,,,,0
2705,9310001000488,登記記録の閉鎖等,0,2024-06-14,2024-06-06,株式会社草野緑化サービス,,株式会社,長崎県,長崎市,伊良林３丁目８番５２号,,42,201,8500802,,,2024-06-06,清算の結了等,,,2015-10-05,1,,,,,クサノリョクカサービス,0
2733,9390001000745,登記記録の閉鎖等,0,2024-06-14,2024-06-04,株式会社佐藤建築創作舎,,株式会社,山形県,山形市,南四番町３番１３号,,06,201,9902444,,,2024-06-04,清算の結了等,,,2015-10-05,1,,,,,サトウケンチクソウサクシャ,0
