sequenceNumber,corporateNumber,process,correct,updateDate,changeDate,name,nameImageId,kind,prefectureName,cityName,streetNumber,addressImageId,prefectureCode,cityCode,postCode,addressOutside,addressOutsideImageId,closeDate,closeCause,successorCorporateNumber,changeCause,assignmentDate,latest,enName,enPrefectureName,enCityName,enAddressOutside,furigana,hihyoji
14,1010001240031,新規,0,2023-11-15,2023-11-15,八萬株式会社,,株式会社,東京都,千代田区,神田三崎町２丁目１０－１１（Ｐｅｇビル）６Ａ－２部屋,,13,101,1010061,,,,,,,2023-11-15,1,,,,,ハチマン,0
15,1010001240072,新規,0,2023-11-15,2023-11-15,Ｔｒｕｔｈ　Ｂｒｏｔｈｅｒｓ株式会社,,株式会社,東京都,千代田区,丸の内２丁目５番１号,,13,101,1000005,,,,,,,2023-11-15,1,,,,,トゥルースブラザーズ,0
18,1010003042203,新規,0,2023-11-15,2023-11-15,合同会社Ｒａｐｐｏｒｔ２,,合同会社,東京都,中央区,八丁堀４丁目２番１０号ＡＯＪ税理士法人内,,13,102,1040032,,,,,,,2023-11-15,1,,,,,ラポールツー,0
19,1010003042211,新規,0,2023-11-15,2023-11-15,佑川化学合同会社,,合同会社,東京都,中央区,日本橋富沢町５番５号エクセルシオール日本橋３０３,,13,102,1030006,,,,,,,2023-11-15,1,,,,,ユウガワカガク,0
29,1010401178268,新規,0,2023-11-15,2023-11-15,株式会社パストレール,,株式会社,東京都,港区,六本木１丁目９番１０号アークヒルズ仙石山森タワー２５階,,13,103,1060032,,,,,,,2023-11-15,1,,,,,パストレール,0
30,1010401178532,新規,0,2023-11-15,2023-11-15,株式会社ＶＩＢＲＯＡ　Ｎｏ．００１,,株式会社,東京都,港区,赤坂８丁目６番１３号,,13,103,1070052,,,,,,,2023-11-15,1,,,,,ヴィブロアナンバーゼロゼロワン,0
35,1010505003470,新規,0,2023-11-15,2023-11-15,一般社団法人浅草専門店会,,その他の設立登記法人,東京都,台東区,浅草１丁目４番７号,,13,106,1110032,,,,,,,2023-11-15,1,,,,,アサクサセンモンテンカイ,0
36,1010601064152,新規,0,2023-11-15,2023-11-15,株式会社Ｇ・リンクエナジー,,株式会社,東京都,江東区,亀戸７丁目６０番５号,,13,108,1360071,,,,,,,2023-11-15,1,,,,,ジーリンクエナジー,0
38,1010701045119,新規,0,2023-11-15,2023-11-15,株式会社ＢＬＩＳＳ,,株式会社,東京都,品川区,平塚２丁目１６番４号石井ビル２階,,13,109,1420051,,,,,,,2023-11-15,1,,,,,ブリス,0
43,1010901054191,新規,0,2023-11-15,2023-11-15,株式会社ＴＯＰＩＣＳ．ＬＡＢ,,株式会社,東京都,世田谷区,奥沢５丁目１番１１号メゾンドジョワ２０２,,13,112,1580083,,,,,,,2023-11-15,1,,,,,トピックスラボ,0
46,1011001158230,新規,0,2023-11-15,2023-11-15,株式会社アンドエーアイ,,株式会社,東京都,渋谷区,桜丘町１７番１２号渋谷ジョンソンビル４０１,,13,113,1500031,,,,,,,2023-11-15,1,,,,,アンドエーアイ,0
47,1011001158247,新規,0,2023-11-15,2023-11-15,株式会社ＰＲＯＧＲＥ,,株式会社,東京都,渋谷区,代々木１丁目４７番９号ザ・パークレックス代々木１階,,13,113,1510053,,,,,,,2023-11-15,1,,,,,プログレ,0
48,1011001158263,新規,0,2023-11-15,2023-11-15,株式会社８ｐｉｎｅｓｓ,,株式会社,東京都,渋谷区,渋谷４丁目３番１７号常盤松葵マンション５０７号室,,13,113,1500002,,,,,,,2023-11-15,1,,,,,ハピネス,0
49,1011003017938,新規,0,2023-11-15,2023-11-15,合同会社ＭＭＳ,,合同会社,東京都,目黒区,東が丘２丁目１３番２８－３０３号,,13,110,1520021,,,,,,,2023-11-15,1,,,,,エムエムエス,0
54,1011101105132,新規,0,2023-11-15,2023-11-15,株式会社ハオ,,株式会社,東京都,新宿区,西新宿６丁目１５番１－１１２５号,,13,104,1600023,,,,,,,2023-11-15,1,,,,,ハオ,0
68,1011401025609,新規,0,2023-11-15,2023-11-15,光和株式会社,,株式会社,東京都,板橋区,前野町３丁目１８－１,,13,119,1740063,,,,,,,2023-11-15,1,,,,,,0
70,1011403004172,新規,0,2023-11-15,2023-11-15,合同会社ｇｏｋａｎｐｌｕｓ,,合同会社,東京都,板橋区,向原３丁目７－５,,13,119,1730036,,,,,,,2023-11-15,1,,,,,ゴカンプラス,0
77,1011701026769,新規,0,2023-11-15,2023-11-15,チャージエブリー株式会社,,株式会社,東京都,江戸川区,春江町５丁目５番１３号,,13,123,1340003,,,,,,,2023-11-15,1,,,,,チャージエブリー,0
78,1011701026777,新規,0,2023-11-15,2023-11-15,株式会社山本設備,,株式会社,東京都,江戸川区,北篠崎２丁目２７番８号,,13,123,1330053,,,,,,,2023-11-15,1,,,,,ヤマモトセツビ,0
79,1011703003650,新規,0,2023-11-15,2023-11-15,合同会社アイビー,,合同会社,東京都,江戸川区,中葛西３丁目３６番９号第２彦本ビルトラスティ葛西５０６,,13,123,1340083,,,,,,,2023-11-15,1,,,,,アイビー,0
81,1011801010219,新規,0,2023-11-15,2023-11-15,東洋繊維株式会社,,株式会社,東京都,足立区,竹の塚５丁目１４番１０号,,13,121,1210813,,,,,,,2023-11-15,1,,,,,,0
87,1013303006876,新規,0,2023-11-15,2023-11-15,Ｋｏａ‐ｎｅｔｗｏｒｋｓ合同会社,,合同会社,東京都,豊島区,駒込１丁目３番５号,,13,116,1700003,,,,,,,2023-11-15,1,,,,,コアネットワークス,0
91,1020001154478,新規,0,2023-11-15,2023-11-15,株式会社澤志商事,,株式会社,神奈川県,横浜市鶴見区,北寺尾５丁目１－６,,14,101,2300074,,,,,,,2023-11-15,1,,,,,サワシショウジ,0
97,1020003025000,新規,0,2023-11-15,2023-11-15,合同会社クロップマネジメントラボ,,合同会社,神奈川県,横浜市金沢区,東朝比奈２丁目１３番１８号,,14,108,2360033,,,,,,,2023-11-15,1,,,,,クロップマネジメントラボ,0
98,1020003025017,新規,0,2023-11-15,2023-11-15,合同会社三政,,合同会社,神奈川県,横浜市西区,北幸２丁目１０番地４８むつみビル３Ｆ,,14,103,2200004,,,,,,,2023-11-15,1,,,,,サンセイ,0
99,1020005016179,新規,0,2023-11-15,2023-11-15,一般社団法人ジャパンバリアフリープロジェクト,,その他の設立登記法人,神奈川県,横浜市港南区,下永谷３丁目１８－６,,14,111,2330016,,,,,,,2023-11-15,1,,,,,ジャパンバリアフリープロジェクト,0
104,1021001080722,新規,0,2023-11-15,2023-11-15,株式会社こまいずむ,,株式会社,神奈川県,中郡大磯町,高麗２丁目５－３９,,14,341,2550001,,,,,,,2023-11-15,1,,,,,コマイズム,0
105,1021001080730,新規,0,2023-11-15,2023-11-15,株式会社フェイスリアルティマネジメント,,株式会社,神奈川県,藤沢市,藤沢４８４番地２４,,14,205,2510052,,,,,,,2023-11-15,1,,,,,フェイスリアルティマネジメント,0
106,1021001080739,新規,0,2023-11-15,2023-11-15,株式会社エスコートランナー,,株式会社,神奈川県,小田原市,前川４５２番地の１,,14,206,2560813,,,,,,,2023-11-15,1,,,,,エスコートランナー,0
107,1021001080747,新規,0,2023-11-15,2023-11-15,株式会社コンサルティング・オフィス,,株式会社,神奈川県,藤沢市,藤沢９７６番地の２秀明ビル４０４号室,,14,205,2510052,,,,,,,2023-11-15,1,,,,,コンサルティングオフィス,0
108,1021003013795,新規,0,2023-11-15,2023-11-15,合同会社Ｙｏｐｐｓ,,合同会社,神奈川県,小田原市,上新田２１－４ひかりビル３０１,,14,206,2500877,,,,,,,2023-11-15,1,,,,,ヨップス,0
116,1030001157174,新規,0,2023-11-15,2023-11-15,ＯＫＡ　Ｐｅｒｆｕｍｅ株式会社,,株式会社,埼玉県,朝霞市,三原２丁目４－３３,,11,227,3510025,,,,,,,2023-11-15,1,,,,,オカパフューム,0
117,1030001157182,新規,0,2023-11-15,2023-11-15,株式会社沼口建工,,株式会社,埼玉県,川口市,上青木西３丁目２番１８号,,11,203,3330845,,,,,,,2023-11-15,1,,,,,ヌマグチケンコウ,0
122,1030003022995,新規,0,2023-11-15,2023-11-15,ＳＫＩＰ合同会社,,合同会社,埼玉県,さいたま市見沼区,大字小深作２５９―３２,,11,104,3370005,,,,,,,2023-11-15,1,,,,,スキップ,0
129,1040001130915,新規,0,2023-11-15,2023-11-15,富士国際株式会社,,株式会社,千葉県,印旛郡酒々井町,酒々井８４４番地１６,,12,322,2850927,,,,,,,2023-11-15,1,,,,,フジコクサイ,0
130,1040001130931,新規,0,2023-11-15,2023-11-15,株式会社香陽,,株式会社,千葉県,香取市,下小川２９番地２,,12,236,2890338,,,,,,,2023-11-15,1,,,,,コウヨウ,0
135,1040003023729,新規,0,2023-11-15,2023-11-15,ＭＡＬＩＫ　ＴＲＡＤＩＮＧ合同会社,,合同会社,千葉県,印西市,小林３９６０番地１トキワ荘２０２号,,12,231,2701318,,,,,,,2023-11-15,1,,,,,マリクトレーディング,0
137,1050001053826,新規,0,2023-11-15,2023-11-15,常陸工研株式会社,,株式会社,茨城県,常陸太田市,藤田町１０８５番地,,08,212,3130048,,,,,,,2023-11-15,1,,,,,ヒタチコウケン,0
143,1080101024336,新規,0,2023-11-15,2023-11-15,株式会社ＳＴＡＲ　ＯＮＥ,,株式会社,静岡県,富士市,森島２９２番地の１６,,22,210,4160948,,,,,,,2023-11-15,1,,,,,スターワン,0
144,1080101024344,新規,0,2023-11-15,2023-11-15,株式会社ＦａｎｔａＧ,,株式会社,静岡県,沼津市,本字千本１９１２番地,,22,203,4100867,,,,,,,2023-11-15,1,,,,,ファンタジーニス,0
151,1110001037970,新規,0,2023-11-15,2023-11-15,株式会社ＲｅＬｉＦＥ,,株式会社,新潟県,上越市,大和４丁目１番９号,,15,222,9430861,,,,,,,2023-11-15,1,,,,,リライフ,0
153,1110003005216,新規,0,2023-11-15,2023-11-15,合同会社たしろ商事,,合同会社,新潟県,新発田市,東新町１丁目３番５号,,15,206,9570015,,,,,,,2023-11-15,1,,,,,タシロショウジ,0
154,1110005017011,新規,0,2023-11-15,2023-11-15,一般社団法人レッツゴー,,その他の設立登記法人,新潟県,新潟市西蒲区,巻甲４０８０番地９,,15,108,9530041,,,,,,,2023-11-15,1,,,,,レッツゴー,0
160,1120001259770,新規,0,2023-11-15,2023-11-15,株式会社ＨＩ　ＪＡＰＡＮ,,株式会社,大阪府,大阪市生野区,巽中２丁目８番３１号,00132667,27,116,5440013,,,,,,,2023-11-15,1,,,,,ハイジャパン,0
161,1120001259837,新規,0,2023-11-15,2023-11-15,株式会社花華,,株式会社,大阪府,大阪市中央区,東心斎橋１丁目１３番６号,,27,128,5420083,,,,,,,2023-11-15,1,,,,,ハナハナ,0
162,1120001259894,新規,0,2023-11-15,2023-11-15,東田株式会社,,株式会社,大阪府,大阪市大正区,千島１丁目１０番１０号エスポワール４３,,27,108,5510003,,,,,,,2023-11-15,1,,,,,トウダ,0
170,1120101068519,新規,0,2023-11-15,2023-11-15,株式会社ＮＩＳＨＩＤＡ,,株式会社,大阪府,堺市東区,南野田４５番地１０,,27,143,5998124,,,,,,,2023-11-15,1,,,,,ニシダ,0
171,1120101068543,新規,0,2023-11-15,2023-11-15,株式会社ほどこし,,株式会社,大阪府,和泉市,肥子町２丁目３番３１号３０３号室,,27,219,5940076,,,,,,,2023-11-15,1,,,,,ホドコシ,0
172,1120103005536,新規,0,2023-11-15,2023-11-15,合同会社つぼみ,,合同会社,大阪府,堺市中区,新家町７６５－１,,27,142,5998232,,,,,,,2023-11-15,1,,,,,ツボミ,0
175,1120903004919,新規,0,2023-11-15,2023-11-15,橘子文化合同会社,,合同会社,大阪府,吹田市,津雲台６丁目２３番２号,,27,205,5650862,,,,,,,2023-11-15,1,,,,,ミカンブンカ,0
178,1130001075688,新規,0,2023-11-15,2023-11-15,株式会社ＮＡＲＥ,,株式会社,京都府,京都市右京区,梅津上田町６５,,26,108,6150932,,,,,,,2023-11-15,1,,,,,ナレ,0
179,1130001075705,新規,0,2023-11-15,2023-11-15,株式会社ＦＵＫＡＳＨＩＧＩ,,株式会社,京都府,京都市上京区,上の下立売通御前通西入大宮町４８８番地２エレーゼ北野ＩＩ３０２号室,00132658,26,102,6028363,,,,,,,2023-11-15,1,,,,,フカシギ,0
181,1130003009116,新規,0,2023-11-15,2023-11-15,合同会社ＹＫＴ,,合同会社,京都府,京都市伏見区,醍醐下端山町２－２４,,26,109,6011332,,,,,,,2023-11-15,1,,,,,ワイケーティー,0
182,1130003009140,新規,0,2023-11-15,2023-11-15,Ａｍｂｉ合同会社,,合同会社,京都府,京都市下京区,七条通油小路東入大黒町２２７番地第２キョートビル４０２,,26,106,6008223,,,,,,,2023-11-15,1,,,,,アンビ,0
187,1140001132348,新規,0,2023-11-15,2023-11-15,株式会社ｃｏｎｎｅｃｔＪａｐａｎ,,株式会社,兵庫県,神戸市中央区,浜辺通６丁目１番１－２１３号,,28,110,6510083,,,,,,,2023-11-15,1,,,,,コネクトジャパン,0
188,1140001132356,新規,0,2023-11-15,2023-11-15,株式会社ペロックス,,株式会社,兵庫県,伊丹市,瑞穂町２丁目４１－２０２,,28,207,6640013,,,,,,,2023-11-15,1,,,,,ペロックス,0
195,1160001025509,新規,0,2023-11-15,2023-11-15,株式会社サムシング・グレート,,株式会社,滋賀県,甲賀市,水口町朝日が丘６番５３号,,25,209,5280072,,,,,,,2023-11-15,1,,,,,サムシンググレート,0
196,1160003003041,新規,0,2023-11-15,2023-11-15,合同会社Ｚｅｓｔ,,合同会社,滋賀県,長浜市,神照町８５７番地４,,25,203,5260015,,,,,,,2023-11-15,1,,,,,ゼスト,0
198,1170001017884,新規,0,2023-11-15,2023-11-15,心喜株式会社,,株式会社,和歌山県,和歌山市,打越町３番１４号,,30,201,6410053,,,,,,,2023-11-15,1,,,,,シンキ,0
205,1180001158934,新規,0,2023-11-15,2023-11-15,楠木防災株式会社,,株式会社,愛知県,春日井市,牛山町２９１７番地３０,,23,206,4860901,,,,,,,2023-11-15,1,,,,,クスキボウサイ,0
206,1180001158950,新規,0,2023-11-15,2023-11-15,株式会社ＨＲ,,株式会社,愛知県,名古屋市中区,大須１丁目７番１４号,,23,106,4600011,,,,,,,2023-11-15,1,,,,,エイチアール,0
210,1180003025991,新規,0,2023-11-15,2023-11-15,カクタスケア合同会社,,合同会社,愛知県,春日井市,気噴町２丁目５－８,,23,206,4870014,,,,,,,2023-11-15,1,,,,,,0
212,1180005020421,新規,0,2023-11-15,2023-11-15,一般社団法人フリーランスネットワーク,,その他の設立登記法人,愛知県,名古屋市中村区,名駅３丁目２０番２０号名駅錦ビル６Ｆ,,23,105,4500002,,,,,,,2023-11-15,1,,,,,フリーランスネットワーク,0
215,1190001030885,新規,0,2023-11-15,2023-11-15,株式会社長井技研ホールディングス,,株式会社,三重県,松阪市,広陽町４１番地２,,24,204,5150053,,,,,,,2023-11-15,1,,,,,ナガイギケンホールディングス,0
216,1190005011881,新規,0,2023-11-15,2023-11-15,医療法人社団前沢歯科クリニック,,その他の設立登記法人,三重県,名張市,希央台５番町４０番地,,24,208,5180775,,,,,,,2023-11-15,1,,,,,マエザワシカクリニック,0
219,1200003006155,新規,0,2023-11-15,2023-11-15,合同会社プレシア,,合同会社,岐阜県,瑞穂市,古橋１７５９番地７,,21,216,5010322,,,,,,,2023-11-15,1,,,,,プレシア,0
223,1230001020106,新規,0,2023-11-15,2023-11-15,株式会社フェール,,株式会社,富山県,南砺市,本江２７０９番地８,,16,210,9391501,,,,,,,2023-11-15,1,,,,,フェール,0
224,1230003002110,新規,0,2023-11-15,2023-11-15,合同会社クラルス,,合同会社,富山県,富山市,奥田町１１番１５号サンレオ奥田１０１,,16,201,9300818,,,,,,,2023-11-15,1,,,,,クラルス,0
245,1290001103771,新規,0,2023-11-15,2023-11-15,株式会社さんすまいる,,株式会社,福岡県,福岡市東区,唐原７丁目１５番５１号,,40,131,8130001,,,,,,,2023-11-15,1,,,,,サンスマイル,0
254,1330003010078,新規,0,2023-11-15,2023-11-15,合同会社ライトクラフト,,合同会社,熊本県,熊本市北区,四方寄町５５４番地１,,43,105,8615515,,,,,,,2023-11-15,1,,,,,ライトクラフト,0
258,1340003004310,新規,0,2023-11-15,2023-11-15,合同会社ＩＤＫ,,合同会社,鹿児島県,奄美市,名瀬朝仁新町１８番地２７,,46,222,8940041,,,,,,,2023-11-15,1,,,,,アイディーケー,0
261,1360003013482,新規,0,2023-11-15,2023-11-15,合同会社ＲＫＭ　Ｅｎｔｅｒｐｒｉｓｅ,,合同会社,沖縄県,宜野湾市,大謝名４丁目１７番１９号,,47,205,9012225,,,,,,,2023-11-15,1,,,,,アールケイエムエンタープライズ,0
266,1370003006378,新規,0,2023-11-15,2023-11-15,ヨシダプログラム合同会社,,合同会社,宮城県,仙台市青葉区,一番町１丁目１５番１９号朝日トークビル４０３号室,,04,101,9800811,,,,,,,2023-11-15,1,,,,,ヨシダプログラム,0
272,1380001034132,新規,0,2023-11-15,2023-11-15,不動産センター福島株式会社,,株式会社,福島県,福島市,荒町４番３６号,,07,201,9608042,,,,,,,2023-11-15,1,,,,,フドウサンセンターフクシマ,0
287,1430003015653,新規,0,2023-11-15,2023-11-15,合同会社Ｂｅａｒｎｅｔ,,合同会社,北海道,札幌市南区,北ノ沢３丁目７の２６,,01,106,0050832,,,,,,,2023-11-15,1,,,,,ベアネット,0
289,1460102007251,新規,0,2023-11-15,2023-11-15,有限会社丸山山北商店,,有限会社,北海道,上川郡清水町,南二条３丁目２番地１,,01,636,0890138,,,,,,,2023-11-15,1,,,,,,0
307,2010001240022,新規,0,2023-11-15,2023-11-15,株式会社地方食材研究院,,株式会社,東京都,中央区,日本橋小網町７番７号ぺんてるマンション４０２号,,13,102,1030016,,,,,,,2023-11-15,1,,,,,チホウショクザイケンキュウイン,0
308,2010001240030,新規,0,2023-11-15,2023-11-15,株式会社Ｔ’ｓグループ,,株式会社,東京都,千代田区,神田須田町１丁目６番弓矢四国ビル１階,,13,101,1010041,,,,,,,2023-11-15,1,,,,,ティーズグループ,0
309,2010001240055,新規,0,2023-11-15,2023-11-15,株式会社ＭＳＴ　Ｅｎｇａｇｅｍｅｎｔ,,株式会社,東京都,中央区,日本橋室町１丁目１１番１２号日本橋水野ビル７階,,13,102,1030022,,,,,,,2023-11-15,1,,,,,エムエスティーエンゲージメント,0
310,2010001240121,新規,0,2023-11-15,2023-11-15,株式会社現未来コンサルティング,,株式会社,東京都,文京区,後楽１丁目１番５－８０１号,,13,105,1120004,,,,,,,2023-11-15,1,,,,,ゲンミライコンサルティング,0
311,2010003042160,新規,0,2023-11-15,2023-11-15,合同会社ジャパンレジデンス１,,合同会社,東京都,千代田区,内神田２丁目２番６号５階あすな会計事務所内,,13,101,1010047,,,,,,,2023-11-15,1,,,,,ジャパンレジデンスワン,0
312,2010003042202,新規,0,2023-11-15,2023-11-15,合同会社Ｒａｐｐｏｒｔ１,,合同会社,東京都,中央区,八丁堀４丁目２番１０号ＡＯＪ税理士法人内,,13,102,1040032,,,,,,,2023-11-15,1,,,,,ラポールワン,0
326,2010401178498,新規,0,2023-11-15,2023-11-15,株式会社ワンフォール不動産,,株式会社,東京都,港区,高輪３丁目１９番８号６Ｆ,,13,103,1080074,,,,,,,2023-11-15,1,,,,,ワンフォールフドウサン,0
327,2010401178507,新規,0,2023-11-15,2023-11-15,株式会社Ｓｅｅｋ　Ａｎｓｗｅｒｓ,,株式会社,東京都,港区,南青山２丁目２番１５号ウィン青山９４２,,13,103,1070062,,,,,,,2023-11-15,1,,,,,シークアンサーズ,0
328,2010401178531,新規,0,2023-11-15,2023-11-15,Ｖｅｎｔｕｒａ　Ｃａｐｉｔａｌ　Ｐａｃｉｆｉｃ株式会社,,株式会社,東京都,港区,六本木６丁目１０番１号六本木ヒルズ森タワー１６６５号室,,13,103,1060032,,,,,,,2023-11-15,1,,,,,ベンチュラキャピタルパシフィック,0
330,2010403031358,新規,0,2023-11-15,2023-11-15,合同会社ＳＨＩＦＡＮＧ　ＴＲＡＤＩＮＧ　ＪＡＰＡＮ,,合同会社,東京都,港区,芝浦３丁目１７番１１号,,13,103,1080023,,,,,,,2023-11-15,1,,,,,シーファトレイデングジャパン,0
331,2010403031366,新規,0,2023-11-15,2023-11-15,合同会社Ｓｔｒｅｅｍ,,合同会社,東京都,港区,六本木１丁目５番３－１１０５号,,13,103,1060032,,,,,,,2023-11-15,1,,,,,ストリーム,0
332,2010405022702,新規,0,2023-11-15,2023-11-15,一般財団法人伊東・白川教育福祉財団,,その他の設立登記法人,東京都,港区,北青山２丁目１１番１０－２０３号,,13,103,1070061,,,,,,,2023-11-15,1,,,,,イトウシラカワキョウイクフクシザイダン,0
337,2010601064143,新規,0,2023-11-15,2023-11-15,株式会社ブレイクスルー,,株式会社,東京都,江東区,木場５丁目１番５号メイプルハイム木場４０２室,,13,108,1350042,,,,,,,2023-11-15,1,,,,,ブレイクスルー,0
338,2010601064151,新規,0,2023-11-15,2023-11-15,リンクスカイ株式会社,,株式会社,東京都,江東区,枝川２丁目３番４号プレシス豊洲５０１号,,13,108,1350051,,,,,,,2023-11-15,1,,,,,,0
341,2010803004748,新規,0,2023-11-15,2023-11-15,合同会社Ｔｉｏ,,合同会社,東京都,大田区,上池台１丁目７番１６号スマートキューブ長原２１６,,13,111,1450064,,,,,,,2023-11-15,1,,,,,ティオ,0
349,2010901054190,新規,0,2023-11-15,2023-11-15,株式会社Ｍａｋｅ‐Ｉｎ,,株式会社,東京都,世田谷区,代田３丁目４番１０号地下１階,,13,112,1550033,,,,,,,2023-11-15,1,,,,,メイクイン,0
350,2010901054199,新規,0,2023-11-15,2023-11-15,株式会社ＴＳＵＮＡＧＵ,,株式会社,東京都,世田谷区,深沢６丁目１－１２クレール深沢６０２,,13,112,1580081,,,,,,,2023-11-15,1,,,,,ツナグ,0
356,2011001158270,新規,0,2023-11-15,2023-11-15,Ｇａｔａ株式会社,,株式会社,東京都,目黒区,上目黒２丁目４３番３号Ｎ．Ｍ７ｔｈ１０１,,13,110,1530051,,,,,,,2023-11-15,1,,,,,ガータ,0
357,2011003017937,新規,0,2023-11-15,2023-11-15,合同会社ｏｆｆｉｃｅ　Ｌｉｎｏ,,合同会社,東京都,目黒区,下目黒１丁目１番１４号コノトラビル７Ｆ,,13,110,1530064,,,,,,,2023-11-15,1,,,,,オフィスリノ,0
358,2011003017945,新規,0,2023-11-15,2023-11-15,合同会社マウンテンエッジ,,合同会社,東京都,渋谷区,幡ヶ谷３丁目４１番６号,,13,113,1510072,,,,,,,2023-11-15,1,,,,,マウンテンエッジ,0
364,2011103013753,新規,0,2023-11-15,2023-11-15,合同会社われわれ,,合同会社,東京都,新宿区,西新宿３丁目５－１２,,13,104,1600023,,,,,,,2023-11-15,1,,,,,ワレワレ,0
369,2011303004973,新規,0,2023-11-15,2023-11-15,合同会社Ａｏ,,合同会社,東京都,杉並区,高井戸東１丁目３１番４－２１３号パークシティ浜田山Ｃ棟,,13,115,1680072,,,,,,,2023-11-15,1,,,,,アオ,0
371,2011401025608,新規,0,2023-11-15,2023-11-15,株式会社ＰＬＣ,,株式会社,東京都,板橋区,板橋１丁目４８番９号建材ビル６階,,13,119,1730004,,,,,,,2023-11-15,1,,,,,ピーエルシー,0
382,2012403006273,新規,0,2023-11-15,2023-11-15,Ｃｒｅｓｔ　Ｗｏｒｋｓ合同会社,,合同会社,東京都,武蔵野市,吉祥寺本町１丁目１３番２号シラカバビル５階,,13,203,1800004,,,,,,,2023-11-15,1,,,,,クレストワークス,0
391,2020001154469,新規,0,2023-11-15,2023-11-15,株式会社グッド・ヴォイス,,株式会社,神奈川県,横浜市西区,北幸２丁目１３番１２号,,14,103,2200004,,,,,,,2023-11-15,1,,,,,グッドヴォイス,0
392,2020001154485,新規,0,2023-11-15,2023-11-15,株式会社空条,,株式会社,神奈川県,横浜市神奈川区,三枚町５５２番地１７,,14,102,2210862,,,,,,,2023-11-15,1,,,,,クウジョウ,0
400,2021001080721,新規,0,2023-11-15,2023-11-15,松禾株式会社,,株式会社,神奈川県,小田原市,国府津２７６１番地１－１０２号アーバン２１,,14,206,2560812,,,,,,,2023-11-15,1,,,,,ショウカ,0
401,2021001080738,新規,0,2023-11-15,2023-11-15,株式会社Ｃｗｉｔｈ,,株式会社,神奈川県,藤沢市,鵠沼橘１丁目１番２号Ｆ．Ｉ．Ｃ鵠沼ビル３Ｆ,00132646,14,205,2510024,,,,,,,2023-11-15,1,,,,,シーウィズ,0
402,2021001080746,新規,0,2023-11-15,2023-11-15,株式会社小森谷設備,,株式会社,神奈川県,茅ヶ崎市,茅ヶ崎５３０番地１,,14,207,2530041,,,,,,,2023-11-15,1,,,,,コモリヤセツビ,0
404,2021003013803,新規,0,2023-11-15,2023-11-15,合同会社ＨＲＫＰ,,合同会社,神奈川県,鎌倉市,寺分２丁目３１番２号,,14,204,2470064,,,,,,,2023-11-15,1,,,,,エイチアールケーピー,0
414,2030001157165,新規,0,2023-11-15,2023-11-15,株式会社イナヤ,,株式会社,埼玉県,草加市,西町９２９番地,,11,221,3400035,,,,,,,2023-11-15,1,,,,,イナヤ,0
415,2030001157173,新規,0,2023-11-15,2023-11-15,株式会社Ｎホールディングス,,株式会社,埼玉県,本庄市,中央２丁目４番４４号,,11,211,3670053,,,,,,,2023-11-15,1,,,,,エヌホールディングス,0
416,2030001157181,新規,0,2023-11-15,2023-11-15,ＺＯＵＱ　ＨＡＬＡＬ　ＳＯＦＴＷＡＲＥ　ＣＯＲＰＯＲＡＴＩＯＮ　ＪＡＰＡＮ株式会社,,株式会社,埼玉県,越谷市,南越谷１丁目２７番地１２－４０１号室,,11,222,3430845,,,,,,,2023-11-15,1,,,,,ズークハラールソフトウェアコーポレーションジャパン,0
437,2040001130930,新規,0,2023-11-15,2023-11-15,株式会社ＳＴ技巧,,株式会社,千葉県,八千代市,八千代台西１０丁目１番１７号,,12,221,2760034,,,,,,,2023-11-15,1,,,,,エスティーギコウ,0
445,2040003023736,新規,0,2023-11-15,2023-11-15,ひなたコーポレーション合同会社,,合同会社,千葉県,浦安市,明海６丁目１番１２－１００２号,,12,227,2790014,,,,,,,2023-11-15,1,,,,,ヒナタコーポレーション,0
446,2040005022199,新規,0,2023-11-15,2023-11-15,ＮＰＯ法人モノオペラ焼き場に立つ少年を次世代に伝える会,,その他の設立登記法人,千葉県,我孫子市,東我孫子２丁目３６番６９号,,12,222,2701144,,,,,,,2023-11-15,1,,,,,モノオペラヤキバニタツショウネンヲジセダイニツタエルカイ,0
447,2050001053825,新規,0,2023-11-15,2023-11-15,株式会社神峰地所,,株式会社,茨城県,日立市,平和町２丁目７番３号,,08,202,3170062,,,,,,,2023-11-15,1,,,,,カミネジショ,0
448,2050003007936,新規,0,2023-11-15,2023-11-15,ＪＡＧＧＡ　ＴＲＡＤＩＮＧ合同会社,,合同会社,茨城県,結城市,大字結城１１７１７番地１１,,08,207,3070001,,,,,,,2023-11-15,1,,,,,ザッガトレーディング,0
461,2080101024343,新規,0,2023-11-15,2023-11-15,渡邉商事株式会社,,株式会社,静岡県,駿東郡長泉町,下土狩１４６７番地,,22,342,4110943,,,,,,,2023-11-15,1,,,,,ワタナベショウジ,0
465,2080401026840,新規,0,2023-11-15,2023-11-15,株式会社Ｅｘｐｏｓｅ　Ｃｏｍｐａｎｙ,,株式会社,静岡県,浜松市天竜区,春野町杉７６８番地の８,,22,137,4370602,,,,,,,2023-11-15,1,,,,,エクスポーズカンパニー,0
468,2100001036972,新規,0,2023-11-15,2023-11-15,株式会社ＳＡＢＯ,,株式会社,長野県,須坂市,大字小河原１７６２番地１０,,20,207,3820000,,,,,,,2023-11-15,1,,,,,サボ,0
473,2110003005215,新規,0,2023-11-15,2023-11-15,合同会社玩具利,,合同会社,新潟県,新潟市西区,小針７丁目１２番４号,,15,107,9502022,,,,,,,2023-11-15,1,,,,,ガングリ,0
477,2120001259324,新規,0,2023-11-15,2023-11-15,嘉鴻株式会社,,株式会社,大阪府,大阪市住吉区,殿辻１丁目２番２６号５０１号,,27,120,5580042,,,,,,,2023-11-15,1,,,,,カコウ,0
478,2120001259836,新規,0,2023-11-15,2023-11-15,株式会社１０９０,,株式会社,大阪府,大阪市西区,南堀江１丁目１５番１７－４０６号,,27,106,5500015,,,,,,,2023-11-15,1,,,,,イチゼロキューゼロ,0
479,2120001259852,新規,0,2023-11-15,2023-11-15,株式会社ニューレジデンス,,株式会社,大阪府,大阪市西区,江戸堀１丁目９番６号,,27,106,5500002,,,,,,,2023-11-15,1,,,,,ニューレジデンス,0
480,2120001259877,新規,0,2023-11-15,2023-11-15,株式会社Ｃｌｉｍｂ,,株式会社,大阪府,大阪市浪速区,桜川２丁目８番２５－２１３号,,27,111,5560022,,,,,,,2023-11-15,1,,,,,クライム,0
481,2120001259885,新規,0,2023-11-15,2023-11-15,株式会社文道嘉,,株式会社,大阪府,大阪市東成区,神路１丁目７－５神路１丁目ビル３０５室,,27,115,5370003,,,,,,,2023-11-15,1,,,,,ブンドウカ,0
487,2120101068534,新規,0,2023-11-15,2023-11-15,株式会社アマヤグループ,,株式会社,大阪府,羽曳野市,河原城９５番地の１４,,27,222,5830867,,,,,,,2023-11-15,1,,,,,アマヤグループ,0
490,2122001037569,新規,0,2023-11-15,2023-11-15,株式会社Ｋｉｎｄ,,株式会社,大阪府,東大阪市,川田３丁目３番１４号,,27,227,5780905,,,,,,,2023-11-15,1,,,,,カインド,0
494,2130001075646,新規,0,2023-11-15,2023-11-15,株式会社ＫＴＭ,,株式会社,京都府,京田辺市,同志社山手４丁目７－７５,,26,211,6100315,,,,,,,2023-11-15,1,,,,,ケーティーエム,0
503,2140001132330,新規,0,2023-11-15,2023-11-15,株式会社クララ,,株式会社,兵庫県,丹波篠山市,杉５９番地１,,28,221,6692204,,,,,,,2023-11-15,1,,,,,クララ,0
504,2140001132347,新規,0,2023-11-15,2023-11-15,株式会社Ｓ,,株式会社,兵庫県,神戸市灘区,新在家南町３丁目１番２８－４０５号,,28,102,6570864,,,,,,,2023-11-15,1,,,,,エス,0
505,2140001132355,新規,0,2023-11-15,2023-11-15,Ｃｒａｄｌｅ　ｔｏ　Ｇｒａｖｅ株式会社,,株式会社,兵庫県,西宮市,甲子園四番町１番９号,,28,204,6638174,,,,,,,2023-11-15,1,,,,,クレイドルトゥグレイブ,0
508,2140005026801,新規,0,2023-11-15,2023-11-15,一般社団法人モザンビークの新しい教育を支援する会,,その他の設立登記法人,兵庫県,神戸市北区,筑紫が丘９丁目１２番地の１４,,28,109,6511212,,,,,,,2023-11-15,1,,,,,,0
516,2160003003040,新規,0,2023-11-15,2023-11-15,合同会社ＳＯＲ,,合同会社,滋賀県,東近江市,小脇町７７８－３－２０２,,25,213,5270091,,,,,,,2023-11-15,1,,,,,ソル,0
525,2180001158909,新規,0,2023-11-15,2023-11-15,株式会社Ｓａｌｏｎ　ｄｅ　ＭＡＨＡＬＯ,,株式会社,愛知県,一宮市,千秋町加茂字五坊野３８番地４,,23,203,4910801,,,,,,,2023-11-15,1,,,,,サロンドゥマハロ,0
528,2180003025990,新規,0,2023-11-15,2023-11-15,合同会社ウザク式,,合同会社,愛知県,名古屋市中村区,名駅４丁目２４番５号第２森ビル４０１,,23,105,4500002,,,,,,,2023-11-15,1,,,,,ウザクシキ,0
544,2240001062410,新規,0,2023-11-15,2023-11-15,株式会社せとていだ,,株式会社,広島県,広島市西区,草津港１丁目８番１号１０９,,34,104,7330832,,,,,,,2023-11-15,1,,,,,セトテイダ,0
552,2270002004193,新規,0,2023-11-15,2023-11-15,有限会社弥栄建設,,有限会社,鳥取県,鳥取市,青谷町亀尻２８９番地,,31,201,6890522,,,,,,,2023-11-15,1,,,,,ヤサカケンセツ,0
557,2290001103754,新規,0,2023-11-15,2023-11-15,株式会社Ｋ・Ｉ・Ｈ,,株式会社,福岡県,飯塚市,仁保８番地２３,,40,205,8200115,,,,,,,2023-11-15,1,,,,,ケイアイエイチ,0
567,2290803004547,新規,0,2023-11-15,2023-11-15,Ａ‐ｆｏｒｅｓｔ合同会社,,合同会社,福岡県,北九州市門司区,吉志６丁目９番１７号,,40,101,8000114,,,,,,,2023-11-15,1,,,,,エーフォレスト,0
571,2320003004229,新規,0,2023-11-15,2023-11-15,合同会社楢総,00132648,合同会社,大分県,大分市,大字葛木４７７番地の２,,44,201,8700133,,,,,,,2023-11-15,1,,,,,ナラソウ,0
575,2340001026074,新規,0,2023-11-15,2023-11-15,株式会社マツダ,,株式会社,鹿児島県,大島郡伊仙町,大字伊仙１１９８番地１,,46,532,8918201,,,,,,,2023-11-15,1,,,,,マツダ,0
576,2340001026082,新規,0,2023-11-15,2023-11-15,株式会社いちごハウス木場,,株式会社,鹿児島県,いちき串木野市,大里２８９４番地２,,46,219,8992103,,,,,,,2023-11-15,1,,,,,イチゴハウスコバ,0
580,2370001050633,新規,0,2023-11-15,2023-11-15,株式会社Ｍ．Ｙ　Ａｄｖａｎｃｅ,,株式会社,宮城県,仙台市青葉区,国分町２丁目５番１６号,,04,101,9800803,,,,,,,2023-11-15,1,,,,,エムワイアドバンス,0
583,2370005010708,新規,0,2023-11-15,2023-11-15,一般社団法人もりの工房,,その他の設立登記法人,宮城県,加美郡加美町,字上野目保室１６番地,,04,445,9814374,,,,,,,2023-11-15,1,,,,,モリノコウボウ,0
586,2380001034131,新規,0,2023-11-15,2023-11-15,株式会社鹿島不動産,,株式会社,福島県,南相馬市,鹿島区北海老字堂ケ迫２３番地,00132652,07,212,9792311,,,,,,,2023-11-15,1,,,,,カシマフドウサン,0
589,2410001013643,新規,0,2023-11-15,2023-11-15,株式会社今野佛壇店,,株式会社,秋田県,大仙市,字刈和野４３６番地,,05,212,0192112,,,,,,,2023-11-15,1,,,,,コンノブツダンテン,0
595,2430001090326,新規,0,2023-11-15,2023-11-15,株式会社Ｂ　Ｔｒｕｓｔ,,株式会社,北海道,札幌市中央区,南二十条西８丁目２－１６カレラ山鼻南１０１,,01,101,0640920,,,,,,,2023-11-15,1,,,,,ビートラスト,0
599,2450001014142,新規,0,2023-11-15,2023-11-15,株式会社ＫＣホールディングス,,株式会社,北海道,旭川市,緑町２０丁目３０６７－１株式会社協和コンサルタント３Ｆ,,01,204,0700823,,,,,,,2023-11-15,1,,,,,ケーシーホールディングス,0
603,2480001012291,新規,0,2023-11-15,2023-11-15,株式会社ジョブレイ,,株式会社,徳島県,徳島市,南末広町４番３２－４０３号,,36,201,7700865,,,,,,,2023-11-15,1,,,,,ジョブレイ,0
609,2700150121523,新規,0,2023-11-15,2023-11-15,ＨＥＲＩＴＡＧＥ　ＧＬＯＢＡＬ　ＩＮＶＥＳＴＭＥＮＴ　ＨＯＬＤＩＮＧＳ　ＰＴＥ．ＬＴＤ．,,外国会社等,,,,,,,,８３　ＣＬＥＭＥＮＣＥＡＵ　ＡＶＥＮＵＥ＃１３－０３　ＵＥ　ＳＱＵＡＲＥ　ＳＩＮＧＡＰＯＲＥ,,,,,,2023-11-15,1,,,,,ヘリテージグローバルインベストメントホールデイングスプライベートリミテツド,0
615,3010001240021,新規,0,2023-11-15,2023-11-15,シンク・フリー・カウンセリング・東京株式会社,,株式会社,東京都,中央区,銀座６丁目６番１号銀座風月堂ビル５Ｆ,,13,102,1040061,,,,,,,2023-11-15,1,,,,,シンクフリーカウンセリングトウキョウ,0
616,3010001240038,新規,0,2023-11-15,2023-11-15,株式会社東建,,株式会社,東京都,中央区,日本橋小伝馬町７番１０号エムジー小伝馬町ビル７階,,13,102,1030001,,,,,,,2023-11-15,1,,,,,トウケン,0
617,3010001240054,新規,0,2023-11-15,2023-11-15,株式会社ＶＩＶＯ,,株式会社,東京都,文京区,湯島３丁目２８番１８号,,13,105,1130034,,,,,,,2023-11-15,1,,,,,ヴィーボ,0
618,3010001240079,新規,0,2023-11-15,2023-11-15,ＳＴＡＮＤ＆ＦＯＲＣＥ株式会社,,株式会社,東京都,文京区,本駒込４丁目２０番１１－１３０１号,,13,105,1130021,,,,,,,2023-11-15,1,,,,,スタンドアンドフォース,0
619,3010001240087,新規,0,2023-11-15,2023-11-15,株式会社リベ大アシスタント,,株式会社,東京都,中央区,銀座１丁目１２－４Ｎ＆ＥＢＬＤ．７階,,13,102,1040061,,,,,,,2023-11-15,1,,,,,リベダイアシスタント,0
621,3010003042218,新規,0,2023-11-15,2023-11-15,エスティファンドエイト合同会社,,合同会社,東京都,千代田区,丸の内３丁目１番１号東京共同会計事務所内,,13,101,1000005,,,,,,,2023-11-15,1,,,,,エスティファンドエイト,0
622,3010003042242,新規,0,2023-11-15,2023-11-15,合同会社東京中央事務所,,合同会社,東京都,中央区,銀座７丁目１３番２０号銀座ＴＨビル９階,,13,102,1040061,,,,,,,2023-11-15,1,,,,,トウキョウチュウオウジムショ,0
631,3010401178497,新規,0,2023-11-15,2023-11-15,株式会社ＮＴＫＳ,,株式会社,東京都,港区,西新橋２丁目４番２号９階,,13,103,1050003,,,,,,,2023-11-15,1,,,,,エヌティケイエス,0
632,3010401178506,新規,0,2023-11-15,2023-11-15,株式会社ＪＥＮＮＩ,,株式会社,東京都,港区,麻布十番３丁目７番５号ｄｅｃｉｍｏＡＺＡＢＵ２０２室,,13,103,1060045,,,,,,,2023-11-15,1,,,,,ジェニー,0
633,3010401178514,新規,0,2023-11-15,2023-11-15,株式会社オーシャン,,株式会社,東京都,港区,赤坂９丁目１－２－３０９,,13,103,1070052,,,,,,,2023-11-15,1,,,,,オーシャン,0
634,3010401178530,新規,0,2023-11-15,2023-11-15,株式会社美男,,株式会社,東京都,港区,六本木３丁目３番２７号,,13,103,1060032,,,,,,,2023-11-15,1,,,,,ビオ,0
637,3010403031365,新規,0,2023-11-15,2023-11-15,合同会社Ｃａｎａｌ,,合同会社,東京都,港区,六本木１丁目５番３－１１０５号,,13,103,1060032,,,,,,,2023-11-15,1,,,,,カナル,0
638,3010403031373,新規,0,2023-11-15,2023-11-15,ＨＭＤ合同会社,,合同会社,東京都,港区,芝浦２丁目９－１－１８０２,,13,103,1080023,,,,,,,2023-11-15,1,,,,,エイチエムディ,0
643,3010601064134,新規,0,2023-11-15,2023-11-15,ＵｎｉｃｏｎＢｌｏｃｋ株式会社,,株式会社,東京都,江東区,枝川１丁目１４番６－２０５号,,13,108,1350051,,,,,,,2023-11-15,1,,,,,ユニコンブロック,0
644,3010701045117,新規,0,2023-11-15,2023-11-15,株式会社ＮＯＮ,,株式会社,東京都,品川区,西五反田４丁目１６番７号,,13,109,1410031,,,,,,,2023-11-15,1,,,,,ノン,0
647,3010901054198,新規,0,2023-11-15,2023-11-15,スタジオＧＭ株式会社,,株式会社,東京都,世田谷区,砧３丁目７番２０号,,13,112,1570073,,,,,,,2023-11-15,1,,,,,スタジオジーエム,0
657,3011001157692,新規,0,2023-11-15,2023-11-15,株式会社ダイアナ,,株式会社,東京都,渋谷区,富ヶ谷１丁目３５番２３号,,13,113,1510063,,,,,,,2023-11-15,1,,,,,ダイアナ,0
658,3011001158195,新規,0,2023-11-15,2023-11-15,アイリステック株式会社,,株式会社,東京都,渋谷区,恵比寿西２丁目４番８号ウィンド恵比寿ビル８Ｆ,,13,113,1500021,,,,,,,2023-11-15,1,,,,,アイリステック,0
659,3011001158237,新規,0,2023-11-15,2023-11-15,株式会社ユメミカ,,株式会社,東京都,渋谷区,道玄坂１丁目１０番８号渋谷道玄坂東急ビル２Ｆ－Ｃ,,13,113,1500043,,,,,,,2023-11-15,1,,,,,ユメミカ,0
660,3011001158253,新規,0,2023-11-15,2023-11-15,株式会社ＡＳＵＭＵ,,株式会社,東京都,渋谷区,道玄坂１丁目１０番８号渋谷道玄坂東急ビル２Ｆ－Ｃ,,13,113,1500043,,,,,,,2023-11-15,1,,,,,アスム,0
662,3011003017886,新規,0,2023-11-15,2023-11-15,合同会社ＭＡＲＣＹ,,合同会社,東京都,渋谷区,神泉町１０番１５号アネックス神泉３０１,,13,113,1500045,,,,,,,2023-11-15,1,,,,,マーシー,0
666,3011101105114,新規,0,2023-11-15,2023-11-15,株式会社Ｓｙｓｔｅｍ　Ｒ,,株式会社,東京都,新宿区,西新宿３丁目３－１３西新宿水間ビル６階,,13,104,1600023,,,,,,,2023-11-15,1,,,,,システムアール,0
667,3011101105130,新規,0,2023-11-15,2023-11-15,ＣＮＣＲエナジー株式会社,,株式会社,東京都,新宿区,西新宿６丁目１６番６号新宿タツミビル１００２,,13,104,1600023,,,,,,,2023-11-15,1,,,,,シーエヌシーアールエナジー,0
685,3011701026775,新規,0,2023-11-15,2023-11-15,株式会社光商事,,株式会社,東京都,江戸川区,東小松川３丁目３６番１１号マツエコーポラス１Ｆ棟,,13,123,1320033,,,,,,,2023-11-15,1,,,,,コウショウジ,0
695,3012303001902,新規,0,2023-11-15,2023-11-15,合同会社鈴のり,,合同会社,東京都,町田市,高ヶ坂１丁目１番２２号,,13,209,1940014,,,,,,,2023-11-15,1,,,,,スズノリ,0
697,3012401041214,新規,0,2023-11-15,2023-11-15,株式会社東永,,株式会社,東京都,多摩市,一ノ宮４丁目３４番地の２９,,13,224,2060002,,,,,,,2023-11-15,1,,,,,トウエイ,0
704,3013301051625,新規,0,2023-11-15,2023-11-15,株式会社セネン,,株式会社,東京都,豊島区,東池袋１丁目３４番５号,,13,116,1700013,,,,,,,2023-11-15,1,,,,,セネン,0
705,3013301051641,新規,0,2023-11-15,2023-11-15,静森株式会社,,株式会社,東京都,豊島区,池袋２丁目２４番２号１４０２号,,13,116,1710014,,,,,,,2023-11-15,1,,,,,セイシン,0
715,3020001154468,新規,0,2023-11-15,2023-11-15,株式会社トミタ式,,株式会社,神奈川県,横浜市青葉区,すすき野１丁目３番地１リビオあざみ野ブライティアＡ－３０４,,14,117,2250021,,,,,,,2023-11-15,1,,,,,トミタシキ,0
716,3020001154476,新規,0,2023-11-15,2023-11-15,株式会社ホテルインフォメーションワークス,,株式会社,神奈川県,横浜市神奈川区,栄町５番地１,,14,102,2210052,,,,,,,2023-11-15,1,,,,,ホテルインフォメーションワークス,0
719,3020003024974,新規,0,2023-11-15,2023-11-15,合同会社アディクション,,合同会社,神奈川県,横浜市中区,若葉町３丁目５１番地ビクセル伊勢佐木町５１０号,,14,104,2310056,,,,,,,2023-11-15,1,,,,,アディクション,0
720,3020003025007,新規,0,2023-11-15,2023-11-15,合同会社ＶＥＲＳＹＮＴＡ,,合同会社,神奈川県,川崎市川崎区,砂子１丁目１０番１号,,14,131,2100006,,,,,,,2023-11-15,1,,,,,ヴァーシンタ,0
721,3020003025015,新規,0,2023-11-15,2023-11-15,合同会社守矢商会,,合同会社,神奈川県,横浜市保土ケ谷区,新井町５５６番地２９,,14,106,2400053,,,,,,,2023-11-15,1,,,,,モリヤショウカイ,0
722,3020005016185,新規,0,2023-11-15,2023-11-15,一般社団法人日本仏教連盟,,その他の設立登記法人,神奈川県,横浜市青葉区,新石川４丁目３２番地１２,,14,117,2250003,,,,,,,2023-11-15,1,,,,,ニホンブッキョウレンメイ,0
726,3021001080729,新規,0,2023-11-15,2023-11-15,株式会社Ｌ’ｏｎｄｅ,,株式会社,神奈川県,横須賀市,光風台４番８号,,14,201,2390820,,,,,,,2023-11-15,1,,,,,ロンド,0
727,3021001080737,新規,0,2023-11-15,2023-11-15,株式会社季林書房,,株式会社,神奈川県,中郡大磯町,高麗２丁目７番２３号,,14,341,2550001,,,,,,,2023-11-15,1,,,,,キリンショボウ,0
736,3030001157131,新規,0,2023-11-15,2023-11-15,株式会社ＮＨＳコーポレーション,,株式会社,埼玉県,さいたま市南区,大字太田窪２１１２番地４０,,11,108,3360015,,,,,,,2023-11-15,1,,,,,エヌエイチエスコーポレーション,0
737,3030001157148,新規,0,2023-11-15,2023-11-15,株式会社リング,,株式会社,埼玉県,蕨市,北町１丁目１６番１３号本田マンション２号棟２Ｆ０８号室,,11,223,3350001,,,,,,,2023-11-15,1,,,,,リング,0
738,3030001157164,新規,0,2023-11-15,2023-11-15,株式会社宮前建工,,株式会社,埼玉県,さいたま市北区,奈良町３０番地１５,,11,102,3310822,,,,,,,2023-11-15,1,,,,,ミヤマエケンコウ,0
739,3030001157172,新規,0,2023-11-15,2023-11-15,株式会社ＴＯＷＡ,,株式会社,埼玉県,北葛飾郡杉戸町,大字椿７７３番地,,11,464,3450013,,,,,,,2023-11-15,1,,,,,トーワ,0
744,3030003022985,新規,0,2023-11-15,2023-11-15,合同会社コスモス,,合同会社,埼玉県,さいたま市北区,今羽町２１１番地６,,11,102,3310801,,,,,,,2023-11-15,1,,,,,コスモス,0
747,3040001130921,新規,0,2023-11-15,2023-11-15,株式会社Ｙ・Ｄｒｅａｍ,,株式会社,千葉県,船橋市,本町６丁目１２番４号,,12,204,2730005,,,,,,,2023-11-15,1,,,,,ワイドリーム,0
749,3040003023710,新規,0,2023-11-15,2023-11-15,エターナル・ナウ合同会社,,合同会社,千葉県,野田市,花井２４８番地の１０,,12,208,2780026,,,,,,,2023-11-15,1,,,,,エターナルナウ,0
754,3050001053824,新規,0,2023-11-15,2023-11-15,株式会社クラウン,,株式会社,茨城県,土浦市,右籾１１７５番地２ヤマダイビル１階,,08,203,3000837,,,,,,,2023-11-15,1,,,,,クラウン,0
755,3050003007919,新規,0,2023-11-15,2023-11-15,吉冨商事合同会社,,合同会社,茨城県,龍ケ崎市,若柴町２２４０―７,,08,208,3010041,,,,,,,2023-11-15,1,,,,,ヨシトミショウジ,0
756,3050003007935,新規,0,2023-11-15,2023-11-15,ＪＰ　ＴＲＡＤＩＮＧ合同会社,,合同会社,茨城県,古河市,諸川１８７６番地３スズキハイツＡ－１０２,,08,204,3060126,,,,,,,2023-11-15,1,,,,,ゼーピートレーディング,0
759,3060001036555,新規,0,2023-11-15,2023-11-15,株式会社青木畜産,,株式会社,栃木県,塩谷郡塩谷町,大字肘内６３６番地,,09,384,3292333,,,,,,,2023-11-15,1,,,,,アオキチクサン,0
767,3080001025977,新規,0,2023-11-15,2023-11-15,株式会社ｄｏｚｏ,,株式会社,静岡県,静岡市駿河区,泉町８－５,,22,102,4228066,,,,,,,2023-11-15,1,,,,,ドーゾ,0
769,3080005007583,新規,0,2023-11-15,2023-11-15,特定非営利活動法人Ｆｉｒｅ　Ｃｒｏｓｓ　Ｆｕｎｃｔｉｏｎａｌ　Ｔｅａｍ,,その他の設立登記法人,静岡県,焼津市,駅北１丁目８番２５号,,22,212,4250028,,,,,,,2023-11-15,1,,,,,ファイヤークロスファンクショナルチーム,0
775,3090003002429,新規,0,2023-11-15,2023-11-15,合同会社ｕｐｗａｒｄｓ,,合同会社,山梨県,富士吉田市,大明見５丁目１３－８,,19,202,4030003,,,,,,,2023-11-15,1,,,,,アップワーズ,0
777,3100003007260,新規,0,2023-11-15,2023-11-15,Ｈａｚｅ合同会社,,合同会社,長野県,北安曇郡白馬村,大字北城４６７１番地１,,20,485,3999301,,,,,,,2023-11-15,1,,,,,ヘイズ,0
781,3110001037969,新規,0,2023-11-15,2023-11-15,株式会社エンジョイプランニング,,株式会社,新潟県,上越市,大豆２丁目４番８号ファミール大豆１０１,,15,222,9430802,,,,,,,2023-11-15,1,,,,,エンジョイプランニング,0
784,3110003005214,新規,0,2023-11-15,2023-11-15,＿岩合同会社,00132649,合同会社,新潟県,柏崎市,大字北条３９８０番地２,,15,205,9493732,,,,,,,2023-11-15,1,,,,,シンイワ,0
791,3120001259876,新規,0,2023-11-15,2023-11-15,株式会社Ｕｍｕ,,株式会社,大阪府,大阪市東淀川区,豊新３丁目３番２３号フジパレス豊新ＩＩＩ番館３０３号,00132656,27,114,5330014,,,,,,,2023-11-15,1,,,,,ウム,0
794,3120003025327,新規,0,2023-11-15,2023-11-15,合同会社ほしのま,,合同会社,大阪府,大阪市北区,豊崎４丁目４番３号,,27,127,5310072,,,,,,,2023-11-15,1,,,,,ホシノマ,0
798,3120101068533,新規,0,2023-11-15,2023-11-15,ＳＥＣ株式会社,,株式会社,大阪府,堺市東区,日置荘西町６丁９番１７号,,27,143,5998114,,,,,,,2023-11-15,1,,,,,エスイーシー,0
804,3122001037568,新規,0,2023-11-15,2023-11-15,ＲＪ　ｃｏｍｐａｎｙ株式会社,,株式会社,大阪府,東大阪市,新庄南７番２３号,,27,227,5780958,,,,,,,2023-11-15,1,,,,,アールジェイカンパニー,0
815,3140001132338,新規,0,2023-11-15,2023-11-15,株式会社Ａｖｅｎｇｅｒｓ,,株式会社,兵庫県,姫路市,北原３６２番地１,,28,201,6728002,,,,,,,2023-11-15,1,,,,,アベンジャーズ,0
816,3140001132354,新規,0,2023-11-15,2023-11-15,ＳｔｒａｄａＷｏｒｋｓ株式会社,,株式会社,兵庫県,姫路市,豊富町御蔭２５０－６６,,28,201,6792122,,,,,,,2023-11-15,1,,,,,ストラーダワークス,0
817,3140001132362,新規,0,2023-11-15,2023-11-15,Ｆ＆Ａマネジメント株式会社,,株式会社,兵庫県,宝塚市,湯本町１０番４５－９０２号,,28,214,6650003,,,,,,,2023-11-15,1,,,,,エフアンドエーマネジメント,0
818,3140003019814,新規,0,2023-11-15,2023-11-15,Ｃｒａｆｔｉｅ　Ｃａｎｖａｓ合同会社,,合同会社,兵庫県,姫路市,飾磨区富士見ケ丘町１５－２７,,28,201,6728098,,,,,,,2023-11-15,1,,,,,クラフティキャンバス,0
819,3140003019822,新規,0,2023-11-15,2023-11-15,合同会社ｋｕｒａｓａｋｉ,,合同会社,兵庫県,西宮市,宮西町３番２３号,,28,204,6620976,,,,,,,2023-11-15,1,,,,,クラサキ,0
829,3180001158932,新規,0,2023-11-15,2023-11-15,株式会社Ｏｆｆｉｃｅ　ＳＮＤ,,株式会社,愛知県,知多郡南知多町,大字片名字新師崎１４番地の５,,23,445,4703502,,,,,,,2023-11-15,1,,,,,オフィスエスエヌディ,0
830,3180001158957,新規,0,2023-11-15,2023-11-15,株式会社Ｃ・Ｍ・Ｗ,,株式会社,愛知県,名古屋市熱田区,金山町１丁目１１番２号,,23,109,4560002,,,,,,,2023-11-15,1,,,,,シーエムダブリュー,0
835,3190001030850,新規,0,2023-11-15,2023-11-15,株式会社奥志摩観光ホテル南風荘,,株式会社,三重県,志摩市,浜島町浜島１４１６番地,,24,215,5170404,,,,,,,2023-11-15,1,,,,,オクシマカンコウホテルナンプウソウ,0
836,3190001030883,新規,0,2023-11-15,2023-11-15,株式会社山水園,,株式会社,三重県,桑名市,多度町平古３６６番地,,24,205,5110111,,,,,,,2023-11-15,1,,,,,サンスイエン,0
840,3200001041904,新規,0,2023-11-15,2023-11-15,株式会社トライ,,株式会社,岐阜県,土岐市,肥田町浅野１０７８番地の６９,,21,212,5095114,,,,,,,2023-11-15,1,,,,,トライ,0
844,3240001062426,新規,0,2023-11-15,2023-11-15,株式会社弥,,株式会社,広島県,広島市中区,中島町２番４号ピースパークビル２０１,,34,101,7300811,,,,,,,2023-11-15,1,,,,,アマネ,0
855,3290001103737,新規,0,2023-11-15,2023-11-15,株式会社キノデンワークス,,株式会社,福岡県,みやま市,瀬高町上庄６０６番地６,,40,229,8350025,,,,,,,2023-11-15,1,,,,,キノデンワークス,0
856,3290001103745,新規,0,2023-11-15,2023-11-15,株式会社もつこばフーズ,,株式会社,福岡県,福岡市中央区,警固２丁目２番１９－１２０３号,,40,133,8100023,,,,,,,2023-11-15,1,,,,,モツコバフーズ,0
857,3290001103753,新規,0,2023-11-15,2023-11-15,株式会社石原建設,,株式会社,福岡県,福岡市城南区,梅林２丁目１５番２２号,,40,136,8140144,,,,,,,2023-11-15,1,,,,,イシハラケンセツ,0
861,3290801030049,新規,0,2023-11-15,2023-11-15,株式会社ＦＵＪＩエクスプレス,,株式会社,福岡県,北九州市小倉南区,葛原５丁目６番３０号,,40,107,8000251,,,,,,,2023-11-15,1,,,,,フジエクスプレス,0
871,3340001026073,新規,0,2023-11-15,2023-11-15,株式会社浜口ざわわファーム,,株式会社,鹿児島県,大島郡伊仙町,大字犬田布４３９番地１,,46,532,8918327,,,,,,,2023-11-15,1,,,,,ハマグチザワワファーム,0
875,3350001018664,新規,0,2023-11-15,2023-11-15,株式会社アツマル,,株式会社,宮崎県,宮崎市,橘通西１丁目２番２５号橘パークビル１階,,45,201,8800001,,,,,,,2023-11-15,1,,,,,アツマル,0
882,3380001034130,新規,0,2023-11-15,2023-11-15,刻書クラブ株式会社,,株式会社,福島県,郡山市,富田東４丁目２５番地,,07,203,9638047,,,,,,,2023-11-15,1,,,,,コクショクラブ,0
886,3420001018483,新規,0,2023-11-15,2023-11-15,株式会社田村商事,,株式会社,青森県,弘前市,大字青樹町１８番地７,,02,202,0368246,,,,,,,2023-11-15,1,,,,,タムラショウジ,0
888,3430001090416,新規,0,2023-11-15,2023-11-15,株式会社龍一建運,,株式会社,北海道,虻田郡ニセコ町,字富士見１３１番地５,,01,395,0481501,,,,,,,2023-11-15,1,,,,,リュウイチケウン,0
889,3430001090449,新規,0,2023-11-15,2023-11-15,株式会社テクニカ,,株式会社,北海道,札幌市豊平区,月寒西一条２丁目１番５５号,,01,105,0620021,,,,,,,2023-11-15,1,,,,,テクニカ,0
898,3460103001573,新規,0,2023-11-15,2023-11-15,Ａ‐ＭＯＤｅ合同会社,,合同会社,北海道,帯広市,西十八条南３丁目３３番１３号,,01,207,0800028,,,,,,,2023-11-15,1,,,,,エーモード,0
901,3470001019898,新規,0,2023-11-15,2023-11-15,株式会社Ｓｕｎｎｙ　Ｔｒｕｓｔ,,株式会社,香川県,高松市,三谷町１７１５－２,,37,201,7610450,,,,,,,2023-11-15,1,,,,,サニートラスト,0
903,3480001012290,新規,0,2023-11-15,2023-11-15,株式会社四国ホームペイント,,株式会社,徳島県,板野郡北島町,中村字岸ノ上１番地２６４,,36,402,7710203,,,,,,,2023-11-15,1,,,,,シコクホームペイント,0
917,4010001240029,新規,0,2023-11-15,2023-11-15,豊田新化成株式会社,,株式会社,東京都,中央区,日本橋小網町１８番１１号,,13,102,1030016,,,,,,,2023-11-15,1,,,,,トヨダシンカセイ,0
918,4010001240045,新規,0,2023-11-15,2023-11-15,東京海上レジリエンス株式会社,,株式会社,東京都,千代田区,大手町２丁目６番４号,,13,101,1000004,,,,,,,2023-11-15,1,,,,,トウキョウカイジョウレジリエンス,0
919,4010001240053,新規,0,2023-11-15,2023-11-15,株式会社岩田商店,,株式会社,東京都,千代田区,神田和泉町１番地６の１６ヤマトビル４０５号,,13,101,1010024,,,,,,,2023-11-15,1,,,,,イワタショウテン,0
920,4010001240086,新規,0,2023-11-15,2023-11-15,ビーラボ株式会社,,株式会社,東京都,中央区,銀座７丁目１３番２１号銀座ｓｉｎｒｏｋｕｓｙｕビル２階,,13,102,1040061,,,,,,,2023-11-15,1,,,,,ビーラボ,0
921,4010002019348,新規,0,2023-11-15,2023-11-15,有限会社クロスステッチ,,有限会社,東京都,中央区,日本橋小伝馬町６番１２号日本橋森ビル,,13,102,1030001,,,,,,,2023-11-15,1,,,,,クロスステッチ,0
924,4010003042175,新規,0,2023-11-15,2023-11-15,合同会社あさがお,,合同会社,東京都,千代田区,平河町１丁目３番１３号平河町フロントビル７階株式会社シリウス・アドバイザリー内,,13,101,1020093,,,,,,,2023-11-15,1,,,,,アサガオ,0
925,4010003042217,新規,0,2023-11-15,2023-11-15,合同会社Ｔｓｕｍｕｇｉ,,合同会社,東京都,中央区,銀座７丁目１３番２１号銀座ｓｉｎｒｏｋｕｓｙｕビル２階,,13,102,1040061,,,,,,,2023-11-15,1,,,,,ツムギ,0
928,4010005037520,新規,0,2023-11-15,2023-11-15,赤坂インベストメント・フォー一般社団法人,,その他の設立登記法人,東京都,中央区,八丁堀４丁目２番１０号ＡＯＪ税理士法人内,,13,102,1040032,,,,,,,2023-11-15,1,,,,,アカサカインベストメントフォー,0
929,4010103002252,新規,0,2023-11-15,2023-11-15,モノゴト製作所合同会社,,合同会社,東京都,八王子市,下恩方町１１０４番地１,,13,201,1920154,,,,,,,2023-11-15,1,,,,,モノゴトセイサクジョ,0
942,4010401178513,新規,0,2023-11-15,2023-11-15,株式会社ＨａｔＣｈｕＰａｙ,,株式会社,東京都,港区,六本木６丁目１０番１号１６階,,13,103,1060032,,,,,,,2023-11-15,1,,,,,ハッチュウペイ,0
943,4010401178521,新規,0,2023-11-15,2023-11-15,株式会社Ｎｅｘｔ　Ｃｏｎｄｉｔｉｏｎｉｎｇ,,株式会社,東京都,港区,芝大門１丁目１１番８,,13,103,1050012,,,,,,,2023-11-15,1,,,,,ネクストコンディショニング,0
946,4010403031356,新規,0,2023-11-15,2023-11-15,合同会社Ｋｌａｎｇ,,合同会社,東京都,港区,北青山１丁目３番１号アールキューブ青山３階,,13,103,1070061,,,,,,,2023-11-15,1,,,,,クラング,0
947,4010403031364,新規,0,2023-11-15,2023-11-15,合同会社Ｔｏｒｒｅｎｔ,,合同会社,東京都,港区,六本木１丁目５番３－１１０５号,,13,103,1060032,,,,,,,2023-11-15,1,,,,,トレント,0
954,4010601064158,新規,0,2023-11-15,2023-11-15,株式会社Ｍ＆Ｓ,,株式会社,東京都,江東区,東雲１丁目１番１６－７０９号,,13,108,1350062,,,,,,,2023-11-15,1,,,,,エムアンドエス,0
955,4010603010481,新規,0,2023-11-15,2023-11-15,ＳＴＥＥＲＹ合同会社,,合同会社,東京都,江東区,猿江１丁目５－１－３０６,,13,108,1350003,,,,,,,2023-11-15,1,,,,,スティアリー,0
957,4010701045116,新規,0,2023-11-15,2023-11-15,株式会社ｓｉｃ’ｓ,,株式会社,東京都,品川区,西大井２丁目１８番８号,,13,109,1400015,,,,,,,2023-11-15,1,,,,,シックス,0
958,4010701045132,新規,0,2023-11-15,2023-11-15,日本如是道株式会社,,株式会社,東京都,品川区,大崎３丁目５番２号６階,,13,109,1410032,,,,,,,2023-11-15,1,,,,,ニホンニョゼドウ,0
966,4010901054180,新規,0,2023-11-15,2023-11-15,株式会社クレアテオ,,株式会社,東京都,世田谷区,北沢２丁目３７番１３号ハイヒルズ２０２,,13,112,1550031,,,,,,,2023-11-15,1,,,,,クレアテオ,0
967,4010901054189,新規,0,2023-11-15,2023-11-15,株式会社ＣＯＵＢＯＵ,,株式会社,東京都,世田谷区,大原１丁目８－６フェリスジョイ２０４,,13,112,1560041,,,,,,,2023-11-15,1,,,,,コウボウ,0
974,4011001158228,新規,0,2023-11-15,2023-11-15,株式会社ＪＳＧ,,株式会社,東京都,目黒区,下目黒２丁目２１番２０－Ｎ７１０号,,13,110,1530064,,,,,,,2023-11-15,1,,,,,ジェイエスジー,0
975,4011001158236,新規,0,2023-11-15,2023-11-15,株式会社フジサワ,,株式会社,東京都,目黒区,下目黒２丁目９番２－９１７号,,13,110,1530064,,,,,,,2023-11-15,1,,,,,フジサワ,0
976,4011001158285,新規,0,2023-11-15,2023-11-15,株式会社ｓｈａｆｕ,,株式会社,東京都,渋谷区,代々木４丁目５２－２１－２１９,,13,113,1510053,,,,,,,2023-11-15,1,,,,,シャフ,0
979,4011003017910,新規,0,2023-11-15,2023-11-15,オリーブアーク合同会社,,合同会社,東京都,目黒区,大岡山１丁目３－１３,,13,110,1520033,,,,,,,2023-11-15,1,,,,,オリーブアーク,0
980,4011003017935,新規,0,2023-11-15,2023-11-15,合同会社ＲＩＲＯ,,合同会社,東京都,渋谷区,恵比寿西１丁目３３－６ＪＰｎｏｉｅ１Ｆ,,13,113,1500021,,,,,,,2023-11-15,1,,,,,リロ,0
981,4011003017943,新規,0,2023-11-15,2023-11-15,合同会社クリエイト,,合同会社,東京都,渋谷区,恵比寿西２丁目４番８号ウィンド恵比寿ビル８Ｆ,,13,113,1500021,,,,,,,2023-11-15,1,,,,,クリエイト,0
991,4011103013751,新規,0,2023-11-15,2023-11-15,合同会社殻,,合同会社,東京都,新宿区,荒木町２３－４船越ビル３０３,,13,104,1600007,,,,,,,2023-11-15,1,,,,,カラ,0
998,4011501029985,新規,0,2023-11-15,2023-11-15,株式会社Ｙ＆Ｍ,,株式会社,東京都,荒川区,南千住３丁目３６番４号,,13,118,1160003,,,,,,,2023-11-15,1,,,,,ワイアンドエム,0
1000,4011601027278,新規,0,2023-11-15,2023-11-15,株式会社すま・う,,株式会社,東京都,練馬区,春日町５丁目３３番４号,,13,120,1790074,,,,,,,2023-11-15,1,,,,,スマウ,0
1001,4011603004127,新規,0,2023-11-15,2023-11-15,合同会社ＳＨＯＩＮ,,合同会社,東京都,練馬区,大泉学園町２丁目２５番１号,,13,120,1780061,,,,,,,2023-11-15,1,,,,,ショーイン,0
1006,4012403006271,新規,0,2023-11-15,2023-11-15,合同会社市村事務所,,合同会社,東京都,調布市,上石原１丁目５番地６,,13,208,1820035,,,,,,,2023-11-15,1,,,,,イチムラジムショ,0
1009,4012801022762,新規,0,2023-11-15,2023-11-15,株式会社優真電設,,株式会社,東京都,立川市,錦町６丁目２３番１０号セザール立川Ｂ館１２２号,,13,202,1900022,,,,,,,2023-11-15,1,,,,,ユウシンデンセツ,0
1013,4013301051640,新規,0,2023-11-15,2023-11-15,エナジーアール株式会社,,株式会社,東京都,豊島区,南大塚２丁目３８－１ＲＥＩＤ－Ｃ大塚ビル７－１２,,13,116,1700005,,,,,,,2023-11-15,1,,,,,エナジーアール,0
1021,4020001154475,新規,0,2023-11-15,2023-11-15,株式会社Ｂｒｉｄｇｅ　Ｈｏｕｓｅ,,株式会社,神奈川県,横浜市中区,住吉町１丁目５番地,,14,104,2310013,,,,,,,2023-11-15,1,,,,,ブリッジハウス,0
1022,4020001154483,新規,0,2023-11-15,2023-11-15,株式会社オリマツホールディングス,,株式会社,神奈川県,横浜市神奈川区,青木町１０番地の２,,14,102,2210057,,,,,,,2023-11-15,1,,,,,オリマツホールディングス,0
1023,4020003025006,新規,0,2023-11-15,2023-11-15,ＨＡＣＯ‐ＢＩＪＵＴＳＵ合同会社,,合同会社,神奈川県,横浜市保土ケ谷区,釜台町１４番１－１１０号,,14,106,2400066,,,,,,,2023-11-15,1,,,,,ハコビジュツ,0
1029,4021001080736,新規,0,2023-11-15,2023-11-15,トヨウケ株式会社,,株式会社,神奈川県,相模原市中央区,千代田１丁目６番９号,,14,152,2520237,,,,,,,2023-11-15,1,,,,,トヨウケ,0
1030,4021001080744,新規,0,2023-11-15,2023-11-15,クリサンパワー株式会社,,株式会社,神奈川県,足柄下郡箱根町,湯本１６２－３ＨＡＫＯＮＥ　ＹＵＭＯＴＯ　ＢＡＳＥ１号室,,14,382,2500311,,,,,,,2023-11-15,1,,,,,クリサンパワー,0
1031,4021001080752,新規,0,2023-11-15,2023-11-15,株式会社椿,,株式会社,神奈川県,大和市,深見３４０４番地４,,14,213,2420011,,,,,,,2023-11-15,1,,,,,ツバキ,0
1039,4030001157171,新規,0,2023-11-15,2023-11-15,株式会社ゆーずフル,,株式会社,埼玉県,和光市,下新倉２丁目２５番２号,,11,229,3510111,,,,,,,2023-11-15,1,,,,,ユーズフル,0
1043,4030003022976,新規,0,2023-11-15,2023-11-15,合同会社Ｏｆｆｉｃｅ　ＫＢ,,合同会社,埼玉県,さいたま市大宮区,桜木町２丁目３番地大宮マルイ７階,,11,103,3300854,,,,,,,2023-11-15,1,,,,,オフィスケービー,0
1048,4040001130920,新規,0,2023-11-15,2023-11-15,株式会社Ｒａｐｐｏｒｔ,,株式会社,千葉県,市原市,五井東２丁目１３番地６サンシャイン五井３０３号,,12,219,2900055,,,,,,,2023-11-15,1,,,,,ラポール,0
1049,4040001130929,新規,0,2023-11-15,2023-11-15,丸平商事株式会社,,株式会社,千葉県,成田市,小浮１６３９番地１,,12,211,2890101,,,,,,,2023-11-15,1,,,,,マルヘイショウジ,0
1050,4040001130937,新規,0,2023-11-15,2023-11-15,株式会社誠和,,株式会社,千葉県,木更津市,金田東１丁目２０番地１３メゾンゴッドメイクＩＩ１０５,00132666,12,206,2920009,,,,,,,2023-11-15,1,,,,,セイワ,0
1056,4050003007950,新規,0,2023-11-15,2023-11-15,ユニバーサルライフデザイン合同会社,,合同会社,茨城県,牛久市,ひたち野東４丁目２５番地８３,,08,219,3001207,,,,,,,2023-11-15,1,,,,,ユニバーサルライフデザイン,0
1060,4060001036546,新規,0,2023-11-15,2023-11-15,株式会社ＮＡＲＡＨＡＲＡ,,株式会社,栃木県,佐野市,堀米町３６７６番地２,,09,204,3270843,,,,,,,2023-11-15,1,,,,,ナラハラ,0
1063,4060003004807,新規,0,2023-11-15,2023-11-15,Ｓａｄｄａｍ　Ｔｒａｄｉｎｇ合同会社,,合同会社,栃木県,栃木市,岩舟町新里１３０４番地３５号室,,09,203,3294316,,,,,,,2023-11-15,1,,,,,サダムトレーディング,0
1065,4060005010150,新規,0,2023-11-15,2023-11-15,一般社団法人きらむぎサッカーパーク,,その他の設立登記法人,栃木県,那須塩原市,東小屋２９５番地４,,09,213,3293147,,,,,,,2023-11-15,1,,,,,キラムギサッカーパーク,0
1069,4080001025976,新規,0,2023-11-15,2023-11-15,Ｅリビルトサービス株式会社,,株式会社,静岡県,静岡市葵区,慈悲尾１８９番地の６,,22,101,4211211,,,,,,,2023-11-15,1,,,,,イーリビルトサービス,0
1089,4120001259272,新規,0,2023-11-15,2023-11-15,株式会社ＺＥＡＲ　Ｐｒｏｍｏｔｉｏｎ,,株式会社,大阪府,大阪市東住吉区,山坂１丁目１０番１３号ドルチェグラン山坂９０２号,,27,121,5460035,,,,,,,2023-11-15,1,,,,,ゼアープロモーション,0
1090,4120001259883,新規,0,2023-11-15,2023-11-15,株式会社Ｈｉｉｚｌｅ,,株式会社,大阪府,大阪市北区,梅田１丁目２番２－２００号大阪駅前第２ビル２階３－１－２,,27,127,5300001,,,,,,,2023-11-15,1,,,,,ヒーズル,0
1100,4120101068458,新規,0,2023-11-15,2023-11-15,株式会社縁,,株式会社,大阪府,松原市,天美我堂７丁目５０４番地（２０５号）,,27,217,5800026,,,,,,,2023-11-15,1,,,,,エニシ,0
1101,4120101068532,新規,0,2023-11-15,2023-11-15,株式会社旺盛,,株式会社,大阪府,堺市堺区,宿院町西３丁２番１４－７０１号,,27,141,5900958,,,,,,,2023-11-15,1,,,,,オオショウ,0
1102,4120101068549,新規,0,2023-11-15,2023-11-15,株式会社ハルノテック,,株式会社,大阪府,大阪狭山市,今熊４丁目７１１番地の６,,27,231,5890021,,,,,,,2023-11-15,1,,,,,ハルノテック,0
1103,4120103005533,新規,0,2023-11-15,2023-11-15,合同会社Ｓ＆Ｓ,,合同会社,大阪府,和泉市,上町４３６番地の３４,,27,219,5940002,,,,,,,2023-11-15,1,,,,,エスアンドエス,0
1104,4120901048361,新規,0,2023-11-15,2023-11-15,株式会社リサント,,株式会社,大阪府,豊中市,桜の町６丁目３番３１号,,27,203,5600054,,,,,,,2023-11-15,1,,,,,リサント,0
1107,4122001037567,新規,0,2023-11-15,2023-11-15,樹商会株式会社,,株式会社,大阪府,東大阪市,布市町１丁目６番３５号,,27,227,5798004,,,,,,,2023-11-15,1,,,,,イツキショウカイ,0
1114,4130001075611,新規,0,2023-11-15,2023-11-15,株式会社蓮珠,,株式会社,京都府,京都市左京区,北白川久保田町４８番地１－２０３号,,26,103,6068266,,,,,,,2023-11-15,1,,,,,レンジュ,0
1115,4130001075702,新規,0,2023-11-15,2023-11-15,株式会社二條和漢薬,,株式会社,京都府,京都市中京区,二条通烏丸東入仁王門町６番地,,26,104,6040854,,,,,,,2023-11-15,1,,,,,ニジョウワカンヤク,0
1116,4130003009121,新規,0,2023-11-15,2023-11-15,ＨＯＭＥＰＬＵＳ合同会社,,合同会社,京都府,京都市南区,東九条西御霊町２２番地６,,26,107,6018042,,,,,,,2023-11-15,1,,,,,ホームプラス,0
1117,4130003009138,新規,0,2023-11-15,2023-11-15,合同会社ＹＵＺＵ,,合同会社,京都府,亀岡市,篠町森東垣内１４番地,,26,206,6210831,,,,,,,2023-11-15,1,,,,,ユズ,0
1120,4140001132329,新規,0,2023-11-15,2023-11-15,株式会社ＢＳＫセキュリティ,,株式会社,兵庫県,高砂市,高砂町田町４７１番地の１,,28,216,6760049,,,,,,,2023-11-15,1,,,,,ビーエスケーセキュリティ,0
1121,4140001132337,新規,0,2023-11-15,2023-11-15,ＫＯＢＡＤＥＮ株式会社,,株式会社,兵庫県,三木市,末広２丁目８番１３号,,28,215,6730403,,,,,,,2023-11-15,1,,,,,コバデン,0
1122,4140001132361,新規,0,2023-11-15,2023-11-15,神戸ハンバーグ株式会社,,株式会社,兵庫県,加古郡稲美町,加古３８９５番地,,28,381,6751105,,,,,,,2023-11-15,1,,,,,コウベハンバーグ,0
1126,4140003019813,新規,0,2023-11-15,2023-11-15,合同会社カヤック,,合同会社,兵庫県,神戸市西区,池上２丁目３０番地の５ユニコーポ１Ｆ,,28,111,6512111,,,,,,,2023-11-15,1,,,,,カヤック,0
1128,4160001025506,新規,0,2023-11-15,2023-11-15,株式会社ＡＬＬ　ＩＮ,,株式会社,滋賀県,東近江市,青葉町３番１７号,,25,213,5270039,,,,,,,2023-11-15,1,,,,,オールイン,0
1130,4160003003039,新規,0,2023-11-15,2023-11-15,合同会社ヨコタクニアキ,,合同会社,滋賀県,大津市,西の庄２０－３１－６０９,,25,201,5200818,,,,,,,2023-11-15,1,,,,,ヨコタクニアキ,0
1140,4180001158931,新規,0,2023-11-15,2023-11-15,ライフシフト株式会社,,株式会社,愛知県,名古屋市緑区,徳重１丁目１１１９番地,,23,114,4580815,,,,,,,2023-11-15,1,,,,,ライフシフト,0
1141,4180001158956,新規,0,2023-11-15,2023-11-15,株式会社なごやか,,株式会社,愛知県,名古屋市中区,栄１丁目２４番１１号タワー・ザ・ファースト名古屋栄１９０６号,,23,106,4600008,,,,,,,2023-11-15,1,,,,,ナゴヤカ,0
1142,4180001158972,新規,0,2023-11-15,2023-11-15,株式会社Ｂｅａｒ　Ｃｏｍｍｉｔ,,株式会社,愛知県,名古屋市中村区,名駅４丁目２４番５号第２森ビル４０１,,23,105,4500002,,,,,,,2023-11-15,1,,,,,ベアコミット,0
1148,4180003025997,新規,0,2023-11-15,2023-11-15,蓮波合同会社,,合同会社,愛知県,名古屋市千種区,楠元町２丁目６０－２ｔｈｅ　ｌｏｆｔ４Ｅ,,23,101,4640037,,,,,,,2023-11-15,1,,,,,レンハ,0
1152,4190001030890,新規,0,2023-11-15,2023-11-15,株式会社ＪＸＰ,,株式会社,三重県,伊勢市,黒瀬町１２７番地７,,24,203,5160018,,,,,,,2023-11-15,1,,,,,ジェーエックスピー,0
1153,4190003004505,新規,0,2023-11-15,2023-11-15,太陽農工合同会社,,合同会社,三重県,四日市市,日永西５丁目１７‐１９,,24,202,5100891,,,,,,,2023-11-15,1,,,,,タイヨウノウコウ,0
1166,4240001062425,新規,0,2023-11-15,2023-11-15,株式会社ミシマ酒販,,株式会社,広島県,広島市南区,出汐１丁目１５番１２号,,34,103,7340001,,,,,,,2023-11-15,1,,,,,,0
1173,4260001038489,新規,0,2023-11-15,2023-11-15,株式会社Ｌｉｖｅｒａ　Ｖｉｅｗ,,株式会社,岡山県,倉敷市,連島２丁目４番３２号,,33,202,7128012,,,,,,,2023-11-15,1,,,,,,0
1179,4290001103736,新規,0,2023-11-15,2023-11-15,株式会社大久保製材所,,株式会社,福岡県,八女市,立花町北山８４０番地１,,40,210,8340085,,,,,,,2023-11-15,1,,,,,オオクボセイザイショ,0
1180,4290001103744,新規,0,2023-11-15,2023-11-15,株式会社ｔｅｔｏｔｅ,,株式会社,福岡県,春日市,小倉５丁目１２番地２,,40,218,8160824,,,,,,,2023-11-15,1,,,,,テトテ,0
1181,4290001103760,新規,0,2023-11-15,2023-11-15,ライトキャリア株式会社,,株式会社,福岡県,福岡市中央区,輝国２丁目１４番２３号,,40,133,8100032,,,,,,,2023-11-15,1,,,,,ライトキャリア,0
1185,4290003014618,新規,0,2023-11-15,2023-11-15,合同会社Ｒａｉｓｅ,,合同会社,福岡県,宗像市,田熊２丁目６－２５,,40,220,8113431,,,,,,,2023-11-15,1,,,,,レイズ,0
1187,4300001013529,新規,0,2023-11-15,2023-11-15,株式会社フォーティーンスタジオ,,株式会社,佐賀県,佐賀市,天神２丁目２番３３号藤山ビル３Ｆ,,41,201,8400815,,,,,,,2023-11-15,1,,,,,フォーティーンスタジオ,0
1190,4320003004235,新規,0,2023-11-15,2023-11-15,合同会社十時石工,,合同会社,大分県,豊後大野市,大野町十時２０３番地２,,44,212,8796407,,,,,,,2023-11-15,1,,,,,トトキセッコウ,0
1194,4330003010075,新規,0,2023-11-15,2023-11-15,合同会社阿南荘ベンチャーズ,,合同会社,熊本県,宇城市,小川町江頭２３６番地谷川ハイツ４０５,,43,213,8690624,,,,,,,2023-11-15,1,,,,,アナンソウベンチャーズ,0
1198,4350001018663,新規,0,2023-11-15,2023-11-15,株式会社ＣＡＮ,,株式会社,宮崎県,宮崎市,大字島之内７２８６番地３０,,45,201,8800121,,,,,,,2023-11-15,1,,,,,キャン,0
1201,4350003004488,新規,0,2023-11-15,2023-11-15,合同会社エンパワーキッズこばやし,,合同会社,宮崎県,小林市,真方８６９番地２,,45,205,8860007,,,,,,,2023-11-15,1,,,,,エンパワーキッズコバヤシ,0
1205,4360005006936,新規,0,2023-11-15,2023-11-15,一般社団法人漢那海の会,,その他の設立登記法人,沖縄県,国頭郡宜野座村,字漢那１９６４番地,,47,313,9041304,,,,,,,2023-11-15,1,,,,,カンナウミノカイ,0
1208,4370001050631,新規,0,2023-11-15,2023-11-15,株式会社仙北,,株式会社,宮城県,仙台市若林区,六丁の目中町１１番２０号サンパルＫ・Ｋ１０７,,04,103,9840012,,,,,,,2023-11-15,1,,,,,センポク,0
1219,4380003005616,新規,0,2023-11-15,2023-11-15,合同会社ＤＵＮＫ,,合同会社,福島県,二本松市,不動平３０３番地,,07,210,9640085,,,,,,,2023-11-15,1,,,,,ダンク,0
1225,4430001090431,新規,0,2023-11-15,2023-11-15,Ｔｗｉｎ　Ｂｉｚ株式会社,,株式会社,北海道,札幌市東区,北三十六条東２１丁目１番２６号,,01,103,0070836,,,,,,,2023-11-15,1,,,,,ツインビズ,0
1226,4430001090448,新規,0,2023-11-15,2023-11-15,株式会社北都旅行,,株式会社,北海道,札幌市白石区,北郷一条１１丁目２番２号,,01,104,0030831,,,,,,,2023-11-15,1,,,,,ホクトリョコウ,0
1228,4450001014140,新規,0,2023-11-15,2023-11-15,株式会社Ｔｏｔｔｏ,,株式会社,北海道,旭川市,豊岡六条４丁目１番１６号,,01,204,0788236,,,,,,,2023-11-15,1,,,,,トット,0
1239,4490003001835,新規,0,2023-11-15,2023-11-15,むろと未来プロジェクト合同会社,,合同会社,高知県,室戸市,浮津３９５－１,,39,202,7817103,,,,,,,2023-11-15,1,,,,,,0
1242,4500005008653,新規,0,2023-11-15,2023-11-15,ＮＰＯ法人しあわせみらいビレッジ,,その他の設立登記法人,愛媛県,松山市,磯河内甲５８８番地,,38,201,7992467,,,,,,,2023-11-15,1,,,,,,0
1253,5010001239870,新規,0,2023-11-15,2023-11-15,株式会社リスタートプラス,,株式会社,東京都,千代田区,神田猿楽町２丁目７番１号,,13,101,1010064,,,,,,,2023-11-15,1,,,,,リスタートプラス,0
1254,5010001239929,新規,0,2023-11-15,2023-11-15,弘欣株式会社,,株式会社,東京都,千代田区,神田平河町１番地第３東ビル６Ｆ,,13,101,1010027,,,,,,,2023-11-15,1,,,,,コウキン,0
1255,5010001240044,新規,0,2023-11-15,2023-11-15,株式会社ＭＵＦＧストラテジック・インベストメント,,株式会社,東京都,中央区,入船２丁目２番２号,,13,102,1040042,,,,,,,2023-11-15,1,,,,,エムユーエフジーストラテジックインベストメント,0
1256,5010001240110,新規,0,2023-11-15,2023-11-15,株式会社ＡＮＧＥＬＮＵＭＢＥＲ,,株式会社,東京都,中央区,銀座３丁目１２番１７号ヒノトリビル,,13,102,1040061,,,,,,,2023-11-15,1,,,,,エンジェルナンバー,0
1257,5010001240119,新規,0,2023-11-15,2023-11-15,株式会社ミライ,,株式会社,東京都,中央区,日本橋人形町３丁目１番１３号コムラビル３０１号,,13,102,1030013,,,,,,,2023-11-15,1,,,,,ミライ,0
1259,5010003042125,新規,0,2023-11-15,2023-11-15,Ｒｕｔｅｎ　Ｊａｐａｎ合同会社,,合同会社,東京都,中央区,銀座１丁目１２番４号Ｎ＆ＥＢＬＤ．６Ｆ,,13,102,1040061,,,,,,,2023-11-15,1,,,,,ルテンジャパン,0
1260,5010003042174,新規,0,2023-11-15,2023-11-15,合同会社ひまわり,,合同会社,東京都,千代田区,平河町１丁目３番１３号平河町フロントビル７階株式会社シリウス・アドバイザリー内,,13,101,1020093,,,,,,,2023-11-15,1,,,,,ヒマワリ,0
1261,5010003042208,新規,0,2023-11-15,2023-11-15,ＦＦＩＧ合同会社,,合同会社,東京都,千代田区,紀尾井町４番１号,,13,101,1020094,,,,,,,2023-11-15,1,,,,,エフエフアイジー,0
1263,5010005037503,新規,0,2023-11-15,2023-11-15,クレジット・ギャランティ９号一般社団法人,,その他の設立登記法人,東京都,千代田区,内神田２丁目２番６号５階あすな会計事務所内,,13,101,1010047,,,,,,,2023-11-15,1,,,,,クレジットギャランティキュウゴウ,0
1264,5010005037511,新規,0,2023-11-15,2023-11-15,一般社団法人パラワールド,,その他の設立登記法人,東京都,文京区,本郷１丁目１０番１２号－３０４号,,13,105,1130033,,,,,,,2023-11-15,1,,,,,パラワールド,0
1265,5010103002243,新規,0,2023-11-15,2023-11-15,合同会社ＤＥＡＦ　ＬＩＦＥ,,合同会社,東京都,八王子市,鑓水２丁目８４番地８－３０７,,13,201,1920375,,,,,,,2023-11-15,1,,,,,デフライフ,0
1272,5010401178495,新規,0,2023-11-15,2023-11-15,株式会社アップクロース,,株式会社,東京都,港区,虎ノ門３丁目１７番１号,,13,103,1050001,,,,,,,2023-11-15,1,,,,,アップクロース,0
1273,5010401178504,新規,0,2023-11-15,2023-11-15,株式会社ＦＯＵＮＴＡＩＮ　ＬＡＢ,,株式会社,東京都,港区,赤坂３丁目２０番６号,,13,103,1070052,,,,,,,2023-11-15,1,,,,,ファウンテンラボ,0
1274,5010401178512,新規,0,2023-11-15,2023-11-15,株式会社ＧＥＮＤＡ　Ｃａｐｉｔａｌ,,株式会社,東京都,港区,東新橋１丁目９番１号,,13,103,1050021,,,,,,,2023-11-15,1,,,,,ジェンダキャピタル,0
1275,5010401178520,新規,0,2023-11-15,2023-11-15,東田開発株式会社,,株式会社,東京都,港区,高輪３丁目７番１０号,,13,103,1080074,,,,,,,2023-11-15,1,,,,,トウダカイハツ,0
1276,5010401178529,新規,0,2023-11-15,2023-11-15,株式会社Ｎｏｕｍａ,,株式会社,東京都,港区,南青山３丁目１番３６号青山丸竹ビル６Ｆ,,13,103,1070062,,,,,,,2023-11-15,1,,,,,ノーマ,0
1278,5010403031355,新規,0,2023-11-15,2023-11-15,合同会社麺処諭吉,,合同会社,東京都,港区,芝大門２丁目８番１４号,,13,103,1050012,,,,,,,2023-11-15,1,,,,,メンドコロユキチ,0
1279,5010403031363,新規,0,2023-11-15,2023-11-15,合同会社Ｒａｐｉｄ,,合同会社,東京都,港区,六本木１丁目５番３－１１０５号,,13,103,1060032,,,,,,,2023-11-15,1,,,,,ラピッド,0
1283,5010601064140,新規,0,2023-11-15,2023-11-15,株式会社Ａ＆Ｋ,,株式会社,東京都,江東区,亀戸６丁目４７番５号,,13,108,1360071,,,,,,,2023-11-15,1,,,,,エーアンドケー,0
1284,5010601064149,新規,0,2023-11-15,2023-11-15,牧の入高原株式会社,,株式会社,東京都,江東区,大島５丁目４３番８号,,13,108,1360072,,,,,,,2023-11-15,1,,,,,マキノイリコウゲン,0
1285,5010603010464,新規,0,2023-11-15,2023-11-15,合同会社メディアワークス,,合同会社,東京都,墨田区,墨田５丁目３８‐１４リブリ・ザ・クラス鐘ヶ淵２０６,,13,107,1310031,,,,,,,2023-11-15,1,,,,,メディアワークス,0
1287,5010701045115,新規,0,2023-11-15,2023-11-15,株式会社ＬＳＴ,,株式会社,東京都,品川区,西品川１丁目１番１号大崎ガーデンタワー,,13,109,1410033,,,,,,,2023-11-15,1,,,,,エルエスティー,0
1288,5010701045131,新規,0,2023-11-15,2023-11-15,株式会社マイル,,株式会社,東京都,品川区,東品川１丁目６番２３号サンイング東品川３０１,,13,109,1400002,,,,,,,2023-11-15,1,,,,,マイル,0
1289,5010703006949,新規,0,2023-11-15,2023-11-15,合同会社ＰｒｅｃｉｏｕｓＧｏｌｄ,,合同会社,東京都,品川区,西大井６丁目１１番１４－１０２号,,13,109,1400015,,,,,,,2023-11-15,1,,,,,プレシャスゴールド,0
1290,5010803004745,新規,0,2023-11-15,2023-11-15,合同会社Ｌ＆Ｐ,,合同会社,東京都,大田区,池上７丁目２－７,,13,111,1460082,,,,,,,2023-11-15,1,,,,,エルアンドピー,0
1294,5010903008588,新規,0,2023-11-15,2023-11-15,合同会社ｍｉｎｋｉ,,合同会社,東京都,世田谷区,下馬３丁目１５－９,,13,112,1540002,,,,,,,2023-11-15,1,,,,,ミンキ,0
1302,5011001158219,新規,0,2023-11-15,2023-11-15,株式会社Ｅｍｏｏｏｖｅ,,株式会社,東京都,渋谷区,神宮前６丁目２３番４号桑野ビル２階,,13,113,1500001,,,,,,,2023-11-15,1,,,,,イムーヴ,0
1303,5011001158235,新規,0,2023-11-15,2023-11-15,株式会社格式,,株式会社,東京都,渋谷区,代々木１丁目２４番５号,,13,113,1510053,,,,,,,2023-11-15,1,,,,,カクシキ,0
1304,5011003017934,新規,0,2023-11-15,2023-11-15,合同会社ｅｌｅｖｅｒ,,合同会社,東京都,渋谷区,渋谷２丁目１０番１３号東信青山ビル７階,,13,113,1500002,,,,,,,2023-11-15,1,,,,,エルヴェ,0
1309,5011101105137,新規,0,2023-11-15,2023-11-15,Ｍｒ．Ｏｕｔｓｉｄｅ　ＪＰＮ株式会社,,株式会社,東京都,新宿区,西新宿３丁目３－１３西新宿水間ビル６階,,13,104,1600023,,,,,,,2023-11-15,1,,,,,ミスターアウトサイドジャパン,0
1310,5011103013726,新規,0,2023-11-15,2023-11-15,合同会社ハンドスプリング,,合同会社,東京都,新宿区,舟町７－６ダイアパレス四谷舟町３０３,,13,104,1600006,,,,,,,2023-11-15,1,,,,,ハンドスプリング,0
1311,5011103013742,新規,0,2023-11-15,2023-11-15,ＡＩ　ｐｒｏｔｏ合同会社,,合同会社,東京都,新宿区,荒木町５番地７,,13,104,1600007,,,,,,,2023-11-15,1,,,,,エイアイプロト,0
1318,5011501029984,新規,0,2023-11-15,2023-11-15,株式会社Ｒ＆Ｄ,,株式会社,東京都,北区,豊島２丁目２６番２３号２Ｆ,,13,117,1140003,,,,,,,2023-11-15,1,,,,,アールアンドディー,0
1322,5011601027269,新規,0,2023-11-15,2023-11-15,株式会社Ｐｕｒｐｏｓｅ,,株式会社,東京都,練馬区,石神井町３丁目９ー２９Ｔｅｒｉｏｓ３０６,,13,120,1770041,,,,,,,2023-11-15,1,,,,,パーパス,0
1323,5011601027277,新規,0,2023-11-15,2023-11-15,株式会社篠田不動産,,株式会社,東京都,練馬区,春日町５丁目３３番４号,,13,120,1790074,,,,,,,2023-11-15,1,,,,,シノダフドウサン,0
1326,5011801043347,新規,0,2023-11-15,2023-11-15,株式会社中川塗装工業,,株式会社,東京都,足立区,花畑４丁目２８番８号,,13,121,1210061,,,,,,,2023-11-15,1,,,,,ナカガワトソウコウギョウ,0
1329,5012401041220,新規,0,2023-11-15,2023-11-15,株式会社ＭＹＣ,,株式会社,東京都,武蔵野市,吉祥寺本町２丁目３３番１７号,,13,203,1800004,,,,,,,2023-11-15,1,,,,,エムワイシー,0
1330,5012403006279,新規,0,2023-11-15,2023-11-15,合同会社Ｍｉｍｏｓａ,,合同会社,東京都,三鷹市,井の頭１丁目２２―１５―１０１,,13,204,1810001,,,,,,,2023-11-15,1,,,,,ミモザ,0
1334,5013101009284,新規,0,2023-11-15,2023-11-15,株式会社縁,,株式会社,東京都,羽村市,富士見平２丁目２０番地７,,13,227,2050013,,,,,,,2023-11-15,1,,,,,エニシ,0
1344,5020001154490,新規,0,2023-11-15,2023-11-15,株式会社Ｔ＆Ｎ,,株式会社,神奈川県,横浜市保土ケ谷区,上菅田町７５４番地６,,14,106,2400051,,,,,,,2023-11-15,1,,,,,ティーアンドエヌ,0
1345,5020001154499,新規,0,2023-11-15,2023-11-15,株式会社ＧＯＩｎｇ,,株式会社,神奈川県,横浜市西区,北幸２丁目１番地２２ナガオカビル２階,,14,103,2200004,,,,,,,2023-11-15,1,,,,,ゴーイング,0
1346,5020001154508,新規,0,2023-11-15,2023-11-15,株式会社Ｗｉｓｈ　Ｖｉｖａ,,株式会社,神奈川県,川崎市幸区,小倉３丁目１９番２９号フリージア１０２,,14,132,2120054,,,,,,,2023-11-15,1,,,,,ウィッシュビバ,0
1352,5020003024923,新規,0,2023-11-15,2023-11-15,合同会社ｎｕ　ｄｅｓｉｇｎ　ｌａｂ．,,合同会社,神奈川県,横浜市青葉区,市ケ尾町１０７５－１９,,14,117,2250024,,,,,,,2023-11-15,1,,,,,エヌユーデザインラボ,0
1358,5021001080727,新規,0,2023-11-15,2023-11-15,株式会社たつしゅん,,株式会社,神奈川県,鎌倉市,雪ノ下３丁目１番３２号,,14,204,2480005,,,,,,,2023-11-15,1,,,,,タツシュン,0
1359,5021001080735,新規,0,2023-11-15,2023-11-15,株式会社助高屋,,株式会社,神奈川県,鎌倉市,扇ガ谷１丁目３番９号,,14,204,2480011,,,,,,,2023-11-15,1,,,,,スケタカヤ,0
1360,5021001080751,新規,0,2023-11-15,2023-11-15,株式会社ＭＡＲＶＥＬ,,株式会社,神奈川県,海老名市,中央３丁目１番１７－１００６号,,14,215,2430432,,,,,,,2023-11-15,1,,,,,マーベル,0
1369,5030001156908,新規,0,2023-11-15,2023-11-15,株式会社Ｓ．Ｋ．Ａ．Ｔ．,,株式会社,埼玉県,川越市,砂新田３丁目３番地１－１０３号,,11,201,3501137,,,,,,,2023-11-15,1,,,,,スカット,0
1370,5030001157146,新規,0,2023-11-15,2023-11-15,Ｓｏｍａ株式会社,,株式会社,埼玉県,川口市,北原台１丁目１２－２１エマーユ東川口５０８号室,,11,203,3330815,,,,,,,2023-11-15,1,,,,,ソマ,0
1371,5030001157162,新規,0,2023-11-15,2023-11-15,株式会社ＫＡＮＮＡ,,株式会社,埼玉県,春日部市,増富５００番地２７,,11,214,3440041,,,,,,,2023-11-15,1,,,,,カンナ,0
1372,5030001157170,新規,0,2023-11-15,2023-11-15,株式会社ＧＥＮＥＳＩＳ,,株式会社,埼玉県,さいたま市南区,文蔵４丁目２０番２１－３０１号,,11,108,3360025,,,,,,,2023-11-15,1,,,,,ジェネシス,0
1373,5030001157179,新規,0,2023-11-15,2023-11-15,株式会社中瀬興業,,株式会社,埼玉県,桶川市,泉１丁目９番３１号エステート泉１０１号,,11,231,3630021,,,,,,,2023-11-15,1,,,,,ナカセコウギョウ,0
1374,5030001157187,新規,0,2023-11-15,2023-11-15,株式会社田崎建設,00132657,株式会社,埼玉県,川口市,大字榛松１６２４番地の１１・２Ｆ,,11,203,3340062,,,,,,,2023-11-15,1,,,,,タザキケンセツ,0
1375,5030001157204,新規,0,2023-11-15,2023-11-15,株式会社ＨＯＵＳＥ　ＯＮＥ,,株式会社,埼玉県,さいたま市岩槻区,美園東２丁目１６番地１２－５号棟,,11,110,3390028,,,,,,,2023-11-15,1,,,,,ハウスワン,0
1378,5030003022983,新規,0,2023-11-15,2023-11-15,合同会社グローバルティーズ,,合同会社,埼玉県,入間市,東藤沢６丁目１番１８号,,11,225,3580012,,,,,,,2023-11-15,1,,,,,グローバルティーズ,0
1381,5040001130936,新規,0,2023-11-15,2023-11-15,株式会社Ｔ‐エフォート,,株式会社,千葉県,袖ケ浦市,永地１１３０番地１,,12,229,2990232,,,,,,,2023-11-15,1,,,,,ティーエフォート,0
1382,5040001130960,新規,0,2023-11-15,2023-11-15,慶有株式会社,,株式会社,千葉県,鎌ケ谷市,東道野辺４丁目１６番２６号,,12,224,2730115,,,,,,,2023-11-15,1,,,,,ケイユウ,0
1391,5050001053830,新規,0,2023-11-15,2023-11-15,株式会社ＤＩＶＥＲＴＩＤＯ,,株式会社,茨城県,猿島郡境町,大字大歩３１７番地７,,08,546,3060415,,,,,,,2023-11-15,1,,,,,ディベルティード,0
1392,5050003007891,新規,0,2023-11-15,2023-11-15,合同会社ＵＮＩＣＯＲＮ　ＡＧＥＮＣＹ　ＪＡＰＡＮ,,合同会社,茨城県,鉾田市,台濁沢９３９番地,,08,234,3112102,,,,,,,2023-11-15,1,,,,,ユニコーンエージェンシージャパン,0
1396,5060001036545,新規,0,2023-11-15,2023-11-15,株式会社Ｆ．Ｃ．Ｓ,,株式会社,栃木県,小山市,城東１丁目１３番１号アンティーブＪ,,09,208,3230807,,,,,,,2023-11-15,1,,,,,エフシーエス,0
1397,5060001036553,新規,0,2023-11-15,2023-11-15,株式会社健丸,,株式会社,栃木県,小山市,城東７丁目１番２０号ＫＳコーポ１０５号室,,09,208,3230807,,,,,,,2023-11-15,1,,,,,タケマル,0
1399,5060003004806,新規,0,2023-11-15,2023-11-15,金精川水力発電所合同会社,,合同会社,栃木県,那須塩原市,上赤田２３８番地,,09,213,3292748,,,,,,,2023-11-15,1,,,,,コンセイガワスイリョクハツデンショ,0
1412,5110003005204,新規,0,2023-11-15,2023-11-15,ＡＴコーポレーション合同会社,,合同会社,新潟県,新潟市中央区,白山浦１丁目２９３番地４,,15,103,9518131,,,,,,,2023-11-15,1,,,,,エーティコーポレーション,0
1413,5110003005212,新規,0,2023-11-15,2023-11-15,合同会社三好池,,合同会社,新潟県,小千谷市,大字山谷２８５番地１,,15,208,9470043,,,,,,,2023-11-15,1,,,,,ミヨシイケ,0
1417,5120001259718,新規,0,2023-11-15,2023-11-15,横縦天下株式会社,,株式会社,大阪府,大阪市東住吉区,桑津３丁目１－２６号,,27,121,5460041,,,,,,,2023-11-15,1,,,,,ヨコタテテンカ,0
1418,5120001259858,新規,0,2023-11-15,2023-11-15,ＳＵＮＲＩＳＥ株式会社,,株式会社,大阪府,大阪市西成区,北津守４丁目１１番２４号,,27,122,5570061,,,,,,,2023-11-15,1,,,,,サンライズ,0
1419,5120001259874,新規,0,2023-11-15,2023-11-15,株式会社ＴＥＮＡＮｉ,,株式会社,大阪府,大阪市北区,梅田１丁目２番２号大阪駅前第２ビル１２－１２,,27,127,5300001,,,,,,,2023-11-15,1,,,,,テナニ,0
1420,5120001259890,新規,0,2023-11-15,2023-11-15,三島株式会社,,株式会社,大阪府,大阪市北区,天満２丁目１－１２天満橋ＳＥビル４Ｆ,,27,127,5300043,,,,,,,2023-11-15,1,,,,,ミシマ,0
1433,5122001037574,新規,0,2023-11-15,2023-11-15,ＦＵＪＩ人材株式会社,,株式会社,大阪府,東大阪市,寿町３丁目１８番１５号,,27,227,5770837,,,,,,,2023-11-15,1,,,,,フジジンザイ,0
1437,5130001075701,新規,0,2023-11-15,2023-11-15,株式会社ＴＴＴ,,株式会社,京都府,京都市下京区,七条通油小路東入大黒町２２７番地第２キョートビル４０２,,26,106,6008223,,,,,,,2023-11-15,1,,,,,ティーティーティー,0
1438,5130001075742,新規,0,2023-11-15,2023-11-15,株式会社ＳｕｐｅｒＮａｔｕｒａｌ,,株式会社,京都府,京都市中京区,聚楽廻中町２７番地３０,,26,104,6048403,,,,,,,2023-11-15,1,,,,,スーパーナチュラル,0
1439,5130003009120,新規,0,2023-11-15,2023-11-15,ＮＥＸＴＤＯＯＲ合同会社,,合同会社,京都府,京都市南区,東九条西御霊町２２番地５,,26,107,6018042,,,,,,,2023-11-15,1,,,,,ネクストドア,0
1448,5140001132328,新規,0,2023-11-15,2023-11-15,三富Ｎクラン株式会社,,株式会社,兵庫県,西宮市,甲風園２丁目６番３号,,28,204,6620832,,,,,,,2023-11-15,1,,,,,,0
1449,5140003019812,新規,0,2023-11-15,2023-11-15,合同会社Ｔｗｅｌｖｅ‐Ｔｅｃｈ,,合同会社,兵庫県,神戸市須磨区,大手町５丁目３番２３－１０１号,,28,107,6540013,,,,,,,2023-11-15,1,,,,,トゥエルブテック,0
1454,5160005011245,新規,0,2023-11-15,2023-11-15,一般社団法人アクティクラブ,,その他の設立登記法人,滋賀県,東近江市,中羽田町３７０番地,,25,213,5270084,,,,,,,2023-11-15,1,,,,,アクティクラブ,0
1455,5170003001949,新規,0,2023-11-15,2023-11-15,合同会社福くる,,合同会社,和歌山県,有田市,糸我町中番５３９,,30,204,6490421,,,,,,,2023-11-15,1,,,,,フククル,0
1460,5180001158914,新規,0,2023-11-15,2023-11-15,株式会社コスモビジョンコンサルティング,,株式会社,愛知県,名古屋市中村区,名駅４丁目２４番５号第２森ビル４０１,,23,105,4500002,,,,,,,2023-11-15,1,,,,,コスモビジョンコンサルティング,0
1461,5180001158939,新規,0,2023-11-15,2023-11-15,フタバホールディングス株式会社,,株式会社,愛知県,名古屋市昭和区,白金２丁目４番１０号,,23,107,4660058,,,,,,,2023-11-15,1,,,,,フタバホールディングス,0
1462,5180001158947,新規,0,2023-11-15,2023-11-15,Ｊ‐ＲＡＢ株式会社,,株式会社,愛知県,名古屋市北区,楠４丁目１７０１番地の１０,,23,103,4620012,,,,,,,2023-11-15,1,,,,,ジェイラボ,0
1463,5180001158963,新規,0,2023-11-15,2023-11-15,ソニックマネジメント株式会社,,株式会社,愛知県,名古屋市中川区,尾頭橋３丁目１４番１１号,,23,110,4540012,,,,,,,2023-11-15,1,,,,,ソニックマネジメント,0
1468,5180003025988,新規,0,2023-11-15,2023-11-15,合同会社フリースカイ,,合同会社,愛知県,名古屋市中村区,名駅３丁目１番２号グラン・アベニュー名駅６０８号,,23,105,4500002,,,,,,,2023-11-15,1,,,,,フリースカイ,0
1475,5180301038031,新規,0,2023-11-15,2023-11-15,株式会社アルタイル,,株式会社,愛知県,安城市,横山町八左２３１番地２,,23,212,4460045,,,,,,,2023-11-15,1,,,,,アルタイル,0
1480,5190002024701,新規,0,2023-11-15,2023-11-15,有限会社旅館太平洋,,有限会社,三重県,志摩市,浜島町浜島１４１６番地,,24,215,5170404,,,,,,,2023-11-15,1,,,,,リョカンタイヘイヨウ,0
1482,5200005013542,新規,0,2023-11-15,2023-11-15,一般社団法人ａｌｏｎｇ　ｗｉｔｈ,,その他の設立登記法人,岐阜県,岐阜市,上土居７５１番地１１,,21,201,5020803,,,,,,,2023-11-15,1,,,,,アロングウィズ,0
1484,5220001025688,新規,0,2023-11-15,2023-11-15,株式会社駒井運送,,株式会社,石川県,金沢市,疋田２丁目２００番地,,17,201,9200003,,,,,,,2023-11-15,1,,,,,コマイウンソウ,0
1489,5230003002107,新規,0,2023-11-15,2023-11-15,合同会社Ｐ．Ｍ．Ｃ　ＩＮＶＥＳＴＭＥＮＴ　ＰＡＲＴＮＥＲＳ　ＩＮＣ．,,合同会社,富山県,富山市,堀川小泉町１丁目８番２１－３０５号ヒストリア堀川小泉,,16,201,9398081,,,,,,,2023-11-15,1,,,,,ピーエムシーインベストメントパートナーズインク,0
1495,5240001062416,新規,0,2023-11-15,2023-11-15,株式会社アルナージュ,,株式会社,広島県,広島市佐伯区,利松２丁目９番２５号,,34,108,7315106,,,,,,,2023-11-15,1,,,,,アルナージュ,0
1497,5260003004496,新規,0,2023-11-15,2023-11-15,合同会社スタートツアーズ,,合同会社,岡山県,総社市,井尻野９０７番地２,,33,208,7191154,,,,,,,2023-11-15,1,,,,,スタートツアーズ,0
1507,5290003014591,新規,0,2023-11-15,2023-11-15,合同会社ウィル,,合同会社,福岡県,福岡市博多区,博多駅前１丁目２３番２号ＰａｒｋＦｒｏｎｔ博多駅前１丁目５Ｆ－Ｂ,,40,132,8120011,,,,,,,2023-11-15,1,,,,,ウィル,0
1515,5350001018662,新規,0,2023-11-15,2023-11-15,株式会社ＴＯＰ　ＦＯＯＤ,,株式会社,宮崎県,宮崎市,中村東１丁目１番２１号アークパル７０２号,,45,201,8800904,,,,,,,2023-11-15,1,,,,,トップフード,0
1518,5350003004487,新規,0,2023-11-15,2023-11-15,合同会社ザ・ネクスト,,合同会社,宮崎県,宮崎市,橘通東５丁目３番２７号,,45,201,8800805,,,,,,,2023-11-15,1,,,,,ザネクスト,0
1524,5370001050630,新規,0,2023-11-15,2023-11-15,株式会社ＮＭコンサルティング,,株式会社,宮城県,仙台市若林区,荒井４丁目１９番地の１,,04,103,9840032,,,,,,,2023-11-15,1,,,,,エヌエムコンサルティング,0
1530,5380001034129,新規,0,2023-11-15,2023-11-15,アスカ興産株式会社,,株式会社,福島県,須賀川市,日向町１２２番地５,,07,207,9620015,,,,,,,2023-11-15,1,,,,,アスカコウサン,0
1542,5430001090397,新規,0,2023-11-15,2023-11-15,Ｃｒｏｓｔａ　Ｊａｐａｎ株式会社,,株式会社,北海道,虻田郡ニセコ町,字曽我９１９－５－２ニセコビレッジユニット４,,01,395,0481522,,,,,,,2023-11-15,1,,,,,クロスタジャパン,0
1543,5430001090414,新規,0,2023-11-15,2023-11-15,株式会社Ｔｒｕｓｔ,,株式会社,北海道,札幌市南区,石山一条６丁目１３番１１号,,01,106,0050841,,,,,,,2023-11-15,1,,,,,トラスト,0
1548,5430003015609,新規,0,2023-11-15,2023-11-15,ｃｏｓｍＩｃ合同会社,,合同会社,北海道,札幌市豊平区,美園一条５丁目３番２３号,,01,105,0620001,,,,,,,2023-11-15,1,,,,,コズミック,0
1558,5490003001834,新規,0,2023-11-15,2023-11-15,合同会社ビズ加茂,,合同会社,高知県,高岡郡日高村,岩目地１１８２－１,,39,410,7812154,,,,,,,2023-11-15,1,,,,,ビズカモ,0
1570,6010001240027,新規,0,2023-11-15,2023-11-15,原田哲アセット・マネジメント・アドバイザリー株式会社,,株式会社,東京都,千代田区,麹町２丁目１０番３号,,13,101,1020083,,,,,,,2023-11-15,1,,,,,ハラダテツアセットマネジメントアドバイザリー,0
1571,6010001240076,新規,0,2023-11-15,2023-11-15,エスクロー・リンク株式会社,,株式会社,東京都,中央区,晴海３丁目１０番１号Ｄａｉｗａ晴海ビル,,13,102,1040053,,,,,,,2023-11-15,1,,,,,エスクローリンク,0
1573,6010003042173,新規,0,2023-11-15,2023-11-15,合同会社ソル,,合同会社,東京都,千代田区,平河町１丁目３番１３号平河町フロントビル７階株式会社シリウス・アドバイザリー内,,13,101,1020093,,,,,,,2023-11-15,1,,,,,ソル,0
1574,6010003042207,新規,0,2023-11-15,2023-11-15,Ｍａｒｉａｎａ　Ｂｌｕｅ　Ｓｏｕｎｄ合同会社,,合同会社,東京都,文京区,本駒込５丁目５９番１３号,,13,105,1130021,,,,,,,2023-11-15,1,,,,,マリアナブルーサウンド,0
1575,6010003042215,新規,0,2023-11-15,2023-11-15,赤坂インベストメント・フォー合同会社,,合同会社,東京都,中央区,八丁堀４丁目２番１０号ＡＯＪ税理士法人内,,13,102,1040032,,,,,,,2023-11-15,1,,,,,アカサカインベストメントフォー,0
1577,6010005037519,新規,0,2023-11-15,2023-11-15,赤坂インベストメント・スリー一般社団法人,,その他の設立登記法人,東京都,中央区,八丁堀４丁目２番１０号ＡＯＪ税理士法人内,,13,102,1040032,,,,,,,2023-11-15,1,,,,,アカサカインベストメントスリー,0
1584,6010401178494,新規,0,2023-11-15,2023-11-15,株式会社Ａｗｅｓｏｍｅ　Ｍｏｂ,,株式会社,東京都,港区,南青山３丁目３番２４号,,13,103,1070062,,,,,,,2023-11-15,1,,,,,オーサムモブ,0
1585,6010401178528,新規,0,2023-11-15,2023-11-15,株式会社ｈｅｒｔｚ,,株式会社,東京都,港区,港南１丁目８－１５Ｗビル２Ｆ,,13,103,1080075,,,,,,,2023-11-15,1,,,,,ヘルツ,0
1589,6010403031362,新規,0,2023-11-15,2023-11-15,合同会社Ｃｒｅｅｋ,,合同会社,東京都,港区,六本木１丁目５番３－１１０５号,,13,103,1060032,,,,,,,2023-11-15,1,,,,,クリーク,0
1590,6010403031370,新規,0,2023-11-15,2023-11-15,赤坂エステート合同会社,,合同会社,東京都,港区,南青山２丁目２９番６号１８０５号,,13,103,1070062,,,,,,,2023-11-15,1,,,,,アカサカエステート,0
1598,6010601064148,新規,0,2023-11-15,2023-11-15,Ｔｈｅきじま株式会社,,株式会社,東京都,江東区,大島５丁目４３番８号,,13,108,1360072,,,,,,,2023-11-15,1,,,,,ザキジマ,0
1599,6010601064156,新規,0,2023-11-15,2023-11-15,株式会社ｎａｖ,,株式会社,東京都,江東区,北砂５丁目１番２６号,,13,108,1360073,,,,,,,2023-11-15,1,,,,,ナヴ,0
1601,6010801034512,新規,0,2023-11-15,2023-11-15,ＭＷ総合研究所株式会社,,株式会社,東京都,大田区,下丸子４丁目２６番４－１３０３号,,13,111,1460092,,,,,,,2023-11-15,1,,,,,エムダブリューソウゴウケンキュウジョ,0
1605,6010903008587,新規,0,2023-11-15,2023-11-15,合同会社ｎｅｏｍｕｒａ,,合同会社,東京都,世田谷区,上用賀４丁目９番８号,,13,112,1580098,,,,,,,2023-11-15,1,,,,,ネオムラ,0
1613,6011001158226,新規,0,2023-11-15,2023-11-15,株式会社インテリテックス,,株式会社,東京都,渋谷区,円山町１５番３号グランエストビル３Ｆ,,13,113,1500044,,,,,,,2023-11-15,1,,,,,インテリテックス,0
1614,6011001158234,新規,0,2023-11-15,2023-11-15,株式会社ＬＰＢＡＮＫ,,株式会社,東京都,渋谷区,神宮前５丁目１８番１６号,,13,113,1500001,,,,,,,2023-11-15,1,,,,,エルピーバンク,0
1615,6011001158242,新規,0,2023-11-15,2023-11-15,株式会社ハルク,,株式会社,東京都,渋谷区,広尾３丁目４番１号２－２０９号室,,13,113,1500012,,,,,,,2023-11-15,1,,,,,ハルク,0
1616,6011001158259,新規,0,2023-11-15,2023-11-15,ＢＲＩＧＨＴ＆ＴＯＫＹＯ株式会社,,株式会社,東京都,渋谷区,恵比寿西２丁目４番８号ウィンド恵比寿ビル８Ｆ,,13,113,1500021,,,,,,,2023-11-15,1,,,,,ブライトアンドトウキョウ,0
1617,6011001158317,新規,0,2023-11-15,2023-11-15,株式会社ノアプロ,,株式会社,東京都,渋谷区,渋谷２丁目１９番１５号宮益坂ビルディング６０９,,13,113,1500002,,,,,,,2023-11-15,1,,,,,ノアプロ,0
1618,6011003017909,新規,0,2023-11-15,2023-11-15,ＧＲＥＥＮ合同会社,,合同会社,東京都,渋谷区,道玄坂１丁目１０番８号渋谷道玄坂東急ビル２Ｆ－Ｃ,,13,113,1500043,,,,,,,2023-11-15,1,,,,,グリーン,0
1623,6011101105128,新規,0,2023-11-15,2023-11-15,株式会社ＭＯＮＺＩ,,株式会社,東京都,新宿区,大久保２丁目１番８号プラザ新大樹３０３号,,13,104,1690072,,,,,,,2023-11-15,1,,,,,モンジ,0
1624,6011101105144,新規,0,2023-11-15,2023-11-15,ファンタレイ株式会社,,株式会社,東京都,新宿区,西新宿１丁目２０番３号西新宿高木ビル８Ｆ,,13,104,1600023,,,,,,,2023-11-15,1,,,,,ファンタレイ,0
1625,6011103013741,新規,0,2023-11-15,2023-11-15,合同会社Ｒｅｐｌａｙ＆Ｒｅｌｏａｄ,,合同会社,東京都,新宿区,西新宿３丁目３番１３号西新宿水間ビル６階,,13,104,1600023,,,,,,,2023-11-15,1,,,,,リプレイアンドリロード,0
1634,6011601027276,新規,0,2023-11-15,2023-11-15,株式会社モアナ,,株式会社,東京都,練馬区,春日町５丁目３３番４号,,13,120,1790074,,,,,,,2023-11-15,1,,,,,モアナ,0
1635,6011701026772,新規,0,2023-11-15,2023-11-15,株式会社ツバメ産業,,株式会社,東京都,江戸川区,南小岩８丁目１０番８号３Ｆ,,13,123,1330056,,,,,,,2023-11-15,1,,,,,ツバメサンギョウ,0
1654,6020001154465,新規,0,2023-11-15,2023-11-15,株式会社ＮＥＸＵＭ,,株式会社,神奈川県,川崎市宮前区,有馬７丁目９番３０－５０４号,,14,136,2160003,,,,,,,2023-11-15,1,,,,,ネクサム,0
1655,6020001154473,新規,0,2023-11-15,2023-11-15,株式会社シーズクレイン,,株式会社,神奈川県,横浜市青葉区,美しが丘西２丁目３５番地４８,,14,117,2250001,,,,,,,2023-11-15,1,,,,,シーズクレイン,0
1656,6020001154481,新規,0,2023-11-15,2023-11-15,株式会社Ｃｈａｉｒｓ　ａｎｄ．,,株式会社,神奈川県,横浜市南区,別所４丁目１０番９－１号,,14,105,2320064,,,,,,,2023-11-15,1,,,,,チェアーズアンド,0
1657,6020001154498,新規,0,2023-11-15,2023-11-15,株式会社ノミテーション,,株式会社,神奈川県,横浜市港北区,新横浜２丁目１４番地２５アポロ新横浜第二ビル４Ｆ－Ａ,,14,109,2220033,,,,,,,2023-11-15,1,,,,,ノミテーション,0
1660,6020003025004,新規,0,2023-11-15,2023-11-15,合同会社クロス,,合同会社,神奈川県,川崎市麻生区,南黒川２－５ヴァンクール高山１０２,,14,137,2150034,,,,,,,2023-11-15,1,,,,,クロス,0
1665,6021001080734,新規,0,2023-11-15,2023-11-15,株式会社ｓｅｅＵ,,株式会社,神奈川県,藤沢市,鵠沼橘１丁目１７番５号,,14,205,2510024,,,,,,,2023-11-15,1,,,,,シーユー,0
1666,6021001080742,新規,0,2023-11-15,2023-11-15,神奈川エアテック株式会社,,株式会社,神奈川県,相模原市中央区,相模原５丁目６番９－１２０２号,,14,152,2520231,,,,,,,2023-11-15,1,,,,,カナガワエアテック,0
1667,6021001080750,新規,0,2023-11-15,2023-11-15,株式会社ＡＳ　Ａ　ＢＩＲＤ,,株式会社,神奈川県,茅ヶ崎市,菱沼１丁目１１番５０号,,14,207,2530011,,,,,,,2023-11-15,1,,,,,アズアバード,0
1673,6030001156997,新規,0,2023-11-15,2023-11-15,株式会社デリカシー,,株式会社,埼玉県,川越市,大字石田１７１番地２,,11,201,3500837,,,,,,,2023-11-15,1,,,,,デリカシー,0
1677,6030005021470,新規,0,2023-11-15,2023-11-15,一般社団法人まめたんく,,その他の設立登記法人,埼玉県,さいたま市中央区,新中里１丁目９番１５号,,11,105,3380011,,,,,,,2023-11-15,1,,,,,マメタンク,0
1682,6040001130919,新規,0,2023-11-15,2023-11-15,大地興業株式会社,,株式会社,千葉県,香取市,九美上２３番地１７,,12,236,2870022,,,,,,,2023-11-15,1,,,,,ダイチコウギョウ,0
1688,6040003023641,新規,0,2023-11-15,2023-11-15,合同会社Ｔ‐ＬＳ,,合同会社,千葉県,東金市,堀上２２６－５,,12,213,2830063,,,,,,,2023-11-15,1,,,,,ティエルエス,0
1695,6050001053821,新規,0,2023-11-15,2023-11-15,ＡＨＭＡＤ　ＳＨＡＨ　ＴＲＡＤＩＮＧ株式会社,,株式会社,茨城県,古河市,仁連２０５０番地１３,,08,204,3060125,,,,,,,2023-11-15,1,,,,,アハマドシヤートレーディング,0
1696,6050001053838,新規,0,2023-11-15,2023-11-15,翔興エステート株式会社,,株式会社,茨城県,つくば市,松代２丁目７番地７,,08,220,3050035,,,,,,,2023-11-15,1,,,,,ショウコウエステート,0
1700,6060001036552,新規,0,2023-11-15,2023-11-15,Ｎｉｍａ株式会社,,株式会社,栃木県,栃木市,大平町富田３９２－９－１０３,,09,203,3294404,,,,,,,2023-11-15,1,,,,,ニマ,0
1703,6070001041072,新規,0,2023-11-15,2023-11-15,株式会社ファミリア,,株式会社,群馬県,館林市,上赤生田町４２３１番地パストラルハイツＡ１０２,,10,207,3740015,,,,,,,2023-11-15,1,,,,,ファミリア,0
1707,6070003005166,新規,0,2023-11-15,2023-11-15,合同会社Ｔｕｒｎ　Ｎｅｘｔ,,合同会社,群馬県,邑楽郡千代田町,大字福島３６８番地の５,,10,523,3700501,,,,,,,2023-11-15,1,,,,,ターンネクスト,0
1711,6080103002921,新規,0,2023-11-15,2023-11-15,アグリ富士川合同会社,,合同会社,静岡県,富士市,中之郷３７８１番地,,22,210,4213306,,,,,,,2023-11-15,1,,,,,アグリフジカワ,0
1713,6080401026845,新規,0,2023-11-15,2023-11-15,株式会社ｎ企画,,株式会社,静岡県,浜松市中区,鍛冶町１５の１４号ザザ小路ａｓｌｅｅｐ,,22,131,4300933,,,,,,,2023-11-15,1,,,,,エヌキカク,0
1714,6090005007596,新規,0,2023-11-15,2023-11-15,一般社団法人山梨ドローン協会,,その他の設立登記法人,山梨県,南都留郡山中湖村,平野５７１‐１９,,19,425,4010502,,,,,,,2023-11-15,1,,,,,ヤマナシドローンキョウカイ,0
1720,6110001037974,新規,0,2023-11-15,2023-11-15,株式会社ＨＡＹＺ,,株式会社,新潟県,五泉市,上木越３１５２番地,,15,218,9591708,,,,,,,2023-11-15,1,,,,,ハイズ,0
1724,6120001259808,新規,0,2023-11-15,2023-11-15,株式会社ＴＲＩＢＥ,,株式会社,大阪府,大阪市北区,中崎１丁目３－２９－３０２号,,27,127,5300016,,,,,,,2023-11-15,1,,,,,トライブ,0
1725,6120001259832,新規,0,2023-11-15,2023-11-15,株式会社ワンプラス,,株式会社,大阪府,大阪市中央区,南船場３丁目１番１０号日宝南船場ビル４階Ａ号,,27,128,5420081,,,,,,,2023-11-15,1,,,,,ワンプラス,0
1726,6120001259898,新規,0,2023-11-15,2023-11-15,株式会社クロスロード,,株式会社,大阪府,大阪市北区,堂山町１－５,,27,127,5300027,,,,,,,2023-11-15,1,,,,,クロスロード,0
1729,6120003025209,新規,0,2023-11-15,2023-11-15,合同会社ｃｏｍｍｏｎ,,合同会社,大阪府,大阪市中央区,島之内１丁目４番３４－７０１号,,27,128,5420082,,,,,,,2023-11-15,1,,,,,コモン,0
1735,6120101068539,新規,0,2023-11-15,2023-11-15,株式会社ＩＣＨＩ　Ｅｄｕｃａｔｉｏｎ,,株式会社,大阪府,堺市東区,大美野３番地３ＨＡＬＴ大美野１Ｆ,,27,143,5998126,,,,,,,2023-11-15,1,,,,,イチエデュケーション,0
1743,6130001075709,新規,0,2023-11-15,2023-11-15,株式会社Ｓｙｎｅｒｇｙ　ｆｉｅｌｄ’Ｓ,,株式会社,京都府,南丹市,美山町萱野林野元１４番地１,,26,213,6010771,,,,,,,2023-11-15,1,,,,,シナジーフィールズ,0
1752,6140001132335,新規,0,2023-11-15,2023-11-15,グローズプラス株式会社,,株式会社,兵庫県,神戸市中央区,小野柄通５丁目１番２７号,,28,110,6510088,,,,,,,2023-11-15,1,,,,,グローズプラス,0
1753,6140001132351,新規,0,2023-11-15,2023-11-15,平沼建設株式会社,,株式会社,兵庫県,神戸市東灘区,御影本町１丁目１２－２０御影山一ビル４０１,,28,101,6580046,,,,,,,2023-11-15,1,,,,,ヒラヌマケンセツ,0
1759,6160001025504,新規,0,2023-11-15,2023-11-15,株式会社キングズランディング,,株式会社,滋賀県,大津市,富士見台３１－３７－３０３,,25,201,5200846,,,,,,,2023-11-15,1,,,,,キングズランディング,0
1771,6180001158888,新規,0,2023-11-15,2023-11-15,株式会社ＴＡＫＡＲＡＴＥＣＨ,,株式会社,愛知県,名古屋市西区,樋の口町１番１５号ホーワビル３階１５号室,,23,104,4510034,,,,,,,2023-11-15,1,,,,,タカラテック,0
1772,6180001158938,新規,0,2023-11-15,2023-11-15,株式会社Ｋｏｚａｗａ　Ｐｏｗｅｒ,,株式会社,愛知県,江南市,宮田神明町旭１８６番地２,,23,217,4838303,,,,,,,2023-11-15,1,,,,,コザワパワー,0
1773,6180001158962,新規,0,2023-11-15,2023-11-15,ＴＫエステート株式会社,,株式会社,愛知県,名古屋市港区,小碓１丁目３７７番地,,23,111,4550801,,,,,,,2023-11-15,1,,,,,ティーケーエステート,0
1774,6180001158970,新規,0,2023-11-15,2023-11-15,株式会社ＮｅｘｔＧｒｏｗ,,株式会社,愛知県,名古屋市千種区,千種３丁目３０番１７号,,23,101,4640858,,,,,,,2023-11-15,1,,,,,ネクストグロウ,0
1781,6180005020425,新規,0,2023-11-15,2023-11-15,弁護士法人ＰＲＯ,,その他の設立登記法人,愛知県,名古屋市中区,栄２丁目１１番１９号熊田白川ビル２階,,23,106,4600008,,,,,,,2023-11-15,1,,,,,プロ,0
1787,6180305009531,新規,0,2023-11-15,2023-11-15,豊橋創造大学生活協同組合,,その他の設立登記法人,愛知県,豊橋市,牛川町字松下２０番地１,,23,201,4400016,,,,,,,2023-11-15,1,,,,,トヨハシソウゾウダイガク,0
1791,6190005011885,新規,0,2023-11-15,2023-11-15,医療法人孝心会,,その他の設立登記法人,三重県,北牟婁郡紀北町,東長島３２１－１,,24,543,5193204,,,,,,,2023-11-15,1,,,,,コウシンカイ,0
1804,6240001062431,新規,0,2023-11-15,2023-11-15,株式会社ｉＮｅＸＸ,,株式会社,広島県,広島市西区,三篠町１丁目１－３１フローレンス三篠プレステージ５０５,,34,104,7330003,,,,,,,2023-11-15,1,,,,,アイネックス,0
1822,6350001018661,新規,0,2023-11-15,2023-11-15,株式会社モンド,,株式会社,宮崎県,日南市,大字隈谷甲２１９８番地,,45,204,8870023,,,,,,,2023-11-15,1,,,,,モンド,0
1824,6350003004486,新規,0,2023-11-15,2023-11-15,農業生産法人合同会社ファームひのかげ,,合同会社,宮崎県,西臼杵郡日之影町,大字七折３４４０番地７,,45,442,8820401,,,,,,,2023-11-15,1,,,,,ノウギョウセイサンホウジンファームヒノカゲ,0
1829,6370003006373,新規,0,2023-11-15,2023-11-15,合同会社リッジライン,,合同会社,宮城県,仙台市泉区,加茂３丁目２３番地の１５,,04,105,9813122,,,,,,,2023-11-15,1,,,,,リッジライン,0
1837,6380001034128,新規,0,2023-11-15,2023-11-15,丸二産業株式会社,,株式会社,福島県,いわき市,平上荒川字砂屋戸１番地の９―１１３,,07,204,9708034,,,,,,,2023-11-15,1,,,,,マルニサンギョウ,0
1841,6390003002164,新規,0,2023-11-15,2023-11-15,合同会社本丸,,合同会社,山形県,天童市,大字清池１１０,,06,210,9940065,,,,,,,2023-11-15,1,,,,,ホンマル,0
1842,6430001090421,新規,0,2023-11-15,2023-11-15,株式会社総合海洋研究グループ,,株式会社,北海道,苫小牧市,日新町１丁目９番９号,,01,213,0530833,,,,,,,2023-11-15,1,,,,,ソウゴウカイヨウケンキュウグルーブ,0
1843,6430001090438,新規,0,2023-11-15,2023-11-15,株式会社ＢＣ　ＳｕｐＰｏｒｔ,,株式会社,北海道,札幌市豊平区,平岸二条７丁目４番１７－６１１号,,01,105,0620932,,,,,,,2023-11-15,1,,,,,ビーシーサポート,0
1844,6430001090446,新規,0,2023-11-15,2023-11-15,株式会社真友,,株式会社,北海道,札幌市手稲区,稲穂四条６丁目２番１６号,,01,109,0060034,,,,,,,2023-11-15,1,,,,,シンユウ,0
1852,6440001009346,新規,0,2023-11-15,2023-11-15,株式会社道南食,,株式会社,北海道,亀田郡七飯町,鳴川３丁目１０番２号,,01,337,0411112,,,,,,,2023-11-15,1,,,,,ドウナンショク,0
1853,6440003001557,新規,0,2023-11-15,2023-11-15,合同会社絆総業,,合同会社,北海道,函館市,鍛冶一丁目２３番６号,,01,202,0400000,,,,,,,2023-11-15,1,,,,,キズナソウギョウ,0
1858,6490001010638,新規,0,2023-11-15,2023-11-15,株式会社ＳＧＵ,,株式会社,高知県,高知市,升形３－４中西ビル２階,,39,201,7800861,,,,,,,2023-11-15,1,,,,,,0
1867,7010001240034,新規,0,2023-11-15,2023-11-15,アーキリン株式会社,,株式会社,東京都,中央区,勝どき２丁目６番７号,,13,102,1040054,,,,,,,2023-11-15,1,,,,,アーキリン,0
1868,7010001240042,新規,0,2023-11-15,2023-11-15,ＳＰＯＲＴＳ　ＡＲＴ　ＷＯＲＫＳ株式会社,,株式会社,東京都,千代田区,永田町２丁目１７番３号,,13,101,1000014,,,,,,,2023-11-15,1,,,,,スポーツアートワークス,0
1869,7010001240050,新規,0,2023-11-15,2023-11-15,株式会社Ｂｅｌｌｓｔｏｃｋ,,株式会社,東京都,中央区,日本橋室町１丁目１１番１２号日本橋水野ビル７階,,13,102,1030022,,,,,,,2023-11-15,1,,,,,ベルストック,0
1870,7010001240067,新規,0,2023-11-15,2023-11-15,株式会社ｉｒｈａ,,株式会社,東京都,千代田区,九段北１丁目３番１号ＶＯＲＴ九段下８階,,13,101,1020073,,,,,,,2023-11-15,1,,,,,イルハ,0
1871,7010001240083,新規,0,2023-11-15,2023-11-15,株式会社ＤＥＮｒｅａｍ,,株式会社,東京都,中央区,銀座１丁目２２番１１号銀座大竹ビジデンス２Ｆ,,13,102,1040061,,,,,,,2023-11-15,1,,,,,デンリイム,0
1874,7010003042197,新規,0,2023-11-15,2023-11-15,合同会社ＳＹＧ,,合同会社,東京都,千代田区,隼町２番１６－３０１号,,13,101,1020092,,,,,,,2023-11-15,1,,,,,エスワイジー,0
1875,7010003042214,新規,0,2023-11-15,2023-11-15,赤坂インベストメント・スリー合同会社,,合同会社,東京都,中央区,八丁堀４丁目２番１０号ＡＯＪ税理士法人内,,13,102,1040032,,,,,,,2023-11-15,1,,,,,アカサカインベストメントスリー,0
1878,7010005037492,新規,0,2023-11-15,2023-11-15,一般社団法人ジャパンレジデンス１,,その他の設立登記法人,東京都,千代田区,内神田２丁目２番６号５階あすな会計事務所内,,13,101,1010047,,,,,,,2023-11-15,1,,,,,ジャパンレジデンスワン,0
1879,7010005037518,新規,0,2023-11-15,2023-11-15,一般社団法人ハンプテイ,,その他の設立登記法人,東京都,千代田区,一番町２３－２番町ロイヤルコート４０１,,13,101,1020082,,,,,,,2023-11-15,1,,,,,ハンプテイ,0
1888,7010401178493,新規,0,2023-11-15,2023-11-15,株式会社ＡｑｕａＧｌａｍ　Ｈｅａｌｔｈ,,株式会社,東京都,港区,西麻布１丁目４－１１シグマ西麻布ＩＩ５０２,00132647,13,103,1060031,,,,,,,2023-11-15,1,,,,,アクアグラムヘルス,0
1889,7010401178510,新規,0,2023-11-15,2023-11-15,株式会社日榮ＴＲＩＢＥ,,株式会社,東京都,港区,赤坂３丁目１１番１５号ＶＯＲＴ赤坂見附４Ｆ,,13,103,1070052,,,,,,,2023-11-15,1,,,,,ニチエイトライブ,0
1890,7010401178519,新規,0,2023-11-15,2023-11-15,株式会社ボタニカ,,株式会社,東京都,港区,西新橋２丁目１４番地７笠井ビル４階,,13,103,1050003,,,,,,,2023-11-15,1,,,,,ボタニカ,0
1891,7010401178527,新規,0,2023-11-15,2023-11-15,株式会社Ｗ,,株式会社,東京都,港区,赤坂９丁目６番３５号,,13,103,1070052,,,,,,,2023-11-15,1,,,,,ダブリュー,0
1892,7010401178535,新規,0,2023-11-15,2023-11-15,ＡＲ　Ｇｅｎｉｅ　Ｊａｐａｎ株式会社,,株式会社,東京都,港区,虎ノ門１丁目１７番１号虎ノ門ビジネスタワー１５階,,13,103,1050001,,,,,,,2023-11-15,1,,,,,エーアールジーニージャパン,0
1897,7010501051352,新規,0,2023-11-15,2023-11-15,ＩＴＰホールディングス株式会社,,株式会社,東京都,台東区,上野１丁目１３番４号エスペランサ湯島９階,,13,106,1100005,,,,,,,2023-11-15,1,,,,,アイティーピーホールディングス,0
1901,7010701045121,新規,0,2023-11-15,2023-11-15,磊川總業株式会社,,株式会社,東京都,品川区,北品川３丁目６番４８－６０３号,,13,109,1400001,,,,,,,2023-11-15,1,,,,,イシカワソウギョウ,0
1904,7010803004751,新規,0,2023-11-15,2023-11-15,合同会社Ｒ＆Ｋ,,合同会社,東京都,大田区,西蒲田５丁目１０番２１号,,13,111,1440051,,,,,,,2023-11-15,1,,,,,アールアンドケー,0
1905,7010901054194,新規,0,2023-11-15,2023-11-15,ＫＯＫ株式会社,,株式会社,東京都,世田谷区,三軒茶屋２丁目７番９号プルミエ三軒茶屋１０２,,13,112,1540024,,,,,,,2023-11-15,1,,,,,コウケイ,0
1918,7011101105119,新規,0,2023-11-15,2023-11-15,株式会社シサクウェア,,株式会社,東京都,新宿区,西新宿３丁目３番１３号西新宿水間ビル６階,,13,104,1600023,,,,,,,2023-11-15,1,,,,,シサクウェア,0
1928,7011601027275,新規,0,2023-11-15,2023-11-15,株式会社鞠,,株式会社,東京都,練馬区,春日町５丁目３３番４号,,13,120,1790074,,,,,,,2023-11-15,1,,,,,マリ,0
1929,7011603004132,新規,0,2023-11-15,2023-11-15,合同会社ＢＵＣＫＥＴ　ＬＩＳＴ,,合同会社,東京都,練馬区,桜台３丁目２９番３号,,13,120,1760002,,,,,,,2023-11-15,1,,,,,バケットリスト,0
1932,7011701026771,新規,0,2023-11-15,2023-11-15,株式会社ＧＯＯＤ　ＯＮＥＳ,,株式会社,東京都,江戸川区,大杉５丁目１番２号,,13,123,1320022,,,,,,,2023-11-15,1,,,,,グッドワンズ,0
1936,7011801043329,新規,0,2023-11-15,2023-11-15,株式会社心音,,株式会社,東京都,足立区,谷中１丁目３０－２ヴィラージュ綾瀬２０７,,13,121,1200006,,,,,,,2023-11-15,1,,,,,ココネ,0
1937,7011803005905,新規,0,2023-11-15,2023-11-15,合同会社エクソシスト,,合同会社,東京都,葛飾区,東堀切３丁目２３‐６‐２０２,,13,122,1240004,,,,,,,2023-11-15,1,,,,,エクソシスト,0
1941,7012401041227,新規,0,2023-11-15,2023-11-15,株式会社ワンアーナー,,株式会社,東京都,武蔵野市,吉祥寺北町１丁目１８番１６号三宅第一フラット１０２,,13,203,1800001,,,,,,,2023-11-15,1,,,,,ワンアーナー,0
1954,7020001154472,新規,0,2023-11-15,2023-11-15,株式会社ズッキー,,株式会社,神奈川県,横浜市南区,堀ノ内町２丁目２０９番地アビタシオンＭ堀ノ内Ａ２０３,,14,105,2320042,,,,,,,2023-11-15,1,,,,,ズッキー,0
1955,7020001154480,新規,0,2023-11-15,2023-11-15,株式会社彩工社,,株式会社,神奈川県,横浜市瀬谷区,本号２－１－６,,14,114,2460000,,,,,,,2023-11-15,1,,,,,サイコウシャ,0
1956,7020001154497,新規,0,2023-11-15,2023-11-15,株式会社Ｔ．Ｋ．Ｎ．ＫＥＮＳＯ．,,株式会社,神奈川県,横浜市神奈川区,菅田町７９９番地ビレッジハウス菅田６号棟３０１号,,14,102,2210864,,,,,,,2023-11-15,1,,,,,ティーケーエヌケンソー,0
1963,7020003024995,新規,0,2023-11-15,2023-11-15,ナミュール合同会社,,合同会社,神奈川県,横浜市鶴見区,生麦５丁目１６番５号Ｂ１,,14,101,2300052,,,,,,,2023-11-15,1,,,,,ナミュール,0
1966,7020005016181,新規,0,2023-11-15,2023-11-15,一般社団法人ビジネスサポートアライアンス神奈川,,その他の設立登記法人,神奈川県,横浜市中区,尾上町５丁目８０番地,,14,104,2310015,,,,,,,2023-11-15,1,,,,,ビジネスサポートアライアンスカナガワ,0
1969,7021001080691,新規,0,2023-11-15,2023-11-15,株式会社ＧＡ　ＭＯＮＥ　ＰＷＩＮＴ　Ｃｏｍｐａｎｙ,,株式会社,神奈川県,横須賀市,田浦大作町３５番４,,14,201,2370074,,,,,,,2023-11-15,1,,,,,ガモンプイカンパニー,0
1970,7021001080741,新規,0,2023-11-15,2023-11-15,株式会社クラウンセキュリティーガードシステム,,株式会社,神奈川県,秦野市,下大槻７８番地１藤ハイツ１０１号室,,14,211,2570004,,,,,,,2023-11-15,1,,,,,クラウンセキュリティーガードシステム,0
1971,7021003013807,新規,0,2023-11-15,2023-11-15,合同会社ＡＣ　ｗｏｒｋｓ,,合同会社,神奈川県,平塚市,平塚１丁目１６－６,,14,203,2540052,,,,,,,2023-11-15,1,,,,,エーシーワークス,0
1973,7030001157160,新規,0,2023-11-15,2023-11-15,株式会社ＥＡＣＨ　ＦＡＣＥ,,株式会社,埼玉県,草加市,高砂２丁目１１番７号草加駅前ビル４階,,11,221,3400015,,,,,,,2023-11-15,1,,,,,イーチフェイス,0
1974,7030001157169,新規,0,2023-11-15,2023-11-15,ファーメント株式会社,,株式会社,埼玉県,ふじみ野市,駒林１６１番地,,11,245,3560034,,,,,,,2023-11-15,1,,,,,ファーメント,0
1980,7030003022998,新規,0,2023-11-15,2023-11-15,Ｇｌｏｂａｌ　Ｖｉｓｉｏｎ合同会社,,合同会社,埼玉県,川口市,飯塚１丁目２－１６川口ホームズ１Ｆ,,11,203,3320023,,,,,,,2023-11-15,1,,,,,グローバルビジョン,0
1981,7030003023006,新規,0,2023-11-15,2023-11-15,ガーベラ合同会社,,合同会社,埼玉県,新座市,野火止３丁目１２番３３号,,11,230,3520011,,,,,,,2023-11-15,1,,,,,ガーベラ,0
1986,7040001130934,新規,0,2023-11-15,2023-11-15,株式会社マルタカ産業,,株式会社,千葉県,船橋市,南本町４番７－３０１号,,12,204,2730004,,,,,,,2023-11-15,1,,,,,マルタカサンギョウ,0
1991,7050001053837,新規,0,2023-11-15,2023-11-15,株式会社クリエイトビジネス茨城,,株式会社,茨城県,水戸市,双葉台１丁目２２番地の６,,08,201,3114145,,,,,,,2023-11-15,1,,,,,クリエイトビジネスイバラキ,0
1993,7050003007931,新規,0,2023-11-15,2023-11-15,合同会社維新商事,,合同会社,茨城県,稲敷市,蒲ケ山７２９－７,,08,229,3000522,,,,,,,2023-11-15,1,,,,,イシンショウジ,0
1995,7060001036543,新規,0,2023-11-15,2023-11-15,株式会社祖母井タクシー,,株式会社,栃木県,芳賀郡芳賀町,大字祖母井７５９番地１,,09,345,3213304,,,,,,,2023-11-15,1,,,,,ウバガイタクシー,0
2003,7080105006374,新規,0,2023-11-15,2023-11-15,特定非営利活動法人伊豆霊場振興会,,その他の設立登記法人,静岡県,三島市,光ケ丘３４番地の２０,,22,206,4110029,,,,,,,2023-11-15,1,,,,,イズレイジョウシンコウカイ,0
2004,7080401026844,新規,0,2023-11-15,2023-11-15,株式会社ダイヤエール,,株式会社,静岡県,浜松市西区,西都台町１０番２７号,,22,133,4328071,,,,,,,2023-11-15,1,,,,,ダイヤエール,0
2013,7110005017022,新規,0,2023-11-15,2023-11-15,一般社団法人縄文研究舎,,その他の設立登記法人,新潟県,十日町市,中条乙３２０８番地１,,15,210,9498616,,,,,,,2023-11-15,1,,,,,ジョウモンケンキュウシャ,0
2019,7120001259815,新規,0,2023-11-15,2023-11-15,黒桃Ｋ株式会社,,株式会社,大阪府,大阪市生野区,小路東６丁目８番１７号昭和エクセルビュー東大阪１０３－Ｇ０１,,27,116,5440003,,,,,,,2023-11-15,1,,,,,コクトウケイ,0
2020,7120001259856,新規,0,2023-11-15,2023-11-15,新大金商事株式会社,,株式会社,大阪府,大阪市平野区,長吉長原東３丁目６番６号,,27,126,5470013,,,,,,,2023-11-15,1,,,,,シンダイキンショウジ,0
2021,7120001259889,新規,0,2023-11-15,2023-11-15,アイインプロパティ株式会社,,株式会社,大阪府,大阪市浪速区,下寺１丁目１番３号,,27,111,5560001,,,,,,,2023-11-15,1,,,,,アイインプロパティ,0
2022,7120001259897,新規,0,2023-11-15,2023-11-15,嘉恩株式会社,,株式会社,大阪府,大阪市生野区,巽北１丁目２１番２９号生野ハイツ８１５号,00132653,27,116,5440004,,,,,,,2023-11-15,1,,,,,カオン,0
2023,7120001259922,新規,0,2023-11-15,2023-11-15,株式会社アイリーホーム,,株式会社,大阪府,大阪市阿倍野区,天王寺町北２丁目８－１５,,27,119,5450001,,,,,,,2023-11-15,1,,,,,アイリーホーム,0
2037,7120101068521,新規,0,2023-11-15,2023-11-15,株式会社菰池,,株式会社,大阪府,泉南郡田尻町,吉見８９８番地,,27,362,5980092,,,,,,,2023-11-15,1,,,,,コモイケ,0
2038,7120103005530,新規,0,2023-11-15,2023-11-15,合同会社なにわ協同,,合同会社,大阪府,堺市堺区,大町東２丁２番２号,,27,141,5900954,,,,,,,2023-11-15,1,,,,,ナニワキョウドウ,0
2039,7120103005539,新規,0,2023-11-15,2023-11-15,ＫＴアセットマネジメント合同会社,,合同会社,大阪府,堺市北区,百舌鳥赤畑町１丁８番１０号,,27,146,5918037,,,,,,,2023-11-15,1,,,,,ケイティーアセットマネジメント,0
2043,7122003002731,新規,0,2023-11-15,2023-11-15,合同会社ＵＰ,,合同会社,大阪府,東大阪市,日下町３丁目１番１１号,,27,227,5798003,,,,,,,2023-11-15,1,,,,,アップ,0
2047,7130001075682,新規,0,2023-11-15,2023-11-15,株式会社Ｐ‐ＮＥＥＤＳ,,株式会社,京都府,京都市下京区,鶏鉾町４９３番地ムーンバットビル７階,,26,106,6008491,,,,,,,2023-11-15,1,,,,,ピーニーズ,0
2048,7130001075740,新規,0,2023-11-15,2023-11-15,掌雲堂株式会社,,株式会社,京都府,京都市山科区,御陵封ジ山町２番地１０６,,26,110,6078422,,,,,,,2023-11-15,1,,,,,ショウウンドウ,0
2052,7130003009135,新規,0,2023-11-15,2023-11-15,合同会社七海,,合同会社,京都府,木津川市,木津南後背１８５番地１４,,26,214,6190214,,,,,,,2023-11-15,1,,,,,ナナミ,0
2053,7130005016930,新規,0,2023-11-15,2023-11-15,一般社団法人京都海外ビジネス促進協議会,,その他の設立登記法人,京都府,京都市下京区,朱雀宝蔵町４４番地協栄ビル２階京都朱雀スタジオ,,26,106,6008846,,,,,,,2023-11-15,1,,,,,キョウトカイガイビジネスソクシンキョウギカイ,0
2057,7140001132292,新規,0,2023-11-15,2023-11-15,株式会社姫路相生ゴルフ,,株式会社,兵庫県,相生市,矢野町真広８１４番地４,,28,208,6780091,,,,,,,2023-11-15,1,,,,,ヒメジアイオイゴルフ,0
2058,7140001132326,新規,0,2023-11-15,2023-11-15,株式会社ラフリロ,,株式会社,兵庫県,姫路市,継６７番地８,,28,201,6728004,,,,,,,2023-11-15,1,,,,,ラフリロ,0
2059,7140001132334,新規,0,2023-11-15,2023-11-15,株式会社ＲＥＧパートナーズ,,株式会社,兵庫県,加古川市,平岡町新在家１５２０番地,,28,210,6750101,,,,,,,2023-11-15,1,,,,,アールイージーパートナーズ,0
2060,7140001132350,新規,0,2023-11-15,2023-11-15,株式会社ＬａｄｙＲ,,株式会社,兵庫県,西宮市,上大市１丁目６番３９号,,28,204,6638003,,,,,,,2023-11-15,1,,,,,レディール,0
2061,7140001132359,新規,0,2023-11-15,2023-11-15,株式会社アイ,,株式会社,兵庫県,神戸市中央区,磯上通８丁目１番２９号カサベラビルＣ＆Ｍ４０３号室,,28,110,6510086,,,,,,,2023-11-15,1,,,,,アイ,0
2063,7140003019819,新規,0,2023-11-15,2023-11-15,合同会社ヤマコー,,合同会社,兵庫県,神戸市西区,春日台７丁目１２番地の２,,28,111,6512276,,,,,,,2023-11-15,1,,,,,ヤマコー,0
2068,7160001025503,新規,0,2023-11-15,2023-11-15,株式会社八惣八,,株式会社,滋賀県,守山市,小島町１２４６番地,,25,207,5240002,,,,,,,2023-11-15,1,,,,,ヤソハチ,0
2071,7170001017887,新規,0,2023-11-15,2023-11-15,株式会社Ｇｒｅｅｎ＆Ｂｌｕｅ,,株式会社,和歌山県,岩出市,川尻１４番地の１フォレストボックスＩ２－６,00132645,30,209,6496231,,,,,,,2023-11-15,1,,,,,グリーンアンドブルー,0
2074,7180001158895,新規,0,2023-11-15,2023-11-15,コイリフォーム株式会社,,株式会社,愛知県,名古屋市名東区,文教台１丁目１１１番地,,23,115,4650012,,,,,,,2023-11-15,1,,,,,コイリフォーム,0
2075,7180001158937,新規,0,2023-11-15,2023-11-15,株式会社ＣＨＰ‐Ａｉｃｈｉ,,株式会社,愛知県,名古屋市東区,東大曽根町２９番１１号,,23,102,4610022,,,,,,,2023-11-15,1,,,,,シーエイチピーアイチ,0
2076,7180001158945,新規,0,2023-11-15,2023-11-15,株式会社ＭＧＦＣプサイ,,株式会社,愛知県,名古屋市中区,千代田４丁目２５番２１号,,23,106,4600012,,,,,,,2023-11-15,1,,,,,エムジーエフシープサイ,0
2077,7180001158953,新規,0,2023-11-15,2023-11-15,株式会社Ｓ‐ｐａｒｋ,,株式会社,愛知県,名古屋市中村区,宿跡町２丁目４５番地の５（宝マンション中村公園西３０５号）,,23,105,4530067,,,,,,,2023-11-15,1,,,,,スパーク,0
2081,7180003025994,新規,0,2023-11-15,2023-11-15,合同会社ＭＣ,,合同会社,愛知県,名古屋市北区,成願寺１丁目６番Ａ－２６０１号,,23,103,4620021,,,,,,,2023-11-15,1,,,,,エムシー,0
2082,7180005020424,新規,0,2023-11-15,2023-11-15,一般社団法人ハンクの家,,その他の設立登記法人,愛知県,名古屋市北区,清水５丁目２４番１号,,23,103,4620844,,,,,,,2023-11-15,1,,,,,ハンクノイエ,0
2086,7190005011884,新規,0,2023-11-15,2023-11-15,学校法人清進学園,,その他の設立登記法人,三重県,鈴鹿市,郡山町字西高山２００１番地１５,,24,207,5100263,,,,,,,2023-11-15,1,,,,,セイシンガクエン,0
2090,7200001041900,新規,0,2023-11-15,2023-11-15,株式会社ココアイ,,株式会社,岐阜県,恵那市,大井町２２４－２,,21,210,5097201,,,,,,,2023-11-15,1,,,,,ココアイ,0
2091,7200003006158,新規,0,2023-11-15,2023-11-15,合同会社グランエンパティア,,合同会社,岐阜県,瑞穂市,古橋１２０６－１アビタシオンＫ５・１１２号室,,21,216,5010322,,,,,,,2023-11-15,1,,,,,グランエンパティア,0
2094,7230001020109,新規,0,2023-11-15,2023-11-15,株式会社Ｈｅａｒｔｂｌｏｏｍ,,株式会社,富山県,中新川郡舟橋村,国重１１番地,,16,321,9300288,,,,,,,2023-11-15,1,,,,,ハートブルーム,0
2101,7250001010438,新規,0,2023-11-15,2023-11-15,山陽住建株式会社,,株式会社,山口県,周南市,大字徳山５８１１番地の１０,,35,215,7450851,,,,,,,2023-11-15,1,,,,,サンヨウジュウケン,0
2102,7250001020387,新規,0,2023-11-15,2023-11-15,中国土地株式会社,,株式会社,山口県,周南市,新宿通１丁目１５番地,,35,215,7450056,,,,,,,2023-11-15,1,,,,,,0
2104,7260001038494,新規,0,2023-11-15,2023-11-15,株式会社Ａｄｖａｎｃｅ,,株式会社,岡山県,岡山市北区,津高２２０番地笹ケ瀬バークレイＡ１０１,,33,101,7011152,,,,,,,2023-11-15,1,,,,,アドバンス,0
2114,7290003014607,新規,0,2023-11-15,2023-11-15,合同会社Ｒ‐ｃｏｎｎｅｃｔ,,合同会社,福岡県,筑後市,大字前津２５７３番地,,40,211,8330002,,,,,,,2023-11-15,1,,,,,アールコネクト,0
2126,7370003006372,新規,0,2023-11-15,2023-11-15,ＥＮｇｒｏｗＺ合同会社,,合同会社,宮城県,仙台市青葉区,小田原５丁目１番地４６号,,04,101,9800003,,,,,,,2023-11-15,1,,,,,エングローズ,0
2129,7380001034127,新規,0,2023-11-15,2023-11-15,日本リンクス株式会社,,株式会社,福島県,安達郡大玉村,大山字北谷地７９番地１,,07,322,9691301,,,,,,,2023-11-15,1,,,,,ニホンリンクス,0
2135,7430001090445,新規,0,2023-11-15,2023-11-15,株式会社Ｏｒｃｈｉｄ　Ａｉｌｅｓ,,株式会社,北海道,小樽市,潮見台４丁目１７２番地３,,01,203,0470002,,,,,,,2023-11-15,1,,,,,オーキッドエール,0
2142,7480005006995,新規,0,2023-11-15,2023-11-15,一般社団法人心繋プロジェクト,,その他の設立登記法人,徳島県,美馬市,脇町大字脇町１２３番地,,36,207,7793610,,,,,,,2023-11-15,1,,,,,キズナプロジェクト,0
2146,7500001025311,新規,0,2023-11-15,2023-11-15,株式会社石丸農園札幌,,株式会社,愛媛県,松山市,権現町甲１５７番地,,38,201,7992653,,,,,,,2023-11-15,1,,,,,イシマルノウエンサッポロ,0
2153,8010001239918,新規,0,2023-11-15,2023-11-15,株式会社プレミアテック,,株式会社,東京都,中央区,銀座１丁目１２－４Ｎ＆ＥＢＬＤ．７階,,13,102,1040061,,,,,,,2023-11-15,1,,,,,プレミアテック,0
2154,8010001240025,新規,0,2023-11-15,2023-11-15,ｉｔｔｅｋｉ株式会社,,株式会社,東京都,中央区,銀座１丁目１２番４号Ｎ＆ＥＢＬＤ．６Ｆ,,13,102,1040061,,,,,,,2023-11-15,1,,,,,イッテキ,0
2155,8010001240033,新規,0,2023-11-15,2023-11-15,Ａ＆Ａ　Ｇｒｏｕｐ株式会社,,株式会社,東京都,中央区,勝どき２丁目６番７号,,13,102,1040054,,,,,,,2023-11-15,1,,,,,エイアンドエイグループ,0
2156,8010001240041,新規,0,2023-11-15,2023-11-15,株式会社Ｒｅｗｉｎｄ,,株式会社,東京都,中央区,銀座１丁目１５番７号ＭＡＣ銀座ビル３階,,13,102,1040061,,,,,,,2023-11-15,1,,,,,リワインド,0
2157,8010001240066,新規,0,2023-11-15,2023-11-15,株式会社グローウィル,,株式会社,東京都,中央区,日本橋小伝馬町１２－５小伝馬町ＹＳビル６階,,13,102,1030001,,,,,,,2023-11-15,1,,,,,グローウィル,0
2160,8010003042171,新規,0,2023-11-15,2023-11-15,合同会社トリニティガルフピッゲン,,合同会社,東京都,中央区,日本橋１丁目４番１号,,13,102,1030027,,,,,,,2023-11-15,1,,,,,トリニティガルフピッゲン,0
2161,8010003042221,新規,0,2023-11-15,2023-11-15,合同会社Ｈａｋｕｔｏｕ,,合同会社,東京都,千代田区,神田須田町１丁目５番ＫＳビル８Ｆ,,13,101,1010041,,,,,,,2023-11-15,1,,,,,ハクトウ,0
2167,8010401178518,新規,0,2023-11-15,2023-11-15,株式会社山下商店,,株式会社,東京都,港区,三田１丁目５番５－２０７号,,13,103,1080073,,,,,,,2023-11-15,1,,,,,ヤマシタショウテン,0
2168,8010401178526,新規,0,2023-11-15,2023-11-15,株式会社ａｒｕｍｉ,,株式会社,東京都,港区,虎ノ門４丁目３番１号城山トラストタワー２１階,,13,103,1050001,,,,,,,2023-11-15,1,,,,,アルミ,0
2173,8010403031369,新規,0,2023-11-15,2023-11-15,合同会社オフィスＹＡＭＡＴＯ,,合同会社,東京都,港区,南青山１丁目１９番１３号クィーンズハウス乃木坂３０２,,13,103,1070062,,,,,,,2023-11-15,1,,,,,オフィスヤマト,0
2177,8010601064146,新規,0,2023-11-15,2023-11-15,リライアンスジャパン株式会社,,株式会社,東京都,墨田区,錦糸１丁目５番１７－２０１号,,13,107,1300013,,,,,,,2023-11-15,1,,,,,リライアンスジャパン,0
2178,8010601064154,新規,0,2023-11-15,2023-11-15,株式会社ワイズ,,株式会社,東京都,江東区,大島７丁目７番１３号,,13,108,1360072,,,,,,,2023-11-15,1,,,,,ワイズ,0
2179,8010701045137,新規,0,2023-11-15,2023-11-15,株式会社ＲＨＥＯ,,株式会社,東京都,品川区,二葉３丁目１０番２号フタバソウ３０２,,13,109,1420043,,,,,,,2023-11-15,1,,,,,レオ,0
2182,8010901054177,新規,0,2023-11-15,2023-11-15,株式会社ＦＬＯＡＴＩＮ,,株式会社,東京都,世田谷区,北沢２丁目４０－１８,,13,112,1550031,,,,,,,2023-11-15,1,,,,,フローティン,0
2183,8010903008577,新規,0,2023-11-15,2023-11-15,Ｓｅｖｅｎ　Ｓｕｍｍｉｔｓ合同会社,,合同会社,東京都,世田谷区,奥沢５丁目１－１１メゾンドジョワ２０２,,13,112,1580083,,,,,,,2023-11-15,1,,,,,セブンサミッツ,0
2187,8011001158117,新規,0,2023-11-15,2023-11-15,株式会社Ｆｌｕｘｉｏｎ,,株式会社,東京都,目黒区,中目黒２丁目１－２３テラス恵比寿の丘３１３,,13,110,1530061,,,,,,,2023-11-15,1,,,,,フラクション,0
2188,8011001158182,新規,0,2023-11-15,2023-11-15,株式会社ＶｕｎＶｕｎ,,株式会社,東京都,渋谷区,神山町１７番１０号ＣＲＯＳＳＲＯＡＤ渋谷神山町１０４,,13,113,1500047,,,,,,,2023-11-15,1,,,,,ビュンビュン,0
2189,8011001158199,新規,0,2023-11-15,2023-11-15,株式会社ＭＵＲＡＪＩ・ＳＥＩＺＡＩＳＨＯ．,,株式会社,東京都,渋谷区,道玄坂１丁目１６番６号二葉ビル８ｂ,,13,113,1500043,,,,,,,2023-11-15,1,,,,,ムラジセイザイショ,0
2190,8011001158208,新規,0,2023-11-15,2023-11-15,株式会社ＳＯＡＲＩＳＴ,,株式会社,東京都,目黒区,下目黒１丁目１番１４号コノトラビル７Ｆ,,13,110,1530064,,,,,,,2023-11-15,1,,,,,ソアリスト,0
2191,8011001158216,新規,0,2023-11-15,2023-11-15,ｏｎｅ　ｎｉｎｅ株式会社,,株式会社,東京都,渋谷区,渋谷４丁目２番１２号ＥＤＧＥ南青山１Ｆ,,13,113,1500002,,,,,,,2023-11-15,1,,,,,ワンナイン,0
2192,8011001158224,新規,0,2023-11-15,2023-11-15,株式会社Ｃｌａｖｉｓ　Ｐａｒｔｎｅｒｓ,,株式会社,東京都,渋谷区,円山町５番５号Ｎａｖｉ渋谷Ｖ３階,,13,113,1500044,,,,,,,2023-11-15,1,,,,,クラビスパートナーズ,0
2193,8011003017923,新規,0,2023-11-15,2023-11-15,ＡＳＫリーシング合同会社,,合同会社,東京都,渋谷区,猿楽町２９番１０号ヒルサイドテラスＥ棟１５号,,13,113,1500033,,,,,,,2023-11-15,1,,,,,エイエスケイリーシング,0
2196,8011101105142,新規,0,2023-11-15,2023-11-15,ＥＬＣ　Ｃｏｍｐａｎｙ株式会社,,株式会社,東京都,新宿区,二十騎町２番２３－２１０号,,13,104,1620855,,,,,,,2023-11-15,1,,,,,イーエルシーカンパニー,0
2200,8011103013748,新規,0,2023-11-15,2023-11-15,合同会社ゼロ‐イチ,,合同会社,東京都,新宿区,西新宿３丁目３番１３号西新宿水間ビル６階,,13,104,1600023,,,,,,,2023-11-15,1,,,,,ゼロイチ,0
2201,8011203004226,新規,0,2023-11-15,2023-11-15,宝松林合同会社,,合同会社,東京都,中野区,松が丘１丁目２９番２１号パレ・ドール中野第２・１０６,,13,114,1650024,,,,,,,2023-11-15,1,,,,,ホウショウリン,0
2206,8011601027274,新規,0,2023-11-15,2023-11-15,株式会社ＣＯＣＯ,,株式会社,東京都,練馬区,春日町５丁目３３番４号,,13,120,1790074,,,,,,,2023-11-15,1,,,,,ココ,0
2207,8011701026770,新規,0,2023-11-15,2023-11-15,大繁工業株式会社,,株式会社,東京都,江戸川区,南小岩７丁目１６番１３号サンヒルズ小岩１０１,,13,123,1330056,,,,,,,2023-11-15,1,,,,,オオシゲコウギョウ,0
2209,8011801043344,新規,0,2023-11-15,2023-11-15,ティックタイム株式会社,,株式会社,東京都,足立区,西新井２丁目４番６号ＡｎｄＰｌｕｓ西新井ビル,,13,121,1230841,,,,,,,2023-11-15,1,,,,,ティックタイム,0
2210,8011801043352,新規,0,2023-11-15,2023-11-15,株式会社アドミサポート,,株式会社,東京都,足立区,綾瀬３丁目１９番１６号松代ビル２０２,,13,121,1200005,,,,,,,2023-11-15,1,,,,,アドミサポート,0
2217,8012801022767,新規,0,2023-11-15,2023-11-15,株式会社コバボウ,,株式会社,東京都,国立市,泉３丁目１４番地の２４,,13,215,1860012,,,,,,,2023-11-15,1,,,,,コバボウ,0
2218,8012803003237,新規,0,2023-11-15,2023-11-15,ＨＡＫＵ・Ｋ合同会社,,合同会社,東京都,日野市,豊田４丁目４５番地の２４,,13,212,1910053,,,,,,,2023-11-15,1,,,,,ハクドットケイ,0
2227,8013301051637,新規,0,2023-11-15,2023-11-15,株式会社ＭＭＴ,,株式会社,東京都,豊島区,東池袋１丁目１７番１１号パークハイツ池袋１１０５号,,13,116,1700013,,,,,,,2023-11-15,1,,,,,エムエムティ,0
2228,8013305003543,新規,0,2023-11-15,2023-11-15,一般社団法人ロスプリサポートセンター,,その他の設立登記法人,東京都,豊島区,南池袋２丁目４１番１２号,,13,116,1710022,,,,,,,2023-11-15,1,,,,,ロスプリサポートセンター,0
2238,8020001154463,新規,0,2023-11-15,2023-11-15,株式会社共栄内装,,株式会社,神奈川県,横浜市磯子区,森４丁目９番２９号,,14,107,2350023,,,,,,,2023-11-15,1,,,,,キョウエイナイソウ,0
2239,8020001154488,新規,0,2023-11-15,2023-11-15,株式会社Ｎ．Ｏ．Ａ,,株式会社,神奈川県,川崎市宮前区,東有馬１丁目２番４－６号,,14,136,2160002,,,,,,,2023-11-15,1,,,,,ノア,0
2242,8020003025010,新規,0,2023-11-15,2023-11-15,中西電気工事合同会社,,合同会社,神奈川県,横浜市神奈川区,羽沢南２丁目３４番１０号,,14,102,2210866,,,,,,,2023-11-15,1,,,,,ナカニシデンキコウジ,0
2243,8020003025019,新規,0,2023-11-15,2023-11-15,合同会社Ｅｎｄｕｃａｔｅ,,合同会社,神奈川県,横浜市神奈川区,金港町５ー１４クアドリフォリオ８階,,14,102,2210056,,,,,,,2023-11-15,1,,,,,エンデュケイト,0
2244,8020005016180,新規,0,2023-11-15,2023-11-15,一般社団法人日本海外経済文化連絡会,,その他の設立登記法人,神奈川県,横浜市神奈川区,栄町１３－１１ルピナス横濱ポートサイド１００１号,,14,102,2210052,,,,,,,2023-11-15,1,,,,,ニホンカイガイケイザイブンカレンラクカイ,0
2248,8021001080690,新規,0,2023-11-15,2023-11-15,株式会社ｗｉｔｈ　Ｍ,,株式会社,神奈川県,茅ヶ崎市,高田１丁目７番１６号,,14,207,2530002,,,,,,,2023-11-15,1,,,,,ウィズエム,0
2249,8021001080732,新規,0,2023-11-15,2023-11-15,株式会社長瀬電設,,株式会社,神奈川県,相模原市中央区,中央２丁目１３－１２中川ビル３０２,,14,152,2520239,,,,,,,2023-11-15,1,,,,,ナガセデンセツ,0
2250,8021001080749,新規,0,2023-11-15,2023-11-15,株式会社スリーストリームス,,株式会社,神奈川県,鎌倉市,笛田２丁目３８番２号,,14,204,2480027,,,,,,,2023-11-15,1,,,,,スリーストリームス,0
2252,8021003013806,新規,0,2023-11-15,2023-11-15,合同会社ＺＥＡＬＩＦＥ,,合同会社,神奈川県,厚木市,飯山南４丁目２番１４号,,14,212,2430218,,,,,,,2023-11-15,1,,,,,ジーライフ,0
2253,8021005012938,新規,0,2023-11-15,2023-11-15,一般社団法人湯河原みかん倶楽部,,その他の設立登記法人,神奈川県,足柄下郡湯河原町,土肥３丁目１番地の９,,14,384,2590303,,,,,,,2023-11-15,1,,,,,ユガワラミカンクラブ,0
2260,8030001157151,新規,0,2023-11-15,2023-11-15,株式会社Ｔ・Ｔ企画,,株式会社,埼玉県,三郷市,彦成２丁目１０２番１号,,11,237,3410003,,,,,,,2023-11-15,1,,,,,ティーティーキカク,0
2261,8030001157184,新規,0,2023-11-15,2023-11-15,株式会社みらチカ,,株式会社,埼玉県,本庄市,下野堂２丁目６番８号,,11,211,3670063,,,,,,,2023-11-15,1,,,,,ミラチカ,0
2266,8030003022840,新規,0,2023-11-15,2023-11-15,合同会社ｅｎ　ｃｌｏｖｅｒ,,合同会社,埼玉県,久喜市,西大輪２３２１番地１０,,11,232,3400206,,,,,,,2023-11-15,1,,,,,エンクローバー,0
2267,8030003022956,新規,0,2023-11-15,2023-11-15,富城合同会社,,合同会社,埼玉県,さいたま市北区,盆栽町２２４番地５,,11,102,3310805,,,,,,,2023-11-15,1,,,,,トミシロ,0
2268,8030003022997,新規,0,2023-11-15,2023-11-15,合同会社ＭＵＮＥＥＢ　ＴＲＡＤＩＮＧ,,合同会社,埼玉県,入間郡毛呂山町,前久保南１丁目２２番地２５Ａ－１,,11,326,3500463,,,,,,,2023-11-15,1,,,,,マニーブトレーディング,0
2276,8040001130909,新規,0,2023-11-15,2023-11-15,Ｓｋｙ　Ｎｅｘｔ株式会社,,株式会社,千葉県,市原市,古市場５８０番地１８,,12,219,2900008,,,,,,,2023-11-15,1,,,,,スカイネクスト,0
2277,8040001130933,新規,0,2023-11-15,2023-11-15,株式会社藤旺,,株式会社,千葉県,千葉市花見川区,犢橋町１８６番地６１－Ｖ１０２号,,12,102,2620013,,,,,,,2023-11-15,1,,,,,トウオウ,0
2278,8040001130941,新規,0,2023-11-15,2023-11-15,千葉準備株式会社,,株式会社,千葉県,千葉市美浜区,幸町１丁目６番３号,,12,106,2610001,,,,,,,2023-11-15,1,,,,,チバジュンビ,0
2289,8050001053828,新規,0,2023-11-15,2023-11-15,株式会社メンズサロンＩＭＡ,,株式会社,茨城県,鹿嶋市,大字長栖２２８８ー３５畑尾ビル２階２０２,,08,222,3140022,,,,,,,2023-11-15,1,,,,,メンズサロンアイエムエー,0
2290,8050001053836,新規,0,2023-11-15,2023-11-15,株式会社フォレストエコロジー,,株式会社,茨城県,つくば市,安食２５４４番地３５,,08,220,3004205,,,,,,,2023-11-15,1,,,,,フォレストエコロジー,0
2293,8060001036550,新規,0,2023-11-15,2023-11-15,ＨＡＮＡＮ　ＩＮＴＥＲＮＡＴＩＯＮＡＬ株式会社,,株式会社,栃木県,真岡市,熊倉１丁目１０番地３みどりケ丘ハイツＶＩＩ１０７号室,00132650,09,209,3214369,,,,,,,2023-11-15,1,,,,,ハナンインターナショナル,0
2295,8060005010155,新規,0,2023-11-15,2023-11-15,一般社団法人岩崎清七翁報恩会,,その他の設立登記法人,栃木県,栃木市,藤岡町藤岡１８４３番地,,09,203,3231104,,,,,,,2023-11-15,1,,,,,イワサキセイシチオキナホウオンカイ,0
2303,8080101024338,新規,0,2023-11-15,2023-11-15,みしまギルド株式会社,,株式会社,静岡県,三島市,本町２番４号,,22,206,4110855,,,,,,,2023-11-15,1,,,,,ミシマギルド,0
2309,8090001018414,新規,0,2023-11-15,2023-11-15,ＨＩＴＯＭＡ株式会社,,株式会社,山梨県,富士吉田市,上吉田４８４１番地の１１,,19,202,4030005,,,,,,,2023-11-15,1,,,,,ヒトマ,0
2313,8110001037964,新規,0,2023-11-15,2023-11-15,株式会社スプリット,,株式会社,新潟県,上越市,板倉区戸狩６４番地５,,15,222,9440109,,,,,,,2023-11-15,1,,,,,スプリット,0
2324,8120001259517,新規,0,2023-11-15,2023-11-15,長玉株式会社,,株式会社,大阪府,大阪市住之江区,安立２丁目１０番１４号三坂ビル３０４号室,,27,125,5590003,,,,,,,2023-11-15,1,,,,,ナガタマ,0
2325,8120001259814,新規,0,2023-11-15,2023-11-15,株式会社ＴＨｉ　ＪＡＰＡＮ,,株式会社,大阪府,大阪市生野区,小路東６丁目８番１７号昭和エクセルビュー東大阪１０３－Ｇ１４,,27,116,5440003,,,,,,,2023-11-15,1,,,,,ティーエッチアイジャパン,0
2326,8120001259913,新規,0,2023-11-15,2023-11-15,株式会社グラン,,株式会社,大阪府,大阪市港区,弁天４丁目５－１１－１４０２,,27,107,5520007,,,,,,,2023-11-15,1,,,,,グラン,0
2329,8120003025330,新規,0,2023-11-15,2023-11-15,合同会社マイケイ,,合同会社,大阪府,大阪市北区,天神橋４丁目６－１５ロイヤル天神橋２０８,,27,127,5300041,,,,,,,2023-11-15,1,,,,,マイケイ,0
2339,8120101068520,新規,0,2023-11-15,2023-11-15,株式会社オウセキ工業,,株式会社,大阪府,堺市堺区,香ヶ丘町３丁３番９号,,27,141,5900011,,,,,,,2023-11-15,1,,,,,オウセキコウギョウ,0
2340,8120101068529,新規,0,2023-11-15,2023-11-15,株式会社メディカルテクノロジージャパン,,株式会社,大阪府,大阪狭山市,山本東４９０番地の１（３０３号）,,27,231,5890036,,,,,,,2023-11-15,1,,,,,メディカルテクノロジージャパン,0
2341,8120101068537,新規,0,2023-11-15,2023-11-15,株式会社フラワーホーム,,株式会社,大阪府,羽曳野市,白鳥３丁目１５番１号,,27,222,5830856,,,,,,,2023-11-15,1,,,,,フラワーホーム,0
2345,8120901048358,新規,0,2023-11-15,2023-11-15,Ｆ＆Ｃホーム株式会社,,株式会社,大阪府,吹田市,広芝町４番３４号江坂第一ビル６階３２号室,,27,205,5640052,,,,,,,2023-11-15,1,,,,,エフアンドシーホーム,0
2356,8130003009118,新規,0,2023-11-15,2023-11-15,合同会社Ｔｏｔａｌ　Ｓｙｓｔｅｍ　Ｆａｃｔｏｒｙ,,合同会社,京都府,京田辺市,大住三野４５番地,,26,211,6100343,,,,,,,2023-11-15,1,,,,,トータルシステムファクトリー,0
2361,8140001132325,新規,0,2023-11-15,2023-11-15,松栄産業株式会社,,株式会社,兵庫県,加西市,北条町東高室２９５－２８,,28,220,6752321,,,,,,,2023-11-15,1,,,,,ショウエイサンギョウ,0
2362,8140001132333,新規,0,2023-11-15,2023-11-15,株式会社ＲｅＦｉｎｅ,,株式会社,兵庫県,尼崎市,大島２丁目７番１２号,,28,202,6600076,,,,,,,2023-11-15,1,,,,,リファイン,0
2363,8140001132341,新規,0,2023-11-15,2023-11-15,株式会社ドマーニプラス,,株式会社,兵庫県,三田市,南が丘１丁目１７番８号,,28,219,6691535,,,,,,,2023-11-15,1,,,,,ドマーニプラス,0
2371,8160003003010,新規,0,2023-11-15,2023-11-15,合同会社ルビー,,合同会社,滋賀県,大津市,下阪本２丁目１４番１２－３０１号,,25,201,5200105,,,,,,,2023-11-15,1,,,,,ルビー,0
2373,8170001017886,新規,0,2023-11-15,2023-11-15,株式会社Ｓｈｅｅｎ,,株式会社,和歌山県,有田市,宮原町畑３９５番地４３,,30,204,6490431,,,,,,,2023-11-15,1,,,,,シーン,0
2381,8180001158944,新規,0,2023-11-15,2023-11-15,株式会社ＰＯＣ．,,株式会社,愛知県,名古屋市守山区,新守山１９０７番地３Ｆ,,23,113,4630070,,,,,,,2023-11-15,1,,,,,ピーオーシー,0
2382,8180001158952,新規,0,2023-11-15,2023-11-15,株式会社Ｄ’ｓ,,株式会社,愛知県,一宮市,千秋町加茂字長畑２７番地,,23,203,4910801,,,,,,,2023-11-15,1,,,,,ディーズ,0
2385,8180003025936,新規,0,2023-11-15,2023-11-15,合同会社ｆｉｌ,,合同会社,愛知県,長久手市,砂子３０３番地Ｏｒｆｅｖｒｅ１０１,,23,238,4801112,,,,,,,2023-11-15,1,,,,,フィル,0
2386,8180003025993,新規,0,2023-11-15,2023-11-15,ＰｉｌｅＵｐＤｅｓｉｇｎ合同会社,,合同会社,愛知県,名古屋市緑区,太子３丁目８９番地,,23,114,4580823,,,,,,,2023-11-15,1,,,,,パイルアップデザイン,0
2387,8180005020423,新規,0,2023-11-15,2023-11-15,相続行政書士法人,,その他の設立登記法人,愛知県,一宮市,せんい１丁目３番１号,,23,203,4910873,,,,,,,2023-11-15,1,,,,,ソウゾク,0
2389,8190001030879,新規,0,2023-11-15,2023-11-15,株式会社愛沐商事,,株式会社,三重県,桑名郡木曽岬町,大字三崎３４０番地,,24,303,4980814,,,,,,,2023-11-15,1,,,,,アイムショウジ,0
2390,8190001030887,新規,0,2023-11-15,2023-11-15,株式会社美創ＮＥＸＴ,,株式会社,三重県,津市,万町津１３９番地,,24,201,5140021,,,,,,,2023-11-15,1,,,,,ビソウネクスト,0
2394,8200001041899,新規,0,2023-11-15,2023-11-15,株式会社ヘブンリィ・セブン開発,,株式会社,岐阜県,中津川市,高山２２１０番地,,21,206,5080204,,,,,,,2023-11-15,1,,,,,ヘブンリィセブンカイハツ,0
2396,8200003006157,新規,0,2023-11-15,2023-11-15,Ｋｈａｎ　Ｊａｐａｎ　Ｔｒａｄｉｎｇ合同会社,,合同会社,岐阜県,美濃加茂市,加茂野町今泉１５４７番地２４コーポモナリザ２０３号室,,21,211,5050052,,,,,,,2023-11-15,1,,,,,カーンジャパントレーディング,0
2399,8220001025693,新規,0,2023-11-15,2023-11-15,株式会社三贏,00132644,株式会社,石川県,金沢市,八日市２丁目６０１番地Ｌａｃｈｉｃ・１０３号,,17,201,9218064,,,,,,,2023-11-15,1,,,,,サンエイ,0
2401,8220003003623,新規,0,2023-11-15,2023-11-15,合同会社嘉悠,,合同会社,石川県,金沢市,堀川新町５‐１アリマビル３Ｆ,,17,201,9200849,,,,,,,2023-11-15,1,,,,,ヨシハル,0
2406,8240001062413,新規,0,2023-11-15,2023-11-15,株式会社さくら,,株式会社,広島県,呉市,阿賀中央４丁目５番１６号,,34,202,7370003,,,,,,,2023-11-15,1,,,,,サクラ,0
2410,8240003006418,新規,0,2023-11-15,2023-11-15,合同会社ＬＡＶＩＳＨ,,合同会社,広島県,広島市中区,大手町３丁目３番２７－８０６号,,34,101,7300051,,,,,,,2023-11-15,1,,,,,ラヴィッシュ,0
2420,8290001103690,新規,0,2023-11-15,2023-11-15,株式会社ＧＬＥＥＸｉＡ,,株式会社,福岡県,福岡市東区,松島３丁目５－１３－１０１号,,40,131,8130062,,,,,,,2023-11-15,1,,,,,グリーシア,0
2421,8290001103749,新規,0,2023-11-15,2023-11-15,株式会社唯,,株式会社,福岡県,福岡市南区,弥永４丁目１９番１７号,,40,134,8111323,,,,,,,2023-11-15,1,,,,,ユイ,0
2422,8290001103765,新規,0,2023-11-15,2023-11-15,株式会社リオルリッツ,,株式会社,福岡県,福岡市中央区,大名２丁目６番１１号,,40,133,8100041,,,,,,,2023-11-15,1,,,,,リオルリッツ,0
2429,8290803004541,新規,0,2023-11-15,2023-11-15,合同会社ｎｅｍｏａ,,合同会社,福岡県,北九州市八幡西区,菅原町５番３０号,,40,109,8060027,,,,,,,2023-11-15,1,,,,,ネモア,0
2446,8360001032817,新規,0,2023-11-15,2023-11-15,株式会社ネットベット,,株式会社,沖縄県,うるま市,字江洲６０４番地１５,,47,213,9042244,,,,,,,2023-11-15,1,,,,,ネットベット,0
2447,8360001032825,新規,0,2023-11-15,2023-11-15,株式会社ジャンプ,,株式会社,沖縄県,那覇市,壺屋１丁目１番２１号,,47,201,9020065,,,,,,,2023-11-15,1,,,,,ジャンプ,0
2451,8380001034126,新規,0,2023-11-15,2023-11-15,株式会社ベネス,,株式会社,福島県,いわき市,山田町大津１８,,07,204,9748241,,,,,,,2023-11-15,1,,,,,ベネス,0
2452,8380001034134,新規,0,2023-11-15,2023-11-15,マルヨシ総業株式会社,,株式会社,福島県,郡山市,安積町牛庭２丁目２６５番地の１,,07,203,9630113,,,,,,,2023-11-15,1,,,,,マルヨシソウギョウ,0
2476,9010001240040,新規,0,2023-11-15,2023-11-15,株式会社ＤＭコーポレーション,,株式会社,東京都,中央区,京橋３丁目１番１号東京スクエアガーデン,,13,102,1040031,,,,,,,2023-11-15,1,,,,,ディーエムコーポレーション,0
2477,9010001240073,新規,0,2023-11-15,2023-11-15,古都味株式会社,,株式会社,東京都,中央区,銀座７丁目１０番５号,,13,102,1040061,,,,,,,2023-11-15,1,,,,,コトミ,0
2481,9010003042146,新規,0,2023-11-15,2023-11-15,合同会社ＳＪコーポレーション,,合同会社,東京都,文京区,湯島３丁目３５番９号大竹ビル２Ｆ２０１号,,13,105,1130034,,,,,,,2023-11-15,1,,,,,エスジェイコーポレーション,0
2482,9010003042187,新規,0,2023-11-15,2023-11-15,ＪＰインベストメントグロース合同会社,,合同会社,東京都,千代田区,大手町２丁目３番１号,,13,101,1000004,,,,,,,2023-11-15,1,,,,,ジェイピーインベストメントグロース,0
2483,9010003042204,新規,0,2023-11-15,2023-11-15,ＥＮＣ合同会社,,合同会社,東京都,中央区,八丁堀４丁目２番１０号ＡＯＪ税理士法人内,,13,102,1040032,,,,,,,2023-11-15,1,,,,,イーエヌシー,0
2484,9010003042220,新規,0,2023-11-15,2023-11-15,合同会社ＨＡＲＡＪＵＫＵ　Ｓｔａｒ,,合同会社,東京都,中央区,新川１丁目１７番１８号,,13,102,1040033,,,,,,,2023-11-15,1,,,,,ハラジュクスター,0
2490,9010401178509,新規,0,2023-11-15,2023-11-15,２ＬＢ株式会社,,株式会社,東京都,港区,南青山３丁目１番３６号青山丸竹ビル６Ｆ,,13,103,1070062,,,,,,,2023-11-15,1,,,,,トゥーエルビー,0
2491,9010401178533,新規,0,2023-11-15,2023-11-15,株式会社あかつきＨＲ,,株式会社,東京都,港区,南青山２丁目４番１５号天翔南青山ビル２階Ｓ２１６号室,,13,103,1070062,,,,,,,2023-11-15,1,,,,,アカツキエイチアール,0
2492,9010401178558,新規,0,2023-11-15,2023-11-15,株式会社エルミダ,,株式会社,東京都,港区,六本木７丁目３番１２号六本木インターナショナルビル６Ｆ,,13,103,1060032,,,,,,,2023-11-15,1,,,,,エルミダ,0
2495,9010403031368,新規,0,2023-11-15,2023-11-15,合同会社バテリア札幌,,合同会社,東京都,港区,虎ノ門１丁目２番８号リニューアブル・ジャパン株式会社内,,13,103,1050001,,,,,,,2023-11-15,1,,,,,バテリアサッポロ,0
2505,9010901054201,新規,0,2023-11-15,2023-11-15,株式会社ｕｙｕ,,株式会社,東京都,世田谷区,池尻２丁目３０番２５号,,13,112,1540001,,,,,,,2023-11-15,1,,,,,ウユ,0
2514,9011001157943,新規,0,2023-11-15,2023-11-15,ＪＦＦ　ＡＧＥＮＣＹ株式会社,,株式会社,東京都,渋谷区,神宮前１丁目７番３号百七十五番館本館４０１号室,,13,113,1500001,,,,,,,2023-11-15,1,,,,,ジェイエフエフエージェンシー,0
2515,9011001158264,新規,0,2023-11-15,2023-11-15,ＩＣＯＮ株式会社,,株式会社,東京都,目黒区,下目黒１丁目８番１号目黒アルコタワー７階,,13,110,1530064,,,,,,,2023-11-15,1,,,,,アイコン,0
2516,9011001158272,新規,0,2023-11-15,2023-11-15,株式会社ＳＨＯＷ　Ｋ　ＪＡＰＡＮ,,株式会社,東京都,渋谷区,東３丁目１４番１９号,,13,113,1500011,,,,,,,2023-11-15,1,,,,,ショウケイジャパン,0
2519,9011003017897,新規,0,2023-11-15,2023-11-15,合同会社ＮＭＣ　ｍａｎａｇｅｍｅｎｔ,,合同会社,東京都,渋谷区,神宮前２丁目２－３９－１９０７,,13,113,1500001,,,,,,,2023-11-15,1,,,,,エヌエムシーマネジメント,0
2520,9011003017947,新規,0,2023-11-15,2023-11-15,合同会社ｍｉｍｏｓａ,,合同会社,東京都,渋谷区,神宮前４丁目２４番１号神宮前ＣＯＵＲＴＡ１階,,13,113,1500001,,,,,,,2023-11-15,1,,,,,ミモザ,0
2524,9011101105083,新規,0,2023-11-15,2023-11-15,小蝿テクノロジー株式会社,,株式会社,東京都,新宿区,山吹町１３０－５ソーラ・デ・吉岡２０７号室,,13,104,1620801,,,,,,,2023-11-15,1,,,,,コバエテクノロジー,0
2525,9011101105117,新規,0,2023-11-15,2023-11-15,ＮＥＯＳＴＡＧＥ株式会社,,株式会社,東京都,新宿区,大久保１丁目２番１号,,13,104,1690072,,,,,,,2023-11-15,1,,,,,ネオステージ,0
2526,9011105010858,新規,0,2023-11-15,2023-11-15,一般社団法人医業支援協会,,その他の設立登記法人,東京都,新宿区,新宿２丁目８番１号新宿セブンビル２０５,,13,104,1600022,,,,,,,2023-11-15,1,,,,,イギョウシエンキョウカイ,0
2528,9011301029165,新規,0,2023-11-15,2023-11-15,さくらマネジメント株式会社,,株式会社,東京都,杉並区,下井草３丁目３３番２号,,13,115,1670022,,,,,,,2023-11-15,1,,,,,サクラマネジメント,0
2538,9011601027273,新規,0,2023-11-15,2023-11-15,株式会社ＴＯＹ,,株式会社,東京都,練馬区,春日町５丁目３３番４号,,13,120,1790074,,,,,,,2023-11-15,1,,,,,トイ,0
2539,9011603004130,新規,0,2023-11-15,2023-11-15,合同会社産業心理セブンコンサルタンツ,,合同会社,東京都,練馬区,練馬１丁目２０－８日建練馬ビル２Ｆ,,13,120,1760001,,,,,,,2023-11-15,1,,,,,サンギョウシンリセブンコンサルタンツ,0
2540,9011701026778,新規,0,2023-11-15,2023-11-15,株式会社まるや,,株式会社,東京都,江戸川区,松島１丁目２６番１６号,,13,123,1320031,,,,,,,2023-11-15,1,,,,,マルヤ,0
2542,9011801043343,新規,0,2023-11-15,2023-11-15,田野株式会社,,株式会社,東京都,足立区,西新井２丁目４番６号ＡｎｄＰｌｕｓ西新井ビル,,13,121,1230841,,,,,,,2023-11-15,1,,,,,タノ,0
2544,9011803005936,新規,0,2023-11-15,2023-11-15,合同会社手仕事一家,,合同会社,東京都,葛飾区,西新小岩４丁目１１番１１号,,13,122,1240025,,,,,,,2023-11-15,1,,,,,テシゴトイッカ,0
2546,9012401041217,新規,0,2023-11-15,2023-11-15,宏運株式会社,,株式会社,東京都,小金井市,東町４丁目３１番１１号谷川ビル１Ｆ,,13,210,1840011,,,,,,,2023-11-15,1,,,,,コウウン,0
2548,9012403006275,新規,0,2023-11-15,2023-11-15,合同会社ＢＯＫＵＲＡ,,合同会社,東京都,狛江市,東野川４丁目２６番３－４号,,13,219,2010002,,,,,,,2023-11-15,1,,,,,ボクラ,0
2558,9013301051628,新規,0,2023-11-15,2023-11-15,Ｒ．Ｃ株式会社,,株式会社,東京都,豊島区,池袋２丁目５０番４号プライムアーバン池袋８０９号,,13,116,1710014,,,,,,,2023-11-15,1,,,,,アールシー,0
2564,9020001154470,新規,0,2023-11-15,2023-11-15,株式会社ａ　Ｂｌｅｓｓｉｎｇ,,株式会社,神奈川県,横浜市神奈川区,七島町８９番地１０,,14,102,2210061,,,,,,,2023-11-15,1,,,,,アブレッシング,0
2565,9020001154479,新規,0,2023-11-15,2023-11-15,株式会社Ｌｅｒｏｙ,,株式会社,神奈川県,横浜市港南区,上大岡東１丁目２３番１‐３０６号,,14,111,2330001,,,,,,,2023-11-15,1,,,,,リロイ,0
2566,9020001154487,新規,0,2023-11-15,2023-11-15,株式会社ＳＴＣ,,株式会社,神奈川県,横浜市鶴見区,生麦５丁目１３番３４号,,14,101,2300052,,,,,,,2023-11-15,1,,,,,エスティシィー,0
2567,9020001154504,新規,0,2023-11-15,2023-11-15,株式会社ＧＷ,,株式会社,神奈川県,川崎市麻生区,高石４丁目１７番８号シティハイツ２－１０２号,,14,137,2150003,,,,,,,2023-11-15,1,,,,,ジーダブリュー,0
2568,9020001154512,新規,0,2023-11-15,2023-11-15,株式会社アイブランチ,,株式会社,神奈川県,横浜市都筑区,東方町１３９９番地１,,14,118,2240045,,,,,,,2023-11-15,1,,,,,アイブランチ,0
2570,9020003025001,新規,0,2023-11-15,2023-11-15,合同会社グリーンリーフ,,合同会社,神奈川県,横浜市緑区,北八朔町１１９５番地３,,14,113,2260021,,,,,,,2023-11-15,1,,,,,グリーンリーフ,0
2579,9021001080731,新規,0,2023-11-15,2023-11-15,株式会社鶴巻生花,,株式会社,神奈川県,秦野市,鶴巻南１丁目２番８号,,14,211,2570002,,,,,,,2023-11-15,1,,,,,ツルマキセイカ,0
2580,9021001080748,新規,0,2023-11-15,2023-11-15,株式会社スリーフォー,,株式会社,神奈川県,相模原市南区,上鶴間本町８丁目３５番２３号,,14,153,2520318,,,,,,,2023-11-15,1,,,,,スリーフォー,0
2584,9030001157142,新規,0,2023-11-15,2023-11-15,鴻巣自動車総合整備株式会社,,株式会社,埼玉県,鴻巣市,東１丁目１０番２５号,,11,217,3650039,,,,,,,2023-11-15,1,,,,,コウノスジドウシャソウゴウセイビ,0
2585,9030001157167,新規,0,2023-11-15,2023-11-15,株式会社大貴工業,,株式会社,埼玉県,上尾市,壱丁目東３番地１,,11,219,3620082,,,,,,,2023-11-15,1,,,,,ダイキコウギョウ,0
2586,9030001157175,新規,0,2023-11-15,2023-11-15,日伸コンサルティング株式会社,,株式会社,埼玉県,さいたま市大宮区,浅間町１丁目３９番地５,,11,103,3300842,,,,,,,2023-11-15,1,,,,,ニッシンコンサルティング,0
2597,9040001130932,新規,0,2023-11-15,2023-11-15,欅不動産株式会社,,株式会社,千葉県,松戸市,上矢切９１３番地の１,,12,207,2710094,,,,,,,2023-11-15,1,,,,,ケヤキフドウサン,0
2598,9040001130957,新規,0,2023-11-15,2023-11-15,株式会社ＫＲＥＳＴ,,株式会社,千葉県,鎌ケ谷市,東鎌ケ谷３丁目１７番１１号,,12,224,2730104,,,,,,,2023-11-15,1,,,,,クレスト,0
2604,9040003023746,新規,0,2023-11-15,2023-11-15,合同会社マルプリティ,,合同会社,千葉県,匝瑳市,栢田７９５１番地１７,,12,235,2893184,,,,,,,2023-11-15,1,,,,,マルプリティ,0
2605,9050003007946,新規,0,2023-11-15,2023-11-15,合同会社ＳＨＩＮＫＩ,,合同会社,茨城県,高萩市,大字下君田１４９６番地,,08,214,3180106,,,,,,,2023-11-15,1,,,,,シンキ,0
2625,9100001036966,新規,0,2023-11-15,2023-11-15,株式会社グラスイン,,株式会社,長野県,駒ヶ根市,中沢２４６７番地４,,20,210,3994231,,,,,,,2023-11-15,1,,,,,グラスイン,0
2627,9100003007271,新規,0,2023-11-15,2023-11-15,合同会社ウェルアップ,,合同会社,長野県,長野市,大字南長野妻科１６７－１,,20,201,3800872,,,,,,,2023-11-15,1,,,,,ウェルアップ,0
2630,9110003005191,新規,0,2023-11-15,2023-11-15,合同会社ｈａｐｐｉｎｅｓｓ,,合同会社,新潟県,上越市,藤新田１丁目７‐３ハイツミナミ２０３,,15,222,9430816,,,,,,,2023-11-15,1,,,,,ハピネス,0
2642,9120001259672,新規,0,2023-11-15,2023-11-15,大和車輛テクノス株式会社,,株式会社,大阪府,大阪市中央区,島之内１丁目２１番１２号,,27,128,5420082,,,,,,,2023-11-15,1,,,,,ダイワシャリョウテクノス,0
2643,9120001259714,新規,0,2023-11-15,2023-11-15,株式会社ｇｌｅａｍ,,株式会社,大阪府,大阪市東淀川区,西淡路２丁目１３番７号,,27,114,5330031,,,,,,,2023-11-15,1,,,,,グリーム,0
2644,9120001259739,新規,0,2023-11-15,2023-11-15,株式会社ウル,,株式会社,大阪府,大阪市天王寺区,生玉町１０番２３－１５０３号,,27,109,5430071,,,,,,,2023-11-15,1,,,,,ウル,0
2645,9120001259813,新規,0,2023-11-15,2023-11-15,朗冠株式会社,,株式会社,大阪府,大阪市港区,夕凪１丁目１１番１８号ローレルハイツ４０２,,27,107,5520004,,,,,,,2023-11-15,1,,,,,ロウカン,0
2646,9120001259821,新規,0,2023-11-15,2023-11-15,株式会社士,,株式会社,大阪府,大阪市西成区,山王３丁目１４番４号セレーノ山王１０３号,,27,122,5570001,,,,,,,2023-11-15,1,,,,,サムライ,0
2647,9120001259854,新規,0,2023-11-15,2023-11-15,ＪＳ商事株式会社,,株式会社,大阪府,大阪市中央区,南船場２丁目２番４号７Ｆ,,27,128,5420081,,,,,,,2023-11-15,1,,,,,ジェイエスショウジ,0
2648,9120001259870,新規,0,2023-11-15,2023-11-15,株式会社サンレック,,株式会社,大阪府,大阪市中央区,久太郎町４丁目２－１０－９０３,,27,128,5410056,,,,,,,2023-11-15,1,,,,,サンレック,0
2651,9120003025321,新規,0,2023-11-15,2023-11-15,合同会社３６‐ＧＲＯＵＰ,,合同会社,大阪府,大阪市生野区,新今里５丁目１番１９－３０１号,,27,116,5440001,,,,,,,2023-11-15,1,,,,,サンロクグループ,0
2653,9120005023983,新規,0,2023-11-15,2023-11-15,一般社団法人アトリエオガ．ジャポン,,その他の設立登記法人,大阪府,大阪市中央区,糸屋町１丁目４番１２号２０２号,,27,128,5400022,,,,,,,2023-11-15,1,,,,,アトリエオガジャポン,0
2654,9120005023991,新規,0,2023-11-15,2023-11-15,一般社団法人ソリューション,,その他の設立登記法人,大阪府,大阪市中央区,谷町１丁目３番５号,,27,128,5400012,,,,,,,2023-11-15,1,,,,,ソリューション,0
2657,9120101068528,新規,0,2023-11-15,2023-11-15,株式会社バイクウィーズ川口,,株式会社,大阪府,泉南郡熊取町,大久保東２丁目１１番５号,,27,361,5900406,,,,,,,2023-11-15,1,,,,,バイクウィーズカワグチ,0
2663,9122001037570,新規,0,2023-11-15,2023-11-15,株式会社ＥＮＴＲＡＮＣＥ,,株式会社,大阪府,東大阪市,稲田本町１丁目１３番７号,,27,227,5770007,,,,,,,2023-11-15,1,,,,,エントランス,0
2666,9130001075656,新規,0,2023-11-15,2023-11-15,株式会社大有飲食,,株式会社,京都府,京都市東山区,新橋通大和大路東入二丁目清本町３７９番地１,,26,105,6050000,,,,,,,2023-11-15,1,,,,,ダイユウインショク,0
2667,9130001075697,新規,0,2023-11-15,2023-11-15,株式会社Ａｍａｄｏｃｏｒｏ,,株式会社,京都府,京都市西京区,桂御所町１番地２４パークシティ２３７号,,26,111,6158087,,,,,,,2023-11-15,1,,,,,アマドコロ,0
2668,9130001075722,新規,0,2023-11-15,2023-11-15,株式会社ＶＥＮＺＡＩＴＥＮ　ＭＡＮＡＧＥＭＥＮＴ,,株式会社,京都府,京都市下京区,小稲荷町８５番地８,,26,106,6008208,,,,,,,2023-11-15,1,,,,,ベンザイテンマネジメント,0
2674,9140001132324,新規,0,2023-11-15,2023-11-15,ヤマト園不動産株式会社,,株式会社,兵庫県,川西市,緑台２丁目２番地の１２１,,28,217,6660129,,,,,,,2023-11-15,1,,,,,ヤマトエンフドウサン,0
2675,9140001132332,新規,0,2023-11-15,2023-11-15,株式会社竹園ホールディングス,,株式会社,兵庫県,芦屋市,大原町１０番１号,,28,206,6590092,,,,,,,2023-11-15,1,,,,,タケゾノホールディングス,0
2676,9140001132340,新規,0,2023-11-15,2023-11-15,株式会社ＲｅＣＴ　Ｈｏｍｅｓ,,株式会社,兵庫県,姫路市,飾磨区恵美酒４２３番地５,,28,201,6728057,,,,,,,2023-11-15,1,,,,,レクトホームズ,0
2677,9140001132349,新規,0,2023-11-15,2023-11-15,奈良商事株式会社,,株式会社,兵庫県,神戸市中央区,磯辺通１丁目１番１８号カサベラ国際プラザビル７０７号室,,28,110,6510084,,,,,,,2023-11-15,1,,,,,ナラショウジ,0
2679,9140003019817,新規,0,2023-11-15,2023-11-15,合同会社ＲＤＮ,,合同会社,兵庫県,神戸市中央区,伊藤町１１０－２,,28,110,6500032,,,,,,,2023-11-15,1,,,,,アールディーエヌ,0
2683,9170001017885,新規,0,2023-11-15,2023-11-15,株式会社ＮＥＸＵＳ,,株式会社,和歌山県,和歌山市,善明寺１８６番地１０,,30,201,6408471,,,,,,,2023-11-15,1,,,,,ネクサス,0
2687,9180001158902,新規,0,2023-11-15,2023-11-15,株式会社Ｇ‐ＣＥＮＴＲＡＬ,,株式会社,愛知県,名古屋市天白区,久方２丁目３４番地の２,,23,116,4680034,,,,,,,2023-11-15,1,,,,,ジーセントラル,0
2688,9180001158910,新規,0,2023-11-15,2023-11-15,株式会社スガワラくん,,株式会社,愛知県,名古屋市中村区,名駅南１丁目２４番３０号名古屋三井ビル本館,,23,105,4500003,,,,,,,2023-11-15,1,,,,,スガワラクン,0
2689,9180001158935,新規,0,2023-11-15,2023-11-15,株式会社Ｍ‐ＴＡＣ,,株式会社,愛知県,名古屋市中川区,江松２丁目１００９番地,,23,110,4540954,,,,,,,2023-11-15,1,,,,,エムタック,0
2690,9180001158951,新規,0,2023-11-15,2023-11-15,住吉不動産ＲＥ株式会社,,株式会社,愛知県,名古屋市天白区,中平４丁目２０１番地,,23,116,4680014,,,,,,,2023-11-15,1,,,,,スミヨシフドウサンアールイー,0
2692,9180003026000,新規,0,2023-11-15,2023-11-15,旭日総研合同会社,,合同会社,愛知県,尾張旭市,晴丘町東９８番地,,23,226,4880031,,,,,,,2023-11-15,1,,,,,キョクジツソウケン,0
2694,9180301038036,新規,0,2023-11-15,2023-11-15,株式会社西尾物産,,株式会社,愛知県,西尾市,今川町仲屋敷５１－１,,23,213,4450063,,,,,,,2023-11-15,1,,,,,ニシオブッサン,0
2703,9230001020107,新規,0,2023-11-15,2023-11-15,株式会社俊建築,,株式会社,富山県,射水市,新片町５丁目８番地２,,16,211,9340033,,,,,,,2023-11-15,1,,,,,トシケンチク,0
2713,9290001103764,新規,0,2023-11-15,2023-11-15,シーピー株式会社,,株式会社,福岡県,大野城市,つつじケ丘６丁目２３番１号,,40,219,8160962,,,,,,,2023-11-15,1,,,,,,0
2717,9290003014613,新規,0,2023-11-15,2023-11-15,合同会社Ｊａｐａｎ　Ｌｉｎｋ,,合同会社,福岡県,福岡市中央区,荒戸２丁目４番２３‐７０４号,,40,133,8100062,,,,,,,2023-11-15,1,,,,,ジャパンリンク,0
2721,9290005019197,新規,0,2023-11-15,2023-11-15,ＮＰＯ法人タクティールケア,,その他の設立登記法人,福岡県,筑紫野市,二日市西３丁目６番１号,,40,217,8180071,,,,,,,2023-11-15,1,,,,,タクティールケア,0
2723,9300003002046,新規,0,2023-11-15,2023-11-15,合同会社桃コーポレーション,,合同会社,佐賀県,唐津市,朝日町９６１番地４,,41,202,8470841,,,,,,,2023-11-15,1,,,,,モモコーポレーション,0
2725,9310001018704,新規,0,2023-11-15,2023-11-15,セルフィルムス株式会社,,株式会社,長崎県,長崎市,岡町１番５－４０３号,,42,201,8528115,,,,,,,2023-11-15,1,,,,,セルフィルムス,0
2729,9320001020147,新規,0,2023-11-15,2023-11-15,株式会社Ｏｆｆｉｃｅ　Ｒｅｂｏｒｎ,,株式会社,大分県,杵築市,大字杵築６６５－６７１ロフティ杵築シーサイド１００８号,,44,210,8730001,,,,,,,2023-11-15,1,,,,,オフィスリボーン,0
2731,9320003004230,新規,0,2023-11-15,2023-11-15,合同会社スマイルシップ,,合同会社,大分県,大分市,大字勢家１０９８番地２５０,,44,201,8700100,,,,,,,2023-11-15,1,,,,,スマイルシップ,0
2735,9330001031465,新規,0,2023-11-15,2023-11-15,立多程サービス株式会社,,株式会社,熊本県,合志市,豊岡２０５４番地３６,,43,216,8611115,,,,,,,2023-11-15,1,,,,,リツタテイサービス,0
2739,9350001018659,新規,0,2023-11-15,2023-11-15,大三木材株式会社,,株式会社,宮崎県,都城市,北原町３４号２８番地２Ｆ,,45,202,8850024,,,,,,,2023-11-15,1,,,,,ダイサンモクザイ,0
2742,9350003004483,新規,0,2023-11-15,2023-11-15,合同会社ニューとん,,合同会社,宮崎県,都城市,宮丸町３０９４番地５,,45,202,8850078,,,,,,,2023-11-15,1,,,,,ニュートン,0
2743,9360001032824,新規,0,2023-11-15,2023-11-15,株式会社表無,,株式会社,沖縄県,那覇市,辻２丁目８番１６号,00132651,47,201,9000037,,,,,,,2023-11-15,1,,,,,オモテナシ,0
2744,9360003013483,新規,0,2023-11-15,2023-11-15,合同会社Ａｇｉｌｅ,,合同会社,沖縄県,中頭郡嘉手納町,字水釜３０９番地４宇保アパート２０１号,,47,325,9040204,,,,,,,2023-11-15,1,,,,,アジャイル,0
2746,9370003006379,新規,0,2023-11-15,2023-11-15,合同会社ＵＮＩＴＥ,,合同会社,宮城県,仙台市青葉区,本町１丁目５－２８カーニープレイス仙台駅前通６０３号室,,04,101,9800014,,,,,,,2023-11-15,1,,,,,ユナイト,0
2748,9380001034133,新規,0,2023-11-15,2023-11-15,株式会社Ａ‐ＧＲＯＷＵＰ,,株式会社,福島県,郡山市,朝日１丁目７番３号ユニライフ市川１Ｆ,,07,203,9638024,,,,,,,2023-11-15,1,,,,,エーグローアップ,0
2773,9480003002045,新規,0,2023-11-15,2023-11-15,合同会社アソア,,合同会社,徳島県,徳島市,中昭和町２丁目４０－２・１３０２号,,36,201,7700943,,,,,,,2023-11-15,1,,,,,アソア,0
