sequenceNumber,corporateNumber,process,correct,updateDate,changeDate,name,nameImageId,kind,prefectureName,cityName,streetNumber,addressImageId,prefectureCode,cityCode,postCode,addressOutside,addressOutsideImageId,closeDate,closeCause,successorCorporateNumber,changeCause,assignmentDate,latest,enName,enPrefectureName,enCityName,enAddressOutside,furigana,hihyoji
12,1010005038083,新規,0,2024-03-27,2024-03-27,米里ロジ一般社団法人,,その他の設立登記法人,東京都,中央区,銀座１丁目６番１１号アースタックス税理士法人内,,13,102,1040061,,,,,,,2024-03-27,1,,,,,ヨネサトロジ,0
13,1010005038091,新規,0,2024-03-27,2024-03-27,一般社団法人ＳＯＵＤＥＮＫＡ,,その他の設立登記法人,東京都,中央区,銀座１丁目２２番１１号,,13,102,1040061,,,,,,,2024-03-27,1,,,,,ソウデンカ,0
15,1010101016059,新規,0,2024-03-27,2024-03-27,株式会社東京國際安旅,,株式会社,東京都,八王子市,泉町１２５０－５２,,13,201,1930814,,,,,,,2024-03-27,1,,,,,トウキョウコクサイヤスタビ,0
26,1010403032217,新規,0,2024-03-27,2024-03-27,トレードショーマニア合同会社,,合同会社,東京都,港区,海岸１丁目２－３汐留芝離宮ビルディング２１階,,13,103,1050022,,,,,,,2024-03-27,1,,,,,トレードショーマニア,0
27,1010403032233,新規,0,2024-03-27,2024-03-27,ＤＮ合同会社,,合同会社,東京都,港区,六本木３丁目１０番１０号,,13,103,1060032,,,,,,,2024-03-27,1,,,,,ディーエヌ,0
28,1010403032258,新規,0,2024-03-27,2024-03-27,合同会社ｍｅｕｓ,,合同会社,東京都,港区,高輪４丁目２３番６号ハイホーム高輪７０８,,13,103,1080074,,,,,,,2024-03-27,1,,,,,ミューズ,0
31,1010601064895,新規,0,2024-03-27,2024-03-27,宝瓏株式会社,,株式会社,東京都,墨田区,吾妻橋３丁目１番１０－６０１号,,13,107,1300001,,,,,,,2024-03-27,1,,,,,ホウリュウ,0
32,1010601064904,新規,0,2024-03-27,2024-03-27,ＭＥＧＡ　ＶＡＮＴＡＧＥ　ＪＡＰＡＮ株式会社,,株式会社,東京都,墨田区,立川３丁目１番１５号,,13,107,1300023,,,,,,,2024-03-27,1,,,,,メガバンテージジャパン,0
34,1010803004880,新規,0,2024-03-27,2024-03-27,合同会社Ｒｉｇｈｔ　Ｓｉｇｈｔ,,合同会社,東京都,大田区,田園調布１丁目１７番１７号,,13,111,1450071,,,,,,,2024-03-27,1,,,,,ライトサイト,0
43,1011001160541,新規,0,2024-03-27,2024-03-27,Ｗホールディングス株式会社,,株式会社,東京都,渋谷区,渋谷２丁目１９－１５宮益坂ビルディング６０９,,13,113,1500002,,,,,,,2024-03-27,1,,,,,ダブルホールディングス,0
44,1011001160855,新規,0,2024-03-27,2024-03-27,株式会社ＣＰＮ,,株式会社,東京都,渋谷区,神宮前２丁目１８番１９号,,13,113,1500001,,,,,,,2024-03-27,1,,,,,シーピーエヌ,0
45,1011001160888,新規,0,2024-03-27,2024-03-27,ＫＡＧＵＹＡ株式会社,,株式会社,東京都,渋谷区,道玄坂１丁目１０番８号渋谷道玄坂東急ビル２Ｆ－Ｃ,,13,113,1500043,,,,,,,2024-03-27,1,,,,,カグヤ,0
47,1011005010437,新規,0,2024-03-27,2024-03-27,税理士法人Ｓｙｎｃｓ,,その他の設立登記法人,東京都,渋谷区,千駄ヶ谷５丁目１６番１１号Ｌ’ｔｉａＯＦＦＩＣＥＹＯＹＯＧＩ３階,,13,113,1510051,,,,,,,2024-03-27,1,,,,,シンクス,0
51,1011101106709,新規,0,2024-03-27,2024-03-27,株式会社ファルクＮＡＭ,,株式会社,東京都,新宿区,新宿１丁目３０番１６－２３０３号ルネ新宿御苑タワー,,13,104,1600022,,,,,,,2024-03-27,1,,,,,ファルクエヌエーエム,0
52,1011101106725,新規,0,2024-03-27,2024-03-27,會津建工株式会社,,株式会社,東京都,新宿区,新宿７丁目２６番５９号ニューイースタンハイツ３０２,,13,104,1600022,,,,,,,2024-03-27,1,,,,,アイヅケンコウ,0
53,1011103014273,新規,0,2024-03-27,2024-03-27,合同会社Ｍｏｏｎｌｉｇｈｔ　Ｍｕｓｉｃ,,合同会社,東京都,新宿区,西新宿３丁目３番１３号西新宿水間ビル６階,,13,104,1600023,,,,,,,2024-03-27,1,,,,,ムーンライトミュージック,0
62,1011605002577,新規,0,2024-03-27,2024-03-27,一般社団法人旅費規程研究会,,その他の設立登記法人,東京都,練馬区,豊玉中４丁目１１番８号,,13,120,1760013,,,,,,,2024-03-27,1,,,,,リョヒキテイケンキュウカイ,0
64,1011701027156,新規,0,2024-03-27,2024-03-27,ＨｉｎｔｓｉｇｈｔＴｅｃｈ株式会社,,株式会社,東京都,江戸川区,松島３丁目１４番７－３０９号若林ビル,,13,123,1320031,,,,,,,2024-03-27,1,,,,,ヒントサイトテック,0
71,1012301013819,新規,0,2024-03-27,2024-03-27,株式会社スカウティアン,,株式会社,東京都,町田市,原町田４丁目１１番１４号コロンブスビル３階,,13,209,1940013,,,,,,,2024-03-27,1,,,,,スカウティアン,0
72,1012301013843,新規,0,2024-03-27,2024-03-27,天晟株式会社,,株式会社,東京都,町田市,原町田４丁目２０－３－３０３室,,13,209,1940013,,,,,,,2024-03-27,1,,,,,テンセイ,0
74,1012403006480,新規,0,2024-03-27,2024-03-27,合同会社ＢＲＩＤＧＥ,,合同会社,東京都,小金井市,東町４丁目３０番３２号,,13,210,1840011,,,,,,,2024-03-27,1,,,,,ブリッジ,0
77,1012803003342,新規,0,2024-03-27,2024-03-27,ＮＭウェルフェア合同会社,,合同会社,東京都,国分寺市,泉町３丁目３７－２,,13,214,1850024,,,,,,,2024-03-27,1,,,,,エヌエムウェルフェア,0
84,1020001156409,新規,0,2024-03-27,2024-03-27,株式会社ヤップディー,,株式会社,神奈川県,横浜市西区,北幸２丁目１０－４８むつみビル３Ｆ,,14,103,2200004,,,,,,,2024-03-27,1,,,,,ヤップディー,0
85,1020001156441,新規,0,2024-03-27,2024-03-27,株式会社スタイルプランニング,,株式会社,神奈川県,横浜市神奈川区,片倉５丁目１番１９号,,14,102,2210865,,,,,,,2024-03-27,1,,,,,スタイルプランニング,0
86,1020001156458,新規,0,2024-03-27,2024-03-27,アルファ・ペストコントロール株式会社,,株式会社,神奈川県,川崎市高津区,下作延６丁目１４番１５号,,14,134,2130033,,,,,,,2024-03-27,1,,,,,アルファペストコントロール,0
93,1021001081811,新規,0,2024-03-27,2024-03-27,株式会社ＭＥＩＨＯ,,株式会社,神奈川県,海老名市,柏ケ谷７１０番地の７,,14,215,2430402,,,,,,,2024-03-27,1,,,,,メイホウ,0
97,1021003014315,新規,0,2024-03-27,2024-03-27,合同会社ＥＶＯＬＶＥ　ＡＳＳＥＴ　ＣＯＮＳＵＬＴＩＮＧ,,合同会社,神奈川県,海老名市,東柏ケ谷１丁目２３番１４－１０４号,,14,215,2430401,,,,,,,2024-03-27,1,,,,,エボルブアセットコンサルティング,0
102,1030001159443,新規,0,2024-03-27,2024-03-27,小管鋼業株式会社,,株式会社,埼玉県,草加市,青柳６丁目４３番２５号,,11,221,3400002,,,,,,,2024-03-27,1,,,,,コスゲコウギョウ,0
105,1030003023820,新規,0,2024-03-27,2024-03-27,合同会社クインティリス,,合同会社,埼玉県,ふじみ野市,亀久保１丁目１番１６号１０７,,11,245,3560051,,,,,,,2024-03-27,1,,,,,クインティリス,0
109,1040001132837,新規,0,2024-03-27,2024-03-27,株式会社マクロソリューション,,株式会社,千葉県,習志野市,藤崎５丁目７番３号,,12,216,2750017,,,,,,,2024-03-27,1,,,,,マクロソリューション,0
123,1080103003016,新規,0,2024-03-27,2024-03-27,合同会社ＺＬＳ,,合同会社,静岡県,熱海市,下多賀７１番地,,22,205,4130102,,,,,,,2024-03-27,1,,,,,ゼラソ,0
133,1120001263145,新規,0,2024-03-27,2024-03-27,丹羽プロダクション株式会社,,株式会社,大阪府,大阪市生野区,鶴橋１丁目９番４０－２０１号,,27,116,5440031,,,,,,,2024-03-27,1,,,,,ニワプロダクション,0
134,1120001263442,新規,0,2024-03-27,2024-03-27,株式会社映像制作集団ディレクターズ,,株式会社,大阪府,大阪市東淀川区,淡路１丁目８番２４号,,27,114,5330032,,,,,,,2024-03-27,1,,,,,エイゾウセイサクシュウダンディレクターズ,0
135,1120001263450,新規,0,2024-03-27,2024-03-27,有森株式会社,,株式会社,大阪府,大阪市城東区,野江３丁目２７－７野江１番館４０８,,27,118,5360006,,,,,,,2024-03-27,1,,,,,アリセン,0
136,1120001263525,新規,0,2024-03-27,2024-03-27,福島興業ホールディングス株式会社,,株式会社,大阪府,大阪市福島区,海老江５丁目３番１１号,,27,103,5530001,,,,,,,2024-03-27,1,,,,,フクシマコウギョウホールディングス,0
137,1120001263574,新規,0,2024-03-27,2024-03-27,強盛株式会社,,株式会社,大阪府,大阪市中央区,東平２丁目２－７メゾンルミエール２０１号,,27,128,5420063,,,,,,,2024-03-27,1,,,,,キョウセイ,0
138,1120001263590,新規,0,2024-03-27,2024-03-27,株式会社青木商事,,株式会社,大阪府,大阪市此花区,伝法３丁目１－１２－１０３,,27,104,5540002,,,,,,,2024-03-27,1,,,,,アオキショウジ,0
141,1120003026236,新規,0,2024-03-27,2024-03-27,ＶＩＥＴ　ＨＩＥＵ合同会社,,合同会社,大阪府,大阪市西成区,花園北２丁目１５番３１号,,27,122,5570016,,,,,,,2024-03-27,1,,,,,ヴェットヒエウ,0
145,1120101069293,新規,0,2024-03-27,2024-03-27,株式会社凪浜,,株式会社,大阪府,高石市,高師浜２丁目４番２３号,,27,225,5920004,,,,,,,2024-03-27,1,,,,,ナギハマ,0
146,1120101069302,新規,0,2024-03-27,2024-03-27,株式会社ユーアドバンス,,株式会社,大阪府,堺市堺区,北花田口町３丁２番２９号,,27,141,5900074,,,,,,,2024-03-27,1,,,,,ユーアドバンス,0
151,1122001037933,新規,0,2024-03-27,2024-03-27,出山映像文化株式会社,,株式会社,大阪府,八尾市,東本町１丁目１番１０号,,27,212,5810004,,,,,,,2024-03-27,1,,,,,デヤマエイゾウブンカ,0
152,1122001037941,新規,0,2024-03-27,2024-03-27,株式会社新日本商事,,株式会社,大阪府,八尾市,久宝寺３丁目１５番２３号,,27,212,5810072,,,,,,,2024-03-27,1,,,,,シンニホンショウジ,0
167,1140001133833,新規,0,2024-03-27,2024-03-27,株式会社ＩＳＧＨＤ,,株式会社,兵庫県,神戸市垂水区,平磯２丁目５番１３号,,28,108,6550892,,,,,,,2024-03-27,1,,,,,アイエスジーホールディングス,0
176,1160003003149,新規,0,2024-03-27,2024-03-27,合同会社アイメディカル,,合同会社,滋賀県,草津市,野路町４６５番地１１,,25,206,5250055,,,,,,,2024-03-27,1,,,,,アイメディカル,0
178,1170001018065,新規,0,2024-03-27,2024-03-27,株式会社Ｙｏｓｈｉ,,株式会社,和歌山県,岩出市,金池４２２番地の１２,,30,209,6496256,,,,,,,2024-03-27,1,,,,,ヨシ,0
183,1180001160675,新規,0,2024-03-27,2024-03-27,ＰＡＮＤＲＥ株式会社,,株式会社,愛知県,名古屋市天白区,福池２丁目２０１番地,,23,116,4680049,,,,,,,2024-03-27,1,,,,,パンドリー,0
187,1190003004623,新規,0,2024-03-27,2024-03-27,合同会社玉電サービス,,合同会社,三重県,四日市市,垂坂町１０４８番地１ミレニアムヒル垂坂３‐５,,24,202,5108037,,,,,,,2024-03-27,1,,,,,タマデンサービス,0
188,1200001042318,新規,0,2024-03-27,2024-03-27,株式会社大杉土木,,株式会社,岐阜県,美濃加茂市,牧野１７３４番地１,,21,211,5050016,,,,,,,2024-03-27,1,,,,,オオスギドボク,0
191,1220003003704,新規,0,2024-03-27,2024-03-27,合同会社サボテン,,合同会社,石川県,金沢市,小坂町中１１番地１,,17,201,9200811,,,,,,,2024-03-27,1,,,,,サボテン,0
198,1240003006597,新規,0,2024-03-27,2024-03-27,合同会社オフィス大畠,,合同会社,広島県,福山市,松永町４丁目１６番５６－８０６号,,34,207,7290104,,,,,,,2024-03-27,1,,,,,オフィスオオハタ,0
213,1290001105215,新規,0,2024-03-27,2024-03-27,株式会社クレディブル,,株式会社,福岡県,春日市,千歳町２丁目７９番地,,40,218,8160805,,,,,,,2024-03-27,1,,,,,クレディブル,0
214,1290003015107,新規,0,2024-03-27,2024-03-27,Ｄｉｇｇｅｒ　Ｌｉｆｅ合同会社,,合同会社,福岡県,朝倉市,甘木３４５－１,,40,228,8380068,,,,,,,2024-03-27,1,,,,,ディガーライフ,0
215,1290003015115,新規,0,2024-03-27,2024-03-27,合同会社ＨＥサポート,,合同会社,福岡県,宗像市,自由ヶ丘１０９０番地６５,,40,220,8114163,,,,,,,2024-03-27,1,,,,,エイチイーサポート,0
225,1320001020377,新規,0,2024-03-27,2024-03-27,傑易豊株式会社,,株式会社,大分県,由布市,湯布院町川上２９８９番地１,,44,213,8795102,,,,,,,2024-03-27,1,,,,,ケツイホウ,0
251,1380001034388,新規,0,2024-03-27,2024-03-27,株式会社平電,,株式会社,福島県,石川郡平田村,大字蓬田新田字新田前１９０番地,00134211,07,503,9638201,,,,,,,2024-03-27,1,,,,,ヒラデン,0
255,1410003003908,新規,0,2024-03-27,2024-03-27,合同会社ヤマト,,合同会社,秋田県,大仙市,協和小種字上台７０番地１,,05,212,0192441,,,,,,,2024-03-27,1,,,,,ヤマト,0
261,1430001091408,新規,0,2024-03-27,2024-03-27,八六水産株式会社,,株式会社,北海道,札幌市手稲区,富丘三条５丁目１番３３－６０４号,,01,109,0060013,,,,,,,2024-03-27,1,,,,,ハチロクスイサン,0
264,1430003016115,新規,0,2024-03-27,2024-03-27,合同会社華和,,合同会社,北海道,苫小牧市,澄川町３丁目１０番２１号,,01,213,0591271,,,,,,,2024-03-27,1,,,,,カワ,0
266,1480003002110,新規,0,2024-03-27,2024-03-27,ＡＯＩＡＣＴ合同会社,,合同会社,徳島県,徳島市,八万町上福万１６５,,36,201,7708073,,,,,,,2024-03-27,1,,,,,,0
281,2010005038090,新規,0,2024-03-27,2024-03-27,一般社団法人松飛台プロジェクト,,その他の設立登記法人,東京都,千代田区,内神田１丁目３番７号４０１あすな会計事務所内,,13,101,1010047,,,,,,,2024-03-27,1,,,,,マツヒダイプロジェクト,0
282,2010101016058,新規,0,2024-03-27,2024-03-27,株式会社ＧＲＯＵＮＤ,,株式会社,東京都,八王子市,泉町１３２９番地３４,,13,201,1930814,,,,,,,2024-03-27,1,,,,,グラウンド,0
287,2010401181345,新規,0,2024-03-27,2024-03-27,株式会社ＵＤＡ,,株式会社,東京都,港区,南青山３丁目１番３６号青山丸竹ビル６Ｆ,,13,103,1070062,,,,,,,2024-03-27,1,,,,,ウダ,0
288,2010403032265,新規,0,2024-03-27,2024-03-27,合同会社立見戦略研究所,,合同会社,東京都,港区,高輪４丁目２４番５５－１２０１号,,13,103,1080074,,,,,,,2024-03-27,1,,,,,タツミセンリャクケンキュウジョ,0
294,2010603010731,新規,0,2024-03-27,2024-03-27,ＭｏｒｅＢｌｕｅ合同会社,,合同会社,東京都,江東区,東陽１丁目３番１２号,,13,108,1350016,,,,,,,2024-03-27,1,,,,,モアブルー,0
295,2010605004302,新規,0,2024-03-27,2024-03-27,医療法人社団利心会,,その他の設立登記法人,東京都,江東区,南砂２丁目３３番３号リビオメゾン南砂町１階,,13,108,1360076,,,,,,,2024-03-27,1,,,,,リシンカイ,0
301,2010801034879,新規,0,2024-03-27,2024-03-27,株式会社ＣＣ東京大田,,株式会社,東京都,大田区,上池台３丁目４６番１号,,13,111,1450064,,,,,,,2024-03-27,1,,,,,シーシートウキョウオオタ,0
302,2010803004888,新規,0,2024-03-27,2024-03-27,合同会社ヒード・パートナーズ,,合同会社,東京都,大田区,田園調布１丁目６２－２,,13,111,1450071,,,,,,,2024-03-27,1,,,,,ヒードパートナーズ,0
307,2010903008905,新規,0,2024-03-27,2024-03-27,参華三釼合同会社,,合同会社,東京都,世田谷区,太子堂１丁目１２番２７コンフォートテラス１００５号,,13,112,1540004,,,,,,,2024-03-27,1,,,,,サンカミツルギ,0
312,2011001160854,新規,0,2024-03-27,2024-03-27,株式会社ＹＡＫＡＴＡＢＵＮＥ,,株式会社,東京都,渋谷区,神宮前２丁目１８番１９号,,13,113,1500001,,,,,,,2024-03-27,1,,,,,ヤカタブネ,0
313,2011001160862,新規,0,2024-03-27,2024-03-27,株式会社Ｈａｓｅｌｕ,,株式会社,東京都,目黒区,八雲２丁目１番１８号,,13,110,1520023,,,,,,,2024-03-27,1,,,,,ハセル,0
314,2011001160904,新規,0,2024-03-27,2024-03-27,ＣＯＬＯＲＳ株式会社,,株式会社,東京都,渋谷区,恵比寿南１丁目９番４号,,13,113,1500022,,,,,,,2024-03-27,1,,,,,カラーズ,0
315,2011001160912,新規,0,2024-03-27,2024-03-27,株式会社Ａｃｃｅｌａ,,株式会社,東京都,渋谷区,道玄坂１丁目１０番８号渋谷道玄坂東急ビル２Ｆ－Ｃ,,13,113,1500043,,,,,,,2024-03-27,1,,,,,アクセラ,0
319,2011003018794,新規,0,2024-03-27,2024-03-27,合同会社Ｈｔｉｍ,,合同会社,東京都,渋谷区,神泉町１５番１６号,,13,113,1500045,,,,,,,2024-03-27,1,,,,,エッチム,0
339,2012701018169,新規,0,2024-03-27,2024-03-27,株式会社Ａ,,株式会社,東京都,西東京市,柳沢１丁目４番２８号,,13,229,2020022,,,,,,,2024-03-27,1,,,,,アー,0
344,2013101009378,新規,0,2024-03-27,2024-03-27,株式会社リュミエール,,株式会社,東京都,福生市,大字福生８８６番地１グランツ福生６０１号室,,13,218,1970011,,,,,,,2024-03-27,1,,,,,,0
357,2020001156432,新規,0,2024-03-27,2024-03-27,株式会社ゴールドスター,,株式会社,神奈川県,川崎市幸区,塚越３丁目３８０－１６、１階Ａ号室,,14,132,2120024,,,,,,,2024-03-27,1,,,,,ゴールドスター,0
358,2020001156440,新規,0,2024-03-27,2024-03-27,パイクプレイスコーポレーション株式会社,,株式会社,神奈川県,横浜市神奈川区,三ッ沢上町２番１８号ジ・アバンスビル４０２号室,,14,102,2210000,,,,,,,2024-03-27,1,,,,,パイクプレイスコーポレーション,0
359,2020001156449,新規,0,2024-03-27,2024-03-27,減災計画株式会社,,株式会社,神奈川県,横浜市西区,北幸２丁目１０番４８号,,14,103,2200004,,,,,,,2024-03-27,1,,,,,,0
361,2020003025825,新規,0,2024-03-27,2024-03-27,Ｍ’ｓシステムテクノロジー合同会社,,合同会社,神奈川県,横浜市旭区,中白根４丁目１－２－５０５,,14,112,2410004,,,,,,,2024-03-27,1,,,,,エムズシステムテクノロジー,0
373,2030001159442,新規,0,2024-03-27,2024-03-27,縁ちゃぶ株式会社,,株式会社,埼玉県,川越市,三光町１－３,,11,201,3500067,,,,,,,2024-03-27,1,,,,,エンチャブ,0
374,2030001159475,新規,0,2024-03-27,2024-03-27,株式会社ＡＲＣＨ　ＰＲＯＤＵＣＴＩＯＮＳ,,株式会社,埼玉県,川越市,大塚新町２３番地３,,11,201,3501178,,,,,,,2024-03-27,1,,,,,アーチプロダクションズ,0
379,2030003023910,新規,0,2024-03-27,2024-03-27,合同会社太田ＢＳファーム,,合同会社,埼玉県,桶川市,上日出谷南２丁目１５番地の２,,11,231,3630020,,,,,,,2024-03-27,1,,,,,オオタビーエスファーム,0
387,2040001132836,新規,0,2024-03-27,2024-03-27,株式会社エーシーラボ,,株式会社,千葉県,市川市,南行徳２丁目９番３８号,,12,203,2720138,,,,,,,2024-03-27,1,,,,,エーシーラボ,0
388,2040001132844,新規,0,2024-03-27,2024-03-27,Ｇａｍｅ　ｍｅａｔ株式会社,,株式会社,千葉県,浦安市,今川２丁目８番４５－１号,,12,227,2790022,,,,,,,2024-03-27,1,,,,,ゲームミート,0
391,2040003024635,新規,0,2024-03-27,2024-03-27,ミカヅキ合同会社,,合同会社,千葉県,市川市,北方１丁目８番１３号,,12,203,2720815,,,,,,,2024-03-27,1,,,,,ミカヅキ,0
395,2050001054518,新規,0,2024-03-27,2024-03-27,株式会社善心,,株式会社,茨城県,東茨城郡城里町,大字那珂西２６３５番地の３,,08,310,3114302,,,,,,,2024-03-27,1,,,,,ゼンシン,0
399,2050003008232,新規,0,2024-03-27,2024-03-27,Ｓａｂｉｒ　Ｔｒａｄｉｎｇ合同会社,,合同会社,茨城県,結城市,大字結城１３４３８番地,,08,207,3070001,,,,,,,2024-03-27,1,,,,,サビールトレーディング,0
404,2060003004981,新規,0,2024-03-27,2024-03-27,ＡＰＥＸ　ＡＵＴＯ　ＱＵＡＬＩＴＹ合同会社,,合同会社,栃木県,日光市,木和田島１９１４番地７１,,09,206,3212345,,,,,,,2024-03-27,1,,,,,アペックスオットクオリティ,0
407,2080001026200,新規,0,2024-03-27,2024-03-27,株式会社ＨＡＭＩＴＡ,,株式会社,静岡県,静岡市駿河区,池田１２９４番地の１,,22,102,4228005,,,,,,,2024-03-27,1,,,,,ハミタ,0
419,2100001037310,新規,0,2024-03-27,2024-03-27,株式会社サーチャレ,,株式会社,長野県,長野市,松代町牧島７９２－１,,20,201,3811212,,,,,,,2024-03-27,1,,,,,サーチャレ,0
422,2100003007419,新規,0,2024-03-27,2024-03-27,合同会社ラグジュアリー,,合同会社,長野県,須坂市,大字須坂４４７番地フレグランス高橋Ａ棟２０２,,20,207,3820000,,,,,,,2024-03-27,1,,,,,ラグジュアリー,0
426,2120001263103,新規,0,2024-03-27,2024-03-27,前途無憂株式会社,,株式会社,大阪府,大阪市西区,江戸堀１丁目１４番１－５０７号,,27,106,5500002,,,,,,,2024-03-27,1,,,,,ゼントムユウ,0
427,2120001263268,新規,0,2024-03-27,2024-03-27,アデプトプランニング株式会社,,株式会社,大阪府,大阪市中央区,内本町２丁目３番１号ストークＮＥ６階,,27,128,5400026,,,,,,,2024-03-27,1,,,,,アデプトプランニング,0
428,2120001263383,新規,0,2024-03-27,2024-03-27,阪神機動警備株式会社,,株式会社,大阪府,大阪市北区,黒崎町８番２号,,27,127,5300023,,,,,,,2024-03-27,1,,,,,ハンシンキドウケイビ,0
429,2120001263433,新規,0,2024-03-27,2024-03-27,株式会社Ｍｉｋｕｒｕ,,株式会社,大阪府,大阪市北区,梅田１丁目１－３大阪駅前第３ビル２９階１－１－１号室,,27,127,5300001,,,,,,,2024-03-27,1,,,,,ミクル,0
430,2120001263458,新規,0,2024-03-27,2024-03-27,通越商事株式会社,,株式会社,大阪府,大阪市西区,京町堀１丁目１１番７号京旺ビル４階Ｂ号室,,27,106,5500003,,,,,,,2024-03-27,1,,,,,ツウエツショウジ,0
431,2120001263482,新規,0,2024-03-27,2024-03-27,ＶＩＳＯＫ株式会社,,株式会社,大阪府,大阪市天王寺区,悲田院町８番２６号,,27,109,5430055,,,,,,,2024-03-27,1,,,,,ヴィソック,0
432,2120001263499,新規,0,2024-03-27,2024-03-27,なでしこ株式会社,,株式会社,大阪府,大阪市中央区,久太郎町２丁目５番２８号,,27,128,5410056,,,,,,,2024-03-27,1,,,,,ナデシコ,0
433,2120001263508,新規,0,2024-03-27,2024-03-27,三宝商事株式会社,,株式会社,大阪府,大阪市旭区,中宮３丁目８番２２号１Ｆ,,27,117,5350003,,,,,,,2024-03-27,1,,,,,サンポウショウジ,0
434,2120001263524,新規,0,2024-03-27,2024-03-27,株式会社ｒｕｐｏ‐ｍｅ,,株式会社,大阪府,大阪市中央区,南本町４丁目５－７東亜ビル５Ｆ,,27,128,5410054,,,,,,,2024-03-27,1,,,,,ルポミー,0
435,2120001263598,新規,0,2024-03-27,2024-03-27,株式会社ｓｋｙ　ｌａｎｄ,,株式会社,大阪府,大阪市都島区,東野田町３丁目１２番１３号,,27,102,5340024,,,,,,,2024-03-27,1,,,,,スカイランド,0
441,2122001037932,新規,0,2024-03-27,2024-03-27,株式会社ｈｉｇｈ　ｒｅａｐ,,株式会社,大阪府,八尾市,黒谷４丁目６番地の２５,,27,212,5810873,,,,,,,2024-03-27,1,,,,,ハイリープ,0
444,2130001076644,新規,0,2024-03-27,2024-03-27,株式会社リアラスタ開発,,株式会社,京都府,京都市下京区,京極町４９７ＫｙｏｔｏｓａｍｕｒａｉｓｏｈｏＥ,,26,106,6008035,,,,,,,2024-03-27,1,,,,,リアラスタカイハツ,0
458,2140001133592,新規,0,2024-03-27,2024-03-27,株式会社ミックウェアオペレーション,,株式会社,兵庫県,神戸市中央区,浪花町５９番地,,28,110,6500035,,,,,,,2024-03-27,1,,,,,ミックウェアオペレーション,0
459,2140001133758,新規,0,2024-03-27,2024-03-27,株式会社さくらの森訪問ステーション,,株式会社,兵庫県,神戸市兵庫区,大開通８丁目１番２１－５０１号,,28,105,6520803,,,,,,,2024-03-27,1,,,,,サクラノモリホウモンステーション,0
460,2140001133865,新規,0,2024-03-27,2024-03-27,株式会社Ｗｏｒｌｄ　Ｃｏｎｔｒｉｂｕｔｉｏｎ,,株式会社,兵庫県,神戸市中央区,中山手通２丁目２４番１－１０７号,,28,110,6500004,,,,,,,2024-03-27,1,,,,,ワールドコントリビューション,0
463,2140003020343,新規,0,2024-03-27,2024-03-27,合同会社金時郎,,合同会社,兵庫県,尼崎市,栗山町２丁目１６番２１号,,28,202,6610013,,,,,,,2024-03-27,1,,,,,キンジロウ,0
465,2160003003148,新規,0,2024-03-27,2024-03-27,合同会社湖東開発設計,,合同会社,滋賀県,愛知郡愛荘町,愛知川１３１１番地４,,25,425,5291331,,,,,,,2024-03-27,1,,,,,コトウカイハツセッケイ,0
467,2170001018064,新規,0,2024-03-27,2024-03-27,阪井飲料株式会社,,株式会社,和歌山県,橋本市,高野口町小田５３０番地,,30,203,6497204,,,,,,,2024-03-27,1,,,,,サカイインリョウ,0
473,2180001160732,新規,0,2024-03-27,2024-03-27,ＬＩＮＫ　ｄｅｓｉｇｎ株式会社,,株式会社,愛知県,名古屋市千種区,仲田２丁目１６番１４号,,23,101,4640074,,,,,,,2024-03-27,1,,,,,リンクデザイン,0
484,2180301038455,新規,0,2024-03-27,2024-03-27,株式会社ＮＩＮＥ,,株式会社,愛知県,豊田市,花園町小泉１番地,,23,211,4730924,,,,,,,2024-03-27,1,,,,,ナイン,0
486,2190001031222,新規,0,2024-03-27,2024-03-27,株式会社ＭＴＳ,,株式会社,三重県,伊賀市,畑村４３５番地,,24,216,5181408,,,,,,,2024-03-27,1,,,,,エムティーエス,0
487,2200001042309,新規,0,2024-03-27,2024-03-27,株式会社エフ,,株式会社,岐阜県,岐阜市,下土居２丁目７番３０号,,21,201,5020858,,,,,,,2024-03-27,1,,,,,エフ,0
488,2200001042317,新規,0,2024-03-27,2024-03-27,東泰商事株式会社,,株式会社,岐阜県,関市,下有知帯刀田１１８１番地１,,21,205,5013217,,,,,,,2024-03-27,1,,,,,トウタイショウジ,0
490,2220001025889,新規,0,2024-03-27,2024-03-27,株式会社ＩＴＯ　ｐｌｕｓ,,株式会社,石川県,能美市,山口町ホ９番１,,17,211,9290126,,,,,,,2024-03-27,1,,,,,アイティーオープラス,0
493,2240001062757,新規,0,2024-03-27,2024-03-27,株式会社ＬＩＧＨＴプロジェクト,,株式会社,広島県,福山市,新涯町２丁目１４番２８号,,34,207,7210955,,,,,,,2024-03-27,1,,,,,ライトプロジェクト,0
495,2240003006596,新規,0,2024-03-27,2024-03-27,合同会社ＷＷＴ,,合同会社,広島県,東広島市,西条中央７丁目２５番５２－１１０４号,,34,212,7390025,,,,,,,2024-03-27,1,,,,,ダブリューダブリューティ,0
496,2250001020581,新規,0,2024-03-27,2024-03-27,株式会社ＥＤＡテクノ,,株式会社,山口県,山口市,桜畠３丁目３番３６号,,35,203,7530021,,,,,,,2024-03-27,1,,,,,エダテクノ,0
499,2260001038887,新規,0,2024-03-27,2024-03-27,株式会社ケーアイウェルディング,,株式会社,岡山県,岡山市北区,大供２丁目６番２１号大供コーポ４０６号室,,33,101,7000913,,,,,,,2024-03-27,1,,,,,ケーアイウェルディング,0
502,2290001105255,新規,0,2024-03-27,2024-03-27,秋田株式会社,,株式会社,福岡県,那珂川市,松原７番１０－５０１号,,40,231,8111215,,,,,,,2024-03-27,1,,,,,アキタ,0
503,2290003015114,新規,0,2024-03-27,2024-03-27,合同会社Ｓｗｅｅｔ　ｌｕｖ,,合同会社,福岡県,福岡市博多区,吉塚１丁目２９番１６－４０２号パレステージ,,40,132,8120041,,,,,,,2024-03-27,1,,,,,スウェートラブ,0
504,2290003015122,新規,0,2024-03-27,2024-03-27,合同会社ニコネクスト,,合同会社,福岡県,久留米市,日吉町１６－４－２０７,,40,203,8300017,,,,,,,2024-03-27,1,,,,,ニコネクスト,0
505,2290003015139,新規,0,2024-03-27,2024-03-27,ＫＵＲＡ企画合同会社,,合同会社,福岡県,朝倉市,馬田１７４３番地２,,40,228,8380058,,,,,,,2024-03-27,1,,,,,クラキカク,0
520,2320001020376,新規,0,2024-03-27,2024-03-27,達利亜株式会社,,株式会社,大分県,由布市,湯布院町川上１２２５番地２,,44,213,8795102,,,,,,,2024-03-27,1,,,,,ダリア,0
523,2330001031901,新規,0,2024-03-27,2024-03-27,株式会社Ｂｅａｒ　ｂａｓｅ,,株式会社,熊本県,熊本市東区,若葉５丁目１１番２０号,,43,102,8612103,,,,,,,2024-03-27,1,,,,,ベアーベース,0
524,2340001026396,新規,0,2024-03-27,2024-03-27,株式会社ＨａｍａＴｒａｎｓｐｏｒｔ,,株式会社,鹿児島県,鹿児島市,牟礼岡１丁目４５番地３,,46,201,8911306,,,,,,,2024-03-27,1,,,,,ハマトランスポート,0
528,2350003004597,新規,0,2024-03-27,2024-03-27,合同会社晴れ,,合同会社,宮崎県,都城市,蓑原町１８７４番地１１,,45,202,8850095,,,,,,,2024-03-27,1,,,,,ハレ,0
537,2360003013837,新規,0,2024-03-27,2024-03-27,きゃろっぷ合同会社,,合同会社,沖縄県,島尻郡南風原町,字兼城６６５番地６かねしろ荘２０１,,47,350,9011111,,,,,,,2024-03-27,1,,,,,キャロップ,0
539,2370001051111,新規,0,2024-03-27,2024-03-27,株式会社ふぁみーる,,株式会社,宮城県,仙台市宮城野区,東宮城野４番３－６０１号,,04,102,9830042,,,,,,,2024-03-27,1,,,,,ファミール,0
552,2430001091407,新規,0,2024-03-27,2024-03-27,３Ｎ株式会社,,株式会社,北海道,余市郡仁木町,西町６丁目２３番地２,,01,407,0482406,,,,,,,2024-03-27,1,,,,,スリーエヌ,0
553,2430003016122,新規,0,2024-03-27,2024-03-27,合同会社ＭＡＲＵＫＵＮ,,合同会社,北海道,札幌市西区,二十四軒四条３丁目３番１２－３１０号,,01,107,0630804,,,,,,,2024-03-27,1,,,,,マルクン,0
554,2430005014941,新規,0,2024-03-27,2024-03-27,農事組合法人ファームささき,,その他の設立登記法人,北海道,札幌市北区,北十二条西１丁目２－２４シャネルハイツ３０３,,01,102,0010012,,,,,,,2024-03-27,1,,,,,ファームササキ,0
565,3010001243346,新規,0,2024-03-27,2024-03-27,株式会社イングリッシュローズ,,株式会社,東京都,文京区,向丘１丁目４番６号,,13,105,1130023,,,,,,,2024-03-27,1,,,,,イングリッシュローズ,0
566,3010001243412,新規,0,2024-03-27,2024-03-27,株式会社バンエア,,株式会社,東京都,中央区,日本橋室町１丁目２－６日本橋大栄ビル７階,,13,102,1030022,,,,,,,2024-03-27,1,,,,,バンエア,0
567,3010001243437,新規,0,2024-03-27,2024-03-27,株式会社ＡＮＯＴＨＥＲ　ＳＫＹ,,株式会社,東京都,中央区,八重洲２丁目２番１号東京ミッドタウン八重洲八重洲セントラルタワー,,13,102,1040028,,,,,,,2024-03-27,1,,,,,アナザースカイ,0
568,3010001243453,新規,0,2024-03-27,2024-03-27,ローカル・エッジ株式会社,,株式会社,東京都,千代田区,神田須田町１丁目１４番１号,,13,101,1010041,,,,,,,2024-03-27,1,,,,,ローカルエッジ,0
586,3010401181344,新規,0,2024-03-27,2024-03-27,株式会社Ｐｏｍｉｇｏ,,株式会社,東京都,港区,海岸２丁目１番２７号,,13,103,1050022,,,,,,,2024-03-27,1,,,,,ポミーゴ,0
598,3010601064836,新規,0,2024-03-27,2024-03-27,株式会社ＳＫＩＫＡＴＴＥ,,株式会社,東京都,墨田区,亀沢４丁目１９‐１６‐７０１,,13,107,1300014,,,,,,,2024-03-27,1,,,,,スキカッテ,0
599,3010601064902,新規,0,2024-03-27,2024-03-27,一諾株式会社,,株式会社,東京都,江東区,大島８丁目３８番２０号,,13,108,1360072,,,,,,,2024-03-27,1,,,,,イチダク,0
605,3010901054958,新規,0,2024-03-27,2024-03-27,株式会社ＳＷＥＥＴ　Ｃｈｅｃｋ,,株式会社,東京都,世田谷区,等々力７丁目２３番９号,,13,112,1580082,,,,,,,2024-03-27,1,,,,,スウィートチェック,0
606,3010901054966,新規,0,2024-03-27,2024-03-27,株式会社ナカメルオフィス,,株式会社,東京都,世田谷区,太子堂１丁目３番３６－１１１号,,13,112,1540004,,,,,,,2024-03-27,1,,,,,ナカメルオフィス,0
619,3011001160952,新規,0,2024-03-27,2024-03-27,株式会社サピエンス,,株式会社,東京都,渋谷区,渋谷２丁目１９－１５宮益坂ビルディング６０９,,13,113,1500002,,,,,,,2024-03-27,1,,,,,サピエンス,0
623,3011005010435,新規,0,2024-03-27,2024-03-27,一般社団法人Ｕｒｂａｎ　Ｆａｒｍｉｎｇ＆Ｂｉｏｄｉｖｅｒｓｉｔｙ　Ｊａｐａｎ,,その他の設立登記法人,東京都,目黒区,碑文谷３丁目１６番２２号Ｔｒｉｆｏｌｉａ－５０１,,13,110,1520003,,,,,,,2024-03-27,1,,,,,アーバンファーミングアンドバイオダイバーシティジャパン,0
626,3011101106723,新規,0,2024-03-27,2024-03-27,ＣＡＰＴＡＩＮ株式会社,,株式会社,東京都,新宿区,百人町１丁目２２－７グリーンハイツ千加松４０１,,13,104,1690073,,,,,,,2024-03-27,1,,,,,キャプテン,0
628,3011401025953,新規,0,2024-03-27,2024-03-27,ＩＮＦＩＮＩＴＣＲＡＦＴ　ＧＬＯＢＡＬ　ＴＲＡＤＩＮＧ株式会社,,株式会社,東京都,板橋区,中台１丁目４３番９号,,13,119,1740064,,,,,,,2024-03-27,1,,,,,インフィニットクラフトグローバルトレーディング,0
630,3011501030457,新規,0,2024-03-27,2024-03-27,日晃エレック株式会社,,株式会社,東京都,荒川区,東尾久１丁目３１番１０号,,13,118,1160012,,,,,,,2024-03-27,1,,,,,ニッコウエレック,0
631,3011703003789,新規,0,2024-03-27,2024-03-27,合同会社ｍＯｗ,,合同会社,東京都,江戸川区,船堀３丁目５番１－３０５号,,13,123,1340091,,,,,,,2024-03-27,1,,,,,モウ,0
632,3011801043984,新規,0,2024-03-27,2024-03-27,Ｎｏ　Ｏｎｅ株式会社,,株式会社,東京都,足立区,西綾瀬２丁目１８番１０－３０７号,,13,121,1200014,,,,,,,2024-03-27,1,,,,,ノーワン,0
636,3012403006479,新規,0,2024-03-27,2024-03-27,ＭＡＡＡＳ合同会社,,合同会社,東京都,府中市,宮西町５丁目６番地の２アローランドマンション２０３,,13,206,1830022,,,,,,,2024-03-27,1,,,,,マーズ,0
638,3013301052276,新規,0,2024-03-27,2024-03-27,株式会社嶋不動産事務所,,株式会社,東京都,豊島区,南池袋２丁目８番５号ライオンズマンション南池袋６０７号室,,13,116,1710022,,,,,,,2024-03-27,1,,,,,シマフドウサンジムショ,0
647,3020003025816,新規,0,2024-03-27,2024-03-27,合同会社ｔｉｅｒｕｐ,,合同会社,神奈川県,川崎市中原区,木月４丁目３１－８リンコー日吉ビル２０１号室,,14,133,2110025,,,,,,,2024-03-27,1,,,,,ティアアップ,0
650,3021001081685,新規,0,2024-03-27,2024-03-27,ハッコウホールディングス株式会社,,株式会社,神奈川県,三浦郡葉山町,上山口２１７８－２,,14,301,2400115,,,,,,,2024-03-27,1,,,,,ハッコウホールディングス,0
652,3021003014313,新規,0,2024-03-27,2024-03-27,合同会社Ｓｙｍｐｈｏｎｉａ,,合同会社,神奈川県,平塚市,八重咲町２５番２丸山ビル３Ｆ－２,,14,203,2540811,,,,,,,2024-03-27,1,,,,,シンフォニア,0
659,3030001159474,新規,0,2024-03-27,2024-03-27,おもてなし・ジャパン株式会社,,株式会社,埼玉県,北足立郡伊奈町,寿２丁目２６９番地旭ハイツ１０３号,,11,301,3620807,,,,,,,2024-03-27,1,,,,,オモテナシジャパン,0
674,3040001132868,新規,0,2024-03-27,2024-03-27,株式会社Ｍａｓｔｅｒ　ｏｆ　Ｌｉｆｅ,,株式会社,千葉県,浦安市,日の出４丁目２番５－２４４号プラウド新浦安マリナテラス,,12,227,2790013,,,,,,,2024-03-27,1,,,,,マスターオブライフ,0
680,3040003024584,新規,0,2024-03-27,2024-03-27,ＣＯＭＥ　ＴＯＧＥＴＨＥＲ合同会社,,合同会社,千葉県,柏市,若柴２２６番地４４、中央１４１街区１、ＫＯＩＬ、ＴＥＲＲＡＣＥ１０７,,12,217,2770871,,,,,,,2024-03-27,1,,,,,カムトゥゲザー,0
681,3040003024626,新規,0,2024-03-27,2024-03-27,合同会社ＲＷ,,合同会社,千葉県,千葉市中央区,富士見２丁目２３番９号千葉中央プリマビル５階,,12,101,2600015,,,,,,,2024-03-27,1,,,,,アールダブル,0
682,3040003024642,新規,0,2024-03-27,2024-03-27,合同会社証建設,,合同会社,千葉県,市原市,瀬又６７６番地１０９桜ヴィレッジＣ２０１,,12,219,2900151,,,,,,,2024-03-27,1,,,,,アカシケンセツ,0
687,3050001054509,新規,0,2024-03-27,2024-03-27,株式会社ＯＭＩＳ　ＧＲＯＵＰ,,株式会社,茨城県,つくば市,菅間２２９番地１,,08,220,3001246,,,,,,,2024-03-27,1,,,,,オミスグループ,0
690,3080001026208,新規,0,2024-03-27,2024-03-27,スカイパーク株式会社,,株式会社,静岡県,静岡市駿河区,小鹿８３０番地,,22,102,4228021,,,,,,,2024-03-27,1,,,,,スカイパーク,0
696,3080105006411,新規,0,2024-03-27,2024-03-27,一般社団法人リゾートマンション活性化協会,,その他の設立登記法人,静岡県,賀茂郡東伊豆町,白田１４５８－５,,22,301,4130304,,,,,,,2024-03-27,1,,,,,リゾートマンションカッセイカキョウカイ,0
698,3080401027078,新規,0,2024-03-27,2024-03-27,株式会社ウィルワン,,株式会社,静岡県,浜松市中央区,葵西４丁目１番２８号,,22,138,4338111,,,,,,,2024-03-27,1,,,,,ウィルワン,0
718,3120001263077,新規,0,2024-03-27,2024-03-27,Ｈａｍｚａ　Ｔｒａｄｉｎｇ株式会社,,株式会社,大阪府,大阪市平野区,西脇１丁目１３番４－１１０３号,,27,126,5470035,,,,,,,2024-03-27,1,,,,,ハムザトレーディング,0
719,3120001263481,新規,0,2024-03-27,2024-03-27,ＳＣＴＥＣＨ株式会社,,株式会社,大阪府,大阪市中央区,中寺２丁目４番２２号５階,,27,128,5420065,,,,,,,2024-03-27,1,,,,,エスシーテック,0
720,3120001263548,新規,0,2024-03-27,2024-03-27,株式会社Ｔｏｄｏｋｅｒｕ,,株式会社,大阪府,大阪市北区,梅田１丁目２番２号大阪駅前第２ビル１２－１２,,27,127,5300001,,,,,,,2024-03-27,1,,,,,トドケル,0
721,3120001263580,新規,0,2024-03-27,2024-03-27,株式会社Ｌａｂｏｒｉｓ,,株式会社,大阪府,大阪市中央区,久太郎町４丁目１番３号大阪センタービル６Ｆ－２８８,,27,128,5410056,,,,,,,2024-03-27,1,,,,,ラボリス,0
725,3120003026218,新規,0,2024-03-27,2024-03-27,合同会社ＲＩＳＥ,,合同会社,大阪府,枚方市,招提元町３丁目１９番１３号,,27,210,5731133,,,,,,,2024-03-27,1,,,,,ライズ,0
726,3120003026226,新規,0,2024-03-27,2024-03-27,チームラボボタニカルガーデン大阪合同会社,,合同会社,大阪府,大阪市東住吉区,長居公園１番２３号,,27,121,5460034,,,,,,,2024-03-27,1,,,,,チームラボボタニカルガーデンオオサカ,0
728,3120005024211,新規,0,2024-03-27,2024-03-27,一般社団法人ＩＫＩＧＡＩプラス,,その他の設立登記法人,大阪府,枚方市,星丘２丁目２１番５４－３号,,27,210,5730013,,,,,,,2024-03-27,1,,,,,イキガイプラス,0
732,3120101069300,新規,0,2024-03-27,2024-03-27,株式会社ｓｅａｓｏｎ,,株式会社,大阪府,泉南郡田尻町,嘉祥寺８６７番地１,,27,362,5980091,,,,,,,2024-03-27,1,,,,,シーズン,0
733,3120101069309,新規,0,2024-03-27,2024-03-27,株式会社ＨｏｕＳｔｙｌｅ,,株式会社,大阪府,和泉市,寺門町１丁目１３番１４－２０１号,,27,219,5940064,,,,,,,2024-03-27,1,,,,,ハウスタイル,0
736,3120901048940,新規,0,2024-03-27,2024-03-27,株式会社Ｌｅ　Ｌｉｅｎ,,株式会社,大阪府,茨木市,沢良宜西１丁目３番３１２号,,27,211,5670868,,,,,,,2024-03-27,1,,,,,ルリアン,0
737,3120901048957,新規,0,2024-03-27,2024-03-27,株式会社Ｓａｇｅｓｓｅ,,株式会社,大阪府,池田市,畑４丁目７番１８号,,27,204,5630021,,,,,,,2024-03-27,1,,,,,サジェス,0
738,3120901048965,新規,0,2024-03-27,2024-03-27,三和メカニカルホールディング株式会社,,株式会社,大阪府,豊中市,利倉２丁目１８番５号,,27,203,5610845,,,,,,,2024-03-27,1,,,,,サンワメカニカルホールディング,0
743,3130001076668,新規,0,2024-03-27,2024-03-27,東坡株式会社,,株式会社,京都府,京都市中京区,壬生東淵田町６－１－２０７,,26,104,6048853,,,,,,,2024-03-27,1,,,,,トバ,0
751,3140001133591,新規,0,2024-03-27,2024-03-27,株式会社ミックウェアモビリティ,,株式会社,兵庫県,神戸市中央区,浪花町５９番地,,28,110,6500035,,,,,,,2024-03-27,1,,,,,ミックウェアモビリティ,0
752,3140001133831,新規,0,2024-03-27,2024-03-27,株式会社Ｇｒｏｗ,,株式会社,兵庫県,神戸市東灘区,甲南町４丁目１６番１１号金沢コーポ６０２号,,28,101,6580084,,,,,,,2024-03-27,1,,,,,グロー,0
753,3140003020350,新規,0,2024-03-27,2024-03-27,ＭＥＤＩ　ＰＲＡＮＡ合同会社,,合同会社,兵庫県,芦屋市,東山町７－７－１０９号,,28,206,6590091,,,,,,,2024-03-27,1,,,,,メディプラーナ,0
755,3160001025779,新規,0,2024-03-27,2024-03-27,株式会社あけとみ,,株式会社,滋賀県,守山市,木浜町１６７０－３,,25,207,5240104,,,,,,,2024-03-27,1,,,,,アケトミ,0
762,3180001160748,新規,0,2024-03-27,2024-03-27,株式会社ミュエリー,,株式会社,愛知県,春日井市,穴橋町１４６０番３,,23,206,4860853,,,,,,,2024-03-27,1,,,,,ミュエリー,0
763,3180001160756,新規,0,2024-03-27,2024-03-27,アクロス設計株式会社,,株式会社,愛知県,名古屋市中村区,日比津町２丁目４番８号,,23,105,4530061,,,,,,,2024-03-27,1,,,,,アクロスセッケイ,0
765,3180003026542,新規,0,2024-03-27,2024-03-27,合同会社Ｔｈｅ　Ｆｉｆｉｔａ’ｓ,,合同会社,愛知県,名古屋市名東区,極楽３丁目１１８番地,,23,115,4650053,,,,,,,2024-03-27,1,,,,,ザフィフィタズ,0
769,3180301038454,新規,0,2024-03-27,2024-03-27,Ａｌｐｈａ株式会社,,株式会社,愛知県,豊橋市,東細谷町字牛田３１番地の３５５,,23,201,4413112,,,,,,,2024-03-27,1,,,,,アルファ,0
771,3180303006054,新規,0,2024-03-27,2024-03-27,合同会社東柏,,合同会社,愛知県,新城市,石田字東金国５４番地,,23,221,4411342,,,,,,,2024-03-27,1,,,,,トウバイ,0
779,3240001063003,新規,0,2024-03-27,2024-03-27,株式会社ＫＹＯＷＡ,,株式会社,広島県,広島市中区,十日市町１丁目３番２７－１９０１号,,34,101,7300805,,,,,,,2024-03-27,1,,,,,キョウワ,0
782,3280003001824,新規,0,2024-03-27,2024-03-27,合同会社ＨＥＤＧＥ　ＨＯＧＳ,,合同会社,島根県,松江市,上乃木９丁目１６番３０号,,32,201,6900015,,,,,,,2024-03-27,1,,,,,ヘッジホッグス,0
787,3290001105122,新規,0,2024-03-27,2024-03-27,株式会社ｎｉｕ,,株式会社,福岡県,那珂川市,片縄５丁目１９６番地,,40,231,8111201,,,,,,,2024-03-27,1,,,,,ニウ,0
788,3290001105221,新規,0,2024-03-27,2024-03-27,株式会社Ｆｒｅｅ　Ｓｔｙｌｅ,,株式会社,福岡県,久留米市,東合川１丁目９－５７－２号,,40,203,8390809,,,,,,,2024-03-27,1,,,,,フリースタイル,0
793,3300001013661,新規,0,2024-03-27,2024-03-27,暁ホールディングス株式会社,,株式会社,佐賀県,多久市,多久町２２０１番地１,,41,204,8460031,,,,,,,2024-03-27,1,,,,,アカツキホールディングス,0
802,3330001031900,新規,0,2024-03-27,2024-03-27,株式会社ＣＡＭＩＮＯ,,株式会社,熊本県,合志市,幾久富１６５６番地４９２,,43,216,8611112,,,,,,,2024-03-27,1,,,,,,0
805,3330005010776,新規,0,2024-03-27,2024-03-27,一般社団法人Ａｎｃｈｏｒ,,その他の設立登記法人,熊本県,熊本市中央区,水前寺公園７番４３－４０７号,,43,101,8620956,,,,,,,2024-03-27,1,,,,,,0
811,3360003013844,新規,0,2024-03-27,2024-03-27,合同会社ＱＲＥＥＴ,,合同会社,沖縄県,那覇市,古波蔵３丁目２２番１６号４階,,47,201,9000024,,,,,,,2024-03-27,1,,,,,クリート,0
814,3370001051110,新規,0,2024-03-27,2024-03-27,株式会社クラフィット,,株式会社,宮城県,大崎市,古川字上古川屋敷５番地１レントハウス上古川２号棟,,04,215,9896223,,,,,,,2024-03-27,1,,,,,クラフィット,0
815,3370003006541,新規,0,2024-03-27,2024-03-27,ここｂａｓｅ合同会社,,合同会社,宮城県,宮城郡利府町,葉山１丁目１１番地２,,04,406,9810105,,,,,,,2024-03-27,1,,,,,ココベース,0
816,3370005010756,新規,0,2024-03-27,2024-03-27,国際行政書士法人オフィスフォーユー,,その他の設立登記法人,宮城県,仙台市青葉区,桜ケ丘６丁目５番１号,,04,101,9810961,,,,,,,2024-03-27,1,,,,,コクサイオフィスフォーユー,0
818,3380001034394,新規,0,2024-03-27,2024-03-27,株式会社ＳＨＩＰＳ,,株式会社,福島県,郡山市,七ツ池町１４番１７号,,07,203,9630000,,,,,,,2024-03-27,1,,,,,シップス,0
826,3430001091414,新規,0,2024-03-27,2024-03-27,株式会社アオホク,,株式会社,北海道,江別市,いずみ野９番地の１１,,01,217,0670034,,,,,,,2024-03-27,1,,,,,アオホク,0
830,3430005014940,新規,0,2024-03-27,2024-03-27,農事組合法人佐々木産業,,その他の設立登記法人,北海道,札幌市北区,北十二条西１丁目２－２４シャネルハイツ３０３,,01,102,0010012,,,,,,,2024-03-27,1,,,,,ササキサンギョウ,0
834,3480003002109,新規,0,2024-03-27,2024-03-27,合同会社スカイ,,合同会社,徳島県,徳島市,大道１丁目５９番地Ｐ′ｓビル４階,,36,201,7700923,,,,,,,2024-03-27,1,,,,,スカイ,0
860,4010401181302,新規,0,2024-03-27,2024-03-27,株式会社潤,,株式会社,東京都,港区,浜松町２丁目７番１７－５０２号,,13,103,1050013,,,,,,,2024-03-27,1,,,,,ジュン,0
861,4010401181351,新規,0,2024-03-27,2024-03-27,ウエルテックブレン株式会社,,株式会社,東京都,港区,北青山１丁目３番１号アールキューブ青山３階,,13,103,1070061,,,,,,,2024-03-27,1,,,,,ウエルテックブレン,0
862,4010401181384,新規,0,2024-03-27,2024-03-27,ＺｅａｍｉＣｙｂｅｒＳｅｃｕｒｉｔｙ株式会社,,株式会社,東京都,港区,南青山３丁目１番３６号青山丸竹ビル６Ｆ,,13,103,1070062,,,,,,,2024-03-27,1,,,,,ゼアミサイバーセキュリティ,0
868,4010501052007,新規,0,2024-03-27,2024-03-27,ＬＩＶＥ　ＪＡＰＡＮ株式会社,,株式会社,東京都,台東区,元浅草３丁目２０番１号,,13,106,1110041,,,,,,,2024-03-27,1,,,,,ライブジャパン,0
869,4010601064901,新規,0,2024-03-27,2024-03-27,ＴＯ　Ｇｒｏｕｐ株式会社,,株式会社,東京都,墨田区,立花３丁目２８番３号,,13,107,1310043,,,,,,,2024-03-27,1,,,,,ティーオーグループ,0
877,4011001160893,新規,0,2024-03-27,2024-03-27,株式会社ｎａｔｕｒａｌ　Ｎｏｔｉｓ,,株式会社,東京都,渋谷区,代々木２丁目１９番７号ＴＷＩＮＺＡ代々木４０１,,13,113,1510053,,,,,,,2024-03-27,1,,,,,ナチュラルノーティス,0
878,4011001160910,新規,0,2024-03-27,2024-03-27,ＥＤＯ株式会社,,株式会社,東京都,渋谷区,渋谷４丁目１番２３号,,13,113,1500002,,,,,,,2024-03-27,1,,,,,エド,0
879,4011003018792,新規,0,2024-03-27,2024-03-27,ウアラウブ合同会社,,合同会社,東京都,目黒区,目黒４丁目１４番３８号,,13,110,1530063,,,,,,,2024-03-27,1,,,,,ウアラウブ,0
880,4011005010434,新規,0,2024-03-27,2024-03-27,一般社団法人デスフェス,,その他の設立登記法人,東京都,渋谷区,南平台町４番８号南平台アジアマンション５０８号室,,13,113,1500036,,,,,,,2024-03-27,1,,,,,デスフェス,0
882,4011101106722,新規,0,2024-03-27,2024-03-27,株式会社４Ｕ,,株式会社,東京都,新宿区,西新宿３丁目３－１３西新宿水間ビル６Ｆ,,13,104,1600023,,,,,,,2024-03-27,1,,,,,フォーユー,0
888,4011801043983,新規,0,2024-03-27,2024-03-27,株式会社ミューズ,,株式会社,東京都,葛飾区,東堀切２丁目２０－１４．１階,,13,122,1240004,,,,,,,2024-03-27,1,,,,,ミューズ,0
896,4013301052259,新規,0,2024-03-27,2024-03-27,リッシュ・パートナーズ株式会社,,株式会社,東京都,豊島区,池袋２丁目２６番８号,,13,116,1710014,,,,,,,2024-03-27,1,,,,,リッシュパートナーズ,0
899,4020001156414,新規,0,2024-03-27,2024-03-27,株式会社アニウェル,,株式会社,神奈川県,横浜市神奈川区,青木町６番地２０－１１０３号,,14,102,2210057,,,,,,,2024-03-27,1,,,,,アニウェル,0
900,4020001156422,新規,0,2024-03-27,2024-03-27,株式会社ＳＵＧＡＲＬ,,株式会社,神奈川県,横浜市港北区,日吉６丁目３番３０－６０３号,,14,109,2230061,,,,,,,2024-03-27,1,,,,,シュガール,0
901,4020001156439,新規,0,2024-03-27,2024-03-27,株式会社横濱建設工業,,株式会社,神奈川県,横浜市戸塚区,俣野町７４１番地,,14,110,2450066,,,,,,,2024-03-27,1,,,,,ヨコハマケンセツコウギョウ,0
907,4020003025781,新規,0,2024-03-27,2024-03-27,合同会社志賀建築,,合同会社,神奈川県,横浜市保土ケ谷区,上菅田町１１１４番地８０,,14,106,2400051,,,,,,,2024-03-27,1,,,,,シガケンチク,0
916,4021003014295,新規,0,2024-03-27,2024-03-27,合同会社ＪＩＫＯ,,合同会社,神奈川県,南足柄市,関本５３１番地,,14,217,2500105,,,,,,,2024-03-27,1,,,,,ジーコ,0
920,4030001159424,新規,0,2024-03-27,2024-03-27,ＡＩＺＥＮ　ＨＯＭＥＳ株式会社,,株式会社,埼玉県,川口市,芝新町４－８ＵＲＢＡＮ－ＦＯＲＵＭ蕨５Ｆ・Ｃ－３５,,11,203,3330851,,,,,,,2024-03-27,1,,,,,アイゼンホームズ,0
921,4030001159432,新規,0,2024-03-27,2024-03-27,株式会社インステップ,,株式会社,埼玉県,さいたま市南区,文蔵５丁目２３－３・１階,,11,108,3360025,,,,,,,2024-03-27,1,,,,,インステップ,0
922,4030001159440,新規,0,2024-03-27,2024-03-27,Ｔｈｅ　Ａｓｉａｎ‐Ｗｉｓｈ　Ｃｏ．株式会社,,株式会社,埼玉県,志木市,本町４丁目７番２１号,,11,228,3530004,,,,,,,2024-03-27,1,,,,,アジアンウイッシュ,0
923,4030001159449,新規,0,2024-03-27,2024-03-27,株式会社ＦＧｒａｎｚ,,株式会社,埼玉県,川越市,大字今福１００９番地３,,11,201,3501151,,,,,,,2024-03-27,1,,,,,エフグランツ,0
924,4030001159465,新規,0,2024-03-27,2024-03-27,株式会社誉,,株式会社,埼玉県,戸田市,大字新曽１６５６番地,,11,224,3350021,,,,,,,2024-03-27,1,,,,,ホマレ,0
930,4030003023891,新規,0,2024-03-27,2024-03-27,合同会社ヒポポ,,合同会社,埼玉県,和光市,白子１丁目２４番３３号,,11,229,3510101,,,,,,,2024-03-27,1,,,,,ヒポポ,0
931,4030003023909,新規,0,2024-03-27,2024-03-27,ルラシアス合同会社,,合同会社,埼玉県,狭山市,広瀬２丁目４番３号,,11,215,3501319,,,,,,,2024-03-27,1,,,,,ルラシアス,0
937,4040001132875,新規,0,2024-03-27,2024-03-27,株式会社みち,,株式会社,千葉県,佐倉市,中志津３丁目２６番１９号,,12,212,2850843,,,,,,,2024-03-27,1,,,,,ミチ,0
943,4040003024534,新規,0,2024-03-27,2024-03-27,合同会社ＭＡｔｏＭＡ,,合同会社,千葉県,佐倉市,王子台３丁目１２番地３０,,12,212,2850837,,,,,,,2024-03-27,1,,,,,マトマ,0
944,4040003024641,新規,0,2024-03-27,2024-03-27,合同会社ワンウエイ,,合同会社,千葉県,市川市,南八幡３丁目２０－１６－４０５,,12,203,2720023,,,,,,,2024-03-27,1,,,,,ワンウエイ,0
958,4080001026207,新規,0,2024-03-27,2024-03-27,株式会社Ａｌｌ　Ｏｎｅ　Ｎｏｌｌａ,,株式会社,静岡県,島田市,東町１０番地の５,,22,209,4270011,,,,,,,2024-03-27,1,,,,,オールワンノラ,0
962,4080105006410,新規,0,2024-03-27,2024-03-27,一般社団法人ｍａｔａ‐ｎｅ,,その他の設立登記法人,静岡県,伊豆市,八幡１０４１番地の２,,22,222,4102505,,,,,,,2024-03-27,1,,,,,マタネ,0
969,4100003007474,新規,0,2024-03-27,2024-03-27,合同会社Ｓｐｉｃｅ　Ｐｌｕｓ,,合同会社,長野県,北佐久郡軽井沢町,大字長倉２３５０－１８４,,20,321,3890111,,,,,,,2024-03-27,1,,,,,スパイスプラス,0
990,4120001263448,新規,0,2024-03-27,2024-03-27,ユーテック株式会社,,株式会社,大阪府,大阪市西淀川区,佃５丁目１２－１－５０４,,27,113,5550001,,,,,,,2024-03-27,1,,,,,ユーテック,0
991,4120001263464,新規,0,2024-03-27,2024-03-27,明祺株式会社,,株式会社,大阪府,大阪市東成区,中本５丁目２２番１１－３０１号,,27,115,5370022,,,,,,,2024-03-27,1,,,,,メイキ,0
992,4120001263480,新規,0,2024-03-27,2024-03-27,株式会社スマイル,,株式会社,大阪府,大阪市中央区,南本町３丁目３番１７号,,27,128,5410054,,,,,,,2024-03-27,1,,,,,スマイル,0
993,4120001263506,新規,0,2024-03-27,2024-03-27,株式会社ＪＡＭＳ,,株式会社,大阪府,寝屋川市,成田南町１３番１５号,,27,215,5720003,,,,,,,2024-03-27,1,,,,,ジャムズ,0
994,4120001263514,新規,0,2024-03-27,2024-03-27,大開株式会社,,株式会社,大阪府,大阪市北区,東天満２丁目９番４号千代田ビル東館９階,,27,127,5300044,,,,,,,2024-03-27,1,,,,,ダイカイ,0
995,4120001263571,新規,0,2024-03-27,2024-03-27,株式会社スポンサーズブースト,,株式会社,大阪府,大阪市西区,新町１丁目５－７四ツ橋ビルディング２階,,27,106,5500013,,,,,,,2024-03-27,1,,,,,スポンサーズブースト,0
996,4120001263638,新規,0,2024-03-27,2024-03-27,天盛株式会社,,株式会社,大阪府,大阪市北区,天満２丁目１－１２天満橋ＳＥビル４Ｆ,,27,127,5300043,,,,,,,2024-03-27,1,,,,,テンセイ,0
997,4120101069308,新規,0,2024-03-27,2024-03-27,株式会社人想,,株式会社,大阪府,松原市,天美南２丁目２４０－２８,,27,217,5800033,,,,,,,2024-03-27,1,,,,,トモ,0
999,4120901048956,新規,0,2024-03-27,2024-03-27,株式会社Ｂｕｌｌｗｏｒｔ,,株式会社,大阪府,高槻市,若松町２８－３,,27,207,5690054,,,,,,,2024-03-27,1,,,,,ブルワート,0
1000,4120901048964,新規,0,2024-03-27,2024-03-27,株式会社ＬＥＡＰ,,株式会社,大阪府,吹田市,佐井寺４丁目４３番８号関西大学生協会館,,27,205,5650836,,,,,,,2024-03-27,1,,,,,リープ,0
1007,4130001076618,新規,0,2024-03-27,2024-03-27,株式会社京都インフィニティパートナーズ,,株式会社,京都府,京都市左京区,吉田牛ノ宮町６番１号,,26,103,6068302,,,,,,,2024-03-27,1,,,,,キョウトインフィニティパートナーズ,0
1008,4130001076659,新規,0,2024-03-27,2024-03-27,株式会社圭,,株式会社,京都府,城陽市,富野鷺坂山６番地,,26,207,6100111,,,,,,,2024-03-27,1,,,,,ケイ,0
1009,4130001076675,新規,0,2024-03-27,2024-03-27,株式会社イーサポート,,株式会社,京都府,福知山市,石原１丁目１７２番地,,26,201,6200804,,,,,,,2024-03-27,1,,,,,イーサポート,0
1014,4140001133871,新規,0,2024-03-27,2024-03-27,株式会社ＷＩＴＨ,,株式会社,兵庫県,西宮市,甲子園口３丁目１６番１５号,,28,204,6638113,,,,,,,2024-03-27,1,,,,,ウィズ,0
1015,4140003020333,新規,0,2024-03-27,2024-03-27,合同会社ＭＯ,,合同会社,兵庫県,明石市,大久保町西脇４９３番地,,28,203,6740054,,,,,,,2024-03-27,1,,,,,エムオー,0
1020,4160001025786,新規,0,2024-03-27,2024-03-27,株式会社サイトビ,,株式会社,滋賀県,湖南市,石部東３丁目１番３７号,,25,211,5203107,,,,,,,2024-03-27,1,,,,,サイトビ,0
1026,4180005020567,新規,0,2024-03-27,2024-03-27,医療法人かなざわ内科クリニック,,その他の設立登記法人,愛知県,豊明市,間米町島川２１５６番地１,,23,229,4701132,,,,,,,2024-03-27,1,,,,,カナザワナイカクリニック,0
1028,4180301038453,新規,0,2024-03-27,2024-03-27,株式会社縁,00134204,株式会社,愛知県,安城市,二本木新町１丁目１６番地８,,23,212,4460075,,,,,,,2024-03-27,1,,,,,エニシ,0
1032,4180303006053,新規,0,2024-03-27,2024-03-27,合同会社ＩＱＯＬ,,合同会社,愛知県,知立市,新池３丁目５４番地,,23,225,4720005,,,,,,,2024-03-27,1,,,,,イコル,0
1033,4180305009558,新規,0,2024-03-27,2024-03-27,医療法人もとまち内科クリニック,,その他の設立登記法人,愛知県,豊田市,柿本町７丁目６６番地１,,23,211,4710855,,,,,,,2024-03-27,1,,,,,モトマチナイカクリニック,0
1035,4190003004620,新規,0,2024-03-27,2024-03-27,合同会社常光庵,,合同会社,三重県,伊賀市,中友田６５５‐２,,24,216,5181304,,,,,,,2024-03-27,1,,,,,ジョウコウアン,0
1038,4200003006276,新規,0,2024-03-27,2024-03-27,合同会社高建,,合同会社,岐阜県,可児市,兼山４５９番地,,21,214,5050130,,,,,,,2024-03-27,1,,,,,コウケン,0
1044,4240001063002,新規,0,2024-03-27,2024-03-27,株式会社Ａｉｍ　Ｇｕａｒｄ,,株式会社,広島県,三次市,四拾貫町１０７５０番地２,,34,209,7280016,,,,,,,2024-03-27,1,,,,,エイムガード,0
1046,4260001038893,新規,0,2024-03-27,2024-03-27,株式会社リープクリエーション,,株式会社,岡山県,赤磐市,殿谷１１３８番地１４７,,33,213,7090703,,,,,,,2024-03-27,1,,,,,リープクリエーション,0
1054,4290001105096,新規,0,2024-03-27,2024-03-27,ＳＵＮＡＯ株式会社,,株式会社,福岡県,久留米市,西町９３０番地６－８０３,,40,203,8300038,,,,,,,2024-03-27,1,,,,,スナオ,0
1055,4290001105212,新規,0,2024-03-27,2024-03-27,新栄重機株式会社,,株式会社,福岡県,福岡市博多区,相生町２丁目１番２３号,,40,132,8120885,,,,,,,2024-03-27,1,,,,,シンエイジュウキ,0
1056,4290001105245,新規,0,2024-03-27,2024-03-27,株式会社リバー,,株式会社,福岡県,福岡市博多区,竹丘町２丁目５番１８号Ｊ’ｓ　ＳＴＡＧＥ６０４,,40,132,8120878,,,,,,,2024-03-27,1,,,,,リバー,0
1058,4290003015129,新規,0,2024-03-27,2024-03-27,合同会社ＳＴＡＹ　ＧＯＬＤ,,合同会社,福岡県,福岡市博多区,空港前３丁目５番３８号,,40,132,8120002,,,,,,,2024-03-27,1,,,,,ステイゴールド,0
1061,4310001018923,新規,0,2024-03-27,2024-03-27,株式会社リボンＢＯＸ,,株式会社,長崎県,佐世保市,皆瀬町３０番地２,,42,202,8570144,,,,,,,2024-03-27,1,,,,,リボンボックス,0
1062,4310003004756,新規,0,2024-03-27,2024-03-27,ＳＳデザイン合同会社,,合同会社,長崎県,北松浦郡佐々町,小浦免５７０番地１,,42,391,8570361,,,,,,,2024-03-27,1,,,,,エスエスデザイン,0
1068,4330001031899,新規,0,2024-03-27,2024-03-27,株式会社ディグジョイ,,株式会社,熊本県,熊本市北区,兎谷１丁目２番７３号グランドール兎谷Ｂ－２０２,,43,105,8618082,,,,,,,2024-03-27,1,,,,,ディグジョイ,0
1071,4360001033380,新規,0,2024-03-27,2024-03-27,株式会社アレシオ,,株式会社,沖縄県,中頭郡北谷町,字港１４番地２２ベイサイドマンション３－Ｂ,,47,326,9040114,,,,,,,2024-03-27,1,,,,,アレシオ,0
1072,4360003013835,新規,0,2024-03-27,2024-03-27,合同会社Ｎｏ　ｌｉｍｉｔ,,合同会社,沖縄県,沖縄市,古謝２丁目１８番３１号南光ビル５０１,,47,211,9042161,,,,,,,2024-03-27,1,,,,,ノーリミット,0
1073,4360003013843,新規,0,2024-03-27,2024-03-27,合同会社内原ファーム,,合同会社,沖縄県,宮古島市,平良字松原２６８番地,,47,214,9060014,,,,,,,2024-03-27,1,,,,,ウチバルファーム,0
1078,4370003006540,新規,0,2024-03-27,2024-03-27,合同会社ＷｈｉｔｅＷｉｎｇｓ,,合同会社,宮城県,仙台市泉区,紫山５丁目３７番地の１２,,04,105,9813205,,,,,,,2024-03-27,1,,,,,ホワイトウィングス,0
1084,4420001018656,新規,0,2024-03-27,2024-03-27,株式会社宗春,,株式会社,青森県,八戸市,大字湊町字下河原１７番地４１,,02,203,0310812,,,,,,,2024-03-27,1,,,,,ソウシュン,0
1089,4430001091396,新規,0,2024-03-27,2024-03-27,株式会社ｍｙｆｅｌ,,株式会社,北海道,札幌市中央区,北六条西１８丁目１１－１,,01,101,0600006,,,,,,,2024-03-27,1,,,,,ミューフェル,0
1094,4430003016129,新規,0,2024-03-27,2024-03-27,合同会社壱幸,,合同会社,北海道,札幌市清田区,真栄一条２丁目１９番１０号,,01,110,0040831,,,,,,,2024-03-27,1,,,,,イッコウ,0
1095,4430003016137,新規,0,2024-03-27,2024-03-27,合同会社リッチ,,合同会社,北海道,札幌市清田区,里塚緑ケ丘５丁目８番８号,,01,110,0040805,,,,,,,2024-03-27,1,,,,,リッチ,0
1100,4700150124441,新規,0,2024-03-27,2024-03-14,美深町エアリアル大会実行委員会,,その他,北海道,中川郡美深町,字西町２２番地美深町教育委員会内,,01,469,0982252,,,,,,,2024-03-14,1,,,,,ビフカチヨウエアリアルタイカイジツコウイインカイ,0
1108,5010001243229,新規,0,2024-03-27,2024-03-27,ＫＡＯＮ株式会社,,株式会社,東京都,中央区,銀座１丁目１２番４号Ｎ＆ＥＢＬＤ．６Ｆ,,13,102,1040061,,,,,,,2024-03-27,1,,,,,カオン,0
1109,5010001243286,新規,0,2024-03-27,2024-03-27,ＦＯＵＮＤＡＴＩＯＮ株式会社,,株式会社,東京都,中央区,佃２丁目１１－６－８０５,,13,102,1040051,,,,,,,2024-03-27,1,,,,,ファンデーション,0
1119,5010401181318,新規,0,2024-03-27,2024-03-27,株式会社ＡｓＯｎｅ,,株式会社,東京都,港区,白金５丁目１０番１７－１０１号,,13,103,1080072,,,,,,,2024-03-27,1,,,,,アズワン,0
1120,5010401181383,新規,0,2024-03-27,2024-03-27,株式会社ｃｈａｚ,,株式会社,東京都,港区,虎ノ門１丁目１６番６号虎ノ門ＲＡＰＯ－ＴＯビルＵＣＦ７階,,13,103,1050001,,,,,,,2024-03-27,1,,,,,チャズ,0
1123,5010403032279,新規,0,2024-03-27,2024-03-27,合同会社オリーブキャピタルフォー,,合同会社,東京都,港区,六本木６丁目１０番１号六本木ヒルズ森タワー,,13,103,1060032,,,,,,,2024-03-27,1,,,,,オリーブキャピタルフォー,0
1128,5010601064891,新規,0,2024-03-27,2024-03-27,株式会社ムクイル,,株式会社,東京都,墨田区,江東橋４丁目２７－１４楽天地ビル３Ｆ,,13,107,1300022,,,,,,,2024-03-27,1,,,,,ムクイル,0
1130,5010701045759,新規,0,2024-03-27,2024-03-27,株式会社ヒガノリハネス企画,,株式会社,東京都,品川区,荏原１丁目１６番１号ＳＫビル６０１,,13,109,1420063,,,,,,,2024-03-27,1,,,,,ヒガノリハネスキカク,0
1140,5011001160868,新規,0,2024-03-27,2024-03-27,株式会社センターストリート,,株式会社,東京都,渋谷区,道玄坂２丁目１８番１１号,,13,113,1500043,,,,,,,2024-03-27,1,,,,,センターストリート,0
1141,5011003018809,新規,0,2024-03-27,2024-03-27,合同会社ＦＩＮ,,合同会社,東京都,渋谷区,道玄坂１丁目１０番８号渋谷道玄坂東急ビル２Ｆ－Ｃ,,13,113,1500043,,,,,,,2024-03-27,1,,,,,フィン,0
1142,5011005010433,新規,0,2024-03-27,2024-03-27,一般社団法人日本グローバル美容師人材教育協会,,その他の設立登記法人,東京都,渋谷区,神宮前５丁目１番７号エフ・テラス表参道２０１,,13,113,1500001,,,,,,,2024-03-27,1,,,,,ニホングローバルビヨウシジンザイキョウイクキョウカイ,0
1153,5011303005110,新規,0,2024-03-27,2024-03-27,合同会社ＨＲＫ,,合同会社,東京都,杉並区,高円寺南３丁目４５番１５号レゼル高円寺２階Ｂ号室,,13,115,1660003,,,,,,,2024-03-27,1,,,,,,0
1155,5011401025951,新規,0,2024-03-27,2024-03-27,株式会社キヨシホームズ,,株式会社,東京都,板橋区,高島平１丁目８２番１－１１０４号,,13,119,1750082,,,,,,,2024-03-27,1,,,,,キヨシホームズ,0
1156,5011701027152,新規,0,2024-03-27,2024-03-27,ＨＪＨ株式会社,,株式会社,東京都,江戸川区,北小岩６丁目１７－５・４Ａ,,13,123,1330051,,,,,,,2024-03-27,1,,,,,エイチジェイエイチ,0
1159,5011801043990,新規,0,2024-03-27,2024-03-27,株式会社Ｃｉｔｒｏｎ,,株式会社,東京都,葛飾区,新小岩２丁目１０番５号２階,,13,122,1240024,,,,,,,2024-03-27,1,,,,,シトロン,0
1163,5012801023058,新規,0,2024-03-27,2024-03-27,株式会社ＧＯＬＡＺＯ,,株式会社,東京都,国立市,泉３丁目２７番地の８ジュネス・ヴィラージュ２０１,,13,215,1860012,,,,,,,2024-03-27,1,,,,,ゴラッソ,0
1164,5013103001322,新規,0,2024-03-27,2024-03-27,ＤＥＵＲＡＬＩ合同会社,,合同会社,東京都,福生市,大字熊川１６４２番地９シャルムアカネ１０１号室,,13,218,1970003,,,,,,,2024-03-27,1,,,,,,0
1169,5013301052282,新規,0,2024-03-27,2024-03-27,株式会社Ｇａｋｕ　Ｍａｒｋｅｔ,,株式会社,東京都,豊島区,東池袋２丁目１番３号,,13,116,1700013,,,,,,,2024-03-27,1,,,,,ガクマーケット,0
1174,5020001156470,新規,0,2024-03-27,2024-03-27,株式会社ドゥーバリューズ,,株式会社,神奈川県,横浜市旭区,今宿東町９４８番地の２７,,14,112,2410032,,,,,,,2024-03-27,1,,,,,ドゥーバリューズ,0
1180,5020003025814,新規,0,2024-03-27,2024-03-27,ＨＩＴ合同会社,,合同会社,神奈川県,横浜市緑区,長津田７丁目１番４８号２０６,,14,113,2260027,,,,,,,2024-03-27,1,,,,,エイチアイティ,0
1181,5020005016332,新規,0,2024-03-27,2024-03-27,医療法人二生会,,その他の設立登記法人,神奈川県,川崎市麻生区,上麻生６丁目２９番３６号,,14,137,2150021,,,,,,,2024-03-27,1,,,,,ニセイカイ,0
1187,5021001081816,新規,0,2024-03-27,2024-03-27,株式会社達磨,,株式会社,神奈川県,相模原市緑区,上九沢２２１番地４,,14,151,2520136,,,,,,,2024-03-27,1,,,,,ダルマ,0
1190,5030001159472,新規,0,2024-03-27,2024-03-27,株式会社ＡＶＡＳＩＮ,,株式会社,埼玉県,蕨市,塚越７丁目９番６号ロットパレスＩＩＩ２０２号,00134206,11,223,3350002,,,,,,,2024-03-27,1,,,,,アワシン,0
1192,5030003023882,新規,0,2024-03-27,2024-03-27,ＤＳＥＣ合同会社,,合同会社,埼玉県,朝霞市,根岸台７丁目２８番１０号,,11,227,3510005,,,,,,,2024-03-27,1,,,,,ディーセック,0
1193,5030005021587,新規,0,2024-03-27,2024-03-27,一般社団法人結和アライアンス,,その他の設立登記法人,埼玉県,新座市,馬場２丁目８番２４号,,11,230,3520016,,,,,,,2024-03-27,1,,,,,ユウワアライアンス,0
1200,5040001132817,新規,0,2024-03-27,2024-03-27,東貿株式会社,,株式会社,千葉県,松戸市,高塚新田５６８－４１,,12,207,2702222,,,,,,,2024-03-27,1,,,,,トウボウ,0
1201,5040001132874,新規,0,2024-03-27,2024-03-27,ＯＮＥ　ＪＡＭＰ株式会社,,株式会社,千葉県,市原市,山木５６４番地６,,12,219,2900005,,,,,,,2024-03-27,1,,,,,ワンジャンプ,0
1209,5060003004962,新規,0,2024-03-27,2024-03-27,ＳＡＭＥＥＤ　ＴＲＡＤＩＮＧ合同会社,,合同会社,栃木県,小山市,大字南半田２０５３－１４スカイピーク２０２,,09,208,3230011,,,,,,,2024-03-27,1,,,,,サミードトレーディング,0
1221,5090001018615,新規,0,2024-03-27,2024-03-27,株式会社ＭＴＳ,,株式会社,山梨県,甲府市,朝日２丁目１８番９号,,19,201,4000025,,,,,,,2024-03-27,1,,,,,エムティエス,0
1222,5090005007622,新規,0,2024-03-27,2024-03-27,一般社団法人山梨大学エンタープライズネクスト,,その他の設立登記法人,山梨県,甲府市,武田４丁目４番３７号,,19,201,4000016,,,,,,,2024-03-27,1,,,,,ヤマナシダイガクエンタープライズネクスト,0
1223,5100001037324,新規,0,2024-03-27,2024-03-27,日高建工株式会社,00134207,株式会社,長野県,飯田市,羽場町３丁目１６番地１０,,20,205,3950063,,,,,,,2024-03-27,1,,,,,ヒダカケンコウ,0
1240,5120001263372,新規,0,2024-03-27,2024-03-27,Ｈ‐ｔｒｕｓｔ株式会社,,株式会社,大阪府,大阪市生野区,巽東２丁目１１番２号,,27,116,5440014,,,,,,,2024-03-27,1,,,,,エイチトラスト,0
1241,5120001263447,新規,0,2024-03-27,2024-03-27,株式会社新同方,,株式会社,大阪府,大阪市北区,梅田２丁目５番１３号桜橋第一ビル３０４号,,27,127,5300001,,,,,,,2024-03-27,1,,,,,シンドウホウ,0
1242,5120001263463,新規,0,2024-03-27,2024-03-27,京橋株式会社,,株式会社,大阪府,大阪市生野区,中川４丁目２番４号ホワイトビル１０１号室,,27,116,5440005,,,,,,,2024-03-27,1,,,,,キョウバシ,0
1243,5120001263521,新規,0,2024-03-27,2024-03-27,Ｆｉｒｓｔ　Ｓｔｏｐ管理サービス株式会社,,株式会社,大阪府,大阪市中央区,南船場２丁目１０－３０,,27,128,5420081,,,,,,,2024-03-27,1,,,,,ファーストストップカンリサービス,0
1250,5120101069298,新規,0,2024-03-27,2024-03-27,株式会社ＮＥＯ,,株式会社,大阪府,和泉市,府中町１丁目２１－５,,27,219,5940071,,,,,,,2024-03-27,1,,,,,ネオ,0
1253,5120903005062,新規,0,2024-03-27,2024-03-27,合同会社ＯＧＲ,,合同会社,大阪府,吹田市,広芝町４番３４号江坂第一ビル,,27,205,5640052,,,,,,,2024-03-27,1,,,,,オージーアール,0
1254,5122001037938,新規,0,2024-03-27,2024-03-27,株式会社ＦＵＫＵＴ　Ｇｅｎｅｒａｌ　Ｔｒａｄｉｎｇ,,株式会社,大阪府,大東市,南楠の里町３－５,,27,218,5740004,,,,,,,2024-03-27,1,,,,,フクティーゼネラルトレーディング,0
1255,5122001037946,新規,0,2024-03-27,2024-03-27,株式会社ヨシケン,,株式会社,大阪府,柏原市,国分市場１丁目４番１４号,,27,221,5820022,,,,,,,2024-03-27,1,,,,,ヨシケン,0
1260,5130001076658,新規,0,2024-03-27,2024-03-27,株式会社Ｍ‐ＧＲＯＵＰ,,株式会社,京都府,久世郡久御山町,栄２丁目１番地１３９、５棟１０１号,,26,322,6130032,,,,,,,2024-03-27,1,,,,,エムグループ,0
1261,5130001076682,新規,0,2024-03-27,2024-03-27,株式会社Ｇａｔｅ,,株式会社,京都府,舞鶴市,七条中町４番地１９,,26,202,6250054,,,,,,,2024-03-27,1,,,,,ゲート,0
1264,5130003009401,新規,0,2024-03-27,2024-03-27,合同会社ＭＴＭ,,合同会社,京都府,京田辺市,草内禅定寺１８番地の２２,,26,211,6100311,,,,,,,2024-03-27,1,,,,,エムティエム,0
1268,5140005026988,新規,0,2024-03-27,2024-03-27,医療法人社団碧雲会,,その他の設立登記法人,兵庫県,神戸市中央区,東川崎町１丁目８番１号プロメナ神戸３階,,28,110,6500044,,,,,,,2024-03-27,1,,,,,ヘキウンカイ,0
1280,5180003026549,新規,0,2024-03-27,2024-03-27,合同会社Ｋｏｕｒｙｕ,,合同会社,愛知県,名古屋市北区,中味鋺３丁目１１１３番地の３,,23,103,4620015,,,,,,,2024-03-27,1,,,,,コウリュウ,0
1281,5180003026557,新規,0,2024-03-27,2024-03-27,合同会社ＢｕＺＺ　ＶａＬＵ,,合同会社,愛知県,名古屋市中村区,京田町２丁目２９番地の２（フューカスト１０３号）,,23,105,4530816,,,,,,,2024-03-27,1,,,,,バズバリュー,0
1282,5180003026565,新規,0,2024-03-27,2024-03-27,合同会社ＢＥＬＬＵＺ,,合同会社,愛知県,海部郡大治町,大字西條字平ケ野８２番地,,23,424,4901144,,,,,,,2024-03-27,1,,,,,ベルース,0
1283,5180005020566,新規,0,2024-03-27,2024-03-27,医療法人ＳＧＲ,,その他の設立登記法人,愛知県,名古屋市南区,呼続１丁目１２‐７フォーサイト１０１号,,23,112,4570014,,,,,,,2024-03-27,1,,,,,エスジーアール,0
1285,5180301038452,新規,0,2024-03-27,2024-03-27,株式会社ロベンワークス,,株式会社,愛知県,安城市,二本木新町１丁目１６番地８,,23,212,4460075,,,,,,,2024-03-27,1,,,,,ロベンワークス,0
1296,5240001063001,新規,0,2024-03-27,2024-03-27,株式会社タンポポ,,株式会社,広島県,広島市南区,松川町６番１２－１３０２号,,34,103,7320826,,,,,,,2024-03-27,1,,,,,タンポポ,0
1302,5290001105137,新規,0,2024-03-27,2024-03-27,株式会社ＴＳサポート,,株式会社,福岡県,福岡市東区,香住ヶ丘６丁目３番７－２０３号,,40,131,8130003,,,,,,,2024-03-27,1,,,,,ティーエスサポート,0
1303,5290001105153,新規,0,2024-03-27,2024-03-27,結株式会社,,株式会社,福岡県,福岡市中央区,警固２丁目１６番６号フィットけやき２階,,40,133,8100023,,,,,,,2024-03-27,1,,,,,ユイ,0
1304,5290001105228,新規,0,2024-03-27,2024-03-27,株式会社ワイスタイル,,株式会社,福岡県,福岡市中央区,西中洲一丁目２１ＧＩＯビル４階,,40,133,8100002,,,,,,,2024-03-27,1,,,,,ワイスタイル,0
1306,5290003015136,新規,0,2024-03-27,2024-03-27,合同会社西日本サンラインプラス,,合同会社,福岡県,福岡市博多区,博多駅南５丁目２－１９,,40,132,8120016,,,,,,,2024-03-27,1,,,,,ニシニホンサンラインプラス,0
1312,5310001018922,新規,0,2024-03-27,2024-03-27,株式会社西村ホームサービス,,株式会社,長崎県,佐世保市,新替町１５番地１,,42,202,8593158,,,,,,,2024-03-27,1,,,,,ニシムラホームサービス,0
1319,5330001031790,新規,0,2024-03-27,2024-03-27,天林商事株式会社,,株式会社,熊本県,菊池郡大津町,大字引水６９４－４,,43,403,8691234,,,,,,,2024-03-27,1,,,,,テンリンショウジ,0
1320,5330001031898,新規,0,2024-03-27,2024-03-27,よかみらい株式会社,,株式会社,熊本県,合志市,須屋１９７８番地２８,,43,216,8611102,,,,,,,2024-03-27,1,,,,,ヨカミライ,0
1323,5340001026393,新規,0,2024-03-27,2024-03-27,株式会社便利屋中村商事,,株式会社,鹿児島県,西之表市,鴨女町１６０番地,,46,213,8913116,,,,,,,2024-03-27,1,,,,,ベンリヤナカムラショウジ,0
1324,5340003004414,新規,0,2024-03-27,2024-03-27,合同会社明和匠芸,,合同会社,鹿児島県,日置市,東市来町湯田１３５３番地６,,46,216,8992201,,,,,,,2024-03-27,1,,,,,メイワコウゲイ,0
1326,5360001033363,新規,0,2024-03-27,2024-03-27,株式会社沖縄ジンジャーシロップ,,株式会社,沖縄県,石垣市,字登野城７４番地,,47,207,9070004,,,,,,,2024-03-27,1,,,,,オキナワジンジャーシロップ,0
1327,5360001033388,新規,0,2024-03-27,2024-03-27,株式会社ケイトマン・ザ・スカイ,,株式会社,沖縄県,那覇市,古波蔵１丁目２９番２８－１００２号レーヴグランディ古波蔵一丁目,,47,201,9000024,,,,,,,2024-03-27,1,,,,,ケイトマンザスカイ,0
1328,5360001033396,新規,0,2024-03-27,2024-03-27,ヒットマイハート株式会社,,株式会社,沖縄県,宜野湾市,伊佐２丁目１番１６号ビジョンハウスＡ－３号,,47,205,9012221,,,,,,,2024-03-27,1,,,,,ヒットマイハート,0
1329,5360003013842,新規,0,2024-03-27,2024-03-27,合同会社いさみ,,合同会社,沖縄県,宜野湾市,普天間１丁目１９番１０号,,47,205,9012202,,,,,,,2024-03-27,1,,,,,イサミ,0
1331,5370001051109,新規,0,2024-03-27,2024-03-27,株式会社ジスタ,,株式会社,宮城県,仙台市宮城野区,二十人町３０１番地の１７,,04,102,9830862,,,,,,,2024-03-27,1,,,,,ジスタ,0
1336,5380003005714,新規,0,2024-03-27,2024-03-27,会津山都蕎麦蕎邑会合同会社,,合同会社,福島県,喜多方市,山都町三津合字瀬下５８４７番地３,,07,208,9694105,,,,,,,2024-03-27,1,,,,,アイヅヤマトソバキョウムラカイ,0
1339,5420003002888,新規,0,2024-03-27,2024-03-27,合同会社ｙｔｃ,,合同会社,青森県,弘前市,大字桜ケ丘２丁目１２番地５,,02,202,0368241,,,,,,,2024-03-27,1,,,,,ワイティーシー,0
1342,5430001091404,新規,0,2024-03-27,2024-03-27,株式会社蒼氓,,株式会社,北海道,札幌市北区,太平九条４丁目４番１２号,,01,102,0028009,,,,,,,2024-03-27,1,,,,,ソウボウ,0
1344,5430003016004,新規,0,2024-03-27,2024-03-27,合同会社ＤＯＬＬ,,合同会社,北海道,札幌市白石区,菊水七条２丁目１番２１－１０６号,,01,104,0030807,,,,,,,2024-03-27,1,,,,,ドール,0
1346,5450001014263,新規,0,2024-03-27,2024-03-27,株式会社２Ｍ　ｈｏｕｓｅ,,株式会社,北海道,上川郡東川町,東４号南１番地,,01,458,0711454,,,,,,,2024-03-27,1,,,,,ツーエムハウス,0
1361,6010003043205,新規,0,2024-03-27,2024-03-27,合同会社Ｌｉｏｔ,,合同会社,東京都,中央区,銀座１丁目１２番４号Ｎ＆ＥＢＬＤ．６Ｆ,,13,102,1040061,,,,,,,2024-03-27,1,,,,,リオット,0
1362,6010003043304,新規,0,2024-03-27,2024-03-27,ヘリオスソーラー合同会社,,合同会社,東京都,千代田区,霞が関３丁目２番５号,,13,101,1000013,,,,,,,2024-03-27,1,,,,,ヘリオスソーラー,0
1364,6010103002325,新規,0,2024-03-27,2024-03-27,ＭＩＲＲＯＲＢＡＳＥ合同会社,,合同会社,東京都,八王子市,東浅川町５４５番地２マイキャッスル高尾ピーズコート３０４号,,13,201,1930834,,,,,,,2024-03-27,1,,,,,,0
1369,6010401181267,新規,0,2024-03-27,2024-03-27,株式会社Ｇｉａ　ｌａｂｏｒａｔｏｒｙ,,株式会社,東京都,港区,北青山１丁目３番１号アールキューブ青山３階,,13,103,1070061,,,,,,,2024-03-27,1,,,,,ジアラボラトリー,0
1370,6010401181358,新規,0,2024-03-27,2024-03-27,株式会社Ｋ＆Ｍアドバイザリー,,株式会社,東京都,港区,南麻布３丁目４番５－１０１号,,13,103,1060047,,,,,,,2024-03-27,1,,,,,ケイアンドエムアドバイザリー,0
1372,6010403032278,新規,0,2024-03-27,2024-03-27,合同会社オリーブキャピタルスリー,,合同会社,東京都,港区,六本木６丁目１０番１号六本木ヒルズ森タワー,,13,103,1060032,,,,,,,2024-03-27,1,,,,,オリーブキャピタルスリー,0
1380,6010601064899,新規,0,2024-03-27,2024-03-27,株式会社いちの,,株式会社,東京都,墨田区,東向島３丁目２５番８号,,13,107,1310032,,,,,,,2024-03-27,1,,,,,イチノ,0
1385,6010703007112,新規,0,2024-03-27,2024-03-27,合同会社ＣＬＩＰＲＩＰＥ,,合同会社,東京都,品川区,東五反田５丁目２０番７号ロイヤルシーズン池田山２０１,,13,109,1410022,,,,,,,2024-03-27,1,,,,,クリップライプ,0
1392,6010901054971,新規,0,2024-03-27,2024-03-27,株式会社バズリスト,,株式会社,東京都,世田谷区,太子堂５丁目４番８号リブリ・三軒茶屋１０２,,13,112,1540004,,,,,,,2024-03-27,1,,,,,バズリスト,0
1399,6011001160792,新規,0,2024-03-27,2024-03-27,株式会社ＡＭワークス,,株式会社,東京都,渋谷区,恵比寿１丁目８－１８Ｋ－１ビル３Ｆ,,13,113,1500013,,,,,,,2024-03-27,1,,,,,エイエムワークス,0
1400,6011001160917,新規,0,2024-03-27,2024-03-27,株式会社ＵＡＮＹ,,株式会社,東京都,渋谷区,千駄ヶ谷５丁目１６番１１号,,13,113,1510051,,,,,,,2024-03-27,1,,,,,ユエニー,0
1402,6011003018766,新規,0,2024-03-27,2024-03-27,合同会社トランスビット,,合同会社,東京都,渋谷区,道玄坂１丁目１０番８号渋谷道玄坂東急ビル２Ｆ－Ｃ,,13,113,1500043,,,,,,,2024-03-27,1,,,,,トランスビット,0
1403,6011005010432,新規,0,2024-03-27,2024-03-27,一般社団法人言霊詞実践研究会,,その他の設立登記法人,東京都,渋谷区,道玄坂１丁目１０番８号渋谷道玄坂東急ビル２Ｆ－Ｃ,,13,113,1500043,,,,,,,2024-03-27,1,,,,,コトダマコトバジッセンケンキュウカイ,0
1407,6011103014269,新規,0,2024-03-27,2024-03-27,合同会社Ｓａｌｏｎ　ｄｅ　Ｍｏｙａｉ,,合同会社,東京都,新宿区,北新宿２丁目３番２１－１０２号,,13,104,1690074,,,,,,,2024-03-27,1,,,,,サロンドモヤイ,0
1408,6011105010984,新規,0,2024-03-27,2024-03-27,一般社団法人ＩＬＭＳ,,その他の設立登記法人,東京都,新宿区,新宿２丁目５番１６号,,13,104,1600022,,,,,,,2024-03-27,1,,,,,イルムス,0
1416,6011803006144,新規,0,2024-03-27,2024-03-27,合同会社ゴーエー商事,,合同会社,東京都,足立区,千住旭町３６－１３,,13,121,1200026,,,,,,,2024-03-27,1,,,,,ゴーエーショウジ,0
1417,6012301013847,新規,0,2024-03-27,2024-03-27,株式会社ホープアンドピース,,株式会社,東京都,町田市,玉川学園４丁目１６番３８号,,13,209,1940041,,,,,,,2024-03-27,1,,,,,ホープアンドピース,0
1429,6013301052257,新規,0,2024-03-27,2024-03-27,天生株式会社,,株式会社,東京都,豊島区,池袋３丁目６４－７,,13,116,1710014,,,,,,,2024-03-27,1,,,,,スカイライフ,0
1430,6013305003586,新規,0,2024-03-27,2024-03-27,一般社団法人全国耐震基準研究会,,その他の設立登記法人,東京都,豊島区,西池袋５丁目２６番１６号,,13,116,1710021,,,,,,,2024-03-27,1,,,,,ゼンコクタイシンキジュンケンキュウカイ,0
1434,6020001156379,新規,0,2024-03-27,2024-03-27,智勝株式会社,,株式会社,神奈川県,横浜市中区,本牧町２丁目３０４加藤ビル３０２Ｄ号室,,14,104,2310806,,,,,,,2024-03-27,1,,,,,トモカツ,0
1444,6021003014319,新規,0,2024-03-27,2024-03-27,合同会社藍新,,合同会社,神奈川県,平塚市,袖ケ浜１０番４号,,14,203,2540813,,,,,,,2024-03-27,1,,,,,アイシン,0
1448,6030003023816,新規,0,2024-03-27,2024-03-27,Ａ　ｔｏ　Ｚ　Ｃｏｎｓｕｌｔｉｎｇ合同会社,,合同会社,埼玉県,久喜市,久喜東５丁目２２番１９号,,11,232,3460016,,,,,,,2024-03-27,1,,,,,エイテゥーズィーコンサルティング,0
1454,6040001132849,新規,0,2024-03-27,2024-03-27,株式会社森田企画,,株式会社,千葉県,千葉市緑区,誉田町１丁目３０６番地,,12,105,2660005,,,,,,,2024-03-27,1,,,,,モリタキカク,0
1455,6040001132865,新規,0,2024-03-27,2024-03-27,株式会社ＲＰＭ,,株式会社,千葉県,市原市,青柳６３番地４,,12,219,2990102,,,,,,,2024-03-27,1,,,,,アールピーエム,0
1456,6040003024631,新規,0,2024-03-27,2024-03-27,合同会社ＬＩＯＮ　ＪＡＰＡＮ,,合同会社,千葉県,柏市,中新宿１丁目２番１９号,,12,217,2770066,,,,,,,2024-03-27,1,,,,,ライオンジャパン,0
1461,6050001054522,新規,0,2024-03-27,2024-03-27,株式会社ＨＡＳＨＩＲ　ＴＲＡＤＩＮＧ,,株式会社,茨城県,筑西市,玉戸１３０９番地５５大吉亭１０７,,08,227,3080847,,,,,,,2024-03-27,1,,,,,ハシールトレーディング,0
1463,6050005013417,新規,0,2024-03-27,2024-03-27,一般社団法人守谷インター,,その他の設立登記法人,茨城県,守谷市,中央２丁目５３番地ブランチ守谷Ａ０１０,,08,224,3020115,,,,,,,2024-03-27,1,,,,,モリヤインター,0
1471,6060003004994,新規,0,2024-03-27,2024-03-27,ＧＭＫ合同会社,,合同会社,栃木県,鹿沼市,上殿町１６０７番地３号,,09,205,3220045,,,,,,,2024-03-27,1,,,,,ジーエムケー,0
1477,6090001018614,新規,0,2024-03-27,2024-03-27,株式会社朋宇商会,,株式会社,山梨県,甲斐市,下今井３６３６－２,,19,210,4000105,,,,,,,2024-03-27,1,,,,,ホウウショウカイ,0
1483,6100003007464,新規,0,2024-03-27,2024-03-27,Ｆｒｅｓｈ　Ｍｅｄｉａ合同会社,,合同会社,長野県,松本市,大字入山辺１７５３番地１,,20,202,3900222,,,,,,,2024-03-27,1,,,,,フレッシュメディア,0
1485,6110001038279,新規,0,2024-03-27,2024-03-27,株式会社ワークスマツダ,,株式会社,新潟県,上越市,大字長浜２０５番地１,,15,222,9491701,,,,,,,2024-03-27,1,,,,,ワークスマツダ,0
1493,6120001263396,新規,0,2024-03-27,2024-03-27,株式会社インザライフホールディングス,,株式会社,大阪府,大阪市北区,梅田１丁目１３番１号１７階,,27,127,5300001,,,,,,,2024-03-27,1,,,,,インザライフホールディングス,0
1494,6120001263553,新規,0,2024-03-27,2024-03-27,株式会社ＣＯＲＥ,,株式会社,大阪府,寝屋川市,三井南町２９番４号,,27,215,5720019,,,,,,,2024-03-27,1,,,,,コア,0
1496,6120003026256,新規,0,2024-03-27,2024-03-27,合同会社ＫａｒａｓｕＧａｍｉｎｇ,,合同会社,大阪府,大阪市東淀川区,西淡路１丁目６番１３号新大阪東ビル１０１,,27,114,5330031,,,,,,,2024-03-27,1,,,,,カラスゲーミング,0
1499,6120101069306,新規,0,2024-03-27,2024-03-27,株式会社エイクラジャパン,,株式会社,大阪府,阪南市,光陽台４丁目２０－４,,27,232,5990223,,,,,,,2024-03-27,1,,,,,エイクラジャパン,0
1500,6120905006586,新規,0,2024-03-27,2024-03-27,一般社団法人ないかんＭｅｅｔｕｐ,,その他の設立登記法人,大阪府,吹田市,桃山台３丁目３９番１０号,,27,205,5650854,,,,,,,2024-03-27,1,,,,,ナイカンミートアップ,0
1501,6122001037945,新規,0,2024-03-27,2024-03-27,株式会社ＬｉｖｉＬ,,株式会社,大阪府,八尾市,桜ヶ丘１丁目１０１番地ＯＨＨＡＲＡビル３階,,27,212,5810869,,,,,,,2024-03-27,1,,,,,リビル,0
1503,6130001076681,新規,0,2024-03-27,2024-03-27,株式会社大日昇隆建設,,株式会社,京都府,木津川市,州見台２丁目７番地１,,26,214,6190216,,,,,,,2024-03-27,1,,,,,ダイニッショウリュウケンセツ,0
1507,6130003009400,新規,0,2024-03-27,2024-03-27,合同会社ウラガミキカク,,合同会社,京都府,京都市左京区,下鴨蓼倉町２１－８－１,,26,103,6060806,,,,,,,2024-03-27,1,,,,,ウラガミキカク,0
1516,6140001133861,新規,0,2024-03-27,2024-03-27,株式会社Ｙｓ　Ｃｏｍｐａｎｙ,,株式会社,兵庫県,川辺郡猪名川町,若葉２丁目５０番地（Ａ－６１２）,,28,301,6660251,,,,,,,2024-03-27,1,,,,,ワイズカンパニー,0
1517,6140001133878,新規,0,2024-03-27,2024-03-27,心のたね株式会社,,株式会社,兵庫県,川西市,花屋敷１丁目２１番１２－１６号,,28,217,6660035,,,,,,,2024-03-27,1,,,,,ココロノタネ,0
1524,6160001025784,新規,0,2024-03-27,2024-03-27,株式会社井上圖版,,株式会社,滋賀県,高島市,今津町弘川１６４２番地４,,25,212,5201611,,,,,,,2024-03-27,1,,,,,イノウエグラフ,0
1531,6180001160670,新規,0,2024-03-27,2024-03-27,株式会社趣日本,,株式会社,愛知県,常滑市,塩田町５丁目１６４番地の９,,23,216,4790813,,,,,,,2024-03-27,1,,,,,オモムキニホン,0
1532,6180001160720,新規,0,2024-03-27,2024-03-27,株式会社プラチナリードオフィス,,株式会社,愛知県,名古屋市西区,名駅１丁目１番１７号名駅ダイヤメイテツビル１１階,,23,104,4510045,,,,,,,2024-03-27,1,,,,,プラチナリードオフィス,0
1533,6180001160745,新規,0,2024-03-27,2024-03-27,クリエ株式会社,,株式会社,愛知県,日進市,浅田町東前田４番地２シャトレ愛松赤池１０１,,23,230,4700124,,,,,,,2024-03-27,1,,,,,クリエ,0
1536,6180003026556,新規,0,2024-03-27,2024-03-27,合同会社Ｒｅｓｔａｒｔ　ｗｉｔｈ,,合同会社,愛知県,尾張旭市,西大道町前田３８６３－４,,23,226,4880814,,,,,,,2024-03-27,1,,,,,リスタートウィズ,0
1537,6180005020549,新規,0,2024-03-27,2024-03-27,一般社団法人日本ペットコンシェルジュ協会,,その他の設立登記法人,愛知県,半田市,白山町１丁目１０番地,,23,205,4750912,,,,,,,2024-03-27,1,,,,,ニホンペットコンシェルジュキョウカイ,0
1538,6180005020565,新規,0,2024-03-27,2024-03-27,社会福祉法人花葵会,,その他の設立登記法人,愛知県,清須市,清洲２０９２－１,,23,233,4520942,,,,,,,2024-03-27,1,,,,,ハナアオイカイ,0
1543,6180303006051,新規,0,2024-03-27,2024-03-27,ＧＲＥＥＮ　ＦＯＯＤＳ合同会社,,合同会社,愛知県,豊田市,京ケ峰１丁目３番地５,,23,211,4710005,,,,,,,2024-03-27,1,,,,,グリーンフーズ,0
1546,6200001042321,新規,0,2024-03-27,2024-03-27,エーティー産業株式会社,,株式会社,岐阜県,美濃加茂市,森山町３丁目１番２５号,,21,211,5050021,,,,,,,2024-03-27,1,,,,,エーティーサンギョウ,0
1550,6220001025893,新規,0,2024-03-27,2024-03-27,のと復興支援株式会社,,株式会社,石川県,金沢市,武蔵町１番１６号,,17,201,9200855,,,,,,,2024-03-27,1,,,,,ノトフッコウシエン,0
1553,6230003002171,新規,0,2024-03-27,2024-03-27,合同会社ＫＪコンサルティング,,合同会社,富山県,高岡市,佐野２７６番地２６,,16,202,9330826,,,,,,,2024-03-27,1,,,,,ケージェーコンサルティング,0
1559,6240001063000,新規,0,2024-03-27,2024-03-27,株式会社ｏｒｃａ　ｅｘｅｅｄ,,株式会社,広島県,広島市中区,榎町１０－１８コンツェルトシティ榎町３０２号室,,34,101,7300851,,,,,,,2024-03-27,1,,,,,オルカエクシード,0
1565,6290001105128,新規,0,2024-03-27,2024-03-27,Ｖａｌｕｅ　ＡＧＥＮＴ株式会社,,株式会社,福岡県,福岡市中央区,大名２丁目６番５０号福岡大名ガーデンシティ８Ｆ,,40,133,8100041,,,,,,,2024-03-27,1,,,,,ヴァリューエージェント,0
1566,6290001105136,新規,0,2024-03-27,2024-03-27,株式会社ＫＯＵＮＯＥ,,株式会社,福岡県,春日市,小倉１丁目１０番地カスタリアコテージＡ棟,,40,218,8160824,,,,,,,2024-03-27,1,,,,,コウノエ,0
1567,6290001105235,新規,0,2024-03-27,2024-03-27,株式会社Ｋ．Ｋ,,株式会社,福岡県,大野城市,つつじケ丘５丁目１０番３号,,40,219,8160962,,,,,,,2024-03-27,1,,,,,ケイケイ,0
1568,6290001105243,新規,0,2024-03-27,2024-03-27,株式会社Ｃｉｂｏ,,株式会社,福岡県,福岡市早良区,祖原２９‐１５プレアール祖原４Ｆ,,40,137,8140005,,,,,,,2024-03-27,1,,,,,チーボ,0
1569,6290001105251,新規,0,2024-03-27,2024-03-27,株式会社ポースフル,,株式会社,福岡県,福岡市中央区,白金１丁目３番１６－６０３号,,40,133,8100012,,,,,,,2024-03-27,1,,,,,ポースフル,0
1572,6290801030426,新規,0,2024-03-27,2024-03-27,株式会社ＩＲＯＨＡ,,株式会社,福岡県,北九州市八幡西区,本城２丁目１番４５号,,40,109,8070801,,,,,,,2024-03-27,1,,,,,イロハ,0
1583,6340003004413,新規,0,2024-03-27,2024-03-27,合同会社うつろひ,,合同会社,鹿児島県,曽於郡大崎町,假宿１０９１－１,,46,468,8997305,,,,,,,2024-03-27,1,,,,,ウツロヒ,0
1597,6380001034391,新規,0,2024-03-27,2024-03-27,株式会社Ｒｉｃｈｅ‐ＭａａＧｏ,,株式会社,福島県,本宮市,本宮字上町１５番地５,,07,214,9691134,,,,,,,2024-03-27,1,,,,,リッシュマーゴ,0
1608,6430003016127,新規,0,2024-03-27,2024-03-27,合同会社ＦＩＲＳＴ,,合同会社,北海道,札幌市北区,新琴似十一条３丁目４番３２－１号,,01,102,0010911,,,,,,,2024-03-27,1,,,,,ファースト,0
1609,6440003001581,新規,0,2024-03-27,2024-03-27,合同会社函館ストーリー,,合同会社,北海道,函館市,北美原２丁目４番１４号,,01,202,0410807,,,,,,,2024-03-27,1,,,,,ハコダテストーリー,0
1613,6470001020102,新規,0,2024-03-27,2024-03-27,株式会社ヴィンテージリバイバル,,株式会社,香川県,丸亀市,土器町東９丁目１５５番地,,37,202,7630082,,,,,,,2024-03-27,1,,,,,ヴィンテージリバイバル,0
1614,6470003002610,新規,0,2024-03-27,2024-03-27,Ｍ’ｓ合同会社,,合同会社,香川県,高松市,香川町大野９３９－３,,37,201,7611701,,,,,,,2024-03-27,1,,,,,エムズ,0
1619,6500001025535,新規,0,2024-03-27,2024-03-27,株式会社ＥＬＭＯ,,株式会社,愛媛県,今治市,大新田町５丁目３－２３,,38,202,7940005,,,,,,,2024-03-27,1,,,,,エルモ,0
1622,6700150124407,新規,0,2024-03-27,2024-03-13,全国農林水産再構築支援会設立準備室,,その他,神奈川県,横浜市中区,本牧町１丁目１３５セントラルハイツ３－Ａ,,14,104,2310806,,,,,,,2024-03-13,1,,,,,ゼンコクノウリンスイサンサイコウチクシエンカイセツリツジユンビシツ,0
1627,7010001243391,新規,0,2024-03-27,2024-03-27,リバイタルコンサルティング株式会社,,株式会社,東京都,千代田区,大手町１丁目７番２号東京サンケイビル２７階,,13,101,1000004,,,,,,,2024-03-27,1,,,,,リバイタルコンサルティング,0
1628,7010005038086,新規,0,2024-03-27,2024-03-27,一般社団法人ＥｎＲｅａｌｉｚｅ　Ｊａｐａｎ,,その他の設立登記法人,東京都,中央区,銀座１丁目１２番４号Ｎ＆ＥＢＬＤ．６Ｆ,,13,102,1040061,,,,,,,2024-03-27,1,,,,,エンリアライズジャパン,0
1639,7010401181209,新規,0,2024-03-27,2024-03-27,株式会社Ｂｅ‐ｋａｎ,,株式会社,東京都,港区,芝３丁目１番１５号,,13,103,1050014,,,,,,,2024-03-27,1,,,,,ビーカン,0
1643,7010403032236,新規,0,2024-03-27,2024-03-27,ＡＳＲ合同会社,,合同会社,東京都,港区,浜松町２丁目２番１５号浜松町ダイヤビル２Ｆ,,13,103,1050013,,,,,,,2024-03-27,1,,,,,エイエスアール,0
1644,7010403032269,新規,0,2024-03-27,2024-03-27,合同会社ＵＭＨ,,合同会社,東京都,港区,赤坂９丁目１番７－４５１号,,13,103,1070052,,,,,,,2024-03-27,1,,,,,ユーエムエイチ,0
1652,7010605004306,新規,0,2024-03-27,2024-03-27,一般社団法人日中＿清商工総会,00134203,その他の設立登記法人,東京都,江東区,大島９丁目４番２－１１０５号,,13,108,1360072,,,,,,,2024-03-27,1,,,,,ニッチュウミンセイショウコウソウカイ,0
1661,7010901054962,新規,0,2024-03-27,2024-03-27,株式会社想樹,,株式会社,東京都,世田谷区,松原５丁目５８番１７号,,13,112,1560043,,,,,,,2024-03-27,1,,,,,ソウキ,0
1662,7010901054970,新規,0,2024-03-27,2024-03-27,ネクシア株式会社,,株式会社,東京都,世田谷区,北沢５丁目３２番７号,,13,112,1550031,,,,,,,2024-03-27,1,,,,,ネクシア,0
1670,7011001160791,新規,0,2024-03-27,2024-03-27,株式会社ＭＡＴＲＡ,,株式会社,東京都,目黒区,自由が丘２丁目１６－１２ＲＪ３,,13,110,1520035,,,,,,,2024-03-27,1,,,,,マトラ,0
1671,7011001160825,新規,0,2024-03-27,2024-03-27,株式会社Ｖｉｅｔａ　Ｊｕｍｐｉｎｇ,,株式会社,東京都,渋谷区,道玄坂１丁目１０－８渋谷道玄坂東急ビル２Ｆ－Ｃ,,13,113,1500043,,,,,,,2024-03-27,1,,,,,ヴィエタジャンピング,0
1672,7011001160916,新規,0,2024-03-27,2024-03-27,株式会社グローカルポイント,,株式会社,東京都,渋谷区,神宮前２丁目２番２２号,,13,113,1500001,,,,,,,2024-03-27,1,,,,,グローカルポイント,0
1678,7011101106694,新規,0,2024-03-27,2024-03-27,株式会社Ｌｉｇｈｔａｇｅ,,株式会社,東京都,新宿区,歌舞伎町２丁目１４番８号メトロプラザ２、４Ｆ－Ａ,,13,104,1600021,,,,,,,2024-03-27,1,,,,,ライテージ,0
1680,7011103014276,新規,0,2024-03-27,2024-03-27,合同会社ユニエッジ,,合同会社,東京都,新宿区,西新宿３丁目３番１３号西新宿水間ビル６階,,13,104,1600023,,,,,,,2024-03-27,1,,,,,ユニエッジ,0
1681,7011201004303,新規,0,2024-03-27,2024-03-27,ニューハウスジャパン株式会社,,株式会社,東京都,中野区,東中野３丁目７番１０号,,13,114,1640003,,,,,,,2024-03-27,1,,,,,ニューハウスジャパン,0
1682,7011201025357,新規,0,2024-03-27,2024-03-27,日本コウリン株式会社,,株式会社,東京都,中野区,中野３丁目３番５号２階,,13,114,1640001,,,,,,,2024-03-27,1,,,,,ニッポンコウリン,0
1685,7011401025958,新規,0,2024-03-27,2024-03-27,サカエグローバル商事株式会社,,株式会社,東京都,板橋区,桜川２丁目４番４号,,13,119,1740075,,,,,,,2024-03-27,1,,,,,サカエグローバルショウジ,0
1691,7012301013846,新規,0,2024-03-27,2024-03-27,株式会社丈夫Ｓ’カンパニー,,株式会社,東京都,町田市,三輪町２７２番地５－２１６,,13,209,1950054,,,,,,,2024-03-27,1,,,,,ジョブズカンパニー,0
1700,7012403006475,新規,0,2024-03-27,2024-03-27,凪ラボ合同会社,,合同会社,東京都,多摩市,東寺方５６６番地の７,,13,224,2060003,,,,,,,2024-03-27,1,,,,,ナギラボ,0
1701,7012701018164,新規,0,2024-03-27,2024-03-27,株式会社ＦＩＶＥＬＡＴＥＲ,,株式会社,東京都,西東京市,東伏見２丁目１５番５－２０７号,,13,229,2020021,,,,,,,2024-03-27,1,,,,,ファイブレイター,0
1711,7020001156378,新規,0,2024-03-27,2024-03-27,百勝株式会社,,株式会社,神奈川県,横浜市中区,本牧町２丁目３０４加藤ビル３０３Ｂ号室,,14,104,2310806,,,,,,,2024-03-27,1,,,,,モモカツ,0
1712,7020001156436,新規,0,2024-03-27,2024-03-27,ｆｕｒｕ株式会社,,株式会社,神奈川県,横浜市西区,浅間町１丁目４番３号ウィザードビル４０２,,14,103,2200072,,,,,,,2024-03-27,1,,,,,フル,0
1713,7020001156460,新規,0,2024-03-27,2024-03-27,株式会社Ａｓｓｉｓｔ,,株式会社,神奈川県,横浜市港南区,芹が谷４丁目２番３３－５０３号,,14,111,2330006,,,,,,,2024-03-27,1,,,,,アシスト,0
1716,7020003025820,新規,0,2024-03-27,2024-03-27,吉浦商事合同会社,,合同会社,神奈川県,横浜市中区,野毛町３丁目１３３－６－３０１室,,14,104,2310064,,,,,,,2024-03-27,1,,,,,ヨシウラショウジ,0
1721,7021001081797,新規,0,2024-03-27,2024-03-27,日本ビジネスセンター株式会社,,株式会社,神奈川県,逗子市,桜山８丁目５番３９号,,14,208,2490005,,,,,,,2024-03-27,1,,,,,ニホンビジネスセンター,0
1722,7021001081814,新規,0,2024-03-27,2024-03-27,株式会社８７８７,,株式会社,神奈川県,大和市,深見３２１１番地８,,14,213,2420011,,,,,,,2024-03-27,1,,,,,ハナハナ,0
1724,7021003014318,新規,0,2024-03-27,2024-03-27,ＮＩＨＯＮ　ＮＡＴＩＯＮ　ＷＩＤＥ合同会社,,合同会社,神奈川県,厚木市,三田３丁目４番１５号グリーンコーポ２０１,,14,212,2430211,,,,,,,2024-03-27,1,,,,,ニホンネイションワイド,0
1728,7030001159446,新規,0,2024-03-27,2024-03-27,株式会社ＲＥＶＩＶＡＬ,,株式会社,埼玉県,川越市,大字天沼新田３３９－１６－１０１,,11,201,3500806,,,,,,,2024-03-27,1,,,,,リバイバル,0
1729,7030001159462,新規,0,2024-03-27,2024-03-27,株式会社近藤硝子工業所,,株式会社,埼玉県,富士見市,大字鶴馬２６２３番地２ソルティブラン３０１,,11,235,3540021,,,,,,,2024-03-27,1,,,,,コンドウガラスコウギョウショ,0
1730,7030003023848,新規,0,2024-03-27,2024-03-27,合同会社Ｔ’ｓ　ｐｈｅｒｅ　ｄｅｓｉｇｎ,,合同会社,埼玉県,南埼玉郡宮代町,東姫宮２丁目８番６号,,11,442,3450813,,,,,,,2024-03-27,1,,,,,ティーズフィアデザイン,0
1735,7040001132765,新規,0,2024-03-27,2024-03-27,株式会社Ｍ　ＴＯＷＮ,,株式会社,千葉県,千葉市若葉区,大宮台４丁目１２番７号,,12,104,2640015,,,,,,,2024-03-27,1,,,,,エムタウン,0
1736,7040001132848,新規,0,2024-03-27,2024-03-27,株式会社ＥＭＲ,,株式会社,千葉県,四街道市,めいわ２丁目３番３号,,12,228,2840043,,,,,,,2024-03-27,1,,,,,イーエムアール,0
1737,7040001132856,新規,0,2024-03-27,2024-03-27,エピックコントラクション株式会社,,株式会社,千葉県,市原市,東国分寺台３丁目５番地１２,,12,219,2900074,,,,,,,2024-03-27,1,,,,,エピックコントラクション,0
1738,7040001132864,新規,0,2024-03-27,2024-03-27,ライジング株式会社,,株式会社,千葉県,市原市,門前２丁目２１１番地３８,,12,219,2900016,,,,,,,2024-03-27,1,,,,,ライジング,0
1743,7040003024580,新規,0,2024-03-27,2024-03-27,合同会社ｌｉｅｎ,,合同会社,千葉県,柏市,あけぼの２丁目９番２０－Ｂ４０４号,,12,217,2770841,,,,,,,2024-03-27,1,,,,,リアン,0
1744,7040003024630,新規,0,2024-03-27,2024-03-27,ＣＡＲＰ　ＩＮＶＥＳＴＭＥＮＴ合同会社,,合同会社,千葉県,千葉市中央区,祐光２丁目７番１号千葉サニータウン１６１４号,,12,101,2600007,,,,,,,2024-03-27,1,,,,,カープインベストメント,0
1750,7050001054521,新規,0,2024-03-27,2024-03-27,株式会社ＨＩＧ,,株式会社,茨城県,日立市,久慈町３丁目３７番３－２０２号,,08,202,3191222,,,,,,,2024-03-27,1,,,,,エイチアイジー,0
1757,7060005010180,新規,0,2024-03-27,2024-03-27,医療法人関文館,,その他の設立登記法人,栃木県,宇都宮市,鶴田町１２９５番地２,,09,201,3200851,,,,,,,2024-03-27,1,,,,,セキブンカン,0
1775,7120001263107,新規,0,2024-03-27,2024-03-27,星禾株式会社,,株式会社,大阪府,大阪市阿倍野区,北畠３丁目７番３０号吉祥苑１０５号,,27,119,5450035,,,,,,,2024-03-27,1,,,,,ホシカ,0
1776,7120001263247,新規,0,2024-03-27,2024-03-27,株式会社ＰＥＬＩＣＡＮ,,株式会社,大阪府,大阪市北区,堂島１丁目４番６号,,27,127,5300003,,,,,,,2024-03-27,1,,,,,ペリカン,0
1777,7120001263370,新規,0,2024-03-27,2024-03-27,株式会社和ホーム,,株式会社,大阪府,大阪市西成区,千本中１丁目１番１４号,,27,122,5570054,,,,,,,2024-03-27,1,,,,,ナゴミホーム,0
1778,7120001263379,新規,0,2024-03-27,2024-03-27,株式会社モレストップ,,株式会社,大阪府,大阪市淀川区,三津屋北２丁目１１番５号,,27,123,5320032,,,,,,,2024-03-27,1,,,,,モレストップ,0
1779,7120001263420,新規,0,2024-03-27,2024-03-27,株式会社Ｌｉｌｙ　Ａｄｄｉｃｔｉｏｎ　Ｃｏｒｐ．,,株式会社,大阪府,大阪市北区,曾根崎２丁目１５番３１号ラ・トゥール大阪梅田,,27,127,5300057,,,,,,,2024-03-27,1,,,,,リリーアディクションコープ,0
1780,7120001263445,新規,0,2024-03-27,2024-03-27,Ｔ＆Ｇ物産投資株式会社,,株式会社,大阪府,大阪市中央区,島之内２丁目９番２１号１Ｆ,,27,128,5420082,,,,,,,2024-03-27,1,,,,,ティーアンドジーブッサントウシ,0
1781,7120001263503,新規,0,2024-03-27,2024-03-27,株式会社ラビット,,株式会社,大阪府,大阪市中央区,南本町３丁目２－１１日幸ビル６階,,27,128,5410054,,,,,,,2024-03-27,1,,,,,ラビット,0
1782,7120001263560,新規,0,2024-03-27,2024-03-27,ＧＦ　ＳＡＭＵＲＡＩ　ＨＯＬＤＩＮＧＳ株式会社,,株式会社,大阪府,大阪市中央区,難波４丁目１番１５号近鉄難波ビル一階,,27,128,5420076,,,,,,,2024-03-27,1,,,,,ジーエフサムライホールディングス,0
1783,7120001263585,新規,0,2024-03-27,2024-03-27,安達株式会社,,株式会社,大阪府,大阪市生野区,巽東４丁目７番３号,00134210,27,116,5440014,,,,,,,2024-03-27,1,,,,,アダチ,0
1786,7120003026255,新規,0,2024-03-27,2024-03-27,グッドスター合同会社,,合同会社,大阪府,大阪市旭区,生江２丁目５番３０号,,27,117,5350004,,,,,,,2024-03-27,1,,,,,グッドスター,0
1787,7120005024224,新規,0,2024-03-27,2024-03-27,一般社団法人全日本ハラール協会,,その他の設立登記法人,大阪府,大阪市中央区,南新町１丁目１番１号ＥＸＡ南新町ビル５Ｆ,,27,128,5400024,,,,,,,2024-03-27,1,,,,,ゼンニホンハラールキョウカイ,0
1794,7122001037936,新規,0,2024-03-27,2024-03-27,株式会社Ｕｎｉｔｅ　Ｓｔａｒｓ,,株式会社,大阪府,東大阪市,新池島町１丁目３番２号,,27,227,5798065,,,,,,,2024-03-27,1,,,,,ユナイトスターズ,0
1808,7140001133869,新規,0,2024-03-27,2024-03-27,株式会社アゥワーズ,,株式会社,兵庫県,丹波市,氷上町石生１５３番地３,,28,223,6693464,,,,,,,2024-03-27,1,,,,,アゥワーズ,0
1810,7140003020289,新規,0,2024-03-27,2024-03-27,合同会社すきま,,合同会社,兵庫県,神戸市中央区,相生町４丁目５番１６号神戸駅前ＡＴビル８階,,28,110,6500025,,,,,,,2024-03-27,1,,,,,スキマ,0
1811,7140005026978,新規,0,2024-03-27,2024-03-27,一般社団法人ユネスコ・ＪＡＰＡＮ,,その他の設立登記法人,兵庫県,姫路市,材木町１５番地３ロワイヤル船場１階,,28,201,6700025,,,,,,,2024-03-27,1,,,,,ユネスコジャパン,0
1812,7150003003210,新規,0,2024-03-27,2024-03-27,ハ・パートナーズ合同会社,,合同会社,奈良県,吉野郡東吉野村,大字小川８２４番地の１,,29,453,6332421,,,,,,,2024-03-27,1,,,,,ハパートナーズ,0
1816,7170003002012,新規,0,2024-03-27,2024-03-27,合同会社Ｆ,,合同会社,和歌山県,有田郡湯浅町,大字山田１６８番地２,,30,361,6430001,,,,,,,2024-03-27,1,,,,,エフ,0
1826,7180001160744,新規,0,2024-03-27,2024-03-27,株式会社ギッシュＭ,,株式会社,愛知県,小牧市,大字村中１００４番地の２,,23,219,4850082,,,,,,,2024-03-27,1,,,,,ギッシュエム,0
1828,7180003026547,新規,0,2024-03-27,2024-03-27,合同会社ＫＩネットワーク,,合同会社,愛知県,江南市,江森町中１９２英夏１０３,,23,217,4838048,,,,,,,2024-03-27,1,,,,,ケーアイネットワーク,0
1830,7180303006059,新規,0,2024-03-27,2024-03-27,合同会社ニシアフィリエイト,,合同会社,愛知県,知立市,鳥居２丁目２番地１６,,23,225,4720055,,,,,,,2024-03-27,1,,,,,ニシアフィリエイト,0
1831,7190001031218,新規,0,2024-03-27,2024-03-27,株式会社ＳＩＮＡＴＡ,,株式会社,三重県,桑名市,大字東方１４５４番地７,,24,205,5110811,,,,,,,2024-03-27,1,,,,,シナタ,0
1833,7200001042320,新規,0,2024-03-27,2024-03-27,株式会社ＹＳＫ,,株式会社,岐阜県,山県市,高富１７１０番地,,21,215,5012105,,,,,,,2024-03-27,1,,,,,ワイエスケー,0
1836,7210001019697,新規,0,2024-03-27,2024-03-27,株式会社リクリア,,株式会社,福井県,坂井市,丸岡町猪爪３丁目２１４番地１,,18,210,9100303,,,,,,,2024-03-27,1,,,,,リクリア,0
1841,7260001038890,新規,0,2024-03-27,2024-03-27,株式会社ミックランドソリューションズ,,株式会社,岡山県,倉敷市,玉島乙島４３７６番地１,,33,202,7138103,,,,,,,2024-03-27,1,,,,,ミックランドソリューションズ,0
1843,7260003004627,新規,0,2024-03-27,2024-03-27,合同会社ｙａｍａｏｋａ,,合同会社,岡山県,岡山市北区,本町９番２０号,,33,101,7000901,,,,,,,2024-03-27,1,,,,,ヤマオカ,0
1845,7280001009139,新規,0,2024-03-27,2024-03-27,株式会社飯塚建築,,株式会社,島根県,出雲市,乙立町２４５０番地,,32,203,6930216,,,,,,,2024-03-27,1,,,,,イイツカケンチク,0
1851,7290001105234,新規,0,2024-03-27,2024-03-27,ＳＯＤＡＴＥ株式会社,,株式会社,福岡県,福岡市博多区,住吉１丁目２番２５号,,40,132,8120018,,,,,,,2024-03-27,1,,,,,ソダテ,0
1852,7290003015134,新規,0,2024-03-27,2024-03-27,合同会社大成,,合同会社,福岡県,福岡市東区,東浜１丁目１３番７－２０２号オリエントビルＮＯ．９３マリナゲート,,40,131,8120055,,,,,,,2024-03-27,1,,,,,タイセイ,0
1853,7290005019331,新規,0,2024-03-27,2024-03-27,エバーライフ久留米南管理組合法人,,その他の設立登記法人,福岡県,久留米市,野中町１３９８番地１,,40,203,8390862,,,,,,,2024-03-27,1,,,,,エバーライフクルメミナミ,0
1865,7330001031905,新規,0,2024-03-27,2024-03-27,株式会社和広建設,,株式会社,熊本県,宇土市,北段原町１９１番地５,,43,211,8690451,,,,,,,2024-03-27,1,,,,,ワコウケンセツ,0
1877,7350001018859,新規,0,2024-03-27,2024-03-27,ＯＮＳＥＮ　Ｆａｃｔｏｒｙ株式会社,,株式会社,宮崎県,小林市,南西方９６５番地１４,,45,205,8860005,,,,,,,2024-03-27,1,,,,,オンセンファクトリー,0
1881,7360003013824,新規,0,2024-03-27,2024-03-27,合同会社ゆいコンタクト,,合同会社,沖縄県,うるま市,字喜屋武４６７番地１,,47,213,9042225,,,,,,,2024-03-27,1,,,,,ユイコンタクト,0
1886,7370003006538,新規,0,2024-03-27,2024-03-27,合同会社ＢｔｈｅＢ,,合同会社,宮城県,仙台市青葉区,柏木２丁目６－６０クライネブルグ１０３,,04,101,9810933,,,,,,,2024-03-27,1,,,,,ビーザビー,0
1892,7380001034390,新規,0,2024-03-27,2024-03-27,株式会社ヒカリ不動産,,株式会社,福島県,いわき市,平字倉前１０９番地の１０,,07,204,9708026,,,,,,,2024-03-27,1,,,,,ヒカリフドウサン,0
1893,7400001016601,新規,0,2024-03-27,2024-03-27,株式会社あさひ堂,,株式会社,岩手県,上閉伊郡大槌町,赤浜１丁目２２６,,03,461,0281102,,,,,,,2024-03-27,1,,,,,アサヒドウ,0
1895,7410005006572,新規,0,2024-03-27,2024-03-27,農事組合法人アグレンジャー,,その他の設立登記法人,秋田県,仙北郡美郷町,浪花字田ノ沢２７,,05,434,0191501,,,,,,,2024-03-27,1,,,,,アグレンジャー,0
1899,7430001091393,新規,0,2024-03-27,2024-03-27,株式会社蒼進,,株式会社,北海道,室蘭市,宮の森町２丁目１１番７号,,01,205,0500073,,,,,,,2024-03-27,1,,,,,ソウシン,0
1901,7430003016101,新規,0,2024-03-27,2024-03-27,アンドエム合同会社,,合同会社,北海道,札幌市手稲区,星置一条６丁目１１番１３号,,01,109,0060851,,,,,,,2024-03-27,1,,,,,アンドエム,0
1902,7430003016134,新規,0,2024-03-27,2024-03-27,合同会社みのり,,合同会社,北海道,苫小牧市,春日町１丁目３－４,,01,213,0530031,,,,,,,2024-03-27,1,,,,,ミノリ,0
1910,7700150100910,新規,0,2024-03-27,2020-11-06,奄美大島雇用創造協議会,,その他,鹿児島県,奄美市,名瀬浦上町４８－１（２Ｆ）,,46,222,8940068,,,,,,,2020-11-06,1,,,,,アマミオオシマコヨウソウゾウキヨウギカイ,0
1923,8010001243416,新規,0,2024-03-27,2024-03-27,ＥａｓｔＣｌｏｕｄ株式会社,,株式会社,東京都,千代田区,神田淡路町１丁目９－５天翔御茶ノ水ビル５０５号室,,13,101,1010063,,,,,,,2024-03-27,1,,,,,イーストクラウド,0
1924,8010001243507,新規,0,2024-03-27,2024-03-27,ＮＯＶＥＬ　ＪＯＵＲＮＥＹ株式会社,,株式会社,東京都,中央区,日本橋茅場町１丁目８－１,,13,102,1030025,,,,,,,2024-03-27,1,,,,,ノベルジャーニー,0
1925,8010005038069,新規,0,2024-03-27,2024-03-27,一般社団法人がん医療創生機構,,その他の設立登記法人,東京都,中央区,日本橋本町３丁目８番５号,,13,102,1030023,,,,,,,2024-03-27,1,,,,,ガンイリョウソウセイキコウ,0
1935,8010401181117,新規,0,2024-03-27,2024-03-27,株式会社ｋｙｏｋｏ　ｂｅａｕｔｙ　ｌａｂｏ,,株式会社,東京都,港区,麻布十番１丁目４番８号－４０３号室,,13,103,1060045,,,,,,,2024-03-27,1,,,,,キョウコビューティラボ,0
1936,8010401181372,新規,0,2024-03-27,2024-03-27,株式会社こころアシスト,,株式会社,東京都,港区,北青山１丁目３番１号アールキューブ青山３階,,13,103,1070061,,,,,,,2024-03-27,1,,,,,ココロアシスト,0
1941,8010501052003,新規,0,2024-03-27,2024-03-27,株式会社ＹｏＫｕＲｙｕ,,株式会社,東京都,台東区,清川１丁目２１－５ＷＡＬＬａｐａｒｔｍｅｎｔ５階大区画号室,,13,106,1110022,,,,,,,2024-03-27,1,,,,,ヨクリュ,0
1943,8010701045764,新規,0,2024-03-27,2024-03-27,株式会社ｎｕｉ,,株式会社,東京都,品川区,東品川４丁目５番８－１２０９号,,13,109,1400002,,,,,,,2024-03-27,1,,,,,ヌイ,0
1948,8010901054929,新規,0,2024-03-27,2024-03-27,ｔａｔａ株式会社,,株式会社,東京都,世田谷区,野沢４丁目２４－１－１４０５,,13,112,1540003,,,,,,,2024-03-27,1,,,,,タタ,0
1949,8010901054961,新規,0,2024-03-27,2024-03-27,ＵＫ建設株式会社,,株式会社,東京都,世田谷区,南烏山６丁目４番１４－１００３号,,13,112,1570062,,,,,,,2024-03-27,1,,,,,ユーケーケンセツ,0
1956,8011001160915,新規,0,2024-03-27,2024-03-27,株式会社インパクトアコースティックジャパン,,株式会社,東京都,目黒区,八雲２丁目１番１８号,,13,110,1520023,,,,,,,2024-03-27,1,,,,,インパクトアコースティックジャパン,0
1958,8011005010439,新規,0,2024-03-27,2024-03-27,一般社団法人日本モメンタム協会,,その他の設立登記法人,東京都,渋谷区,東２丁目２０－１３シャトレー渋谷３０１,,13,113,1500011,,,,,,,2024-03-27,1,,,,,ニホンモメンタムキョウカイ,0
1961,8011105010982,新規,0,2024-03-27,2024-03-27,一般社団法人国際福祉研究機構ザ・チャレンジド,,その他の設立登記法人,東京都,新宿区,西新宿４丁目３２番１１－５０５号,,13,104,1600023,,,,,,,2024-03-27,1,,,,,コクサイフクシケンキュウキコウザチャレンジド,0
1966,8011303005108,新規,0,2024-03-27,2024-03-27,ＡＢＳＵ合同会社,,合同会社,東京都,杉並区,阿佐谷南２丁目１６番９号,,13,115,1660004,,,,,,,2024-03-27,1,,,,,エビス,0
1967,8011401025957,新規,0,2024-03-27,2024-03-27,Ｔ・Ｌコンサルティング株式会社,,株式会社,東京都,板橋区,前野町３丁目７－６ホワイト前野町Ｂ１,,13,119,1740063,,,,,,,2024-03-27,1,,,,,ティーエルコンサルティング,0
1968,8011403004315,新規,0,2024-03-27,2024-03-27,合同会社ＭＺ総合,,合同会社,東京都,板橋区,加賀２丁目１４番７号,,13,119,1730003,,,,,,,2024-03-27,1,,,,,エムゼットソウゴウ,0
1969,8011501030485,新規,0,2024-03-27,2024-03-27,康美雅株式会社,,株式会社,東京都,荒川区,町屋３丁目１８番１２号ＮＤビル２０８,,13,118,1160001,,,,,,,2024-03-27,1,,,,,コウビガ,0
1970,8011601027646,新規,0,2024-03-27,2024-03-27,株式会社ＢＥＥＴＳ,,株式会社,東京都,練馬区,中村北３丁目３番１３－３０１号,,13,120,1760023,,,,,,,2024-03-27,1,,,,,ビーツ,0
1974,8011801043988,新規,0,2024-03-27,2024-03-27,Ｓｈｏｗ　Ａｎｎ株式会社,,株式会社,東京都,葛飾区,高砂６丁目１３番２号パレドール高砂２１０号,,13,122,1250054,,,,,,,2024-03-27,1,,,,,ショーアン,0
1976,8012801023047,新規,0,2024-03-27,2024-03-27,日禾精工株式会社,,株式会社,東京都,立川市,錦町６丁目８番２１号第１さくらビル,,13,202,1900022,,,,,,,2024-03-27,1,,,,,ニッカセイコウ,0
1977,8013101009380,新規,0,2024-03-27,2024-03-27,中村建築株式会社,,株式会社,東京都,あきる野市,上代継２７８番地１,,13,228,1970832,,,,,,,2024-03-27,1,,,,,ナカムラケンチク,0
1986,8020001156435,新規,0,2024-03-27,2024-03-27,株式会社オリツル,,株式会社,神奈川県,横浜市中区,末吉町１丁目３－１第二小此木ビル１階,,14,104,2310055,,,,,,,2024-03-27,1,,,,,オリツル,0
1995,8021001081813,新規,0,2024-03-27,2024-03-27,株式会社大津設備,,株式会社,神奈川県,海老名市,東柏ケ谷３丁目１１番９号アーバン大河原２０２号,,14,215,2430401,,,,,,,2024-03-27,1,,,,,オオツセツビ,0
1997,8021005013052,新規,0,2024-03-27,2024-03-27,ＮＰＯ法人いごこちよか,,その他の設立登記法人,神奈川県,相模原市緑区,下九沢２７４番地３２,,14,151,2520134,,,,,,,2024-03-27,1,,,,,イゴコチヨカ,0
2001,8030001159214,新規,0,2024-03-27,2024-03-27,株式会社Ｓ・Ｉテクノ,,株式会社,埼玉県,川越市,寿町１丁目２４６０－４,,11,201,3501116,,,,,,,2024-03-27,1,,,,,エスアイテクノ,0
2002,8030001159420,新規,0,2024-03-27,2024-03-27,株式会社ムサシ商事,,株式会社,埼玉県,比企郡吉見町,大字上細谷２９４番地,,11,347,3550165,,,,,,,2024-03-27,1,,,,,ムサシショウジ,0
2003,8030001159429,新規,0,2024-03-27,2024-03-27,株式会社ＲＯＤ,,株式会社,埼玉県,川口市,八幡木２丁目２８番地の１３,,11,203,3340012,,,,,,,2024-03-27,1,,,,,アールオーディー,0
2004,8030001159461,新規,0,2024-03-27,2024-03-27,株式会社鳶建,,株式会社,埼玉県,川口市,坂下町２丁目６番１３号プラウ鳩ヶ谷２０７号,,11,203,3340003,,,,,,,2024-03-27,1,,,,,トビケン,0
2005,8030003023905,新規,0,2024-03-27,2024-03-27,合同会社ｗｉｔｈ,,合同会社,埼玉県,富士見市,関沢２丁目１４番４号,,11,235,3540025,,,,,,,2024-03-27,1,,,,,ウィズ,0
2006,8030003023913,新規,0,2024-03-27,2024-03-27,ＭＫＴＥＣＨ合同会社,,合同会社,埼玉県,川口市,大字里１４７０番地の６,,11,203,3340005,,,,,,,2024-03-27,1,,,,,エムケイテック,0
2009,8040001132855,新規,0,2024-03-27,2024-03-27,株式会社Ｍａｓｓｙ,,株式会社,千葉県,松戸市,小金原１丁目２８番地の２１,,12,207,2700021,,,,,,,2024-03-27,1,,,,,マッシィ,0
2010,8040001132863,新規,0,2024-03-27,2024-03-27,Ｇｌｏｂａｌ　ｉｎｔｅｒｎａｔｉｏｎａｌ株式会社,,株式会社,千葉県,野田市,清水６７０番地の５１,,12,208,2780043,,,,,,,2024-03-27,1,,,,,グローバルインターナショナル,0
2022,8050001054512,新規,0,2024-03-27,2024-03-27,ＧＯＯＤ　ＬＩＦＥ　ＨＯＬＤＩＮＧＳ株式会社,,株式会社,茨城県,取手市,西１丁目３８番１４号,,08,217,3020025,,,,,,,2024-03-27,1,,,,,グッドライフホールディングス,0
2023,8050001054520,新規,0,2024-03-27,2024-03-27,株式会社高正,00134202,株式会社,茨城県,水戸市,塩崎町８８４番地の１,,08,201,3111114,,,,,,,2024-03-27,1,,,,,タカショウ,0
2027,8050005013415,新規,0,2024-03-27,2024-03-27,一般社団法人Ｂｅｓｈａ茨城,,その他の設立登記法人,茨城県,常陸大宮市,東野４３８０番地の１,,08,225,3192224,,,,,,,2024-03-27,1,,,,,ビーシャイバラキ,0
2029,8060003004984,新規,0,2024-03-27,2024-03-27,いづめ合同会社,,合同会社,栃木県,宇都宮市,東宝木町１－３,,09,201,3200062,,,,,,,2024-03-27,1,,,,,イヅメ,0
2033,8080401027081,新規,0,2024-03-27,2024-03-27,株式会社駒場ファーム,,株式会社,静岡県,磐田市,駒場９９８番地,,22,211,4380233,,,,,,,2024-03-27,1,,,,,コマバファーム,0
2040,8100003007462,新規,0,2024-03-27,2024-03-27,合同会社太陽,,合同会社,長野県,茅野市,仲町９番１１号,,20,214,3910005,,,,,,,2024-03-27,1,,,,,タイヨウ,0
2049,8120001263089,新規,0,2024-03-27,2024-03-27,株式会社ＧＰトラスト,,株式会社,大阪府,大阪市東成区,深江南３丁目２２番２７号,,27,115,5370002,,,,,,,2024-03-27,1,,,,,ジーピートラスト,0
2050,8120001263262,新規,0,2024-03-27,2024-03-27,Ｓ‐ＦＵＳｉＯＮ株式会社,,株式会社,大阪府,大阪市住吉区,帝塚山西４丁目４番３０号,,27,120,5580052,,,,,,,2024-03-27,1,,,,,エスフュージョン,0
2051,8120001263329,新規,0,2024-03-27,2024-03-27,株式会社プロギーク,,株式会社,大阪府,大阪市北区,天神橋３丁目２番９号川那辺ビル７階,,27,127,5300041,,,,,,,2024-03-27,1,,,,,プロギーク,0
2052,8120001263436,新規,0,2024-03-27,2024-03-27,株式会社ＯＷＥＮ,,株式会社,大阪府,大阪市中央区,玉造１丁目２３番１５号,,27,128,5400004,,,,,,,2024-03-27,1,,,,,オウエン,0
2053,8120001263444,新規,0,2024-03-27,2024-03-27,株式会社ＳＴＥＬＬＡ,,株式会社,大阪府,大阪市港区,三先２丁目１３番４号,,27,107,5520016,,,,,,,2024-03-27,1,,,,,ステラ,0
2054,8120001263452,新規,0,2024-03-27,2024-03-27,誠企業株式会社,,株式会社,大阪府,大阪市天王寺区,悲田院町４－３９朝日プラザ天王寺パサージュ７０４号室,,27,109,5430055,,,,,,,2024-03-27,1,,,,,セイキギョウ,0
2055,8120001263493,新規,0,2024-03-27,2024-03-27,雲善物語株式会社,,株式会社,大阪府,大阪市西区,江之子島１丁目８番２０号福和楽ビル５Ｆ,,27,106,5500006,,,,,,,2024-03-27,1,,,,,ウンゼンモノガタリ,0
2056,8120001263551,新規,0,2024-03-27,2024-03-27,ＮＡＳＨＩＴＡＩ株式会社,,株式会社,大阪府,大阪市中央区,南船場４丁目５番３号,,27,128,5420081,,,,,,,2024-03-27,1,,,,,ナシタイ,0
2057,8120001263584,新規,0,2024-03-27,2024-03-27,株式会社リーフ,,株式会社,大阪府,大阪市中央区,久太郎町３丁目４番３号,,27,128,5410056,,,,,,,2024-03-27,1,,,,,リーフ,0
2062,8120101069295,新規,0,2024-03-27,2024-03-27,株式会社ＧＯ　ＡＲＯＵＮＤ,,株式会社,大阪府,堺市中区,土塔町２０００番地２０,,27,142,5998234,,,,,,,2024-03-27,1,,,,,ゴーアラウンド,0
2063,8120101069304,新規,0,2024-03-27,2024-03-27,ＫＡＮ　ＧＬＯＢＡＬ　ＪＡＰＡＮ株式会社,,株式会社,大阪府,堺市西区,津久野町１丁１－１,,27,144,5938322,,,,,,,2024-03-27,1,,,,,カングローバルジャパン,0
2066,8122001037951,新規,0,2024-03-27,2024-03-27,スリーエス株式会社,,株式会社,大阪府,八尾市,太田新町５丁目２２番地の７,,27,212,5810039,,,,,,,2024-03-27,1,,,,,スリーエス,0
2071,8130001076688,新規,0,2024-03-27,2024-03-27,株式会社徳村建設,,株式会社,京都府,京都市南区,吉祥院西ノ庄東屋敷町１３２番地４,,26,107,6018311,,,,,,,2024-03-27,1,,,,,トクムラケンセツ,0
2083,8170001018067,新規,0,2024-03-27,2024-03-27,株式会社ＳＳＤホールディング,,株式会社,和歌山県,和歌山市,新高町８番１９号,,30,201,6410034,,,,,,,2024-03-27,1,,,,,エスエスディホールディング,0
2084,8170003002011,新規,0,2024-03-27,2024-03-27,合同会社ＫＩＮＯＥ,,合同会社,和歌山県,御坊市,薗３１４番地２,,30,205,6440002,,,,,,,2024-03-27,1,,,,,キノエ,0
2097,8180001160693,新規,0,2024-03-27,2024-03-27,株式会社サムズアップ,,株式会社,愛知県,東海市,荒尾町油田６番地２エスペランタ聚楽園３０２,,23,222,4760003,,,,,,,2024-03-27,1,,,,,サムズアップ,0
2098,8180001160735,新規,0,2024-03-27,2024-03-27,株式会社ＦＦＩＯ,,株式会社,愛知県,名古屋市北区,水草町１丁目２３番地（モネ水草４０３号）,,23,103,4620042,,,,,,,2024-03-27,1,,,,,エフエフアイオー,0
2100,8180003026505,新規,0,2024-03-27,2024-03-27,合同会社Ｍｅｔｅｏｒ,,合同会社,愛知県,名古屋市中区,栄５丁目１９番２４号プレサンスＴｈｅ栄５０２号,,23,106,4600008,,,,,,,2024-03-27,1,,,,,メテオ,0
2101,8180005020563,新規,0,2024-03-27,2024-03-27,医療法人田中クリニック,,その他の設立登記法人,愛知県,名古屋市熱田区,三本松町１２番２２号中京メディカルビル１階,,23,109,4560032,,,,,,,2024-03-27,1,,,,,タナカクリニック,0
2103,8190003004617,新規,0,2024-03-27,2024-03-27,合同会社リベス,,合同会社,三重県,鈴鹿市,東磯山４丁目９‐２７ベルシーナ鈴鹿Ａ１０３,,24,207,5100257,,,,,,,2024-03-27,1,,,,,リベス,0
2104,8190005011925,新規,0,2024-03-27,2024-03-27,特定非営利活動法人美里水源の森を育む会,,その他の設立登記法人,三重県,津市,美里町南長野字栃谷６７４番地「美里水源の森」内,,24,201,5142114,,,,,,,2024-03-27,1,,,,,スイゲンノモリヲハグクムカイ,0
2111,8260005011331,新規,0,2024-03-27,2024-03-27,一般社団法人未来をつなぐ子どもたちへＤｅｓｉｒ,,その他の設立登記法人,岡山県,倉敷市,中帯江３０５番地,,33,202,7100013,,,,,,,2024-03-27,1,,,,,ミライヲツナグコドモタチヘデジー,0
2118,8290001105134,新規,0,2024-03-27,2024-03-27,株式会社Ｉｎｎｏｖａｔｉｏｎ　Ｃａｒｅｅｒｓ　Ｌａｂ．,,株式会社,福岡県,福岡市中央区,高砂１丁目１番２５号ニューガイアオフィス天神１００５,,40,133,8100011,,,,,,,2024-03-27,1,,,,,イノベーションキャリアーズラボ,0
2119,8290001105175,新規,0,2024-03-27,2024-03-27,創建株式会社,,株式会社,福岡県,福岡市博多区,博多駅前１丁目２３番２号ＰａｒｋＦｒｏｎｔ博多駅前１丁目５Ｆ－Ｂ,,40,132,8120011,,,,,,,2024-03-27,1,,,,,ソウケン,0
2120,8290001105191,新規,0,2024-03-27,2024-03-27,日本楽盛株式会社,,株式会社,福岡県,福岡市博多区,博多駅前２丁目１７－１４ライオンズマンション博多駅前３０８号室,,40,132,8120011,,,,,,,2024-03-27,1,,,,,ニホンラクセイ,0
2121,8290001105233,新規,0,2024-03-27,2024-03-27,ＴＥＡ　ＢＲＥＥＺＥ株式会社,,株式会社,福岡県,福岡市中央区,赤坂１丁目８－２３,,40,133,8100042,,,,,,,2024-03-27,1,,,,,ティーブリーズ,0
2122,8290001105241,新規,0,2024-03-27,2024-03-27,株式会社リューショウ,,株式会社,福岡県,福岡市中央区,渡辺通５丁目２４番３０号,,40,133,8100004,,,,,,,2024-03-27,1,,,,,リューショウ,0
2136,8350003004600,新規,0,2024-03-27,2024-03-27,合同会社ＨＡＲＡＤＡ,,合同会社,宮崎県,都城市,宮丸町３１３１番地２８宮丸マンションきらはＡ棟１０３号,,45,202,8850078,,,,,,,2024-03-27,1,,,,,ハラダ,0
2137,8360001033393,新規,0,2024-03-27,2024-03-27,株式会社エコファーム沖縄,,株式会社,沖縄県,中頭郡北中城村,字安谷屋１９３４,,47,327,9012316,,,,,,,2024-03-27,1,,,,,エコファームオキナワ,0
2138,8360001033402,新規,0,2024-03-27,2024-03-27,株式会社佐野興業,,株式会社,沖縄県,那覇市,金城２丁目３番６号ラ・ルーチェ金城Ｂ１,,47,201,9010155,,,,,,,2024-03-27,1,,,,,サノコウギョウ,0
2143,8370003006537,新規,0,2024-03-27,2024-03-27,合同会社ｔｗｏ　Ｕ,,合同会社,宮城県,仙台市太白区,泉崎２丁目１９番１１－３０２,,04,104,9820031,,,,,,,2024-03-27,1,,,,,ツユ,0
2152,8420001018652,新規,0,2024-03-27,2024-03-27,株式会社にほんのさかな,,株式会社,青森県,下北郡大間町,大字大間字細間２３－６５,,02,423,0394601,,,,,,,2024-03-27,1,,,,,ニホンノサカナ,0
2158,8430003016133,新規,0,2024-03-27,2024-03-27,合同会社ＹＵＭ　ＯＲＧＡＮＩＣ,,合同会社,北海道,札幌市中央区,宮の森一条１５丁目５番３４号,,01,101,0640951,,,,,,,2024-03-27,1,,,,,ヤムオーガニック,0
2161,8470003002609,新規,0,2024-03-27,2024-03-27,ＳＴＵ　ＴＩＭＥＳ合同会社,,合同会社,香川県,高松市,川島東町２４－１８,,37,201,7610443,,,,,,,2024-03-27,1,,,,,エスティーユータイムズ,0
2162,8500001025533,新規,0,2024-03-27,2024-03-27,株式会社有田モータース,,株式会社,愛媛県,松山市,粟井河原３３１番地１,,38,201,7992463,,,,,,,2024-03-27,1,,,,,アリタモータース,0
2167,9010001243431,新規,0,2024-03-27,2024-03-27,ビースター保険代理株式会社,,株式会社,東京都,中央区,日本橋人形町１丁目６番１０号ユニコム人形町ビル９Ｆ,,13,102,1030013,,,,,,,2024-03-27,1,,,,,ビースターホケンダイリ,0
2168,9010001243480,新規,0,2024-03-27,2024-03-27,株式会社Ｇ・Ｃ,,株式会社,東京都,中央区,銀座５丁目９番１２号,,13,102,1040061,,,,,,,2024-03-27,1,,,,,ジーシー,0
2171,9010003043326,新規,0,2024-03-27,2024-03-27,松飛台プロジェクト合同会社,,合同会社,東京都,千代田区,内神田１丁目３番７号４０１あすな会計事務所内,,13,101,1010047,,,,,,,2024-03-27,1,,,,,マツヒダイプロジェクト,0
2173,9010005038092,新規,0,2024-03-27,2024-03-27,一般社団法人星池橋ホテルズ,,その他の設立登記法人,東京都,中央区,銀座２丁目１０番８号マニエラ銀座ビル４階,,13,102,1040061,,,,,,,2024-03-27,1,,,,,ホシイケバシホテルズ,0
2184,9010401181339,新規,0,2024-03-27,2024-03-27,株式会社ｍｉｖ,,株式会社,東京都,港区,南青山２丁目２番１５号,,13,103,1070062,,,,,,,2024-03-27,1,,,,,ミヴ,0
2187,9010405023090,新規,0,2024-03-27,2024-03-27,医療法人社団かりん,,その他の設立登記法人,東京都,港区,麻布十番４丁目６番８号麻布十番アクティブビル３階,,13,103,1060045,,,,,,,2024-03-27,1,,,,,カリン,0
2193,9010701045763,新規,0,2024-03-27,2024-03-27,株式会社天王洲オプティカルカレッジ,,株式会社,東京都,品川区,東品川２丁目２番８号スフィアタワー天王洲１３階,,13,109,1400002,,,,,,,2024-03-27,1,,,,,テンノウズオプティカルカレッジ,0
2199,9010901054969,新規,0,2024-03-27,2024-03-27,株式会社田中屋バイオコミュニケーションズ,,株式会社,東京都,世田谷区,三軒茶屋１丁目２７番２１号,,13,112,1540024,,,,,,,2024-03-27,1,,,,,タナカヤバイオコミュニケーションズ,0
2212,9011003018796,新規,0,2024-03-27,2024-03-27,合同会社Ｒ‐ｆａｃｔｏｒｙ,,合同会社,東京都,渋谷区,渋谷２丁目１９－１５宮益坂ビルディング６０９,,13,113,1500002,,,,,,,2024-03-27,1,,,,,アールファクトリー,0
2213,9011005010438,新規,0,2024-03-27,2024-03-27,税理士法人Ａｄｍｏｔｔｏ,,その他の設立登記法人,東京都,渋谷区,神泉町２０番２１号クロスシー渋谷神泉ビル６－２,,13,113,1500045,,,,,,,2024-03-27,1,,,,,アドモット,0
2228,9011601027645,新規,0,2024-03-27,2024-03-27,株式会社Ｓｕｍｍｅｒ,,株式会社,東京都,練馬区,桜台３丁目６番８－５１０号ライオンズガーデン,,13,120,1760002,,,,,,,2024-03-27,1,,,,,サマー,0
2239,9012301013844,新規,0,2024-03-27,2024-03-27,アーバンＤＸ株式会社,,株式会社,東京都,町田市,能ヶ谷６丁目１０番１０号,,13,209,1950053,,,,,,,2024-03-27,1,,,,,アーバンディーエクス,0
2244,9013301052262,新規,0,2024-03-27,2024-03-27,株式会社ｅｌｅｐｈａｎｔｓ,,株式会社,東京都,豊島区,駒込１丁目３７番１２号,,13,116,1700003,,,,,,,2024-03-27,1,,,,,エレファンツ,0
2252,9020003025785,新規,0,2024-03-27,2024-03-27,合同会社ジー・ティ・エー,,合同会社,神奈川県,川崎市宮前区,西野川３丁目２５番２５号,,14,136,2160044,,,,,,,2024-03-27,1,,,,,ジーティエー,0
2253,9020003025819,新規,0,2024-03-27,2024-03-27,東和合同会社,,合同会社,神奈川県,横浜市港北区,新吉田東６丁目１８番６号,,14,109,2230058,,,,,,,2024-03-27,1,,,,,トウワ,0
2256,9020005016329,新規,0,2024-03-27,2024-03-27,一般社団法人横濱ＵＳＡの会,,その他の設立登記法人,神奈川県,横浜市都筑区,中川３丁目３６番３号ＫＤマンション３０２,,14,118,2240001,,,,,,,2024-03-27,1,,,,,ヨコハマウサノカイ,0
2260,9021001081804,新規,0,2024-03-27,2024-03-27,株式会社ＪＹ　ＣＯＭＰＡＮＹ,,株式会社,神奈川県,平塚市,紅谷町４番１９号,,14,203,2540043,,,,,,,2024-03-27,1,,,,,ジェイワイカンパニー,0
2261,9021001081812,新規,0,2024-03-27,2024-03-27,株式会社Ｓ．Ｔ．Ｆａｃｔｏｒｙ,,株式会社,神奈川県,鎌倉市,植木５０１－７７,,14,204,2470073,,,,,,,2024-03-27,1,,,,,エスティーファクトリー,0
2262,9021001081820,新規,0,2024-03-27,2024-03-27,株式会社イーグル,,株式会社,神奈川県,横須賀市,金谷３丁目４番８号２Ｆ,,14,201,2380034,,,,,,,2024-03-27,1,,,,,イーグル,0
2265,9021003014316,新規,0,2024-03-27,2024-03-27,合同会社ｍｒ．ＳｔｏｎｅＦｉｅｌｄＤｒａｇｏｎ,,合同会社,神奈川県,三浦市,南下浦町上宮田１４４５－９,,14,210,2380101,,,,,,,2024-03-27,1,,,,,ミスターストーンフィールドドラゴン,0
2266,9021005013051,新規,0,2024-03-27,2024-03-27,特定非営利活動法人アジア食環境持続化支援協会,,その他の設立登記法人,神奈川県,茅ヶ崎市,ひばりが丘三丁目８番,,14,207,2530027,,,,,,,2024-03-27,1,,,,,アジアショクカンキョウジゾクカシエンキョウカイ,0
2269,9030001159452,新規,0,2024-03-27,2024-03-27,株式会社ｙ’ｓ　ｐｒｉｍｅ,,株式会社,埼玉県,児玉郡上里町,大字金久保１９０番地５,,11,385,3690301,,,,,,,2024-03-27,1,,,,,ワイズプライム,0
2270,9030001159485,新規,0,2024-03-27,2024-03-27,２２株式会社,,株式会社,埼玉県,富士見市,水谷東３丁目４１番１３号,,11,235,3540013,,,,,,,2024-03-27,1,,,,,ニニ,0
2273,9030003023879,新規,0,2024-03-27,2024-03-27,ＦＬＹＩＮＧ　ＬＥＧＳ　ＵＮＩＯＮ合同会社,,合同会社,埼玉県,富士見市,羽沢１丁目１７－３１アヴニールヒルズＳ棟２０１,,11,235,3540033,,,,,,,2024-03-27,1,,,,,フライングレッグズユニオン,0
2284,9040003024620,新規,0,2024-03-27,2024-03-27,ナッジコーチング合同会社,,合同会社,千葉県,松戸市,牧の原２丁目１２８,,12,207,2702267,,,,,,,2024-03-27,1,,,,,ナッジコーチング,0
2291,9050005013414,新規,0,2024-03-27,2024-03-27,一般社団法人ＣＤＬ,,その他の設立登記法人,茨城県,つくば市,境松６５７番地４,,08,220,3050864,,,,,,,2024-03-27,1,,,,,シーディーエル,0
2305,9100001037320,新規,0,2024-03-27,2024-03-27,株式会社あるいは,,株式会社,長野県,松本市,城西１丁目３番６号,,20,202,3900875,,,,,,,2024-03-27,1,,,,,アルイワ,0
2318,9120001263245,新規,0,2024-03-27,2024-03-27,株式会社Ｆｕ‐Ｄｚｅ,,株式会社,大阪府,大阪市平野区,加美北３丁目９番６－２０４号,,27,126,5470001,,,,,,,2024-03-27,1,,,,,フーダゼ,0
2319,9120001263328,新規,0,2024-03-27,2024-03-27,エスアンドワイ株式会社,,株式会社,大阪府,大阪市北区,梅田２丁目２－２ヒルトンプラザウエストオフィスタワー１９階,,27,127,5300001,,,,,,,2024-03-27,1,,,,,エスアンドワイ,0
2320,9120001263360,新規,0,2024-03-27,2024-03-27,株式会社エイトプランニング,,株式会社,大阪府,大阪市北区,太融寺町２番２１号ニュープラザビル２０４,,27,127,5300051,,,,,,,2024-03-27,1,,,,,エイトプランニング,0
2321,9120001263410,新規,0,2024-03-27,2024-03-27,株式会社Ｍ．Ｓ．Ｇ,,株式会社,大阪府,大阪市都島区,都島中通１丁目１４番１０号,,27,102,5340022,,,,,,,2024-03-27,1,,,,,エムエスジー,0
2322,9120001263451,新規,0,2024-03-27,2024-03-27,瑞江泉一株式会社,,株式会社,大阪府,大阪市東住吉区,東田辺３丁目１－１－１Ｆ－Ｆ,,27,121,5460032,,,,,,,2024-03-27,1,,,,,ズイエセンイチ,0
2323,9120001263468,新規,0,2024-03-27,2024-03-27,株式会社Ｗｅｓｔ　Ｖｉｌｌａｇｅ,,株式会社,大阪府,大阪市北区,太融寺町２番２１号ニュープラザビル３０１,,27,127,5300051,,,,,,,2024-03-27,1,,,,,ウエストヴィレッジ,0
2324,9120001263526,新規,0,2024-03-27,2024-03-27,株式会社ゆめまる,,株式会社,大阪府,大阪市淀川区,木川東３丁目１０番２０－３０２号,,27,123,5320012,,,,,,,2024-03-27,1,,,,,ユメマル,0
2325,9120001263567,新規,0,2024-03-27,2024-03-27,株式会社ＳＵＮＬＩＦＥ,,株式会社,大阪府,大阪市阿倍野区,松虫通１丁目４－２６,,27,119,5450043,,,,,,,2024-03-27,1,,,,,サンライフ,0
2326,9120001263600,新規,0,2024-03-27,2024-03-27,株式会社ピーエスエフ,,株式会社,大阪府,大阪市住之江区,御崎８丁目３番２７号,,27,125,5590013,,,,,,,2024-03-27,1,,,,,ピーエスエフ,0
2330,9120003026063,新規,0,2024-03-27,2024-03-27,合同会社ＬＩＦＩＸｊａｐａｎ,,合同会社,大阪府,大阪市北区,梅田１丁目２番２号大阪駅前第２ビル１２‐１２,,27,127,5300001,,,,,,,2024-03-27,1,,,,,リフィックスジャパン,0
2331,9120003026237,新規,0,2024-03-27,2024-03-27,ＭＵＧＨＡＬ　ＭＯＴＯＲＳ合同会社,,合同会社,大阪府,大阪市平野区,西脇１丁目１３番４－１３０５号,,27,126,5470035,,,,,,,2024-03-27,1,,,,,ムガルモータース,0
2347,9140001133818,新規,0,2024-03-27,2024-03-27,株式会社ＴＣホールディングス,,株式会社,兵庫県,加古川市,平岡町土山４２１番地の２５１,,28,210,6750104,,,,,,,2024-03-27,1,,,,,ティーシーホールディングス,0
2348,9140001133859,新規,0,2024-03-27,2024-03-27,株式会社Ｓ．Ｃ　ＷＯＲＴＨ,,株式会社,兵庫県,明石市,二見町福里６４３－１－２０２,,28,203,6740091,,,,,,,2024-03-27,1,,,,,エスシーワース,0
2367,9180005020562,新規,0,2024-03-27,2024-03-27,医療法人椋花会,,その他の設立登記法人,愛知県,名古屋市天白区,中砂町５３４番地,,23,116,4680065,,,,,,,2024-03-27,1,,,,,ムクハナカイ,0
2375,9190001031216,新規,0,2024-03-27,2024-03-27,Ｆ．ｄｕｔｙ株式会社,,株式会社,三重県,四日市市,高角町２６０５番地,,24,202,5120923,,,,,,,2024-03-27,1,,,,,エフドットデューティ,0
2376,9190005011924,新規,0,2024-03-27,2024-03-27,医療法人翡翠会,,その他の設立登記法人,三重県,三重郡菰野町,大羽根園並木通り１０番地１,,24,341,5101244,,,,,,,2024-03-27,1,,,,,ヒスイカイ,0
2379,9230001020263,新規,0,2024-03-27,2024-03-27,株式会社Ｏｍｎｉｂｕｓ,,株式会社,富山県,高岡市,駅南５丁目１０番１７号,,16,202,9330871,,,,,,,2024-03-27,1,,,,,オムニバス,0
2380,9240002011178,新規,0,2024-03-27,2024-03-27,有限会社利建工,,有限会社,広島県,広島市安佐北区,倉掛３丁目７番１号,,34,106,7391743,,,,,,,2024-03-27,1,,,,,リケンコウ,0
2381,9240005015754,新規,0,2024-03-27,2024-03-27,一般社団法人ファミリーサポートハウス・シャローム,,その他の設立登記法人,広島県,東広島市,高屋町溝口８１６番地３,,34,212,7392123,,,,,,,2024-03-27,1,,,,,ファミリーサポートハウスシャローム,0
2382,9250001020583,新規,0,2024-03-27,2024-03-27,ＡｇｒａＶｉ株式会社,,株式会社,山口県,下関市,大字田倉７０３番地,,35,201,7510883,,,,,,,2024-03-27,1,,,,,アグラヴィ,0
2385,9290001105224,新規,0,2024-03-27,2024-03-27,株式会社道しるべ,,株式会社,福岡県,筑紫野市,二日市北１丁目１１番３－１０５号,,40,217,8180056,,,,,,,2024-03-27,1,,,,,ミチシルベ,0
2386,9290001105249,新規,0,2024-03-27,2024-03-27,株式会社高宮工業,,株式会社,福岡県,福岡市東区,三苫３丁目２２番１号,,40,131,8110201,,,,,,,2024-03-27,1,,,,,タカミヤコウギョウ,0
2388,9290003015124,新規,0,2024-03-27,2024-03-27,合同会社千の栞,,合同会社,福岡県,福岡市東区,若宮２丁目１８番１３号,,40,131,8130036,,,,,,,2024-03-27,1,,,,,センノシオリ,0
2390,9300001013656,新規,0,2024-03-27,2024-03-27,ＴＯＲＩＣＯ株式会社,,株式会社,佐賀県,伊万里市,伊万里町甲８０,,41,205,8480047,,,,,,,2024-03-27,1,,,,,トリコ,0
2397,9330003010285,新規,0,2024-03-27,2024-03-27,合同会社ＫＩＮＧ,,合同会社,熊本県,菊池市,泗水町永２４９６－２,,43,210,8611204,,,,,,,2024-03-27,1,,,,,,0
2402,9360001033384,新規,0,2024-03-27,2024-03-27,Ｓａｋｈｒａｎｉ　Ｄｉｓｔｉｌｌｅｒｙ株式会社,,株式会社,沖縄県,中頭郡北谷町,字砂辺２２０－１,,47,326,9040111,,,,,,,2024-03-27,1,,,,,サクラニディスティラリー,0
2403,9360001033401,新規,0,2024-03-27,2024-03-27,株式会社沖縄未来デザイン,,株式会社,沖縄県,沖縄市,古謝津嘉山町３３番１号津嘉山ゴルフレンジ３Ｆ,,47,211,9042166,,,,,,,2024-03-27,1,,,,,オキナワミライデザイン,0
2407,9370001051105,新規,0,2024-03-27,2024-03-27,株式会社高橋カッター総業,00134205,株式会社,宮城県,仙台市青葉区,折立１丁目７番１５号,,04,101,9820261,,,,,,,2024-03-27,1,,,,,タカハシカッターソウギョウ,0
2418,9420003002901,新規,0,2024-03-27,2024-03-27,合同会社Ｎ．ＷｏｒＫｓ,,合同会社,青森県,八戸市,西白山台３丁目１４－２,,02,203,0391113,,,,,,,2024-03-27,1,,,,,ワークス,0
2420,9430001091425,新規,0,2024-03-27,2024-03-27,株式会社ＴＥＣＨＮＩＣＡＬ　ＡＤＶＡＮＣＥ,,株式会社,北海道,札幌市南区,澄川三条２丁目２番７－２０２号,,01,106,0050003,,,,,,,2024-03-27,1,,,,,テクニカルアドバンス,0
2427,9430003016108,新規,0,2024-03-27,2024-03-27,合同会社友廣,00134201,合同会社,北海道,札幌市東区,東雁来八条４丁目１番１１号,,01,103,0070828,,,,,,,2024-03-27,1,,,,,トモヒロ,0
2428,9430003016132,新規,0,2024-03-27,2024-03-27,合同会社丸美清掃,,合同会社,北海道,札幌市北区,新琴似十条７丁目５番１０号,,01,102,0010910,,,,,,,2024-03-27,1,,,,,マルビセイソウ,0
2429,9480003002111,新規,0,2024-03-27,2024-03-27,エテソン合同会社,,合同会社,徳島県,徳島市,蔵本町２丁目１４番地６,,36,201,7700042,,,,,,,2024-03-27,1,,,,,エテソン,0
