sequenceNumber,corporateNumber,process,correct,updateDate,changeDate,name,nameImageId,kind,prefectureName,cityName,streetNumber,addressImageId,prefectureCode,cityCode,postCode,addressOutside,addressOutsideImageId,closeDate,closeCause,successorCorporateNumber,changeCause,assignmentDate,latest,enName,enPrefectureName,enCityName,enAddressOutside,furigana,hihyoji
6,1010001248207,新規,0,2024-09-12,2024-09-12,株式会社ＨＡＳＵ,,株式会社,東京都,中央区,銀座７丁目１５番８号タウンハイツ銀座４０６,,13,102,1040061,,,,,,,2024-09-12,1,,,,,ハス,0
7,1010001248256,新規,0,2024-09-12,2024-09-12,ＲＲコーポレーション株式会社,,株式会社,東京都,文京区,千石４丁目２６番２号ＳＡＮＳＡＮ千石ビル４階Ｂ側４０６号室,,13,105,1120011,,,,,,,2024-09-12,1,,,,,アールアールコーポレーション,0
11,1010003044760,新規,0,2024-09-12,2024-09-12,ＡＴＰｒｉｍｅｒ　Ｔｅｃｈｎｏｌｏｇｉｅｓ合同会社,,合同会社,東京都,中央区,日本橋室町１丁目１１番１２号日本橋水野ビル７階,,13,102,1030022,,,,,,,2024-09-12,1,,,,,アットプライマーテクノロジーズ,0
13,1010005038819,新規,0,2024-09-12,2024-09-12,一般社団法人首都圏レジ開発セブン,,その他の設立登記法人,東京都,千代田区,平河町１丁目６番１５号シルスフィア会計事務所内,,13,101,1020093,,,,,,,2024-09-12,1,,,,,シュトケンレジカイハツセブン,0
24,1010401184951,新規,0,2024-09-12,2024-09-12,株式会社サイプロパートナーズ,,株式会社,東京都,港区,虎ノ門１丁目１６番６号虎ノ門ＲＡＰＯ－ＴＯビルＵＣＦ７階,,13,103,1050001,,,,,,,2024-09-12,1,,,,,サイプロパートナーズ,0
25,1010401185074,新規,0,2024-09-12,2024-09-12,Ｈｅａｄｓ　Ｔｏｇｅｔｈｅｒ　ＡＭ株式会社,,株式会社,東京都,港区,愛宕１丁目６番８号,,13,103,1050002,,,,,,,2024-09-12,1,,,,,ヘッズトゥギャザーエイエム,0
26,1010401185108,新規,0,2024-09-12,2024-09-12,Ｈａｗｋｅｙｅ　Ｖｉｎｔａｇｅ　Ｊａｐａｎ株式会社,,株式会社,東京都,港区,六本木３丁目４番５号コープ野村六本木ＩＩ１１３号室,00136284,13,103,1060032,,,,,,,2024-09-12,1,,,,,ホークアイビンテージジャパン,0
27,1010403033388,新規,0,2024-09-12,2024-09-12,Ｈｕｇｏ１Ｂ合同会社,,合同会社,東京都,港区,虎ノ門３丁目２２番１０－２０１号,,13,103,1050001,,,,,,,2024-09-12,1,,,,,ヒューゴワンビー,0
28,1010405023536,新規,0,2024-09-12,2024-09-12,あお社会保険労務士法人,,その他の設立登記法人,東京都,港区,南青山２丁目７番２６号,,13,103,1070062,,,,,,,2024-09-12,1,,,,,アオ,0
31,1010503007564,新規,0,2024-09-12,2024-09-12,マーキュリーユナイテッド合同会社,,合同会社,東京都,台東区,蔵前３丁目１０番８ー３０１号,,13,106,1110051,,,,,,,2024-09-12,1,,,,,マーキュリーユナイテッド,0
32,1010505003553,新規,0,2024-09-12,2024-09-12,税理士法人ＴＡＸ　ＳＯＬＵＴＩＯＮＳ,,その他の設立登記法人,東京都,台東区,松が谷４丁目２１番６号エヴァーグリーン上野松が谷５０１,,13,106,1110036,,,,,,,2024-09-12,1,,,,,タックスソリューションズ,0
35,1010601065910,新規,0,2024-09-12,2024-09-12,Ｖｉｃｔｏｒｙ　Ｌａｎｄ株式会社,,株式会社,東京都,墨田区,両国３丁目２０番６号小林ビル２階,,13,107,1300026,,,,,,,2024-09-12,1,,,,,ビクトリーランド,0
36,1010603011086,新規,0,2024-09-12,2024-09-12,スタジオプリンコ合同会社,,合同会社,東京都,江東区,亀戸９丁目１４番１５－５１５号,,13,108,1360071,,,,,,,2024-09-12,1,,,,,スタジオプリンコ,0
38,1010801035390,新規,0,2024-09-12,2024-09-12,株式会社ｕｒａｂａｎ,,株式会社,東京都,大田区,萩中１丁目８番２号,,13,111,1440047,,,,,,,2024-09-12,1,,,,,ウラバン,0
47,1011001164550,新規,0,2024-09-12,2024-09-12,株式会社Ｐｌａｙｅｒ,,株式会社,東京都,渋谷区,東１丁目１６－１－２０３,,13,113,1500011,,,,,,,2024-09-12,1,,,,,プレイヤー,0
49,1011003019942,新規,0,2024-09-12,2024-09-12,合同会社ＧＡＳＹＵ,,合同会社,東京都,目黒区,下目黒６丁目２０番１６号ＰｒｅｃｉｏｕｓＳｔａｇｅＩ－３０３,00136282,13,110,1530064,,,,,,,2024-09-12,1,,,,,ガシュ,0
51,1011101108754,新規,0,2024-09-12,2024-09-12,株式会社コトのデザイン,,株式会社,東京都,新宿区,西新宿３丁目２番９号,,13,104,1600023,,,,,,,2024-09-12,1,,,,,コトノデザイン,0
56,1011503006226,新規,0,2024-09-12,2024-09-12,イーグローバルコミュニケーションズ合同会社,,合同会社,東京都,北区,東十条４丁目６番１５－３０２号ラクア東十条,,13,117,1140001,,,,,,,2024-09-12,1,,,,,イーグローバルコミュニケーションズ,0
58,1011601028056,新規,0,2024-09-12,2024-09-12,株式会社ＳＫＡ　ＪＡＰＡＮ,,株式会社,東京都,練馬区,大泉町４丁目３４－２４,,13,120,1780062,,,,,,,2024-09-12,1,,,,,エスケーエージャパン,0
59,1011701027619,新規,0,2024-09-12,2024-09-12,株式会社Ｗａｙｎｅ,,株式会社,東京都,江戸川区,東瑞江１丁目３６番６号,,13,123,1320014,,,,,,,2024-09-12,1,,,,,ウェイン,0
63,1011803006446,新規,0,2024-09-12,2024-09-12,ＫＨパートナーズ合同会社,,合同会社,東京都,葛飾区,柴又４丁目３４―１６―２階,,13,122,1250052,,,,,,,2024-09-12,1,,,,,ケーエイチパートナーズ,0
66,1012405005043,新規,0,2024-09-12,2024-09-12,医療法人社団弥栄,,その他の設立登記法人,東京都,武蔵野市,境南町２丁目１１番２２号第一飛翔ビル２階,,13,203,1800023,,,,,,,2024-09-12,1,,,,,イヤサカ,0
73,1020001159080,新規,0,2024-09-12,2024-09-12,株式会社ＭａｒｋＡｎｔ,,株式会社,神奈川県,横浜市港北区,新吉田東５丁目３０番１６号メゾン・ド・クレール１０１号室,,14,109,2230058,,,,,,,2024-09-12,1,,,,,マークアント,0
74,1020001159122,新規,0,2024-09-12,2024-09-12,Ｎｅｏ　Ｉｎｎｏｖａｔｅ　Ｓｏｌｕｔｉｏｎｓ株式会社,,株式会社,神奈川県,横浜市神奈川区,金港町５－１４クアドリフォリオ８階,,14,102,2210056,,,,,,,2024-09-12,1,,,,,ネオイノベートソリューションズ,0
75,1020001159139,新規,0,2024-09-12,2024-09-12,株式会社ハドソン靴店,,株式会社,神奈川県,横浜市神奈川区,松本町３丁目２６番地３,,14,102,2210841,,,,,,,2024-09-12,1,,,,,ハドソンクツテン,0
76,1020001159147,新規,0,2024-09-12,2024-09-12,山手ネクスト株式会社,,株式会社,神奈川県,横浜市中区,桜木町１丁目１０１番地１クロスゲート７階,,14,104,2310062,,,,,,,2024-09-12,1,,,,,ヤマテネクスト,0
77,1020001159163,新規,0,2024-09-12,2024-09-12,日本電機ヒーター株式会社,,株式会社,神奈川県,川崎市多摩区,長尾３丁目８番１号,,14,135,2140023,,,,,,,2024-09-12,1,,,,,ニホンデンキヒーター,0
79,1020003026774,新規,0,2024-09-12,2024-09-12,合同会社Ｂｏｎｉｆａｃｅ,,合同会社,神奈川県,横浜市西区,みなとみらい４丁目４番２号横浜ブルーアベニュー１２Ｆ,,14,103,2200012,,,,,,,2024-09-12,1,,,,,ボニフェイス,0
80,1020003026898,新規,0,2024-09-12,2024-09-12,合同会社ふねがく海事科学研究所,,合同会社,神奈川県,横浜市中区,桜木町１丁目１０１番地１クロスゲート７階,,14,104,2310062,,,,,,,2024-09-12,1,,,,,,0
85,1021001083196,新規,0,2024-09-12,2024-09-12,株式会社Ａｐｏｌｌｏｎ　Ａｓｓｅｔ　Ｍａｎａｇｅｍｅｎｔ,,株式会社,神奈川県,藤沢市,亀井野５７７番地の１７レクハイム６０２号,,14,205,2520813,,,,,,,2024-09-12,1,,,,,アポロンアセットマネジメント,0
86,1021003014991,新規,0,2024-09-12,2024-09-12,合同会社ｄ‐ｂｏｒａ,,合同会社,神奈川県,鎌倉市,大船２丁目１８－１４アルカディア４０２号室,,14,204,2470056,,,,,,,2024-09-12,1,,,,,ディーボラ,0
88,1030001162397,新規,0,2024-09-12,2024-09-12,ＳＴ　ＧＲＯＵＰ株式会社,,株式会社,埼玉県,飯能市,本町１９番２号ＫＩＶ－Ｗｅｌｆａｒｅ会館飯能９号室,,11,209,3570032,,,,,,,2024-09-12,1,,,,,エスティーグループ,0
89,1030001162422,新規,0,2024-09-12,2024-09-12,ＡＳＩＴＡ株式会社,,株式会社,埼玉県,川口市,西川口６丁目４－６－２階２３０号室,,11,203,3320021,,,,,,,2024-09-12,1,,,,,アシタ,0
90,1030001162430,新規,0,2024-09-12,2024-09-12,株式会社ベットスフィア,,株式会社,埼玉県,新座市,畑中２丁目５番２号,,11,230,3520012,,,,,,,2024-09-12,1,,,,,ベットスフィア,0
91,1030001162439,新規,0,2024-09-12,2024-09-12,株式会社ＪＵＮＫＥＮ,,株式会社,埼玉県,さいたま市岩槻区,府内４丁目３番３８号,,11,110,3390042,,,,,,,2024-09-12,1,,,,,ジュンケン,0
95,1030003025073,新規,0,2024-09-12,2024-09-12,合同会社ＡＩＤ,,合同会社,埼玉県,東松山市,大字今泉２６３,,11,212,3550042,,,,,,,2024-09-12,1,,,,,エイド,0
98,1040003025758,新規,0,2024-09-12,2024-09-12,合同会社レント５３,,合同会社,千葉県,市川市,高石神３１番１７号,,12,203,2720814,,,,,,,2024-09-12,1,,,,,レントゴジュウサン,0
100,1050001055384,新規,0,2024-09-12,2024-09-12,古川興業株式会社,,株式会社,茨城県,土浦市,真鍋６丁目６番６０号,,08,203,3000051,,,,,,,2024-09-12,1,,,,,フルカワコウギョウ,0
101,1050001055392,新規,0,2024-09-12,2024-09-12,株式会社ＫＬＥＣホールディングス,,株式会社,茨城県,龍ケ崎市,佐貫３丁目１４番９号,,08,208,3010032,,,,,,,2024-09-12,1,,,,,ケーエルイーシーホールディングス,0
107,1080401027443,新規,0,2024-09-12,2024-09-12,株式会社グリーメイカーズ,,株式会社,静岡県,浜松市浜名区,小松２２０１番地の１,,22,139,4340042,,,,,,,2024-09-12,1,,,,,グリーメイカーズ,0
109,1090001018899,新規,0,2024-09-12,2024-09-12,株式会社ＭＫｓｅｒｖｅ,,株式会社,山梨県,甲斐市,大垈４３４－１０,,19,210,4000103,,,,,,,2024-09-12,1,,,,,エムケーサーヴ,0
110,1090003002645,新規,0,2024-09-12,2024-09-12,うららや合同会社,,合同会社,山梨県,笛吹市,石和町八田３３０－７７,,19,211,4060023,,,,,,,2024-09-12,1,,,,,ウララヤ,0
112,1110001038705,新規,0,2024-09-12,2024-09-12,株式会社カナタ,,株式会社,新潟県,長岡市,大手通２丁目２－６ながおか市民センターＢ１Ｆ,,15,202,9400062,,,,,,,2024-09-12,1,,,,,カナタ,0
121,1120001268482,新規,0,2024-09-12,2024-09-12,協徳株式会社,00136291,株式会社,大阪府,大阪市城東区,関目５丁目１９番９号関目花博公館３１２Ｂ,,27,118,5360008,,,,,,,2024-09-12,1,,,,,キョウトク,0
122,1120001268490,新規,0,2024-09-12,2024-09-12,株式会社ＯＮＥ　ＷＯＲＬＤ,,株式会社,大阪府,大阪市城東区,野江２丁目３番３号エクセル山田新館店舗北号室,,27,118,5360006,,,,,,,2024-09-12,1,,,,,ワンワールド,0
123,1120001268540,新規,0,2024-09-12,2024-09-12,大阪キャピタル株式会社,,株式会社,大阪府,大阪市北区,梅田３丁目２番１２３号イノゲート大阪１０階,,27,127,5300001,,,,,,,2024-09-12,1,,,,,オオサカキャピタル,0
124,1120001268557,新規,0,2024-09-12,2024-09-12,株式会社ＸｅｒＯ,,株式会社,大阪府,大阪市浪速区,元町１丁目１０－６堤ビル６０１,,27,111,5560016,,,,,,,2024-09-12,1,,,,,セロ,0
125,1120003027259,新規,0,2024-09-12,2024-09-12,合同会社丸興,,合同会社,大阪府,大阪市西成区,天下茶屋東１丁目１９番１３号,,27,122,5570011,,,,,,,2024-09-12,1,,,,,マルキョウ,0
133,1120903005339,新規,0,2024-09-12,2024-09-12,合同会社ＩＮＨＯ,,合同会社,大阪府,高槻市,津之江町１丁目４５番２号,,27,207,5690822,,,,,,,2024-09-12,1,,,,,インホ,0
135,1122001038444,新規,0,2024-09-12,2024-09-12,株式会社ＬＡＦ,,株式会社,大阪府,東大阪市,池島町３丁目１２番２７号,,27,227,5798064,,,,,,,2024-09-12,1,,,,,ラフ,0
142,1130001077924,新規,0,2024-09-12,2024-09-12,株式会社Ｌａｋｉ,,株式会社,京都府,京都市山科区,小山御坊ノ内町２２番地の１,,26,110,6078106,,,,,,,2024-09-12,1,,,,,ラキ,0
148,1140001135747,新規,0,2024-09-12,2024-09-12,株式会社オタクロ,,株式会社,兵庫県,西宮市,久保町１０番２６－６０１号,,28,204,6620927,,,,,,,2024-09-12,1,,,,,オタクロ,0
149,1140001135755,新規,0,2024-09-12,2024-09-12,ジャングルジャパン株式会社,,株式会社,兵庫県,川西市,小戸３丁目２３－１３－１８,,28,217,6660014,,,,,,,2024-09-12,1,,,,,ジャングルジャパン,0
150,1140001135788,新規,0,2024-09-12,2024-09-12,株式会社ＴＡＮＫ,,株式会社,兵庫県,高砂市,米田町米田４６９番地の２,,28,216,6760805,,,,,,,2024-09-12,1,,,,,タンク,0
163,1180001163249,新規,0,2024-09-12,2024-09-12,株式会社エスアイ,,株式会社,愛知県,名古屋市西区,香呑町２丁目７７番地の２,,23,104,4510015,,,,,,,2024-09-12,1,,,,,エスアイ,0
164,1180001163257,新規,0,2024-09-12,2024-09-12,株式会社スナッピー,,株式会社,愛知県,名古屋市中村区,名駅４丁目６－２３第三堀内ビル９Ｆ,,23,105,4500002,,,,,,,2024-09-12,1,,,,,スナッピー,0
168,1180003027328,新規,0,2024-09-12,2024-09-12,合同会社ＲＵＫＨ,,合同会社,愛知県,名古屋市守山区,小幡４丁目１４番７号,,23,113,4630011,,,,,,,2024-09-12,1,,,,,ルフ,0
172,1190001031636,新規,0,2024-09-12,2024-09-12,株式会社瑞帆,,株式会社,三重県,伊賀市,西之澤１５９８番地の９６,,24,216,5191426,,,,,,,2024-09-12,1,,,,,ミズホ,0
174,1200001042920,新規,0,2024-09-12,2024-09-12,株式会社バンビデンタル,,株式会社,岐阜県,中津川市,茄子川１５３４番地２１８,,21,206,5099132,,,,,,,2024-09-12,1,,,,,バンビデンタル,0
176,1200003006502,新規,0,2024-09-12,2024-09-12,Ｍｏｃｃｈｉ　ｍｏｎｄｅ合同会社,,合同会社,岐阜県,大垣市,墨俣町墨俣８３５番地１,,21,202,5030102,,,,,,,2024-09-12,1,,,,,モッチモンド,0
180,1240005015828,新規,0,2024-09-12,2024-09-12,医療法人光る会,,その他の設立登記法人,広島県,広島市南区,松原町５番１号ビッグフロントひろしま４Ｆ,,34,103,7320822,,,,,,,2024-09-12,1,,,,,ヒカルカイ,0
182,1250001020806,新規,0,2024-09-12,2024-09-12,株式会社Ｂａｓｅ,,株式会社,山口県,岩国市,麻里布町２丁目３番６号２Ｆ,,35,208,7400018,,,,,,,2024-09-12,1,,,,,ベース,0
190,1290001107236,新規,0,2024-09-12,2024-09-12,株式会社シンカ,,株式会社,福岡県,福岡市中央区,警固２丁目１２番２３号,,40,133,8100023,,,,,,,2024-09-12,1,,,,,シンカ,0
193,1290801030876,新規,0,2024-09-12,2024-09-12,株式会社ヒカリワークス,,株式会社,福岡県,田川市,大字伊加利２１９５番地７３,,40,206,8250001,,,,,,,2024-09-12,1,,,,,ヒカリワークス,0
205,1360003014274,新規,0,2024-09-12,2024-09-12,東村ニューファーム合同会社,,合同会社,沖縄県,国頭郡東村,字平良８６３番地１,,47,303,9051204,,,,,,,2024-09-12,1,,,,,ヒガシソンニューファーム,0
209,1390003002284,新規,0,2024-09-12,2024-09-12,合同会社Ｓｏｕｒｉｒｅ,,合同会社,山形県,天童市,老野森２丁目７番１号,,06,210,9940013,,,,,,,2024-09-12,1,,,,,スゥリー,0
214,1430001092595,新規,0,2024-09-12,2024-09-12,株式会社菅原設備工業,,株式会社,北海道,札幌市北区,屯田五条１０丁目４番１５号,,01,102,0020855,,,,,,,2024-09-12,1,,,,,スガワラセツビコウギョウ,0
215,1430001092653,新規,0,2024-09-12,2024-09-12,株式会社北川工業,,株式会社,北海道,札幌市白石区,菊水元町四条１丁目３番６号,,01,104,0030824,,,,,,,2024-09-12,1,,,,,キタガワコウギョウ,0
218,1470001020379,新規,0,2024-09-12,2024-09-12,株式会社ｗｅａｂｉｎｇ,,株式会社,香川県,高松市,瓦町２丁目２番地１３新瓦町ビル１階,,37,201,7600052,,,,,,,2024-09-12,1,,,,,ウィービング,0
220,1470005006580,新規,0,2024-09-12,2024-09-12,一般社団法人絆バンク香川,,その他の設立登記法人,香川県,高松市,三名町２８４番地１２,,37,201,7618083,,,,,,,2024-09-12,1,,,,,キズナバンクカガワ,0
231,2010001247678,新規,0,2024-09-12,2024-09-12,株式会社Ｓｏｌａｒａ＆Ｃｏ,,株式会社,東京都,千代田区,神田三崎町３丁目５－９天翔水道橋ビル５０６,,13,101,1010061,,,,,,,2024-09-12,1,,,,,ソララアンドコ,0
232,2010001248189,新規,0,2024-09-12,2024-09-12,株式会社ＢＣＪ‐８５‐２,,株式会社,東京都,千代田区,丸の内１丁目１番１号パレスビル５階,,13,101,1000005,,,,,,,2024-09-12,1,,,,,ビーシージェイエイティーファイブトゥー,0
237,2010005038818,新規,0,2024-09-12,2024-09-12,一般社団法人首都圏レジ開発シックス,,その他の設立登記法人,東京都,千代田区,平河町１丁目６番１５号シルスフィア会計事務所内,,13,101,1020093,,,,,,,2024-09-12,1,,,,,シュトケンレジカイハツシックス,0
247,2010401184983,新規,0,2024-09-12,2024-09-12,株式会社ＨＲＭ,,株式会社,東京都,港区,西新橋２丁目１９番５号カザマビル２Ｆ,,13,103,1050003,,,,,,,2024-09-12,1,,,,,エイチアールエム,0
248,2010401185040,新規,0,2024-09-12,2024-09-12,株式会社フジ３,,株式会社,東京都,港区,北青山２丁目７番９号,,13,103,1070061,,,,,,,2024-09-12,1,,,,,フジサン,0
249,2010401185073,新規,0,2024-09-12,2024-09-12,株式会社ＶＩＳＩＯＮ　ＳＯＵＮＤ　ＤＥＳＩＧＮ,,株式会社,東京都,港区,芝浦４丁目２番２３－９０１号,,13,103,1080023,,,,,,,2024-09-12,1,,,,,ビジョンサウンドデザイン,0
254,2010403033387,新規,0,2024-09-12,2024-09-12,Ｈｕｇｏ１Ａ合同会社,,合同会社,東京都,港区,虎ノ門３丁目２２番１０－２０１号,,13,103,1050001,,,,,,,2024-09-12,1,,,,,ヒューゴワンエー,0
255,2010403033420,新規,0,2024-09-12,2024-09-12,合同会社京都ホテル運営,,合同会社,東京都,港区,虎ノ門５丁目１番４号,,13,103,1050001,,,,,,,2024-09-12,1,,,,,キョウトホテルウンエイ,0
273,2010701046529,新規,0,2024-09-12,2024-09-12,株式会社ハコクリ,,株式会社,東京都,品川区,小山３丁目１４番２－１７１０号,,13,109,1420062,,,,,,,2024-09-12,1,,,,,ハコクリ,0
285,2011001164327,新規,0,2024-09-12,2024-09-12,千世代商事株式会社,,株式会社,東京都,渋谷区,幡ヶ谷３丁目３９番１２号渋谷ウェストビル１階,,13,113,1510072,,,,,,,2024-09-12,1,,,,,センセダイショウジ,0
286,2011001164475,新規,0,2024-09-12,2024-09-12,株式会社ＪＵＮＯ,,株式会社,東京都,渋谷区,宇田川町３－７ヒューリック渋谷公園通りビル５Ｆ－１０６,,13,113,1500042,,,,,,,2024-09-12,1,,,,,ジュノ,0
287,2011001164525,新規,0,2024-09-12,2024-09-12,攻めのリーガル株式会社,,株式会社,東京都,渋谷区,渋谷２丁目１９－１５宮益坂ビルディング６０９,,13,113,1500002,,,,,,,2024-09-12,1,,,,,セメノリーガル,0
288,2011001164673,新規,0,2024-09-12,2024-09-12,株式会社Ｐｏｃｋｅｔ　９ｓ,,株式会社,東京都,渋谷区,渋谷２丁目１９‐１５宮益坂ビルディング６０９,,13,113,1500002,,,,,,,2024-09-12,1,,,,,ポケットナインズ,0
296,2011101108704,新規,0,2024-09-12,2024-09-12,株式会社フォアループ,,株式会社,東京都,新宿区,西新宿３丁目１３番１１－６０３号,,13,104,1600023,,,,,,,2024-09-12,1,,,,,フォアループ,0
297,2011101108761,新規,0,2024-09-12,2024-09-12,株式会社クロスファイブ,,株式会社,東京都,新宿区,新宿１丁目３６番９号,,13,104,1600022,,,,,,,2024-09-12,1,,,,,クロスファイブ,0
298,2011101108811,新規,0,2024-09-12,2024-09-12,株式会社ＴＯＰＲＯＰＥ,,株式会社,東京都,新宿区,下落合２丁目３番１８号ＳＫビルＫ棟３階,,13,104,1610033,,,,,,,2024-09-12,1,,,,,トップロープ,0
308,2011303005286,新規,0,2024-09-12,2024-09-12,合同会社アップビジョン,,合同会社,東京都,杉並区,西荻南４丁目３１番１１号,,13,115,1670053,,,,,,,2024-09-12,1,,,,,,0
312,2011603004450,新規,0,2024-09-12,2024-09-12,合同会社クワイエットブランチスタジオ,,合同会社,東京都,練馬区,小竹町１丁目５５番８号クワイエットブランチスタジオＣ,,13,120,1760004,,,,,,,2024-09-12,1,,,,,クワイエットブランチスタジオ,0
316,2011801044835,新規,0,2024-09-12,2024-09-12,株式会社ＮＸＴ,,株式会社,東京都,足立区,千住東１丁目３０－２１－１０３,,13,121,1200025,,,,,,,2024-09-12,1,,,,,ネクスト,0
317,2011803006445,新規,0,2024-09-12,2024-09-12,富海合同会社,,合同会社,東京都,葛飾区,青戸４丁目５－１２スカイコート青戸２０６号室,,13,122,1250062,,,,,,,2024-09-12,1,,,,,フカイ,0
318,2012801023457,新規,0,2024-09-12,2024-09-12,Ｂｅｈｏｌｄｅｒ　Ｃｏｎｓｕｌｔｉｎｇ　Ｓｅｒｖｉｃｅｓ株式会社,,株式会社,東京都,国立市,東４丁目１３番地の１８,,13,215,1860002,,,,,,,2024-09-12,1,,,,,ビホルダーコンサルティングサービシズ,0
326,2020001159071,新規,0,2024-09-12,2024-09-12,株式会社ＴＲＡＩＮ,,株式会社,神奈川県,横浜市港北区,日吉２丁目２番３号山村ビル３Ｆ,,14,109,2230061,,,,,,,2024-09-12,1,,,,,トレイン,0
327,2020001159088,新規,0,2024-09-12,2024-09-12,株式会社スピンアウト,,株式会社,神奈川県,横浜市神奈川区,星野町８番地３クリオレジダンス横濱ベイサイド８０８号,,14,102,2210035,,,,,,,2024-09-12,1,,,,,スピンアウト,0
328,2020001159105,新規,0,2024-09-12,2024-09-12,マルエ株式会社,,株式会社,神奈川県,横浜市港北区,日吉２丁目６番２７号,,14,109,2230061,,,,,,,2024-09-12,1,,,,,マルエ,0
329,2020001159138,新規,0,2024-09-12,2024-09-12,株式会社コンテントス,,株式会社,神奈川県,横浜市港南区,港南台７丁目３番１１号,,14,111,2340054,,,,,,,2024-09-12,1,,,,,コンテントス,0
330,2020001159179,新規,0,2024-09-12,2024-09-12,Ｇｏｒｅ　Ｓｔｒｅｅｔ　Ｊａｐａｎ株式会社,,株式会社,神奈川県,横浜市中区,住吉町２丁目２２番地松栄関内ビル２階,,14,104,2310013,,,,,,,2024-09-12,1,,,,,ゴアストリートジャパン,0
332,2020003026880,新規,0,2024-09-12,2024-09-12,ＴＥ　Ｃｏｎｎｅｃｔｉｖｉｔｙ　Ｊａｐａｎ　Ｈｏｌｄｉｎｇｓ合同会社,,合同会社,神奈川県,川崎市高津区,久本３丁目５番８号,,14,134,2130011,,,,,,,2024-09-12,1,,,,,ティーイーコネクティビティジャパンホールディングス,0
333,2020003026914,新規,0,2024-09-12,2024-09-12,ｐｈｏｔｏ‐ｔｋ合同会社,,合同会社,神奈川県,川崎市宮前区,神木本町５丁目１０－１,,14,136,2160031,,,,,,,2024-09-12,1,,,,,フォトティーケイ,0
338,2030001162413,新規,0,2024-09-12,2024-09-12,株式会社チェックマンブルー,,株式会社,埼玉県,越谷市,千間台西４丁目１４番地２０,,11,222,3430041,,,,,,,2024-09-12,1,,,,,チェックマンブルー,0
339,2030001162421,新規,0,2024-09-12,2024-09-12,株式会社藤成,,株式会社,埼玉県,志木市,柏町５丁目１１番２８－１０４号,,11,228,3530007,,,,,,,2024-09-12,1,,,,,フジセイ,0
340,2030001162438,新規,0,2024-09-12,2024-09-12,株式会社ＭＵＹ　ｃｏｍｐａｎｙ,,株式会社,埼玉県,川口市,安行出羽１丁目４番１４号ジーメゾン川口安行ウィシエ１０２,,11,203,3340052,,,,,,,2024-09-12,1,,,,,エムユウワイカンパニー,0
344,2030003025089,新規,0,2024-09-12,2024-09-12,合同会社ＲＳ　ＩＮＴＥＲＮＡＴＩＯＮＡＬ,,合同会社,埼玉県,坂戸市,三光町２－６ミレニアムＧ２１１,,11,239,3500235,,,,,,,2024-09-12,1,,,,,アールエスインターナショナル,0
349,2040001135343,新規,0,2024-09-12,2024-09-12,みたま株式会社,,株式会社,千葉県,千葉市美浜区,高洲２丁目１０番１－５０９号,,12,106,2610004,,,,,,,2024-09-12,1,,,,,ミタマ,0
350,2040001135351,新規,0,2024-09-12,2024-09-12,株式会社Ｎａｎｏ１,,株式会社,千葉県,東金市,八坂台４丁目１０番地１８,,12,213,2830801,,,,,,,2024-09-12,1,,,,,ナノワン,0
351,2040001135384,新規,0,2024-09-12,2024-09-12,アジアホーム株式会社,,株式会社,千葉県,松戸市,西馬橋相川町１２５番の１３－３０７,,12,207,2710045,,,,,,,2024-09-12,1,,,,,アジアホーム,0
354,2040003025757,新規,0,2024-09-12,2024-09-12,合同会社レント５２,,合同会社,千葉県,市川市,高石神３１番１７号,,12,203,2720814,,,,,,,2024-09-12,1,,,,,レントゴジュウニ,0
355,2040003025781,新規,0,2024-09-12,2024-09-12,合同会社プロスアムール,,合同会社,千葉県,千葉市中央区,宮崎町６６５番地１３エステ・スクエア青葉の森２－５０８号,,12,101,2600805,,,,,,,2024-09-12,1,,,,,プロスアムール,0
357,2040005022496,新規,0,2024-09-12,2024-09-12,ＮＰＯ法人福祉グループ西船コアラ,,その他の設立登記法人,千葉県,船橋市,行田３丁目１０番４５－１１２号,,12,204,2730044,,,,,,,2024-09-12,1,,,,,ニシフナコアラ,0
359,2050001055383,新規,0,2024-09-12,2024-09-12,株式会社カウント２,,株式会社,茨城県,取手市,宮和田２５番地２,,08,217,3001514,,,,,,,2024-09-12,1,,,,,カウントツー,0
360,2050001055391,新規,0,2024-09-12,2024-09-12,株式会社タナケン,,株式会社,茨城県,高萩市,大字上手綱５８４番地の１グリーンハイム２０３,,08,214,3180004,,,,,,,2024-09-12,1,,,,,タナケン,0
361,2050001055400,新規,0,2024-09-12,2024-09-12,株式会社ＳＩＳＵＫＯＳ,,株式会社,茨城県,つくば市,吉瀬１０８７－９,,08,220,3050022,,,,,,,2024-09-12,1,,,,,,0
363,2050003008629,新規,0,2024-09-12,2024-09-12,合同会社伝御兵衛,,合同会社,茨城県,取手市,下高井２０８７－２,,08,217,3020038,,,,,,,2024-09-12,1,,,,,デンゴベエ,0
364,2060001019115,新規,0,2024-09-12,2024-09-12,深町建設株式会社,,株式会社,栃木県,足利市,山川町４３番地２,,09,202,3260021,,,,,,,2024-09-12,1,,,,,フカマチケンセツ,0
383,2120001268507,新規,0,2024-09-12,2024-09-12,将和建工株式会社,,株式会社,大阪府,寝屋川市,成美町２８番３６号,,27,215,5720046,,,,,,,2024-09-12,1,,,,,ショウワケンコウ,0
384,2120001268556,新規,0,2024-09-12,2024-09-12,株式会社ＡＮ,,株式会社,大阪府,大阪市中央区,東心斎橋２丁目２－１１大阪屋セブンセンタービル３０２,,27,128,5420083,,,,,,,2024-09-12,1,,,,,アン,0
386,2120101070283,新規,0,2024-09-12,2024-09-12,株式会社Ｎ．Ｉ．Ｃ．Ｏ,,株式会社,大阪府,堺市中区,深井清水町３７６２番地,,27,142,5998273,,,,,,,2024-09-12,1,,,,,エヌアイシーオー,0
390,2122001038443,新規,0,2024-09-12,2024-09-12,ｏｂａｎｃｈｉ株式会社,,株式会社,大阪府,東大阪市,若江東町１丁目５－２１,,27,227,5780935,,,,,,,2024-09-12,1,,,,,オバンチ,0
405,2140001135770,新規,0,2024-09-12,2024-09-12,株式会社るんエンターテイメント,,株式会社,兵庫県,神戸市兵庫区,荒田町１丁目１５番３号,,28,105,6520032,,,,,,,2024-09-12,1,,,,,ルンエンターテイメント,0
408,2150005009623,新規,0,2024-09-12,2024-09-12,行政書士法人イシス,,その他の設立登記法人,奈良県,大和高田市,高砂町２番１号サンライズビル２階,,29,202,6350081,,,,,,,2024-09-12,1,,,,,イシス,0
415,2180001163223,新規,0,2024-09-12,2024-09-12,株式会社家ｔｈｏｓ,,株式会社,愛知県,稲沢市,西町１丁目６番１１号,,23,220,4928218,,,,,,,2024-09-12,1,,,,,イエトス,0
420,2180003027335,新規,0,2024-09-12,2024-09-12,ゼタボッチ合同会社,,合同会社,愛知県,名古屋市南区,上浜町５０３番地,,23,112,4570067,,,,,,,2024-09-12,1,,,,,ゼタボッチ,0
421,2180003027343,新規,0,2024-09-12,2024-09-12,合同会社ＴＫＧ,,合同会社,愛知県,稲沢市,下津下町二丁目５３番地２,,23,220,4920000,,,,,,,2024-09-12,1,,,,,ティーケージー,0
422,2180005020767,新規,0,2024-09-12,2024-09-12,一般社団法人愛知イスラミックカルチャーアソシエーション,,その他の設立登記法人,愛知県,名古屋市昭和区,広見町４丁目４３番１,,23,107,4660046,,,,,,,2024-09-12,1,,,,,アイチイスラミックカルチャーアソシエーション,0
427,2180301039040,新規,0,2024-09-12,2024-09-12,株式会社ＳＨＩＲＡＩホールディングス,,株式会社,愛知県,豊橋市,問屋町６番地２,,23,201,4418086,,,,,,,2024-09-12,1,,,,,シライホールディングス,0
428,2180301039049,新規,0,2024-09-12,2024-09-12,株式会社Ｂｌｕｅ　Ｌｅａｆ,,株式会社,愛知県,西尾市,戸ケ崎４丁目１７番地７,,23,213,4450075,,,,,,,2024-09-12,1,,,,,ブルーリーフ,0
430,2190001031619,新規,0,2024-09-12,2024-09-12,株式会社Ｍａｄｅ　Ｉｎ　Ｊａｐａｎ　Ｃｏｎｓｕｌｔｉｎｇ,,株式会社,三重県,桑名市,多度町古野２０９０番地２,,24,205,5110122,,,,,,,2024-09-12,1,,,,,メイドインジャパンコンサルティング,0
431,2190001031643,新規,0,2024-09-12,2024-09-12,株式会社ユウセイ重建,,株式会社,三重県,亀山市,小野町７６３番地,,24,210,5190167,,,,,,,2024-09-12,1,,,,,ユウセイジュウケン,0
436,2200001042928,新規,0,2024-09-12,2024-09-12,老包機械株式会社,,株式会社,岐阜県,美濃加茂市,加茂野町鷹之巣字家並割３７８番地２・Ａ棟,,21,211,5050051,,,,,,,2024-09-12,1,,,,,ロウバオキカイ,0
442,2240001063796,新規,0,2024-09-12,2024-09-12,株式会社エーアールエス,,株式会社,広島県,福山市,山手町６丁目３６番１１号,,34,207,7200092,,,,,,,2024-09-12,1,,,,,エーアールエス,0
443,2240003006852,新規,0,2024-09-12,2024-09-12,うわこ合同会社,,合同会社,広島県,広島市南区,松原町５番２－４７０７号,,34,103,7320822,,,,,,,2024-09-12,1,,,,,ウワコ,0
444,2240005015819,新規,0,2024-09-12,2024-09-12,一般財団法人海洋文明創造財団,,その他の設立登記法人,広島県,広島市中区,基町１１－１０合人社広島紙屋町ビル８Ｆ－５５,,34,101,7300011,,,,,,,2024-09-12,1,,,,,カイヨウブンメイソウゾウザイダン,0
445,2250001020805,新規,0,2024-09-12,2024-09-12,株式会社ＯｎｅＶｉｓｉｏｎ,,株式会社,山口県,山口市,朝田字八面１１９７番地２Ｆ,,35,203,7530871,,,,,,,2024-09-12,1,,,,,ワンビジョン,0
448,2270003001669,新規,0,2024-09-12,2024-09-12,合同会社Ｇ‐ＳＭＩＬＥ,,合同会社,鳥取県,鳥取市,永楽温泉町１６３,,31,201,6800834,,,,,,,2024-09-12,1,,,,,,0
452,2290001107243,新規,0,2024-09-12,2024-09-12,株式会社Ｈ　ＰＲＯＪＥＣＴ　ＯＦＦＩＣＥ,,株式会社,福岡県,福岡市西区,豊浜１丁目１５番３号,,40,135,8190014,,,,,,,2024-09-12,1,,,,,エイチプロジェクトオフィス,0
456,2340001026792,新規,0,2024-09-12,2024-09-12,株式会社福山工業,,株式会社,鹿児島県,南九州市,知覧町永里２６８１番地,,46,223,8970303,,,,,,,2024-09-12,1,,,,,フクヤマコウギョウ,0
461,2360001034190,新規,0,2024-09-12,2024-09-12,株式会社ファーストプロジェクト,,株式会社,沖縄県,那覇市,松尾２丁目２３番７号,,47,201,9000014,,,,,,,2024-09-12,1,,,,,ファーストプロジェクト,0
463,2370001051714,新規,0,2024-09-12,2024-09-12,株式会社美月,,株式会社,宮城県,仙台市泉区,泉ケ丘５丁目１７番２５号,,04,105,9813201,,,,,,,2024-09-12,1,,,,,ミツキ,0
464,2380001034791,新規,0,2024-09-12,2024-09-12,株式会社リベルクス,,株式会社,福島県,いわき市,中央台高久３丁目２番地の１,,07,204,9708047,,,,,,,2024-09-12,1,,,,,リベルクス,0
467,2390003002283,新規,0,2024-09-12,2024-09-12,菅原住設合同会社,,合同会社,山形県,飽海郡遊佐町,菅里字菅野３０４番地の６０,,06,461,9998531,,,,,,,2024-09-12,1,,,,,スガワラジュウセツ,0
469,2410001013932,新規,0,2024-09-12,2024-09-12,株式会社ＵＧＯホールディングス,,株式会社,秋田県,秋田市,泉中央２丁目２番２９号,,05,201,0100917,,,,,,,2024-09-12,1,,,,,ユージーオーホールディングス,0
471,2410003003980,新規,0,2024-09-12,2024-09-12,合同会社マジックアワー,,合同会社,秋田県,大仙市,若竹町３番１６号サンヴィレッヂ弘栄ａ号室,,05,212,0140016,,,,,,,2024-09-12,1,,,,,,0
475,2430003016766,新規,0,2024-09-12,2024-09-12,合同会社丸の一,,合同会社,北海道,札幌市白石区,菊水三条４丁目１番４０－９０１号,,01,104,0030803,,,,,,,2024-09-12,1,,,,,マルノイチ,0
479,2500003003328,新規,0,2024-09-12,2024-09-12,ノリタカ合同会社,,合同会社,愛媛県,四国中央市,妻鳥町２０３５番地４,,38,213,7990113,,,,,,,2024-09-12,1,,,,,ノリタカ,0
484,3010001248147,新規,0,2024-09-12,2024-09-12,星光株式会社,,株式会社,東京都,中央区,日本橋中洲６－１６－３０１,,13,102,1030008,,,,,,,2024-09-12,1,,,,,セイコウ,0
485,3010001248155,新規,0,2024-09-12,2024-09-12,家計のＯｔｏｍｏ株式会社,,株式会社,東京都,中央区,日本橋久松町５番１１－１００３号,,13,102,1030005,,,,,,,2024-09-12,1,,,,,カケイノオトモ,0
486,3010001248171,新規,0,2024-09-12,2024-09-12,株式会社ＨＭ,,株式会社,東京都,中央区,八重洲２丁目１－１ＹＡＮＭＡＲＴＯＫＹＯ１２階,,13,102,1040028,,,,,,,2024-09-12,1,,,,,エイチエム,0
487,3010001248188,新規,0,2024-09-12,2024-09-12,株式会社ＢＣＪ‐８５‐１,,株式会社,東京都,千代田区,丸の内１丁目１番１号パレスビル５階,,13,101,1000005,,,,,,,2024-09-12,1,,,,,ビーシージェイエイティーファイブワン,0
488,3010001248213,新規,0,2024-09-12,2024-09-12,株式会社ＰｌａｎｅｔＤＡＯ００２,,株式会社,東京都,千代田区,平河町２丁目５番３号,,13,101,1020093,,,,,,,2024-09-12,1,,,,,プラネットダオゼロゼロツー,0
489,3010001248221,新規,0,2024-09-12,2024-09-12,Ｔ＆Ｇ株式会社,,株式会社,東京都,中央区,晴海５丁目５－２,,13,102,1040053,,,,,,,2024-09-12,1,,,,,ティーアンドジー,0
494,3010003044866,新規,0,2024-09-12,2024-09-12,合同会社ＡＲＡ　ｉｎｖｅｓｔｍｅｎｔ,,合同会社,東京都,中央区,日本橋大伝馬町１３番１０号,,13,102,1030011,,,,,,,2024-09-12,1,,,,,アラインベストメント,0
495,3010003044890,新規,0,2024-09-12,2024-09-12,八広合同会社,,合同会社,東京都,中央区,新川１丁目８番１９－１２０１号,,13,102,1040033,,,,,,,2024-09-12,1,,,,,ヤヒロ,0
496,3010003044899,新規,0,2024-09-12,2024-09-12,エナジープールＡＰＡＣ合同会社,,合同会社,東京都,文京区,白山２丁目２１番１０号白山パークマンション３０２号室,,13,105,1120001,,,,,,,2024-09-12,1,,,,,エナジープールエイパック,0
497,3010005038800,新規,0,2024-09-12,2024-09-12,一般社団法人政策推進機構,,その他の設立登記法人,東京都,中央区,日本橋室町１丁目１１番１２号日本橋水野ビル７階,,13,102,1030022,,,,,,,2024-09-12,1,,,,,セイサクスイシンキコウ,0
508,3010401185048,新規,0,2024-09-12,2024-09-12,株式会社Ｔｈｅ　Ｃｏｓｍｅｔｉｃｓ　Ｇｒｏｕｐ,,株式会社,東京都,港区,虎ノ門４丁目１番２８号虎ノ門タワーズオフィス１７階,,13,103,1050001,,,,,,,2024-09-12,1,,,,,ザコスメティクスグループ,0
509,3010401185064,新規,0,2024-09-12,2024-09-12,ＴＥＣＨＴＲＡＩＬ株式会社,,株式会社,東京都,港区,南青山３丁目１番３６号青山丸竹ビル６Ｆ,,13,103,1070062,,,,,,,2024-09-12,1,,,,,,0
510,3010401185080,新規,0,2024-09-12,2024-09-12,ＴＨＲＥＥ株式会社,,株式会社,東京都,港区,海岸２丁目５番１－４１０号,,13,103,1050022,,,,,,,2024-09-12,1,,,,,スリー,0
522,3010501052899,新規,0,2024-09-12,2024-09-12,スイカ株式会社,,株式会社,東京都,台東区,下谷２丁目７番８－３０５号,,13,106,1100004,,,,,,,2024-09-12,1,,,,,スイカ,0
523,3010603011068,新規,0,2024-09-12,2024-09-12,オリザフロス合同会社,,合同会社,東京都,江東区,潮見２丁目６番１－２１６号,,13,108,1350052,,,,,,,2024-09-12,1,,,,,オリザフロス,0
526,3010701046528,新規,0,2024-09-12,2024-09-12,日本塗工株式会社,,株式会社,東京都,品川区,大井５丁目１９番３号,,13,109,1400014,,,,,,,2024-09-12,1,,,,,ニホントコウ,0
528,3010803005092,新規,0,2024-09-12,2024-09-12,合同会社ランダ,,合同会社,東京都,大田区,西嶺町２１番２２号,,13,111,1450075,,,,,,,2024-09-12,1,,,,,ランダ,0
529,3010901055989,新規,0,2024-09-12,2024-09-12,ｍｏｒｒｏｗ　ｅｎｔｅｒｐｒｉｓｅ株式会社,,株式会社,東京都,世田谷区,三軒茶屋１丁目３３―１１,,13,112,1540024,,,,,,,2024-09-12,1,,,,,モローエンタープライズ,0
532,3011001164508,新規,0,2024-09-12,2024-09-12,株式会社ＢＡｔｏＷＡ,,株式会社,東京都,渋谷区,神宮前３丁目１５－９ＣＲＥＳＴ表参道２０３,,13,113,1500001,,,,,,,2024-09-12,1,,,,,バトゥア,0
533,3011001164524,新規,0,2024-09-12,2024-09-12,株式会社ＳＣＴ,,株式会社,東京都,目黒区,下目黒４丁目１８－１９グリーンパレス２０２,,13,110,1530064,,,,,,,2024-09-12,1,,,,,エスシーティー,0
534,3011001164540,新規,0,2024-09-12,2024-09-12,クラスト株式会社,,株式会社,東京都,渋谷区,渋谷１丁目３番１８号,,13,113,1500002,,,,,,,2024-09-12,1,,,,,クラスト,0
535,3011001164648,新規,0,2024-09-12,2024-09-12,株式会社ＢＯＢ,,株式会社,東京都,渋谷区,道玄坂１丁目１０番８号渋谷道玄坂東急ビル２Ｆ－Ｃ,,13,113,1500043,,,,,,,2024-09-12,1,,,,,ボブ,0
536,3011001164672,新規,0,2024-09-12,2024-09-12,一遇株式会社,,株式会社,東京都,渋谷区,道玄坂１丁目１０番８号渋谷道玄坂東急ビル２Ｆ‐Ｃ,,13,113,1500043,,,,,,,2024-09-12,1,,,,,イチグウ,0
537,3011003019957,新規,0,2024-09-12,2024-09-12,合同会社ｂｌａｃｋａｄｄｅｒ,,合同会社,東京都,渋谷区,渋谷２丁目１９－１５宮益坂ビルディング６０９,,13,113,1500002,,,,,,,2024-09-12,1,,,,,,0
546,3011601028046,新規,0,2024-09-12,2024-09-12,株式会社想愛の和,,株式会社,東京都,練馬区,谷原１丁目７番２号,,13,120,1770032,,,,,,,2024-09-12,1,,,,,ソアノワ,0
547,3011701027600,新規,0,2024-09-12,2024-09-12,三元製造株式会社,,株式会社,東京都,江戸川区,平井５丁目４５番５号渡辺ハイツ１０１,,13,123,1320035,,,,,,,2024-09-12,1,,,,,サンゲンセイゾウ,0
550,3012401042278,新規,0,2024-09-12,2024-09-12,株式会社ＡＯ,,株式会社,東京都,府中市,府中町１丁目１２番地の２０,,13,206,1830055,,,,,,,2024-09-12,1,,,,,アオ,0
552,3013301053092,新規,0,2024-09-12,2024-09-12,ＴＫＹ金雕貿易株式会社,,株式会社,東京都,豊島区,巣鴨３丁目２４－５－３０３号室,,13,116,1700002,,,,,,,2024-09-12,1,,,,,ティケイワイジンデオボウエキ,0
553,3013301053101,新規,0,2024-09-12,2024-09-12,株式会社ＶＩＥ　ＨＵＩＴ,,株式会社,東京都,豊島区,南長崎２丁目２５番５号ラガール椎名町２０３号,,13,116,1710052,,,,,,,2024-09-12,1,,,,,ヴィユイット,0
564,3020001159046,新規,0,2024-09-12,2024-09-12,オールインワン株式会社,,株式会社,神奈川県,横浜市都筑区,中川６丁目１番Ｄ－１００７号,,14,118,2240001,,,,,,,2024-09-12,1,,,,,オールインワン,0
565,3020001159153,新規,0,2024-09-12,2024-09-12,株式会社ｅｔｏｇｉ,,株式会社,神奈川県,横浜市南区,弘明寺町２３４番地１６ロイヤルシャトー弘明寺４０１,,14,105,2320067,,,,,,,2024-09-12,1,,,,,エトギ,0
566,3020001159178,新規,0,2024-09-12,2024-09-12,株式会社ＮＯＢＩＬＩＳ,,株式会社,神奈川県,川崎市麻生区,王禅寺１２５４番地１０７,,14,137,2150013,,,,,,,2024-09-12,1,,,,,ノービリス,0
567,3020001159211,新規,0,2024-09-12,2024-09-12,株式会社エルピーホールディングス,,株式会社,神奈川県,横浜市戸塚区,上矢部町１９６５番地４,,14,110,2450053,,,,,,,2024-09-12,1,,,,,エルピーホールディングス,0
570,3021001083211,新規,0,2024-09-12,2024-09-12,株式会社はじめ設備,,株式会社,神奈川県,相模原市緑区,町屋１丁目２４番５号,,14,151,2520101,,,,,,,2024-09-12,1,,,,,ハジメセツビ,0
571,3021001083228,新規,0,2024-09-12,2024-09-12,株式会社優輝,,株式会社,神奈川県,座間市,栗原１１８８番地,,14,216,2520013,,,,,,,2024-09-12,1,,,,,ユウコウ,0
579,3030001162404,新規,0,2024-09-12,2024-09-12,株式会社一俊会,,株式会社,埼玉県,川越市,大字小堤４９４番地１,,11,201,3500811,,,,,,,2024-09-12,1,,,,,イチシュンカイ,0
580,3030001162412,新規,0,2024-09-12,2024-09-12,株式会社エフロジカーゴ,,株式会社,埼玉県,鴻巣市,寺谷１２５番地,,11,217,3650071,,,,,,,2024-09-12,1,,,,,エフロジカーゴ,0
589,3040001135400,新規,0,2024-09-12,2024-09-12,株式会社トータルロジ,,株式会社,千葉県,長生郡長柄町,上野１１６番地１,,12,426,2970201,,,,,,,2024-09-12,1,,,,,トータルロジ,0
598,3050001055382,新規,0,2024-09-12,2024-09-12,株式会社フローラ,,株式会社,茨城県,守谷市,中央３丁目１３番地９－１３０６号,,08,224,3020115,,,,,,,2024-09-12,1,,,,,フローラ,0
599,3050001055390,新規,0,2024-09-12,2024-09-12,河口農園株式会社,,株式会社,茨城県,結城郡八千代町,大字平塚６１５番地,,08,521,3003561,,,,,,,2024-09-12,1,,,,,カワグチノウエン,0
600,3050001055399,新規,0,2024-09-12,2024-09-12,株式会社ガレージ絆,,株式会社,茨城県,つくば市,梅園２丁目１－１５スプリングテックつくば４０１,,08,220,3050045,,,,,,,2024-09-12,1,,,,,,0
604,3080101024986,新規,0,2024-09-12,2024-09-12,株式会社賀茂自動車検査場,,株式会社,静岡県,下田市,中５５６番地,,22,219,4150016,,,,,,,2024-09-12,1,,,,,,0
606,3080103003146,新規,0,2024-09-12,2024-09-12,Ｃｒｙｓｔａｌ１１合同会社,,合同会社,静岡県,駿東郡清水町,堂庭２４０番地の１０,,22,341,4110903,,,,,,,2024-09-12,1,,,,,クリスタルイレブン,0
618,3120001268489,新規,0,2024-09-12,2024-09-12,ＲＥＬＹＯＮ株式会社,,株式会社,大阪府,大阪市淀川区,西宮原２丁目６番１号、９１４号室,,27,123,5320004,,,,,,,2024-09-12,1,,,,,リライオン,0
619,3120001268497,新規,0,2024-09-12,2024-09-12,福栄貿易株式会社,,株式会社,大阪府,大阪市東成区,大今里南２丁目８番３号,,27,115,5370013,,,,,,,2024-09-12,1,,,,,フクエイボウエキ,0
620,3120001268506,新規,0,2024-09-12,2024-09-12,日本森立株式会社,,株式会社,大阪府,大阪市中央区,内本町２丁目１番１９－１２０３号室,,27,128,5400026,,,,,,,2024-09-12,1,,,,,ニホンセンリ,0
621,3120001268547,新規,0,2024-09-12,2024-09-12,株式会社ハウトランス,,株式会社,大阪府,大阪市淀川区,木川西４丁目３番３９号,,27,123,5320013,,,,,,,2024-09-12,1,,,,,ハウトランス,0
622,3120001268555,新規,0,2024-09-12,2024-09-12,株式会社リーパス・スタイル,,株式会社,大阪府,大阪市中央区,和泉町１丁目１番１４号,,27,128,5400019,,,,,,,2024-09-12,1,,,,,リーパススタイル,0
623,3120001268571,新規,0,2024-09-12,2024-09-12,ＷＯＯＤ　ＷＯＲＫ株式会社,,株式会社,大阪府,大阪市西区,南堀江４丁目２５番４号リベール南堀江アネックス６０１,,27,106,5500015,,,,,,,2024-09-12,1,,,,,ウッドワーク,0
628,3120003027513,新規,0,2024-09-12,2024-09-12,合同会社Ｉトラスト不動産,,合同会社,大阪府,枚方市,磯島茶屋町３番１０号,,27,210,5731184,,,,,,,2024-09-12,1,,,,,アイトラストフドウサン,0
629,3120003027521,新規,0,2024-09-12,2024-09-12,合同会社海幸,,合同会社,大阪府,大阪市北区,国分寺１丁目１番１５－３０４号,,27,127,5310064,,,,,,,2024-09-12,1,,,,,ウミノサチ,0
635,3140001135786,新規,0,2024-09-12,2024-09-12,株式会社３６９テクノロジーＪＡＰＡＮ,,株式会社,兵庫県,西宮市,甲子園砂田町６番３０－３号,,28,204,6638162,,,,,,,2024-09-12,1,,,,,ミロクテクノロジージャパン,0
640,3160001026208,新規,0,2024-09-12,2024-09-12,株式会社新時代,,株式会社,滋賀県,大津市,雄琴１丁目１５番４１号ハイラル雄琴１０２,,25,201,5200101,,,,,,,2024-09-12,1,,,,,シンジダイ,0
641,3160005011338,新規,0,2024-09-12,2024-09-12,野村社会保険労務士法人,,その他の設立登記法人,滋賀県,長浜市,国友町５０９番地,,25,203,5260001,,,,,,,2024-09-12,1,,,,,ノムラ,0
642,3170001018303,新規,0,2024-09-12,2024-09-12,株式会社ＹＦ,,株式会社,和歌山県,橋本市,高野口町名倉３９２番地１５,,30,203,6497205,,,,,,,2024-09-12,1,,,,,ワイエフ,0
647,3180001163222,新規,0,2024-09-12,2024-09-12,株式会社Ｒｉｎｏｃｅｒｏｎｔｅ,,株式会社,愛知県,名古屋市中区,千代田２丁目８番１３号,,23,106,4600012,,,,,,,2024-09-12,1,,,,,リノチェロンテ,0
648,3180001163230,新規,0,2024-09-12,2024-09-12,株式会社ＫＳＳ,,株式会社,愛知県,半田市,乙川源内林町２丁目１３１番地の１,,23,205,4750066,,,,,,,2024-09-12,1,,,,,ケイエスエス,0
652,3180303006260,新規,0,2024-09-12,2024-09-12,合同会社はるひ,,合同会社,愛知県,豊橋市,豊栄町字東２５４番地４,,23,201,4413125,,,,,,,2024-09-12,1,,,,,ハルヒ,0
653,3190001031634,新規,0,2024-09-12,2024-09-12,株式会社雄志,,株式会社,三重県,鈴鹿市,寺家１丁目３６‐１,,24,207,5100254,,,,,,,2024-09-12,1,,,,,ユウシ,0
655,3200001042919,新規,0,2024-09-12,2024-09-12,トラクラウド株式会社,,株式会社,岐阜県,岐阜市,鷹見町２３番地（笠原ビル２Ｆ）,,21,201,5008821,,,,,,,2024-09-12,1,,,,,トラクラウド,0
656,3200001042927,新規,0,2024-09-12,2024-09-12,株式会社Ｆｉｌｅｒ,,株式会社,岐阜県,岐阜市,五坪１丁目８番１７号,,21,201,5008157,,,,,,,2024-09-12,1,,,,,フィレール,0
657,3200001042935,新規,0,2024-09-12,2024-09-12,日本の防災をＴＯＴＯＮＯ‐Ｌ株式会社,,株式会社,岐阜県,岐阜市,金園町１丁目３番地３,,21,201,5008113,,,,,,,2024-09-12,1,,,,,ニホンノボウサイヲトトノエル,0
663,3240001063812,新規,0,2024-09-12,2024-09-12,株式会社仁人,,株式会社,広島県,福山市,御幸町下岩成２７３－２,,34,207,7210000,,,,,,,2024-09-12,1,,,,,ジンジン,0
665,3240005015826,新規,0,2024-09-12,2024-09-12,医療法人やまと会,,その他の設立登記法人,広島県,安芸郡府中町,桃山１丁目４番１８号３階,,34,302,7350026,,,,,,,2024-09-12,1,,,,,ヤマトカイ,0
668,3260001039447,新規,0,2024-09-12,2024-09-12,株式会社とあも,,株式会社,岡山県,岡山市中区,徳吉町１丁目４番９号,,33,102,7038291,,,,,,,2024-09-12,1,,,,,トアモ,0
671,3290001107242,新規,0,2024-09-12,2024-09-12,株式会社Ｉ．ＪＯＨ,,株式会社,福岡県,飯塚市,椋本１１,,40,205,8200077,,,,,,,2024-09-12,1,,,,,アイジョー,0
680,3340001026783,新規,0,2024-09-12,2024-09-12,株式会社ｅｓｐｅｒａｎｚａ,,株式会社,鹿児島県,薩摩川内市,永利町２５４７番地２アンソレイユ２０３,,46,215,8950005,,,,,,,2024-09-12,1,,,,,エスペランザ,0
681,3340001026791,新規,0,2024-09-12,2024-09-12,株式会社ニコメゾン,,株式会社,鹿児島県,薩摩川内市,中郷４丁目８番地,,46,215,8950072,,,,,,,2024-09-12,1,,,,,ニコメゾン,0
684,3360001034181,新規,0,2024-09-12,2024-09-12,株式会社ＭＵＲＵＭＡ‐ＲＵ,,株式会社,沖縄県,沖縄市,大里１丁目１８番５０号,,47,211,9042163,,,,,,,2024-09-12,1,,,,,ムルマール,0
685,3360003014289,新規,0,2024-09-12,2024-09-12,合同会社和,,合同会社,沖縄県,沖縄市,松本１丁目２１番２３号,,47,211,9042151,,,,,,,2024-09-12,1,,,,,ノドカ,0
686,3380001034790,新規,0,2024-09-12,2024-09-12,株式会社長谷川木材,,株式会社,福島県,河沼郡会津坂下町,大字束松字東天屋乙５０９番地,,07,421,9696587,,,,,,,2024-09-12,1,,,,,ハセガワモクザイ,0
687,3390003002282,新規,0,2024-09-12,2024-09-12,合同会社Ｓｏｎｅｈａｌａ,,合同会社,山形県,南陽市,俎柳９２４番地の１,,06,213,9992200,,,,,,,2024-09-12,1,,,,,ソネハラ,0
690,3430001092651,新規,0,2024-09-12,2024-09-12,株式会社エスエーサービス札幌,,株式会社,北海道,札幌市北区,あいの里四条３丁目１８番５号,,01,102,0028074,,,,,,,2024-09-12,1,,,,,エスエーサービスサッポロ,0
692,3450003002540,新規,0,2024-09-12,2024-09-12,合同会社あいびー,,合同会社,北海道,旭川市,一条通１７丁目５０２－２１,,01,204,0700031,,,,,,,2024-09-12,1,,,,,アイビー,0
704,3500001025876,新規,0,2024-09-12,2024-09-12,株式会社ユーサイド,,株式会社,愛媛県,松山市,北条辻１１２６番地１５,00136277,38,201,7992430,,,,,,,2024-09-12,1,,,,,ユーサイド,0
706,3500003003302,新規,0,2024-09-12,2024-09-12,合同会社ＮＥＯグリッド,,合同会社,愛媛県,松山市,堀江町甲６２９番地１,,38,201,7992651,,,,,,,2024-09-12,1,,,,,ネオグリッド,0
710,3700150127131,新規,0,2024-09-12,2024-09-12,大通西４南地区市街地再開発組合,,その他,北海道,札幌市中央区,南一条東１丁目３番地,,01,101,0600051,,,,,,,2024-09-12,1,,,,,オオドオリニシヨンミナミチクシガイチサイカイハツクミアイ,0
722,4010001248245,新規,0,2024-09-12,2024-09-12,株式会社ｇｙｕｕ,,株式会社,東京都,千代田区,神田多町２丁目２番３号,,13,101,1010046,,,,,,,2024-09-12,1,,,,,ギュゥー,0
723,4010001248261,新規,0,2024-09-12,2024-09-12,日本ＣＣＵＳ投資株式会社,,株式会社,東京都,千代田区,大手町１丁目４番２号,,13,101,1000004,,,,,,,2024-09-12,1,,,,,ニホンシーシーユーエストウシ,0
724,4010003044816,新規,0,2024-09-12,2024-09-12,合同会社未完成,,合同会社,東京都,中央区,銀座１丁目１２番４号Ｎ＆ＥＢＬＤ．７階,,13,102,1040061,,,,,,,2024-09-12,1,,,,,ミカンセイ,0
725,4010003044865,新規,0,2024-09-12,2024-09-12,合同会社Ｇｏｎ,,合同会社,東京都,中央区,銀座１丁目１２－４Ｎ＆ＥＢＬＤ．７階,,13,102,1040061,,,,,,,2024-09-12,1,,,,,ゴン,0
726,4010003044898,新規,0,2024-09-12,2024-09-12,刺狐合同会社,,合同会社,東京都,千代田区,神田三崎町２丁目１０番１１号（Ｐｅｇビル）４Ｂ－６号室,,13,101,1010061,,,,,,,2024-09-12,1,,,,,シコ,0
727,4010101016320,新規,0,2024-09-12,2024-09-12,株式会社スターズ,,株式会社,東京都,八王子市,大和田町７丁目１０番３－５０２号,,13,201,1920045,,,,,,,2024-09-12,1,,,,,スターズ,0
733,4010401184684,新規,0,2024-09-12,2024-09-12,株式会社ＪＣＦ,,株式会社,東京都,港区,北青山１丁目３番１号アールキューブ青山３階,,13,103,1070061,,,,,,,2024-09-12,1,,,,,ジェーシーエフ,0
734,4010401184981,新規,0,2024-09-12,2024-09-12,ＡＭＲＤ株式会社,,株式会社,東京都,港区,芝浦４丁目１２番３８号,,13,103,1080023,,,,,,,2024-09-12,1,,,,,エーエムアールディー,0
735,4010401184998,新規,0,2024-09-12,2024-09-12,株式会社ＮＯＤＥ,,株式会社,東京都,港区,赤坂４丁目３番３０号横川ビル５０２号,,13,103,1070052,,,,,,,2024-09-12,1,,,,,ノード,0
736,4010401185055,新規,0,2024-09-12,2024-09-12,きらら創建株式会社,,株式会社,東京都,港区,北青山１丁目３番１号アールキューブ青山３階,,13,103,1070061,,,,,,,2024-09-12,1,,,,,,0
737,4010401185063,新規,0,2024-09-12,2024-09-12,株式会社アイ・エム・インターナショナル,,株式会社,東京都,港区,北青山３丁目１３番１２号地下１階,,13,103,1070061,,,,,,,2024-09-12,1,,,,,アイエムインターナショナル,0
738,4010401185071,新規,0,2024-09-12,2024-09-12,株式会社ティーエスプロパティ,,株式会社,東京都,港区,芝浦４丁目２１番１－１５１１号,,13,103,1080023,,,,,,,2024-09-12,1,,,,,ティーエスプロパティ,0
741,4010403033410,新規,0,2024-09-12,2024-09-12,合同会社クラエネ,,合同会社,東京都,港区,六本木７丁目１８番１５号六本木７１８ビル１１階,,13,103,1060032,,,,,,,2024-09-12,1,,,,,クラエネ,0
749,4010801035388,新規,0,2024-09-12,2024-09-12,株式会社クラフトアート,,株式会社,東京都,大田区,大森北１丁目１番５号,,13,111,1430016,,,,,,,2024-09-12,1,,,,,クラフトアート,0
753,4011001164630,新規,0,2024-09-12,2024-09-12,株式会社ＤＲ,,株式会社,東京都,渋谷区,円山町５番５号Ｎａｖｉ渋谷Ｖ３階,00136283,13,113,1500044,,,,,,,2024-09-12,1,,,,,ディーアール,0
754,4011003019956,新規,0,2024-09-12,2024-09-12,合同会社ＨＢＴＮ,,合同会社,東京都,目黒区,自由が丘２丁目１６番１２号ＲＪ３,,13,110,1520035,,,,,,,2024-09-12,1,,,,,エイチビーティーエヌ,0
755,4011003019980,新規,0,2024-09-12,2024-09-12,アクネス合同会社,,合同会社,東京都,渋谷区,道玄坂１丁目１０番８号渋谷道玄坂東急ビル２Ｆ－Ｃ,,13,113,1500043,,,,,,,2024-09-12,1,,,,,アクネス,0
756,4011003020014,新規,0,2024-09-12,2024-09-12,ＬＭＮＯＰ　Ｃａｐｉｔａｌ合同会社,,合同会社,東京都,渋谷区,千駄ヶ谷３丁目５３番６号原宿グランドヒルズ４０３,,13,113,1510051,,,,,,,2024-09-12,1,,,,,エルエムエヌオーピーキャピタル,0
763,4011101108735,新規,0,2024-09-12,2024-09-12,株式会社Ｒ,,株式会社,東京都,新宿区,新宿５丁目１２番１０号,,13,104,1600022,,,,,,,2024-09-12,1,,,,,アール,0
764,4011103014915,新規,0,2024-09-12,2024-09-12,ネットソリューションズ合同会社,,合同会社,東京都,新宿区,西新宿３丁目３番地１３号西新宿水間ビル２Ｆ,,13,104,1600023,,,,,,,2024-09-12,1,,,,,ネットソリューションズ,0
770,4011601028053,新規,0,2024-09-12,2024-09-12,株式会社ビクトリー,,株式会社,東京都,練馬区,西大泉２丁目２２番２５号,,13,120,1780065,,,,,,,2024-09-12,1,,,,,ビクトリー,0
771,4011603004457,新規,0,2024-09-12,2024-09-12,合同会社ＧＳＧ,,合同会社,東京都,練馬区,関町南３丁目７番９号,,13,120,1770053,,,,,,,2024-09-12,1,,,,,ジーエスジー,0
773,4011801044825,新規,0,2024-09-12,2024-09-12,てすりふぉーむ株式会社,,株式会社,東京都,足立区,中央本町４丁目１３番１５号,,13,121,1210011,,,,,,,2024-09-12,1,,,,,テスリフォーム,0
777,4012701018448,新規,0,2024-09-12,2024-09-12,株式会社ＴＯＵ,,株式会社,東京都,小平市,栄町１丁目１５－１１,,13,211,1870034,,,,,,,2024-09-12,1,,,,,トウ,0
780,4013101009509,新規,0,2024-09-12,2024-09-12,琉清クリーン株式会社,,株式会社,東京都,西多摩郡瑞穂町,南平２丁目６番地２５,,13,303,1901224,,,,,,,2024-09-12,1,,,,,リュウセイクリーン,0
781,4013301053100,新規,0,2024-09-12,2024-09-12,久住・アンド・カンパニー株式会社,,株式会社,東京都,豊島区,千早１丁目９番１２号,,13,116,1710044,,,,,,,2024-09-12,1,,,,,クスミアンドカンパニー,0
790,4020001158880,新規,0,2024-09-12,2024-09-12,来富通商事株式会社,,株式会社,神奈川県,横浜市西区,北幸２丁目１０番４８号むつみビル３階,,14,103,2200004,,,,,,,2024-09-12,1,,,,,,0
791,4020001159160,新規,0,2024-09-12,2024-09-12,株式会社Ｔｈｅ　Ｄａｙｓ　Ｗａｔｅｒ,,株式会社,神奈川県,横浜市西区,浅間町１丁目４番３号ウィザードビル４０２,,14,103,2200072,,,,,,,2024-09-12,1,,,,,ザデイズウオーター,0
792,4020001159193,新規,0,2024-09-12,2024-09-12,ＭＡＧＮＥ株式会社,,株式会社,神奈川県,横浜市西区,藤棚町１丁目９６番地リーベオリサカ４０１号,00136288,14,103,2200053,,,,,,,2024-09-12,1,,,,,マグネ,0
793,4020001159210,新規,0,2024-09-12,2024-09-12,株式会社Ｆｕｌｌ　Ｓｐｅｅｄ,,株式会社,神奈川県,横浜市旭区,川井宿町１２６番地３２,,14,112,2410804,,,,,,,2024-09-12,1,,,,,フルスピード,0
795,4020003026904,新規,0,2024-09-12,2024-09-12,合同会社宙,,合同会社,神奈川県,川崎市宮前区,犬蔵１丁目１番７－６０６号,,14,136,2160011,,,,,,,2024-09-12,1,,,,,ソラ,0
800,4021001083219,新規,0,2024-09-12,2024-09-12,株式会社想創パートナーズ,,株式会社,神奈川県,逗子市,久木４丁目１番８号,,14,208,2490001,,,,,,,2024-09-12,1,,,,,ソウソウパートナーズ,0
804,4030001162403,新規,0,2024-09-12,2024-09-12,株式会社加藤介護福祉クリニック,,株式会社,埼玉県,大里郡寄居町,大字西ノ入１２５２番地,,11,408,3691225,,,,,,,2024-09-12,1,,,,,カトウカイゴフクシクリニック,0
805,4030001162411,新規,0,2024-09-12,2024-09-12,株式会社ましもり農園,,株式会社,埼玉県,越谷市,大字増森２１３９番地１,,11,222,3430012,,,,,,,2024-09-12,1,,,,,マシモリノウエン,0
806,4030001162428,新規,0,2024-09-12,2024-09-12,株式会社恒衆,,株式会社,埼玉県,川口市,西川口４丁目９番１１－４１７号スカイコート西川口,,11,203,3320021,,,,,,,2024-09-12,1,,,,,コウシュウ,0
807,4030001162444,新規,0,2024-09-12,2024-09-12,株式会社リモートサポート,,株式会社,埼玉県,三郷市,新和１丁目４２８番地高橋ビル２Ａ,,11,237,3410034,,,,,,,2024-09-12,1,,,,,リモートサポート,0
813,4040001135333,新規,0,2024-09-12,2024-09-12,株式会社ダイシン,,株式会社,千葉県,佐倉市,宮ノ台３丁目２番５号ホワイトハウス２０６,,12,212,2850857,,,,,,,2024-09-12,1,,,,,ダイシン,0
814,4040001135374,新規,0,2024-09-12,2024-09-12,株式会社賢心,,株式会社,千葉県,柏市,名戸ケ谷１０９１番地８,,12,217,2770032,,,,,,,2024-09-12,1,,,,,ケンシン,0
815,4040001135382,新規,0,2024-09-12,2024-09-12,ベストドリームズ株式会社,,株式会社,千葉県,佐倉市,宮前３丁目２２番地４、４１６号室,,12,212,2850005,,,,,,,2024-09-12,1,,,,,ベストドリームズ,0
820,4060001037478,新規,0,2024-09-12,2024-09-12,株式会社不二ロジホールディングス,,株式会社,栃木県,河内郡上三川町,大字西汗１６６２番地１,,09,301,3290607,,,,,,,2024-09-12,1,,,,,フジロジホールディングス,0
821,4060003005235,新規,0,2024-09-12,2024-09-12,合同会社ステップアップ,,合同会社,栃木県,足利市,五十部町１０５６番地１エンパレスＶ１１Ｃ号棟,,09,202,3260843,,,,,,,2024-09-12,1,,,,,ステップアップ,0
825,4070005010315,新規,0,2024-09-12,2024-09-12,一般社団法人日本治療院経営サポート協会,,その他の設立登記法人,群馬県,高崎市,菅谷町２０番地６１４,,10,202,3703522,,,,,,,2024-09-12,1,,,,,,0
830,4080103003129,新規,0,2024-09-12,2024-09-12,ＧＯＬＦＫＩＮＧ合同会社,,合同会社,静岡県,沼津市,中沢田３８５,,22,203,4100006,,,,,,,2024-09-12,1,,,,,ゴルフキング,0
837,4110003005510,新規,0,2024-09-12,2024-09-12,合同会社和,,合同会社,新潟県,新潟市中央区,関屋田町３丁目５２６番地２,,15,103,9518136,,,,,,,2024-09-12,1,,,,,ナゴミ,0
845,4120001268513,新規,0,2024-09-12,2024-09-12,株式会社和動設備,,株式会社,大阪府,大阪市淀川区,加島３丁目中２番１０－６２３号,,27,123,5320031,,,,,,,2024-09-12,1,,,,,ワドウセツビ,0
846,4120001268570,新規,0,2024-09-12,2024-09-12,株式会社アカツキ,,株式会社,大阪府,大阪市東淀川区,西淡路１丁目３番２６号４０１号室,,27,114,5330031,,,,,,,2024-09-12,1,,,,,アカツキ,0
847,4120001268579,新規,0,2024-09-12,2024-09-12,株式会社アクール,,株式会社,大阪府,大阪市西淀川区,花川２丁目１０番１８号,,27,113,5550023,,,,,,,2024-09-12,1,,,,,アクール,0
851,4120003027512,新規,0,2024-09-12,2024-09-12,合同会社ｌｉｅｔｏ,,合同会社,大阪府,大阪市鶴見区,放出東３丁目３２番７号,,27,124,5380044,,,,,,,2024-09-12,1,,,,,リエート,0
852,4120003027520,新規,0,2024-09-12,2024-09-12,ａｔｅｌｉｅｒｅｎｔ．ｊｐ合同会社,,合同会社,大阪府,大阪市阿倍野区,阿倍野筋１丁目１－４３あべのハルカス３１階,,27,119,5450052,,,,,,,2024-09-12,1,,,,,アトリエレントドットジャパン,0
853,4120003027529,新規,0,2024-09-12,2024-09-12,合同会社Ｔ＆Ｔ,,合同会社,大阪府,大阪市西区,新町１丁目２１番８－８０８号,,27,106,5500013,,,,,,,2024-09-12,1,,,,,ティーアンドティー,0
854,4120101070281,新規,0,2024-09-12,2024-09-12,株式会社ＷＯＲＫ,,株式会社,大阪府,阪南市,下出７０１番１６,,27,232,5990202,,,,,,,2024-09-12,1,,,,,ワーク,0
858,4122001038441,新規,0,2024-09-12,2024-09-12,株式会社ジャスティス,,株式会社,大阪府,八尾市,明美町１丁目６番４号,,27,212,5810087,,,,,,,2024-09-12,1,,,,,ジャスティス,0
871,4140003021075,新規,0,2024-09-12,2024-09-12,ゆいまーるＹ＆Ｔ合同会社,,合同会社,兵庫県,神戸市西区,学園東町５丁目１番地、５０７－２０５号,,28,111,6512102,,,,,,,2024-09-12,1,,,,,ユイマールワイアンドティー,0
883,4180003027234,新規,0,2024-09-12,2024-09-12,合同会社ビジネスライフ,,合同会社,愛知県,名古屋市中区,松原２丁目１９番３５号ポルタニグラ大須３０７号,,23,106,4600017,,,,,,,2024-09-12,1,,,,,ビジネスライフ,0
884,4180301039039,新規,0,2024-09-12,2024-09-12,ＫＫホールディングス株式会社,,株式会社,愛知県,豊田市,寿町３丁目３５番地,,23,211,4710834,,,,,,,2024-09-12,1,,,,,ケイケイホールディングス,0
886,4190001031625,新規,0,2024-09-12,2024-09-12,海住不動産株式会社,,株式会社,三重県,四日市市,茂福町８番２０号,,24,202,5108012,,,,,,,2024-09-12,1,,,,,カイジュウフドウサン,0
894,4240001063794,新規,0,2024-09-12,2024-09-12,ｔｏｋｏｔｏｗａ株式会社,,株式会社,広島県,尾道市,高須町４０４番地２,,34,205,7290141,,,,,,,2024-09-12,1,,,,,トコトワ,0
895,4240001063811,新規,0,2024-09-12,2024-09-12,株式会社おーるうぇいず,,株式会社,広島県,世羅郡世羅町,大字小国３４０５－４,,34,462,7221701,,,,,,,2024-09-12,1,,,,,オールウェイズ,0
898,4260001039454,新規,0,2024-09-12,2024-09-12,ＣＨＫ株式会社,,株式会社,岡山県,倉敷市,酒津２４９９番地１１,,33,202,7100801,,,,,,,2024-09-12,1,,,,,シーエイチケー,0
900,4260005011401,新規,0,2024-09-12,2024-09-12,一般社団法人宮地,,その他の設立登記法人,岡山県,久米郡久米南町,宮地５８１番地４,,33,663,7093631,,,,,,,2024-09-12,1,,,,,ミヤジ,0
907,4290001107233,新規,0,2024-09-12,2024-09-12,ベジファームおがわ株式会社,,株式会社,福岡県,久留米市,北野町中川５４５番地,,40,203,8301101,,,,,,,2024-09-12,1,,,,,ベジファームオガワ,0
911,4290003015806,新規,0,2024-09-12,2024-09-12,合同会社ＡＵＢＥ,,合同会社,福岡県,福岡市東区,香椎駅前２丁目１５番３２－４０３号,,40,131,8130013,,,,,,,2024-09-12,1,,,,,オーブ,0
912,4290003015814,新規,0,2024-09-12,2024-09-12,合同会社ハタエファーム,,合同会社,福岡県,糸島市,波多江２８３番地２,,40,230,8191104,,,,,,,2024-09-12,1,,,,,ハタエファーム,0
918,4340001026790,新規,0,2024-09-12,2024-09-12,株式会社Ｇｒａｔｉｆｙ,,株式会社,鹿児島県,霧島市,隼人町見次９９０番地１,,46,218,8995117,,,,,,,2024-09-12,1,,,,,グラティファイ,0
925,4400001016785,新規,0,2024-09-12,2024-09-12,プラスアルファ株式会社,,株式会社,岩手県,盛岡市,下飯岡１９地割２１－２,,03,201,0200853,,,,,,,2024-09-12,1,,,,,プラスアルファ,0
926,4420001018862,新規,0,2024-09-12,2024-09-12,双日奥入瀬農業株式会社,,株式会社,青森県,八戸市,大字十三日町１番地ヴィアノヴァビル３階,,02,203,0310042,,,,,,,2024-09-12,1,,,,,ソウジツオイラセノウギョウ,0
936,4450001014405,新規,0,2024-09-12,2024-09-12,株式会社メゾンライフ遠別,,株式会社,北海道,天塩郡遠別町,字啓明５３６番地,,01,486,0983503,,,,,,,2024-09-12,1,,,,,メゾンライフエンベツ,0
938,4460101007605,新規,0,2024-09-12,2024-09-12,株式会社マルタク,,株式会社,北海道,帯広市,幸福町東２線１６４番地,,01,207,0891246,,,,,,,2024-09-12,1,,,,,マルタク,0
941,4490005006956,新規,0,2024-09-12,2024-09-12,一般社団法人ＡＳＯＭＡ,,その他の設立登記法人,高知県,高岡郡佐川町,大田川２８９,,39,402,7891217,,,,,,,2024-09-12,1,,,,,アソマ,0
944,4500003003326,新規,0,2024-09-12,2024-09-12,合同会社Ｆｉｖｅ　ｍｏｏｎ,,合同会社,愛媛県,松山市,二番町２丁目２番地３,,38,201,7900002,,,,,,,2024-09-12,1,,,,,ファイブムーン,0
945,4700150127139,新規,0,2024-09-12,2024-09-12,ＬＵＣＫＹ　ＤＥＡＬＳ　ＴＲＡＤＥＲＳ　ＰＶＴ　ＬＴＤ,,外国会社等,茨城県,古河市,諸川１５９４番地オフィス１号,,08,204,3060126,スリランカ民主社会主義共和国、キャンディ、カトゥガストタ、マダワラロード、Ｎｏ．１０７,,,,,,2024-09-12,1,,,,,ラツキーデイールストレーダーズプライベートリミテツド,0
950,5010001248211,新規,0,2024-09-12,2024-09-12,株式会社Ｌｅｇａｒｄｅ,,株式会社,東京都,中央区,銀座１丁目２２番１１号銀座大竹ビジデンス２Ｆ,,13,102,1040061,,,,,,,2024-09-12,1,,,,,レガルデ,0
953,5010005038807,新規,0,2024-09-12,2024-09-12,ＵＡゼンセンウエルシアユニオン,,その他の設立登記法人,東京都,千代田区,神田駿河台２丁目１番地２０,,13,101,1010062,,,,,,,2024-09-12,1,,,,,ユーエーゼンセンウエルシアユニオン,0
961,5010401185054,新規,0,2024-09-12,2024-09-12,株式会社星啓影業,,株式会社,東京都,港区,六本木３丁目７番１号－１７１４,,13,103,1060032,,,,,,,2024-09-12,1,,,,,セイケイエイギョウ,0
962,5010401185062,新規,0,2024-09-12,2024-09-12,リニューアブル・ソリューションズ株式会社,,株式会社,東京都,港区,北青山１丁目３番１号アールキューブ青山３階,,13,103,1070061,,,,,,,2024-09-12,1,,,,,リニューアブルソリューションズ,0
965,5010403033392,新規,0,2024-09-12,2024-09-12,合同会社エン,,合同会社,東京都,港区,北青山１丁目３番１号アールキューブ青山３階,,13,103,1070061,,,,,,,2024-09-12,1,,,,,エン,0
967,5010405023508,新規,0,2024-09-12,2024-09-12,Ｓｃｏｒｐｉｏ特定目的会社,,その他の設立登記法人,東京都,港区,虎ノ門５丁目１番４号,,13,103,1050001,,,,,,,2024-09-12,1,,,,,スコーピオ,0
978,5010601065907,新規,0,2024-09-12,2024-09-12,株式会社Ｎｅｉｔｈ,,株式会社,東京都,江東区,亀戸４丁目２８番１３－１０１０号,,13,108,1360071,,,,,,,2024-09-12,1,,,,,ネイト,0
979,5010701046451,新規,0,2024-09-12,2024-09-12,株式会社ＭＥ,,株式会社,東京都,品川区,大井１丁目６―３アゴラ大井町ビル３階７１９,,13,109,1400014,,,,,,,2024-09-12,1,,,,,ミー,0
981,5010903009347,新規,0,2024-09-12,2024-09-12,山内商店合同会社,,合同会社,東京都,世田谷区,太子堂１丁目１２番２７－１００５号コンフォートテラス,,13,112,1540004,,,,,,,2024-09-12,1,,,,,ヤマウチショウテン,0
983,5011001164547,新規,0,2024-09-12,2024-09-12,株式会社６Ｓｔｕｄｉｏ,,株式会社,東京都,目黒区,平町２丁目１８－１６,,13,110,1520032,,,,,,,2024-09-12,1,,,,,シックススタジオ,0
984,5011001164654,新規,0,2024-09-12,2024-09-12,エカトラ株式会社,,株式会社,東京都,渋谷区,恵比寿４丁目２０番３号恵比寿ガーデンプレイス１８階,,13,113,1500013,,,,,,,2024-09-12,1,,,,,エカトラ,0
986,5011003019955,新規,0,2024-09-12,2024-09-12,合同会社Ｃｒｅａｔｅ　Ｇｒｏｕｎｄ,,合同会社,東京都,目黒区,下目黒１丁目１番１４号コノトラビル７Ｆ,,13,110,1530064,,,,,,,2024-09-12,1,,,,,クリエイトグラウンド,0
987,5011003019963,新規,0,2024-09-12,2024-09-12,合同会社妥当解釈,,合同会社,東京都,渋谷区,恵比寿西２丁目８番４号ＥＸ恵比寿西ビル５階,,13,113,1500021,,,,,,,2024-09-12,1,,,,,ダトウカイシャク,0
990,5011101108775,新規,0,2024-09-12,2024-09-12,株式会社ＦＵＨａＬ,,株式会社,東京都,新宿区,西新宿３丁目３番１３号西新宿水間ビル２Ｆ,,13,104,1600023,,,,,,,2024-09-12,1,,,,,フハル,0
992,5011103014914,新規,0,2024-09-12,2024-09-12,ミヤタ合同会社,,合同会社,東京都,新宿区,市谷本村町２番１５－１３０１号,,13,104,1620845,,,,,,,2024-09-12,1,,,,,ミヤタ,0
998,5011303005283,新規,0,2024-09-12,2024-09-12,クリアビスタ合同会社,,合同会社,東京都,杉並区,高円寺南２丁目４１番１０号,,13,115,1660003,,,,,,,2024-09-12,1,,,,,クリアビスタ,0
1005,5011603004456,新規,0,2024-09-12,2024-09-12,大須賀ビル管理合同会社,,合同会社,東京都,練馬区,谷原６丁目４番１６号,,13,120,1770032,,,,,,,2024-09-12,1,,,,,オオスガビルカンリ,0
1008,5011801044832,新規,0,2024-09-12,2024-09-12,株式会社ライトスタッフ,,株式会社,東京都,足立区,島根４丁目１１番１２－１００６号,,13,121,1210815,,,,,,,2024-09-12,1,,,,,ライトスタッフ,0
1009,5011803006434,新規,0,2024-09-12,2024-09-12,ＭＡＳＴＥＲＳ　ＴＲＡＤＥＲＳ合同会社,,合同会社,東京都,葛飾区,立石４丁目１２－５メイクハウス立石２０３号室,,13,122,1240012,,,,,,,2024-09-12,1,,,,,マスターズトレーダーズ,0
1013,5012701018447,新規,0,2024-09-12,2024-09-12,Ｔ＆Ｔ株式会社,,株式会社,東京都,小平市,学園東町１丁目８番４号,,13,211,1870043,,,,,,,2024-09-12,1,,,,,ティーアンドティー,0
1014,5012705002422,新規,0,2024-09-12,2024-09-12,医療法人社団ＹＣ,,その他の設立登記法人,東京都,東久留米市,本町３丁目１番１号マロニエヒルズ１階,,13,222,2030053,,,,,,,2024-09-12,1,,,,,ワイシー,0
1017,5013301053090,新規,0,2024-09-12,2024-09-12,Ｔｋｙ国際株式会社,,株式会社,東京都,豊島区,池袋本町２丁目７－１,,13,116,1700011,,,,,,,2024-09-12,1,,,,,ティーケイワイコクサイ,0
1019,5013303007292,新規,0,2024-09-12,2024-09-12,Ｅｎｅｒｇｙ　Ｓｔｏｒａｇｅ日立合同会社,,合同会社,東京都,豊島区,西池袋５丁目１番３号メトロシティ西池袋,,13,116,1710021,,,,,,,2024-09-12,1,,,,,エナジーストレージヒタチ,0
1026,5020001159110,新規,0,2024-09-12,2024-09-12,株式会社サードストリートアセット,,株式会社,神奈川県,横浜市神奈川区,鶴屋町１丁目４１番地３５０６号,,14,102,2210835,,,,,,,2024-09-12,1,,,,,サードストリートアセット,0
1027,5020001159201,新規,0,2024-09-12,2024-09-12,株式会社アキナイガーデンスタジオ,,株式会社,神奈川県,横浜市南区,弘明寺町字前田１４４番地１水谷マンション２０１,,14,105,2320067,,,,,,,2024-09-12,1,,,,,アキナイガーデンスタジオ,0
1033,5020003026878,新規,0,2024-09-12,2024-09-12,ナンブ合同会社,,合同会社,神奈川県,川崎市中原区,小杉町１丁目５２６番地１１,,14,133,2110063,,,,,,,2024-09-12,1,,,,,ナンブ,0
1034,5020003026886,新規,0,2024-09-12,2024-09-12,合同会社グローバルスタッフ,,合同会社,神奈川県,川崎市宮前区,けやき平１－２６－１０６宮前平グリーンハイツ,,14,136,2160023,,,,,,,2024-09-12,1,,,,,グローバルスタッフ,0
1038,5021001083226,新規,0,2024-09-12,2024-09-12,クオーレ・コネクト株式会社,,株式会社,神奈川県,相模原市南区,大野台１丁目８番１８号,,14,153,2520331,,,,,,,2024-09-12,1,,,,,クオーレコネクト,0
1040,5021003015004,新規,0,2024-09-12,2024-09-12,合同会社ＡＤＧ　Ｉｎｔｅｒｎａｔｉｏｎａｌ,,合同会社,神奈川県,大和市,桜森３丁目７番２号ニューハイツ桜森２０３号室,,14,213,2420028,,,,,,,2024-09-12,1,,,,,エーディージーインターナショナル,0
1043,5030001162402,新規,0,2024-09-12,2024-09-12,株式会社ＳＯＳＨＩＪＩ,,株式会社,埼玉県,新座市,本多１丁目１番２６号,,11,230,3520022,,,,,,,2024-09-12,1,,,,,ソシジ,0
1044,5030001162410,新規,0,2024-09-12,2024-09-12,株式会社設備のナカムラ,,株式会社,埼玉県,熊谷市,妻沼東５丁目６７番地,,11,202,3600202,,,,,,,2024-09-12,1,,,,,セツビノナカムラ,0
1045,5030001162419,新規,0,2024-09-12,2024-09-12,株式会社トラスコン,,株式会社,埼玉県,朝霞市,三原１丁目３３番５－１００２号,,11,227,3510025,,,,,,,2024-09-12,1,,,,,トラスコン,0
1046,5030001162435,新規,0,2024-09-12,2024-09-12,うたたねＨＯＵＳＥ株式会社,,株式会社,埼玉県,さいたま市見沼区,東大宮４丁目６１番地５８,,11,104,3370051,,,,,,,2024-09-12,1,,,,,ウタタネハウス,0
1055,5040003025787,新規,0,2024-09-12,2024-09-12,合同会社Ｋａｔｏ　ＩＴ　Ｓｏｌｕｔｉｏｎｓ,,合同会社,千葉県,市川市,柏井町１丁目１５８９番地２１,,12,203,2720802,,,,,,,2024-09-12,1,,,,,カトウアイティーソリューションズ,0
1057,5050001055389,新規,0,2024-09-12,2024-09-12,株式会社流源湖,,株式会社,茨城県,結城市,大字粕礼１２４３番地,,08,207,3070027,,,,,,,2024-09-12,1,,,,,リュウゲンコ,0
1058,5050001055397,新規,0,2024-09-12,2024-09-12,株式会社ラスター,,株式会社,茨城県,神栖市,神栖２丁目７－１３セゾン・シノハラ１０４号室,,08,232,3140143,,,,,,,2024-09-12,1,,,,,ラスター,0
1067,5110005017131,新規,0,2024-09-12,2024-09-12,社会保険労務士法人クロスブリッジ,,その他の設立登記法人,新潟県,新潟市中央区,大島１５８番地１,,15,103,9500953,,,,,,,2024-09-12,1,,,,,クロスブリッジ,0
1072,5120003027536,新規,0,2024-09-12,2024-09-12,合同会社ＳＳＫ,,合同会社,大阪府,大阪市西区,南堀江２丁目１２番１０－２０５号,,27,106,5500015,,,,,,,2024-09-12,1,,,,,エスエスケー,0
1078,5120101070272,新規,0,2024-09-12,2024-09-12,株式会社眞野工芸,,株式会社,大阪府,藤井寺市,大井２丁目５番７号,,27,226,5830008,,,,,,,2024-09-12,1,,,,,マノコウゲイ,0
1089,5140001135792,新規,0,2024-09-12,2024-09-12,株式会社クール電子,,株式会社,兵庫県,尼崎市,塚口本町７丁目１２－１サンハイツ柏本１０３,,28,202,6610001,,,,,,,2024-09-12,1,,,,,クールデンシ,0
1092,5140003021074,新規,0,2024-09-12,2024-09-12,平田屋エステート合同会社,,合同会社,兵庫県,姫路市,駅前町３０９番地,,28,201,6700927,,,,,,,2024-09-12,1,,,,,ヒラタヤエステート,0
1093,5140003021082,新規,0,2024-09-12,2024-09-12,日暮ベース合同会社,,合同会社,兵庫県,神戸市中央区,日暮通１丁目５番２１号,,28,110,6510077,,,,,,,2024-09-12,1,,,,,ヒグレベース,0
1098,5160005011336,新規,0,2024-09-12,2024-09-12,一般社団法人長浜放課後児童教室,,その他の設立登記法人,滋賀県,長浜市,三ツ矢元町１９番３４号,,25,203,5260024,,,,,,,2024-09-12,1,,,,,ナガハマホウカゴジドウキョウシツ,0
1100,5180001163237,新規,0,2024-09-12,2024-09-12,Ｍ＆Ｋコンサルティング株式会社,,株式会社,愛知県,名古屋市港区,港明２丁目４番２号,,23,111,4550018,,,,,,,2024-09-12,1,,,,,エムアンドケイコンサルティング,0
1106,5180301039038,新規,0,2024-09-12,2024-09-12,株式会社三幸製作所,,株式会社,愛知県,西尾市,東幡豆町丸山１８番地,,23,213,4440701,,,,,,,2024-09-12,1,,,,,サンコウセイサクショ,0
1108,5180303006259,新規,0,2024-09-12,2024-09-12,合同会社ベルウッド,,合同会社,愛知県,豊橋市,吉前町字西吉前新田７３番地６,,23,201,4418004,,,,,,,2024-09-12,1,,,,,ベルウッド,0
1109,5200001042917,新規,0,2024-09-12,2024-09-12,株式会社たからばこ,,株式会社,岐阜県,中津川市,新町３番７号,,21,206,5080038,,,,,,,2024-09-12,1,,,,,タカラバコ,0
1110,5200001042925,新規,0,2024-09-12,2024-09-12,株式会社Ｔ’ｓ,,株式会社,岐阜県,岐阜市,城前町２丁目５番地,,21,201,5020023,,,,,,,2024-09-12,1,,,,,ティーズ,0
1111,5200001042933,新規,0,2024-09-12,2024-09-12,株式会社椿大車,,株式会社,岐阜県,瑞浪市,釜戸町２９６６番地の１０,,21,208,5096472,,,,,,,2024-09-12,1,,,,,ツバキタイシャ,0
1115,5240001063810,新規,0,2024-09-12,2024-09-12,株式会社萬福美術品店,,株式会社,広島県,東広島市,三永２丁目６番１０号,,34,212,7390026,,,,,,,2024-09-12,1,,,,,マンプクビジュツヒンテン,0
1120,5240005015824,新規,0,2024-09-12,2024-09-12,医療法人緑新会,,その他の設立登記法人,広島県,福山市,新市町大字新市６２８番地２,,34,207,7293103,,,,,,,2024-09-12,1,,,,,リョクシンカイ,0
1123,5260001039445,新規,0,2024-09-12,2024-09-12,ＴＡＭＵＲＡ　ＧＲＯＵＰ株式会社,,株式会社,岡山県,倉敷市,神田３丁目３番４２号,,33,202,7128061,,,,,,,2024-09-12,1,,,,,タムラグループ,0
1127,5290001107249,新規,0,2024-09-12,2024-09-12,Ｍｅｄｉｃａｌ　Ｈｕｍａｎ　Ｒｅｓｏｕｒｃｅｓ株式会社,,株式会社,福岡県,福岡市中央区,鳥飼１丁目５－４５鳥飼中央ビル２０６号,,40,133,8100053,,,,,,,2024-09-12,1,,,,,メディカルヒューマンリソーシズ,0
1130,5290003015805,新規,0,2024-09-12,2024-09-12,Ｗｏｒｌｄ　ｅｎｔｅｒｔａｉｎｍｅｎｔ合同会社,,合同会社,福岡県,福岡市中央区,春吉２丁目１９－３－１－２０１号,,40,133,8100003,,,,,,,2024-09-12,1,,,,,,0
1132,5290803004833,新規,0,2024-09-12,2024-09-12,合同会社Ｎｅｗ,,合同会社,福岡県,北九州市小倉南区,石田町６－１８－１０２,,40,107,8020838,,,,,,,2024-09-12,1,,,,,ニュウ,0
1134,5310001019202,新規,0,2024-09-12,2024-09-12,株式会社梅家,,株式会社,長崎県,長崎市,上西山町５番４－６０３号,,42,201,8500006,,,,,,,2024-09-12,1,,,,,ウメヤ,0
1139,5360001034188,新規,0,2024-09-12,2024-09-12,Ｍ’ｓエステート株式会社,,株式会社,沖縄県,中頭郡北谷町,字伊平一丁目１３番５号,,47,326,9040102,,,,,,,2024-09-12,1,,,,,エムズエステート,0
1140,5370003006746,新規,0,2024-09-12,2024-09-12,アグロ・ソーラーテック合同会社,,合同会社,宮城県,角田市,角田字町１０２番地,,04,208,9811505,,,,,,,2024-09-12,1,,,,,アグロソーラーテック,0
1143,5410001013938,新規,0,2024-09-12,2024-09-12,株式会社メデックインターナショナル,,株式会社,秋田県,秋田市,飯島字堀川１０番地,,05,201,0110911,,,,,,,2024-09-12,1,,,,,メデックインターナショナル,0
1146,5430001092641,新規,0,2024-09-12,2024-09-12,株式会社フォルディオ,,株式会社,北海道,札幌市中央区,北六条西１４丁目２番地３クリーンリバーフィネス桑園スクエア９０１号,,01,101,0600006,,,,,,,2024-09-12,1,,,,,フォルディオ,0
1147,5430001092666,新規,0,2024-09-12,2024-09-12,株式会社テックファイター,,株式会社,北海道,札幌市東区,北二十六条東７丁目３‐２３丸岡ビル１階,,01,103,0650026,,,,,,,2024-09-12,1,,,,,テックファイター,0
1148,5430003016771,新規,0,2024-09-12,2024-09-12,合同会社ＷＩＮＧ,,合同会社,北海道,滝川市,北滝の川１００３番地３５,,01,225,0730001,,,,,,,2024-09-12,1,,,,,ウイング,0
1160,6010001247914,新規,0,2024-09-12,2024-09-12,大立興業株式会社,,株式会社,東京都,中央区,勝どき２丁目４番９号,,13,102,1040054,,,,,,,2024-09-12,1,,,,,オオダツコウギョウ,0
1161,6010001248078,新規,0,2024-09-12,2024-09-12,協和物流株式会社,,株式会社,東京都,中央区,銀座１丁目１２番４号Ｎ＆Ｅ・ＢＬＤ．６Ｆ,,13,102,1040061,,,,,,,2024-09-12,1,,,,,キョウワブツリュウ,0
1162,6010001248136,新規,0,2024-09-12,2024-09-12,株式会社ユニークショット,,株式会社,東京都,千代田区,神田須田町１丁目７番８号ＶＯＲＴ秋葉原ＩＶ２Ｆ,,13,101,1010041,,,,,,,2024-09-12,1,,,,,ユニークショット,0
1163,6010001248160,新規,0,2024-09-12,2024-09-12,株式会社ＭＭＳ,,株式会社,東京都,千代田区,六番町４番地朝日六番町マンション７０１号,,13,101,1020085,,,,,,,2024-09-12,1,,,,,エムエムエス,0
1164,6010001248169,新規,0,2024-09-12,2024-09-12,株式会社トラストホールディングス,,株式会社,東京都,文京区,千駄木３丁目２２番１２号ストークエイコー２０２号,,13,105,1130022,,,,,,,2024-09-12,1,,,,,トラストホールディングス,0
1165,6010001248177,新規,0,2024-09-12,2024-09-12,ＨａｖｅＦｕｎｄ　Ｊａｐａｎ株式会社,,株式会社,東京都,千代田区,丸の内２丁目２番１号,,13,101,1000005,,,,,,,2024-09-12,1,,,,,ハブファンドジャパン,0
1166,6010001248219,新規,0,2024-09-12,2024-09-12,アント・ソリューション・パートナーズ株式会社,,株式会社,東京都,千代田区,丸の内２丁目４番１号,,13,101,1000005,,,,,,,2024-09-12,1,,,,,アントソリューションパートナーズ,0
1169,6010003044896,新規,0,2024-09-12,2024-09-12,合同会社ＶＴＰＳ,,合同会社,東京都,千代田区,神田佐久間町２丁目１８番地１秋葉原ＳＴＮフロント１０階,,13,101,1010025,,,,,,,2024-09-12,1,,,,,ブイティーピーエス,0
1170,6010103002416,新規,0,2024-09-12,2024-09-12,合同会社ＭＴＳＳ,,合同会社,東京都,八王子市,犬目町１２１３番地３,,13,201,1930802,,,,,,,2024-09-12,1,,,,,エムティーエスエス,0
1178,6010401184930,新規,0,2024-09-12,2024-09-12,青山竹株式会社,,株式会社,東京都,港区,芝大門２丁目２－１ＡＣＮ芝大門ビルディング６Ｆ,,13,103,1050012,,,,,,,2024-09-12,1,,,,,アオヤマタケ,0
1179,6010401184988,新規,0,2024-09-12,2024-09-12,東京後楽園商事株式会社,,株式会社,東京都,港区,芝４丁目５番１２号,,13,103,1080014,,,,,,,2024-09-12,1,,,,,トウキョウコウラクエンショウジ,0
1180,6010401184996,新規,0,2024-09-12,2024-09-12,ＨＥＥＲＡＥ物産株式会社,,株式会社,東京都,港区,浜松町２丁目７番１７号,,13,103,1050013,,,,,,,2024-09-12,1,,,,,ヒレ,0
1181,6010401185029,新規,0,2024-09-12,2024-09-12,ＦＬＩＰ　ＦＬＯＰ　ＨＯＬＩＤＡＹＳ　ＪＡＰＡＮ株式会社,,株式会社,東京都,港区,東麻布１丁目２３番５号ＰＭＣビル６Ｆ,,13,103,1060044,,,,,,,2024-09-12,1,,,,,フリップフロップホリデーズジャパン,0
1182,6010401185061,新規,0,2024-09-12,2024-09-12,株式会社ｃｒｏ,,株式会社,東京都,港区,西麻布２丁目１０番１号ＹＫビル１階,,13,103,1060031,,,,,,,2024-09-12,1,,,,,クロ,0
1183,6010401185086,新規,0,2024-09-12,2024-09-12,株式会社ＤＡＷＮ,,株式会社,東京都,港区,麻布十番２丁目７番５－１００３号,,13,103,1060045,,,,,,,2024-09-12,1,,,,,ドーン,0
1188,6010403033301,新規,0,2024-09-12,2024-09-12,合同会社ＧＺＶｅｎｔｕｒｅｓ,,合同会社,東京都,港区,北青山１丁目３番１号,,13,103,1070061,,,,,,,2024-09-12,1,,,,,ジーゼットベンチャーズ,0
1189,6010403033383,新規,0,2024-09-12,2024-09-12,合同会社Ａｒｃａｎｕｍ,,合同会社,東京都,港区,芝５丁目３６番４号札ノ辻スクエア９階,,13,103,1080014,,,,,,,2024-09-12,1,,,,,アルカナム,0
1190,6010403033391,新規,0,2024-09-12,2024-09-12,合同会社ＹＧＩ,,合同会社,東京都,港区,赤坂９丁目１－２－４１１,,13,103,1070052,,,,,,,2024-09-12,1,,,,,ワイジーアイ,0
1196,6010503007568,新規,0,2024-09-12,2024-09-12,Ｂｉｇｗａｙ合同会社,,合同会社,東京都,台東区,北上野２丁目３－１６ダイカンプラザ上野２号館５０１号,,13,106,1100014,,,,,,,2024-09-12,1,,,,,ビッグウェイ,0
1200,6010701046517,新規,0,2024-09-12,2024-09-12,株式会社シープフォレスト,,株式会社,東京都,品川区,西五反田１丁目７番１－１７０２号,,13,109,1410031,,,,,,,2024-09-12,1,,,,,シープフォレスト,0
1207,6010901055961,新規,0,2024-09-12,2024-09-12,株式会社ａ‐Ｐｒｏ,,株式会社,東京都,世田谷区,奥沢７丁目９番１２号ハイツ自由が丘１０１号室,,13,112,1580083,,,,,,,2024-09-12,1,,,,,エープロ,0
1209,6010903009338,新規,0,2024-09-12,2024-09-12,ＵＮＩＣＵＥ合同会社,,合同会社,東京都,世田谷区,奥沢３丁目３５番９号エスペランサ奥沢５０２,,13,112,1580083,,,,,,,2024-09-12,1,,,,,ユニーキュ,0
1214,6011001164554,新規,0,2024-09-12,2024-09-12,リアン株式会社,,株式会社,東京都,目黒区,下目黒１丁目１番１４号コノトラビル７Ｆ,,13,110,1530064,,,,,,,2024-09-12,1,,,,,リアン,0
1215,6011001164612,新規,0,2024-09-12,2024-09-12,株式会社クラフト人事コンサルティング,,株式会社,東京都,渋谷区,恵比寿西１丁目２４番１号,,13,113,1500021,,,,,,,2024-09-12,1,,,,,クラフトジンジコンサルティング,0
1216,6011001164686,新規,0,2024-09-12,2024-09-12,株式会社インユアナビ,,株式会社,東京都,渋谷区,神宮前６丁目２３番４号桑野ビル２階,,13,113,1500001,,,,,,,2024-09-12,1,,,,,インユアナビ,0
1220,6011003019946,新規,0,2024-09-12,2024-09-12,合同会社クラップ,,合同会社,東京都,渋谷区,道玄坂１丁目１０番８号渋谷道玄坂東急ビル２Ｆ－Ｃ,,13,113,1500043,,,,,,,2024-09-12,1,,,,,クラップ,0
1221,6011003019962,新規,0,2024-09-12,2024-09-12,ＺＡＸＥＬ合同会社,,合同会社,東京都,渋谷区,恵比寿１丁目１５番９号日宝恵比寿ビル４０３,,13,113,1500013,,,,,,,2024-09-12,1,,,,,ザクセル,0
1222,6011005010663,新規,0,2024-09-12,2024-09-12,一般社団法人両替商協会,,その他の設立登記法人,東京都,渋谷区,恵比寿４丁目７－６,,13,113,1500013,,,,,,,2024-09-12,1,,,,,リョウガエショウキョウカイ,0
1224,6011101108741,新規,0,2024-09-12,2024-09-12,金源株式会社,,株式会社,東京都,新宿区,早稲田鶴巻町５０８番地５,,13,104,1620041,,,,,,,2024-09-12,1,,,,,キンゲン,0
1225,6011101108774,新規,0,2024-09-12,2024-09-12,株式会社ダーキーズハウス,,株式会社,東京都,新宿区,西新宿８丁目１５番１５号カトルセゾン４０１,,13,104,1600023,,,,,,,2024-09-12,1,,,,,ダーキーズハウス,0
1226,6011105011149,新規,0,2024-09-12,2024-09-12,一般社団法人世界上下口唇口角医療研究会,,その他の設立登記法人,東京都,新宿区,西新宿７丁目５番９号,,13,104,1600023,,,,,,,2024-09-12,1,,,,,セカイジョウゲコウシンコウカクイリョウケンキュウカイ,0
1228,6011201025787,新規,0,2024-09-12,2024-09-12,株式会社Ｓｔｅｌｌａｒ　Ｓｕｐｐｏｒｔ,,株式会社,東京都,中野区,中央１丁目２０番１４号コーポ常陸１０１,,13,114,1640011,,,,,,,2024-09-12,1,,,,,ステラサポート,0
1234,6011501031147,新規,0,2024-09-12,2024-09-12,株式会社ｈｅａｌａｒ,,株式会社,東京都,北区,岩淵町２５－３ロイレジデンス清水１０３,,13,117,1150041,,,,,,,2024-09-12,1,,,,,ヒーラー,0
1235,6011505002648,新規,0,2024-09-12,2024-09-12,一般社団法人ジャパンリージョンサービスオーガニゼーション,,その他の設立登記法人,東京都,北区,赤羽１丁目５１番３－３０１号,,13,117,1150045,,,,,,,2024-09-12,1,,,,,ジャパンリージョンサービスオーガニゼーション,0
1236,6011601028051,新規,0,2024-09-12,2024-09-12,株式会社コンテナ,,株式会社,東京都,練馬区,早宮４丁目１８番１０号,,13,120,1790085,,,,,,,2024-09-12,1,,,,,コンテナ,0
1241,6011801044823,新規,0,2024-09-12,2024-09-12,株式会社ビバーチェ,,株式会社,東京都,足立区,谷在家２丁目１２番１０号５Ｆ,,13,121,1230863,,,,,,,2024-09-12,1,,,,,ビバーチェ,0
1244,6013103001370,新規,0,2024-09-12,2024-09-12,合同会社モノリス,,合同会社,東京都,羽村市,神明台３丁目１３番地３３,,13,227,2050023,,,,,,,2024-09-12,1,,,,,モノリス,0
1247,6013303007291,新規,0,2024-09-12,2024-09-12,Ｅｎｅｒｇｙ　Ｓｔｏｒａｇｅ常総合同会社,,合同会社,東京都,豊島区,西池袋５丁目１番３号メトロシティ西池袋,,13,116,1710021,,,,,,,2024-09-12,1,,,,,エナジーストレージジョウソウ,0
1255,6020001159134,新規,0,2024-09-12,2024-09-12,株式会社ＦＲＥＥＭＡＮ,,株式会社,神奈川県,横浜市都筑区,桜並木４番１１号,,14,118,2240046,,,,,,,2024-09-12,1,,,,,フリーマン,0
1256,6020001159142,新規,0,2024-09-12,2024-09-12,株式会社ＩＹＣ,,株式会社,神奈川県,横浜市戸塚区,深谷町１２５番地２,,14,110,2450067,,,,,,,2024-09-12,1,,,,,アイワイシー,0
1257,6020001159191,新規,0,2024-09-12,2024-09-12,株式会社四葉のクローバー,,株式会社,神奈川県,川崎市多摩区,宿河原２丁目２３番１１－１号,,14,135,2140021,,,,,,,2024-09-12,1,,,,,ヨツバノクローバー,0
1258,6020001159209,新規,0,2024-09-12,2024-09-12,株式会社Ｇ＆Ｄコンサルタンツ,,株式会社,神奈川県,横浜市都筑区,早渕１丁目２番６－１００３号,,14,118,2240025,,,,,,,2024-09-12,1,,,,,ジーアンドディーコンサルタンツ,0
1266,6020003026869,新規,0,2024-09-12,2024-09-12,合同会社ＦＬＹＯ,,合同会社,神奈川県,横浜市瀬谷区,相沢１丁目３１番地３ＳｋｙＡｖｅｎｕｅＹｏｋｏｈａｍａ３０６,,14,114,2460013,,,,,,,2024-09-12,1,,,,,フリオ,0
1267,6020003026893,新規,0,2024-09-12,2024-09-12,合同会社大野工務店,,合同会社,神奈川県,横浜市瀬谷区,宮沢２丁目３０番地１コート三ツ境１０２,,14,114,2460038,,,,,,,2024-09-12,1,,,,,オオノコウムテン,0
1268,6020003026902,新規,0,2024-09-12,2024-09-12,合同会社Ｙ４,,合同会社,神奈川県,横浜市神奈川区,六角橋１丁目１０番１１号,,14,102,2210802,,,,,,,2024-09-12,1,,,,,ワイフォー,0
1273,6021003015003,新規,0,2024-09-12,2024-09-12,合同会社福太郎,,合同会社,神奈川県,綾瀬市,深谷中２丁目１３番７号,,14,218,2521107,,,,,,,2024-09-12,1,,,,,フクタロウ,0
1279,6030001162418,新規,0,2024-09-12,2024-09-12,株式会社Ｔ．Ｓサービス,,株式会社,埼玉県,上尾市,小泉７丁目３１番地２１,,11,219,3620063,,,,,,,2024-09-12,1,,,,,ティーエスサービス,0
1280,6030001162434,新規,0,2024-09-12,2024-09-12,株式会社銘昇,,株式会社,埼玉県,川口市,芝１丁目２番９－２０３号,,11,203,3330866,,,,,,,2024-09-12,1,,,,,メイセイ,0
1288,6040001135380,新規,0,2024-09-12,2024-09-12,株式会社こどな,,株式会社,千葉県,千葉市中央区,松波３丁目１５番１号,,12,101,2600044,,,,,,,2024-09-12,1,,,,,コドナ,0
1294,6040003025786,新規,0,2024-09-12,2024-09-12,おのＰ合同会社,,合同会社,千葉県,船橋市,印内３丁目３１番３０号,,12,204,2730039,,,,,,,2024-09-12,1,,,,,オノピー,0
1297,6050001055371,新規,0,2024-09-12,2024-09-12,株式会社ＦＵＪＩ,,株式会社,茨城県,東茨城郡城里町,大字小坂４１番地１１,,08,310,3114316,,,,,,,2024-09-12,1,,,,,フジ,0
1298,6050001055396,新規,0,2024-09-12,2024-09-12,株式会社ＢＥＣ,,株式会社,茨城県,ひたちなか市,大字田彦１３４２－２,,08,221,3120063,,,,,,,2024-09-12,1,,,,,ベック,0
1299,6060001037484,新規,0,2024-09-12,2024-09-12,ｎｅｕｋ株式会社,,株式会社,栃木県,宇都宮市,上戸祭町２９９８番地３,,09,201,3200051,,,,,,,2024-09-12,1,,,,,ヌーク,0
1305,6080003003292,新規,0,2024-09-12,2024-09-12,合同会社オーシャン,,合同会社,静岡県,焼津市,石津２丁目２０番地６,,22,212,4250041,,,,,,,2024-09-12,1,,,,,オーシャン,0
1313,6090003002640,新規,0,2024-09-12,2024-09-12,合同会社ＫＡＪＵ,,合同会社,山梨県,笛吹市,御坂町上黒駒８４７－２,,19,211,4060813,,,,,,,2024-09-12,1,,,,,カジュ,0
1317,6110003005509,新規,0,2024-09-12,2024-09-12,合同会社Ｌ’ＲＯＯＭ,,合同会社,新潟県,新潟市西区,五十嵐１の町７１７２ヴィラＷＥＳＴ１０５号室,,15,107,9502101,,,,,,,2024-09-12,1,,,,,エルルーム,0
1318,6110005017130,新規,0,2024-09-12,2024-09-12,一般社団法人ふくちゃ,,その他の設立登記法人,新潟県,村上市,坂町１７６１番地２,,15,212,9593132,,,,,,,2024-09-12,1,,,,,フクチャ,0
1326,6120001268486,新規,0,2024-09-12,2024-09-12,株式会社Ｇｌｏｂａｌ　Ｏｎｅ,,株式会社,大阪府,寝屋川市,黒原旭町５番１３号,,27,215,5720057,,,,,,,2024-09-12,1,,,,,グローバルワン,0
1327,6120001268536,新規,0,2024-09-12,2024-09-12,株式会社ボーダー,,株式会社,大阪府,大阪市淀川区,十三東２丁目５－９リベールシティ淀川通９０５,,27,123,5320023,,,,,,,2024-09-12,1,,,,,ボーダー,0
1328,6120001268544,新規,0,2024-09-12,2024-09-12,株式会社カイゴプロパティ,,株式会社,大阪府,大阪市北区,中崎西２丁目２－１東梅田八千代ビル３階,,27,127,5300015,,,,,,,2024-09-12,1,,,,,カイゴプロパティ,0
1329,6120001268577,新規,0,2024-09-12,2024-09-12,株式会社プラン,,株式会社,大阪府,大阪市阿倍野区,天王寺町南３丁目６番９－１５０５号,,27,119,5450002,,,,,,,2024-09-12,1,,,,,プラン,0
1330,6120001268585,新規,0,2024-09-12,2024-09-12,株式会社ＡＬＬ　ＩＮ,,株式会社,大阪府,大阪市東淀川区,西淡路２丁目９番５号,,27,114,5330031,,,,,,,2024-09-12,1,,,,,オールイン,0
1334,6120003027502,新規,0,2024-09-12,2024-09-12,アルテミス合同会社,,合同会社,大阪府,大阪市生野区,巽中２丁目１５番１１コートドールタツミ６０１号,00136276,27,116,5440013,,,,,,,2024-09-12,1,,,,,アルテミス,0
1335,6120003027519,新規,0,2024-09-12,2024-09-12,合同会社ＴＭ,,合同会社,大阪府,大阪市西淀川区,佃２丁目１１番６号島田アパート１Ｇ号室,,27,113,5550001,,,,,,,2024-09-12,1,,,,,ティーエム,0
1336,6120003027527,新規,0,2024-09-12,2024-09-12,ＮＡＬ合同会社,,合同会社,大阪府,大阪市浪速区,恵美須西１丁目４－２３－３０６,,27,111,5560003,,,,,,,2024-09-12,1,,,,,エヌエーエル,0
1341,6120101070288,新規,0,2024-09-12,2024-09-12,ＥＲＡＮ　ＩＮＴＥＲＮＡＴＩＯＮＡＬ株式会社,,株式会社,大阪府,富田林市,喜志町４丁目６番２９号（１０１）,,27,214,5840005,,,,,,,2024-09-12,1,,,,,エランインターナショナル,0
1346,6130001077903,新規,0,2024-09-12,2024-09-12,株式会社Ｖｉｖａｎｔ,,株式会社,京都府,城陽市,寺田新池１５－１１,,26,207,6100121,,,,,,,2024-09-12,1,,,,,ヴィヴァン,0
1347,6130001077911,新規,0,2024-09-12,2024-09-12,株式会社しんしん,,株式会社,京都府,京都市中京区,西ノ京北壺井町８８番地１二条プラザ６１２,,26,104,6048472,,,,,,,2024-09-12,1,,,,,シンシン,0
1363,6180001163161,新規,0,2024-09-12,2024-09-12,株式会社プロメテックスエナジー,,株式会社,愛知県,名古屋市中区,栄３丁目１８番１号ナディアパークビジネスセンタービル１４階,,23,106,4600008,,,,,,,2024-09-12,1,,,,,プロメテックスエナジー,0
1364,6180001163228,新規,0,2024-09-12,2024-09-12,株式会社ｕｂｕ,,株式会社,愛知県,名古屋市昭和区,広路町字石坂３６番地の１,,23,107,4660834,,,,,,,2024-09-12,1,,,,,ウブ,0
1365,6180001163236,新規,0,2024-09-12,2024-09-12,株式会社希望ヶ丘動物病院,,株式会社,愛知県,名古屋市千種区,姫池通１丁目１７番地,,23,101,4640055,,,,,,,2024-09-12,1,,,,,キボウガオカドウブツビョウイン,0
1366,6180001163244,新規,0,2024-09-12,2024-09-12,株式会社クラウンエステート,,株式会社,愛知県,春日井市,瑞穂通５丁目３３番地,,23,206,4860845,,,,,,,2024-09-12,1,,,,,クラウンエステート,0
1369,6190001031615,新規,0,2024-09-12,2024-09-12,株式会社ＡＬＬ　ｆｏｒ　ＯＮＥ,,株式会社,三重県,津市,半田２３９６番地３,,24,201,5140823,,,,,,,2024-09-12,1,,,,,オールフォーワン,0
1370,6190003004791,新規,0,2024-09-12,2024-09-12,全合同会社,,合同会社,三重県,四日市市,三栄町５‐１,,24,202,5100068,,,,,,,2024-09-12,1,,,,,ゼン,0
1371,6200001042916,新規,0,2024-09-12,2024-09-12,株式会社アザミューファーム,,株式会社,岐阜県,安八郡神戸町,大字柳瀬１２８１番地,,21,381,5032317,,,,,,,2024-09-12,1,,,,,アザミューファーム,0
1372,6200001042924,新規,0,2024-09-12,2024-09-12,株式会社ｇｒｏｗ‐Ｃ,,株式会社,岐阜県,大垣市,開発町５丁目１１番地５,,21,202,5030002,,,,,,,2024-09-12,1,,,,,グロウシー,0
1380,6240005015823,新規,0,2024-09-12,2024-09-12,医療法人甲元歯科医院,,その他の設立登記法人,広島県,安芸郡府中町,浜田２丁目２番１６号,,34,302,7350013,,,,,,,2024-09-12,1,,,,,コウモトシカイイン,0
1384,6260001039460,新規,0,2024-09-12,2024-09-12,株式会社Ｃｌａｒｙ,,株式会社,岡山県,倉敷市,粒江２１４１番地１４,,33,202,7100034,,,,,,,2024-09-12,1,,,,,クラリー,0
1394,6290803004832,新規,0,2024-09-12,2024-09-12,中野合同会社,,合同会社,福岡県,北九州市小倉南区,石田町６－１８－１０２,,40,107,8020838,,,,,,,2024-09-12,1,,,,,ナカノ,0
1396,6320001020711,新規,0,2024-09-12,2024-09-12,株式会社カネンテ,,株式会社,大分県,大分市,富士見が丘東５丁目１１番８号,,44,201,8701176,,,,,,,2024-09-12,1,,,,,カネンテ,0
1398,6330003010560,新規,0,2024-09-12,2024-09-12,合同会社ＢｅａｕｔｙＣｌａｓｓ,,合同会社,熊本県,熊本市東区,戸島３丁目７番５４－３号,,43,102,8618041,,,,,,,2024-09-12,1,,,,,ビューテイクラス,0
1399,6340001026797,新規,0,2024-09-12,2024-09-12,Ｓｍｅｌｌ　Ｓｗｅｐｔ株式会社,,株式会社,鹿児島県,鹿児島市,易居町１－２鹿児島市役所みなと大通り別館６Ｆ９号室,,46,201,8920815,,,,,,,2024-09-12,1,,,,,スメルスエプト,0
1400,6360003014286,新規,0,2024-09-12,2024-09-12,合同会社Ｋファクトリー,,合同会社,沖縄県,那覇市,字安里６５番大明ビル２階,,47,201,9020067,,,,,,,2024-09-12,1,,,,,ケイファクトリー,0
1402,6380001034788,新規,0,2024-09-12,2024-09-12,株式会社大地プランニング,,株式会社,福島県,双葉郡楢葉町,大字北田字権現下３９番地,,07,542,9790604,,,,,,,2024-09-12,1,,,,,ダイチプランニング,0
1408,6440001009494,新規,0,2024-09-12,2024-09-12,株式会社ＨＫＳＨ平田自動車,,株式会社,北海道,茅部郡森町,字富士見町１６４番地４０,,01,345,0492322,,,,,,,2024-09-12,1,,,,,エイチケイエスエイチヒラタジドウシャ,0
1411,6490001010869,新規,0,2024-09-12,2024-09-12,株式会社ＳＯＨＯ２１,,株式会社,高知県,安芸郡東洋町,大字白浜８５番地４,,39,301,7817413,,,,,,,2024-09-12,1,,,,,ソーホートゥエンティワン,0
1428,7010001248151,新規,0,2024-09-12,2024-09-12,株式会社ＶＳＴＡ,,株式会社,東京都,千代田区,神田須田町１丁目７番８号ＶＯＲＴ秋葉原ＩＶ２Ｆ,00136281,13,101,1010041,,,,,,,2024-09-12,1,,,,,ブイスタ,0
1429,7010001248176,新規,0,2024-09-12,2024-09-12,株式会社ＤＥ‐ＳＩＧＮキャピタル,,株式会社,東京都,中央区,京橋３丁目３番１１号,,13,102,1040031,,,,,,,2024-09-12,1,,,,,ディーサインキャピタル,0
1430,7010001248192,新規,0,2024-09-12,2024-09-12,株式会社Ｅａｒｌｙ　ＡＩ,,株式会社,東京都,千代田区,神田神保町１丁目２２番２号,,13,101,1010051,,,,,,,2024-09-12,1,,,,,アーリーエーアイ,0
1431,7010001248201,新規,0,2024-09-12,2024-09-12,株式会社ＲＥＺＥ,,株式会社,東京都,中央区,銀座１丁目２２番１１号銀座大竹ビジデンス２Ｆ,,13,102,1040061,,,,,,,2024-09-12,1,,,,,レーゼ,0
1432,7010003044870,新規,0,2024-09-12,2024-09-12,合同会社グリット,,合同会社,東京都,中央区,日本橋人形町２丁目２１番９号,,13,102,1030013,,,,,,,2024-09-12,1,,,,,グリット,0
1433,7010003044887,新規,0,2024-09-12,2024-09-12,合同会社天一,,合同会社,東京都,文京区,白山１丁目６番５－１０１号シルバープラザ白山,,13,105,1130001,,,,,,,2024-09-12,1,,,,,テンイチ,0
1434,7010101016318,新規,0,2024-09-12,2024-09-12,株式会社ＢＹＭ,,株式会社,東京都,八王子市,堀之内３丁目３３番地１,,13,201,1920355,,,,,,,2024-09-12,1,,,,,ビーワイエム,0
1447,7010401184954,新規,0,2024-09-12,2024-09-12,株式会社ＹＤＬ,,株式会社,東京都,港区,南青山２丁目２番１５号ウィン青山内,,13,103,1070062,,,,,,,2024-09-12,1,,,,,ワイディーエル,0
1448,7010401184970,新規,0,2024-09-12,2024-09-12,株式会社リベラ,,株式会社,東京都,港区,西新橋３丁目１２番３－９０３号,,13,103,1050003,,,,,,,2024-09-12,1,,,,,リベラ,0
1449,7010405023539,新規,0,2024-09-12,2024-09-12,武蔵小山ホールディング２一般社団法人,,その他の設立登記法人,東京都,港区,虎ノ門３丁目２２番１０－２０１号,,13,103,1050001,,,,,,,2024-09-12,1,,,,,ムサシコヤマホールディングツー,0
1450,7010501052904,新規,0,2024-09-12,2024-09-12,株式会社ＴＭＣ,,株式会社,東京都,台東区,東上野３丁目３４番１号,,13,106,1100015,,,,,,,2024-09-12,1,,,,,ティーエムシー,0
1454,7010601065913,新規,0,2024-09-12,2024-09-12,株式会社ＮＡＤ　ＰＬＵＳ,,株式会社,東京都,墨田区,菊川１丁目１１番１５号ＴＫビル１Ｆ,,13,107,1300024,,,,,,,2024-09-12,1,,,,,エヌエーディプラス,0
1460,7010803005097,新規,0,2024-09-12,2024-09-12,合同会社ＹＫ　ＣＯＭＰＡＮＹ,,合同会社,東京都,大田区,蒲田５丁目２１番１３号,,13,111,1440052,,,,,,,2024-09-12,1,,,,,ワイケイカンパニー,0
1461,7010901055969,新規,0,2024-09-12,2024-09-12,株式会社ＷＩＬＤ　ＵＰ,,株式会社,東京都,世田谷区,三軒茶屋２丁目２６番１１号レガーロ三軒茶屋１０２,,13,112,1540024,,,,,,,2024-09-12,1,,,,,ワイルドアップ,0
1464,7011001164504,新規,0,2024-09-12,2024-09-12,株式会社コシダカメンテナンス,,株式会社,東京都,渋谷区,道玄坂２丁目２５番１２号,,13,113,1500043,,,,,,,2024-09-12,1,,,,,コシダカメンテナンス,0
1465,7011001164512,新規,0,2024-09-12,2024-09-12,株式会社ＬＵＶＯ,,株式会社,東京都,目黒区,祐天寺２丁目１３番４号ＰｏｉｎｔｌｉｎｅＹｕｔｅｎｊｉ６Ｈ,,13,110,1530052,,,,,,,2024-09-12,1,,,,,ルヴォ,0
1466,7011001164529,新規,0,2024-09-12,2024-09-12,株式会社バックエンド,,株式会社,東京都,渋谷区,道玄坂１丁目１０番８号渋谷道玄坂東急ビル２Ｆ－Ｃ,,13,113,1500043,,,,,,,2024-09-12,1,,,,,バックエンド,0
1467,7011001164660,新規,0,2024-09-12,2024-09-12,株式会社Ｓｏｌｅｄｉｏ,,株式会社,東京都,渋谷区,神南１丁目１１‐４ＦＰＧリンクス神南５階,,13,113,1500041,,,,,,,2024-09-12,1,,,,,ソレディオ,0
1468,7011003019953,新規,0,2024-09-12,2024-09-12,合同会社アブラバー,,合同会社,東京都,目黒区,五本木１丁目３２番３０号ラッフィナート１０１,,13,110,1530053,,,,,,,2024-09-12,1,,,,,アブラバー,0
1469,7011003019961,新規,0,2024-09-12,2024-09-12,合同会社オリエンタ・モンテート,,合同会社,東京都,目黒区,下目黒１丁目１番１４号コノトラビル７Ｆ,,13,110,1530064,,,,,,,2024-09-12,1,,,,,オリエンタモンテート,0
1470,7011003020011,新規,0,2024-09-12,2024-09-12,合同会社中野事務所,,合同会社,東京都,目黒区,東山２丁目２－５－２０３,,13,110,1530043,,,,,,,2024-09-12,1,,,,,ナカノジムショ,0
1471,7011005010662,新規,0,2024-09-12,2024-09-12,社会保険労務士法人渋谷アクア法務事務所,,その他の設立登記法人,東京都,渋谷区,円山町２０－１新大宗道玄坂上ビル４階,,13,113,1500044,,,,,,,2024-09-12,1,,,,,シブヤアクアホウムジムショ,0
1472,7011101108757,新規,0,2024-09-12,2024-09-12,株式会社ヘルスプロモーション,,株式会社,東京都,新宿区,西新宿１丁目４番８号第３加藤ビル５Ｆ,,13,104,1600023,,,,,,,2024-09-12,1,,,,,ヘルスプロモーション,0
1473,7011101108815,新規,0,2024-09-12,2024-09-12,株式会社ＯＫＡＺＯ,,株式会社,東京都,新宿区,西新宿３丁目３番１３号西新宿水間ビル２Ｆ,,13,104,1600023,,,,,,,2024-09-12,1,,,,,オカゾウ,0
1474,7011105011148,新規,0,2024-09-12,2024-09-12,医療法人社団如水乃会,,その他の設立登記法人,東京都,新宿区,西落合３丁目３０番地１号ルーク哲学堂１階,,13,104,1610031,,,,,,,2024-09-12,1,,,,,ジョスイノカイ,0
1479,7011305003003,新規,0,2024-09-12,2024-09-12,医療法人社団弘章会,,その他の設立登記法人,東京都,杉並区,荻窪５丁目２９番１７－１０２号藤和シティホームズ荻窪駅前,,13,115,1670051,,,,,,,2024-09-12,1,,,,,コウショウカイ,0
1486,7011603004454,新規,0,2024-09-12,2024-09-12,合同会社ＳＵＲＦ,,合同会社,東京都,練馬区,豊玉南２丁目１７番７,,13,120,1760014,,,,,,,2024-09-12,1,,,,,サーフ,0
1496,7012801023452,新規,0,2024-09-12,2024-09-12,株式会社Ｓｔｅｌｌａ　ｅｓｔａｔｅ,,株式会社,東京都,日野市,万願寺４丁目１３番地の２１,,13,212,1910024,,,,,,,2024-09-12,1,,,,,ステラエステート,0
1502,7013303007290,新規,0,2024-09-12,2024-09-12,Ｅｎｅｒｇｙ　Ｓｔｏｒａｇｅ常陸大宮合同会社,,合同会社,東京都,豊島区,西池袋５丁目１番３号メトロシティ西池袋,,13,116,1710021,,,,,,,2024-09-12,1,,,,,エナジーストレージヒタチオオミヤ,0
1508,7020001159067,新規,0,2024-09-12,2024-09-12,株式会社タチカワ,,株式会社,神奈川県,川崎市宮前区,宮崎１丁目１３番地３,,14,136,2160033,,,,,,,2024-09-12,1,,,,,タチカワ,0
1509,7020001159141,新規,0,2024-09-12,2024-09-12,ＴＲＹＺ株式会社,,株式会社,神奈川県,横浜市栄区,飯島町１３２８番地９,,14,115,2440842,,,,,,,2024-09-12,1,,,,,トライズ,0
1517,7021001083208,新規,0,2024-09-12,2024-09-12,日昇株式会社,,株式会社,神奈川県,足柄上郡開成町,吉田島３５０３番地３５,,14,366,2580021,,,,,,,2024-09-12,1,,,,,ニッショウ,0
1518,7021001083224,新規,0,2024-09-12,2024-09-12,ＳＥＳＳＩＯＮ株式会社,,株式会社,神奈川県,逗子市,逗子７丁目１－４１ＳＫ・ＨＥＩＧＨＴＳ・１０２号室,,14,208,2490006,,,,,,,2024-09-12,1,,,,,セッション,0
1521,7021003014986,新規,0,2024-09-12,2024-09-12,患者搬送サービス小春合同会社,,合同会社,神奈川県,厚木市,王子２丁目１－２２－４,,14,212,2430817,,,,,,,2024-09-12,1,,,,,カンジャハンソウサービスコハル,0
1522,7021003015010,新規,0,2024-09-12,2024-09-12,ＣＨＡＵ　ＡＮＨ合同会社,,合同会社,神奈川県,相模原市中央区,宮下本町３丁目４９番１９号フラットＭ・Ａ２０５号,,14,152,2520211,,,,,,,2024-09-12,1,,,,,チャウアイン,0
1523,7030001162375,新規,0,2024-09-12,2024-09-12,トウケイ株式会社,,株式会社,埼玉県,熊谷市,代５２１番地２,,11,202,3600804,,,,,,,2024-09-12,1,,,,,トウケイ,0
1524,7030001162409,新規,0,2024-09-12,2024-09-12,株式会社太陽ホールディングス,,株式会社,埼玉県,所沢市,大字上安松８０４番地の１１,,11,208,3590025,,,,,,,2024-09-12,1,,,,,タイヨウホールディングス,0
1525,7030001162417,新規,0,2024-09-12,2024-09-12,株式会社Ｈｕｇｈ,,株式会社,埼玉県,秩父市,大野原２７９６番地１０,,11,207,3680005,,,,,,,2024-09-12,1,,,,,ヒュー,0
1526,7030001162433,新規,0,2024-09-12,2024-09-12,株式会社ＢＬ,,株式会社,埼玉県,川口市,元郷５丁目１４番１３号－１０３,,11,203,3320011,,,,,,,2024-09-12,1,,,,,ビーエル,0
1533,7030003025084,新規,0,2024-09-12,2024-09-12,合同会社ハートスプラウト,,合同会社,埼玉県,戸田市,大字新曽１２３５番地の５,,11,224,3350021,,,,,,,2024-09-12,1,,,,,ハートスプラウト,0
1545,7040003025777,新規,0,2024-09-12,2024-09-12,ＳＵＰＥＲＶＯＬＴ合同会社,,合同会社,千葉県,柏市,豊住５丁目２番６号,,12,217,2770071,,,,,,,2024-09-12,1,,,,,スーパーボルト,0
1549,7050001055404,新規,0,2024-09-12,2024-09-12,株式会社Ｍ＆Ｍ,,株式会社,茨城県,水戸市,石川１丁目３８５１番地の１,,08,201,3100905,,,,,,,2024-09-12,1,,,,,エムアンドエム,0
1552,7050003008673,新規,0,2024-09-12,2024-09-12,十王物産合同会社,,合同会社,茨城県,日立市,十王町高原３１１６番地,,08,202,3191305,,,,,,,2024-09-12,1,,,,,ジュウオウブッサン,0
1570,7080401027446,新規,0,2024-09-12,2024-09-12,株式会社ピースフレーク,,株式会社,静岡県,浜松市中央区,有玉南町１６０１番地,,22,138,4313122,,,,,,,2024-09-12,1,,,,,ピースフレーク,0
1575,7100003007769,新規,0,2024-09-12,2024-09-12,Ｖ‐ａｖａｎｔｉ合同会社,,合同会社,長野県,松本市,宮田８－８Ａ棟,,20,202,3990001,,,,,,,2024-09-12,1,,,,,ヴィーアバンティ,0
1583,7120001268485,新規,0,2024-09-12,2024-09-12,富士山下株式会社,,株式会社,大阪府,大阪市大正区,三軒家西３丁目４番１６号中山ビル３０８Ｂ,,27,108,5510001,,,,,,,2024-09-12,1,,,,,フジサンカ,0
1584,7120001268502,新規,0,2024-09-12,2024-09-12,アジア国際商事株式会社,,株式会社,大阪府,大阪市東淀川区,西淡路１丁目１－９－３２１,,27,114,5330031,,,,,,,2024-09-12,1,,,,,アジアコクサイショウジ,0
1585,7120001268535,新規,0,2024-09-12,2024-09-12,株式会社キョウドウＰＭＩ,,株式会社,大阪府,大阪市中央区,南船場２丁目４番８号,,27,128,5420081,,,,,,,2024-09-12,1,,,,,キョウドウピーエムアイ,0
1586,7120001268551,新規,0,2024-09-12,2024-09-12,株式会社ＧＯＬＤ　ＭＯＯＮ,,株式会社,大阪府,大阪市中央区,本町２丁目３番４号アソルティ本町ビル４階,,27,128,5410053,,,,,,,2024-09-12,1,,,,,ゴールドムーン,0
1588,7120003027534,新規,0,2024-09-12,2024-09-12,メデタシ・パートナーズ合同会社,,合同会社,大阪府,大阪市西区,南堀江４丁目３０－２４藤和南堀江コープ３０４,,27,106,5500015,,,,,,,2024-09-12,1,,,,,メデタシパートナーズ,0
1590,7120101070287,新規,0,2024-09-12,2024-09-12,株式会社アントワーク,,株式会社,大阪府,岸和田市,下松町２丁目１３番２０号,,27,202,5960823,,,,,,,2024-09-12,1,,,,,アントワーク,0
1599,7122001038447,新規,0,2024-09-12,2024-09-12,株式会社ＹＵＴＡＫＡ建築,,株式会社,大阪府,大東市,氷野２丁目６番２６号,,27,218,5740062,,,,,,,2024-09-12,1,,,,,ユタカケンチク,0
1607,7140003021064,新規,0,2024-09-12,2024-09-12,合同会社ＮｅｘｔＯｎｅ,,合同会社,兵庫県,神戸市長田区,前原町２丁目３番３号Ｃａｓａｄｅ前原町１０１,,28,106,6530803,,,,,,,2024-09-12,1,,,,,ネクストワン,0
1613,7180001163160,新規,0,2024-09-12,2024-09-12,日本住宅総合開発株式会社,,株式会社,愛知県,名古屋市中区,栄３丁目１８番１号ナディアパークビジネスセンタービル１４階,,23,106,4600008,,,,,,,2024-09-12,1,,,,,ニホンジュウタクソウゴウカイハツ,0
1615,7180003027322,新規,0,2024-09-12,2024-09-12,合同会社ＭＷＳ,,合同会社,愛知県,名古屋市守山区,下志段味５丁目２２０２番地,,23,113,4630003,,,,,,,2024-09-12,1,,,,,エムダブルエス,0
1616,7180301039044,新規,0,2024-09-12,2024-09-12,株式会社Ｙａｍａｄａ,,株式会社,愛知県,岡崎市,田口町字林５９番地２,,23,202,4443172,,,,,,,2024-09-12,1,,,,,ヤマダ,0
1619,7190003004790,新規,0,2024-09-12,2024-09-12,合同会社ＳＯＬＡ,,合同会社,三重県,松阪市,飯高町宮前３２１‐４,,24,204,5151502,,,,,,,2024-09-12,1,,,,,ソラ,0
1620,7200001042931,新規,0,2024-09-12,2024-09-12,ハイスアンドジーオム株式会社,,株式会社,岐阜県,不破郡垂井町,１７８３番地の５,,21,361,5032121,,,,,,,2024-09-12,1,,,,,ハイスアンドジーオム,0
1627,7240001063800,新規,0,2024-09-12,2024-09-12,株式会社ディフェンダーコートジャパン,,株式会社,広島県,広島市安佐南区,毘沙門台東１丁目１番７号,,34,105,7310151,,,,,,,2024-09-12,1,,,,,ディフェンダーコートジャパン,0
1633,7260003004890,新規,0,2024-09-12,2024-09-12,ＡＩ　ＬＡＮＤ　Ｃｏｍｐａｎｙ合同会社,,合同会社,岡山県,岡山市北区,奥田２丁目７番１３号,,33,101,7000933,,,,,,,2024-09-12,1,,,,,アイランドカンパニー,0
1643,7320001020710,新規,0,2024-09-12,2024-09-12,株式会社Ｋｅｅｐｅｒ,,株式会社,大分県,宇佐市,大字辛島字時岡４０－１,,44,211,8790456,,,,,,,2024-09-12,1,,,,,キーパー,0
1644,7320003004471,新規,0,2024-09-12,2024-09-12,ＲＫ　ＰＲＩＭＥ合同会社,,合同会社,大分県,佐伯市,蒲江大字波当津浦７７０－１,,44,205,8762407,,,,,,,2024-09-12,1,,,,,アールケープライム,0
1645,7330001032465,新規,0,2024-09-12,2024-09-12,株式会社ＵＰＳＥＬＥＣＴ,,株式会社,熊本県,熊本市中央区,京町１丁目５番５－２０２号,,43,101,8600078,,,,,,,2024-09-12,1,,,,,アップセレクト,0
1647,7340001026796,新規,0,2024-09-12,2024-09-12,株式会社潮騒,,株式会社,鹿児島県,南九州市,知覧町郡８０２８番地,,46,223,8970302,,,,,,,2024-09-12,1,,,,,シオサイ,0
1652,7360001034186,新規,0,2024-09-12,2024-09-12,株式会社Ｍ．Ｒ．Ｋ沖縄,,株式会社,沖縄県,浦添市,牧港４丁目１０番２－５０７号ライオンズプラザ牧港,,47,208,9012131,,,,,,,2024-09-12,1,,,,,エムアールケーオキナワ,0
1653,7370001051701,新規,0,2024-09-12,2024-09-12,株式会社リベレント,,株式会社,宮城県,仙台市太白区,金剛沢１丁目４番８号アイリスヒルズ１０３,,04,104,9820803,,,,,,,2024-09-12,1,,,,,リベレント,0
1654,7370001051718,新規,0,2024-09-12,2024-09-12,株式会社ＡＲＡサポート,,株式会社,宮城県,仙台市青葉区,川平３丁目２５番１１号,,04,101,9810954,,,,,,,2024-09-12,1,,,,,エーアールエーサポート,0
1655,7380001034787,新規,0,2024-09-12,2024-09-12,株式会社フェリエス,,株式会社,福島県,郡山市,土瓜１丁目１９５番地の２,,07,203,9630204,,,,,,,2024-09-12,1,,,,,フェリエス,0
1663,7430001092656,新規,0,2024-09-12,2024-09-12,株式会社ＦＵＴＵＲＯ,,株式会社,北海道,札幌市白石区,南郷通１９丁目南４番５号,,01,104,0030022,,,,,,,2024-09-12,1,,,,,フトゥーロ,0
1675,7470001020381,新規,0,2024-09-12,2024-09-12,株式会社アメニティーコーポレーション,,株式会社,香川県,高松市,牟礼町大町１０７６番地１７－１０１,,37,201,7610122,,,,,,,2024-09-12,1,,,,,アメニティーコーポレーション,0
1682,7500001025864,新規,0,2024-09-12,2024-09-12,株式会社徳の屋,00136279,株式会社,愛媛県,伊予郡松前町,大字筒井８７６－８,,38,401,7913120,,,,,,,2024-09-12,1,,,,,トクノヤ,0
1683,7700150037657,新規,0,2024-09-12,2015-10-09,日本大学工学部校友会,,その他,福島県,郡山市,田村町徳定字中河原１,,07,203,9631165,,,,,,,2015-10-09,1,,,,,ニホンダイガクコウガクブコウユウカイ,0
1688,8010001247986,新規,0,2024-09-12,2024-09-12,株式会社アコモモ,,株式会社,東京都,中央区,日本橋兜町１７番２号兜町第６葉山ビル４階,,13,102,1030026,,,,,,,2024-09-12,1,,,,,アコモモ,0
1689,8010003044886,新規,0,2024-09-12,2024-09-12,Ｊａｐａｎ　Ｓｏｆｔｐｏｗｅｒ　Ｍａｎａｇｅｍｅｎｔ合同会社,,合同会社,東京都,千代田区,富士見２丁目１０番３－２２０４号,,13,101,1020071,,,,,,,2024-09-12,1,,,,,ジャパンソフトパワーマネージメント,0
1690,8010003044894,新規,0,2024-09-12,2024-09-12,合同会社ＣｏｄｅＳｐｈｅｒｅ,,合同会社,東京都,中央区,新富２丁目７番３－６０４号,,13,102,1040041,,,,,,,2024-09-12,1,,,,,コードスフィア,0
1691,8010005038812,新規,0,2024-09-12,2024-09-12,一般社団法人浜松蓄電,,その他の設立登記法人,東京都,千代田区,霞が関３丁目２番５号,,13,101,1000013,,,,,,,2024-09-12,1,,,,,ハママツチクデン,0
1696,8010401185051,新規,0,2024-09-12,2024-09-12,ＮＫソリューションズ株式会社,,株式会社,東京都,港区,海岸１丁目２－３汐留芝離宮ビルディング２１階,,13,103,1050022,,,,,,,2024-09-12,1,,,,,エヌケーソリューションズ,0
1697,8010401185084,新規,0,2024-09-12,2024-09-12,株式会社Ｃｈｅｖａｌ,,株式会社,東京都,港区,芝大門２丁目４番６号,,13,103,1050012,,,,,,,2024-09-12,1,,,,,シュバル,0
1699,8010405023538,新規,0,2024-09-12,2024-09-12,武蔵小山ホールディング１一般社団法人,,その他の設立登記法人,東京都,港区,虎ノ門３丁目２２番１０－２０１号,,13,103,1050001,,,,,,,2024-09-12,1,,,,,ムサシコヤマホールディングワン,0
1705,8010505003555,新規,0,2024-09-12,2024-09-12,一般社団法人日本中医薬協会,,その他の設立登記法人,東京都,台東区,上野１丁目１８番１１号山光堂ビル４階,,13,106,1100005,,,,,,,2024-09-12,1,,,,,ニホンチュウイヤクキョウカイ,0
1706,8010603011088,新規,0,2024-09-12,2024-09-12,ＮＡＮＨＵ　ＪＰ合同会社,,合同会社,東京都,墨田区,京島１丁目４３番２号１－Ｂ室,,13,107,1310046,,,,,,,2024-09-12,1,,,,,ナンフウジャパン,0
1709,8010701046515,新規,0,2024-09-12,2024-09-12,株式会社エーファミリー,,株式会社,東京都,品川区,南品川２丁目１２番２－５０４号,,13,109,1400004,,,,,,,2024-09-12,1,,,,,エーファミリー,0
1713,8010901055935,新規,0,2024-09-12,2024-09-12,株式会社トータス,,株式会社,東京都,世田谷区,給田４丁目１１番１８号グランシードエイト１０３,,13,112,1570064,,,,,,,2024-09-12,1,,,,,トータス,0
1724,8011001164552,新規,0,2024-09-12,2024-09-12,株式会社Ｌａｐｒａｓ,,株式会社,東京都,渋谷区,渋谷２丁目１９－１５宮益坂ビルディング６０９,,13,113,1500002,,,,,,,2024-09-12,1,,,,,ラプラス,0
1725,8011003019952,新規,0,2024-09-12,2024-09-12,合同会社７７７ｓｔｙｌｅ,,合同会社,東京都,渋谷区,渋谷３丁目１番地９号ＹＡＺＡＷＡビル３階,,13,113,1500002,,,,,,,2024-09-12,1,,,,,セブンスタイル,0
1726,8011003019960,新規,0,2024-09-12,2024-09-12,ＹＵＰＩＭＡ合同会社,,合同会社,東京都,渋谷区,道玄坂１丁目１０番８号渋谷道玄坂東急ビル２Ｆ－Ｃ,,13,113,1500043,,,,,,,2024-09-12,1,,,,,ユピマ,0
1727,8011003020010,新規,0,2024-09-12,2024-09-12,合同会社槇の杜,,合同会社,東京都,渋谷区,上原３丁目１６番１６号,,13,113,1510064,,,,,,,2024-09-12,1,,,,,マキノモリ,0
1728,8011003020019,新規,0,2024-09-12,2024-09-12,クリエイティブサイエンス合同会社,,合同会社,東京都,渋谷区,渋谷２丁目７番１４号ＶＯＲＴ・ＡＯＹＡＭＡ４０３,,13,113,1500002,,,,,,,2024-09-12,1,,,,,クリエイティブサイエンス,0
1732,8011201025785,新規,0,2024-09-12,2024-09-12,株式会社ＲＥＲＡ,,株式会社,東京都,中野区,新井５丁目１１番９－１０１号,,13,114,1650026,,,,,,,2024-09-12,1,,,,,レラ,0
1734,8011601028058,新規,0,2024-09-12,2024-09-12,株式会社ＡｉｒＷｅＦｌｙ,,株式会社,東京都,練馬区,旭丘１丁目１１番３旭丘光ハイム４０１Ａ号,,13,120,1760005,,,,,,,2024-09-12,1,,,,,エアウィフライ,0
1740,8012301014075,新規,0,2024-09-12,2024-09-12,株式会社Ｃａｎａａｎ　Ｌｉｆｅ,,株式会社,東京都,町田市,真光寺１丁目３３番地２５,,13,209,1950057,,,,,,,2024-09-12,1,,,,,カナンライフ,0
1742,8012401042281,新規,0,2024-09-12,2024-09-12,株式会社リンクス,,株式会社,東京都,武蔵野市,吉祥寺北町１丁目１９番１０－２０３号,,13,203,1800001,,,,,,,2024-09-12,1,,,,,リンクス,0
1752,8013303007307,新規,0,2024-09-12,2024-09-12,合同会社ＭＯＲＩＭＯＲＩ,,合同会社,東京都,豊島区,南大塚２丁目１１－１０ミモザビル３階,,13,116,1700005,,,,,,,2024-09-12,1,,,,,モリモリ,0
1757,8020001159066,新規,0,2024-09-12,2024-09-12,株式会社サクハルリフォーム,,株式会社,神奈川県,横浜市栄区,小菅ケ谷３丁目５０番１０号,,14,115,2470007,,,,,,,2024-09-12,1,,,,,サクハルリフォーム,0
1758,8020001159099,新規,0,2024-09-12,2024-09-12,Ａｒｉｅｓ株式会社,,株式会社,神奈川県,横浜市旭区,柏町２２－１３,,14,112,2410835,,,,,,,2024-09-12,1,,,,,アリエス,0
1759,8020001159165,新規,0,2024-09-12,2024-09-12,ＫＩＣ株式会社,,株式会社,神奈川県,横浜市瀬谷区,相沢６丁目３７番地６－２０２,,14,114,2460013,,,,,,,2024-09-12,1,,,,,,0
1760,8020001159181,新規,0,2024-09-12,2024-09-12,ティースリーホーム株式会社,,株式会社,神奈川県,横浜市保土ケ谷区,月見台３８番５号－Ｂ号室,,14,106,2400012,,,,,,,2024-09-12,1,,,,,ティースリーホーム,0
1761,8020001159198,新規,0,2024-09-12,2024-09-12,株式会社Ｍｏａｎａ,,株式会社,神奈川県,横浜市戸塚区,品濃町５２７番地１,,14,110,2440801,,,,,,,2024-09-12,1,,,,,モアナ,0
1767,8020003026883,新規,0,2024-09-12,2024-09-12,合同会社アキコンサルティング,,合同会社,神奈川県,横浜市港北区,篠原台町３８－１８－２０６,,14,109,2220024,,,,,,,2024-09-12,1,,,,,アキコンサルティング,0
1772,8021003015001,新規,0,2024-09-12,2024-09-12,合同会社エムエス技研,,合同会社,神奈川県,鎌倉市,二階堂６９５番地２,,14,204,2480002,,,,,,,2024-09-12,1,,,,,エムエスギケン,0
1781,8030001162424,新規,0,2024-09-12,2024-09-12,パールホーム株式会社,,株式会社,埼玉県,春日部市,緑町６丁目３番１２－７０１号,,11,214,3440063,,,,,,,2024-09-12,1,,,,,パールホーム,0
1782,8030001162440,新規,0,2024-09-12,2024-09-12,株式会社遊雅,,株式会社,埼玉県,春日部市,米島７９８番地２０,,11,214,3440115,,,,,,,2024-09-12,1,,,,,ユウガ,0
1784,8030003025083,新規,0,2024-09-12,2024-09-12,合同会社醸土,,合同会社,埼玉県,飯能市,大字下名栗３７０番地１,,11,209,3570112,,,,,,,2024-09-12,1,,,,,ジョウド,0
1788,8040001135346,新規,0,2024-09-12,2024-09-12,株式会社ＦＬＰ,,株式会社,千葉県,八千代市,大和田新田７４７番地１－７番館７０６号,,12,221,2760046,,,,,,,2024-09-12,1,,,,,エフエルピー,0
1794,8050001055386,新規,0,2024-09-12,2024-09-12,株式会社梅松,,株式会社,茨城県,水戸市,元吉田町２８３番地の１フラット・ストーンＡ棟２０１号室,,08,201,3100836,,,,,,,2024-09-12,1,,,,,ウメマツ,0
1795,8050001055394,新規,0,2024-09-12,2024-09-12,株式会社ふせじま,,株式会社,茨城県,小美玉市,羽鳥２９６９番地１,,08,236,3190123,,,,,,,2024-09-12,1,,,,,フセジマ,0
1797,8050003008672,新規,0,2024-09-12,2024-09-12,合同会社ＲＦＡエステート,,合同会社,茨城県,水戸市,平須町１８２４番地の４７３,,08,201,3100853,,,,,,,2024-09-12,1,,,,,アールエフエーエステート,0
1800,8060003005248,新規,0,2024-09-12,2024-09-12,合同会社一心,,合同会社,栃木県,栃木市,富士見町１３番１７号サンライズアイ２０５,,09,203,3280044,,,,,,,2024-09-12,1,,,,,イッシン,0
1802,8070003005577,新規,0,2024-09-12,2024-09-12,合同会社近藤設計企画,,合同会社,群馬県,藤岡市,藤岡９１９番地７,,10,209,3750024,,,,,,,2024-09-12,1,,,,,コンドウセッケイキカク,0
1805,8080005007645,新規,0,2024-09-12,2024-09-12,一般社団法人いきいきライフ協会静岡,,その他の設立登記法人,静岡県,静岡市葵区,昭府２丁目１番１４－１号,,22,101,4200871,,,,,,,2024-09-12,1,,,,,イキイキライフキョウカイシズオカ,0
1809,8090001018901,新規,0,2024-09-12,2024-09-12,株式会社コラボ・プロ,,株式会社,山梨県,甲府市,国母１丁目２２番２２号サーパス国母４０４,,19,201,4000043,,,,,,,2024-09-12,1,,,,,コラボプロ,0
1819,8120001268195,新規,0,2024-09-12,2024-09-12,ゲームオンエンターテインメント株式会社,,株式会社,大阪府,大阪市北区,梅田１丁目２番２号大阪駅前第２ビル１２－１２,,27,127,5300001,,,,,,,2024-09-12,1,,,,,ゲームオンエンターテインメント,0
1820,8120001268443,新規,0,2024-09-12,2024-09-12,積水ハウスシャーメゾン関西株式会社,,株式会社,大阪府,大阪市北区,大淀中１丁目１番９０号,,27,127,5310076,,,,,,,2024-09-12,1,,,,,セキスイハウスシャーメゾンカンサイ,0
1821,8120001268451,新規,0,2024-09-12,2024-09-12,株式会社東研インターナショナル,,株式会社,大阪府,大阪市東住吉区,桑津５丁目２２番３号,,27,121,5460041,,,,,,,2024-09-12,1,,,,,トウケンインターナショナル,0
1822,8120001268476,新規,0,2024-09-12,2024-09-12,ＴＮＣサービス株式会社,,株式会社,大阪府,大阪市東住吉区,北田辺６丁目１６番２号,,27,121,5460044,,,,,,,2024-09-12,1,,,,,ティーエヌシーサービス,0
1823,8120001268484,新規,0,2024-09-12,2024-09-12,傑禹株式会社,,株式会社,大阪府,大阪市城東区,関目５丁目１９番９号関目花博公館４０３Ｂ,,27,118,5360008,,,,,,,2024-09-12,1,,,,,ケツウ,0
1824,8120001268518,新規,0,2024-09-12,2024-09-12,越大株式会社,,株式会社,大阪府,大阪市中央区,博労町１丁目６－１３いろはビル３０２号室,,27,128,5410059,,,,,,,2024-09-12,1,,,,,エツダイ,0
1825,8120001268534,新規,0,2024-09-12,2024-09-12,株式会社リマインド,,株式会社,大阪府,大阪市生野区,桃谷１丁目１１番１４号エル・ファミール１０１号,,27,116,5440034,,,,,,,2024-09-12,1,,,,,リマインド,0
1826,8120001268583,新規,0,2024-09-12,2024-09-12,株式会社ウイングバード,,株式会社,大阪府,大阪市福島区,福島５丁目６番３１号,,27,103,5530003,,,,,,,2024-09-12,1,,,,,ウイングバード,0
1829,8120003027517,新規,0,2024-09-12,2024-09-12,合同会社ｎｏｍａ,,合同会社,大阪府,大阪市中央区,高麗橋２丁目２－２日宝北浜ビル３Ｆ１,,27,128,5410043,,,,,,,2024-09-12,1,,,,,ノーマ,0
1830,8120003027533,新規,0,2024-09-12,2024-09-12,春和合同会社,,合同会社,大阪府,大阪市淀川区,西三国３丁目１０番１８号佐藤ハイツ１階Ｂ号室,,27,123,5320006,,,,,,,2024-09-12,1,,,,,シュンワ,0
1835,8120101070278,新規,0,2024-09-12,2024-09-12,株式会社辻正電工,00136290,株式会社,大阪府,松原市,天美西３丁目２１０番地の３７,,27,217,5800034,,,,,,,2024-09-12,1,,,,,ツジマサデンコウ,0
1840,8130005017176,新規,0,2024-09-12,2024-09-12,一般社団法人人工生命国際研究機構,,その他の設立登記法人,京都府,京都市中京区,河原町通二条下る一之船入町３７６,,26,104,6040924,,,,,,,2024-09-12,1,,,,,ジンコウセイメイコクサイケンキュウキコウ,0
1845,8140001135773,新規,0,2024-09-12,2024-09-12,株式会社イエローマスタード,,株式会社,兵庫県,神戸市北区,谷上東町７番６－５０１号,,28,109,6511245,,,,,,,2024-09-12,1,,,,,イエローマスタード,0
1848,8140003021063,新規,0,2024-09-12,2024-09-12,Ｔａｒｏｋｏ　ｏｎｅ合同会社,,合同会社,兵庫県,神戸市灘区,天城通８丁目５番２４号,,28,102,6570823,,,,,,,2024-09-12,1,,,,,タロコワン,0
1855,8180001163259,新規,0,2024-09-12,2024-09-12,エスクレスト株式会社,,株式会社,愛知県,名古屋市中村区,名駅３丁目４番１０号アルティメイト名駅１ｓｔ２階,,23,105,4500002,,,,,,,2024-09-12,1,,,,,エスクレスト,0
1860,8180301039035,新規,0,2024-09-12,2024-09-12,ＨＫホーム株式会社,,株式会社,愛知県,豊田市,小川町１丁目３番地３コーポ杉浦,,23,211,4710857,,,,,,,2024-09-12,1,,,,,エイチケイホーム,0
1861,8180301039043,新規,0,2024-09-12,2024-09-12,株式会社ＰＯＤ,,株式会社,愛知県,岡崎市,明大寺本町２丁目３２番地１,,23,202,4440860,,,,,,,2024-09-12,1,,,,,ピーオーディー,0
1864,8200001042914,新規,0,2024-09-12,2024-09-12,株式会社ＣｒｉｏｎＯｆｆｉｃｅ,,株式会社,岐阜県,岐阜市,北一色９丁目２１番８号,,21,201,5008227,,,,,,,2024-09-12,1,,,,,クリオンオフィス,0
1865,8200001042922,新規,0,2024-09-12,2024-09-12,株式会社ＧＣ,,株式会社,岐阜県,羽島市,舟橋町１６８番地,,21,209,5016302,,,,,,,2024-09-12,1,,,,,ジーシー,0
1866,8200001042930,新規,0,2024-09-12,2024-09-12,株式会社エヌプラス,,株式会社,岐阜県,羽島市,堀津町１２１５番地１,,21,209,5016330,,,,,,,2024-09-12,1,,,,,エヌプラス,0
1868,8210001019911,新規,0,2024-09-12,2024-09-12,ＴＥＸＬ　ＨＤ株式会社,,株式会社,福井県,南条郡南越前町,鯖波第９号５番地の１,,18,404,9190212,,,,,,,2024-09-12,1,,,,,テックルホールディングス,0
1873,8240001063790,新規,0,2024-09-12,2024-09-12,株式会社ＩＷＡＴＡ,,株式会社,広島県,福山市,山手町５丁目１７番８号,,34,207,7200092,,,,,,,2024-09-12,1,,,,,イワタ,0
1876,8240003006847,新規,0,2024-09-12,2024-09-12,合同会社三原レッカー,,合同会社,広島県,三原市,宮沖２丁目７番１２号,,34,204,7230016,,,,,,,2024-09-12,1,,,,,ミハラレッカー,0
1877,8240005015821,新規,0,2024-09-12,2024-09-12,医療法人社団優尽会たなべ春日野クリニック,,その他の設立登記法人,広島県,広島市安佐南区,山本新町２丁目１８番９－８号１階,,34,105,7310139,,,,,,,2024-09-12,1,,,,,ユウジンカイタナベカスガノクリニック,0
1878,8250001020808,新規,0,2024-09-12,2024-09-12,株式会社ケイアイエス,,株式会社,山口県,下関市,形山みどり町１２－１５アーバンライフ３号館１０１号,,35,201,7510885,,,,,,,2024-09-12,1,,,,,ケイアイエス,0
1879,8260001039450,新規,0,2024-09-12,2024-09-12,株式会社ウェルドテック,,株式会社,岡山県,倉敷市,林２４３番地５,,33,202,7100142,,,,,,,2024-09-12,1,,,,,ウェルドテック,0
1887,8290001107238,新規,0,2024-09-12,2024-09-12,株式会社聖・コーポレーション,,株式会社,福岡県,福岡市早良区,西入部５丁目１１番２０号,,40,137,8111121,,,,,,,2024-09-12,1,,,,,シンコーポレーション,0
1889,8290003015785,新規,0,2024-09-12,2024-09-12,合同会社グロースキャピタル,,合同会社,福岡県,福岡市東区,香椎照葉３丁目３番１－３０２号アイランドタワースカイクラブＡ棟,,40,131,8130017,,,,,,,2024-09-12,1,,,,,グロースキャピタル,0
1890,8290003015793,新規,0,2024-09-12,2024-09-12,ＯＦＨ合同会社,,合同会社,福岡県,春日市,春日７丁目６８番地,,40,218,8160814,,,,,,,2024-09-12,1,,,,,オーエフエイチ,0
1891,8290003015802,新規,0,2024-09-12,2024-09-12,合同会社ＬＯ‐ＬＯ,,合同会社,福岡県,八女市,鵜池３０８番地１,,40,210,8340055,,,,,,,2024-09-12,1,,,,,ロロ,0
1892,8290005019504,新規,0,2024-09-12,2024-09-12,一般財団法人ワイドレジャーみらい財団,,その他の設立登記法人,福岡県,小郡市,小郡２４１３番地の１,,40,216,8380141,,,,,,,2024-09-12,1,,,,,ワイドレジャーミライザイダン,0
1896,8310001019199,新規,0,2024-09-12,2024-09-12,株式会社栄介,,株式会社,長崎県,西彼杵郡時津町,元村郷４１９番地４セジュールもとおＢ１０１,,42,308,8512103,,,,,,,2024-09-12,1,,,,,エイス,0
1897,8310001019208,新規,0,2024-09-12,2024-09-12,株式会社智翔館ＮＥＰ,,株式会社,長崎県,佐世保市,白南風町５ー１５,,42,202,8570862,,,,,,,2024-09-12,1,,,,,チショウカンエヌイーピー,0
1906,8340001026787,新規,0,2024-09-12,2024-09-12,株式会社Ｉ．Ｍ．Ｒ,,株式会社,鹿児島県,鹿児島市,武１丁目２－１０ＪＲ鹿児島ビル４．５Ｆ,,46,201,8900045,,,,,,,2024-09-12,1,,,,,アイエムアール,0
1913,8360003014292,新規,0,2024-09-12,2024-09-12,合同会社Ｊｅｖｅｌｏｐ,,合同会社,沖縄県,浦添市,沢岻２丁目７番１０号,,47,208,9012112,,,,,,,2024-09-12,1,,,,,ジェベロップ,0
1919,8380001034794,新規,0,2024-09-12,2024-09-12,ワイエスフード株式会社,,株式会社,福島県,本宮市,青田字花掛２０番地２,,07,214,9691107,,,,,,,2024-09-12,1,,,,,ワイエスフード,0
1920,8380005012862,新規,0,2024-09-12,2024-09-12,一般社団法人郡山建設業者同友会,,その他の設立登記法人,福島県,郡山市,日和田町高倉字上萱沼４７番地６,,07,203,9630531,,,,,,,2024-09-12,1,,,,,コオリヤマケンセツギョウシャドウユウカイ,0
1929,8430001092655,新規,0,2024-09-12,2024-09-12,株式会社ハチキュウアカデミー,,株式会社,北海道,札幌市白石区,中央一条７丁目７番１－７１２号,,01,104,0030011,,,,,,,2024-09-12,1,,,,,ハチキュウアカデミー,0
1933,8480001012591,新規,0,2024-09-12,2024-09-12,子鹿株式会社,,株式会社,徳島県,板野郡上板町,高瀬３５５番地１,,36,405,7711347,,,,,,,2024-09-12,1,,,,,コジカ,0
1944,8700150127135,新規,0,2024-09-12,2024-09-12,ゲッツビルマンション建替組合,,その他,東京都,中央区,八重洲２丁目１０－５－４０２,,13,102,1040028,,,,,,,2024-09-12,1,,,,,ゲツツビルマンシヨンタテカエクミアイ,0
1951,9010001248166,新規,0,2024-09-12,2024-09-12,ａｉｌｅ株式会社,,株式会社,東京都,中央区,築地７丁目２番１号,,13,102,1040045,,,,,,,2024-09-12,1,,,,,エール,0
1952,9010001248199,新規,0,2024-09-12,2024-09-12,株式会社Ｕｅｙａｍａ　Ｂｕｓｉｎｅｓｓ　Ｐｒｏｍｏｔｉｏｎｓ,,株式会社,東京都,千代田区,永田町２丁目９番８号パレロワイヤル永田町２０１号,,13,101,1000014,,,,,,,2024-09-12,1,,,,,ウエヤマビジネスプロモーションズ,0
1954,9010003044860,新規,0,2024-09-12,2024-09-12,合同会社カワナ,,合同会社,東京都,中央区,銀座１丁目１２番４号Ｎ＆ＥＢＬＤ．６Ｆ,,13,102,1040061,,,,,,,2024-09-12,1,,,,,カワナ,0
1955,9010003044893,新規,0,2024-09-12,2024-09-12,合同会社デザインライフ,,合同会社,東京都,千代田区,神田須田町１丁目７番８号ＶＯＲＴ秋葉原ＩＶ２Ｆ,00136289,13,101,1010041,,,,,,,2024-09-12,1,,,,,デザインライフ,0
1961,9010401184903,新規,0,2024-09-12,2024-09-12,株式会社ＴＲＩＡＮＧＬＥ,,株式会社,東京都,港区,南青山２丁目２－１５ＷｉｎＡｏｙａｍａビル６階,,13,103,1070062,,,,,,,2024-09-12,1,,,,,トライアングル,0
1962,9010401185001,新規,0,2024-09-12,2024-09-12,株式会社Ｎ７１Ｓｔｕｄｉｏｓ,,株式会社,東京都,港区,南青山３丁目１番３６号青山丸竹ビル６Ｆ,,13,103,1070062,,,,,,,2024-09-12,1,,,,,エヌナナイチスタジオズ,0
1963,9010401185026,新規,0,2024-09-12,2024-09-12,株式会社ＡＩ　Ｔｒａｉｎｉｎｇ,,株式会社,東京都,港区,北青山１丁目３番１号アールキューブ青山３階,,13,103,1070061,,,,,,,2024-09-12,1,,,,,エーアイトレーニング,0
1964,9010401185042,新規,0,2024-09-12,2024-09-12,株式会社パッシオ,,株式会社,東京都,港区,芝浦３丁目１５番５－３０２号,,13,103,1080023,,,,,,,2024-09-12,1,,,,,パッシオ,0
1965,9010401185059,新規,0,2024-09-12,2024-09-12,イアスコーポレーション株式会社,,株式会社,東京都,港区,赤坂１丁目１２番３２号,,13,103,1070052,,,,,,,2024-09-12,1,,,,,イアスコーポレーション,0
1966,9010401185083,新規,0,2024-09-12,2024-09-12,株式会社Ｄａｄｏｒｅ,,株式会社,東京都,港区,三田１丁目７番１－３４０８号,,13,103,1080073,,,,,,,2024-09-12,1,,,,,ダドーレ,0
1967,9010401185109,新規,0,2024-09-12,2024-09-12,株式会社ＴＰＳ　Ｊａｐａｎ,,株式会社,東京都,港区,新橋４丁目３１番３号第３明和ビル５階,,13,103,1050004,,,,,,,2024-09-12,1,,,,,ティーピーエスジャパン,0
1969,9010403033406,新規,0,2024-09-12,2024-09-12,Ｐｉｎｎａｃｌｅ　Ａｄｖｉｓｏｒｓ合同会社,,合同会社,東京都,港区,高輪１丁目３番２－２９０４号,,13,103,1080074,,,,,,,2024-09-12,1,,,,,ピナクルアドバイザーズ,0
1970,9010403033414,新規,0,2024-09-12,2024-09-12,ＳＫ＆ＰＲ合同会社,,合同会社,東京都,港区,芝浦４丁目１９番１号,,13,103,1080023,,,,,,,2024-09-12,1,,,,,エスケーアンドピーアール,0
1979,9010701046539,新規,0,2024-09-12,2024-09-12,リアン・フィールド株式会社,,株式会社,東京都,品川区,東五反田１丁目１０番７号,,13,109,1410022,,,,,,,2024-09-12,1,,,,,リアンフィールド,0
1991,9011001164667,新規,0,2024-09-12,2024-09-12,ワオ株式会社,,株式会社,東京都,目黒区,東が丘２丁目１３番６号ＳＴＥＬＬＡ駒沢Ａ,,13,110,1520021,,,,,,,2024-09-12,1,,,,,ワオ,0
1992,9011003019571,新規,0,2024-09-12,2024-09-12,合同会社Ｓｕｒｆｌｅｘ,,合同会社,東京都,渋谷区,渋谷２丁目１９－１５宮益坂ビルディング６０９,,13,113,1500002,,,,,,,2024-09-12,1,,,,,サーフレックス,0
1993,9011003019951,新規,0,2024-09-12,2024-09-12,合同会社さんてらす,,合同会社,東京都,目黒区,碑文谷６丁目６番２０号,,13,110,1520003,,,,,,,2024-09-12,1,,,,,サンテラス,0
1996,9011101108755,新規,0,2024-09-12,2024-09-12,株式会社ＬＵＣＩＡＺ,,株式会社,東京都,新宿区,四谷坂町４番１６号アムロゼッタ四ッ谷１０２,,13,104,1600002,,,,,,,2024-09-12,1,,,,,ルシアス,0
1998,9011301029999,新規,0,2024-09-12,2024-09-12,株式会社メディカルストライク,,株式会社,東京都,杉並区,和田２丁目３８－８プラウド杉並和田サウスコート５０３,,13,115,1660012,,,,,,,2024-09-12,1,,,,,メディカルストライク,0
2006,9011503006202,新規,0,2024-09-12,2024-09-12,合同会社ＤＸＰＲＯ　ＳＯＬＵＴＩＯＮＳ,,合同会社,東京都,北区,田端４丁目２１番１４－４０２号シャンボール大和郷,,13,117,1140014,,,,,,,2024-09-12,1,,,,,ディーエックスプロソリューションズ,0
2008,9011601028057,新規,0,2024-09-12,2024-09-12,株式会社東京ＷＥＢ集客パートナーズ,,株式会社,東京都,練馬区,練馬１丁目４１番１７号,,13,120,1760001,,,,,,,2024-09-12,1,,,,,トウキョウウェブシュウキャクパートナーズ,0
2020,9012803003509,新規,0,2024-09-12,2024-09-12,合同会社Ｃ．Ａ．Ｌ,,合同会社,東京都,国分寺市,東元町１丁目２３番２４号,,13,214,1850022,,,,,,,2024-09-12,1,,,,,シーエーエル,0
2022,9013105001853,新規,0,2024-09-12,2024-09-12,医療法人社団朝音梵,,その他の設立登記法人,東京都,西多摩郡日の出町,大字平井字三吉野場末４０５番５　１階,,13,305,1900182,,,,,,,2024-09-12,1,,,,,アサネボン,0
2025,9013303007297,新規,0,2024-09-12,2024-09-12,合同会社高山商店,00136278,合同会社,東京都,豊島区,東池袋５丁目８番３号,,13,116,1700013,,,,,,,2024-09-12,1,,,,,タカヤマショウテン,0
2033,9020001159098,新規,0,2024-09-12,2024-09-12,株式会社ハルモネア,,株式会社,神奈川県,横浜市戸塚区,秋葉町２５３番地２３８,,14,110,2450052,,,,,,,2024-09-12,1,,,,,ハルモネア,0
2034,9020001159107,新規,0,2024-09-12,2024-09-12,株式会社パッションリリー,,株式会社,神奈川県,横浜市中区,真砂町３丁目３３番地セルテビル１１階,,14,104,2310016,,,,,,,2024-09-12,1,,,,,パッションリリー,0
2035,9020001159189,新規,0,2024-09-12,2024-09-12,株式会社Ｒｅ．Ｂｏｎｅ,,株式会社,神奈川県,横浜市神奈川区,栄町４番地３Ｗｉｌｌ３０２号,,14,102,2210052,,,,,,,2024-09-12,1,,,,,リボーン,0
2040,9020003026874,新規,0,2024-09-12,2024-09-12,Ｇｏｌｄ　Ｋ合同会社,,合同会社,神奈川県,横浜市神奈川区,斎藤分町２４番２１号,,14,102,2210811,,,,,,,2024-09-12,1,,,,,ゴールドケー,0
2041,9020003026899,新規,0,2024-09-12,2024-09-12,シマメディカルリース合同会社,,合同会社,神奈川県,川崎市中原区,井田杉山町２９番６号,,14,133,2110036,,,,,,,2024-09-12,1,,,,,シマメディカルリース,0
2043,9020005016543,新規,0,2024-09-12,2024-09-12,ＮＰＯ法人絆たすけあい,,その他の設立登記法人,神奈川県,横浜市西区,高島２丁目５番１２号横浜ＤＫビル３階,,14,103,2200011,,,,,,,2024-09-12,1,,,,,キズナタスケアイ,0
2044,9021001083197,新規,0,2024-09-12,2024-09-12,株式会社ＣＥＩＥ　Ａｓｓｅｔ　Ｍａｎａｇｅｍｅｎｔ,,株式会社,神奈川県,藤沢市,亀井野５７７番地の１７レクハイム６０２号,,14,205,2520813,,,,,,,2024-09-12,1,,,,,セイエアセットマネジメント,0
2053,9030001162398,新規,0,2024-09-12,2024-09-12,株式会社カスロ・ジャパン,,株式会社,埼玉県,さいたま市浦和区,神明２丁目８番７－３号,,11,107,3300065,,,,,,,2024-09-12,1,,,,,カスロジャパン,0
2054,9030001162415,新規,0,2024-09-12,2024-09-12,株式会社ＫＡＲＥＮ,,株式会社,埼玉県,さいたま市大宮区,桜木町２丁目４０６番地,,11,103,3300854,,,,,,,2024-09-12,1,,,,,カレン,0
2056,9030003025090,新規,0,2024-09-12,2024-09-12,合同会社フクロウ,,合同会社,埼玉県,所沢市,緑町１丁目１９番１６号ルミアン第二ビル１階,,11,208,3591111,,,,,,,2024-09-12,1,,,,,フクロウ,0
2059,9040001135345,新規,0,2024-09-12,2024-09-12,株式会社ステップアップ,,株式会社,千葉県,浦安市,千鳥１５番地２５,,12,227,2790032,,,,,,,2024-09-12,1,,,,,ステップアップ,0
2063,9040005022498,新規,0,2024-09-12,2024-09-12,一般社団法人ワットパクナム日本別院,,その他の設立登記法人,千葉県,成田市,中野２９４番地１,,12,211,2870237,,,,,,,2024-09-12,1,,,,,ワットパクナムニホンベツイン,0
2064,9050001014614,新規,0,2024-09-12,2024-09-12,株式会社関根建設,,株式会社,茨城県,猿島郡境町,４５９番地,,08,546,3060433,,,,,,,2024-09-12,1,,,,,,0
2067,9050001055385,新規,0,2024-09-12,2024-09-12,株式会社経営工房,,株式会社,茨城県,水戸市,河和田町３３２８番地の２クレールメゾン２０２号,,08,201,3114153,,,,,,,2024-09-12,1,,,,,ケイエイコウボウ,0
2084,9090003002638,新規,0,2024-09-12,2024-09-12,合同会社ＳＧＣＨＤ,,合同会社,山梨県,南巨摩郡身延町,下山９２２,,19,365,4092522,,,,,,,2024-09-12,1,,,,,エスジーシーホールディングス,0
2088,9110001038697,新規,0,2024-09-12,2024-09-12,株式会社ブルーシード新潟,,株式会社,新潟県,長岡市,寺泊夏戸３５６５番地,,15,202,9402522,,,,,,,2024-09-12,1,,,,,ブルーシードニイガタ,0
2089,9110001038706,新規,0,2024-09-12,2024-09-12,株式会社サトウフーズホールディングス,,株式会社,新潟県,新発田市,奥山新保３７４番地３,,15,206,9570064,,,,,,,2024-09-12,1,,,,,サトウフーズホールディングス,0
2093,9120001268475,新規,0,2024-09-12,2024-09-12,株式会社ＴＯＰ　ＯＮＥ　ＣＬＥＡＮ,,株式会社,大阪府,大阪市北区,梅田２丁目５番１３号桜橋第一ビル３０４号,,27,127,5300001,,,,,,,2024-09-12,1,,,,,トップワンクリーン,0
2094,9120001268483,新規,0,2024-09-12,2024-09-12,鴻衷株式会社,,株式会社,大阪府,大阪市城東区,関目５丁目１９番９号関目花博公館４０３Ａ,,27,118,5360008,,,,,,,2024-09-12,1,,,,,コウチュウ,0
2095,9120001268500,新規,0,2024-09-12,2024-09-12,ＭＴＣ　Ｔｒａｄｉｎｇ株式会社,,株式会社,大阪府,大阪市東住吉区,南田辺１丁目１番１５－１０２Ｄ号,,27,121,5460033,,,,,,,2024-09-12,1,,,,,エムティーシートレーディング,0
2096,9120001268533,新規,0,2024-09-12,2024-09-12,株式会社ＡｌｍｏｎＡ,,株式会社,大阪府,大阪市港区,波除１丁目１番９７号,,27,107,5520001,,,,,,,2024-09-12,1,,,,,アルモナ,0
2097,9120001268558,新規,0,2024-09-12,2024-09-12,株式会社Ｂ　ＷＯＲＫＳ,,株式会社,大阪府,大阪市住吉区,長居西１丁目５番１８号,,27,120,5580002,,,,,,,2024-09-12,1,,,,,ビーワークス,0
2098,9120001268582,新規,0,2024-09-12,2024-09-12,株式会社Ｇｒａｎｄｉｓｔａ,,株式会社,大阪府,大阪市住之江区,安立１丁目１４番９号,,27,125,5590003,,,,,,,2024-09-12,1,,,,,グランディスタ,0
2099,9120001268590,新規,0,2024-09-12,2024-09-12,株式会社ででん,,株式会社,大阪府,大阪市北区,梅田１丁目２番２号大阪駅前第２ビル１２－１２,,27,127,5300001,,,,,,,2024-09-12,1,,,,,デデン,0
2103,9120003027524,新規,0,2024-09-12,2024-09-12,合同会社Ｍ企画,,合同会社,大阪府,大阪市東住吉区,田辺４丁目１４番１９号,,27,121,5460031,,,,,,,2024-09-12,1,,,,,エムキカク,0
2104,9120003027540,新規,0,2024-09-12,2024-09-12,合同会社松笠,,合同会社,大阪府,大阪市北区,梅田１丁目２番２号大阪駅前第２ビル１２－１２,,27,127,5300001,,,,,,,2024-09-12,1,,,,,マツカサ,0
2106,9120901049677,新規,0,2024-09-12,2024-09-12,株式会社十犬十色,,株式会社,大阪府,池田市,綾羽１丁目４番１９号,,27,204,5630051,,,,,,,2024-09-12,1,,,,,ジュッケントイロ,0
2107,9120901049768,新規,0,2024-09-12,2024-09-12,株式会社Ｓｍｉｌｅ　Ｏｎｅ,,株式会社,大阪府,高槻市,緑が丘２丁目１１番８号,,27,207,5691026,,,,,,,2024-09-12,1,,,,,スマイルワン,0
2114,9140001135764,新規,0,2024-09-12,2024-09-12,株式会社ＫＡＩ’Ｓ,,株式会社,兵庫県,尼崎市,昭和通５丁目１６４番３号３階,,28,202,6600881,,,,,,,2024-09-12,1,,,,,カイズ,0
2115,9140001135772,新規,0,2024-09-12,2024-09-12,株式会社カサブランカ,,株式会社,兵庫県,明石市,魚住町清水１７１１番地の１,,28,203,6740074,,,,,,,2024-09-12,1,,,,,カサブランカ,0
2118,9160001026210,新規,0,2024-09-12,2024-09-12,株式会社ＩＰＦ,,株式会社,滋賀県,長浜市,平方町７２９番地１６,,25,203,5260033,,,,,,,2024-09-12,1,,,,,アイピーエフ,0
2127,9180001163183,新規,0,2024-09-12,2024-09-12,株式会社ＡＲＫ,,株式会社,愛知県,名古屋市中区,栄４丁目２１番２１号,,23,106,4600008,,,,,,,2024-09-12,1,,,,,アーク,0
2135,9180003027329,新規,0,2024-09-12,2024-09-12,ジョイントフォーステクニック合同会社,,合同会社,愛知県,小牧市,城山４丁目５６番地１２,,23,219,4850812,,,,,,,2024-09-12,1,,,,,ジョイントフォーステクニック,0
2141,9220001026195,新規,0,2024-09-12,2024-09-12,株式会社Ｑｕｅｅｎ’ｓ　Ｐｏｒｔｅｒ,,株式会社,石川県,鳳珠郡能登町,字宇出津ニ２‐１６‐４,,17,463,9270433,,,,,,,2024-09-12,1,,,,,クィーンズポーター,0
2144,9250005008947,新規,0,2024-09-12,2024-09-12,弁理士法人維新国際特許事務所,,その他の設立登記法人,山口県,山口市,熊野町１番１０号,,35,203,7530077,,,,,,,2024-09-12,1,,,,,イシンコクサイトッキョジムショ,0
2146,9260003004889,新規,0,2024-09-12,2024-09-12,合同会社モンキーマジック,,合同会社,岡山県,岡山市南区,平福１丁目３番２３号,,33,104,7028043,,,,,,,2024-09-12,1,,,,,モンキーマジック,0
2156,9310001019207,新規,0,2024-09-12,2024-09-12,株式会社たがため,,株式会社,長崎県,北松浦郡佐々町,本田原免２０６番地２,,42,391,8570311,,,,,,,2024-09-12,1,,,,,タガタメ,0
2162,9330003010558,新規,0,2024-09-12,2024-09-12,ウェルネスバディージャパン合同会社,,合同会社,熊本県,合志市,幾久富１９０９番地１７３５,,43,216,8611112,,,,,,,2024-09-12,1,,,,,ウェルネスバディージャパン,0
2165,9340001026786,新規,0,2024-09-12,2024-09-12,株式会社Ｒｉｖｅｒ　Ｂａｓｅ,,株式会社,鹿児島県,霧島市,国分福島１丁目２番１５－５号,,46,218,8994322,,,,,,,2024-09-12,1,,,,,リバーベース,0
2166,9340003004600,新規,0,2024-09-12,2024-09-12,岩希合同会社,,合同会社,鹿児島県,日置市,東市来町長里２２４９－１５,,46,216,8992202,,,,,,,2024-09-12,1,,,,,イワキ,0
2171,9360001034176,新規,0,2024-09-12,2024-09-12,ＴＡＫＡＨＡＲＡ　ＣＯＦＦＥＥ　ＲＯＡＳＴＥＲＹ株式会社,,株式会社,沖縄県,那覇市,久茂地３丁目２９番９号,,47,201,9000015,,,,,,,2024-09-12,1,,,,,タカハラコーヒーローステリー,0
2172,9360001034184,新規,0,2024-09-12,2024-09-12,株式会社琉球ゼノトゥーン,,株式会社,沖縄県,豊見城市,字豊崎１番地１１９８プレミスト豊崎１２０７号,,47,212,9010225,,,,,,,2024-09-12,1,,,,,リュウキュウゼノトゥーン,0
2173,9360003014283,新規,0,2024-09-12,2024-09-12,合同会社アミス工房,,合同会社,沖縄県,国頭郡今帰仁村,字今泊４５６７番地,,47,306,9050428,,,,,,,2024-09-12,1,,,,,アミスコウボウ,0
2178,9380001034785,新規,0,2024-09-12,2024-09-12,株式会社ＵＮＩＶＥＲＳＡＬ．ＤＥＳＩＧＮ,,株式会社,福島県,郡山市,堤下町１０番３号ロイヤルローズビル２Ｆ,,07,203,9638878,,,,,,,2024-09-12,1,,,,,ユニバーサルデザイン,0
2179,9380001034793,新規,0,2024-09-12,2024-09-12,株式会社ＭＨＳ,,株式会社,福島県,須賀川市,あおば町１７８番地,,07,207,9620811,,,,,,,2024-09-12,1,,,,,エムエイチエス,0
2181,9390003002285,新規,0,2024-09-12,2024-09-12,合同会社ＢＥＲＩＥ,,合同会社,山形県,米沢市,春日３丁目２番３０－２号,,06,202,9920044,,,,,,,2024-09-12,1,,,,,ベリエ,0
2183,9400005008444,新規,0,2024-09-12,2024-09-12,一般社団法人Ｊａｐａｎ　Ｆｉｒｅｗｏｒｋｓ　Ｐｒｏｊｅｃｔ,,その他の設立登記法人,岩手県,陸前高田市,高田町字大隅９８番地３１,,03,210,0292205,,,,,,,2024-09-12,1,,,,,ジャパンファイヤーワークスプロジェクト,0
2186,9410001013934,新規,0,2024-09-12,2024-09-12,株式会社ヒデカンバン,,株式会社,秋田県,男鹿市,船越字八郎谷地３７番地１８１,,05,206,0100341,,,,,,,2024-09-12,1,,,,,ヒデカンバン,0
2188,9420001018866,新規,0,2024-09-12,2024-09-12,株式会社達磨,,株式会社,青森県,青森市,大字三内字丸山３８１番地８５,,02,201,0380031,,,,,,,2024-09-12,1,,,,,ダルマ,0
2193,9430001092646,新規,0,2024-09-12,2024-09-12,株式会社古室産業,,株式会社,北海道,石狩市,新港南１丁目１９番地６０,,01,235,0613244,,,,,,,2024-09-12,1,,,,,コムロサンギョウ,0
2194,9430001092670,新規,0,2024-09-12,2024-09-12,トゥ・リンク株式会社,,株式会社,北海道,札幌市中央区,南十八条西１４丁目１番２３号,,01,101,0640918,,,,,,,2024-09-12,1,,,,,トゥリンク,0
2199,9480005007034,新規,0,2024-09-12,2024-09-12,一般社団法人ＳＨＩＫＯＫＵ　Ｄｅｓｉｇｎ,,その他の設立登記法人,徳島県,板野郡北島町,鯛浜字中須４番地２,,36,402,7710204,,,,,,,2024-09-12,1,,,,,シコクデザイン,0
2200,9500001025870,新規,0,2024-09-12,2024-09-12,株式会社ＵＥＸグローバル,,株式会社,愛媛県,松山市,勝岡町２５３５番地１３,,38,201,7992661,,,,,,,2024-09-12,1,,,,,ユーイーエックスグローバル,0
2202,9500005008731,新規,0,2024-09-12,2024-09-12,一般社団法人愛媛県災害リハビリテーション支援協会,,その他の設立登記法人,愛媛県,松山市,湊町４丁目１番地７菊池ビル３階（公益社団法人愛媛県理学療法士会事務所内）,,38,201,7900012,,,,,,,2024-09-12,1,,,,,エヒメケンサイガイリハビリテーションシエンキョウカイ,0
2203,9700150126945,新規,0,2024-09-12,2024-09-02,Ｗｏｒｌｄ　ｉｎ　Ｐｅａｃｅ,,その他,大阪府,茨木市,井口台２０番７号,,27,211,5670076,,,,,,,2024-09-02,1,,,,,ワールドインピース,0
