sequenceNumber,corporateNumber,process,correct,updateDate,changeDate,name,nameImageId,kind,prefectureName,cityName,streetNumber,addressImageId,prefectureCode,cityCode,postCode,addressOutside,addressOutsideImageId,closeDate,closeCause,successorCorporateNumber,changeCause,assignmentDate,latest,enName,enPrefectureName,enCityName,enAddressOutside,furigana,hihyoji
10,1010001258412,新規,0,2025-09-11,2025-09-11,株式会社本気で考えた,,株式会社,東京都,千代田区,平河町２丁目１６番１５号Ｂ１Ｆすしおうみ内,,13,101,1020093,,,,,,,2025-09-11,1,,,,,ホンキデカンガエタ,0
11,1010001258437,新規,0,2025-09-11,2025-09-11,伸和ＨＤ株式会社,,株式会社,東京都,千代田区,九段南１丁目５番６号りそな九段ビル５Ｆ,,13,101,1020074,,,,,,,2025-09-11,1,,,,,シンワホールディングス,0
15,1010003048687,新規,0,2025-09-11,2025-09-11,ＫＡＭＵ合同会社,,合同会社,東京都,中央区,銀座１丁目２２番１１号銀座大竹ビジデンス２Ｆ,,13,102,1040061,,,,,,,2025-09-11,1,,,,,カム,0
22,1010401193036,新規,0,2025-09-11,2025-09-11,株式会社ＰＬＦ,,株式会社,東京都,港区,南青山２丁目２番１５－９４２号ウィン青山,,13,103,1070062,,,,,,,2025-09-11,1,,,,,ピーエルエフ,0
23,1010401193044,新規,0,2025-09-11,2025-09-11,株式会社ドライブ・アンド・カンパニー,,株式会社,東京都,港区,北青山１丁目３番１号アールキューブ青山３階,,13,103,1070061,,,,,,,2025-09-11,1,,,,,ドライブアンドカンパニー,0
39,1010703007901,新規,0,2025-09-11,2025-09-11,キーアウトプットコンサルティング合同会社,,合同会社,東京都,品川区,上大崎３丁目１番３０,,13,109,1410021,,,,,,,2025-09-11,1,,,,,キーアウトプットコンサルティング,0
42,1010803005540,新規,0,2025-09-11,2025-09-11,ゼロリペア合同会社,,合同会社,東京都,大田区,東六郷１丁目１３番３号スプリングパルＢＡＢＡ３０６,,13,111,1440046,,,,,,,2025-09-11,1,,,,,ゼロリペア,0
58,1011001171761,新規,0,2025-09-11,2025-09-11,株式会社スプリング,,株式会社,東京都,渋谷区,道玄坂２丁目１９番３号ライオンズマンション２０２,,13,113,1500043,,,,,,,2025-09-11,1,,,,,スプリング,0
61,1011003022459,新規,0,2025-09-11,2025-09-11,ネクストシステムズ合同会社,,合同会社,東京都,渋谷区,恵比寿西２丁目４番８号ウィンド恵比寿ビル８Ｆ,,13,113,1500021,,,,,,,2025-09-11,1,,,,,ネクストシステムズ,0
76,1011703004376,新規,0,2025-09-11,2025-09-11,ＫＭＴ合同会社,,合同会社,東京都,江戸川区,松島３丁目１５番１号,,13,123,1320031,,,,,,,2025-09-11,1,,,,,ケーエムティー,0
77,1011801046709,新規,0,2025-09-11,2025-09-11,株式会社関東窓建,,株式会社,東京都,足立区,平野２丁目７－２,,13,121,1210076,,,,,,,2025-09-11,1,,,,,カントウソウケン,0
80,1012403007314,新規,0,2025-09-11,2025-09-11,合同会社Ｃプレイス,,合同会社,東京都,狛江市,和泉本町１丁目３６番１‐１２１２号,,13,219,2010003,,,,,,,2025-09-11,1,,,,,シープレイス,0
86,1013301054919,新規,0,2025-09-11,2025-09-11,ＴｒＢａｓｅ株式会社,,株式会社,東京都,豊島区,東池袋２丁目６２番８－１２０６号,,13,116,1700013,,,,,,,2025-09-11,1,,,,,ティーアールベース,0
87,1013301054935,新規,0,2025-09-11,2025-09-11,株式会社ＷＨＩＴＥＢＯＸ,,株式会社,東京都,豊島区,北大塚２丁目２７－１０パラッツォ・ナーノ１階,,13,116,1700004,,,,,,,2025-09-11,1,,,,,ホワイトボックス,0
88,1013303007866,新規,0,2025-09-11,2025-09-11,誠和合同会社,,合同会社,東京都,豊島区,池袋本町１丁目２５－１４－４Ｃ池袋マンション,,13,116,1700011,,,,,,,2025-09-11,1,,,,,セイワ,0
89,1013303007874,新規,0,2025-09-11,2025-09-11,合同会社Ｔｅｃｔ　Ｆａｃｔｏｒｙ,,合同会社,東京都,豊島区,南大塚１丁目１８番２号作田ビル１０１,,13,116,1700005,,,,,,,2025-09-11,1,,,,,テクトファクトリー,0
90,1020001164840,新規,0,2025-09-11,2025-09-11,株式会社福六寿,,株式会社,神奈川県,横浜市栄区,鍛冶ケ谷１丁目７番２４号,,14,115,2470009,,,,,,,2025-09-11,1,,,,,フクロクジュ,0
94,1021001086075,新規,0,2025-09-11,2025-09-11,株式会社Ｂｏｒｎｆｒｅｅ,,株式会社,神奈川県,鎌倉市,台３丁目１－１０,,14,204,2470061,,,,,,,2025-09-11,1,,,,,ボンフリー,0
96,1021005013430,新規,0,2025-09-11,2025-09-11,特定非営利活動法人おだわら自然楽校,,その他の設立登記法人,神奈川県,小田原市,南鴨宮３丁目５番地１５号Ｓ．Ｓ．２００１４０５号室,,14,206,2500875,,,,,,,2025-09-11,1,,,,,オダワラシゼンガッコウ,0
105,1030001168601,新規,0,2025-09-11,2025-09-11,ＥＤＤＩＯホールディングス株式会社,,株式会社,埼玉県,戸田市,美女木東１丁目４番地１７,,11,224,3350032,,,,,,,2025-09-11,1,,,,,エディオホールディングス,0
112,1040001140542,新規,0,2025-09-11,2025-09-11,株式会社Ｓｏｃｉａｌ　Ｓｃｏｒｅ,,株式会社,千葉県,松戸市,小根本４９－５アーク松戸レジデンス８０５,,12,207,2710073,,,,,,,2025-09-11,1,,,,,ソーシャルスコア,0
113,1040003028447,新規,0,2025-09-11,2025-09-11,ストラーチ合同会社,,合同会社,千葉県,柏市,高柳１６６８番地５,,12,217,2770941,,,,,,,2025-09-11,1,,,,,ストラーチ,0
114,1040003028488,新規,0,2025-09-11,2025-09-11,合同会社ＬＥＥ,,合同会社,千葉県,船橋市,東中山１丁目２４番１９－１号,,12,204,2730036,,,,,,,2025-09-11,1,,,,,リー,0
115,1050001057182,新規,0,2025-09-11,2025-09-11,ＬＣ株式会社,,株式会社,茨城県,土浦市,中荒川沖町３－１朝日ビル１０１室,,08,203,3000875,,,,,,,2025-09-11,1,,,,,エルシー,0
116,1050001057232,新規,0,2025-09-11,2025-09-11,平井造園株式会社,,株式会社,茨城県,つくばみらい市,下島１０８番地,,08,235,3002324,,,,,,,2025-09-11,1,,,,,ヒライゾウエン,0
117,1050001057265,新規,0,2025-09-11,2025-09-11,株式会社ＡＩＲ　ＤＡＳＨ,,株式会社,茨城県,水戸市,桜川１丁目１番１号－１３０３,,08,201,3100801,,,,,,,2025-09-11,1,,,,,エイアイアールダッシュ,0
118,1050001057273,新規,0,2025-09-11,2025-09-11,株式会社ＦＡＷＡＤ　ＴＲＡＤＩＮＧ,,株式会社,茨城県,結城郡八千代町,大字磯７１３番地２,,08,521,3003562,,,,,,,2025-09-11,1,,,,,ファワードトレーディング,0
120,1050003009537,新規,0,2025-09-11,2025-09-11,ＹＬ合同会社,,合同会社,茨城県,古河市,新久田１７２番地６９,,08,204,3060044,,,,,,,2025-09-11,1,,,,,ワイエル,0
124,1070001043338,新規,0,2025-09-11,2025-09-11,株式会社達磨,,株式会社,群馬県,伊勢崎市,昭和町１６４５－１１エミエール２－４Ｊ,,10,204,3720014,,,,,,,2025-09-11,1,,,,,ダルマ,0
125,1080001027141,新規,0,2025-09-11,2025-09-11,株式会社ＦＯＣＵＳ,,株式会社,静岡県,焼津市,中新田５２７番地の１,,22,212,4250068,,,,,,,2025-09-11,1,,,,,フォーカス,0
131,1100003008376,新規,0,2025-09-11,2025-09-11,神城運送合資会社,,合資会社,長野県,北安曇郡白馬村,大字神城２２５５０番地,,20,485,3999211,,,,,,,2025-09-11,1,,,,,カミシロウンソウ,0
148,1120001279265,新規,0,2025-09-11,2025-09-11,株式会社Ｐｅａｒｌ　Ｔｅｃｈｎｏｌｏｇｙ,,株式会社,大阪府,大阪市北区,梅田１丁目２番２号大阪駅前第２ビル１２－１２,,27,127,5300001,,,,,,,2025-09-11,1,,,,,パールテクノロジー,0
149,1120001279488,新規,0,2025-09-11,2025-09-11,株式会社ＯＴ　Ｒｅａｌ　Ｅｓｔａｔｅ,,株式会社,大阪府,大阪市平野区,西脇１丁目５番５号,,27,126,5470035,,,,,,,2025-09-11,1,,,,,オーティーリアルエステート,0
150,1120001279546,新規,0,2025-09-11,2025-09-11,ＫＡＬＩＫＡ株式会社,,株式会社,大阪府,大阪市天王寺区,大道４丁目１０番４号,,27,109,5430052,,,,,,,2025-09-11,1,,,,,カリカ,0
153,1120003030519,新規,0,2025-09-11,2025-09-11,潤英合同会社,,合同会社,大阪府,大阪市阿倍野区,播磨町１丁目２３番１５－５０２号,,27,119,5450022,,,,,,,2025-09-11,1,,,,,ジュンエイ,0
157,1120101072339,新規,0,2025-09-11,2025-09-11,Ｌｅｓｓｔｉｍａｔｅ株式会社,,株式会社,大阪府,高石市,羽衣１丁目６番１‐４１０号,,27,225,5920002,,,,,,,2025-09-11,1,,,,,レスティメイト,0
159,1120103006682,新規,0,2025-09-11,2025-09-11,ＧＮ　ＴＲＡＤＩＮＧ合同会社,,合同会社,大阪府,和泉市,春木町８２７番地－１号室,,27,219,5941141,,,,,,,2025-09-11,1,,,,,ジーエヌトレーディング,0
160,1120103006699,新規,0,2025-09-11,2025-09-11,合同会社ハーモニーＰｌｕｓ,,合同会社,大阪府,堺市南区,岩室２０３番地２３,,27,145,5900112,,,,,,,2025-09-11,1,,,,,ハーモニープラス,0
163,1120903005850,新規,0,2025-09-11,2025-09-11,合同会社コンティニュートゥーユーズ,,合同会社,大阪府,豊能郡能勢町,山辺３８３番地,,27,322,5630372,,,,,,,2025-09-11,1,,,,,コンティニュートゥーユーズ,0
165,1130001080473,新規,0,2025-09-11,2025-09-11,株式会社ＭＩ・ＫＡ・ＴＡ,,株式会社,京都府,京都市北区,上賀茂舟着町１４番地の１,,26,101,6038025,,,,,,,2025-09-11,1,,,,,ミカタ,0
166,1130001080523,新規,0,2025-09-11,2025-09-11,株式会社Ｗｉｎｂｅ,,株式会社,京都府,京都市北区,小山東花池町２３－２,,26,101,6038144,,,,,,,2025-09-11,1,,,,,ウインビー,0
170,1140001139905,新規,0,2025-09-11,2025-09-11,株式会社神戸バイオサイエンス研究所,,株式会社,兵庫県,神戸市中央区,中央区港島南町一丁目６番４号有限会社ＤＳＲ内,,28,110,6500000,,,,,,,2025-09-11,1,,,,,コウベバイオサイエンスケンキュウショ,0
171,1140001139979,新規,0,2025-09-11,2025-09-11,株式会社岩口建設,,株式会社,兵庫県,神戸市西区,押部谷町押部４８７番地,,28,111,6512212,,,,,,,2025-09-11,1,,,,,イワグチケンセツ,0
172,1140001139987,新規,0,2025-09-11,2025-09-11,株式会社キイチ不動産販売,,株式会社,兵庫県,川西市,下加茂１丁目５番２２号,,28,217,6660022,,,,,,,2025-09-11,1,,,,,キイチフドウサンハンバイ,0
173,1140001140004,新規,0,2025-09-11,2025-09-11,南あわじ水産株式会社,,株式会社,兵庫県,南あわじ市,福良甲１５３０番地１２ピッシーズ１０５号,,28,224,6560501,,,,,,,2025-09-11,1,,,,,ミナミアワジスイサン,0
174,1140001140012,新規,0,2025-09-11,2025-09-11,株式会社Ｎｙｘ,,株式会社,兵庫県,尼崎市,次屋１丁目１２番１号,,28,202,6610965,,,,,,,2025-09-11,1,,,,,ニュクス,0
178,1140003022530,新規,0,2025-09-11,2025-09-11,合同会社西村農商,,合同会社,兵庫県,洲本市,五色町下堺１８８７番地１,,28,205,6561337,,,,,,,2025-09-11,1,,,,,ニシムラノウショウ,0
183,1160002007992,新規,0,2025-09-11,2025-09-11,川崎産業有限会社,,有限会社,滋賀県,彦根市,日夏町２９４９番地,,25,202,5220047,,,,,,,2025-09-11,1,,,,,カワサキサンギョウ,0
185,1160003003594,新規,0,2025-09-11,2025-09-11,合同会社ぷらすわん,,合同会社,滋賀県,草津市,木川町８２８－５,,25,206,5250051,,,,,,,2025-09-11,1,,,,,プラスワン,0
188,1180001168636,新規,0,2025-09-11,2025-09-11,株式会社Ｓ　ｌｉｎｅ,,株式会社,愛知県,名古屋市中区,錦３丁目１３番１５号,,23,106,4600003,,,,,,,2025-09-11,1,,,,,エスライン,0
190,1180301040206,新規,0,2025-09-11,2025-09-11,株式会社ｓｏｇｏｏｄ　ｓｔａｎｄａｒｄ,,株式会社,愛知県,豊橋市,西羽田町２０２番地,,23,201,4418081,,,,,,,2025-09-11,1,,,,,ソーグッドスタンダード,0
194,1190001032527,新規,0,2025-09-11,2025-09-11,株式会社ルナパイピング,,株式会社,三重県,四日市市,桜新町１丁目１７番地,,24,202,5121215,,,,,,,2025-09-11,1,,,,,ルナパイピング,0
201,1220001026921,新規,0,2025-09-11,2025-09-11,株式会社天地天命堂,,株式会社,石川県,金沢市,高畠２丁目６番地高畠ロイヤルレジデンス１Ｆ,,17,201,9218001,,,,,,,2025-09-11,1,,,,,テンチテンメイドウ,0
204,1240001065496,新規,0,2025-09-11,2025-09-11,株式会社ジェイアップ広島,,株式会社,広島県,広島市西区,中広町２丁目１２番７号,,34,104,7330012,,,,,,,2025-09-11,1,,,,,ジェイアップヒロシマ,0
205,1250001021325,新規,0,2025-09-11,2025-09-11,うべアクアフロント株式会社,,株式会社,山口県,宇部市,西宇部南３丁目３番３４－９号,,35,202,7590208,,,,,,,2025-09-11,1,,,,,ウベアクアフロント,0
212,1290801031858,新規,0,2025-09-11,2025-09-11,株式会社ＫＥＲ,,株式会社,福岡県,北九州市小倉北区,江南町８―１ギャラン江南１２１０,,40,106,8020083,,,,,,,2025-09-11,1,,,,,ケーイーアール,0
214,1310001019783,新規,0,2025-09-11,2025-09-11,株式会社トリコグループ,,株式会社,長崎県,壱岐市,郷ノ浦町渡良西触１２０５番地,,42,210,8115153,,,,,,,2025-09-11,1,,,,,トリコグループ,0
217,1310003005088,新規,0,2025-09-11,2025-09-11,合同会社９９Ｓｔａｙ,,合同会社,長崎県,佐世保市,京坪町５番１０－１７０５号,,42,202,8570874,,,,,,,2025-09-11,1,,,,,ナインティナインステイ,0
221,1340001027643,新規,0,2025-09-11,2025-09-11,ＳＥＲＥＮＯ株式会社,,株式会社,鹿児島県,鹿児島市,南林寺町１番１２号和田ビル２Ｆ,,46,201,8920834,,,,,,,2025-09-11,1,,,,,セレノ,0
222,1340001027651,新規,0,2025-09-11,2025-09-11,Ｋ‐Ｂｅａｕｔｙ　Ｊａｐａｎ株式会社,,株式会社,鹿児島県,伊佐市,大口里１９０８番地１,,46,224,8952511,,,,,,,2025-09-11,1,,,,,ケービューティージャパン,0
227,1350005006329,新規,0,2025-09-11,2025-09-11,医療法人神宮川畑整形外科・内科クリニック,,その他の設立登記法人,宮崎県,宮崎市,丸山２丁目９５番地１,,45,201,8800052,,,,,,,2025-09-11,1,,,,,ジングウカワバタセイケイゲカナイカクリニック,0
229,1370001053042,新規,0,2025-09-11,2025-09-11,株式会社ＯＫ商会,,株式会社,宮城県,名取市,下増田字南原４５２番地,,04,207,9811201,,,,,,,2025-09-11,1,,,,,オーケーショウカイ,0
246,1430003018061,新規,0,2025-09-11,2025-09-11,合同会社ライテック,,合同会社,北海道,北広島市,大曲８２４－２４,,01,234,0611270,,,,,,,2025-09-11,1,,,,,ライテック,0
248,1462501001041,新規,0,2025-09-11,2025-09-11,株式会社金子ホールディングス,,株式会社,北海道,野付郡別海町,別海宮舞町２４０番地,,01,691,0860201,,,,,,,2025-09-11,1,,,,,カネコホールディングス,0
250,1470001020890,新規,0,2025-09-11,2025-09-11,バリュー・リンクス株式会社,,株式会社,香川県,高松市,高松町３５８－１,,37,201,7610104,,,,,,,2025-09-11,1,,,,,,0
252,1480001012945,新規,0,2025-09-11,2025-09-11,株式会社ＯＰＥＮ　ＢＡＳＥ,,株式会社,徳島県,板野郡松茂町,笹木野字八北開拓２４１番地１,,36,401,7710219,,,,,,,2025-09-11,1,,,,,オープンベース,0
253,1490001011161,新規,0,2025-09-11,2025-09-11,月ノ星火株式会社,,株式会社,高知県,高知市,神田９５５番地１８,,39,201,7808040,,,,,,,2025-09-11,1,,,,,ツキノホシビ,0
256,1500001026513,新規,0,2025-09-11,2025-09-11,ＰＩＸＥＬ　ＢＯＸ株式会社,,株式会社,愛媛県,松山市,大街道３丁目１番４号,,38,201,7900004,,,,,,,2025-09-11,1,,,,,ピクセルボックス,0
261,1700150132158,新規,0,2025-09-11,2025-09-11,Ｇｕａｎｇ　Ｚｈｏｕ　Ａｏ　Ｊｉｅ　Ｋｅ　Ｊｉ　Ｙｏｕ　Ｘｉａｎ　Ｇｏｎｇ　Ｓｉ,,外国会社等,,,,,,,,Ｒｏｏｍ　９０１，Ｂｕｉｌｄｉｎｇ　１，Ｎｏ．３０　Ｓｏｕｔｈ　Ｍｉｎｇｚｈｕ　Ａｖｅｎｕｅ，Ｍｉｎｇｚｈｕ　Ｉｎｄｕｓｔｒｉａｌ　Ｐａｒｋ，Ｃｏｎｇｈｕａ　Ｄｉｓｔｒｉｃｔ，Ｇｕａｎｇｚｈｏｕ，Ｃｈｉｎａ,,,,,,2025-09-11,1,,,,,グゥアンゾウアオジエカギユウゲンコウシ,0
274,2010003048686,新規,0,2025-09-11,2025-09-11,イークラウドＮＥＸＴＧＰ１号合同会社,,合同会社,東京都,中央区,京橋２丁目２番１号京橋エドグランサウス４階トラスティルグループ内,,13,102,1040031,,,,,,,2025-09-11,1,,,,,イークラウドネクストジーピーイチゴウ,0
275,2010003048711,新規,0,2025-09-11,2025-09-11,合同会社ムーンライト,,合同会社,東京都,文京区,小石川１丁目５番１号,,13,105,1120002,,,,,,,2025-09-11,1,,,,,ムーンライト,0
277,2010005040658,新規,0,2025-09-11,2025-09-11,一般社団法人日本フィンランドサウナ文化交流協会,,その他の設立登記法人,東京都,中央区,京橋１丁目６－１３金葉ビル７Ｆ,,13,102,1040031,,,,,,,2025-09-11,1,,,,,ニホンフィンランドサウナブンカコウリュウキョウカイ,0
287,2010401193043,新規,0,2025-09-11,2025-09-11,ＷｅｌｌＣｒａｆｔ株式会社,,株式会社,東京都,港区,南青山３丁目１番３６号青山丸竹ビル６Ｆ,,13,103,1070062,,,,,,,2025-09-11,1,,,,,ウェルクラフト,0
289,2010403036010,新規,0,2025-09-11,2025-09-11,合同会社Ｒｅ．Ｎｅｘｔ,,合同会社,東京都,港区,南麻布２丁目６番２２－８０３号,,13,103,1060047,,,,,,,2025-09-11,1,,,,,リネクスト,0
291,2010501054657,新規,0,2025-09-11,2025-09-11,株式会社Ｒ．Ｓ．Ｋ,,株式会社,東京都,台東区,浅草５丁目１９番８号Ａｖａｎｔｉ浅草５０１,,13,106,1110032,,,,,,,2025-09-11,1,,,,,,0
292,2010501054698,新規,0,2025-09-11,2025-09-11,Ｗｏｏｄｙ　Ｂｅｌｌ株式会社,,株式会社,東京都,台東区,東上野１丁目１番８号竹内ビル２階,,13,106,1100015,,,,,,,2025-09-11,1,,,,,ウッディーベル,0
293,2010501054707,新規,0,2025-09-11,2025-09-11,株式会社共創,,株式会社,東京都,台東区,西浅草２丁目１６－７,,13,106,1110035,,,,,,,2025-09-11,1,,,,,キョウソウ,0
295,2010503007992,新規,0,2025-09-11,2025-09-11,アグリブリッジ合同会社,,合同会社,東京都,台東区,浅草橋２丁目６番地６,,13,106,1110053,,,,,,,2025-09-11,1,,,,,,0
297,2010601067930,新規,0,2025-09-11,2025-09-11,ＩＳＯＢＥ　ＧＲＯＵＰ　ＨＯＬＤＩＮＧＳ株式会社,,株式会社,東京都,江東区,亀戸２丁目２６番１０号,,13,108,1360071,,,,,,,2025-09-11,1,,,,,イソベグループホールディングス,0
298,2010601067955,新規,0,2025-09-11,2025-09-11,株式会社ＴＲＵＳＴＥＬ,,株式会社,東京都,江東区,越中島３丁目１番７号,,13,108,1350044,,,,,,,2025-09-11,1,,,,,トラステル,0
299,2010703007900,新規,0,2025-09-11,2025-09-11,合同会社Ｇｌｉｔｚｏ,,合同会社,東京都,品川区,旗の台４丁目８番６号,,13,109,1420064,,,,,,,2025-09-11,1,,,,,グリッツォ,0
302,2010801036586,新規,0,2025-09-11,2025-09-11,株式会社ＹＡＨＡＴＡインベストメント,,株式会社,東京都,大田区,大森北１丁目２３番１号ＮＥＴビルディング１Ｆ,,13,111,1430016,,,,,,,2025-09-11,1,,,,,,0
303,2010801036594,新規,0,2025-09-11,2025-09-11,株式会社Ｓｅｌｅｃｔ,,株式会社,東京都,大田区,南久が原２丁目１１番８号モデラートＫ３Ｆ,,13,111,1460084,,,,,,,2025-09-11,1,,,,,セレクト,0
306,2010903010258,新規,0,2025-09-11,2025-09-11,合同会社Ｙ＆ＳＳ,,合同会社,東京都,世田谷区,成城４丁目３３番１―４０９号,,13,112,1570066,,,,,,,2025-09-11,1,,,,,ワイアンドエスエス,0
313,2011001171934,新規,0,2025-09-11,2025-09-11,株式会社ｋｉｎｔｓｕｂａ,,株式会社,東京都,渋谷区,本町１丁目９番１０号Ｒ．Ｈ．Ｈｏｕｓｅ１０２,,13,113,1510071,,,,,,,2025-09-11,1,,,,,キンツバ,0
323,2011203004818,新規,0,2025-09-11,2025-09-11,合同会社葵禅,,合同会社,東京都,中野区,東中野４丁目１５番２号,,13,114,1640003,,,,,,,2025-09-11,1,,,,,キゼン,0
327,2011501032545,新規,0,2025-09-11,2025-09-11,ｉｎｋｔｒａｃｅ株式会社,,株式会社,東京都,荒川区,町屋３丁目２７番１２号大一ビル３階,,13,118,1160001,,,,,,,2025-09-11,1,,,,,インクトレース,0
329,2011601028971,新規,0,2025-09-11,2025-09-11,株式会社フォンテリビング,,株式会社,東京都,練馬区,春日町６丁目１３－１１,,13,120,1790074,,,,,,,2025-09-11,1,,,,,フォンテリビング,0
331,2011703004375,新規,0,2025-09-11,2025-09-11,ＪＡＰＡＮ　ＬＩＭＩＤＲＥ合同会社,,合同会社,東京都,江戸川区,西一之江３丁目１５番１０号,,13,123,1320023,,,,,,,2025-09-11,1,,,,,ジャパンリミドレ,0
334,2012401043566,新規,0,2025-09-11,2025-09-11,株式会社ウィルトゥス,,株式会社,東京都,武蔵野市,中町１丁目２１－８,,13,203,1800006,,,,,,,2025-09-11,1,,,,,ウィルトゥス,0
337,2012701019068,新規,0,2025-09-11,2025-09-11,株式会社玉城工業,,株式会社,東京都,東村山市,青葉町２丁目１７番地６９,,13,213,1890002,,,,,,,2025-09-11,1,,,,,タマキコウギョウ,0
339,2012805003364,新規,0,2025-09-11,2025-09-11,医療法人社団ＨＢＴ,,その他の設立登記法人,東京都,昭島市,玉川町４丁目１２番２２号菊華ビル１階,,13,207,1960034,,,,,,,2025-09-11,1,,,,,エイチビーティー,0
343,2013301054934,新規,0,2025-09-11,2025-09-11,株式会社ＮＧＹ,,株式会社,東京都,豊島区,上池袋１丁目９番５号光建ハイムブリリアンス上池袋４０３号室,,13,116,1700012,,,,,,,2025-09-11,1,,,,,エヌジーワイ,0
344,2013305003763,新規,0,2025-09-11,2025-09-11,医療法人社団Ｗｅｌｌｎｅｓｓ,,その他の設立登記法人,東京都,豊島区,目白３丁目４番１３号大熊ビル２階,,13,116,1710031,,,,,,,2025-09-11,1,,,,,ウェルネス,0
347,2020001164716,新規,0,2025-09-11,2025-09-11,Ａｉｒｉｓ　Ｃｏｍｐａｎｙ株式会社,,株式会社,神奈川県,横浜市都筑区,荏田南３丁目１２番２６号,,14,118,2240007,,,,,,,2025-09-11,1,,,,,エアリスカンパニー,0
348,2020001164773,新規,0,2025-09-11,2025-09-11,株式会社Ｈａｌｅｌｕａ,,株式会社,神奈川県,川崎市中原区,木月３丁目５番５号,,14,133,2110025,,,,,,,2025-09-11,1,,,,,ハレルア,0
350,2020003029322,新規,0,2025-09-11,2025-09-11,合同会社宝物,,合同会社,神奈川県,横浜市戸塚区,吉田町１４２９番地３,,14,110,2440817,,,,,,,2025-09-11,1,,,,,タカラモノ,0
355,2021001086272,新規,0,2025-09-11,2025-09-11,株式会社ズグ,,株式会社,神奈川県,大和市,中央林間５丁目６番４－２０３号,,14,213,2420007,,,,,,,2025-09-11,1,,,,,ズグ,0
356,2021003016525,新規,0,2025-09-11,2025-09-11,合同会社Ｅｔｈｉｃｓ,,合同会社,神奈川県,藤沢市,鵠沼橘１丁目１５番１号入澤ビル２階,,14,205,2510024,,,,,,,2025-09-11,1,,,,,エシックス,0
361,2030001168617,新規,0,2025-09-11,2025-09-11,株式会社ＣＨＡＲＭＹ　ＬＡＢ,,株式会社,埼玉県,北足立郡伊奈町,大字大針４９８番地,,11,301,3620803,,,,,,,2025-09-11,1,,,,,チャーミーラブ,0
365,2030003027564,新規,0,2025-09-11,2025-09-11,さいたまベース合同会社,,合同会社,埼玉県,川口市,中青木１丁目３番１７号,,11,203,3320032,,,,,,,2025-09-11,1,,,,,サイタマベース,0
366,2030003027597,新規,0,2025-09-11,2025-09-11,合同会社４ＳＨＩＰＳ,,合同会社,埼玉県,東松山市,大字西本宿３２９－１７第二コーポ司１Ｆ店舗２Ｆ事務所,,11,212,3550062,,,,,,,2025-09-11,1,,,,,フォーシップス,0
371,2040001140401,新規,0,2025-09-11,2025-09-11,株式会社ワタベ事務所,,株式会社,千葉県,市原市,ちはら台東６丁目１番地７０,,12,219,2900141,,,,,,,2025-09-11,1,,,,,ワタベジムショ,0
375,2040003028446,新規,0,2025-09-11,2025-09-11,合同会社ヴェリタスコンサルティング,,合同会社,千葉県,柏市,高柳１６６８番地５,,12,217,2770941,,,,,,,2025-09-11,1,,,,,ヴェリタスコンサルティング,0
376,2040003028454,新規,0,2025-09-11,2025-09-11,合同会社天馬,,合同会社,千葉県,柏市,柏の葉３丁目５番地２４,,12,217,2770882,,,,,,,2025-09-11,1,,,,,テンマ,0
377,2040003028545,新規,0,2025-09-11,2025-09-11,合同会社ＯＺＡＷＡ,,合同会社,千葉県,袖ケ浦市,横田１１７１－１,,12,229,2990236,,,,,,,2025-09-11,1,,,,,オザワ,0
379,2050001057264,新規,0,2025-09-11,2025-09-11,株式会社ＴＵＫＵＲＵ,,株式会社,茨城県,小美玉市,堅倉１６４０－１,,08,236,3190106,,,,,,,2025-09-11,1,,,,,ツクル,0
380,2050001057272,新規,0,2025-09-11,2025-09-11,株式会社ネクストレード,,株式会社,茨城県,古河市,葛生２８２番３,,08,204,3060211,,,,,,,2025-09-11,1,,,,,ネクストレード,0
383,2070001043329,新規,0,2025-09-11,2025-09-11,前橋ＰＬＣ設計株式会社,,株式会社,群馬県,前橋市,本町２丁目１７番７号,,10,201,3710023,,,,,,,2025-09-11,1,,,,,マエバシピーエルシーセッケイ,0
384,2070001043345,新規,0,2025-09-11,2025-09-11,株式会社Ｍ,,株式会社,群馬県,高崎市,岩押町２番９号－７,,10,202,3700044,,,,,,,2025-09-11,1,,,,,エム,0
385,2080001027140,新規,0,2025-09-11,2025-09-11,株式会社サンコー静岡,,株式会社,静岡県,静岡市駿河区,中島３９１番地,,22,102,4228046,,,,,,,2025-09-11,1,,,,,サンコーシズオカ,0
387,2080003003552,新規,0,2025-09-11,2025-09-11,合同会社ＲＴ,,合同会社,静岡県,静岡市葵区,七間町５番地の１チサンマンション七間町,,22,101,4200035,,,,,,,2025-09-11,1,,,,,アールティー,0
388,2080105006536,新規,0,2025-09-11,2025-09-11,特定非営利活動法人コミナスしずおか,,その他の設立登記法人,静岡県,沼津市,我入道稲荷町４００の１,,22,203,4100823,,,,,,,2025-09-11,1,,,,,コミナスシズオカ,0
390,2100001038944,新規,0,2025-09-11,2025-09-11,株式会社オフィススギモト,,株式会社,長野県,北佐久郡軽井沢町,大字追分９５８番地２３,,20,321,3890115,,,,,,,2025-09-11,1,,,,,オフィススギモト,0
392,2110005017266,新規,0,2025-09-11,2025-09-11,一般社団法人中小企業経営支援協会,,その他の設立登記法人,新潟県,新潟市西区,新田５０番地１,,15,107,9502034,,,,,,,2025-09-11,1,,,,,チュウショウキギョウケイエイシエンキョウカイ,0
403,2120001279462,新規,0,2025-09-11,2025-09-11,＿陽国際日本株式会社,00140612,株式会社,大阪府,大阪市東成区,大今里３丁目１５番６号ＩｍａｚａｔｏＴｏｗｅｒ３０９Ｃ,,27,115,5370012,,,,,,,2025-09-11,1,,,,,イヨウコクサイ,0
404,2120001279603,新規,0,2025-09-11,2025-09-11,株式会社星あかりサポート,,株式会社,大阪府,守口市,長池町２番１５号,,27,209,5700064,,,,,,,2025-09-11,1,,,,,ホシアカリサポート,0
406,2120003030468,新規,0,2025-09-11,2025-09-11,ＪｏＪｏ　ｓｎｏｗ合同会社,,合同会社,大阪府,大阪市住之江区,浜口東２丁目９番１７号,,27,125,5590002,,,,,,,2025-09-11,1,,,,,ジョジョスノー,0
407,2120003030501,新規,0,2025-09-11,2025-09-11,Ｗｅａｖｅ　Ｗｏｒｄｓ　Ｊａｐａｎ合同会社,,合同会社,大阪府,大阪市北区,梅田１丁目２番２号大阪駅前第２ビル１２－１２,,27,127,5300001,,,,,,,2025-09-11,1,,,,,ウィーブワーズジャパン,0
408,2120003030550,新規,0,2025-09-11,2025-09-11,千尋の城合同会社,,合同会社,大阪府,大阪市東住吉区,照ケ丘矢田２丁目６番７－２０５号,,27,121,5460021,,,,,,,2025-09-11,1,,,,,チヒロノシロ,0
409,2120003030641,新規,0,2025-09-11,2025-09-11,合同会社ピクノル,,合同会社,大阪府,大阪市北区,梅田１丁目２番２号大阪駅前第２ビル１２階１２‐１２,,27,127,5300001,,,,,,,2025-09-11,1,,,,,ピクノル,0
417,2122001039656,新規,0,2025-09-11,2025-09-11,株式会社ＡＫＹ,,株式会社,大阪府,東大阪市,善根寺町１丁目７番２９号,,27,227,5798001,,,,,,,2025-09-11,1,,,,,エーケーワイ,0
421,2130001080506,新規,0,2025-09-11,2025-09-11,株式会社ヤマリ,,株式会社,京都府,京都市南区,上鳥羽城ケ前町２９１番地,,26,107,6018137,,,,,,,2025-09-11,1,,,,,ヤマリ,0
422,2130001080539,新規,0,2025-09-11,2025-09-11,株式会社レパード,,株式会社,京都府,京都市下京区,小稲荷町８５－２Ｇｒａｎｄ－Ｋ京都駅前ビル２０１,,26,106,6008208,,,,,,,2025-09-11,1,,,,,レパード,0
423,2130003010758,新規,0,2025-09-11,2025-09-11,合同会社Ｉ’ｓ,,合同会社,京都府,京都市中京区,河原町通三条下る２丁目山崎町２４５－２ホワイトビル１Ｆ,,26,104,6048032,,,,,,,2025-09-11,1,,,,,アイズ,0
428,2140001139978,新規,0,2025-09-11,2025-09-11,株式会社Ｍｉｇｎｏｎ　Ｓ,,株式会社,兵庫県,西宮市,高松町４番８号プレラにしのみや１０６－３,,28,204,6638204,,,,,,,2025-09-11,1,,,,,ミニョンエス,0
429,2140001139986,新規,0,2025-09-11,2025-09-11,株式会社アイ,,株式会社,兵庫県,芦屋市,浜芦屋町１０番１５号,00140624,28,206,6590054,,,,,,,2025-09-11,1,,,,,アイ,0
430,2140001139994,新規,0,2025-09-11,2025-09-11,ＭＨムライ株式会社,,株式会社,兵庫県,三木市,別所町下石野１４７６番地の１,,28,215,6730453,,,,,,,2025-09-11,1,,,,,エムエイチムライ,0
431,2140001140011,新規,0,2025-09-11,2025-09-11,株式会社ＶＥＲＩＰＡＴＨ,,株式会社,兵庫県,神戸市中央区,山本通２丁目１３－１５ＷＡＬＬＳＱＵＡＲＥ北野坂,,28,110,6500003,,,,,,,2025-09-11,1,,,,,ベリパス,0
432,2140003022570,新規,0,2025-09-11,2025-09-11,Ｍ’ｓ　Ｒｅｓｏｒｔ合同会社,,合同会社,兵庫県,芦屋市,呉川町１７番１９－１０７号,,28,206,6590051,,,,,,,2025-09-11,1,,,,,エムズリゾート,0
442,2180001168593,新規,0,2025-09-11,2025-09-11,壱兆株式会社,,株式会社,愛知県,名古屋市中区,丸の内１丁目１４番７号本丸ビル３１８号室,,23,106,4600002,,,,,,,2025-09-11,1,,,,,イッチョウ,0
444,2180003029001,新規,0,2025-09-11,2025-09-11,オアシス合同会社,,合同会社,愛知県,名古屋市中村区,大秋町３丁目２４番１,,23,105,4530042,,,,,,,2025-09-11,1,,,,,オアシス,0
445,2180005021212,新規,0,2025-09-11,2025-09-11,一般社団法人名古屋ホライズンチャペル,,その他の設立登記法人,愛知県,尾張旭市,井田町１丁目７８番地,,23,226,4880024,,,,,,,2025-09-11,1,,,,,ナゴヤホライズンチャペル,0
458,2200001044214,新規,0,2025-09-11,2025-09-11,株式会社ネコット・パートナーズ,,株式会社,岐阜県,本巣市,上真桑２２５８番地１８１,,21,218,5010461,,,,,,,2025-09-11,1,,,,,ネコットパートナーズ,0
459,2200001044230,新規,0,2025-09-11,2025-09-11,株式会社直広,,株式会社,岐阜県,可児市,瀬田２１１８番地,,21,214,5090213,,,,,,,2025-09-11,1,,,,,ナオヒロ,0
461,2200003007020,新規,0,2025-09-11,2025-09-11,合同会社ＩＫＵＥ‐ＴＯ,,合同会社,岐阜県,羽島市,堀津町３９４番地,,21,209,5016330,,,,,,,2025-09-11,1,,,,,イクエト,0
470,2240001065495,新規,0,2025-09-11,2025-09-11,株式会社ＳＨＲ,,株式会社,広島県,広島市中区,舟入南４丁目１４－１５中東ビル３階,,34,101,7300847,,,,,,,2025-09-11,1,,,,,エスエイチアール,0
481,2290005019831,新規,0,2025-09-11,2025-09-11,一般社団法人ＫＡＮＮＯ’Ａ　ｃｌｉｎｉｃ福岡博多院,,その他の設立登記法人,福岡県,福岡市博多区,博多駅前３丁目１８番６号博多テラスビル５階,,40,132,8120011,,,,,,,2025-09-11,1,,,,,カノアクリニックフクオカハカタイン,0
482,2290801031849,新規,0,2025-09-11,2025-09-11,株式会社Ｌｕｖｉａ,,株式会社,福岡県,北九州市小倉北区,馬借１丁目６番１５－１７０１号,,40,106,8020077,,,,,,,2025-09-11,1,,,,,ルヴィア,0
484,2300001014347,新規,0,2025-09-11,2025-09-11,株式会社住まいとお金のクリニック,,株式会社,佐賀県,佐賀市,高木瀬町大字東高木２５１番地６コンフォートＭ１０３,,41,201,8490916,,,,,,,2025-09-11,1,,,,,スマイトオカネノクリニック,0
486,2310003005087,新規,0,2025-09-11,2025-09-11,四季三食合同会社,,合同会社,長崎県,長崎市,滑石３丁目１番１２号,,42,201,8528061,,,,,,,2025-09-11,1,,,,,シキサンショク,0
489,2330001033583,新規,0,2025-09-11,2025-09-11,堤化学ホールディングス株式会社,,株式会社,熊本県,熊本市北区,大窪２丁目８番６号,,43,105,8600083,,,,,,,2025-09-11,1,,,,,ツツミカガクホールディングス,0
492,2340001027650,新規,0,2025-09-11,2025-09-11,株式会社Ｒｉｒｅ,,株式会社,鹿児島県,出水市,向江町１５番３５号,,46,208,8990206,,,,,,,2025-09-11,1,,,,,リル,0
494,2360001035750,新規,0,2025-09-11,2025-09-11,ナンクルアセット株式会社,,株式会社,沖縄県,名護市,大中４丁目７番２号,,47,209,9050017,,,,,,,2025-09-11,1,,,,,ナンクルアセット,0
495,2360001035767,新規,0,2025-09-11,2025-09-11,沖縄皆生平衡会株式会社,,株式会社,沖縄県,うるま市,字前原２２８番地１,,47,213,9042235,,,,,,,2025-09-11,1,,,,,オキナワカイセイヘイコウカイ,0
498,2380003006129,新規,0,2025-09-11,2025-09-11,合同会社ＳＧスタジオ,,合同会社,福島県,郡山市,東原１丁目１８９番地の３,,07,203,9630552,,,,,,,2025-09-11,1,,,,,エスジースタジオ,0
504,2420003003179,新規,0,2025-09-11,2025-09-11,合同会社ｏｃｅａｎＴＵＧＡＬ,,合同会社,青森県,南津軽郡田舎館村,大字畑中字上野７７番地４,,02,367,0381121,,,,,,,2025-09-11,1,,,,,オーシャンツガル,0
505,2430001095143,新規,0,2025-09-11,2025-09-11,株式会社ＣｏｒＮｅｓｔ,,株式会社,北海道,札幌市白石区,東札幌一条２丁目２番２３－６０６号,,01,104,0030001,,,,,,,2025-09-11,1,,,,,コアネスト,0
506,2430001095151,新規,0,2025-09-11,2025-09-11,株式会社西企画,,株式会社,北海道,石狩市,花川南十条３丁目１３番地,,01,235,0613210,,,,,,,2025-09-11,1,,,,,ニシキカク,0
507,2430001095250,新規,0,2025-09-11,2025-09-11,株式会社セキュアース,,株式会社,北海道,札幌市中央区,南十八条西１２丁目４番３５号エステラ弐番館２０２,,01,101,0640918,,,,,,,2025-09-11,1,,,,,セキュアース,0
509,2480001012944,新規,0,2025-09-11,2025-09-11,株式会社ＯＳＡＫＡＮＡ　Ｌａｂ,,株式会社,徳島県,鳴門市,北灘町宿毛谷字相ケ谷２３番地,,36,202,7710374,,,,,,,2025-09-11,1,,,,,オサカナラボ,0
511,2700150132157,新規,0,2025-09-11,2025-09-11,ｘｉａｍｅｎｈａｉｄａｍａｉｘｉｎｘｉｋｅｊｉｙｏｕｘｉａｎｇｏｎｇｓｉ,,外国会社等,,,,,,,,ｆｕｊｉａｎｓｈｅｎｇｘｉａｍｅｎｓｈｉｈａｉｃａｎｇｑｕｂｉｎｈｕｙｉｌｉ３２ｈａｏ１６０５ｓｈｉ,,,,,,2025-09-11,1,,,,,シャーメンハイダーマイシンシーコージーヨウシエンゴンスー,0
512,2700150132165,新規,0,2025-09-11,2025-09-11,糸島市池田東土地区画整理組合,,その他,福岡県,糸島市,波多江駅北４丁目５－６－２Ｆ,,40,230,8191107,,,,,,,2025-09-11,1,,,,,イトシマシイケダヒガシトチクカクセイリクミアイ,0
521,3010001258427,新規,0,2025-09-11,2025-09-11,株式会社サンセール,,株式会社,東京都,千代田区,神田錦町２丁目９番地９西野ビル４Ｆ,,13,101,1010054,,,,,,,2025-09-11,1,,,,,サンセール,0
522,3010001258435,新規,0,2025-09-11,2025-09-11,株式会社日華ハウス,,株式会社,東京都,千代田区,麹町２丁目４－１０－３Ｆ,,13,101,1020083,,,,,,,2025-09-11,1,,,,,ニッカハウス,0
523,3010001258443,新規,0,2025-09-11,2025-09-11,株式会社１２５ｇｉｎｚａ,,株式会社,東京都,中央区,銀座８丁目４番２６号横須賀第６ビル２階Ｂ室,,13,102,1040061,,,,,,,2025-09-11,1,,,,,イチニーゴギンザ,0
528,3010003048702,新規,0,2025-09-11,2025-09-11,合同会社Ａｍｙｕ,,合同会社,東京都,中央区,勝どき４丁目６番１－２０３０号,,13,102,1040054,,,,,,,2025-09-11,1,,,,,アミュ,0
530,3010005040640,新規,0,2025-09-11,2025-09-11,一般社団法人ＡＭ　ａｌｐｈａ　Ｊａｐａｎ,,その他の設立登記法人,東京都,千代田区,霞が関３丁目２番５号,,13,101,1000013,,,,,,,2025-09-11,1,,,,,エーエムアルファジャパン,0
544,3010501054697,新規,0,2025-09-11,2025-09-11,ＴＯＢ株式会社,,株式会社,東京都,台東区,小島１丁目１－２蒔田ビル１階,,13,106,1110056,,,,,,,2025-09-11,1,,,,,ティーオービー,0
545,3010501054706,新規,0,2025-09-11,2025-09-11,株式会社ＣＲ,,株式会社,東京都,台東区,元浅草４丁目４番４－７０４号メインステージ元浅草,,13,106,1110041,,,,,,,2025-09-11,1,,,,,シーアール,0
546,3010501054714,新規,0,2025-09-11,2025-09-11,株式会社ドーンアカウンティング,,株式会社,東京都,台東区,小島２丁目２０－１１ＬＩＧビル,,13,106,1110056,,,,,,,2025-09-11,1,,,,,ドーンアカウンティング,0
550,3010601067962,新規,0,2025-09-11,2025-09-11,株式会社ｂｅｔａ‐ｒｅｄｕｃｔｉｏｎ,,株式会社,東京都,墨田区,亀沢１丁目１０番７－４０１号モナド両国,,13,107,1300014,,,,,,,2025-09-11,1,,,,,ベータリダクション,0
551,3010703007908,新規,0,2025-09-11,2025-09-11,ＳＥＮＳＡ合同会社,,合同会社,東京都,品川区,北品川４丁目７番６号７０１Ａ,,13,109,1400001,,,,,,,2025-09-11,1,,,,,センサ,0
552,3010801036585,新規,0,2025-09-11,2025-09-11,株式会社ＹＡＨＡＴＡフードセレクション,,株式会社,東京都,大田区,大森北１丁目２３番１号ＮＥＴビルディング１Ｆ,,13,111,1430016,,,,,,,2025-09-11,1,,,,,,0
553,3010803005530,新規,0,2025-09-11,2025-09-11,哈尼格尓合同会社,,合同会社,東京都,大田区,東海３丁目７番３号東海ビル４０８号,,13,111,1430001,,,,,,,2025-09-11,1,,,,,ハニグル,0
554,3010803005539,新規,0,2025-09-11,2025-09-11,ＳＨＲＥＥ合同会社,,合同会社,東京都,大田区,池上２丁目１７－８,,13,111,1460082,,,,,,,2025-09-11,1,,,,,シュリー,0
560,3011001171875,新規,0,2025-09-11,2025-09-11,株式会社Ｃ＆Ｃ,,株式会社,東京都,渋谷区,上原２丁目１番３ノーブル代々木上原９０３,,13,113,1510064,,,,,,,2025-09-11,1,,,,,シーアンドシー,0
561,3011001171883,新規,0,2025-09-11,2025-09-11,リード・ソリューションズ株式会社,,株式会社,東京都,渋谷区,渋谷２丁目１９番１９号ワコー宮益坂ビル５階,,13,113,1500002,,,,,,,2025-09-11,1,,,,,リードソリューションズ,0
574,3011601028970,新規,0,2025-09-11,2025-09-11,蘇曼飲食株式会社,,株式会社,東京都,練馬区,春日町６丁目１６番１１フォーチュン光が丘２８０号室,,13,120,1790074,,,,,,,2025-09-11,1,,,,,ソマンインショク,0
575,3011603004838,新規,0,2025-09-11,2025-09-11,ＢＩＨＡＮＩ合同会社,,合同会社,東京都,練馬区,関町北１丁目２３番７号,,13,120,1770051,,,,,,,2025-09-11,1,,,,,ビハニ,0
577,3011703004374,新規,0,2025-09-11,2025-09-11,ＣＵＪＩＴＥＣ合同会社,,合同会社,東京都,江戸川区,平井２丁目１４番７号１Ｆ,,13,123,1320035,,,,,,,2025-09-11,1,,,,,クジテック,0
586,3013301054925,新規,0,2025-09-11,2025-09-11,株式会社エディション,,株式会社,東京都,豊島区,西池袋１丁目４１番３号池袋東通ビル２階,,13,116,1710021,,,,,,,2025-09-11,1,,,,,エディション,0
587,3013303007848,新規,0,2025-09-11,2025-09-11,合同会社グレイス,,合同会社,東京都,豊島区,巣鴨１丁目１０－１－９０２号,,13,116,1700002,,,,,,,2025-09-11,1,,,,,グレイス,0
591,3020001164772,新規,0,2025-09-11,2025-09-11,株式会社ＧＲＯＣＡＬ横浜,,株式会社,神奈川県,横浜市西区,中央１丁目８番２号キャッスルビル３０１号,,14,103,2200051,,,,,,,2025-09-11,1,,,,,グローカルヨコハマ,0
595,3020005016978,新規,0,2025-09-11,2025-09-11,一般社団法人共生まちづくり会,,その他の設立登記法人,神奈川県,川崎市幸区,南加瀬５丁目８番１１－１号,,14,132,2120055,,,,,,,2025-09-11,1,,,,,キョウセイマチヅクリカイ,0
600,3021001086288,新規,0,2025-09-11,2025-09-11,株式会社Ｃｏｌｌａｒｓ,,株式会社,神奈川県,南足柄市,怒田５４３番地３,,14,217,2500106,,,,,,,2025-09-11,1,,,,,カラーズ,0
602,3021003016524,新規,0,2025-09-11,2025-09-11,サンデー・シティ合同会社,,合同会社,神奈川県,鎌倉市,佐助１丁目１１番１３号,,14,204,2480017,,,,,,,2025-09-11,1,,,,,サンデーシティ,0
607,3030001168566,新規,0,2025-09-11,2025-09-11,株式会社ＷＲ,,株式会社,埼玉県,さいたま市桜区,町谷３丁目２５番３５－２号,,11,106,3380836,,,,,,,2025-09-11,1,,,,,ダブルアール,0
608,3030001168582,新規,0,2025-09-11,2025-09-11,長川株式会社,,株式会社,埼玉県,川越市,稲荷町１７番地４エマーユ稲荷町１０７号室,,11,201,3501144,,,,,,,2025-09-11,1,,,,,ナガカワ,0
609,3030001168608,新規,0,2025-09-11,2025-09-11,株式会社アオテック,,株式会社,埼玉県,所沢市,大字山口９７９番地７,,11,208,3591145,,,,,,,2025-09-11,1,,,,,アオテック,0
610,3030001168616,新規,0,2025-09-11,2025-09-11,カロソスジャパンリサイクル株式会社,,株式会社,埼玉県,狭山市,新狭山２丁目１番地の１－４１１,,11,215,3501331,,,,,,,2025-09-11,1,,,,,カロソスジャパンリサイクル,0
613,3030003027555,新規,0,2025-09-11,2025-09-11,合同会社エーオーコンサルティング,,合同会社,埼玉県,川口市,芝中田２丁目６番１５号,,11,203,3330847,,,,,,,2025-09-11,1,,,,,エーオーコンサルティング,0
616,3040001140433,新規,0,2025-09-11,2025-09-11,ＯＳＵＭＩ株式会社,,株式会社,千葉県,千葉市中央区,星久喜町５６８番地２,,12,101,2600808,,,,,,,2025-09-11,1,,,,,オースミ,0
630,3080101025778,新規,0,2025-09-11,2025-09-11,株式会社庭雄工業,,株式会社,静岡県,富士市,中野７７０番地の２８,,22,210,4170809,,,,,,,2025-09-11,1,,,,,ニワユウコウギョウ,0
636,3100003008374,新規,0,2025-09-11,2025-09-11,合同会社オーワークス,,合同会社,長野県,北佐久郡御代田町,大字草越１１７３番地３３２,,20,323,3890202,,,,,,,2025-09-11,1,,,,,オーワークス,0
647,3120001279338,新規,0,2025-09-11,2025-09-11,株式会社ＮｏＮＤＬＥ,,株式会社,大阪府,大阪市西区,靱本町２丁目２－１２－６０１,,27,106,5500004,,,,,,,2025-09-11,1,,,,,ノンドル,0
648,3120001279370,新規,0,2025-09-11,2025-09-11,ＪＭ国際株式会社,,株式会社,大阪府,大阪市西成区,北津守２丁目５番５－８号,,27,122,5570061,,,,,,,2025-09-11,1,,,,,ジェーエムコクサイ,0
649,3120001279437,新規,0,2025-09-11,2025-09-11,桂興業株式会社,,株式会社,大阪府,大阪市浪速区,恵美須西２丁目１２番１９号３０７,,27,111,5560003,,,,,,,2025-09-11,1,,,,,カツラコウギョウ,0
650,3120001279478,新規,0,2025-09-11,2025-09-11,株式会社みろく,,株式会社,大阪府,守口市,大宮通２丁目１８番６号,,27,209,5700033,,,,,,,2025-09-11,1,,,,,ミロク,0
651,3120001279684,新規,0,2025-09-11,2025-09-11,株式会社ＰＩＫＡＦＩＳＨ,,株式会社,大阪府,大阪市阿倍野区,昭和町２丁目３‐６‐４０３号,,27,119,5450011,,,,,,,2025-09-11,1,,,,,ピカフィッシュ,0
656,3120101072378,新規,0,2025-09-11,2025-09-11,ＭＹ　Ｓｔａｇｅ株式会社,,株式会社,大阪府,堺市西区,草部５４６番地３０,,27,144,5938312,,,,,,,2025-09-11,1,,,,,マイステージ,0
659,3120901051481,新規,0,2025-09-11,2025-09-11,朝煕株式会社,,株式会社,大阪府,箕面市,粟生間谷西７丁目３９番１４号,,27,220,5620023,,,,,,,2025-09-11,1,,,,,チョウキ,0
668,3140001139969,新規,0,2025-09-11,2025-09-11,八品豊株式会社,,株式会社,兵庫県,神戸市中央区,旗塚通６丁目１番２号１階,,28,110,6510068,,,,,,,2025-09-11,1,,,,,ハッピンホウ,0
669,3140001139977,新規,0,2025-09-11,2025-09-11,リテック株式会社,,株式会社,兵庫県,尼崎市,築地５丁目３－４,,28,202,6600858,,,,,,,2025-09-11,1,,,,,リテック,0
670,3140001140002,新規,0,2025-09-11,2025-09-11,株式会社大安,,株式会社,兵庫県,神戸市兵庫区,芦原通６丁目１番２９号リブリ芦原通３０１,,28,105,6520882,,,,,,,2025-09-11,1,,,,,タイアン,0
682,3180001168551,新規,0,2025-09-11,2025-09-11,株式会社オプテック,,株式会社,愛知県,名古屋市中川区,馬手町１丁目１０１番地の１,,23,110,4540845,,,,,,,2025-09-11,1,,,,,オプテック,0
683,3180001168584,新規,0,2025-09-11,2025-09-11,ＡＩＬＥ株式会社,,株式会社,愛知県,名古屋市北区,楠３丁目２６７番地,,23,103,4620012,,,,,,,2025-09-11,1,,,,,エール,0
694,3190001032533,新規,0,2025-09-11,2025-09-11,ＪＡＰＡＮ・ＴＵＲＦ株式会社,,株式会社,三重県,津市,久居一色町１１９９番地７,,24,201,5141253,,,,,,,2025-09-11,1,,,,,ジャパンターフ,0
695,3190003005165,新規,0,2025-09-11,2025-09-11,ＳＨＩＮＲＡＩ　ＳＨＯＫＡＩ合同会社,,合同会社,三重県,桑名郡木曽岬町,大字富田子１９番地２,,24,303,4980813,,,,,,,2025-09-11,1,,,,,シンライショウカイ,0
705,3240001065494,新規,0,2025-09-11,2025-09-11,株式会社ＡＭＢコンサルティング,,株式会社,広島県,広島市西区,三滝本町１丁目２７番２－７０２号,,34,104,7330802,,,,,,,2025-09-11,1,,,,,アンブコンサルティング,0
707,3240003007395,新規,0,2025-09-11,2025-09-11,合同会社アセンドラ,,合同会社,広島県,東広島市,八本松町宗吉１１６９－１６,,34,212,7390145,,,,,,,2025-09-11,1,,,,,アセンドラ,0
708,3280001009506,新規,0,2025-09-11,2025-09-11,株式会社シバケンランド,,株式会社,島根県,益田市,三宅町１１番２４号,,32,204,6980006,,,,,,,2025-09-11,1,,,,,シバケンランド,0
710,3290001111302,新規,0,2025-09-11,2025-09-11,株式会社ナツモード,,株式会社,福岡県,福岡市南区,柳瀬１丁目１番１２－２０１号コットンハウス柳瀬,,40,134,8111321,,,,,,,2025-09-11,1,,,,,ナツモード,0
711,3290001111467,新規,0,2025-09-11,2025-09-11,ヌーベル玄海株式会社,,株式会社,福岡県,福岡市城南区,片江５丁目５０番２８号,,40,136,8140142,,,,,,,2025-09-11,1,,,,,ヌーベルゲンカイ,0
712,3290005019830,新規,0,2025-09-11,2025-09-11,一般社団法人陽翔会友愛クリニック福岡,,その他の設立登記法人,福岡県,福岡市中央区,大名２丁目６番５３号福岡大名ガーデンシティ４階,,40,133,8100041,,,,,,,2025-09-11,1,,,,,ヨウショウカイユウアイクリニックフクオカ,0
713,3290801031856,新規,0,2025-09-11,2025-09-11,株式会社ＮＡＫＡＤＡＩ,,株式会社,福岡県,北九州市小倉北区,片野新町２丁目１０番２０－６０６号,,40,106,8020062,,,,,,,2025-09-11,1,,,,,ナカダイ,0
716,3320001021332,新規,0,2025-09-11,2025-09-11,株式会社共信エアテック,,株式会社,大分県,大分市,大字荏隈１２７７番地の２ロマネスク大石町１０６,,44,201,8700889,,,,,,,2025-09-11,1,,,,,キョウシンエアテック,0
717,3320003004764,新規,0,2025-09-11,2025-09-11,合同会社ＴｉＴＯ　ＵＳＡ,,合同会社,大分県,宇佐市,大字四日市３０４８番地の２ハピネス宇佐Ａ号,,44,211,8790471,,,,,,,2025-09-11,1,,,,,ティトユーエスエー,0
718,3340001027641,新規,0,2025-09-11,2025-09-11,株式会社中川潜水,,株式会社,鹿児島県,鹿児島市,坂之上６丁目２９番５号,,46,201,8910150,,,,,,,2025-09-11,1,,,,,ナカガワセンスイ,0
724,3360001035766,新規,0,2025-09-11,2025-09-11,株式会社福ＰＡＩＮＴ,,株式会社,沖縄県,沖縄市,古謝２丁目６番８号,,47,211,9042161,,,,,,,2025-09-11,1,,,,,フクペイント,0
728,3370001053024,新規,0,2025-09-11,2025-09-11,ゼロ・スカイ株式会社,,株式会社,宮城県,仙台市宮城野区,福室７丁目９番１２号,,04,102,9830005,,,,,,,2025-09-11,1,,,,,ゼロスカイ,0
730,3380001035558,新規,0,2025-09-11,2025-09-11,株式会社栗金団建設,,株式会社,福島県,いわき市,平赤井字不動堂４番地の１,,07,204,9793131,,,,,,,2025-09-11,1,,,,,クリキントンケンセツ,0
731,3390001018099,新規,0,2025-09-11,2025-09-11,株式会社つなぐて,,株式会社,山形県,山形市,山家町１丁目６番５５号,,06,201,9900063,,,,,,,2025-09-11,1,,,,,,0
736,3420001019259,新規,0,2025-09-11,2025-09-11,株式会社南部電設,,株式会社,青森県,三戸郡三戸町,大字梅内字村中１０７番地４,,02,441,0390112,,,,,,,2025-09-11,1,,,,,ナンブデンセツ,0
744,3430001095183,新規,0,2025-09-11,2025-09-11,株式会社開成建設,,株式会社,北海道,札幌市中央区,北一条西２８丁目１－１５プレジャー円山１Ｆ,,01,101,0640821,,,,,,,2025-09-11,1,,,,,カイセイケンセツ,0
745,3430001095225,新規,0,2025-09-11,2025-09-11,ＫＧワンエイト株式会社,,株式会社,北海道,札幌市東区,伏古十条２丁目１６番５号,,01,103,0070870,,,,,,,2025-09-11,1,,,,,ケージーワンエイト,0
747,3450005004460,新規,0,2025-09-11,2025-09-11,特定非営利活動法人リージョナルイノベーション北海道,,その他の設立登記法人,北海道,旭川市,緑が丘東一条３丁目１番６号旭川リサーチセンター,,01,204,0788801,,,,,,,2025-09-11,1,,,,,リージョナルイノベーションホッカイドウ,0
751,3470003002976,新規,0,2025-09-11,2025-09-11,ｏｆｆｉｃｅ　ｊｉｎｓ合同会社,,合同会社,香川県,高松市,寺井町３１番地３,,37,201,7618085,,,,,,,2025-09-11,1,,,,,,0
754,3500003003590,新規,0,2025-09-11,2025-09-11,合同会社Ｓａｗａｄａ,,合同会社,愛媛県,大洲市,五郎甲２６８２番地,,38,207,7950051,,,,,,,2025-09-11,1,,,,,サワダ,0
755,3700150132156,新規,0,2025-09-11,2025-09-11,ｓｈｅｎｚｈｅｎｓｈｉｚｉｌｖｙｕｒａｎｋｅｊｉｙｏｕｘｉａｎｇｏｎｇｓｉ,,外国会社等,,,,,,,,ｓｈｅｎｚｈｅｎｓｈｉｌｏｎｇｇａｎｇｑｕｎａｎｗａｎｊｉｅｄａｏｋａｎｇｌｅｓｈｅｑｕｚｈｏｎｇｈａｉｘｉｎｃｈｕａｎｇｘｉｎｃｈａｎｙｅｃｈｅｎｇ２Ｂｄｏｎｇ２０１Ａ，ｓｈｅｎｚｈｅｎ，ｇｕａｎｇｄｏｎｇ，５１８０００,,,,,,2025-09-11,1,,,,,シェンジェンシーズーリーイーランコージーヨウシエンゴンスー,0
756,3700150132164,新規,0,2025-09-11,2025-09-11,船堀四丁目地区市街地再開発組合,,その他,東京都,江戸川区,船堀１丁目６番３号　カーサマジカル船堀１階,,13,123,1340091,,,,,,,2025-09-11,1,,,,,フナボリヨンチヨウメチクシガイチサイカイハツクミアイ,0
764,4010001258426,新規,0,2025-09-11,2025-09-11,株式会社今井設計,,株式会社,東京都,千代田区,東神田３丁目１番１５－３０３号,,13,101,1010031,,,,,,,2025-09-11,1,,,,,イマイセッケイ,0
768,4010003048718,新規,0,2025-09-11,2025-09-11,合同会社ＴＭライティング,,合同会社,東京都,中央区,日本橋２丁目１６－４ｒｅｍｉｘ日本橋６階,,13,102,1030027,,,,,,,2025-09-11,1,,,,,ティーエムライティング,0
771,4010005040656,新規,0,2025-09-11,2025-09-11,一般社団法人ＳＣ００９,,その他の設立登記法人,東京都,千代田区,平河町１丁目６番１５号シルスフィア会計事務所内,,13,101,1020093,,,,,,,2025-09-11,1,,,,,エスシーゼロゼロキュウ,0
780,4010401193066,新規,0,2025-09-11,2025-09-11,株式会社ＡＬＴＯＯＶＭＥ,,株式会社,東京都,港区,元赤坂１丁目７番１５号ＥｑｕｉｓｔＭＯＴＯＡＫＡＳＡＫＡＢｕｉｌｄｉｎｇ,,13,103,1070051,,,,,,,2025-09-11,1,,,,,アルトゥーブミー,0
783,4010501054688,新規,0,2025-09-11,2025-09-11,株式会社ｐｒｅｍｉｏ　ｇｏｒｄｏ,,株式会社,東京都,台東区,東浅草２丁目１７番５号,,13,106,1110025,,,,,,,2025-09-11,1,,,,,,0
784,4010501054705,新規,0,2025-09-11,2025-09-11,澤田株式会社,,株式会社,東京都,台東区,松が谷１丁目３番１０号きかくビル２０１,,13,106,1110036,,,,,,,2025-09-11,1,,,,,サワダ,0
785,4010503007990,新規,0,2025-09-11,2025-09-11,合同会社西村アセットマネジメント,,合同会社,東京都,台東区,三筋１丁目１番１－１００１号サーパススクエア蔵前,,13,106,1110055,,,,,,,2025-09-11,1,,,,,ニシムラアセットマネジメント,0
788,4010601067953,新規,0,2025-09-11,2025-09-11,伯帝株式会社,,株式会社,東京都,江東区,南砂７丁目１番２５－９０２号,,13,108,1360076,,,,,,,2025-09-11,1,,,,,ハクテイ,0
792,4010701048226,新規,0,2025-09-11,2025-09-11,株式会社ゆうきゅう,,株式会社,東京都,品川区,北品川３丁目１１―１３タワーコート北品川２８０３,,13,109,1400001,,,,,,,2025-09-11,1,,,,,ユウキュウ,0
793,4010801036584,新規,0,2025-09-11,2025-09-11,株式会社ケミックストレーディング,,株式会社,東京都,大田区,昭和島２丁目４番４号,,13,111,1430004,,,,,,,2025-09-11,1,,,,,ケミックストレーディング,0
801,4011001171940,新規,0,2025-09-11,2025-09-11,株式会社しずく,,株式会社,東京都,渋谷区,神宮前６丁目２９番４号原宿Ｋｏｍｉｙａビル６階,,13,113,1500001,,,,,,,2025-09-11,1,,,,,シズク,0
802,4011001172435,新規,0,2025-09-11,2025-09-11,株式会社Ｊｉｓｕｔｅ,,株式会社,東京都,渋谷区,道玄坂１丁目１０番８号渋谷道玄坂東急ビル２Ｆ－Ｃ,,13,113,1500043,,,,,,,2025-09-11,1,,,,,ジステ,0
804,4011003022349,新規,0,2025-09-11,2025-09-11,ＨｉＳｐａｃｅ合同会社,,合同会社,東京都,渋谷区,恵比寿西２丁目４番８号ウィンド恵比寿ビル８Ｆ,,13,113,1500021,,,,,,,2025-09-11,1,,,,,ハイスペース,0
805,4011201026639,新規,0,2025-09-11,2025-09-11,星瀾株式会社,,株式会社,東京都,中野区,上鷺宮１丁目１０番９号グリーンコーポ鷺の宮１０３号,,13,114,1650031,,,,,,,2025-09-11,1,,,,,セイラン,0
807,4011301030879,新規,0,2025-09-11,2025-09-11,株式会社ドノバン,,株式会社,東京都,杉並区,和泉３丁目５９番２０号,,13,115,1680063,,,,,,,2025-09-11,1,,,,,ドノバン,0
810,4011503006677,新規,0,2025-09-11,2025-09-11,木漏れ日合同会社,,合同会社,東京都,荒川区,荒川１丁目４５－１２－１階,,13,118,1160002,,,,,,,2025-09-11,1,,,,,コモレビ,0
811,4011701028705,新規,0,2025-09-11,2025-09-11,Ｋｉｖｏｒａ株式会社,,株式会社,東京都,江戸川区,東小岩５丁目３７番１２号楽新ビル２０４号,,13,123,1330052,,,,,,,2025-09-11,1,,,,,キボラ,0
816,4012403007328,新規,0,2025-09-11,2025-09-11,合同会社ＲｉｎＱ,,合同会社,東京都,稲城市,矢野口２６３２番地の１リヴィエール２－２０３,,13,225,2060812,,,,,,,2025-09-11,1,,,,,リンク,0
818,4012701019066,新規,0,2025-09-11,2025-09-11,株式会社ヒトノネ,,株式会社,東京都,小平市,鈴木町２丁目６８６番地の９４,,13,211,1870011,,,,,,,2025-09-11,1,,,,,ヒトノネ,0
822,4013301054940,新規,0,2025-09-11,2025-09-11,株式会社フロンティア,,株式会社,東京都,豊島区,池袋１丁目２番６号,,13,116,1700014,,,,,,,2025-09-11,1,,,,,フロンティア,0
823,4013303007871,新規,0,2025-09-11,2025-09-11,合同会社フェイバー,,合同会社,東京都,豊島区,東池袋２丁目６２番８号ＢＩＧオフィスプラザ池袋１２０６,,13,116,1700013,,,,,,,2025-09-11,1,,,,,フェイバー,0
824,4013305003761,新規,0,2025-09-11,2025-09-11,行政書士法人故郷,,その他の設立登記法人,東京都,豊島区,南大塚１丁目６０番２０号天翔大塚駅前ビル,,13,116,1700005,,,,,,,2025-09-11,1,,,,,コキョウ,0
831,4020001164755,新規,0,2025-09-11,2025-09-11,株式会社ヘキサゴン,,株式会社,神奈川県,川崎市高津区,子母口９７４－７グリーンコープ子母口２０１,,14,134,2130023,,,,,,,2025-09-11,1,,,,,ヘキサゴン,0
832,4020001164771,新規,0,2025-09-11,2025-09-11,横山株式会社,,株式会社,神奈川県,横浜市中区,扇町１丁目２番地２－１階Ｃ号室,,14,104,2310027,,,,,,,2025-09-11,1,,,,,ヨコヤマ,0
833,4020001164805,新規,0,2025-09-11,2025-09-11,株式会社Ｋ．Ｚ．Ｋ,,株式会社,神奈川県,横浜市旭区,川井本町１１０番地１０,,14,112,2410803,,,,,,,2025-09-11,1,,,,,ケーゼットケー,0
836,4020003029353,新規,0,2025-09-11,2025-09-11,日本芯キュウ合同会社,,合同会社,神奈川県,横浜市南区,高根町１丁目４－４０ＫＹＳオフィス２ＦＡ００７,,14,105,2320022,,,,,,,2025-09-11,1,,,,,ニホンシンキュウ,0
839,4021001086270,新規,0,2025-09-11,2025-09-11,Ｓｅｖｅｎ　Ｃｏｌｏｒｓ株式会社,,株式会社,神奈川県,横須賀市,太田和１丁目２３番３号,,14,201,2380311,,,,,,,2025-09-11,1,,,,,セブンカラーズ,0
859,4030003027562,新規,0,2025-09-11,2025-09-11,合同会社コッタバル,,合同会社,埼玉県,三郷市,中央４丁目１０番地１１,,11,237,3410038,,,,,,,2025-09-11,1,,,,,コッタバル,0
860,4030003027595,新規,0,2025-09-11,2025-09-11,合同会社ユニーク,,合同会社,埼玉県,春日部市,小渕１４３８番地２,,11,214,3440007,,,,,,,2025-09-11,1,,,,,ユニーク,0
863,4040001140399,新規,0,2025-09-11,2025-09-11,株式会社Ｍｉｒａｎｏｗａ,,株式会社,千葉県,松戸市,松戸１３０７番地の１松戸ビル１３Ｆ１３０２,,12,207,2710092,,,,,,,2025-09-11,1,,,,,ミラノワ,0
864,4040001140432,新規,0,2025-09-11,2025-09-11,株式会社ＴＯＩＭ,,株式会社,千葉県,船橋市,東中山１丁目２５番１９号,,12,204,2730036,,,,,,,2025-09-11,1,,,,,ティーオーアイエム,0
865,4040001140440,新規,0,2025-09-11,2025-09-11,株式会社ｆｏｒｔｕｎｅ,,株式会社,千葉県,鎌ケ谷市,東道野辺２丁目１０－１５ー１０２,,12,224,2730115,,,,,,,2025-09-11,1,,,,,フォーチュン,0
867,4040003028452,新規,0,2025-09-11,2025-09-11,合同会社ＴＲＡＮＶＥＸ,,合同会社,千葉県,船橋市,丸山１丁目３８番３－３号,,12,204,2730048,,,,,,,2025-09-11,1,,,,,トランベックス,0
869,4050001057262,新規,0,2025-09-11,2025-09-11,株式会社浅野興業,,株式会社,茨城県,北相馬郡利根町,もえぎ野台３丁目４番地１８,,08,564,3001606,,,,,,,2025-09-11,1,,,,,アサノコウギョウ,0
870,4050001057270,新規,0,2025-09-11,2025-09-11,ＫＡＷＳＥＲ株式会社,,株式会社,茨城県,下妻市,下妻丁２６３番地２,,08,210,3040068,,,,,,,2025-09-11,1,,,,,カウサル,0
871,4050003009534,新規,0,2025-09-11,2025-09-11,ＭＨＷ　ＴＲＡＤＩＮＧ合同会社,,合同会社,茨城県,結城郡八千代町,大字東蕗田６８４－４－２０７号,,08,521,3003545,,,,,,,2025-09-11,1,,,,,エムエイチダブリュートレーディング,0
872,4060001038559,新規,0,2025-09-11,2025-09-11,株式会社ＷＩＮ‐ＷＩＮ,,株式会社,栃木県,宇都宮市,中央３丁目２番４号,,09,201,3200806,,,,,,,2025-09-11,1,,,,,ウィンウィン,0
873,4070001043335,新規,0,2025-09-11,2025-09-11,株式会社月田架設,,株式会社,群馬県,富岡市,黒川９９４番地３,,10,210,3702344,,,,,,,2025-09-11,1,,,,,ツキダカセツ,0
876,4080001027139,新規,0,2025-09-11,2025-09-11,株式会社リントゼン,,株式会社,静岡県,静岡市葵区,伝馬町１番２号ホテルシティオ静岡３Ｆ,,22,101,4200858,,,,,,,2025-09-11,1,,,,,リントゼン,0
878,4080003003550,新規,0,2025-09-11,2025-09-11,ｅ‐ｓｅｋＡＩ　Ｓｃｈｏｏｌ合同会社,,合同会社,静岡県,静岡市葵区,川辺町１丁目１番１８,,22,101,4200043,,,,,,,2025-09-11,1,,,,,イーセカイスクール,0
879,4080005007723,新規,0,2025-09-11,2025-09-11,ＡＬＢＡ社会保険労務士法人,,その他の設立登記法人,静岡県,静岡市駿河区,下島３４５番地の１,,22,102,4228037,,,,,,,2025-09-11,1,,,,,アルバ,0
890,4080405007760,新規,0,2025-09-11,2025-09-11,一般社団法人子ども支援センター,,その他の設立登記法人,静岡県,浜松市中央区,泉３丁目１番３８号,,22,138,4338124,,,,,,,2025-09-11,1,,,,,コドモシエンセンター,0
893,4100001038918,新規,0,2025-09-11,2025-09-11,グッド・ハビット・カンパニー株式会社,,株式会社,長野県,北佐久郡軽井沢町,大字追分９７４番３１号,,20,321,3890115,,,,,,,2025-09-11,1,,,,,グッドハビットカンパニー,0
909,4120001279469,新規,0,2025-09-11,2025-09-11,星雲遠航株式会社,,株式会社,大阪府,大阪市中央区,南久宝寺町４丁目４番１号５０１－２号室,,27,128,5410058,,,,,,,2025-09-11,1,,,,,セイウンエンコウ,0
910,4120001279527,新規,0,2025-09-11,2025-09-11,株式会社健,,株式会社,大阪府,大阪市浪速区,難波中３丁目３番１０号,,27,111,5560011,,,,,,,2025-09-11,1,,,,,ケン,0
915,4120003030516,新規,0,2025-09-11,2025-09-11,合同会社心音,,合同会社,大阪府,枚方市,長尾家具町１丁目７番地の２７,,27,210,5730102,,,,,,,2025-09-11,1,,,,,ココロネ,0
916,4120003030532,新規,0,2025-09-11,2025-09-11,合同会社リモシス,,合同会社,大阪府,大阪市都島区,東野田町４丁目２０番８号,,27,102,5340024,,,,,,,2025-09-11,1,,,,,リモシス,0
920,4120903005848,新規,0,2025-09-11,2025-09-11,合同会社オシダ,,合同会社,大阪府,吹田市,穂波町４番１８－６０１号,,27,205,5640042,,,,,,,2025-09-11,1,,,,,オシダ,0
926,4130001080495,新規,0,2025-09-11,2025-09-11,株式会社リンクレット,,株式会社,京都府,京都市下京区,中堂寺１２６悠々館アペルトスパシオ２０１,,26,106,6000000,,,,,,,2025-09-11,1,,,,,リンクレット,0
927,4130001080504,新規,0,2025-09-11,2025-09-11,株式会社Ｓａｋｓ　ｈａｉｒ,,株式会社,京都府,京都市南区,久世中久世町２丁目１０５番地１,,26,107,6018213,,,,,,,2025-09-11,1,,,,,サックスヘアー,0
928,4130001080545,新規,0,2025-09-11,2025-09-11,ＧＯＬＤ株式会社,,株式会社,京都府,京都市中京区,醒ケ井通六角下る越後突抜町３０４番地,,26,104,6048252,,,,,,,2025-09-11,1,,,,,ゴールド,0
930,4140001139984,新規,0,2025-09-11,2025-09-11,株式会社関西機貿,,株式会社,兵庫県,伊丹市,西台３丁目９番２２号２０８－１１,,28,207,6640858,,,,,,,2025-09-11,1,,,,,カンサイキボウ,0
931,4140001139992,新規,0,2025-09-11,2025-09-11,株式会社ＭＹネクスト,,株式会社,兵庫県,明石市,二見町西二見７６７番地の６,,28,203,6740094,,,,,,,2025-09-11,1,,,,,マイネクスト,0
932,4140001140018,新規,0,2025-09-11,2025-09-11,株式会社Ｍａｒｖｅｌｏｕｓ,,株式会社,兵庫県,川西市,出在家町９－１６－Ｂ１０５号,,28,217,6660011,,,,,,,2025-09-11,1,,,,,マーベラス,0
936,4140003022560,新規,0,2025-09-11,2025-09-11,合同会社シュシュ,,合同会社,兵庫県,神戸市中央区,加納町３丁目１番２５号ワコーレ神戸三宮マスターズレジデンス７０６号室,,28,110,6500001,,,,,,,2025-09-11,1,,,,,シュシュ,0
937,4140003022569,新規,0,2025-09-11,2025-09-11,宮川合同会社,,合同会社,兵庫県,神戸市北区,泉台４丁目１１番地の１１,,28,109,6511141,,,,,,,2025-09-11,1,,,,,ミヤガワ,0
939,4150001028393,新規,0,2025-09-11,2025-09-11,新海株式会社,,株式会社,奈良県,奈良市,学園大和町１丁目３８－２,,29,201,6310041,,,,,,,2025-09-11,1,,,,,シンカイ,0
941,4150003003700,新規,0,2025-09-11,2025-09-11,合同会社未来古,,合同会社,奈良県,大和高田市,大字神楽７０番地３,,29,202,6350026,,,,,,,2025-09-11,1,,,,,ミライフル,0
952,4180001168633,新規,0,2025-09-11,2025-09-11,株式会社ヒューマンフォース,,株式会社,愛知県,日進市,三本木町細廻間４５６番地６日進パレス２０２,,23,230,4700101,,,,,,,2025-09-11,1,,,,,ヒューマンフォース,0
958,4180005021202,新規,0,2025-09-11,2025-09-11,特定非営利活動法人まち，ひと，Ｌｉｆｅサポートネット,,その他の設立登記法人,愛知県,弥富市,前ケ須町東勘助１１１番地１,,23,235,4980017,,,,,,,2025-09-11,1,,,,,マチヒトライフサポートネット,0
963,4190001032532,新規,0,2025-09-11,2025-09-11,株式会社宗栄工業,,株式会社,三重県,四日市市,小古曽東２丁目４番２号,,24,202,5100951,,,,,,,2025-09-11,1,,,,,ソウエイコウギョウ,0
966,4200001044229,新規,0,2025-09-11,2025-09-11,株式会社ＨＴＳ,,株式会社,岐阜県,安八郡輪之内町,里６４８番地の５,,21,382,5030234,,,,,,,2025-09-11,1,,,,,エイチティーエス,0
967,4200001044237,新規,0,2025-09-11,2025-09-11,株式会社江崎調査ボーリング,00140611,株式会社,岐阜県,瑞穂市,穂積１８番地,,21,216,5010223,,,,,,,2025-09-11,1,,,,,エサキチョウサボーリング,0
969,4200003007019,新規,0,2025-09-11,2025-09-11,合同会社つなぐ,,合同会社,岐阜県,関市,神野１８４０,,21,205,5013203,,,,,,,2025-09-11,1,,,,,ツナグ,0
974,4250003003806,新規,0,2025-09-11,2025-09-11,合同会社ｈａｃｃｉ　ｗｏｒｋｓ,,合同会社,山口県,萩市,大字椿東１００６０番地３３,,35,204,7580011,,,,,,,2025-09-11,1,,,,,ハッチワークス,0
975,4260001040536,新規,0,2025-09-11,2025-09-11,株式会社谷野測量事務所,,株式会社,岡山県,倉敷市,玉島八島３５０６番地１,,33,202,7138113,,,,,,,2025-09-11,1,,,,,タニノソクリョウジムショ,0
977,4260002034578,新規,0,2025-09-11,2025-09-11,有限会社シンコー特殊防水塗装,,有限会社,岡山県,真庭市,上市瀬５番地の１３,,33,214,7193141,,,,,,,2025-09-11,1,,,,,シンコートクシュボウスイトソウ,0
982,4290003017331,新規,0,2025-09-11,2025-09-11,合同会社ＴＯＭＯ,,合同会社,福岡県,宗像市,田久２丁目１７番２号,,40,220,8114175,,,,,,,2025-09-11,1,,,,,トモ,0
984,4290801031847,新規,0,2025-09-11,2025-09-11,株式会社Ｗｏｒｋｅｙｓ,,株式会社,福岡県,北九州市八幡西区,陣原５丁目２番６号,,40,109,8070821,,,,,,,2025-09-11,1,,,,,ワーキーズ,0
985,4290801031855,新規,0,2025-09-11,2025-09-11,株式会社Ｊｏｂ　Ｖｉｌｌａｇｅ,,株式会社,福岡県,北九州市小倉南区,北方３丁目３７－８福来ビル２０３,,40,107,8020841,,,,,,,2025-09-11,1,,,,,ジョブビレッジ,0
986,4310003005085,新規,0,2025-09-11,2025-09-11,合同会社Ｔｏ　Ｂｒｉｇｈｔ,,合同会社,長崎県,大村市,東本町２－２,,42,205,8560831,,,,,,,2025-09-11,1,,,,,トゥーブライト,0
987,4330001033540,新規,0,2025-09-11,2025-09-11,株式会社阿蘇赤水ゴルフ倶楽部,,株式会社,熊本県,阿蘇市,赤水１８１５番地１,,43,214,8692232,,,,,,,2025-09-11,1,,,,,アソアカミズゴルフクラブ,0
988,4330001033565,新規,0,2025-09-11,2025-09-11,二九ＴＥＣＨ株式会社,,株式会社,熊本県,熊本市中央区,中央街４－２２アルバ銀座通りビル,,43,101,8600802,,,,,,,2025-09-11,1,,,,,ニーキューテック,0
991,4340001027640,新規,0,2025-09-11,2025-09-11,株式会社ＣＯＣＯＮ　ＨＯＵＳＥ,,株式会社,鹿児島県,鹿児島市,下荒田４丁目１６番１号,,46,201,8900056,,,,,,,2025-09-11,1,,,,,ココンハウス,0
993,4340005009908,新規,0,2025-09-11,2025-09-11,医療法人吉菖会,,その他の設立登記法人,鹿児島県,鹿児島市,吉野町５３７４－１５,,46,201,8920871,,,,,,,2025-09-11,1,,,,,キッショウカイ,0
997,4360003015229,新規,0,2025-09-11,2025-09-11,合同会社ＭＴカンパニー,,合同会社,沖縄県,宮古島市,平良字西里２４０－２－５階,,47,214,9060012,,,,,,,2025-09-11,1,,,,,エムティカンパニー,0
1000,4380001035565,新規,0,2025-09-11,2025-09-11,金澤板金株式会社,,株式会社,福島県,東白川郡塙町,大字台宿字下稲沢１５３番地３,,07,483,9635341,,,,,,,2025-09-11,1,,,,,カナザワバンキン,0
1004,4420005007969,新規,0,2025-09-11,2025-09-11,嶋税理士法人,,その他の設立登記法人,青森県,八戸市,沼館２丁目３３番３－１号,,02,203,0310071,,,,,,,2025-09-11,1,,,,,シマ,0
1005,4430001095273,新規,0,2025-09-11,2025-09-11,株式会社ラバーダック,,株式会社,北海道,札幌市中央区,南二条西５丁目３１‐１ＲＭＢｌｄ．７０１,,01,101,0600062,,,,,,,2025-09-11,1,,,,,ラバーダック,0
1008,4430005015302,新規,0,2025-09-11,2025-09-11,医療法人Ｄ‐スクエア新さっぽろ歯科,,その他の設立登記法人,北海道,札幌市厚別区,厚別中央一条６丁目２－１Ｄ－スクエア新さっぽろ３Ｆ,,01,108,0040051,,,,,,,2025-09-11,1,,,,,ディースクエアシンサッポロシカ,0
1009,4440003001708,新規,0,2025-09-11,2025-09-11,合同会社フィッシャーマンズワーフ,,合同会社,北海道,函館市,亀田本町５０番２２号,,01,202,0410813,,,,,,,2025-09-11,1,,,,,フィッシャーマンズワーフ,0
1021,4700150132155,新規,0,2025-09-11,2025-09-11,ｎｉｎｇｂｏｙｉｎｇｂａｏｙｉｎｇｘｉａｎｇｋｅｊｉｙｏｕｘｉａｎｇｏｎｇｓｉ,,外国会社等,,,,,,,,１３１０　Ｎｏ．３９９　Ｍｉｎｈｅ　Ｒｏａｄ，Ｌｕｏｔｕｏ　Ｓｔｒｅｅｔ，Ｚｈｅｎｈａｉ　Ｄｉｓｔｒｉｃｔ　Ｎｉｎｇｂｏ，Ｚｈｅｊｉａｎｇ,,,,,,2025-09-11,1,,,,,ニンボーインバオインシャンコージーヨウシエンゴンスー,0
1022,4700150132163,新規,0,2025-09-11,2025-09-11,Ｓｈｅｎ　Ｚｈｅｎ　Ｍｕｓｉｃｌｓ　Ｃｏ,,外国会社等,,,,,,,,Ｒｏｏｍ　２０２，Ｂｕｉｌｄｉｎｇ　２，Ｈｕａｈａｉ　Ａｐａｒｔｍｅｎｔ，Ｌｉｎｙｕａｎ　Ｅａｓｔ　Ｒｏａｄ　Ｍｅｉｌｉｎ　Ｓｔｒｅｅｔ，Ｆｕｔｉａｎ　Ｄｉｓｔｒｉｃｔ　Ｓｈｅｎｚｈｅｎ,,,,,,2025-09-11,1,,,,,シンセンミュージカルズカンパニー,0
1031,5010001258400,新規,0,2025-09-11,2025-09-11,熊田株式会社,,株式会社,東京都,中央区,銀座１丁目１９－１４銀座ＯＮＥビル６階,,13,102,1040061,,,,,,,2025-09-11,1,,,,,クマダ,0
1032,5010001258441,新規,0,2025-09-11,2025-09-11,ひと創研株式会社,,株式会社,東京都,千代田区,平河町２丁目５番３号６階,,13,101,1020093,,,,,,,2025-09-11,1,,,,,ヒトソウケン,0
1036,5010003048700,新規,0,2025-09-11,2025-09-11,ブルームラボ合同会社,,合同会社,東京都,中央区,銀座１丁目１２番４号Ｎ＆ＥＢＬＤ．６Ｆ,,13,102,1040061,,,,,,,2025-09-11,1,,,,,ブルームラボ,0
1037,5010003048717,新規,0,2025-09-11,2025-09-11,合同会社ＳＣ００９,,合同会社,東京都,千代田区,平河町１丁目６番１５号シルスフィア会計事務所内,,13,101,1020093,,,,,,,2025-09-11,1,,,,,エスシーゼロゼロキュウ,0
1039,5010005040663,新規,0,2025-09-11,2025-09-11,一般社団法人ＣＲカーネーション,,その他の設立登記法人,東京都,中央区,銀座２丁目１０番８号マニエラ銀座ビル４階,,13,102,1040061,,,,,,,2025-09-11,1,,,,,シーアールカーネーション,0
1040,5010101016864,新規,0,2025-09-11,2025-09-11,株式会社加島屋,,株式会社,東京都,八王子市,子安町１丁目３５番１－３０３号,,13,201,1920904,,,,,,,2025-09-11,1,,,,,カジマヤ,0
1048,5010405024704,新規,0,2025-09-11,2025-09-11,一般社団法人就労促進支援機構,,その他の設立登記法人,東京都,港区,浜松町２丁目２番１５号浜松町ダイヤビル２Ｆ,,13,103,1050013,,,,,,,2025-09-11,1,,,,,シュウロウソクシンシエンキコウ,0
1049,5010501054712,新規,0,2025-09-11,2025-09-11,Ｊ　Ｇｅｎｅｓｉｓ株式会社,,株式会社,東京都,台東区,北上野１丁目４番２号,,13,106,1100014,,,,,,,2025-09-11,1,,,,,ジェイジェネシス,0
1050,5010601067960,新規,0,2025-09-11,2025-09-11,株式会社Ａｉ．ｏｎｅ,,株式会社,東京都,江東区,豊洲３丁目４番２号Ｎ４２１２,,13,108,1350061,,,,,,,2025-09-11,1,,,,,アイワン,0
1051,5010801036583,新規,0,2025-09-11,2025-09-11,株式会社ｄｅｐｔｈ,,株式会社,東京都,大田区,矢口１丁目１１番９号,,13,111,1460093,,,,,,,2025-09-11,1,,,,,デプス,0
1052,5010801036591,新規,0,2025-09-11,2025-09-11,株式会社インターナショナル浮世絵修復スタジオ,,株式会社,東京都,大田区,蒲田本町２丁目２番１３号富国ハイツビル１階,,13,111,1440053,,,,,,,2025-09-11,1,,,,,インターナショナルウキヨエシュウフクスタジオ,0
1059,5011001172401,新規,0,2025-09-11,2025-09-11,Ｇａｌａｘｙ　Ｔｅｃｈｎｏｌｏｇｙ　Ｊａｐａｎ株式会社,,株式会社,東京都,渋谷区,道玄坂１丁目１０番８号２Ｆ－Ｃ,,13,113,1500043,,,,,,,2025-09-11,1,,,,,ギャラクシーテクノロジージャパン,0
1062,5011003022422,新規,0,2025-09-11,2025-09-11,Ｃｏｍｍ０ｎｓ合同会社,,合同会社,東京都,渋谷区,円山町５番３号ＭＩＥＵＸ渋谷ビル８階,,13,113,1500044,,,,,,,2025-09-11,1,,,,,コモンズ,0
1065,5011005011167,新規,0,2025-09-11,2025-09-11,医療法人社団一番星,,その他の設立登記法人,東京都,渋谷区,神宮前１丁目１４番２４号原宿ＴＷビル３階,,13,113,1500001,,,,,,,2025-09-11,1,,,,,イチバンボシ,0
1066,5011005011183,新規,0,2025-09-11,2025-09-11,トレスタ税理士法人,,その他の設立登記法人,東京都,渋谷区,代々木１丁目２５番５号ＢＩＺＳＭＡＲＴ代々木５１４,,13,113,1510053,,,,,,,2025-09-11,1,,,,,トレスタ,0
1069,5011301030878,新規,0,2025-09-11,2025-09-11,株式会社ランドシー,,株式会社,東京都,杉並区,成田東２丁目４番１４号,,13,115,1660015,,,,,,,2025-09-11,1,,,,,ランドシー,0
1077,5011701028704,新規,0,2025-09-11,2025-09-11,ＬＥＥＳ　ＥＳＴＡＴＥ株式会社,,株式会社,東京都,江戸川区,西葛西２丁目６番１０号３Ｆ,,13,123,1340088,,,,,,,2025-09-11,1,,,,,リーズエステート,0
1086,5013103001487,新規,0,2025-09-11,2025-09-11,ＨＡＮＡ合同会社,,合同会社,東京都,福生市,大字熊川２２１番地１６,,13,218,1970003,,,,,,,2025-09-11,1,,,,,ハナ,0
1091,5013301054907,新規,0,2025-09-11,2025-09-11,Ｓｕｐｅｒ　Ｓｔａｒ株式会社,,株式会社,東京都,豊島区,巣鴨３丁目６番１８号巣鴨グリーンハイツ３０６号,,13,116,1700002,,,,,,,2025-09-11,1,,,,,スーパースター,0
1092,5013301054915,新規,0,2025-09-11,2025-09-11,株式会社ココルチル,,株式会社,東京都,豊島区,池袋２丁目１４番１１号ローヤルハイツ西池袋７０１,,13,116,1710014,,,,,,,2025-09-11,1,,,,,ココルチル,0
1094,5013303007862,新規,0,2025-09-11,2025-09-11,Ｆａｓｔａ商事合同会社,,合同会社,東京都,豊島区,南池袋１丁目９番１８号,,13,116,1710022,,,,,,,2025-09-11,1,,,,,ファスタショウジ,0
1104,5020001164795,新規,0,2025-09-11,2025-09-11,株式会社エムティープラム,,株式会社,神奈川県,横浜市泉区,緑園２丁目７番地９,,14,116,2450002,,,,,,,2025-09-11,1,,,,,エムティープラム,0
1108,5020003029336,新規,0,2025-09-11,2025-09-11,合同会社トータルコンサルティング,,合同会社,神奈川県,川崎市川崎区,田町２丁目１５番３号ＢＡＳＥ田町２０２,,14,131,2100822,,,,,,,2025-09-11,1,,,,,トータルコンサルティング,0
1109,5020003029352,新規,0,2025-09-11,2025-09-11,合同会社和心商事,,合同会社,神奈川県,横浜市南区,高根町１丁目４－４０ＫＹＳオフィス２ＦＡ００９,,14,105,2320022,,,,,,,2025-09-11,1,,,,,ワシンショウジ,0
1110,5021001086204,新規,0,2025-09-11,2025-09-11,株式会社ｎｏｋａ,,株式会社,神奈川県,厚木市,酒井１０１９番地,,14,212,2430022,,,,,,,2025-09-11,1,,,,,ノウカ,0
1115,5030001168580,新規,0,2025-09-11,2025-09-11,株式会社ＴＨＲＥＥ　ＥＱＵＡＬ　ＯＮＥ,,株式会社,埼玉県,さいたま市中央区,上落合３丁目１１番２０号,,11,105,3380001,,,,,,,2025-09-11,1,,,,,スリーイコールワン,0
1116,5030001168597,新規,0,2025-09-11,2025-09-11,ＭＦＴ株式会社,,株式会社,埼玉県,川越市,霞ケ関北６丁目２３番地２７,,11,201,3501109,,,,,,,2025-09-11,1,,,,,エムエフティー,0
1117,5030001168622,新規,0,2025-09-11,2025-09-11,株式会社ＣＬグランド,,株式会社,埼玉県,戸田市,喜沢１丁目１５－１８,,11,224,3350013,,,,,,,2025-09-11,1,,,,,シーエルグランド,0
1126,5030003027594,新規,0,2025-09-11,2025-09-11,合同会社スチールフォース,,合同会社,埼玉県,上尾市,中妻１丁目９－１４－４０１,,11,219,3620072,,,,,,,2025-09-11,1,,,,,スチールフォース,0
1132,5040001140398,新規,0,2025-09-11,2025-09-11,株式会社ｏｆｆｉｃｅ　Ｙ,,株式会社,千葉県,成田市,本城８７番地３４,,12,211,2860114,,,,,,,2025-09-11,1,,,,,オフィスワイ,0
1133,5040001140407,新規,0,2025-09-11,2025-09-11,株式会社イメージディバイス,,株式会社,千葉県,市川市,相之川２丁目１６番１３号,,12,203,2720143,,,,,,,2025-09-11,1,,,,,イメージディバイス,0
1134,5040001140456,新規,0,2025-09-11,2025-09-11,栄華株式会社,,株式会社,千葉県,千葉市美浜区,中瀬１丁目６ｍＢＡＹＰＯＩＮＴ幕張低層棟２Ｆリージャス幕張センター,,12,106,2610023,,,,,,,2025-09-11,1,,,,,エイカ,0
1140,5050001057261,新規,0,2025-09-11,2025-09-11,クアッカ株式会社,,株式会社,茨城県,つくば市,島名１４３８番地１（香取台Ａ２０街区５）ディアコート香取台Ｂ棟２０１号,,08,220,3002655,,,,,,,2025-09-11,1,,,,,クアッカ,0
1141,5050001057286,新規,0,2025-09-11,2025-09-11,株式会社地域創生プランニング,,株式会社,茨城県,土浦市,木田余東台２丁目１０－１,,08,203,3000027,,,,,,,2025-09-11,1,,,,,チイキソウセイプランニング,0
1142,5070001043334,新規,0,2025-09-11,2025-09-11,株式会社ＣｉＡ,,株式会社,群馬県,前橋市,元総社町８２３ルームススタンダード－０１,,10,201,3710846,,,,,,,2025-09-11,1,,,,,シア,0
1144,5080401028165,新規,0,2025-09-11,2025-09-11,株式会社アワントレーディング,,株式会社,静岡県,掛川市,高御所１１４３番地,,22,213,4360031,,,,,,,2025-09-11,1,,,,,アワントレーディング,0
1158,5120001279451,新規,0,2025-09-11,2025-09-11,澄川株式会社,,株式会社,大阪府,寝屋川市,美井元町１１番１８号１０１号室,,27,215,5720006,,,,,,,2025-09-11,1,,,,,スミカワ,0
1159,5120001279476,新規,0,2025-09-11,2025-09-11,Ｌｉｅｎ　Ｅｎｅｒｇｙ株式会社,,株式会社,大阪府,大阪市西区,西本町１丁目４番１号オリックス本町ビル４階,,27,106,5500005,,,,,,,2025-09-11,1,,,,,リアンエナジー,0
1160,5120001279534,新規,0,2025-09-11,2025-09-11,大西機械設計株式会社,,株式会社,大阪府,大阪市生野区,巽南５丁目１５番５号ハイツ巽Ｃ棟３７号,,27,116,5440015,,,,,,,2025-09-11,1,,,,,オオニシキカイセッケイ,0
1162,5120005025158,新規,0,2025-09-11,2025-09-11,税理士法人クラウドナイン,,その他の設立登記法人,大阪府,大阪市中央区,南本町２丁目６－１２サンマリオンタワー１０階,,27,128,5410054,,,,,,,2025-09-11,1,,,,,クラウドナイン,0
1165,5120101072384,新規,0,2025-09-11,2025-09-11,株式会社ＨＡＤ,,株式会社,大阪府,堺市東区,白鷺町１丁３番１３号３Ｆ,,27,143,5998107,,,,,,,2025-09-11,1,,,,,エイチエーディー,0
1167,5120901051463,新規,0,2025-09-11,2025-09-11,株式会社アラミックホールディングス,,株式会社,大阪府,箕面市,船場東１丁目１２番５号,,27,220,5620035,,,,,,,2025-09-11,1,,,,,アラミックホールディングス,0
1175,5130001080503,新規,0,2025-09-11,2025-09-11,株式会社Ｌｏｎｅ　Ｓｔａｒ,,株式会社,京都府,京都市中京区,御幸町通三条下る海老屋町３１６番地,,26,104,6048076,,,,,,,2025-09-11,1,,,,,ローンスター,0
1176,5130001080511,新規,0,2025-09-11,2025-09-11,株式会社中内飼料,,株式会社,京都府,八幡市,美濃山御幸１６番地４,,26,210,6148272,,,,,,,2025-09-11,1,,,,,ナカウチシリョウ,0
1178,5130003010763,新規,0,2025-09-11,2025-09-11,Ｋａｎｓａｉ　Ｗｏｒｌｄ合同会社,,合同会社,京都府,京田辺市,三山木南山３３番,,26,211,6100313,,,,,,,2025-09-11,1,,,,,カンサイワールド,0
1186,5140001139967,新規,0,2025-09-11,2025-09-11,株式会社ＳＡＩ,,株式会社,兵庫県,明石市,二見町福里３６０－１９,,28,203,6740091,,,,,,,2025-09-11,1,,,,,サイ,0
1187,5140001139991,新規,0,2025-09-11,2025-09-11,株式会社Ｓ　ＬＩＮＥ,,株式会社,兵庫県,高砂市,中島１丁目１７番３３号,,28,216,6760001,,,,,,,2025-09-11,1,,,,,エスライン,0
1194,5140003022568,新規,0,2025-09-11,2025-09-11,合同会社ソラーナ,,合同会社,兵庫県,神戸市西区,大津和２丁目９－１－１０２,,28,111,6512112,,,,,,,2025-09-11,1,,,,,ソラーナ,0
1196,5160001027047,新規,0,2025-09-11,2025-09-11,株式会社九山八海蒸溜所,,株式会社,滋賀県,大津市,稲津２丁目１８番３０号,,25,201,5202271,,,,,,,2025-09-11,1,,,,,クセンハッカイジョウリュウショ,0
1205,5180001168574,新規,0,2025-09-11,2025-09-11,株式会社如,,株式会社,愛知県,名古屋市西区,新道１丁目１５－１５新道コーポ貸事務所,,23,104,4510043,,,,,,,2025-09-11,1,,,,,モコロ,0
1211,5180003028982,新規,0,2025-09-11,2025-09-11,合同会社アイファー,,合同会社,愛知県,名古屋市東区,矢田１丁目３番９号,,23,102,4610040,,,,,,,2025-09-11,1,,,,,アイファー,0
1212,5180003029015,新規,0,2025-09-11,2025-09-11,合同会社わっきー,,合同会社,愛知県,津島市,江東町２丁目６７番地１,,23,208,4960855,,,,,,,2025-09-11,1,,,,,ワッキー,0
1218,5200001044236,新規,0,2025-09-11,2025-09-11,株式会社Ｎ．Ｋ,,株式会社,岐阜県,岐阜市,蔵前４丁目１１番９号,,21,201,5008233,,,,,,,2025-09-11,1,,,,,エヌケー,0
1221,5210005010225,新規,0,2025-09-11,2025-09-11,特定非営利活動法人ＹＯＲＩＤＯ,,その他の設立登記法人,福井県,福井市,二の宮２丁目２８番２１号セントラルヴィレッジ２Ｂ,,18,201,9100015,,,,,,,2025-09-11,1,,,,,ヨーリドー,0
1222,5220001026926,新規,0,2025-09-11,2025-09-11,Ｎｕｍｂｅｒ８株式会社,,株式会社,石川県,白山市,菜の花３丁目１０７番地,,17,210,9240810,,,,,,,2025-09-11,1,,,,,ナンバーエイト,0
1226,5230003002494,新規,0,2025-09-11,2025-09-11,エデ合同会社,,合同会社,富山県,富山市,中老田８０４番地１,,16,201,9300166,,,,,,,2025-09-11,1,,,,,エデ,0
1230,5240003007402,新規,0,2025-09-11,2025-09-11,合同会社ｎ．ｅｓｔ,,合同会社,広島県,広島市安佐南区,川内２丁目３８番１７号,,34,105,7310102,,,,,,,2025-09-11,1,,,,,エヌエステート,0
1246,5360001035764,新規,0,2025-09-11,2025-09-11,株式会社Ｓｋｅｒｎａｌ,,株式会社,沖縄県,うるま市,字川田３４２番地１３,,47,213,9042232,,,,,,,2025-09-11,1,,,,,スカーナル,0
1254,5380001035556,新規,0,2025-09-11,2025-09-11,株式会社ゆあふぁーむ,,株式会社,福島県,耶麻郡猪苗代町,大字磐根字行津２０５９番地,,07,408,9693286,,,,,,,2025-09-11,1,,,,,ユアファーム,0
1257,5400005008514,新規,0,2025-09-11,2025-09-11,医療法人一源会,,その他の設立登記法人,岩手県,盛岡市,上堂１丁目１８番２４号,,03,201,0200125,,,,,,,2025-09-11,1,,,,,イチゲンカイ,0
1265,5470001020887,新規,0,2025-09-11,2025-09-11,Ｆｌａｍｅ株式会社,,株式会社,香川県,高松市,番町４丁目７番２３号真鍋ハイツＡ棟３０２号,,37,201,7600017,,,,,,,2025-09-11,1,,,,,フレイム,0
1268,5700150132154,新規,0,2025-09-11,2025-09-11,ｇｕａｎｇｚｈｏｕｙｉｋｅｗａｎｇｌｕｏｋｅｊｉｙｏｕｘｉａｎｇｏｎｇｓｉ,,外国会社等,,,,,,,,２１１－６９Ｎ，Ｓｈｏｐ　２０４，１２　Ｊｉｎｇｈｕｉ　Ｓｔｒｅｅｔ，Ｔｉａｎｈｅ　Ｄｉｓｔｒｉｃｔ，Ｇｕａｎｇｚｈｏｕ　Ｃｉｔｙ,,,,,,2025-09-11,1,,,,,グワンジョウイーコーワンルオコージーヨウシエンゴンスー,0
1269,5700150132162,新規,0,2025-09-11,2025-09-11,ＴＯＬＥＧＯ　ＬＩＭＩＴＥＤ,,外国会社等,,,,,,,,ＵＮＩＴ　ＮＯ．５３２Ｂ　ＯＮ　５／Ｆ，ＳＴＡＲ　ＨＯＵＳＥ，ＮＯ．３　ＳＡＬＩＳＢＵＲＹ　ＲＯＡＤ，ＴＳＩＭ　ＳＨＡ　ＴＳＵＩ，ＨＯＮＧ　ＫＯＮＧ,,,,,,2025-09-11,1,,,,,トレゴリミテッド,0
1274,6010001258408,新規,0,2025-09-11,2025-09-11,ルミキュル株式会社,,株式会社,東京都,中央区,日本橋兜町５番１号兜町第一平和ビル３階,,13,102,1030026,,,,,,,2025-09-11,1,,,,,ルミキュル,0
1275,6010001258432,新規,0,2025-09-11,2025-09-11,株式会社ＺＥＳＴ,,株式会社,東京都,千代田区,神田須田町１丁目７番地８ＶＯＲＴ秋葉原ＩＶ２Ｆ,00140622,13,101,1010041,,,,,,,2025-09-11,1,,,,,ゼスト,0
1283,6010005040514,新規,0,2025-09-11,2025-09-11,一般社団法人いやしば会,,その他の設立登記法人,東京都,千代田区,神田駿河台３丁目２番地１－１１０２号,,13,101,1010062,,,,,,,2025-09-11,1,,,,,イヤシバカイ,0
1286,6010401193056,新規,0,2025-09-11,2025-09-11,Ｎ‐ＯＮＥ株式会社,,株式会社,東京都,港区,元麻布３丁目５番１１号マジェス元麻布Ｃ‐５０１,,13,103,1060046,,,,,,,2025-09-11,1,,,,,エヌワン,0
1287,6010501054703,新規,0,2025-09-11,2025-09-11,株式会社縁輪,,株式会社,東京都,台東区,三ノ輪２丁目８番５号アクシーズグランデ三ノ輪５０１,,13,106,1100011,,,,,,,2025-09-11,1,,,,,エンリン,0
1291,6010601067951,新規,0,2025-09-11,2025-09-11,株式会社Ｏｎｅ　Ｈｅａｒｔ,,株式会社,東京都,墨田区,八広１丁目４２番１２号,,13,107,1310041,,,,,,,2025-09-11,1,,,,,ワンハート,0
1292,6010601067968,新規,0,2025-09-11,2025-09-11,株式会社華東,,株式会社,東京都,墨田区,亀沢１丁目２３－１０ヴィラ・ファミリア１０１号,,13,107,1300014,,,,,,,2025-09-11,1,,,,,カトウ,0
1295,6010801036582,新規,0,2025-09-11,2025-09-11,Ｘ　ｏｆｆｉｃｅ株式会社,,株式会社,東京都,大田区,久が原２丁目２４番１０号,,13,111,1460085,,,,,,,2025-09-11,1,,,,,クロスオフィス,0
1296,6010801036590,新規,0,2025-09-11,2025-09-11,エバーホームズ株式会社,,株式会社,東京都,大田区,大森北３丁目４番４号ＫＴ大森北ビル４－Ｍ,,13,111,1430016,,,,,,,2025-09-11,1,,,,,エバーホームズ,0
1307,6011003022355,新規,0,2025-09-11,2025-09-11,合同会社テンダイ,,合同会社,東京都,渋谷区,円山町５番３号ＭＩＥＵＸ渋谷ビル８階,,13,113,1500044,,,,,,,2025-09-11,1,,,,,テンダイ,0
1308,6011201026595,新規,0,2025-09-11,2025-09-11,古田株式会社,,株式会社,東京都,中野区,若宮１丁目４５－１６,,13,114,1650033,,,,,,,2025-09-11,1,,,,,フルダ,0
1315,6011503006659,新規,0,2025-09-11,2025-09-11,白木蓮合同会社,,合同会社,東京都,荒川区,西尾久８丁目１２番９号４０９号室,,13,118,1160011,,,,,,,2025-09-11,1,,,,,ハクモクレン,0
1316,6011503006675,新規,0,2025-09-11,2025-09-11,合同会社オーロラ,,合同会社,東京都,北区,堀船３丁目４２番１２号,,13,117,1140004,,,,,,,2025-09-11,1,,,,,オーロラ,0
1317,6011603004835,新規,0,2025-09-11,2025-09-11,東京愛理合同会社,,合同会社,東京都,練馬区,大泉町３丁目１３番６号,,13,120,1780062,,,,,,,2025-09-11,1,,,,,トウキョウアイリ,0
1318,6011705001912,新規,0,2025-09-11,2025-09-11,一般社団法人コネクト,,その他の設立登記法人,東京都,江戸川区,中葛西１丁目３８番５号,,13,123,1340083,,,,,,,2025-09-11,1,,,,,コネクト,0
1320,6011805003478,新規,0,2025-09-11,2025-09-11,一般社団法人日本福祉総合支援協会シニアフル,,その他の設立登記法人,東京都,足立区,西加平２丁目１番３号２Ｆ,,13,121,1210074,,,,,,,2025-09-11,1,,,,,ニホンフクシソウゴウシエンキョウカイシニアフル,0
1321,6012401043587,新規,0,2025-09-11,2025-09-11,株式会社コマースレーン,,株式会社,東京都,武蔵野市,吉祥寺本町１丁目２０番１－１００２号吉祥寺永谷シティプラザ,,13,203,1800004,,,,,,,2025-09-11,1,,,,,コマースレーン,0
1323,6012405005162,新規,0,2025-09-11,2025-09-11,土地家屋調査士法人白金事務所,,その他の設立登記法人,東京都,府中市,是政２丁目３８番地の５８,,13,206,1830014,,,,,,,2025-09-11,1,,,,,シロカネジムショ,0
1324,6012703003371,新規,0,2025-09-11,2025-09-11,むさしの不動産合同会社,,合同会社,東京都,東久留米市,神宝町２丁目４番２０号,,13,222,2030002,,,,,,,2025-09-11,1,,,,,ムサシノフドウサン,0
1326,6012801024245,新規,0,2025-09-11,2025-09-11,株式会社Ｒｅｖｅｒａ,,株式会社,東京都,立川市,柴崎町３丁目６番１９号テラス立川３Ｆ,,13,202,1900023,,,,,,,2025-09-11,1,,,,,レヴェラ,0
1330,6013301054930,新規,0,2025-09-11,2025-09-11,株式会社Ｔ＆Ｔ,,株式会社,東京都,豊島区,高田３丁目５番１７－３１０号,,13,116,1710033,,,,,,,2025-09-11,1,,,,,ティーアンドティー,0
1337,6020001164638,新規,0,2025-09-11,2025-09-11,ＺＥＴＡ　ＳＯＬＵＴＩＯＮＳ株式会社,,株式会社,神奈川県,川崎市高津区,二子５丁目１１－３８－４０５,,14,134,2130002,,,,,,,2025-09-11,1,,,,,ゼタソリューションズ,0
1338,6020001164687,新規,0,2025-09-11,2025-09-11,Ｐｏｉｎｔｅｒ株式会社,,株式会社,神奈川県,横浜市西区,浅間町１丁目４番３号ウィザードビル４０２,,14,103,2200072,,,,,,,2025-09-11,1,,,,,ポインター,0
1339,6020001164737,新規,0,2025-09-11,2025-09-11,株式会社墓石センター,,株式会社,神奈川県,横浜市栄区,笠間４丁目２番１２－８０６号,,14,115,2470006,,,,,,,2025-09-11,1,,,,,ボセキセンター,0
1340,6020001164753,新規,0,2025-09-11,2025-09-11,株式会社クラウド管理本部,,株式会社,神奈川県,横浜市港北区,新横浜３丁目２－３エピックタワー新横浜９階,,14,109,2220033,,,,,,,2025-09-11,1,,,,,クラウドカンリホンブ,0
1341,6020001164803,新規,0,2025-09-11,2025-09-11,株式会社美登,,株式会社,神奈川県,川崎市高津区,坂戸２丁目１３番５号,,14,134,2130012,,,,,,,2025-09-11,1,,,,,ヨシノリ,0
1342,6020001164844,新規,0,2025-09-11,2025-09-11,株式会社ユナイトホールディングス,,株式会社,神奈川県,横浜市保土ケ谷区,鎌谷町１４９番地,,14,106,2400063,,,,,,,2025-09-11,1,,,,,ユナイトホールディングス,0
1347,6021001086319,新規,0,2025-09-11,2025-09-11,株式会社ＤＧホールディングス,,株式会社,神奈川県,藤沢市,辻堂１丁目１４番１号,,14,205,2510047,,,,,,,2025-09-11,1,,,,,ディージーホールディングス,0
1348,6021001086343,新規,0,2025-09-11,2025-09-11,株式会社ＴＩＡＭＡＴ,,株式会社,神奈川県,茅ヶ崎市,菱沼海岸３番１７―２号,,14,207,2530037,,,,,,,2025-09-11,1,,,,,ティアマット,0
1352,6030003027536,新規,0,2025-09-11,2025-09-11,合同会社ｕｎｄｅｒ　ｔｈｅ　ｓｏｉｌ,,合同会社,埼玉県,飯能市,柳町２６番１７号グリューネバルト２０８,,11,209,3570035,,,,,,,2025-09-11,1,,,,,アンダーザソイル,0
1353,6030003027585,新規,0,2025-09-11,2025-09-11,合同会社オリーブ,,合同会社,埼玉県,羽生市,西５丁目２５－１,,11,216,3480054,,,,,,,2025-09-11,1,,,,,オリーブ,0
1354,6030003027593,新規,0,2025-09-11,2025-09-11,合同会社ダイチョク,,合同会社,埼玉県,さいたま市大宮区,桜木町２丁目３番地大宮マルイ７階,,11,103,3300854,,,,,,,2025-09-11,1,,,,,ダイチョク,0
1360,6040001140406,新規,0,2025-09-11,2025-09-11,ケミストラ株式会社,,株式会社,千葉県,船橋市,中野木２丁目５番９号,,12,204,2740826,,,,,,,2025-09-11,1,,,,,ケミストラ,0
1361,6040001140455,新規,0,2025-09-11,2025-09-11,国際貿易株式会社,,株式会社,千葉県,野田市,古布内１５３１番地１３,,12,208,2700221,,,,,,,2025-09-11,1,,,,,コクサイボウエキ,0
1363,6040003028491,新規,0,2025-09-11,2025-09-11,合同会社ＥＱＵＵＳ,,合同会社,千葉県,船橋市,宮本９丁目７番１棟１００４号,,12,204,2730003,,,,,,,2025-09-11,1,,,,,エクウス,0
1365,6050001057260,新規,0,2025-09-11,2025-09-11,株式会社Ｓ’ＣＨＩＣ　ＩＮＴＥＲＩＯＲ,,株式会社,茨城県,牛久市,ひたち野東４丁目２０－２６,,08,219,3001207,,,,,,,2025-09-11,1,,,,,シックインテリア,0
1366,6050001057277,新規,0,2025-09-11,2025-09-11,株式会社ＲＥＩファーム,,株式会社,茨城県,つくば市,学園の森２丁目１３番地１５５,,08,220,3050816,,,,,,,2025-09-11,1,,,,,レイファーム,0
1368,6050003009565,新規,0,2025-09-11,2025-09-11,ＰＡＫ　ＪＡＰＡＮ合同会社,,合同会社,茨城県,結城市,大字久保田３０番地１,,08,207,3070012,,,,,,,2025-09-11,1,,,,,パックジャパン,0
1372,6080001027137,新規,0,2025-09-11,2025-09-11,株式会社ヒカリ,,株式会社,静岡県,榛原郡吉田町,神戸１０６０番地の１５,,22,424,4210304,,,,,,,2025-09-11,1,,,,,ヒカリ,0
1386,6120001279351,新規,0,2025-09-11,2025-09-11,錦宏株式会社,,株式会社,大阪府,大阪市西成区,天下茶屋２丁目２０番１６－２０２号室,,27,122,5570014,,,,,,,2025-09-11,1,,,,,ニシキコウ,0
1387,6120001279483,新規,0,2025-09-11,2025-09-11,株式会社木村洋輔測量事務所,,株式会社,大阪府,大阪市中央区,久太郎町２丁目５番３１号関電不動産船場ビル５階,,27,128,5410056,,,,,,,2025-09-11,1,,,,,キムラヨウスケソクリョウジムショ,0
1388,6120001279525,新規,0,2025-09-11,2025-09-11,東葉屋株式会社,,株式会社,大阪府,大阪市城東区,蒲生３丁目１５番１２号セザンヌ藤３０２Ｂ,,27,118,5360016,,,,,,,2025-09-11,1,,,,,トウヨウヤ,0
1389,6120001279533,新規,0,2025-09-11,2025-09-11,月浦株式会社,,株式会社,大阪府,大阪市淀川区,塚本１丁目１９－２７プレアール塚本ＩＩ５０１号室,00140623,27,123,5320026,,,,,,,2025-09-11,1,,,,,ツクラ,0
1390,6120001279723,新規,0,2025-09-11,2025-09-11,ＧＯＯＤ　ＰＲＩＭＥ株式会社,,株式会社,大阪府,大阪市北区,鶴野町４－１１朝日プラザ梅田２Ｆ－１１０,,27,127,5300014,,,,,,,2025-09-11,1,,,,,グッドプライム,0
1393,6120003030456,新規,0,2025-09-11,2025-09-11,合同会社ＨＡＬ‐ＰＲＯＪＥＣＴ,,合同会社,大阪府,大阪市此花区,島屋３丁目１２－１３,,27,104,5540024,,,,,,,2025-09-11,1,,,,,ハルプロジェクト,0
1394,6120003030514,新規,0,2025-09-11,2025-09-11,合同会社ハッピーサポートサービス,,合同会社,大阪府,大阪市北区,浪花町１３番３３－Ａ４０６号,,27,127,5300022,,,,,,,2025-09-11,1,,,,,ハッピーサポートサービス,0
1395,6120003030522,新規,0,2025-09-11,2025-09-11,合同会社ｃｈａｒｍ,,合同会社,大阪府,枚方市,杉山手１丁目９番１７号,,27,210,5730118,,,,,,,2025-09-11,1,,,,,チャーム,0
1396,6120003030539,新規,0,2025-09-11,2025-09-11,合同会社ＴＨＡＮＨ　ＨＡ,,合同会社,大阪府,大阪市西成区,山王３丁目２０－１５－２０１号,,27,122,5570001,,,,,,,2025-09-11,1,,,,,タインハー,0
1408,6120901051479,新規,0,2025-09-11,2025-09-11,株式会社スマイルマンション,,株式会社,大阪府,茨木市,若園町２７番７号,,27,211,5670894,,,,,,,2025-09-11,1,,,,,スマイルマンション,0
1411,6122001039652,新規,0,2025-09-11,2025-09-11,株式会社ＴＮ‐ｔｅｃｈ,,株式会社,大阪府,東大阪市,本庄中２丁目３番３３号,,27,227,5780957,,,,,,,2025-09-11,1,,,,,ティーエヌテック,0
1414,6130001080493,新規,0,2025-09-11,2025-09-11,株式会社野元商店,,株式会社,京都府,舞鶴市,字上福井１４９１番地,,26,202,6240951,,,,,,,2025-09-11,1,,,,,ノモトショウテン,0
1415,6130001080502,新規,0,2025-09-11,2025-09-11,関西測量設計事務所株式会社,,株式会社,京都府,宇治市,五ケ庄一里塚２５番地４７,,26,204,6110011,,,,,,,2025-09-11,1,,,,,カンサイソクリョウセッケイジムショ,0
1416,6130003010779,新規,0,2025-09-11,2025-09-11,合同会社コーチングＳＥＮ,,合同会社,京都府,京都市左京区,岡崎南御所町３５－１グランドメゾン京都岡崎３０５,,26,103,6068334,,,,,,,2025-09-11,1,,,,,コーチングセン,0
1428,6140003022575,新規,0,2025-09-11,2025-09-11,合同会社ＳＡＩＧＯＮ　ＦＯＯＤ,,合同会社,兵庫県,明石市,林崎町１丁目７番８号２階,,28,203,6730033,,,,,,,2025-09-11,1,,,,,サイゴンフード,0
1446,6200001044219,新規,0,2025-09-11,2025-09-11,博源株式会社,,株式会社,岐阜県,瑞浪市,土岐町８０３５番地の２０,,21,208,5096101,,,,,,,2025-09-11,1,,,,,ハクゲン,0
1452,6220001026925,新規,0,2025-09-11,2025-09-11,ＬＵＭＩＥＲＥ株式会社,,株式会社,石川県,金沢市,北安江３丁目７番２０号Ｃ棟,,17,201,9200022,,,,,,,2025-09-11,1,,,,,ルミエール,0
1457,6240001065491,新規,0,2025-09-11,2025-09-11,株式会社ＴＯＭＯＲＲＯＷ,,株式会社,広島県,広島市南区,翠３丁目１７番２２―２号,,34,103,7340005,,,,,,,2025-09-11,1,,,,,トゥモロウ,0
1461,6290003017429,新規,0,2025-09-11,2025-09-11,合同会社ｘｉｔｏ,,合同会社,福岡県,福岡市博多区,上呉服町１３番２５１－１０２号,,40,132,8120036,,,,,,,2025-09-11,1,,,,,シート,0
1465,6290801031853,新規,0,2025-09-11,2025-09-11,株式会社ドットコーティング,,株式会社,福岡県,北九州市小倉北区,浅野１丁目１－１ビエラ小倉１Ｆ　ＤＩＳＣＯＶＥＲＹ－１３９号,,40,106,8020001,,,,,,,2025-09-11,1,,,,,ドットコーティング,0
1467,6290803005153,新規,0,2025-09-11,2025-09-11,エイチクリエイト合同会社,,合同会社,福岡県,北九州市八幡東区,西本町４丁目３番１５－８０１号,,40,108,8050061,,,,,,,2025-09-11,1,,,,,エイチクリエイト,0
1472,6330001033539,新規,0,2025-09-11,2025-09-11,株式会社宇城ゴルフクラブ,,株式会社,熊本県,熊本市中央区,紺屋今町１４番地,,43,101,8600012,,,,,,,2025-09-11,1,,,,,ウキゴルフクラブ,0
1475,6330003011212,新規,0,2025-09-11,2025-09-11,合同会社ジムナビ,,合同会社,熊本県,熊本市北区,清水新地６丁目１番１６号パル新地Ｂ２０１,,43,105,8618075,,,,,,,2025-09-11,1,,,,,ジムナビ,0
1476,6340001027639,新規,0,2025-09-11,2025-09-11,株式会社イーグル,,株式会社,鹿児島県,薩摩川内市,永利町１５０２番地２,,46,215,8950005,,,,,,,2025-09-11,1,,,,,イーグル,0
1477,6340001027647,新規,0,2025-09-11,2025-09-11,ネコノスホーム株式会社,,株式会社,鹿児島県,鹿児島市,谷山中央４丁目１９１番地１,,46,201,8910141,,,,,,,2025-09-11,1,,,,,ネコノスホーム,0
1479,6360001035771,新規,0,2025-09-11,2025-09-11,玖心株式会社,,株式会社,沖縄県,うるま市,字具志川３３４４番地１,,47,213,9042223,,,,,,,2025-09-11,1,,,,,クシン,0
1481,6360003015227,新規,0,2025-09-11,2025-09-11,合同会社宮創建,,合同会社,沖縄県,中頭郡中城村,字南上原１１５０,,47,328,9012424,,,,,,,2025-09-11,1,,,,,ミヤソウケン,0
1484,6370003007280,新規,0,2025-09-11,2025-09-11,合同会社ズンダマサムネ,,合同会社,宮城県,仙台市青葉区,中央２丁目１１―１９仙南ビル４階―Ａ,,04,101,9800021,,,,,,,2025-09-11,1,,,,,ズンダマサムネ,0
1487,6380001035555,新規,0,2025-09-11,2025-09-11,株式会社渡辺土木建設,,株式会社,福島県,郡山市,開成６丁目３３８番地の１８,,07,203,9638851,,,,,,,2025-09-11,1,,,,,ワタナベドボクケンセツ,0
1488,6380003006133,新規,0,2025-09-11,2025-09-11,合同会社Ｍ,,合同会社,福島県,郡山市,富田町字権現林８０番地渡辺コーポＡ１０２号,,07,203,9638041,,,,,,,2025-09-11,1,,,,,エム,0
1500,6430001095214,新規,0,2025-09-11,2025-09-11,ｍａシステム株式会社,,株式会社,北海道,石狩市,花川南二条１丁目３８番地２,,01,235,0613202,,,,,,,2025-09-11,1,,,,,エムエーシステム,0
1501,6430001095247,新規,0,2025-09-11,2025-09-11,株式会社Ｉｎｓｕｐ,,株式会社,北海道,札幌市北区,新琴似七条１６丁目５番１－３０３号,,01,102,0010907,,,,,,,2025-09-11,1,,,,,インサップ,0
1508,6470003002973,新規,0,2025-09-11,2025-09-11,合同会社そらうみＬｉｎｋ,,合同会社,香川県,観音寺市,豊浜町和田浜１５３９番地１,,37,205,7691602,,,,,,,2025-09-11,1,,,,,,0
1516,6500001026509,新規,0,2025-09-11,2025-09-11,株式会社ＥＮＴＲＡＮＣＥ,,株式会社,愛媛県,松山市,和泉南３丁目９番１－１号,,38,201,7900941,,,,,,,2025-09-11,1,,,,,エントランス,0
1518,6700150132153,新規,0,2025-09-11,2025-09-11,Ｒｕｉａｎ　Ｃｉｔｙ　Ｘｉａｏ　Ｔｒａｄｉｎｇ　Ｃｏ．，ＬＴＤ．,,外国会社等,,,,,,,,Ｘｉａｏ　Ｖｉｌｌａｇｅ，Ｃｈａｎｇｑｉａｏ，Ｔａｎｇｘｉａ　Ｔｏｗｎ，Ｒｕｉａｎ　Ｃｉｔｙ,,,,,,2025-09-11,1,,,,,ルイアンシーシーアオマオイーヨウシエンゴンスー,0
1519,6700150132161,新規,0,2025-09-11,2025-09-11,ｎｉｎｇｂｏｔｕｇｏｕｋｅｊｉｙｏｕｘｉａｎｇｏｎｇｓｉ,,外国会社等,,,,,,,,Ｒｏｏｍ　１７０７，Ｎｏ．７５，Ｌａｎｅ　１１９７，Ｊｕｚｈａｎｇ　Ｅａｓｔ　Ｒｏａｄ，Ｓｈｏｕｎａｎ　Ｓｕｂｄｉｓｔｒｉｃｔ，Ｙｉｎｚｈｏｕ　Ｄｉｓｔｒｉｃｔ，Ｎｉｎｇｂｏ，Ｚｈｅｊｉａｎｇ　Ｐｒｏｖｉｎｃｅ，Ｃｈｉｎａ．,,,,,,2025-09-11,1,,,,,ニンボートゥゴウカギユウゲンコウシ,0
1529,7010001258150,新規,0,2025-09-11,2025-09-11,株式会社ラフテル,,株式会社,東京都,中央区,晴海３丁目１３番１－１３０４号,,13,102,1040053,,,,,,,2025-09-11,1,,,,,ラフテル,0
1530,7010001258398,新規,0,2025-09-11,2025-09-11,日本久彰商務株式会社,,株式会社,東京都,千代田区,飯田橋３丁目２－１２タキザワビル４階,,13,101,1020072,,,,,,,2025-09-11,1,,,,,ニホンキュウショウショウム,0
1531,7010001258407,新規,0,2025-09-11,2025-09-11,株式会社Ｌａｍｅｎａｒ,,株式会社,東京都,中央区,銀座１丁目１２番４号Ｎ＆ＥＢＬＤ．６Ｆ,,13,102,1040061,,,,,,,2025-09-11,1,,,,,ラメナー,0
1532,7010001258423,新規,0,2025-09-11,2025-09-11,株式会社二重橋キャピタル,,株式会社,東京都,千代田区,丸の内２丁目７番２号ＪＰタワー２２階,,13,101,1000005,,,,,,,2025-09-11,1,,,,,ニジュウバシキャピタル,0
1541,7010003048673,新規,0,2025-09-11,2025-09-11,ＪＵＮ合同会社,,合同会社,東京都,千代田区,麹町２丁目２番２２号（Ｃ／ＯＪｏｏ－ｒｅａｌｅｓｔａｔｅ－ｏｆｆｉｃｅ）,,13,101,1020083,,,,,,,2025-09-11,1,,,,,ジュン,0
1549,7010401193047,新規,0,2025-09-11,2025-09-11,株式会社ひまわり,,株式会社,東京都,港区,南青山２丁目２番１５号ＷｉｎＡｏｙａｍａビルＵＣＦ６階,,13,103,1070062,,,,,,,2025-09-11,1,,,,,ヒマワリ,0
1551,7010403035899,新規,0,2025-09-11,2025-09-11,合同会社ビジュー,,合同会社,東京都,港区,浜松町２丁目２番１５号浜松町ダイヤビル２Ｆ,,13,103,1050013,,,,,,,2025-09-11,1,,,,,,0
1553,7010501054702,新規,0,2025-09-11,2025-09-11,ＡＤＤＩＴＩＯＮ　ＴＯＫＹＯ株式会社,,株式会社,東京都,台東区,台東２丁目３０番１１号ＨＭビル３階,,13,106,1100016,,,,,,,2025-09-11,1,,,,,アディショントーキョー,0
1557,7010601067950,新規,0,2025-09-11,2025-09-11,ＩＭＳ　Ｒｅｇｅｎｅｒａｔｉｖｅ　Ｍｅｄｉｃｉｎｅホールディングス株式会社,,株式会社,東京都,江東区,有明３丁目５番７号ＴＯＣ有明イーストタワー１５階,,13,108,1350063,,,,,,,2025-09-11,1,,,,,アイエムエスリジェネラティブメディスンホールディングス,0
1558,7010601067967,新規,0,2025-09-11,2025-09-11,Ｏｓａｋａ　Ａｒｔｓ　Ｃｌｕｂ株式会社,,株式会社,東京都,江東区,有明１丁目３番１４－２５０８号,,13,108,1350063,,,,,,,2025-09-11,1,,,,,オオサカアーツクラブ,0
1559,7010603011758,新規,0,2025-09-11,2025-09-11,Ａｒｔｈｅｌｉｘ合同会社,,合同会社,東京都,墨田区,押上２丁目３０－１６,,13,107,1310045,,,,,,,2025-09-11,1,,,,,アートヘリックス,0
1560,7010803005535,新規,0,2025-09-11,2025-09-11,合同会社ＡＲコーポレーション,,合同会社,東京都,大田区,北千束１丁目１８番１２号,,13,111,1450062,,,,,,,2025-09-11,1,,,,,エーアールコーポレーション,0
1569,7011001171938,新規,0,2025-09-11,2025-09-11,株式会社デミチェリス,,株式会社,東京都,渋谷区,円山町１５番８号ミディアス渋谷ＷＥＳＴ８０１,,13,113,1500044,,,,,,,2025-09-11,1,,,,,デミチェリス,0
1576,7011301030876,新規,0,2025-09-11,2025-09-11,株式会社ＲＯＣＫ’Ｓ,,株式会社,東京都,杉並区,和泉４丁目１７番３２号,,13,115,1680063,,,,,,,2025-09-11,1,,,,,ロックス,0
1584,7012401043586,新規,0,2025-09-11,2025-09-11,株式会社共同印刷所,,株式会社,東京都,府中市,寿町２丁目１０番地３,,13,206,1830056,,,,,,,2025-09-11,1,,,,,キョウドウインサツジョ,0
1593,7013301054905,新規,0,2025-09-11,2025-09-11,株式会社Ｆｕｒｅｓｔａ,,株式会社,東京都,豊島区,東池袋２丁目６２－８ＢＩＧオフィスプラザ池袋１２０６,,13,116,1700013,,,,,,,2025-09-11,1,,,,,フレスタ,0
1594,7013301054913,新規,0,2025-09-11,2025-09-11,ＹＧ株式会社,,株式会社,東京都,豊島区,西池袋２丁目３番１４号,,13,116,1710021,,,,,,,2025-09-11,1,,,,,ワイジー,0
1595,7013301054921,新規,0,2025-09-11,2025-09-11,株式会社インティバイオ・ラボ,,株式会社,東京都,豊島区,南池袋１丁目１６番１５号ダイヤゲート池袋,,13,116,1710022,,,,,,,2025-09-11,1,,,,,インティバイオラボ,0
1597,7013305003759,新規,0,2025-09-11,2025-09-11,医療法人社団ＥＮＴ　Ｂｅａｃｏｎ,,その他の設立登記法人,東京都,豊島区,南池袋１丁目２７番１０号油木第一ビル５階,,13,116,1710022,,,,,,,2025-09-11,1,,,,,イーエヌティービーコン,0
1604,7020001164637,新規,0,2025-09-11,2025-09-11,銘源株式会社,,株式会社,神奈川県,横浜市中区,山手町８９番１,,14,104,2310862,,,,,,,2025-09-11,1,,,,,メイゲン,0
1605,7020001164703,新規,0,2025-09-11,2025-09-11,株式会社墨炎,,株式会社,神奈川県,横浜市鶴見区,矢向１丁目１６番３３－２０９号,,14,101,2300001,,,,,,,2025-09-11,1,,,,,ボクエン,0
1606,7020001164785,新規,0,2025-09-11,2025-09-11,株式会社Ｃｏｎｎｅｃｔ　Ｌａｂ,,株式会社,神奈川県,川崎市幸区,南幸町２丁目４０番地７,,14,132,2120016,,,,,,,2025-09-11,1,,,,,コネクトラボ,0
1607,7020001164802,新規,0,2025-09-11,2025-09-11,株式会社ノワトレーディング,,株式会社,神奈川県,川崎市川崎区,藤崎４丁目８番１１号,,14,131,2100804,,,,,,,2025-09-11,1,,,,,ノワトレーディング,0
1608,7020001164810,新規,0,2025-09-11,2025-09-11,株式会社ｊａｎｕｓ,,株式会社,神奈川県,横浜市中区,桜木町１丁目１０１番地１クロスゲート７階,,14,104,2310062,,,,,,,2025-09-11,1,,,,,ヤヌス,0
1609,7020001164876,新規,0,2025-09-11,2025-09-11,株式会社Ｖａｌｕｅ　Ｔｒｅｅ,,株式会社,神奈川県,横浜市西区,北幸２丁目１０番４８号　むつみビル３階,,14,103,2200004,,,,,,,2025-09-11,1,,,,,バリューツリー,0
1610,7020003029276,新規,0,2025-09-11,2025-09-11,合同会社ふらり,,合同会社,神奈川県,横浜市青葉区,青葉台１丁目３２番地３扶桑ハイツ青葉台６０１,,14,117,2270062,,,,,,,2025-09-11,1,,,,,フラリ,0
1612,7021001086243,新規,0,2025-09-11,2025-09-11,ＢＡＲＣＯ　ＦＡＲＯ株式会社,,株式会社,神奈川県,座間市,相模が丘１丁目１８－１８,,14,216,2520001,,,,,,,2025-09-11,1,,,,,バルコファロ,0
1613,7021001086268,新規,0,2025-09-11,2025-09-11,株式会社七牛工芸,,株式会社,神奈川県,相模原市緑区,牧野５０２１番地１,,14,151,2520186,,,,,,,2025-09-11,1,,,,,ナナウシコウゲイ,0
1618,7021003016512,新規,0,2025-09-11,2025-09-11,湘南ライフケア合同会社,,合同会社,神奈川県,茅ヶ崎市,浜見平１５－３４－３２４,,14,207,2530062,,,,,,,2025-09-11,1,,,,,ショウナンライフケア,0
1619,7021003016520,新規,0,2025-09-11,2025-09-11,合同会社カナンハウス,,合同会社,神奈川県,秦野市,北矢名６６６－２９６－２階,,14,211,2570006,,,,,,,2025-09-11,1,,,,,カナンハウス,0
1629,7030001168570,新規,0,2025-09-11,2025-09-11,株式会社ウーム,,株式会社,埼玉県,さいたま市見沼区,春岡２丁目１６番地５,,11,104,3370008,,,,,,,2025-09-11,1,,,,,ウーム,0
1633,7030003027584,新規,0,2025-09-11,2025-09-11,合同会社Ｍ＆Ｙ　Ｊａｐａｎ,,合同会社,埼玉県,越谷市,レイクタウン９丁目５０番地４,,11,222,3430828,,,,,,,2025-09-11,1,,,,,エムアンドワイジャパン,0
1637,7040003028466,新規,0,2025-09-11,2025-09-11,合同会社いがいが,,合同会社,千葉県,柏市,戸張１０８９番地１クレシア２０３号,,12,217,2770008,,,,,,,2025-09-11,1,,,,,イガイガ,0
1640,7060003005744,新規,0,2025-09-11,2025-09-11,合同会社アスクト,,合同会社,栃木県,塩谷郡高根沢町,大字中柏崎１３２番地２,,09,386,3291214,,,,,,,2025-09-11,1,,,,,アスクト,0
1643,7070001043332,新規,0,2025-09-11,2025-09-11,株式会社柳澤電気,,株式会社,群馬県,太田市,大原町１５番地６,,10,205,3792304,,,,,,,2025-09-11,1,,,,,ヤナギサワデンキ,0
1644,7070001043340,新規,0,2025-09-11,2025-09-11,株式会社東屋,,株式会社,群馬県,高崎市,南大類町１００６番地,,10,202,3700036,,,,,,,2025-09-11,1,,,,,アズマヤ,0
1646,7080405007758,新規,0,2025-09-11,2025-09-11,一般社団法人日本排水管洗浄協会,,その他の設立登記法人,静岡県,浜松市中央区,子安町３１５－１３,,22,138,4350015,,,,,,,2025-09-11,1,,,,,ニホンハイスイカンセンジョウキョウカイ,0
1647,7090001019495,新規,0,2025-09-11,2025-09-11,株式会社百職,,株式会社,山梨県,南都留郡富士河口湖町,河口１４８０番地３,,19,430,4010304,,,,,,,2025-09-11,1,,,,,ヒャクショク,0
1664,7120001279508,新規,0,2025-09-11,2025-09-11,株式会社Ｃｈｅｍｉｓｔｒｙ　Ｍ＆Ａ,,株式会社,大阪府,大阪市北区,梅田１丁目２番２号大阪駅前第２ビル１２－１２,,27,127,5300001,,,,,,,2025-09-11,1,,,,,ケミストリーエムアンドエー,0
1665,7120001279648,新規,0,2025-09-11,2025-09-11,株式会社閃,,株式会社,大阪府,大阪市平野区,喜連西１丁目１１番３０号２階,,27,126,5470026,,,,,,,2025-09-11,1,,,,,セン,0
1666,7120001279796,新規,0,2025-09-11,2025-09-11,株式会社フォーシーズンズトラベル,,株式会社,大阪府,大阪市中央区,松屋町住吉６番２６号住吉ビル３０３,,27,128,5400017,,,,,,,2025-09-11,1,,,,,フォーシーズンズトラベル,0
1669,7120003030447,新規,0,2025-09-11,2025-09-11,合同会社ＧＷＫ,,合同会社,大阪府,大阪市西区,江戸堀３丁目８－１６オーラムアルジャン阿波座１００１,,27,106,5500002,,,,,,,2025-09-11,1,,,,,ジーダブリューケー,0
1670,7120003030521,新規,0,2025-09-11,2025-09-11,合同会社イープランニング,,合同会社,大阪府,大阪市阿倍野区,三明町２丁目１０番２１－８０４号,,27,119,5450005,,,,,,,2025-09-11,1,,,,,イープランニング,0
1671,7120003030538,新規,0,2025-09-11,2025-09-11,合同会社しあわせ,,合同会社,大阪府,大阪市西成区,天下茶屋東２丁目７－６六谷天下茶屋東２ハイツ１０５号,,27,122,5570011,,,,,,,2025-09-11,1,,,,,シアワセ,0
1675,7120101072399,新規,0,2025-09-11,2025-09-11,ＡＬＰＩＮＥ株式会社,,株式会社,大阪府,高石市,加茂２丁目１４－３１－１０１,,27,225,5920011,,,,,,,2025-09-11,1,,,,,アルパイン,0
1681,7130001080492,新規,0,2025-09-11,2025-09-11,ＫＧコンサルティング＆サポート株式会社,,株式会社,京都府,京都市下京区,烏丸通五条下る大坂町３９６番地第３キョートビル９階,,26,106,6008177,,,,,,,2025-09-11,1,,,,,ケージーコンサルティングアンドサポート,0
1682,7130001080501,新規,0,2025-09-11,2025-09-11,株式会社トゥルーマン,,株式会社,京都府,京都市中京区,竹屋町通油小路西入西竹屋町５００番地３０２,,26,104,6040075,,,,,,,2025-09-11,1,,,,,トゥルーマン,0
1683,7130003010761,新規,0,2025-09-11,2025-09-11,合同会社カリタマネジメント,,合同会社,京都府,京都市北区,紫野下若草町２９番地,,26,101,6038234,,,,,,,2025-09-11,1,,,,,カリタマネジメント,0
1691,7140001139949,新規,0,2025-09-11,2025-09-11,株式会社ヴェーネス．,,株式会社,兵庫県,神戸市東灘区,住吉台４１番１－７０３号,,28,101,6580062,,,,,,,2025-09-11,1,,,,,ヴェーネス,0
1692,7140001140015,新規,0,2025-09-11,2025-09-11,株式会社ＬＬＳ,,株式会社,兵庫県,神戸市北区,松が枝町１丁目１１番地の２,,28,109,6511232,,,,,,,2025-09-11,1,,,,,エルエルエス,0
1693,7140003022558,新規,0,2025-09-11,2025-09-11,合同会社ｓｅｅ　ｃｏｎｎｅｃｔｉｏｎｓ,,合同会社,兵庫県,丹波市,氷上町上新庄１０６３番地,,28,223,6693613,,,,,,,2025-09-11,1,,,,,シーコネクションズ,0
1694,7140003022574,新規,0,2025-09-11,2025-09-11,ちゅぐみ合同会社,,合同会社,兵庫県,尼崎市,梶ケ島７番１４号,,28,202,6600821,,,,,,,2025-09-11,1,,,,,チュグミ,0
1697,7170003002301,新規,0,2025-09-11,2025-09-11,合同会社シリウス,,合同会社,和歌山県,田辺市,秋津町７６４,,30,206,6460005,,,,,,,2025-09-11,1,,,,,シリウス,0
1707,7180003028997,新規,0,2025-09-11,2025-09-11,合同会社Ａｒｔｉｓａｎ　Ｃａｃａｏ,,合同会社,愛知県,名古屋市中区,三の丸１丁目１４番７号本丸ビル３１９号室,,23,106,4600001,,,,,,,2025-09-11,1,,,,,アーティザンカカオ,0
1708,7180301040200,新規,0,2025-09-11,2025-09-11,株式会社あおい,,株式会社,愛知県,岡崎市,鉢地町字山ノ寺３２番地１,,23,202,4443512,,,,,,,2025-09-11,1,,,,,アオイ,0
1709,7190001032505,新規,0,2025-09-11,2025-09-11,エイチ・アイ・エム鉄筋工業株式会社,,株式会社,三重県,松阪市,小野江町８７０番地,,24,204,5152109,,,,,,,2025-09-11,1,,,,,エイチアイエムテッキンコウギョウ,0
1730,7240001065499,新規,0,2025-09-11,2025-09-11,広島ビジネスサービス株式会社,,株式会社,広島県,広島市中区,上八丁堀８番１５号,,34,101,7300012,,,,,,,2025-09-11,1,,,,,ヒロシマビジネスサービス,0
1739,7260001040533,新規,0,2025-09-11,2025-09-11,株式会社Ｗｈｏｌｅ　ｎｕｔｒｉｔｉｏｎ　ｓｐａｃｅ,,株式会社,岡山県,岡山市北区,北長瀬表町３丁目９－２５,,33,101,7000962,,,,,,,2025-09-11,1,,,,,ホールニュートリションスペース,0
1751,7290003017436,新規,0,2025-09-11,2025-09-11,Ｍｉｒａｉｎａｍｉ合同会社,,合同会社,福岡県,福岡市中央区,舞鶴３丁目２番５－３０３号,,40,133,8100073,,,,,,,2025-09-11,1,,,,,ミライナミ,0
1752,7290805009861,新規,0,2025-09-11,2025-09-11,一般社団法人陽・真・輪・里,,その他の設立登記法人,福岡県,田川市,大字奈良１５３９番１０５号,,40,206,8260043,,,,,,,2025-09-11,1,,,,,ヒマワリ,0
1756,7330003011211,新規,0,2025-09-11,2025-09-11,合同会社ＲＮコーポレーション,,合同会社,熊本県,熊本市南区,南高江４丁目１番１７－７号野越団地１Ｃ－１－７,,43,104,8614106,,,,,,,2025-09-11,1,,,,,アールエヌコーポレーション,0
1757,7340001027646,新規,0,2025-09-11,2025-09-11,啓音技建株式会社,,株式会社,鹿児島県,日置市,伊集院町猪鹿倉６００－３８番地,,46,216,8992505,,,,,,,2025-09-11,1,,,,,ケイオンギケン,0
1761,7350001019725,新規,0,2025-09-11,2025-09-11,株式会社Ｂｒａｄ,,株式会社,宮崎県,宮崎市,中央通８－１９　１階,,45,201,8800002,,,,,,,2025-09-11,1,,,,,ブラッド,0
1762,7350003005021,新規,0,2025-09-11,2025-09-11,ディーグラフ合同会社,,合同会社,宮崎県,延岡市,緑ケ丘２丁目１４番１４号,,45,203,8820863,,,,,,,2025-09-11,1,,,,,ディーグラフ,0
1765,7360003015234,新規,0,2025-09-11,2025-09-11,合同会社葦工業,,合同会社,沖縄県,うるま市,字高江洲９８７番地４ニライカナイヴィラ１０２号,,47,213,9042242,,,,,,,2025-09-11,1,,,,,アシコウギョウ,0
1772,7380001035554,新規,0,2025-09-11,2025-09-11,株式会社さとう工業,,株式会社,福島県,南相馬市,鹿島区小池字原畑２３２番地,,07,212,9792453,,,,,,,2025-09-11,1,,,,,サトウコウギョウ,0
1773,7380001035562,新規,0,2025-09-11,2025-09-11,株式会社イイリ,,株式会社,福島県,いわき市,平谷川瀬１丁目１９番地の３,,07,204,9708036,,,,,,,2025-09-11,1,,,,,イイリ,0
1783,7430003018064,新規,0,2025-09-11,2025-09-11,スポン合同会社,,合同会社,北海道,小樽市,銭函１丁目１９番３１号,,01,203,0470261,,,,,,,2025-09-11,1,,,,,スポン,0
1785,7450001014732,新規,0,2025-09-11,2025-09-11,株式会社みなと工業,,株式会社,北海道,旭川市,東旭川北三条６丁目６番９号ハピネスハイツＩＩ１０２,00140613,01,204,0788253,,,,,,,2025-09-11,1,,,,,ミナトコウギョウ,0
1789,7700150132160,新規,0,2025-09-11,2025-09-11,Ｓｈｅｎｚｈｅｎ　Ｃｈａｎｇｙｉ　Ａｐｐａｒｅｌ　Ｃｏ．，Ｌｔｄ．,,外国会社等,,,,,,,,４０８，Ｆｌｏｏｒ　４，Ｂｕｉｌｄｉｎｇ　２，Ｈｕｉｈｕａｙｕａｎ　Ｆａｃｔｏｒｙ，Ｎｏ．６９　Ｄｏｎｇｈｕａｎ　２ｎｄ　Ｒｏａｄ，Ｆｕｋａｎｇ　Ｃｏｍｍｕｎｉｔｙ，Ｌｏｎｇｈｕａ　Ｓｔｒｅｅｔ，Ｌｏｎｇｈｕａ　Ｄｉｓｔｒｉｃｔ，Ｓｈｅｎｚｈｅｎ，Ｃｈｉｎａ,,,,,,2025-09-11,1,,,,,シンセンチャンイアパレルカンパニーリミテッド,0
1799,8010001258430,新規,0,2025-09-11,2025-09-11,株式会社ＣＲＯＳＳホールディングス,,株式会社,東京都,中央区,東日本橋２丁目２８番４号,,13,102,1030004,,,,,,,2025-09-11,1,,,,,クロスホールディングス,0
1800,8010001258439,新規,0,2025-09-11,2025-09-11,ＡＮホールディングス株式会社,,株式会社,東京都,千代田区,平河町２丁目１６番９号永田町グラスゲート６階株式会社ＦｅｌｉｃｉｔｙＣａｐｉｔａｌ内,,13,101,1020093,,,,,,,2025-09-11,1,,,,,エーエヌホールディングス,0
1801,8010001258471,新規,0,2025-09-11,2025-09-11,株式会社ルーキースマートジャパン,,株式会社,東京都,中央区,銀座１丁目１２－４Ｎ＆ＥＢＬＤ．７階,,13,102,1040061,,,,,,,2025-09-11,1,,,,,ルーキースマートジャパン,0
1802,8010001258488,新規,0,2025-09-11,2025-09-11,ＥＤＵインベストメント株式会社,,株式会社,東京都,千代田区,神田三崎町２丁目１０番１１号Ｐｅｇビル６Ｂ－５,,13,101,1010061,,,,,,,2025-09-11,1,,,,,イーディーユーインベストメント,0
1804,8010003048549,新規,0,2025-09-11,2025-09-11,合同会社８８２３アセットマネジメント,,合同会社,東京都,文京区,小石川１丁目５番１－３０１４号,,13,105,1120002,,,,,,,2025-09-11,1,,,,,ハチハチニイサンアセットマネジメント,0
1805,8010003048689,新規,0,2025-09-11,2025-09-11,合同会社Ｇｒｅｗａｉ,,合同会社,東京都,中央区,銀座６丁目１３番１６号銀座ＷａｌｌビルＵＣＦ５０１,,13,102,1040061,,,,,,,2025-09-11,1,,,,,グリューアイ,0
1806,8010003048697,新規,0,2025-09-11,2025-09-11,合同会社Ｎａｍｉｎｏｒｉ　ＢＡＲ,,合同会社,東京都,千代田区,麹町４丁目１番地セリエビル５階,,13,101,1020083,,,,,,,2025-09-11,1,,,,,ナミノリバー,0
1810,8010005040652,新規,0,2025-09-11,2025-09-11,一般社団法人アレイ・インターナショナル,,その他の設立登記法人,東京都,千代田区,神田神保町２丁目１０番３１号ＩＷビル１Ｆ,,13,101,1010051,,,,,,,2025-09-11,1,,,,,,0
1815,8010401193038,新規,0,2025-09-11,2025-09-11,株式会社吉永リアルティ,,株式会社,東京都,港区,麻布十番１丁目５番１０号,,13,103,1060045,,,,,,,2025-09-11,1,,,,,ヨシナガリアルティ,0
1816,8010401193062,新規,0,2025-09-11,2025-09-11,株式会社ＧＥＮＭＵ,,株式会社,東京都,港区,六本木４丁目５番７号スタジオＤ３０１号室,,13,103,1060032,,,,,,,2025-09-11,1,,,,,ゲンム,0
1818,8010405024742,新規,0,2025-09-11,2025-09-11,税理士法人ＦＯＲＴＥＱ,,その他の設立登記法人,東京都,港区,赤坂２丁目５番８号ヒューリックＪＰ赤坂ビル３階,,13,103,1070052,,,,,,,2025-09-11,1,,,,,フォルテック,0
1819,8010501054676,新規,0,2025-09-11,2025-09-11,株式会社源,,株式会社,東京都,台東区,寿３丁目１９－２シュロス浅草マンション２０１,,13,106,1110042,,,,,,,2025-09-11,1,,,,,ミナモト,0
1820,8010501054701,新規,0,2025-09-11,2025-09-11,株式会社ノリジン科学,,株式会社,東京都,台東区,柳橋１丁目２８－４いな垣ビル３階,,13,106,1110052,,,,,,,2025-09-11,1,,,,,ノリジンカガク,0
1822,8010505003638,新規,0,2025-09-11,2025-09-11,一般社団法人全国分譲マンションリース協会,,その他の設立登記法人,東京都,台東区,台東４丁目５番５号,,13,106,1100016,,,,,,,2025-09-11,1,,,,,ゼンコクブンジョウマンションリースキョウカイ,0
1825,8010601067958,新規,0,2025-09-11,2025-09-11,株式会社プライムポリ,,株式会社,東京都,江東区,新木場１丁目７番２２号新木場タワー,,13,108,1360082,,,,,,,2025-09-11,1,,,,,プライムポリ,0
1830,8010803005526,新規,0,2025-09-11,2025-09-11,合同会社ウェルネスＹＡＯ,,合同会社,東京都,大田区,蒲田１丁目２３－１２スターハイツ蒲田１階,,13,111,1440052,,,,,,,2025-09-11,1,,,,,ウェルネスヤオ,0
1831,8010803005534,新規,0,2025-09-11,2025-09-11,合同会社ＨＬ　ＧＲＯＵＰ,,合同会社,東京都,大田区,上池台５丁目１０番１４号メゾン上池台１０１,,13,111,1450064,,,,,,,2025-09-11,1,,,,,エイチエルグループ,0
1838,8011001171937,新規,0,2025-09-11,2025-09-11,株式会社ＭＩＸＵＰ,,株式会社,東京都,渋谷区,桜丘町１０－８,,13,113,1500031,,,,,,,2025-09-11,1,,,,,ミックスアップ,0
1839,8011001172324,新規,0,2025-09-11,2025-09-11,うやまリゾート株式会社,,株式会社,東京都,渋谷区,恵比寿西２丁目１番８号,,13,113,1500021,,,,,,,2025-09-11,1,,,,,ウヤマリゾート,0
1854,8011505002704,新規,0,2025-09-11,2025-09-11,医療法人社団人助会,,その他の設立登記法人,東京都,荒川区,東日暮里５丁目４８番２号第一ビル２階,,13,118,1160014,,,,,,,2025-09-11,1,,,,,ジンジョカイ,0
1855,8011601028974,新規,0,2025-09-11,2025-09-11,Ｆホールディングス株式会社,,株式会社,東京都,練馬区,上石神井南町５番１６号,,13,120,1770043,,,,,,,2025-09-11,1,,,,,エフホールディングス,0
1859,8011803007082,新規,0,2025-09-11,2025-09-11,合同会社ＧａｐＬｉｎｋ,,合同会社,東京都,葛飾区,東新小岩２丁目２１－１,,13,122,1240023,,,,,,,2025-09-11,1,,,,,ギャップリンク,0
1860,8012401043585,新規,0,2025-09-11,2025-09-11,株式会社ＴＥＮ,,株式会社,東京都,三鷹市,下連雀３丁目６番５３号グランフォリア２Ｆ,,13,204,1810013,,,,,,,2025-09-11,1,,,,,テン,0
1863,8013301054879,新規,0,2025-09-11,2025-09-11,Ｌｏｒｅｏｎ株式会社,,株式会社,東京都,豊島区,北大塚２丁目２５－１アミックス大塚ビル５Ｆ,,13,116,1700004,,,,,,,2025-09-11,1,,,,,ロレオン,0
1864,8013301054929,新規,0,2025-09-11,2025-09-11,株式会社ケーイーアイホールディングス,,株式会社,東京都,豊島区,西池袋１丁目１８番２号,,13,116,1710021,,,,,,,2025-09-11,1,,,,,ケーイーアイホールディングス,0
1866,8013303007843,新規,0,2025-09-11,2025-09-11,合同会社ＮＯＩＲＣＡ,,合同会社,東京都,豊島区,東池袋２丁目６２番８号ＢＩＧオフィスプラザ池袋１２０６,,13,116,1700013,,,,,,,2025-09-11,1,,,,,ノイルカ,0
1867,8013303007876,新規,0,2025-09-11,2025-09-11,アメズ合同会社,,合同会社,東京都,豊島区,高田３丁目３番２２号開成館１０３,,13,116,1710033,,,,,,,2025-09-11,1,,,,,アメズ,0
1872,8020001164702,新規,0,2025-09-11,2025-09-11,株式会社ＴＨＥＲＡ,,株式会社,神奈川県,横浜市都筑区,仲町台１丁目１５番８－４０２号,,14,118,2240041,,,,,,,2025-09-11,1,,,,,セラ,0
1873,8020001164776,新規,0,2025-09-11,2025-09-11,株式会社Ｔｅｃｈ　Ｂｒｉｄｇｅ,,株式会社,神奈川県,川崎市麻生区,万福寺３丁目１２番１－１０１号,,14,137,2150004,,,,,,,2025-09-11,1,,,,,テックブリッジ,0
1874,8020001164792,新規,0,2025-09-11,2025-09-11,マイアセット株式会社,,株式会社,神奈川県,横浜市神奈川区,栄町１６番地５－５０６,,14,102,2210052,,,,,,,2025-09-11,1,,,,,マイアセット,0
1876,8020003029309,新規,0,2025-09-11,2025-09-11,ｏｎｅｎｅｓｓ合同会社,,合同会社,神奈川県,川崎市高津区,溝口２丁目１８番６－１０１号,,14,134,2130001,,,,,,,2025-09-11,1,,,,,ワンネス,0
1880,8021001086267,新規,0,2025-09-11,2025-09-11,株式会社荒井ＴＭＳ,,株式会社,神奈川県,横須賀市,長沢４丁目１５番１１号,,14,201,2390842,,,,,,,2025-09-11,1,,,,,アライティーエムエス,0
1883,8021003016528,新規,0,2025-09-11,2025-09-11,合同会社柚子の杜,,合同会社,神奈川県,三浦市,三崎町小網代２１番地３３,,14,210,2380225,,,,,,,2025-09-11,1,,,,,ユズノモリ,0
1890,8030001168611,新規,0,2025-09-11,2025-09-11,泓森商事株式会社,,株式会社,埼玉県,川口市,芝１丁目２番９号アレックス翠２０６号,,11,203,3330866,,,,,,,2025-09-11,1,,,,,フチモリショウジ,0
1891,8030001168636,新規,0,2025-09-11,2025-09-11,株式会社Ａｑｕａ　Ｈｅａｒｔｓ,,株式会社,埼玉県,三郷市,戸ケ崎２３０６番地５,,11,237,3410044,,,,,,,2025-09-11,1,,,,,アクアハーツ,0
1896,8030003027583,新規,0,2025-09-11,2025-09-11,ＦＲＡＹ合同会社,,合同会社,埼玉県,川口市,並木３丁目３１番２９号Ｂ１,,11,203,3320034,,,,,,,2025-09-11,1,,,,,フライ,0
1903,8040003028457,新規,0,2025-09-11,2025-09-11,合同会社志村企画,,合同会社,千葉県,千葉市美浜区,幕張西６丁目２０番地１８,,12,106,2610026,,,,,,,2025-09-11,1,,,,,シムラキカク,0
1904,8040003028465,新規,0,2025-09-11,2025-09-11,協和エナジー合同会社,,合同会社,千葉県,市川市,塩焼２丁目２番７６号,,12,203,2720114,,,,,,,2025-09-11,1,,,,,キョウワエナジー,0
1908,8050003009563,新規,0,2025-09-11,2025-09-11,ＡＮトレーディング合同会社,,合同会社,茨城県,常総市,水海道本町２６１２番地３ＪＶビル２０５号,,08,211,3030026,,,,,,,2025-09-11,1,,,,,エイエヌトレーディング,0
1912,8080405007757,新規,0,2025-09-11,2025-09-11,一般社団法人イベントメディック,,その他の設立登記法人,静岡県,浜松市中央区,田町２２３－２１ビオラ田町３Ｆ,,22,138,4300944,,,,,,,2025-09-11,1,,,,,イベントメディック,0
1915,8100001038947,新規,0,2025-09-11,2025-09-11,株式会社レヰ,,株式会社,長野県,北佐久郡軽井沢町,大字軽井沢字池ノ頭１０１３番地３２,,20,321,3890102,,,,,,,2025-09-11,1,,,,,レイ,0
1916,8100003008378,新規,0,2025-09-11,2025-09-11,ＴＯＭＯ合同会社,,合同会社,長野県,東御市,和１５２１－３,,20,219,3890505,,,,,,,2025-09-11,1,,,,,トモ,0
1923,8120001279291,新規,0,2025-09-11,2025-09-11,ＴｒｙＬｉｎｋ株式会社,,株式会社,大阪府,枚方市,杉１丁目５番１５号,,27,210,5730117,,,,,,,2025-09-11,1,,,,,トライリンク,0
1924,8120001279300,新規,0,2025-09-11,2025-09-11,株式会社ニコット,,株式会社,大阪府,枚方市,杉山手３丁目３２番７号,,27,210,5730118,,,,,,,2025-09-11,1,,,,,ニコット,0
1925,8120001279309,新規,0,2025-09-11,2025-09-11,和喜日本株式会社,,株式会社,大阪府,大阪市西淀川区,福町２丁目３番９号サニーＭＳビル福町４０１,,27,113,5550034,,,,,,,2025-09-11,1,,,,,ワキニホン,0
1926,8120001279481,新規,0,2025-09-11,2025-09-11,株式会社シーアンドジー,,株式会社,大阪府,大阪市東成区,大今里２丁目２１番６号,,27,115,5370012,,,,,,,2025-09-11,1,,,,,シーアンドジー,0
1927,8120001279498,新規,0,2025-09-11,2025-09-11,株式会社トップシークレット,,株式会社,大阪府,大阪市浪速区,日本橋東１丁目６番３－９０４号,,27,111,5560006,,,,,,,2025-09-11,1,,,,,トップシークレット,0
1928,8120001279754,新規,0,2025-09-11,2025-09-11,ＲＥＲＩＳＥ株式会社,,株式会社,大阪府,大阪市北区,天満２丁目１４番１１号ＤＩＯ４階,,27,127,5300043,,,,,,,2025-09-11,1,,,,,リライズ,0
1931,8120003030116,新規,0,2025-09-11,2025-09-11,合同会社ｍ．ｅ．ｔ　ｂｅａｕｔｙ　ｓｕｐｐｌｙ,,合同会社,大阪府,大阪市住吉区,山之内１丁目１０－２８－４０５,,27,120,5580023,,,,,,,2025-09-11,1,,,,,メットビューティサプライ,0
1933,8120901051485,新規,0,2025-09-11,2025-09-11,株式会社トライアクト,,株式会社,大阪府,茨木市,耳原２丁目８番２３号,,27,211,5670006,,,,,,,2025-09-11,1,,,,,トライアクト,0
1935,8120903005852,新規,0,2025-09-11,2025-09-11,合同会社Ｌｕｃｅ,,合同会社,大阪府,吹田市,山田東２丁目４番５－１号,,27,205,5650821,,,,,,,2025-09-11,1,,,,,ルーチェ,0
1936,8120905006790,新規,0,2025-09-11,2025-09-11,一般社団法人ＫＺ会,,その他の設立登記法人,大阪府,豊中市,東豊中町６丁目１３番１－９１２号,,27,203,5600003,,,,,,,2025-09-11,1,,,,,ケーゼットカイ,0
1941,8130001080459,新規,0,2025-09-11,2025-09-11,株式会社メラキコンサルティング,,株式会社,京都府,相楽郡精華町,大字東畑小字南山中２７－１,,26,366,6190235,,,,,,,2025-09-11,1,,,,,メラキコンサルティング,0
1942,8130001080491,新規,0,2025-09-11,2025-09-11,株式会社ＶＳＮ,,株式会社,京都府,京都市中京区,海老屋町３２３－４日宝御幸町ビル１Ｆ,,26,104,6048076,,,,,,,2025-09-11,1,,,,,ブイエスエヌ,0
1943,8130001080500,新規,0,2025-09-11,2025-09-11,株式会社芥舟,,株式会社,京都府,京都市伏見区,竹田久保町２番地９８ＫＡＹＡ４Ｆ,,26,109,6128411,,,,,,,2025-09-11,1,,,,,カイシュウ,0
1944,8130001080509,新規,0,2025-09-11,2025-09-11,株式会社メゾンミロク,,株式会社,京都府,京都市下京区,妙伝寺町７２０番地,,26,106,6008472,,,,,,,2025-09-11,1,,,,,メゾンミロク,0
1945,8130001080558,新規,0,2025-09-11,2025-09-11,株式会社大川碾茶工房,,株式会社,京都府,綴喜郡宇治田原町,大字南小字東所２０番地,,26,344,6100241,,,,,,,2025-09-11,1,,,,,オオカワテンチャコウボウ,0
1951,8140001139964,新規,0,2025-09-11,2025-09-11,株式会社三耀,,株式会社,兵庫県,明石市,旭が丘１４－１,,28,203,6730002,,,,,,,2025-09-11,1,,,,,サンヨウ,0
1964,8180001168555,新規,0,2025-09-11,2025-09-11,ＡＳＡＨＩ株式会社,,株式会社,愛知県,名古屋市中区,三の丸１丁目１４番７号本丸ビル３１１号室,,23,106,4600001,,,,,,,2025-09-11,1,,,,,アサヒ,0
1965,8180001168596,新規,0,2025-09-11,2025-09-11,株式会社マリア治療院,,株式会社,愛知県,名古屋市守山区,小幡４丁目１７番５号（プラセシオン小幡ガーデン３０３号）,,23,113,4630011,,,,,,,2025-09-11,1,,,,,マリアチリョウイン,0
1966,8180001168613,新規,0,2025-09-11,2025-09-11,株式会社金魚,,株式会社,愛知県,名古屋市港区,東築地町６番地３３,,23,111,4550023,,,,,,,2025-09-11,1,,,,,キンギョ,0
1968,8180301040199,新規,0,2025-09-11,2025-09-11,株式会社ＩＺＵＭＯメモリアルサポート,,株式会社,愛知県,豊田市,小坂本町２丁目４３番地１,,23,211,4710034,,,,,,,2025-09-11,1,,,,,イズモメモリアルサポート,0
1971,8190003005160,新規,0,2025-09-11,2025-09-11,合同会社ボディジュエリー,,合同会社,三重県,松阪市,曽原町２４２番地９,,24,204,5152112,,,,,,,2025-09-11,1,,,,,ボディジュエリー,0
1972,8200001044241,新規,0,2025-09-11,2025-09-11,株式会社ＴＥＲＥＡ,,株式会社,岐阜県,加茂郡坂祝町,黒岩１５１２番地６２,,21,501,5050071,,,,,,,2025-09-11,1,,,,,テリア,0
1974,8200003007015,新規,0,2025-09-11,2025-09-11,Ｅｖｅｒｇｒｅｅｎ合同会社,,合同会社,岐阜県,岐阜市,薮田南５丁目１番１号,,21,201,5008384,,,,,,,2025-09-11,1,,,,,エバーグリーン,0
1979,8220001026923,新規,0,2025-09-11,2025-09-11,株式会社ミライバンク,,株式会社,石川県,金沢市,額新保３丁目１９７番地２,,17,201,9218148,,,,,,,2025-09-11,1,,,,,ミライバンク,0
1985,8250001021327,新規,0,2025-09-11,2025-09-11,株式会社ブライトリンク光,,株式会社,山口県,光市,光井４丁目２７番２０号,,35,210,7430011,,,,,,,2025-09-11,1,,,,,ブライトリンクヒカリ,0
1986,8250003003810,新規,0,2025-09-11,2025-09-11,合同会社Ａｒｔｅｎａ,,合同会社,山口県,岩国市,周東町祖生３７８３番地,,35,208,7420301,,,,,,,2025-09-11,1,,,,,アルテナ,0
1999,8290001111479,新規,0,2025-09-11,2025-09-11,パープルネットワーク株式会社,,株式会社,福岡県,福岡市博多区,上川端町３番６号,,40,132,8120026,,,,,,,2025-09-11,1,,,,,パープルネットワーク,0
2000,8290001111487,新規,0,2025-09-11,2025-09-11,株式会社Ｇｌｏｂａｌ　Ｏｆｆｉｃｅ　Ｋ’ｓ,,株式会社,福岡県,福岡市中央区,草香江２丁目６番１７号,,40,133,8100045,,,,,,,2025-09-11,1,,,,,グローバルオフィスケイズ,0
2002,8290003017352,新規,0,2025-09-11,2025-09-11,合同会社米八,,合同会社,福岡県,福岡市博多区,御供所町５－８－１０６,,40,132,8120037,,,,,,,2025-09-11,1,,,,,ヨネハチ,0
2011,8330003011210,新規,0,2025-09-11,2025-09-11,合同会社カケアシ,,合同会社,熊本県,合志市,御代志１３２９番地５３,,43,216,8611104,,,,,,,2025-09-11,1,,,,,カケアシ,0
2014,8340003004948,新規,0,2025-09-11,2025-09-11,合同会社Ｋａｎａｔａ,,合同会社,鹿児島県,鹿児島市,山之口町１１番１３号－５Ｆ,,46,201,8920844,,,,,,,2025-09-11,1,,,,,カナタ,0
2015,8350001019724,新規,0,2025-09-11,2025-09-11,ＥＵＲＯ　ＮＩＰＰＯＮ　ＭＯＴＯＲＳ株式会社,,株式会社,宮崎県,都城市,下川東２丁目２５号７番地,,45,202,8850011,,,,,,,2025-09-11,1,,,,,ユーロニッポンモータース,0
2021,8380001035553,新規,0,2025-09-11,2025-09-11,株式会社柴原歯研,,株式会社,福島県,郡山市,開成２丁目３１番８号,,07,203,9638851,,,,,,,2025-09-11,1,,,,,シバハラシケン,0
2022,8390003002443,新規,0,2025-09-11,2025-09-11,Ｓｎｏｗｔａｎｉ合同会社,,合同会社,山形県,山形市,鈴川町３丁目４番２１号タケシンビル２０２号室,,06,201,9900062,,,,,,,2025-09-11,1,,,,,スノータニ,0
2025,8410001014272,新規,0,2025-09-11,2025-09-11,株式会社ライアン,,株式会社,秋田県,秋田市,手形字扇田４２番地１１,,05,201,0100851,,,,,,,2025-09-11,1,,,,,ライアン,0
2027,8420001019254,新規,0,2025-09-11,2025-09-11,株式会社Ｓ,,株式会社,青森県,上北郡野辺地町,字新町裏４７番地１１ワークポイントヒロ１０１号室,,02,401,0393163,,,,,,,2025-09-11,1,,,,,エス,0
2030,8430001095187,新規,0,2025-09-11,2025-09-11,ＲｅＭＥＮＴＩＡ株式会社,,株式会社,北海道,札幌市北区,北十条西３丁目２３番１ＴＨＥ　ＰＥＡＫ　ＳＡＰＰＯＲＯ１階,,01,102,0010010,,,,,,,2025-09-11,1,,,,,リメンシア,0
2032,8440001009682,新規,0,2025-09-11,2025-09-11,株式会社伊藤,,株式会社,北海道,亀田郡七飯町,緑町３丁目２５０番地６,,01,337,0411135,,,,,,,2025-09-11,1,,,,,イトウ,0
2036,8470005006649,新規,0,2025-09-11,2025-09-11,ＮＰＯ法人きづき,,その他の設立登記法人,香川県,丸亀市,中津町７５６番地５,,37,202,7630054,,,,,,,2025-09-11,1,,,,,,0
2044,9010001258413,新規,0,2025-09-11,2025-09-11,ドットアンドライン株式会社,,株式会社,東京都,千代田区,麹町４丁目５番地２０,,13,101,1020083,,,,,,,2025-09-11,1,,,,,ドットアンドライン,0
2046,9010003048688,新規,0,2025-09-11,2025-09-11,Ｄ＆Ｄ合同会社,,合同会社,東京都,文京区,白山２丁目２－７宮田ビル１階,,13,105,1120001,,,,,,,2025-09-11,1,,,,,ディーアンドディー,0
2058,9010501054700,新規,0,2025-09-11,2025-09-11,株式会社ＯＮＬＹ,,株式会社,東京都,台東区,日本堤２丁目２９番１２－２０３号クレヴィスタ南千住,,13,106,1110021,,,,,,,2025-09-11,1,,,,,オンリー,0
2061,9010601067949,新規,0,2025-09-11,2025-09-11,株式会社ＣＭＡ,,株式会社,東京都,江東区,大島３丁目２６番１－３０２号,,13,108,1360072,,,,,,,2025-09-11,1,,,,,シーエムエー,0
2062,9010601067957,新規,0,2025-09-11,2025-09-11,株式会社キッチン提督,,株式会社,東京都,墨田区,江東橋３丁目５番１号第一立田ビル地下１階,,13,107,1300022,,,,,,,2025-09-11,1,,,,,キッチンテイトク,0
2065,9010801036588,新規,0,2025-09-11,2025-09-11,株式会社ＰＩＮＫ　ＴＯＫＹＯ　ＪＡＰＡＮ,,株式会社,東京都,大田区,中馬込３丁目２９番１２号,,13,111,1430027,,,,,,,2025-09-11,1,,,,,ピンクトウキョウジャパン,0
2068,9011003022518,新規,0,2025-09-11,2025-09-11,ＡＲＴｅ合同会社,,合同会社,東京都,目黒区,東山３丁目２２番３３―２０４号Ｄグランセ目黒東山,,13,110,1530043,,,,,,,2025-09-11,1,,,,,アルテ,0
2077,9011501032530,新規,0,2025-09-11,2025-09-11,株式会社ＧＣネクスト,,株式会社,東京都,荒川区,東尾久４丁目１３番８号,,13,118,1160012,,,,,,,2025-09-11,1,,,,,ジーシーネクスト,0
2079,9011601028973,新規,0,2025-09-11,2025-09-11,株式会社Ｍａｒｉｓｅｌｌｅ,,株式会社,東京都,練馬区,春日町１丁目１８番３３号,,13,120,1790074,,,,,,,2025-09-11,1,,,,,マリセル,0
2085,9012401043568,新規,0,2025-09-11,2025-09-11,ＷｅＭｏｒｅ株式会社,,株式会社,東京都,府中市,清水が丘２丁目５６番１８号２階,,13,206,1830015,,,,,,,2025-09-11,1,,,,,ウィーモア,0
2088,9012801024242,新規,0,2025-09-11,2025-09-11,株式会社Ｂｅｌｌｐｌｕｓ,,株式会社,東京都,立川市,錦町１丁目４番１９号マツシマビル第２・２０２号室,,13,202,1900022,,,,,,,2025-09-11,1,,,,,ベルプラス,0
2090,9013301054936,新規,0,2025-09-11,2025-09-11,株式会社ＨＡＶＡＧＥ　ＶＩＮＴＡＧＥ,,株式会社,東京都,豊島区,池袋４丁目２５番１号紘亜ビル,,13,116,1710014,,,,,,,2025-09-11,1,,,,,ハヴェッジヴィンテージ,0
2091,9013301054944,新規,0,2025-09-11,2025-09-11,株式会社Ｋａｉｒｏｓ,,株式会社,東京都,豊島区,上池袋４丁目３５－１１ＴＯＰ上池袋４０２号室,,13,116,1700012,,,,,,,2025-09-11,1,,,,,カイロス,0
2092,9013303007850,新規,0,2025-09-11,2025-09-11,ＨＣＢ合同会社,,合同会社,東京都,豊島区,北大塚２丁目７番２号第六不二ハイツ６３Ｃ号,,13,116,1700004,,,,,,,2025-09-11,1,,,,,エイチシービー,0
2093,9013303007867,新規,0,2025-09-11,2025-09-11,合同会社相誠,,合同会社,東京都,豊島区,東池袋２丁目６２番８号ＢＩＧオフィスプラザ池袋１２０６号,,13,116,1700013,,,,,,,2025-09-11,1,,,,,アイセイ,0
2094,9013305003757,新規,0,2025-09-11,2025-09-11,医療法人社団ふくろうの樹,,その他の設立登記法人,東京都,豊島区,巣鴨１丁目４０番５号ＳＨＩＲＯビルヂング４階,,13,116,1700002,,,,,,,2025-09-11,1,,,,,フクロウノキ,0
2100,9020001164726,新規,0,2025-09-11,2025-09-11,株式会社デジテクト,,株式会社,神奈川県,横浜市西区,浅間町１丁目４番３号ウィザードビル４０２,,14,103,2200072,,,,,,,2025-09-11,1,,,,,デジテクト,0
2101,9020001164742,新規,0,2025-09-11,2025-09-11,株式会社ハピネクスト,,株式会社,神奈川県,横浜市神奈川区,金港町５－１４クアドリフォリオ８階,,14,102,2210056,,,,,,,2025-09-11,1,,,,,ハピネクスト,0
2102,9020001164759,新規,0,2025-09-11,2025-09-11,阪豚国際株式会社,,株式会社,神奈川県,横浜市中区,石川町１丁目１３－２－３０５,,14,104,2310868,,,,,,,2025-09-11,1,,,,,ハントンコクサイ,0
2103,9020001164858,新規,0,2025-09-11,2025-09-11,株式会社ネクサスランド,,株式会社,神奈川県,横浜市神奈川区,白楽１番地１－４０１号,,14,102,2210065,,,,,,,2025-09-11,1,,,,,ネクサスランド,0
2105,9020003029308,新規,0,2025-09-11,2025-09-11,合同会社キャルクス,,合同会社,神奈川県,横浜市神奈川区,子安通３丁目３４６番地３クレストフォルム横浜グランステージ２０８号,,14,102,2210021,,,,,,,2025-09-11,1,,,,,キャルクス,0
2106,9020005016980,新規,0,2025-09-11,2025-09-11,一般社団法人ＭＥ‐ＢＹＯグローバル戦略センター,,その他の設立登記法人,神奈川県,川崎市川崎区,殿町３丁目２５番２２号ライフイノベーションセンター,,14,131,2100821,,,,,,,2025-09-11,1,,,,,,0
2116,9030001168379,新規,0,2025-09-11,2025-09-11,株式会社Ｎａｋａｎｏ,,株式会社,埼玉県,蓮田市,大字閏戸４０７１番地１０,,11,238,3490133,,,,,,,2025-09-11,1,,,,,ナカノ,0
2118,9030001168602,新規,0,2025-09-11,2025-09-11,株式会社Ｉ．Ｎ．Ｕ．Ｓ,,株式会社,埼玉県,さいたま市中央区,本町東２丁目１０番３号,,11,105,3380003,,,,,,,2025-09-11,1,,,,,アイエヌユーエス,0
2121,9040001140295,新規,0,2025-09-11,2025-09-11,株式会社ソニッククリーン,,株式会社,千葉県,我孫子市,柴崎８８０番地の１キャロット我孫子２０４,,12,222,2701177,,,,,,,2025-09-11,1,,,,,ソニッククリーン,0
2122,9040001140403,新規,0,2025-09-11,2025-09-11,株式会社ＥＣＨＯ,,株式会社,千葉県,柏市,あけぼの２丁目９番５－２号,,12,217,2770841,,,,,,,2025-09-11,1,,,,,エコー,0
2123,9040001140444,新規,0,2025-09-11,2025-09-11,株式会社ＲａｙＬａ,,株式会社,千葉県,松戸市,常盤平４丁目１１番地の２０,,12,207,2702261,,,,,,,2025-09-11,1,,,,,レイラ,0
2124,9040001140460,新規,0,2025-09-11,2025-09-11,株式会社Ｊ．Ｂ．ヴァンダナ,,株式会社,千葉県,我孫子市,布佐２００２番地の２７,,12,222,2701101,,,,,,,2025-09-11,1,,,,,ジェイビーヴァンダナ,0
2126,9050001057258,新規,0,2025-09-11,2025-09-11,株式会社住谷電設,,株式会社,茨城県,那珂市,額田南郷１６０３番地４,,08,226,3110107,,,,,,,2025-09-11,1,,,,,スミヤデンセツ,0
2127,9050003009562,新規,0,2025-09-11,2025-09-11,ＳＨＡＮ　ＢＯＵＥＫＩ　ＴＲＡＤＩＮＧ合同会社,,合同会社,茨城県,筑西市,小川字前原１３９１番地３６０,,08,227,3080857,,,,,,,2025-09-11,1,,,,,シャンボウエキトレーディング,0
2130,9070001043330,新規,0,2025-09-11,2025-09-11,ＫＩＳＳＡＮ　ＴＲＡＤＩＮＧ株式会社,,株式会社,群馬県,前橋市,西片貝町４丁目１番地の９グリーンハイツ西片貝Ａ－２０２,,10,201,3710013,,,,,,,2025-09-11,1,,,,,キサントレーディング,0
2136,9080401028161,新規,0,2025-09-11,2025-09-11,株式会社アクアパイプ東亜,,株式会社,静岡県,菊川市,下平川７０４番地の１,,22,224,4371514,,,,,,,2025-09-11,1,,,,,アクアパイプトウア,0
2139,9100001038938,新規,0,2025-09-11,2025-09-11,株式会社パイオニスト,,株式会社,長野県,下伊那郡松川町,元大島１５５８番地,,20,402,3993303,,,,,,,2025-09-11,1,,,,,パイオニスト,0
2142,9110001039555,新規,0,2025-09-11,2025-09-11,株式会社メルエＵＩ,,株式会社,新潟県,長岡市,藤橋１丁目１９０番地１,,15,202,9402141,,,,,,,2025-09-11,1,,,,,メルエユーアイ,0
2157,9120001279324,新規,0,2025-09-11,2025-09-11,株式会社ひとあんど,,株式会社,大阪府,守口市,金田町１丁目７１番１６－１号,,27,209,5700011,,,,,,,2025-09-11,1,,,,,ヒトアンド,0
2158,9120001279407,新規,0,2025-09-11,2025-09-11,観照株式会社,,株式会社,大阪府,大阪市都島区,東野田町４丁目１－５吉升ビル３１１号,,27,102,5340024,,,,,,,2025-09-11,1,,,,,カンショウ,0
2159,9120001279480,新規,0,2025-09-11,2025-09-11,ＴＲＹＮＳ株式会社,,株式会社,大阪府,枚方市,香里ケ丘１２丁目２３番１号,,27,210,5730084,,,,,,,2025-09-11,1,,,,,トリンズ,0
2160,9120001279514,新規,0,2025-09-11,2025-09-11,火山株式会社,,株式会社,大阪府,大阪市生野区,巽北１丁目７番３号３０３号室,00140615,27,116,5440004,,,,,,,2025-09-11,1,,,,,ヒサン,0
2165,9120101072208,新規,0,2025-09-11,2025-09-11,内本株式会社,,株式会社,大阪府,藤井寺市,岡２丁目９番６－１０３号,,27,226,5830027,,,,,,,2025-09-11,1,,,,,ウチモト,0
2167,9120103006700,新規,0,2025-09-11,2025-09-11,合同会社ＨＩ＆ＬＯＷ,,合同会社,大阪府,松原市,別所５丁目２３番４号,,27,217,5800005,,,,,,,2025-09-11,1,,,,,ハイアンドロー,0
2169,9120901051484,新規,0,2025-09-11,2025-09-11,株式会社ＲＥＵＮＩＳ,,株式会社,大阪府,箕面市,今宮４丁目１２番２３号の１,,27,220,5620033,,,,,,,2025-09-11,1,,,,,,0
2173,9130001080466,新規,0,2025-09-11,2025-09-11,株式会社Ｇｒｏｗ　Ｅｙｅｓ,,株式会社,京都府,亀岡市,大井町土田３９－１８－２Ｆ,,26,206,6210011,,,,,,,2025-09-11,1,,,,,グロウアイズ,0
2174,9130001080474,新規,0,2025-09-11,2025-09-11,株式会社ＪＧＣホールディングス,,株式会社,京都府,京都市伏見区,深草泓ノ壺町１６番地スペリオン１号館６号,,26,109,6128435,,,,,,,2025-09-11,1,,,,,ジェージーシーホールディングス,0
2184,9140001139988,新規,0,2025-09-11,2025-09-11,株式会社鈴屋,,株式会社,兵庫県,神戸市西区,竹の台６丁目３番地８０２号,,28,111,6512274,,,,,,,2025-09-11,1,,,,,スズヤ,0
2185,9140001139996,新規,0,2025-09-11,2025-09-11,株式会社ベルデガーデン,,株式会社,兵庫県,神戸市中央区,北長狭通１丁目２番１５号さくら三宮ステーション５階,,28,110,6500012,,,,,,,2025-09-11,1,,,,,ベルデガーデン,0
2186,9140001140005,新規,0,2025-09-11,2025-09-11,ｊ‐ｌｉｎｋ．Ｌａｂｏ株式会社,,株式会社,兵庫県,西宮市,高座町１５番３５号,,28,204,6620872,,,,,,,2025-09-11,1,,,,,ジェイリンクラボ,0
2190,9140003022548,新規,0,2025-09-11,2025-09-11,ＳＡＬＥＥＭ　ＩＮＴＥＲＮＡＴＩＯＮＡＬ合同会社,,合同会社,兵庫県,神戸市長田区,長者町７番９号親和ハウス２０１,,28,106,6530866,,,,,,,2025-09-11,1,,,,,サリームインターナショナル,0
2198,9180001168521,新規,0,2025-09-11,2025-09-11,株式会社ミノリツールズ,,株式会社,愛知県,東海市,高横須賀町６丁目１５５番地の２,,23,222,4770037,,,,,,,2025-09-11,1,,,,,ミノリツールズ,0
2201,9180003028938,新規,0,2025-09-11,2025-09-11,Ｍ．Ａ．Ｉ合同会社,,合同会社,愛知県,名古屋市昭和区,山中町１丁目８１番地（メゾン・ド・アベーユ０３０５号）,,23,107,4660828,,,,,,,2025-09-11,1,,,,,エムエイアイ,0
2202,9180301040207,新規,0,2025-09-11,2025-09-11,株式会社サトノミライ,,株式会社,愛知県,岡崎市,羽栗町字多賀屋敷９１番９２番合併地,,23,202,4443514,,,,,,,2025-09-11,1,,,,,サトノミライ,0
2208,9220005008999,新規,0,2025-09-11,2025-09-11,一般社団法人山節,,その他の設立登記法人,石川県,珠洲市,三崎町杉山２０部３９番地,,17,205,9271466,,,,,,,2025-09-11,1,,,,,,0
2211,9260001040531,新規,0,2025-09-11,2025-09-11,株式会社Ｒｉｃｅ　ｏｎ　Ｂｅｓｔ,,株式会社,岡山県,岡山市東区,松新町３４５番地１０,,33,103,7048174,,,,,,,2025-09-11,1,,,,,ライスオンベスト,0
2216,9290001111461,新規,0,2025-09-11,2025-09-11,ＢＫＤ株式会社,,株式会社,福岡県,福岡市西区,小戸４丁目９番１２,,40,135,8190001,,,,,,,2025-09-11,1,,,,,ビィケーディ,0
2218,9300001014349,新規,0,2025-09-11,2025-09-11,株式会社セルロースＳＡＧＡ,,株式会社,佐賀県,佐賀市,大和町大字久留間３０４１番地４,,41,201,8400213,,,,,,,2025-09-11,1,,,,,セルロースサガ,0
2219,9320001021335,新規,0,2025-09-11,2025-09-11,株式会社リフィックス,,株式会社,大分県,大分市,金池南１丁目１１番３－４０９号ブルーハイツ上野丘,,44,201,8700839,,,,,,,2025-09-11,1,,,,,リフィックス,0
2220,9320003004759,新規,0,2025-09-11,2025-09-11,合同会社心これのり,,合同会社,大分県,中津市,大字是則９５２番地の３,,44,203,8710003,,,,,,,2025-09-11,1,,,,,ココロコレノリ,0
2221,9320003004767,新規,0,2025-09-11,2025-09-11,あや志合同会社,,合同会社,大分県,由布市,挾間町赤野７０７番地５,,44,213,8795516,,,,,,,2025-09-11,1,,,,,アヤジ,0
2223,9340001027644,新規,0,2025-09-11,2025-09-11,株式会社ｅ‐Ｃｅａｒｒａｓ,,株式会社,鹿児島県,日置市,伊集院町大田７番地,,46,216,8992521,,,,,,,2025-09-11,1,,,,,イーシーラス,0
2226,9340003004947,新規,0,2025-09-11,2025-09-11,合同会社グッドスマイル,,合同会社,鹿児島県,鹿児島市,伊敷５丁目２３－７リバーサイド旭１０１,,46,201,8900008,,,,,,,2025-09-11,1,,,,,グッドスマイル,0
2231,9420003003180,新規,0,2025-09-11,2025-09-11,合同会社ｉＬ’ｙｓ．,,合同会社,青森県,八戸市,大字鍛冶町２８番地,,02,203,0310037,,,,,,,2025-09-11,1,,,,,イリス,0
2235,9430003018070,新規,0,2025-09-11,2025-09-11,ＮＯＭＡＤＯ合同会社,,合同会社,北海道,虻田郡倶知安町,北四条西２丁目１６番地４マンション宝ブロードヒル１０２号室,,01,400,0440054,,,,,,,2025-09-11,1,,,,,ノマド,0
2236,9430005015297,新規,0,2025-09-11,2025-09-11,ＦＵＪＩＴＡ行政書士法人,,その他の設立登記法人,北海道,札幌市東区,北七条東３丁目２８番３２号井門札幌東ビル４Ｆ,,01,103,0600907,,,,,,,2025-09-11,1,,,,,フジタ,0
2239,9460001006033,新規,0,2025-09-11,2025-09-11,株式会社リライト,,株式会社,北海道,釧路市,柏木町１０番１０号,,01,206,0850824,,,,,,,2025-09-11,1,,,,,リライト,0
2241,9460103001741,新規,0,2025-09-11,2025-09-11,合同会社トラストリンク,,合同会社,北海道,帯広市,西十条南３９丁目５番２号,,01,207,0800020,,,,,,,2025-09-11,1,,,,,トラストリンク,0
2244,9500001026514,新規,0,2025-09-11,2025-09-11,株式会社幸せ大工,,株式会社,愛媛県,松山市,松前町３丁目１番地２号１階,,38,201,7900812,,,,,,,2025-09-11,1,,,,,シアワセダイク,0
2246,9700150132159,新規,0,2025-09-11,2025-09-11,Ｗｕｈａｎ　Ｎａｙｉ　Ｅｌｅｃｔｒｏｎｉｃ　Ｔｅｃｈｎｏｌｏｇｙ　Ｃｏ．，Ｌｔｄ．,,外国会社等,,,,,,,,Ｎｏ．５０５，５ｔｈ　Ｆｌｏｏｒ，（Ｈｕｓｈａｎ　Ｓｃｉｅｎｃｅ　ａｎｄ　Ｔｅｃｈｎｏｌｏｇｙ　Ｉｎｎｏｖａｔｉｏｎ　Ｂｕｉｌｄｉｎｇ）Ｐｈａｓｅ　ＩＩＩ　ｏｆ　Ｗｕｈａｎ　Ｕｎｉｖｅｒｓｉｔｙ　ｏｆ　Ｔｅｃｈｎｏｌｏｇｙ　Ｉｎｃｕｂａｔｉｏｎ　Ｂｕｉｌｄｉｎｇ，４３　Ｗｅｎｚｈｉ　Ｓｔｒｅｅｔ，Ｈｏｎｇｓｈａｎ　Ｓｕｂｄｉｓｔｒｉｃｔ，Ｈｏｎｇｓｈａｎ　Ｄｉｓｔｒｉｃｔ，Ｗｕｈａｎ　Ｃｉｔｙ，Ｈｕｂｅｉ　Ｐｒｏｖｉｎｃｅ，Ｃｈｉｎａ,00140574,,,,,2025-09-11,1,,,,,ウーハンナイイレクトゥロニックテクノロジーカンパニーリミテッド,0
