sequenceNumber,corporateNumber,process,correct,updateDate,changeDate,name,nameImageId,kind,prefectureName,cityName,streetNumber,addressImageId,prefectureCode,cityCode,postCode,addressOutside,addressOutsideImageId,closeDate,closeCause,successorCorporateNumber,changeCause,assignmentDate,latest,enName,enPrefectureName,enCityName,enAddressOutside,furigana,hihyoji
6,1010001233051,新規,0,2023-02-17,2023-02-17,株式会社Ｃｌｏｕｄ　ｎｉｎｅ,,株式会社,東京都,千代田区,九段北１丁目１３番９－１７０１号,,13,101,1020073,,,,,,,2023-02-17,1,,,,,クラウドナイン,0
7,1010001233068,新規,0,2023-02-17,2023-02-17,西日本カーボン貯留調査株式会社,,株式会社,東京都,千代田区,大手町１丁目１番２号,,13,101,1000004,,,,,,,2023-02-17,1,,,,,ニシニホンカーボンチョリュウチョウサ,0
8,1010001233076,新規,0,2023-02-17,2023-02-17,ＪＩＡＲＥ第１号株式会社,,株式会社,東京都,千代田区,霞が関３丁目２番１号,,13,101,1000013,,,,,,,2023-02-17,1,,,,,ジェイアイエーアールイーダイイチゴウ,0
12,1010003039851,新規,0,2023-02-17,2023-02-17,合同会社ソラトブ,,合同会社,東京都,文京区,湯島４丁目６－１２湯島ハイタウン９１４,,13,105,1130034,,,,,,,2023-02-17,1,,,,,ソラトブ,0
20,1010401172584,新規,0,2023-02-17,2023-02-17,株式会社マーケティングサポート,,株式会社,東京都,港区,南青山２丁目２番１５号,,13,103,1070062,,,,,,,2023-02-17,1,,,,,マーケティングサポート,0
22,1010403029493,新規,0,2023-02-17,2023-02-17,立川大黒屋合同会社,,合同会社,東京都,港区,芝浦４丁目５番４号,,13,103,1080023,,,,,,,2023-02-17,1,,,,,タチカワダイコクヤ,0
23,1010403029543,新規,0,2023-02-17,2023-02-17,合同会社ＡｌｇｏＰａｒａｄｅ,,合同会社,東京都,港区,浜松町２丁目２番１５号浜松町ダイヤビル２Ｆ,,13,103,1050013,,,,,,,2023-02-17,1,,,,,アルゴパレード,0
24,1010403029568,新規,0,2023-02-17,2023-02-17,神谷町キャピタル・フォーＢ合同会社,,合同会社,東京都,港区,虎ノ門３丁目１８番１２－５０２号株式会社虎ノ門会計神谷町分室内,,13,103,1050001,,,,,,,2023-02-17,1,,,,,カミヤチョウキャピタルフォービー,0
27,1010503006888,新規,0,2023-02-17,2023-02-17,Ｓｐｅｌｌｂｒｕｓｈ　Ｊａｐａｎ合同会社,,合同会社,東京都,台東区,池之端１丁目４－３３－１８０３,,13,106,1100008,,,,,,,2023-02-17,1,,,,,スペルブラッシュジャパン,0
33,1010705003477,新規,0,2023-02-17,2023-02-17,一般社団法人経財イノベーション協会,,その他の設立登記法人,東京都,品川区,大崎１丁目２０番８号,,13,109,1410032,,,,,,,2023-02-17,1,,,,,ケイザイイノベーションキョウカイ,0
39,1010901052567,新規,0,2023-02-17,2023-02-17,株式会社ラボクリエイト,,株式会社,東京都,世田谷区,松原６丁目２０番２２号ＭＴＵハウスＢ号室,,13,112,1560043,,,,,,,2023-02-17,1,,,,,ラボクリエイト,0
44,1011001152621,新規,0,2023-02-17,2023-02-17,株式会社ＮＯＴＥ,,株式会社,東京都,渋谷区,神宮前６丁目２３番４号桑野ビル２階,,13,113,1500001,,,,,,,2023-02-17,1,,,,,ノート,0
50,1011201024430,新規,0,2023-02-17,2023-02-17,株式会社エンゼルアースクリエーション,,株式会社,東京都,中野区,東中野１丁目５８番１６－３０３号,,13,114,1640003,,,,,,,2023-02-17,1,,,,,エンゼルアースクリエーション,0
53,1011501028981,新規,0,2023-02-17,2023-02-17,アポクロス株式会社,,株式会社,東京都,荒川区,東日暮里６丁目５８番５号,,13,118,1160014,,,,,,,2023-02-17,1,,,,,アポクロス,0
54,1011503005483,新規,0,2023-02-17,2023-02-17,合同会社祐,,合同会社,東京都,北区,滝野川６丁目２１番７－６０２号パークアクシス滝野川ラブリーズ,,13,117,1140023,,,,,,,2023-02-17,1,,,,,ユウ,0
56,1011703003386,新規,0,2023-02-17,2023-02-17,ＢａｍｂｏｏＣｒｏｗｎ合同会社,,合同会社,東京都,江戸川区,平井１丁目２番２１号,,13,123,1320035,,,,,,,2023-02-17,1,,,,,バンブークラウン,0
57,1011801041949,新規,0,2023-02-17,2023-02-17,株式会社ステップパートナーズ,,株式会社,東京都,足立区,梅島１丁目５番２３号,,13,121,1210816,,,,,,,2023-02-17,1,,,,,ステップパートナーズ,0
60,1012401040192,新規,0,2023-02-17,2023-02-17,株式会社ＺＩＧＺＡＧ　ＭＵＳＩＣ,,株式会社,東京都,武蔵野市,吉祥寺本町２丁目１１番８号横山ビル３Ｆ,,13,203,1800004,,,,,,,2023-02-17,1,,,,,ジグザグミュージック,0
62,1013305003434,新規,0,2023-02-17,2023-02-17,長崎行政書士法人,00129486,その他の設立登記法人,東京都,豊島区,目白２丁目１６－２２久野ビル２Ｆ,,13,116,1710031,,,,,,,2023-02-17,1,,,,,ナガサキ,0
75,1021001078238,新規,0,2023-02-17,2023-02-17,株式会社Ｊｉｎｅ,,株式会社,神奈川県,鎌倉市,御成町１１－１０,,14,204,2480012,,,,,,,2023-02-17,1,,,,,ジン,0
76,1021001078246,新規,0,2023-02-17,2023-02-17,株式会社ラック,,株式会社,神奈川県,茅ヶ崎市,緑が浜９番１５－６０９号ランドステージ茅ヶ崎オーシャンビュー,,14,207,2530034,,,,,,,2023-02-17,1,,,,,ラック,0
78,1030001152456,新規,0,2023-02-17,2023-02-17,株式会社ｆｏｒＣアソシエイト自動車,,株式会社,埼玉県,北葛飾郡松伏町,大字田島２５０－３,,11,465,3430105,,,,,,,2023-02-17,1,,,,,フォーシーアソシエイトジドウシャ,0
79,1030001152464,新規,0,2023-02-17,2023-02-17,株式会社Ｂｅｓｔ　Ｃｏｎｎｅｃｔｉｏｎ,,株式会社,埼玉県,富士見市,上沢１丁目４番４号,,11,235,3540034,,,,,,,2023-02-17,1,,,,,ベストコネクション,0
85,1040001127119,新規,0,2023-02-17,2023-02-17,河村製瓦株式会社,,株式会社,千葉県,船橋市,三山２丁目６番３４号,,12,204,2740072,,,,,,,2023-02-17,1,,,,,カワムラセイガ,0
86,1040001127135,新規,0,2023-02-17,2023-02-17,株式会社ｈａｌｅａｉｎａ,,株式会社,千葉県,千葉市美浜区,真砂４丁目２番５号,,12,106,2610011,,,,,,,2023-02-17,1,,,,,ハレアイナ,0
90,1040003021930,新規,0,2023-02-17,2023-02-17,Ｔｒａｄｉｎｇ　Ｕｎｉｖｅｒｓｅ合同会社,,合同会社,千葉県,船橋市,印内町６１２番地プルミエール西船３０７号,,12,204,2730025,,,,,,,2023-02-17,1,,,,,トレーディングユニバース,0
91,1040003021963,新規,0,2023-02-17,2023-02-17,アメタ商店合同会社,,合同会社,千葉県,富里市,根木名８６７番地,,12,233,2860205,,,,,,,2023-02-17,1,,,,,アメタショウテン,0
105,1070005010086,新規,0,2023-02-17,2023-02-17,一般社団法人自活サポート,,その他の設立登記法人,群馬県,高崎市,菊地町２９５番地８,,10,202,3700084,,,,,,,2023-02-17,1,,,,,ジカツサポート,0
117,1100003006883,新規,0,2023-02-17,2023-02-17,合同会社蕊,,合同会社,長野県,北佐久郡軽井沢町,大字発地１２２６－４７小倉の里Ｋ－２４,,20,321,3890113,,,,,,,2023-02-17,1,,,,,スイ,0
128,1120001252528,新規,0,2023-02-17,2023-02-17,株式会社リアライズ,,株式会社,大阪府,大阪市福島区,玉川２丁目８番４号大阪福島サウスビル６０１,,27,103,5530004,,,,,,,2023-02-17,1,,,,,リアライズ,0
129,1120001252552,新規,0,2023-02-17,2023-02-17,ｆｕｔｕｒｅＤｅｓｉｇｎ株式会社,,株式会社,大阪府,大阪市西区,新町１丁目１２番７－７０１号,,27,106,5500013,,,,,,,2023-02-17,1,,,,,フューチャーデザイン,0
130,1120001252560,新規,0,2023-02-17,2023-02-17,トーシンビル管理株式会社,,株式会社,大阪府,大阪市阿倍野区,昭和町１丁目２１番１６号,,27,119,5450011,,,,,,,2023-02-17,1,,,,,トーシンビルカンリ,0
131,1120001252569,新規,0,2023-02-17,2023-02-17,株式会社ＥＮホールディングス,,株式会社,大阪府,大阪市中央区,南本町１丁目６番７号ＭＪＲ堺筋本町タワー２２０７,,27,128,5410054,,,,,,,2023-02-17,1,,,,,エンホールディングス,0
132,1120001252585,新規,0,2023-02-17,2023-02-17,創世銀＿株式会社,00129484,株式会社,大阪府,大阪市大正区,三軒家西３丁目４番１６号中山ビル１０１Ｃ,,27,108,5510001,,,,,,,2023-02-17,1,,,,,ソウセイギンコン,0
133,1120001252593,新規,0,2023-02-17,2023-02-17,ＢＦＣ　Ｗｏｒｌｄ　Ｓｅｒｖｉｃｅ株式会社,,株式会社,大阪府,大阪市浪速区,大国２丁目１番５号,,27,111,5560014,,,,,,,2023-02-17,1,,,,,ビーエフシーワールドサービス,0
134,1120001252602,新規,0,2023-02-17,2023-02-17,株式会社Ｎｏｚａｋｉ,,株式会社,大阪府,大阪市東住吉区,今川７丁目１１番１８号,,27,121,5460003,,,,,,,2023-02-17,1,,,,,ノザキ,0
135,1120001252610,新規,0,2023-02-17,2023-02-17,株式会社ＭＧＭ,,株式会社,大阪府,大阪市北区,梅田１丁目３番１号大阪駅前第一ビル２階,,27,127,5300001,,,,,,,2023-02-17,1,,,,,エムジーエム,0
136,1120001252635,新規,0,2023-02-17,2023-02-17,株式会社Ｒｉｋｕ,,株式会社,大阪府,大阪市東住吉区,今川７丁目１１番１８号,,27,121,5460003,,,,,,,2023-02-17,1,,,,,リク,0
137,1120003023464,新規,0,2023-02-17,2023-02-17,合同会社オクトーリア,,合同会社,大阪府,大阪市西区,立売堀１丁目５番９－１３０１号,,27,106,5500012,,,,,,,2023-02-17,1,,,,,オクトーリア,0
145,1130001073683,新規,0,2023-02-17,2023-02-17,株式会社Ｙ　Ｔｅｃｈｎｏｌｏｇｉｅｓ,,株式会社,京都府,京都市中京区,一蓮社町３０３－２０１,,26,104,6048146,,,,,,,2023-02-17,1,,,,,ワイテクノロジーズ,0
151,1140001129154,新規,0,2023-02-17,2023-02-17,株式会社Ｅ‐Ｌａｙｏｕｔ,,株式会社,兵庫県,神戸市東灘区,住吉東町３丁目２番２８－１号,,28,101,6580052,,,,,,,2023-02-17,1,,,,,イーレイアウト,0
166,1180001155007,新規,0,2023-02-17,2023-02-17,株式会社わーい,,株式会社,愛知県,名古屋市千種区,井上町１３４番地３階,,23,101,4640026,,,,,,,2023-02-17,1,,,,,ワーイ,0
167,1180001155031,新規,0,2023-02-17,2023-02-17,株式会社ヤミージャム,,株式会社,愛知県,名古屋市中村区,宮塚町１６８番地の２,,23,105,4530845,,,,,,,2023-02-17,1,,,,,ヤミージャム,0
170,1180301037111,新規,0,2023-02-17,2023-02-17,株式会社セントラル・サイエンス・テクノロジー,,株式会社,愛知県,豊橋市,神野新田町字タノ割６３番地１０,,23,201,4418077,,,,,,,2023-02-17,1,,,,,セントラルサイエンステクノロジー,0
173,1180303005611,新規,0,2023-02-17,2023-02-17,エベネ合同会社,,合同会社,愛知県,刈谷市,大手町２丁目２０番地－１００２号室,,23,210,4480857,,,,,,,2023-02-17,1,,,,,エベネ,0
174,1190001030175,新規,0,2023-02-17,2023-02-17,株式会社羽根,,株式会社,三重県,津市,高茶屋５丁目９番７６号,,24,201,5140819,,,,,,,2023-02-17,1,,,,,ハネ,0
175,1190003004235,新規,0,2023-02-17,2023-02-17,合同会社２３,,合同会社,三重県,志摩市,阿児町国府１１３４番地７８,,24,215,5170506,,,,,,,2023-02-17,1,,,,,トゥエンティスリー,0
179,1220001025279,新規,0,2023-02-17,2023-02-17,株式会社ミラテラス,,株式会社,石川県,野々市市,粟田１丁目２０１番地,,17,212,9218823,,,,,,,2023-02-17,1,,,,,ミラテラス,0
188,1290001100595,新規,0,2023-02-17,2023-02-17,株式会社天照,,株式会社,福岡県,福岡市博多区,博多駅前１丁目１９番３博多駅前ビル８０７,,40,132,8120011,,,,,,,2023-02-17,1,,,,,アマテラス,0
189,1290001100604,新規,0,2023-02-17,2023-02-17,株式会社Ａ‐ｓｅｃｏｎｄ,,株式会社,福岡県,福岡市中央区,地行浜２丁目２番５号,,40,133,8100065,,,,,,,2023-02-17,1,,,,,エーセカンド,0
193,1290003013548,新規,0,2023-02-17,2023-02-17,合同会社ＳＡＲＡ,,合同会社,福岡県,福岡市中央区,渡辺通３丁目１０番３９－１０１０号アクロス天神センタープラザ,,40,133,8100004,,,,,,,2023-02-17,1,,,,,サラ,0
199,1320005010052,新規,0,2023-02-17,2023-02-17,特定非営利活動法人たのうらビーチスポーツクラブ,,その他の設立登記法人,大分県,大分市,大字三芳３４６番地の１パークサイド大みち町６丁目ヶ丘４０１,,44,201,8700030,,,,,,,2023-02-17,1,,,,,タノウラビーチスポーツクラブ,0
204,1360001031577,新規,0,2023-02-17,2023-02-17,株式会社ダブルスマイル,,株式会社,沖縄県,中頭郡読谷村,字瀬名波８９３番地Ａ,,47,324,9040325,,,,,,,2023-02-17,1,,,,,ダブルスマイル,0
205,1360001031585,新規,0,2023-02-17,2023-02-17,株式会社グランドリセット,,株式会社,沖縄県,那覇市,前島２丁目１９番１３号,,47,201,9000016,,,,,,,2023-02-17,1,,,,,グランドリセット,0
206,1360003012732,新規,0,2023-02-17,2023-02-17,合同会社Ｙ・Ｓテクノサービス,,合同会社,沖縄県,那覇市,首里石嶺町１丁目１２３番地５,,47,201,9030804,,,,,,,2023-02-17,1,,,,,ワイエステクノサービス,0
218,1400005008303,新規,0,2023-02-17,2023-02-17,一般社団法人ＢｌｅｓｓＵ,,その他の設立登記法人,岩手県,下閉伊郡山田町,豊間根第２地割１０８番地３,,03,482,0281302,,,,,,,2023-02-17,1,,,,,ブレスユー,0
232,1470003002350,新規,0,2023-02-17,2023-02-17,合同会社五十二工業,,合同会社,香川県,坂出市,府中町５１５８番地１ビレッジハウス本村２号棟１０２,,37,203,7620024,,,,,,,2023-02-17,1,,,,,ゴジュウニコウギョウ,0
233,1700150054377,新規,0,2023-02-17,2015-10-09,総社市職員組合,,その他,岡山県,総社市,中央１丁目１－１,,33,208,7191131,,,,,,,2015-10-09,1,,,,,ソウジヤシシヨクインクミアイ,0
237,1700150114395,新規,0,2023-02-17,2023-02-17,ｓｈｅｎｚｈｅｎｓｈｉ　ｋａｉｐｕｌｅ　ｄｉａｎｚｉｓｈａｎｇｗｕ　ｙｏｕｘｉａｎｇｏｎｇｓｉ,,外国会社等,,,,,,,,１１２５Ｃ３９，Ｘｉｎｈｕａ　Ｉｎｓｕｒａｎｃｅ　Ｂｕｉｌｄｉｎｇ，Ｎｏ．１７１　Ｍｉｎｔｉａｎ　Ｒｏａｄ，Ｆｕ’ａｎ　Ｃｏｍｍｕｎｉｔｙ，Ｆｕｔｉａｎ　Ｓｔｒｅｅｔ，Ｆｕｔｉａｎ　Ｄｉｓｔｒｉｃｔ，Ｓｈｅｎｚｈｅｎ，Ｃｈｉｎａ,,,,,,2023-02-17,1,,,,,シンセンシカイプレデンシショウムユウゲンコウシ,0
249,2010001233042,新規,0,2023-02-17,2023-02-17,株式会社Ｙ２,,株式会社,東京都,中央区,勝どき１丁目７番１号勝どきサンスクエア２階,,13,102,1040054,,,,,,,2023-02-17,1,,,,,ワイツー,0
250,2010001233059,新規,0,2023-02-17,2023-02-17,ＡＩ株式会社,,株式会社,東京都,千代田区,霞が関３丁目６番１４号三久ビル９階,,13,101,1000013,,,,,,,2023-02-17,1,,,,,エーアイ,0
251,2010003039834,新規,0,2023-02-17,2023-02-17,ＤＢＲ合同会社,,合同会社,東京都,千代田区,二番町９－３－Ｗ３２２,,13,101,1020084,,,,,,,2023-02-17,1,,,,,ディービーアール,0
255,2010101015530,新規,0,2023-02-17,2023-02-17,株式会社ステップ,,株式会社,東京都,八王子市,三崎町４番１１号トーネンビル５Ｆ,,13,201,1920084,,,,,,,2023-02-17,1,,,,,ステップ,0
256,2010105002203,新規,0,2023-02-17,2023-02-17,一般社団法人子ども食堂カフェ北野,,その他の設立登記法人,東京都,八王子市,北野町５４７番地１２,,13,201,1920906,,,,,,,2023-02-17,1,,,,,コドモショクドウカフェキタノ,0
269,2010401172559,新規,0,2023-02-17,2023-02-17,Ｄｕｎｄｕｌｉｓ　Ｊａｐａｎ株式会社,,株式会社,東京都,港区,赤坂３丁目１６番１１号東海赤坂ビル２階,,13,103,1070052,,,,,,,2023-02-17,1,,,,,ダンデュリスジャパン,0
274,2010503006895,新規,0,2023-02-17,2023-02-17,浅草開発合同会社,,合同会社,東京都,台東区,浅草２丁目３３番７号,,13,106,1110032,,,,,,,2023-02-17,1,,,,,アサクサカイハツ,0
275,2010601062601,新規,0,2023-02-17,2023-02-17,株式会社ＴｏＢｅ,,株式会社,東京都,江東区,有明１丁目５番２号,,13,108,1350063,,,,,,,2023-02-17,1,,,,,トゥービー,0
276,2010601062618,新規,0,2023-02-17,2023-02-17,株式会社ＢＬＥＮＤＡ,,株式会社,東京都,墨田区,江東橋３丁目５番８号Ｋビル５階Ｂ号室,,13,107,1300022,,,,,,,2023-02-17,1,,,,,ブレンダ,0
277,2010601062626,新規,0,2023-02-17,2023-02-17,株式会社ＹＨ２,,株式会社,東京都,江東区,平野２丁目１７番５号,,13,108,1350023,,,,,,,2023-02-17,1,,,,,ワイエイチツー,0
278,2010603010005,新規,0,2023-02-17,2023-02-17,合同会社スウェーアフロー,,合同会社,東京都,江東区,亀戸７丁目４９－５ＳｃｅｌｔｏＫａｍｅｉｄｏ４０３号,,13,108,1360071,,,,,,,2023-02-17,1,,,,,スウェーアフロー,0
290,2011001152653,新規,0,2023-02-17,2023-02-17,株式会社コスメディアタウン,,株式会社,東京都,渋谷区,千駄ヶ谷５丁目８番６号エスポワール千駄ケ谷３０３,,13,113,1510051,,,,,,,2023-02-17,1,,,,,コスメディアタウン,0
291,2011001152661,新規,0,2023-02-17,2023-02-17,Ｊ‐Ｃｒａｆｉｔ株式会社,,株式会社,東京都,渋谷区,円山町５番５号Ｎａｖｉ渋谷Ｖ３階,,13,113,1500044,,,,,,,2023-02-17,1,,,,,ジェイクラフィット,0
302,2011301028462,新規,0,2023-02-17,2023-02-17,株式会社ＳＵＮ＆ＭＯＯＮ,,株式会社,東京都,杉並区,松庵１丁目７番１０号,,13,115,1670054,,,,,,,2023-02-17,1,,,,,サンアンドムーン,0
305,2011503005474,新規,0,2023-02-17,2023-02-17,ＨｙｕｍａＡｓａｄａ合同会社,,合同会社,東京都,北区,東十条２丁目１４－１３ネイバーズ東十条１４０６,,13,117,1140001,,,,,,,2023-02-17,1,,,,,ヒュウマアサダ,0
306,2011503005482,新規,0,2023-02-17,2023-02-17,ＡＳコーポレーション合同会社,,合同会社,東京都,北区,滝野川７丁目２番７号,,13,117,1140023,,,,,,,2023-02-17,1,,,,,エーエスコーポレーション,0
308,2011705001767,新規,0,2023-02-17,2023-02-17,一般社団法人国際交流エドガワ,,その他の設立登記法人,東京都,江戸川区,南葛西７丁目２番４－９１０号,,13,123,1340085,,,,,,,2023-02-17,1,,,,,コクサイコウリュウエドガワ,0
311,2011803005513,新規,0,2023-02-17,2023-02-17,合同会社翼電設,,合同会社,東京都,足立区,東和５丁目３番２３号エステートピアＫ２０４,,13,121,1200003,,,,,,,2023-02-17,1,,,,,ツバサデンセツ,0
316,2012701017484,新規,0,2023-02-17,2023-02-17,エスメック株式会社,,株式会社,東京都,小平市,鈴木町２丁目１７６番地の４,,13,211,1870011,,,,,,,2023-02-17,1,,,,,エスメック,0
319,2013301050347,新規,0,2023-02-17,2023-02-17,株式会社ｂｅ　ｆｅｅｌ,,株式会社,東京都,豊島区,東池袋２丁目６０番２１号フラッツ池袋３０５,,13,116,1700013,,,,,,,2023-02-17,1,,,,,ビーフィール,0
320,2013301050355,新規,0,2023-02-17,2023-02-17,株式会社ＴＲＩＢＥＲ,,株式会社,東京都,豊島区,千早３丁目３１番９号,,13,116,1710044,,,,,,,2023-02-17,1,,,,,トライバー,0
335,2020003023366,新規,0,2023-02-17,2023-02-17,合同会社あかつき,,合同会社,神奈川県,横浜市港北区,仲手原２丁目２番７号,,14,109,2220023,,,,,,,2023-02-17,1,,,,,アカツキ,0
336,2020003023374,新規,0,2023-02-17,2023-02-17,画龍天睛合同会社,,合同会社,神奈川県,横浜市港北区,樽町２丁目１番１８号メゾン・ド・シオン２０１号室,,14,109,2220001,,,,,,,2023-02-17,1,,,,,ガリョウテンセイ,0
342,2021001078245,新規,0,2023-02-17,2023-02-17,株式会社ＩＪＩＧＥＮ,,株式会社,神奈川県,大和市,下鶴間３００１番地２７アイパレス南林間２－３０１号,,14,213,2420001,,,,,,,2023-02-17,1,,,,,,0
343,2021001078253,新規,0,2023-02-17,2023-02-17,株式会社ＦＵＮＢＲＥＷ,,株式会社,神奈川県,藤沢市,鵠沼桜が岡２丁目１番１３号ＬＵＡＮＡ２ｎｄ２０１,,14,205,2510027,,,,,,,2023-02-17,1,,,,,ファンブリュー,0
344,2021003012739,新規,0,2023-02-17,2023-02-17,合同会社一穂重機,,合同会社,神奈川県,大和市,福田１２６５―５,,14,213,2420024,,,,,,,2023-02-17,1,,,,,イチホジュウキ,0
346,2030001152364,新規,0,2023-02-17,2023-02-17,株式会社Ｐｒｉｍｅ　Ｇｌｏｂａｌ　Ｊａｐａｎ,,株式会社,埼玉県,戸田市,南町１２番２０号,,11,224,3350025,,,,,,,2023-02-17,1,,,,,プライムグローバルジャパン,0
347,2030001152455,新規,0,2023-02-17,2023-02-17,株式会社ＥＤＡ工業,,株式会社,埼玉県,さいたま市岩槻区,大字笹久保新田１０５４番７,,11,110,3390035,,,,,,,2023-02-17,1,,,,,エダコウギョウ,0
351,2030003021187,新規,0,2023-02-17,2023-02-17,合同会社ＪＯＨＮ工業,,合同会社,埼玉県,草加市,青柳２丁目１９－４４,,11,221,3400002,,,,,,,2023-02-17,1,,,,,ジョンコウギョウ,0
355,2040001127092,新規,0,2023-02-17,2023-02-17,株式会社プライムイノベーション,,株式会社,千葉県,千葉市中央区,都町１丁目４０番２１号,,12,101,2600001,,,,,,,2023-02-17,1,,,,,プライムイノベーション,0
356,2040001127118,新規,0,2023-02-17,2023-02-17,株式会社バリューストア,,株式会社,千葉県,松戸市,上本郷２２３４番地１村越ビル１階,,12,207,2710064,,,,,,,2023-02-17,1,,,,,バリューストア,0
357,2040001127142,新規,0,2023-02-17,2023-02-17,サンク株式会社,,株式会社,千葉県,浦安市,弁天３丁目２番３８－６号,,12,227,2790026,,,,,,,2023-02-17,1,,,,,サンク,0
358,2040003021962,新規,0,2023-02-17,2023-02-17,合同会社Ｔｓｕｂａｍａｔｅ,,合同会社,千葉県,船橋市,駿河台２丁目３２番３８－２号,,12,204,2730862,,,,,,,2023-02-17,1,,,,,ツバメイト,0
359,2040003021979,新規,0,2023-02-17,2023-02-17,ＳＥＭＯＲＩ合同会社,,合同会社,千葉県,山武市,日向台３２－１２－１Ｆ,,12,237,2891206,,,,,,,2023-02-17,1,,,,,セモリ,0
362,2050001024421,新規,0,2023-02-17,2023-02-17,新日本窯業株式会社,,株式会社,茨城県,北茨城市,磯原町磯原８８９番地の１,,08,215,3191541,,,,,,,2023-02-17,1,,,,,シンニホンヨウギョウ,0
365,2060003004429,新規,0,2023-02-17,2023-02-17,合同会社和興エナジーＱ,,合同会社,栃木県,真岡市,中１１３番地１１,,09,209,3214351,,,,,,,2023-02-17,1,,,,,ワコウエナジーキュー,0
366,2060005010053,新規,0,2023-02-17,2023-02-17,一般社団法人サードプレイスｃｏｃｏｔｏ,,その他の設立登記法人,栃木県,矢板市,木幡２５４８番地１２,,09,211,3292142,,,,,,,2023-02-17,1,,,,,サードプレイスココト,0
373,2080101023799,新規,0,2023-02-17,2023-02-17,株式会社おとぎのくに,,株式会社,静岡県,富士市,水戸島１６２番地の２,,22,210,4160921,,,,,,,2023-02-17,1,,,,,オトギノクニ,0
374,2080401026329,新規,0,2023-02-17,2023-02-17,サンケーサポート株式会社,,株式会社,静岡県,浜松市浜北区,貴布祢２５７６,,22,136,4340038,,,,,,,2023-02-17,1,,,,,サンケーサポート,0
390,2120001252493,新規,0,2023-02-17,2023-02-17,トーホー株式会社,,株式会社,大阪府,大阪市中央区,北久宝寺町１丁目４番１０号大成合同ビル５階,,27,128,5410057,,,,,,,2023-02-17,1,,,,,トーホー,0
391,2120001252535,新規,0,2023-02-17,2023-02-17,Ｓｈｏｒｔ　Ｂｏｕｎｄ株式会社,,株式会社,大阪府,大阪市浪速区,難波中２丁目７番１９号,,27,111,5560011,,,,,,,2023-02-17,1,,,,,ショートバウンド,0
392,2120001252568,新規,0,2023-02-17,2023-02-17,株式会社フォレストバレー,,株式会社,大阪府,大阪市浪速区,敷津東２丁目６番２５号,,27,111,5560012,,,,,,,2023-02-17,1,,,,,フォレストバレー,0
393,2120001252576,新規,0,2023-02-17,2023-02-17,京阪神リビング株式会社,,株式会社,大阪府,門真市,新橋町３番３号門真プラザ２０１号室,,27,223,5710048,,,,,,,2023-02-17,1,,,,,ケイハンシンリビング,0
394,2120001252584,新規,0,2023-02-17,2023-02-17,中惠株式会社,,株式会社,大阪府,大阪市大正区,三軒家西３丁目４番１６号中山ビル２０５Ｂ,,27,108,5510001,,,,,,,2023-02-17,1,,,,,チュウケイ,0
399,2120101066991,新規,0,2023-02-17,2023-02-17,株式会社木村商店,,株式会社,大阪府,泉佐野市,湊１丁目４３番４号,,27,213,5980063,,,,,,,2023-02-17,1,,,,,キムラショウテン,0
406,2122005003666,新規,0,2023-02-17,2023-02-17,一般社団法人全日本食品タンクローリー協会,,その他の設立登記法人,大阪府,八尾市,志紀町南１丁目１３２番地,,27,212,5810033,,,,,,,2023-02-17,1,,,,,ゼンニホンショクヒンタンクローリーキョウカイ,0
415,2140001129153,新規,0,2023-02-17,2023-02-17,株式会社タートル,,株式会社,兵庫県,明石市,大久保町八木７４０－６,,28,203,6740063,,,,,,,2023-02-17,1,,,,,タートル,0
440,2200001040972,新規,0,2023-02-17,2023-02-17,株式会社ひまわり,,株式会社,岐阜県,岐阜市,加納本石町１丁目１１番地１,,21,201,5008466,,,,,,,2023-02-17,1,,,,,ヒマワリ,0
443,2220001025278,新規,0,2023-02-17,2023-02-17,株式会社ビーイング,,株式会社,石川県,小松市,荒木田町ホ２６番地,,17,203,9230823,,,,,,,2023-02-17,1,,,,,ビーイング,0
447,2240001061107,新規,0,2023-02-17,2023-02-17,株式会社にじいろｒ,,株式会社,広島県,呉市,本通３丁目１番９号,,34,202,7370045,,,,,,,2023-02-17,1,,,,,ニジイロアール,0
451,2260001037658,新規,0,2023-02-17,2023-02-17,キャリアブルシステムズ株式会社,,株式会社,岡山県,玉野市,和田３丁目３０番１６号,,33,204,7060021,,,,,,,2023-02-17,1,,,,,キャリアブルシステムズ,0
456,2290001100553,新規,0,2023-02-17,2023-02-17,株式会社ｆｅｌｉｃｅ,,株式会社,福岡県,糟屋郡新宮町,杜の宮１丁目５番１０号,,40,345,8110122,,,,,,,2023-02-17,1,,,,,フェリーチェ,0
457,2290001100594,新規,0,2023-02-17,2023-02-17,株式会社ラミアフール,,株式会社,福岡県,福岡市博多区,住吉４丁目７番１８－４０２号,,40,132,8120018,,,,,,,2023-02-17,1,,,,,ラミアフール,0
458,2290001100611,新規,0,2023-02-17,2023-02-17,株式会社ワン,,株式会社,福岡県,福岡市中央区,天神３丁目１番１３号浦島ビル４階,,40,133,8100001,,,,,,,2023-02-17,1,,,,,ワン,0
459,2290003013547,新規,0,2023-02-17,2023-02-17,合同会社Ｆ‐テクノ,,合同会社,福岡県,糟屋郡新宮町,大字原上１１５０－３,,40,345,8110101,,,,,,,2023-02-17,1,,,,,エフテクノ,0
465,2330001030597,新規,0,2023-02-17,2023-02-17,ヒゴテック株式会社,,株式会社,熊本県,熊本市中央区,大江５丁目１７番１６号,,43,101,8620971,,,,,,,2023-02-17,1,,,,,ヒゴテック,0
473,2360001031576,新規,0,2023-02-17,2023-02-17,株式会社ＣＯＤＲＥＡ,,株式会社,沖縄県,那覇市,銘苅３丁目９－２２キャンディービル２階,,47,201,9000004,,,,,,,2023-02-17,1,,,,,コードレア,0
474,2360003012731,新規,0,2023-02-17,2023-02-17,合同会社ＢＡＯ,,合同会社,沖縄県,うるま市,字江洲２１１４番地７,,47,213,9042244,,,,,,,2023-02-17,1,,,,,バオ,0
475,2360005006789,新規,0,2023-02-17,2023-02-17,一般社団法人日本美容研究協会,,その他の設立登記法人,沖縄県,那覇市,若狭２丁目１８番１４号２Ｆ,,47,201,9000031,,,,,,,2023-02-17,1,,,,,ニホンビヨウケンキュウキョウカイ,0
483,2370001049618,新規,0,2023-02-17,2023-02-17,株式会社ラポール,,株式会社,宮城県,仙台市青葉区,本町１丁目２番５号第３志ら梅ビル３０７,,04,101,9800014,,,,,,,2023-02-17,1,,,,,ラポール,0
484,2370003005998,新規,0,2023-02-17,2023-02-17,合同会社プレフィックス,,合同会社,宮城県,仙台市太白区,富沢西１丁目２番地の１３,,04,104,9820037,,,,,,,2023-02-17,1,,,,,プレフィックス,0
490,2390003002052,新規,0,2023-02-17,2023-02-17,合同会社Ｓｏｍｅ　Ｂｕｄｄｙ,,合同会社,山形県,米沢市,金池１丁目１番５号,,06,202,9920012,,,,,,,2023-02-17,1,,,,,サムバディ,0
492,2430001088460,新規,0,2023-02-17,2023-02-17,株式会社サンセール,,株式会社,北海道,札幌市北区,新川一条２丁目８番４号,,01,102,0010921,,,,,,,2023-02-17,1,,,,,サンセール,0
499,2460003000940,新規,0,2023-02-17,2023-02-17,合同会社不動産のいわや,,合同会社,北海道,釧路市,愛国東１丁目６番２号,,01,206,0850058,,,,,,,2023-02-17,1,,,,,フドウサンノイワヤ,0
500,2470001019478,新規,0,2023-02-17,2023-02-17,株式会社ＭＵＳＵＢＵ高井会計,00129480,株式会社,香川県,高松市,上林町５１０－３９,,37,201,7610302,,,,,,,2023-02-17,1,,,,,ムスブタカイカイケイ,0
504,2700150114394,新規,0,2023-02-17,2023-02-17,ｓｈｅｎｚｈｅｎｓｈｉ　ｊｉｎｇｙｏｕｋｅｊｉ　ｙｏｕｘｉａｎｇｏｎｇｓｉ,,外国会社等,,,,,,,,Ａ５０５，Ｂｌｏｃｋ　６，Ｂｌｏｃｋ　１－６，Ｒｕｎｋｅ　Ｍａｎｓｉｏｎ，Ａ５０５，Ｃｈａｕ　Ｓｈｉ　Ｒｏａｄ，Ｈｅｃｈｕ　Ｃｏｍｍｕｎｉｔｙ，Ｈａｎｇｃｈｅｎｇ　Ｓｔｒｅｅｔ，Ｂａｏａｎ　Ｄｉｓｔｒｉｃｔ，Ｓｈｅｎｚｈｅｎ，Ｃｈｉｎａ,,,,,,2023-02-17,1,,,,,シンセンシジンギョウケジユウゲンコウシ,0
505,2700150114403,新規,0,2023-02-17,2023-02-17,Ｉｓｔｏｎｅ　Ｉｎｎｏｖａｔｉｏｎ　Ｌｉｍｉｔｅｄ,,外国会社等,,,,,,,,ＵＮＩＴ　Ｆ　８／Ｆ　ＭＡＩ　ＫＥＩ　ＩＮＤＵＳＴＲＩＡＬ　ＢＵＩＬＤＩＮＧ　５　ＳＡＮ　ＨＯＰ　ＬＡＮＥ　ＴＵＥＮ　ＭＵＮ　ＮＴ，ＨＯＮＧ　ＫＯＮＧ,,,,,,2023-02-17,1,,,,,アイストーンイノベーションリミテッド,0
512,3010001233058,新規,0,2023-02-17,2023-02-17,株式会社Ｎｅｐｅｎｔｈｅ　Ｉｎｃ．,,株式会社,東京都,文京区,湯島４丁目５番１号,,13,105,1130034,,,,,,,2023-02-17,1,,,,,ネペンスインク,0
513,3010001233099,新規,0,2023-02-17,2023-02-17,株式会社ＲＡＹＵＰ,,株式会社,東京都,中央区,銀座１丁目２２番１１号銀座大竹ビジデンス２Ｆ,,13,102,1040061,,,,,,,2023-02-17,1,,,,,レイアップ,0
514,3010001233108,新規,0,2023-02-17,2023-02-17,渋谷一丁目開発株式会社,,株式会社,東京都,中央区,日本橋大伝馬町７番３号,,13,102,1030011,,,,,,,2023-02-17,1,,,,,シブヤイッチョウメカイハツ,0
522,3010005036267,新規,0,2023-02-17,2023-02-17,一般社団法人ＡＦＴ,,その他の設立登記法人,東京都,千代田区,丸の内３丁目１番１号東京共同会計事務所内,,13,101,1000005,,,,,,,2023-02-17,1,,,,,エーエフティ,0
529,3010401172566,新規,0,2023-02-17,2023-02-17,Ｃａｎｖａｌｅｔｔｅ株式会社,,株式会社,東京都,港区,芝５丁目３６－４札の辻スクエア９階,,13,103,1080014,,,,,,,2023-02-17,1,,,,,キャンバレット,0
530,3010401172590,新規,0,2023-02-17,2023-02-17,ＳＡＫＩＹＡ株式会社,,株式会社,東京都,港区,南青山３丁目１番３６号青山丸竹ビル６Ｆ,,13,103,1070062,,,,,,,2023-02-17,1,,,,,サキヤ,0
532,3010405021793,新規,0,2023-02-17,2023-02-17,ＰＡＴＲＩＺＩＡ　ＭＦ２特定目的会社,,その他の設立登記法人,東京都,港区,虎ノ門３丁目２２番１０－２０１号,,13,103,1050001,,,,,,,2023-02-17,1,,,,,パトリチアエムエフトゥ,0
533,3010405021802,新規,0,2023-02-17,2023-02-17,弁護士法人窪田法律事務所,,その他の設立登記法人,東京都,港区,虎ノ門４丁目１番１７号神谷町プライムプレイス９階,,13,103,1050001,,,,,,,2023-02-17,1,,,,,クボタホウリツジムショ,0
534,3010405021835,新規,0,2023-02-17,2023-02-17,一般社団法人ＫＳＩＦ,,その他の設立登記法人,東京都,港区,西新橋１丁目２番９号メンターキャピタル税理士法人内,,13,103,1050003,,,,,,,2023-02-17,1,,,,,ケイエスアイエフ,0
539,3010603010020,新規,0,2023-02-17,2023-02-17,ＹＯＬＯ合同会社,,合同会社,東京都,江東区,有明２丁目１番３－２８１０号,,13,108,1350063,,,,,,,2023-02-17,1,,,,,ヨロ,0
546,3011001152636,新規,0,2023-02-17,2023-02-17,株式会社ＡＫＵＴＳＵ,,株式会社,東京都,渋谷区,広尾５丁目１９番２０号落合ビル２０３,,13,113,1500012,,,,,,,2023-02-17,1,,,,,アクツ,0
547,3011001152660,新規,0,2023-02-17,2023-02-17,株式会社風人,,株式会社,東京都,渋谷区,円山町５番５号Ｎａｖｉ渋谷Ｖ３階,,13,113,1500044,,,,,,,2023-02-17,1,,,,,カザンド,0
554,3011101101864,新規,0,2023-02-17,2023-02-17,ＺＥＮＫＩＣＯＭ株式会社,,株式会社,東京都,新宿区,西新宿３丁目３番１３号西新宿水間ビル２Ｆ,,13,104,1600023,,,,,,,2023-02-17,1,,,,,ゼンキコム,0
555,3011101101872,新規,0,2023-02-17,2023-02-17,株式会社Ｏｎｅ＆Ｏｎｌｙ,,株式会社,東京都,新宿区,新宿１丁目６番５号,,13,104,1600022,,,,,,,2023-02-17,1,,,,,ワンアンドオンリー,0
557,3011301028445,新規,0,2023-02-17,2023-02-17,株式会社Ｖｉｒｓｏｎａ,,株式会社,東京都,杉並区,久我山３丁目２２－１ベルメゾン松岡Ｂ１Ｂ号室,,13,115,1680082,,,,,,,2023-02-17,1,,,,,ウィルソナ,0
562,3011603003831,新規,0,2023-02-17,2023-02-17,合同会社キュレ,,合同会社,東京都,練馬区,東大泉７丁目５０番４０－５－２０２号,,13,120,1780063,,,,,,,2023-02-17,1,,,,,キュレ,0
564,3011803005529,新規,0,2023-02-17,2023-02-17,ＣＪＣ合同会社,,合同会社,東京都,葛飾区,小菅３丁目１３番３号２Ｆ,,13,122,1240001,,,,,,,2023-02-17,1,,,,,シージェイシー,0
566,3012401040199,新規,0,2023-02-17,2023-02-17,株式会社ＢｅＩｎｓｐｉｒｅｄ,,株式会社,東京都,府中市,本町１丁目１番地の１トゥール・ブラン３０５,,13,206,1830027,,,,,,,2023-02-17,1,,,,,ビーインスパイアード,0
568,3012801022152,新規,0,2023-02-17,2023-02-17,株式会社ＮＥＷ　ＡＧＥ,,株式会社,東京都,立川市,幸町４丁目５７番地の２－４０２,,13,202,1900002,,,,,,,2023-02-17,1,,,,,ニューエイジ,0
570,3013301050354,新規,0,2023-02-17,2023-02-17,株式会社クリエイティブベース,,株式会社,東京都,豊島区,目白５丁目２１－１５ヴェラハイツ椎名町５０１号室,,13,116,1710031,,,,,,,2023-02-17,1,,,,,クリエイティブベース,0
577,3021003012770,新規,0,2023-02-17,2023-02-17,合同会社ＳｏｌｅＭａｒｅ,,合同会社,神奈川県,藤沢市,白旗４丁目１２番５７号,,14,205,2510051,,,,,,,2023-02-17,1,,,,,ソルマーレ,0
581,3030001152462,新規,0,2023-02-17,2023-02-17,株式会社高梨事務所,00129495,株式会社,埼玉県,草加市,高砂１丁目１０番４５号,,11,221,3400015,,,,,,,2023-02-17,1,,,,,タカナシジムショ,0
582,3030001152479,新規,0,2023-02-17,2023-02-17,ＳＫ未来株式会社,,株式会社,埼玉県,川口市,青木１丁目１７番３号,,11,203,3320031,,,,,,,2023-02-17,1,,,,,エスケーミライ,0
589,3030003021178,新規,0,2023-02-17,2023-02-17,錦瑞合同会社,,合同会社,埼玉県,川口市,西川口１丁目３０番２０－５階Ｃ,,11,203,3320021,,,,,,,2023-02-17,1,,,,,キンズイ,0
590,3030003021211,新規,0,2023-02-17,2023-02-17,ワールド合同会社,,合同会社,埼玉県,川口市,西川口１丁目３０番２０号３Ｆ,,11,203,3320021,,,,,,,2023-02-17,1,,,,,ワールド,0
595,3040001127109,新規,0,2023-02-17,2023-02-17,株式会社ヘンカク,,株式会社,千葉県,船橋市,丸山３丁目４８番９号,,12,204,2730048,,,,,,,2023-02-17,1,,,,,ヘンカク,0
596,3040001127158,新規,0,2023-02-17,2023-02-17,クリスジャパン株式会社,,株式会社,千葉県,八街市,四木３１２番地１,,12,230,2891122,,,,,,,2023-02-17,1,,,,,クリスジャパン,0
600,3040003021978,新規,0,2023-02-17,2023-02-17,ＳＫモータース合同会社,,合同会社,千葉県,市原市,八幡北町３丁目４番地１０,,12,219,2900069,,,,,,,2023-02-17,1,,,,,エスケーモータース,0
602,3050001052413,新規,0,2023-02-17,2023-02-17,ＺＫ　ＩＮＴＥＲＮＡＴＩＯＮＡＬ株式会社,,株式会社,茨城県,結城市,大字結城８４０番地１、ダイヤマテナント１階ミナミ,,08,207,3070001,,,,,,,2023-02-17,1,,,,,ゼットティーインターナショナル,0
605,3060001035714,新規,0,2023-02-17,2023-02-17,株式会社ＵＳＦ,,株式会社,栃木県,鹿沼市,藤江町１３４８番地１,,09,205,3220532,,,,,,,2023-02-17,1,,,,,ユーエスエフ,0
607,3060003004428,新規,0,2023-02-17,2023-02-17,合同会社和興エナジーＰ,,合同会社,栃木県,真岡市,中１１３番地１１,,09,209,3214351,,,,,,,2023-02-17,1,,,,,ワコウエナジーピー,0
613,3070001040143,新規,0,2023-02-17,2023-02-17,株式会社グージュ,,株式会社,群馬県,館林市,苗木町１８０４番地の１８,,10,207,3740043,,,,,,,2023-02-17,1,,,,,グージュ,0
618,3080101023798,新規,0,2023-02-17,2023-02-17,株式会社朝霧ライズ,,株式会社,静岡県,富士宮市,中原町１００番地,,22,207,4180002,,,,,,,2023-02-17,1,,,,,アサギリライズ,0
621,3090003002255,新規,0,2023-02-17,2023-02-17,合同会社ＧＳＨ,,合同会社,山梨県,山梨市,矢坪１６６９番地２５,,19,205,4050036,,,,,,,2023-02-17,1,,,,,ジーエスエイチ,0
640,3120001252559,新規,0,2023-02-17,2023-02-17,ＣＳ‐ＬＡＢＯ株式会社,,株式会社,大阪府,大阪市淀川区,西中島５丁目６番２４号,,27,123,5320011,,,,,,,2023-02-17,1,,,,,シーエスラボ,0
641,3120001252567,新規,0,2023-02-17,2023-02-17,順義後沙軟件株式会社,,株式会社,大阪府,大阪市生野区,巽中１丁目２１番３号博文ビル４０１Ｃ,,27,116,5440013,,,,,,,2023-02-17,1,,,,,ジュンギゴシャナンケン,0
642,3120001252600,新規,0,2023-02-17,2023-02-17,Ｓｍｉｌｅ　Ｌｉｆｅ株式会社,,株式会社,大阪府,大阪市東淀川区,西淡路１丁目１番３５号幹線東ビル９Ｆ,,27,114,5330031,,,,,,,2023-02-17,1,,,,,スマイルライフ,0
643,3120003023454,新規,0,2023-02-17,2023-02-17,合同会社マスコーポレーション,,合同会社,大阪府,大阪市城東区,中央２丁目１番２０－９０１号,,27,118,5360005,,,,,,,2023-02-17,1,,,,,マスコーポレーション,0
644,3120003023462,新規,0,2023-02-17,2023-02-17,フィルセンス合同会社,,合同会社,大阪府,大阪市西成区,萩之茶屋１丁目４番１号太陽ビル６０４,,27,122,5570004,,,,,,,2023-02-17,1,,,,,フィルセンス,0
648,3120005023477,新規,0,2023-02-17,2023-02-17,一般財団法人森澤信夫記念財団,,その他の設立登記法人,大阪府,大阪市浪速区,敷津東２丁目６番２５号,,27,111,5560012,,,,,,,2023-02-17,1,,,,,モリサワノブオキネンザイダン,0
655,3122003002520,新規,0,2023-02-17,2023-02-17,合同会社ラモスマーケティング,,合同会社,大阪府,東大阪市,新池島町２丁目１９番１３号シャーメゾンビスカリア１０３,,27,227,5798065,,,,,,,2023-02-17,1,,,,,ラモスマーケティング,0
657,3130001073681,新規,0,2023-02-17,2023-02-17,グッスリ・アーキテクツ株式会社,,株式会社,京都府,京都市西京区,大枝北福西町２丁目２２番４号,,26,111,6101112,,,,,,,2023-02-17,1,,,,,グッスリアーキテクツ,0
659,3130003008537,新規,0,2023-02-17,2023-02-17,合同会社ＪＯＩＮ　ＵＳ　ＪＡＰＡＮ,,合同会社,京都府,京都市下京区,大黒町２２７番地第２キョートビル４０２,,26,106,6008043,,,,,,,2023-02-17,1,,,,,ジョイナスジャパン,0
666,3140001129152,新規,0,2023-02-17,2023-02-17,Ｉ＆Ｌメディカル株式会社,,株式会社,兵庫県,神戸市東灘区,森南町１丁目７番２号ペガサスビル２０１,,28,101,6580011,,,,,,,2023-02-17,1,,,,,アイアンドエルメディカル,0
667,3140001129177,新規,0,2023-02-17,2023-02-17,株式会社嶺山エステート,,株式会社,兵庫県,神戸市東灘区,西岡本７丁目８番１６号,,28,101,6580073,,,,,,,2023-02-17,1,,,,,ミネヤマエステート,0
670,3160001024839,新規,0,2023-02-17,2023-02-17,株式会社アールコンストラクション,,株式会社,滋賀県,栗東市,小野５７６,,25,208,5203016,,,,,,,2023-02-17,1,,,,,アールコンストラクション,0
671,3160003002801,新規,0,2023-02-17,2023-02-17,合同会社九左ヱ門,,合同会社,滋賀県,長浜市,木之本町木之本１６３０番地,,25,203,5290425,,,,,,,2023-02-17,1,,,,,クザエモン,0
680,3180001155013,新規,0,2023-02-17,2023-02-17,株式会社Ｓｏｕｔｈｅｒｎ　Ｃｒｏｓｓ　Ｇｒｏｕｐ,,株式会社,愛知県,常滑市,金山字新田９１番地の１,,23,216,4790003,,,,,,,2023-02-17,1,,,,,サザンクロスグループ,0
682,3190003004233,新規,0,2023-02-17,2023-02-17,ＱＫ合同会社,,合同会社,三重県,桑名市,大字東方１１８９番地３,,24,205,5110811,,,,,,,2023-02-17,1,,,,,キュウケイ,0
686,3200005013445,新規,0,2023-02-17,2023-02-17,特定非営利活動法人ヒーロー達の秘密基地,,その他の設立登記法人,岐阜県,岐阜市,加納西広江町１丁目６番６号,,21,201,5008418,,,,,,,2023-02-17,1,,,,,ヒーロータチノヒミツキチ,0
688,3220001025277,新規,0,2023-02-17,2023-02-17,株式会社コマツカワラ,,株式会社,石川県,小松市,安宅町レ３６番地５,,17,203,9230003,,,,,,,2023-02-17,1,,,,,コマツカワラ,0
698,3260003004201,新規,0,2023-02-17,2023-02-17,セノー合同会社,,合同会社,岡山県,小田郡矢掛町,小田５１９２番地１,,33,461,7141227,,,,,,,2023-02-17,1,,,,,セノー,0
702,3290001100577,新規,0,2023-02-17,2023-02-17,株式会社Ｒｅｉｎｆｏｒｃｅ,,株式会社,福岡県,春日市,春日公園２丁目６５番地,,40,218,8160811,,,,,,,2023-02-17,1,,,,,リインフォース,0
703,3290001100593,新規,0,2023-02-17,2023-02-17,株式会社アスムク,,株式会社,福岡県,福岡市博多区,博多駅中央街５番１１号３階,,40,132,8120012,,,,,,,2023-02-17,1,,,,,アスムク,0
704,3290001100610,新規,0,2023-02-17,2023-02-17,株式会社ＭＯＶｉｌｌｉｏｎ,,株式会社,福岡県,福岡市博多区,千代２丁目２２番８号一豊ビル２階,,40,132,8120044,,,,,,,2023-02-17,1,,,,,ムービリオン,0
707,3290003013546,新規,0,2023-02-17,2023-02-17,合同会社ＡｉｒＧｏｌｄ,,合同会社,福岡県,福岡市博多区,博多駅東２丁目１３番２６－９０２号,,40,132,8120013,,,,,,,2023-02-17,1,,,,,エアゴールド,0
709,3310005008657,新規,0,2023-02-17,2023-02-17,一般社団法人鶴屋国際公社,,その他の設立登記法人,長崎県,松浦市,志佐町浦免１２９７－１,,42,208,8594501,,,,,,,2023-02-17,1,,,,,ツルヤコクサイコウシャ,0
713,3330001030547,新規,0,2023-02-17,2023-02-17,熙陽株式会社,,株式会社,熊本県,熊本市中央区,帯山３丁目２０番１７号メゾン帯山２階,,43,101,8620924,,,,,,,2023-02-17,1,,,,,キヨウ,0
720,3360001031575,新規,0,2023-02-17,2023-02-17,株式会社瀬底興産,,株式会社,沖縄県,国頭郡本部町,字瀬底２９８番地５,,47,308,9050227,,,,,,,2023-02-17,1,,,,,セソココウサン,0
721,3360003012722,新規,0,2023-02-17,2023-02-17,合同会社スマイルフィッシング,,合同会社,沖縄県,那覇市,曙１丁目１６－３４ライオンズマンション曙本通り２０５,,47,201,9000002,,,,,,,2023-02-17,1,,,,,スマイルフィッシング,0
727,3370001049617,新規,0,2023-02-17,2023-02-17,株式会社真栄,,株式会社,宮城県,仙台市青葉区,上愛子字車４７番地の３７,,04,101,9893124,,,,,,,2023-02-17,1,,,,,シンエイ,0
732,3380001033487,新規,0,2023-02-17,2023-02-17,株式会社あさぎいろ,,株式会社,福島県,双葉郡浪江町,大字加倉字下加倉３４５－４,,07,547,9791536,,,,,,,2023-02-17,1,,,,,アサギイロ,0
733,3380003005393,新規,0,2023-02-17,2023-02-17,ＫＮＴ合同会社,,合同会社,福島県,会津若松市,表町１番３４号メゾンアルカディア１０２,,07,202,9650831,,,,,,,2023-02-17,1,,,,,ケーエヌティー,0
750,3500003002980,新規,0,2023-02-17,2023-02-17,合同会社５企画,,合同会社,愛媛県,宇和島市,明倫町３丁目３番３号ブリックガーデン３００号室,,38,203,7980068,,,,,,,2023-02-17,1,,,,,ファイブキカク,0
754,3700150114393,新規,0,2023-02-17,2023-02-17,ｃｈｅｎｇｄｕ　ｒｏｎｇｌｉｘｕｑｉ　ｄｉａｎｚｉｓｈａｎｇｗｕ　ｙｏｕｘｉａｎｇｏｎｇｓｉ,,外国会社等,,,,,,,,Ｎｏ．９２８，Ａｎｎｅｘ　２，Ｂｕｉｌｄｉｎｇ　１０，Ｎｏ．１　Ｘｉｕｓｈｕｉ　Ｓｔｒｅｅｔ，Ｊｉｎｊｉａｎｇ　Ｄｉｓｔｒｉｃｔ，Ｃｈｅｎｇｄｕ，Ｓｉｃｈｕａｎ　Ｐｒｏｖｉｎｃｅ，Ｃｈｉｎａ,,,,,,2023-02-17,1,,,,,チェンジュロングリシュキデンシショウムユウゲンコウシ,0
755,3700150114402,新規,0,2023-02-17,2023-02-17,ｓｈｅｎｚｈｅｎｓｈｉ　ｍａｓｉｔｅ　ｄｉａｎｚｉｓｈａｎｇｗｕ　ｙｏｕｘｉａｎｇｏｎｇｓｉ,,外国会社等,,,,,,,,２１　Ｌｏｎｇｌｉｎｇ　Ｔｈｒｅｅ　Ｌａｎｅ　Ｒｏｏｍ　４０１，Ｌｏｎｇｌｉｎｇ　Ｃｏｍｍｕｎｉｔｙ，Ｂｕｊｉ　Ｓｔｒｅｅｔ，Ｌｏｎｇｇａｎｇ　Ｄｉｓｔｒｉｃｔ，Ｓｈｅｎｚｈｅｎ，Ｃｈｉｎａ,,,,,,2023-02-17,1,,,,,シンセンシマシテデンシショウムユウゲンコウシ,0
760,4010001233131,新規,0,2023-02-17,2023-02-17,株式会社Ｊステップホールディングス,,株式会社,東京都,千代田区,丸の内３丁目４番１号新国際ビル６階,,13,101,1000005,,,,,,,2023-02-17,1,,,,,ジェイステップホールディングス,0
762,4010003039849,新規,0,2023-02-17,2023-02-17,ＧＬＰ　Ｄｅｖｅｌｏｐｍｅｎｔ４Ｅｘｃ合同会社,,合同会社,東京都,中央区,八重洲２丁目２番１号,,13,102,1040028,,,,,,,2023-02-17,1,,,,,ジーエルピーデベロプメントフォーイーエクスシー,0
767,4010101015529,新規,0,2023-02-17,2023-02-17,株式会社インフィニティ,,株式会社,東京都,八王子市,明神町４丁目２７番３号,,13,201,1920046,,,,,,,2023-02-17,1,,,,,インフィニティ,0
771,4010403029540,新規,0,2023-02-17,2023-02-17,ＡＧ　Ｊａｐａｎ　Ｒｅａｌｔｙ　Ｖａｌｕｅ　Ｉ　ＧＰ合同会社,,合同会社,東京都,港区,六本木１丁目６番１号泉ガーデンタワー,,13,103,1060032,,,,,,,2023-02-17,1,,,,,,0
778,4010801033706,新規,0,2023-02-17,2023-02-17,株式会社大門,,株式会社,東京都,大田区,東雪谷３丁目３１番３号,,13,111,1450065,,,,,,,2023-02-17,1,,,,,ダイモン,0
782,4010901052548,新規,0,2023-02-17,2023-02-17,株式会社ハイヤーグラウンド,,株式会社,東京都,世田谷区,砧３丁目９番１５号,,13,112,1570073,,,,,,,2023-02-17,1,,,,,ハイヤーグラウンド,0
783,4010901052556,新規,0,2023-02-17,2023-02-17,株式会社えびすコミュニケーション,,株式会社,東京都,世田谷区,上北沢５丁目４１番４－９０２号,,13,112,1560057,,,,,,,2023-02-17,1,,,,,エビスコミュニケーション,0
791,4011001152593,新規,0,2023-02-17,2023-02-17,センシティヴ株式会社,,株式会社,東京都,渋谷区,恵比寿２丁目３８番１６－３０３号ＰＲＥＭＩＵＭＣＵＢＥ広尾,,13,113,1500013,,,,,,,2023-02-17,1,,,,,,0
792,4011001152676,新規,0,2023-02-17,2023-02-17,株式会社ＳＴＲＡＤＩＦＹ,,株式会社,東京都,渋谷区,渋谷２丁目１９番１５号宮益坂ビルディング６０９,,13,113,1500002,,,,,,,2023-02-17,1,,,,,ストラディファイ,0
799,4011101101863,新規,0,2023-02-17,2023-02-17,株式会社ＮＥＯ　ＳＥＣＵＲＩＴＹ,,株式会社,東京都,新宿区,新宿５丁目１８番２０号ルックハイツ新宿４０２,,13,104,1600022,,,,,,,2023-02-17,1,,,,,ネオセキュリティ,0
801,4011103012720,新規,0,2023-02-17,2023-02-17,ＦＬＯＷＴＡＰ合同会社,,合同会社,東京都,新宿区,四谷三栄町２番１４号２２５,,13,104,1600008,,,,,,,2023-02-17,1,,,,,フロウタップ,0
804,4011401024913,新規,0,2023-02-17,2023-02-17,Ｓｗｅｅｔ・Ｌｏｖｅ株式会社,,株式会社,東京都,板橋区,東山町１８番１５号ハイム東山１０３,,13,119,1740073,,,,,,,2023-02-17,1,,,,,スウィートラブ,0
815,4011801041954,新規,0,2023-02-17,2023-02-17,株式会社ＺＥＲＯ　ＯＮＥ,,株式会社,東京都,葛飾区,東金町１丁目１３番１０号第一ソシアルビル１Ｆ,,13,122,1250041,,,,,,,2023-02-17,1,,,,,ゼロワン,0
818,4011803005528,新規,0,2023-02-17,2023-02-17,ＱＬ合同会社,,合同会社,東京都,足立区,皿沼２丁目８番１５号ランドフォレスト足立皿沼Ｉ－４０１号,00129479,13,121,1230862,,,,,,,2023-02-17,1,,,,,キューエル,0
822,4012801022151,新規,0,2023-02-17,2023-02-17,アスカ工業株式会社,,株式会社,東京都,武蔵村山市,神明４丁目１１８番地の４,,13,223,2080002,,,,,,,2023-02-17,1,,,,,アスカコウギョウ,0
827,4013303006485,新規,0,2023-02-17,2023-02-17,合同会社爽仙,,合同会社,東京都,豊島区,南大塚３丁目１９番１４号,,13,116,1700005,,,,,,,2023-02-17,1,,,,,ソウセン,0
831,4020001150268,新規,0,2023-02-17,2023-02-17,株式会社ｐｅｔｉｔ　ｂｏｎｈｅｕｒ,,株式会社,神奈川県,川崎市中原区,西加瀬１１－２５,,14,133,2110024,,,,,,,2023-02-17,1,,,,,プティボヌール,0
832,4020001150342,新規,0,2023-02-17,2023-02-17,株式会社エスプロ,,株式会社,神奈川県,横浜市西区,北幸２丁目１０番４８号むつみビル３Ｆ,,14,103,2200004,,,,,,,2023-02-17,1,,,,,エスプロ,0
834,4020003023348,新規,0,2023-02-17,2023-02-17,合同会社Ｉｗａｌｙｚｅ,,合同会社,神奈川県,川崎市宮前区,南野川２丁目２２－１２クレストメゾンＩ－２０２,00129492,14,136,2160042,,,,,,,2023-02-17,1,,,,,イワライズ,0
835,4020003023356,新規,0,2023-02-17,2023-02-17,合同会社ケーエスエスケー,,合同会社,神奈川県,横浜市保土ケ谷区,星川２丁目１４番２７号,,14,106,2400006,,,,,,,2023-02-17,1,,,,,ケーエスエスケー,0
838,4021001078243,新規,0,2023-02-17,2023-02-17,株式会社ｅＩＰ,,株式会社,神奈川県,大和市,桜森２丁目１０番１４号ジェームスタウン相模大塚１０３,,14,213,2420028,,,,,,,2023-02-17,1,,,,,イーアイピー,0
840,4021003012778,新規,0,2023-02-17,2023-02-17,銘創合同会社,,合同会社,神奈川県,厚木市,旭町１丁目３３番９－２０３号,,14,212,2430014,,,,,,,2023-02-17,1,,,,,メイソウ,0
845,4030001152453,新規,0,2023-02-17,2023-02-17,株式会社ＣＨＩＬＬ＆ＣＲＡＦＴ,,株式会社,埼玉県,越谷市,越ヶ谷３丁目６番２８号,,11,222,3430813,,,,,,,2023-02-17,1,,,,,チルアンドクラフト,0
846,4030001152461,新規,0,2023-02-17,2023-02-17,株式会社Ｌｅｆｔｙ．Ｈａｍｓｔｅｒ,,株式会社,埼玉県,川越市,寿町１丁目２２９３番地５,,11,201,3501116,,,,,,,2023-02-17,1,,,,,レフティーハムスター,0
850,4030003021185,新規,0,2023-02-17,2023-02-17,ＷＩＬＬ　ＤＲＥＡＭＳ合同会社,,合同会社,埼玉県,春日部市,備後東２丁目１４番１５号クレセント南春日部２０２,,11,214,3440032,,,,,,,2023-02-17,1,,,,,ウィルドリームス,0
851,4030003021193,新規,0,2023-02-17,2023-02-17,Ｔｈｉｎｇ合同会社,,合同会社,埼玉県,坂戸市,八幡１丁目３－２２アルファウイングス５０６号,,11,239,3500223,,,,,,,2023-02-17,1,,,,,ティング,0
856,4040001127116,新規,0,2023-02-17,2023-02-17,ＭＹサービス株式会社,,株式会社,千葉県,千葉市中央区,富士見１丁目１４番１３号千葉大栄ビル８階,,12,101,2600015,,,,,,,2023-02-17,1,,,,,エムワイサービス,0
859,4040003021977,新規,0,2023-02-17,2023-02-17,ＰＥＡＲＬ　ＭＯＴＯＲＳ合同会社,,合同会社,千葉県,山武市,松尾町借毛本郷２３００－２－１,,12,237,2891537,,,,,,,2023-02-17,1,,,,,ペアルモータース,0
865,4060003004427,新規,0,2023-02-17,2023-02-17,合同会社和興エナジーＯ,,合同会社,栃木県,真岡市,中１１３番地１１,,09,209,3214351,,,,,,,2023-02-17,1,,,,,ワコウエナジーオー,0
867,4070003004830,新規,0,2023-02-17,2023-02-17,合同会社ＪＡＭＳ,,合同会社,群馬県,前橋市,上新田町１０２３番地１０,,10,201,3710821,,,,,,,2023-02-17,1,,,,,ジャムズ,0
868,4080101023797,新規,0,2023-02-17,2023-02-17,株式会社ＧＬＯＲＹ,,株式会社,静岡県,富士宮市,貴船町１２番１６号,,22,207,4180042,,,,,,,2023-02-17,1,,,,,グローリー,0
869,4090003002254,新規,0,2023-02-17,2023-02-17,合同会社あんり,,合同会社,山梨県,甲斐市,篠原２７２４番地１,,19,210,4000115,,,,,,,2023-02-17,1,,,,,アンリ,0
877,4120001252525,新規,0,2023-02-17,2023-02-17,株式会社みらい,,株式会社,大阪府,大阪市西成区,旭１丁目２番１１号,,27,122,5570032,,,,,,,2023-02-17,1,,,,,ミライ,0
878,4120001252541,新規,0,2023-02-17,2023-02-17,株式会社真華,,株式会社,大阪府,大阪市中央区,南船場４丁目１２番９号クレスト心斎橋８０５号室,,27,128,5420081,,,,,,,2023-02-17,1,,,,,シンカ,0
879,4120001252582,新規,0,2023-02-17,2023-02-17,一騰株式会社,,株式会社,大阪府,大阪市城東区,鴫野西１丁目１３番７－１０１号,,27,118,5360014,,,,,,,2023-02-17,1,,,,,イットウ,0
880,4120001252616,新規,0,2023-02-17,2023-02-17,株式会社ＲＥＺＶＡＮＩ,,株式会社,大阪府,大阪市淀川区,十三本町１丁目７番２９号中川ビル５階,,27,123,5320024,,,,,,,2023-02-17,1,,,,,レズバニ,0
881,4120001252632,新規,0,2023-02-17,2023-02-17,株式会社Ｑｒｅｅｔ,,株式会社,大阪府,大阪市中央区,淡路町２丁目３－１４日宝グリーンビル６階３号室,,27,128,5410047,,,,,,,2023-02-17,1,,,,,クリート,0
882,4120001252649,新規,0,2023-02-17,2023-02-17,株式会社たむほる,,株式会社,大阪府,大阪市北区,松ケ枝町８番２０号,,27,127,5300037,,,,,,,2023-02-17,1,,,,,タムホル,0
886,4120003023453,新規,0,2023-02-17,2023-02-17,合同会社ハミングバード,,合同会社,大阪府,大阪市大正区,南恩加島５丁目１番２６号,,27,108,5510021,,,,,,,2023-02-17,1,,,,,ハミングバード,0
887,4120003023461,新規,0,2023-02-17,2023-02-17,奕豪合同会社,,合同会社,大阪府,大阪市西成区,松１丁目５番４号２０３号室,,27,122,5570034,,,,,,,2023-02-17,1,,,,,イハオ,0
900,4130001073697,新規,0,2023-02-17,2023-02-17,株式会社Ｋ’ｓクリエーション,,株式会社,京都府,京都市山科区,東野門口町３４番地１０,,26,110,6078154,,,,,,,2023-02-17,1,,,,,ケーズクリエーション,0
908,4140001129127,新規,0,2023-02-17,2023-02-17,株式会社ａｎｄｔｅｔｅ,,株式会社,兵庫県,神戸市垂水区,清水が丘１丁目２５番１１号コモンパレス清水が丘６０４号室,,28,108,6550031,,,,,,,2023-02-17,1,,,,,アンドテテ,0
909,4140001129143,新規,0,2023-02-17,2023-02-17,リベルテプラス株式会社,,株式会社,兵庫県,西宮市,小松東町３丁目９番１１号２０２,,28,204,6638123,,,,,,,2023-02-17,1,,,,,リベルテプラス,0
910,4140003018724,新規,0,2023-02-17,2023-02-17,合同会社Ｂｒｉｌｌａｒｅ,,合同会社,兵庫県,宝塚市,金井町４番５４号２０３号室,,28,214,6650824,,,,,,,2023-02-17,1,,,,,ブリラーレ,0
911,4160001024838,新規,0,2023-02-17,2023-02-17,株式会社蓮華会,,株式会社,滋賀県,東近江市,東中野町１番６号,,25,213,5270013,,,,,,,2023-02-17,1,,,,,レンゲカイ,0
928,4180001154996,新規,0,2023-02-17,2023-02-17,株式会社ローザ‐ＢＥＡＵＴＹ＆ＷＥＬＬＮＥＳＳ,,株式会社,愛知県,名古屋市西区,名駅２丁目１５番３０号サンパーク名駅スクエア１４０１号,,23,104,4510045,,,,,,,2023-02-17,1,,,,,ローザビューティーアンドウェルネス,0
929,4180001155004,新規,0,2023-02-17,2023-02-17,株式会社Ｇ＆Ｇ,,株式会社,愛知県,名古屋市南区,元塩町２丁目１３番地の１三旺マンション名南５０５号,,23,112,4570823,,,,,,,2023-02-17,1,,,,,ジーアンドジー,0
930,4180001155012,新規,0,2023-02-17,2023-02-17,株式会社エレガンス・ラボ,,株式会社,愛知県,名古屋市名東区,一社４丁目１番地,,23,115,4650093,,,,,,,2023-02-17,1,,,,,エレガンスラボ,0
932,4180003024850,新規,0,2023-02-17,2023-02-17,ＭＥＲＡＬ合同会社,,合同会社,愛知県,津島市,愛宕町９丁目５１番地ビレッジハウス愛宕０２号棟４０２号室,,23,208,4960036,,,,,,,2023-02-17,1,,,,,メラル,0
933,4180003024859,新規,0,2023-02-17,2023-02-17,ＮＥＫ合同会社,,合同会社,愛知県,名古屋市緑区,太子３丁目９５番地,,23,114,4580823,,,,,,,2023-02-17,1,,,,,エヌイーケー,0
934,4180301037117,新規,0,2023-02-17,2023-02-17,株式会社マンダイディライト東日本,,株式会社,愛知県,豊田市,本地町４丁目２２番地１,,23,211,4710848,,,,,,,2023-02-17,1,,,,,マンダイディライトヒガシニホン,0
938,4210001019238,新規,0,2023-02-17,2023-02-17,株式会社ＣＡＭＰ　ＣＲＥＡＴＯＲＳ,,株式会社,福井県,福井市,太田町第３０号３０番地,,18,201,9190323,,,,,,,2023-02-17,1,,,,,キャンプクリエイターズ,0
943,4220003003453,新規,0,2023-02-17,2023-02-17,合同会社タントラ,,合同会社,石川県,金沢市,泉本町４丁目１０１‐２‐４０５号室,,17,201,9218042,,,,,,,2023-02-17,1,,,,,タントラ,0
952,4260001037656,新規,0,2023-02-17,2023-02-17,株式会社エムサポート,,株式会社,岡山県,倉敷市,五日市７８番地１,,33,202,7100041,,,,,,,2023-02-17,1,,,,,エムサポート,0
959,4290001100592,新規,0,2023-02-17,2023-02-17,株式会社アネティス,,株式会社,福岡県,久留米市,東和町４－４－５０１号,,40,203,8300035,,,,,,,2023-02-17,1,,,,,アネティス,0
962,4290003013545,新規,0,2023-02-17,2023-02-17,Ａ’ｓ合同会社,,合同会社,福岡県,福岡市博多区,山王１丁目１６－１５－１１０３,,40,132,8120015,,,,,,,2023-02-17,1,,,,,エーシーズ,0
970,4330005010619,新規,0,2023-02-17,2023-02-17,医療法人岡本内科・呼吸器内科クリニック,,その他の設立登記法人,熊本県,菊池郡大津町,大字室２１３番地９,,43,403,8691235,,,,,,,2023-02-17,1,,,,,オカモトナイカコキュウキナイカクリニック,0
974,4360005006787,新規,0,2023-02-17,2023-02-17,一般社団法人里海会,,その他の設立登記法人,沖縄県,石垣市,字登野城１２７６番地５号,,47,207,9070004,,,,,,,2023-02-17,1,,,,,,0
988,4400003003030,新規,0,2023-02-17,2023-02-17,コプターコミュニケーション合同会社,,合同会社,岩手県,北上市,大堤北２丁目８番１２号,,03,206,0240052,,,,,,,2023-02-17,1,,,,,コプターコミュニケーション,0
989,4420003002666,新規,0,2023-02-17,2023-02-17,合同会社日月興林,,合同会社,青森県,むつ市,大畑町本町２４３番地８,,02,208,0394401,,,,,,,2023-02-17,1,,,,,ヒヅキコウリン,0
992,4430001088418,新規,0,2023-02-17,2023-02-17,安東シッピング株式会社,,株式会社,北海道,虻田郡倶知安町,ニセコひらふ五条３丁目１６番２６号,,01,400,0440086,,,,,,,2023-02-17,1,,,,,,0
994,4440005002745,新規,0,2023-02-17,2023-02-17,一般社団法人やどりぎ,,その他の設立登記法人,北海道,函館市,中島町３５番２８号１階,,01,202,0400014,,,,,,,2023-02-17,1,,,,,ヤドリギ,0
1000,4700150113997,新規,0,2023-02-17,2023-01-31,スタジオジュリナ,,その他,東京都,大田区,西馬込１丁目１０－１７クレストＫ１０３号室,,13,111,1430026,,,,,,,2023-01-31,1,,,,,スタジオジユリナ,0
1001,4700150114392,新規,0,2023-02-17,2023-02-17,ＨＳ　Ｈｏｌｄｉｎｇｓ　Ｃｏ．，Ｌｔｄ,,外国会社等,,,,,,,,ポートカリス　チェンバーズ　英領バージン諸島ＶＧ１１１０　トルトラ　ロードタウン　サーフランシス　ドレイクハイウェイ３０７６　エレン　スケルトンビル４階,,,,,,2023-02-17,1,,,,,エイチエスホールデイングスカンパニーリミテツド,0
1002,4700150114401,新規,0,2023-02-17,2023-02-17,Ｓｈｅｎｚｈｅｎ　Ｌｅｇｕ　Ｔｅｃｈｎｏｌｏｇｙ　Ｃｏ．，Ｌｔｄ,,外国会社等,,,,,,,,ｌｏｎｇｈｕａ　ｘｉｎｑｕ，ｍｉｎｚｈｉ　ｊｉｅｄａｏ，ｌｏｎｇ　ｓｈｅｎｇ　ｄｏｎｇ　ｌｕ，ｔｉａｎｇｏｎｇ　ｇｕｏｊｉ　ａｎｆａｎｇ　ｄｉａｎｚｉ　ｇｕａｎｇｃｈａｎｇ　１０ｌｏｕ，Ｂ１０５０，ｓｈｅｎｚｈｅｎ，ｇｕａｎｇｄｏｎｇ，Ｃｈｉｎａ,,,,,,2023-02-17,1,,,,,シンセンレグテクノロジーカンパニーリミテッド,0
1010,5010001233015,新規,0,2023-02-17,2023-02-17,ＬｅａＮｅｘｔ株式会社,,株式会社,東京都,中央区,晴海３丁目１３－１,,13,102,1040053,,,,,,,2023-02-17,1,,,,,レアネクスト,0
1011,5010001233114,新規,0,2023-02-17,2023-02-17,Ｘ　Ｃａｐｉｔａｌ　Ｐａｒｔｎｅｒｓ株式会社,,株式会社,東京都,中央区,日本橋箱崎町１７－８,,13,102,1030015,,,,,,,2023-02-17,1,,,,,クロスキャピタルパートナーズ,0
1015,5010103002078,新規,0,2023-02-17,2023-02-17,ＳＴＡＲ合同会社,,合同会社,東京都,八王子市,新町２番５号コスモリード八王子２Ｆ－１７,,13,201,1920065,,,,,,,2023-02-17,1,,,,,スター,0
1026,5010401172548,新規,0,2023-02-17,2023-02-17,日潜ホールディングス株式会社,,株式会社,東京都,港区,東麻布３丁目４番１２号,,13,103,1060044,,,,,,,2023-02-17,1,,,,,ニッセンホールディングス,0
1030,5010405021833,新規,0,2023-02-17,2023-02-17,ＲＢソーラージニアホールディングス一般社団法人,,その他の設立登記法人,東京都,港区,虎ノ門３丁目２２番１０－２０１号,,13,103,1050001,,,,,,,2023-02-17,1,,,,,アールビーソーラージニアホールディングス,0
1045,5010903007986,新規,0,2023-02-17,2023-02-17,青木商事合同会社,,合同会社,東京都,世田谷区,松原３丁目４１－２１－４０４,,13,112,1560043,,,,,,,2023-02-17,1,,,,,アオキショウジ,0
1058,5011001152675,新規,0,2023-02-17,2023-02-17,株式会社Ｃ＆Ｓ,,株式会社,東京都,渋谷区,恵比寿１丁目１５番地９号日宝恵比寿ビル４０３,,13,113,1500013,,,,,,,2023-02-17,1,,,,,コネクトアンドシェア,0
1062,5011003016300,新規,0,2023-02-17,2023-02-17,合同会社ｋｔスタジオ,,合同会社,東京都,渋谷区,本町２丁目１３－８Ｅハウス２０１,,13,113,1510071,,,,,,,2023-02-17,1,,,,,ケーティースタジオ,0
1063,5011003016309,新規,0,2023-02-17,2023-02-17,１７ＬｉｆｅＷｏｒｋｓ合同会社,,合同会社,東京都,渋谷区,桜丘町１５番１４号フジビル４０－７階,,13,113,1500031,,,,,,,2023-02-17,1,,,,,セブンティーンライフワークス,0
1064,5011003016325,新規,0,2023-02-17,2023-02-17,合同会社Ｊｅｌｌｙ,,合同会社,東京都,渋谷区,道玄坂１丁目１０番８号渋谷道玄坂東急ビル２Ｆ－Ｃ,,13,113,1500043,,,,,,,2023-02-17,1,,,,,ジェリー,0
1074,5011801041945,新規,0,2023-02-17,2023-02-17,株式会社ＮＥＩＧＥ,,株式会社,東京都,足立区,平野２丁目１番２８号,,13,121,1210076,,,,,,,2023-02-17,1,,,,,ネージ,0
1076,5012401040197,新規,0,2023-02-17,2023-02-17,株式会社リファイン,,株式会社,東京都,調布市,布田６丁目１９番地３７,,13,208,1820024,,,,,,,2023-02-17,1,,,,,リファイン,0
1078,5012801022150,新規,0,2023-02-17,2023-02-17,高橋空調株式会社,,株式会社,東京都,立川市,西砂町４丁目３５番地の９,,13,202,1900034,,,,,,,2023-02-17,1,,,,,タカハシクウチョウ,0
1082,5013301050352,新規,0,2023-02-17,2023-02-17,株式会社ＳＮワールド,,株式会社,東京都,豊島区,東池袋２丁目３９番２－６０１号,,13,116,1700013,,,,,,,2023-02-17,1,,,,,エスエヌワールド,0
1092,5020001150168,新規,0,2023-02-17,2023-02-17,株式会社月兎,,株式会社,神奈川県,横浜市神奈川区,菅田町７５４番地１０,,14,102,2210864,,,,,,,2023-02-17,1,,,,,,0
1093,5020001150291,新規,0,2023-02-17,2023-02-17,株式会社Ｔａｃｈｉａｉ,,株式会社,神奈川県,横浜市神奈川区,羽沢町６５５番地,,14,102,2210863,,,,,,,2023-02-17,1,,,,,タチアイ,0
1094,5020001150317,新規,0,2023-02-17,2023-02-17,株式会社ＮＫＫＮ,,株式会社,神奈川県,横浜市青葉区,新石川１丁目３８番地１ニューブリッジビル１０１,,14,117,2250003,,,,,,,2023-02-17,1,,,,,エヌケーケーエヌ,0
1096,5021001078234,新規,0,2023-02-17,2023-02-17,オルパワ株式会社,,株式会社,神奈川県,厚木市,旭町２丁目８番８号グリーンコーポ４０１,,14,212,2430014,,,,,,,2023-02-17,1,,,,,オルパワ,0
1097,5021001078242,新規,0,2023-02-17,2023-02-17,株式会社Ｄａｙ　Ｏｎｅ,,株式会社,神奈川県,藤沢市,藤沢５４１番地の４５－２階,,14,205,2510052,,,,,,,2023-02-17,1,,,,,デイワン,0
1098,5021003012769,新規,0,2023-02-17,2023-02-17,合同会社ＫＥＳ,,合同会社,神奈川県,茅ヶ崎市,若松町１５―２２パティオ湘南１０２号室,,14,207,2530051,,,,,,,2023-02-17,1,,,,,ケーイーエス,0
1100,5021005012742,新規,0,2023-02-17,2023-02-17,一般社団法人ことの波の道,,その他の設立登記法人,神奈川県,鎌倉市,材木座３丁目１２番２６－１０５号,,14,204,2480013,,,,,,,2023-02-17,1,,,,,コトノハノミチ,0
1109,5030001152460,新規,0,2023-02-17,2023-02-17,株式会社Ｂｒｅｅｚｅ,,株式会社,埼玉県,飯能市,大字双柳１４８３番地６９,,11,209,3570021,,,,,,,2023-02-17,1,,,,,ブリーズ,0
1110,5030001152469,新規,0,2023-02-17,2023-02-17,株式会社Ｆｉｒｓｔ　Ｓｔｅｐ,,株式会社,埼玉県,さいたま市西区,大字内野本郷４７５番地５,,11,101,3310045,,,,,,,2023-02-17,1,,,,,ファーストステップ,0
1111,5030001152477,新規,0,2023-02-17,2023-02-17,株式会社ボヌール企画,,株式会社,埼玉県,草加市,花栗１丁目１１番６号,,11,221,3400044,,,,,,,2023-02-17,1,,,,,ボヌールキカク,0
1122,5040001127115,新規,0,2023-02-17,2023-02-17,株式会社渡辺商店,,株式会社,千葉県,富里市,十倉７２９番地,,12,233,2860212,,,,,,,2023-02-17,1,,,,,ワタナベショウテン,0
1123,5040001127123,新規,0,2023-02-17,2023-02-17,日本デジタライズ株式会社,,株式会社,千葉県,柏市,南柏２丁目４番２２号モリタビルＢ１,,12,217,2770855,,,,,,,2023-02-17,1,,,,,ニホンデジタライズ,0
1126,5040003021968,新規,0,2023-02-17,2023-02-17,合同会社Ｇ’ｄａｙ,,合同会社,千葉県,千葉市中央区,富士見２丁目１８－４大樹ビル２Ｆ,,12,101,2600015,,,,,,,2023-02-17,1,,,,,ジーデイ,0
1133,5060001035712,新規,0,2023-02-17,2023-02-17,ａ’ＴＲＵＳ株式会社,,株式会社,栃木県,宇都宮市,中里町１０５８番地１,,09,201,3210414,,,,,,,2023-02-17,1,,,,,アトラス,0
1135,5060003004426,新規,0,2023-02-17,2023-02-17,合同会社和興エナジーＮ,,合同会社,栃木県,真岡市,中１１３番地１１,,09,209,3214351,,,,,,,2023-02-17,1,,,,,ワコウエナジーエヌ,0
1137,5070001040117,新規,0,2023-02-17,2023-02-17,喜縁株式会社,,株式会社,群馬県,桐生市,東２丁目１４番２７号,,10,203,3760034,,,,,,,2023-02-17,1,,,,,キエン,0
1144,5090001017988,新規,0,2023-02-17,2023-02-17,株式会社ＯｎｅＷｏｒｌｄ,,株式会社,山梨県,甲府市,七沢町７３番地,,19,201,4000825,,,,,,,2023-02-17,1,,,,,ワンワールド,0
1158,5120001252549,新規,0,2023-02-17,2023-02-17,株式会社クロスト設計,,株式会社,大阪府,大阪市中央区,平野町２丁目５番１４号,,27,128,5410046,,,,,,,2023-02-17,1,,,,,クロストセッケイ,0
1159,5120001252557,新規,0,2023-02-17,2023-02-17,翼斉来株式会社,,株式会社,大阪府,大阪市鶴見区,浜３丁目８－４３－３０５号室,,27,124,5380035,,,,,,,2023-02-17,1,,,,,イセイライ,0
1160,5120001252581,新規,0,2023-02-17,2023-02-17,株式会社アンジュ,,株式会社,大阪府,大阪市此花区,島屋６丁目２番９０－１４０９号,,27,104,5540024,,,,,,,2023-02-17,1,,,,,アンジュ,0
1162,5120003023452,新規,0,2023-02-17,2023-02-17,合同会社エムノ,,合同会社,大阪府,寝屋川市,高柳２丁目４８－１４,,27,215,5720051,,,,,,,2023-02-17,1,,,,,エムノ,0
1163,5120003023460,新規,0,2023-02-17,2023-02-17,合同会社成田商店,,合同会社,大阪府,寝屋川市,成田町１０番１５号,,27,215,5720004,,,,,,,2023-02-17,1,,,,,ナリタショウテン,0
1173,5130001073696,新規,0,2023-02-17,2023-02-17,株式会社サニーフード,,株式会社,京都府,京都市左京区,下鴨宮河町５３番地,,26,103,6060801,,,,,,,2023-02-17,1,,,,,サニーフード,0
1177,5140001129142,新規,0,2023-02-17,2023-02-17,株式会社Ｃａｔｗｏｒｋ,,株式会社,兵庫県,尼崎市,潮江１丁目１６番１－１６０６号,,28,202,6610976,,,,,,,2023-02-17,1,,,,,キャットワーク,0
1178,5140003018731,新規,0,2023-02-17,2023-02-17,ＨＩＲＯＳＥ　ＤＥＳＩＧＮ　ＯＦＦＩＣＥ合同会社,,合同会社,兵庫県,芦屋市,大原町６番２－１０１号,,28,206,6590092,,,,,,,2023-02-17,1,,,,,ヒロセデザインオフィス,0
1180,5160001024845,新規,0,2023-02-17,2023-02-17,みらいえ住宅株式会社,,株式会社,滋賀県,栗東市,辻５２６番地１,,25,208,5203042,,,,,,,2023-02-17,1,,,,,ミライエジュウタク,0
1183,5180003024858,新規,0,2023-02-17,2023-02-17,合同会社ＣＲＳ６６,,合同会社,愛知県,名古屋市中川区,尾頭橋３丁目１０番８号エステムコート名古屋サウスネクスト５０２,,23,110,4540012,,,,,,,2023-02-17,1,,,,,シーアールエスロクジュウロク,0
1186,5200003005847,新規,0,2023-02-17,2023-02-17,合同会社Ｓ‐ＷＯＲＫＳ．１７３,,合同会社,岐阜県,美濃加茂市,加茂野町鷹之巣１６３５番地２,,21,211,5050051,,,,,,,2023-02-17,1,,,,,エスハイフンワークスドットイチナナサン,0
1188,5220001025275,新規,0,2023-02-17,2023-02-17,株式会社ＤＲＯＮＥ金沢,,株式会社,石川県,小松市,正蓮寺町い４９番地,,17,203,9230151,,,,,,,2023-02-17,1,,,,,ドローンカナザワ,0
1193,5240005015519,新規,0,2023-02-17,2023-02-17,医療法人彩潤会,,その他の設立登記法人,広島県,広島市中区,八丁堀１２番４号八丁堀わかばビル５階,,34,101,7300013,,,,,,,2023-02-17,1,,,,,サイジュンカイ,0
1204,5290001100600,新規,0,2023-02-17,2023-02-17,ｔｈｉｒｄ　ｒ株式会社,,株式会社,福岡県,福岡市博多区,博多駅前１丁目２３番１号－５Ｆ－Ｂ,,40,132,8120011,,,,,,,2023-02-17,1,,,,,サードアール,0
1206,5290803004346,新規,0,2023-02-17,2023-02-17,Ｍｕｕｕｕｕ合同会社,,合同会社,福岡県,北九州市小倉北区,熊谷２丁目２６－１１,,40,106,8030864,,,,,,,2023-02-17,1,,,,,ムゥゥゥゥゥ,0
1216,5370001049615,新規,0,2023-02-17,2023-02-17,株式会社アドユニックス,,株式会社,宮城県,宮城郡利府町,しらかし台５丁目１１番地１６,,04,406,9810134,,,,,,,2023-02-17,1,,,,,アドユニックス,0
1219,5370005010597,新規,0,2023-02-17,2023-02-17,一般社団法人二ッ谷,,その他の設立登記法人,宮城県,仙台市泉区,上谷刈４丁目８番２１号,,04,105,9813121,,,,,,,2023-02-17,1,,,,,フタツヤ,0
1227,5380001033493,新規,0,2023-02-17,2023-02-17,株式会社ニココ,,株式会社,福島県,双葉郡富岡町,小浜４７１番地エアリーヒルズＩ－１０２,00129485,07,543,9791111,,,,,,,2023-02-17,1,,,,,ニココ,0
1230,5430001088458,新規,0,2023-02-17,2023-02-17,株式会社ＲＡＩ,,株式会社,北海道,札幌市中央区,南七条西８丁目１番地１８Ｃ・Ｂ１号館５階,,01,101,0640807,,,,,,,2023-02-17,1,,,,,ライ,0
1240,5700150112486,新規,0,2023-02-17,2022-11-01,Ｌｕｃｋ　Ｂｌｕｅ　Ａｃｃｏｕｎｔ,,その他,愛媛県,松山市,中央１丁目６－１３ウィンディー中央３０１号,,38,201,7918015,,,,,,,2022-11-01,1,,,,,ラツクブルーアカウント,0
1241,5700150114391,新規,0,2023-02-17,2023-02-17,Ｎｉｎｇｂｏｓｈｉ　Ｑｉａｏｑｕｄａｎｎｉ　Ｄｉａｎｚｉｓｈａｎｇｗｕ　Ｙｏｕｘｉａｎｇｏｎｇｓｉ,,外国会社等,,,,,,,,ｚｈｅｊｉａｎｇｓｈｅｎｇｎｉｎｇｂｏｓｈｉｈａｉｓｈｕｑｕｊｉｓｈｉｇａｎｇｚｈｅｎｊｉｓｈｉｘｉｌｕ２９ｈａｏ４７０ｓｈｉ,,,,,,2023-02-17,1,,,,,ニンボシチアオツダンニデンシシヨウムユウゲンコウシ,0
1242,5700150114400,新規,0,2023-02-17,2023-02-17,Ｆｕｚｈｏｕ　Ｊｉｃｕｉｇｅ　Ｓｈａｎｇｍａｏ　Ｙｏｕｘｉａｎｇｏｎｇｓｉ,,外国会社等,,,,,,,,１３０６，Ｂｌｄｇ２１，Ｐｈａｓｅ　７，Ｅａｓｔ　Ｌａｋｅ　Ｈａｉｘｉ　Ｄｅｖｅｌｏｐｍｅｎｔ　Ｂａｓｅ，Ｗｅｎｗｕｓｈａ　Ｓｔ．，Ｃｈａｎｇｌｅ　Ｄｉｓｔ，Ｆｕｚｈｏｕ，Ｆｕｊｉａｎ，Ｃｈｉｎａ,,,,,,2023-02-17,1,,,,,フゾウジスイゲシャンマオユウゲンコウシ,0
1247,6010001232981,新規,0,2023-02-17,2023-02-17,リーガルプロテクション株式会社,,株式会社,東京都,中央区,銀座１丁目２２番１１号銀座大竹ビジデンス２Ｆ,,13,102,1040061,,,,,,,2023-02-17,1,,,,,リーガルプロテクション,0
1248,6010001233055,新規,0,2023-02-17,2023-02-17,株式会社ＢｌｉｓｓＷｅｌｌ,,株式会社,東京都,中央区,日本橋室町１丁目２－６日本橋大栄ビル７階,,13,102,1030022,,,,,,,2023-02-17,1,,,,,ブリスウェル,0
1253,6010003039830,新規,0,2023-02-17,2023-02-17,タイセイコーポレーション合同会社,,合同会社,東京都,中央区,日本橋茅場町２丁目４番１０号,,13,102,1030025,,,,,,,2023-02-17,1,,,,,タイセイコーポレーション,0
1255,6010103002085,新規,0,2023-02-17,2023-02-17,合同会社サンライズ,,合同会社,東京都,八王子市,宇津木町９１０番地５６,,13,201,1920024,,,,,,,2023-02-17,1,,,,,サンライズ,0
1264,6010403029497,新規,0,2023-02-17,2023-02-17,ベイシステック合同会社,,合同会社,東京都,港区,虎ノ門１丁目１７番１号虎ノ門ヒルズビジネスタワー１５階,,13,103,1050001,,,,,,,2023-02-17,1,,,,,ベイシステック,0
1265,6010405021774,新規,0,2023-02-17,2023-02-17,第一土地家屋調査士法人,,その他の設立登記法人,東京都,港区,赤坂１丁目１番１７号,,13,103,1070052,,,,,,,2023-02-17,1,,,,,ダイイチ,0
1266,6010405021832,新規,0,2023-02-17,2023-02-17,ＲＢソーラーボタンホールディングス一般社団法人,,その他の設立登記法人,東京都,港区,虎ノ門３丁目２２番１０－２０１号,,13,103,1050001,,,,,,,2023-02-17,1,,,,,アールビーソーラーボタンホールディングス,0
1275,6010701043860,新規,0,2023-02-17,2023-02-17,株式会社Ｌ．Ｉ．Ｔ,,株式会社,東京都,品川区,上大崎３丁目１１番２号Ｉ－２０２,00129482,13,109,1410021,,,,,,,2023-02-17,1,,,,,エルアイティー,0
1276,6010701043869,新規,0,2023-02-17,2023-02-17,株式会社レバキャリ,,株式会社,東京都,品川区,東品川２丁目１番１１号,,13,109,1400002,,,,,,,2023-02-17,1,,,,,レバキャリ,0
1280,6010801033704,新規,0,2023-02-17,2023-02-17,株式会社エルエーディー,,株式会社,東京都,大田区,山王１丁目３０番１号,,13,111,1430023,,,,,,,2023-02-17,1,,,,,エルエーディー,0
1285,6010901052546,新規,0,2023-02-17,2023-02-17,株式会社ＳＩメディカル,,株式会社,東京都,世田谷区,成城９丁目１５番９号,,13,112,1570066,,,,,,,2023-02-17,1,,,,,エスアイメディカル,0
1288,6010903007969,新規,0,2023-02-17,2023-02-17,合同会社アマナキ,,合同会社,東京都,世田谷区,桜新町２丁目２７番２１－５０５号,,13,112,1540015,,,,,,,2023-02-17,1,,,,,アマナキ,0
1293,6011001152591,新規,0,2023-02-17,2023-02-17,株式会社ｆｉｉｋａ　ｐｒｏｄｕｃｔｓ,,株式会社,東京都,渋谷区,松濤１丁目１０番２２号,,13,113,1500046,,,,,,,2023-02-17,1,,,,,フィーカプロダクツ,0
1294,6011001152666,新規,0,2023-02-17,2023-02-17,ＥＴＷＣ株式会社,,株式会社,東京都,渋谷区,鉢山町７番８号,,13,113,1500035,,,,,,,2023-02-17,1,,,,,イーティーダブリューシー,0
1299,6011103012719,新規,0,2023-02-17,2023-02-17,合同会社Ｅｎｇａｇｅｍｅｎｔ,,合同会社,東京都,新宿区,北新宿１丁目８番２４号ガリシア新宿Ｎｏｒｔｈ１３０１,,13,104,1690074,,,,,,,2023-02-17,1,,,,,エンゲージメント,0
1301,6011201024426,新規,0,2023-02-17,2023-02-17,株式会社希望,,株式会社,東京都,中野区,南台３丁目２６番９号パステル南台２０３号,,13,114,1640014,,,,,,,2023-02-17,1,,,,,キボウ,0
1303,6011303004672,新規,0,2023-02-17,2023-02-17,合同会社豊作,,合同会社,東京都,杉並区,和田３丁目６１番１号メゾン・ロイヤル３０２,,13,115,1660012,,,,,,,2023-02-17,1,,,,,ホウサク,0
1309,6011801041960,新規,0,2023-02-17,2023-02-17,エクシムオーディーエフ株式会社,,株式会社,東京都,葛飾区,四つ木４丁目１５番１号,,13,122,1240011,,,,,,,2023-02-17,1,,,,,エクシムオーディーエフ,0
1310,6011803005526,新規,0,2023-02-17,2023-02-17,合同会社メイクサンズ,,合同会社,東京都,足立区,本木１丁目２３番７号,,13,121,1230853,,,,,,,2023-02-17,1,,,,,メイクサンズ,0
1321,6013301050351,新規,0,2023-02-17,2023-02-17,株式会社ＡＯＩ　Ｒｅａｌｔｙ,,株式会社,東京都,豊島区,南池袋３丁目８番３号,,13,116,1710022,,,,,,,2023-02-17,1,,,,,アオイリアルティ,0
1325,6020001150299,新規,0,2023-02-17,2023-02-17,株式会社Ｂａｇｇｉｏ,,株式会社,神奈川県,横浜市中区,元町５丁目１９６番地ルネサス元町４階,,14,104,2310861,,,,,,,2023-02-17,1,,,,,バッジオ,0
1329,6020003023321,新規,0,2023-02-17,2023-02-17,カワセミ不動産合同会社,,合同会社,神奈川県,川崎市多摩区,南生田２丁目２番２号,,14,135,2140036,,,,,,,2023-02-17,1,,,,,カワセミフドウサン,0
1332,6021003012784,新規,0,2023-02-17,2023-02-17,合同会社ＺＥＲＯＷＡＳＴＥ,,合同会社,神奈川県,横須賀市,浦郷町４丁目３１番地７２,,14,201,2370062,,,,,,,2023-02-17,1,,,,,ゼロウェイスト,0
1340,6030001152451,新規,0,2023-02-17,2023-02-17,株式会社ＭＫアセットカンパニー,,株式会社,埼玉県,川越市,脇田町２２番地２ユアコート川越カレナ１３０６号室,,11,201,3501122,,,,,,,2023-02-17,1,,,,,エムケイアセットカンパニー,0
1344,6030003021134,新規,0,2023-02-17,2023-02-17,合同会社ＧＫＹ,,合同会社,埼玉県,川越市,上戸新町３３－１３,,11,201,3500817,,,,,,,2023-02-17,1,,,,,ジーケイワイ,0
1351,6040001127089,新規,0,2023-02-17,2023-02-17,株式会社Ｍピースライン,,株式会社,千葉県,市川市,田尻４丁目７番７－１０５号,,12,203,2720014,,,,,,,2023-02-17,1,,,,,エムピースライン,0
1352,6040001127147,新規,0,2023-02-17,2023-02-17,株式会社またき商事,,株式会社,千葉県,千葉市中央区,矢作町３２６－２,,12,101,2600851,,,,,,,2023-02-17,1,,,,,マタキショウジ,0
1356,6040003021967,新規,0,2023-02-17,2023-02-17,ＳＲ　ＩＮＴＥＲＮＡＴＩＯＮＡＬ合同会社,,合同会社,千葉県,野田市,岡田５７５番地１,,12,208,2700223,,,,,,,2023-02-17,1,,,,,エスアールインターナショナル,0
1358,6050003007222,新規,0,2023-02-17,2023-02-17,合同会社Ｅｔｅｒｎｉｔｙ,,合同会社,茨城県,土浦市,川口１丁目７―２森輝ビル２０１,,08,203,3000033,,,,,,,2023-02-17,1,,,,,エタニティー,0
1360,6060003004425,新規,0,2023-02-17,2023-02-17,合同会社和興エナジーＭ,,合同会社,栃木県,真岡市,中１１３番地１１,,09,209,3214351,,,,,,,2023-02-17,1,,,,,ワコウエナジーエム,0
1370,6090001017987,新規,0,2023-02-17,2023-02-17,株式会社山野精工,,株式会社,山梨県,都留市,与縄３２７番地,,19,204,4020012,,,,,,,2023-02-17,1,,,,,ヤマノセイコウ,0
1378,6120001252523,新規,0,2023-02-17,2023-02-17,日本熙望株式会社,,株式会社,大阪府,大阪市生野区,田島５丁目１９－７・９号室,,27,116,5440011,,,,,,,2023-02-17,1,,,,,ニホンキボウ,0
1379,6120001252564,新規,0,2023-02-17,2023-02-17,コモン株式会社,,株式会社,大阪府,大阪市西区,新町１丁目１４番３９号４Ｆ,,27,106,5500013,,,,,,,2023-02-17,1,,,,,コモン,0
1380,6120001252589,新規,0,2023-02-17,2023-02-17,ＫＣｂａｓｅ株式会社,,株式会社,大阪府,寝屋川市,池田東町５番１５号,,27,215,5720033,,,,,,,2023-02-17,1,,,,,ケイシーベース,0
1381,6120001252630,新規,0,2023-02-17,2023-02-17,ＨＹＭ株式会社,,株式会社,大阪府,大阪市阿倍野区,阪南町３丁目１９番２６号グランパシフィック阪南町４０３号,,27,119,5450021,,,,,,,2023-02-17,1,,,,,エイチワイエム,0
1393,6122001036708,新規,0,2023-02-17,2023-02-17,株式会社天翔産業,,株式会社,大阪府,柏原市,大字青谷１７５番地,,27,221,5820014,,,,,,,2023-02-17,1,,,,,テンショウサンギョウ,0
1398,6130001073695,新規,0,2023-02-17,2023-02-17,株式会社トワエモア,,株式会社,京都府,京都市中京区,柳馬場通夷川上る五丁目２３９番地１,,26,104,6040973,,,,,,,2023-02-17,1,,,,,トワエモア,0
1402,6140001129141,新規,0,2023-02-17,2023-02-17,株式会社ＳＡＳ商事,,株式会社,兵庫県,加古川市,加古川町中津８４５番地の３,,28,210,6750068,,,,,,,2023-02-17,1,,,,,エスエーエスショウジ,0
1403,6140001129158,新規,0,2023-02-17,2023-02-17,株式会社ＭＯＡ,,株式会社,兵庫県,西宮市,東山台２丁目７番地Ｄ４棟３０４号,,28,204,6691133,,,,,,,2023-02-17,1,,,,,モア,0
1404,6140001129166,新規,0,2023-02-17,2023-02-17,ＷＯＲＫみらい株式会社,,株式会社,兵庫県,神戸市兵庫区,浜山通３丁目６－３,,28,105,6520871,,,,,,,2023-02-17,1,,,,,ワークミライ,0
1407,6140003018730,新規,0,2023-02-17,2023-02-17,合同会社ＳＭＡアーキテクツ,,合同会社,兵庫県,神戸市須磨区,外浜町２丁目９番２５号,,28,107,6540043,,,,,,,2023-02-17,1,,,,,エスエムエーアーキテクツ,0
1410,6170001017483,新規,0,2023-02-17,2023-02-17,株式会社ＮＥＷライフ,,株式会社,和歌山県,和歌山市,西庄１０３６番地１６９,,30,201,6400112,,,,,,,2023-02-17,1,,,,,ニューライフ,0
1416,6180001155010,新規,0,2023-02-17,2023-02-17,株式会社Ｅｎｄｅａｖｏｒ,,株式会社,愛知県,名古屋市中村区,平池町４丁目６０番地の５（ロイヤルパークスＥＲささしま９２３号）,,23,105,4530872,,,,,,,2023-02-17,1,,,,,エンデバー,0
1417,6180001155043,新規,0,2023-02-17,2023-02-17,ＬＰ株式会社,,株式会社,愛知県,名古屋市西区,牛島町６番１号名古屋ルーセントタワー４０階,,23,104,4510046,,,,,,,2023-02-17,1,,,,,エルピー,0
1418,6180003024849,新規,0,2023-02-17,2023-02-17,合同会社シナル,,合同会社,愛知県,岩倉市,下本町丸之内１３４番地２メゾンフローレス３０７号,,23,228,4820005,,,,,,,2023-02-17,1,,,,,シナル,0
1430,6240001061094,新規,0,2023-02-17,2023-02-17,３ＭＴ株式会社,,株式会社,広島県,広島市南区,松原町１０番地１,,34,103,7320822,,,,,,,2023-02-17,1,,,,,スリーエムティー,0
1437,6290003013543,新規,0,2023-02-17,2023-02-17,合同会社未定,,合同会社,福岡県,那珂川市,王塚台３丁目２１０番地,,40,231,8111221,,,,,,,2023-02-17,1,,,,,ミテイ,0
1438,6290005018953,新規,0,2023-02-17,2023-02-17,特定非営利活動法人まなびや木の木,,その他の設立登記法人,福岡県,福岡市中央区,薬院２丁目３番５号エコール薬院６０１,,40,133,8100022,,,,,,,2023-02-17,1,,,,,マナビヤキノキ,0
1442,6330001030602,新規,0,2023-02-17,2023-02-17,Ｎｏｒｔｈ　Ｅｎｇｉｎｅｅｒｉｎｇ株式会社,,株式会社,熊本県,菊池市,西寺１４１８番地１,,43,210,8611323,,,,,,,2023-02-17,1,,,,,ノースエンジニアリング,0
1447,6340001025378,新規,0,2023-02-17,2023-02-17,株式会社みらい開発,,株式会社,鹿児島県,鹿児島市,中山町１２７４番地１,,46,201,8910105,,,,,,,2023-02-17,1,,,,,ミライカイハツ,0
1450,6350001018190,新規,0,2023-02-17,2023-02-17,株式会社鉄工業Ｂａｗ,,株式会社,宮崎県,北諸県郡三股町,稗田４３番地９,,45,341,8891903,,,,,,,2023-02-17,1,,,,,テッコウギョウバウ,0
1452,6360001031580,新規,0,2023-02-17,2023-02-17,株式会社ＲＩＡ,,株式会社,沖縄県,那覇市,真嘉比１丁目４－１,,47,201,9020068,,,,,,,2023-02-17,1,,,,,リア,0
1458,6370001049622,新規,0,2023-02-17,2023-02-17,株式会社Ｂ＆Ｍ,,株式会社,宮城県,仙台市若林区,六丁目字南９７番地の３東インター斎喜ビル６０２,,04,103,9840031,,,,,,,2023-02-17,1,,,,,ビーアンドエム,0
1464,6410001013400,新規,0,2023-02-17,2023-02-17,株式会社ＳＣＣ,,株式会社,秋田県,仙北市,田沢湖卒田字上真崎野３６１番地４,,05,215,0141113,,,,,,,2023-02-17,1,,,,,エスシーシー,0
1466,6420001018159,新規,0,2023-02-17,2023-02-17,株式会社アウル,,株式会社,青森県,十和田市,大字大沢田字下道４９番地２,,02,206,0340102,,,,,,,2023-02-17,1,,,,,アウル,0
1469,6430001088432,新規,0,2023-02-17,2023-02-17,株式会社側瀬運輸,,株式会社,北海道,苫小牧市,北光町３丁目１２番８号,,01,213,0530852,,,,,,,2023-02-17,1,,,,,ガワセウンユ,0
1477,6700150114390,新規,0,2023-02-17,2023-02-17,Ｐｒｉｎｉｃｓ．ｃｏ．Ｌｔｄ,,外国会社等,,,,,,,,１９７－５０，Ｓａｎｅｏｐ－ｒｏ，１５６ｂｅｏｍ－ｇｉｌ，Ｇｗｏｎｓｅｏｎ－ｇｕ，Ｓｕｗｏｎ－ｓｉ，Ｇｙｅｏｎｇｇｉ－ｄｏ，Ｒｅｐｕｂｌｉｃ　ｏｆ　Ｋｏｒｅａ,,,,,,2023-02-17,1,,,,,プリニクスカンパニーリミテツド,0
1478,6700150114399,新規,0,2023-02-17,2023-02-17,ＧＵＡＮＧＺＨＯＵ　ＭＩＰＩ　ＣＡＲ　ＡＣＣＥＳＳＯＲＩＥＳ　ＣＯ．，ＬＴＤ．,,外国会社等,,,,,,,,Ｎｏ．２０２，Ｎ　Ｂｕｉｌｄｉｎｇ，Ｗａｎｇｇａｎｇ　Ｓｈａｎｇｓｈｅｎｇｄｏｎｇ　Ｓｔｒｅｅｔ，Ｂａｉｙｕｎ　Ｄｉｓｔｒｉｃｔ，Ｇｕａｎｇｚｈｏｕ，Ｇｕａｎｇｄｏｎｇ　Ｐｒｏｖｉｎｃｅ，Ｃｈｉｎａ,,,,,,2023-02-17,1,,,,,ゴンジョウミピカーアクセサリーズカンパニーリミテッド,0
1484,7010001233021,新規,0,2023-02-17,2023-02-17,株式会社グラインドプラス,,株式会社,東京都,中央区,新川１丁目３番２１号,,13,102,1040033,,,,,,,2023-02-17,1,,,,,グラインドプラス,0
1491,7010101015526,新規,0,2023-02-17,2023-02-17,株式会社５８,,株式会社,東京都,八王子市,散田町１丁目１西八王子ハイツＡ－３１０,,13,201,1930832,,,,,,,2023-02-17,1,,,,,ゴーハチ,0
1493,7010401172546,新規,0,2023-02-17,2023-02-17,株式会社花都,,株式会社,東京都,港区,港南４丁目６番８－２６０８号,,13,103,1080075,,,,,,,2023-02-17,1,,,,,ハナミヤコ,0
1494,7010401172554,新規,0,2023-02-17,2023-02-17,株式会社Ｌｕｍｉｅｇｅ,,株式会社,東京都,港区,南麻布５丁目２番４号,,13,103,1060047,,,,,,,2023-02-17,1,,,,,ルミエージュ,0
1495,7010401172620,新規,0,2023-02-17,2023-02-17,株式会社パラダイス,,株式会社,東京都,港区,赤坂３丁目１１番１３号コンチネンタル赤坂ＩＩＩ４階,00129493,13,103,1070052,,,,,,,2023-02-17,1,,,,,パラダイス,0
1496,7010405021831,新規,0,2023-02-17,2023-02-17,ＲＢソーラービオラホールディングス一般社団法人,,その他の設立登記法人,東京都,港区,虎ノ門３丁目２２番１０－２０１号,,13,103,1050001,,,,,,,2023-02-17,1,,,,,アールビーソーラービオラホールディングス,0
1502,7010601062596,新規,0,2023-02-17,2023-02-17,株式会社ＥＣバスターズ,,株式会社,東京都,江東区,亀戸２丁目７番５号,,13,108,1360071,,,,,,,2023-02-17,1,,,,,イーシーバスターズ,0
1507,7010701043868,新規,0,2023-02-17,2023-02-17,Ａｃｉｇａｒ４Ｐａｒｔｎｅｒｓ株式会社,,株式会社,東京都,品川区,南品川６丁目７番地１Ｆｅｅｌ－Ａ１－２０２号室,,13,109,1400004,,,,,,,2023-02-17,1,,,,,アシガーフォーパートナーズ,0
1526,7011001152657,新規,0,2023-02-17,2023-02-17,Ｊａｐａｎ　Ｅｘｐｏｒｔｓ　Ｎｏｗ株式会社,,株式会社,東京都,渋谷区,神南１丁目２３番１４号,,13,113,1500041,,,,,,,2023-02-17,1,,,,,ジャパンエクスポーツナウ,0
1527,7011003016315,新規,0,2023-02-17,2023-02-17,合同会社数紅屋,,合同会社,東京都,渋谷区,道玄坂１丁目１０番８号渋谷道玄坂東急ビル２Ｆ－Ｃ,,13,113,1500043,,,,,,,2023-02-17,1,,,,,スーベニヤ,0
1530,7011101101852,新規,0,2023-02-17,2023-02-17,株式会社ＭＩＲＡＣＲＥＡＬ,,株式会社,東京都,新宿区,西新宿８丁目１１番１０号星野ビル３Ｆ,,13,104,1600023,,,,,,,2023-02-17,1,,,,,ミラクリアル,0
1532,7011103012718,新規,0,2023-02-17,2023-02-17,合同会社ＲＥＧＯＬＩＴＨ,,合同会社,東京都,新宿区,弁天町２９番１号９０２,,13,104,1620851,,,,,,,2023-02-17,1,,,,,レゴリス,0
1534,7011201024400,新規,0,2023-02-17,2023-02-17,株式会社四六,,株式会社,東京都,中野区,東中野４丁目６番７－２１１号,,13,114,1640003,,,,,,,2023-02-17,1,,,,,シロク,0
1535,7011201024425,新規,0,2023-02-17,2023-02-17,日本海徳世紀資産管理株式会社,,株式会社,東京都,中野区,野方５丁目７－２２スカイコート野方１０１号室,,13,114,1650027,,,,,,,2023-02-17,1,,,,,ニホンカイトクセイキシサンカンリ,0
1538,7011501028976,新規,0,2023-02-17,2023-02-17,聚華株式会社,,株式会社,東京都,北区,赤羽１丁目４２番１１号ミツワハイツ５０３,,13,117,1150045,,,,,,,2023-02-17,1,,,,,シュウカ,0
1543,7011703003389,新規,0,2023-02-17,2023-02-17,Ｉｍｍａｃｕｌａｔｅ　ｎｏｅｌ合同会社,,合同会社,東京都,江戸川区,南小岩２丁目１７番６号中村荘２階２０１,,13,123,1330056,,,,,,,2023-02-17,1,,,,,イマキュレトノー,0
1548,7012801022149,新規,0,2023-02-17,2023-02-17,ｆｕｎｎｙカンパニー株式会社,,株式会社,東京都,東大和市,仲原４丁目７番地の２,,13,220,2070016,,,,,,,2023-02-17,1,,,,,ファニーカンパニー,0
1554,7020001150273,新規,0,2023-02-17,2023-02-17,株式会社ｙ’ｓ．ｇａｒｄｅｎ．ｃｏｍｐａｎｙ,,株式会社,神奈川県,横浜市青葉区,美しが丘４丁目２１番地３５,,14,117,2250002,,,,,,,2023-02-17,1,,,,,,0
1555,7020001150323,新規,0,2023-02-17,2023-02-17,株式会社根本建設工業,,株式会社,神奈川県,横浜市港北区,篠原北２丁目４番２号日東ビル２０１,,14,109,2220021,,,,,,,2023-02-17,1,,,,,ネモトケンセツコウギョウ,0
1556,7020003023353,新規,0,2023-02-17,2023-02-17,カリテ・フルリエ・プロパティーズ合同会社,,合同会社,神奈川県,横浜市青葉区,田奈町３１番地６,,14,117,2270064,,,,,,,2023-02-17,1,,,,,カリテフルリエプロパティーズ,0
1564,7021001078240,新規,0,2023-02-17,2023-02-17,アイウェー株式会社,,株式会社,神奈川県,大和市,福田１５７７サンテラスＩＩ１０１号室,00129481,14,213,2420024,,,,,,,2023-02-17,1,,,,,アイウェー,0
1571,7030001152426,新規,0,2023-02-17,2023-02-17,ＲＶｉ株式会社,,株式会社,埼玉県,さいたま市岩槻区,大字末田２１９６番地２,,11,110,3390021,,,,,,,2023-02-17,1,,,,,アールブイアイ,0
1572,7030001152450,新規,0,2023-02-17,2023-02-17,株式会社イワケン,,株式会社,埼玉県,さいたま市桜区,大字大久保領家５１０番地１０,,11,106,3380826,,,,,,,2023-02-17,1,,,,,イワケン,0
1573,7030001152459,新規,0,2023-02-17,2023-02-17,株式会社エイトライン,,株式会社,埼玉県,川口市,大字木曽呂８４４番地６,,11,203,3330831,,,,,,,2023-02-17,1,,,,,エイトライン,0
1578,7030003021208,新規,0,2023-02-17,2023-02-17,Ｂａｂｅ合同会社,,合同会社,埼玉県,さいたま市南区,白幡４丁目２１－２５－２０４,,11,108,3360022,,,,,,,2023-02-17,1,,,,,ベイブ,0
1579,7030003021216,新規,0,2023-02-17,2023-02-17,ＢＡ＆ＨＣ合同会社,,合同会社,埼玉県,さいたま市南区,別所６丁目１３番１３号アイーダ・ビル１階,,11,108,3360021,,,,,,,2023-02-17,1,,,,,ビーエーアンドエイチシー,0
1583,7040001127121,新規,0,2023-02-17,2023-02-17,株式会社ＡＢＡＬＯＯＰ,,株式会社,千葉県,市原市,北国分寺台５丁目６番地３スカイタウン藤井Ａ棟１０５,,12,219,2900071,,,,,,,2023-02-17,1,,,,,アバループ,0
1584,7040001127138,新規,0,2023-02-17,2023-02-17,ＮＣＴ株式会社,,株式会社,千葉県,鎌ケ谷市,道野辺中央２丁目９番２６号大野ビル２Ｂ,,12,224,2730113,,,,,,,2023-02-17,1,,,,,エヌシーティー,0
1585,7040001127146,新規,0,2023-02-17,2023-02-17,株式会社シフトレフト,,株式会社,千葉県,千葉市緑区,誉田町２丁目１番地３９,,12,105,2660005,,,,,,,2023-02-17,1,,,,,シフトレフト,0
1590,7060001035710,新規,0,2023-02-17,2023-02-17,ＴＯＰＷＯＲＫＳ株式会社,,株式会社,栃木県,佐野市,富岡町１５８２番地１光ハイツＢ２０２号室,,09,204,3270844,,,,,,,2023-02-17,1,,,,,トップワークス,0
1591,7060003004424,新規,0,2023-02-17,2023-02-17,合同会社和興エナジーＬ,,合同会社,栃木県,真岡市,中１１３番地１１,,09,209,3214351,,,,,,,2023-02-17,1,,,,,ワコウエナジーエル,0
1593,7070003004828,新規,0,2023-02-17,2023-02-17,日野商事合同会社,,合同会社,群馬県,邑楽郡板倉町,大字岩田１８１７番地の２ＧＢグランベルＩ－１０１,00129474,10,521,3740133,,,,,,,2023-02-17,1,,,,,ヒノショウジ,0
1601,7110003004988,新規,0,2023-02-17,2023-02-17,合同会社高柳興業,,合同会社,新潟県,新発田市,舟入町１丁目４番２号,,15,206,9570065,,,,,,,2023-02-17,1,,,,,タカヤナギコウギョウ,0
1607,7120001252522,新規,0,2023-02-17,2023-02-17,日本嘉毅株式会社,,株式会社,大阪府,大阪市東住吉区,鷹合４丁目２１番１６号３Ｆ－Ｂ,,27,121,5460014,,,,,,,2023-02-17,1,,,,,ニホンヨシキ,0
1608,7120001252539,新規,0,2023-02-17,2023-02-17,株式会社イーストリバー,,株式会社,大阪府,門真市,常称寺町２１番２号,,27,223,5710063,,,,,,,2023-02-17,1,,,,,イーストリバー,0
1609,7120001252596,新規,0,2023-02-17,2023-02-17,ｅ‐ｆｒｅｅ株式会社,,株式会社,大阪府,大阪市浪速区,湊町２丁目２番５－１１１３号,,27,111,5560017,,,,,,,2023-02-17,1,,,,,イーフリー,0
1610,7120001252605,新規,0,2023-02-17,2023-02-17,株式会社コウユウホーム,,株式会社,大阪府,大阪市東成区,大今里４丁目２７番２８号,,27,115,5370012,,,,,,,2023-02-17,1,,,,,コウユウホーム,0
1611,7120001252613,新規,0,2023-02-17,2023-02-17,株式会社ＳＰＩＣＥ　ＳＴＯＣＫ,,株式会社,大阪府,大阪市北区,梅田１丁目１－３大阪駅前第３ビル２９階１－１－１号室,,27,127,5300001,,,,,,,2023-02-17,1,,,,,スパイスストック,0
1612,7120001252646,新規,0,2023-02-17,2023-02-17,株式会社まぐろじん,,株式会社,大阪府,大阪市北区,松ケ枝町８番２０号,,27,127,5300037,,,,,,,2023-02-17,1,,,,,マグロジン,0
1622,7120101066995,新規,0,2023-02-17,2023-02-17,Ｊｏｕｒｎｅｙ　Ｌｉｎｋｓ株式会社,,株式会社,大阪府,堺市西区,浜寺元町５丁５２４番地４,,27,144,5928343,,,,,,,2023-02-17,1,,,,,ジャーニーリンクス,0
1627,7122001036707,新規,0,2023-02-17,2023-02-17,株式会社Ｍｅ,,株式会社,大阪府,東大阪市,足代新町１７番２号,,27,227,5770057,,,,,,,2023-02-17,1,,,,,ミー,0
1630,7130001073694,新規,0,2023-02-17,2023-02-17,株式会社格物,,株式会社,京都府,京都市左京区,北白川仕伏町２１番地５,,26,103,6068283,,,,,,,2023-02-17,1,,,,,カクブツ,0
1631,7130001073703,新規,0,2023-02-17,2023-02-17,株式会社Ｓｔｅｌｌａ　Ｈｏｍｅ,,株式会社,京都府,京都市伏見区,深草西浦町７丁目４２番地カーサウッド西浦町１階,,26,109,6120029,,,,,,,2023-02-17,1,,,,,ステラホーム,0
1632,7130005016699,新規,0,2023-02-17,2023-02-17,一般社団法人みんなの居場所ＯＲＣＡ,,その他の設立登記法人,京都府,亀岡市,安町大池１１番地日進ビル１０１号,,26,206,6210805,,,,,,,2023-02-17,1,,,,,ミンナノイバショオルカ,0
1638,7180001155034,新規,0,2023-02-17,2023-02-17,株式会社ＥＧＷ,,株式会社,愛知県,江南市,野白町葭場１１４野白町葭場借家西号室,,23,217,4838201,,,,,,,2023-02-17,1,,,,,イージーダブル,0
1642,7180305009448,新規,0,2023-02-17,2023-02-17,一般社団法人新城市観光協会,,その他の設立登記法人,愛知県,新城市,字西入船５番地２,,23,221,4411384,,,,,,,2023-02-17,1,,,,,シンシロシカンコウキョウカイ,0
1644,7200001040976,新規,0,2023-02-17,2023-02-17,株式会社葵こうさん,,株式会社,岐阜県,岐阜市,鏡島西３丁目３番８号,,21,201,5010123,,,,,,,2023-02-17,1,,,,,アオイコウサン,0
1649,7220001025281,新規,0,2023-02-17,2023-02-17,株式会社コミット・ケア,,株式会社,石川県,金沢市,泉１丁目５番４６号,,17,201,9218041,,,,,,,2023-02-17,1,,,,,,0
1656,7240003006022,新規,0,2023-02-17,2023-02-17,えがおのわっか合同会社,,合同会社,広島県,広島市西区,井口鈴が台２丁目１１番２２号,,34,104,7330843,,,,,,,2023-02-17,1,,,,,エガオノワッカ,0
1662,7290001100598,新規,0,2023-02-17,2023-02-17,株式会社ＭＩＧＲＡ,,株式会社,福岡県,福岡市中央区,天神２丁目２番１２号Ｔ＆Ｊビルディング７Ｆ,,40,133,8100001,,,,,,,2023-02-17,1,,,,,マイグラ,0
1664,7290003013534,新規,0,2023-02-17,2023-02-17,通販王国合同会社,,合同会社,福岡県,福岡市早良区,高取１丁目１番１７号３Ｆ,,40,137,8140011,,,,,,,2023-02-17,1,,,,,ツウハンオウコク,0
1665,7290003013542,新規,0,2023-02-17,2023-02-17,合同会社あ,,合同会社,福岡県,福岡市東区,馬出５丁目１４番２１号,,40,131,8120054,,,,,,,2023-02-17,1,,,,,ア,0
1671,7320001019562,新規,0,2023-02-17,2023-02-17,株式会社ＴＹＵ,,株式会社,大分県,大分市,大字旦野原８８０番７８号,,44,201,8701124,,,,,,,2023-02-17,1,,,,,ティーワイユー,0
1673,7330003009726,新規,0,2023-02-17,2023-02-17,合同会社エムエストラスト,,合同会社,熊本県,熊本市東区,健軍３丁目４５番５号,,43,102,8620911,,,,,,,2023-02-17,1,,,,,エムエストラスト,0
1681,7370001049621,新規,0,2023-02-17,2023-02-17,株式会社ＳＨＩＮＡ,,株式会社,宮城県,仙台市泉区,泉中央１丁目１９番地の７泉中央二番館１Ｆ,,04,105,9813133,,,,,,,2023-02-17,1,,,,,シナ,0
1682,7370005010595,新規,0,2023-02-17,2023-02-17,一般社団法人ＣｒｅａｔｅＹｏｕ,,その他の設立登記法人,宮城県,大崎市,古川李埣１丁目１３番４０号,,04,215,9896116,,,,,,,2023-02-17,1,,,,,クリエイトユー,0
1692,7430001088423,新規,0,2023-02-17,2023-02-17,株式会社やの農園,,株式会社,北海道,芦別市,野花南町９９３番地の１,,01,216,0791372,,,,,,,2023-02-17,1,,,,,ヤノノウエン,0
1702,7490001010406,新規,0,2023-02-17,2023-02-17,よさ来いワイナリー株式会社,,株式会社,高知県,高知市,百石町１丁目１０番２０号,,39,201,7808015,,,,,,,2023-02-17,1,,,,,ヨサコイワイナリー,0
1706,7700150114398,新規,0,2023-02-17,2023-02-17,Ｓｈｅｎｚｈｅｎ　Ｔｈｉｎｋｌｉｎｋ　Ｔｅｃｈｎｏｌｏｇｙ　Ｌｉｍｉｔｅｄ　Ｃｏｍｐａｎｙ,,外国会社等,,,,,,,,Ｊｕｙｉｎ　Ｔｅｃｈｎｏｌｏｇｙ　Ｉｎｄｕｓｔｒｉａｌ　Ｆａｃｔｏｒｙ　２ｎｄ　Ｐｈａｓｅ　Ｒｏｏｍ　６０１，Ｊｉｈｕａ　Ｓｔｒｅｅｔ，Ｎｏ．１　Ｇａｎｌｉ　Ｒｏａｄ，Ｌｏｎｇｇａｎｇ　Ｄｉｓｔｒｉｃｔ，Ｓｈｅｎｚｈｅｎ,,,,,,2023-02-17,1,,,,,シンセンシンクリンクテクノロジーリミテッドカンパニー,0
1707,8000020038938,新規,0,2023-02-17,2023-02-17,盛岡広域環境組合,,地方公共団体,岩手県,盛岡市,若園町２－１８,,03,201,0200886,,,,,,,2023-02-17,1,,,,,モリオカコウイキカンキョウクミアイ,0
1716,8010001232823,新規,0,2023-02-17,2023-02-17,株式会社Ｎｅｏセキュリティ,,株式会社,東京都,中央区,京橋１丁目１番５号セントラルビル２階,,13,102,1040031,,,,,,,2023-02-17,1,,,,,ネオセキュリティ,0
1717,8010001233053,新規,0,2023-02-17,2023-02-17,株式会社ＲｅｖＬｉｍｉｔ,,株式会社,東京都,中央区,日本橋２丁目１番１７号丹生ビル２階,,13,102,1030027,,,,,,,2023-02-17,1,,,,,レブリミット,0
1718,8010001233061,新規,0,2023-02-17,2023-02-17,株式会社銀座きた川,,株式会社,東京都,中央区,銀座２丁目１０番１１号マロニエ通り銀座館３階,,13,102,1040061,,,,,,,2023-02-17,1,,,,,ギンザキタガワ,0
1719,8010001233086,新規,0,2023-02-17,2023-02-17,ＭｉＴｅｋ　Ｊａｐａｎ株式会社,,株式会社,東京都,千代田区,丸の内２丁目１番１号明治生命館７階ディーエルエイ・パイパー東京パートナーシップ外国法共同事業法律事務所内,,13,101,1000005,,,,,,,2023-02-17,1,,,,,マイテックジャパン,0
1726,8010401172553,新規,0,2023-02-17,2023-02-17,定吉株式会社,,株式会社,東京都,港区,芝浦２丁目９番１－１２０２号,,13,103,1080023,,,,,,,2023-02-17,1,,,,,テイキチ,0
1727,8010401172586,新規,0,2023-02-17,2023-02-17,株式会社ＢＯＮＤ,,株式会社,東京都,港区,芝浦４丁目２０番２号ブルームタワー２３Ｆ,,13,103,1080023,,,,,,,2023-02-17,1,,,,,ボンド,0
1728,8010401172594,新規,0,2023-02-17,2023-02-17,Ｃｏｊｉｏ株式会社,,株式会社,東京都,港区,海岸２丁目５番１－１６０１号,,13,103,1050022,,,,,,,2023-02-17,1,,,,,コジオ,0
1731,8010405021830,新規,0,2023-02-17,2023-02-17,ＲＢソーラーダリアホールディングス一般社団法人,,その他の設立登記法人,東京都,港区,虎ノ門３丁目２２番１０－２０１号,,13,103,1050001,,,,,,,2023-02-17,1,,,,,アールビーソーラーダリアホールディングス,0
1732,8010405021839,新規,0,2023-02-17,2023-02-17,一般社団法人Ｄｉａｍａｎｔｅ,,その他の設立登記法人,東京都,港区,元赤坂１丁目１番７－１００６号,,13,103,1070051,,,,,,,2023-02-17,1,,,,,ディアマンテ,0
1733,8010601062620,新規,0,2023-02-17,2023-02-17,株式会社ａｏｍｏｊｉ,,株式会社,東京都,江東区,森下２丁目１９番９号,,13,108,1350004,,,,,,,2023-02-17,1,,,,,アオモジ,0
1734,8010601062629,新規,0,2023-02-17,2023-02-17,株式会社Ｋコーポレーション,,株式会社,東京都,墨田区,亀沢４丁目２２番５－４０４号スミダグリーンハイツ,,13,107,1300014,,,,,,,2023-02-17,1,,,,,ケーコーポレーション,0
1735,8010603010008,新規,0,2023-02-17,2023-02-17,合同会社大和,,合同会社,東京都,墨田区,東向島２丁目２９番３－３０１号,,13,107,1310032,,,,,,,2023-02-17,1,,,,,ダイワ,0
1736,8010605004172,新規,0,2023-02-17,2023-02-17,一般社団法人Ｌｅａｒｎｉｎｇ　Ｔｒｅｅ　Ｉｎｔｅｒｎａｔｉｏｎａｌ　Ｓｃｈｏｏｌ,,その他の設立登記法人,東京都,江東区,木場２丁目１７番１３号,,13,108,1350042,,,,,,,2023-02-17,1,,,,,ラーニングトゥリーインターナショナルスクール,0
1738,8010701043867,新規,0,2023-02-17,2023-02-17,株式会社トパゾライト,,株式会社,東京都,品川区,東中延１丁目５番１９号,,13,109,1420052,,,,,,,2023-02-17,1,,,,,トパゾライト,0
1755,8011001152565,新規,0,2023-02-17,2023-02-17,株式会社Ｋ＆Ｋ　Ｐａｒｔｎｅｒｓ,,株式会社,東京都,渋谷区,広尾２丁目９番４２号,,13,113,1500012,,,,,,,2023-02-17,1,,,,,ケーアンドケーパートナーズ,0
1757,8011003016272,新規,0,2023-02-17,2023-02-17,合同会社東和,,合同会社,東京都,渋谷区,神宮前６丁目２３番４号桑野ビル２階,,13,113,1500001,,,,,,,2023-02-17,1,,,,,トウワ,0
1758,8011003016297,新規,0,2023-02-17,2023-02-17,アンコールビジネスパートナーズ合同会社,,合同会社,東京都,渋谷区,円山町５番５号Ｎａｖｉ渋谷Ｖ３階,,13,113,1500044,,,,,,,2023-02-17,1,,,,,アンコールビジネスパートナーズ,0
1765,8011201024432,新規,0,2023-02-17,2023-02-17,株式会社マハロ,,株式会社,東京都,中野区,鷺宮５丁目１１－２４アルカディア鷺宮２０２,,13,114,1650032,,,,,,,2023-02-17,1,,,,,マハロ,0
1766,8011301028465,新規,0,2023-02-17,2023-02-17,Ｋ＆Ｗ株式会社,,株式会社,東京都,杉並区,阿佐谷南１丁目２６－８ハナミズキ２０２,,13,115,1660004,,,,,,,2023-02-17,1,,,,,ケーアンドダブリュー,0
1774,8011801041950,新規,0,2023-02-17,2023-02-17,株式会社エモナイト,,株式会社,東京都,葛飾区,亀有３丁目４２番１７号,,13,122,1250061,,,,,,,2023-02-17,1,,,,,エモナイト,0
1780,8013305003444,新規,0,2023-02-17,2023-02-17,弁理士法人コンテンツシグナルＩＰ,,その他の設立登記法人,東京都,豊島区,池袋３丁目６０番２－６０４号,,13,116,1710014,,,,,,,2023-02-17,1,,,,,コンテンツシグナルアイピー,0
1782,8020001150339,新規,0,2023-02-17,2023-02-17,北海道水産株式会社,,株式会社,神奈川県,横浜市中区,吉浜町二丁目１４番地廣岡ビル５階Ｂ室,,14,104,2310024,,,,,,,2023-02-17,1,,,,,ホッカイドウスイサン,0
1783,8020001150347,新規,0,2023-02-17,2023-02-17,株式会社港北の森,,株式会社,神奈川県,横浜市都筑区,中川１丁目２番Ｉ－３０５号,00129494,14,118,2240001,,,,,,,2023-02-17,1,,,,,コウホクノモリ,0
1785,8020003023352,新規,0,2023-02-17,2023-02-17,合同会社Ａ‐ｏｎｅ,,合同会社,神奈川県,横浜市青葉区,松風台３３番地１１桂ハイツＢ号,,14,117,2270067,,,,,,,2023-02-17,1,,,,,エイワン,0
1786,8020003023369,新規,0,2023-02-17,2023-02-17,横浜米山会計合同会社,,合同会社,神奈川県,横浜市西区,北幸２丁目１０番地２８むつみビル３Ｆ,,14,103,2200004,,,,,,,2023-02-17,1,,,,,ヨコハマヨネヤマカイケイ,0
1788,8021001078066,新規,0,2023-02-17,2023-02-17,株式会社フォーピース,,株式会社,神奈川県,厚木市,中町４丁目１４番１号サクセス本厚木ビル５Ｆ＆６Ｆ,,14,212,2430018,,,,,,,2023-02-17,1,,,,,フォーピース,0
1791,8021003012782,新規,0,2023-02-17,2023-02-17,合同会社神木堂,,合同会社,神奈川県,鎌倉市,山ノ内１０９５番地２１,,14,204,2470062,,,,,,,2023-02-17,1,,,,,シンボクドウ,0
1797,8030001152458,新規,0,2023-02-17,2023-02-17,株式会社夢現堂,,株式会社,埼玉県,蕨市,南町２丁目１２番１１号ベルググランデ蕨３１３号,,11,223,3350003,,,,,,,2023-02-17,1,,,,,ムゲンドウ,0
1802,8030003021207,新規,0,2023-02-17,2023-02-17,合同会社Ｆｅｌｉｃｅ,,合同会社,埼玉県,さいたま市南区,文蔵５丁目４番１６－１号,,11,108,3360025,,,,,,,2023-02-17,1,,,,,フェリーチェ,0
1807,8040001127129,新規,0,2023-02-17,2023-02-17,株式会社Ｄ‐ｉｎｔｅｒｎａｔｉｏｎａｌ,,株式会社,千葉県,市川市,八幡１丁目４番２５号,,12,203,2720021,,,,,,,2023-02-17,1,,,,,ディーインターナショナル,0
1808,8040001127137,新規,0,2023-02-17,2023-02-17,ナカノ商会株式会社,,株式会社,千葉県,浦安市,高洲８丁目１番プラウド新浦安パームコートＡ棟７０４,,12,227,2790023,,,,,,,2023-02-17,1,,,,,ナカノショウカイ,0
1809,8040001127145,新規,0,2023-02-17,2023-02-17,株式会社ＭＯＺＥ,,株式会社,千葉県,茂原市,本小轡１１１９－３９,,12,210,2970005,,,,,,,2023-02-17,1,,,,,モーゼ,0
1811,8040005021906,新規,0,2023-02-17,2023-02-17,ＪＰＪ協同組合,,その他の設立登記法人,千葉県,野田市,船形２３８９－７－２階,,12,208,2700233,,,,,,,2023-02-17,1,,,,,ジェイピージェイ,0
1815,8050001052400,新規,0,2023-02-17,2023-02-17,株式会社Ｇｏｘ,,株式会社,茨城県,常総市,豊田１９４０－２,,08,211,3002705,,,,,,,2023-02-17,1,,,,,ゴックス,0
1816,8050001052417,新規,0,2023-02-17,2023-02-17,オリーヴ・ネット株式会社,,株式会社,茨城県,古河市,松並１丁目２１－４８,,08,204,3060021,,,,,,,2023-02-17,1,,,,,オリーヴネット,0
1822,8060003004423,新規,0,2023-02-17,2023-02-17,合同会社和興エナジーＫ,,合同会社,栃木県,真岡市,中１１３番地１１,,09,209,3214351,,,,,,,2023-02-17,1,,,,,ワコウエナジーケー,0
1823,8060003004431,新規,0,2023-02-17,2023-02-17,ＡＬ　ＨＡＱ合同会社,,合同会社,栃木県,栃木市,城内町２丁目４０番４１号ダイヤモンドマンション３０１,,09,203,3280033,,,,,,,2023-02-17,1,,,,,アルハク,0
1824,8070001040139,新規,0,2023-02-17,2023-02-17,藤機工株式会社,,株式会社,群馬県,太田市,只上町４０９５番地１０,,10,205,3730011,,,,,,,2023-02-17,1,,,,,フジキコウ,0
1828,8080001025469,新規,0,2023-02-17,2023-02-17,株式会社朝長工業,,株式会社,静岡県,静岡市葵区,緑町９番３０－２号,,22,101,4200844,,,,,,,2023-02-17,1,,,,,トモナガコウギョウ,0
1830,8080105006316,新規,0,2023-02-17,2023-02-17,社会福祉法人松の郷,,その他の設立登記法人,静岡県,沼津市,原２４１番地の１,,22,203,4100312,,,,,,,2023-02-17,1,,,,,マツノサト,0
1832,8080401026307,新規,0,2023-02-17,2023-02-17,株式会社極漁丸,,株式会社,静岡県,湖西市,新居町中之郷１３００番地の５,,22,221,4310301,,,,,,,2023-02-17,1,,,,,キョクリョウマル,0
1833,8090001017985,新規,0,2023-02-17,2023-02-17,アンダーパレス株式会社,,株式会社,山梨県,南都留郡富士河口湖町,小立１５４９番地,,19,430,4010302,,,,,,,2023-02-17,1,,,,,アンダーパレス,0
1834,8100001036166,新規,0,2023-02-17,2023-02-17,保険Ｌａｂｏ信州株式会社,,株式会社,長野県,諏訪市,清水２丁目３－３０カマクラビルＩＩＩ２０１号,00129476,20,206,3920007,,,,,,,2023-02-17,1,,,,,ホケンラボシンシュウ,0
1840,8120001147399,新規,0,2023-02-17,2023-02-17,池田工業株式会社,,株式会社,大阪府,寝屋川市,高宮１丁目２０番１６号,,27,215,5720806,,,,,,,2023-02-17,1,,,,,,0
1843,8120001252513,新規,0,2023-02-17,2023-02-17,Ｓａｔｕｒｄａｙｓ株式会社,,株式会社,大阪府,大阪市中央区,久太郎町４丁目１番３号大阪センタービル６Ｆ－２１０号室,,27,128,5410056,,,,,,,2023-02-17,1,,,,,サタデイズ,0
1844,8120001252521,新規,0,2023-02-17,2023-02-17,ＦＺ商事株式会社,,株式会社,大阪府,大阪市中央区,船越町２丁目３－８天満橋ガーデンハイツ５０９号,,27,128,5400036,,,,,,,2023-02-17,1,,,,,エフズィーショウジ,0
1845,8120001252587,新規,0,2023-02-17,2023-02-17,株式会社全景リゾート,,株式会社,大阪府,大阪市中央区,北久宝寺町１丁目７番１０号アトリュム８Ａ,,27,128,5410057,,,,,,,2023-02-17,1,,,,,ゼンケイリゾート,0
1846,8120001252604,新規,0,2023-02-17,2023-02-17,淵屹商貿株式会社,,株式会社,大阪府,大阪市西区,南堀江２丁目１０番６号深沢マンション３階Ａ号,,27,106,5500015,,,,,,,2023-02-17,1,,,,,フチキショウボウ,0
1849,8120003023441,新規,0,2023-02-17,2023-02-17,合同会社Ｙ＆Ｌコーポレーション,,合同会社,大阪府,大阪市中央区,高津３丁目１４番１１－１６０２号,,27,128,5420072,,,,,,,2023-02-17,1,,,,,ワイアンドエルコーポレーション,0
1852,8120005023456,新規,0,2023-02-17,2023-02-17,司法書士法人カナリヤ,,その他の設立登記法人,大阪府,大阪市中央区,北浜東１番１２号千歳第一ビル６階,,27,128,5400031,,,,,,,2023-02-17,1,,,,,カナリヤ,0
1854,8120103005083,新規,0,2023-02-17,2023-02-17,合同会社奥野舎,,合同会社,大阪府,堺市北区,百舌鳥梅北町３丁１１４番地３サンセレノ三国ヶ丘２０１号,,27,146,5918031,,,,,,,2023-02-17,1,,,,,オクノシャ,0
1856,8130001073702,新規,0,2023-02-17,2023-02-17,株式会社エブリデイ,,株式会社,京都府,京都市伏見区,竹田松林町５７番地,,26,109,6128371,,,,,,,2023-02-17,1,,,,,エブリデイ,0
1858,8140001129148,新規,0,2023-02-17,2023-02-17,株式会社ハピネス,,株式会社,兵庫県,尼崎市,開明町１丁目５３番地,,28,202,6600862,,,,,,,2023-02-17,1,,,,,ハピネス,0
1859,8140001129156,新規,0,2023-02-17,2023-02-17,株式会社ウエスティ,,株式会社,兵庫県,尼崎市,立花町１丁目１５番１号,,28,202,6610025,,,,,,,2023-02-17,1,,,,,ウエスティ,0
1868,8180001155017,新規,0,2023-02-17,2023-02-17,株式会社イーブルジャパン,,株式会社,愛知県,長久手市,打越１６０４番地,,23,238,4801152,,,,,,,2023-02-17,1,,,,,イーブルジャパン,0
1870,8180303005613,新規,0,2023-02-17,2023-02-17,ハイプロクス合同会社,,合同会社,愛知県,豊田市,花園町馬捨６６番地２,,23,211,4730924,,,,,,,2023-02-17,1,,,,,ハイプロクス,0
1872,8190003004229,新規,0,2023-02-17,2023-02-17,合同会社いぶき,,合同会社,三重県,伊勢市,朝熊町１９１８番地１２,,24,203,5160021,,,,,,,2023-02-17,1,,,,,イブキ,0
1873,8190003004237,新規,0,2023-02-17,2023-02-17,合同会社青鳳,,合同会社,三重県,津市,豊が丘４丁目３７番１号,,24,201,5142222,,,,,,,2023-02-17,1,,,,,セイホウ,0
1878,8220001025280,新規,0,2023-02-17,2023-02-17,株式会社中谷コンサル,,株式会社,石川県,金沢市,小立野１丁目１８番１９号,,17,201,9200942,,,,,,,2023-02-17,1,,,,,ナカタニコンサル,0
1879,8220005008728,新規,0,2023-02-17,2023-02-17,特定非営利活動法人ホープ,,その他の設立登記法人,石川県,河北郡内灘町,字千鳥台３丁目１３番,,17,365,9200277,,,,,,,2023-02-17,1,,,,,ホープ,0
1884,8290001100606,新規,0,2023-02-17,2023-02-17,ツバメ株式会社,,株式会社,福岡県,福岡市博多区,博多駅前４丁目３３－７－７１４室,,40,132,8120011,,,,,,,2023-02-17,1,,,,,ツバメ,0
1886,8290003013541,新規,0,2023-02-17,2023-02-17,合同会社来聖,,合同会社,福岡県,久留米市,田主丸町豊城６４７番地,,40,203,8391234,,,,,,,2023-02-17,1,,,,,ライセイ,0
1897,8350001018189,新規,0,2023-02-17,2023-02-17,株式会社ＭＹＫ光明,,株式会社,宮崎県,宮崎市,松山２丁目３番１２号,,45,201,8800865,,,,,,,2023-02-17,1,,,,,エムワイケイコウミョウ,0
1901,8360003012734,新規,0,2023-02-17,2023-02-17,合同会社ＲＫＳＴ,,合同会社,沖縄県,宜野湾市,真栄原２丁目２８－１２石川マンション３０５,,47,205,9012215,,,,,,,2023-02-17,1,,,,,アールケーエスティー,0
1902,8360003012742,新規,0,2023-02-17,2023-02-17,合同会社ＡＬＭＩＳ,,合同会社,沖縄県,国頭郡今帰仁村,字諸志２０３１番１３９ＥＭＩＬ　ＮＡＫＩＪＩＮ,,47,306,9050426,,,,,,,2023-02-17,1,,,,,アルミス,0
1904,8380001033490,新規,0,2023-02-17,2023-02-17,Ｃｏ‐Ｌｉｆｅ株式会社,,株式会社,福島県,郡山市,安積北井１丁目１１５番地,,07,203,9630118,,,,,,,2023-02-17,1,,,,,コーライフ,0
1907,8420001018157,新規,0,2023-02-17,2023-02-17,株式会社アトラス,,株式会社,青森県,青森市,大字浜田字豊田１１８－５,,02,201,0300843,,,,,,,2023-02-17,1,,,,,アトラス,0
1911,8430005014639,新規,0,2023-02-17,2023-02-17,労働者協同組合ワーカーズコープ札幌,,その他の設立登記法人,北海道,札幌市西区,発寒十一条５丁目１０番１号,,01,107,0630831,,,,,,,2023-02-17,1,,,,,ワーカーズコープサッポロ,0
1913,8470001019472,新規,0,2023-02-17,2023-02-17,株式会社タキモト食品,,株式会社,香川県,三豊市,豊中町下高野１５８７番地,,37,208,7691508,,,,,,,2023-02-17,1,,,,,タキモトショクヒン,0
1915,8480001012014,新規,0,2023-02-17,2023-02-17,株式会社Ｂｒｉｇｈｔｈｏｐｅ,,株式会社,徳島県,阿南市,学原町上カヤ野１６番地８・２１１号室,,36,204,7740014,,,,,,,2023-02-17,1,,,,,ブライトホープ,0
1924,8700150111997,新規,0,2023-02-17,2022-10-05,東京ダブアタックプロジェクト,,その他,神奈川県,横浜市南区,真金町１丁目７荒井屋ビル３０２,,14,105,2320021,,,,,,,2022-10-05,1,,,,,トウキヨウダブアタツクプロジエクト,0
1925,8700150114397,新規,0,2023-02-17,2023-02-17,Ｓｈｅｎ　ｚｈｅｎ　ｓｈｉ　ｈａｉ　ｓｈｉ　ｙｏｕ　ｋｅ　ｊｉ　ｙｏｕ　ｘｉａｎ　ｇｏｎｇ　ｓｉ,,外国会社等,,,,,,,,Ｋ４１１　ＪｉｎＨｅＴｉａｎ　Ｂｕｓｉｎｅｓｓ　Ｃｅｎｔｅｒ，Ｑｉｎｇｑｕａｎ　Ｒｏａｄ，ＬｏｎｇＨｕａ　Ｄｉｓｔｒｉｃｔ　Ｌｏｎｇ　Ｈｕａ　Ｘｉｎ　Ｑｕ，Ｓｈｅｎ　ｚｈｅｎ　ｓｈｉ，Ｇｕａｎｇ　Ｄｏｎｇ　Ｓｈｅｎｇ，ｃｈｉｎａ,,,,,,2023-02-17,1,,,,,シンセンシハイショウケジユウゲンコウシ,0
1931,9010001233044,新規,0,2023-02-17,2023-02-17,大石住宅株式会社,,株式会社,東京都,千代田区,外神田６丁目３－６ＭＫビル６階,,13,101,1010021,,,,,,,2023-02-17,1,,,,,オオイシジュウタク,0
1932,9010001233093,新規,0,2023-02-17,2023-02-17,株式会社ＣｉｒｃｕｌａｔｅＦａｎｔａｓｙ,,株式会社,東京都,千代田区,岩本町３丁目５－２－９０１,,13,101,1010032,,,,,,,2023-02-17,1,,,,,サーキュレイトファンタジー,0
1934,9010003039852,新規,0,2023-02-17,2023-02-17,合同会社ＳＬ商店,,合同会社,東京都,中央区,銀座７丁目１３番２１号銀座ｓｉｎｒｏｋｕｓｙｕビル２階,,13,102,1040061,,,,,,,2023-02-17,1,,,,,エスエルショウテン,0
1936,9010101015524,新規,0,2023-02-17,2023-02-17,株式会社ブラカン,,株式会社,東京都,八王子市,大楽寺町１９８番地７,,13,201,1930816,,,,,,,2023-02-17,1,,,,,ブラカン,0
1938,9010103002082,新規,0,2023-02-17,2023-02-17,合同会社東京エージェンシー,,合同会社,東京都,八王子市,大谷町１０４３－４３,,13,201,1920034,,,,,,,2023-02-17,1,,,,,トウキョウエージェンシー,0
1947,9010401172593,新規,0,2023-02-17,2023-02-17,ＭＭＢＨ株式会社,,株式会社,東京都,港区,港南３丁目６－２１・３９０８,,13,103,1080075,,,,,,,2023-02-17,1,,,,,エムエムビーエイチ,0
1948,9010401172602,新規,0,2023-02-17,2023-02-17,株式会社Ｆｕｓｉｏｎマスターリース,,株式会社,東京都,港区,虎ノ門４丁目１番２８号,,13,103,1050001,,,,,,,2023-02-17,1,,,,,フュージョンマスターリース,0
1951,9010403029544,新規,0,2023-02-17,2023-02-17,合同会社ヘルスケアアセットソリューション２号,,合同会社,東京都,港区,港南２丁目１５番３号,,13,103,1080075,,,,,,,2023-02-17,1,,,,,ヘルスケアアセットソリューションニゴウ,0
1952,9010403029552,新規,0,2023-02-17,2023-02-17,合同会社リードトップインベストメント,,合同会社,東京都,港区,新橋５丁目１２番１１号,,13,103,1050004,,,,,,,2023-02-17,1,,,,,リードトップインベストメント,0
1953,9010501050022,新規,0,2023-02-17,2023-02-17,株式会社日進ホールディングス,,株式会社,東京都,台東区,根岸３丁目６番１号新根岸拾番舘８０２号室,,13,106,1100003,,,,,,,2023-02-17,1,,,,,ニッシンホールディングス,0
1954,9010601062611,新規,0,2023-02-17,2023-02-17,株式会社のぶれす,,株式会社,東京都,江東区,東雲１丁目９番１５－１００６号,,13,108,1350062,,,,,,,2023-02-17,1,,,,,ノブレス,0
1969,9011001152432,新規,0,2023-02-17,2023-02-17,株式会社Ｗｅｓｔｆｒｏｎｔ　Ｐｒｏｄｕｃｔｉｏｎｓ,,株式会社,東京都,目黒区,青葉台３丁目５－９－２０１,,13,110,1530042,,,,,,,2023-02-17,1,,,,,ウェストフロントプロダクションズ,0
1970,9011001152457,新規,0,2023-02-17,2023-02-17,株式会社ｅｕｃａｌｙｐｔｕｓ,,株式会社,東京都,渋谷区,神宮前６丁目２３－４桑野ビル２Ｆ,,13,113,1500001,,,,,,,2023-02-17,1,,,,,ユーカリ,0
1971,9011001152639,新規,0,2023-02-17,2023-02-17,株式会社Ｈｅｒｏスポーツエンターテインメント,,株式会社,東京都,渋谷区,神泉町１０番１５号,,13,113,1500045,,,,,,,2023-02-17,1,,,,,ヒーロースポーツエンターテインメント,0
1972,9011001152655,新規,0,2023-02-17,2023-02-17,株式会社カポック,,株式会社,東京都,渋谷区,恵比寿西１丁目３番５－１００３号,,13,113,1500021,,,,,,,2023-02-17,1,,,,,カポック,0
1973,9011001152688,新規,0,2023-02-17,2023-02-17,Ｉｒａ　Ｐａｒｔｎｅｒｓ株式会社,,株式会社,東京都,目黒区,駒場３丁目１番２号,,13,110,1530041,,,,,,,2023-02-17,1,,,,,アイラパートナーズ,0
1975,9011003016296,新規,0,2023-02-17,2023-02-17,合同会社ＪＯＵＲＮＡＬ,,合同会社,東京都,渋谷区,千駄ヶ谷３丁目３０番４号,,13,113,1510051,,,,,,,2023-02-17,1,,,,,,0
1980,9011101101891,新規,0,2023-02-17,2023-02-17,株式会社ＮｉＪ　Ｐｒｏｄｕｃｔ,,株式会社,東京都,新宿区,西新宿１丁目４番１１号,,13,104,1600023,,,,,,,2023-02-17,1,,,,,ニジプロダクト,0
1982,9011105010560,新規,0,2023-02-17,2023-02-17,一般社団法人共創マネジメント推進機構,,その他の設立登記法人,東京都,新宿区,西新宿３丁目３番１３号,,13,104,1600023,,,,,,,2023-02-17,1,,,,,キョウソウマネジメントスイシンキコウ,0
1983,9011201024431,新規,0,2023-02-17,2023-02-17,株式会社レジェンドコーポレーション,,株式会社,東京都,中野区,東中野１丁目５８番１６－３０３号,,13,114,1640003,,,,,,,2023-02-17,1,,,,,レジェンドコーポレーション,0
1984,9011301028464,新規,0,2023-02-17,2023-02-17,Ｍ＆Ｗサポート株式会社,,株式会社,東京都,杉並区,松庵２丁目３番１８号,,13,115,1670054,,,,,,,2023-02-17,1,,,,,エムアンドダブリューサポート,0
1985,9011501028974,新規,0,2023-02-17,2023-02-17,助友ホールディングス株式会社,,株式会社,東京都,荒川区,東尾久６丁目２５番１号,,13,118,1160012,,,,,,,2023-02-17,1,,,,,スケトモホールディングス,0
1986,9011701026019,新規,0,2023-02-17,2023-02-17,株式会社ＭＡＮ　ＰＯＷＥＲ　Ａｃｅ　ｎｏＩ,,株式会社,東京都,江戸川区,江戸川６丁目３１番地１４７,,13,123,1340013,,,,,,,2023-02-17,1,,,,,マンパワーエースノイ,0
1988,9011803005523,新規,0,2023-02-17,2023-02-17,合同会社ひき算,,合同会社,東京都,足立区,千住元町４－１０,,13,121,1200041,,,,,,,2023-02-17,1,,,,,ヒキザン,0
1991,9012401040202,新規,0,2023-02-17,2023-02-17,株式会社時乃輪,,株式会社,東京都,武蔵野市,吉祥寺東町２丁目３５番１７号,,13,203,1800002,,,,,,,2023-02-17,1,,,,,トキノワ,0
1995,9013103001211,新規,0,2023-02-17,2023-02-17,合同会社Ｙｏｕｋｉ．ｆａｃｔｏｒｙ,,合同会社,東京都,羽村市,五ノ神４丁目１５番地１１,,13,227,2050011,,,,,,,2023-02-17,1,,,,,ヨウキファクトリー,0
2005,9020001150313,新規,0,2023-02-17,2023-02-17,株式会社マークド,,株式会社,神奈川県,横浜市保土ケ谷区,仏向町２８番地１,,14,106,2400044,,,,,,,2023-02-17,1,,,,,マークド,0
2011,9021001078239,新規,0,2023-02-17,2023-02-17,Ｇサポート株式会社,,株式会社,神奈川県,平塚市,宝町５番２７号,,14,203,2540034,,,,,,,2023-02-17,1,,,,,ジーサポート,0
2016,9021003012781,新規,0,2023-02-17,2023-02-17,合同会社シービーエスエム,,合同会社,神奈川県,相模原市中央区,大野台３丁目７番８号,,14,152,2520251,,,,,,,2023-02-17,1,,,,,シービーエスエム,0
2017,9021005012739,新規,0,2023-02-17,2023-02-17,一般社団法人桑原・鬼柳めだか米の会,,その他の設立登記法人,神奈川県,小田原市,永塚３５７番地,,14,206,2500214,,,,,,,2023-02-17,1,,,,,クワハラオニヤナギメダカマイノカイ,0
2028,9030001152449,新規,0,2023-02-17,2023-02-17,株式会社あもろーそ,,株式会社,埼玉県,比企郡滑川町,大字福田５７６番地,,11,341,3550803,,,,,,,2023-02-17,1,,,,,アモローソ,0
2029,9030001152457,新規,0,2023-02-17,2023-02-17,Ｅ．ＡＫＩＲＡ株式会社,,株式会社,埼玉県,川口市,本町２丁目４番２０－２０１号,,11,203,3320012,,,,,,,2023-02-17,1,,,,,イーアキラ,0
2030,9030001152465,新規,0,2023-02-17,2023-02-17,株式会社立会設備,,株式会社,埼玉県,さいたま市南区,大字大谷口５１２２,,11,108,3360042,,,,,,,2023-02-17,1,,,,,タチアイセツビ,0
2034,9040001127128,新規,0,2023-02-17,2023-02-17,株式会社Ｃ‐ｍｅｄｉｃａｌ,,株式会社,千葉県,市川市,八幡１丁目４番２５号,,12,203,2720021,,,,,,,2023-02-17,1,,,,,シーメディカル,0
2035,9040001127136,新規,0,2023-02-17,2023-02-17,淡路工業株式会社,,株式会社,千葉県,市原市,諏訪２丁目７－５サイプレス２０２,,12,219,2900026,,,,,,,2023-02-17,1,,,,,アワジコウギョウ,0
2036,9040001127144,新規,0,2023-02-17,2023-02-17,株式会社すぎの木不動産,,株式会社,千葉県,我孫子市,本町２丁目２番２４－５０１号,,12,222,2701151,,,,,,,2023-02-17,1,,,,,スギノキフドウサン,0
2048,9060001035700,新規,0,2023-02-17,2023-02-17,株式会社ＡＬＬ　ＷＯＲＫＳ,,株式会社,栃木県,小山市,大字羽川２７５番地７,,09,208,3230012,,,,,,,2023-02-17,1,,,,,オールワークス,0
2049,9060003004430,新規,0,2023-02-17,2023-02-17,ＪＡＺＣＯ合同会社,,合同会社,栃木県,足利市,大月町１３１５番地３,,09,202,3260005,,,,,,,2023-02-17,1,,,,,ジャズコ,0
2054,9080101023801,新規,0,2023-02-17,2023-02-17,株式会社メディフィクス,,株式会社,静岡県,富士宮市,万野原新田３４７１番地の１８,,22,207,4180001,,,,,,,2023-02-17,1,,,,,メディフィクス,0
2064,9120001252520,新規,0,2023-02-17,2023-02-17,澤岳株式会社,,株式会社,大阪府,大阪市生野区,巽北１丁目１番１号３Ｆ－Ｆ,,27,116,5440004,,,,,,,2023-02-17,1,,,,,サワガク,0
2065,9120001252578,新規,0,2023-02-17,2023-02-17,株式会社サンキ準備会社,,株式会社,大阪府,大阪市淀川区,新北野１丁目１０番１９号,,27,123,5320025,,,,,,,2023-02-17,1,,,,,サンキジュンビガイシャ,0
2066,9120001252586,新規,0,2023-02-17,2023-02-17,松石株式会社,,株式会社,大阪府,大阪市阿倍野区,北畠３丁目４番１２－１０１号,,27,119,5450035,,,,,,,2023-02-17,1,,,,,ショウセキ,0
2067,9120001252611,新規,0,2023-02-17,2023-02-17,Ｒｙｕ　Ｄｉｇｉｔａｌ株式会社,,株式会社,大阪府,大阪市東住吉区,駒川２丁目１番４号,,27,121,5460043,,,,,,,2023-02-17,1,,,,,リュウデジタル,0
2068,9120001252636,新規,0,2023-02-17,2023-02-17,株式会社トータルプラス,,株式会社,大阪府,大阪市北区,本庄東３丁目１１番５－５１３号,,27,127,5310074,,,,,,,2023-02-17,1,,,,,トータルプラス,0
2080,9122001036688,新規,0,2023-02-17,2023-02-17,株式会社Ｆｌｉｄｓ,,株式会社,大阪府,八尾市,神武町１番地の１５,,27,212,5810067,,,,,,,2023-02-17,1,,,,,フライズ,0
2081,9122001036705,新規,0,2023-02-17,2023-02-17,株式会社崎,00129475,株式会社,大阪府,東大阪市,桜町３－１０,,27,227,5798047,,,,,,,2023-02-17,1,,,,,ザキ,0
2086,9130001073692,新規,0,2023-02-17,2023-02-17,株式会社晴川習花会,,株式会社,京都府,京都市上京区,六軒町通今出川上る佐竹町１２５番地,,26,102,6028314,,,,,,,2023-02-17,1,,,,,ハレカワシュウカカイ,0
2092,9140001129147,新規,0,2023-02-17,2023-02-17,株式会社Ｈｏｍｅ,,株式会社,兵庫県,西宮市,津門宝津町１１番２１号,,28,204,6638232,,,,,,,2023-02-17,1,,,,,ホーム,0
2095,9140005026489,新規,0,2023-02-17,2023-02-17,特定非営利活動法人クラブ北神,,その他の設立登記法人,兵庫県,神戸市北区,道場町日下部１４６２番地,,28,109,6511505,,,,,,,2023-02-17,1,,,,,クラブホクシン,0
2104,9180001155008,新規,0,2023-02-17,2023-02-17,株式会社大彰,,株式会社,愛知県,名古屋市中川区,中島新町４丁目４０４番地,,23,110,4540932,,,,,,,2023-02-17,1,,,,,ダイショウ,0
2105,9180001155032,新規,0,2023-02-17,2023-02-17,株式会社２２,,株式会社,愛知県,名古屋市中区,錦３丁目１３番１３号Ｍ－Ｏｎｅ錦ビル５Ｂ,,23,106,4600003,,,,,,,2023-02-17,1,,,,,ニジュウニ,0
2110,9190003004236,新規,0,2023-02-17,2023-02-17,合同会社ネクアス,,合同会社,三重県,名張市,桔梗が丘西３番町二街区６７番地,,24,208,5180643,,,,,,,2023-02-17,1,,,,,ネクアス,0
2111,9200001040966,新規,0,2023-02-17,2023-02-17,株式会社アーチクラフト,,株式会社,岐阜県,羽島市,上中町沖９０４番地１,,21,209,5016318,,,,,,,2023-02-17,1,,,,,アーチクラフト,0
2118,9240002028478,新規,0,2023-02-17,2023-02-17,有限会社宮本食品,,有限会社,広島県,東広島市,豊栄町清武４３５番地の１,,34,212,7392313,,,,,,,2023-02-17,1,,,,,ミヤモトショクヒン,0
2134,9290001100596,新規,0,2023-02-17,2023-02-17,株式会社マリンソリューションズ,,株式会社,福岡県,糸島市,二丈深江２１２８番地８５,,40,230,8191601,,,,,,,2023-02-17,1,,,,,マリンソリューションズ,0
2139,9340001025375,新規,0,2023-02-17,2023-02-17,株式会社アドラーブル,,株式会社,鹿児島県,奄美市,名瀬入舟町１８番１号ソシアルビル４階,,46,222,8940034,,,,,,,2023-02-17,1,,,,,アドラーブル,0
2147,9360001031578,新規,0,2023-02-17,2023-02-17,株式会社ＭＡＲＵＭＩ,,株式会社,沖縄県,宜野湾市,伊佐１丁目７番１２号１Ｆ,,47,205,9012221,,,,,,,2023-02-17,1,,,,,マルミ,0
2148,9360001031594,新規,0,2023-02-17,2023-02-17,株式会社ＯＵＧＩ,,株式会社,沖縄県,名護市,字宮里１００４番地,,47,209,9050011,,,,,,,2023-02-17,1,,,,,オウギ,0
2149,9360005006766,新規,0,2023-02-17,2023-02-17,一般社団法人ＴＢＬ,,その他の設立登記法人,沖縄県,宜野湾市,長田１丁目１９番２０号,,47,205,9012212,,,,,,,2023-02-17,1,,,,,ティービーエル,0
2158,9430001088454,新規,0,2023-02-17,2023-02-17,四葉産業株式会社,,株式会社,北海道,登別市,若草町２丁目２２番地２２,,01,230,0590035,,,,,,,2023-02-17,1,,,,,ヨツバサンギョウ,0
2159,9430003014747,新規,0,2023-02-17,2023-02-17,ＲＥＡＬＴＹ合同会社,,合同会社,北海道,石狩市,親船町７５－５３５,,01,235,0613377,,,,,,,2023-02-17,1,,,,,リアルティ,0
2165,9700150114396,新規,0,2023-02-17,2023-02-17,Ｓｈｅｎｚｈｅｎｓｈｉ　Ｗｅｉｌｅｓｅｎ　Ｋｅｊｉ　Ｙｏｕｘｉａｎ　Ｇｏｎｇｓｉ,,外国会社等,,,,,,,,Ｈｕａｑｉａｎｇｂｅｉ　ｊｉｅｄａｏ，Ｌｉｃｕｎ　ｓｈｅ　ｑｕ，Ｚｈｅｎｘｉｎｇｌｕ　１２０ｈａｏ，Ｓａｉｇｅｋｅｊｉｙｕａｎ，４ｄｏｎｇｚｈｏｎｇ　４２７，Ｆｕｔｉａｎ，Ｓｈｅｎｚｈｅｎ，Ｇｕａｎｇｄｏｎｇ，Ｃｈｉｎａ,,,,,,2023-02-17,1,,,,,シンセンシウェイレセンケジユウゲンコウシ,0
