sequenceNumber,corporateNumber,process,correct,updateDate,changeDate,name,nameImageId,kind,prefectureName,cityName,streetNumber,addressImageId,prefectureCode,cityCode,postCode,addressOutside,addressOutsideImageId,closeDate,closeCause,successorCorporateNumber,changeCause,assignmentDate,latest,enName,enPrefectureName,enCityName,enAddressOutside,furigana,hihyoji
20,1010601036589,登記記録の閉鎖等,0,2023-09-15,2023-09-12,株式会社ランド企画,,株式会社,東京都,江東区,大島７丁目１２番２２号,,13,108,1360072,,,2023-09-12,合併による解散等,1010001214027,令和５年９月１日東京都中央区日本橋堀留町二丁目１番１号株式会社中央プロパティー（1010001214027）に合併し解散,2015-10-05,1,,,,,ランドキカク,0
48,1012401016127,登記記録の閉鎖等,0,2023-09-15,2023-09-01,株式会社イー・ブレーン,,株式会社,東京都,千代田区,紀尾井町３番１２号紀尾井町ビル,,13,101,1020094,,,2023-09-01,合併による解散等,5012401011801,令和５年９月１日東京都千代田区紀尾井町３番１２号紀尾井町ビル株式会社ブレーン（5012401011801）に合併し解散,2015-10-05,1,,,,,イーブレーン,0
56,1012803000785,登記記録の閉鎖等,0,2023-09-15,2023-09-08,合同会社手塚インテリア,,合同会社,東京都,武蔵村山市,学園３丁目６４番地の１７,,13,223,2080011,,,2023-09-08,清算の結了等,,,2015-10-05,1,,,,,テヅカインテリア,0
61,1020001089006,登記記録の閉鎖等,0,2023-09-15,2023-09-05,株式会社ストークト,,株式会社,神奈川県,横浜市青葉区,大場町９７番地２２,,14,117,2250023,,,2023-09-05,清算の結了等,,,2015-10-05,1,,,,,ストークト,0
71,1021002040691,登記記録の閉鎖等,0,2023-09-15,2023-09-08,有限会社クリーニングシルバー,,有限会社,神奈川県,大和市,中央７丁目４番６号,,14,213,2420021,,,2023-09-08,清算の結了等,,,2015-10-05,1,,,,,クリーニングシルバー,0
92,1060002029163,登記記録の閉鎖等,0,2023-09-15,2023-09-04,有限会社松葉,,有限会社,栃木県,小山市,西城南２丁目１２番地１５,,09,208,3230820,,,2023-09-04,清算の結了等,,,2023-01-31,1,,,,,マツバ,0
94,1070001009826,登記記録の閉鎖等,0,2023-09-15,2023-09-13,株式会社ウチヤマ,,株式会社,群馬県,安中市,松井田町五料３７番地,,10,211,3790302,,,2023-09-13,清算の結了等,,,2015-10-05,1,,,,,ウチヤマ,0
97,1070001023083,登記記録の閉鎖等,0,2023-09-15,2023-09-13,三山住建株式会社,,株式会社,群馬県,沼田市,横塚町１０６９番地６,,10,206,3780002,,,2023-09-13,清算の結了等,,,2015-10-05,1,,,,,ミヤマジュウケン,0
99,1070002018041,登記記録の閉鎖等,0,2023-09-15,2023-09-01,有限会社亜土社,,有限会社,群馬県,藤岡市,森８８番地７,,10,209,3750004,,,2023-09-01,清算の結了等,,,2015-10-05,1,,,,,アドシャ,0
117,1120001033498,登記記録の閉鎖等,0,2023-09-15,2023-09-14,株式会社原金属工業所,,株式会社,大阪府,大阪市住吉区,沢之町２丁目９番２２号,,27,120,5580031,,,2023-09-14,清算の結了等,,,2015-10-05,1,,,,,ハラキンゾクコウギョウショ,0
118,1120001036311,登記記録の閉鎖等,0,2023-09-15,2023-09-13,株式会社双葉電機工業所,,株式会社,大阪府,大阪市福島区,海老江２丁目５番１８号,,27,103,5530001,,,2023-09-13,清算の結了等,,,2015-10-05,1,,,,,フタバデンキコウギョウショ,0
134,1120003015783,登記記録の閉鎖等,0,2023-09-15,2023-09-13,ヒツジノ合同会社,,合同会社,大阪府,大阪市中央区,備後町３丁目６番２号大雅ビル１０階,,27,128,5410051,,,2023-09-13,清算の結了等,,,2019-05-27,1,,,,,ヒツジノ,0
135,1120101054832,登記記録の閉鎖等,0,2023-09-15,2023-09-13,岸和田循環エネルギー開発株式会社,,株式会社,大阪府,岸和田市,上野町西１１番１９号,,27,202,5960048,,,2023-09-13,清算の結了等,,,2016-05-25,1,,,,,キシワダジュンカンエネルギーカイハツ,0
136,1120101057174,登記記録の閉鎖等,0,2023-09-15,2023-09-11,フューチャーケアパートナー株式会社,,株式会社,大阪府,堺市東区,西野５０６番地２コーポさかた１階,,27,143,5998125,,,2023-09-11,合併による解散等,5120101057146,令和５年９月１日大阪府堺市中区深井畑山町３３５番地１株式会社ラクシア（5120101057146）に合併し解散,2017-10-06,1,,,,,フューチャーケアパートナー,0
140,1120102024149,登記記録の閉鎖等,0,2023-09-15,2023-09-13,有限会社下中産業,,有限会社,大阪府,泉南郡熊取町,桜が丘１丁目３番１０号,,27,361,5900413,,,2023-09-13,清算の結了等,,,2015-10-05,1,,,,,シモナカサンギョウ,0
156,1140002043800,登記記録の閉鎖等,0,2023-09-15,2023-09-08,有限会社宝マリンサービス,,有限会社,兵庫県,尼崎市,東塚口町１丁目１１番１－３１４号,,28,202,6610011,,,2023-09-08,清算の結了等,,,2015-10-05,1,,,,,タカラマリンサービス,0
167,1180001140603,登記記録の閉鎖等,0,2023-09-15,2023-09-11,株式会社ＣＫＥ,,株式会社,愛知県,津島市,鹿伏兎町上郷１６２番地,,23,208,4960023,,,2023-09-11,清算の結了等,,,2020-04-01,1,,,,,シーケーイー,0
170,1180002007322,登記記録の閉鎖等,0,2023-09-15,2023-09-07,有限会社森由塗装,,有限会社,愛知県,名古屋市港区,春田野１丁目６０８番地の１,,23,111,4550873,,,2023-09-07,清算の結了等,,,2015-10-05,1,,,,,モリヨシトソウ,0
171,1180003016479,登記記録の閉鎖等,0,2023-09-15,2023-09-12,あいぷらん合同会社,,合同会社,愛知県,名古屋市守山区,鳥羽見２丁目８番３４号,,23,113,4630076,,,2023-09-12,清算の結了等,,,2015-10-05,1,,,,,アイプラン,0
177,1210005009675,登記記録の閉鎖等,0,2023-09-15,2023-09-11,一般社団法人労働生活環境研究所,,その他の設立登記法人,福井県,福井市,二の宮５丁目６番８号,,18,201,9100015,,,2023-09-11,清算の結了等,,,2017-04-24,1,,,,,ロウドウセイカツカンキョウケンキュウショ,0
181,1220002010214,登記記録の閉鎖等,0,2023-09-15,2023-09-11,有限会社アメヤマ,,有限会社,石川県,小松市,向本折町寅２３３番地,,17,203,9230961,,,2023-09-11,清算の結了等,,,2015-10-05,1,,,,,アメヤマ,0
186,1240002031209,登記記録の閉鎖等,0,2023-09-15,2023-09-07,有限会社ミドリ総合リサーチ,,有限会社,広島県,広島市中区,橋本町１０番１号,,34,101,7300015,,,2023-09-07,清算の結了等,,,2015-10-05,1,,,,,ミドリソウゴウリサーチ,0
196,1260005010083,登記記録の閉鎖等,0,2023-09-15,2023-09-11,一般社団法人おかやま地域リノベーションズ,,その他の設立登記法人,岡山県,久米郡美咲町,藤原１２５番地２６,,33,666,7081534,,,2023-09-11,清算の結了等,,,2016-04-26,1,,,,,オカヤマチイキリノベーションズ,0
211,1310001010016,登記記録の閉鎖等,0,2023-09-15,2023-09-14,株式会社ホライゾン,,株式会社,長崎県,島原市,大手原町甲２１３０番地５７,,42,203,8550012,,,2023-09-14,清算の結了等,,,2015-10-05,1,,,,,ホライゾン,0
213,1320005001241,登記記録の閉鎖等,0,2023-09-15,2023-09-08,大分中央左官業協同組合,,その他の設立登記法人,大分県,大分市,牧３丁目５番１０号,,44,201,8700924,,,2023-09-08,清算の結了等,,,2015-10-05,1,,,,,オオイタチュウオウサカンギョウ,0
216,1330002028559,登記記録の閉鎖等,0,2023-09-15,2023-09-07,有限会社サンセットインアマクサ,,有限会社,熊本県,天草郡苓北町,志岐１５００番地８,,43,531,8632503,,,2023-09-07,清算の結了等,,,2015-10-05,1,,,,,サンセットインアマクサ,0
219,1340002017858,登記記録の閉鎖等,0,2023-09-15,2023-09-13,有限会社坂善,,有限会社,鹿児島県,いちき串木野市,汐見町６１番地,,46,219,8960004,,,2023-09-13,清算の結了等,,,2015-10-05,1,,,,,サカゼン,0
221,1360001019283,登記記録の閉鎖等,0,2023-09-15,2023-09-06,株式会社コーラルグリーン,,株式会社,沖縄県,宮古島市,平良字西里６８７番地の４,,47,214,9060012,,,2023-09-06,清算の結了等,,,2015-10-05,1,,,,,,0
230,1430001053424,登記記録の閉鎖等,0,2023-09-15,2023-09-01,株式会社とまみんアドバンス,,株式会社,北海道,苫小牧市,若草町３丁目１番８号,,01,213,0530021,,,2023-09-01,清算の結了等,,,2015-10-05,1,,,,,トマミンアドバンス,0
236,1450002005133,登記記録の閉鎖等,0,2023-09-15,2023-09-13,有限会社マツイ,,有限会社,北海道,旭川市,末広東一条７丁目１番２１号,,01,204,0718121,,,2023-09-13,清算の結了等,,,2015-10-05,1,,,,,マツイ,0
239,1470005001598,登記記録の閉鎖等,0,2023-09-15,2023-09-11,特定非営利活動法人ＩＴやりましょん,,その他の設立登記法人,香川県,高松市,屋島西町２４４４番地４６,,37,201,7610113,,,2023-09-11,清算の結了等,,,2015-10-05,1,,,,,アイティヤリマション,0
244,1500001020152,登記記録の閉鎖等,0,2023-09-15,2023-09-14,株式会社Ｒｅａｚｙ,,株式会社,愛媛県,松山市,二番町２丁目９番地１,,38,201,7900002,,,2023-09-14,清算の結了等,,,2016-10-17,1,,,,,リージー,0
282,2010005031616,登記記録の閉鎖等,0,2023-09-15,2023-09-13,ＥＳＲ茅ヶ崎２一般社団法人,,その他の設立登記法人,東京都,中央区,日本橋１丁目４番１号日本橋一丁目ビルディング,,13,102,1030027,,,2023-09-13,清算の結了等,,,2020-03-19,1,,,,,イーエスアールチガサキニ,0
285,2010401095677,登記記録の閉鎖等,0,2023-09-15,2023-08-28,株式会社フューチャーレコーズ,,株式会社,東京都,港区,南青山６丁目１０番１２号,,13,103,1070062,,,2023-08-28,合併による解散等,1010401088079,令和５年８月１日東京都港区南青山六丁目１０番１２号株式会社ライツスケール（1010401088079）に合併し解散,2015-10-05,1,,,,,フューチャーレコーズ,0
287,2010401120014,登記記録の閉鎖等,0,2023-09-15,2023-08-29,株式会社ミレジム,,株式会社,東京都,港区,南麻布４丁目１１番２７号,,13,103,1060047,,,2023-08-29,清算の結了等,,,2015-10-05,1,,,,,,0
300,2010405019839,登記記録の閉鎖等,0,2023-09-15,2023-08-28,Ｔインフラホールディングス４号一般社団法人,,その他の設立登記法人,東京都,港区,元赤坂１丁目１番７号,,13,103,1070051,,,2023-08-28,清算の結了等,,,2021-05-24,1,,,,,ティーインフラホールディングスヨンゴウ,0
317,2011001132721,登記記録の閉鎖等,0,2023-09-15,2023-08-18,株式会社ＶＩＶＡＣＯＭＰＡＮＹ,,株式会社,東京都,港区,北青山２丁目７番２０号猪瀬ビル２Ｆ,,13,103,1070061,,,2023-08-18,清算の結了等,,,2020-03-06,1,,,,,ビバカンパニー,0
354,2012401009047,登記記録の閉鎖等,0,2023-09-15,2023-09-13,株式会社三栄商事,,株式会社,東京都,狛江市,東和泉４丁目３番１５号,,13,219,2010014,,,2023-09-13,清算の結了等,,,2015-10-05,1,,,,,サンエイショウジ,0
387,2030003016328,登記記録の閉鎖等,0,2023-09-15,2023-08-22,合同会社ゴトヤ,,合同会社,埼玉県,さいたま市大宮区,桜木町２丁目３番地大宮マルイ７階,,11,103,3300854,,,2023-08-22,清算の結了等,,,2020-12-09,1,,,,,ゴトヤ,0
390,2040001124057,登記記録の閉鎖等,0,2023-09-15,2023-08-31,株式会社メイカムサクシード,,株式会社,千葉県,市川市,新田２丁目２９番４号,,12,203,2720035,,,2023-08-31,清算の結了等,,,2022-07-04,1,,,,,メイカムサクシード,0
396,2050001049212,登記記録の閉鎖等,0,2023-09-15,2023-09-06,株式会社Ｍｅｒｃｉ,,株式会社,茨城県,つくば市,春日３丁目１９番地２センチュリーつくば壱番館１０２号,,08,220,3050821,,,2023-09-06,清算の結了等,,,2021-05-14,1,,,,,メルシー,0
399,2060002014172,登記記録の閉鎖等,0,2023-09-15,2023-09-04,有限会社平山工務店,,有限会社,栃木県,那須郡那珂川町,小砂２９２１番地,,09,411,3240611,,,2023-09-04,清算の結了等,,,2015-10-05,1,,,,,ヒラヤマコウムテン,0
401,2070001006707,登記記録の閉鎖等,0,2023-09-15,2023-09-11,株式会社群馬ニコー,,株式会社,群馬県,高崎市,下大類町７９２番地,,10,202,3700034,,,2023-09-11,清算の結了等,,,2015-10-05,1,,,,,グンマニコー,0
411,2080401005522,登記記録の閉鎖等,0,2023-09-15,2023-09-15,株式会社ヤマキ,,株式会社,静岡県,浜松市中区,板屋町６３５番地,,22,131,4300928,,,2023-09-15,清算の結了等,,,2015-10-05,1,,,,,ヤマキ,0
416,2090002009426,登記記録の閉鎖等,0,2023-09-15,2023-09-12,太陽防災有限会社,,有限会社,山梨県,大月市,七保町葛野２３５番地,,19,206,4090623,,,2023-09-12,清算の結了等,,,2015-10-05,1,,,,,,0
420,2100001018062,登記記録の閉鎖等,0,2023-09-15,2023-09-05,株式会社東方泰雅,,株式会社,長野県,長野市,南千歳８６０番地２４ビトロアレイ２,,20,201,3810000,,,2023-09-05,清算の結了等,,,2015-10-05,1,,,,,トウホウタイヤ,0
422,2110001022922,登記記録の閉鎖等,0,2023-09-15,2023-09-12,株式会社トウキュー,,株式会社,新潟県,長岡市,大町２１６番地３,,15,202,9400844,,,2023-09-12,清算の結了等,,,2015-10-05,1,,,,,トウキュー,0
426,2120001058412,登記記録の閉鎖等,0,2023-09-15,2023-09-06,株式会社牧金属工業所,,株式会社,大阪府,大阪市淀川区,新北野２丁目２番２３号,,27,123,5320025,,,2023-09-06,清算の結了等,,,2015-10-05,1,,,,,,0
439,2120002047926,登記記録の閉鎖等,0,2023-09-15,2023-09-11,有限会社グラスアンドグラス,,有限会社,大阪府,河内長野市,日野３８６番地,,27,216,5860085,,,2023-09-11,清算の結了等,,,2015-10-05,1,,,,,グラスアンドグラス,0
453,2122001027363,登記記録の閉鎖等,0,2023-09-15,2023-09-11,株式会社ＭＩＴＥＫＡ,,株式会社,大阪府,八尾市,西山本町５丁目２番１７号,,27,212,5810868,,,2023-09-11,清算の結了等,,,2015-10-05,1,,,,,ミテカ,0
455,2130001009109,登記記録の閉鎖等,0,2023-09-15,2023-08-31,株式会社オペーク,,株式会社,京都府,京都市西京区,嵐山中尾下町４２番地１６,,26,111,6160004,,,2023-08-31,清算の結了等,,,2015-10-05,1,,,,,オペーク,0
467,2140002069159,登記記録の閉鎖等,0,2023-09-15,2023-09-08,有限会社アワジ環境,,有限会社,兵庫県,洲本市,桑間３８２番地の１,,28,205,6560014,,,2023-09-08,清算の結了等,,,2015-10-05,1,,,,,アワジカンキョウ,0
470,2150001007085,登記記録の閉鎖等,0,2023-09-15,2023-09-13,株式会社テレソフトシステムズ,,株式会社,奈良県,生駒郡斑鳩町,五百井１丁目３番３３号,,29,344,6360124,,,2023-09-13,清算の結了等,,,2015-10-05,1,,,,,テレソフトシステムズ,0
471,2160002008692,登記記録の閉鎖等,0,2023-09-15,2023-09-12,有限会社山口表具太昌堂,,有限会社,滋賀県,彦根市,本町３丁目２番９号,,25,202,5220064,,,2023-09-12,清算の結了等,,,2015-10-05,1,,,,,ヤマグチヒョウグタイショウドウ,0
479,2180001108764,登記記録の閉鎖等,0,2023-09-15,2023-09-07,株式会社トーメービジョン,,株式会社,愛知県,名古屋市西区,則武新町２丁目１１番３３号,,23,104,4510051,,,2023-09-07,清算の結了等,,,2015-10-05,1,,,,,トーメービジョン,0
481,2180005016113,登記記録の閉鎖等,0,2023-09-15,2023-09-13,一般社団法人名古屋市高齢者生活支援センター,,その他の設立登記法人,愛知県,名古屋市瑞穂区,瑞穂通３丁目７番地２,,23,108,4670806,,,2023-09-13,清算の結了等,,,2015-10-05,1,,,,,ナゴヤシコウレイシャセイカツシエンセンター,0
482,2180301005182,登記記録の閉鎖等,0,2023-09-15,2023-09-05,株式会社エーピー,,株式会社,愛知県,豊橋市,駅前大通３丁目５５番地（７０５）,,23,201,4400888,,,2023-09-05,清算の結了等,,,2015-10-05,1,,,,,エーピー,0
505,2290005002556,登記記録の閉鎖等,0,2023-09-15,2023-09-01,福岡県自動車車体整備協同組合連合会,,その他の設立登記法人,福岡県,福岡市東区,箱崎ふ頭６丁目７番１６号,,40,131,8120051,,,2023-09-01,清算の結了等,,,2015-10-05,1,,,,,フクオカケンジドウシャシャタイセイビ,0
518,2430002009382,登記記録の閉鎖等,0,2023-09-15,2023-09-04,有限会社新札幌ホーム,,有限会社,北海道,札幌市白石区,中央一条７丁目１０番１６－２０７号,,01,104,0030011,,,2023-09-04,清算の結了等,,,2015-10-05,1,,,,,シンサッポロホーム,0
519,2430002013764,登記記録の閉鎖等,0,2023-09-15,2023-09-01,有限会社東豊コンタクト,,有限会社,北海道,札幌市東区,北十五条東１５丁目４番１５号,,01,103,0650015,,,2023-09-01,清算の結了等,,,2015-10-05,1,,,,,トウホウコンタクト,0
523,2430002047779,登記記録の閉鎖等,0,2023-09-15,2023-09-01,有限会社すがわら,,有限会社,北海道,千歳市,日の出５丁目１４番１４号,,01,224,0660017,,,2023-09-01,清算の結了等,,,2015-10-05,1,,,,,スガワラ,0
528,2450002001115,登記記録の閉鎖等,0,2023-09-15,2023-09-13,有限会社大澤,,有限会社,北海道,旭川市,金星町３丁目２番１０号,,01,204,0700029,,,2023-09-13,清算の結了等,,,2015-10-05,1,,,,,オオサワ,0
529,2470002000701,登記記録の閉鎖等,0,2023-09-15,2023-09-11,安藤興産有限会社,,有限会社,香川県,高松市,神在川窪町１８番地３,,37,201,7618003,,,2023-09-11,清算の結了等,,,2015-10-05,1,,,,,アンドウコウサン,0
561,3010102003789,登記記録の閉鎖等,0,2023-09-15,2023-08-02,有限会社石歩,,有限会社,埼玉県,飯能市,大字中藤下郷６２３番地１,,11,209,3570123,,,2023-08-02,清算の結了等,,,2015-10-05,1,,,,,セキホ,0
568,3010403018214,登記記録の閉鎖等,0,2023-09-15,2023-08-28,エイコーン・ファイナンス合同会社,,合同会社,東京都,港区,愛宕２丁目５番１号,,13,103,1050002,,,2023-08-28,清算の結了等,,,2018-03-08,1,,,,,エイコーンファイナンス,0
583,3010902011000,登記記録の閉鎖等,0,2023-09-15,2023-09-08,有限会社中井商店,,有限会社,東京都,世田谷区,上北沢４丁目１３番１３号,,13,112,1560057,,,2023-09-08,清算の結了等,,,2015-10-05,1,,,,,ナカイショウテン,0
594,3011003016566,登記記録の閉鎖等,0,2023-09-15,2023-09-07,合同会社エアレウフ,,合同会社,東京都,渋谷区,神泉町１０番１５号,,13,113,1500045,,,2023-09-07,清算の結了等,,,2023-04-04,1,,,,,エアレウフ,0
608,3011602001068,登記記録の閉鎖等,0,2023-09-15,2023-09-11,有限会社稲邊工芸,,有限会社,東京都,練馬区,土支田３丁目４１番９号,,13,120,1790076,,,2023-09-11,清算の結了等,,,2015-10-05,1,,,,,イナベコウゲイ,0
619,3013301036287,登記記録の閉鎖等,0,2023-09-15,2023-09-01,株式会社総合生活サービス,,株式会社,東京都,豊島区,西池袋１丁目４番１０号,,13,116,1710021,,,2023-09-01,合併による解散等,2013301020432,令和５年９月１日東京都豊島区西池袋一丁目４番１０号株式会社ＨＣＭＡアルファ（2013301020432）に合併し解散,2015-10-05,1,,,,,ソウゴウセイカツサービス,0
623,3020003014918,登記記録の閉鎖等,0,2023-09-15,2023-09-07,合同会社ブーケトス,,合同会社,神奈川県,横浜市中区,桜木町１丁目１０１番地１クロスゲート７階,,14,104,2310062,,,2023-09-07,清算の結了等,,,2018-09-20,1,,,,,ブーケトス,0
629,3021002055358,登記記録の閉鎖等,0,2023-09-15,2023-09-08,有限会社大森建材工業,,有限会社,神奈川県,足柄上郡大井町,金子１４５８番地１３,,14,362,2580019,,,2023-09-08,清算の結了等,,,2015-10-05,1,,,,,オオモリケンザイコウギョウ,0
646,3040002076742,登記記録の閉鎖等,0,2023-09-15,2023-09-01,有限会社鳶櫻田興業,,有限会社,千葉県,市原市,五井中央南１丁目２０番地１グリーンガーデン１０１号,,12,219,2900082,,,2023-09-01,清算の結了等,,,2015-10-05,1,,,,,トビサクラダコウギョウ,0
660,3070001022819,登記記録の閉鎖等,0,2023-09-15,2023-09-08,阿形測量株式会社,,株式会社,群馬県,沼田市,東倉内町７７６番地,,10,206,3780043,,,2023-09-08,清算の結了等,,,2015-10-05,1,,,,,アガタソクリョウ,0
663,3070003002686,登記記録の閉鎖等,0,2023-09-15,2023-09-13,平和国際合同会社,,合同会社,群馬県,前橋市,平和町１丁目１３－１６,,10,201,3710027,,,2023-09-13,清算の結了等,,,2016-07-22,1,,,,,ヘイワコクサイ,0
676,3110002033785,登記記録の閉鎖等,0,2023-09-15,2023-09-12,有限会社高七,,有限会社,新潟県,魚沼市,横町１丁目５番地,,15,225,9460005,,,2023-09-12,清算の結了等,,,2015-10-05,1,,,,,タカシチ,0
678,3120001020965,登記記録の閉鎖等,0,2023-09-15,2023-09-11,株式会社坪米製作所,,株式会社,大阪府,大阪市平野区,加美東５丁目７番１１号,,27,126,5470002,,,2023-09-11,清算の結了等,,,2015-10-05,1,,,,,ツボヨネセイサクショ,0
680,3120001050046,登記記録の閉鎖等,0,2023-09-15,2023-09-13,大広印刷株式会社,,株式会社,大阪府,大阪市西淀川区,姫島２丁目１１番１８号,,27,113,5550033,,,2023-09-13,清算の結了等,,,2015-10-05,1,,,,,ダイコウインサツ,0
701,3130001031342,登記記録の閉鎖等,0,2023-09-15,2023-09-01,株式会社高速,,株式会社,京都府,京都市伏見区,竹田真幡木町１１５番地,,26,109,6128427,,,2023-09-01,合併による解散等,4130001013216,令和５年９月１日京都市山科区川田土仏１６番地ひがし都交通株式会社（4130001013216）に合併し解散,2015-10-05,1,,,,,コウソク,0
713,3140001110401,登記記録の閉鎖等,0,2023-09-15,2023-09-11,株式会社リフォーカス,,株式会社,兵庫県,神戸市中央区,磯上通８丁目１番２９号カサベラビルＣ＆Ｍ４０３号,,28,110,6510086,,,2023-09-11,清算の結了等,,,2018-06-13,1,,,,,,0
735,3180302013225,登記記録の閉鎖等,0,2023-09-15,2023-09-05,有限会社白詰草,,有限会社,愛知県,豊川市,門前町２番地,,23,207,4420037,,,2023-09-05,清算の結了等,,,2015-10-05,1,,,,,クローバー,0
748,3250002011496,登記記録の閉鎖等,0,2023-09-15,2023-09-07,有限会社吉見タクシー,,有限会社,山口県,下関市,吉見本町１丁目１番２５号吉見駅構内,,35,201,7596531,,,2023-09-07,清算の結了等,,,2015-10-05,1,,,,,ヨシミタクシー,0
770,3360002021823,登記記録の閉鎖等,0,2023-09-15,2023-09-07,有限会社サンテック,,有限会社,沖縄県,石垣市,字登野城１２４番地,,47,207,9070004,,,2023-09-07,清算の結了等,,,2015-10-05,1,,,,,,0
771,3370001041945,登記記録の閉鎖等,0,2023-09-15,2023-09-08,株式会社オフィスカグ,,株式会社,宮城県,仙台市青葉区,中央２丁目１番７号,,04,101,9800021,,,2023-09-08,清算の結了等,,,2017-08-16,1,,,,,オフィスカグ,0
772,3370001043314,登記記録の閉鎖等,0,2023-09-15,2023-09-06,株式会社ドリーム企画,,株式会社,宮城県,仙台市若林区,六丁の目中町６番２０号,,04,103,9840012,,,2023-09-06,清算の結了等,,,2018-07-17,1,,,,,,0
777,3370202003133,登記記録の閉鎖等,0,2023-09-15,2023-09-07,有限会社マルカ鈴将商店,,有限会社,宮城県,大崎市,鳴子温泉字鷲ノ巣５４番地の４,,04,215,9896811,,,2023-09-07,清算の結了等,,,2015-10-05,1,,,,,マルカスズショウショウテン,0
826,4010005028602,登記記録の閉鎖等,0,2023-09-15,2023-09-13,ＥＳＲ茅ヶ崎１一般社団法人,,その他の設立登記法人,東京都,中央区,日本橋１丁目４番１号日本橋一丁目ビルディング,,13,102,1030027,,,2023-09-13,清算の結了等,,,2018-06-06,1,,,,,イーエスアールチガサキワン,0
837,4010501040226,登記記録の閉鎖等,0,2023-09-15,2023-09-13,株式会社ライアスサーチ,,株式会社,東京都,台東区,谷中３丁目１４番２号,,13,106,1100001,,,2023-09-13,清算の結了等,,,2016-11-02,1,,,,,ライアスサーチ,0
841,4010602012941,登記記録の閉鎖等,0,2023-09-15,2023-09-11,有限会社長谷甚商店,,有限会社,東京都,墨田区,石原２丁目１６番９号,,13,107,1300011,,,2023-09-11,清算の結了等,,,2015-10-05,1,,,,,ハセジンショウテン,0
848,4010902025610,登記記録の閉鎖等,0,2023-09-15,2023-09-08,有限会社ミミ・エンタープライズ,,有限会社,東京都,世田谷区,代沢５丁目３２番５号,,13,112,1550032,,,2023-09-08,清算の結了等,,,2015-10-05,1,,,,,ミミエンタープライズ,0
867,4011301002762,登記記録の閉鎖等,0,2023-09-15,2023-09-04,株式会社山和ビル不動産,,株式会社,東京都,杉並区,上井草４丁目２番３号,,13,115,1670023,,,2023-09-04,清算の結了等,,,2015-10-05,1,,,,,ヤマワビルフドウサン,0
869,4011401024368,登記記録の閉鎖等,0,2023-09-15,2023-09-12,株式会社ステージＺＥＲＯ,,株式会社,東京都,板橋区,氷川町１６番４－１０３号,,13,119,1730013,,,2023-09-12,清算の結了等,,,2022-07-04,1,,,,,ステージゼロ,0
870,4011402018600,登記記録の閉鎖等,0,2023-09-15,2023-09-11,あずさわメモリアル有限会社,,有限会社,東京都,板橋区,小豆沢３丁目７番３０号６０２号室,,13,119,1740051,,,2023-09-11,清算の結了等,,,2015-10-05,1,,,,,アズサワメモリアル,0
884,4020001126581,登記記録の閉鎖等,0,2023-09-15,2023-09-11,株式会社ジョブコムサービス,,株式会社,愛知県,名古屋市北区,大杉３丁目２０番１４号,,23,103,4620837,,,2023-09-11,清算の結了等,,,2018-06-04,1,,,,,ジョブコムサービス,0
893,4030001064558,登記記録の閉鎖等,0,2023-09-15,2023-08-23,日本計測器株式会社,,株式会社,埼玉県,越谷市,東越谷８丁目３８番地１,,11,222,3430023,,,2023-08-23,清算の結了等,,,2015-10-05,1,,,,,ニホンケイソクキ,0
908,4040003008371,登記記録の閉鎖等,0,2023-09-15,2023-09-01,ケーケーティテクノ合同会社,,合同会社,千葉県,八千代市,ゆりのき台４丁目８番地９,,12,221,2760042,,,2023-09-01,清算の結了等,,,2016-03-18,1,,,,,ケーケーティテクノ,0
917,4080002001183,登記記録の閉鎖等,0,2023-09-15,2023-09-13,有限会社大浜園,,有限会社,静岡県,静岡市葵区,田町２丁目７６番地の１７,,22,101,4200068,,,2023-09-13,清算の結了等,,,2015-10-05,1,,,,,オオハマエン,0
924,4120001027373,登記記録の閉鎖等,0,2023-09-15,2023-09-13,株式会社クレーンサービス,,株式会社,大阪府,大阪市住之江区,新北島１丁目７番３６号,,27,125,5590024,,,2023-09-13,清算の結了等,,,2015-10-05,1,,,,,クレーンサービス,0
926,4120001096922,登記記録の閉鎖等,0,2023-09-15,2023-09-01,株式会社グラース,,株式会社,大阪府,大阪市中央区,谷町９丁目１番１８号,,27,128,5420012,,,2023-09-01,合併による解散等,8120001093255,令和５年９月１日大阪市中央区谷町九丁目３番７号株式会社アンズコーポレーション（8120001093255）に合併し解散,2015-10-05,1,,,,,グラース,0
965,4180003001437,登記記録の閉鎖等,0,2023-09-15,2023-09-08,合資会社大栄高速印刷,,合資会社,愛知県,名古屋市港区,港楽２丁目４番２７号,,23,111,4550014,,,2023-09-08,清算の結了等,,,2015-10-05,1,,,,,ダイエイコウソクインサツ,0
966,4180003017219,登記記録の閉鎖等,0,2023-09-15,2023-09-05,合同会社ＷＯＭ,,合同会社,愛知県,名古屋市中区,栄３丁目２５番３０号ＭＩＹＡＴＡＫＵＩＶ２・３階,00117958,23,106,4600008,,,2023-09-05,清算の結了等,,,2016-07-12,1,,,,,ウォム,0
967,4180003021451,登記記録の閉鎖等,0,2023-09-15,2023-09-12,キアレッタ合同会社,,合同会社,愛知県,名古屋市千種区,千種通７丁目２５－１サンライズ千種８Ａ,,23,101,4640855,,,2023-09-12,清算の結了等,,,2020-07-31,1,,,,,キアレッタ,0
968,4180005002714,登記記録の閉鎖等,0,2023-09-15,2023-09-08,医療法人ヨシダ歯科,,その他の設立登記法人,愛知県,名古屋市中川区,富田町大字千音寺字稲屋４１２３番地１,,23,110,4540971,,,2023-09-08,清算の結了等,,,2015-10-05,1,,,,,ヨシダシカ,0
976,4260001034158,登記記録の閉鎖等,0,2023-09-15,2023-09-12,株式会社グリーヴ,,株式会社,岡山県,岡山市南区,浦安本町８８番地１０,,33,104,7028026,,,2023-09-12,清算の結了等,,,2020-03-27,1,,,,,グリーヴ,0
980,4260002032540,登記記録の閉鎖等,0,2023-09-15,2023-09-12,有限会社ＮＯＳＩＤＥ,,有限会社,岡山県,玉野市,田井３丁目１２番４１号,,33,204,7060001,,,2023-09-12,清算の結了等,,,2015-10-05,1,,,,,ノーサイド,0
990,4290002017010,登記記録の閉鎖等,0,2023-09-15,2023-09-01,有限会社アドバンス,,有限会社,福岡県,福岡市博多区,博多駅前２丁目１２番２６号,,40,132,8120011,,,2023-09-01,清算の結了等,,,2015-10-05,1,,,,,アドバンス,0
995,4360001024124,登記記録の閉鎖等,0,2023-09-15,2023-09-12,株式会社ＪＯＪＯＢＡ　ＳＥＣＲＥＴ,,株式会社,沖縄県,中頭郡読谷村,字都屋２３１番地ティアラ２０１号室,,47,324,9040305,,,2023-09-12,清算の結了等,,,2018-06-08,1,,,,,ホホバシークレット,0
1013,4430001000571,登記記録の閉鎖等,0,2023-09-15,2023-09-01,株式会社アサヅマグラシス,,株式会社,北海道,札幌市東区,北三十四条東２５丁目１番３３号,,01,103,0070834,,,2023-09-01,合併による解散等,5430001000570,令和５年９月１日札幌市中央区南七条西六丁目１０３３番地株式会社アサヅマ（5430001000570）に合併し解散,2015-10-05,1,,,,,アサヅマグラシス,0
1018,4430001047381,登記記録の閉鎖等,0,2023-09-15,2023-09-01,株式会社五津屋,,株式会社,北海道,夕張市,清水沢３丁目,,01,209,0680531,,,2023-09-01,清算の結了等,,,2015-10-05,1,,,,,イツツヤ,0
1024,4470002005112,登記記録の閉鎖等,0,2023-09-15,2023-09-11,有限会社中村電気商会,,有限会社,香川県,高松市,兵庫町３番地２３,,37,201,7600024,,,2023-09-11,清算の結了等,,,2015-10-05,1,,,,,ナカムラデンキショウカイ,0
1055,5010005017950,登記記録の閉鎖等,0,2023-09-15,2023-09-12,一般社団法人ヘルスケア・アセット,,その他の設立登記法人,東京都,千代田区,永田町１丁目１１番３０号サウスヒル永田町５階,,13,101,1000014,,,2023-09-12,清算の結了等,,,2015-10-05,1,,,,,ヘルスケアアセット,0
1061,5010401165799,登記記録の閉鎖等,0,2023-09-15,2023-08-29,Ｇｒａｃｅｓ　Ｆａｍｉｌｙ株式会社,,株式会社,東京都,港区,白金３丁目１７番１号,,13,103,1080072,,,2023-08-29,清算の結了等,,,2022-02-28,1,,,,,グレイシーズファミリー,0
1112,5012402019769,登記記録の閉鎖等,0,2023-09-15,2023-09-13,有限会社三鷹マネキン,,有限会社,東京都,あきる野市,小中野１０７番地,,13,228,1900165,,,2023-09-13,清算の結了等,,,2015-10-05,1,,,,,,0
1114,5013301046920,登記記録の閉鎖等,0,2023-09-15,2023-09-01,株式会社ＨＣＭＡアルファ,,株式会社,東京都,豊島区,西池袋１丁目４番１０号,,13,116,1710021,,,2023-09-01,合併による解散等,2013301020432,令和５年９月１日東京都豊島区西池袋一丁目４番１０号株式会社ＨＣＭＡアルファ（2013301020432）に合併し解散,2021-02-04,1,,,,,エイチシーエムエーアルファ,0
1118,5020001127793,登記記録の閉鎖等,0,2023-09-15,2023-09-07,株式会社協和ブラザー,,株式会社,神奈川県,横浜市中区,寿町１丁目３番１１号,,14,104,2310026,,,2023-09-07,清算の結了等,,,2018-09-11,1,,,,,キョウワブラザー,0
1166,5070002024969,登記記録の閉鎖等,0,2023-09-15,2023-09-04,籾山染色有限会社,00025771,有限会社,群馬県,桐生市,東７丁目１番２３号,,10,203,3760034,,,2023-09-04,清算の結了等,,,2015-10-05,1,,,,,モミヤマセンショク,0
1170,5080102010629,登記記録の閉鎖等,0,2023-09-15,2023-09-13,有限会社鈴喜興産,,有限会社,静岡県,駿東郡清水町,徳倉２１６番地の１,,22,341,4110917,,,2023-09-13,清算の結了等,,,2015-10-05,1,,,,,,0
1178,5120001023116,登記記録の閉鎖等,0,2023-09-15,2023-09-13,キンセイ建材株式会社,,株式会社,大阪府,大阪市中央区,東平２丁目５番７号上六ビル５階,,27,128,5420063,,,2023-09-13,清算の結了等,,,2015-10-05,1,,,,,キンセイケンザイ,0
1180,5120001137601,登記記録の閉鎖等,0,2023-09-15,2023-09-04,ユーシンフーズ株式会社,,株式会社,大阪府,大阪市住之江区,柴谷２丁目１番４５号,,27,125,5590021,,,2023-09-04,清算の結了等,,,2015-10-05,1,,,,,ユーシンフーズ,0
1211,5140001050819,登記記録の閉鎖等,0,2023-09-15,2023-09-11,浜口建材工業株式会社,,株式会社,兵庫県,尼崎市,善法寺町１５番２６号,,28,202,6610973,,,2023-09-11,清算の結了等,,,2015-10-05,1,,,,,ハマグチケンザイコウギョウ,0
1230,5150001010516,登記記録の閉鎖等,0,2023-09-15,2023-09-13,三和ハウス不動産センター株式会社,,株式会社,奈良県,橿原市,曲川町６丁目２番１号,,29,205,6340837,,,2023-09-13,清算の結了等,,,2015-10-05,1,,,,,サンワハウスフドウサンセンター,0
1248,5220005008722,登記記録の閉鎖等,0,2023-09-15,2023-09-12,一般社団法人金岡,,その他の設立登記法人,石川県,金沢市,大野町４丁目レ４０番地１７２,,17,201,9200331,,,2023-09-12,清算の結了等,,,2023-01-05,1,,,,,カナオカ,0
1250,5230002003774,登記記録の閉鎖等,0,2023-09-15,2023-09-11,有限会社裕貴社,,有限会社,富山県,富山市,西中野町１丁目７番１２号,,16,201,9398084,,,2023-09-11,清算の結了等,,,2015-10-05,1,,,,,ユウキシャ,0
1253,5240002051450,登記記録の閉鎖等,0,2023-09-15,2023-09-07,有限会社丸五自動車,,有限会社,広島県,尾道市,美ノ郷町三成新沖田２４０番地の１,,34,205,7220215,,,2023-09-07,清算の結了等,,,2015-10-05,1,,,,,マルゴジドウシャ,0
1276,5290002041364,登記記録の閉鎖等,0,2023-09-15,2023-09-01,有限会社トータルエース,,有限会社,福岡県,筑紫野市,塔原東４丁目４番１号,,40,217,8180059,,,2023-09-01,合併による解散等,9290001003601,令和５年９月１日福岡市博多区博多駅東一丁目１番３３号株式会社トータルスタッフ（9290001003601）に合併し解散,2015-10-05,1,,,,,トータルエース,0
1277,5290003000856,登記記録の閉鎖等,0,2023-09-15,2023-09-01,合資会社メディカル・リサーチ,,合資会社,福岡県,宗像市,日の里７丁目２２番３号,,40,220,8113425,,,2023-09-01,清算の結了等,,,2015-10-05,1,,,,,メデイカルリサーチ,0
1283,5290802011715,登記記録の閉鎖等,0,2023-09-15,2023-09-14,有限会社ハイメット,,有限会社,福岡県,北九州市小倉北区,上富野３丁目５番８号,,40,106,8020022,,,2023-09-14,清算の結了等,,,2015-10-05,1,,,,,ハイメット,0
1286,5300003001233,登記記録の閉鎖等,0,2023-09-15,2023-09-14,合同会社心太,,合同会社,佐賀県,伊万里市,黒川町大黒川４００番地,,41,205,8480123,,,2023-09-14,清算の結了等,,,2016-12-09,1,,,,,トコロテン,0
1294,5340005002218,登記記録の閉鎖等,0,2023-09-15,2023-09-13,特定非営利活動法人ナチュラルはーと,,その他の設立登記法人,鹿児島県,鹿児島市,喜入瀬々串町６０４番地２６３,,46,201,8910201,,,2023-09-13,清算の結了等,,,2015-10-05,1,,,,,ナチュラルハート,0
1304,5370002020351,登記記録の閉鎖等,0,2023-09-15,2023-09-07,有限会社まるみ社,,有限会社,宮城県,富谷市,富谷新町５７番地,,04,216,9813311,,,2023-09-07,清算の結了等,,,2015-10-05,1,,,,,マルミシャ,0
1305,5370005001200,登記記録の閉鎖等,0,2023-09-15,2023-09-08,医療法人社団桑星会,,その他の設立登記法人,宮城県,仙台市太白区,袋原６丁目１０番３１号,,04,104,9811102,,,2023-09-08,清算の結了等,,,2015-10-05,1,,,,,ソウセイカイ,0
1315,5410002003178,登記記録の閉鎖等,0,2023-09-15,2023-09-07,有限会社フジイ保険サービス,,有限会社,秋田県,秋田市,川尻町字大川反１７０番地８２,,05,201,0100941,,,2023-09-07,清算の結了等,,,2015-10-05,1,,,,,フジイホケンサービス,0
1352,6010001133049,登記記録の閉鎖等,0,2023-09-15,2023-09-08,株式会社東都博善社,,株式会社,東京都,文京区,千石１丁目２６番５号,,13,105,1120011,,,2023-09-08,清算の結了等,,,2015-10-05,1,,,,,トウトハクゼンシャ,0
1369,6010405018523,登記記録の閉鎖等,0,2023-09-15,2023-08-28,一般社団法人レジデンス・セブン,,その他の設立登記法人,東京都,港区,赤坂２丁目１０番５号税理士法人赤坂国際会計事務所内,,13,103,1070052,,,2023-08-28,清算の結了等,,,2020-02-19,1,,,,,レジデンスセブン,0
1370,6010501032353,登記記録の閉鎖等,0,2023-09-15,2023-09-13,株式会社はつね企画,,株式会社,東京都,台東区,谷中２丁目１３番２号,,13,106,1100001,,,2023-09-13,清算の結了等,,,2015-10-05,1,,,,,ハツネキカク,0
1372,6010603007162,登記記録の閉鎖等,0,2023-09-15,2023-09-12,合同会社Ｂｉｔｆｉｒｅ,,合同会社,東京都,墨田区,本所１丁目７番１５－１０１号ギークハウス両国,,13,107,1300004,,,2023-09-12,清算の結了等,,,2018-03-19,1,,,,,ビットファイア,0
1376,6010801032103,登記記録の閉鎖等,0,2023-09-15,2023-09-11,ＨＩＲＯコーポレーション株式会社,,株式会社,東京都,大田区,大森西３丁目２８番６号,,13,111,1430015,,,2023-09-11,合併による解散等,6010801030684,令和５年９月１日東京都大田区大森西三丁目２８番６号コルコートグループ株式会社（6010801030684）に合併し解散,2021-07-06,1,,,,,ヒロコーポレーション,0
1379,6011001128435,登記記録の閉鎖等,0,2023-09-15,2023-09-13,株式会社ヘブンリーアジア,,株式会社,東京都,渋谷区,神宮前３丁目１８番４２－１１２号,,13,113,1500001,,,2023-09-13,清算の結了等,,,2019-06-07,1,,,,,ヘブンリーアジア,0
1389,6011101076229,登記記録の閉鎖等,0,2023-09-15,2023-09-13,株式会社アマクロ,,株式会社,東京都,新宿区,西新宿１丁目２６番２号,,13,104,1600023,,,2023-09-13,清算の結了等,,,2016-03-04,1,,,,,アマクロ,0
1404,6012401012996,登記記録の閉鎖等,0,2023-09-15,2023-09-12,株式会社ホテルベルモンド,,株式会社,東京都,三鷹市,下連雀３丁目４３番２３号,,13,204,1810013,,,2023-09-12,清算の結了等,,,2015-10-05,1,,,,,ホテルベルモンド,0
1409,6012803001259,登記記録の閉鎖等,0,2023-09-15,2023-09-07,合同会社疏水,,合同会社,東京都,日野市,南平８丁目１４番地の２４,,13,212,1910041,,,2023-09-07,清算の結了等,,,2015-10-05,1,,,,,ソスイ,0
1415,6020002014569,登記記録の閉鎖等,0,2023-09-15,2023-09-01,有限会社昭和自動機器,,有限会社,神奈川県,横浜市青葉区,大場町５９４番地１４,,14,117,2250023,,,2023-09-01,清算の結了等,,,2015-10-05,1,,,,,ショウワジドウキキ,0
1433,6040001118749,登記記録の閉鎖等,0,2023-09-15,2023-09-01,株式会社ＡＺ　ａｂｅｌｉａ,,株式会社,千葉県,浦安市,北栄２丁目１５番１１－１０６号,,12,227,2790002,,,2023-09-01,清算の結了等,,,2021-06-02,1,,,,,エーゼットアベリア,0
1454,6070002031188,登記記録の閉鎖等,0,2023-09-15,2023-09-12,有限会社ムトウ,,有限会社,群馬県,太田市,龍舞町２０２４番地の２,,10,205,3730806,,,2023-09-12,清算の結了等,,,2015-10-05,1,,,,,ムトウ,0
1458,6080402009667,登記記録の閉鎖等,0,2023-09-15,2023-09-14,有限会社清風荘,,有限会社,静岡県,湖西市,新居町新居３２８８番地の１０５,,22,221,4310302,,,2023-09-14,清算の結了等,,,2015-10-05,1,,,,,セイフウソウ,0
1470,6120001029087,登記記録の閉鎖等,0,2023-09-15,2023-09-14,翔潮産業株式会社,,株式会社,大阪府,大阪市港区,築港３丁目１番８号,,27,107,5520021,,,2023-09-14,清算の結了等,,,2015-10-05,1,,,,,ショウチョウサンギョウ,0
1472,6120001043245,登記記録の閉鎖等,0,2023-09-15,2023-09-12,株式会社小島竹夫商店,,株式会社,大阪府,大阪市西区,本田３丁目５番３７号,,27,106,5500022,,,2023-09-12,清算の結了等,,,2015-10-05,1,,,,,コジマタケオショウテン,0
1473,6120001045217,登記記録の閉鎖等,0,2023-09-15,2023-09-06,株式会社武田商事,,株式会社,大阪府,大阪市西区,靱本町１丁目２０番１３号,,27,106,5500004,,,2023-09-06,清算の結了等,,,2015-10-05,1,,,,,タケダショウジ,0
1474,6120001070017,登記記録の閉鎖等,0,2023-09-15,2023-09-08,株式会社プラスコミュニケーションズ,,株式会社,兵庫県,神戸市灘区,曾和町１丁目２番１６号ペア・ドルチェ六甲１０２号,,28,102,6570063,,,2023-09-08,清算の結了等,,,2015-10-05,1,,,,,プラスコミュニケーションズ,0
1486,6120002002299,登記記録の閉鎖等,0,2023-09-15,2023-09-04,有限会社西萩,,有限会社,大阪府,大阪市西成区,花園北２丁目１４番１７号,,27,122,5570016,,,2023-09-04,清算の結了等,,,2015-10-05,1,,,,,ニシハギ,0
1491,6120101045810,登記記録の閉鎖等,0,2023-09-15,2023-09-13,株式会社海幸,,株式会社,大阪府,泉佐野市,高松東１丁目１０番３７－１６０２号,,27,213,5980012,,,2023-09-13,清算の結了等,,,2015-10-05,1,,,,,カイコウ,0
1494,6122001033663,登記記録の閉鎖等,0,2023-09-15,2023-09-11,あおば不動産株式会社,,株式会社,大阪府,東大阪市,小阪１丁目１２番１２号,,27,227,5770801,,,2023-09-11,清算の結了等,,,2020-05-12,1,,,,,アオバフドウサン,0
1496,6130001064950,登記記録の閉鎖等,0,2023-09-15,2023-08-31,株式会社明和,,株式会社,京都府,京都市南区,上鳥羽角田町８８番地２ＹＫビル２階,,26,107,6018104,,,2023-08-31,合併による解散等,8130002018202,令和５年８月３１日京都市南区上鳥羽仏現寺町３５番地２ＹＫビル１号館１階株式会社明鳳（8130002018202）に合併し解散,2019-07-24,1,,,,,メイワ,0
1504,6140001102783,登記記録の閉鎖等,0,2023-09-15,2023-09-11,株式会社いるみな,,株式会社,兵庫県,神戸市灘区,福住通３丁目２番１１号,,28,102,6570824,,,2023-09-11,清算の結了等,,,2016-07-21,1,,,,,イルミナ,0
1508,6140002056582,登記記録の閉鎖等,0,2023-09-15,2023-09-08,有限会社さくらい,,有限会社,兵庫県,西宮市,平木町１１番１２号,,28,204,6620835,,,2023-09-08,清算の結了等,,,2015-10-05,1,,,,,サクライ,0
1525,6180301016498,登記記録の閉鎖等,0,2023-09-15,2023-09-11,株式会社パステル,,株式会社,愛知県,知立市,来迎寺町木ノ根田１０番地１６,,23,225,4720002,,,2023-09-11,合併による解散等,3122001020466,令和５年９月１日大阪府八尾市跡部北の町三丁目３番１５号株式会社八尾金網製作所（3122001020466）に合併し解散,2015-10-05,1,,,,,パステル,0
1528,6200001019625,登記記録の閉鎖等,0,2023-09-15,2023-09-12,株式会社山田製作所,,株式会社,岐阜県,美濃市,乙狩６０番地の１,,21,207,5013786,,,2023-09-12,清算の結了等,,,2015-10-05,1,,,,,ヤマダセイサクショ,0
1556,6290002042535,登記記録の閉鎖等,0,2023-09-15,2023-09-01,有限会社シャイン,,有限会社,福岡県,筑紫野市,大字筑紫６６７番地２８,,40,217,8180025,,,2023-09-01,合併による解散等,8290003009779,令和５年９月１日福岡県筑紫野市大字筑紫６６７番地２８合同会社プランタン（8290003009779）に合併し解散,2015-10-05,1,,,,,シャイン,0
1575,6330002015016,登記記録の閉鎖等,0,2023-09-15,2023-09-06,有限会社たけの旅館,,有限会社,熊本県,熊本市西区,二本木２丁目６番１９号,,43,103,8600051,,,2023-09-06,清算の結了等,,,2015-10-05,1,,,,,タケノリョカン,0
1585,6390001014260,登記記録の閉鎖等,0,2023-09-15,2023-08-29,株式会社ＭＣ,,株式会社,山形県,鶴岡市,小淀川乙３３番地,,06,203,9970853,,,2023-08-29,清算の結了等,,,2015-10-28,1,,,,,エムシー,0
1586,6390003000721,登記記録の閉鎖等,0,2023-09-15,2023-09-12,合同会社ふるさと工房味来館,,合同会社,山形県,最上郡大蔵村,大字南山９６７番地９,,06,365,9960201,,,2023-09-12,清算の結了等,,,2015-10-05,1,,,,,フルサトコウボウミライカン,0
1590,6420002015353,登記記録の閉鎖等,0,2023-09-15,2023-09-08,有限会社鯖石石材店,00087819,有限会社,青森県,南津軽郡大鰐町,大字鯖石字一本柳２１番地５,00087820,02,362,0380241,,,2023-09-08,清算の結了等,,,2015-10-05,1,,,,,サバイシセキザイテン,0
1621,7010001117851,登記記録の閉鎖等,0,2023-09-15,2023-09-07,株式会社サンシティ,,株式会社,宮城県,仙台市青葉区,一番町２丁目４番１号,,04,101,9800811,,,2023-09-07,清算の結了等,,,2023-08-21,1,,,,,サンシティ,0
1622,7010001141281,登記記録の閉鎖等,0,2023-09-15,2023-09-11,株式会社アンデパンダマン,,株式会社,東京都,中央区,銀座３丁目８番４号新聞会館ビル２階２１,,13,102,1040061,,,2023-09-11,清算の結了等,,,2015-10-05,1,,,,,アンデパンダマン,0
1624,7010001200112,登記記録の閉鎖等,0,2023-09-15,2023-09-01,株式会社ＭＡＳＨ＆Ｃｏｍｐａｎｙ,,株式会社,東京都,千代田区,麹町５丁目７番地１,,13,101,1020083,,,2023-09-01,合併による解散等,1010001229066,令和５年９月１日東京都千代田区麹町五丁目７番地１株式会社マッシュホールディングス（1010001229066）に合併し解散,2019-04-12,1,,,,,マッシュアンドカンパニー,0
1664,7011003006695,登記記録の閉鎖等,0,2023-09-15,2023-08-16,ＣＡＳＡ合同会社,,合同会社,東京都,渋谷区,渋谷２丁目１９－１５宮益坂ビルディング６０９,,13,113,1500002,,,2023-08-16,清算の結了等,,,2016-04-01,1,,,,,カーサ,0
1691,7011803004551,登記記録の閉鎖等,0,2023-09-15,2023-09-14,合同会社ＫａｌｅｗａａｋｕａＹＬＫ,,合同会社,東京都,中野区,上高田１丁目２７番１６号ライフピアフルール２０５,,13,114,1640002,,,2023-09-14,清算の結了等,,,2021-03-30,1,,,,,カレヴァアクアワイエルケイ,0
1717,7021002046361,登記記録の閉鎖等,0,2023-09-15,2023-09-08,有限会社佐藤産業,,有限会社,神奈川県,綾瀬市,落合南４丁目２６番２０号,,14,218,2521115,,,2023-09-08,清算の結了等,,,2015-10-05,1,,,,,サトウサンギョウ,0
1719,7021002046469,登記記録の閉鎖等,0,2023-09-15,2023-09-08,有限会社ジュン施工企画,,有限会社,神奈川県,綾瀬市,大上３丁目１６番２号,,14,218,2521104,,,2023-09-08,清算の結了等,,,2015-10-05,1,,,,,ジュンセコウキカク,0
1731,7040001033195,登記記録の閉鎖等,0,2023-09-15,2023-09-01,株式会社Ｋａｉｄｏ＆Ａｓｓｏｃｉａｔｅｓ,,株式会社,千葉県,市川市,福栄３丁目２番５－７０１号,,12,203,2720137,,,2023-09-01,清算の結了等,,,2015-10-05,1,,,,,カイドウアンドアソシエイツ,0
1737,7050001034936,登記記録の閉鎖等,0,2023-09-15,2023-09-04,＿陽興業株式会社,00024171,株式会社,栃木県,鹿沼市,緑町２丁目１－３０,,09,205,3220025,,,2023-09-04,清算の結了等,,,2015-10-05,1,,,,,キンヨウコウギョウ,0
1738,7060002029587,登記記録の閉鎖等,0,2023-09-15,2023-09-04,有限会社吉沼工務店,,有限会社,栃木県,小山市,宮本町２丁目１０番１８号,,09,208,3230024,,,2023-09-04,清算の結了等,,,2015-10-05,1,,,,,ヨシヌマコウムテン,0
1752,7080401018858,登記記録の閉鎖等,0,2023-09-15,2023-09-13,株式会社ＰＩＦＰオフィス,,株式会社,静岡県,浜松市東区,豊町１８９番地の２,,22,132,4313101,,,2023-09-13,清算の結了等,,,2015-10-05,1,,,,,ピーアイエフピーオフィス,0
1754,7100001018891,登記記録の閉鎖等,0,2023-09-15,2023-09-01,株式会社レインボー,,株式会社,長野県,諏訪郡富士見町,落合字黒鳥９１７５番地,,20,362,3990214,,,2023-09-01,合併による解散等,3100001022815,令和５年９月１日長野県飯田市座光寺５５２６番地１株式会社ヤマキチ木材（3100001022815）に合併し解散,2015-10-05,1,,,,,レインボー,0
1760,7110003002991,登記記録の閉鎖等,0,2023-09-15,2023-09-12,合同会社Ｊ．サポート,,合同会社,新潟県,村上市,宿田１３０３番地,,15,212,9593435,,,2023-09-12,清算の結了等,,,2015-10-05,1,,,,,ジェイサポート,0
1768,7120001208367,登記記録の閉鎖等,0,2023-09-15,2023-09-11,株式会社アステージ,,株式会社,大阪府,大阪市中央区,瓦屋町３丁目７番２０号,,27,128,5420066,,,2023-09-11,清算の結了等,,,2017-09-20,1,,,,,アステージ,0
1779,7120101039877,登記記録の閉鎖等,0,2023-09-15,2023-09-13,大望株式会社,,株式会社,大阪府,泉佐野市,日根野３４３５番地,,27,213,5980021,,,2023-09-13,清算の結了等,,,2015-10-05,1,,,,,ダイボウ,0
1809,7180001151801,登記記録の閉鎖等,0,2023-09-15,2023-09-08,株式会社大浦商店,,株式会社,愛知県,海部郡大治町,大字西條字苅屋橋８５番地大治ハイメゾン１０６号,,23,424,4901144,,,2023-09-08,清算の結了等,,,2022-06-20,1,,,,,オオウラショウテン,0
1817,7180302013130,登記記録の閉鎖等,0,2023-09-15,2023-09-05,有限会社建築工房今泉広,,有限会社,愛知県,豊川市,一宮町宮前１３８番地,,23,207,4411231,,,2023-09-05,清算の結了等,,,2015-10-05,1,,,,,ケンチクコウボウイマイズミヒロシ,0
1834,7290001037857,登記記録の閉鎖等,0,2023-09-15,2023-09-01,ファイルネットソリューション株式会社,,株式会社,福岡県,福岡市東区,多々良１丁目１７番１２－５０５号,,40,131,8130033,,,2023-09-01,清算の結了等,,,2015-10-05,1,,,,,ファイルネットソリューション,0
1850,7330002024296,登記記録の閉鎖等,0,2023-09-15,2023-09-07,有限会社大山建設,,有限会社,熊本県,宇土市,境目町７５０番地の５,,43,211,8690417,,,2023-09-07,清算の結了等,,,2015-10-05,1,,,,,,0
1860,7370002006844,登記記録の閉鎖等,0,2023-09-15,2023-09-08,有限会社遠藤運送,,有限会社,宮城県,仙台市宮城野区,日の出町１丁目２番９号,,04,102,9830035,,,2023-09-08,清算の結了等,,,2015-10-05,1,,,,,,0
1903,8010001019840,登記記録の閉鎖等,0,2023-09-15,2023-09-08,株式会社経営開発協会シミュレーション研究所,,株式会社,東京都,千代田区,三番町２４番２５号三番町ＴＹプラザ２階,,13,101,1020075,,,2023-09-08,清算の結了等,,,2015-10-05,1,,,,,ケイエイカイハツキョウカイシミュレーションケンキュウショ,0
1904,8010001157500,登記記録の閉鎖等,0,2023-09-15,2023-09-14,株式会社Ｍａｒｑｕｅ,,株式会社,東京都,渋谷区,恵比寿南２丁目６番１１号,,13,113,1500022,,,2023-09-14,清算の結了等,,,2015-10-05,1,,,,,マーク,0
1912,8010401100472,登記記録の閉鎖等,0,2023-09-15,2023-09-08,ＷＰ　Ｄｉａｍｏｎｄｓ　Ｊａｐａｎ株式会社,,株式会社,東京都,中央区,銀座１丁目１２番４号Ｎ＆Ｅ・ＢＬＤ．５階,,13,102,1040061,,,2023-09-08,清算の結了等,,,2015-10-05,1,,,,,ダブリューピーダイアモンズジャパン,0
1923,8010501002973,登記記録の閉鎖等,0,2023-09-15,2023-09-13,株式会社協宣,,株式会社,東京都,西東京市,田無町２丁目１４番２号,,13,229,1880011,,,2023-09-13,清算の結了等,,,2015-10-05,1,,,,,キョウセン,0
1933,8011101084576,登記記録の閉鎖等,0,2023-09-15,2023-09-13,株式会社ジオ,,株式会社,東京都,新宿区,内藤町１番地３０,,13,104,1600014,,,2023-09-13,清算の結了等,,,2018-06-25,1,,,,,ジオ,0
1946,8011501027119,登記記録の閉鎖等,0,2023-09-15,2023-09-07,３ＣＨ株式会社,,株式会社,東京都,北区,王子本町１丁目９番１１号,,13,117,1140022,,,2023-09-07,清算の結了等,,,2021-07-19,1,,,,,トリプルシーエイチ,0
1949,8012405000525,登記記録の閉鎖等,0,2023-09-15,2023-09-13,特定非営利活動法人市民生活アシストセンター,,その他の設立登記法人,東京都,府中市,宮西町３丁目８番地の１セザールプラザ府中１１８号,,13,206,1830022,,,2023-09-13,清算の結了等,,,2015-10-05,1,,,,,,0
1971,8030001085328,登記記録の閉鎖等,0,2023-09-15,2023-08-23,株式会社吉田貴金属製作所,00015466,株式会社,埼玉県,熊谷市,弥生１丁目７０番地,,11,202,3600044,,,2023-08-23,清算の結了等,,,2015-10-05,1,,,,,ヨシダキキンゾクセイサクショ,0
1991,8050005010800,登記記録の閉鎖等,0,2023-09-15,2023-09-08,一般社団法人青少年人材育成センター,,その他の設立登記法人,茨城県,土浦市,小松１丁目３９番２０号ナンバーワンビル１０１,,08,203,3000823,,,2023-09-08,清算の結了等,,,2015-10-05,1,,,,,セイショウネンジンザイイクセイセンター,0
2002,8080402015151,登記記録の閉鎖等,0,2023-09-15,2023-09-14,有限会社鈴和工業,,有限会社,静岡県,浜松市浜北区,平口４２８番地,,22,136,4340041,,,2023-09-14,清算の結了等,,,2015-10-05,1,,,,,スズワコウギョウ,0
2011,8110002001746,登記記録の閉鎖等,0,2023-09-15,2023-09-12,有限会社コスモキャップ,,有限会社,新潟県,新潟市西区,金巻１０８８番地２,,15,107,9501112,,,2023-09-12,清算の結了等,,,2015-10-05,1,,,,,コスモキャップ,0
2012,8120001017156,登記記録の閉鎖等,0,2023-09-15,2023-09-06,株式会社金谷製作所,,株式会社,大阪府,大阪市生野区,巽南３丁目１９番１８号,00027267,27,116,5440015,,,2023-09-06,清算の結了等,,,2015-10-05,1,,,,,カナヤセイサクショ,0
2013,8120001030704,登記記録の閉鎖等,0,2023-09-15,2023-09-14,櫻庭木材株式会社,,株式会社,大阪府,大阪市住之江区,泉２丁目１番９２号,,27,125,5590023,,,2023-09-14,清算の結了等,,,2015-10-05,1,,,,,サクラバモクザイ,0
2022,8120002073603,登記記録の閉鎖等,0,2023-09-15,2023-09-06,一級建築士事務所有限会社坊野建築事務所,,有限会社,大阪府,枚方市,養父元町２４番２号,,27,210,5731125,,,2023-09-06,清算の結了等,,,2015-10-05,1,,,,,イッキュウケンチクシジムショボウノケンチクジムショ,0
2026,8120101066648,登記記録の閉鎖等,0,2023-09-15,2023-09-13,株式会社ドロップアウト,,株式会社,大阪府,泉北郡忠岡町,馬瀬１丁目６番３１号,,27,341,5950804,,,2023-09-13,清算の結了等,,,2022-12-13,1,,,,,ドロップアウト,0
2038,8130001038184,登記記録の閉鎖等,0,2023-09-15,2023-09-01,枚方エンジニアリング株式会社,,株式会社,京都府,八幡市,男山松里１５番地１５,,26,210,6148364,,,2023-09-01,清算の結了等,,,2015-10-05,1,,,,,ヒラカタ,0
2053,8140001115759,登記記録の閉鎖等,0,2023-09-15,2023-09-11,株式会社Ｓａｋｕｒａ,,株式会社,兵庫県,明石市,大久保町西脇３５０番地の１,,28,203,6740054,,,2023-09-11,清算の結了等,,,2019-12-09,1,,,,,,0
2060,8140005022035,登記記録の閉鎖等,0,2023-09-15,2023-09-12,一般社団法人ゴルフィード,,その他の設立登記法人,兵庫県,伊丹市,北伊丹８丁目１０番地６,,28,207,6640831,,,2023-09-12,清算の結了等,,,2015-10-05,1,,,,,ゴルフィード,0
2070,8180005017915,登記記録の閉鎖等,0,2023-09-15,2023-09-13,一般社団法人相続人サポート協会,,その他の設立登記法人,愛知県,名古屋市北区,駒止町１丁目５番地,,23,103,4620059,,,2023-09-13,清算の結了等,,,2018-07-31,1,,,,,ソウゾクニンサポートキョウカイ,0
2076,8210002007444,登記記録の閉鎖等,0,2023-09-15,2023-09-12,有限会社川端造園,,有限会社,福井県,坂井市,坂井町福島第４１号２番地,,18,210,9190516,,,2023-09-12,清算の結了等,,,2015-10-05,1,,,,,カワバタゾウエン,0
2086,8260002007489,登記記録の閉鎖等,0,2023-09-15,2023-09-12,有限会社二島産業,,有限会社,岡山県,岡山市北区,厚生町３丁目３番７号,,33,101,7000985,,,2023-09-12,清算の結了等,,,2015-10-05,1,,,,,ニシマサンギョウ,0
2089,8280001004477,登記記録の閉鎖等,0,2023-09-15,2023-09-12,サン機工株式会社,,株式会社,島根県,浜田市,三隅町向野田１８６９番地３,,32,202,6993212,,,2023-09-12,清算の結了等,,,2015-10-05,1,,,,,サンキコウ,0
2090,8290001018113,登記記録の閉鎖等,0,2023-09-15,2023-09-01,株式会社コスモワーク,,株式会社,福岡県,福岡市博多区,吉塚５丁目２番７号,,40,132,8120041,,,2023-09-01,合併による解散等,9290001003601,令和５年９月１日福岡市博多区博多駅東一丁目１番３３号株式会社トータルスタッフ（9290001003601）に合併し解散,2015-10-05,1,,,,,コスモワーク,0
2091,8290001028814,登記記録の閉鎖等,0,2023-09-15,2023-09-01,株式会社Ｆｅｍｉｎａ,,株式会社,福岡県,福岡市西区,愛宕浜２丁目３番１１－３０６号,,40,135,8190013,,,2023-09-01,清算の結了等,,,2015-10-05,1,,,,,,0
2117,8430002048755,登記記録の閉鎖等,0,2023-09-15,2023-09-01,有限会社ＣＮＦ　ＬＥＴ,,有限会社,北海道,千歳市,高台１丁目１番７号,,01,224,0660035,,,2023-09-01,清算の結了等,,,2015-10-05,1,,,,,シーエヌエフレット,0
2119,8450003000548,登記記録の閉鎖等,0,2023-09-15,2023-09-01,合同会社ノップキャリー北海道,,合同会社,北海道,恵庭市,島松東町１丁目１０番１３号,,01,231,0611351,,,2023-09-01,清算の結了等,,,2015-10-05,1,,,,,ノップキャリーホッカイドウ,0
2149,9010003032163,登記記録の閉鎖等,0,2023-09-15,2023-09-07,ＰＧ串間メガソーラー１号合同会社,,合同会社,東京都,中央区,日本橋人形町３丁目１０番１号,,13,102,1030013,,,2023-09-07,清算の結了等,,,2020-05-08,1,,,,,ピージークシマメガソーラーイチゴウ,0
2152,9010005028184,登記記録の閉鎖等,0,2023-09-15,2023-09-13,ＥＳＲ２０特定目的会社,,その他の設立登記法人,東京都,中央区,日本橋１丁目４番１号日本橋一丁目ビルディング,,13,102,1030027,,,2023-09-13,清算の結了等,,,2018-03-01,1,,,,,イーエスアールニジュウ,0
2161,9010502016303,登記記録の閉鎖等,0,2023-09-15,2023-09-12,有限会社石黒一花園,,有限会社,東京都,台東区,蔵前４丁目１３番４－５０１号,,13,106,1110051,,,2023-09-12,清算の結了等,,,2015-10-05,1,,,,,イシグロイッカエン,0
2163,9010505003307,登記記録の閉鎖等,0,2023-09-15,2023-09-13,一般社団法人全日本華僑華人社団連合会,,その他の設立登記法人,東京都,台東区,台東４丁目２９番１３号明和ビル５０１,,13,106,1100016,,,2023-09-13,清算の結了等,,,2022-04-28,1,,,,,ゼンニホンカキョウカジンシャダンレンゴウカイ,0
2165,9010605001607,登記記録の閉鎖等,0,2023-09-15,2023-09-12,特定非営利活動法人あすみの会,,その他の設立登記法人,東京都,江東区,東陽５丁目３０番１３号東京原木会館９階,,13,108,1350016,,,2023-09-12,清算の結了等,,,2015-10-05,1,,,,,アスミノカイ,0
2171,9010801033197,登記記録の閉鎖等,0,2023-09-15,2023-09-12,株式会社トライワークス,,株式会社,東京都,大田区,千鳥３丁目７－１８,,13,111,1460083,,,2023-09-12,清算の結了等,,,2022-08-10,1,,,,,トライワークス,0
2173,9010901003645,登記記録の閉鎖等,0,2023-09-15,2023-09-07,株式会社ケイエッチケイアート,,株式会社,東京都,世田谷区,砧５丁目７番１号,,13,112,1570073,,,2023-09-07,合併による解散等,2010901004113,令和５年９月１日東京都世田谷区砧五丁目７番１号国際放映株式会社（2010901004113）に合併し解散,2015-10-05,1,,,,,ケイエッチケイアート,0
2184,9011101095647,登記記録の閉鎖等,0,2023-09-15,2023-09-13,株式会社なつコンサルティング,,株式会社,東京都,新宿区,西新宿３丁目２番９号新宿ワシントンホテルビル本館２Ｆ,,13,104,1600023,,,2023-09-13,清算の結了等,,,2021-07-14,1,,,,,ナツコンサルティング,0
2201,9020001140082,登記記録の閉鎖等,0,2023-09-15,2023-09-07,株式会社大翔建設,,株式会社,神奈川県,川崎市高津区,久地２丁目９番１０－１０９号,,14,134,2130032,,,2023-09-07,清算の結了等,,,2021-02-25,1,,,,,ダイショウケンセツ,0
2204,9020002046774,登記記録の閉鎖等,0,2023-09-15,2023-09-07,有限会社長津田モータース,,有限会社,神奈川県,横浜市緑区,長津田３丁目１番３５号,,14,113,2260027,,,2023-09-07,清算の結了等,,,2015-10-05,1,,,,,ナガツダモータース,0
2217,9030003010043,登記記録の閉鎖等,0,2023-09-15,2023-08-18,合同会社パインズプロパティ,,合同会社,埼玉県,さいたま市浦和区,本太５丁目４番１１号エルパンセ浦和１０２,,11,107,3300052,,,2023-08-18,合併による解散等,4030003000924,令和５年６月１日さいたま市浦和区元町三丁目２３番６号株式会社パインズホーム（4030003000924）に合併し解散,2017-03-16,1,,,,,パインズプロパティ,0
2218,9030003017402,登記記録の閉鎖等,0,2023-09-15,2023-08-23,Ｄｉｉｘ合同会社,,合同会社,埼玉県,志木市,幸町１丁目５番２０－７０４号,,11,228,3530005,,,2023-08-23,清算の結了等,,,2021-06-08,1,,,,,ディックス,0
2220,9040001012800,登記記録の閉鎖等,0,2023-09-15,2023-09-01,株式会社栄和設計,,株式会社,千葉県,千葉市美浜区,稲毛海岸２丁目４番２７号,,12,106,2610005,,,2023-09-01,清算の結了等,,,2015-10-05,1,,,,,エイワセッケイ,0
2223,9040002002354,登記記録の閉鎖等,0,2023-09-15,2023-08-24,有限会社大矢商事,,有限会社,千葉県,千葉市稲毛区,轟町４丁目６番２８号,,12,103,2630021,,,2023-08-24,清算の結了等,,,2015-10-05,1,,,,,オオヤショウジ,0
2231,9050002006809,登記記録の閉鎖等,0,2023-09-15,2023-09-11,有限会社ジャパンドリームフーズ,,有限会社,茨城県,那珂市,堤字塙後４３５番地１５,,08,226,3110104,,,2023-09-11,清算の結了等,,,2015-10-05,1,,,,,ジャパンドリームフーズ,0
2241,9080002015451,登記記録の閉鎖等,0,2023-09-15,2023-09-13,有限会社ティエスケイ,,有限会社,静岡県,島田市,神谷城５９１番地,,22,209,4280036,,,2023-09-13,清算の結了等,,,2015-10-05,1,,,,,ティエスケイ,0
2245,9080103002282,登記記録の閉鎖等,0,2023-09-15,2023-09-13,合同会社トレビア,,合同会社,静岡県,伊東市,南町２丁目４番３０号,,22,208,4140035,,,2023-09-13,清算の結了等,,,2021-01-21,1,,,,,トレビア,0
2246,9080401003494,登記記録の閉鎖等,0,2023-09-15,2023-09-13,株式会社東工油機,,株式会社,静岡県,浜松市中区,高丘北４丁目４番１３号,,22,131,4338119,,,2023-09-13,清算の結了等,,,2015-10-05,1,,,,,トウコウユキ,0
2257,9110002026569,登記記録の閉鎖等,0,2023-09-15,2023-09-13,有限会社ナニワ商事,,有限会社,新潟県,長岡市,摂田屋町２６８０番地,,15,202,9401104,,,2023-09-13,合併による解散等,8110001023205,令和５年９月１３日新潟市中央区西堀通四番町２５９番５８号西堀青藍館６０２号株式会社摂田屋管財（8110001023205）に合併し解散,2015-10-05,1,,,,,ナニワショウジ,0
2277,9120002056994,登記記録の閉鎖等,0,2023-09-15,2023-09-11,有限会社一榮興産,,有限会社,大阪府,大阪市東淀川区,豊新１丁目１７番７号,,27,114,5330014,,,2023-09-11,清算の結了等,,,2015-10-05,1,,,,,イチエイコウサン,0
2278,9120003010827,登記記録の閉鎖等,0,2023-09-15,2023-09-11,京阪Ｍ＆Ａリサーチ合同会社,,合同会社,大阪府,枚方市,朝日丘町４番１８号,,27,210,5730026,,,2023-09-11,清算の結了等,,,2015-10-05,1,,,,,ケイハンエムアンドエーリサーチ,0
2279,9120003020751,登記記録の閉鎖等,0,2023-09-15,2023-09-11,合同会社ｉｚｕｍｏ,,合同会社,大阪府,大阪市浪速区,難波中３丁目１４番１６号靖安ビル２０３号室,,27,111,5560011,,,2023-09-11,清算の結了等,,,2021-12-10,1,,,,,イズモ,0
2283,9120901011777,登記記録の閉鎖等,0,2023-09-15,2023-09-11,株式会社林測地設計,,株式会社,大阪府,高槻市,南平台１丁目１２番５号,,27,207,5691042,,,2023-09-11,清算の結了等,,,2015-10-05,1,,,,,ハヤシソクチセッケイ,0
2306,9140005020145,登記記録の閉鎖等,0,2023-09-15,2023-09-12,一般社団法人淡路物流センター,,その他の設立登記法人,兵庫県,淡路市,岩屋２９４２番地３３,,28,226,6562401,,,2023-09-12,清算の結了等,,,2015-10-05,1,,,,,アワジブツリュウセンター,0
2312,9170002008628,登記記録の閉鎖等,0,2023-09-15,2023-09-13,有限会社大平,,有限会社,和歌山県,田辺市,文里１丁目２１番３０号,,30,206,6460023,,,2023-09-13,清算の結了等,,,2015-10-05,1,,,,,オオヒラ,0
2320,9180005007782,登記記録の閉鎖等,0,2023-09-15,2023-09-13,特定非営利活動法人ＢｉｔＬ,,その他の設立登記法人,愛知県,名古屋市守山区,元郷２丁目３１５番地,,23,113,4630025,,,2023-09-13,清算の結了等,,,2015-10-05,1,,,,,ビットル,0
2321,9180005017212,登記記録の閉鎖等,0,2023-09-15,2023-09-12,特定非営利活動法人ワンワンレスキュー,,その他の設立登記法人,愛知県,名古屋市中区,松原２丁目２０番６号プリンスハイツ松原８０１号,,23,106,4600017,,,2023-09-12,清算の結了等,,,2017-03-23,1,,,,,ワンワンレスキュー,0
2338,9240003004692,登記記録の閉鎖等,0,2023-09-15,2023-09-07,合同会社広島ＡＸＩＳ,,合同会社,広島県,広島市東区,上温品２丁目１３番２号,,34,102,7320032,,,2023-09-07,清算の結了等,,,2020-06-02,1,,,,,ヒロシマアキシス,0
2351,9290003009778,登記記録の閉鎖等,0,2023-09-15,2023-09-01,合同会社カーディナル,,合同会社,福岡県,筑紫野市,大字筑紫６６７番地２８,,40,217,8180025,,,2023-09-01,合併による解散等,8290003009779,令和５年９月１日福岡県筑紫野市大字筑紫６６７番地２８合同会社プランタン（8290003009779）に合併し解散,2020-02-20,1,,,,,カーディナル,0
2358,9330001028701,登記記録の閉鎖等,0,2023-09-15,2023-09-06,株式会社ブリッジ,,株式会社,熊本県,天草市,下浦町９５４０番地,,43,215,8616551,,,2023-09-06,清算の結了等,,,2021-06-18,1,,,,,ブリッジ,0
2375,9420001014452,登記記録の閉鎖等,0,2023-09-15,2023-09-08,株式会社エスアシスト,,株式会社,青森県,上北郡六戸町,大字犬落瀬字後田５２番地４７,,02,405,0392371,,,2023-09-08,清算の結了等,,,2015-10-05,1,,,,,エスアシスト,0
2377,9430001062475,登記記録の閉鎖等,0,2023-09-15,2023-09-04,ｏａｓｉｓ株式会社,,株式会社,北海道,札幌市中央区,北三条西１３丁目３番地５,,01,101,0600003,,,2023-09-04,清算の結了等,,,2015-10-05,1,,,,,オアシス,0
2382,9430002050066,登記記録の閉鎖等,0,2023-09-15,2023-09-01,有限会社正栄工業,,有限会社,北海道,美唄市,字美唄１４４０番地,,01,215,0720000,,,2023-09-01,清算の結了等,,,2015-10-05,1,,,,,,0
2383,9430002064578,登記記録の閉鎖等,0,2023-09-15,2023-09-04,有限会社東匠建設,,有限会社,北海道,室蘭市,日の出町３丁目１３番３４号,,01,205,0500081,,,2023-09-04,清算の結了等,,,2015-10-05,1,,,,,トウショウケンセツ,0
2386,9440003001109,登記記録の閉鎖等,0,2023-09-15,2023-09-11,アップフロント合同会社,,合同会社,北海道,函館市,上野町６番２１号,,01,202,0420954,,,2023-09-11,清算の結了等,,,2016-08-09,1,,,,,アップフロント,0
2387,9460102000190,登記記録の閉鎖等,0,2023-09-15,2023-09-13,有限会社イーエムエス,,有限会社,北海道,帯広市,西十六条南５丁目９番５号,,01,207,0800026,,,2023-09-13,清算の結了等,,,2015-10-05,1,,,,,イーエムエス,0
