sequenceNumber,corporateNumber,process,correct,updateDate,changeDate,name,nameImageId,kind,prefectureName,cityName,streetNumber,addressImageId,prefectureCode,cityCode,postCode,addressOutside,addressOutsideImageId,closeDate,closeCause,successorCorporateNumber,changeCause,assignmentDate,latest,enName,enPrefectureName,enCityName,enAddressOutside,furigana,hihyoji
13,1010001227029,新規,0,2022-06-02,2022-06-02,株式会社Ｉｎ　ｔｈｅ　ｋｎｏｗ,,株式会社,東京都,文京区,本駒込６丁目１番１５－８０１号,,13,105,1130021,,,,,,,2022-06-02,1,,,,,インザノウ,0
14,1010001227094,新規,0,2022-06-02,2022-06-02,オールドスクール株式会社,,株式会社,東京都,千代田区,外神田３丁目１６番１３号,,13,101,1010021,,,,,,,2022-06-02,1,,,,,オールドスクール,0
16,1010003037789,新規,0,2022-06-02,2022-06-02,Ｂ．ＬＡＢ合同会社,,合同会社,東京都,文京区,大塚２丁目１番１６－４０１号,,13,105,1120012,,,,,,,2022-06-02,1,,,,,ビーラボ,0
23,1010401167717,新規,0,2022-06-02,2022-06-02,株式会社ぱーちん,,株式会社,東京都,港区,浜松町２丁目２番１５号浜松町ダイヤビル２Ｆ,,13,103,1050013,,,,,,,2022-06-02,1,,,,,パーチン,0
26,1010403027654,新規,0,2022-06-02,2022-06-02,合同会社テンアンツ,,合同会社,東京都,港区,浜松町２丁目２番１５号浜松町ダイヤビル２Ｆ,,13,103,1050013,,,,,,,2022-06-02,1,,,,,テンアンツ,0
27,1010503006608,新規,0,2022-06-02,2022-06-02,合同会社サイバーコンテンツ,,合同会社,東京都,台東区,台東４丁目２９番３号大九岩本ビル３階,,13,106,1100016,,,,,,,2022-06-02,1,,,,,サイバーコンテンツ,0
39,1010701042735,新規,0,2022-06-02,2022-06-02,株式会社有働映像制作室,,株式会社,東京都,品川区,西五反田３丁目１３番２１－１０１号,,13,109,1410031,,,,,,,2022-06-02,1,,,,,ウドウエイゾウセイサクシツ,0
48,1011001147803,新規,0,2022-06-02,2022-06-02,株式会社ＡＴＴＲＩＢＵＴＥ,,株式会社,東京都,目黒区,青葉台３丁目１５番１４号ＭＡＲＩ’Ｓアパートメント３０１,,13,110,1530042,,,,,,,2022-06-02,1,,,,,アトリビュート,0
51,1011003014753,新規,0,2022-06-02,2022-06-02,合同会社Ｓｕｃｃｅｓｓ‐Ｐｒｏｍｏｔｉｏｎ,,合同会社,東京都,目黒区,五本木３丁目１番１０号コーポ・ユハラ１０２,,13,110,1530053,,,,,,,2022-06-02,1,,,,,サクセスプロモーション,0
52,1011003014778,新規,0,2022-06-02,2022-06-02,合同会社イット,,合同会社,東京都,目黒区,下目黒４丁目２０番１３号,,13,110,1530064,,,,,,,2022-06-02,1,,,,,イット,0
55,1011101099052,新規,0,2022-06-02,2022-06-02,株式会社Ｌｉｆ,,株式会社,東京都,新宿区,高田馬場４丁目２番２９号ベルシオン白石,,13,104,1690075,,,,,,,2022-06-02,1,,,,,リフ,0
56,1011101099060,新規,0,2022-06-02,2022-06-02,Ｍｏｍｅｎｔｏｒ株式会社,,株式会社,東京都,新宿区,榎町３４－３榎町ビル５階,,13,104,1620806,,,,,,,2022-06-02,1,,,,,モーメンター,0
57,1011101099069,新規,0,2022-06-02,2022-06-02,株式会社ｆｏｈ　ｐｉｅｃｅ,,株式会社,東京都,新宿区,新宿１丁目３４－１６清水ビル８０７,,13,104,1600022,,,,,,,2022-06-02,1,,,,,フォーピース,0
73,1012701017080,新規,0,2022-06-02,2022-06-02,株式会社雅士管工,,株式会社,東京都,東村山市,栄町３丁目３６番地１１武蔵野サンハイツ久米川１１１,,13,213,1890013,,,,,,,2022-06-02,1,,,,,マサシカンコウ,0
76,1012805003126,新規,0,2022-06-02,2022-06-02,司法書士法人燦リーガル事務所,,その他の設立登記法人,東京都,昭島市,田中町１丁目２４番１６号,,13,207,1960014,,,,,,,2022-06-02,1,,,,,サンリーガルジムショ,0
79,1013103001136,新規,0,2022-06-02,2022-06-02,合同会社ＳＥＶＥＮ,,合同会社,東京都,福生市,北田園１丁目５３番１リバーサイド多摩２０３,,13,218,1970005,,,,,,,2022-06-02,1,,,,,,0
82,1013301049175,新規,0,2022-06-02,2022-06-02,株式会社エスサポ,,株式会社,東京都,豊島区,西池袋１丁目５番３号エルグビル２階,,13,116,1710021,,,,,,,2022-06-02,1,,,,,エスサポ,0
86,1020001146608,新規,0,2022-06-02,2022-06-02,株式会社プロセルワークス,,株式会社,神奈川県,川崎市高津区,末長２丁目５番１－５０５号,,14,134,2130013,,,,,,,2022-06-02,1,,,,,プロセルワークス,0
87,1020001146715,新規,0,2022-06-02,2022-06-02,株式会社横浜リ・ソイル,,株式会社,神奈川県,横浜市金沢区,鳥浜町２番地９２,,14,108,2360002,,,,,,,2022-06-02,1,,,,,ヨコハマリソイル,0
88,1020001146723,新規,0,2022-06-02,2022-06-02,株式会社タカマサ,,株式会社,神奈川県,横浜市西区,平沼１丁目３番１０号横浜ユニハイム８０２号室,,14,103,2200023,,,,,,,2022-06-02,1,,,,,タカマサ,0
92,1020003021841,新規,0,2022-06-02,2022-06-02,合同会社スエヒロガリ,,合同会社,神奈川県,横浜市中区,北仲通５丁目５７番地２オークウッドスイーツ横浜５１３４号室,,14,104,2310003,,,,,,,2022-06-02,1,,,,,スエヒロガリ,0
100,1021003011782,新規,0,2022-06-02,2022-06-02,スクラムファクトリー合同会社,,合同会社,神奈川県,茅ヶ崎市,浜竹４丁目２番２５－３号,,14,207,2530021,,,,,,,2022-06-02,1,,,,,スクラムファクトリー,0
104,1030003019463,新規,0,2022-06-02,2022-06-02,宮崎内装合同会社,,合同会社,埼玉県,川口市,仲町１５番５号,,11,203,3320022,,,,,,,2022-06-02,1,,,,,ミヤザキナイソウ,0
105,1030003019505,新規,0,2022-06-02,2022-06-02,合同会社オフィス東野,,合同会社,埼玉県,さいたま市西区,三橋６丁目４６１番地３,,11,101,3310052,,,,,,,2022-06-02,1,,,,,オフィスヒガシノ,0
106,1030003019513,新規,0,2022-06-02,2022-06-02,合同会社ＫＩ,,合同会社,埼玉県,北本市,東間５丁目３４番地８,,11,233,3640007,,,,,,,2022-06-02,1,,,,,,0
108,1040001123638,新規,0,2022-06-02,2022-06-02,株式会社Ｅプランリテール,,株式会社,千葉県,船橋市,高瀬町３１番地６,,12,204,2730014,,,,,,,2022-06-02,1,,,,,イープランリテール,0
112,1040003020164,新規,0,2022-06-02,2022-06-02,合同会社Ｒａｉｎｂｏｗ　ｒｏｓｅ,,合同会社,千葉県,千葉市緑区,高田町４１６番地４７４,,12,105,2660003,,,,,,,2022-06-02,1,,,,,ラインボーローズ,0
114,1040005021631,新規,0,2022-06-02,2022-06-02,一般社団法人創嗣会,,その他の設立登記法人,千葉県,船橋市,東船橋６丁目６番１７号,,12,204,2730002,,,,,,,2022-06-02,1,,,,,ソウシカイ,0
117,1050003006583,新規,0,2022-06-02,2022-06-02,合同会社Ｗｅ,,合同会社,茨城県,取手市,谷中４１７番地７９,,08,217,3001532,,,,,,,2022-06-02,1,,,,,ウィ,0
118,1050003006591,新規,0,2022-06-02,2022-06-02,田村通信合同会社,,合同会社,茨城県,つくばみらい市,絹の台３丁目１２番１２号,,08,235,3002436,,,,,,,2022-06-02,1,,,,,タムラツウシン,0
121,1070001039278,新規,0,2022-06-02,2022-06-02,株式会社スタジオフロックス,,株式会社,群馬県,沼田市,石墨町１２９９番地,,10,206,3780077,,,,,,,2022-06-02,1,,,,,スタジオフロックス,0
122,1070001039286,新規,0,2022-06-02,2022-06-02,株式会社インカム不動産,,株式会社,群馬県,伊勢崎市,小泉町２５２番地,,10,204,3792232,,,,,,,2022-06-02,1,,,,,インカムフドウサン,0
125,1080001024980,新規,0,2022-06-02,2022-06-02,株式会社Ｇｏｏｄ　ａｎｄ　Ｗａｖｅ．,,株式会社,静岡県,静岡市駿河区,用宗４丁目１３番１２号,,22,102,4210122,,,,,,,2022-06-02,1,,,,,グッドアンドウェイブ,0
126,1080005007461,新規,0,2022-06-02,2022-06-02,税理士法人しずおか,,その他の設立登記法人,静岡県,静岡市葵区,追手町１番１３号アゴラ静岡ビル,,22,101,4200853,,,,,,,2022-06-02,1,,,,,シズオカ,0
127,1080101023321,新規,0,2022-06-02,2022-06-02,株式会社Ｂｅａｕｔｙ＆Ｔｒａｉｎｅｒ　Ｓｏｌｕｔｉｏｎｓ,,株式会社,静岡県,沼津市,新宿町７番地の２・１階,,22,203,4100048,,,,,,,2022-06-02,1,,,,,ビューティーアンドトレーナーソリューションズ,0
156,1120001246158,新規,0,2022-06-02,2022-06-02,しまでん株式会社,,株式会社,大阪府,枚方市,楠葉中之芝２丁目２０番１５号,,27,210,5731101,,,,,,,2022-06-02,1,,,,,シマデン,0
157,1120001246216,新規,0,2022-06-02,2022-06-02,株式会社青辰,,株式会社,大阪府,大阪市浪速区,浪速東３丁目９番１７号,,27,111,5560025,,,,,,,2022-06-02,1,,,,,アオタツ,0
158,1120001246249,新規,0,2022-06-02,2022-06-02,株式会社サンフィールド,,株式会社,大阪府,大阪市浪速区,恵美須西２丁目１４番３０号,,27,111,5560003,,,,,,,2022-06-02,1,,,,,サンフィールド,0
159,1120001246323,新規,0,2022-06-02,2022-06-02,株式会社伊藤美装工芸所,,株式会社,大阪府,大阪市東住吉区,今林４丁目１４番２０号,,27,121,5460001,,,,,,,2022-06-02,1,,,,,イトウビソウコウゲイショ,0
160,1120001246348,新規,0,2022-06-02,2022-06-02,株式会社ＷＩＳＨ,,株式会社,大阪府,大阪市住吉区,遠里小野２丁目５番１０号,,27,120,5580032,,,,,,,2022-06-02,1,,,,,ウィッシュ,0
165,1120101065648,新規,0,2022-06-02,2022-06-02,株式会社角建設,,株式会社,大阪府,松原市,天美東７丁目１２番３号,,27,217,5800032,,,,,,,2022-06-02,1,,,,,,0
166,1120101065697,新規,0,2022-06-02,2022-06-02,３ＴＳ株式会社,,株式会社,大阪府,松原市,別所４丁目１０番１２号,,27,217,5800005,,,,,,,2022-06-02,1,,,,,スリーティーエス,0
167,1120103004728,新規,0,2022-06-02,2022-06-02,合同会社Ｐｅｔｉｔ　Ａｎｇｅ,,合同会社,大阪府,富田林市,梅の里３丁目２７番１８号,,27,214,5840001,,,,,,,2022-06-02,1,,,,,,0
169,1120901046046,新規,0,2022-06-02,2022-06-02,株式会社ＳＡＫＵ,,株式会社,大阪府,豊中市,大島町１丁目２番１２－８０８号,,27,203,5610824,,,,,,,2022-06-02,1,,,,,サク,0
181,1130001071877,新規,0,2022-06-02,2022-06-02,日本福田株式会社,,株式会社,京都府,京都市左京区,吉田中大路町２２－１０２,,26,103,6068313,,,,,,,2022-06-02,1,,,,,ニホンフクダ,0
182,1130001071893,新規,0,2022-06-02,2022-06-02,株式会社ふみのーと,,株式会社,京都府,京都市南区,西九条蔵王町１１,,26,107,6018414,,,,,,,2022-06-02,1,,,,,フミノート,0
189,1140001126201,新規,0,2022-06-02,2022-06-02,株式会社コウヅ,,株式会社,兵庫県,西宮市,樋之池町３番２８－３０１号,,28,204,6620084,,,,,,,2022-06-02,1,,,,,コウヅ,0
194,1150001025583,新規,0,2022-06-02,2022-06-02,株式会社斗真,,株式会社,奈良県,吉野郡十津川村,大字平谷２４１番地の１,,29,449,6371554,,,,,,,2022-06-02,1,,,,,トウシン,0
208,1180001151492,新規,0,2022-06-02,2022-06-02,株式会社タキゼン配送センター,,株式会社,愛知県,江南市,前飛保町寺前６５番地,,23,217,4838335,,,,,,,2022-06-02,1,,,,,タキゼンハイソウセンター,0
209,1180001151534,新規,0,2022-06-02,2022-06-02,愛知トータルケア株式会社,,株式会社,愛知県,小牧市,大字久保一色３４１１番地１０,,23,219,4850003,,,,,,,2022-06-02,1,,,,,アイチトータルケア,0
210,1180001151542,新規,0,2022-06-02,2022-06-02,ｅｒｅｔｉｃｏ株式会社,,株式会社,愛知県,名古屋市緑区,滝ノ水５丁目１２０９番地,,23,114,4580021,,,,,,,2022-06-02,1,,,,,エレェティコ,0
221,1220005008676,新規,0,2022-06-02,2022-06-02,川北村農業会,,その他の設立登記法人,石川県,金沢市,松寺町丑３９番地１,,17,201,9200011,,,,,,,2022-06-02,1,,,,,,0
224,1240001059845,新規,0,2022-06-02,2022-06-02,ネクストファーマーズ株式会社,,株式会社,広島県,東広島市,高屋町小谷２７４６番地１,,34,212,7392121,,,,,,,2022-06-02,1,,,,,ネクストファーマーズ,0
225,1240001059853,新規,0,2022-06-02,2022-06-02,株式会社トライイットファースト,,株式会社,広島県,広島市中区,流川町５番１９号,,34,101,7300028,,,,,,,2022-06-02,1,,,,,トライイットファースト,0
227,1260003003931,新規,0,2022-06-02,2022-06-02,合同会社宗設備,,合同会社,岡山県,岡山市南区,福島３丁目１２番１１号,,33,104,7028044,,,,,,,2022-06-02,1,,,,,ソウセツビ,0
237,1290001097725,新規,0,2022-06-02,2022-06-02,株式会社古賀除草,,株式会社,福岡県,八女市,立花町兼松９１２番地６,,40,210,8340082,,,,,,,2022-06-02,1,,,,,コガジョソウ,0
239,1290003012574,新規,0,2022-06-02,2022-06-02,合同会社Ａ’Ｇｒｏｗｔｈ,,合同会社,福岡県,福岡市中央区,天神１丁目９－１７福岡天神フコク生命ビル１５階,,40,133,8100001,,,,,,,2022-06-02,1,,,,,エイグロウス,0
240,1290005018702,新規,0,2022-06-02,2022-06-02,一般財団法人Ｓ・Ｅ・Ｅ・Ｔ,,その他の設立登記法人,福岡県,糟屋郡粕屋町,大字仲原２８３５番地６号,,40,349,8112304,,,,,,,2022-06-02,1,,,,,エスイイティ,0
244,1320001019097,新規,0,2022-06-02,2022-06-02,株式会社和光,,株式会社,大分県,大分市,花高松１丁目４番２９号,,44,201,8700915,,,,,,,2022-06-02,1,,,,,ワコウ,0
246,1330001029772,新規,0,2022-06-02,2022-06-02,ドゥミュージック株式会社,,株式会社,熊本県,玉名市,両迫間１０４３番地,,43,206,8650006,,,,,,,2022-06-02,1,,,,,ドゥミュージック,0
247,1330001029780,新規,0,2022-06-02,2022-06-02,株式会社一美商会,,株式会社,熊本県,上益城郡嘉島町,大字北甘木１８７５番地１,,43,442,8613104,,,,,,,2022-06-02,1,,,,,イチミショウカイ,0
251,1340001024764,新規,0,2022-06-02,2022-06-02,株式会社ベルダ,,株式会社,鹿児島県,霧島市,隼人町神宮４丁目１０番４５号,,46,218,8995121,,,,,,,2022-06-02,1,,,,,ベルダ,0
254,1340003003816,新規,0,2022-06-02,2022-06-02,合同会社アオキ,,合同会社,鹿児島県,鹿児島市,平川町２７１０番地２,,46,201,8910133,,,,,,,2022-06-02,1,,,,,アオキ,0
257,1360001030488,新規,0,2022-06-02,2022-06-02,株式会社Ｎｏｓｔａｌｇｉｃ　Ｔｅｃｈｎｏｌｏｇｙ,,株式会社,沖縄県,沖縄市,高原５丁目１６－７,,47,211,9042171,,,,,,,2022-06-02,1,,,,,ノスタルジックテクノロジー,0
258,1370001048620,新規,0,2022-06-02,2022-06-02,株式会社ハウスコンシェルジュ,,株式会社,宮城県,仙台市宮城野区,福室３丁目３番６４号ボヌール高砂２０３,,04,102,9830005,,,,,,,2022-06-02,1,,,,,ハウスコンシェルジュ,0
260,1380001032854,新規,0,2022-06-02,2022-06-02,株式会社ツリーアンドフォレスト,,株式会社,福島県,いわき市,小名浜諏訪町２０番地１９,,07,204,9718161,,,,,,,2022-06-02,1,,,,,ツリーアンドフォレスト,0
264,1400005008245,新規,0,2022-06-02,2022-06-02,農事組合法人里山ファーム,,その他の設立登記法人,岩手県,一関市,萩荘字羽根橋５１番地,,03,209,0210902,,,,,,,2022-06-02,1,,,,,,0
276,1480001011757,新規,0,2022-06-02,2022-06-02,株式会社ライフィングサポートプラス,,株式会社,徳島県,徳島市,川内町中島９９－２,,36,201,7710143,,,,,,,2022-06-02,1,,,,,ライフィングサポートプラス,0
277,1490003001664,新規,0,2022-06-02,2022-06-02,高知古紙回収業者サポート合同会社,,合同会社,高知県,高知市,北秦泉寺７７７番地１７,,39,201,7800022,,,,,,,2022-06-02,1,,,,,コウチコシカイシュウギョウシャサポート,0
278,1500001024244,新規,0,2022-06-02,2022-06-02,株式会社ＳＫライフ,,株式会社,愛媛県,大洲市,若宮４９６番地,,38,207,7950052,,,,,,,2022-06-02,1,,,,,エスケイライフ,0
279,1500003002842,新規,0,2022-06-02,2022-06-02,合同会社まろや四季,,合同会社,愛媛県,大洲市,大洲１５２番地１,,38,207,7950012,,,,,,,2022-06-02,1,,,,,,0
281,2010001090459,新規,0,2022-06-02,2022-06-02,日本トータルファイナンス株式会社,,株式会社,東京都,千代田区,九段北１丁目１２番３号,,13,101,1020073,,,,,,,2022-06-02,1,,,,,ニホントータルファイナンス,0
287,2010001227011,新規,0,2022-06-02,2022-06-02,株式会社Ｒｏａｒｓ　ｐｒｏｍｏｔｉｏｎ,,株式会社,東京都,中央区,日本橋馬喰町１丁目４番１４号,,13,102,1030002,,,,,,,2022-06-02,1,,,,,ロアーズプロモーション,0
295,2010401167591,新規,0,2022-06-02,2022-06-02,株式会社山田屋,,株式会社,東京都,港区,西麻布２丁目１３番１５号第２横芝ビル４０１,,13,103,1060031,,,,,,,2022-06-02,1,,,,,ヤマダヤ,0
296,2010401167699,新規,0,2022-06-02,2022-06-02,株式会社ネイチャー・デコール,,株式会社,東京都,港区,南青山３丁目３番３号,,13,103,1070062,,,,,,,2022-06-02,1,,,,,ネイチャーデコール,0
300,2010403027389,新規,0,2022-06-02,2022-06-02,Ｙ＆Ｙシティプランニング合同会社,,合同会社,東京都,港区,台場１丁目３番４―２００９号,,13,103,1350091,,,,,,,2022-06-02,1,,,,,ワイアンドワイシティプランニング,0
301,2010403027802,新規,0,2022-06-02,2022-06-02,ウェリバー合同会社,,合同会社,東京都,港区,南青山２丁目２番１５号,,13,103,1070062,,,,,,,2022-06-02,1,,,,,ウェリバー,0
303,2010603009559,新規,0,2022-06-02,2022-06-02,合同会社吉祥,,合同会社,東京都,墨田区,立花１丁目２３番３号－１０４,,13,107,1310043,,,,,,,2022-06-02,1,,,,,キショウ,0
309,2010703006266,新規,0,2022-06-02,2022-06-02,合同会社ｏｐｔｉｍａｌ,,合同会社,東京都,品川区,西五反田３丁目１０－１８,,13,109,1410031,,,,,,,2022-06-02,1,,,,,オプティマル,0
317,2010803004186,新規,0,2022-06-02,2022-06-02,モーメント合同会社,,合同会社,東京都,大田区,西蒲田７丁目９番１号クロスレジデンス蒲田ＩＩ‐６０６号室,00126722,13,111,1440051,,,,,,,2022-06-02,1,,,,,モーメント,0
325,2011001147703,新規,0,2022-06-02,2022-06-02,株式会社Ｂａｓｅｂａｌｌ　Ｑ,,株式会社,東京都,渋谷区,渋谷２丁目１９－１５宮益坂ビルディング６０９,,13,113,1500002,,,,,,,2022-06-02,1,,,,,ベースボールキュー,0
326,2011003014769,新規,0,2022-06-02,2022-06-02,合同会社トミガヤベース,,合同会社,東京都,渋谷区,西原１丁目３５番１５号かすがマンション６０５,,13,113,1510066,,,,,,,2022-06-02,1,,,,,トミガヤベース,0
337,2011501028089,新規,0,2022-06-02,2022-06-02,ｓｏｄｄｏｎｇ株式会社,,株式会社,東京都,北区,浮間１丁目１番１４号リムジンビル３２６,,13,117,1150051,,,,,,,2022-06-02,1,,,,,ソドン,0
346,2011701025349,新規,0,2022-06-02,2022-06-02,株式会社小山機工,,株式会社,東京都,江戸川区,中央２丁目７番１７号,,13,123,1320021,,,,,,,2022-06-02,1,,,,,コヤマキコウ,0
359,2012701017088,新規,0,2022-06-02,2022-06-02,株式会社Ｙ’ｓＧｒｏｕｐ,,株式会社,東京都,東村山市,廻田町４丁目１２番地７４,,13,213,1890025,,,,,,,2022-06-02,1,,,,,ワイズグループ,0
368,2013305003350,新規,0,2022-06-02,2022-06-02,一般社団法人日本パッション＆セルフラブ協会,,その他の設立登記法人,東京都,豊島区,南大塚２丁目１１番１０号,,13,116,1700005,,,,,,,2022-06-02,1,,,,,ニホンパッションアンドセルフラブキョウカイ,0
374,2020001146722,新規,0,2022-06-02,2022-06-02,株式会社Ｓ・Ｈ,,株式会社,神奈川県,横浜市戸塚区,上矢部町６９０番地１９－４０６号,,14,110,2450053,,,,,,,2022-06-02,1,,,,,エスエイチ,0
375,2020001146730,新規,0,2022-06-02,2022-06-02,株式会社サファイアイリス,,株式会社,神奈川県,横浜市中区,太田町４丁目４８番地,,14,104,2310011,,,,,,,2022-06-02,1,,,,,サファイアイリス,0
376,2020001146755,新規,0,2022-06-02,2022-06-02,株式会社イーワークス,,株式会社,神奈川県,横浜市栄区,飯島町１６７番地４－１０２,,14,115,2440842,,,,,,,2022-06-02,1,,,,,イーワークス,0
377,2020001146763,新規,0,2022-06-02,2022-06-02,株式会社オートスタンス,,株式会社,神奈川県,横浜市保土ケ谷区,常盤台３１番５－２０３号,,14,106,2400067,,,,,,,2022-06-02,1,,,,,オートスタンス,0
378,2020001146771,新規,0,2022-06-02,2022-06-02,Ｙｏｋｉｓｏｆｔ株式会社,,株式会社,神奈川県,横浜市保土ケ谷区,仏向町８４５番１８,,14,106,2400044,,,,,,,2022-06-02,1,,,,,ヨッキソフト,0
382,2021001076109,新規,0,2022-06-02,2022-06-02,株式会社Ｏｒｉｎａｓ,,株式会社,神奈川県,大和市,南林間１丁目８－１１パストラル小林５０６,,14,213,2420006,,,,,,,2022-06-02,1,,,,,オリナス,0
386,2021003011757,新規,0,2022-06-02,2022-06-02,合同会社Ｍｅａｓ　Ｃｈａｎｎｙ,,合同会社,神奈川県,平塚市,横内３９００番地の２２,,14,203,2540002,,,,,,,2022-06-02,1,,,,,ミャチャニー,0
387,2021003011773,新規,0,2022-06-02,2022-06-02,合同会社えんじょいあーす,,合同会社,神奈川県,横須賀市,林２丁目１４番９号,,14,201,2380315,,,,,,,2022-06-02,1,,,,,エンジョイアース,0
390,2030001148461,新規,0,2022-06-02,2022-06-02,株式会社林塗装,,株式会社,埼玉県,朝霞市,栄町３丁目１番１５号,,11,227,3510012,,,,,,,2022-06-02,1,,,,,ハヤシトソウ,0
403,2050001051151,新規,0,2022-06-02,2022-06-02,株式会社京好保温板金工業所,,株式会社,茨城県,筑西市,中舘９１１番地１,,08,227,3080005,,,,,,,2022-06-02,1,,,,,キョウヨシミホオンバンキンコウギョウショ,0
407,2070001039285,新規,0,2022-06-02,2022-06-02,株式会社金田仮設,,株式会社,群馬県,高崎市,上小鳥町３８２番地,,10,202,3700078,,,,,,,2022-06-02,1,,,,,カネダカセツ,0
430,2120001246355,新規,0,2022-06-02,2022-06-02,エナージ株式会社,,株式会社,大阪府,大阪市住之江区,御崎３丁目４番１８号,,27,125,5590013,,,,,,,2022-06-02,1,,,,,エナージ,0
431,2120003021822,新規,0,2022-06-02,2022-06-02,合同会社六〇二,,合同会社,大阪府,大阪市中央区,内平野町２丁目３番１号ＳＴＵＤＩＯ６４－６０２号室,,27,128,5400037,,,,,,,2022-06-02,1,,,,,ロクレイニ,0
434,2120103004727,新規,0,2022-06-02,2022-06-02,合同会社プラスアルファ,,合同会社,大阪府,和泉市,はつが野２丁目１５番７９号,,27,219,5941106,,,,,,,2022-06-02,1,,,,,プラスアルファ,0
437,2120901046037,新規,0,2022-06-02,2022-06-02,ｉｎＦａｎｇｓ株式会社,,株式会社,大阪府,高槻市,日吉台一番町１９番４号,,27,207,5691022,,,,,,,2022-06-02,1,,,,,インファングス,0
438,2120903004174,新規,0,2022-06-02,2022-06-02,合同会社Ｓｍｏｏｔｈ,,合同会社,大阪府,高槻市,奈佐原２丁目１４番１５－５０６号高槻阿武山ＶＥＮＴＯ,,27,207,5691041,,,,,,,2022-06-02,1,,,,,スムーズ,0
444,2130001071876,新規,0,2022-06-02,2022-06-02,株式会社ＦＵ‐Ｌｉｆｅ　Ｓｕｐｐｏｒｔ,,株式会社,京都府,京都市下京区,和気町１番地９,,26,106,6008834,,,,,,,2022-06-02,1,,,,,フーライフサポート,0
450,2140001126183,新規,0,2022-06-02,2022-06-02,株式会社クロニクル,,株式会社,兵庫県,神戸市東灘区,住吉本町１丁目１３番２２－５０３号,,28,101,6580051,,,,,,,2022-06-02,1,,,,,クロニクル,0
451,2140001126200,新規,0,2022-06-02,2022-06-02,ｅ‐ｈｏｍｅｓ株式会社,,株式会社,兵庫県,尼崎市,稲葉元町３丁目２２番１２号,,28,202,6600055,,,,,,,2022-06-02,1,,,,,イーホームズ,0
452,2140001126258,新規,0,2022-06-02,2022-06-02,マネジメントシェア株式会社,,株式会社,兵庫県,神戸市中央区,海岸通３丁目１番１号,,28,110,6500024,,,,,,,2022-06-02,1,,,,,マネジメントシェア,0
461,2180003023879,新規,0,2022-06-02,2022-06-02,ヴィオラ合同会社,,合同会社,愛知県,一宮市,大和町妙興寺字地蔵恵４４番１,,23,203,4910922,,,,,,,2022-06-02,1,,,,,ヴィオラ,0
462,2180003023887,新規,0,2022-06-02,2022-06-02,合同会社Ｒｅｂｅｌｏｇ,,合同会社,愛知県,半田市,岩滑東町２丁目１３５番地,,23,205,4750905,,,,,,,2022-06-02,1,,,,,レブログ,0
465,2180305009345,新規,0,2022-06-02,2022-06-02,行政書士法人ポラリス,,その他の設立登記法人,愛知県,新城市,野田字西町屋敷５番地２サンタフェＦ号,,23,221,4411343,,,,,,,2022-06-02,1,,,,,ポラリス,0
467,2190001029464,新規,0,2022-06-02,2022-06-02,株式会社ＭｏｎＲｅｖｅ,,株式会社,三重県,四日市市,諏訪栄町８番１３号,,24,202,5100086,,,,,,,2022-06-02,1,,,,,モンレーブ,0
478,2240001059844,新規,0,2022-06-02,2022-06-02,株式会社Ａｃｅ　ｔｒｅｓ,,株式会社,広島県,山県郡北広島町,有田３８３番地１－１－２０１,,34,369,7311533,,,,,,,2022-06-02,1,,,,,エーストレース,0
479,2240001059852,新規,0,2022-06-02,2022-06-02,株式会社ＢＯＮＯ,,株式会社,広島県,広島市西区,横川町２丁目１２番２２号,,34,104,7330011,,,,,,,2022-06-02,1,,,,,ボーノ,0
480,2240001059860,新規,0,2022-06-02,2022-06-02,株式会社Ｋ＆Ｍ,,株式会社,広島県,安芸郡坂町,北新地４丁目３番７６号,,34,309,7314311,,,,,,,2022-06-02,1,,,,,ケーアンドエム,0
488,2260001036890,新規,0,2022-06-02,2022-06-02,株式会社吉備土手下麦酒,,株式会社,岡山県,岡山市中区,東山３丁目９番１０号,,33,102,7038281,,,,,,,2022-06-02,1,,,,,キビドテシタバクシュ,0
489,2260003003930,新規,0,2022-06-02,2022-06-02,吉備養豚合同会社,,合同会社,岡山県,加賀郡吉備中央町,岨谷１５１６番地５,,33,681,7161552,,,,,,,2022-06-02,1,,,,,キビヨウトン,0
497,2290003012573,新規,0,2022-06-02,2022-06-02,合同会社臼井,,合同会社,福岡県,筑紫野市,桜台２丁目１番８－１０４号,,40,217,8180063,,,,,,,2022-06-02,1,,,,,ウスイ,0
505,2310001017885,新規,0,2022-06-02,2022-06-02,株式会社ＡｉＬＥ,,株式会社,長崎県,西海市,大島町１８４６番地１,,42,212,8572427,,,,,,,2022-06-02,1,,,,,エイル,0
508,2340001024763,新規,0,2022-06-02,2022-06-02,カルソニック株式会社,,株式会社,鹿児島県,鹿児島市,川上町１１７９番地２,,46,201,8920875,,,,,,,2022-06-02,1,,,,,カルソニック,0
510,2350001017782,新規,0,2022-06-02,2022-06-02,株式会社ＴＲＵＴＨ,,株式会社,宮崎県,宮崎市,中央通２番７号アルティメットＳＧビルＩＩ１階,00126728,45,201,8800002,,,,,,,2022-06-02,1,,,,,トゥルース,0
511,2350003004093,新規,0,2022-06-02,2022-06-02,合同会社Ｂｌｅｎｄ　Ｈｉｌｌ,,合同会社,宮崎県,宮崎市,高岡町五町２７８番地３,,45,201,8802322,,,,,,,2022-06-02,1,,,,,ブレンドヒル,0
513,2360003012062,新規,0,2022-06-02,2022-06-02,合同会社Ｓｔａｒ５１,,合同会社,沖縄県,国頭郡今帰仁村,字今泊７８番地,,47,306,9050428,,,,,,,2022-06-02,1,,,,,,0
515,2370003005718,新規,0,2022-06-02,2022-06-02,合同会社Ｆｉｒｓｔ　Ｆｌｏｗｅｒ,,合同会社,宮城県,栗原市,栗駒稲屋敷宝領東２７番地２７,,04,213,9895341,,,,,,,2022-06-02,1,,,,,ファーストフラワー,0
523,2400003002942,新規,0,2022-06-02,2022-06-02,西バルカンリサーチラボ合同会社,,合同会社,岩手県,一関市,末広１丁目４―５,,03,209,0210032,,,,,,,2022-06-02,1,,,,,ニシバルカンリサーチラボ,0
534,2440001009093,新規,0,2022-06-02,2022-06-02,株式会社グローアップ,,株式会社,北海道,函館市,美原２丁目２５番１５号,,01,202,0410806,,,,,,,2022-06-02,1,,,,,グローアップ,0
535,2450003002211,新規,0,2022-06-02,2022-06-02,合同会社コーケン,,合同会社,北海道,士別市,中士別町七線東２番地,,01,220,0950063,,,,,,,2022-06-02,1,,,,,コーケン,0
536,2460001005702,新規,0,2022-06-02,2022-06-02,株式会社升谷牧場,,株式会社,北海道,厚岸郡浜中町,姉別南１線１２３番地,,01,663,0881647,,,,,,,2022-06-02,1,,,,,マスヤボクジョウ,0
539,2500003002841,新規,0,2022-06-02,2022-06-02,Ｓｕｋｋｉｒｉ合同会社,,合同会社,愛媛県,新居浜市,西の土居町２丁目４番３５号レジェール２０５号,,38,205,7920035,,,,,,,2022-06-02,1,,,,,スッキリ,0
547,3010001227027,新規,0,2022-06-02,2022-06-02,株式会社ＫＲＥ,,株式会社,東京都,千代田区,内幸町２丁目１番６号,,13,101,1000011,,,,,,,2022-06-02,1,,,,,ケイアールイー,0
548,3010001227101,新規,0,2022-06-02,2022-06-02,ＧＡＫＵＫＥＮ　ＥＡＲＴＨ株式会社,,株式会社,東京都,中央区,銀座７丁目５－４毛利ビル５階Ｓ,,13,102,1040061,,,,,,,2022-06-02,1,,,,,ガクケンアース,0
551,3010003037795,新規,0,2022-06-02,2022-06-02,合同会社西国立開発プロジェクト,,合同会社,東京都,千代田区,平河町１丁目６番１５号シルスフィア会計事務所内,,13,101,1020093,,,,,,,2022-06-02,1,,,,,ニシクニタチカイハツプロジェクト,0
559,3010401167525,新規,0,2022-06-02,2022-06-02,株式会社ｅｂｏｃ,,株式会社,東京都,港区,浜松町２丁目１０番１号浜松町ビル５階,,13,103,1050013,,,,,,,2022-06-02,1,,,,,エボック,0
560,3010401167640,新規,0,2022-06-02,2022-06-02,ＳＳトレーディング株式会社,,株式会社,東京都,港区,六本木１丁目６番１号,,13,103,1060032,,,,,,,2022-06-02,1,,,,,エスエストレーディング,0
561,3010401167673,新規,0,2022-06-02,2022-06-02,株式会社ｅｎｓｏｕ,,株式会社,東京都,港区,赤坂４丁目１４番１４号,,13,103,1070052,,,,,,,2022-06-02,1,,,,,エンソウ,0
562,3010401167723,新規,0,2022-06-02,2022-06-02,ハイサイチキン株式会社,,株式会社,東京都,港区,西新橋１丁目７番１４号京阪神虎ノ門ビル１０階,,13,103,1050003,,,,,,,2022-06-02,1,,,,,ハイサイチキン,0
570,3010501048897,新規,0,2022-06-02,2022-06-02,株式会社ＥＣＧ　Ｍａｉｓｏｎ淳盛,,株式会社,東京都,台東区,元浅草１丁目２０番９－３０１号,,13,106,1110041,,,,,,,2022-06-02,1,,,,,イーシージーメイソンアツモリ,0
571,3010501048914,新規,0,2022-06-02,2022-06-02,株式会社コスメケア,,株式会社,東京都,台東区,浅草６丁目６番６号エスグランド浅草２０１,,13,106,1110032,,,,,,,2022-06-02,1,,,,,コスメケア,0
573,3010603009558,新規,0,2022-06-02,2022-06-02,合同会社Ｂｒｕｋｅ,,合同会社,東京都,江東区,有明１丁目４番１１－６３２号,,13,108,1350063,,,,,,,2022-06-02,1,,,,,ブリュッケ,0
586,3010903007410,新規,0,2022-06-02,2022-06-02,合同会社たらびんご,,合同会社,東京都,世田谷区,太子堂４丁目４番１５号セザール三軒茶屋３０４,,13,112,1540004,,,,,,,2022-06-02,1,,,,,タラビンゴ,0
593,3011001147883,新規,0,2022-06-02,2022-06-02,株式会社ＡＴＯＭＩホールディングス,,株式会社,東京都,渋谷区,恵比寿１丁目２４番１６号,,13,113,1500013,,,,,,,2022-06-02,1,,,,,アトミホールディングス,0
594,3011003014660,新規,0,2022-06-02,2022-06-02,合同会社ＵＲＡＮＯ,,合同会社,東京都,渋谷区,神宮前６丁目２３番４号桑野ビル２階,,13,113,1500001,,,,,,,2022-06-02,1,,,,,ウラノ,0
595,3011003014768,新規,0,2022-06-02,2022-06-02,合同会社ツバメ,,合同会社,東京都,渋谷区,桜丘町１７番１２号渋谷ジョンソンビル４０１,,13,113,1500031,,,,,,,2022-06-02,1,,,,,ツバメ,0
608,3011501028088,新規,0,2022-06-02,2022-06-02,株式会社ベジアース,,株式会社,東京都,北区,滝野川７丁目２８番７号,,13,117,1140023,,,,,,,2022-06-02,1,,,,,ベジアース,0
611,3011701025348,新規,0,2022-06-02,2022-06-02,株式会社エイチスリー,,株式会社,東京都,江戸川区,東小岩６丁目１０番１１号ソルトリバー２０２,,13,123,1330052,,,,,,,2022-06-02,1,,,,,エイチスリー,0
612,3011702005324,新規,0,2022-06-02,2022-06-02,有限会社シェック大西,,有限会社,東京都,江戸川区,松島１丁目４２番２２号,,13,123,1320031,,,,,,,2022-06-02,1,,,,,シェックオオニシ,0
613,3011705001733,新規,0,2022-06-02,2022-06-02,特定非営利活動法人パソコンサポートの会,,その他の設立登記法人,東京都,江戸川区,南葛西３丁目１番２－４０２号コスモ葛西臨海公園,,13,123,1340085,,,,,,,2022-06-02,1,,,,,パソコンサポートノカイ,0
620,3012701017087,新規,0,2022-06-02,2022-06-02,株式会社いしだ家ｃｏｍｐａｎｙ,,株式会社,東京都,東村山市,野口町１丁目２９番地２７,,13,213,1890022,,,,,,,2022-06-02,1,,,,,イシダヤカンパニー,0
634,3020003021864,新規,0,2022-06-02,2022-06-02,合同会社ピアチェーレ,,合同会社,神奈川県,横浜市南区,井土ケ谷上町７番１５－２号,,14,105,2320051,,,,,,,2022-06-02,1,,,,,ピアチェーレ,0
639,3021001076074,新規,0,2022-06-02,2022-06-02,三愛ソリューション株式会社,,株式会社,神奈川県,相模原市中央区,相模原８丁目５番５号,,14,152,2520231,,,,,,,2022-06-02,1,,,,,サンアイソリューション,0
640,3021001076108,新規,0,2022-06-02,2022-06-02,株式会社ｌａ　ｂｅｌｌｅｓ,,株式会社,神奈川県,秦野市,南矢名２丁目１０番２８号ラドウィンズ２０２,,14,211,2570003,,,,,,,2022-06-02,1,,,,,ラベル,0
641,3021001076116,新規,0,2022-06-02,2022-06-02,株式会社ＴＳＵＭＵＧＩ,,株式会社,神奈川県,綾瀬市,綾西３丁目１０番１５号,,14,218,2521126,,,,,,,2022-06-02,1,,,,,ツムギ,0
642,3021001076132,新規,0,2022-06-02,2022-06-02,株式会社ｃｒａｚｙｄｏｇ,,株式会社,神奈川県,茅ヶ崎市,松林３丁目９番５号,,14,207,2530017,,,,,,,2022-06-02,1,,,,,クレイジードッグ,0
643,3021001076157,新規,0,2022-06-02,2022-06-02,株式会社Ｂｒｅｚｚａ　Ｍａｒｉｎａ　Ｓｈｏｎａｎ,,株式会社,神奈川県,藤沢市,辻堂１丁目１１番５号,,14,205,2510047,,,,,,,2022-06-02,1,,,,,ヴレッザマリーナショウナン,0
645,3021003011772,新規,0,2022-06-02,2022-06-02,ＲＡＺＡ　Ｔｒａｄｉｎｇ合同会社,,合同会社,神奈川県,座間市,相模が丘２丁目３１番３５－４０１号深沢第一ビル,,14,216,2520001,,,,,,,2022-06-02,1,,,,,ラザトレーディング,0
648,3030001148403,新規,0,2022-06-02,2022-06-02,株式会社ＳＡＩＳＡ,,株式会社,埼玉県,川越市,大字的場２５３０番地３,,11,201,3501101,,,,,,,2022-06-02,1,,,,,サイサ,0
649,3030001148436,新規,0,2022-06-02,2022-06-02,ほしぞら株式会社,,株式会社,埼玉県,幸手市,大字千塚１１０番地１１,,11,240,3400161,,,,,,,2022-06-02,1,,,,,ホシゾラ,0
650,3030001148460,新規,0,2022-06-02,2022-06-02,ＦＡＣＩＮＡジャパン株式会社,,株式会社,埼玉県,さいたま市岩槻区,原町６番８号,,11,110,3390047,,,,,,,2022-06-02,1,,,,,ファシナジャパン,0
651,3030001148469,新規,0,2022-06-02,2022-06-02,株式会社大熊コーポレーション,,株式会社,埼玉県,久喜市,菖蒲町新堀２５６３番地の１,,11,232,3460105,,,,,,,2022-06-02,1,,,,,オオクマコーポレーション,0
654,3030003019503,新規,0,2022-06-02,2022-06-02,ファイナンシャルホーム合同会社,,合同会社,埼玉県,越谷市,新越谷２丁目５番地１グランシャリオＢ１０２,,11,222,3430857,,,,,,,2022-06-02,1,,,,,ファイナンシャルホーム,0
658,3040001123636,新規,0,2022-06-02,2022-06-02,株式会社ａｑｕａ,,株式会社,千葉県,船橋市,鈴身町１０５番地１９,,12,204,2740052,,,,,,,2022-06-02,1,,,,,アクア,0
663,3040003020146,新規,0,2022-06-02,2022-06-02,大誠興業合同会社,,合同会社,千葉県,船橋市,若松２丁目５番４－３０８号,,12,204,2730013,,,,,,,2022-06-02,1,,,,,タイセイコウギョウ,0
666,3050001051150,新規,0,2022-06-02,2022-06-02,株式会社Ｋｗｏｒｌｄ,,株式会社,茨城県,土浦市,大町１１番４１号,,08,203,3000038,,,,,,,2022-06-02,1,,,,,ケイワールド,0
677,3070001039268,新規,0,2022-06-02,2022-06-02,株式会社ＰＲＯＵＤ,,株式会社,群馬県,前橋市,元総社町９４７番地１１,,10,201,3710846,,,,,,,2022-06-02,1,,,,,プラウド,0
678,3070001039284,新規,0,2022-06-02,2022-06-02,株式会社ＨＢＡ,,株式会社,群馬県,伊勢崎市,北千木町８９８番地,,10,204,3720032,,,,,,,2022-06-02,1,,,,,エイチビーエー,0
679,3070003004501,新規,0,2022-06-02,2022-06-02,合同会社永仁,,合同会社,群馬県,伊勢崎市,鹿島町５５４番地１０,,10,204,3720015,,,,,,,2022-06-02,1,,,,,エイジン,0
683,3080001024979,新規,0,2022-06-02,2022-06-02,株式会社ＥＮＴＲＥ,,株式会社,静岡県,静岡市葵区,吉野町４番７号,,22,101,4200046,,,,,,,2022-06-02,1,,,,,アントル,0
684,3080001024987,新規,0,2022-06-02,2022-06-02,株式会社サンライン,,株式会社,静岡県,静岡市葵区,紺屋町７番地の７サンピアレ６階,,22,101,4200852,,,,,,,2022-06-02,1,,,,,サンライン,0
689,3080105006262,新規,0,2022-06-02,2022-06-02,一般社団法人インターナショナルハウスふじやま,,その他の設立登記法人,静岡県,三島市,安久２８５番地の１,,22,206,4110815,,,,,,,2022-06-02,1,,,,,インターナショナルハウスフジヤマ,0
693,3100001035387,新規,0,2022-06-02,2022-06-02,マルクトエステート株式会社,,株式会社,長野県,木曽郡木曽町,開田高原末川４１１９番地５,,20,432,3970301,,,,,,,2022-06-02,1,,,,,マルクトエステート,0
709,3120001246370,新規,0,2022-06-02,2022-06-02,株式会社Ｐｒｏｇｒｅｓｓ　Ａｓｓｉｓｔａｎｃｅ,,株式会社,大阪府,大阪市中央区,谷町１丁目６番４号,,27,128,5400012,,,,,,,2022-06-02,1,,,,,プログレスアシスタンス,0
710,3120001246387,新規,0,2022-06-02,2022-06-02,傑立株式会社,,株式会社,大阪府,大阪市住吉区,遠里小野３丁目２０－９ロイヤル遠里小野,,27,120,5580032,,,,,,,2022-06-02,1,,,,,ケツリツ,0
713,3120003021805,新規,0,2022-06-02,2022-06-02,合同会社竹内商会,,合同会社,大阪府,大阪市城東区,鴫野東３丁目２番１号,,27,118,5360013,,,,,,,2022-06-02,1,,,,,タケウチショウカイ,0
714,3120101065654,新規,0,2022-06-02,2022-06-02,株式会社ＯＫＳ,,株式会社,大阪府,河内長野市,南花台３丁目６番４０－２２３号,,27,216,5860077,,,,,,,2022-06-02,1,,,,,オウケイエス,0
715,3120101065662,新規,0,2022-06-02,2022-06-02,株式会社Ｇａｌｅ,,株式会社,大阪府,松原市,三宅西２丁目１９番１３－３０２号,,27,217,5800045,,,,,,,2022-06-02,1,,,,,ゲイル,0
718,3120903004173,新規,0,2022-06-02,2022-06-02,合同会社Ｇ‐ＮＩＮＥ,,合同会社,大阪府,吹田市,古江台４丁目２番４３－１００１号,,27,205,5650874,,,,,,,2022-06-02,1,,,,,ジーナイン,0
721,3130001071883,新規,0,2022-06-02,2022-06-02,株式会社村井左官工業,,株式会社,京都府,京都市西京区,大原野上羽町５９番地２７,,26,111,6101131,,,,,,,2022-06-02,1,,,,,ムライサカンコウギョウ,0
722,3130001071909,新規,0,2022-06-02,2022-06-02,京都霧島造園株式会社,,株式会社,京都府,久世郡久御山町,市田和気１４番地グランツＴＯＷＡ２０２号,,26,322,6130022,,,,,,,2022-06-02,1,,,,,キョウトキリシマゾウエン,0
738,3140001126158,新規,0,2022-06-02,2022-06-02,株式会社八方位,,株式会社,兵庫県,神戸市灘区,高徳町１丁目３番３号,,28,102,6570025,,,,,,,2022-06-02,1,,,,,ハッポウイ,0
739,3140001126182,新規,0,2022-06-02,2022-06-02,株式会社ネスタリゾート神戸,,株式会社,兵庫県,三木市,細川町垂穂８９４番地の６０号,,28,215,6730703,,,,,,,2022-06-02,1,,,,,ネスタリゾート,0
746,3140005026197,新規,0,2022-06-02,2022-06-02,一般社団法人みんなのフードポリシー,,その他の設立登記法人,兵庫県,神戸市須磨区,清水台１－１８－２０６,,28,107,6540123,,,,,,,2022-06-02,1,,,,,ミンナノフードポリシー,0
747,3140005026206,新規,0,2022-06-02,2022-06-02,一般社団法人オリコム,,その他の設立登記法人,兵庫県,尼崎市,上坂部１丁目８－２－４１３,,28,202,6610979,,,,,,,2022-06-02,1,,,,,オリコム,0
753,3170001017131,新規,0,2022-06-02,2022-06-02,株式会社アプローゼ,,株式会社,和歌山県,紀の川市,藤崎６４番地５,,30,208,6496623,,,,,,,2022-06-02,1,,,,,アプローゼ,0
765,3180001151516,新規,0,2022-06-02,2022-06-02,株式会社ＭＡＳＴＥＲＹ,,株式会社,愛知県,名古屋市名東区,高社１丁目２６０ｂｅｌｓｐａｚｉｏｉｓｓｈａ１００５,,23,115,4650095,,,,,,,2022-06-02,1,,,,,マスタリー,0
766,3180001151540,新規,0,2022-06-02,2022-06-02,ガゼルアルファ株式会社,,株式会社,愛知県,名古屋市中区,錦２丁目５番３１号長者町相互ビル２０１,,23,106,4600003,,,,,,,2022-06-02,1,,,,,ガゼルアルファ,0
769,3180003023878,新規,0,2022-06-02,2022-06-02,合同会社ＲＥＩ　Ｍａｎａｇｅｍｅｎｔ,,合同会社,愛知県,名古屋市中区,上前津２丁目１２番９号,,23,106,4600013,,,,,,,2022-06-02,1,,,,,アールイーアイマネージメント,0
770,3180301036276,新規,0,2022-06-02,2022-06-02,株式会社ＭＮＫＫ,,株式会社,愛知県,西尾市,田貫町西之川１１３,,23,213,4440301,,,,,,,2022-06-02,1,,,,,エムエヌケイケイ,0
771,3180301036284,新規,0,2022-06-02,2022-06-02,ケイデンテクノ株式会社,,株式会社,愛知県,豊田市,福受町背戸側１１３番地３,,23,211,4701214,,,,,,,2022-06-02,1,,,,,ケイデンテクノ,0
779,3210001018950,新規,0,2022-06-02,2022-06-02,ＡＯＩＫＥホールディングス株式会社,,株式会社,福井県,小浜市,小浜広峰１０８番地,,18,204,9170084,,,,,,,2022-06-02,1,,,,,アオイケホールディングス,0
780,3220001024881,新規,0,2022-06-02,2022-06-02,株式会社ツーメタル,,株式会社,石川県,金沢市,出雲町イ２９１番地２,,17,201,9200056,,,,,,,2022-06-02,1,,,,,ツーメタル,0
789,3240001059835,新規,0,2022-06-02,2022-06-02,株式会社富田設備,,株式会社,広島県,福山市,曙町１丁目３番９号,00126726,34,207,7210952,,,,,,,2022-06-02,1,,,,,トミタセツビ,0
790,3240001059843,新規,0,2022-06-02,2022-06-02,橋本園芸株式会社,,株式会社,広島県,廿日市市,佐方２丁目９番２８号,,34,213,7380001,,,,,,,2022-06-02,1,,,,,ハシモトエンゲイ,0
811,3290001097723,新規,0,2022-06-02,2022-06-02,株式会社プレ・インベスト,,株式会社,福岡県,福岡市中央区,天神２丁目３番１０号天神パインクレスト７１９号,,40,133,8100001,,,,,,,2022-06-02,1,,,,,プレインベスト,0
820,3310001017892,新規,0,2022-06-02,2022-06-02,株式会社ＢＦＦ,,株式会社,長崎県,長崎市,恵美須町３番２号,,42,201,8500056,,,,,,,2022-06-02,1,,,,,ビーエフエフ,0
824,3330001029779,新規,0,2022-06-02,2022-06-02,株式会社ＹＨＲ,,株式会社,熊本県,熊本市南区,馬渡１丁目１６番６－２０４号,,43,104,8620968,,,,,,,2022-06-02,1,,,,,ワイエッチアール,0
825,3330001029787,新規,0,2022-06-02,2022-06-02,株式会社常光電気,,株式会社,熊本県,上益城郡御船町,大字高木１８３５番地１,,43,441,8613203,,,,,,,2022-06-02,1,,,,,ジョウコウデンキ,0
826,3330003009390,新規,0,2022-06-02,2022-06-02,合同会社ＳＫ．ＧＯＢＯ,,合同会社,熊本県,菊池郡菊陽町,大字津久礼２４２０番地８,,43,404,8691101,,,,,,,2022-06-02,1,,,,,エスケイゴボ,0
829,3340001024779,新規,0,2022-06-02,2022-06-02,株式会社翔正,,株式会社,鹿児島県,鹿児島市,川上町３５１６ー１,,46,201,8920875,,,,,,,2022-06-02,1,,,,,ショウセイ,0
830,3340003003806,新規,0,2022-06-02,2022-06-02,合同会社Ｓｕｚａｎ,,合同会社,鹿児島県,鹿児島市,玉里団地３丁目２１番１２号,,46,201,8920811,,,,,,,2022-06-02,1,,,,,スーザン,0
831,3340003003814,新規,0,2022-06-02,2022-06-02,合同会社リンクライト,,合同会社,鹿児島県,鹿児島市,甲突町２８－２３スカリナータ３０５,,46,201,8920837,,,,,,,2022-06-02,1,,,,,リンクライト,0
834,3350003004092,新規,0,2022-06-02,2022-06-02,合同会社住まい心地,,合同会社,宮崎県,宮崎市,花山手東１丁目７番地３,,45,201,8800930,,,,,,,2022-06-02,1,,,,,スマイゴコチ,0
836,3360001030503,新規,0,2022-06-02,2022-06-02,ゴールデンミートコンサルティング株式会社,,株式会社,沖縄県,那覇市,真嘉比２丁目２９番８号コーポハピネスＩＩ３０２,00126727,47,201,9020068,,,,,,,2022-06-02,1,,,,,,0
837,3360003012061,新規,0,2022-06-02,2022-06-02,合同会社東方原,,合同会社,沖縄県,宮古島市,城辺字長間１４６０番地１,,47,214,9060105,,,,,,,2022-06-02,1,,,,,ヒガシカタバル,0
842,3370003005717,新規,0,2022-06-02,2022-06-02,合同会社つむぎ,,合同会社,宮城県,仙台市太白区,恵和町１７番１６号,,04,104,9820823,,,,,,,2022-06-02,1,,,,,ツムギ,0
854,3410005006469,新規,0,2022-06-02,2022-06-02,ＮＰＯ法人湯沢市農援隊,,その他の設立登記法人,秋田県,湯沢市,字中屋敷１３３番地の２,,05,207,0120000,,,,,,,2022-06-02,1,,,,,エヌピーオーホウジンユザワシノウエンタイ,0
869,3470001019106,新規,0,2022-06-02,2022-06-02,株式会社ＭＩＸ　ＵＰ,,株式会社,香川県,高松市,常磐町１丁目６－６,,37,201,7600054,,,,,,,2022-06-02,1,,,,,ミックスアップ,0
882,4010001227067,新規,0,2022-06-02,2022-06-02,株式会社ＧｏｌｄＢａｎｋ．ｃｏｍ,,株式会社,東京都,中央区,新富１丁目５番５号２Ｆ,,13,102,1040041,,,,,,,2022-06-02,1,,,,,ゴールドバンクドットコム,0
886,4010003037794,新規,0,2022-06-02,2022-06-02,合同会社平塚西口駅前開発プロジェクト,,合同会社,東京都,千代田区,平河町１丁目６番１５号シルスフィア会計事務所内,,13,101,1020093,,,,,,,2022-06-02,1,,,,,ヒラツカニシグチエキマエカイハツプロジェクト,0
887,4010003037803,新規,0,2022-06-02,2022-06-02,Ｉ＆Ｉ合同会社,,合同会社,東京都,千代田区,神田三崎町２丁目２番１３号,,13,101,1010061,,,,,,,2022-06-02,1,,,,,アイアンドアイ,0
889,4010101015198,新規,0,2022-06-02,2022-06-02,株式会社村田実業,,株式会社,東京都,八王子市,楢原町１４０４番地８,,13,201,1930803,,,,,,,2022-06-02,1,,,,,ムラタジツギョウ,0
899,4010401167648,新規,0,2022-06-02,2022-06-02,株式会社ＤＥ’Ｊａｐａｎ,,株式会社,東京都,港区,芝５丁目３６－７,,13,103,1080014,,,,,,,2022-06-02,1,,,,,ディーイージャパン,0
906,4010601061246,新規,0,2022-06-02,2022-06-02,株式会社ロジイノベーション,,株式会社,東京都,江東区,亀戸５丁目６番２１号,,13,108,1360071,,,,,,,2022-06-02,1,,,,,ロジイノベーション,0
907,4010605004085,新規,0,2022-06-02,2022-06-02,特定非営利活動法人すみだランニングサポートクラブ,,その他の設立登記法人,東京都,墨田区,堤通２丁目７番１１－３０６号,,13,107,1310034,,,,,,,2022-06-02,1,,,,,スミダランニングサポートクラブ,0
908,4010701042740,新規,0,2022-06-02,2022-06-02,望月エステート株式会社,,株式会社,東京都,品川区,西五反田５丁目３２－１２,,13,109,1410031,,,,,,,2022-06-02,1,,,,,モチヅキエステート,0
909,4010705003367,新規,0,2022-06-02,2022-06-02,弁護士法人おおしま法律事務所,,その他の設立登記法人,東京都,品川区,大井１丁目１１番１号大井西銀座ビルＡ棟４階,,13,109,1400014,,,,,,,2022-06-02,1,,,,,オオシマホウリツジムショ,0
911,4010801033012,新規,0,2022-06-02,2022-06-02,株式会社ＵＨＹＭコーポレーション,,株式会社,東京都,大田区,田園調布本町１８番１４号,,13,111,1450072,,,,,,,2022-06-02,1,,,,,ユーエイチワイエムコーポレーション,0
917,4011001147668,新規,0,2022-06-02,2022-06-02,ｓｏｅｆｆ　ｐｒｏｆｅｓｓｉｏｎａｌ株式会社,,株式会社,東京都,渋谷区,上原１丁目２２番１－６０１号,,13,113,1510064,,,,,,,2022-06-02,1,,,,,ソフプロフェッショナル,0
918,4011001147750,新規,0,2022-06-02,2022-06-02,株式会社みちしるべ,,株式会社,東京都,渋谷区,桜丘町９番８号,,13,113,1500031,,,,,,,2022-06-02,1,,,,,ミチシルベ,0
919,4011001147767,新規,0,2022-06-02,2022-06-02,株式会社ＥＵＬＥＣＡ,,株式会社,東京都,渋谷区,渋谷３丁目２番１１号,,13,113,1500002,,,,,,,2022-06-02,1,,,,,エウレカ,0
920,4011001147775,新規,0,2022-06-02,2022-06-02,株式会社ａｍｉｕｅ,,株式会社,東京都,渋谷区,道玄坂２丁目９番１０号,,13,113,1500043,,,,,,,2022-06-02,1,,,,,アミュー,0
921,4011003014767,新規,0,2022-06-02,2022-06-02,アクシア合同会社,,合同会社,東京都,渋谷区,神宮前６丁目２３番４号桑野ビル２階,,13,113,1500001,,,,,,,2022-06-02,1,,,,,アクシア,0
923,4011005009600,新規,0,2022-06-02,2022-06-02,一般社団法人全国コープ福祉事業連帯機構,,その他の設立登記法人,東京都,渋谷区,渋谷３丁目２９番８号,,13,113,1500002,,,,,,,2022-06-02,1,,,,,ゼンコクコープフクシジギョウレンタイキコウ,0
927,4011101099033,新規,0,2022-06-02,2022-06-02,株式会社ベストキャリア,,株式会社,東京都,新宿区,西新宿７丁目４－７イマス浜田ビル３Ｆ－Ｂ,,13,104,1600023,,,,,,,2022-06-02,1,,,,,ベストキャリア,0
928,4011101099074,新規,0,2022-06-02,2022-06-02,株式会社誠,,株式会社,東京都,新宿区,市谷田町１丁目２番地松下ビルＢ１,,13,104,1620843,,,,,,,2022-06-02,1,,,,,マコト,0
929,4011201023850,新規,0,2022-06-02,2022-06-02,株式会社高洋商事,,株式会社,東京都,中野区,新井１丁目１５番１１－６１１号,,13,114,1650026,,,,,,,2022-06-02,1,,,,,コウヨウショウジ,0
930,4011205002495,新規,0,2022-06-02,2022-06-02,一般財団法人どうぶつ福祉ａ‐ｈａｎｄｓ,,その他の設立登記法人,東京都,中野区,中央５丁目１４番４号,,13,114,1640011,,,,,,,2022-06-02,1,,,,,ドウブツフクシエイハンズ,0
931,4011303004427,新規,0,2022-06-02,2022-06-02,２４６合同会社,,合同会社,東京都,杉並区,上井草３丁目１０－１０,,13,115,1670023,,,,,,,2022-06-02,1,,,,,ニーヨンロク,0
941,4011803005107,新規,0,2022-06-02,2022-06-02,合同会社ＳＨＩＷＡＮＩ,,合同会社,東京都,葛飾区,柴又２丁目１０番３号さいわい荘１０２,,13,122,1250052,,,,,,,2022-06-02,1,,,,,シワニ,0
947,4012701017086,新規,0,2022-06-02,2022-06-02,株式会社Ａｍｕｌｅｔ,,株式会社,東京都,東村山市,栄町２丁目１０－３３,,13,213,1890013,,,,,,,2022-06-02,1,,,,,アミュレット,0
948,4012703002466,新規,0,2022-06-02,2022-06-02,ギアアップ合同会社,,合同会社,東京都,西東京市,向台町２丁目３番２４号,,13,229,1880013,,,,,,,2022-06-02,1,,,,,ギアアップ,0
950,4012803002795,新規,0,2022-06-02,2022-06-02,東京トーチライト合同会社,,合同会社,東京都,国立市,富士見台１丁目２４番地の１１カーサパイン２階,,13,215,1860003,,,,,,,2022-06-02,1,,,,,トウキョウトーチライト,0
952,4013101008931,新規,0,2022-06-02,2022-06-02,吉建築株式会社,,株式会社,東京都,西多摩郡瑞穂町,大字駒形富士山３９１番地１,,13,303,1901202,,,,,,,2022-06-02,1,,,,,キチケンチク,0
974,4021001076123,新規,0,2022-06-02,2022-06-02,株式会社杏,,株式会社,神奈川県,鎌倉市,腰越２丁目３番１号,,14,204,2480033,,,,,,,2022-06-02,1,,,,,アン,0
975,4021001076131,新規,0,2022-06-02,2022-06-02,株式会社ＭＣソリューションズ,,株式会社,神奈川県,相模原市南区,相模大野５丁目３３番４号,,14,153,2520303,,,,,,,2022-06-02,1,,,,,エムシーソリューションズ,0
984,4030001148443,新規,0,2022-06-02,2022-06-02,株式会社ＮＥＸＴ　Ｌｅｇｅｎｄ,,株式会社,埼玉県,さいたま市大宮区,東町１丁目１５５番地エストクラール東町１０２号室,,11,103,3300841,,,,,,,2022-06-02,1,,,,,ネクストレジェンド,0
985,4030001148451,新規,0,2022-06-02,2022-06-02,株式会社サインポスト,,株式会社,埼玉県,大里郡寄居町,大字桜沢２５５５番地２－１０３,,11,408,3691202,,,,,,,2022-06-02,1,,,,,サインポスト,0
986,4030001148468,新規,0,2022-06-02,2022-06-02,ＴＨＲＥＥＥ株式会社,,株式会社,埼玉県,さいたま市北区,宮原町１丁目１６９番地１アレヴェルト４０３号室,,11,102,3310812,,,,,,,2022-06-02,1,,,,,スリー,0
987,4030003019519,新規,0,2022-06-02,2022-06-02,合同会社大光社,,合同会社,埼玉県,さいたま市南区,南浦和２丁目３６－１６ニューリド５０２号室,,11,108,3360017,,,,,,,2022-06-02,1,,,,,ダイコウシャ,0
990,4040001123635,新規,0,2022-06-02,2022-06-02,株式会社ＲＩＳＩＡ,,株式会社,千葉県,千葉市中央区,新千葉３丁目１４番１５号,,12,101,2600031,,,,,,,2022-06-02,1,,,,,ライジア,0
991,4040001123651,新規,0,2022-06-02,2022-06-02,株式会社千葉オートウイングス,,株式会社,千葉県,千葉市若葉区,大宮町１７６５番地１１,,12,104,2640016,,,,,,,2022-06-02,1,,,,,チバオートウイングス,0
992,4040001123701,新規,0,2022-06-02,2022-06-02,株式会社みねりあ,,株式会社,千葉県,八千代市,大和田新田７４７－１－６－１１０３,,12,221,2760046,,,,,,,2022-06-02,1,,,,,ミネリア,0
995,4040003020161,新規,0,2022-06-02,2022-06-02,マルノアーキテクツ合同会社,,合同会社,千葉県,市川市,東菅野１丁目２２番１５号,,12,203,2720823,,,,,,,2022-06-02,1,,,,,マルノアーキテクツ,0
1009,4070001039283,新規,0,2022-06-02,2022-06-02,株式会社ＲＤＣ,,株式会社,群馬県,前橋市,江木町１７０１番地１,,10,201,3710002,,,,,,,2022-06-02,1,,,,,アールディーシー,0
1010,4080001024986,新規,0,2022-06-02,2022-06-02,株式会社静岡会計事務所,,株式会社,静岡県,静岡市駿河区,南町３番１２－２０５号,,22,102,4228067,,,,,,,2022-06-02,1,,,,,シズオカカイケイジムショ,0
1011,4080003002809,新規,0,2022-06-02,2022-06-02,フリーランスラボ合同会社,,合同会社,静岡県,静岡市葵区,紺屋町１７－１葵タワー１Ｆ,,22,101,4200852,,,,,,,2022-06-02,1,,,,,フリーランスラボ,0
1032,4120001246262,新規,0,2022-06-02,2022-06-02,株式会社Ｌｅｅｆａｎ,,株式会社,大阪府,大阪市港区,弁天３丁目１１番１号,,27,107,5520007,,,,,,,2022-06-02,1,,,,,リーファン,0
1033,4120001246329,新規,0,2022-06-02,2022-06-02,株式会社ａｓ,,株式会社,大阪府,大阪市鶴見区,横堤５丁目１２番１１号,,27,124,5380052,,,,,,,2022-06-02,1,,,,,アス,0
1034,4120001246353,新規,0,2022-06-02,2022-06-02,株式会社ｍｏｒｅ　ｍｅｌｌｏｗ,,株式会社,大阪府,大阪市中央区,伏見町２丁目１番１号,,27,128,5410044,,,,,,,2022-06-02,1,,,,,モアメロウ,0
1035,4120001246361,新規,0,2022-06-02,2022-06-02,聖笑堂株式会社,,株式会社,大阪府,守口市,梶町４丁目７８番１３号,,27,209,5700015,,,,,,,2022-06-02,1,,,,,セイショウドウ,0
1036,4120001246386,新規,0,2022-06-02,2022-06-02,こどもえいごぶ株式会社,,株式会社,大阪府,大阪市淀川区,西中島６丁目３番２４号Ｒ４０１,,27,123,5320011,,,,,,,2022-06-02,1,,,,,コドモエイゴブ,0
1041,4120003021820,新規,0,2022-06-02,2022-06-02,合同会社三里,,合同会社,大阪府,大阪市北区,中津１丁目７－１５－５０１,,27,127,5310071,,,,,,,2022-06-02,1,,,,,サンリ,0
1042,4120101065653,新規,0,2022-06-02,2022-06-02,株式会社尾崎建工,00126720,株式会社,大阪府,泉大津市,昭和町１０－４昭和ビル２Ｆ２１号,,27,206,5950036,,,,,,,2022-06-02,1,,,,,オザキケンコウ,0
1043,4120101065678,新規,0,2022-06-02,2022-06-02,さくら産業株式会社,,株式会社,大阪府,藤井寺市,津堂４丁目３１９－４,,27,226,5830037,,,,,,,2022-06-02,1,,,,,サクラサンギョウ,0
1045,4120903004172,新規,0,2022-06-02,2022-06-02,合同会社Ａｕｒｏｒａ,,合同会社,大阪府,吹田市,出口町２１番１５－１２０３号,,27,205,5640072,,,,,,,2022-06-02,1,,,,,オーロラ,0
1047,4130001071882,新規,0,2022-06-02,2022-06-02,株式会社デザインターン,,株式会社,京都府,京都市中京区,清水町３４５アスヴェル京都河原町二条６０２,,26,104,6040911,,,,,,,2022-06-02,1,,,,,デザインターン,0
1058,4140005026196,新規,0,2022-06-02,2022-06-02,特定非営利活動法人Ｃｏ‐Ｃｒｅａｔｉｏｎこのゆびとまれ,,その他の設立登記法人,兵庫県,加古川市,米田町平津２４５番地の１,,28,210,6750054,,,,,,,2022-06-02,1,,,,,コークリエーションコノユビトマレ,0
1062,4170001017130,新規,0,2022-06-02,2022-06-02,株式会社アトレ,,株式会社,和歌山県,和歌山市,黒田９３番地の１,,30,201,6408341,,,,,,,2022-06-02,1,,,,,アトレ,0
1073,4180001151449,新規,0,2022-06-02,2022-06-02,ハツノ工業株式会社,,株式会社,愛知県,名古屋市東区,東大曽根町８番１０号,,23,102,4610022,,,,,,,2022-06-02,1,,,,,ハツノコウギョウ,0
1074,4180001151531,新規,0,2022-06-02,2022-06-02,株式会社ＨＩＴＯＳＨＩＯ,,株式会社,愛知県,名古屋市名東区,高針１丁目１７１３番地,,23,115,4650061,,,,,,,2022-06-02,1,,,,,ヒトシオ,0
1079,4180003023885,新規,0,2022-06-02,2022-06-02,合同会社ミライオン,,合同会社,愛知県,長久手市,下川原３番地１カルティア長久手ＥＡＳＴＣＯＵＲＴ４０９号,,23,238,4801137,,,,,,,2022-06-02,1,,,,,ミライオン,0
1080,4180301036275,新規,0,2022-06-02,2022-06-02,株式会社河合電機商会,,株式会社,愛知県,田原市,神戸町後申２８番地１,,23,231,4413415,,,,,,,2022-06-02,1,,,,,カワイデンキショウカイ,0
1081,4180301036283,新規,0,2022-06-02,2022-06-02,株式会社わか葉,,株式会社,愛知県,安城市,三河安城南町１丁目５番地１－Ａ,,23,212,4460058,,,,,,,2022-06-02,1,,,,,ワカバ,0
1082,4180303005344,新規,0,2022-06-02,2022-06-02,合同会社如月,,合同会社,愛知県,豊田市,西岡町星ケ丘２０番地第３高岡清風寮５３３２号,,23,211,4730937,,,,,,,2022-06-02,1,,,,,キサラギ,0
1089,4200001040112,新規,0,2022-06-02,2022-06-02,急がば回れ株式会社,,株式会社,岐阜県,大垣市,墨俣町墨俣１０６７番地,,21,202,5030102,,,,,,,2022-06-02,1,,,,,イソガバマワレ,0
1094,4220001024880,新規,0,2022-06-02,2022-06-02,河野建築株式会社,,株式会社,石川県,小松市,西軽海町３丁目４５番地,,17,203,9230825,,,,,,,2022-06-02,1,,,,,コウノケンチク,0
1097,4240001059867,新規,0,2022-06-02,2022-06-02,株式会社Ｕ‐ＤＥＳＩＧＮ,,株式会社,広島県,三次市,十日市南３丁目５番５５号,,34,209,7280014,,,,,,,2022-06-02,1,,,,,ユーデザイン,0
1099,4250001019606,新規,0,2022-06-02,2022-06-02,株式会社建築工房沖川,,株式会社,山口県,岩国市,川西１丁目２２番３１－１号,,35,208,7410082,,,,,,,2022-06-02,1,,,,,ケンチクコウボウオキカワ,0
1104,4260001036897,新規,0,2022-06-02,2022-06-02,岡部鑑定株式会社,,株式会社,岡山県,倉敷市,中畝８丁目１３番３９－５号１０２,,33,202,7128051,,,,,,,2022-06-02,1,,,,,オカベカンテイ,0
1111,4290001097722,新規,0,2022-06-02,2022-06-02,株式会社クローバー,,株式会社,福岡県,福岡市博多区,中洲４丁目７番８号,,40,132,8100801,,,,,,,2022-06-02,1,,,,,クローバー,0
1120,4330001029778,新規,0,2022-06-02,2022-06-02,株式会社啓成,,株式会社,熊本県,上益城郡益城町,大字古閑２９９番地１３,,43,443,8612234,,,,,,,2022-06-02,1,,,,,ケイセイ,0
1121,4330001029786,新規,0,2022-06-02,2022-06-02,株式会社ＲＡＹＴＥＣ,,株式会社,熊本県,上益城郡嘉島町,大字下六嘉１３０８番地１,,43,442,8613102,,,,,,,2022-06-02,1,,,,,レイテック,0
1122,4330003009398,新規,0,2022-06-02,2022-06-02,合同会社きやまサポートオフィス,,合同会社,熊本県,上益城郡益城町,大字田原１５４番地１,,43,443,8612202,,,,,,,2022-06-02,1,,,,,キヤマサポートオフィス,0
1123,4340001024778,新規,0,2022-06-02,2022-06-02,１ＳＴ　ＰＥＮＧＵＩＮ株式会社,,株式会社,鹿児島県,鹿児島市,東千石町５番１２号キューブビル５０３号,,46,201,8920842,,,,,,,2022-06-02,1,,,,,ファーストペンギン,0
1127,4360001030485,新規,0,2022-06-02,2022-06-02,株式会社みのり不動産,,株式会社,沖縄県,那覇市,松尾２丁目１２番７号,,47,201,9000014,,,,,,,2022-06-02,1,,,,,ミノリフドウサン,0
1132,4400001015903,新規,0,2022-06-02,2022-06-02,株式会社めばえ企画,,株式会社,岩手県,上閉伊郡大槌町,上町３－５,,03,461,0281115,,,,,,,2022-06-02,1,,,,,メバエキカク,0
1137,4420003002526,新規,0,2022-06-02,2022-06-02,合同会社吾妻舎,,合同会社,青森県,弘前市,大字駒越字村元４３番地５,,02,202,0361322,,,,,,,2022-06-02,1,,,,,アズマシャ,0
1143,4430001086784,新規,0,2022-06-02,2022-06-02,Ｄｅｓａｆｉｏ株式会社,,株式会社,北海道,札幌市東区,北二十八条東２１丁目５－１４,,01,103,0650028,,,,,,,2022-06-02,1,,,,,デサフィオ,0
1149,4480003001836,新規,0,2022-06-02,2022-06-02,蛭子丸水産合同会社,,合同会社,徳島県,小松島市,和田島町字遠見８３番地１,,36,203,7730025,,,,,,,2022-06-02,1,,,,,エビスマルスイサン,0
1150,4500001024258,新規,0,2022-06-02,2022-06-02,株式会社愛媛金型製作所,,株式会社,愛媛県,西条市,小松町明穂丙２４番２,,38,206,7991107,,,,,,,2022-06-02,1,,,,,エヒメカナガタセイサクショ,0
1161,5010003037793,新規,0,2022-06-02,2022-06-02,身延ソーラーパーク合同会社,,合同会社,東京都,中央区,銀座５丁目９番１７号銀座あづまビル２階,,13,102,1040061,,,,,,,2022-06-02,1,,,,,ミノブソーラーパーク,0
1163,5010103001930,新規,0,2022-06-02,2022-06-02,合同会社ＬＩＦ,,合同会社,東京都,八王子市,鑓水２丁目８４番７号,,13,201,1920375,,,,,,,2022-06-02,1,,,,,エルアイエフ,0
1171,5010403027650,新規,0,2022-06-02,2022-06-02,ノーマル合同会社,,合同会社,東京都,港区,南青山２丁目２番１５号,,13,103,1070062,,,,,,,2022-06-02,1,,,,,ノーマル,0
1172,5010403027774,新規,0,2022-06-02,2022-06-02,合同会社タカギアンドカンパニー,,合同会社,東京都,港区,愛宕２丁目３番１－１５１０号,,13,103,1050002,,,,,,,2022-06-02,1,,,,,タカギアンドカンパニー,0
1173,5010403027799,新規,0,2022-06-02,2022-06-02,合同会社シカ,,合同会社,東京都,港区,南青山２丁目２番１５ＷＩＮ青山５３１,,13,103,1070062,,,,,,,2022-06-02,1,,,,,シカ,0
1174,5010403027808,新規,0,2022-06-02,2022-06-02,グレートバレー合同会社,,合同会社,東京都,港区,高輪１丁目２３番３３号グランドガーラ白金高輪８１１,,13,103,1080074,,,,,,,2022-06-02,1,,,,,グレートバレー,0
1176,5010405021032,新規,0,2022-06-02,2022-06-02,一般社団法人全国地ビール醸造者協議会,,その他の設立登記法人,東京都,港区,芝３丁目２３番１号セレスティン芝三井ビルディング１２階,,13,103,1050014,,,,,,,2022-06-02,1,,,,,ゼンコクジビールジョウゾウシャキョウギカイ,0
1181,5010501048879,新規,0,2022-06-02,2022-06-02,寅幌株式会社,,株式会社,東京都,台東区,寿１丁目１４番１１号,,13,106,1110042,,,,,,,2022-06-02,1,,,,,トラホロ,0
1184,5010605004084,新規,0,2022-06-02,2022-06-02,ジャパン・アカイシ特定目的会社,,その他の設立登記法人,東京都,江東区,亀戸６丁目５６番１５号,,13,108,1360071,,,,,,,2022-06-02,1,,,,,ジャパンアカイシ,0
1186,5010703006263,新規,0,2022-06-02,2022-06-02,まるかど合同会社,,合同会社,東京都,品川区,上大崎１丁目２１番１－４０３号,,13,109,1410021,,,,,,,2022-06-02,1,,,,,マルカド,0
1187,5010801033003,新規,0,2022-06-02,2022-06-02,株式会社ユニオン商工,,株式会社,東京都,大田区,萩中２丁目１番２２号フジプレイス糀谷５０１,,13,111,1440047,,,,,,,2022-06-02,1,,,,,ユニオンショウコウ,0
1200,5011001147790,新規,0,2022-06-02,2022-06-02,株式会社ＥＰＩＣ,,株式会社,東京都,渋谷区,渋谷２丁目５番１号ステップ青山３階,,13,113,1500002,,,,,,,2022-06-02,1,,,,,エピック,0
1204,5011003014691,新規,0,2022-06-02,2022-06-02,合同会社５点ラジオ,,合同会社,東京都,渋谷区,道玄坂１丁目１０番８号渋谷道玄坂東急ビル２Ｆ－Ｃ,,13,113,1500043,,,,,,,2022-06-02,1,,,,,,0
1205,5011003014782,新規,0,2022-06-02,2022-06-02,合同会社ミラグリ,,合同会社,東京都,渋谷区,渋谷４丁目１番２３号－３０４,,13,113,1500002,,,,,,,2022-06-02,1,,,,,ミラグリ,0
1211,5011101099049,新規,0,2022-06-02,2022-06-02,株式会社カラースカイ,,株式会社,東京都,新宿区,神楽坂３丁目１番地中根ビル４０２,,13,104,1620825,,,,,,,2022-06-02,1,,,,,カラースカイ,0
1213,5011103011787,新規,0,2022-06-02,2022-06-02,ミャンマージョブサポート合同会社,,合同会社,東京都,新宿区,百人町２丁目２４番２２－１０５号,,13,104,1690073,,,,,,,2022-06-02,1,,,,,ミャンマージョブサポート,0
1215,5011201023866,新規,0,2022-06-02,2022-06-02,株式会社成光,,株式会社,東京都,中野区,中野５丁目５７－１０ＣＵＢＥビル２Ｆ,,13,114,1640001,,,,,,,2022-06-02,1,,,,,ナリミツ,0
1216,5011301027817,新規,0,2022-06-02,2022-06-02,吉永工業製造株式会社,,株式会社,東京都,杉並区,高円寺北４丁目３４番１９号プラザドウクリムゾン１１１,,13,115,1660002,,,,,,,2022-06-02,1,,,,,ヨシナガコウギョウセイゾウ,0
1217,5011303004426,新規,0,2022-06-02,2022-06-02,合同会社ＡＮＫ,,合同会社,東京都,杉並区,和田３丁目３１番１５号,,13,115,1660012,,,,,,,2022-06-02,1,,,,,エーエヌケー,0
1234,5012803002794,新規,0,2022-06-02,2022-06-02,ＧＡサポート合同会社,,合同会社,東京都,東大和市,中央１丁目５９８－５,,13,220,2070015,,,,,,,2022-06-02,1,,,,,ジーエーサポート,0
1238,5013301049188,新規,0,2022-06-02,2022-06-02,株式会社ゆい,,株式会社,東京都,豊島区,北大塚１丁目１９番１２号,,13,116,1700004,,,,,,,2022-06-02,1,,,,,ユイ,0
1242,5020001146694,新規,0,2022-06-02,2022-06-02,株式会社辻技建,00126721,株式会社,神奈川県,横浜市戸塚区,名瀬町２５０８番地２０メグミハウスＡ号,,14,110,2450051,,,,,,,2022-06-02,1,,,,,ツジギケン,0
1243,5020001146711,新規,0,2022-06-02,2022-06-02,株式会社Ｂｕｉｌｄ　Ｂｒｉｄｇｅ’ｓ,,株式会社,神奈川県,横浜市青葉区,新石川３丁目１４－１０ＪＫプランドール３０８,,14,117,2250003,,,,,,,2022-06-02,1,,,,,ビルドブリッジ,0
1244,5020001146728,新規,0,2022-06-02,2022-06-02,とあ株式会社,,株式会社,神奈川県,横浜市戸塚区,汲沢７丁目３９番１８号,,14,110,2450061,,,,,,,2022-06-02,1,,,,,トア,0
1245,5020001146736,新規,0,2022-06-02,2022-06-02,株式会社Ｄｙｎａｍｉｃ　ｔｒａｃｋ,,株式会社,神奈川県,川崎市中原区,丸子通１丁目６１２番地９,,14,133,2110006,,,,,,,2022-06-02,1,,,,,ダイナミックトラック,0
1246,5020001146760,新規,0,2022-06-02,2022-06-02,株式会社コンサリエ,,株式会社,神奈川県,横浜市青葉区,美しが丘２丁目１３番地５－７１７,,14,117,2250002,,,,,,,2022-06-02,1,,,,,コンサリエ,0
1253,5021001076023,新規,0,2022-06-02,2022-06-02,株式会社ｓｔｙｌｅｓ,,株式会社,神奈川県,相模原市中央区,上溝１５５５－２４,,14,152,2520243,,,,,,,2022-06-02,1,,,,,スタイルズ,0
1254,5021001076106,新規,0,2022-06-02,2022-06-02,株式会社エクエール建設,,株式会社,神奈川県,小田原市,中里１１２－５,,14,206,2500872,,,,,,,2022-06-02,1,,,,,エクエールケンセツ,0
1263,5030001148467,新規,0,2022-06-02,2022-06-02,株式会社Ｙ　ＨＯＬＤＩＮＧＳ,,株式会社,埼玉県,戸田市,笹目４丁目１７番地の５,,11,224,3350034,,,,,,,2022-06-02,1,,,,,ワイホールディングス,0
1268,5030003019518,新規,0,2022-06-02,2022-06-02,合同会社ラディック,,合同会社,埼玉県,川口市,芝５丁目８番９号グレーシャスコート本間２０３号,,11,203,3330866,,,,,,,2022-06-02,1,,,,,ラディック,0
1270,5030005020878,新規,0,2022-06-02,2022-06-02,一般社団法人心理＆福祉サポートステーション折り紙,,その他の設立登記法人,埼玉県,さいたま市緑区,原山２丁目３３番８号７－３０３,,11,109,3360931,,,,,,,2022-06-02,1,,,,,シンリアンドフクシサポートステーションオリガミ,0
1273,5040001123576,新規,0,2022-06-02,2022-06-02,サンコー技研株式会社,,株式会社,千葉県,君津市,坂田字浜ノ作３９番地２２,,12,225,2991142,,,,,,,2022-06-02,1,,,,,,0
1274,5040001123642,新規,0,2022-06-02,2022-06-02,株式会社エアス,,株式会社,千葉県,柏市,西柏台１丁目１２番５号,,12,217,2770886,,,,,,,2022-06-02,1,,,,,エアス,0
1289,5070001039266,新規,0,2022-06-02,2022-06-02,株式会社ＳＴ警備,,株式会社,群馬県,太田市,鳥山下町４８５番地７,,10,205,3730063,,,,,,,2022-06-02,1,,,,,エスティケイビ,0
1290,5070001039290,新規,0,2022-06-02,2022-06-02,株式会社アカデミアジィーティー,,株式会社,群馬県,邑楽郡大泉町,朝日５丁目８番１４号,,10,524,3700514,,,,,,,2022-06-02,1,,,,,アカデミアジィーティー,0
1296,5080001024977,新規,0,2022-06-02,2022-06-02,インターマリンヤイヅ株式会社,,株式会社,静岡県,焼津市,越後島４７６番地の７６,,22,212,4250092,,,,,,,2022-06-02,1,,,,,インターマリンヤイヅ,0
1297,5080101023318,新規,0,2022-06-02,2022-06-02,株式会社ＦＯＲＥＳＴ　ＣＹＣＬＥ,,株式会社,静岡県,駿東郡小山町,一色２００番地の１,,22,344,4101325,,,,,,,2022-06-02,1,,,,,フォレストサイクル,0
1298,5080105006260,新規,0,2022-06-02,2022-06-02,一般社団法人日本トイプードル協会,,その他の設立登記法人,静岡県,下田市,吉佐美６９７番地,,22,219,4150028,,,,,,,2022-06-02,1,,,,,ニッポントイプードルキョウカイ,0
1312,5120001246253,新規,0,2022-06-02,2022-06-02,株式会社ＭＧＳ,,株式会社,大阪府,門真市,三ツ島６丁目１１番３号,,27,223,5710015,,,,,,,2022-06-02,1,,,,,エムジーエス,0
1313,5120001246261,新規,0,2022-06-02,2022-06-02,株式会社インフルスターラボ,,株式会社,大阪府,大阪市北区,梅田１丁目１番３号大阪駅前第３ビル２３０７,,27,127,5300001,,,,,,,2022-06-02,1,,,,,インフルスターラボ,0
1314,5120001246278,新規,0,2022-06-02,2022-06-02,夢柚株式会社,,株式会社,大阪府,大阪市東成区,神路４丁目３－１０スターレジデンス新深江２０３号室,,27,115,5370003,,,,,,,2022-06-02,1,,,,,ムユ,0
1315,5120001246311,新規,0,2022-06-02,2022-06-02,Ｂｌｕｅ　Ｂｕｄｄｙ株式会社,,株式会社,大阪府,大阪市東淀川区,豊里５丁目２３番１６号,,27,114,5330013,,,,,,,2022-06-02,1,,,,,ブルーバディ,0
1316,5120001246344,新規,0,2022-06-02,2022-06-02,ザイコンサルタンツ株式会社,,株式会社,大阪府,大阪市北区,梅田２丁目４番９号ブリーゼブリーゼ１階,,27,127,5300001,,,,,,,2022-06-02,1,,,,,ザイコンサルタンツ,0
1318,5120003021803,新規,0,2022-06-02,2022-06-02,ｔａｎｄｅｍ合同会社,,合同会社,大阪府,大阪市東成区,東中本３丁目１８番２１号インターアクションビル２０２号室,,27,115,5370021,,,,,,,2022-06-02,1,,,,,タンデム,0
1319,5120003021811,新規,0,2022-06-02,2022-06-02,合同会社ＧＭ和音,,合同会社,大阪府,枚方市,大峰元町２丁目２７番２号,,27,210,5730146,,,,,,,2022-06-02,1,,,,,ジーエムワオン,0
1320,5120005022972,新規,0,2022-06-02,2022-06-02,北浜ネットワーク協同組合,,その他の設立登記法人,大阪府,大阪市中央区,伏見町３丁目３－８ＫＡＫＥＮビル２Ｆ,,27,128,5410044,,,,,,,2022-06-02,1,,,,,キタハマネットワーク,0
1321,5120101065669,新規,0,2022-06-02,2022-06-02,株式会社Ｎ‐ｐｌａｎｔｓ,,株式会社,大阪府,和泉市,箕形町３丁目７番１８号,,27,219,5940042,,,,,,,2022-06-02,1,,,,,エヌプランツ,0
1322,5120101065677,新規,0,2022-06-02,2022-06-02,株式会社ＣＯＳＭＩＣ,,株式会社,大阪府,松原市,新堂３丁目３番５号,,27,217,5800015,,,,,,,2022-06-02,1,,,,,コズミック,0
1323,5120103004724,新規,0,2022-06-02,2022-06-02,合同会社ＦＷＥライフ,,合同会社,大阪府,堺市北区,新金岡町４丁３番１６－１０１号,,27,146,5918021,,,,,,,2022-06-02,1,,,,,エフダブリュウイーライフ,0
1325,5120905006331,新規,0,2022-06-02,2022-06-02,中小企業支援対策協同組合,,その他の設立登記法人,大阪府,吹田市,広芝町３－２９,,27,205,5640052,,,,,,,2022-06-02,1,,,,,チュウショウキギョウシエンタイサク,0
1327,5122001035917,新規,0,2022-06-02,2022-06-02,株式会社アプラス,,株式会社,大阪府,八尾市,南木の本５丁目６０番地の１２,,27,212,5810042,,,,,,,2022-06-02,1,,,,,アプラス,0
1330,5130001071881,新規,0,2022-06-02,2022-06-02,佐藤工業株式会社,,株式会社,京都府,京都市伏見区,竹田向代町８４番地,,26,109,6128418,,,,,,,2022-06-02,1,,,,,サトウコウギョウ,0
1334,5140001126180,新規,0,2022-06-02,2022-06-02,裕進観光株式会社,,株式会社,兵庫県,芦屋市,六麓荘町１０番２５号,,28,206,6590011,,,,,,,2022-06-02,1,,,,,ユウシンカンコウ,0
1344,5180001151423,新規,0,2022-06-02,2022-06-02,株式会社ダブリューエムティ,,株式会社,愛知県,名古屋市守山区,笹ヶ根１丁目７２３番地,,23,113,4630812,,,,,,,2022-06-02,1,,,,,ダブリューエムティ,0
1345,5180001151530,新規,0,2022-06-02,2022-06-02,株式会社えびす鐵玄,,株式会社,愛知県,丹羽郡扶桑町,大字高雄字福塚２４５番地５,,23,362,4800102,,,,,,,2022-06-02,1,,,,,エビステツゲン,0
1360,5200001040128,新規,0,2022-06-02,2022-06-02,株式会社Ｅｍｐｒｅｓｓ,,株式会社,岐阜県,大垣市,中野町２丁目４８番地,,21,202,5030022,,,,,,,2022-06-02,1,,,,,エンプレス,0
1367,5240001059825,新規,0,2022-06-02,2022-06-02,タイセイ株式会社,,株式会社,広島県,三原市,明神１丁目１４番１３号,,34,204,7230046,,,,,,,2022-06-02,1,,,,,タイセイ,0
1368,5240001059841,新規,0,2022-06-02,2022-06-02,松本建機株式会社,,株式会社,広島県,東広島市,西条町御薗宇１０５４８番地１２５ハートフルカガミ１（２０３号）,,34,212,7390024,,,,,,,2022-06-02,1,,,,,マツモトケンキ,0
1369,5240001059874,新規,0,2022-06-02,2022-06-02,株式会社更部屋,,株式会社,広島県,広島市中区,鉄砲町６番７号,,34,101,7300017,,,,,,,2022-06-02,1,,,,,サラベヤ,0
1375,5260001036905,新規,0,2022-06-02,2022-06-02,株式会社Ｄ．Ｐ．Ｓ,,株式会社,岡山県,岡山市北区,十日市中町１番３１号カウル１００５号,,33,101,7000855,,,,,,,2022-06-02,1,,,,,ディーピーエス,0
1383,5290001097721,新規,0,2022-06-02,2022-06-02,株式会社Ｃａｒｅｎｉｔｙ,,株式会社,福岡県,福岡市東区,香椎照葉３丁目３番１－３２２１号アイランドタワースカイクラブ,,40,131,8130017,,,,,,,2022-06-02,1,,,,,ケアニティ,0
1387,5290003012570,新規,0,2022-06-02,2022-06-02,ＴＵＥ　ＡＮ合同会社,,合同会社,福岡県,福岡市東区,箱崎４丁目３－２７ピュア箱崎六番館２０２,,40,131,8120053,,,,,,,2022-06-02,1,,,,,テゥエアン,0
1392,5290005018707,新規,0,2022-06-02,2022-06-02,ペルル司法書士法人,,その他の設立登記法人,福岡県,福岡市西区,姪浜駅南２丁目２１番１７号,,40,135,8190006,,,,,,,2022-06-02,1,,,,,ペルル,0
1399,5310001017890,新規,0,2022-06-02,2022-06-02,株式会社Ｓｗｉｎｇ　Ｐａｒｔｎｅｒｓ,,株式会社,長崎県,長崎市,鳴見町８３番地４,,42,201,8512214,,,,,,,2022-06-02,1,,,,,スウィングパートナーズ,0
1400,5330001029777,新規,0,2022-06-02,2022-06-02,株式会社ＥＩＤＥＮ,,株式会社,熊本県,熊本市南区,城南町隈庄７４５番地２,,43,104,8614203,,,,,,,2022-06-02,1,,,,,エイデン,0
1403,5340001024777,新規,0,2022-06-02,2022-06-02,株式会社エリート,,株式会社,鹿児島県,鹿児島市,谷山中央２丁目７０２番地１サーパス谷山中央６０３号,,46,201,8910141,,,,,,,2022-06-02,1,,,,,エリート,0
1414,5450001013711,新規,0,2022-06-02,2022-06-02,株式会社まるじん,,株式会社,北海道,旭川市,神居一条１丁目１番１１号,,01,204,0708011,,,,,,,2022-06-02,1,,,,,マルジン,0
1417,5480001011753,新規,0,2022-06-02,2022-06-02,株式会社Ａ‐Ｄｅｓｉｇｎ,,株式会社,徳島県,板野郡藍住町,奥野字猪熊７６番地１,,36,403,7711202,,,,,,,2022-06-02,1,,,,,エーデザイン,0
1422,5500001024249,新規,0,2022-06-02,2022-06-02,Ｄ＆Ｇ株式会社,,株式会社,愛媛県,松山市,土居田町６１１番地３,,38,201,7900056,,,,,,,2022-06-02,1,,,,,ディーアンドジー,0
1423,5500001024257,新規,0,2022-06-02,2022-06-02,株式会社協和工業,,株式会社,愛媛県,西条市,新田２６２番地１ヴィラ・モデッサＥ２０５,,38,206,7930028,,,,,,,2022-06-02,1,,,,,キョウワコウギョウ,0
1430,6010001227032,新規,0,2022-06-02,2022-06-02,株式会社ビックリビング,,株式会社,東京都,中央区,日本橋室町１丁目１３番７号,,13,102,1030022,,,,,,,2022-06-02,1,,,,,ビックリビング,0
1431,6010001227040,新規,0,2022-06-02,2022-06-02,株式会社Ｂｌａｎｋｎｏｔｅ,,株式会社,東京都,中央区,銀座１丁目１２番４号Ｎ＆ＥＢＬＤ．７階,,13,102,1040061,,,,,,,2022-06-02,1,,,,,ブランクノート,0
1437,6010101015196,新規,0,2022-06-02,2022-06-02,株式会社トラスト,,株式会社,東京都,八王子市,北野台４丁目１１番５号,,13,201,1920913,,,,,,,2022-06-02,1,,,,,トラスト,0
1444,6010403027716,新規,0,2022-06-02,2022-06-02,Ｃｏｓｙ　Ａｎｄｉｅｓ合同会社,,合同会社,東京都,港区,東麻布２丁目２９‐１‐１１０１,,13,103,1060044,,,,,,,2022-06-02,1,,,,,コージーアンディーズ,0
1445,6010403027798,新規,0,2022-06-02,2022-06-02,アムレックスパートナーズ合同会社,,合同会社,東京都,港区,麻布台３丁目４番７号秀和狸穴レジデンス１０６,,13,103,1060041,,,,,,,2022-06-02,1,,,,,アムレックスパートナーズ,0
1452,6010601061252,新規,0,2022-06-02,2022-06-02,富瑞通商株式会社,,株式会社,東京都,墨田区,横川４丁目１－２０－１Ｆ－Ｅ,,13,107,1300003,,,,,,,2022-06-02,1,,,,,フズイツウショウ,0
1453,6010601061260,新規,0,2022-06-02,2022-06-02,株式会社ＭＴＦ,,株式会社,東京都,江東区,毛利２丁目３番５号,,13,108,1350001,,,,,,,2022-06-02,1,,,,,エムティーエフ,0
1454,6010701042739,新規,0,2022-06-02,2022-06-02,株式会社サンズクリエイト,,株式会社,東京都,品川区,南大井６丁目２７－２０,,13,109,1400013,,,,,,,2022-06-02,1,,,,,サンズクリエイト,0
1458,6010801033010,新規,0,2022-06-02,2022-06-02,株式会社Ｍ．ｓ,,株式会社,東京都,大田区,南馬込２丁目２２番３号,,13,111,1430025,,,,,,,2022-06-02,1,,,,,エムズ,0
1461,6010901050962,新規,0,2022-06-02,2022-06-02,株式会社成城不動産,,株式会社,東京都,世田谷区,成城５丁目１７番１４号,,13,112,1570066,,,,,,,2022-06-02,1,,,,,セイジョウフドウサン,0
1478,6011001147609,新規,0,2022-06-02,2022-06-02,株式会社黒田商会,,株式会社,東京都,渋谷区,本町６丁目２番１２号,,13,113,1510071,,,,,,,2022-06-02,1,,,,,クロダショウカイ,0
1479,6011001147831,新規,0,2022-06-02,2022-06-02,株式会社インスピインカ,,株式会社,東京都,渋谷区,神山町４番２０号ハイネス金丸２０５,,13,113,1500047,,,,,,,2022-06-02,1,,,,,インスピインカ,0
1488,6011203003824,新規,0,2022-06-02,2022-06-02,合同会社ＳＫＤソリューションズ,,合同会社,東京都,中野区,中央４丁目１１番８－１０１号,,13,114,1640011,,,,,,,2022-06-02,1,,,,,エスケーディーソリューションズ,0
1491,6011301027816,新規,0,2022-06-02,2022-06-02,株式会社ＣｏｌａＭａｃ,,株式会社,東京都,杉並区,堀ノ内１丁目２７番４号,,13,115,1660013,,,,,,,2022-06-02,1,,,,,コラマック,0
1498,6011601025998,新規,0,2022-06-02,2022-06-02,ＡＩＲ　ＰＲＯＤＵＣＴＳ株式会社,,株式会社,東京都,練馬区,練馬１丁目２０番８号日建練馬ビル２Ｆ,,13,120,1760001,,,,,,,2022-06-02,1,,,,,エアープロダクツ,0
1499,6011701025345,新規,0,2022-06-02,2022-06-02,株式会社青山中央ハイヤー,,株式会社,東京都,江戸川区,篠崎町１丁目３６番５号,,13,123,1330061,,,,,,,2022-06-02,1,,,,,アオヤマチュウオウハイヤー,0
1504,6012301013005,新規,0,2022-06-02,2022-06-02,株式会社晴,,株式会社,東京都,町田市,成瀬３丁目１４番地３,,13,209,1940044,,,,,,,2022-06-02,1,,,,,ハル,0
1509,6013301005421,新規,0,2022-06-02,2022-06-02,株式会社清水酒店,,株式会社,東京都,豊島区,東池袋１丁目９番５号,,13,116,1700013,,,,,,,2022-06-02,1,,,,,,0
1521,6020001146660,新規,0,2022-06-02,2022-06-02,アイシーケー株式会社,,株式会社,神奈川県,横浜市西区,高島２丁目１１番２号,,14,103,2200011,,,,,,,2022-06-02,1,,,,,アイシーケー,0
1522,6020001146743,新規,0,2022-06-02,2022-06-02,株式会社リゼ,,株式会社,神奈川県,横浜市鶴見区,北寺尾３丁目２１番１０号,,14,101,2300074,,,,,,,2022-06-02,1,,,,,リゼ,0
1524,6020003021804,新規,0,2022-06-02,2022-06-02,合同会社ｅ‐ｗｈｉｔｅ,,合同会社,神奈川県,川崎市川崎区,小田３丁目７番地２５号ｂｅメゾン２０１,,14,131,2100846,,,,,,,2022-06-02,1,,,,,イーホワイト,0
1525,6020003021853,新規,0,2022-06-02,2022-06-02,合同会社ウィル・ビー企画,,合同会社,神奈川県,横浜市神奈川区,羽沢南３丁目１８－７,,14,102,2210866,,,,,,,2022-06-02,1,,,,,ウィルビーキカク,0
1532,6021001076096,新規,0,2022-06-02,2022-06-02,くうら株式会社,,株式会社,神奈川県,三浦郡葉山町,堀内１９１０－３－Ｂ,,14,301,2400112,,,,,,,2022-06-02,1,,,,,クウラ,0
1540,6030001148466,新規,0,2022-06-02,2022-06-02,トラストリアルター株式会社,,株式会社,埼玉県,川口市,大字安行吉岡１４８３番地の１,,11,203,3340072,,,,,,,2022-06-02,1,,,,,トラストリアルター,0
1541,6030001148474,新規,0,2022-06-02,2022-06-02,株式会社チアー,,株式会社,埼玉県,川越市,新富町１丁目１番地１１,,11,201,3500043,,,,,,,2022-06-02,1,,,,,チアー,0
1543,6030003019509,新規,0,2022-06-02,2022-06-02,合同会社やすふく,,合同会社,埼玉県,川越市,岸町３丁目３番地２０,,11,201,3501131,,,,,,,2022-06-02,1,,,,,ヤスフク,0
1544,6030003019517,新規,0,2022-06-02,2022-06-02,ＹＡＢＡＩ　ＬＬＣ合同会社,,合同会社,埼玉県,川口市,坂下町４丁目１１番地３号,,11,203,3340003,,,,,,,2022-06-02,1,,,,,ヤバイエルエルシー,0
1548,6040003020135,新規,0,2022-06-02,2022-06-02,合同会社ＭＪ,,合同会社,千葉県,千葉市若葉区,小倉台３丁目４番４号ＮＫビル２０１号,,12,104,2640006,,,,,,,2022-06-02,1,,,,,エムジェイ,0
1556,6070001039281,新規,0,2022-06-02,2022-06-02,小白木農業舎株式会社,,株式会社,群馬県,高崎市,足門町１７２９番地,,10,202,3703531,,,,,,,2022-06-02,1,,,,,コシラギノウギョウシャ,0
1563,6080003002807,新規,0,2022-06-02,2022-06-02,合同会社ＡＮＹｓ,,合同会社,静岡県,静岡市清水区,草薙１丁目１４番１２号,,22,103,4240886,,,,,,,2022-06-02,1,,,,,エーエヌワイエス,0
1566,6080101023317,新規,0,2022-06-02,2022-06-02,株式会社サトウ設備,,株式会社,静岡県,沼津市,北今沢１１番地の７,,22,203,4100876,,,,,,,2022-06-02,1,,,,,サトウセツビ,0
1568,6080403004551,新規,0,2022-06-02,2022-06-02,合同会社ＫＵＵＲＥ,,合同会社,静岡県,御前崎市,池新田３３４９,,22,223,4371612,,,,,,,2022-06-02,1,,,,,クーレ,0
1573,6110001036687,新規,0,2022-06-02,2022-06-02,株式会社川庄商店,,株式会社,新潟県,長岡市,与板町与板１３２番地,,15,202,9402402,,,,,,,2022-06-02,1,,,,,カワショウショウテン,0
1574,6110001036695,新規,0,2022-06-02,2022-06-02,株式会社楽建,,株式会社,新潟県,新潟市秋葉区,朝日９０１番地５,,15,105,9560835,,,,,,,2022-06-02,1,,,,,ラッケン,0
1586,6120001246260,新規,0,2022-06-02,2022-06-02,株式会社Ｒｅｖｏ　Ｅｎｅｒｇｙ,,株式会社,大阪府,大阪市北区,東天満１丁目１２番１３号ＩＡＧ天満ビル７階,,27,127,5300044,,,,,,,2022-06-02,1,,,,,レボエナジー,0
1587,6120001246302,新規,0,2022-06-02,2022-06-02,株式会社ＴＡＳＨＩＭＡＲＴ,,株式会社,大阪府,大阪市中央区,博労町４丁目７番７号南船場チェルシービル１階,,27,128,5410059,,,,,,,2022-06-02,1,,,,,タシマート,0
1588,6120001246343,新規,0,2022-06-02,2022-06-02,タナカパックファクトリー株式会社,,株式会社,大阪府,大阪市北区,浮田１丁目３番１０号,,27,127,5300021,,,,,,,2022-06-02,1,,,,,タナカパックファクトリー,0
1589,6120001246351,新規,0,2022-06-02,2022-06-02,株式会社ＰＮＳ,,株式会社,大阪府,大阪市西淀川区,姫島６丁目２番７号,,27,113,5550033,,,,,,,2022-06-02,1,,,,,ピーエヌエス,0
1594,6120003021802,新規,0,2022-06-02,2022-06-02,合同会社ＲＥＳＴＡＲＴ,,合同会社,大阪府,大阪市西淀川区,御幣島６丁目１１番４６－３１１号,,27,113,5550012,,,,,,,2022-06-02,1,,,,,リスタート,0
1595,6120003021810,新規,0,2022-06-02,2022-06-02,クローバーウィル合同会社,,合同会社,大阪府,大阪市東淀川区,豊新４丁目８－９プルニエヴァレ１０１号室,,27,114,5330014,,,,,,,2022-06-02,1,,,,,クローバーウィル,0
1603,6130001071880,新規,0,2022-06-02,2022-06-02,ＱＵＢＥ株式会社,,株式会社,京都府,京都市伏見区,深草キトロ町１５番地６,,26,109,6120025,,,,,,,2022-06-02,1,,,,,キューブ,0
1604,6130001071906,新規,0,2022-06-02,2022-06-02,株式会社西川空調,,株式会社,京都府,京都市西京区,大原野上里北ノ町５６９番地７７,,26,111,6101121,,,,,,,2022-06-02,1,,,,,ニシカワクウチョウ,0
1611,6140001126139,新規,0,2022-06-02,2022-06-02,株式会社うすなが青果店,,株式会社,兵庫県,神戸市西区,岩岡町古郷８５４ー７,,28,111,6512404,,,,,,,2022-06-02,1,,,,,ウスナガセイカテン,0
1612,6140001126196,新規,0,2022-06-02,2022-06-02,株式会社Ｕｌｕ,,株式会社,兵庫県,神戸市長田区,若松町３丁目３番２－２０２号,,28,106,6530038,,,,,,,2022-06-02,1,,,,,ウル,0
1620,6180001151538,新規,0,2022-06-02,2022-06-02,株式会社匠和,,株式会社,愛知県,東海市,富木島町向イ１６３番地の１,,23,222,4760011,,,,,,,2022-06-02,1,,,,,ショウワ,0
1621,6180001151554,新規,0,2022-06-02,2022-06-02,株式会社ＷＩＮＧ　ＪＡＰＡＮ,,株式会社,愛知県,津島市,藤浪町４丁目３５番地２,,23,208,4960801,,,,,,,2022-06-02,1,,,,,ウイングジャパン,0
1625,6180003023883,新規,0,2022-06-02,2022-06-02,マクル舎合同会社,,合同会社,愛知県,名古屋市天白区,元八事２丁目６３番地２,,23,116,4680066,,,,,,,2022-06-02,1,,,,,マクルシャ,0
1629,6180301036273,新規,0,2022-06-02,2022-06-02,株式会社建築屋勝葵,,株式会社,愛知県,田原市,西神戸町荒古島９４番地３,,23,231,4413423,,,,,,,2022-06-02,1,,,,,ケンチクヤショウキ,0
1630,6190001029477,新規,0,2022-06-02,2022-06-02,株式会社森本運送,,株式会社,三重県,三重郡川越町,大字南福崎６９１番地７,,24,344,5108124,,,,,,,2022-06-02,1,,,,,モリモトウンソウ,0
1633,6200001040119,新規,0,2022-06-02,2022-06-02,株式会社勇商事,,株式会社,岐阜県,養老郡養老町,三神町８９５番地,,21,341,5031312,,,,,,,2022-06-02,1,,,,,イサムショウジ,0
1637,6220001024870,新規,0,2022-06-02,2022-06-02,株式会社Ｇリクエザ,,株式会社,石川県,鹿島郡中能登町,良川ヘ部１４・１５番地,,17,407,9291717,,,,,,,2022-06-02,1,,,,,ジーリクエザ,0
1641,6240001059840,新規,0,2022-06-02,2022-06-02,広島光学株式会社,,株式会社,広島県,広島市西区,己斐中３丁目３４番１７号,,34,104,7330813,,,,,,,2022-06-02,1,,,,,ヒロシマコウガク,0
1643,6240003005644,新規,0,2022-06-02,2022-06-02,合同会社ｂｏｎｄ　ｆａｃｔｒｙ,,合同会社,広島県,尾道市,向島町５９５２－１ハーバーサイド向島１０５,,34,205,7220073,,,,,,,2022-06-02,1,,,,,ボンドファクトリー,0
1646,6250001019587,新規,0,2022-06-02,2022-06-02,株式会社アーネスト,,株式会社,山口県,下関市,大字延行６８８－１,,35,201,7510867,,,,,,,2022-06-02,1,,,,,アーネスト,0
1652,6260005011093,新規,0,2022-06-02,2022-06-02,ＮＰＯ法人備中備後ジュニアゴルファー育成協議会,,その他の設立登記法人,岡山県,井原市,井原町１４０番地,,33,207,7150019,,,,,,,2022-06-02,1,,,,,ビッチュウビンゴジュニアゴルファーイクセイキョウギカイ,0
1666,6310001017881,新規,0,2022-06-02,2022-06-02,株式会社ＩＺＵＭＩ　ＣＲＡＮＥ,,株式会社,長崎県,諫早市,若葉町２２５番地８０,,42,204,8540064,,,,,,,2022-06-02,1,,,,,イズミクレーン,0
1667,6310003004382,新規,0,2022-06-02,2022-06-02,合同会社ゆうこう,,合同会社,長崎県,長崎市,香焼町６６７番地２,,42,201,8510310,,,,,,,2022-06-02,1,,,,,ユウコウ,0
1672,6330003009396,新規,0,2022-06-02,2022-06-02,合同会社Ｋ・Ｈ,,合同会社,熊本県,熊本市中央区,帯山１丁目３１番２０号,,43,101,8620924,,,,,,,2022-06-02,1,,,,,ケイエッチ,0
1685,6380003005184,新規,0,2022-06-02,2022-06-02,合同会社フラット,,合同会社,福島県,福島市,森合字前田３番地の２１,,07,201,9608003,,,,,,,2022-06-02,1,,,,,フラット,0
1690,6400001015901,新規,0,2022-06-02,2022-06-02,百万石建設株式会社,,株式会社,岩手県,紫波郡矢巾町,大字南矢幅第６地割６０６番地,,03,322,0283615,,,,,,,2022-06-02,1,,,,,ヒャクマンゴクケンセツ,0
1695,6430005014483,新規,0,2022-06-02,2022-06-02,一般社団法人未完,,その他の設立登記法人,北海道,札幌市中央区,南二条東２丁目７番地Ｓａｌｍｏｎビル４階,,01,101,0600052,,,,,,,2022-06-02,1,,,,,ミカン,0
1696,6440003001466,新規,0,2022-06-02,2022-06-02,ＷＥＬＬ　Ｂｅｅプランニング合同会社,,合同会社,北海道,函館市,桔梗町５９番地２６５,,01,202,0410801,,,,,,,2022-06-02,1,,,,,ウェルビープランニング,0
1697,6450001013710,新規,0,2022-06-02,2022-06-02,株式会社シン空調設備,,株式会社,北海道,旭川市,神居八条５丁目２番１７号,,01,204,0708018,,,,,,,2022-06-02,1,,,,,シンクウチョウセツビ,0
1716,7010001227023,新規,0,2022-06-02,2022-06-02,株式会社ＧＡＲＬＩＣ,,株式会社,東京都,中央区,日本橋茅場町３丁目１１番１０号,,13,102,1030025,,,,,,,2022-06-02,1,,,,,ガーリック,0
1726,7010005035075,新規,0,2022-06-02,2022-06-02,一般社団法人エニシア,,その他の設立登記法人,東京都,千代田区,神田小川町３丁目１１番地２インペリアル御茶ノ水,,13,101,1010052,,,,,,,2022-06-02,1,,,,,エニシア,0
1732,7010401167645,新規,0,2022-06-02,2022-06-02,株式会社ＧＲＯＯＶＹ,,株式会社,東京都,港区,東新橋１丁目１０番２号,,13,103,1050021,,,,,,,2022-06-02,1,,,,,グルービイ,0
1739,7010501048902,新規,0,2022-06-02,2022-06-02,日栄株式会社,,株式会社,東京都,台東区,清川１丁目１７番１４号イルレガーメ浅草１０１,,13,106,1110022,,,,,,,2022-06-02,1,,,,,ニチエイ,0
1754,7011001147590,新規,0,2022-06-02,2022-06-02,株式会社ａｌｐｈａｓｐａｃｅ,,株式会社,東京都,渋谷区,広尾５丁目４番１６号ＥＡＴ・ＰＬＡＹ・ＷＯＲＫＳ３階,,13,113,1500012,,,,,,,2022-06-02,1,,,,,アルファスペース,0
1755,7011001147797,新規,0,2022-06-02,2022-06-02,株式会社ＦＲＡプロジェクト,,株式会社,東京都,渋谷区,神宮前６丁目２３番４号桑野ビル２階,,13,113,1500001,,,,,,,2022-06-02,1,,,,,エフアールエープロジェクト,0
1756,7011101099006,新規,0,2022-06-02,2022-06-02,ＯｕｔｌｅｔｓＩＰ管理株式会社,,株式会社,東京都,新宿区,西新宿７丁目１番７号新宿ダイカンプラザＡ１０１８,,13,104,1600023,,,,,,,2022-06-02,1,,,,,アウトレッツアイピカンリ,0
1757,7011101099047,新規,0,2022-06-02,2022-06-02,株式会社ＥＮＫＥＬ,,株式会社,東京都,新宿区,高田馬場１丁目４番７号,,13,104,1690075,,,,,,,2022-06-02,1,,,,,エンケル,0
1758,7011101099071,新規,0,2022-06-02,2022-06-02,株式会社水素エネルギー研究所,,株式会社,東京都,新宿区,西新宿３丁目９番１４号,,13,104,1600023,,,,,,,2022-06-02,1,,,,,スイソエネルギーケンキュウジョ,0
1761,7011103011736,新規,0,2022-06-02,2022-06-02,合同会社ＳＴＯＮＥ＆ＲＩＶＥＲ,,合同会社,東京都,新宿区,西新宿５丁目５番１－１４０１号,,13,104,1600023,,,,,,,2022-06-02,1,,,,,ストーンアンドリバー,0
1762,7011103011810,新規,0,2022-06-02,2022-06-02,Ａ２Ｚ　Ａｃｃｏｕｎｔｉｎｇ　Ｏｆｆｉｃｅ合同会社,,合同会社,東京都,新宿区,西新宿３丁目３番１３号,,13,104,1600023,,,,,,,2022-06-02,1,,,,,エートゥゼットアカウンティングオフィス,0
1765,7011301027823,新規,0,2022-06-02,2022-06-02,株式会社ＬＯＨＡＬＯＨＡ,,株式会社,東京都,杉並区,南荻窪４丁目６番２号,,13,115,1670052,,,,,,,2022-06-02,1,,,,,ロハロハ,0
1766,7011303004424,新規,0,2022-06-02,2022-06-02,コ・エンジニアリング合同会社,,合同会社,東京都,杉並区,高円寺南５丁目１１番２５号,,13,115,1660003,,,,,,,2022-06-02,1,,,,,コエンジニアリング,0
1767,7011401024274,新規,0,2022-06-02,2022-06-02,株式会社パークホールディングス,,株式会社,東京都,板橋区,高島平５丁目４０番８号,,13,119,1750082,,,,,,,2022-06-02,1,,,,,パークホールディングス,0
1768,7011403003680,新規,0,2022-06-02,2022-06-02,ＯＲＡＮＧＥ　ＰＥＫＯＥ合同会社,,合同会社,東京都,板橋区,南常盤台１丁目１１番６号レフア南常盤台１０１号室,,13,119,1740072,,,,,,,2022-06-02,1,,,,,オレンジペコ,0
1770,7011501028092,新規,0,2022-06-02,2022-06-02,株式会社Ｔｙｌｅｒ,,株式会社,東京都,荒川区,西日暮里５丁目３４番１２号,,13,118,1160013,,,,,,,2022-06-02,1,,,,,,0
1771,7011601026005,新規,0,2022-06-02,2022-06-02,株式会社三雲,,株式会社,東京都,練馬区,三原台３丁目２６番１４－４０４号,,13,120,1770031,,,,,,,2022-06-02,1,,,,,ミクモ,0
1773,7011801040788,新規,0,2022-06-02,2022-06-02,株式会社ＭＡＲＳＣＲＥＷ,,株式会社,東京都,足立区,堀之内１丁目１７－４,,13,121,1230874,,,,,,,2022-06-02,1,,,,,マーズクルー,0
1789,7020003021852,新規,0,2022-06-02,2022-06-02,合同会社エス・エンタテインメント,,合同会社,神奈川県,川崎市麻生区,栗木１丁目７番１３号,,14,137,2150033,,,,,,,2022-06-02,1,,,,,エスエンタテインメント,0
1790,7020003021860,新規,0,2022-06-02,2022-06-02,合同会社ゴン,,合同会社,神奈川県,横浜市泉区,下飯田町７９７番地３７,,14,116,2450017,,,,,,,2022-06-02,1,,,,,ゴン,0
1794,7021001076087,新規,0,2022-06-02,2022-06-02,株式会社マーチ,,株式会社,神奈川県,横須賀市,森崎６丁目１１番１１号,,14,201,2380023,,,,,,,2022-06-02,1,,,,,マーチ,0
1795,7021001076112,新規,0,2022-06-02,2022-06-02,株式会社Ｋ‐ＴＥＸ,,株式会社,神奈川県,大和市,中央７丁目１５番８号ウィン大和１０１,,14,213,2420021,,,,,,,2022-06-02,1,,,,,ケイテックス,0
1796,7021001076129,新規,0,2022-06-02,2022-06-02,株式会社ＬＡＩＭ,,株式会社,神奈川県,大和市,中央林間３丁目２４番１８号,,14,213,2420007,,,,,,,2022-06-02,1,,,,,ライム,0
1798,7021003011769,新規,0,2022-06-02,2022-06-02,合同会社キッチンフラワー,,合同会社,神奈川県,相模原市緑区,西橋本２丁目２４番８号井上ビル３０１,,14,151,2520131,,,,,,,2022-06-02,1,,,,,キッチンフラワー,0
1799,7021003011785,新規,0,2022-06-02,2022-06-02,ＴＭ　ＨＲ　Ａｄｖｉｓｏｒｙ＆Ｃｏａｃｈｉｎｇ合同会社,,合同会社,神奈川県,横須賀市,秋谷１丁目１５番１９号,,14,201,2400105,,,,,,,2022-06-02,1,,,,,ティーエムエイチアールアドバイザリーアンドコーチング,0
1806,7030001148465,新規,0,2022-06-02,2022-06-02,株式会社ヤネコウ,,株式会社,埼玉県,川口市,大字芝２１６４番地の４,,11,203,3330866,,,,,,,2022-06-02,1,,,,,ヤネコウ,0
1819,7040001123640,新規,0,2022-06-02,2022-06-02,弥音閣株式会社,,株式会社,千葉県,松戸市,根本２３８番地の６－２０３号室,,12,207,2710077,,,,,,,2022-06-02,1,,,,,ヤオトカク,0
1820,7040001123681,新規,0,2022-06-02,2022-06-02,株式会社シリアス,,株式会社,千葉県,船橋市,本町６丁目１８番１９号第三山中ビル４０１号室,,12,204,2730005,,,,,,,2022-06-02,1,,,,,シリアス,0
1825,7040003020134,新規,0,2022-06-02,2022-06-02,創作工房Ａｉｒｐｌａｎｔｓ合同会社,,合同会社,千葉県,八千代市,萱田２２５７番地７,,12,221,2760043,,,,,,,2022-06-02,1,,,,,ソウサクコウボウエアープランツ,0
1829,7050001051155,新規,0,2022-06-02,2022-06-02,株式会社オハナタウン・境,,株式会社,茨城県,猿島郡境町,大字長井戸１６８３番地,,08,546,3060404,,,,,,,2022-06-02,1,,,,,オハナタウンサカイ,0
1830,7050001051171,新規,0,2022-06-02,2022-06-02,株式会社ファクトリーガレージ,,株式会社,茨城県,坂東市,神田山１６２１番地３,,08,228,3060617,,,,,,,2022-06-02,1,,,,,ファクトリーガレージ,0
1835,7070001039289,新規,0,2022-06-02,2022-06-02,株式会社ＵＦＣ,,株式会社,群馬県,高崎市,下小塙町２８７番地,,10,202,3700076,,,,,,,2022-06-02,1,,,,,ユーエフシー,0
1838,7080001024975,新規,0,2022-06-02,2022-06-02,株式会社山王,,株式会社,静岡県,静岡市駿河区,下川原１丁目１９番１９号,,22,102,4210113,,,,,,,2022-06-02,1,,,,,サンオウ,0
1839,7080001024991,新規,0,2022-06-02,2022-06-02,株式会社焼津谷島屋,,株式会社,静岡県,焼津市,西小川２丁目１番地の１０,,22,212,4250036,,,,,,,2022-06-02,1,,,,,ヤイヅヤジマヤ,0
1840,7080003002806,新規,0,2022-06-02,2022-06-02,合同会社大串会計事務所,,合同会社,静岡県,静岡市駿河区,西脇７６６番地の１メルベーユ大浜２０３号,,22,102,4228044,,,,,,,2022-06-02,1,,,,,オオクシカイケイジムショ,0
1841,7080101023316,新規,0,2022-06-02,2022-06-02,株式会社ＣＯＺＹ,,株式会社,静岡県,富士市,富士町１７番５号,,22,210,4160915,,,,,,,2022-06-02,1,,,,,コジー,0
1842,7080101023324,新規,0,2022-06-02,2022-06-02,株式会社浩川,,株式会社,静岡県,富士宮市,外神２９９番地の４,,22,207,4180006,,,,,,,2022-06-02,1,,,,,コウセン,0
1843,7080103002598,新規,0,2022-06-02,2022-06-02,Ｔｅｎ合同会社,,合同会社,静岡県,田方郡函南町,平井１３００番地の１０８,,22,325,4190107,,,,,,,2022-06-02,1,,,,,テン,0
1845,7080401025838,新規,0,2022-06-02,2022-06-02,株式会社ＩＳＯ,,株式会社,静岡県,浜松市北区,三ヶ日町平山７８０番地,,22,135,4311417,,,,,,,2022-06-02,1,,,,,アイエスオー,0
1864,7120001246268,新規,0,2022-06-02,2022-06-02,株式会社萩,,株式会社,大阪府,大阪市北区,曾根崎新地１丁目１１番４号１Ｆ,,27,127,5300002,,,,,,,2022-06-02,1,,,,,ハギ,0
1865,7120001246276,新規,0,2022-06-02,2022-06-02,株式会社ＳＵＮＬＩＫＥ,,株式会社,大阪府,大阪市東成区,神路４丁目３－１０スターレジデンス新深江６０３号室,,27,115,5370003,,,,,,,2022-06-02,1,,,,,サンライク,0
1866,7120001246292,新規,0,2022-06-02,2022-06-02,株式会社Ｒｅｂｏｒｎ,,株式会社,大阪府,大阪市城東区,東中浜８丁目８番２３－７２２号,,27,118,5360023,,,,,,,2022-06-02,1,,,,,リボーン,0
1867,7120001246318,新規,0,2022-06-02,2022-06-02,株式会社古海電工,,株式会社,大阪府,寝屋川市,新家１丁目１０番５０号,,27,215,5720812,,,,,,,2022-06-02,1,,,,,フルミデンコウ,0
1868,7120001246400,新規,0,2022-06-02,2022-06-02,株式会社Ｓ．Ｏ．Ｐ,,株式会社,大阪府,大阪市北区,梅田１丁目１１番４号大阪駅前第４ビル９階９２３－１６３７号,,27,127,5300001,,,,,,,2022-06-02,1,,,,,エスオーピー,0
1870,7120003021818,新規,0,2022-06-02,2022-06-02,合同会社Ａｃｔクリエイティブ,,合同会社,大阪府,大阪市中央区,平野町３丁目１番７号,,27,128,5410046,,,,,,,2022-06-02,1,,,,,アクトクリエイティブ,0
1873,7120101065675,新規,0,2022-06-02,2022-06-02,三星断熱株式会社,,株式会社,大阪府,堺市南区,和田東９８７番地１,,27,145,5900102,,,,,,,2022-06-02,1,,,,,ミツボシダンネツ,0
1874,7120101065691,新規,0,2022-06-02,2022-06-02,株式会社リブリーヌ,,株式会社,大阪府,堺市中区,土塔町３２６５番地１,,27,142,5998234,,,,,,,2022-06-02,1,,,,,リブリーヌ,0
1877,7120901046040,新規,0,2022-06-02,2022-06-02,株式会社Ｎ　ｐｒｉｓｍ,,株式会社,大阪府,吹田市,千里山松が丘２０番１７号,,27,205,5650843,,,,,,,2022-06-02,1,,,,,エヌプリズム,0
1881,7122001035915,新規,0,2022-06-02,2022-06-02,ＴＤＳホールディングス株式会社,,株式会社,大阪府,四條畷市,二丁通町２２番１５号,,27,229,5750044,,,,,,,2022-06-02,1,,,,,ティーディーエスホールディングス,0
1882,7122003002351,新規,0,2022-06-02,2022-06-02,合同会社フーレ,,合同会社,大阪府,柏原市,法善寺３丁目５３４番地の１４,,27,221,5820005,,,,,,,2022-06-02,1,,,,,フーレ,0
1884,7130001071905,新規,0,2022-06-02,2022-06-02,前田正宗商店株式会社,,株式会社,京都府,京都市山科区,東野中井ノ上町４番地８２,,26,110,6078142,,,,,,,2022-06-02,1,,,,,マエダマサムネショウテン,0
1885,7130005016492,新規,0,2022-06-02,2022-06-02,一般社団法人Ｊｏｏｍｌａ普及振興会,,その他の設立登記法人,京都府,京都市山科区,御陵下御廟野町２９番地１－２０１,,26,110,6078426,,,,,,,2022-06-02,1,,,,,ジェームラフキュウシンコウカイ,0
1888,7150001025586,新規,0,2022-06-02,2022-06-02,株式会社エムシードプロダクト,,株式会社,奈良県,奈良市,紀寺町７９７番地の９,,29,201,6308306,,,,,,,2022-06-02,1,,,,,エムシードプロダクト,0
1891,7170001017136,新規,0,2022-06-02,2022-06-02,エスアイディー株式会社,,株式会社,和歌山県,和歌山市,吐前２４０番地１,,30,201,6496275,,,,,,,2022-06-02,1,,,,,エスアイディー,0
1907,7180303005341,新規,0,2022-06-02,2022-06-02,レッグジャパン合同会社,,合同会社,愛知県,みよし市,莇生町鳥居前６３番地２,,23,236,4700206,,,,,,,2022-06-02,1,,,,,レッグジャパン,0
1908,7190001029476,新規,0,2022-06-02,2022-06-02,大陽建設株式会社,,株式会社,三重県,松阪市,五主町３７７番地１１,,24,204,5152102,,,,,,,2022-06-02,1,,,,,タイヨウケンセツ,0
1911,7200005013350,新規,0,2022-06-02,2022-06-02,農事組合法人ファーム玉,,その他の設立登記法人,岐阜県,不破郡関ケ原町,大字玉２４９番地の１,,21,362,5031545,,,,,,,2022-06-02,1,,,,,ファームタマ,0
1921,7240001059848,新規,0,2022-06-02,2022-06-02,株式会社広島ライフビジネス,,株式会社,広島県,広島市西区,横川町１丁目４番３号,,34,104,7330011,,,,,,,2022-06-02,1,,,,,ヒロシマライフビジネス,0
1922,7240001059864,新規,0,2022-06-02,2022-06-02,ＹＭ＆ＨＯＵＳＥ株式会社,,株式会社,広島県,廿日市市,宮島口東２丁目１番１５号,,34,213,7390414,,,,,,,2022-06-02,1,,,,,ワイエムアンドハウス,0
1926,7250001019586,新規,0,2022-06-02,2022-06-02,扇工業株式会社,,株式会社,山口県,下関市,彦島福浦町２丁目１５番２号,,35,201,7500087,,,,,,,2022-06-02,1,,,,,オウギコウギョウ,0
1927,7250003003084,新規,0,2022-06-02,2022-06-02,合同会社ＹＫコーポレーション,,合同会社,山口県,岩国市,麻里布町４丁目１９番２７－１４０２号,,35,208,7400018,,,,,,,2022-06-02,1,,,,,ワイケイコーポレーション,0
1931,7260001036903,新規,0,2022-06-02,2022-06-02,株式会社ケイズ・エンジ,,株式会社,岡山県,倉敷市,南畝２丁目２番２０号,,33,202,7128055,,,,,,,2022-06-02,1,,,,,ケイズエンジ,0
1949,7320001019100,新規,0,2022-06-02,2022-06-02,株式会社テラス,,株式会社,大分県,別府市,上田の湯町１２番２９号,,44,202,8740908,,,,,,,2022-06-02,1,,,,,テラス,0
1950,7320003003820,新規,0,2022-06-02,2022-06-02,合同会社大豆のほいくえん大分,,合同会社,大分県,大分市,田中町１丁目１３番７号,,44,201,8700852,,,,,,,2022-06-02,1,,,,,ダイズノホイクエンオオイタ,0
1952,7330001029783,新規,0,2022-06-02,2022-06-02,株式会社時任Ｂｒｏｓ,,株式会社,熊本県,熊本市東区,若葉１丁目１４番５号,,43,102,8620903,,,,,,,2022-06-02,1,,,,,トキトウブロズ,0
1955,7340003003810,新規,0,2022-06-02,2022-06-02,合同会社ゼロベース,,合同会社,鹿児島県,鹿児島市,中央町２５番１３号,,46,201,8900053,,,,,,,2022-06-02,1,,,,,ゼロベース,0
1959,7360001030482,新規,0,2022-06-02,2022-06-02,株式会社沖縄イノベーション総研,,株式会社,沖縄県,那覇市,首里金城町４丁目１６番地６,,47,201,9030815,,,,,,,2022-06-02,1,,,,,オキナワイノベーションソウケン,0
1960,7360001030499,新規,0,2022-06-02,2022-06-02,株式会社ティンガーラサービス,,株式会社,沖縄県,宜野湾市,嘉数３丁目１８番１５－２号,,47,205,9012226,,,,,,,2022-06-02,1,,,,,ティンガーラサービス,0
1961,7360003012058,新規,0,2022-06-02,2022-06-02,合同会社ティエラクリエイト,,合同会社,沖縄県,沖縄市,諸見里３丁目２０番６０号,,47,211,9040032,,,,,,,2022-06-02,1,,,,,ティエラクリエイト,0
1969,7390001016917,新規,0,2022-06-02,2022-06-02,株式会社ファーストペンギン,,株式会社,山形県,新庄市,五日町１２０８番地の５１ミルウォーキーとうめき３号館１０２,,06,205,9960001,,,,,,,2022-06-02,1,,,,,ファーストペンギン,0
1972,7400001015900,新規,0,2022-06-02,2022-06-02,富士タクシー分割準備株式会社,,株式会社,岩手県,盛岡市,天神町９番１８号,,03,201,0200881,,,,,,,2022-06-02,1,,,,,フジタクシーブンカツジュンビ,0
1986,7430003013981,新規,0,2022-06-02,2022-06-02,合同会社フィーリングプラス,,合同会社,北海道,札幌市北区,新琴似五条６丁目３番１８号,,01,102,0010905,,,,,,,2022-06-02,1,,,,,フィーリングプラス,0
1988,7480001011751,新規,0,2022-06-02,2022-06-02,株式会社清水水産,,株式会社,徳島県,鳴門市,北灘町粟田字東傍示２番地１３,,36,202,7710372,,,,,,,2022-06-02,1,,,,,シミズスイサン,0
1990,7500001024247,新規,0,2022-06-02,2022-06-02,株式会社Ｏｈｎｏ　Ｔｅｃｈｎｉｃａｌ,,株式会社,愛媛県,伊予郡砥部町,北川毛５７４番地１１,,38,402,7912131,,,,,,,2022-06-02,1,,,,,オオノテクニカル,0
1991,7700150109150,新規,0,2022-06-02,2022-05-31,綾瀬でオペラを！の会,,その他,神奈川県,綾瀬市,落合南３丁目７－１１,,14,218,2521115,,,,,,,2022-05-31,1,,,,,アヤセデオペラヲノカイ,0
1998,8010001226940,新規,0,2022-06-02,2022-06-02,株式会社ＭＥＥＬＬ,,株式会社,東京都,中央区,銀座６丁目１０－１ＧＩＮＺＡＳＩＸ１３Ｆ,,13,102,1040061,,,,,,,2022-06-02,1,,,,,ミール,0
1999,8010001227096,新規,0,2022-06-02,2022-06-02,パウムテック株式会社,,株式会社,東京都,文京区,関口１丁目２３番６－８２４号,,13,105,1120014,,,,,,,2022-06-02,1,,,,,パウムテック,0
2000,8010003037774,新規,0,2022-06-02,2022-06-02,合同会社アミブル,,合同会社,東京都,文京区,湯島４丁目１０番７号,,13,105,1130034,,,,,,,2022-06-02,1,,,,,アミブル,0
2001,8010003037790,新規,0,2022-06-02,2022-06-02,呉中央合同会社,,合同会社,東京都,千代田区,丸の内１丁目８番２号,,13,101,1000005,,,,,,,2022-06-02,1,,,,,クレチュウオウ,0
2002,8010005035074,新規,0,2022-06-02,2022-06-02,エルオージェイ１特定目的会社,,その他の設立登記法人,東京都,千代田区,飯田橋４丁目７番１号結和税理士法人内,,13,101,1020072,,,,,,,2022-06-02,1,,,,,エルオージェイワン,0
2003,8010005035082,新規,0,2022-06-02,2022-06-02,司法書士法人ファースト・パートナーズ,,その他の設立登記法人,東京都,中央区,日本橋本町２丁目３番４号,,13,102,1030023,,,,,,,2022-06-02,1,,,,,ファーストパートナーズ,0
2007,8010401167652,新規,0,2022-06-02,2022-06-02,株式会社ＧＯＹＡ,,株式会社,東京都,港区,南青山３丁目１０番４１号ジュエル青山ビル２階,,13,103,1070062,,,,,,,2022-06-02,1,,,,,ゴーヤ,0
2008,8010401167693,新規,0,2022-06-02,2022-06-02,ハウスコム関東株式会社,,株式会社,東京都,港区,港南２丁目１６番１号,,13,103,1080075,,,,,,,2022-06-02,1,,,,,ハウスコムカントウ,0
2009,8010501048901,新規,0,2022-06-02,2022-06-02,株式会社Ｃａｂｂａｇｅ　　Ｔｒｕｃｋ,,株式会社,東京都,台東区,浅草２丁目１８番４－９０２号,,13,106,1110032,,,,,,,2022-06-02,1,,,,,キャベジトラック,0
2010,8010505003316,新規,0,2022-06-02,2022-06-02,税理士法人せいれん,,その他の設立登記法人,東京都,台東区,台東３丁目１２番５号,,13,106,1100016,,,,,,,2022-06-02,1,,,,,セイレン,0
2015,8010701042729,新規,0,2022-06-02,2022-06-02,株式会社テリヨ,,株式会社,東京都,品川区,上大崎３丁目２番１号,,13,109,1410021,,,,,,,2022-06-02,1,,,,,テリヨ,0
2016,8010701042737,新規,0,2022-06-02,2022-06-02,株式会社ビートアンドライト,,株式会社,東京都,品川区,西大井１丁目１－２,,13,109,1400015,,,,,,,2022-06-02,1,,,,,ビートアンドライト,0
2017,8010701042745,新規,0,2022-06-02,2022-06-02,株式会社ユカル,,株式会社,東京都,品川区,大崎３丁目１８－８コンパルビル２０１,,13,109,1410032,,,,,,,2022-06-02,1,,,,,ユカル,0
2018,8010701042753,新規,0,2022-06-02,2022-06-02,株式会社ｍｅｗ,,株式会社,東京都,品川区,西大井１丁目７番３号,,13,109,1400015,,,,,,,2022-06-02,1,,,,,ミュー,0
2045,8011101099046,新規,0,2022-06-02,2022-06-02,株式会社ＦＭｓ,,株式会社,東京都,新宿区,市谷台町９番１１号ｃｏｔｅａｕ台町２０１,,13,104,1620066,,,,,,,2022-06-02,1,,,,,エフエムズ,0
2046,8011101099079,新規,0,2022-06-02,2022-06-02,Ｄａｔａ　Ｐａｒｔｙ株式会社,,株式会社,東京都,新宿区,矢来町２７－２ベリスタ神楽坂１００３,,13,104,1620805,,,,,,,2022-06-02,1,,,,,データパーティ,0
2058,8011501028091,新規,0,2022-06-02,2022-06-02,株式会社マツフジ,,株式会社,東京都,北区,十条仲原１丁目５番７号サトウショップビル１階,,13,117,1140031,,,,,,,2022-06-02,1,,,,,,0
2066,8013301006649,新規,0,2022-06-02,2022-06-02,ダイエー観光株式会社,,株式会社,東京都,豊島区,池袋２丁目１９番３号,,13,116,1710014,,,,,,,2022-06-02,1,,,,,,0
2077,8020001146659,新規,0,2022-06-02,2022-06-02,株式会社ＴＥＡＭ　Ｊ,,株式会社,神奈川県,横浜市中区,本牧原１番４号ＭＵＲＡＬＬＡＨＯＮＭＯＫＵ２階,,14,104,2310821,,,,,,,2022-06-02,1,,,,,チームジェイ,0
2078,8020001146725,新規,0,2022-06-02,2022-06-02,株式会社Ｐａｌｅｔｔｅ,,株式会社,神奈川県,川崎市宮前区,神木本町４丁目１１番４号,,14,136,2160031,,,,,,,2022-06-02,1,,,,,パレット,0
2080,8020003021810,新規,0,2022-06-02,2022-06-02,合同会社プラスエボリューション,,合同会社,神奈川県,横浜市中区,弥生町１丁目５番地１－３０９号室,,14,104,2310058,,,,,,,2022-06-02,1,,,,,プラスエボリューション,0
2081,8020003021851,新規,0,2022-06-02,2022-06-02,ＤｌｙＤＢＤ合同会社,,合同会社,神奈川県,横浜市中区,桜木町１丁目１０１番地１クロスゲート７階,,14,104,2310062,,,,,,,2022-06-02,1,,,,,ドライディービーディー,0
2086,8021001076103,新規,0,2022-06-02,2022-06-02,ＨＮＣホールディングス株式会社,,株式会社,神奈川県,小田原市,本町１丁目４番７号朝日生命小田原ビル,,14,206,2500012,,,,,,,2022-06-02,1,,,,,エイチエヌシーホールディングス,0
2087,8021001076111,新規,0,2022-06-02,2022-06-02,株式会社Ｓｈａｄｏｗ　Ｉｎ　Ｓｈａｄｏｗ,,株式会社,神奈川県,鎌倉市,大町４丁目１５番７号,,14,204,2480007,,,,,,,2022-06-02,1,,,,,シャドウインシャドウ,0
2092,8030001148398,新規,0,2022-06-02,2022-06-02,株式会社アースビジネス,,株式会社,埼玉県,入間市,向陽台１丁目１－１７駅前プラザ１３－１０３,,11,225,3580001,,,,,,,2022-06-02,1,,,,,アースビジネス,0
2093,8030001148415,新規,0,2022-06-02,2022-06-02,株式会社ＨｉＭｉ,,株式会社,埼玉県,さいたま市北区,日進町２丁目１７０４番地１ダイヤモンドメゾン大宮日進１－１０７,,11,102,3310823,,,,,,,2022-06-02,1,,,,,ヒミ,0
2094,8030001148464,新規,0,2022-06-02,2022-06-02,株式会社ルーメナー,,株式会社,埼玉県,越谷市,南越谷１丁目７番２１号,,11,222,3430845,,,,,,,2022-06-02,1,,,,,ルーメナー,0
2097,8030003019515,新規,0,2022-06-02,2022-06-02,Ｎ合同会社,,合同会社,埼玉県,比企郡川島町,大字下小見野９６２番地,,11,346,3500102,,,,,,,2022-06-02,1,,,,,エヌ,0
2104,8040003020125,新規,0,2022-06-02,2022-06-02,８８ＨａｃｈｉＨａｃｈｉ合同会社,,合同会社,千葉県,千葉市美浜区,高洲１丁目２４番１－１４０１号,,12,106,2610004,,,,,,,2022-06-02,1,,,,,エィティーエイトハチハチ,0
2106,8040005021633,新規,0,2022-06-02,2022-06-02,医療法人社団緑松会,,その他の設立登記法人,千葉県,松戸市,新松戸４丁目１４１番地２,,12,207,2700034,,,,,,,2022-06-02,1,,,,,リョクショウカイ,0
2112,8080001024990,新規,0,2022-06-02,2022-06-02,株式会社ＣＯＣＯＲＯ,,株式会社,静岡県,焼津市,北新田３９６番地の１,,22,212,4250058,,,,,,,2022-06-02,1,,,,,ココロ,0
2115,8080101023323,新規,0,2022-06-02,2022-06-02,セリ電株式会社,,株式会社,静岡県,沼津市,我入道浜町３３５番地の２,,22,203,4100823,,,,,,,2022-06-02,1,,,,,セリデン,0
2119,8100001035399,新規,0,2022-06-02,2022-06-02,武蔵テクノサポート株式会社,,株式会社,長野県,上田市,住吉３７７番地１１,,20,203,3860002,,,,,,,2022-06-02,1,,,,,ムサシテクノサポート,0
2125,8110003004772,新規,0,2022-06-02,2022-06-02,合同会社Ｆｕｓｉｏｎ,,合同会社,新潟県,上越市,大字下池部１２２９番地６,,15,222,9430119,,,,,,,2022-06-02,1,,,,,フュージョン,0
2137,8120001246259,新規,0,2022-06-02,2022-06-02,株式会社インセンス,,株式会社,大阪府,大阪市住吉区,我孫子東３丁目３番１２号,,27,120,5580013,,,,,,,2022-06-02,1,,,,,インセンス,0
2138,8120001246275,新規,0,2022-06-02,2022-06-02,株式会社菊和琳,,株式会社,大阪府,大阪市東淀川区,菅原４丁目１０－２８トーカン東淀川キャステール５０３号室,,27,114,5330022,,,,,,,2022-06-02,1,,,,,キクワリン,0
2139,8120001246309,新規,0,2022-06-02,2022-06-02,株式会社ＳＡＭＲ,,株式会社,大阪府,大阪市北区,堂島浜１丁目４番４号アクア堂島フォンターナ３階,,27,127,5300004,,,,,,,2022-06-02,1,,,,,エスエーエムアール,0
2140,8120001246317,新規,0,2022-06-02,2022-06-02,株式会社ＨＳＰ,,株式会社,大阪府,守口市,菊水通４丁目９番６号,,27,209,5700032,,,,,,,2022-06-02,1,,,,,エイチエスピー,0
2141,8120001246341,新規,0,2022-06-02,2022-06-02,ＲＥＨホールディングス株式会社,,株式会社,大阪府,大阪市北区,梅田２丁目２番２号ヒルトンプラザウエスト１９階,,27,127,5300001,,,,,,,2022-06-02,1,,,,,アールイーエイチホールディングス,0
2147,8120003021817,新規,0,2022-06-02,2022-06-02,合同会社ニコニコサポート,,合同会社,大阪府,交野市,倉治６丁目１７番１１号,,27,230,5760051,,,,,,,2022-06-02,1,,,,,ニコニコサポート,0
2148,8120101065674,新規,0,2022-06-02,2022-06-02,株式会社Ｋｏｕ’ｓ,,株式会社,大阪府,和泉市,光明台２丁目４１番６号,,27,219,5941111,,,,,,,2022-06-02,1,,,,,コウズ,0
2149,8120101065682,新規,0,2022-06-02,2022-06-02,株式会社笑夢,,株式会社,大阪府,和泉市,池田下町１１４６番地の９,,27,219,5940032,,,,,,,2022-06-02,1,,,,,エム,0
2151,8120901046048,新規,0,2022-06-02,2022-06-02,Ｔ＆Ｈ株式会社,,株式会社,大阪府,池田市,室町４番５２－５０１号,,27,204,5630047,,,,,,,2022-06-02,1,,,,,ティーアンドエイチ,0
2156,8130001071846,新規,0,2022-06-02,2022-06-02,株式会社ゼスト・コア・コンサルティング,,株式会社,京都府,京都市中京区,西ノ京下合町２０サーパスシティ御池西大路通９０７,,26,104,6048436,,,,,,,2022-06-02,1,,,,,ゼストコアコンサルティング,0
2162,8140001126186,新規,0,2022-06-02,2022-06-02,株式会社Ｌａｎｔａｎｇ,,株式会社,兵庫県,神戸市兵庫区,西多聞通１丁目１番１号,,28,105,6520035,,,,,,,2022-06-02,1,,,,,ランタン,0
2176,8180001151528,新規,0,2022-06-02,2022-06-02,株式会社Ａｌｉｖｉｏ,,株式会社,愛知県,名古屋市天白区,元八事３丁目３２８番地,,23,116,4680066,,,,,,,2022-06-02,1,,,,,アリビオ,0
2189,8200001040117,新規,0,2022-06-02,2022-06-02,株式会社Ｔ＆Ｍコーポレーション,,株式会社,岐阜県,羽島市,竹鼻町狐穴１６２８番地３,,21,209,5016232,,,,,,,2022-06-02,1,,,,,ティーアンドエムコーポレーション,0
2193,8240001059871,新規,0,2022-06-02,2022-06-02,株式会社和総業,,株式会社,広島県,呉市,焼山中央４丁目１１番２７－２０１号,,34,202,7370935,,,,,,,2022-06-02,1,,,,,ナゴミソウギョウ,0
2194,8240003005642,新規,0,2022-06-02,2022-06-02,Ｍｉｎａｋｉ合同会社,,合同会社,広島県,広島市西区,大芝１丁目９番８号,,34,104,7330001,,,,,,,2022-06-02,1,,,,,ミナキ,0
2198,8260003003933,新規,0,2022-06-02,2022-06-02,合同会社エコプライス,,合同会社,岡山県,倉敷市,中庄団地６番８－４０１号,,33,202,7100015,,,,,,,2022-06-02,1,,,,,エコプライス,0
2213,8300002000258,新規,0,2022-06-02,2022-06-02,有限会社香月ソノ倉庫,,有限会社,佐賀県,佐賀市,本庄町大字鹿子２００番地１,,41,201,8400025,,,,,,,2022-06-02,1,,,,,カツキソノソウコ,0
2228,8340001024766,新規,0,2022-06-02,2022-06-02,ミヤタタイヤ株式会社,,株式会社,鹿児島県,霧島市,国分湊１３１４番地２,,46,218,8994315,,,,,,,2022-06-02,1,,,,,ミヤタタイヤ,0
2229,8340001024782,新規,0,2022-06-02,2022-06-02,株式会社スエカワＦａｒｍ,,株式会社,鹿児島県,大島郡和泊町,大字国頭２０１８番地,,46,533,8919101,,,,,,,2022-06-02,1,,,,,スエカワファーム,0
2241,8390005008959,新規,0,2022-06-02,2022-06-02,ＮＰＯ法人さけがわ友遊クラブ,,その他の設立登記法人,山形県,最上郡鮭川村,大字京塚１３２４番地２,,06,366,9995201,,,,,,,2022-06-02,1,,,,,サケガワユウユウクラブ,0
2243,8400001015899,新規,0,2022-06-02,2022-06-02,盛岡タクシー分割準備株式会社,,株式会社,岩手県,盛岡市,青山３丁目７番１１号,,03,201,0200133,,,,,,,2022-06-02,1,,,,,モリオカタクシーブンカツジュンビ,0
2256,8450001013709,新規,0,2022-06-02,2022-06-02,株式会社ＡＳＡ,,株式会社,北海道,旭川市,二条通７丁目２４７番地１,,01,204,0700032,,,,,,,2022-06-02,1,,,,,アサ,0
2258,8460003000902,新規,0,2022-06-02,2022-06-02,合同会社エアサプライ,,合同会社,北海道,釧路市,美原３丁目３６番１５号,,01,206,0850065,,,,,,,2022-06-02,1,,,,,エアサプライ,0
2261,8480001011750,新規,0,2022-06-02,2022-06-02,株式会社丸協建設,,株式会社,徳島県,阿南市,長生町西山２２３番地,,36,204,7740046,,,,,,,2022-06-02,1,,,,,マルキョウケンセツ,0
2264,8500001024246,新規,0,2022-06-02,2022-06-02,株式会社キドケン,,株式会社,愛媛県,松山市,久保田町５９番地２９,,38,201,7918035,,,,,,,2022-06-02,1,,,,,キドケン,0
2265,8500001024254,新規,0,2022-06-02,2022-06-02,株式会社川内工業,,株式会社,愛媛県,松山市,余戸東５丁目６番１２号,,38,201,7900044,,,,,,,2022-06-02,1,,,,,カワウチコウギョウ,0
2292,9010401167651,新規,0,2022-06-02,2022-06-02,株式会社エグジットデザイン,,株式会社,東京都,港区,南青山３丁目１５番９号ＭＩＮＯＷＡ表参道３Ｆ,,13,103,1070062,,,,,,,2022-06-02,1,,,,,エグジットデザイン,0
2293,9010401167718,新規,0,2022-06-02,2022-06-02,ＤＯＲＡＢＯＴ株式会社,,株式会社,東京都,港区,赤坂２丁目２３番１号アークヒルズ・フロントタワーＩｎＣｏｎｔｒｏｌ内,,13,103,1070052,,,,,,,2022-06-02,1,,,,,ドラボット,0
2300,9010501048909,新規,0,2022-06-02,2022-06-02,ＩＰＤＣＡコンサルティング株式会社,,株式会社,東京都,台東区,上野７丁目２番１０号,,13,106,1100005,,,,,,,2022-06-02,1,,,,,アイピーディーシーエーコンサルティング,0
2301,9010601061241,新規,0,2022-06-02,2022-06-02,株式会社Ｐｈｉｎｘ,,株式会社,東京都,江東区,豊洲３丁目５番２１－９０３号,,13,108,1350061,,,,,,,2022-06-02,1,,,,,フィンクス,0
2302,9010603009560,新規,0,2022-06-02,2022-06-02,合同会社Ｈ＆Ｙ,,合同会社,東京都,墨田区,八広６丁目３２番８号,,13,107,1310041,,,,,,,2022-06-02,1,,,,,エイチアンドワイ,0
2315,9011001147795,新規,0,2022-06-02,2022-06-02,株式会社５０５０,,株式会社,東京都,目黒区,原町１丁目９番７号,,13,110,1520011,,,,,,,2022-06-02,1,,,,,ゴーマルゴーマル,0
2316,9011001147812,新規,0,2022-06-02,2022-06-02,株式会社ＳＴＲＯＮＧ,,株式会社,東京都,目黒区,中町２丁目３９番１７号ラ・ボヌール１０２,,13,110,1530065,,,,,,,2022-06-02,1,,,,,ストロング,0
2320,9011005009587,新規,0,2022-06-02,2022-06-02,一般社団法人空家対策・相続事業承継支援センター,,その他の設立登記法人,東京都,目黒区,大橋１丁目３番３号カームハウス大橋,,13,110,1530044,,,,,,,2022-06-02,1,,,,,アキヤタイサクソウゾクジギョウショウケイシエンセンター,0
2324,9011201023854,新規,0,2022-06-02,2022-06-02,株式会社ａｒｏｕｎｄ,,株式会社,東京都,中野区,南台３丁目１２番１０号扶桑ハイツ中野南台１１２,,13,114,1640014,,,,,,,2022-06-02,1,,,,,アラウンド,0
2325,9011301027821,新規,0,2022-06-02,2022-06-02,株式会社ハナハウス,,株式会社,東京都,杉並区,松庵３丁目２７番２号,,13,115,1670054,,,,,,,2022-06-02,1,,,,,ハナハウス,0
2327,9011403003679,新規,0,2022-06-02,2022-06-02,ジーインクリース合同会社,,合同会社,東京都,板橋区,栄町８番８号,,13,119,1730015,,,,,,,2022-06-02,1,,,,,ジーインクリース,0
2335,9011601026003,新規,0,2022-06-02,2022-06-02,株式会社エトワール,,株式会社,東京都,練馬区,春日町４丁目１５番１号,,13,120,1790074,,,,,,,2022-06-02,1,,,,,エトワール,0
2343,9012301013002,新規,0,2022-06-02,2022-06-02,株式会社研究所江口,,株式会社,東京都,町田市,中町１丁目２番５号ＳＨＥＬＬＭＩＹＡＫＯＶ３Ｆ,,13,209,1940021,,,,,,,2022-06-02,1,,,,,ケンキュウジョエグチ,0
2344,9012401039252,新規,0,2022-06-02,2022-06-02,株式会社Ｋ＆Ｋ,,株式会社,東京都,多摩市,関戸２丁目３５番地の８‐３０４,,13,224,2060011,,,,,,,2022-06-02,1,,,,,ケーアンドケー,0
2348,9012803002790,新規,0,2022-06-02,2022-06-02,Ｐｒｏｃｕｒｒｉ　Ｊａｐａｎ合同会社,,合同会社,東京都,日野市,旭が丘３丁目１番１号三井不動産ロジスティクスパーク日野２階,,13,212,1910065,,,,,,,2022-06-02,1,,,,,プロキュリジャパン,0
2350,9013301049184,新規,0,2022-06-02,2022-06-02,開泰株式会社,,株式会社,東京都,豊島区,南大塚１丁目５０番５号コーポ大塚マンション２０１号,,13,116,1700005,,,,,,,2022-06-02,1,,,,,カイタイ,0
2356,9020001146708,新規,0,2022-06-02,2022-06-02,ＨＵＹ　ＬＯＮＧ株式会社,,株式会社,神奈川県,横浜市泉区,上飯田町２６７０番地４６棟５０１号,,14,116,2450018,,,,,,,2022-06-02,1,,,,,ヒィロン,0
2357,9020001146724,新規,0,2022-06-02,2022-06-02,株式会社ＩＴＴ,,株式会社,神奈川県,横浜市南区,真金町２丁目１４番地１７－６０４,,14,105,2320021,,,,,,,2022-06-02,1,,,,,アイティーティー,0
2358,9020001146732,新規,0,2022-06-02,2022-06-02,株式会社八萬屋,,株式会社,神奈川県,横浜市神奈川区,六角橋１丁目１７番１２号エスポワール白楽６階,,14,102,2210802,,,,,,,2022-06-02,1,,,,,ハチマンヤ,0
2359,9020001146740,新規,0,2022-06-02,2022-06-02,株式会社Ｏｊｉｍａ,,株式会社,神奈川県,横浜市中区,野毛町３丁目１１０番地１野毛町三丁目北地区ビル１Ｆ,,14,104,2310064,,,,,,,2022-06-02,1,,,,,オジマ,0
2361,9020003021850,新規,0,2022-06-02,2022-06-02,合同会社Ａｕｔｏ　Ｇｕｒｕ　Ｃｏ　Ｌｔｄ．,,合同会社,神奈川県,横浜市中区,松影町１丁目３番地８,,14,104,2310025,,,,,,,2022-06-02,1,,,,,オートグルシーオーエルティディ,0
2362,9020003021859,新規,0,2022-06-02,2022-06-02,ＭＩＴＳＵＴＥＡ合同会社,,合同会社,神奈川県,横浜市中区,石川町２丁目６９番地,,14,104,2310868,,,,,,,2022-06-02,1,,,,,ミツティー,0
2370,9021003011783,新規,0,2022-06-02,2022-06-02,みなはぴ合同会社,,合同会社,神奈川県,藤沢市,藤が岡１丁目１２番Ｃ２－５０２号,,14,205,2510004,,,,,,,2022-06-02,1,,,,,ミナハピ,0
2372,9030001148439,新規,0,2022-06-02,2022-06-02,株式会社Ｊ‐ｕｐ,,株式会社,埼玉県,川越市,大字下松原６３８番地１８,,11,201,3501153,,,,,,,2022-06-02,1,,,,,ジェイアップ,0
2380,9040001123705,新規,0,2022-06-02,2022-06-02,株式会社ＩＲＯＨＡ,,株式会社,千葉県,千葉市中央区,新田町１５番１－２０１号,,12,101,2600027,,,,,,,2022-06-02,1,,,,,イロハ,0
2381,9040005021640,新規,0,2022-06-02,2022-06-02,特定非営利活動法人Ｇｌｏｂａｌ　Ｂｏａｒｄ,,その他の設立登記法人,千葉県,木更津市,金田東５丁目１０番地６,,12,206,2920009,,,,,,,2022-06-02,1,,,,,グローバルボード,0
2383,9050001051145,新規,0,2022-06-02,2022-06-02,株式会社ＡＣＥ,,株式会社,茨城県,神栖市,大野原３丁目３－１０,,08,232,3140144,,,,,,,2022-06-02,1,,,,,エース,0
2388,9070001039279,新規,0,2022-06-02,2022-06-02,株式会社ＣＯＶＥＲ　ＡＬＬＳ,,株式会社,群馬県,桐生市,境野町２丁目１４８５番地２,,10,203,3760002,,,,,,,2022-06-02,1,,,,,カバーオールズ,0
2396,9080101023322,新規,0,2022-06-02,2022-06-02,株式会社ヤスイチ工業,,株式会社,静岡県,沼津市,大岡２２２番地の１９,,22,203,4100022,,,,,,,2022-06-02,1,,,,,ヤスイチコウギョウ,0
2397,9080401025836,新規,0,2022-06-02,2022-06-02,株式会社ＮＢＮ　Ｌｉｖｉｎｇ　Ｊａｐａｎ,,株式会社,静岡県,御前崎市,比木４９０１番地の７,,22,223,4371602,,,,,,,2022-06-02,1,,,,,エヌビーエヌリビングジャパン,0
2405,9100002039324,新規,0,2022-06-02,2022-06-02,塩尻建材有限会社,,有限会社,長野県,塩尻市,大字広丘高出１３５７番地６１,,20,215,3990703,,,,,,,2022-06-02,1,,,,,シオジリケンザイ,0
2419,9120001246258,新規,0,2022-06-02,2022-06-02,株式会社ＤＮＳ,,株式会社,大阪府,大阪市中央区,東心斎橋２丁目７番３２号すみ笠屋町ビル地下１Ｆ全号,,27,128,5420083,,,,,,,2022-06-02,1,,,,,ディーエヌエス,0
2420,9120001246274,新規,0,2022-06-02,2022-06-02,北極星株式会社,,株式会社,大阪府,大阪市東成区,神路４丁目３－１０,,27,115,5370003,,,,,,,2022-06-02,1,,,,,ホッキョクセイ,0
2421,9120001246299,新規,0,2022-06-02,2022-06-02,日高株式会社,,株式会社,大阪府,大阪市淀川区,加島１丁目２１番３２号,,27,123,5320031,,,,,,,2022-06-02,1,,,,,ヒダカ,0
2422,9120001246324,新規,0,2022-06-02,2022-06-02,株式会社アリスコーポレーション,,株式会社,大阪府,大阪市旭区,大宮２丁目２６番１９号,,27,117,5350002,,,,,,,2022-06-02,1,,,,,アリスコーポレーション,0
2423,9120001246357,新規,0,2022-06-02,2022-06-02,株式会社ワンレール,,株式会社,大阪府,大阪市中央区,谷町６丁目１５番１２号,,27,128,5420012,,,,,,,2022-06-02,1,,,,,ワンレール,0
2424,9120001246365,新規,0,2022-06-02,2022-06-02,株式会社ＦＬＥＤＯＭ,,株式会社,大阪府,大阪市福島区,吉野３丁目２１番１９号,,27,103,5530006,,,,,,,2022-06-02,1,,,,,フレドム,0
2425,9120003021816,新規,0,2022-06-02,2022-06-02,クリウォ合同会社,,合同会社,大阪府,寝屋川市,成田南町１０番３号,,27,215,5720003,,,,,,,2022-06-02,1,,,,,クリウォ,0
2429,9120101065698,新規,0,2022-06-02,2022-06-02,株式会社竹田工務店,,株式会社,大阪府,貝塚市,三ケ山７９６番地,,27,208,5970101,,,,,,,2022-06-02,1,,,,,タケダコウムテン,0
2433,9120901046030,新規,0,2022-06-02,2022-06-02,株式会社スリーアロー,,株式会社,大阪府,豊中市,庄内栄町１丁目２番３号,,27,203,5610834,,,,,,,2022-06-02,1,,,,,スリーアロー,0
2437,9130001071878,新規,0,2022-06-02,2022-06-02,株式会社ＨＡＲＵ,,株式会社,京都府,京都市南区,久世中久世町２丁目１０５番地２５,,26,107,6018213,,,,,,,2022-06-02,1,,,,,ハル,0
2438,9130001071886,新規,0,2022-06-02,2022-06-02,株式会社新林,,株式会社,京都府,京都市南区,吉祥院稲葉町３４番地１,,26,107,6018343,,,,,,,2022-06-02,1,,,,,シンバヤシ,0
2439,9130001071894,新規,0,2022-06-02,2022-06-02,株式会社イーワークス,,株式会社,京都府,宇治市,木幡須留５番地の１０３,,26,204,6110002,,,,,,,2022-06-02,1,,,,,イーワークス,0
2440,9130001071903,新規,0,2022-06-02,2022-06-02,京かえら株式会社,,株式会社,京都府,向日市,上植野町菱田１０番地３,,26,208,6170006,,,,,,,2022-06-02,1,,,,,キョウカエラ,0
2455,9150001025584,新規,0,2022-06-02,2022-06-02,株式会社アライブ,,株式会社,奈良県,生駒市,辻町８７４番地５ニュー・ハイツ辻１０２,00126717,29,209,6300212,,,,,,,2022-06-02,1,,,,,アライブ,0
2467,9180001151519,新規,0,2022-06-02,2022-06-02,株式会社ＳＶＧ,,株式会社,愛知県,名古屋市緑区,池上台１丁目２０２番地,,23,114,4580044,,,,,,,2022-06-02,1,,,,,エスブイジー,0
2468,9180001151527,新規,0,2022-06-02,2022-06-02,株式会社Ｌｉｅｎ,,株式会社,愛知県,名古屋市瑞穂区,彌富通４丁目２２番地の１,,23,108,4670064,,,,,,,2022-06-02,1,,,,,リアン,0
2475,9180003023880,新規,0,2022-06-02,2022-06-02,合同会社ＴＯＲＩＤＥ,,合同会社,愛知県,名古屋市天白区,表山１丁目１２０１番地,,23,116,4680069,,,,,,,2022-06-02,1,,,,,トリデ,0
2477,9180005019786,新規,0,2022-06-02,2022-06-02,土地家屋調査士法人鈴木一郎事務所,,その他の設立登記法人,愛知県,名古屋市守山区,大字下志段味字東新外５６７番地１,,23,113,4630003,,,,,,,2022-06-02,1,,,,,スズキイチロウジムショ,0
2478,9180301036287,新規,0,2022-06-02,2022-06-02,株式会社スリー・エスジャパン,,株式会社,愛知県,高浜市,神明町６丁目６番地３２,,23,227,4441305,,,,,,,2022-06-02,1,,,,,スリーエスジャパン,0
2482,9190001029474,新規,0,2022-06-02,2022-06-02,株式会社トピアネクステージ,,株式会社,三重県,四日市市,三栄町２番１１号,,24,202,5100068,,,,,,,2022-06-02,1,,,,,トピアネクステージ,0
2483,9200001040116,新規,0,2022-06-02,2022-06-02,株式会社ダグラス,,株式会社,岐阜県,岐阜市,福光西２丁目６番２号,,21,201,5020814,,,,,,,2022-06-02,1,,,,,ダグラス,0
2484,9200001040124,新規,0,2022-06-02,2022-06-02,株式会社Ｂｒａｖｅｒｙ,,株式会社,岐阜県,羽島郡笠松町,円城寺８６１番地,,21,303,5016035,,,,,,,2022-06-02,1,,,,,ブレイヴリー,0
2486,9200005013349,新規,0,2022-06-02,2022-06-02,一般社団法人中津川市観光局,,その他の設立登記法人,岐阜県,中津川市,栄町１番１号中津川市にぎわいプラザ２階,,21,206,5080032,,,,,,,2022-06-02,1,,,,,ナカツガワシカンコウキョク,0
2493,9240001059846,新規,0,2022-06-02,2022-06-02,株式会社橋本建設,,株式会社,広島県,広島市西区,草津浜町１１番１６号,,34,104,7330862,,,,,,,2022-06-02,1,,,,,ハシモトケンセツ,0
2494,9240001059862,新規,0,2022-06-02,2022-06-02,株式会社アセットワークス,,株式会社,広島県,広島市中区,鶴見町２番２４－２０１号,,34,101,7300045,,,,,,,2022-06-02,1,,,,,アセットワークス,0
2517,9290005018703,新規,0,2022-06-02,2022-06-02,一般社団法人ロビーナ企画,,その他の設立登記法人,福岡県,久留米市,長門石３丁目３番１９号,,40,203,8300027,,,,,,,2022-06-02,1,,,,,ロビーナキカク,0
2521,9310001017879,新規,0,2022-06-02,2022-06-02,株式会社未来測量鑑定,,株式会社,長崎県,佐世保市,万津町７番４６－４０１号,,42,202,8570877,,,,,,,2022-06-02,1,,,,,ミライソクリョウカンテイ,0
2528,9330001029781,新規,0,2022-06-02,2022-06-02,株式会社ＰｉＭ,,株式会社,熊本県,玉名市,岱明町高道１６１番地４,,43,206,8690202,,,,,,,2022-06-02,1,,,,,ピム,0
2530,9330003009385,新規,0,2022-06-02,2022-06-02,合同会社ＳＡＫＵＲＡ,,合同会社,熊本県,八代市,渡町２１８２番地１,,43,202,8660061,,,,,,,2022-06-02,1,,,,,サクラ,0
2532,9340001024765,新規,0,2022-06-02,2022-06-02,株式会社葉山,,株式会社,鹿児島県,西之表市,馬毛島１番地１３,,46,213,8913118,,,,,,,2022-06-02,1,,,,,ハヤマ,0
2533,9340003003817,新規,0,2022-06-02,2022-06-02,合同会社Ｒｅａｃｔ,,合同会社,鹿児島県,鹿児島市,西坂元町４７番５号,,46,201,8920863,,,,,,,2022-06-02,1,,,,,リアクト,0
2543,9370001048613,新規,0,2022-06-02,2022-06-02,株式会社カツヨシナガマチ,,株式会社,宮城県,仙台市太白区,鹿野２丁目１４番２１号,,04,104,9820023,,,,,,,2022-06-02,1,,,,,カツヨシナガマチ,0
2544,9370001048621,新規,0,2022-06-02,2022-06-02,株式会社ＰＯＫＥＲ　ＦＡＣＥ,,株式会社,宮城県,仙台市太白区,長町７丁目１９番３０－１４０１号,,04,104,9820011,,,,,,,2022-06-02,1,,,,,ポーカーフェイス,0
2547,9380005012589,新規,0,2022-06-02,2022-06-02,一般社団法人ホワイトキャンバス,,その他の設立登記法人,福島県,須賀川市,岩瀬森９６番地１,,07,207,9620003,,,,,,,2022-06-02,1,,,,,ホワイトキャンバス,0
2559,9400003002944,新規,0,2022-06-02,2022-06-02,合同会社ＬＲＣ,,合同会社,岩手県,盛岡市,八幡町４番１９号エドワーズビル２階,,03,201,0200872,,,,,,,2022-06-02,1,,,,,エルアールシー,0
2562,9410003003669,新規,0,2022-06-02,2022-06-02,クロス・ロード合同会社,,合同会社,秋田県,秋田市,外旭川八柳２丁目５番１９号コーポみうら２０３号,,05,201,0100803,,,,,,,2022-06-02,1,,,,,クロスロード,0
2565,9430003013963,新規,0,2022-06-02,2022-06-02,合同会社Ｍｅｆｉｔ,,合同会社,北海道,札幌市中央区,南十条西６丁目４－９ＡＲＴ　ＰＡＲＫＩＩ１０３,00126725,01,101,0640810,,,,,,,2022-06-02,1,,,,,メフィット,0
2570,9480001011758,新規,0,2022-06-02,2022-06-02,ＨＡＫ貿易株式会社,,株式会社,徳島県,徳島市,国府町矢野５５７番地の１９,,36,201,7793126,,,,,,,2022-06-02,1,,,,,エイチエーケーボウエキ,0
2572,9500001024245,新規,0,2022-06-02,2022-06-02,株式会社翔,,株式会社,愛媛県,松山市,中村１丁目１番２８号カーサヴィアンカ兼久２０３号,,38,201,7900964,,,,,,,2022-06-02,1,,,,,ショウ,0
