sequenceNumber,corporateNumber,process,correct,updateDate,changeDate,name,nameImageId,kind,prefectureName,cityName,streetNumber,addressImageId,prefectureCode,cityCode,postCode,addressOutside,addressOutsideImageId,closeDate,closeCause,successorCorporateNumber,changeCause,assignmentDate,latest,enName,enPrefectureName,enCityName,enAddressOutside,furigana,hihyoji
4,1010001044688,登記記録の閉鎖等,0,2022-06-27,2022-06-21,佐野ビルデイング株式会社,,株式会社,東京都,世田谷区,玉川田園調布１丁目２番６号,,13,112,1580085,,,2022-06-21,清算の結了等,,,2015-10-05,1,,,,,サノビルデイング,0
34,1011001005399,登記記録の閉鎖等,0,2022-06-27,2022-06-20,株式会社カウンシル・トラベル,,株式会社,東京都,千代田区,紀尾井町７番１号,,13,101,1020094,,,2022-06-20,清算の結了等,,,2015-10-05,1,,,,,カウンシルトラベル,0
35,1011001054198,登記記録の閉鎖等,0,2022-06-27,2022-06-15,関コーポレーション株式会社,,株式会社,東京都,渋谷区,桜丘町１０番１２号,,13,113,1500031,,,2022-06-15,清算の結了等,,,2015-10-05,1,,,,,セキコーポレーション,0
46,1011003012848,登記記録の閉鎖等,0,2022-06-27,2022-06-15,紫夏合同会社,,合同会社,東京都,渋谷区,神宮前６丁目２３番４号桑野ビル２階,,13,113,1500001,,,2022-06-15,清算の結了等,,,2021-06-07,1,,,,,シカ,0
70,1013202001391,登記記録の閉鎖等,0,2022-06-27,2022-06-21,オ・エイチ・エス有限会社,,有限会社,東京都,目黒区,自由が丘１丁目９番４号,,13,110,1520035,,,2022-06-21,清算の結了等,,,2015-10-05,1,,,,,オエイチエス,0
91,1021001055889,登記記録の閉鎖等,0,2022-06-27,2022-06-20,株式会社ティーエムエス,,株式会社,神奈川県,茅ヶ崎市,矢畑４０３番地１,,14,207,2530085,,,2022-06-20,清算の結了等,,,2015-10-05,1,,,,,ティーエムエス,0
99,1030001075038,登記記録の閉鎖等,0,2022-06-27,2022-06-16,産惠温水工營株式会社,,株式会社,埼玉県,川口市,芝４丁目２０番３０号,,11,203,3330866,,,2022-06-16,清算の結了等,,,2015-10-05,1,,,,,サンケイオンスイコウエイ,0
120,1040002002023,登記記録の閉鎖等,0,2022-06-27,2022-06-20,有限会社エムアカデミア,,有限会社,千葉県,千葉市緑区,あすみが丘２丁目１７番１５号,,12,105,2670066,,,2022-06-20,清算の結了等,,,2015-10-05,1,,,,,エムアカデミア,0
124,1040002086850,登記記録の閉鎖等,0,2022-06-27,2022-06-14,有限会社向洋,,有限会社,千葉県,香取市,みずほ台３丁目２４１番地の２９,,12,236,2870064,,,2022-06-14,清算の結了等,,,2015-10-05,1,,,,,コウヨウ,0
156,1120001244293,登記記録の閉鎖等,0,2022-06-27,2022-06-24,ＮＳプロスチール建材株式会社,,株式会社,大阪府,大阪市西区,南堀江３丁目１３番１４号,,27,106,5500015,,,2022-06-24,清算の結了等,,,2022-03-04,1,,,,,エヌエスプロスチールケンザイ,0
171,1130002032085,登記記録の閉鎖等,0,2022-06-27,2022-06-23,有限会社サンフレッシュ,,有限会社,京都府,宮津市,字須津９４２番地の３,,26,205,6292251,,,2022-06-23,清算の結了等,,,2015-10-05,1,,,,,,0
190,1180001094106,登記記録の閉鎖等,0,2022-06-27,2022-06-22,株式会社ノア,,株式会社,愛知県,知多郡東浦町,大字藤江字ふじが丘２２番地の１９,,23,442,4702105,,,2022-06-22,清算の結了等,,,2015-10-05,1,,,,,ノア,0
191,1180001096052,登記記録の閉鎖等,0,2022-06-27,2022-06-17,株式会社ＣＯＭＯ．ＤＯ,,株式会社,愛知県,東海市,富木島町新石根１０７番地の７,,23,222,4760011,,,2022-06-17,清算の結了等,,,2015-10-05,1,,,,,コモド,0
198,1180002033434,登記記録の閉鎖等,0,2022-06-27,2022-06-21,有限会社吉田屋食品,,有限会社,愛知県,名古屋市中区,栄５丁目２１番６号,,23,106,4600008,,,2022-06-21,清算の結了等,,,2015-10-05,1,,,,,ヨシダヤショクヒン,0
199,1180002070816,登記記録の閉鎖等,0,2022-06-27,2022-06-23,有限会社ＴＩＭＥ,,有限会社,愛知県,春日井市,坂下町４丁目２８３番地１,,23,206,4800305,,,2022-06-23,清算の結了等,,,2015-10-05,1,,,,,タイム,0
204,1190003003427,登記記録の閉鎖等,0,2022-06-27,2022-06-21,合同会社玉城ＳｏｃｉａｌＣｏｍｍｕｎｉｔｙ,,合同会社,三重県,度会郡玉城町,佐田１番地１Ｌｉｍｐｉａ城南１０１,,24,461,5190414,,,2022-06-21,清算の結了等,,,2020-07-10,1,,,,,タマキソーシャルコミュニティー,0
217,1220002012409,登記記録の閉鎖等,0,2022-06-27,2022-06-21,有限会社サン・コァー,,有限会社,石川県,加賀市,動橋町ム３２番地の１,,17,206,9220331,,,2022-06-21,合併による解散等,1220002012342,令和４年６月２１日石川県加賀市動橋町ム３２番地１株式会社ケイコーポレート（1220002012342）に合併し解散,2015-10-05,1,,,,,サンコァー,0
225,1250001012638,登記記録の閉鎖等,0,2022-06-27,2022-06-20,菊間運送株式会社,,株式会社,山口県,周南市,大字大河内１６８９番地の１,,35,215,7450651,,,2022-06-20,清算の結了等,,,2015-10-05,1,,,,,,0
296,2010801016695,登記記録の閉鎖等,0,2022-06-27,2022-06-22,第二新世紀興産株式会社,,株式会社,東京都,新宿区,中落合２丁目１１番１９号,,13,104,1610032,,,2022-06-22,清算の結了等,,,2015-10-05,1,,,,,ダイニシンセイキコウサン,0
297,2010801023774,登記記録の閉鎖等,0,2022-06-27,2022-06-23,株式会社オフィスよんさん,,株式会社,東京都,新宿区,西新宿３丁目１３番１１号いづみタウン新宿６０１号室,,13,104,1600023,,,2022-06-23,清算の結了等,,,2015-10-05,1,,,,,オフィスヨンサン,0
306,2011001096000,登記記録の閉鎖等,0,2022-06-27,2022-05-31,ゴールドスタンダード株式会社,,株式会社,東京都,渋谷区,道玄坂１丁目１２番１号渋谷マークシティＷ２２Ｆ,,13,113,1500043,,,2022-05-31,清算の結了等,,,2015-10-05,1,,,,,ゴールドスタンダード,0
310,2011001139659,登記記録の閉鎖等,0,2022-06-27,2022-06-22,株式会社ｓｉｎｋａ,,株式会社,東京都,渋谷区,恵比寿西１丁目３３番６号,,13,113,1500021,,,2022-06-22,清算の結了等,,,2021-04-08,1,,,,,シンカ,0
345,2020003017723,登記記録の閉鎖等,0,2022-06-27,2022-06-20,合同会社ｄｏｔ８,,合同会社,神奈川県,横浜市神奈川区,東神奈川１丁目１１番地２ＲＥＡＬＩＺＥ８０４号室,,14,102,2210044,,,2022-06-20,清算の結了等,,,2020-04-10,1,,,,,ドットエイト,0
348,2021001028687,登記記録の閉鎖等,0,2022-06-27,2022-06-20,株式会社エフエルエス,,株式会社,神奈川県,大和市,下鶴間７番地１,,14,213,2420001,,,2022-06-20,清算の結了等,,,2015-10-05,1,,,,,エフエルエス,0
351,2021002040889,登記記録の閉鎖等,0,2022-06-27,2022-06-21,有限会社小室商事,,有限会社,神奈川県,大和市,渋谷７丁目８番地１２,,14,213,2420023,,,2022-06-21,清算の結了等,,,2015-10-05,1,,,,,コムロショウジ,0
366,2040001010760,登記記録の閉鎖等,0,2022-06-27,2022-06-17,株式会社イー・エム,,株式会社,千葉県,四街道市,大日１２２３番地３,,12,228,2840001,,,2022-06-17,清算の結了等,,,2015-10-05,1,,,,,イーエム,0
380,2070001007333,登記記録の閉鎖等,0,2022-06-27,2022-06-20,株式会社須藤商会,,株式会社,群馬県,高崎市,芝塚町２０６番地,,10,202,3700064,,,2022-06-20,清算の結了等,,,2015-10-05,1,,,,,スドウショウカイ,0
386,2080101009823,登記記録の閉鎖等,0,2022-06-27,2022-06-23,株式会社村松組,,株式会社,静岡県,富士市,宮島４３２番地の１,,22,210,4160945,,,2022-06-23,清算の結了等,,,2015-10-05,1,,,,,ムラマツグミ,0
400,2120001064336,登記記録の閉鎖等,0,2022-06-27,2022-06-23,山幸運輸株式会社,,株式会社,大阪府,大阪市北区,大淀南１丁目２番１６号,,27,127,5310075,,,2022-06-23,清算の結了等,,,2015-10-05,1,,,,,ヤマコウウンユ,0
414,2120101023605,登記記録の閉鎖等,0,2022-06-27,2022-06-22,株式会社スリーエー,,株式会社,大阪府,高槻市,三島江４丁目１番８号,,27,207,5690835,,,2022-06-22,清算の結了等,,,2015-10-05,1,,,,,スリーエー,0
416,2122002003925,登記記録の閉鎖等,0,2022-06-27,2022-06-20,広多建設有限会社,,有限会社,大阪府,東大阪市,中小阪１丁目２０番２３号,,27,227,5770804,,,2022-06-20,清算の結了等,,,2015-10-05,1,,,,,ヒロタケンセツ,0
427,2140001093886,登記記録の閉鎖等,0,2022-06-27,2022-06-20,株式会社ヴォール,,株式会社,兵庫県,尼崎市,潮江５丁目７番１３号,,28,202,6610976,,,2022-06-20,清算の結了等,,,2015-10-05,1,,,,,ヴォール,0
432,2140002000593,登記記録の閉鎖等,0,2022-06-27,2022-06-20,有限会社デザインルーム・ゴトー,,有限会社,兵庫県,芦屋市,大原町２番６－１１４号,,28,206,6590092,,,2022-06-20,清算の結了等,,,2015-10-05,1,,,,,デザインルームゴトー,0
437,2140003000650,登記記録の閉鎖等,0,2022-06-27,2022-06-22,合名会社スエノ,,合名会社,兵庫県,神戸市長田区,久保町５丁目１番１－１０４号,,28,106,6530041,,,2022-06-22,清算の結了等,,,2015-10-05,1,,,,,スエノ,0
441,2150001004636,登記記録の閉鎖等,0,2022-06-27,2022-06-21,株式会社アレックス,,株式会社,奈良県,生駒市,軽井沢町１番３５－３０４号,,29,209,6300265,,,2022-06-21,清算の結了等,,,2015-10-05,1,,,,,アレックス,0
454,2180001024557,登記記録の閉鎖等,0,2022-06-27,2022-06-20,株式会社アイタック,,株式会社,愛知県,一宮市,丹陽町九日市場１７５１番地,,23,203,4910824,,,2022-06-20,清算の結了等,,,2015-10-05,1,,,,,アイタック,0
456,2180001080971,登記記録の閉鎖等,0,2022-06-27,2022-06-20,株式会社エースショップいとう,,株式会社,愛知県,丹羽郡大口町,上小口１丁目７５４番地,,23,361,4800141,,,2022-06-20,清算の結了等,,,2015-10-05,1,,,,,エースショップイトウ,0
457,2180001098023,登記記録の閉鎖等,0,2022-06-27,2022-06-20,株式会社村上商店,,株式会社,愛知県,あま市,甚目寺茶之木田５８番地の１,,23,237,4901111,,,2022-06-20,清算の結了等,,,2015-10-05,1,,,,,ムラカミショウテン,0
458,2180001101728,登記記録の閉鎖等,0,2022-06-27,2022-06-20,株式会社エスタ,,株式会社,愛知県,名古屋市緑区,南大高２丁目３０１番地,,23,114,4598016,,,2022-06-20,清算の結了等,,,2015-10-05,1,,,,,エスタ,0
460,2180001115793,登記記録の閉鎖等,0,2022-06-27,2022-06-23,株式会社ＫＲ．ｃｏｍｐａｎｙ,,株式会社,愛知県,名古屋市東区,泉２丁目２８番２４号,,23,102,4610001,,,2022-06-23,清算の結了等,,,2015-10-05,1,,,,,ケーアールカンパニー,0
498,2290002009934,登記記録の閉鎖等,0,2022-06-27,2022-06-15,有限会社エムイーエム,,有限会社,福岡県,福岡市中央区,大宮１丁目６番３９号,,40,133,8100013,,,2022-06-15,清算の結了等,,,2015-10-05,1,,,,,エムイーエム,0
504,2330002003973,登記記録の閉鎖等,0,2022-06-27,2022-06-17,有限会社カピラ,,有限会社,熊本県,熊本市中央区,黒髪４丁目５番３６号,,43,101,8600862,,,2022-06-17,清算の結了等,,,2015-10-05,1,,,,,カピラ,0
525,2460102006632,登記記録の閉鎖等,0,2022-06-27,2022-06-23,有限会社北成,,有限会社,北海道,帯広市,西十八条南４丁目２２番３号,,01,207,0800028,,,2022-06-23,清算の結了等,,,2015-10-05,1,,,,,,0
529,2490002001961,登記記録の閉鎖等,0,2022-06-27,2022-06-17,有限会社アルファコンス,,有限会社,高知県,高知市,与力町１－６ハイネス南国８０５,,39,201,7800863,,,2022-06-17,清算の結了等,,,2015-10-05,1,,,,,,0
622,3020001088039,登記記録の閉鎖等,0,2022-06-27,2022-06-15,株式会社シーフロント,,株式会社,神奈川県,横浜市神奈川区,松見町１丁目４４番地の１,,14,102,2210005,,,2022-06-15,清算の結了等,,,2015-10-05,1,,,,,シーフロント,0
637,3030001019273,登記記録の閉鎖等,0,2022-06-27,2022-06-16,株式会社ピアフレッシュ,,株式会社,埼玉県,さいたま市岩槻区,本丸４丁目５番５６号,,11,110,3390058,,,2022-06-16,清算の結了等,,,2015-10-05,1,,,,,ピアフレッシュ,0
640,3030001122416,登記記録の閉鎖等,0,2022-06-27,2022-06-17,株式会社Ｆｉｅｌｄ－Ｕ,,株式会社,埼玉県,秩父市,下吉田１６１９番地２,,11,207,3691503,,,2022-06-17,清算の結了等,,,2017-10-03,1,,,,,,0
647,3030002097178,登記記録の閉鎖等,0,2022-06-27,2022-06-17,有限会社原商事,,有限会社,埼玉県,東松山市,大字大谷４１５２番地２５,,11,212,3550008,,,2022-06-17,清算の結了等,,,2015-10-05,1,,,,,ハラショウジ,0
660,3060005008906,登記記録の閉鎖等,0,2022-06-27,2022-06-17,特定非営利活動法人まちづくりサポートクラブ２０２０,,その他の設立登記法人,栃木県,鹿沼市,下武子町１７７番地,,09,205,3220004,,,2022-06-17,清算の結了等,,,2015-10-05,1,,,,,マチヅクリサポートクラブニイマルニイマル,0
665,3080401011627,登記記録の閉鎖等,0,2022-06-27,2022-06-23,ＩＮＴＥＲＣＯＮＴＩＮＥＮＴＡＬ株式会社,,株式会社,静岡県,浜松市東区,和田町８９５番地の１,,22,132,4350016,,,2022-06-23,清算の結了等,,,2015-10-05,1,,,,,インターコンチネンタル,0
666,3080402020577,登記記録の閉鎖等,0,2022-06-27,2022-06-21,有限会社小林ゴム工業所,,有限会社,静岡県,磐田市,豊岡１７６６番地の１,,22,211,4380231,,,2022-06-21,清算の結了等,,,2015-10-05,1,,,,,コバヤシゴムコウギョウショ,0
677,3120001223824,登記記録の閉鎖等,0,2022-06-27,2022-06-20,株式会社ｏｍｎｉｓ,,株式会社,大阪府,大東市,諸福３丁目３番２０号,,27,218,5740044,,,2022-06-20,清算の結了等,,,2019-09-18,1,,,,,オムニス,0
683,3120002042265,登記記録の閉鎖等,0,2022-06-27,2022-06-23,有限会社中田商店,,有限会社,大阪府,大阪市平野区,喜連２丁目７番２７号,,27,126,5470027,,,2022-06-23,清算の結了等,,,2015-10-05,1,,,,,ナカタショウテン,0
699,3140001077657,登記記録の閉鎖等,0,2022-06-27,2022-06-21,アクティブライフ株式会社,,株式会社,奈良県,天理市,前栽町１７５番地４,,29,204,6320094,,,2022-06-21,清算の結了等,,,2015-10-05,1,,,,,アクティブライフ,0
706,3140002034764,登記記録の閉鎖等,0,2022-06-27,2022-06-20,有限会社ケージーエフ,,有限会社,兵庫県,丹波市,柏原町柏原４９０９番地１６,,28,223,6693309,,,2022-06-20,清算の結了等,,,2015-10-05,1,,,,,ケージーエフ,0
721,3180001007032,登記記録の閉鎖等,0,2022-06-27,2022-06-23,上田産業株式会社,,株式会社,愛知県,名古屋市瑞穂区,春山町６番地の４,,23,108,4670024,,,2022-06-23,清算の結了等,,,2015-10-05,1,,,,,ウエダサンギョウ,0
736,3180002086496,登記記録の閉鎖等,0,2022-06-27,2022-06-22,有限会社フリーライド,,有限会社,愛知県,大府市,北崎町南屋敷１５番地２,,23,223,4740001,,,2022-06-22,清算の結了等,,,2015-10-05,1,,,,,フリーライド,0
764,3260001021537,登記記録の閉鎖等,0,2022-06-27,2022-06-23,株式会社清川屋,,株式会社,岡山県,備前市,日生町日生８５９番地６,,33,211,7013204,,,2022-06-23,清算の結了等,,,2015-10-05,1,,,,,キヨカワヤ,0
784,3340005007111,登記記録の閉鎖等,0,2022-06-27,2022-06-23,特定非営利活動法人ゆいネット輝北,,その他の設立登記法人,鹿児島県,鹿屋市,輝北町市成４１３０番地,,46,203,8998511,,,2022-06-23,清算の結了等,,,2015-10-05,1,,,,,ユイネットキホク,0
791,3370102000115,登記記録の閉鎖等,0,2022-06-27,2022-06-17,有限会社おおの,,有限会社,宮城県,柴田郡村田町,大字村田字西田１０番地の２,,04,322,9891305,,,2022-06-17,清算の結了等,,,2015-10-05,1,,,,,オオノ,0
813,3450005004171,登記記録の閉鎖等,0,2022-06-27,2022-06-24,特定非営利活動法人トータルキャリアセンター,,その他の設立登記法人,北海道,利尻郡利尻富士町,鴛泊字栄町１１３番地１,,01,519,0970101,,,2022-06-24,清算の結了等,,,2018-07-09,1,,,,,トータルキャリアセンター,0
881,4011105000203,登記記録の閉鎖等,0,2022-06-27,2022-06-22,一般財団法人日本カウンセリング・センター,,その他の設立登記法人,東京都,新宿区,下落合３丁目１４番３９号,,13,104,1610033,,,2022-06-22,清算の結了等,,,2015-10-05,1,,,,,ニホンカウンセリングセンター,0
887,4012302008765,登記記録の閉鎖等,0,2022-06-27,2022-06-16,有限会社工匠クリエイティブ,,有限会社,東京都,町田市,南成瀬５丁目４番地８,,13,209,1940045,,,2022-06-16,清算の結了等,,,2015-10-05,1,,,,,コウショウクリエイティブ,0
896,4020001081331,登記記録の閉鎖等,0,2022-06-27,2022-06-15,アインス化粧品株式会社,,株式会社,神奈川県,川崎市中原区,小杉御殿町１丁目８０５番地１３,,14,133,2110068,,,2022-06-15,清算の結了等,,,2015-10-05,1,,,,,,0
905,4021001009958,登記記録の閉鎖等,0,2022-06-27,2022-06-21,株式会社プランズ,,株式会社,神奈川県,鎌倉市,稲村ガ崎５丁目１７番２号,,14,204,2480024,,,2022-06-21,清算の結了等,,,2015-10-05,1,,,,,プランズ,0
907,4021002037454,登記記録の閉鎖等,0,2022-06-27,2022-06-21,有限会社飯田製作所,,有限会社,神奈川県,秦野市,曽屋字高砂６２５番地２,,14,211,2570031,,,2022-06-21,清算の結了等,,,2015-10-05,1,,,,,イイダセイサクショ,0
913,4030001042951,登記記録の閉鎖等,0,2022-06-27,2022-06-17,テクノサイ株式会社,,株式会社,埼玉県,北足立郡伊奈町,栄４丁目３４番地,,11,301,3620805,,,2022-06-17,清算の結了等,,,2015-10-05,1,,,,,テクノサイ,0
953,4110002026045,登記記録の閉鎖等,0,2022-06-27,2022-06-21,有限会社オオヤ版画コレクションズ,,有限会社,新潟県,長岡市,福住１丁目４番３４号,,15,202,9400034,,,2022-06-21,清算の結了等,,,2015-10-05,1,,,,,オオヤハンガコレクションズ,0
972,4120101047882,登記記録の閉鎖等,0,2022-06-27,2022-06-23,株式会社ジール,,株式会社,大阪府,岸和田市,池尻町３４８番地の４,,27,202,5960813,,,2022-06-23,清算の結了等,,,2015-10-05,1,,,,,ジール,0
1015,4180001098005,登記記録の閉鎖等,0,2022-06-27,2022-06-20,丸和化成株式会社,,株式会社,愛知県,あま市,方領屋敷１８１番地,,23,237,4901101,,,2022-06-20,清算の結了等,,,2015-10-05,1,,,,,,0
1026,4190001005026,登記記録の閉鎖等,0,2022-06-27,2022-06-21,株式会社サンケイ,,株式会社,三重県,鈴鹿市,上野町字助町４８番地,,24,207,5130017,,,2022-06-21,合併による解散等,7190001005031,令和４年６月２１日三重県鈴鹿市上野町字助町４８番地三惠工業株式会社（7190001005031）に合併し解散,2015-10-05,1,,,,,サンケイ,0
1030,4210001009759,登記記録の閉鎖等,0,2022-06-27,2022-06-17,株式会社勝原スキー場,,株式会社,福井県,大野市,西勝原３３号２番地の８,,18,205,9120155,,,2022-06-17,清算の結了等,,,2015-10-05,1,,,,,カドハラスキージョウ,0
1050,4320001000590,登記記録の閉鎖等,0,2022-06-27,2022-06-24,株式会社映像新社,,株式会社,大分県,大分市,大字神崎２３９番地の６,,44,201,8700100,,,2022-06-24,清算の結了等,,,2015-10-05,1,,,,,エイゾウシンシャ,0
1077,4400001004575,登記記録の閉鎖等,0,2022-06-27,2022-06-23,株式会社イー・ジェイプランニング,,株式会社,岩手県,盛岡市,茶畑２丁目２４番１０号イーストジャパンビル,,03,201,0200822,,,2022-06-23,清算の結了等,,,2015-10-05,1,,,,,,0
1097,4500002012781,登記記録の閉鎖等,0,2022-06-27,2022-06-23,有限会社永井商店,,有限会社,愛媛県,西予市,三瓶町朝立１番耕地５４２番地２,,38,214,7960907,,,2022-06-23,清算の結了等,,,2015-10-05,1,,,,,ナガイショウテン,0
1113,5010003020279,登記記録の閉鎖等,0,2022-06-27,2022-06-20,ＹＦＬ合同会社,,合同会社,東京都,千代田区,丸の内３丁目１番１号東京共同会計事務所内,,13,101,1000005,,,2022-06-20,清算の結了等,,,2015-10-05,1,,,,,ワイエフエル,0
1121,5010401137583,登記記録の閉鎖等,0,2022-06-27,2022-06-20,株式会社ａｒｅｎａ,,株式会社,東京都,千代田区,内幸町１丁目１番６号,,13,101,1000011,,,2022-06-20,清算の結了等,,,2018-04-09,1,,,,,アリーナ,0
1139,5010801029307,登記記録の閉鎖等,0,2022-06-27,2022-06-17,株式会社メタエクス,,株式会社,東京都,大田区,久が原６丁目２７番８号,,13,111,1460085,,,2022-06-17,清算の結了等,,,2018-10-30,1,,,,,メタエクス,0
1145,5010903005247,登記記録の閉鎖等,0,2022-06-27,2022-06-21,合同会社ＹＯＨＡＫＵｌａｂ,,合同会社,東京都,世田谷区,池尻２丁目１７－７スカイポエム池尻１０１号室,,13,112,1540001,,,2022-06-21,清算の結了等,,,2019-10-02,1,,,,,ヨハクラボ,0
1171,5011601018656,登記記録の閉鎖等,0,2022-06-27,2022-06-24,株式会社インターロハス,,株式会社,東京都,東久留米市,浅間町３丁目２７番５号,,13,222,2030012,,,2022-06-24,清算の結了等,,,2015-10-05,1,,,,,,0
1182,5020001090752,登記記録の閉鎖等,0,2022-06-27,2022-06-20,株式会社フジカーゴ,,株式会社,神奈川県,横浜市泉区,西が岡３丁目２０番地２,,14,116,2450006,,,2022-06-20,清算の結了等,,,2015-10-05,1,,,,,フジカーゴ,0
1197,5021002069876,登記記録の閉鎖等,0,2022-06-27,2022-06-17,有限会社旅館ランドリー横濱瀬谷,,有限会社,神奈川県,横浜市瀬谷区,卸本町９２７９番地４６,,14,114,2460001,,,2022-06-17,清算の結了等,,,2015-10-05,1,,,,,リョカンランドリーヨコハマセヤ,0
1222,5040002068713,登記記録の閉鎖等,0,2022-06-27,2022-06-15,有限会社ビオレッターキミ,,有限会社,千葉県,袖ケ浦市,神納１丁目１８番地３,,12,229,2990257,,,2022-06-15,清算の結了等,,,2015-10-05,1,,,,,ビオレッターキミ,0
1223,5040002090956,登記記録の閉鎖等,0,2022-06-27,2022-06-15,有限会社渋沢保険事務所,,有限会社,千葉県,柏市,逆井４丁目４５番５号,,12,217,2770042,,,2022-06-15,清算の結了等,,,2015-10-05,1,,,,,シブサワホケンジムショ,0
1230,5060001029490,登記記録の閉鎖等,0,2022-06-27,2022-06-20,株式会社久藤設備,,株式会社,栃木県,栃木市,藤岡町中根２４番地２,,09,203,3290319,,,2022-06-20,清算の結了等,,,2017-06-12,1,,,,,クドウセツビ,0
1242,5100002004579,登記記録の閉鎖等,0,2022-06-27,2022-06-22,有限会社木良組,,有限会社,長野県,長野市,大字上駒沢３６２番地の３,,20,201,3810082,,,2022-06-22,清算の結了等,,,2015-10-05,1,,,,,ボクリョウグミ,0
1247,5120001123345,登記記録の閉鎖等,0,2022-06-27,2022-06-22,株式会社アサヒクリエイト,,株式会社,大阪府,大阪市住之江区,新北島３丁目２番５３号,,27,125,5590024,,,2022-06-22,清算の結了等,,,2015-10-05,1,,,,,アサヒクリエイト,0
1248,5120001166162,登記記録の閉鎖等,0,2022-06-27,2022-06-22,株式会社アップライジング,,株式会社,大阪府,大阪市西区,南堀江４丁目２０番９号,,27,106,5500015,,,2022-06-22,清算の結了等,,,2015-10-05,1,,,,,アップライジング,0
1273,5130005003575,登記記録の閉鎖等,0,2022-06-27,2022-06-17,京都洋傘シヨール商工業協同組合,,その他の設立登記法人,京都府,京都市中京区,三条通新町西入ル釜座町２２番地,,26,104,6040000,,,2022-06-17,清算の結了等,,,2015-10-05,1,,,,,キョウトヨウカサシヨール,0
1287,5180001044890,登記記録の閉鎖等,0,2022-06-27,2022-06-21,株式会社ピープル,,株式会社,愛知県,刈谷市,元町６丁目１００番地１,,23,210,4480825,,,2022-06-21,清算の結了等,,,2015-10-05,1,,,,,ピープル,0
1291,5180001070103,登記記録の閉鎖等,0,2022-06-27,2022-06-22,株式会社ＧＭＷ,,株式会社,愛知県,名古屋市中区,栄３丁目３１１４,,23,106,4600008,,,2022-06-22,清算の結了等,,,2015-10-05,1,,,,,ジーエムダブル,0
1301,5200001013868,登記記録の閉鎖等,0,2022-06-27,2022-06-23,株式会社ＢＩＲＴＨ,,株式会社,岐阜県,大垣市,鶴見町４８０番地,,21,202,5030805,,,2022-06-23,清算の結了等,,,2015-10-05,1,,,,,バース,0
1306,5210002012133,登記記録の閉鎖等,0,2022-06-27,2022-05-26,マサミ建商有限会社,,有限会社,福井県,越前市,粟田部町第３２号１６番地１０,,18,209,9150242,,,2022-05-26,清算の結了等,,,2015-10-05,1,,,,,マサミケンショウ,0
1320,5240002051896,登記記録の閉鎖等,0,2022-06-27,2022-06-22,有限会社百島農園,,有限会社,広島県,尾道市,百島町１５５９番地,,34,205,7220061,,,2022-06-22,清算の結了等,,,2015-10-05,1,,,,,モモシマノウエン,0
1333,5290001066627,登記記録の閉鎖等,0,2022-06-27,2022-06-17,株式会社まる,,株式会社,福岡県,福岡市博多区,博多駅東１丁目１１番５号アサコ博多ビル１１０４,,40,132,8120013,,,2022-06-17,清算の結了等,,,2015-10-05,1,,,,,マル,0
1335,5290001090313,登記記録の閉鎖等,0,2022-06-27,2022-06-17,株式会社Ｕ　ＬａＬａ　Ｃｏｒｐｏｒａｔｉｏｎ,,株式会社,福岡県,福岡市南区,大楠２丁目２１番１７－３０２号,,40,134,8150082,,,2022-06-17,清算の結了等,,,2020-09-24,1,,,,,ウララコーポレーション,0
1375,5410005001823,登記記録の閉鎖等,0,2022-06-27,2022-06-15,特定非営利活動法人秋田ＣＡＰプロジェクト,,その他の設立登記法人,秋田県,秋田市,八橋大畑１丁目８番２２号,,05,201,0100962,,,2022-06-15,清算の結了等,,,2015-10-05,1,,,,,アキタシーエーピープロジェクト,0
1394,5500001007179,登記記録の閉鎖等,0,2022-06-27,2022-06-22,株式会社石本石油店,,株式会社,愛媛県,上浮穴郡久万高原町,入野１２０８番地の１,,38,386,7911202,,,2022-06-22,清算の結了等,,,2015-10-05,1,,,,,イシモトセキユテン,0
1396,5500002019751,登記記録の閉鎖等,0,2022-06-27,2022-06-24,有限会社眞鍋,,有限会社,愛媛県,今治市,玉川町中村甲１７３番地,,38,202,7940111,,,2022-06-24,清算の結了等,,,2015-10-05,1,,,,,,0
1414,6010003027793,登記記録の閉鎖等,0,2022-06-27,2022-06-20,アセットファイナンス戸畑合同会社,,合同会社,東京都,千代田区,神田神保町３丁目５番地,,13,101,1010051,,,2022-06-20,清算の結了等,,,2018-06-25,1,,,,,アセットファイナンストバタ,0
1434,6010901047975,登記記録の閉鎖等,0,2022-06-27,2022-06-21,株式会社Ｘｅ,,株式会社,東京都,世田谷区,代沢５丁目８－１３クリークス代沢レジデンス４０３号,,13,112,1550032,,,2022-06-21,清算の結了等,,,2021-02-22,1,,,,,クロッシー,0
1483,6030001067625,登記記録の閉鎖等,0,2022-06-27,2022-06-16,株式会社阿部興業,,株式会社,埼玉県,吉川市,大字深井新田２７３３番地１,,11,243,3420011,,,2022-06-16,清算の結了等,,,2015-10-05,1,,,,,アベコウギョウ,0
1490,6030002032347,登記記録の閉鎖等,0,2022-06-27,2022-06-16,有限会社ティーズファクトリー,,有限会社,埼玉県,所沢市,花園１丁目２４２７番地の１９,,11,208,3590047,,,2022-06-16,清算の結了等,,,2015-10-05,1,,,,,ティーズファクトリー,0
1499,6040002022685,登記記録の閉鎖等,0,2022-06-27,2022-06-15,有限会社実川建材,,有限会社,千葉県,船橋市,上山町２丁目４２５番地,,12,204,2730046,,,2022-06-15,清算の結了等,,,2015-10-05,1,,,,,ジツカワケンザイ,0
1501,6040002067631,登記記録の閉鎖等,0,2022-06-27,2022-06-20,フジナミフーズ有限会社,,有限会社,千葉県,木更津市,朝日２丁目７番１６号,,12,206,2920055,,,2022-06-20,清算の結了等,,,2015-10-05,1,,,,,フジナミフーズ,0
1512,6070005004059,登記記録の閉鎖等,0,2022-06-27,2022-06-20,医療法人木村内科医院,,その他の設立登記法人,群馬県,藤岡市,藤岡７３６番地２８,,10,209,3750024,,,2022-06-20,清算の結了等,,,2015-10-05,1,,,,,,0
1518,6100003005195,登記記録の閉鎖等,0,2022-06-27,2022-06-22,合同会社Ｑｕｉａ　Ｌｉｆｅ　Ｆｏｒ　Ｙｏｕ,,合同会社,長野県,松本市,梓川倭６６０－２,,20,202,3901701,,,2022-06-22,清算の結了等,,,2018-12-26,1,,,,,キアライフフォーユー,0
1573,6180001077295,登記記録の閉鎖等,0,2022-06-27,2022-06-20,株式会社運輸情報事務センター,,株式会社,愛知県,小牧市,若草町１７４番地２,,23,219,4850031,,,2022-06-20,合併による解散等,3180001076003,令和４年６月２０日愛知県小牧市若草町１７４番地２ストラ株式会社（3180001076003）に合併し解散,2015-10-05,1,,,,,ウンユジョウホウジム,0
1578,6180002030939,登記記録の閉鎖等,0,2022-06-27,2022-06-20,有限会社三勝,,有限会社,愛知県,名古屋市中区,丸の内２丁目６番１０号,,23,106,4600002,,,2022-06-20,清算の結了等,,,2015-10-05,1,,,,,サンショウ,0
1579,6180002046489,登記記録の閉鎖等,0,2022-06-27,2022-06-22,有限会社ネクスト,,有限会社,愛知県,名古屋市西区,菊井１丁目１７番１４号,,23,104,4510044,,,2022-06-22,清算の結了等,,,2015-10-05,1,,,,,ネクスト,0
1581,6180003018413,登記記録の閉鎖等,0,2022-06-27,2022-06-20,Ｃｏｃｏｒｏクリエイト合同会社,,合同会社,愛知県,名古屋市緑区,鳴海町字北浦８番地,,23,114,4580801,,,2022-06-20,清算の結了等,,,2017-11-09,1,,,,,ココロクリエイト,0
1614,6290005007700,登記記録の閉鎖等,0,2022-06-27,2022-06-22,特定非営利活動法人福祉の家ひかり,,その他の設立登記法人,福岡県,朝倉郡筑前町,依井１１３７番地１,,40,447,8380813,,,2022-06-22,清算の結了等,,,2015-10-05,1,,,,,フクシノイエヒカリ,0
1617,6290801012614,登記記録の閉鎖等,0,2022-06-27,2022-06-22,株式会社レモン,,株式会社,福岡県,北九州市八幡西区,鷹見台１丁目９番１号,,40,109,8070853,,,2022-06-22,清算の結了等,,,2015-10-05,1,,,,,レモン,0
1620,6330002024017,登記記録の閉鎖等,0,2022-06-27,2022-06-17,不知火商工有限会社,,有限会社,熊本県,宇城市,不知火町高良２４７７番地の１,,43,213,8690552,,,2022-06-17,清算の結了等,,,2015-10-05,1,,,,,シラヌイショウコウ,0
1628,6370001009213,登記記録の閉鎖等,0,2022-06-27,2022-06-17,株式会社司設計亊務所,,株式会社,宮城県,仙台市青葉区,あけぼの町１番３３号,,04,101,9810963,,,2022-06-17,清算の結了等,,,2015-10-05,1,,,,,ツカサセッケイジムショ,0
1686,7010002024824,登記記録の閉鎖等,0,2022-06-27,2022-06-13,有限会社堀川商店,,有限会社,東京都,中央区,日本橋富沢町１５番７号,,13,102,1030006,,,2022-06-13,清算の結了等,,,2015-10-05,1,,,,,ホリカワショウテン,0
1704,7010401149032,登記記録の閉鎖等,0,2022-06-27,2022-06-09,株式会社Ｅｍｐａｔｈｙ,,株式会社,東京都,港区,六本木１丁目７番１０号パークコート六本木ヒルトップ３０１号,,13,103,1060032,,,2022-06-09,清算の結了等,,,2019-11-08,1,,,,,エンパシー,0
1725,7010901006063,登記記録の閉鎖等,0,2022-06-27,2022-06-21,杉山土建株式会社,,株式会社,東京都,世田谷区,大原１丁目５番１６号,,13,112,1560041,,,2022-06-21,清算の結了等,,,2015-10-05,1,,,,,スギヤマドケン,0
1761,7011302006578,登記記録の閉鎖等,0,2022-06-27,2022-06-20,有限会社東京セラー企画,,有限会社,東京都,杉並区,和田１丁目５番１１号,,13,115,1660012,,,2022-06-20,清算の結了等,,,2015-10-05,1,,,,,トウキョウセラーキカク,0
1784,7020002042593,登記記録の閉鎖等,0,2022-06-27,2022-06-20,有限会社近藤商會,,有限会社,神奈川県,横浜市中区,日ノ出町１丁目２４番地,,14,104,2310066,,,2022-06-20,清算の結了等,,,2015-10-05,1,,,,,コンドウショウカイ,0
1790,7021002050933,登記記録の閉鎖等,0,2022-06-27,2022-06-20,有限会社石井精工,,有限会社,神奈川県,小田原市,田島６２３番地,,14,206,2560811,,,2022-06-20,清算の結了等,,,2015-10-05,1,,,,,イシイセイコウ,0
1798,7030001034302,登記記録の閉鎖等,0,2022-06-27,2022-06-20,株式会社スターマイン,,株式会社,埼玉県,さいたま市大宮区,土手町３丁目２７８番地１クリオ北大宮壱番館４１４,,11,103,3300801,,,2022-06-20,清算の結了等,,,2015-10-05,1,,,,,スターマイン,0
1799,7030001055876,登記記録の閉鎖等,0,2022-06-27,2022-06-17,株式会社開成コーポレーション,,株式会社,埼玉県,ふじみ野市,清見２丁目１番地１１,,11,245,3560002,,,2022-06-17,清算の結了等,,,2015-10-05,1,,,,,,0
1800,7030001138813,登記記録の閉鎖等,0,2022-06-27,2022-06-17,株式会社どろんこ軍団,,株式会社,埼玉県,志木市,上宗岡５丁目６番１８－１０３号,,11,228,3530001,,,2022-06-17,清算の結了等,,,2020-10-16,1,,,,,ドロンコグンダン,0
1824,7080102014405,登記記録の閉鎖等,0,2022-06-27,2022-06-23,有限会社高嶺産業,,有限会社,静岡県,富士市,久沢２０７番地の８,,22,210,4190202,,,2022-06-23,清算の結了等,,,2015-10-05,1,,,,,タカネサンギョウ,0
1841,7120001172159,登記記録の閉鎖等,0,2022-06-27,2022-06-22,株式会社ピーライト,,株式会社,大阪府,大阪市住之江区,新北島３丁目２番５３号,,27,125,5590024,,,2022-06-22,清算の結了等,,,2015-10-05,1,,,,,ピーライト,0
1853,7120005015735,登記記録の閉鎖等,0,2022-06-27,2022-06-24,ＮＰＯ法人女性と子どもセンター,,その他の設立登記法人,大阪府,大阪市中央区,南本町２丁目３番１２号エイディビル１２階,,27,128,5410054,,,2022-06-24,清算の結了等,,,2015-10-05,1,,,,,ジョセイトコドモセンター,0
1869,7140001112253,登記記録の閉鎖等,0,2022-06-27,2022-06-21,西武リフォーム株式会社,,株式会社,兵庫県,姫路市,飾磨区構２丁目１４３番地１,,28,201,6728071,,,2022-06-21,清算の結了等,,,2018-12-27,1,,,,,セイブリフォーム,0
1885,7180001053452,登記記録の閉鎖等,0,2022-06-27,2022-06-20,豊自動車株式会社,,株式会社,愛知県,名古屋市昭和区,菊園町５丁目５番地,,23,107,4660843,,,2022-06-20,清算の結了等,,,2015-10-05,1,,,,,,0
1931,7260005009707,登記記録の閉鎖等,0,2022-06-27,2022-06-24,特定非営利活動法人夢志縁隊,,その他の設立登記法人,岡山県,岡山市北区,駅元町３１番１号,,33,101,7000024,,,2022-06-24,清算の結了等,,,2015-10-05,1,,,,,ユメシエンタイ,0
1933,7290001043590,登記記録の閉鎖等,0,2022-06-27,2022-06-17,株式会社ぐりーんコンタクト,,株式会社,福岡県,春日市,惣利１丁目８３番地２,,40,218,8160813,,,2022-06-17,清算の結了等,,,2015-10-05,1,,,,,グリーンコンタクト,0
1955,7360002002828,登記記録の閉鎖等,0,2022-06-27,2022-06-16,有限会社チソク産業,,有限会社,沖縄県,那覇市,首里当蔵町１丁目３３番地の３,,47,201,9030812,,,2022-06-16,清算の結了等,,,2015-10-05,1,,,,,チソクサンギョウ,0
1985,7450001001219,登記記録の閉鎖等,0,2022-06-27,2022-06-24,株式会社小泉技研,,株式会社,北海道,旭川市,錦町２１丁目２１６２番地１１１,,01,204,0700824,,,2022-06-24,清算の結了等,,,2015-10-05,1,,,,,コイズミギケン,0
1991,7500005007792,登記記録の閉鎖等,0,2022-06-27,2022-06-23,一般財団法人Ｆｒｅｅ財団,,その他の設立登記法人,愛媛県,今治市,東門町５丁目２番５号,,38,202,7940033,,,2022-06-23,清算の結了等,,,2016-09-06,1,,,,,フリーザイダン,0
1996,8010001059052,登記記録の閉鎖等,0,2022-06-27,2022-06-20,株式会社モーニング．サン,,株式会社,東京都,中央区,日本橋本町１丁目８番３号,,13,102,1030023,,,2022-06-20,清算の結了等,,,2015-10-05,1,,,,,モーニングサン,0
2005,8010003016456,登記記録の閉鎖等,0,2022-06-27,2022-06-20,合同会社渋谷ＫＩ,,合同会社,東京都,千代田区,丸の内３丁目１番１号東京共同会計事務所内,,13,101,1000005,,,2022-06-20,清算の結了等,,,2015-10-05,1,,,,,シブヤケイアイ,0
2010,8010101008132,登記記録の閉鎖等,0,2022-06-27,2022-06-03,株式会社ＲＡＩＭＵ,,株式会社,東京都,八王子市,下恩方町６２２番地３,,13,201,1920154,,,2022-06-03,清算の結了等,,,2015-10-05,1,,,,,ライム,0
2027,8011001117485,登記記録の閉鎖等,0,2022-06-27,2022-06-10,ＧＭＯライブゲームス株式会社,,株式会社,東京都,渋谷区,桜丘町２６番１号,,13,113,1500031,,,2022-06-10,合併による解散等,7011001095682,令和４年４月１日東京都渋谷区桜丘町２６番１号ＧＭＯコネクト株式会社（7011001095682）に合併し解散,2017-07-26,1,,,,,ジーエムオーライブゲームス,0
2054,8013201006542,登記記録の閉鎖等,0,2022-06-27,2022-06-14,株式会社協和工芸社,,株式会社,東京都,目黒区,下目黒１丁目２番１８号,,13,110,1530064,,,2022-06-14,清算の結了等,,,2015-10-05,1,,,,,キョウワコウゲイシャ,0
2059,8020002020516,登記記録の閉鎖等,0,2022-06-27,2022-06-21,有限会社旭冷熱機械,,有限会社,神奈川県,横浜市旭区,川井宿町７番地９,,14,112,2410804,,,2022-06-21,清算の結了等,,,2015-10-05,1,,,,,,0
2065,8021001061294,登記記録の閉鎖等,0,2022-06-27,2022-06-01,Ｂ－Ｍａｘ　Ｒａｃｉｎｇ株式会社,,株式会社,神奈川県,綾瀬市,深谷中８丁目８番２号,,14,218,2521107,,,2022-06-01,合併による解散等,5021001048039,令和４年６月１日神奈川県綾瀬市深谷上八丁目１６番９号Ｂ－ＭＡＸ　ＥＮＧＩＮＥＥＲＩＮＧ株式会社（5021001048039）に合併し解散,2017-02-06,1,,,,,ビーマックスレーシング,0
2068,8021002013864,登記記録の閉鎖等,0,2022-06-27,2022-06-20,明日香不動産有限会社,,有限会社,神奈川県,鎌倉市,材木座２丁目３番２１号,,14,204,2480013,,,2022-06-20,清算の結了等,,,2015-10-05,1,,,,,アスカフドウサン,0
2073,8021002033978,登記記録の閉鎖等,0,2022-06-27,2022-06-20,有限会社工藤工業,,有限会社,神奈川県,厚木市,上依知５２番地の２,,14,212,2430801,,,2022-06-20,清算の結了等,,,2015-10-05,1,,,,,クドウコウギョウ,0
2077,8021005005462,登記記録の閉鎖等,0,2022-06-27,2022-06-20,特定非営利活動法人移動サービスぎんのすず,,その他の設立登記法人,神奈川県,藤沢市,片瀬４丁目１８番２４－５０２号,,14,205,2510032,,,2022-06-20,清算の結了等,,,2015-10-05,1,,,,,イドウサービスギンノスズ,0
2091,8030002067077,登記記録の閉鎖等,0,2022-06-27,2022-06-17,サンデリ有限会社,,有限会社,埼玉県,新座市,東北２丁目３４番２－４０７号,,11,230,3520001,,,2022-06-17,清算の結了等,,,2015-10-05,1,,,,,サンデリ,0
2096,8030005016254,登記記録の閉鎖等,0,2022-06-27,2022-06-16,特定非営利活動法人モヨラの会,,その他の設立登記法人,埼玉県,狭山市,新狭山２丁目３番地の６プライディア新狭山２１２,,11,215,3501331,,,2022-06-16,清算の結了等,,,2015-10-05,1,,,,,モヨラノカイ,0
2104,8040003007832,登記記録の閉鎖等,0,2022-06-27,2022-06-20,合同会社シェリール,,合同会社,千葉県,八千代市,大和田新田１０３８番地２ダイアパレス八千代緑が丘２０５号,,12,221,2760046,,,2022-06-20,清算の結了等,,,2015-10-27,1,,,,,シェリール,0
2121,8080001013498,登記記録の閉鎖等,0,2022-06-27,2022-06-23,株式会社大畑,,株式会社,静岡県,榛原郡川根本町,徳山１７１０番地,,22,429,4280301,,,2022-06-23,清算の結了等,,,2015-10-05,1,,,,,オオハタ,0
2125,8090001005651,登記記録の閉鎖等,0,2022-06-27,2022-06-21,株式会社サンブランシュ,,株式会社,山梨県,甲府市,平瀬町９７１番地２,,19,201,4000083,,,2022-06-21,清算の結了等,,,2015-10-05,1,,,,,サンブランシュ,0
2129,8100001012613,登記記録の閉鎖等,0,2022-06-27,2022-06-22,株式会社アースクリーン,,株式会社,長野県,安曇野市,豊科高家５１２７番地７,,20,220,3998204,,,2022-06-22,清算の結了等,,,2015-10-05,1,,,,,アースクリーン,0
2131,8110001001680,登記記録の閉鎖等,0,2022-06-27,2022-06-21,株式会社コープサービス,,株式会社,新潟県,新潟市中央区,新光町６番地６,,15,103,9500965,,,2022-06-21,清算の結了等,,,2015-10-05,1,,,,,コープサービス,0
2133,8110002034639,登記記録の閉鎖等,0,2022-06-27,2022-06-17,有限会社大成保険,,有限会社,新潟県,佐渡市,両津湊３５２番地１０,,15,224,9520014,,,2022-06-17,清算の結了等,,,2015-10-05,1,,,,,タイセイホケン,0
2166,8140001077826,登記記録の閉鎖等,0,2022-06-27,2022-06-21,株式会社そらまめ,,株式会社,兵庫県,神戸市西区,岩岡町岩岡１２１７番地の１１,,28,111,6512401,,,2022-06-21,清算の結了等,,,2015-10-05,1,,,,,ソラマメ,0
2190,8180002000997,登記記録の閉鎖等,0,2022-06-27,2022-06-23,有限会社タナカ木工,,有限会社,愛知県,名古屋市守山区,天子田１丁目１６０１番地,,23,113,4630037,,,2022-06-23,清算の結了等,,,2015-10-05,1,,,,,タナカモッコウ,0
2202,8210002012592,登記記録の閉鎖等,0,2022-06-27,2022-06-23,エナ精工有限会社,,有限会社,福井県,丹生郡越前町,気比庄２９号１番地の４,,18,423,9160133,,,2022-06-23,清算の結了等,,,2015-10-05,1,,,,,エナセイコウ,0
2209,8240002000248,登記記録の閉鎖等,0,2022-06-27,2022-06-22,有限会社アイ・テック,,有限会社,広島県,広島市安芸区,矢野東５丁目２１番９－２０２号,,34,107,7360083,,,2022-06-22,清算の結了等,,,2015-10-05,1,,,,,アイテック,0
2210,8240002002715,登記記録の閉鎖等,0,2022-06-27,2022-06-23,有限会社大石マンシヨン,,有限会社,広島県,広島市中区,鶴見町１４番１７号,,34,101,7300045,,,2022-06-23,清算の結了等,,,2015-10-05,1,,,,,オオイシマンション,0
2231,8290002046088,登記記録の閉鎖等,0,2022-06-27,2022-06-17,有限会社友進工業,,有限会社,福岡県,飯塚市,相田７８番地１,,40,205,8200052,,,2022-06-17,清算の結了等,,,2015-10-05,1,,,,,ユウシンコウギョウ,0
2237,8300001009812,登記記録の閉鎖等,0,2022-06-27,2022-06-22,株式会社Ｄ．Ｃｅｎｔｅｒｐｒｉｓｅ,,株式会社,佐賀県,佐賀市,中央本町７番１０号牟田ビル１階,,41,201,8400825,,,2022-06-22,清算の結了等,,,2015-10-05,1,,,,,,0
2255,8380002002148,登記記録の閉鎖等,0,2022-06-27,2022-06-22,有限会社高橋土地建物,,有限会社,福島県,福島市,笹谷字中谷前２番地の１,,07,201,9600241,,,2022-06-22,清算の結了等,,,2015-10-05,1,,,,,タカハシトチタテモノ,0
2265,8430001072847,登記記録の閉鎖等,0,2022-06-27,2022-06-14,スミタスコネクション株式会社,,株式会社,北海道,札幌市厚別区,大谷地東１丁目３番２３号,,01,108,0040041,,,2022-06-14,清算の結了等,,,2016-12-05,1,,,,,スミタスコネクション,0
2267,8430002061626,登記記録の閉鎖等,0,2022-06-27,2022-06-14,有限会社辻農場,00089792,有限会社,北海道,新冠郡新冠町,字大富１５６番地,,01,604,0592427,,,2022-06-14,清算の結了等,,,2015-10-05,1,,,,,ツジノウジョウ,0
2331,9011301002452,登記記録の閉鎖等,0,2022-06-27,2022-06-23,株式会社国土技術,,株式会社,東京都,杉並区,高井戸東２丁目２６番１号,,13,115,1680072,,,2022-06-23,清算の結了等,,,2015-10-05,1,,,,,コクドギジュツ,0
2338,9011702009170,登記記録の閉鎖等,0,2022-06-27,2022-06-23,有限会社長谷川商会,,有限会社,東京都,江戸川区,南小岩７丁目４０番１７号,,13,123,1330056,,,2022-06-23,清算の結了等,,,2015-10-05,1,,,,,ハセガワショウカイ,0
2342,9012401007283,登記記録の閉鎖等,0,2022-06-27,2022-06-23,株式会社石原プロモーション,,株式会社,東京都,調布市,布田４丁目２０番地２,,13,208,1820024,,,2022-06-23,清算の結了等,,,2015-10-05,1,,,,,イシハラプロモーション,0
2348,9020001003470,登記記録の閉鎖等,0,2022-06-27,2022-06-21,横浜船舶電機株式会社,,株式会社,神奈川県,横浜市磯子区,丸山１丁目１番１２号,,14,107,2350011,,,2022-06-21,清算の結了等,,,2015-10-05,1,,,,,ヨコハマセンパクデンキ,0
2353,9020002048201,登記記録の閉鎖等,0,2022-06-27,2022-06-17,有限会社緑山コンサルタント,,有限会社,神奈川県,横浜市青葉区,あざみ野南１丁目３番地１－２１５号,,14,117,2250012,,,2022-06-17,清算の結了等,,,2015-10-05,1,,,,,ミドリヤマコンサルタント,0
2360,9021002012840,登記記録の閉鎖等,0,2022-06-27,2022-06-20,有限会社イーツ,,有限会社,神奈川県,茅ヶ崎市,本宿町９番３１号,,14,207,2530014,,,2022-06-20,清算の結了等,,,2015-10-05,1,,,,,イーツ,0
2368,9030002048836,登記記録の閉鎖等,0,2022-06-27,2022-06-16,有限会社コージ産業,,有限会社,埼玉県,三郷市,栄３丁目２２０番地２,,11,237,3410043,,,2022-06-16,清算の結了等,,,2015-10-05,1,,,,,コージサンギョウ,0
2372,9040002048604,登記記録の閉鎖等,0,2022-06-27,2022-06-15,有限会社堀越製作所,,有限会社,千葉県,松戸市,日暮４丁目１３番地の１２,,12,207,2702253,,,2022-06-15,清算の結了等,,,2015-10-05,1,,,,,ホリコシセイサクショ,0
2373,9040002063644,登記記録の閉鎖等,0,2022-06-27,2022-06-16,美尚クリーンサービス有限会社,,有限会社,千葉県,八街市,八街に５９番地,,12,230,2891103,,,2022-06-16,清算の結了等,,,2015-10-05,1,,,,,ビショウクリーンサービス,0
2395,9080101007548,登記記録の閉鎖等,0,2022-06-27,2022-06-23,株式会社エフ・シー・オー,,株式会社,静岡県,三島市,清住町２番１５号,,22,206,4110844,,,2022-06-23,清算の結了等,,,2015-10-05,1,,,,,エフシーオー,0
2397,9080401016232,登記記録の閉鎖等,0,2022-06-27,2022-06-22,株式会社インテリア・サノ,,株式会社,静岡県,磐田市,福田中島１０９番地,,22,211,4371204,,,2022-06-22,清算の結了等,,,2015-10-05,1,,,,,インテリアサノ,0
2401,9090001006120,登記記録の閉鎖等,0,2022-06-27,2022-06-09,株式会社東八運輸,,株式会社,山梨県,笛吹市,境川町小山４８５番地,,19,211,4060844,,,2022-06-09,清算の結了等,,,2020-01-28,1,,,,,トウハチウンユ,0
2402,9100001024665,登記記録の閉鎖等,0,2022-06-27,2022-06-22,株式会社鈴工建,,株式会社,長野県,東筑摩郡麻績村,麻４１１０番地２,,20,446,3997701,,,2022-06-22,清算の結了等,,,2015-10-05,1,,,,,スズコウケン,0
2408,9110002008526,登記記録の閉鎖等,0,2022-06-27,2022-06-21,有限会社エーエス商会,,有限会社,新潟県,新潟市北区,松浜８丁目８番２４号,,15,101,9503126,,,2022-06-21,清算の結了等,,,2015-10-05,1,,,,,,0
2427,9120002078056,登記記録の閉鎖等,0,2022-06-27,2022-06-23,有限会社遠藤製作所,,有限会社,大阪府,守口市,菊水通２丁目１７番７号,,27,209,5700032,,,2022-06-23,合併による解散等,3122001001400,令和４年６月１日大阪府東大阪市本庄西三丁目１番２１号三幸プロダクツ株式会社（3122001001400）に合併し解散,2015-10-05,1,,,,,,0
2439,9140001010158,登記記録の閉鎖等,0,2022-06-27,2022-06-21,みなとアセットリサーチ株式会社,,株式会社,兵庫県,神戸市中央区,筒井町３丁目１２番１４号,,28,110,6510071,,,2022-06-21,清算の結了等,,,2015-10-05,1,,,,,ミナトアセットリサーチ,0
2441,9140001069863,登記記録の閉鎖等,0,2022-06-27,2022-06-23,株式会社西宮自動車整備,,株式会社,兵庫県,西宮市,与古道町３番２６号,,28,204,6620917,,,2022-06-23,清算の結了等,,,2015-10-05,1,,,,,ニシノミヤジドウシャセイビ,0
2443,9140002004968,登記記録の閉鎖等,0,2022-06-27,2022-06-20,有限会社中井工務店,,有限会社,兵庫県,神戸市西区,櫨谷町寺谷４２６番地,,28,111,6512231,,,2022-06-20,清算の結了等,,,2015-10-05,1,,,,,ナカイコウムテン,0
2454,9180001007324,登記記録の閉鎖等,0,2022-06-27,2022-06-20,夫馬運輸株式会社,,株式会社,愛知県,名古屋市港区,いろは町４丁目３番地の８,,23,111,4550052,,,2022-06-20,清算の結了等,,,2015-10-05,1,,,,,,0
2455,9180001045951,登記記録の閉鎖等,0,2022-06-27,2022-06-23,株式会社イーアール東海,,株式会社,愛知県,北名古屋市,弥勒寺東３丁目７６番地５,,23,234,4810031,,,2022-06-23,清算の結了等,,,2015-10-05,1,,,,,イーアールトウカイ,0
2464,9180003010128,登記記録の閉鎖等,0,2022-06-27,2022-06-22,合資会社水野金型製作所,,合資会社,愛知県,春日井市,西山町３丁目３番地７,,23,206,4860803,,,2022-06-22,清算の結了等,,,2015-10-05,1,,,,,ミズノカナガタセイサクショ,0
2478,9230001013424,登記記録の閉鎖等,0,2022-06-27,2022-06-22,株式会社プロスパー,,株式会社,富山県,富山市,千歳町３丁目４番１５号,,16,201,9300018,,,2022-06-22,清算の結了等,,,2015-10-05,1,,,,,プロスパー,0
2480,9240001046101,登記記録の閉鎖等,0,2022-06-27,2022-06-23,株式会社バンビーノ,,株式会社,広島県,廿日市市,宮島町５３６番地９中屋ビル２階,,34,213,7390588,,,2022-06-23,清算の結了等,,,2015-10-05,1,,,,,,0
2506,9350001015243,登記記録の閉鎖等,0,2022-06-27,2022-06-24,株式会社ユアヘルス,,株式会社,宮崎県,宮崎市,中央通３番地５１　４Ｆ,,45,201,8800002,,,2022-06-24,清算の結了等,,,2018-04-24,1,,,,,ユアヘルス,0
2535,9440005002220,登記記録の閉鎖等,0,2022-06-27,2022-06-21,医療法人社団祁答院医院,00090559,その他の設立登記法人,北海道,寿都郡寿都町,字新栄町１０２番地,,01,392,0480401,,,2022-06-21,清算の結了等,,,2015-10-05,1,,,,,キドウインイイン,0
2541,9490005006605,登記記録の閉鎖等,0,2022-06-27,2022-06-17,一般社団法人フレンドライフ,,その他の設立登記法人,高知県,香南市,野市町中ノ村１４２５番地１３,,39,211,7815211,,,2022-06-17,清算の結了等,,,2018-10-19,1,,,,,フレンドライフ,0
