sequenceNumber,corporateNumber,process,correct,updateDate,changeDate,name,nameImageId,kind,prefectureName,cityName,streetNumber,addressImageId,prefectureCode,cityCode,postCode,addressOutside,addressOutsideImageId,closeDate,closeCause,successorCorporateNumber,changeCause,assignmentDate,latest,enName,enPrefectureName,enCityName,enAddressOutside,furigana,hihyoji
4,1010001143787,登記記録の閉鎖等,0,2025-01-20,2024-12-27,ＩＦＣ株式会社,,株式会社,東京都,千代田区,平河町２丁目７番５号,,13,101,1020093,,,2024-12-27,清算の結了等,,,2015-10-05,1,,,,,アイエフシー,0
5,1010001182711,登記記録の閉鎖等,0,2025-01-20,2024-12-17,株式会社ＰＲＩＳＭ,,株式会社,東京都,中央区,銀座５丁目６番１５号３階,,13,102,1040061,,,2024-12-17,清算の結了等,,,2017-04-12,1,,,,,,0
11,1010002004559,登記記録の閉鎖等,0,2025-01-20,2025-01-20,有限会社西山,,有限会社,熊本県,八代市,緑町１２番地１緑町シティマンション６０１号,,43,202,8660841,,,2025-01-20,登記官による閉鎖,,,2015-10-05,1,,,,,,0
23,1010902021769,登記記録の閉鎖等,0,2025-01-20,2025-01-14,有限会社ファミリー,,有限会社,東京都,世田谷区,等々力６丁目１１番９号,,13,112,1580082,,,2025-01-14,清算の結了等,,,2015-10-05,1,,,,,,0
41,1011601004684,登記記録の閉鎖等,0,2025-01-20,2025-01-20,東海フーズ株式会社,,株式会社,東京都,練馬区,高松５丁目２０番６号,,13,120,1790075,,,2025-01-20,登記官による閉鎖,,,2018-07-31,1,,,,,,0
43,1011602002076,登記記録の閉鎖等,0,2025-01-20,2025-01-20,有限会社オオニシ体育施設,,有限会社,東京都,練馬区,桜台６丁目２５番７号,,13,120,1760002,,,2025-01-20,登記官による閉鎖,,,2015-10-05,1,,,,,,0
45,1011602007488,登記記録の閉鎖等,0,2025-01-20,2025-01-20,有限会社中島製作所,,有限会社,東京都,練馬区,氷川台３丁目６番１８号,,13,120,1790084,,,2025-01-20,登記官による閉鎖,,,2015-10-05,1,,,,,,0
50,1013102007084,登記記録の閉鎖等,0,2025-01-20,2025-01-14,新島建材有限会社,,有限会社,東京都,西多摩郡奥多摩町,梅澤１３１番地５,,13,308,1980103,,,2025-01-14,清算の結了等,,,2015-10-05,1,,,,,ニイジマケンザイ,0
66,1020002084360,登記記録の閉鎖等,0,2025-01-20,2024-12-26,有限会社トランスアジアジャパンリィミテッド,,有限会社,神奈川県,川崎市中原区,小杉御殿町１丁目７０１番地,,14,133,2110068,,,2024-12-26,清算の結了等,,,2015-10-05,1,,,,,トランスアジアジャパンリィミテッド,0
67,1021001007840,登記記録の閉鎖等,0,2025-01-20,2025-01-17,アライアンス・コア株式会社,,株式会社,神奈川県,茅ヶ崎市,東海岸南５丁目３番６１－５－２号,,14,207,2530054,,,2025-01-17,清算の結了等,,,2015-10-05,1,,,,,アライアンスコア,0
72,1030001017254,登記記録の閉鎖等,0,2025-01-20,2025-01-06,株式会社ミック,,株式会社,東京都,豊島区,東池袋２丁目２３番２号ＵＢＧ東池袋ビル７Ｆ,,13,116,1700013,,,2025-01-06,合併による解散等,6011501022443,令和６年１２月３１日東京都豊島区東池袋二丁目２３番２号ＵＢＧ東池袋ビル７Ｆ株式会社第一広房ＴＯＫＹＯ（6011501022443）に合併し解散,2015-10-05,1,,,,,ミック,0
73,1030001032518,登記記録の閉鎖等,0,2025-01-20,2025-01-15,桑子建設株式会社,,株式会社,埼玉県,加須市,中央１丁目１１番４６号,,11,210,3470055,,,2025-01-15,清算の結了等,,,2015-10-05,1,,,,,クワコケンセツ,0
82,1030002005191,登記記録の閉鎖等,0,2025-01-20,2025-01-10,有限会社コスモプランニング,,有限会社,埼玉県,さいたま市北区,土呂町２丁目１２番地２０,,11,102,3310804,,,2025-01-10,清算の結了等,,,2015-10-05,1,,,,,コスモプランニング,0
105,1070001017390,登記記録の閉鎖等,0,2025-01-20,2025-01-16,モンテディオ総合企画株式会社,,株式会社,群馬県,みどり市,東町花輪８９番地,,10,212,3760307,,,2025-01-16,清算の結了等,,,2015-10-05,1,,,,,モンテディオソウゴウキカク,0
112,1090001016804,登記記録の閉鎖等,0,2025-01-20,2025-01-14,株式会社Ｍｉｋｉ　Ｃｒａｆｔ,,株式会社,山梨県,北杜市,大泉町西井出８２４０番地１６１５,,19,209,4091501,,,2025-01-14,清算の結了等,,,2021-01-13,1,,,,,ミキクラフト,0
129,1120102021641,登記記録の閉鎖等,0,2025-01-20,2025-01-14,有限会社ミヤノ設備,,有限会社,大阪府,貝塚市,水間５３９番地２,,27,208,5970104,,,2025-01-14,清算の結了等,,,2015-10-05,1,,,,,,0
137,1122001035251,登記記録の閉鎖等,0,2025-01-20,2025-01-08,Ａｑｏｕｒｓ　Ｓｕｎｓｈｉｎｅ株式会社,,株式会社,大阪府,東大阪市,六万寺町２丁目１番４５号,,27,227,5798061,,,2025-01-08,清算の結了等,,,2021-10-08,1,,,,,アクアサンシャイン,0
141,1140001003680,登記記録の閉鎖等,0,2025-01-20,2025-01-20,株式会社ちどり屋商店,,株式会社,兵庫県,神戸市灘区,船寺通１丁目１番１号,,28,102,6570842,,,2025-01-20,登記官による閉鎖,,,2015-10-05,1,,,,,チドリヤショウテン,0
143,1140001055805,登記記録の閉鎖等,0,2025-01-20,2025-01-20,株式会社池口,,株式会社,兵庫県,豊岡市,元町５番３２号,,28,209,6680026,,,2025-01-20,登記官による閉鎖,,,2017-08-04,1,,,,,,0
144,1140001059673,登記記録の閉鎖等,0,2025-01-20,2025-01-20,総合住研株式会社,,株式会社,兵庫県,姫路市,実法寺６１４番地,,28,201,6712244,,,2025-01-20,登記官による閉鎖,,,2015-10-05,1,,,,,ソウゴウジュウケン,0
147,1140001063295,登記記録の閉鎖等,0,2025-01-20,2025-01-20,株式会社アサヒ,,株式会社,兵庫県,神崎郡福崎町,福田９９番地,,28,443,6792212,,,2025-01-20,登記官による閉鎖,,,2015-10-05,1,,,,,,0
148,1140001065449,登記記録の閉鎖等,0,2025-01-20,2025-01-20,株式会社有本設計,,株式会社,兵庫県,姫路市,北条口４丁目３９番地,,28,201,6700935,,,2025-01-20,登記官による閉鎖,,,2015-10-05,1,,,,,,0
149,1140001085901,登記記録の閉鎖等,0,2025-01-20,2025-01-20,株式会社アイテック,,株式会社,兵庫県,南あわじ市,広田広田１３８番地の２,,28,224,6560122,,,2025-01-20,登記官による閉鎖,,,2015-10-05,1,,,,,,0
150,1140001094101,登記記録の閉鎖等,0,2025-01-20,2025-01-20,株式会社フリーヴ,,株式会社,兵庫県,明石市,二見町西二見２９２番地２－１０７号,,28,203,6740094,,,2025-01-20,登記官による閉鎖,,,2015-10-05,1,,,,,,0
154,1140002001931,登記記録の閉鎖等,0,2025-01-20,2025-01-20,有限会社ティーアンドティーコンサルティング,,有限会社,兵庫県,神戸市東灘区,森北町７丁目２１番３３号,,28,101,6580001,,,2025-01-20,登記官による閉鎖,,,2015-10-05,1,,,,,,0
155,1140002006939,登記記録の閉鎖等,0,2025-01-20,2025-01-20,有限会社安達呉服店,,有限会社,兵庫県,神戸市須磨区,南町２丁目２番７号,,28,107,6540036,,,2025-01-20,登記官による閉鎖,,,2015-10-05,1,,,,,,0
156,1140002007508,登記記録の閉鎖等,0,2025-01-20,2025-01-20,有限会社高大保険事務所,00040528,有限会社,兵庫県,神戸市須磨区,緑が丘２丁目２１番４号,,28,107,6540113,,,2025-01-20,登記官による閉鎖,,,2015-10-05,1,,,,,,0
157,1140002014891,登記記録の閉鎖等,0,2025-01-20,2025-01-20,有限会社田山電器,,有限会社,兵庫県,神戸市中央区,熊内町６丁目２番５号,,28,110,6510056,,,2025-01-20,登記官による閉鎖,,,2015-10-05,1,,,,,,0
158,1140002028974,登記記録の閉鎖等,0,2025-01-20,2025-01-20,子午線建設有限会社,,有限会社,兵庫県,明石市,太寺２丁目３番１９号,,28,203,6730845,,,2025-01-20,登記官による閉鎖,,,2015-10-05,1,,,,,,0
159,1140002029568,登記記録の閉鎖等,0,2025-01-20,2025-01-20,有限会社ファニー,,有限会社,兵庫県,明石市,魚住町中尾６９８番地１０,,28,203,6740082,,,2025-01-20,登記官による閉鎖,,,2015-10-05,1,,,,,,0
160,1140002031953,登記記録の閉鎖等,0,2025-01-20,2025-01-20,有限会社武田テック,,有限会社,兵庫県,たつの市,神岡町大住寺２４９番地の３４,,28,229,6794108,,,2025-01-20,登記官による閉鎖,,,2015-10-05,1,,,,,,0
161,1140002037059,登記記録の閉鎖等,0,2025-01-20,2025-01-20,有限会社オールウェーズ,,有限会社,兵庫県,高砂市,阿弥陀町魚橋４５４番地の１０,,28,216,6760822,,,2025-01-20,登記官による閉鎖,,,2015-10-05,1,,,,,,0
162,1140002037422,登記記録の閉鎖等,0,2025-01-20,2025-01-20,有限会社ユタカ住研,,有限会社,兵庫県,高砂市,神爪１丁目２番１０号,,28,216,6760808,,,2025-01-20,登記官による閉鎖,,,2015-10-05,1,,,,,,0
163,1140002039113,登記記録の閉鎖等,0,2025-01-20,2025-01-20,但馬モーテル有限会社,,有限会社,兵庫県,養父市,上野１０６０番地,,28,222,6670131,,,2025-01-20,登記官による閉鎖,,,2015-10-05,1,,,,,,0
164,1140002050441,登記記録の閉鎖等,0,2025-01-20,2025-01-20,姫興乳業有限会社,,有限会社,兵庫県,姫路市,福中町７５番地,,28,201,6700017,,,2025-01-20,登記官による閉鎖,,,2015-10-05,1,,,,,,0
165,1140002055127,登記記録の閉鎖等,0,2025-01-20,2025-01-20,有限会社アエラス,,有限会社,兵庫県,三田市,ゆりのき台２丁目２４番地４,,28,219,6691324,,,2025-01-20,登記官による閉鎖,,,2015-10-05,1,,,,,,0
166,1140002057874,登記記録の閉鎖等,0,2025-01-20,2025-01-20,有限会社マサキ加工所,,有限会社,兵庫県,西宮市,甲陽園東山町６番４９号,,28,204,6620012,,,2025-01-20,登記官による閉鎖,,,2015-10-05,1,,,,,,0
167,1140002069416,登記記録の閉鎖等,0,2025-01-20,2025-01-20,有限会社淡路森総合保険事務所,,有限会社,兵庫県,淡路市,久留麻１７９９番地の７,,28,226,6562311,,,2025-01-20,登記官による閉鎖,,,2015-10-05,1,,,,,,0
168,1140002070935,登記記録の閉鎖等,0,2025-01-20,2025-01-20,有限会社澤田重機サービス,,有限会社,兵庫県,姫路市,花田町勅旨１７５番地の１,,28,201,6710254,,,2025-01-20,登記官による閉鎖,,,2019-10-25,1,,,,,サワダジュウキサービス,0
169,1140003005519,登記記録の閉鎖等,0,2025-01-20,2025-01-20,滝の建設合資会社,,合資会社,兵庫県,神戸市垂水区,東垂水１丁目１０番１７号,,28,108,6550886,,,2025-01-20,登記官による閉鎖,,,2015-10-05,1,,,,,,0
170,1140005003025,登記記録の閉鎖等,0,2025-01-20,2025-01-20,東神金融事業協同組合,,その他の設立登記法人,兵庫県,神戸市中央区,磯上通７丁目１番２９号,,28,110,6510086,,,2025-01-20,登記官による閉鎖,,,2015-10-05,1,,,,,,0
171,1140005003149,登記記録の閉鎖等,0,2025-01-20,2025-01-20,兵庫県時計眼鏡貴金属商工業協同組合,,その他の設立登記法人,兵庫県,神戸市中央区,栄町通２丁目１０番１０号,,28,110,6500023,,,2025-01-20,登記官による閉鎖,,,2015-10-05,1,,,,,,0
172,1140005004758,登記記録の閉鎖等,0,2025-01-20,2025-01-20,特定非営利活動法人輝・きもの塾,,その他の設立登記法人,兵庫県,神戸市須磨区,禅昌寺町１丁目１１番１号,,28,107,6540001,,,2025-01-20,登記官による閉鎖,,,2015-10-05,1,,,,,,0
173,1140005004799,登記記録の閉鎖等,0,2025-01-20,2025-01-20,特定非営利活動法人神戸気楽苑,,その他の設立登記法人,兵庫県,神戸市西区,月が丘２丁目１７番地２,,28,111,6512217,,,2025-01-20,登記官による閉鎖,,,2015-10-05,1,,,,,,0
174,1140005005236,登記記録の閉鎖等,0,2025-01-20,2025-01-20,農業ビジネス事業協同組合,,その他の設立登記法人,兵庫県,神戸市中央区,中町通３丁目１番１５号,,28,110,6500027,,,2025-01-20,登記官による閉鎖,,,2015-10-05,1,,,,,,0
175,1140005006218,登記記録の閉鎖等,0,2025-01-20,2025-01-20,特定非営利活動法人兵庫協栄会,,その他の設立登記法人,兵庫県,明石市,魚住町清水２３９５番地の６,,28,203,6740074,,,2025-01-20,登記官による閉鎖,,,2015-10-05,1,,,,,,0
176,1140005015029,登記記録の閉鎖等,0,2025-01-20,2025-01-20,財団法人光久寺保存会,,その他の設立登記法人,兵庫県,姫路市,安富町安志７９番屋敷光久寺教院内,,28,201,6712401,,,2025-01-20,登記官による閉鎖,,,2015-10-05,1,,,,,,0
177,1140005020730,登記記録の閉鎖等,0,2025-01-20,2025-01-20,一般社団法人ａｅｄｉ　ｗｏｒｋｓ．,,その他の設立登記法人,兵庫県,尼崎市,杭瀬北新町３丁目９番地７,,28,202,6600815,,,2025-01-20,登記官による閉鎖,,,2015-10-05,1,,,,,,0
180,1160005008633,登記記録の閉鎖等,0,2025-01-20,2025-01-15,医療法人愛優会,,その他の設立登記法人,滋賀県,草津市,大路１丁目１２番２号,,25,206,5250032,,,2025-01-15,清算の結了等,,,2015-10-05,1,,,,,アイユウカイ,0
183,1180001126164,登記記録の閉鎖等,0,2025-01-20,2025-01-07,相互興業株式会社,,株式会社,愛知県,海部郡蟹江町,桜３丁目１７番地,,23,425,4970038,,,2025-01-07,清算の結了等,,,2017-01-11,1,,,,,ソウゴコウギョウ,0
192,1190002002371,登記記録の閉鎖等,0,2025-01-20,2025-01-15,有限会社成友物流,,有限会社,三重県,津市,安濃町内多２９８６番地の１,,24,201,5142303,,,2025-01-15,清算の結了等,,,2015-10-05,1,,,,,,0
198,1200001039834,登記記録の閉鎖等,0,2025-01-20,2025-01-16,株式会社Ａ．ｌａｂ,,株式会社,岐阜県,岐阜市,鍵屋西町１丁目７６番地,,21,201,5008314,,,2025-01-16,清算の結了等,,,2022-03-04,1,,,,,エィラボ,0
206,1230002002458,登記記録の閉鎖等,0,2025-01-20,2025-01-14,有限会社富山ティケィシィ,,有限会社,富山県,富山市,藤木７３９番地の１１号,,16,201,9300936,,,2025-01-14,清算の結了等,,,2015-10-05,1,,,,,トヤマティケィシィ,0
217,1290002025429,登記記録の閉鎖等,0,2025-01-20,2024-12-20,有限会社スターリング・システムズ,,有限会社,福岡県,福岡市東区,箱崎３丁目３６番３１－７０４号,,40,131,8120053,,,2024-12-20,清算の結了等,,,2015-10-05,1,,,,,,0
224,1330001019666,登記記録の閉鎖等,0,2025-01-20,2025-01-20,株式会社シェルトン,,株式会社,熊本県,菊池市,泗水町永２８３４番地６０,,43,210,8611204,,,2025-01-20,登記官による閉鎖,,,2015-10-05,1,,,,,,0
226,1330002004337,登記記録の閉鎖等,0,2025-01-20,2025-01-20,有限会社サンコーネオン電装,,有限会社,熊本県,熊本市東区,画図町下無田１４３２番地２５,,43,102,8610000,,,2025-01-20,登記官による閉鎖,,,2019-06-11,1,,,,,サンコーネオンデンソウ,0
227,1330002009360,登記記録の閉鎖等,0,2025-01-20,2025-01-20,有限会社平政園,,有限会社,熊本県,熊本市中央区,琴平２丁目６番３５号,,43,101,8600813,,,2025-01-20,登記官による閉鎖,,,2015-10-05,1,,,,,,0
228,1330002013957,登記記録の閉鎖等,0,2025-01-20,2025-01-20,有限会社マイカＪＰ,,有限会社,熊本県,熊本市中央区,新町３丁目２番３１－４０５号,,43,101,8600004,,,2025-01-20,登記官による閉鎖,,,2015-10-05,1,,,,,,0
229,1330002018312,登記記録の閉鎖等,0,2025-01-20,2025-01-20,株式会社城北青木生コンクリート,,株式会社,熊本県,山鹿市,菊鹿町下内田１６７２番地,,43,208,8610406,,,2025-01-20,登記官による閉鎖,,,2015-10-05,1,,,,,,0
230,1330002026538,登記記録の閉鎖等,0,2025-01-20,2025-01-20,有限会社八代農園,,有限会社,熊本県,八代市,松崎町３１番地の７,,43,202,8660884,,,2025-01-20,登記官による閉鎖,,,2015-10-05,1,,,,,,0
233,1330005008401,登記記録の閉鎖等,0,2025-01-20,2025-01-20,特定非営利活動法人熊本自立支援センター,,その他の設立登記法人,熊本県,熊本市南区,海路口町５番地,,43,104,8614124,,,2025-01-20,登記官による閉鎖,,,2015-10-05,1,,,,,,0
239,1380001030255,登記記録の閉鎖等,0,2025-01-20,2025-01-07,株式会社エムコンサルティング,,株式会社,福島県,郡山市,並木４丁目６番地の１０,,07,203,9638026,,,2025-01-07,清算の結了等,,,2019-08-15,1,,,,,エムコンサルティング,0
253,1480005000178,登記記録の閉鎖等,0,2025-01-20,2025-01-17,医療法人久次米医院,,その他の設立登記法人,徳島県,名東郡佐那河内村,上字中辺８０番地１,,36,321,7714102,,,2025-01-17,清算の結了等,,,2015-10-05,1,,,,,クジメイイン,0
259,2010001014830,登記記録の閉鎖等,0,2025-01-20,2024-12-27,株式会社ギミック,,株式会社,東京都,千代田区,九段北１丁目１番７号,,13,101,1020073,,,2024-12-27,清算の結了等,,,2015-10-05,1,,,,,ギミック,0
261,2010001070353,登記記録の閉鎖等,0,2025-01-20,2025-01-14,株式会社インフィニットＫＭ,,株式会社,香川県,高松市,朝日町５丁目３番８５号,,37,201,7600065,,,2025-01-14,清算の結了等,,,2015-10-05,1,,,,,インフィニットケーエム,0
270,2010003022559,登記記録の閉鎖等,0,2025-01-20,2024-12-27,合同会社ＲＳ高萩・つがる,,合同会社,東京都,千代田区,飯田橋１丁目３番２号曙杉館４階ＲＳＭ清和コンサルティング株式会社内,,13,101,1020072,,,2024-12-27,清算の結了等,,,2015-10-23,1,,,,,アールエスタカハギツガル,0
302,2010903001612,登記記録の閉鎖等,0,2025-01-20,2025-01-15,株式会社花晃,,株式会社,東京都,杉並区,高井戸東１丁目３１番７号,,13,115,1680072,,,2025-01-15,清算の結了等,,,2015-10-05,1,,,,,カコウ,0
305,2010905002402,登記記録の閉鎖等,0,2025-01-20,2025-01-08,特定非営利活動法人ここよみ,,その他の設立登記法人,東京都,世田谷区,世田谷２丁目１２番５号,,13,112,1540017,,,2025-01-08,清算の結了等,,,2015-10-05,1,,,,,ココヨミ,0
318,2011103011749,登記記録の閉鎖等,0,2025-01-20,2025-01-06,合同会社ジェイ・エス・ディー,,合同会社,東京都,新宿区,下宮比町１番４号,,13,104,1620822,,,2025-01-06,合併による解散等,5011103012678,令和７年１月１日東京都新宿区下宮比町１番４号合同会社ジェイ・イー・エイチ（5011103012678）に合併し解散,2022-05-17,1,,,,,ジェイエスディー,0
329,2011402001995,登記記録の閉鎖等,0,2025-01-20,2025-01-15,有限会社小川藤夫,,有限会社,東京都,板橋区,成増４丁目１２番５号,,13,119,1750094,,,2025-01-15,清算の結了等,,,2015-10-05,1,,,,,オガワフジオ,0
330,2011502007827,登記記録の閉鎖等,0,2025-01-20,2025-01-10,有限会社金屋電機製作所,,有限会社,東京都,荒川区,東日暮里６丁目３１番４号,,13,118,1160014,,,2025-01-10,清算の結了等,,,2015-10-05,1,,,,,カナヤデンキセイサクショ,0
332,2011601001020,登記記録の閉鎖等,0,2025-01-20,2025-01-20,株式会社エヌ・アイ・シー,,株式会社,東京都,練馬区,大泉学園町７丁目１１番３１号,,13,120,1780061,,,2025-01-20,登記官による閉鎖,,,2018-09-26,1,,,,,エヌアイシー,0
335,2011602000665,登記記録の閉鎖等,0,2025-01-20,2025-01-20,有限会社アルゴジャパン,,有限会社,東京都,練馬区,南大泉２丁目３番３９号,,13,120,1780064,,,2025-01-20,登記官による閉鎖,,,2015-10-05,1,,,,,,0
336,2011602005879,登記記録の閉鎖等,0,2025-01-20,2025-01-20,有限会社ソノック,,有限会社,東京都,練馬区,旭丘２丁目３５番２号,,13,120,1760005,,,2025-01-20,登記官による閉鎖,,,2015-10-05,1,,,,,,0
337,2011602007966,登記記録の閉鎖等,0,2025-01-20,2025-01-20,阪神設備有限会社,,有限会社,東京都,練馬区,谷原２丁目１番９号,,13,120,1770032,,,2025-01-20,登記官による閉鎖,,,2015-10-05,1,,,,,,0
338,2011602008519,登記記録の閉鎖等,0,2025-01-20,2025-01-20,有限会社フォトライフ,,有限会社,東京都,練馬区,小竹町２丁目６７番２号,,13,120,1760004,,,2025-01-20,登記官による閉鎖,,,2015-10-05,1,,,,,,0
339,2011602010251,登記記録の閉鎖等,0,2025-01-20,2025-01-20,有限会社山田印刷,,有限会社,東京都,練馬区,桜台３丁目４２番２７－１０２号,,13,120,1760002,,,2025-01-20,登記官による閉鎖,,,2015-10-05,1,,,,,,0
341,2011605001470,登記記録の閉鎖等,0,2025-01-20,2025-01-20,特定非営利活動法人土屋スポーツ教育研究所,,その他の設立登記法人,東京都,練馬区,高松４丁目７番２１号２Ｆ,,13,120,1790075,,,2025-01-20,登記官による閉鎖,,,2015-10-05,1,,,,,,0
345,2011702001968,登記記録の閉鎖等,0,2025-01-20,2025-01-14,有限会社エヌティーエス,,有限会社,東京都,江戸川区,東葛西６丁目２番１１号,,13,123,1340084,,,2025-01-14,清算の結了等,,,2015-10-05,1,,,,,,0
355,2013301031784,登記記録の閉鎖等,0,2025-01-20,2025-01-06,マーレマニュファクチャリングサービス株式会社,,株式会社,東京都,豊島区,北大塚１丁目９番１２号,,13,116,1700004,,,2025-01-06,合併による解散等,8013301007523,令和７年１月１日東京都豊島区北大塚一丁目９番１２号マーレジャパン株式会社（8013301007523）に合併し解散,2015-10-05,1,,,,,マーレマニュファクチャリングサービス,0
361,2020001095960,登記記録の閉鎖等,0,2025-01-20,2025-01-09,株式会社ｐｒｓｍ,,株式会社,千葉県,市川市,鬼高４丁目７－６－９１４,,12,203,2720015,,,2025-01-09,清算の結了等,,,2015-10-05,1,,,,,プリズム,0
363,2020002002412,登記記録の閉鎖等,0,2025-01-20,2024-12-26,有限会社ウィズ,,有限会社,神奈川県,横浜市戸塚区,川上町６３９番地１ブレスタージュ東戸塚５０９号,,14,110,2440805,,,2024-12-26,清算の結了等,,,2015-10-05,1,,,,,ウィズ,0
393,2050001019982,登記記録の閉鎖等,0,2025-01-20,2025-01-09,株式会社正健,,株式会社,茨城県,かすみがうら市,牛渡５８７９番地２０,,08,230,3000213,,,2025-01-09,清算の結了等,,,2015-10-05,1,,,,,ショウケン,0
401,2060002028008,登記記録の閉鎖等,0,2025-01-20,2025-01-14,有限会社小山寝台,,有限会社,栃木県,小山市,城東５丁目６番２０号,,09,208,3230807,,,2025-01-14,清算の結了等,,,2015-10-05,1,,,,,オヤマシンダイ,0
404,2070002029178,登記記録の閉鎖等,0,2025-01-20,2025-01-17,有限会社小貫製作所,,有限会社,群馬県,太田市,小舞木町３９５番地,,10,205,3730818,,,2025-01-17,清算の結了等,,,2015-10-05,1,,,,,オヌキセイサクショ,0
408,2080005006900,登記記録の閉鎖等,0,2025-01-20,2025-01-14,特定非営利活動法人今川さん製作委員会,,その他の設立登記法人,静岡県,静岡市葵区,馬場町２７番地,,22,101,4200867,,,2025-01-14,清算の結了等,,,2016-06-23,1,,,,,イマガワサンセイサクイインカイ,0
412,2090005004548,登記記録の閉鎖等,0,2025-01-20,2025-01-14,日本印材協同組合,,その他の設立登記法人,山梨県,韮崎市,穂坂町宮久保６４５番地１号,,19,207,4070175,,,2025-01-14,清算の結了等,,,2015-10-05,1,,,,,ニホンインザイ,0
417,2110001016825,登記記録の閉鎖等,0,2025-01-20,2025-01-08,株式会社テック新東,,株式会社,新潟県,南蒲原郡田上町,大字田上乙１６４８番地,,15,361,9591502,,,2025-01-08,合併による解散等,6110001001732,令和６年１２月２０日新潟市中央区湊町通四ノ町３３４２番地３株式会社ＳＴＳ（6110001001732）に合併し解散,2015-10-05,1,,,,,,0
419,2120001034388,登記記録の閉鎖等,0,2025-01-20,2025-01-20,エーコー産業株式会社,,株式会社,熊本県,宇土市,走潟町７４０番地１,,43,211,8690404,,,2025-01-20,登記官による閉鎖,,,2015-10-05,1,,,,,,0
439,2120901035205,登記記録の閉鎖等,0,2025-01-20,2025-01-09,株式会社ギアボックス,,株式会社,大阪府,豊中市,利倉２丁目１８番１５号,,27,203,5610845,,,2025-01-09,清算の結了等,,,2015-10-05,1,,,,,,0
441,2122001004908,登記記録の閉鎖等,0,2025-01-20,2025-01-16,株式会社テックトーハン,,株式会社,大阪府,東大阪市,高井田中２丁目４番２８号,,27,227,5770065,,,2025-01-16,清算の結了等,,,2015-10-05,1,,,,,テックトーハン,0
450,2140001007557,登記記録の閉鎖等,0,2025-01-20,2025-01-20,株式会社コウベデザインセンター,,株式会社,兵庫県,神戸市中央区,下山手通５丁目５番１６号,,28,110,6500011,,,2025-01-20,登記官による閉鎖,,,2015-10-05,1,,,,,,0
451,2140001013571,登記記録の閉鎖等,0,2025-01-20,2025-01-20,辰己水産株式会社,,株式会社,兵庫県,神戸市兵庫区,中之島１丁目１番１号,,28,105,6520844,,,2025-01-20,登記官による閉鎖,,,2015-10-05,1,,,,,,0
452,2140001021797,登記記録の閉鎖等,0,2025-01-20,2025-01-20,株式会社ビューティードック,,株式会社,兵庫県,神戸市東灘区,岡本１丁目１１番２９,,28,101,6580072,,,2025-01-20,登記官による閉鎖,,,2015-10-05,1,,,,,,0
453,2140001023364,登記記録の閉鎖等,0,2025-01-20,2025-01-20,昌栄興産株式会社,,株式会社,兵庫県,神戸市東灘区,住吉宮町２丁目６番１号,,28,101,6580053,,,2025-01-20,登記官による閉鎖,,,2017-03-21,1,,,,,ショウエイコウサン,0
454,2140001024833,登記記録の閉鎖等,0,2025-01-20,2025-01-20,株式会社ハーリッジコーポレーション,,株式会社,兵庫県,神戸市中央区,加納町４丁目１０番２３－１２０１号,,28,110,6500001,,,2025-01-20,登記官による閉鎖,,,2015-10-05,1,,,,,,0
457,2140001027035,登記記録の閉鎖等,0,2025-01-20,2025-01-20,株式会社ＨＩＲＯ歯科商会,,株式会社,兵庫県,神戸市西区,福吉台２丁目９番地の１５,,28,111,6512413,,,2025-01-20,登記官による閉鎖,,,2015-10-05,1,,,,,,0
459,2140001029675,登記記録の閉鎖等,0,2025-01-20,2025-01-20,株式会社Ｗｏｒｌｄ－Ｗａｙ．ＩＮＴＬ,,株式会社,兵庫県,神戸市西区,岩岡町古郷３０３番地の５４,,28,111,6512404,,,2025-01-20,登記官による閉鎖,,,2015-10-05,1,,,,,,0
460,2140001030385,登記記録の閉鎖等,0,2025-01-20,2025-01-20,株式会社トラム,,株式会社,兵庫県,神戸市垂水区,塩屋町６丁目２４番８号,,28,108,6550872,,,2025-01-20,登記官による閉鎖,,,2015-10-05,1,,,,,,0
461,2140001055218,登記記録の閉鎖等,0,2025-01-20,2025-01-20,株式会社中央コンサル,,株式会社,兵庫県,尼崎市,瓦宮１丁目２番２０号,,28,202,6610971,,,2025-01-20,登記官による閉鎖,,,2015-10-05,1,,,,,,0
462,2140001056760,登記記録の閉鎖等,0,2025-01-20,2025-01-20,株式会社小林設計事務所,,株式会社,兵庫県,美方郡新温泉町,湯１２１９番地,,28,586,6696821,,,2025-01-20,登記官による閉鎖,,,2015-10-05,1,,,,,,0
463,2140001057032,登記記録の閉鎖等,0,2025-01-20,2025-01-20,ＴＥＲＡコーポレーション株式会社,,株式会社,兵庫県,神戸市中央区,生田町１丁目１番２２号,,28,110,6510092,,,2025-01-20,登記官による閉鎖,,,2015-10-05,1,,,,,,0
464,2140001069762,登記記録の閉鎖等,0,2025-01-20,2025-01-20,日伸興産株式会社,,株式会社,兵庫県,西宮市,北六甲台３丁目２０番６号,,28,204,6511413,,,2025-01-20,登記官による閉鎖,,,2015-10-05,1,,,,,,0
465,2140001082724,登記記録の閉鎖等,0,2025-01-20,2025-01-20,株式会社渕上工業,,株式会社,兵庫県,宝塚市,安倉北２丁目１１番１号,,28,214,6650821,,,2025-01-20,登記官による閉鎖,,,2015-10-05,1,,,,,,0
466,2140001089711,登記記録の閉鎖等,0,2025-01-20,2025-01-20,大和通信工業株式会社,,株式会社,兵庫県,神戸市兵庫区,駅南通５丁目２番２－１３１３号,,28,105,6520897,,,2025-01-20,登記官による閉鎖,,,2015-10-05,1,,,,,,0
467,2140001089991,登記記録の閉鎖等,0,2025-01-20,2025-01-20,株式会社歩歩,,株式会社,兵庫県,姫路市,夢前町前之庄２９３３番地２,,28,201,6712103,,,2025-01-20,登記官による閉鎖,,,2015-10-05,1,,,,,,0
468,2140001092616,登記記録の閉鎖等,0,2025-01-20,2025-01-20,株式会社ブロスターズ,,株式会社,兵庫県,神戸市須磨区,磯馴町６丁目２－１５－１Ｆ,,28,107,6540047,,,2025-01-20,登記官による閉鎖,,,2015-10-05,1,,,,,,0
473,2140002002838,登記記録の閉鎖等,0,2025-01-20,2025-01-20,有限会社イツワ自動車機器,,有限会社,兵庫県,神戸市灘区,大石東町２丁目６番２１号,,28,102,6570043,,,2025-01-20,登記官による閉鎖,,,2015-10-05,1,,,,,,0
474,2140002004082,登記記録の閉鎖等,0,2025-01-20,2025-01-20,アクトニー有限会社,,有限会社,兵庫県,神戸市西区,春日台９丁目１４番地の１０,,28,111,6512276,,,2025-01-20,登記官による閉鎖,,,2015-10-05,1,,,,,,0
475,2140002006483,登記記録の閉鎖等,0,2025-01-20,2025-01-20,有限会社ひまわりハウス,,有限会社,兵庫県,神戸市垂水区,つつじが丘７丁目１７３４番地の１２６,,28,108,6550853,,,2025-01-20,登記官による閉鎖,,,2015-10-05,1,,,,,,0
476,2140002021887,登記記録の閉鎖等,0,2025-01-20,2025-01-20,有限会社ゆいまーる,,有限会社,兵庫県,神戸市兵庫区,上沢通６丁目４番９－８０３号,,28,105,6520046,,,2025-01-20,登記官による閉鎖,,,2015-10-05,1,,,,,,0
477,2140002023388,登記記録の閉鎖等,0,2025-01-20,2025-01-20,有限会社睦,,有限会社,兵庫県,神戸市長田区,若松町１０丁目２番１号,,28,106,6530038,,,2025-01-20,登記官による閉鎖,,,2015-10-05,1,,,,,,0
478,2140002041068,登記記録の閉鎖等,0,2025-01-20,2025-01-20,有限会社サワムラ商店,,有限会社,兵庫県,尼崎市,大庄西町３丁目１２番５号,,28,202,6600077,,,2025-01-20,登記官による閉鎖,,,2015-10-05,1,,,,,,0
479,2140002057758,登記記録の閉鎖等,0,2025-01-20,2025-01-20,有限会社プロトインパクト,,有限会社,兵庫県,西宮市,剣谷町１６番２４号,,28,204,6620099,,,2025-01-20,登記官による閉鎖,,,2019-08-06,1,,,,,プロトインパクト,0
480,2140002060951,登記記録の閉鎖等,0,2025-01-20,2025-01-20,有限会社アイホーム,,有限会社,兵庫県,西宮市,高座町６番１２号,,28,204,6620872,,,2025-01-20,登記官による閉鎖,,,2015-10-05,1,,,,,,0
481,2140002064060,登記記録の閉鎖等,0,2025-01-20,2025-01-20,有限会社エム・ディ・エス,,有限会社,兵庫県,伊丹市,西台２丁目５番１３号,,28,207,6640858,,,2025-01-20,登記官による閉鎖,,,2015-10-05,1,,,,,,0
482,2140002068565,登記記録の閉鎖等,0,2025-01-20,2025-01-20,有限会社リードプライマー,,有限会社,兵庫県,川西市,清和台西１丁目６番地の９５,,28,217,6660143,,,2025-01-20,登記官による閉鎖,,,2015-10-05,1,,,,,,0
483,2140002070926,登記記録の閉鎖等,0,2025-01-20,2025-01-20,有限会社広田合名,,有限会社,兵庫県,三木市,福井３丁目７番１８号,,28,215,6730433,,,2025-01-20,登記官による閉鎖,,,2019-08-19,1,,,,,ヒロタゴウメイ,0
485,2140005003362,登記記録の閉鎖等,0,2025-01-20,2025-01-20,神戸市連多聞協同組合,,その他の設立登記法人,兵庫県,神戸市垂水区,本多聞４丁目１番２５８号,,28,108,6550006,,,2025-01-20,登記官による閉鎖,,,2015-10-05,1,,,,,,0
486,2140005008535,登記記録の閉鎖等,0,2025-01-20,2025-01-20,企業組合丹波の木こり,,その他の設立登記法人,兵庫県,丹波市,氷上町下新庄１０２９番地,,28,223,6693614,,,2025-01-20,登記官による閉鎖,,,2015-10-05,1,,,,,,0
487,2140005021348,登記記録の閉鎖等,0,2025-01-20,2025-01-20,特定非営利活動法人外国人住民支援事務局ＳＯＳ丹波,,その他の設立登記法人,兵庫県,丹波篠山市,魚屋町３１番地１井本ビル１階ハ号室,,28,221,6692336,,,2025-01-20,登記官による閉鎖,,,2015-10-05,1,,,,,,0
488,2180001006191,登記記録の閉鎖等,0,2025-01-20,2025-01-06,大村株式会社,,株式会社,愛知県,名古屋市港区,津金２丁目９番１０号,,23,111,4550004,,,2025-01-06,清算の結了等,,,2015-10-05,1,,,,,オオムラ,0
492,2180001088321,登記記録の閉鎖等,0,2025-01-20,2025-01-06,株式会社さくらクリエイト,,株式会社,愛知県,岩倉市,栄町２丁目９４番地,,23,228,4820022,,,2025-01-06,清算の結了等,,,2015-10-05,1,,,,,サクラクリエイト,0
517,2210001011551,登記記録の閉鎖等,0,2025-01-20,2025-01-16,株式会社鎌清,,株式会社,福井県,越前市,幸町３番３０号,,18,209,9150075,,,2025-01-16,清算の結了等,,,2015-10-05,1,,,,,カマセ,0
520,2230002014493,登記記録の閉鎖等,0,2025-01-20,2025-01-14,有限会社田澤健康医学研究所,,有限会社,富山県,射水市,南太閤山７丁目１８番地,,16,211,9390364,,,2025-01-14,清算の結了等,,,2015-10-05,1,,,,,タザワケンコウイガクケンキュウショ,0
522,2240002050554,登記記録の閉鎖等,0,2025-01-20,2025-01-14,有限会社弘徳海運,,有限会社,広島県,尾道市,西御所町７番５号,,34,205,7220037,,,2025-01-14,清算の結了等,,,2015-10-05,1,,,,,コウトクカイウン,0
530,2330001009807,登記記録の閉鎖等,0,2025-01-20,2025-01-20,株式会社ＰＣ病院Ｒファミリー,,株式会社,熊本県,天草市,楠浦町１０３９－１,,43,215,8630044,,,2025-01-20,登記官による閉鎖,,,2015-10-05,1,,,,,,0
531,2330001017479,登記記録の閉鎖等,0,2025-01-20,2025-01-20,株式会社トウゲ,,株式会社,熊本県,熊本市中央区,世安町５１０番地２,,43,101,8600823,,,2025-01-20,登記官による閉鎖,,,2015-10-05,1,,,,,,0
533,2330002000038,登記記録の閉鎖等,0,2025-01-20,2025-01-20,有限会社アイ・ケイ・コーポレーション,,有限会社,熊本県,熊本市中央区,黒髪２丁目２５番１４号,,43,101,8600862,,,2025-01-20,登記官による閉鎖,,,2015-10-05,1,,,,,,0
534,2330002001473,登記記録の閉鎖等,0,2025-01-20,2025-01-20,有限会社センスコーポレーション,,有限会社,熊本県,熊本市中央区,九品寺１丁目７－８－１０２,,43,101,8620976,,,2025-01-20,登記官による閉鎖,,,2015-10-05,1,,,,,,0
535,2330002007462,登記記録の閉鎖等,0,2025-01-20,2025-01-20,有限会社内藤建設,,有限会社,熊本県,熊本市南区,御幸笛田２丁目８番７号,,43,104,8614172,,,2025-01-20,登記官による閉鎖,,,2015-10-05,1,,,,,,0
536,2330002016901,登記記録の閉鎖等,0,2025-01-20,2025-01-20,有限会社荒木獣医科診療所,,有限会社,熊本県,合志市,福原２２７４番地２,,43,216,8611116,,,2025-01-20,登記官による閉鎖,,,2015-10-05,1,,,,,,0
537,2330002020093,登記記録の閉鎖等,0,2025-01-20,2025-01-20,有限会社アグリ倶楽部,,有限会社,熊本県,上益城郡益城町,大字上陳４７２番地,,43,443,8612203,,,2025-01-20,登記官による閉鎖,,,2015-10-05,1,,,,,,0
540,2330002031529,登記記録の閉鎖等,0,2025-01-20,2025-01-20,有限会社ハリス商事,,有限会社,熊本県,八代市,高島町４５６４番地２,,43,202,8660014,,,2025-01-20,登記官による閉鎖,,,2019-03-19,1,,,,,ハリスショウジ,0
548,2350002013120,登記記録の閉鎖等,0,2025-01-20,2025-01-10,有限会社北生建設,,有限会社,宮崎県,延岡市,緑ケ丘４丁目４番１８号,,45,203,8820863,,,2025-01-10,清算の結了等,,,2015-10-05,1,,,,,ホクセイケンセツ,0
549,2360001026411,登記記録の閉鎖等,0,2025-01-20,2025-01-14,株式会社ウッドワーク,,株式会社,沖縄県,南城市,大里字古堅２６０番地２與那嶺店舗１０１,,47,215,9011207,,,2025-01-14,清算の結了等,,,2019-10-29,1,,,,,ウッドワーク,0
554,2380001014109,登記記録の閉鎖等,0,2025-01-20,2024-12-27,株式会社ヨシノ,,株式会社,福島県,いわき市,植田町本町３丁目５番地の５,,07,204,9748261,,,2024-12-27,清算の結了等,,,2015-10-05,1,,,,,ヨシノ,0
558,2430001076952,登記記録の閉鎖等,0,2025-01-20,2025-01-06,スノーホールディング株式会社,,株式会社,北海道,札幌市中央区,北三条西４丁目１番１号日本生命札幌ビル３階,,01,101,0600003,,,2025-01-06,合併による解散等,2430001002710,令和７年１月１日札幌市北区北八条西三丁目２８番株式会社メディプラン（2430001002710）に合併し解散,2018-07-09,1,,,,,スノーホールディング,0
564,2470002013414,登記記録の閉鎖等,0,2025-01-20,2025-01-14,有限会社栗田建具店,,有限会社,香川県,仲多度郡まんのう町,四條６１９番地３,,37,406,7660021,,,2025-01-14,清算の結了等,,,2015-10-05,1,,,,,クリタタテグテン,0
568,2500001009418,登記記録の閉鎖等,0,2025-01-20,2025-01-10,山内石油株式会社,,株式会社,愛媛県,西条市,三津屋９３番地５,,38,206,7991351,,,2025-01-10,清算の結了等,,,2015-10-05,1,,,,,ヤマウチセキユ,0
571,3010001156523,登記記録の閉鎖等,0,2025-01-20,2024-12-27,ビア・キャッツ株式会社,,株式会社,東京都,文京区,大塚６丁目１０番１４－６０２号,00049546,13,105,1120012,,,2024-12-27,清算の結了等,,,2015-10-05,1,,,,,ビアキャッツ,0
575,3010003032111,登記記録の閉鎖等,0,2025-01-20,2024-12-24,合同会社ＡＣＡヘルスケアアセット１号,,合同会社,東京都,千代田区,平河町２丁目１６番９号永田町グラスゲート６階,,13,101,1020093,,,2024-12-24,清算の結了等,,,2020-04-21,1,,,,,エーシーエーヘルスケアアセットイチゴウ,0
596,3010901028953,登記記録の閉鎖等,0,2025-01-20,2025-01-09,株式会社ＲＡＫＩＡＬＵＣＯ,,株式会社,東京都,世田谷区,瀬田１丁目９番２７－１０４号,,13,112,1580095,,,2025-01-09,清算の結了等,,,2015-10-05,1,,,,,ラキアルコ,0
597,3010901034679,登記記録の閉鎖等,0,2025-01-20,2025-01-07,株式会社ハッスルしもきた,,株式会社,東京都,世田谷区,代田６丁目１番２８号白洋ビル２０１－５号室,,13,112,1550033,,,2025-01-07,清算の結了等,,,2015-10-05,1,,,,,ハッスルシモキタ,0
611,3011601001969,登記記録の閉鎖等,0,2025-01-20,2025-01-20,栗原建設株式会社,,株式会社,東京都,練馬区,氷川台３丁目３６番１７号－１０４,,13,120,1790084,,,2025-01-20,登記官による閉鎖,,,2015-10-05,1,,,,,,0
614,3011602000961,登記記録の閉鎖等,0,2025-01-20,2025-01-20,有限会社いそがね,,有限会社,東京都,練馬区,富士見台３丁目３０番８号,,13,120,1770034,,,2025-01-20,登記官による閉鎖,,,2015-10-05,1,,,,,,0
615,3011602008121,登記記録の閉鎖等,0,2025-01-20,2025-01-20,有限会社早宮商運,,有限会社,東京都,練馬区,高松３丁目１番２５号,,13,120,1790075,,,2025-01-20,登記官による閉鎖,,,2015-10-05,1,,,,,,0
619,3013202001191,登記記録の閉鎖等,0,2025-01-20,2024-12-13,有限会社エンゼル企画,,有限会社,東京都,目黒区,中目黒３丁目１１番１３号,,13,110,1530061,,,2024-12-13,清算の結了等,,,2015-10-05,1,,,,,エンゼルキカク,0
624,3020001007691,登記記録の閉鎖等,0,2025-01-20,2024-12-26,株式会社デンサン,,株式会社,神奈川県,横浜市栄区,桂台南１丁目９番１号,,14,115,2470033,,,2024-12-26,清算の結了等,,,2015-10-05,1,,,,,デンサン,0
626,3020001054230,登記記録の閉鎖等,0,2025-01-20,2025-01-16,株式会社Ｒ＆Ｒ技工,,株式会社,群馬県,太田市,新田小金井町３２０番地７,,10,205,3700303,,,2025-01-16,清算の結了等,,,2015-10-05,1,,,,,アールアンドアールギコウ,0
631,3021001073294,登記記録の閉鎖等,0,2025-01-20,2025-01-16,株式会社東海設備設計,,株式会社,神奈川県,相模原市中央区,淵野辺本町２丁目１９番１７号,,14,152,2520202,,,2025-01-16,清算の結了等,,,2021-07-06,1,,,,,トウカイセツビセッケイ,0
638,3021002015931,登記記録の閉鎖等,0,2025-01-20,2025-01-16,有限会社若草,,有限会社,神奈川県,鎌倉市,今泉台７丁目２３番９号,,14,204,2470053,,,2025-01-16,清算の結了等,,,2015-10-05,1,,,,,ワカクサ,0
642,3030001049956,登記記録の閉鎖等,0,2025-01-20,2025-01-10,平野鉄筋株式会社,,株式会社,埼玉県,新座市,栗原４丁目６－１７ユニーブルひばりケ丘２０７,,11,230,3520035,,,2025-01-10,清算の結了等,,,2015-10-05,1,,,,,ヒラノテッキン,0
649,3030002044361,登記記録の閉鎖等,0,2025-01-20,2025-01-14,有限会社詩苑,,有限会社,埼玉県,草加市,谷塚町１０８０番地１,,11,221,3400023,,,2025-01-14,清算の結了等,,,2015-10-05,1,,,,,シエン,0
659,3040003008802,登記記録の閉鎖等,0,2025-01-20,2025-01-09,株式会社ＣＡＴＴＡＩＬ,,株式会社,千葉県,船橋市,湊町２丁目１番１８号勝山ビル２Ｆ,,12,204,2730011,,,2025-01-09,清算の結了等,,,2016-07-12,1,,,,,キャットテール,0
662,3050002036035,登記記録の閉鎖等,0,2025-01-20,2025-01-09,有限会社フジイワ建設,,有限会社,茨城県,久慈郡大子町,大字上金沢３２番地,,08,364,3193535,,,2025-01-09,清算の結了等,,,2015-10-05,1,,,,,フジイワケンセツ,0
669,3080001010590,登記記録の閉鎖等,0,2025-01-20,2025-01-10,株式会社ＴＲＥＳ　ＨＩＧＨ,,株式会社,静岡県,静岡市駿河区,馬渕４丁目４番８－２号,,22,102,4228063,,,2025-01-10,清算の結了等,,,2015-10-05,1,,,,,トレスハイ,0
687,3120001182038,登記記録の閉鎖等,0,2025-01-20,2025-01-17,株式会社ＰＲＩＭＥ　ＨＯＳＰＩＴＡＬＩＴＩＥＳ,,株式会社,東京都,墨田区,立川１丁目７番１１号,,13,107,1300023,,,2025-01-17,清算の結了等,,,2015-10-05,1,,,,,プライムホスピタリティズ,0
712,3140001000115,登記記録の閉鎖等,0,2025-01-20,2025-01-20,株式会社アドニクス,,株式会社,兵庫県,芦屋市,東芦屋町２５番４３号,00038963,28,206,6590095,,,2025-01-20,登記官による閉鎖,,,2015-10-05,1,,,,,,0
713,3140001008315,登記記録の閉鎖等,0,2025-01-20,2025-01-20,システムズ・クリッパー株式会社,,株式会社,兵庫県,神戸市中央区,御幸通８丁目１番６号神戸国際会館,,28,110,6510087,,,2025-01-20,登記官による閉鎖,,,2015-10-05,1,,,,,,0
714,3140001036984,登記記録の閉鎖等,0,2025-01-20,2025-01-20,ＴＡＫＵＭＩ　ＷＯＲＫＳ株式会社,,株式会社,兵庫県,明石市,旭が丘２番５号,,28,203,6730002,,,2025-01-20,登記官による閉鎖,,,2015-10-05,1,,,,,,0
715,3140001039129,登記記録の閉鎖等,0,2025-01-20,2025-01-20,長谷川建設株式会社,,株式会社,兵庫県,宍粟市,山崎町金谷６４１番地の２,,28,227,6712555,,,2025-01-20,登記官による閉鎖,,,2015-10-05,1,,,,,,0
716,3140001046513,登記記録の閉鎖等,0,2025-01-20,2025-01-20,コーセー建材株式会社,,株式会社,兵庫県,養父市,八鹿町朝倉４０１番地の３,,28,222,6670024,,,2025-01-20,登記官による閉鎖,,,2015-10-05,1,,,,,,0
717,3140001050498,登記記録の閉鎖等,0,2025-01-20,2025-01-20,株式会社ニシナカ,,株式会社,兵庫県,尼崎市,西難波町１丁目１０番１２号,,28,202,6600893,,,2025-01-20,登記官による閉鎖,,,2015-10-05,1,,,,,,0
718,3140001054284,登記記録の閉鎖等,0,2025-01-20,2025-01-20,さくら畳株式会社,,株式会社,兵庫県,尼崎市,西長洲町１丁目６－７６,,28,202,6600805,,,2025-01-20,登記官による閉鎖,,,2015-10-05,1,,,,,,0
719,3140001056586,登記記録の閉鎖等,0,2025-01-20,2025-01-20,株式会社上島亀雄商店,,株式会社,兵庫県,美方郡新温泉町,浜坂４６４番地の２,,28,586,6696702,,,2025-01-20,登記官による閉鎖,,,2015-10-05,1,,,,,,0
720,3140001067113,登記記録の閉鎖等,0,2025-01-20,2025-01-20,株式会社三田商会,,株式会社,兵庫県,三田市,南が丘２丁目１４番２７号,,28,219,6691535,,,2025-01-20,登記官による閉鎖,,,2015-10-05,1,,,,,,0
721,3140001068607,登記記録の閉鎖等,0,2025-01-20,2025-01-20,株式会社ケントク,,株式会社,兵庫県,西宮市,上甲子園３丁目６番１２号,,28,204,6638114,,,2025-01-20,登記官による閉鎖,,,2015-10-05,1,,,,,,0
724,3140001084892,登記記録の閉鎖等,0,2025-01-20,2025-01-20,株式会社マルニフルーツ,,株式会社,兵庫県,洲本市,栄町１丁目３番２７号,,28,205,6560026,,,2025-01-20,登記官による閉鎖,,,2015-10-05,1,,,,,,0
725,3140001088704,登記記録の閉鎖等,0,2025-01-20,2025-01-20,株式会社ＩＮＯ,,株式会社,兵庫県,神戸市中央区,御幸通８丁目１番６号,,28,110,6510087,,,2025-01-20,登記官による閉鎖,,,2015-10-05,1,,,,,,0
732,3140002000287,登記記録の閉鎖等,0,2025-01-20,2025-01-20,有限会社北実工務店,,有限会社,兵庫県,芦屋市,公光町３番２７号,,28,206,6590065,,,2025-01-20,登記官による閉鎖,,,2015-10-05,1,,,,,,0
733,3140002004503,登記記録の閉鎖等,0,2025-01-20,2025-01-20,有限会社小瀧車輌,,有限会社,兵庫県,神戸市西区,櫨谷町寺谷字猪谷９９番地の７,,28,111,6512231,,,2025-01-20,登記官による閉鎖,,,2015-10-05,1,,,,,,0
735,3140002006251,登記記録の閉鎖等,0,2025-01-20,2025-01-20,有限会社タニグチ,,有限会社,兵庫県,神戸市中央区,山本通３丁目１７番１－４０３号,,28,110,6500003,,,2025-01-20,登記官による閉鎖,,,2015-10-05,1,,,,,,0
736,3140002023429,登記記録の閉鎖等,0,2025-01-20,2025-01-20,有限会社ウッド・ヒル,,有限会社,兵庫県,神戸市中央区,江戸町１０１番地,,28,110,6500033,,,2025-01-20,登記官による閉鎖,,,2015-10-05,1,,,,,,0
737,3140002026869,登記記録の閉鎖等,0,2025-01-20,2025-01-20,有限会社高木商店,,有限会社,兵庫県,神戸市中央区,北本町通６丁目４番１４－１０４号,,28,110,6510075,,,2025-01-20,登記官による閉鎖,,,2015-10-05,1,,,,,,0
738,3140002027314,登記記録の閉鎖等,0,2025-01-20,2025-01-20,有限会社Ｈｅｒｍｉｔ　Ｃｒａｂ,,有限会社,兵庫県,神戸市中央区,中山手通１丁目９番２２号クレモーナビル３階,,28,110,6500004,,,2025-01-20,登記官による閉鎖,,,2015-10-05,1,,,,,,0
739,3140002029021,登記記録の閉鎖等,0,2025-01-20,2025-01-20,有限会社正和鉄工所,,有限会社,兵庫県,明石市,田町２丁目９番２７号,,28,203,6730025,,,2025-01-20,登記官による閉鎖,,,2015-10-05,1,,,,,,0
740,3140002036629,登記記録の閉鎖等,0,2025-01-20,2025-01-20,有限会社美奈商会,,有限会社,兵庫県,加古川市,東神吉町神吉５５７番地の２７,,28,210,6750057,,,2025-01-20,登記官による閉鎖,,,2015-10-05,1,,,,,,0
741,3140002044722,登記記録の閉鎖等,0,2025-01-20,2025-01-20,有限会社ジャパンライン,,有限会社,兵庫県,尼崎市,富松町４丁目２２番２２号,,28,202,6610003,,,2025-01-20,登記官による閉鎖,,,2015-10-05,1,,,,,,0
742,3140002050043,登記記録の閉鎖等,0,2025-01-20,2025-01-20,有限会社ニユースエヒロ,,有限会社,兵庫県,姫路市,古二階町３２番地カサディフォーレ５０１号室,,28,201,6700936,,,2025-01-20,登記官による閉鎖,,,2015-10-05,1,,,,,,0
743,3140002063169,登記記録の閉鎖等,0,2025-01-20,2025-01-20,有限会社アイビー・コスメサロン,,有限会社,兵庫県,伊丹市,南野２丁目２番３号,,28,207,6640865,,,2025-01-20,登記官による閉鎖,,,2015-10-05,1,,,,,,0
744,3140002065140,登記記録の閉鎖等,0,2025-01-20,2025-01-20,有限会社カノケン研究所,,有限会社,兵庫県,伊丹市,松ケ丘１丁目１８５番地,,28,207,6640024,,,2025-01-20,登記官による閉鎖,,,2015-10-05,1,,,,,,0
747,3140005003808,登記記録の閉鎖等,0,2025-01-20,2025-01-20,神戸書院企業組合,,その他の設立登記法人,兵庫県,神戸市中央区,下山手通６丁目３番９号,,28,110,6500011,,,2025-01-20,登記官による閉鎖,,,2015-10-05,1,,,,,,0
748,3140005004434,登記記録の閉鎖等,0,2025-01-20,2025-01-20,特定非営利活動法人日米国際教育文化協会,,その他の設立登記法人,兵庫県,神戸市灘区,将軍通２丁目１番９号山本方,,28,102,6570058,,,2025-01-20,登記官による閉鎖,,,2015-10-05,1,,,,,,0
749,3140005008609,登記記録の閉鎖等,0,2025-01-20,2025-01-20,社団法人銀蔦会,,その他の設立登記法人,兵庫県,丹波篠山市,栗柄字御嶽大林１１５番地の２３三岳ロッジ内,,28,221,6692711,,,2025-01-20,登記官による閉鎖,,,2015-10-05,1,,,,,,0
750,3140005013261,登記記録の閉鎖等,0,2025-01-20,2025-01-20,姫路電話取引業協同組合,,その他の設立登記法人,兵庫県,姫路市,本町６８番地,,28,201,6700012,,,2025-01-20,登記官による閉鎖,,,2015-10-05,1,,,,,,0
751,3140005019044,登記記録の閉鎖等,0,2025-01-20,2025-01-20,特定非営利活動法人Ｆ・Ｎネットワーク保育ふたば,,その他の設立登記法人,兵庫県,川西市,新田３丁目２番６号２０６,,28,217,6660125,,,2025-01-20,登記官による閉鎖,,,2015-10-05,1,,,,,,0
757,3180001107591,登記記録の閉鎖等,0,2025-01-20,2025-01-07,株式会社ヴィノヴォーチェ,,株式会社,愛知県,名古屋市瑞穂区,内方町１丁目２９番地の２,,23,108,4670068,,,2025-01-07,清算の結了等,,,2015-10-05,1,,,,,ヴィノヴォーチェ,0
771,3230001007183,登記記録の閉鎖等,0,2025-01-20,2025-01-14,株式会社浜多屋,,株式会社,富山県,魚津市,末広町９番７号,,16,204,9370059,,,2025-01-14,清算の結了等,,,2015-10-05,1,,,,,ハマタヤ,0
772,3230001008677,登記記録の閉鎖等,0,2025-01-20,2025-01-14,株式会社アカダマ,,株式会社,富山県,南砺市,福光６９１２番地,,16,210,9391610,,,2025-01-14,清算の結了等,,,2015-10-05,1,,,,,アカダマ,0
776,3260001035099,登記記録の閉鎖等,0,2025-01-20,2025-01-14,株式会社サンマルクイノベーションズ,,株式会社,岡山県,岡山市北区,平田１７３番地１０４,,33,101,7000952,,,2025-01-14,清算の結了等,,,2021-01-12,1,,,,,サンマルクイノベーションズ,0
784,3290001094415,登記記録の閉鎖等,0,2025-01-20,2025-01-15,株式会社アシスト,,株式会社,三重県,亀山市,みどり町３８－７,,24,210,5190106,,,2025-01-15,清算の結了等,,,2021-08-31,1,,,,,アシスト,0
786,3290002033941,登記記録の閉鎖等,0,2025-01-20,2024-12-23,有限会社マツダ,,有限会社,福岡県,古賀市,今の庄２丁目２１番６号,,40,223,8113117,,,2024-12-23,清算の結了等,,,2015-10-05,1,,,,,マツダ,0
794,3330001003263,登記記録の閉鎖等,0,2025-01-20,2025-01-20,冨田通商株式会社,,株式会社,熊本県,熊本市東区,戸島町１１７７番地１,,43,102,8618031,,,2025-01-20,登記官による閉鎖,,,2015-10-05,1,,,,,トミタツウショウ,0
795,3330001006464,登記記録の閉鎖等,0,2025-01-20,2025-01-20,アルエット・システム株式会社,,株式会社,熊本県,熊本市南区,野田２丁目３１番１７号,,43,104,8614114,,,2025-01-20,登記官による閉鎖,,,2015-10-05,1,,,,,,0
796,3330001009806,登記記録の閉鎖等,0,2025-01-20,2025-01-20,株式会社茂田,,株式会社,熊本県,阿蘇郡南阿蘇村,大字立野４６１番地２６５,,43,433,8691401,,,2025-01-20,登記官による閉鎖,,,2015-10-05,1,,,,,,0
797,3330001010747,登記記録の閉鎖等,0,2025-01-20,2025-01-20,株式会社アトリエ・アン,,株式会社,熊本県,合志市,須屋１４３０番地２,,43,216,8611102,,,2025-01-20,登記官による閉鎖,,,2015-10-05,1,,,,,,0
798,3330001012149,登記記録の閉鎖等,0,2025-01-20,2025-01-20,白谷機工株式会社,,株式会社,熊本県,荒尾市,荒尾３８４８番地５,,43,204,8640041,,,2025-01-20,登記官による閉鎖,,,2015-10-05,1,,,,,,0
799,3330001013824,登記記録の閉鎖等,0,2025-01-20,2025-01-20,株式会社林生工業,,株式会社,熊本県,八代市,敷川内町３７８８番地の１,,43,202,8695151,,,2025-01-20,登記官による閉鎖,,,2015-10-05,1,,,,,,0
800,3330001014715,登記記録の閉鎖等,0,2025-01-20,2025-01-09,株式会社大昇,,株式会社,熊本県,熊本市東区,戸島７丁目１４番５１号,,43,102,8618041,,,2025-01-09,清算の結了等,,,2015-10-05,1,,,,,ダイショウ,0
801,3330001023229,登記記録の閉鎖等,0,2025-01-20,2025-01-06,株式会社ＡＧＩラボテックス,,株式会社,熊本県,荒尾市,高浜１９７８番地,,43,204,8640025,,,2025-01-06,合併による解散等,1330001018362,令和６年１２月３１日熊本県荒尾市高浜１９７８番地株式会社旭製作所（1330001018362）に合併し解散,2016-09-23,1,,,,,エイジーアイラボテックス,0
804,3330002002421,登記記録の閉鎖等,0,2025-01-20,2025-01-20,有限会社カワムラ企画,,有限会社,熊本県,熊本市中央区,水前寺１丁目２番１０－３０２号,,43,101,8620950,,,2025-01-20,登記官による閉鎖,,,2015-10-05,1,,,,,,0
805,3330002021990,登記記録の閉鎖等,0,2025-01-20,2025-01-20,有限会社山本電設,,有限会社,熊本県,荒尾市,下井手１９３番地１６２,,43,204,8640011,,,2025-01-20,登記官による閉鎖,,,2015-10-05,1,,,,,,0
808,3330005004266,登記記録の閉鎖等,0,2025-01-20,2025-01-20,農事組合法人ふぁみりーふぁーむ,,その他の設立登記法人,熊本県,玉名郡南関町,大字豊永６４１３番地,,43,367,8610815,,,2025-01-20,登記官による閉鎖,,,2015-10-05,1,,,,,,0
809,3330005005215,登記記録の閉鎖等,0,2025-01-20,2025-01-20,阿蘇共栄コンクリートブロック協業組合,,その他の設立登記法人,熊本県,阿蘇郡南阿蘇村,大字下野１５８番地,,43,433,8691402,,,2025-01-20,登記官による閉鎖,,,2015-10-05,1,,,,,,0
810,3330005007970,登記記録の閉鎖等,0,2025-01-20,2025-01-20,特定非営利活動法人ケアサポート城西,,その他の設立登記法人,熊本県,熊本市西区,島崎４丁目７番７２号,,43,103,8600073,,,2025-01-20,登記官による閉鎖,,,2015-10-05,1,,,,,,0
822,3390001016177,登記記録の閉鎖等,0,2025-01-20,2025-01-14,株式会社協立,,株式会社,山形県,村山市,駅西２番８号,,06,208,9950038,,,2025-01-14,清算の結了等,,,2020-08-18,1,,,,,キョウリツ,0
823,3400002010383,登記記録の閉鎖等,0,2025-01-20,2025-01-07,有限会社明和産業,,有限会社,岩手県,遠野市,綾織町新里２５地割１２５番地１,,03,208,0280531,,,2025-01-07,清算の結了等,,,2015-10-05,1,,,,,メイワサンギョウ,0
827,3430001032392,登記記録の閉鎖等,0,2025-01-20,2025-01-06,株式会社フロイン調剤,,株式会社,北海道,札幌市豊平区,平岸二条７丁目１番９号,,01,105,0620932,,,2025-01-06,合併による解散等,2430001002710,令和７年１月１日札幌市北区北八条西三丁目２８番株式会社メディプラン（2430001002710）に合併し解散,2015-10-05,1,,,,,フロインチョウザイ,0
839,3480002004238,登記記録の閉鎖等,0,2025-01-20,2025-01-17,サンライズ商事有限会社,,有限会社,徳島県,徳島市,川内町平石古田５４番地,,36,201,7710136,,,2025-01-17,清算の結了等,,,2015-10-05,1,,,,,,0
846,4010001069303,登記記録の閉鎖等,0,2025-01-20,2024-12-26,株式会社ジーエスプラッツ,,株式会社,東京都,中央区,日本橋小舟町１０番１１号,,13,102,1030024,,,2024-12-26,清算の結了等,,,2015-10-05,1,,,,,ジーエスプラッツ,0
847,4010001070541,登記記録の閉鎖等,0,2025-01-20,2025-01-07,株式会社匠,,株式会社,東京都,新宿区,下宮比町２番２８号飯田橋ハイタウン９０４号,,13,104,1620822,,,2025-01-07,清算の結了等,,,2015-10-05,1,,,,,タクミ,0
857,4010003029081,登記記録の閉鎖等,0,2025-01-20,2024-12-13,合同会社ノード,,合同会社,東京都,中央区,日本橋１丁目１８番１４号,,13,102,1030027,,,2024-12-13,清算の結了等,,,2019-01-23,1,,,,,ノード,0
859,4010005037644,登記記録の閉鎖等,0,2025-01-20,2025-01-17,一般社団法人Ｄ１号ファンド管理,,その他の設立登記法人,東京都,千代田区,丸の内１丁目４番１号東京共同会計事務所内,,13,101,1000005,,,2025-01-17,清算の結了等,,,2023-12-18,1,,,,,ディーイチゴウファンドカンリ,0
862,4010401163424,登記記録の閉鎖等,0,2025-01-20,2024-12-24,株式会社メディカル・エスコート,,株式会社,東京都,港区,赤坂２丁目２１番５号赤坂・溜池山王ビジネスセンター,,13,103,1070052,,,2024-12-24,清算の結了等,,,2021-10-27,1,,,,,メディカルエスコート,0
870,4010501048054,登記記録の閉鎖等,0,2025-01-20,2025-01-09,株式会社ＨＴ　Ｓｔｙｌｅ,,株式会社,大阪府,摂津市,鳥飼本町４丁目１４番１７号３０８,,27,224,5660052,,,2025-01-09,清算の結了等,,,2021-11-04,1,,,,,エイチティースタイル,0
874,4010601001499,登記記録の閉鎖等,0,2025-01-20,2025-01-10,株式会社錦糸堀製材所,,株式会社,東京都,江東区,新木場１丁目１３番９号,,13,108,1360082,,,2025-01-10,合併による解散等,6010601004814,令和７年１月１日東京都江東区新木場三丁目７番１２号株式会社角田商店（6010601004814）に合併し解散,2015-10-05,1,,,,,キンシボリセイザイジョ,0
893,4011101015725,登記記録の閉鎖等,0,2025-01-20,2025-01-06,株式会社ニック金属,,株式会社,東京都,新宿区,舟町７番地,,13,104,1600006,,,2025-01-06,合併による解散等,7011101013882,令和７年１月１日東京都新宿区舟町７番地株式会社銅銀（7011101013882）に合併し解散,2015-10-05,1,,,,,ニックキンゾク,0
901,4011303003841,登記記録の閉鎖等,0,2025-01-20,2025-01-15,合同会社エール,,合同会社,東京都,杉並区,宮前２丁目１０番４２号,,13,115,1680081,,,2025-01-15,清算の結了等,,,2020-12-01,1,,,,,エール,0
905,4011502003386,登記記録の閉鎖等,0,2025-01-20,2025-01-14,有限会社造形舎,,有限会社,東京都,板橋区,氷川町２１番１２－２０２号グローリオ板橋本町パークサイド,,13,119,1730013,,,2025-01-14,清算の結了等,,,2015-10-05,1,,,,,ゾウケイシャ,0
909,4011602002602,登記記録の閉鎖等,0,2025-01-20,2025-01-20,有限会社加藤内装興業,,有限会社,東京都,練馬区,田柄４丁目２０番１９号,,13,120,1790073,,,2025-01-20,登記官による閉鎖,,,2015-10-05,1,,,,,,0
910,4011602006677,登記記録の閉鎖等,0,2025-01-20,2025-01-20,有限会社チョッパーズ,,有限会社,東京都,練馬区,桜台２丁目４４番１８号,,13,120,1760002,,,2025-01-20,登記官による閉鎖,,,2015-10-05,1,,,,,,0
911,4011602007246,登記記録の閉鎖等,0,2025-01-20,2025-01-20,東和ライフ企画有限会社,,有限会社,東京都,練馬区,南大泉６丁目１番２号,,13,120,1780064,,,2025-01-20,登記官による閉鎖,,,2015-10-05,1,,,,,,0
912,4011602008871,登記記録の閉鎖等,0,2025-01-20,2025-01-20,有限会社ベターリビング,,有限会社,東京都,練馬区,関町北２丁目５番９号,,13,120,1770051,,,2025-01-20,登記官による閉鎖,,,2015-10-05,1,,,,,,0
913,4011602022831,登記記録の閉鎖等,0,2025-01-20,2025-01-20,オールマイティー有限会社,,有限会社,東京都,練馬区,大泉学園町３丁目６番２３号,,13,120,1780061,,,2025-01-20,登記官による閉鎖,,,2015-10-05,1,,,,,,0
921,4011801043975,登記記録の閉鎖等,0,2025-01-20,2025-01-10,株式会社ＳｅｍＦｏｌｉｏ,,株式会社,東京都,足立区,千住１丁目４番１号東京芸術センター１０階,,13,121,1200034,,,2025-01-10,清算の結了等,,,2024-03-25,1,,,,,セムフォリオ,0
926,4012401032922,登記記録の閉鎖等,0,2025-01-20,2025-01-14,株式会社ｗｉｌｌｏｗ,,株式会社,東京都,武蔵野市,吉祥寺北町１丁目１番１号桜井ビル,,13,203,1800001,,,2025-01-14,合併による解散等,5430001071562,令和７年１月１日札幌市中央区南二条西一丁目５番丸大ビル４階４号室株式会社ＡＶＥＮＩＬ（5430001071562）に合併し解散,2017-07-07,1,,,,,ウィロー,0
934,4020001040691,登記記録の閉鎖等,0,2025-01-20,2024-12-26,ビーエスインターナショナル株式会社,,株式会社,神奈川県,横浜市青葉区,しらとり台１番地７,,14,117,2270054,,,2024-12-26,清算の結了等,,,2015-10-05,1,,,,,ビーエスインターナショナル,0
937,4020002105964,登記記録の閉鎖等,0,2025-01-20,2024-12-26,有限会社ロンドベル,,有限会社,神奈川県,川崎市川崎区,中島１丁目３番１号,,14,131,2100806,,,2024-12-26,清算の結了等,,,2015-10-05,1,,,,,ロンドベル,0
940,4021001035921,登記記録の閉鎖等,0,2025-01-20,2025-01-17,株式会社瀬戸技建,,株式会社,神奈川県,足柄上郡山北町,山北４７５番地１号Ｂ－１０２,,14,364,2580113,,,2025-01-17,清算の結了等,,,2015-10-05,1,,,,,,0
959,4030003004999,登記記録の閉鎖等,0,2025-01-20,2025-01-20,合同会社ファントム,,合同会社,東京都,練馬区,北町１丁目１番３号,,13,120,1790081,,,2025-01-20,登記官による閉鎖,,,2015-10-05,1,,,,,,0
960,4030003014206,登記記録の閉鎖等,0,2025-01-20,2025-01-14,ミクイ合同会社,,合同会社,埼玉県,和光市,丸山台１丁目１０番１５号ドゥジェーム・シュロス１０１号室,,11,229,3510112,,,2025-01-14,清算の結了等,,,2019-10-09,1,,,,,ミクイ,0
961,4030003016284,登記記録の閉鎖等,0,2025-01-20,2025-01-10,株式会社ｃｌｏｗ,,株式会社,埼玉県,さいたま市大宮区,北袋町１丁目６０１番地２・Ｆ３７８,,11,103,3300835,,,2025-01-10,清算の結了等,,,2020-12-03,1,,,,,クロウ,0
963,4040001040681,登記記録の閉鎖等,0,2025-01-20,2025-01-10,共栄流通株式会社,,株式会社,東京都,足立区,千住５丁目２３番３号ファーストステージ北千住２０１,,13,121,1200034,,,2025-01-10,清算の結了等,,,2015-10-05,1,,,,,キョウエイリュウツウ,0
969,4040002083630,登記記録の閉鎖等,0,2025-01-20,2025-01-09,有限会社千代田衣料,,有限会社,千葉県,山武郡芝山町,大里１６番３,,12,409,2891603,,,2025-01-09,清算の結了等,,,2015-10-05,1,,,,,チヨダイリョウ,0
977,4050001034930,登記記録の閉鎖等,0,2025-01-20,2025-01-20,株式会社慶悠会,,株式会社,兵庫県,神戸市中央区,山本通３丁目８番１５号,,28,110,6500003,,,2025-01-20,登記官による閉鎖,,,2015-10-05,1,,,,,,0
979,4050002041224,登記記録の閉鎖等,0,2025-01-20,2025-01-09,小川商事有限会社,,有限会社,茨城県,常総市,岡田５８５番地,,08,211,3002743,,,2025-01-09,清算の結了等,,,2015-10-05,1,,,,,オガワショウジ,0
984,4070001005896,登記記録の閉鎖等,0,2025-01-20,2025-01-16,株式会社ぐんま厚生会,,株式会社,群馬県,高崎市,菅谷町７７番地１０６,,10,202,3703522,,,2025-01-16,清算の結了等,,,2015-10-05,1,,,,,グンマコウセイカイ,0
991,4080402000438,登記記録の閉鎖等,0,2025-01-20,2025-01-10,株式会社ｔｏｍｏｃｏ,,株式会社,静岡県,静岡市葵区,瀬名中央１丁目６番７０－２号フォレスト瀬名２０２,,22,101,4200916,,,2025-01-10,清算の結了等,,,2015-10-05,1,,,,,トモコ,0
995,4100002004547,登記記録の閉鎖等,0,2025-01-20,2025-01-10,有限会社ホープクリーニング,,有限会社,長野県,長野市,大字東和田７４６番地１３,,20,201,3810038,,,2025-01-10,合併による解散等,7100001002854,令和７年１月１日長野市箱清水二丁目１２番２７号株式会社浜田屋クリーニング（7100001002854）に合併し解散,2015-10-05,1,,,,,ホープクリーニング,0
996,4100002006048,登記記録の閉鎖等,0,2025-01-20,2025-01-09,有限会社堀川工業,,有限会社,長野県,上水内郡信濃町,大字穂波１３９４番地,,20,583,3891314,,,2025-01-09,合併による解散等,6100001038049,令和７年１月１日長野県上水内郡信濃町大字穂波１３９４番地株式会社堀川工業（6100001038049）に合併し解散,2015-10-05,1,,,,,ホリカワコウギョウ,0
998,4120001146925,登記記録の閉鎖等,0,2025-01-20,2025-01-16,高圓運輸株式会社,,株式会社,大阪府,枚方市,池之宮４丁目７番２１号,,27,210,5730005,,,2025-01-16,清算の結了等,,,2015-10-05,1,,,,,コウエンウンユ,0
1016,4120101046232,登記記録の閉鎖等,0,2025-01-20,2025-01-14,トラストフーズ株式会社,,株式会社,大阪府,阪南市,自然田８０９番地の３,,27,232,5990212,,,2025-01-14,清算の結了等,,,2015-10-05,1,,,,,トラストフーズ,0
1024,4120902009701,登記記録の閉鎖等,0,2025-01-20,2025-01-08,有限会社エーエムシステム,,有限会社,大阪府,高槻市,城北町２丁目２番１２号,,27,207,5690071,,,2025-01-08,清算の結了等,,,2015-10-05,1,,,,,エーエムシステム,0
1029,4130001035350,登記記録の閉鎖等,0,2025-01-20,2025-01-10,株式会社関西ホーム,,株式会社,京都府,船井郡京丹波町,須知荒堀２０－４,,26,407,6220213,,,2025-01-10,清算の結了等,,,2015-10-05,1,,,,,カンサイホーム,0
1035,4140001005476,登記記録の閉鎖等,0,2025-01-20,2025-01-20,株式会社有機農産自給センター,,株式会社,兵庫県,神戸市須磨区,天神町１丁目３番１１号,,28,107,6540053,,,2025-01-20,登記官による閉鎖,,,2015-10-05,1,,,,,,0
1036,4140001007464,登記記録の閉鎖等,0,2025-01-20,2025-01-20,株式会社恒英,,株式会社,兵庫県,神戸市中央区,中山手通２丁目１０番２０号,,28,110,6500004,,,2025-01-20,登記官による閉鎖,,,2015-10-05,1,,,,,コウエイ,0
1037,4140001026729,登記記録の閉鎖等,0,2025-01-20,2025-01-20,南岡本メディカル株式会社,,株式会社,兵庫県,神戸市東灘区,岡本６丁目１２番３４号,,28,101,6580072,,,2025-01-20,登記官による閉鎖,,,2015-10-05,1,,,,,,0
1038,4140001033089,登記記録の閉鎖等,0,2025-01-20,2025-01-20,福井マネジメント株式会社,,株式会社,兵庫県,神戸市中央区,御幸通２丁目１－６－３０７,,28,110,6510087,,,2025-01-20,登記官による閉鎖,,,2015-10-05,1,,,,,,0
1039,4140001033634,登記記録の閉鎖等,0,2025-01-20,2025-01-20,株式会社カテキョドットコム,,株式会社,兵庫県,芦屋市,三条南町７番１４－２０２号,,28,206,6590086,,,2025-01-20,登記官による閉鎖,,,2015-10-05,1,,,,,,0
1040,4140001037890,登記記録の閉鎖等,0,2025-01-20,2025-01-20,株式会社メディアプラン,,株式会社,兵庫県,姫路市,飾磨区細江１７５番地エンブレイス姫路６０３,,28,201,6728064,,,2025-01-20,登記官による閉鎖,,,2015-10-05,1,,,,,,0
1041,4140001047080,登記記録の閉鎖等,0,2025-01-20,2025-01-20,株式会社ゴールドウェル,,株式会社,兵庫県,神戸市兵庫区,小河通３丁目１番１３号,,28,105,6520895,,,2025-01-20,登記官による閉鎖,,,2015-10-05,1,,,,,,0
1042,4140001047097,登記記録の閉鎖等,0,2025-01-20,2025-01-20,株式会社神戸ビジネスサポート,,株式会社,兵庫県,明石市,本町２丁目６番１５号,,28,203,6730892,,,2025-01-20,登記官による閉鎖,,,2015-10-05,1,,,,,,0
1043,4140001047618,登記記録の閉鎖等,0,2025-01-20,2025-01-20,株式会社生喜商店,,株式会社,兵庫県,尼崎市,神田中通６丁目２０６番地,,28,202,6600884,,,2025-01-20,登記官による閉鎖,,,2015-10-05,1,,,,,,0
1044,4140001048277,登記記録の閉鎖等,0,2025-01-20,2025-01-20,株式会社柏原工業所,,株式会社,兵庫県,尼崎市,三反田町３丁目１番３号,,28,202,6610024,,,2025-01-20,登記官による閉鎖,,,2015-10-05,1,,,,,,0
1046,4140001058854,登記記録の閉鎖等,0,2025-01-20,2025-01-20,株式会社こにし,,株式会社,兵庫県,姫路市,白浜町丙４５０番地の８,,28,201,6728023,,,2025-01-20,登記官による閉鎖,,,2015-10-05,1,,,,,,0
1047,4140001086632,登記記録の閉鎖等,0,2025-01-20,2025-01-20,株式会社日本住宅総合セフティー,,株式会社,兵庫県,神戸市北区,有野中町１丁目１番８号,,28,109,6511313,,,2025-01-20,登記官による閉鎖,,,2015-10-05,1,,,,,,0
1048,4140001093141,登記記録の閉鎖等,0,2025-01-20,2025-01-20,株式会社ＲＯＤＷＥＬＬ,,株式会社,兵庫県,神戸市灘区,灘北通５丁目４番７号,,28,102,6570835,,,2025-01-20,登記官による閉鎖,,,2015-10-05,1,,,,,,0
1051,4140002010302,登記記録の閉鎖等,0,2025-01-20,2025-01-20,有限会社橋本商会,,有限会社,兵庫県,神戸市北区,南五葉４丁目５番５号,,28,109,6511132,,,2025-01-20,登記官による閉鎖,,,2015-10-05,1,,,,,,0
1052,4140002019970,登記記録の閉鎖等,0,2025-01-20,2025-01-20,有限会社荻野商事,,有限会社,兵庫県,神戸市垂水区,塩屋台３丁目５番１６号,,28,108,6550864,,,2025-01-20,登記官による閉鎖,,,2015-10-05,1,,,,,,0
1053,4140002024970,登記記録の閉鎖等,0,2025-01-20,2025-01-20,有限会社環境エンジニアリング,,有限会社,兵庫県,神戸市北区,筑紫が丘５丁目１０番地の１８,,28,109,6511212,,,2025-01-20,登記官による閉鎖,,,2015-10-05,1,,,,,,0
1056,4140002032338,登記記録の閉鎖等,0,2025-01-20,2025-01-20,有限会社伊藤建設,,有限会社,兵庫県,たつの市,新宮町下野５２９番地の３,,28,229,6794312,,,2025-01-20,登記官による閉鎖,,,2015-10-05,1,,,,,,0
1057,4140002032536,登記記録の閉鎖等,0,2025-01-20,2025-01-20,有限会社岡田組,,有限会社,兵庫県,宍粟市,一宮町閏賀１３番地,,28,227,6714137,,,2025-01-20,登記官による閉鎖,,,2015-10-05,1,,,,,,0
1058,4140002039853,登記記録の閉鎖等,0,2025-01-20,2025-01-20,有限会社ありがたや,,有限会社,兵庫県,尼崎市,建家町９番地,,28,202,6600871,,,2025-01-20,登記官による閉鎖,,,2015-10-05,1,,,,,,0
1059,4140002043211,登記記録の閉鎖等,0,2025-01-20,2025-01-20,有限会社ロイヤルミヤザキ,,有限会社,兵庫県,尼崎市,善法寺町１６番７号,,28,202,6610973,,,2025-01-20,登記官による閉鎖,,,2015-10-05,1,,,,,,0
1060,4140002049919,登記記録の閉鎖等,0,2025-01-20,2025-01-20,有限会社中村貢商店,,有限会社,兵庫県,姫路市,辻井７丁目２番２５号,00041188,28,201,6700083,,,2025-01-20,登記官による閉鎖,,,2015-10-05,1,,,,,,0
1061,4140002052666,登記記録の閉鎖等,0,2025-01-20,2025-01-20,近畿産業有限会社,,有限会社,兵庫県,姫路市,花田町小川１１６２番地,,28,201,6710255,,,2025-01-20,登記官による閉鎖,,,2019-12-23,1,,,,,キンキサンギョウ,0
1064,4140003006869,登記記録の閉鎖等,0,2025-01-20,2025-01-20,ｅ－ｗａｖｅ合同会社,,合同会社,兵庫県,尼崎市,稲葉荘１丁目１９番２８号,,28,202,6600064,,,2025-01-20,登記官による閉鎖,,,2015-10-05,1,,,,,,0
1067,4140005002924,登記記録の閉鎖等,0,2025-01-20,2025-01-20,ダン事業協同組合,,その他の設立登記法人,兵庫県,神戸市東灘区,向洋町西６丁目,,28,101,6580033,,,2025-01-20,登記官による閉鎖,,,2015-10-05,1,,,,,,0
1068,4140005003294,登記記録の閉鎖等,0,2025-01-20,2025-01-20,全神電話事業協同組合,,その他の設立登記法人,兵庫県,神戸市長田区,四番町７丁目５０番地の１,,28,106,6530004,,,2025-01-20,登記官による閉鎖,,,2015-10-05,1,,,,,,0
1069,4140005020967,登記記録の閉鎖等,0,2025-01-20,2025-01-20,一般社団法人日本スポーツトレーナー認定協会,,その他の設立登記法人,兵庫県,姫路市,新在家中の町５番２３号,,28,201,6700094,,,2025-01-20,登記官による閉鎖,,,2015-10-05,1,,,,,,0
1074,4180001096033,登記記録の閉鎖等,0,2025-01-20,2025-01-15,株式会社かなん堂,,株式会社,愛知県,知多市,岡田字上中田５５番地の２,,23,224,4780021,,,2025-01-15,合併による解散等,4180001032814,令和７年１月１日岐阜県関市千疋字西柳原２００１番地松山製菓株式会社（4180001032814）に合併し解散,2015-10-05,1,,,,,カナンドウ,0
1075,4180001101354,登記記録の閉鎖等,0,2025-01-20,2024-12-27,株式会社ユタカ,,株式会社,愛知県,江南市,勝佐町西町１０４番地１,,23,217,4838037,,,2024-12-27,清算の結了等,,,2015-10-05,1,,,,,ユタカ,0
1082,4180002033365,登記記録の閉鎖等,0,2025-01-20,2025-01-07,有限会社山本ビル,,有限会社,愛知県,名古屋市中区,大須２丁目１４番４号,,23,106,4600011,,,2025-01-07,清算の結了等,,,2015-10-05,1,,,,,ヤマモトビル,0
1084,4180003018299,登記記録の閉鎖等,0,2025-01-20,2025-01-06,合同会社サン冨田,,合同会社,愛知県,名古屋市中村区,名駅南４丁目８番１４号,,23,105,4500003,,,2025-01-06,清算の結了等,,,2017-09-28,1,,,,,サントミタ,0
1108,4220003002141,登記記録の閉鎖等,0,2025-01-20,2025-01-09,ｉｖｏｒｙ合同会社,,合同会社,石川県,金沢市,木倉町２番１号,,17,201,9200988,,,2025-01-09,清算の結了等,,,2016-05-27,1,,,,,アイボリー,0
1110,4240001012702,登記記録の閉鎖等,0,2025-01-20,2025-01-17,株式会社ロイヤルパリシェ,,株式会社,広島県,広島市東区,牛田東２丁目１９番６－８０２号,,34,102,7320063,,,2025-01-17,清算の結了等,,,2015-10-05,1,,,,,ロイヤルパリシェ,0
1113,4240002010234,登記記録の閉鎖等,0,2025-01-20,2025-01-15,中国エアーテック有限会社,,有限会社,広島県,広島市安佐北区,あさひが丘８丁目２１番２号,,34,106,7313361,,,2025-01-15,清算の結了等,,,2015-10-05,1,,,,,チュウゴクエアーテック,0
1120,4290001051555,登記記録の閉鎖等,0,2025-01-20,2024-12-25,株式会社日本バイオ,,株式会社,福岡県,筑後市,大字長浜３７９番地１,,40,211,8330005,,,2024-12-25,清算の結了等,,,2015-10-05,1,,,,,ニホンバイオ,0
1130,4290803001765,登記記録の閉鎖等,0,2025-01-20,2025-01-07,合資会社ハナミズキ,,合資会社,福岡県,田川市,大字川宮１３３８－１,,40,206,8260042,,,2025-01-07,清算の結了等,,,2015-10-05,1,,,,,ハナミズキ,0
1134,4330001003683,登記記録の閉鎖等,0,2025-01-20,2025-01-20,株式会社農研コンサルタンツ,,株式会社,熊本県,熊本市中央区,保田窪１丁目１０番３８号,,43,101,8620926,,,2025-01-20,登記官による閉鎖,,,2015-10-05,1,,,,,,0
1135,4330001013113,登記記録の閉鎖等,0,2025-01-20,2025-01-20,三和服装株式会社,,株式会社,熊本県,宇城市,三角町波多２８４番地の３０,,43,213,8693205,,,2025-01-20,登記官による閉鎖,,,2015-10-05,1,,,,,サンワフクソウ,0
1136,4330001014177,登記記録の閉鎖等,0,2025-01-20,2025-01-20,株式会社岩本工業,,株式会社,熊本県,葦北郡芦北町,大字海浦７２５番地の３,,43,482,8695304,,,2025-01-20,登記官による閉鎖,,,2015-10-05,1,,,,,,0
1139,4330002001208,登記記録の閉鎖等,0,2025-01-20,2025-01-20,有限会社梅元酒店,,有限会社,熊本県,熊本市中央区,西子飼町１０番３号,,43,101,8600853,,,2025-01-20,登記官による閉鎖,,,2015-10-05,1,,,,,,0
1140,4330002006347,登記記録の閉鎖等,0,2025-01-20,2025-01-20,タカオ工業有限会社,,有限会社,熊本県,熊本市東区,健軍本町２４番１７号,,43,102,8620910,,,2025-01-20,登記官による閉鎖,,,2015-10-05,1,,,,,,0
1141,4330002010844,登記記録の閉鎖等,0,2025-01-20,2025-01-20,有限会社山菊,,有限会社,熊本県,熊本市中央区,横手３丁目２７番１３号,,43,101,8600046,,,2025-01-20,登記官による閉鎖,,,2015-10-05,1,,,,,,0
1143,4330002031072,登記記録の閉鎖等,0,2025-01-20,2025-01-20,有限会社福屋鉄工,,有限会社,熊本県,球磨郡多良木町,大字久米１６４１番地,,43,505,8680503,,,2025-01-20,登記官による閉鎖,,,2015-10-05,1,,,,,,0
1144,4330003002568,登記記録の閉鎖等,0,2025-01-20,2025-01-20,合資会社カメラの河崎観光写真社,,合資会社,熊本県,阿蘇市,内牧６２２番地の３,,43,214,8692301,,,2025-01-20,登記官による閉鎖,,,2015-10-05,1,,,,,,0
1145,4330003004705,登記記録の閉鎖等,0,2025-01-20,2025-01-20,合同会社ＳＯＬＩＣＯ　ＶＣ天草,,合同会社,熊本県,天草市,南新町１３番地２０,,43,215,8630031,,,2025-01-20,登記官による閉鎖,,,2015-10-05,1,,,,,,0
1146,4340001005729,登記記録の閉鎖等,0,2025-01-20,2025-01-14,株式会社ハマサキ,,株式会社,鹿児島県,鹿児島市,谷山中央２丁目４４３８番地,,46,201,8910141,,,2025-01-14,清算の結了等,,,2015-10-05,1,,,,,ハマサキ,0
1159,4400002008336,登記記録の閉鎖等,0,2025-01-20,2025-01-06,有限会社中島屋旅舘,,有限会社,岩手県,花巻市,末広町２番１３号,,03,205,0250079,,,2025-01-06,清算の結了等,,,2015-10-05,1,,,,,ナカシマヤリョカン,0
1160,4410001004178,登記記録の閉鎖等,0,2025-01-20,2025-01-14,株式会社日本ケアシステム,,株式会社,秋田県,潟上市,昭和大久保字街道下１０６番地２,,05,211,0181401,,,2025-01-14,清算の結了等,,,2015-10-05,1,,,,,ニホンケアシステム,0
1161,4420002019884,登記記録の閉鎖等,0,2025-01-20,2025-01-15,有限会社メゾン・ヨシダ,,有限会社,青森県,むつ市,柳町１丁目６番３号,,02,208,0350031,,,2025-01-15,清算の結了等,,,2015-10-05,1,,,,,メゾンヨシダ,0
1162,4420003002006,登記記録の閉鎖等,0,2025-01-20,2025-01-15,合同会社おっとりの部屋,,合同会社,青森県,青森市,小柳３丁目１番１２号,,02,201,0300915,,,2025-01-15,清算の結了等,,,2019-07-01,1,,,,,オットリノヘヤ,0
1168,4440002000140,登記記録の閉鎖等,0,2025-01-20,2025-01-17,有限会社安藤測量設計事務所,,有限会社,北海道,函館市,港町３丁目７番２２号,,01,202,0410821,,,2025-01-17,清算の結了等,,,2015-10-05,1,,,,,アンドウソクリョウセッケイジムショ,0
1189,5010001191295,登記記録の閉鎖等,0,2025-01-20,2024-12-25,株式会社ファイアフライ,,株式会社,東京都,文京区,湯島３丁目３５番１０号,,13,105,1130034,,,2024-12-25,清算の結了等,,,2018-04-24,1,,,,,ファイアフライ,0
1191,5010001209816,登記記録の閉鎖等,0,2025-01-20,2024-12-27,株式会社ＢＣＪ－４５,,株式会社,東京都,千代田区,丸の内１丁目１番１号パレスビル５階,,13,101,1000005,,,2024-12-27,清算の結了等,,,2020-05-27,1,,,,,ビーシージェイフォーティーファイブ,0
1199,5010005037742,登記記録の閉鎖等,0,2025-01-20,2025-01-17,一般社団法人京都悠洛,,その他の設立登記法人,東京都,千代田区,丸の内１丁目４番１号東京共同会計事務所内,,13,101,1000005,,,2025-01-17,清算の結了等,,,2024-01-17,1,,,,,キョウトユラ,0
1206,5010401101705,登記記録の閉鎖等,0,2025-01-20,2024-12-27,Ｌｕｘｏｒ　Ｓｏｌａｒ株式会社,,株式会社,東京都,千代田区,丸の内１丁目１番３号日本生命丸の内ガーデンタワー３階,,13,101,1000005,,,2024-12-27,清算の結了等,,,2015-10-05,1,,,,,ルクソールソーラー,0
1241,5011301008230,登記記録の閉鎖等,0,2025-01-20,2025-01-15,株式会社エム・ワイ・プロパティーズ,,株式会社,東京都,杉並区,和泉３丁目２７番１８号,,13,115,1680063,,,2025-01-15,清算の結了等,,,2015-10-05,1,,,,,エムワイプロパティーズ,0
1243,5011601005613,登記記録の閉鎖等,0,2025-01-20,2025-01-20,株式会社花光園,,株式会社,東京都,練馬区,貫井２丁目２番７号,,13,120,1760021,,,2025-01-20,登記官による閉鎖,,,2015-10-05,1,,,,,,0
1244,5011601013707,登記記録の閉鎖等,0,2025-01-20,2025-01-20,株式会社ホームス工房,,株式会社,東京都,練馬区,南大泉３丁目９番２０号,,13,120,1780064,,,2025-01-20,登記官による閉鎖,,,2015-10-05,1,,,,,,0
1245,5011601015257,登記記録の閉鎖等,0,2025-01-20,2025-01-20,ＭＫ保険企画株式会社,,株式会社,東京都,練馬区,大泉学園町７丁目１６番３２号,,13,120,1780061,,,2025-01-20,登記官による閉鎖,,,2015-10-05,1,,,,,,0
1246,5011601016692,登記記録の閉鎖等,0,2025-01-20,2025-01-20,株式会社さくら,,株式会社,東京都,練馬区,平和台１丁目３６番１５－１０２号,,13,120,1790083,,,2025-01-20,登記官による閉鎖,,,2015-10-05,1,,,,,,0
1247,5011601018210,登記記録の閉鎖等,0,2025-01-20,2025-01-20,グッドクリーンファン株式会社,,株式会社,東京都,練馬区,豊玉上２丁目２番１１－５０１号,,13,120,1760011,,,2025-01-20,登記官による閉鎖,,,2015-10-05,1,,,,,,0
1249,5011602000621,登記記録の閉鎖等,0,2025-01-20,2025-01-20,有限会社あやさめ,,有限会社,東京都,練馬区,石神井台２丁目１７番１号,,13,120,1770045,,,2025-01-20,登記官による閉鎖,,,2015-10-05,1,,,,,,0
1250,5011602004580,登記記録の閉鎖等,0,2025-01-20,2025-01-20,有限会社山友興産,,有限会社,東京都,練馬区,平和台１丁目１２番７号,,13,120,1790083,,,2025-01-20,登記官による閉鎖,,,2015-10-05,1,,,,,,0
1254,5012402010637,登記記録の閉鎖等,0,2025-01-20,2025-01-16,小黒タイル工業有限会社,,有限会社,東京都,調布市,緑ケ丘１丁目３７番６号,,13,208,1820001,,,2025-01-16,清算の結了等,,,2015-10-05,1,,,,,オグロタイルコウギョウ,0
1272,5030001115260,登記記録の閉鎖等,0,2025-01-20,2025-01-15,株式会社グローリーセカンド,,株式会社,埼玉県,久喜市,上清久２４３番地５,,11,232,3460038,,,2025-01-15,清算の結了等,,,2016-07-07,1,,,,,グローリーセカンド,0
1274,5030001130714,登記記録の閉鎖等,0,2025-01-20,2024-12-19,株式会社ユワク,,株式会社,東京都,港区,南麻布４丁目４番６号,,13,103,1060047,,,2024-12-19,清算の結了等,,,2019-05-30,1,,,,,ユワク,0
1280,5040001091303,登記記録の閉鎖等,0,2025-01-20,2025-01-09,清田建設株式会社,,株式会社,千葉県,木更津市,貝渕３丁目６番１２号,,12,206,2920833,,,2025-01-09,清算の結了等,,,2015-10-05,1,,,,,キヨタケンセツ,0
1282,5040001104816,登記記録の閉鎖等,0,2025-01-20,2025-01-08,株式会社Ｒａｉｔａｉ,,株式会社,千葉県,柏市,戸張１６１番地,,12,217,2770008,,,2025-01-08,清算の結了等,,,2018-05-29,1,,,,,ライタイ,0
1287,5040002042890,登記記録の閉鎖等,0,2025-01-20,2025-01-08,有限会社ズーク,,有限会社,千葉県,市川市,菅野４丁目１７番７号,,12,203,2720824,,,2025-01-08,清算の結了等,,,2015-10-05,1,,,,,ズーク,0
1303,5060003003634,登記記録の閉鎖等,0,2025-01-20,2024-12-25,合同会社宇都宮建築社,,合同会社,栃木県,宇都宮市,宮原４丁目２番５号細谷コーポ１０２,,09,201,3200835,,,2024-12-25,清算の結了等,,,2021-03-16,1,,,,,ウツノミヤケンチクシャ,0
1304,5070001001614,登記記録の閉鎖等,0,2025-01-20,2025-01-15,株式会社設楽総合鑑定所,,株式会社,群馬県,前橋市,紅雲町１丁目１６番２号,,10,201,3710025,,,2025-01-15,清算の結了等,,,2015-10-05,1,,,,,シタラソウゴウカンテイジョ,0
1315,5090001016882,登記記録の閉鎖等,0,2025-01-20,2025-01-14,Ｌｉｆｅ　Ｓｔｙｌｅ株式会社,,株式会社,山梨県,都留市,つる１丁目２番６号,,19,204,4020056,,,2025-01-14,清算の結了等,,,2021-03-05,1,,,,,ライフスタイル,0
1320,5110001005676,登記記録の閉鎖等,0,2025-01-20,2025-01-15,株式会社やま義,,株式会社,新潟県,新潟市西区,東山１１０７番地,,15,107,9502254,,,2025-01-15,清算の結了等,,,2015-10-05,1,,,,,ヤマヨシ,0
1322,5120001106143,登記記録の閉鎖等,0,2025-01-20,2025-01-20,株式会社グローバル・ハーモニー,,株式会社,兵庫県,西宮市,仁川町５丁目６番３６号,,28,204,6620811,,,2025-01-20,登記官による閉鎖,,,2015-10-05,1,,,,,,0
1335,5120101035366,登記記録の閉鎖等,0,2025-01-20,2025-01-15,クボタサンベジファーム株式会社,,株式会社,大阪府,南河内郡河南町,大字白木９０番地１,,27,382,5850014,,,2025-01-15,合併による解散等,2120001101915,令和７年１月１日大阪市浪速区敷津東一丁目２番４７号クボタインクルージョンワークス株式会社（2120001101915）に合併し解散,2015-10-05,1,,,,,クボタサンベジファーム,0
1353,5140001012661,登記記録の閉鎖等,0,2025-01-20,2025-01-20,株式会社オートザム兵庫,,株式会社,兵庫県,神戸市兵庫区,東柳原町３番１０号,,28,105,6520892,,,2025-01-20,登記官による閉鎖,,,2019-05-14,1,,,,,,0
1356,5140001030746,登記記録の閉鎖等,0,2025-01-20,2025-01-20,株式会社Ｆｉｖｅ－Ｗ,,株式会社,兵庫県,神戸市中央区,中山手通１丁目４－６ユーベルビル１Ｆ,,28,110,6500004,,,2025-01-20,登記官による閉鎖,,,2015-10-05,1,,,,,,0
1357,5140001033195,登記記録の閉鎖等,0,2025-01-20,2025-01-20,株式会社Ｂ－ｒａｖｅ,,株式会社,兵庫県,神戸市東灘区,深江浜町７７番地,,28,101,6580023,,,2025-01-20,登記官による閉鎖,,,2015-10-05,1,,,,,,0
1358,5140001040596,登記記録の閉鎖等,0,2025-01-20,2025-01-20,株式会社宍粟農研,,株式会社,兵庫県,宍粟市,山崎町五十波８５８番地３１,,28,227,6712515,,,2025-01-20,登記官による閉鎖,,,2015-10-05,1,,,,,,0
1359,5140001045752,登記記録の閉鎖等,0,2025-01-20,2025-01-20,株式会社Ａ．Ｓ．Ｅ．,,株式会社,兵庫県,加古川市,東神吉町神吉８２３番地の５７,,28,210,6750057,,,2025-01-20,登記官による閉鎖,,,2015-10-05,1,,,,,,0
1360,5140001049654,登記記録の閉鎖等,0,2025-01-20,2025-01-20,大神産業株式会社,,株式会社,兵庫県,尼崎市,大浜町２丁目１６番地,,28,202,6600095,,,2025-01-20,登記官による閉鎖,,,2015-10-05,1,,,,,,0
1361,5140001056378,登記記録の閉鎖等,0,2025-01-20,2025-01-20,株式会社やまもと寝装,,株式会社,兵庫県,美方郡香美町,香住区上計１１８６番地,,28,585,6696432,,,2025-01-20,登記官による閉鎖,,,2015-10-05,1,,,,,,0
1362,5140001057376,登記記録の閉鎖等,0,2025-01-20,2025-01-20,アイディーオペレーション株式会社,,株式会社,兵庫県,神戸市中央区,北長狭通２丁目１番６号,,28,110,6500012,,,2025-01-20,登記官による閉鎖,,,2015-10-05,1,,,,,,0
1363,5140001065932,登記記録の閉鎖等,0,2025-01-20,2025-01-20,株式会社メークアットホームセレオ,,株式会社,兵庫県,神崎郡市川町,小畑１８２９番地の２,,28,442,6792318,,,2025-01-20,登記官による閉鎖,,,2015-10-05,1,,,,,,0
1364,5140001077804,登記記録の閉鎖等,0,2025-01-20,2025-01-20,Ｔデザイン株式会社,,株式会社,兵庫県,神戸市中央区,御幸通８丁目１番６号神戸国際会館２２階,,28,110,6510087,,,2025-01-20,登記官による閉鎖,,,2015-10-05,1,,,,,,0
1365,5140001081624,登記記録の閉鎖等,0,2025-01-20,2025-01-20,株式会社すや事務所,,株式会社,兵庫県,宝塚市,南ひばりガ丘１丁目５番１号,,28,214,6650811,,,2025-01-20,登記官による閉鎖,,,2015-10-05,1,,,,,,0
1366,5140001086706,登記記録の閉鎖等,0,2025-01-20,2025-01-20,株式会社ヒメカン,,株式会社,兵庫県,神戸市中央区,磯上通８丁目１番２９号カサベラビルＣ＆Ｍ９０１号室,,28,110,6510086,,,2025-01-20,登記官による閉鎖,,,2015-10-05,1,,,,,,0
1367,5140001090807,登記記録の閉鎖等,0,2025-01-20,2025-01-20,株式会社わさら,,株式会社,兵庫県,神戸市中央区,小野柄通５丁目１－１４,,28,110,6510088,,,2025-01-20,登記官による閉鎖,,,2015-10-05,1,,,,,,0
1368,5140001093702,登記記録の閉鎖等,0,2025-01-20,2025-01-20,株式会社サクドリー・エージェンシー,,株式会社,兵庫県,西宮市,上甲子園４丁目２番２２号,,28,204,6638114,,,2025-01-20,登記官による閉鎖,,,2015-10-05,1,,,,,,0
1376,5140002008766,登記記録の閉鎖等,0,2025-01-20,2025-01-20,有限会社ソウエイ建設,,有限会社,兵庫県,神戸市長田区,大谷町２丁目１３番３号,,28,106,6530838,,,2025-01-20,登記官による閉鎖,,,2015-10-05,1,,,,,,0
1378,5140002029804,登記記録の閉鎖等,0,2025-01-20,2025-01-20,有限会社水野青果,,有限会社,兵庫県,明石市,朝霧町３丁目１２番７号,,28,203,6730866,,,2025-01-20,登記官による閉鎖,,,2015-10-05,1,,,,,,0
1379,5140002036296,登記記録の閉鎖等,0,2025-01-20,2025-01-20,有限会社ニシオ,,有限会社,兵庫県,加古川市,尾上町旭１丁目４８番地の２２,,28,210,6750026,,,2025-01-20,登記官による閉鎖,,,2015-10-05,1,,,,,,0
1380,5140002047070,登記記録の閉鎖等,0,2025-01-20,2025-01-20,有限会社大興,,有限会社,兵庫県,高砂市,伊保崎５丁目６番８号,,28,216,6760076,,,2025-01-20,登記官による閉鎖,,,2015-10-05,1,,,,,,0
1382,5140002064108,登記記録の閉鎖等,0,2025-01-20,2025-01-20,有限会社メガネの芦田,00041430,有限会社,兵庫県,伊丹市,西台３丁目８番２号,,28,207,6640858,,,2025-01-20,登記官による閉鎖,,,2015-10-05,1,,,,,,0
1383,5140002068018,登記記録の閉鎖等,0,2025-01-20,2025-01-20,有限会社秋月,,有限会社,兵庫県,宝塚市,野上２丁目３番２５号,,28,214,6650022,,,2025-01-20,登記官による閉鎖,,,2015-10-05,1,,,,,,0
1384,5140003002108,登記記録の閉鎖等,0,2025-01-20,2025-01-15,合資会社美登里屋,,合資会社,兵庫県,神戸市中央区,三宮町２丁目１０番２２号,,28,110,6500021,,,2025-01-15,清算の結了等,,,2015-10-05,1,,,,,ミドリヤ,0
1385,5140003009292,登記記録の閉鎖等,0,2025-01-20,2025-01-20,合同会社まるげん,,合同会社,兵庫県,明石市,野々上３丁目５番地の４マンションセブン３０５,,28,203,6730017,,,2025-01-20,登記官による閉鎖,,,2015-10-05,1,,,,,,0
1387,5140005004762,登記記録の閉鎖等,0,2025-01-20,2025-01-20,特定非営利活動法人あすなろ福祉の会,,その他の設立登記法人,兵庫県,神戸市北区,星和台３丁目１４番地の８,,28,109,6511121,,,2025-01-20,登記官による閉鎖,,,2015-10-05,1,,,,,,0
1388,5140005015116,登記記録の閉鎖等,0,2025-01-20,2025-01-20,特定非営利活動法人住宅支援センター,,その他の設立登記法人,兵庫県,姫路市,忍町５２番地忍町中村コーポ１０１,,28,201,6700917,,,2025-01-20,登記官による閉鎖,,,2015-10-05,1,,,,,,0
1389,5140005017632,登記記録の閉鎖等,0,2025-01-20,2025-01-20,特定非営利活動法人オリーブ３１,,その他の設立登記法人,兵庫県,小野市,黒川町５５１番地の２,,28,218,6751371,,,2025-01-20,登記官による閉鎖,,,2015-10-05,1,,,,,,0
1390,5140005018449,登記記録の閉鎖等,0,2025-01-20,2025-01-20,特定非営利活動法人あおぞら保育園,,その他の設立登記法人,兵庫県,伊丹市,昆陽東５丁目２番６０－１０１号,,28,207,6640886,,,2025-01-20,登記官による閉鎖,,,2015-10-05,1,,,,,,0
1391,5140005024463,登記記録の閉鎖等,0,2025-01-20,2025-01-20,石戸開拓農業協同組合,,その他の設立登記法人,兵庫県,丹波市,柏原町大新屋１９４番地,,28,223,6693315,,,2025-01-20,登記官による閉鎖,,,2019-02-08,1,,,,,,0
1399,5180001014968,登記記録の閉鎖等,0,2025-01-20,2024-12-27,株式会社ティ・ディ・モールドセンター,,株式会社,愛知県,名古屋市南区,駈上１丁目７番３８号,,23,112,4570007,,,2024-12-27,合併による解散等,8180001014841,令和６年１１月２９日名古屋市南区駈上一丁目７番３８号株式会社高橋精機工業所（8180001014841）に合併し解散,2015-10-05,1,,,,,ティディモールドセンター,0
1400,5180001066448,登記記録の閉鎖等,0,2025-01-20,2025-01-08,株式会社セブンシーズ・インターナショナル,,株式会社,愛知県,名古屋市中村区,名駅３丁目３番２号志摩ビル５Ｆ,,23,105,4500002,,,2025-01-08,清算の結了等,,,2015-10-05,1,,,,,セブンシーズインターナショナル,0
1403,5180001150094,登記記録の閉鎖等,0,2025-01-20,2025-01-08,株式会社ＳＯＬＥＭＯ．,,株式会社,愛知県,半田市,東郷町４丁目１０３番地１１,,23,205,4750924,,,2025-01-08,清算の結了等,,,2022-02-24,1,,,,,ソレモ,0
1409,5180002082452,登記記録の閉鎖等,0,2025-01-20,2025-01-06,有限会社大和商事,,有限会社,愛知県,岩倉市,稲荷町羽根３番地の８,,23,228,4820006,,,2025-01-06,清算の結了等,,,2015-10-05,1,,,,,ダイワショウジ,0
1413,5180005017224,登記記録の閉鎖等,0,2025-01-20,2025-01-10,一般社団法人愛知県ドローン協会,,その他の設立登記法人,愛知県,名古屋市東区,相生町５０番地１御堂ビル７Ｆ,,23,102,4610012,,,2025-01-10,清算の結了等,,,2017-03-30,1,,,,,アイチケンドローンキョウカイ,0
1417,5180303005021,登記記録の閉鎖等,0,2025-01-20,2025-01-06,合同会社カシオペア,,合同会社,愛知県,岡崎市,久後崎町字中道１０番,,23,202,4440851,,,2025-01-06,合併による解散等,1180301038596,令和７年１月１日愛知県岡崎市大平町字天神前８番地１株式会社アース（1180301038596）に合併し解散,2021-06-15,1,,,,,カシオペア,0
1420,5200002015450,登記記録の閉鎖等,0,2025-01-20,2025-01-15,有限会社米桂商店,,有限会社,岐阜県,揖斐郡大野町,大字黒野８４８番地,,21,403,5010521,,,2025-01-15,清算の結了等,,,2015-10-05,1,,,,,コメケイショウテン,0
1424,5230002009417,登記記録の閉鎖等,0,2025-01-20,2025-01-10,丸五建設有限会社,,有限会社,富山県,砺波市,安川１３４７番地,,16,208,9391438,,,2025-01-10,清算の結了等,,,2024-11-26,1,,,,,マルゴケンセツ,0
1430,5240005014314,登記記録の閉鎖等,0,2025-01-20,2025-01-16,一般社団法人スポーツで三原を元気にする会,,その他の設立登記法人,広島県,三原市,宗郷４丁目９番１２号,,34,204,7230044,,,2025-01-16,清算の結了等,,,2017-02-01,1,,,,,スポーツデミハラヲゲンキニスルカイ,0
1440,5290002004123,登記記録の閉鎖等,0,2025-01-20,2025-01-06,有限会社あおばホーム,,有限会社,福岡県,福岡市東区,青葉６丁目７番４号,,40,131,8130025,,,2025-01-06,清算の結了等,,,2015-10-05,1,,,,,アオバホーム,0
1450,5330001004565,登記記録の閉鎖等,0,2025-01-20,2025-01-20,三牧株式会社,,株式会社,熊本県,熊本市西区,春日３丁目１６番１－７０７号,,43,103,8600047,,,2025-01-20,登記官による閉鎖,,,2015-10-05,1,,,,,,0
1451,5330001006891,登記記録の閉鎖等,0,2025-01-20,2025-01-20,ＡＭＳ株式会社,,株式会社,熊本県,熊本市東区,戸島西１丁目６番４８号,,43,102,8618043,,,2025-01-20,登記官による閉鎖,,,2015-10-05,1,,,,,,0
1452,5330001010266,登記記録の閉鎖等,0,2025-01-20,2025-01-20,ジェミニオート山鹿株式会社,,株式会社,熊本県,山鹿市,杉９４８番地の１,,43,208,8610552,,,2025-01-20,登記官による閉鎖,,,2015-10-05,1,,,,,,0
1453,5330001019407,登記記録の閉鎖等,0,2025-01-20,2025-01-20,水俣環境株式会社,,株式会社,熊本県,水俣市,湯出１５２９番地,,43,205,8670025,,,2025-01-20,登記官による閉鎖,,,2015-10-05,1,,,,,,0
1458,5330002001280,登記記録の閉鎖等,0,2025-01-20,2025-01-20,有限会社エイジャックス,,有限会社,熊本県,熊本市中央区,新屋敷１丁目１４番４０－１１０８号,,43,101,8620975,,,2025-01-20,登記官による閉鎖,,,2015-10-05,1,,,,,,0
1461,5330002015099,登記記録の閉鎖等,0,2025-01-20,2025-01-20,ＮａｔｉｖｅＬａｎｄ有限会社,,有限会社,熊本県,熊本市中央区,新市街１３番１３号,,43,101,8600803,,,2025-01-20,登記官による閉鎖,,,2015-10-05,1,,,,,,0
1462,5330002016015,登記記録の閉鎖等,0,2025-01-20,2025-01-20,有限会社エスピーシステム,,有限会社,熊本県,菊池郡菊陽町,大字原水１３７０番地７,,43,404,8691102,,,2025-01-20,登記官による閉鎖,,,2015-10-05,1,,,,,,0
1463,5330003002476,登記記録の閉鎖等,0,2025-01-20,2025-01-20,合資会社森下電器商会,,合資会社,熊本県,玉名市,岱明町大野下１４２４番地の１,,43,206,8690224,,,2025-01-20,登記官による閉鎖,,,2015-10-05,1,,,,,,0
1464,5330003005181,登記記録の閉鎖等,0,2025-01-20,2025-01-20,興福システム合同会社,,合同会社,熊本県,熊本市東区,若葉１丁目４６番２１号,,43,102,8620903,,,2025-01-20,登記官による閉鎖,,,2015-10-05,1,,,,,,0
1466,5330005002929,登記記録の閉鎖等,0,2025-01-20,2025-01-20,九州環境保全型農業協同組合,,その他の設立登記法人,熊本県,菊池市,出田２７３番地１,,43,210,8611313,,,2025-01-20,登記官による閉鎖,,,2015-10-05,1,,,,,,0
1471,5360002017530,登記記録の閉鎖等,0,2025-01-20,2025-01-15,有限会社優木,,有限会社,沖縄県,中頭郡嘉手納町,水釜６丁目１９番１６号,,47,325,9040204,,,2025-01-15,清算の結了等,,,2015-10-05,1,,,,,ユウキ,0
1481,5390001007190,登記記録の閉鎖等,0,2025-01-20,2025-01-14,株式会社託人會,,株式会社,山形県,酒田市,相生町１丁目６番１１号,,06,204,9980032,,,2025-01-14,清算の結了等,,,2015-10-05,1,,,,,タクジンカイ,0
1492,5460102007314,登記記録の閉鎖等,0,2025-01-20,2025-01-15,Ｅサポート電設有限会社,,有限会社,北海道,上川郡清水町,南二条６丁目５番地１,,01,636,0890138,,,2025-01-15,清算の結了等,,,2015-10-05,1,,,,,イーサポートデンセツ,0
1493,5460302005002,登記記録の閉鎖等,0,2025-01-20,2025-01-16,有限会社桜井産業,,有限会社,北海道,斜里郡小清水町,元町２丁目４番２８号,,01,547,0993641,,,2025-01-16,清算の結了等,,,2015-10-05,1,,,,,サクライサンギョウ,0
1494,5470001009823,登記記録の閉鎖等,0,2025-01-20,2025-01-16,株式会社オリノ板金工業所,,株式会社,香川県,観音寺市,坂本町５丁目１６番２６号,,37,205,7680067,,,2025-01-16,清算の結了等,,,2015-10-05,1,,,,,オリノバンキンコウギョウショ,0
1495,5470002002075,登記記録の閉鎖等,0,2025-01-20,2025-01-15,有限会社萱原板金工業所,,有限会社,香川県,高松市,太田上町１１２０番地５,,37,201,7618074,,,2025-01-15,清算の結了等,,,2015-10-05,1,,,,,カヤハラバンキンコウギョウショ,0
1513,6010101011930,登記記録の閉鎖等,0,2025-01-20,2025-01-16,シトン・テクノロジー株式会社,,株式会社,東京都,八王子市,越野１２番地６号,,13,201,1920361,,,2025-01-16,清算の結了等,,,2015-10-05,1,,,,,,0
1544,6011402000713,登記記録の閉鎖等,0,2025-01-20,2025-01-09,有限会社飯嶋電気管理,,有限会社,東京都,板橋区,大谷口上町２１番５号,,13,119,1730032,,,2025-01-09,清算の結了等,,,2015-10-05,1,,,,,イイジマデンキカンリ,0
1545,6011402003666,登記記録の閉鎖等,0,2025-01-20,2025-01-16,有限会社サンアルファ,,有限会社,東京都,板橋区,蓮根２丁目２９番１１号１０２,,13,119,1740046,,,2025-01-16,清算の結了等,,,2015-10-05,1,,,,,サンアルファ,0
1549,6011602003136,登記記録の閉鎖等,0,2025-01-20,2025-01-20,有限会社クイン,,有限会社,東京都,練馬区,石神井台４丁目７番１８号,,13,120,1770045,,,2025-01-20,登記官による閉鎖,,,2015-10-05,1,,,,,,0
1550,6011602007616,登記記録の閉鎖等,0,2025-01-20,2025-01-20,有限会社灘屋島田商店,00056280,有限会社,東京都,練馬区,上石神井４丁目１７番１３号,,13,120,1770044,,,2025-01-20,登記官による閉鎖,,,2015-10-05,1,,,,,,0
1551,6011602010982,登記記録の閉鎖等,0,2025-01-20,2025-01-20,有限会社レクラン,,有限会社,東京都,練馬区,南田中１丁目１番１９号,,13,120,1770035,,,2025-01-20,登記官による閉鎖,,,2015-10-05,1,,,,,,0
1552,6011602020346,登記記録の閉鎖等,0,2025-01-20,2025-01-20,有限会社三光園,,有限会社,東京都,練馬区,石神井町４丁目１９番１５号,,13,120,1770041,,,2025-01-20,登記官による閉鎖,,,2018-04-19,1,,,,,,0
1553,6011605001153,登記記録の閉鎖等,0,2025-01-20,2025-01-20,特定非営利活動法人日本女性エンブアソシエイト,,その他の設立登記法人,東京都,練馬区,大泉学園町７丁目７番２２号三豊ビル,,13,120,1780061,,,2025-01-20,登記官による閉鎖,,,2015-10-05,1,,,,,,0
1554,6011605001392,登記記録の閉鎖等,0,2025-01-20,2025-01-20,特定非営利活動法人日本・太平洋島嶼国介護福祉会,,その他の設立登記法人,東京都,練馬区,中村南１丁目３０番１２号,,13,120,1760025,,,2025-01-20,登記官による閉鎖,,,2015-10-05,1,,,,,,0
1555,6011701007913,登記記録の閉鎖等,0,2025-01-20,2025-01-14,株式会社安波商店,,株式会社,東京都,江戸川区,南小岩５丁目１６番２３号,,13,123,1330056,,,2025-01-14,清算の結了等,,,2015-10-05,1,,,,,ヤスナミショウテン,0
1564,6013201014092,登記記録の閉鎖等,0,2025-01-20,2024-12-23,株式会社ｍｉｎｄｏ,,株式会社,東京都,港区,赤坂７丁目２番２１号草月会館６階,,13,103,1070052,,,2024-12-23,清算の結了等,,,2015-10-05,1,,,,,マインド,0
1565,6013301044592,登記記録の閉鎖等,0,2025-01-20,2025-01-08,株式会社バカレッジ,,株式会社,東京都,豊島区,雑司が谷１丁目４７－５雑司ヶ谷コーポ３０２,,13,116,1710032,,,2025-01-08,清算の結了等,,,2019-10-09,1,,,,,バカレッジ,0
1569,6020001001907,登記記録の閉鎖等,0,2025-01-20,2024-12-26,川上電建株式会社,,株式会社,神奈川県,横浜市緑区,東本郷５丁目３番１号,,14,113,2260002,,,2024-12-26,清算の結了等,,,2015-10-05,1,,,,,カワカミデンケン,0
1578,6030001011673,登記記録の閉鎖等,0,2025-01-20,2025-01-16,株式会社リガーレ,,株式会社,埼玉県,さいたま市西区,大字指扇４０３番地１,,11,101,3310047,,,2025-01-16,合併による解散等,5060001020508,令和７年１月１日栃木県佐野市越名町２０４１番地７株式会社ミライト・ワン・ネクスト（5060001020508）に合併し解散,2015-10-05,1,,,,,リガーレ,0
1580,6030001055308,登記記録の閉鎖等,0,2025-01-20,2025-01-16,株式会社エーライズ,,株式会社,埼玉県,比企郡川島町,大字伊草４３０番地１,,11,346,3500158,,,2025-01-16,合併による解散等,5060001020508,令和７年１月１日栃木県佐野市越名町２０４１番地７株式会社ミライト・ワン・ネクスト（5060001020508）に合併し解散,2015-10-05,1,,,,,エーライズ,0
1582,6030001073656,登記記録の閉鎖等,0,2025-01-20,2025-01-14,株式会社アルパス,,株式会社,埼玉県,川口市,元郷１丁目４番２号,,11,203,3320011,,,2025-01-14,清算の結了等,,,2015-10-05,1,,,,,アルパス,0
1583,6030001076592,登記記録の閉鎖等,0,2025-01-20,2025-01-10,ニシコ光機株式会社,,株式会社,埼玉県,川口市,並木４丁目１３番３号,,11,203,3320034,,,2025-01-10,清算の結了等,,,2015-10-05,1,,,,,ニシココウキ,0
1588,6030002053335,登記記録の閉鎖等,0,2025-01-20,2025-01-14,有限会社大久保光学,,有限会社,埼玉県,上尾市,大字上尾下１０４７番地の２,,11,219,3620025,,,2025-01-14,清算の結了等,,,2015-10-05,1,,,,,オオクボコウガク,0
1589,6030002065215,登記記録の閉鎖等,0,2025-01-20,2025-01-20,朝日工業有限会社,,有限会社,東京都,練馬区,光が丘３丁目７番２－４０６号,,13,120,1790072,,,2025-01-20,登記官による閉鎖,,,2015-10-05,1,,,,,,0
1592,6040001067021,登記記録の閉鎖等,0,2025-01-20,2025-01-10,株式会社ラスコ,,株式会社,茨城県,守谷市,久保ケ丘４丁目１９番１０号,,08,224,3020104,,,2025-01-10,清算の結了等,,,2015-10-05,1,,,,,ラスコ,0
1608,6070001004673,登記記録の閉鎖等,0,2025-01-20,2025-01-17,前橋建窓株式会社,,株式会社,群馬県,前橋市,荒口町６０１番地１,,10,201,3792107,,,2025-01-17,清算の結了等,,,2015-10-05,1,,,,,,0
1616,6080105006193,登記記録の閉鎖等,0,2025-01-20,2025-01-08,ＡＳＭ協同組合,,その他の設立登記法人,東京都,世田谷区,南烏山６丁目１６番１１号,,13,112,1570062,,,2025-01-08,清算の結了等,,,2021-11-09,1,,,,,エーエスエム,0
1619,6080403004568,登記記録の閉鎖等,0,2025-01-20,2025-01-10,ａｎｇｅ合同会社,,合同会社,静岡県,菊川市,下平川２２６番地の５,,22,224,4371514,,,2025-01-10,清算の結了等,,,2022-06-21,1,,,,,アンジュ,0
1620,6090002002889,登記記録の閉鎖等,0,2025-01-20,2025-01-14,有限会社マツダサービスステーション,,有限会社,山梨県,甲府市,国母８丁目１１番３８号,,19,201,4000043,,,2025-01-14,清算の結了等,,,2015-10-05,1,,,,,マツダサービスステーション,0
1622,6100002018693,登記記録の閉鎖等,0,2025-01-20,2025-01-20,有限会社ホテル竜王,,有限会社,兵庫県,明石市,小久保１丁目１１番地の１０,,28,203,6730005,,,2025-01-20,登記官による閉鎖,,,2015-10-05,1,,,,,,0
1644,6120101042915,登記記録の閉鎖等,0,2025-01-20,2025-01-16,イージャパンサービス株式会社,,株式会社,大阪府,泉北郡忠岡町,高月南１丁目９番１３号,,27,341,5950802,,,2025-01-16,清算の結了等,,,2015-10-05,1,,,,,イージャパンサービス,0
1647,6120103005184,登記記録の閉鎖等,0,2025-01-20,2025-01-14,合同会社Ｇｅｎｅｒａｌ　ａｒｅａ,,合同会社,大阪府,松原市,東新町３丁目１１番１２号,,27,217,5800024,,,2025-01-14,清算の結了等,,,2023-04-18,1,,,,,ジェネラルエリア,0
1650,6120901028428,登記記録の閉鎖等,0,2025-01-20,2025-01-15,大阪淡路交通株式会社,,株式会社,大阪府,豊中市,清風荘１丁目５番５号,,27,203,5600041,,,2025-01-15,合併による解散等,2140001084547,令和７年１月１日兵庫県洲本市宇山一丁目４番３９号淡路交通株式会社（2140001084547）に合併し解散,2015-10-05,1,,,,,オオサカアワジコウツウ,0
1657,6140001026413,登記記録の閉鎖等,0,2025-01-20,2025-01-20,株式会社湊川,,株式会社,兵庫県,神戸市中央区,中山手通１丁目２２番１０号,,28,110,6500004,,,2025-01-20,登記官による閉鎖,,,2015-10-05,1,,,,,,0
1658,6140001032171,登記記録の閉鎖等,0,2025-01-20,2025-01-16,株式会社モデナ動物病院,,株式会社,兵庫県,神戸市西区,池上２丁目２１番７,,28,111,6512111,,,2025-01-16,合併による解散等,7010001199948,令和７年１月１日大阪市西区南堀江三丁目７番２２号株式会社ＷＯＬＶＥＳ　ＨＡＮＤ（7010001199948）に合併し解散,2015-10-05,1,,,,,モデナドウブツビョウイン,0
1659,6140001060734,登記記録の閉鎖等,0,2025-01-20,2025-01-20,播州メリヤス株式会社,,株式会社,兵庫県,姫路市,古二階町１２３番地,,28,201,6700936,,,2025-01-20,登記官による閉鎖,,,2015-10-05,1,,,,,,0
1660,6140001062540,登記記録の閉鎖等,0,2025-01-20,2025-01-20,芳成建設工業株式会社,,株式会社,兵庫県,姫路市,家島町真浦２１５１番地の７,,28,201,6720101,,,2025-01-20,登記官による閉鎖,,,2015-10-05,1,,,,,,0
1661,6140001067300,登記記録の閉鎖等,0,2025-01-20,2025-01-20,株式会社ＢｉｇＲｉｎｇ,,株式会社,兵庫県,三田市,富士が丘４丁目１３番地１４,,28,219,6691547,,,2025-01-20,登記官による閉鎖,,,2015-10-05,1,,,,,,0
1662,6140001068653,登記記録の閉鎖等,0,2025-01-20,2025-01-20,甲子園ビル株式会社,,株式会社,兵庫県,西宮市,甲子園高潮町６番２５号,,28,204,6638166,,,2025-01-20,登記官による閉鎖,,,2015-10-05,1,,,,,,0
1663,6140001074651,登記記録の閉鎖等,0,2025-01-20,2025-01-20,株式会社マルセイフードサービス,,株式会社,兵庫県,西宮市,二見町３番２０号,,28,204,6638111,,,2025-01-20,登記官による閉鎖,,,2015-10-05,1,,,,,,0
1664,6140001087042,登記記録の閉鎖等,0,2025-01-20,2025-01-20,株式会社ＳＡＴＳＵＫＩ　ｓｋｙ,,株式会社,兵庫県,神戸市中央区,北長狭通１丁目２－３,,28,110,6500012,,,2025-01-20,登記官による閉鎖,,,2015-10-05,1,,,,,,0
1665,6140001093809,登記記録の閉鎖等,0,2025-01-20,2025-01-20,株式会社アンチェイン,,株式会社,兵庫県,川西市,大和東１丁目９９番１２号,,28,217,6660111,,,2025-01-20,登記官による閉鎖,,,2015-10-05,1,,,,,,0
1666,6140002009945,登記記録の閉鎖等,0,2025-01-20,2025-01-20,有限会社小西商店,,有限会社,兵庫県,神戸市北区,東有野台２丁目１番地の３,,28,109,6511322,,,2025-01-20,登記官による閉鎖,,,2015-10-05,1,,,,,,0
1667,6140002024416,登記記録の閉鎖等,0,2025-01-20,2025-01-20,有限会社須磨食産,,有限会社,兵庫県,神戸市須磨区,高倉台７丁目５番２８－３０６号,,28,107,6540081,,,2025-01-20,登記官による閉鎖,,,2015-10-05,1,,,,,,0
1668,6140002033648,登記記録の閉鎖等,0,2025-01-20,2025-01-20,有限会社アドバンス,,有限会社,兵庫県,相生市,向陽台１３番１０号,,28,208,6780023,,,2025-01-20,登記官による閉鎖,,,2015-10-05,1,,,,,,0
1669,6140002034076,登記記録の閉鎖等,0,2025-01-20,2025-01-20,有限会社林清掃業,,有限会社,兵庫県,赤穂市,中広８３８番地の２,,28,212,6780232,,,2025-01-20,登記官による閉鎖,,,2015-10-05,1,,,,,,0
1670,6140002034241,登記記録の閉鎖等,0,2025-01-20,2025-01-20,有限会社赤穂キヤンバス工業,,有限会社,兵庫県,赤穂市,中広１８８４番地の１,,28,212,6780232,,,2025-01-20,登記官による閉鎖,,,2015-10-05,1,,,,,アコウキャンバスヤコウギョウ,0
1671,6140002041452,登記記録の閉鎖等,0,2025-01-20,2025-01-20,有限会社ダイコーテック,,有限会社,兵庫県,尼崎市,常吉１丁目５番２１号,,28,202,6610042,,,2025-01-20,登記官による閉鎖,,,2015-10-05,1,,,,,,0
1672,6140002042979,登記記録の閉鎖等,0,2025-01-20,2025-01-20,有限会社ヤマサン,,有限会社,兵庫県,尼崎市,大庄西町１丁目２３番７号,,28,202,6600077,,,2025-01-20,登記官による閉鎖,,,2015-10-05,1,,,,,,0
1673,6140002043481,登記記録の閉鎖等,0,2025-01-20,2025-01-20,有限会社サンコー流通センター,,有限会社,兵庫県,尼崎市,次屋３丁目１番１０号,,28,202,6610965,,,2025-01-20,登記官による閉鎖,,,2015-10-05,1,,,,,,0
1674,6140002045222,登記記録の閉鎖等,0,2025-01-20,2025-01-20,有限会社山下商会,,有限会社,兵庫県,尼崎市,富松町１丁目４７番１６号,,28,202,6610003,,,2025-01-20,登記官による閉鎖,,,2015-10-05,1,,,,,,0
1675,6140003005101,登記記録の閉鎖等,0,2025-01-20,2025-01-20,合同会社ＴＡＰ,,合同会社,兵庫県,神戸市中央区,北長狭通５丁目８番５号藤井ビル２階,,28,110,6500012,,,2025-01-20,登記官による閉鎖,,,2015-10-05,1,,,,,,0
1676,6140003008252,登記記録の閉鎖等,0,2025-01-20,2025-01-20,合資会社オートセイバー,,合資会社,兵庫県,宝塚市,福井町１番５号,,28,214,6650046,,,2025-01-20,登記官による閉鎖,,,2015-10-05,1,,,,,,0
1677,6140005004217,登記記録の閉鎖等,0,2025-01-20,2025-01-20,特定非営利活動法人日本介護ヘルパー会,,その他の設立登記法人,兵庫県,神戸市灘区,中原通１丁目４番８号,,28,102,6570825,,,2025-01-20,登記官による閉鎖,,,2015-10-05,1,,,,,,0
1679,6140005012723,登記記録の閉鎖等,0,2025-01-20,2025-01-20,特定非営利活動法人出石まちづくり会議,,その他の設立登記法人,兵庫県,豊岡市,出石町内町１番地,,28,209,6680214,,,2025-01-20,登記官による閉鎖,,,2015-10-05,1,,,,,,0
1680,6140005016336,登記記録の閉鎖等,0,2025-01-20,2025-01-20,財団法人国際日本研究所,,その他の設立登記法人,兵庫県,西宮市,仁川町４丁目７番１７号,,28,204,6620811,,,2025-01-20,登記官による閉鎖,,,2016-04-20,1,,,,,コクサイニホンケンキョウショ,0
1681,6140005018869,登記記録の閉鎖等,0,2025-01-20,2025-01-20,宝塚設備メンテナンス事業協同組合,,その他の設立登記法人,兵庫県,宝塚市,大吹町１２番３５号,,28,214,6650057,,,2025-01-20,登記官による閉鎖,,,2015-10-05,1,,,,,,0
1695,6180001121680,登記記録の閉鎖等,0,2025-01-20,2025-01-06,株式会社トリニティーコンサルティング,,株式会社,愛知県,名古屋市中区,丸の内３丁目６番２７号ＥＢＳビル４階,,23,106,4600002,,,2025-01-06,合併による解散等,6180001060177,令和６年１２月３０日名古屋市中区丸の内三丁目６番２７号ＥＢＳビル４階株式会社トリニティーホールディングス（6180001060177）に合併し解散,2016-01-21,1,,,,,トリニティーンサルティング,0
1696,6180001135094,登記記録の閉鎖等,0,2025-01-20,2025-01-07,株式会社修和,,株式会社,愛知県,名古屋市中川区,五女子２丁目６番９号,,23,110,4540033,,,2025-01-07,清算の結了等,,,2019-01-11,1,,,,,シュウワ,0
1711,6190002018900,登記記録の閉鎖等,0,2025-01-20,2025-01-14,有限会社朝明機工,,有限会社,三重県,いなべ市,大安町南金井９４７番地,,24,214,5110283,,,2025-01-14,清算の結了等,,,2015-10-05,1,,,,,アサケキコウ,0
1712,6190002019790,登記記録の閉鎖等,0,2025-01-20,2025-01-15,有限会社川越建材興業,,有限会社,三重県,四日市市,大矢知町大城３０９７番地２,,24,202,5108034,,,2025-01-15,清算の結了等,,,2015-10-05,1,,,,,カワゴエケンザイコウギョウ,0
1730,6250001010620,登記記録の閉鎖等,0,2025-01-20,2025-01-16,株式会社ウェイク,,株式会社,山口県,周南市,原宿町４番８号,,35,215,7450065,,,2025-01-16,清算の結了等,,,2015-10-05,1,,,,,ウェイク,0
1745,6330001000316,登記記録の閉鎖等,0,2025-01-20,2025-01-20,株式会社インターナショナル,,株式会社,熊本県,熊本市中央区,帯山５丁目１１番１７号,,43,101,8620924,,,2025-01-20,登記官による閉鎖,,,2015-10-05,1,,,,,,0
1746,6330001001776,登記記録の閉鎖等,0,2025-01-20,2025-01-20,光明電気株式会社,,株式会社,熊本県,熊本市北区,高平２丁目２５番６号,,43,105,8600085,,,2025-01-20,登記官による閉鎖,,,2015-10-05,1,,,,,,0
1747,6330001002023,登記記録の閉鎖等,0,2025-01-20,2025-01-20,三清機材株式会社,,株式会社,熊本県,熊本市南区,元三町５丁目３番１号,,43,104,8614105,,,2025-01-20,登記官による閉鎖,,,2015-10-05,1,,,,,,0
1748,6330001005711,登記記録の閉鎖等,0,2025-01-20,2025-01-20,九州金融株式会社,,株式会社,熊本県,熊本市中央区,桜町２０番地,,43,101,8600805,,,2025-01-20,登記官による閉鎖,,,2019-11-18,1,,,,,,0
1749,6330001012930,登記記録の閉鎖等,0,2025-01-20,2025-01-20,吉本工業株式会社,,株式会社,熊本県,宇土市,住吉町２４１５番地,,43,211,8690401,,,2025-01-20,登記官による閉鎖,,,2015-10-05,1,,,,,,0
1750,6330001013268,登記記録の閉鎖等,0,2025-01-20,2025-01-20,株式会社スマイルフォーユー,,株式会社,熊本県,宇土市,宮庄町７３番地４,,43,211,8690457,,,2025-01-20,登記官による閉鎖,,,2015-10-05,1,,,,,,0
1751,6330001014687,登記記録の閉鎖等,0,2025-01-20,2025-01-20,ロイヤル・ベスパ株式会社,,株式会社,熊本県,熊本市中央区,新町２丁目７番１号,,43,101,8600004,,,2025-01-20,登記官による閉鎖,,,2015-10-05,1,,,,,,0
1752,6330001019348,登記記録の閉鎖等,0,2025-01-20,2025-01-09,株式会社エイエヌプランニング,,株式会社,熊本県,熊本市西区,春日７丁目２９番１２号,,43,103,8600047,,,2025-01-09,清算の結了等,,,2015-10-05,1,,,,,エイエヌプランニング,0
1755,6330002006907,登記記録の閉鎖等,0,2025-01-20,2025-01-20,有限会社土山天祐堂,,有限会社,熊本県,熊本市中央区,水前寺公園３番４号,,43,101,8620956,,,2025-01-20,登記官による閉鎖,,,2015-10-05,1,,,,,,0
1756,6330002010743,登記記録の閉鎖等,0,2025-01-20,2025-01-20,有限会社モリヒロ,,有限会社,熊本県,熊本市中央区,新屋敷２丁目２１番３号,,43,101,8620975,,,2025-01-20,登記官による閉鎖,,,2015-10-05,1,,,,,,0
1757,6330002013861,登記記録の閉鎖等,0,2025-01-20,2025-01-20,有限会社ＨＭＫコンサルタント,,有限会社,熊本県,熊本市中央区,新大江１丁目１７番２０－１０２号,,43,101,8620972,,,2025-01-20,登記官による閉鎖,,,2015-10-05,1,,,,,,0
1758,6330002015668,登記記録の閉鎖等,0,2025-01-20,2025-01-20,有限会社九機ファイナンス,,有限会社,熊本県,熊本市東区,画図町所島７４７番地,,43,102,8610000,,,2025-01-20,登記官による閉鎖,,,2015-10-05,1,,,,,,0
1759,6330002017598,登記記録の閉鎖等,0,2025-01-20,2025-01-20,有限会社エヌティコーブン熊本,,有限会社,熊本県,菊池市,七城町新古閑５５２番地,,43,210,8611352,,,2025-01-20,登記官による閉鎖,,,2015-10-05,1,,,,,,0
1772,6430001045400,登記記録の閉鎖等,0,2025-01-20,2025-01-06,株式会社ファーマシーさくら,,株式会社,北海道,札幌市中央区,北二条西３丁目１番地８,,01,101,0600002,,,2025-01-06,合併による解散等,2430001002710,令和７年１月１日札幌市北区北八条西三丁目２８番株式会社メディプラン（2430001002710）に合併し解散,2015-10-05,1,,,,,ファーマシーサクラ,0
1784,6470005005438,登記記録の閉鎖等,0,2025-01-20,2024-11-27,特定非営利活動法人あすなろ会,,その他の設立登記法人,香川県,観音寺市,流岡町１０２１番地１８,,37,205,7680014,,,2024-11-27,清算の結了等,,,2015-10-05,1,,,,,,0
1786,6490001007948,登記記録の閉鎖等,0,2025-01-20,2025-01-17,ＣＥＮ株式会社,,株式会社,高知県,高知市,伊勢崎町１６番１０号,,39,201,7800046,,,2025-01-17,清算の結了等,,,2015-10-05,1,,,,,セン,0
1789,6500002011518,登記記録の閉鎖等,0,2025-01-20,2025-01-08,有限会社明日香運送,,有限会社,愛媛県,大洲市,平野町野田４６４番１,,38,207,7950021,,,2025-01-08,清算の結了等,,,2015-10-05,1,,,,,アスカウンソウ,0
1793,7010001193868,登記記録の閉鎖等,0,2025-01-20,2024-12-27,株式会社ジャパンライフウィル,,株式会社,東京都,千代田区,二番町５番地２麹町駅プラザ９０１,,13,101,1020084,,,2024-12-27,清算の結了等,,,2018-08-03,1,,,,,ジャパンライフウィル,0
1794,7010001196045,登記記録の閉鎖等,0,2025-01-20,2025-01-14,株式会社Ｄｙｎａｍｉｓ　ａｎｄ　Ｃｏｍｐａｎｙ,,株式会社,東京都,千代田区,岩本町１丁目４－４神田第四パークビル４階,,13,101,1010032,,,2025-01-14,合併による解散等,5430001071562,令和７年１月１日札幌市中央区南二条西一丁目５番丸大ビル４階４号室株式会社ＡＶＥＮＩＬ（5430001071562）に合併し解散,2018-11-09,1,,,,,デュナミスアンドカンパニー,0
1803,7010003023073,登記記録の閉鎖等,0,2025-01-20,2024-12-27,合同会社遊佐・高萩,,合同会社,東京都,千代田区,一番町９番地８ノザワビルディング６階税理士法人シリウス内,,13,101,1020082,,,2024-12-27,清算の結了等,,,2016-02-15,1,,,,,ユサタカハギ,0
1804,7010003033080,登記記録の閉鎖等,0,2025-01-20,2024-12-27,合同会社ウィニー＆ヨーク商会,,合同会社,東京都,千代田区,九段南１丁目５番６号りそな九段ビル７階,,13,101,1020074,,,2024-12-27,清算の結了等,,,2020-09-23,1,,,,,ウィニーアンドヨークショウカイ,0
1806,7010005016744,登記記録の閉鎖等,0,2025-01-20,2025-01-20,一般社団法人ＤＲＥＡＭ　ＰＬＵＳ,,その他の設立登記法人,兵庫県,神戸市東灘区,向洋町中６丁目９番地,,28,101,6580032,,,2025-01-20,登記官による閉鎖,,,2015-10-05,1,,,,,,0
1812,7010401051675,登記記録の閉鎖等,0,2025-01-20,2024-12-23,パルスメディカル株式会社,,株式会社,東京都,港区,白金２丁目１番４１－６０３号,,13,103,1080072,,,2024-12-23,清算の結了等,,,2015-10-05,1,,,,,パルスメディカル,0
1821,7010601009127,登記記録の閉鎖等,0,2025-01-20,2025-01-14,葦澤護謨株式会社,,株式会社,東京都,墨田区,押上２丁目２３番１３号,,13,107,1310045,,,2025-01-14,清算の結了等,,,2015-10-05,1,,,,,アシザワゴム,0
1826,7010901047388,登記記録の閉鎖等,0,2025-01-20,2025-01-08,株式会社スタジオカタカナ,,株式会社,東京都,世田谷区,北沢３丁目２７番４号立木ビル２Ｆ,,13,112,1550031,,,2025-01-08,清算の結了等,,,2020-11-12,1,,,,,スタジオカタカナ,0
1831,7011001099709,登記記録の閉鎖等,0,2025-01-20,2025-01-06,株式会社Ｋ２　Ｃｏｒｐｏｒａｔｅ　Ｐａｒｔｎｅｒｓ,,株式会社,東京都,新宿区,西新宿８丁目１７番１号,,13,104,1600023,,,2025-01-06,合併による解散等,2010001146847,令和７年１月１日東京都新宿区西新宿八丁目１７番１号マーケティングパートナー株式会社（2010001146847）に合併し解散,2015-10-05,1,,,,,ケーツーコーポレートパートナーズ,0
1838,7011101041000,登記記録の閉鎖等,0,2025-01-20,2025-01-06,株式会社サンフィール,,株式会社,東京都,新宿区,新宿４丁目３番１７号,,13,104,1600022,,,2025-01-06,合併による解散等,9050001025289,令和７年１月１日東京都新宿区新宿四丁目３番１７号シナネンアクシア株式会社（9050001025289）に合併し解散,2015-10-05,1,,,,,サンフィール,0
1850,7011601017524,登記記録の閉鎖等,0,2025-01-20,2025-01-20,株式会社ＢＢＲ,,株式会社,東京都,練馬区,豊玉北１丁目６番１３号,,13,120,1760012,,,2025-01-20,登記官による閉鎖,,,2015-10-05,1,,,,,,0
1851,7011602006195,登記記録の閉鎖等,0,2025-01-20,2025-01-20,有限会社東京レジン,,有限会社,東京都,練馬区,関町北４丁目３３番２８－５０６号,,13,120,1770051,,,2025-01-20,登記官による閉鎖,,,2015-10-05,1,,,,,,0
1854,7011603001303,登記記録の閉鎖等,0,2025-01-20,2025-01-20,合同会社コンチネンタル,,合同会社,東京都,練馬区,羽沢１丁目７番１５号シャトー新桜台３０２号室,,13,120,1760003,,,2025-01-20,登記官による閉鎖,,,2015-10-05,1,,,,,,0
1860,7011802018651,登記記録の閉鎖等,0,2025-01-20,2025-01-10,有限会社松井設備工業所,,有限会社,東京都,足立区,綾瀬６丁目３３番１２号,,13,121,1200005,,,2025-01-10,清算の結了等,,,2015-10-05,1,,,,,マツイセツビコウギョウショ,0
1865,7012802001432,登記記録の閉鎖等,0,2025-01-20,2025-01-14,有限会社高橋園,00059212,有限会社,東京都,立川市,柏町２丁目２３番地の３,,13,202,1900004,,,2025-01-14,清算の結了等,,,2015-10-05,1,,,,,タカハシエン,0
1871,7020001057411,登記記録の閉鎖等,0,2025-01-20,2024-12-26,株式会社家工房,,株式会社,神奈川県,横浜市南区,榎町２丁目４０番地２第３岡田ビル１０２－Ｂ,,14,105,2320044,,,2024-12-26,清算の結了等,,,2015-10-05,1,,,,,イエコウボウ,0
1881,7030001133797,登記記録の閉鎖等,0,2025-01-20,2025-01-14,株式会社Ｍ’ｓＧＲＯＵＰ,,株式会社,埼玉県,北葛飾郡杉戸町,大字大島５３３番地６,,11,464,3450042,,,2025-01-14,清算の結了等,,,2019-11-15,1,,,,,エムズグループ,0
1885,7030002101043,登記記録の閉鎖等,0,2025-01-20,2025-01-14,有限会社エムズ,,有限会社,埼玉県,川口市,中青木３丁目１番１６－４２９号,,11,203,3320032,,,2025-01-14,清算の結了等,,,2015-10-05,1,,,,,エムズ,0
1889,7040001045199,登記記録の閉鎖等,0,2025-01-20,2025-01-14,株式会社マイスター,,株式会社,千葉県,印西市,大森２３１７番地１,,12,231,2701327,,,2025-01-14,清算の結了等,,,2015-10-05,1,,,,,マイスター,0
1892,7040002030530,登記記録の閉鎖等,0,2025-01-20,2025-01-09,有限会社湯浅造園設計,,有限会社,千葉県,八千代市,緑が丘３丁目１５番６号,,12,221,2760049,,,2025-01-09,清算の結了等,,,2015-10-05,1,,,,,ユアサゾウエンセッケイ,0
1899,7050002036015,登記記録の閉鎖等,0,2025-01-20,2025-01-09,有限会社肉の鈴木屋,,有限会社,茨城県,久慈郡大子町,大字池田７３２番地３,,08,364,3193551,,,2025-01-09,清算の結了等,,,2015-10-05,1,,,,,ニクノスズキヤ,0
1908,7070002025346,登記記録の閉鎖等,0,2025-01-20,2025-01-16,有限会社ブロードエンジニアリング,,有限会社,群馬県,みどり市,笠懸町鹿６２５番地２７,,10,212,3792313,,,2025-01-16,清算の結了等,,,2015-10-05,1,,,,,ブロードエンジニアリング,0
1910,7080101009612,登記記録の閉鎖等,0,2025-01-20,2025-01-15,プラントジャパン株式会社,,株式会社,静岡県,富士市,元町１４番１７号フジパレス４０６,,22,210,4160917,,,2025-01-15,清算の結了等,,,2015-10-05,1,,,,,プラントジャパン,0
1915,7090001004547,登記記録の閉鎖等,0,2025-01-20,2025-01-14,株式会社栄宝飾,,株式会社,山梨県,甲斐市,宇津谷５４２１番地７,,19,210,4000108,,,2025-01-14,清算の結了等,,,2015-10-05,1,,,,,サカエホウショク,0
1935,7120005010637,登記記録の閉鎖等,0,2025-01-20,2025-01-07,特定非営利活動法人はなしのぶ,,その他の設立登記法人,大阪府,大阪市都島区,毛馬町４丁目６番６－４０８号,,27,102,5340001,,,2025-01-07,清算の結了等,,,2015-10-05,1,,,,,ハナシノブ,0
1948,7130005015528,登記記録の閉鎖等,0,2025-01-20,2025-01-14,特定非営利活動法人子育てｉｎｆｏ．,,その他の設立登記法人,京都府,木津川市,相楽古川３０番地１,,26,214,6190222,,,2025-01-14,清算の結了等,,,2019-03-06,1,,,,,コソダテインフォ,0
1949,7140001010234,登記記録の閉鎖等,0,2025-01-20,2025-01-20,株式会社ジャパンファンド,,株式会社,兵庫県,神戸市中央区,神若通５丁目３番２６号,,28,110,6510067,,,2025-01-20,登記官による閉鎖,,,2015-10-05,1,,,,,,0
1950,7140001010424,登記記録の閉鎖等,0,2025-01-20,2025-01-20,株式会社ビューティ．ヘルシーアンドゴールドロサ．コスメティックス,,株式会社,兵庫県,神戸市中央区,古湊通１丁目２番８甲南サンコーポラス７０１号,,28,110,6500026,,,2025-01-20,登記官による閉鎖,,,2015-10-05,1,,,,,,0
1952,7140001029357,登記記録の閉鎖等,0,2025-01-20,2025-01-20,株式会社ジュエル,,株式会社,兵庫県,芦屋市,大原町２８番１号３０３,,28,206,6590092,,,2025-01-20,登記官による閉鎖,,,2015-10-05,1,,,,,,0
1953,7140001029902,登記記録の閉鎖等,0,2025-01-20,2025-01-20,株式会社二人の匠,,株式会社,兵庫県,神戸市中央区,琴ノ緒町５丁目２番２号三信ビル４０１,,28,110,6510094,,,2025-01-20,登記官による閉鎖,,,2015-10-05,1,,,,,,0
1954,7140001037062,登記記録の閉鎖等,0,2025-01-20,2025-01-20,株式会社石田藤治郎商店,,株式会社,兵庫県,三木市,吉川町渡瀬２９番地,,28,215,6731129,,,2025-01-20,登記官による閉鎖,,,2015-10-05,1,,,,,,0
1955,7140001041915,登記記録の閉鎖等,0,2025-01-20,2025-01-20,株式会社カコプランニング,,株式会社,兵庫県,丹波篠山市,八上上１９８番地,,28,221,6692446,,,2025-01-20,登記官による閉鎖,,,2015-10-05,1,,,,,,0
1956,7140001042269,登記記録の閉鎖等,0,2025-01-20,2025-01-20,シスコ・イノベーションズ株式会社,,株式会社,兵庫県,尼崎市,東本町４丁目１４番地１,,28,202,6600824,,,2025-01-20,登記官による閉鎖,,,2015-10-05,1,,,,,,0
1957,7140001048753,登記記録の閉鎖等,0,2025-01-20,2025-01-20,株式会社小島畳店,,株式会社,兵庫県,尼崎市,西立花町２丁目５番２６号,,28,202,6600054,,,2025-01-20,登記官による閉鎖,,,2015-10-05,1,,,,,,0
1958,7140001049405,登記記録の閉鎖等,0,2025-01-20,2025-01-20,株式会社砂川商会,,株式会社,兵庫県,尼崎市,東初島町２番９号,,28,202,6600832,,,2025-01-20,登記官による閉鎖,,,2015-10-05,1,,,,,,0
1960,7140001055568,登記記録の閉鎖等,0,2025-01-20,2025-01-20,毛利木材工業株式会社,,株式会社,兵庫県,尼崎市,東難波町５丁目２８番３１号,,28,202,6600892,,,2025-01-20,登記官による閉鎖,,,2015-10-05,1,,,,,,0
1961,7140001060618,登記記録の閉鎖等,0,2025-01-20,2025-01-20,野里電設株式会社,,株式会社,兵庫県,姫路市,河間町３７番地,,28,201,6700001,,,2025-01-20,登記官による閉鎖,,,2015-10-05,1,,,,,,0
1962,7140001064775,登記記録の閉鎖等,0,2025-01-20,2025-01-20,株式会社アイヘアー,,株式会社,兵庫県,姫路市,城北本町１５番２９,,28,201,6700884,,,2025-01-20,登記官による閉鎖,,,2015-10-05,1,,,,,,0
1963,7140001066193,登記記録の閉鎖等,0,2025-01-20,2025-01-20,株式会社ノア,,株式会社,兵庫県,姫路市,阿保乙３９２番地の１４,,28,201,6700944,,,2025-01-20,登記官による閉鎖,,,2015-10-05,1,,,,,,0
1964,7140001067299,登記記録の閉鎖等,0,2025-01-20,2025-01-20,株式会社スタート,,株式会社,兵庫県,三田市,中央町１０番１９号,,28,219,6691529,,,2025-01-20,登記官による閉鎖,,,2015-10-05,1,,,,,,0
1965,7140001086811,登記記録の閉鎖等,0,2025-01-20,2025-01-20,丸永産業株式会社,,株式会社,兵庫県,加古川市,野口町北野９９１番地の１２８,,28,210,6750011,,,2025-01-20,登記官による閉鎖,,,2015-10-05,1,,,,,,0
1966,7140001091308,登記記録の閉鎖等,0,2025-01-20,2025-01-20,株式会社玄－ｇｅｎ,,株式会社,兵庫県,尼崎市,東難波町１丁目５番４０－４０７号,,28,202,6600892,,,2025-01-20,登記官による閉鎖,,,2015-10-05,1,,,,,,0
1967,7140001092834,登記記録の閉鎖等,0,2025-01-20,2025-01-20,株式会社一善,,株式会社,兵庫県,姫路市,大塩町９８６番地３,,28,201,6710101,,,2025-01-20,登記官による閉鎖,,,2015-10-05,1,,,,,,0
1968,7140001114035,登記記録の閉鎖等,0,2025-01-20,2025-01-20,双洋コンクリート工業株式会社,,株式会社,兵庫県,神戸市西区,玉津町上池皆地２５５番地ノ１,,28,111,6512126,,,2025-01-20,登記官による閉鎖,,,2019-06-27,1,,,,,ソウヨウコンクリートコウギョウ,0
1971,7140002009738,登記記録の閉鎖等,0,2025-01-20,2025-01-20,有限会社オオイケカナモノ,,有限会社,兵庫県,神戸市北区,西大池１丁目３番２６号,,28,109,6511201,,,2025-01-20,登記官による閉鎖,,,2015-10-05,1,,,,,,0
1972,7140002019885,登記記録の閉鎖等,0,2025-01-20,2025-01-20,有限会社神戸工機,,有限会社,兵庫県,芦屋市,浜芦屋町８番１０号,00040701,28,206,6590054,,,2025-01-20,登記官による閉鎖,,,2015-10-05,1,,,,,,0
1973,7140002037061,登記記録の閉鎖等,0,2025-01-20,2025-01-20,有限会社オールポピー,,有限会社,兵庫県,高砂市,神爪１丁目１３番２０号,,28,216,6760808,,,2025-01-20,登記官による閉鎖,,,2015-10-05,1,,,,,,0
1974,7140002046509,登記記録の閉鎖等,0,2025-01-20,2025-01-20,有限会社そば藤,,有限会社,兵庫県,豊岡市,出石町町分１３７番地の２,,28,209,6680221,,,2025-01-20,登記官による閉鎖,,,2015-10-05,1,,,,,,0
1975,7140002048158,登記記録の閉鎖等,0,2025-01-20,2025-01-20,有限会社菊池建設,,有限会社,兵庫県,姫路市,広畑区小松町２丁目６８番地,,28,201,6711152,,,2025-01-20,登記官による閉鎖,,,2015-10-05,1,,,,,,0
1976,7140002048587,登記記録の閉鎖等,0,2025-01-20,2025-01-20,有限会社小林文具店,,有限会社,兵庫県,姫路市,南今宿６番５号,,28,201,6700054,,,2025-01-20,登記官による閉鎖,,,2015-10-05,1,,,,,,0
1978,7140003005406,登記記録の閉鎖等,0,2025-01-20,2025-01-20,合同会社ＫＲＢインターナショナル,,合同会社,兵庫県,神戸市東灘区,森北町１丁目５番１０号清保アイレックスコート３０３号,,28,101,6580001,,,2025-01-20,登記官による閉鎖,,,2015-10-05,1,,,,,,0
1979,7140003008103,登記記録の閉鎖等,0,2025-01-20,2025-01-20,合同会社天然生活,,合同会社,兵庫県,西宮市,芦原町５番１１号,00041852,28,204,6620842,,,2025-01-20,登記官による閉鎖,,,2015-10-05,1,,,,,,0
1982,7140005003861,登記記録の閉鎖等,0,2025-01-20,2025-01-20,特定非営利活動法人生活応援団キャンドヘルス,,その他の設立登記法人,兵庫県,神戸市長田区,神楽町２丁目３番３４号,,28,106,6530836,,,2025-01-20,登記官による閉鎖,,,2015-10-05,1,,,,,,0
1983,7140005011220,登記記録の閉鎖等,0,2025-01-20,2025-01-20,協同組合杭瀬北市場,,その他の設立登記法人,兵庫県,尼崎市,杭瀬北新町１丁目１０番１号,,28,202,6600815,,,2025-01-20,登記官による閉鎖,,,2015-10-05,1,,,,,,0
1984,7140005015015,登記記録の閉鎖等,0,2025-01-20,2025-01-20,特定非営利活動法人姫路ボウリング推進会,,その他の設立登記法人,兵庫県,姫路市,山吹２丁目６－１１タウニィ山吹Ａ２０２号,,28,201,6700085,,,2025-01-20,登記官による閉鎖,,,2015-10-05,1,,,,,,0
1985,7140005019065,登記記録の閉鎖等,0,2025-01-20,2025-01-20,特定非営利活動法人たからづか振興会,,その他の設立登記法人,兵庫県,宝塚市,月見山１丁目２番２５－１１０２号,,28,214,6650002,,,2025-01-20,登記官による閉鎖,,,2015-10-05,1,,,,,,0
1986,7140005024791,登記記録の閉鎖等,0,2025-01-20,2025-01-20,高木第一皮革工業協同組合,,その他の設立登記法人,兵庫県,姫路市,花田町高木１０４番地の３,,28,201,6710256,,,2025-01-20,登記官による閉鎖,,,2019-09-12,1,,,,,タカギダイイチヒカクコウギョウ,0
1991,7180001090470,登記記録の閉鎖等,0,2025-01-20,2025-01-07,株式会社ＴＫＫ,,株式会社,愛知県,名古屋市名東区,高針台１丁目８１０番地の２,,23,115,4650054,,,2025-01-07,清算の結了等,,,2015-10-05,1,,,,,ティーケイケイ,0
1995,7180001153483,登記記録の閉鎖等,0,2025-01-20,2025-01-06,元莱益健康株式会社,00128211,株式会社,愛知県,名古屋市中区,栄１丁目１６番１６号－９１４号室,,23,106,4600008,,,2025-01-06,清算の結了等,,,2022-10-24,1,,,,,ガンライエキケンコウ,0
2011,7180302001812,登記記録の閉鎖等,0,2025-01-20,2025-01-14,有限会社竹本設計,,有限会社,愛知県,岡崎市,大門３丁目４番地１７,,23,202,4442135,,,2025-01-14,清算の結了等,,,2015-10-05,1,,,,,タケモトセッケイ,0
2018,7230002009209,登記記録の閉鎖等,0,2025-01-20,2025-01-14,有限会社石崎測量,00079128,有限会社,富山県,砺波市,東保６４番地,,16,208,9391401,,,2025-01-14,清算の結了等,,,2015-10-05,1,,,,,イシサキソクリョウ,0
2025,7250002016657,登記記録の閉鎖等,0,2025-01-20,2025-01-06,有限会社周南クリーニング,,有限会社,山口県,周南市,古市２丁目４番１１号,,35,215,7460025,,,2025-01-06,合併による解散等,6250002007731,令和７年１月１日山口県美祢市美東町綾木１６４９番地１株式会社朝日化学（6250002007731）に合併し解散,2015-10-05,1,,,,,シュウナンクリーニング,0
2037,7310001008491,登記記録の閉鎖等,0,2025-01-20,2025-01-16,雲仙ゴルフ場株式会社,,株式会社,長崎県,雲仙市,小浜町雲仙５４８番地,,42,213,8540621,,,2025-01-16,清算の結了等,,,2015-10-05,1,,,,,ウンゼンゴルフジョウ,0
2045,7320002018852,登記記録の閉鎖等,0,2025-01-20,2025-01-16,有限会社塩谷製菓,,有限会社,大分県,日田市,大字花月４２０番地の１,,44,204,8770000,,,2025-01-16,清算の結了等,,,2015-10-05,1,,,,,,0
2046,7330001002765,登記記録の閉鎖等,0,2025-01-20,2025-01-20,大藤産業株式会社,,株式会社,熊本県,熊本市西区,二本木１丁目３番６号,,43,103,8600051,,,2025-01-20,登記官による閉鎖,,,2015-10-05,1,,,,,,0
2047,7330001007087,登記記録の閉鎖等,0,2025-01-20,2025-01-20,株式会社メロー興業,,株式会社,熊本県,宇土市,三拾町２４３番地７,,43,211,8690406,,,2025-01-20,登記官による閉鎖,,,2015-10-05,1,,,,,,0
2048,7330002000446,登記記録の閉鎖等,0,2025-01-20,2025-01-20,有限会社アバンス九州,,有限会社,熊本県,熊本市東区,東京塚町１番２５号,,43,102,8620923,,,2025-01-20,登記官による閉鎖,,,2015-10-05,1,,,,,,0
2049,7330002011542,登記記録の閉鎖等,0,2025-01-20,2025-01-20,有限会社ロータス化粧品熊本,,有限会社,熊本県,熊本市東区,秋津１丁目１番１８号,,43,102,8612104,,,2025-01-20,登記官による閉鎖,,,2015-10-05,1,,,,,,0
2050,7330002020411,登記記録の閉鎖等,0,2025-01-20,2025-01-20,塚本通信有限会社,,有限会社,熊本県,上益城郡益城町,大字馬水４５３番地,,43,443,8612232,,,2025-01-20,登記官による閉鎖,,,2019-07-19,1,,,,,ツカモトツウシン,0
2051,7330002026631,登記記録の閉鎖等,0,2025-01-20,2025-01-20,有限会社一興商事,,有限会社,熊本県,八代市,鏡町塩浜３９２番地の１０,,43,202,8694224,,,2025-01-20,登記官による閉鎖,,,2015-10-05,1,,,,,,0
2052,7330003004850,登記記録の閉鎖等,0,2025-01-20,2025-01-20,合同会社クオリティライフ,,合同会社,熊本県,熊本市中央区,九品寺１丁目１１番２９号,,43,101,8620976,,,2025-01-20,登記官による閉鎖,,,2015-10-05,1,,,,,,0
2075,8010001238606,登記記録の閉鎖等,0,2025-01-20,2024-12-27,株式会社ＳＬＣ,,株式会社,東京都,千代田区,外神田４丁目９番８号神田石川ビル５階,,13,101,1010021,,,2024-12-27,清算の結了等,,,2023-09-21,1,,,,,エスエルシー,0
2102,8010801016293,登記記録の閉鎖等,0,2025-01-20,2024-12-19,株式会社千鳥出版企画,,株式会社,東京都,大田区,千鳥２丁目６番７－１０１号,,13,111,1460083,,,2024-12-19,清算の結了等,,,2015-10-05,1,,,,,チドリシュッパンキカク,0
2106,8010902004825,登記記録の閉鎖等,0,2025-01-20,2025-01-09,有限会社＿立メンテナンス,00052815,有限会社,東京都,世田谷区,桜１丁目６３番１３号,,13,112,1560053,,,2025-01-09,清算の結了等,,,2015-10-05,1,,,,,,0
2123,8011103008079,登記記録の閉鎖等,0,2025-01-20,2024-12-26,合同会社好き好き大スキー,,合同会社,東京都,世田谷区,太子堂２丁目９番２号太子堂ヒルズ,,13,112,1540004,,,2024-12-26,清算の結了等,,,2018-07-18,1,,,,,スキスキダイスキー,0
2132,8011503005106,登記記録の閉鎖等,0,2025-01-20,2025-01-14,合同会社Ｅｔｅｒｎｉｔｙ　Ｅｘｐｒｅｓｓ,,合同会社,埼玉県,さいたま市大宮区,桜木町２丁目３番地大宮マルイ７階,,11,103,3300854,,,2025-01-14,清算の結了等,,,2022-03-15,1,,,,,エタニティーエクスプレス,0
2135,8011601022374,登記記録の閉鎖等,0,2025-01-20,2025-01-06,ちくぽす株式会社,,株式会社,東京都,練馬区,高松５丁目８番２０号,,13,120,1790075,,,2025-01-06,合併による解散等,3011601011290,令和７年１月１日東京都練馬区高松五丁目８番２０号株式会社地区宅便（3011601011290）に合併し解散,2018-02-16,1,,,,,チクポス,0
2136,8011602000478,登記記録の閉鎖等,0,2025-01-20,2025-01-20,アザレマーゴ有限会社,,有限会社,東京都,練馬区,大泉学園町７丁目５番３号,,13,120,1780061,,,2025-01-20,登記官による閉鎖,,,2015-10-05,1,,,,,,0
2137,8011602006608,登記記録の閉鎖等,0,2025-01-20,2025-01-20,有限会社チェリー工芸,,有限会社,東京都,練馬区,桜台３丁目３７番１６号,,13,120,1760002,,,2025-01-20,登記官による閉鎖,,,2015-10-05,1,,,,,,0
2138,8011701015559,登記記録の閉鎖等,0,2025-01-20,2025-01-14,トータルリフォームＦ企画株式会社,,株式会社,東京都,江戸川区,鹿骨４丁目７番９－２０２号,,13,123,1330073,,,2025-01-14,清算の結了等,,,2015-10-05,1,,,,,,0
2146,8013201002748,登記記録の閉鎖等,0,2025-01-20,2024-12-13,自由が丘スポーツクラフト株式会社,,株式会社,東京都,目黒区,自由が丘１丁目８番９号,,13,110,1520035,,,2024-12-13,清算の結了等,,,2015-10-05,1,,,,,ジユウガオカスポーツクラフト,0
2157,8030001019582,登記記録の閉鎖等,0,2025-01-20,2025-01-14,株式会社さいどの森,,株式会社,埼玉県,さいたま市岩槻区,大字横根５０３番地１,,11,110,3390036,,,2025-01-14,清算の結了等,,,2015-10-05,1,,,,,サイドノモリ,0
2158,8030001075907,登記記録の閉鎖等,0,2025-01-20,2025-01-10,株式会社タカサワ製作所,,株式会社,埼玉県,川口市,元郷１丁目１０番８号,,11,203,3320011,,,2025-01-10,清算の結了等,,,2015-10-05,1,,,,,タカサワセイサクショ,0
2173,8040001028665,登記記録の閉鎖等,0,2025-01-20,2025-01-08,善栄商事株式会社,,株式会社,千葉県,市川市,宮久保２丁目１３番１号,,12,203,2720822,,,2025-01-08,清算の結了等,,,2015-10-05,1,,,,,ゼンエイショウジ,0
2192,8080002012359,登記記録の閉鎖等,0,2025-01-20,2025-01-14,有限会社静岡フィールドサービス,,有限会社,静岡県,静岡市葵区,門屋６２４番地,,22,101,4212107,,,2025-01-14,清算の結了等,,,2015-10-05,1,,,,,シズオカフィールドサービス,0
2195,8100002005153,登記記録の閉鎖等,0,2025-01-20,2025-01-10,有限会社宮之尾,,有限会社,長野県,長野市,稲里町下氷鉋１２５２番地１,,20,201,3812211,,,2025-01-10,合併による解散等,7100001002854,令和７年１月１日長野市箱清水二丁目１２番２７号株式会社浜田屋クリーニング（7100001002854）に合併し解散,2015-10-05,1,,,,,ミヤノオ,0
2200,8110002021901,登記記録の閉鎖等,0,2025-01-20,2025-01-15,有限会社エイチ・ティ・アイ,,有限会社,新潟県,新潟市中央区,学校町通３番町５５５番地２,,15,103,9518126,,,2025-01-15,清算の結了等,,,2015-10-05,1,,,,,エイチティアイ,0
2223,8122003000065,登記記録の閉鎖等,0,2025-01-20,2025-01-07,合資会社三笠商店,,合資会社,大阪府,東大阪市,小阪１丁目８番３８号,,27,227,5770801,,,2025-01-07,清算の結了等,,,2015-10-05,1,,,,,ミカサショウテン,0
2232,8140001028507,登記記録の閉鎖等,0,2025-01-20,2025-01-20,株式会社ＪＩＮマーケティング,,株式会社,兵庫県,神戸市中央区,北長狭通３丁目３番６号,,28,110,6500012,,,2025-01-20,登記官による閉鎖,,,2015-10-05,1,,,,,,0
2233,8140001029232,登記記録の閉鎖等,0,2025-01-20,2025-01-20,株式会社オフィスＫＯＭＯＤＡ,,株式会社,兵庫県,神戸市中央区,京町７９,,28,110,6500034,,,2025-01-20,登記官による閉鎖,,,2015-10-05,1,,,,,,0
2234,8140001040552,登記記録の閉鎖等,0,2025-01-20,2025-01-20,ジャパンレントオール太子株式会社,,株式会社,兵庫県,揖保郡太子町,矢田部４５６番地１,,28,464,6711522,,,2025-01-20,登記官による閉鎖,,,2015-10-05,1,,,,,,0
2235,8140001040940,登記記録の閉鎖等,0,2025-01-20,2025-01-20,株式会社ウスイ,,株式会社,兵庫県,丹波市,春日町石才１０６番地の１,,28,223,6693413,,,2025-01-20,登記官による閉鎖,,,2015-10-05,1,,,,,,0
2237,8140001054981,登記記録の閉鎖等,0,2025-01-20,2025-01-20,株式会社ライフアーキテクト,,株式会社,兵庫県,尼崎市,南塚口町５丁目１０番１－１０３号,,28,202,6610012,,,2025-01-20,登記官による閉鎖,,,2015-10-05,1,,,,,,0
2238,8140001058470,登記記録の閉鎖等,0,2025-01-20,2025-01-20,木谷運送株式会社,,株式会社,兵庫県,姫路市,延末２９５番地,,28,201,6700966,,,2025-01-20,登記官による閉鎖,,,2015-10-05,1,,,,,,0
2239,8140001066969,登記記録の閉鎖等,0,2025-01-20,2025-01-20,株式会社浜本,,株式会社,兵庫県,三田市,友が丘２丁目２３番地３,,28,219,6691516,,,2025-01-20,登記官による閉鎖,,,2015-10-05,1,,,,,,0
2240,8140001068180,登記記録の閉鎖等,0,2025-01-20,2025-01-20,王冠産業株式会社,,株式会社,兵庫県,西宮市,今在家町２番２２号,,28,204,6620972,,,2025-01-20,登記官による閉鎖,,,2015-10-05,1,,,,,,0
2241,8140001073651,登記記録の閉鎖等,0,2025-01-20,2025-01-20,高速ロードサービス株式会社,,株式会社,兵庫県,西宮市,西宮浜２丁目１番地３スバル興業株式会社阪神事業所内,,28,204,6620934,,,2025-01-20,登記官による閉鎖,,,2015-10-05,1,,,,,,0
2242,8140001081720,登記記録の閉鎖等,0,2025-01-20,2025-01-20,大邦工業株式会社,,株式会社,兵庫県,宝塚市,小林４丁目９番２２号,,28,214,6650034,,,2025-01-20,登記官による閉鎖,,,2015-10-05,1,,,,,,0
2243,8140001088088,登記記録の閉鎖等,0,2025-01-20,2025-01-20,西兵庫不動産株式会社,,株式会社,兵庫県,姫路市,神子岡前１丁目９番４１号,,28,201,6700055,,,2025-01-20,登記官による閉鎖,,,2015-10-05,1,,,,,,0
2247,8140002002188,登記記録の閉鎖等,0,2025-01-20,2025-01-20,有限会社コッケン,,有限会社,兵庫県,神戸市東灘区,住吉山手９丁目１番３号,,28,101,6580063,,,2025-01-20,登記官による閉鎖,,,2015-10-05,1,,,,,,0
2248,8140002005364,登記記録の閉鎖等,0,2025-01-20,2025-01-15,有限会社山崎モータース,,有限会社,兵庫県,神戸市西区,水谷３丁目９番２１号,,28,111,6512121,,,2025-01-15,清算の結了等,,,2015-10-05,1,,,,,ヤマサキモータース,0
2250,8140002010315,登記記録の閉鎖等,0,2025-01-20,2025-01-20,有限会社花山酒店,,有限会社,兵庫県,神戸市北区,花山台２番９号,,28,109,6511205,,,2025-01-20,登記官による閉鎖,,,2015-10-05,1,,,,,,0
2253,8140002032375,登記記録の閉鎖等,0,2025-01-20,2025-01-20,有限会社高田工務店,,有限会社,兵庫県,西宮市,津門稲荷町７番３号,,28,204,6638247,,,2025-01-20,登記官による閉鎖,,,2015-10-05,1,,,,,,0
2255,8140002058890,登記記録の閉鎖等,0,2025-01-20,2025-01-20,アジアの風イエロービーンズ有限会社,,有限会社,兵庫県,西宮市,北名次町１番２３－１０１号,,28,204,6620025,,,2025-01-20,登記官による閉鎖,,,2015-10-05,1,,,,,,0
2256,8140002059179,登記記録の閉鎖等,0,2025-01-20,2025-01-20,有限会社エコードリーム,,有限会社,兵庫県,西宮市,能登町３番１２号,,28,204,6620838,,,2025-01-20,登記官による閉鎖,,,2015-10-05,1,,,,,,0
2257,8140002066365,登記記録の閉鎖等,0,2025-01-20,2025-01-20,有限会社まほうの鏡,,有限会社,兵庫県,伊丹市,池尻１丁目５１番地山本ビル１階,,28,207,6640027,,,2025-01-20,登記官による閉鎖,,,2015-10-05,1,,,,,,0
2258,8140005002037,登記記録の閉鎖等,0,2025-01-20,2025-01-20,医療法人社団西眼科医院,,その他の設立登記法人,兵庫県,神戸市兵庫区,下沢通１丁目３番６号,,28,105,6520047,,,2025-01-20,登記官による閉鎖,,,2015-10-05,1,,,,,,0
2259,8140005002929,登記記録の閉鎖等,0,2025-01-20,2025-01-20,兵庫県建材商業協同組合,,その他の設立登記法人,兵庫県,神戸市東灘区,住吉南町３丁目３番１４号,,28,101,6580041,,,2025-01-20,登記官による閉鎖,,,2019-02-04,1,,,,,,0
2260,8140005014932,登記記録の閉鎖等,0,2025-01-20,2025-01-20,特定非営利活動法人ＮＰＯひまわり,,その他の設立登記法人,兵庫県,姫路市,古二階町６３番地,,28,201,6700936,,,2025-01-20,登記官による閉鎖,,,2015-10-05,1,,,,,,0
2261,8140005016549,登記記録の閉鎖等,0,2025-01-20,2025-01-20,ＮＰＯ法人臨床抗加齢予防医学研究所,,その他の設立登記法人,兵庫県,西宮市,市庭町９番１２号,,28,204,6620975,,,2025-01-20,登記官による閉鎖,,,2015-10-05,1,,,,,,0
2288,8220003003623,登記記録の閉鎖等,0,2025-01-20,2025-01-08,合同会社嘉悠,,合同会社,石川県,金沢市,堀川新町５‐１アリマビル３Ｆ,,17,201,9200849,,,2025-01-08,清算の結了等,,,2023-11-15,1,,,,,ヨシハル,0
2291,8240001005801,登記記録の閉鎖等,0,2025-01-20,2025-01-16,大和工機株式会社,,株式会社,広島県,広島市中区,江波南２丁目１６番２４号,,34,101,7300835,,,2025-01-16,清算の結了等,,,2015-10-05,1,,,,,ダイワコウキ,0
2292,8240001024743,登記記録の閉鎖等,0,2025-01-20,2025-01-15,株式会社かや園芸場,,株式会社,広島県,安芸高田市,甲田町下甲立１６２４番地,,34,214,7391105,,,2025-01-15,合併による解散等,1120001059262,令和７年１月１日大阪市淀川区宮原四丁目５番３６号湧永製薬株式会社（1120001059262）に合併し解散,2015-10-05,1,,,,,カヤエンゲイジョウ,0
2293,8240002017168,登記記録の閉鎖等,0,2025-01-20,2025-01-17,有限会社山崎建築設計事務所,,有限会社,広島県,広島市佐伯区,五月が丘２丁目２１番２６号,,34,108,7315101,,,2025-01-17,清算の結了等,,,2015-10-05,1,,,,,ヤマサキケンチクセッケイジムショ,0
2295,8250002013216,登記記録の閉鎖等,0,2025-01-20,2025-01-06,有限会社大洋ドライ,,有限会社,山口県,萩市,大字山田４２０９の１,,35,204,7580063,,,2025-01-06,合併による解散等,6250002007731,令和７年１月１日山口県美祢市美東町綾木１６４９番地１株式会社朝日化学（6250002007731）に合併し解散,2015-10-05,1,,,,,タイヨウドライ,0
2312,8320002020601,登記記録の閉鎖等,0,2025-01-20,2025-01-15,有限会社クリエイト産業,,有限会社,大分県,中津市,大字永添７７１番地,,44,203,8710162,,,2025-01-15,清算の結了等,,,2015-10-05,1,,,,,,0
2317,8330002013389,登記記録の閉鎖等,0,2025-01-20,2025-01-20,有限会社深水,,有限会社,熊本県,熊本市中央区,大江５丁目８番２５号,,43,101,8620971,,,2025-01-20,登記官による閉鎖,,,2015-10-05,1,,,,,,0
2319,8330002020138,登記記録の閉鎖等,0,2025-01-20,2025-01-20,有限会社春野商店,,有限会社,熊本県,上益城郡益城町,大字広崎６３０番地１,,43,443,8612236,,,2025-01-20,登記官による閉鎖,,,2015-10-05,1,,,,,,0
2320,8330002030260,登記記録の閉鎖等,0,2025-01-20,2025-01-20,有限会社大王舎,,有限会社,熊本県,人吉市,城本町１０５４番地,,43,203,8680016,,,2025-01-20,登記官による閉鎖,,,2015-10-05,1,,,,,,0
2321,8330002031548,登記記録の閉鎖等,0,2025-01-20,2025-01-20,砂川商事有限会社,,有限会社,熊本県,宇城市,小川町小川７９番地,,43,213,8690621,,,2025-01-20,登記官による閉鎖,,,2020-01-09,1,,,,,,0
2322,8330003008000,登記記録の閉鎖等,0,2025-01-20,2025-01-20,合資会社栄田商店,,合資会社,熊本県,八代市,出町１番８号,,43,202,8660857,,,2025-01-20,登記官による閉鎖,,,2019-07-18,1,,,,,サカエダショウテン,0
2323,8330005008411,登記記録の閉鎖等,0,2025-01-20,2025-01-20,特定非営利活動法人ケアプランセンターきずな,,その他の設立登記法人,熊本県,八代郡氷川町,高塚９１７番地,,43,468,8694802,,,2025-01-20,登記官による閉鎖,,,2015-10-05,1,,,,,,0
2324,8330005008502,登記記録の閉鎖等,0,2025-01-20,2025-01-20,ＮＰＯ法人天草の萌組,,その他の設立登記法人,熊本県,天草市,五和町二江３１２８番地２,,43,215,8632421,,,2025-01-20,登記官による閉鎖,,,2015-10-05,1,,,,,,0
2334,8380001014202,登記記録の閉鎖等,0,2025-01-20,2024-12-27,株式会社ひのきの杜,,株式会社,福島県,いわき市,泉町下川字土木内１番地の１,,07,204,9718183,,,2024-12-27,清算の結了等,,,2015-10-05,1,,,,,ヒノキノモリ,0
2337,8380002029967,登記記録の閉鎖等,0,2025-01-20,2025-01-08,有限会社グリーンヴィレッヂ,,有限会社,福島県,郡山市,大槻町字仁池向１０番地の２５,,07,203,9630201,,,2025-01-08,清算の結了等,,,2015-10-05,1,,,,,グリーンヴィレッヂ,0
2338,8390001006859,登記記録の閉鎖等,0,2025-01-20,2025-01-14,株式会社砂川電機,,株式会社,山形県,酒田市,京田４丁目２番３,,06,204,9980102,,,2025-01-14,清算の結了等,,,2015-10-05,1,,,,,スナガワデンキ,0
2344,8430001083638,登記記録の閉鎖等,0,2025-01-20,2025-01-06,株式会社常健,,株式会社,北海道,札幌市豊平区,豊平三条１丁目１番３８号,,01,105,0620903,,,2025-01-06,合併による解散等,2430001002710,令和７年１月１日札幌市北区北八条西三丁目２８番株式会社メディプラン（2430001002710）に合併し解散,2021-03-18,1,,,,,ジョウケン,0
2353,8480002008267,登記記録の閉鎖等,0,2025-01-20,2025-01-17,有限会社市山工業,,有限会社,徳島県,徳島市,一宮町東丁４３７番地の４,,36,201,7793132,,,2025-01-17,清算の結了等,,,2015-10-05,1,,,,,イチヤマコウギョウ,0
2358,9010001066766,登記記録の閉鎖等,0,2025-01-20,2024-12-23,菱永鑑定調査株式会社,,株式会社,東京都,港区,新橋６丁目１７番１５号,,13,103,1050004,,,2024-12-23,清算の結了等,,,2015-10-05,1,,,,,リョウエイカンテイチョウサ,0
2375,9010003030010,登記記録の閉鎖等,0,2025-01-20,2024-12-27,合同会社ティグレ,,合同会社,東京都,千代田区,丸の内１丁目４番１号東京共同会計事務所内,,13,101,1000005,,,2024-12-27,清算の結了等,,,2019-06-12,1,,,,,ティグレ,0
2391,9010601038470,登記記録の閉鎖等,0,2025-01-20,2025-01-16,株式会社エムズフロンティア,,株式会社,東京都,江東区,枝川２丁目８番４号,,13,108,1350051,,,2025-01-16,合併による解散等,5060001020508,令和７年１月１日栃木県佐野市越名町２０４１番地７株式会社ミライト・ワン・ネクスト（5060001020508）に合併し解散,2015-10-05,1,,,,,エムズフロンティア,0
2397,9010803004089,登記記録の閉鎖等,0,2025-01-20,2025-01-10,合同会社ミトユト,,合同会社,東京都,大田区,西六郷４丁目２９番５―２０７号,,13,111,1440056,,,2025-01-10,清算の結了等,,,2022-03-11,1,,,,,ミトユト,0
2402,9010902009253,登記記録の閉鎖等,0,2025-01-20,2025-01-10,有限会社太陽社,,有限会社,東京都,世田谷区,池尻４丁目２番２３号,,13,112,1540001,,,2025-01-10,清算の結了等,,,2015-10-05,1,,,,,タイヨウシャ,0
2408,9011002006802,登記記録の閉鎖等,0,2025-01-20,2024-12-27,有限会社オフィス美江,,有限会社,東京都,千代田区,神田神保町３丁目１０番神田第３アメレックスビル１０階ルーバルオフィスＡ,,13,101,1010051,,,2024-12-27,清算の結了等,,,2015-10-05,1,,,,,,0
2410,9011103012336,登記記録の閉鎖等,0,2025-01-20,2025-01-06,合同会社ジェイ・エス・アイ,,合同会社,東京都,新宿区,下宮比町１番４号,,13,104,1620822,,,2025-01-06,合併による解散等,7011103013641,令和７年１月１日東京都新宿区下宮比町１番４号合同会社ジェイ・イー・ピー（7011103013641）に合併し解散,2022-11-02,1,,,,,ジェイエスアイ,0
2415,9011601000461,登記記録の閉鎖等,0,2025-01-20,2025-01-20,株式会社アラティ,,株式会社,東京都,練馬区,豊玉上２丁目２６番１６号,,13,120,1760011,,,2025-01-20,登記官による閉鎖,,,2015-10-05,1,,,,,,0
2416,9011601002383,登記記録の閉鎖等,0,2025-01-20,2025-01-20,ゴルヅンフリース株式会社,,株式会社,東京都,練馬区,豊玉中３丁目１９番７号,,13,120,1760013,,,2025-01-20,登記官による閉鎖,,,2018-02-15,1,,,,,,0
2417,9011601004990,登記記録の閉鎖等,0,2025-01-20,2025-01-20,株式会社中沢工務店,,株式会社,東京都,練馬区,桜台４丁目４番８号,,13,120,1760002,,,2025-01-20,登記官による閉鎖,,,2015-10-05,1,,,,,,0
2418,9011601018355,登記記録の閉鎖等,0,2025-01-20,2025-01-20,株式会社ＴＡＣプランニングオフィス,,株式会社,東京都,練馬区,小竹町２丁目４１番２号,,13,120,1760004,,,2025-01-20,登記官による閉鎖,,,2015-10-05,1,,,,,,0
2419,9011602000485,登記記録の閉鎖等,0,2025-01-20,2025-01-20,安藤運輸有限会社,,有限会社,東京都,練馬区,北町５丁目１２番２号,,13,120,1790081,,,2025-01-20,登記官による閉鎖,,,2015-10-05,1,,,,,,0
2420,9011602001533,登記記録の閉鎖等,0,2025-01-20,2025-01-20,有限会社エス・イグレク,,有限会社,東京都,練馬区,東大泉５丁目３８番６号,,13,120,1780063,,,2025-01-20,登記官による閉鎖,,,2015-10-05,1,,,,,,0
2423,9012401000684,登記記録の閉鎖等,0,2025-01-20,2025-01-09,株式会社シーズ,,株式会社,千葉県,白井市,富塚７２７番地１０,,12,232,2701405,,,2025-01-09,清算の結了等,,,2015-10-05,1,,,,,シーズ,0
2436,9020001044903,登記記録の閉鎖等,0,2025-01-20,2024-12-26,メディア・サポート株式会社,,株式会社,神奈川県,横浜市泉区,上飯田町３９０１番地,,14,116,2450018,,,2024-12-26,清算の結了等,,,2015-10-05,1,,,,,メディアサポート,0
2454,9030001063588,登記記録の閉鎖等,0,2025-01-20,2025-01-14,株式会社飯塚製作所,,株式会社,埼玉県,越谷市,宮本町２丁目２１６番地,,11,222,3430806,,,2025-01-14,清算の結了等,,,2015-10-05,1,,,,,イイヅカセイサクジョ,0
2467,9040002085085,登記記録の閉鎖等,0,2025-01-20,2025-01-08,有限会社松戸畜産,,有限会社,千葉県,旭市,イの９８２番地,,12,215,2892511,,,2025-01-08,清算の結了等,,,2015-10-05,1,,,,,マツドチクサン,0
2468,9040003025049,登記記録の閉鎖等,0,2025-01-20,2025-01-07,ＳＰＥＥＤ　ＦＯＲＣＥ合同会社,,合同会社,千葉県,四街道市,小名木９４番地６３,,12,228,2840042,,,2025-01-07,清算の結了等,,,2024-05-23,1,,,,,スピードフォース,0
2476,9050002012798,登記記録の閉鎖等,0,2025-01-20,2025-01-14,有限会社橋本会計事務所,,有限会社,茨城県,稲敷郡阿見町,大字実穀１５４７番地の１３,,08,443,3001153,,,2025-01-14,清算の結了等,,,2015-10-05,1,,,,,ハシモトカイケイジムショ,0
2479,9060003004141,登記記録の閉鎖等,0,2025-01-20,2025-01-15,合同会社ウイズアツプ,,合同会社,栃木県,宇都宮市,下岡本町４５４７番地１６,,09,201,3291104,,,2025-01-15,清算の結了等,,,2022-07-15,1,,,,,ウイズアツプ,0
2481,9060005009460,登記記録の閉鎖等,0,2025-01-20,2025-01-14,一般社団法人決算診断実践会,,その他の設立登記法人,栃木県,足利市,本城２丁目１９０１番地８,,09,202,3260808,,,2025-01-14,清算の結了等,,,2018-05-31,1,,,,,ケッサンシンダンジッセンカイ,0
2485,9070001040435,登記記録の閉鎖等,0,2025-01-20,2025-01-16,株式会社ＫＭ商事,,株式会社,群馬県,高崎市,高関町１５１番地１メゾンカサブランカ１０３号,,10,202,3700043,,,2025-01-16,清算の結了等,,,2023-05-16,1,,,,,ケイエムショウジ,0
2497,9110001014269,登記記録の閉鎖等,0,2025-01-20,2025-01-15,株式会社渋谷製作所,,株式会社,新潟県,三条市,西大崎１丁目１８番４６号,,15,204,9550033,,,2025-01-15,清算の結了等,,,2015-10-05,1,,,,,シブヤセイサクショ,0
2501,9120001039934,登記記録の閉鎖等,0,2025-01-20,2025-01-16,株式会社マイスター,,株式会社,大阪府,大阪市天王寺区,城南寺町８番４号,,27,109,5430017,,,2025-01-16,清算の結了等,,,2015-10-05,1,,,,,マイスター,0
2529,9140001016519,登記記録の閉鎖等,0,2025-01-20,2025-01-20,株式会社土幸商店,,株式会社,兵庫県,神戸市垂水区,下畑町字向井４９７番地１,,28,108,6550861,,,2025-01-20,登記官による閉鎖,,,2015-10-05,1,,,,,,0
2530,9140001018515,登記記録の閉鎖等,0,2025-01-20,2025-01-20,株式会社成栄実業,,株式会社,兵庫県,神戸市垂水区,城が山１丁目５番２１号,,28,108,6550884,,,2025-01-20,登記官による閉鎖,,,2015-10-05,1,,,,,,0
2531,9140001037408,登記記録の閉鎖等,0,2025-01-20,2025-01-20,株式会社アイノア,,株式会社,兵庫県,明石市,魚住町金ケ崎１５３９番地の１１５,,28,203,6740071,,,2025-01-20,登記官による閉鎖,,,2015-10-05,1,,,,,,0
2532,9140001041855,登記記録の閉鎖等,0,2025-01-20,2025-01-20,株式会社前政組,,株式会社,兵庫県,丹波篠山市,風深１４８番地の２,,28,221,6692343,,,2025-01-20,登記官による閉鎖,,,2015-10-05,1,,,,,,0
2533,9140001050410,登記記録の閉鎖等,0,2025-01-20,2025-01-20,株式会社中野組,,株式会社,兵庫県,尼崎市,西難波町２丁目４の２６,,28,202,6600893,,,2025-01-20,登記官による閉鎖,,,2015-10-05,1,,,,,,0
2534,9140001052893,登記記録の閉鎖等,0,2025-01-20,2025-01-20,株式会社ＭＣＫ,,株式会社,兵庫県,尼崎市,富松町３丁目１１番２２号,,28,202,6610003,,,2025-01-20,登記官による閉鎖,,,2015-10-05,1,,,,,,0
2538,9140001058858,登記記録の閉鎖等,0,2025-01-20,2025-01-20,株式会社小西ビル,,株式会社,兵庫県,姫路市,五軒邸１丁目８５番地,,28,201,6700854,,,2025-01-20,登記官による閉鎖,,,2015-10-05,1,,,,,,0
2540,9140001067495,登記記録の閉鎖等,0,2025-01-20,2025-01-20,株式会社Ｋ＆Ｋ,,株式会社,兵庫県,姫路市,飾磨区矢倉町２丁目２１番地,,28,201,6728093,,,2025-01-20,登記官による閉鎖,,,2015-10-05,1,,,,,,0
2541,9140001068007,登記記録の閉鎖等,0,2025-01-20,2025-01-20,株式会社イワイ製作所,,株式会社,兵庫県,西宮市,宝生ケ丘１丁目３番４号,,28,204,6691112,,,2025-01-20,登記官による閉鎖,,,2015-10-05,1,,,,,,0
2542,9140001068626,登記記録の閉鎖等,0,2025-01-20,2025-01-20,幸研産業株式会社,,株式会社,兵庫県,西宮市,上鳴尾町２４番１０号,,28,204,6638186,,,2025-01-20,登記官による閉鎖,,,2015-10-05,1,,,,,,0
2543,9140001070210,登記記録の閉鎖等,0,2025-01-20,2025-01-20,株式会社藤満工務店,,株式会社,兵庫県,西宮市,神楽町１１番３号,,28,204,6620977,,,2025-01-20,登記官による閉鎖,,,2015-10-05,1,,,,,,0
2544,9140001080580,登記記録の閉鎖等,0,2025-01-20,2025-01-20,株式会社ジャパンウエストグループ本部,,株式会社,兵庫県,伊丹市,寺本６丁目１４３番２,,28,207,6640026,,,2025-01-20,登記官による閉鎖,,,2015-10-05,1,,,,,,0
2545,9140001081257,登記記録の閉鎖等,0,2025-01-20,2025-01-20,株式会社クラショウ,,株式会社,兵庫県,宝塚市,小林５丁目９番８２号,,28,214,6650034,,,2025-01-20,登記官による閉鎖,,,2015-10-05,1,,,,,,0
2546,9140001081488,登記記録の閉鎖等,0,2025-01-20,2025-01-20,コンセントライフ株式会社,,株式会社,兵庫県,宝塚市,口谷西３丁目６２－１,,28,214,6650813,,,2025-01-20,登記官による閉鎖,,,2015-10-05,1,,,,,,0
2547,9140001087543,登記記録の閉鎖等,0,2025-01-20,2025-01-20,株式会社Ｋ’ＭＳ,,株式会社,兵庫県,芦屋市,平田町３番６号,,28,206,6590074,,,2025-01-20,登記官による閉鎖,,,2015-10-05,1,,,,,,0
2548,9140001089119,登記記録の閉鎖等,0,2025-01-20,2025-01-20,日本商事石油株式会社,,株式会社,兵庫県,西宮市,甲陽園本庄町６番４１－１０６号,,28,204,6620015,,,2025-01-20,登記官による閉鎖,,,2015-10-05,1,,,,,,0
2549,9140001090233,登記記録の閉鎖等,0,2025-01-20,2025-01-20,株式会社三晃プラント,,株式会社,兵庫県,姫路市,広畑区吾妻町１丁目４６番地,,28,201,6711154,,,2025-01-20,登記官による閉鎖,,,2015-10-05,1,,,,,,0
2553,9140002001742,登記記録の閉鎖等,0,2025-01-20,2025-01-20,神陸運輸有限会社,,有限会社,兵庫県,神戸市東灘区,向洋町東４丁目３－６,,28,101,6580031,,,2025-01-20,登記官による閉鎖,,,2015-10-05,1,,,,,,0
2554,9140002028315,登記記録の閉鎖等,0,2025-01-20,2025-01-20,有限会社池上組,,有限会社,兵庫県,明石市,小久保１丁目５番地の１,,28,203,6730005,,,2025-01-20,登記官による閉鎖,,,2015-10-05,1,,,,,,0
2556,9140002033389,登記記録の閉鎖等,0,2025-01-20,2025-01-20,有限会社ライフステージトゥ・デイ,,有限会社,兵庫県,揖保郡太子町,米田１６２番地,,28,464,6711542,,,2025-01-20,登記官による閉鎖,,,2015-10-05,1,,,,,,0
2557,9140002040369,登記記録の閉鎖等,0,2025-01-20,2025-01-20,有限会社カオリ,,有限会社,兵庫県,尼崎市,西立花町２丁目１７番３５号,,28,202,6600054,,,2025-01-20,登記官による閉鎖,,,2015-10-05,1,,,,,,0
2558,9140002041664,登記記録の閉鎖等,0,2025-01-20,2025-01-20,有限会社中部興産,,有限会社,兵庫県,尼崎市,大浜町１丁目１８番地２,,28,202,6600095,,,2025-01-20,登記官による閉鎖,,,2015-10-05,1,,,,,,0
2559,9140002060994,登記記録の閉鎖等,0,2025-01-20,2025-01-20,有限会社アイエスホーム,,有限会社,兵庫県,西宮市,北名次町９番８号,,28,204,6620025,,,2025-01-20,登記官による閉鎖,,,2015-10-05,1,,,,,,0
2560,9140002067684,登記記録の閉鎖等,0,2025-01-20,2025-01-20,有限会社ポケットプログラム,,有限会社,兵庫県,宝塚市,逆瀬川１丁目１４番３６号,,28,214,6650035,,,2025-01-20,登記官による閉鎖,,,2015-10-05,1,,,,,,0
2561,9140003009009,登記記録の閉鎖等,0,2025-01-20,2025-01-20,エスプロ合同会社,,合同会社,兵庫県,神戸市須磨区,禅昌寺町１丁目３７番１５号,,28,107,6540001,,,2025-01-20,登記官による閉鎖,,,2015-10-05,1,,,,,,0
2563,9140003020403,登記記録の閉鎖等,0,2025-01-20,2025-01-14,ＦＰオフィスＴ＆Ｍ合同会社,,合同会社,兵庫県,加東市,ひろのが丘６番地２１,,28,228,6731432,,,2025-01-14,清算の結了等,,,2024-04-11,1,,,,,エフピィオフイスティアンドエム,0
2564,9140005007935,登記記録の閉鎖等,0,2025-01-20,2025-01-20,特定非営利活動法人愛老倶楽部オリーブの会,,その他の設立登記法人,兵庫県,相生市,双葉３丁目３の４号,,28,208,6780024,,,2025-01-20,登記官による閉鎖,,,2015-10-05,1,,,,,,0
2565,9140005010484,登記記録の閉鎖等,0,2025-01-20,2025-01-20,農事組合法人与布土採卵養鶏組合,,その他の設立登記法人,兵庫県,朝来市,山東町越田５２番地,,28,225,6695142,,,2025-01-20,登記官による閉鎖,,,2015-10-05,1,,,,,,0
2566,9140005011838,登記記録の閉鎖等,0,2025-01-20,2025-01-20,特定非営利活動法人みんなでがんばろう塾,,その他の設立登記法人,兵庫県,尼崎市,次屋２丁目２２番８号,,28,202,6610965,,,2025-01-20,登記官による閉鎖,,,2015-10-05,1,,,,,,0
2567,9140005013289,登記記録の閉鎖等,0,2025-01-20,2025-01-20,協同組合宮友会,,その他の設立登記法人,兵庫県,姫路市,飾磨区英賀宮町１丁目１７番地,,28,201,6728080,,,2025-01-20,登記官による閉鎖,,,2015-10-05,1,,,,,,0
2568,9140005016589,登記記録の閉鎖等,0,2025-01-20,2025-01-20,特定非営利活動法人ドリームベースボール,,その他の設立登記法人,兵庫県,西宮市,津門仁辺町５番２７号,,28,204,6638246,,,2025-01-20,登記官による閉鎖,,,2015-10-05,1,,,,,,0
2569,9140005020525,登記記録の閉鎖等,0,2025-01-20,2025-01-20,Ｍ’プラザ土山管理組合法人,,その他の設立登記法人,兵庫県,加古川市,平岡町土山１０７７番地５,,28,210,6750104,,,2025-01-20,登記官による閉鎖,,,2015-10-05,1,,,,,,0
2575,9180001029509,登記記録の閉鎖等,0,2025-01-20,2025-01-16,株式会社オフィスステーション,,株式会社,愛知県,名古屋市中川区,富田町大字新家字上江向１３６３番地の２,,23,110,4540972,,,2025-01-16,登記官による閉鎖,,,2015-10-05,1,,,,,,0
2576,9180001111480,登記記録の閉鎖等,0,2025-01-20,2025-01-06,株式会社トリニティーキャリアマネジメント,,株式会社,愛知県,名古屋市中区,丸の内３丁目６番２７号ＥＢＳビル４階,,23,106,4600002,,,2025-01-06,合併による解散等,6180001060177,令和６年１２月３０日名古屋市中区丸の内三丁目６番２７号ＥＢＳビル４階株式会社トリニティーホールディングス（6180001060177）に合併し解散,2015-10-05,1,,,,,トリニティーキャリアマネジメント,0
2584,9180002032908,登記記録の閉鎖等,0,2025-01-20,2024-12-27,有限会社松葉鮨,,有限会社,愛知県,名古屋市中区,新栄１丁目１２番３１号,,23,106,4600007,,,2024-12-27,清算の結了等,,,2015-10-05,1,,,,,マツバズシ,0
2589,9180303001925,登記記録の閉鎖等,0,2025-01-20,2025-01-14,合同会社ＨＡＮＡ,,合同会社,愛知県,額田郡幸田町,大字六栗字竹ノ下２２番地２,,23,501,4440122,,,2025-01-14,清算の結了等,,,2015-10-05,1,,,,,ハナ,0
2593,9200003005331,登記記録の閉鎖等,0,2025-01-20,2025-01-16,合同会社ｒｉｃｈｅ,,合同会社,岐阜県,岐阜市,旦島３丁目９番２３号,,21,201,5020926,,,2025-01-16,清算の結了等,,,2021-10-05,1,,,,,リッシュ,0
2599,9220001021766,登記記録の閉鎖等,0,2025-01-20,2025-01-06,株式会社アドバンティア金沢,,株式会社,愛知県,豊橋市,大国町９３番地１アーバンステージ２Ｂ,,23,201,4400884,,,2025-01-06,合併による解散等,4180301024973,令和７年１月１日愛知県豊橋市大国町９３番地１アーバンステージ３Ａ株式会社アドバンティア（4180301024973）に合併し解散,2017-07-27,1,,,,,アドバンティアカナザワ,0
2605,9260005008178,登記記録の閉鎖等,0,2025-01-20,2025-01-15,一般財団法人玉野市母子寡婦福祉連合会,,その他の設立登記法人,岡山県,玉野市,玉６丁目１６番１６号,,33,204,7060012,,,2025-01-15,清算の結了等,,,2015-10-05,1,,,,,タマノシボシカフフクシレンゴウカイ,0
2622,9330001016664,登記記録の閉鎖等,0,2025-01-20,2025-01-20,株式会社坂口,,株式会社,熊本県,熊本市南区,御幸西１丁目７番７号,,43,104,8614171,,,2025-01-20,登記官による閉鎖,,,2015-10-05,1,,,,,,0
2623,9330001019460,登記記録の閉鎖等,0,2025-01-20,2025-01-20,株式会社Ｓｅｖｅｎ　ｎｏｗ,,株式会社,熊本県,熊本市中央区,水前寺１丁目１５番２号,,43,101,8620950,,,2025-01-20,登記官による閉鎖,,,2015-10-05,1,,,,,,0
2624,9330001026110,登記記録の閉鎖等,0,2025-01-20,2025-01-20,資源開発株式会社,,株式会社,熊本県,八代市,古閑浜町１番地の２９,,43,202,8660891,,,2025-01-20,登記官による閉鎖,,,2019-02-25,1,,,,,シゲンカイハツ,0
2625,9330002004354,登記記録の閉鎖等,0,2025-01-20,2025-01-20,有限会社境芳徳住宅建設,00097578,有限会社,熊本県,熊本市北区,貢町１０６２番地,,43,105,8615535,,,2025-01-20,登記官による閉鎖,,,2015-10-05,1,,,,,,0
2626,9330002007646,登記記録の閉鎖等,0,2025-01-20,2025-01-20,有限会社中村自動車,,有限会社,熊本県,熊本市東区,小山２丁目１９番２３号,,43,102,8618045,,,2025-01-20,登記官による閉鎖,,,2015-10-05,1,,,,,,0
2627,9330002019550,登記記録の閉鎖等,0,2025-01-20,2025-01-20,有限会社井上石油店,,有限会社,熊本県,上益城郡甲佐町,大字有安７１３番地１,,43,444,8614605,,,2025-01-20,登記官による閉鎖,,,2015-10-05,1,,,,,,0
2628,9330002024113,登記記録の閉鎖等,0,2025-01-20,2025-01-20,有限会社ティ・エイ・エル,,有限会社,熊本県,宇城市,小川町江頭５０番地の１６,,43,213,8690624,,,2025-01-20,登記官による閉鎖,,,2015-10-05,1,,,,,,0
2629,9330002029715,登記記録の閉鎖等,0,2025-01-20,2025-01-20,有限会社チューリップ,,有限会社,熊本県,八代市,古城町１６３３番地４,,43,202,8660043,,,2025-01-20,登記官による閉鎖,,,2015-10-05,1,,,,,,0
2630,9330002030607,登記記録の閉鎖等,0,2025-01-20,2025-01-20,有限会社山島運送,,有限会社,熊本県,球磨郡相良村,大字柳瀬３４０９番地の２３,,43,510,8680095,,,2025-01-20,登記官による閉鎖,,,2015-10-05,1,,,,,,0
2631,9330003003520,登記記録の閉鎖等,0,2025-01-20,2025-01-20,合資会社小俣製材工場,,合資会社,熊本県,八代市,泉町栗木５１３３番地,,43,202,8694402,,,2025-01-20,登記官による閉鎖,,,2015-10-05,1,,,,,,0
2632,9330003004816,登記記録の閉鎖等,0,2025-01-20,2025-01-20,合同会社ＴＨＥ　ＤＡＹ　ＣＡＦＥ,,合同会社,熊本県,熊本市北区,麻生田４丁目２番４０号,,43,105,8618081,,,2025-01-20,登記官による閉鎖,,,2015-10-05,1,,,,,,0
2634,9330005006918,登記記録の閉鎖等,0,2025-01-20,2025-01-20,農事組合法人カナヤマ農場,,その他の設立登記法人,熊本県,天草市,下浦町３４６９番地１,,43,215,8616551,,,2025-01-20,登記官による閉鎖,,,2015-10-05,1,,,,,,0
2635,9330005007370,登記記録の閉鎖等,0,2025-01-20,2025-01-20,特定非営利活動法人上天草アクティブセンター,,その他の設立登記法人,熊本県,上天草市,大矢野町維和４９６０番地,,43,212,8693604,,,2025-01-20,登記官による閉鎖,,,2015-10-05,1,,,,,,0
2636,9360001019094,登記記録の閉鎖等,0,2025-01-20,2025-01-16,株式会社ＭＩＮＥ　ＰＲＯ,,株式会社,沖縄県,那覇市,真嘉比２丁目３５－１８,,47,201,9020068,,,2025-01-16,清算の結了等,,,2015-10-05,1,,,,,ミネプロ,0
2643,9370805000067,登記記録の閉鎖等,0,2025-01-20,2025-01-14,医療法人社団浜田エイアンドビイクリニック,,その他の設立登記法人,宮城県,名取市,手倉田字堰根３７７番地１,,04,207,9811231,,,2025-01-14,清算の結了等,,,2015-10-05,1,,,,,,0
2644,9380001027839,登記記録の閉鎖等,0,2025-01-20,2024-12-12,株式会社奥州屋,,株式会社,福島県,西白河郡西郷村,大字真船字芝原２４９番地,,07,461,9618071,,,2024-12-12,清算の結了等,,,2017-03-07,1,,,,,オウシュウヤ,0
2652,9462502000695,登記記録の閉鎖等,0,2025-01-20,2025-01-16,有限会社北海道南牧場,,有限会社,北海道,野付郡別海町,美原６０番地の１５,,01,691,0860656,,,2025-01-16,合併による解散等,4330002023400,令和７年１月１日熊本県阿蘇郡南小国町大字満願寺４７３３番地株式会社南牧場（4330002023400）に合併し解散,2015-10-05,1,,,,,,0
