sequenceNumber,corporateNumber,process,correct,updateDate,changeDate,name,nameImageId,kind,prefectureName,cityName,streetNumber,addressImageId,prefectureCode,cityCode,postCode,addressOutside,addressOutsideImageId,closeDate,closeCause,successorCorporateNumber,changeCause,assignmentDate,latest,enName,enPrefectureName,enCityName,enAddressOutside,furigana,hihyoji
10,1010001223597,新規,0,2022-01-06,2022-01-06,パンとエスプレッソと株式会社,,株式会社,東京都,千代田区,丸の内２丁目７番２号,,13,101,1000005,,,,,,,2022-01-06,1,,,,,パントエスプレッソト,0
11,1010001223614,新規,0,2022-01-06,2022-01-06,Ｂｒｉｄｇｅ　Ｗｏｒｌｄ株式会社,,株式会社,東京都,中央区,新富１丁目１４番１０号,,13,102,1040041,,,,,,,2022-01-06,1,,,,,ブリッジワールド,0
20,1010401164598,新規,0,2022-01-06,2022-01-06,ＭＪ　Ｃａｐｉｔａｌ　Ｍａｎａｇｅｍｅｎｔ株式会社,,株式会社,東京都,港区,南麻布５丁目１０番２７－５０１号,,13,103,1060047,,,,,,,2022-01-06,1,,,,,エムジェーキャピタルマネジメント,0
21,1010401164739,新規,0,2022-01-06,2022-01-06,ＧＣＪＧ２０株式会社,,株式会社,東京都,港区,元赤坂１丁目１番８号株式会社赤坂国際会計内,,13,103,1070051,,,,,,,2022-01-06,1,,,,,ジーシージェイジートゥエンティー,0
22,1010401164747,新規,0,2022-01-06,2022-01-06,ｉｄｅａｌ株式会社,,株式会社,東京都,港区,白金台３丁目１番６号,,13,103,1080071,,,,,,,2022-01-06,1,,,,,イデアル,0
25,1010403026821,新規,0,2022-01-06,2022-01-06,合同会社ホームワン,,合同会社,東京都,港区,三田３丁目４－５,,13,103,1080073,,,,,,,2022-01-06,1,,,,,ホームワン,0
26,1010403026846,新規,0,2022-01-06,2022-01-06,パシフィコ・エナジー和歌山メガソーラー合同会社,,合同会社,東京都,港区,六本木３丁目２番１号六本木グランドタワー,,13,103,1060032,,,,,,,2022-01-06,1,,,,,パシフィコエナジーワカヤマメガソーラー,0
30,1010503006467,新規,0,2022-01-06,2022-01-06,合同会社ジェイエヌカーサ,,合同会社,東京都,台東区,上野２丁目１番３号８８ビル５Ｆ,,13,106,1100005,,,,,,,2022-01-06,1,,,,,ジェイエヌカーサ,0
31,1010601060465,新規,0,2022-01-06,2022-01-06,株式会社牧野土地建物,,株式会社,東京都,墨田区,向島５丁目３８番９号,,13,107,1310033,,,,,,,2022-01-06,1,,,,,マキノトチタテモノ,0
33,1010701042000,新規,0,2022-01-06,2022-01-06,株式会社ＮＳグループ,,株式会社,東京都,品川区,南大井３丁目２８番４号角田ビル２Ｆ,,13,109,1400013,,,,,,,2022-01-06,1,,,,,エヌエスグループ,0
36,1010801032628,新規,0,2022-01-06,2022-01-06,ＴＹフーズ株式会社,,株式会社,東京都,大田区,本羽田３丁目２３番４６号レスポワール多摩川４０１,,13,111,1440044,,,,,,,2022-01-06,1,,,,,ティーワイフーズ,0
38,1010901050100,新規,0,2022-01-06,2022-01-06,クラングピアノサービス株式会社,,株式会社,東京都,世田谷区,東玉川２丁目３番１１号,,13,112,1580084,,,,,,,2022-01-06,1,,,,,クラングピアノサービス,0
39,1010901050109,新規,0,2022-01-06,2022-01-06,ワンヴァース株式会社,,株式会社,東京都,世田谷区,野沢３丁目２３番１２号,,13,112,1540003,,,,,,,2022-01-06,1,,,,,ワンヴァース,0
41,1010903007057,新規,0,2022-01-06,2022-01-06,ｓｉｉｌｏ合同会社,,合同会社,東京都,世田谷区,北沢２丁目３３番１２号柳川ビル１Ｆ,,13,112,1550031,,,,,,,2022-01-06,1,,,,,シーロ,0
52,1011001144800,新規,0,2022-01-06,2022-01-06,株式会社ＳｉＥＬ,,株式会社,東京都,渋谷区,本町４丁目７番１１号,,13,113,1510071,,,,,,,2022-01-06,1,,,,,シール,0
53,1011001144874,新規,0,2022-01-06,2022-01-06,ｉｃｅｂｅｒｇ　ｔｈｅｏｒｙ　ｈｏｌｄｉｎｇｓ株式会社,,株式会社,東京都,渋谷区,道玄坂２丁目１０番７号,,13,113,1500043,,,,,,,2022-01-06,1,,,,,アイスバーグセオリーホールディングス,0
54,1011001144890,新規,0,2022-01-06,2022-01-06,ＣＢＳ出版株式会社,,株式会社,東京都,渋谷区,桜丘町３１番１４号岡三桜丘ビルＳＬＡＣＫＳＨＩＢＵＹＡ６０３号室,,13,113,1500031,,,,,,,2022-01-06,1,,,,,シービーエスシュッパン,0
60,1011005009371,新規,0,2022-01-06,2022-01-06,一般社団法人渋谷再開発協会,,その他の設立登記法人,東京都,渋谷区,道玄坂２丁目１０番７号,,13,113,1500043,,,,,,,2022-01-06,1,,,,,シブヤサイカイハツキョウカイ,0
63,1011101097403,新規,0,2022-01-06,2022-01-06,株式会社癒しテック,,株式会社,東京都,新宿区,西新宿７丁目７番２６号,,13,104,1600023,,,,,,,2022-01-06,1,,,,,イヤシテック,0
66,1011103011337,新規,0,2022-01-06,2022-01-06,合同会社シルヴァーレイス,,合同会社,東京都,新宿区,西新宿３丁目３番１３号西新宿水間ビル６Ｆ,,13,104,1600023,,,,,,,2022-01-06,1,,,,,シルヴァーレイス,0
70,1011401023942,新規,0,2022-01-06,2022-01-06,株式会社日新設備,,株式会社,東京都,板橋区,小茂根２丁目２番１４号,,13,119,1730037,,,,,,,2022-01-06,1,,,,,ニッシンセツビ,0
74,1011501027637,新規,0,2022-01-06,2022-01-06,株式会社齋藤工務店,,株式会社,東京都,荒川区,荒川６丁目１１番８号,,13,118,1160002,,,,,,,2022-01-06,1,,,,,サイトウコウムテン,0
79,1011701024954,新規,0,2022-01-06,2022-01-06,株式会社東洋不動産,,株式会社,東京都,江戸川区,西葛西７丁目２１番２２号,,13,123,1340088,,,,,,,2022-01-06,1,,,,,トウヨウフドウサン,0
85,1011801040133,新規,0,2022-01-06,2022-01-06,株式会社ワンアシスト,,株式会社,東京都,葛飾区,堀切５丁目７番１号１０１,,13,122,1240006,,,,,,,2022-01-06,1,,,,,ワンアシスト,0
88,1012403005185,新規,0,2022-01-06,2022-01-06,ＩＴアドバイザリーサービス合同会社,,合同会社,東京都,調布市,布田６丁目１１番地７ジオ調布５１１号室,,13,208,1820024,,,,,,,2022-01-06,1,,,,,アイティアドバイザリーサービス,0
97,1020001144586,新規,0,2022-01-06,2022-01-06,株式会社タイム企画,,株式会社,神奈川県,川崎市宮前区,東有馬５丁目２１番１２号,,14,136,2160002,,,,,,,2022-01-06,1,,,,,,0
98,1020001144603,新規,0,2022-01-06,2022-01-06,株式会社ＴＫ．ＬＣｉｎｃ,,株式会社,神奈川県,横浜市西区,北幸２丁目１３番１号,,14,103,2200004,,,,,,,2022-01-06,1,,,,,ティーケイドットエルシーインク,0
104,1020003021065,新規,0,2022-01-06,2022-01-06,合同会社リバスコーポレーション,,合同会社,神奈川県,川崎市中原区,小杉町１丁目５４１番地３,,14,133,2110063,,,,,,,2022-01-06,1,,,,,リバスコーポレーション,0
106,1021001074856,新規,0,2022-01-06,2022-01-06,株式会社ｇｌａｄ　ｆｉｎｅ,,株式会社,神奈川県,厚木市,旭町１丁目２７番１５号ＧｒａｎｄｅＬａｎｇｒｉａ４００１,,14,212,2430014,,,,,,,2022-01-06,1,,,,,グラッドファイン,0
115,1030001146053,新規,0,2022-01-06,2022-01-06,株式会社タカギ塗料,,株式会社,埼玉県,深谷市,岡部１８８６番地１,,11,218,3690211,,,,,,,2022-01-06,1,,,,,タカギトリョウ,0
116,1030001146136,新規,0,2022-01-06,2022-01-06,株式会社Ｎｅｘｔ　Ｉｎｎｏｖａｔｉｏｎ,,株式会社,埼玉県,鴻巣市,箕田３４０１番地１,,11,217,3650062,,,,,,,2022-01-06,1,,,,,ネクストイノベーション,0
117,1030001146144,新規,0,2022-01-06,2022-01-06,スターチス株式会社,,株式会社,埼玉県,川口市,大字赤井１１０５番地,,11,203,3340073,,,,,,,2022-01-06,1,,,,,スターチス,0
118,1030001146152,新規,0,2022-01-06,2022-01-06,株式会社フーカン,,株式会社,埼玉県,ふじみ野市,亀久保１２３９番地３１,,11,245,3560051,,,,,,,2022-01-06,1,,,,,フーカン,0
119,1030001146193,新規,0,2022-01-06,2022-01-06,株式会社佐藤舗道,,株式会社,埼玉県,志木市,中宗岡５丁目２６番２３号２階,,11,228,3530002,,,,,,,2022-01-06,1,,,,,サトウホドウ,0
120,1030001146210,新規,0,2022-01-06,2022-01-06,ａ・ｉ株式会社,,株式会社,埼玉県,さいたま市北区,大成町４丁目１３４番地,,11,102,3310815,,,,,,,2022-01-06,1,,,,,エーアイ,0
123,1030003018597,新規,0,2022-01-06,2022-01-06,合同会社ＨＯＮＵデンタルラボ,,合同会社,埼玉県,新座市,石神２丁目２番２０号リラフォート１０１号室,,11,230,3520033,,,,,,,2022-01-06,1,,,,,ホヌデンタルラボ,0
124,1030005020675,新規,0,2022-01-06,2022-01-06,司法書士法人Ｒｅｔｈｉｎｋ,,その他の設立登記法人,埼玉県,戸田市,上戸田４丁目１２番１６号セントラルフォート１０５,,11,224,3350022,,,,,,,2022-01-06,1,,,,,リシンク,0
126,1040001121609,新規,0,2022-01-06,2022-01-06,東銘株式会社,,株式会社,千葉県,四街道市,鹿放ケ丘６０４番地１グリーンパーク１０４,,12,228,2840008,,,,,,,2022-01-06,1,,,,,トウメイ,0
129,1040003019231,新規,0,2022-01-06,2022-01-06,＿＿合同会社,00125319,合同会社,千葉県,館山市,北条１３１１番地の２,,12,205,2940045,,,,,,,2022-01-06,1,,,,,キンビョウ,0
130,1050001050385,新規,0,2022-01-06,2022-01-06,株式会社ちかや,,株式会社,茨城県,日立市,金沢町５丁目２６番１３号,,08,202,3160015,,,,,,,2022-01-06,1,,,,,チカヤ,0
131,1050001050402,新規,0,2022-01-06,2022-01-06,株式会社Ｍｅｏｗｓ,,株式会社,茨城県,つくば市,谷田部２４１７番地６８,,08,220,3050861,,,,,,,2022-01-06,1,,,,,ミャオズ,0
132,1050001050419,新規,0,2022-01-06,2022-01-06,株式会社ライムアーツ,,株式会社,茨城県,鉾田市,鉾田２０２２番地,,08,234,3111517,,,,,,,2022-01-06,1,,,,,ライムアーツ,0
135,1070001038791,新規,0,2022-01-06,2022-01-06,株式会社ｕｎｓｅｌｆｉｓｈ,,株式会社,群馬県,高崎市,小八木町３１２番地１５ビジネスパーク小八木２Ｆ,,10,202,3700071,,,,,,,2022-01-06,1,,,,,アンセルフィッシュ,0
136,1070001038800,新規,0,2022-01-06,2022-01-06,インスパイア株式会社,,株式会社,群馬県,館林市,大谷町８９４番地の１富士峰ハイツ１０１,,10,207,3740054,,,,,,,2022-01-06,1,,,,,,0
139,1080001024667,新規,0,2022-01-06,2022-01-06,株式会社アサオカグリーンファーム,,株式会社,静岡県,島田市,野田８８７番地,,22,209,4270007,,,,,,,2022-01-06,1,,,,,アサオカグリーンファーム,0
141,1080005007420,新規,0,2022-01-06,2022-01-06,一般社団法人早成樹の会,,その他の設立登記法人,静岡県,静岡市駿河区,向敷地１４３４番地,,22,102,4210101,,,,,,,2022-01-06,1,,,,,ソウセイジュノカイ,0
142,1080101023016,新規,0,2022-01-06,2022-01-06,株式会社田澤創建,,株式会社,静岡県,富士市,岩本３５２番地の５,,22,210,4160901,,,,,,,2022-01-06,1,,,,,タザワソウケン,0
147,1080401025562,新規,0,2022-01-06,2022-01-06,株式会社タイヤサービスタチバナ,,株式会社,静岡県,浜松市浜北区,尾野２１３８番地の６,,22,136,4340002,,,,,,,2022-01-06,1,,,,,タイヤサービスタチバナ,0
152,1100005012806,新規,0,2022-01-06,2022-01-06,学校法人信州長野学園,,その他の設立登記法人,長野県,長野市,大字三輪１３１３番地,,20,201,3800803,,,,,,,2022-01-06,1,,,,,シンシュウナガノガクエン,0
155,1110001036312,新規,0,2022-01-06,2022-01-06,株式会社敬優電気,,株式会社,新潟県,長岡市,石動南町１８番地８,,15,202,9402117,,,,,,,2022-01-06,1,,,,,ケイユウデンキ,0
156,1110001036337,新規,0,2022-01-06,2022-01-06,クリエスホールディングス株式会社,,株式会社,新潟県,新潟市中央区,女池２丁目２番２５号,,15,103,9500941,,,,,,,2022-01-06,1,,,,,クリエスホールディングス,0
163,1120001242818,新規,0,2022-01-06,2022-01-06,株式会社石川道具市場,,株式会社,大阪府,大阪市西成区,天下茶屋１丁目６番１８号,,27,122,5570014,,,,,,,2022-01-06,1,,,,,イシカワドウグイチバ,0
164,1120001242850,新規,0,2022-01-06,2022-01-06,アルト・ピコ株式会社,,株式会社,大阪府,大阪市天王寺区,石ケ辻町３番１２号明和ビル１０３号室,00125331,27,109,5430031,,,,,,,2022-01-06,1,,,,,アルトピコ,0
165,1120001242859,新規,0,2022-01-06,2022-01-06,ＯＴファテック株式会社,,株式会社,大阪府,大阪市淀川区,新高１丁目２番２５号,,27,123,5320033,,,,,,,2022-01-06,1,,,,,オーティーファテック,0
166,1120001242867,新規,0,2022-01-06,2022-01-06,株式会社ＰＧＭ,,株式会社,大阪府,大阪市西区,南堀江３丁目１４番３２号テン・フォーティ５０４,,27,106,5500015,,,,,,,2022-01-06,1,,,,,ピージーエム,0
167,1120001242900,新規,0,2022-01-06,2022-01-06,日建プロパティアセット株式会社,,株式会社,大阪府,大阪市中央区,常盤町２丁目２番１３号,,27,128,5400028,,,,,,,2022-01-06,1,,,,,ニッタテプロパティアセット,0
170,1120003020874,新規,0,2022-01-06,2022-01-06,合同会社わんとケンムン,,合同会社,大阪府,大阪市福島区,野田５丁目２番３号,,27,103,5530005,,,,,,,2022-01-06,1,,,,,ワントケンムン,0
171,1120003020899,新規,0,2022-01-06,2022-01-06,合同会社樹,,合同会社,大阪府,大阪市天王寺区,上本町５丁目ファンターナ上本町３０７号室,,27,109,5430001,,,,,,,2022-01-06,1,,,,,イツキ,0
172,1120005022679,新規,0,2022-01-06,2022-01-06,社会保険労務士法人ＨＯＷＡ労務オフィス,,その他の設立登記法人,大阪府,大阪市中央区,大手前１丁目７番３１号ＯＭＭビル１５階,,27,128,5400008,,,,,,,2022-01-06,1,,,,,ホウワロウムオフィス,0
180,1120903003961,新規,0,2022-01-06,2022-01-06,合同会社ＨＳＡ,,合同会社,大阪府,箕面市,新稲６丁目１４番５号,,27,220,5620005,,,,,,,2022-01-06,1,,,,,エイチエスエー,0
181,1122001035482,新規,0,2022-01-06,2022-01-06,株式会社エヌエイ通信,,株式会社,大阪府,東大阪市,上四条町２１番２６号,,27,227,5798052,,,,,,,2022-01-06,1,,,,,エヌエイツウシン,0
182,1122003002241,新規,0,2022-01-06,2022-01-06,合同会社Ｅｍｏ屋,,合同会社,大阪府,四條畷市,楠公１丁目１２番１９号,,27,229,5750023,,,,,,,2022-01-06,1,,,,,エモヤ,0
185,1130001070846,新規,0,2022-01-06,2022-01-06,株式会社きむら,,株式会社,京都府,京都市左京区,下鴨西本町４５番地,,26,103,6060826,,,,,,,2022-01-06,1,,,,,キムラ,0
187,1130003007672,新規,0,2022-01-06,2022-01-06,合同会社和装友化,,合同会社,京都府,京都市山科区,四ノ宮小金塚５番地９２,,26,110,6078022,,,,,,,2022-01-06,1,,,,,ワソウユウカ,0
189,1140001124403,新規,0,2022-01-06,2022-01-06,株式会社ＭＯＤＳ,,株式会社,兵庫県,西宮市,鳴尾町１丁目２４番１８号,,28,204,6638184,,,,,,,2022-01-06,1,,,,,エムオーディーズ,0
191,1140003017167,新規,0,2022-01-06,2022-01-06,エムエスビルド合同会社,,合同会社,兵庫県,芦屋市,三条町２３番１６号,,28,206,6590087,,,,,,,2022-01-06,1,,,,,エムエスビルド,0
194,1140005025977,新規,0,2022-01-06,2022-01-06,一般社団法人いきいきライフ協会三宮,,その他の設立登記法人,兵庫県,神戸市中央区,浜辺通４丁目１番２３号２０６号室,,28,110,6510083,,,,,,,2022-01-06,1,,,,,イキイキライフキョウカイサンノミヤ,0
195,1150001025220,新規,0,2022-01-06,2022-01-06,株式会社Ｃａｌｍｅ,,株式会社,奈良県,北葛城郡王寺町,本町５丁目６－２６,,29,425,6360012,,,,,,,2022-01-06,1,,,,,カルム,0
197,1160001023917,新規,0,2022-01-06,2022-01-06,ＴＭパネル株式会社,,株式会社,滋賀県,大津市,富士見台８番２０－７０８号,,25,201,5200846,,,,,,,2022-01-06,1,,,,,ティーエムパネル,0
201,1160003002464,新規,0,2022-01-06,2022-01-06,さいがわ合同会社,,合同会社,滋賀県,高島市,マキノ町沢１３５０番地１,,25,212,5201821,,,,,,,2022-01-06,1,,,,,サイガワ,0
209,1180001149330,新規,0,2022-01-06,2022-01-06,株式会社レフリッジ,,株式会社,愛知県,名古屋市港区,油屋町１丁目３３番地,,23,111,4550815,,,,,,,2022-01-06,1,,,,,レフリッジ,0
210,1180001149355,新規,0,2022-01-06,2022-01-06,株式会社ＨＡＭＩ－ＲＵ,,株式会社,愛知県,小牧市,郷中１丁目１６６番地２フェスティバルガーデン小牧内,,23,219,4850033,,,,,,,2022-01-06,1,,,,,ハミール,0
211,1180001149363,新規,0,2022-01-06,2022-01-06,株式会社ｉｃ,,株式会社,愛知県,名古屋市南区,内田橋１丁目２６番１０号,,23,112,4570862,,,,,,,2022-01-06,1,,,,,アイシー,0
212,1180001149396,新規,0,2022-01-06,2022-01-06,株式会社Ｔ．Ｇ,,株式会社,愛知県,春日井市,細木町２丁目１１７番地,,23,206,4860937,,,,,,,2022-01-06,1,,,,,ティージー,0
213,1180001149413,新規,0,2022-01-06,2022-01-06,株式会社Ｔ’ｓ　ＰＬＡＣＥ,,株式会社,愛知県,名古屋市瑞穂区,神前町１丁目３３番地の３,,23,108,4670832,,,,,,,2022-01-06,1,,,,,ティーズプレイス,0
214,1180001149421,新規,0,2022-01-06,2022-01-06,株式会社ロックテイスト,,株式会社,愛知県,名古屋市中川区,富永２丁目２２５番地,,23,110,4540964,,,,,,,2022-01-06,1,,,,,ロックテイスト,0
215,1180001149438,新規,0,2022-01-06,2022-01-06,ＨＩＴＯＮＯＭＡ株式会社,,株式会社,愛知県,名古屋市東区,東桜１丁目１０番２９号パークサイドビル栄１階,,23,102,4610005,,,,,,,2022-01-06,1,,,,,ヒトノマ,0
217,1180005019579,新規,0,2022-01-06,2022-01-06,アスパイア税理士法人,,その他の設立登記法人,愛知県,名古屋市中区,大須４丁目１１番１７号日比野ユーハウスビル８階,,23,106,4600011,,,,,,,2022-01-06,1,,,,,アスパイア,0
218,1180005019587,新規,0,2022-01-06,2022-01-06,弁護士法人のぞみ総合法律事務所,,その他の設立登記法人,愛知県,名古屋市中区,丸の内２丁目２番７号丸の内弁護士ビル４０３号,,23,106,4600002,,,,,,,2022-01-06,1,,,,,ノゾミソウゴウホウリツジムショ,0
219,1180301035783,新規,0,2022-01-06,2022-01-06,株式会社ＥＳ‐ＷＯＲＫＳ,,株式会社,愛知県,豊橋市,牛川町字浪ノ上２５番地１１,,23,201,4400016,,,,,,,2022-01-06,1,,,,,イーエスワークス,0
220,1180301035800,新規,0,2022-01-06,2022-01-06,株式会社エウレカ,,株式会社,愛知県,刈谷市,桜町１丁目１０番地２セントラルビル,,23,210,4480028,,,,,,,2022-01-06,1,,,,,エウレカ,0
222,1180303005207,新規,0,2022-01-06,2022-01-06,イーソルテック合同会社,,合同会社,愛知県,豊田市,高美町５丁目７５番地１,,23,211,4730918,,,,,,,2022-01-06,1,,,,,イーソルテック,0
228,1200001039594,新規,0,2022-01-06,2022-01-06,株式会社ワイズ,,株式会社,岐阜県,美濃加茂市,中部台２丁目１０番地１,,21,211,5050038,,,,,,,2022-01-06,1,,,,,ワイズ,0
230,1220001024628,新規,0,2022-01-06,2022-01-06,株式会社Ａ‐ＳＰＡＣＥ,,株式会社,石川県,金沢市,松村１丁目５番地マツエビル２０５,,17,201,9200348,,,,,,,2022-01-06,1,,,,,エースペース,0
231,1220001024636,新規,0,2022-01-06,2022-01-06,株式会社のとペイントサイン,,株式会社,石川県,鳳珠郡能登町,字松波２３字３３番地１,,17,463,9270602,,,,,,,2022-01-06,1,,,,,ノトペイントサイン,0
233,1250001019328,新規,0,2022-01-06,2022-01-06,株式会社ｉｎ　ｔｈｅ　Ｇａｒｄｅｎ,,株式会社,山口県,下関市,綾羅木本町３丁目４番２５号,,35,201,7510849,,,,,,,2022-01-06,1,,,,,インザガーデン,0
239,1290003011972,新規,0,2022-01-06,2022-01-06,合同会社ＲＩＬＹ,,合同会社,福岡県,久留米市,善道寺町飯田１１３番地３,,40,203,8390000,,,,,,,2022-01-06,1,,,,,リリー,0
240,1290801028136,新規,0,2022-01-06,2022-01-06,株式会社吉積商会,,株式会社,福岡県,田川市,大字弓削田２０３３番地,,40,206,8260041,,,,,,,2022-01-06,1,,,,,ヨシヅミショウカイ,0
241,1300001012764,新規,0,2022-01-06,2022-01-06,エイホーム株式会社,,株式会社,佐賀県,武雄市,北方町大字志久１０４５－１ＢＩＯＳ　ＳＡＩＳＯＮ武雄Ａ１０１号室,,41,206,8492201,,,,,,,2022-01-06,1,,,,,エイホーム,0
242,1300003001773,新規,0,2022-01-06,2022-01-06,合同会社ワンネスハート,,合同会社,佐賀県,小城市,牛津町上砥川４７３番地２エクセレント砥川１０２号,,41,208,8490305,,,,,,,2022-01-06,1,,,,,ワンネスハート,0
243,1310001017663,新規,0,2022-01-06,2022-01-06,株式会社プラード,,株式会社,長崎県,長崎市,竹の久保町１８番１１号,,42,201,8528014,,,,,,,2022-01-06,1,,,,,プラード,0
247,1310003004247,新規,0,2022-01-06,2022-01-06,リースキン壱岐合同会社,,合同会社,長崎県,壱岐市,郷ノ浦町志原西触１０８番地３,,42,210,8115125,,,,,,,2022-01-06,1,,,,,リースキンイキ,0
248,1310005008576,新規,0,2022-01-06,2022-01-06,一般社団法人全九州タウン情報ネットワークインバウンド推進協会,,その他の設立登記法人,長崎県,長崎市,栄町５番５号２階,,42,201,8500875,,,,,,,2022-01-06,1,,,,,ゼンキュウシュウタウンジョウホウネットワークインバウンドスイシンキョウカイ,0
252,1320003003685,新規,0,2022-01-06,2022-01-06,一志合同会社,,合同会社,大分県,大分市,大字田尻９３９番地の１,,44,201,8701143,,,,,,,2022-01-06,1,,,,,イッシ,0
259,1360001029828,新規,0,2022-01-06,2022-01-06,株式会社クダカファーム,,株式会社,沖縄県,うるま市,字昆布６５６番地,,47,213,9042201,,,,,,,2022-01-06,1,,,,,クダカファーム,0
261,1370001048018,新規,0,2022-01-06,2022-01-06,株式会社Ｃｈｉｌｄａｙｓ,,株式会社,宮城県,仙台市青葉区,国分町２丁目１番１５号５階,,04,101,9800803,,,,,,,2022-01-06,1,,,,,チャイルデイズ,0
262,1390001016740,新規,0,2022-01-06,2022-01-06,株式会社マキ電気商会,,株式会社,山形県,西村山郡河北町,谷地己４３番地,,06,321,9993511,,,,,,,2022-01-06,1,,,,,マキデンキショウカイ,0
263,1390001016749,新規,0,2022-01-06,2022-01-06,株式会社米るど庄内,,株式会社,山形県,東田川郡庄内町,沢新田字錆６７番地,,06,428,9997725,,,,,,,2022-01-06,1,,,,,マイルドショウナイ,0
264,1390003001906,新規,0,2022-01-06,2022-01-06,恒＿合同会社,00125324,合同会社,山形県,天童市,東久野本１丁目３‐１５‐６,,06,210,9940016,,,,,,,2022-01-06,1,,,,,コウモウ,0
268,1400003002877,新規,0,2022-01-06,2022-01-06,合同会社Ｍａｔｓｕ,,合同会社,岩手県,滝沢市,大釜大畑７７番地４,,03,216,0200763,,,,,,,2022-01-06,1,,,,,マツ,0
270,1430001085673,新規,0,2022-01-06,2022-01-06,株式会社ジオコンサルタント,,株式会社,北海道,札幌市中央区,大通東２丁目３番地１第３６桂和ビル６Ｆ,,01,101,0600041,,,,,,,2022-01-06,1,,,,,ジオコンサルタント,0
271,1430001085707,新規,0,2022-01-06,2022-01-06,正大株式会社,,株式会社,北海道,恵庭市,島松寿町１丁目１７番地８奥山ハイツ１０３号,,01,231,0611355,,,,,,,2022-01-06,1,,,,,セイダイ,0
272,1430001085715,新規,0,2022-01-06,2022-01-06,株式会社ステップエンジニアリング,,株式会社,北海道,札幌市南区,北ノ沢１７２９－３,,01,106,0050832,,,,,,,2022-01-06,1,,,,,ステップエンジニアリング,0
273,1440001009004,新規,0,2022-01-06,2022-01-06,株式会社アルゴラ,,株式会社,北海道,函館市,昭和２丁目８番１５号,,01,202,0410812,,,,,,,2022-01-06,1,,,,,アルゴラ,0
274,1450001013574,新規,0,2022-01-06,2022-01-06,株式会社ＰＰＣ企画,,株式会社,北海道,旭川市,末広東三条２丁目２番５４号,,01,204,0718123,,,,,,,2022-01-06,1,,,,,ピーピーシーキカク,0
275,1450001013582,新規,0,2022-01-06,2022-01-06,株式会社Ｓｋｙ,,株式会社,北海道,旭川市,末広二条１５丁目３番１３号,,01,204,0718132,,,,,,,2022-01-06,1,,,,,スカイ,0
280,1480001011600,新規,0,2022-01-06,2022-01-06,ｓｉｍｐｌｅ　ｌｉｆｅ株式会社,,株式会社,徳島県,板野郡藍住町,勝瑞字正喜地７番地２８,,36,403,7711273,,,,,,,2022-01-06,1,,,,,シンプルライフ,0
282,1480003001780,新規,0,2022-01-06,2022-01-06,合同会社ａｎｄ　Ｇｒｅｅｎ,,合同会社,徳島県,徳島市,北沖洲３丁目９番１０号,,36,201,7700872,,,,,,,2022-01-06,1,,,,,アンドグリーン,0
286,1490001010080,新規,0,2022-01-06,2022-01-06,Ｔｏｍｉ屋株式会社,,株式会社,高知県,土佐郡土佐町,南泉６７番地３,,39,363,7813405,,,,,,,2022-01-06,1,,,,,トミヤ,0
306,2010401164746,新規,0,2022-01-06,2022-01-06,株式会社ＧｏｏｄＦｉｅｌｄ,,株式会社,東京都,港区,芝浦１丁目６番４１号,,13,103,1050023,,,,,,,2022-01-06,1,,,,,グッドフィールド,0
307,2010401164754,新規,0,2022-01-06,2022-01-06,株式会社ピロティ,,株式会社,東京都,港区,芝１丁目１４番１号,,13,103,1050014,,,,,,,2022-01-06,1,,,,,,0
308,2010401164762,新規,0,2022-01-06,2022-01-06,株式会社おみくじ,,株式会社,東京都,港区,六本木３丁目１４番８号下条ビル３０２,,13,103,1060032,,,,,,,2022-01-06,1,,,,,オミクジ,0
309,2010401164779,新規,0,2022-01-06,2022-01-06,株式会社ＪＡＹＭＥＮ　ＴＯＫＹＯ,,株式会社,東京都,港区,芝５丁目１９番７－２０２号,,13,103,1080014,,,,,,,2022-01-06,1,,,,,ジェイメントーキョー,0
312,2010403026820,新規,0,2022-01-06,2022-01-06,合同会社フエム,,合同会社,東京都,港区,赤坂９丁目１番７－１０１３号,,13,103,1070052,,,,,,,2022-01-06,1,,,,,フエム,0
317,2010601060464,新規,0,2022-01-06,2022-01-06,株式会社シゲル,,株式会社,東京都,江東区,亀戸２丁目３１番９号,,13,108,1360071,,,,,,,2022-01-06,1,,,,,シゲル,0
318,2010603009328,新規,0,2022-01-06,2022-01-06,ＹＥＮＲＡＩ合同会社,,合同会社,東京都,墨田区,本所４丁目２０番３－３０３号,,13,107,1300004,,,,,,,2022-01-06,1,,,,,エンライ,0
320,2010701042016,新規,0,2022-01-06,2022-01-06,株式会社アイアス,,株式会社,東京都,品川区,南品川５丁目１６番１１号,,13,109,1400004,,,,,,,2022-01-06,1,,,,,アイアス,0
327,2010901050066,新規,0,2022-01-06,2022-01-06,オアシス・ガーデンズ株式会社,,株式会社,東京都,世田谷区,上用賀５丁目２番１１号ユニテ用賀３０１,,13,112,1580098,,,,,,,2022-01-06,1,,,,,オアシスガーデンズ,0
328,2010901050099,新規,0,2022-01-06,2022-01-06,株式会社ＺＩＮＴＯ,,株式会社,東京都,世田谷区,駒沢１丁目７番７号,,13,112,1540012,,,,,,,2022-01-06,1,,,,,ジント,0
341,2011001144709,新規,0,2022-01-06,2022-01-06,株式会社ＯＲＥ,,株式会社,東京都,渋谷区,円山町５番１４号パレドール渋谷２０２,,13,113,1500044,,,,,,,2022-01-06,1,,,,,オーアールイー,0
342,2011001144725,新規,0,2022-01-06,2022-01-06,株式会社スキナー,,株式会社,東京都,渋谷区,渋谷２丁目１９－１５宮益坂ビルディング６０９,,13,113,1500002,,,,,,,2022-01-06,1,,,,,,0
343,2011001144840,新規,0,2022-01-06,2022-01-06,株式会社バザーズ,,株式会社,東京都,目黒区,上目黒１丁目１５番１１号３階,,13,110,1530051,,,,,,,2022-01-06,1,,,,,バザーズ,0
344,2011001144849,新規,0,2022-01-06,2022-01-06,歩むｐａｓ　ａ　ｐａｓ株式会社,,株式会社,東京都,渋谷区,広尾５丁目１４番２号,,13,113,1500012,,,,,,,2022-01-06,1,,,,,アユムパスアパス,0
345,2011001144881,新規,0,2022-01-06,2022-01-06,株式会社ＢＯＮＤＳ,,株式会社,東京都,渋谷区,鉢山町１３番１２号,,13,113,1500035,,,,,,,2022-01-06,1,,,,,ボンズ,0
346,2011001144898,新規,0,2022-01-06,2022-01-06,株式会社ＮＹＺ,,株式会社,東京都,渋谷区,恵比寿南１丁目１１番１０号,,13,113,1500022,,,,,,,2022-01-06,1,,,,,エヌワイゼット,0
347,2011001144915,新規,0,2022-01-06,2022-01-06,株式会社ＡＲＳ－ｔｅｃｈ,,株式会社,東京都,渋谷区,鶯谷町１９番１９号第３叶ビル２０２号,,13,113,1500032,,,,,,,2022-01-06,1,,,,,エーアールエステック,0
348,2011001144923,新規,0,2022-01-06,2022-01-06,株式会社Ｔｈｅ　Ｂｌｏｗ,,株式会社,東京都,目黒区,東が丘２丁目１４番１１号ＫＯＭＡＺＡＷＡＢＡＳＥ１Ｆ,,13,110,1520021,,,,,,,2022-01-06,1,,,,,ザブロウ,0
360,2011101097419,新規,0,2022-01-06,2022-01-06,株式会社ＨＥＡＲＴ,,株式会社,東京都,新宿区,西新宿３丁目３番１３号西新宿水間ビル６階,,13,104,1600023,,,,,,,2022-01-06,1,,,,,ハート,0
365,2011103011328,新規,0,2022-01-06,2022-01-06,合同会社サロン・ド・マンダーラ,,合同会社,東京都,新宿区,信濃町１３番地２,,13,104,1600016,,,,,,,2022-01-06,1,,,,,サロンドマンダーラ,0
366,2011103011344,新規,0,2022-01-06,2022-01-06,合同会社セツグループ,,合同会社,東京都,新宿区,新宿３丁目２－１京王新宿３２１ビル７Ｆ,,13,104,1600022,,,,,,,2022-01-06,1,,,,,セツグループ,0
369,2011401023941,新規,0,2022-01-06,2022-01-06,株式会社風見家電サービス,,株式会社,東京都,板橋区,徳丸４丁目３１番３号,,13,119,1750083,,,,,,,2022-01-06,1,,,,,カザミカデンサービス,0
372,2011501027636,新規,0,2022-01-06,2022-01-06,株式会社ダブルティースタイル,,株式会社,東京都,荒川区,西尾久５丁目２０番４号,,13,118,1160011,,,,,,,2022-01-06,1,,,,,ダブルティースタイル,0
373,2011601025647,新規,0,2022-01-06,2022-01-06,株式会社オープレイズ,,株式会社,東京都,練馬区,下石神井４丁目１２番３３号,,13,120,1770042,,,,,,,2022-01-06,1,,,,,オープレイズ,0
375,2011701024953,新規,0,2022-01-06,2022-01-06,Ｍｓ　Ｈａｃｋ株式会社,,株式会社,東京都,江戸川区,鹿骨２丁目１７番１２号インタラクティブ３０３号室,,13,123,1330073,,,,,,,2022-01-06,1,,,,,エムズハック,0
376,2011701024961,新規,0,2022-01-06,2022-01-06,株式会社アメージングレンタカー,,株式会社,東京都,江戸川区,谷河内２丁目４番１３号,,13,123,1330002,,,,,,,2022-01-06,1,,,,,アメージングレンタカー,0
378,2011801040140,新規,0,2022-01-06,2022-01-06,株式会社ｃｏｌｏｒｓ,,株式会社,東京都,葛飾区,南水元２丁目２９番１１号,,13,122,1250035,,,,,,,2022-01-06,1,,,,,カラーズ,0
381,2012401038707,新規,0,2022-01-06,2022-01-06,株式会社おざわ動物病院,,株式会社,東京都,府中市,浅間町３丁目３番地の６１,,13,206,1830001,,,,,,,2022-01-06,1,,,,,オザワドウブツビョウイン,0
382,2012401038715,新規,0,2022-01-06,2022-01-06,株式会社Ｉｍｐｌｉｃｉｔ　Ｔｒｕｓｔ,,株式会社,東京都,武蔵野市,吉祥寺本町２丁目１０番７号,,13,203,1800004,,,,,,,2022-01-06,1,,,,,インプリシットトラスト,0
383,2012401038731,新規,0,2022-01-06,2022-01-06,林デザイン事務所株式会社,,株式会社,東京都,府中市,押立町３丁目３１番地の１１,,13,206,1830012,,,,,,,2022-01-06,1,,,,,ハヤシデザインジムショ,0
385,2012703002377,新規,0,2022-01-06,2022-01-06,合同会社ＣＯＭＢＩＮＥ　ＲＩＶＥＲ,,合同会社,東京都,小平市,花小金井１丁目８番２－４２９号,,13,211,1870002,,,,,,,2022-01-06,1,,,,,コンバインリバー,0
404,2020001144560,新規,0,2022-01-06,2022-01-06,株式会社ＹＭＳ,,株式会社,神奈川県,横浜市西区,戸部本町３０番３号エステムプラザ横濱みなとみらいＷＥＳＴ６０５号室,,14,103,2200041,,,,,,,2022-01-06,1,,,,,,0
405,2020001144569,新規,0,2022-01-06,2022-01-06,建寿株式会社,,株式会社,神奈川県,川崎市麻生区,下麻生３丁目４２番２６号エレガンツァ下麻生ＩＩＩ２０４,00125325,14,137,2150022,,,,,,,2022-01-06,1,,,,,ケンジュ,0
406,2020001144585,新規,0,2022-01-06,2022-01-06,株式会社ＫＴＳＣ,,株式会社,神奈川県,川崎市麻生区,東百合丘２丁目２４番８号,,14,137,2150012,,,,,,,2022-01-06,1,,,,,ケイティーエスシー,0
407,2020003021056,新規,0,2022-01-06,2022-01-06,アリオナ合同会社,,合同会社,神奈川県,川崎市幸区,中幸町２丁目４７－４０１,,14,132,2120012,,,,,,,2022-01-06,1,,,,,アリオナ,0
413,2021001074847,新規,0,2022-01-06,2022-01-06,株式会社真鶴大西,,株式会社,神奈川県,足柄下郡真鶴町,真鶴１３７０番地の３,,14,383,2590201,,,,,,,2022-01-06,1,,,,,マナヅルオオニシ,0
414,2021001074855,新規,0,2022-01-06,2022-01-06,株式会社ユコール,,株式会社,神奈川県,大和市,南林間７丁目７番３号,,14,213,2420006,,,,,,,2022-01-06,1,,,,,ユコール,0
419,2021003011245,新規,0,2022-01-06,2022-01-06,合同会社オフィスコレハ,,合同会社,神奈川県,海老名市,本郷４７８２番地,,14,215,2430417,,,,,,,2022-01-06,1,,,,,オフィスコレハ,0
420,2021003011253,新規,0,2022-01-06,2022-01-06,合同会社ふじさわ整体院,,合同会社,神奈川県,藤沢市,鵠沼石上１丁目８番１１号プロヴァンスビル４階,,14,205,2510025,,,,,,,2022-01-06,1,,,,,フジサワセイタイイン,0
424,2030001146135,新規,0,2022-01-06,2022-01-06,株式会社ｇｌａｎｚ,,株式会社,埼玉県,志木市,本町５丁目２４番２１号ＳＨＩＫＩＳＭ３階,,11,228,3530004,,,,,,,2022-01-06,1,,,,,グランツ,0
425,2030001146151,新規,0,2022-01-06,2022-01-06,株式会社河野建材興業,,株式会社,埼玉県,久喜市,西大輪２３０６番地１,,11,232,3400206,,,,,,,2022-01-06,1,,,,,カワノケンザイコウギョウ,0
426,2030001146168,新規,0,2022-01-06,2022-01-06,西澤塾株式会社,,株式会社,埼玉県,川越市,仙波町２丁目１９番地５,,11,201,3500034,,,,,,,2022-01-06,1,,,,,ニシザワジュク,0
427,2030001146176,新規,0,2022-01-06,2022-01-06,スマートライフ株式会社,,株式会社,埼玉県,さいたま市大宮区,桜木町４丁目１０１０番地２アインズ桜木ビル３Ｆ,,11,103,3300854,,,,,,,2022-01-06,1,,,,,スマートライフ,0
428,2030001146192,新規,0,2022-01-06,2022-01-06,株式会社エーワンソリューションズ,,株式会社,埼玉県,白岡市,新白岡１丁目２１番地１,,11,246,3490212,,,,,,,2022-01-06,1,,,,,エーワンソリューションズ,0
432,2030003018539,新規,0,2022-01-06,2022-01-06,合同会社ＭＯＨＡＬＡ,,合同会社,埼玉県,桶川市,下日出谷東３丁目１８番地の１,,11,231,3630029,,,,,,,2022-01-06,1,,,,,モハラ,0
433,2030003018596,新規,0,2022-01-06,2022-01-06,合同会社バーバラ企画,,合同会社,埼玉県,所沢市,大字上山口５０００番地の３,,11,208,3591153,,,,,,,2022-01-06,1,,,,,バーバラキカク,0
441,2040001121608,新規,0,2022-01-06,2022-01-06,暁株式会社,,株式会社,千葉県,佐倉市,鏑木町２丁目７番地７相川マンション１０２号室,,12,212,2850025,,,,,,,2022-01-06,1,,,,,アカツキ,0
446,2040003019172,新規,0,2022-01-06,2022-01-06,合同会社アンパサンド,,合同会社,千葉県,成田市,南平台１１１５－１－１０１,,12,211,2860042,,,,,,,2022-01-06,1,,,,,アンパサンド,0
447,2040003019230,新規,0,2022-01-06,2022-01-06,合同会社大芳,,合同会社,千葉県,市川市,二俣１丁目１０番１５－３０９号クレストフォルム西船橋サウスステージ,,12,203,2720001,,,,,,,2022-01-06,1,,,,,タイホウ,0
448,2050001050401,新規,0,2022-01-06,2022-01-06,株式会社三想,,株式会社,茨城県,取手市,光風台１丁目８番１３号,,08,217,3001536,,,,,,,2022-01-06,1,,,,,サンソウ,0
450,2060001034444,新規,0,2022-01-06,2022-01-06,株式会社マーナ足利工場,,株式会社,栃木県,足利市,真砂町７番地１６,,09,202,3260032,,,,,,,2022-01-06,1,,,,,マーナアシカガコウジョウ,0
451,2070001038782,新規,0,2022-01-06,2022-01-06,株式会社ひさご,,株式会社,群馬県,沼田市,栄町８５番地２,,10,206,3780014,,,,,,,2022-01-06,1,,,,,ヒサゴ,0
452,2070001038790,新規,0,2022-01-06,2022-01-06,株式会社Ｌａ　Ｃｕｏｒｅ,,株式会社,群馬県,渋川市,渋川２０７３番地２２北村ビル東館１０２,,10,208,3770008,,,,,,,2022-01-06,1,,,,,ラクオレ,0
453,2070001038799,新規,0,2022-01-06,2022-01-06,株式会社ＳＫ電工,,株式会社,群馬県,渋川市,北橘町小室６２番地,,10,208,3770065,,,,,,,2022-01-06,1,,,,,エスケーデンコウ,0
454,2080001024674,新規,0,2022-01-06,2022-01-06,株式会社トイズポート,,株式会社,静岡県,静岡市葵区,南２丁目９番１４号,,22,101,4200956,,,,,,,2022-01-06,1,,,,,トイズポート,0
455,2080003002711,新規,0,2022-01-06,2022-01-06,合同会社ヒカリ,,合同会社,静岡県,静岡市駿河区,みずほ２丁目７番５号,,22,102,4210115,,,,,,,2022-01-06,1,,,,,ヒカリ,0
457,2080101023023,新規,0,2022-01-06,2022-01-06,Ｒ　ＢＵＩＬＤ株式会社,,株式会社,静岡県,田方郡函南町,平井８９２番地の５３,,22,325,4190107,,,,,,,2022-01-06,1,,,,,アールビルド,0
459,2080401025553,新規,0,2022-01-06,2022-01-06,Ａｔｅｌｉｅｒ　Ｃｈａｎｖｒｅ株式会社,,株式会社,静岡県,浜松市天竜区,緑恵台５５６番地の３１２,,22,137,4313424,,,,,,,2022-01-06,1,,,,,アトリエシャンブル,0
460,2090003002017,新規,0,2022-01-06,2022-01-06,合同会社ヤナイ,,合同会社,山梨県,都留市,盛里２４,,19,204,4020013,,,,,,,2022-01-06,1,,,,,ヤナイ,0
461,2100003006346,新規,0,2022-01-06,2022-01-06,合同会社ｉｄｅｅ,,合同会社,長野県,長野市,大字三輪１２９７番地２０サーパス三輪田町３０５号,,20,201,3800803,,,,,,,2022-01-06,1,,,,,イデー,0
463,2110001036311,新規,0,2022-01-06,2022-01-06,株式会社ＧＬＯＳＳＹ,,株式会社,新潟県,新潟市中央区,愛宕１丁目３番地１,,15,103,9500944,,,,,,,2022-01-06,1,,,,,グロッシー,0
464,2110001036328,新規,0,2022-01-06,2022-01-06,株式会社鈴亀,,株式会社,新潟県,新潟市江南区,所島１丁目３番１２号,,15,104,9500135,,,,,,,2022-01-06,1,,,,,スズキ,0
465,2110001036336,新規,0,2022-01-06,2022-01-06,中洋株式会社,,株式会社,新潟県,長岡市,今朝白３丁目８番１３－５０６号サーパスシティ今朝白弐番館ウエストウイング５０６号室,,15,202,9400033,,,,,,,2022-01-06,1,,,,,チュウヨウ,0
473,2120001242817,新規,0,2022-01-06,2022-01-06,株式会社ＳＵＹＡＭＡ,,株式会社,大阪府,大阪市都島区,都島本通１丁目６番１８号２階,,27,102,5340021,,,,,,,2022-01-06,1,,,,,スヤマ,0
474,2120001242841,新規,0,2022-01-06,2022-01-06,ＤＣＲ株式会社,,株式会社,大阪府,大阪市浪速区,難波中３丁目１６番１１号,,27,111,5560011,,,,,,,2022-01-06,1,,,,,ディーシーアール,0
475,2120001242866,新規,0,2022-01-06,2022-01-06,株式会社Ｕ－Ｃｏｃｏ,,株式会社,大阪府,守口市,緑町１番２１号,,27,209,5700084,,,,,,,2022-01-06,1,,,,,ユーココ,0
476,2120001242882,新規,0,2022-01-06,2022-01-06,株式会社Ｓｅｌｅｃｔ,,株式会社,大阪府,大阪市中央区,南船場４丁目６－２２心斎橋ＭＳビル８階,,27,128,5420081,,,,,,,2022-01-06,1,,,,,セレクト,0
477,2120001242890,新規,0,2022-01-06,2022-01-06,株式会社Ｍｅｔａ　Ｓａｌｅｓ,,株式会社,大阪府,大阪市中央区,淡路町３丁目５番１３号創建御堂筋ビル２階,,27,128,5410047,,,,,,,2022-01-06,1,,,,,メタセールス,0
478,2120001242908,新規,0,2022-01-06,2022-01-06,株式会社ジョインコーポレーション,,株式会社,大阪府,大阪市都島区,内代町２丁目２番１３号サンシティ１階,,27,102,5340013,,,,,,,2022-01-06,1,,,,,ジョインコーポレーション,0
479,2120001242940,新規,0,2022-01-06,2022-01-06,株式会社西日本アクアエンジニアリング,,株式会社,大阪府,大阪市住之江区,南港東３丁目１番３２号,,27,125,5590031,,,,,,,2022-01-06,1,,,,,ニシニホンアクアエンジニアリング,0
480,2120001242949,新規,0,2022-01-06,2022-01-06,株式会社鹿鳴,,株式会社,大阪府,大阪市西成区,長橋１丁目１３番２２号１０３,,27,122,5570025,,,,,,,2022-01-06,1,,,,,ロクメイ,0
482,2120003020865,新規,0,2022-01-06,2022-01-06,ラリアット合同会社,,合同会社,大阪府,大阪市中央区,南久宝寺町１丁目５番９－１３０４号,,27,128,5410058,,,,,,,2022-01-06,1,,,,,ラリアット,0
483,2120003020873,新規,0,2022-01-06,2022-01-06,フラリソ合同会社,,合同会社,大阪府,大阪市北区,豊崎３丁目１８番３－３３０４号,,27,127,5310072,,,,,,,2022-01-06,1,,,,,フラリソ,0
486,2120901045419,新規,0,2022-01-06,2022-01-06,株式会社山昌,,株式会社,大阪府,吹田市,朝日町１５番７号,,27,205,5640027,,,,,,,2022-01-06,1,,,,,ヤマショウ,0
489,2122001035481,新規,0,2022-01-06,2022-01-06,エムイーシーワーク株式会社,,株式会社,大阪府,東大阪市,上四条町２０番３３号,,27,227,5798052,,,,,,,2022-01-06,1,,,,,エムイーシーワーク,0
493,2130001070829,新規,0,2022-01-06,2022-01-06,株式会社植清徳村造園,,株式会社,京都府,京都市右京区,宇多野北ノ院町１番地４,,26,108,6168201,,,,,,,2022-01-06,1,,,,,ウエセイトクムラゾウエン,0
494,2130001070837,新規,0,2022-01-06,2022-01-06,東山ベース株式会社,,株式会社,京都府,京都市東山区,東大路松原上る三丁目下弁天町５５,,26,105,6050000,,,,,,,2022-01-06,1,,,,,ヒガシヤマベース,0
497,2140001124385,新規,0,2022-01-06,2022-01-06,兵庫油圧株式会社,,株式会社,兵庫県,姫路市,飾磨区構４丁目４６番地,,28,201,6728071,,,,,,,2022-01-06,1,,,,,ヒョウゴユアツ,0
498,2140001124393,新規,0,2022-01-06,2022-01-06,株式会社ＫＩＬＩＧ,,株式会社,兵庫県,神戸市垂水区,本多聞２丁目１０番２３号,,28,108,6550006,,,,,,,2022-01-06,1,,,,,キリグ,0
501,2140003017166,新規,0,2022-01-06,2022-01-06,ＣＬｏｓ合同会社,,合同会社,兵庫県,尼崎市,善法寺町９番１４号,,28,202,6610973,,,,,,,2022-01-06,1,,,,,クロス,0
503,2140005025976,新規,0,2022-01-06,2022-01-06,医療法人社団久視会,,その他の設立登記法人,兵庫県,芦屋市,公光町１１番５号芦屋山下ビル４階,00125318,28,206,6590065,,,,,,,2022-01-06,1,,,,,キュウシカイ,0
511,2180001149338,新規,0,2022-01-06,2022-01-06,株式会社ＮＫコネクト,,株式会社,愛知県,小牧市,春日寺２丁目３５１番地エスポワール１０５号室,,23,219,4850025,,,,,,,2022-01-06,1,,,,,エヌケーコネクト,0
512,2180001149354,新規,0,2022-01-06,2022-01-06,株式会社乙味,,株式会社,愛知県,名古屋市中区,新栄１丁目５番６号,,23,106,4600007,,,,,,,2022-01-06,1,,,,,オツアジ,0
513,2180001149362,新規,0,2022-01-06,2022-01-06,植田工業株式会社,,株式会社,愛知県,名古屋市緑区,大高町字西正地６３番地２,,23,114,4598001,,,,,,,2022-01-06,1,,,,,ウエダコウギョウ,0
514,2180001149370,新規,0,2022-01-06,2022-01-06,Ｋ・Ｄ・Ｓ株式会社,,株式会社,愛知県,一宮市,千秋町町屋字東沼６４番地２５,,23,203,4910813,,,,,,,2022-01-06,1,,,,,ケーディーエス,0
515,2180001149404,新規,0,2022-01-06,2022-01-06,株式会社大澤熔接工業所,,株式会社,愛知県,知多市,旭４丁目１５番地,,23,224,4780031,,,,,,,2022-01-06,1,,,,,オオサワヨウセツコウギョウショ,0
516,2180001149429,新規,0,2022-01-06,2022-01-06,株式会社ＹＡＳ,,株式会社,愛知県,長久手市,市が洞３丁目４１０番地,,23,238,4801147,,,,,,,2022-01-06,1,,,,,ワイエーエス,0
523,2180005019586,新規,0,2022-01-06,2022-01-06,税理士法人田中・吉野会計,00125332,その他の設立登記法人,愛知県,名古屋市北区,清水２丁目１９番９号,,23,103,4620844,,,,,,,2022-01-06,1,,,,,タナカヨシノカイケイ,0
524,2180301035782,新規,0,2022-01-06,2022-01-06,株式会社Ｍｕｉ,,株式会社,愛知県,豊田市,北小田町伯母平２６番地,,23,211,4442502,,,,,,,2022-01-06,1,,,,,ムイ,0
525,2190001028994,新規,0,2022-01-06,2022-01-06,株式会社野口水道,,株式会社,三重県,鈴鹿市,国府町９３５番地の３,,24,207,5130836,,,,,,,2022-01-06,1,,,,,ノグチスイドウ,0
527,2200001039585,新規,0,2022-01-06,2022-01-06,株式会社西組,,株式会社,岐阜県,安八郡神戸町,大字安次９００番地の１,,21,381,5032303,,,,,,,2022-01-06,1,,,,,ニシグミ,0
528,2200001039593,新規,0,2022-01-06,2022-01-06,サークル株式会社,,株式会社,岐阜県,土岐市,泉町久尻１３７１番地の９,,21,212,5095142,,,,,,,2022-01-06,1,,,,,サークル,0
529,2200001039602,新規,0,2022-01-06,2022-01-06,株式会社木彩,,株式会社,岐阜県,揖斐郡揖斐川町,新宮２２番地,,21,401,5010628,,,,,,,2022-01-06,1,,,,,キサイ,0
530,2200001039610,新規,0,2022-01-06,2022-01-06,株式会社ＮＫカンパニー,,株式会社,岐阜県,岐阜市,石原３丁目４番地,,21,201,5012535,,,,,,,2022-01-06,1,,,,,エヌケーカンパニー,0
531,2210001018753,新規,0,2022-01-06,2022-01-06,ダイシン株式会社,,株式会社,福井県,福井市,荒木新保町第８１号３番地８,,18,201,9102172,,,,,,,2022-01-06,1,,,,,ダイシン,0
535,2220001024627,新規,0,2022-01-06,2022-01-06,株式会社ＭＡＲＣ　ＡＮＤ　ＰＯＲＴＥＲ,,株式会社,石川県,金沢市,湊２丁目１１６番地１４,,17,201,9200211,,,,,,,2022-01-06,1,,,,,マークアンドポーター,0
536,2230001019163,新規,0,2022-01-06,2022-01-06,ＭＯＮＳＨＥＨＡＲＡ美和株式会社,,株式会社,富山県,富山市,五福５２６４番地１,,16,201,9300887,,,,,,,2022-01-06,1,,,,,,0
538,2240001059126,新規,0,2022-01-06,2022-01-06,株式会社仁井モータース,,株式会社,広島県,三原市,久井町江木１０５０番地,,34,204,7221304,,,,,,,2022-01-06,1,,,,,ニイモータース,0
539,2240001059134,新規,0,2022-01-06,2022-01-06,株式会社ダイニチ,,株式会社,広島県,広島市中区,舟入南２丁目７番１７－３０１号,,34,101,7300847,,,,,,,2022-01-06,1,,,,,ダイニチ,0
542,2240003005433,新規,0,2022-01-06,2022-01-06,合同会社ビーエスエム,,合同会社,広島県,廿日市市,宮内４２９８番地グランカーサ宮内,,34,213,7380034,,,,,,,2022-01-06,1,,,,,ビーエスエム,0
544,2260001036370,新規,0,2022-01-06,2022-01-06,株式会社ＦＡＢＲＯＣＫ,,株式会社,岡山県,赤磐市,周匝６１４番地,,33,213,7012503,,,,,,,2022-01-06,1,,,,,ファブロック,0
545,2260001036379,新規,0,2022-01-06,2022-01-06,株式会社ＵＰＳＥＴ,,株式会社,岡山県,岡山市中区,浜６０４番地３トラストビル２Ｆ,,33,102,7038256,,,,,,,2022-01-06,1,,,,,アップセット,0
559,2290001095884,新規,0,2022-01-06,2022-01-06,株式会社ワンエイト,,株式会社,福岡県,久留米市,荘島町１４番地８,,40,203,8300042,,,,,,,2022-01-06,1,,,,,ワンエイト,0
560,2290001095901,新規,0,2022-01-06,2022-01-06,ｈｉｒｏｙａ株式会社,,株式会社,福岡県,福岡市中央区,今泉１丁目１８番２８号アペゼ今泉Ａ－２,,40,133,8100021,,,,,,,2022-01-06,1,,,,,ヒロヤ,0
575,2320001018817,新規,0,2022-01-06,2022-01-06,株式会社スピカ,,株式会社,大分県,別府市,立田町１番３４号,,44,202,8740939,,,,,,,2022-01-06,1,,,,,スピカ,0
577,2320003003684,新規,0,2022-01-06,2022-01-06,合同会社豊実,,合同会社,大分県,日田市,大字三和１６０番地６,,44,204,8770000,,,,,,,2022-01-06,1,,,,,トヨミ,0
578,2330001029318,新規,0,2022-01-06,2022-01-06,株式会社ウェルドライズグループ,,株式会社,熊本県,玉名郡長洲町,大字長洲２４９２番地１,,43,368,8690123,,,,,,,2022-01-06,1,,,,,ウェルドライズグループ,0
584,2350005006039,新規,0,2022-01-06,2022-01-06,医療法人いのうえ皮ふ科,,その他の設立登記法人,宮崎県,宮崎市,大工１丁目１０番２８号ひむかワールドビル２０１,,45,201,8800015,,,,,,,2022-01-06,1,,,,,イノウエヒフカ,0
586,2370001048009,新規,0,2022-01-06,2022-01-06,株式会社阿部工業,,株式会社,宮城県,仙台市青葉区,中江１丁目１５番１４号,,04,101,9800001,,,,,,,2022-01-06,1,,,,,アベコウギョウ,0
587,2370001048017,新規,0,2022-01-06,2022-01-06,株式会社浜匠,,株式会社,宮城県,宮城郡七ヶ浜町,境山１丁目１４番２１号,,04,404,9850824,,,,,,,2022-01-06,1,,,,,ハマショウ,0
588,2370001048025,新規,0,2022-01-06,2022-01-06,株式会社金野,,株式会社,宮城県,仙台市宮城野区,岩切字余目南９３番地,,04,102,9830821,,,,,,,2022-01-06,1,,,,,コンノ,0
596,2390001016748,新規,0,2022-01-06,2022-01-06,株式会社梅木もち屋,,株式会社,山形県,東田川郡庄内町,跡字梅木５９番地,,06,428,9997701,,,,,,,2022-01-06,1,,,,,ウメキモチヤ,0
597,2390003001905,新規,0,2022-01-06,2022-01-06,原田ウェルディング合同会社,,合同会社,山形県,上山市,金生西２丁目１３番５号,,06,207,9993126,,,,,,,2022-01-06,1,,,,,ハラダウェルディング,0
598,2400001015723,新規,0,2022-01-06,2022-01-06,株式会社ＯＭ,,株式会社,岩手県,大船渡市,大船渡町字新田４４番地２０,,03,203,0220002,,,,,,,2022-01-06,1,,,,,オーエム,0
602,2430001085706,新規,0,2022-01-06,2022-01-06,株式会社朝日クリエイティブ,,株式会社,北海道,滝川市,緑町２丁目１番３０号,,01,225,0730023,,,,,,,2022-01-06,1,,,,,アサヒクリエイティブ,0
603,2450001013581,新規,0,2022-01-06,2022-01-06,渡辺製菓株式会社,,株式会社,北海道,上川郡美瑛町,大町１丁目２４番１３号,,01,459,0710204,,,,,,,2022-01-06,1,,,,,ワタナベセイカ,0
606,2470001018901,新規,0,2022-01-06,2022-01-06,株式会社マンノ清掃社,,株式会社,香川県,仲多度郡まんのう町,四條３２５番地３,,37,406,7660021,,,,,,,2022-01-06,1,,,,,マンノセイソウシャ,0
608,2470003002102,新規,0,2022-01-06,2022-01-06,合同会社ＣＳサービス,,合同会社,香川県,高松市,屋島西町２４４４番地９－１０２号,,37,201,7610113,,,,,,,2022-01-06,1,,,,,シーエスサービス,0
611,2480001011599,新規,0,2022-01-06,2022-01-06,株式会社古高設備,00125314,株式会社,徳島県,名西郡石井町,高原字平島１６７番地２,,36,341,7793203,,,,,,,2022-01-06,1,,,,,コタカセツビ,0
612,2480001011608,新規,0,2022-01-06,2022-01-06,株式会社穀雨,,株式会社,徳島県,徳島市,末広２丁目１－４２,,36,201,7700866,,,,,,,2022-01-06,1,,,,,コクウ,0
616,2500001023914,新規,0,2022-01-06,2022-01-06,株式会社Ｊ　ＶＩＬＬＡＧＥ,,株式会社,愛媛県,松山市,和泉南３丁目８番２８号,,38,201,7900941,,,,,,,2022-01-06,1,,,,,ジェイヴィレッジ,0
617,2500003002750,新規,0,2022-01-06,2022-01-06,あいか合同会社,,合同会社,愛媛県,松山市,古川北３丁目３番１４号,,38,201,7900942,,,,,,,2022-01-06,1,,,,,アイカ,0
618,2700150105006,新規,0,2022-01-06,2021-10-04,虹のさかなプロダクション,,その他,宮城県,仙台市宮城野区,苦竹１丁目４－３１－８０１号,,04,102,9830036,,,,,,,2021-10-04,1,,,,,ニジノサカナプロダクシヨン,0
631,3010001223595,新規,0,2022-01-06,2022-01-06,株式会社アプスライズ,,株式会社,東京都,中央区,築地１丁目１２－１３,,13,102,1040045,,,,,,,2022-01-06,1,,,,,アプスライズ,0
634,3010005034394,新規,0,2022-01-06,2022-01-06,コルブスＭＦ一般社団法人,,その他の設立登記法人,東京都,千代田区,霞が関３丁目２番５号,,13,101,1000013,,,,,,,2022-01-06,1,,,,,コルブスエムエフ,0
635,3010005034403,新規,0,2022-01-06,2022-01-06,一般社団法人未来に紡ぐ慧智,,その他の設立登記法人,東京都,千代田区,霞が関３丁目６－１４・５０１号室,,13,101,1000013,,,,,,,2022-01-06,1,,,,,ミライニツムグエイチ,0
641,3010401164737,新規,0,2022-01-06,2022-01-06,株式会社ＷＥＬＬＮＥＳＴ　ＥＮＧＩＮＥＥＲＩＮＧ,,株式会社,東京都,港区,虎ノ門４丁目１番２８号虎ノ門タワーズオフィス１９階,,13,103,1050001,,,,,,,2022-01-06,1,,,,,ウェルネストエンジニアリング,0
642,3010401164753,新規,0,2022-01-06,2022-01-06,ＪＫホールディングス株式会社,,株式会社,東京都,港区,虎ノ門５丁目１１番１号オランダヒルズ森タワーＲｏＰ,,13,103,1050001,,,,,,,2022-01-06,1,,,,,ジェイケーホールディングス,0
643,3010401164761,新規,0,2022-01-06,2022-01-06,株式会社Ｍｅｔａ　Ｍｅｄｉｃｈ,,株式会社,東京都,港区,芝５丁目２６番２４号田町スクエア３Ｆ,,13,103,1080014,,,,,,,2022-01-06,1,,,,,メタメディッチ,0
644,3010401164786,新規,0,2022-01-06,2022-01-06,株式会社ハウス工務店,,株式会社,東京都,港区,海岸１丁目２番２０号,,13,103,1050022,,,,,,,2022-01-06,1,,,,,ハウスコウムテン,0
645,3010403026828,新規,0,2022-01-06,2022-01-06,エピステーメー合同会社,,合同会社,東京都,港区,東新橋１丁目６番３号ザロイヤルパークホテルアイコニック東京汐留２４Ｆ・ＢＩＺｃｏｍｆｏｒｔ,,13,103,1050021,,,,,,,2022-01-06,1,,,,,エピステーメー,0
650,3010701041999,新規,0,2022-01-06,2022-01-06,Ｒｅｓｅａｒｃｈ　ａｎｄ　Ｄａｔａ株式会社,,株式会社,東京都,品川区,戸越４丁目６番１４号Ｏ．Ｓ．ビル２０１,,13,109,1420041,,,,,,,2022-01-06,1,,,,,リサーチアンドデータ,0
652,3010703006059,新規,0,2022-01-06,2022-01-06,合同会社保全ラボ,,合同会社,東京都,品川区,西五反田２丁目９－７ドルミ五反田４０７号,,13,109,1410031,,,,,,,2022-01-06,1,,,,,ホゼンラボ,0
654,3010801032626,新規,0,2022-01-06,2022-01-06,株式会社Ｔａｎｂｏ,,株式会社,東京都,大田区,南蒲田２丁目６番４号,,13,111,1440035,,,,,,,2022-01-06,1,,,,,タンボ,0
657,3010901050073,新規,0,2022-01-06,2022-01-06,株式会社大授総合研究所,,株式会社,東京都,世田谷区,深沢４丁目２１番１９号,,13,112,1580081,,,,,,,2022-01-06,1,,,,,ダイジュソウゴウケンキュウショ,0
658,3010901050107,新規,0,2022-01-06,2022-01-06,株式会社ミライミュージックスクール,,株式会社,東京都,世田谷区,北沢５丁目２４番２７号ヒルトップテラス大山５０１,,13,112,1550031,,,,,,,2022-01-06,1,,,,,ミライミュージックスクール,0
659,3010905004240,新規,0,2022-01-06,2022-01-06,一般社団法人ＮｅＢＡ,,その他の設立登記法人,東京都,世田谷区,松原２丁目２０番１号,,13,112,1560043,,,,,,,2022-01-06,1,,,,,ネバ,0
668,3011001144889,新規,0,2022-01-06,2022-01-06,ハピクル株式会社,,株式会社,東京都,渋谷区,桜丘町３１番１４号岡三桜丘ビルＳＬＡＣＫＳＨＩＢＵＹＡ６０３号室,,13,113,1500031,,,,,,,2022-01-06,1,,,,,ハピクル,0
669,3011001144897,新規,0,2022-01-06,2022-01-06,Ｄｉｇｉｔａｒ株式会社,,株式会社,東京都,目黒区,目黒１丁目２番６－６１５号,,13,110,1530063,,,,,,,2022-01-06,1,,,,,デジター,0
670,3011001144922,新規,0,2022-01-06,2022-01-06,株式会社Ｒｅ．ｐｌａｙ,,株式会社,東京都,目黒区,鷹番３丁目１番８号原中山ビル２Ｆ,,13,110,1520004,,,,,,,2022-01-06,1,,,,,リプレイ,0
674,3011003013935,新規,0,2022-01-06,2022-01-06,ディリジェンス合同会社,,合同会社,東京都,渋谷区,神宮前１丁目５番８号神宮前タワービルディング１４階,,13,113,1500001,,,,,,,2022-01-06,1,,,,,ディリジェンス,0
675,3011003013951,新規,0,2022-01-06,2022-01-06,合同会社中嶋,,合同会社,東京都,渋谷区,代々木４丁目９番５－５０２号,,13,113,1510053,,,,,,,2022-01-06,1,,,,,ナカジマ,0
679,3011103011343,新規,0,2022-01-06,2022-01-06,合同会社Ｃｌｏｖｅｒ,,合同会社,東京都,新宿区,高田馬場２丁目８－１６滝沢ビル４０１,,13,104,1690075,,,,,,,2022-01-06,1,,,,,クローバー,0
682,3011301027463,新規,0,2022-01-06,2022-01-06,株式会社Ａｎｋｅｒ　Ｄｕｓｔ,,株式会社,東京都,杉並区,下高井戸２丁目１４番１４－２０７号,,13,115,1680073,,,,,,,2022-01-06,1,,,,,アンカーダスト,0
683,3011303004262,新規,0,2022-01-06,2022-01-06,合同会社福栄,,合同会社,東京都,杉並区,南荻窪１丁目２３番７号ミラベルデ１０２,,13,115,1670052,,,,,,,2022-01-06,1,,,,,フクエイ,0
685,3011501027619,新規,0,2022-01-06,2022-01-06,株式会社ｅａｓｔ　ｔｏｋｙｏ,,株式会社,東京都,荒川区,南千住３丁目１５－１１,,13,118,1160003,,,,,,,2022-01-06,1,,,,,イーストトウキョウ,0
686,3011601025646,新規,0,2022-01-06,2022-01-06,株式会社ライフツールズ,,株式会社,東京都,練馬区,旭町３丁目１番４号旭町マンション店舗１０３,,13,120,1790071,,,,,,,2022-01-06,1,,,,,ライフツールズ,0
691,3011801040131,新規,0,2022-01-06,2022-01-06,株式会社マイオール,,株式会社,東京都,足立区,六木４丁目２番６号,,13,121,1210052,,,,,,,2022-01-06,1,,,,,マイオール,0
692,3011801040148,新規,0,2022-01-06,2022-01-06,東京リペア株式会社,,株式会社,東京都,足立区,関原３丁目３２番９号,,13,121,1230852,,,,,,,2022-01-06,1,,,,,トウキョウリペア,0
693,3012401038714,新規,0,2022-01-06,2022-01-06,株式会社Ｐｈｙｓｉｃｓ,,株式会社,東京都,武蔵野市,吉祥寺北町４丁目８番１号フーガ吉祥寺４０１,,13,203,1800001,,,,,,,2022-01-06,1,,,,,フィジックス,0
716,3020001144584,新規,0,2022-01-06,2022-01-06,株式会社Ｋｉｉ,,株式会社,神奈川県,川崎市中原区,新丸子東１丁目９８６番地川粧ビル２０５,,14,133,2110004,,,,,,,2022-01-06,1,,,,,キー,0
720,3020003021055,新規,0,2022-01-06,2022-01-06,ａｎｏｎ合同会社,,合同会社,神奈川県,横浜市都筑区,荏田東４丁目２８番１２号,,14,118,2240006,,,,,,,2022-01-06,1,,,,,アノン,0
721,3020003021063,新規,0,2022-01-06,2022-01-06,合同会社おざわーるど,,合同会社,神奈川県,横浜市都筑区,東山田１丁目６番１７号,,14,118,2240023,,,,,,,2022-01-06,1,,,,,オザワールド,0
723,3021001074854,新規,0,2022-01-06,2022-01-06,株式会社Ｋ＆Ｍ　Ｓｅｒｖｉｃｅｓ,,株式会社,神奈川県,横須賀市,秋谷２丁目７番１４号,,14,201,2400105,,,,,,,2022-01-06,1,,,,,ケーアンドエムサービス,0
724,3021001074870,新規,0,2022-01-06,2022-01-06,株式会社ライズ,,株式会社,神奈川県,厚木市,山際９２４番地１６,,14,212,2430803,,,,,,,2022-01-06,1,,,,,ライズ,0
728,3021003011244,新規,0,2022-01-06,2022-01-06,合同会社アンダークレイン,,合同会社,神奈川県,鎌倉市,笛田３丁目２番６４号,,14,204,2480027,,,,,,,2022-01-06,1,,,,,アンダークレイン,0
730,3030001146101,新規,0,2022-01-06,2022-01-06,株式会社ｋ．ｐｌａｎｎｉｎｇ,,株式会社,埼玉県,越谷市,南越谷４丁目９－２寅ビル１Ｆ,,11,222,3430845,,,,,,,2022-01-06,1,,,,,ケープランニング,0
731,3030001146118,新規,0,2022-01-06,2022-01-06,株式会社フューチャーダイレクト,,株式会社,埼玉県,越谷市,レイクタウン６丁目１番地５ソレアードＬ・Ｔ２０３号,,11,222,3430828,,,,,,,2022-01-06,1,,,,,フューチャーダイレクト,0
732,3030001146134,新規,0,2022-01-06,2022-01-06,ＢＣＺ株式会社,,株式会社,埼玉県,川口市,芝中田２丁目３８－２７,,11,203,3330847,,,,,,,2022-01-06,1,,,,,ビーシーゼット,0
733,3030001146142,新規,0,2022-01-06,2022-01-06,株式会社Ｙｏｕ‐Ｒｉ,,株式会社,埼玉県,春日部市,一ノ割１２６２番地１,,11,214,3440031,,,,,,,2022-01-06,1,,,,,ユーリ,0
734,3030001146150,新規,0,2022-01-06,2022-01-06,株式会社ＳＥＧＡ－建匠,,株式会社,埼玉県,越谷市,千間台西３丁目１番地パークタウン５－２０５,,11,222,3430041,,,,,,,2022-01-06,1,,,,,セガケンショウ,0
735,3030001146159,新規,0,2022-01-06,2022-01-06,株式会社福栄重機,,株式会社,埼玉県,八潮市,大字南川崎１７０番地９,,11,234,3400814,,,,,,,2022-01-06,1,,,,,フクエイジュウキ,0
736,3030001146175,新規,0,2022-01-06,2022-01-06,株式会社明和電装,,株式会社,埼玉県,久喜市,栗橋１３１４番地,,11,232,3491104,,,,,,,2022-01-06,1,,,,,メイワデンソウ,0
737,3030001146183,新規,0,2022-01-06,2022-01-06,株式会社Ｒｅａｌｉｆｅ,,株式会社,埼玉県,川越市,大字鯨井１４８９番地３,,11,201,3500815,,,,,,,2022-01-06,1,,,,,リアライフ,0
738,3030001146217,新規,0,2022-01-06,2022-01-06,株式会社増木ホールディングス,,株式会社,埼玉県,新座市,野火止３丁目１０番７号,,11,230,3520011,,,,,,,2022-01-06,1,,,,,マスキホールディングス,0
740,3030003018579,新規,0,2022-01-06,2022-01-06,合同会社ローカルエリア,,合同会社,埼玉県,所沢市,大字本郷４１番地の４,,11,208,3590022,,,,,,,2022-01-06,1,,,,,ローカルエリア,0
741,3030003018604,新規,0,2022-01-06,2022-01-06,オルティス合同会社,,合同会社,埼玉県,川口市,南鳩ヶ谷４丁目８番２号,,11,203,3340013,,,,,,,2022-01-06,1,,,,,オルティス,0
742,3030003018612,新規,0,2022-01-06,2022-01-06,合同会社ＫＵＴＡ,,合同会社,埼玉県,白岡市,新白岡２丁目１６番地４,,11,246,3490212,,,,,,,2022-01-06,1,,,,,クウタ,0
744,3030005020673,新規,0,2022-01-06,2022-01-06,特定非営利活動法人ここねっと,,その他の設立登記法人,埼玉県,幸手市,南２丁目１２番４０－３１７号ライオンズマンション幸手,,11,240,3400156,,,,,,,2022-01-06,1,,,,,ココネット,0
747,3040001121573,新規,0,2022-01-06,2022-01-06,株式会社Ｓｏｒａｍｏ,,株式会社,千葉県,松戸市,新松戸北２丁目６番地の１５－２０５号,,12,207,2700032,,,,,,,2022-01-06,1,,,,,ソラモ,0
748,3040001121607,新規,0,2022-01-06,2022-01-06,株式会社ルアナプラス,,株式会社,千葉県,山武市,成東７４４番地１,,12,237,2891326,,,,,,,2022-01-06,1,,,,,ルアナプラス,0
751,3040003019213,新規,0,2022-01-06,2022-01-06,合同会社ＯＪＩＲＯ,,合同会社,千葉県,船橋市,芝山５丁目４４番１号,,12,204,2740816,,,,,,,2022-01-06,1,,,,,オジロ,0
752,3040003019238,新規,0,2022-01-06,2022-01-06,合同会社トモコイズミ,,合同会社,千葉県,袖ケ浦市,奈良輪２３７７番地,,12,229,2990263,,,,,,,2022-01-06,1,,,,,トモコイズミ,0
764,3080401025552,新規,0,2022-01-06,2022-01-06,ハニヤーモーター株式会社,,株式会社,静岡県,浜松市東区,貴平町３１０番地,,22,132,4313104,,,,,,,2022-01-06,1,,,,,ハニヤーモーター,0
765,3080403004439,新規,0,2022-01-06,2022-01-06,合同会社Ｓ・Ａパートナーズ,,合同会社,静岡県,掛川市,駅前７番地の１８－３Ｆ,,22,213,4360077,,,,,,,2022-01-06,1,,,,,エスエーパートナーズ,0
766,3100001034942,新規,0,2022-01-06,2022-01-06,株式会社ｒｅｐｏｓ,,株式会社,長野県,諏訪市,大字四賀１５５１番地５,,20,206,3920012,,,,,,,2022-01-06,1,,,,,ルポス,0
768,3110001036327,新規,0,2022-01-06,2022-01-06,株式会社吉川工業,,株式会社,新潟県,村上市,下相川７９３番地１,,15,212,9580809,,,,,,,2022-01-06,1,,,,,,0
769,3110001036335,新規,0,2022-01-06,2022-01-06,株式会社寿賀緒建装,,株式会社,新潟県,新潟市西区,坂井東６丁目４番２７号,,15,107,9502041,,,,,,,2022-01-06,1,,,,,スガオケンソウ,0
770,3110001036343,新規,0,2022-01-06,2022-01-06,株式会社コントローラボＪａｐａｎ,,株式会社,新潟県,新発田市,小舟町１丁目２番１５号１,,15,206,9570007,,,,,,,2022-01-06,1,,,,,コントローラボジャパン,0
777,3120001242790,新規,0,2022-01-06,2022-01-06,アップアンドダウン株式会社,,株式会社,大阪府,大阪市東住吉区,南田辺５丁目１６番１１号,,27,121,5460033,,,,,,,2022-01-06,1,,,,,アップアンドダウン,0
778,3120001242832,新規,0,2022-01-06,2022-01-06,株式会社ＢＬＥＳＳ,,株式会社,大阪府,大阪市西区,南堀江１丁目３番１２－２４０８号,,27,106,5500015,,,,,,,2022-01-06,1,,,,,ブレス,0
779,3120001242840,新規,0,2022-01-06,2022-01-06,株式会社Ｂｅｎｅ,,株式会社,大阪府,枚方市,川原町９番２０号,,27,210,5730028,,,,,,,2022-01-06,1,,,,,ベーネ,0
780,3120001242849,新規,0,2022-01-06,2022-01-06,株式会社Ｆｏｒｇｉｖｅ,,株式会社,大阪府,大阪市西区,南堀江４丁目３１番５号,,27,106,5500015,,,,,,,2022-01-06,1,,,,,フォーギブ,0
781,3120001242865,新規,0,2022-01-06,2022-01-06,株式会社ＨＩＧＨ　ＦＩＥＬＤ,,株式会社,大阪府,大阪市天王寺区,東上町３番２１号,,27,109,5430026,,,,,,,2022-01-06,1,,,,,ハイフィールド,0
782,3120001242898,新規,0,2022-01-06,2022-01-06,ニューロニクス株式会社,,株式会社,大阪府,大阪市中央区,南本町２丁目４番１５号,,27,128,5410054,,,,,,,2022-01-06,1,,,,,ニューロニクス,0
783,3120001242931,新規,0,2022-01-06,2022-01-06,株式会社三友社,,株式会社,大阪府,大阪市北区,東天満２丁目７番１９号,,27,127,5300044,,,,,,,2022-01-06,1,,,,,サンユウシャ,0
784,3120001242948,新規,0,2022-01-06,2022-01-06,株式会社スリーＧワークス,,株式会社,大阪府,大阪市淀川区,宮原１丁目１９番２３号ステュディオ新御堂７２７号,,27,123,5320003,,,,,,,2022-01-06,1,,,,,スリージーワークス,0
787,3120003020872,新規,0,2022-01-06,2022-01-06,合同会社サンフラン,,合同会社,大阪府,大阪市北区,豊崎３丁目１８番３－３３０４号,,27,127,5310072,,,,,,,2022-01-06,1,,,,,サンフラン,0
788,3120005022677,新規,0,2022-01-06,2022-01-06,松原司法書士法人,,その他の設立登記法人,大阪府,大阪市都島区,東野田町１丁目２１番１４号,,27,102,5340024,,,,,,,2022-01-06,1,,,,,マツバラ,0
793,3120101064879,新規,0,2022-01-06,2022-01-06,株式会社ＭＩＹＡｉ,,株式会社,大阪府,南河内郡太子町,大字太子２２３番地１,,27,381,5830995,,,,,,,2022-01-06,1,,,,,ミヤイ,0
796,3120901045418,新規,0,2022-01-06,2022-01-06,一兵衛造園株式会社,,株式会社,大阪府,茨木市,南安威１丁目２番４０号ＭＹビル２０１,,27,211,5670007,,,,,,,2022-01-06,1,,,,,イッペイゾウエン,0
806,3122001035480,新規,0,2022-01-06,2022-01-06,蓮池産業株式会社,,株式会社,大阪府,八尾市,太田１丁目１５７番地,,27,212,5810037,,,,,,,2022-01-06,1,,,,,ハスイケサンギョウ,0
812,3140001124392,新規,0,2022-01-06,2022-01-06,株式会社ｉｃ,,株式会社,兵庫県,川辺郡猪名川町,伏見台１丁目１－７１ミュー日生中央１０１号,,28,301,6660262,,,,,,,2022-01-06,1,,,,,アイシー,0
813,3140001124401,新規,0,2022-01-06,2022-01-06,イケウチショウカイ株式会社,,株式会社,兵庫県,伊丹市,稲野町６丁目９０番地３,,28,207,6640861,,,,,,,2022-01-06,1,,,,,イケウチショウカイ,0
814,3140001124426,新規,0,2022-01-06,2022-01-06,株式会社エムアイケイ,,株式会社,兵庫県,川西市,緑台１丁目５番地の３２,,28,217,6660129,,,,,,,2022-01-06,1,,,,,エムアイケイ,0
815,3140003017157,新規,0,2022-01-06,2022-01-06,合同会社和希,,合同会社,兵庫県,川西市,新田３丁目２２番４号,,28,217,6660125,,,,,,,2022-01-06,1,,,,,カズキ,0
816,3150001025219,新規,0,2022-01-06,2022-01-06,株式会社フートエイシル,,株式会社,奈良県,奈良市,南新町１５番地の１１,,29,201,6308356,,,,,,,2022-01-06,1,,,,,フートエイシル,0
818,3160003002462,新規,0,2022-01-06,2022-01-06,りふれいん合同会社,,合同会社,滋賀県,大津市,唐崎２丁目１番１５号,,25,201,5200106,,,,,,,2022-01-06,1,,,,,リフレイン,0
825,3180001149337,新規,0,2022-01-06,2022-01-06,株式会社ＢＥＳＴＩＴＡ,,株式会社,愛知県,名古屋市中区,栄２丁目１５番１４号,,23,106,4600008,,,,,,,2022-01-06,1,,,,,ベスティータ,0
826,3180001149353,新規,0,2022-01-06,2022-01-06,株式会社霜月,,株式会社,愛知県,名古屋市千種区,橋本町３丁目４５番地Ａ―Ｗｉｎｇ１０４号,,23,101,4640035,,,,,,,2022-01-06,1,,,,,シモツキ,0
827,3180001149394,新規,0,2022-01-06,2022-01-06,株式会社ダッチワークス,,株式会社,愛知県,津島市,愛宕町７８番地１０,,23,208,4960000,,,,,,,2022-01-06,1,,,,,ダッチワークス,0
828,3180001149411,新規,0,2022-01-06,2022-01-06,株式会社ベターシティ,,株式会社,愛知県,名古屋市千種区,春岡２丁目２７番２１号,,23,101,4640848,,,,,,,2022-01-06,1,,,,,ベターシティ,0
840,3190001029001,新規,0,2022-01-06,2022-01-06,三屋株式会社,,株式会社,三重県,鈴鹿市,南玉垣町７１３１番地,,24,207,5130816,,,,,,,2022-01-06,1,,,,,サンヤ,0
844,3190003003854,新規,0,2022-01-06,2022-01-06,合同会社エナジェティックハウスホールド,,合同会社,三重県,四日市市,諏訪栄町４－１０,,24,202,5100086,,,,,,,2022-01-06,1,,,,,エナジェティックハウスホールド,0
845,3190003003862,新規,0,2022-01-06,2022-01-06,合同会社ｂｅｙｏｎｄ　ｏｖｅｒ,,合同会社,三重県,四日市市,泊町４番４号,,24,202,5100884,,,,,,,2022-01-06,1,,,,,ビヨンドオーバー,0
848,3200001039601,新規,0,2022-01-06,2022-01-06,ＣＡＬＹＰＳＯ　Ｄｅｎｔ．Ｔｅｃｈ．株式会社,,株式会社,岐阜県,本巣市,仏生寺８６８番地６１２,,21,218,5010407,,,,,,,2022-01-06,1,,,,,カリプソデントテック,0
849,3200001039626,新規,0,2022-01-06,2022-01-06,種田養蜂場株式会社,,株式会社,岐阜県,大垣市,東前２丁目２８２番地,,21,202,5030835,,,,,,,2022-01-06,1,,,,,オイダヨウホウジョウ,0
852,3220001024626,新規,0,2022-01-06,2022-01-06,株式会社ＩＺＭ,,株式会社,石川県,河北郡津幡町,字太田ほ１４５番地１４,,17,361,9290345,,,,,,,2022-01-06,1,,,,,アイゼットエム,0
853,3220001024634,新規,0,2022-01-06,2022-01-06,株式会社金沢トラベル,,株式会社,石川県,金沢市,彦三町１丁目２‐１アソルティ金沢彦三１Ｆ,,17,201,9200901,,,,,,,2022-01-06,1,,,,,カナザワトラベル,0
854,3230001019162,新規,0,2022-01-06,2022-01-06,株式会社トリプルスリー,,株式会社,富山県,富山市,秋吉１０３番地１０,,16,201,9300953,,,,,,,2022-01-06,1,,,,,トリプルスリー,0
858,3240001059109,新規,0,2022-01-06,2022-01-06,株式会社Ｓｗａａａｂ,,株式会社,広島県,広島市西区,井口２丁目１０番６－４号,,34,104,7330842,,,,,,,2022-01-06,1,,,,,スワブ,0
859,3240001059125,新規,0,2022-01-06,2022-01-06,株式会社お好み焼てっちゃん,,株式会社,広島県,三原市,宮浦３丁目１３番８号,,34,204,7230051,,,,,,,2022-01-06,1,,,,,オコノミヤキテッチャン,0
861,3260001036378,新規,0,2022-01-06,2022-01-06,株式会社ＯＲＳ,,株式会社,岡山県,岡山市北区,富田町１丁目５番１２号アシモ大奈ビル５０２,,33,101,7000816,,,,,,,2022-01-06,1,,,,,オーアールエス,0
871,3290001095883,新規,0,2022-01-06,2022-01-06,Ｗｉｔｈｃｏｆｆｅｅ株式会社,,株式会社,福岡県,福津市,西福間３丁目２８番３０－３０４号,,40,224,8113219,,,,,,,2022-01-06,1,,,,,ウィズコーヒー,0
872,3290001095891,新規,0,2022-01-06,2022-01-06,株式会社モダンシルエット,,株式会社,福岡県,福津市,中央２丁目１番３号,,40,224,8113217,,,,,,,2022-01-06,1,,,,,モダンシルエット,0
874,3290003011987,新規,0,2022-01-06,2022-01-06,合同会社平崎事務所,,合同会社,福岡県,福岡市中央区,舞鶴３丁目１番２２号,,40,133,8100073,,,,,,,2022-01-06,1,,,,,ヒラサキジムショ,0
875,3290005018510,新規,0,2022-01-06,2022-01-06,白川土地家屋調査士法人,,その他の設立登記法人,福岡県,福岡市南区,向野２丁目８番２７－１０８号,,40,134,8150035,,,,,,,2022-01-06,1,,,,,シラカワ,0
878,3310003004245,新規,0,2022-01-06,2022-01-06,合同会社もみじ動物病院,,合同会社,長崎県,大村市,竹松本町６５２番地１１,,42,205,8560805,,,,,,,2022-01-06,1,,,,,モミジドウブツビョウイン,0
881,3320003003691,新規,0,2022-01-06,2022-01-06,涙製合同会社,,合同会社,大分県,大分市,大字中判田２１１９番地の１,,44,201,8701113,,,,,,,2022-01-06,1,,,,,ルイセイ,0
884,3330001029325,新規,0,2022-01-06,2022-01-06,株式会社Ｉ　ｈａｎｄ,,株式会社,熊本県,熊本市南区,南高江６丁目４番１２号２Ｆ,,43,104,8614106,,,,,,,2022-01-06,1,,,,,アイハンド,0
885,3330001029333,新規,0,2022-01-06,2022-01-06,株式会社田中ファーム,,株式会社,熊本県,菊池市,泗水町永２５４６番地１,,43,210,8611204,,,,,,,2022-01-06,1,,,,,タナカファーム,0
889,3340001024382,新規,0,2022-01-06,2022-01-06,株式会社オダギリフェンス,,株式会社,鹿児島県,鹿児島市,四元町１５７９番地,,46,201,8992708,,,,,,,2022-01-06,1,,,,,オダギリフェンス,0
890,3340001024399,新規,0,2022-01-06,2022-01-06,ホースレスキュートミ株式会社,,株式会社,鹿児島県,霧島市,国分広瀬２丁目１５番４０号,,46,218,8994321,,,,,,,2022-01-06,1,,,,,ホースレスキュートミ,0
897,3360001029834,新規,0,2022-01-06,2022-01-06,Ｐａｓｓａｇｅ株式会社,,株式会社,沖縄県,うるま市,字赤道２５６番地２Ｐｒｅｎｄｒｅ龍４－Ｂ号室,,47,213,9042245,,,,,,,2022-01-06,1,,,,,パッセージ,0
898,3360001029850,新規,0,2022-01-06,2022-01-06,トライド沖縄株式会社,,株式会社,沖縄県,南城市,大里字古堅２８８番地４,,47,215,9011207,,,,,,,2022-01-06,1,,,,,トライドオキナワ,0
901,3360003011699,新規,0,2022-01-06,2022-01-06,アキヅ産業合同会社,,合同会社,沖縄県,豊見城市,字平良１８８番地４４、Ｇ－４０３号,,47,212,9010212,,,,,,,2022-01-06,1,,,,,アキヅサンギョウ,0
905,3370001048008,新規,0,2022-01-06,2022-01-06,株式会社寅屋,,株式会社,宮城県,石巻市,相野谷字上川前１３番３,,04,202,9860101,,,,,,,2022-01-06,1,,,,,トラヤ,0
906,3370001048024,新規,0,2022-01-06,2022-01-06,株式会社ｚｅｒｏ－Ｄ,,株式会社,宮城県,仙台市青葉区,国分町３丁目１１番３０－２０２号,,04,101,9800803,,,,,,,2022-01-06,1,,,,,ゼロディー,0
908,3370003005535,新規,0,2022-01-06,2022-01-06,合同会社ソルブ,,合同会社,宮城県,仙台市宮城野区,岩切字水分９８－２,,04,102,9830821,,,,,,,2022-01-06,1,,,,,ソルブ,0
909,3380001032448,新規,0,2022-01-06,2022-01-06,太田工業株式会社,,株式会社,福島県,二本松市,本町２丁目４８番地１,,07,210,9640917,,,,,,,2022-01-06,1,,,,,,0
912,3390001016747,新規,0,2022-01-06,2022-01-06,株式会社Ｔ．Ｈ．Ｄ．,,株式会社,山形県,鶴岡市,道形町１２番８－１号,,06,203,9970013,,,,,,,2022-01-06,1,,,,,ティーエイチディー,0
923,3450001013572,新規,0,2022-01-06,2022-01-06,アーラミミック株式会社,,株式会社,北海道,上川郡鷹栖町,南二条１丁目２番２５号,,01,452,0711202,,,,,,,2022-01-06,1,,,,,アーラミミック,0
926,3480001011607,新規,0,2022-01-06,2022-01-06,ＬｉｆｅＯｎＥａｒｔｈ株式会社,,株式会社,徳島県,名西郡石井町,石井字石井１７７８番地,,36,341,7793233,,,,,,,2022-01-06,1,,,,,ライフオンアース,0
928,3480003001779,新規,0,2022-01-06,2022-01-06,川崎合同会社,00125317,合同会社,徳島県,徳島市,新南福島２丁目２番２－１号,,36,201,7700867,,,,,,,2022-01-06,1,,,,,カワサキ,0
930,3490001010079,新規,0,2022-01-06,2022-01-06,株式会社とさごころ,,株式会社,高知県,高知市,帯屋町２丁目２番１４号ＯＫＡＭＵＲＡ帯屋町ビル４階,,39,201,7800841,,,,,,,2022-01-06,1,,,,,トサゴコロ,0
931,3500001023913,新規,0,2022-01-06,2022-01-06,株式会社興心総業,,株式会社,愛媛県,西条市,三津屋１９０番地２７,,38,206,7991351,,,,,,,2022-01-06,1,,,,,コウシンソウギョウ,0
933,3700150106325,新規,0,2022-01-06,2021-12-21,石田環境プラザ管理委員会,,その他,東京都,日野市,石田１丁目１３－４,,13,212,1910021,,,,,,,2021-12-21,1,,,,,イシダカンキヨウプラザカンリイインカイ,0
941,4010001223594,新規,0,2022-01-06,2022-01-06,株式会社酒井開発,,株式会社,東京都,中央区,勝どき３丁目４番６号,,13,102,1040054,,,,,,,2022-01-06,1,,,,,,0
942,4010001223644,新規,0,2022-01-06,2022-01-06,株式会社Ｃｈｒｏｎｏ,,株式会社,東京都,文京区,西片２丁目２４番２号,,13,105,1130024,,,,,,,2022-01-06,1,,,,,クロノ,0
956,4010401164728,新規,0,2022-01-06,2022-01-06,株式会社初代タイガーマスクＳＳＰＷ,,株式会社,東京都,港区,南青山２丁目２番１５号,,13,103,1070062,,,,,,,2022-01-06,1,,,,,ショダイタイガーマスクエスエスピーダブリュー,0
957,4010401164752,新規,0,2022-01-06,2022-01-06,ＡＮＤＥＬＴ株式会社,,株式会社,東京都,港区,芝浦４丁目１０番１－１６０８号,,13,103,1080023,,,,,,,2022-01-06,1,,,,,アンデルト,0
958,4010401164777,新規,0,2022-01-06,2022-01-06,株式会社Ｌｉｆｅ　Ｃａｐ,,株式会社,東京都,港区,赤坂４丁目５番２１－１０６号,,13,103,1070052,,,,,,,2022-01-06,1,,,,,ライフキャップ,0
960,4010403026819,新規,0,2022-01-06,2022-01-06,合同会社Ｆａｎｔａｓｉｓｔａ　Ｆｏｏｔｂａｌｌ　Ａｃａｄｅｍｙ,,合同会社,東京都,港区,東麻布２丁目３５番１号６Ｆ,,13,103,1060044,,,,,,,2022-01-06,1,,,,,ファンタジスタフットボールアカデミー,0
961,4010403026827,新規,0,2022-01-06,2022-01-06,合同会社Ｍｉｎｋｓ,,合同会社,東京都,港区,新橋２丁目１６番１号ニュー新橋ビル　７０２　ＬｉＦＥＲＥＥ　ＷＯＲＫ内,,13,103,1050004,,,,,,,2022-01-06,1,,,,,ミンクス,0
962,4010405020555,新規,0,2022-01-06,2022-01-06,ＥＳＲ本星崎特定目的会社,,その他の設立登記法人,東京都,港区,浜松町１丁目２０番１０号ライオネス浜松町５０６号室,,13,103,1050013,,,,,,,2022-01-06,1,,,,,イーエスアールモトホシザキ,0
964,4010505003286,新規,0,2022-01-06,2022-01-06,税理士法人旭総合事務所,,その他の設立登記法人,東京都,台東区,東上野１丁目２８番９号,,13,106,1100015,,,,,,,2022-01-06,1,,,,,アサヒソウゴウジムショ,0
966,4010601060454,新規,0,2022-01-06,2022-01-06,株式会社ＵＮＯ,,株式会社,東京都,墨田区,押上１丁目５２番７号,,13,107,1310045,,,,,,,2022-01-06,1,,,,,ウーノ,0
968,4010701042014,新規,0,2022-01-06,2022-01-06,株式会社ＦＡｔｒｕｓ,,株式会社,東京都,品川区,西五反田１丁目３２－２五反田ＡＬＣＯＶＥ４階,,13,109,1410031,,,,,,,2022-01-06,1,,,,,ファトラス,0
976,4010901050089,新規,0,2022-01-06,2022-01-06,株式会社ひとひら,,株式会社,東京都,世田谷区,世田谷１丁目２２番１０号,,13,112,1540017,,,,,,,2022-01-06,1,,,,,ヒトヒラ,0
977,4010901050114,新規,0,2022-01-06,2022-01-06,株式会社ニュータイプ,,株式会社,東京都,世田谷区,等々力２丁目１８番１５号,,13,112,1580082,,,,,,,2022-01-06,1,,,,,ニュータイプ,0
978,4010903007054,新規,0,2022-01-06,2022-01-06,合同会社ニエポカラノフ,,合同会社,東京都,世田谷区,喜多見９丁目１０番２１号,,13,112,1570067,,,,,,,2022-01-06,1,,,,,ニエポカラノフ,0
986,4011001144896,新規,0,2022-01-06,2022-01-06,株式会社ヨンドゥ,,株式会社,東京都,目黒区,南３丁目１０番１０号,,13,110,1520013,,,,,,,2022-01-06,1,,,,,ヨンドゥ,0
987,4011001144913,新規,0,2022-01-06,2022-01-06,株式会社Ｇｌｏｖｅ　ＨＯＬＤＩＮＧ,,株式会社,東京都,渋谷区,代々木１丁目５７－６,,13,113,1510053,,,,,,,2022-01-06,1,,,,,グローブホールディング,0
993,4011003013934,新規,0,2022-01-06,2022-01-06,合同会社ケーイーストコンサルティング,,合同会社,東京都,目黒区,東が丘１丁目１８番１５号,,13,110,1520021,,,,,,,2022-01-06,1,,,,,ケーイーストコンサルティング,0
997,4011005009385,新規,0,2022-01-06,2022-01-06,ウィザーズ司法書士法人,,その他の設立登記法人,東京都,渋谷区,東１丁目３１番１９号マンション渋谷並木橋２０４号室,,13,113,1500011,,,,,,,2022-01-06,1,,,,,ウィザーズ,0
1005,4011101097350,新規,0,2022-01-06,2022-01-06,株式会社アンハル,,株式会社,東京都,新宿区,舟町７番地４６ＬＡＮＤＤＥＮ舟町９０１,,13,104,1600006,,,,,,,2022-01-06,1,,,,,アンハル,0
1007,4011103011334,新規,0,2022-01-06,2022-01-06,合同会社Ｆｕｇａ,,合同会社,東京都,新宿区,津久戸町３－１９ＤｅＬＣＣＳ神楽坂津久戸町,,13,104,1620821,,,,,,,2022-01-06,1,,,,,フーガ,0
1009,4011301027462,新規,0,2022-01-06,2022-01-06,株式会社Ａｒｃａｎａ　Ｃｒｏｗｎ,,株式会社,東京都,杉並区,下高井戸２丁目１４番１４－２０７号,,13,115,1680073,,,,,,,2022-01-06,1,,,,,アルカナクラウン,0
1013,4011501027626,新規,0,2022-01-06,2022-01-06,株式会社ＩＮＮО　ＴＥＣＨ,,株式会社,東京都,北区,滝野川３丁目９番２号,,13,117,1140023,,,,,,,2022-01-06,1,,,,,イノテック,0
1014,4011501027634,新規,0,2022-01-06,2022-01-06,ナオシ国際株式会社,,株式会社,東京都,荒川区,荒川１丁目２３番１３号,,13,118,1160002,,,,,,,2022-01-06,1,,,,,ナオシコクサイ,0
1017,4011601025645,新規,0,2022-01-06,2022-01-06,株式会社ａｔｅｌｉｅｒ・ＳＴＡＲ　ＰＩＥＲ,,株式会社,東京都,練馬区,上石神井１丁目１４番８号パシフィックタワー３０５号,,13,120,1770044,,,,,,,2022-01-06,1,,,,,アトリエスターピア,0
1019,4011701024951,新規,0,2022-01-06,2022-01-06,株式会社山本工業,,株式会社,東京都,江戸川区,中葛西１丁目１番１４号,,13,123,1340083,,,,,,,2022-01-06,1,,,,,,0
1021,4011801040130,新規,0,2022-01-06,2022-01-06,株式会社太田左官,,株式会社,東京都,葛飾区,水元１丁目１０番２号,,13,122,1250032,,,,,,,2022-01-06,1,,,,,オオタサカン,0
1022,4011801040139,新規,0,2022-01-06,2022-01-06,株式会社ＳＵＰＥＲＢ　ＭＥＤＩＣＡＬ　ＦＩＴＮＥＳＳ,,株式会社,東京都,足立区,江北１丁目２９番３号,,13,121,1230872,,,,,,,2022-01-06,1,,,,,サパーブメディカルフィットネス,0
1027,4012401038721,新規,0,2022-01-06,2022-01-06,株式会社入江総合研究所,,株式会社,東京都,小金井市,本町１丁目１０－７,,13,210,1840004,,,,,,,2022-01-06,1,,,,,イリエソウゴウケンキュウジョ,0
1030,4012403005182,新規,0,2022-01-06,2022-01-06,シンサブロク合同会社,,合同会社,東京都,調布市,深大寺東町６丁目１３番地５５,,13,208,1820012,,,,,,,2022-01-06,1,,,,,シンサブロク,0
1031,4012801021310,新規,0,2022-01-06,2022-01-06,ＬＯＹＡＬ　ＳＵＰＰＯＲＴ株式会社,,株式会社,東京都,東大和市,南街２丁目５９番地６プチセルダ２０３号,,13,220,2070014,,,,,,,2022-01-06,1,,,,,ロイヤルサポート,0
1032,4012803002671,新規,0,2022-01-06,2022-01-06,ＲＵＮ合同会社,,合同会社,東京都,国分寺市,南町３丁目８番１９号グランシャリオ壱番館２０１,,13,214,1850021,,,,,,,2022-01-06,1,,,,,ラン,0
1045,4013301048505,新規,0,2022-01-06,2022-01-06,株式会社ＫＴＳ,,株式会社,東京都,豊島区,東池袋２丁目８－１－７０８,,13,116,1700013,,,,,,,2022-01-06,1,,,,,ケーティーエス,0
1052,4020001144550,新規,0,2022-01-06,2022-01-06,株式会社ポプラホールディングス,,株式会社,神奈川県,川崎市中原区,上小田中３丁目２９－２ザ・クレストシティセンターコート３０２,,14,133,2110053,,,,,,,2022-01-06,1,,,,,ポプラホールディングス,0
1053,4020001144583,新規,0,2022-01-06,2022-01-06,株式会社藍文建設,,株式会社,神奈川県,川崎市川崎区,旭町２丁目１９番７－１０２号桂ビル,,14,131,2100808,,,,,,,2022-01-06,1,,,,,アイモンケンセツ,0
1054,4020001144591,新規,0,2022-01-06,2022-01-06,ＴＳ企画株式会社,,株式会社,神奈川県,横浜市緑区,鴨居４丁目７６番１３号イプシロン４０５号,,14,113,2260003,,,,,,,2022-01-06,1,,,,,ティーエスキカク,0
1055,4020001144600,新規,0,2022-01-06,2022-01-06,株式会社ＧＡＣ,,株式会社,神奈川県,横浜市西区,桜木町４丁目１５番７号アスカビル５階・６階,,14,103,2200021,,,,,,,2022-01-06,1,,,,,ジーエーシー,0
1056,4020001144609,新規,0,2022-01-06,2022-01-06,株式会社Ｍｅｄｉａ　Ｗｉｔｈ,,株式会社,神奈川県,横浜市港北区,日吉本町６丁目１４番３３号ＣＩＥＬＯ日吉本町１０３号室,,14,109,2230062,,,,,,,2022-01-06,1,,,,,メディアウィズ,0
1060,4020003021070,新規,0,2022-01-06,2022-01-06,合同会社アサコイ,,合同会社,神奈川県,横浜市青葉区,新石川２丁目１３番地１８グレイスビーノ１０５,,14,117,2250003,,,,,,,2022-01-06,1,,,,,アサコイ,0
1061,4020003021079,新規,0,2022-01-06,2022-01-06,合同会社アンカープライド向ヶ丘,,合同会社,神奈川県,川崎市宮前区,菅生１丁目１番３１号,,14,136,2160015,,,,,,,2022-01-06,1,,,,,アンカープライドムコウガオカ,0
1067,4021001074845,新規,0,2022-01-06,2022-01-06,エービヨンド株式会社,,株式会社,神奈川県,茅ヶ崎市,萩園２３３９番地３８,,14,207,2530071,,,,,,,2022-01-06,1,,,,,エービヨンド,0
1068,4021001074853,新規,0,2022-01-06,2022-01-06,関東特殊車両販売株式会社,,株式会社,神奈川県,茅ヶ崎市,浜須賀８番３７号,,14,207,2530035,,,,,,,2022-01-06,1,,,,,カントウトクシュシャリョウハンバイ,0
1074,4021003011251,新規,0,2022-01-06,2022-01-06,合同会社ねこの夢,,合同会社,神奈川県,大和市,鶴間１丁目２８番１２号４０３,,14,213,2420004,,,,,,,2022-01-06,1,,,,,ネコノユメ,0
1078,4030001146125,新規,0,2022-01-06,2022-01-06,富安株式会社,,株式会社,埼玉県,幸手市,東２丁目１５番９号,,11,240,3400114,,,,,,,2022-01-06,1,,,,,トミヤス,0
1079,4030001146133,新規,0,2022-01-06,2022-01-06,株式会社カナメ,,株式会社,埼玉県,東松山市,大字下野本１１６５番地７,,11,212,3550036,,,,,,,2022-01-06,1,,,,,カナメ,0
1080,4030001146158,新規,0,2022-01-06,2022-01-06,株式会社イーシースタッフィング,,株式会社,埼玉県,さいたま市南区,南本町２丁目１番２号,,11,108,3360018,,,,,,,2022-01-06,1,,,,,イーシースタッフィング,0
1081,4030001146182,新規,0,2022-01-06,2022-01-06,株式会社星友工業,,株式会社,埼玉県,川口市,大字木曽呂４２８番地の１３,,11,203,3330831,,,,,,,2022-01-06,1,,,,,セイユウコウギョウ,0
1082,4030001146190,新規,0,2022-01-06,2022-01-06,株式会社ＮＩＮＥ　ＷＯＲＫＳ,,株式会社,埼玉県,所沢市,大字坂之下１００５番地６,,11,208,3590012,,,,,,,2022-01-06,1,,,,,ナインワークス,0
1083,4030001146199,新規,0,2022-01-06,2022-01-06,株式会社Ｋ．Ｍｅｔａｌ,,株式会社,埼玉県,上尾市,今泉１丁目４番地６,,11,219,3620047,,,,,,,2022-01-06,1,,,,,ケーメタル,0
1085,4030003018611,新規,0,2022-01-06,2022-01-06,合同会社モッドソニック,,合同会社,埼玉県,川口市,川口１丁目２番８－７０５号,,11,203,3320015,,,,,,,2022-01-06,1,,,,,モッドソニック,0
1090,4040001121589,新規,0,2022-01-06,2022-01-06,株式会社ＲｏｙａｌＳａｌｏｎ,,株式会社,千葉県,佐倉市,染井野５丁目３１番地５,,12,212,2850831,,,,,,,2022-01-06,1,,,,,ロイヤルサロン,0
1094,4040003019229,新規,0,2022-01-06,2022-01-06,合同会社ＫＨＹマネジメント,,合同会社,千葉県,習志野市,秋津２丁目２番９号,,12,216,2750025,,,,,,,2022-01-06,1,,,,,ケイエイチワイマネジメント,0
1095,4040003019237,新規,0,2022-01-06,2022-01-06,合同会社トラヴァース,,合同会社,千葉県,松戸市,幸谷７４１番地の１６,,12,207,2700017,,,,,,,2022-01-06,1,,,,,トラヴァース,0
1107,4080001024672,新規,0,2022-01-06,2022-01-06,株式会社大高圧送,,株式会社,静岡県,静岡市駿河区,丸子６６７３番地の２６,,22,102,4210103,,,,,,,2022-01-06,1,,,,,オオタカアッソウ,0
1111,4080401025551,新規,0,2022-01-06,2022-01-06,永ノ尾冷設株式会社,,株式会社,静岡県,浜松市東区,市野町１７５８番地の１,,22,132,4350051,,,,,,,2022-01-06,1,,,,,エイノオレイセツ,0
1112,4110001036326,新規,0,2022-01-06,2022-01-06,株式会社ＤＥＲＴＡ,,株式会社,新潟県,新潟市中央区,西堀通２番町７７８番地西堀シャルム２０１号室,,15,103,9518061,,,,,,,2022-01-06,1,,,,,デルタ,0
1119,4120001242807,新規,0,2022-01-06,2022-01-06,株式会社アトレ,,株式会社,大阪府,大阪市淀川区,東三国１丁目５番２３号,,27,123,5320002,,,,,,,2022-01-06,1,,,,,アトレ,0
1120,4120001242848,新規,0,2022-01-06,2022-01-06,株式会社菅田建材,,株式会社,大阪府,門真市,岸和田３丁目４３番２６号,,27,223,5710002,,,,,,,2022-01-06,1,,,,,スガタケンザイ,0
1121,4120001242880,新規,0,2022-01-06,2022-01-06,株式会社ＩＮＹＯＮ　ＧＲＯＵＰ,,株式会社,大阪府,大阪市東住吉区,東田辺３丁目１３番２１号,,27,121,5460032,,,,,,,2022-01-06,1,,,,,イニョングループ,0
1122,4120001242922,新規,0,2022-01-06,2022-01-06,百光株式会社,,株式会社,大阪府,枚方市,藤阪東町２丁目８番３号,,27,210,5730153,,,,,,,2022-01-06,1,,,,,ヒャクコウ,0
1123,4120001242955,新規,0,2022-01-06,2022-01-06,株式会社ｕｍ,,株式会社,大阪府,大阪市都島区,東野田町３丁目６番１１号,,27,102,5340024,,,,,,,2022-01-06,1,,,,,ウム,0
1127,4120003020855,新規,0,2022-01-06,2022-01-06,ＶＩＣＴＯＲ　ＨＵＵ合同会社,,合同会社,大阪府,大阪市西成区,旭１丁目４－１ブラン花園町１０１号,,27,122,5570032,,,,,,,2022-01-06,1,,,,,ビクターフー,0
1129,4120005022676,新規,0,2022-01-06,2022-01-06,シャルマンコーポ中津管理組合法人,,その他の設立登記法人,大阪府,大阪市北区,中津３丁目３番２３号,,27,127,5310071,,,,,,,2022-01-06,1,,,,,シャルマンコーポナカツ,0
1136,4122001035488,新規,0,2022-01-06,2022-01-06,株式会社三東屋商会,,株式会社,大阪府,大東市,泉町１丁目１２番１号,,27,218,5740024,,,,,,,2022-01-06,1,,,,,ミサキヤショウカイ,0
1140,4130001070819,新規,0,2022-01-06,2022-01-06,株式会社ゴコクフロンティアカンパニー,,株式会社,京都府,京都市右京区,嵯峨朝日町１１番地ルミエール嵐山１階２号,,26,108,6168343,,,,,,,2022-01-06,1,,,,,ゴコクフロンティアカンパニー,0
1143,4140001124383,新規,0,2022-01-06,2022-01-06,株式会社ＮＡＦ,,株式会社,兵庫県,三木市,緑が丘町中１丁目１８番地の７,,28,215,6730532,,,,,,,2022-01-06,1,,,,,ナフ,0
1144,4140001124391,新規,0,2022-01-06,2022-01-06,ヨージン株式会社,,株式会社,兵庫県,尼崎市,下坂部２丁目２９番１６号,,28,202,6610975,,,,,,,2022-01-06,1,,,,,ヨージン,0
1145,4140001124400,新規,0,2022-01-06,2022-01-06,株式会社ＡＫＡＲＩ　ＰＡＩＮＴ　ＯＮＥ,,株式会社,兵庫県,姫路市,広畑区西蒲田１５３－５,,28,201,6711107,,,,,,,2022-01-06,1,,,,,アカリペイントワン,0
1146,4140001124409,新規,0,2022-01-06,2022-01-06,株式会社三矢,,株式会社,兵庫県,豊岡市,千代田町７番１１号,,28,209,6680032,,,,,,,2022-01-06,1,,,,,ミヤ,0
1148,4140003017156,新規,0,2022-01-06,2022-01-06,合同会社アドバンス,,合同会社,兵庫県,宝塚市,伊孑志３丁目１８番６号,,28,214,6650033,,,,,,,2022-01-06,1,,,,,アドバンス,0
1149,4140003017180,新規,0,2022-01-06,2022-01-06,合同会社デジタルコレクション,,合同会社,兵庫県,尼崎市,塚口町３丁目３６番地の５,,28,202,6610002,,,,,,,2022-01-06,1,,,,,デジタルコレクション,0
1153,4150001025218,新規,0,2022-01-06,2022-01-06,株式会社Ｂｉｇ　Ｂｉｒｄ,,株式会社,奈良県,大和高田市,日之出東本町２１番２９号,,29,202,6350023,,,,,,,2022-01-06,1,,,,,ビッグバード,0
1154,4160001023906,新規,0,2022-01-06,2022-01-06,株式会社ＫＭＮＴ６,,株式会社,滋賀県,大津市,関津４丁目３番２４号サンクチュアリ３２３別棟,,25,201,5202277,,,,,,,2022-01-06,1,,,,,ケーエムエヌティシックス,0
1160,4180001149344,新規,0,2022-01-06,2022-01-06,株式会社Ｄａｙｓ,,株式会社,愛知県,名古屋市千種区,萱場２丁目４番１１号萱場ビル２階,,23,101,4640086,,,,,,,2022-01-06,1,,,,,デイズ,0
1161,4180001149352,新規,0,2022-01-06,2022-01-06,株式会社ノーヴァンブル,,株式会社,愛知県,名古屋市千種区,橋本町３丁目４５番地Ａ―Ｗｉｎｇ１０４号,,23,101,4640035,,,,,,,2022-01-06,1,,,,,ノーヴァンブル,0
1165,4180005019584,新規,0,2022-01-06,2022-01-06,医療法人くるみ会,,その他の設立登記法人,愛知県,長久手市,下山３番地１,,23,238,4801135,,,,,,,2022-01-06,1,,,,,クルミカイ,0
1166,4180005019592,新規,0,2022-01-06,2022-01-06,司法書士法人丸山洋一郎事務所,,その他の設立登記法人,愛知県,江南市,古知野町日の出１３番地駅前ビル２階,,23,217,4838214,,,,,,,2022-01-06,1,,,,,マルヤマヨウイチロウジムショ,0
1176,4200001039591,新規,0,2022-01-06,2022-01-06,株式会社匠鐵工,,株式会社,岐阜県,関市,武芸川町跡部１７７９番地,,21,205,5012605,,,,,,,2022-01-06,1,,,,,タクミテッコウ,0
1177,4200001039609,新規,0,2022-01-06,2022-01-06,株式会社ＲＹＵ,,株式会社,岐阜県,山県市,高富３６８番地８２,,21,215,5012105,,,,,,,2022-01-06,1,,,,,リュウ,0
1178,4220001024633,新規,0,2022-01-06,2022-01-06,株式会社Ｗｉｄｅプロモーション,,株式会社,石川県,白山市,布市１丁目１４６番地,,17,210,9240808,,,,,,,2022-01-06,1,,,,,ワイドプロモーション,0
1179,4240001059124,新規,0,2022-01-06,2022-01-06,株式会社山本瓦工業,,株式会社,広島県,庄原市,西本町１丁目２０番１７号,,34,210,7270013,,,,,,,2022-01-06,1,,,,,ヤマモトカワラコウギョウ,0
1180,4240001059132,新規,0,2022-01-06,2022-01-06,株式会社トモテ,,株式会社,広島県,広島市中区,上八丁堀４番１号アーバンビューグランドタワー２０３,,34,101,7300012,,,,,,,2022-01-06,1,,,,,トモテ,0
1184,4250001019325,新規,0,2022-01-06,2022-01-06,株式会社Ａｓｓｅｔｓ＆Ｔｏｗｎ　Ｃｒｅａｔｉｏｎ,,株式会社,山口県,下関市,秋根南町２丁目６番２５号,,35,201,7510872,,,,,,,2022-01-06,1,,,,,アセッツアンドタウンクリエイション,0
1185,4250001019333,新規,0,2022-01-06,2022-01-06,株式会社吉祥インテリア,,株式会社,山口県,周南市,大字徳山１５７８番地の３,,35,215,7450851,,,,,,,2022-01-06,1,,,,,キッショウインテリア,0
1187,4260001036360,新規,0,2022-01-06,2022-01-06,株式会社住宅総合研究所,,株式会社,岡山県,岡山市北区,奉還町３丁目８番９号,,33,101,7000026,,,,,,,2022-01-06,1,,,,,ジュウタクソウゴウケンキュウジョ,0
1188,4260001036385,新規,0,2022-01-06,2022-01-06,株式会社Ｇｒａｎ　Ｈａｉｒ　ＴＡＫＥＭＯＴＯ,,株式会社,岡山県,赤磐市,桜が丘西６丁目３番６号,,33,213,7090802,,,,,,,2022-01-06,1,,,,,グランヘアータケモト,0
1197,4280005007455,新規,0,2022-01-06,2022-01-06,税理士法人島根創研パートナーズ,,その他の設立登記法人,島根県,松江市,石橋町３５０番地１,,32,201,6900881,,,,,,,2022-01-06,1,,,,,シマネケンソウケンパートナーズ,0
1202,4290001095940,新規,0,2022-01-06,2022-01-06,株式会社グローバルイースト,,株式会社,福岡県,福岡市東区,千早５丁目１２－９－１０２,,40,131,8130044,,,,,,,2022-01-06,1,,,,,グローバルイースト,0
1203,4290001095957,新規,0,2022-01-06,2022-01-06,東生テクノ株式会社,,株式会社,福岡県,飯塚市,勢田１０３８番地１３,,40,205,8201111,,,,,,,2022-01-06,1,,,,,トウセイテクノ,0
1206,4290003011978,新規,0,2022-01-06,2022-01-06,合同会社ＹＵホールディングス,,合同会社,福岡県,福岡市中央区,高砂２丁目３－１７,,40,133,8100011,,,,,,,2022-01-06,1,,,,,ユーホールディングス,0
1207,4290801028133,新規,0,2022-01-06,2022-01-06,Ｓ・Ｓエージェンシー株式会社,,株式会社,福岡県,北九州市小倉北区,片野３丁目１番２２号,,40,106,8020064,,,,,,,2022-01-06,1,,,,,エスエスエージェンシー,0
1208,4300001012761,新規,0,2022-01-06,2022-01-06,株式会社ワークライフベネフィット,,株式会社,佐賀県,佐賀市,兵庫南４丁目１番２５号なかむらビル兵庫南２Ｆ,,41,201,8490918,,,,,,,2022-01-06,1,,,,,ワークライフベネフィット,0
1210,4310001017660,新規,0,2022-01-06,2022-01-06,株式会社夫津木ガードサービス,,株式会社,長崎県,北松浦郡佐々町,小浦免５５１番地２,,42,391,8570361,,,,,,,2022-01-06,1,,,,,フツキガードサービス,0
1211,4320001018815,新規,0,2022-01-06,2022-01-06,株式会社城野工業,,株式会社,大分県,日田市,大字花月３８３番地１,,44,204,8770000,,,,,,,2022-01-06,1,,,,,ジョウノコウギョウ,0
1212,4320003003690,新規,0,2022-01-06,2022-01-06,ユリーカ合同会社,,合同会社,大分県,大分市,松が丘２丁目１０番５号,,44,201,8701168,,,,,,,2022-01-06,1,,,,,ユリーカ,0
1214,4330001029324,新規,0,2022-01-06,2022-01-06,株式会社慶,,株式会社,熊本県,菊池市,西寺１４１１番地１,,43,210,8611323,,,,,,,2022-01-06,1,,,,,ケイ,0
1215,4330001029332,新規,0,2022-01-06,2022-01-06,株式会社ネクストウッド,,株式会社,熊本県,阿蘇市,波野大字波野４１９４番地８,,43,214,8692806,,,,,,,2022-01-06,1,,,,,ネクストウッド,0
1219,4340001024381,新規,0,2022-01-06,2022-01-06,株式会社Ｔａｂａｔａ　Ｍｉｌｋ　Ｌａｎｄ,,株式会社,鹿児島県,鹿屋市,串良町細山田４９２０番地１１,,46,203,8931601,,,,,,,2022-01-06,1,,,,,タバタミルクランド,0
1220,4340001024398,新規,0,2022-01-06,2022-01-06,株式会社ＳＰＲ,,株式会社,鹿児島県,鹿児島市,山之口町８番２６号細山田ビル１階,,46,201,8920844,,,,,,,2022-01-06,1,,,,,エスピーアール,0
1221,4350001017509,新規,0,2022-01-06,2022-01-06,Ｔ　ＮＥＸＴ株式会社,,株式会社,宮崎県,日向市,大字財光寺往還町３４番地,,45,206,8830024,,,,,,,2022-01-06,1,,,,,ティーネクスト,0
1222,4360001029841,新規,0,2022-01-06,2022-01-06,株式会社双樹,,株式会社,沖縄県,那覇市,字真地２６番６号プランドール真地１０６号,,47,201,9020072,,,,,,,2022-01-06,1,,,,,ソウジュ,0
1227,4370001048023,新規,0,2022-01-06,2022-01-06,株式会社清隆園,,株式会社,宮城県,名取市,愛島北目字二ツ森２１番地,,04,207,9811237,,,,,,,2022-01-06,1,,,,,セイリョウエン,0
1232,4380001032447,新規,0,2022-01-06,2022-01-06,セントラルゲート株式会社,,株式会社,福島県,耶麻郡猪苗代町,大字磐根字高森１２６５番地４８,,07,408,9693286,,,,,,,2022-01-06,1,,,,,セントラルゲート,0
1235,4390001016746,新規,0,2022-01-06,2022-01-06,株式会社Ａｒｑ,,株式会社,山形県,上山市,二日町６番３０号,,06,207,9993143,,,,,,,2022-01-06,1,,,,,アーク,0
1239,4430001085729,新規,0,2022-01-06,2022-01-06,株式会社ネクウィット,,株式会社,北海道,札幌市東区,北十七条東３丁目１番３０－３０３号,,01,103,0650017,,,,,,,2022-01-06,1,,,,,ネクウィット,0
1241,4430003013497,新規,0,2022-01-06,2022-01-06,合同会社ＷＩＬＥ,,合同会社,北海道,札幌市東区,丘珠町７１２番地７７,,01,103,0070880,,,,,,,2022-01-06,1,,,,,ワイル,0
1242,4450001013571,新規,0,2022-01-06,2022-01-06,株式会社及川牧場,,株式会社,北海道,富良野市,字南大沼３６４,,01,229,0760043,,,,,,,2022-01-06,1,,,,,オイカワボクジョウ,0
1243,4460103001416,新規,0,2022-01-06,2022-01-06,合同会社テイエイ,,合同会社,北海道,河東郡鹿追町,鹿追基線７番地３６,,01,634,0810217,,,,,,,2022-01-06,1,,,,,,0
1244,4460301005029,新規,0,2022-01-06,2022-01-06,株式会社北見重量施設工業,,株式会社,北海道,北見市,とん田東町６１７番地１７８,,01,208,0900833,,,,,,,2022-01-06,1,,,,,キタミジュウリョウシセツコウギョウ,0
1245,4460303000746,新規,0,2022-01-06,2022-01-06,合同会社北海道令和システム,,合同会社,北海道,北見市,美芳町１丁目５－３,,01,208,0900064,,,,,,,2022-01-06,1,,,,,ホッカイドウレイワシステム,0
1246,4480001011597,新規,0,2022-01-06,2022-01-06,株式会社ＦＩＮＥ,,株式会社,徳島県,徳島市,西須賀町下中須１５番地１フィールド１西須賀２－２４,,36,201,7708024,,,,,,,2022-01-06,1,,,,,ファイン,0
1247,4480001011606,新規,0,2022-01-06,2022-01-06,Ｔ・Ｓ企画株式会社,,株式会社,徳島県,徳島市,大原町池内山１１番地の７,,36,201,7708012,,,,,,,2022-01-06,1,,,,,ティーエスキカク,0
1249,4490001010078,新規,0,2022-01-06,2022-01-06,株式会社テコプラス,,株式会社,高知県,高知市,はりまや町３丁目６番１７－２０３号,,39,201,7800822,,,,,,,2022-01-06,1,,,,,テコプラス,0
1252,4700150106357,新規,0,2022-01-06,2021-12-21,耕三の会,,その他,兵庫県,芦屋市,松ノ内町１０－１６,,28,206,6590094,,,,,,,2021-12-21,1,,,,,コウゾウノカイ,0
1262,5010001223635,新規,0,2022-01-06,2022-01-06,Ｈｙｐｎｏｓ株式会社,,株式会社,東京都,千代田区,大手町１丁目７－２東京サンケイビル２７階,,13,101,1000004,,,,,,,2022-01-06,1,,,,,ヒュプノス,0
1263,5010001223651,新規,0,2022-01-06,2022-01-06,Ｂａｎｃｈｏ　Ｂｏａｒｄ　Ａｄｖｉｓｏｒｙ株式会社,,株式会社,東京都,千代田区,六番町５番地４,,13,101,1020085,,,,,,,2022-01-06,1,,,,,バンチョウボードアドバイザリ,0
1264,5010001223668,新規,0,2022-01-06,2022-01-06,ＮＩＰＰＯＮ　ＥＸＰＲＥＳＳホールディングス株式会社,,株式会社,東京都,千代田区,神田和泉町２番地,,13,101,1010024,,,,,,,2022-01-06,1,,,,,ニッポンエクスプレスホールディングス,0
1271,5010005034392,新規,0,2022-01-06,2022-01-06,一般社団法人神谷町キャピタル・ツー,,その他の設立登記法人,東京都,千代田区,霞が関３丁目２番５号,,13,101,1000013,,,,,,,2022-01-06,1,,,,,カミヤチョウキャピタルツー,0
1276,5010401164751,新規,0,2022-01-06,2022-01-06,株式会社ＳＴＣ,,株式会社,東京都,港区,南青山２丁目２番１５号,,13,103,1070062,,,,,,,2022-01-06,1,,,,,エスティーシー,0
1277,5010401164768,新規,0,2022-01-06,2022-01-06,株式会社Ｋ２,,株式会社,東京都,港区,愛宕１丁目６－８愛宕小西ビル,,13,103,1050002,,,,,,,2022-01-06,1,,,,,,0
1278,5010401164826,新規,0,2022-01-06,2022-01-06,株式会社広尾ツリー,,株式会社,東京都,港区,南麻布５丁目１５番１９号,,13,103,1060047,,,,,,,2022-01-06,1,,,,,ヒロオツリー,0
1281,5010601060453,新規,0,2022-01-06,2022-01-06,米田株式会社,,株式会社,東京都,江東区,有明４丁目８番６号４Ｆ,,13,108,1350063,,,,,,,2022-01-06,1,,,,,ヨネダ,0
1282,5010603009333,新規,0,2022-01-06,2022-01-06,合同会社プリンセチア,,合同会社,東京都,江東区,東雲１丁目９番４２号,,13,108,1350062,,,,,,,2022-01-06,1,,,,,プリンセチア,0
1284,5010701042005,新規,0,2022-01-06,2022-01-06,株式会社Ｓｏｌａｒｅ　ＴｅＴｅ,,株式会社,東京都,品川区,西五反田１丁目１７－７第１９高橋ビル７階,,13,109,1410031,,,,,,,2022-01-06,1,,,,,ソラーレテテ,0
1285,5010701042013,新規,0,2022-01-06,2022-01-06,株式会社ＫＴ,,株式会社,東京都,品川区,北品川５丁目１８番１５号北品川ホームズ２１５号室,,13,109,1410001,,,,,,,2022-01-06,1,,,,,ケーティー,0
1288,5010803004010,新規,0,2022-01-06,2022-01-06,Ｒｉｂｏｌｌｉｔａ合同会社,,合同会社,東京都,大田区,蒲田５丁目２９番１号エクセルピア蒲田三番館１Ｆ,,13,111,1440052,,,,,,,2022-01-06,1,,,,,リボリータ,0
1290,5010901050088,新規,0,2022-01-06,2022-01-06,株式会社アルカディア,,株式会社,東京都,世田谷区,北沢５丁目１０番７－４号,,13,112,1550031,,,,,,,2022-01-06,1,,,,,アルカディア,0
1291,5010901050105,新規,0,2022-01-06,2022-01-06,株式会社ＡＭＪ,,株式会社,東京都,世田谷区,太子堂２丁目１４番４－１０５号,,13,112,1540004,,,,,,,2022-01-06,1,,,,,エーエムジェイ,0
1310,5011001144854,新規,0,2022-01-06,2022-01-06,株式会社コトイク,,株式会社,東京都,渋谷区,渋谷２丁目１９－１５宮益坂ビルディング６０９,,13,113,1500002,,,,,,,2022-01-06,1,,,,,コトイク,0
1311,5011001144887,新規,0,2022-01-06,2022-01-06,株式会社ｅｎｔｈ　ｐｅｏｐｌｅ,,株式会社,東京都,目黒区,上目黒２丁目３０番１１号ＥＸＡＭ中目黒ＩＩＩ－４０３,00125310,13,110,1530051,,,,,,,2022-01-06,1,,,,,エンスピープル,0
1323,5011103011333,新規,0,2022-01-06,2022-01-06,合同会社アニメ球,,合同会社,東京都,新宿区,西新宿４丁目２１番１６－５０３号,,13,104,1600023,,,,,,,2022-01-06,1,,,,,アニメダマ,0
1324,5011103011341,新規,0,2022-01-06,2022-01-06,合同会社アシスト,,合同会社,東京都,新宿区,西新宿３丁目３番１３号西新宿水間ビル６階,,13,104,1600023,,,,,,,2022-01-06,1,,,,,,0
1325,5011401023939,新規,0,2022-01-06,2022-01-06,越後屋まぐろフーズ株式会社,,株式会社,東京都,板橋区,大和町２３番２号,,13,119,1730012,,,,,,,2022-01-06,1,,,,,エチゴヤマグロフーズ,0
1326,5011403003534,新規,0,2022-01-06,2022-01-06,合同会社なぐ,,合同会社,東京都,板橋区,板橋２丁目６３番４－１１０１号,,13,119,1730004,,,,,,,2022-01-06,1,,,,,ナグ,0
1330,5011501027633,新規,0,2022-01-06,2022-01-06,株式会社ＥＣ－ｄｒｉｖｅ,,株式会社,東京都,北区,志茂１丁目２０番１８－３０３号コスモプレイス赤羽,,13,117,1150042,,,,,,,2022-01-06,1,,,,,イーシードライブ,0
1332,5011503005026,新規,0,2022-01-06,2022-01-06,合同会社富ＥＮＲＩＣＨ,,合同会社,東京都,北区,志茂３丁目４３番１６－１４２５号,,13,117,1150042,,,,,,,2022-01-06,1,,,,,トミエンリッチ,0
1335,5011601025652,新規,0,2022-01-06,2022-01-06,株式会社キースムーン,,株式会社,東京都,練馬区,羽沢２丁目２２番１９号,,13,120,1760003,,,,,,,2022-01-06,1,,,,,キースムーン,0
1342,5011801040138,新規,0,2022-01-06,2022-01-06,株式会社マルイアート,,株式会社,東京都,足立区,舎人５丁目２２番２３号,,13,121,1210831,,,,,,,2022-01-06,1,,,,,マルイアート,0
1343,5011801040146,新規,0,2022-01-06,2022-01-06,イートレード株式会社,,株式会社,東京都,葛飾区,東立石４丁目４５番１３号,,13,122,1240013,,,,,,,2022-01-06,1,,,,,イートレード,0
1346,5011803004909,新規,0,2022-01-06,2022-01-06,合同会社美季,,合同会社,東京都,足立区,六町１丁目１３番１６号,,13,121,1210073,,,,,,,2022-01-06,1,,,,,ミキ,0
1350,5012401038729,新規,0,2022-01-06,2022-01-06,株式会社上原和建築研究所,,株式会社,東京都,小金井市,本町５丁目３７番１４号,,13,210,1840004,,,,,,,2022-01-06,1,,,,,ウエハラカズケンチクケンキュウジョ,0
1351,5012701016863,新規,0,2022-01-06,2022-01-06,株式会社ウィリングプラント,,株式会社,東京都,小平市,花小金井４丁目３４番１４号,,13,211,1870002,,,,,,,2022-01-06,1,,,,,ウィリングプラント,0
1367,5020001144574,新規,0,2022-01-06,2022-01-06,株式会社Ｖｉｓｔａｒｓｏｆｔ　Ｊａｐａｎ,,株式会社,神奈川県,川崎市川崎区,旭町２丁目１５番１５号,,14,131,2100808,,,,,,,2022-01-06,1,,,,,ビスタソフトジャパン,0
1368,5020001144590,新規,0,2022-01-06,2022-01-06,株式会社エウレカ,,株式会社,神奈川県,横浜市鶴見区,菅沢町７番４号,,14,101,2300027,,,,,,,2022-01-06,1,,,,,エウレカ,0
1369,5020001144608,新規,0,2022-01-06,2022-01-06,株式会社ＹＦ　ｃｏｍｐａｎｙ,,株式会社,神奈川県,横浜市青葉区,青葉台２丁目３４番地２Ｓ－ＦＯＲＴ横浜青葉台,,14,117,2270062,,,,,,,2022-01-06,1,,,,,ワイエフカンパニー,0
1370,5020001144616,新規,0,2022-01-06,2022-01-06,久保田工業株式会社,,株式会社,神奈川県,横浜市鶴見区,上末吉４丁目１２番８号,,14,101,2300011,,,,,,,2022-01-06,1,,,,,クボタコウギョウ,0
1373,5020003021037,新規,0,2022-01-06,2022-01-06,ＢＯＮＢＯＮ合同会社,,合同会社,神奈川県,横浜市港南区,下永谷４丁目３－３１,,14,111,2330016,,,,,,,2022-01-06,1,,,,,ボンボン,0
1377,5020005015334,新規,0,2022-01-06,2022-01-06,医療法人社団弘智会,,その他の設立登記法人,神奈川県,川崎市麻生区,万福寺１丁目１番地２シティモール４階,,14,137,2150004,,,,,,,2022-01-06,1,,,,,コウチカイ,0
1382,5021001074852,新規,0,2022-01-06,2022-01-06,株式会社栗原建創,,株式会社,神奈川県,平塚市,達上ケ丘６番地２６,,14,203,2540064,,,,,,,2022-01-06,1,,,,,クリハラケンソウ,0
1383,5021001074877,新規,0,2022-01-06,2022-01-06,株式会社美咲樹,,株式会社,神奈川県,相模原市南区,相南２丁目４番３１号,,14,153,2520312,,,,,,,2022-01-06,1,,,,,ミサキ,0
1386,5021003011242,新規,0,2022-01-06,2022-01-06,合同会社ＳＤＭ,,合同会社,神奈川県,相模原市南区,相模大野２丁目１３番１９号エスコートＤ館１０６,,14,153,2520303,,,,,,,2022-01-06,1,,,,,エスディーエム,0
1387,5021003011267,新規,0,2022-01-06,2022-01-06,ｓｙｍ合同会社,,合同会社,神奈川県,三浦市,南下浦町松輪１７２２番地,,14,210,2380104,,,,,,,2022-01-06,1,,,,,エスワイエム,0
1391,5030001146132,新規,0,2022-01-06,2022-01-06,株式会社Ｄｚｅｌｅ,,株式会社,埼玉県,さいたま市大宮区,堀の内町１丁目５５５番地グランドシティＮ－４１２,,11,103,3300804,,,,,,,2022-01-06,1,,,,,ディーゼル,0
1392,5030001146149,新規,0,2022-01-06,2022-01-06,株式会社Ｋ－ｆａｃｔｏｒｙ,,株式会社,埼玉県,川口市,大字東本郷９２８番地,,11,203,3340063,,,,,,,2022-01-06,1,,,,,ケーファクトリー,0
1393,5030001146173,新規,0,2022-01-06,2022-01-06,株式会社ネクストジェネレーション,,株式会社,埼玉県,久喜市,菖蒲町菖蒲１２３０番地２,,11,232,3460106,,,,,,,2022-01-06,1,,,,,ネクストジェネレーション,0
1394,5030001146181,新規,0,2022-01-06,2022-01-06,株式会社ナナハチＢｏｏｔｈ,,株式会社,埼玉県,熊谷市,大塚２０８番地,,11,202,3600002,,,,,,,2022-01-06,1,,,,,ナナハチブース,0
1395,5030001146231,新規,0,2022-01-06,2022-01-06,株式会社はやて空調,,株式会社,埼玉県,桶川市,大字上日出谷９２４番地の４,,11,231,3630026,,,,,,,2022-01-06,1,,,,,ハヤテクウチョウ,0
1397,5030003018577,新規,0,2022-01-06,2022-01-06,合同会社コマキツールズ,,合同会社,埼玉県,川越市,宮元町５４番地３５,,11,201,3500838,,,,,,,2022-01-06,1,,,,,コマキツールズ,0
1398,5030003018602,新規,0,2022-01-06,2022-01-06,合同会社トラポ,,合同会社,埼玉県,戸田市,大字新曽２３３０番地,,11,224,3350021,,,,,,,2022-01-06,1,,,,,トラポ,0
1399,5030003018610,新規,0,2022-01-06,2022-01-06,ＹＵＫＩスタッフ合同会社,,合同会社,埼玉県,新座市,東北２丁目３３番８－６０５号,,11,230,3520001,,,,,,,2022-01-06,1,,,,,ユキスタッフ,0
1406,5040001121605,新規,0,2022-01-06,2022-01-06,川峰商事株式会社,,株式会社,千葉県,千葉市若葉区,中田町２４７９－９,,12,104,2650043,,,,,,,2022-01-06,1,,,,,センホウショウジ,0
1412,5040003019244,新規,0,2022-01-06,2022-01-06,合同会社ＰＲＩＭＯ,,合同会社,千葉県,松戸市,新松戸６丁目６８番地の１恩田ビル２０２,,12,207,2700034,,,,,,,2022-01-06,1,,,,,プリモ,0
1416,5050001050415,新規,0,2022-01-06,2022-01-06,株式会社ドリームファーム,,株式会社,茨城県,常総市,坂手町４９１２番地,,08,211,3030042,,,,,,,2022-01-06,1,,,,,ドリームファーム,0
1420,5070005009934,新規,0,2022-01-06,2022-01-06,一般社団法人前橋オーバルサーキット,,その他の設立登記法人,群馬県,前橋市,柏倉町２４０８番地,,10,201,3710246,,,,,,,2022-01-06,1,,,,,マエバシオーバルサーキット,0
1425,5080405007413,新規,0,2022-01-06,2022-01-06,一般社団法人日本優良住宅促進会,,その他の設立登記法人,静岡県,浜松市中区,富塚町３８７７番地の３０１,,22,131,4328002,,,,,,,2022-01-06,1,,,,,ニホンユウリョウジュウタクソクシンカイ,0
1431,5110001036325,新規,0,2022-01-06,2022-01-06,株式会社リフォームプレイス,,株式会社,新潟県,上越市,五智６丁目５番７２号,,15,222,9420081,,,,,,,2022-01-06,1,,,,,リフォームプレイス,0
1433,5110005007982,新規,0,2022-01-06,2022-01-06,農事組合法人荒島養蚕組合,,その他の設立登記法人,新潟県,村上市,荒島１１０４番地,,15,212,9593103,,,,,,,2022-01-06,1,,,,,アラシマヨウサンクミアイ,0
1441,5120001242847,新規,0,2022-01-06,2022-01-06,株式会社ｉｍｌｅ,,株式会社,大阪府,大阪市北区,梅田１丁目１番３号大阪駅前第３ビル２３０７,,27,127,5300001,,,,,,,2022-01-06,1,,,,,アミュレ,0
1442,5120001242855,新規,0,2022-01-06,2022-01-06,株式会社ケアネクスト,,株式会社,大阪府,大阪市旭区,赤川２丁目２番２３号,,27,117,5350005,,,,,,,2022-01-06,1,,,,,ケアネクスト,0
1443,5120001242863,新規,0,2022-01-06,2022-01-06,株式会社Ｇｏｏｄ　Ｌａｂ,,株式会社,大阪府,大阪市中央区,高津１丁目９番１０号インテリジェンスビル１Ｆ,,27,128,5420072,,,,,,,2022-01-06,1,,,,,グッドラボ,0
1444,5120001242871,新規,0,2022-01-06,2022-01-06,ＡＢＯＵＴ　ＨＯＭＥ株式会社,,株式会社,大阪府,大阪市中央区,東高麗橋１－３２－３Ｆ,,27,128,5400039,,,,,,,2022-01-06,1,,,,,アバウトホーム,0
1445,5120001242921,新規,0,2022-01-06,2022-01-06,菱光株式会社,,株式会社,大阪府,枚方市,藤阪東町２丁目８番３号,,27,210,5730153,,,,,,,2022-01-06,1,,,,,リョウコウ,0
1446,5120001242987,新規,0,2022-01-06,2022-01-06,株式会社高谷自動車商会,00125330,株式会社,大阪府,大阪市阿倍野区,天王寺町南２丁目１４番６号,,27,119,5450002,,,,,,,2022-01-06,1,,,,,タカタニジドウシャショウカイ,0
1452,5120005022683,新規,0,2022-01-06,2022-01-06,土地家屋調査士法人えびす登記測量事務所,,その他の設立登記法人,大阪府,大阪市中央区,平野町４丁目６番９号,,27,128,5410046,,,,,,,2022-01-06,1,,,,,エビストウキソクリョウジムショ,0
1462,5122001035487,新規,0,2022-01-06,2022-01-06,株式会社Ｓ．Ａ．Ｕ,,株式会社,大阪府,八尾市,跡部本町１丁目４番１６号セイシャルビル１Ｆ,,27,212,5810064,,,,,,,2022-01-06,1,,,,,サウ,0
1465,5130001070826,新規,0,2022-01-06,2022-01-06,ウィルクリエイト株式会社,,株式会社,京都府,宇治市,五ケ庄上村１９番地の２,,26,204,6110011,,,,,,,2022-01-06,1,,,,,ウィルクリエイト,0
1466,5130001070834,新規,0,2022-01-06,2022-01-06,株式会社ＺＫＷ,,株式会社,京都府,宇治市,宇治妙楽３１番地の２,,26,204,6110021,,,,,,,2022-01-06,1,,,,,ゼットケーダブル,0
1467,5130001070850,新規,0,2022-01-06,2022-01-06,株式会社運動器機能医科学インスティチュート,,株式会社,京都府,京都市北区,小山下内河原町４５番地２,,26,101,6038132,,,,,,,2022-01-06,1,,,,,ウンドウキキノウイカガクインスティチュート,0
1468,5130001070859,新規,0,2022-01-06,2022-01-06,株式会社ＤＲ　ｖｅｔｓ,,株式会社,京都府,京都市右京区,太秦森ケ東町３０番地３,,26,108,6168102,,,,,,,2022-01-06,1,,,,,ディーアールベッツ,0
1469,5130001070875,新規,0,2022-01-06,2022-01-06,株式会社ライフデザインプラス,,株式会社,京都府,京都市下京区,東洞院通綾小路下る扇酒屋町２８１－１イーグルコートＤＳ四条烏丸６０２,,26,106,6008095,,,,,,,2022-01-06,1,,,,,ライフデザインプラス,0
1478,5140001124382,新規,0,2022-01-06,2022-01-06,カナガワ総合保険サービス株式会社,,株式会社,兵庫県,姫路市,青山西２丁目２３－９サンハイツ青山２０２号,,28,201,6712224,,,,,,,2022-01-06,1,,,,,カナガワソウゴウホケンサービス,0
1479,5140001124399,新規,0,2022-01-06,2022-01-06,株式会社ＫＭ,,株式会社,兵庫県,高砂市,荒井町御旅１丁目７番２４－１０３号グリーンハイツ,,28,216,6760005,,,,,,,2022-01-06,1,,,,,ケイエム,0
1480,5140001124408,新規,0,2022-01-06,2022-01-06,株式会社コンパーノ,,株式会社,兵庫県,神戸市西区,富士見が丘２丁目１４番地の２,,28,111,6512214,,,,,,,2022-01-06,1,,,,,コンパーノ,0
1481,5140001124440,新規,0,2022-01-06,2022-01-06,株式会社オンシーク,,株式会社,兵庫県,加古郡稲美町,国岡６丁目１５４番地,,28,381,6751115,,,,,,,2022-01-06,1,,,,,オンシーク,0
1484,5140003017155,新規,0,2022-01-06,2022-01-06,合同会社アシスト,,合同会社,兵庫県,神戸市中央区,琴ノ緒町２丁目７番６－４０５号,,28,110,6510094,,,,,,,2022-01-06,1,,,,,アシスト,0
1485,5140005025973,新規,0,2022-01-06,2022-01-06,社会保険労務士法人神戸法務事務所,,その他の設立登記法人,兵庫県,神戸市長田区,大橋町３丁目１番１３号,,28,106,6530037,,,,,,,2022-01-06,1,,,,,コウベホウムジムショ,0
1486,5150003002585,新規,0,2022-01-06,2022-01-06,合同会社ｔｅｒｒａ,,合同会社,奈良県,天理市,勾田町１６５番地,,29,204,6320033,,,,,,,2022-01-06,1,,,,,テラ,0
1487,5160001023913,新規,0,2022-01-06,2022-01-06,株式会社Ｍｅｒｒｙ　Ｃｏｌｌｅｃｔｉｏｎ,,株式会社,滋賀県,彦根市,駅東町８番地１,,25,202,5220010,,,,,,,2022-01-06,1,,,,,メリーコレクション,0
1495,5180001149368,新規,0,2022-01-06,2022-01-06,株式会社武田サービス,,株式会社,愛知県,北名古屋市,六ツ師１０８０番地１１６,,23,234,4810001,,,,,,,2022-01-06,1,,,,,タケダサービス,0
1496,5180001149376,新規,0,2022-01-06,2022-01-06,株式会社アイシュエット,,株式会社,愛知県,春日井市,東野町西１丁目１番地２０,,23,206,4860818,,,,,,,2022-01-06,1,,,,,アイシュエット,0
1497,5180001149384,新規,0,2022-01-06,2022-01-06,株式会社コネクション,,株式会社,愛知県,小牧市,大字小牧原新田４５０番地１,,23,219,4850012,,,,,,,2022-01-06,1,,,,,コネクション,0
1498,5180001149426,新規,0,2022-01-06,2022-01-06,株式会社Ｙ’ｓ,,株式会社,愛知県,名古屋市中村区,名駅４丁目２４番１６号広小路ガーデンアベニュー４Ｆ,,23,105,4500002,,,,,,,2022-01-06,1,,,,,ワイズ,0
1499,5180001149434,新規,0,2022-01-06,2022-01-06,株式会社ＭＧＲリテイリング,,株式会社,愛知県,瀬戸市,苗場町１２５番地の９,,23,204,4890983,,,,,,,2022-01-06,1,,,,,エムジーアールリテイリング,0
1506,5180005019583,新規,0,2022-01-06,2022-01-06,税理士法人日比野会計事務所,,その他の設立登記法人,愛知県,名古屋市名東区,藤が丘１４１番地藤が丘駅前ビル２階,,23,115,4650032,,,,,,,2022-01-06,1,,,,,ヒビノカイケイジムショ,0
1510,5180301035788,新規,0,2022-01-06,2022-01-06,七藤建設株式会社,,株式会社,愛知県,岡崎市,羽根町字若宮２番地８,,23,202,4440813,,,,,,,2022-01-06,1,,,,,シチフジケンセツ,0
1516,5190003003860,新規,0,2022-01-06,2022-01-06,合同会社タップ,,合同会社,三重県,四日市市,下海老町５４８番地１,,24,202,5121203,,,,,,,2022-01-06,1,,,,,タップ,0
1519,5200001039590,新規,0,2022-01-06,2022-01-06,株式会社北原建築,,株式会社,岐阜県,中津川市,付知町７７２９番地２,,21,206,5080351,,,,,,,2022-01-06,1,,,,,キタハラケンチク,0
1520,5200001039608,新規,0,2022-01-06,2022-01-06,株式会社小坂農園,,株式会社,岐阜県,高山市,一之宮町７８７０番地,,21,203,5093505,,,,,,,2022-01-06,1,,,,,コサカノウエン,0
1521,5200001039616,新規,0,2022-01-06,2022-01-06,株式会社イワコウ,,株式会社,岐阜県,海津市,海津町馬目３７５番地２,,21,221,5030652,,,,,,,2022-01-06,1,,,,,イワコウ,0
1525,5220001024616,新規,0,2022-01-06,2022-01-06,株式会社Ｔｏｂｙ’ｓ,,株式会社,石川県,金沢市,神谷内町ハ５５番地神谷内ビル１０５,,17,201,9200801,,,,,,,2022-01-06,1,,,,,トビーズ,0
1526,5220001024624,新規,0,2022-01-06,2022-01-06,８ｄａｙｓ　ｈｏｍｅ株式会社,,株式会社,石川県,金沢市,東力町ニ１７８番地,,17,201,9218016,,,,,,,2022-01-06,1,,,,,エイトデイズホーム,0
1527,5220001024632,新規,0,2022-01-06,2022-01-06,株式会社アレグロ,,株式会社,石川県,金沢市,才田町は５０番地,,17,201,9203101,,,,,,,2022-01-06,1,,,,,アレグロ,0
1530,5240001059123,新規,0,2022-01-06,2022-01-06,株式会社みのり設備,,株式会社,広島県,広島市佐伯区,美の里１丁目１１番１０－２号,,34,108,7315137,,,,,,,2022-01-06,1,,,,,ミノリセツビ,0
1531,5240001059131,新規,0,2022-01-06,2022-01-06,株式会社川本設備,,株式会社,広島県,広島市安佐北区,あさひが丘７丁目２２番２６号,,34,106,7313361,,,,,,,2022-01-06,1,,,,,カワモトセツビ,0
1553,5290003011993,新規,0,2022-01-06,2022-01-06,合同会社リリーブ,,合同会社,福岡県,福岡市西区,石丸３丁目３０番２３号,,40,135,8190025,,,,,,,2022-01-06,1,,,,,リリーブ,0
1554,5290005018509,新規,0,2022-01-06,2022-01-06,医療法人花岡歯科,,その他の設立登記法人,福岡県,宗像市,栄町３番地１,,40,220,8114173,,,,,,,2022-01-06,1,,,,,ハナオカシカ,0
1564,5330001029323,新規,0,2022-01-06,2022-01-06,株式会社共栄商事,,株式会社,熊本県,熊本市中央区,花畑町１番１４－３０１号,,43,101,8600806,,,,,,,2022-01-06,1,,,,,キョウエイショウジ,0
1569,5340001024380,新規,0,2022-01-06,2022-01-06,株式会社小倉工業,,株式会社,鹿児島県,鹿児島市,皇徳寺台５丁目２６番６号,,46,201,8910103,,,,,,,2022-01-06,1,,,,,オグラコウギョウ,0
1573,5350001017508,新規,0,2022-01-06,2022-01-06,株式会社福元洋食店,,株式会社,宮崎県,都城市,広原町４３４３,,45,202,8850036,,,,,,,2022-01-06,1,,,,,フクモトヨウショクテン,0
1576,5360001029832,新規,0,2022-01-06,2022-01-06,株式会社雪音商会,,株式会社,沖縄県,那覇市,首里崎山町４丁目２６番地２,,47,201,9030814,,,,,,,2022-01-06,1,,,,,ユキネショウカイ,0
1577,5360001029849,新規,0,2022-01-06,2022-01-06,秀工業株式会社,,株式会社,沖縄県,沖縄市,照屋５丁目１５番１０号,,47,211,9040011,,,,,,,2022-01-06,1,,,,,ヒデコウギョウ,0
1581,5370001048014,新規,0,2022-01-06,2022-01-06,株式会社グロウアップウィズ,,株式会社,宮城県,石巻市,東中里２丁目５番２－４号,,04,202,9860812,,,,,,,2022-01-06,1,,,,,グロウアップウィズ,0
1586,5380001032446,新規,0,2022-01-06,2022-01-06,株式会社ＳＴ．ＧＲＯＷＡＹＳ,,株式会社,福島県,郡山市,清水台１丁目６番１９号,,07,203,9638005,,,,,,,2022-01-06,1,,,,,エスティーグローウェイズ,0
1587,5390001016745,新規,0,2022-01-06,2022-01-06,株式会社杉山さくらんぼ園,,株式会社,山形県,上山市,小穴１７８番地２,,06,207,9993237,,,,,,,2022-01-06,1,,,,,スギヤマサクランボエン,0
1597,5430001085661,新規,0,2022-01-06,2022-01-06,株式会社オザワ建機サービス,,株式会社,北海道,札幌市中央区,南二十九条西１１丁目５番４６号,,01,101,0640929,,,,,,,2022-01-06,1,,,,,オザワケンキサービス,0
1598,5430005014352,新規,0,2022-01-06,2022-01-06,一般社団法人ｅｒＡ‐ｔｉｏｎＳ．Ｈｏｋｋａｉｄｏ,,その他の設立登記法人,北海道,札幌市南区,澄川五条５丁目１４番７号,,01,106,0050005,,,,,,,2022-01-06,1,,,,,,0
1599,5430005014360,新規,0,2022-01-06,2022-01-06,弁護士法人中山・青木法律事務所,,その他の設立登記法人,北海道,札幌市中央区,大通西１３丁目４番地１０２レジディア大通公園２階,,01,101,0600042,,,,,,,2022-01-06,1,,,,,ナカヤマアオキホウリツジムショ,0
1600,5450001013579,新規,0,2022-01-06,2022-01-06,株式会社ＮＯＲＴＨ,,株式会社,北海道,稚内市,萩見１丁目１２番４号,,01,214,0970016,,,,,,,2022-01-06,1,,,,,ノース,0
1601,5450001013587,新規,0,2022-01-06,2022-01-06,株式会社亜細亜国際貿易,,株式会社,北海道,旭川市,八条通１１丁目２１９番地の３７９,,01,204,0700038,,,,,,,2022-01-06,1,,,,,アジアコクサイボウエキ,0
1603,5460301005028,新規,0,2022-01-06,2022-01-06,株式会社あべべ,,株式会社,北海道,北見市,中央三輪２丁目３１２番地１,,01,208,0900837,,,,,,,2022-01-06,1,,,,,アベベ,0
1604,5480001011605,新規,0,2022-01-06,2022-01-06,株式会社エイトテック,,株式会社,徳島県,小松島市,横須町１０番２５号,,36,203,7730006,,,,,,,2022-01-06,1,,,,,エイトテック,0
1610,5500003002748,新規,0,2022-01-06,2022-01-06,合同会社マハロ,,合同会社,愛媛県,松山市,針田町５９－７,,38,201,7900055,,,,,,,2022-01-06,1,,,,,マハロ,0
1611,5500005008446,新規,0,2022-01-06,2022-01-06,司法書士法人かわばた,,その他の設立登記法人,愛媛県,松山市,辻町１番２７号,,38,201,7900063,,,,,,,2022-01-06,1,,,,,カワバタ,0
1618,6010001223618,新規,0,2022-01-06,2022-01-06,株式会社ホテラバ,,株式会社,東京都,中央区,京橋２丁目２番１号,,13,102,1040031,,,,,,,2022-01-06,1,,,,,ホテラバ,0
1625,6010005034391,新規,0,2022-01-06,2022-01-06,一般社団法人日本フットサルトップリーグ,,その他の設立登記法人,東京都,文京区,本郷３丁目１０番１５号,,13,105,1130033,,,,,,,2022-01-06,1,,,,,ニホンフットサルトップリーグ,0
1630,6010401164726,新規,0,2022-01-06,2022-01-06,株式会社ＴＫＧ,,株式会社,東京都,港区,南青山２丁目２番１５号,,13,103,1070062,,,,,,,2022-01-06,1,,,,,ティーケージー,0
1632,6010403026817,新規,0,2022-01-06,2022-01-06,合同会社中江不動産,,合同会社,東京都,港区,赤坂１丁目１番７―１００６号,,13,103,1070052,,,,,,,2022-01-06,1,,,,,ナカエフドウサン,0
1633,6010403026825,新規,0,2022-01-06,2022-01-06,合同会社美ＢＯＤＹ　ＬＡＢＯ,,合同会社,東京都,港区,南青山２丁目２番１５号,,13,103,1070062,,,,,,,2022-01-06,1,,,,,ビボディラボ,0
1637,6010601060452,新規,0,2022-01-06,2022-01-06,株式会社優海,,株式会社,東京都,江東区,有明４丁目８番６号４Ｆ,,13,108,1350063,,,,,,,2022-01-06,1,,,,,ユウカイ,0
1638,6010603009332,新規,0,2022-01-06,2022-01-06,ＦＤＨ合同会社,,合同会社,東京都,江東区,東砂２丁目５－７,,13,108,1360074,,,,,,,2022-01-06,1,,,,,エフディーエイチ,0
1643,6010901050087,新規,0,2022-01-06,2022-01-06,ＰＭＴ株式会社,,株式会社,東京都,世田谷区,桜新町２丁目２番１１号,,13,112,1540015,,,,,,,2022-01-06,1,,,,,ピーエムティー,0
1644,6010901050104,新規,0,2022-01-06,2022-01-06,株式会社ＴＨＥＢＲＯＷＳ,,株式会社,東京都,世田谷区,岡本１丁目３番５－２０６号,,13,112,1570076,,,,,,,2022-01-06,1,,,,,ザブロウ,0
1645,6010903007052,新規,0,2022-01-06,2022-01-06,メゾン新町合同会社,,合同会社,東京都,世田谷区,新町３丁目１０番１２号,,13,112,1540014,,,,,,,2022-01-06,1,,,,,メゾンシンマチ,0
1646,6010903007060,新規,0,2022-01-06,2022-01-06,合同会社ＣＡＢＡＮＯＮ,,合同会社,東京都,世田谷区,代沢２丁目３６番２３号パルティール楠本１０３,,13,112,1550032,,,,,,,2022-01-06,1,,,,,,0
1665,6011001144837,新規,0,2022-01-06,2022-01-06,株式会社Ｓｎａｔｃｈ　Ｗａｃｋｏ,,株式会社,東京都,渋谷区,神宮前６丁目２３番４号桑野ビル２階,,13,113,1500001,,,,,,,2022-01-06,1,,,,,スナッチワコー,0
1666,6011001144853,新規,0,2022-01-06,2022-01-06,株式会社東京メタバース,,株式会社,東京都,渋谷区,渋谷３丁目１８番５号,,13,113,1500002,,,,,,,2022-01-06,1,,,,,トウキョウメタバース,0
1667,6011001144894,新規,0,2022-01-06,2022-01-06,株式会社バズデザイン,,株式会社,東京都,渋谷区,渋谷２丁目１９番１５号宮益坂ビルディング６０９,,13,113,1500002,,,,,,,2022-01-06,1,,,,,バズデザイン,0
1668,6011001144903,新規,0,2022-01-06,2022-01-06,株式会社ＡＧＲＥＥ,,株式会社,東京都,渋谷区,神宮前６丁目２３番４号桑野ビル２Ｆ,,13,113,1500001,,,,,,,2022-01-06,1,,,,,アグリー,0
1669,6011001144911,新規,0,2022-01-06,2022-01-06,Ｙ．Ａヒルズ株式会社,,株式会社,東京都,渋谷区,松濤１丁目３－１２,,13,113,1500046,,,,,,,2022-01-06,1,,,,,ワイエイヒルズ,0
1685,6011101097282,新規,0,2022-01-06,2022-01-06,株式会社ステアーズ,,株式会社,東京都,新宿区,高田馬場３丁目２３番５－２０３号,,13,104,1690075,,,,,,,2022-01-06,1,,,,,ステアーズ,0
1686,6011101097398,新規,0,2022-01-06,2022-01-06,アーリー・プランニング株式会社,,株式会社,東京都,新宿区,西新宿１丁目２６番２号新宿野村ビル３２階,,13,104,1600023,,,,,,,2022-01-06,1,,,,,アアリイプランニング,0
1687,6011101097415,新規,0,2022-01-06,2022-01-06,株式会社ソーシャルサポートダイアナフーズ,,株式会社,東京都,新宿区,高田馬場１丁目３１番８号,,13,104,1690075,,,,,,,2022-01-06,1,,,,,ソーシャルサポートダイアナフーズ,0
1688,6011101097423,新規,0,2022-01-06,2022-01-06,ユニバーサルケーキ株式会社,,株式会社,東京都,新宿区,西早稲田２丁目２０番３号,,13,104,1690051,,,,,,,2022-01-06,1,,,,,ユニバーサルケーキ,0
1692,6011601025651,新規,0,2022-01-06,2022-01-06,株式会社エムイー商事,,株式会社,東京都,練馬区,旭丘１丁目３２番８号,,13,120,1760005,,,,,,,2022-01-06,1,,,,,エムイーショウジ,0
1695,6011801040129,新規,0,2022-01-06,2022-01-06,株式会社歩設備,,株式会社,東京都,足立区,保塚町９番１２号,,13,121,1210072,,,,,,,2022-01-06,1,,,,,アユムセツビ,0
1697,6012401038694,新規,0,2022-01-06,2022-01-06,株式会社ＨＯＲＡＳ,,株式会社,東京都,小金井市,貫井南町２丁目５番１０号,,13,210,1840014,,,,,,,2022-01-06,1,,,,,ホラス,0
1698,6012401038711,新規,0,2022-01-06,2022-01-06,株式会社ＰＲＯＧＲＥＳＳ,,株式会社,東京都,三鷹市,中原３丁目３番１０号,,13,204,1810005,,,,,,,2022-01-06,1,,,,,プログレス,0
1699,6012401038728,新規,0,2022-01-06,2022-01-06,株式会社ＡＲＴＨＬＥＴＥ,,株式会社,東京都,三鷹市,井の頭１丁目２３－３,,13,204,1810001,,,,,,,2022-01-06,1,,,,,アースリート,0
1700,6012403005180,新規,0,2022-01-06,2022-01-06,合同会社ＨａｔｃｈＢｅｅ,,合同会社,東京都,武蔵野市,吉祥寺北町１丁目１番１号桜井ビル２階,,13,203,1800001,,,,,,,2022-01-06,1,,,,,ハッチビー,0
1701,6012405004684,新規,0,2022-01-06,2022-01-06,一般社団法人ゼロはら,,その他の設立登記法人,東京都,三鷹市,上連雀７丁目３２番３２－３０８号,,13,204,1810012,,,,,,,2022-01-06,1,,,,,ゼロハラ,0
1703,6012701016846,新規,0,2022-01-06,2022-01-06,Ｇ１ＥＸＰＲＥＳＳ株式会社,,株式会社,東京都,東村山市,秋津町１丁目２３番地５０,,13,213,1890001,,,,,,,2022-01-06,1,,,,,ジーワンエクスプレス,0
1719,6020001144499,新規,0,2022-01-06,2022-01-06,株式会社ＹＵＴＡ,,株式会社,神奈川県,横浜市保土ケ谷区,仏向西２０番２号,,14,106,2400046,,,,,,,2022-01-06,1,,,,,ユタ,0
1720,6020001144581,新規,0,2022-01-06,2022-01-06,ａｎｄｍｏｒｅ株式会社,,株式会社,神奈川県,横浜市鶴見区,鶴見中央１丁目１８－２アーリーアメリカン内,,14,101,2300051,,,,,,,2022-01-06,1,,,,,アンドモア,0
1721,6020001144607,新規,0,2022-01-06,2022-01-06,株式会社リブプラス,,株式会社,神奈川県,横浜市神奈川区,栗田谷２１番２３－４０１号,,14,102,2210804,,,,,,,2022-01-06,1,,,,,リブプラス,0
1723,6020003021069,新規,0,2022-01-06,2022-01-06,合同会社アリオン,,合同会社,神奈川県,川崎市多摩区,布田３０－１０,,14,135,2140011,,,,,,,2022-01-06,1,,,,,アリオン,0
1728,6021003011266,新規,0,2022-01-06,2022-01-06,ピンポンケア合同会社,,合同会社,神奈川県,高座郡寒川町,岡田４丁目１番２０号,,14,321,2530105,,,,,,,2022-01-06,1,,,,,ピンポンケア,0
1734,6030001146073,新規,0,2022-01-06,2022-01-06,イシカワ電設株式会社,,株式会社,埼玉県,越谷市,大字北川崎２１０番地１,,11,222,3430006,,,,,,,2022-01-06,1,,,,,イシカワデンセツ,0
1735,6030001146148,新規,0,2022-01-06,2022-01-06,株式会社Ｎ会計,,株式会社,埼玉県,所沢市,小手指南３丁目３５番地の１,,11,208,3591146,,,,,,,2022-01-06,1,,,,,エヌカイケイ,0
1736,6030001146156,新規,0,2022-01-06,2022-01-06,株式会社ＴＯＢＲＯＳ,,株式会社,埼玉県,草加市,谷塚１丁目２番４５－５０２号,,11,221,3400028,,,,,,,2022-01-06,1,,,,,トブロス,0
1737,6030001146230,新規,0,2022-01-06,2022-01-06,株式会社ＴＡＩＨＡＲＵ,,株式会社,埼玉県,深谷市,東方町５丁目１番地８,,11,218,3660042,,,,,,,2022-01-06,1,,,,,タイハル,0
1747,6070001038795,新規,0,2022-01-06,2022-01-06,ＮＯＷ株式会社,,株式会社,群馬県,太田市,原宿町３５１０番地３,,10,205,3730071,,,,,,,2022-01-06,1,,,,,ナウ,0
1748,6080001024670,新規,0,2022-01-06,2022-01-06,株式会社うさこ,,株式会社,静岡県,藤枝市,高洲２２番地の６,,22,214,4260046,,,,,,,2022-01-06,1,,,,,ウサコ,0
1750,6080003002716,新規,0,2022-01-06,2022-01-06,合同会社ｙｕｍｏｔｏ,,合同会社,静岡県,静岡市清水区,巴町７番１６号,,22,103,4240829,,,,,,,2022-01-06,1,,,,,ユモト,0
1752,6080101023011,新規,0,2022-01-06,2022-01-06,ノタメノデザイン株式会社,,株式会社,静岡県,富士市,厚原５５３番地の２エミネンス厚原Ｂ－３０２号,,22,210,4190201,,,,,,,2022-01-06,1,,,,,ノタメノデザイン,0
1755,6090005007456,新規,0,2022-01-06,2022-01-06,医療法人楓林会,,その他の設立登記法人,山梨県,中巨摩郡昭和町,西条４１２９番地,,19,384,4093866,,,,,,,2022-01-06,1,,,,,フウリンカイ,0
1756,6100001034956,新規,0,2022-01-06,2022-01-06,株式会社四季農園,,株式会社,長野県,松本市,梓川梓２４４０番地６,,20,202,3901702,,,,,,,2022-01-06,1,,,,,シキノウエン,0
1757,6100003006350,新規,0,2022-01-06,2022-01-06,合同会社ＳＢＫ　ＲＥＳＯＲＴ,,合同会社,長野県,佐久市,望月２０６５番地１,,20,217,3842202,,,,,,,2022-01-06,1,,,,,エスビーケーリゾート,0
1758,6110001036332,新規,0,2022-01-06,2022-01-06,株式会社ファミーユ,,株式会社,新潟県,新潟市西区,上新栄町４丁目１５番４号５,,15,107,9502076,,,,,,,2022-01-06,1,,,,,ファミーユ,0
1760,6110005016751,新規,0,2022-01-06,2022-01-06,税理士法人中田会計,,その他の設立登記法人,新潟県,新潟市中央区,米山２丁目２番地２,,15,103,9500916,,,,,,,2022-01-06,1,,,,,ナカタカイケイ,0
1775,6120001242846,新規,0,2022-01-06,2022-01-06,一番株式会社,,株式会社,大阪府,大阪市中央区,日本橋２丁目１－２２,,27,128,5420073,,,,,,,2022-01-06,1,,,,,イチバン,0
1776,6120001242854,新規,0,2022-01-06,2022-01-06,Ｓ．Ｈ．Ｉ株式会社,,株式会社,大阪府,大阪市西区,安治川２丁目１番４号,,27,106,5500026,,,,,,,2022-01-06,1,,,,,エスエイチアイ,0
1777,6120001242879,新規,0,2022-01-06,2022-01-06,株式会社ビッグサンドバ,,株式会社,大阪府,枚方市,香里ケ丘１０丁目３４６８－２０,,27,210,5730084,,,,,,,2022-01-06,1,,,,,ビッグサンドバ,0
1778,6120001242904,新規,0,2022-01-06,2022-01-06,株式会社柏原商店,,株式会社,大阪府,大阪市淀川区,木川西２丁目２２番１７号,,27,123,5320013,,,,,,,2022-01-06,1,,,,,カシハラショウテン,0
1779,6120001242937,新規,0,2022-01-06,2022-01-06,株式会社ＳＴＡＢＩＬＩＺＥ．,,株式会社,大阪府,大阪市西区,京町堀２丁目１４番２０号内外うつぼビル４０７,,27,106,5500003,,,,,,,2022-01-06,1,,,,,スタビライズ,0
1780,6120001242953,新規,0,2022-01-06,2022-01-06,株式会社むそう写真事務所,,株式会社,大阪府,大阪市城東区,鴫野西５丁目２番３１号,,27,118,5360014,,,,,,,2022-01-06,1,,,,,ムソウシャシンジムショ,0
1784,6120005022682,新規,0,2022-01-06,2022-01-06,司法書士法人えびす登記事務所,,その他の設立登記法人,大阪府,大阪市中央区,平野町４丁目６番９号,,27,128,5410046,,,,,,,2022-01-06,1,,,,,エビストウキジムショ,0
1790,6120101064876,新規,0,2022-01-06,2022-01-06,株式会社ＮＴ．Ｉｎｃ,,株式会社,大阪府,富田林市,梅の里３丁目１９番１号,,27,214,5840001,,,,,,,2022-01-06,1,,,,,エヌティーインク,0
1793,6120105009497,新規,0,2022-01-06,2022-01-06,一般社団法人アァドバァク,,その他の設立登記法人,大阪府,阪南市,舞１丁目２３番１５号,,27,232,5990224,,,,,,,2022-01-06,1,,,,,アァドバァク,0
1803,6122003002245,新規,0,2022-01-06,2022-01-06,Ｇｌｏｂａｌ　Ｂｒｉｄｇｅ合同会社,,合同会社,大阪府,八尾市,竹渕１丁目２２４番地の２－６０４号,,27,212,5810052,,,,,,,2022-01-06,1,,,,,グローバルブリッジ,0
1807,6130001070841,新規,0,2022-01-06,2022-01-06,株式会社Ｔ．Ｎ．Ｃ,,株式会社,京都府,久世郡久御山町,森大内１７５番地１,,26,322,6130024,,,,,,,2022-01-06,1,,,,,ティーエヌシー,0
1808,6130001070874,新規,0,2022-01-06,2022-01-06,株式会社プランニングディーオーピー,,株式会社,京都府,京都市左京区,一乗寺払殿町４８コーポ吉沢１０２,,26,103,6068184,,,,,,,2022-01-06,1,,,,,プランニングディーオーピー,0
1812,6140001124357,新規,0,2022-01-06,2022-01-06,株式会社ティードリーム,,株式会社,兵庫県,姫路市,青山西４丁目１１番２６号,,28,201,6712224,,,,,,,2022-01-06,1,,,,,ティードリーム,0
1813,6140001124365,新規,0,2022-01-06,2022-01-06,株式会社ファインドバリュー,,株式会社,兵庫県,神戸市中央区,元町通４丁目２番２５－４０２号,,28,110,6500022,,,,,,,2022-01-06,1,,,,,ファインドバリュー,0
1814,6140001124381,新規,0,2022-01-06,2022-01-06,株式会社チャイルドチッパー,,株式会社,兵庫県,神戸市東灘区,青木５丁目６番２５－１号,,28,101,6580027,,,,,,,2022-01-06,1,,,,,チャイルドチッパー,0
1815,6140001124398,新規,0,2022-01-06,2022-01-06,株式会社母とむすめ,,株式会社,兵庫県,加古川市,志方町原８６５番地,,28,210,6750335,,,,,,,2022-01-06,1,,,,,ハハトムスメ,0
1816,6140001124407,新規,0,2022-01-06,2022-01-06,株式会社ビーマウント,,株式会社,兵庫県,川西市,矢問２丁目５番３０号,,28,217,6660131,,,,,,,2022-01-06,1,,,,,ビーマウント,0
1820,6150001025224,新規,0,2022-01-06,2022-01-06,ＨＡＣ株式会社,,株式会社,奈良県,奈良市,左京３丁目６番地アルス高の原５－５０３,,29,201,6310801,,,,,,,2022-01-06,1,,,,,ハック,0
1821,6150003002584,新規,0,2022-01-06,2022-01-06,合同会社Ａｌｉｖｅ,,合同会社,奈良県,橿原市,見瀬町５８６番地の１パークナード橿原岡寺４２０号,,29,205,6340064,,,,,,,2022-01-06,1,,,,,アライブ,0
1823,6160001023912,新規,0,2022-01-06,2022-01-06,株式会社アールズエンジニアリング,,株式会社,滋賀県,草津市,矢倉１丁目７番３９号,,25,206,5250053,,,,,,,2022-01-06,1,,,,,アールズエンジニアリング,0
1824,6160001023920,新規,0,2022-01-06,2022-01-06,株式会社川南農園,,株式会社,滋賀県,東近江市,大中町２６１番地,,25,213,5211244,,,,,,,2022-01-06,1,,,,,カワミナミノウエン,0
1833,6180001149359,新規,0,2022-01-06,2022-01-06,株式会社後藤商会,,株式会社,愛知県,名古屋市中区,栄５丁目３番２２号,,23,106,4600008,,,,,,,2022-01-06,1,,,,,ゴトウショウカイ,0
1834,6180001149367,新規,0,2022-01-06,2022-01-06,株式会社海月,,株式会社,愛知県,名古屋市千種区,内山３丁目６番１４号,,23,101,4640075,,,,,,,2022-01-06,1,,,,,クラゲ,0
1835,6180001149383,新規,0,2022-01-06,2022-01-06,株式会社ＣＲＴ,,株式会社,愛知県,一宮市,寺島町１丁目４番地５,,23,203,4910075,,,,,,,2022-01-06,1,,,,,シーアールティー,0
1836,6180001149400,新規,0,2022-01-06,2022-01-06,株式会社大平総業,,株式会社,愛知県,尾張旭市,平子町長池上６３４９番地２,,23,226,4880872,,,,,,,2022-01-06,1,,,,,オオヒラソウギョウ,0
1839,6180003023347,新規,0,2022-01-06,2022-01-06,合同会社ＭＯＴ,,合同会社,愛知県,東海市,養父町鎌ケ谷１０－３,,23,222,4770034,,,,,,,2022-01-06,1,,,,,エムオーティー,0
1840,6180005019582,新規,0,2022-01-06,2022-01-06,一般社団法人みんなの夢,,その他の設立登記法人,愛知県,名古屋市中区,大須１丁目２２番１７号,,23,106,4600011,,,,,,,2022-01-06,1,,,,,ミンナノユメ,0
1841,6180301035779,新規,0,2022-01-06,2022-01-06,株式会社藤川建設興業,,株式会社,愛知県,碧南市,石橋町３丁目８１番地,,23,209,4470858,,,,,,,2022-01-06,1,,,,,フジカワケンセツコウギョウ,0
1842,6180303005210,新規,0,2022-01-06,2022-01-06,アセットループ合同会社,,合同会社,愛知県,蒲郡市,清田町一沢２番地２,,23,214,4430002,,,,,,,2022-01-06,1,,,,,アセットループ,0
1843,6180305009283,新規,0,2022-01-06,2022-01-06,一般社団法人三好さんさんスポーツクラブ,,その他の設立登記法人,愛知県,みよし市,打越町九蔵釜７４番地,,23,236,4700213,,,,,,,2022-01-06,1,,,,,ミヨシサンサンスポーツクラブ,0
1847,6200001039598,新規,0,2022-01-06,2022-01-06,株式会社宮沢石材,,株式会社,岐阜県,恵那市,岩村町飯羽間２３８０番地１,,21,210,5097401,,,,,,,2022-01-06,1,,,,,ミヤザワセキザイ,0
1848,6200001039615,新規,0,2022-01-06,2022-01-06,株式会社ユタカ測量,,株式会社,岐阜県,揖斐郡揖斐川町,北方２４１８番地１０,,21,401,5010601,,,,,,,2022-01-06,1,,,,,ユタカソクリョウ,0
1849,6210001018741,新規,0,2022-01-06,2022-01-06,株式会社香貴建具,,株式会社,福井県,三方上中郡若狭町,長江第１８号８５番地,,18,501,9191505,,,,,,,2022-01-06,1,,,,,コウキタテグ,0
1851,6220001024623,新規,0,2022-01-06,2022-01-06,株式会社ｇｉｖｅ,,株式会社,石川県,金沢市,神谷内町ハ３７番地４,,17,201,9200801,,,,,,,2022-01-06,1,,,,,ギブ,0
1852,6220001024631,新規,0,2022-01-06,2022-01-06,千田果樹園株式会社,,株式会社,石川県,金沢市,近岡町６０番地１,,17,201,9208217,,,,,,,2022-01-06,1,,,,,センダカジュエン,0
1858,6240001059114,新規,0,2022-01-06,2022-01-06,株式会社イマケン,,株式会社,広島県,山県郡北広島町,後有田７４３番地,,34,369,7311534,,,,,,,2022-01-06,1,,,,,イマケン,0
1859,6240001059122,新規,0,2022-01-06,2022-01-06,株式会社Ｃａｒｒｙ　Ｈａｐｐｉｎｅｓｓ,,株式会社,広島県,広島市南区,東本浦町２３番１０－７０２号,,34,103,7340025,,,,,,,2022-01-06,1,,,,,キャリーハッピネス,0
1860,6240001059130,新規,0,2022-01-06,2022-01-06,優希株式会社,,株式会社,広島県,安芸郡熊野町,出来庭３丁目５番５３号,,34,307,7314221,,,,,,,2022-01-06,1,,,,,ユウキ,0
1861,6240001059139,新規,0,2022-01-06,2022-01-06,株式会社からふるらいふ,,株式会社,広島県,広島市安佐北区,亀山南４丁目３５番１４号,,34,106,7310232,,,,,,,2022-01-06,1,,,,,カラフルライフ,0
1862,6240001059155,新規,0,2022-01-06,2022-01-06,株式会社小林,,株式会社,広島県,広島市安佐南区,大塚東１丁目１２番１８号,,34,105,7313166,,,,,,,2022-01-06,1,,,,,コバヤシ,0
1866,6250001019331,新規,0,2022-01-06,2022-01-06,株式会社アイカギ防犯センターベスト,,株式会社,山口県,下関市,西大坪町３番７号,,35,201,7500054,,,,,,,2022-01-06,1,,,,,アイカギボウハンセンターベスト,0
1869,6260001036367,新規,0,2022-01-06,2022-01-06,株式会社奏榮,,株式会社,岡山県,岡山市南区,宗津２１０番地,,33,104,7091216,,,,,,,2022-01-06,1,,,,,ソウエイ,0
1870,6260001036375,新規,0,2022-01-06,2022-01-06,株式会社藤澤建設,,株式会社,岡山県,岡山市東区,城東台東１丁目８番５号,,33,103,7090622,,,,,,,2022-01-06,1,,,,,フジサワケンセツ,0
1871,6260001036383,新規,0,2022-01-06,2022-01-06,中山建装株式会社,,株式会社,岡山県,赤磐市,桜が丘東３丁目３番地３７０,,33,213,7090721,,,,,,,2022-01-06,1,,,,,ナカヤマケンソウ,0
1872,6270001008423,新規,0,2022-01-06,2022-01-06,株式会社メモリーランド西日本,,株式会社,鳥取県,米子市,両三柳７８３番地３,,31,202,6830853,,,,,,,2022-01-06,1,,,,,メモリーランドニシニホン,0
1877,6280003001565,新規,0,2022-01-06,2022-01-06,合同会社さんぷりん,,合同会社,島根県,松江市,本庄町１２３番地,,32,201,6901101,,,,,,,2022-01-06,1,,,,,サンプリン,0
1883,6290001095856,新規,0,2022-01-06,2022-01-06,株式会社お菓子の欧州,,株式会社,福岡県,福岡市博多区,板付１丁目５番地の１,,40,132,8120888,,,,,,,2022-01-06,1,,,,,,0
1884,6290001095889,新規,0,2022-01-06,2022-01-06,ファームガーデン親睦村株式会社,,株式会社,福岡県,古賀市,青柳字瓜尾１２２８番地,,40,223,8113134,,,,,,,2022-01-06,1,,,,,ファームガーデンシンボクムラ,0
1885,6290001095930,新規,0,2022-01-06,2022-01-06,株式会社清心建設,,株式会社,福岡県,福岡市博多区,吉塚４丁目１６番３１号,,40,132,8120041,,,,,,,2022-01-06,1,,,,,セイシンケンセツ,0
1886,6290001095955,新規,0,2022-01-06,2022-01-06,株式会社八坂堂,,株式会社,福岡県,宗像市,ひかりヶ丘６丁目２番地３６,,40,220,8113403,,,,,,,2022-01-06,1,,,,,ヤサカドウ,0
1889,6290801028131,新規,0,2022-01-06,2022-01-06,株式会社ＢＡＳＳ,,株式会社,福岡県,北九州市小倉南区,上曽根新町１３番２２号,,40,107,8000215,,,,,,,2022-01-06,1,,,,,バス,0
1890,6290803004023,新規,0,2022-01-06,2022-01-06,合同会社ＳＨＩＮＧＵ,,合同会社,福岡県,北九州市小倉南区,徳力６丁目１２番１６号（Ａ２０２）,,40,107,8020974,,,,,,,2022-01-06,1,,,,,シングウ,0
1891,6310001017659,新規,0,2022-01-06,2022-01-06,株式会社ヒラノ,,株式会社,長崎県,長崎市,橋口町２番８号,,42,201,8528114,,,,,,,2022-01-06,1,,,,,ヒラノ,0
1897,6330001029322,新規,0,2022-01-06,2022-01-06,株式会社八代ペットクリニック,,株式会社,熊本県,八代市,上片町１０１９番地２,,43,202,8660813,,,,,,,2022-01-06,1,,,,,ヤツシロペットクリニック,0
1898,6330001029330,新規,0,2022-01-06,2022-01-06,株式会社ニュースペシャル,,株式会社,熊本県,熊本市西区,池田１丁目１５番７３－１３０１号,,43,103,8600082,,,,,,,2022-01-06,1,,,,,ニュースペシャル,0
1901,6340001024396,新規,0,2022-01-06,2022-01-06,株式会社ＨＡＬＯ　ＧＲＯＵＰ,,株式会社,鹿児島県,鹿児島市,山之口町１２番２１号第一アサヒプラザビル４階Ａ号,,46,201,8920844,,,,,,,2022-01-06,1,,,,,ハログループ,0
1907,6360001029831,新規,0,2022-01-06,2022-01-06,ＦＭＫＡ株式会社,,株式会社,沖縄県,宮古島市,平良字久貝１０２７番２,,47,214,9060015,,,,,,,2022-01-06,1,,,,,エフエムケイエイ,0
1912,6380001032461,新規,0,2022-01-06,2022-01-06,株式会社渡辺電気,,株式会社,福島県,本宮市,高木字戸崎６４番地１,,07,214,9691101,,,,,,,2022-01-06,1,,,,,ワタナベデンキ,0
1913,6390001016736,新規,0,2022-01-06,2022-01-06,株式会社サンリバー,,株式会社,山形県,東田川郡三川町,大字横山字袖東１６番地２,,06,426,9971301,,,,,,,2022-01-06,1,,,,,サンリバー,0
1919,6430001085710,新規,0,2022-01-06,2022-01-06,松岡工業株式会社,,株式会社,北海道,石狩市,樽川八条３丁目８０番地,,01,235,0613258,,,,,,,2022-01-06,1,,,,,マツオカコウギョウ,0
1923,6450003002166,新規,0,2022-01-06,2022-01-06,合同会社Ｓａｉ’Ｓ　Ｕｎｉｏｎ,,合同会社,北海道,名寄市,風連町緑町５７番地３５,,01,221,0980516,,,,,,,2022-01-06,1,,,,,サイズユニオン,0
1925,6460101007116,新規,0,2022-01-06,2022-01-06,株式会社にしむら,,株式会社,北海道,帯広市,西十二条南３３丁目２番地２,,01,207,0800022,,,,,,,2022-01-06,1,,,,,ニシムラ,0
1928,6480001011604,新規,0,2022-01-06,2022-01-06,株式会社ＡＮＩＭＡＬ　ＳＴＡＮＤＡＲＤ,,株式会社,徳島県,徳島市,北佐古一番町４－１７,,36,201,7700011,,,,,,,2022-01-06,1,,,,,アニマルスタンダード,0
1933,6500001023902,新規,0,2022-01-06,2022-01-06,株式会社久通工業,,株式会社,愛媛県,新居浜市,船木甲４０４７番地の１２,,38,205,7920856,,,,,,,2022-01-06,1,,,,,ヒサミチコウギョウ,0
1937,6700150106330,新規,0,2022-01-06,2021-12-21,アンサンブル　パストラーレ,,その他,東京都,世田谷区,南烏山５丁目２４－２セレーナ千歳烏山１０２,,13,112,1570062,,,,,,,2021-12-21,1,,,,,アンサンブルパストラーレ,0
1962,7010401164667,新規,0,2022-01-06,2022-01-06,ナリコム株式会社,,株式会社,東京都,港区,赤坂３丁目１４番９号赤坂清水ビル２階,,13,103,1070052,,,,,,,2022-01-06,1,,,,,ナリコム,0
1963,7010401164725,新規,0,2022-01-06,2022-01-06,株式会社ＤＡＹ,,株式会社,東京都,港区,白金６丁目１６番２５－３０９号,,13,103,1080072,,,,,,,2022-01-06,1,,,,,デイ,0
1964,7010401164741,新規,0,2022-01-06,2022-01-06,株式会社瑞中,,株式会社,東京都,港区,芝大門２丁目１番１８号,,13,103,1050012,,,,,,,2022-01-06,1,,,,,ズイチュウ,0
1965,7010401164782,新規,0,2022-01-06,2022-01-06,株式会社Ｙ,,株式会社,東京都,港区,六本木７丁目７－７Ｔｒｉ－ＳｅｖｅｎＲｏｐｐｏｎｇｉ８階,,13,103,1060032,,,,,,,2022-01-06,1,,,,,ワイ,0
1969,7010405020552,新規,0,2022-01-06,2022-01-06,一般社団法人どうぶつ予防医療協会,,その他の設立登記法人,東京都,港区,北青山２丁目１４番４号ｔｈｅ・ＡＲＧＹＬＥ・ａｏｙａｍａ６階,,13,103,1070061,,,,,,,2022-01-06,1,,,,,ドウブツヨボウイリョウキョウカイ,0
1973,7010601060451,新規,0,2022-01-06,2022-01-06,株式会社マルニシ,,株式会社,東京都,江東区,豊洲５丁目６番１０号,,13,108,1350061,,,,,,,2022-01-06,1,,,,,マルニシ,0
1974,7010703006055,新規,0,2022-01-06,2022-01-06,合同会社ＴＨＫ．,,合同会社,東京都,品川区,北品川１丁目１０－９ＴＣビル１Ｆ,,13,109,1400001,,,,,,,2022-01-06,1,,,,,サンクス,0
1976,7010803004009,新規,0,2022-01-06,2022-01-06,ＳＥＩＣＨＯ合同会社,,合同会社,東京都,大田区,蒲田５丁目２１番７号並木ビル１Ｆ,,13,111,1440052,,,,,,,2022-01-06,1,,,,,セイチョウ,0
1977,7010903007043,新規,0,2022-01-06,2022-01-06,合同会社ジーク,,合同会社,東京都,世田谷区,深沢２丁目１番５－５０３号,,13,112,1580081,,,,,,,2022-01-06,1,,,,,ジーク,0
1989,7011001144893,新規,0,2022-01-06,2022-01-06,株式会社ＫＩＳＡＭＩ,,株式会社,東京都,目黒区,目黒２丁目１１番３号,,13,110,1530063,,,,,,,2022-01-06,1,,,,,キサミ,0
1990,7011001144902,新規,0,2022-01-06,2022-01-06,ＢｉｔＢｙｔｅ株式会社,,株式会社,東京都,渋谷区,渋谷２丁目２１番１号渋谷ヒカリエ３３Ｆ,,13,113,1500002,,,,,,,2022-01-06,1,,,,,ビットバイト,0
1991,7011001144910,新規,0,2022-01-06,2022-01-06,ユアトレード株式会社,,株式会社,東京都,渋谷区,桜丘２６番１号セルリアンタワー１５階,,13,113,1500000,,,,,,,2022-01-06,1,,,,,ユアトレード,0
1992,7011001144919,新規,0,2022-01-06,2022-01-06,株式会社Ｂｌｕｅ　Ｒｏｓｅ,,株式会社,東京都,渋谷区,松濤１丁目２８番２号,,13,113,1500046,,,,,,,2022-01-06,1,,,,,ブルーローズ,0
2004,7011101097422,新規,0,2022-01-06,2022-01-06,株式会社ラヴィーニュ,,株式会社,東京都,新宿区,西早稲田２丁目２０番３号,,13,104,1690051,,,,,,,2022-01-06,1,,,,,ラヴィーニュ,0
2006,7011103011331,新規,0,2022-01-06,2022-01-06,ｚバリオン合同会社,,合同会社,東京都,新宿区,北新宿１丁目３４番８号ＥＸＡＭ西新宿４０２,,13,104,1690074,,,,,,,2022-01-06,1,,,,,ジーバリオン,0
2011,7011503005024,新規,0,2022-01-06,2022-01-06,合同会社ｈｉｄｅ　ｐｒｉｖａｔｅ　ｏｆｆｉｃｅ,,合同会社,東京都,北区,志茂３丁目１４番１号カザルス・スクエア６０２号,,13,117,1150042,,,,,,,2022-01-06,1,,,,,ヒデプライベートオフィス,0
2015,7011703003042,新規,0,2022-01-06,2022-01-06,合同会社雀々,,合同会社,東京都,江戸川区,中葛西５丁目１２－２－２０１,,13,123,1340083,,,,,,,2022-01-06,1,,,,,ジャンジャン,0
2016,7011801040136,新規,0,2022-01-06,2022-01-06,株式会社ＳＩＮＱＵＡＩＲ,,株式会社,東京都,足立区,花畑４丁目１８番１７号,,13,121,1210061,,,,,,,2022-01-06,1,,,,,シンクゥエアー,0
2018,7012401038710,新規,0,2022-01-06,2022-01-06,株式会社幸信,,株式会社,東京都,調布市,上石原１丁目２７番地２５,,13,208,1820035,,,,,,,2022-01-06,1,,,,,コウシン,0
2019,7012405004683,新規,0,2022-01-06,2022-01-06,特定非営利活動法人たま咲良の会,,その他の設立登記法人,東京都,多摩市,豊ヶ丘４丁目２番地５－１０９,,13,224,2060031,,,,,,,2022-01-06,1,,,,,タマサクラノカイ,0
2020,7012701016853,新規,0,2022-01-06,2022-01-06,株式会社Ｏ・Ｔ　Ｃｏｏｐ,,株式会社,東京都,小平市,花小金井南町１丁目１０番１９－２号,,13,211,1870003,,,,,,,2022-01-06,1,,,,,オーティーコープ,0
2031,7020001144572,新規,0,2022-01-06,2022-01-06,羽錦商事株式会社,,株式会社,神奈川県,川崎市川崎区,川中島１丁目８番１４号,,14,131,2100803,,,,,,,2022-01-06,1,,,,,ハネニシキショウジ,0
2032,7020001144580,新規,0,2022-01-06,2022-01-06,株式会社阿部工業,,株式会社,神奈川県,川崎市宮前区,初山２丁目２番２９号,,14,136,2160026,,,,,,,2022-01-06,1,,,,,アベコウギョウ,0
2033,7020001144589,新規,0,2022-01-06,2022-01-06,大幸電気株式会社,,株式会社,神奈川県,川崎市中原区,下新城１丁目７番２３号,,14,133,2110042,,,,,,,2022-01-06,1,,,,,ダイコウデンキ,0
2034,7020001144597,新規,0,2022-01-06,2022-01-06,ナカニシエアーサービス株式会社,,株式会社,神奈川県,横浜市緑区,上山２丁目３２番３号インナーコートテラスＢ,,14,113,2260012,,,,,,,2022-01-06,1,,,,,ナカニシエアーサービス,0
2035,7020001144606,新規,0,2022-01-06,2022-01-06,株式会社ＶＡＲＩＯＮ　ＪＡＰＡＮ,,株式会社,神奈川県,横浜市西区,北幸１丁目１番８号エキニア横浜５Ｆハマポート内,,14,103,2200004,,,,,,,2022-01-06,1,,,,,バリオンジャパン,0
2036,7020001144647,新規,0,2022-01-06,2022-01-06,ＴＮＬ　Ｍｅｄｉａ株式会社,,株式会社,神奈川県,横浜市中区,相生町１丁目７番地和同ビル,,14,104,2310012,,,,,,,2022-01-06,1,,,,,ティエヌエルメディア,0
2046,7021001074850,新規,0,2022-01-06,2022-01-06,株式会社ＬＩＨ,,株式会社,神奈川県,三浦市,三崎町六合９２番地１０,,14,210,2380221,,,,,,,2022-01-06,1,,,,,エルアイエイチ,0
2057,7030001146130,新規,0,2022-01-06,2022-01-06,株式会社ＵＰ’ｓ,,株式会社,埼玉県,さいたま市桜区,道場３丁目１２番１５－１号,,11,106,3380835,,,,,,,2022-01-06,1,,,,,アップズ,0
2058,7030001146147,新規,0,2022-01-06,2022-01-06,株式会社虹美装,,株式会社,埼玉県,飯能市,大字永田１２１番地１,,11,209,3570062,,,,,,,2022-01-06,1,,,,,ニジビソウ,0
2059,7030001146196,新規,0,2022-01-06,2022-01-06,株式会社ＤＬシステム海,,株式会社,埼玉県,蓮田市,蓮田３丁目８４番２号マンション勝２０３号,00125323,11,238,3490115,,,,,,,2022-01-06,1,,,,,ディーエルシステムウミ,0
2060,7030001146205,新規,0,2022-01-06,2022-01-06,株式会社ＵＮＧ,,株式会社,埼玉県,入間市,久保稲荷４丁目８番地８,,11,225,3580024,,,,,,,2022-01-06,1,,,,,ユーエヌジー,0
2061,7030001146213,新規,0,2022-01-06,2022-01-06,株式会社グローレンジ,,株式会社,埼玉県,川越市,元町１丁目１番地２３,,11,201,3500062,,,,,,,2022-01-06,1,,,,,グローレンジ,0
2070,7040001121611,新規,0,2022-01-06,2022-01-06,Ｓ・Ｕ・Ｎ株式会社,,株式会社,千葉県,富里市,七栄６４６番地２６５,,12,233,2860221,,,,,,,2022-01-06,1,,,,,エスユーエヌ,0
2071,7040003019234,新規,0,2022-01-06,2022-01-06,合同会社ＫＳＫ,,合同会社,千葉県,千葉市稲毛区,小中台町４１４フローラ稲毛５１１,,12,103,2630044,,,,,,,2022-01-06,1,,,,,ケーエスケー,0
2072,7040003019242,新規,0,2022-01-06,2022-01-06,合同会社ＥＩＣＨＥコロポックル村,,合同会社,千葉県,佐倉市,江原台２丁目４番２６号,,12,212,2850825,,,,,,,2022-01-06,1,,,,,アイヒェコロポックルムラ,0
2073,7050001050413,新規,0,2022-01-06,2022-01-06,アサクラ電気株式会社,,株式会社,茨城県,かすみがうら市,宍倉５７３５－８１オレンジハイツ１０１,,08,230,3000121,,,,,,,2022-01-06,1,,,,,アサクラデンキ,0
2074,7050003006297,新規,0,2022-01-06,2022-01-06,合同会社コギト,,合同会社,茨城県,鹿嶋市,大字大小志崎４７７番地１３,,08,222,3112201,,,,,,,2022-01-06,1,,,,,コギト,0
2075,7060003003913,新規,0,2022-01-06,2022-01-06,ＫＭＹプランニング合同会社,,合同会社,栃木県,真岡市,東郷１４２５,,09,209,3214304,,,,,,,2022-01-06,1,,,,,ケイエムワイプランニング,0
2076,7060005009933,新規,0,2022-01-06,2022-01-06,特定非営利活動法人大谷商工観光協力会,,その他の設立登記法人,栃木県,宇都宮市,大谷町１０９３番地,,09,201,3210345,,,,,,,2022-01-06,1,,,,,オオヤショウコウカンコウキョウリョクカイ,0
2080,7070001038794,新規,0,2022-01-06,2022-01-06,株式会社ＬＩＢＥＲＡＬ　ＬＩＦＥ,,株式会社,群馬県,館林市,松原１丁目１２番４１号,,10,207,3740016,,,,,,,2022-01-06,1,,,,,リベラルライフ,0
2081,7070001038803,新規,0,2022-01-06,2022-01-06,株式会社創真,,株式会社,群馬県,渋川市,北橘町下箱田２３６番地,,10,208,3770061,,,,,,,2022-01-06,1,,,,,ソウシン,0
2082,7070001038811,新規,0,2022-01-06,2022-01-06,株式会社プラウド,,株式会社,群馬県,前橋市,田口町６９４番地２,,10,201,3710048,,,,,,,2022-01-06,1,,,,,プラウド,0
2084,7070003004349,新規,0,2022-01-06,2022-01-06,Ｕファクトリー合同会社,,合同会社,群馬県,伊勢崎市,末広町５９番地５,,10,204,3720057,,,,,,,2022-01-06,1,,,,,ユーファクトリー,0
2085,7080101023010,新規,0,2022-01-06,2022-01-06,湯田株式会社,,株式会社,静岡県,富士市,中央町１丁目１０番９号Ｚａｐｐａビル２階,,22,210,4170052,,,,,,,2022-01-06,1,,,,,ユタ,0
2086,7080101023019,新規,0,2022-01-06,2022-01-06,株式会社季豊,,株式会社,静岡県,富士市,伝法１５６８番地の９,,22,210,4170061,,,,,,,2022-01-06,1,,,,,キホウ,0
2090,7100001034947,新規,0,2022-01-06,2022-01-06,株式会社Ｍ＆Ｐ通商,,株式会社,長野県,千曲市,大字小島３１６３番地,,20,218,3870013,,,,,,,2022-01-06,1,,,,,エムアンドピーツウショウ,0
2091,7110001036331,新規,0,2022-01-06,2022-01-06,株式会社クロスフィーリングス,,株式会社,新潟県,新潟市西区,内野戸中才１５１０－２５,,15,107,9502142,,,,,,,2022-01-06,1,,,,,クロスフィーリングス,0
2093,7110005016750,新規,0,2022-01-06,2022-01-06,税理士法人やまと会計,,その他の設立登記法人,新潟県,新潟市中央区,紫竹１丁目９番９号,,15,103,9500864,,,,,,,2022-01-06,1,,,,,ヤマトカイケイ,0
2100,7120001242812,新規,0,2022-01-06,2022-01-06,株式会社キバコ,,株式会社,大阪府,大阪市生野区,鶴橋４丁目９番５号,,27,116,5440031,,,,,,,2022-01-06,1,,,,,キバコ,0
2101,7120001242837,新規,0,2022-01-06,2022-01-06,株式会社Ｔｒｉｐｌｅ　Ｔｈｒｅｅ,,株式会社,大阪府,大阪市此花区,春日出南２丁目７番３８号,,27,104,5540023,,,,,,,2022-01-06,1,,,,,トリプルスリー,0
2102,7120001242845,新規,0,2022-01-06,2022-01-06,株式会社Ｓｉｒｉｕｓ,,株式会社,大阪府,大阪市平野区,長吉六反３丁目１８番１２号,,27,126,5470012,,,,,,,2022-01-06,1,,,,,シリウス,0
2103,7120001242853,新規,0,2022-01-06,2022-01-06,株式会社Ｎｅｘｔ　Ｄｉａｒｍ,,株式会社,大阪府,大阪市生野区,巽中１丁目２５番１２－３０１号,,27,116,5440013,,,,,,,2022-01-06,1,,,,,ネクストディアーム,0
2104,7120001242861,新規,0,2022-01-06,2022-01-06,株式会社ＷＥＢＥＡＵＴＹ　ＪＡＰＡＮ,,株式会社,大阪府,大阪市中央区,南船場４丁目１３番１１号ミフネ南船場ビル６階,,27,128,5420081,,,,,,,2022-01-06,1,,,,,ウィビューティジャパン,0
2105,7120001242936,新規,0,2022-01-06,2022-01-06,株式会社リーネクスト,,株式会社,大阪府,大阪市生野区,巽北３丁目７番４号古本アパート１Ｆ,00125334,27,116,5440004,,,,,,,2022-01-06,1,,,,,リーネクスト,0
2106,7120001242977,新規,0,2022-01-06,2022-01-06,後山塗装株式会社,,株式会社,大阪府,門真市,四宮３丁目９番２６号,,27,223,5710017,,,,,,,2022-01-06,1,,,,,ウシロヤマトソウ,0
2110,7120003020869,新規,0,2022-01-06,2022-01-06,合同会社ＭＵＲＳ,,合同会社,大阪府,大阪市東成区,深江南３丁目２２番１９号,,27,115,5370002,,,,,,,2022-01-06,1,,,,,マース,0
2111,7120003020893,新規,0,2022-01-06,2022-01-06,スコロジ合同会社,,合同会社,大阪府,大阪市東淀川区,東中島１丁目２０番１９号,,27,114,5330033,,,,,,,2022-01-06,1,,,,,スコロジ,0
2123,7130001070840,新規,0,2022-01-06,2022-01-06,株式会社ジャパンエース,,株式会社,京都府,京都市北区,紫竹下園生町８番地１,,26,101,6038422,,,,,,,2022-01-06,1,,,,,ジャパンエース,0
2126,7130005016352,新規,0,2022-01-06,2022-01-06,医療法人ふくおかクリニック,,その他の設立登記法人,京都府,京都市右京区,太秦北路町１０番地１,,26,108,6168182,,,,,,,2022-01-06,1,,,,,フクオカクリニック,0
2130,7140001124380,新規,0,2022-01-06,2022-01-06,株式会社ＧＯＵＲＭＥＴ,,株式会社,兵庫県,西宮市,神園町１番１８号,,28,204,6620027,,,,,,,2022-01-06,1,,,,,グルメ,0
2131,7140001124389,新規,0,2022-01-06,2022-01-06,株式会社マザーフーズカンパニー,,株式会社,兵庫県,加古川市,加古川町平野４１３番地アムール２０１号,,28,210,6750063,,,,,,,2022-01-06,1,,,,,マザーフーズカンパニー,0
2132,7140001124397,新規,0,2022-01-06,2022-01-06,株式会社珍三,,株式会社,兵庫県,小野市,天神町１１９２－８６,,28,218,6751316,,,,,,,2022-01-06,1,,,,,チンゾウ,0
2133,7150001025223,新規,0,2022-01-06,2022-01-06,株式会社カナア,,株式会社,奈良県,桜井市,大字上之庄４５８番地,,29,206,6330061,,,,,,,2022-01-06,1,,,,,カナア,0
2135,7160001023928,新規,0,2022-01-06,2022-01-06,地球環境保全トラスト株式会社,,株式会社,滋賀県,栗東市,手原１丁目７番１号,,25,208,5203047,,,,,,,2022-01-06,1,,,,,チキュウカンキョウホゼントラスト,0
2139,7180001149341,新規,0,2022-01-06,2022-01-06,株式会社Ｒｅｂｅｌｄｅ,,株式会社,愛知県,小牧市,中央１丁目３７５番地,,23,219,4850029,,,,,,,2022-01-06,1,,,,,リベルディ,0
2140,7180001149358,新規,0,2022-01-06,2022-01-06,中日Ｍ＆Ａ研究所株式会社,,株式会社,愛知県,名古屋市中区,大須１丁目２９番５２号,,23,106,4600011,,,,,,,2022-01-06,1,,,,,チュウニチエムアンドエーケンキュウジョ,0
2141,7180001149374,新規,0,2022-01-06,2022-01-06,株式会社箱屋,,株式会社,愛知県,春日井市,気噴町北１丁目３２番地,,23,206,4870015,,,,,,,2022-01-06,1,,,,,ハコヤ,0
2142,7180001149424,新規,0,2022-01-06,2022-01-06,株式会社雄翔,,株式会社,愛知県,名古屋市北区,西志賀町２丁目３６番地（シャルム３６、３Ｂ号）,,23,103,4620058,,,,,,,2022-01-06,1,,,,,ユウショウ,0
2145,7180005019581,新規,0,2022-01-06,2022-01-06,一般社団法人名古屋演劇鑑賞会,,その他の設立登記法人,愛知県,名古屋市東区,東桜２丁目２３番７号,,23,102,4610005,,,,,,,2022-01-06,1,,,,,ナゴヤエンゲキカンショウカイ,0
2146,7180301035778,新規,0,2022-01-06,2022-01-06,株式会社中根加工,,株式会社,愛知県,碧南市,篭田町３丁目１０８番地,,23,209,4470045,,,,,,,2022-01-06,1,,,,,ナカネカコウ,0
2151,7190005011661,新規,0,2022-01-06,2022-01-06,社会保険労務士法人決断サポート,,その他の設立登記法人,三重県,四日市市,堀木２丁目１番１号,,24,202,5100076,,,,,,,2022-01-06,1,,,,,ケツダンサポート,0
2153,7200001039589,新規,0,2022-01-06,2022-01-06,三輪彫刻株式会社,,株式会社,岐阜県,関市,寿町１丁目１番６号,,21,205,5013908,,,,,,,2022-01-06,1,,,,,ミワチョウコク,0
2154,7200001039597,新規,0,2022-01-06,2022-01-06,株式会社ＷＡＫＩＨＡＲＡ,,株式会社,岐阜県,岐阜市,城田寺５９９番地,,21,201,5020859,,,,,,,2022-01-06,1,,,,,ワキハラ,0
2155,7200001039606,新規,0,2022-01-06,2022-01-06,株式会社Ｓ・Ｐ,,株式会社,岐阜県,中津川市,加子母４５４８番地２,,21,206,5080421,,,,,,,2022-01-06,1,,,,,エステンピー,0
2156,7200001039614,新規,0,2022-01-06,2022-01-06,株式会社仮屋新聞店,,株式会社,岐阜県,多治見市,脇之島町６丁目３０番地の２,,21,204,5070826,,,,,,,2022-01-06,1,,,,,カリヤシンブンテン,0
2157,7200001039622,新規,0,2022-01-06,2022-01-06,株式会社坂テック,,株式会社,岐阜県,各務原市,三井町１丁目７６番地６,,21,213,5040941,,,,,,,2022-01-06,1,,,,,バンテック,0
2158,7220001024622,新規,0,2022-01-06,2022-01-06,法工業株式会社,,株式会社,石川県,小松市,安宅町ワ８番地,,17,203,9230003,,,,,,,2022-01-06,1,,,,,ノリコウギョウ,0
2159,7220003003178,新規,0,2022-01-06,2022-01-06,合同会社古美術桜月,,合同会社,石川県,能美市,佐野町オ３６番地１,,17,211,9231112,,,,,,,2022-01-06,1,,,,,コビジュツオウゲツ,0
2163,7240001059113,新規,0,2022-01-06,2022-01-06,株式会社藤三ホールディングス,,株式会社,広島県,呉市,広本町３丁目１２番２６号,,34,202,7370125,,,,,,,2022-01-06,1,,,,,フジサンホールディングス,0
2167,7240003005429,新規,0,2022-01-06,2022-01-06,合同会社ＬｉｍＴｅｃｈ,,合同会社,広島県,広島市安佐北区,落合南９丁目１１番３８－４号,,34,106,7391732,,,,,,,2022-01-06,1,,,,,リムテック,0
2168,7250001019330,新規,0,2022-01-06,2022-01-06,株式会社ＲｉｖｅｒｐＳ,,株式会社,山口県,周南市,新宿通６丁目２番７号月本ビル３階,,35,215,7450056,,,,,,,2022-01-06,1,,,,,リバープス,0
2170,7260001036366,新規,0,2022-01-06,2022-01-06,株式会社ヘルシーアース,,株式会社,岡山県,岡山市中区,今在家４９０番地４,,33,102,7038208,,,,,,,2022-01-06,1,,,,,ヘルシーアース,0
2171,7260001036382,新規,0,2022-01-06,2022-01-06,ＳＤＫ株式会社,,株式会社,岡山県,岡山市北区,中央町７番１３号アカマツ１５ビル岡山６Ｆ,,33,101,7000836,,,,,,,2022-01-06,1,,,,,エスディーケー,0
2173,7260005011019,新規,0,2022-01-06,2022-01-06,一般社団法人犬島ととと倶楽部,00125333,その他の設立登記法人,岡山県,岡山市東区,犬島２６５番地,,33,103,7048153,,,,,,,2022-01-06,1,,,,,イヌジマトトトクラブ,0
2177,7280003001564,新規,0,2022-01-06,2022-01-06,イズモイズム合同会社,,合同会社,島根県,出雲市,武志町８３９番地１－１０２,,32,203,6930014,,,,,,,2022-01-06,1,,,,,,0
2178,7290001095896,新規,0,2022-01-06,2022-01-06,株式会社ｆａｍ,,株式会社,福岡県,福岡市中央区,大名１丁目１２番２６号ビエント３３６－１０２号,,40,133,8100041,,,,,,,2022-01-06,1,,,,,ファム,0
2180,7290003011991,新規,0,2022-01-06,2022-01-06,合同会社ａｎｔｒａｃｅ,,合同会社,福岡県,糸島市,前原駅南２丁目２２番地３１号,,40,230,8191138,,,,,,,2022-01-06,1,,,,,アントレース,0
2181,7290005018507,新規,0,2022-01-06,2022-01-06,吉水税理士法人,,その他の設立登記法人,福岡県,福岡市中央区,高砂２丁目６番１８号,,40,133,8100011,,,,,,,2022-01-06,1,,,,,ヨシミズ,0
2193,7330003009189,新規,0,2022-01-06,2022-01-06,合同会社Ｍｉｃ　ＣＲＥＡＴＩＲＥ,,合同会社,熊本県,熊本市中央区,米屋町１丁目９番１号,,43,101,8600029,,,,,,,2022-01-06,1,,,,,ミッククリエイティア,0
2195,7340001024379,新規,0,2022-01-06,2022-01-06,株式会社Ａ．ＯＮＥ,,株式会社,鹿児島県,鹿児島市,和田１丁目４４番２３号,,46,201,8910143,,,,,,,2022-01-06,1,,,,,エーワン,0
2196,7340001024395,新規,0,2022-01-06,2022-01-06,株式会社ＺＺＩＯ,,株式会社,鹿児島県,鹿児島市,山之口町１２番２１号第一アサヒプラザビル４階Ａ号,,46,201,8920844,,,,,,,2022-01-06,1,,,,,ジオ,0
2199,7340005009392,新規,0,2022-01-06,2022-01-06,税理士法人下鶴会計,,その他の設立登記法人,鹿児島県,鹿児島市,小松原２丁目１４番２２号,,46,201,8910114,,,,,,,2022-01-06,1,,,,,シモズルカイケイ,0
2203,7350001017506,新規,0,2022-01-06,2022-01-06,株式会社押川設備,,株式会社,宮崎県,延岡市,伊達町１丁目５８５３番地,,45,203,8820874,,,,,,,2022-01-06,1,,,,,オシカワセツビ,0
2204,7350001017514,新規,0,2022-01-06,2022-01-06,ジェイズプラス株式会社,,株式会社,宮崎県,日向市,大字財光寺１２３７,,45,206,8830021,,,,,,,2022-01-06,1,,,,,ジェイズプラス,0
2213,7370001048004,新規,0,2022-01-06,2022-01-06,株式会社アールエフファーム,,株式会社,宮城県,宮城郡利府町,春日字山崎２８番地２,,04,406,9810102,,,,,,,2022-01-06,1,,,,,アールエフファーム,0
2214,7370001048020,新規,0,2022-01-06,2022-01-06,株式会社Ｆｏｏｄ　ａｎｄ　Ｓｐｒｅａｄ　Ｌｉｆｅ,,株式会社,宮城県,加美郡加美町,字南寺宿７番地６,,04,445,9814332,,,,,,,2022-01-06,1,,,,,フードアンドスプレッドライフ,0
2215,7370001048029,新規,0,2022-01-06,2022-01-06,株式会社ＹＣ太白,,株式会社,宮城県,富谷市,ひより台１丁目７番地８,,04,216,9813304,,,,,,,2022-01-06,1,,,,,ワイシータイハク,0
2219,7390001016743,新規,0,2022-01-06,2022-01-06,株式会社モーシェ,,株式会社,山形県,山形市,飯田西４丁目５番３３号ラ・セゾン・クレール１０２,,06,201,9902331,,,,,,,2022-01-06,1,,,,,モーシェ,0
2224,7430001085718,新規,0,2022-01-06,2022-01-06,株式会社加藤組,,株式会社,北海道,札幌市東区,北四十二条東１丁目５番２６号,,01,103,0070842,,,,,,,2022-01-06,1,,,,,カトウグミ,0
2228,7450001013577,新規,0,2022-01-06,2022-01-06,株式会社虹色ファーム,,株式会社,北海道,名寄市,字智恵文十二線南８番地,,01,221,0982181,,,,,,,2022-01-06,1,,,,,ニジイロファーム,0
2229,7450001013585,新規,0,2022-01-06,2022-01-06,株式会社ユナイテッド,,株式会社,北海道,旭川市,永山二条４丁目２番１１号シャンノール２．４　２０３,,01,204,0798412,,,,,,,2022-01-06,1,,,,,ユナイテッド,0
2230,7450003002165,新規,0,2022-01-06,2022-01-06,合同会社河田果樹園,,合同会社,北海道,旭川市,神居町富沢４２３番地の４,,01,204,0708024,,,,,,,2022-01-06,1,,,,,カワタカジュエン,0
2232,7470005006402,新規,0,2022-01-06,2022-01-06,一般社団法人ＬＩＮＫ・ＳＰＯＲＴＳ,,その他の設立登記法人,香川県,三豊市,高瀬町下勝間１０９４番地３,,37,208,7670011,,,,,,,2022-01-06,1,,,,,リンクスポーツ,0
2233,7480001011603,新規,0,2022-01-06,2022-01-06,山下産業株式会社,,株式会社,徳島県,小松島市,和田島町字塚の間１２番地１、１３番地,,36,203,7730025,,,,,,,2022-01-06,1,,,,,ヤマシタサンギョウ,0
2234,7490001010075,新規,0,2022-01-06,2022-01-06,株式会社フクチャンＦＡＲＭ,,株式会社,高知県,安芸郡東洋町,大字河内３６２番地１,,39,301,7817412,,,,,,,2022-01-06,1,,,,,フクチャンファーム,0
2235,7490003001618,新規,0,2022-01-06,2022-01-06,合同会社はる太郎,,合同会社,高知県,高知市,神田２２３０番地１０,,39,201,7808040,,,,,,,2022-01-06,1,,,,,ハルタロウ,0
2236,7490005006813,新規,0,2022-01-06,2022-01-06,医療法人一羽のすずめ会,,その他の設立登記法人,高知県,香美市,土佐山田町１１７番地１３,,39,212,7820047,,,,,,,2022-01-06,1,,,,,イチワノスズメカイ,0
2237,7500001023918,新規,0,2022-01-06,2022-01-06,えひめメディカルケア株式会社,,株式会社,愛媛県,松山市,和泉南５丁目３番１２号,,38,201,7900941,,,,,,,2022-01-06,1,,,,,エヒメメディカルケア,0
2239,7500003002746,新規,0,2022-01-06,2022-01-06,合同会社マネジメントパーク,,合同会社,愛媛県,松山市,美沢１丁目４番２１号,,38,201,7918022,,,,,,,2022-01-06,1,,,,,マネジメントパーク,0
2240,7500005008444,新規,0,2022-01-06,2022-01-06,一般社団法人たてヨコ,,その他の設立登記法人,愛媛県,松山市,千舟町５丁目３－１７－２Ｆ,,38,201,7900011,,,,,,,2022-01-06,1,,,,,タテヨコ,0
2241,7700150105686,新規,0,2022-01-06,2021-11-10,大戸まちづくり協議会,,その他,福島県,会津若松市,大戸町上三寄香塩４７９,,07,202,9695122,,,,,,,2021-11-10,1,,,,,オオトマチヅクリキヨウギカイ,0
2242,7700150106230,新規,0,2022-01-06,2021-12-13,清原中央宮っ子ステーション推進委員会,,その他,栃木県,宇都宮市,道場宿町８４８,,09,201,3213237,,,,,,,2021-12-13,1,,,,,キヨハラチユウオウミヤツコステーシヨンスイシンイインカイ,0
2250,8010003036669,新規,0,2022-01-06,2022-01-06,合同会社セブロ,,合同会社,東京都,中央区,銀座１丁目２２番１１号銀座大竹ビジデンス２階,,13,102,1040061,,,,,,,2022-01-06,1,,,,,セブロ,0
2251,8010003036685,新規,0,2022-01-06,2022-01-06,オープンコネクトラボ合同会社,,合同会社,東京都,千代田区,九段南１丁目５番６号りそな九段ビル５階ＫＳフロア,,13,101,1020074,,,,,,,2022-01-06,1,,,,,オープンコネクトラボ,0
2255,8010101015013,新規,0,2022-01-06,2022-01-06,株式会社ニュースサービス,,株式会社,東京都,八王子市,椚田町３１４番地１,,13,201,1930942,,,,,,,2022-01-06,1,,,,,,0
2260,8010401164740,新規,0,2022-01-06,2022-01-06,ＧＣＪＧ２１株式会社,,株式会社,東京都,港区,元赤坂１丁目１番８号株式会社赤坂国際会計内,,13,103,1070051,,,,,,,2022-01-06,1,,,,,ジーシージェイジートゥエンティーワン,0
2262,8010403026724,新規,0,2022-01-06,2022-01-06,合同会社イノベーションプレジャー,,合同会社,東京都,港区,南青山２丁目２番１５号,,13,103,1070062,,,,,,,2022-01-06,1,,,,,イノベーションプレジャー,0
2263,8010403026856,新規,0,2022-01-06,2022-01-06,つくばみらいファシリティ２合同会社,,合同会社,東京都,港区,六本木１丁目６番１号泉ガーデンタワー,,13,103,1060032,,,,,,,2022-01-06,1,,,,,,0
2266,8010405020576,新規,0,2022-01-06,2022-01-06,つくばみらいファシリティ一般社団法人,,その他の設立登記法人,東京都,港区,六本木１丁目６番１号泉ガーデンタワー,,13,103,1060032,,,,,,,2022-01-06,1,,,,,ツクバミライファシリティ,0
2269,8010601060467,新規,0,2022-01-06,2022-01-06,株式会社七福商会,,株式会社,東京都,江東区,豊洲３丁目３番３号豊洲センタービルあいプラザ,,13,108,1350061,,,,,,,2022-01-06,1,,,,,シチフクショウカイ,0
2270,8010603009330,新規,0,2022-01-06,2022-01-06,合同会社タシヒキ,,合同会社,東京都,墨田区,京島１丁目６－６－１８０６,,13,107,1310046,,,,,,,2022-01-06,1,,,,,タシヒキ,0
2277,8010803004008,新規,0,2022-01-06,2022-01-06,合同会社八鈴,,合同会社,東京都,大田区,東六郷２丁目１２番１２号,,13,111,1440046,,,,,,,2022-01-06,1,,,,,ハチリン,0
2279,8010901050102,新規,0,2022-01-06,2022-01-06,株式会社ＲＩＳＥランドサーベイ,,株式会社,東京都,世田谷区,桜１丁目１０番５号,,13,112,1560053,,,,,,,2022-01-06,1,,,,,ライズランドサーベイ,0
2287,8011001144868,新規,0,2022-01-06,2022-01-06,株式会社雲錦,,株式会社,東京都,渋谷区,代々木１丁目２５番５号,,13,113,1510053,,,,,,,2022-01-06,1,,,,,ウンキン,0
2288,8011001144892,新規,0,2022-01-06,2022-01-06,株式会社ザコンテント,,株式会社,東京都,渋谷区,千駄ヶ谷２丁目２９番５号カーサ千駄ケ谷３０２,,13,113,1510051,,,,,,,2022-01-06,1,,,,,ザコンテント,0
2295,8011101097396,新規,0,2022-01-06,2022-01-06,株式会社インヴェスト,,株式会社,東京都,新宿区,西早稲田１丁目４－２１,,13,104,1690051,,,,,,,2022-01-06,1,,,,,インヴェスト,0
2304,8011301027459,新規,0,2022-01-06,2022-01-06,三森商事株式会社,,株式会社,東京都,杉並区,宮前４丁目１２番２９号,,13,115,1680081,,,,,,,2022-01-06,1,,,,,,0
2308,8011401023936,新規,0,2022-01-06,2022-01-06,株式会社こっこスタイル,,株式会社,東京都,板橋区,南常盤台１丁目２６－２１,,13,119,1740072,,,,,,,2022-01-06,1,,,,,コッコスタイル,0
2309,8011403003531,新規,0,2022-01-06,2022-01-06,合同会社ＳＯＫＵ,,合同会社,東京都,板橋区,南常盤台１丁目１１－６レフア南常盤台１０１号室,,13,119,1740072,,,,,,,2022-01-06,1,,,,,ソク,0
2312,8011501027639,新規,0,2022-01-06,2022-01-06,株式会社ＡＬＬ,,株式会社,東京都,北区,豊島６丁目４番１３号フラッツトシマ１０３,,13,117,1140003,,,,,,,2022-01-06,1,,,,,オール,0
2313,8011503005023,新規,0,2022-01-06,2022-01-06,合同会社彩十,,合同会社,東京都,荒川区,西日暮里２丁目４７番３号アブレスト西日暮里,,13,118,1160013,,,,,,,2022-01-06,1,,,,,サイトウ,0
2315,8011701024956,新規,0,2022-01-06,2022-01-06,株式会社セミーヤ,,株式会社,東京都,江戸川区,上篠崎４丁目６番５号,,13,123,1330054,,,,,,,2022-01-06,1,,,,,セミーヤ,0
2322,8011801040135,新規,0,2022-01-06,2022-01-06,株式会社高橋設備,00125316,株式会社,東京都,足立区,江北１丁目１０番３号,,13,121,1230872,,,,,,,2022-01-06,1,,,,,タカハシセツビ,0
2323,8011801040151,新規,0,2022-01-06,2022-01-06,株式会社Ｐｒｉｍｅｒｏ,,株式会社,東京都,足立区,竹の塚２丁目９番２４－９０１号,,13,121,1210813,,,,,,,2022-01-06,1,,,,,プリメイロ,0
2324,8011803004914,新規,0,2022-01-06,2022-01-06,合同会社Ｎｏ．８７,,合同会社,東京都,足立区,千住東２丁目４番７号１階,,13,121,1200025,,,,,,,2022-01-06,1,,,,,ナンバーハチジュウナナ,0
2326,8012403005170,新規,0,2022-01-06,2022-01-06,合同会社はやとかずや,,合同会社,東京都,武蔵野市,境南町３丁目２－７センチュリー境南４の２０６,,13,203,1800023,,,,,,,2022-01-06,1,,,,,ハヤトカズヤ,0
2327,8012403005179,新規,0,2022-01-06,2022-01-06,合同会社ｂｅ　ｏｆ　ｖａｌｕｅ,,合同会社,東京都,多摩市,永山５丁目２５番地の９,,13,224,2060025,,,,,,,2022-01-06,1,,,,,ビーオブバリュー,0
2329,8012701016852,新規,0,2022-01-06,2022-01-06,株式会社Ｌｉｇｈｔ　ｕｐｐｅｒｓ,,株式会社,東京都,小平市,大沼町７丁目１６番２号,,13,211,1870001,,,,,,,2022-01-06,1,,,,,ライトアッパーズ,0
2330,8012701016860,新規,0,2022-01-06,2022-01-06,株式会社ＱＲＩＰ,,株式会社,東京都,清瀬市,竹丘２丁目２０番４号,,13,221,2040023,,,,,,,2022-01-06,1,,,,,クリップ,0
2332,8012801021315,新規,0,2022-01-06,2022-01-06,株式会社ｏｌｅｌｏ,,株式会社,東京都,国立市,中１丁目１０番地の２,,13,215,1860004,,,,,,,2022-01-06,1,,,,,オレロ,0
2347,8020001144588,新規,0,2022-01-06,2022-01-06,安心興業株式会社,,株式会社,神奈川県,横浜市瀬谷区,下瀬谷３丁目３３番地１０,,14,114,2460035,,,,,,,2022-01-06,1,,,,,アンシンコウギョウ,0
2360,8030001146138,新規,0,2022-01-06,2022-01-06,サニー株式会社,,株式会社,埼玉県,越谷市,神明町３丁目２３７番地１,,11,222,3430805,,,,,,,2022-01-06,1,,,,,サニー,0
2361,8030001146162,新規,0,2022-01-06,2022-01-06,株式会社ＡＩ架設,,株式会社,埼玉県,新座市,大和田１丁目１９番２１号クロワール１０３号室,,11,230,3520004,,,,,,,2022-01-06,1,,,,,エーアイカセツ,0
2362,8030001146187,新規,0,2022-01-06,2022-01-06,ＰＨＤ株式会社,,株式会社,埼玉県,羽生市,南６丁目１１番地５,,11,216,3480053,,,,,,,2022-01-06,1,,,,,ピーエイチディ,0
2364,8030003018574,新規,0,2022-01-06,2022-01-06,合同会社エシカルケア,,合同会社,埼玉県,吉川市,きよみ野２丁目２５番地１０,,11,243,3420058,,,,,,,2022-01-06,1,,,,,エシカルケア,0
2365,8030003018582,新規,0,2022-01-06,2022-01-06,合同会社ＹＭＩＨ,,合同会社,埼玉県,川口市,大字安行領根岸２８０４番地の２－７０３号,,11,203,3330834,,,,,,,2022-01-06,1,,,,,ワイエムアイエイチ,0
2366,8030003018590,新規,0,2022-01-06,2022-01-06,ベック英才学院合同会社,,合同会社,埼玉県,ふじみ野市,苗間１丁目１４－１９,,11,245,3560052,,,,,,,2022-01-06,1,,,,,ベックエイサイガクイン,0
2367,8030003018616,新規,0,2022-01-06,2022-01-06,Ｓ－ｐｏｒｔ　Ｄｅｓｉｇｎ合同会社,,合同会社,埼玉県,さいたま市西区,大字指扇１４７３番地１８,,11,101,3310047,,,,,,,2022-01-06,1,,,,,エスポートデザイン,0
2369,8040001121610,新規,0,2022-01-06,2022-01-06,明豊貿易株式会社,,株式会社,千葉県,八千代市,大和田新田６７３番地２,,12,221,2760046,,,,,,,2022-01-06,1,,,,,メイホウボウエキ,0
2374,8050001050395,新規,0,2022-01-06,2022-01-06,株式会社萩原電気,,株式会社,茨城県,日立市,東金沢町２丁目１５－４,,08,202,3160014,,,,,,,2022-01-06,1,,,,,ハギワラデンキ,0
2376,8050003006296,新規,0,2022-01-06,2022-01-06,合同会社ボンドクローバー,,合同会社,茨城県,水戸市,姫子２丁目３１番地サーパス赤塚駅前５０５号,,08,201,3114151,,,,,,,2022-01-06,1,,,,,ボンドクローバー,0
2378,8060001034439,新規,0,2022-01-06,2022-01-06,株式会社ＴＹテックセンター,,株式会社,栃木県,小山市,城東４丁目５番１号,,09,208,3230807,,,,,,,2022-01-06,1,,,,,ティーワイテックセンター,0
2379,8060001034447,新規,0,2022-01-06,2022-01-06,株式会社ＮＯＳＴ,,株式会社,栃木県,宇都宮市,西川田本町２丁目６番１８号,,09,201,3210158,,,,,,,2022-01-06,1,,,,,ノスト,0
2382,8070001038793,新規,0,2022-01-06,2022-01-06,株式会社樺澤防水,,株式会社,群馬県,北群馬郡榛東村,大字山子田１９９７番地３０,,10,344,3703502,,,,,,,2022-01-06,1,,,,,カバサワボウスイ,0
2386,8080001024677,新規,0,2022-01-06,2022-01-06,株式会社Ｇａｒｂｏ,,株式会社,静岡県,静岡市葵区,駒形通６丁目５番４号１Ｆ,,22,101,4200042,,,,,,,2022-01-06,1,,,,,ガルボ,0
2390,8080401025556,新規,0,2022-01-06,2022-01-06,株式会社木楽家,,株式会社,静岡県,磐田市,豊浜中野４０７番地１,,22,211,4371201,,,,,,,2022-01-06,1,,,,,キラクヤ,0
2393,8100001034954,新規,0,2022-01-06,2022-01-06,株式会社ｔｏｎａＶＥＴ,,株式会社,長野県,長野市,篠ノ井布施高田１３１２番地１,,20,201,3888007,,,,,,,2022-01-06,1,,,,,トナベット,0
2396,8100003006340,新規,0,2022-01-06,2022-01-06,合同会社ＡＴＣ,,合同会社,長野県,南佐久郡川上村,大字秋山５５８番地１,,20,304,3841403,,,,,,,2022-01-06,1,,,,,エーティーシー,0
2398,8110001036339,新規,0,2022-01-06,2022-01-06,株式会社ＯＲＴＡ,,株式会社,新潟県,新潟市中央区,寄居町６９７番地１,,15,103,9518113,,,,,,,2022-01-06,1,,,,,オルタ,0
2412,8120001242869,新規,0,2022-01-06,2022-01-06,日本トップ不動産株式会社,,株式会社,大阪府,大阪市北区,太融寺町２番２１－１１０９号,,27,127,5300051,,,,,,,2022-01-06,1,,,,,ニホントップフドウサン,0
2413,8120001242893,新規,0,2022-01-06,2022-01-06,株式会社ＩＧｃｏｒｐｏｒａｔｉｏｎ,,株式会社,大阪府,枚方市,中宮東之町１１番６号,,27,210,5731195,,,,,,,2022-01-06,1,,,,,アイジーコーポレーション,0
2414,8120001242919,新規,0,2022-01-06,2022-01-06,株式会社ミタイ呉服店,,株式会社,大阪府,大阪市中央区,船場中央２丁目３－６船場センタービル６号館北側Ｂ－１１１,,27,128,5410055,,,,,,,2022-01-06,1,,,,,ミタイゴフクテン,0
2415,8120001242935,新規,0,2022-01-06,2022-01-06,株式会社ＤＨＴ,,株式会社,大阪府,寝屋川市,高宮２丁目２番１２号,,27,215,5720806,,,,,,,2022-01-06,1,,,,,ディーエイチティー,0
2416,8120001242976,新規,0,2022-01-06,2022-01-06,モリクラワークス株式会社,,株式会社,大阪府,大阪市西区,京町堀１丁目１１番７号,,27,106,5500003,,,,,,,2022-01-06,1,,,,,モリクラワークス,0
2417,8120003020851,新規,0,2022-01-06,2022-01-06,リードナイン合同会社,,合同会社,大阪府,大阪市北区,芝田２丁目８－１１共栄ビル３Ｆ,,27,127,5300012,,,,,,,2022-01-06,1,,,,,リードナイン,0
2418,8120003020884,新規,0,2022-01-06,2022-01-06,合同会社Ｓｅｒａ,,合同会社,大阪府,大阪市阿倍野区,昭和町１丁目１５番６号,,27,119,5450011,,,,,,,2022-01-06,1,,,,,セラ,0
2421,8120901045421,新規,0,2022-01-06,2022-01-06,株式会社こころ承継研究所,,株式会社,大阪府,吹田市,出口町３４番Ｃ４－９１７号,,27,205,5640072,,,,,,,2022-01-06,1,,,,,ココロショウケイケンキュウショ,0
2423,8122001035476,新規,0,2022-01-06,2022-01-06,石本電気工事株式会社,,株式会社,大阪府,東大阪市,新家西町５番１７号,,27,227,5770028,,,,,,,2022-01-06,1,,,,,イシモトデンキコウジ,0
2432,8140001124355,新規,0,2022-01-06,2022-01-06,株式会社冨永組,,株式会社,兵庫県,尼崎市,七松町１丁目１１番１１－４０３号,,28,202,6600052,,,,,,,2022-01-06,1,,,,,トミナガグミ,0
2433,8140001124405,新規,0,2022-01-06,2022-01-06,愛和株式会社,,株式会社,兵庫県,神戸市中央区,花隈町３番３４－９０１号,,28,110,6500013,,,,,,,2022-01-06,1,,,,,アイワ,0
2435,8150001025214,新規,0,2022-01-06,2022-01-06,株式会社アーク福祉用具,,株式会社,奈良県,桜井市,朝倉台西５丁目１０９３番地の１８６,,29,206,6330004,,,,,,,2022-01-06,1,,,,,アークフクシヨウグ,0
2436,8150001025222,新規,0,2022-01-06,2022-01-06,株式会社エイト,,株式会社,奈良県,葛城市,兵家１２９番地,,29,211,6392154,,,,,,,2022-01-06,1,,,,,エイト,0
2439,8160001023919,新規,0,2022-01-06,2022-01-06,株式会社ツツミ高圧,,株式会社,滋賀県,草津市,追分３丁目３番１６号,,25,206,5250047,,,,,,,2022-01-06,1,,,,,ツツミコウアツ,0
2450,8180001149407,新規,0,2022-01-06,2022-01-06,大伸プラマー株式会社,,株式会社,愛知県,名古屋市緑区,尾崎山１丁目２１０番地,,23,114,4580024,,,,,,,2022-01-06,1,,,,,ダイシンプラマー,0
2451,8180001149423,新規,0,2022-01-06,2022-01-06,春日井ハート株式会社,,株式会社,愛知県,春日井市,上条町１丁目１６６番地塚田ビル２Ｆ,,23,206,4860833,,,,,,,2022-01-06,1,,,,,カスガイハート,0
2452,8180001149431,新規,0,2022-01-06,2022-01-06,株式会社なごフード,,株式会社,愛知県,名古屋市北区,志賀町４丁目６２番地の１,,23,103,4620037,,,,,,,2022-01-06,1,,,,,ナゴフード,0
2455,8180003023345,新規,0,2022-01-06,2022-01-06,合同会社Ｄ．ｓｉｄｅ,,合同会社,愛知県,小牧市,藤島町出口１９番地１,,23,219,4850066,,,,,,,2022-01-06,1,,,,,ディサイド,0
2456,8180005019589,新規,0,2022-01-06,2022-01-06,朝宮税理士法人,,その他の設立登記法人,愛知県,春日井市,朝宮町２丁目１３番地２３,,23,206,4860846,,,,,,,2022-01-06,1,,,,,アサミヤ,0
2457,8180301035793,新規,0,2022-01-06,2022-01-06,クラサワ商店株式会社,,株式会社,愛知県,豊橋市,西幸町字浜池３３３番地９,,23,201,4418113,,,,,,,2022-01-06,1,,,,,クラサワショウテン,0
2459,8180303005209,新規,0,2022-01-06,2022-01-06,合同会社Ｙ＆Ｋクルー,,合同会社,愛知県,安城市,東端町主木１６番地１,,23,212,4441213,,,,,,,2022-01-06,1,,,,,ワイアンドクルー,0
2463,8190001028989,新規,0,2022-01-06,2022-01-06,株式会社杉本農産,,株式会社,三重県,鈴鹿市,中箕田２丁目４番２７号,,24,207,5130054,,,,,,,2022-01-06,1,,,,,スギモトノウサン,0
2464,8190001028997,新規,0,2022-01-06,2022-01-06,株式会社Ｋ．Ｄ．Ｆａｒｍ,,株式会社,三重県,員弁郡東員町,大字北大社１２５８番地,,24,324,5110257,,,,,,,2022-01-06,1,,,,,ケイディーファーム,0
2467,8200001039605,新規,0,2022-01-06,2022-01-06,株式会社Ｇａｒａｇｅ　ＴＲＵＳＴ,,株式会社,岐阜県,美濃加茂市,加茂野町今泉４１３番地２,,21,211,5050052,,,,,,,2022-01-06,1,,,,,ガレージトラスト,0
2468,8200003005415,新規,0,2022-01-06,2022-01-06,宮崎農園合同会社,00125320,合同会社,岐阜県,羽島郡岐南町,徳田６丁目１５８番地,,21,302,5016016,,,,,,,2022-01-06,1,,,,,ミヤザキノウエン,0
2471,8220001024621,新規,0,2022-01-06,2022-01-06,株式会社オンスカー,,株式会社,石川県,金沢市,久安１丁目４８４番地,,17,201,9218164,,,,,,,2022-01-06,1,,,,,オンスカー,0
2472,8220003003177,新規,0,2022-01-06,2022-01-06,安宅の松合同会社,,合同会社,石川県,小松市,安宅町ヲ２８番地,,17,203,9230003,,,,,,,2022-01-06,1,,,,,アタカノマツ,0
2476,8240001059112,新規,0,2022-01-06,2022-01-06,株式会社銀の汐,,株式会社,広島県,呉市,広末広１丁目３番３号,,34,202,7370133,,,,,,,2022-01-06,1,,,,,ギンノシオ,0
2482,8260001036365,新規,0,2022-01-06,2022-01-06,株式会社ケイトク,,株式会社,岡山県,津山市,北園町４０番地,,33,203,7080003,,,,,,,2022-01-06,1,,,,,ケイトク,0
2483,8260001036373,新規,0,2022-01-06,2022-01-06,株式会社ＫＩＧホールディングス,,株式会社,岡山県,岡山市北区,春日町３番１１号,,33,101,7000905,,,,,,,2022-01-06,1,,,,,ケーアイジーホールディングス,0
2487,8280001008593,新規,0,2022-01-06,2022-01-06,株式会社西元屋,,株式会社,島根県,浜田市,日脚町１１５４番地,,32,202,6971322,,,,,,,2022-01-06,1,,,,,ニシモトヤ,0
2491,8290001095912,新規,0,2022-01-06,2022-01-06,ＭＫソリューション株式会社,,株式会社,福岡県,糟屋郡志免町,別府北４丁目２－１５,,40,343,8112233,,,,,,,2022-01-06,1,,,,,エムケイソリューション,0
2492,8290005018506,新規,0,2022-01-06,2022-01-06,弁護士法人高橋法律事務所,00125315,その他の設立登記法人,福岡県,福岡市中央区,大名１丁目９番３３号ソロン赤坂ビル５階,,40,133,8100041,,,,,,,2022-01-06,1,,,,,タカハシホウリツジムショ,0
2494,8290805009506,新規,0,2022-01-06,2022-01-06,一般社団法人Ｋｉｔａｋｙｕｓｈｕ　Ｄｒｅａｍ　Ｓｕｍｍｉｔ,,その他の設立登記法人,福岡県,北九州市小倉北区,浅野３丁目８番１号アジア太平洋インポートマートビル（ＡＩＭビル）６階,,40,106,8020001,,,,,,,2022-01-06,1,,,,,キタキュウシュウドリームサミット,0
2496,8310001017665,新規,0,2022-01-06,2022-01-06,株式会社椎山組,,株式会社,長崎県,長崎市,三川町６７６番地９,,42,201,8528121,,,,,,,2022-01-06,1,,,,,シイヤマグミ,0
2501,8320003003687,新規,0,2022-01-06,2022-01-06,合同会社千舞,,合同会社,大分県,杵築市,大字杵築６６５番地１０４,,44,210,8730001,,,,,,,2022-01-06,1,,,,,センマイ,0
2504,8330001029312,新規,0,2022-01-06,2022-01-06,英建設株式会社,,株式会社,熊本県,菊池市,泗水町永４４７４番地６,,43,210,8611204,,,,,,,2022-01-06,1,,,,,ハナブサケンセツ,0
2505,8330001029329,新規,0,2022-01-06,2022-01-06,株式会社野尻オート,,株式会社,熊本県,阿蘇市,乙姫２００２番地,,43,214,8692226,,,,,,,2022-01-06,1,,,,,ノジリオート,0
2507,8330003009188,新規,0,2022-01-06,2022-01-06,合同会社ドリームゲート,,合同会社,熊本県,八代市,松江町３４２番地１,,43,202,8660883,,,,,,,2022-01-06,1,,,,,ドリームゲート,0
2510,8340001024394,新規,0,2022-01-06,2022-01-06,株式会社ＪＥＮＥ,,株式会社,鹿児島県,鹿児島市,山之口町１２番２１号第一アサヒプラザビル４階Ａ号,,46,201,8920844,,,,,,,2022-01-06,1,,,,,ジェネ,0
2514,8350001017505,新規,0,2022-01-06,2022-01-06,株式会社日向装工,,株式会社,宮崎県,東臼杵郡門川町,庵川西３丁目４３番地,,45,421,8890605,,,,,,,2022-01-06,1,,,,,ヒュウガソウコウ,0
2516,8360001029838,新規,0,2022-01-06,2022-01-06,株式会社ＰＥＳＣＩОＬＩＮＡ,,株式会社,沖縄県,中頭郡北谷町,字美浜３４番地１レクーオキナワスパアンドリゾートプレミア１Ｆ,,47,326,9040115,,,,,,,2022-01-06,1,,,,,ペッショリーナ,0
2517,8360001029846,新規,0,2022-01-06,2022-01-06,株式会社玉の木,,株式会社,沖縄県,南城市,大里字大城６９４番地,,47,215,9011203,,,,,,,2022-01-06,1,,,,,タマノキ,0
2520,8370001048003,新規,0,2022-01-06,2022-01-06,株式会社Ｄｅｓｉｇｎ　Ｇａｒｄｅｎ,,株式会社,宮城県,仙台市泉区,天神沢１丁目１８番２８号,,04,105,9813105,,,,,,,2022-01-06,1,,,,,デザインガーデン,0
2521,8370001048011,新規,0,2022-01-06,2022-01-06,株式会社黄金丸,,株式会社,宮城県,石巻市,大宮町１番３１号,,04,202,9862132,,,,,,,2022-01-06,1,,,,,コガネマル,0
2524,8390001016742,新規,0,2022-01-06,2022-01-06,株式会社潮彩,,株式会社,山形県,鶴岡市,末広町６番３号ＴＭＫビル１Ｆ,,06,203,9970015,,,,,,,2022-01-06,1,,,,,シオサイ,0
2526,8400001015726,新規,0,2022-01-06,2022-01-06,株式会社アイシーズ,,株式会社,岩手県,花巻市,西大通り１丁目１２番１１号,,03,205,0250091,,,,,,,2022-01-06,1,,,,,アイシーズ,0
2535,8440001009006,新規,0,2022-01-06,2022-01-06,株式会社瞬,,株式会社,北海道,函館市,柏木町１５番４０号,,01,202,0420942,,,,,,,2022-01-06,1,,,,,シュン,0
2538,8450001013576,新規,0,2022-01-06,2022-01-06,Ｐｅｒｓｏｎａｌ・Ａｓｓｅｔ・Мａｎａｇｅｍｅｎｔ株式会社,,株式会社,北海道,旭川市,緑が丘東五条２丁目３番７号,,01,204,0788805,,,,,,,2022-01-06,1,,,,,パーソナルアセットマネジメント,0
2539,8450003002164,新規,0,2022-01-06,2022-01-06,エムオー総業合同会社,,合同会社,北海道,旭川市,緑が丘東一条３丁目１番６号,,01,204,0788801,,,,,,,2022-01-06,1,,,,,エムオーソウギョウ,0
2540,8470001018904,新規,0,2022-01-06,2022-01-06,株式会社ＧＡＬＬＥＲＹ　ＭＡＴＳＵＭＵＲＡ,,株式会社,香川県,善通寺市,文京町１丁目５番２７号,,37,204,7650013,,,,,,,2022-01-06,1,,,,,ギャラリーマツムラ,0
2541,8480001011602,新規,0,2022-01-06,2022-01-06,株式会社森井食肉店,,株式会社,徳島県,小松島市,小松島町字北開１４番地の３,,36,203,7730001,,,,,,,2022-01-06,1,,,,,モリイショクニクテン,0
2543,8490001010074,新規,0,2022-01-06,2022-01-06,株式会社西工務店,,株式会社,高知県,土佐市,市野々１５９６番地,,39,205,7811132,,,,,,,2022-01-06,1,,,,,ニシコウムテン,0
2544,8490003001617,新規,0,2022-01-06,2022-01-06,合同会社カーバンク,,合同会社,高知県,高知市,神田７４番地,,39,201,7808040,,,,,,,2022-01-06,1,,,,,カーバンク,0
2546,8490005006812,新規,0,2022-01-06,2022-01-06,一般社団法人ＥＶＥＲ　ＢＬＵＥ,,その他の設立登記法人,高知県,高知市,春野町甲殿１４２２番地２７,,39,201,7810322,,,,,,,2022-01-06,1,,,,,エバーブルー,0
2548,8500001023909,新規,0,2022-01-06,2022-01-06,株式会社イトウ工業,,株式会社,愛媛県,新居浜市,泉宮町２番３４３号,,38,205,7920021,,,,,,,2022-01-06,1,,,,,イトウコウギョウ,0
2549,8700150104621,新規,0,2022-01-06,2021-09-03,富山市議会日本共産党,,その他,富山県,富山市,新桜町７－３８富山市役所内,,16,201,9300005,,,,,,,2021-09-03,1,,,,,トヤマシギカイニホンキヨウサントウ,0
2550,8700150106394,新規,0,2022-01-06,2021-12-24,燦然ＣＡＭＰ,,その他,東京都,練馬区,石神井台６丁目１７－１６本橋アパート２階,,13,120,1770045,,,,,,,2021-12-24,1,,,,,サンゼンキヤンプ,0
2565,9010001223607,新規,0,2022-01-06,2022-01-06,叡文株式会社,,株式会社,東京都,中央区,日本橋小網町１８番１６－１００１号,,13,102,1030016,,,,,,,2022-01-06,1,,,,,エイブン,0
2571,9010003036676,新規,0,2022-01-06,2022-01-06,合同会社ｌｙ,,合同会社,東京都,中央区,日本橋小網町２番１ー１１０１号,,13,102,1030016,,,,,,,2022-01-06,1,,,,,リイ,0
2572,9010005034389,新規,0,2022-01-06,2022-01-06,一般社団法人バックオフィス生産性改善協会,,その他の設立登記法人,東京都,中央区,京橋２丁目２番１号京橋エドグラン１９階,,13,102,1040031,,,,,,,2022-01-06,1,,,,,バックオフィスセイサンセイカイゼンキョウカイ,0
2578,9010403026822,新規,0,2022-01-06,2022-01-06,合同会社ＢＯＳＥ,,合同会社,東京都,港区,南麻布３丁目８番６－１０２号,,13,103,1060047,,,,,,,2022-01-06,1,,,,,ボーズ,0
2579,9010403026855,新規,0,2022-01-06,2022-01-06,つくばみらいファシリティ１合同会社,,合同会社,東京都,港区,六本木１丁目６番１号泉ガーデンタワー,,13,103,1060032,,,,,,,2022-01-06,1,,,,,ツクバミライファシリティワン,0
2581,9010405020575,新規,0,2022-01-06,2022-01-06,つくばみらいファシリティ特定目的会社,,その他の設立登記法人,東京都,港区,六本木１丁目６番１号泉ガーデンタワー,,13,103,1060032,,,,,,,2022-01-06,1,,,,,ツクバミライファシリティ,0
2585,9010601060466,新規,0,2022-01-06,2022-01-06,株式会社ＲｅｎｏｖａｔｉｏｎＷ,,株式会社,東京都,江東区,北砂６丁目２３番９号,,13,108,1360073,,,,,,,2022-01-06,1,,,,,リノベーションダブル,0
2588,9010701042018,新規,0,2022-01-06,2022-01-06,ＬＤＳグループ株式会社,,株式会社,東京都,品川区,大崎３丁目５番３号,,13,109,1410032,,,,,,,2022-01-06,1,,,,,エルディーエスグループ,0
2589,9010703006053,新規,0,2022-01-06,2022-01-06,合同会社ａｎｔｈｅｓｉｓ,,合同会社,東京都,品川区,大崎３丁目１９番２８号ヒルズ大崎２０７,,13,109,1410032,,,,,,,2022-01-06,1,,,,,アンシスィス,0
2590,9010803004007,新規,0,2022-01-06,2022-01-06,合同会社ＴＳ,,合同会社,東京都,大田区,田園調布２丁目７番２号,,13,111,1450071,,,,,,,2022-01-06,1,,,,,ティーエス,0
2592,9010903007058,新規,0,2022-01-06,2022-01-06,合同会社神鷹,,合同会社,東京都,世田谷区,太子堂４丁目２０番２４号ウィンベックプラザ１Ｆ安曇野,,13,112,1540004,,,,,,,2022-01-06,1,,,,,カミタカ,0
2603,9011001144710,新規,0,2022-01-06,2022-01-06,ジーグリット株式会社,,株式会社,東京都,渋谷区,渋谷２丁目１１番２号白石第五ビル３Ｆ,,13,113,1500002,,,,,,,2022-01-06,1,,,,,ジーグリット,0
2604,9011001144850,新規,0,2022-01-06,2022-01-06,株式会社ＯＭＥＲ,,株式会社,東京都,渋谷区,道玄坂１丁目１０番８号渋谷道玄坂東急ビル２Ｆ－Ｃ,,13,113,1500043,,,,,,,2022-01-06,1,,,,,オメル,0
2605,9011001144917,新規,0,2022-01-06,2022-01-06,株式会社ケモノミチ,,株式会社,東京都,渋谷区,渋谷２丁目１９番１５－６０９号宮益坂ビルディング,,13,113,1500002,,,,,,,2022-01-06,1,,,,,ケモノミチ,0
2609,9011003013946,新規,0,2022-01-06,2022-01-06,Ｅｖｅｒｇｌｏｗ合同会社,,合同会社,東京都,渋谷区,渋谷２丁目１９番１５号宮益坂ビルディング６０９,,13,113,1500002,,,,,,,2022-01-06,1,,,,,エバーグロー,0
2612,9011101097370,新規,0,2022-01-06,2022-01-06,株式会社Ａｉｌｅ,,株式会社,東京都,新宿区,西早稲田２丁目４－２３グランベル西早稲田プレシャス１００１,,13,104,1690051,,,,,,,2022-01-06,1,,,,,エール,0
2613,9011101097437,新規,0,2022-01-06,2022-01-06,株式会社ストロングエッジ,,株式会社,東京都,新宿区,西新宿１丁目２６番２号新宿野村ビル３２階,,13,104,1600023,,,,,,,2022-01-06,1,,,,,ストロングエッジ,0
2614,9011103011321,新規,0,2022-01-06,2022-01-06,合同会社レキップ,,合同会社,東京都,新宿区,神楽坂６丁目２２番地奥神楽坂ビルＢ１Ｆ,,13,104,1620825,,,,,,,2022-01-06,1,,,,,レキップ,0
2623,9011503005022,新規,0,2022-01-06,2022-01-06,合同会社ｓｔａｓｅｒａ,,合同会社,東京都,北区,田端新町１丁目１１－２－３０１号室,,13,117,1140012,,,,,,,2022-01-06,1,,,,,スタセラ,0
2625,9011803004913,新規,0,2022-01-06,2022-01-06,合同会社雅,,合同会社,東京都,葛飾区,西新小岩１丁目３番２号,,13,122,1240025,,,,,,,2022-01-06,1,,,,,ミヤビ,0
2626,9012401038709,新規,0,2022-01-06,2022-01-06,株式会社捷,,株式会社,東京都,狛江市,西野川１丁目６番６号,,13,219,2010001,,,,,,,2022-01-06,1,,,,,ショウ,0
2627,9012401038725,新規,0,2022-01-06,2022-01-06,株式会社三鷹販売,,株式会社,東京都,三鷹市,下連雀３丁目４番４１号,,13,204,1810013,,,,,,,2022-01-06,1,,,,,ミタカハンバイ,0
2632,9012701016851,新規,0,2022-01-06,2022-01-06,リバディジャパン株式会社,,株式会社,東京都,小平市,天神町２丁目３番３２－２０１号,,13,211,1870004,,,,,,,2022-01-06,1,,,,,リバディジャパン,0
2639,9013303005978,新規,0,2022-01-06,2022-01-06,ＫＩＴＡＮＡＫＡ合同会社,,合同会社,東京都,豊島区,駒込６丁目３３番１２号アーバンプレイス駒込ＩＩＩ２０５号,00125313,13,116,1700003,,,,,,,2022-01-06,1,,,,,キタナカ,0
2642,9020001144570,新規,0,2022-01-06,2022-01-06,ＡＺ損保設立準備株式会社,,株式会社,神奈川県,横浜市戸塚区,影取町１６２番地１,,14,110,2450064,,,,,,,2022-01-06,1,,,,,エイゼットソンポセツリツジュンビ,0
2643,9020001144579,新規,0,2022-01-06,2022-01-06,株式会社ＦＬＡＴ,,株式会社,神奈川県,横浜市保土ケ谷区,西久保町１番地４西久保町公園ハイツ１号棟１２６号室,,14,106,2400022,,,,,,,2022-01-06,1,,,,,フラット,0
2644,9020001144629,新規,0,2022-01-06,2022-01-06,株式会社ミガク企画,,株式会社,神奈川県,横浜市瀬谷区,卸本町９２７９番地５４,,14,114,2460001,,,,,,,2022-01-06,1,,,,,ミガクキカク,0
2645,9020001144637,新規,0,2022-01-06,2022-01-06,フルイドデザイン株式会社,,株式会社,神奈川県,横浜市港北区,大倉山３丁目６３－７－２Ｈａｎａ１０２,,14,109,2220037,,,,,,,2022-01-06,1,,,,,フルイドデザイン,0
2648,9020003021041,新規,0,2022-01-06,2022-01-06,合同会社あしながじぇんとるん,,合同会社,神奈川県,横浜市港北区,富士塚２丁目２３番２７号,,14,109,2220012,,,,,,,2022-01-06,1,,,,,アシナガジェントルン,0
2649,9020003021058,新規,0,2022-01-06,2022-01-06,けんちくん合同会社,,合同会社,神奈川県,横浜市旭区,三反田町１９３番地１５,,14,112,2410013,,,,,,,2022-01-06,1,,,,,ケンチクン,0
2654,9021001074849,新規,0,2022-01-06,2022-01-06,株式会社Ｔｏｔａｌ　Ｅｘｔｅｒｉｏｒ,,株式会社,神奈川県,茅ヶ崎市,下寺尾１５７８番地１,,14,207,2530081,,,,,,,2022-01-06,1,,,,,トータルエクステリア,0
2655,9021001074857,新規,0,2022-01-06,2022-01-06,株式会社ＤＡＮＺＥＮ,,株式会社,神奈川県,相模原市緑区,相原２丁目１２番１９号スカイコート３０２号,,14,151,2520141,,,,,,,2022-01-06,1,,,,,ダンゼン,0
2660,9030001146137,新規,0,2022-01-06,2022-01-06,株式会社ＳＭＡＲＴ　ＬＩＦＥ,,株式会社,埼玉県,川口市,戸塚２丁目２５番３１－６０２号,,11,203,3330811,,,,,,,2022-01-06,1,,,,,スマートライフ,0
2661,9030001146145,新規,0,2022-01-06,2022-01-06,ハツソク株式会社,,株式会社,埼玉県,川口市,並木元町１番６７－１３０７号,,11,203,3320033,,,,,,,2022-01-06,1,,,,,ハツソク,0
2662,9030001146153,新規,0,2022-01-06,2022-01-06,株式会社Ｅｎｃｏｕｎｔｅｒ　ａｎｄ　Ｄｉｖｅｒｓｉｔｙ,,株式会社,埼玉県,ふじみ野市,北野１丁目８番６号,,11,245,3560007,,,,,,,2022-01-06,1,,,,,エンカウンターアンドダイバシティ,0
2663,9030001146178,新規,0,2022-01-06,2022-01-06,株式会社エースクリーン,,株式会社,埼玉県,越谷市,レイクタウン９丁目１番地２８－Ｋ－１０８,,11,222,3430828,,,,,,,2022-01-06,1,,,,,エースクリーン,0
2664,9030001146203,新規,0,2022-01-06,2022-01-06,株式会社スマイル,,株式会社,埼玉県,八潮市,中央３丁目２４番地９,,11,234,3400816,,,,,,,2022-01-06,1,,,,,スマイル,0
2665,9030001146211,新規,0,2022-01-06,2022-01-06,株式会社首都圏事業用車両販売,,株式会社,埼玉県,草加市,瀬崎１丁目４番６号,,11,221,3400022,,,,,,,2022-01-06,1,,,,,シュトケンジギョウヨウシャリョウハンバイ,0
2669,9030003018598,新規,0,2022-01-06,2022-01-06,合同会社トワ,,合同会社,埼玉県,鶴ヶ島市,脚折町１丁目１９番３８号,,11,241,3502211,,,,,,,2022-01-06,1,,,,,トワ,0
2679,9060001034446,新規,0,2022-01-06,2022-01-06,株式会社初谷グループホールディングス,,株式会社,栃木県,佐野市,大橋町１００３番地の２,,09,204,3270003,,,,,,,2022-01-06,1,,,,,ハツガイグループホールディングス,0
2680,9060003003911,新規,0,2022-01-06,2022-01-06,合同会社ＳＡＫＵＲＡ　ＴＲＡＤＩＮＧ,,合同会社,栃木県,小山市,大字喜沢６６７－４アンビション喜沢１号館２０２,,09,208,3230014,,,,,,,2022-01-06,1,,,,,サクラトレーディング,0
2684,9080001024668,新規,0,2022-01-06,2022-01-06,株式会社アキハ自動車,,株式会社,静岡県,静岡市清水区,八坂東２丁目１３番１７号,,22,103,4240024,,,,,,,2022-01-06,1,,,,,アキハジドウシャ,0
2687,9080101023017,新規,0,2022-01-06,2022-01-06,みんなのふじ株式会社,,株式会社,静岡県,富士市,水戸島元町４番１０号,,22,210,4160922,,,,,,,2022-01-06,1,,,,,ミンナノフジ,0
2689,9080401025555,新規,0,2022-01-06,2022-01-06,友和株式会社,,株式会社,静岡県,浜松市東区,植松町６８番地の９グランメゾン・Ｋ１０２,,22,132,4300803,,,,,,,2022-01-06,1,,,,,ユウワ,0
2694,9100001034945,新規,0,2022-01-06,2022-01-06,株式会社ｅｃｌａｔ　ｄｅ　ｌ’ａｕｂｅ,,株式会社,長野県,長野市,大字東和田８４２番地ＣＯＲＥＯＦＦＩＣＥ３０１,,20,201,3810038,,,,,,,2022-01-06,1,,,,,エクラドローブ,0
2695,9110001036313,新規,0,2022-01-06,2022-01-06,株式会社Ｔ２１,,株式会社,新潟県,中魚沼郡津南町,大字下船渡戊６２９番地１,,15,482,9498201,,,,,,,2022-01-06,1,,,,,ティーニジュウイチ,0
2709,9120001242835,新規,0,2022-01-06,2022-01-06,株式会社Ｓｉｒｉｕｓ,,株式会社,大阪府,大阪市中央区,南久宝寺町４丁目４番１３号,,27,128,5410058,,,,,,,2022-01-06,1,,,,,シリウス,0
2710,9120001242851,新規,0,2022-01-06,2022-01-06,株式会社Ｍａｋｅｓ,,株式会社,大阪府,大阪市中央区,南船場２丁目１０番２１号・５Ｆ,,27,128,5420081,,,,,,,2022-01-06,1,,,,,メイクス,0
2711,9120001242868,新規,0,2022-01-06,2022-01-06,海通商事株式会社,,株式会社,大阪府,大阪市天王寺区,東高津町１０番２号第二高田ビル２Ｆ,,27,109,5430021,,,,,,,2022-01-06,1,,,,,カイツウショウジ,0
2712,9120001242884,新規,0,2022-01-06,2022-01-06,株式会社アルバ,,株式会社,大阪府,大阪市城東区,東中浜９丁目７番２１号,,27,118,5360023,,,,,,,2022-01-06,1,,,,,アルバ,0
2713,9120001242901,新規,0,2022-01-06,2022-01-06,Ｒ－ＬＩＦＥ株式会社,,株式会社,大阪府,大阪市浪速区,日本橋３丁目１番４号ナニワビル２Ｆ,,27,111,5560005,,,,,,,2022-01-06,1,,,,,アールライフ,0
2714,9120001242918,新規,0,2022-01-06,2022-01-06,株式会社Ｋ２ＤＯ,,株式会社,大阪府,大阪市中央区,南船場２丁目１１－１８,,27,128,5420081,,,,,,,2022-01-06,1,,,,,ケーツーディーオー,0
2715,9120001242942,新規,0,2022-01-06,2022-01-06,エミフル株式会社,,株式会社,大阪府,大阪市中央区,本町１丁目６番１６号,,27,128,5410053,,,,,,,2022-01-06,1,,,,,エミフル,0
2716,9120001242950,新規,0,2022-01-06,2022-01-06,株式会社栄翔,,株式会社,大阪府,大阪市大正区,泉尾３丁目２０番３２号,,27,108,5510031,,,,,,,2022-01-06,1,,,,,エイト,0
2717,9120001242983,新規,0,2022-01-06,2022-01-06,福壱揚重株式会社,,株式会社,大阪府,大阪市北区,梅田１丁目１番３号大阪駅前第３ビル２９階１ー１ー１号室,,27,127,5300001,,,,,,,2022-01-06,1,,,,,フクイチヨウジュウ,0
2718,9120003020859,新規,0,2022-01-06,2022-01-06,合同会社Ａｔｅｍ,,合同会社,大阪府,大阪市住吉区,苅田２丁目２番１１－４０３号,,27,120,5580011,,,,,,,2022-01-06,1,,,,,アーテム,0
2719,9120003020875,新規,0,2022-01-06,2022-01-06,広佐合同会社,,合同会社,大阪府,大阪市大正区,北村２丁目１１番１５号,,27,108,5510032,,,,,,,2022-01-06,1,,,,,コウサ,0
2720,9120103004497,新規,0,2022-01-06,2022-01-06,合同会社ｎｕｒｔｕｒｅ,,合同会社,大阪府,貝塚市,東山６丁目２－２２,,27,208,5970046,,,,,,,2022-01-06,1,,,,,ネイチャー,0
2728,9130001070822,新規,0,2022-01-06,2022-01-06,株式会社ｍｏｋｕｄｏ,,株式会社,京都府,京都市上京区,油小路通中立売西入ル甲斐守町９７番地西陣産業創造會舘,,26,102,6020000,,,,,,,2022-01-06,1,,,,,モクド,0
2729,9130001070839,新規,0,2022-01-06,2022-01-06,株式会社表望堂,,株式会社,京都府,京都市右京区,太秦安井車道町２１番地６０,,26,108,6168066,,,,,,,2022-01-06,1,,,,,ヒョウボウドウ,0
2730,9130001070855,新規,0,2022-01-06,2022-01-06,株式会社櫻井工務店,,株式会社,京都府,京都市左京区,浄土寺下南田町９９番地,,26,103,6068404,,,,,,,2022-01-06,1,,,,,サクライコウムテン,0
2735,9140001124437,新規,0,2022-01-06,2022-01-06,株式会社島徳,,株式会社,兵庫県,加古川市,尾上町口里７０１番地の２８,,28,210,6750022,,,,,,,2022-01-06,1,,,,,シマトク,0
2737,9140003017151,新規,0,2022-01-06,2022-01-06,合同会社クレアール,,合同会社,兵庫県,姫路市,広畑区本町４丁目７５８番地,,28,201,6711114,,,,,,,2022-01-06,1,,,,,クレアール,0
2738,9140003017168,新規,0,2022-01-06,2022-01-06,トーンハレ合同会社,,合同会社,兵庫県,芦屋市,三条町２３番１６号,,28,206,6590087,,,,,,,2022-01-06,1,,,,,トーンハレ,0
2739,9140005025978,新規,0,2022-01-06,2022-01-06,Ｃ＆Ｐいずみ社会保険労務士法人,,その他の設立登記法人,兵庫県,姫路市,北条宮の町２８７番地６ＡＮＧＥＬＯ北条７０３号,,28,201,6700948,,,,,,,2022-01-06,1,,,,,シーアンドピーイズミ,0
2740,9150001025213,新規,0,2022-01-06,2022-01-06,株式会社健康屋,,株式会社,奈良県,大和郡山市,九条町１９６番地５,,29,203,6391001,,,,,,,2022-01-06,1,,,,,ケンコウヤ,0
2744,9160001023918,新規,0,2022-01-06,2022-01-06,生田機工株式会社,,株式会社,滋賀県,東近江市,石塔町４３番地１４,,25,213,5291501,,,,,,,2022-01-06,1,,,,,イクタキコウ,0
2747,9170001016920,新規,0,2022-01-06,2022-01-06,株式会社田中,,株式会社,和歌山県,和歌山市,北島４７９番地５２,,30,201,6408403,,,,,,,2022-01-06,1,,,,,タナカ,0
2762,9180001149348,新規,0,2022-01-06,2022-01-06,株式会社Ｃｏｎｎｅｃｔｉｎｇ　ｔｈｅ　ｄｏｔｓ,,株式会社,愛知県,春日井市,堀ノ内町５丁目１０番地１３,,23,206,4860829,,,,,,,2022-01-06,1,,,,,コネクティングザドッツ,0
2763,9180001149380,新規,0,2022-01-06,2022-01-06,教養堂株式会社,,株式会社,愛知県,江南市,赤童子町御宿２番地,,23,217,4838223,,,,,,,2022-01-06,1,,,,,キョウヨウドウ,0
2764,9180001149397,新規,0,2022-01-06,2022-01-06,株式会社Ｎｅｏ,,株式会社,愛知県,名古屋市中区,新栄２丁目１４番２２号,,23,106,4600007,,,,,,,2022-01-06,1,,,,,ネオ,0
2765,9180001149422,新規,0,2022-01-06,2022-01-06,株式会社Ｃｏｎｆｉｄｅｎｃｅ,,株式会社,愛知県,名古屋市中区,錦３丁目７番３号,,23,106,4600003,,,,,,,2022-01-06,1,,,,,コンフィデンス,0
2766,9180003023344,新規,0,2022-01-06,2022-01-06,合同会社川江塗装,,合同会社,愛知県,尾張旭市,狩宿町４丁目８７番地１０,,23,226,4880021,,,,,,,2022-01-06,1,,,,,カワエトソウ,0
2767,9180301035792,新規,0,2022-01-06,2022-01-06,株式会社鈴木建設,,株式会社,愛知県,安城市,和泉町南本郷２７６番地,,23,212,4441221,,,,,,,2022-01-06,1,,,,,スズキケンセツ,0
2769,9200001039587,新規,0,2022-01-06,2022-01-06,株式会社松葉建装,,株式会社,岐阜県,郡上市,大和町島２１５１番地６,,21,219,5014610,,,,,,,2022-01-06,1,,,,,マツバケンソウ,0
2770,9200001039595,新規,0,2022-01-06,2022-01-06,株式会社杉浦工業,,株式会社,岐阜県,各務原市,那加前洞新町４丁目３６番地,,21,213,5040021,,,,,,,2022-01-06,1,,,,,スギウラコウギョウ,0
2771,9200001039612,新規,0,2022-01-06,2022-01-06,大垣重量株式会社,,株式会社,岐阜県,大垣市,荒川町１４５番地７,,21,202,5030993,,,,,,,2022-01-06,1,,,,,オオガキジュウリョウ,0
2772,9200003005414,新規,0,2022-01-06,2022-01-06,合同会社凛と,,合同会社,岐阜県,岐阜市,中洲町１７番地４,,21,201,5008448,,,,,,,2022-01-06,1,,,,,リント,0
2774,9210001018755,新規,0,2022-01-06,2022-01-06,ＫＹメタル株式会社,,株式会社,福井県,福井市,森行町１号５番地,,18,201,9188171,,,,,,,2022-01-06,1,,,,,ケイワイメタル,0
2775,9210003001437,新規,0,2022-01-06,2022-01-06,合同会社六花工学,,合同会社,福井県,吉田郡永平寺町,松岡志比堺第１１号１２番地,,18,322,9101111,,,,,,,2022-01-06,1,,,,,リッカコウガク,0
2777,9220001024629,新規,0,2022-01-06,2022-01-06,株式会社カツミ鉄構,,株式会社,石川県,金沢市,小橋町１５番２号,,17,201,9200844,,,,,,,2022-01-06,1,,,,,カツミテッコウ,0
2778,9220001024637,新規,0,2022-01-06,2022-01-06,株式会社Ｇａｒａｇｅ　ＮＥＸＴ,,株式会社,石川県,金沢市,高畠３丁目１９９番地,,17,201,9218001,,,,,,,2022-01-06,1,,,,,ガレージネクスト,0
2779,9240001059111,新規,0,2022-01-06,2022-01-06,株式会社メディアワークス,,株式会社,広島県,広島市西区,南観音６丁目１１番２９号,,34,104,7330035,,,,,,,2022-01-06,1,,,,,メディアワークス,0
2780,9240001059136,新規,0,2022-01-06,2022-01-06,株式会社東原動物病院,,株式会社,広島県,広島市安佐南区,東原３丁目１１番２－２０３号,,34,105,7310112,,,,,,,2022-01-06,1,,,,,ヒガシハラドウブツビョウイン,0
2783,9240005015317,新規,0,2022-01-06,2022-01-06,税理士法人矢田事務所,,その他の設立登記法人,広島県,広島市西区,観音本町２丁目３番４号,,34,104,7330033,,,,,,,2022-01-06,1,,,,,ヤダジムショ,0
2787,9260001036372,新規,0,2022-01-06,2022-01-06,株式会社Ｓｕｎ,,株式会社,岡山県,岡山市南区,浦安南町２３５番地,,33,104,7028024,,,,,,,2022-01-06,1,,,,,サン,0
2805,9290003011981,新規,0,2022-01-06,2022-01-06,合同会社ＳＤＳ,,合同会社,福岡県,福岡市南区,大楠２丁目２番２号,,40,134,8150082,,,,,,,2022-01-06,1,,,,,エスディーエス,0
2806,9290003011998,新規,0,2022-01-06,2022-01-06,合同会社Ｌｕｚ　Ｃａｍｉｎｏ,,合同会社,福岡県,久留米市,善導寺町飯田５３４－５,,40,203,8390824,,,,,,,2022-01-06,1,,,,,ルースカミーノ,0
2807,9290005018505,新規,0,2022-01-06,2022-01-06,医療法人誠奈会,,その他の設立登記法人,福岡県,福岡市博多区,博多駅東２丁目５番３７号,,40,132,8120013,,,,,,,2022-01-06,1,,,,,セイナカイ,0
2808,9290005018513,新規,0,2022-01-06,2022-01-06,医療法人社団双賢会,,その他の設立登記法人,福岡県,福岡市中央区,大名２丁目１番７号シエルブルー大名４階,,40,133,8100041,,,,,,,2022-01-06,1,,,,,ソウケンカイ,0
2810,9300001012757,新規,0,2022-01-06,2022-01-06,株式会社ＨＡＲＵ,,株式会社,佐賀県,神埼市,神埼町城原６８０番地７アトレ城原ＩＩＩ２０３,00125321,41,210,8420122,,,,,,,2022-01-06,1,,,,,ハル,0
2811,9310001017656,新規,0,2022-01-06,2022-01-06,株式会社ヤマヨ,,株式会社,長崎県,雲仙市,愛野町乙２７９２番地１,,42,213,8540302,,,,,,,2022-01-06,1,,,,,ヤマヨ,0
2812,9310001017664,新規,0,2022-01-06,2022-01-06,ＲＥＩ　ｃａｒ　ＬＩＮＫ’ＣＲＥＡＴＩＯＮ株式会社,,株式会社,長崎県,諫早市,高天町２２０５番地１,,42,204,8590303,,,,,,,2022-01-06,1,,,,,レイカーリンククリエイション,0
2813,9310003004248,新規,0,2022-01-06,2022-01-06,合同会社きゅあのす,,合同会社,長崎県,東彼杵郡東彼杵町,三根郷８２５番地１,,42,321,8593806,,,,,,,2022-01-06,1,,,,,キュアノス,0
2814,9320005009954,新規,0,2022-01-06,2022-01-06,税理士法人田口会計,,その他の設立登記法人,大分県,大分市,王子中町８番３６号,,44,201,8700006,,,,,,,2022-01-06,1,,,,,タグチカイケイ,0
2816,9340001024369,新規,0,2022-01-06,2022-01-06,株式会社ＣＣＣ,,株式会社,鹿児島県,鹿児島市,新町５番２０号中原ビル２０１号室,,46,201,8920832,,,,,,,2022-01-06,1,,,,,サンシー,0
2817,9340001024393,新規,0,2022-01-06,2022-01-06,株式会社ＨＡＬＯ,,株式会社,鹿児島県,鹿児島市,山之口町１２番２１号第一アサヒプラザビル４階Ａ号,,46,201,8920844,,,,,,,2022-01-06,1,,,,,ハロ,0
2819,9340003003668,新規,0,2022-01-06,2022-01-06,合同会社ＳＵＮ,,合同会社,鹿児島県,出水市,麓町１１０２番地,,46,208,8990204,,,,,,,2022-01-06,1,,,,,サン,0
2820,9350001017504,新規,0,2022-01-06,2022-01-06,黒木左官株式会社,,株式会社,宮崎県,児湯郡都農町,大字川北２１０８８番地２,,45,406,8891201,,,,,,,2022-01-06,1,,,,,クロギサカン,0
2821,9350001017512,新規,0,2022-01-06,2022-01-06,株式会社ファンドル,,株式会社,宮崎県,西都市,大字茶臼原１３８５番地２,,45,208,8810037,,,,,,,2022-01-06,1,,,,,ファンドル,0
2823,9370001048010,新規,0,2022-01-06,2022-01-06,株式会社森工務店,,株式会社,宮城県,気仙沼市,本吉町長根２７番地１,,04,205,9880264,,,,,,,2022-01-06,1,,,,,モリコウムテン,0
2824,9370003005538,新規,0,2022-01-06,2022-01-06,合同会社Ｓａｋａｅ．ａｃ,,合同会社,宮城県,仙台市青葉区,中央４丁目９番１３号ニーズトラストビルヂングＳ－ＩＩ中央４ＦＡ,00125329,04,101,9800021,,,,,,,2022-01-06,1,,,,,サカエドットエーシー,0
2827,9390001016733,新規,0,2022-01-06,2022-01-06,株式会社栄太郎,,株式会社,山形県,鶴岡市,北京田６１番地１,,06,203,9970053,,,,,,,2022-01-06,1,,,,,エイタロウ,0
2828,9390001016741,新規,0,2022-01-06,2022-01-06,中平田ミニファーム株式会社,,株式会社,山形県,酒田市,熊手島字熊興屋４５番地,,06,204,9980817,,,,,,,2022-01-06,1,,,,,ナカヒラタミニファーム,0
2829,9400001015725,新規,0,2022-01-06,2022-01-06,株式会社宮本燃料店,,株式会社,岩手県,一関市,大東町摺沢字街道下２３番地,00125322,03,209,0290523,,,,,,,2022-01-06,1,,,,,ミヤモトネンリョウテン,0
2830,9400001015733,新規,0,2022-01-06,2022-01-06,株式会社Ｃａｎｅ　Ｐｌａｎｎｉｎｇ,,株式会社,岩手県,北上市,上野町２丁目３２番４号,,03,206,0240021,,,,,,,2022-01-06,1,,,,,カーネプランニング,0
2841,9430001085708,新規,0,2022-01-06,2022-01-06,株式会社北海道アグリドリーム,,株式会社,北海道,余市郡余市町,登町１９７６番地,,01,408,0460002,,,,,,,2022-01-06,1,,,,,ホッカイドウアグリドリーム,0
2842,9430001085716,新規,0,2022-01-06,2022-01-06,株式会社ケイズサイン,,株式会社,北海道,札幌市北区,新琴似町５４９番地１７,,01,102,0010915,,,,,,,2022-01-06,1,,,,,ケイズサイン,0
2846,9440001009005,新規,0,2022-01-06,2022-01-06,株式会社雅工業,,株式会社,北海道,北斗市,久根別３丁目６番１３号,,01,236,0490121,,,,,,,2022-01-06,1,,,,,ミヤビコウギョウ,0
2847,9450001013575,新規,0,2022-01-06,2022-01-06,株式会社クレジスト,,株式会社,北海道,旭川市,七条通１丁目１４８５番地の６７４,,01,204,0700037,,,,,,,2022-01-06,1,,,,,クレジスト,0
2848,9450001013583,新規,0,2022-01-06,2022-01-06,株式会社伊藤設備,,株式会社,北海道,旭川市,東光十七条５丁目２番１０号,,01,204,0788357,,,,,,,2022-01-06,1,,,,,イトウセツビ,0
2849,9460001005638,新規,0,2022-01-06,2022-01-06,株式会社ＫＡＲＹ,,株式会社,北海道,釧路市,住之江町７番７号,,01,206,0850045,,,,,,,2022-01-06,1,,,,,カリー,0
2850,9460101007113,新規,0,2022-01-06,2022-01-06,株式会社美來技術,,株式会社,北海道,帯広市,西二十条南２丁目２７番１６号,,01,207,0802470,,,,,,,2022-01-06,1,,,,,ミライギジュツ,0
2853,9480001011601,新規,0,2022-01-06,2022-01-06,株式会社ＭＯＤＥＲＡＴＥ,,株式会社,徳島県,徳島市,南沖洲３丁目９番１５－１０３号アンカーアパートメント,,36,201,7700874,,,,,,,2022-01-06,1,,,,,モデラート,0
2854,9490001010081,新規,0,2022-01-06,2022-01-06,カラーズ株式会社,,株式会社,高知県,高知市,福井町２０７２－６７,,39,201,7800965,,,,,,,2022-01-06,1,,,,,カラーズ,0
2855,9490003001616,新規,0,2022-01-06,2022-01-06,合同会社森光設備,,合同会社,高知県,土佐市,高岡町甲１４６３番地８,,39,205,7811101,,,,,,,2022-01-06,1,,,,,モリミツセツビ,0
2856,9490005006811,新規,0,2022-01-06,2022-01-06,税理士法人岡本会計,,その他の設立登記法人,高知県,高知市,二葉町１１番１１号,,39,201,7810815,,,,,,,2022-01-06,1,,,,,オカモトカイケイ,0
