sequenceNumber,corporateNumber,process,correct,updateDate,changeDate,name,nameImageId,kind,prefectureName,cityName,streetNumber,addressImageId,prefectureCode,cityCode,postCode,addressOutside,addressOutsideImageId,closeDate,closeCause,successorCorporateNumber,changeCause,assignmentDate,latest,enName,enPrefectureName,enCityName,enAddressOutside,furigana,hihyoji
5,1010001259988,新規,0,2025-11-11,2025-11-11,ＡＣＴ　Ｊａｐａｎ株式会社,,株式会社,東京都,中央区,日本橋室町１丁目２番６号日本橋大栄ビル７階,,13,102,1030022,,,,,,,2025-11-11,1,,,,,エーシーティージャパン,0
6,1010001260046,新規,0,2025-11-11,2025-11-11,マインズイン株式会社,,株式会社,東京都,中央区,日本橋堀留町１丁目９番１０号日本橋ライフサイエンスビルディング７,,13,102,1030012,,,,,,,2025-11-11,1,,,,,マインズイン,0
7,1010001260178,新規,0,2025-11-11,2025-11-11,株式会社ＯＯ　Ｄｅｎｔａｌ　Ｊａｐａｎ,,株式会社,東京都,中央区,東日本橋１丁目４番３号吉村ビル２Ｆ,,13,102,1030004,,,,,,,2025-11-11,1,,,,,オーオーデンタルジャパン,0
8,1010001260186,新規,0,2025-11-11,2025-11-11,給与の窓口くん株式会社,,株式会社,東京都,千代田区,二番町８番地３二番町大沼ビル４階,,13,101,1020084,,,,,,,2025-11-11,1,,,,,キュウヨノマドグチクン,0
9,1010001260203,新規,0,2025-11-11,2025-11-11,アミッド株式会社,,株式会社,東京都,千代田区,丸の内３丁目２番２号丸の内二重橋ビル２階,,13,101,1000005,,,,,,,2025-11-11,1,,,,,アミッド,0
18,1010401194240,新規,0,2025-11-11,2025-11-11,ＧｒｉｄＪａｐａｎ株式会社,,株式会社,東京都,港区,赤坂２丁目１６－６,,13,103,1070052,,,,,,,2025-11-11,1,,,,,グリッドジャパン,0
19,1010401194281,新規,0,2025-11-11,2025-11-11,青天不動産株式会社,,株式会社,東京都,港区,六本木４丁目２－１４六本木三河台スクエア３Ｆ,,13,103,1060032,,,,,,,2025-11-11,1,,,,,アオテンフドウサン,0
20,1010401194331,新規,0,2025-11-11,2025-11-11,Ｈｉｇｇｓ　ｆｉｅｌｄ株式会社,,株式会社,東京都,港区,海岸３丁目８番３号ＣＵＢＥ１５－１５０４,,13,103,1080022,,,,,,,2025-11-11,1,,,,,ヒッグスフィールド,0
21,1010401194364,新規,0,2025-11-11,2025-11-11,株式会社ＹＵＮＩＱＡ,,株式会社,東京都,港区,浜松町２丁目２番１５号浜松町ダイヤビル２Ｆ,,13,103,1050013,,,,,,,2025-11-11,1,,,,,ユニカ,0
23,1010403036564,新規,0,2025-11-11,2025-11-11,ＯＭＫＷ　Ａｄｖｉｓｏｒｙ合同会社,,合同会社,東京都,港区,南青山２丁目２番８号,,13,103,1070062,,,,,,,2025-11-11,1,,,,,オーエムケーダブリューアドバイザリー,0
24,1010403036572,新規,0,2025-11-11,2025-11-11,Ｎａｇａｈｏｒｉ合同会社,,合同会社,東京都,港区,西新橋１丁目２２番５号６階,,13,103,1050003,,,,,,,2025-11-11,1,,,,,ナガホリ,0
28,1010405024889,新規,0,2025-11-11,2025-11-11,特定目的会社ＴＳＭＺ１５,,その他の設立登記法人,東京都,港区,元赤坂１丁目１番７号,,13,103,1070051,,,,,,,2025-11-11,1,,,,,ティーエスエムゼットフィフティーン,0
29,1010405024996,新規,0,2025-11-11,2025-11-11,Ｓｈｉｎｓａｉｂａｓｈｉ一般社団法人,,その他の設立登記法人,東京都,港区,西新橋１丁目２２番５号６階,,13,103,1050003,,,,,,,2025-11-11,1,,,,,シンサイバシ,0
33,1010601068244,新規,0,2025-11-11,2025-11-11,株式会社ＢＸパートナーズ,,株式会社,東京都,江東区,豊洲５丁目６番１５号,,13,108,1350061,,,,,,,2025-11-11,1,,,,,ビーエックスパートナーズ,0
44,1011001173262,新規,0,2025-11-11,2025-11-11,株式会社ライスカレーメディア,,株式会社,東京都,渋谷区,道玄坂１丁目１２番１号渋谷マークシティウエスト２０階,,13,113,1500043,,,,,,,2025-11-11,1,,,,,ライスカレーメディア,0
45,1011001173403,新規,0,2025-11-11,2025-11-11,ＳＡＢ　ＪＡＰＡＮ株式会社,,株式会社,東京都,渋谷区,恵比寿１丁目１８－４大藤ビル３０１号室,,13,113,1500013,,,,,,,2025-11-11,1,,,,,エスエービージャパン,0
47,1011003022847,新規,0,2025-11-11,2025-11-11,合同会社ＲＩＳＯＯＯ　ＤＥＳＩＧＮ,,合同会社,東京都,渋谷区,神南１丁目１１－４ＦＰＧリンクス神南５階,,13,113,1500041,,,,,,,2025-11-11,1,,,,,リソーデザイン,0
51,1011101113911,新規,0,2025-11-11,2025-11-11,株式会社桃園クリエーション,,株式会社,東京都,新宿区,山吹町３３５－１鈴木ビル４Ｆ,,13,104,1620801,,,,,,,2025-11-11,1,,,,,モモゾノクリエーション,0
57,1011401027563,新規,0,2025-11-11,2025-11-11,Ａｓｐｉｒｅｒ株式会社,,株式会社,東京都,板橋区,大山金井町２７－３メゾン桑原Ｂ１,,13,119,1730024,,,,,,,2025-11-11,1,,,,,アスパイアラー,0
67,1012801024349,新規,0,2025-11-11,2025-11-11,株式会社サンサンブリッジ,,株式会社,東京都,昭島市,中神町１３０４番地１６,,13,207,1960022,,,,,,,2025-11-11,1,,,,,サンサンブリッジ,0
71,1013301055231,新規,0,2025-11-11,2025-11-11,株式会社亜星ビジネス,,株式会社,東京都,豊島区,東池袋１丁目１７番１１号パークハイツ池袋１１０５号,,13,116,1700013,,,,,,,2025-11-11,1,,,,,アセイビジネス,0
72,1013305003789,新規,0,2025-11-11,2025-11-11,一般社団法人Ｒｅｖｏ　Ｗｅｌｌｎｅｓｓ,,その他の設立登記法人,東京都,豊島区,東池袋１丁目４番６号高和ビル８階,,13,116,1700013,,,,,,,2025-11-11,1,,,,,レボウェルネス,0
76,1020001165715,新規,0,2025-11-11,2025-11-11,アーレ株式会社,,株式会社,神奈川県,横浜市戸塚区,吉田町９９５番地４,,14,110,2440817,,,,,,,2025-11-11,1,,,,,アーレ,0
77,1020001165731,新規,0,2025-11-11,2025-11-11,株式会社ＮＲＫホールディングス,,株式会社,神奈川県,横浜市中区,相生町６丁目１０４番地,,14,104,2310012,,,,,,,2025-11-11,1,,,,,エヌアールケーホールディングス,0
78,1020001165772,新規,0,2025-11-11,2025-11-11,株式会社ＡＳＳＯＲＴ,,株式会社,神奈川県,横浜市磯子区,岡村８丁目２１番１０号,,14,107,2350021,,,,,,,2025-11-11,1,,,,,アソート,0
88,1020005017029,新規,0,2025-11-11,2025-11-11,一般財団法人クルマ文化財団,,その他の設立登記法人,神奈川県,横浜市港北区,新羽町４７９番地１エポック新横浜２０１,,14,109,2230057,,,,,,,2025-11-11,1,,,,,,0
101,1030005022333,新規,0,2025-11-11,2025-11-11,一般社団法人飯能インフラパートナーズ,,その他の設立登記法人,埼玉県,飯能市,大字芦苅場１８６番地,00141474,11,209,3570013,,,,,,,2025-11-11,1,,,,,ハンノウインフラパートナーズ,0
104,1040001141318,新規,0,2025-11-11,2025-11-11,ＬＡＷＧＯ株式会社,,株式会社,千葉県,八千代市,緑が丘１１０６－５、２Ｆ－２０,,12,221,2760000,,,,,,,2025-11-11,1,,,,,ラウゴ,0
114,1050001057562,新規,0,2025-11-11,2025-11-11,株式会社マイ・エステート,,株式会社,茨城県,石岡市,茨城１丁目４番３５号１０１号室,,08,205,3150042,,,,,,,2025-11-11,1,,,,,マイエステート,0
120,1070001043528,新規,0,2025-11-11,2025-11-11,みやび電脳株式会社,,株式会社,群馬県,高崎市,連雀町１２番地１アイディーコート高崎９０４号,,10,202,3700826,,,,,,,2025-11-11,1,,,,,ミヤビデンノウ,0
127,1080101025879,新規,0,2025-11-11,2025-11-11,橋本屋株式会社,,株式会社,静岡県,賀茂郡西伊豆町,仁科１１０１番地の５,,22,306,4103514,,,,,,,2025-11-11,1,,,,,ハシモトヤ,0
133,1110001039711,新規,0,2025-11-11,2025-11-11,Ｍｕｔｕａｌ．ａ．ｓ株式会社,,株式会社,新潟県,新潟市中央区,東大通１丁目１０番１８号ＬＹＦＴ東大通４階４－Ｂ,,15,103,9500087,,,,,,,2025-11-11,1,,,,,ミューチュアルエーエス,0
145,1120001281741,新規,0,2025-11-11,2025-11-11,株式会社ＫＲＮ,,株式会社,大阪府,大阪市西区,北堀江２丁目４番１１号サンライズビル１０Ｆ－２９,,27,106,5500014,,,,,,,2025-11-11,1,,,,,ケーアールエヌ,0
146,1120001281840,新規,0,2025-11-11,2025-11-11,ＳｔｏｐＢｙ株式会社,,株式会社,大阪府,大阪市北区,梅田１丁目２－２大阪駅前第２ビル２階５－６号室,,27,127,5300001,,,,,,,2025-11-11,1,,,,,ストップバイ,0
147,1120001281857,新規,0,2025-11-11,2025-11-11,防災ソリューションズジャパン株式会社,,株式会社,大阪府,大阪市中央区,南船場３丁目２番２２号おおきに南船場ビル２０５,,27,128,5420081,,,,,,,2025-11-11,1,,,,,ボウサイソリューションズジャパン,0
148,1120001281873,新規,0,2025-11-11,2025-11-11,株式会社安久,,株式会社,大阪府,大阪市中央区,南船場１丁目３番１４－６０７号,,27,128,5420081,,,,,,,2025-11-11,1,,,,,アンキュウ,0
155,1120901051756,新規,0,2025-11-11,2025-11-11,株式会社ｌｏｇ　ｌｉｆｅ,,株式会社,大阪府,高槻市,津之江町１丁目２５番３５号の１,,27,207,5690822,,,,,,,2025-11-11,1,,,,,ログライフ,0
167,1130001080944,新規,0,2025-11-11,2025-11-11,ジャパン・フード・パートナーズ株式会社,,株式会社,京都府,京都市下京区,貞安前之町６０９番地飯田屋ビル４Ｆ,,26,106,6008031,,,,,,,2025-11-11,1,,,,,ジャパンフードパートナーズ,0
174,1140001140672,新規,0,2025-11-11,2025-11-11,株式会社Ｆｅｎｉｍｏ,,株式会社,兵庫県,尼崎市,大庄中通２丁目６１番地８,,28,202,6600075,,,,,,,2025-11-11,1,,,,,フェニモ,0
175,1140001140680,新規,0,2025-11-11,2025-11-11,株式会社アクアルルーフ,,株式会社,兵庫県,明石市,魚住町錦が丘４丁目１３番地の８,,28,203,6740081,,,,,,,2025-11-11,1,,,,,アクアルルーフ,0
185,1180001169320,新規,0,2025-11-11,2025-11-11,株式会社ＴＥＲＵＣＡ,,株式会社,愛知県,名古屋市緑区,浦里３丁目１０９－３,,23,114,4580847,,,,,,,2025-11-11,1,,,,,テルカ,0
186,1180001169394,新規,0,2025-11-11,2025-11-11,株式会社ｍｉｍｉ,,株式会社,愛知県,名古屋市東区,筒井３丁目２９－１２第三貞和ビル１階Ｂ号室,,23,102,4610003,,,,,,,2025-11-11,1,,,,,ミミ,0
187,1180001169444,新規,0,2025-11-11,2025-11-11,株式会社ＡＬＯ　ＥＤＧＥ,,株式会社,愛知県,名古屋市千種区,池下町２丁目６３番地２５グランドメゾン池下ザ・タワー１７１１,,23,101,4640066,,,,,,,2025-11-11,1,,,,,アロエッジ,0
188,1180001169452,新規,0,2025-11-11,2025-11-11,株式会社ジティケイ,,株式会社,愛知県,小牧市,久保本町５８番地,,23,219,4850005,,,,,,,2025-11-11,1,,,,,ジティケイ,0
200,1180003029340,新規,0,2025-11-11,2025-11-11,ＴＲ　ＬＵＳＴＥＲＩＡ合同会社,,合同会社,愛知県,春日井市,瑞穂通５丁目５３番地フレグランス瑞穂３０１号,,23,206,4860845,,,,,,,2025-11-11,1,,,,,ティーアールラストリア,0
204,1180301040404,新規,0,2025-11-11,2025-11-11,株式会社Ｔ’ｓ　ＰＬＵＳ　ｎｅｏ,,株式会社,愛知県,岡崎市,美合町字平端２３番地２,,23,202,4440802,,,,,,,2025-11-11,1,,,,,ティーズプラスネオ,0
211,1190001032683,新規,0,2025-11-11,2025-11-11,株式会社ＴＯＡ,,株式会社,三重県,松阪市,久保町１８５５番地１２４サンハイム久保１０４,,24,204,5150044,,,,,,,2025-11-11,1,,,,,トア,0
214,1190003005258,新規,0,2025-11-11,2025-11-11,合同会社金星,,合同会社,三重県,鈴鹿市,道伯町２０５７‐２,,24,207,5130824,,,,,,,2025-11-11,1,,,,,キンボシ,0
215,1200001044405,新規,0,2025-11-11,2025-11-11,株式会社ＥｒＡ,,株式会社,岐阜県,高山市,本町４丁目１６番地３,,21,203,5060011,,,,,,,2025-11-11,1,,,,,イーアールエー,0
222,1240001065752,新規,0,2025-11-11,2025-11-11,株式会社Ｔ‐ＳＴＡＲ,,株式会社,広島県,広島市西区,高須台６丁目９番１号,,34,104,7330876,,,,,,,2025-11-11,1,,,,,ティースター,0
224,1250001021408,新規,0,2025-11-11,2025-11-11,株式会社ウエストコトー,,株式会社,山口県,山口市,吉敷中東１丁目１８番１号ニュークレールメゾンＡ２０１,,35,203,7530813,,,,,,,2025-11-11,1,,,,,,0
237,1290003017672,新規,0,2025-11-11,2025-11-11,彩匠自動車板金塗装合同会社,,合同会社,福岡県,飯塚市,口原１９－４,,40,205,8201114,,,,,,,2025-11-11,1,,,,,サイショウジドウシャバンキントソウ,0
244,1300003002375,新規,0,2025-11-11,2025-11-11,合同会社ケンコー,,合同会社,佐賀県,唐津市,浜玉町横田下９３４番地６,,41,202,8495122,,,,,,,2025-11-11,1,,,,,ケンコー,0
250,1330001033733,新規,0,2025-11-11,2025-11-11,株式会社ＡＶＥＮ,,株式会社,熊本県,熊本市東区,御領５丁目７番７号,,43,102,8618035,,,,,,,2025-11-11,1,,,,,アヴェン,0
253,1330003011308,新規,0,2025-11-11,2025-11-11,合同会社Ｊａｓｍｉｎｅ,,合同会社,熊本県,熊本市東区,画図町重富４７１番地１,,43,102,8610000,,,,,,,2025-11-11,1,,,,,ジャスミン,0
256,1360001035999,新規,0,2025-11-11,2025-11-11,株式会社オフィス倉尚,,株式会社,沖縄県,那覇市,首里石嶺町４丁目３６３番地,,47,201,9030804,,,,,,,2025-11-11,1,,,,,オフィスクラショウ,0
257,1360001036007,新規,0,2025-11-11,2025-11-11,株式会社ＲＥＬＩＡＮＣＥ,,株式会社,沖縄県,うるま市,字高江洲６９４番地１６,,47,213,9042242,,,,,,,2025-11-11,1,,,,,リライアンス,0
269,1430001095631,新規,0,2025-11-11,2025-11-11,株式会社トムトム,,株式会社,北海道,札幌市厚別区,厚別中央一条２丁目１５番１７－１０１号,,01,108,0040051,,,,,,,2025-11-11,1,,,,,トムトム,0
270,1430003018292,新規,0,2025-11-11,2025-11-11,合同会社ウェルコミット,,合同会社,北海道,札幌市西区,山の手二条１２丁目３番１８号,,01,107,0630002,,,,,,,2025-11-11,1,,,,,ウェルコミット,0
273,1450003002740,新規,0,2025-11-11,2025-11-11,合同会社ＴＲＡＣＥ,,合同会社,北海道,利尻郡利尻富士町,鴛泊字富士岬２５９,,01,519,0970101,,,,,,,2025-11-11,1,,,,,トレイス,0
294,2010001259995,新規,0,2025-11-11,2025-11-11,株式会社ＭＩＲＡＩＫＥＩ,,株式会社,東京都,中央区,銀座１丁目１２番４号Ｎ＆ＥＢＬＤ．６Ｆ,,13,102,1040061,,,,,,,2025-11-11,1,,,,,ミライケイ,0
295,2010001260012,新規,0,2025-11-11,2025-11-11,小環株式会社,,株式会社,東京都,中央区,勝どき１丁目８番１－５２０９号室,,13,102,1040054,,,,,,,2025-11-11,1,,,,,ショウケイ,0
296,2010001260078,新規,0,2025-11-11,2025-11-11,株式会社ＪＡＭＺＡ,,株式会社,東京都,文京区,白山２丁目１９番９号２Ｆ,,13,105,1120001,,,,,,,2025-11-11,1,,,,,ジャムザ,0
297,2010001260094,新規,0,2025-11-11,2025-11-11,株式会社ＦｉｎＳｃｏｐｅ,,株式会社,東京都,中央区,銀座１丁目１２番４号Ｎ＆ＥＢＬＤ．６Ｆ,,13,102,1040061,,,,,,,2025-11-11,1,,,,,フィンスコープ,0
298,2010001260103,新規,0,2025-11-11,2025-11-11,株式会社インスパイアリビング,,株式会社,東京都,千代田区,九段南３丁目８－９,,13,101,1020074,,,,,,,2025-11-11,1,,,,,インスパイアリビング,0
299,2010001260202,新規,0,2025-11-11,2025-11-11,Ｐｌａｔｏｎ　Ｊａｐａｎ株式会社,,株式会社,東京都,中央区,日本橋箱崎町１７番８号,,13,102,1030015,,,,,,,2025-11-11,1,,,,,プラトンジャパン,0
300,2010001260219,新規,0,2025-11-11,2025-11-11,株式会社Ｋ＆Ｓ,,株式会社,東京都,千代田区,九段南４丁目３番３号,,13,101,1020074,,,,,,,2025-11-11,1,,,,,ケイアンドエス,0
310,2010401194140,新規,0,2025-11-11,2025-11-11,株式会社Ｆｉｒａｎｃｈｏｒ　Ｃｏｎｓｕｌｔｉｎｇ,,株式会社,東京都,港区,赤坂３丁目１７番３号Ｈ１Ｏ赤坂オフィス３０５号室,,13,103,1070052,,,,,,,2025-11-11,1,,,,,フィランカーコンサルティング,0
311,2010401194289,新規,0,2025-11-11,2025-11-11,株式会社Ｔｈｅ　Ｍｏｖｉｎｇ　Ｒｏｏｍ,,株式会社,東京都,港区,北青山１丁目３－３三橋ビル３階,,13,103,1070061,,,,,,,2025-11-11,1,,,,,ザムービングルーム,0
312,2010401194306,新規,0,2025-11-11,2025-11-11,ＫＡＧＡＬＩ株式会社,,株式会社,東京都,港区,北青山２丁目１４番４号ｔｈｅＡＲＧＹＬＥａｏｙａｍａ５Ｆ,,13,103,1070061,,,,,,,2025-11-11,1,,,,,カガリ,0
316,2010403036258,新規,0,2025-11-11,2025-11-11,合同会社ＩＦＤ,,合同会社,東京都,港区,赤坂５丁目５－９赤坂スバルビル６０１,,13,103,1070052,,,,,,,2025-11-11,1,,,,,アイエフディ,0
317,2010403036407,新規,0,2025-11-11,2025-11-11,ｉＣＳＡ合同会社,,合同会社,東京都,港区,北青山１丁目３－３三橋ビル３階,,13,103,1070061,,,,,,,2025-11-11,1,,,,,アイシーエスエー,0
318,2010403036571,新規,0,2025-11-11,2025-11-11,Ｓｈｉｎｓａｉｂａｓｈｉ合同会社,,合同会社,東京都,港区,西新橋１丁目２２番５号６階,,13,103,1050003,,,,,,,2025-11-11,1,,,,,シンサイバシ,0
319,2010405024896,新規,0,2025-11-11,2025-11-11,特定目的会社ＴＳＭＺ１７,,その他の設立登記法人,東京都,港区,元赤坂１丁目１番７号,,13,103,1070051,,,,,,,2025-11-11,1,,,,,ティーエスエムゼットセブンティーン,0
320,2010405024938,新規,0,2025-11-11,2025-11-11,一般社団法人印西開発,,その他の設立登記法人,東京都,港区,六本木１丁目６番１号泉ガーデンタワー,,13,103,1060032,,,,,,,2025-11-11,1,,,,,インザイカイハツ,0
323,2010601068251,新規,0,2025-11-11,2025-11-11,ＬＩＦＥコンシェルジュＬＥＭＯＮ株式会社,,株式会社,東京都,江東区,有明３丁目７番２６号有明フロンティアビルＢ棟９階,,13,108,1350063,,,,,,,2025-11-11,1,,,,,ライフコンシェルジュレモン,0
326,2010801036776,新規,0,2025-11-11,2025-11-11,株式会社ＯＮホールディングス,,株式会社,東京都,大田区,西嶺町３３番３号,,13,111,1450075,,,,,,,2025-11-11,1,,,,,オンホールディングス,0
327,2010803005606,新規,0,2025-11-11,2025-11-11,合同会社シープロ,,合同会社,東京都,大田区,東馬込１丁目５番１－１０１号,,13,111,1430022,,,,,,,2025-11-11,1,,,,,シープロ,0
334,2011001173402,新規,0,2025-11-11,2025-11-11,Ｃｏｓｔａｒｌｅｎｓ株式会社,,株式会社,東京都,渋谷区,円山町５番３号ＭＩＥＵＸ渋谷ビル８階,,13,113,1500044,,,,,,,2025-11-11,1,,,,,コースターレンズ,0
335,2011001173410,新規,0,2025-11-11,2025-11-11,株式会社Ｈａｐｐｙ　Ｂｉｒｔｈ　Ｃｏｍｐａｎｙ,,株式会社,東京都,目黒区,東山３丁目７－１１－２Ｆ,,13,110,1530043,,,,,,,2025-11-11,1,,,,,ハッピーバースカンパニー,0
336,2011001173443,新規,0,2025-11-11,2025-11-11,ＡｒｔｉｓＣＯＲＥ株式会社,,株式会社,東京都,渋谷区,神宮前６丁目２３－４,,13,113,1500001,,,,,,,2025-11-11,1,,,,,アーティスコア,0
337,2011001173567,新規,0,2025-11-11,2025-11-11,ＦＯＯＤＣＩＲＣＵＳ株式会社,,株式会社,東京都,渋谷区,富ヶ谷２丁目５番１０号,,13,113,1510063,,,,,,,2025-11-11,1,,,,,フードサーカス,0
344,2011101113893,新規,0,2025-11-11,2025-11-11,Ｔａｌｋ　ｔｏ　Ｉｍｐａｃｔ株式会社,,株式会社,東京都,新宿区,新宿２丁目１１番７号第３３宮庭ビル４階,,13,104,1600022,,,,,,,2025-11-11,1,,,,,トークトゥーインパクト,0
347,2011103016698,新規,0,2025-11-11,2025-11-11,合同会社ＰＭエステート,,合同会社,東京都,新宿区,市谷鷹匠町３番地２,,13,104,1620848,,,,,,,2025-11-11,1,,,,,ピーエムエステート,0
350,2011303005765,新規,0,2025-11-11,2025-11-11,合同会社Ｎ＆Ｔ,,合同会社,東京都,杉並区,和泉１丁目３番６号,,13,115,1680063,,,,,,,2025-11-11,1,,,,,エヌアンドティ,0
351,2011401027513,新規,0,2025-11-11,2025-11-11,株式会社ＡｕｒｕｍＴｏｋｙｏ,,株式会社,東京都,板橋区,東新町１丁目４３番５－４０６号,,13,119,1740074,,,,,,,2025-11-11,1,,,,,オーラムトーキョー,0
353,2011403004931,新規,0,2025-11-11,2025-11-11,Ｍ＆Ｓ合同会社,,合同会社,東京都,板橋区,宮本町１６番５号サンモリッツ弥生１０１,,13,119,1740054,,,,,,,2025-11-11,1,,,,,エムアンドエス,0
355,2011501032792,新規,0,2025-11-11,2025-11-11,株式会社イシイホールディングス,,株式会社,東京都,北区,神谷２丁目１２番７号,,13,117,1150043,,,,,,,2025-11-11,1,,,,,イシイホールディングス,0
362,2011803007179,新規,0,2025-11-11,2025-11-11,合同会社ＬｉＬｉ,,合同会社,東京都,葛飾区,新小岩４丁目４１番１０号,,13,122,1240024,,,,,,,2025-11-11,1,,,,,リリ,0
364,2013303007956,新規,0,2025-11-11,2025-11-11,合同会社みしまや,,合同会社,東京都,豊島区,北大塚１丁目１６番５号パークアクシス大塚ステーションゲートタワー９０９号,,13,116,1700004,,,,,,,2025-11-11,1,,,,,ミシマヤ,0
370,2020001165557,新規,0,2025-11-11,2025-11-11,株式会社ホームキャリー,,株式会社,神奈川県,横浜市南区,宿町２丁目４０番地大和ビル１０４,,14,105,2320017,,,,,,,2025-11-11,1,,,,,ホームキャリー,0
371,2020001165607,新規,0,2025-11-11,2025-11-11,Ｒｉｃｈｔｒｅ株式会社,,株式会社,神奈川県,川崎市高津区,諏訪２丁目１番６７号テラスタマガワ３０３,,14,134,2130004,,,,,,,2025-11-11,1,,,,,リッチトレ,0
372,2020001165689,新規,0,2025-11-11,2025-11-11,株式会社ＲＯＮＩＮ,,株式会社,神奈川県,横浜市都筑区,川向町８５３番１,,14,118,2240044,,,,,,,2025-11-11,1,,,,,ロウニン,0
373,2020001165747,新規,0,2025-11-11,2025-11-11,株式会社ＥＡＳＴ　ＢＲＩＤＧＥ,,株式会社,神奈川県,横浜市戸塚区,前田町２１４番地１グランドメゾン東戸塚５番館９０９号,,14,110,2440804,,,,,,,2025-11-11,1,,,,,イーストブリッジ,0
382,2021005013454,新規,0,2025-11-11,2025-11-11,一般社団法人Ｒｅｔｒｅａｔ　ｆｏｒ　Ｔｒａｎｓｆｏｒｍａｔｉｏｎ,,その他の設立登記法人,神奈川県,三浦郡葉山町,下山口５６番地,,14,301,2400116,,,,,,,2025-11-11,1,,,,,リトリートフォートランスフォーメーション,0
389,2030001169631,新規,0,2025-11-11,2025-11-11,株式会社フライキング商事,,株式会社,埼玉県,川口市,大字里９７９番地,,11,203,3340005,,,,,,,2025-11-11,1,,,,,フライキングショウジ,0
396,2040001141300,新規,0,2025-11-11,2025-11-11,タルカム株式会社,,株式会社,千葉県,千葉市緑区,おゆみ野２丁目１５番地１９,,12,105,2660031,,,,,,,2025-11-11,1,,,,,タルカム,0
397,2040001141309,新規,0,2025-11-11,2025-11-11,株式会社ｓｔｏｒｋ,,株式会社,千葉県,市原市,ちはら台東８丁目８番地１５２,,12,219,2900141,,,,,,,2025-11-11,1,,,,,ストーク,0
398,2040001141317,新規,0,2025-11-11,2025-11-11,株式会社Ｃ・Ｋマネジメント,,株式会社,千葉県,鎌ケ谷市,東道野辺４丁目３番６３号,,12,224,2730115,,,,,,,2025-11-11,1,,,,,シーケーマネジメント,0
400,2040005022934,新規,0,2025-11-11,2025-11-11,ＮＰＯ法人スポカル,,その他の設立登記法人,千葉県,南房総市,富浦町豊岡８５９番地１,,12,234,2992402,,,,,,,2025-11-11,1,,,,,スポカル,0
404,2050005013726,新規,0,2025-11-11,2025-11-11,一般社団法人ワットパトムワナラム日本,,その他の設立登記法人,茨城県,坂東市,駒跿９４０番地３,,08,228,3060653,,,,,,,2025-11-11,1,,,,,ワットパトムワナラムニホン,0
406,2060001038750,新規,0,2025-11-11,2025-11-11,株式会社篠崎農場,00141473,株式会社,栃木県,佐野市,越名町１５６番地１４,,09,204,3270822,,,,,,,2025-11-11,1,,,,,シノザキノウジョウ,0
411,2070001043543,新規,0,2025-11-11,2025-11-11,株式会社クアッズ,,株式会社,群馬県,高崎市,常盤町１１９番地７,,10,202,3700816,,,,,,,2025-11-11,1,,,,,クアッズ,0
414,2080405007779,新規,0,2025-11-11,2025-11-11,一般社団法人和,,その他の設立登記法人,静岡県,浜松市中央区,初生町１２６６番地の５,,22,138,4338112,,,,,,,2025-11-11,1,,,,,ナゴミ,0
419,2110001039710,新規,0,2025-11-11,2025-11-11,株式会社ＲｉｚｚＴｏｎｉｃ,,株式会社,新潟県,新潟市中央区,堀之内南２丁目１５番１１号ワンノール堀之内２０２号,,15,103,9500982,,,,,,,2025-11-11,1,,,,,リズトニック,0
434,2120001281757,新規,0,2025-11-11,2025-11-11,誠恵観光株式会社,,株式会社,大阪府,大阪市西区,新町３丁目６番１０号,,27,106,5500013,,,,,,,2025-11-11,1,,,,,セイケイカンコウ,0
435,2120001281798,新規,0,2025-11-11,2025-11-11,Ｉｎｆｉｎｉｔｙ＆Ｂｅｙｏｎｄ株式会社,,株式会社,大阪府,大阪市中央区,船場中央２丁目１番４号船場センタービル４号館地下一階Ｂ１０８ＲＯＹＡＬＯＦＦＩＣＥ内,,27,128,5410055,,,,,,,2025-11-11,1,,,,,インフィニティアンドビヨンド,0
437,2120101072742,新規,0,2025-11-11,2025-11-11,株式会社ｍａｔｏｋａ,,株式会社,大阪府,和泉市,上代町６６４番地の２０,,27,219,5940011,,,,,,,2025-11-11,1,,,,,マトカ,0
438,2120101072759,新規,0,2025-11-11,2025-11-11,ＭＫスタイル株式会社,,株式会社,大阪府,和泉市,上町４３番地,,27,219,5940002,,,,,,,2025-11-11,1,,,,,エムケイスタイル,0
439,2120103006839,新規,0,2025-11-11,2025-11-11,合同会社ｓｏｒａｉＬｅ,,合同会社,大阪府,岸和田市,河合町８５５－１,,27,202,5960113,,,,,,,2025-11-11,1,,,,,ソライル,0
441,2120903005940,新規,0,2025-11-11,2025-11-11,合同会社十彩,,合同会社,大阪府,高槻市,芝生町２丁目５６番１号,,27,207,5690823,,,,,,,2025-11-11,1,,,,,トイロ,0
444,2122001039862,新規,0,2025-11-11,2025-11-11,株式会社澤雉堂,,株式会社,大阪府,東大阪市,角田２丁目９番４４号,,27,227,5780912,,,,,,,2025-11-11,1,,,,,タクチドウ,0
447,2130003010907,新規,0,2025-11-11,2025-11-11,合同会社にこいち,,合同会社,京都府,京都市南区,吉祥院九条町１５番地１西大路ガーデンハイツＢ棟８１３号室,,26,107,6018328,,,,,,,2025-11-11,1,,,,,ニコイチ,0
448,2130003010915,新規,0,2025-11-11,2025-11-11,合同会社ｊＡＭ,,合同会社,京都府,向日市,森本町石田２１－１２,,26,208,6170003,,,,,,,2025-11-11,1,,,,,ジャム,0
457,2140001140671,新規,0,2025-11-11,2025-11-11,株式会社ＳＧ,,株式会社,兵庫県,尼崎市,塚口本町１丁目１８番１２－１号,,28,202,6610001,,,,,,,2025-11-11,1,,,,,エスジー,0
473,2180001169369,新規,0,2025-11-11,2025-11-11,株式会社ヒカリノマーケティング,,株式会社,愛知県,名古屋市中村区,名駅４丁目２４番５号第２森ビル４０１,,23,105,4500002,,,,,,,2025-11-11,1,,,,,ヒカリノマーケティング,0
474,2180001169443,新規,0,2025-11-11,2025-11-11,株式会社Ｈｅａｒｔｍａｄｅ　ｗｏｒｋｓ,,株式会社,愛知県,瀬戸市,羽根町１１２番地の１,,23,204,4890947,,,,,,,2025-11-11,1,,,,,ハートメイドワークス,0
475,2180001169451,新規,0,2025-11-11,2025-11-11,株式会社ＬＭＪ,,株式会社,愛知県,一宮市,大和町苅安賀字山王１３０番地,,23,203,4910934,,,,,,,2025-11-11,1,,,,,エルエムジェー,0
479,2180003029356,新規,0,2025-11-11,2025-11-11,合同会社名南,,合同会社,愛知県,海部郡大治町,大字西條字坂牧島６５番地の１,,23,424,4901144,,,,,,,2025-11-11,1,,,,,メイナン,0
496,2240001065751,新規,0,2025-11-11,2025-11-11,株式会社マイス,,株式会社,広島県,東広島市,西条町助実１６３８番地３,,34,212,7390021,,,,,,,2025-11-11,1,,,,,マイス,0
497,2240003007479,新規,0,2025-11-11,2025-11-11,合同会社ソリアス,,合同会社,広島県,広島市西区,草津新町１丁目２１番３５号,,34,104,7330834,,,,,,,2025-11-11,1,,,,,ソリアス,0
508,2290805009874,新規,0,2025-11-11,2025-11-11,一般社団法人若宮霊園,,その他の設立登記法人,福岡県,宮若市,沼口１５９０番地８,,40,226,8220152,,,,,,,2025-11-11,1,,,,,ワカミヤレイエン,0
510,2300005007272,新規,0,2025-11-11,2025-11-11,一般社団法人ｍａａＲｕ,,その他の設立登記法人,佐賀県,佐賀市,鍋島町大字八戸溝１３１２番地７,,41,201,8490932,,,,,,,2025-11-11,1,,,,,マール,0
514,2350001019795,新規,0,2025-11-11,2025-11-11,ネクストステップ株式会社,,株式会社,宮崎県,児湯郡高鍋町,大字上江４５５５番地４,,45,401,8840006,,,,,,,2025-11-11,1,,,,,ネクストステップ,0
515,2360003015379,新規,0,2025-11-11,2025-11-11,合同会社光進,,合同会社,沖縄県,那覇市,首里山川町１丁目１２７番地８,,47,201,9030825,,,,,,,2025-11-11,1,,,,,コウシン,0
522,2410003004178,新規,0,2025-11-11,2025-11-11,ｈａｓｕｎｏｈａ合同会社,,合同会社,秋田県,大仙市,福田町２２番１号の４,,05,212,0140021,,,,,,,2025-11-11,1,,,,,,0
525,2420001019334,新規,0,2025-11-11,2025-11-11,株式会社Ｋｓａｙ,,株式会社,青森県,青森市,金沢５丁目２１番３号,,02,201,0300853,,,,,,,2025-11-11,1,,,,,ケイセイ,0
531,2430001095597,新規,0,2025-11-11,2025-11-11,ジン不動産ホームデザイン株式会社,,株式会社,北海道,札幌市南区,澄川四条１丁目１番４０号,,01,106,0050004,,,,,,,2025-11-11,1,,,,,ジンフドウサンホームデザイン,0
536,2460103001756,新規,0,2025-11-11,2025-11-11,合同会社ＤＡＬＭＡＮ,,合同会社,北海道,帯広市,西二条南１丁目５番地２,,01,207,0800012,,,,,,,2025-11-11,1,,,,,ダルマン,0
538,2470001020956,新規,0,2025-11-11,2025-11-11,株式会社萬心,,株式会社,香川県,仲多度郡多度津町,大字山階２２３６番地４プランドール２０３号室,,37,404,7640034,,,,,,,2025-11-11,1,,,,,,0
539,2470001020972,新規,0,2025-11-11,2025-11-11,株式会社オフィスＣＵＮ‐ＷＡ,,株式会社,香川県,高松市,福岡町２丁目７番７号,,37,201,7600066,,,,,,,2025-11-11,1,,,,,オフィスクンワ,0
540,2480001013001,新規,0,2025-11-11,2025-11-11,株式会社ベリタス・クラ,,株式会社,徳島県,徳島市,中央通２丁目７－１エンゼル２１・３０２号室,,36,201,7700936,,,,,,,2025-11-11,1,,,,,ベリタスクラ,0
549,3010001260102,新規,0,2025-11-11,2025-11-11,静止気象衛星システムサービス株式会社,,株式会社,東京都,千代田区,丸の内１丁目５番１号,,13,101,1000005,,,,,,,2025-11-11,1,,,,,セイシキショウエイセイシステムサービス,0
550,3010001260176,新規,0,2025-11-11,2025-11-11,ワイズ・アセット・ジャパン株式会社,,株式会社,東京都,中央区,日本橋２丁目１３番１２号ＷｅＷｏｒｋ日本生命日本橋ビル内,,13,102,1030027,,,,,,,2025-11-11,1,,,,,ワイズアセットジャパン,0
551,3010001260184,新規,0,2025-11-11,2025-11-11,ＢＴホールディングス株式会社,,株式会社,東京都,千代田区,丸の内２丁目４番１号,,13,101,1000005,,,,,,,2025-11-11,1,,,,,ビーティーホールディングス,0
553,3010003049304,新規,0,2025-11-11,2025-11-11,Ｎ‐ＦＲＯ１合同会社,,合同会社,東京都,中央区,日本橋１丁目４番１号,,13,102,1030027,,,,,,,2025-11-11,1,,,,,エヌエフアールオーワン,0
554,3010003049337,新規,0,2025-11-11,2025-11-11,合同会社アメジスト,,合同会社,東京都,千代田区,二番町３番地麹町スクエア株式会社シリウス・アドバイザリー内,,13,101,1020084,,,,,,,2025-11-11,1,,,,,アメジスト,0
555,3010005040905,新規,0,2025-11-11,2025-11-11,デジタル東京ベイ１特定目的会社,,その他の設立登記法人,東京都,中央区,新富１丁目１５番３号ジパングアウトソーシングサービス株式会社内,,13,102,1040041,,,,,,,2025-11-11,1,,,,,デジタルトウキョウベイワン,0
563,3010401194296,新規,0,2025-11-11,2025-11-11,Ｓｕｎ　Ｒｉｓｅ　Ｐｏｗｅｒ株式会社,,株式会社,東京都,港区,芝浦２丁目１９番１－３１０５号,,13,103,1080023,,,,,,,2025-11-11,1,,,,,サンライズパワー,0
564,3010401194305,新規,0,2025-11-11,2025-11-11,株式会社ナチュラルアルプス,,株式会社,東京都,港区,芝浦１丁目９番４－８０７号,,13,103,1050023,,,,,,,2025-11-11,1,,,,,ナチュラルアルプス,0
565,3010401194404,新規,0,2025-11-11,2025-11-11,Ｎａｖｉｓｉａ株式会社,,株式会社,東京都,港区,港南２丁目１６番１号品川イーストワンタワー４階,,13,103,1080075,,,,,,,2025-11-11,1,,,,,ナビシア,0
566,3010401194420,新規,0,2025-11-11,2025-11-11,江河カーテンウォール日本株式会社,,株式会社,東京都,港区,浜松町２丁目３－８,,13,103,1050013,,,,,,,2025-11-11,1,,,,,コウカカーテンウォールニホン,0
570,3010403036323,新規,0,2025-11-11,2025-11-11,ＴＯＫＹＯ　ＰＯＰＣＯＲＮ合同会社,,合同会社,東京都,港区,新橋１丁目１８番地２１号第一日比谷ビル５Ｆ,,13,103,1050004,,,,,,,2025-11-11,1,,,,,トウキョウポップコーン,0
571,3010403036488,新規,0,2025-11-11,2025-11-11,合同会社Ｌ５ＷＯＲＫＳ,,合同会社,東京都,港区,北青山１丁目３番１号アールキューブ青山３階,,13,103,1070061,,,,,,,2025-11-11,1,,,,,エルファイブワークス,0
572,3010403036546,新規,0,2025-11-11,2025-11-11,菫合同会社,,合同会社,東京都,港区,赤坂６丁目３番２０号ＨＡＴビル９階ＬＰＡ外国法事務弁護士法人内,,13,103,1070052,,,,,,,2025-11-11,1,,,,,スミレ,0
573,3010403036579,新規,0,2025-11-11,2025-11-11,合同会社Ｒｏｕｎｄ　Ｂｅｌｌ,,合同会社,東京都,港区,北青山１丁目３－３三橋ビル３階,,13,103,1070061,,,,,,,2025-11-11,1,,,,,ラウンドベル,0
574,3010405024895,新規,0,2025-11-11,2025-11-11,特定目的会社ＴＳＭＺ１６,,その他の設立登記法人,東京都,港区,元赤坂１丁目１番７号,,13,103,1070051,,,,,,,2025-11-11,1,,,,,ティーエスエムゼットシックスティーン,0
575,3010405024978,新規,0,2025-11-11,2025-11-11,弁理士法人三好内外国特許事務所,,その他の設立登記法人,東京都,港区,虎ノ門１丁目２番８号虎ノ門琴平タワー,,13,103,1050001,,,,,,,2025-11-11,1,,,,,ミヨシナイガイコクコクサイトッキョジムショ,0
576,3010405025002,新規,0,2025-11-11,2025-11-11,一般社団法人未来創電ＲＥ２号,,その他の設立登記法人,東京都,港区,西新橋１丁目１８番１７号明産西新橋ビル３Ｆ,,13,103,1050003,,,,,,,2025-11-11,1,,,,,ミライソウデンアールイーニゴウ,0
578,3010501055002,新規,0,2025-11-11,2025-11-11,金田株式会社,,株式会社,東京都,台東区,東上野３丁目２８番４上野スカイハイツ６０３号室,,13,106,1100015,,,,,,,2025-11-11,1,,,,,カネダ,0
583,3010801036767,新規,0,2025-11-11,2025-11-11,株式会社Ｊａｐａｎ　Ｃｒｏｓｓ　Ｗｏｒｌｄ,,株式会社,東京都,大田区,南蒲田１丁目１－１５,,13,111,1440035,,,,,,,2025-11-11,1,,,,,ジャパンクロスワールド,0
593,3011001173442,新規,0,2025-11-11,2025-11-11,株式会社ｍｉ．,,株式会社,東京都,渋谷区,恵比寿西２丁目４番８号ウィンド恵比寿ビル８Ｆ,,13,113,1500021,,,,,,,2025-11-11,1,,,,,ミードット,0
595,3011003022861,新規,0,2025-11-11,2025-11-11,合同会社ＣＡＲＩＮＡ,,合同会社,東京都,渋谷区,神泉町１０番１５号アネックス神泉３０１,,13,113,1500045,,,,,,,2025-11-11,1,,,,,カリーナ,0
602,3011101113785,新規,0,2025-11-11,2025-11-11,株式会社Ｈａｓｈ　Ｗｏｒｋｓ,,株式会社,東京都,新宿区,新宿１丁目１６－１０－５Ｆ,,13,104,1600022,,,,,,,2025-11-11,1,,,,,ハッシュワークス,0
603,3011103016648,新規,0,2025-11-11,2025-11-11,エマルカヒーリング合同会社,,合同会社,東京都,新宿区,西新宿３丁目３番１３号西新宿水間ビル６階,,13,104,1600023,,,,,,,2025-11-11,1,,,,,エマルカヒーリング,0
604,3011103016689,新規,0,2025-11-11,2025-11-11,合同会社Ｋ＆Ｋ,,合同会社,東京都,新宿区,歌舞伎町１丁目６番７号三経３８ビル３Ｆ,,13,104,1600021,,,,,,,2025-11-11,1,,,,,ケーアンドケー,0
609,3011301031028,新規,0,2025-11-11,2025-11-11,しぇありん株式会社,,株式会社,東京都,杉並区,高円寺南４丁目２６番１９－３０６号高円寺ナショナルコート,,13,115,1660003,,,,,,,2025-11-11,1,,,,,シェアリン,0
611,3011401027561,新規,0,2025-11-11,2025-11-11,株式会社ＴＲＵＳＴ,,株式会社,東京都,板橋区,大和町３１番１２号,,13,119,1730012,,,,,,,2025-11-11,1,,,,,トラスト,0
617,3011503006769,新規,0,2025-11-11,2025-11-11,プラミ合同会社,,合同会社,東京都,荒川区,荒川１丁目１１番７－１０２号,,13,118,1160002,,,,,,,2025-11-11,1,,,,,プラミ,0
622,3011801047036,新規,0,2025-11-11,2025-11-11,株式会社Ｌ，Ｂ，Ｓ,,株式会社,東京都,葛飾区,亀有２丁目１番４号,,13,122,1250061,,,,,,,2025-11-11,1,,,,,エルビーエス,0
625,3012403007452,新規,0,2025-11-11,2025-11-11,合同会社葉,,合同会社,東京都,調布市,深大寺北町７丁目２９‐５,,13,208,1820011,,,,,,,2025-11-11,1,,,,,ヨウ,0
634,3013301055279,新規,0,2025-11-11,2025-11-11,株式会社Ｎｉｎｋ,,株式会社,東京都,豊島区,南池袋１丁目９番１８号,,13,116,1710022,,,,,,,2025-11-11,1,,,,,ニンク,0
636,3020001165507,新規,0,2025-11-11,2025-11-11,ＧＬＣ株式会社,,株式会社,神奈川県,川崎市高津区,下作延２丁目２３番１－２０１号,,14,134,2130033,,,,,,,2025-11-11,1,,,,,ジーエルシー,0
637,3020001165754,新規,0,2025-11-11,2025-11-11,株式会社Ｒａｄｉａｎｔ　Ｗｏｒｋｓ,,株式会社,神奈川県,横浜市金沢区,西柴２丁目１４番２３号,,14,108,2360017,,,,,,,2025-11-11,1,,,,,ラディアントワークス,0
638,3020001165770,新規,0,2025-11-11,2025-11-11,株式会社ｅｄｅｌｉｃａ,,株式会社,神奈川県,横浜市保土ケ谷区,帷子町２丁目５３番地１保土ケ谷パーク・ホームズビサイドステージ２０６,,14,106,2400013,,,,,,,2025-11-11,1,,,,,イーデリカ,0
664,3040001141266,新規,0,2025-11-11,2025-11-11,丸信機工ホールディングス株式会社,,株式会社,千葉県,八街市,上砂７０６番地８,,12,230,2891125,,,,,,,2025-11-11,1,,,,,マルシンキコウホールディングス,0
665,3040001141308,新規,0,2025-11-11,2025-11-11,株式会社ナノケアホールディングス,,株式会社,千葉県,市川市,柏井町２丁目３９番地１,,12,203,2720802,,,,,,,2025-11-11,1,,,,,ナノケアホールディングス,0
666,3040001141316,新規,0,2025-11-11,2025-11-11,株式会社志村電気,,株式会社,千葉県,柏市,高柳７８３番地１４,,12,217,2770941,,,,,,,2025-11-11,1,,,,,シムラデンキ,0
667,3040001141340,新規,0,2025-11-11,2025-11-11,ＨＩＲＡＳＯＵ株式会社,,株式会社,千葉県,四街道市,大日２２１４番地６５,,12,228,2840001,,,,,,,2025-11-11,1,,,,,ヒラソウ,0
668,3040003028932,新規,0,2025-11-11,2025-11-11,合同会社内田商会,,合同会社,千葉県,船橋市,習志野台１丁目２０－２３,,12,204,2740063,,,,,,,2025-11-11,1,,,,,ウチダショウカイ,0
671,3050001057560,新規,0,2025-11-11,2025-11-11,株式会社天貝タイヤサービス,,株式会社,茨城県,土浦市,高岡２２１３番地６,,08,203,3004117,,,,,,,2025-11-11,1,,,,,アマガイタイヤサービス,0
676,3070001043542,新規,0,2025-11-11,2025-11-11,株式会社ＭＩＫＩＲｙｏ,,株式会社,群馬県,高崎市,浜尻町９５７番地７,,10,202,3700005,,,,,,,2025-11-11,1,,,,,ミキリョ,0
681,3080101025893,新規,0,2025-11-11,2025-11-11,ＡＳＢＦｏｏｄｓ株式会社,,株式会社,静岡県,駿東郡清水町,卸団地２３５番地２階,,22,341,4110912,,,,,,,2025-11-11,1,,,,,エーエスビーフーズ,0
689,3110003005965,新規,0,2025-11-11,2025-11-11,合同会社Ｙｏｕ　Ｃｏｍｐａｎｙ,,合同会社,新潟県,新発田市,日渡２２番地１,,15,206,9570072,,,,,,,2025-11-11,1,,,,,ユウカンパニー,0
699,3120001281715,新規,0,2025-11-11,2025-11-11,Ｊアセットマネジメント株式会社,,株式会社,大阪府,大阪市阿倍野区,三明町２丁目１１番３４号,,27,119,5450005,,,,,,,2025-11-11,1,,,,,ジェイアセットマネジメント,0
700,3120001281797,新規,0,2025-11-11,2025-11-11,株式会社官兵衛,,株式会社,大阪府,大阪市中央区,千日前２丁目３番３３号１階,,27,128,5420074,,,,,,,2025-11-11,1,,,,,カンベエ,0
701,3120001281806,新規,0,2025-11-11,2025-11-11,株式会社云辰,,株式会社,大阪府,大阪市中央区,大手通１丁目３番９号,,27,128,5400021,,,,,,,2025-11-11,1,,,,,ユンシン,0
704,3120003031060,新規,0,2025-11-11,2025-11-11,ＴＥＫＩＴＯＣＯ合同会社,,合同会社,大阪府,大阪市北区,中津３丁目２３番１９号,,27,127,5310071,,,,,,,2025-11-11,1,,,,,テキトコ,0
705,3120003031184,新規,0,2025-11-11,2025-11-11,合同会社サードプレイス,,合同会社,大阪府,大阪市住吉区,清水丘３丁目３番３－８０２号,,27,120,5580033,,,,,,,2025-11-11,1,,,,,サードプレイス,0
707,3120005025242,新規,0,2025-11-11,2025-11-11,恩の泉一般社団法人,,その他の設立登記法人,大阪府,大阪市阿倍野区,阿倍野筋３丁目１０番１号あべのベルタＢ１３０号室,,27,119,5450052,,,,,,,2025-11-11,1,,,,,オンノイズミ,0
708,3120101072758,新規,0,2025-11-11,2025-11-11,大山電工株式会社,,株式会社,大阪府,藤井寺市,小山８丁目１４番６号,,27,226,5830033,,,,,,,2025-11-11,1,,,,,オオヤマデンコウ,0
721,3130003010922,新規,0,2025-11-11,2025-11-11,合同会社良和,,合同会社,京都府,京都市中京区,蛸薬師通堀川東入亀屋町２７６番地１Ｅ－ＳＰＡＡＡＣＥ烏丸１階,00141464,26,104,6048253,,,,,,,2025-11-11,1,,,,,リョウワ,0
724,3140001140679,新規,0,2025-11-11,2025-11-11,株式会社ＶＯＲＴＥＸ,,株式会社,兵庫県,尼崎市,久々知３丁目２６番２６号,,28,202,6610977,,,,,,,2025-11-11,1,,,,,ボルテックス,0
727,3160001027214,新規,0,2025-11-11,2025-11-11,株式会社ウェスコ,,株式会社,滋賀県,大津市,本堅田５丁目１６番２２号辻ビル３Ｆ,,25,201,5200242,,,,,,,2025-11-11,1,,,,,ウェスコ,0
733,3180001169426,新規,0,2025-11-11,2025-11-11,株式会社秀誠,,株式会社,愛知県,弥富市,五斗山４丁目１７５番地,,23,235,4901402,,,,,,,2025-11-11,1,,,,,シュウセイ,0
734,3180001169450,新規,0,2025-11-11,2025-11-11,株式会社ＮＫ工業,,株式会社,愛知県,名古屋市北区,若鶴町３０３番地ラ・トゥール１０１号,,23,103,4620006,,,,,,,2025-11-11,1,,,,,エヌケイコウギョウ,0
735,3180001169459,新規,0,2025-11-11,2025-11-11,Ｘｅｏｇｒａｐｈ　ＣＴ　Ｓｏｌｕｔｉｏｎ株式会社,,株式会社,愛知県,一宮市,冨田字漆畑７番地,,23,203,4940018,,,,,,,2025-11-11,1,,,,,ジオグラフシーティーソリューション,0
736,3180001169483,新規,0,2025-11-11,2025-11-11,株式会社Ｎｏｗｍｅ,,株式会社,愛知県,名古屋市中村区,名駅４丁目２４番５号第２森ビル４０１,,23,105,4500002,,,,,,,2025-11-11,1,,,,,ナウミー,0
742,3180003029231,新規,0,2025-11-11,2025-11-11,合同会社アクシス,,合同会社,愛知県,名古屋市中村区,高道町６丁目１０－２１,,23,105,4530037,,,,,,,2025-11-11,1,,,,,アクシス,0
743,3180003029322,新規,0,2025-11-11,2025-11-11,合同会社ＬＯＹＡＬ商会,,合同会社,愛知県,名古屋市熱田区,千年１丁目３番３２号,,23,109,4560054,,,,,,,2025-11-11,1,,,,,ロイヤルショウカイ,0
744,3180003029347,新規,0,2025-11-11,2025-11-11,合同会社モーメント,,合同会社,愛知県,名古屋市中区,葵２丁目１３－２４－６０１,,23,106,4600006,,,,,,,2025-11-11,1,,,,,モーメント,0
747,3180301040402,新規,0,2025-11-11,2025-11-11,株式会社幸林堂,,株式会社,愛知県,蒲郡市,緑町１８番６号,,23,214,4430048,,,,,,,2025-11-11,1,,,,,コウリンドウ,0
752,3190003005256,新規,0,2025-11-11,2025-11-11,合同会社ＲＧＣ,,合同会社,三重県,鈴鹿市,算所５丁目６‐２３,,24,207,5130806,,,,,,,2025-11-11,1,,,,,アールジーシー,0
756,3210001020378,新規,0,2025-11-11,2025-11-11,株式会社Ｔ５,,株式会社,福井県,敦賀市,清水町２丁目１４番２６号,,18,202,9140052,,,,,,,2025-11-11,1,,,,,ティーファイブ,0
766,3240001065759,新規,0,2025-11-11,2025-11-11,株式会社ＯＭｃｏｏｐｅｒａｔｉｏｎ,,株式会社,広島県,広島市西区,観音本町２丁目１０番１９号ハイツ観音２０４,,34,104,7330033,,,,,,,2025-11-11,1,,,,,オーエムコオペレーション,0
772,3260001040669,新規,0,2025-11-11,2025-11-11,株式会社ＦＬＥＸ,,株式会社,岡山県,笠岡市,中央町１５番地２０号,,33,205,7140088,,,,,,,2025-11-11,1,,,,,フレックス,0
773,3260001040727,新規,0,2025-11-11,2025-11-11,株式会社フォスティ,,株式会社,岡山県,岡山市北区,石関町５番１号,,33,101,7000813,,,,,,,2025-11-11,1,,,,,フォスティ,0
777,3290001112044,新規,0,2025-11-11,2025-11-11,株式会社喜多商,,株式会社,福岡県,太宰府市,五条１丁目８－６－３０６,,40,221,8180125,,,,,,,2025-11-11,1,,,,,キタショウ,0
778,3290001112184,新規,0,2025-11-11,2025-11-11,株式会社ｎｏｗｌ,,株式会社,福岡県,福岡市西区,今宿東１丁目８番６－３０１号サンピア今宿,,40,135,8190161,,,,,,,2025-11-11,1,,,,,ノウル,0
781,3290801032020,新規,0,2025-11-11,2025-11-11,ＳＥＮＳＥ株式会社,,株式会社,福岡県,行橋市,中央２丁目６番２５号,,40,213,8240005,,,,,,,2025-11-11,1,,,,,センス,0
795,3350001019794,新規,0,2025-11-11,2025-11-11,株式会社マチユメミライ,,株式会社,宮崎県,児湯郡高鍋町,大字上江８３３５番地２,,45,401,8840006,,,,,,,2025-11-11,1,,,,,マチユメミライ,0
798,3360005007316,新規,0,2025-11-11,2025-11-11,一般社団法人タマトラアーツアンドクラフツ,,その他の設立登記法人,沖縄県,南城市,玉城字玉城９３番地３,,47,215,9010604,,,,,,,2025-11-11,1,,,,,タマトラアーツアンドクラフツ,0
811,3410001014319,新規,0,2025-11-11,2025-11-11,株式会社入舟,,株式会社,秋田県,秋田市,千秋明徳町１番５６号ＮＥＷテラス広小路,,05,201,0100875,,,,,,,2025-11-11,1,,,,,イリフネ,0
828,3500001026619,新規,0,2025-11-11,2025-11-11,株式会社高橋商店,00141465,株式会社,愛媛県,東温市,北方２６９４番地７,,38,215,7910303,,,,,,,2025-11-11,1,,,,,タカハシショウテン,0
835,4010001260167,新規,0,2025-11-11,2025-11-11,株式会社グッドウェイキャリアデザイン,,株式会社,東京都,中央区,日本橋茅場町１丁目８番１号茅場町一丁目平和ビル２Ｆ,,13,102,1030025,,,,,,,2025-11-11,1,,,,,グッドウェイキャリアデザイン,0
836,4010001260183,新規,0,2025-11-11,2025-11-11,株式会社スパジオ,,株式会社,東京都,千代田区,二番町７番地１ミレニアムガーデンコート１１０１号,,13,101,1020084,,,,,,,2025-11-11,1,,,,,スパジオ,0
837,4010001260258,新規,0,2025-11-11,2025-11-11,株式会社Ｉｒｉｓｉｏｎ,,株式会社,東京都,千代田区,神田須田町１丁目７番８号,,13,101,1010041,,,,,,,2025-11-11,1,,,,,イリジオン,0
838,4010003048841,新規,0,2025-11-11,2025-11-11,合同会社カイト,,合同会社,東京都,中央区,銀座１丁目２２－１１,,13,102,1040061,,,,,,,2025-11-11,1,,,,,カイト,0
839,4010003049303,新規,0,2025-11-11,2025-11-11,クラウドオブアーツ合同会社,,合同会社,東京都,中央区,日本橋２丁目２番３号ＲＩＳＨＥビルＵＣＦ４階,,13,102,1030027,,,,,,,2025-11-11,1,,,,,クラウドオブアーツ,0
840,4010003049311,新規,0,2025-11-11,2025-11-11,由利大内風力合同会社,,合同会社,東京都,千代田区,麹町１丁目５番地６麹町トーセイビル９階,,13,101,1020083,,,,,,,2025-11-11,1,,,,,ユリオオウチフウリョク,0
841,4010003049336,新規,0,2025-11-11,2025-11-11,合同会社オニキス,,合同会社,東京都,千代田区,二番町３番地麹町スクエア株式会社シリウス・アドバイザリー内,,13,101,1020084,,,,,,,2025-11-11,1,,,,,オニキス,0
842,4010003049352,新規,0,2025-11-11,2025-11-11,合同会社ＢＥＹＯＮＤ　ＳＰＣ,,合同会社,東京都,千代田区,平河町１丁目６番１５号シルスフィア会計事務所内,,13,101,1020093,,,,,,,2025-11-11,1,,,,,ビヨンドエスピーシー,0
843,4010003049369,新規,0,2025-11-11,2025-11-11,ＦＣＳ　ＬＶ‐３合同会社,,合同会社,東京都,中央区,銀座６丁目１０番１号,,13,102,1040061,,,,,,,2025-11-11,1,,,,,エフシーエスエルブイスリー,0
844,4010003049377,新規,0,2025-11-11,2025-11-11,Ｐｌｕｒｉｔｅｃｔ合同会社,,合同会社,東京都,中央区,一丁目１２番４号,,13,102,1030000,,,,,,,2025-11-11,1,,,,,プルリテクト,0
855,4010401194139,新規,0,2025-11-11,2025-11-11,レニスファクトリー株式会社,,株式会社,東京都,港区,海岸３丁目７－１８ＡＬＴＯ－Ｂ１１０１,,13,103,1080022,,,,,,,2025-11-11,1,,,,,レニスファクトリー,0
856,4010401194337,新規,0,2025-11-11,2025-11-11,グリーン農研株式会社,,株式会社,東京都,港区,六本木６丁目１０番１六本木ヒルズ森タワー１６階,,13,103,1060032,,,,,,,2025-11-11,1,,,,,グリーンノウケン,0
857,4010401194353,新規,0,2025-11-11,2025-11-11,株式会社かさねぎ,,株式会社,東京都,港区,南麻布１丁目８番１３－２０２号,,13,103,1060047,,,,,,,2025-11-11,1,,,,,カサネギ,0
858,4010401194394,新規,0,2025-11-11,2025-11-11,株式会社リジライズ,,株式会社,東京都,港区,浜松町１丁目２７番１２号,,13,103,1050013,,,,,,,2025-11-11,1,,,,,リジライズ,0
859,4010401194436,新規,0,2025-11-11,2025-11-11,津川開發株式会社,,株式会社,東京都,港区,芝大門２丁目１２番５－６０１号,,13,103,1050012,,,,,,,2025-11-11,1,,,,,ツガワカイハツ,0
860,4010401194444,新規,0,2025-11-11,2025-11-11,株式会社ＲＮＡ,,株式会社,東京都,港区,西麻布１丁目１－５,,13,103,1060031,,,,,,,2025-11-11,1,,,,,アールエヌエー,0
863,4010403036529,新規,0,2025-11-11,2025-11-11,レスキューレーン合同会社,,合同会社,東京都,港区,北青山１丁目３－３三橋ビル３階,,13,103,1070061,,,,,,,2025-11-11,1,,,,,レスキューレーン,0
864,4010405024894,新規,0,2025-11-11,2025-11-11,一般社団法人日本ゼロトラスト・セキュリティ推進機構,,その他の設立登記法人,東京都,港区,芝２丁目１０番４号,,13,103,1050014,,,,,,,2025-11-11,1,,,,,ニホンゼロトラストセキュリティスイシンキコウ,0
867,4010501054977,新規,0,2025-11-11,2025-11-11,日本国際宝石鑑定株式会社,,株式会社,東京都,台東区,上野５丁目２２番１号,,13,106,1100005,,,,,,,2025-11-11,1,,,,,ニホンコクサイホウセキカンテイ,0
868,4010501055001,新規,0,2025-11-11,2025-11-11,ＭＩＲＡＶＡ株式会社,,株式会社,東京都,台東区,下谷３丁目１６－１２下谷第一サマリヤマンション５０３,,13,106,1100004,,,,,,,2025-11-11,1,,,,,ミラバ,0
888,4010705003821,新規,0,2025-11-11,2025-11-11,一般社団法人Ｓｉｎｅｔｉｎｅ,,その他の設立登記法人,東京都,品川区,戸越１丁目１３番２号,,13,109,1420041,,,,,,,2025-11-11,1,,,,,シャインティーン,0
893,4010903010347,新規,0,2025-11-11,2025-11-11,合同会社Ａｂｒｏ,,合同会社,東京都,世田谷区,代田６丁目１２番２６号,,13,112,1550033,,,,,,,2025-11-11,1,,,,,アブロ,0
897,4011001173441,新規,0,2025-11-11,2025-11-11,株式会社ナイモルジャパン,,株式会社,東京都,渋谷区,渋谷２丁目１９番１９号ワコー宮益坂ビル５階,,13,113,1500002,,,,,,,2025-11-11,1,,,,,ナイモルジャパン,0
898,4011001173623,新規,0,2025-11-11,2025-11-11,株式会社蔦屋重三郎商店,,株式会社,東京都,渋谷区,猿楽町１７番５号蔦屋書店３号館２階,,13,113,1500033,,,,,,,2025-11-11,1,,,,,ツタヤジュウザブロウ,0
899,4011001173664,新規,0,2025-11-11,2025-11-11,株式会社Ｒｅｙｂｓ,,株式会社,東京都,渋谷区,西原２丁目１５番１８号アルフラット代々木上原１０２,,13,113,1510066,,,,,,,2025-11-11,1,,,,,レイブス,0
902,4011003022794,新規,0,2025-11-11,2025-11-11,合同会社ベルクロッシュ,,合同会社,東京都,目黒区,大岡山１丁目４番５号,,13,110,1520033,,,,,,,2025-11-11,1,,,,,ベルクロッシュ,0
903,4011003022860,新規,0,2025-11-11,2025-11-11,合同会社Ｔ,,合同会社,東京都,渋谷区,恵比寿南１丁目２１番２２号－３０２,,13,113,1500022,,,,,,,2025-11-11,1,,,,,ティー,0
904,4011003022869,新規,0,2025-11-11,2025-11-11,オーセンティック・ブランズ・グループ・ジャパン合同会社,,合同会社,東京都,渋谷区,神宮前１丁目５番８号神宮前タワービルディング１３階１３１１号室,,13,113,1500001,,,,,,,2025-11-11,1,,,,,オーセンティックブランズグループジャパン,0
922,4011501032799,新規,0,2025-11-11,2025-11-11,株式会社ＨＡＶＮＡ,,株式会社,東京都,荒川区,西尾久３丁目１７－５－８０１,,13,118,1160011,,,,,,,2025-11-11,1,,,,,ハブナ,0
931,4012801024338,新規,0,2025-11-11,2025-11-11,株式会社ＣＨＡＬＯＮ,,株式会社,東京都,立川市,柏町４丁目５６番地の１０,,13,202,1900004,,,,,,,2025-11-11,1,,,,,シャロン,0
945,4020001165638,新規,0,2025-11-11,2025-11-11,かながわフィルム株式会社,,株式会社,神奈川県,横浜市泉区,下和泉３丁目１２番２１号,,14,116,2450021,,,,,,,2025-11-11,1,,,,,カナガワフィルム,0
949,4020003029741,新規,0,2025-11-11,2025-11-11,合同会社ＮＡＧＯＭＵ,,合同会社,神奈川県,川崎市川崎区,渡田新町３丁目７番１１号,,14,131,2100844,,,,,,,2025-11-11,1,,,,,ナゴム,0
950,4020003029782,新規,0,2025-11-11,2025-11-11,ＨＡＲＡ　ＬＩＦＥ　ＣＲＡＦＴＩＮＧ合同会社,,合同会社,神奈川県,川崎市中原区,上小田中２丁目２６番１号,,14,133,2110053,,,,,,,2025-11-11,1,,,,,ハラライフクラフティング,0
951,4021001086659,新規,0,2025-11-11,2025-11-11,ハーモニーイズヴァリュード株式会社,,株式会社,神奈川県,横須賀市,鴨居２丁目５４番３号,,14,201,2390813,,,,,,,2025-11-11,1,,,,,ハーモニーイズヴァリュード,0
965,4030001169571,新規,0,2025-11-11,2025-11-11,株式会社ランドリバー,,株式会社,埼玉県,川口市,前上町１７番８号,,11,203,3330843,,,,,,,2025-11-11,1,,,,,ランドリバー,0
966,4030001169654,新規,0,2025-11-11,2025-11-11,株式会社クリーンピース,,株式会社,埼玉県,朝霞市,溝沼４丁目２番７号,,11,227,3510023,,,,,,,2025-11-11,1,,,,,クリーンピース,0
968,4030003028057,新規,0,2025-11-11,2025-11-11,合同会社ネクストリンク,,合同会社,埼玉県,草加市,弁天４丁目１３番１０号トミーパレス２０１号,,11,221,3400004,,,,,,,2025-11-11,1,,,,,ネクストリンク,0
970,4030005022330,新規,0,2025-11-11,2025-11-11,一般社団法人みつば,,その他の設立登記法人,埼玉県,さいたま市北区,宮原町１丁目３４４番地,,11,102,3310812,,,,,,,2025-11-11,1,,,,,ミツバ,0
977,4040001141298,新規,0,2025-11-11,2025-11-11,周馬株式会社,,株式会社,千葉県,千葉市花見川区,幕張本郷２丁目６番６号タケミツ幕張本郷２０６,,12,102,2620033,,,,,,,2025-11-11,1,,,,,シュウマ,0
978,4040001141315,新規,0,2025-11-11,2025-11-11,ｄｏｂ株式会社,,株式会社,千葉県,松戸市,樋野口９１２番地の７オータムバレー２０３号,,12,207,2710067,,,,,,,2025-11-11,1,,,,,ディーオービー,0
979,4040001141323,新規,0,2025-11-11,2025-11-11,Ｓプランニング株式会社,,株式会社,千葉県,市原市,君塚３丁目１１番地２－Ｅ１０６,,12,219,2900051,,,,,,,2025-11-11,1,,,,,エスプランニング,0
980,4040001141331,新規,0,2025-11-11,2025-11-11,株式会社せおりつ,,株式会社,千葉県,八千代市,萱田２２３１番地３５,,12,221,2760043,,,,,,,2025-11-11,1,,,,,セオリツ,0
993,4050003009757,新規,0,2025-11-11,2025-11-11,合同会社アイエムフーズ,,合同会社,茨城県,稲敷市,犬塚１６１７－５,,08,229,3000507,,,,,,,2025-11-11,1,,,,,アイエムフーズ,0
997,4070001043541,新規,0,2025-11-11,2025-11-11,桐生メディテック株式会社,,株式会社,群馬県,桐生市,広沢町２丁目３３３０番地１,,10,203,3760013,,,,,,,2025-11-11,1,,,,,キリュウメディテック,0
1001,4080003003600,新規,0,2025-11-11,2025-11-11,合同会社中部緑化不動産,,合同会社,静岡県,焼津市,小柳津２８８番地の１,,22,212,4250073,,,,,,,2025-11-11,1,,,,,チュウブリョクカフドウサン,0
1012,4100003008472,新規,0,2025-11-11,2025-11-11,Ｐｅｋｏ　Ｐｅｋｏ合同会社,,合同会社,長野県,北安曇郡白馬村,大字北城２９４０－１５,,20,485,3999301,,,,,,,2025-11-11,1,,,,,ペコペコ,0
1015,4110001039717,新規,0,2025-11-11,2025-11-11,株式会社Ｌｉｇｈｔ　Ｏｆ　Ｈｏｐｅ,,株式会社,新潟県,新潟市北区,東栄町３丁目１２番５号コーポグリーン１０３号,,15,101,9503323,,,,,,,2025-11-11,1,,,,,ライトオブホープ,0
1033,4120001281771,新規,0,2025-11-11,2025-11-11,株式会社Ｎｅｏ　Ｅｖａｎ,,株式会社,大阪府,大阪市生野区,新今里４丁目８番３号,,27,116,5440001,,,,,,,2025-11-11,1,,,,,ネオエバン,0
1034,4120001281813,新規,0,2025-11-11,2025-11-11,株式会社ＲＭコーポレーション,,株式会社,大阪府,大阪市北区,堂島１丁目２番２１号,,27,127,5300003,,,,,,,2025-11-11,1,,,,,アールエムコーポレーション,0
1035,4120001281862,新規,0,2025-11-11,2025-11-11,Ｍｏｎｏｃｏｎｅ株式会社,,株式会社,大阪府,大阪市平野区,瓜破西１丁目７番３２号,,27,126,5470025,,,,,,,2025-11-11,1,,,,,モノコネ,0
1039,4120003031167,新規,0,2025-11-11,2025-11-11,合同会社ＭＡＨＯＲＯ,,合同会社,大阪府,大阪市淀川区,西中島５丁目１－８日研ビル５１１号室,,27,123,5320011,,,,,,,2025-11-11,1,,,,,マホロ,0
1040,4120003031200,新規,0,2025-11-11,2025-11-11,合同会社アスティラ,,合同会社,大阪府,大阪市天王寺区,味原町１３番１１号－２,,27,109,5430023,,,,,,,2025-11-11,1,,,,,アスティラ,0
1047,4120901051761,新規,0,2025-11-11,2025-11-11,北倉貿易株式会社,,株式会社,大阪府,吹田市,春日３丁目１９番２０号,,27,205,5650853,,,,,,,2025-11-11,1,,,,,キタクラボウエキ,0
1049,4120903005930,新規,0,2025-11-11,2025-11-11,合同会社一志,,合同会社,大阪府,高槻市,東五百住町２丁目１７－７,,27,207,5690811,,,,,,,2025-11-11,1,,,,,カズシ,0
1050,4120903005939,新規,0,2025-11-11,2025-11-11,Ｌ　ｕｐ合同会社,,合同会社,大阪府,茨木市,下穂積２丁目２番３２号,,27,211,5670041,,,,,,,2025-11-11,1,,,,,エルアップ,0
1053,4130001080999,新規,0,2025-11-11,2025-11-11,株式会社ＨＡＪＡＫＥ,,株式会社,京都府,京都市東山区,福稲柿本町５番地３,,26,105,6050985,,,,,,,2025-11-11,1,,,,,ハジャケ,0
1063,4140001140678,新規,0,2025-11-11,2025-11-11,株式会社ＬｉｆｅＯｎｅ,,株式会社,兵庫県,高砂市,荒井町小松原５丁目９番１５号,,28,216,6760011,,,,,,,2025-11-11,1,,,,,ライフワン,0
1064,4140001140686,新規,0,2025-11-11,2025-11-11,株式会社ホライズン・グリーン,,株式会社,兵庫県,明石市,大久保町福田１丁目７番９号,,28,203,6740066,,,,,,,2025-11-11,1,,,,,ホライズングリーン,0
1066,4140003022817,新規,0,2025-11-11,2025-11-11,合同会社ｒｅｇｕｌｕｓ,,合同会社,兵庫県,神崎郡福崎町,高橋５４４－１－３０３,,28,443,6792216,,,,,,,2025-11-11,1,,,,,レグルス,0
1067,4140005027681,新規,0,2025-11-11,2025-11-11,一般社団法人日本スポーツ救護看護学会,,その他の設立登記法人,兵庫県,神戸市中央区,熊内町５丁目９番１９号,,28,110,6510056,,,,,,,2025-11-11,1,,,,,ニホンスポーツキュウゴカンゴガッカイ,0
1068,4160001027205,新規,0,2025-11-11,2025-11-11,わいわいオート株式会社,,株式会社,滋賀県,守山市,大門町３２６番地６,,25,207,5240052,,,,,,,2025-11-11,1,,,,,ワイワイオート,0
1073,4180001169334,新規,0,2025-11-11,2025-11-11,株式会社コーエグ,,株式会社,愛知県,名古屋市中村区,日比津町１丁目２１番地１６号クレンリー３階,,23,105,4530061,,,,,,,2025-11-11,1,,,,,コーエグ,0
1074,4180001169474,新規,0,2025-11-11,2025-11-11,株式会社ＫＯＴＯ　ＤＥＳＩＧＮ,,株式会社,愛知県,名古屋市中区,栄１丁目１１番２５号歌舞伎町ビル地下一階,,23,106,4600008,,,,,,,2025-11-11,1,,,,,コトデザイン,0
1080,4180003029321,新規,0,2025-11-11,2025-11-11,龍裕合同会社,,合同会社,愛知県,名古屋市西区,名駅２丁目３４番１７号セントラル名古屋１１０１号,,23,104,4510045,,,,,,,2025-11-11,1,,,,,タツヒロ,0
1092,4190001032672,新規,0,2025-11-11,2025-11-11,株式会社土曜食販,,株式会社,三重県,鈴鹿市,南江島町１８番３７号,,24,207,5100235,,,,,,,2025-11-11,1,,,,,ドヨウショクハン,0
1108,4260005011541,新規,0,2025-11-11,2025-11-11,プラム監査法人,,その他の設立登記法人,岡山県,岡山市北区,今３丁目１０番１０号,,33,101,7000975,,,,,,,2025-11-11,1,,,,,プラム,0
1124,4350001019802,新規,0,2025-11-11,2025-11-11,ロジフード株式会社,,株式会社,宮崎県,宮崎市,大島町前田３３８－１,,45,201,8800824,,,,,,,2025-11-11,1,,,,,ロジフード,0
1134,4400003003559,新規,0,2025-11-11,2025-11-11,サクセス教育企画合同会社,,合同会社,岩手県,盛岡市,上田１丁目２番１０―２０３号,,03,201,0200066,,,,,,,2025-11-11,1,,,,,サクセスキョウイクキカク,0
1137,4430001095587,新規,0,2025-11-11,2025-11-11,株式会社ムーンアセット,,株式会社,北海道,札幌市北区,太平八条４丁目７番８号,,01,102,0028008,,,,,,,2025-11-11,1,,,,,ムーンアセット,0
1138,4430001095612,新規,0,2025-11-11,2025-11-11,Ｙ．Ｒ株式会社,,株式会社,北海道,札幌市西区,宮の沢一条４丁目１４番２５－４０６号,,01,107,0630051,,,,,,,2025-11-11,1,,,,,ワイアール,0
1139,4430001095620,新規,0,2025-11-11,2025-11-11,株式会社ＣＯＴＯＢＲＩＤＧＥ,,株式会社,北海道,札幌市東区,北四十五条東１０丁目６番５号,,01,103,0070845,,,,,,,2025-11-11,1,,,,,コトブリッジ,0
1140,4430003018307,新規,0,2025-11-11,2025-11-11,合同会社ハーティクス,,合同会社,北海道,岩見沢市,志文町２９７番地１０,,01,210,0680833,,,,,,,2025-11-11,1,,,,,ハーティクス,0
1150,4700150132923,新規,0,2025-11-11,2025-11-11,ｓｈｅｎｚｈｅｎｓｈｉｈａｏｈａｉｊｉａｂａｉｍａｏｙｉｙｏｕｘｉａｎｇｏｎｇｓｉ,,外国会社等,,,,,,,,Ｄ８６５，４ｔｈ　Ｆｌｏｏｒ，Ｂｕｉｌｄｉｎｇ　１，Ｄｅｔａｉ　Ｔｅｃｈｎｏｌｏｇｙ　Ｉｎｄｕｓｔｒｉａｌ　Ｐａｒｋ，Ｄａｌａｎｇ　Ｓｔｒｅｅｔ，Ｌｏｎｇｈｕａ　Ｄｉｓｔｒｉｃｔ，Ｓｈｅｎｚｈｅｎ　５１８１０９　ＣＮ,,,,,,2025-11-11,1,,,,,シンセンシハオハイジャバイマオイヨウシエンゴンスー,0
1159,5010001260034,新規,0,2025-11-11,2025-11-11,株式会社ＨＡＴＡＲＡＫＵ　ｔｏ,,株式会社,東京都,千代田区,神田神保町３丁目１１番６号神保町ビル１０Ｆ,,13,101,1010051,,,,,,,2025-11-11,1,,,,,ハタラクト,0
1162,5010003049335,新規,0,2025-11-11,2025-11-11,合同会社クリスタル,,合同会社,東京都,千代田区,二番町３番地麹町スクエア株式会社シリウス・アドバイザリー内,,13,101,1020084,,,,,,,2025-11-11,1,,,,,クリスタル,0
1167,5010401194179,新規,0,2025-11-11,2025-11-11,Ｑｕｒｉｏ株式会社,,株式会社,東京都,港区,北青山１丁目３番３号三橋ビル３階,,13,103,1070061,,,,,,,2025-11-11,1,,,,,キュリオ,0
1168,5010401194369,新規,0,2025-11-11,2025-11-11,株式会社ＳＵＧＡＴＥＣ,,株式会社,東京都,港区,北青山１丁目３－３三橋ビル３階,,13,103,1070061,,,,,,,2025-11-11,1,,,,,スガテック,0
1169,5010401194377,新規,0,2025-11-11,2025-11-11,株式会社Ａ＆Ｙ,,株式会社,東京都,港区,赤坂４丁目１４番１４－３４０２号,,13,103,1070052,,,,,,,2025-11-11,1,,,,,エーアンドワイ,0
1170,5010401194393,新規,0,2025-11-11,2025-11-11,株式会社ＣＡＲＴＡ　ＥＮＴＥＲＴＡＩＮＭＥＮＴ,,株式会社,東京都,港区,虎ノ門２丁目６番１号虎ノ門ヒルズステーションタワー３６階,,13,103,1050001,,,,,,,2025-11-11,1,,,,,カルタエンターテインメント,0
1171,5010401194419,新規,0,2025-11-11,2025-11-11,株式会社Ｌｉｎｏｆｕｓｅ,,株式会社,東京都,港区,北青山１丁目３番１号,,13,103,1070061,,,,,,,2025-11-11,1,,,,,リノフューズ,0
1172,5010403036313,新規,0,2025-11-11,2025-11-11,ライブベース合同会社,,合同会社,東京都,港区,港南４丁目１－６,,13,103,1080075,,,,,,,2025-11-11,1,,,,,ライブベース,0
1173,5010403036461,新規,0,2025-11-11,2025-11-11,合同会社Ｄａｔａ道場,,合同会社,東京都,港区,赤坂８丁目６－９－２１２,,13,103,1070052,,,,,,,2025-11-11,1,,,,,データドウジョウ,0
1174,5010403036494,新規,0,2025-11-11,2025-11-11,合同会社ＴＡＹＫＩＴ,,合同会社,東京都,港区,芝公園１丁目２－１７,,13,103,1050011,,,,,,,2025-11-11,1,,,,,テイキット,0
1175,5010403036544,新規,0,2025-11-11,2025-11-11,合同会社ＨＡＣＨＩＨＡＣＨＩ,,合同会社,東京都,港区,白金１丁目１３－７菱和パレス白金高輪駅前１００５,,13,103,1080072,,,,,,,2025-11-11,1,,,,,ハチハチ,0
1176,5010405024951,新規,0,2025-11-11,2025-11-11,トウキョウ・ステーション・サウス特定目的会社,,その他の設立登記法人,東京都,港区,虎ノ門３丁目２２番１０－２０１号,,13,103,1050001,,,,,,,2025-11-11,1,,,,,トウキョウステーションサウス,0
1183,5010705003820,新規,0,2025-11-11,2025-11-11,一般社団法人アースピース・ワークス,,その他の設立登記法人,東京都,品川区,西五反田８丁目１番１３号,,13,109,1410031,,,,,,,2025-11-11,1,,,,,アースピースワークス,0
1184,5010801036757,新規,0,2025-11-11,2025-11-11,株式会社ひとみｃｏｒｐｏｒａｔｉｏｎ,,株式会社,東京都,大田区,西蒲田６丁目３３番７号クリスタルパレス蒲西１階,,13,111,1440051,,,,,,,2025-11-11,1,,,,,ヒトミコーポレーション,0
1191,5011001173416,新規,0,2025-11-11,2025-11-11,株式会社ｗａｃｗａ,,株式会社,東京都,渋谷区,円山町５番３号ＭＩＥＵＸ渋谷ビル８階,,13,113,1500044,,,,,,,2025-11-11,1,,,,,,0
1192,5011001173696,新規,0,2025-11-11,2025-11-11,株式会社Ｒｅｃｏｍｅ,,株式会社,東京都,渋谷区,神南１丁目１１－４ＦＰＧリンクス神南５階,,13,113,1500041,,,,,,,2025-11-11,1,,,,,リカム,0
1193,5011003022934,新規,0,2025-11-11,2025-11-11,Ｎｒｅコンサル合同会社,,合同会社,東京都,渋谷区,幡ヶ谷３丁目８０番１９－３０３号,,13,113,1510072,,,,,,,2025-11-11,1,,,,,エヌアールイーコンサル,0
1200,5011101113949,新規,0,2025-11-11,2025-11-11,株式会社Ｍｅｊｏｒ８７,,株式会社,東京都,新宿区,西新宿３丁目３番１３号西新宿水間ビル６階,,13,104,1600023,,,,,,,2025-11-11,1,,,,,メホールハチナナ,0
1203,5011103016687,新規,0,2025-11-11,2025-11-11,合同会社Ｔｈｅ　Ｏｎｅ　Ｃｏｍｍｕｎｉｃａｔｉｏｎｓ,,合同会社,東京都,新宿区,西新宿３丁目３番１３号西新宿水間ビル６階,,13,104,1600023,,,,,,,2025-11-11,1,,,,,ザワンコミュニケーションズ,0
1211,5011401027551,新規,0,2025-11-11,2025-11-11,株式会社ＭＨＳ,,株式会社,東京都,板橋区,小茂根５丁目１３番３号,,13,119,1730037,,,,,,,2025-11-11,1,,,,,エムエイチエス,0
1213,5011601029158,新規,0,2025-11-11,2025-11-11,株式会社ｍａｒｕｎｃｏ,,株式会社,東京都,練馬区,春日町３丁目１２番１３号,,13,120,1790074,,,,,,,2025-11-11,1,,,,,マルンコ,0
1219,5012401043803,新規,0,2025-11-11,2025-11-11,株式会社ＰＡＳＡ,,株式会社,東京都,小金井市,桜町１丁目５番２０号,,13,210,1840005,,,,,,,2025-11-11,1,,,,,パサ,0
1221,5012403007450,新規,0,2025-11-11,2025-11-11,合同会社成悠,,合同会社,東京都,狛江市,岩戸北２丁目１１‐１５‐５１８,,13,219,2010004,,,,,,,2025-11-11,1,,,,,セイユウ,0
1226,5013101009854,新規,0,2025-11-11,2025-11-11,株式会社ネクサス,,株式会社,東京都,西多摩郡瑞穂町,大字殿ケ谷１０２７番地,,13,303,1901212,,,,,,,2025-11-11,1,,,,,ネクサス,0
1228,5013301055260,新規,0,2025-11-11,2025-11-11,株式会社ＳＴＡＧＥ,,株式会社,東京都,豊島区,西池袋５丁目１２番３号,,13,116,1710021,,,,,,,2025-11-11,1,,,,,ステージ,0
1237,5020001165653,新規,0,2025-11-11,2025-11-11,株式会社ヴァイス物流サービス,,株式会社,神奈川県,横浜市戸塚区,鳥が丘８８番地１２,,14,110,2440001,,,,,,,2025-11-11,1,,,,,ヴァイスブツリュウサービス,0
1238,5020003029765,新規,0,2025-11-11,2025-11-11,合同会社ＮＫＡプロモート,,合同会社,神奈川県,横浜市港北区,綱島西１丁目１５番１号ノエル綱島１０１,,14,109,2230053,,,,,,,2025-11-11,1,,,,,エヌケイエープロモート,0
1256,5030001169604,新規,0,2025-11-11,2025-11-11,星耀株式会社,,株式会社,埼玉県,入間郡毛呂山町,前久保南４丁目２８番地２,,11,326,3500463,,,,,,,2025-11-11,1,,,,,セイヨウ,0
1270,5040001141297,新規,0,2025-11-11,2025-11-11,株式会社ねねの杜,,株式会社,千葉県,市原市,姉崎２３７番地５,,12,219,2990111,,,,,,,2025-11-11,1,,,,,ネネノモリ,0
1271,5040001141306,新規,0,2025-11-11,2025-11-11,株式会社ＴＵＹＹ,,株式会社,千葉県,船橋市,二和西４丁目２５－３１,,12,204,2740806,,,,,,,2025-11-11,1,,,,,ティーユーワイワイ,0
1277,5040005022931,新規,0,2025-11-11,2025-11-11,医療法人社団流尽会,,その他の設立登記法人,千葉県,流山市,江戸川台東２丁目３１６番地２,,12,220,2700111,,,,,,,2025-11-11,1,,,,,リュウジンカイ,0
1278,5050001057559,新規,0,2025-11-11,2025-11-11,株式会社村Ｌａｂ,,株式会社,茨城県,鹿嶋市,大字浜津賀４８５番地３９,,08,222,3112203,,,,,,,2025-11-11,1,,,,,マチラボ,0
1282,5070001043540,新規,0,2025-11-11,2025-11-11,株式会社プレスパートナーズ,,株式会社,群馬県,伊勢崎市,寿町６０－２,,10,204,3720052,,,,,,,2025-11-11,1,,,,,,0
1298,5100001039106,新規,0,2025-11-11,2025-11-11,株式会社ガーデンメンテナンス,,株式会社,長野県,長野市,篠ノ井塩崎５８７８番地１,,20,201,3888014,,,,,,,2025-11-11,1,,,,,ガーデンメンテナンス,0
1314,5120001281853,新規,0,2025-11-11,2025-11-11,株式会社オークワン,,株式会社,大阪府,大阪市福島区,鷺洲３丁目１番１７－１６０４号,,27,103,5530002,,,,,,,2025-11-11,1,,,,,オークワン,0
1317,5120005025240,新規,0,2025-11-11,2025-11-11,一般社団法人照國,,その他の設立登記法人,大阪府,大阪市西区,西本町１丁目８番２号三晃ビル９０２号,,27,106,5500005,,,,,,,2025-11-11,1,,,,,ショウゴク,0
1318,5120101072748,新規,0,2025-11-11,2025-11-11,株式会社ＶＩＯ,,株式会社,大阪府,堺市南区,城山台５丁１番８１号,,27,145,5900137,,,,,,,2025-11-11,1,,,,,ビオ,0
1319,5120101072764,新規,0,2025-11-11,2025-11-11,よろずＤｅｓｉｇｎ株式会社,,株式会社,大阪府,和泉市,一条院町１３６番,,27,219,5940054,,,,,,,2025-11-11,1,,,,,ヨロズデザイン,0
1320,5120101072772,新規,0,2025-11-11,2025-11-11,株式会社ピース,,株式会社,大阪府,堺市中区,毛穴町４４５－１５,,27,142,5998266,,,,,,,2025-11-11,1,,,,,ピース,0
1321,5120103006811,新規,0,2025-11-11,2025-11-11,合同会社Ｚｅｎ,,合同会社,大阪府,堺市北区,百舌鳥梅北町４－１６なかもずマンション１０５,,27,146,5910000,,,,,,,2025-11-11,1,,,,,ゼン,0
1322,5120103006844,新規,0,2025-11-11,2025-11-11,合同会社Ｏｈａｎａ,,合同会社,大阪府,和泉市,和気町１丁目２２番１８号,,27,219,5940073,,,,,,,2025-11-11,1,,,,,オハナ,0
1326,5120903005938,新規,0,2025-11-11,2025-11-11,合同会社心海,,合同会社,大阪府,茨木市,蔵垣内３丁目２１番１５号,,27,211,5670878,,,,,,,2025-11-11,1,,,,,ココミ,0
1329,5122003003384,新規,0,2025-11-11,2025-11-11,合同会社Ｔｏｍｏ,,合同会社,大阪府,東大阪市,楠根１丁目１２番３－４０１号,,27,227,5770006,,,,,,,2025-11-11,1,,,,,トモ,0
1344,5140001140685,新規,0,2025-11-11,2025-11-11,株式会社ＬＵＸＳ,,株式会社,兵庫県,西宮市,越水町２－３ニューフタバサンモールＧ－１０１,,28,204,6620864,,,,,,,2025-11-11,1,,,,,ルクス,0
1348,5140005027689,新規,0,2025-11-11,2025-11-11,一般社団法人ＣＯＲＥＺＯ賞協会,,その他の設立登記法人,兵庫県,西宮市,東山台３丁目４３番地９,,28,204,6691133,,,,,,,2025-11-11,1,,,,,コレゾショウキョウカイ,0
1355,5150001028541,新規,0,2025-11-11,2025-11-11,株式会社きみとならトラベル,,株式会社,奈良県,宇陀市,榛原萩原２４４８番１号３０７号室,,29,212,6330253,,,,,,,2025-11-11,1,,,,,キミトナラトラベル,0
1356,5150003003740,新規,0,2025-11-11,2025-11-11,合同会社ＴＡＹＵＭ,,合同会社,奈良県,奈良市,荻町１１２９,,29,201,6320103,,,,,,,2025-11-11,1,,,,,タユム,0
1368,5180001169300,新規,0,2025-11-11,2025-11-11,株式会社ＧＲＥＥＮ,,株式会社,愛知県,名古屋市緑区,諸の木３丁目２１３,,23,114,4580817,,,,,,,2025-11-11,1,,,,,グリーン,0
1369,5180001169424,新規,0,2025-11-11,2025-11-11,株式会社ジブンラシサ,,株式会社,愛知県,名古屋市東区,徳川２丁目９番５号,,23,102,4610025,,,,,,,2025-11-11,1,,,,,ジブンラシサ,0
1370,5180001169465,新規,0,2025-11-11,2025-11-11,株式会社ホワイトリーフ,,株式会社,愛知県,瀬戸市,北脇町２２６番地１７,,23,204,4890918,,,,,,,2025-11-11,1,,,,,ホワイトリーフ,0
1379,5180003029337,新規,0,2025-11-11,2025-11-11,合同会社ＪＩＸ,,合同会社,愛知県,春日井市,美濃町３丁目５６番地,,23,206,4860917,,,,,,,2025-11-11,1,,,,,ジックス,0
1380,5180003029345,新規,0,2025-11-11,2025-11-11,合同会社ウィルコーポレーション,,合同会社,愛知県,春日井市,篠木町３丁目３番地２,,23,206,4860851,,,,,,,2025-11-11,1,,,,,ウィルコーポレーション,0
1386,5180301040409,新規,0,2025-11-11,2025-11-11,大場設備株式会社,,株式会社,愛知県,豊川市,宿町坂地６９番地１,,23,207,4410101,,,,,,,2025-11-11,1,,,,,,0
1388,5180303006705,新規,0,2025-11-11,2025-11-11,合同会社Ｚｅｎ　Ｍｏｔｏｒｓ,,合同会社,愛知県,碧南市,宮町６丁目２４７ビオテルム１０５号室,,23,209,4470835,,,,,,,2025-11-11,1,,,,,ゼンモーターズ,0
1398,5220001027016,新規,0,2025-11-11,2025-11-11,株式会社リーベル,,株式会社,石川県,白山市,相木町２２街区２番,,17,210,9240022,,,,,,,2025-11-11,1,,,,,リーベル,0
1400,5220003004161,新規,0,2025-11-11,2025-11-11,ラッキーカンパニー合同会社,,合同会社,石川県,野々市市,住吉町１番１０号,,17,212,9218813,,,,,,,2025-11-11,1,,,,,ラッキーカンパニー,0
1406,5240003007476,新規,0,2025-11-11,2025-11-11,合同会社ネクサス,,合同会社,広島県,広島市西区,古江西町２６番２５－４０１号,,34,104,7330874,,,,,,,2025-11-11,1,,,,,ネクサス,0
1416,5290001111977,新規,0,2025-11-11,2025-11-11,株式会社ふぁんだむ,,株式会社,福岡県,久留米市,三潴町早津崎６７７番地１アメニティタウンハウスＤ－１,,40,203,8300101,,,,,,,2025-11-11,1,,,,,ファンダム,0
1417,5290001112050,新規,0,2025-11-11,2025-11-11,株式会社オフィスナチュラルズ,,株式会社,福岡県,福岡市中央区,大名２丁目４番３８－４１５号,,40,133,8100041,,,,,,,2025-11-11,1,,,,,オフィスナチュラルズ,0
1418,5290001112059,新規,0,2025-11-11,2025-11-11,株式会社ＨＩＲＡＸＩＳ,,株式会社,福岡県,糸島市,長野１４８０番地４,,40,230,8191153,,,,,,,2025-11-11,1,,,,,ヒラクシス,0
1443,5350005006341,新規,0,2025-11-11,2025-11-11,みつば行政書士法人,,その他の設立登記法人,宮崎県,延岡市,北小路３６４８番地,,45,203,8820041,,,,,,,2025-11-11,1,,,,,ミツバ,0
1444,5360001035995,新規,0,2025-11-11,2025-11-11,株式会社Ｐａｔｉ設備設計,,株式会社,沖縄県,石垣市,字真栄里３３２番地１レイヴ石垣島真栄里３０２,,47,207,9070002,,,,,,,2025-11-11,1,,,,,パチセツビセッケイ,0
1446,5360005007314,新規,0,2025-11-11,2025-11-11,一般財団法人長嶺財団,,その他の設立登記法人,沖縄県,那覇市,泊１丁目３番地２,,47,201,9000012,,,,,,,2025-11-11,1,,,,,ナガミネザイダン,0
1452,5410005006665,新規,0,2025-11-11,2025-11-11,特定非営利活動法人つなごう秋田の歴史,,その他の設立登記法人,秋田県,秋田市,中通５丁目１番３１号,,05,201,0100001,,,,,,,2025-11-11,1,,,,,ツナゴウアキタノレキシ,0
1457,5430001095586,新規,0,2025-11-11,2025-11-11,株式会社アプローズレーシング,,株式会社,北海道,浦河郡浦河町,荻伏町５７３番地,,01,607,0593451,,,,,,,2025-11-11,1,,,,,アプローズレーシング,0
1458,5430001095628,新規,0,2025-11-11,2025-11-11,株式会社リブート,,株式会社,北海道,札幌市白石区,中央一条６丁目８番５－３０６号,,01,104,0030011,,,,,,,2025-11-11,1,,,,,リブート,0
1459,5430001095636,新規,0,2025-11-11,2025-11-11,株式会社はなまる,,株式会社,北海道,札幌市南区,真駒内２５４番地９４,,01,106,0050861,,,,,,,2025-11-11,1,,,,,ハナマル,0
1462,5430003018314,新規,0,2025-11-11,2025-11-11,合同会社Ｆｏｔｏｇｒａｆｉａ　Ｒｅｇａｌｏ,,合同会社,北海道,札幌市南区,川沿三条３丁目５－２１プレミアムレジデンスＤ号,,01,106,0050803,,,,,,,2025-11-11,1,,,,,フォトグラフィアレガロ,0
1464,5450003002737,新規,0,2025-11-11,2025-11-11,合同会社ＹＯＬＯ,,合同会社,北海道,宗谷郡猿払村,知来別４４９２番地１９,,01,511,0986341,,,,,,,2025-11-11,1,,,,,ヨーロー,0
1470,5500003003630,新規,0,2025-11-11,2025-11-11,合同会社Ｙ’ｓ　Ｆａｒｍ,,合同会社,愛媛県,松山市,山越３丁目６番３５号フジオハイツ３０６号,,38,201,7918013,,,,,,,2025-11-11,1,,,,,ワイズファーム,0
1472,5700150132922,新規,0,2025-11-11,2025-11-11,ｈａｎｇｚｈｏｕｃｈｅｎｆｅｎｇｋｅｊｉｙｏｕｘｉａｎｇｏｎｇｓｉ,,外国会社等,,,,,,,,ｚｈｅｊｉａｎｇｓｈｅｎｇｈａｎｇｚｈｏｕｓｈｉｘｉａｏｓｈａｎｑｕｊｉｎｇｊｉｊｉｓｈｕｋａｉｆａｑｕｊｉａｎｓｈｅｅｒｌｕ６６６ｈａｏｘｉｎｘｉｇａｎｇｌｉｕｑｉ５ｚｈｕａｎｇ７０１－３ｓｈｉ　３１１２００　ＣＮ,,,,,,2025-11-11,1,,,,,ハンゾウチェンフェンカギヨウシエンゴンスー,0
1480,6010001259991,新規,0,2025-11-11,2025-11-11,株式会社ベースマン,,株式会社,東京都,千代田区,神田錦町３丁目２０番地,,13,101,1010054,,,,,,,2025-11-11,1,,,,,ベースマン,0
1481,6010001260090,新規,0,2025-11-11,2025-11-11,ＧＲＣ　Ｊａｐａｎ株式会社,,株式会社,東京都,千代田区,霞が関３丁目２番６号東京倶楽部ビルディング１１階,,13,101,1000013,,,,,,,2025-11-11,1,,,,,ジーアールシージャパン,0
1482,6010001260173,新規,0,2025-11-11,2025-11-11,中国伝統非遺連鎖株式会社,,株式会社,東京都,千代田区,神田鍛冶町３丁目３－３高遠ビル４Ｆ,,13,101,1010045,,,,,,,2025-11-11,1,,,,,チュウゴクデントウヒイレンサ,0
1485,6010003049334,新規,0,2025-11-11,2025-11-11,ＫＭＲ合同会社,,合同会社,東京都,中央区,日本橋１丁目４番１号日本橋一丁目ビルディング,,13,102,1030027,,,,,,,2025-11-11,1,,,,,ケイエムアール,0
1486,6010003049367,新規,0,2025-11-11,2025-11-11,ＦＣＳ　ＬＶ‐４合同会社,,合同会社,東京都,中央区,銀座６丁目１０番１号,,13,102,1040061,,,,,,,2025-11-11,1,,,,,エフシーエスエルブイフォー,0
1487,6010101016954,新規,0,2025-11-11,2025-11-11,株式会社Ｙ２Ｎ,,株式会社,東京都,八王子市,久保山町２丁目３８番地６,,13,201,1920023,,,,,,,2025-11-11,1,,,,,ワイツーエヌ,0
1493,6010401193980,新規,0,2025-11-11,2025-11-11,Ｇｒａｓｅｒ　Ｔｅｃｈｎｏｌｏｇｙ株式会社,,株式会社,東京都,港区,海岸１丁目２－３汐留芝離宮ビルディング２１階,,13,103,1050022,,,,,,,2025-11-11,1,,,,,,0
1494,6010401194285,新規,0,2025-11-11,2025-11-11,株式会社美心笑,,株式会社,東京都,港区,浜松町１丁目１３番２号ホワイトタワー浜松町９０５号室,,13,103,1050013,,,,,,,2025-11-11,1,,,,,ビシンショウ,0
1495,6010401194302,新規,0,2025-11-11,2025-11-11,株式会社ＳＨＯ　ｍｅｄｉｃａｌ,,株式会社,東京都,港区,港南１丁目８番２３－２１０２号,,13,103,1080075,,,,,,,2025-11-11,1,,,,,エスエイチオーメディカル,0
1496,6010401194310,新規,0,2025-11-11,2025-11-11,株式会社モクたす,,株式会社,東京都,港区,北青山１丁目３番３号三橋ビル３階,,13,103,1070061,,,,,,,2025-11-11,1,,,,,モクタス,0
1497,6010401194335,新規,0,2025-11-11,2025-11-11,ニッチセールス株式会社,,株式会社,東京都,港区,北青山１丁目３番３号三橋ビル３階,,13,103,1070061,,,,,,,2025-11-11,1,,,,,ニッチセールス,0
1498,6010401194351,新規,0,2025-11-11,2025-11-11,株式会社日本橋山喜多,,株式会社,東京都,港区,赤坂３丁目１５番４号レアルタ赤坂ビル４階,,13,103,1070052,,,,,,,2025-11-11,1,,,,,ニホンバシヤマキタ,0
1499,6010401194368,新規,0,2025-11-11,2025-11-11,窪田アセットマネージメント株式会社,,株式会社,東京都,港区,三田１丁目１１番４３－６０１号,,13,103,1080073,,,,,,,2025-11-11,1,,,,,クボタアセットマネージメント,0
1504,6010403036485,新規,0,2025-11-11,2025-11-11,虎ノ門リアルター合同会社,,合同会社,東京都,港区,虎ノ門３丁目１４番１－１７０５号,,13,103,1050001,,,,,,,2025-11-11,1,,,,,トラノモンリアルター,0
1505,6010403036493,新規,0,2025-11-11,2025-11-11,合同会社サリーズ,,合同会社,東京都,港区,元麻布２丁目１－２０－７０１,,13,103,1060046,,,,,,,2025-11-11,1,,,,,サリーズ,0
1506,6010403036535,新規,0,2025-11-11,2025-11-11,ケイウォッシュ合同会社,,合同会社,東京都,港区,南麻布１丁目１番１４号,,13,103,1060047,,,,,,,2025-11-11,1,,,,,ケイウォッシュ,0
1507,6010403036568,新規,0,2025-11-11,2025-11-11,合同会社高輪情報通信工業,,合同会社,東京都,港区,高輪２丁目１番２４ー４０３号,,13,103,1080074,,,,,,,2025-11-11,1,,,,,タカナワジョウホウツウシンコウギョウ,0
1508,6010405024950,新規,0,2025-11-11,2025-11-11,ピーピーエフエー・ジャパン・フォーティーン特定目的会社,,その他の設立登記法人,東京都,港区,虎ノ門３丁目２２番１０－２０１号,,13,103,1050001,,,,,,,2025-11-11,1,,,,,ピーピーエフエージャパンフォーティーン,0
1511,6010601068256,新規,0,2025-11-11,2025-11-11,吉田家株式会社,,株式会社,東京都,江東区,千石３丁目３番１２号,,13,108,1350015,,,,,,,2025-11-11,1,,,,,ヨシダヤ,0
1512,6010603011908,新規,0,2025-11-11,2025-11-11,合同会社Ｎｅｘｔｒｙ,,合同会社,東京都,江東区,永代２丁目１番６号リバーサイド永代２０２,,13,108,1350034,,,,,,,2025-11-11,1,,,,,ネクストリー,0
1513,6010701048595,新規,0,2025-11-11,2025-11-11,株式会社シノノメ,,株式会社,東京都,品川区,東五反田２丁目１６番１－１８０３号,,13,109,1410022,,,,,,,2025-11-11,1,,,,,シノノメ,0
1514,6010801002683,新規,0,2025-11-11,2025-11-11,カナメ塗装工業株式会社,,株式会社,東京都,大田区,東糀谷６丁目４番１７号,,13,111,1440033,,,,,,,2025-11-11,1,,,,,,0
1516,6010801036764,新規,0,2025-11-11,2025-11-11,日康メディカル株式会社,,株式会社,東京都,大田区,大森南１丁目１９－４,,13,111,1430013,,,,,,,2025-11-11,1,,,,,ニッコウメディカル,0
1525,6011001173183,新規,0,2025-11-11,2025-11-11,株式会社ｋｌａｒ,,株式会社,東京都,渋谷区,円山町５番３号ＭＩＥＵＸ渋谷ビル８階,,13,113,1500044,,,,,,,2025-11-11,1,,,,,クラール,0
1526,6011001173398,新規,0,2025-11-11,2025-11-11,株式会社ＭＩＤＷＥＳＴ,,株式会社,東京都,渋谷区,神南１丁目６番１号,,13,113,1500041,,,,,,,2025-11-11,1,,,,,ミッドウエスト,0
1527,6011001173448,新規,0,2025-11-11,2025-11-11,株式会社Ｃｏｏｋｉｎｇｍａｇｉｃ,,株式会社,東京都,渋谷区,恵比寿南１丁目４番２号紀伊國屋ビル４階,,13,113,1500022,,,,,,,2025-11-11,1,,,,,クッキングマジック,0
1529,6011003022867,新規,0,2025-11-11,2025-11-11,合同会社Ｎｅｘｔ　Ｓｔａｇｅ,,合同会社,東京都,目黒区,下目黒１丁目１番１４号コノトラビル７Ｆ,,13,110,1530064,,,,,,,2025-11-11,1,,,,,ネクストステージ,0
1532,6011101113799,新規,0,2025-11-11,2025-11-11,株式会社くじらびとカンパニー,,株式会社,東京都,新宿区,須賀町２番５号,,13,104,1600018,,,,,,,2025-11-11,1,,,,,クジラビトカンパニー,0
1533,6011101113816,新規,0,2025-11-11,2025-11-11,東京若音株式会社,,株式会社,東京都,新宿区,新宿２丁目１２番１３号新宿アントレサロンビル２階,,13,104,1600022,,,,,,,2025-11-11,1,,,,,トウキョウワカネ,0
1534,6011101113881,新規,0,2025-11-11,2025-11-11,株式会社ｚｅｔｒｙ,,株式会社,東京都,新宿区,市谷田町３丁目１６,,13,104,1620843,,,,,,,2025-11-11,1,,,,,ゼトリー,0
1536,6011105011628,新規,0,2025-11-11,2025-11-11,一般社団法人アジア自販商業連合会,,その他の設立登記法人,東京都,新宿区,西新宿５丁目２４番１４－７０４号,,13,104,1600023,,,,,,,2025-11-11,1,,,,,アジアジハンショウギョウレンゴウカイ,0
1540,6011301031025,新規,0,2025-11-11,2025-11-11,株式会社オギワン不動産,,株式会社,東京都,杉並区,井草２丁目９番２号,,13,115,1670021,,,,,,,2025-11-11,1,,,,,オギワンフドウサン,0
1542,6011401027559,新規,0,2025-11-11,2025-11-11,株式会社Ｋｍ．ｇｏｏｄｗｉｌｌ,,株式会社,東京都,板橋区,熊野町１番８号エスレジデンス板橋大山４０１,,13,119,1730025,,,,,,,2025-11-11,1,,,,,ケーエムグッドウィル,0
1546,6011601029157,新規,0,2025-11-11,2025-11-11,ＣＡＲＩＤＡ株式会社,,株式会社,東京都,練馬区,氷川台２丁目７－１７セドルハイム氷川台２Ｂ１０５号室,,13,120,1790084,,,,,,,2025-11-11,1,,,,,カリダ,0
1549,6011603004918,新規,0,2025-11-11,2025-11-11,合同会社電気システム設計研究所,,合同会社,東京都,練馬区,豊玉北６丁目６番１７号,,13,120,1760012,,,,,,,2025-11-11,1,,,,,デンキシステムセッケイケンキュウジョ,0
1550,6011701028918,新規,0,2025-11-11,2025-11-11,株式会社ジョイント,,株式会社,東京都,江戸川区,中葛西７丁目６番１７号メゾン石橋Ｂ,,13,123,1340083,,,,,,,2025-11-11,1,,,,,ジョイント,0
1557,6012401043802,新規,0,2025-11-11,2025-11-11,株式会社折り紙,,株式会社,東京都,稲城市,東長沼５１６－２ＳＨＡＲＥ・ＤＥＰＡＲＴＭＥＮＴ稲城長沼,,13,225,2060802,,,,,,,2025-11-11,1,,,,,オリガミ,0
1572,6020001165751,新規,0,2025-11-11,2025-11-11,株式会社アルプスエナジー,,株式会社,神奈川県,横浜市神奈川区,鶴屋町１丁目８番地１,,14,102,2210835,,,,,,,2025-11-11,1,,,,,アルプスエナジー,0
1575,6020005017024,新規,0,2025-11-11,2025-11-11,特定非営利活動法人共創コミュニティｍｉｄｏｒｉ‐ｂａ,,その他の設立登記法人,神奈川県,川崎市中原区,井田杉山町３番１号長瀬ビル１０４号,,14,133,2110036,,,,,,,2025-11-11,1,,,,,キョウソウコミュニティミドリバ,0
1580,6021001086772,新規,0,2025-11-11,2025-11-11,株式会社ふるさぽーと,,株式会社,神奈川県,藤沢市,西俣野５３番地の６,,14,205,2520812,,,,,,,2025-11-11,1,,,,,フルサポート,0
1592,6030001169628,新規,0,2025-11-11,2025-11-11,株式会社グルーブキャンバス,,株式会社,埼玉県,春日部市,粕壁東１丁目１５番３４－１００１号エクレール春日部ＩＩＩ,00141461,11,214,3440062,,,,,,,2025-11-11,1,,,,,グルーブキャンバス,0
1593,6030001169644,新規,0,2025-11-11,2025-11-11,安住リアルエステート株式会社,,株式会社,埼玉県,戸田市,下前１丁目１４番８－７０８号,,11,224,3350016,,,,,,,2025-11-11,1,,,,,アズミリアルエステート,0
1599,6030005022337,新規,0,2025-11-11,2025-11-11,医療法人社団櫻優会,,その他の設立登記法人,埼玉県,所沢市,東町１２番１０号ブランズタワー所沢２階,,11,208,3591116,,,,,,,2025-11-11,1,,,,,オウユウカイ,0
1612,6050001057541,新規,0,2025-11-11,2025-11-11,株式会社千草不動産,,株式会社,茨城県,つくば市,宝陽台２８番地２,,08,220,3001254,,,,,,,2025-11-11,1,,,,,チグサフドウサン,0
1613,6050001057566,新規,0,2025-11-11,2025-11-11,株式会社Ｓ．Ｓ　Ｓｉｇｎ,,株式会社,茨城県,つくばみらい市,伊奈東７０番地２５,,08,235,3002308,,,,,,,2025-11-11,1,,,,,エスエスサイン,0
1614,6050001057574,新規,0,2025-11-11,2025-11-11,株式会社石塚建設,,株式会社,茨城県,小美玉市,羽鳥２３５２番地３７６吉田住宅５号棟,,08,236,3190123,,,,,,,2025-11-11,1,,,,,イシツカケンセツ,0
1618,6070003006189,新規,0,2025-11-11,2025-11-11,ＡＥＲＮＯ合同会社,,合同会社,群馬県,邑楽郡大泉町,大字寄木戸９７７番地の７,,10,524,3700535,,,,,,,2025-11-11,1,,,,,,0
1619,6070005010445,新規,0,2025-11-11,2025-11-11,めいわ税理士法人,,その他の設立登記法人,群馬県,高崎市,問屋町４丁目７番地８,,10,202,3700006,,,,,,,2025-11-11,1,,,,,,0
1627,6100003008470,新規,0,2025-11-11,2025-11-11,Ｓａｍｐｏ‐ｙｏｓｈｉ合同会社,,合同会社,長野県,木曽郡木曽町,日義４８９８－５５４,,20,432,3996101,,,,,,,2025-11-11,1,,,,,サンポーヨシ,0
1630,6110001039707,新規,0,2025-11-11,2025-11-11,株式会社Ｂｏｎｄ,,株式会社,新潟県,新潟市東区,幸栄３丁目１３番１３号２０１,,15,102,9500022,,,,,,,2025-11-11,1,,,,,ボンド,0
1632,6110003005962,新規,0,2025-11-11,2025-11-11,合同会社ＦＡＣＴ,,合同会社,新潟県,新潟市東区,山木戸８丁目１番５号,,15,102,9500871,,,,,,,2025-11-11,1,,,,,ファクト,0
1646,6120001281274,新規,0,2025-11-11,2025-11-11,株式会社フィラーレ,,株式会社,大阪府,枚方市,岡山手町１２－５５,,27,210,5730034,,,,,,,2025-11-11,1,,,,,フィラーレ,0
1647,6120001281712,新規,0,2025-11-11,2025-11-11,関西マリンエンジニアリング株式会社,,株式会社,大阪府,大阪市天王寺区,勝山１丁目１番５号,,27,109,5430043,,,,,,,2025-11-11,1,,,,,カンサイマリンエンジニアリング,0
1648,6120001281786,新規,0,2025-11-11,2025-11-11,Ｔｗｅｎｔｙホールディングス株式会社,,株式会社,大阪府,大阪市北区,西天満４丁目１２番１５号重光ビル５階,,27,127,5300047,,,,,,,2025-11-11,1,,,,,トゥエンティホールディングス,0
1649,6120001281811,新規,0,2025-11-11,2025-11-11,株式会社コルポ,,株式会社,大阪府,大阪市中央区,南久宝寺町１丁目６番１号,,27,128,5410058,,,,,,,2025-11-11,1,,,,,コルポ,0
1654,6120003031198,新規,0,2025-11-11,2025-11-11,ＧＬ合同会社,,合同会社,大阪府,大阪市城東区,今福東３丁目１７番１３号ハイマートすみれ５１３室,,27,118,5360002,,,,,,,2025-11-11,1,,,,,ジーエル,0
1655,6120003031207,新規,0,2025-11-11,2025-11-11,合同会社ふるしー,,合同会社,大阪府,大阪市北区,梅田１丁目２番２号大阪駅前第２ビル１２－１２,,27,127,5300001,,,,,,,2025-11-11,1,,,,,フルシー,0
1656,6120101072739,新規,0,2025-11-11,2025-11-11,レイズ株式会社,,株式会社,大阪府,富田林市,大字彼方３６番地５,,27,214,5840058,,,,,,,2025-11-11,1,,,,,レイズ,0
1659,6120901051801,新規,0,2025-11-11,2025-11-11,株式会社Ｐｏｓｉｔｉｖｅ　Ａｋｉｎｄｏ,,株式会社,大阪府,三島郡島本町,桜井４丁目１７番３号,,27,301,6180022,,,,,,,2025-11-11,1,,,,,ポジティブアキンド,0
1660,6122001039850,新規,0,2025-11-11,2025-11-11,株式会社ＡＬＥＳ,,株式会社,大阪府,四條畷市,江瀬美町１８番１９号,,27,229,5750034,,,,,,,2025-11-11,1,,,,,アレス,0
1670,6130003010911,新規,0,2025-11-11,2025-11-11,合同会社ボルト,,合同会社,京都府,京都市右京区,太秦垂箕山町１－７６,,26,108,6168174,,,,,,,2025-11-11,1,,,,,ボルト,0
1679,6140001140619,新規,0,2025-11-11,2025-11-11,株式会社ＥＷホールディングス,,株式会社,兵庫県,神戸市中央区,三宮町２丁目５番１号,,28,110,6500021,,,,,,,2025-11-11,1,,,,,イーダブリューホールディングス,0
1680,6140001140742,新規,0,2025-11-11,2025-11-11,株式会社ＤＥＳＴＩＮＹスタジオ,,株式会社,兵庫県,神戸市北区,桜森町１６－１５,,28,109,6511214,,,,,,,2025-11-11,1,,,,,デステニースタジオ,0
1683,6140003022773,新規,0,2025-11-11,2025-11-11,合同会社弥勒物流,,合同会社,兵庫県,姫路市,南今宿８番３０号ダイキビル３階,,28,201,6700054,,,,,,,2025-11-11,1,,,,,ミロクブツリュウ,0
1686,6150001028540,新規,0,2025-11-11,2025-11-11,株式会社ｒａｂｂｙｎｕｔｓ,,株式会社,奈良県,御所市,大字楢原３７６番地,00141472,29,208,6392313,,,,,,,2025-11-11,1,,,,,ラビナッツ,0
1697,6180001169340,新規,0,2025-11-11,2025-11-11,株式会社フラットパートナーズ,,株式会社,愛知県,名古屋市中区,錦２丁目５‐５八木兵伝馬町ビル３Ｆ３４３,,23,106,4600003,,,,,,,2025-11-11,1,,,,,フラットパートナーズ,0
1698,6180001169365,新規,0,2025-11-11,2025-11-11,東海エコ株式会社,,株式会社,愛知県,春日井市,勝川町８丁目８－１,,23,206,4860945,,,,,,,2025-11-11,1,,,,,トウカイエコ,0
1699,6180001169431,新規,0,2025-11-11,2025-11-11,つながり株式会社,,株式会社,愛知県,名古屋市中村区,名駅４丁目２４番５号第２森ビル４０１,,23,105,4500002,,,,,,,2025-11-11,1,,,,,ツナガリ,0
1700,6180001169456,新規,0,2025-11-11,2025-11-11,株式会社Ｌｕｍｉｎｏｕｓ　Ｌａｂ,,株式会社,愛知県,一宮市,新生２丁目５－３０ルミナスパレス一宮駅西４０３,,23,203,4910912,,,,,,,2025-11-11,1,,,,,ルミナスラボ,0
1701,6180001169472,新規,0,2025-11-11,2025-11-11,ＹＧＫ株式会社,,株式会社,愛知県,丹羽郡扶桑町,大字柏森字花立９４番地,,23,362,4800103,,,,,,,2025-11-11,1,,,,,ワイジーケー,0
1702,6180001169489,新規,0,2025-11-11,2025-11-11,株式会社ＲＥＳＩＤＥＮＣＥ　ＣＯＮＣＩＥＲＧＥ,,株式会社,愛知県,名古屋市中区,錦１丁目７番３４号ＨＦ名古屋錦ビルディング７０５,,23,106,4600003,,,,,,,2025-11-11,1,,,,,レジデンスコンサージュ,0
1705,6180003029328,新規,0,2025-11-11,2025-11-11,合同会社ミールス,,合同会社,愛知県,名古屋市瑞穂区,十六町２丁目２９－１,,23,108,4670015,,,,,,,2025-11-11,1,,,,,ミールス,0
1706,6180003029352,新規,0,2025-11-11,2025-11-11,Ｔｏｐ　Ｓｐｏｔ合同会社,,合同会社,愛知県,名古屋市千種区,星ケ丘２丁目３９番地６－３０１,,23,101,4640801,,,,,,,2025-11-11,1,,,,,トップスポット,0
1709,6180303006803,新規,0,2025-11-11,2025-11-11,Ｈ２Ｓ合同会社,,合同会社,愛知県,豊橋市,野依町字西川４１番地の１,,23,201,4418124,,,,,,,2025-11-11,1,,,,,エイチツウエス,0
1712,6190001032687,新規,0,2025-11-11,2025-11-11,１０サービス株式会社,,株式会社,三重県,桑名市,大字西方８６３番地２,,24,205,5110864,,,,,,,2025-11-11,1,,,,,イチマルサービス,0
1713,6200001044400,新規,0,2025-11-11,2025-11-11,株式会社繁栄,,株式会社,岐阜県,羽島郡岐南町,三宅４丁目１９２番地の１・２Ｆ,,21,302,5016002,,,,,,,2025-11-11,1,,,,,ハンエイ,0
1720,6220003004160,新規,0,2025-11-11,2025-11-11,合同会社金沢,,合同会社,石川県,金沢市,片町２丁目２３番７号,,17,201,9200981,,,,,,,2025-11-11,1,,,,,カナザワ,0
1724,6240001065756,新規,0,2025-11-11,2025-11-11,甦龍株式会社,,株式会社,広島県,尾道市,向東町１２０番地,,34,205,7220062,,,,,,,2025-11-11,1,,,,,ソリュウ,0
1729,6250003003845,新規,0,2025-11-11,2025-11-11,合同会社一真工業,,合同会社,山口県,下関市,秋根東町５番１８号セジュールハイネスＡ棟１０１号,,35,201,7510877,,,,,,,2025-11-11,1,,,,,イッシンコウギョウ,0
1731,6260001040724,新規,0,2025-11-11,2025-11-11,株式会社ＫＡＺＵ,,株式会社,岡山県,岡山市北区,辰巳２２番地１０５,,33,101,7000976,,,,,,,2025-11-11,1,,,,,カズ,0
1736,6290001112066,新規,0,2025-11-11,2025-11-11,ＮＳ　ＫＩＤ株式会社,,株式会社,福岡県,福岡市博多区,比恵町１７－１２,,40,132,8120014,,,,,,,2025-11-11,1,,,,,エヌエスキッド,0
1737,6290001112108,新規,0,2025-11-11,2025-11-11,株式会社ハンガイ,,株式会社,福岡県,筑紫野市,光が丘４丁目５番地８,,40,217,8180036,,,,,,,2025-11-11,1,,,,,ハンガイ,0
1738,6290001112132,新規,0,2025-11-11,2025-11-11,株式会社旭日,,株式会社,福岡県,糟屋郡須惠町,大字植木１１０２番地５,,40,344,8112112,,,,,,,2025-11-11,1,,,,,アサヒ,0
1744,6290003017676,新規,0,2025-11-11,2025-11-11,合同会社ハカテック,,合同会社,福岡県,福岡市中央区,天神２丁目２番１２号Ｔ＆Ｊビルディング７Ｆ,,40,133,8100001,,,,,,,2025-11-11,1,,,,,ハカテック,0
1754,6340001027770,新規,0,2025-11-11,2025-11-11,株式会社夢まるＧａＲＤｅＮ,,株式会社,鹿児島県,西之表市,安城１９６３番地,,46,213,8913432,,,,,,,2025-11-11,1,,,,,ユメマルガーデン,0
1755,6360001036010,新規,0,2025-11-11,2025-11-11,ティダヌファ株式会社,,株式会社,沖縄県,石垣市,字登野城６２９番地,,47,207,9070004,,,,,,,2025-11-11,1,,,,,ティダヌファ,0
1758,6360003015383,新規,0,2025-11-11,2025-11-11,合同会社世界のたけし,,合同会社,沖縄県,那覇市,泊３丁目６番地１０フレスコ泊ゆいポート７０４号室,,47,201,9000012,,,,,,,2025-11-11,1,,,,,セカイノタケシ,0
1773,6430001095643,新規,0,2025-11-11,2025-11-11,株式会社ユーティリティー,,株式会社,北海道,札幌市東区,東苗穂十三条４丁目５番３０号,,01,103,0070813,,,,,,,2025-11-11,1,,,,,ユーティリティー,0
1775,6430003018296,新規,0,2025-11-11,2025-11-11,合同会社シモーズ,,合同会社,北海道,札幌市清田区,清田二条３丁目１番５号,,01,110,0040842,,,,,,,2025-11-11,1,,,,,シモーズ,0
1776,6460105002328,新規,0,2025-11-11,2025-11-11,一般社団法人自生種研究会,,その他の設立登記法人,北海道,河東郡音更町,木野大通東９丁目３番地１５,,01,631,0800111,,,,,,,2025-11-11,1,,,,,ジセイシュケンキュウカイ,0
1777,6460305002029,新規,0,2025-11-11,2025-11-11,一般社団法人日本ロープレスキュー協会,,その他の設立登記法人,北海道,斜里郡小清水町,南町１丁目３４番５号,,01,547,0993642,,,,,,,2025-11-11,1,,,,,ニホンロープレスキューキョウカイ,0
1778,6460401001272,新規,0,2025-11-11,2025-11-11,雲丹ひら山株式会社,,株式会社,北海道,根室市,西浜町８丁目１２３番地５,,01,223,0870025,,,,,,,2025-11-11,1,,,,,ウニヒラヤマ,0
1786,6500001026616,新規,0,2025-11-11,2025-11-11,株式会社アユシュリー,,株式会社,愛媛県,松山市,本町３丁目２番地２１,,38,201,7900811,,,,,,,2025-11-11,1,,,,,アユシュリー,0
1789,6700150025324,新規,0,2025-11-11,2015-10-09,豊中市体育連盟,,その他,大阪府,豊中市,服部西町４丁目１３－２豊中市立武道館ひびき内,,27,203,5610858,,,,,,,2015-10-09,1,,,,,トヨナカシタイイクレンメイ,0
1794,7010001260148,新規,0,2025-11-11,2025-11-11,株式会社ロイヤル・トラスト・パートナーズ,,株式会社,東京都,千代田区,丸の内１丁目１１番１号パシフィックセンチュリープレイス丸の内１３階,,13,101,1000005,,,,,,,2025-11-11,1,,,,,ロイヤルトラストパートナーズ,0
1795,7010001260214,新規,0,2025-11-11,2025-11-11,Ｌｉｎｅｓｔ株式会社,,株式会社,東京都,中央区,八重洲１丁目６番１号,,13,102,1030028,,,,,,,2025-11-11,1,,,,,リネスト,0
1804,7010003049201,新規,0,2025-11-11,2025-11-11,ソフィグラ合同会社,,合同会社,東京都,中央区,銀座１丁目１２番４号Ｎ＆ＥＢＬＤ．６Ｆ,,13,102,1040061,,,,,,,2025-11-11,1,,,,,ソフィグラ,0
1805,7010003049250,新規,0,2025-11-11,2025-11-11,合同会社カエル買取,,合同会社,東京都,中央区,銀座１丁目２２番１１号銀座大竹ビジデンス２Ｆ,,13,102,1040061,,,,,,,2025-11-11,1,,,,,カエルカイトリ,0
1806,7010003049366,新規,0,2025-11-11,2025-11-11,ＦＣＳ　ＬＶ‐２合同会社,,合同会社,東京都,中央区,銀座６丁目１０番１号,,13,102,1040061,,,,,,,2025-11-11,1,,,,,エフシーエスエルブイツー,0
1807,7010003049399,新規,0,2025-11-11,2025-11-11,ＳＷ合同会社,,合同会社,東京都,中央区,日本橋人形町１丁目７番１０号,,13,102,1030013,,,,,,,2025-11-11,1,,,,,エスダブリュ,0
1819,7010401194292,新規,0,2025-11-11,2025-11-11,株式会社石鳳,,株式会社,東京都,港区,白金台４丁目５番７号,,13,103,1080071,,,,,,,2025-11-11,1,,,,,セキホウ,0
1820,7010401194359,新規,0,2025-11-11,2025-11-11,株式会社りりあ,,株式会社,東京都,港区,六本木１丁目８番７号ＭＦＰＲ六本木麻布台ビル１１階ベリーベスト法律事務所内,,13,103,1060032,,,,,,,2025-11-11,1,,,,,リリア,0
1821,7010401194367,新規,0,2025-11-11,2025-11-11,株式会社Ｈｙｇｇｅ,,株式会社,東京都,港区,北青山１丁目３－３三橋ビル３階,,13,103,1070061,,,,,,,2025-11-11,1,,,,,ヒュッゲ,0
1823,7010403036534,新規,0,2025-11-11,2025-11-11,那須烏山土地合同会社,,合同会社,東京都,港区,六本木３丁目２番１号六本木グランドタワー,,13,103,1060032,,,,,,,2025-11-11,1,,,,,ナスカラスヤマトチ,0
1824,7010403036559,新規,0,2025-11-11,2025-11-11,ＨＡＬＵＴＯ合同会社,,合同会社,東京都,港区,六本木７丁目２１番２４号ザモジュール六本木３０９号室,,13,103,1060032,,,,,,,2025-11-11,1,,,,,ハルト,0
1825,7010403036567,新規,0,2025-11-11,2025-11-11,合同会社Ｎｅｘｕｓ　Ｃａｐｉｔａｌ,,合同会社,東京都,港区,浜松町２丁目２番１５号浜松町ダイヤビル２Ｆ,,13,103,1050013,,,,,,,2025-11-11,1,,,,,ネクサスキャピタル,0
1826,7010405024891,新規,0,2025-11-11,2025-11-11,弁理士法人ＭＩＭ知的財産事務所,,その他の設立登記法人,東京都,港区,浜松町２丁目３－８,,13,103,1050013,,,,,,,2025-11-11,1,,,,,エムアイエムチテキザイサンジムショ,0
1837,7010601068255,新規,0,2025-11-11,2025-11-11,株式会社ＳＡＬＯＮ　ＢＡＳＥ,,株式会社,東京都,墨田区,江東橋２丁目７番１０号ＨＯ－ＥＩビル３Ｆ,,13,107,1300022,,,,,,,2025-11-11,1,,,,,サロンベース,0
1848,7010901058419,新規,0,2025-11-11,2025-11-11,響和株式会社,,株式会社,東京都,世田谷区,北烏山４丁目３５番地２７号,,13,112,1570061,,,,,,,2025-11-11,1,,,,,キョウワ,0
1856,7011001173389,新規,0,2025-11-11,2025-11-11,Ｙｏｈ　Ｗｅｌｌｎｅｓｓ株式会社,,株式会社,東京都,渋谷区,恵比寿西１丁目２０－６中島グリーンハイツ９０２,,13,113,1500021,,,,,,,2025-11-11,1,,,,,ヨウウェルネス,0
1857,7011001173406,新規,0,2025-11-11,2025-11-11,株式会社ＨｉＮ,,株式会社,東京都,渋谷区,神宮前６丁目２３番４号桑野ビル２階,,13,113,1500001,,,,,,,2025-11-11,1,,,,,ハイン,0
1858,7011001173414,新規,0,2025-11-11,2025-11-11,株式会社ｗａｇ,,株式会社,東京都,目黒区,下目黒３丁目１０番３４－２１１号,,13,110,1530064,,,,,,,2025-11-11,1,,,,,ワグ,0
1859,7011001173422,新規,0,2025-11-11,2025-11-11,ＨＲＥ　Ｉｎｖｅｓｔｍｅｎｔ株式会社,,株式会社,東京都,目黒区,自由が丘２丁目１９番２号,,13,110,1520035,,,,,,,2025-11-11,1,,,,,エイチアールイーインベストメント,0
1860,7011001173579,新規,0,2025-11-11,2025-11-11,株式会社Ｈａｋａ,,株式会社,東京都,渋谷区,円山町５番５号Ｎａｖｉ渋谷Ｖ３階,00141477,13,113,1500044,,,,,,,2025-11-11,1,,,,,ハカ,0
1861,7011001173661,新規,0,2025-11-11,2025-11-11,株式会社ザックスヒップホップショップ,,株式会社,東京都,渋谷区,神宮前１丁目７番１０号,,13,113,1500001,,,,,,,2025-11-11,1,,,,,ザックスヒップホップショップ,0
1866,7011003022858,新規,0,2025-11-11,2025-11-11,合同会社ＡＭデザイン,,合同会社,東京都,渋谷区,富ヶ谷２丁目１８番１９号ＦＡＲＥ・ＹＯＹＯＧＩＵＥＨＡＲＡ・２０５,,13,113,1510063,,,,,,,2025-11-11,1,,,,,エーエムデザイン,0
1869,7011101113815,新規,0,2025-11-11,2025-11-11,佳禾株式会社,,株式会社,東京都,新宿区,早稲田鶴巻町５０６－２０１号,,13,104,1620041,,,,,,,2025-11-11,1,,,,,ヨシナエ,0
1870,7011101113897,新規,0,2025-11-11,2025-11-11,株式会社ルーフソーラー,,株式会社,東京都,新宿区,西新宿３丁目７番２６号１１０８,,13,104,1600023,,,,,,,2025-11-11,1,,,,,ルーフソーラー,0
1871,7011101113914,新規,0,2025-11-11,2025-11-11,株式会社ペトコム,,株式会社,東京都,新宿区,西新宿３丁目３番１３号西新宿水間ビル６階,,13,104,1600023,,,,,,,2025-11-11,1,,,,,ペトコム,0
1872,7011101113930,新規,0,2025-11-11,2025-11-11,株式会社社長,,株式会社,東京都,新宿区,新宿４丁目３－１５,,13,104,1600022,,,,,,,2025-11-11,1,,,,,シャチョウ,0
1879,7011501032796,新規,0,2025-11-11,2025-11-11,株式会社ＡＧパートナー,,株式会社,東京都,荒川区,東日暮里３丁目２番２－７０２号,,13,118,1160014,,,,,,,2025-11-11,1,,,,,エージーパートナー,0
1883,7011703004453,新規,0,2025-11-11,2025-11-11,ｔ＆ｅ合同会社,,合同会社,東京都,江戸川区,東葛西１丁目４５番１１号,,13,123,1340084,,,,,,,2025-11-11,1,,,,,ティーアンドイー,0
1885,7012301014596,新規,0,2025-11-11,2025-11-11,株式会社ＴＳＴ,,株式会社,東京都,町田市,能ヶ谷１丁目３番３号近藤ビル５階,,13,209,1950053,,,,,,,2025-11-11,1,,,,,ティーエスティー,0
1894,7013301055259,新規,0,2025-11-11,2025-11-11,株式会社ニューゲート,,株式会社,東京都,豊島区,池袋２丁目１７番８号丸十ビル３０２号,,13,116,1710014,,,,,,,2025-11-11,1,,,,,ニューゲート,0
1899,7020001165767,新規,0,2025-11-11,2025-11-11,株式会社ひものラボ,,株式会社,神奈川県,横浜市港北区,新横浜３丁目９－５新横浜第３東昇ビル,,14,109,2220033,,,,,,,2025-11-11,1,,,,,ヒモノラボ,0
1900,7020001165775,新規,0,2025-11-11,2025-11-11,プリーモ株式会社,,株式会社,神奈川県,横浜市西区,北幸２丁目１０番４８号,,14,103,2200004,,,,,,,2025-11-11,1,,,,,プリーモ,0
1919,7040001141320,新規,0,2025-11-11,2025-11-11,株式会社ジェイ・ラッシュ,,株式会社,千葉県,八街市,吉倉５３９番地６５ＳＯＢＵハイツ吉倉Ａ２０３,,12,230,2891133,,,,,,,2025-11-11,1,,,,,ジェイラッシュ,0
1925,7050001057557,新規,0,2025-11-11,2025-11-11,株式会社ＥＧＡＬＩＴＥ　ＲＡＣＩＮＧ,,株式会社,茨城県,牛久市,ひたち野東５丁目３４番地１（１－４０１）,,08,219,3001207,,,,,,,2025-11-11,1,,,,,エガリテレーシング,0
1929,7060001038746,新規,0,2025-11-11,2025-11-11,株式会社関和商店,,株式会社,栃木県,栃木市,嘉右衛門町１０番２０号,,09,203,3280072,,,,,,,2025-11-11,1,,,,,セキワショウテン,0
1941,7110003005961,新規,0,2025-11-11,2025-11-11,Ｍｏｈｉｂ　Ｔｒａｄｅｒｓ合同会社,,合同会社,新潟県,十日町市,中条戊７１９番地,,15,210,9498618,,,,,,,2025-11-11,1,,,,,モヒブトレーダーズ,0
1960,7120001281827,新規,0,2025-11-11,2025-11-11,株式会社えなぶる,,株式会社,大阪府,大阪市平野区,平野上町２丁目７番５号,,27,126,5470045,,,,,,,2025-11-11,1,,,,,エナブル,0
1961,7120001281868,新規,0,2025-11-11,2025-11-11,仟順株式会社,,株式会社,大阪府,大阪市東成区,大今里南１丁目１８番７号大宝今里ロイヤルハイツ２０３号室,,27,115,5370013,,,,,,,2025-11-11,1,,,,,センジュン,0
1964,7120003031008,新規,0,2025-11-11,2025-11-11,合同会社ＷＨＥＥＬＳ　ＩＮＴＥＲＮＡＴＩＯＮＡＬ,,合同会社,大阪府,大阪市東住吉区,北田辺６丁目１５－２６号,,27,121,5460044,,,,,,,2025-11-11,1,,,,,ホイールズインターナショナル,0
1965,7120005025247,新規,0,2025-11-11,2025-11-11,一般社団法人地下水地盤環境に関する研究協議会,,その他の設立登記法人,大阪府,大阪市北区,大淀南２丁目６番１４号浪花ビル２Ｆ,,27,127,5310075,,,,,,,2025-11-11,1,,,,,チカスイジバンカンキョウニカンスルケンキュウキョウギカイ,0
1966,7120103006834,新規,0,2025-11-11,2025-11-11,合同会社Ａｌｌ　ｆｏｒ　Ｏｎｅ,,合同会社,大阪府,堺市中区,陶器北３９２番地４,,27,142,5998242,,,,,,,2025-11-11,1,,,,,オールフォーワン,0
1986,7140001140667,新規,0,2025-11-11,2025-11-11,株式会社ゼノテクノス,,株式会社,兵庫県,姫路市,飾磨区堀川町３４番地,,28,201,6728025,,,,,,,2025-11-11,1,,,,,ゼノテクノス,0
1987,7140001140675,新規,0,2025-11-11,2025-11-11,株式会社Ｎラボ,,株式会社,兵庫県,尼崎市,北城内８８－１０５－４０５,,28,202,6600826,,,,,,,2025-11-11,1,,,,,エヌラボ,0
2006,7180001169380,新規,0,2025-11-11,2025-11-11,株式会社ＡＩＢＯＴＥＣ,,株式会社,愛知県,知多郡武豊町,字向陽１丁目２８番地１,,23,447,4702357,,,,,,,2025-11-11,1,,,,,アイボテック,0
2007,7180001169439,新規,0,2025-11-11,2025-11-11,株式会社ＡｃｃｅＬ,,株式会社,愛知県,名古屋市名東区,一社３丁目１２１番地１ＭＩＤＯＲＩビル６０１号,,23,115,4650093,,,,,,,2025-11-11,1,,,,,アクセル,0
2009,7180003028816,新規,0,2025-11-11,2025-11-11,ＪＵＮ企画合同会社,,合同会社,愛知県,一宮市,東五城字本郷６番地４,,23,203,4940008,,,,,,,2025-11-11,1,,,,,ジュンキカク,0
2016,7190003005260,新規,0,2025-11-11,2025-11-11,合同会社エムズクリア,,合同会社,三重県,鈴鹿市,神戸５丁目３番１８号,,24,207,5130801,,,,,,,2025-11-11,1,,,,,エムズクリア,0
2020,7200001044408,新規,0,2025-11-11,2025-11-11,ＨＡＦＩＺ　ＥＮＴＥＲＰＲＩＳＥＳ株式会社,,株式会社,岐阜県,大垣市,長松町８８９番地１,,21,202,5030997,,,,,,,2025-11-11,1,,,,,ハフィズエンタープライジーズ,0
2021,7200003007131,新規,0,2025-11-11,2025-11-11,ＣＡＲ　ＣＡＲＴ合同会社,,合同会社,岐阜県,揖斐郡大野町,大字黒野字十二番地６４１番７－２Ａ,,21,403,5010521,,,,,,,2025-11-11,1,,,,,カーカート,0
2030,7240001065672,新規,0,2025-11-11,2025-11-11,株式会社プラスワン,,株式会社,広島県,福山市,東深津町１丁目１７番１６号,,34,207,7210974,,,,,,,2025-11-11,1,,,,,プラスワン,0
2031,7240001065763,新規,0,2025-11-11,2025-11-11,株式会社リヴィア,,株式会社,広島県,三原市,深町９８４番地１,,34,204,7230001,,,,,,,2025-11-11,1,,,,,リヴィア,0
2032,7240003007474,新規,0,2025-11-11,2025-11-11,合同会社ＲＩＺＥ,,合同会社,広島県,福山市,三吉町３丁目１番２２号第２メゾン三吉３０３,,34,207,7200031,,,,,,,2025-11-11,1,,,,,ライズ,0
2036,7250003003844,新規,0,2025-11-11,2025-11-11,合同会社樹希工業,,合同会社,山口県,柳井市,柳井４７１１番地１０パナハイツヤナイ１０１号,,35,212,7420021,,,,,,,2025-11-11,1,,,,,イツキコウギョウ,0
2043,7290001112065,新規,0,2025-11-11,2025-11-11,株式会社ａｎｎｅ,,株式会社,福岡県,春日市,ちくし台１丁目８７－１,,40,218,8160822,,,,,,,2025-11-11,1,,,,,アン,0
2045,7290003017659,新規,0,2025-11-11,2025-11-11,ＳＡＬＥＳ　ＩＮＴＥＮＳＥ合同会社,,合同会社,福岡県,福岡市中央区,大名２丁目６－５０福岡大名ガーデンシティ８Ｆ,,40,133,8100041,,,,,,,2025-11-11,1,,,,,セールスインテンス,0
2046,7290003017691,新規,0,2025-11-11,2025-11-11,合同会社ｍｏｍｅｎｔ,,合同会社,福岡県,糟屋郡志免町,大字南里１１－１クリスタルヴィラＩＩ３０３号室,00141462,40,343,8112207,,,,,,,2025-11-11,1,,,,,モーメント,0
2047,7290801032025,新規,0,2025-11-11,2025-11-11,株式会社Ｒ．Ｃ,,株式会社,福岡県,北九州市八幡西区,則松７丁目５番５号,,40,109,8070831,,,,,,,2025-11-11,1,,,,,アールシー,0
2048,7300001014409,新規,0,2025-11-11,2025-11-11,恵株式会社,,株式会社,佐賀県,佐賀市,本庄町大字袋１９８番地１,,41,201,8400023,,,,,,,2025-11-11,1,,,,,ケイ,0
2053,7330003011310,新規,0,2025-11-11,2025-11-11,合同会社ｃｈａｌｌｅｎｇｅ,,合同会社,熊本県,熊本市西区,野中２丁目９番４３号Ｂ２０１,,43,103,8600059,,,,,,,2025-11-11,1,,,,,チャレンジ,0
2054,7330005010970,新規,0,2025-11-11,2025-11-11,一般社団法人天草ビオヴィレッジ,,その他の設立登記法人,熊本県,天草市,本町下河内７７９番地,,43,215,8630006,,,,,,,2025-11-11,1,,,,,アマクサビオヴィレッジ,0
2061,7370001053219,新規,0,2025-11-11,2025-11-11,株式会社たぬき不動産,,株式会社,宮城県,仙台市青葉区,旭ケ丘２丁目４０番２１号,,04,101,9810904,,,,,,,2025-11-11,1,,,,,タヌキフドウサン,0
2071,7460301005315,新規,0,2025-11-11,2025-11-11,ＧＬＯＢＡＬ　ＵＮＩＴＥＤ　ＳＴＥＬＬＡ株式会社,,株式会社,北海道,北見市,寿町１丁目１番５号,,01,208,0900065,,,,,,,2025-11-11,1,,,,,グローバルユナイテッドステラ,0
2078,8010001260196,新規,0,2025-11-11,2025-11-11,榊原ホールディングス株式会社,,株式会社,東京都,千代田区,大手町１丁目９番２号,,13,101,1000004,,,,,,,2025-11-11,1,,,,,サカキバラホールディングス,0
2079,8010001260205,新規,0,2025-11-11,2025-11-11,株式会社ＹＵＫＩＫＡＺＥ,,株式会社,東京都,中央区,銀座５丁目５番１号,,13,102,1040061,,,,,,,2025-11-11,1,,,,,ユキカゼ,0
2080,8010001260213,新規,0,2025-11-11,2025-11-11,株式会社タナカモータース,,株式会社,東京都,千代田区,麹町３丁目２番地１３―１９０１号,,13,101,1020083,,,,,,,2025-11-11,1,,,,,,0
2084,8010005040909,新規,0,2025-11-11,2025-11-11,一般社団法人日本蘇州商工協会,,その他の設立登記法人,東京都,文京区,本郷４丁目１－７－５０１,,13,105,1130033,,,,,,,2025-11-11,1,,,,,ニホンソシュウショウコウキョウカイ,0
2085,8010005040925,新規,0,2025-11-11,2025-11-11,一般社団法人青海キャンバス,,その他の設立登記法人,東京都,千代田区,平河町１丁目６番１５号シルスフィア会計事務所内,,13,101,1020093,,,,,,,2025-11-11,1,,,,,アオミキャンバス,0
2087,8010401193855,新規,0,2025-11-11,2025-11-11,ＶＩＬＯＮＩ株式会社,,株式会社,東京都,港区,北青山１丁目３番１号アールキューブ青山３階,,13,103,1070061,,,,,,,2025-11-11,1,,,,,ヴィロニ,0
2088,8010401194358,新規,0,2025-11-11,2025-11-11,株式会社くらら,,株式会社,東京都,港区,六本木１丁目８番７号ＭＦＰＲ六本木麻布台ビル１１階ベリーベスト法律事務所内,,13,103,1060032,,,,,,,2025-11-11,1,,,,,クララ,0
2089,8010401194408,新規,0,2025-11-11,2025-11-11,株式会社ＦＡＮ．Ｈｏｌｄｉｎｇｓ,,株式会社,東京都,港区,北青山１丁目３番１号アールキューブ青山３階,,13,103,1070061,,,,,,,2025-11-11,1,,,,,ファンホールディングス,0
2091,8010403036541,新規,0,2025-11-11,2025-11-11,ｍｏｇｉｔｅｓｔ合同会社,,合同会社,東京都,港区,南青山３丁目１番３６号青山丸竹ビル６Ｆ,,13,103,1070062,,,,,,,2025-11-11,1,,,,,モギテスト,0
2092,8010403036558,新規,0,2025-11-11,2025-11-11,合同会社フレイシー,,合同会社,東京都,港区,芝浦１丁目６番４１－２３２８号,,13,103,1050023,,,,,,,2025-11-11,1,,,,,フレイシー,0
2093,8010405024949,新規,0,2025-11-11,2025-11-11,ジャパン・アラカワ特定目的会社,,その他の設立登記法人,東京都,港区,虎ノ門３丁目２２番１０－２０１号,,13,103,1050001,,,,,,,2025-11-11,1,,,,,ジャパンアラカワ,0
2102,8010601068213,新規,0,2025-11-11,2025-11-11,株式会社Ｎｅｅｄｓ　Ｐｏｒｔ,,株式会社,東京都,江東区,有明３丁目７番２６号有明フロンティアビルＢ棟９階,,13,108,1350063,,,,,,,2025-11-11,1,,,,,ニーズポート,0
2103,8010601068246,新規,0,2025-11-11,2025-11-11,キャンパルジャパン株式会社,,株式会社,東京都,江東区,南砂２丁目３６番１０号,,13,108,1360076,,,,,,,2025-11-11,1,,,,,キャンパルジャパン,0
2105,8010603011914,新規,0,2025-11-11,2025-11-11,合同会社ＡｎｄＥｎｃｕｅｎｔｒｏ,,合同会社,東京都,墨田区,押上２丁目２７番４号,,13,107,1310045,,,,,,,2025-11-11,1,,,,,アンドエンクエントロ,0
2107,8010701048593,新規,0,2025-11-11,2025-11-11,株式会社ラシクルトラベル,,株式会社,東京都,品川区,南品川２丁目４番１号,,13,109,1400004,,,,,,,2025-11-11,1,,,,,ラシクルトラベル,0
2114,8010901058418,新規,0,2025-11-11,2025-11-11,株式会社Ｍ２Ｆａｃｔｏｒｙ,,株式会社,東京都,世田谷区,宮坂１丁目１５番１４号プリミエール経堂１０１,,13,112,1560051,,,,,,,2025-11-11,1,,,,,エムツーファクトリー,0
2123,8011001173421,新規,0,2025-11-11,2025-11-11,株式会社ＭＯＤＥ　ＤＩＲＥＣＴＩＯＮＳ,,株式会社,東京都,渋谷区,道玄坂１丁目１２－１渋谷マークシティＷ２２階,,13,113,1500043,,,,,,,2025-11-11,1,,,,,モードディレクション,0
2126,8011003022849,新規,0,2025-11-11,2025-11-11,合同会社ＴＡＳＩＣＡ,,合同会社,東京都,渋谷区,道玄坂１丁目１０番８号渋谷道玄坂東急ビル２Ｆ－Ｃ,,13,113,1500043,,,,,,,2025-11-11,1,,,,,タシカ,0
2127,8011003022857,新規,0,2025-11-11,2025-11-11,合同会社百年人生倶楽部,,合同会社,東京都,渋谷区,道玄坂１丁目１０番８号渋谷道玄坂東急ビル２Ｆ－Ｃ,,13,113,1500043,,,,,,,2025-11-11,1,,,,,ヒャクネンジンセイクラブ,0
2128,8011005011271,新規,0,2025-11-11,2025-11-11,一般社団法人渋谷区ボウリング連盟,,その他の設立登記法人,東京都,渋谷区,笹塚１丁目５７番１０号,,13,113,1510073,,,,,,,2025-11-11,1,,,,,シブヤクボウリングレンメイ,0
2131,8011103016627,新規,0,2025-11-11,2025-11-11,Ｆｉｎｏ合同会社,,合同会社,東京都,新宿区,西新宿５丁目１８－２６パレステュディオ１０６,,13,104,1600023,,,,,,,2025-11-11,1,,,,,フィーノ,0
2132,8011105011659,新規,0,2025-11-11,2025-11-11,一般社団法人ＳＰＶ１６,,その他の設立登記法人,東京都,新宿区,四谷２丁目９番地１５東京ユナイテッド綜合事務所内,,13,104,1600004,,,,,,,2025-11-11,1,,,,,エスピーブイジュウロク,0
2136,8011403004926,新規,0,2025-11-11,2025-11-11,ＧＦＲマネジメント合同会社,,合同会社,東京都,板橋区,赤塚新町２丁目１３番１４－２１２号,,13,119,1750093,,,,,,,2025-11-11,1,,,,,ジーエフアールマネジメント,0
2145,8013101009851,新規,0,2025-11-11,2025-11-11,株式会社Ｔｈｏｒ’ｓ　Ｍｉｇｈｔｙ　Ｓｏｕｎｄ,,株式会社,東京都,西多摩郡瑞穂町,長岡４丁目１６番地６,,13,303,1901232,,,,,,,2025-11-11,1,,,,,トールズマイティーサウンド,0
2148,8013301055258,新規,0,2025-11-11,2025-11-11,株式会社こいのぼり,,株式会社,東京都,豊島区,東池袋５丁目５２番１５号,,13,116,1700013,,,,,,,2025-11-11,1,,,,,コイノボリ,0
2149,8013301055266,新規,0,2025-11-11,2025-11-11,サクメグル株式会社,,株式会社,東京都,豊島区,南大塚３丁目２６番７－２０３号,,13,116,1700005,,,,,,,2025-11-11,1,,,,,サクメグル,0
2150,8013301055274,新規,0,2025-11-11,2025-11-11,株式会社ターンオーバー,,株式会社,東京都,豊島区,高松２丁目５番３号,,13,116,1710042,,,,,,,2025-11-11,1,,,,,ターンオーバー,0
2158,8020001165717,新規,0,2025-11-11,2025-11-11,イースト株式会社,,株式会社,神奈川県,川崎市中原区,下小田中３丁目２０番１２号,,14,133,2110041,,,,,,,2025-11-11,1,,,,,イースト,0
2159,8020001165758,新規,0,2025-11-11,2025-11-11,株式会社ＫＦＣ横浜,,株式会社,神奈川県,横浜市旭区,笹野台１丁目３２番１０－３Ｆ号,,14,112,2410816,,,,,,,2025-11-11,1,,,,,ケーエフシーヨコハマ,0
2187,8030005022335,新規,0,2025-11-11,2025-11-11,新ビルメン協同組合,,その他の設立登記法人,埼玉県,さいたま市中央区,上落合６丁目９番２４号,,11,105,3380001,,,,,,,2025-11-11,1,,,,,シンビルメン,0
2192,8040003028936,新規,0,2025-11-11,2025-11-11,コニーリンク合同会社,,合同会社,千葉県,木更津市,羽鳥野４丁目１番地１３６,,12,206,2920819,,,,,,,2025-11-11,1,,,,,コニーリンク,0
2194,8050001057556,新規,0,2025-11-11,2025-11-11,ＥＳＳＥＮＣＥ　Ｌａｂ株式会社,,株式会社,茨城県,水戸市,水府町１２８５番地の４,,08,201,3100005,,,,,,,2025-11-11,1,,,,,エッセンスラボ,0
2195,8050001057564,新規,0,2025-11-11,2025-11-11,株式会社エフファースト,,株式会社,茨城県,牛久市,中根町３４７番地２,,08,219,3001202,,,,,,,2025-11-11,1,,,,,エフファースト,0
2196,8050001057572,新規,0,2025-11-11,2025-11-11,ＰＯＰ株式会社,,株式会社,茨城県,水戸市,姫子２丁目７５１番地の１０,,08,201,3114151,,,,,,,2025-11-11,1,,,,,ポップ,0
2200,8060001038745,新規,0,2025-11-11,2025-11-11,ＴＺ　ＩＮＴＥＲＮＡＴＩＯＮＡＬ株式会社,,株式会社,栃木県,小山市,東城南１丁目１１－９ニューレジデンスＡ２階２０６号室,,09,208,3230829,,,,,,,2025-11-11,1,,,,,ティーゼットインターナショナル,0
2205,8070001043538,新規,0,2025-11-11,2025-11-11,Ｗ４株式会社,,株式会社,群馬県,太田市,飯田町１５４６番地ポレスター太田駅前サウスレジデンス３０４号,,10,205,3730851,,,,,,,2025-11-11,1,,,,,ダブルフォー,0
2206,8070001043546,新規,0,2025-11-11,2025-11-11,株式会社あずま商会,,株式会社,群馬県,伊勢崎市,田部井町１丁目８８６番地２,,10,204,3792222,,,,,,,2025-11-11,1,,,,,アズマショウカイ,0
2210,8070003006187,新規,0,2025-11-11,2025-11-11,合同会社Ｈａｎｄｚ　Ｃｏｒｐｏｒａｔｉｏｎ,,合同会社,群馬県,太田市,鳥山上町１４６４－９－２,,10,205,3730061,,,,,,,2025-11-11,1,,,,,ハンズコーポレーション,0
2224,8110001039713,新規,0,2025-11-11,2025-11-11,株式会社ＭＯＴＨＥＲ,,株式会社,新潟県,新潟市中央区,西堀前通１番町６９４番地,,15,103,9518062,,,,,,,2025-11-11,1,,,,,マザー,0
2226,8110005017285,新規,0,2025-11-11,2025-11-11,一般社団法人ＨＯＫＵＥＴＳＵ　ＩＮＮＯＶＡＴＩＯＮ　ＬＡＢ．,,その他の設立登記法人,新潟県,新潟市中央区,米山５丁目１３番１５号,,15,103,9500916,,,,,,,2025-11-11,1,,,,,ホクエツイノベーションラボ,0
2240,8120001281710,新規,0,2025-11-11,2025-11-11,株式会社Ｋ．Ｒ．Ａ,,株式会社,大阪府,寝屋川市,明和２丁目９番１４号,,27,215,5720863,,,,,,,2025-11-11,1,,,,,ケーアールエー,0
2241,8120001281826,新規,0,2025-11-11,2025-11-11,允貿日本株式会社,,株式会社,大阪府,大阪市此花区,春日出南２丁目３番７号,,27,104,5540023,,,,,,,2025-11-11,1,,,,,ウィンモアジャパン,0
2242,8120001281842,新規,0,2025-11-11,2025-11-11,株式会社ＭＲＣ,,株式会社,大阪府,大阪市都島区,大東町２丁目２１番２２号,,27,102,5340002,,,,,,,2025-11-11,1,,,,,エムアールシー,0
2244,8120003031188,新規,0,2025-11-11,2025-11-11,明和薬品国際合同会社,,合同会社,大阪府,大阪市住吉区,遠里小野３丁目２－２４,,27,120,5580032,,,,,,,2025-11-11,1,,,,,メイワヤクヒンコクサイ,0
2246,8120005025246,新規,0,2025-11-11,2025-11-11,一般社団法人ＪＷＩ,,その他の設立登記法人,大阪府,大阪市中央区,東心斎橋１丁目３番５号,,27,128,5420083,,,,,,,2025-11-11,1,,,,,ジェーダブリューアイ,0
2249,8120101072745,新規,0,2025-11-11,2025-11-11,株式会社陽,,株式会社,大阪府,堺市中区,福田３０７番地１,,27,142,5998241,,,,,,,2025-11-11,1,,,,,ヨウ,0
2250,8120103006833,新規,0,2025-11-11,2025-11-11,合同会社琳ｇｒｏｕｐ,,合同会社,大阪府,岸和田市,春木泉町１６番８号,,27,202,5960035,,,,,,,2025-11-11,1,,,,,リングループ,0
2251,8120103006841,新規,0,2025-11-11,2025-11-11,合同会社ＳＫＩＮＬＵＭ,,合同会社,大阪府,堺市堺区,出島浜通４番１４－３０３号,,27,141,5900832,,,,,,,2025-11-11,1,,,,,スキンルム,0
2257,8130001081003,新規,0,2025-11-11,2025-11-11,株式会社フォレスタ,,株式会社,京都府,久世郡久御山町,市田新珠城２０５番地１３,,26,322,6130022,,,,,,,2025-11-11,1,,,,,フォレスタ,0
2258,8130003010918,新規,0,2025-11-11,2025-11-11,合同会社えん,,合同会社,京都府,城陽市,水主西垣内３３番地,,26,207,6100118,,,,,,,2025-11-11,1,,,,,エン,0
2263,8140001140666,新規,0,2025-11-11,2025-11-11,Ｋ・Ｉ設備株式会社,,株式会社,兵庫県,神戸市灘区,上野通６丁目３番１５号,,28,102,6570817,,,,,,,2025-11-11,1,,,,,ケーアイセツビ,0
2266,8140005027694,新規,0,2025-11-11,2025-11-11,一般社団法人デンタルＡＩ,,その他の設立登記法人,兵庫県,尼崎市,七松町１丁目９番２１号,,28,202,6600052,,,,,,,2025-11-11,1,,,,,デンタルエーアイ,0
2268,8150003003738,新規,0,2025-11-11,2025-11-11,合同会社ｈａｍａｋａｚｅ,,合同会社,奈良県,大和高田市,三和町１３番４１号,,29,202,6350014,,,,,,,2025-11-11,1,,,,,ハマカゼ,0
2272,8180001169388,新規,0,2025-11-11,2025-11-11,株式会社Ｇｌａｎｚ,,株式会社,愛知県,長久手市,段の上１１０１番地ダイアパレス藤ケ丘３０２号,,23,238,4801162,,,,,,,2025-11-11,1,,,,,グランツ,0
2281,8190001032660,新規,0,2025-11-11,2025-11-11,株式会社全力カンパニー,,株式会社,三重県,桑名市,大字蓮花寺２８３番地１１,,24,205,5110854,,,,,,,2025-11-11,1,,,,,ゼンリョクカンパニー,0
2284,8200001044407,新規,0,2025-11-11,2025-11-11,ジープラスホールディングス株式会社,,株式会社,岐阜県,高山市,上野町１１９９番地の７２,,21,203,5060801,,,,,,,2025-11-11,1,,,,,ジープラスホールディングス,0
2286,8200005013812,新規,0,2025-11-11,2025-11-11,税理士法人ハロ,,その他の設立登記法人,岐阜県,下呂市,小川２６０番地８,,21,220,5092203,,,,,,,2025-11-11,1,,,,,ハロ,0
2296,8240001065754,新規,0,2025-11-11,2025-11-11,カイハラブルーホールディングス株式会社,,株式会社,広島県,福山市,新市町大字常１４５０番地,,34,207,7293107,,,,,,,2025-11-11,1,,,,,カイハラブルーホールディングス,0
2297,8240001065762,新規,0,2025-11-11,2025-11-11,株式会社トータルホームケア,,株式会社,広島県,広島市西区,古江東町１６番１０号,,34,104,7330872,,,,,,,2025-11-11,1,,,,,トータルホームケア,0
2301,8240003007481,新規,0,2025-11-11,2025-11-11,合同会社ＮＥＯ　ＦＲＥＡＫＳ,,合同会社,広島県,広島市佐伯区,美鈴が丘西２丁目４－１８,,34,108,7315114,,,,,,,2025-11-11,1,,,,,ネオフリークス,0
2316,8290003017674,新規,0,2025-11-11,2025-11-11,合同会社Ｌｕｎｏｍｉ,,合同会社,福岡県,福岡市博多区,住吉５丁目２９番１３号,,40,132,8120018,,,,,,,2025-11-11,1,,,,,ルノミ,0
2319,8300001014408,新規,0,2025-11-11,2025-11-11,翔株式会社,,株式会社,佐賀県,佐賀市,本庄町大字袋１９８番地１,,41,201,8400023,,,,,,,2025-11-11,1,,,,,ショウ,0
2321,8310001019843,新規,0,2025-11-11,2025-11-11,株式会社つなぐ,,株式会社,長崎県,長崎市,目覚町４番２号,,42,201,8528105,,,,,,,2025-11-11,1,,,,,ツナグ,0
2322,8310003005115,新規,0,2025-11-11,2025-11-11,合同会社ＷＡＢＩＳＡＢＩ　ＣＯＭＰＡＮＹ,,合同会社,長崎県,南島原市,布津町丙２３８２,,42,214,8592113,,,,,,,2025-11-11,1,,,,,ワビサビカンパニー,0
2331,8340001027769,新規,0,2025-11-11,2025-11-11,株式会社イロベース,,株式会社,鹿児島県,指宿市,東方２０９番地５,,46,210,8910404,,,,,,,2025-11-11,1,,,,,イロベース,0
2338,8360001036009,新規,0,2025-11-11,2025-11-11,株式会社Ｈａ’ａｈｅｏ,,株式会社,沖縄県,那覇市,金城１丁目５番１号,,47,201,9010155,,,,,,,2025-11-11,1,,,,,ハアヘオ,0
2342,8420001019329,新規,0,2025-11-11,2025-11-11,株式会社ＭＴＳファーム,,株式会社,青森県,北津軽郡鶴田町,大字胡桃舘字前田４番地１,,02,384,0383523,,,,,,,2025-11-11,1,,,,,エムティエスファーム,0
2349,8430001095617,新規,0,2025-11-11,2025-11-11,ＫＩＴ　Ｇｌｏｂａｌ商事株式会社,,株式会社,北海道,札幌市北区,新琴似町７８７番地１,,01,102,0010915,,,,,,,2025-11-11,1,,,,,ケーアイティーグローバルショウジ,0
2351,8430003018303,新規,0,2025-11-11,2025-11-11,合同会社しるし,,合同会社,北海道,札幌市西区,発寒一条３丁目１３番１３号,,01,107,0630821,,,,,,,2025-11-11,1,,,,,シルシ,0
2352,8460105002326,新規,0,2025-11-11,2025-11-11,一般社団法人杪ノ杜,,その他の設立登記法人,北海道,帯広市,西三条南９丁目１８番地２,,01,207,0800013,,,,,,,2025-11-11,1,,,,,コズエノモリ,0
2353,8470003003012,新規,0,2025-11-11,2025-11-11,合同会社マンション管理の監理企興集団,,合同会社,香川県,高松市,高松町２４１４番地１サーパス古高松２０５,,37,201,7610104,,,,,,,2025-11-11,1,,,,,,0
2364,9010001260204,新規,0,2025-11-11,2025-11-11,株式会社イシス・マネジメント・ラボ,,株式会社,東京都,中央区,銀座１丁目２２番１１号銀座大竹ビジデンス２階,,13,102,1040061,,,,,,,2025-11-11,1,,,,,イシスマネジメントラボ,0
2366,9010003049364,新規,0,2025-11-11,2025-11-11,合同会社Ｍ＆Ｅ　Ｔｉｍｅｓ　Ｈｏｌｄｉｎｇｓ,,合同会社,東京都,中央区,日本橋箱崎町１番２号,,13,102,1030015,,,,,,,2025-11-11,1,,,,,エムアンドイータイムズホールディングス,0
2370,9010401194290,新規,0,2025-11-11,2025-11-11,知ｕｎｉｖｅｒｓｅ株式会社,,株式会社,東京都,港区,高輪２丁目１３－７,,13,103,1080074,,,,,,,2025-11-11,1,,,,,チユニバース,0
2371,9010401194316,新規,0,2025-11-11,2025-11-11,株式会社スピンドル,,株式会社,東京都,港区,南青山５丁目１３番３号,,13,103,1070062,,,,,,,2025-11-11,1,,,,,スピンドル,0
2372,9010401194340,新規,0,2025-11-11,2025-11-11,ｅｎｓｅｍｂｌｅ株式会社,,株式会社,東京都,港区,北青山２丁目１０－２６－００１,,13,103,1070061,,,,,,,2025-11-11,1,,,,,アンサンブル,0
2373,9010401194373,新規,0,2025-11-11,2025-11-11,株式会社Ｓｐａｒｋ　Ｎｏｖａ,,株式会社,東京都,港区,六本木３丁目２番１号,,13,103,1060032,,,,,,,2025-11-11,1,,,,,スパークノバ,0
2374,9010401194431,新規,0,2025-11-11,2025-11-11,アミノ統合医療株式会社,,株式会社,東京都,港区,西新橋３丁目４番２号,,13,103,1050003,,,,,,,2025-11-11,1,,,,,アミノトウゴウイリョウ,0
2375,9010401194448,新規,0,2025-11-11,2025-11-11,株式会社ｈａｖｅｓ,,株式会社,東京都,港区,南青山４丁目８番１９－２０９号,,13,103,1070062,,,,,,,2025-11-11,1,,,,,ハーヴス,0
2378,9010403036441,新規,0,2025-11-11,2025-11-11,合同会社ＭＥＬＩＯＲＡ,,合同会社,東京都,港区,白金台３丁目２番５－２０３号,,13,103,1080071,,,,,,,2025-11-11,1,,,,,メリオーラ,0
2379,9010403036508,新規,0,2025-11-11,2025-11-11,合同会社ＭＩ,,合同会社,東京都,港区,南青山２丁目１９番６－２０２号,,13,103,1070062,,,,,,,2025-11-11,1,,,,,エムアイ,0
2380,9010403036557,新規,0,2025-11-11,2025-11-11,合同会社ＣＯＮＴＥＮＴＡ,,合同会社,東京都,港区,六本木３丁目１６番１２号六本木ＫＳビル５Ｆ,,13,103,1060032,,,,,,,2025-11-11,1,,,,,コンテンタ,0
2381,9010403036565,新規,0,2025-11-11,2025-11-11,未来創電ＲＥ２号合同会社,,合同会社,東京都,港区,西新橋１丁目１８番１７号明産西新橋ビル３Ｆ,,13,103,1050003,,,,,,,2025-11-11,1,,,,,ミライソウデンアールイーニゴウ,0
2382,9010403036573,新規,0,2025-11-11,2025-11-11,合同会社エスシーエイチ１,,合同会社,東京都,港区,元赤坂１丁目１番７－８０７号,,13,103,1070051,,,,,,,2025-11-11,1,,,,,エスシーエイチワン,0
2383,9010403036581,新規,0,2025-11-11,2025-11-11,合同会社実行舎,,合同会社,東京都,港区,浜松町２丁目２番１５号浜松町ダイヤビル２階,,13,103,1050013,,,,,,,2025-11-11,1,,,,,ジッコウシャ,0
2389,9010601068261,新規,0,2025-11-11,2025-11-11,株式会社Ｚｉｎ,,株式会社,東京都,江東区,亀戸９丁目１９番７‐２２０号,,13,108,1360071,,,,,,,2025-11-11,1,,,,,ジーン,0
2390,9010603011913,新規,0,2025-11-11,2025-11-11,合同会社パシフィック・インベストメント,,合同会社,東京都,江東区,森下２丁目８番２号マンションタカホ４０１,,13,108,1350004,,,,,,,2025-11-11,1,,,,,パシフィックインベストメント,0
2397,9010901058383,新規,0,2025-11-11,2025-11-11,株式会社鈴木造園,,株式会社,東京都,世田谷区,松原３丁目３０－１０－２Ｆ,,13,112,1560043,,,,,,,2025-11-11,1,,,,,スズキゾウエン,0
2406,9011001173404,新規,0,2025-11-11,2025-11-11,株式会社Ｌｕｍｉｎｏｕｓ　Ｌｉｆｅ　Ｄｅｓｉｇｎ,,株式会社,東京都,渋谷区,恵比寿西２丁目４番８号ウィンド恵比寿ビル８Ｆ,,13,113,1500021,,,,,,,2025-11-11,1,,,,,ルミナスライフデザイン,0
2407,9011001173445,新規,0,2025-11-11,2025-11-11,株式会社ａｐｐ,,株式会社,東京都,目黒区,東が丘２丁目１３番２０号,,13,110,1520021,,,,,,,2025-11-11,1,,,,,エーピーピ,0
2408,9011003022864,新規,0,2025-11-11,2025-11-11,合同会社鳥界隈,,合同会社,東京都,渋谷区,本町２丁目３３－２０,,13,113,1510071,,,,,,,2025-11-11,1,,,,,トリカイワイ,0
2412,9011203004877,新規,0,2025-11-11,2025-11-11,ａｍａ合同会社,,合同会社,東京都,中野区,上鷺宮１丁目２４番１２号,,13,114,1650031,,,,,,,2025-11-11,1,,,,,エーエムエー,0
2413,9011401027556,新規,0,2025-11-11,2025-11-11,株式会社エス・エス・シー,,株式会社,東京都,板橋区,前野町４丁目１９番１０号１Ｆ,,13,119,1740063,,,,,,,2025-11-11,1,,,,,エスエスシー,0
2417,9011603004915,新規,0,2025-11-11,2025-11-11,Ｎｅｒｉｋｏ合同会社,,合同会社,東京都,練馬区,高松６丁目２番５号パレステージ光が丘ナチュラコート２０４,,13,120,1790075,,,,,,,2025-11-11,1,,,,,ネリコ,0
2419,9011701028923,新規,0,2025-11-11,2025-11-11,株式会社友志,,株式会社,東京都,江戸川区,春江町４丁目１６番地２Ａｌｉｖｉｓ一之江８０２,,13,123,1340003,,,,,,,2025-11-11,1,,,,,ユウシ,0
2421,9012401043790,新規,0,2025-11-11,2025-11-11,株式会社オルタエナジー,,株式会社,東京都,府中市,日新町３丁目２番地の４,,13,206,1830036,,,,,,,2025-11-11,1,,,,,オルタエナジー,0
2424,9013103001509,新規,0,2025-11-11,2025-11-11,合同会社またたび,,合同会社,東京都,西多摩郡奥多摩町,小丹波１６７番地４,,13,308,1980105,,,,,,,2025-11-11,1,,,,,マタタビ,0
2426,9013301055257,新規,0,2025-11-11,2025-11-11,株式会社はるいろ,,株式会社,東京都,豊島区,千早４丁目３４番１０号,,13,116,1710044,,,,,,,2025-11-11,1,,,,,ハルイロ,0
2427,9013301055273,新規,0,2025-11-11,2025-11-11,本井設計株式会社,,株式会社,東京都,豊島区,巣鴨５丁目４８番７号,,13,116,1700002,,,,,,,2025-11-11,1,,,,,モトイセッケイ,0
2453,9021005013448,新規,0,2025-11-11,2025-11-11,ＮＰＯ法人ふらっと相模台,,その他の設立登記法人,神奈川県,相模原市緑区,下九沢１６５０番地１１,,14,151,2520134,,,,,,,2025-11-11,1,,,,,,0
2460,9030001169559,新規,0,2025-11-11,2025-11-11,エスオー株式会社,,株式会社,埼玉県,狭山市,大字上赤坂６２０番地の６,,11,215,3501313,,,,,,,2025-11-11,1,,,,,エスオー,0
2461,9030001169609,新規,0,2025-11-11,2025-11-11,ＳＳＪホールディングス株式会社,,株式会社,埼玉県,川越市,松江町１丁目３番地８,,11,201,3500056,,,,,,,2025-11-11,1,,,,,エスエスジェイホールディングス,0
2474,9040001141277,新規,0,2025-11-11,2025-11-11,鴻翔株式会社,,株式会社,千葉県,市川市,加藤新田２０２番地１ヴェレーナシティ行徳Ｉ街区９１５号,00141466,12,203,2720124,,,,,,,2025-11-11,1,,,,,コウショウ,0
2475,9040001141302,新規,0,2025-11-11,2025-11-11,株式会社ＷＡＮＤＳ　ＰＲＯＪＥＣＴ,,株式会社,千葉県,船橋市,本町６丁目２番１０号１２０３,,12,204,2730005,,,,,,,2025-11-11,1,,,,,ワンズプロジェクト,0
2476,9040001141310,新規,0,2025-11-11,2025-11-11,株式会社Ｋｙｕｍａ,,株式会社,千葉県,流山市,西平井３丁目１７番地の１３,,12,220,2700156,,,,,,,2025-11-11,1,,,,,キュウマ,0
2478,9040003028935,新規,0,2025-11-11,2025-11-11,合同会社Ｋ＆Ｃｏ．,,合同会社,千葉県,八千代市,八千代台北１１丁目２１－４８,,12,221,2760031,,,,,,,2025-11-11,1,,,,,ケーアンドコー,0
2479,9050001057571,新規,0,2025-11-11,2025-11-11,株式会社Ｃａｓｔｏｍｉｚｅ,,株式会社,茨城県,つくば市,春日４丁目１４－６ユーゲントハイム１０５,,08,220,3050821,,,,,,,2025-11-11,1,,,,,キャストマイズ,0
2502,9120001281437,新規,0,2025-11-11,2025-11-11,森川株式会社,,株式会社,大阪府,大阪市西区,江戸堀１丁目４番２１日宝肥後橋中央ビル４０５号,,27,106,5500002,,,,,,,2025-11-11,1,,,,,モリカワ,0
2503,9120001281726,新規,0,2025-11-11,2025-11-11,株式会社Ｋ２Ｎｅｘｉｓ,,株式会社,大阪府,大阪市北区,梅田１丁目２番２号大阪駅前第２ビル１２－１２,,27,127,5300001,,,,,,,2025-11-11,1,,,,,ケーツーネクシス,0
2504,9120001281858,新規,0,2025-11-11,2025-11-11,Ｓｅｉｄｅｒ　Ｃｏｒｐｏｒａｔｉｏｎ株式会社,,株式会社,大阪府,大阪市中央区,南船場３丁目２番２２号おおきに南船場ビル２０５,,27,128,5420081,,,,,,,2025-11-11,1,,,,,シーダーコーポレーション,0
2505,9120001281916,新規,0,2025-11-11,2025-11-11,株式会社アカウンティング・インサイツ,,株式会社,大阪府,大阪市北区,同心１丁目３番１２‐３０３号,,27,127,5300035,,,,,,,2025-11-11,1,,,,,アカウンティングインサイツ,0
2508,9120005025245,新規,0,2025-11-11,2025-11-11,一般社団法人エルゴラ,,その他の設立登記法人,大阪府,大阪市中央区,高麗橋４丁目３番７号淀屋橋総合会計内,,27,128,5410043,,,,,,,2025-11-11,1,,,,,エルゴラ,0
2510,9120101072744,新規,0,2025-11-11,2025-11-11,株式会社ＧＲＡＶＩＳ,,株式会社,大阪府,泉南市,樽井５８８番１,,27,228,5900521,,,,,,,2025-11-11,1,,,,,グラビス,0
2511,9120101072769,新規,0,2025-11-11,2025-11-11,株式会社Ｖｉｏｒｂ,,株式会社,大阪府,堺市堺区,香ヶ丘町１丁１３番７号,,27,141,5900011,,,,,,,2025-11-11,1,,,,,ビオーブ,0
2512,9120103006840,新規,0,2025-11-11,2025-11-11,合同会社なちゅら・さかい,,合同会社,大阪府,堺市中区,土師町２丁３０番２７号,,27,142,5998238,,,,,,,2025-11-11,1,,,,,ナチュラサカイ,0
2518,9130005017506,新規,0,2025-11-11,2025-11-11,一般社団法人ＨＡＲＥＴＯＫＥ,,その他の設立登記法人,京都府,京都市中京区,三条通神泉苑西入今新在家西町２９番地３,,26,104,6048801,,,,,,,2025-11-11,1,,,,,ハレトケ,0
2522,9140001140665,新規,0,2025-11-11,2025-11-11,株式会社秋翼,,株式会社,兵庫県,加古川市,上荘町国包６１９番地１,,28,210,6751213,,,,,,,2025-11-11,1,,,,,シュンヨク,0
2524,9140003022804,新規,0,2025-11-11,2025-11-11,合同会社Ｂｅｒｒｉｅ,,合同会社,兵庫県,明石市,藤江９７０番地の１,,28,203,6730044,,,,,,,2025-11-11,1,,,,,ベリエ,0
2525,9140005027685,新規,0,2025-11-11,2025-11-11,一般社団法人アライナー矯正認証協会,,その他の設立登記法人,兵庫県,西宮市,高塚町７番１２１号,,28,204,6620066,,,,,,,2025-11-11,1,,,,,アライナーキョウセイニンショウキョウカイ,0
2537,9180001169429,新規,0,2025-11-11,2025-11-11,株式会社ＷＡＲＳ,,株式会社,愛知県,名古屋市中川区,戸田５丁目４０５番地,,23,110,4540962,,,,,,,2025-11-11,1,,,,,ウォーズ,0
2547,9180301040396,新規,0,2025-11-11,2025-11-11,株式会社とーくる,,株式会社,愛知県,豊田市,寿町２丁目３８番地１リノア寿１号室,,23,211,4710834,,,,,,,2025-11-11,1,,,,,トークル,0
2549,9180303006800,新規,0,2025-11-11,2025-11-11,Ｆｌｏｒｉ‐Ｍｏｌｙ合同会社,,合同会社,愛知県,安城市,里町三郎１３０番地１,,23,212,4460001,,,,,,,2025-11-11,1,,,,,,0
2550,9190001032676,新規,0,2025-11-11,2025-11-11,株式会社キタガワ,,株式会社,三重県,伊賀市,島ヶ原１２２８０番地,,24,216,5191711,,,,,,,2025-11-11,1,,,,,キタガワ,0
2551,9190001032684,新規,0,2025-11-11,2025-11-11,株式会社Ｍｉｒａｉコンシェルジュ,,株式会社,三重県,鈴鹿市,稲生こがね園１９番８号Ｂｒｉｓｅ２０１号室,,24,207,5100206,,,,,,,2025-11-11,1,,,,,ミライコンシェルジュ,0
2561,9240001065761,新規,0,2025-11-11,2025-11-11,株式会社Ｂｅ　ｃｒｅａｔｉｖｅ,,株式会社,広島県,江田島市,沖美町岡大王２１５３番地３,,34,215,7372311,,,,,,,2025-11-11,1,,,,,ビークリエイティブ,0
2577,9290003017665,新規,0,2025-11-11,2025-11-11,合同会社ＳＡＮＷＡ,,合同会社,福岡県,福岡市南区,弥永２丁目３２番２２号,,40,134,8111323,,,,,,,2025-11-11,1,,,,,サンワ,0
2578,9290003017673,新規,0,2025-11-11,2025-11-11,合同会社湯村,,合同会社,福岡県,大牟田市,大字新町１５８,,40,202,8370923,,,,,,,2025-11-11,1,,,,,,0
2588,9330003011309,新規,0,2025-11-11,2025-11-11,合同会社栄商店,,合同会社,熊本県,熊本市中央区,下通１丁目６番５号モデナビル５Ｂ,,43,101,8600807,,,,,,,2025-11-11,1,,,,,サカエショウテン,0
2589,9360003015364,新規,0,2025-11-11,2025-11-11,合同会社くじらラボ,,合同会社,沖縄県,宮古島市,平良字下里２２０－１・Ａ－１０４,,47,214,9060013,,,,,,,2025-11-11,1,,,,,クジララボ,0
2590,9370001053225,新規,0,2025-11-11,2025-11-11,アンドシー株式会社,,株式会社,宮城県,仙台市青葉区,国分町１丁目３番１３号,,04,101,9800803,,,,,,,2025-11-11,1,,,,,アンドシー,0
2592,9370005011022,新規,0,2025-11-11,2025-11-11,一般社団法人地域共創ディレクション６,,その他の設立登記法人,宮城県,亘理郡山元町,高瀬字上土取場１番地６,00141476,04,362,9892202,,,,,,,2025-11-11,1,,,,,チイキキョウソウディレクションシックス,0
2600,9430001095632,新規,0,2025-11-11,2025-11-11,株式会社ＴＡＤＡＯＭＩ．ＡＲＴ,,株式会社,北海道,札幌市中央区,南二条西５丁目３１－１ＲＭＢｌｄ．７０１,,01,101,0600062,,,,,,,2025-11-11,1,,,,,タダオミアート,0
2603,9500001026621,新規,0,2025-11-11,2025-11-11,株式会社松浦工業,,株式会社,愛媛県,松山市,土居田町１９３番地,,38,201,7900056,,,,,,,2025-11-11,1,,,,,マツウラコウギョウ,0
2606,9700150047290,新規,0,2025-11-11,2015-10-09,自治労松阪市職員組合,,その他,三重県,松阪市,殿町１３４０－１,,24,204,5150073,,,,,,,2015-10-09,1,,,,,ジチロウマツサカシシヨクインクミアイ,0
