sequenceNumber,corporateNumber,process,correct,updateDate,changeDate,name,nameImageId,kind,prefectureName,cityName,streetNumber,addressImageId,prefectureCode,cityCode,postCode,addressOutside,addressOutsideImageId,closeDate,closeCause,successorCorporateNumber,changeCause,assignmentDate,latest,enName,enPrefectureName,enCityName,enAddressOutside,furigana,hihyoji
10,1010001236822,新規,0,2023-07-14,2023-07-14,ＴＭＩ株式会社,,株式会社,東京都,千代田区,神田和泉町１番地６－１６ヤマトビル４０５,,13,101,1010024,,,,,,,2023-07-14,1,,,,,ティエムアイ,0
11,1010001236962,新規,0,2023-07-14,2023-07-14,セレンブリオ株式会社,,株式会社,東京都,千代田区,内幸町２丁目１番６号日比谷パークフロント１９Ｆ,,13,101,1000011,,,,,,,2023-07-14,1,,,,,セレンブリオ,0
14,1010005036938,新規,0,2023-07-14,2023-07-14,一般社団法人日本ストリートアクティビティ観光協会,,その他の設立登記法人,東京都,中央区,日本橋蛎殻町１丁目１７－２－２０７,,13,102,1030014,,,,,,,2023-07-14,1,,,,,ニホンストリートアクティビティカンコウキョウカイ,0
15,1010005036954,新規,0,2023-07-14,2023-07-14,一般社団法人ＭＭＡ,,その他の設立登記法人,東京都,千代田区,神田駿河台２丁目３番地,,13,101,1010062,,,,,,,2023-07-14,1,,,,,エムエムエー,0
23,1010401175232,新規,0,2023-07-14,2023-07-14,株式会社ラスカル,,株式会社,東京都,港区,赤坂３丁目９－４赤坂扇やビル４階Ａ室,,13,103,1070052,,,,,,,2023-07-14,1,,,,,ラスカル,0
24,1010401175629,新規,0,2023-07-14,2023-07-14,ブルーコンシャス株式会社,,株式会社,東京都,港区,芝浦４丁目２１番１－１５１２号,,13,103,1080023,,,,,,,2023-07-14,1,,,,,ブルーコンシャス,0
25,1010401175653,新規,0,2023-07-14,2023-07-14,Ｎａｎａ　Ｌｉｎｏ株式会社,,株式会社,東京都,港区,芝５丁目２９番２２号,,13,103,1080014,,,,,,,2023-07-14,1,,,,,ナナリノ,0
26,1010401175661,新規,0,2023-07-14,2023-07-14,株式会社ＣｒｕｘＣｏｒｅ,,株式会社,東京都,港区,南青山３丁目１番３６号青山丸竹ビル６Ｆ,,13,103,1070062,,,,,,,2023-07-14,1,,,,,クラックスコア,0
27,1010401175678,新規,0,2023-07-14,2023-07-14,株式会社Ｖ　ｄｏｉｎｇ,,株式会社,東京都,港区,台場２丁目２番４号,,13,103,1350091,,,,,,,2023-07-14,1,,,,,ブイドゥイング,0
28,1010401175728,新規,0,2023-07-14,2023-07-14,ＤＨＣＮ株式会社,,株式会社,東京都,港区,浜松町２丁目２番１５号浜松町ダイヤビル２Ｆ,,13,103,1050013,,,,,,,2023-07-14,1,,,,,ディーエイチシーエヌ,0
29,1010401175769,新規,0,2023-07-14,2023-07-14,株式会社関根会計事務所,,株式会社,東京都,港区,赤坂４丁目７番８号,,13,103,1070052,,,,,,,2023-07-14,1,,,,,セキネカイケイジムショ,0
32,1010403030492,新規,0,2023-07-14,2023-07-14,合同会社あっち・こーち・どっち,,合同会社,東京都,港区,南青山３丁目１番３６号６Ｆ,,13,103,1070062,,,,,,,2023-07-14,1,,,,,アッチコーチドッチ,0
35,1010501050756,新規,0,2023-07-14,2023-07-14,富強株式会社,,株式会社,東京都,台東区,上野６丁目７番１６号,,13,106,1100005,,,,,,,2023-07-14,1,,,,,フキョウ,0
37,1010503007085,新規,0,2023-07-14,2023-07-14,合同会社ＯｆｆｉｃｅＯｎｅ,,合同会社,東京都,台東区,元浅草１丁目６番１２号,,13,106,1110041,,,,,,,2023-07-14,1,,,,,オフィスワン,0
40,1010701044541,新規,0,2023-07-14,2023-07-14,ＣＤＩヒューマンキャピタル株式会社,,株式会社,東京都,品川区,東品川２丁目２番４号天王洲ファーストタワー２３階,,13,109,1400002,,,,,,,2023-07-14,1,,,,,シーディーアイヒューマンキャピタル,0
41,1010701044558,新規,0,2023-07-14,2023-07-14,ＰＬＩＮＴＨ株式会社,,株式会社,東京都,品川区,広町１丁目３番２２号,,13,109,1400005,,,,,,,2023-07-14,1,,,,,プリンス,0
42,1010703006779,新規,0,2023-07-14,2023-07-14,合同会社かぐや,,合同会社,東京都,品川区,西五反田２丁目１０番８号,,13,109,1410031,,,,,,,2023-07-14,1,,,,,カグヤ,0
46,1010901053417,新規,0,2023-07-14,2023-07-14,株式会社カノン,,株式会社,東京都,世田谷区,岡本１丁目１４番３号,,13,112,1570076,,,,,,,2023-07-14,1,,,,,カノン,0
51,1011001155715,新規,0,2023-07-14,2023-07-14,株式会社ＣｏｌｏｒＢｏｎｄ,,株式会社,東京都,渋谷区,神宮前６丁目２３番４号桑野ビル２階,,13,113,1500001,,,,,,,2023-07-14,1,,,,,,0
60,1011301028868,新規,0,2023-07-14,2023-07-14,株式会社ＯＦＦＢＥＡＴ,,株式会社,東京都,杉並区,本天沼１丁目２１番９号,,13,115,1670031,,,,,,,2023-07-14,1,,,,,オフビート,0
61,1011501029534,新規,0,2023-07-14,2023-07-14,Ｅｙｅｌａｄｏ株式会社,,株式会社,東京都,北区,浮間１丁目７－２３兆豊浮間ビル,,13,117,1150051,,,,,,,2023-07-14,1,,,,,アイラド,0
62,1011501029542,新規,0,2023-07-14,2023-07-14,株式会社Ａ　ｃｌａｎ,,株式会社,東京都,荒川区,東日暮里５丁目８番３－６０６号鶯谷マンション,,13,118,1160014,,,,,,,2023-07-14,1,,,,,エークラン,0
70,1012803003128,新規,0,2023-07-14,2023-07-14,かぶら茶合同会社,,合同会社,東京都,国立市,東４丁目１２番地の１５,,13,215,1860002,,,,,,,2023-07-14,1,,,,,カブラチャ,0
72,1013301051065,新規,0,2023-07-14,2023-07-14,Ｎ．Ｚ　Ｃｏｒｐｏｒａｔｉｏｎｓ株式会社,,株式会社,東京都,豊島区,東池袋１丁目４２番１４号２８山京ビル７階,,13,116,1700013,,,,,,,2023-07-14,1,,,,,エヌゼットコーポレーションズ,0
76,1020001152473,新規,0,2023-07-14,2023-07-14,株式会社ＭＫ,,株式会社,神奈川県,横浜市神奈川区,台町８番地１４,,14,102,2210834,,,,,,,2023-07-14,1,,,,,エムケー,0
79,1020003024217,新規,0,2023-07-14,2023-07-14,ＣＦＮ合同会社,,合同会社,神奈川県,川崎市中原区,上丸子山王町２丁目１３７７－１ＨＹ’ｓ武蔵小杉６０５,,14,133,2110002,,,,,,,2023-07-14,1,,,,,シーエフエヌ,0
81,1021001079533,新規,0,2023-07-14,2023-07-14,株式会社Ｆｌｉｅｓｅ,,株式会社,神奈川県,小田原市,栢山３１８５番地の６,,14,206,2500852,,,,,,,2023-07-14,1,,,,,,0
82,1021001079582,新規,0,2023-07-14,2023-07-14,株式会社こうしんサービス,,株式会社,神奈川県,小田原市,南鴨宮２丁目４７番２５号,,14,206,2500875,,,,,,,2023-07-14,1,,,,,コウシンサービス,0
83,1021001079624,新規,0,2023-07-14,2023-07-14,株式会社吉田商店,,株式会社,神奈川県,横須賀市,久里浜３丁目３４番１－２０３号,,14,201,2390831,,,,,,,2023-07-14,1,,,,,ヨシダショウテン,0
88,1030001154865,新規,0,2023-07-14,2023-07-14,株式会社八尋工業,,株式会社,埼玉県,川口市,桜町２丁目８番１７号,,11,203,3340001,,,,,,,2023-07-14,1,,,,,ヤヒロコウギョウ,0
89,1030001154873,新規,0,2023-07-14,2023-07-14,株式会社ＶＩＣＴＯＲＹＣＵＳＴＯＭＰＡＩＮＴ,,株式会社,埼玉県,児玉郡美里町,大字駒衣４８１番地１,,11,381,3670119,,,,,,,2023-07-14,1,,,,,ビクトリーカスタムペイント,0
90,1030001154907,新規,0,2023-07-14,2023-07-14,株式会社ＭＩＲＥ工業,,株式会社,埼玉県,さいたま市大宮区,櫛引町１丁目８７５番地１ウィズ大宮二番館４０６号,,11,103,3300851,,,,,,,2023-07-14,1,,,,,ミレコウギョウ,0
91,1030001154931,新規,0,2023-07-14,2023-07-14,株式会社蓮美建設,,株式会社,埼玉県,草加市,北谷１丁目４－１１,,11,221,3400046,,,,,,,2023-07-14,1,,,,,ハスミケンセツ,0
93,1030003022079,新規,0,2023-07-14,2023-07-14,ＳＡＫＵ工芸合同会社,,合同会社,埼玉県,川口市,大字安行原２５３７番地の２５,,11,203,3340057,,,,,,,2023-07-14,1,,,,,サクコウゲイ,0
94,1030003022120,新規,0,2023-07-14,2023-07-14,ＳＰＣ合同会社,,合同会社,埼玉県,ふじみ野市,福岡中央２丁目１２番地１２号２,,11,245,3560031,,,,,,,2023-07-14,1,,,,,エスピーシー,0
98,1040001129247,新規,0,2023-07-14,2023-07-14,山王商事株式会社,,株式会社,千葉県,香取郡多古町,次浦１６３０番地,,12,347,2892313,,,,,,,2023-07-14,1,,,,,サンノウショウジ,0
99,1040001129288,新規,0,2023-07-14,2023-07-14,株式会社ＣＬＥＡＮＲＡＴＳ,,株式会社,千葉県,市原市,下矢田１６５番地５,,12,219,2900518,,,,,,,2023-07-14,1,,,,,クリーンラッツ,0
105,1050001053132,新規,0,2023-07-14,2023-07-14,株式会社木村設備社,,株式会社,茨城県,坂東市,内野山６９０番地,,08,228,3060514,,,,,,,2023-07-14,1,,,,,キムラセツビシャ,0
122,1080401026602,新規,0,2023-07-14,2023-07-14,株式会社ＴＥＮＴＯ　ＨＯＬＤＩＮＧＳ,,株式会社,静岡県,浜松市東区,上新屋町２０８番地の１,,22,132,4350053,,,,,,,2023-07-14,1,,,,,テントホールディングス,0
134,1110003005117,新規,0,2023-07-14,2023-07-14,Ｓｌａｓｈ合同会社,,合同会社,新潟県,長岡市,下柳２丁目７番２７号,,15,202,9402013,,,,,,,2023-07-14,1,,,,,スラッシュ,0
144,1120001256157,新規,0,2023-07-14,2023-07-14,ＣＮ　ＧＲＯＵＰ株式会社,,株式会社,大阪府,大阪市東住吉区,鷹合４丁目２１番１６号１Ｆ－Ｄ,,27,121,5460014,,,,,,,2023-07-14,1,,,,,シーエヌグループ,0
145,1120001256405,新規,0,2023-07-14,2023-07-14,株式会社ＴＯＴＡＬ　ＰＡＩＮＴＩＮＧ　ＹＵＫＩ,,株式会社,大阪府,大阪市東淀川区,東中島２丁目２３番２０号,,27,114,5330033,,,,,,,2023-07-14,1,,,,,トータルペインティングユウキ,0
146,1120001256413,新規,0,2023-07-14,2023-07-14,株式会社清らか,,株式会社,大阪府,大阪市浪速区,幸町２丁目２番２０号,,27,111,5560021,,,,,,,2023-07-14,1,,,,,キヨラカ,0
147,1120001256454,新規,0,2023-07-14,2023-07-14,麗佳貿易株式会社,,株式会社,大阪府,大阪市城東区,新喜多東２丁目８番２３－２０２号室,,27,118,5360017,,,,,,,2023-07-14,1,,,,,リカボウエキ,0
148,1120001256462,新規,0,2023-07-14,2023-07-14,株式会社キタモト,,株式会社,大阪府,大阪市淀川区,三津屋北１丁目３６番１０号,,27,123,5320032,,,,,,,2023-07-14,1,,,,,キタモト,0
149,1120001256487,新規,0,2023-07-14,2023-07-14,株式会社ＮＡＩＬ　ＢＯＸ,,株式会社,大阪府,大阪市北区,堂島２丁目２番２６号３０２号室,,27,127,5300003,,,,,,,2023-07-14,1,,,,,ネイルボックス,0
150,1120001256512,新規,0,2023-07-14,2023-07-14,株式会社ＢＲＡＶＥ　ＷＩＮ,,株式会社,大阪府,大阪市西成区,中開２丁目４番２０号,,27,122,5570022,,,,,,,2023-07-14,1,,,,,ブレイブウィン,0
153,1120003024446,新規,0,2023-07-14,2023-07-14,Ｙｏｌｏｃｏ合同会社,,合同会社,大阪府,大阪市阿倍野区,阿倍野筋１丁目１番４３号あべのハルカス３１階,,27,119,5450052,,,,,,,2023-07-14,1,,,,,ヨロコ,0
154,1120003024470,新規,0,2023-07-14,2023-07-14,合同会社シャンディ,,合同会社,大阪府,大阪市中央区,安土町２丁目２番１５号,,27,128,5410052,,,,,,,2023-07-14,1,,,,,シャンディ,0
155,1120003024495,新規,0,2023-07-14,2023-07-14,合同会社Ｌｅａｐ,,合同会社,大阪府,大阪市阿倍野区,北畠３丁目７－２０－１０１,,27,119,5450035,,,,,,,2023-07-14,1,,,,,リープ,0
160,1120105009733,新規,0,2023-07-14,2023-07-14,一般社団法人農と暮らしの研究くらぶ,,その他の設立登記法人,大阪府,富田林市,須賀１丁目３０番６号,,27,214,5840062,,,,,,,2023-07-14,1,,,,,ノウトクラシノケンキュウクラブ,0
162,1120901047795,新規,0,2023-07-14,2023-07-14,株式会社周栄社,,株式会社,大阪府,吹田市,豊津町１番１８号エクラート江坂ビル３Ｆ,,27,205,5640051,,,,,,,2023-07-14,1,,,,,シュウエイシャ,0
163,1120905006491,新規,0,2023-07-14,2023-07-14,一般社団法人北摂相続センター,,その他の設立登記法人,大阪府,豊中市,上新田１丁目２４番Ｍ－１０６号,,27,203,5600085,,,,,,,2023-07-14,1,,,,,ホクセツソウゾクセンター,0
165,1122001037149,新規,0,2023-07-14,2023-07-14,株式会社西日本セブンスリーゴルフクラブ,,株式会社,大阪府,大東市,浜町８番２２号,,27,218,5740041,,,,,,,2023-07-14,1,,,,,ニシニホンセブンスリーゴルフクラブ,0
167,1122005003691,新規,0,2023-07-14,2023-07-14,医療法人栄冠会,,その他の設立登記法人,大阪府,東大阪市,西鴻池町２丁目２番２８号ｑｕａｔｒｅＹｏｓｈｉｄａ１階,,27,227,5780976,,,,,,,2023-07-14,1,,,,,エイカンカイ,0
169,1130001074632,新規,0,2023-07-14,2023-07-14,株式会社抹茶ツーリズム,,株式会社,京都府,相楽郡和束町,大字原山小字小瀬谷１－１,,26,365,6191202,,,,,,,2023-07-14,1,,,,,マッチャツーリズム,0
176,1140001130839,新規,0,2023-07-14,2023-07-14,株式会社ＬＩＶＥ　ＧＯ,,株式会社,兵庫県,芦屋市,大原町９番２－７０３号,,28,206,6590092,,,,,,,2023-07-14,1,,,,,ライブゴー,0
177,1140001130855,新規,0,2023-07-14,2023-07-14,株式会社ＩＤＥＡＬ,,株式会社,兵庫県,尼崎市,小中島２丁目１０番１０－６０２号,,28,202,6610972,,,,,,,2023-07-14,1,,,,,アイディール,0
199,1180301037581,新規,0,2023-07-14,2023-07-14,株式会社匠造園,,株式会社,愛知県,岡崎市,滝町字外浦２１３番地２,,23,202,4443173,,,,,,,2023-07-14,1,,,,,タクミゾウエン,0
206,1180303005776,新規,0,2023-07-14,2023-07-14,合同会社ＢＥＥＣＨ,,合同会社,愛知県,知立市,新林町東新切２０番地４３,,23,225,4720017,,,,,,,2023-07-14,1,,,,,,0
208,1190001030588,新規,0,2023-07-14,2023-07-14,株式会社ＩＤＫ,,株式会社,三重県,津市,久居小野辺町１４５４番地６１,,24,201,5141112,,,,,,,2023-07-14,1,,,,,アイディーケー,0
223,1240005015613,新規,0,2023-07-14,2023-07-14,社会保険労務士法人シークス,,その他の設立登記法人,広島県,広島市安佐北区,深川３丁目２７番２８－８－６号,,34,106,7391751,,,,,,,2023-07-14,1,,,,,シークス,0
237,1290001102294,新規,0,2023-07-14,2023-07-14,株式会社ＳＬＩＦＥ　ＭＯＲＩ,,株式会社,福岡県,糟屋郡新宮町,大字立花口４２４番地８,,40,345,8110102,,,,,,,2023-07-14,1,,,,,エスライフモリ,0
238,1290001102303,新規,0,2023-07-14,2023-07-14,株式会社アールアールイー,,株式会社,福岡県,福津市,小竹２丁目４番３０号,,40,224,8113226,,,,,,,2023-07-14,1,,,,,アールアールイー,0
241,1290003014117,新規,0,2023-07-14,2023-07-14,合同会社ＪＯＹ　ＦＩＥＬＤ,,合同会社,福岡県,福岡市早良区,田村３丁目２８番１３号,,40,137,8140175,,,,,,,2023-07-14,1,,,,,ジョイフィールド,0
244,1330001031035,新規,0,2023-07-14,2023-07-14,株式会社ＫＧＢ,,株式会社,熊本県,熊本市中央区,新市街１番３号ホクショウビル２階,,43,101,8600803,,,,,,,2023-07-14,1,,,,,,0
246,1330003009905,新規,0,2023-07-14,2023-07-14,合同会社レッドスター,,合同会社,熊本県,合志市,須屋３１２１番地２,,43,216,8611102,,,,,,,2023-07-14,1,,,,,,0
259,1370001050188,新規,0,2023-07-14,2023-07-14,ＤＥＬＵＸＥ　ＭＯＴＯＲＳ株式会社,,株式会社,宮城県,仙台市太白区,八木山松波町２番２１号アカデミックハイツ１０３号室,,04,104,9820836,,,,,,,2023-07-14,1,,,,,デラックスモータース,0
264,1380001033844,新規,0,2023-07-14,2023-07-14,株式会社二瓶刃物,,株式会社,福島県,相馬郡飯舘村,草野字大師堂１１３番地３７,,07,564,9601801,,,,,,,2023-07-14,1,,,,,ニヘイハモノ,0
272,1390001017318,新規,0,2023-07-14,2023-07-14,株式会社楽果菜,,株式会社,山形県,山形市,前田町１０番２３号,,06,201,9902411,,,,,,,2023-07-14,1,,,,,ラカナ,0
275,1410001013545,新規,0,2023-07-14,2023-07-14,株式会社Ｓａｎｄｓ,,株式会社,秋田県,山本郡三種町,大口字大口１５４番地１９,,05,348,0182406,,,,,,,2023-07-14,1,,,,,サンズ,0
283,1430001089443,新規,0,2023-07-14,2023-07-14,ＭＫ　Ｔｒａｄｉｎｇ株式会社,,株式会社,北海道,苫小牧市,字沼ノ端５番地の１０４,,01,213,0591364,,,,,,,2023-07-14,1,,,,,エムケートレーディング,0
284,1430001089451,新規,0,2023-07-14,2023-07-14,株式会社Ｐｒｏｕｄ　Ｇｒｏｕｐ,,株式会社,北海道,札幌市北区,屯田五条５丁目４番２５－１０２号,,01,102,0020855,,,,,,,2023-07-14,1,,,,,プラウドグループ,0
289,1460001005810,新規,0,2023-07-14,2023-07-14,株式会社ｐａｉｎｔｓｈｏｐ．ｊａｐａｎ,,株式会社,北海道,釧路市,新富士町２丁目４番１６号,,01,206,0840904,,,,,,,2023-07-14,1,,,,,ペイントショップジャパン,0
291,1500001025069,新規,0,2023-07-14,2023-07-14,株式会社マルセイ,,株式会社,愛媛県,新居浜市,新田町２丁目９番３０号,,38,205,7920003,,,,,,,2023-07-14,1,,,,,マルセイ,0
293,1700150118438,新規,0,2023-07-14,2023-07-14,Ｓｈｅｎｚｈｅｎ　Ｚｈｅｎｇｘｉｎｔｏｎｇ　Ｔｅｃｈｎｏｌｏｇｙ　Ｃｏ．，ＬＴＤ,,外国会社等,,,,,,,,Ｎｏ．１３０１　Ｇｕａｎｇｕａｎｇ　Ｒｏａｄ，Ｘｉｎｌａｎ　Ｃｏｍｍｕｎｉｔｙ，Ｇｕａｎｌａｎ　Ｓｔｒｅｅｔ，Ｌｏｎｇｈｕａ　Ｄｉｓｔｒｉｃｔ　Ｙｉｎｘｉｎｇ　Ｔｅｃｈｎｏｌｏｇｙ　Ｂｕｉｌｄｉｎｇ　Ｃ８０６　Ｓｈｅｎｚｈｅｎ　Ｇｕａｎｇｄｏｎｇ　Ｐｒｏｖｉｎｃｅ　５１８１１０ＣＮ,,,,,,2023-07-14,1,,,,,シェンジェンシジャンシントンカージヨウシェンゴンスー,0
294,1700150118446,新規,0,2023-07-14,2023-07-14,Ｓｈｅｎｚｈｅｎ　Ｙｉｎｄａｏ　Ｔｅｃｈｎｏｌｏｇｙ　Ｃｏ．，Ｌｔｄ．,,外国会社等,,,,,,,,１１Ａ，Ｊｉｎｇｘｉｕ　Ｄｏｎｇｆａｎｇ　Ｍｅｉｙｉｇｅ，Ｎｏ．５０，Ｑｉｎｇｌｉｎ　Ｍｉｄｄｌｅ　Ｒｏａｄ，Ｙｕｙｕａｎ　Ｃｏｍｍｕｎｉｔｙ，Ｌｏｎｇｃｈｅｎｇ　Ｓｔｒｅｅｔ，Ｌｏｎｇｇａｎｇ　Ｄｉｓｔｒｉｃｔ，ｓｈｅｎｚｈｅｎ，Ｃｈｉｎａ,,,,,,2023-07-14,1,,,,,シンセンインダォウテクノロジーカンパニーリミテッド,0
301,2010005036937,新規,0,2023-07-14,2023-07-14,一般社団法人乳房科学研究所,,その他の設立登記法人,東京都,中央区,東日本橋３丁目７番７－１４０７号,,13,102,1030004,,,,,,,2023-07-14,1,,,,,ニュウボウカガクケンキュウショ,0
308,2010403030483,新規,0,2023-07-14,2023-07-14,Ｓａｌｌｙ　ｌａｂｏｒａｔｏｒｙ合同会社,,合同会社,東京都,港区,南青山２丁目２番１５号ＷｉｎＡｏｙａｍａビルＵＣＦ６３５,,13,103,1070062,,,,,,,2023-07-14,1,,,,,サリーラボラトリー,0
314,2010601063418,新規,0,2023-07-14,2023-07-14,康乾株式会社,,株式会社,東京都,江東区,亀戸５丁目２５－９金沐莊１０２,,13,108,1360071,,,,,,,2023-07-14,1,,,,,コウケン,0
315,2010601063426,新規,0,2023-07-14,2023-07-14,株式会社ＡＩ　ｃｏｍｐａｓｓｉｏｎ,,株式会社,東京都,江東区,有明１丁目１番１７－１１０１号,,13,108,1350063,,,,,,,2023-07-14,1,,,,,エイアイコンパッション,0
318,2010701044557,新規,0,2023-07-14,2023-07-14,株式会社ｍｅｌｌｉｚｏｓ,,株式会社,東京都,品川区,東品川４丁目９番２４－１０６号,,13,109,1400002,,,,,,,2023-07-14,1,,,,,メリソス,0
328,2011003017061,新規,0,2023-07-14,2023-07-14,合同会社Ｂｉｊｏｕ　Ｒ．Ｉ,,合同会社,東京都,渋谷区,鉢山町１１－１ＭＦＰＲコート代官山２０２,,13,113,1500035,,,,,,,2023-07-14,1,,,,,ビジューアールアイ,0
329,2011003017169,新規,0,2023-07-14,2023-07-14,合同会社プリムローズ,,合同会社,東京都,渋谷区,代々木１丁目３０番１５号天翔代々木ビルｓ５１１,,13,113,1510053,,,,,,,2023-07-14,1,,,,,プリムローズ,0
334,2011101103614,新規,0,2023-07-14,2023-07-14,株式会社未来投資会議,,株式会社,東京都,新宿区,西新宿６丁目１５番１号ラ・トゥール新宿４１４,,13,104,1600023,,,,,,,2023-07-14,1,,,,,ミライトウシカイギ,0
335,2011101103622,新規,0,2023-07-14,2023-07-14,株式会社Ｊｕｐｉｔｅｒ＆Ｃｏ,,株式会社,東京都,新宿区,百人町１丁目８番５号,,13,104,1690073,,,,,,,2023-07-14,1,,,,,ジュピターアンドコー,0
337,2011105010724,新規,0,2023-07-14,2023-07-14,土地家屋調査士法人ＡＬＢＡ総合事務所,,その他の設立登記法人,東京都,新宿区,新宿１丁目５番４号ＹＫＢマイクガーデン５Ｆ,,13,104,1600022,,,,,,,2023-07-14,1,,,,,アルバソウゴウジムショ,0
339,2011205002563,新規,0,2023-07-14,2023-07-14,弁理士法人仲野・川井国際特許事務所,,その他の設立登記法人,東京都,中野区,中央１丁目４３番１５号マンションヴィップ中野坂上７０４,,13,114,1640011,,,,,,,2023-07-14,1,,,,,ナカノカワイコクサイトッキョジムショ,0
341,2011301028859,新規,0,2023-07-14,2023-07-14,２Ｆｅａｒｌｅｓｓ株式会社,,株式会社,東京都,杉並区,高円寺南４丁目１３－８－３０１号室,,13,115,1660003,,,,,,,2023-07-14,1,,,,,ツーフィアレス,0
342,2011301028867,新規,0,2023-07-14,2023-07-14,株式会社ＢＬＯＯＭＯＭ,,株式会社,東京都,杉並区,永福３丁目３２番２３号ＶＩＬＬＡＮＩＳＨＩＥＩＦＵＫＵ２０５,,13,115,1680064,,,,,,,2023-07-14,1,,,,,,0
343,2011401025285,新規,0,2023-07-14,2023-07-14,株式会社Ｔｉｎｙ　Ｒｅｃ,,株式会社,東京都,板橋区,板橋３丁目９－１２,,13,119,1730004,,,,,,,2023-07-14,1,,,,,タイニーレック,0
345,2011501029541,新規,0,2023-07-14,2023-07-14,株式会社クロワゼ,,株式会社,東京都,北区,西ケ原４丁目３１番２号,,13,117,1140024,,,,,,,2023-07-14,1,,,,,クロワゼ,0
351,2011701026396,新規,0,2023-07-14,2023-07-14,株式会社ぶどうの樹,,株式会社,東京都,江戸川区,東小岩６丁目１２番５号,,13,123,1330052,,,,,,,2023-07-14,1,,,,,ブドウノキ,0
352,2011701026421,新規,0,2023-07-14,2023-07-14,株式会社Ｆａｃｉｌｉｔｙ,,株式会社,東京都,江戸川区,春江町２丁目１７番１５号,,13,123,1320003,,,,,,,2023-07-14,1,,,,,ファシリティ,0
354,2011801042715,新規,0,2023-07-14,2023-07-14,Ｉｎｎｏｖａｔｅ　Ａｄ株式会社,,株式会社,東京都,足立区,扇３丁目１９番５－４０２号,,13,121,1230873,,,,,,,2023-07-14,1,,,,,イノベートアド,0
358,2012401040745,新規,0,2023-07-14,2023-07-14,株式会社みかぐら,,株式会社,東京都,府中市,住吉町５丁目１０番地の１プラウド府中中河原５２３,,13,206,1830034,,,,,,,2023-07-14,1,,,,,ミカグラ,0
374,2020001152489,新規,0,2023-07-14,2023-07-14,ＩＭａ株式会社,,株式会社,神奈川県,横浜市中区,本牧原３番１－８０５号,,14,104,2310821,,,,,,,2023-07-14,1,,,,,アイマ,0
378,2021001079573,新規,0,2023-07-14,2023-07-14,株式会社ＴＫＲリフォーム,,株式会社,神奈川県,平塚市,横内４２０６番地の４９,,14,203,2540002,,,,,,,2023-07-14,1,,,,,ティーケーアールリフォーム,0
379,2021001079623,新規,0,2023-07-14,2023-07-14,株式会社ＧＲＡＮＤ,,株式会社,神奈川県,横須賀市,佐原１丁目７番４号,,14,201,2390835,,,,,,,2023-07-14,1,,,,,グランド,0
380,2021003013308,新規,0,2023-07-14,2023-07-14,合同会社エスワイサービス,,合同会社,神奈川県,厚木市,栄町１丁目１７番１２号ラヴィ本厚木３階Ａ号室,,14,212,2430017,,,,,,,2023-07-14,1,,,,,エスワイサービス,0
381,2021003013316,新規,0,2023-07-14,2023-07-14,合同会社こしらえ,,合同会社,神奈川県,相模原市緑区,二本松１丁目１１－１４,,14,151,2520137,,,,,,,2023-07-14,1,,,,,コシラエ,0
385,2030001154914,新規,0,2023-07-14,2023-07-14,株式会社ｂｏｎｄ　ｈｏｕｓｅ,,株式会社,埼玉県,さいたま市桜区,大字塚本３６９番地２４,,11,106,3380816,,,,,,,2023-07-14,1,,,,,ボンドハウス,0
386,2030001154955,新規,0,2023-07-14,2023-07-14,株式会社ｖｏｙａｇｅ,,株式会社,埼玉県,和光市,新倉３丁目２番３０号,,11,229,3510115,,,,,,,2023-07-14,1,,,,,ボヤージュ,0
392,2030003022061,新規,0,2023-07-14,2023-07-14,合同会社ジョイフルレイズ,,合同会社,埼玉県,戸田市,大字新曽２２０９番地アゼリア北戸田２０１号,,11,224,3350021,,,,,,,2023-07-14,1,,,,,ジョイフルレイズ,0
393,2030003022128,新規,0,2023-07-14,2023-07-14,朋音メディカル合同会社,,合同会社,埼玉県,飯能市,仲町３番７号１階,,11,209,3570038,,,,,,,2023-07-14,1,,,,,トモネメディカル,0
394,2030003022136,新規,0,2023-07-14,2023-07-14,合同会社ＳＳ　Ｏｎｌｉｎｅ,,合同会社,埼玉県,さいたま市浦和区,木崎２丁目２５番１号,,11,107,3300042,,,,,,,2023-07-14,1,,,,,エスエスオンライン,0
406,2050001053148,新規,0,2023-07-14,2023-07-14,株式会社つむぐ,,株式会社,茨城県,水戸市,南町３丁目３番３５号,,08,201,3100021,,,,,,,2023-07-14,1,,,,,ツムグ,0
414,2080001025739,新規,0,2023-07-14,2023-07-14,株式会社Ｃｕｒｅ,,株式会社,静岡県,藤枝市,末広２丁目８番地の７,,22,214,4260065,,,,,,,2023-07-14,1,,,,,キュア,0
418,2100003007105,新規,0,2023-07-14,2023-07-14,合同会社Ｇａｓｔｒｏｎｏｍｙ　Ｃｌｕｂ,,合同会社,長野県,上高井郡高山村,大字牧２４８６,,20,543,3820821,,,,,,,2023-07-14,1,,,,,ガストロノミークラブ,0
424,2110001037697,新規,0,2023-07-14,2023-07-14,株式会社ＧＲＡＣＥ,,株式会社,新潟県,南蒲原郡田上町,大字川船河甲８８２番地５,,15,361,9591513,,,,,,,2023-07-14,1,,,,,グレイス,0
426,2110003005116,新規,0,2023-07-14,2023-07-14,合同会社Ｇｒｏｗ,,合同会社,新潟県,新潟市西区,金巻８６８番地３,,15,107,9501112,,,,,,,2023-07-14,1,,,,,グロウ,0
432,2120001256395,新規,0,2023-07-14,2023-07-14,ＵＥＤＡエステート株式会社,,株式会社,大阪府,大阪市平野区,長吉六反３丁目３番２号,,27,126,5470012,,,,,,,2023-07-14,1,,,,,ウエダエステート,0
433,2120001256412,新規,0,2023-07-14,2023-07-14,株式会社スマイルファクトリー,,株式会社,大阪府,大阪市港区,弁天３丁目２番２１号,,27,107,5520007,,,,,,,2023-07-14,1,,,,,スマイルファクトリー,0
434,2120001256420,新規,0,2023-07-14,2023-07-14,株式会社エルズライン,,株式会社,大阪府,守口市,馬場町１丁目５番１８号コスモ守口ビル１階,,27,209,5700062,,,,,,,2023-07-14,1,,,,,エルズライン,0
435,2120001256429,新規,0,2023-07-14,2023-07-14,株式会社シーディエス,,株式会社,大阪府,大阪市浪速区,下寺２丁目６番１０号６０１号,,27,111,5560001,,,,,,,2023-07-14,1,,,,,シーディエス,0
436,2120001256437,新規,0,2023-07-14,2023-07-14,株式会社ＧＲＡＣＥソリューションズ,,株式会社,大阪府,大阪市北区,梅田２丁目５番８号千代田ビル西別館（ＧＲＡＣＥ司法書士法人内）,,27,127,5300001,,,,,,,2023-07-14,1,,,,,グレイスソリューションズ,0
437,2120001256453,新規,0,2023-07-14,2023-07-14,卓越商事株式会社,,株式会社,大阪府,大阪市天王寺区,烏ケ辻２丁目４－４－２０１,,27,109,5430042,,,,,,,2023-07-14,1,,,,,タクエツショウジ,0
438,2120001256461,新規,0,2023-07-14,2023-07-14,Ｒｅｆｅｒｅｎｃｅ株式会社,,株式会社,大阪府,大阪市阿倍野区,阪南町１丁目８番３号,,27,119,5450021,,,,,,,2023-07-14,1,,,,,リファレンス,0
441,2120003024478,新規,0,2023-07-14,2023-07-14,合同会社ＯＭＡコンサルティング,,合同会社,大阪府,大阪市北区,西天満２丁目９番８号幸田第２ビル４０１,,27,127,5300047,,,,,,,2023-07-14,1,,,,,オーエムエーコンサルティング,0
444,2120005023742,新規,0,2023-07-14,2023-07-14,医療法人暁会,,その他の設立登記法人,大阪府,大阪市北区,堂島浜１丁目１番１５号堂浜第ＩＩビル４階４０１号室,00131191,27,127,5300004,,,,,,,2023-07-14,1,,,,,アカツキカイ,0
446,2120101067908,新規,0,2023-07-14,2023-07-14,株式会社ＳＡＸＳＩＡ,,株式会社,大阪府,富田林市,小金台４丁目３番２号,,27,214,5840083,,,,,,,2023-07-14,1,,,,,サクシア,0
452,2130001074730,新規,0,2023-07-14,2023-07-14,株式会社米粉とみりん,,株式会社,京都府,京都市下京区,朱雀宝蔵町４４番地協栄ビル２階京都朱雀スタジオ,,26,106,6008846,,,,,,,2023-07-14,1,,,,,コメコトミリン,0
459,2140001130854,新規,0,2023-07-14,2023-07-14,ＵＮＩＭＡＫＥ株式会社,,株式会社,兵庫県,加古川市,加古川町本町６００,,28,210,6750037,,,,,,,2023-07-14,1,,,,,ユニメイク,0
462,2140003019311,新規,0,2023-07-14,2023-07-14,合同会社春日井,,合同会社,兵庫県,神戸市灘区,友田町４丁目３番４号ウォームスヴィル六甲南第二１０１号,,28,102,6570035,,,,,,,2023-07-14,1,,,,,カスガイ,0
464,2140005026685,新規,0,2023-07-14,2023-07-14,一般社団法人サンキタ,,その他の設立登記法人,兵庫県,神戸市中央区,三宮町３丁目１番１６号三星ビル２階株式会社神戸デザインセンター内,,28,110,6500021,,,,,,,2023-07-14,1,,,,,サンキタ,0
468,2170001017693,新規,0,2023-07-14,2023-07-14,株式会社ゆめのちから,,株式会社,和歌山県,和歌山市,栄谷９７６番地１５１,,30,201,6408441,,,,,,,2023-07-14,1,,,,,ユメノチカラ,0
472,2180001157159,新規,0,2023-07-14,2023-07-14,株式会社Ｌｉｂｅｒｔｙ　Ｂｌｕｅ,,株式会社,愛知県,一宮市,時之島字詫美４８番地３,,23,203,4910002,,,,,,,2023-07-14,1,,,,,リバティーブルー,0
473,2180001157200,新規,0,2023-07-14,2023-07-14,株式会社Ｖｉｎｅ,,株式会社,愛知県,名古屋市中区,大須４丁目１４番６２号リード上前津３階,,23,106,4600011,,,,,,,2023-07-14,1,,,,,バイン,0
482,2180301037572,新規,0,2023-07-14,2023-07-14,富嶽ホールディングス株式会社,,株式会社,愛知県,知立市,牛田町尼子田１番地１,,23,225,4720007,,,,,,,2023-07-14,1,,,,,フガクホールディングス,0
483,2180301037580,新規,0,2023-07-14,2023-07-14,ＭＯＳＴ　ＪＡＰＡＮ株式会社,,株式会社,愛知県,岡崎市,稲熊町字７丁目４１番地７６,,23,202,4440071,,,,,,,2023-07-14,1,,,,,モストジャパン,0
497,2230001019915,新規,0,2023-07-14,2023-07-14,株式会社ティーツリー,,株式会社,富山県,高岡市,角６８５番地１１,,16,202,9330007,,,,,,,2023-07-14,1,,,,,ティーツリー,0
502,2240001061809,新規,0,2023-07-14,2023-07-14,株式会社九頭,,株式会社,広島県,東広島市,高屋町杵原３９９８番地１０１,,34,212,7392102,,,,,,,2023-07-14,1,,,,,クズ,0
507,2240005015612,新規,0,2023-07-14,2023-07-14,税理士法人Ａ會計事務所,,その他の設立登記法人,広島県,東広島市,西条町御薗宇７２０５番地４,,34,212,7390024,,,,,,,2023-07-14,1,,,,,エースカイケイジムショ,0
513,2270003001537,新規,0,2023-07-14,2023-07-14,イワドベース合同会社,,合同会社,鳥取県,鳥取市,福部町岩戸１番地１,,31,201,6890101,,,,,,,2023-07-14,1,,,,,イワドベース,0
518,2290001102293,新規,0,2023-07-14,2023-07-14,株式会社ＴＫ,,株式会社,福岡県,福岡市東区,多の津４丁目７番１４号藤吉ビル４階,,40,131,8130034,,,,,,,2023-07-14,1,,,,,ティーケー,0
519,2290001102310,新規,0,2023-07-14,2023-07-14,碧エンタープライズ株式会社,,株式会社,福岡県,福岡市南区,鶴田３丁目２５番８号,,40,134,8111352,,,,,,,2023-07-14,1,,,,,アオイエンタープライズ,0
520,2320001019880,新規,0,2023-07-14,2023-07-14,株式会社平和で安心な諭吉乃里,,株式会社,大分県,中津市,大字高瀬８４６番地１,,44,203,8710026,,,,,,,2023-07-14,1,,,,,ヘイワデアンシンナユキチノサト,0
524,2340001025712,新規,0,2023-07-14,2023-07-14,サンライズ株式会社,,株式会社,鹿児島県,鹿児島市,坂之上６丁目１１番３６号,,46,201,8910150,,,,,,,2023-07-14,1,,,,,サンライズ,0
525,2350001018450,新規,0,2023-07-14,2023-07-14,Ｐｈｉｌｌｉｐｓ　Ｉｎｖｅｓｔｍｅｎｔｓ株式会社,,株式会社,宮崎県,宮崎市,大工３丁目８２－１０７,,45,201,8800015,,,,,,,2023-07-14,1,,,,,フィリップスインベストメンツ,0
537,2380005012728,新規,0,2023-07-14,2023-07-14,ＮＰＯ法人かたつ夢里,,その他の設立登記法人,福島県,西白河郡西郷村,大字小田倉字小田倉原９番地２,,07,461,9618061,,,,,,,2023-07-14,1,,,,,カタツムリ,0
539,2390001017317,新規,0,2023-07-14,2023-07-14,株式会社ハセコーポレーション,,株式会社,山形県,山形市,大字十文字３４５５番地,,06,201,9902211,,,,,,,2023-07-14,1,,,,,ハセコーポレーション,0
543,2410001013552,新規,0,2023-07-14,2023-07-14,株式会社渡部商事,,株式会社,秋田県,大仙市,高関上郷字高屋敷６１番地,,05,212,0140103,,,,,,,2023-07-14,1,,,,,ワタナベショウジ,0
550,2430001089450,新規,0,2023-07-14,2023-07-14,株式会社ソリフト,,株式会社,北海道,苫小牧市,元中野町２丁目１８－９　１階右,,01,213,0530005,,,,,,,2023-07-14,1,,,,,ソリフト,0
551,2430003015231,新規,0,2023-07-14,2023-07-14,合同会社ひらく,,合同会社,北海道,札幌市手稲区,新発寒一条３丁目９番１８号,,01,109,0060801,,,,,,,2023-07-14,1,,,,,ヒラク,0
558,2480001012143,新規,0,2023-07-14,2023-07-14,株式会社フィットスマートホーム分割準備会社,,株式会社,徳島県,板野郡松茂町,中喜来字群恵３９番地１,,36,401,7710212,,,,,,,2023-07-14,1,,,,,フィットスマートホームブンカツジュンビガイシャ,0
560,2490001010534,新規,0,2023-07-14,2023-07-14,株式会社ティーエージャパンカンパニー,,株式会社,高知県,高知市,廿代町４番２０号,,39,201,7800843,,,,,,,2023-07-14,1,,,,,ティーエージャパンカンパニー,0
562,2700150114832,新規,0,2023-07-14,2023-07-14,Ｇｕａｎｇｚｈｏｕｓｈｉ　Ｃｈａｎｇｗａｎｇ　Ｄｉａｎｚｉｓｈａｎｇｗｕ　Ｙｏｕｘｉａｎｇｏｎｇｓｉ,,外国会社等,,,,,,,,Ｐａｎｙｕ　Ｑｕ　Ｓｈｉｑｉａｏ　Ｊｉｅ　Ｊｉｅｊｉｎｚｈｏｎｇ　Ｌｕ　１１－１３　Ｈａｏ　Ｆｕｄｕｄａｓｈａ　Ｅｒｃｅｎｇ　Ｓｈａｎｇｃｈａｎｇ　２０７　Ｇｕａｎｇｚｈｏｕ　Ｇｕａｎｇｄｏｎｇ　５１１４０４　ＣＮ,,,,,,2023-07-14,1,,,,,グワンジヨウシチヤンワンデイエンズシヤンウーヨウシエンゴンス,0
563,2700150118429,新規,0,2023-07-14,2023-07-14,Ｑｉｎｇｄａｏ　Ｚｈｏｎｇｃｈｏｎｇ　Ｐｅｔ　Ｐｒｏｄｕｃｔｓ　Ｃｏ．，Ｌｔｄ,,外国会社等,,,,,,,,１００３，１０ｔｈ　ｆｌｏｏｒ，Ｎｏ．２８　Ｌｏｎｇｃｈｅｎｇ　Ｒｏａｄ，Ｓｈｉｂｅｉ　Ｄｉｓｔｒｉｃｔ　Ｑｉｎｇｄａｏ　Ｓｈａｎｄｏｎｇ　２６６０００　ＣＮ,,,,,,2023-07-14,1,,,,,チンダオジョンチョンチョンウヨンピンヨウシェンゴンスー,0
564,2700150118437,新規,0,2023-07-14,2023-07-14,Ｓｈｅｎｚｈｅｎ　Ｋｏｎｇｘｉａｎ　Ｔｅｃｈｎｏｌｏｇｙ　Ｃｏ．，Ｌｔｄ,,外国会社等,,,,,,,,Ａｉｌｉａｎ　Ｃｏｍｍｕｎｉｔｙ，Ｌｏｎｇｃｈｅｎｇ　Ｓｔｒｅｅｔ　Ｒｏｏｍ　３５０８，Ｂｌｏｃｋ　Ａ，Ｂｕｉｌｄｉｎｇ　１，ＣＯＦＣＯ　Ｘｉａｎｇｙｕｎ　Ｓｈｅｎｚｈｅｎ　Ｌｏｎｇｇａｎｇ　Ｄｉｓｔｒｉｃｔ　Ｇｕａｎｇｄｏｎｇ　Ｐｒｏｖｉｎｃｅ　５１８１００ＣＮ,,,,,,2023-07-14,1,,,,,シェンジェンシコンシェンカージヨウシェンゴンスー,0
565,2700150118445,新規,0,2023-07-14,2023-07-14,Ｋｕ　Ｅｒ　Ｍｅｉ　Ｃｈｕａｎｇ　Ｘｉｎ　Ｋｅ　Ｊｉ　Ｙｏｕ　Ｘｉａｎ　Ｇｏｎｇ　Ｓｉ,,外国会社等,,,,,,,,ｌｏｎｇｇａｎｇ　ｑｕ，ｌｏｎｇ　ｃｈｅｎｇ　ｊｉｅ　ｄａｏ，ｓｈｅｎｇｐｉｎｇ　ｓｈｅ　ｑｕ，ｓｈｅｎｇｌｏｎｇ　ｌｕ　ｗａｎ　ｘｉａｎｇ　ｔｉａｎ　ｃｈｅｎｇ，３　ｄｏｎｇ　９０３　ＳｈｅｎＺｈｅｎ　ＧｕａｎｇＤｏｎｇ，Ｃｈｉｎａ,,,,,,2023-07-14,1,,,,,クエメイツゥアンシンケジユウゲンコウシ,0
578,3010001236795,新規,0,2023-07-14,2023-07-14,株式会社Ｋｕｑｕｌｕ　Ｈｏｌｄｉｎｇｓ,,株式会社,東京都,千代田区,九段南４丁目７番２２号２階,,13,101,1020074,,,,,,,2023-07-14,1,,,,,ククルホールディングス,0
579,3010001236812,新規,0,2023-07-14,2023-07-14,ＡＮＩＭＡ３．０株式会社,,株式会社,東京都,中央区,京橋１丁目６－１３ＶＯＲＴ京橋ＩＩ,00131188,13,102,1040031,,,,,,,2023-07-14,1,,,,,アニマサンテンゼロ,0
580,3010001236845,新規,0,2023-07-14,2023-07-14,株式会社ＤＡＯエージェンシー,,株式会社,東京都,千代田区,平河町２丁目５番３号,,13,101,1020093,,,,,,,2023-07-14,1,,,,,ダオエージェンシー,0
581,3010001236861,新規,0,2023-07-14,2023-07-14,株式会社Ｇｕａｒｄ　ｍａｎ秀虎・東京,,株式会社,東京都,千代田区,麹町６丁目４番地９,,13,101,1020083,,,,,,,2023-07-14,1,,,,,ガードマンヒデトラトウキョウ,0
582,3010001236952,新規,0,2023-07-14,2023-07-14,ノバテック株式会社,,株式会社,東京都,中央区,日本橋茅場町３丁目１２－４・７階,,13,102,1030025,,,,,,,2023-07-14,1,,,,,ノバテック,0
592,3010401175651,新規,0,2023-07-14,2023-07-14,ナイトドクター株式会社,,株式会社,東京都,港区,赤坂２丁目１０番１号,,13,103,1070052,,,,,,,2023-07-14,1,,,,,ナイトドクター,0
593,3010401175718,新規,0,2023-07-14,2023-07-14,株式会社Ｌ１ＦＴＹ,,株式会社,東京都,港区,南青山３丁目１番３６号青山丸竹ビル６Ｆ,,13,103,1070062,,,,,,,2023-07-14,1,,,,,リフティー,0
604,3010603010251,新規,0,2023-07-14,2023-07-14,合同会社Ｋａｒｅｋｅｌ,,合同会社,東京都,墨田区,菊川３丁目６番６－８０５号,,13,107,1300024,,,,,,,2023-07-14,1,,,,,カレケル,0
636,3011101103596,新規,0,2023-07-14,2023-07-14,株式会社Ｙ７‐Ｏ‐ＲＥＧＡＬＩＡ,,株式会社,東京都,新宿区,歌舞伎町２丁目２４番７号エコロ新宿第２ビル５０１号室,,13,104,1600021,,,,,,,2023-07-14,1,,,,,ワイセブンオーレガリア,0
637,3011101103613,新規,0,2023-07-14,2023-07-14,株式会社フェミウェル,,株式会社,東京都,新宿区,西新宿３丁目３番１３号西新宿水間ビル２Ｆ,,13,104,1600023,,,,,,,2023-07-14,1,,,,,フェミウェル,0
641,3011201024775,新規,0,2023-07-14,2023-07-14,株式会社ＱＰＤＯ,,株式会社,東京都,中野区,沼袋３丁目２８番９号,,13,114,1650025,,,,,,,2023-07-14,1,,,,,キューピーディーオー,0
643,3011501029524,新規,0,2023-07-14,2023-07-14,駿商事株式会社,,株式会社,東京都,北区,赤羽１丁目７－９赤羽第一葉山ビル４Ｆ,,13,117,1150045,,,,,,,2023-07-14,1,,,,,ハヤオショウジ,0
645,3011503005688,新規,0,2023-07-14,2023-07-14,合同会社ブレイク,,合同会社,東京都,北区,赤羽南１丁目５番７号,,13,117,1150044,,,,,,,2023-07-14,1,,,,,ブレイク,0
657,3012801022508,新規,0,2023-07-14,2023-07-14,株式会社ＨＫＹトラスト,,株式会社,東京都,昭島市,玉川町５丁目１４番１５号,,13,207,1960034,,,,,,,2023-07-14,1,,,,,エイチケイワイトラスト,0
659,3020001152521,新規,0,2023-07-14,2023-07-14,株式会社ワンダーインプレスト,,株式会社,神奈川県,横浜市港北区,新羽町６２２番地１クリオ新横浜北参番館５１３号室,,14,109,2230057,,,,,,,2023-07-14,1,,,,,ワンダーインプレスト,0
660,3020001152538,新規,0,2023-07-14,2023-07-14,株式会社Ｓｅｔ．Ｍ,,株式会社,神奈川県,川崎市幸区,戸手２丁目７番１３号,,14,132,2120005,,,,,,,2023-07-14,1,,,,,セットドットエム,0
661,3020001152546,新規,0,2023-07-14,2023-07-14,ＣＲＡＷＬ　ＵＰ株式会社,,株式会社,神奈川県,横浜市中区,末吉町３丁目５１番地メゾンイセザキ９０６号室,,14,104,2310055,,,,,,,2023-07-14,1,,,,,クロールアップ,0
662,3020003024215,新規,0,2023-07-14,2023-07-14,合同会社ツムグ,,合同会社,神奈川県,川崎市宮前区,南野川３丁目２８番２４号サニーウェルくぬぎ坂Ｉ３０５,00131183,14,136,2160042,,,,,,,2023-07-14,1,,,,,ツムグ,0
664,3021001079597,新規,0,2023-07-14,2023-07-14,株式会社アラケン,,株式会社,神奈川県,相模原市中央区,緑が丘２丁目２８番１５号,,14,152,2520225,,,,,,,2023-07-14,1,,,,,アラケン,0
666,3030001154863,新規,0,2023-07-14,2023-07-14,株式会社カシワ,,株式会社,埼玉県,川口市,並木２丁目１４番１－８０３号クリオ西川口参番館,,11,203,3320034,,,,,,,2023-07-14,1,,,,,カシワ,0
667,3030001154954,新規,0,2023-07-14,2023-07-14,株式会社Ｐ．Ｓ　ＣＲＡＦＴ,,株式会社,埼玉県,飯能市,大字上畑１６番地１,,11,209,3570053,,,,,,,2023-07-14,1,,,,,ピーエスクラフト,0
668,3030001154970,新規,0,2023-07-14,2023-07-14,株式会社武蔵野,,株式会社,埼玉県,北葛飾郡杉戸町,倉松３丁目２番３５号,,11,464,3450034,,,,,,,2023-07-14,1,,,,,ムサシノ,0
670,3030003022069,新規,0,2023-07-14,2023-07-14,合同会社ＳＴ,,合同会社,埼玉県,草加市,草加２丁目１１番１９－１０５号,,11,221,3400043,,,,,,,2023-07-14,1,,,,,エスティ,0
671,3030003022135,新規,0,2023-07-14,2023-07-14,合同会社ＤＵＲＧＡ,,合同会社,埼玉県,日高市,大字高萩８０９－８,,11,242,3501213,,,,,,,2023-07-14,1,,,,,ドゥルガー,0
672,3030003022143,新規,0,2023-07-14,2023-07-14,フィレールジャパン合同会社,,合同会社,埼玉県,川越市,新宿町５丁目２３番地３１,,11,201,3501124,,,,,,,2023-07-14,1,,,,,フィレールジャパン,0
674,3040001129187,新規,0,2023-07-14,2023-07-14,株式会社Ｔ．Ｊ’ｓ,,株式会社,千葉県,千葉市中央区,富士見２丁目２１番１号１階,,12,101,2600015,,,,,,,2023-07-14,1,,,,,ティージェーズ,0
675,3040001129212,新規,0,2023-07-14,2023-07-14,あんじゅ株式会社,,株式会社,千葉県,浦安市,当代島２丁目１番２７号（石長ビル３階）,,12,227,2790001,,,,,,,2023-07-14,1,,,,,アンジュ,0
676,3040001129220,新規,0,2023-07-14,2023-07-14,株式会社ＰＲＥＸＩＡ,,株式会社,千葉県,船橋市,みやぎ台１丁目２４番１２号,,12,204,2740804,,,,,,,2023-07-14,1,,,,,プレシア,0
677,3040001129229,新規,0,2023-07-14,2023-07-14,株式会社三日月ホールディングス,,株式会社,千葉県,木更津市,北浜町１番地,,12,206,2920006,,,,,,,2023-07-14,1,,,,,ミカヅキホールディングス,0
678,3040001129245,新規,0,2023-07-14,2023-07-14,Ｒｙｕ‐Ｔｏｕ　Ｃｏｍｐａｎｙ株式会社,,株式会社,千葉県,千葉市花見川区,柏井１丁目３１番８号ロイヤルビバレッジ八千代台１０３号,,12,102,2620048,,,,,,,2023-07-14,1,,,,,リュウトウカンパニー,0
679,3040001129286,新規,0,2023-07-14,2023-07-14,エクソスフィア株式会社,,株式会社,千葉県,市川市,八幡２丁目９－１５ブラッサムフォーラム市川,,12,203,2720021,,,,,,,2023-07-14,1,,,,,エクソスフィア,0
684,3040003022951,新規,0,2023-07-14,2023-07-14,合同会社ビジネスめいそう,,合同会社,千葉県,市川市,関ケ島１２番１６－３０８号（アゼリアマンション）,,12,203,2720105,,,,,,,2023-07-14,1,,,,,ビジネスメイソウ,0
685,3040005022066,新規,0,2023-07-14,2023-07-14,一般社団法人子ども達の未来を応援する実行委員会,,その他の設立登記法人,千葉県,東金市,家徳７９０番地１,,12,213,2830062,,,,,,,2023-07-14,1,,,,,コドモタチノミライヲオウエンスルジッコウイインカイ,0
695,3070001040647,新規,0,2023-07-14,2023-07-14,株式会社津金土地開発,,株式会社,群馬県,富岡市,富岡９５５番地３,,10,210,3702316,,,,,,,2023-07-14,1,,,,,ツガネトチカイハツ,0
703,3100001036583,新規,0,2023-07-14,2023-07-14,株式会社Ｂｌｉｓｓ,,株式会社,長野県,岡谷市,１８７３番地４,,20,204,3940091,,,,,,,2023-07-14,1,,,,,ブリス,0
707,3110001037696,新規,0,2023-07-14,2023-07-14,株式会社Ｆｌｏｒａｉｓｏｎ,,株式会社,新潟県,長岡市,台町１丁目８－１、１階,,15,202,9400048,,,,,,,2023-07-14,1,,,,,フロレゾン,0
711,3120001256353,新規,0,2023-07-14,2023-07-14,株式会社エル,,株式会社,大阪府,大阪市阿倍野区,昭和町２丁目１９番２８号－４０１号,,27,119,5450011,,,,,,,2023-07-14,1,,,,,エル,0
712,3120001256361,新規,0,2023-07-14,2023-07-14,李文株式会社,,株式会社,大阪府,大阪市淀川区,田川北２丁目５－３４・Ｄ棟２０１室,,27,123,5320021,,,,,,,2023-07-14,1,,,,,リブン,0
713,3120001256411,新規,0,2023-07-14,2023-07-14,Ｖａｐｏｒｅｘ環境株式会社,,株式会社,大阪府,大阪市淀川区,西中島６丁目２番３号,,27,123,5320011,,,,,,,2023-07-14,1,,,,,ヴェポレックスカンキョウ,0
714,3120001256436,新規,0,2023-07-14,2023-07-14,ＭｅｔａＰｒｏｐｅｒｔｙ株式会社,,株式会社,大阪府,大阪市北区,梅田１丁目２番２号大阪駅前第２ビル１２－１２,,27,127,5300001,,,,,,,2023-07-14,1,,,,,メタプロパティー,0
715,3120001256444,新規,0,2023-07-14,2023-07-14,株式会社ＮＥＸＴ　ＳＩＧＮＡＬ,,株式会社,大阪府,大阪市中央区,南本町１丁目３－１４,,27,128,5410054,,,,,,,2023-07-14,1,,,,,ネクストシグナル,0
716,3120001256460,新規,0,2023-07-14,2023-07-14,グリーン建設株式会社,,株式会社,大阪府,大阪市西成区,南津守３丁目１番７７号,,27,122,5570063,,,,,,,2023-07-14,1,,,,,グリーンケンセツ,0
720,3120003024428,新規,0,2023-07-14,2023-07-14,Ｌｕｃｋｙ合同会社,,合同会社,大阪府,大阪市生野区,新今里４丁目３番２３号,,27,116,5440001,,,,,,,2023-07-14,1,,,,,ラッキー,0
721,3120003024485,新規,0,2023-07-14,2023-07-14,合同会社内匠産業,,合同会社,大阪府,守口市,暁町３番６号,,27,209,5700022,,,,,,,2023-07-14,1,,,,,タクミサンギョウ,0
722,3120003024493,新規,0,2023-07-14,2023-07-14,合同会社林工房,,合同会社,大阪府,大阪市淀川区,西三国１丁目１４番３号,,27,123,5320006,,,,,,,2023-07-14,1,,,,,ハヤシコウボウ,0
729,3130001074647,新規,0,2023-07-14,2023-07-14,株式会社Ｃ２‐Ｌａｂ,,株式会社,京都府,京都市西京区,桂坤町４２番地の１１,,26,111,6158084,,,,,,,2023-07-14,1,,,,,シーツーラボ,0
730,3130001074713,新規,0,2023-07-14,2023-07-14,株式会社シフト,,株式会社,京都府,京都市伏見区,深草稲荷中之町５８,,26,109,6120807,,,,,,,2023-07-14,1,,,,,シフト,0
731,3130003008842,新規,0,2023-07-14,2023-07-14,合同会社Ｊｉｂ,,合同会社,京都府,京都市右京区,山ノ内山ノ下町６番地３パラドール四条山ノ内ウエストシティ５１３号,,26,108,6150084,,,,,,,2023-07-14,1,,,,,ジブ,0
736,3140001130812,新規,0,2023-07-14,2023-07-14,株式会社ブルーオーシャン,,株式会社,兵庫県,西宮市,上ケ原十番町２－３０－５０３,,28,204,6620884,,,,,,,2023-07-14,1,,,,,ブルーオーシャン,0
737,3140001130845,新規,0,2023-07-14,2023-07-14,株式会社ＶＡＮＲＯＣＫ,,株式会社,兵庫県,姫路市,南新在家２０番２８号,,28,201,6700093,,,,,,,2023-07-14,1,,,,,ヴァンロック,0
742,3140003019310,新規,0,2023-07-14,2023-07-14,合同会社日章コンサルティング,,合同会社,兵庫県,西宮市,宮前町５番１５号,,28,204,6620947,,,,,,,2023-07-14,1,,,,,ニッショウコンサルティング,0
745,3160001025184,新規,0,2023-07-14,2023-07-14,株式会社Ｂｅ,,株式会社,滋賀県,草津市,平井２丁目２番８号,,25,206,5250023,,,,,,,2023-07-14,1,,,,,ビー,0
749,3170003001901,新規,0,2023-07-14,2023-07-14,合同会社Ｌｅ　Ｌｉｅｎ,,合同会社,和歌山県,岩出市,桜台２６７番地,,30,209,6496203,,,,,,,2023-07-14,1,,,,,ルリアン,0
755,3180001157166,新規,0,2023-07-14,2023-07-14,株式会社エムズ,,株式会社,愛知県,西春日井郡豊山町,大字豊場字冨士５７番地ファミールＭ,,23,342,4800202,,,,,,,2023-07-14,1,,,,,エムズ,0
756,3180001157182,新規,0,2023-07-14,2023-07-14,株式会社カーチス,,株式会社,愛知県,名古屋市北区,芦辺町２丁目７番地,,23,103,4620856,,,,,,,2023-07-14,1,,,,,カーチス,0
759,3180003025486,新規,0,2023-07-14,2023-07-14,合同会社奈々,,合同会社,愛知県,名古屋市中村区,名駅南３丁目１３番地３５号シャトレ愛松名駅南５０１号,,23,105,4500003,,,,,,,2023-07-14,1,,,,,ナナ,0
760,3180003025503,新規,0,2023-07-14,2023-07-14,合同会社プラージヤ,,合同会社,愛知県,北名古屋市,久地野戌亥６１番地８,,23,234,4810012,,,,,,,2023-07-14,1,,,,,プラージヤ,0
762,3180301037571,新規,0,2023-07-14,2023-07-14,株式会社かふう,,株式会社,愛知県,豊田市,西町３丁目２６番地桜井ビル２Ｆ,,23,211,4710025,,,,,,,2023-07-14,1,,,,,カフウ,0
765,3190001030586,新規,0,2023-07-14,2023-07-14,株式会社肉笑,,株式会社,三重県,伊賀市,平野上川原１３３番地の８,,24,216,5180807,,,,,,,2023-07-14,1,,,,,ニクショウ,0
767,3200001041499,新規,0,2023-07-14,2023-07-14,株式会社ｉｓｍ,,株式会社,岐阜県,岐阜市,長住町２丁目６番地,,21,201,5008175,,,,,,,2023-07-14,1,,,,,イズム,0
776,3240001061824,新規,0,2023-07-14,2023-07-14,株式会社ヒノクマ,,株式会社,広島県,廿日市市,宮島町３１０番地,,34,213,7390588,,,,,,,2023-07-14,1,,,,,ヒノクマ,0
778,3240003006224,新規,0,2023-07-14,2023-07-14,Ｍ‐Ｂａｓｅ合同会社,,合同会社,広島県,東広島市,高屋町宮領１０３２番地８８,,34,212,7392103,,,,,,,2023-07-14,1,,,,,エムベース,0
788,3290001102284,新規,0,2023-07-14,2023-07-14,株式会社ｉｃｈｉｍａｒｕ,,株式会社,福岡県,久留米市,上津町２０７２番地２１５,,40,203,8300052,,,,,,,2023-07-14,1,,,,,イチマル,0
789,3290001102301,新規,0,2023-07-14,2023-07-14,惠寿ホールディングス株式会社,,株式会社,福岡県,福岡市博多区,下川端町１０番１６－１６０１号,,40,132,8120027,,,,,,,2023-07-14,1,,,,,エイジュホールディングス,0
790,3290801029693,新規,0,2023-07-14,2023-07-14,３Ｋカンパニー株式会社,,株式会社,福岡県,北九州市小倉北区,西港町１２５番８号,,40,106,8030801,,,,,,,2023-07-14,1,,,,,サンケーカンパニー,0
792,3320005010091,新規,0,2023-07-14,2023-07-14,一般社団法人ＳＵＮＮＹ,,その他の設立登記法人,大分県,大分市,久原中央２丁目６番１６号ウィンダム久原１０１,,44,201,8700325,,,,,,,2023-07-14,1,,,,,サニー,0
798,3360001032268,新規,0,2023-07-14,2023-07-14,株式会社ｉｚａｎａｍｉ,,株式会社,沖縄県,国頭郡本部町,字瀬底１５８５番地,,47,308,9050227,,,,,,,2023-07-14,1,,,,,イザナミ,0
803,3400001016324,新規,0,2023-07-14,2023-07-14,株式会社フィジオスバイオテック,,株式会社,岩手県,盛岡市,北飯岡２丁目４番２３号,,03,201,0200857,,,,,,,2023-07-14,1,,,,,フィジオスバイオテック,0
815,3460003000956,新規,0,2023-07-14,2023-07-14,合同会社トミケン,,合同会社,北海道,釧路市,共栄大通７丁目２番８号,,01,206,0850035,,,,,,,2023-07-14,1,,,,,トミケン,0
817,3470005006513,新規,0,2023-07-14,2023-07-14,ＮＰＯ法人三谷地区コミュニティ協議会,,その他の設立登記法人,香川県,高松市,三谷町１２０１番地１高松市三谷コミュニティセンター内,,37,201,7610450,,,,,,,2023-07-14,1,,,,,ミタニチクコミュニティキョウギカイ,0
822,3500001025067,新規,0,2023-07-14,2023-07-14,株式会社二宮建築,,株式会社,愛媛県,西予市,野村町四郎谷１号１０８５番地,,38,214,7971103,,,,,,,2023-07-14,1,,,,,ニノミヤケンチク,0
824,3700150118436,新規,0,2023-07-14,2023-07-14,Ｓｈｅｎｚｈｅｎ　ＧｏｎｇＴｒｕｓｔ　Ｓｕｐｐｌｙ　Ｃｈａｉｎ　Ｍａｎａｇｅｍｅｎｔ　Ｃｏ．，Ｌｔ,,外国会社等,,,,,,,,Ｒｏｏｍ　４０２，Ｂｕｉｌｄｉｎｇ　１，Ｎｏ．１，Ｘｉａｓｈｉｗｅｉ　Ｒｏａｄ，Ｈｕａｉｄｅ　Ｃｏｍｍｕｎｉｔｙ，Ｆｕｙｏｎｇ　Ｓｔｒｅｅｔ　Ｓｈｅｎｚｈｅｎ　Ｂａｏ’ａｎ　Ｄｉｓｔｒｉｃｔ　Ｇｕａｎｇｄｏｎｇ　５１８０００　ＣＮ,,,,,,2023-07-14,1,,,,,シェンジェンシゴンチョンゴンインリェングァンリーヨウシェンゴンスー,0
830,4010003041136,新規,0,2023-07-14,2023-07-14,合同会社ＨＯＣ,,合同会社,東京都,中央区,銀座１丁目１２番４号,,13,102,1040061,,,,,,,2023-07-14,1,,,,,エイチオーシー,0
832,4010005036951,新規,0,2023-07-14,2023-07-14,一般社団法人アシストスーツ協会,,その他の設立登記法人,東京都,中央区,銀座１丁目１２番４号Ｎ＆Ｅ・ＢＬＤ．６Ｆ,,13,102,1040061,,,,,,,2023-07-14,1,,,,,アシストスーツキョウカイ,0
843,4010401175700,新規,0,2023-07-14,2023-07-14,ｉＲａｓＷｉｓ株式会社,,株式会社,東京都,港区,北青山１丁目３番１号アールキューブ青山３階,,13,103,1070061,,,,,,,2023-07-14,1,,,,,アイラスウイズ,0
849,4010603010234,新規,0,2023-07-14,2023-07-14,合同会社サンクリタ,,合同会社,東京都,江東区,木場６丁目１０－５栗田ビル４階,,13,108,1350042,,,,,,,2023-07-14,1,,,,,サンクリタ,0
854,4010703006743,新規,0,2023-07-14,2023-07-14,合同会社テイマー,,合同会社,東京都,品川区,東五反田１丁目２３番９号カージェ五反田５０２,,13,109,1410022,,,,,,,2023-07-14,1,,,,,テイマー,0
855,4010703006776,新規,0,2023-07-14,2023-07-14,合同会社ユーツー,,合同会社,東京都,品川区,西五反田１丁目２６番２号五反田サンハイツ９１１,,13,109,1410031,,,,,,,2023-07-14,1,,,,,ユーツー,0
864,4010903008317,新規,0,2023-07-14,2023-07-14,合同会社ＰｈａｎｔｏｍＣｒｏｓｓ,,合同会社,東京都,世田谷区,代田５丁目３５番２６号メゾン・ドゥ・ロリエ１０１,,13,112,1550033,,,,,,,2023-07-14,1,,,,,ファントムクロス,0
874,4011001155547,新規,0,2023-07-14,2023-07-14,ＴＡＮＧＥＲＩＮＥ　ＤＥＳＩＧＮ株式会社,,株式会社,東京都,渋谷区,千駄ヶ谷１丁目２－９Ｋ－Ｉ－Ｔビル２階,,13,113,1510051,,,,,,,2023-07-14,1,,,,,タンジェリンデザイン,0
875,4011003017167,新規,0,2023-07-14,2023-07-14,合同会社Ｔｗｏ　Ｍｏｏｎｓ,,合同会社,東京都,目黒区,東が丘１丁目１３－１７,,13,110,1520021,,,,,,,2023-07-14,1,,,,,トゥームーンズ,0
878,4011101103546,新規,0,2023-07-14,2023-07-14,株式会社ＷＡＬＫ,,株式会社,東京都,新宿区,高田馬場３丁目１番５号,,13,104,1690075,,,,,,,2023-07-14,1,,,,,ウオーク,0
879,4011101103570,新規,0,2023-07-14,2023-07-14,株式会社ＡＶＥＬＩＡ,,株式会社,東京都,新宿区,西新宿１丁目２０番２号,,13,104,1600023,,,,,,,2023-07-14,1,,,,,アヴェリア,0
880,4011101103620,新規,0,2023-07-14,2023-07-14,株式会社スターリア,,株式会社,東京都,新宿区,百人町１丁目１９番２３号,,13,104,1690073,,,,,,,2023-07-14,1,,,,,スターリア,0
881,4011103013256,新規,0,2023-07-14,2023-07-14,ＬＲＦファンディングＴＫ合同会社,,合同会社,東京都,新宿区,四谷２丁目９番地１５東京ユナイテッド綜合事務所内,,13,104,1600004,,,,,,,2023-07-14,1,,,,,エルアールエフファンディングティーケー,0
884,4011301028865,新規,0,2023-07-14,2023-07-14,Ｗエステート株式会社,,株式会社,東京都,杉並区,井草５丁目１９番６号,,13,115,1670021,,,,,,,2023-07-14,1,,,,,ダブルエステート,0
888,4011801042721,新規,0,2023-07-14,2023-07-14,武富興業株式会社,,株式会社,東京都,葛飾区,奥戸８丁目１１番７－４０６号,,13,122,1240022,,,,,,,2023-07-14,1,,,,,タケトミコウギョウ,0
891,4012301013527,新規,0,2023-07-14,2023-07-14,久保技建株式会社,,株式会社,東京都,町田市,成瀬２丁目２６番地５,,13,209,1940044,,,,,,,2023-07-14,1,,,,,クボギケン,0
892,4012303001851,新規,0,2023-07-14,2023-07-14,合同会社クリエイトアシスト,,合同会社,東京都,町田市,小野路町１３８１番地３,,13,209,1950064,,,,,,,2023-07-14,1,,,,,クリエイトアシスト,0
894,4012401040719,新規,0,2023-07-14,2023-07-14,株式会社ファーストソリューション,,株式会社,東京都,多摩市,愛宕４丁目９－２２池田ビル１０１,,13,224,2060041,,,,,,,2023-07-14,1,,,,,ファーストソリューション,0
898,4012703002755,新規,0,2023-07-14,2023-07-14,合同会社グッバイト,,合同会社,東京都,小平市,鈴木町１丁目３９０番地５－２１１,,13,211,1870011,,,,,,,2023-07-14,1,,,,,グッバイト,0
900,4013303006700,新規,0,2023-07-14,2023-07-14,合同会社竹味佑人建築設計室,,合同会社,東京都,豊島区,南池袋３丁目２４番１５号,,13,116,1710022,,,,,,,2023-07-14,1,,,,,タケミユウトケンチクセッケイシツ,0
903,4020001152396,新規,0,2023-07-14,2023-07-14,株式会社広野タイル,,株式会社,神奈川県,横浜市神奈川区,子安通１丁目４７番地,,14,102,2210021,,,,,,,2023-07-14,1,,,,,,0
904,4020001152520,新規,0,2023-07-14,2023-07-14,株式会社プランＢ,,株式会社,神奈川県,横浜市港南区,野庭町２７０番地プライム上永谷３０８,,14,111,2340056,,,,,,,2023-07-14,1,,,,,プランビー,0
905,4020001152553,新規,0,2023-07-14,2023-07-14,グッドライフ株式会社,,株式会社,神奈川県,横浜市中区,山吹町１番地３グレーシアパークス横濱関内９０６号室,,14,104,2310038,,,,,,,2023-07-14,1,,,,,グッドライフ,0
906,4020001152586,新規,0,2023-07-14,2023-07-14,株式会社ｇｏｏｄ‐ｉｔｅｍ．ｓｈｏｐ,,株式会社,神奈川県,横浜市磯子区,岡村２丁目１５－２１,,14,107,2350021,,,,,,,2023-07-14,1,,,,,,0
912,4021001079480,新規,0,2023-07-14,2023-07-14,株式会社Ｍ＆Ｓプランニング,,株式会社,神奈川県,平塚市,八重咲町１９番２３号ココス八重咲１０階,,14,203,2540811,,,,,,,2023-07-14,1,,,,,エムアンドエスプランニング,0
913,4021001079596,新規,0,2023-07-14,2023-07-14,Ｃ＆Ｃ株式会社,,株式会社,神奈川県,平塚市,中里４５番１号,,14,203,2540054,,,,,,,2023-07-14,1,,,,,シーアンドシー,0
914,4021001079605,新規,0,2023-07-14,2023-07-14,株式会社ワタケン,,株式会社,神奈川県,大和市,福田４丁目１４番地２５,,14,213,2420024,,,,,,,2023-07-14,1,,,,,ワタケン,0
915,4021001079613,新規,0,2023-07-14,2023-07-14,株式会社ワイエー空調設備,,株式会社,神奈川県,海老名市,中新田４丁目１５番６－１号,,14,215,2430422,,,,,,,2023-07-14,1,,,,,ワイエークウチョウセツビ,0
916,4021001079621,新規,0,2023-07-14,2023-07-14,株式会社ナカマワークス,,株式会社,神奈川県,藤沢市,藤沢９７１番地の３パール湘南５Ｆ,,14,205,2510052,,,,,,,2023-07-14,1,,,,,ナカマワークス,0
921,4030001154879,新規,0,2023-07-14,2023-07-14,株式会社Ｉ‐Ｒｏｏｆ,,株式会社,埼玉県,鶴ヶ島市,大字上広谷７２３番１０,,11,241,3502203,,,,,,,2023-07-14,1,,,,,アイルーフ,0
922,4030001154895,新規,0,2023-07-14,2023-07-14,株式会社ＥＭＵＲＯＫＵ,,株式会社,埼玉県,大里郡寄居町,大字寄居５７５番地３,,11,408,3691203,,,,,,,2023-07-14,1,,,,,エムロク,0
924,4030003022118,新規,0,2023-07-14,2023-07-14,Ｌａ　Ｐｒｉｎｃｅｓｓｅ合同会社,,合同会社,埼玉県,鶴ヶ島市,脚折町２丁目１１番８号,,11,241,3502211,,,,,,,2023-07-14,1,,,,,ラプランセス,0
925,4030005021332,新規,0,2023-07-14,2023-07-14,ヤマダデンキ従業員組合,,その他の設立登記法人,埼玉県,さいたま市南区,別所５丁目１５－２,,11,108,3360021,,,,,,,2023-07-14,1,,,,,ヤマダデンキ,0
929,4040001129260,新規,0,2023-07-14,2023-07-14,匯昇商事株式会社,,株式会社,千葉県,船橋市,海神３丁目２２番６号,,12,204,2730021,,,,,,,2023-07-14,1,,,,,カイショウショウジ,0
946,4050001053154,新規,0,2023-07-14,2023-07-14,株式会社千寿,,株式会社,茨城県,古河市,牧野地１６３番地３,,08,204,3060046,,,,,,,2023-07-14,1,,,,,センジュ,0
959,4090003002345,新規,0,2023-07-14,2023-07-14,ＯＵＲＳ合同会社,,合同会社,山梨県,富士吉田市,新西原３丁目１３番６号,,19,202,4030017,,,,,,,2023-07-14,1,,,,,アワーズ,0
981,4120001256393,新規,0,2023-07-14,2023-07-14,株式会社ＯＮＩＫＩ　ＧＬＯＢＡＬ,,株式会社,大阪府,大阪市浪速区,恵美須西３丁目１５番７メゾンラポール丸美２Ｂ,,27,111,5560003,,,,,,,2023-07-14,1,,,,,オニキグローバル,0
982,4120001256402,新規,0,2023-07-14,2023-07-14,株式会社リシェス,,株式会社,大阪府,大阪市北区,中津３丁目１１番２－１３０７号,,27,127,5310071,,,,,,,2023-07-14,1,,,,,リシェス,0
983,4120001256410,新規,0,2023-07-14,2023-07-14,株式会社Ｇ‐Ｈ２,,株式会社,大阪府,大阪市中央区,淡路町２丁目２番２号Ｙ’ｓ淡路町ビル４階,,27,128,5410047,,,,,,,2023-07-14,1,,,,,ジーエイチツー,0
984,4120001256435,新規,0,2023-07-14,2023-07-14,株式会社Ｐｅａｃｈ,,株式会社,大阪府,大阪市北区,梅田１丁目２番２号大阪駅前第２ビル１２－１２,,27,127,5300001,,,,,,,2023-07-14,1,,,,,ピーチ,0
985,4120001256443,新規,0,2023-07-14,2023-07-14,ＡＨｂｕｄｄｙ株式会社,,株式会社,大阪府,大阪市北区,中津１丁目１２番１１号メロディーハイム中津２番館９０４号,,27,127,5310071,,,,,,,2023-07-14,1,,,,,エーエイチバディ,0
986,4120001256451,新規,0,2023-07-14,2023-07-14,ＫＯＲＥＤＯ株式会社,,株式会社,大阪府,大阪市住吉区,杉本２丁目１８番７号,,27,120,5580022,,,,,,,2023-07-14,1,,,,,コレド,0
987,4120001256476,新規,0,2023-07-14,2023-07-14,ＭＫ‐ＴＲＵＳＴ株式会社,,株式会社,大阪府,大阪市西区,阿波座２丁目３番２３号有恒ビル２０２号室,,27,106,5500011,,,,,,,2023-07-14,1,,,,,エムケートラスト,0
988,4120001256484,新規,0,2023-07-14,2023-07-14,株式会社Ｕ＆Ｉ,,株式会社,大阪府,大阪市北区,梅田１丁目２番２号大阪駅前第２ビル１２－１２,,27,127,5300001,,,,,,,2023-07-14,1,,,,,ユーアンドアイ,0
995,4120903004742,新規,0,2023-07-14,2023-07-14,合同会社インフォノード,,合同会社,大阪府,吹田市,昭和町５－４－１,,27,205,5640028,,,,,,,2023-07-14,1,,,,,インフォノード,0
996,4120905006497,新規,0,2023-07-14,2023-07-14,医療法人初月会,,その他の設立登記法人,大阪府,高槻市,真上町２丁目１番３１号メゾンレヴェーユ１，２Ｆ,,27,207,5691121,,,,,,,2023-07-14,1,,,,,ショゲツカイ,0
999,4130001074695,新規,0,2023-07-14,2023-07-14,ＳＨＡＮＥＰＯＲＴ株式会社,,株式会社,京都府,福知山市,厚中町２２０番地あつなかビル２Ｆ,,26,201,6200056,,,,,,,2023-07-14,1,,,,,シェインポート,0
1000,4130001074737,新規,0,2023-07-14,2023-07-14,茶ノ実鶴園株式会社,,株式会社,京都府,京田辺市,大住責谷２９番地８４,,26,211,6100343,,,,,,,2023-07-14,1,,,,,チャノミツルエン,0
1004,4130003008825,新規,0,2023-07-14,2023-07-14,合同会社ＲＤＳ,,合同会社,京都府,京都市中京区,東洞院通御池下る笹屋町４３６－２０１,,26,104,6048187,,,,,,,2023-07-14,1,,,,,アールディーエス,0
1011,4140001130844,新規,0,2023-07-14,2023-07-14,Ｐｈｏｅｎｉｘ株式会社,,株式会社,兵庫県,姫路市,庄田８６番地１,,28,201,6700951,,,,,,,2023-07-14,1,,,,,フェニックス,0
1012,4140001130869,新規,0,2023-07-14,2023-07-14,株式会社角保,,株式会社,兵庫県,神戸市北区,道場町生野１１７２番地の５３３,,28,109,6511503,,,,,,,2023-07-14,1,,,,,カクボ,0
1013,4140001130877,新規,0,2023-07-14,2023-07-14,株式会社サンクリアサービス,,株式会社,兵庫県,姫路市,北平野５丁目１４番６－２号,,28,201,6700893,,,,,,,2023-07-14,1,,,,,サンクリアサービス,0
1023,4170001017691,新規,0,2023-07-14,2023-07-14,株式会社フォロー,,株式会社,和歌山県,田辺市,秋津町１７２番地の１,,30,206,6460005,,,,,,,2023-07-14,1,,,,,フォロー,0
1030,4180001157149,新規,0,2023-07-14,2023-07-14,株式会社サントリ,,株式会社,愛知県,名古屋市東区,泉１丁目１番２２号スタジオスクエア泉２０２,,23,102,4610001,,,,,,,2023-07-14,1,,,,,サントリ,0
1031,4180001157181,新規,0,2023-07-14,2023-07-14,ＨＡＰＩＡＳ株式会社,,株式会社,愛知県,あま市,七宝町下之森屋敷５４６番地,,23,237,4970006,,,,,,,2023-07-14,1,,,,,ハピアス,0
1036,4180003025411,新規,0,2023-07-14,2023-07-14,合同会社ＭＩＹＡＢＩ,,合同会社,愛知県,春日井市,岩成台９丁目１番地５,,23,206,4870033,,,,,,,2023-07-14,1,,,,,ミヤビ,0
1037,4180003025493,新規,0,2023-07-14,2023-07-14,合同会社ＷａＧｏＴ,,合同会社,愛知県,名古屋市東区,砂田橋４丁目１－５７－１－７１１,,23,102,4610045,,,,,,,2023-07-14,1,,,,,ワゴト,0
1040,4180301037570,新規,0,2023-07-14,2023-07-14,株式会社ＳＷ,,株式会社,愛知県,刈谷市,稲場町６丁目７０９番地３,,23,210,4480038,,,,,,,2023-07-14,1,,,,,エスダブリュー,0
1042,4190001030585,新規,0,2023-07-14,2023-07-14,ＮｅｗＷａｙ　Ｓｕｐｐｏｒｔ株式会社,,株式会社,三重県,鈴鹿市,住吉５丁目１４番３５号,,24,207,5130826,,,,,,,2023-07-14,1,,,,,ニューウェイサポート,0
1060,4260001038126,新規,0,2023-07-14,2023-07-14,株式会社アクトファーマシー,,株式会社,岡山県,岡山市北区,平田１１１番地１０４,,33,101,7000952,,,,,,,2023-07-14,1,,,,,アクトファーマシー,0
1063,4260003004365,新規,0,2023-07-14,2023-07-14,合同会社ＨＥＡＲＴ,,合同会社,岡山県,岡山市北区,駅前町２丁目２番１５号５０３号室,,33,101,7000023,,,,,,,2023-07-14,1,,,,,ハート,0
1073,4290803004454,新規,0,2023-07-14,2023-07-14,合同会社コネクトハウス,,合同会社,福岡県,北九州市小倉北区,原町１丁目３－３０－５０３,,40,106,8030815,,,,,,,2023-07-14,1,,,,,コネクトハウス,0
1077,4320001019895,新規,0,2023-07-14,2023-07-14,株式会社大分ラーメン十八番,,株式会社,大分県,大分市,原新町１６番３１号,,44,201,8700912,,,,,,,2023-07-14,1,,,,,オオイタラーメンジュウハチバン,0
1080,4340001025727,新規,0,2023-07-14,2023-07-14,株式会社竹下建設,,株式会社,鹿児島県,鹿屋市,新川町４９番地６,,46,203,8930015,,,,,,,2023-07-14,1,,,,,タケシタケンセツ,0
1083,4340003004175,新規,0,2023-07-14,2023-07-14,ＫＩＯＮＡ合同会社,,合同会社,鹿児島県,鹿児島市,荒田２丁目３０－２,,46,201,8900054,,,,,,,2023-07-14,1,,,,,キオナ,0
1092,4370001050193,新規,0,2023-07-14,2023-07-14,株式会社安部ボーリング,,株式会社,宮城県,仙台市青葉区,みやぎ台３丁目３１番１１号,,04,101,9893214,,,,,,,2023-07-14,1,,,,,アベボーリング,0
1096,4380005012726,新規,0,2023-07-14,2023-07-14,一般社団法人会津地域文化芸術フォーラム,,その他の設立登記法人,福島県,喜多方市,関柴町西勝字井戸尻４８－１,,07,208,9660014,,,,,,,2023-07-14,1,,,,,アイヅチイキブンカゲイジュツフォーラム,0
1098,4400001016323,新規,0,2023-07-14,2023-07-14,紫波太陽エネルギー株式会社,,株式会社,岩手県,紫波郡紫波町,紫波中央駅前２丁目３番地１,,03,321,0283318,,,,,,,2023-07-14,1,,,,,シワタイヨウエネルギー,0
1100,4400003003113,新規,0,2023-07-14,2023-07-14,合同会社スタンプ,,合同会社,岩手県,盛岡市,上厨川字幅５２番地６,,03,201,0200143,,,,,,,2023-07-14,1,,,,,スタンプ,0
1103,4410001013550,新規,0,2023-07-14,2023-07-14,株式会社リラ,,株式会社,秋田県,秋田市,茨島４丁目６番５２号,00131190,05,201,0100065,,,,,,,2023-07-14,1,,,,,リラ,0
1108,4430001089449,新規,0,2023-07-14,2023-07-14,株式会社北海道エンターテイメント,,株式会社,北海道,札幌市中央区,南二条東３丁目１番地５,,01,101,0600052,,,,,,,2023-07-14,1,,,,,ホッカイドウエンターテイメント,0
1109,4430001089457,新規,0,2023-07-14,2023-07-14,株式会社ＯＮＥ,,株式会社,北海道,札幌市手稲区,前田七条６丁目２番３１－１０３号,,01,109,0060817,,,,,,,2023-07-14,1,,,,,ワン,0
1110,4430001089564,新規,0,2023-07-14,2023-07-14,株式会社ＳＹＫ,,株式会社,北海道,札幌市北区,東茨戸三条２丁目１番２３号,,01,102,0028044,,,,,,,2023-07-14,1,,,,,エスワイケー,0
1112,4430003015221,新規,0,2023-07-14,2023-07-14,合同会社宮工,,合同会社,北海道,札幌市手稲区,富丘三条２丁目５番１５号,,01,109,0060013,,,,,,,2023-07-14,1,,,,,ミヤコウ,0
1119,4470003002455,新規,0,2023-07-14,2023-07-14,合同会社ｇｒｅｅｎ,,合同会社,香川県,高松市,鬼無町佐藤６５番地１,,37,201,7618023,,,,,,,2023-07-14,1,,,,,グリーン,0
1120,4490001010532,新規,0,2023-07-14,2023-07-14,株式会社ひだか林業＆ＩＴＳ,,株式会社,高知県,高岡郡日高村,岩目地９４０－１,,39,410,7812154,,,,,,,2023-07-14,1,,,,,ヒダカリンギョウアンドアイティエス,0
1121,4500001025074,新規,0,2023-07-14,2023-07-14,株式会社クラスフィールド,,株式会社,愛媛県,松山市,高山町１１番２号,,38,201,7918079,,,,,,,2023-07-14,1,,,,,クラスフィールド,0
1122,4700150118435,新規,0,2023-07-14,2023-07-14,ｓｈｅｎｚｈｅｎｆｅｉｃｈｕａｎｇｙａｎｋｅｊｉｙｏｕｘｉａｎｇｏｎｇｓｉ,,外国会社等,,,,,,,,Ｉｎｔｅｒｓｅｃｔｉｏｎ　ｏｆ　Ｄｏｎｇｂｉｎ　Ｒｏａｄ　ａｎｄ　Ｎａｎｇｕａｎｇ　Ｒｏａｄ，Ｄｅｎｇｌｉａｎｇ　Ｃｏｍｍｕｎｉｔｙ，Ｎａｎｓｈａｎ　Ｓｔｒｅｅｔ　Ｒｏｏｍ　８０１，８ｔｈ　Ｆｌｏｏｒ，Ｂｕｉｌｄｉｎｇ　１，Ｙｏｎｇｘｉｎ　Ｔｉｍｅｓ　Ｓｑｕａｒｅ　Ｓｈｅｎｚｈｅｎ　Ｎａｎｓｈａｎ　Ｄｉｓｔｒｉｃｔ　Ｇｕａｎｇｄｏｎｇ　Ｐｒｏｖｉｎｃｅ　５１８０５４　ＣＮ,,,,,,2023-07-14,1,,,,,シェンジェンフェイチュァンイェンカージヨウシェンゴンスー,0
1123,4700150118443,新規,0,2023-07-14,2023-07-14,東莞市森岩電子商取引有限会社,,外国会社等,,,,,,,,Ｃｈａｎｇｐｉｎｇ　Ｚｈｅｎ，Ｍｕｌｕｎ　ｃｈｕａｎｇｙｅ　ｙｉ　ｌｕ　３７＃，２－４０２　Ｄｏｎｇｇｕａｎ　Ｇｕａｎｇｄｏｎｇ，Ｃｈｉｎａ,,,,,,2023-07-14,1,,,,,ドングァンシセンイェンデンシシャンツインユウゲンコウシ,0
1126,5010003041060,新規,0,2023-07-14,2023-07-14,アンナプルナ・インタラクティブ・ジャパン合同会社,,合同会社,東京都,千代田区,丸の内３丁目１番１号国際ビル９階東京共同会計事務所内,,13,101,1000005,,,,,,,2023-07-14,1,,,,,アンナプルナインタラクティブジャパン,0
1135,5010401175674,新規,0,2023-07-14,2023-07-14,株式会社編まれた糸をほどいて,,株式会社,東京都,港区,南青山３丁目１番３６号青山丸竹ビル６Ｆ,,13,103,1070062,,,,,,,2023-07-14,1,,,,,アマレタイトヲホドイテ,0
1136,5010401175699,新規,0,2023-07-14,2023-07-14,株式会社ＳＥＰ,,株式会社,東京都,港区,三田２丁目４番３号ＴＨＥＣＯＮＯＥ三田綱町４０８,,13,103,1080073,,,,,,,2023-07-14,1,,,,,セップ,0
1137,5010403030448,新規,0,2023-07-14,2023-07-14,ＣＯＮＣＥＰＴ　ＭＥＤＩＣＡＬ　ＪＡＰＡＮ合同会社,,合同会社,東京都,港区,虎ノ門２丁目２番５号共同通信会館４階ＳＣＳ国際税理士法人内,,13,103,1050001,,,,,,,2023-07-14,1,,,,,コンセプトメディカルジャパン,0
1152,5010803004596,新規,0,2023-07-14,2023-07-14,ｍｉｎｔ　ｃｈｏｃｏｌａｔｅ合同会社,,合同会社,東京都,大田区,石川町２丁目１８番１－１０４号,,13,111,1450061,,,,,,,2023-07-14,1,,,,,ミントチョコレート,0
1158,5011001155496,新規,0,2023-07-14,2023-07-14,株式会社ウグイス,,株式会社,東京都,目黒区,自由が丘３丁目１２番１－４０１号ザ・パークハウス自由が丘ディアナガーデン,,13,110,1520035,,,,,,,2023-07-14,1,,,,,ウグイス,0
1159,5011001155620,新規,0,2023-07-14,2023-07-14,株式会社ハント・ジャパン,,株式会社,東京都,目黒区,東山３丁目７番１号,,13,110,1530043,,,,,,,2023-07-14,1,,,,,ハントジャパン,0
1160,5011001155703,新規,0,2023-07-14,2023-07-14,株式会社ウェルライフ,,株式会社,東京都,渋谷区,道玄坂１丁目１０番８号渋谷道玄坂東急ビル２Ｆ－Ｃ,,13,113,1500043,,,,,,,2023-07-14,1,,,,,ウェルライフ,0
1161,5011001155736,新規,0,2023-07-14,2023-07-14,株式会社ＴＥＮ　ＥＸＰＥＲＩＥＮＣＥ,,株式会社,東京都,渋谷区,道玄坂１丁目１０番８号渋谷道玄坂東急ビル２Ｆ‐Ｃ,,13,113,1500043,,,,,,,2023-07-14,1,,,,,テンエクスペリエンス,0
1162,5011003017174,新規,0,2023-07-14,2023-07-14,ジェイドドラゴンコネクト合同会社,,合同会社,東京都,渋谷区,神宮前６丁目２３番４号桑野ビル２階,,13,113,1500001,,,,,,,2023-07-14,1,,,,,ジェイドドラゴンコネクト,0
1165,5011101103628,新規,0,2023-07-14,2023-07-14,株式会社Ｉ．Ｃ．デザイン,,株式会社,東京都,新宿区,新宿７丁目２６番７－４０４号,,13,104,1600022,,,,,,,2023-07-14,1,,,,,アイシーデザイン,0
1168,5011103013255,新規,0,2023-07-14,2023-07-14,ＬＲＦファンディングＧＰ合同会社,,合同会社,東京都,新宿区,四谷２丁目９番地１５東京ユナイテッド綜合事務所内,,13,104,1600004,,,,,,,2023-07-14,1,,,,,エルアールエフファンディングジーピー,0
1169,5011303004830,新規,0,2023-07-14,2023-07-14,合同会社Ｈｏｌｏｍｕａ,,合同会社,東京都,杉並区,高井戸東３丁目２８番１８号グランピラー高井戸３０４,,13,115,1680072,,,,,,,2023-07-14,1,,,,,ホロムア,0
1175,5011603003986,新規,0,2023-07-14,2023-07-14,合同会社岡重,,合同会社,東京都,練馬区,大泉町６丁目１６番９号,,13,120,1780062,,,,,,,2023-07-14,1,,,,,オカジュウ,0
1187,5012401040750,新規,0,2023-07-14,2023-07-14,九段資本株式会社,,株式会社,東京都,三鷹市,下連雀５丁目３番２－２０１号,,13,204,1810013,,,,,,,2023-07-14,1,,,,,クダンシホン,0
1189,5012701017746,新規,0,2023-07-14,2023-07-14,株式会社アミリジャパン,,株式会社,東京都,東村山市,多摩湖町３丁目１２番地３,,13,213,1890026,,,,,,,2023-07-14,1,,,,,アミリジャパン,0
1196,5013301051053,新規,0,2023-07-14,2023-07-14,株式会社アクロビジョンビジネスコンサルティング,,株式会社,東京都,豊島区,東池袋１丁目３５番３号池袋センタービル８階,,13,116,1700013,,,,,,,2023-07-14,1,,,,,アクロビジョンビジネスコンサルティング,0
1197,5013305003496,新規,0,2023-07-14,2023-07-14,一般社団法人Ｒｅ．,,その他の設立登記法人,東京都,豊島区,西池袋１丁目１７番７号池袋ルミエールビル４Ｆ、ｃｏ－ｂａ、ｉｋｅｂｕｋｕｒｏ、ｓｔａｔｉｏｎ内,,13,116,1710021,,,,,,,2023-07-14,1,,,,,アールイー,0
1202,5020001152478,新規,0,2023-07-14,2023-07-14,未勢能源日本技研株式会社,,株式会社,神奈川県,横浜市港北区,新横浜３丁目１６番地８,,14,109,2220033,,,,,,,2023-07-14,1,,,,,ミセイノウゲンニホンギケン,0
1206,5020003024056,新規,0,2023-07-14,2023-07-14,合同会社アドボット,,合同会社,神奈川県,川崎市中原区,市ノ坪４４９番地３シティタワー武蔵小杉２３０２,,14,133,2110016,,,,,,,2023-07-14,1,,,,,アドボット,0
1207,5020003024213,新規,0,2023-07-14,2023-07-14,合同会社グローバルサプライ,,合同会社,神奈川県,川崎市川崎区,大師駅前２丁目３番６－４０２号大師ヒルズ,,14,131,2100802,,,,,,,2023-07-14,1,,,,,グローバルサプライ,0
1210,5021001079579,新規,0,2023-07-14,2023-07-14,Ｏｈａｎａ株式会社,,株式会社,神奈川県,鎌倉市,小町２丁目１６番３５－２０１号,,14,204,2480006,,,,,,,2023-07-14,1,,,,,オハナ,0
1211,5021001079595,新規,0,2023-07-14,2023-07-14,株式会社Ｒｅｐａｉｒ　Ｃｏｎｎｅｃｔｉｏｎ,,株式会社,神奈川県,座間市,西栗原２丁目１１番１号,,14,216,2520016,,,,,,,2023-07-14,1,,,,,リペアコネクション,0
1212,5021001079604,新規,0,2023-07-14,2023-07-14,株式会社ｖｉｅ,,株式会社,神奈川県,厚木市,中町２丁目８番１０号加瀬ビル１７０－４階,,14,212,2430018,,,,,,,2023-07-14,1,,,,,ヴィー,0
1215,5021003013313,新規,0,2023-07-14,2023-07-14,アローシステム合同会社,,合同会社,神奈川県,平塚市,豊原町１８番２５号,,14,203,2540051,,,,,,,2023-07-14,1,,,,,アローシステム,0
1218,5030001154894,新規,0,2023-07-14,2023-07-14,アートｋクリエート株式会社,,株式会社,埼玉県,さいたま市南区,白幡２丁目５番２５号,,11,108,3360022,,,,,,,2023-07-14,1,,,,,アートケイクリエート,0
1219,5030001154903,新規,0,2023-07-14,2023-07-14,株式会社Ｇａｒａｇｅ　Ｍａｋｉ,,株式会社,埼玉県,新座市,馬場３丁目３番１８号,,11,230,3520016,,,,,,,2023-07-14,1,,,,,ガレージマキ,0
1220,5030001154944,新規,0,2023-07-14,2023-07-14,フレックスアクア株式会社,,株式会社,埼玉県,さいたま市大宮区,桜木町２丁目３大宮マルイ７階,,11,103,3300854,,,,,,,2023-07-14,1,,,,,フレックスアクア,0
1221,5030001155034,新規,0,2023-07-14,2023-07-14,株式会社エルカ,,株式会社,埼玉県,草加市,松江１丁目２５番１３号サンパティークＩＩＩ１０３,00131189,11,221,3400013,,,,,,,2023-07-14,1,,,,,エルカ,0
1223,5030003022125,新規,0,2023-07-14,2023-07-14,合同会社オプトメディカルヘルス,,合同会社,埼玉県,さいたま市浦和区,元町１丁目９－１７,,11,107,3300073,,,,,,,2023-07-14,1,,,,,オプトメディカルヘルス,0
1224,5030003022141,新規,0,2023-07-14,2023-07-14,合同会社ヴィラーダ,,合同会社,埼玉県,志木市,本町６丁目２９番９号,,11,228,3530004,,,,,,,2023-07-14,1,,,,,ヴィラーダ,0
1230,5040003022958,新規,0,2023-07-14,2023-07-14,東林合同会社,,合同会社,千葉県,松戸市,栄町４丁目２４６－４,,12,207,2710062,,,,,,,2023-07-14,1,,,,,トウリン,0
1231,5040003022966,新規,0,2023-07-14,2023-07-14,合同会社ＭＵＢＡＲＡＫ　ＴＲＡＤＩＮＧ,,合同会社,千葉県,野田市,木間ケ瀬４８４０番地７,,12,208,2700222,,,,,,,2023-07-14,1,,,,,ムバラクトレーディング,0
1233,5050001053153,新規,0,2023-07-14,2023-07-14,株式会社エフトランス,,株式会社,茨城県,古河市,女沼１４５２番地１４,,08,204,3060226,,,,,,,2023-07-14,1,,,,,エフトランス,0
1234,5050001053161,新規,0,2023-07-14,2023-07-14,株式会社甘美屋,,株式会社,茨城県,那珂郡東海村,大字村松３０８２番地７０,,08,341,3191112,,,,,,,2023-07-14,1,,,,,アマミヤ,0
1242,5070001040645,新規,0,2023-07-14,2023-07-14,株式会社エコマネジメント,,株式会社,群馬県,伊勢崎市,境萩原１７５５番地２,,10,204,3700125,,,,,,,2023-07-14,1,,,,,エコマネジメント,0
1247,5080401026598,新規,0,2023-07-14,2023-07-14,株式会社Ｌｉｎｋ,,株式会社,静岡県,浜松市東区,篠ケ瀬町１２８６番地の３,,22,132,4350042,,,,,,,2023-07-14,1,,,,,リンク,0
1268,5120001256426,新規,0,2023-07-14,2023-07-14,株式会社弘莉,,株式会社,大阪府,大阪市港区,市岡２丁目８番１号,,27,107,5520012,,,,,,,2023-07-14,1,,,,,コウリ,0
1269,5120001256434,新規,0,2023-07-14,2023-07-14,株式会社Ｏｃｅａｎ,,株式会社,大阪府,大阪市北区,梅田１丁目２番２号大阪駅前第２ビル１２－１２,,27,127,5300001,,,,,,,2023-07-14,1,,,,,オーシャン,0
1270,5120001256442,新規,0,2023-07-14,2023-07-14,株式会社レモン,,株式会社,大阪府,大阪市浪速区,日本橋西１丁目４番１０号トヨダビル３階,,27,111,5560004,,,,,,,2023-07-14,1,,,,,レモン,0
1271,5120001256459,新規,0,2023-07-14,2023-07-14,朝日商店株式会社,,株式会社,大阪府,大阪市浪速区,幸町１丁目３番１３－８０９号,,27,111,5560021,,,,,,,2023-07-14,1,,,,,アサヒショウテン,0
1272,5120001256467,新規,0,2023-07-14,2023-07-14,株式会社住まいる工務店,,株式会社,大阪府,大阪市阿倍野区,阪南町５丁目５番２号,,27,119,5450021,,,,,,,2023-07-14,1,,,,,スマイルコウムテン,0
1273,5120001256475,新規,0,2023-07-14,2023-07-14,株式会社柏尾時計工房,,株式会社,大阪府,大阪市北区,同心１丁目７番１３号ヒルズ扇町２０２号室,,27,127,5300035,,,,,,,2023-07-14,1,,,,,カシオトケイコウボウ,0
1275,5120003024475,新規,0,2023-07-14,2023-07-14,合同会社ヒロコム,,合同会社,大阪府,寝屋川市,成田東が丘１４番１７号,,27,215,5720002,,,,,,,2023-07-14,1,,,,,ヒロコム,0
1279,5120103005326,新規,0,2023-07-14,2023-07-14,合同会社ｌｉｎｅｒ　ｎｏｔｅ,,合同会社,大阪府,羽曳野市,伊賀２丁目１８番２号,,27,222,5830876,,,,,,,2023-07-14,1,,,,,ライナーノート,0
1282,5120901047791,新規,0,2023-07-14,2023-07-14,株式会社ＬＥＯ,,株式会社,大阪府,豊中市,庄内西町３丁目１－１３,,27,203,5610832,,,,,,,2023-07-14,1,,,,,エルイーオー,0
1283,5120903004725,新規,0,2023-07-14,2023-07-14,ＰｏｅｔｒｙＬａｂ合同会社,,合同会社,大阪府,吹田市,江坂町１丁目４番２８－８０５号,,27,205,5640063,,,,,,,2023-07-14,1,,,,,ポエトリーラボ,0
1285,5122001037161,新規,0,2023-07-14,2023-07-14,株式会社ＭＡＴＳＵＮＡＧＡ,,株式会社,大阪府,東大阪市,御厨南２丁目４番３６号シャンエスト１０５号室,,27,227,5770034,,,,,,,2023-07-14,1,,,,,マツナガ,0
1288,5130001074694,新規,0,2023-07-14,2023-07-14,株式会社京和,,株式会社,京都府,京都市右京区,梅津東構口町３２番地,,26,108,6150914,,,,,,,2023-07-14,1,,,,,キョウワ,0
1289,5130001074736,新規,0,2023-07-14,2023-07-14,京匠電機株式会社,,株式会社,京都府,京都市西京区,御陵北山町１６番地１２,,26,111,6158253,,,,,,,2023-07-14,1,,,,,キョウショウデンキ,0
1290,5130001074760,新規,0,2023-07-14,2023-07-14,株式会社ジュイール北白川,,株式会社,京都府,京都市左京区,田中上古川町４番地１－１１０号,,26,103,6068231,,,,,,,2023-07-14,1,,,,,ジュイールキタシラカワ,0
1298,5140001130802,新規,0,2023-07-14,2023-07-14,ＹＭＧチェア株式会社,,株式会社,兵庫県,姫路市,大津区平松４１０番地８,,28,201,6711145,,,,,,,2023-07-14,1,,,,,ワイエムジーチェア,0
1299,5140001130851,新規,0,2023-07-14,2023-07-14,株式会社インテルコーポレーション,,株式会社,兵庫県,芦屋市,東芦屋町５番３号,00131178,28,206,6590095,,,,,,,2023-07-14,1,,,,,インテルコーポレーション,0
1300,5140001130884,新規,0,2023-07-14,2023-07-14,株式会社久和,,株式会社,兵庫県,姫路市,城東町清水１２番地京口団地１３棟３０２,,28,201,6700843,,,,,,,2023-07-14,1,,,,,キュウワ,0
1303,5140003019309,新規,0,2023-07-14,2023-07-14,合同会社つむぐ,,合同会社,兵庫県,西宮市,高木東町１３番７－７号,,28,204,6638033,,,,,,,2023-07-14,1,,,,,ツムグ,0
1306,5150001026545,新規,0,2023-07-14,2023-07-14,株式会社エムライン,,株式会社,奈良県,大和高田市,大字大中３８番地１０,,29,202,6350095,,,,,,,2023-07-14,1,,,,,エムライン,0
1307,5150005009496,新規,0,2023-07-14,2023-07-14,特定非営利活動法人みんなの夢,,その他の設立登記法人,奈良県,奈良市,三条大路１丁目１番９３号株式会社マスオ総合事務管理センター内,,29,201,6308013,,,,,,,2023-07-14,1,,,,,ミンナノユメ,0
1310,5160001025182,新規,0,2023-07-14,2023-07-14,株式会社クロダ設計工務,,株式会社,滋賀県,彦根市,楡町１５５番地３,,25,202,5291151,,,,,,,2023-07-14,1,,,,,クロダセッケイコウム,0
1312,5160003002931,新規,0,2023-07-14,2023-07-14,ヨベル合同会社,,合同会社,滋賀県,草津市,野路町６７７－５ＥｖａｎｓＣ号室,,25,206,5250055,,,,,,,2023-07-14,1,,,,,ヨベル,0
1313,5170001017690,新規,0,2023-07-14,2023-07-14,株式会社小山工務店,,株式会社,和歌山県,田辺市,新万１７番３号,,30,206,6460014,,,,,,,2023-07-14,1,,,,,コヤマコウムテン,0
1320,5180001157180,新規,0,2023-07-14,2023-07-14,株式会社Ｈａｐｐｙ　Ｓｔｙｌｅ,,株式会社,愛知県,名古屋市西区,上小田井２丁目１７４番地の１（２階）,,23,104,4520821,,,,,,,2023-07-14,1,,,,,ハッピースタイル,0
1325,5180005020293,新規,0,2023-07-14,2023-07-14,一般社団法人ｗｅｌｌｂｅａｕｔｙ協会,,その他の設立登記法人,愛知県,瀬戸市,東長根町３番地の２,,23,204,4890871,,,,,,,2023-07-14,1,,,,,ウェルビューティーキョウカイ,0
1329,5190001030584,新規,0,2023-07-14,2023-07-14,株式会社和建築,,株式会社,三重県,津市,芸濃町椋本８８０－２４,,24,201,5142211,,,,,,,2023-07-14,1,,,,,ナゴミケンチク,0
1330,5190005011845,新規,0,2023-07-14,2023-07-14,一般社団法人シニアテラス中日本,,その他の設立登記法人,三重県,津市,久居寺町１２３２－３５,,24,201,5141106,,,,,,,2023-07-14,1,,,,,シニアテラスナカニホン,0
1342,5230001019912,新規,0,2023-07-14,2023-07-14,株式会社ＮＳＦＴホールディングス,,株式会社,富山県,南砺市,井波７００番地６８,,16,210,9320211,,,,,,,2023-07-14,1,,,,,エヌエスエフティーホールディングス,0
1343,5230001019920,新規,0,2023-07-14,2023-07-14,株式会社ＴＡＩＹＯ,,株式会社,富山県,高岡市,中田１５０６番地,,16,202,9391275,,,,,,,2023-07-14,1,,,,,タイヨー,0
1362,5290001102299,新規,0,2023-07-14,2023-07-14,株式会社ＡＰＳ,,株式会社,福岡県,福岡市東区,雁の巣１丁目３４番３２号,,40,131,8110206,,,,,,,2023-07-14,1,,,,,エーピーエス,0
1363,5290803004461,新規,0,2023-07-14,2023-07-14,合同会社Ｎ‐ろうむ,,合同会社,福岡県,北九州市八幡西区,星ケ丘１丁目１０番５号,,40,109,8071264,,,,,,,2023-07-14,1,,,,,エヌロウム,0
1365,5300001013362,新規,0,2023-07-14,2023-07-14,宮島リアルエステート株式会社,,株式会社,佐賀県,唐津市,船宮町２３１８番地,,41,202,8470062,,,,,,,2023-07-14,1,,,,,ミヤジマリアルエステート,0
1368,5320001019894,新規,0,2023-07-14,2023-07-14,株式会社エイビーイーカンパニー,,株式会社,大分県,杵築市,大字八坂１５０８番地３,,44,210,8730015,,,,,,,2023-07-14,1,,,,,エイビーイーカンパニー,0
1370,5340001025726,新規,0,2023-07-14,2023-07-14,株式会社参,,株式会社,鹿児島県,奄美市,名瀬金久町１２番４号ラポールビル３０２,,46,222,8940031,,,,,,,2023-07-14,1,,,,,サン,0
1375,5360001032266,新規,0,2023-07-14,2023-07-14,株式会社カワユン,,株式会社,沖縄県,うるま市,字喜屋武３３９番地１ラ・フェリチタ１０２,,47,213,9042225,,,,,,,2023-07-14,1,,,,,カワユン,0
1376,5360003013124,新規,0,2023-07-14,2023-07-14,合同会社あたりんぐ,,合同会社,沖縄県,沖縄市,南桃原４丁目３９番１９号コザコーポラス５０３,,47,211,9040035,,,,,,,2023-07-14,1,,,,,アタリング,0
1378,5370001050184,新規,0,2023-07-14,2023-07-14,株式会社太田防災,,株式会社,宮城県,多賀城市,鶴ケ谷２丁目３５番８号,,04,209,9850841,,,,,,,2023-07-14,1,,,,,オオタボウサイ,0
1381,5380001033824,新規,0,2023-07-14,2023-07-14,フェニックス株式会社,,株式会社,福島県,会津若松市,柳原町３丁目１番５号,,07,202,9650857,,,,,,,2023-07-14,1,,,,,フェニックス,0
1382,5400003003112,新規,0,2023-07-14,2023-07-14,合同会社ベスト,,合同会社,岩手県,北上市,村崎野１４地割４２８－４７－１Ｄ,,03,206,0240004,,,,,,,2023-07-14,1,,,,,ベスト,0
1383,5410001013541,新規,0,2023-07-14,2023-07-14,株式会社タカセイ建築,,株式会社,秋田県,横手市,本郷町１番２９号,,05,203,0130034,,,,,,,2023-07-14,1,,,,,タカセイケンチク,0
1388,5430001089464,新規,0,2023-07-14,2023-07-14,ロコモコ株式会社,,株式会社,北海道,札幌市中央区,北四条西４丁目１番地７ＭＭＳ札幌駅前ビル１階,,01,101,0600004,,,,,,,2023-07-14,1,,,,,ロコモコ,0
1389,5430001089506,新規,0,2023-07-14,2023-07-14,株式会社ＫＭ企画,,株式会社,北海道,札幌市白石区,中央二条２丁目２番４１号,,01,104,0030012,,,,,,,2023-07-14,1,,,,,ケイエムキカク,0
1390,5430001089563,新規,0,2023-07-14,2023-07-14,株式会社システムラボラトリー,,株式会社,北海道,札幌市手稲区,富丘三条２丁目５番１０号,,01,109,0060013,,,,,,,2023-07-14,1,,,,,システムラボラトリー,0
1400,5700150118277,新規,0,2023-07-14,2023-07-14,ＳＵＰＥＲ　ＰＯＷＥＲ　ＩＮＤＵＳＴＲＩＡＬ　ＬＩＭＩＴＥＤ,,外国会社等,,,,,,,,ＦＬＡＴ／ＲＭ　１２　ＢＭ／Ｆ，ＰＡＫ　ＬＩＮＧ　ＢＵＩＬＤＩＮＧ，３６８－３７４　ＬＯＣＫＨＡＲＴ　ＲＯＡＤ，ＷＡＮ　ＣＨＡＩ　ＨＫ,,,,,,2023-07-14,1,,,,,スーパーパワーインダストゥリアルリミティッド,0
1401,5700150118434,新規,0,2023-07-14,2023-07-14,ｎｉｎｇｂｏｚｈｅｌｉｋｅｊｉｙｏｕｘｉａｎｇｏｎｇｓｉ,,外国会社等,,,,,,,,Ｗｅｉｂｅｉ　Ｖｉｌｌａｇｅ，Ｇｕａｎｈａｉｗｅｉ　Ｔｏｗｎ　９７　Ｔａｎｇｊｉａ　Ｒｏａｄ　Ｎｉｎｇｂｏ　Ｃｉｘｉ　ｚｈｅｊｉａｎｇ　３１５３１５　ＣＮ,,,,,,2023-07-14,1,,,,,ニンボージョアリーカージヨウシェンゴンスー,0
1402,5700150118442,新規,0,2023-07-14,2023-07-14,Ｓｈｅｎｚｈｅｎ　Ｐａｒａｇｏｎ　Ｔｅｃｈｎｏｌｏｇｙ　Ｃｏ．，Ｌｔｄ．,,外国会社等,,,,,,,,Ｎａｎｋｅｎｇ　Ｃｏｍｍｕｎｉｔｙ，Ｂａｎｔｉａｎ　Ｓｔｒｅｅｔ，Ｌｏｎｇｇａｎｇ　Ｄｉｓｔｒｉｃｔ，Ｘｉｎｇｈｅ　ＷＯＲＬＤＢ１１０１－２，Ｎｏ．１　Ｙａｂａｏ　Ｒｏａｄ，Ｓｈｅｎｚｈｅｎ，Ｇｕａｎｇｄｏｎｇ，Ｃｈｉｎａ,,,,,,2023-07-14,1,,,,,シンセンパラゴンテクノロジーカンパニーリミテッド,0
1403,5700150118450,新規,0,2023-07-14,2023-07-14,ｃｈａｎｇｓｈａｓｈｉｘｉｌｅｉｄｉａｎｚｉｓｈａｎｇｗｕｙｏｕｘｉａｎｚｅｒｅｎｇｏｎｇｓｉ,,外国会社等,,,,,,,,ｈｕｎａｎ　ｃｈａｎｇｓｈａ　ｃｈａｎｇｓｈａｇａｏｘｉｎｋａｉｆａｑｕｊｉａｎｓｈａｎｌｕ３９ｈａｏｃｈａｎｇｓｈａｚｈｏｎｇｄｉａｎｒｕａｎ　ｊｉａｎｙｕａｎｙｉｑｉ９ｄｏｎｇ７ｌｏｕＡ７６２６ｓｈｉ,,,,,,2023-07-14,1,,,,,チョウサシニシレイデンシショウムユウゲンガイシャ,0
1409,6010001236982,新規,0,2023-07-14,2023-07-14,ＹＪホールディングス株式会社,,株式会社,東京都,千代田区,丸の内３丁目４番１号新国際ビル６階,,13,101,1000005,,,,,,,2023-07-14,1,,,,,ワイジェイホールディングス,0
1410,6010001236990,新規,0,2023-07-14,2023-07-14,ＨｅｘＣｌａｄ　Ｊａｐａｎ株式会社,,株式会社,東京都,中央区,日本橋茅場町１丁目１３番１３号七宝ビルディング９階,,13,102,1030025,,,,,,,2023-07-14,1,,,,,ヘックスクラッドジャパン,0
1412,6010003041142,新規,0,2023-07-14,2023-07-14,リノビアパートナーズ合同会社,,合同会社,東京都,千代田区,神田多町２丁目８番２０号５０５室,,13,101,1010046,,,,,,,2023-07-14,1,,,,,リノビアパートナーズ,0
1424,6010401175640,新規,0,2023-07-14,2023-07-14,Ｔｈｅ　Ｉｎｎｏｖａｔｉｏｎ　Ｆｅｌｌｏｗｓｈｉｐ株式会社,,株式会社,東京都,港区,元麻布３丁目１番６号,,13,103,1060046,,,,,,,2023-07-14,1,,,,,ザイノベーションフェローシップ,0
1425,6010401175681,新規,0,2023-07-14,2023-07-14,株式会社スカイＭＭＡ,,株式会社,東京都,港区,芝浦４丁目２番２２－２０８号,,13,103,1080023,,,,,,,2023-07-14,1,,,,,スカイエムエムエー,0
1432,6010403030488,新規,0,2023-07-14,2023-07-14,合同会社ＺＥＮＯＮ,,合同会社,東京都,港区,六本木３丁目１６番２０号,,13,103,1060032,,,,,,,2023-07-14,1,,,,,ゼノン,0
1433,6010403030496,新規,0,2023-07-14,2023-07-14,ＫＯＯＳＴＥＲ合同会社,,合同会社,東京都,港区,北青山２丁目７－１１－４階,,13,103,1070061,,,,,,,2023-07-14,1,,,,,クースター,0
1434,6010501050768,新規,0,2023-07-14,2023-07-14,曜旭株式会社,,株式会社,東京都,台東区,西浅草１丁目１番１３－１１０５号,,13,106,1110035,,,,,,,2023-07-14,1,,,,,ヨウキョク,0
1435,6010601063430,新規,0,2023-07-14,2023-07-14,ｗａｋｗａ株式会社,,株式会社,東京都,墨田区,向島１丁目２５番１４号,,13,107,1310033,,,,,,,2023-07-14,1,,,,,ワクワ,0
1439,6010703006774,新規,0,2023-07-14,2023-07-14,暁鐘ＤａｗｎＢｅｌｌ合同会社,,合同会社,東京都,品川区,上大崎３丁目４番１号玉南ビル５０４,,13,109,1410021,,,,,,,2023-07-14,1,,,,,ギョウショウドーンベル,0
1440,6010703006782,新規,0,2023-07-14,2023-07-14,合同会社ＹＡＷＡＲＡＧ,,合同会社,東京都,品川区,戸越５丁目７番１７－４０４号,,13,109,1420041,,,,,,,2023-07-14,1,,,,,ヤワラギ,0
1449,6010901053420,新規,0,2023-07-14,2023-07-14,株式会社ＺｏｓｅＭｏｓｅ,,株式会社,東京都,世田谷区,瀬田１丁目２８番５－３０８号,,13,112,1580095,,,,,,,2023-07-14,1,,,,,ゾーズモーズ,0
1452,6011003017173,新規,0,2023-07-14,2023-07-14,合同会社算数覚醒教室,,合同会社,東京都,渋谷区,道玄坂１丁目１０番８号渋谷道玄坂東急ビル２Ｆ－Ｃ,,13,113,1500043,,,,,,,2023-07-14,1,,,,,サンスウカクセイキョウシツ,0
1458,6011101103619,新規,0,2023-07-14,2023-07-14,株式会社ＩＮＧ,,株式会社,東京都,新宿区,下落合４丁目２番１０号,,13,104,1610033,,,,,,,2023-07-14,1,,,,,イング,0
1459,6011103013254,新規,0,2023-07-14,2023-07-14,合同会社ＴＵ１４,,合同会社,東京都,新宿区,四谷２丁目９番地１５東京ユナイテッド綜合事務所内,,13,104,1600004,,,,,,,2023-07-14,1,,,,,ティーユージュウヨン,0
1460,6011103013262,新規,0,2023-07-14,2023-07-14,合同会社グレートグループ,,合同会社,東京都,新宿区,愛住町１４番１号２０６,,13,104,1600005,,,,,,,2023-07-14,1,,,,,グレートグループ,0
1461,6011105010729,新規,0,2023-07-14,2023-07-14,一般社団法人ジェイ・エイチ・エヌ,,その他の設立登記法人,東京都,新宿区,下宮比町１番４号,,13,104,1620822,,,,,,,2023-07-14,1,,,,,ジェイエイチエヌ,0
1467,6011601026971,新規,0,2023-07-14,2023-07-14,株式会社Ａｒｏｂｌｏ,,株式会社,東京都,練馬区,南大泉３丁目２２－１３,,13,120,1780064,,,,,,,2023-07-14,1,,,,,アロブロ,0
1481,6012403006063,新規,0,2023-07-14,2023-07-14,経営共創センター合同会社,,合同会社,東京都,武蔵野市,吉祥寺本町１丁目１３番２号シラカバビル５階,,13,203,1800004,,,,,,,2023-07-14,1,,,,,ケイエイキョウソウセンター,0
1490,6013301051052,新規,0,2023-07-14,2023-07-14,株式会社アクロビジョンソリューションアーキテクト,,株式会社,東京都,豊島区,東池袋１丁目３５番３号池袋センタービル８階,,13,116,1700013,,,,,,,2023-07-14,1,,,,,アクロビジョンソリューションアーキテクト,0
1492,6013305003495,新規,0,2023-07-14,2023-07-14,首都不動産事業協同組合,,その他の設立登記法人,東京都,豊島区,南池袋２丁目３５番７号,,13,116,1710022,,,,,,,2023-07-14,1,,,,,シュトフドウサン,0
1503,6020003024055,新規,0,2023-07-14,2023-07-14,合同会社アルゴリズム,,合同会社,神奈川県,川崎市中原区,市ノ坪４４９番地３シティタワー武蔵小杉２３０２,,14,133,2110016,,,,,,,2023-07-14,1,,,,,アルゴリズム,0
1504,6020003024187,新規,0,2023-07-14,2023-07-14,ＴＯＳＫＡマネジメント合同会社,,合同会社,神奈川県,横浜市中区,本牧緑ケ丘１０番地２,,14,104,2310832,,,,,,,2023-07-14,1,,,,,トスカマネジメント,0
1507,6021001079561,新規,0,2023-07-14,2023-07-14,株式会社ＹＨ,,株式会社,神奈川県,鎌倉市,大船１丁目２５番２３号第９１東京ビル２階,,14,204,2470056,,,,,,,2023-07-14,1,,,,,ワイエイチ,0
1508,6021001079578,新規,0,2023-07-14,2023-07-14,株式会社オッドワークス,,株式会社,神奈川県,藤沢市,鵠沼桜が岡４丁目３番２９号,,14,205,2510027,,,,,,,2023-07-14,1,,,,,オッドワークス,0
1509,6021001079594,新規,0,2023-07-14,2023-07-14,湘南藤沢マイクロバイオ＆コンサルティング株式会社,,株式会社,神奈川県,藤沢市,遠藤４４８９番地１０５慶應藤沢イノベーションビレッジ,,14,205,2520816,,,,,,,2023-07-14,1,,,,,ショウナンフジサワマイクロバイオアンドコンサルティング,0
1510,6021001079603,新規,0,2023-07-14,2023-07-14,株式会社ＭＩＬＭＯＮＡ,,株式会社,神奈川県,鎌倉市,七里ガ浜１丁目９番１３号,,14,204,2480026,,,,,,,2023-07-14,1,,,,,ミルモナ,0
1511,6021001079611,新規,0,2023-07-14,2023-07-14,株式会社ＵＮＩＣＯＲＮ,,株式会社,神奈川県,平塚市,天沼１番１５号天沼コーポ２０１号,,14,203,2540031,,,,,,,2023-07-14,1,,,,,ユニコーン,0
1512,6021003013320,新規,0,2023-07-14,2023-07-14,７１８合同会社,,合同会社,神奈川県,茅ヶ崎市,東海岸南２丁目１１番６２号,,14,207,2530054,,,,,,,2023-07-14,1,,,,,セブンワンエイト,0
1514,6030001154893,新規,0,2023-07-14,2023-07-14,株式会社乾建設,,株式会社,埼玉県,越谷市,大字三野宮４８６番地４,,11,222,3430036,,,,,,,2023-07-14,1,,,,,イヌイケンセツ,0
1515,6030001154919,新規,0,2023-07-14,2023-07-14,株式会社ＮＰＣ,,株式会社,埼玉県,蕨市,中央４丁目２番２号２０５,,11,223,3350004,,,,,,,2023-07-14,1,,,,,エヌピーシー,0
1516,6030001154935,新規,0,2023-07-14,2023-07-14,株式会社カラフルアシスト,,株式会社,埼玉県,越谷市,大字袋山１５２番地１,,11,222,3430032,,,,,,,2023-07-14,1,,,,,カラフルアシスト,0
1525,6040001129110,新規,0,2023-07-14,2023-07-14,株式会社ＬＲＣ,,株式会社,千葉県,千葉市中央区,本千葉町４番１４号内海ビル３階,,12,101,2600014,,,,,,,2023-07-14,1,,,,,エルアールシー,0
1526,6040001129226,新規,0,2023-07-14,2023-07-14,株式会社ＧＣコーポレーション,,株式会社,千葉県,市川市,市川南１丁目１番８号市川サンハイツ２０８号,,12,203,2720033,,,,,,,2023-07-14,1,,,,,ジーシーコーポレーション,0
1527,6040001129250,新規,0,2023-07-14,2023-07-14,株式会社Ｓｐｒｉｎｇ,,株式会社,千葉県,印西市,牧の原６丁目６番地１６３,,12,231,2701331,,,,,,,2023-07-14,1,,,,,スプリング,0
1528,6040001129259,新規,0,2023-07-14,2023-07-14,株式会社アクソン,,株式会社,千葉県,佐倉市,鏑木町１０６１－２０,,12,212,2850025,,,,,,,2023-07-14,1,,,,,アクソン,0
1529,6040001129291,新規,0,2023-07-14,2023-07-14,株式会社ｉｒｉｓ　ｉｎｃｌｕｓｉｏｎ,,株式会社,千葉県,袖ケ浦市,福王台１丁目１６番地３,,12,229,2990261,,,,,,,2023-07-14,1,,,,,アイリスインクルージョン,0
1530,6040003022965,新規,0,2023-07-14,2023-07-14,ＨＩＴＶ・Ｈ合同会社,,合同会社,千葉県,柏市,西原３丁目８番５７号コーポ柏２０１号,,12,217,2770885,,,,,,,2023-07-14,1,,,,,エイチアイティーブイエイチ,0
1531,6050001053160,新規,0,2023-07-14,2023-07-14,ＵＨＯ株式会社,,株式会社,茨城県,土浦市,中村西根１９９６番地５,,08,203,3000849,,,,,,,2023-07-14,1,,,,,ウホ,0
1536,6050003007635,新規,0,2023-07-14,2023-07-14,合同会社ケイマン,,合同会社,茨城県,つくば市,松野木９５番地５,,08,220,3050056,,,,,,,2023-07-14,1,,,,,ケイマン,0
1540,6070001040644,新規,0,2023-07-14,2023-07-14,ＭＫ　ＩＮＴＥＲＮＡＴＩＯＮＡＬ株式会社,,株式会社,群馬県,邑楽郡大泉町,仙石３丁目２１番１０号,,10,524,3700533,,,,,,,2023-07-14,1,,,,,エムケイインターナショナル,0
1541,6070001040652,新規,0,2023-07-14,2023-07-14,株式会社ソーシャルピース,,株式会社,群馬県,高崎市,上並榎町１１８番地,,10,202,3700801,,,,,,,2023-07-14,1,,,,,ソーシャルピース,0
1551,6110001037702,新規,0,2023-07-14,2023-07-14,株式会社令和企画,,株式会社,新潟県,新潟市北区,石動１丁目２２番２号,,15,101,9503327,,,,,,,2023-07-14,1,,,,,レイワキカク,0
1561,6120001256359,新規,0,2023-07-14,2023-07-14,川頁永吉株式会社,,株式会社,大阪府,大阪市淀川区,田川北２丁目５－３４・Ａ棟３０２号室,,27,123,5320021,,,,,,,2023-07-14,1,,,,,カワケツナガヨシ,0
1562,6120001256375,新規,0,2023-07-14,2023-07-14,嘉盛国際株式会社,,株式会社,大阪府,大阪市浪速区,敷津西１丁目５番１１号新浪速ビル１棟５階５０３号室,,27,111,5560015,,,,,,,2023-07-14,1,,,,,カセイコクサイ,0
1563,6120001256417,新規,0,2023-07-14,2023-07-14,株式会社Ａｒｃｈ,,株式会社,大阪府,大阪市此花区,朝日１丁目９番３６号,,27,104,5540011,,,,,,,2023-07-14,1,,,,,アーチ,0
1564,6120001256433,新規,0,2023-07-14,2023-07-14,株式会社３９ホーム,,株式会社,大阪府,大阪市旭区,高殿６丁目１４番２７号,,27,117,5350031,,,,,,,2023-07-14,1,,,,,サンキューホーム,0
1565,6120001256458,新規,0,2023-07-14,2023-07-14,株式会社きんき,,株式会社,大阪府,大阪市住吉区,苅田４丁目１２番６－３０３号,,27,120,5580011,,,,,,,2023-07-14,1,,,,,キンキ,0
1566,6120003024474,新規,0,2023-07-14,2023-07-14,合同会社ＬＩＭＳＹ,,合同会社,大阪府,大阪市北区,梅田１丁目２番２号大阪駅前第２ビル１２－１２,,27,127,5300001,,,,,,,2023-07-14,1,,,,,リムシー,0
1567,6120003024482,新規,0,2023-07-14,2023-07-14,Ｍｙ　Ｗａｒａｋｕ合同会社,,合同会社,大阪府,大阪市北区,梅田１丁目２番２号大阪駅前第２ビル１２－１２,,27,127,5300001,,,,,,,2023-07-14,1,,,,,マイワラク,0
1572,6120901047790,新規,0,2023-07-14,2023-07-14,株式会社ＣＯＥＬ,,株式会社,大阪府,吹田市,片山町４丁目６番１２－２号,,27,205,5640082,,,,,,,2023-07-14,1,,,,,コエル,0
1573,6120903004724,新規,0,2023-07-14,2023-07-14,合同会社あず,,合同会社,大阪府,高槻市,上牧町１丁目１７５－３,,27,207,5690003,,,,,,,2023-07-14,1,,,,,アズ,0
1574,6122001037160,新規,0,2023-07-14,2023-07-14,株式会社アシスト,,株式会社,大阪府,東大阪市,楠根３丁目９番１１号,,27,227,5770006,,,,,,,2023-07-14,1,,,,,アシスト,0
1575,6130001074727,新規,0,2023-07-14,2023-07-14,東寧株式会社,,株式会社,京都府,京都市左京区,岩倉東宮田町５５番地１、２０１号室,,26,103,6060012,,,,,,,2023-07-14,1,,,,,トウネイ,0
1576,6130003008848,新規,0,2023-07-14,2023-07-14,合同会社アートメディア,,合同会社,京都府,京都市下京区,大黒町２２７番地第２キョートビル４０２,,26,106,6008043,,,,,,,2023-07-14,1,,,,,アートメディア,0
1577,6130003008856,新規,0,2023-07-14,2023-07-14,合同会社グランツ,,合同会社,京都府,相楽郡精華町,大字祝園小字長塚２８番地１９,00131180,26,366,6190241,,,,,,,2023-07-14,1,,,,,グランツ,0
1584,6140001130867,新規,0,2023-07-14,2023-07-14,株式会社緒,,株式会社,兵庫県,川辺郡猪名川町,白金１丁目７７番地１２,,28,301,6660257,,,,,,,2023-07-14,1,,,,,イオ,0
1585,6140001130900,新規,0,2023-07-14,2023-07-14,Ｃｈｅｅｒｓ　Ｐｌａｎｎｉｎｇ株式会社,,株式会社,兵庫県,西宮市,中前田町７番４１号,,28,204,6620857,,,,,,,2023-07-14,1,,,,,チアーズプランニング,0
1592,6180001157023,新規,0,2023-07-14,2023-07-14,株式会社レコンシ,,株式会社,愛知県,名古屋市中村区,名駅４丁目２４番５号第２森ビル４０１,,23,105,4500002,,,,,,,2023-07-14,1,,,,,レコンシ,0
1593,6180001157089,新規,0,2023-07-14,2023-07-14,東加商事株式会社,,株式会社,愛知県,名古屋市中区,栄３丁目１２番６号ライオンズマンション栄１１１１号室,,23,106,4600008,,,,,,,2023-07-14,1,,,,,トウカショウジ,0
1594,6180001157163,新規,0,2023-07-14,2023-07-14,株式会社トゥオンライ,,株式会社,愛知県,名古屋市北区,金城３丁目１２番１９号,,23,103,4620847,,,,,,,2023-07-14,1,,,,,トゥオンライ,0
1595,6180001157171,新規,0,2023-07-14,2023-07-14,株式会社ファーストセッション,,株式会社,愛知県,春日井市,大手町２丁目２８６番地,,23,206,4860807,,,,,,,2023-07-14,1,,,,,ファーストセッション,0
1598,6180005020292,新規,0,2023-07-14,2023-07-14,一般社団法人サンフラワー,,その他の設立登記法人,愛知県,尾張旭市,向町２丁目１０番地３２,,23,226,4880818,,,,,,,2023-07-14,1,,,,,サンフラワー,0
1605,6190001030583,新規,0,2023-07-14,2023-07-14,福祉のしごと株式会社,,株式会社,三重県,津市,藤方１５２９番地,,24,201,5140815,,,,,,,2023-07-14,1,,,,,フクシノシゴト,0
1622,6270001008811,新規,0,2023-07-14,2023-07-14,株式会社畏敬,,株式会社,鳥取県,米子市,淀江町今津３５８番地２,,31,202,6893401,,,,,,,2023-07-14,1,,,,,イケイ,0
1632,6290001102298,新規,0,2023-07-14,2023-07-14,株式会社Ｅｍｏｌｕｔｉｏｎ　Ｃａｒｅｅｒ,,株式会社,福岡県,福岡市博多区,祇園町８番１３号第一プリンスビル１Ｆ・２ＦＴｈｅＣｏｍｐａｎｙ内,,40,132,8120038,,,,,,,2023-07-14,1,,,,,エモリューションキャリア,0
1633,6290001102307,新規,0,2023-07-14,2023-07-14,ＡｕｔｏＦｏｒ株式会社,,株式会社,福岡県,福岡市博多区,博多駅前１丁目２３番２号ＰａｒｋＦｒｏｎｔ博多駅前１丁目５Ｆ－Ｂ,,40,132,8120011,,,,,,,2023-07-14,1,,,,,オートフォー,0
1638,6290801029699,新規,0,2023-07-14,2023-07-14,株式会社どはでや,,株式会社,福岡県,北九州市小倉北区,片野２丁目１５番１２号東＿ビル２階,00131182,40,106,8020064,,,,,,,2023-07-14,1,,,,,ドハデヤ,0
1644,6330001031055,新規,0,2023-07-14,2023-07-14,ＹＹＫＣ株式会社,,株式会社,熊本県,熊本市北区,植木町滴水１０３４番地２,,43,105,8610133,,,,,,,2023-07-14,1,,,,,ワイワイケーシー,0
1645,6330001031063,新規,0,2023-07-14,2023-07-14,山東コーポレーション株式会社,,株式会社,熊本県,菊池市,七城町清水３５４番地,,43,210,8611341,,,,,,,2023-07-14,1,,,,,サントウコーポレーション,0
1657,6380001033856,新規,0,2023-07-14,2023-07-14,株式会社大串,,株式会社,福島県,郡山市,駅前２丁目６番７号ウインザービル２０３号,,07,203,9638002,,,,,,,2023-07-14,1,,,,,オオクシ,0
1662,6390003002123,新規,0,2023-07-14,2023-07-14,ロングラン合同会社,,合同会社,山形県,山形市,みはらしの丘４丁目８番地１３,,06,201,9902317,,,,,,,2023-07-14,1,,,,,ロングラン,0
1664,6400005008348,新規,0,2023-07-14,2023-07-14,一般社団法人Ｌｉｓｔｅｎｉｎｇ　ｆｏｒ　Ｐｅａｃｅ協会,,その他の設立登記法人,岩手県,盛岡市,中堤町２２番２５号,,03,201,0200131,,,,,,,2023-07-14,1,,,,,リスニングフォーピースキョウカイ,0
1672,6430001089447,新規,0,2023-07-14,2023-07-14,株式会社はるこころ札幌,,株式会社,北海道,札幌市手稲区,富丘四条６丁目６番５号,,01,109,0060014,,,,,,,2023-07-14,1,,,,,ハルココロサッポロ,0
1673,6430001089463,新規,0,2023-07-14,2023-07-14,エムエー株式会社,,株式会社,北海道,苫小牧市,有珠の沢町７丁目１番２６号,,01,213,0530842,,,,,,,2023-07-14,1,,,,,エムエ,0
1674,6430001089496,新規,0,2023-07-14,2023-07-14,株式会社リタベル,,株式会社,北海道,札幌市手稲区,稲穂四条６丁目４番１２号,,01,109,0060034,,,,,,,2023-07-14,1,,,,,リタベル,0
1675,6430001089521,新規,0,2023-07-14,2023-07-14,株式会社ＯＷＬ麓,,株式会社,北海道,樺戸郡月形町,字チクシベツ２０３番地３５６,,01,430,0610500,,,,,,,2023-07-14,1,,,,,アウルロク,0
1682,6430003015228,新規,0,2023-07-14,2023-07-14,合同会社美英,,合同会社,北海道,札幌市白石区,南郷通１０丁目南４番５号,,01,104,0030022,,,,,,,2023-07-14,1,,,,,ビエイ,0
1691,6500005008627,新規,0,2023-07-14,2023-07-14,特定非営利活動法人愛媛外科交流センター,,その他の設立登記法人,愛媛県,東温市,志津川４５４番地,,38,215,7910204,,,,,,,2023-07-14,1,,,,,エヒメゲカコウリュウセンター,0
1692,6700150118276,新規,0,2023-07-14,2023-07-14,Ｑｕａｎｚｈｏｕ　Ｈｅｎｇｚｈｅｎｇ　Ｅｌｅｃｔｒｏｎｉｃ　Ｃｏｍｍｅｒｃｅ　Ｃｏ．，Ｌｔｄ．,,外国会社等,,,,,,,,Ｒｏｏｍ　８０３，８ｔｈ　Ｆｌｏｏｒ，Ｊｉｎｄｉ　Ｂｕｉｌｄｉｎｇ　Ｆｅｎｇｚｅ　Ｓｔｒｅｅｔ，Ｆｅｎｇｚｅ　Ｄｉｓｔｒｉｃｔ，Ｑｕａｎｚｈｏｕ　Ｃｉｔｙ，Ｆｕｊｉａｎ　Ｐｒｏｖｉｎｃｅ,,,,,,2023-07-14,1,,,,,チュアンヂョウヘンジェンイレクトゥロニックコマースカンパニーリミテッド,0
1693,6700150118433,新規,0,2023-07-14,2023-07-14,Ｓｈａｎｇｈａｉ　Ａｏｂｏ　Ｆｕｒｎｉｔｕｒｅ　Ｃｏ．，Ｌｔｄ．,,外国会社等,,,,,,,,Ｒｏｏｍ　２１０２Ｃ，Ｅａｓｔ　Ｂｕｉｌｄｉｎｇ，Ｂｕｉｌｄｉｎｇ　３，Ｎｏ．２５５　Ｓｈｅｎｇｌｉ　Ｒｏａｄ　Ｑｉｎｇｐｕ　Ｓｈａｎｇｈａｉ　２００１２０　ＣＮ,,,,,,2023-07-14,1,,,,,シャンハイアオバイジャアジュイヨウシェンゴンスー,0
1694,6700150118441,新規,0,2023-07-14,2023-07-14,ＳＨＥＮＺＨＥＮＭＡＩＤＩＬＶＺＨＯＵＫＥＪＩＹＯＵＸＩＡＮＧＯＮＧＳＩ,,外国会社等,,,,,,,,Ｂａｎｔｉａｎ　Ｓｔｒｅｅｔｓ　ｗｏｎｄｅｒｌａｎｄ　ｑｉａｎｇｗｅｉｙｕａｎ　Ｃ２０１　Ｓｈｅｎｚｈｅｎ　Ｃｉｔｙ　Ｇｕａｎｇｄｏｎｇ　Ｐｒｏｖｉｎｃｅ　５１８１２９ＣＮ,,,,,,2023-07-14,1,,,,,シェンジェンマイディリュジョウカージヨウシェンゴンスー,0
1706,7010003041091,新規,0,2023-07-14,2023-07-14,Ｄｒｅａｍ　ｂｉｒｄｓ合同会社,,合同会社,東京都,文京区,本郷３丁目４４番６－７０６号,,13,105,1130033,,,,,,,2023-07-14,1,,,,,ドリームバーズ,0
1712,7010005036949,新規,0,2023-07-14,2023-07-14,一般社団法人ＧＬ実行委員会,,その他の設立登記法人,東京都,中央区,築地４丁目１０番７号,,13,102,1040045,,,,,,,2023-07-14,1,,,,,ジーエルジッコウイインカイ,0
1713,7010005036965,新規,0,2023-07-14,2023-07-14,一般社団法人ライラック札幌,,その他の設立登記法人,東京都,千代田区,霞が関３丁目２番５号,,13,101,1000013,,,,,,,2023-07-14,1,,,,,,0
1727,7010403030470,新規,0,2023-07-14,2023-07-14,プロベナンス・ニッポン合同会社,,合同会社,東京都,港区,元麻布３丁目１番６号,,13,103,1060046,,,,,,,2023-07-14,1,,,,,プロベナンスニッポン,0
1728,7010403030495,新規,0,2023-07-14,2023-07-14,合同会社Ｃｈｏｏｓｅ,,合同会社,東京都,港区,西麻布１丁目２番１２号,,13,103,1060031,,,,,,,2023-07-14,1,,,,,チューズ,0
1729,7010403030504,新規,0,2023-07-14,2023-07-14,合同会社桜梅桃李,,合同会社,東京都,港区,南青山２丁目２番１５号,,13,103,1070062,,,,,,,2023-07-14,1,,,,,オウバイトウリ,0
1731,7010501050759,新規,0,2023-07-14,2023-07-14,株式会社ＲＩＭ,,株式会社,東京都,台東区,三ノ輪１丁目１５番１１号,,13,106,1100011,,,,,,,2023-07-14,1,,,,,アールアイエム,0
1732,7010501050767,新規,0,2023-07-14,2023-07-14,株式会社おんまや,,株式会社,東京都,台東区,竜泉２丁目１５番６号,,13,106,1100012,,,,,,,2023-07-14,1,,,,,オンマヤ,0
1733,7010501050775,新規,0,2023-07-14,2023-07-14,株式会社ＡＭＰＥ,,株式会社,東京都,台東区,秋葉原３番３号アキバビル３０３号室,,13,106,1100006,,,,,,,2023-07-14,1,,,,,アンプ,0
1734,7010505003424,新規,0,2023-07-14,2023-07-14,一般社団法人わらく保育園,,その他の設立登記法人,東京都,台東区,駒形１丁目６番１０－７０５号ミリアレジデンス浅草駒形,,13,106,1110043,,,,,,,2023-07-14,1,,,,,ワラクホイクエン,0
1740,7010703006773,新規,0,2023-07-14,2023-07-14,合同会社新明技研,,合同会社,東京都,品川区,上大崎３丁目１２番７－２０２号,,13,109,1410021,,,,,,,2023-07-14,1,,,,,シンミョウギケン,0
1743,7010901053436,新規,0,2023-07-14,2023-07-14,株式会社Ｂｒｉｌｌｅｒ,,株式会社,東京都,世田谷区,用賀３丁目１６番１４号キソービクトリア２０６号,,13,112,1580097,,,,,,,2023-07-14,1,,,,,ブリーエ,0
1750,7011001155635,新規,0,2023-07-14,2023-07-14,Ｅ‐ｂｉｚパートナーズ株式会社,,株式会社,東京都,渋谷区,恵比寿３丁目７－１７－３０１,,13,113,1500013,,,,,,,2023-07-14,1,,,,,イービズパートナーズ,0
1753,7011003017172,新規,0,2023-07-14,2023-07-14,合同会社Ｕｂｕｋｏｅ,,合同会社,東京都,渋谷区,道玄坂１丁目１０－８渋谷道玄坂東急ビル２Ｆ－Ｃ,,13,113,1500043,,,,,,,2023-07-14,1,,,,,ウブコエ,0
1757,7011101103626,新規,0,2023-07-14,2023-07-14,株式会社Ｇａｔｈｅｒ,,株式会社,東京都,新宿区,新宿２丁目１２番１３号新宿アントレサロンビル２階,,13,104,1600022,,,,,,,2023-07-14,1,,,,,ギャザー,0
1759,7011103013253,新規,0,2023-07-14,2023-07-14,合同会社カルミアファミリア,,合同会社,東京都,新宿区,西新宿３丁目３番１３号西新宿水間ビル６階,,13,104,1600023,,,,,,,2023-07-14,1,,,,,カルミアファミリア,0
1761,7011303004829,新規,0,2023-07-14,2023-07-14,合同会社ＤｏｔＩＮＫ,,合同会社,東京都,杉並区,高井戸東１丁目２７番１０号,,13,115,1680072,,,,,,,2023-07-14,1,,,,,ドットインク,0
1763,7011401025248,新規,0,2023-07-14,2023-07-14,株式会社ＭＡＲＩ　ＬＡＢ,,株式会社,東京都,板橋区,本町２９番１１－５０７号,,13,119,1730001,,,,,,,2023-07-14,1,,,,,マリラボ,0
1772,7012401040749,新規,0,2023-07-14,2023-07-14,株式会社ファイブ,,株式会社,東京都,三鷹市,北野１丁目１０番７号,,13,204,1810003,,,,,,,2023-07-14,1,,,,,ファイブ,0
1776,7013103001246,新規,0,2023-07-14,2023-07-14,合同会社ｍｉｅｕｘ,,合同会社,東京都,青梅市,東青梅５丁目２１番地の３ソラーナＡ２０２,,13,205,1980042,,,,,,,2023-07-14,1,,,,,,0
1782,7013301051051,新規,0,2023-07-14,2023-07-14,ＧＲＡＮＤ　ＡＧＥＮＴ株式会社,,株式会社,東京都,豊島区,池袋３丁目６２番１２号,,13,116,1710014,,,,,,,2023-07-14,1,,,,,グランドエージェント,0
1789,7020001152526,新規,0,2023-07-14,2023-07-14,株式会社鈴,,株式会社,神奈川県,川崎市川崎区,浜町２丁目７番７－２号,,14,131,2100851,,,,,,,2023-07-14,1,,,,,スズ,0
1791,7020003024186,新規,0,2023-07-14,2023-07-14,合同会社ＴＡＫＥＩ,,合同会社,神奈川県,川崎市宮前区,平４丁目１０番４２号メゾンあけぼの１０１,,14,136,2160022,,,,,,,2023-07-14,1,,,,,タケイ,0
1794,7021003013311,新規,0,2023-07-14,2023-07-14,あだち商會合同会社,,合同会社,神奈川県,茅ヶ崎市,松が丘１丁目１番６９号,,14,207,2530025,,,,,,,2023-07-14,1,,,,,アダチショウカイ,0
1805,7030001154744,新規,0,2023-07-14,2023-07-14,株式会社新井電機,,株式会社,埼玉県,秩父市,日野田町２丁目７番２６号,,11,207,3680034,,,,,,,2023-07-14,1,,,,,アライデンキ,0
1806,7030001154868,新規,0,2023-07-14,2023-07-14,株式会社セイム,,株式会社,埼玉県,川口市,本町１丁目１１番２３号ハイツ友１０１,,11,203,3320012,,,,,,,2023-07-14,1,,,,,セイム,0
1807,7030001154884,新規,0,2023-07-14,2023-07-14,株式会社大亀,,株式会社,埼玉県,川越市,仙波町１丁目１０番地２１,,11,201,3500034,,,,,,,2023-07-14,1,,,,,ダイキ,0
1808,7030001154901,新規,0,2023-07-14,2023-07-14,株式会社小山総業,,株式会社,埼玉県,さいたま市緑区,大字三室１９６１番地１,,11,109,3360911,,,,,,,2023-07-14,1,,,,,コヤマソウギョウ,0
1809,7030001154918,新規,0,2023-07-14,2023-07-14,株式会社むさしホールディングス,,株式会社,埼玉県,さいたま市浦和区,常盤３丁目３番９号,,11,107,3300061,,,,,,,2023-07-14,1,,,,,ムサシホールディングス,0
1810,7030001154934,新規,0,2023-07-14,2023-07-14,株式会社フェニックスセキュリティサービス,,株式会社,埼玉県,さいたま市南区,南浦和２丁目４１番６号福田ビル４Ｆ,,11,108,3360017,,,,,,,2023-07-14,1,,,,,フェニックスセキュリティサービス,0
1811,7030001154942,新規,0,2023-07-14,2023-07-14,株式会社Ｓ‐ＲＩＳＥ,,株式会社,埼玉県,さいたま市中央区,上落合３丁目７番１０号１Ｆ－Ｂ,,11,105,3380001,,,,,,,2023-07-14,1,,,,,エスライズ,0
1812,7030001154959,新規,0,2023-07-14,2023-07-14,株式会社Ｓ‐Ｑｕａｌｉｔｙ,,株式会社,埼玉県,さいたま市桜区,大字五関２０１番地４,,11,106,3380815,,,,,,,2023-07-14,1,,,,,エスクオリティー,0
1814,7030003022107,新規,0,2023-07-14,2023-07-14,合同会社小倉,,合同会社,埼玉県,八潮市,大字伊勢野３８４番地３８,,11,234,3400821,,,,,,,2023-07-14,1,,,,,オグラ,0
1815,7030003022123,新規,0,2023-07-14,2023-07-14,合同会社Ｋａｉｏｎ,,合同会社,埼玉県,さいたま市北区,日進町２丁目１６１６番地５リーポス日進７０３,,11,102,3310823,,,,,,,2023-07-14,1,,,,,カイオン,0
1816,7030003022131,新規,0,2023-07-14,2023-07-14,合同会社ＳＯＲＡ,,合同会社,埼玉県,草加市,新栄１丁目５番地９,,11,221,3400056,,,,,,,2023-07-14,1,,,,,ソラ,0
1821,7040001129191,新規,0,2023-07-14,2023-07-14,株式会社プロトコル,,株式会社,千葉県,八千代市,大和田新田９１１番地１サンクタス八千代緑が丘Ｌ－１０３,,12,221,2760046,,,,,,,2023-07-14,1,,,,,プロトコル,0
1835,7070001040643,新規,0,2023-07-14,2023-07-14,ネイチュラルウッドパワー株式会社,,株式会社,群馬県,前橋市,富士見町赤城山１２０４番地１３９１,,10,201,3710101,,,,,,,2023-07-14,1,,,,,ネイチュラルウッドパワー,0
1840,7100001036588,新規,0,2023-07-14,2023-07-14,株式会社ｆｒｕｉｔｓ　ｌａｂ　ＴＯＹＯＯＫＡ,,株式会社,長野県,下伊那郡豊丘村,大字神稲３５４４番地７,,20,416,3993202,,,,,,,2023-07-14,1,,,,,フルーツラボトヨオカ,0
1841,7100003007109,新規,0,2023-07-14,2023-07-14,合同会社ストレス管理研究所,,合同会社,長野県,諏訪郡原村,１７２１７番地１６２５,,20,363,3910100,,,,,,,2023-07-14,1,,,,,ストレスカンリケンキュウジョ,0
1847,7120001256408,新規,0,2023-07-14,2023-07-14,株式会社藤勝興産,,株式会社,大阪府,大阪市大正区,泉尾３丁目２０番３０号,,27,108,5510031,,,,,,,2023-07-14,1,,,,,トウショウコウサン,0
1848,7120001256416,新規,0,2023-07-14,2023-07-14,株式会社裕和,,株式会社,大阪府,大阪市住吉区,沢之町２丁目７番３１号,,27,120,5580031,,,,,,,2023-07-14,1,,,,,ユウワ,0
1849,7120001256432,新規,0,2023-07-14,2023-07-14,株式会社オブライジ,,株式会社,大阪府,大阪市中央区,西心斎橋２丁目１１－３０ブルータスビル２Ｆ,,27,128,5420086,,,,,,,2023-07-14,1,,,,,オブライジ,0
1850,7120001256440,新規,0,2023-07-14,2023-07-14,株式会社Ａｍｉ,,株式会社,大阪府,大阪市中央区,瓦町１丁目７番２号ＴＴＮ堺筋本町ビル４階,,27,128,5410048,,,,,,,2023-07-14,1,,,,,アミ,0
1851,7120001256449,新規,0,2023-07-14,2023-07-14,株式会社祐希,,株式会社,大阪府,大阪市浪速区,下寺２丁目６番２４,,27,111,5560001,,,,,,,2023-07-14,1,,,,,ユウキ,0
1852,7120001256481,新規,0,2023-07-14,2023-07-14,株式会社ＡＲＵＩＭ,,株式会社,大阪府,大阪市北区,太融寺町５－８ダイヤモンドレジャービル７階,,27,127,5300051,,,,,,,2023-07-14,1,,,,,アルム,0
1864,7130001074701,新規,0,2023-07-14,2023-07-14,株式会社スタジオ美木,,株式会社,京都府,京都市左京区,下鴨貴船町４３番地の１０,,26,103,6060813,,,,,,,2023-07-14,1,,,,,スタジオミキ,0
1865,7130001074742,新規,0,2023-07-14,2023-07-14,株式会社スポーツ館ミツハシ,,株式会社,京都府,京都市下京区,万寿寺通高倉西入万寿寺中之町７８番地,,26,106,6008405,,,,,,,2023-07-14,1,,,,,スポーツカンミツハシ,0
1877,7140001130817,新規,0,2023-07-14,2023-07-14,株式会社ＲＥＮＥＴ,,株式会社,兵庫県,神戸市灘区,岩屋北町７丁目１－８,,28,102,6570846,,,,,,,2023-07-14,1,,,,,リネット,0
1878,7140001130858,新規,0,2023-07-14,2023-07-14,株式会社おひさま,,株式会社,兵庫県,姫路市,西中島５２番地１,,28,201,6700805,,,,,,,2023-07-14,1,,,,,オヒサマ,0
1879,7140001130882,新規,0,2023-07-14,2023-07-14,株式会社ａｌ,,株式会社,兵庫県,神戸市中央区,元町通３丁目９番４号ベイ元町カルチャービル６Ｆ,,28,110,6500022,,,,,,,2023-07-14,1,,,,,エーエル,0
1882,7140003019298,新規,0,2023-07-14,2023-07-14,合同会社ヘラクレス,,合同会社,兵庫県,芦屋市,山手町２８番３１－２０５号,,28,206,6590096,,,,,,,2023-07-14,1,,,,,ヘラクレス,0
1883,7170001017689,新規,0,2023-07-14,2023-07-14,株式会社丸和産業,,株式会社,和歌山県,田辺市,文里２丁目２３番３９号,,30,206,6460023,,,,,,,2023-07-14,1,,,,,マルワサンギョウ,0
1893,7180001157096,新規,0,2023-07-14,2023-07-14,まるはリゾート株式会社,,株式会社,愛知県,知多郡南知多町,大字山海字高峯９番地１,,23,445,4703322,,,,,,,2023-07-14,1,,,,,マルハリゾート,0
1894,7180001157146,新規,0,2023-07-14,2023-07-14,株式会社ＫＢＫ,,株式会社,愛知県,名古屋市瑞穂区,柳ケ枝町１丁目２４番地,,23,108,4670825,,,,,,,2023-07-14,1,,,,,ケイビーケイ,0
1895,7180001157187,新規,0,2023-07-14,2023-07-14,ＮＴＴＮ株式会社,,株式会社,愛知県,名古屋市瑞穂区,浮島町１２番２４号,,23,108,4670854,,,,,,,2023-07-14,1,,,,,エヌティーティーエヌ,0
1901,7180301037576,新規,0,2023-07-14,2023-07-14,株式会社Ａｉｄｅａｔｅ,,株式会社,愛知県,豊田市,前林町南６２番地,,23,211,4730934,,,,,,,2023-07-14,1,,,,,アイディエイト,0
1904,7180303005770,新規,0,2023-07-14,2023-07-14,アリス合同会社,,合同会社,愛知県,豊田市,美山町１丁目９３番地１,,23,211,4710849,,,,,,,2023-07-14,1,,,,,アリス,0
1905,7180303005779,新規,0,2023-07-14,2023-07-14,ケイコネクト合同会社,,合同会社,愛知県,田原市,田原町亀若４１－１,,23,231,4413421,,,,,,,2023-07-14,1,,,,,ケイコネクト,0
1910,7200001041504,新規,0,2023-07-14,2023-07-14,株式会社ダイヤボディー,,株式会社,岐阜県,関市,大杉２９９番地,,21,205,5013922,,,,,,,2023-07-14,1,,,,,ダイヤボディー,0
1918,7220001025505,新規,0,2023-07-14,2023-07-14,門前赤神ＴＳＮＫ株式会社,,株式会社,石川県,金沢市,松島３丁目１１０番地,,17,201,9200364,,,,,,,2023-07-14,1,,,,,モンゼンアカカミティーエスエヌケー,0
1921,7230001019919,新規,0,2023-07-14,2023-07-14,株式会社八尾福祉会,,株式会社,富山県,富山市,八尾町西町２３８６番地,,16,201,9392355,,,,,,,2023-07-14,1,,,,,ヤツオフクシカイ,0
1925,7240001061837,新規,0,2023-07-14,2023-07-14,株式会社ＦＲＥＥ　ＬＩＮＥ,,株式会社,広島県,広島市東区,牛田東２丁目８番９号,,34,102,7320063,,,,,,,2023-07-14,1,,,,,フリーライン,0
1935,7280003001746,新規,0,2023-07-14,2023-07-14,合同会社藤代酒店,,合同会社,島根県,江津市,都野津町２２８３番地１６,,32,207,6950021,,,,,,,2023-07-14,1,,,,,フジシロサケテン,0
1938,7290001102297,新規,0,2023-07-14,2023-07-14,株式会社ナカガワ,,株式会社,福岡県,那珂川市,大字山田１１６５－１,,40,231,8111244,,,,,,,2023-07-14,1,,,,,ナカガワ,0
1942,7290801029707,新規,0,2023-07-14,2023-07-14,株式会社ＤＦ,,株式会社,福岡県,北九州市小倉南区,葛原高松２丁目１番１８号,,40,107,8000252,,,,,,,2023-07-14,1,,,,,ディーエフ,0
1944,7330001031046,新規,0,2023-07-14,2023-07-14,株式会社ケイシュウテクノ,,株式会社,熊本県,熊本市東区,保田窪３丁目２３番１２４号,,43,102,8620926,,,,,,,2023-07-14,1,,,,,ケイシュウテクノ,0
1957,7360005006875,新規,0,2023-07-14,2023-07-14,沖縄グローリーチャーチ,,その他の設立登記法人,沖縄県,沖縄市,宮里２丁目３番地３号,,47,211,9042165,,,,,,,2023-07-14,1,,,,,オキナワグローリーチャーチ,0
1959,7370001050199,新規,0,2023-07-14,2023-07-14,株式会社７７ＰＥ２,,株式会社,宮城県,仙台市青葉区,中央３丁目３番２０号,,04,101,9800021,,,,,,,2023-07-14,1,,,,,シチジュウシチピーイーツー,0
1963,7380001033855,新規,0,2023-07-14,2023-07-14,株式会社裕夢想,,株式会社,福島県,郡山市,横塚６丁目１９番７号,,07,203,9638803,,,,,,,2023-07-14,1,,,,,ユウムソウ,0
1976,7430001089529,新規,0,2023-07-14,2023-07-14,株式会社ノースオン,,株式会社,北海道,札幌市中央区,旭ケ丘１丁目７番１３号,,01,101,0640941,,,,,,,2023-07-14,1,,,,,ノースオン,0
1979,7430003015227,新規,0,2023-07-14,2023-07-14,合同会社エスワンエステート,,合同会社,北海道,石狩郡当別町,西町２５‐１１,,01,303,0610234,,,,,,,2023-07-14,1,,,,,エスワンエステート,0
1980,7430003015268,新規,0,2023-07-14,2023-07-14,Ｔｈｅ　Ｃａｃａｏ　Ｐｒｏｊｅｃｔ合同会社,,合同会社,北海道,虻田郡倶知安町,字樺山１５４番地７,,01,400,0440078,,,,,,,2023-07-14,1,,,,,ザカカオプロジェクト,0
1981,7430005014739,新規,0,2023-07-14,2023-07-14,一般社団法人ネットワーク苫小牧,,その他の設立登記法人,北海道,苫小牧市,若草町３丁目３番８号,,01,213,0530021,,,,,,,2023-07-14,1,,,,,ネットワークトマコマイ,0
1984,7450001014055,新規,0,2023-07-14,2023-07-14,株式会社Ａ．Ｇ．インターナショナル,,株式会社,北海道,旭川市,台場四条１丁目７番５号,,01,204,0708074,,,,,,,2023-07-14,1,,,,,エイジーインターナショナル,0
1991,7470003002452,新規,0,2023-07-14,2023-07-14,合同会社サカエ工業,,合同会社,香川県,丸亀市,垂水町２９０１番地１３,,37,202,7630095,,,,,,,2023-07-14,1,,,,,サカエコウギョウ,0
1992,7500001025071,新規,0,2023-07-14,2023-07-14,株式会社秋月商会,,株式会社,愛媛県,新居浜市,宇高町３丁目１番４９号,,38,205,7920866,,,,,,,2023-07-14,1,,,,,アキヅキショウカイ,0
1993,7700150118432,新規,0,2023-07-14,2023-07-14,ｇａｎｚｈｏｕｋａｉｍｉｅｒｄｉａｎｚｉｓｈａｎｇｗｕｙｏｕｘｉａｎｇｏｎｇｓｉ,,外国会社等,,,,,,,,ｚｈａｎｇｇｏｎｇｑｕｓｈａｓｈｉｚｈｅｎｆｅｎｇｊｉｎｇｌｕ１ｈａｏｆｅｎｇｓｈａｎｇｕｏｊｉ　ｈｕａｙｕｌｉｎｙｉｑｉ９ｈａｏｌｏｕ１００３ｓｈｉ　ｇａｎｚｈｏｕｓｈｉ　ｊｉａｎｇｘｉｓｈｅｎｇ　３４１０００　ＣＮ,,,,,,2023-07-14,1,,,,,ガンジョウカイミーアルディエンズーシャンウヨウシェンゴンスー,0
1994,7700150118440,新規,0,2023-07-14,2023-07-14,ｄｏｎｇｇｕａｎｓｈｉｙｕａｎｚｅｓｈｅｎｇｘｕｅｊｉｓｈｕｙｏｕｘｉａｎｇｏｎｇｓｉ,,外国会社等,,,,,,,,ｄｏｎｇｃｈｅｎｇ　ｊｉｅｄａｏ　ｈａｎ　ｔａｎｇ　ｊｉｅ　２６　ｈａｏ　１　ｄｏｎｇ　２０１　ｓｈｉ　ｄｏｎｇｇｕａｎ　ｇｕａｎｇｄｏｎｇ　５２３１０６ＣＮ,,,,,,2023-07-14,1,,,,,ドンワンシユェンズァションシュエジシュウヨウシェンゴンスー,0
1995,7700150118449,新規,0,2023-07-14,2023-07-14,Ｓｈｅｎｚｈｅｎｓｈｉ　ＲｅｎＢｅｎＸｉｎｚｈｉｌｉＷｅｎｈｕａＣｈｕａｎｂｏ　Ｙｏｕｘｉａｎｇｏｎｇｓｉ,,外国会社等,,,,,,,,Ｆｕｔｉａｎｑｕ．Ｍｅｉｌｉｎ　Ｊｉｅｄａｏ　Ｚｈｕｏｙｕｅ　ＭｅｉｌｉｎｚｈｏｎｇｘｉｎＧｕａｎｇｃｈａｎｇ　Ｂｅｉｑｕ　２ｄｏｎｇ　９０２　Ｓｈｅｎｚｈｅｎｓｈｉ　Ｇｕａｎｇｄｏｎｇｓｈｅｎｇ　Ｃｈｉｎａ,,,,,,2023-07-14,1,,,,,シンセンシレンベンシンジリウェンフアツゥアンボユウゲンコウシ,0
2007,8010005036948,新規,0,2023-07-14,2023-07-14,一般社団法人デジタルサロン協会,,その他の設立登記法人,東京都,千代田区,紀尾井町３番３３号プリンス通ビル２階,,13,101,1020094,,,,,,,2023-07-14,1,,,,,デジタルサロンキョウカイ,0
2013,8010401175630,新規,0,2023-07-14,2023-07-14,ブルーシナプス株式会社,,株式会社,東京都,港区,芝浦４丁目２１番１－１５１２号,,13,103,1080023,,,,,,,2023-07-14,1,,,,,ブルーシナプス,0
2027,8011001155601,新規,0,2023-07-14,2023-07-14,ＣｒｙｐｔｏＡＩ株式会社,,株式会社,東京都,渋谷区,神宮前６丁目２３番４号桑野ビル２階,,13,113,1500001,,,,,,,2023-07-14,1,,,,,クリプトエーアイ,0
2028,8011001155683,新規,0,2023-07-14,2023-07-14,株式会社ｇｒｉｔｎｅｓｓ,,株式会社,東京都,渋谷区,宇田川町１３番８号ちとせ会館２階,,13,113,1500042,,,,,,,2023-07-14,1,,,,,グリットネス,0
2031,8011003017171,新規,0,2023-07-14,2023-07-14,合同会社ＹＯＹＯ,,合同会社,東京都,渋谷区,代々木５丁目６７番８号３階,,13,113,1510053,,,,,,,2023-07-14,1,,,,,,0
2035,8011101103625,新規,0,2023-07-14,2023-07-14,株式会社イキイキワーク,,株式会社,東京都,新宿区,市谷田町３丁目８番地２Ｆ,,13,104,1620843,,,,,,,2023-07-14,1,,,,,イキイキワーク,0
2039,8011105010727,新規,0,2023-07-14,2023-07-14,ＬＲＦファンディング一般社団法人,,その他の設立登記法人,東京都,新宿区,四谷２丁目９番地１５東京ユナイテッド綜合事務所内,,13,104,1600004,,,,,,,2023-07-14,1,,,,,エルアールエフファンディング,0
2040,8011303004828,新規,0,2023-07-14,2023-07-14,合同会社Ｇｒｏｗａｈｌ,,合同会社,東京都,杉並区,永福３丁目５４番５号,,13,115,1680064,,,,,,,2023-07-14,1,,,,,グロウヴァール,0
2043,8011501029536,新規,0,2023-07-14,2023-07-14,光海陸ホールディングス株式会社,,株式会社,東京都,北区,中十条１丁目４番７号,,13,117,1140032,,,,,,,2023-07-14,1,,,,,ヒカリカイリクホールディングス,0
2053,8012301013523,新規,0,2023-07-14,2023-07-14,日本共栄株式会社,,株式会社,東京都,町田市,中町１丁目２－３新光中町ビル１階,,13,209,1940021,,,,,,,2023-07-14,1,,,,,ニホンキョウエイ,0
2064,8020001152450,新規,0,2023-07-14,2023-07-14,株式会社リンカイ商事,,株式会社,神奈川県,横浜市磯子区,杉田１丁目１番１－２１０９号,,14,107,2350033,,,,,,,2023-07-14,1,,,,,リンカイショウジ,0
2065,8020001152517,新規,0,2023-07-14,2023-07-14,ラパンコンサルタント株式会社,,株式会社,神奈川県,横浜市南区,別所中里台２１番地１３号,,14,105,2320065,,,,,,,2023-07-14,1,,,,,ラパンコンサルタント,0
2069,8020003024210,新規,0,2023-07-14,2023-07-14,シーエフコーポレーション合同会社,,合同会社,神奈川県,横浜市神奈川区,菅田町１５５１番地１９,,14,102,2210864,,,,,,,2023-07-14,1,,,,,シーエフコーポレーション,0
2070,8020003024219,新規,0,2023-07-14,2023-07-14,ＭＡＩＹＡ　ＤＥＶＩ合同会社,,合同会社,神奈川県,横浜市鶴見区,東寺尾６丁目１８－１２－４,,14,101,2300077,,,,,,,2023-07-14,1,,,,,マイヤーデビ,0
2071,8020003024227,新規,0,2023-07-14,2023-07-14,合同会社ｎｅｃｅｓｓａｒｙ　ｃｏｎｓｉｓｔｅｎｃｙ,,合同会社,神奈川県,横浜市戸塚区,戸塚町４１０５番地１ヒルクレスト横濱戸塚６０７号,,14,110,2440003,,,,,,,2023-07-14,1,,,,,ネセサリーコンシステンシー,0
2072,8020005016057,新規,0,2023-07-14,2023-07-14,一般社団法人Ｙｏｋｏｈａｍａ　Ｉｎｔｅｒｎａｔｉｏｎａｌ　Ｃｈｕｒｃｈ,,その他の設立登記法人,神奈川県,横浜市中区,小港町３丁目１８７番地１２,,14,104,2310802,,,,,,,2023-07-14,1,,,,,ヨコハマインターナショナルチャーチ,0
2075,8021001079601,新規,0,2023-07-14,2023-07-14,株式会社ＡＮＡＸＦＬＹ,,株式会社,神奈川県,茅ヶ崎市,円蔵３３１－２,,14,207,2530084,,,,,,,2023-07-14,1,,,,,アナックスフライ,0
2083,8030001154883,新規,0,2023-07-14,2023-07-14,株式会社ＢＡＧＬＥ,,株式会社,埼玉県,さいたま市南区,南浦和２丁目４５番１号グランジュール南浦和１階１０１号室,,11,108,3360017,,,,,,,2023-07-14,1,,,,,ベーグル,0
2084,8030001154891,新規,0,2023-07-14,2023-07-14,株式会社ミュージックパートナーズ,,株式会社,埼玉県,鴻巣市,前砂４３４番地１,,11,217,3690132,,,,,,,2023-07-14,1,,,,,ミュージックパートナーズ,0
2087,8030003022130,新規,0,2023-07-14,2023-07-14,合同会社ロータス・ジャパン,,合同会社,埼玉県,入間郡毛呂山町,大字西大久保３４番地８,,11,326,3500433,,,,,,,2023-07-14,1,,,,,ロータスジャパン,0
2089,8040001129190,新規,0,2023-07-14,2023-07-14,株式会社ユニグリーンズ,,株式会社,千葉県,千葉市中央区,富士見２丁目１６番２６号マルエイビル３階,,12,101,2600015,,,,,,,2023-07-14,1,,,,,ユニグリーンズ,0
2090,8040001129216,新規,0,2023-07-14,2023-07-14,シリウス・デザイン株式会社,,株式会社,千葉県,富里市,七栄６４９番地６６１－１０１,,12,233,2860221,,,,,,,2023-07-14,1,,,,,シリウスデザイン,0
2096,8040003022947,新規,0,2023-07-14,2023-07-14,合同会社ジンプロテック,,合同会社,千葉県,市川市,南行徳４丁目８番１５号,,12,203,2720138,,,,,,,2023-07-14,1,,,,,ジンプロテック,0
2097,8040003022955,新規,0,2023-07-14,2023-07-14,合同会社ＡＬＩＣＥ,,合同会社,千葉県,浦安市,堀江４丁目３２－９メゾンフルール１０２,,12,227,2790041,,,,,,,2023-07-14,1,,,,,アリス,0
2102,8050001053118,新規,0,2023-07-14,2023-07-14,株式会社池田,,株式会社,茨城県,神栖市,平泉２３３３番地２,,08,232,3140146,,,,,,,2023-07-14,1,,,,,イケダ,0
2103,8050001053167,新規,0,2023-07-14,2023-07-14,ウーノエンタープライズ株式会社,,株式会社,茨城県,鹿嶋市,大字荒野１４９４－３,,08,222,3112221,,,,,,,2023-07-14,1,,,,,ウーノエンタープライズ,0
2109,8070001040642,新規,0,2023-07-14,2023-07-14,株式会社ＡＩ,,株式会社,群馬県,安中市,郷原７７番地１,,10,211,3790135,,,,,,,2023-07-14,1,,,,,アイ,0
2110,8080001025733,新規,0,2023-07-14,2023-07-14,株式会社めぐるからだ,,株式会社,静岡県,静岡市葵区,新通１丁目１番３号,,22,101,4200065,,,,,,,2023-07-14,1,,,,,メグルカラダ,0
2113,8080103002845,新規,0,2023-07-14,2023-07-14,ｈｉｒｏ合同会社,,合同会社,静岡県,富士宮市,杉田６１８番地の１,,22,207,4180021,,,,,,,2023-07-14,1,,,,,ヒロ,0
2117,8100001036587,新規,0,2023-07-14,2023-07-14,株式会社いいせわらわ,,株式会社,長野県,安曇野市,豊科高家５２１１番地４,,20,220,3998204,,,,,,,2023-07-14,1,,,,,イイセワラワ,0
2118,8100003007108,新規,0,2023-07-14,2023-07-14,合同会社たんぽぽフィルムズ,,合同会社,長野県,東御市,田中１７８－２えべや気付,,20,219,3890516,,,,,,,2023-07-14,1,,,,,タンポポフィルムズ,0
2121,8110001037700,新規,0,2023-07-14,2023-07-14,トライオテック株式会社,,株式会社,新潟県,長岡市,新産３丁目２番地６,,15,202,9402127,,,,,,,2023-07-14,1,,,,,トライオテック,0
2123,8110003005119,新規,0,2023-07-14,2023-07-14,合同会社浦佐ミール,,合同会社,新潟県,南魚沼市,山崎新田９５－６,,15,226,9497226,,,,,,,2023-07-14,1,,,,,ウラサミール,0
2131,8120001256373,新規,0,2023-07-14,2023-07-14,美亜株式会社,,株式会社,大阪府,大阪市淀川区,東三国２丁目３８番１２号,,27,123,5320002,,,,,,,2023-07-14,1,,,,,ミア,0
2132,8120001256381,新規,0,2023-07-14,2023-07-14,株式会社クライス上本町,,株式会社,大阪府,大阪市天王寺区,上本町８丁目２番１号クライス上本町１４０１号,,27,109,5430001,,,,,,,2023-07-14,1,,,,,クライスウエホンマチ,0
2133,8120001256415,新規,0,2023-07-14,2023-07-14,株式会社ソリリテ,,株式会社,大阪府,大阪市西区,江戸堀２丁目２番５号レジディア江戸堀,,27,106,5500002,,,,,,,2023-07-14,1,,,,,ソリリテ,0
2134,8120001256423,新規,0,2023-07-14,2023-07-14,ゆうプランド株式会社,,株式会社,大阪府,大阪市北区,豊崎７丁目７番７－１０１号,,27,127,5310072,,,,,,,2023-07-14,1,,,,,ユウプランド,0
2135,8120001256464,新規,0,2023-07-14,2023-07-14,株式会社アルタリスト,,株式会社,大阪府,大阪市西区,新町３丁目４番６号,,27,106,5500013,,,,,,,2023-07-14,1,,,,,アルタリスト,0
2136,8120001256506,新規,0,2023-07-14,2023-07-14,今何株式会社,,株式会社,大阪府,大阪市西成区,花園南１丁目６番９－９０２号,,27,122,5570015,,,,,,,2023-07-14,1,,,,,コンカ,0
2139,8120003024480,新規,0,2023-07-14,2023-07-14,合同会社ＢＯＨＯ,,合同会社,大阪府,大阪市生野区,新今里１丁目１３－１４,,27,116,5440001,,,,,,,2023-07-14,1,,,,,ボーホー,0
2142,8120101067877,新規,0,2023-07-14,2023-07-14,株式会社ぷらす,,株式会社,大阪府,堺市堺区,翁橋町１丁６番１６－４０３号,,27,141,5900061,,,,,,,2023-07-14,1,,,,,プラス,0
2143,8120101067885,新規,0,2023-07-14,2023-07-14,株式会社Ｎ＆Ａ　ｃｏｒｐｏｒａｔｉｏｎ,,株式会社,大阪府,堺市西区,浜寺石津町東４丁１２番１０号ムーランアヴァンＣ３０３号,,27,144,5928335,,,,,,,2023-07-14,1,,,,,エヌアンドエーコーポレイション,0
2149,8130001074709,新規,0,2023-07-14,2023-07-14,株式会社いのとら,,株式会社,京都府,京都市上京区,下立売通智恵光院西入中村町５２２番地,,26,102,6028175,,,,,,,2023-07-14,1,,,,,イノトラ,0
2150,8130001074733,新規,0,2023-07-14,2023-07-14,ＡＴＤ　ＩｎｎｏＳｏｌｕｔｉｏｎｓ株式会社,,株式会社,京都府,京都市中京区,中島町９０－２ａｕｎｅ京都三条９階,,26,104,6048004,,,,,,,2023-07-14,1,,,,,エーティーディーイノソリューションズ,0
2152,8130003008838,新規,0,2023-07-14,2023-07-14,合同会社カンナ,,合同会社,京都府,南丹市,園部町内林町下荒代８番地１,,26,213,6220012,,,,,,,2023-07-14,1,,,,,カンナ,0
2153,8130003008854,新規,0,2023-07-14,2023-07-14,ＬＩＢ合同会社,,合同会社,京都府,城陽市,奈島久保野１４番地の２,,26,207,6100116,,,,,,,2023-07-14,1,,,,,リブ,0
2160,8140001130857,新規,0,2023-07-14,2023-07-14,株式会社Ｍａｒｉｎ‐ｈｅａｒｔ．,,株式会社,兵庫県,三田市,けやき台５丁目２５番地１３５,,28,219,6691321,,,,,,,2023-07-14,1,,,,,マリンハート,0
2162,8140003019289,新規,0,2023-07-14,2023-07-14,合同会社字遊堂,,合同会社,兵庫県,川西市,湯山台１丁目２２番地の１７,,28,217,6660137,,,,,,,2023-07-14,1,,,,,ジユウドウ,0
2163,8140003019297,新規,0,2023-07-14,2023-07-14,合同会社蔵谷,,合同会社,兵庫県,加東市,大畑１２７６番地,,28,228,6731325,,,,,,,2023-07-14,1,,,,,クラタニ,0
2164,8140003019306,新規,0,2023-07-14,2023-07-14,合同会社ニコメディア,,合同会社,兵庫県,明石市,二見町福里５８４－６,,28,203,6740091,,,,,,,2023-07-14,1,,,,,ニコメディア,0
2170,8170005007025,新規,0,2023-07-14,2023-07-14,特定非営利活動法人さいかざきポッセ,,その他の設立登記法人,和歌山県,和歌山市,雑賀崎１３２５番地,,30,201,6410062,,,,,,,2023-07-14,1,,,,,サイカザキポッセ,0
2174,8180001157095,新規,0,2023-07-14,2023-07-14,まるは知多株式会社,,株式会社,愛知県,常滑市,りんくう町３丁目９番地の５,,23,216,4790882,,,,,,,2023-07-14,1,,,,,マルハチタ,0
2175,8180001157178,新規,0,2023-07-14,2023-07-14,株式会社ＡＭ　ｗｏｒｋ,,株式会社,愛知県,名古屋市港区,寛政町１丁目２４番地の１,,23,111,4550066,,,,,,,2023-07-14,1,,,,,エーエムワーク,0
2176,8180001157186,新規,0,2023-07-14,2023-07-14,株式会社ＧＲＡＮＤ　ＬＩＮＫＳ,,株式会社,愛知県,小牧市,大字小牧原新田字自才前１４３５番地１,,23,219,4850012,,,,,,,2023-07-14,1,,,,,グランドリンクス,0
2179,8180003025498,新規,0,2023-07-14,2023-07-14,合同会社ＴｈｉｎｋＳｐａｃｅ,,合同会社,愛知県,名古屋市緑区,六田２丁目８８番地の５,,23,114,4580036,,,,,,,2023-07-14,1,,,,,シンクスペース,0
2181,8180005020290,新規,0,2023-07-14,2023-07-14,税理士法人ミライヲカタル,,その他の設立登記法人,愛知県,名古屋市千種区,園山町１丁目１８番地の１０,,23,101,4640812,,,,,,,2023-07-14,1,,,,,ミライヲカタル,0
2185,8180301037550,新規,0,2023-07-14,2023-07-14,株式会社ビーサニー,,株式会社,愛知県,蒲郡市,浜町８１番地,,23,214,4430036,,,,,,,2023-07-14,1,,,,,ビーサニー,0
2186,8180301037575,新規,0,2023-07-14,2023-07-14,株式会社Ｋ‐ＲＥＸ,,株式会社,愛知県,岡崎市,羽根東町２丁目１番地４,,23,202,4440832,,,,,,,2023-07-14,1,,,,,ケーレックス,0
2189,8190001030581,新規,0,2023-07-14,2023-07-14,株式会社グランデアート,,株式会社,三重県,度会郡度会町,棚橋３６７番地４,,24,470,5162103,,,,,,,2023-07-14,1,,,,,グランデアート,0
2190,8190003004377,新規,0,2023-07-14,2023-07-14,陽彩工業合同会社,,合同会社,三重県,四日市市,三ツ谷東町３番２６－２０２号グラン・コート四日市,,24,202,5100801,,,,,,,2023-07-14,1,,,,,ヨウサイコウギョウ,0
2207,8220001025504,新規,0,2023-07-14,2023-07-14,株式会社北陸貿易産業,,株式会社,石川県,野々市市,二日市５丁目３８４番地,,17,212,9218809,,,,,,,2023-07-14,1,,,,,ホクリクボウエキサンギョウ,0
2208,8230001019918,新規,0,2023-07-14,2023-07-14,立山ＴＥＣＨ株式会社,,株式会社,富山県,富山市,文京町３丁目５番地１８,,16,201,9300876,,,,,,,2023-07-14,1,,,,,タテヤマテック,0
2213,8240005015615,新規,0,2023-07-14,2023-07-14,一般社団法人ひろしま好きじゃけんコンソーシアム,,その他の設立登記法人,広島県,東広島市,鏡山１丁目３番２号,,34,212,7390046,,,,,,,2023-07-14,1,,,,,ヒロシマスキジャケンコンソーシアム,0
2224,8290001102263,新規,0,2023-07-14,2023-07-14,株式会社Ｒｉｃｅ,,株式会社,福岡県,福岡市中央区,薬院４丁目１４番１－１３０９号,,40,133,8100022,,,,,,,2023-07-14,1,,,,,ライス,0
2225,8290001102296,新規,0,2023-07-14,2023-07-14,Ｋｕｒｕｍｅ　Ｍｉｎｄ株式会社,,株式会社,福岡県,福岡市東区,香椎照葉４丁目４番２０号,,40,131,8130017,,,,,,,2023-07-14,1,,,,,クルメマインド,0
2228,8290801029706,新規,0,2023-07-14,2023-07-14,株式会社ＬＩＶ,,株式会社,福岡県,田川郡福智町,伊方１８１５,,40,610,8221211,,,,,,,2023-07-14,1,,,,,リヴ,0
2229,8290803004459,新規,0,2023-07-14,2023-07-14,合同会社Ｋｕｋｕｎａ,,合同会社,福岡県,北九州市小倉南区,曽根北町４番１６－１１０３号,,40,107,8000229,,,,,,,2023-07-14,1,,,,,ククナ,0
2230,8310001018515,新規,0,2023-07-14,2023-07-14,株式会社ひかり酒販,,株式会社,長崎県,諫早市,小豆崎町２２４番地１,,42,204,8590311,,,,,,,2023-07-14,1,,,,,ヒカリシュハン,0
2231,8330001031045,新規,0,2023-07-14,2023-07-14,株式会社ＬＥＧＥＮＤ,,株式会社,熊本県,熊本市東区,保田窪４丁目７番２８号,,43,102,8620926,,,,,,,2023-07-14,1,,,,,レジェンド,0
2239,8370001050181,新規,0,2023-07-14,2023-07-14,結城エステート株式会社,,株式会社,宮城県,仙台市宮城野区,福室３丁目１２番３０号,,04,102,9830005,,,,,,,2023-07-14,1,,,,,ユウキエステート,0
2242,8380001033846,新規,0,2023-07-14,2023-07-14,株式会社佐々木工匠,,株式会社,福島県,二本松市,竹田２丁目１１５番地１,,07,210,9640902,,,,,,,2023-07-14,1,,,,,ササキコウショウ,0
2248,8390001017303,新規,0,2023-07-14,2023-07-14,株式会社さとちくホールディングス,,株式会社,山形県,山形市,諏訪町１丁目３番１１号,,06,201,9900033,,,,,,,2023-07-14,1,,,,,サトチクホールディングス,0
2251,8430001089478,新規,0,2023-07-14,2023-07-14,株式会社ホワイトストレージ,,株式会社,北海道,札幌市中央区,大通西１丁目１４番２号桂和大通ビル５０　９階,,01,101,0600042,,,,,,,2023-07-14,1,,,,,ホワイトストレージ,0
2252,8430001089544,新規,0,2023-07-14,2023-07-14,株式会社ＳＵＮ,,株式会社,北海道,石狩市,花川南二条６丁目６５番地,,01,235,0613202,,,,,,,2023-07-14,1,,,,,サン,0
2253,8430005014746,新規,0,2023-07-14,2023-07-14,一般社団法人北海道新産業創造機構,,その他の設立登記法人,北海道,札幌市中央区,北一条西３丁目３番地札幌ＭＮビル８階,,01,101,0600001,,,,,,,2023-07-14,1,,,,,ホッカイドウシンサンギョウソウゾウキコウ,0
2259,8470001019679,新規,0,2023-07-14,2023-07-14,株式会社ｒｕｒｕ,,株式会社,香川県,坂出市,林田町３９３１番地１,,37,203,7620012,,,,,,,2023-07-14,1,,,,,ルル,0
2263,8490003001798,新規,0,2023-07-14,2023-07-14,合同会社Ｆｏｒｅｓｔ　Ｐｒｏｔｅｃｔｉｏｎｓ,,合同会社,高知県,高知市,円行寺１００１,,39,201,7800974,,,,,,,2023-07-14,1,,,,,フォレストプロテクションズ,0
2266,8700150118431,新規,0,2023-07-14,2023-07-14,ｙｕｎｋｅｊｉｋｅｊｉｓｈｅｎｚｈｅｎｙｏｕｘｉａｎｇｏｎｇｓｉ,,外国会社等,,,,,,,,ｆｕｔｉａｎ，ｈｕａｑｉａｎｇｂｅｉｊｉｅｄａｏ，ｓａｉｇｅｋｅｊｉｙｕａｎ，３ｄｏｎｇ６ｒｏｕ　６Ｇ０３　ｓｈｅｎｚｈｅｎ　ｇｕａｎｇｄｏｎｇ　５１８０２８　ＣＮ,,,,,,2023-07-14,1,,,,,ユンカジーカージシェンジェンヨウシェンゴンスー,0
2267,8700150118448,新規,0,2023-07-14,2023-07-14,Ｙｉｘｉｎｇ　Ｊｕｄａｏ　Ｅ－ｃｏｍｍｅｒｃｅ　Ｃｏ．，Ｌｔｄ．,,外国会社等,,,,,,,,Ｒｏｏｍ　２０７，５５　Ｙｕｅｄｏｎｇ　Ｒｏａｄ，Ｘｉｎｊｉｅ　Ｓｔｒｅｅｔ，Ｙｉｘｉｎｇ　Ｃ　Ｙｉｘｉｎｇ　Ｊｉａｎｇｓｕ　Ｃｈｉｎａ,,,,,,2023-07-14,1,,,,,イシンジュダォイーコマースカンパニーリミテッド,0
2274,9010001236963,新規,0,2023-07-14,2023-07-14,株式会社ｉＲｕｃ,,株式会社,東京都,千代田区,岩本町３丁目５番８号,,13,101,1010032,,,,,,,2023-07-14,1,,,,,アイルク,0
2277,9010005036947,新規,0,2023-07-14,2023-07-14,一般財団法人熊川財団,,その他の設立登記法人,東京都,文京区,小石川３丁目２２番６－１０４号,,13,105,1120002,,,,,,,2023-07-14,1,,,,,クマカワザイダン,0
2278,9010005036963,新規,0,2023-07-14,2023-07-14,一般社団法人ネックケアセラピスト協会,,その他の設立登記法人,東京都,中央区,銀座１丁目２２番１１号２Ｆ,,13,102,1040061,,,,,,,2023-07-14,1,,,,,,0
2284,9010401175729,新規,0,2023-07-14,2023-07-14,株式会社ＨＩＧＨＬＡＮＤ,,株式会社,東京都,港区,南青山２丁目１５番５号ＦＡＲＯ青山１階,,13,103,1070062,,,,,,,2023-07-14,1,,,,,ハイランド,0
2287,9010403030469,新規,0,2023-07-14,2023-07-14,アンスペア合同会社,,合同会社,東京都,港区,南青山４丁目１７番３３号グランカーサ南青山２Ｆ,,13,103,1070062,,,,,,,2023-07-14,1,,,,,アンスペア,0
2288,9010403030502,新規,0,2023-07-14,2023-07-14,合同会社コピウエ,,合同会社,東京都,港区,芝浦１丁目６番４１－３４１１号,,13,103,1050023,,,,,,,2023-07-14,1,,,,,コピウエ,0
2289,9010405022332,新規,0,2023-07-14,2023-07-14,Ｓｉｌｖｅｒａｄｏ一般社団法人,,その他の設立登記法人,東京都,港区,虎ノ門４丁目１番２８号,,13,103,1050001,,,,,,,2023-07-14,1,,,,,シルバラード,0
2294,9010501050757,新規,0,2023-07-14,2023-07-14,株式会社１２６４,,株式会社,東京都,台東区,花川戸１丁目１０番７号エアリーハウス１０１号,,13,106,1110033,,,,,,,2023-07-14,1,,,,,イチニロクヨン,0
2296,9010601063428,新規,0,2023-07-14,2023-07-14,株式会社信建工業,,株式会社,東京都,江東区,大島８丁目２８－２４－９１３,,13,108,1360072,,,,,,,2023-07-14,1,,,,,シンケンコウギョウ,0
2297,9010603010246,新規,0,2023-07-14,2023-07-14,合同会社ＷＩＳＥ＆ＢＥＳＴＩＥ,,合同会社,東京都,江東区,豊洲５丁目６番２９－１７２４号,,13,108,1350061,,,,,,,2023-07-14,1,,,,,ワイズアンドベスティ,0
2314,9011001155501,新規,0,2023-07-14,2023-07-14,ＯｕｒＣａｒｇｏ株式会社,,株式会社,東京都,渋谷区,渋谷２丁目１９－１５宮益坂ビルディング６０９,,13,113,1500002,,,,,,,2023-07-14,1,,,,,アワーカーゴ,0
2315,9011001155682,新規,0,2023-07-14,2023-07-14,株式会社ｂｉｒｄ　ａｎｄ　ｐｅａｃｅ,,株式会社,東京都,渋谷区,宇田川町１３番８号ちとせ会館２階,,13,113,1500042,,,,,,,2023-07-14,1,,,,,バードアンドピース,0
2316,9011001155708,新規,0,2023-07-14,2023-07-14,ＶＥＧＡ　Ｉｎｔｅｌｌｉｇｅｎｃｅ株式会社,,株式会社,東京都,渋谷区,恵比寿３丁目２９番８号００５,,13,113,1500013,,,,,,,2023-07-14,1,,,,,,0
2317,9011003017121,新規,0,2023-07-14,2023-07-14,ｄｙｎａｓｔ合同会社,,合同会社,東京都,目黒区,青葉台４丁目４番１２号,,13,110,1530042,,,,,,,2023-07-14,1,,,,,ダイナスト,0
2318,9011003017154,新規,0,2023-07-14,2023-07-14,ｂｉｔｔ合同会社,,合同会社,東京都,渋谷区,道玄坂１丁目１０番８号渋谷道玄坂東急ビル２Ｆ－Ｃ,,13,113,1500043,,,,,,,2023-07-14,1,,,,,ビット,0
2319,9011003017179,新規,0,2023-07-14,2023-07-14,Ｆｒｏｇ合同会社,,合同会社,東京都,渋谷区,広尾５丁目１番２４号ＦｏｒｔＨｉｒｏｏ４０２,,13,113,1500012,,,,,,,2023-07-14,1,,,,,フロッグ,0
2320,9011003017195,新規,0,2023-07-14,2023-07-14,合同会社リージョンフードパートナー,,合同会社,東京都,渋谷区,道玄坂１丁目１０番８号渋谷道玄坂東急ビル２Ｆ－Ｃ,,13,113,1500043,,,,,,,2023-07-14,1,,,,,リージョンフードパートナー,0
2322,9011101103608,新規,0,2023-07-14,2023-07-14,株式会社ｓｏｌｉｄａｃｅ,,株式会社,東京都,新宿区,新宿５丁目８番５－３０２号,,13,104,1600022,,,,,,,2023-07-14,1,,,,,ソリッドエース,0
2323,9011101103640,新規,0,2023-07-14,2023-07-14,株式会社キーライフ,,株式会社,東京都,新宿区,大久保３丁目８番３号,,13,104,1690072,,,,,,,2023-07-14,1,,,,,キーライフ,0
2325,9011105010726,新規,0,2023-07-14,2023-07-14,一般社団法人ＴＵ１４,,その他の設立登記法人,東京都,新宿区,四谷２丁目９番地１５東京ユナイテッド綜合事務所内,,13,104,1600004,,,,,,,2023-07-14,1,,,,,ティーユージュウヨン,0
2329,9011301028860,新規,0,2023-07-14,2023-07-14,株式会社龍在天,,株式会社,東京都,杉並区,阿佐谷北１丁目３５番８号３０２室,,13,115,1660001,,,,,,,2023-07-14,1,,,,,リュウザイテン,0
2330,9011303004827,新規,0,2023-07-14,2023-07-14,合同会社イノベーゼ,,合同会社,東京都,杉並区,下高井戸２丁目１０－３プラザロイヤル６１２,,13,115,1680073,,,,,,,2023-07-14,1,,,,,,0
2340,9011805003285,新規,0,2023-07-14,2023-07-14,一般社団法人山友会,,その他の設立登記法人,東京都,葛飾区,亀有５丁目３３番７号,,13,122,1250061,,,,,,,2023-07-14,1,,,,,サンユウカイ,0
2343,9012401040747,新規,0,2023-07-14,2023-07-14,株式会社Ｉｒｒｅｐｌａｃｅａｂｌｅ,,株式会社,東京都,調布市,深大寺元町１丁目２１番地４２,,13,208,1820017,,,,,,,2023-07-14,1,,,,,イリプレイサボー,0
2344,9012701017750,新規,0,2023-07-14,2023-07-14,エムトレードジャパン株式会社,,株式会社,東京都,東久留米市,滝山７丁目１３番４号,,13,222,2030033,,,,,,,2023-07-14,1,,,,,エムトレードジャパン,0
2348,9013301051066,新規,0,2023-07-14,2023-07-14,Ｓｏａｒｉｎｇ　Ｐｒｉｃｅ株式会社,,株式会社,東京都,豊島区,池袋２丁目１７番８号天翔池袋ＡＮＮＥＸビル２階２０３－Ｈ号室,,13,116,1710014,,,,,,,2023-07-14,1,,,,,ソアリングプライス,0
2349,9013303006695,新規,0,2023-07-14,2023-07-14,樋口商事合同会社,,合同会社,東京都,豊島区,東池袋５－７－３東池袋五丁目ビル２Ｆ－１４,,13,116,1700000,,,,,,,2023-07-14,1,,,,,ヒグチショウジ,0
2354,9020001152524,新規,0,2023-07-14,2023-07-14,株式会社クロノマネジメント,,株式会社,神奈川県,横浜市旭区,鶴ケ峰本町１丁目３９－３０,,14,112,2410021,,,,,,,2023-07-14,1,,,,,クロノマネジメント,0
2357,9020003024201,新規,0,2023-07-14,2023-07-14,ワ・プロジェクト合同会社,,合同会社,神奈川県,川崎市川崎区,藤崎４丁目１１番２－３０３号,,14,131,2100804,,,,,,,2023-07-14,1,,,,,ワプロジェクト,0
2360,9020005016056,新規,0,2023-07-14,2023-07-14,サンソレイユ税理士法人,,その他の設立登記法人,神奈川県,川崎市中原区,小杉町３丁目１５０１番地７セントア武蔵小杉３０２Ｂ号室,,14,133,2110063,,,,,,,2023-07-14,1,,,,,サンソレイユ,0
2362,9021001079591,新規,0,2023-07-14,2023-07-14,株式会社ＴＡＫＡＱＵＲＡ,,株式会社,神奈川県,相模原市中央区,相模原２丁目１３番３号相模原ビル２階,,14,152,2520231,,,,,,,2023-07-14,1,,,,,タカクラ,0
2368,9030001154809,新規,0,2023-07-14,2023-07-14,株式会社若林興業,,株式会社,埼玉県,飯能市,緑町１２番地６,,11,209,3570024,,,,,,,2023-07-14,1,,,,,ワカバヤシコウギョウ,0
2369,9030001154882,新規,0,2023-07-14,2023-07-14,株式会社高生,00131181,株式会社,埼玉県,さいたま市南区,松本３丁目１６番４号２１０９,,11,108,3360035,,,,,,,2023-07-14,1,,,,,タカセイ,0
2373,9030003022121,新規,0,2023-07-14,2023-07-14,合同会社クラウンズアーク,,合同会社,埼玉県,さいたま市南区,四谷２丁目１番１０－２０４号,,11,108,3360032,,,,,,,2023-07-14,1,,,,,クラウンズアーク,0
2381,9040001129248,新規,0,2023-07-14,2023-07-14,株式会社ｌｉｎｃ．,,株式会社,千葉県,流山市,おおたかの森東１丁目１１番地の２エルピス２－１階,,12,220,2700138,,,,,,,2023-07-14,1,,,,,リンク,0
2382,9040001129256,新規,0,2023-07-14,2023-07-14,株式会社南総産業,,株式会社,千葉県,袖ケ浦市,長浦駅前８丁目９番地１８サンハイツＡ－Ｂ号,,12,229,2990246,,,,,,,2023-07-14,1,,,,,ナンソウサンギョウ,0
2384,9050001053158,新規,0,2023-07-14,2023-07-14,株式会社八州工業,,株式会社,茨城県,古河市,仁連１４６７番地５,,08,204,3060125,,,,,,,2023-07-14,1,,,,,ヤシマコウギョウ,0
2388,9050003007632,新規,0,2023-07-14,2023-07-14,合同会社トライアス,,合同会社,茨城県,龍ケ崎市,松ケ丘３丁目１３番地９１,,08,208,3010853,,,,,,,2023-07-14,1,,,,,トライアス,0
2391,9070001040641,新規,0,2023-07-14,2023-07-14,株式会社八木,,株式会社,群馬県,前橋市,荒牧町３丁目３番地２７,,10,201,3710044,,,,,,,2023-07-14,1,,,,,ヤギ,0
2392,9070003005031,新規,0,2023-07-14,2023-07-14,ＭＵＳＴＡＦＡ　ＡＵＴＯＭＯＴＩＶＥＳ合同会社,,合同会社,群馬県,前橋市,石倉町３丁目１４番地８号グリーンハイツ石倉Ａ－２２,,10,201,3710841,,,,,,,2023-07-14,1,,,,,ムスタファオートモーティブズ,0
2403,9100001036586,新規,0,2023-07-14,2023-07-14,株式会社ＨＤｓｔｙｌｅ,,株式会社,長野県,松本市,梓川倭２９５２番地７,,20,202,3901701,,,,,,,2023-07-14,1,,,,,エイチディースタイル,0
2406,9110001037699,新規,0,2023-07-14,2023-07-14,株式会社Ｐａｌｍ,,株式会社,新潟県,新潟市東区,材木町５番２７号,,15,102,9500811,,,,,,,2023-07-14,1,,,,,パーム,0
2418,9120001256232,新規,0,2023-07-14,2023-07-14,ネイバーフッド株式会社,,株式会社,大阪府,大阪市東淀川区,下新庄４丁目１２番４号,,27,114,5330021,,,,,,,2023-07-14,1,,,,,ネイバーフッド,0
2419,9120001256439,新規,0,2023-07-14,2023-07-14,株式会社我が家,,株式会社,大阪府,大阪市生野区,鶴橋５丁目６番１５号,,27,116,5440031,,,,,,,2023-07-14,1,,,,,ワガヤ,0
2420,9120001256455,新規,0,2023-07-14,2023-07-14,文草貿易株式会社,,株式会社,大阪府,大阪市城東区,中浜２丁目１４番２号,,27,118,5360024,,,,,,,2023-07-14,1,,,,,ブンソウボウエキ,0
2421,9120001256513,新規,0,2023-07-14,2023-07-14,株式会社Ｃｒｅｓｃｅｎｔｅ,,株式会社,大阪府,大阪市北区,西天満３丁目３－１０,,27,127,5300047,,,,,,,2023-07-14,1,,,,,クレシェンテ,0
2422,9120003024471,新規,0,2023-07-14,2023-07-14,合同会社Ｖａｌ’ｓ　Ｋｒｅｍｌｉｎ,,合同会社,大阪府,大阪市西区,新町２丁目５－１－１５０２,,27,106,5500013,,,,,,,2023-07-14,1,,,,,ヴァルズクレムリ,0
2423,9120003024496,新規,0,2023-07-14,2023-07-14,アドバイザリー合同会社,,合同会社,大阪府,大阪市北区,西天満１丁目１０番８号西天満第１１松屋ビル３０６,,27,127,5300047,,,,,,,2023-07-14,1,,,,,アドバイザリー,0
2434,9122001037166,新規,0,2023-07-14,2023-07-14,サポートアール株式会社,,株式会社,大阪府,東大阪市,吉松２丁目９番４号,,27,227,5770821,,,,,,,2023-07-14,1,,,,,サポートアール,0
2438,9130001074716,新規,0,2023-07-14,2023-07-14,株式会社ｄｏ　ｔｈｅ　ｌａｕｎｄｒｙ,,株式会社,京都府,京都市右京区,西京極北裏町９番地４,,26,108,6150821,,,,,,,2023-07-14,1,,,,,ドゥーザランドリー,0
2439,9130001074724,新規,0,2023-07-14,2023-07-14,株式会社ＴＳＵＢＡＳＡ,,株式会社,京都府,京都市下京区,南京極町５２－２,,26,106,6008117,,,,,,,2023-07-14,1,,,,,ツバサ,0
2445,9140001130815,新規,0,2023-07-14,2023-07-14,東瀛農業株式会社,,株式会社,兵庫県,神戸市中央区,吾妻通６丁目２番１８号,,28,110,6510076,,,,,,,2023-07-14,1,,,,,トウエイノウギョウ,0
2446,9140001130848,新規,0,2023-07-14,2023-07-14,株式会社山達,,株式会社,兵庫県,西宮市,苦楽園三番町１番４０号,,28,204,6620081,,,,,,,2023-07-14,1,,,,,ヤマタツ,0
2447,9140001130856,新規,0,2023-07-14,2023-07-14,株式会社ハンドシェイク,,株式会社,兵庫県,西宮市,高木東町２６番６－３０１号,,28,204,6638033,,,,,,,2023-07-14,1,,,,,ハンドシェイク,0
2448,9140001130897,新規,0,2023-07-14,2023-07-14,株式会社大本,,株式会社,兵庫県,神戸市中央区,三宮町１丁目８番１号１４３号室,,28,110,6500021,,,,,,,2023-07-14,1,,,,,オオモト,0
2450,9140003019288,新規,0,2023-07-14,2023-07-14,合同会社ＦＬＡＷ,,合同会社,兵庫県,尼崎市,常光寺２丁目６番４１号,,28,202,6600811,,,,,,,2023-07-14,1,,,,,フロー,0
2451,9140003019296,新規,0,2023-07-14,2023-07-14,合同会社あかり,,合同会社,兵庫県,西宮市,上鳴尾町７－５,,28,204,6638186,,,,,,,2023-07-14,1,,,,,アカリ,0
2458,9170001017695,新規,0,2023-07-14,2023-07-14,アーム株式会社,,株式会社,和歌山県,和歌山市,東仲間町２丁目３２番地,,30,201,6408013,,,,,,,2023-07-14,1,,,,,アーム,0
2463,9180001157094,新規,0,2023-07-14,2023-07-14,まるは名古屋株式会社,,株式会社,愛知県,名古屋市中区,栄３丁目６番１号ラシック８階,,23,106,4600008,,,,,,,2023-07-14,1,,,,,マルハナゴヤ,0
2464,9180001157128,新規,0,2023-07-14,2023-07-14,ジー・ホールディングス株式会社,,株式会社,愛知県,名古屋市中区,伊勢山２丁目５番１０号,,23,106,4600026,,,,,,,2023-07-14,1,,,,,ジーホールディングス,0
2465,9180001157160,新規,0,2023-07-14,2023-07-14,株式会社アトリエ３１０,,株式会社,愛知県,名古屋市西区,宝地町３６５番地２渡辺ビル２０２,,23,104,4520808,,,,,,,2023-07-14,1,,,,,アトリエサトウ,0
2470,9180003025489,新規,0,2023-07-14,2023-07-14,合同会社マース,,合同会社,愛知県,あま市,新居屋鶴田１２２番地ロフティ七宝４０１号,,23,237,4901105,,,,,,,2023-07-14,1,,,,,マース,0
2473,9180301037566,新規,0,2023-07-14,2023-07-14,ＡＲＴＯＦｔｈｅＬＩＦＥ株式会社,,株式会社,愛知県,岡崎市,福岡町字上ハ畑５３番地,,23,202,4440825,,,,,,,2023-07-14,1,,,,,アートオブザライフ,0
2474,9180301037574,新規,0,2023-07-14,2023-07-14,株式会社ＣＯＭＲＡＤＥ,,株式会社,愛知県,岡崎市,城南町３丁目８番地１,,23,202,4440835,,,,,,,2023-07-14,1,,,,,カムラッド,0
2476,9180303005777,新規,0,2023-07-14,2023-07-14,合同会社ラフワークオオタ,,合同会社,愛知県,岡崎市,片寄町字細久後９番地１０,,23,202,4443616,,,,,,,2023-07-14,1,,,,,ラフワークオオタ,0
2481,9200001041502,新規,0,2023-07-14,2023-07-14,ＴＫプランニング株式会社,,株式会社,岐阜県,大垣市,大井１丁目２９番地５,,21,202,5030836,,,,,,,2023-07-14,1,,,,,ティケイプランニング,0
2484,9210003001668,新規,0,2023-07-14,2023-07-14,合同会社リュケイオン,,合同会社,福井県,坂井市,三国町汐見１丁目１番地１４,,18,210,9130027,,,,,,,2023-07-14,1,,,,,リュケイオン,0
2487,9240001061819,新規,0,2023-07-14,2023-07-14,株式会社ユーワセキュリティー,,株式会社,広島県,広島市安佐南区,緑井６丁目３５－１７,,34,105,7310103,,,,,,,2023-07-14,1,,,,,ユーワセキュリティー,0
2492,9260001038121,新規,0,2023-07-14,2023-07-14,株式会社ＫＡＲＩＷＡ,,株式会社,岡山県,岡山市北区,東古松４丁目４番１号アルバ鹿田町３０３号室,,33,101,7000921,,,,,,,2023-07-14,1,,,,,カリワ,0
2503,9290001102279,新規,0,2023-07-14,2023-07-14,株式会社実,,株式会社,福岡県,福岡市中央区,天神４丁目６番２８号天神ファーストビル７階,,40,133,8100001,,,,,,,2023-07-14,1,,,,,ミノレ,0
2504,9290001102295,新規,0,2023-07-14,2023-07-14,株式会社ＴＥＮＧＵ‐ＤＯ　ＦＡＲＭ,,株式会社,福岡県,糸島市,志摩野北１９７４番地２,,40,230,8191303,,,,,,,2023-07-14,1,,,,,テングドウファーム,0
2505,9290001102304,新規,0,2023-07-14,2023-07-14,株式会社Ｋ・Ｎ・Ｊ,,株式会社,福岡県,大野城市,川久保２丁目１番１５号,,40,219,8160905,,,,,,,2023-07-14,1,,,,,ケーエヌジェイ,0
2506,9290003014134,新規,0,2023-07-14,2023-07-14,合同会社ＡＢＣ,,合同会社,福岡県,福岡市博多区,須崎町１１番１３号ＬｅｙｌａＯｒｉｏｎ５０２号室,,40,132,8120028,,,,,,,2023-07-14,1,,,,,エービーシー,0
2508,9290801029696,新規,0,2023-07-14,2023-07-14,株式会社Ｋ＆Ｋホールディングス,,株式会社,福岡県,北九州市八幡西区,木屋瀬東１丁目５番１０号,,40,109,8071266,,,,,,,2023-07-14,1,,,,,ケイアンドケイホールディングス,0
2511,9300003001989,新規,0,2023-07-14,2023-07-14,合同会社ナガト,,合同会社,佐賀県,佐賀市,開成２丁目１０番９号,,41,201,8490934,,,,,,,2023-07-14,1,,,,,ナガト,0
2512,9300003001997,新規,0,2023-07-14,2023-07-14,合同会社ＫＡＲＥＮ,,合同会社,佐賀県,神埼市,千代田町境原２６３５番地２,,41,210,8420056,,,,,,,2023-07-14,1,,,,,カレン,0
2519,9330001031011,新規,0,2023-07-14,2023-07-14,株式会社レアーレ,,株式会社,熊本県,熊本市西区,池田１丁目３５番３－８０２号アーサー京町パークシティ,,43,103,8600082,,,,,,,2023-07-14,1,,,,,レアーレ,0
2526,9360001032287,新規,0,2023-07-14,2023-07-14,株式会社龍生造園,,株式会社,沖縄県,石垣市,字登野城５２３番地１５,,47,207,9070004,,,,,,,2023-07-14,1,,,,,リュウセイゾウエン,0
2533,9380003005512,新規,0,2023-07-14,2023-07-14,合同会社ＳＴＧ,,合同会社,福島県,いわき市,常磐湯本町宝海８７－１,,07,204,9728321,,,,,,,2023-07-14,1,,,,,エスティージー,0
2539,9400001016319,新規,0,2023-07-14,2023-07-14,株式会社フレサス,,株式会社,岩手県,盛岡市,大通１丁目９番５号シュプリームサンシャイン４０４,,03,201,0200022,,,,,,,2023-07-14,1,,,,,フレサス,0
2549,9430005014745,新規,0,2023-07-14,2023-07-14,一般社団法人さっぽろ福祉医療総合支援協会,,その他の設立登記法人,北海道,札幌市西区,発寒十七条３丁目４番２５号,,01,107,0630837,,,,,,,2023-07-14,1,,,,,サッポロフクシイリョウソウゴウシエンキョウカイ,0
2556,9470001019703,新規,0,2023-07-14,2023-07-14,株式会社誠翔工業,,株式会社,香川県,高松市,築地町４番地５－３０１,,37,201,7600061,,,,,,,2023-07-14,1,,,,,セイショウコウギョウ,0
2561,9490001010536,新規,0,2023-07-14,2023-07-14,株式会社ＦＣＳ,,株式会社,高知県,高知市,神田３２７－１０,,39,201,7808040,,,,,,,2023-07-14,1,,,,,エフシーエス,0
2562,9700150118430,新規,0,2023-07-14,2023-07-14,Ｓｈｅｎｚｈｅｎ　Ａｉｎｕｏｓｉ　Ｔｅｃｈｎｏｌｏｇｙ　Ｃｏ．Ｌｔｄ．,,外国会社等,,,,,,,,ＮＯ．１６　ｏｆ　Ｊｉｎｇｌａｏ　Ｆｉｒｓｔ　Ｒｏａｄ，Ｗａｎｆｅｎｇ　Ｃｏｍｍｕｎｉｔｙ，Ｚｈｏｎｇｘｉｎ　Ｒｏａｄ　ｏｆ　Ｓｈａｊｉｎｇ　Ｓｔｒｅｅｔ，Ｂａｏａｎ　Ｄｉｓｔｒｉｃｔ　Ｓｈｅｎｚｈｅｎ　Ｇｕａｎｇｄｏｎｇ　５１８１０４　ＣＮ,,,,,,2023-07-14,1,,,,,シェンジェンシアイヌオスーカージヨウシェンゴンスー,0
2563,9700150118439,新規,0,2023-07-14,2023-07-14,ｓｈｅｎｚｈｅｎｓｈｉｚｈｅｎｇｊｕｎｇｕａｎｇｄｉａｎｋｅｊｉｙｏｕｘｉａｎｇｏｎｇｓｉ,,外国会社等,,,,,,,,ＬＯＮＧ　ＨＵＡ　ＱＵ　ＦＵ　ＣＨＥＮＧ　ＪＩＥ　ＤＡＯ　ＸＩＮ　ＨＥ　ＳＨＥ　ＱＵ　ＱＩＡＮ　ＫＥＮＧ　ＬＵ　５２　ＨＡＯ　ＬＯＵ　ＦＡＮＧ　ＹＩ　３０１　ＳＨＥＮ　ＺＨＥＮ　ＳＨＩ　ＧＵＡＮＧ　ＤＯＮＧ　ＳＨＥＮＧ　５１８１１０ＣＮ,,,,,,2023-07-14,1,,,,,シェンジェンシジォンジュングァンディエンカージヨウシェンゴンスー,0
2564,9700150118447,新規,0,2023-07-14,2023-07-14,ＣＳ　Ｃａｂｌｅ　Ｃｏ，，Ｌｔｄ,,外国会社等,,,,,,,,Ｚｈｕｈａｉｓｈｉ　ｊｉｎｗａｎｑｕ　ｈｏｎｇｑｉｚｈｅｎ，ｌｉａｎｇａｎｇｇｏｎｇｙｅ　ｓｈｕａｎｇｌｉｎｐｉａｎｃｈａｎｇｆａｎｇ，１ｄｉ１ｌｏｕ、４ｌｏｕ、５ｌｏｕＡｑｕ、Ｃｈｉｎａ,,,,,,2023-07-14,1,,,,,シーエスケーブルカンパニーリミテッド,0
