sequenceNumber,corporateNumber,process,correct,updateDate,changeDate,name,nameImageId,kind,prefectureName,cityName,streetNumber,addressImageId,prefectureCode,cityCode,postCode,addressOutside,addressOutsideImageId,closeDate,closeCause,successorCorporateNumber,changeCause,assignmentDate,latest,enName,enPrefectureName,enCityName,enAddressOutside,furigana,hihyoji
60,1012801004202,登記記録の閉鎖等,0,2021-10-28,2021-10-22,株式会社ＴＯＵＫＥＮ,,株式会社,東京都,立川市,西砂町２丁目５１番地の２,,13,202,1900034,,,2021-10-22,清算の結了等,,,2015-10-05,1,,,,,,0
94,1030002008277,登記記録の閉鎖等,0,2021-10-28,2021-10-21,有限会社宝塚不動産,,有限会社,埼玉県,さいたま市岩槻区,太田２丁目５番１５号,,11,110,3390052,,,2021-10-21,清算の結了等,,,2015-10-05,1,,,,,,0
97,1030005014909,登記記録の閉鎖等,0,2021-10-28,2021-10-21,ＮＰＯ法人ｓａｋｕｒａ－ｉｒｏｄｏｒｉ＆ｃｏ．,,その他の設立登記法人,埼玉県,日高市,大字高萩２３０５番地２セザール武蔵高萩１０４号,,11,242,3501213,,,2021-10-21,清算の結了等,,,2015-10-05,1,,,,,サクライロドリアンドシーオードット,0
101,1040001063553,登記記録の閉鎖等,0,2021-10-28,2021-10-15,株式会社佐原青果市場,,株式会社,千葉県,香取市,佐原ロ２０９７番地２８,,12,236,2870001,,,2021-10-15,清算の結了等,,,2015-10-05,1,,,,,サワラセイカイチバ,0
112,1060001027119,登記記録の閉鎖等,0,2021-10-28,2021-10-22,株式会社ＡＣＴＩＶＥ・ＲＯＳＥ,,株式会社,栃木県,宇都宮市,陽東３丁目１３番１０号,,09,201,3210904,,,2021-10-22,清算の結了等,,,2015-10-05,1,,,,,アクティブローズ,0
117,1070002004231,登記記録の閉鎖等,0,2021-10-28,2021-10-27,萩原工業有限会社,,有限会社,群馬県,前橋市,横沢町４２５番地,,10,201,3710233,,,2021-10-27,清算の結了等,,,2015-10-05,1,,,,,ハギワラコウギョウ,0
148,1130001002394,登記記録の閉鎖等,0,2021-10-28,2021-10-26,株式会社アース電設,,株式会社,京都府,京都市上京区,中立売通油小路西入油橋詰町８９番地の８,,26,102,6020923,,,2021-10-26,清算の結了等,,,2015-10-05,1,,,,,アースデンセツ,0
156,1150001006105,登記記録の閉鎖等,0,2021-10-28,2021-10-27,ボヌールディブィオー株式会社,,株式会社,奈良県,大和郡山市,小泉町２３７７番地の１,,29,203,6391042,,,2021-10-27,清算の結了等,,,2015-10-05,1,,,,,,0
170,1200001027087,登記記録の閉鎖等,0,2021-10-28,2021-10-25,株式会社パートナー保険岐阜,,株式会社,岐阜県,土岐市,妻木町１５９８番地の４,,21,212,5095301,,,2021-10-25,清算の結了等,,,2015-10-05,1,,,,,パートナーホケンギフ,0
182,1250001017843,登記記録の閉鎖等,0,2021-10-28,2021-10-26,株式会社秋月工業,,株式会社,山口県,周南市,秋月１丁目２番２１号,,35,215,7450825,,,2021-10-26,清算の結了等,,,2019-08-09,1,,,,,アキヅキコウギョウ,0
183,1260001007034,登記記録の閉鎖等,0,2021-10-28,2021-10-27,株式会社リンク,,株式会社,岡山県,岡山市東区,藤井３３１番地の４,,33,103,7038213,,,2021-10-27,清算の結了等,,,2015-10-05,1,,,,,リンク,0
187,1290001040387,登記記録の閉鎖等,0,2021-10-28,2021-10-22,株式会社古池商事,,株式会社,福岡県,福岡市中央区,小笹５丁目４番１７－２０１号,,40,133,8100033,,,2021-10-22,清算の結了等,,,2015-10-05,1,,,,,,0
189,1290001064741,登記記録の閉鎖等,0,2021-10-28,2021-10-22,株式会社ＡＡＡ,,株式会社,福岡県,糟屋郡粕屋町,大字仲原２６２４－１,,40,349,8112304,,,2021-10-22,清算の結了等,,,2015-10-05,1,,,,,,0
190,1290001070962,登記記録の閉鎖等,0,2021-10-28,2021-10-21,株式会社ＢＬＵＥ　ＢＩＲＤ,,株式会社,福岡県,福岡市中央区,高砂１丁目２４番２６号,,40,133,8100011,,,2021-10-21,清算の結了等,,,2015-10-05,1,,,,,ブルーバード,0
218,1410001004726,登記記録の閉鎖等,0,2021-10-28,2021-10-27,株式会社アスカル,,株式会社,秋田県,由利本荘市,裏尾崎町２番地の２,,05,210,0150072,,,2021-10-27,清算の結了等,,,2015-10-05,1,,,,,,0
221,1430001036032,登記記録の閉鎖等,0,2021-10-28,2021-10-25,株式会社ライズ,,株式会社,北海道,札幌市厚別区,厚別東五条２丁目１番１０－１０８号,,01,108,0040005,,,2021-10-25,清算の結了等,,,2015-10-05,1,,,,,ライズ,0
237,1490002012084,登記記録の閉鎖等,0,2021-10-28,2021-10-27,有限会社阿部金物店,,有限会社,高知県,香南市,野市町西野５８６番地,,39,211,7815232,,,2021-10-27,清算の結了等,,,2015-10-05,1,,,,,アベカナモノテン,0
261,2010401050797,登記記録の閉鎖等,0,2021-10-28,2021-10-13,株式会社ソルフェリーノ,,株式会社,東京都,港区,南青山４丁目１８番１６号,,13,103,1070062,,,2021-10-13,清算の結了等,,,2015-10-05,1,,,,,ソルフェリーノ,0
262,2010401094943,登記記録の閉鎖等,0,2021-10-28,2021-10-15,株式会社ＭＯＪＩＴＯ,,株式会社,東京都,港区,東麻布１丁目１０番１１号,,13,103,1060044,,,2021-10-15,清算の結了等,,,2015-10-05,1,,,,,モヒート,0
265,2010401148575,登記記録の閉鎖等,0,2021-10-28,2021-10-13,ファーストプロモート株式会社,,株式会社,東京都,港区,麻布十番１丁目９番３号３Ｆ,,13,103,1060045,,,2021-10-13,清算の結了等,,,2019-10-25,1,,,,,ファーストプロモート,0
273,2010702009047,登記記録の閉鎖等,0,2021-10-28,2021-10-26,有限会社リファール,,有限会社,東京都,品川区,東大井５丁目２番１３号大井ビル５階,,13,109,1400011,,,2021-10-26,清算の結了等,,,2015-10-05,1,,,,,リファール,0
287,2011101043439,登記記録の閉鎖等,0,2021-10-28,2021-10-26,株式会社クオーレ,,株式会社,東京都,新宿区,矢来町２４番地３,,13,104,1620805,,,2021-10-26,清算の結了等,,,2015-10-05,1,,,,,クオーレ,0
299,2011601020631,登記記録の閉鎖等,0,2021-10-28,2021-10-25,株式会社ＬＫカンパニー,,株式会社,東京都,練馬区,高野台４丁目１５番１６－４０６号,,13,120,1770033,,,2021-10-25,清算の結了等,,,2016-01-20,1,,,,,エルケーカンパニー,0
300,2011701002141,登記記録の閉鎖等,0,2021-10-28,2021-10-13,カツデン株式会社,,株式会社,東京都,港区,高輪４丁目２３番４－８０３号,,13,103,1080074,,,2021-10-13,清算の結了等,,,2015-10-05,1,,,,,カツデン,0
303,2011803004077,登記記録の閉鎖等,0,2021-10-28,2021-10-26,合同会社ＣＲＡＹ　ＮＩＮＥ,,合同会社,東京都,葛飾区,東新小岩７丁目２３番６号,,13,122,1240023,,,2021-10-26,清算の結了等,,,2020-03-30,1,,,,,クレイナイン,0
349,2040003013571,登記記録の閉鎖等,0,2021-10-28,2021-10-21,合同会社メディアミックス,,合同会社,千葉県,柏市,高田１０７５番地１７,,12,217,2770861,,,2021-10-21,清算の結了等,,,2019-06-21,1,,,,,メディアミックス,0
371,2120001064699,登記記録の閉鎖等,0,2021-10-28,2021-10-26,株式会社シー・イー・エム椎原総合設計,,株式会社,大阪府,吹田市,朝日が丘町２番９号,,27,205,5640083,,,2021-10-26,清算の結了等,,,2015-10-05,1,,,,,シーイーエムシイハラソウゴウセッケイ,0
379,2120002010818,登記記録の閉鎖等,0,2021-10-28,2021-10-26,有限会社太田ビニール製作所,,有限会社,大阪府,大阪市平野区,加美南５丁目１１番９号,,27,126,5470003,,,2021-10-26,清算の結了等,,,2015-10-05,1,,,,,オオタビニールセイサクショ,0
380,2120002034180,登記記録の閉鎖等,0,2021-10-28,2021-10-27,有限会社井筒屋三吉,,有限会社,大阪府,大阪市中央区,心斎橋筋２丁目７番６号,,27,128,5420085,,,2021-10-27,清算の結了等,,,2015-10-05,1,,,,,,0
386,2120103000866,登記記録の閉鎖等,0,2021-10-28,2021-10-26,合同会社いこい,,合同会社,大阪府,堺市南区,庭代台４丁７番１４号,,27,145,5900133,,,2021-10-26,清算の結了等,,,2015-10-05,1,,,,,イコイ,0
392,2130001033257,登記記録の閉鎖等,0,2021-10-28,2021-10-26,ルモール株式会社,,株式会社,京都府,宇治市,五ケ庄西浦２０番地,,26,204,6110011,,,2021-10-26,清算の結了等,,,2015-10-05,1,,,,,ルモール,0
430,2200002023497,登記記録の閉鎖等,0,2021-10-28,2021-10-25,有限会社西井工作所,,有限会社,岐阜県,中津川市,手賀野２４３番地の３,,21,206,5080015,,,2021-10-25,清算の結了等,,,2015-10-05,1,,,,,ニシイコウサクショ,0
445,2290001034850,登記記録の閉鎖等,0,2021-10-28,2021-10-14,株式会社メイホーコーポレーション,,株式会社,福岡県,福岡市博多区,博多駅前４丁目３６番３２号,,40,132,8120011,,,2021-10-14,清算の結了等,,,2016-11-15,1,,,,,メイホーコーポレーション,0
449,2290002055053,登記記録の閉鎖等,0,2021-10-28,2021-10-20,有限会社兼行組,,有限会社,福岡県,大牟田市,中白川町１丁目９２番地,,40,202,8370927,,,2021-10-20,清算の結了等,,,2015-10-05,1,,,,,カネユキグミ,0
490,2450001009175,登記記録の閉鎖等,0,2021-10-28,2021-10-22,株式会社西村組,,株式会社,北海道,留萌郡小平町,字鬼鹿港町４番地の３２,,01,482,0783441,,,2021-10-22,清算の結了等,,,2015-10-05,1,,,,,ニシムラクミ,0
503,3010001125288,登記記録の閉鎖等,0,2021-10-28,2021-10-22,株式会社トランベール,,株式会社,東京都,中央区,日本橋人形町１丁目８番６号サカエビル３階,,13,102,1030013,,,2021-10-22,清算の結了等,,,2015-10-05,1,,,,,トランベール,0
506,3010001166027,登記記録の閉鎖等,0,2021-10-28,2021-10-25,株式会社アイエス,,株式会社,東京都,大田区,仲六郷３丁目４番１２号,,13,111,1440055,,,2021-10-25,清算の結了等,,,2015-10-05,1,,,,,アイエス,0
509,3010001203985,登記記録の閉鎖等,0,2021-10-28,2021-10-25,悠々楽株式会社,,株式会社,東京都,中央区,日本橋兜町１７番１号日本橋ロイヤルプラザ７０６,,13,102,1030026,,,2021-10-25,清算の結了等,,,2019-09-19,1,,,,,ユウユウラク,0
567,3011302002572,登記記録の閉鎖等,0,2021-10-28,2021-10-26,有限会社亀さん企画,,有限会社,東京都,杉並区,今川４丁目２２番１４号,,13,115,1670035,,,2021-10-26,清算の結了等,,,2015-10-05,1,,,,,カメサンキカク,0
571,3011401022554,登記記録の閉鎖等,0,2021-10-28,2021-10-26,株式会社電球ゲームズ,,株式会社,東京都,板橋区,舟渡２丁目３４番３－４１１号,,13,119,1740041,,,2021-10-26,清算の結了等,,,2020-05-12,1,,,,,デンキュウゲームズ,0
583,3011801034199,登記記録の閉鎖等,0,2021-10-28,2021-10-27,株式会社盛和商事,,株式会社,東京都,足立区,東保木間２丁目４番１２－６０７号,,13,121,1210063,,,2021-10-27,清算の結了等,,,2017-12-28,1,,,,,セイワショウジ,0
594,3013301033103,登記記録の閉鎖等,0,2021-10-28,2021-10-27,義琳株式会社,,株式会社,東京都,足立区,東伊興１丁目９番８号,,13,121,1210801,,,2021-10-27,清算の結了等,,,2015-10-05,1,,,,,ギリン,0
598,3020001013244,登記記録の閉鎖等,0,2021-10-28,2021-10-25,株式会社タイセー,,株式会社,神奈川県,横浜市南区,中村町２丁目１２４,,14,105,2320033,,,2021-10-25,清算の結了等,,,2015-10-05,1,,,,,タイセー,0
605,3020002007484,登記記録の閉鎖等,0,2021-10-28,2021-10-26,有限会社あさなぎ,,有限会社,神奈川県,横浜市金沢区,乙舳町１３番１７号,,14,108,2360024,,,2021-10-26,清算の結了等,,,2015-10-05,1,,,,,アサナギ,0
616,3030002078698,登記記録の閉鎖等,0,2021-10-28,2021-10-21,有限会社アクセスプラス,,有限会社,埼玉県,川越市,大字木野目１９３６番地２２,,11,201,3500016,,,2021-10-21,清算の結了等,,,2015-10-05,1,,,,,アクセスプラス,0
619,3030003012739,登記記録の閉鎖等,0,2021-10-28,2021-10-21,Ｈａｎｄ’ｓ合同会社,,合同会社,埼玉県,入間市,大字仏子３４１番地２,,11,225,3580053,,,2021-10-21,清算の結了等,,,2018-11-30,1,,,,,ハンズ,0
656,3100002025263,登記記録の閉鎖等,0,2021-10-28,2021-10-26,有限会社丸大大和工業所,,有限会社,長野県,塩尻市,大字宗賀桔梗ケ原７１番地１００,,20,215,3996461,,,2021-10-26,清算の結了等,,,2015-10-05,1,,,,,マルダイオオワコウギョウショ,0
665,3120002077682,登記記録の閉鎖等,0,2021-10-28,2021-10-25,有限会社大弘住建,,有限会社,大阪府,枚方市,香里ケ丘８丁目２４番の１９,,27,210,5730084,,,2021-10-25,清算の結了等,,,2015-10-05,1,,,,,ダイコウジュウケン,0
666,3120002080629,登記記録の閉鎖等,0,2021-10-28,2021-10-27,中村紙工有限会社,,有限会社,大阪府,守口市,東郷通２丁目９番３２号,,27,209,5700041,,,2021-10-27,清算の結了等,,,2015-10-05,1,,,,,,0
669,3120005020895,登記記録の閉鎖等,0,2021-10-28,2021-10-15,特定非営利活動法人志塾フリースクール明星,,その他の設立登記法人,大阪府,交野市,南星台３丁目１３番１２号,,27,230,5760013,,,2021-10-15,清算の結了等,,,2019-05-15,1,,,,,シジュクフリースクールミョウジョウ,0
686,3160005001198,登記記録の閉鎖等,0,2021-10-28,2021-10-27,大道教近江教会,,その他の設立登記法人,滋賀県,大津市,下阪本６丁目２０番７号,,25,201,5200105,,,2021-10-27,清算の結了等,,,2015-10-05,1,,,,,ダイドウキョウオクミキョウカイ,0
701,3180002089557,登記記録の閉鎖等,0,2021-10-28,2021-10-25,有限会社アイホー設備,,有限会社,愛知県,弥富市,神戸１丁目１２８番地,,23,235,4901405,,,2021-10-25,清算の結了等,,,2015-10-05,1,,,,,アイホーセツビ,0
713,3210002011533,登記記録の閉鎖等,0,2021-10-28,2021-10-22,有限会社エヌ開発,,有限会社,福井県,越前市,府中１丁目１２番５号,,18,209,9150071,,,2021-10-22,合併による解散等,4210001011500,令和３年１０月２２日福井県越前市堀川町１１番４号株式会社大江戸（4210001011500）に合併し解散,2015-10-05,1,,,,,エヌカイハツ,0
728,3290001070399,登記記録の閉鎖等,0,2021-10-28,2021-10-22,株式会社プログレ,,株式会社,福岡県,福岡市博多区,綱場町６番９号,,40,132,8120024,,,2021-10-22,清算の結了等,,,2015-10-05,1,,,,,プログレ,0
729,3290002004744,登記記録の閉鎖等,0,2021-10-28,2021-10-25,有限会社形図ワーク,,有限会社,福岡県,福岡市東区,松島４丁目６番３０号,,40,131,8130062,,,2021-10-25,清算の結了等,,,2015-10-05,1,,,,,ケイズワーク,0
771,3450001008928,登記記録の閉鎖等,0,2021-10-28,2021-10-22,株式会社ダイマル,,株式会社,北海道,留萌市,東雲町１丁目３０番地,,01,212,0770011,,,2021-10-22,清算の結了等,,,2015-10-05,1,,,,,ダイマル,0
798,4010401120425,登記記録の閉鎖等,0,2021-10-28,2021-10-22,Ｐｏｒｃｅｌａｉｎ　Ｄｅｓｉｇｎ　Ｔｏｋｙｏ株式会社,,株式会社,東京都,千代田区,有楽町１丁目７番１号有楽町電気ビル南館,,13,101,1000006,,,2021-10-22,清算の結了等,,,2015-10-05,1,,,,,ポーセリンデザイントウキョウ,0
812,4010801026602,登記記録の閉鎖等,0,2021-10-28,2021-10-25,株式会社ミライト,,株式会社,東京都,大田区,西蒲田８丁目２４番１号,,13,111,1440051,,,2021-10-25,清算の結了等,,,2016-04-15,1,,,,,ミライト,0
827,4011102018058,登記記録の閉鎖等,0,2021-10-28,2021-10-20,有限会社宗徳,,有限会社,東京都,新宿区,信濃町３４番地トーシン信濃町駅前ビル１階,,13,104,1600016,,,2021-10-20,清算の結了等,,,2015-10-05,1,,,,,ソウトク,0
840,4011801038067,登記記録の閉鎖等,0,2021-10-28,2021-10-26,株式会社ＯＳＡＲＵ,,株式会社,東京都,足立区,千住旭町３８番１号,,13,121,1200026,,,2021-10-26,清算の結了等,,,2020-09-04,1,,,,,オサル,0
863,4020002023712,登記記録の閉鎖等,0,2021-10-28,2021-10-25,有限会社サクラホーム,,有限会社,神奈川県,横浜市保土ケ谷区,帷子町２丁目１０４番地保土ヶ谷原ビル１階,,14,106,2400013,,,2021-10-25,清算の結了等,,,2015-10-05,1,,,,,サクラホーム,0
884,4030002100493,登記記録の閉鎖等,0,2021-10-28,2021-10-21,有限会社板橋三京社,,有限会社,埼玉県,川口市,東領家４丁目１６番２２号,,11,203,3320003,,,2021-10-21,清算の結了等,,,2015-10-05,1,,,,,,0
903,4060002000807,登記記録の閉鎖等,0,2021-10-28,2021-10-22,有限会社あざみ工芸社,,有限会社,栃木県,宇都宮市,駒生１丁目１７番３６号,,09,201,3200066,,,2021-10-22,清算の結了等,,,2015-10-05,1,,,,,アザミコウゲイシャ,0
910,4070003003700,登記記録の閉鎖等,0,2021-10-28,2021-10-26,合同会社ｅｓｓｅｎｃｅｃａｒ,,合同会社,群馬県,伊勢崎市,東小保方町３９０４番地２,,10,204,3792234,,,2021-10-26,清算の結了等,,,2020-03-05,1,,,,,エッセンスカー,0
923,4100005011045,登記記録の閉鎖等,0,2021-10-28,2021-10-25,一般社団法人松本青年の家,,その他の設立登記法人,長野県,松本市,大字島内８８８０番地,,20,202,3900851,,,2021-10-25,清算の結了等,,,2015-10-05,1,,,,,マツモトセイネンノイエ,0
927,4120001080736,登記記録の閉鎖等,0,2021-10-28,2021-10-27,株式会社シーイーシーセントラル,,株式会社,大阪府,大阪市中央区,瓦町３丁目２番１６号,,27,128,5410048,,,2021-10-27,清算の結了等,,,2015-10-05,1,,,,,,0
957,4160001015663,登記記録の閉鎖等,0,2021-10-28,2021-10-25,株式会社苗村組,,株式会社,滋賀県,野洲市,三上１９３７番地の１９,,25,210,5202323,,,2021-10-25,清算の結了等,,,2015-10-05,1,,,,,ナエムラグミ,0
961,4180001127787,登記記録の閉鎖等,0,2021-10-28,2021-10-25,ＭＡＸ株式会社,,株式会社,愛知県,名古屋市港区,善進本町２８０,,23,111,4550813,,,2021-10-25,清算の結了等,,,2017-05-15,1,,,,,マックス,0
993,4320001008592,登記記録の閉鎖等,0,2021-10-28,2021-10-26,株式会社ホープ,,株式会社,大分県,大分市,三川下１丁目６番２６号,,44,201,8700142,,,2021-10-26,合併による解散等,5320002009003,令和３年１０月２２日大分市高松一丁目４番７号株式会社ヒカリ企画（5320002009003）に合併し解散,2015-10-05,1,,,,,ホープ,0
1022,4500001008368,登記記録の閉鎖等,0,2021-10-28,2021-10-25,鶴島興産株式会社,,株式会社,愛媛県,八幡浜市,古町２丁目２番２７号,,38,204,7968003,,,2021-10-25,清算の結了等,,,2015-10-05,1,,,,,ツルシマコウサン,0
1030,5010002007525,登記記録の閉鎖等,0,2021-10-28,2021-10-25,有限会社イムノ・バイオ・ジャパン,,有限会社,東京都,千代田区,岩本町３丁目１１番８号,,13,101,1010032,,,2021-10-25,清算の結了等,,,2015-10-05,1,,,,,イムノバイオジャパン,0
1046,5010403017057,登記記録の閉鎖等,0,2021-10-28,2021-10-14,合同会社ナーサリーコンサルティング,,合同会社,東京都,港区,浜松町２丁目２番１５号,,13,103,1050013,,,2021-10-14,清算の結了等,,,2017-08-17,1,,,,,ナーサリーコンサルティング,0
1053,5010602005168,登記記録の閉鎖等,0,2021-10-28,2021-10-15,有限会社テイーアイスタッフ,,有限会社,東京都,江東区,枝川１丁目１１番１７号,,13,108,1350051,,,2021-10-15,清算の結了等,,,2015-10-05,1,,,,,ティーアイスタッフ,0
1065,5011001129161,登記記録の閉鎖等,0,2021-10-28,2021-10-12,株式会社シアンプロジェクト,,株式会社,東京都,渋谷区,渋谷３丁目１番９号ＹＡＺＡＷＡビル３階,,13,113,1500002,,,2021-10-12,清算の結了等,,,2019-07-24,1,,,,,シアンプロジェクト,0
1106,5021002013933,登記記録の閉鎖等,0,2021-10-28,2021-10-25,有限会社淡路酒店,,有限会社,神奈川県,鎌倉市,台４丁目４番１９号,,14,204,2470061,,,2021-10-25,清算の結了等,,,2015-10-05,1,,,,,アワジサケテン,0
1115,5030002044178,登記記録の閉鎖等,0,2021-10-28,2021-10-21,有限会社斉藤造園工事,,有限会社,埼玉県,草加市,柿木町４５２番地１,,11,221,3400001,,,2021-10-21,清算の結了等,,,2015-10-05,1,,,,,サイトウゾウエンコウジ,0
1123,5040001116332,登記記録の閉鎖等,0,2021-10-28,2021-10-21,株式会社アデナ国際,,株式会社,千葉県,千葉市若葉区,原町９０８番地１４コートビレッジＤ２０１号,,12,104,2640034,,,2021-10-21,清算の結了等,,,2020-12-16,1,,,,,アデナコクサイ,0
1128,5040002101275,登記記録の閉鎖等,0,2021-10-28,2021-10-21,有限会社パシフィックジャパン,,有限会社,千葉県,南房総市,千倉町大川１０５１番地,,12,234,2950026,,,2021-10-21,清算の結了等,,,2015-10-05,1,,,,,パシフィックジャパン,0
1150,5080102014811,登記記録の閉鎖等,0,2021-10-28,2021-10-19,福島産業有限会社,,有限会社,静岡県,富士市,今泉２６５７番地の４５,,22,210,4170001,,,2021-10-19,清算の結了等,,,2015-10-05,1,,,,,フクシマサンギョウ,0
1156,5100001005644,登記記録の閉鎖等,0,2021-10-28,2021-10-26,千曲建設株式会社,,株式会社,長野県,須坂市,大字米持１８０番地の１,,20,207,3820000,,,2021-10-26,清算の結了等,,,2015-10-05,1,,,,,チクマケンセツ,0
1179,5120101056057,登記記録の閉鎖等,0,2021-10-28,2021-10-27,株式会社吉野,00109225,株式会社,大阪府,大阪市中央区,内平野町１丁目１番５号西大手ビル２０５号,,27,128,5400037,,,2021-10-27,清算の結了等,,,2017-02-10,1,,,,,,0
1197,5180001115642,登記記録の閉鎖等,0,2021-10-28,2021-10-25,カメラのアマノ株式会社,,株式会社,愛知県,名古屋市東区,葵１丁目３番１５号,,23,102,4610004,,,2021-10-25,清算の結了等,,,2015-10-05,1,,,,,カメラノアマノ,0
1220,5250001002692,登記記録の閉鎖等,0,2021-10-28,2021-10-25,株式会社下関コミュニティスポーツ,,株式会社,山口県,山口市,赤妻町３番１７号,,35,203,7530067,,,2021-10-25,清算の結了等,,,2015-10-05,1,,,,,シモノセキコミュニティスポーツ,0
1236,5290002045489,登記記録の閉鎖等,0,2021-10-28,2021-10-20,有限会社光和産業,,有限会社,福岡県,飯塚市,片島３丁目５番２５号,,40,205,8200068,,,2021-10-20,清算の結了等,,,2015-10-05,1,,,,,コウワサンギョウ,0
1241,5310003001629,登記記録の閉鎖等,0,2021-10-28,2021-10-25,合資会社藤木家具店,,合資会社,長崎県,諫早市,本町２番１号,,42,204,8540012,,,2021-10-25,清算の結了等,,,2015-10-05,1,,,,,フジキカグテン,0
1262,5450005002289,登記記録の閉鎖等,0,2021-10-28,2021-10-27,特定非営利活動法人アイ・グループ,,その他の設立登記法人,北海道,旭川市,永山三条３丁目８４番地１,,01,204,0798413,,,2021-10-27,清算の結了等,,,2015-10-05,1,,,,,アイグループ,0
1343,6013201016948,登記記録の閉鎖等,0,2021-10-28,2021-10-26,株式会社シストレ総研,,株式会社,東京都,品川区,西五反田８丁目９番５号,,13,109,1410031,,,2021-10-26,清算の結了等,,,2015-10-05,1,,,,,シストレソウケン,0
1374,6030001137881,登記記録の閉鎖等,0,2021-10-28,2021-10-21,株式会社ビバモール,,株式会社,埼玉県,さいたま市浦和区,上木崎１丁目１３番１号,,11,107,3300071,,,2021-10-21,清算の結了等,,,2020-08-19,1,,,,,ビバモール,0
1386,6030005006141,登記記録の閉鎖等,0,2021-10-28,2021-10-20,特定非営利活動法人プラスアルファテニスカレッジ,,その他の設立登記法人,埼玉県,八潮市,八潮７丁目１１番地１４,,11,234,3400815,,,2021-10-20,清算の結了等,,,2015-10-05,1,,,,,プラスアルファテニスカレッジ,0
1389,6040001056222,登記記録の閉鎖等,0,2021-10-28,2021-10-21,リソシア株式会社,,株式会社,千葉県,市原市,惣社３丁目３番地９レーベン２０１,,12,219,2900023,,,2021-10-21,清算の結了等,,,2015-10-05,1,,,,,リソシア,0
1393,6040002074883,登記記録の閉鎖等,0,2021-10-28,2021-10-21,有限会社平山商事,,有限会社,千葉県,市原市,ちはら台西２丁目４番地１,,12,219,2900143,,,2021-10-21,清算の結了等,,,2015-10-05,1,,,,,ヒラヤマショウジ,0
1394,6040002091128,登記記録の閉鎖等,0,2021-10-28,2021-10-19,有限会社袴塚電気工事,,有限会社,千葉県,柏市,旭町６丁目３番２４号,,12,217,2770852,,,2021-10-19,清算の結了等,,,2015-10-05,1,,,,,ハカマヅカデンキコウジ,0
1409,6070002009003,登記記録の閉鎖等,0,2021-10-28,2021-10-26,有限会社エヌ・ティー・エイチ,,有限会社,群馬県,高崎市,矢中町１４１８番１０,,10,202,3701203,,,2021-10-26,清算の結了等,,,2015-10-05,1,,,,,エヌティーエイチ,0
1415,6080401022299,登記記録の閉鎖等,0,2021-10-28,2021-10-27,株式会社Ｐｒｏｆ．Ｎｅｗ－ｌｅＡｖｅ’ｓ,,株式会社,静岡県,浜松市中区,西伊場町１８番２号、１０２,,22,131,4328038,,,2021-10-27,清算の結了等,,,2017-07-05,1,,,,,,0
1422,6110001020055,登記記録の閉鎖等,0,2021-10-28,2021-10-26,株式会社アクイル,,株式会社,新潟県,新潟市中央区,学校町通１番町１２番地市役所前ビル４階,,15,103,9518126,,,2021-10-26,清算の結了等,,,2015-10-05,1,,,,,,0
1481,6190002014552,登記記録の閉鎖等,0,2021-10-28,2021-10-21,有限会社宮下軌道建設,,有限会社,三重県,松阪市,上川町３２９０番地,,24,204,5150041,,,2021-10-21,清算の結了等,,,2015-10-05,1,,,,,ミヤシタキドウケンセツ,0
1485,6220001017239,登記記録の閉鎖等,0,2021-10-28,2021-10-26,株式会社北陸労金サービス,,株式会社,石川県,金沢市,芳斉２丁目１５番１８号,,17,201,9200862,,,2021-10-26,清算の結了等,,,2015-10-05,1,,,,,ホクリクロウキンサービス,0
1486,6240001001604,登記記録の閉鎖等,0,2021-10-28,2021-10-26,大上青果株式会社,,株式会社,広島県,広島市安芸区,船越南５丁目１番１号,,34,107,7360082,,,2021-10-26,清算の結了等,,,2015-10-05,1,,,,,オオカミセイカ,0
1494,6290001023783,登記記録の閉鎖等,0,2021-10-28,2021-10-22,株式会社アーリー・ビリーバーズ・カンパニー,,株式会社,福岡県,福岡市中央区,天神３丁目５番１９号,,40,133,8100001,,,2021-10-22,清算の結了等,,,2015-10-05,1,,,,,アーリービリーバーズカンパニー,0
1504,6290001086541,登記記録の閉鎖等,0,2021-10-28,2021-10-22,ＨＯＳＨＩＮＯ株式会社,,株式会社,福岡県,春日市,下白水北５丁目１５３番地サンビレッジ春日Ｄ－１０１号,,40,218,8160854,,,2021-10-22,清算の結了等,,,2019-09-20,1,,,,,ホシノ,0
1510,6290002026447,登記記録の閉鎖等,0,2021-10-28,2021-10-21,有限会社皇理,,有限会社,福岡県,福岡市中央区,荒戸２丁目２番１１号,,40,133,8100062,,,2021-10-21,清算の結了等,,,2015-10-05,1,,,,,コウリ,0
1537,6390002000763,登記記録の閉鎖等,0,2021-10-28,2021-10-25,有限会社勘兵衛,,有限会社,山形県,山形市,南二番町１１番６号,,06,201,9902442,,,2021-10-25,清算の結了等,,,2015-10-05,1,,,,,カンベエ,0
1551,6470001002182,登記記録の閉鎖等,0,2021-10-28,2021-10-26,株式会社アッシュ,,株式会社,香川県,高松市,木太町４８８番地２０,,37,201,7600080,,,2021-10-26,清算の結了等,,,2015-10-05,1,,,,,アッシュ,0
1571,7010001167962,登記記録の閉鎖等,0,2021-10-28,2021-10-21,株式会社協和コンサルタント,,株式会社,東京都,豊島区,巣鴨３丁目１９番１号,,13,116,1700002,,,2021-10-21,清算の結了等,,,2015-10-05,1,,,,,キョウワコンサルタント,0
1579,7010003021597,登記記録の閉鎖等,0,2021-10-28,2021-10-26,時事通信ビル合同会社,,合同会社,東京都,千代田区,丸の内３丁目１番１号東京共同会計事務所内,,13,101,1000005,,,2021-10-26,清算の結了等,,,2015-10-05,1,,,,,ジジツウシンビル,0
1591,7010701021064,登記記録の閉鎖等,0,2021-10-28,2021-10-13,株式会社学研ココファンホールディングス,,株式会社,東京都,品川区,西五反田２丁目１１番８号,,13,109,1410031,,,2021-10-13,合併による解散等,3010701020722,令和３年１０月１日東京都品川区西五反田二丁目１１番８号株式会社学研ココファン（3010701020722）に合併し解散,2015-10-05,1,,,,,ガッケンココファンホールディングス,0
1612,7011403001123,登記記録の閉鎖等,0,2021-10-28,2021-10-25,ジャコバ合同会社,,合同会社,東京都,板橋区,氷川町４４－４昌英ビル２Ｆ,,13,119,1730013,,,2021-10-25,清算の結了等,,,2015-10-05,1,,,,,,0
1630,7012801002183,登記記録の閉鎖等,0,2021-10-28,2021-10-22,昭栄電設工業株式会社,,株式会社,東京都,昭島市,緑町４丁目７番９号,,13,207,1960004,,,2021-10-22,清算の結了等,,,2015-10-05,1,,,,,,0
1642,7020002045588,登記記録の閉鎖等,0,2021-10-28,2021-10-21,有限会社八木下製作所,,有限会社,神奈川県,横浜市中区,上野町１丁目１７番地,,14,104,2310842,,,2021-10-21,清算の結了等,,,2015-10-05,1,,,,,,0
1643,7020002062427,登記記録の閉鎖等,0,2021-10-28,2021-10-26,有限会社ワイ・ティー・ケー,,有限会社,神奈川県,横浜市保土ケ谷区,新桜ケ丘２丁目２０番６号,,14,106,2400036,,,2021-10-26,清算の結了等,,,2015-10-05,1,,,,,ワイティーケー,0
1644,7020002074777,登記記録の閉鎖等,0,2021-10-28,2021-10-26,有限会社丹頂グループ,,有限会社,神奈川県,横浜市戸塚区,小雀町１２２２番地,,14,110,2440004,,,2021-10-26,清算の結了等,,,2015-10-05,1,,,,,タンチョウグループ,0
1650,7021002033574,登記記録の閉鎖等,0,2021-10-28,2021-10-25,有限会社山本製作所,,有限会社,神奈川県,厚木市,上依知１３８１番地,,14,212,2430801,,,2021-10-25,清算の結了等,,,2015-10-05,1,,,,,ヤマモトセイサクショ,0
1657,7030002060784,登記記録の閉鎖等,0,2021-10-28,2021-10-20,有限会社エーワ商会,,有限会社,埼玉県,三郷市,インター南２丁目３－４,,11,237,3410059,,,2021-10-20,清算の結了等,,,2015-10-05,1,,,,,エーワショウカイ,0
1676,7060001032880,登記記録の閉鎖等,0,2021-10-28,2021-10-22,株式会社愛のセロ弾き,,株式会社,栃木県,佐野市,高砂町２８６１番地１リオネット２Ｆ,,09,204,3270022,,,2021-10-22,清算の結了等,,,2020-08-19,1,,,,,アイノセロヒキ,0
1683,7080402007785,登記記録の閉鎖等,0,2021-10-28,2021-10-26,有限会社丸高商店,,有限会社,静岡県,浜松市中区,高林５丁目３番２６号,,22,131,4300907,,,2021-10-26,清算の結了等,,,2015-10-05,1,,,,,マルタカショウテン,0
1689,7100005011521,登記記録の閉鎖等,0,2021-10-28,2021-10-27,特定非営利活動法人信州からだのき・ほ・ん楽習会,,その他の設立登記法人,長野県,長野市,戸隠豊岡７８１番地１,,20,201,3814102,,,2021-10-27,清算の結了等,,,2015-10-05,1,,,,,シンシュウカダラノキホンガクシュウカイ,0
1692,7120001043335,登記記録の閉鎖等,0,2021-10-28,2021-10-27,株式会社コミニケ,,株式会社,大阪府,大阪市西区,立売堀１丁目１４番２０号,,27,106,5500012,,,2021-10-27,清算の結了等,,,2015-10-05,1,,,,,,0
1693,7120001056799,登記記録の閉鎖等,0,2021-10-28,2021-10-27,一美建設工業株式会社,,株式会社,大阪府,大阪市淀川区,塚本４丁目１２番８号,,27,123,5320026,,,2021-10-27,清算の結了等,,,2015-10-05,1,,,,,ヒトミケンセツコウギョウ,0
1713,7130001049216,登記記録の閉鎖等,0,2021-10-28,2021-10-25,株式会社中川保温,,株式会社,京都府,舞鶴市,清美が丘４番地４,,26,202,6240901,,,2021-10-25,清算の結了等,,,2015-10-05,1,,,,,ナカガワホオン,0
1725,7140001097643,登記記録の閉鎖等,0,2021-10-28,2021-10-25,ＴＤインベストメント株式会社,,株式会社,兵庫県,神戸市中央区,小野柄通７丁目１番１号,,28,110,6510088,,,2021-10-25,合併による解散等,8140001028201,令和３年９月３０日東京都渋谷区道玄坂一丁目２１番１号株式会社トリドールホールディングス（8140001028201）に合併し解散,2015-10-05,1,,,,,ティーディーインベストメント,0
1747,7180002080710,登記記録の閉鎖等,0,2021-10-28,2021-10-26,杉山プラスチック有限会社,,有限会社,愛知県,稲沢市,祖父江町祖父江柳原３２０番地の１,,23,220,4950001,,,2021-10-26,清算の結了等,,,2015-10-05,1,,,,,スギヤマプラスチック,0
1777,7290003009012,登記記録の閉鎖等,0,2021-10-28,2021-10-19,ＨＳホームズ合同会社,,合同会社,福岡県,久留米市,田主丸町田主丸２６６番地１,,40,203,8391233,,,2021-10-19,清算の結了等,,,2019-05-17,1,,,,,エイチエスホームズ,0
1784,7310001009804,登記記録の閉鎖等,0,2021-10-28,2021-10-27,株式会社丸畑,,株式会社,長崎県,南島原市,口之津町甲１６５６番地,,42,214,8592502,,,2021-10-27,清算の結了等,,,2015-10-05,1,,,,,マルハタ,0
1785,7310002010819,登記記録の閉鎖等,0,2021-10-28,2021-10-27,中央製袋有限会社,,有限会社,長崎県,佐世保市,瀬戸越３丁目１８番５号,,42,202,8570134,,,2021-10-27,清算の結了等,,,2015-10-05,1,,,,,チュウオウセイタイ,0
1791,7330002015080,登記記録の閉鎖等,0,2021-10-28,2021-10-25,有限会社あっぷる,,有限会社,熊本県,熊本市西区,城山半田町９０７番地,,43,103,8610000,,,2021-10-25,清算の結了等,,,2015-10-05,1,,,,,アップル,0
1819,8010001022191,登記記録の閉鎖等,0,2021-10-28,2021-10-25,株式会社タカハシ,,株式会社,東京都,千代田区,神田佐久間町４丁目１９番地ザ・パークワンズ千代田佐久間町１００１号,,13,101,1010025,,,2021-10-25,清算の結了等,,,2015-10-05,1,,,,,タカハシ,0
1820,8010001049862,登記記録の閉鎖等,0,2021-10-28,2021-10-14,ダイヤフレッシュフーズ株式会社,,株式会社,東京都,港区,虎ノ門３丁目１８番２１号,,13,103,1050001,,,2021-10-14,清算の結了等,,,2015-10-05,1,,,,,,0
1823,8010001168299,登記記録の閉鎖等,0,2021-10-28,2021-10-13,株式会社グレスアベイル,,株式会社,東京都,港区,赤坂３丁目１番２号,,13,103,1070052,,,2021-10-13,合併による解散等,7010001139350,令和３年１０月１日東京都港区虎ノ門一丁目２番８号ＥＧセキュアソリューションズ株式会社（7010001139350）に合併し解散,2015-10-05,1,,,,,グレスアベイル,0
1828,8010003030639,登記記録の閉鎖等,0,2021-10-28,2021-10-26,新富町ホテル合同会社,,合同会社,東京都,千代田区,内神田２丁目２番６号５階あすな会計事務所内,,13,101,1010047,,,2021-10-26,清算の結了等,,,2019-09-19,1,,,,,シントミチョウホテル,0
1832,8010005026965,登記記録の閉鎖等,0,2021-10-28,2021-10-13,センザイ特定目的会社,,その他の設立登記法人,東京都,渋谷区,広尾１丁目１１番２号嶋本公認会計士事務所気付,,13,113,1500012,,,2021-10-13,清算の結了等,,,2017-06-12,1,,,,,センザイ,0
1833,8010005029472,登記記録の閉鎖等,0,2021-10-28,2021-10-14,ＥＳＲ２１特定目的会社,,その他の設立登記法人,東京都,港区,六本木１丁目６番１号泉ガーデンタワー,,13,103,1060032,,,2021-10-14,清算の結了等,,,2018-12-12,1,,,,,イーエスアールニジュウイチ,0
1849,8010901006772,登記記録の閉鎖等,0,2021-10-28,2021-10-26,ダイコク興業株式会社,,株式会社,東京都,世田谷区,成城６丁目４番１７号,,13,112,1570066,,,2021-10-26,清算の結了等,,,2015-10-05,1,,,,,ダイコクコウギョウ,0
1850,8011001038723,登記記録の閉鎖等,0,2021-10-28,2021-10-11,株式会社藤田データデザイン研究所,,株式会社,東京都,渋谷区,恵比寿南２丁目２８番１号,,13,113,1500022,,,2021-10-11,清算の結了等,,,2015-10-05,1,,,,,フジタデータデザインケンキュウジョ,0
1856,8011002011869,登記記録の閉鎖等,0,2021-10-28,2021-10-11,有限会社ドエル・オオトモ,,有限会社,東京都,渋谷区,渋谷２丁目６番６号,,13,113,1500002,,,2021-10-11,清算の結了等,,,2015-10-05,1,,,,,ドエルオオトモ,0
1863,8011101088445,登記記録の閉鎖等,0,2021-10-28,2021-10-22,ＧＤＰ株式会社,,株式会社,東京都,新宿区,西新宿１丁目１番６－５０２号,,13,104,1600023,,,2021-10-22,清算の結了等,,,2019-08-01,1,,,,,ジーディーピー,0
1896,8020001089239,登記記録の閉鎖等,0,2021-10-28,2021-10-26,株式会社葛西空調設備,00009884,株式会社,神奈川県,横浜市戸塚区,上矢部町５４４番地６,,14,110,2450053,,,2021-10-26,清算の結了等,,,2015-10-05,1,,,,,カサイクウチョウセツビ,0
1913,8021001049216,登記記録の閉鎖等,0,2021-10-28,2021-10-26,株式会社ＷａｉＷａｉＴ．Ｌｏｄｇｅ,,株式会社,神奈川県,横須賀市,衣笠栄町１丁目３９番地ウエストパーク３０３,,14,201,2380031,,,2021-10-26,清算の結了等,,,2015-10-05,1,,,,,,0
1916,8021002053745,登記記録の閉鎖等,0,2021-10-28,2021-10-25,有限会社トクミ,,有限会社,神奈川県,小田原市,寿町４丁目１４番２６号,,14,206,2500002,,,2021-10-25,清算の結了等,,,2015-10-05,1,,,,,トクミ,0
1929,8030002002042,登記記録の閉鎖等,0,2021-10-28,2021-10-22,有限会社遠藤酒店,,有限会社,埼玉県,さいたま市浦和区,前地２丁目９番１１号,,11,107,3300053,,,2021-10-22,清算の結了等,,,2015-10-05,1,,,,,エンドウサケテン,0
1944,8040005014455,登記記録の閉鎖等,0,2021-10-28,2021-10-22,特定非営利活動法人和魂,,その他の設立登記法人,千葉県,柏市,明原１丁目９番１３号,,12,217,2770843,,,2021-10-22,清算の結了等,,,2015-10-05,1,,,,,ワゴコロ,0
1945,8050001006117,登記記録の閉鎖等,0,2021-10-28,2021-10-25,株式会社ビーイーティ,,株式会社,茨城県,那珂市,菅谷４４５７番地の２５,,08,226,3110105,,,2021-10-25,清算の結了等,,,2015-10-05,1,,,,,ビーイーティ,0
1959,8080002009157,登記記録の閉鎖等,0,2021-10-28,2021-10-27,有限会社石田製罐鉄工所,,有限会社,静岡県,静岡市清水区,清水村松地先新田２７番地の５,,22,103,4240925,,,2021-10-27,清算の結了等,,,2015-10-05,1,,,,,イシダセイカンテッコウジョ,0
1967,8120001082761,登記記録の閉鎖等,0,2021-10-28,2021-10-27,セントラル企業株式会社,,株式会社,大阪府,大阪市中央区,瓦町３丁目２番１６号,,27,128,5410048,,,2021-10-27,清算の結了等,,,2015-10-05,1,,,,,,0
1980,8120101046600,登記記録の閉鎖等,0,2021-10-28,2021-10-26,株式会社Ｙｕ－ｆｌｏｒａ,,株式会社,大阪府,阪南市,下出７１９番地の１,,27,232,5990202,,,2021-10-26,清算の結了等,,,2015-10-05,1,,,,,,0
1988,8120901029944,登記記録の閉鎖等,0,2021-10-28,2021-10-25,株式会社経営戦略室,,株式会社,大阪府,大阪市中央区,博労町１丁目４番３号ブランシール船場２０３,,27,128,5410059,,,2021-10-25,清算の結了等,,,2015-10-05,1,,,,,ケイエイセンリャクシツ,0
2019,8180003013602,登記記録の閉鎖等,0,2021-10-28,2021-10-22,合資会社コウワ特殊合板,,合資会社,愛知県,愛西市,町方町西祖父池４１番地の１,,23,232,4968014,,,2021-10-22,清算の結了等,,,2015-10-05,1,,,,,コウワトクシュゴウハン,0
2040,8260005009755,登記記録の閉鎖等,0,2021-10-28,2021-10-27,特定非営利活動法人八塔寺壽光庵,,その他の設立登記法人,岡山県,備前市,吉永町加賀美１２２０番地１,,33,211,7090301,,,2021-10-27,清算の結了等,,,2015-10-05,1,,,,,ハットウジジュコウアン,0
2042,8290001015853,登記記録の閉鎖等,0,2021-10-28,2021-10-20,株式会社濱崎経営事務所,,株式会社,福岡県,福岡市中央区,渡辺通５丁目５番５号,,40,133,8100004,,,2021-10-20,清算の結了等,,,2015-10-05,1,,,,,ハマサキケイエイジムショ,0
2082,8430002019153,登記記録の閉鎖等,0,2021-10-28,2021-10-25,有限会社マリモ睦商会,,有限会社,北海道,札幌市南区,澄川四条２丁目９番３２号,,01,106,0050004,,,2021-10-25,清算の結了等,,,2015-10-05,1,,,,,マリモムツミショウカイ,0
2089,8500002019443,登記記録の閉鎖等,0,2021-10-28,2021-10-26,有限会社渡辺鉄工所,,有限会社,愛媛県,今治市,神宮甲７２２番地２,,38,202,7940074,,,2021-10-26,清算の結了等,,,2015-10-05,1,,,,,ワタナベテッコウショ,0
2111,9010401015991,登記記録の閉鎖等,0,2021-10-28,2021-10-13,株式会社セラン,,株式会社,東京都,港区,元赤坂２丁目２番２３号,,13,103,1070051,,,2021-10-13,合併による解散等,6010401029219,令和３年１０月１日東京都港区元赤坂二丁目２番２３号株式会社明治記念館調理室（6010401029219）に合併し解散,2015-10-05,1,,,,,セラン,0
2190,9030001027592,登記記録の閉鎖等,0,2021-10-28,2021-10-21,朝日カッティング株式会社,,株式会社,埼玉県,狭山市,大字下奥富５５７番地,,11,215,3501332,,,2021-10-21,清算の結了等,,,2015-10-05,1,,,,,アサヒカッティング,0
2195,9030002036428,登記記録の閉鎖等,0,2021-10-28,2021-10-21,有限会社ハーキュリーコーポレーション,,有限会社,埼玉県,狭山市,大字下奥富１６７２番地,,11,215,3501332,,,2021-10-21,清算の結了等,,,2015-10-05,1,,,,,,0
2197,9030003012262,登記記録の閉鎖等,0,2021-10-28,2021-10-21,ＬＣ合同会社,,合同会社,埼玉県,川口市,上青木１丁目２４番２号,,11,203,3330844,,,2021-10-21,清算の結了等,,,2018-08-02,1,,,,,エルシー,0
2204,9040001081069,登記記録の閉鎖等,0,2021-10-28,2021-10-21,株式会社ミックス,,株式会社,千葉県,市川市,大野町２丁目５７７番地１,,12,203,2720805,,,2021-10-21,清算の結了等,,,2015-10-05,1,,,,,ミックス,0
2212,9040002007601,登記記録の閉鎖等,0,2021-10-28,2021-10-21,有限会社千葉大和電業,,有限会社,千葉県,千葉市稲毛区,長沼原町２０７番地の２,,12,103,2630001,,,2021-10-21,合併による解散等,9011001013989,令和３年９月２８日東京都渋谷区恵比寿南二丁目９番２号大和電業株式会社（9011001013989）に合併し解散,2015-10-05,1,,,,,チバダイワデンギョウ,0
2217,9070001035897,登記記録の閉鎖等,0,2021-10-28,2021-10-11,株式会社ＢＲＡＮＤ　ＡＣＴＯＲ,,株式会社,東京都,目黒区,下目黒２丁目２３番１８号目黒山手通ビル８階,,13,110,1530064,,,2021-10-11,清算の結了等,,,2019-07-09,1,,,,,ブランドアクター,0
2227,9080101007341,登記記録の閉鎖等,0,2021-10-28,2021-10-21,株式会社Ｗｉｓｈ,,株式会社,静岡県,三島市,大宮町２丁目１３番２３号ビックビレッジ１Ｆ,,22,206,4110035,,,2021-10-21,清算の結了等,,,2015-10-05,1,,,,,ウィッシュ,0
2231,9100002005301,登記記録の閉鎖等,0,2021-10-28,2021-10-26,有限会社矢島通信機,,有限会社,長野県,長野市,大字西尾張部３８７番地１１,,20,201,3810031,,,2021-10-26,清算の結了等,,,2015-10-05,1,,,,,ヤジマツウシンキ,0
2235,9110002003881,登記記録の閉鎖等,0,2021-10-28,2021-10-26,有限会社拓晶土木,,有限会社,新潟県,新潟市中央区,文京町６番２９号,,15,103,9518153,,,2021-10-26,清算の結了等,,,2015-10-05,1,,,,,タクショウドボク,0
2236,9120001017832,登記記録の閉鎖等,0,2021-10-28,2021-10-26,星光製菓株式会社,,株式会社,奈良県,北葛城郡王寺町,明神２丁目５番２６号,,29,425,6360022,,,2021-10-26,清算の結了等,,,2015-10-05,1,,,,,セイコウセイカ,0
2333,9370802001225,登記記録の閉鎖等,0,2021-10-28,2021-10-18,和未商会有限会社,,有限会社,宮城県,亘理郡亘理町,字西郷２２７番地１,,04,361,9892351,,,2021-10-18,清算の結了等,,,2015-10-05,1,,,,,カズミショウカイ,0
2337,9380002032144,登記記録の閉鎖等,0,2021-10-28,2021-10-26,有限会社スーパーマルタ,,有限会社,福島県,大沼郡会津美里町,字高田甲２７５８番地,,07,447,9696264,,,2021-10-26,清算の結了等,,,2015-10-05,1,,,,,スーパーマルタ,0
2338,9390001010661,登記記録の閉鎖等,0,2021-10-28,2021-10-20,株式会社南陽興産,,株式会社,山形県,南陽市,赤湯３３１６番地の１,,06,213,9992211,,,2021-10-20,清算の結了等,,,2015-10-05,1,,,,,ナンヨウコウサン,0
