sequenceNumber,corporateNumber,process,correct,updateDate,changeDate,name,nameImageId,kind,prefectureName,cityName,streetNumber,addressImageId,prefectureCode,cityCode,postCode,addressOutside,addressOutsideImageId,closeDate,closeCause,successorCorporateNumber,changeCause,assignmentDate,latest,enName,enPrefectureName,enCityName,enAddressOutside,furigana,hihyoji
3,1010001157069,登記記録の閉鎖等,0,2023-02-01,2023-01-30,株式会社イノベーション・ファーム,,株式会社,広島県,広島市中区,白島中町１７番３号,,34,101,7300002,,,2023-01-30,清算の結了等,,,2015-10-05,1,,,,,イノベーションファーム,0
4,1010001171292,登記記録の閉鎖等,0,2023-02-01,2023-01-26,ＰＡインベストメント・アドバイザーズ株式会社,,株式会社,東京都,千代田区,丸の内２丁目５番１号丸の内二丁目ビル６階,,13,101,1000005,,,2023-01-26,清算の結了等,,,2015-10-28,1,,,,,ピーエーインベストメントアドバイザーズ,0
12,1010005001751,登記記録の閉鎖等,0,2023-02-01,2023-01-31,東京真珠宝石協同組合,,その他の設立登記法人,東京都,中央区,銀座６丁目７番２号,,13,102,1040061,,,2023-01-31,清算の結了等,,,2015-10-05,1,,,,,トウキョウシンジュホウセキ,0
13,1010005023069,登記記録の閉鎖等,0,2023-02-01,2023-01-30,一般社団法人茨城ホールディングス,,その他の設立登記法人,東京都,千代田区,丸の内３丁目１番１号東京共同会計事務所内,,13,101,1000005,,,2023-01-30,清算の結了等,,,2015-10-05,1,,,,,イバラキホールディングス,0
14,1010005023985,登記記録の閉鎖等,0,2023-02-01,2023-01-30,一般社団法人新エネルギー大波,,その他の設立登記法人,東京都,千代田区,隼町２番１０号２１０半蔵門ビル３階アオバアンドカンパニー税理士法人内,,13,101,1020092,,,2023-01-30,清算の結了等,,,2015-10-05,1,,,,,シンエネルギーオオナミ,0
31,1010403024032,登記記録の閉鎖等,0,2023-02-01,2023-01-17,合同会社ハナミズキリーシング,,合同会社,東京都,港区,六本木６丁目１０番１号六本木ヒルズ森タワー,,13,103,1060032,,,2023-01-17,清算の結了等,,,2020-11-02,1,,,,,ハナミズキリーシング,0
35,1010601008695,登記記録の閉鎖等,0,2023-02-01,2023-01-31,石井プラスチック工業株式会社,,株式会社,東京都,墨田区,向島１丁目２１番９号,,13,107,1310033,,,2023-01-31,登記官による閉鎖,,,2015-10-05,1,,,,,,0
36,1010601009446,登記記録の閉鎖等,0,2023-02-01,2023-01-31,株式会社エムテイー・インダストリアル,,株式会社,東京都,墨田区,立花５丁目９番５号テクネットすみだビル,,13,107,1310043,,,2023-01-31,登記官による閉鎖,,,2015-10-05,1,,,,,,0
37,1010601015923,登記記録の閉鎖等,0,2023-02-01,2023-01-31,平和運送株式会社,,株式会社,東京都,墨田区,墨田４丁目４３番６号,,13,107,1310031,,,2023-01-31,登記官による閉鎖,,,2015-10-05,1,,,,,,0
38,1010601015997,登記記録の閉鎖等,0,2023-02-01,2023-01-31,株式会社美家古,,株式会社,東京都,墨田区,向島５丁目３番５号,,13,107,1310033,,,2023-01-31,登記官による閉鎖,,,2015-10-05,1,,,,,,0
39,1010601030039,登記記録の閉鎖等,0,2023-02-01,2023-01-31,株式会社フェリックス,,株式会社,東京都,墨田区,東向島３丁目３３番６号,,13,107,1310032,,,2023-01-31,登記官による閉鎖,,,2015-10-05,1,,,,,,0
40,1010601036085,登記記録の閉鎖等,0,2023-02-01,2023-01-31,株式会社ダリ・エンタープライズ,,株式会社,東京都,江東区,大島２丁目３１番９号,,13,108,1360072,,,2023-01-31,登記官による閉鎖,,,2015-10-05,1,,,,,,0
41,1010601037546,登記記録の閉鎖等,0,2023-02-01,2023-01-31,株式会社キューブプラス,,株式会社,東京都,江東区,有明３丁目１番２５号,,13,108,1350063,,,2023-01-31,登記官による閉鎖,,,2015-10-05,1,,,,,,0
42,1010601039229,登記記録の閉鎖等,0,2023-02-01,2023-01-31,株式会社ｎ－ｓｐａｃｅ建築・東京,,株式会社,東京都,江東区,古石場１丁目１３番１５号,,13,108,1350045,,,2023-01-31,登記官による閉鎖,,,2015-10-05,1,,,,,,0
43,1010601040905,登記記録の閉鎖等,0,2023-02-01,2023-01-31,株式会社ＮＥＭＯ,,株式会社,東京都,墨田区,千歳３丁目１７番１７号いづみハイツ２Ｆ,,13,107,1300025,,,2023-01-31,登記官による閉鎖,,,2015-10-05,1,,,,,,0
44,1010601041011,登記記録の閉鎖等,0,2023-02-01,2023-01-31,株式会社メルクーア,,株式会社,東京都,江東区,平野２丁目１６番２３号,,13,108,1350023,,,2023-01-31,登記官による閉鎖,,,2015-10-05,1,,,,,,0
45,1010601042579,登記記録の閉鎖等,0,2023-02-01,2023-01-31,株式会社ＹＴＳ,,株式会社,東京都,墨田区,横川５丁目９番４号１９階,,13,107,1300003,,,2023-01-31,登記官による閉鎖,,,2015-10-05,1,,,,,,0
47,1010602002549,登記記録の閉鎖等,0,2023-02-01,2023-01-31,四野宮設備有限会社,,有限会社,東京都,江東区,大島８丁目３３番３８号,,13,108,1360072,,,2023-01-31,登記官による閉鎖,,,2015-10-05,1,,,,,,0
48,1010602003373,登記記録の閉鎖等,0,2023-02-01,2023-01-31,有限会社佐藤保険事務所,,有限会社,東京都,江東区,亀戸２丁目４３番１２号,,13,108,1360071,,,2023-01-31,登記官による閉鎖,,,2015-10-05,1,,,,,,0
49,1010602008653,登記記録の閉鎖等,0,2023-02-01,2023-01-31,有限会社アラ井,,有限会社,東京都,墨田区,東向島２丁目５番１３号,,13,107,1310032,,,2023-01-31,登記官による閉鎖,,,2018-01-23,1,,,,,,0
50,1010602015765,登記記録の閉鎖等,0,2023-02-01,2023-01-31,有限会社ミヤウチ商会,,有限会社,東京都,墨田区,太平１丁目１番１０号,,13,107,1300012,,,2023-01-31,登記官による閉鎖,,,2015-10-05,1,,,,,,0
51,1010602016697,登記記録の閉鎖等,0,2023-02-01,2023-01-31,有限会社鈴木克商店,,有限会社,東京都,墨田区,石原３丁目１番９号,,13,107,1300011,,,2023-01-31,登記官による閉鎖,,,2015-10-05,1,,,,,,0
52,1010602019122,登記記録の閉鎖等,0,2023-02-01,2023-01-31,有限会社佐藤鉄工,,有限会社,東京都,江東区,南砂３丁目１１番３－５０５号,,13,108,1360076,,,2023-01-31,登記官による閉鎖,,,2015-10-05,1,,,,,,0
53,1010602025392,登記記録の閉鎖等,0,2023-02-01,2023-01-31,有限会社宮澤美術,,有限会社,東京都,墨田区,業平５丁目５番１６号,,13,107,1300002,,,2023-01-31,登記官による閉鎖,,,2015-10-05,1,,,,,,0
83,1011302016525,登記記録の閉鎖等,0,2023-02-01,2023-01-27,有限会社ジャパントレードリンク,,有限会社,東京都,杉並区,久我山４丁目４３番２０号,,13,115,1680082,,,2023-01-27,清算の結了等,,,2015-10-05,1,,,,,ジャパントレードリンク,0
93,1020001024549,登記記録の閉鎖等,0,2023-02-01,2023-01-23,三ツ澤電設株式会社,,株式会社,神奈川県,横浜市神奈川区,三ツ沢下町１０番１４号,,14,102,2210852,,,2023-01-23,清算の結了等,,,2018-03-05,1,,,,,ミツザワデンセツ,0
95,1020001142004,登記記録の閉鎖等,0,2023-02-01,2023-01-16,株式会社Ｗｈｉｔｅ　Ｎｉｇｈｔ,,株式会社,神奈川県,川崎市高津区,二子２丁目１－１４ＧｒａｎＤｕｏ二子多摩川２Ｆ号室,,14,134,2130002,,,2023-01-16,清算の結了等,,,2021-07-02,1,,,,,ホワイトナイト,0
98,1020002099887,登記記録の閉鎖等,0,2023-02-01,2023-01-30,有限会社ルートイチマルキュウ,,有限会社,神奈川県,川崎市川崎区,鋼管通２丁目１２番２－３０２号,,14,131,2100852,,,2023-01-30,清算の結了等,,,2015-10-05,1,,,,,ルートイチマルキュウ,0
103,1020005006056,登記記録の閉鎖等,0,2023-02-01,2023-01-27,特定非営利活動法人心を聴く市民ネットワーク,,その他の設立登記法人,神奈川県,横浜市泉区,和泉町６２０５番地の１グリーンハイムいずみ野２５棟５０１号,,14,116,2450016,,,2023-01-27,清算の結了等,,,2015-10-05,1,,,,,ココロヲキクシミンネットワーク,0
125,1040002059625,登記記録の閉鎖等,0,2023-02-01,2023-01-30,有限会社大久保商店,,有限会社,千葉県,成田市,東ノ台９７９番地,,12,211,2870212,,,2023-01-30,清算の結了等,,,2015-10-05,1,,,,,,0
141,1110001024985,登記記録の閉鎖等,0,2023-02-01,2023-01-26,株式会社大濤興産,,株式会社,新潟県,見附市,元町２丁目３番５９号,,15,211,9540004,,,2023-01-26,清算の結了等,,,2015-10-05,1,,,,,,0
143,1120001061251,登記記録の閉鎖等,0,2023-02-01,2023-01-18,映機工業株式会社,,株式会社,東京都,港区,浜松町２丁目２番１５号,,13,103,1050013,,,2023-01-18,清算の結了等,,,2015-10-05,1,,,,,エイキコウギョウ,0
180,1140005001169,登記記録の閉鎖等,0,2023-02-01,2022-12-19,天理教神忠分教会,,その他の設立登記法人,兵庫県,神戸市長田区,東尻池町３丁目３番１０号,,28,106,6530022,,,2022-12-19,合併による解散等,7140005009529,令和４年１２月１９日兵庫県加古川市別府町別府字皿池の下６３５番地の１天理教平岡分教会（7140005009529）に合併し解散,2015-10-05,1,,,,,テンリキョウカミタダブンキョウカイ,0
181,1150001022374,登記記録の閉鎖等,0,2023-02-01,2023-01-25,株式会社泉,,株式会社,奈良県,奈良市,東登美ヶ丘２丁目７番１４号,,29,201,6310002,,,2023-01-25,清算の結了等,,,2018-07-05,1,,,,,イズミ,0
188,1180002083768,登記記録の閉鎖等,0,2023-02-01,2023-01-27,有限会社新美塗装,,有限会社,愛知県,半田市,飯森町５６番地,,23,205,4750062,,,2023-01-27,清算の結了等,,,2015-10-05,1,,,,,ニイミトソウ,0
189,1180002090293,登記記録の閉鎖等,0,2023-02-01,2023-01-27,有限会社カジタ,,有限会社,愛知県,愛西市,東保町西河原３１９番地,,23,232,4960912,,,2023-01-27,清算の結了等,,,2015-10-05,1,,,,,カジタ,0
196,1180302025214,登記記録の閉鎖等,0,2023-02-01,2023-01-23,有限会社ミュゲット,,有限会社,愛知県,みよし市,黒笹３丁目７番地１０,,23,236,4700231,,,2023-01-23,清算の結了等,,,2015-10-05,1,,,,,ミュゲット,0
200,1230001012697,登記記録の閉鎖等,0,2023-02-01,2023-01-27,株式会社サカイ薬品,,株式会社,富山県,射水市,加茂中部１１１８番地,,16,211,9330204,,,2023-01-27,清算の結了等,,,2015-10-05,1,,,,,サカイヤクヒン,0
203,1250001004783,登記記録の閉鎖等,0,2023-02-01,2023-01-30,株式会社サイトプロ,,株式会社,山口県,宇部市,恩田町１丁目７番５号,,35,202,7550023,,,2023-01-30,登記官による閉鎖,,,2015-10-05,1,,,,,,0
204,1250001006747,登記記録の閉鎖等,0,2023-02-01,2023-01-30,株式会社ＷＩＮＰＲＯ　ＴＥＣＨＮＯ,,株式会社,山口県,下関市,小月小島２丁目７番３７号,,35,201,7501136,,,2023-01-30,登記官による閉鎖,,,2015-10-05,1,,,,,,0
205,1250001008966,登記記録の閉鎖等,0,2023-02-01,2023-01-30,株式会社創和都市設計,,株式会社,山口県,周南市,大字徳山２９１番地の３２,,35,215,7450851,,,2023-01-30,登記官による閉鎖,,,2015-10-05,1,,,,,,0
206,1250001013339,登記記録の閉鎖等,0,2023-02-01,2023-01-30,ミヤタ株式会社,,株式会社,山口県,岩国市,麻里布町３丁目８番２号,,35,208,7400018,,,2023-01-30,登記官による閉鎖,,,2015-10-05,1,,,,,,0
207,1250002009906,登記記録の閉鎖等,0,2023-02-01,2023-01-30,有限会社達磨鮮魚店,,有限会社,山口県,下関市,王司神田１丁目９番３号,,35,201,7520911,,,2023-01-30,登記官による閉鎖,,,2015-10-05,1,,,,,,0
208,1250002012802,登記記録の閉鎖等,0,2023-02-01,2023-01-30,有限会社渡邊工務店,,有限会社,山口県,下関市,三河町５番２５号,,35,201,7510821,,,2023-01-30,登記官による閉鎖,,,2015-10-05,1,,,,,,0
209,1250002019797,登記記録の閉鎖等,0,2023-02-01,2023-01-30,有限会社八興,,有限会社,山口県,柳井市,柳井４２４７番地の２,,35,212,7420021,,,2023-01-30,登記官による閉鎖,,,2015-10-05,1,,,,,,0
210,1250003000450,登記記録の閉鎖等,0,2023-02-01,2023-01-30,合同会社ＡＱＵＡ　Ｙ’ｓスイミー,,合同会社,山口県,山陽小野田市,新生１丁目８番２７号,,35,216,7560092,,,2023-01-30,登記官による閉鎖,,,2015-10-05,1,,,,,,0
211,1250005001595,登記記録の閉鎖等,0,2023-02-01,2023-01-30,防府地区ダンプトラツク事業協同組合,,その他の設立登記法人,山口県,防府市,大字江泊字西塩屋１９２３番地,,35,206,7470014,,,2023-01-30,登記官による閉鎖,,,2015-10-05,1,,,,,,0
212,1250005003385,登記記録の閉鎖等,0,2023-02-01,2023-01-30,農事組合法人横野農事実行組合,,その他の設立登記法人,山口県,下関市,大字横野４２２番地横野公会堂,,35,201,7500000,,,2023-01-30,登記官による閉鎖,,,2015-10-05,1,,,,,,0
213,1250005005084,登記記録の閉鎖等,0,2023-02-01,2023-01-30,北斗町商店街振興組合,,その他の設立登記法人,山口県,下松市,北斗町８番２１号,,35,207,7440012,,,2023-01-30,登記官による閉鎖,,,2015-10-05,1,,,,,,0
214,1250005007485,登記記録の閉鎖等,0,2023-02-01,2023-01-30,一般社団法人ＩＣＡ統合医療研究所,,その他の設立登記法人,山口県,宇部市,大字上宇部２８４２番地２６ドリームヒルズ１０４,,35,202,7550091,,,2023-01-30,登記官による閉鎖,,,2015-10-05,1,,,,,,0
215,1260001005896,登記記録の閉鎖等,0,2023-02-01,2023-01-31,株式会社フジワラジャリ,,株式会社,岡山県,岡山市中区,海吉１５８６番地の６,,33,102,7038261,,,2023-01-31,清算の結了等,,,2015-10-05,1,,,,,フジワラジャリ,0
216,1290001001190,登記記録の閉鎖等,0,2023-02-01,2023-01-26,玄洋技術株式会社,,株式会社,福岡県,福岡市南区,大橋４丁目１６番１８号,,40,134,8150033,,,2023-01-26,清算の結了等,,,2015-10-05,1,,,,,ゲンヨウギジュツ,0
228,1310001010643,登記記録の閉鎖等,0,2023-02-01,2023-01-30,株式会社マテハン,,株式会社,長崎県,平戸市,田平町小崎免１０番地１,,42,207,8594803,,,2023-01-30,清算の結了等,,,2015-10-05,1,,,,,マテハン,0
229,1320001000767,登記記録の閉鎖等,0,2023-02-01,2023-01-31,株式会社ダイネン,,株式会社,大分県,大分市,新川西１丁目６番１２号,,44,201,8700015,,,2023-01-31,清算の結了等,,,2015-10-05,1,,,,,ダイネン,0
244,1370602001300,登記記録の閉鎖等,0,2023-02-01,2023-01-30,有限会社デイグループ,,有限会社,宮城県,塩竈市,海岸通１０番１３号グリーンビル２階,,04,203,9850002,,,2023-01-30,清算の結了等,,,2015-10-05,1,,,,,デイグループ,0
253,1430001023708,登記記録の閉鎖等,0,2023-02-01,2023-01-30,丸美新光建設株式会社,,株式会社,北海道,札幌市北区,新琴似一条１０丁目２番１２号,,01,102,0010901,,,2023-01-30,清算の結了等,,,2015-10-05,1,,,,,マルミシンコウケンセツ,0
255,1430001075897,登記記録の閉鎖等,0,2023-02-01,2023-01-30,株式会社レリフ,,株式会社,北海道,札幌市中央区,南七条西６丁目４２３番地４３－２０２号,,01,101,0640807,,,2023-01-30,清算の結了等,,,2018-02-14,1,,,,,レリフ,0
259,1430005001874,登記記録の閉鎖等,0,2023-02-01,2023-01-31,医療法人社団高橋内科医院,,その他の設立登記法人,北海道,札幌市厚別区,もみじ台北５丁目１番２号,,01,108,0040014,,,2023-01-31,清算の結了等,,,2015-10-05,1,,,,,タカハシナイカイイン,0
260,1470001007715,登記記録の閉鎖等,0,2023-02-01,2023-01-27,山田鋼機株式会社,,株式会社,香川県,丸亀市,中府町２丁目１番８号,,37,202,7630033,,,2023-01-27,清算の結了等,,,2015-10-05,1,,,,,ヤマダコウキ,0
285,2010401121342,登記記録の閉鎖等,0,2023-02-01,2023-01-17,Ｓｕｍｍｉｔ　Ｐｏｌｙｍｅｒｓ　Ｊａｐａｎ株式会社,,株式会社,東京都,港区,虎ノ門４丁目３番１号城山トラストタワー９階,,13,103,1050001,,,2023-01-17,清算の結了等,,,2015-11-02,1,,,,,サミットポリマーズジャパン,0
291,2010402004711,登記記録の閉鎖等,0,2023-02-01,2023-01-17,有限会社ケンユーシステム,,有限会社,東京都,港区,西麻布３丁目６番１１号,,13,103,1060031,,,2023-01-17,清算の結了等,,,2015-10-05,1,,,,,ケンユーシステム,0
297,2010601000024,登記記録の閉鎖等,0,2023-02-01,2023-01-31,株式会社大島タイル店,,株式会社,東京都,江東区,三好２丁目１１番３号,,13,108,1350022,,,2023-01-31,登記官による閉鎖,,,2015-10-05,1,,,,,,0
298,2010601006178,登記記録の閉鎖等,0,2023-02-01,2023-01-31,丸平木材株式会社,,株式会社,東京都,江東区,平野１丁目１２番６号,,13,108,1350023,,,2023-01-31,登記官による閉鎖,,,2015-10-05,1,,,,,,0
299,2010601008760,登記記録の閉鎖等,0,2023-02-01,2023-01-31,いづみ木芸株式会社,,株式会社,東京都,墨田区,千歳３丁目１７番１７号,,13,107,1300025,,,2023-01-31,登記官による閉鎖,,,2015-10-05,1,,,,,,0
300,2010601011789,登記記録の閉鎖等,0,2023-02-01,2023-01-31,株式会社小糸,,株式会社,東京都,墨田区,江東橋５丁目８番１２－１０１号錦糸町第３ローヤルコーポ,,13,107,1300022,,,2023-01-31,登記官による閉鎖,,,2015-10-05,1,,,,,,0
301,2010601011839,登記記録の閉鎖等,0,2023-02-01,2023-01-31,興和繊維株式会社,,株式会社,東京都,墨田区,東向島３丁目１３番２１号,,13,107,1310032,,,2023-01-31,登記官による閉鎖,,,2016-12-06,1,,,,,,0
302,2010601012829,登記記録の閉鎖等,0,2023-02-01,2023-01-31,株式会社田口製作所,,株式会社,東京都,墨田区,緑２丁目２２番１４号,,13,107,1300021,,,2023-01-31,登記官による閉鎖,,,2015-10-05,1,,,,,,0
303,2010601015261,登記記録の閉鎖等,0,2023-02-01,2023-01-31,株式会社ブルックス,,株式会社,東京都,墨田区,東駒形４丁目１５番１０号,,13,107,1300005,,,2023-01-31,登記官による閉鎖,,,2015-10-05,1,,,,,,0
304,2010601024849,登記記録の閉鎖等,0,2023-02-01,2023-01-31,株式会社エフ・ピーファイル,,株式会社,東京都,墨田区,押上２丁目３０番２０号,,13,107,1310045,,,2023-01-31,登記官による閉鎖,,,2015-10-05,1,,,,,,0
305,2010601027430,登記記録の閉鎖等,0,2023-02-01,2023-01-31,株式会社東京イーストワン,,株式会社,東京都,江東区,亀戸４丁目１１番９号,,13,108,1360071,,,2023-01-31,登記官による閉鎖,,,2015-10-05,1,,,,,,0
306,2010601030418,登記記録の閉鎖等,0,2023-02-01,2023-01-31,株式会社生命環境,,株式会社,東京都,墨田区,両国４丁目８番１０号,,13,107,1300026,,,2023-01-31,登記官による閉鎖,,,2015-10-05,1,,,,,,0
307,2010601039681,登記記録の閉鎖等,0,2023-02-01,2023-01-31,株式会社日本ライトスタッフ,,株式会社,東京都,江東区,北砂６丁目９番５号,,13,108,1360073,,,2023-01-31,登記官による閉鎖,,,2015-10-05,1,,,,,,0
309,2010602002234,登記記録の閉鎖等,0,2023-02-01,2023-01-31,有限会社小林金物店,,有限会社,東京都,江東区,大島５丁目４７番６号,,13,108,1360072,,,2023-01-31,登記官による閉鎖,,,2015-10-05,1,,,,,,0
310,2010602011573,登記記録の閉鎖等,0,2023-02-01,2023-01-31,有限会社清水染工場,,有限会社,東京都,墨田区,千歳２丁目１番１８号,,13,107,1300025,,,2023-01-31,登記官による閉鎖,,,2015-10-05,1,,,,,,0
311,2010602012596,登記記録の閉鎖等,0,2023-02-01,2023-01-31,有限会社永田屋,,有限会社,東京都,墨田区,吾妻橋３丁目１番４号,,13,107,1300001,,,2023-01-31,登記官による閉鎖,,,2015-10-05,1,,,,,,0
312,2010602014254,登記記録の閉鎖等,0,2023-02-01,2023-01-31,有限会社深沢商店,,有限会社,東京都,墨田区,向島３丁目３番４号,,13,107,1310033,,,2023-01-31,登記官による閉鎖,,,2015-10-05,1,,,,,,0
313,2010602018528,登記記録の閉鎖等,0,2023-02-01,2023-01-31,有限会社アオキ物産,,有限会社,東京都,江東区,東陽３丁目２６番１２号,,13,108,1350016,,,2023-01-31,登記官による閉鎖,,,2015-10-05,1,,,,,,0
314,2010602031084,登記記録の閉鎖等,0,2023-02-01,2023-01-31,有限会社丸中商店,,有限会社,東京都,江東区,常盤２丁目８番７号,,13,108,1350006,,,2023-01-31,登記官による閉鎖,,,2015-10-05,1,,,,,,0
317,2010703002199,登記記録の閉鎖等,0,2023-02-01,2023-01-30,ＩＴパートナーズ合同会社,,合同会社,神奈川県,横浜市西区,北幸１丁目１１番１号水信ビル７階,,14,103,2200004,,,2023-01-30,清算の結了等,,,2015-10-05,1,,,,,アイティパートナーズ,0
318,2010901029093,登記記録の閉鎖等,0,2023-02-01,2023-01-27,株式会社ＴＮリレーションズ,,株式会社,東京都,千代田区,内神田２丁目６番１１号,,13,101,1010047,,,2023-01-27,合併による解散等,1011001096694,令和５年１月１２日東京都港区南青山一丁目１０番２号ａｌ　Ｂｉｒｃｈアドバイザーズ株式会社（1011001096694）に合併し解散,2015-10-05,1,,,,,ティーエヌリレーションズ,0
334,2011101078534,登記記録の閉鎖等,0,2023-02-01,2023-01-30,株式会社Ｃｒｅａｔｅ　Ｉｎｎｏｖａｔｉｏｎ,,株式会社,東京都,新宿区,新宿２丁目１１番２号,,13,104,1600022,,,2023-01-30,清算の結了等,,,2016-10-25,1,,,,,クリエイトイノベーション,0
354,2011802010919,登記記録の閉鎖等,0,2023-02-01,2023-01-27,有限会社大和田商会,,有限会社,東京都,足立区,鹿浜３丁目２９番１６号,,13,121,1230864,,,2023-01-27,清算の結了等,,,2015-10-05,1,,,,,オオワダショウカイ,0
368,2030002042969,登記記録の閉鎖等,0,2023-02-01,2023-01-27,有限会社エス・ケー・ワイ,,有限会社,埼玉県,さいたま市桜区,田島１０丁目４番５号,,11,106,3380837,,,2023-01-27,清算の結了等,,,2015-10-05,1,,,,,エスケーワイ,0
370,2030002083014,登記記録の閉鎖等,0,2023-02-01,2023-01-30,有限会社八巻薬局,,有限会社,埼玉県,鴻巣市,堤町２４番４７号,,11,217,3650056,,,2023-01-30,清算の結了等,,,2015-10-05,1,,,,,ヤマキヤッキョク,0
372,2030003016682,登記記録の閉鎖等,0,2023-02-01,2023-01-27,合同会社シリアス,,合同会社,埼玉県,蕨市,北町１丁目３番２号蕨ローズマンション３０１号室,,11,223,3350001,,,2023-01-27,清算の結了等,,,2021-02-15,1,,,,,シリアス,0
374,2030005004685,登記記録の閉鎖等,0,2023-02-01,2023-01-27,医療法人荻野会,,その他の設立登記法人,埼玉県,久喜市,菖蒲町三箇１２５７番地,,11,232,3460104,,,2023-01-27,清算の結了等,,,2015-10-05,1,,,,,オギノカイ,0
415,2120102005734,登記記録の閉鎖等,0,2023-02-01,2023-01-31,ロワイヤル産業有限会社,,有限会社,大阪府,高石市,東羽衣２丁目１３番４６号,,27,225,5920003,,,2023-01-31,清算の結了等,,,2015-10-05,1,,,,,ロワイヤルサンギョウ,0
418,2120902001247,登記記録の閉鎖等,0,2023-02-01,2023-01-30,有限会社日進商会,,有限会社,大阪府,茨木市,沢良宜西３丁目１０番３号,,27,211,5670868,,,2023-01-30,清算の結了等,,,2015-10-05,1,,,,,ニッシンショウカイ,0
439,2180301016502,登記記録の閉鎖等,0,2023-02-01,2023-01-27,みどり公益株式会社,,株式会社,愛知県,碧南市,新川町１丁目２４番地,,23,209,4470863,,,2023-01-27,清算の結了等,,,2015-10-05,1,,,,,ミドリコウエキ,0
447,2200001014084,登記記録の閉鎖等,0,2023-02-01,2023-01-31,株式会社日興,,株式会社,岐阜県,不破郡垂井町,綾戸９４番地の３,,21,361,5032112,,,2023-01-31,清算の結了等,,,2015-10-05,1,,,,,ニッコウ,0
452,2240002007034,登記記録の閉鎖等,0,2023-02-01,2023-01-31,有限会社貞森商事,,有限会社,広島県,広島市西区,上天満町４番１５号,,34,104,7330021,,,2023-01-31,清算の結了等,,,2015-10-05,1,,,,,サダモリショウジ,0
454,2240002048111,登記記録の閉鎖等,0,2023-02-01,2023-01-31,有限会社イーエス,,有限会社,広島県,安芸郡海田町,窪町４番２号,,34,304,7360046,,,2023-01-31,清算の結了等,,,2015-10-05,1,,,,,イーエス,0
455,2250001011408,登記記録の閉鎖等,0,2023-02-01,2023-01-30,株式会社新陽,,株式会社,山口県,岩国市,新港町２丁目６番２号,,35,208,7400002,,,2023-01-30,登記官による閉鎖,,,2017-12-01,1,,,,,,0
456,2250001011738,登記記録の閉鎖等,0,2023-02-01,2023-01-30,株式会社吉田工業エンジニアリング,,株式会社,山口県,岩国市,御庄３丁目１０２番地の９,,35,208,7410083,,,2023-01-30,登記官による閉鎖,,,2015-10-05,1,,,,,,0
457,2250002000665,登記記録の閉鎖等,0,2023-02-01,2023-01-30,有限会社サンリース山口,,有限会社,山口県,山口市,三和町１７番２１－６１５号,,35,203,7530052,,,2023-01-30,登記官による閉鎖,,,2015-10-05,1,,,,,,0
458,2250002011679,登記記録の閉鎖等,0,2023-02-01,2023-01-30,有限会社ティ・イ・エス,,有限会社,山口県,下関市,藤ケ谷町１０番１５号,,35,201,7510811,,,2023-01-30,登記官による閉鎖,,,2015-10-05,1,,,,,,0
459,2250002014888,登記記録の閉鎖等,0,2023-02-01,2023-01-30,有限会社セイズ,,有限会社,山口県,周南市,昭和通２番地の２Ｎ－１ビル２Ｆ,,35,215,7450000,,,2023-01-30,登記官による閉鎖,,,2015-10-05,1,,,,,,0
460,2250003000813,登記記録の閉鎖等,0,2023-02-01,2023-01-30,合同会社アドバンスドサービス,,合同会社,山口県,下関市,秋根南町１丁目６番１５号笠柄ビルＢ,,35,201,7510872,,,2023-01-30,登記官による閉鎖,,,2015-10-05,1,,,,,,0
461,2250005001339,登記記録の閉鎖等,0,2023-02-01,2023-01-30,共栄グループ事業協同組合,,その他の設立登記法人,山口県,山口市,阿知須字若山９０１３番地,,35,203,7541277,,,2023-01-30,登記官による閉鎖,,,2015-10-05,1,,,,,,0
462,2250005003277,登記記録の閉鎖等,0,2023-02-01,2023-01-30,環境アクセス事業協同組合,,その他の設立登記法人,山口県,下関市,山の田東町３番６号,,35,201,7510834,,,2023-01-30,登記官による閉鎖,,,2015-10-05,1,,,,,,0
463,2250005006676,登記記録の閉鎖等,0,2023-02-01,2023-01-27,農事組合法人たじり,,その他の設立登記法人,山口県,岩国市,周東町田尻７５６番地４,,35,208,7420414,,,2023-01-27,清算の結了等,,,2015-10-05,1,,,,,タジリ,0
468,2260002025752,登記記録の閉鎖等,0,2023-02-01,2023-01-30,大典特殊有限会社,,有限会社,岡山県,井原市,笹賀町７３７番地の５,,33,207,7150025,,,2023-01-30,清算の結了等,,,2015-10-05,1,,,,,ダイテントクシュ,0
478,2310003002308,登記記録の閉鎖等,0,2023-02-01,2023-01-30,合名会社中岡商店,,合名会社,長崎県,対馬市,上対馬町琴７８７番地,,42,209,8172331,,,2023-01-30,清算の結了等,,,2015-10-05,1,,,,,ナカオカショウテン,0
479,2310003003917,登記記録の閉鎖等,0,2023-02-01,2023-01-25,合同会社Ｔｏａ工業,,合同会社,長崎県,長崎市,田中町９９９番地ルミナス村上１０２号,,42,201,8510134,,,2023-01-25,清算の結了等,,,2020-09-18,1,,,,,トーアコウギョウ,0
490,2370001024810,登記記録の閉鎖等,0,2023-02-01,2023-01-30,株式会社トワーズ,,株式会社,宮城県,仙台市泉区,寺岡４丁目９番地の１５,,04,105,9813204,,,2023-01-30,清算の結了等,,,2015-10-05,1,,,,,トワーズ,0
491,2370001046656,登記記録の閉鎖等,0,2023-02-01,2023-01-31,株式会社イベントラボ,,株式会社,宮城県,仙台市太白区,長町８丁目９番２２－２０３号,,04,104,9820011,,,2023-01-31,清算の結了等,,,2021-02-03,1,,,,,イベントラボ,0
502,2400003002769,登記記録の閉鎖等,0,2023-02-01,2023-01-30,合同会社裕,,合同会社,岩手県,二戸市,金田一字沖１２１番地６パートナー０５号室,,03,213,0285711,,,2023-01-30,清算の結了等,,,2021-04-08,1,,,,,ユウ,0
506,2430005006237,登記記録の閉鎖等,0,2023-02-01,2023-01-31,医療法人社団わたなべクリニック,,その他の設立登記法人,北海道,札幌市手稲区,富丘二条７丁目２番６号,,01,109,0060012,,,2023-01-31,清算の結了等,,,2015-10-05,1,,,,,ワタナベクリニック,0
524,3010001225526,登記記録の閉鎖等,0,2023-02-01,2023-01-26,株式会社ＤＲＡＧＯＮ’Ｓ,,株式会社,東京都,中央区,銀座７丁目１３番６号,,13,102,1040061,,,2023-01-26,清算の結了等,,,2022-03-31,1,,,,,ドラゴンズ,0
548,3010601010427,登記記録の閉鎖等,0,2023-02-01,2023-01-31,旭日技研株式会社,,株式会社,東京都,墨田区,両国４丁目３４番８号,,13,107,1300026,,,2023-01-31,登記官による閉鎖,,,2015-10-05,1,,,,,,0
549,3010601012010,登記記録の閉鎖等,0,2023-02-01,2023-01-31,株式会社斎藤商店,,株式会社,東京都,墨田区,吾妻橋３丁目２番８号,,13,107,1300001,,,2023-01-31,登記官による閉鎖,,,2015-10-05,1,,,,,,0
550,3010601027041,登記記録の閉鎖等,0,2023-02-01,2023-01-31,株式会社テックコーポレーション,,株式会社,東京都,墨田区,吾妻橋３丁目２番１４号,,13,107,1300001,,,2023-01-31,登記官による閉鎖,,,2015-10-05,1,,,,,,0
551,3010601028766,登記記録の閉鎖等,0,2023-02-01,2023-01-31,株式会社大進,,株式会社,東京都,江東区,亀戸１丁目４３番９号コーポ野村西棟３０５号室,,13,108,1360071,,,2023-01-31,登記官による閉鎖,,,2015-10-05,1,,,,,,0
552,3010601028881,登記記録の閉鎖等,0,2023-02-01,2023-01-31,株式会社シードプロモーション,,株式会社,東京都,江東区,亀戸５丁目２番３号,,13,108,1360071,,,2023-01-31,登記官による閉鎖,,,2015-10-05,1,,,,,,0
553,3010602008131,登記記録の閉鎖等,0,2023-02-01,2023-01-31,有限会社中澤書店,,有限会社,東京都,江東区,南砂３丁目８番１５号,,13,108,1360076,,,2023-01-31,登記官による閉鎖,,,2015-10-05,1,,,,,,0
554,3010602008577,登記記録の閉鎖等,0,2023-02-01,2023-01-31,有限会社岡庭商店,,有限会社,東京都,墨田区,亀沢１丁目２３番８号,,13,107,1300014,,,2023-01-31,登記官による閉鎖,,,2015-10-05,1,,,,,,0
555,3010602010475,登記記録の閉鎖等,0,2023-02-01,2023-01-31,有限会社吾嬬プレス型製作所,,有限会社,東京都,墨田区,八広２丁目４番４号,,13,107,1310041,,,2023-01-31,登記官による閉鎖,,,2015-10-05,1,,,,,,0
556,3010602011283,登記記録の閉鎖等,0,2023-02-01,2023-01-31,小宮製菓有限会社,,有限会社,東京都,墨田区,錦糸１丁目１４番３号,,13,107,1300013,,,2023-01-31,登記官による閉鎖,,,2015-10-05,1,,,,,,0
557,3010602012125,登記記録の閉鎖等,0,2023-02-01,2023-01-31,有限会社杉山ゴム製作所,,有限会社,東京都,墨田区,八広１丁目３４番２号,,13,107,1310041,,,2023-01-31,登記官による閉鎖,,,2015-10-05,1,,,,,,0
558,3010602013313,登記記録の閉鎖等,0,2023-02-01,2023-01-31,有限会社西基,,有限会社,東京都,墨田区,立花５丁目１４番１２号,,13,107,1310043,,,2023-01-31,登記官による閉鎖,,,2015-10-05,1,,,,,,0
559,3010602025523,登記記録の閉鎖等,0,2023-02-01,2023-01-31,有限会社オフィスノブ,,有限会社,東京都,墨田区,江東橋３丁目６番１２号２Ｆ,,13,107,1300022,,,2023-01-31,登記官による閉鎖,,,2015-10-05,1,,,,,,0
560,3010605001174,登記記録の閉鎖等,0,2023-02-01,2023-01-31,特定非営利活動法人ポーロウニア協会,,その他の設立登記法人,東京都,江東区,南砂２丁目３１番１１－９０５号,,13,108,1360076,,,2023-01-31,登記官による閉鎖,,,2015-10-05,1,,,,,,0
561,3010605001521,登記記録の閉鎖等,0,2023-02-01,2023-01-31,トーケン綜合サービス協同組合,,その他の設立登記法人,東京都,江東区,南砂７丁目５番２１－１１０３号,,13,108,1360076,,,2023-01-31,登記官による閉鎖,,,2015-10-05,1,,,,,,0
578,3011401021903,登記記録の閉鎖等,0,2023-02-01,2023-01-31,株式会社セクションＡ,,株式会社,東京都,板橋区,西台３丁目２５番１号,,13,119,1750045,,,2023-01-31,清算の結了等,,,2019-06-21,1,,,,,セクションエー,0
603,3030001041269,登記記録の閉鎖等,0,2023-02-01,2023-01-26,兼萬工業株式会社,,株式会社,埼玉県,上尾市,西宮下２丁目２０９番地,,11,219,3620043,,,2023-01-26,清算の結了等,,,2015-10-05,1,,,,,カネマンコウギョウ,0
608,3030001133132,登記記録の閉鎖等,0,2023-02-01,2023-01-27,エコロジー・ファーム株式会社,,株式会社,埼玉県,川口市,北原台２丁目１番１９号,,11,203,3330815,,,2023-01-27,清算の結了等,,,2019-10-10,1,,,,,エコロジーファーム,0
612,3030002034478,登記記録の閉鎖等,0,2023-02-01,2023-01-26,有限会社道上商店,,有限会社,埼玉県,狭山市,大字北入曽１４９０番地の６,,11,215,3501315,,,2023-01-26,清算の結了等,,,2015-10-05,1,,,,,ミチガミショウテン,0
626,3050001046852,登記記録の閉鎖等,0,2023-02-01,2023-01-26,株式会社プロクラン,,株式会社,茨城県,水戸市,城南２丁目１０番６号Ｇａｒｄｅｎｓ水戸６０４号室,,08,201,3100803,,,2023-01-26,清算の結了等,,,2019-11-28,1,,,,,プロクラン,0
637,3110002023118,登記記録の閉鎖等,0,2023-02-01,2023-01-30,有限会社堤設備サービス,,有限会社,新潟県,上越市,大字今池７８０番地２,,15,222,9430145,,,2023-01-30,清算の結了等,,,2015-10-05,1,,,,,ツツミセツビサービス,0
656,3120005009410,登記記録の閉鎖等,0,2023-02-01,2023-01-30,特定非営利活動法人日本女性生涯支援協会,,その他の設立登記法人,大阪府,大阪市生野区,勝山南３丁目４－１５,,27,116,5440021,,,2023-01-30,清算の結了等,,,2015-10-05,1,,,,,ニホンジョセイショウガイシエンキョウカイ,0
688,3180301019090,登記記録の閉鎖等,0,2023-02-01,2023-01-27,株式会社日野鉄工,,株式会社,愛知県,豊田市,豊栄町５丁目１０２番地１,,23,211,4701201,,,2023-01-27,清算の結了等,,,2015-10-05,1,,,,,ヒノテッコウ,0
689,3180302017259,登記記録の閉鎖等,0,2023-02-01,2023-01-26,有限会社萬珍軒安城店,,有限会社,愛知県,安城市,今本町４丁目２番２号,,23,212,4460008,,,2023-01-26,清算の結了等,,,2015-10-05,1,,,,,マンチンケンアンジョウテン,0
690,3190001011842,登記記録の閉鎖等,0,2023-02-01,2023-01-31,株式会社ベルピオン,,株式会社,三重県,松阪市,高須町３８６６番地１２,,24,204,5150104,,,2023-01-31,清算の結了等,,,2015-10-05,1,,,,,,0
696,3200001014983,登記記録の閉鎖等,0,2023-02-01,2023-01-31,株式会社コダマ石材,,株式会社,岐阜県,養老郡養老町,室原字小栗栖２９４番地,,21,341,5031301,,,2023-01-31,清算の結了等,,,2015-10-05,1,,,,,,0
700,3200002026953,登記記録の閉鎖等,0,2023-02-01,2023-01-31,有限会社飛騨菌床,,有限会社,岐阜県,飛騨市,古川町下気多１５４番地の５,,21,217,5094213,,,2023-01-31,清算の結了等,,,2015-10-05,1,,,,,,0
712,3250001004988,登記記録の閉鎖等,0,2023-02-01,2023-01-30,株式会社エンプレス,,株式会社,山口県,山口市,吉田２４５５番地８,,35,203,7530841,,,2023-01-30,登記官による閉鎖,,,2015-10-05,1,,,,,,0
713,3250001011712,登記記録の閉鎖等,0,2023-02-01,2023-01-30,株式会社ヤスモト電気,,株式会社,山口県,岩国市,三笠町３丁目５番１３号,,35,208,7400016,,,2023-01-30,登記官による閉鎖,,,2015-10-05,1,,,,,,0
715,3250002011091,登記記録の閉鎖等,0,2023-02-01,2023-01-30,丸矢自動車有限会社,,有限会社,山口県,下関市,小月本町２丁目２番２８号,,35,201,7501142,,,2023-01-30,登記官による閉鎖,,,2015-10-05,1,,,,,,0
716,3250002011331,登記記録の閉鎖等,0,2023-02-01,2023-01-30,有限会社山宗,,有限会社,山口県,下関市,上条町１番８号,,35,201,7500027,,,2023-01-30,登記官による閉鎖,,,2015-10-05,1,,,,,,0
717,3250002017774,登記記録の閉鎖等,0,2023-02-01,2023-01-30,有限会社エス・ケー・インダストリー,,有限会社,山口県,岩国市,通津３７５８番地の２１,,35,208,7400044,,,2023-01-30,登記官による閉鎖,,,2015-10-05,1,,,,,,0
718,3250002017915,登記記録の閉鎖等,0,2023-02-01,2023-01-30,有限会社岸本溶接工業所,,有限会社,山口県,岩国市,麻里布町７丁目１４番７号,,35,208,7400018,,,2023-01-30,登記官による閉鎖,,,2015-10-05,1,,,,,,0
722,3250005002492,登記記録の閉鎖等,0,2023-02-01,2023-01-30,山陽商工業協同組合,,その他の設立登記法人,山口県,山陽小野田市,大字厚狭２０番地,,35,216,7570001,,,2023-01-30,登記官による閉鎖,,,2015-10-05,1,,,,,,0
727,3290001044816,登記記録の閉鎖等,0,2023-02-01,2023-01-31,菅塗装工芸株式会社,,株式会社,福岡県,太宰府市,向佐野４丁目２番５号,,40,221,8180135,,,2023-01-31,清算の結了等,,,2015-10-05,1,,,,,スガトソウコウゲイ,0
737,3320001019021,登記記録の閉鎖等,0,2023-02-01,2023-01-30,奥村木材株式会社,,株式会社,大分県,宇佐市,大字江須賀１２２２番地の１０,,44,211,8720032,,,2023-01-30,清算の結了等,,,2022-05-19,1,,,,,オクムラモクザイ,0
748,3370301000527,登記記録の閉鎖等,0,2023-02-01,2023-01-30,佐々木体育株式会社,,株式会社,宮城県,石巻市,丸井戸３丁目１番６号,,04,202,9860865,,,2023-01-30,清算の結了等,,,2015-10-05,1,,,,,,0
767,3460101003150,登記記録の閉鎖等,0,2023-02-01,2023-01-30,田村木材株式会社,,株式会社,北海道,上川郡新得町,西一条南５丁目１番地,,01,635,0810031,,,2023-01-30,清算の結了等,,,2015-10-05,1,,,,,タムラモクザイ,0
788,4010401101598,登記記録の閉鎖等,0,2023-02-01,2023-01-25,ＦＲＯＳＫ株式会社,,株式会社,東京都,千代田区,紀尾井町１番３号,,13,101,1020094,,,2023-01-25,清算の結了等,,,2015-10-05,1,,,,,フロスク,0
793,4010402000700,登記記録の閉鎖等,0,2023-02-01,2023-01-10,アナウンスハウス有限会社,,有限会社,東京都,港区,赤坂７丁目２番６号,,13,103,1070052,,,2023-01-10,清算の結了等,,,2015-10-05,1,,,,,アナウンスハウス,0
795,4010501022554,登記記録の閉鎖等,0,2023-02-01,2023-01-30,株式会社アド・パルス,,株式会社,東京都,台東区,谷中１丁目１番２９号,,13,106,1100001,,,2023-01-30,清算の結了等,,,2015-10-05,1,,,,,アドパルス,0
796,4010601011382,登記記録の閉鎖等,0,2023-02-01,2023-01-31,株式会社末広,,株式会社,東京都,墨田区,向島１丁目３２番８号,,13,107,1310033,,,2023-01-31,登記官による閉鎖,,,2015-10-05,1,,,,,,0
797,4010601036545,登記記録の閉鎖等,0,2023-02-01,2023-01-31,ＭＧアセット株式会社,,株式会社,東京都,江東区,大島５丁目４７番５号,,13,108,1360072,,,2023-01-31,登記官による閉鎖,,,2015-10-05,1,,,,,,0
798,4010602000698,登記記録の閉鎖等,0,2023-02-01,2023-01-31,有限会社大久保自動車車体工業所,,有限会社,東京都,江東区,扇橋２丁目６番５号,,13,108,1350011,,,2023-01-31,登記官による閉鎖,,,2015-10-05,1,,,,,,0
799,4010602003841,登記記録の閉鎖等,0,2023-02-01,2023-01-31,有限会社信栄工業,,有限会社,東京都,江東区,東砂８丁目２０番７号,,13,108,1360074,,,2023-01-31,登記官による閉鎖,,,2015-10-05,1,,,,,,0
800,4010602012982,登記記録の閉鎖等,0,2023-02-01,2023-01-31,有限会社畑電設工業,,有限会社,東京都,墨田区,横川２丁目１４番１１号,,13,107,1300003,,,2023-01-31,登記官による閉鎖,,,2015-10-05,1,,,,,,0
801,4010602031768,登記記録の閉鎖等,0,2023-02-01,2023-01-31,有限会社創美サービス,,有限会社,東京都,江東区,木場３丁目８番１２号,,13,108,1350042,,,2023-01-31,登記官による閉鎖,,,2015-10-05,1,,,,,,0
802,4010602032089,登記記録の閉鎖等,0,2023-02-01,2023-01-31,有限会社ＧＡ’Ｓ　ＰＲＯＤＵＣＴＩＯＮ,,有限会社,東京都,墨田区,江東橋２丁目１１番１４号,,13,107,1300022,,,2023-01-31,登記官による閉鎖,,,2015-10-05,1,,,,,,0
815,4011101028306,登記記録の閉鎖等,0,2023-02-01,2023-01-27,株式会社ポッカクリエイト,,株式会社,東京都,千代田区,九段南４丁目８番２１号,,13,101,1020074,,,2023-01-27,合併による解散等,1010001190193,令和５年１月１日東京都港区芝大門二丁目１０番１２号Ｃ－Ｕｎｉｔｅｄ株式会社（1010001190193）に合併し解散,2015-10-05,1,,,,,ポッカクリエイト,0
817,4011101043949,登記記録の閉鎖等,0,2023-02-01,2023-01-30,株式会社アークシェルズ,,株式会社,東京都,新宿区,西新宿１丁目２６番２号新宿野村ビル３４階ＡＩＵオフィス,,13,104,1600023,,,2023-01-30,清算の結了等,,,2015-10-05,1,,,,,アークシェルズ,0
833,4013102003816,登記記録の閉鎖等,0,2023-02-01,2023-01-30,有限会社山本総業,,有限会社,東京都,福生市,大字熊川７４９番地３,,13,218,1970003,,,2023-01-30,清算の結了等,,,2015-10-05,1,,,,,ヤマモトソウギョウ,0
845,4020002071471,登記記録の閉鎖等,0,2023-02-01,2023-01-30,有限会社フルヤ工業,,有限会社,神奈川県,横浜市南区,永田山王台３５番１－３０２号,,14,105,2320074,,,2023-01-30,清算の結了等,,,2015-10-05,1,,,,,,0
864,4040001020782,登記記録の閉鎖等,0,2023-02-01,2023-01-30,斉藤不動産株式会社,,株式会社,千葉県,八千代市,緑が丘１丁目３番地３,,12,221,2760049,,,2023-01-30,清算の結了等,,,2015-10-05,1,,,,,サイトウフドウサン,0
870,4050001009932,登記記録の閉鎖等,0,2023-02-01,2023-01-25,カトリ冷熱設備株式会社,,株式会社,茨城県,稲敷郡阿見町,大字実穀１６４３番地,,08,443,3001153,,,2023-01-25,清算の結了等,,,2015-10-05,1,,,,,カトリレイネツセツビ,0
905,4120002017200,登記記録の閉鎖等,0,2023-02-01,2023-01-31,有限会社泉ホーム,,有限会社,大阪府,大阪市住吉区,南住吉３丁目１８番６号,,27,120,5580041,,,2023-01-31,清算の結了等,,,2015-10-05,1,,,,,イズミホーム,0
916,4130001036076,登記記録の閉鎖等,0,2023-02-01,2023-01-27,タナカアパレル技研株式会社,,株式会社,京都府,亀岡市,旭町岩ケ谷７４番地,,26,206,6210001,,,2023-01-27,清算の結了等,,,2015-10-05,1,,,,,タナカアパレルギケン,0
919,4140001001970,登記記録の閉鎖等,0,2023-02-01,2023-01-30,株式会社田中電気工業所,,株式会社,兵庫県,神戸市東灘区,御影塚町２丁目７番１４号,,28,101,6580044,,,2023-01-30,清算の結了等,,,2015-10-05,1,,,,,タナカデンキコウギョウショ,0
936,4180001129305,登記記録の閉鎖等,0,2023-02-01,2023-01-30,株式会社藤武組,,株式会社,愛知県,稲沢市,平和町嫁振東７１番地,,23,220,4901323,,,2023-01-30,清算の結了等,,,2017-09-11,1,,,,,フジタケグミ,0
943,4200001025096,登記記録の閉鎖等,0,2023-02-01,2023-01-31,株式会社フェイマス,,株式会社,岐阜県,高山市,名田町４丁目７０番地,,21,203,5060021,,,2023-01-31,清算の結了等,,,2015-10-05,1,,,,,フェイマス,0
952,4250001004418,登記記録の閉鎖等,0,2023-02-01,2023-01-30,ケイエム設計株式会社,,株式会社,山口県,宇部市,亀浦２丁目６番１０－３号,,35,202,7550002,,,2023-01-30,登記官による閉鎖,,,2015-10-05,1,,,,,,0
953,4250001011835,登記記録の閉鎖等,0,2023-02-01,2023-01-30,ミヤマ造船株式会社,,株式会社,山口県,岩国市,由宇町南沖２丁目４番１号,,35,208,7401425,,,2023-01-30,登記官による閉鎖,,,2015-10-05,1,,,,,,0
954,4250002005027,登記記録の閉鎖等,0,2023-02-01,2023-01-30,西南開発有限会社,,有限会社,山口県,宇部市,大字東須恵２６０７番地の１,,35,202,7590206,,,2023-01-30,登記官による閉鎖,,,2015-10-05,1,,,,,,0
955,4250002008764,登記記録の閉鎖等,0,2023-02-01,2023-01-30,有限会社共装,,有限会社,山口県,下関市,大字田倉８４５番地の１,,35,201,7510883,,,2023-01-30,登記官による閉鎖,,,2015-10-05,1,,,,,,0
956,4250002009093,登記記録の閉鎖等,0,2023-02-01,2023-01-30,有限会社サンカーナ薬品,,有限会社,山口県,下関市,一の宮本町１丁目６番１４号,,35,201,7510808,,,2023-01-30,登記官による閉鎖,,,2015-10-05,1,,,,,,0
957,4250002012790,登記記録の閉鎖等,0,2023-02-01,2023-01-30,有限会社膳家,,有限会社,山口県,下関市,清末鞍馬３丁目３番２２号,,35,201,7501153,,,2023-01-30,登記官による閉鎖,,,2015-10-05,1,,,,,,0
958,4250002014399,登記記録の閉鎖等,0,2023-02-01,2023-01-30,有限会社ウエダ,,有限会社,山口県,周南市,築港町１１番１号,,35,215,7450025,,,2023-01-30,登記官による閉鎖,,,2015-10-05,1,,,,,,0
960,4250002018292,登記記録の閉鎖等,0,2023-02-01,2023-01-30,有限会社ディースペース,,有限会社,山口県,岩国市,室の木町３丁目１番４８号,,35,208,7400021,,,2023-01-30,登記官による閉鎖,,,2015-10-05,1,,,,,,0
961,4250002019274,登記記録の閉鎖等,0,2023-02-01,2023-01-30,有限会社アドバンスコーポレーション,,有限会社,山口県,岩国市,門前町３丁目１５番２８号,,35,208,7400031,,,2023-01-30,登記官による閉鎖,,,2015-10-05,1,,,,,,0
962,4250005000636,登記記録の閉鎖等,0,2023-02-01,2023-01-30,企業組合同和木材工業所,,その他の設立登記法人,山口県,山口市,本町１丁目１番２４号,,35,203,7530046,,,2023-01-30,登記官による閉鎖,,,2015-10-05,1,,,,,,0
963,4250005001592,登記記録の閉鎖等,0,2023-02-01,2023-01-30,フオーム印刷製版協同組合,,その他の設立登記法人,山口県,防府市,大字台道６３５番地２,,35,206,7471232,,,2023-01-30,登記官による閉鎖,,,2015-10-05,1,,,,,,0
964,4260001003856,登記記録の閉鎖等,0,2023-02-01,2023-01-31,株式会社藤原ケンザイ,,株式会社,岡山県,岡山市中区,海吉１５８６番地の６,,33,102,7038261,,,2023-01-31,清算の結了等,,,2015-10-05,1,,,,,フジワラケンザイ,0
966,4290001016062,登記記録の閉鎖等,0,2023-02-01,2023-01-31,福岡黒板株式会社,,株式会社,福岡県,福岡市博多区,東那珂１丁目１番９号,,40,132,8120892,,,2023-01-31,清算の結了等,,,2015-10-05,1,,,,,フクオカコクバン,0
1040,5010601010648,登記記録の閉鎖等,0,2023-02-01,2023-01-31,株式会社現代,,株式会社,東京都,墨田区,江東橋３丁目１３番６号錦糸相互ビル３階,,13,107,1300022,,,2023-01-31,登記官による閉鎖,,,2015-10-05,1,,,,,,0
1041,5010601016942,登記記録の閉鎖等,0,2023-02-01,2023-01-31,株式会社リビー企画,,株式会社,東京都,墨田区,両国２丁目１７番１７号,,13,107,1300026,,,2023-01-31,登記官による閉鎖,,,2015-10-05,1,,,,,,0
1044,5010601027931,登記記録の閉鎖等,0,2023-02-01,2023-01-26,株式会社アイデス,,株式会社,東京都,墨田区,太平４丁目１３番２号,,13,107,1300012,,,2023-01-26,清算の結了等,,,2015-10-05,1,,,,,,0
1045,5010601033442,登記記録の閉鎖等,0,2023-02-01,2023-01-31,株式会社ビルドカンパニー,,株式会社,東京都,墨田区,吾妻橋１丁目２３番３０－２８１１号,,13,107,1300001,,,2023-01-31,登記官による閉鎖,,,2015-10-05,1,,,,,,0
1046,5010601036750,登記記録の閉鎖等,0,2023-02-01,2023-01-31,株式会社トライアイ,,株式会社,東京都,墨田区,石原３丁目３４番２号,,13,107,1300011,,,2023-01-31,登記官による閉鎖,,,2015-10-05,1,,,,,,0
1047,5010601037113,登記記録の閉鎖等,0,2023-02-01,2023-01-31,総合探偵社シェリー株式会社,,株式会社,東京都,墨田区,向島２丁目２１番１０－４１０号,,13,107,1310033,,,2023-01-31,登記官による閉鎖,,,2015-10-05,1,,,,,,0
1048,5010601039076,登記記録の閉鎖等,0,2023-02-01,2023-01-31,ＩＯＳ＆ＡＳＳＯＣＩＡＴＥＳ株式会社,,株式会社,東京都,墨田区,石原２丁目２６番１０号,,13,107,1300011,,,2023-01-31,登記官による閉鎖,,,2015-10-05,1,,,,,,0
1049,5010601041305,登記記録の閉鎖等,0,2023-02-01,2023-01-31,株式会社リン,,株式会社,東京都,江東区,有明３丁目７番２６号,,13,108,1350063,,,2023-01-31,登記官による閉鎖,,,2015-10-05,1,,,,,,0
1050,5010602011216,登記記録の閉鎖等,0,2023-02-01,2023-01-31,有限会社小林工業所,,有限会社,東京都,墨田区,立川３丁目１７番１１号,,13,107,1300023,,,2023-01-31,登記官による閉鎖,,,2015-10-05,1,,,,,,0
1051,5010602012899,登記記録の閉鎖等,0,2023-02-01,2023-01-31,有限会社東邦金型製作所,,有限会社,東京都,墨田区,墨田３丁目１８番２号,,13,107,1310031,,,2023-01-31,登記官による閉鎖,,,2015-10-05,1,,,,,,0
1052,5010602015935,登記記録の閉鎖等,0,2023-02-01,2023-01-31,有限会社豊田製作所,,有限会社,東京都,墨田区,立花５丁目１８番１３号,,13,107,1310043,,,2023-01-31,登記官による閉鎖,,,2015-10-05,1,,,,,,0
1053,5010602022766,登記記録の閉鎖等,0,2023-02-01,2023-01-31,有限会社センチュリー・アーツ,,有限会社,東京都,江東区,亀戸６丁目３２番６号,,13,108,1360071,,,2023-01-31,登記官による閉鎖,,,2015-10-05,1,,,,,,0
1054,5010602025083,登記記録の閉鎖等,0,2023-02-01,2023-01-31,有限会社テクノエージェンシー,,有限会社,東京都,江東区,東砂１丁目１番１－５１５号,,13,108,1360074,,,2023-01-31,登記官による閉鎖,,,2015-10-05,1,,,,,,0
1055,5010602026214,登記記録の閉鎖等,0,2023-02-01,2023-01-31,有限会社エスアール,,有限会社,東京都,江東区,大島５丁目３３番１５号,,13,108,1360072,,,2023-01-31,登記官による閉鎖,,,2015-10-05,1,,,,,,0
1056,5010602031370,登記記録の閉鎖等,0,2023-02-01,2023-01-31,有限会社オフィスエム,,有限会社,東京都,江東区,東雲１丁目９番１２－１１０２号,,13,108,1350062,,,2023-01-31,登記官による閉鎖,,,2015-10-05,1,,,,,,0
1057,5010602032088,登記記録の閉鎖等,0,2023-02-01,2023-01-31,有限会社ＧＡ’Ｓ,,有限会社,東京都,墨田区,江東橋２丁目１１番１４号,,13,107,1300022,,,2023-01-31,登記官による閉鎖,,,2015-10-05,1,,,,,,0
1058,5010602032807,登記記録の閉鎖等,0,2023-02-01,2023-01-31,有限会社フルサウンド・オフイス,,有限会社,東京都,墨田区,横川１丁目１番１０号,,13,107,1300003,,,2023-01-31,登記官による閉鎖,,,2015-10-05,1,,,,,,0
1059,5010605001619,登記記録の閉鎖等,0,2023-02-01,2023-01-31,特定非営利活動法人ふれあいの会,,その他の設立登記法人,東京都,墨田区,千歳３丁目１４番１１号,,13,107,1300025,,,2023-01-31,登記官による閉鎖,,,2015-10-05,1,,,,,,0
1064,5010801008789,登記記録の閉鎖等,0,2023-02-01,2023-01-23,ナショナル・エステート株式会社,,株式会社,東京都,大田区,山王３丁目１７番３号,,13,111,1430023,,,2023-01-23,清算の結了等,,,2015-10-05,1,,,,,ナショナルエステート,0
1065,5010801015133,登記記録の閉鎖等,0,2023-02-01,2023-01-24,リンク・パワー株式会社,,株式会社,東京都,大田区,田園調布１丁目３５番２号,,13,111,1450071,,,2023-01-24,清算の結了等,,,2015-10-05,1,,,,,リンクパワー,0
1074,5011001121523,登記記録の閉鎖等,0,2023-02-01,2023-01-27,株式会社ユースラッシュ,,株式会社,東京都,渋谷区,渋谷１丁目１５番１２号ＬＡＩＤＯＵＴＳＨＩＢＵＹＡ５０３,,13,113,1500002,,,2023-01-27,合併による解散等,4010401081592,令和４年１２月３１日東京都港区白金台五丁目１２番７号株式会社キャリアインデックス（4010401081592）に合併し解散,2018-04-09,1,,,,,ユースラッシュ,0
1088,5011701003566,登記記録の閉鎖等,0,2023-02-01,2023-01-30,株式会社三洋鉄工,,株式会社,東京都,江戸川区,北篠崎２丁目２８番１４号,,13,123,1330053,,,2023-01-30,清算の結了等,,,2015-10-05,1,,,,,サンヨウテッコウ,0
1089,5011702017086,登記記録の閉鎖等,0,2023-02-01,2023-01-30,有限会社夢現,,有限会社,千葉県,市川市,湊新田１丁目３番１５号,,12,203,2720132,,,2023-01-30,清算の結了等,,,2015-10-05,1,,,,,ムゲン,0
1106,5020003007647,登記記録の閉鎖等,0,2023-02-01,2023-01-30,合同会社モンチャック,,合同会社,神奈川県,横浜市戸塚区,戸塚町３１２番地１,,14,110,2440003,,,2023-01-30,清算の結了等,,,2015-10-05,1,,,,,モンチャック,0
1116,5021002005369,登記記録の閉鎖等,0,2023-02-01,2023-01-30,有限会社来夢亭,,有限会社,神奈川県,藤沢市,鵠沼海岸２丁目５番１８号,,14,205,2510037,,,2023-01-30,清算の結了等,,,2015-10-05,1,,,,,ライムテイ,0
1119,5030001058212,登記記録の閉鎖等,0,2023-02-01,2023-01-30,株式会社トラスト,,株式会社,埼玉県,川越市,南台２丁目４番地２０,,11,201,3501165,,,2023-01-30,清算の結了等,,,2015-10-05,1,,,,,トラスト,0
1124,5030001125466,登記記録の閉鎖等,0,2023-02-01,2023-01-16,株式会社フクシクリニックモール,,株式会社,埼玉県,さいたま市緑区,芝原３丁目２５番地１５,,11,109,3360917,,,2023-01-16,合併による解散等,1030001113631,令和５年１月１日埼玉県さいたま市緑区芝原三丁目２５番地１５株式会社フクシファシリティーズ（1030001113631）に合併し解散,2018-05-07,1,,,,,フクシクリニックモール,0
1130,5030001139177,登記記録の閉鎖等,0,2023-02-01,2023-01-27,ホンダ・テック株式会社,,株式会社,埼玉県,八潮市,大字二丁目４７１番地１,,11,234,3400811,,,2023-01-27,清算の結了等,,,2020-11-11,1,,,,,ホンダテック,0
1133,5030002113395,登記記録の閉鎖等,0,2023-02-01,2023-01-30,有限会社佐藤製作所,,有限会社,埼玉県,熊谷市,三ヶ尻３８２４番地,,11,202,3600843,,,2023-01-30,清算の結了等,,,2015-10-05,1,,,,,サトウセイサクジョ,0
1156,5060001018361,登記記録の閉鎖等,0,2023-02-01,2023-01-30,株式会社エーエヌエス,,株式会社,栃木県,足利市,樺崎町８５３番地１,,09,202,3260004,,,2023-01-30,清算の結了等,,,2015-10-05,1,,,,,エーエヌエス,0
1161,5080001002875,登記記録の閉鎖等,0,2023-02-01,2023-01-31,株式会社静岡中央ビル,,株式会社,静岡県,静岡市葵区,七間町７番地の４,,22,101,4200035,,,2023-01-31,清算の結了等,,,2015-10-05,1,,,,,シズオカチュウオウビル,0
1162,5080002011504,登記記録の閉鎖等,0,2023-02-01,2023-01-30,有限会社山田ラジオ店,,有限会社,静岡県,静岡市清水区,梅田町４番１１号,,22,103,4240948,,,2023-01-30,清算の結了等,,,2015-10-05,1,,,,,ヤマダラジオテン,0
1166,5100001013614,登記記録の閉鎖等,0,2023-02-01,2023-01-27,株式会社ツタヤ,,株式会社,長野県,松本市,宮渕２丁目８番５号,,20,202,3900862,,,2023-01-27,清算の結了等,,,2015-10-05,1,,,,,ツタヤ,0
1178,5120002038030,登記記録の閉鎖等,0,2023-02-01,2023-01-25,有限会社彦,,有限会社,大阪府,大阪市東住吉区,駒川１丁目１６番６号,,27,121,5460043,,,2023-01-25,清算の結了等,,,2015-10-05,1,,,,,ヒコ,0
1208,5170001010951,登記記録の閉鎖等,0,2023-02-01,2023-01-30,紀泉綜合企画株式会社,,株式会社,和歌山県,橋本市,高野口町応其９番地,,30,203,6497201,,,2023-01-30,清算の結了等,,,2015-10-05,1,,,,,キセンソウゴウキカク,0
1214,5180303003677,登記記録の閉鎖等,0,2023-02-01,2023-01-26,合同会社コプチャイ,,合同会社,愛知県,豊橋市,萱町１４番地,,23,201,4400896,,,2023-01-26,清算の結了等,,,2016-08-19,1,,,,,コプチャイ,0
1219,5190001012657,登記記録の閉鎖等,0,2023-02-01,2023-01-30,諸岡木材工業株式会社,,株式会社,三重県,桑名市,北鍋屋町７２番地,,24,205,5110066,,,2023-01-30,清算の結了等,,,2015-10-05,1,,,,,モロオカモクザイコウギョウ,0
1223,5200001004140,登記記録の閉鎖等,0,2023-02-01,2023-01-31,株式会社野村,,株式会社,岐阜県,岐阜市,茜部本郷１丁目６３番地の１,,21,201,5008262,,,2023-01-31,清算の結了等,,,2015-10-05,1,,,,,ノムラ,0
1230,5230001019557,登記記録の閉鎖等,0,2023-02-01,2023-01-24,野山産興株式会社,,株式会社,富山県,富山市,緑町１丁目３番１８号,,16,201,9300038,,,2023-01-24,清算の結了等,,,2022-10-28,1,,,,,,0
1234,5240005009982,登記記録の閉鎖等,0,2023-02-01,2023-01-27,ラクサス協同組合,,その他の設立登記法人,広島県,尾道市,東尾道１５番地７,,34,205,7220051,,,2023-01-27,清算の結了等,,,2015-10-05,1,,,,,ラクサス,0
1235,5250001009861,登記記録の閉鎖等,0,2023-02-01,2023-01-30,株式会社礒村,,株式会社,山口県,周南市,川手１丁目５番１１－２号,,35,215,7460009,,,2023-01-30,登記官による閉鎖,,,2015-10-05,1,,,,,,0
1236,5250001012295,登記記録の閉鎖等,0,2023-02-01,2023-01-30,株式会社中澤工業,,株式会社,山口県,岩国市,藤生町４丁目１番３号,,35,208,7400036,,,2023-01-30,登記官による閉鎖,,,2015-10-05,1,,,,,,0
1237,5250002005414,登記記録の閉鎖等,0,2023-02-01,2023-01-30,有限会社西本工業所,,有限会社,山口県,宇部市,床波４丁目２番１５号,,35,202,7550153,,,2023-01-30,登記官による閉鎖,,,2015-10-05,1,,,,,,0
1238,5250002005538,登記記録の閉鎖等,0,2023-02-01,2023-01-30,有限会社廣井工業,,有限会社,山口県,宇部市,沼１丁目５番２０号,,35,202,7550085,,,2023-01-30,登記官による閉鎖,,,2015-10-05,1,,,,,,0
1239,5250002008573,登記記録の閉鎖等,0,2023-02-01,2023-01-30,有限会社割烹なかを,00002643,有限会社,山口県,下関市,赤間町４番６号,,35,201,7500007,,,2023-01-30,登記官による閉鎖,,,2015-10-05,1,,,,,,0
1240,5250005006112,登記記録の閉鎖等,0,2023-02-01,2023-01-30,岩国内航海運協業組合,,その他の設立登記法人,山口県,岩国市,新港町４丁目７番３３号,,35,208,7400002,,,2023-01-30,登記官による閉鎖,,,2015-10-05,1,,,,,,0
1243,5280001000149,登記記録の閉鎖等,0,2023-02-01,2023-01-31,金織肥糧株式会社,,株式会社,島根県,松江市,浜乃木３丁目４番１５－６０２号,,32,201,6900044,,,2023-01-31,清算の結了等,,,2015-10-05,1,,,,,カナオリヒリョウ,0
1245,5290001027793,登記記録の閉鎖等,0,2023-02-01,2023-01-30,日本ハートサポートネットワーク株式会社,,株式会社,福岡県,福岡市早良区,百道浜２丁目４番２７号,,40,137,8140001,,,2023-01-30,清算の結了等,,,2015-10-05,1,,,,,ニホンハートサポートネットワーク,0
1254,5320001009136,登記記録の閉鎖等,0,2023-02-01,2023-01-30,株式会社保田屋,,株式会社,大分県,佐伯市,船頭町８番２１号,,44,205,8760832,,,2023-01-30,清算の結了等,,,2015-10-05,1,,,,,,0
1256,5320002003393,登記記録の閉鎖等,0,2023-02-01,2023-01-31,有限会社篠田装飾,,有限会社,大分県,大分市,古国府６丁目２番３５号,,44,201,8700844,,,2023-01-31,清算の結了等,,,2015-10-05,1,,,,,シノダソウショク,0
1296,6010405014877,登記記録の閉鎖等,0,2023-02-01,2023-01-17,一般社団法人ＳＨ１３,,その他の設立登記法人,東京都,港区,元赤坂１丁目１番８号株式会社赤坂国際会計内,,13,103,1070051,,,2023-01-17,清算の結了等,,,2016-06-13,1,,,,,エスエイチジュウサン,0
1299,6010601005028,登記記録の閉鎖等,0,2023-02-01,2023-01-31,株式会社日興アパル,,株式会社,東京都,江東区,海辺９番８号,,13,108,1350012,,,2023-01-31,登記官による閉鎖,,,2015-10-05,1,,,,,,0
1300,6010601007057,登記記録の閉鎖等,0,2023-02-01,2023-01-31,丸越商事株式会社,,株式会社,東京都,江東区,辰巳３丁目１８番６号,,13,108,1350053,,,2023-01-31,登記官による閉鎖,,,2015-10-05,1,,,,,,0
1301,6010601007148,登記記録の閉鎖等,0,2023-02-01,2023-01-31,株式会社宮田,,株式会社,東京都,江東区,平野２丁目８番１０－７０３号,,13,108,1350023,,,2023-01-31,登記官による閉鎖,,,2015-10-05,1,,,,,,0
1302,6010601026602,登記記録の閉鎖等,0,2023-02-01,2023-01-31,ヒロ・ジャパン株式会社,,株式会社,東京都,江東区,大島５丁目４７番５号,,13,108,1360072,,,2023-01-31,登記官による閉鎖,,,2015-10-05,1,,,,,,0
1303,6010601039109,登記記録の閉鎖等,0,2023-02-01,2023-01-31,家楽苑商事株式会社,,株式会社,東京都,江東区,大島４丁目３番地１２号岡ビル２Ｆ,,13,108,1360072,,,2023-01-31,登記官による閉鎖,,,2015-10-05,1,,,,,,0
1304,6010601041733,登記記録の閉鎖等,0,2023-02-01,2023-01-31,株式会社ファーストサイド,,株式会社,東京都,江東区,豊洲１丁目３番１号ＭＬ,,13,108,1350061,,,2023-01-31,登記官による閉鎖,,,2015-10-05,1,,,,,,0
1306,6010602004326,登記記録の閉鎖等,0,2023-02-01,2023-01-31,有限会社太陽社,,有限会社,東京都,江東区,亀戸９丁目７番１号,,13,108,1360071,,,2023-01-31,登記官による閉鎖,,,2015-10-05,1,,,,,,0
1307,6010602010753,登記記録の閉鎖等,0,2023-02-01,2023-01-31,有限会社埼玉紙器加工,,有限会社,東京都,墨田区,東向島３丁目１４番１３号,,13,107,1310032,,,2023-01-31,登記官による閉鎖,,,2015-10-05,1,,,,,,0
1308,6010602021057,登記記録の閉鎖等,0,2023-02-01,2023-01-31,有限会社丸八テント,,有限会社,東京都,江東区,北砂２丁目１４番１５号,,13,108,1360073,,,2023-01-31,登記官による閉鎖,,,2015-10-05,1,,,,,,0
1309,6010602022757,登記記録の閉鎖等,0,2023-02-01,2023-01-31,有限会社関長,,有限会社,東京都,墨田区,江東橋５丁目２番２３号,,13,107,1300022,,,2023-01-31,登記官による閉鎖,,,2015-10-05,1,,,,,,0
1310,6010602026056,登記記録の閉鎖等,0,2023-02-01,2023-01-31,有限会社三営工業,,有限会社,東京都,墨田区,向島４丁目３番８－３０２号,,13,107,1310033,,,2023-01-31,登記官による閉鎖,,,2015-10-05,1,,,,,,0
1311,6010602031221,登記記録の閉鎖等,0,2023-02-01,2023-01-31,有限会社エフディエス,,有限会社,東京都,墨田区,八広４丁目５１番２号,,13,107,1310041,,,2023-01-31,登記官による閉鎖,,,2015-10-05,1,,,,,,0
1359,6013303001014,登記記録の閉鎖等,0,2023-02-01,2023-01-31,栄喜堂商事合資会社,,合資会社,東京都,豊島区,南長崎３丁目６番１４号,,13,116,1710052,,,2023-01-31,清算の結了等,,,2015-10-05,1,,,,,エイキドウショウジ,0
1360,6020001037595,登記記録の閉鎖等,0,2023-02-01,2023-01-30,スリーエフ・オンライン株式会社,,株式会社,神奈川県,横浜市中区,日本大通１７番地,,14,104,2310021,,,2023-01-30,清算の結了等,,,2015-10-05,1,,,,,スリーエフオンライン,0
1362,6020005013411,登記記録の閉鎖等,0,2023-02-01,2023-01-27,特定非営利活動法人ほっと,,その他の設立登記法人,神奈川県,川崎市宮前区,神木本町４丁目８番２４－１０１号,,14,136,2160031,,,2023-01-27,清算の結了等,,,2017-12-15,1,,,,,ホット,0
1371,6030001034113,登記記録の閉鎖等,0,2023-02-01,2023-01-27,株式会社ヒューレインターナショナル,,株式会社,埼玉県,加須市,南町１６番８３号,,11,210,3470031,,,2023-01-27,清算の結了等,,,2015-10-05,1,,,,,ヒューレインターナショナル,0
1384,6030002118484,登記記録の閉鎖等,0,2023-02-01,2023-01-26,有限会社オールウェイズ,,有限会社,埼玉県,深谷市,上柴町東２丁目３番地１７,,11,218,3660051,,,2023-01-26,清算の結了等,,,2015-10-05,1,,,,,オールウェイズ,0
1387,6040001003612,登記記録の閉鎖等,0,2023-02-01,2023-01-30,住重ロジテック株式会社,,株式会社,千葉県,千葉市稲毛区,長沼原町７３１番地１,,12,103,2630001,,,2023-01-30,合併による解散等,9010701005032,令和５年１月１日東京都品川区大崎二丁目１番１号住友重機械工業株式会社（9010701005032）に合併し解散,2015-10-05,1,,,,,スミジュウロジテック,0
1410,6070002015075,登記記録の閉鎖等,0,2023-02-01,2023-01-27,有限会社深堀板金,,有限会社,群馬県,安中市,松井田町上増田９９１番地１,,10,211,3790211,,,2023-01-27,清算の結了等,,,2015-10-05,1,,,,,フカボリバンキン,0
1414,6080102003664,登記記録の閉鎖等,0,2023-02-01,2023-01-31,有限会社山新商店,,有限会社,静岡県,沼津市,原９５４番地の１,,22,203,4100312,,,2023-01-31,清算の結了等,,,2015-10-05,1,,,,,ヤマシンショウテン,0
1422,6110002011342,登記記録の閉鎖等,0,2023-02-01,2023-01-31,有限会社八百仙商店,,有限会社,新潟県,新潟市西蒲区,岩室温泉５８７番地,,15,108,9530104,,,2023-01-31,清算の結了等,,,2015-10-05,1,,,,,ヤオセンショウテン,0
1426,6120001016399,登記記録の閉鎖等,0,2023-02-01,2023-01-24,明和住研株式会社,,株式会社,大阪府,大阪市城東区,今福東２丁目９番２６号,,27,118,5360002,,,2023-01-24,清算の結了等,,,2022-11-22,1,,,,,メイワジュウケン,0
1443,6130001033022,登記記録の閉鎖等,0,2023-02-01,2023-01-25,株式会社伏見保安産業,,株式会社,京都府,宇治市,槇島町吹前４６番地の４,,26,204,6110041,,,2023-01-25,清算の結了等,,,2015-10-05,1,,,,,フシミホアンサンギョウ,0
1457,6150003002650,登記記録の閉鎖等,0,2023-02-01,2023-01-23,合同会社愛と調和,,合同会社,奈良県,北葛城郡王寺町,元町２丁目１５番１７号,,29,425,6360013,,,2023-01-23,清算の結了等,,,2022-03-24,1,,,,,アイトチョウワ,0
1463,6180001112127,登記記録の閉鎖等,0,2023-02-01,2023-01-27,ジュプラ工業株式会社,,株式会社,愛知県,名古屋市守山区,青葉台５０１番地,,23,113,4630815,,,2023-01-27,清算の結了等,,,2015-10-05,1,,,,,ジュプラコウギョウ,0
1471,6200003003263,登記記録の閉鎖等,0,2023-02-01,2023-02-01,合同会社加藤商事,,合同会社,岐阜県,各務原市,鵜沼朝日町４丁目２８７番地２,,21,213,5090145,,,2023-02-01,清算の結了等,,,2015-10-05,1,,,,,カトウショウジ,0
1472,6200003004220,登記記録の閉鎖等,0,2023-02-01,2023-01-30,Ｔ＆Ｔ合同会社,,合同会社,岐阜県,瑞穂市,生津内宮町２丁目５４,,21,216,5010213,,,2023-01-30,清算の結了等,,,2018-06-13,1,,,,,ティーアンドティー,0
1480,6240002009308,登記記録の閉鎖等,0,2023-02-01,2023-01-31,有限会社大京,,有限会社,広島県,広島市南区,翠３丁目６番２４号,00000805,34,103,7340005,,,2023-01-31,清算の結了等,,,2015-10-05,1,,,,,ダイキョウ,0
1483,6250001003145,登記記録の閉鎖等,0,2023-02-01,2023-01-30,株式会社教育文化社,,株式会社,山口県,宇部市,大字際波字南開作１３９７番地の３,,35,202,7590207,,,2023-01-30,登記官による閉鎖,,,2015-10-05,1,,,,,,0
1485,6250002007186,登記記録の閉鎖等,0,2023-02-01,2023-01-30,有限会社毎日新聞宇部販売,,有限会社,山口県,宇部市,松山町１丁目１０番９号,,35,202,7550026,,,2023-01-30,登記官による閉鎖,,,2015-10-05,1,,,,,,0
1487,6250002008143,登記記録の閉鎖等,0,2023-02-01,2023-01-30,井上電器有限会社,,有限会社,山口県,下関市,長府中之町２番７号,,35,201,7520973,,,2023-01-30,登記官による閉鎖,,,2015-10-05,1,,,,,,0
1488,6250002019660,登記記録の閉鎖等,0,2023-02-01,2023-01-30,有限会社共和不動産,,有限会社,山口県,柳井市,古開作４２５番地の１,,35,212,7420032,,,2023-01-30,登記官による閉鎖,,,2015-10-05,1,,,,,,0
1489,6250003002764,登記記録の閉鎖等,0,2023-02-01,2023-01-26,合同会社オフィス・エヌ,,合同会社,山口県,山口市,矢原６４２番地１,,35,203,7530861,,,2023-01-26,清算の結了等,,,2021-02-01,1,,,,,オフィスエヌ,0
1490,6250005004206,登記記録の閉鎖等,0,2023-02-01,2023-01-30,下関事業開発協同組合,,その他の設立登記法人,山口県,下関市,小月小島２丁目７番３２号,,35,201,7501136,,,2023-01-30,登記官による閉鎖,,,2015-10-05,1,,,,,,0
1493,6260001002591,登記記録の閉鎖等,0,2023-02-01,2023-02-01,株式会社アメニス,,株式会社,岡山県,岡山市北区,野田３丁目２２番１７号,,33,101,7000971,,,2023-02-01,合併による解散等,8260001003051,令和５年２月１日岡山市中区神下９８番地の６株式会社三友土質エンジニアリング（8260001003051）に合併し解散,2015-10-05,1,,,,,アメニス,0
1502,6340002023959,登記記録の閉鎖等,0,2023-02-01,2023-01-30,有限会社カセダフォト,,有限会社,鹿児島県,南さつま市,加世田地頭所１３４５番地５,,46,220,8970008,,,2023-01-30,清算の結了等,,,2015-10-05,1,,,,,カセダフォト,0
1513,6390001010838,登記記録の閉鎖等,0,2023-02-01,2023-01-27,株式会社アース工業,,株式会社,山形県,東置賜郡高畠町,大字三条目１９０番地３,,06,381,9920331,,,2023-01-27,清算の結了等,,,2015-10-05,1,,,,,,0
1514,6400001006644,登記記録の閉鎖等,0,2023-02-01,2023-01-30,小林土木工業株式会社,,株式会社,岩手県,遠野市,松崎町白岩２３地割６０番地の３,,03,208,0280541,,,2023-01-30,清算の結了等,,,2015-10-05,1,,,,,コバヤシドボクコウギョウ,0
1523,6430005013584,登記記録の閉鎖等,0,2023-02-01,2023-01-31,特定非営利活動法人あいまち,,その他の設立登記法人,北海道,石狩市,花川南二条３丁目９１番地２,,01,235,0613202,,,2023-01-31,清算の結了等,,,2019-01-21,1,,,,,アイマチ,0
1526,6460103001265,登記記録の閉鎖等,0,2023-02-01,2023-01-30,合同会社オンリワン,,合同会社,北海道,帯広市,東四条南１４丁目６番地３号クラックスハイム第３帯広１階Ｄ,,01,207,0800804,,,2023-01-30,清算の結了等,,,2020-02-05,1,,,,,オンリワン,0
1527,6460301003294,登記記録の閉鎖等,0,2023-02-01,2023-01-30,ライテック電工株式会社,,株式会社,北海道,網走市,つくしケ丘２丁目８８番地の４０４,,01,211,0930034,,,2023-01-30,清算の結了等,,,2015-10-05,1,,,,,ライテックデンコウ,0
1531,6500002004661,登記記録の閉鎖等,0,2023-02-01,2023-01-31,道後産業有限会社,,有限会社,愛媛県,松山市,道後緑台６番３１号,,38,201,7900847,,,2023-01-31,清算の結了等,,,2015-10-05,1,,,,,ドウゴサンギョウ,0
1548,7010005016777,登記記録の閉鎖等,0,2023-02-01,2023-01-30,特定非営利活動法人家族の愛ぬくもり基金,,その他の設立登記法人,東京都,中央区,銀座８丁目１４番１１号株式会社プロメディア内,,13,102,1040061,,,2023-01-30,清算の結了等,,,2015-10-05,1,,,,,,0
1561,7010601000325,登記記録の閉鎖等,0,2023-02-01,2023-01-31,亀田工業株式会社,,株式会社,東京都,江東区,住吉２丁目１４番１２号,,13,108,1350002,,,2023-01-31,登記官による閉鎖,,,2015-10-05,1,,,,,,0
1562,7010601002866,登記記録の閉鎖等,0,2023-02-01,2023-01-31,城東立駐販売株式会社,,株式会社,東京都,江東区,石島２２番１１号,,13,108,1350014,,,2023-01-31,登記官による閉鎖,,,2015-10-05,1,,,,,,0
1563,7010601024992,登記記録の閉鎖等,0,2023-02-01,2023-01-31,株式会社ワールド・ユニオン,,株式会社,東京都,江東区,門前仲町１丁目１４番１号,,13,108,1350048,,,2023-01-31,登記官による閉鎖,,,2015-10-05,1,,,,,,0
1564,7010601025776,登記記録の閉鎖等,0,2023-02-01,2023-01-31,ハウス・ツール株式会社,,株式会社,東京都,墨田区,緑４丁目２０番１０号,,13,107,1300021,,,2023-01-31,登記官による閉鎖,,,2015-10-05,1,,,,,,0
1565,7010601030883,登記記録の閉鎖等,0,2023-02-01,2023-01-31,株式会社青空,,株式会社,東京都,江東区,新木場１丁目１４番５号,,13,108,1360082,,,2023-01-31,登記官による閉鎖,,,2015-10-05,1,,,,,,0
1566,7010601034950,登記記録の閉鎖等,0,2023-02-01,2023-01-31,株式会社ＢＲＡＮＣＨ,,株式会社,東京都,江東区,新木場４丁目６番１２号,,13,108,1360082,,,2023-01-31,登記官による閉鎖,,,2015-10-05,1,,,,,,0
1567,7010601040511,登記記録の閉鎖等,0,2023-02-01,2023-01-31,株式会社ユニバース,,株式会社,東京都,墨田区,江東橋４丁目９番４号阿部ビル３０２号室,,13,107,1300022,,,2023-01-31,登記官による閉鎖,,,2015-10-05,1,,,,,,0
1568,7010602000431,登記記録の閉鎖等,0,2023-02-01,2023-01-31,有限会社岩崎製作所,,有限会社,東京都,江東区,東砂３丁目８番１１号,,13,108,1360074,,,2023-01-31,登記官による閉鎖,,,2015-10-05,1,,,,,,0
1569,7010602015479,登記記録の閉鎖等,0,2023-02-01,2023-01-31,有限会社優莫,,有限会社,東京都,墨田区,両国４丁目１４番５号,,13,107,1300026,,,2023-01-31,登記官による閉鎖,,,2015-10-05,1,,,,,,0
1570,7010602016262,登記記録の閉鎖等,0,2023-02-01,2023-01-31,有限会社鷲島工務店,,有限会社,東京都,墨田区,八広４丁目５１番９号,,13,107,1310041,,,2023-01-31,登記官による閉鎖,,,2015-10-05,1,,,,,,0
1571,7010602023432,登記記録の閉鎖等,0,2023-02-01,2023-01-31,有限会社大須賀コーポレーション,,有限会社,東京都,江東区,北砂３丁目２番４号,,13,108,1360073,,,2023-01-31,登記官による閉鎖,,,2015-10-05,1,,,,,,0
1572,7010603004514,登記記録の閉鎖等,0,2023-02-01,2023-01-31,Ｌｉｂｒｅ合同会社,,合同会社,東京都,江東区,佐賀２丁目７番２号,,13,108,1350031,,,2023-01-31,登記官による閉鎖,,,2015-10-05,1,,,,,,0
1583,7011001058474,登記記録の閉鎖等,0,2023-02-01,2023-01-18,株式会社バローズ,,株式会社,東京都,港区,赤坂７丁目９番７号,,13,103,1070052,,,2023-01-18,清算の結了等,,,2015-10-05,1,,,,,,0
1597,7011101064240,登記記録の閉鎖等,0,2023-02-01,2023-01-31,株式会社スピード,,株式会社,東京都,墨田区,向島５丁目３４番１－１０２号,,13,107,1310033,,,2023-01-31,登記官による閉鎖,,,2015-10-05,1,,,,,,0
1621,7013301017523,登記記録の閉鎖等,0,2023-02-01,2023-01-27,株式会社自然文化研究所,,株式会社,東京都,豊島区,池袋２丁目６７番１号,,13,116,1710014,,,2023-01-27,清算の結了等,,,2015-10-05,1,,,,,シゼンブンカケンキュウショ,0
1625,7020001076519,登記記録の閉鎖等,0,2023-02-01,2023-01-30,株式会社ビクトリー・ロード,,株式会社,神奈川県,川崎市川崎区,鋼管通２丁目１２番２－３０２号,,14,131,2100852,,,2023-01-30,清算の結了等,,,2015-10-05,1,,,,,ビクトリーロード,0
1636,7021002056328,登記記録の閉鎖等,0,2023-02-01,2023-01-27,有限会社ＯＺ　Ｆａｃｔｏｒｙ,,有限会社,神奈川県,小田原市,蓮正寺８４８番地の２,00013719,14,206,2500865,,,2023-01-27,清算の結了等,,,2015-10-05,1,,,,,オズファクトリー,0
1641,7030001099329,登記記録の閉鎖等,0,2023-02-01,2023-01-27,株式会社ヤマヒロ建設,,株式会社,埼玉県,川口市,東川口５丁目５番１０号,,11,203,3330801,,,2023-01-27,清算の結了等,,,2015-10-05,1,,,,,,0
1643,7030001132139,登記記録の閉鎖等,0,2023-02-01,2023-01-27,株式会社ＨＡＬ　ｆｒｅｅｋｓ,,株式会社,埼玉県,比企郡小川町,大字小川２９２番地９,,11,343,3550321,,,2023-01-27,清算の結了等,,,2019-07-26,1,,,,,ハルフリークス,0
1665,7060002035362,登記記録の閉鎖等,0,2023-02-01,2023-01-27,有限会社足利きのこ園,,有限会社,栃木県,足利市,山下町２４８４番地５,,09,202,3260846,,,2023-01-27,清算の結了等,,,2015-10-05,1,,,,,アシカガキノコエン,0
1669,7080002015404,登記記録の閉鎖等,0,2023-02-01,2023-01-30,有限会社大塚工務店,,有限会社,静岡県,島田市,阪本３３５番地の１,,22,209,4270111,,,2023-01-30,清算の結了等,,,2015-10-05,1,,,,,オオツカコウムテン,0
1682,7120001231146,登記記録の閉鎖等,0,2023-02-01,2023-01-31,株式会社Ｆｏｒ　ｅｖｅｒｙｏｎｅ,,株式会社,大阪府,大阪市西区,南堀江３丁目６番５号Ａ’ｓ南堀江２０１号,,27,106,5500015,,,2023-01-31,清算の結了等,,,2020-08-19,1,,,,,フォーエブリワン,0
1683,7120001234140,登記記録の閉鎖等,0,2023-02-01,2023-01-26,ＪＮＣ株式会社,,株式会社,大阪府,大阪市西成区,千本南１丁目１７番２１号２０２－Ｃ室,,27,122,5570055,,,2023-01-26,清算の結了等,,,2021-01-22,1,,,,,ジェイエヌシー,0
1705,7130005008639,登記記録の閉鎖等,0,2023-02-01,2023-01-30,社会福祉法人京都南山城会,,その他の設立登記法人,京都府,木津川市,山城町上狛天竺堂１番地１,,26,214,6190204,,,2023-01-30,清算の結了等,,,2015-10-05,1,,,,,キョウトミナミヤマシロカイ,0
1707,7140001102592,登記記録の閉鎖等,0,2023-02-01,2023-01-30,株式会社カノープス,,株式会社,兵庫県,神戸市灘区,水道筋６丁目４番１３号金栄ビル東館３０１号,,28,102,6570831,,,2023-01-30,清算の結了等,,,2016-07-04,1,,,,,カノープス,0
1719,7180001012581,登記記録の閉鎖等,0,2023-02-01,2023-01-24,株式会社ダイジュホーム,,株式会社,愛知県,名古屋市瑞穂区,彌富通５丁目４２番地ユニーブル弥富通７０１号,,23,108,4670064,,,2023-01-24,清算の結了等,,,2022-08-01,1,,,,,ダイジュホーム,0
1727,7180301029714,登記記録の閉鎖等,0,2023-02-01,2023-01-27,ＶＡＬＵＥ　ＧＬＯＢＡＬ株式会社,,株式会社,愛知県,岡崎市,材木町１丁目３４番地シプエビル１－Ｃ,,23,202,4440057,,,2023-01-27,清算の結了等,,,2016-10-26,1,,,,,バリューグローバル,0
1729,7200002000178,登記記録の閉鎖等,0,2023-02-01,2023-01-31,有限会社アステック,,有限会社,岐阜県,羽島郡岐南町,上印食２丁目１０２番地の５,,21,302,5016001,,,2023-01-31,清算の結了等,,,2015-10-05,1,,,,,アステック,0
1738,7250001002591,登記記録の閉鎖等,0,2023-02-01,2023-01-30,株式会社プロモーションアイ,,株式会社,山口県,防府市,大字上右田４３４番地の３,,35,206,7470062,,,2023-01-30,登記官による閉鎖,,,2015-10-05,1,,,,,,0
1739,7250001002848,登記記録の閉鎖等,0,2023-02-01,2023-01-30,コントワー・デ・コトニエ　ジャパン株式会社,,株式会社,山口県,山口市,佐山１０７１７番地１,,35,203,7540894,,,2023-01-30,清算の結了等,,,2015-10-05,1,,,,,コントワーデコトニエジャパン,0
1740,7250005002010,登記記録の閉鎖等,0,2023-02-01,2023-01-30,宇部食肉事業協同組合,,その他の設立登記法人,山口県,宇部市,中央町２丁目８番２号,,35,202,7550045,,,2023-01-30,登記官による閉鎖,,,2015-10-05,1,,,,,,0
1741,7250005003280,登記記録の閉鎖等,0,2023-02-01,2023-01-30,スーパー長門協同組合,,その他の設立登記法人,山口県,下関市,竹崎町３丁目１番１号,,35,201,7500025,,,2023-01-30,登記官による閉鎖,,,2015-10-05,1,,,,,,0
1742,7250005003347,登記記録の閉鎖等,0,2023-02-01,2023-01-30,下関トラック事業協同組合,,その他の設立登記法人,山口県,下関市,小月西の台５番６号,,35,201,7501135,,,2023-01-30,登記官による閉鎖,,,2015-10-05,1,,,,,,0
1743,7250005003421,登記記録の閉鎖等,0,2023-02-01,2023-01-30,企業組合泉屋,,その他の設立登記法人,山口県,下関市,竹崎町２丁目２番８号,,35,201,7500025,,,2023-01-30,登記官による閉鎖,,,2015-10-05,1,,,,,,0
1744,7250005004097,登記記録の閉鎖等,0,2023-02-01,2023-01-30,山口県複写産業協同組合,,その他の設立登記法人,山口県,下関市,大和町１丁目１０番１１号,,35,201,7500067,,,2023-01-30,登記官による閉鎖,,,2015-10-05,1,,,,,,0
1745,7250005004279,登記記録の閉鎖等,0,2023-02-01,2023-01-30,ライオンズヒルズ下関管理組合法人,,その他の設立登記法人,山口県,下関市,上新地町５丁目１番Ｃ－４０９号,,35,201,7500061,,,2023-01-30,登記官による閉鎖,,,2015-10-05,1,,,,,,0
1746,7250005005987,登記記録の閉鎖等,0,2023-02-01,2023-01-30,医療法人社団荘子内科,,その他の設立登記法人,山口県,岩国市,麻里布町３丁目１５番１５号,,35,208,7400018,,,2023-01-30,登記官による閉鎖,,,2015-10-05,1,,,,,,0
1747,7250005006614,登記記録の閉鎖等,0,2023-02-01,2023-01-30,協同組合エコ事業やまぐち,,その他の設立登記法人,山口県,岩国市,山手町２丁目４１番９号,,35,208,7400022,,,2023-01-30,登記官による閉鎖,,,2015-10-05,1,,,,,,0
1778,7370502000479,登記記録の閉鎖等,0,2023-02-01,2023-01-30,有限会社首藤組,,有限会社,宮城県,本吉郡南三陸町,入谷字鏡石１６８番地,,04,606,9860782,,,2023-01-30,清算の結了等,,,2015-10-05,1,,,,,シュトウグミ,0
1779,7390001015373,登記記録の閉鎖等,0,2023-02-01,2023-01-27,株式会社レゾン・セールス・クリエイト,,株式会社,山形県,米沢市,窪田町藤泉９４３番地の１,,06,202,9920005,,,2023-01-27,合併による解散等,7090001009249,令和５年１月２０日山梨県甲州市勝沼町下岩崎２４８８番地まるき葡萄酒株式会社（7090001009249）に合併し解散,2018-07-09,1,,,,,レゾンセールスクリエイト,0
1781,7420002017150,登記記録の閉鎖等,0,2023-02-01,2023-01-30,有限会社レストランとわだ,,有限会社,青森県,十和田市,西三番町１番２４号,,02,206,0340083,,,2023-01-30,清算の結了等,,,2015-10-05,1,,,,,レストラントワダ,0
1783,7430001041539,登記記録の閉鎖等,0,2023-02-01,2023-01-30,株式会社北都商販,,株式会社,北海道,北斗市,中央２丁目５番５１号,,01,236,0490162,,,2023-01-30,清算の結了等,,,2015-10-05,1,,,,,ホクトショウハン,0
1785,7430001080529,登記記録の閉鎖等,0,2023-02-01,2023-01-30,ウェブコマース株式会社,,株式会社,北海道,札幌市中央区,大通西８丁目２番地３９キタコー北大通ビル３階,,01,101,0600042,,,2023-01-30,清算の結了等,,,2019-12-23,1,,,,,ウェブコマース,0
1806,8010005015885,登記記録の閉鎖等,0,2023-02-01,2023-01-30,一般財団法人山崎弁栄記念館,,その他の設立登記法人,岐阜県,岐阜市,泉町１６番地,,21,201,5008073,,,2023-01-30,清算の結了等,,,2015-10-05,1,,,,,ヤマザキベンエイキネンカン,0
1817,8010403014646,登記記録の閉鎖等,0,2023-02-01,2023-01-18,合同会社日高商事,00106264,合同会社,東京都,港区,三田５丁目７－８－１２２１,,13,103,1080073,,,2023-01-18,清算の結了等,,,2016-03-31,1,,,,,ヒダカショウジ,0
1818,8010403017013,登記記録の閉鎖等,0,2023-02-01,2023-01-18,合同会社スペード,,合同会社,東京都,港区,麻布十番１丁目５番２６号,,13,103,1060045,,,2023-01-18,清算の結了等,,,2017-08-15,1,,,,,,0
1821,8010405002987,登記記録の閉鎖等,0,2023-02-01,2023-01-31,医療法人社団メディカルドラフト会,,その他の設立登記法人,東京都,墨田区,太平３丁目４番１１号,,13,107,1300012,,,2023-01-31,登記官による閉鎖,,,2015-10-05,1,,,,,,0
1823,8010601015017,登記記録の閉鎖等,0,2023-02-01,2023-01-31,日配工業株式会社,,株式会社,東京都,墨田区,押上２丁目４番１１号,,13,107,1310045,,,2023-01-31,登記官による閉鎖,,,2015-10-05,1,,,,,,0
1824,8010601015347,登記記録の閉鎖等,0,2023-02-01,2023-01-31,株式会社丸東,,株式会社,東京都,墨田区,向島４丁目１番１３号,,13,107,1310033,,,2023-01-31,登記官による閉鎖,,,2015-10-05,1,,,,,,0
1825,8010601015561,登記記録の閉鎖等,0,2023-02-01,2023-01-31,株式会社マクロ,,株式会社,東京都,墨田区,石原４丁目２６番６号,,13,107,1300011,,,2023-01-31,登記官による閉鎖,,,2015-10-05,1,,,,,,0
1826,8010601016725,登記記録の閉鎖等,0,2023-02-01,2023-01-31,フラックス薬品興業株式会社,,株式会社,東京都,墨田区,東向島４丁目４０番２０号,,13,107,1310032,,,2023-01-31,登記官による閉鎖,,,2017-01-30,1,,,,,,0
1827,8010601020099,登記記録の閉鎖等,0,2023-02-01,2023-01-31,旭伸商事株式会社,,株式会社,東京都,江東区,南砂４丁目５番５－８０２号,,13,108,1360076,,,2023-01-31,登記官による閉鎖,,,2015-10-05,1,,,,,,0
1828,8010601021618,登記記録の閉鎖等,0,2023-02-01,2023-01-31,日本スポーツライフ株式会社,,株式会社,東京都,墨田区,江東橋２丁目２番３号,,13,107,1300022,,,2023-01-31,登記官による閉鎖,,,2016-01-21,1,,,,,,0
1829,8010601023572,登記記録の閉鎖等,0,2023-02-01,2023-01-31,豊田建設株式会社,,株式会社,東京都,江東区,大島８丁目４０番２１号,,13,108,1360072,,,2023-01-31,登記官による閉鎖,,,2015-10-05,1,,,,,,0
1830,8010601032219,登記記録の閉鎖等,0,2023-02-01,2023-01-31,株式会社コンサルタントＴＡＴＳＵ,,株式会社,東京都,江東区,猿江１丁目７番４号,,13,108,1350003,,,2023-01-31,登記官による閉鎖,,,2015-10-05,1,,,,,,0
1834,8010601038216,登記記録の閉鎖等,0,2023-02-01,2023-01-31,株式会社フリーエージェント,,株式会社,東京都,墨田区,錦糸３丁目５番１０号,,13,107,1300013,,,2023-01-31,登記官による閉鎖,,,2015-10-05,1,,,,,,0
1835,8010601040072,登記記録の閉鎖等,0,2023-02-01,2023-01-31,株式会社新東京プロダクト,,株式会社,東京都,墨田区,菊川３丁目７番５号,,13,107,1300024,,,2023-01-31,登記官による閉鎖,,,2015-10-05,1,,,,,,0
1836,8010602001131,登記記録の閉鎖等,0,2023-02-01,2023-01-31,有限会社石井莫大小,,有限会社,東京都,江東区,住吉１丁目１５番２号,,13,108,1350002,,,2023-01-31,登記官による閉鎖,,,2015-10-05,1,,,,,,0
1837,8010602003763,登記記録の閉鎖等,0,2023-02-01,2023-01-31,有限会社志賀木工所,,有限会社,東京都,江東区,清澄３丁目３番２５号,,13,108,1350024,,,2023-01-31,登記官による閉鎖,,,2015-10-05,1,,,,,,0
1838,8010602007434,登記記録の閉鎖等,0,2023-02-01,2023-01-31,有限会社東関プラスチック,,有限会社,東京都,江東区,北砂５丁目３番１５号,,13,108,1360073,,,2023-01-31,登記官による閉鎖,,,2017-04-24,1,,,,,,0
1839,8010602015494,登記記録の閉鎖等,0,2023-02-01,2023-01-31,有限会社芳野屋,,有限会社,東京都,墨田区,京島３丁目２０番４号,,13,107,1310046,,,2023-01-31,登記官による閉鎖,,,2015-10-05,1,,,,,,0
1860,8011301000242,登記記録の閉鎖等,0,2023-02-01,2023-01-30,アスク・エンタープライズ株式会社,,株式会社,東京都,杉並区,高井戸東３丁目１５番２号,,13,115,1680072,,,2023-01-30,清算の結了等,,,2015-10-05,1,,,,,アスクエンタープライズ,0
1871,8012402010808,登記記録の閉鎖等,0,2023-02-01,2023-01-30,有限会社菊鵬工務店,00058114,有限会社,東京都,調布市,染地２丁目４３番地６７,,13,208,1820023,,,2023-01-30,清算の結了等,,,2015-10-05,1,,,,,キクホウコウムテン,0
1884,8021002045503,登記記録の閉鎖等,0,2023-02-01,2023-01-31,有限会社美装,,有限会社,神奈川県,海老名市,中新田５丁目２１番２５号,,14,215,2430422,,,2023-01-31,清算の結了等,,,2015-10-05,1,,,,,ビソウ,0
1889,8030001051305,登記記録の閉鎖等,0,2023-02-01,2023-01-26,株式会社利根川鉄工所,,株式会社,埼玉県,春日部市,備後東４丁目１番１０号,,11,214,3440032,,,2023-01-26,清算の結了等,,,2015-10-05,1,,,,,トネガワテッコウジョ,0
1900,8040001040439,登記記録の閉鎖等,0,2023-02-01,2023-01-26,株式会社雄心屋,,株式会社,千葉県,流山市,東初石２丁目２０１番地３,,12,220,2700114,,,2023-01-26,清算の結了等,,,2015-10-05,1,,,,,ユウシンヤ,0
1910,8050001004517,登記記録の閉鎖等,0,2023-02-01,2023-01-27,株式会社ハピネス,,株式会社,茨城県,水戸市,吉沢町２４０番地,,08,201,3100845,,,2023-01-27,清算の結了等,,,2015-10-05,1,,,,,ハピネス,0
1949,8140003009810,登記記録の閉鎖等,0,2023-02-01,2023-01-31,合同会社メイホク,,合同会社,兵庫県,神戸市兵庫区,遠矢浜町５番２０号,,28,105,6520866,,,2023-01-31,清算の結了等,,,2015-10-05,1,,,,,メイホク,0
1963,8190001027685,登記記録の閉鎖等,0,2023-02-01,2023-01-30,株式会社Ｎｅｓｓ　Ｃｏｍｐａｎｙ,,株式会社,三重県,四日市市,諏訪栄町４番１０号アピカビル３Ｆ,,24,202,5100086,,,2023-01-30,清算の結了等,,,2020-10-06,1,,,,,,0
1968,8240002054491,登記記録の閉鎖等,0,2023-02-01,2023-01-31,有限会社相良モータース,,有限会社,広島県,三原市,久井町羽倉１０２１１番地２,,34,204,7221413,,,2023-01-31,清算の結了等,,,2015-10-05,1,,,,,サガラモータース,0
1969,8250001009776,登記記録の閉鎖等,0,2023-02-01,2023-01-30,株式会社国際企画,,株式会社,山口県,光市,大字浅江１３４５番地,,35,210,7430021,,,2023-01-30,登記官による閉鎖,,,2015-10-05,1,,,,,,0
1970,8250001011591,登記記録の閉鎖等,0,2023-02-01,2023-01-30,株式会社日野組,,株式会社,山口県,岩国市,桂町２丁目５番４８号,,35,208,7400013,,,2023-01-30,登記官による閉鎖,,,2015-10-05,1,,,,,,0
1971,8250002004297,登記記録の閉鎖等,0,2023-02-01,2023-01-30,ウベプレカット有限会社,,有限会社,山口県,宇部市,大字川上６９７番地３８,,35,202,7550084,,,2023-01-30,登記官による閉鎖,,,2015-10-05,1,,,,,,0
1972,8250002012390,登記記録の閉鎖等,0,2023-02-01,2023-01-30,有限会社パナドットよしわか,,有限会社,山口県,下関市,菊川町大字下岡枝１６０番地の１,,35,201,7500317,,,2023-01-30,登記官による閉鎖,,,2015-10-05,1,,,,,,0
1973,8250002015609,登記記録の閉鎖等,0,2023-02-01,2023-01-30,有限会社岡崎釣漁具店,,有限会社,山口県,下松市,北斗町１０番２７号,,35,207,7440012,,,2023-01-30,登記官による閉鎖,,,2015-10-05,1,,,,,,0
1974,8250002019048,登記記録の閉鎖等,0,2023-02-01,2023-01-30,有限会社ウエストディスポーザル,,有限会社,山口県,岩国市,周東町下久原６２９番地２,,35,208,7420417,,,2023-01-30,登記官による閉鎖,,,2015-10-05,1,,,,,,0
1975,8250002019106,登記記録の閉鎖等,0,2023-02-01,2023-01-30,有限会社ツカモト電機,,有限会社,山口県,岩国市,周東町下久原１１０４番地の９,,35,208,7420417,,,2023-01-30,登記官による閉鎖,,,2015-10-05,1,,,,,,0
1976,8250002019411,登記記録の閉鎖等,0,2023-02-01,2023-01-30,有限会社建創,,有限会社,山口県,岩国市,玖珂町５３７０番地３,,35,208,7420344,,,2023-01-30,登記官による閉鎖,,,2015-10-05,1,,,,,,0
1977,8250002020022,登記記録の閉鎖等,0,2023-02-01,2023-01-30,有限会社にしむら,,有限会社,山口県,熊毛郡平生町,大字曽根２８２番地の３,,35,344,7421107,,,2023-01-30,登記官による閉鎖,,,2015-10-05,1,,,,,,0
1978,8250002020385,登記記録の閉鎖等,0,2023-02-01,2023-01-30,有限会社安村車輌整備,,有限会社,山口県,大島郡周防大島町,大字東安下庄８３９番地の３,,35,305,7422805,,,2023-01-30,登記官による閉鎖,,,2015-10-05,1,,,,,,0
1979,8250002020749,登記記録の閉鎖等,0,2023-02-01,2023-01-30,有限会社福田屋本店,,有限会社,山口県,山陽小野田市,大字厚狭３６０番地,,35,216,7570001,,,2023-01-30,登記官による閉鎖,,,2017-10-27,1,,,,,,0
1980,8250005007272,登記記録の閉鎖等,0,2023-02-01,2023-01-30,特定非営利活動法人ないすらいふ総合研究所,,その他の設立登記法人,山口県,柳井市,新庄２９５３番地１０,,35,212,7420033,,,2023-01-30,登記官による閉鎖,,,2015-10-05,1,,,,,,0
1990,8290801023997,登記記録の閉鎖等,0,2023-02-01,2023-01-30,第一商事株式会社,,株式会社,山口県,下関市,清末西町３丁目４番４号,,35,201,7501161,,,2023-01-30,登記官による閉鎖,,,2017-09-14,1,,,,,,0
1996,8320002014537,登記記録の閉鎖等,0,2023-02-01,2023-01-31,有限会社豊島食堂,,有限会社,大分県,豊後高田市,高田７８０番地,,44,209,8790617,,,2023-01-31,清算の結了等,,,2015-10-05,1,,,,,トヨシマショクドウ,0
1999,8330003008594,登記記録の閉鎖等,0,2023-02-01,2023-01-30,合同会社ふるふる,,合同会社,熊本県,宇城市,不知火町松合１７５９番地,,43,213,8693472,,,2023-01-30,清算の結了等,,,2020-10-09,1,,,,,フルフル,0
2003,8360001021472,登記記録の閉鎖等,0,2023-02-01,2023-01-25,株式会社琉創,,株式会社,沖縄県,沖縄市,松本１丁目１２番２６号,,47,211,9042151,,,2023-01-25,清算の結了等,,,2016-10-28,1,,,,,,0
2004,8360001028971,登記記録の閉鎖等,0,2023-02-01,2023-01-25,株式会社うちなーハウス,,株式会社,沖縄県,中頭郡読谷村,字都屋２０番地－１０１,,47,324,9040305,,,2023-01-25,清算の結了等,,,2021-06-24,1,,,,,ウチナーハウス,0
2018,8380001025868,登記記録の閉鎖等,0,2023-02-01,2023-01-27,株式会社かのん,,株式会社,福島県,郡山市,大町１丁目２番２３号,,07,203,9638001,,,2023-01-27,清算の結了等,,,2015-10-05,1,,,,,カノン,0
2023,8390002000522,登記記録の閉鎖等,0,2023-02-01,2023-01-30,有限会社大内青果,,有限会社,山形県,山形市,瀬波２丁目１３番１０号,,06,201,9900881,,,2023-01-30,清算の結了等,,,2015-10-05,1,,,,,オオウチセイカ,0
2063,9010005025669,登記記録の閉鎖等,0,2023-02-01,2023-01-30,メック都市開発１０号特定目的会社,,その他の設立登記法人,東京都,中央区,新川２丁目２７番１号,,13,102,1040033,,,2023-01-30,清算の結了等,,,2016-08-18,1,,,,,メックトシカイハツジュウゴウ,0
2068,9010401146151,登記記録の閉鎖等,0,2023-02-01,2023-01-16,日本万和株式会社,,株式会社,東京都,港区,白金２丁目７番１７－３０６号,,13,103,1080072,,,2023-01-16,清算の結了等,,,2019-06-12,1,,,,,ニホンマンワ,0
2070,9010403022061,登記記録の閉鎖等,0,2023-02-01,2023-01-17,ＡＲＩＩＸ　ＺＴＨ合同会社,,合同会社,東京都,港区,麻布台３丁目５番７号,,13,103,1060041,,,2023-01-17,清算の結了等,,,2019-12-24,1,,,,,アリックスゼットティーエイチ,0
2075,9010601003870,登記記録の閉鎖等,0,2023-02-01,2023-01-31,株式会社アラキ,,株式会社,東京都,江東区,扇橋１丁目５番２号,,13,108,1350011,,,2023-01-31,登記官による閉鎖,,,2015-10-05,1,,,,,,0
2076,9010601007847,登記記録の閉鎖等,0,2023-02-01,2023-01-31,藤開発株式会社,,株式会社,東京都,江東区,大島２丁目７番１８号,,13,108,1360072,,,2023-01-31,登記官による閉鎖,,,2015-10-05,1,,,,,,0
2077,9010601011080,登記記録の閉鎖等,0,2023-02-01,2023-01-31,小山工業株式会社,,株式会社,東京都,墨田区,立川２丁目１０番８号,,13,107,1300023,,,2023-01-31,登記官による閉鎖,,,2016-07-01,1,,,,,,0
2078,9010601013309,登記記録の閉鎖等,0,2023-02-01,2023-01-31,宗和管財株式会社,,株式会社,東京都,墨田区,太平１丁目２４番１１－３０３号,,13,107,1300012,,,2023-01-31,登記官による閉鎖,,,2015-10-05,1,,,,,,0
2079,9010601029445,登記記録の閉鎖等,0,2023-02-01,2023-01-31,サンシヤノン株式会社,,株式会社,東京都,江東区,新大橋３丁目１３番３号,,13,108,1350007,,,2023-01-31,登記官による閉鎖,,,2015-10-05,1,,,,,,0
2080,9010601040311,登記記録の閉鎖等,0,2023-02-01,2023-01-31,株式会社風鈴,,株式会社,東京都,江東区,有明３丁目７番２６号有明フロンティアビルＢ棟９階,,13,108,1350063,,,2023-01-31,登記官による閉鎖,,,2015-10-05,1,,,,,,0
2082,9010602004389,登記記録の閉鎖等,0,2023-02-01,2023-01-31,有限会社立川建設,,有限会社,東京都,江東区,北砂６丁目２０番３７号,,13,108,1360073,,,2023-01-31,登記官による閉鎖,,,2015-10-05,1,,,,,,0
2083,9010602006014,登記記録の閉鎖等,0,2023-02-01,2023-01-31,有限会社三河屋浜崎商店,,有限会社,東京都,江東区,新大橋２丁目７番６号,,13,108,1350007,,,2023-01-31,登記官による閉鎖,,,2015-10-05,1,,,,,,0
2084,9010602024619,登記記録の閉鎖等,0,2023-02-01,2023-01-31,有限会社香志和屋印刷所,,有限会社,東京都,江東区,高橋４番１０号,,13,108,1350005,,,2023-01-31,登記官による閉鎖,,,2015-10-05,1,,,,,,0
2085,9010602028917,登記記録の閉鎖等,0,2023-02-01,2023-01-31,有限会社コーワコーポレーション,,有限会社,東京都,墨田区,江東橋５丁目１６番５号,,13,107,1300022,,,2023-01-31,登記官による閉鎖,,,2015-10-05,1,,,,,,0
2086,9010603004751,登記記録の閉鎖等,0,2023-02-01,2023-01-31,合同会社コンサルティング・コア・タカオ商店街・まちづくり支援研究所,,合同会社,東京都,江東区,大島６丁目２５番１号,,13,108,1360072,,,2023-01-31,登記官による閉鎖,,,2015-10-05,1,,,,,,0
2087,9010605001441,登記記録の閉鎖等,0,2023-02-01,2023-01-31,特定非営利活動法人漫画工房同潤会,,その他の設立登記法人,東京都,江東区,亀戸２丁目４５番１号,,13,108,1360071,,,2023-01-31,登記官による閉鎖,,,2015-10-05,1,,,,,,0
2102,9011001140288,登記記録の閉鎖等,0,2023-02-01,2023-01-26,ＳＢＡトラスト株式会社,,株式会社,東京都,渋谷区,広尾１丁目１１番５号,,13,113,1500012,,,2023-01-26,清算の結了等,,,2021-05-12,1,,,,,エスビーエートラスト,0
2121,9012301009974,登記記録の閉鎖等,0,2023-02-01,2023-01-24,ＣＬ　Ｖｅｔｓ　Ｒｅｓｅａｒｃｈ株式会社,,株式会社,東京都,町田市,小山町２１７番地３３,,13,209,1940212,,,2023-01-24,清算の結了等,,,2015-10-05,1,,,,,シーエルベッツリサーチ,0
2123,9012405002132,登記記録の閉鎖等,0,2023-02-01,2023-01-30,一般社団法人Ｓ－ＱＵＥ研究会,,その他の設立登記法人,東京都,千代田区,九段北１丁目４番１号,,13,101,1020073,,,2023-01-30,清算の結了等,,,2015-10-05,1,,,,,エスキューケンキュウカイ,0
2124,9012701011943,登記記録の閉鎖等,0,2023-02-01,2023-01-30,株式会社ＹＵＤＡＩ,,株式会社,東京都,東村山市,栄町２丁目８番１４－１１２号,,13,213,1890013,,,2023-01-30,清算の結了等,,,2015-10-05,1,,,,,,0
2128,9020001008949,登記記録の閉鎖等,0,2023-02-01,2023-01-26,株式会社タカヨシ,,株式会社,神奈川県,横浜市青葉区,荏田町４６８番６,,14,117,2250013,,,2023-01-26,清算の結了等,,,2015-10-05,1,,,,,タカヨシ,0
2133,9020002036387,登記記録の閉鎖等,0,2023-02-01,2023-01-27,有限会社ユキ・コーポレーション,,有限会社,神奈川県,横浜市港北区,新羽町３７４６番地,,14,109,2230057,,,2023-01-27,清算の結了等,,,2015-10-05,1,,,,,ユキコーポレーション,0
2150,9040001077026,登記記録の閉鎖等,0,2023-02-01,2023-01-30,株式会社アイエス・フィールズ,,株式会社,千葉県,柏市,南柏中央７番地１,,12,217,2770075,,,2023-01-30,合併による解散等,3040001097442,令和５年１月２０日東京都港区南青山六丁目６番２０号株式会社ＥＲ（3040001097442）に合併し解散,2015-10-05,1,,,,,アイエスフィールズ,0
2165,9080001008522,登記記録の閉鎖等,0,2023-02-01,2023-01-27,全国観光トラベル株式会社,,株式会社,静岡県,静岡市清水区,真砂町７番１５号,,22,103,4240816,,,2023-01-27,清算の結了等,,,2015-10-05,1,,,,,ゼンコクカンコウトラベル,0
2167,9080002002276,登記記録の閉鎖等,0,2023-02-01,2023-01-31,サン装飾有限会社,,有限会社,静岡県,静岡市葵区,北安東５丁目１番１１号,,22,101,4200881,,,2023-01-31,清算の結了等,,,2015-10-05,1,,,,,サンソウショク,0
2177,9110001035505,登記記録の閉鎖等,0,2023-02-01,2023-01-30,株式会社リンコネクト,,株式会社,新潟県,新潟市西区,五十嵐２の町８６０８－７ハイツリバーヒルズＡ１０３号,,15,107,9502102,,,2023-01-30,清算の結了等,,,2021-02-05,1,,,,,リンコネクト,0
2181,9120001156151,登記記録の閉鎖等,0,2023-02-01,2023-01-24,大同開発株式会社,,株式会社,大阪府,守口市,早苗町６番１６号,,27,209,5700072,,,2023-01-24,清算の結了等,,,2022-11-21,1,,,,,,0
2184,9120001173741,登記記録の閉鎖等,0,2023-02-01,2023-01-31,株式会社エマノン,,株式会社,大阪府,大阪市東成区,深江南２丁目２番３６号,,27,115,5370002,,,2023-01-31,清算の結了等,,,2015-10-05,1,,,,,エマノン,0
2226,9180002080808,登記記録の閉鎖等,0,2023-02-01,2023-01-30,有限会社松鶴,,有限会社,愛知県,稲沢市,稲島１１丁目１６番地,,23,220,4928229,,,2023-01-30,清算の結了等,,,2015-10-05,1,,,,,ショウカク,0
2228,9180005017947,登記記録の閉鎖等,0,2023-02-01,2023-01-06,特定非営利活動法人はぐくみのさと,,その他の設立登記法人,愛知県,長久手市,岩作三ケ峯２番地１７０,,23,238,4801103,,,2023-01-06,清算の結了等,,,2018-08-29,1,,,,,ハグクミノサト,0
2241,9250001007655,登記記録の閉鎖等,0,2023-02-01,2023-01-30,ＳＡＮＤＥＮ－ＤＡＥＷＯＯＢＵＳ　ＳＡＬＥＳ　ＰＲＯＭＯＴＩＯＮ株式会社,,株式会社,山口県,下関市,羽山町３番３号,,35,201,7500046,,,2023-01-30,登記官による閉鎖,,,2015-10-05,1,,,,,,0
2242,9250002011004,登記記録の閉鎖等,0,2023-02-01,2023-01-30,有限会社松本住宅建設,,有限会社,山口県,下関市,楠乃４丁目１０番２０号,,35,201,7510804,,,2023-01-30,登記官による閉鎖,,,2015-10-05,1,,,,,,0
2243,9250002013693,登記記録の閉鎖等,0,2023-02-01,2023-01-30,有限会社ニュースインあがわ,,有限会社,山口県,萩市,大字土原３７０番地の４０,,35,204,7580025,,,2023-01-30,登記官による閉鎖,,,2015-10-05,1,,,,,,0
2244,9250005002685,登記記録の閉鎖等,0,2023-02-01,2023-01-30,ＮＰＯ法人鼓道巫神洲太鼓,,その他の設立登記法人,山口県,宇部市,大字末信字部坂４０１番地の２４,,35,202,7590123,,,2023-01-30,登記官による閉鎖,,,2015-10-05,1,,,,,,0
2245,9250005003007,登記記録の閉鎖等,0,2023-02-01,2023-01-30,特定非営利活動法人秋吉台ワイナリー,,その他の設立登記法人,山口県,美祢市,美東町真名３６１番地１６,,35,213,7540122,,,2023-01-30,登記官による閉鎖,,,2015-10-05,1,,,,,,0
2246,9250005003279,登記記録の閉鎖等,0,2023-02-01,2023-01-30,新生マート協同組合,,その他の設立登記法人,山口県,下関市,長門町１０番１－８１５号,,35,201,7500026,,,2023-01-30,登記官による閉鎖,,,2015-10-05,1,,,,,,0
2247,9250005005052,登記記録の閉鎖等,0,2023-02-01,2023-01-30,ぴーえつちどおり協同組合,,その他の設立登記法人,山口県,周南市,若宮町２丁目２２番地,,35,215,7450016,,,2023-01-30,登記官による閉鎖,,,2015-10-05,1,,,,,,0
2252,9280002004351,登記記録の閉鎖等,0,2023-02-01,2023-01-31,有限会社ユニットケア山陰,,有限会社,島根県,松江市,浜佐田町１２５番地,,32,201,6900855,,,2023-01-31,清算の結了等,,,2015-10-05,1,,,,,ユニットケアサンイン,0
2254,9290001027105,登記記録の閉鎖等,0,2023-02-01,2023-01-31,株式会社プレシャス,,株式会社,福岡県,福岡市中央区,笹丘２丁目３番２３─４号,,40,133,8100034,,,2023-01-31,清算の結了等,,,2015-10-05,1,,,,,プレシャス,0
2257,9290003004481,登記記録の閉鎖等,0,2023-02-01,2023-01-31,合同会社ケーパワー,,合同会社,福岡県,福岡市東区,和白丘１丁目２１番７－９０３号,,40,131,8110213,,,2023-01-31,清算の結了等,,,2015-10-05,1,,,,,ケーパワー,0
2263,9330003001664,登記記録の閉鎖等,0,2023-02-01,2023-01-31,合資会社河野事務所,,合資会社,熊本県,熊本市北区,清水町大字新地２０９３番地２９,,43,105,8610000,,,2023-01-31,清算の結了等,,,2015-10-05,1,,,,,カワノジムショ,0
2271,9350005003434,登記記録の閉鎖等,0,2023-02-01,2023-01-30,企業組合おもや,,その他の設立登記法人,宮崎県,宮崎市,村角町萩崎２７０２番地３,,45,201,8800837,,,2023-01-30,清算の結了等,,,2015-10-05,1,,,,,オモヤ,0
2274,9370001024960,登記記録の閉鎖等,0,2023-02-01,2023-01-27,フォレストリンク株式会社,,株式会社,宮城県,仙台市青葉区,あけぼの町１番１号,,04,101,9810963,,,2023-01-27,清算の結了等,,,2015-10-05,1,,,,,フォレストリンク,0
2293,9470001007542,登記記録の閉鎖等,0,2023-02-01,2023-01-30,株式会社清水,,株式会社,香川県,綾歌郡宇多津町,浜五番丁６３番地１２,,37,386,7690205,,,2023-01-30,清算の結了等,,,2015-10-05,1,,,,,シミズ,0
