sequenceNumber,corporateNumber,process,correct,updateDate,changeDate,name,nameImageId,kind,prefectureName,cityName,streetNumber,addressImageId,prefectureCode,cityCode,postCode,addressOutside,addressOutsideImageId,closeDate,closeCause,successorCorporateNumber,changeCause,assignmentDate,latest,enName,enPrefectureName,enCityName,enAddressOutside,furigana,hihyoji
2,1010001077218,登記記録の閉鎖等,0,2021-10-14,2021-10-08,株式会社神明精米,,株式会社,兵庫県,神戸市中央区,栄町通６丁目１番２１号,,28,110,6500023,,,2021-10-08,合併による解散等,9010001191011,令和３年１０月１日東京都中央区日本橋小網町１６番１５号株式会社神明（9010001191011）に合併し解散,2015-10-05,1,,,,,シンメイセイマイ,0
25,1010401093987,登記記録の閉鎖等,0,2021-10-14,2021-09-30,株式会社コンジュトレードジャパン,,株式会社,東京都,港区,元麻布２丁目１０番２５号,,13,103,1060046,,,2021-09-30,清算の結了等,,,2015-10-05,1,,,,,コンジュトレードジャパン,0
64,1011101060633,登記記録の閉鎖等,0,2021-10-14,2021-10-05,株式会社ＲｅＱｕＭｕＭ,,株式会社,東京都,中央区,日本橋小網町１－４,,13,102,1030016,,,2021-10-05,清算の結了等,,,2015-10-05,1,,,,,リキュマム,0
81,1012801003385,登記記録の閉鎖等,0,2021-10-14,2021-10-01,株式会社サクセス,,株式会社,東京都,東大和市,上北台３丁目４５２番地５,,13,220,2070023,,,2021-10-01,合併による解散等,4012801003416,令和３年１０月１日東京都東大和市上北台三丁目４５２番地５新日本産業株式会社（4012801003416）に合併し解散,2015-10-05,1,,,,,サクセス,0
90,1020001091944,登記記録の閉鎖等,0,2021-10-14,2021-10-11,キクデンインターナショナル株式会社,,株式会社,神奈川県,横浜市港北区,新横浜３丁目７番１８号,,14,109,2220033,,,2021-10-11,合併による解散等,6010001008820,令和３年１０月１日東京都千代田区大手町二丁目２番１号東京産業株式会社（6010001008820）に合併し解散,2015-10-05,1,,,,,キクデンインターナショナル,0
104,1021001009424,登記記録の閉鎖等,0,2021-10-14,2021-10-11,株式会社瓢,,株式会社,神奈川県,鎌倉市,小町３丁目８番７号,,14,204,2480006,,,2021-10-11,清算の結了等,,,2015-10-05,1,,,,,,0
105,1021002042242,登記記録の閉鎖等,0,2021-10-14,2021-10-11,有限会社富士厨房,,有限会社,神奈川県,大和市,上草柳１丁目４番２２号,,14,213,2420029,,,2021-10-11,清算の結了等,,,2015-10-05,1,,,,,,0
112,1030002039388,登記記録の閉鎖等,0,2021-10-14,2021-10-01,有限会社新谷クリーニング,,有限会社,埼玉県,久喜市,栗橋中央１丁目９番２６号,,11,232,3491102,,,2021-10-01,清算の結了等,,,2015-10-05,1,,,,,シンタニクリーニング,0
127,1050001003228,登記記録の閉鎖等,0,2021-10-14,2021-10-06,株式会社ワールド器材,,株式会社,茨城県,水戸市,小吹町２６８９番地,,08,201,3100914,,,2021-10-06,清算の結了等,,,2015-10-05,1,,,,,ワールドキザイ,0
134,1070002005527,登記記録の閉鎖等,0,2021-10-14,2021-10-12,有限会社山後塗裝,,有限会社,群馬県,前橋市,総社町総社１３１４番地の８,,10,201,3710852,,,2021-10-12,清算の結了等,,,2015-10-05,1,,,,,ヤマゴトソウ,0
150,1120001121328,登記記録の閉鎖等,0,2021-10-14,2021-10-11,株式会社北斗,,株式会社,大阪府,大阪市住吉区,我孫子２丁目４番３号,,27,120,5580014,,,2021-10-11,清算の結了等,,,2015-10-05,1,,,,,ホクト,0
151,1120001126500,登記記録の閉鎖等,0,2021-10-14,2021-10-11,株式会社神崎メディサポート,,株式会社,大阪府,大阪市住吉区,我孫子西２丁目１１番２３号,,27,120,5580015,,,2021-10-11,清算の結了等,,,2015-10-05,1,,,,,カンザキメディサポート,0
160,1120101004589,登記記録の閉鎖等,0,2021-10-14,2021-10-12,東亜開発株式会社,,株式会社,大阪府,堺市西区,築港新町１丁５番地１１,,27,144,5928331,,,2021-10-12,清算の結了等,,,2015-10-05,1,,,,,トウアカイハツ,0
172,1130003006674,登記記録の閉鎖等,0,2021-10-14,2021-10-11,ミラクラ合同会社,,合同会社,京都府,八幡市,内里東山川４９番地１,,26,210,6148244,,,2021-10-11,清算の結了等,,,2020-07-28,1,,,,,ミラクラ,0
174,1140001034635,登記記録の閉鎖等,0,2021-10-14,2021-10-08,大木油設株式会社,,株式会社,兵庫県,加古郡稲美町,印南川北２５７４番地の１,,28,381,6751111,,,2021-10-08,清算の結了等,,,2015-10-05,1,,,,,オオキユセツ,0
180,1140002012680,登記記録の閉鎖等,0,2021-10-14,2021-10-05,有限会社赤田商店,,有限会社,兵庫県,神戸市兵庫区,荒田町４丁目２９番２２－１３０６号,,28,105,6520032,,,2021-10-05,清算の結了等,,,2015-10-05,1,,,,,アカダショウテン,0
191,1180001030614,登記記録の閉鎖等,0,2021-10-14,2021-10-08,株式会社システムプラン,,株式会社,愛知県,名古屋市中村区,名駅２丁目３８番２号,,23,105,4500002,,,2021-10-08,合併による解散等,3240001027016,令和３年９月１日広島県呉市広白石二丁目７番５－１０１号株式会社ダイキエンジニアリング（3240001027016）に合併し解散,2015-10-05,1,,,,,システムプラン,0
193,1180001046833,登記記録の閉鎖等,0,2021-10-14,2021-10-07,株式会社ＮＴＴファシリティーズ東海,,株式会社,愛知県,名古屋市熱田区,五本松町７番３０号,,23,109,4560016,,,2021-10-07,合併による解散等,3010401005008,令和３年１０月１日東京都港区芝浦三丁目４番１号株式会社ＮＴＴファシリティーズ（3010401005008）に合併し解散,2015-10-05,1,,,,,エヌティティファシリティーズトウカイ,0
216,1200001007221,登記記録の閉鎖等,0,2021-10-14,2021-10-08,株式会社ギフカナール商事,,株式会社,岐阜県,各務原市,神置町３丁目５番地,,21,213,5040933,,,2021-10-08,清算の結了等,,,2015-10-05,1,,,,,ギフカナールショウジ,0
219,1210002003193,登記記録の閉鎖等,0,2021-10-14,2021-10-07,有限会社福井外装,,有限会社,福井県,福井市,宝永２丁目１０番２号,,18,201,9100004,,,2021-10-07,清算の結了等,,,2015-10-05,1,,,,,フクイガイソウ,0
223,1240002025945,登記記録の閉鎖等,0,2021-10-14,2021-10-12,有限会社ファミリー川尻,,有限会社,広島県,広島市佐伯区,五日市５丁目１１番２２号,,34,108,7315127,,,2021-10-12,清算の結了等,,,2015-10-05,1,,,,,ファミリーカワジリ,0
226,1290001013401,登記記録の閉鎖等,0,2021-10-14,2021-09-29,株式会社ＳＳ,,株式会社,福岡県,福岡市西区,石丸２丁目４１番７－４０５号,,40,135,8190025,,,2021-09-29,清算の結了等,,,2015-10-05,1,,,,,エスエス,0
244,1330001001343,登記記録の閉鎖等,0,2021-10-14,2021-10-11,熊本医薬株式会社,,株式会社,熊本県,熊本市中央区,新屋敷２丁目１４番１６号,,43,101,8620975,,,2021-10-11,清算の結了等,,,2015-10-05,1,,,,,クマモトイヤク,0
250,1340003002982,登記記録の閉鎖等,0,2021-10-14,2021-10-07,合同会社夢大,,合同会社,鹿児島県,鹿屋市,今坂町１０１１１番地６,,46,203,8930057,,,2021-10-07,清算の結了等,,,2019-12-20,1,,,,,ムゲン,0
262,1370003001643,登記記録の閉鎖等,0,2021-10-14,2021-10-04,合同会社ここち,,合同会社,宮城県,仙台市太白区,四郎丸字昭和上３４番地の３,,04,104,9811101,,,2021-10-04,清算の結了等,,,2015-10-05,1,,,,,ココチ,0
271,1390001011535,登記記録の閉鎖等,0,2021-10-14,2021-10-08,株式会社東日本アグリ,,株式会社,山形県,長井市,今泉５５２番地,,06,209,9930033,,,2021-10-08,清算の結了等,,,2015-10-05,1,,,,,ヒガシニホンアグリ,0
273,1390001013184,登記記録の閉鎖等,0,2021-10-14,2021-10-08,山形芋煮ファーム株式会社,,株式会社,山形県,山形市,城西町２丁目１０番１号,,06,201,9900832,,,2021-10-08,清算の結了等,,,2015-10-05,1,,,,,ヤマガタイモニファーム,0
277,1420001014229,登記記録の閉鎖等,0,2021-10-14,2021-10-07,株式会社やながわ福祉会,,株式会社,青森県,青森市,千刈１丁目１６番７号,,02,201,0380015,,,2021-10-07,清算の結了等,,,2015-10-05,1,,,,,ヤナガワフクシカイ,0
298,2010001026512,登記記録の閉鎖等,0,2021-10-14,2021-10-08,パーソナル株式会社,,株式会社,東京都,千代田区,九段南３丁目３番６号,,13,101,1020074,,,2021-10-08,合併による解散等,8011101017783,令和３年１０月１日東京都新宿区新宿三丁目２７番４号パーソルマーケティング株式会社（8011101017783）に合併し解散,2015-10-05,1,,,,,パーソナル,0
305,2010001088734,登記記録の閉鎖等,0,2021-10-14,2021-10-05,株式会社タスク・イー,,株式会社,東京都,中央区,湊３丁目１番７号,,13,102,1040043,,,2021-10-05,清算の結了等,,,2015-10-05,1,,,,,タスクイー,0
318,2010003021809,登記記録の閉鎖等,0,2021-10-14,2021-10-07,合同会社ウィーピングオウル,,合同会社,東京都,豊島区,池袋本町１丁目２５番１４号池袋マンション３０１号室,,13,116,1700011,,,2021-10-07,清算の結了等,,,2015-10-05,1,,,,,ウィーピングオウル,0
338,2010601044335,登記記録の閉鎖等,0,2021-10-14,2021-10-01,株式会社ＳＥＯ研究所,,株式会社,東京都,江東区,有明３丁目７番２６号,,13,108,1350063,,,2021-10-01,清算の結了等,,,2015-10-05,1,,,,,エスイーオーケンキュウジョ,0
346,2010902010143,登記記録の閉鎖等,0,2021-10-14,2021-10-11,有限会社ティ・ズィ,,有限会社,東京都,世田谷区,尾山台３丁目９番７号,,13,112,1580086,,,2021-10-11,清算の結了等,,,2015-10-05,1,,,,,ティズィ,0
357,2011501001079,登記記録の閉鎖等,0,2021-10-14,2021-10-05,株式会社カルナック,,株式会社,東京都,千代田区,丸の内１丁目８番３号,,13,101,1000005,,,2021-10-05,合併による解散等,8010001133757,令和３年１０月１日東京都千代田区丸の内一丁目８番３号カルビー株式会社（8010001133757）に合併し解散,2015-10-05,1,,,,,カルナック,0
359,2011601016217,登記記録の閉鎖等,0,2021-10-14,2021-10-11,シー・エフ・ジー株式会社,,株式会社,東京都,練馬区,豊玉北５丁目６番９号,,13,120,1760012,,,2021-10-11,清算の結了等,,,2015-10-05,1,,,,,シーエフジー,0
364,2012301010286,登記記録の閉鎖等,0,2021-10-14,2021-10-05,株式会社Ｄ．ＴＴ．Ｋ,,株式会社,東京都,渋谷区,神宮前６丁目２３番１２号,,13,113,1500001,,,2021-10-05,合併による解散等,5020001117514,令和３年１０月１日東京都品川区西五反田三丁目１５番６号株式会社ＢＲＨ（5020001117514）に合併し解散,2015-10-15,1,,,,,ディーティーティーケー,0
367,2012402005466,登記記録の閉鎖等,0,2021-10-14,2021-10-08,有限会社富士見光学,,有限会社,東京都,小金井市,東町４丁目２２番６号,,13,210,1840011,,,2021-10-08,清算の結了等,,,2015-10-05,1,,,,,フジミコウガク,0
368,2012802003607,登記記録の閉鎖等,0,2021-10-14,2021-10-07,有限会社原島自動車,,有限会社,東京都,昭島市,宮沢町３丁目１番２７号,,13,207,1960024,,,2021-10-07,清算の結了等,,,2015-10-05,1,,,,,ハラシマジドウシャ,0
386,2021002024727,登記記録の閉鎖等,0,2021-10-14,2021-10-04,有限会社武藏エンジニアリング,,有限会社,神奈川県,相模原市緑区,大島３０１６番地の１４,,14,151,2520135,,,2021-10-04,清算の結了等,,,2015-10-05,1,,,,,ムサシエンジニアリング,0
409,2050002016459,登記記録の閉鎖等,0,2021-10-14,2021-10-07,有限会社英光工業,,有限会社,茨城県,石岡市,小見１０４９番地６,,08,205,3150104,,,2021-10-07,清算の結了等,,,2015-10-05,1,,,,,,0
410,2050005003545,登記記録の閉鎖等,0,2021-10-14,2021-10-06,農事組合法人小川農場つくばファーム,,その他の設立登記法人,茨城県,石岡市,三村２４５９番地の３,,08,205,3150048,,,2021-10-06,清算の結了等,,,2015-10-05,1,,,,,オガワノウジョウツクバファーム,0
421,2080402003665,登記記録の閉鎖等,0,2021-10-14,2021-10-07,有限会社シバザキ壁装,,有限会社,静岡県,浜松市中区,中沢町４６番５５号,,22,131,4300904,,,2021-10-07,清算の結了等,,,2015-10-05,1,,,,,シバザキヘキソウ,0
422,2080402014539,登記記録の閉鎖等,0,2021-10-14,2021-10-08,有限会社すみれ会,,有限会社,静岡県,浜松市中区,広沢１丁目２６番１６号,,22,131,4328013,,,2021-10-08,清算の結了等,,,2015-10-05,1,,,,,スミレカイ,0
423,2080402017541,登記記録の閉鎖等,0,2021-10-14,2021-10-07,東海リース株式会社,,株式会社,静岡県,浜松市中区,鴨江町９６番地の１５夕映え館内１０１号,,22,131,4328024,,,2021-10-07,清算の結了等,,,2015-10-05,1,,,,,トウカイリース,0
431,2120001121327,登記記録の閉鎖等,0,2021-10-14,2021-10-11,株式会社響,,株式会社,大阪府,大阪市住吉区,我孫子１丁目７番８号,,27,120,5580014,,,2021-10-11,清算の結了等,,,2015-10-05,1,,,,,ヒビキ,0
445,2120002078517,登記記録の閉鎖等,0,2021-10-14,2021-10-08,有限会社鈴木プレス,,有限会社,大阪府,守口市,梶町２丁目１５番１１号,,27,209,5700015,,,2021-10-08,清算の結了等,,,2015-10-05,1,,,,,スズキプレス,0
453,2120102007516,登記記録の閉鎖等,0,2021-10-14,2021-10-11,株式会社ほのぼの,,株式会社,大阪府,堺市堺区,中永山園２番９号,,27,141,5900033,,,2021-10-11,清算の結了等,,,2015-10-05,1,,,,,ホノボノ,0
457,2130001000117,登記記録の閉鎖等,0,2021-10-14,2021-10-11,アタゴ工業株式会社,,株式会社,京都府,京都市南区,吉祥院中河原里西町３５番地,,26,107,6018393,,,2021-10-11,清算の結了等,,,2015-10-05,1,,,,,,0
459,2130002000586,登記記録の閉鎖等,0,2021-10-14,2021-10-11,有限会社ケー・ディ・ジェイ,,有限会社,京都府,京都市右京区,太秦藤ケ森町１番地８１,,26,108,6168131,,,2021-10-11,清算の結了等,,,2015-10-05,1,,,,,ケーディジェイ,0
483,2180001015192,登記記録の閉鎖等,0,2021-10-14,2021-10-08,株式会社南陽,,株式会社,愛知県,名古屋市南区,三条１丁目４番３０号,,23,112,4570866,,,2021-10-08,合併による解散等,1120001103433,令和３年１０月１日大阪市北区豊崎三丁目３番１３号株式会社ニチホス（1120001103433）に合併し解散,2015-10-05,1,,,,,ナンヨウ,0
501,2210001010025,登記記録の閉鎖等,0,2021-10-14,2021-10-11,株式会社宏伸商事,,株式会社,福井県,勝山市,旭町２丁目２番３７号,,18,206,9110803,,,2021-10-11,清算の結了等,,,2015-10-05,1,,,,,コウシンショウジ,0
512,2260001029060,登記記録の閉鎖等,0,2021-10-14,2021-10-12,株式会社まちづくり新庄村,,株式会社,岡山県,真庭郡新庄村,１１４３番地４,,33,586,7170201,,,2021-10-12,清算の結了等,,,2015-12-17,1,,,,,マチヅクリシンジョウソン,0
513,2260002009144,登記記録の閉鎖等,0,2021-10-14,2021-10-08,有限会社星島会計,,有限会社,岡山県,岡山市南区,妹尾１８６７番地２０,,33,104,7010205,,,2021-10-08,清算の結了等,,,2015-10-05,1,,,,,ホシジマカイケイ,0
516,2290001009654,登記記録の閉鎖等,0,2021-10-14,2021-09-29,株式会社ＳＢ,,株式会社,福岡県,福岡市西区,石丸２丁目４１番７‐４０５号,,40,135,8190025,,,2021-09-29,清算の結了等,,,2015-10-05,1,,,,,エスビー,0
552,2430002004482,登記記録の閉鎖等,0,2021-10-14,2021-10-08,有限会社オリエ企画,,有限会社,北海道,札幌市西区,西野八条９丁目１７番８号,,01,107,0630038,,,2021-10-08,清算の結了等,,,2015-10-05,1,,,,,オリエキカク,0
572,3010002018499,登記記録の閉鎖等,0,2021-10-14,2021-10-06,有限会社河合タオル店,,有限会社,東京都,中央区,日本橋浜町３丁目１９番２号,,13,102,1030007,,,2021-10-06,清算の結了等,,,2015-10-05,1,,,,,カワイタオルテン,0
597,3010901035215,登記記録の閉鎖等,0,2021-10-14,2021-09-30,株式会社Ｓｕｍｍｅｒ,,株式会社,東京都,渋谷区,恵比寿南３丁目１－２４,,13,113,1500022,,,2021-09-30,清算の結了等,,,2015-10-05,1,,,,,サマー,0
601,3011001094069,登記記録の閉鎖等,0,2021-10-14,2021-09-27,株式会社食育ずかん,,株式会社,東京都,渋谷区,広尾１丁目１番３５－９０３号,,13,113,1500012,,,2021-09-27,清算の結了等,,,2015-10-05,1,,,,,ショクイクズカン,0
622,3012705000163,登記記録の閉鎖等,0,2021-10-14,2021-10-05,企業組合ワーカーズ・コレクティブ翔,,その他の設立登記法人,東京都,西東京市,西原町１丁目３番１４号西原ＩＳハイツ１階,,13,229,1880004,,,2021-10-05,清算の結了等,,,2015-10-05,1,,,,,ワーカーズコレクティブショウ,0
627,3013202002818,登記記録の閉鎖等,0,2021-10-14,2021-09-29,有限会社三柏商事,,有限会社,東京都,目黒区,洗足２丁目２４番２２号,,13,110,1520012,,,2021-09-29,清算の結了等,,,2015-10-05,1,,,,,ミツガシワショウジ,0
631,3021002047495,登記記録の閉鎖等,0,2021-10-14,2021-10-08,有限会社湘南テック,,有限会社,神奈川県,綾瀬市,深谷上７丁目３４番８号,,14,218,2521108,,,2021-10-08,清算の結了等,,,2015-10-05,1,,,,,ショウナンテック,0
636,3030001126846,登記記録の閉鎖等,0,2021-10-14,2021-10-04,株式会社創,,株式会社,埼玉県,さいたま市桜区,大字下大久保１１１０番地１,,11,106,3380825,,,2021-10-04,清算の結了等,,,2018-08-02,1,,,,,ソウ,0
664,3060001006822,登記記録の閉鎖等,0,2021-10-14,2021-10-07,株式会社Ｂｏｒａ－Ｂｏｒａ,,株式会社,栃木県,宇都宮市,幸町４番７号,,09,201,3200848,,,2021-10-07,清算の結了等,,,2015-10-05,1,,,,,ボラボラ,0
668,3060002024625,登記記録の閉鎖等,0,2021-10-14,2021-10-07,有限会社お菓子の城那須ハートランド,,有限会社,栃木県,那須郡那須町,大字高久甲４５８８番地１０,,09,407,3250001,,,2021-10-07,清算の結了等,,,2015-10-05,1,,,,,オカシノシロナスハートランド,0
707,3130001064895,登記記録の閉鎖等,0,2021-10-14,2021-10-11,三友化学株式会社,,株式会社,京都府,綴喜郡宇治田原町,大字奥山田小字大福１６５番地,,26,344,6100211,,,2021-10-11,清算の結了等,,,2019-07-19,1,,,,,サンユウカガク,0
727,3150001016606,登記記録の閉鎖等,0,2021-10-14,2021-10-07,株式会社クーリエ,,株式会社,奈良県,生駒市,東生駒１丁目３２２番地,,29,209,6300213,,,2021-10-07,合併による解散等,1150002003877,令和３年８月３０日奈良県生駒市北田原町１５４８番地１株式会社生駒市清掃社（1150002003877）に合併し解散,2015-10-05,1,,,,,クーリエ,0
733,3180001038242,登記記録の閉鎖等,0,2021-10-14,2021-10-11,長生商事株式会社,,株式会社,愛知県,名古屋市中区,葵２丁目１３番２３号,,23,106,4600006,,,2021-10-11,清算の結了等,,,2015-10-05,1,,,,,チョウセイショウジ,0
741,3180001119851,登記記録の閉鎖等,0,2021-10-14,2021-10-07,株式会社サンアーチ名古屋,,株式会社,愛知県,名古屋市緑区,鳴海町字上汐田２５番地珊プラザ丸信２・１階,,23,114,4580835,,,2021-10-07,合併による解散等,9180301025562,令和３年９月３０日愛知県刈谷市末広町一丁目１５番地１０岩崎ビル２Ｆ－Ｃ株式会社サンアーチ刈谷（9180301025562）に合併し解散,2015-10-05,1,,,,,サンアーチナゴヤ,0
743,3180001125981,登記記録の閉鎖等,0,2021-10-14,2021-10-07,株式会社ＣＬＯＶＥＲ,,株式会社,愛知県,春日井市,鳥居松町１丁目３２２番地,,23,206,4860844,,,2021-10-07,清算の結了等,,,2016-12-27,1,,,,,,0
744,3180001127508,登記記録の閉鎖等,0,2021-10-14,2021-10-05,株式会社エムズアソシエコーポレーション,,株式会社,愛知県,名古屋市中村区,則武１丁目１０番６号ノリタケ第１ビル５０５号室,,23,105,4530014,,,2021-10-05,合併による解散等,6180001021212,令和３年９月３０日名古屋市中川区宮脇町二丁目６５番地株式会社ヤマダ（6180001021212）に合併し解散,2017-04-26,1,,,,,エムズアソシエコーポレーション,0
747,3180002026188,登記記録の閉鎖等,0,2021-10-14,2021-10-08,有限会社トリムオーディオ,,有限会社,愛知県,名古屋市緑区,藤塚２丁目１１７番地,00080600,23,114,4580813,,,2021-10-08,清算の結了等,,,2015-10-05,1,,,,,トリムオーディオ,0
753,3190002014051,登記記録の閉鎖等,0,2021-10-14,2021-10-12,有限会社田中水産,,有限会社,三重県,松阪市,大口町１３９６番地の１２,,24,204,5150001,,,2021-10-12,清算の結了等,,,2015-10-05,1,,,,,タナカスイサン,0
760,3240001016745,登記記録の閉鎖等,0,2021-10-14,2021-10-13,株式会社Ｆグリップ,,株式会社,広島県,広島市中区,舟入南４丁目２０番３－３０６号,,34,101,7300847,,,2021-10-13,清算の結了等,,,2015-10-05,1,,,,,,0
769,3290001026905,登記記録の閉鎖等,0,2021-10-14,2021-09-30,株式会社伊都コミュニティサービス,,株式会社,福岡県,福岡市南区,那の川１丁目２４番１号,,40,134,8150081,,,2021-09-30,清算の結了等,,,2015-10-05,1,,,,,イトコミュニティサービス,0
770,3290001055375,登記記録の閉鎖等,0,2021-10-14,2021-09-29,株式会社エムズ,,株式会社,福岡県,福岡市博多区,中洲５丁目６番２４号１Ｆ,,40,132,8100801,,,2021-09-29,清算の結了等,,,2015-10-05,1,,,,,エムズ,0
786,3340002000291,登記記録の閉鎖等,0,2021-10-14,2021-10-07,有限会社二見屋製菓,,有限会社,鹿児島県,鹿児島市,東俣町３９４６番地１０,,46,201,8911102,,,2021-10-07,清算の結了等,,,2015-10-05,1,,,,,フタミヤセイカ,0
789,3350002013061,登記記録の閉鎖等,0,2021-10-14,2021-10-11,有限会社玉置水産,,有限会社,宮崎県,延岡市,島浦町７６８番地,,45,203,8820096,,,2021-10-11,清算の結了等,,,2015-10-05,1,,,,,タマオキスイサン,0
795,3370001008011,登記記録の閉鎖等,0,2021-10-14,2021-10-01,株式会社コールメディカ,,株式会社,宮城県,仙台市青葉区,子平町１番２０号,,04,101,9810944,,,2021-10-01,合併による解散等,2370001003186,令和３年１０月１日仙台市若林区卸町二丁目１１番地３株式会社シバタインテック（2370001003186）に合併し解散,2015-10-05,1,,,,,コールメディカ,0
806,3380002022984,登記記録の閉鎖等,0,2021-10-14,2021-10-08,有限会社賀沢水道,,有限会社,福島県,いわき市,四倉町上仁井田字前原２８番地,,07,204,9790202,,,2021-10-08,清算の結了等,,,2015-10-05,1,,,,,カザワスイドウ,0
808,3420001001547,登記記録の閉鎖等,0,2021-10-14,2021-10-12,株式会社東和鋼業,,株式会社,青森県,青森市,大字横内字亀井２６５番地１,,02,201,0300132,,,2021-10-12,清算の結了等,,,2015-10-05,1,,,,,,0
813,3430001049247,登記記録の閉鎖等,0,2021-10-14,2021-10-08,株式会社イールズ,,株式会社,北海道,札幌市手稲区,前田八条１２丁目５番１２号,,01,109,0060818,,,2021-10-08,清算の結了等,,,2015-10-05,1,,,,,イールズ,0
819,3460101003068,登記記録の閉鎖等,0,2021-10-14,2021-10-13,株式会社新井自工,,株式会社,北海道,上川郡清水町,字清水東１線５８番地２,,01,636,0890103,,,2021-10-13,清算の結了等,,,2015-10-05,1,,,,,アライジコウ,0
839,4010001214890,登記記録の閉鎖等,0,2021-10-14,2021-10-05,Ｂｉｇ　Ｃａｔ株式会社,,株式会社,東京都,中央区,日本橋蛎殻町１丁目１９番１号,,13,102,1030014,,,2021-10-05,清算の結了等,,,2021-01-06,1,,,,,ビッグキャット,0
865,4010603006075,登記記録の閉鎖等,0,2021-10-14,2021-10-07,壮大生活合同会社,,合同会社,神奈川県,横浜市中区,尾上町６丁目８７番地１ダイムラービル,,14,104,2310015,,,2021-10-07,清算の結了等,,,2015-10-05,1,,,,,ソウダイセイカツ,0
908,4012401014680,登記記録の閉鎖等,0,2021-10-14,2021-10-07,株式会社ポリフォニー,,株式会社,神奈川県,横浜市西区,岡野２丁目１５番３１号,,14,103,2200073,,,2021-10-07,清算の結了等,,,2015-10-05,1,,,,,ポリフォニー,0
932,4020002045046,登記記録の閉鎖等,0,2021-10-14,2021-10-08,有限会社ほのぼの商事,,有限会社,神奈川県,横浜市中区,山元町３丁目１４２番地,,14,104,2310851,,,2021-10-08,清算の結了等,,,2015-10-05,1,,,,,ホノボノショウジ,0
944,4021005005219,登記記録の閉鎖等,0,2021-10-14,2021-10-12,医療法人社団惠松会,,その他の設立登記法人,神奈川県,海老名市,柏ケ谷１１４１番地,,14,215,2430402,,,2021-10-12,清算の結了等,,,2015-10-05,1,,,,,ケイショウカイ,0
953,4030002018281,登記記録の閉鎖等,0,2021-10-14,2021-10-04,有限会社ティ・アンド・ティ,,有限会社,埼玉県,さいたま市南区,南浦和３丁目３５番２２号ヴィラ明和３０２号,,11,108,3360017,,,2021-10-04,清算の結了等,,,2015-10-05,1,,,,,ティアンドティ,0
955,4030002051209,登記記録の閉鎖等,0,2021-10-14,2021-10-01,有限会社ビクトリア・アロイ・ジャパン・リミテッド,,有限会社,埼玉県,草加市,谷塚町７３４－１－９－１０１,,11,221,3400023,,,2021-10-01,清算の結了等,,,2015-10-05,1,,,,,ビクトリアアロイジャパンリミテッド,0
956,4030002095676,登記記録の閉鎖等,0,2021-10-14,2021-10-01,有限会社ドリームファクトリー,,有限会社,埼玉県,東松山市,箭弓町１丁目６番１３号,00017412,11,212,3550028,,,2021-10-01,清算の結了等,,,2015-10-05,1,,,,,ドリームファクトリー,0
962,4040001116399,登記記録の閉鎖等,0,2021-10-14,2021-10-06,株式会社ＳＯＬ,,株式会社,千葉県,流山市,おおたかの森東３丁目１２番地の１７,,12,220,2700138,,,2021-10-06,清算の結了等,,,2020-12-21,1,,,,,ソル,0
967,4040003008999,登記記録の閉鎖等,0,2021-10-14,2021-10-06,合同会社飛翔,,合同会社,千葉県,習志野市,東習志野４丁目１５番３号,,12,216,2750001,,,2021-10-06,合併による解散等,4040003013017,令和３年１０月１日千葉県八千代市勝田台一丁目１４番地２０シントクビル３階合同会社カレント（4040003013017）に合併し解散,2016-08-30,1,,,,,ヒショウ,0
987,4120001036119,登記記録の閉鎖等,0,2021-10-14,2021-10-11,株式会社鱧六,,株式会社,大阪府,大阪市福島区,福島７丁目５番１６号,,27,103,5530003,,,2021-10-11,清算の結了等,,,2015-10-05,1,,,,,ハモロク,0
997,4120002035821,登記記録の閉鎖等,0,2021-10-14,2021-10-08,有限会社彩美工芸,,有限会社,大阪府,大阪市中央区,本町橋７番１７号,,27,128,5400029,,,2021-10-08,清算の結了等,,,2015-10-05,1,,,,,,0
1000,4120005000418,登記記録の閉鎖等,0,2021-10-14,2021-09-07,天理教治倉分教会,,その他の設立登記法人,大阪府,大阪市大正区,南恩加島町１番地の４２,,27,108,5510000,,,2021-09-07,合併による解散等,8150005000510,令和３年９月１日奈良市今市町２８５番地の１天理教治道大教会（8150005000510）に合併し解散,2015-10-05,1,,,,,,1
1002,4120005002199,登記記録の閉鎖等,0,2021-10-14,2021-10-11,明正教弥栄分教会,,その他の設立登記法人,大阪府,大阪市東淀川区,西町５１０番地,,27,114,5330000,,,2021-10-11,清算の結了等,,,2015-10-05,1,,,,,メイセイキョウヤエイブンキョウカイ,1
1018,4140002000352,登記記録の閉鎖等,0,2021-10-14,2021-10-07,有限会社宏升,,有限会社,兵庫県,芦屋市,大原町６番１３号,,28,206,6590092,,,2021-10-07,清算の結了等,,,2015-10-05,1,,,,,コウショウ,0
1020,4140002038574,登記記録の閉鎖等,0,2021-10-14,2021-10-08,有限会社みなさんかいご,,有限会社,兵庫県,加古川市,野口町野口３１２番地の２１,,28,210,6750012,,,2021-10-08,清算の結了等,,,2015-10-05,1,,,,,ミナサンカイゴ,0
1028,4180001085647,登記記録の閉鎖等,0,2021-10-14,2021-10-11,梅村産業株式会社,,株式会社,愛知県,稲沢市,天池東町１８７番地,,23,220,4928282,,,2021-10-11,清算の結了等,,,2015-10-05,1,,,,,ウメムラサンギョウ,0
1038,4180002050765,登記記録の閉鎖等,0,2021-10-14,2021-10-06,オーケーワイ工業有限会社,,有限会社,愛知県,名古屋市北区,楠１丁目５０７番地,,23,103,4620012,,,2021-10-06,清算の結了等,,,2015-10-05,1,,,,,オーケーワイコウギョウ,0
1039,4180002072966,登記記録の閉鎖等,0,2021-10-14,2021-10-04,有限会社パスタビーノ,,有限会社,愛知県,名古屋市東区,泉２丁目１９番１１号,,23,102,4610001,,,2021-10-04,合併による解散等,1180001059868,令和３年９月３０日名古屋市南区豊三丁目２７番１９号こうようサポート株式会社（1180001059868）に合併し解散,2015-10-05,1,,,,,パスタビーノ,0
1045,4180302013414,登記記録の閉鎖等,0,2021-10-14,2021-10-11,有限会社鈴木兄弟製作所,,有限会社,愛知県,豊川市,大崎町宮之坪３６番地,,23,207,4420007,,,2021-10-11,清算の結了等,,,2015-10-05,1,,,,,スズキキョウダイセイサクショ,0
1046,4180302016929,登記記録の閉鎖等,0,2021-10-14,2021-10-12,有限会社都築室内美装,,有限会社,愛知県,安城市,赤松町本郷３４番地,,23,212,4460046,,,2021-10-12,清算の結了等,,,2015-10-05,1,,,,,ツヅキシツナイビソウ,0
1047,4190001026716,登記記録の閉鎖等,0,2021-10-14,2021-09-06,株式会社アヴァン・キュイエパ,,株式会社,三重県,津市,半田１０１７番地４,,24,201,5140823,,,2021-09-06,合併による解散等,5070001025217,令和３年９月１日群馬県太田市飯塚町２０５６株式会社アン・アヴァン（5070001025217）に合併し解散,2019-09-06,1,,,,,アヴァンキュイエパ,0
1057,4210002012877,登記記録の閉鎖等,0,2021-10-14,2021-10-07,有限会社河原木工,,有限会社,福井県,鯖江市,上野田町第４号５１番地の７,,18,207,9160074,,,2021-10-07,清算の結了等,,,2015-10-05,1,,,,,,0
1061,4240002032121,登記記録の閉鎖等,0,2021-10-14,2021-10-12,有限会社一原商店,,有限会社,広島県,呉市,三条３丁目２番１７号,,34,202,7370821,,,2021-10-12,清算の結了等,,,2015-10-05,1,,,,,イチハラショウテン,0
1084,4320001009814,登記記録の閉鎖等,0,2021-10-14,2021-10-11,株式会社住化ファームおおいた,,株式会社,大分県,豊後大野市,三重町宮野字細長８８番地,,44,212,8797101,,,2021-10-11,合併による解散等,8120001082324,令和３年１０月１日大阪市中央区高麗橋四丁目６番１７号住化農業資材株式会社（8120001082324）に合併し解散,2015-10-05,1,,,,,スミカファームオオイタ,0
1100,4380001002994,登記記録の閉鎖等,0,2021-10-14,2021-10-05,株式会社イースト,,株式会社,東京都,中央区,日本橋茅場町２丁目３番６号宗和ビル７階,,13,102,1030025,,,2021-10-05,清算の結了等,,,2015-10-05,1,,,,,イースト,0
1111,4420002007492,登記記録の閉鎖等,0,2021-10-14,2021-10-11,青踏有限会社,,有限会社,青森県,八戸市,大字河原木字谷地田１６番地の１,,02,203,0391161,,,2021-10-11,清算の結了等,,,2015-10-05,1,,,,,,0
1122,4440002003135,登記記録の閉鎖等,0,2021-10-14,2021-10-06,有限会社中川保険部,,有限会社,北海道,函館市,西桔梗町５８９番地の５１,,01,202,0410824,,,2021-10-06,清算の結了等,,,2015-10-05,1,,,,,ナカガワホケンブ,0
1139,5010003028891,登記記録の閉鎖等,0,2021-10-14,2021-10-06,ＪＴＫ３１合同会社,,合同会社,東京都,千代田区,有楽町１丁目２番２号,,13,101,1000006,,,2021-10-06,清算の結了等,,,2018-12-13,1,,,,,ジェイティーケーサンジュウイチ,0
1143,5010005032082,登記記録の閉鎖等,0,2021-10-14,2021-10-11,一般社団法人ＲＥＩＷＡ,,その他の設立登記法人,東京都,台東区,上野７丁目９番１５号,,13,106,1100005,,,2021-10-11,清算の結了等,,,2020-08-03,1,,,,,レイワ,0
1151,5010501026406,登記記録の閉鎖等,0,2021-10-14,2021-10-04,株式会社ツナググループ・テクノロジーズ,,株式会社,東京都,千代田区,神田三崎町３丁目１－１６,,13,101,1010061,,,2021-10-04,合併による解散等,1010001166870,令和３年１０月１日東京都千代田区神田三崎町三丁目１番１６号株式会社ツナググループＨＣ（1010001166870）に合併し解散,2015-10-05,1,,,,,ツナググループテクノロジーズ,0
1153,5010601027584,登記記録の閉鎖等,0,2021-10-14,2021-10-01,株式会社十一房清菱印刷,,株式会社,東京都,墨田区,菊川３丁目１１番６号,,13,107,1300024,,,2021-10-01,合併による解散等,3010601040201,令和３年１０月１日東京都墨田区菊川三丁目１１番６号十一房印刷工業株式会社（3010601040201）に合併し解散,2015-10-05,1,,,,,ジュウイチボウセイリョウインサツ,0
1159,5010602000144,登記記録の閉鎖等,0,2021-10-14,2021-09-29,有限会社新井商店,,有限会社,東京都,江東区,亀戸５丁目１６番２０号,,13,108,1360071,,,2021-09-29,清算の結了等,,,2015-10-05,1,,,,,アライショウテン,0
1181,5011501015596,登記記録の閉鎖等,0,2021-10-14,2021-10-07,ＰＥＮＳＡＤＯＲ株式会社,,株式会社,東京都,北区,田端４丁目１番３号,,13,117,1140014,,,2021-10-07,清算の結了等,,,2015-10-05,1,,,,,,0
1188,5011801010611,登記記録の閉鎖等,0,2021-10-14,2021-10-12,直井瓦斯興業株式会社,,株式会社,東京都,足立区,入谷９丁目１２番１１号,,13,121,1210836,,,2021-10-12,清算の結了等,,,2015-10-05,1,,,,,ナオイガスコウギョウ,0
1202,5020001033950,登記記録の閉鎖等,0,2021-10-14,2021-10-08,臨港産業株式会社,,株式会社,神奈川県,横浜市鶴見区,馬場７丁目２９番９号,,14,101,2300076,,,2021-10-08,清算の結了等,,,2015-10-05,1,,,,,リンコウサンギョウ,0
1205,5020001114040,登記記録の閉鎖等,0,2021-10-14,2021-10-07,コンフォート・デイリー株式会社,,株式会社,神奈川県,横浜市中区,尾上町６丁目８７番地１ダイムラービル,,14,104,2310015,,,2021-10-07,清算の結了等,,,2015-12-17,1,,,,,コンフォートデイリー,0
1208,5020001137132,登記記録の閉鎖等,0,2021-10-14,2021-10-08,株式会社ケーピーエフ,,株式会社,神奈川県,横浜市戸塚区,下倉田町５５５番地第一山仁ハイツ３０１号,,14,110,2440815,,,2021-10-08,清算の結了等,,,2020-08-06,1,,,,,ケーピーエフ,0
1220,5021003006440,登記記録の閉鎖等,0,2021-10-14,2021-10-11,ＵＭＲ合同会社,,合同会社,神奈川県,厚木市,上依知１３３９番地１,,14,212,2430801,,,2021-10-11,清算の結了等,,,2017-01-27,1,,,,,ユーエムアール,0
1224,5030002049722,登記記録の閉鎖等,0,2021-10-14,2021-10-04,有限会社フジタ工装,,有限会社,埼玉県,三郷市,高州３丁目４４６番地１０,,11,237,3410037,,,2021-10-04,清算の結了等,,,2015-10-05,1,,,,,フジタコウソウ,0
1238,5050001014659,登記記録の閉鎖等,0,2021-10-14,2021-10-06,坂東青果株式会社,,株式会社,茨城県,坂東市,借宿５４１番１,,08,228,3060657,,,2021-10-06,清算の結了等,,,2015-10-05,1,,,,,バンドウセイカ,0
1247,5070005000926,登記記録の閉鎖等,0,2021-10-14,2021-09-02,勢多前橋農業協同組合連合会,,その他の設立登記法人,群馬県,前橋市,南町４丁目３０番地３,,10,201,3710805,,,2021-09-02,合併による解散等,7070005000924,令和３年９月１日群馬県前橋市富田町２４００番地の１前橋市農業協同組合（7070005000924）に権利義務を承継し解散,2015-10-05,1,,,,,セタマエバシ,0
1250,5070005009876,登記記録の閉鎖等,0,2021-10-14,2021-10-06,下発知農事實行組合,,その他の設立登記法人,群馬県,沼田市,下発知町２４２番地,,10,206,3780074,,,2021-10-06,清算の結了等,,,2021-07-14,1,,,,,シモホッチ,0
1251,5080001001043,登記記録の閉鎖等,0,2021-10-14,2021-10-12,株式会社加藤商店,,株式会社,静岡県,静岡市葵区,住吉町２丁目３８番地,,22,101,4200016,,,2021-10-12,清算の結了等,,,2015-10-05,1,,,,,カトウショウテン,0
1254,5080402009684,登記記録の閉鎖等,0,2021-10-14,2021-10-12,有限会社佃工建,,有限会社,静岡県,湖西市,新居町中之郷３５６番地,,22,221,4310301,,,2021-10-12,清算の結了等,,,2015-10-05,1,,,,,ツクダコウケン,0
1255,5080403002564,登記記録の閉鎖等,0,2021-10-14,2021-10-08,合同会社山才寺田,,合同会社,静岡県,磐田市,福田４５４１番地,,22,211,4371203,,,2021-10-08,清算の結了等,,,2015-10-05,1,,,,,ヤマサイテラダ,0
1258,5100001028182,登記記録の閉鎖等,0,2021-10-14,2021-10-11,株式会社マツヤマ,,株式会社,長野県,飯田市,北方２３１５番地１１,,20,205,3950151,,,2021-10-11,清算の結了等,,,2015-10-05,1,,,,,マツヤマ,0
1260,5100002015790,登記記録の閉鎖等,0,2021-10-14,2021-10-11,有限会社五月女屋,,有限会社,長野県,東御市,田中１８２番地,,20,219,3890516,,,2021-10-11,清算の結了等,,,2015-10-05,1,,,,,ソウトメヤ,0
1290,5122001007189,登記記録の閉鎖等,0,2021-10-14,2021-10-12,ミキヤ家具株式会社,,株式会社,大阪府,東大阪市,上小阪１丁目１番１８号,,27,227,5770806,,,2021-10-12,清算の結了等,,,2015-10-05,1,,,,,ミキヤカグ,0
1297,5140001029978,登記記録の閉鎖等,0,2021-10-14,2021-10-05,株式会社コウハツ,,株式会社,兵庫県,神戸市垂水区,神陵台９丁目２０番３号,,28,108,6550041,,,2021-10-05,清算の結了等,,,2015-10-05,1,,,,,コウハツ,0
1302,5140002045306,登記記録の閉鎖等,0,2021-10-14,2021-10-11,有限会社ユニットイージー,,有限会社,兵庫県,宝塚市,安倉南３丁目３番２－１０３号,,28,214,6650823,,,2021-10-11,清算の結了等,,,2015-10-05,1,,,,,ユニットイージー,0
1303,5140002047021,登記記録の閉鎖等,0,2021-10-14,2021-10-08,有限会社米田茶店,,有限会社,兵庫県,美方郡新温泉町,浜坂２３５０番地の６,,28,586,6696702,,,2021-10-08,清算の結了等,,,2015-10-05,1,,,,,ヨネダチャテン,0
1307,5160002009333,登記記録の閉鎖等,0,2021-10-14,2021-10-08,有限会社アミューズエス,,有限会社,滋賀県,東近江市,八日市浜野町３番１号,,25,213,5270011,,,2021-10-08,清算の結了等,,,2015-10-05,1,,,,,アミューズエス,0
1308,5160002010365,登記記録の閉鎖等,0,2021-10-14,2021-10-12,有限会社アン,,有限会社,滋賀県,近江八幡市,鷹飼町１５５３番地イーストビル２０１号,,25,204,5230891,,,2021-10-12,清算の結了等,,,2015-10-05,1,,,,,アン,0
1313,5170005002549,登記記録の閉鎖等,0,2021-10-14,2021-10-08,有田市本町商店街振興組合,,その他の設立登記法人,和歌山県,有田市,箕島３０番地紀州有田商工会議所内,,30,204,6490304,,,2021-10-08,清算の結了等,,,2015-10-05,1,,,,,アリダシホンマチ,0
1314,5170005006351,登記記録の閉鎖等,0,2021-10-14,2021-10-13,特定非営利活動法人日本フィリピン親善協会,,その他の設立登記法人,和歌山県,和歌山市,栗栖４番地１,,30,201,6408305,,,2021-10-13,清算の結了等,,,2015-10-05,1,,,,,ニホンフィリピンシンゼンキョウカイ,0
1319,5180001142372,登記記録の閉鎖等,0,2021-10-14,2021-10-08,ユーテリア株式会社,,株式会社,愛知県,名古屋市西区,こも原町１４４番地,,23,104,4520824,,,2021-10-08,清算の結了等,,,2020-08-13,1,,,,,ユーテリア,0
1325,5180002032795,登記記録の閉鎖等,0,2021-10-14,2021-10-08,有限会社北西商事,,有限会社,愛知県,名古屋市昭和区,御器所２丁目１番３号,,23,107,4660051,,,2021-10-08,清算の結了等,,,2015-10-05,1,,,,,ホクセイショウジ,0
1330,5180302013363,登記記録の閉鎖等,0,2021-10-14,2021-10-11,有限会社鈴木鉄工所,,有限会社,愛知県,豊川市,小田渕町３丁目５１番地,,23,207,4420844,,,2021-10-11,清算の結了等,,,2015-10-05,1,,,,,スズキテッコウジョ,0
1337,5200002008669,登記記録の閉鎖等,0,2021-10-14,2021-10-13,有限会社ＬＩＦＥ・ＩＮ・アタック,,有限会社,岐阜県,岐阜市,春近古市場北１４４番地１,,21,201,5012524,,,2021-10-13,清算の結了等,,,2015-10-05,1,,,,,ライフインアタック,0
1341,5230002005639,登記記録の閉鎖等,0,2021-10-14,2021-10-07,有限会社カエツ,,有限会社,富山県,富山市,神通本町１丁目８番１３号,,16,201,9300008,,,2021-10-07,清算の結了等,,,2015-10-05,1,,,,,カエツ,0
1357,5280003000601,登記記録の閉鎖等,0,2021-10-14,2021-10-12,合同会社ワイズモア,,合同会社,島根県,益田市,高津４丁目１番７号,,32,204,6980041,,,2021-10-12,清算の結了等,,,2015-10-05,1,,,,,ワイズモア,0
1361,5290001073004,登記記録の閉鎖等,0,2021-10-14,2021-09-29,株式会社ｉＳＥＮアイセン,,株式会社,福岡県,福岡市中央区,今泉１丁目１０番２１号,,40,133,8100021,,,2021-09-29,清算の結了等,,,2016-02-24,1,,,,,アイセン,0
1375,5330002030288,登記記録の閉鎖等,0,2021-10-14,2021-10-11,有限会社嶽本精肉店,,有限会社,熊本県,人吉市,紺屋町１２２番地,,43,203,8680003,,,2021-10-11,清算の結了等,,,2015-10-05,1,,,,,タケモトセイニクテン,0
1405,5440002006203,登記記録の閉鎖等,0,2021-10-14,2021-10-08,有限会社物流サービス,,有限会社,北海道,亀田郡七飯町,字飯田町４番地４,,01,337,0411136,,,2021-10-08,清算の結了等,,,2015-10-05,1,,,,,ブツリュウサービス,0
1406,5450001007721,登記記録の閉鎖等,0,2021-10-14,2021-10-12,株式会社クリエイト企画,,株式会社,北海道,枝幸郡枝幸町,本町４５８番地１,,01,514,0985807,,,2021-10-12,清算の結了等,,,2015-10-05,1,,,,,クリエイトキカク,0
1409,5480001004732,登記記録の閉鎖等,0,2021-10-14,2021-10-11,コクフ株式会社,,株式会社,徳島県,阿波市,土成町宮川内字落久保６２番地１,,36,206,7711508,,,2021-10-11,清算の結了等,,,2015-10-05,1,,,,,コクフ,0
1421,6010001035699,登記記録の閉鎖等,0,2021-10-14,2021-10-06,株式会社アスク・ヒューマン・ケア,,株式会社,東京都,中央区,日本橋蛎殻町１丁目２番７号第１喜田村ビル１Ｆ,,13,102,1030014,,,2021-10-06,清算の結了等,,,2015-10-05,1,,,,,アスクヒューマンケア,0
1424,6010001124155,登記記録の閉鎖等,0,2021-10-14,2021-10-05,錦湖電機ジャパン株式会社,,株式会社,東京都,千代田区,外神田６丁目８番１１号工ビル２階,,13,101,1010021,,,2021-10-05,清算の結了等,,,2015-10-05,1,,,,,クムホデンキジャパン,0
1472,6011801030146,登記記録の閉鎖等,0,2021-10-14,2021-10-11,株式会社みやま,,株式会社,東京都,葛飾区,青戸２丁目１４番１０号,,13,122,1250062,,,2021-10-11,清算の結了等,,,2015-10-05,1,,,,,ミヤマ,0
1482,6013105001484,登記記録の閉鎖等,0,2021-10-14,2021-10-06,東京園芸市場協同組合,,その他の設立登記法人,東京都,大田区,東海２丁目２番１号,,13,111,1430001,,,2021-10-06,清算の結了等,,,2015-10-05,1,,,,,トウキョウエンゲイシジョウ,0
1488,6020001011105,登記記録の閉鎖等,0,2021-10-14,2021-10-08,株式会社エル・ビー・エス,,株式会社,神奈川県,横浜市青葉区,美しが丘２丁目２０番地１,,14,117,2250002,,,2021-10-08,清算の結了等,,,2015-10-05,1,,,,,エルビーエス,0
1498,6020001138939,登記記録の閉鎖等,0,2021-10-14,2021-10-07,Ｚ＆Ｙ株式会社,,株式会社,神奈川県,横浜市保土ケ谷区,瀬戸ケ谷町６３番地１－１０３号,,14,106,2400024,,,2021-10-07,清算の結了等,,,2020-12-10,1,,,,,ゼットアンドワイ,0
1527,6040002007711,登記記録の閉鎖等,0,2021-10-14,2021-10-06,司エンジニアリング有限会社,,有限会社,千葉県,千葉市稲毛区,山王町２１０番地の７,,12,103,2630002,,,2021-10-06,清算の結了等,,,2015-10-05,1,,,,,ツカサエンジニアリング,0
1537,6050001027536,登記記録の閉鎖等,0,2021-10-14,2021-10-05,エフエムエンジニアリング株式会社,,株式会社,茨城県,取手市,戸頭４丁目１番８号,,08,217,3020034,,,2021-10-05,清算の結了等,,,2015-10-05,1,,,,,エフエムエンジニアリング,0
1549,6080401020402,登記記録の閉鎖等,0,2021-10-14,2021-10-07,株式会社メイク・ワン,,株式会社,静岡県,磐田市,中泉２２２３番地２,,22,211,4380078,,,2021-10-07,清算の結了等,,,2015-10-05,1,,,,,メイクワン,0
1551,6080402021192,登記記録の閉鎖等,0,2021-10-14,2021-10-12,有限会社玉龍,,有限会社,静岡県,磐田市,上神増４１３番地の１,,22,211,4380115,,,2021-10-12,清算の結了等,,,2015-10-05,1,,,,,タマリュウ,0
1556,6090005007183,登記記録の閉鎖等,0,2021-10-14,2021-10-08,一般社団法人ブッダプログラム,,その他の設立登記法人,神奈川県,横浜市西区,浅間町１丁目１３番地１浅間ビル３Ｆ,,14,103,2200072,,,2021-10-08,清算の結了等,,,2018-10-09,1,,,,,ブッダプログラム,0
1558,6100001005874,登記記録の閉鎖等,0,2021-10-14,2021-10-06,株式会社長印須坂青果市場,,株式会社,長野県,須坂市,大字小島６８９番地１,,20,207,3820000,,,2021-10-06,合併による解散等,3100001006818,令和３年１０月１日長野市市場３番地１株式会社長印（3100001006818）に合併し解散,2015-10-05,1,,,,,チョウジルシスザカセイカシジョウ,0
1580,6120002050208,登記記録の閉鎖等,0,2021-10-14,2021-10-11,有限会社中西メディック,,有限会社,大阪府,大阪市住吉区,我孫子２丁目４番３号,,27,120,5580014,,,2021-10-11,清算の結了等,,,2015-10-05,1,,,,,ナカニシメディック,0
1588,6120101050406,登記記録の閉鎖等,0,2021-10-14,2021-10-12,ＮＥＸＴ　ＦＬＡＧ株式会社,,株式会社,大阪府,大阪狭山市,西山台１丁目８番８号,,27,231,5890022,,,2021-10-12,合併による解散等,1170001008256,令和３年７月２９日和歌山県岩出市西国分７９３番１株式会社ソワン（1170001008256）に合併し解散,2015-10-05,1,,,,,,0
1592,6130001028583,登記記録の閉鎖等,0,2021-10-14,2021-10-11,アクアフェアリー株式会社,,株式会社,宮崎県,延岡市,大武町３９番地１１２,,45,203,8820024,,,2021-10-11,清算の結了等,,,2015-10-05,1,,,,,アクアフェアリー,0
1602,6140002066210,登記記録の閉鎖等,0,2021-10-14,2021-10-08,有限会社ＶＯＩＣＥ　ＯＮＥ,,有限会社,兵庫県,伊丹市,松ケ丘１丁目１５８番１０１号,,28,207,6640024,,,2021-10-08,清算の結了等,,,2015-10-05,1,,,,,ヴォイスワン,0
1623,6180301026852,登記記録の閉鎖等,0,2021-10-14,2021-10-13,ＳＫグループ株式会社,,株式会社,愛知県,碧南市,天王町１丁目６２番地,,23,209,4470855,,,2021-10-13,清算の結了等,,,2015-10-05,1,,,,,,0
1638,6260003001154,登記記録の閉鎖等,0,2021-10-14,2021-10-04,ジョブ・パートナーズ合同会社,,合同会社,岡山県,岡山市北区,西古松１丁目１８－８－３０３号,,33,101,7000927,,,2021-10-04,清算の結了等,,,2015-10-05,1,,,,,ジョブパートナーズ,0
1642,6290001008462,登記記録の閉鎖等,0,2021-10-14,2021-09-29,大成住宅産業株式会社,,株式会社,福岡県,福岡市中央区,警固２丁目１７番２６号,,40,133,8100023,,,2021-09-29,清算の結了等,,,2015-10-05,1,,,,,タイセイジュウタクサンギョウ,0
1648,6290002049745,登記記録の閉鎖等,0,2021-10-14,2021-09-29,有限会社野田,,有限会社,福岡県,久留米市,藤山町１７６０番地の３,,40,203,8300053,,,2021-09-29,清算の結了等,,,2015-10-05,1,,,,,ノダ,0
1652,6290801001006,登記記録の閉鎖等,0,2021-10-14,2021-10-01,株式会社協立ミート,,株式会社,福岡県,北九州市小倉北区,魚町４丁目４番３号,,40,106,8020006,,,2021-10-01,清算の結了等,,,2015-10-05,1,,,,,キョウリツミート,0
1662,6340002021715,登記記録の閉鎖等,0,2021-10-14,2021-10-05,有限会社瀬戸内写真商会,,有限会社,鹿児島県,大島郡瀬戸内町,大字古仁屋字大湊１１番地の３,,46,525,8941503,,,2021-10-05,清算の結了等,,,2015-10-05,1,,,,,セトウチシャシンショウカイ,0
1671,6360002007902,登記記録の閉鎖等,0,2021-10-14,2021-10-07,有限会社沖縄企業警備保障,,有限会社,沖縄県,糸満市,字北波平３８５番地１０,,47,210,9010312,,,2021-10-07,清算の結了等,,,2015-10-05,1,,,,,オキナワキギョウケイビホショウ,0
1675,6370001021390,登記記録の閉鎖等,0,2021-10-14,2021-10-04,株式会社ＪＤＳｏｕｎｄ,,株式会社,宮城県,仙台市青葉区,二日町１４－１５アミ・グランデ二日町,,04,101,9800802,,,2021-10-04,清算の結了等,,,2015-10-05,1,,,,,ジェイディサウンド,0
1683,6390001007768,登記記録の閉鎖等,0,2021-10-14,2021-10-06,株式会社平田商店,,株式会社,山形県,鶴岡市,泉町８番２９号,,06,203,9970033,,,2021-10-06,清算の結了等,,,2015-10-05,1,,,,,ヒラタショウテン,0
1702,6470001003412,登記記録の閉鎖等,0,2021-10-14,2021-10-13,ハヤシ住宅産業株式会社,,株式会社,香川県,高松市,高松町２４８１番地１,,37,201,7610104,,,2021-10-13,清算の結了等,,,2015-10-05,1,,,,,ハヤシジュウタクサンギョウ,0
1703,6480001004442,登記記録の閉鎖等,0,2021-10-14,2021-10-11,阿南運送株式会社,,株式会社,徳島県,吉野川市,川島町桑村２４０９番地１,00008948,36,205,7793303,,,2021-10-11,清算の結了等,,,2015-10-05,1,,,,,アナンウンソウ,0
1720,7010001092995,登記記録の閉鎖等,0,2021-10-14,2021-10-04,株式会社ランド＆ファッション仙台,,株式会社,宮城県,仙台市青葉区,上杉１丁目１１番４号,,04,101,9800011,,,2021-10-04,清算の結了等,,,2015-10-05,1,,,,,,0
1727,7010002012093,登記記録の閉鎖等,0,2021-10-14,2021-10-07,有限会社ダイイチ,,有限会社,東京都,千代田区,神田小川町２丁目５番地,,13,101,1010052,,,2021-10-07,清算の結了等,,,2015-10-05,1,,,,,ダイイチ,0
1738,7010401139578,登記記録の閉鎖等,0,2021-10-14,2021-10-04,ユメックスグループ株式会社,,株式会社,東京都,千代田区,有楽町１丁目１番３号,,13,101,1000006,,,2021-10-04,合併による解散等,1010001166870,令和３年１０月１日東京都千代田区神田三崎町三丁目１番１６号株式会社ツナググループＨＣ（1010001166870）に合併し解散,2018-07-10,1,,,,,ユメックスグループ,0
1752,7010601038704,登記記録の閉鎖等,0,2021-10-14,2021-10-01,株式会社竹内商店,,株式会社,東京都,江東区,東砂１丁目３番２０号,,13,108,1360074,,,2021-10-01,合併による解散等,6010601026627,令和３年９月３０日東京都江東区東砂一丁目３番２０号東京電解株式会社（6010601026627）に合併し解散,2015-10-05,1,,,,,タケウチショウテン,0
1754,7010702008820,登記記録の閉鎖等,0,2021-10-14,2021-10-13,有限会社ワイ・ツゥー,,有限会社,東京都,品川区,旗の台４丁目８番５号,,13,109,1420064,,,2021-10-13,清算の結了等,,,2015-10-05,1,,,,,ワイツゥー,0
1757,7010802007169,登記記録の閉鎖等,0,2021-10-14,2021-10-07,有限会社十王製作所,,有限会社,東京都,大田区,中央７丁目５番１８号,,13,111,1430024,,,2021-10-07,清算の結了等,,,2015-10-05,1,,,,,ジュウオウセイサクショ,0
1758,7010802010123,登記記録の閉鎖等,0,2021-10-14,2021-10-07,有限会社トーセツ工業,,有限会社,東京都,大田区,大森本町１丁目８番１２－Ｅ－６０１号,,13,111,1430011,,,2021-10-07,清算の結了等,,,2015-10-05,1,,,,,トーセツコウギョウ,0
1760,7010901028925,登記記録の閉鎖等,0,2021-10-14,2021-10-11,株式会社ＫＤＩグローバルマネージメント,,株式会社,神奈川県,横浜市港北区,新横浜３丁目７番１８号,,14,109,2220033,,,2021-10-11,合併による解散等,6010001008820,令和３年１０月１日東京都千代田区大手町二丁目２番１号東京産業株式会社（6010001008820）に合併し解散,2015-10-05,1,,,,,ケーディーアイグローバルマネージメント,0
1774,7011101060438,登記記録の閉鎖等,0,2021-10-14,2021-09-30,株式会社グローバルステップ,,株式会社,東京都,新宿区,坂町２６番２１号,,13,104,1600000,,,2021-09-30,清算の結了等,,,2015-10-05,1,,,,,グローバルステップ,0
1780,7011301012750,登記記録の閉鎖等,0,2021-10-14,2021-10-08,Ｐ３Ｃ株式会社,,株式会社,東京都,杉並区,久我山３丁目３９番２７号,,13,115,1680082,,,2021-10-08,清算の結了等,,,2015-10-05,1,,,,,ピースリーシー,0
1783,7011303001330,登記記録の閉鎖等,0,2021-10-14,2021-10-11,Ｋ－クラフト合同会社,,合同会社,東京都,杉並区,西荻南４丁目３２番１号,,13,115,1670053,,,2021-10-11,清算の結了等,,,2015-10-05,1,,,,,ケイクラフト,0
1812,7020001100278,登記記録の閉鎖等,0,2021-10-14,2021-10-04,株式会社テガラミル,,株式会社,東京都,千代田区,神田三崎町３丁目１番１６号,,13,101,1010061,,,2021-10-04,合併による解散等,1010001166870,令和３年１０月１日東京都千代田区神田三崎町三丁目１番１６号株式会社ツナググループＨＣ（1010001166870）に合併し解散,2015-10-05,1,,,,,テガラミル,0
1821,7021001057426,登記記録の閉鎖等,0,2021-10-14,2021-10-11,Ｒ＆Ｒ株式会社,,株式会社,神奈川県,鎌倉市,今泉台３丁目１３番３号,,14,204,2470053,,,2021-10-11,清算の結了等,,,2015-10-05,1,,,,,アールアンドアール,0
1852,7050001024672,登記記録の閉鎖等,0,2021-10-14,2021-09-02,株式会社ＰｏｅｍｉＸ,,株式会社,茨城県,土浦市,川口１丁目１０番５号,,08,203,3000033,,,2021-09-02,合併による解散等,3050001012400,令和３年９月１日茨城県土浦市川口一丁目１０番５号株式会社茨進（3050001012400）に合併し解散,2015-10-05,1,,,,,ポエミックス,0
1859,7080401016894,登記記録の閉鎖等,0,2021-10-14,2021-10-07,株式会社エネプラン,,株式会社,静岡県,磐田市,掛塚８２９番地１,,22,211,4380234,,,2021-10-07,清算の結了等,,,2015-10-05,1,,,,,エネプラン,0
1864,7090003000486,登記記録の閉鎖等,0,2021-10-14,2021-10-07,合資会社鶴田商店,,合資会社,山梨県,甲州市,塩山上於曽１８３３番地１,,19,213,4040042,,,2021-10-07,清算の結了等,,,2015-10-05,1,,,,,ツルタショウテン,0
1866,7100001024485,登記記録の閉鎖等,0,2021-10-14,2021-10-13,株式会社フジモリ重機工業,,株式会社,長野県,諏訪市,渋崎１７９２番地４８１,,20,206,3920010,,,2021-10-13,清算の結了等,,,2015-10-05,1,,,,,,0
1869,7100002038063,登記記録の閉鎖等,0,2021-10-14,2021-10-12,有限会社エスブイハツリ,,有限会社,長野県,下伊那郡高森町,上市田５１番地２,,20,403,3993104,,,2021-10-12,清算の結了等,,,2015-10-05,1,,,,,エスブイハツリ,0
1870,7100003002836,登記記録の閉鎖等,0,2021-10-14,2021-10-11,合資会社中島屋履物店,,合資会社,長野県,駒ヶ根市,中央８番１２号,,20,210,3994112,,,2021-10-11,清算の結了等,,,2015-10-05,1,,,,,ナカジマヤハキモノテン,0
1883,7120001160650,登記記録の閉鎖等,0,2021-10-14,2021-10-08,株式会社エヴァーモア,,株式会社,大阪府,守口市,浜町２丁目７番１５号,,27,209,5700093,,,2021-10-08,清算の結了等,,,2015-10-05,1,,,,,エヴァーモア,0
1893,7122001019620,登記記録の閉鎖等,0,2021-10-14,2021-10-12,株式会社日新工作所,,株式会社,大阪府,八尾市,太田新町９丁目４４番地,,27,212,5810039,,,2021-10-12,清算の結了等,,,2015-10-05,1,,,,,ニッシンコウサクショ,0
1900,7140001059899,登記記録の閉鎖等,0,2021-10-14,2021-10-07,竹内興産株式会社,,株式会社,兵庫県,姫路市,神子岡前１丁目５番６号,,28,201,6700055,,,2021-10-07,清算の結了等,,,2015-10-05,1,,,,,タケウチコウサン,0
1903,7140001102023,登記記録の閉鎖等,0,2021-10-14,2021-10-05,株式会社アルファ・アグリファーム淡路,,株式会社,兵庫県,淡路市,岩屋２６１３番地１５,,28,226,6562401,,,2021-10-05,清算の結了等,,,2016-05-16,1,,,,,アルファアグリファームアワジ,0
1923,7180001084092,登記記録の閉鎖等,0,2021-10-14,2021-10-08,株式会社若葉薬局,,株式会社,愛知県,一宮市,文京２丁目４番３２号,,23,203,4910041,,,2021-10-08,合併による解散等,1120001103433,令和３年１０月１日大阪市北区豊崎三丁目３番１３号株式会社ニチホス（1120001103433）に合併し解散,2015-10-05,1,,,,,ワカバヤッキョク,0
1927,7180001111854,登記記録の閉鎖等,0,2021-10-14,2021-10-06,株式会社ＫＭ運輸,,株式会社,愛知県,半田市,板山町８丁目３１番地の３,,23,205,4750936,,,2021-10-06,清算の結了等,,,2015-10-05,1,,,,,,0
1957,7240001037242,登記記録の閉鎖等,0,2021-10-14,2021-10-13,株式会社シオタ,,株式会社,広島県,竹原市,中央１丁目２番１号,,34,203,7250026,,,2021-10-13,清算の結了等,,,2015-10-05,1,,,,,シオタ,0
1964,7280001003298,登記記録の閉鎖等,0,2021-10-14,2021-10-13,株式会社中村組,,株式会社,島根県,出雲市,大津町６２０番地１,,32,203,6930011,,,2021-10-13,清算の結了等,,,2015-10-05,1,,,,,ナカムラグミ,0
1981,7340001006146,登記記録の閉鎖等,0,2021-10-14,2021-10-08,株式会社太陽化学,,株式会社,鹿児島県,鹿児島市,石谷町１０６番地２,,46,201,8992701,,,2021-10-08,合併による解散等,4140001019022,令和３年１０月１日神戸市東灘区魚崎浜町２１番地アサヒプリテック株式会社（4140001019022）に合併し解散,2015-10-05,1,,,,,タイヨウカガク,0
1983,7340001012623,登記記録の閉鎖等,0,2021-10-14,2021-10-06,枕崎冷蔵株式会社,,株式会社,鹿児島県,枕崎市,恵比須町２０３番地,,46,204,8980009,,,2021-10-06,清算の結了等,,,2015-10-05,1,,,,,マクラザキレイゾウ,0
1986,7340001019313,登記記録の閉鎖等,0,2021-10-14,2021-10-07,株式会社上原設備,,株式会社,鹿児島県,鹿児島市,緑ヶ丘町５１番１６号,,46,201,8911274,,,2021-10-07,清算の結了等,,,2016-05-09,1,,,,,ウエハラセツビ,0
1997,7380002006777,登記記録の閉鎖等,0,2021-10-14,2021-10-08,有限会社アルファーミクロン月舘,,有限会社,福島県,伊達市,月舘町布川字高田２０番地の１,,07,213,9600901,,,2021-10-08,清算の結了等,,,2015-10-05,1,,,,,アルファーミクロンツキダテ,0
2005,7420005006225,登記記録の閉鎖等,0,2021-10-14,2021-10-11,特定非営利活動法人まちづくりコンソーシアム三沢,,その他の設立登記法人,青森県,三沢市,東町１丁目９番地２３号,,02,207,0330034,,,2021-10-11,清算の結了等,,,2015-10-05,1,,,,,マチヅクリコンソーシアムミサワ,0
2009,7430002011524,登記記録の閉鎖等,0,2021-10-14,2021-10-08,有限会社大協建設,,有限会社,北海道,札幌市手稲区,曙二条３丁目５番５号,,01,109,0060832,,,2021-10-08,清算の結了等,,,2015-10-05,1,,,,,ダイキョウケンセツ,0
2015,7480001010217,登記記録の閉鎖等,0,2021-10-14,2021-10-11,ワコー商運株式会社,,株式会社,徳島県,名西郡石井町,石井字白鳥３０５番地１,,36,341,7793234,,,2021-10-11,清算の結了等,,,2017-12-26,1,,,,,ワコーショウウン,0
2016,7480002008549,登記記録の閉鎖等,0,2021-10-14,2021-10-13,有限会社茜仮設工業,,有限会社,徳島県,徳島市,方上町舟戸川１８番地５,,36,201,7708033,,,2021-10-13,清算の結了等,,,2015-10-05,1,,,,,,0
2032,8010001195368,登記記録の閉鎖等,0,2021-10-14,2021-10-04,株式会社ツナグ・ソリューションズ,,株式会社,東京都,千代田区,神田三崎町３丁目１番１６号,,13,101,1010061,,,2021-10-04,合併による解散等,1010001166870,令和３年１０月１日東京都千代田区神田三崎町三丁目１番１６号株式会社ツナググループＨＣ（1010001166870）に合併し解散,2018-10-05,1,,,,,ツナグソリューションズ,0
2038,8010401022758,登記記録の閉鎖等,0,2021-10-14,2021-10-01,日本自動車化学製品株式会社,,株式会社,東京都,港区,芝浦２丁目４番６－３０６号,,13,103,1080023,,,2021-10-01,清算の結了等,,,2015-10-05,1,,,,,ニホンジドウシャカガクセイヒン,0
2040,8010401149584,登記記録の閉鎖等,0,2021-10-14,2021-10-01,パールプラス山口株式会社,,株式会社,東京都,港区,浜松町２丁目２番１５号２Ｆ,,13,103,1050013,,,2021-10-01,清算の結了等,,,2019-12-04,1,,,,,パールプラスヤマグチ,0
2045,8010405013225,登記記録の閉鎖等,0,2021-10-14,2021-10-01,一般社団法人ヨガ＆メディテーションアカデミー,,その他の設立登記法人,東京都,港区,南青山６丁目１０番７号,,13,103,1070062,,,2021-10-01,清算の結了等,,,2015-10-05,1,,,,,ヨガアンドメディテーションアカデミー,0
2069,8010905003816,登記記録の閉鎖等,0,2021-10-14,2021-10-08,特定非営利活動法人ミノーズホーム,,その他の設立登記法人,東京都,世田谷区,玉川３丁目１番１８－３０９号,,13,112,1580094,,,2021-10-08,清算の結了等,,,2019-07-17,1,,,,,ミノーズホーム,0
2076,8011001095533,登記記録の閉鎖等,0,2021-10-14,2021-10-04,株式会社ツナググループ・マーケティング,,株式会社,東京都,千代田区,神田三崎町３丁目１番１６号,,13,101,1010061,,,2021-10-04,合併による解散等,1010001166870,令和３年１０月１日東京都千代田区神田三崎町三丁目１番１６号株式会社ツナググループＨＣ（1010001166870）に合併し解散,2015-10-05,1,,,,,ツナググループマーケティング,0
2079,8011001118624,登記記録の閉鎖等,0,2021-10-14,2021-09-28,資産運用のＳＥＥＤ　ＴＯＫＹＯ株式会社,,株式会社,東京都,目黒区,碑文谷５丁目６番９号,,13,110,1520003,,,2021-09-28,清算の結了等,,,2017-10-06,1,,,,,シサンウンヨウノシードトウキョウ,0
2097,8011401016023,登記記録の閉鎖等,0,2021-10-14,2021-09-30,グローバル人事サービス株式会社,,株式会社,東京都,板橋区,加賀２丁目７番１－６２０号,,13,119,1730003,,,2021-09-30,清算の結了等,,,2015-10-05,1,,,,,グローバルジンジサービス,0
2100,8011801007142,登記記録の閉鎖等,0,2021-10-14,2021-10-12,キシデン工業株式会社,,株式会社,東京都,足立区,皿沼３丁目１７番４号,,13,121,1230862,,,2021-10-12,清算の結了等,,,2015-10-05,1,,,,,キシデンコウギョウ,0
2115,8020001012588,登記記録の閉鎖等,0,2021-10-14,2021-10-07,株式会社エスアンドエイチ,,株式会社,神奈川県,横浜市南区,南太田１丁目２３番２０号,,14,105,2320006,,,2021-10-07,清算の結了等,,,2015-10-05,1,,,,,エスアンドエイチ,0
2116,8020001066989,登記記録の閉鎖等,0,2021-10-14,2021-10-08,株式会社ベルテツク,,株式会社,神奈川県,川崎市中原区,宮内２丁目６番１４号,,14,133,2110051,,,2021-10-08,清算の結了等,,,2015-10-05,1,,,,,ベルテック,0
2118,8020001129671,登記記録の閉鎖等,0,2021-10-14,2021-10-08,株式会社祐設計コンサルタント,,株式会社,神奈川県,横浜市青葉区,すすき野３丁目６番地２すすき野団地５棟２０３号,,14,117,2250021,,,2021-10-08,清算の結了等,,,2019-01-25,1,,,,,ユウセッケイコンサルタント,0
2143,8040001059909,登記記録の閉鎖等,0,2021-10-14,2021-10-06,株式会社ハレルヤ,,株式会社,千葉県,長生郡長生村,岩沼８４番地１,,12,423,2994336,,,2021-10-06,清算の結了等,,,2015-10-05,1,,,,,ハレルヤ,0
2144,8040001087678,登記記録の閉鎖等,0,2021-10-14,2021-10-07,株式会社昇栄建装,,株式会社,千葉県,流山市,南流山５丁目６番地４,,12,220,2700163,,,2021-10-07,清算の結了等,,,2015-10-05,1,,,,,ショウエイケンソウ,0
2147,8040002064734,登記記録の閉鎖等,0,2021-10-14,2021-10-06,有限会社フォーネクスト,,有限会社,千葉県,佐倉市,王子台５丁目９番地１９,,12,212,2850837,,,2021-10-06,清算の結了等,,,2015-10-05,1,,,,,フォーネクスト,0
2153,8050002000705,登記記録の閉鎖等,0,2021-10-14,2021-09-24,有限会社オギヤ防災,,有限会社,茨城県,水戸市,小泉町７４６番地の３,,08,201,3111111,,,2021-09-24,清算の結了等,,,2015-10-05,1,,,,,オギヤボウサイ,0
2157,8060001029868,登記記録の閉鎖等,0,2021-10-14,2021-10-07,株式会社マナティー那須,,株式会社,栃木県,那須郡那須町,大字高久丙１５７７番地３,,09,407,3250302,,,2021-10-07,合併による解散等,3010001132219,令和３年９月２８日東京都中央区日本橋三丁目３番３号いづみやビル４階株式会社マナティー（3010001132219）に合併し解散,2017-10-11,1,,,,,,0
2166,8100002028880,登記記録の閉鎖等,0,2021-10-14,2021-10-13,有限会社ベニヤバイオケミカル,,有限会社,長野県,諏訪市,元町６番１２号,,20,206,3920006,,,2021-10-13,清算の結了等,,,2015-10-05,1,,,,,ベニヤバイオケミカル,0
2167,8110001004519,登記記録の閉鎖等,0,2021-10-14,2021-10-08,ニューオートガス株式会社,,株式会社,新潟県,新潟市東区,下木戸１丁目３番１２号,,15,102,9500885,,,2021-10-08,清算の結了等,,,2015-10-05,1,,,,,ニューオートガス,0
2171,8110002032782,登記記録の閉鎖等,0,2021-10-14,2021-10-07,有限会社カミバン,,有限会社,新潟県,南魚沼市,美佐島９２番地７,,15,226,9496608,,,2021-10-07,清算の結了等,,,2015-10-05,1,,,,,カミバン,0
2174,8120001054661,登記記録の閉鎖等,0,2021-10-14,2021-10-08,株式会社関西陶芸クラブ,,株式会社,大阪府,大阪市淀川区,塚本４丁目８番６号,,27,123,5320026,,,2021-10-08,清算の結了等,,,2015-10-05,1,,,,,カンサイトウゲイクラブ,0
2196,8120902011455,登記記録の閉鎖等,0,2021-10-14,2021-10-11,有限会社森本測量事務所,,有限会社,大阪府,高槻市,本町１番３３号,,27,207,5690074,,,2021-10-11,清算の結了等,,,2015-10-05,1,,,,,モリモトソクリョウジムショ,0
2230,8180001082533,登記記録の閉鎖等,0,2021-10-14,2021-10-08,株式会社貴船,,株式会社,愛知県,一宮市,文京２丁目４番３２号,,23,203,4910041,,,2021-10-08,合併による解散等,1120001103433,令和３年１０月１日大阪市北区豊崎三丁目３番１３号株式会社ニチホス（1120001103433）に合併し解散,2015-10-05,1,,,,,キフネ,0
2249,8220001000886,登記記録の閉鎖等,0,2021-10-14,2021-10-11,株式会社アルテシマダ,,株式会社,石川県,金沢市,安江町１１－４０,,17,201,9200854,,,2021-10-11,清算の結了等,,,2015-10-05,1,,,,,アルテシマダ,0
2283,8370001025407,登記記録の閉鎖等,0,2021-10-14,2021-10-04,ＨＳＣ株式会社,,株式会社,宮城県,仙台市青葉区,中央４丁目８番１４号はまなす中央ビル,,04,101,9800021,,,2021-10-04,清算の結了等,,,2015-10-05,1,,,,,エイチエスシー,0
2294,8460002001967,登記記録の閉鎖等,0,2021-10-14,2021-10-12,有限会社床建設,,有限会社,北海道,釧路市,星が浦北４丁目２番３７号,,01,206,0840911,,,2021-10-12,清算の結了等,,,2015-10-05,1,,,,,トコケンセツ,0
2295,8460101003724,登記記録の閉鎖等,0,2021-10-14,2021-10-06,東栄興産株式会社,,株式会社,北海道,帯広市,東一条南１０丁目１番地,,01,207,0800801,,,2021-10-06,清算の結了等,,,2017-07-19,1,,,,,トウエイコウサン,0
2298,8470002017797,登記記録の閉鎖等,0,2021-10-14,2021-10-11,有限会社みどり家具店,,有限会社,香川県,さぬき市,大川町田面４８３番地,,37,206,7610904,,,2021-10-11,清算の結了等,,,2015-10-05,1,,,,,ミドリカグテン,0
2302,8480003000446,登記記録の閉鎖等,0,2021-10-14,2021-10-08,合同会社ｋｎｏｐ,,合同会社,徳島県,徳島市,津田町４丁目４番４４号,,36,201,7708002,,,2021-10-08,清算の結了等,,,2015-10-05,1,,,,,ノープ,0
2321,9010002049092,登記記録の閉鎖等,0,2021-10-14,2021-10-06,ＲＥＸ・Ｐｌａｎｎｉｎｇ有限会社,,有限会社,東京都,中央区,銀座８丁目５番４号,,13,102,1040061,,,2021-10-06,清算の結了等,,,2015-10-05,1,,,,,レックスプランニング,0
2336,9010405018537,登記記録の閉鎖等,0,2021-10-14,2021-10-11,一般社団法人エイト,,その他の設立登記法人,東京都,世田谷区,砧１丁目２６番６号,,13,112,1570073,,,2021-10-11,清算の結了等,,,2020-02-20,1,,,,,エイト,0
2341,9010601011403,登記記録の閉鎖等,0,2021-10-14,2021-10-01,株式会社スコット,,株式会社,東京都,墨田区,亀沢４丁目１９番１１号,,13,107,1300014,,,2021-10-01,清算の結了等,,,2015-10-05,1,,,,,スコット,0
2345,9010801019592,登記記録の閉鎖等,0,2021-10-14,2021-10-07,株式会社ケン・トゥエニ・ワン,,株式会社,東京都,新宿区,下落合１丁目２番５号第２３鈴木総合ビル１階,,13,104,1610033,,,2021-10-07,清算の結了等,,,2015-10-05,1,,,,,ケントゥエニワン,0
2354,9011101048712,登記記録の閉鎖等,0,2021-10-14,2021-10-08,株式会社エジソン,,株式会社,東京都,新宿区,西新宿３丁目８番３号,,13,104,1600023,,,2021-10-08,合併による解散等,3010801006233,令和３年１０月１日東京都大田区南蒲田二丁目１６番１号株式会社マイナビＥｄｇｅ（3010801006233）に合併し解散,2015-10-05,1,,,,,エジソン,0
2359,9011102001546,登記記録の閉鎖等,0,2021-10-14,2021-10-05,有限会社内野工事,,有限会社,東京都,新宿区,南元町１０番地７,,13,104,1600012,,,2021-10-05,清算の結了等,,,2015-10-05,1,,,,,,0
2374,9011801025936,登記記録の閉鎖等,0,2021-10-14,2021-10-12,株式会社澤木製本印刷,,株式会社,東京都,足立区,千住緑町２丁目３５番１号,,13,121,1200044,,,2021-10-12,清算の結了等,,,2015-10-05,1,,,,,サワキセイホンインサツ,0
2378,9012402022620,登記記録の閉鎖等,0,2021-10-14,2021-10-08,有限会社ＯＧＡＷＡ,,有限会社,東京都,武蔵野市,吉祥寺南町３丁目２７番１１号,,13,203,1800003,,,2021-10-08,合併による解散等,1010001124993,令和３年１０月１日東京都中央区日本橋本石町四丁目２番１６号株式会社トゥ・プリティーホールディングス（1010001124993）に合併し解散,2015-10-05,1,,,,,オガワ,0
2398,9021001069155,登記記録の閉鎖等,0,2021-10-14,2021-10-11,株式会社アレイワークス,,株式会社,神奈川県,大和市,下鶴間２丁目４番３９－３０８号,,14,213,2420001,,,2021-10-11,清算の結了等,,,2020-01-28,1,,,,,アレイワークス,0
2400,9021002064295,登記記録の閉鎖等,0,2021-10-14,2021-10-11,有限会社小宮材木店,,有限会社,神奈川県,逗子市,沼間２丁目１７番５号,,14,208,2490004,,,2021-10-11,清算の結了等,,,2015-10-05,1,,,,,コミヤザイモクテン,0
2429,9120001157892,登記記録の閉鎖等,0,2021-10-14,2021-10-06,株式会社長束工務店,,株式会社,大阪府,門真市,柳町１０番８号,,27,223,5710041,,,2021-10-06,清算の結了等,,,2015-10-05,1,,,,,ナガツカコウムテン,0
2440,9120101006578,登記記録の閉鎖等,0,2021-10-14,2021-10-08,株式会社ブルースカイ・クリエイト,,株式会社,大阪府,堺市西区,鳳東町７丁７８９－１グランデーミＦＹ３０５,,27,144,5938324,,,2021-10-08,清算の結了等,,,2015-10-05,1,,,,,ブルースカイクリエイト,0
2441,9120101039594,登記記録の閉鎖等,0,2021-10-14,2021-10-11,株式会社菊地,,株式会社,大阪府,泉佐野市,鶴原２丁目１１番６号,,27,213,5980071,,,2021-10-11,清算の結了等,,,2015-10-05,1,,,,,キクチ,0
2442,9120103001783,登記記録の閉鎖等,0,2021-10-14,2021-10-11,合同会社ＲＩＮＣＡ,,合同会社,大阪府,堺市北区,黒土町２３５９番地１－４０３号,,27,146,5918024,,,2021-10-11,清算の結了等,,,2015-10-05,1,,,,,リンカ,0
2444,9120105006021,登記記録の閉鎖等,0,2021-10-14,2021-10-12,明正教信徳分教会,,その他の設立登記法人,大阪府,岸和田市,南上町１丁目５番２号,,27,202,5960078,,,2021-10-12,清算の結了等,,,2015-10-05,1,,,,,メイセイキョウシントクブンキョウカイ,0
2452,9130002015355,登記記録の閉鎖等,0,2021-10-14,2021-10-11,有限会社ワイ・エフ・シー,,有限会社,京都府,京都市伏見区,向島庚申町４８番地,,26,109,6128122,,,2021-10-11,清算の結了等,,,2015-10-05,1,,,,,ワイエフシー,0
2472,9180301024366,登記記録の閉鎖等,0,2021-10-14,2021-10-12,株式会社ナカオクリーニング,,株式会社,愛知県,新城市,杉山字フロコシ１１１番地５,,23,221,4411341,,,2021-10-12,清算の結了等,,,2015-10-05,1,,,,,ナカオクリーニング,0
2483,9200005007747,登記記録の閉鎖等,0,2021-10-14,2021-10-12,太陽寺,,その他の設立登記法人,岐阜県,関市,武芸川町小知野６９１番地,,21,205,5012602,,,2021-10-12,清算の結了等,,,2015-10-05,1,,,,,タイヨウジ,0
2489,9240001024775,登記記録の閉鎖等,0,2021-10-14,2021-10-12,株式会社寺本組,,株式会社,広島県,安芸高田市,甲田町浅塚１４４番地の１,,34,214,7391106,,,2021-10-12,清算の結了等,,,2015-10-05,1,,,,,テラモトグミ,0
2493,9250002019088,登記記録の閉鎖等,0,2021-10-14,2021-10-12,有限会社祖生タクシー,,有限会社,山口県,岩国市,周東町祖生４５８７番地の１,,35,208,7420301,,,2021-10-12,清算の結了等,,,2015-10-05,1,,,,,ソウタクシー,0
2494,9260001017892,登記記録の閉鎖等,0,2021-10-14,2021-10-12,松岡ケミカル株式会社,,株式会社,岡山県,笠岡市,新賀２５４番地,,33,205,7140005,,,2021-10-12,清算の結了等,,,2015-10-05,1,,,,,マツオカケミカル,0
2496,9260002008833,登記記録の閉鎖等,0,2021-10-14,2021-10-12,有限会社フタバ,,有限会社,岡山県,岡山市東区,神崎町１９０３番地の７,,33,103,7048138,,,2021-10-12,清算の結了等,,,2015-10-05,1,,,,,フタバ,0
2510,9290002021569,登記記録の閉鎖等,0,2021-10-14,2021-09-30,有限会社エム・ピィ・ティ山口,,有限会社,福岡県,福岡市博多区,美野島１丁目６番１号,,40,132,8120017,,,2021-09-30,清算の結了等,,,2015-10-05,1,,,,,エムピィティヤマグチ,0
2526,9330002009584,登記記録の閉鎖等,0,2021-10-14,2021-10-05,有限会社友善企画,,有限会社,熊本県,熊本市西区,春日１丁目３番１号,,43,103,8600047,,,2021-10-05,合併による解散等,7330001002674,令和３年１０月１日熊本市西区春日一丁目３番１号株式会社体育堂（7330001002674）に合併し解散,2015-10-05,1,,,,,ユウゼンキカク,0
2528,9340001001995,登記記録の閉鎖等,0,2021-10-14,2021-10-01,三州食品株式会社,,株式会社,鹿児島県,鹿児島市,錦江町７番２０号,,46,201,8920836,,,2021-10-01,合併による解散等,4340001000985,令和３年１０月１日鹿児島市七ツ島一丁目２番１１号株式会社ナンチクファクトリー（4340001000985）に合併し解散,2015-10-05,1,,,,,サンシュウショクヒン,0
2530,9340001005336,登記記録の閉鎖等,0,2021-10-14,2021-10-01,南西フーズ株式会社,,株式会社,鹿児島県,鹿児島市,東谷山４丁目２５番３本村ビル２０１号,,46,201,8910113,,,2021-10-01,合併による解散等,4340001000985,令和３年１０月１日鹿児島市七ツ島一丁目２番１１号株式会社ナンチクファクトリー（4340001000985）に合併し解散,2015-10-05,1,,,,,ナンセイフーズ,0
2536,9350002015226,登記記録の閉鎖等,0,2021-10-14,2021-10-11,有限会社荒武技建,,有限会社,宮崎県,北諸県郡三股町,大字樺山４０７７番地３,,45,341,8891901,,,2021-10-11,清算の結了等,,,2015-10-05,1,,,,,アラタケギケン,0
2565,9430002059090,登記記録の閉鎖等,0,2021-10-14,2021-10-08,有限会社高橋左官工業所,,有限会社,北海道,苫小牧市,しらかば町１丁目２０番１号,,01,213,0530821,,,2021-10-08,清算の結了等,,,2015-10-05,1,,,,,タカハシサカンコウギョウショ,0
2567,9430005006726,登記記録の閉鎖等,0,2021-10-14,2021-10-11,医療法人社団岩見沢こども・産科婦人科クリニック,,その他の設立登記法人,北海道,岩見沢市,三条西１０丁目６番地１,,01,210,0680023,,,2021-10-11,清算の結了等,,,2015-10-05,1,,,,,,0
