sequenceNumber,corporateNumber,process,correct,updateDate,changeDate,name,nameImageId,kind,prefectureName,cityName,streetNumber,addressImageId,prefectureCode,cityCode,postCode,addressOutside,addressOutsideImageId,closeDate,closeCause,successorCorporateNumber,changeCause,assignmentDate,latest,enName,enPrefectureName,enCityName,enAddressOutside,furigana,hihyoji
7,1010001259071,新規,0,2025-10-30,2025-10-30,株式会社ランクアップホールディングス,,株式会社,東京都,中央区,銀座３丁目１０番７号ヒューリック銀座三丁目ビル７階,,13,102,1040061,,,,,,,2025-10-30,1,,,,,ランクアップホールディングス,0
8,1010001259807,新規,0,2025-10-30,2025-10-30,Ａｓｓｅｔｓ　Ａｄｖｉｓｏｒｓ　Ｃａｐｉｔａｌ株式会社,,株式会社,東京都,中央区,日本橋室町１丁目２番６号日本橋大栄ビル７階,,13,102,1030022,,,,,,,2025-10-30,1,,,,,アセッツアドバイサーズキャピタル,0
9,1010001259848,新規,0,2025-10-30,2025-10-30,ＢＢＶＡ証券準備株式会社,,株式会社,東京都,中央区,八重洲２丁目１番１号ＹＡＮＭＡＲ－ＴＯＫＹＯ１２階,,13,102,1040028,,,,,,,2025-10-30,1,,,,,ビービーブイエーショウケンジュンビ,0
11,1010003049181,新規,0,2025-10-30,2025-10-30,合同会社ｓｔｒａｎｇｅ　ｊｕｎｃｔｉｏｎ,,合同会社,東京都,中央区,日本橋人形町１丁目５番１０号日本橋芸者新道ビル３０２,,13,102,1030013,,,,,,,2025-10-30,1,,,,,ストレンジジャンクション,0
12,1010003049207,新規,0,2025-10-30,2025-10-30,日光Ｐｌｕｓ２５合同会社３,,合同会社,東京都,千代田区,丸の内１丁目４番１号東京共同会計事務所内,,13,101,1000005,,,,,,,2025-10-30,1,,,,,ニッコウプラストゥエンティファイブサン,0
13,1010003049215,新規,0,2025-10-30,2025-10-30,日光Ｐｌｕｓ２５合同会社１１,,合同会社,東京都,千代田区,丸の内１丁目４番１号東京共同会計事務所内,,13,101,1000005,,,,,,,2025-10-30,1,,,,,ニッコウプラストゥエンティファイブジュウイチ,0
14,1010003049223,新規,0,2025-10-30,2025-10-30,ＳＲＦアセット１合同会社,,合同会社,東京都,千代田区,丸の内１丁目４番１号東京共同会計事務所内,,13,101,1000005,,,,,,,2025-10-30,1,,,,,エスアールエフアセットワン,0
18,1010401193969,新規,0,2025-10-30,2025-10-30,ＭＩＮＩＭ株式会社,,株式会社,東京都,港区,北青山１丁目３番１号アールキューブ青山３階,,13,103,1070061,,,,,,,2025-10-30,1,,,,,ミニム,0
19,1010401194174,新規,0,2025-10-30,2025-10-30,株式会社ＰＯＬＡＲＩＳ　Ｇｌｏｂａｌ　Ｐａｒｔｎｅｒｓ,,株式会社,東京都,港区,芝４丁目１６番２－２７０１号,,13,103,1080014,,,,,,,2025-10-30,1,,,,,ポラリスグローバルパートナーズ,0
20,1010401194182,新規,0,2025-10-30,2025-10-30,エルソラ・キャピタル株式会社,,株式会社,東京都,港区,南青山３丁目１番３６号青山丸竹ビル６Ｆ,,13,103,1070062,,,,,,,2025-10-30,1,,,,,エルソラキャピタル,0
22,1010403036449,新規,0,2025-10-30,2025-10-30,合同会社みなと００９,,合同会社,東京都,港区,虎ノ門３丁目２２番１０－２０１号,,13,103,1050001,,,,,,,2025-10-30,1,,,,,ミナトゼロゼロナイン,0
23,1010403036457,新規,0,2025-10-30,2025-10-30,ＡＰ　Ｘ２合同会社,,合同会社,東京都,港区,虎ノ門４丁目１－１７アリサ・パートナーズ・ジャパン株式会社内,,13,103,1050001,,,,,,,2025-10-30,1,,,,,エーピーエックストゥー,0
25,1010405024848,新規,0,2025-10-30,2025-10-30,一般社団法人日本情報トレーサビリティ協会,,その他の設立登記法人,東京都,港区,新橋２丁目１６番１号９Ｆ,,13,103,1050004,,,,,,,2025-10-30,1,,,,,ニホンジョウホウトレーサビリティキョウカイ,0
28,1010901058341,新規,0,2025-10-30,2025-10-30,株式会社ＣＲＥＸＩＧ,,株式会社,東京都,世田谷区,桜丘２丁目２７番１５号,,13,112,1560054,,,,,,,2025-10-30,1,,,,,クレシグ,0
34,1011001173246,新規,0,2025-10-30,2025-10-30,株式会社Ｍｅｌｔｙｎ,,株式会社,東京都,渋谷区,神泉町２０番１７－７０５号,,13,113,1500045,,,,,,,2025-10-30,1,,,,,メルティン,0
35,1011003022748,新規,0,2025-10-30,2025-10-30,合同会社加藤商会,,合同会社,東京都,渋谷区,恵比寿４丁目５番２８－８０４号,,13,113,1500013,,,,,,,2025-10-30,1,,,,,カトウショウカイ,0
41,1011101113779,新規,0,2025-10-30,2025-10-30,株式会社ＯＨＡＮＡ　ＢＬＵＥ,,株式会社,東京都,新宿区,新宿２丁目１４番１１号フタミビル２０２,,13,104,1600022,,,,,,,2025-10-30,1,,,,,オハナブルー,0
47,1011403004916,新規,0,2025-10-30,2025-10-30,合同会社大気圧プラズマ技術研究所,,合同会社,東京都,板橋区,前野町３丁目３１番９号,,13,119,1740063,,,,,,,2025-10-30,1,,,,,タイキアツプラズマギジュツケンキュウショ,0
51,1011601029137,新規,0,2025-10-30,2025-10-30,株式会社海馬不動産,,株式会社,東京都,練馬区,早宮１丁目１７番１９号,,13,120,1790085,,,,,,,2025-10-30,1,,,,,カイバフドウサン,0
57,1011801046997,新規,0,2025-10-30,2025-10-30,株式会社オン,,株式会社,東京都,葛飾区,南水元２丁目１１番７号,,13,122,1250035,,,,,,,2025-10-30,1,,,,,オン,0
67,1020001165426,新規,0,2025-10-30,2025-10-30,株式会社ひろま薬局,,株式会社,神奈川県,横浜市戸塚区,戸塚町４１１７番１号,,14,110,2440003,,,,,,,2025-10-30,1,,,,,ヒロマヤッキョク,0
68,1020001165450,新規,0,2025-10-30,2025-10-30,株式会社ＫｉｔｔａＴｅ,,株式会社,神奈川県,横浜市港北区,菊名１丁目４－２第一橘ビル２階,,14,109,2220011,,,,,,,2025-10-30,1,,,,,キッタテ,0
69,1020001165509,新規,0,2025-10-30,2025-10-30,アモナイト株式会社,,株式会社,神奈川県,横浜市港北区,新吉田東５丁目７０番１６号,,14,109,2230058,,,,,,,2025-10-30,1,,,,,アモナイト,0
70,1020001165541,新規,0,2025-10-30,2025-10-30,三友スポーツシステム株式会社,,株式会社,神奈川県,川崎市多摩区,宿河原２丁目２３番３号ＴＧＳ１０１,,14,135,2140021,,,,,,,2025-10-30,1,,,,,サンユウスポーツシステム,0
71,1020001165574,新規,0,2025-10-30,2025-10-30,株式会社ゴラクス,,株式会社,神奈川県,横浜市磯子区,汐見台１丁目７番地３グランノア汐見台Ａ－５０９号,,14,107,2350022,,,,,,,2025-10-30,1,,,,,ゴラクス,0
74,1020002109258,新規,0,2025-10-30,2025-10-30,有限会社こがねや,,有限会社,神奈川県,横浜市西区,西戸部一丁目２９番地,,14,103,2200000,,,,,,,2025-10-30,1,,,,,コガネヤ,0
83,1040001141185,新規,0,2025-10-30,2025-10-30,株式会社共立,,株式会社,千葉県,千葉市美浜区,幸町１丁目５番３棟６１１号,,12,106,2610001,,,,,,,2025-10-30,1,,,,,キョウリツ,0
87,1060003005824,新規,0,2025-10-30,2025-10-30,ＲＥＨＭＡＮ　ＴＲＡＤＩＮＧ合同会社,,合同会社,栃木県,佐野市,富岡町１４２番地１ハイツサンロードＣ－２０１,,09,204,3270844,,,,,,,2025-10-30,1,,,,,レマーントレーディング,0
106,1120001281527,新規,0,2025-10-30,2025-10-30,株式会社ＡＢＩＴＥ,,株式会社,大阪府,大阪市西区,靱本町１丁目１０－７－２３０３,,27,106,5500004,,,,,,,2025-10-30,1,,,,,アバイト,0
107,1120001281535,新規,0,2025-10-30,2025-10-30,裕不動産株式会社,,株式会社,大阪府,大阪市北区,中津６丁目８番４－５０２号,,27,127,5310071,,,,,,,2025-10-30,1,,,,,ユウフドウサン,0
108,1120001281626,新規,0,2025-10-30,2025-10-30,株式会社ディーセレクト,,株式会社,大阪府,大阪市天王寺区,烏ケ辻１丁目８番１６－５０２号,00141330,27,109,5430042,,,,,,,2025-10-30,1,,,,,ディーセレクト,0
110,1120103006815,新規,0,2025-10-30,2025-10-30,合同会社ｏｆｆｉｃｅ　ｆｕｊｉｎａｍｉ,,合同会社,大阪府,岸和田市,岡山町４１６－１,,27,202,5960814,,,,,,,2025-10-30,1,,,,,オフィスフジナミ,0
116,1130003010890,新規,0,2025-10-30,2025-10-30,合同会社ＡＲＣＱ,,合同会社,京都府,綴喜郡宇治田原町,大字岩山小字奥浄戸７番地の４,,26,344,6100261,,,,,,,2025-10-30,1,,,,,アーク,0
128,1140001140565,新規,0,2025-10-30,2025-10-30,株式会社ＹＯＳＨＩＤＡ,,株式会社,兵庫県,伊丹市,西野６丁目２１番地坂西倉庫２Ｆ－２３,,28,207,6640028,,,,,,,2025-10-30,1,,,,,ヨシダ,0
130,1140003022794,新規,0,2025-10-30,2025-10-30,合同会社エス,,合同会社,兵庫県,明石市,魚住町住吉３丁目１２８４番地の１リベール明石魚住七番館３１０号,,28,203,6740083,,,,,,,2025-10-30,1,,,,,エス,0
138,1180001169295,新規,0,2025-10-30,2025-10-30,株式会社ＳＰｉｒａｌ,,株式会社,愛知県,名古屋市中区,大須３丁目２６番３号,,23,106,4600011,,,,,,,2025-10-30,1,,,,,スパイラル,0
139,1180001169353,新規,0,2025-10-30,2025-10-30,株式会社リアット,,株式会社,愛知県,一宮市,開明字馬保里２４番地５,,23,203,4940001,,,,,,,2025-10-30,1,,,,,リアット,0
146,1180003029282,新規,0,2025-10-30,2025-10-30,合同会社にゃんこカンパニー,,合同会社,愛知県,名古屋市中村区,名駅５丁目２－１７フロンティア名駅４Ｆ,,23,105,4500002,,,,,,,2025-10-30,1,,,,,ニャンコカンパニー,0
148,1180301040354,新規,0,2025-10-30,2025-10-30,株式会社シュアルート,,株式会社,愛知県,知立市,八橋町前畑１７８番地,,23,225,4720001,,,,,,,2025-10-30,1,,,,,シュアルート,0
149,1180301040362,新規,0,2025-10-30,2025-10-30,株式会社ＹＧ技建,,株式会社,愛知県,豊川市,行明町小橋２０２番地,,23,207,4420822,,,,,,,2025-10-30,1,,,,,ワイジーギケン,0
153,1190001032650,新規,0,2025-10-30,2025-10-30,株式会社Ｔ．Ａ．Ｋ,,株式会社,三重県,松阪市,平成町３６番地６,,24,204,5150824,,,,,,,2025-10-30,1,,,,,ティーエーケイ,0
169,1270001009319,新規,0,2025-10-30,2025-10-30,株式会社とりにわデザイン,,株式会社,鳥取県,鳥取市,千代水２丁目１３０番地,,31,201,6800911,,,,,,,2025-10-30,1,,,,,トリニワデザイン,0
183,1290001111766,新規,0,2025-10-30,2025-10-30,Ｈｕｇ　Ｌｉｒ株式会社,,株式会社,福岡県,福岡市中央区,今泉１丁目１７番１６号２階Ａ・Ｂ,,40,133,8100021,,,,,,,2025-10-30,1,,,,,ハグリル,0
184,1290001111907,新規,0,2025-10-30,2025-10-30,株式会社Ｓｅｒａ,,株式会社,福岡県,福岡市博多区,博多駅前１丁目２３番２号ＰａｒｋＦｒｏｎｔ博多駅前１丁目５Ｆ－Ｂ,,40,132,8120011,,,,,,,2025-10-30,1,,,,,セラ,0
194,1320005010267,新規,0,2025-10-30,2025-10-30,一般社団法人スポーツ芸術振興会,,その他の設立登記法人,大分県,大分市,王子北町５番８号フレスポ春日浦Ｆ棟２０２,,44,201,8700005,,,,,,,2025-10-30,1,,,,,スポーツゲイジュツシンコウカイ,0
195,1330001033717,新規,0,2025-10-30,2025-10-30,株式会社ナチュラボ,,株式会社,熊本県,熊本市北区,和泉町１８９－２４こだわり工房村Ｄ－４,,43,105,8615533,,,,,,,2025-10-30,1,,,,,ナチュラボ,0
201,1380002002765,新規,0,2025-10-30,2025-10-30,有限会社磐梯食堂,,有限会社,福島県,福島市,清水町字中谷地５２番地の１,,07,201,9608155,,,,,,,2025-10-30,1,,,,,バンダイショクドウ,0
204,1410003004154,新規,0,2025-10-30,2025-10-30,Ｌｉｔｔｌｅ　Ｄｅｅｒ合同会社,,合同会社,秋田県,秋田市,中通２丁目２番３２号,,05,201,0100001,,,,,,,2025-10-30,1,,,,,リトルディア,0
218,1500001026604,新規,0,2025-10-30,2025-10-30,株式会社シュガーラボ,,株式会社,愛媛県,松山市,道後湯之町１３番１３号,,38,201,7900842,,,,,,,2025-10-30,1,,,,,シュガーラボ,0
221,1700150025642,新規,0,2025-10-30,2015-10-09,和泉交通安全協会,,その他,大阪府,和泉市,伯太町２丁目１－３,,27,219,5940023,,,,,,,2015-10-09,1,,,,,イズミコウツウアンゼンキヨウカイ,0
222,1700150132117,新規,0,2025-10-30,2025-09-05,ＴＣＣＰ実行委員会,,その他,東京都,練馬区,栄町６－４－４０３,,13,120,1760006,,,,,,,2025-09-05,1,,,,,テイーシーシーピージツコウイインカイ,0
229,2010001259236,新規,0,2025-10-30,2025-10-30,株式会社Ｓａｉｘ,,株式会社,東京都,中央区,銀座１丁目１２番４号Ｎ＆ＥＢＬＤ．６Ｆ,,13,102,1040061,,,,,,,2025-10-30,1,,,,,サイクス,0
230,2010001259277,新規,0,2025-10-30,2025-10-30,株式会社ＩＭＡＤＥ,,株式会社,東京都,千代田区,麹町４丁目４番地４ＡＣＮ麹町ビル１２階,,13,101,1020083,,,,,,,2025-10-30,1,,,,,イマデ,0
231,2010001259830,新規,0,2025-10-30,2025-10-30,株式会社ＨＯＳＨＩＮＯ,,株式会社,東京都,千代田区,九段南１丁目５番６号りそな九段ビル５Ｆ・ＫＳフロア,,13,101,1020074,,,,,,,2025-10-30,1,,,,,ホシノ,0
232,2010001259839,新規,0,2025-10-30,2025-10-30,アソビパレット株式会社,,株式会社,東京都,中央区,銀座１丁目１２番４号Ｎ＆ＥＢＬＤ．６Ｆ,,13,102,1040061,,,,,,,2025-10-30,1,,,,,アソビパレット,0
235,2010003049206,新規,0,2025-10-30,2025-10-30,日光Ｐｌｕｓ２５合同会社２,,合同会社,東京都,千代田区,丸の内１丁目４番１号東京共同会計事務所内,,13,101,1000005,,,,,,,2025-10-30,1,,,,,ニッコウプラストゥエンティファイブニ,0
236,2010003049214,新規,0,2025-10-30,2025-10-30,日光Ｐｌｕｓ２５合同会社１０,,合同会社,東京都,千代田区,丸の内１丁目４番１号東京共同会計事務所内,,13,101,1000005,,,,,,,2025-10-30,1,,,,,ニッコウプラストゥエンティファイブジュウ,0
237,2010003049222,新規,0,2025-10-30,2025-10-30,日光Ｐｌｕｓ２５合同会社１４,,合同会社,東京都,千代田区,丸の内１丁目４番１号東京共同会計事務所内,,13,101,1000005,,,,,,,2025-10-30,1,,,,,ニッコウプラストゥエンティファイブジュウヨン,0
238,2010003049230,新規,0,2025-10-30,2025-10-30,ＳＲＦアセット６合同会社,,合同会社,東京都,千代田区,丸の内１丁目４番１号東京共同会計事務所内,,13,101,1000005,,,,,,,2025-10-30,1,,,,,エスアールエフアセットシックス,0
239,2010003049239,新規,0,2025-10-30,2025-10-30,ＡＩ８合同会社,,合同会社,東京都,中央区,京橋２丁目１２番６号ＡＯＪ税理士法人内,,13,102,1040031,,,,,,,2025-10-30,1,,,,,エーアイエイト,0
248,2010401194124,新規,0,2025-10-30,2025-10-30,株式会社ｍｏｒｅ　ａｎｄ,,株式会社,東京都,港区,赤坂８丁目４番３号,,13,103,1070052,,,,,,,2025-10-30,1,,,,,モアアンド,0
250,2010403036456,新規,0,2025-10-30,2025-10-30,ウェストゲート合同会社,,合同会社,東京都,港区,虎ノ門５丁目１番５号,,13,103,1050001,,,,,,,2025-10-30,1,,,,,ウェストゲート,0
251,2010403036464,新規,0,2025-10-30,2025-10-30,合同会社Ｃｒｏｓｓ　Ｓｔｒｅａｍ,,合同会社,東京都,港区,元赤坂１丁目２番７号,,13,103,1070051,,,,,,,2025-10-30,1,,,,,クロスストリーム,0
252,2010405024855,新規,0,2025-10-30,2025-10-30,一般社団法人躍心会,,その他の設立登記法人,東京都,港区,芝３丁目６番５号－２Ｆ,,13,103,1050014,,,,,,,2025-10-30,1,,,,,ヤクシンカイ,0
258,2010603011894,新規,0,2025-10-30,2025-10-30,アークフィールドキャピタル合同会社,,合同会社,東京都,江東区,豊洲５丁目１番１３－１７０９号,,13,108,1350061,,,,,,,2025-10-30,1,,,,,アークフィールドキャピタル,0
259,2010605004517,新規,0,2025-10-30,2025-10-30,一般社団法人日本ＳＮＳ協会,,その他の設立登記法人,東京都,江東区,青海２丁目７番４号ｔｈｅＳＯＨＯ７２７、株式会社ＥＳＳＥＯＴＩＡ内,,13,108,1350064,,,,,,,2025-10-30,1,,,,,ニホンエスエヌエスキョウカイ,0
260,2010701048541,新規,0,2025-10-30,2025-10-30,株式会社Ａ‐ｄａｓｈｉ,,株式会社,東京都,品川区,東五反田５丁目２２番３７号,,13,109,1410022,,,,,,,2025-10-30,1,,,,,エェダシ,0
261,2010703007982,新規,0,2025-10-30,2025-10-30,合同会社ａｍｉ,,合同会社,東京都,品川区,戸越６丁目１９番５号１０３,,13,109,1420041,,,,,,,2025-10-30,1,,,,,アミ,0
263,2010903010373,新規,0,2025-10-30,2025-10-30,合同会社オーサムイズム,,合同会社,東京都,世田谷区,桜２丁目９番２１号２０１,,13,112,1560053,,,,,,,2025-10-30,1,,,,,オーサムイズム,0
267,2011001173162,新規,0,2025-10-30,2025-10-30,株式会社Ｗａｎｇ,,株式会社,東京都,渋谷区,代官山町１４－２３セントラル代官山４０２,,13,113,1500034,,,,,,,2025-10-30,1,,,,,ワン,0
268,2011001173245,新規,0,2025-10-30,2025-10-30,株式会社ＨＡＷＫ,,株式会社,東京都,目黒区,上目黒３丁目７番５号ＡＯＩＨＯＵＳＥＮＡＫＡＭＥＧＵＲＯＳビル２０３,,13,110,1530051,,,,,,,2025-10-30,1,,,,,ホーク,0
269,2011001173253,新規,0,2025-10-30,2025-10-30,ＵＲＥＫＡ　ＣＲＡＦＴ株式会社,,株式会社,東京都,渋谷区,神南１丁目５番１３号ルート神南３階,,13,113,1500041,,,,,,,2025-10-30,1,,,,,ユレカクラフト,0
271,2011003022755,新規,0,2025-10-30,2025-10-30,合同会社ライフサポート,,合同会社,東京都,渋谷区,神南１丁目１１－４ＦＰＧリンクス神南５階,,13,113,1500041,,,,,,,2025-10-30,1,,,,,ライフサポート,0
274,2011301031004,新規,0,2025-10-30,2025-10-30,株式会社ｈｙｐｅｒ　ｅｎｏｕｇｈ,,株式会社,東京都,杉並区,高円寺北２丁目２３番１号西畑ビル３０１,,13,115,1660002,,,,,,,2025-10-30,1,,,,,ハイパーイナフ,0
275,2011401027488,新規,0,2025-10-30,2025-10-30,泰和株式会社,,株式会社,東京都,板橋区,板橋２丁目６３番４号グローリア初穂板橋５０１号ＥＡＳＹＯＦＦＩＣＥ,,13,119,1730004,,,,,,,2025-10-30,1,,,,,タイワ,0
280,2011501032768,新規,0,2025-10-30,2025-10-30,株式会社大有ソリューション,,株式会社,東京都,北区,赤羽南２丁目３番１１－８０８号ローレルコート赤羽,,13,117,1150044,,,,,,,2025-10-30,1,,,,,ダイユウソリューション,0
286,2011603004905,新規,0,2025-10-30,2025-10-30,合同会社ＢＵＬＬＤＯＳＳ,,合同会社,東京都,練馬区,上石神井１丁目３５番４号１階,,13,120,1770044,,,,,,,2025-10-30,1,,,,,ブルドス,0
291,2012701019167,新規,0,2025-10-30,2025-10-30,株式会社億虎,,株式会社,東京都,小平市,大沼町１丁目４番５号,,13,211,1870001,,,,,,,2025-10-30,1,,,,,オクトラ,0
299,2020001165565,新規,0,2025-10-30,2025-10-30,株式会社Ｓａｐｈｙｅｒ,,株式会社,神奈川県,川崎市高津区,千年８０８番地１３,,14,134,2130022,,,,,,,2025-10-30,1,,,,,サファイヤ,0
305,2030001169441,新規,0,2025-10-30,2025-10-30,株式会社ｃｌｅａｒ,,株式会社,埼玉県,さいたま市大宮区,桜木町４丁目６９２番地１伊田グループビルＩＩＩ３０５号室,00141319,11,103,3300854,,,,,,,2025-10-30,1,,,,,クリア,0
311,2040001141176,新規,0,2025-10-30,2025-10-30,偉峰東＿日本株式会社,00141320,株式会社,千葉県,千葉市花見川区,幕張町３丁目１５７２番地８,,12,102,2620032,,,,,,,2025-10-30,1,,,,,ウェイフォントウエツニホン,0
313,2040003028900,新規,0,2025-10-30,2025-10-30,合同会社みけねこデザイン,,合同会社,千葉県,松戸市,松戸１２３０－１ピアザビル９階ｓｅｃｔｉｏｎ９－８,,12,207,2710092,,,,,,,2025-10-30,1,,,,,ミケネコデザイン,0
314,2050005013718,新規,0,2025-10-30,2025-10-30,一般社団法人ごかみらいＬａｂ,,その他の設立登記法人,茨城県,猿島郡五霞町,大字小福田１１６２番地１,,08,542,3060307,,,,,,,2025-10-30,1,,,,,ゴカミライラボ,0
316,2060003005823,新規,0,2025-10-30,2025-10-30,合同会社アクアグリン,,合同会社,栃木県,栃木市,川原田町１１６番地,,09,203,3280123,,,,,,,2025-10-30,1,,,,,アクアグリン,0
324,2080103003460,新規,0,2025-10-30,2025-10-30,合同会社Ｋ７,,合同会社,静岡県,三島市,文教町１丁目５番１５号,,22,206,4110033,,,,,,,2025-10-30,1,,,,,ケーセブン,0
328,2090001019590,新規,0,2025-10-30,2025-10-30,株式会社ＮＥＸＴ　Ａｒｃ　Ｕｎｉｔｅｄ,,株式会社,山梨県,甲府市,太田町９番７号,,19,201,4000865,,,,,,,2025-10-30,1,,,,,ネクストアークユナイテッド,0
333,2100001039067,新規,0,2025-10-30,2025-10-30,株式会社リバーハンド,,株式会社,長野県,上伊那郡宮田村,２９８２,,20,388,3994301,,,,,,,2025-10-30,1,,,,,リバーハンド,0
334,2100001039083,新規,0,2025-10-30,2025-10-30,株式会社青島光縁,,株式会社,長野県,松本市,大字神林１４６８番地５神林コーポ２階１号室,,20,202,3901243,,,,,,,2025-10-30,1,,,,,アオシマコウエン,0
348,2120001281451,新規,0,2025-10-30,2025-10-30,華燮日本株式会社,,株式会社,大阪府,大阪市北区,梅田１丁目１３－１－１５Ｆ,,27,127,5300001,,,,,,,2025-10-30,1,,,,,カショウニホン,0
349,2120001281468,新規,0,2025-10-30,2025-10-30,株式会社Ｖｅｒｕｓ,,株式会社,大阪府,大阪市北区,梅田１丁目１－３大阪駅前第３ビル２９階１－１－１号室,,27,127,5300001,,,,,,,2025-10-30,1,,,,,ウェルス,0
350,2120001281534,新規,0,2025-10-30,2025-10-30,惠不動産株式会社,,株式会社,大阪府,大阪市北区,中津６丁目８番４－５０２号,,27,127,5310071,,,,,,,2025-10-30,1,,,,,ケイフドウサン,0
351,2120001281575,新規,0,2025-10-30,2025-10-30,株式会社ＭＯＭＯ’ｓ　ｂｅａｕｔｙ,,株式会社,大阪府,大阪市生野区,勝山北４丁目１－４４,,27,116,5440033,,,,,,,2025-10-30,1,,,,,モモズビューティー,0
355,2120003031111,新規,0,2025-10-30,2025-10-30,合同会社ＫＩＮＡＫＯ,,合同会社,大阪府,大阪市北区,梅田１丁目１－３大阪駅前第３ビル２９階１－１－１号室,,27,127,5300001,,,,,,,2025-10-30,1,,,,,キナコ,0
356,2120003031136,新規,0,2025-10-30,2025-10-30,環宇ｗｅ‐ｍｅｄｉａ合同会社,,合同会社,大阪府,大阪市平野区,長吉川辺１丁目北２番３８－４０３号,,27,126,5470014,,,,,,,2025-10-30,1,,,,,カンウウィメディア,0
359,2120101072701,新規,0,2025-10-30,2025-10-30,株式会社Ｔ‐Ｋｒｕｓｔ．,,株式会社,大阪府,高石市,東羽衣７丁目４番６－１０１号,,27,225,5920003,,,,,,,2025-10-30,1,,,,,ティークラスト,0
360,2120103006822,新規,0,2025-10-30,2025-10-30,合同会社Ｈｉｇｈ‐Ｆｌａｔ,,合同会社,大阪府,羽曳野市,古市４丁目１－１スワンライズビル２階Ａ号,,27,222,5830852,,,,,,,2025-10-30,1,,,,,ハイフラット,0
371,2130001080927,新規,0,2025-10-30,2025-10-30,株式会社らしゅう,,株式会社,京都府,京都市右京区,西院西高田町６番地２サンコート五條１１６,,26,108,6150032,,,,,,,2025-10-30,1,,,,,ラシュウ,0
374,2130005017495,新規,0,2025-10-30,2025-10-30,一般社団法人日本子どもお金教育協会,,その他の設立登記法人,京都府,京都市伏見区,川東町１２番地２３,,26,109,6128375,,,,,,,2025-10-30,1,,,,,,0
378,2140001140564,新規,0,2025-10-30,2025-10-30,ＡＩＲ株式会社,,株式会社,兵庫県,尼崎市,大島１丁目２８番９－１０５号,,28,202,6600076,,,,,,,2025-10-30,1,,,,,エーアイアール,0
387,2150001016111,新規,0,2025-10-30,2025-10-30,株式会社山徳,00141237,株式会社,奈良県,吉野郡川上村,大字大滝７７番地,,29,452,6393543,,,,,,,2025-10-30,1,,,,,ヤマトク,0
389,2160001027181,新規,0,2025-10-30,2025-10-30,株式会社中七,,株式会社,滋賀県,守山市,吉身２丁目２番６号,,25,207,5240021,,,,,,,2025-10-30,1,,,,,ナカシチ,0
399,2180001169253,新規,0,2025-10-30,2025-10-30,株式会社Ａｏｉ,,株式会社,愛知県,名古屋市港区,名港２丁目９番地１９号,,23,111,4550037,,,,,,,2025-10-30,1,,,,,アオイ,0
400,2180001169278,新規,0,2025-10-30,2025-10-30,セライオン株式会社,,株式会社,愛知県,名古屋市中村区,名駅３丁目４番１０号アルティメイト名駅１ｓｔ２階,,23,105,4500002,,,,,,,2025-10-30,1,,,,,セライオン,0
403,2180003029307,新規,0,2025-10-30,2025-10-30,合同会社スマイル,,合同会社,愛知県,名古屋市守山区,四軒家１丁目７０３番地,,23,113,4630034,,,,,,,2025-10-30,1,,,,,スマイル,0
404,2200001044379,新規,0,2025-10-30,2025-10-30,株式会社ＦＵＲＵＳＡＷＡ　ＴＥＣ,,株式会社,岐阜県,安八郡安八町,北今ケ渕４７０番地,,21,383,5030113,,,,,,,2025-10-30,1,,,,,フルサワテック,0
418,2270001009318,新規,0,2025-10-30,2025-10-30,株式会社小林建築,,株式会社,鳥取県,鳥取市,青谷町亀尻５３番地２,,31,201,6890522,,,,,,,2025-10-30,1,,,,,コバヤシケンチク,0
428,2290001111889,新規,0,2025-10-30,2025-10-30,株式会社ＢＦ,,株式会社,福岡県,糟屋郡宇美町,光正寺２丁目１４番１８号アトランティックオーシャンＢ棟２０２号,,40,341,8112123,,,,,,,2025-10-30,1,,,,,ビーエフ,0
429,2290001111971,新規,0,2025-10-30,2025-10-30,株式会社Ａｉｍｅｅ,,株式会社,福岡県,福岡市早良区,南庄４丁目１３番５－２０３号,,40,137,8140031,,,,,,,2025-10-30,1,,,,,エイミー,0
432,2290003017580,新規,0,2025-10-30,2025-10-30,ＥＣＳ　Ｊａｐａｎ合同会社,,合同会社,福岡県,福岡市博多区,美野島３丁目１１番９,,40,132,8120017,,,,,,,2025-10-30,1,,,,,イーシーエスジャパン,0
433,2290003017597,新規,0,2025-10-30,2025-10-30,ＯｒｉＧｅｎ合同会社,,合同会社,福岡県,福岡市中央区,赤坂１丁目４番１号,,40,133,8100042,,,,,,,2025-10-30,1,,,,,オリジェン,0
434,2290005019864,新規,0,2025-10-30,2025-10-30,一般社団法人岩城眼科医院,,その他の設立登記法人,福岡県,久留米市,城島町城島１０９番１,,40,203,8300207,,,,,,,2025-10-30,1,,,,,イワキガンカイイン,0
435,2290801031997,新規,0,2025-10-30,2025-10-30,株式会社七福,,株式会社,福岡県,北九州市戸畑区,中原西１丁目９番３号８Ｆ,,40,105,8040011,,,,,,,2025-10-30,1,,,,,ナナフク,0
437,2330001033699,新規,0,2025-10-30,2025-10-30,株式会社ＭＫＲ,,株式会社,熊本県,熊本市北区,清水新地２丁目１番８１号,,43,105,8618075,,,,,,,2025-10-30,1,,,,,エムケーアール,0
439,2330005010967,新規,0,2025-10-30,2025-10-30,一般社団法人となりのミットワイフ,,その他の設立登記法人,熊本県,阿蘇郡西原村,大字布田１９７０番地２,,43,432,8612403,,,,,,,2025-10-30,1,,,,,トナリノミットワイフ,0
445,2360001035973,新規,0,2025-10-30,2025-10-30,Ｃａｃｔｕｓ　Ｈｕｇ株式会社,,株式会社,沖縄県,宜野湾市,大山２丁目２８番２２号ヒルズ大山,,47,205,9012223,,,,,,,2025-10-30,1,,,,,キャクタスハグ,0
461,2430001095556,新規,0,2025-10-30,2025-10-30,株式会社Ｒａｄｉａｔｅ,,株式会社,北海道,札幌市豊平区,豊平四条８丁目２番９－１２０４号,,01,105,0620904,,,,,,,2025-10-30,1,,,,,ラディエイト,0
463,2430003018242,新規,0,2025-10-30,2025-10-30,合同会社ＩＣＬＰ,,合同会社,北海道,札幌市中央区,北一条西３丁目３番ばらと北一条ビル９Ｆ－８６,,01,101,0600001,,,,,,,2025-10-30,1,,,,,アイシーエルピー,0
466,2460101007771,新規,0,2025-10-30,2025-10-30,株式会社ＯｎｅＷｏｒｌｄＰｒｏｐｅｒｔｉｅｓ,,株式会社,北海道,中川郡幕別町,札内みずほ町１４３番地１０４,,01,643,0890554,,,,,,,2025-10-30,1,,,,,ワンワールドプロパティーズ,0
470,2490001011202,新規,0,2025-10-30,2025-10-30,株式会社Ｖａｒｉｏｕｓ　Ｓｈａｐｅｓ,,株式会社,高知県,高知市,薊野西町２丁目２番５号,,39,201,7810015,,,,,,,2025-10-30,1,,,,,ヴァリアスシェイプス,0
481,3010001259425,新規,0,2025-10-30,2025-10-30,Ｅｎｉｔｙ株式会社,,株式会社,東京都,中央区,銀座１丁目３－６銀座べラメンテ９０１号室,,13,102,1040061,,,,,,,2025-10-30,1,,,,,エニティー,0
482,3010001259796,新規,0,2025-10-30,2025-10-30,株式会社ＦＳＰ,,株式会社,東京都,中央区,日本橋茅場町２丁目７－４Ａｓｔｅｒ茅場町９Ｆ,,13,102,1030025,,,,,,,2025-10-30,1,,,,,エフエスピー,0
488,3010003049196,新規,0,2025-10-30,2025-10-30,Ｓｐｒｉｎｔ　Ａｓｓｅｔ３Ａ合同会社,,合同会社,東京都,千代田区,霞が関３丁目２番５号,,13,101,1000013,,,,,,,2025-10-30,1,,,,,スプリントアセットスリーエー,0
489,3010003049205,新規,0,2025-10-30,2025-10-30,日光Ｐｌｕｓ２５合同会社１,,合同会社,東京都,千代田区,丸の内１丁目４番１号東京共同会計事務所内,,13,101,1000005,,,,,,,2025-10-30,1,,,,,ニッコウプラストゥエンティファイブイチ,0
490,3010003049213,新規,0,2025-10-30,2025-10-30,日光Ｐｌｕｓ２５合同会社９,,合同会社,東京都,千代田区,丸の内１丁目４番１号東京共同会計事務所内,,13,101,1000005,,,,,,,2025-10-30,1,,,,,ニッコウプラストゥエンティファイブキュウ,0
491,3010003049221,新規,0,2025-10-30,2025-10-30,日光Ｐｌｕｓ２５合同会社１８,,合同会社,東京都,千代田区,丸の内１丁目４番１号東京共同会計事務所内,,13,101,1000005,,,,,,,2025-10-30,1,,,,,ニッコウプラストゥエンティファイブジュウハチ,0
497,3010401193991,新規,0,2025-10-30,2025-10-30,株式会社健康,,株式会社,東京都,港区,六本木５丁目１３－９－５０９,,13,103,1060032,,,,,,,2025-10-30,1,,,,,ケンコウ,0
498,3010401194131,新規,0,2025-10-30,2025-10-30,株式会社Ｎａｔｕｒａ　Ｌｉｎｋ,,株式会社,東京都,港区,六本木３丁目１６番１２号六本木ＫＳビル５階,,13,103,1060032,,,,,,,2025-10-30,1,,,,,ナチュラリンク,0
499,3010401194148,新規,0,2025-10-30,2025-10-30,メディアドッグス株式会社,,株式会社,東京都,港区,南青山２丁目２番１５号ウィン青山９４２,,13,103,1070062,,,,,,,2025-10-30,1,,,,,メディアドッグス,0
500,3010401194172,新規,0,2025-10-30,2025-10-30,Ｓｕｎｎｙ　Ｌｅｔｕｓ株式会社,,株式会社,東京都,港区,芝５丁目３２番１２号シャーメゾンステージ田町３Ｆ,,13,103,1080014,,,,,,,2025-10-30,1,,,,,サニーレタス,0
501,3010401194180,新規,0,2025-10-30,2025-10-30,川本バイオビジネス・パートナーズ株式会社,,株式会社,東京都,港区,北青山１丁目３番１号,,13,103,1070061,,,,,,,2025-10-30,1,,,,,カワモトバイオビジネスパートナーズ,0
506,3010405024846,新規,0,2025-10-30,2025-10-30,一般社団法人インナービューティ・ファスティング認定機構,,その他の設立登記法人,東京都,港区,三田３丁目７番１８号ＴＨＥ．ＩＴＯＹＡＭＡ．ＴＯＷＥＲ７階,,13,103,1080073,,,,,,,2025-10-30,1,,,,,インナービューティファスティングニンテイキコウ,0
507,3010405024937,新規,0,2025-10-30,2025-10-30,ウェストゲート一般社団法人,,その他の設立登記法人,東京都,港区,虎ノ門５丁目１番５号,,13,103,1050001,,,,,,,2025-10-30,1,,,,,ウェストゲート,0
519,3010901058364,新規,0,2025-10-30,2025-10-30,Ｂｉ　ｔｏ　ｗｅｌｌｎｅｓｓ株式会社,,株式会社,東京都,世田谷区,池尻３丁目２１番１－１３０３号,,13,112,1540001,,,,,,,2025-10-30,1,,,,,ビトウェルネス,0
524,3011001173244,新規,0,2025-10-30,2025-10-30,株式会社Ｒａｙ,,株式会社,東京都,目黒区,上目黒２丁目４７番４号ライズ中目黒２Ｆ,,13,110,1530051,,,,,,,2025-10-30,1,,,,,レイ,0
525,3011001173418,新規,0,2025-10-30,2025-10-30,株式会社ＳＨＤ,,株式会社,東京都,渋谷区,道玄坂１丁目１８番１号６Ｂ,,13,113,1500043,,,,,,,2025-10-30,1,,,,,エスエイチディー,0
526,3011001173467,新規,0,2025-10-30,2025-10-30,株式会社Ｌｉｌｙ＆Ｓｏｎｓ,,株式会社,東京都,目黒区,東山１丁目３０番７号パレ・ドール東山１０２,,13,110,1530043,,,,,,,2025-10-30,1,,,,,リリーアンドサンズ,0
530,3011101113323,新規,0,2025-10-30,2025-10-30,一期Ｔｏｋｙｏ株式会社,,株式会社,東京都,新宿区,百人町２丁目５－４土屋ビル２ＦＬｉｎｋＳｐａｃｅＳ０３号室,,13,104,1690073,,,,,,,2025-10-30,1,,,,,イッキトウキョウ,0
531,3011103016557,新規,0,2025-10-30,2025-10-30,ＡＫ　ＴＯＫＹＯ　ＥＸＰＯＲＴ合同会社,,合同会社,東京都,新宿区,下落合４丁目８－３０,,13,104,1610033,,,,,,,2025-10-30,1,,,,,エイケイトウキョウエクスポート,0
541,3011503006752,新規,0,2025-10-30,2025-10-30,Ｋ＆Ｙ商事合同会社,,合同会社,東京都,北区,上十条２丁目３０－３テック十条２階,,13,117,1140034,,,,,,,2025-10-30,1,,,,,ケイアンドワイショウジ,0
542,3011503006760,新規,0,2025-10-30,2025-10-30,合同会社あかり,,合同会社,東京都,荒川区,荒川６丁目５３番１１号,,13,118,1160002,,,,,,,2025-10-30,1,,,,,アカリ,0
546,3011801046987,新規,0,2025-10-30,2025-10-30,Ｔａｃｈｉｂａｎａ　Ｗａｈｄａｔ　Ｎａｚａｒｙ株式会社,,株式会社,東京都,足立区,竹の塚６丁目１２番６号ステラ光平７０２,,13,121,1210813,,,,,,,2025-10-30,1,,,,,タチバナワーダットナザリー,0
550,3013101009848,新規,0,2025-10-30,2025-10-30,株式会社ＦＩＥＬＤ,,株式会社,東京都,羽村市,神明台３丁目３２番地５２,,13,227,2050023,,,,,,,2025-10-30,1,,,,,フィールド,0
556,3020001165457,新規,0,2025-10-30,2025-10-30,株式会社横浜民間救急,,株式会社,神奈川県,横浜市青葉区,奈良町２７８４－４－２０１,,14,117,2270036,,,,,,,2025-10-30,1,,,,,ヨコハマミンカンキュウキュウ,0
571,3021003016747,新規,0,2025-10-30,2025-10-30,１度きりの人生合同会社,,合同会社,神奈川県,逗子市,新宿３丁目２番１０号,,14,208,2490007,,,,,,,2025-10-30,1,,,,,イチドキリノジンセイ,0
578,3040001141167,新規,0,2025-10-30,2025-10-30,株式会社リンクスペース,,株式会社,千葉県,松戸市,日暮３丁目１５番地の１８パールハイツＡ号室,,12,207,2702253,,,,,,,2025-10-30,1,,,,,リンクスペース,0
580,3040003028899,新規,0,2025-10-30,2025-10-30,合同会社イワサキソリューション,,合同会社,千葉県,船橋市,金杉台１丁目３番１５棟３０２号,,12,204,2730852,,,,,,,2025-10-30,1,,,,,イワサキソリューション,0
585,3060001038717,新規,0,2025-10-30,2025-10-30,株式会社ＬＩＧ,,株式会社,栃木県,栃木市,野中町１３６１番地２０,,09,203,3280124,,,,,,,2025-10-30,1,,,,,リグ,0
592,3090003002924,新規,0,2025-10-30,2025-10-30,合同会社マエダホールディングス,,合同会社,山梨県,甲府市,中央１丁目１２番４６号,,19,201,4000032,,,,,,,2025-10-30,1,,,,,マエダホールディングス,0
598,3110001039684,新規,0,2025-10-30,2025-10-30,株式会社ＭＩＲＯＫＵ,,株式会社,新潟県,新潟市江南区,二本木５丁目２番１号,,15,104,9500207,,,,,,,2025-10-30,1,,,,,ミロク,0
606,3120001281335,新規,0,2025-10-30,2025-10-30,株式会社虜,,株式会社,大阪府,大阪市鶴見区,諸口４丁目１０番２１号,,27,124,5380051,,,,,,,2025-10-30,1,,,,,トリコ,0
607,3120001281525,新規,0,2025-10-30,2025-10-30,株式会社ことこと,,株式会社,大阪府,寝屋川市,黒原橘町４－１,,27,215,5720058,,,,,,,2025-10-30,1,,,,,コトコト,0
608,3120001281533,新規,0,2025-10-30,2025-10-30,ＦＯＲＭＯＳＡ　ＭＣＮ株式会社,,株式会社,大阪府,大阪市中央区,南久宝寺町１丁目７番１０号１００室,,27,128,5410058,,,,,,,2025-10-30,1,,,,,フォルモサエムシーエヌ,0
609,3120001281558,新規,0,2025-10-30,2025-10-30,株式会社はればれ,,株式会社,大阪府,大阪市北区,梅田１丁目１－３大阪駅前第３ビル２９階１－１－１号室,,27,127,5300001,,,,,,,2025-10-30,1,,,,,ハレバレ,0
610,3120001281608,新規,0,2025-10-30,2025-10-30,株式会社Ｗｏｒｌｄ　Ｌｉｎｋｓ,,株式会社,大阪府,大阪市東成区,中道４丁目１番９号ＧＯＯＤＬＩＦＥ中道５Ｂ,,27,115,5370025,,,,,,,2025-10-30,1,,,,,ワールドリンクス,0
611,3120001281624,新規,0,2025-10-30,2025-10-30,株式会社Ａフーズ,,株式会社,大阪府,大阪市北区,太融寺町２番２１号ニュープラザビルＢ１階,,27,127,5300051,,,,,,,2025-10-30,1,,,,,エーフーズ,0
615,3120101072700,新規,0,2025-10-30,2025-10-30,株式会社Ｔｈｉｎｋ　Ｂｉｇ,,株式会社,大阪府,岸和田市,新港町２－３,,27,202,5960012,,,,,,,2025-10-30,1,,,,,シンクビッグ,0
616,3120103006805,新規,0,2025-10-30,2025-10-30,合同会社氣耀,,合同会社,大阪府,和泉市,伯太町１丁目５番３５号和泉府中ハウスＡ棟１０４号,,27,219,5940023,,,,,,,2025-10-30,1,,,,,キヨウ,0
617,3120103006813,新規,0,2025-10-30,2025-10-30,合同会社百笑,,合同会社,大阪府,泉南市,新家６２２９番地の１９,,27,228,5900503,,,,,,,2025-10-30,1,,,,,ヒャクショウ,0
632,3130003010889,新規,0,2025-10-30,2025-10-30,Ｏｎｅ　Ｊａｐａｎ　Ｔｏｕｒｓ　ａｎｄ　Ｔｒａｖｅｌｓ合同会社,,合同会社,京都府,京都市上京区,浮田町６１９－１－３０１,,26,102,6028104,,,,,,,2025-10-30,1,,,,,ワンジャパンツアーズアンドトラベルズ,0
635,3140001140563,新規,0,2025-10-30,2025-10-30,株式会社ニシヤマシーン,,株式会社,兵庫県,加古川市,加古川町西河原５番地の９,,28,210,6750036,,,,,,,2025-10-30,1,,,,,ニシヤマシーン,0
655,3180001169260,新規,0,2025-10-30,2025-10-30,株式会社ＨＡＫ,,株式会社,愛知県,清須市,西枇杷島町地領１丁目６番７,,23,233,4520008,,,,,,,2025-10-30,1,,,,,ハック,0
656,3180001169269,新規,0,2025-10-30,2025-10-30,株式会社ＭＵＳＥＡ,,株式会社,愛知県,名古屋市名東区,新宿１丁目３０８番地Ａ号室,,23,115,4650063,,,,,,,2025-10-30,1,,,,,ミュゼア,0
657,3180001169310,新規,0,2025-10-30,2025-10-30,株式会社えふとらすと,,株式会社,愛知県,名古屋市守山区,四軒家２丁目４１９番地ライオンズマンション藤ケ丘ガーデンシティ参番館１２０２号,,23,113,4630034,,,,,,,2025-10-30,1,,,,,エフトラスト,0
661,3180301040369,新規,0,2025-10-30,2025-10-30,株式会社Ｉ・Ｎ・Ａ,,株式会社,愛知県,岡崎市,森越町字宮前３５番地,,23,202,4440901,,,,,,,2025-10-30,1,,,,,アイエヌエー,0
665,3190001032649,新規,0,2025-10-30,2025-10-30,菊廣株式会社,,株式会社,三重県,松阪市,京町一区２８番地８,,24,204,5150018,,,,,,,2025-10-30,1,,,,,キクヒロ,0
669,3210003001970,新規,0,2025-10-30,2025-10-30,Ｔｈｅ　Ａｒｔ　ｏｆ　Ｌｏｖｉｎｇ合同会社,,合同会社,福井県,福井市,中央１丁目３番５号ＦＵＫＵＭＡＣＨＩＢＬＯＣＫ６Ｆ,,18,201,9100006,,,,,,,2025-10-30,1,,,,,ジアートオブラビング,0
692,3290001111797,新規,0,2025-10-30,2025-10-30,株式会社ＴＩＤＡ,,株式会社,福岡県,福岡市博多区,博多駅前１丁目２３番２号ＰａｒｋＦｒｏｎｔ博多駅前１丁目５Ｆ－Ｂ,,40,132,8120011,,,,,,,2025-10-30,1,,,,,ティダ,0
693,3290001111855,新規,0,2025-10-30,2025-10-30,Ｄ．ＫＯＪＵＮＥ株式会社,,株式会社,福岡県,福岡市西区,今宿駅前１丁目１５番１８号マリブ今宿シーサイドテラス３Ｆ,,40,135,8190168,,,,,,,2025-10-30,1,,,,,ディーコジューン,0
694,3290001111896,新規,0,2025-10-30,2025-10-30,株式会社ＳＢｐｅｒｔｎｅｒｓ,,株式会社,福岡県,福岡市東区,香椎照葉６丁目４番４号フォレストプレイス香椎照葉ザ・テラス０４－１１０６,,40,131,8130017,,,,,,,2025-10-30,1,,,,,エスビーパートナーズ,0
695,3290001111946,新規,0,2025-10-30,2025-10-30,ＧＳ‐ＡＳＩＡ株式会社,,株式会社,福岡県,福岡市城南区,片江５丁目２２番１４－２０１号,,40,136,8140142,,,,,,,2025-10-30,1,,,,,ジーエスアシア,0
701,3290003017596,新規,0,2025-10-30,2025-10-30,ＤＨ　ＯＮＥ合同会社,,合同会社,福岡県,久留米市,日吉町１２－４６第３ワインビル１階,,40,203,8300017,,,,,,,2025-10-30,1,,,,,ディーエイチワン,0
705,3330001033715,新規,0,2025-10-30,2025-10-30,株式会社院政,,株式会社,熊本県,熊本市東区,健軍本町２８番５０号３０２,,43,102,8620910,,,,,,,2025-10-30,1,,,,,インセイ,0
706,3330005010966,新規,0,2025-10-30,2025-10-30,一般社団法人ＦＩＶＥ　ＲＩＮＧＳ,,その他の設立登記法人,熊本県,熊本市中央区,安政町４－１４,,43,101,8600801,,,,,,,2025-10-30,1,,,,,ファイブリングス,0
707,3340005009917,新規,0,2025-10-30,2025-10-30,特定非営利活動法人南洲翁龍愛未来塾,,その他の設立登記法人,鹿児島県,大島郡龍郷町,龍郷２２５番地,,46,527,8940321,,,,,,,2025-10-30,1,,,,,ナンシュウオウリュウアイミライジュク,0
727,3700150037710,新規,0,2025-10-30,2015-10-09,郡山地方消防防災協会,,その他,福島県,郡山市,堂前町５－１６消防本部内,,07,203,9638877,,,,,,,2015-10-09,1,,,,,コオリヤマチホウシヨウボウボウサイキヨウカイ,0
743,4010001259754,新規,0,2025-10-30,2025-10-30,株式会社ＦＵＲＵＹＡＭＡ‐Ｌ,,株式会社,東京都,中央区,銀座８丁目１０番４号和孝銀座８丁目ビル５階,,13,102,1040061,,,,,,,2025-10-30,1,,,,,フルヤマエル,0
744,4010001259928,新規,0,2025-10-30,2025-10-30,白泉庵株式会社,,株式会社,東京都,中央区,銀座１丁目１２番４号Ｎ＆Ｅ－ＢＬＤ．６Ｆ,,13,102,1040061,,,,,,,2025-10-30,1,,,,,ハクセンアン,0
747,4010003049179,新規,0,2025-10-30,2025-10-30,ＨＡＲＵＮＯ合同会社,,合同会社,東京都,千代田区,神田須田町１丁目７番８号ＶＯＲＴ秋葉原ＩＶ２Ｆ,00141318,13,101,1010041,,,,,,,2025-10-30,1,,,,,ハルノ,0
748,4010003049195,新規,0,2025-10-30,2025-10-30,Ｓｐｒｉｎｔ　ＭＬ３Ａ合同会社,,合同会社,東京都,千代田区,霞が関３丁目２番５号,,13,101,1000013,,,,,,,2025-10-30,1,,,,,スプリントエムエルスリーエー,0
749,4010003049212,新規,0,2025-10-30,2025-10-30,日光Ｐｌｕｓ２５合同会社８,,合同会社,東京都,千代田区,丸の内１丁目４番１号東京共同会計事務所内,,13,101,1000005,,,,,,,2025-10-30,1,,,,,ニッコウプラストゥエンティファイブハチ,0
750,4010003049220,新規,0,2025-10-30,2025-10-30,日光Ｐｌｕｓ２５合同会社１７,,合同会社,東京都,千代田区,丸の内１丁目４番１号東京共同会計事務所内,,13,101,1000005,,,,,,,2025-10-30,1,,,,,ニッコウプラストゥエンティファイブジュウナナ,0
751,4010003049229,新規,0,2025-10-30,2025-10-30,ＳＲＦアセット８合同会社,,合同会社,東京都,千代田区,丸の内１丁目４番１号東京共同会計事務所内,,13,101,1000005,,,,,,,2025-10-30,1,,,,,エスアールエフアセットエイト,0
763,4010401193974,新規,0,2025-10-30,2025-10-30,株式会社ＩｓｓｈｏｎｉＡＩ,,株式会社,東京都,港区,海岸１丁目７－１東京ポートシティ竹芝１０階,,13,103,1050022,,,,,,,2025-10-30,1,,,,,イッショニエーアイ,0
767,4010403036388,新規,0,2025-10-30,2025-10-30,Ｏｉｋａｚｅ　Ｖｅｎｔｕｒｅｓ合同会社,,合同会社,東京都,港区,虎ノ門５丁目９番１号,,13,103,1050001,,,,,,,2025-10-30,1,,,,,オイカゼベンチャーズ,0
770,4010405024837,新規,0,2025-10-30,2025-10-30,一般社団法人横山葵海後援会,,その他の設立登記法人,東京都,港区,芝５丁目２９番１７号ＭＡビル札の辻８階,,13,103,1080014,,,,,,,2025-10-30,1,,,,,ヨコヤマアオイコウエンカイ,0
781,4010901058314,新規,0,2025-10-30,2025-10-30,Ｄ＆Ｙマネジメント株式会社,,株式会社,東京都,世田谷区,駒沢４丁目１－１８,,13,112,1540012,,,,,,,2025-10-30,1,,,,,ディーアンドワイマネジメント,0
782,4010901058347,新規,0,2025-10-30,2025-10-30,株式会社ＲＥＸ‐Ｘ,,株式会社,東京都,世田谷区,大原１丁目２３番２１号,,13,112,1560041,,,,,,,2025-10-30,1,,,,,レックスエックス,0
785,4010903010371,新規,0,2025-10-30,2025-10-30,合同会社ちゅりた,,合同会社,東京都,世田谷区,玉堤１丁目１１番７－３０４号,,13,112,1580087,,,,,,,2025-10-30,1,,,,,チュリタ,0
790,4011001173061,新規,0,2025-10-30,2025-10-30,ヒューマンブリッジ株式会社,,株式会社,東京都,渋谷区,恵比寿４丁目２０番３号恵比寿ガーデンプレイスタワー１８階,,13,113,1500013,,,,,,,2025-10-30,1,,,,,ヒューマンブリッジ,0
791,4011001173490,新規,0,2025-10-30,2025-10-30,株式会社Ｎｕｖｉｅｌｌｅ,,株式会社,東京都,目黒区,青葉台４丁目４－１２－５０４,,13,110,1530042,,,,,,,2025-10-30,1,,,,,ヌヴィエル,0
793,4011003022745,新規,0,2025-10-30,2025-10-30,合同会社ノンレクチャー,,合同会社,東京都,渋谷区,宇田川町１６番９号,,13,113,1500042,,,,,,,2025-10-30,1,,,,,ノンレクチャー,0
799,4011401027528,新規,0,2025-10-30,2025-10-30,株式会社漢方テクノロジー研究所,,株式会社,東京都,板橋区,桜川２丁目１７番１０号１０５,,13,119,1740075,,,,,,,2025-10-30,1,,,,,カンポウテクノロジーケンキュウショ,0
802,4011503006751,新規,0,2025-10-30,2025-10-30,Ｂｉｒｔｈ合同会社,,合同会社,東京都,荒川区,東尾久４丁目３８番３号,,13,118,1160012,,,,,,,2025-10-30,1,,,,,バース,0
803,4011601029134,新規,0,2025-10-30,2025-10-30,株式会社メシトラ,,株式会社,東京都,練馬区,中村北１丁目９番１１号ジャパンオートサービスビル１Ｆ,,13,120,1760023,,,,,,,2025-10-30,1,,,,,メシトラ,0
805,4011801046978,新規,0,2025-10-30,2025-10-30,株式会社ＳＥＩＭＡ,,株式会社,東京都,葛飾区,鎌倉３丁目４６番１６号,,13,122,1250053,,,,,,,2025-10-30,1,,,,,セイマ,0
816,4020001165101,新規,0,2025-10-30,2025-10-30,株式会社ライズコーポレーション,,株式会社,神奈川県,川崎市中原区,木月住吉町１８番１２号エアプレイス元住吉１０５,,14,133,2110021,,,,,,,2025-10-30,1,,,,,ライズコーポレーション,0
817,4020001165539,新規,0,2025-10-30,2025-10-30,株式会社Ｎ．Ｔ,,株式会社,神奈川県,川崎市高津区,下作延２丁目１５番７号,,14,134,2130033,,,,,,,2025-10-30,1,,,,,エヌドットティー,0
818,4020001165571,新規,0,2025-10-30,2025-10-30,株式会社Ｋ＆Ｈヘルスケア,,株式会社,神奈川県,横浜市中区,南仲通１丁目１３番地７２０号,,14,104,2310006,,,,,,,2025-10-30,1,,,,,ケイアンドエイチヘルスケア,0
838,4030001169448,新規,0,2025-10-30,2025-10-30,株式会社ライフパートナーズ,,株式会社,埼玉県,飯能市,大字岩沢１２１６番地,,11,209,3570023,,,,,,,2025-10-30,1,,,,,ライフパートナーズ,0
845,4050003009724,新規,0,2025-10-30,2025-10-30,Ａｌｔｅｒｎｏ　Ｊａｐａｎ合同会社,,合同会社,茨城県,つくば市,吾妻１丁目１０－１つくばセンタービル１階,,08,220,3050031,,,,,,,2025-10-30,1,,,,,アルタノジャパン,0
852,4080103003459,新規,0,2025-10-30,2025-10-30,ＫＥＮＩ　ＪＡＰＡＮ合同会社,,合同会社,静岡県,三島市,徳倉３丁目１２番３４号,,22,206,4110044,,,,,,,2025-10-30,1,,,,,ケニージャパン,0
854,4090001019589,新規,0,2025-10-30,2025-10-30,株式会社Ｙ２ぷらす,,株式会社,山梨県,南アルプス市,川上２１５番地２,,19,208,4000421,,,,,,,2025-10-30,1,,,,,,0
858,4110003005948,新規,0,2025-10-30,2025-10-30,合同会社ＴＳＵＫＡＳＡ,,合同会社,新潟県,見附市,今町３丁目１０番２０号,,15,211,9540111,,,,,,,2025-10-30,1,,,,,ツカサ,0
864,4120001281144,新規,0,2025-10-30,2025-10-30,株式会社ＩＫＵＲＯ,,株式会社,大阪府,大阪市北区,梅田１丁目２番２号大阪駅前第２ビル１２－１２,,27,127,5300001,,,,,,,2025-10-30,1,,,,,イクロ,0
865,4120001281417,新規,0,2025-10-30,2025-10-30,Ｇｌｏｂａｌ　Ｃｒｅａｔｏｒ　Ｌｉｎｋｓｓ株式会社,,株式会社,大阪府,大阪市北区,西天満１丁目１０番１６号ＫＳビル別館３階,,27,127,5300047,,,,,,,2025-10-30,1,,,,,グローバルクリエイターリンクス,0
871,4120905006803,新規,0,2025-10-30,2025-10-30,一般社団法人福利厚生の森,,その他の設立登記法人,大阪府,高槻市,南松原町８－４,,27,207,5690085,,,,,,,2025-10-30,1,,,,,フクリコウセイノモリ,0
876,4130003010905,新規,0,2025-10-30,2025-10-30,リーガルアップ合同会社,,合同会社,京都府,京都市中京区,笹屋町４４５番地日宝烏丸ビル８階,,26,104,6040983,,,,,,,2025-10-30,1,,,,,リーガルアップ,0
878,4130005017502,新規,0,2025-10-30,2025-10-30,一般社団法人日本建設業推進協会,,その他の設立登記法人,京都府,宇治市,宇治弐番１番地一の坂ビル,,26,204,6110021,,,,,,,2025-10-30,1,,,,,ニホンケンセツギョウスイシンキョウカイ,0
887,4140001140562,新規,0,2025-10-30,2025-10-30,株式会社ＣｏＣｏ　Ｌｉｎｋ,,株式会社,兵庫県,加古川市,平岡町二俣６５１番地の２ジークレフ加古川東８１１号,,28,210,6750111,,,,,,,2025-10-30,1,,,,,ココリンク,0
888,4140001140570,新規,0,2025-10-30,2025-10-30,株式会社Ｔｈｒｅｅ’ｓ,,株式会社,兵庫県,三田市,ゆりのき台１丁目４２番地４,,28,219,6691324,,,,,,,2025-10-30,1,,,,,スリーズ,0
891,4170001018855,新規,0,2025-10-30,2025-10-30,マリナーズテック株式会社,,株式会社,和歌山県,有田郡広川町,大字和田３５番地,,30,362,6430075,,,,,,,2025-10-30,1,,,,,マリナーズテック,0
893,4170003002329,新規,0,2025-10-30,2025-10-30,合同会社マル鹿青果,,合同会社,和歌山県,有田郡有田川町,大字吉原１２５２番地１,,30,366,6430166,,,,,,,2025-10-30,1,,,,,マルシカセイカ,0
911,4180003029288,新規,0,2025-10-30,2025-10-30,合同会社飛翔倶楽部,,合同会社,愛知県,稲沢市,祖父江町二俣寺瀬古９３番地１,,23,220,4950013,,,,,,,2025-10-30,1,,,,,ヒショウクラブ,0
912,4190001032656,新規,0,2025-10-30,2025-10-30,三重エコメタル株式会社,,株式会社,三重県,鈴鹿市,伊船町１１１２番地２,,24,207,5190323,,,,,,,2025-10-30,1,,,,,ミエエコメタル,0
921,4240001065709,新規,0,2025-10-30,2025-10-30,株式会社ＨＡＮＡＫＥＮ,,株式会社,広島県,広島市南区,東雲１丁目１０番１３－２０５号,,34,103,7340022,,,,,,,2025-10-30,1,,,,,ハナケン,0
922,4240003007460,新規,0,2025-10-30,2025-10-30,西日本不動産パートナーズ合同会社,,合同会社,広島県,呉市,阿賀南４丁目８番１３号,,34,202,7370004,,,,,,,2025-10-30,1,,,,,ニシニホンフドウサンパートナーズ,0
937,4290001111796,新規,0,2025-10-30,2025-10-30,ハニー珈琲ホールセール株式会社,,株式会社,福岡県,福岡市博多区,那珂６丁目１番３７号,,40,132,8120893,,,,,,,2025-10-30,1,,,,,ハニーコーヒーホールセール,0
942,4290005019862,新規,0,2025-10-30,2025-10-30,特定非営利活動法人ＤＲＥＡＭ　ＫＩＣＫ,,その他の設立登記法人,福岡県,糟屋郡新宮町,杜の宮４丁目１１番５号,,40,345,8110122,,,,,,,2025-10-30,1,,,,,ドリームキック,0
955,4350003005057,新規,0,2025-10-30,2025-10-30,あふろく合同会社,,合同会社,宮崎県,延岡市,下伊形町７１１６－１,,45,203,8890504,,,,,,,2025-10-30,1,,,,,アフロク,0
957,4360001035963,新規,0,2025-10-30,2025-10-30,石垣珈琲カンパニー株式会社,,株式会社,沖縄県,石垣市,字新川２３５７番地１７,,47,207,9070024,,,,,,,2025-10-30,1,,,,,イシガキコーヒーカンパニー,0
1000,5010001259530,新規,0,2025-10-30,2025-10-30,株式会社ライズマネジメント,,株式会社,東京都,中央区,日本橋小伝馬町１７番１７号峰沢ビル５階,,13,102,1030001,,,,,,,2025-10-30,1,,,,,ライズマネジメント,0
1001,5010001259613,新規,0,2025-10-30,2025-10-30,株式会社ＬＩＦＥ,,株式会社,東京都,千代田区,九段南１丁目５番６号りそな九段ビル５ＦＫＳフロア,,13,101,1020074,,,,,,,2025-10-30,1,,,,,ライフ,0
1002,5010001259670,新規,0,2025-10-30,2025-10-30,株式会社ｙｏｙｏ,,株式会社,東京都,千代田区,神田和泉町１番地６の１６ヤマトビル４０５,,13,101,1010024,,,,,,,2025-10-30,1,,,,,ヨーヨー,0
1004,5010003049129,新規,0,2025-10-30,2025-10-30,原合同会社,,合同会社,東京都,千代田区,五番町１２番地ドミール五番町１－０２５号,,13,101,1020076,,,,,,,2025-10-30,1,,,,,ハラ,0
1005,5010003049211,新規,0,2025-10-30,2025-10-30,日光Ｐｌｕｓ２５合同会社７,,合同会社,東京都,千代田区,丸の内１丁目４番１号東京共同会計事務所内,,13,101,1000005,,,,,,,2025-10-30,1,,,,,ニッコウプラストゥエンティファイブナナ,0
1006,5010003049228,新規,0,2025-10-30,2025-10-30,ＳＲＦアセット７合同会社,,合同会社,東京都,千代田区,丸の内１丁目４番１号東京共同会計事務所内,,13,101,1000005,,,,,,,2025-10-30,1,,,,,エスアールエフアセットセブン,0
1007,5010101016939,新規,0,2025-10-30,2025-10-30,ＳＭＪ株式会社,,株式会社,東京都,八王子市,中野町２７４３番地１,,13,201,1920015,,,,,,,2025-10-30,1,,,,,エスエムジェイ,0
1012,5010401193973,新規,0,2025-10-30,2025-10-30,株式会社ＫＩＰ,,株式会社,東京都,港区,西麻布３丁目１９－１０ケヤキハウス４０１号室,,13,103,1060031,,,,,,,2025-10-30,1,,,,,キップ,0
1013,5010401194204,新規,0,2025-10-30,2025-10-30,株式会社ＭＹコンサルティング,,株式会社,東京都,港区,南青山２丁目２番１５号,,13,103,1070062,,,,,,,2025-10-30,1,,,,,エムワイコンサルティング,0
1014,5010401194220,新規,0,2025-10-30,2025-10-30,ＢＥＹＯＮＤ　ＮＥＸＴ株式会社,,株式会社,東京都,港区,六本木７丁目１７番２２－５０７号,,13,103,1060032,,,,,,,2025-10-30,1,,,,,ビヨンドネクスト,0
1015,5010403036338,新規,0,2025-10-30,2025-10-30,合同会社オクトーバーズ,,合同会社,東京都,港区,浜松町２丁目２番１５号浜松町ダイヤビル２Ｆ,,13,103,1050013,,,,,,,2025-10-30,1,,,,,,0
1016,5010403036486,新規,0,2025-10-30,2025-10-30,合同会社麻布インタラクティブ・クエスト,,合同会社,東京都,港区,南麻布３丁目６－９－３０３,,13,103,1060047,,,,,,,2025-10-30,1,,,,,アザブインタラクティブクエスト,0
1017,5010405024935,新規,0,2025-10-30,2025-10-30,一般社団法人みなと００９,,その他の設立登記法人,東京都,港区,虎ノ門３丁目２２番１０－２０１号,,13,103,1050001,,,,,,,2025-10-30,1,,,,,ミナトゼロゼロナイン,0
1026,5010903010370,新規,0,2025-10-30,2025-10-30,合同会社ＭａｋｅＢｕｉｌｄ,,合同会社,東京都,世田谷区,大蔵１丁目１０番６号,,13,112,1570074,,,,,,,2025-10-30,1,,,,,メイクビルド,0
1027,5010903010379,新規,0,2025-10-30,2025-10-30,ＯＴＳＵ合同会社,,合同会社,東京都,世田谷区,代田２丁目１３―１３ハレクラニＤＡＩＴＡ１０５号室,,13,112,1550033,,,,,,,2025-10-30,1,,,,,オツ,0
1036,5011001173151,新規,0,2025-10-30,2025-10-30,株式会社Ｔｅｘｔ,,株式会社,東京都,目黒区,中目黒１丁目３番８号,,13,110,1530061,,,,,,,2025-10-30,1,,,,,テクスト,0
1037,5011001173242,新規,0,2025-10-30,2025-10-30,株式会社ネクストワールド,,株式会社,東京都,渋谷区,恵比寿西２丁目８番４号ＥＸ恵比寿西ビル５階,,13,113,1500021,,,,,,,2025-10-30,1,,,,,ネクストワールド,0
1039,5011003022711,新規,0,2025-10-30,2025-10-30,合同会社Ｓａｇｇｉｏ＆Ｐａｒｔｎｅｒｓ,,合同会社,東京都,目黒区,下目黒１丁目１番地１４号コノトラビル７Ｆ,,13,110,1530064,,,,,,,2025-10-30,1,,,,,サジオアンドパートナーズ,0
1040,5011101113767,新規,0,2025-10-30,2025-10-30,ｗｏｏｂｏｗ株式会社,,株式会社,東京都,新宿区,北新宿２丁目４番１３号アウルマンション１０２,,13,104,1690074,,,,,,,2025-10-30,1,,,,,ウーボー,0
1041,5011101113791,新規,0,2025-10-30,2025-10-30,株式会社２ｓｅｃ．,,株式会社,東京都,新宿区,西新宿６丁目５番１号新宿アイランドタワー２階,,13,104,1600023,,,,,,,2025-10-30,1,,,,,ツーセカンド,0
1043,5011103016563,新規,0,2025-10-30,2025-10-30,ＺＥＨＯ合同会社,,合同会社,東京都,新宿区,天神町６４番地神楽坂アトリエ６４・３階,,13,104,1620808,,,,,,,2025-10-30,1,,,,,ゼットイーエイチオー,0
1060,5011801046977,新規,0,2025-10-30,2025-10-30,株式会社ルミエール,,株式会社,東京都,足立区,古千谷本町２丁目６番１１号,,13,121,1210832,,,,,,,2025-10-30,1,,,,,ルミエール,0
1063,5013103001504,新規,0,2025-10-30,2025-10-30,ＫＮアセット合同会社,,合同会社,東京都,青梅市,東青梅５丁目６番地の１４アベニュー河辺２０６,,13,205,1980042,,,,,,,2025-10-30,1,,,,,ケイエヌアセット,0
1069,5020001165562,新規,0,2025-10-30,2025-10-30,株式会社ルミナスホーム,,株式会社,神奈川県,川崎市幸区,戸手２丁目６番１５号,,14,132,2120005,,,,,,,2025-10-30,1,,,,,ルミナスホーム,0
1071,5020003029666,新規,0,2025-10-30,2025-10-30,合同会社ソウルファミリー,,合同会社,神奈川県,横浜市西区,北幸１丁目１１番１号水信ビル７階,,14,103,2200004,,,,,,,2025-10-30,1,,,,,ソウルファミリー,0
1088,5030001169439,新規,0,2025-10-30,2025-10-30,埼玉火葬株式会社,,株式会社,埼玉県,志木市,下宗岡２丁目２１番３２号,,11,228,3530003,,,,,,,2025-10-30,1,,,,,サイタマカソウ,0
1093,5040001141215,新規,0,2025-10-30,2025-10-30,株式会社ｅｇｇ,,株式会社,千葉県,習志野市,津田沼１丁目２番９号第二織戸ビル２階,,12,216,2750016,,,,,,,2025-10-30,1,,,,,エッグ,0
1099,5060001038715,新規,0,2025-10-30,2025-10-30,株式会社ＫＯＥＩ,,株式会社,栃木県,小山市,暁１丁目１１番２５号,,09,208,3290211,,,,,,,2025-10-30,1,,,,,コーエイ,0
1117,5110001039674,新規,0,2025-10-30,2025-10-30,リバイタル株式会社,,株式会社,新潟県,長岡市,大手通２丁目４－５Ｗｉｓｅビル３階,,15,202,9400062,,,,,,,2025-10-30,1,,,,,リバイタル,0
1127,5120001281473,新規,0,2025-10-30,2025-10-30,Ｚｅｒｏ　Ｐｌｕｓ　ＪＰ株式会社,,株式会社,大阪府,大阪市北区,国分寺１丁目６番６号ＬａＧｒａｃｅ天六７０２号室,,27,127,5310064,,,,,,,2025-10-30,1,,,,,ゼロプラスジェイピー,0
1128,5120001281481,新規,0,2025-10-30,2025-10-30,株式会社８Ｔ’ｓ,,株式会社,大阪府,大阪市西淀川区,姫島６丁目５－３,,27,113,5550033,,,,,,,2025-10-30,1,,,,,エイティーズ,0
1129,5120001281531,新規,0,2025-10-30,2025-10-30,株式会社ｄｏｂ,,株式会社,大阪府,枚方市,車塚１丁目１番１号輝きプラザきらら６階インキュベートルーム２号室,,27,210,5731159,,,,,,,2025-10-30,1,,,,,ドブ,0
1130,5120001281622,新規,0,2025-10-30,2025-10-30,株式会社ＴＳＭ,,株式会社,大阪府,大阪市淀川区,東三国１丁目３－４,,27,123,5320002,,,,,,,2025-10-30,1,,,,,ティーエスエム,0
1135,5120003031125,新規,0,2025-10-30,2025-10-30,ＵＰ　ＩＳＬＡＮＤ合同会社,,合同会社,大阪府,大阪市浪速区,下寺３丁目３番２０－９１１号,,27,111,5560001,,,,,,,2025-10-30,1,,,,,アップアイランド,0
1141,5120903005921,新規,0,2025-10-30,2025-10-30,ＧＲＯＯＶＥＲＳ合同会社,,合同会社,大阪府,豊中市,曽根東町１丁目１０－１８－１０２,,27,203,5610802,,,,,,,2025-10-30,1,,,,,グルーバーズ,0
1147,5130001080916,新規,0,2025-10-30,2025-10-30,株式会社ＶＡＴＥ,,株式会社,京都府,京都市中京区,河原町通二条下る一之船入町３７６番地クロトビル５Ｆ５１０号,,26,104,6040924,,,,,,,2025-10-30,1,,,,,ブイエイト,0
1151,5130005017501,新規,0,2025-10-30,2025-10-30,一般社団法人彩り,,その他の設立登記法人,京都府,木津川市,加茂町駅西１丁目５番地３,,26,214,6191153,,,,,,,2025-10-30,1,,,,,イロドリ,0
1157,5140001140561,新規,0,2025-10-30,2025-10-30,くすのき株式会社,,株式会社,兵庫県,姫路市,広峰１丁目４－５０,,28,201,6700882,,,,,,,2025-10-30,1,,,,,クスノキ,0
1158,5140001140586,新規,0,2025-10-30,2025-10-30,Ａｌｐｈａ　Ｂａｓｅ株式会社,,株式会社,兵庫県,三田市,上相野３５５番地１,,28,219,6691346,,,,,,,2025-10-30,1,,,,,アルファベース,0
1164,5160001027170,新規,0,2025-10-30,2025-10-30,株式会社グリーンエコ,,株式会社,滋賀県,彦根市,長曽根南町４３５番地,,25,202,5220052,,,,,,,2025-10-30,1,,,,,グリーンエコ,0
1165,5160001027179,新規,0,2025-10-30,2025-10-30,株式会社近江ワイン,,株式会社,滋賀県,長浜市,元浜町１２番３２号,,25,203,5260059,,,,,,,2025-10-30,1,,,,,オウミワイン,0
1167,5170003002328,新規,0,2025-10-30,2025-10-30,合同会社有田共同加工,,合同会社,和歌山県,有田郡広川町,大字名島３０９番地,,30,362,6430066,,,,,,,2025-10-30,1,,,,,アリダキョウドウカコウ,0
1174,5180001169218,新規,0,2025-10-30,2025-10-30,株式会社ＩＮＯ,,株式会社,愛知県,名古屋市名東区,藤巻町１丁目２－１３４９,,23,115,4650075,,,,,,,2025-10-30,1,,,,,イノ,0
1178,5180303006787,新規,0,2025-10-30,2025-10-30,合同会社近藤,,合同会社,愛知県,みよし市,莇生町愛宕下５６番地,,23,236,4700206,,,,,,,2025-10-30,1,,,,,,0
1183,5190003005246,新規,0,2025-10-30,2025-10-30,伊藤商事合同会社,,合同会社,三重県,桑名市,大字嘉例川１６４番地,,24,205,5110941,,,,,,,2025-10-30,1,,,,,イトウショウジ,0
1210,5290001111861,新規,0,2025-10-30,2025-10-30,Ｕｔｅｎａ株式会社,,株式会社,福岡県,大野城市,つつじケ丘３丁目１５番６号,,40,219,8160962,,,,,,,2025-10-30,1,,,,,ウテナ,0
1211,5290001112042,新規,0,2025-10-30,2025-10-30,株式会社誠佳瑞,,株式会社,福岡県,糟屋郡粕屋町,大字阿惠２４９－２１,,40,349,8112306,,,,,,,2025-10-30,1,,,,,セイカズイ,0
1217,5300003002371,新規,0,2025-10-30,2025-10-30,昌盛合同会社,,合同会社,佐賀県,鹿島市,大字井手３９１－２,,41,207,8491302,,,,,,,2025-10-30,1,,,,,ショウセイ,0
1228,5360001035970,新規,0,2025-10-30,2025-10-30,株式会社ＫＭカンパニー,,株式会社,沖縄県,沖縄市,中央２丁目６番３２号,,47,211,9040004,,,,,,,2025-10-30,1,,,,,ケイエムカンパニー,0
1230,5360003015343,新規,0,2025-10-30,2025-10-30,合同会社オキボックス,,合同会社,沖縄県,沖縄市,仲宗根町２番１４号,,47,211,9040014,,,,,,,2025-10-30,1,,,,,オキボックス,0
1231,5360005007306,新規,0,2025-10-30,2025-10-30,一般社団法人カシジェーアンバサダー協会,,その他の設立登記法人,沖縄県,うるま市,字川崎４３エムズガーデン川崎４０４,,47,213,9042203,,,,,,,2025-10-30,1,,,,,カシジェーアンバサダーキョウカイ,0
1253,5470003003007,新規,0,2025-10-30,2025-10-30,合資会社ユージング工房,,合資会社,香川県,木田郡三木町,大字井上２０２５番地１,,37,341,7610705,,,,,,,2025-10-30,1,,,,,,0
1261,6010001259728,新規,0,2025-10-30,2025-10-30,株式会社ＳＫＹ,,株式会社,東京都,中央区,銀座５丁目４番９号,,13,102,1040061,,,,,,,2025-10-30,1,,,,,スカイ,0
1262,6010001259835,新規,0,2025-10-30,2025-10-30,株式会社ユニコーングローバルパートナーズ,,株式会社,東京都,中央区,銀座１丁目１２－４Ｎ＆ＥＢＬＤ．７階,,13,102,1040061,,,,,,,2025-10-30,1,,,,,ユニコーングローバルパートナーズ,0
1267,6010003049210,新規,0,2025-10-30,2025-10-30,日光Ｐｌｕｓ２５合同会社６,,合同会社,東京都,千代田区,丸の内１丁目４番１号東京共同会計事務所内,,13,101,1000005,,,,,,,2025-10-30,1,,,,,ニッコウプラストゥエンティファイブロク,0
1268,6010003049219,新規,0,2025-10-30,2025-10-30,日光Ｐｌｕｓ２５合同会社１６,,合同会社,東京都,千代田区,丸の内１丁目４番１号東京共同会計事務所内,,13,101,1000005,,,,,,,2025-10-30,1,,,,,ニッコウプラストゥエンティファイブジュウロク,0
1269,6010003049227,新規,0,2025-10-30,2025-10-30,ＳＲＦアセット５合同会社,,合同会社,東京都,千代田区,丸の内１丁目４番１号東京共同会計事務所内,,13,101,1000005,,,,,,,2025-10-30,1,,,,,エスアールエフアセットファイブ,0
1277,6010401194005,新規,0,2025-10-30,2025-10-30,株式会社マルチロール,,株式会社,東京都,港区,浜松町２丁目２番１５号浜松町ダイヤビル２Ｆ,,13,103,1050013,,,,,,,2025-10-30,1,,,,,マルチロール,0
1278,6010401194153,新規,0,2025-10-30,2025-10-30,株式会社現場共創機構,,株式会社,東京都,港区,赤坂２丁目４番６号赤坂グリーンクロス６Ｆ,,13,103,1070052,,,,,,,2025-10-30,1,,,,,ゲンバキョウソウキコウ,0
1279,6010401194161,新規,0,2025-10-30,2025-10-30,株式会社トライアングル,,株式会社,東京都,港区,赤坂２丁目１７番７２号,,13,103,1070052,,,,,,,2025-10-30,1,,,,,トライアングル,0
1281,6010405024851,新規,0,2025-10-30,2025-10-30,一般社団法人日本パーソナルファッションカラーリスト協会,,その他の設立登記法人,東京都,港区,北青山１丁目３番１号アールキューブ青山３階,,13,103,1070061,,,,,,,2025-10-30,1,,,,,ニホンパーソナルファッションカラーリストキョウカイ,0
1282,6010503008046,新規,0,2025-10-30,2025-10-30,合同会社Ｍｏｙｏ,,合同会社,東京都,台東区,上野１丁目１７番６号広小路ビル８Ｆ－Ｂ,,13,106,1100005,,,,,,,2025-10-30,1,,,,,モヨ,0
1290,6010903010353,新規,0,2025-10-30,2025-10-30,合同会社麒麟のオアシス,,合同会社,東京都,世田谷区,玉川２丁目１９－２－１０４,,13,112,1580094,,,,,,,2025-10-30,1,,,,,キリンノオアシス,0
1299,6011101113766,新規,0,2025-10-30,2025-10-30,日本精准医療株式会社,,株式会社,東京都,新宿区,西新宿７丁目５番５号Ｐｌａｚａ西新宿ＵＣＦ４０６,,13,104,1600023,,,,,,,2025-10-30,1,,,,,ニホンセイジュンイリョウ,0
1301,6011103016604,新規,0,2025-10-30,2025-10-30,合同会社ＮＯＮＡＭＥ,,合同会社,東京都,新宿区,山吹町３３３第一辻ビル８０１号,,13,104,1620801,,,,,,,2025-10-30,1,,,,,ノーネーム,0
1307,6011501032764,新規,0,2025-10-30,2025-10-30,ユフォレア株式会社,,株式会社,東京都,荒川区,西日暮里２丁目４９番５号光工芸社ビル３階,,13,118,1160013,,,,,,,2025-10-30,1,,,,,ユフォレア,0
1309,6011601029132,新規,0,2025-10-30,2025-10-30,株式会社福ろう,,株式会社,東京都,練馬区,田柄４丁目４６番１８号,,13,120,1790073,,,,,,,2025-10-30,1,,,,,フクロウ,0
1322,6013301055210,新規,0,2025-10-30,2025-10-30,株式会社東建アーキテクチャ,,株式会社,東京都,豊島区,東池袋５丁目８番３号アウローラ２０２号室,,13,116,1700013,,,,,,,2025-10-30,1,,,,,トウケンアーキテクチャ,0
1327,6020001165553,新規,0,2025-10-30,2025-10-30,株式会社サイファ・アイ,,株式会社,神奈川県,川崎市宮前区,西野川１丁目３２番１１－４０１号,,14,136,2160044,,,,,,,2025-10-30,1,,,,,サイファアイ,0
1328,6020001165561,新規,0,2025-10-30,2025-10-30,株式会社トライブコード,,株式会社,神奈川県,横浜市中区,桜木町１丁目１０１番地１クロスゲート７階,,14,104,2310062,,,,,,,2025-10-30,1,,,,,トライブコード,0
1340,6030001169446,新規,0,2025-10-30,2025-10-30,株式会社ＳＫフロンティア,,株式会社,埼玉県,さいたま市桜区,西堀２丁目１番３１号,,11,106,3380832,,,,,,,2025-10-30,1,,,,,エスケーフロンティア,0
1350,6040001141214,新規,0,2025-10-30,2025-10-30,株式会社美建,,株式会社,千葉県,千葉市緑区,おゆみ野南３丁目１４番地７,,12,105,2660033,,,,,,,2025-10-30,1,,,,,ビケン,0
1351,6040001141239,新規,0,2025-10-30,2025-10-30,株式会社ＤＥＦＥＮＤＥＲ,,株式会社,千葉県,柏市,豊四季２１７番地４０,,12,217,2770863,,,,,,,2025-10-30,1,,,,,ディフェンダー,0
1354,6040005022914,新規,0,2025-10-30,2025-10-30,医療法人社団交感会,,その他の設立登記法人,千葉県,船橋市,本町６丁目４番２８号竹内ビル６階,,12,204,2730005,,,,,,,2025-10-30,1,,,,,コウカンカイ,0
1356,6050003009706,新規,0,2025-10-30,2025-10-30,合同会社めぐ璃心,,合同会社,茨城県,鹿嶋市,大字中３１２６番地２,,08,222,3112213,,,,,,,2025-10-30,1,,,,,,0
1357,6050003009739,新規,0,2025-10-30,2025-10-30,合同会社ＳＭＩＬＥ,,合同会社,茨城県,那珂郡東海村,舟石川駅西１丁目５番２２号２階,,08,341,3191116,,,,,,,2025-10-30,1,,,,,スマイル,0
1383,6120001281415,新規,0,2025-10-30,2025-10-30,株式会社Ｆｌｏｒｅｏ,,株式会社,大阪府,大阪市東成区,深江南３丁目４番１４号,,27,115,5370002,,,,,,,2025-10-30,1,,,,,フロレオ,0
1384,6120001281596,新規,0,2025-10-30,2025-10-30,株式会社未来ワークス,,株式会社,大阪府,大阪市北区,天神橋１丁目１８－２７天神ビル３０７号室,,27,127,5300041,,,,,,,2025-10-30,1,,,,,ミライワークス,0
1385,6120001281605,新規,0,2025-10-30,2025-10-30,ＹＩＭＵ株式会社,,株式会社,大阪府,大阪市都島区,高倉町１丁目６－１３ベルサイドハイツ４０Ｂ室,,27,102,5340011,,,,,,,2025-10-30,1,,,,,イム,0
1390,6120101072697,新規,0,2025-10-30,2025-10-30,ＡＭＢＩＥＮＴ　ＤＥＳＩＧＮ　ＯＦＦＩＣＥ株式会社,,株式会社,大阪府,和泉市,伯太町１丁目２番６７号（４１２号）,,27,219,5940023,,,,,,,2025-10-30,1,,,,,アンビエントデザインオフィス,0
1391,6120101072714,新規,0,2025-10-30,2025-10-30,株式会社Ａｎｋｌｕ,,株式会社,大阪府,和泉市,はつが野２丁目１０番３－１３０２号,,27,219,5941106,,,,,,,2025-10-30,1,,,,,アンクル,0
1393,6120903005912,新規,0,2025-10-30,2025-10-30,ＶＡＬＩＡＲＫ合同会社,,合同会社,大阪府,豊中市,刀根山６丁目１１－４０エルセレーノ刀根山６０３号室,,27,203,5600045,,,,,,,2025-10-30,1,,,,,ヴァリアーク,0
1394,6120903005920,新規,0,2025-10-30,2025-10-30,Ｃｌｏｖｅｒ　Ｃｌｅａｎ合同会社,,合同会社,大阪府,池田市,石橋４丁目９番３０号,,27,204,5630032,,,,,,,2025-10-30,1,,,,,クローバークリーン,0
1397,6122001039826,新規,0,2025-10-30,2025-10-30,株式会社ファミリアファーマ,,株式会社,大阪府,東大阪市,宝町３番１７号,,27,227,5798025,,,,,,,2025-10-30,1,,,,,ファミリアファーマ,0
1402,6130001080915,新規,0,2025-10-30,2025-10-30,株式会社Ｈｉｌｌｆｉｅｌｄ,,株式会社,京都府,京都市北区,上賀茂岡本町２２番地,,26,101,6038081,,,,,,,2025-10-30,1,,,,,ヒルフィールド,0
1406,6140001140560,新規,0,2025-10-30,2025-10-30,株式会社ｗｏｏｈｏｏ,,株式会社,兵庫県,宝塚市,泉ガ丘１２番３０号,,28,214,6650851,,,,,,,2025-10-30,1,,,,,ウーフー,0
1407,6140001140569,新規,0,2025-10-30,2025-10-30,株式会社ＳＧＲ,,株式会社,兵庫県,尼崎市,七松町１丁目２０番１８号,,28,202,6600052,,,,,,,2025-10-30,1,,,,,エスジーアール,0
1423,6180001169266,新規,0,2025-10-30,2025-10-30,株式会社ピーチベル,,株式会社,愛知県,名古屋市緑区,鹿山１丁目３８番地ローレルコートエスタ鹿山２０１号,,23,114,4580045,,,,,,,2025-10-30,1,,,,,ピーチベル,0
1428,6180003029212,新規,0,2025-10-30,2025-10-30,合同会社Ｗｈｉｔｅ,,合同会社,愛知県,名古屋市中区,錦３丁目２０－７,,23,106,4600003,,,,,,,2025-10-30,1,,,,,ホワイト,0
1429,6180003029303,新規,0,2025-10-30,2025-10-30,合同会社エイチツー,,合同会社,愛知県,名古屋市千種区,若水２丁目３番４号,,23,101,4640071,,,,,,,2025-10-30,1,,,,,エイチツー,0
1433,6180303006786,新規,0,2025-10-30,2025-10-30,スタートＧＴ５５合同会社,,合同会社,愛知県,豊橋市,上伝馬町９８番地朝日プラザ豊橋アーバンスクエア２０７,,23,201,4400074,,,,,,,2025-10-30,1,,,,,,0
1434,6190001032654,新規,0,2025-10-30,2025-10-30,盛越株式会社,,株式会社,三重県,いなべ市,北勢町阿下喜２１２０番地２,,24,214,5110428,,,,,,,2025-10-30,1,,,,,モリコシ,0
1446,6230001021157,新規,0,2025-10-30,2025-10-30,福福株式会社,,株式会社,富山県,南砺市,鍛治１７３番地１,,16,210,9391725,,,,,,,2025-10-30,1,,,,,フクフク,0
1457,6260001040690,新規,0,2025-10-30,2025-10-30,疋田ＲＥ・ＣＲＥＡＴＥ株式会社,,株式会社,岡山県,岡山市中区,門田本町２丁目３番６８号,,33,102,7038274,,,,,,,2025-10-30,1,,,,,ヒキダリクリエイト,0
1469,6290001112041,新規,0,2025-10-30,2025-10-30,株式会社博多美建,,株式会社,福岡県,福岡市博多区,麦野５丁目５番６－１０２号,,40,132,8120882,,,,,,,2025-10-30,1,,,,,ハカタビケン,0
1470,6290003017610,新規,0,2025-10-30,2025-10-30,合同会社Ｐｉｃｏｌｉｚｅ,,合同会社,福岡県,福岡市博多区,美野島１丁目１－１ＭＪＲ博多ザ・レジデンス３０４,,40,132,8120017,,,,,,,2025-10-30,1,,,,,ピコライズ,0
1471,6290003017651,新規,0,2025-10-30,2025-10-30,合同会社ＯＭＭＣ,,合同会社,福岡県,福岡市中央区,薬院３丁目７番３０ー１１０６号デュ・レジア薬院スタンス,,40,133,8100022,,,,,,,2025-10-30,1,,,,,オーエムエムシー,0
1474,6290801031985,新規,0,2025-10-30,2025-10-30,株式会社シンショウ,,株式会社,福岡県,直方市,大字感田１３７２番地,,40,204,8220001,,,,,,,2025-10-30,1,,,,,シンショウ,0
1482,6360001035961,新規,0,2025-10-30,2025-10-30,０９８０株式会社,,株式会社,沖縄県,国頭郡本部町,字備瀬５１１番地,,47,308,9050207,,,,,,,2025-10-30,1,,,,,ゼロキュウハチゼロ,0
1484,6370001053178,新規,0,2025-10-30,2025-10-30,株式会社ＦＵＮ,,株式会社,宮城県,仙台市青葉区,中央２丁目１１番１９号仙南ビル４階－Ａ,,04,101,9800021,,,,,,,2025-10-30,1,,,,,ファン,0
1487,6370003007355,新規,0,2025-10-30,2025-10-30,Ｖｉｒｅｎｄｒａ　ｅｎｔｅｒｐｒｉｓｅｓ合同会社,,合同会社,宮城県,仙台市宮城野区,榴岡２丁目３－２７－４０１,,04,102,9830852,,,,,,,2025-10-30,1,,,,,ヴィレンダラエンタープライセス,0
1503,6430003018271,新規,0,2025-10-30,2025-10-30,Ｂｒｅｔｔ　Ａｄｖｉｓｏｒｙ　Ｇｒｏｕｐ合同会社,,合同会社,北海道,虻田郡倶知安町,南一条西２丁目１０番地２,,01,400,0440031,,,,,,,2025-10-30,1,,,,,ブレットアドバイザリーグループ,0
1507,6490001011198,新規,0,2025-10-30,2025-10-30,Ｇテクノ株式会社,,株式会社,高知県,四万十市,深木１３５０番地１,,39,210,7870159,,,,,,,2025-10-30,1,,,,,ジーテクノ,0
1512,7010001259578,新規,0,2025-10-30,2025-10-30,株式会社ＶＡＬＬＥＹ,,株式会社,東京都,中央区,日本橋蛎殻町１丁目２９番４号日本橋蛎殻町東急ビル５階５０３,,13,102,1030014,,,,,,,2025-10-30,1,,,,,バレー,0
1513,7010001259685,新規,0,2025-10-30,2025-10-30,株式会社原石,,株式会社,東京都,中央区,日本橋室町１丁目１１番１２号日本橋水野ビル７階,,13,102,1030022,,,,,,,2025-10-30,1,,,,,ゲンセキ,0
1514,7010001259702,新規,0,2025-10-30,2025-10-30,株式会社メルヴィライ,,株式会社,東京都,中央区,八丁堀２丁目３０番１６号丸高八丁堀ビル４０３,,13,102,1040032,,,,,,,2025-10-30,1,,,,,メルヴィライ,0
1516,7010001259792,新規,0,2025-10-30,2025-10-30,株式会社Ａｌｐｈａ　Ｅｌｅｃｔｒｏ,,株式会社,東京都,中央区,新川２丁目７番１１－１３０６号,,13,102,1040033,,,,,,,2025-10-30,1,,,,,,0
1520,7010003049218,新規,0,2025-10-30,2025-10-30,日光Ｐｌｕｓ２５合同会社１５,,合同会社,東京都,千代田区,丸の内１丁目４番１号東京共同会計事務所内,,13,101,1000005,,,,,,,2025-10-30,1,,,,,ニッコウプラストゥエンティファイブジュウゴ,0
1521,7010003049226,新規,0,2025-10-30,2025-10-30,ＳＲＦアセット４合同会社,,合同会社,東京都,千代田区,丸の内１丁目４番１号東京共同会計事務所内,,13,101,1000005,,,,,,,2025-10-30,1,,,,,エスアールエフアセットフォー,0
1522,7010003049259,新規,0,2025-10-30,2025-10-30,合同会社ＩＲＭレジデンス２,,合同会社,東京都,千代田区,丸の内１丁目４番１号東京共同会計事務所内,,13,101,1000005,,,,,,,2025-10-30,1,,,,,アイアールエムレジデンスツー,0
1528,7010101016937,新規,0,2025-10-30,2025-10-30,株式会社アルカナ,,株式会社,東京都,八王子市,千人町１丁目１２－１２,,13,201,1930835,,,,,,,2025-10-30,1,,,,,アルカナ,0
1539,7010401193906,新規,0,2025-10-30,2025-10-30,株式会社Ｙａｔｔａｒｕ,,株式会社,東京都,港区,六本木３丁目１６番１２号六本木ＫＳビル５Ｆ,,13,103,1060032,,,,,,,2025-10-30,1,,,,,ヤッタル,0
1540,7010401194219,新規,0,2025-10-30,2025-10-30,株式会社Ｒ‐ファンド９号,,株式会社,東京都,港区,港南２丁目１５番３号,,13,103,1080075,,,,,,,2025-10-30,1,,,,,アールファンドキュウゴウ,0
1544,7010405024850,新規,0,2025-10-30,2025-10-30,一般社団法人マイクロプロジェクトラボ,,その他の設立登記法人,東京都,港区,南青山３丁目１－３６青山丸竹ビル６Ｆ,,13,103,1070062,,,,,,,2025-10-30,1,,,,,マイクロプロジェクトラボ,0
1549,7010901058369,新規,0,2025-10-30,2025-10-30,株式会社Ｒｅｃｏｌｔｅ,,株式会社,東京都,世田谷区,世田谷１丁目３－１８,,13,112,1540017,,,,,,,2025-10-30,1,,,,,レコルト,0
1553,7011001173158,新規,0,2025-10-30,2025-10-30,株式会社１０８,,株式会社,東京都,渋谷区,神南１丁目１１－４ＦＰＧリンクス神南５階,,13,113,1500041,,,,,,,2025-10-30,1,,,,,テンパ,0
1554,7011001173257,新規,0,2025-10-30,2025-10-30,株式会社Ｒプライマル,,株式会社,東京都,渋谷区,広尾５丁目８番１２号広尾ファイブビル６Ｆ,,13,113,1500012,,,,,,,2025-10-30,1,,,,,アールプライマル,0
1555,7011003022759,新規,0,2025-10-30,2025-10-30,Ｂｉｔｗａｎｄ合同会社,,合同会社,東京都,渋谷区,恵比寿西２丁目４－８ウィンド恵比寿ビル８Ｆ,,13,113,1500021,,,,,,,2025-10-30,1,,,,,ビットワンド,0
1558,7011101113807,新規,0,2025-10-30,2025-10-30,株式会社ＳＢＧホールディングス,,株式会社,東京都,新宿区,西新宿６丁目５番１号新宿アイランドタワー２階,,13,104,1600023,,,,,,,2025-10-30,1,,,,,エスビージーホールディングス,0
1563,7011303005752,新規,0,2025-10-30,2025-10-30,合同会社Ｔｈｒｅｅ　Ａｒｒｏｗｓ,,合同会社,東京都,杉並区,成田東２丁目６番２１号,,13,115,1660015,,,,,,,2025-10-30,1,,,,,スリーアローズ,0
1565,7011401027525,新規,0,2025-10-30,2025-10-30,株式会社和音,,株式会社,東京都,板橋区,三園１丁目２５番１３号,,13,119,1750091,,,,,,,2025-10-30,1,,,,,カズネ,0
1569,7011601029131,新規,0,2025-10-30,2025-10-30,惑形株式会社,,株式会社,東京都,練馬区,春日町６丁目１６－１１フォーチュン光ヶ丘２３８号室,,13,120,1790074,,,,,,,2025-10-30,1,,,,,ワクセイ,0
1572,7012703003404,新規,0,2025-10-30,2025-10-30,合同会社Ｆｏｒｇｅ　Ｐｒｏｄｕｃｔ　Ｓｔｕｄｉｏ,,合同会社,東京都,東村山市,美住町２丁目２４―４６,,13,213,1890023,,,,,,,2025-10-30,1,,,,,フォージプロダクトスタジオ,0
1579,7020001165560,新規,0,2025-10-30,2025-10-30,株式会社イケダ,,株式会社,神奈川県,横浜市港北区,富士塚２丁目８番１２号,,14,109,2220012,,,,,,,2025-10-30,1,,,,,イケダ,0
1582,7020003029697,新規,0,2025-10-30,2025-10-30,合同会社ＯＭＮＩＢＵＳ,,合同会社,神奈川県,川崎市幸区,南幸町３丁目１１７番地７,,14,132,2120016,,,,,,,2025-10-30,1,,,,,オムニバス,0
1586,7021003016743,新規,0,2025-10-30,2025-10-30,合同会社モノリス,,合同会社,神奈川県,南足柄市,狩野３１７番地１ドリームハイム奥津１０３,,14,217,2500126,,,,,,,2025-10-30,1,,,,,モノリス,0
1602,7040001141205,新規,0,2025-10-30,2025-10-30,ＣＡＧホールディングス株式会社,,株式会社,千葉県,山武郡横芝光町,宮川１１５６０番地１０,,12,410,2891727,,,,,,,2025-10-30,1,,,,,シーエイジーホールディングス,0
1608,7050001057516,新規,0,2025-10-30,2025-10-30,エコナ株式会社,,株式会社,茨城県,水戸市,けやき台３丁目２８番地の５－３０６,,08,201,3100842,,,,,,,2025-10-30,1,,,,,エコナ,0
1609,7060001038721,新規,0,2025-10-30,2025-10-30,ＰＡＫ日本グループ株式会社,,株式会社,栃木県,栃木市,岩舟町新里１３０３－２番地２６号室,,09,203,3294316,,,,,,,2025-10-30,1,,,,,パクニホングループ,0
1613,7070001043497,新規,0,2025-10-30,2025-10-30,株式会社Ｋｏｍａｃｈｉ　Ｌｉｆｅ,,株式会社,群馬県,伊勢崎市,波志江町１１５２番地,,10,204,3720001,,,,,,,2025-10-30,1,,,,,コマチライフ,0
1627,7120001281513,新規,0,2025-10-30,2025-10-30,ＪＪバイオテクノロジー株式会社,,株式会社,大阪府,大阪市浪速区,日本橋５丁目１２番５号３Ｆ,,27,111,5560005,,,,,,,2025-10-30,1,,,,,ジェイジェイバイオテクノロジー,0
1628,7120001281570,新規,0,2025-10-30,2025-10-30,株式会社ｌｅｇａｃｙ,,株式会社,大阪府,大阪市中央区,高津３丁目１４番１１－２６０８号,,27,128,5420072,,,,,,,2025-10-30,1,,,,,レガシー,0
1629,7120001281587,新規,0,2025-10-30,2025-10-30,ＹＯＫＡＹＯＫＡ株式会社,,株式会社,大阪府,大阪市北区,梅田１丁目１－３－５００－５階１０号,,27,127,5300001,,,,,,,2025-10-30,1,,,,,ヨカヨカ,0
1630,7120001281595,新規,0,2025-10-30,2025-10-30,福家株式会社,,株式会社,大阪府,大阪市淀川区,木川東２丁目１５－１３マキシム西中島１０２,,27,123,5320012,,,,,,,2025-10-30,1,,,,,フクイエ,0
1631,7120001281620,新規,0,2025-10-30,2025-10-30,株式会社ゴルコミ,,株式会社,大阪府,大阪市城東区,古市３丁目６番４号,,27,118,5360001,,,,,,,2025-10-30,1,,,,,ゴルコミ,0
1637,7120101072705,新規,0,2025-10-30,2025-10-30,象音株式会社,,株式会社,大阪府,堺市堺区,竜神橋町２丁３番１－２１４号,,27,141,5900972,,,,,,,2025-10-30,1,,,,,ゾウオン,0
1639,7120103006818,新規,0,2025-10-30,2025-10-30,合同会社Ｒｏｓｓｏ,,合同会社,大阪府,堺市堺区,一条通９番１１号ハイツ一条３０２号,,27,141,5900048,,,,,,,2025-10-30,1,,,,,ロッソ,0
1648,7130003010869,新規,0,2025-10-30,2025-10-30,合同会社ＭＴｃｏｍｐａｎｙ,,合同会社,京都府,福知山市,字前田１５８０－４,,26,201,6200867,,,,,,,2025-10-30,1,,,,,エムテイカンパニー,0
1659,7140003022764,新規,0,2025-10-30,2025-10-30,合同会社清掃堂,,合同会社,兵庫県,姫路市,余部区下余部６６９,,28,201,6711261,,,,,,,2025-10-30,1,,,,,セイソウドウ,0
1660,7140003022797,新規,0,2025-10-30,2025-10-30,クリプトメリアインベストメンツ合同会社,,合同会社,兵庫県,芦屋市,親王塚町１１番１９号,,28,206,6590016,,,,,,,2025-10-30,1,,,,,クリプトメリアインベストメンツ,0
1671,7180001169298,新規,0,2025-10-30,2025-10-30,株式会社Ｐａｌ　Ｐｉｃｎｉｃ,,株式会社,愛知県,名古屋市中区,丸の内１丁目７番１９号プラウドタワー名古屋丸の内ステーションマークス９０４号,,23,106,4600002,,,,,,,2025-10-30,1,,,,,パルピクニック,0
1677,7190002001293,新規,0,2025-10-30,2025-10-30,日の出印刷有限会社,,有限会社,三重県,津市,東丸之内１６番１０号,,24,201,5140028,,,,,,,2025-10-30,1,,,,,ヒノデインサツ,0
1688,7240001065697,新規,0,2025-10-30,2025-10-30,株式会社Ｎａｖｉｌｕｃｋ,,株式会社,広島県,福山市,曙町３丁目８番２１－１号,00141321,34,207,7210952,,,,,,,2025-10-30,1,,,,,ナビラック,0
1690,7240003007458,新規,0,2025-10-30,2025-10-30,合同会社おのまち会計,,合同会社,広島県,尾道市,新浜１丁目１３番２２号ＬＳビル３Ｆ,,34,205,7220014,,,,,,,2025-10-30,1,,,,,オノマチカイケイ,0
1696,7290001111810,新規,0,2025-10-30,2025-10-30,株式会社ＬＯＣＡＬ　ＣＯＲＥ,,株式会社,福岡県,福岡市南区,清水３丁目８番２９－５０４号,,40,134,8150031,,,,,,,2025-10-30,1,,,,,ローカルコア,0
1697,7290001111851,新規,0,2025-10-30,2025-10-30,株式会社ＨｏｍｅＤｅｓｉｇｎ,,株式会社,福岡県,久留米市,東合川新町１０－３４,,40,203,8390808,,,,,,,2025-10-30,1,,,,,ホームデザイン,0
1698,7290001111892,新規,0,2025-10-30,2025-10-30,寺川株式会社,,株式会社,福岡県,福岡市博多区,博多駅前４丁目３３－７ロマネスク博多駅前３１２号室,,40,132,8120011,,,,,,,2025-10-30,1,,,,,テラカワ,0
1702,7290003017592,新規,0,2025-10-30,2025-10-30,ベルテンポ合同会社,,合同会社,福岡県,福岡市博多区,博多駅前２丁目１９番１７号トーカン博多第５ビル３１２号室,,40,132,8120011,,,,,,,2025-10-30,1,,,,,ベルテンポ,0
1706,7300001014400,新規,0,2025-10-30,2025-10-30,ＴＯＣＣＯ株式会社,,株式会社,佐賀県,杵島郡大町町,大字福母３０７１番地２５,,41,423,8492102,,,,,,,2025-10-30,1,,,,,トッコ,0
1708,7330001033703,新規,0,2025-10-30,2025-10-30,株式会社ＢＥＳＭＡＩ,,株式会社,熊本県,熊本市東区,戸島西６丁目１番８号,,43,102,8618043,,,,,,,2025-10-30,1,,,,,ベスマイ,0
1709,7330003011277,新規,0,2025-10-30,2025-10-30,合同会社ｏｒｉｇｉｎａｌ,,合同会社,熊本県,阿蘇市,三久保４７４番地６,,43,214,8692302,,,,,,,2025-10-30,1,,,,,オリジナル,0
1711,7350001019790,新規,0,2025-10-30,2025-10-30,株式会社バイオ液肥研究所,,株式会社,宮崎県,児湯郡新富町,大字新田１３７７７番地１,,45,402,8891406,,,,,,,2025-10-30,1,,,,,バイオエキヒケンキュウジョ,0
1715,7360005007304,新規,0,2025-10-30,2025-10-30,一般社団法人ＮＥＸＵＳ　ＯＫＩＮＡＷＡ,,その他の設立登記法人,沖縄県,沖縄市,宮里４丁目２１番２号,,47,211,9042165,,,,,,,2025-10-30,1,,,,,ネクサスオキナワ,0
1720,7370001053185,新規,0,2025-10-30,2025-10-30,株式会社ウーゴ,,株式会社,宮城県,仙台市宮城野区,銀杏町３４－２２,,04,102,9830047,,,,,,,2025-10-30,1,,,,,ウーゴ,0
1725,7380003006165,新規,0,2025-10-30,2025-10-30,合同会社２４ＡＥ,,合同会社,福島県,会津若松市,一箕町大字八幡字墓料１０７番地１,,07,202,9650003,,,,,,,2025-10-30,1,,,,,ニーヨンエーイー,0
1727,7390001018145,新規,0,2025-10-30,2025-10-30,株式会社山形県食糧,,株式会社,山形県,山形市,流通センター１丁目１２番地の４,,06,201,9900071,,,,,,,2025-10-30,1,,,,,ヤマガタケンショクリョウ,0
1739,7450001014773,新規,0,2025-10-30,2025-10-30,雪澤株式会社,,株式会社,北海道,旭川市,神居一条９丁目２番７号,,01,204,0708011,,,,,,,2025-10-30,1,,,,,ユキザワ,0
1740,7450003002735,新規,0,2025-10-30,2025-10-30,合同会社ＨＰＳ,,合同会社,北海道,旭川市,旭町二条１４丁目２９７番地の１２７,,01,204,0700832,,,,,,,2025-10-30,1,,,,,エイチピーエス,0
1748,7490001011197,新規,0,2025-10-30,2025-10-30,株式会社土佐養鰻,,株式会社,高知県,高岡郡四万十町,仕出原７番地１,,39,412,7860018,,,,,,,2025-10-30,1,,,,,トサヨウマン,0
1760,8010001259817,新規,0,2025-10-30,2025-10-30,株式会社ファン・ベース,,株式会社,東京都,中央区,築地２丁目１２番１１号ル・リアン築地１２階,,13,102,1040045,,,,,,,2025-10-30,1,,,,,ファンベース,0
1761,8010001259825,新規,0,2025-10-30,2025-10-30,株式会社ｌｅｇａｔｏ,,株式会社,東京都,中央区,銀座１丁目１２番４号Ｎ＆ＥＢＬＤ．６Ｆ,,13,102,1040061,,,,,,,2025-10-30,1,,,,,レガート,0
1762,8010001259833,新規,0,2025-10-30,2025-10-30,株式会社アルテミスベンチャーズ,,株式会社,東京都,千代田区,大手町１丁目９番２号,,13,101,1000004,,,,,,,2025-10-30,1,,,,,アルテミスベンチャーズ,0
1763,8010001259841,新規,0,2025-10-30,2025-10-30,株式会社マナアセットマネジメント,,株式会社,東京都,中央区,銀座１丁目２２番１１号銀座大竹ビジデンス２Ｆ,,13,102,1040061,,,,,,,2025-10-30,1,,,,,マナアセットマネジメント,0
1767,8010003049134,新規,0,2025-10-30,2025-10-30,合同会社旧懐舎,,合同会社,東京都,千代田区,神田神保町３丁目１１番６号神保町ビル１０階,,13,101,1010051,,,,,,,2025-10-30,1,,,,,キュウカイシャ,0
1768,8010003049209,新規,0,2025-10-30,2025-10-30,日光Ｐｌｕｓ２５合同会社５,,合同会社,東京都,千代田区,丸の内１丁目４番１号東京共同会計事務所内,,13,101,1000005,,,,,,,2025-10-30,1,,,,,ニッコウプラストゥエンティファイブゴ,0
1769,8010003049217,新規,0,2025-10-30,2025-10-30,日光Ｐｌｕｓ２５合同会社１３,,合同会社,東京都,千代田区,丸の内１丁目４番１号東京共同会計事務所内,,13,101,1000005,,,,,,,2025-10-30,1,,,,,ニッコウプラストゥエンティファイブジュウサン,0
1770,8010003049225,新規,0,2025-10-30,2025-10-30,ＳＲＦアセット３合同会社,,合同会社,東京都,千代田区,丸の内１丁目４番１号東京共同会計事務所内,,13,101,1000005,,,,,,,2025-10-30,1,,,,,エスアールエフアセットスリー,0
1775,8010401194052,新規,0,2025-10-30,2025-10-30,株式会社ＬＵＣＥ　ＶＩＳＩＯＮ,,株式会社,東京都,港区,南青山６丁目１０番９号レグノラフィネ５０１号室,,13,103,1070062,,,,,,,2025-10-30,1,,,,,ルーチェヴィジョン,0
1776,8010401194085,新規,0,2025-10-30,2025-10-30,ＪＧ３３株式会社,,株式会社,東京都,港区,虎ノ門１丁目３番１号,,13,103,1050001,,,,,,,2025-10-30,1,,,,,ジェージーサンジュウサン,0
1777,8010401194192,新規,0,2025-10-30,2025-10-30,株式会社ＮＡＭＯ　ＪＡＰＡＮ,,株式会社,東京都,港区,北青山１丁目３番１号アールキューブ青山３階,,13,103,1070061,,,,,,,2025-10-30,1,,,,,ナモジャパン,0
1778,8010401194234,新規,0,2025-10-30,2025-10-30,株式会社Ｌｉｔｔｅｒａ,,株式会社,東京都,港区,浜松町２丁目２番１５号浜松町ダイヤビル２Ｆ,,13,103,1050013,,,,,,,2025-10-30,1,,,,,リテラ,0
1783,8010403036327,新規,0,2025-10-30,2025-10-30,ドライブワークス合同会社,,合同会社,東京都,港区,北青山１丁目３番３号,,13,103,1070061,,,,,,,2025-10-30,1,,,,,ドライブワークス,0
1784,8010403036459,新規,0,2025-10-30,2025-10-30,合同会社郁衛門商店,,合同会社,東京都,港区,芝２丁目１７番１１－４０２号,,13,103,1050014,,,,,,,2025-10-30,1,,,,,フミエモンショウテン,0
1786,8010405024882,新規,0,2025-10-30,2025-10-30,一般社団法人国際インクコスメトロジー協会,,その他の設立登記法人,東京都,港区,白金６丁目１６番２４号１階,,13,103,1080072,,,,,,,2025-10-30,1,,,,,コクサイインクコスメトロジーキョウカイ,0
1788,8010501054940,新規,0,2025-10-30,2025-10-30,Ｌｅｄｍａｎ　Ｊａｐａｎ株式会社,,株式会社,東京都,台東区,浅草橋１丁目６番１号浅草橋ビル２０２号室,,13,106,1110053,,,,,,,2025-10-30,1,,,,,ライトメンジャパン,0
1789,8010501054949,新規,0,2025-10-30,2025-10-30,株式会社Ｒａｙ　Ｌｉｎｋｓ,,株式会社,東京都,台東区,上野４丁目１番６号,,13,106,1100005,,,,,,,2025-10-30,1,,,,,レイリンクス,0
1790,8010501054957,新規,0,2025-10-30,2025-10-30,グリーンリバーメディカル株式会社,,株式会社,東京都,台東区,駒形１丁目４番１８号,,13,106,1110043,,,,,,,2025-10-30,1,,,,,グリーンリバーメディカル,0
1809,8011003022709,新規,0,2025-10-30,2025-10-30,ＹＳ１合同会社,,合同会社,東京都,渋谷区,恵比寿南３丁目９番８－６０９号プラウド恵比寿,,13,113,1500022,,,,,,,2025-10-30,1,,,,,ワイエスワン,0
1810,8011003022865,新規,0,2025-10-30,2025-10-30,合同会社ＲＫＳｙｓｔｅｍｓ,,合同会社,東京都,渋谷区,道玄坂１丁目１０番８号渋谷道玄坂東急ビル２Ｆ－Ｃ,,13,113,1500043,,,,,,,2025-10-30,1,,,,,アールケーシステムズ,0
1817,8011101113715,新規,0,2025-10-30,2025-10-30,ＬＳＰＰ株式会社,,株式会社,東京都,新宿区,西新宿７丁目１８番１６号トーシンハイム新宿９０３号,,13,104,1600023,,,,,,,2025-10-30,1,,,,,エルエスピーピー,0
1818,8011101113822,新規,0,2025-10-30,2025-10-30,ＶＡＭＩＫＡ株式会社,,株式会社,東京都,新宿区,北新宿４丁目１２番４－５０３号,,13,104,1690074,,,,,,,2025-10-30,1,,,,,ヴァミカ,0
1824,8011601029130,新規,0,2025-10-30,2025-10-30,株式会社可能性アカデミー金沢,,株式会社,東京都,練馬区,中村北４丁目２番６－１１０３号,,13,120,1760023,,,,,,,2025-10-30,1,,,,,カノウセイアカデミーカナザワ,0
1827,8011801046990,新規,0,2025-10-30,2025-10-30,Ｇａｌａｘｙ　ｍｅｄｉａ株式会社,,株式会社,東京都,足立区,花畑６丁目３２番９号,,13,121,1210061,,,,,,,2025-10-30,1,,,,,ギャラクシーメディア,0
1829,8012801024326,新規,0,2025-10-30,2025-10-30,株式会社みらいデザイン社,,株式会社,東京都,日野市,南平７丁目１８番地５４多田ビル２０１号,,13,212,1910041,,,,,,,2025-10-30,1,,,,,ミライデザイン,0
1841,8021001086688,新規,0,2025-10-30,2025-10-30,株式会社湘叶会,,株式会社,神奈川県,茅ヶ崎市,東海岸南３丁目２番４‐３号,,14,207,2530054,,,,,,,2025-10-30,1,,,,,ショウキョウカイ,0
1844,8021003016742,新規,0,2025-10-30,2025-10-30,合同会社フジケン,,合同会社,神奈川県,南足柄市,壗下１０１６－１６－２０１,,14,217,2500103,,,,,,,2025-10-30,1,,,,,フジケン,0
1848,8030001169403,新規,0,2025-10-30,2025-10-30,サンリブ株式会社,,株式会社,埼玉県,川口市,大字小谷場３８番地の７,,11,203,3330857,,,,,,,2025-10-30,1,,,,,サンリブ,0
1849,8030001169428,新規,0,2025-10-30,2025-10-30,株式会社Ｈａｊａ,,株式会社,埼玉県,久喜市,南栗橋１２丁目１４番地２１,,11,232,3491117,,,,,,,2025-10-30,1,,,,,ハジャ,0
1863,8040001141187,新規,0,2025-10-30,2025-10-30,エアフォルクモータース株式会社,,株式会社,千葉県,松戸市,金ケ作３０６－１４１,,12,207,2702251,,,,,,,2025-10-30,1,,,,,エアフォルクモータース,0
1864,8040001141195,新規,0,2025-10-30,2025-10-30,株式会社ＭＤＰ,,株式会社,千葉県,千葉市稲毛区,天台１丁目９番１号サンクレイドル千葉天台４２０号,,12,103,2630016,,,,,,,2025-10-30,1,,,,,エムディーピー,0
1878,8100001039078,新規,0,2025-10-30,2025-10-30,株式会社ハートフェルトケア,,株式会社,長野県,松本市,出川町５番３号,,20,202,3900826,,,,,,,2025-10-30,1,,,,,ハートフェルトケア,0
1892,8120001281438,新規,0,2025-10-30,2025-10-30,上呈株式会社,,株式会社,大阪府,大阪市都島区,都島北通２丁目１０－２１－２０１号,,27,102,5340014,,,,,,,2025-10-30,1,,,,,ジョウテイ,0
1893,8120001281479,新規,0,2025-10-30,2025-10-30,株式会社ＪＯＹ　ａｔ,,株式会社,大阪府,大阪市福島区,海老江４丁目３－６海老江大喜ビル１０３,,27,103,5530001,,,,,,,2025-10-30,1,,,,,ジョイアット,0
1894,8120001281594,新規,0,2025-10-30,2025-10-30,海越株式会社,,株式会社,大阪府,大阪市西成区,萩之茶屋２丁目６番４－５３号室,,27,122,5570004,,,,,,,2025-10-30,1,,,,,カイエツ,0
1895,8120101072704,新規,0,2025-10-30,2025-10-30,株式会社Ｉｎｔｅｒｉｏｒ　Ｅａｓｔ,,株式会社,大阪府,堺市東区,野尻町３７６番地１,,27,143,5998116,,,,,,,2025-10-30,1,,,,,インテリアイースト,0
1899,8122001039816,新規,0,2025-10-30,2025-10-30,楊帆株式会社,,株式会社,大阪府,東大阪市,足代１丁目２１番１２号２Ａ,,27,227,5770841,,,,,,,2025-10-30,1,,,,,ヨウハン,0
1908,8140001140575,新規,0,2025-10-30,2025-10-30,ＪＡＭＩＥ　ＡＵＴＯＳ株式会社,,株式会社,兵庫県,三木市,別所町下石野１２８８番地,,28,215,6730453,,,,,,,2025-10-30,1,,,,,ジャミオート,0
1923,8180001169339,新規,0,2025-10-30,2025-10-30,株式会社ＡＧＯ設備,,株式会社,愛知県,大府市,高丘町３丁目１３６番地,,23,223,4740042,,,,,,,2025-10-30,1,,,,,エージーオーセツビ,0
1924,8180001169347,新規,0,2025-10-30,2025-10-30,株式会社ＭＵＴＵ,,株式会社,愛知県,一宮市,今伊勢町本神戸字山王３番地２,,23,203,4910053,,,,,,,2025-10-30,1,,,,,ムツ,0
1931,8180301040364,新規,0,2025-10-30,2025-10-30,株式会社ｈｏｍｉｅ,,株式会社,愛知県,豊橋市,大岩町字北元屋敷６５番地８サンホーム大惣１階,,23,201,4413145,,,,,,,2025-10-30,1,,,,,ホーミー,0
1936,8190003005251,新規,0,2025-10-30,2025-10-30,陽光サポート合同会社,,合同会社,三重県,津市,河芸町久知野１２９７,,24,201,5100312,,,,,,,2025-10-30,1,,,,,ヨウコウサポート,0
1945,8240001065705,新規,0,2025-10-30,2025-10-30,株式会社重原建興,,株式会社,広島県,安芸郡熊野町,新宮５丁目１５番１３号,,34,307,7314211,,,,,,,2025-10-30,1,,,,,シゲハラケンコウ,0
1955,8290001111883,新規,0,2025-10-30,2025-10-30,株式会社ベルプラス,,株式会社,福岡県,福岡市中央区,天神１丁目１０番２０号天神ビジネスセンター６Ｆ,,40,133,8100001,,,,,,,2025-10-30,1,,,,,ベルプラス,0
1956,8290003017600,新規,0,2025-10-30,2025-10-30,合同会社ａｍｉｔｙ,,合同会社,福岡県,宗像市,日の里７丁目２番地２０,,40,220,8113425,,,,,,,2025-10-30,1,,,,,アミティー,0
1977,8360001035976,新規,0,2025-10-30,2025-10-30,株式会社ＮＥＸＴ,,株式会社,沖縄県,那覇市,字宇栄原６８０番地ダイオマンション１０５,,47,201,9010153,,,,,,,2025-10-30,1,,,,,ネクスト,0
1998,8490001011196,新規,0,2025-10-30,2025-10-30,株式会社まもリハ高知,,株式会社,高知県,高知市,神田８５５番地１６,,39,201,7808040,,,,,,,2025-10-30,1,,,,,マモリハコウチ,0
2013,9010001259626,新規,0,2025-10-30,2025-10-30,恩立株式会社,,株式会社,東京都,千代田区,神田佐久間町１丁目８－４アルテール秋葉原８Ｆ,,13,101,1010025,,,,,,,2025-10-30,1,,,,,オンリツ,0
2014,9010001259832,新規,0,2025-10-30,2025-10-30,株式会社キングテック,,株式会社,東京都,千代田区,鍛冶町２丁目９番７号大貫ビル５階３Ｂ,,13,101,1010044,,,,,,,2025-10-30,1,,,,,キングテック,0
2015,9010001259840,新規,0,2025-10-30,2025-10-30,株式会社Ｄｕａｌ　Ｅｄｇｅ,,株式会社,東京都,中央区,銀座１丁目２２番１１号銀座大竹ビジデンス２Ｆ,,13,102,1040061,,,,,,,2025-10-30,1,,,,,デュアルエッジ,0
2019,9010003048812,新規,0,2025-10-30,2025-10-30,合同会社ミライ,,合同会社,東京都,中央区,銀座１丁目２２－１１,,13,102,1040061,,,,,,,2025-10-30,1,,,,,ミライ,0
2020,9010003049109,新規,0,2025-10-30,2025-10-30,ＫＴライフコンサルティング合同会社,,合同会社,東京都,中央区,晴海５丁目５番３－２０９号,,13,102,1040053,,,,,,,2025-10-30,1,,,,,ケーティーライフコンサルティング,0
2021,9010003049190,新規,0,2025-10-30,2025-10-30,合同会社メディウェスト,,合同会社,東京都,中央区,銀座２丁目１１番１１号,,13,102,1040061,,,,,,,2025-10-30,1,,,,,メディウェスト,0
2022,9010003049208,新規,0,2025-10-30,2025-10-30,日光Ｐｌｕｓ２５合同会社４,,合同会社,東京都,千代田区,丸の内１丁目４番１号東京共同会計事務所内,,13,101,1000005,,,,,,,2025-10-30,1,,,,,ニッコウプラストゥエンティファイブヨン,0
2023,9010003049216,新規,0,2025-10-30,2025-10-30,日光Ｐｌｕｓ２５合同会社１２,,合同会社,東京都,千代田区,丸の内１丁目４番１号東京共同会計事務所内,,13,101,1000005,,,,,,,2025-10-30,1,,,,,ニッコウプラストゥエンティファイブジュウニ,0
2024,9010003049224,新規,0,2025-10-30,2025-10-30,ＳＲＦアセット２合同会社,,合同会社,東京都,千代田区,丸の内１丁目４番１号東京共同会計事務所内,,13,101,1000005,,,,,,,2025-10-30,1,,,,,エスアールエフアセットツー,0
2025,9010003049240,新規,0,2025-10-30,2025-10-30,ＡＩ９合同会社,,合同会社,東京都,中央区,京橋２丁目１２番６号ＡＯＪ税理士法人内,,13,102,1040031,,,,,,,2025-10-30,1,,,,,エーアイナイン,0
2026,9010005040874,新規,0,2025-10-30,2025-10-30,一般社団法人ＩＳＨレジ２,,その他の設立登記法人,東京都,千代田区,丸の内１丁目４番１号東京共同会計事務所内,,13,101,1000005,,,,,,,2025-10-30,1,,,,,アイエスエイチレジツー,0
2030,9010401194084,新規,0,2025-10-30,2025-10-30,ＪＧ３４株式会社,,株式会社,東京都,港区,虎ノ門１丁目３番１号,,13,103,1050001,,,,,,,2025-10-30,1,,,,,ジェージーサンジュウヨン,0
2031,9010401194200,新規,0,2025-10-30,2025-10-30,株式会社Ｌｉｏｒａ,,株式会社,東京都,港区,浜松町２丁目２番１５号浜松ダイヤビル２Ｆ,,13,103,1050013,,,,,,,2025-10-30,1,,,,,リオラ,0
2032,9010401194217,新規,0,2025-10-30,2025-10-30,株式会社ＳＸＥ,,株式会社,東京都,港区,南青山５丁目３番１０－ＢＦ号,,13,103,1070062,,,,,,,2025-10-30,1,,,,,エスエックスイー,0
2033,9010401194233,新規,0,2025-10-30,2025-10-30,Ｊｏｕｒｎａｌｙ株式会社,,株式会社,東京都,港区,浜松町２丁目２番１５号浜松町ダイヤビル２Ｆ,,13,103,1050013,,,,,,,2025-10-30,1,,,,,ジャーナリー,0
2035,9010403036342,新規,0,2025-10-30,2025-10-30,椿合同会社,,合同会社,東京都,港区,南青山３丁目１番３６号青山丸竹ビル６Ｆ,,13,103,1070062,,,,,,,2025-10-30,1,,,,,ツバキ,0
2048,9010901058342,新規,0,2025-10-30,2025-10-30,株式会社ヒノナギ,,株式会社,東京都,世田谷区,祖師谷５丁目３２番３０号,,13,112,1570072,,,,,,,2025-10-30,1,,,,,ヒノナギ,0
2049,9010903010375,新規,0,2025-10-30,2025-10-30,合同会社ラガスショップ,,合同会社,東京都,世田谷区,奥沢１丁目１４番１９号,,13,112,1580083,,,,,,,2025-10-30,1,,,,,ラガスショップ,0
2053,9011001173247,新規,0,2025-10-30,2025-10-30,株式会社ＡＬＴＯＰＩＡ,,株式会社,東京都,目黒区,上目黒１丁目１３番１１号リバーサイド中目黒１０２,,13,110,1530051,,,,,,,2025-10-30,1,,,,,アルトピア,0
2054,9011001173263,新規,0,2025-10-30,2025-10-30,株式会社ＳｏｌｕｎａＸ,,株式会社,東京都,渋谷区,本町３丁目４９番１６号西新宿アイコービル７階,,13,113,1510071,,,,,,,2025-10-30,1,,,,,ソルナ,0
2057,9011003022781,新規,0,2025-10-30,2025-10-30,合同会社以和為貴,,合同会社,東京都,渋谷区,広尾４丁目１番８－４０８号,,13,113,1500012,,,,,,,2025-10-30,1,,,,,ワヲモッテトウトシトナス,0
2061,9011301031014,新規,0,2025-10-30,2025-10-30,株式会社サンライズ,,株式会社,東京都,杉並区,和田３丁目８番２号林コーポ３０２,,13,115,1660012,,,,,,,2025-10-30,1,,,,,サンライズ,0
2062,9011401027523,新規,0,2025-10-30,2025-10-30,株式会社ＮｅｘｔＤｒｉｖｅ,,株式会社,東京都,板橋区,中丸町３２番１０－１０５号ルフォン板橋大山ザ・レジデンス,,13,119,1730026,,,,,,,2025-10-30,1,,,,,ネクストドライブ,0
2063,9011401027531,新規,0,2025-10-30,2025-10-30,億峰株式会社,,株式会社,東京都,板橋区,西台１丁目１番１４号,,13,119,1740045,,,,,,,2025-10-30,1,,,,,オクミネ,0
2065,9011801046981,新規,0,2025-10-30,2025-10-30,株式会社Ｓｏａｒ,,株式会社,東京都,足立区,足立４丁目１５番６号,,13,121,1200015,,,,,,,2025-10-30,1,,,,,ソアー,0
2076,9020001165542,新規,0,2025-10-30,2025-10-30,株式会社エムチコシステム,,株式会社,神奈川県,横浜市青葉区,美しが丘２丁目４８番地１２,,14,117,2250002,,,,,,,2025-10-30,1,,,,,エムチコシステム,0
2078,9021001086670,新規,0,2025-10-30,2025-10-30,堀江リサーチアンドエンジニアリング株式会社,,株式会社,神奈川県,横須賀市,船越町７丁目１２番地湘南田浦プリンスハイツＣ－３０３,,14,201,2370076,,,,,,,2025-10-30,1,,,,,ホリエリサーチアンドエンジニアリング,0
2084,9030001169443,新規,0,2025-10-30,2025-10-30,株式会社Ｃｏ　Ｎｅｘｔ,,株式会社,埼玉県,さいたま市中央区,本町西３丁目４番２２号,,11,105,3380004,,,,,,,2025-10-30,1,,,,,シーオーネクスト,0
2110,9120001280926,新規,0,2025-10-30,2025-10-30,株式会社リネクト,,株式会社,大阪府,大阪市東住吉区,南田辺３丁目１１番１３号,,27,121,5460033,,,,,,,2025-10-30,1,,,,,リネクト,0
2111,9120001281461,新規,0,2025-10-30,2025-10-30,株式会社ヘパティカ,,株式会社,大阪府,大阪市淀川区,西三国３丁目１１番２３号,,27,123,5320006,,,,,,,2025-10-30,1,,,,,ヘパティカ,0
2112,9120001281511,新規,0,2025-10-30,2025-10-30,ＪＳ株式会社,,株式会社,大阪府,大阪市西淀川区,中島１丁目３５番１５６－１２号,,27,113,5550041,,,,,,,2025-10-30,1,,,,,ジェーエス,0
2113,9120001281619,新規,0,2025-10-30,2025-10-30,株式会社雲游フィンテック,,株式会社,大阪府,大阪市中央区,宗右衛門町１－１宗右衛門町ビル４Ｆ,,27,128,5420084,,,,,,,2025-10-30,1,,,,,ウンユウフィンテック,0
2116,9120003031071,新規,0,2025-10-30,2025-10-30,合同会社Ｄａｌｌａｓ,,合同会社,大阪府,大阪市北区,本庄西１丁目１番７シティータワー梅田東５１０,,27,127,5310073,,,,,,,2025-10-30,1,,,,,ダラス,0
2119,9120101072711,新規,0,2025-10-30,2025-10-30,株式会社Ｓｅｃｏｎｄａ,,株式会社,大阪府,岸和田市,西之内町５－３,,27,202,5960044,,,,,,,2025-10-30,1,,,,,セコンダ,0
2120,9120103006824,新規,0,2025-10-30,2025-10-30,合同会社カイエン装飾設計工事,,合同会社,大阪府,泉南市,新家１３１５番地の６１,,27,228,5900503,,,,,,,2025-10-30,1,,,,,カイエンソウショクセッケイコウジ,0
2125,9122001039831,新規,0,2025-10-30,2025-10-30,株式会社ＬＩＮＫＸ,,株式会社,大阪府,東大阪市,箱殿町６番１７号,,27,227,5798038,,,,,,,2025-10-30,1,,,,,リンクス,0
2128,9122003003372,新規,0,2025-10-30,2025-10-30,ＯｐｔｉＮｏｖａ合同会社,,合同会社,大阪府,東大阪市,善根寺町１丁目３－４４,,27,227,5798001,,,,,,,2025-10-30,1,,,,,オプティノヴァ,0
2134,9130001080912,新規,0,2025-10-30,2025-10-30,株式会社ＳＶＡ,,株式会社,京都府,京都市下京区,糸屋町２１９番地つたやビル３階,,26,106,6008432,,,,,,,2025-10-30,1,,,,,エスブイエイ,0
2141,9140001140574,新規,0,2025-10-30,2025-10-30,株式会社Ｌｕｎａ,,株式会社,兵庫県,高砂市,米田町米田新１８６番地の４７,,28,216,6760801,,,,,,,2025-10-30,1,,,,,ルナ,0
2142,9140001140599,新規,0,2025-10-30,2025-10-30,山だコスメ株式会社,,株式会社,兵庫県,神戸市中央区,港島南町１丁目５番２,,28,110,6500047,,,,,,,2025-10-30,1,,,,,ヤマダコスメ,0
2149,9160001027183,新規,0,2025-10-30,2025-10-30,株式会社たつのや,,株式会社,滋賀県,草津市,渋川１丁目８－１３－１０２,,25,206,5250026,,,,,,,2025-10-30,1,,,,,タツノヤ,0
2157,9180001169321,新規,0,2025-10-30,2025-10-30,アイマックス株式会社,,株式会社,愛知県,春日井市,篠木町７丁目１０番地１１,,23,206,4860851,,,,,,,2025-10-30,1,,,,,アイマックス,0
2160,9180003029267,新規,0,2025-10-30,2025-10-30,ＺＥＥＳＨＡＮ　ＡＵＴＯ　ＴＲＡＤＩＮＧ合同会社,,合同会社,愛知県,一宮市,大和町毛受字辻畑３８番地,,23,203,4910932,,,,,,,2025-10-30,1,,,,,ゼシャンアトトレーデイング,0
2163,9190001032643,新規,0,2025-10-30,2025-10-30,株式会社マスコット,,株式会社,三重県,四日市市,八田１丁目１３番３０号,,24,202,5100001,,,,,,,2025-10-30,1,,,,,マスコット,0
2164,9190003005250,新規,0,2025-10-30,2025-10-30,合同会社いちゆめ,,合同会社,三重県,津市,夢が丘２丁目２０番６,,24,201,5140116,,,,,,,2025-10-30,1,,,,,イチユメ,0
2185,9260003005400,新規,0,2025-10-30,2025-10-30,合同会社Ｃａｒｅ　ｓｅｒａ　ｓｅｒａ,,合同会社,岡山県,真庭市,中河内２１２６－３,,33,214,7193124,,,,,,,2025-10-30,1,,,,,ケセラセラ,0
2192,9290003017624,新規,0,2025-10-30,2025-10-30,Ｈａｐｐｙ　ｍｏｊｉ合同会社,,合同会社,福岡県,春日市,昇町４丁目３７番地６,,40,218,8160851,,,,,,,2025-10-30,1,,,,,ハッピーモジ,0
2193,9290005019866,新規,0,2025-10-30,2025-10-30,一般社団法人華新芸術団,,その他の設立登記法人,福岡県,福岡市早良区,百道１丁目１３－２７－３０２,,40,137,8140006,,,,,,,2025-10-30,1,,,,,カシンゲイジュツダン,0
2195,9290801031966,新規,0,2025-10-30,2025-10-30,株式会社新九州ミツシマ,,株式会社,福岡県,北九州市小倉北区,浅野３丁目１番３号,,40,106,8020001,,,,,,,2025-10-30,1,,,,,シンキュウシュウミツシマ,0
2197,9310001019834,新規,0,2025-10-30,2025-10-30,ストロビルスキャピタル株式会社,,株式会社,長崎県,西海市,大島町１８１３番地４２,,42,212,8572427,,,,,,,2025-10-30,1,,,,,ストロビルスキャピタル,0
2205,9360001035975,新規,0,2025-10-30,2025-10-30,株式会社ユタカハウジング,,株式会社,沖縄県,豊見城市,字高安４１４番地４,,47,212,9010242,,,,,,,2025-10-30,1,,,,,ユタカハウジング,0
2224,9460105002325,新規,0,2025-10-30,2025-10-30,一般社団法人ＨＯＡＰ日本オーガニック畜産会合,,その他の設立登記法人,北海道,河東郡音更町,字然別北５線西２５－２,,01,631,0800351,,,,,,,2025-10-30,1,,,,,ホープニホンオーガニックチクサンカイゴウ,0
2226,9490001011195,新規,0,2025-10-30,2025-10-30,株式会社鰹彩,,株式会社,高知県,香美市,土佐山田町東本町２丁目３番２１号,,39,212,7820031,,,,,,,2025-10-30,1,,,,,カッサイ,0
2227,9500001026605,新規,0,2025-10-30,2025-10-30,株式会社泉都,,株式会社,愛媛県,松山市,高岡町４８３番地１,,38,201,7918036,,,,,,,2025-10-30,1,,,,,セント,0
