sequenceNumber,corporateNumber,process,correct,updateDate,changeDate,name,nameImageId,kind,prefectureName,cityName,streetNumber,addressImageId,prefectureCode,cityCode,postCode,addressOutside,addressOutsideImageId,closeDate,closeCause,successorCorporateNumber,changeCause,assignmentDate,latest,enName,enPrefectureName,enCityName,enAddressOutside,furigana,hihyoji
6,1010001166912,登記記録の閉鎖等,0,2025-10-14,2025-09-09,株式会社プロフェッショナルメディア,,株式会社,東京都,港区,新橋４丁目１番１号,,13,103,1050004,,,2025-09-09,合併による解散等,1010001101101,令和７年９月８日東京都港区新橋四丁目１番１号株式会社クリーク・アンド・リバー社（1010001101101）に合併し解散,2015-10-05,1,,,,,プロフェッショナルメディア,0
15,1010003025901,登記記録の閉鎖等,0,2025-10-14,2025-09-25,名古屋インベストメント合同会社,,合同会社,東京都,千代田区,丸の内１丁目１１番１号,,13,101,1000005,,,2025-09-25,清算の結了等,,,2017-08-17,1,,,,,ナゴヤインベストメント,0
19,1010101009624,登記記録の閉鎖等,0,2025-10-14,2025-10-08,株式会社アルフレド,,株式会社,東京都,八王子市,南大沢２丁目３０番地サザンウインズ南大沢１階１０２－ｂ区画,,13,201,1920364,,,2025-10-08,清算の結了等,,,2015-10-05,1,,,,,アルフレド,0
22,1010401091479,登記記録の閉鎖等,0,2025-10-14,2025-10-07,株式会社ＦＩＰＡＳ,,株式会社,東京都,港区,赤坂１丁目１２番３２号,,13,103,1070052,,,2025-10-07,合併による解散等,1120001089458,令和７年１０月１日大阪市中央区久太郎町四丁目１番３号株式会社翻訳センター（1120001089458）に合併し解散,2015-10-05,1,,,,,フィパス,0
43,1010601051068,登記記録の閉鎖等,0,2025-10-14,2025-10-09,コンプルメントコンサルティング株式会社,,株式会社,東京都,江東区,豊洲３丁目４番１－２８０３号,,13,108,1350061,,,2025-10-09,清算の結了等,,,2017-02-07,1,,,,,コンプルメントコンサルティング,0
49,1011001050957,登記記録の閉鎖等,0,2025-10-14,2025-09-09,株式会社ＢＭＬライフサイエンス・ホールディングス,,株式会社,東京都,渋谷区,千駄ヶ谷５丁目２１番３号,,13,113,1510051,,,2025-09-09,合併による解散等,7011001019237,令和７年９月１日東京都渋谷区千駄ケ谷五丁目２１番３号株式会社ビー・エム・エル（7011001019237）に合併し解散,2015-10-05,1,,,,,ビーエムエルライフサイエンスホールディングス,0
52,1011002009399,登記記録の閉鎖等,0,2025-10-14,2025-09-09,日台薬品貿易有限会社,,有限会社,東京都,渋谷区,東１丁目４番８号,,13,113,1500011,,,2025-09-09,清算の結了等,,,2015-10-05,1,,,,,ニッタイヤクヒンボウエキ,0
54,1011005010313,登記記録の閉鎖等,0,2025-10-14,2025-09-11,一般社団法人ハンガリー文庫,,その他の設立登記法人,東京都,渋谷区,渋谷３丁目５番１号渋谷グランドハイツ４０４,,13,113,1500002,,,2025-09-11,清算の結了等,,,2023-12-14,1,,,,,ハンガリーブンコ,0
56,1011101042326,登記記録の閉鎖等,0,2025-10-14,2025-09-08,株式会社ＪＫ工業,,株式会社,東京都,新宿区,北新宿３丁目４番４号プレジール北新宿１０４,,13,104,1690074,,,2025-09-08,清算の結了等,,,2015-10-05,1,,,,,ジェイケイコウギョウ,0
71,1011401017399,登記記録の閉鎖等,0,2025-10-14,2025-10-06,株式会社清友,,株式会社,東京都,板橋区,南常盤台１丁目３９番１０号,,13,119,1740072,,,2025-10-06,清算の結了等,,,2015-10-05,1,,,,,キヨトモ,0
81,1012301009701,登記記録の閉鎖等,0,2025-10-14,2025-10-08,ステップスター株式会社,,株式会社,東京都,八王子市,台町２丁目１２番５５号,,13,201,1930931,,,2025-10-08,清算の結了等,,,2015-10-05,1,,,,,ステップスター,0
82,1012401039400,登記記録の閉鎖等,0,2025-10-14,2025-09-26,株式会社ＲＰＡ　ＪＡＰＡＮ,,株式会社,神奈川県,川崎市多摩区,長沢４丁目２－９グリーンヴァレー松澤５０４,,14,135,2140035,,,2025-09-26,清算の結了等,,,2022-07-11,1,,,,,アールピーエージャパン,0
90,1013301008016,登記記録の閉鎖等,0,2025-10-14,2025-09-29,東京スガキ印刷株式会社,,株式会社,東京都,豊島区,東池袋４丁目３番１２号,,13,116,1700013,,,2025-09-29,清算の結了等,,,2015-10-05,1,,,,,トウキョウスガキインサツ,0
98,1020001152985,登記記録の閉鎖等,0,2025-10-14,2025-09-18,Ｃｌｅａｒ株式会社,,株式会社,神奈川県,横浜市南区,永田東１丁目２５番２０号,,14,105,2320072,,,2025-09-18,清算の結了等,,,2023-08-14,1,,,,,クリアー,0
100,1020002007263,登記記録の閉鎖等,0,2025-10-14,2025-09-26,有限会社豊工業,,有限会社,神奈川県,横浜市都筑区,大熊町２０８番地,,14,118,2240042,,,2025-09-26,清算の結了等,,,2015-10-05,1,,,,,ユタカコウギョウ,0
101,1020002011331,登記記録の閉鎖等,0,2025-10-14,2025-09-25,有限会社エスケーホーム,,有限会社,神奈川県,横浜市戸塚区,戸塚町３１２２番地２８,,14,110,2440003,,,2025-09-25,清算の結了等,,,2015-10-05,1,,,,,エスケーホーム,0
114,1030002044041,登記記録の閉鎖等,0,2025-10-14,2025-10-03,有限会社コーカ堂薬品,,有限会社,埼玉県,草加市,稲荷３丁目１９番１３号,,11,221,3400003,,,2025-10-03,清算の結了等,,,2015-10-05,1,,,,,コーカドウヤクヒン,0
115,1030002112665,登記記録の閉鎖等,0,2025-10-14,2025-10-03,アサミ電気工業有限会社,,有限会社,埼玉県,熊谷市,佐谷田３６５３番地９,,11,202,3600023,,,2025-10-03,清算の結了等,,,2015-10-05,1,,,,,アサミデンキコウギョウ,0
117,1040001051962,登記記録の閉鎖等,0,2025-10-14,2025-09-09,株式会社藤橋建設,,株式会社,千葉県,富津市,長崎２２７番地の１,,12,226,2991611,,,2025-09-09,清算の結了等,,,2015-10-05,1,,,,,フジハシケンセツ,0
132,1080002010014,登記記録の閉鎖等,0,2025-10-14,2025-10-06,有限会社三立工業,,有限会社,静岡県,静岡市清水区,草薙２丁目１７番２６号,,22,103,4240886,,,2025-10-06,清算の結了等,,,2015-10-05,1,,,,,サンリツコウギョウ,0
137,1100002027732,登記記録の閉鎖等,0,2025-10-14,2025-10-06,有限会社飯田技研,,有限会社,長野県,諏訪市,大字豊田２８１番地２,,20,206,3920016,,,2025-10-06,清算の結了等,,,2015-10-05,1,,,,,イイダギケン,0
139,1110001005663,登記記録の閉鎖等,0,2025-10-14,2025-10-08,株式会社山忠,,株式会社,新潟県,新潟市中央区,上所１丁目９番７号,,15,103,9500994,,,2025-10-08,合併による解散等,6290801000040,令和７年１０月１日北九州市小倉北区東港二丁目５番１号株式会社網中（6290801000040）に合併し解散,2015-10-05,1,,,,,ヤマチュウ,0
140,1110002014936,登記記録の閉鎖等,0,2025-10-14,2025-09-30,有限会社カシマ,,有限会社,新潟県,新発田市,荒町５５７番地,,15,206,9592311,,,2025-09-30,清算の結了等,,,2015-10-05,1,,,,,カシマ,0
164,1130001053875,登記記録の閉鎖等,0,2025-10-14,2025-10-01,株式会社エムズレンタ,,株式会社,京都府,京都市右京区,西院寿町４０番地３,,26,108,6150033,,,2025-10-01,合併による解散等,8130001010291,令和７年１０月１日京都市右京区西院寿町４０番地３株式会社マツシマホールディングス（8130001010291）に合併し解散,2015-10-05,1,,,,,エムズレンタ,0
166,1130001059204,登記記録の閉鎖等,0,2025-10-14,2025-10-01,株式会社エムズプロダクトワークス,,株式会社,京都府,京都市右京区,西院寿町４０番地３,,26,108,6150033,,,2025-10-01,合併による解散等,8130001010291,令和７年１０月１日京都市右京区西院寿町４０番地３株式会社マツシマホールディングス（8130001010291）に合併し解散,2017-02-08,1,,,,,エムズプロダクトワークス,0
176,1140002045490,登記記録の閉鎖等,0,2025-10-14,2025-10-02,有限会社ビリーブハート,,有限会社,兵庫県,尼崎市,南武庫之荘４丁目２０番８－４０１号,,28,202,6610033,,,2025-10-02,清算の結了等,,,2015-10-05,1,,,,,ビリーブハート,0
178,1140003015278,登記記録の閉鎖等,0,2025-10-14,2025-09-30,合同会社Ａｎ’ｓ,,合同会社,兵庫県,川西市,久代１丁目２３番２１号,,28,217,6660024,,,2025-09-30,清算の結了等,,,2020-08-12,1,,,,,アンズ,0
181,1150002010205,登記記録の閉鎖等,0,2025-10-14,2025-10-08,有限会社ワイズメディカル,,有限会社,奈良県,香芝市,旭ケ丘５丁目３６番地の１,,29,210,6390266,,,2025-10-08,合併による解散等,1010401159689,令和７年９月１日東京都千代田区神田三崎町二丁目２番１４号ＢＲＩＣＫＧＡＴＥ水道橋２ＦＯｕｒ　Ｃａｒｅ株式会社（1010401159689）に合併し解散,2015-10-05,1,,,,,ワイズメディカル,0
182,1160001017514,登記記録の閉鎖等,0,2025-10-14,2025-10-07,株式会社圭正,,株式会社,滋賀県,湖南市,三雲１４９番地５,,25,211,5203221,,,2025-10-07,清算の結了等,,,2015-10-05,1,,,,,ケイセイ,0
190,1180001053383,登記記録の閉鎖等,0,2025-10-14,2025-10-01,住理工商事株式会社,,株式会社,愛知県,名古屋市中区,丸の内３丁目１７番１３号,,23,106,4600002,,,2025-10-01,合併による解散等,6180001076207,令和７年１０月１日愛知県小牧市東三丁目１番地住友理工株式会社（6180001076207）に合併し解散,2015-10-05,1,,,,,スミリコウショウジ,0
191,1180001093306,登記記録の閉鎖等,0,2025-10-14,2025-09-29,松下タネダ株式会社,,株式会社,愛知県,常滑市,栄町４丁目１０７番地,,23,216,4790836,,,2025-09-29,清算の結了等,,,2015-10-05,1,,,,,マツシタタネダ,0
196,1180001158488,登記記録の閉鎖等,0,2025-10-14,2025-09-29,Ｓｕｎｎｙ　Ｌａｂ株式会社,,株式会社,愛知県,名古屋市中村区,名駅２丁目３８番２号オーキッドビル８階,,23,105,4500002,,,2025-09-29,清算の結了等,,,2023-10-16,1,,,,,サニーラボ,0
200,1180002024508,登記記録の閉鎖等,0,2025-10-14,2025-09-30,有限会社フナハシ,,有限会社,愛知県,名古屋市西区,菊井１丁目３番１４号,,23,104,4510044,,,2025-09-30,清算の結了等,,,2015-10-05,1,,,,,フナハシ,0
201,1180002028319,登記記録の閉鎖等,0,2025-10-14,2025-10-02,有限会社中部設計サービス,,有限会社,愛知県,春日井市,瑞穂通４丁目２６番地４,,23,206,4860845,,,2025-10-02,清算の結了等,,,2015-10-05,1,,,,,チュウブセッケイサービス,0
210,1200003001057,登記記録の閉鎖等,0,2025-10-14,2025-10-08,合資会社土田家具センター,,合資会社,岐阜県,山県市,高富１４８０番地,,21,215,5012105,,,2025-10-08,清算の結了等,,,2015-10-05,1,,,,,ツチダカグセンター,0
213,1200005005650,登記記録の閉鎖等,0,2025-10-14,2025-09-09,天理教駒野分教会,,その他の設立登記法人,岐阜県,海津市,南濃町駒野４２６番地の１,,21,221,5030411,,,2025-09-09,合併による解散等,4200005005648,令和７年９月９日岐阜県海津市南濃町庭田７４９番地天理教海津分教会（4200005005648）に合併し解散,2015-10-05,1,,,,,,0
215,1210001009258,登記記録の閉鎖等,0,2025-10-14,2025-10-06,株式会社ＧＡＩＡ,,株式会社,福井県,福井市,高木中央１丁目４０５番地,,18,201,9100804,,,2025-10-06,合併による解散等,3210002004000,令和７年１０月１日福井市高木中央一丁目４０６番地株式会社水元工務店（3210002004000）に合併し解散,2015-10-05,1,,,,,ガイア,0
216,1220001024537,登記記録の閉鎖等,0,2025-10-14,2025-10-07,株式会社みやびの宿加賀百万石,,株式会社,石川県,加賀市,山代温泉壱壱の２番地１,,17,206,9220242,,,2025-10-07,合併による解散等,1120001013418,令和７年１０月１日大阪市北区梅田一丁目１番３号大阪駅前第３ビル２４階ビッグ総合開発株式会社（1120001013418）に合併し解散,2021-11-16,1,,,,,ミヤビノヤドカガヒャクマンゴク,0
221,1240001050903,登記記録の閉鎖等,0,2025-10-14,2025-10-01,株式会社エムプロ,,株式会社,広島県,三原市,城町１丁目１２番５号,,34,204,7230014,,,2025-10-01,合併による解散等,5240001039843,令和７年１０月１日広島県三原市城町一丁目１２番５号株式会社エムセック（5240001039843）に合併し解散,2017-04-12,1,,,,,エムプロ,0
224,1270002005267,登記記録の閉鎖等,0,2025-10-14,2025-10-10,有限会社アクア,,有限会社,鳥取県,米子市,大篠津町７７９番地４,,31,202,6830101,,,2025-10-10,清算の結了等,,,2015-10-05,1,,,,,アクア,0
233,1310002011541,登記記録の閉鎖等,0,2025-10-14,2025-10-10,有限会社ボズ,,有限会社,長崎県,佐世保市,矢峰町１２８番地１,,42,202,8570133,,,2025-10-10,清算の結了等,,,2015-10-05,1,,,,,ボズ,0
239,1350002008633,登記記録の閉鎖等,0,2025-10-14,2025-10-06,有限会社オアシスクリエイト,,有限会社,宮崎県,宮崎市,学園木花台北１丁目６番地１４,,45,201,8892152,,,2025-10-06,清算の結了等,,,2015-10-05,1,,,,,オアシスクリエイト,0
242,1370002007732,登記記録の閉鎖等,0,2025-10-14,2025-09-25,有限会社写真・ミナカワ,,有限会社,宮城県,仙台市宮城野区,宮城野１丁目７番５号,,04,102,9830045,,,2025-09-25,清算の結了等,,,2015-10-05,1,,,,,シャシンミナカワ,0
250,1420002010458,登記記録の閉鎖等,0,2025-10-14,2025-09-29,有限会社ＦＡヤマウチ,,有限会社,青森県,八戸市,大字河原木字久保２０番地１６,,02,203,0391161,,,2025-09-29,清算の結了等,,,2015-10-05,1,,,,,エフエーヤマウチ,0
251,1420002014145,登記記録の閉鎖等,0,2025-10-14,2025-09-30,有限会社福田屋商店,,有限会社,青森県,弘前市,大字松森町１４８番地,,02,202,0368184,,,2025-09-30,清算の結了等,,,2015-10-05,1,,,,,フクダヤショウテン,0
259,1450002012971,登記記録の閉鎖等,0,2025-10-14,2025-10-09,有限会社スーパーいわさ,,有限会社,北海道,紋別郡滝上町,字滝ノ上市街地二条通２丁目１２番地,,01,560,0995600,,,2025-10-09,清算の結了等,,,2015-10-05,1,,,,,,0
260,1460002004761,登記記録の閉鎖等,0,2025-10-14,2025-10-08,有限会社オムニフォレスト,,有限会社,北海道,川上郡標茶町,字栄１番地３,,01,664,0882337,,,2025-10-08,清算の結了等,,,2015-10-05,1,,,,,オムニフォレスト,0
264,1480005001374,登記記録の閉鎖等,0,2025-10-14,2025-09-09,天理教芦名分教会,00006172,その他の設立登記法人,徳島県,徳島市,鮎喰町１丁目２２番地の４,,36,201,7700046,,,2025-09-09,合併による解散等,1480005001234,令和７年９月９日徳島県名西郡石井町高川原字高川原２２７４番地天理教明高分教会（1480005001234）に合併し解散,2015-10-05,1,,,,,,0
270,2010001115323,登記記録の閉鎖等,0,2025-10-14,2025-09-22,株式会社アルデバラン,,株式会社,東京都,中央区,日本橋本町４丁目１番１３号１４０３,,13,102,1030023,,,2025-09-22,清算の結了等,,,2015-10-05,1,,,,,アルデバラン,0
273,2010001152176,登記記録の閉鎖等,0,2025-10-14,2025-09-22,イノバゼスト株式会社,,株式会社,東京都,千代田区,神田小川町１丁目６番地１,,13,101,1010052,,,2025-09-22,清算の結了等,,,2015-10-05,1,,,,,イノバゼスト,0
279,2010001193303,登記記録の閉鎖等,0,2025-10-14,2025-09-09,株式会社ジェンビッド・テクノロジーズ・ジャパン,,株式会社,東京都,渋谷区,千駄ヶ谷５丁目２７－３,,13,113,1510051,,,2025-09-09,清算の結了等,,,2018-07-13,1,,,,,ジェンビッドテクノロジーズジャパン,0
289,2010002042070,登記記録の閉鎖等,0,2025-10-14,2025-09-22,有限会社タナカグリーンプランツ,,有限会社,東京都,中央区,月島４丁目６番２号,,13,102,1040052,,,2025-09-22,清算の結了等,,,2015-10-05,1,,,,,タナカグリーンプランツ,0
308,2010702012125,登記記録の閉鎖等,0,2025-10-14,2025-09-25,有限会社共立技研,,有限会社,神奈川県,川崎市宮前区,有馬８丁目２５番１２－１０４号,,14,136,2160003,,,2025-09-25,清算の結了等,,,2015-10-05,1,,,,,キョウリツギケン,0
317,2011001101610,登記記録の閉鎖等,0,2025-10-14,2025-10-07,株式会社エムズアップ,,株式会社,東京都,港区,南青山２丁目２番１５号ウィン青山９４２,,13,103,1070062,,,2025-10-07,合併による解散等,2011101026550,令和７年８月３１日東京都新宿区愛住町２３番２ベルックス新宿ビルＩＩ株式会社ルームズ（2011101026550）に合併し解散,2015-10-05,1,,,,,エムズアップ,0
341,2011401001591,登記記録の閉鎖等,0,2025-10-14,2025-10-01,株式会社協栄商会,,株式会社,東京都,板橋区,志村１丁目４番１５号,,13,119,1740056,,,2025-10-01,清算の結了等,,,2015-10-05,1,,,,,キョウエイショウカイ,0
346,2011702017304,登記記録の閉鎖等,0,2025-10-14,2025-09-30,有限会社エースアセット,,有限会社,東京都,稲城市,若葉台３丁目１番地の１若葉台ワルツの杜Ｂ棟１０２０号室,,13,225,2060824,,,2025-09-30,清算の結了等,,,2015-10-05,1,,,,,エースアセット,0
353,2012402019020,登記記録の閉鎖等,0,2025-10-14,2025-10-07,有限会社ジャダ,,有限会社,東京都,三鷹市,井の頭４丁目１２番２号,,13,204,1810001,,,2025-10-07,清算の結了等,,,2015-10-05,1,,,,,ジャダ,0
361,2020001033458,登記記録の閉鎖等,0,2025-10-14,2025-09-29,株式会社エス・イー・ワークス,,株式会社,神奈川県,横浜市都筑区,池辺町４０２８番地,,14,118,2240053,,,2025-09-29,清算の結了等,,,2015-10-05,1,,,,,エスイーワークス,0
365,2020001140345,登記記録の閉鎖等,0,2025-10-14,2025-09-26,株式会社トリプルワン,,株式会社,神奈川県,横浜市戸塚区,下倉田町１５９４番地１,,14,110,2440815,,,2025-09-26,清算の結了等,,,2021-03-11,1,,,,,トリプルワン,0
366,2020002037301,登記記録の閉鎖等,0,2025-10-14,2025-09-22,有限会社江ケ崎電機,,有限会社,神奈川県,横浜市鶴見区,江ケ崎町１２番１３号,,14,101,2300002,,,2025-09-22,清算の結了等,,,2015-10-05,1,,,,,エガサキデンキ,0
372,2021001048784,登記記録の閉鎖等,0,2025-10-14,2025-10-09,株式会社ＲＳケーユー,,株式会社,神奈川県,相模原市南区,相模大野１丁目３５番２号,,14,153,2520303,,,2025-10-09,合併による解散等,9012301000743,令和７年１０月１日東京都町田市鶴間八丁目１７番１号株式会社ケーユーホールディングス（9012301000743）に合併し解散,2015-10-05,1,,,,,アールエスケーユー,0
386,2030002082767,登記記録の閉鎖等,0,2025-10-14,2025-10-03,有限会社高杉防水工業,,有限会社,埼玉県,鴻巣市,八幡田７９５番地,,11,217,3650073,,,2025-10-03,清算の結了等,,,2015-10-05,1,,,,,タカスギボウスイコウギョウ,0
397,2040002004365,登記記録の閉鎖等,0,2025-10-14,2025-09-11,有限会社コバ企画,,有限会社,千葉県,千葉市花見川区,横戸町５番地の９,,12,102,2620001,,,2025-09-11,清算の結了等,,,2015-10-05,1,,,,,コバキカク,0
398,2040002066018,登記記録の閉鎖等,0,2025-10-14,2025-09-09,有限会社岩堀建材,,有限会社,千葉県,木更津市,中里１丁目９番１０号,,12,206,2920064,,,2025-09-09,清算の結了等,,,2015-10-05,1,,,,,イワホリケンザイ,0
427,2110001022187,登記記録の閉鎖等,0,2025-10-14,2025-10-01,株式会社越後天風,,株式会社,新潟県,長岡市,今朝白２丁目１番１４号,,15,202,9400033,,,2025-10-01,合併による解散等,6110001023891,令和７年１０月１日新潟県長岡市南陽二丁目９４９番地１０浅草屋産業株式会社（6110001023891）に合併し解散,2015-10-05,1,,,,,エチゴテンプウ,0
430,2110002020628,登記記録の閉鎖等,0,2025-10-14,2025-10-02,有限会社秀峰,,有限会社,新潟県,柏崎市,大字宮之窪３２９６番地,,15,205,9451117,,,2025-10-02,清算の結了等,,,2015-10-05,1,,,,,シュウホウ,0
459,2120902013408,登記記録の閉鎖等,0,2025-10-14,2025-09-30,有限会社オフィス・カワバタ,,有限会社,大阪府,高槻市,塚原４丁目４６番１－７０６号,,27,207,5691046,,,2025-09-30,清算の結了等,,,2015-10-05,1,,,,,オフィスカワバタ,0
468,2140001027027,登記記録の閉鎖等,0,2025-10-14,2025-10-01,Ｙｕｉ株式会社,,株式会社,兵庫県,神戸市長田区,大道通２丁目１７番１号,,28,106,6530833,,,2025-10-01,合併による解散等,1140001094877,令和７年１０月１日神戸市長田区大橋町九丁目５番４号株式会社ミヤビシューズ（1140001094877）に合併し解散,2015-10-05,1,,,,,ユイ,0
473,2140001112679,登記記録の閉鎖等,0,2025-10-14,2025-10-01,株式会社四国ファーマシー,,株式会社,兵庫県,尼崎市,御園町２４番地尼崎第一ビル４０２号,,28,202,6600861,,,2025-10-01,合併による解散等,6140001114820,令和７年１０月１日兵庫県尼崎市御園町２４番地尼崎第一ビル４０２号クリエイトシェアードサービス株式会社（6140001114820）に合併し解散,2019-02-06,1,,,,,シコクファーマシー,0
478,2140002004561,登記記録の閉鎖等,0,2025-10-14,2025-09-01,株式会社サンショク,,株式会社,兵庫県,神戸市西区,平野町中津字北川５８９番地の１０,,28,111,6512257,,,2025-09-01,合併による解散等,4140001139893,令和７年９月１日岡山県津山市河辺１１０２番地の１有限会社三協食鳥（3260002028416）、岡山県津山市河辺１１０２番地の１株式会社ナチュラルノーサン（6260001020081）、岡山市南区山田１００１番地３株式会社せとうち三協食鳥（4260001037722）、兵庫県姫路市網干区興浜２０９３番地の１３３株式会社プーレまつもと（6140002050544）及び京都市南区上鳥羽南島田町７２番地株式会社京都三協食鳥（8130001057151）と合併して神戸市西区平野町中津字北川５８９番地の１０株式会社三協食鳥（4140001139893）を設立し解散,2015-10-05,1,,,,,サンショク,0
479,2140002049375,登記記録の閉鎖等,0,2025-10-14,2025-10-03,有限会社大二商会,,有限会社,兵庫県,姫路市,書写１９１番地３,,28,201,6712201,,,2025-10-03,清算の結了等,,,2015-10-05,1,,,,,ダイニショウカイ,0
487,2180001054091,登記記録の閉鎖等,0,2025-10-14,2025-09-29,セキスイオアシス株式会社,,株式会社,愛知県,名古屋市瑞穂区,豆田町３丁目１１－２,,23,108,4670864,,,2025-09-29,清算の結了等,,,2015-10-05,1,,,,,セキスイオアシス,0
488,2180001061583,登記記録の閉鎖等,0,2025-10-14,2025-09-26,株式会社ＭＡＮＳＥＩ,,株式会社,愛知県,名古屋市千種区,今池１丁目５番６号,,23,101,4640850,,,2025-09-26,清算の結了等,,,2015-10-05,1,,,,,マンセイ,0
499,2190002000630,登記記録の閉鎖等,0,2025-10-14,2025-10-07,有限会社三協ブレース,,有限会社,三重県,津市,高茶屋小森上野町１３３１番地の２,,24,201,5140816,,,2025-10-07,清算の結了等,,,2015-10-05,1,,,,,,0
506,2220002016391,登記記録の閉鎖等,0,2025-10-14,2025-10-06,有限会社緑プランニング,,有限会社,石川県,河北郡内灘町,字千鳥台３丁目１５３番地,,17,365,9200277,,,2025-10-06,清算の結了等,,,2015-10-05,1,,,,,ミドリプランニング,0
511,2230001016004,登記記録の閉鎖等,0,2025-10-14,2025-10-01,株式会社ＫＮＢ・Ｆ,,株式会社,富山県,富山市,牛島町１０番１８号,,16,201,9300858,,,2025-10-01,合併による解散等,3230001000758,令和７年１０月１日富山市牛島町１０番１８号北日本放送株式会社（3230001000758）に合併し解散,2015-10-05,1,,,,,ケイエヌビーエフ,0
514,2240001022653,登記記録の閉鎖等,0,2025-10-14,2025-10-01,紅忠サミットコイルセンター株式会社,,株式会社,広島県,東広島市,西条吉行東２丁目１番１１号,,34,212,7390008,,,2025-10-01,合併による解散等,2240001036224,令和７年１０月１日広島県安芸郡坂町植田一丁目５番２７号マツダスチール株式会社（2240001036224）に合併し解散,2015-10-05,1,,,,,ベニチュウサミットコイルセンター,0
530,2330005000844,登記記録の閉鎖等,0,2025-10-14,2025-10-01,株式会社東部ショッピングセンター,,株式会社,熊本県,熊本市東区,桜木６丁目６番１号,,43,102,8612101,,,2025-10-01,合併による解散等,6330001004102,令和７年１０月１日熊本市南区流通団地一丁目１０番地１株式会社フタバ（6330001004102）に合併し解散,2015-10-05,1,,,,,トウブショッピングセンター,0
560,2490001001863,登記記録の閉鎖等,0,2025-10-14,2025-10-09,株式会社ハルノトーヨー,,株式会社,高知県,高知市,春野町弘岡上１８９０番地７,,39,201,7810301,,,2025-10-09,清算の結了等,,,2015-10-05,1,,,,,ハルノトーヨー,0
601,3010403015277,登記記録の閉鎖等,0,2025-10-14,2025-09-10,北斗ホールディングス合同会社,,合同会社,東京都,港区,西新橋１丁目１番１号ＥＰコンサルティングサービス内,,13,103,1050003,,,2025-09-10,清算の結了等,,,2016-08-26,1,,,,,ホクトホールディングス,0
607,3010405022065,登記記録の閉鎖等,0,2025-10-14,2025-09-10,南天一般社団法人,,その他の設立登記法人,東京都,港区,西新橋１丁目１番１号ＥＰコンサルティングサービス内,,13,103,1050003,,,2025-09-10,清算の結了等,,,2023-04-18,1,,,,,ナンテン,0
631,3011101016682,登記記録の閉鎖等,0,2025-10-14,2025-10-01,日本バイブレーシヨンシステム株式会社,,株式会社,神奈川県,相模原市南区,上鶴間本町４丁目５２番１４号トープロ表面処理研究所２階,,14,153,2520318,,,2025-10-01,合併による解散等,7011001016416,令和７年１０月１日神奈川県相模原市緑区若柳５４５番地１東京電業株式会社（7011001016416）に合併し解散,2015-10-05,1,,,,,ニホンバイブレーションシステム,0
641,3011402017280,登記記録の閉鎖等,0,2025-10-14,2025-10-06,有限会社ミヤビフーズ,,有限会社,東京都,板橋区,高島平１丁目８２番１－５０４号,,13,119,1750082,,,2025-10-06,清算の結了等,,,2015-10-05,1,,,,,ミヤビフーズ,0
647,3011601020192,登記記録の閉鎖等,0,2025-10-14,2025-09-30,株式会社猪瀬管工,,株式会社,東京都,練馬区,大泉学園町６丁目９番８号アーデンテラス２０１,,13,120,1780061,,,2025-09-30,清算の結了等,,,2015-10-05,1,,,,,イノセカンコウ,0
648,3011602008939,登記記録の閉鎖等,0,2025-10-14,2025-09-30,有限会社ホーベン,,有限会社,東京都,練馬区,東大泉２丁目３７番３号,,13,120,1780063,,,2025-09-30,清算の結了等,,,2015-10-05,1,,,,,ホーベン,0
665,3020001033151,登記記録の閉鎖等,0,2025-10-14,2025-09-29,株式会社アイ・プロダクツ・アンド・サプライズ,,株式会社,神奈川県,横浜市南区,永楽町１丁目６番地,,14,105,2320031,,,2025-09-29,清算の結了等,,,2015-10-05,1,,,,,アイプロダクツアンドサプライズ,0
675,3020002081777,登記記録の閉鎖等,0,2025-10-14,2025-09-29,有限会社室谷工業,,有限会社,神奈川県,川崎市幸区,南加瀬４丁目１３番２５号,,14,132,2120055,,,2025-09-29,清算の結了等,,,2015-10-05,1,,,,,ムロヤコウギョウ,0
680,3021002033487,登記記録の閉鎖等,0,2025-10-14,2025-09-25,有限会社八ヶ岳住建,,有限会社,神奈川県,厚木市,上依知１４１２番地の８,,14,212,2430801,,,2025-09-25,清算の結了等,,,2015-10-05,1,,,,,ヤツガタケジュウケン,0
693,3030005021564,登記記録の閉鎖等,0,2025-10-14,2025-10-01,一般社団法人ＡＩＡＩ２,,その他の設立登記法人,埼玉県,羽生市,大字中岩瀬５５９番地,,11,216,3480046,,,2025-10-01,清算の結了等,,,2024-02-26,1,,,,,アイアイツー,0
707,3060001016433,登記記録の閉鎖等,0,2025-10-14,2025-10-03,株式会社立岡海苔店,,株式会社,栃木県,栃木市,城内町２丁目３０番２号,,09,203,3280033,,,2025-10-03,清算の結了等,,,2015-10-05,1,,,,,タチオカノリテン,0
729,3100001023945,登記記録の閉鎖等,0,2025-10-14,2025-10-08,しなの液酸株式会社,,株式会社,長野県,松本市,梓川倭４０００番地１,,20,202,3901701,,,2025-10-08,合併による解散等,6120001236559,令和７年１０月１日大阪市中央区南船場二丁目１２番８号エア・ウォーター・ガスプロダクツ株式会社（6120001236559）に合併し解散,2015-10-05,1,,,,,シナノエキサン,0
731,3110001020215,登記記録の閉鎖等,0,2025-10-14,2025-10-01,株式会社石曽根工務店,,株式会社,新潟県,妙高市,工団町５番１号,,15,217,9440020,,,2025-10-01,合併による解散等,6110001019072,令和７年１０月１日新潟県上越市大字土橋１０１２番地株式会社上越商会（6110001019072）に合併し解散,2015-10-05,1,,,,,イシゾネコウムテン,0
732,3110001022871,登記記録の閉鎖等,0,2025-10-14,2025-10-01,株式会社長陵社,,株式会社,新潟県,長岡市,宮原２丁目１３番２３号,,15,202,9400083,,,2025-10-01,合併による解散等,1110001004921,令和７年１０月１日新潟市中央区本町通五番町２２４番地１株式会社富有社（1110001004921）に合併し解散,2015-10-05,1,,,,,チョウリョウシャ,0
733,3110001032672,登記記録の閉鎖等,0,2025-10-14,2025-10-02,株式会社アングルライフ,,株式会社,新潟県,村上市,松原町１丁目１０番３号,,15,212,9580032,,,2025-10-02,清算の結了等,,,2017-08-30,1,,,,,アングルライフ,0
734,3110001036129,登記記録の閉鎖等,0,2025-10-14,2025-10-02,株式会社モンファイン,,株式会社,新潟県,長岡市,西津町３８０６番地１,,15,202,9402126,,,2025-10-02,清算の結了等,,,2021-10-22,1,,,,,モンファイン,0
757,3120002076016,登記記録の閉鎖等,0,2025-10-14,2025-10-01,有限会社立石通建,,有限会社,大阪府,枚方市,山之上東町８番３０号,,27,210,5730041,,,2025-10-01,清算の結了等,,,2015-10-05,1,,,,,タテイシツウケン,0
765,3120901027746,登記記録の閉鎖等,0,2025-10-14,2025-09-29,株式会社テックヨシカワ,,株式会社,大阪府,豊中市,服部寿町５丁目５４番地,,27,203,5610857,,,2025-09-29,清算の結了等,,,2015-10-05,1,,,,,テックヨシカワ,0
770,3130001030591,登記記録の閉鎖等,0,2025-10-14,2025-09-30,株式会社フューチャー・ワイヤレス,,株式会社,大阪府,大阪市中央区,安土町３丁目５番６号ナカヒロビル６階,,27,128,5410052,,,2025-09-30,清算の結了等,,,2015-10-05,1,,,,,フューチャーワイヤレス,0
771,3130001059664,登記記録の閉鎖等,0,2025-10-14,2025-10-06,Ｓｍａｒｔ　Ｄｉｇｉｔａｌ　Ｊａｐａｎ株式会社,,株式会社,京都府,京都市南区,吉祥院仁木ノ森町４５番地,,26,107,6018354,,,2025-10-06,清算の結了等,,,2017-04-28,1,,,,,スマートデジタルジャパン,0
775,3140001033833,登記記録の閉鎖等,0,2025-10-14,2025-10-09,株式会社ピーユー企画,,株式会社,兵庫県,芦屋市,六麓荘町２５番１１号,,28,206,6590011,,,2025-10-09,合併による解散等,2120001125278,令和７年１０月１日大阪市西区江戸堀二丁目２番２３号日和不動産株式会社（2120001125278）に合併し解散,2015-10-05,1,,,,,ピーユーキカク,0
776,3140001056446,登記記録の閉鎖等,0,2025-10-14,2025-10-01,但東開発株式会社,,株式会社,兵庫県,豊岡市,但東町出合市場９番地の１８,,28,209,6680313,,,2025-10-01,合併による解散等,8140001056400,令和７年１０月１日兵庫県豊岡市出石町鉄砲２７番地の１カワケン工業株式会社（8140001056400）に合併し解散,2015-10-05,1,,,,,タントウカイハツ,0
790,3140003014303,登記記録の閉鎖等,0,2025-10-14,2025-10-01,合同会社Ｎ社買収ＳＰＣ,,合同会社,兵庫県,尼崎市,御園町２４番地尼崎第一ビル４０２号,,28,202,6600861,,,2025-10-01,合併による解散等,6140001114820,令和７年１０月１日兵庫県尼崎市御園町２４番地尼崎第一ビル４０２号クリエイトシェアードサービス株式会社（6140001114820）に合併し解散,2019-09-19,1,,,,,エヌシャバイシュウエスピーシー,0
798,3180001044190,登記記録の閉鎖等,0,2025-10-14,2025-09-30,松下電気保安株式会社,,株式会社,愛知県,名古屋市千種区,鹿子町５丁目４４番地,,23,101,4640033,,,2025-09-30,清算の結了等,,,2015-10-05,1,,,,,マツシタデンキホアン,0
799,3180001061161,登記記録の閉鎖等,0,2025-10-14,2025-09-30,株式会社ふー,,株式会社,愛知県,名古屋市千種区,松竹町１丁目４０番地,,23,101,4640823,,,2025-09-30,清算の結了等,,,2015-10-05,1,,,,,フー,0
805,3180002017939,登記記録の閉鎖等,0,2025-10-14,2025-09-29,有限会社コーポ澄池,,有限会社,愛知県,名古屋市昭和区,滝川町２６番地の１杁中スカイタウンＢ棟４０２号,,23,107,4660826,,,2025-09-29,清算の結了等,,,2015-10-05,1,,,,,コーポスミイケ,0
811,3190002008061,登記記録の閉鎖等,0,2025-10-14,2025-09-01,有限会社ティグクラフトジャパン,,有限会社,大阪府,貝塚市,東山２丁目１１番７号,,27,208,5970046,,,2025-09-01,合併による解散等,2120101038529,令和７年９月１日大阪府貝塚市東山二丁目１１番７号株式会社ヨネタニ（2120101038529）に合併して解散,2015-10-05,1,,,,,ティグクラフトジャパン,0
818,3210002011797,登記記録の閉鎖等,0,2025-10-14,2025-10-06,有限会社塚町第一商業開発,,有限会社,福井県,越前市,塚町２７字３番１,,18,209,9150092,,,2025-10-06,清算の結了等,,,2015-10-05,1,,,,,ツカチョウダイイチショウギョウカイハツ,0
828,3240001027619,登記記録の閉鎖等,0,2025-10-14,2025-10-06,株式会社三樹家,,株式会社,広島県,呉市,広大広１丁目６番５号,,34,202,7370111,,,2025-10-06,清算の結了等,,,2015-10-05,1,,,,,,0
832,3260003002312,登記記録の閉鎖等,0,2025-10-14,2025-10-01,株式会社瀬戸内マリンスクエア,,株式会社,岡山県,玉野市,宇野１丁目１１番１号,,33,204,7060011,,,2025-10-01,合併による解散等,7260001022168,令和７年１０月１日岡山県玉野市宇野一丁目１１番１号宇野港土地株式会社（7260001022168）に合併し解散,2017-07-12,1,,,,,セトウチマリンスクエア,0
846,3300005003469,登記記録の閉鎖等,0,2025-10-14,2025-10-03,佐賀西部ユニホーム協同組合,,その他の設立登記法人,佐賀県,鹿島市,浜町甲４２７７番地,,41,207,8491322,,,2025-10-03,清算の結了等,,,2015-10-05,1,,,,,サガセイブユニホーム,0
865,3400502000628,登記記録の閉鎖等,0,2025-10-14,2025-09-29,有限会社マイケン商店,,有限会社,岩手県,一関市,舞川字小和巻２０番地３,,03,209,0210221,,,2025-09-29,清算の結了等,,,2015-10-05,1,,,,,マイケンショウテン,0
866,3410001005417,登記記録の閉鎖等,0,2025-10-14,2025-10-08,あぐりいん株式会社,,株式会社,秋田県,由利本荘市,内黒瀬字沖村２６０番地,,05,210,0150022,,,2025-10-08,清算の結了等,,,2015-10-05,1,,,,,アグリイン,0
879,3450002001353,登記記録の閉鎖等,0,2025-10-14,2025-10-06,有限会社金丸商事,,有限会社,北海道,旭川市,一条通６丁目２０４７番地,,01,204,0700031,,,2025-10-06,清算の結了等,,,2015-10-05,1,,,,,カネマルショウジ,0
885,3500002003377,登記記録の閉鎖等,0,2025-10-14,2025-10-08,有限会社篠原測量設計事務所,,有限会社,愛媛県,松山市,井門町６４６番地３,,38,201,7911114,,,2025-10-08,清算の結了等,,,2015-10-05,1,,,,,,0
910,4010005032117,登記記録の閉鎖等,0,2025-10-14,2025-09-09,日本クレアス行政書士法人,,その他の設立登記法人,東京都,千代田区,霞が関３丁目２番５号霞が関ビルディング３３階,,13,101,1000013,,,2025-09-09,合併による解散等,1140005021357,令和７年９月１日神戸市中央区御幸通三丁目１番８号ライオンズ三宮ビル２階行政書士法人トータル財務プラン（1140005021357）に合併し解散,2020-08-17,1,,,,,ニホンクレアス,0
911,4010005039764,登記記録の閉鎖等,0,2025-10-14,2025-10-08,小牧ロジ特定目的会社,,その他の設立登記法人,東京都,中央区,銀座１丁目６番１１号アースタックス税理士法人内,,13,102,1040061,,,2025-10-08,清算の結了等,,,2025-03-18,1,,,,,コマキロジ,0
917,4010403015276,登記記録の閉鎖等,0,2025-10-14,2025-09-10,函館ＩＢＬＰ合同会社,,合同会社,東京都,港区,西新橋１丁目１番１号ＥＰコンサルティングサービス内,,13,103,1050003,,,2025-09-10,清算の結了等,,,2016-08-26,1,,,,,ハコダテアイビーエルピー,0
942,4011001130533,登記記録の閉鎖等,0,2025-10-14,2025-09-10,株式会社ＳＰＩＣＹ,,株式会社,東京都,港区,六本木７丁目１５－７新六本木ビル９Ｆ,,13,103,1060032,,,2025-09-10,清算の結了等,,,2019-10-23,1,,,,,スパイシー,0
950,4011101053072,登記記録の閉鎖等,0,2025-10-14,2025-09-08,ｉＭＥＣ株式会社,,株式会社,東京都,新宿区,西新宿１丁目５番１１号,,13,104,1600023,,,2025-09-08,清算の結了等,,,2015-10-05,1,,,,,アイメック,0
952,4011102027728,登記記録の閉鎖等,0,2025-10-14,2025-09-01,タイタンパートナーズ株式会社,,株式会社,東京都,港区,六本木７丁目７番７号トライセブン六本木８階,,13,103,1060032,,,2025-09-01,合併による解散等,8010401121709,令和７年９月１日東京都港区六本木七丁目７番７号トライセブン六本木８階トライトングループ株式会社（8010401121709）に合併し解散,2015-10-05,1,,,,,タイタンパートナーズ,0
956,4011301019014,登記記録の閉鎖等,0,2025-10-14,2025-10-03,株式会社福龍,,株式会社,東京都,杉並区,和泉３丁目１２番３号,,13,115,1680063,,,2025-10-03,清算の結了等,,,2015-10-05,1,,,,,フクリュウ,0
987,4013302006098,登記記録の閉鎖等,0,2025-10-14,2025-10-01,有限会社龍巳屋酒店,,有限会社,東京都,豊島区,池袋本町４丁目１番３号,,13,116,1700011,,,2025-10-01,清算の結了等,,,2015-10-05,1,,,,,タツミヤサケテン,0
992,4020001089275,登記記録の閉鎖等,0,2025-10-14,2025-09-19,株式会社ＳＦコーポレーション,,株式会社,神奈川県,横浜市港北区,新横浜２丁目５番１４号７階,,14,109,2220033,,,2025-09-19,清算の結了等,,,2015-10-05,1,,,,,エスエフコーポレーション,0
1011,4030001007327,登記記録の閉鎖等,0,2025-10-14,2025-10-03,株式会社ファイナンシャルインディペンデンス,,株式会社,埼玉県,さいたま市中央区,本町東６丁目６番２４号,,11,105,3380003,,,2025-10-03,清算の結了等,,,2015-10-05,1,,,,,ファイナンシャルインディペンデンス,0
1020,4030002041481,登記記録の閉鎖等,0,2025-10-14,2025-10-03,有限会社森田釣具店,,有限会社,埼玉県,加須市,不動岡２丁目５番３５号,,11,210,3470054,,,2025-10-03,清算の結了等,,,2015-10-05,1,,,,,モリタツリグテン,0
1021,4030002048114,登記記録の閉鎖等,0,2025-10-14,2025-10-01,有限会社若林紙器,,有限会社,埼玉県,八潮市,中央２丁目２３番地３,,11,234,3400816,,,2025-10-01,清算の結了等,,,2015-10-05,1,,,,,ワカバヤシシキ,0
1026,4040001052157,登記記録の閉鎖等,0,2025-10-14,2025-10-07,株式会社富士鉄鋼センター,,株式会社,千葉県,君津市,君津１番地,,12,225,2991141,,,2025-10-07,合併による解散等,5120001026242,令和７年１０月１日大阪市此花区常吉二丁目６番３７号日鉄神鋼シャーリング株式会社（5120001026242）に合併し解散,2015-10-05,1,,,,,フジテッコウセンター,0
1033,4040002054160,登記記録の閉鎖等,0,2025-10-14,2025-10-06,有限会社ラッキー７,,有限会社,千葉県,松戸市,新松戸２丁目１番地の５しちりんビル３Ｆ,,12,207,2700034,,,2025-10-06,清算の結了等,,,2015-10-05,1,,,,,ラッキーセブン,0
1035,4050002023651,登記記録の閉鎖等,0,2025-10-14,2025-10-01,有限会社スズラン調剤薬局,,有限会社,茨城県,土浦市,大和町９番３号,,08,203,3000036,,,2025-10-01,合併による解散等,2050001009075,令和７年１０月１日茨城県土浦市大和町９番３号関東医療サービス株式会社（2050001009075）に合併し解散,2015-10-05,1,,,,,スズランチョウザイヤッキョク,0
1047,4070002029655,登記記録の閉鎖等,0,2025-10-14,2025-09-30,有限会社鈴木,,有限会社,群馬県,太田市,西本町５２番２３号,,10,205,3730033,,,2025-09-30,清算の結了等,,,2015-10-05,1,,,,,スズキ,0
1064,4110003003282,登記記録の閉鎖等,0,2025-10-14,2025-10-02,Ｏ・Ｘ企画合同会社,,合同会社,新潟県,新潟市中央区,天神２丁目１３７番地１２３,,15,103,9500917,,,2025-10-02,清算の結了等,,,2016-03-30,1,,,,,オーエックスキカク,0
1065,4110005003009,登記記録の閉鎖等,0,2025-10-14,2025-09-30,特定非営利活動法人住環境再生機構,,その他の設立登記法人,新潟県,新潟市西区,上新栄町１丁目４番１６号,,15,107,9502076,,,2025-09-30,清算の結了等,,,2015-10-05,1,,,,,,0
1067,4120001045482,登記記録の閉鎖等,0,2025-10-14,2025-09-25,頭師産業株式会社,,株式会社,大阪府,大阪狭山市,大野台６丁目２４番５号,,27,231,5890023,,,2025-09-25,清算の結了等,,,2015-10-05,1,,,,,ヅシサンギョウ,0
1084,4120002018553,登記記録の閉鎖等,0,2025-10-14,2025-10-02,有限会社神月商店,,有限会社,大阪府,大阪市福島区,野田１丁目１番８６号（大阪市中央卸売市場内）,,27,103,5530005,,,2025-10-02,清算の結了等,,,2015-10-05,1,,,,,コウズキショウテン,0
1085,4120002020600,登記記録の閉鎖等,0,2025-10-14,2025-10-03,有限会社冨士光電気通信,,有限会社,大阪府,大阪市大正区,三軒家西３丁目１０番１７号,,27,108,5510001,,,2025-10-03,清算の結了等,,,2015-10-05,1,,,,,フジミツデンキツウシン,0
1086,4120002051026,登記記録の閉鎖等,0,2025-10-14,2025-10-01,株式会社南大阪ケアーセンター,,株式会社,大阪府,大阪市住吉区,我孫子１丁目５番１５号,,27,120,5580014,,,2025-10-01,清算の結了等,,,2015-10-05,1,,,,,ミナミオオサカケアセンター,0
1111,4140001124284,登記記録の閉鎖等,0,2025-10-14,2025-10-01,フィデリティセンター株式会社,,株式会社,兵庫県,尼崎市,御園町２４番地尼崎第一ビル４０２号,,28,202,6600861,,,2025-10-01,合併による解散等,6140001114820,令和７年１０月１日兵庫県尼崎市御園町２４番地尼崎第一ビル４０２号クリエイトシェアードサービス株式会社（6140001114820）に合併し解散,2021-12-22,1,,,,,フィデリティセンター,0
1125,4180001068362,登記記録の閉鎖等,0,2025-10-14,2025-09-26,シベルコ・ジャパン株式会社,,株式会社,愛知県,名古屋市中区,錦２丁目４番１１号日新火災名古屋ビル９Ｆ,,23,106,4600003,,,2025-09-26,清算の結了等,,,2015-10-05,1,,,,,シベルコジャパン,0
1126,4180001088641,登記記録の閉鎖等,0,2025-10-14,2025-09-29,株式会社杉村通信,,株式会社,愛知県,一宮市,大和町戸塚字西郷１０１５番地７,,23,203,4910927,,,2025-09-29,清算の結了等,,,2015-10-05,1,,,,,スギムラツウシン,0
1137,4210001012655,登記記録の閉鎖等,0,2025-10-14,2025-10-08,株式会社アート引越センター北陸,,株式会社,福井県,鯖江市,下河端町５１０番地,,18,207,9160038,,,2025-10-08,合併による解散等,8122001015081,令和７年１０月１日大阪市中央区城見一丁目２番２７号アート引越センター株式会社（8122001015081）に合併し解散,2015-10-05,1,,,,,アートヒッコシセンターホクリク,0
1138,4210002002424,登記記録の閉鎖等,0,2025-10-14,2025-10-09,有限会社てらしま,,有限会社,福井県,福井市,松本１丁目２９番２号,,18,201,9100003,,,2025-10-09,清算の結了等,,,2015-10-05,1,,,,,テラシマ,0
1140,4220005008715,登記記録の閉鎖等,0,2025-10-14,2025-10-07,一般社団法人劇団アンゲルス,,その他の設立登記法人,石川県,金沢市,長土塀３丁目２４番２８号,,17,201,9200867,,,2025-10-07,清算の結了等,,,2022-11-15,1,,,,,ゲキダンアンゲルス,0
1143,4240002043812,登記記録の閉鎖等,0,2025-10-14,2025-10-06,有限会社ワークアップ・ヒラ,,有限会社,広島県,福山市,駅家町大字中島３２７番地,,34,207,7201134,,,2025-10-06,清算の結了等,,,2015-10-05,1,,,,,ワークアップヒラ,0
1144,4240003007188,登記記録の閉鎖等,0,2025-10-14,2025-10-07,八尾萬合同会社,,合同会社,広島県,安芸高田市,八千代町佐々井字奥寒田１０２５３番１５１,,34,214,7310303,,,2025-10-07,清算の結了等,,,2025-05-09,1,,,,,ヤオマン,0
1147,4260002021551,登記記録の閉鎖等,0,2025-10-14,2025-10-01,有限会社ミヨシ洋品店,,有限会社,岡山県,倉敷市,阿知２丁目１１番８号,,33,202,7100055,,,2025-10-01,清算の結了等,,,2015-10-05,1,,,,,ミヨシヨウヒンテン,0
1167,4350001001652,登記記録の閉鎖等,0,2025-10-14,2025-10-06,アイコムティ株式会社,,株式会社,宮崎県,宮崎市,神宮西２丁目１２番地ロザート神宮西２０５号,,45,201,8800033,,,2025-10-06,清算の結了等,,,2015-10-05,1,,,,,アイコムティ,0
1169,4370001048213,登記記録の閉鎖等,0,2025-10-14,2025-09-30,株式会社ａｒｖｏｗｏｒｋｓ,,株式会社,宮城県,仙台市青葉区,本町１丁目９番２号,,04,101,9800014,,,2025-09-30,清算の結了等,,,2022-02-21,1,,,,,アルヴォワークス,0
1170,4370003005113,登記記録の閉鎖等,0,2025-10-14,2025-09-29,合同会社ＮＡＯＤＡＩ,,合同会社,宮城県,仙台市太白区,八木山弥生町１４－５コートハウスフォレナ２０２,,04,104,9820833,,,2025-09-29,清算の結了等,,,2021-02-24,1,,,,,ナオダイ,0
1190,4470001000072,登記記録の閉鎖等,0,2025-10-14,2025-10-09,株式会社石の店山田,,株式会社,香川県,高松市,牟礼町牟礼２８９９番地第３,,37,201,7610121,,,2025-10-09,清算の結了等,,,2015-10-05,1,,,,,イシノミセヤマダ,0
1191,4470001006739,登記記録の閉鎖等,0,2025-10-14,2025-10-09,株式会社アドックス,,株式会社,香川県,木田郡三木町,大字氷上１１２６番地,,37,341,7610612,,,2025-10-09,清算の結了等,,,2015-10-05,1,,,,,アドックス,0
1195,4480005001371,登記記録の閉鎖等,0,2025-10-14,2025-09-09,天理教渭山分教会,,その他の設立登記法人,徳島県,徳島市,川内町沖島４４４番地の７,,36,201,7710142,,,2025-09-09,合併による解散等,1480005001234,令和７年９月９日徳島県名西郡石井町高川原字高川原２２７４番地天理教明高分教会（1480005001234）に合併し解散,2015-10-05,1,,,,,,0
1196,4500002007303,登記記録の閉鎖等,0,2025-10-14,2025-10-08,有限会社ワイエンドエム,,有限会社,愛媛県,宇和島市,堀端町１番８号,,38,203,7980050,,,2025-10-08,清算の結了等,,,2015-10-05,1,,,,,ワイエンドエム,0
1200,5010001038001,登記記録の閉鎖等,0,2025-10-14,2025-10-01,株式会社エー・ケー・システム,,株式会社,東京都,中央区,新富１丁目５番５－２１１号,,13,102,1040041,,,2025-10-01,清算の結了等,,,2015-10-05,1,,,,,エーケーシステム,0
1213,5010001159937,登記記録の閉鎖等,0,2025-10-14,2025-10-01,ＤＭＭパルマー株式会社,,株式会社,東京都,千代田区,外神田４丁目１４番１号,,13,101,1010021,,,2025-10-01,清算の結了等,,,2015-10-05,1,,,,,ディエムエムパルマー,0
1215,5010001187509,登記記録の閉鎖等,0,2025-10-14,2025-10-06,株式会社ケイトツー,,株式会社,東京都,北区,王子４丁目２番７号,,13,117,1140002,,,2025-10-06,清算の結了等,,,2017-11-09,1,,,,,ケイトツー,0
1228,5010005025920,登記記録の閉鎖等,0,2025-10-14,2025-10-07,弁護士法人みつ葉法律事務所,,その他の設立登記法人,東京都,港区,浜松町２丁目７番１３号ＶＩＳＴＡ浜松町９階,,13,103,1050013,,,2025-10-07,合併による解散等,9120005017184,令和７年１０月１日東京都新宿区北新宿二丁目２１番１号新宿フロントタワー１４階弁護士法人響（9120005017184）に合併し解散,2016-10-20,1,,,,,ミツバホウリツジムショ,0
1229,5010005031316,登記記録の閉鎖等,0,2025-10-14,2025-10-08,一般社団法人欲しかった暮らしをしよう３,,その他の設立登記法人,東京都,中央区,日本橋室町４丁目３番１６号,,13,102,1030022,,,2025-10-08,清算の結了等,,,2020-01-20,1,,,,,ホシカッタクラシヲシヨウスリー,0
1240,5010405018747,登記記録の閉鎖等,0,2025-10-14,2025-10-09,熱海デベロップメント特定目的会社,,その他の設立登記法人,東京都,中央区,日本橋３丁目９番１号日本橋三丁目スクエア１１階,,13,102,1030027,,,2025-10-09,清算の結了等,,,2020-06-02,1,,,,,アタミデベロップメント,0
1247,5010701021933,登記記録の閉鎖等,0,2025-10-14,2025-10-03,株式会社アルクシード,,株式会社,東京都,品川区,東五反田１丁目１８番５号宮島ビル４階,,13,109,1410022,,,2025-10-03,清算の結了等,,,2015-10-05,1,,,,,アルクシード,0
1275,5020001132232,登記記録の閉鎖等,0,2025-10-14,2025-09-26,森総合鑑定株式会社,,株式会社,神奈川県,横浜市青葉区,荏田町７０番地クレッセントあざみ野ヒルズ２０１号,,14,117,2250013,,,2025-09-26,清算の結了等,,,2019-08-02,1,,,,,モリソウゴウカンテイ,0
1280,5020002035335,登記記録の閉鎖等,0,2025-10-14,2025-09-26,有限会社橋本塗装店,,有限会社,神奈川県,横浜市港北区,大曽根１丁目１４番２０号,,14,109,2220003,,,2025-09-26,清算の結了等,,,2015-10-05,1,,,,,ハシモトトソウテン,0
1281,5020002091403,登記記録の閉鎖等,0,2025-10-14,2025-09-26,有限会社ミナモト工業,,有限会社,神奈川県,川崎市宮前区,菅生ケ丘３５番４４号,,14,136,2160014,,,2025-09-26,清算の結了等,,,2015-10-05,1,,,,,,0
1289,5030001005643,登記記録の閉鎖等,0,2025-10-14,2025-10-03,株式会社デュオ,,株式会社,埼玉県,さいたま市大宮区,桜木町４丁目５８２番１号リバーサイドコート４０５号,,11,103,3300854,,,2025-10-03,清算の結了等,,,2015-10-05,1,,,,,デュオ,0
1292,5030001059821,登記記録の閉鎖等,0,2025-10-14,2025-10-02,林鋼管株式会社,,株式会社,埼玉県,比企郡川島町,大字戸守５４６番地,,11,346,3500166,,,2025-10-02,清算の結了等,,,2015-10-05,1,,,,,ハヤシコウカン,0
1297,5030001141141,登記記録の閉鎖等,0,2025-10-14,2025-10-03,ＮＴＢ　Ｔｒａｄｉｎｇ株式会社,,株式会社,埼玉県,越谷市,大字小曽川５６４番地２,,11,222,3430802,,,2025-10-03,清算の結了等,,,2021-03-11,1,,,,,エヌティービートレーディング,0
1298,5030001160439,登記記録の閉鎖等,0,2025-10-14,2025-10-03,株式会社ネクエス,,株式会社,埼玉県,さいたま市大宮区,東町１丁目１７１番地,,11,103,3300841,,,2025-10-03,清算の結了等,,,2024-05-17,1,,,,,ネクエス,0
1304,5040001062205,登記記録の閉鎖等,0,2025-10-14,2025-09-11,清和興業株式会社,,株式会社,千葉県,銚子市,岡野台町２丁目４８８番地１,,12,202,2880852,,,2025-09-11,清算の結了等,,,2015-10-05,1,,,,,セイワコウギョウ,0
1305,5040001111382,登記記録の閉鎖等,0,2025-10-14,2025-09-12,株式会社エメ,,株式会社,千葉県,千葉市中央区,新町１９番地１０新町ふくろうビル３Ｆ－Ｅ,,12,101,2600028,,,2025-09-12,清算の結了等,,,2019-11-11,1,,,,,エメ,0
1316,5040005017163,登記記録の閉鎖等,0,2025-10-14,2025-09-11,医療法人社団清愛会,,その他の設立登記法人,千葉県,松戸市,新松戸２丁目１１５番地の１松本ビル２Ｆ,,12,207,2700034,,,2025-09-11,清算の結了等,,,2015-10-05,1,,,,,セイアイカイ,0
1334,5090002011206,登記記録の閉鎖等,0,2025-10-14,2025-10-03,有限会社鋼亜鉄工,,有限会社,山梨県,甲州市,塩山下粟生野１２５番地,,19,213,4040032,,,2025-10-03,清算の結了等,,,2015-10-05,1,,,,,コウアテッコウ,0
1336,5100002028727,登記記録の閉鎖等,0,2025-10-14,2025-10-02,有限会社白馬堂薬局,,有限会社,長野県,諏訪市,諏訪１丁目１６番１号,,20,206,3920004,,,2025-10-02,清算の結了等,,,2015-10-05,1,,,,,ハクバドウヤッキョク,0
1338,5110005012611,登記記録の閉鎖等,0,2025-10-14,2025-10-02,教明寺,,その他の設立登記法人,新潟県,見附市,指出町甲１２９６番地,,15,211,9540001,,,2025-10-02,清算の結了等,,,2015-10-05,1,,,,,キョウミョウジ,0
1345,5120001174165,登記記録の閉鎖等,0,2025-10-14,2025-10-09,第二電力株式会社,,株式会社,大阪府,大阪市中央区,島町２丁目１番１５号,,27,128,5400034,,,2025-10-09,合併による解散等,8010701032993,令和７年１０月１日東京都品川区東五反田五丁目２７番１０号野村ビル８階日本ソーラーホールディングス株式会社（8010701032993）に合併し解散,2015-10-05,1,,,,,ダイニデンリョク,0
1346,5120001192695,登記記録の閉鎖等,0,2025-10-14,2025-10-06,株式会社モデスト,,株式会社,兵庫県,神戸市中央区,東町１１６番地２オールドブライトビル８０５号,,28,110,6500031,,,2025-10-06,清算の結了等,,,2015-10-05,1,,,,,モデスト,0
1385,5140001042634,登記記録の閉鎖等,0,2025-10-14,2025-10-06,株式会社オオガキテック,,株式会社,兵庫県,加古川市,別府町西脇７１番地の１,,28,210,6750125,,,2025-10-06,清算の結了等,,,2015-10-05,1,,,,,オオガキテック,0
1389,5140001075543,登記記録の閉鎖等,0,2025-10-14,2025-10-03,株式会社幸和梱包,,株式会社,兵庫県,西脇市,日野町６０番地の１１,,28,213,6770013,,,2025-10-03,清算の結了等,,,2015-10-05,1,,,,,コウワコンポウ,0
1395,5140001112189,登記記録の閉鎖等,0,2025-10-14,2025-10-01,ファーマシートマト株式会社,,株式会社,兵庫県,尼崎市,御園町２４番地尼崎第一ビル４０２,,28,202,6600861,,,2025-10-01,合併による解散等,6140001114820,令和７年１０月１日兵庫県尼崎市御園町２４番地尼崎第一ビル４０２号クリエイトシェアードサービス株式会社（6140001114820）に合併し解散,2018-12-14,1,,,,,ファーマシートマト,0
1396,5140001118525,登記記録の閉鎖等,0,2025-10-14,2025-10-01,株式会社オラプロ,,株式会社,兵庫県,神戸市兵庫区,荒田町１丁目１９番１１号２階,,28,105,6520032,,,2025-10-01,合併による解散等,9140001113506,令和７年１０月１日神戸市兵庫区上沢通一丁目１－２５株式会社ＫＣパートナーズ（9140001113506）に合併し解散,2020-08-28,1,,,,,オラプロ,0
1406,5140005023440,登記記録の閉鎖等,0,2025-10-14,2025-10-02,一般社団法人ゴールアチーブメント協会,,その他の設立登記法人,兵庫県,神戸市灘区,篠原中町６丁目５番４－１０４号,,28,102,6570066,,,2025-10-02,清算の結了等,,,2017-03-21,1,,,,,ゴールアチーブメントキョウカイ,0
1407,5140005026352,登記記録の閉鎖等,0,2025-10-14,2025-09-22,特定非営利活動法人モンターニュ,,その他の設立登記法人,兵庫県,朝来市,多々良木２１３－１,,28,225,6793423,,,2025-09-22,清算の結了等,,,2022-10-28,1,,,,,モンターニュ,0
1412,5160001016660,登記記録の閉鎖等,0,2025-10-14,2025-10-06,近江通商株式会社,,株式会社,滋賀県,高島市,新旭町饗庭２０１７番地１,00044442,25,212,5201531,,,2025-10-06,清算の結了等,,,2015-10-05,1,,,,,オウミツウショウ,0
1423,5180002080852,登記記録の閉鎖等,0,2025-10-14,2025-09-29,有限会社ショップいとう,,有限会社,愛知県,稲沢市,大矢江西町４５番地,,23,220,4928413,,,2025-09-29,清算の結了等,,,2015-10-05,1,,,,,ショップイトウ,0
1445,5290001045812,登記記録の閉鎖等,0,2025-10-14,2025-09-12,株式会社飯塚花市場,00092550,株式会社,福岡県,飯塚市,有安９５８番地１８,,40,205,8200111,,,2025-09-12,清算の結了等,,,2015-10-05,1,,,,,イイヅカハナイチバ,0
1469,5330001008772,登記記録の閉鎖等,0,2025-10-14,2025-10-02,株式会社ＬＩＳ,,株式会社,熊本県,熊本市中央区,水前寺公園２８番１号,,43,101,8620956,,,2025-10-02,清算の結了等,,,2015-10-05,1,,,,,,0
1489,5370605000106,登記記録の閉鎖等,0,2025-10-14,2025-09-30,塩釜市商業協同組合,,その他の設立登記法人,宮城県,塩竈市,本町４番３号,,04,203,9850052,,,2025-09-30,清算の結了等,,,2015-10-05,1,,,,,シオガマシショウギョウ,0
1507,5460002001854,登記記録の閉鎖等,0,2025-10-14,2025-10-08,千葉建設工業有限会社,,有限会社,北海道,釧路郡釧路町,柏東７丁目１３８番地,,01,661,0882154,,,2025-10-08,清算の結了等,,,2015-10-05,1,,,,,チバケンセツコウギョウ,0
1523,6010001023877,登記記録の閉鎖等,0,2025-10-14,2025-09-26,東樹ケミカル株式会社,,株式会社,東京都,千代田区,神田北乗物町２番地,,13,101,1010036,,,2025-09-26,清算の結了等,,,2015-10-05,1,,,,,,0
1547,6010005038806,登記記録の閉鎖等,0,2025-10-14,2025-10-07,一般社団法人スサノオ,,その他の設立登記法人,東京都,千代田区,丸の内１丁目４番１号東京共同会計事務所内,,13,101,1000005,,,2025-10-07,清算の結了等,,,2024-09-11,1,,,,,スサノオ,0
1568,6010802000810,登記記録の閉鎖等,0,2025-10-14,2025-10-02,有限会社アライイイシーコーポレーション,,有限会社,東京都,大田区,鵜の木３丁目１０番１１号,,13,111,1460091,,,2025-10-02,清算の結了等,,,2015-10-05,1,,,,,アライイイシーコーポレーション,0
1570,6010901011758,登記記録の閉鎖等,0,2025-10-14,2025-09-30,ミナミ・ハウジングサービス株式会社,,株式会社,東京都,豊島区,東池袋４丁目２６番１号,,13,116,1700013,,,2025-09-30,合併による解散等,9011401016014,令和７年９月３０日東京都豊島区東池袋四丁目２６番１号イノーヴ株式会社（9011401016014）に合併し解散,2015-10-05,1,,,,,ミナミハウジングサービス,0
1596,6011502015479,登記記録の閉鎖等,0,2025-10-14,2025-10-06,有限会社ハピネス情報処理サービス,,有限会社,東京都,荒川区,西日暮里２丁目３１番５号,,13,118,1160013,,,2025-10-06,清算の結了等,,,2015-10-05,1,,,,,,0
1617,6020001017969,登記記録の閉鎖等,0,2025-10-14,2025-09-30,株式会社玉木製作所,,株式会社,神奈川県,横浜市鶴見区,鶴見中央４丁目４１番１０号松江ビル,,14,101,2300051,,,2025-09-30,清算の結了等,,,2015-10-05,1,,,,,タマキセイサクショ,0
1632,6030001002219,登記記録の閉鎖等,0,2025-10-14,2025-10-03,株式会社福富,,株式会社,埼玉県,川越市,田町２４番地２１ヴィスタガーデン川越６０３号,,11,201,3501113,,,2025-10-03,清算の結了等,,,2015-10-05,1,,,,,フクトミ,0
1639,6030002022661,登記記録の閉鎖等,0,2025-10-14,2025-10-01,ミノワ建設有限会社,,有限会社,埼玉県,さいたま市岩槻区,大字岩槻３５８４番地,,11,110,3390061,,,2025-10-01,清算の結了等,,,2015-10-05,1,,,,,ミノワケンセツ,0
1642,6030002056858,登記記録の閉鎖等,0,2025-10-14,2025-10-01,有限会社ティエスティトータルライフ,,有限会社,埼玉県,上尾市,東町３丁目１９８６番地５,,11,219,3620031,,,2025-10-01,清算の結了等,,,2015-10-05,1,,,,,ティエスティトータルライフ,0
1656,6050001026232,登記記録の閉鎖等,0,2025-10-14,2025-10-01,坂本電気工業株式会社,,株式会社,茨城県,稲敷市,上之島２４５９番地,,08,229,3000732,,,2025-10-01,清算の結了等,,,2015-10-05,1,,,,,サカモトデンキ,0
1657,6050002021249,登記記録の閉鎖等,0,2025-10-14,2025-09-30,有限会社後藤土木,,有限会社,茨城県,つくば市,山木１６３７番地,,08,220,3004234,,,2025-09-30,清算の結了等,,,2015-10-05,1,,,,,ゴトウドボク,0
1658,6050002037022,登記記録の閉鎖等,0,2025-10-14,2025-10-02,有限会社センシンホーム,,有限会社,茨城県,守谷市,松ケ丘１丁目２１番地８,,08,224,3020127,,,2025-10-02,清算の結了等,,,2015-10-05,1,,,,,センシンホーム,0
1687,6120001141453,登記記録の閉鎖等,0,2025-10-14,2025-09-30,株式会社ＯＧＳ,,株式会社,大阪府,高槻市,上田辺町２番１４号白石ビル２階,,27,207,5690805,,,2025-09-30,清算の結了等,,,2015-10-05,1,,,,,オージーエス,0
1688,6120001180682,登記記録の閉鎖等,0,2025-10-14,2025-10-01,株式会社甫珊,,株式会社,大阪府,大阪市北区,梅田１丁目１１番４－１１００号,,27,127,5300001,,,2025-10-01,清算の結了等,,,2015-10-05,1,,,,,ボサン,0
1690,6120001273750,登記記録の閉鎖等,0,2025-10-14,2025-10-01,爍楓株式会社,,株式会社,大阪府,大阪市生野区,巽西３丁目１３番１０号３０１室,,27,116,5440012,,,2025-10-01,清算の結了等,,,2025-03-21,1,,,,,シャクフウ,0
1724,6140001028087,登記記録の閉鎖等,0,2025-10-14,2025-10-01,ＭＹＢ株式会社,,株式会社,兵庫県,神戸市長田区,大橋町９丁目５番４号,,28,106,6530037,,,2025-10-01,合併による解散等,1140001094877,令和７年１０月１日神戸市長田区大橋町九丁目５番４号株式会社ミヤビシューズ（1140001094877）に合併し解散,2015-10-05,1,,,,,エムワイビー,0
1726,6140001125669,登記記録の閉鎖等,0,2025-10-14,2025-10-01,プライムセンター株式会社,,株式会社,兵庫県,尼崎市,御園町２４番地尼崎第一ビル４０２号,,28,202,6600861,,,2025-10-01,合併による解散等,6140001114820,令和７年１０月１日兵庫県尼崎市御園町２４番地尼崎第一ビル４０２号クリエイトシェアードサービス株式会社（6140001114820）に合併し解散,2022-04-18,1,,,,,プライムセンター,0
1730,6140002050544,登記記録の閉鎖等,0,2025-10-14,2025-09-01,株式会社プーレまつもと,,株式会社,兵庫県,姫路市,網干区興浜２０９３番地の１３３,,28,201,6711241,,,2025-09-01,合併による解散等,4140001139893,令和７年９月１日岡山県津山市河辺１１０２番地の１有限会社三協食鳥（3260002028416）、岡山県津山市河辺１１０２番地の１株式会社ナチュラルノーサン（6260001020081）、岡山市南区山田１００１番地３株式会社せとうち三協食鳥（4260001037722）、神戸市西区平野町中津字北川５８９番地の１０株式会社サンショク（2140002004561）及び京都市南区上鳥羽南島田町７２番地株式会社京都三協食鳥（8130001057151）と合併して神戸市西区平野町中津字北川５８９番地の１０株式会社三協食鳥（4140001139893）を設立し解散,2015-10-05,1,,,,,プーレマツモト,0
1736,6180001057974,登記記録の閉鎖等,0,2025-10-14,2025-09-29,瀧川化学産業株式会社,,株式会社,愛知県,名古屋市中区,栄４丁目２番８号,,23,106,4600008,,,2025-09-29,清算の結了等,,,2015-10-05,1,,,,,タキカワカガクサンギョウ,0
1738,6180001110717,登記記録の閉鎖等,0,2025-10-14,2025-09-29,マーシフルアクト株式会社,,株式会社,愛知県,大府市,北崎町７丁目１７０番地,,23,223,4740002,,,2025-09-29,清算の結了等,,,2015-10-05,1,,,,,マーシフルアクト,0
1744,6180001160893,登記記録の閉鎖等,0,2025-10-14,2025-09-24,株式会社Ｍａｒｉｍｏ,,株式会社,愛知県,丹羽郡扶桑町,大字柏森字郷前４０－２,,23,362,4800103,,,2025-09-24,清算の結了等,,,2024-04-09,1,,,,,マリモ,0
1758,6180302017875,登記記録の閉鎖等,0,2025-10-14,2025-09-29,有限会社アペックス,,有限会社,愛知県,高浜市,小池町４丁目１番地５８,,23,227,4441303,,,2025-09-29,清算の結了等,,,2015-10-05,1,,,,,アペックス,0
1760,6200001019591,登記記録の閉鎖等,0,2025-10-14,2025-10-09,株式会社丸万,,株式会社,岐阜県,関市,富之保４０６１番地の１,,21,205,5013501,,,2025-10-09,清算の結了等,,,2015-10-05,1,,,,,マルマン,0
1763,6200002012926,登記記録の閉鎖等,0,2025-10-14,2025-10-03,有限会社東海電産,,有限会社,岐阜県,大垣市,新田町４丁目５１番地１,,21,202,5030856,,,2025-10-03,清算の結了等,,,2015-10-05,1,,,,,トウカイデンサン,0
1764,6200005000531,登記記録の閉鎖等,0,2025-10-14,2025-10-07,金剛寺,,その他の設立登記法人,岐阜県,岐阜市,木田１丁目２００番地２,,21,201,5011135,,,2025-10-07,清算の結了等,,,2015-10-05,1,,,,,コンゴウジ,0
1774,6260002031631,登記記録の閉鎖等,0,2025-10-14,2025-10-09,有限会社岡建築,,有限会社,岡山県,備前市,日生町日生１７９９番地,,33,211,7013204,,,2025-10-09,清算の結了等,,,2015-10-05,1,,,,,オカケンチク,0
1775,6270001006600,登記記録の閉鎖等,0,2025-10-14,2025-09-29,株式会社山光,,株式会社,鳥取県,鳥取市,雲山１６３番地６,,31,201,6800862,,,2025-09-29,合併による解散等,8270002004915,令和７年９月２９日鳥取市雲山２２１番地８９株式会社和温（8270002004915）に合併し解散,2015-10-05,1,,,,,サンコウ,0
1799,6380002003577,登記記録の閉鎖等,0,2025-10-14,2025-10-01,有限会社三浦モーター,,有限会社,福島県,福島市,永井川字松木下８２番地の３,,07,201,9601102,,,2025-10-01,清算の結了等,,,2015-10-05,1,,,,,ミウラモーター,0
1806,6430001017325,登記記録の閉鎖等,0,2025-10-14,2025-09-30,株式会社ヤマサグリーン,,株式会社,北海道,札幌市中央区,北十一条西１９丁目３６番２２号,,01,101,0600011,,,2025-09-30,清算の結了等,,,2015-10-05,1,,,,,ヤマサグリーン,0
1807,6430001051778,登記記録の閉鎖等,0,2025-10-14,2025-09-30,株式会社旅家,,株式会社,北海道,虻田郡倶知安町,北四条東１０丁目１番地,,01,400,0440004,,,2025-09-30,清算の結了等,,,2015-10-05,1,,,,,タヤ,0
1813,6430002014908,登記記録の閉鎖等,0,2025-10-14,2025-09-29,有限会社西ビル,,有限会社,北海道,札幌市中央区,北二条西２３丁目２番１２号,,01,101,0640822,,,2025-09-29,合併による解散等,8430002012463,令和７年７月１日札幌市中央区北二条西二十三丁目２番１２号株式会社谷尾燃料店（8430002012463）に合併し解散,2015-10-05,1,,,,,ニシビル,0
1820,6500002013126,登記記録の閉鎖等,0,2025-10-14,2025-10-06,有限会社門田農園,,有限会社,愛媛県,西宇和郡伊方町,中之浜３１１番地ノ１,,38,442,7960307,,,2025-10-06,清算の結了等,,,2015-10-05,1,,,,,カドタノウエン,0
1828,7010001146347,登記記録の閉鎖等,0,2025-10-14,2025-10-03,ｎｔｓ株式会社,,株式会社,東京都,荒川区,西日暮里１丁目３８番１８－７０４号,,13,118,1160013,,,2025-10-03,清算の結了等,,,2015-10-05,1,,,,,エヌティエス,0
1846,7010101008190,登記記録の閉鎖等,0,2025-10-14,2025-10-01,株式会社イシイ,,株式会社,東京都,八王子市,みなみ野３丁目２７番２２号,,13,201,1920916,,,2025-10-01,合併による解散等,9010101004312,令和７年１０月１日東京都八王子市みなみ野三丁目２７番２２号株式会社石井商事（9010101004312）に合併し解散,2015-10-05,1,,,,,イシイ,0
1850,7010401140338,登記記録の閉鎖等,0,2025-10-14,2025-06-12,株式会社ユーアイホールディングス,,株式会社,東京都,港区,浜松町２丁目７番１４号ＫＡＭＯＮビル８Ｆ,,13,103,1050013,,,2025-06-12,合併による解散等,6380001009187,令和７年５月１日東京都港区浜松町二丁目７番１４号ＫＡＭＯＮビル８Ｆ株式会社エーゼット（6380001009187）に合併し解散,2018-08-22,1,,,,,ユーアイホールディングス,0
1851,7010401154429,登記記録の閉鎖等,0,2025-10-14,2025-09-08,株式会社ＧＯ　ＩＮＤＥＸ,,株式会社,東京都,港区,六本木３丁目１７番１０号,,13,103,1060032,,,2025-09-08,清算の結了等,,,2020-08-07,1,,,,,ゴウインデックス,0
1853,7010401176803,登記記録の閉鎖等,0,2025-10-14,2025-09-10,株式会社Ｋ＆Ｓコネクトインク,,株式会社,東京都,港区,海岸１丁目２－２０汐留ビルディング３階,,13,103,1050022,,,2025-09-10,清算の結了等,,,2023-08-28,1,,,,,ケーアンドエスコネクトインク,0
1874,7010901024073,登記記録の閉鎖等,0,2025-10-14,2025-10-08,株式会社ＳＧネットワーク,,株式会社,東京都,世田谷区,成城９丁目１７番１０号１Ｆ,,13,112,1570066,,,2025-10-08,清算の結了等,,,2015-10-05,1,,,,,エスジーネットワーク,0
1877,7010902010015,登記記録の閉鎖等,0,2025-10-14,2025-10-07,有限会社ティーエムピープラス,,有限会社,東京都,世田谷区,代沢５丁目１６番１２号,,13,112,1550032,,,2025-10-07,清算の結了等,,,2015-10-05,1,,,,,ティーエムピープラス,0
1891,7011102003718,登記記録の閉鎖等,0,2025-10-14,2025-09-05,有限会社京明製作所,,有限会社,東京都,新宿区,上落合３丁目２１番１０号,,13,104,1610034,,,2025-09-05,清算の結了等,,,2015-10-05,1,,,,,キョウメイセイサクショ,0
1898,7011301018062,登記記録の閉鎖等,0,2025-10-14,2025-10-03,株式会社ロッキンハウス,,株式会社,東京都,杉並区,高円寺南４丁目２４番４号,,13,115,1660003,,,2025-10-03,清算の結了等,,,2015-10-05,1,,,,,ロッキンハウス,0
1899,7011401012329,登記記録の閉鎖等,0,2025-10-14,2025-10-01,株式会社シグマ,,株式会社,東京都,板橋区,成増２丁目９番５号,,13,119,1750094,,,2025-10-01,合併による解散等,3011401006441,令和７年１０月１日東京都板橋区成増二丁目９番５号株式会社ヤチヨメディカル（3011401006441）に合併し解散,2015-10-05,1,,,,,シグマ,0
1901,7011501014076,登記記録の閉鎖等,0,2025-10-14,2025-10-01,株式会社辻由,00055683,株式会社,東京都,北区,滝野川３丁目４８番１－８０７号サニーコート滝野川,,13,117,1140023,,,2025-10-01,清算の結了等,,,2015-10-05,1,,,,,ツジヨシ,0
1904,7011802001467,登記記録の閉鎖等,0,2025-10-14,2025-10-09,有限会社大畑商店,,有限会社,東京都,葛飾区,西水元４丁目１４番１２号,,13,122,1250031,,,2025-10-09,清算の結了等,,,2015-10-05,1,,,,,オオハタショウテン,0
1908,7012402001089,登記記録の閉鎖等,0,2025-10-14,2025-09-30,有限会社斉藤建業,,有限会社,東京都,府中市,晴見町３丁目４番地の７,,13,206,1830057,,,2025-09-30,清算の結了等,,,2015-10-05,1,,,,,サイトウケンギョウ,0
1916,7020001038576,登記記録の閉鎖等,0,2025-10-14,2025-10-07,株式会社パウデック,,株式会社,栃木県,小山市,若木町１丁目２３番１５号,,09,208,3230028,,,2025-10-07,合併による解散等,3030001045666,令和７年１０月１日埼玉県新座市北野三丁目６番３号サンケン電気株式会社（3030001045666）に合併し解散,2015-10-05,1,,,,,パウデック,0
1918,7020001073862,登記記録の閉鎖等,0,2025-10-14,2025-09-26,株式会社トーラス,,株式会社,神奈川県,川崎市多摩区,菅稲田堤１丁目６番３号シャトーウエハラ１０３,,14,135,2140003,,,2025-09-26,清算の結了等,,,2015-10-05,1,,,,,トーラス,0
1928,7021002069461,登記記録の閉鎖等,0,2025-10-14,2025-09-25,有限会社津久井米店,,有限会社,神奈川県,横須賀市,津久井２丁目４番１７号,,14,201,2390843,,,2025-09-25,清算の結了等,,,2015-10-05,1,,,,,ツクイコメテン,0
1931,7030001068572,登記記録の閉鎖等,0,2025-10-14,2025-10-03,株式会社ティ・エス・ケー,,株式会社,埼玉県,越谷市,相模町１丁目３３２番地２,,11,222,3430823,,,2025-10-03,清算の結了等,,,2015-10-05,1,,,,,ティエスケー,0
1934,7030001115515,登記記録の閉鎖等,0,2025-10-14,2025-10-03,株式会社ライズ,,株式会社,埼玉県,新座市,馬場４丁目１番８号,,11,230,3520016,,,2025-10-03,清算の結了等,,,2016-07-26,1,,,,,ライズ,0
1941,7030002007364,登記記録の閉鎖等,0,2025-10-14,2025-10-03,有限会社スペース・クリエイター,,有限会社,埼玉県,さいたま市南区,大字太田窪２００２番地,,11,108,3360015,,,2025-10-03,清算の結了等,,,2015-10-05,1,,,,,スペースクリエイター,0
1962,7050002040000,登記記録の閉鎖等,0,2025-10-14,2025-10-02,有限会社ムラキツール,,有限会社,茨城県,常総市,水海道山田町４７７８番地,,08,211,3030031,,,2025-10-02,清算の結了等,,,2015-10-05,1,,,,,,0
1965,7060001019374,登記記録の閉鎖等,0,2025-10-14,2025-10-07,株式会社ワーズィープランニング,,株式会社,栃木県,足利市,真砂町７番地２４,,09,202,3260032,,,2025-10-07,清算の結了等,,,2015-10-05,1,,,,,ワーズィープランニング,0
1973,7080005006796,登記記録の閉鎖等,0,2025-10-14,2025-10-06,特定非営利活動法人しずおか出会いサポートセンター,,その他の設立登記法人,静岡県,静岡市葵区,常磐町１丁目８番地の６,,22,101,4200034,,,2025-10-06,清算の結了等,,,2015-10-05,1,,,,,シズオカデアイサポートセンター,0
1983,7100003004956,登記記録の閉鎖等,0,2025-10-14,2025-10-08,合同会社なかがわ,,合同会社,長野県,上伊那郡中川村,片桐１５６６番地１,,20,386,3993802,,,2025-10-08,清算の結了等,,,2018-04-12,1,,,,,ナカガワ,0
1985,7100005004723,登記記録の閉鎖等,0,2025-10-14,2025-09-05,山神社,,その他の設立登記法人,長野県,上田市,上武石字藤沢１５５１番地イ,,20,203,3860508,,,2025-09-05,合併による解散等,3100005004669,令和７年９月５日長野県上田市下武石字宮前８０９番地大宮諏訪神社（3100005004669）に合併し解散,2015-10-05,1,,,,,ヤマガミシャ,0
1987,7110001015764,登記記録の閉鎖等,0,2025-10-14,2025-09-26,株式会社金子金平製作所,,株式会社,新潟県,燕市,秋葉町３丁目１６番１８号,,15,213,9591261,,,2025-09-26,清算の結了等,,,2015-10-05,1,,,,,カネコキンペイセイサクショ,0
2017,7130001073694,登記記録の閉鎖等,0,2025-10-14,2025-10-08,株式会社格物,,株式会社,京都府,京都市左京区,北白川仕伏町２１番地５,,26,103,6068283,,,2025-10-08,清算の結了等,,,2023-02-17,1,,,,,カクブツ,0
2018,7130001075872,登記記録の閉鎖等,0,2025-10-14,2025-10-08,株式会社ＡＴＡＭＡＯＶＥＲ,,株式会社,京都府,京都市上京区,丸太町通黒門東入藁屋町５３５番地６８,,26,102,6028144,,,2025-10-08,清算の結了等,,,2023-12-14,1,,,,,アタマオーバー,0
2028,7140002063388,登記記録の閉鎖等,0,2025-10-14,2025-10-03,有限会社ガーランド,,有限会社,兵庫県,伊丹市,南町２丁目４番１１号,,28,207,6640854,,,2025-10-03,清算の結了等,,,2015-10-05,1,,,,,ガーランド,0
2035,7170002010692,登記記録の閉鎖等,0,2025-10-14,2025-10-09,有限会社古川電気,,有限会社,和歌山県,橋本市,紀見１５９番地,,30,203,6480052,,,2025-10-09,清算の結了等,,,2015-10-05,1,,,,,フルカワデンキ,0
2037,7180001129161,登記記録の閉鎖等,0,2025-10-14,2025-10-06,株式会社プログレスフードサービス,,株式会社,三重県,三重郡朝日町,大字小向６９２番地１,,24,343,5108102,,,2025-10-06,清算の結了等,,,2017-08-24,1,,,,,プログレスフードサービス,0
2042,7180001159828,登記記録の閉鎖等,0,2025-10-14,2025-09-29,陽明株式会社,,株式会社,愛知県,名古屋市熱田区,幡野町１番１２号,,23,109,4560077,,,2025-09-29,清算の結了等,,,2024-01-19,1,,,,,ヨウメイ,0
2049,7180002083721,登記記録の閉鎖等,0,2025-10-14,2025-09-26,有限会社東光,,有限会社,愛知県,半田市,緑ケ丘１０丁目１４番地の１,,23,205,4750002,,,2025-09-26,清算の結了等,,,2015-10-05,1,,,,,トウコウ,0
2051,7180003021688,登記記録の閉鎖等,0,2025-10-14,2025-09-29,柴崎工業合同会社,00120929,合同会社,愛知県,あま市,花長堀上６８番地２,,23,237,4901204,,,2025-09-29,清算の結了等,,,2020-10-05,1,,,,,シバザキコウギョウ,0
2053,7180301036578,登記記録の閉鎖等,0,2025-10-14,2025-09-19,ティー・カーゴ株式会社,,株式会社,愛知県,豊田市,トヨタ町１番地,,23,211,4710826,,,2025-09-19,清算の結了等,,,2022-09-02,1,,,,,ティーカーゴ,0
2054,7180305009555,登記記録の閉鎖等,0,2025-10-14,2025-09-29,一般社団法人ＰＭＳクリニック,,その他の設立登記法人,愛知県,西尾市,錦城町２３５－２４,,23,213,4450864,,,2025-09-29,清算の結了等,,,2024-03-18,1,,,,,ピーエムエスクリニック,0
2061,7240001056523,登記記録の閉鎖等,0,2025-10-14,2025-10-01,株式会社住まいる,,株式会社,広島県,三原市,城町１丁目１２番１号,,34,204,7230014,,,2025-10-01,合併による解散等,5240001039843,令和７年１０月１日広島県三原市城町一丁目１２番５号株式会社エムセック（5240001039843）に合併し解散,2020-08-18,1,,,,,スマイル,0
2071,7270002008966,登記記録の閉鎖等,0,2025-10-14,2025-10-10,有限会社ａｎｏｌａｋ,,有限会社,鳥取県,米子市,四日市町８６番地,,31,202,6830061,,,2025-10-10,清算の結了等,,,2015-10-05,1,,,,,アノラック,0
2073,7290001068605,登記記録の閉鎖等,0,2025-10-14,2025-10-01,株式会社マックス,,株式会社,福岡県,福岡市中央区,那の津３丁目６番５号,00092877,40,133,8100071,,,2025-10-01,合併による解散等,1290001022732,令和７年１０月１日福岡市中央区那の津三丁目６番５号株式会社マックスエクスプレス（1290001022732）に合併し解散,2015-10-05,1,,,,,マックス,0
2083,7320001005694,登記記録の閉鎖等,0,2025-10-14,2025-10-08,株式会社ＰＲＯＮＥＸＵＳ,,株式会社,大分県,大分市,大字荏隈７５４番地の５４,,44,201,8700889,,,2025-10-08,清算の結了等,,,2015-10-05,1,,,,,プロネクス,0
2086,7320005003579,登記記録の閉鎖等,0,2025-10-14,2025-09-08,妙顕寺,,その他の設立登記法人,大分県,宇佐市,大字閤３６５番地,,44,211,8790455,,,2025-09-08,合併による解散等,4320005007582,令和７年９月８日大分県中津市９６６番地大法寺（4320005007582）に合併し解散,2015-10-05,1,,,,,ミョウケンジ,0
2099,7360001015467,登記記録の閉鎖等,0,2025-10-14,2025-10-06,株式会社アースプラン,,株式会社,沖縄県,名護市,字屋部５１６番地,,47,209,9050007,,,2025-10-06,合併による解散等,2360001000341,令和７年１０月１日沖縄県那覇市首里末吉町三丁目５７番地の６株式会社沖縄設計センター（2360001000341）に合併し解散,2015-10-05,1,,,,,アースプラン,0
2107,7370002003998,登記記録の閉鎖等,0,2025-10-14,2025-09-29,有限会社村松工営,,有限会社,宮城県,仙台市太白区,八木山東２丁目５番１０号,,04,104,9820802,,,2025-09-29,清算の結了等,,,2015-10-05,1,,,,,ムラマツコウエイ,0
2111,7400001009407,登記記録の閉鎖等,0,2025-10-14,2025-09-01,宮古エコカーシェアリング株式会社,,株式会社,岩手県,宮古市,大通４丁目３５番,,03,202,0270083,,,2025-09-01,合併による解散等,2400001005014,令和７年９月１日岩手県盛岡市厨川一丁目１７番１８号岩手県北自動車株式会社（2400001005014）と合併し解散,2015-10-05,1,,,,,ミヤコエコカーシェアリング,0
2116,7410005004130,登記記録の閉鎖等,0,2025-10-14,2025-10-08,農事組合法人宮林農園,,その他の設立登記法人,秋田県,大仙市,内小友字宮林２９番地の１,,05,212,0140073,,,2025-10-08,清算の結了等,,,2015-10-05,1,,,,,ミヤバヤシノウエン,0
2124,7440001000254,登記記録の閉鎖等,0,2025-10-14,2025-10-06,株式会社大口興業,,株式会社,北海道,函館市,赤川町１３９番地の５１,,01,202,0410804,,,2025-10-06,清算の結了等,,,2015-10-05,1,,,,,オオグチコウギョウ,0
2127,7450002012537,登記記録の閉鎖等,0,2025-10-14,2025-10-06,有限会社伊藤造林,,有限会社,北海道,紋別市,大山町４丁目１１番地の６,,01,219,0940021,,,2025-10-06,清算の結了等,,,2015-10-05,1,,,,,イトウゾウリン,0
2130,7480001008657,登記記録の閉鎖等,0,2025-10-14,2025-10-09,株式会社三恵,,株式会社,徳島県,徳島市,佐古七番町１番２４－８号,,36,201,7700027,,,2025-10-09,清算の結了等,,,2015-10-05,1,,,,,サンケイ,0
2134,7500002020195,登記記録の閉鎖等,0,2025-10-14,2025-10-07,有限会社末広工業,,有限会社,愛媛県,今治市,大三島町野々江１１４０番地,,38,202,7941306,,,2025-10-07,清算の結了等,,,2015-10-05,1,,,,,スエヒロコウギョウ,0
2137,8010001115755,登記記録の閉鎖等,0,2025-10-14,2025-09-25,株式会社ガイアインターナショナル,,株式会社,神奈川県,横浜市港北区,日吉本町４丁目２０番１６号,,14,109,2230062,,,2025-09-25,清算の結了等,,,2015-10-05,1,,,,,ガイアインターナショナル,0
2144,8010003010269,登記記録の閉鎖等,0,2025-10-14,2025-10-01,合資会社久ケ原エンタープライズ,,合資会社,東京都,千代田区,富士見２丁目１２番９号,,13,101,1020071,,,2025-10-01,清算の結了等,,,2015-10-05,1,,,,,クガハラエンタープライズ,0
2153,8010401070600,登記記録の閉鎖等,0,2025-10-14,2025-10-01,株式会社トライディション,,株式会社,東京都,港区,赤坂１丁目１番１号,,13,103,1070052,,,2025-10-01,合併による解散等,5010001140054,令和７年１０月１日東京都港区赤坂一丁目１番１号株式会社トライディション（5010001140054）に合併し解散,2015-10-05,1,,,,,トライディション,0
2189,8011001067821,登記記録の閉鎖等,0,2025-10-14,2025-09-25,画期的株式会社,,株式会社,神奈川県,横浜市西区,高島１丁目２番５号横濱ゲートタワー３Ｆ,,14,103,2200011,,,2025-09-25,清算の結了等,,,2015-10-05,1,,,,,カッキテキ,0
2206,8011402004332,登記記録の閉鎖等,0,2025-10-14,2025-10-08,有限会社シグマ,,有限会社,東京都,板橋区,赤塚７丁目１３番２５号,00066066,13,119,1750092,,,2025-10-08,清算の結了等,,,2015-10-05,1,,,,,シグマ,0
2219,8012405000863,登記記録の閉鎖等,0,2025-10-14,2025-10-06,医療法人社団蒼流会,,その他の設立登記法人,東京都,調布市,布田１丁目３５番地３ダイモンビル２階,,13,208,1820024,,,2025-10-06,清算の結了等,,,2015-10-05,1,,,,,シャダンソウリュウカイ,0
2228,8020001159280,登記記録の閉鎖等,0,2025-10-14,2025-09-26,株式会社アイリス,,株式会社,神奈川県,横浜市中区,野毛町３丁目１３３番地１３三幸ビル２０２号室,,14,104,2310064,,,2025-09-26,清算の結了等,,,2024-09-19,1,,,,,アイリス,0
2243,8030001067409,登記記録の閉鎖等,0,2025-10-14,2025-09-30,Ｒ．クラフト株式会社,,株式会社,埼玉県,さいたま市大宮区,吉敷町４丁目９７番４エクセル新都心１０１,,11,103,3300843,,,2025-09-30,清算の結了等,,,2015-10-05,1,,,,,アールクラフト,0
2250,8030005022013,登記記録の閉鎖等,0,2025-10-14,2025-10-03,一般社団法人埼玉県塗装職人協会,,その他の設立登記法人,埼玉県,さいたま市大宮区,仲町２丁目７１番地ソシオ大宮４Ｆ,,11,103,3300845,,,2025-10-03,清算の結了等,,,2025-01-24,1,,,,,サイタマケントソウショクニンキョウカイ,0
2278,8080002016392,登記記録の閉鎖等,0,2025-10-14,2025-09-30,有限会社ヤマコ小山商店,,有限会社,静岡県,焼津市,塩津８３番地の４,,22,212,4250085,,,2025-09-30,清算の結了等,,,2015-10-05,1,,,,,ヤマココヤマショウテン,0
2291,8100001035044,登記記録の閉鎖等,0,2025-10-14,2025-10-07,株式会社ひなた,,株式会社,長野県,東筑摩郡朝日村,大字西洗馬７６７番地,,20,451,3901101,,,2025-10-07,清算の結了等,,,2022-02-04,1,,,,,ヒナタ,0
2300,8110002000797,登記記録の閉鎖等,0,2025-10-14,2025-10-02,有限会社いずもや遠藤呉服店,,有限会社,新潟県,新潟市中央区,関屋大川前１丁目１０番２１号,,15,103,9518142,,,2025-10-02,清算の結了等,,,2015-10-05,1,,,,,イズモヤエンドウゴフクテン,0
2303,8120001118549,登記記録の閉鎖等,0,2025-10-14,2025-10-02,株式会社ロード,,株式会社,兵庫県,芦屋市,三条南町１３番１７号,,28,206,6590086,,,2025-10-02,清算の結了等,,,2015-10-05,1,,,,,ロード,0
2323,8120002019176,登記記録の閉鎖等,0,2025-10-14,2025-09-30,有限会社古川商事,,有限会社,大阪府,大阪市福島区,福島７丁目１３番７号,,27,103,5530003,,,2025-09-30,清算の結了等,,,2015-10-05,1,,,,,フルカワショウジ,0
2325,8120002048613,登記記録の閉鎖等,0,2025-10-14,2025-10-06,アパリアルエステート株式会社,,株式会社,東京都,港区,赤坂３丁目２番３号,,13,103,1070052,,,2025-10-06,合併による解散等,3220001008158,令和７年１０月１日石川県金沢市大和町１番５号アパホーム株式会社（3220001008158）に合併し解散,2015-10-05,1,,,,,アパリアルエステート,0
2329,8120901006803,登記記録の閉鎖等,0,2025-10-14,2025-09-29,株式会社芝田商会,,株式会社,大阪府,吹田市,芳野町５番７０号,,27,205,5640054,,,2025-09-29,清算の結了等,,,2015-10-05,1,,,,,シバタショウカイ,0
2345,8140001114819,登記記録の閉鎖等,0,2025-10-14,2025-10-01,こやまファーマシー株式会社,,株式会社,兵庫県,尼崎市,御園町２４番地尼崎第一ビル４０２号,,28,202,6600861,,,2025-10-01,合併による解散等,6140001114820,令和７年１０月１日兵庫県尼崎市御園町２４番地尼崎第一ビル４０２号クリエイトシェアードサービス株式会社（6140001114820）に合併し解散,2019-09-04,1,,,,,コヤマファーマシー,0
2346,8140001119058,登記記録の閉鎖等,0,2025-10-14,2025-10-01,株式会社ＹＴクリエイト,,株式会社,兵庫県,神戸市東灘区,御影郡家２丁目１５番１４号ブリリアンスビルアネックス４階,,28,101,6580048,,,2025-10-01,合併による解散等,4140001073597,令和７年１０月１日神戸市東灘区御影郡家二丁目１５番１４号ブリリアンスビルアネックス４階株式会社ＷＥＬＬＢＥＩＮＧ（4140001073597）に合併し解散,2020-10-09,1,,,,,ワイティクリエイト,0
2347,8140001125089,登記記録の閉鎖等,0,2025-10-14,2025-10-02,株式会社環幸,,株式会社,兵庫県,神戸市灘区,烏帽子町３丁目１番２３－２０３号,,28,102,6570042,,,2025-10-02,清算の結了等,,,2022-03-03,1,,,,,カンコウ,0
2352,8140002007369,登記記録の閉鎖等,0,2025-10-14,2025-10-06,有限会社エム・エヌ・エス,,有限会社,兵庫県,神戸市須磨区,南落合１丁目７番３３号,,28,107,6540153,,,2025-10-06,清算の結了等,,,2015-10-05,1,,,,,エムエヌエス,0
2355,8150001015314,登記記録の閉鎖等,0,2025-10-14,2025-10-08,株式会社アッシュ土地建物,,株式会社,奈良県,北葛城郡河合町,高塚台１丁目１１番地７,,29,427,6360071,,,2025-10-08,合併による解散等,1010401159689,令和７年９月１日東京都千代田区神田三崎町二丁目２番１４号ＢＲＩＣＫＧＡＴＥ水道橋２ＦＯｕｒ　Ｃａｒｅ株式会社（1010401159689）に合併し解散,2015-10-05,1,,,,,アッシュトチタテモノ,0
2365,8180001030079,登記記録の閉鎖等,0,2025-10-14,2025-09-26,株式会社グリーンイーゼ,,株式会社,愛知県,名古屋市千種区,朝岡町３丁目６１番地,,23,101,4640811,,,2025-09-26,清算の結了等,,,2015-10-05,1,,,,,グリーンイーゼ,0
2370,8180002060158,登記記録の閉鎖等,0,2025-10-14,2025-09-30,有限会社ミシェルケーキ,,有限会社,愛知県,名古屋市昭和区,阿由知通５丁目１８番地,,23,107,4660027,,,2025-09-30,清算の結了等,,,2015-10-05,1,,,,,ミシェルケーキ,0
2377,8200001017189,登記記録の閉鎖等,0,2025-10-14,2025-10-01,タンドール製菓株式会社,,株式会社,岐阜県,美濃加茂市,あじさいヶ丘１丁目７番地,,21,211,5050029,,,2025-10-01,合併による解散等,8200001017338,令和７年１０月１日岐阜県美濃加茂市あじさいヶ丘一丁目７番地若尾製菓株式会社（8200001017338）に合併し解散,2015-10-05,1,,,,,タンドールセイカ,0
2380,8200005012995,登記記録の閉鎖等,0,2025-10-14,2025-10-02,ＪＣＳ日本企業支援協同組合,,その他の設立登記法人,岐阜県,岐阜市,日置江２６４８番地の２,,21,201,5016133,,,2025-10-02,清算の結了等,,,2019-11-15,1,,,,,ジェーシーエスニホンキギョウシエン,0
2402,8290002055279,登記記録の閉鎖等,0,2025-10-14,2025-09-25,サンライトコーポレーション有限会社,,有限会社,福岡県,大牟田市,新栄町１番地３,,40,202,8360041,,,2025-09-25,清算の結了等,,,2015-10-05,1,,,,,サンライトコーポレーション,0
2405,8330002023974,登記記録の閉鎖等,0,2025-10-14,2025-10-01,有限会社ムサシ工業,,有限会社,熊本県,宇城市,松橋町内田３３０番地の１,,43,213,8690522,,,2025-10-01,清算の結了等,,,2015-10-05,1,,,,,ムサシコウギョウ,0
2412,8360001013651,登記記録の閉鎖等,0,2025-10-14,2025-10-07,沖縄大洋株式会社,,株式会社,沖縄県,那覇市,泊１丁目１４‐３,,47,201,9000012,,,2025-10-07,清算の結了等,,,2015-10-05,1,,,,,,0
2427,8420001008926,登記記録の閉鎖等,0,2025-10-14,2025-06-04,株式会社シーエスサポート,,株式会社,青森県,弘前市,大字和泉１丁目３番地の１,,02,202,0368053,,,2025-06-04,合併による解散等,8420001009115,令和７年３月２７日青森県弘前市大字和泉一丁目３番地の１株式会社オートコム（8420001009115）に合併し解散,2015-10-05,1,,,,,オートコム,0
2442,9010001053558,登記記録の閉鎖等,0,2025-10-14,2025-10-07,日東紡エコロジー株式会社,,株式会社,東京都,千代田区,麹町２丁目４番地１,,13,101,1020083,,,2025-10-07,合併による解散等,4380001001138,令和７年１０月１日福島市郷野目字東１番地日東紡アライドサービス株式会社（4380001001138）に合併し解散,2015-10-05,1,,,,,ニットウボウエコロジー,0
2447,9010001108312,登記記録の閉鎖等,0,2025-10-14,2025-09-22,株式会社ワイ・ケー企画,,株式会社,東京都,文京区,根津１丁目１番１７号ＮＫビル,,13,105,1130031,,,2025-09-22,清算の結了等,,,2015-10-05,1,,,,,ワイケーキカク,0
2456,9010001199095,登記記録の閉鎖等,0,2025-10-14,2025-09-16,湯快リゾート株式会社,,株式会社,京都府,京都市下京区,五条通河原町西入本覚寺前町８３０,,26,106,6008102,,,2025-09-16,合併による解散等,4010001188219,令和７年９月１日東京都中央区銀座七丁目１６番２１号大江戸温泉物語ホテルズ＆リゾーツ株式会社（4010001188219）に合併し解散,2019-03-07,1,,,,,,0
2464,9010003031157,登記記録の閉鎖等,0,2025-10-14,2025-10-01,合同会社ＫＯＮＯＥ,,合同会社,東京都,中央区,銀座１丁目２２番１１号銀座大竹ビジデンス２階,,13,102,1040061,,,2025-10-01,清算の結了等,,,2019-12-03,1,,,,,コノエ,0
2465,9010003031454,登記記録の閉鎖等,0,2025-10-14,2025-09-29,合同会社ＣＬＦ１,,合同会社,東京都,中央区,日本橋１丁目４番１号日本橋一丁目ビルディング,,13,102,1030027,,,2025-09-29,清算の結了等,,,2020-01-17,1,,,,,シーエルエフワン,0
2502,9011101101470,登記記録の閉鎖等,0,2025-10-14,2025-09-09,足つぼ睡眠研究所株式会社,,株式会社,東京都,新宿区,西新宿７丁目１８番１２号新都心ビル６０２,,13,104,1600023,,,2025-09-09,清算の結了等,,,2023-01-13,1,,,,,アシツボスイミンケンキュウジョ,0
2505,9011103004250,登記記録の閉鎖等,0,2025-10-14,2025-09-05,合同会社ＫＮＣＭ　Ａｄｖｉｓｏｒｙ,,合同会社,東京都,新宿区,南元町４番地１７－６１２,,13,104,1600012,,,2025-09-05,清算の結了等,,,2015-10-05,1,,,,,ケーエヌシーエムアドバイザリー,0
2510,9011501001519,登記記録の閉鎖等,0,2025-10-14,2025-10-06,株式会社国際フーズ,,株式会社,東京都,板橋区,大山西町５８番１１号,,13,119,1730033,,,2025-10-06,清算の結了等,,,2015-10-05,1,,,,,コクサイフーズ,0
2532,9020005010661,登記記録の閉鎖等,0,2025-10-14,2025-09-03,特定非営利活動法人婦人科腫瘍の緩和医療を考える会,,その他の設立登記法人,東京都,新宿区,新宿１丁目２４番７－９２０号,,13,104,1600022,,,2025-09-03,清算の結了等,,,2015-10-05,1,,,,,フジンカシュヨウノカンワイリョウヲカンガエルカイ,0
2544,9030002095416,登記記録の閉鎖等,0,2025-10-14,2025-10-02,有限会社Ｋ．Ｍ　ＣＯＡＴＩＮＧ,,有限会社,埼玉県,坂戸市,関間４丁目１２番１２ー１４１２号ファーストレジデンス若葉,,11,239,3500215,,,2025-10-02,清算の結了等,,,2015-10-05,1,,,,,ケーエムコーティング,0
2551,9040001119620,登記記録の閉鎖等,0,2025-10-14,2025-09-01,株式会社Ｇｉｖｅｒｅｄｇｅ,,株式会社,千葉県,柏市,東中新宿４丁目４番１８号２０１,,12,217,2770061,,,2025-09-01,清算の結了等,,,2021-08-13,1,,,,,ギバーエッジ,0
2558,9060001010868,登記記録の閉鎖等,0,2025-10-14,2025-10-03,株式会社テクノナカニシ,,株式会社,栃木県,鹿沼市,茂呂２６１４番地１,,09,205,3220026,,,2025-10-03,清算の結了等,,,2015-10-05,1,,,,,テクノナカニシ,0
2560,9060002032977,登記記録の閉鎖等,0,2025-10-14,2025-10-06,有限会社鈴木製作所,,有限会社,栃木県,栃木市,大平町西水代１８７７番地２,,09,203,3294423,,,2025-10-06,清算の結了等,,,2015-10-05,1,,,,,スズキセイサクショ,0
2568,9080002013835,登記記録の閉鎖等,0,2025-10-14,2025-10-06,有限会社肉のはつかの,,有限会社,静岡県,島田市,本通４丁目１番の１２,,22,209,4270022,,,2025-10-06,清算の結了等,,,2015-10-05,1,,,,,ニクノハツカノ,0
2569,9080101012928,登記記録の閉鎖等,0,2025-10-14,2025-10-07,わかなや製菓株式会社,,株式会社,静岡県,熱海市,中央町３番３号,,22,205,4130015,,,2025-10-07,清算の結了等,,,2015-10-05,1,,,,,ワカナヤセイカ,0
2570,9080102013652,登記記録の閉鎖等,0,2025-10-14,2025-10-07,有限会社カタオカ,,有限会社,静岡県,富士市,久沢１４０８番地の４,,22,210,4190202,,,2025-10-07,清算の結了等,,,2015-10-05,1,,,,,カタオカ,0
2571,9080401000558,登記記録の閉鎖等,0,2025-10-14,2025-10-02,井上電器株式会社,,株式会社,静岡県,浜松市中央区,中央２丁目９番１１号,,22,138,4300929,,,2025-10-02,清算の結了等,,,2015-10-05,1,,,,,イノウエデンキ,0
2603,9130001056202,登記記録の閉鎖等,0,2025-10-14,2025-10-08,株式会社サンワケアサポート,,株式会社,京都府,京都市上京区,笹屋町通千本東入笹屋町３丁目６３５番地,,26,102,6028453,,,2025-10-08,清算の結了等,,,2015-10-20,1,,,,,サンワケアサポート,0
2625,9140002046242,登記記録の閉鎖等,0,2025-10-14,2025-10-06,ＹＧＳ管理株式会社,,株式会社,兵庫県,神戸市中央区,江戸町９６番地ストロングビル８階弁護士法人神戸綜合法律事務所内,,28,110,6500033,,,2025-10-06,清算の結了等,,,2015-10-05,1,,,,,ワイジーエスカンリ,0
2638,9180001160189,登記記録の閉鎖等,0,2025-10-14,2025-10-02,リイフ株式会社,,株式会社,愛知県,一宮市,千秋町浅野羽根字北裏９３２番地アイウイング２０２号,,23,203,4910816,,,2025-10-02,清算の結了等,,,2024-02-20,1,,,,,リイフ,0
2641,9180002018304,登記記録の閉鎖等,0,2025-10-14,2025-09-29,有限会社壽恵広運輸,,有限会社,愛知県,弥富市,鯏浦町中六１８２中山ビル１Ｆ中,,23,235,4980028,,,2025-09-29,清算の結了等,,,2015-10-05,1,,,,,スエヒロウンユ,0
2646,9180301036048,登記記録の閉鎖等,0,2025-10-14,2025-09-19,株式会社ＡＬＬ　ＷＩＮ,,株式会社,愛知県,豊橋市,松葉町１丁目１０５番地,,23,201,4400897,,,2025-09-19,清算の結了等,,,2022-03-30,1,,,,,オールウィン,0
2647,9190001029103,登記記録の閉鎖等,0,2025-10-14,2025-10-03,ＲＥファーム株式会社,,株式会社,三重県,津市,栗真町屋町３３９番地１,,24,201,5140102,,,2025-10-03,清算の結了等,,,2022-02-04,1,,,,,リファーム,0
2648,9200001027815,登記記録の閉鎖等,0,2025-10-14,2025-10-06,株式会社シャンドゥフルール,,株式会社,岐阜県,山県市,中洞１９３番地１,,21,215,5012258,,,2025-10-06,清算の結了等,,,2015-10-05,1,,,,,シャンドゥフルール,0
2652,9220001019819,登記記録の閉鎖等,0,2025-10-14,2025-10-07,株式会社金虎,,株式会社,石川県,金沢市,尾山町４番２８号フォンテーヌ４０３,,17,201,9200918,,,2025-10-07,清算の結了等,,,2015-10-05,1,,,,,キントラ,0
2679,9340003000970,登記記録の閉鎖等,0,2025-10-14,2025-10-01,合資会社吉田海運産業商会,,合資会社,鹿児島県,大島郡瀬戸内町,大字古仁屋字松江２３番地,,46,525,8941505,,,2025-10-01,清算の結了等,,,2015-10-05,1,,,,,ヨシダカイウンサンギョウショウカイ,0
2687,9370201002345,登記記録の閉鎖等,0,2025-10-14,2025-10-08,株式会社田中酒造店,,株式会社,宮城県,加美郡加美町,字西町８８番地の１,,04,445,9814251,,,2025-10-08,合併による解散等,2140001014438,令和７年１０月１日神戸市兵庫区荒田町二丁目１２番９号株式会社山下誠志堂（2140001014438）に合併し解散,2015-10-05,1,,,,,タナカシュゾウテン,0
2701,9490001009132,登記記録の閉鎖等,0,2025-10-14,2025-10-09,株式会社キセン,,株式会社,高知県,高知市,高須新町１丁目１３番３号,,39,201,7818122,,,2025-10-09,清算の結了等,,,2018-11-28,1,,,,,キセン,0
