sequenceNumber,corporateNumber,process,correct,updateDate,changeDate,name,nameImageId,kind,prefectureName,cityName,streetNumber,addressImageId,prefectureCode,cityCode,postCode,addressOutside,addressOutsideImageId,closeDate,closeCause,successorCorporateNumber,changeCause,assignmentDate,latest,enName,enPrefectureName,enCityName,enAddressOutside,furigana,hihyoji
6,1010001229363,新規,0,2022-09-13,2022-09-13,株式会社ニューライフ,,株式会社,東京都,中央区,築地２丁目１５－１５セントラル東銀座６０８号室,,13,102,1040045,,,,,,,2022-09-13,1,,,,,ニューライフ,0
7,1010001229421,新規,0,2022-09-13,2022-09-13,文京デザイン株式会社,,株式会社,東京都,文京区,大塚６丁目２４－１５－１０６号室,,13,105,1120012,,,,,,,2022-09-13,1,,,,,ブンキョウデザイン,0
11,1010005035543,新規,0,2022-09-13,2022-09-13,一般社団法人佃島門徒講,,その他の設立登記法人,東京都,中央区,月島１丁目２番９号,,13,102,1040052,,,,,,,2022-09-13,1,,,,,ツクダジマモントコウ,0
12,1010103001991,新規,0,2022-09-13,2022-09-13,合同会社じひれん,,合同会社,東京都,八王子市,大和田町１丁目２８番１号,,13,201,1920045,,,,,,,2022-09-13,1,,,,,ジヒレン,0
20,1010403028454,新規,0,2022-09-13,2022-09-13,合同会社ＦＵＲＩＸ,,合同会社,東京都,港区,南青山２丁目２番１５号,,13,103,1070062,,,,,,,2022-09-13,1,,,,,フリックス,0
21,1010403028487,新規,0,2022-09-13,2022-09-13,合同会社ＭＫＫＳ,,合同会社,東京都,港区,元赤坂１丁目１番７号,,13,103,1070051,,,,,,,2022-09-13,1,,,,,エムケイケイエス,0
30,1010701043196,新規,0,2022-09-13,2022-09-13,株式会社ＲＯＷＥ,,株式会社,東京都,品川区,小山台１丁目３３番７号エスセナーリオ不動前５０１,,13,109,1420061,,,,,,,2022-09-13,1,,,,,ロウ,0
31,1010701043205,新規,0,2022-09-13,2022-09-13,株式会社ａｌｌ　ｉｎ　ｏｎｅ,,株式会社,東京都,品川区,上大崎１丁目１番１７号,,13,109,1410021,,,,,,,2022-09-13,1,,,,,オールインワン,0
41,1010901051610,新規,0,2022-09-13,2022-09-13,株式会社モテナス,,株式会社,東京都,世田谷区,深沢４丁目１９番７号,,13,112,1580081,,,,,,,2022-09-13,1,,,,,モテナス,0
42,1010901051627,新規,0,2022-09-13,2022-09-13,株式会社ゼロヘッジ,,株式会社,東京都,世田谷区,粕谷２丁目３－２２,,13,112,1570063,,,,,,,2022-09-13,1,,,,,ゼロヘッジ,0
48,1011001149700,新規,0,2022-09-13,2022-09-13,株式会社ｒｏｓｉｅ,,株式会社,東京都,渋谷区,道玄坂１丁目１０番８号渋谷道玄坂東急ビル２Ｆ－Ｃ,,13,113,1500043,,,,,,,2022-09-13,1,,,,,ロージー,0
49,1011001149709,新規,0,2022-09-13,2022-09-13,株式会社ＣＨＡＰＩＣ,,株式会社,東京都,渋谷区,道玄坂１丁目１０番８号渋谷道玄坂東急ビル２Ｆ－Ｃ,,13,113,1500043,,,,,,,2022-09-13,1,,,,,チャピック,0
50,1011001149717,新規,0,2022-09-13,2022-09-13,株式会社Ｆｏｏｄｅａ,,株式会社,東京都,渋谷区,恵比寿南１丁目２番１２号,,13,113,1500022,,,,,,,2022-09-13,1,,,,,フーディア,0
52,1011003015371,新規,0,2022-09-13,2022-09-13,ＥＰＣパブリッシャーズ合同会社,,合同会社,東京都,渋谷区,円山町５番５号Ｎａｖｉ渋谷Ｖ３階,,13,113,1500044,,,,,,,2022-09-13,1,,,,,イーピーシーパブリッシャーズ,0
53,1011005009727,新規,0,2022-09-13,2022-09-13,一般社団法人インターナショナルフレグランスプロデューサー協会,,その他の設立登記法人,東京都,渋谷区,桜丘町３１番１４号ＳＬＡＣＫ－ＳＨＩＢＵＹＡ３０１,,13,113,1500031,,,,,,,2022-09-13,1,,,,,,0
54,1011005009743,新規,0,2022-09-13,2022-09-13,医療法人社団おうちの診療所,,その他の設立登記法人,東京都,目黒区,中根１丁目６番１号ニューヨークコーナー１６１、４Ｂ号室,,13,110,1520031,,,,,,,2022-09-13,1,,,,,オウチノシンリョウジョ,0
62,1011703003254,新規,0,2022-09-13,2022-09-13,アンドケー合同会社,,合同会社,東京都,江戸川区,東葛西８丁目２１番３号,,13,123,1340084,,,,,,,2022-09-13,1,,,,,アンドケー,0
89,1030001150096,新規,0,2022-09-13,2022-09-13,Ｏｌｉｖｅ株式会社,,株式会社,埼玉県,坂戸市,日の出町３１番１４号アンビシャスプラザ坂戸２１２号室,,11,239,3500225,,,,,,,2022-09-13,1,,,,,オリーブ,0
93,1040001125048,新規,0,2022-09-13,2022-09-13,株式会社Ｄｅｃｉｓｉｏｎ,,株式会社,千葉県,船橋市,東船橋４丁目１９番７－１０６号,,12,204,2730002,,,,,,,2022-09-13,1,,,,,デシジョン,0
95,1040003020817,新規,0,2022-09-13,2022-09-13,ＰＯＫＥ合同会社,,合同会社,千葉県,船橋市,湊町２丁目８番４０－５０３号,,12,204,2730011,,,,,,,2022-09-13,1,,,,,ポケ,0
98,1060001035261,新規,0,2022-09-13,2022-09-13,株式会社エヌアイシー,,株式会社,栃木県,足利市,利保町１丁目１２番地１１（２Ｆ）,,09,202,3260006,,,,,,,2022-09-13,1,,,,,エヌアイシー,0
112,1080103002645,新規,0,2022-09-13,2022-09-13,合同会社ＲＩＹＵ　ＬＡＮＫＡ　ＩＮＴＥＲＮＡＴＩＯＮＡＬ,,合同会社,静岡県,富士宮市,杉田１２８３番地の４,,22,207,4180021,,,,,,,2022-09-13,1,,,,,リユランカインターナショナル,0
114,1080401026040,新規,0,2022-09-13,2022-09-13,ＬＳ　Ｐｅａｒｌ株式会社,,株式会社,静岡県,掛川市,宮脇９４２－１オギノビル１０７号室,,22,213,4360086,,,,,,,2022-09-13,1,,,,,エルエスパール,0
128,1120001248773,新規,0,2022-09-13,2022-09-13,株式会社ＳＨＩＲＯＭＡＲＵ　ＣＯＭＰＡＮＹ,,株式会社,大阪府,大阪市中央区,北久宝寺町２丁目６番１－６０４号,,27,128,5410057,,,,,,,2022-09-13,1,,,,,シロマルカンパニー,0
129,1120001248781,新規,0,2022-09-13,2022-09-13,株式会社ミライ,,株式会社,大阪府,大阪市住之江区,粉浜３丁目３番４号,,27,125,5590001,,,,,,,2022-09-13,1,,,,,ミライ,0
130,1120001248815,新規,0,2022-09-13,2022-09-13,謙徳株式会社,,株式会社,大阪府,大阪市都島区,中野町４丁目１１番６号中上ハイツ３０２号,,27,102,5340027,,,,,,,2022-09-13,1,,,,,ケントク,0
132,1120005023181,新規,0,2022-09-13,2022-09-13,一般財団法人新東洋哲学喜雲研究所,,その他の設立登記法人,大阪府,枚方市,楠葉美咲２丁目５番３２号,,27,210,5731112,,,,,,,2022-09-13,1,,,,,シントウヨウテツガクキウンケンキュウショ,0
141,1130001072603,新規,0,2022-09-13,2022-09-13,サムライリクルーティング株式会社,,株式会社,京都府,京田辺市,飯岡小山１０２番地２,,26,211,6100312,,,,,,,2022-09-13,1,,,,,サムライリクルーティング,0
148,1140003018124,新規,0,2022-09-13,2022-09-13,合同会社ことぶき,,合同会社,兵庫県,明石市,東仲ノ町６－１－１１４アスピア明石北館１Ｆ,,28,203,6730886,,,,,,,2022-09-13,1,,,,,コトブキ,0
158,1180001152986,新規,0,2022-09-13,2022-09-13,株式会社ヒューマンネクサス,,株式会社,愛知県,一宮市,三条字通東８０－６オーシマビル２Ｆ,,23,203,4940003,,,,,,,2022-09-13,1,,,,,ヒューマンネクサス,0
159,1180001153002,新規,0,2022-09-13,2022-09-13,株式会社オーバーチュア,,株式会社,愛知県,名古屋市中区,錦３丁目７番１号,,23,106,4600003,,,,,,,2022-09-13,1,,,,,オーバーチュア,0
161,1180003024234,新規,0,2022-09-13,2022-09-13,越新合同会社,,合同会社,愛知県,名古屋市中区,大須２丁目２１番２０号１階,,23,106,4600011,,,,,,,2022-09-13,1,,,,,エツシン,0
166,1190003004086,新規,0,2022-09-13,2022-09-13,合同会社大康,,合同会社,三重県,伊勢市,二俣１丁目１３番４号,,24,203,5160064,,,,,,,2022-09-13,1,,,,,タイコウ,0
168,1200001040445,新規,0,2022-09-13,2022-09-13,ＤＡＮＧ　ＴＵＡＮ株式会社,,株式会社,岐阜県,岐阜市,茜部大野１丁目１０２番地１トリス岐阜２０１号室,,21,201,5008261,,,,,,,2022-09-13,1,,,,,ダントゥアン,0
172,1220005008701,新規,0,2022-09-13,2022-09-13,行政書士法人我妻事務所,,その他の設立登記法人,石川県,小松市,向本折町イ３番地１,,17,203,9230961,,,,,,,2022-09-13,1,,,,,ワガツマジムショ,0
179,1240001060365,新規,0,2022-09-13,2022-09-13,株式会社ナイン,,株式会社,広島県,広島市安佐南区,伴西４丁目１９番６号,,34,105,7313169,,,,,,,2022-09-13,1,,,,,ナイン,0
182,1250001019765,新規,0,2022-09-13,2022-09-13,デコロ株式会社,,株式会社,山口県,岩国市,岩国１丁目２２番２４号,,35,208,7410062,,,,,,,2022-09-13,1,,,,,デコロ,0
192,1290001098913,新規,0,2022-09-13,2022-09-13,株式会社ＯｖｅｒＨａｕｌ,,株式会社,福岡県,小郡市,あすみ２丁目１番地３,,40,216,8380109,,,,,,,2022-09-13,1,,,,,オーバーホール,0
194,1290003012946,新規,0,2022-09-13,2022-09-13,合同会社はちの白てぶくろ,,合同会社,福岡県,福岡市中央区,春吉２丁目１６番１５－７０２号東峰マンション渡辺通り,,40,133,8100003,,,,,,,2022-09-13,1,,,,,ハチノシロテブクロ,0
195,1290801028887,新規,0,2022-09-13,2022-09-13,株式会社ＳＴ,,株式会社,福岡県,北九州市八幡東区,春の町２丁目８番７号,,40,108,8050050,,,,,,,2022-09-13,1,,,,,エスティー,0
199,1330005010563,新規,0,2022-09-13,2022-09-13,医療法人春陽会,,その他の設立登記法人,熊本県,人吉市,中青井町３０９番地５,,43,203,8680008,,,,,,,2022-09-13,1,,,,,シュンヨウカイ,0
203,1360001030983,新規,0,2022-09-13,2022-09-13,株式会社知行合一,,株式会社,沖縄県,那覇市,前島３丁目２５番２号泊ポートビル１Ｆ,,47,201,9000016,,,,,,,2022-09-13,1,,,,,チコウゴウイツ,0
205,1370001049016,新規,0,2022-09-13,2022-09-13,株式会社ＣＯＹＥＮ,,株式会社,宮城県,仙台市青葉区,上杉３丁目９番５０―３０３号,,04,101,9800011,,,,,,,2022-09-13,1,,,,,コーエン,0
207,1390003001996,新規,0,2022-09-13,2022-09-13,合同会社ハセガワ,,合同会社,山形県,酒田市,末広町２１番２０号,,06,204,9980854,,,,,,,2022-09-13,1,,,,,ハセガワ,0
214,1430001087471,新規,0,2022-09-13,2022-09-13,株式会社ｆａｏｎ,,株式会社,北海道,札幌市中央区,南三条西８丁目７番地,,01,101,0600063,,,,,,,2022-09-13,1,,,,,ファン,0
217,1430005014546,新規,0,2022-09-13,2022-09-13,医療法人社団スマイル会,,その他の設立登記法人,北海道,札幌市西区,西町北２０丁目２番１２号ＳＲ宮の沢メディカルＩＩビル２階,00127827,01,107,0630061,,,,,,,2022-09-13,1,,,,,スマイルカイ,0
220,1490001010287,新規,0,2022-09-13,2022-09-13,入交生命工学第２株式会社,,株式会社,高知県,高知市,仁井田４５６３番地１,,39,201,7810112,,,,,,,2022-09-13,1,,,,,イリマジリセイメイコウガクダイニ,0
237,2010001229255,新規,0,2022-09-13,2022-09-13,株式会社３６０,,株式会社,東京都,千代田区,神田神保町１丁目１４番地１ＫＤＸ神保町ビル,,13,101,1010051,,,,,,,2022-09-13,1,,,,,サンロクマル,0
238,2010001229321,新規,0,2022-09-13,2022-09-13,株式会社ＣＨＥＥＳＥ,,株式会社,東京都,中央区,明石町６－２３築地明石町デュープレックスリズ５０２,,13,102,1040044,,,,,,,2022-09-13,1,,,,,,0
239,2010001229412,新規,0,2022-09-13,2022-09-13,株式会社Ａｎｉｍａｔｏ　ｔｅｃｈｎｏ,,株式会社,東京都,中央区,日本橋２丁目２番３号ＲＩＳＨＥビルＵＣＦ４階,,13,102,1030027,,,,,,,2022-09-13,1,,,,,アニマートテクノ,0
240,2010001229486,新規,0,2022-09-13,2022-09-13,株式会社ＡＲＥＴＥＣＯ　ＭＡＲＫＥＴＩＮＧ　ＦＩＲＭ,,株式会社,東京都,文京区,本郷２丁目４０番１７号２階,,13,105,1130033,,,,,,,2022-09-13,1,,,,,アレテコマーケティングファーム,0
241,2010001229494,新規,0,2022-09-13,2022-09-13,株式会社東町リゾート,,株式会社,東京都,中央区,銀座１丁目６番１１号土志田ビルディング３Ｆ,,13,102,1040061,,,,,,,2022-09-13,1,,,,,ヒガシマチリゾート,0
242,2010003038638,新規,0,2022-09-13,2022-09-13,合同会社ＤＲＳ,,合同会社,東京都,千代田区,大手町１丁目１番１号,,13,101,1000004,,,,,,,2022-09-13,1,,,,,,0
243,2010003038646,新規,0,2022-09-13,2022-09-13,クイントエース合同会社,,合同会社,東京都,中央区,銀座１丁目２２番１１号銀座大竹ビジデンス２階,,13,102,1040061,,,,,,,2022-09-13,1,,,,,クイントエース,0
254,2010403028486,新規,0,2022-09-13,2022-09-13,Ｄｉａｍｏｎｄ　Ｊｏｂｓ合同会社,,合同会社,東京都,港区,南麻布２丁目１５－５,,13,103,1060047,,,,,,,2022-09-13,1,,,,,ダイヤモンドジョブズ,0
257,2010501049351,新規,0,2022-09-13,2022-09-13,ウェルネスクラブ株式会社,,株式会社,東京都,台東区,浅草２丁目２８番２５号ＴＡＩビル７０１,,13,106,1110032,,,,,,,2022-09-13,1,,,,,ウェルネスクラブ,0
259,2010601061842,新規,0,2022-09-13,2022-09-13,株式会社ミステリーピクチャーズ,,株式会社,東京都,江東区,東砂３丁目１６番７号６０９号室,,13,108,1360074,,,,,,,2022-09-13,1,,,,,ミステリーピクチャーズ,0
264,2010705003419,新規,0,2022-09-13,2022-09-13,医療法人社団慶信会,,その他の設立登記法人,東京都,品川区,東五反田２丁目１番２号五反田東急スクエア８階,,13,109,1410022,,,,,,,2022-09-13,1,,,,,ケイシンカイ,0
277,2011001149716,新規,0,2022-09-13,2022-09-13,宥昶株式会社,,株式会社,東京都,渋谷区,本町３丁目４９－１５トップ・ルーム新宿公園第２，５１０室,,13,113,1510071,,,,,,,2022-09-13,1,,,,,ユウチョウ,0
281,2011003015370,新規,0,2022-09-13,2022-09-13,合同会社ＨＭＣ,,合同会社,東京都,渋谷区,神宮前２丁目３０番８号エイティ神宮前４０３,,13,113,1500001,,,,,,,2022-09-13,1,,,,,エイチエムシー,0
285,2011101100149,新規,0,2022-09-13,2022-09-13,株式会社プラスワン,,株式会社,東京都,新宿区,北新宿１丁目８番２１号鴨石ビル５階,,13,104,1690074,,,,,,,2022-09-13,1,,,,,プラスワン,0
286,2011101100173,新規,0,2022-09-13,2022-09-13,株式会社ＫＡＮＯ,,株式会社,東京都,新宿区,袋町５番地１ＦＡＲＯ神楽坂１階,,13,104,1620828,,,,,,,2022-09-13,1,,,,,カノ,0
287,2011103012086,新規,0,2022-09-13,2022-09-13,合同会社ＮＯ　ＮＡＭＥＳ,,合同会社,東京都,新宿区,筑土八幡町５番１３号フォレストコートＤＭ２０２,,13,104,1620815,,,,,,,2022-09-13,1,,,,,ノーネイムス,0
292,2011501028469,新規,0,2022-09-13,2022-09-13,ＧＷ　Ｄｉｇｉｔａｌ　Ｅｎｔｅｒｔａｉｎｍｅｎｔ株式会社,,株式会社,東京都,荒川区,南千住３丁目２７－２浅草ビルＪ号室,,13,118,1160003,,,,,,,2022-09-13,1,,,,,ジーダブリューデジタルエンターテインメント,0
302,2012401039639,新規,0,2022-09-13,2022-09-13,Ｆｏｔｏｎａ　Ｊａｐａｎ株式会社,,株式会社,東京都,武蔵野市,吉祥寺東町２丁目１３番１０号,,13,203,1800002,,,,,,,2022-09-13,1,,,,,フォトナジャパン,0
306,2012403005580,新規,0,2022-09-13,2022-09-13,キャメルウィング合同会社,,合同会社,東京都,府中市,宮町２丁目２番４号－３０３,,13,206,1830023,,,,,,,2022-09-13,1,,,,,キャメルウィング,0
307,2012405004787,新規,0,2022-09-13,2022-09-13,医療法人社団貴歯会,,その他の設立登記法人,東京都,府中市,府中町１丁目２１番地の２Ｋ＆Ｙマンション１０１,,13,206,1830055,,,,,,,2022-09-13,1,,,,,キシカイ,0
324,2020003022376,新規,0,2022-09-13,2022-09-13,ＡＤＡＣ合同会社,,合同会社,神奈川県,川崎市川崎区,大師河原１丁目１－１３－６０３,,14,131,2100811,,,,,,,2022-09-13,1,,,,,アダック,0
327,2021001076991,新規,0,2022-09-13,2022-09-13,株式会社藤栄,,株式会社,神奈川県,相模原市中央区,上溝１丁目８番２号,,14,152,2520243,,,,,,,2022-09-13,1,,,,,トウエイ,0
329,2021003012136,新規,0,2022-09-13,2022-09-13,ＳＭＩＬＥミニット合同会社,,合同会社,神奈川県,相模原市緑区,根小屋９０３番地４,,14,151,2520153,,,,,,,2022-09-13,1,,,,,スマイルミニット,0
334,2030001150079,新規,0,2022-09-13,2022-09-13,株式会社ＩＤＥＡＬ,,株式会社,埼玉県,戸田市,本町３丁目８－５リオグランデＷＥＳＴ１０２,,11,224,3350023,,,,,,,2022-09-13,1,,,,,イデアル,0
335,2030001150087,新規,0,2022-09-13,2022-09-13,株式会社サトビー,,株式会社,埼玉県,入間郡越生町,大字上谷２６６番地３,,11,327,3500407,,,,,,,2022-09-13,1,,,,,サトビー,0
336,2030001150095,新規,0,2022-09-13,2022-09-13,株式会社吉ずみ,,株式会社,埼玉県,日高市,大字中沢１２８番地６,,11,242,3501226,,,,,,,2022-09-13,1,,,,,ヨシズミ,0
339,2030003020197,新規,0,2022-09-13,2022-09-13,合同会社フロントマネジメントシステム,,合同会社,埼玉県,所沢市,大字亀ケ谷１３０番地の２クレセントコーポＡ－１０２,,11,208,3590014,,,,,,,2022-09-13,1,,,,,フロントマネジメントシステム,0
351,2050003006839,新規,0,2022-09-13,2022-09-13,合同会社オステンヴェール,,合同会社,茨城県,つくば市,古館１４０番地,,08,220,3050866,,,,,,,2022-09-13,1,,,,,オステンヴェール,0
359,2070001039632,新規,0,2022-09-13,2022-09-13,大和会館株式会社,,株式会社,群馬県,吾妻郡草津町,大字草津２２６番地５,,10,426,3771711,,,,,,,2022-09-13,1,,,,,ダイワカイカン,0
360,2080003002868,新規,0,2022-09-13,2022-09-13,合同会社旬菜,,合同会社,静岡県,静岡市清水区,小河内１８６９番地,,22,103,4240302,,,,,,,2022-09-13,1,,,,,シュンサイ,0
365,2110001036963,新規,0,2022-09-13,2022-09-13,美えふぴー株式会社,,株式会社,新潟県,上越市,北城町３丁目１４－２６,,15,222,9430824,,,,,,,2022-09-13,1,,,,,ビーエフピー,0
377,2120001248772,新規,0,2022-09-13,2022-09-13,株式会社エスネクスト,,株式会社,大阪府,大阪市西区,西本町１丁目８番２号三晃ビル,,27,106,5500005,,,,,,,2022-09-13,1,,,,,エスネクスト,0
378,2120001248814,新規,0,2022-09-13,2022-09-13,Ｍｒ’ｓ　ａｏｔｏｏ株式会社,,株式会社,大阪府,大阪市天王寺区,空清町４－１１杉野ビル本館１０５号室,,27,109,5430018,,,,,,,2022-09-13,1,,,,,ミスターズアオトゥー,0
381,2120003022449,新規,0,2022-09-13,2022-09-13,合同会社ＭＹＢ,,合同会社,大阪府,大阪市北区,東天満２丁目９番４号千代田ビル東館２０６号室,,27,127,5300044,,,,,,,2022-09-13,1,,,,,エムワイビー,0
405,2140003018123,新規,0,2022-09-13,2022-09-13,合同会社兵庫経営支援センター,,合同会社,兵庫県,神戸市中央区,山本通４丁目２２番２５号,,28,110,6500003,,,,,,,2022-09-13,1,,,,,ヒョウゴケイエイシエンセンター,0
412,2180001153026,新規,0,2022-09-13,2022-09-13,ＣｙｂｅｒＧａｔｅＳｅｃｕｒｉｔｙ株式会社,,株式会社,愛知県,名古屋市西区,花の木３丁目１３番１８号浄心浅野ビル２階,,23,104,4510062,,,,,,,2022-09-13,1,,,,,サイバーゲートセキュリティ,0
420,2190003004085,新規,0,2022-09-13,2022-09-13,合同会社はないろ,,合同会社,三重県,松阪市,山室町３２０５‐１,,24,204,5150052,,,,,,,2022-09-13,1,,,,,ハナイロ,0
428,2200001040444,新規,0,2022-09-13,2022-09-13,株式会社ベリーベリー,,株式会社,岐阜県,羽島郡岐南町,八剣北６丁目４１番地,,21,302,5016011,,,,,,,2022-09-13,1,,,,,ベリーベリー,0
434,2240003005805,新規,0,2022-09-13,2022-09-13,合同会社ワイ・エス・エフ,,合同会社,広島県,広島市西区,三滝本町１丁目９－３２コスモ三滝本町９０１,,34,104,7330802,,,,,,,2022-09-13,1,,,,,ワイエスエフ,0
435,2250003003147,新規,0,2022-09-13,2022-09-13,合同会社ヤマモト,,合同会社,山口県,岩国市,川西１丁目２２番２８号,,35,208,7410082,,,,,,,2022-09-13,1,,,,,ヤマモト,0
439,2290001098879,新規,0,2022-09-13,2022-09-13,株式会社明桜警備,,株式会社,福岡県,糟屋郡篠栗町,大字尾仲１１４５番地グリーンコーポＩＩ－２０１号,00127835,40,342,8112413,,,,,,,2022-09-13,1,,,,,メイオウケイビ,0
446,2330005010562,新規,0,2022-09-13,2022-09-13,一般社団法人ハンズハンズくまもと,,その他の設立登記法人,熊本県,上益城郡嘉島町,大字上仲間８４７番地２,,43,442,8613107,,,,,,,2022-09-13,1,,,,,ハンズハンズクマモト,0
449,2350001017956,新規,0,2022-09-13,2022-09-13,株式会社平田工業,,株式会社,宮崎県,宮崎市,橘通西３丁目１０番３２号宮崎ナナイロ東館８階ＡＴＯＭｉｃａ内,,45,201,8800001,,,,,,,2022-09-13,1,,,,,ヒラタコウギョウ,0
451,2360001030974,新規,0,2022-09-13,2022-09-13,株式会社インフィニティオキナワ,,株式会社,沖縄県,うるま市,字江洲５３６番地９,,47,213,9042244,,,,,,,2022-09-13,1,,,,,インフィニティオキナワ,0
452,2360003012310,新規,0,2022-09-13,2022-09-13,合同会社ＳＩＭ企画,,合同会社,沖縄県,那覇市,真嘉比３丁目２番４３号アクセスまかび２０２号,,47,201,9020068,,,,,,,2022-09-13,1,,,,,シムキカク,0
456,2390003001995,新規,0,2022-09-13,2022-09-13,合同会社永井事務所,,合同会社,山形県,山形市,上町３丁目１１番１１号,,06,201,9902483,,,,,,,2022-09-13,1,,,,,ナガイジムショ,0
461,2430001087446,新規,0,2022-09-13,2022-09-13,株式会社エムアイエス,,株式会社,北海道,札幌市北区,北七条西４丁目１番地１－８０１,,01,102,0600807,,,,,,,2022-09-13,1,,,,,エムアイエス,0
462,2430001087479,新規,0,2022-09-13,2022-09-13,株式会社ｍｏｓｔ‐ｉ,,株式会社,北海道,札幌市白石区,菊水元町五条２丁目２番４－３０２号,,01,104,0030825,,,,,,,2022-09-13,1,,,,,モストアイ,0
466,2440001009151,新規,0,2022-09-13,2022-09-13,蓮ｊｉｎ興業株式会社,,株式会社,北海道,函館市,鱒川町６３番地８,,01,202,0420907,,,,,,,2022-09-13,1,,,,,レンジンコウギョウ,0
477,3010001229444,新規,0,2022-09-13,2022-09-13,株式会社トライズリンクス,,株式会社,東京都,千代田区,神田松永町７番地ヤマリビル６０２,,13,101,1010023,,,,,,,2022-09-13,1,,,,,トライズリンクス,0
482,3010401169661,新規,0,2022-09-13,2022-09-13,株式会社エムワン,,株式会社,東京都,港区,芝公園１丁目８番１３号源流院ビル５階,,13,103,1050011,,,,,,,2022-09-13,1,,,,,エムワン,0
483,3010401169744,新規,0,2022-09-13,2022-09-13,株式会社わたげ,,株式会社,東京都,港区,浜松町２丁目２番１５号浜松町ダイヤビル２Ｆ,,13,103,1050013,,,,,,,2022-09-13,1,,,,,ワタゲ,0
484,3010403028337,新規,0,2022-09-13,2022-09-13,ファミリア合同会社,,合同会社,東京都,港区,白金３丁目１番１３号日恵ビル２階,,13,103,1080072,,,,,,,2022-09-13,1,,,,,ファミリア,0
486,3010405021389,新規,0,2022-09-13,2022-09-13,一般社団法人Ｓ３Ｗ３,,その他の設立登記法人,東京都,港区,元赤坂１丁目１番８号赤坂コミュニティビル４階,,13,103,1070051,,,,,,,2022-09-13,1,,,,,エスサンダブリューサン,0
490,3010501049342,新規,0,2022-09-13,2022-09-13,新生製薬株式会社,,株式会社,東京都,台東区,上野７丁目７－１１伸栄ビル６０２号室,,13,106,1100005,,,,,,,2022-09-13,1,,,,,シンセイセイヤク,0
491,3010603009731,新規,0,2022-09-13,2022-09-13,スリーウェイ合同会社,,合同会社,東京都,江東区,北砂６丁目２番１号,,13,108,1360073,,,,,,,2022-09-13,1,,,,,スリーウェイ,0
493,3010803004284,新規,0,2022-09-13,2022-09-13,合同会社ＳＲ,,合同会社,東京都,大田区,矢口２丁目２番３－５０２号,,13,111,1460093,,,,,,,2022-09-13,1,,,,,エスアール,0
494,3010901051609,新規,0,2022-09-13,2022-09-13,株式会社ＹＹＳクレアション,,株式会社,東京都,世田谷区,瀬田２丁目１４番３号,,13,112,1580095,,,,,,,2022-09-13,1,,,,,ワイワイエスクレアション,0
501,3011001149756,新規,0,2022-09-13,2022-09-13,株式会社オカモズ,,株式会社,東京都,渋谷区,宇田川町２－１渋谷ホームズ９０５号室,,13,113,1500042,,,,,,,2022-09-13,1,,,,,オカモズ,0
504,3011005009741,新規,0,2022-09-13,2022-09-13,医療法人社団スズラン会,,その他の設立登記法人,東京都,渋谷区,松濤１丁目２９番１号渋谷クロスロードビル５階,,13,113,1500046,,,,,,,2022-09-13,1,,,,,スズランカイ,0
507,3011101100081,新規,0,2022-09-13,2022-09-13,株式会社フレシア,,株式会社,東京都,新宿区,四谷４丁目１０番地金子ビル２０６,,13,104,1600004,,,,,,,2022-09-13,1,,,,,フレシア,0
508,3011101100148,新規,0,2022-09-13,2022-09-13,株式会社ＡＳＡＨＩ未来投資,,株式会社,東京都,新宿区,富久町１５番１－３８０４号,,13,104,1620067,,,,,,,2022-09-13,1,,,,,アサヒミライトウシ,0
514,3011401024542,新規,0,2022-09-13,2022-09-13,株式会社Ｇｒａｎｔｚ,,株式会社,東京都,板橋区,蓮根１丁目１２番１７－２０４号,,13,119,1740046,,,,,,,2022-09-13,1,,,,,グランツ,0
515,3011501028468,新規,0,2022-09-13,2022-09-13,洋陳株式会社,,株式会社,東京都,荒川区,西尾久１丁目２６番４号ハイツウチダ１０１,,13,118,1160011,,,,,,,2022-09-13,1,,,,,ヨウジン,0
516,3011701025604,新規,0,2022-09-13,2022-09-13,株式会社大谷電気工事,,株式会社,東京都,江戸川区,中葛西１丁目４７番５号トライアングル１０２,,13,123,1340083,,,,,,,2022-09-13,1,,,,,オオヤデンキコウジ,0
518,3012301013131,新規,0,2022-09-13,2022-09-13,株式会社ｒｅｇｉｏｎ,,株式会社,東京都,町田市,原町田６丁目２５番５号,,13,209,1940013,,,,,,,2022-09-13,1,,,,,リージョン,0
521,3012705002325,新規,0,2022-09-13,2022-09-13,行政書士法人たいけい事務所,,その他の設立登記法人,東京都,東久留米市,氷川台１丁目１番９号本間ビル１Ｆ－Ａ,,13,222,2030004,,,,,,,2022-09-13,1,,,,,タイケイジムショ,0
522,3012805003149,新規,0,2022-09-13,2022-09-13,医療法人社団ルフルーヴ,,その他の設立登記法人,東京都,立川市,幸町３丁目２番地１１号多摩メディカルモール２Ｂ,,13,202,1900002,,,,,,,2022-09-13,1,,,,,ルフルーヴ,0
539,3021001076925,新規,0,2022-09-13,2022-09-13,株式会社よつば,,株式会社,神奈川県,相模原市中央区,陽光台５丁目１９番７号,,14,152,2520226,,,,,,,2022-09-13,1,,,,,ヨツバ,0
540,3021001076974,新規,0,2022-09-13,2022-09-13,明源商事株式会社,,株式会社,神奈川県,相模原市南区,上鶴間本町５丁目１４番２号,,14,153,2520318,,,,,,,2022-09-13,1,,,,,メイゲンショウジ,0
541,3021001076990,新規,0,2022-09-13,2022-09-13,株式会社ｗｉｔｈ　ｇｏｏｄ,,株式会社,神奈川県,厚木市,長谷１１２５番地１グランアークＩ３０２,00127836,14,212,2430036,,,,,,,2022-09-13,1,,,,,ウィズグッド,0
547,3030001150037,新規,0,2022-09-13,2022-09-13,エムズプラス株式会社,,株式会社,埼玉県,所沢市,三ケ島３丁目７８１番地の９,,11,208,3591164,,,,,,,2022-09-13,1,,,,,エムズプラス,0
553,3030003020188,新規,0,2022-09-13,2022-09-13,日本ドバイインターナショナル合同会社,,合同会社,埼玉県,越谷市,蒲生寿町１番３３号,,11,222,3430836,,,,,,,2022-09-13,1,,,,,ニホンドバイインターナショナル,0
554,3030003020196,新規,0,2022-09-13,2022-09-13,合同会社厨屋,,合同会社,埼玉県,ふじみ野市,大井６３９番地３３,,11,245,3560053,,,,,,,2022-09-13,1,,,,,クリヤ,0
569,3050001051670,新規,0,2022-09-13,2022-09-13,株式会社レクレス,,株式会社,茨城県,つくば市,上郷７４９８番地１,,08,220,3002645,,,,,,,2022-09-13,1,,,,,レクレス,0
570,3050003006846,新規,0,2022-09-13,2022-09-13,合同会社ＪＭＣ　ＩＮＴＥＲＮＡＴＩＯＮＡＬ,,合同会社,茨城県,下妻市,赤須字東本田４８８番１,,08,210,3040074,,,,,,,2022-09-13,1,,,,,ジェーエムシーインターナショナル,0
573,3060001035268,新規,0,2022-09-13,2022-09-13,株式会社エビィート,,株式会社,栃木県,宇都宮市,鐺山町２００９番地１,,09,201,3213235,,,,,,,2022-09-13,1,,,,,エビィート,0
576,3070003004617,新規,0,2022-09-13,2022-09-13,ＮＴＲ合同会社,,合同会社,群馬県,利根郡みなかみ町,湯原４５８番地４１号２０４,,10,449,3791617,,,,,,,2022-09-13,1,,,,,エヌティーアール,0
579,3080401026039,新規,0,2022-09-13,2022-09-13,株式会社Ｐａｄｄｌｅ,,株式会社,静岡県,浜松市中区,高林５丁目１０番１８号,,22,131,4300907,,,,,,,2022-09-13,1,,,,,パドル,0
585,3110001036962,新規,0,2022-09-13,2022-09-13,株式会社Ｌｅａｆ　Ｈｏｍｅ,,株式会社,新潟県,長岡市,呉服町２丁目２番地１,,15,202,9400056,,,,,,,2022-09-13,1,,,,,リーフホーム,0
602,3120001248598,新規,0,2022-09-13,2022-09-13,吉明株式会社,,株式会社,大阪府,大阪市天王寺区,空清町４－１１杉野ビル本館１０６号室,,27,109,5430018,,,,,,,2022-09-13,1,,,,,ヨシアキ,0
603,3120001248755,新規,0,2022-09-13,2022-09-13,株式会社Ｌｉｍｂｅｒ,,株式会社,大阪府,大阪市中央区,上汐２丁目３番３号原ビル１０１,,27,128,5420064,,,,,,,2022-09-13,1,,,,,リンバー,0
604,3120001248763,新規,0,2022-09-13,2022-09-13,株式会社イノキス,,株式会社,大阪府,大阪市北区,梅田１丁目１番３号大阪駅前第３ビル２９階１－１－１号室,,27,127,5300001,,,,,,,2022-09-13,1,,,,,イノキス,0
605,3120001248771,新規,0,2022-09-13,2022-09-13,株式会社エスアクト,,株式会社,大阪府,大阪市西区,西本町１丁目８番２号三晃ビル,,27,106,5500005,,,,,,,2022-09-13,1,,,,,エスアクト,0
616,3120903004306,新規,0,2022-09-13,2022-09-13,合同会社Ｌｉｎｏｖｅｒｔｈ,,合同会社,大阪府,高槻市,安満西の町２９―２８,,27,207,5691107,,,,,,,2022-09-13,1,,,,,リノヴァース,0
618,3130001072551,新規,0,2022-09-13,2022-09-13,株式会社春日部ファーム,,株式会社,京都府,亀岡市,曽我部町春日部瀧ノ下３４番地４,,26,206,6210024,,,,,,,2022-09-13,1,,,,,カスカベファーム,0
630,3140001127346,新規,0,2022-09-13,2022-09-13,株式会社ファーストグループ,,株式会社,兵庫県,姫路市,北条宮の町４１２番地ＭＩＳＴＲＡＬ北条宮の町２０２,,28,201,6700948,,,,,,,2022-09-13,1,,,,,ファーストグループ,0
638,3160001024509,新規,0,2022-09-13,2022-09-13,株式会社アートオブライフ,,株式会社,滋賀県,大津市,におの浜３丁目２番７－２２１０号,,25,201,5200801,,,,,,,2022-09-13,1,,,,,アートオブライフ,0
646,3180001152992,新規,0,2022-09-13,2022-09-13,株式会社ＣＩＡＮＳ,,株式会社,愛知県,名古屋市千種区,今池４丁目４号１番,,23,101,4640850,,,,,,,2022-09-13,1,,,,,シアンズ,0
647,3180001153000,新規,0,2022-09-13,2022-09-13,Ｆｏｏｔｂａｌｌ　Ｃｏｎｓｕｌ株式会社,,株式会社,愛知県,愛知郡東郷町,白鳥１丁目２番４号ライオンズマンション東郷西２０１,,23,302,4700155,,,,,,,2022-09-13,1,,,,,フットボールコンサル,0
653,3180005019932,新規,0,2022-09-13,2022-09-13,医療法人桜の咲クリニック,,その他の設立登記法人,愛知県,名古屋市名東区,猪子石原３丁目８０７番地,,23,115,4650008,,,,,,,2022-09-13,1,,,,,サクラノサククリニック,0
654,3190001029760,新規,0,2022-09-13,2022-09-13,株式会社ＳＡＮＳＥＩ,,株式会社,三重県,四日市市,鵜の森１丁目１４－１１,,24,202,5100074,,,,,,,2022-09-13,1,,,,,サンセイ,0
670,3240003005795,新規,0,2022-09-13,2022-09-13,合同会社くじらぐも,,合同会社,広島県,福山市,新市町大字戸手１５４番地２,,34,207,7293101,,,,,,,2022-09-13,1,,,,,クジラグモ,0
685,3290001098911,新規,0,2022-09-13,2022-09-13,株式会社Ｔｅ,,株式会社,福岡県,福岡市中央区,薬院１丁目６番５－２０８号,,40,133,8100022,,,,,,,2022-09-13,1,,,,,テルル,0
691,3290003012944,新規,0,2022-09-13,2022-09-13,合同会社ｂｏｕｎｃｅｒ,,合同会社,福岡県,福岡市中央区,清川１丁目２番１２号,,40,133,8100005,,,,,,,2022-09-13,1,,,,,バウンサー,0
702,3310003004443,新規,0,2022-09-13,2022-09-13,合同会社ＧｌｏｂａｌＬｉｎｋ,,合同会社,長崎県,島原市,親和町丁２６２２番地１,,42,203,8550863,,,,,,,2022-09-13,1,,,,,グローバルリンク,0
703,3320001019327,新規,0,2022-09-13,2022-09-13,佐伯不動産サービス株式会社,,株式会社,大分県,佐伯市,日の出町３番１５号,,44,205,8760802,,,,,,,2022-09-13,1,,,,,サイキフドウサンサービス,0
704,3340005009504,新規,0,2022-09-13,2022-09-13,一般社団法人夢叶学園,,その他の設立登記法人,鹿児島県,姶良郡湧水町,鶴丸４６２番地１,,46,452,8996101,,,,,,,2022-09-13,1,,,,,ユメカナガクエン,0
708,3360001030973,新規,0,2022-09-13,2022-09-13,株式会社ＴＳＩ,,株式会社,沖縄県,うるま市,石川伊波１５５３番地３０未来ビジネス村内ミニハウス１,,47,213,9041115,,,,,,,2022-09-13,1,,,,,ティエスアイ,0
709,3360001030981,新規,0,2022-09-13,2022-09-13,株式会社ＲＹＵＵＫＹＵ．ＣＯＭ,,株式会社,沖縄県,宜野湾市,真栄原１丁目１番１８号,,47,205,9012215,,,,,,,2022-09-13,1,,,,,リュウキュウドットコム,0
717,3380001033116,新規,0,2022-09-13,2022-09-13,株式会社りれいと,,株式会社,福島県,いわき市,小名浜字観音作４６番地の１,,07,204,9718101,,,,,,,2022-09-13,1,,,,,リレイト,0
718,3390001017019,新規,0,2022-09-13,2022-09-13,ＡＫ商事株式会社,,株式会社,山形県,鶴岡市,布目乙２１番地,,06,203,9970851,,,,,,,2022-09-13,1,,,,,エーケーショウジ,0
721,3420001018005,新規,0,2022-09-13,2022-09-13,株式会社アドバンス,,株式会社,青森県,むつ市,柳町４丁目７番１７号グリーンハイツＢ号,,02,208,0350031,,,,,,,2022-09-13,1,,,,,アドバンス,0
725,3430001087478,新規,0,2022-09-13,2022-09-13,株式会社Ｒｅ・ｂｉｒｔｈ,,株式会社,北海道,石狩市,新港南１丁目２８番地６７,,01,235,0613244,,,,,,,2022-09-13,1,,,,,リバース,0
726,3430001087486,新規,0,2022-09-13,2022-09-13,オカデン株式会社,,株式会社,北海道,札幌市北区,新琴似六条１４丁目３番８号,,01,102,0010906,,,,,,,2022-09-13,1,,,,,オカデン,0
727,3430003014265,新規,0,2022-09-13,2022-09-13,大乃総業合同会社,,合同会社,北海道,札幌市西区,西町北１１丁目２番１２号,,01,107,0630061,,,,,,,2022-09-13,1,,,,,オオノソウギョウ,0
732,3480001011854,新規,0,2022-09-13,2022-09-13,株式会社ＴＳＵＮＡＧＵ　Ｄｅｓｉｇｎ,,株式会社,徳島県,板野郡北島町,鯛浜字西ノ須６４番地１１,,36,402,7710204,,,,,,,2022-09-13,1,,,,,ツナグデザイン,0
740,3700150110970,新規,0,2022-09-13,2022-07-26,はま風音楽事務所,,その他,岐阜県,岐阜市,今嶺４丁目４－２６号,,21,201,5008388,,,,,,,2022-07-26,1,,,,,ハマカゼオンガクジムシヨ,0
750,4010001229212,新規,0,2022-09-13,2022-09-13,ＡＸＡ　Ｐｒｉｍｅ　Ｓｅｒｖｉｃｅｓ株式会社,,株式会社,東京都,千代田区,大手町１丁目５番１号大手町ファーストスクエアイーストタワー４階,,13,101,1000004,,,,,,,2022-09-13,1,,,,,エーエックスエープライムサービシーズ,0
751,4010103001989,新規,0,2022-09-13,2022-09-13,合同会社リアン,,合同会社,東京都,八王子市,長房町１３０－６,,13,201,1930824,,,,,,,2022-09-13,1,,,,,リアン,0
754,4010401169693,新規,0,2022-09-13,2022-09-13,株式会社キャプテン東京,,株式会社,東京都,港区,台場１丁目３番２－３００６号,,13,103,1350091,,,,,,,2022-09-13,1,,,,,キャプテントウキョウ,0
755,4010401169768,新規,0,2022-09-13,2022-09-13,無限インベストメント株式会社,,株式会社,東京都,港区,芝浦３丁目４番２号２１０１,,13,103,1080023,,,,,,,2022-09-13,1,,,,,ムゲンインベストメント,0
766,4010501049358,新規,0,2022-09-13,2022-09-13,株式会社ファンシーン,,株式会社,東京都,台東区,上野７丁目８－１５フェルクルール上野駅前２０３,,13,106,1100005,,,,,,,2022-09-13,1,,,,,ファンシーン,0
767,4010501049366,新規,0,2022-09-13,2022-09-13,永森国際貿易株式会社,,株式会社,東京都,台東区,北上野２丁目２５番９号－５０８号室,,13,106,1100014,,,,,,,2022-09-13,1,,,,,ナガモリコクサイボウエキ,0
769,4010603009722,新規,0,2022-09-13,2022-09-13,合同会社五感音叉研究所,,合同会社,東京都,江東区,東陽５丁目２２番８－４０４号,,13,108,1350016,,,,,,,2022-09-13,1,,,,,ゴカンオンサケンキュウジョ,0
777,4010903007640,新規,0,2022-09-13,2022-09-13,ＴＨＥ　ＷＡＶＥ合同会社,,合同会社,東京都,世田谷区,成城９丁目２８番８号成城アンバサダー３２３,,13,112,1570066,,,,,,,2022-09-13,1,,,,,ザウェイブ,0
785,4011001149739,新規,0,2022-09-13,2022-09-13,株式会社ＳＭＤ,,株式会社,東京都,渋谷区,宇田川町３－７ヒューリック渋谷公園通りビル５Ｆ－４８,,13,113,1500042,,,,,,,2022-09-13,1,,,,,エスエムディー,0
786,4011003015360,新規,0,2022-09-13,2022-09-13,合同会社ＪＭｏｈｒ,,合同会社,東京都,目黒区,下目黒２丁目２３番地２１ザ・マジェスティコート目黒１０１０号,,13,110,1530064,,,,,,,2022-09-13,1,,,,,ジェーモール,0
787,4011003015369,新規,0,2022-09-13,2022-09-13,合同会社レベルＣ,,合同会社,東京都,渋谷区,神泉町１５番１５号クレストハウス神泉２０３,,13,113,1500045,,,,,,,2022-09-13,1,,,,,レベルシー,0
788,4011003015377,新規,0,2022-09-13,2022-09-13,ＯＧ　ａｓｓｅｔ合同会社,,合同会社,東京都,渋谷区,代々木２丁目３８－１モディア代々木レジデンス３０１,,13,113,1510053,,,,,,,2022-09-13,1,,,,,オージーアセット,0
789,4011003015385,新規,0,2022-09-13,2022-09-13,パペーロ合同会社,,合同会社,東京都,目黒区,三田２丁目１０番１４―１０２号ファミールグラン恵比寿,,13,110,1530062,,,,,,,2022-09-13,1,,,,,パペーロ,0
793,4011101100080,新規,0,2022-09-13,2022-09-13,株式会社カステロ,,株式会社,東京都,新宿区,四谷４丁目１０番地金子ビル２０６,,13,104,1600004,,,,,,,2022-09-13,1,,,,,カステロ,0
794,4011101100139,新規,0,2022-09-13,2022-09-13,株式会社ブルーム,,株式会社,東京都,新宿区,南町１２プラウド市ヶ谷南町４０２,,13,104,1620836,,,,,,,2022-09-13,1,,,,,ブルーム,0
797,4011301028106,新規,0,2022-09-13,2022-09-13,チアメディカル株式会社,,株式会社,東京都,杉並区,上荻３丁目７番１１号,,13,115,1670043,,,,,,,2022-09-13,1,,,,,チアメディカル,0
798,4011303004518,新規,0,2022-09-13,2022-09-13,合同会社Ｃｒｅａｍ,,合同会社,東京都,杉並区,阿佐谷北３丁目４０－４メイツ阿佐谷２０１,,13,115,1660001,,,,,,,2022-09-13,1,,,,,クリーム,0
799,4011401024541,新規,0,2022-09-13,2022-09-13,株式会社東京クロスビジュアル,,株式会社,東京都,板橋区,舟渡１丁目１８番１６－７１０号,,13,119,1740041,,,,,,,2022-09-13,1,,,,,トウキョウクロスビジュアル,0
802,4011701025603,新規,0,2022-09-13,2022-09-13,株式会社ＬＯＶＥ,,株式会社,東京都,江戸川区,中葛西５丁目３５番８－４０３号アパートメントけやき通り中葛西,,13,123,1340083,,,,,,,2022-09-13,1,,,,,ラブ,0
803,4011801041269,新規,0,2022-09-13,2022-09-13,株式会社ショケン,,株式会社,東京都,葛飾区,堀切２丁目６６－１６ｂｌｏｏｍｉｎｇＨＯＲＩＫＩＲＩ－４階,,13,122,1240006,,,,,,,2022-09-13,1,,,,,ショケン,0
804,4011801041277,新規,0,2022-09-13,2022-09-13,Ｒｅストア株式会社,,株式会社,東京都,足立区,西新井本町４丁目２５番１５号,,13,121,1230845,,,,,,,2022-09-13,1,,,,,リストア,0
829,4020001148196,新規,0,2022-09-13,2022-09-13,アンカー・テック株式会社,,株式会社,神奈川県,川崎市川崎区,日進町７番地１川崎日進町ビルディング１２階,,14,131,2100024,,,,,,,2022-09-13,1,,,,,アンカーテック,0
844,4030001150036,新規,0,2022-09-13,2022-09-13,株式会社飛翔,,株式会社,埼玉県,三郷市,彦川戸２丁目１１２番地１,,11,237,3410005,,,,,,,2022-09-13,1,,,,,ヒショウ,0
849,4030003020195,新規,0,2022-09-13,2022-09-13,澁谷薬局合同会社,,合同会社,埼玉県,川越市,大字藤間１４８番地５９,,11,201,3501142,,,,,,,2022-09-13,1,,,,,シブヤヤッキョク,0
855,4050001051678,新規,0,2022-09-13,2022-09-13,株式会社武田資材,,株式会社,茨城県,取手市,宮和田５２７番地２リバーハイツ２０３号室,,08,217,3001514,,,,,,,2022-09-13,1,,,,,タケダシザイ,0
859,4050003006845,新規,0,2022-09-13,2022-09-13,合同会社ＳＵＮ　ＬＡＮＫＡ　ＡＵＴＯ　ＴＲＡＤＩＮＧ,,合同会社,茨城県,下妻市,下宮６６２番地１,,08,210,3040013,,,,,,,2022-09-13,1,,,,,サンランカオートトレーディング,0
860,4060001035234,新規,0,2022-09-13,2022-09-13,株式会社ＣＯＲＵＮＤＵＭ,,株式会社,栃木県,足利市,上渋垂町９２５番地１ラフォーレ上渋垂１０１,,09,202,3260335,,,,,,,2022-09-13,1,,,,,コランダム,0
872,4080101023525,新規,0,2022-09-13,2022-09-13,株式会社Ｅｍｅｒａｌｄ　ｄｅｖｅｌｏｐｍｅｎｔ,,株式会社,静岡県,伊豆の国市,奈古谷字梅ノ木沢２２０３番地２７７,,22,225,4102132,,,,,,,2022-09-13,1,,,,,エメラルドデベロップメント,0
878,4100003006690,新規,0,2022-09-13,2022-09-13,合同会社Ｗｅｄｇｅ　Ｓｙｓｔｅｍｚ,,合同会社,長野県,長野市,大字大豆島１６１３番地コーポソイビーンウエストツリー３１２,,20,201,3810022,,,,,,,2022-09-13,1,,,,,ウェッジシステムズ,0
882,4110001036937,新規,0,2022-09-13,2022-09-13,株式会社新津ホールディング,,株式会社,新潟県,新潟市中央区,下大川前通３ノ町２２３０番地６７,,15,103,9518052,,,,,,,2022-09-13,1,,,,,ニイツホールディング,0
886,4110003004859,新規,0,2022-09-13,2022-09-13,合同会社青松商事,,合同会社,新潟県,新潟市東区,石山２丁目８番１号,,15,102,9500852,,,,,,,2022-09-13,1,,,,,アオヤマショウジ,0
889,4120001248754,新規,0,2022-09-13,2022-09-13,株式会社ＤＡＯ,,株式会社,大阪府,大阪市都島区,友渕町１丁目５番１２－７０４号,,27,102,5340016,,,,,,,2022-09-13,1,,,,,ダオ,0
890,4120001248770,新規,0,2022-09-13,2022-09-13,株式会社エスプラン,,株式会社,大阪府,大阪市西区,西本町１丁目８番２号三晃ビル,,27,106,5500005,,,,,,,2022-09-13,1,,,,,エスプラン,0
891,4120001248812,新規,0,2022-09-13,2022-09-13,株式会社バックアップ,,株式会社,大阪府,大阪市東成区,大今里２丁目５番１６号,,27,115,5370012,,,,,,,2022-09-13,1,,,,,バックアップ,0
892,4120003022439,新規,0,2022-09-13,2022-09-13,合同会社ＣＩ,,合同会社,大阪府,大阪市北区,太融寺町２－１７,,27,127,5300051,,,,,,,2022-09-13,1,,,,,シーアイ,0
897,4122001036239,新規,0,2022-09-13,2022-09-13,エモロジ株式会社,,株式会社,大阪府,東大阪市,御幸町２番１６号,,27,227,5798057,,,,,,,2022-09-13,1,,,,,エモロジ,0
902,4140001127353,新規,0,2022-09-13,2022-09-13,株式会社ｉｎｔｕｉｔｉｏｎ,,株式会社,兵庫県,宝塚市,中筋８丁目６番１２－２０８号,,28,214,6650874,,,,,,,2022-09-13,1,,,,,イントゥイション,0
904,4140003018121,新規,0,2022-09-13,2022-09-13,合同会社ＵＴＡ,,合同会社,兵庫県,宍粟市,山崎町野４４７番地１,,28,227,6712543,,,,,,,2022-09-13,1,,,,,ウタ,0
905,4140005026312,新規,0,2022-09-13,2022-09-13,一般社団法人丹波篠山市観光協会,,その他の設立登記法人,兵庫県,丹波篠山市,北新町９７番地,,28,221,6692332,,,,,,,2022-09-13,1,,,,,タンバササヤマシカンコウキョウカイ,0
909,4150003002776,新規,0,2022-09-13,2022-09-13,合同会社Ｂ,,合同会社,奈良県,御所市,大字船路３５６番地,,29,208,6392268,,,,,,,2022-09-13,1,,,,,ビー,0
910,4160001024508,新規,0,2022-09-13,2022-09-13,株式会社近江温水,,株式会社,滋賀県,甲賀市,水口町北脇１９５５番地４,,25,209,5280057,,,,,,,2022-09-13,1,,,,,オウミオンスイ,0
921,4180001153024,新規,0,2022-09-13,2022-09-13,株式会社グローバル,,株式会社,愛知県,名古屋市千種区,春岡１丁目５番４号第５１プロスパービル１階,,23,101,4640848,,,,,,,2022-09-13,1,,,,,グローバル,0
926,4180301036622,新規,0,2022-09-13,2022-09-13,株式会社ｗｅｂ　ｎｅｓｔｌｉｎｇ,,株式会社,愛知県,岡崎市,若松東１丁目３番地４,,23,202,4440822,,,,,,,2022-09-13,1,,,,,ウェブネストリング,0
932,4200001040442,新規,0,2022-09-13,2022-09-13,株式会社りすの実,,株式会社,岐阜県,大垣市,内原１丁目１６８番地１,,21,202,5030936,,,,,,,2022-09-13,1,,,,,リスノミ,0
939,4230003001910,新規,0,2022-09-13,2022-09-13,合同会社小和ん商店,,合同会社,富山県,小矢部市,今石動町１丁目１番３２号,,16,209,9320051,,,,,,,2022-09-13,1,,,,,コヨリンストア,0
942,4260005011137,新規,0,2022-09-13,2022-09-13,一般社団法人くちなし,,その他の設立登記法人,岡山県,岡山市北区,天瀬南町５番２３号クレストヴェールＩＩＩ２０２,00127837,33,101,7000834,,,,,,,2022-09-13,1,,,,,クチナシ,0
945,4290001098893,新規,0,2022-09-13,2022-09-13,株式会社Ｃｏｍｆｏｒｔ　Ｃｏｍｐａｎｙ,,株式会社,福岡県,福岡市博多区,千代４丁目２０番１９号,,40,132,8120044,,,,,,,2022-09-13,1,,,,,コンフォートカンパニー,0
946,4290001098919,新規,0,2022-09-13,2022-09-13,株式会社ジニアス,,株式会社,福岡県,福岡市中央区,天神４丁目６－２８天神ファーストビル７階,,40,133,8100001,,,,,,,2022-09-13,1,,,,,ジニアス,0
947,4290005018807,新規,0,2022-09-13,2022-09-13,一般社団法人ＲＢ研究会,,その他の設立登記法人,福岡県,福岡市東区,東浜１丁目１３番３２号,,40,131,8120055,,,,,,,2022-09-13,1,,,,,アールビーケンキュウカイ,0
950,4310001018031,新規,0,2022-09-13,2022-09-13,株式会社サンジー,,株式会社,長崎県,諫早市,野中町５７３番地,,42,204,8540047,,,,,,,2022-09-13,1,,,,,サンジー,0
955,4320001019326,新規,0,2022-09-13,2022-09-13,株式会社福昌建設,,株式会社,大分県,大分市,中島東１丁目４番１０号,,44,201,8700043,,,,,,,2022-09-13,1,,,,,フクショウケンセツ,0
956,4320003003897,新規,0,2022-09-13,2022-09-13,合同会社阿部甘商店,,合同会社,大分県,大分市,大字中判田１４４１番地２,,44,201,8701113,,,,,,,2022-09-13,1,,,,,アベカンショウテン,0
964,4350003004166,新規,0,2022-09-13,2022-09-13,合同会社３５８,,合同会社,宮崎県,宮崎市,広島２丁目３番５号,,45,201,8800806,,,,,,,2022-09-13,1,,,,,サゴハチ,0
967,4380003005260,新規,0,2022-09-13,2022-09-13,ＢＬＩＮＫ合同会社,,合同会社,福島県,いわき市,泉玉露４丁目５番地の８ボナール２０３,,07,204,9718172,,,,,,,2022-09-13,1,,,,,ブリンク,0
976,4430001087477,新規,0,2022-09-13,2022-09-13,株式会社泰平企画,,株式会社,北海道,札幌市白石区,北郷九条７丁目８番１５号,,01,104,0030839,,,,,,,2022-09-13,1,,,,,タイヘイキカク,0
984,4460103001481,新規,0,2022-09-13,2022-09-13,合同会社Ｎａｒｔ,,合同会社,北海道,帯広市,大通南２２丁目２番地,,01,207,0800010,,,,,,,2022-09-13,1,,,,,ナート,0
1001,5010001229467,新規,0,2022-09-13,2022-09-13,株式会社ＭＥＳＡ,,株式会社,東京都,中央区,日本橋兜町５番１号兜町第一平和ビル３Ｆ,,13,102,1030026,,,,,,,2022-09-13,1,,,,,メサ,0
1005,5010103001988,新規,0,2022-09-13,2022-09-13,合同会社ｙａｄｏｓ,,合同会社,東京都,八王子市,片倉町６１５－１,,13,201,1920914,,,,,,,2022-09-13,1,,,,,ヤドス,0
1012,5010401169767,新規,0,2022-09-13,2022-09-13,九龍インベストメント株式会社,,株式会社,東京都,港区,芝浦３丁目４番２号２１０１,,13,103,1080023,,,,,,,2022-09-13,1,,,,,キュウリュウインベストメント,0
1014,5010405021321,新規,0,2022-09-13,2022-09-13,一般社団法人ＮＢ．ＡＣＡＤＥＭＹ,,その他の設立登記法人,東京都,港区,六本木６丁目２番３１号六本木ヒルズノースタワー１６階,,13,103,1060032,,,,,,,2022-09-13,1,,,,,エヌビーアカデミー,0
1016,5010501049373,新規,0,2022-09-13,2022-09-13,株式会社水森企画,,株式会社,東京都,台東区,池之端４丁目２４－４パレ・キャトレーズ２０２号室,,13,106,1100008,,,,,,,2022-09-13,1,,,,,ミズモリキカク,0
1022,5010701043201,新規,0,2022-09-13,2022-09-13,株式会社ディプロイ,,株式会社,東京都,品川区,西大井２丁目２３番３号ブラウネスハイム３０４,,13,109,1400015,,,,,,,2022-09-13,1,,,,,ディプロイ,0
1024,5010901051623,新規,0,2022-09-13,2022-09-13,株式会社ＡＢ１０,,株式会社,東京都,世田谷区,弦巻５丁目１番３３号弦巻ハイツ８１０,,13,112,1540016,,,,,,,2022-09-13,1,,,,,エビテン,0
1028,5011001149663,新規,0,2022-09-13,2022-09-13,株式会社はやぶさクラウド,,株式会社,東京都,渋谷区,渋谷３丁目６番２号エクラート渋谷５階,,13,113,1500002,,,,,,,2022-09-13,1,,,,,ハヤブサクラウド,0
1029,5011001149738,新規,0,2022-09-13,2022-09-13,株式会社ＰＬＵＭ　ＢＬＯＯＭ,,株式会社,東京都,渋谷区,神宮前６丁目２３番４号桑野ビル２階,,13,113,1500001,,,,,,,2022-09-13,1,,,,,,0
1031,5011003015368,新規,0,2022-09-13,2022-09-13,ｎａｉｓｙｏｄａｙｏ合同会社,,合同会社,東京都,渋谷区,代々木３丁目３２番３－３０６号,,13,113,1510053,,,,,,,2022-09-13,1,,,,,ナイショダヨ,0
1032,5011003015384,新規,0,2022-09-13,2022-09-13,ＳＧＡＫ合同会社,,合同会社,東京都,目黒区,南３丁目６番５号,,13,110,1520013,,,,,,,2022-09-13,1,,,,,エスジーエーケー,0
1036,5011101100138,新規,0,2022-09-13,2022-09-13,株式会社星博,,株式会社,東京都,新宿区,高田馬場４丁目１０番１２号森邸１Ｆ,,13,104,1690075,,,,,,,2022-09-13,1,,,,,セイハク,0
1037,5011103012158,新規,0,2022-09-13,2022-09-13,合同会社ａＲｏＭｉＳ,,合同会社,東京都,新宿区,西新宿３丁目３番１３号西新宿水間ビル２Ｆ,,13,104,1600023,,,,,,,2022-09-13,1,,,,,アロミス,0
1041,5011305002857,新規,0,2022-09-13,2022-09-13,医療法人社団たもつデンタルクリニック,,その他の設立登記法人,東京都,杉並区,久我山１丁目５番２号久我山ロータリーマンション１１０号室,,13,115,1680082,,,,,,,2022-09-13,1,,,,,タモツデンタルクリニック,0
1044,5011701025602,新規,0,2022-09-13,2022-09-13,アークランズ株式会社,,株式会社,東京都,江戸川区,小松川４丁目５４番地１,,13,123,1320034,,,,,,,2022-09-13,1,,,,,アークランズ,0
1045,5011705001748,新規,0,2022-09-13,2022-09-13,医療法人社団ほまれ,,その他の設立登記法人,東京都,江戸川区,西葛西５丁目４－１２号レジデンスＩＩＩ１０１号室,00127839,13,123,1340088,,,,,,,2022-09-13,1,,,,,ホマレ,0
1053,5011803005262,新規,0,2022-09-13,2022-09-13,上地工業合同会社,,合同会社,東京都,足立区,六木３丁目２２番８号,,13,121,1210052,,,,,,,2022-09-13,1,,,,,ウエチコウギョウ,0
1059,5013101009012,新規,0,2022-09-13,2022-09-13,ＤａｉＮａＭｏ株式会社,,株式会社,東京都,福生市,大字熊川１６３３番地武蔵野拝島ハイツ４１５号室,,13,218,1970003,,,,,,,2022-09-13,1,,,,,ダイナモ,0
1076,5020001148096,新規,0,2022-09-13,2022-09-13,株式会社エスエス,,株式会社,神奈川県,川崎市中原区,今井仲町１１番３８号川崎ハイツ３０３,,14,133,2110065,,,,,,,2022-09-13,1,,,,,エスエス,0
1077,5020003022373,新規,0,2022-09-13,2022-09-13,合同会社ＴＡＫＡＫＩＹＯ,,合同会社,神奈川県,横浜市鶴見区,鶴見中央４丁目２７番地７号,,14,101,2300051,,,,,,,2022-09-13,1,,,,,タカキヨ,0
1081,5021001076989,新規,0,2022-09-13,2022-09-13,株式会社エイト,,株式会社,神奈川県,南足柄市,和田河原４４２番地１日比野店舗Ｄ、１―Ｄ号室,,14,217,2500112,,,,,,,2022-09-13,1,,,,,エイト,0
1092,5030001150092,新規,0,2022-09-13,2022-09-13,株式会社奥村建材,,株式会社,埼玉県,熊谷市,手島２５０番地,,11,202,3600121,,,,,,,2022-09-13,1,,,,,オクムラケンザイ,0
1093,5030003020194,新規,0,2022-09-13,2022-09-13,合同会社ＳＡＫＵＲＡ,,合同会社,埼玉県,所沢市,西所沢１丁目９番６号,,11,208,3591144,,,,,,,2022-09-13,1,,,,,サクラ,0
1094,5030003020203,新規,0,2022-09-13,2022-09-13,合同会社Ｃｒａｆｔ,,合同会社,埼玉県,所沢市,青葉台１３４０番地の３ツインリーヴスウエスト４０４,,11,208,3591105,,,,,,,2022-09-13,1,,,,,クラフト,0
1104,5040001125003,新規,0,2022-09-13,2022-09-13,株式会社ベストリフォーム,,株式会社,千葉県,千葉市稲毛区,山王町１０番地３０,,12,103,2630002,,,,,,,2022-09-13,1,,,,,ベストリフォーム,0
1105,5040001125011,新規,0,2022-09-13,2022-09-13,株式会社安泰キレイ家,,株式会社,千葉県,山武郡横芝光町,北清水１９０２番地,,12,410,2891734,,,,,,,2022-09-13,1,,,,,アンタイキレイヤ,0
1106,5040001125085,新規,0,2022-09-13,2022-09-13,株式会社リバイヴ,,株式会社,千葉県,千葉市稲毛区,緑町１丁目１８番６号ＷＥＳＴＦＩＶＥ１０１号,,12,103,2630023,,,,,,,2022-09-13,1,,,,,リバイヴ,0
1111,5050003006844,新規,0,2022-09-13,2022-09-13,ＡＦ　ＴＲＡＤＩＮＧ合同会社,,合同会社,茨城県,坂東市,矢作９６８番地３,,08,228,3060624,,,,,,,2022-09-13,1,,,,,エーエフトレーディング,0
1114,5060001035233,新規,0,2022-09-13,2022-09-13,株式会社ＺＥＮＥＳＴＹ,,株式会社,栃木県,佐野市,出流原町２３６番地２,,09,204,3270102,,,,,,,2022-09-13,1,,,,,ゼネスティ,0
1117,5060003004228,新規,0,2022-09-13,2022-09-13,合同会社ＪＥＬＬＹＮＧＡ,,合同会社,栃木県,足利市,山川町９５０番地,,09,202,3260021,,,,,,,2022-09-13,1,,,,,ジェリーガー,0
1119,5070001039621,新規,0,2022-09-13,2022-09-13,清水工業株式会社,,株式会社,群馬県,太田市,大原町２２０６番地１０,,10,205,3792304,,,,,,,2022-09-13,1,,,,,シミズコウギョウ,0
1123,5080101023524,新規,0,2022-09-13,2022-09-13,株式会社ＴＯＫＹＯＨＩＲＯＹＡ　ＬＡＢ．,,株式会社,静岡県,下田市,東中８番地の６,,22,219,4150017,,,,,,,2022-09-13,1,,,,,トウキョウヒロヤラボ,0
1132,5110001036936,新規,0,2022-09-13,2022-09-13,株式会社丸新,,株式会社,新潟県,新潟市東区,豊２丁目７番５９号,,15,102,9500812,,,,,,,2022-09-13,1,,,,,マルシン,0
1150,5120001248720,新規,0,2022-09-13,2022-09-13,ＪＮＲ　ＧＬＯＢＡＬ　ＪＡＰＡＮ株式会社,,株式会社,大阪府,大阪市東住吉区,山坂４丁目１１番６号,,27,121,5460035,,,,,,,2022-09-13,1,,,,,ジェイエヌアールグローバルジャパン,0
1151,5120001248794,新規,0,2022-09-13,2022-09-13,株式会社ＭａｖＹ．,,株式会社,大阪府,寝屋川市,寿町２２番１５－１号,,27,215,5720029,,,,,,,2022-09-13,1,,,,,マヴィ,0
1152,5120001248803,新規,0,2022-09-13,2022-09-13,株式会社エルファーマシー,,株式会社,大阪府,枚方市,南楠葉１丁目１番３０号,,27,210,5731105,,,,,,,2022-09-13,1,,,,,エルファーマシー,0
1153,5120001248811,新規,0,2022-09-13,2022-09-13,株式会社グローバルライフ,,株式会社,大阪府,大阪市都島区,片町１丁目２番３９号,,27,102,5340025,,,,,,,2022-09-13,1,,,,,グローバルライフ,0
1156,5120003022438,新規,0,2022-09-13,2022-09-13,ＢＶＨ合同会社,,合同会社,大阪府,大阪市港区,港晴３丁目４番６号パールマンション１０３,,27,107,5520023,,,,,,,2022-09-13,1,,,,,ビーブイーエチ,0
1167,5130001072566,新規,0,2022-09-13,2022-09-13,豊潤株式会社,,株式会社,京都府,京都市南区,上鳥羽南唐戸町７番地Ｋビル６０２号室,,26,107,6018107,,,,,,,2022-09-13,1,,,,,ホウジュン,0
1168,5130001072599,新規,0,2022-09-13,2022-09-13,株式会社泰優,,株式会社,京都府,京都市北区,紫竹西野山町５１番地１リベル北山１０５,,26,101,6038443,,,,,,,2022-09-13,1,,,,,タイユウ,0
1176,5140001127369,新規,0,2022-09-13,2022-09-13,ａｍｂ株式会社,,株式会社,兵庫県,丹波篠山市,西荘２６７－１,,28,221,6692447,,,,,,,2022-09-13,1,,,,,エーエムビー,0
1181,5140003018120,新規,0,2022-09-13,2022-09-13,合同会社久保田ベーカリー,,合同会社,兵庫県,豊岡市,加広町５番１５号,,28,209,6680023,,,,,,,2022-09-13,1,,,,,クボタベーカリー,0
1183,5150003002775,新規,0,2022-09-13,2022-09-13,合同会社ＪＲＰ,,合同会社,奈良県,葛城市,忍海２５６番地８,,29,211,6392123,,,,,,,2022-09-13,1,,,,,ジェイアールピー,0
1201,5180303005442,新規,0,2022-09-13,2022-09-13,こころざし合同会社,,合同会社,愛知県,豊橋市,岩屋町字岩屋下４５番地２,,23,201,4400842,,,,,,,2022-09-13,1,,,,,ココロザシ,0
1207,5210005010051,新規,0,2022-09-13,2022-09-13,一般社団法人福井環境研究開発,,その他の設立登記法人,福井県,福井市,問屋町３丁目４１０番地５階,,18,201,9188231,,,,,,,2022-09-13,1,,,,,フクイカンキョウケンキュウカイハツ,0
1208,5220001025028,新規,0,2022-09-13,2022-09-13,コーシンビジネスサービス株式会社,,株式会社,石川県,野々市市,押野２丁目２１６番地,,17,212,9218802,,,,,,,2022-09-13,1,,,,,コーシンビジネスサービス,0
1209,5220003003361,新規,0,2022-09-13,2022-09-13,合同会社ＸＮ,,合同会社,石川県,金沢市,横川１丁目１３７番地１,,17,201,9218163,,,,,,,2022-09-13,1,,,,,エックスエヌ,0
1217,5240003005802,新規,0,2022-09-13,2022-09-13,合同会社Ｙ＆Ａ　Ｍｕｔｕａｌ　Ｐａｒｔｎｅｒｓ,,合同会社,広島県,広島市東区,山根町２０番１０号,,34,102,7320048,,,,,,,2022-09-13,1,,,,,ワイアンドエーミューチュエルパートナーズ,0
1222,5260003004034,新規,0,2022-09-13,2022-09-13,合同会社ｕｎｔｉｔｌｅ,,合同会社,岡山県,岡山市中区,藤崎２０２番地８,,33,102,7028006,,,,,,,2022-09-13,1,,,,,アンタイトル,0
1231,5290003012934,新規,0,2022-09-13,2022-09-13,Ｍａｎｆｒｅｄ　Ｗｏｅｌｆｅｌ合同会社,,合同会社,福岡県,福岡市中央区,舞鶴２丁目２番３号８Ｆ,,40,133,8100073,,,,,,,2022-09-13,1,,,,,マンフレッドウォルフェル,0
1234,5290005018806,新規,0,2022-09-13,2022-09-13,税理士法人春畑会計,,その他の設立登記法人,福岡県,福岡市南区,横手１丁目１３番２号,,40,134,8111311,,,,,,,2022-09-13,1,,,,,ハルハタカイケイ,0
1236,5300005007096,新規,0,2022-09-13,2022-09-13,一般社団法人大塚清吾歴史文化研究会,,その他の設立登記法人,佐賀県,佐賀市,鬼丸町６番２４号,,41,201,8400021,,,,,,,2022-09-13,1,,,,,オオツカセイゴレキシブンカケンキュウカイ,0
1239,5320001019325,新規,0,2022-09-13,2022-09-13,株式会社アラタ,,株式会社,大分県,日田市,大字友田１１３７番地３,,44,204,8770000,,,,,,,2022-09-13,1,,,,,アラタ,0
1242,5330001030108,新規,0,2022-09-13,2022-09-13,株式会社大衆タクシー,,株式会社,熊本県,熊本市西区,松尾２丁目２３番１１号,,43,103,8615280,,,,,,,2022-09-13,1,,,,,タイシュウタクシー,0
1244,5340001025032,新規,0,2022-09-13,2022-09-13,株式会社マネジメントフォース,,株式会社,鹿児島県,鹿児島市,小川町２番２７－３０２号,,46,201,8920817,,,,,,,2022-09-13,1,,,,,マネジメントフォース,0
1250,5370001049045,新規,0,2022-09-13,2022-09-13,株式会社Ｙｓ＆Ｎ,,株式会社,宮城県,大崎市,古川幸町２丁目４番４５号,,04,215,9896106,,,,,,,2022-09-13,1,,,,,ワイズアンドエヌ,0
1253,5370003005830,新規,0,2022-09-13,2022-09-13,坂元不動産合同会社,,合同会社,宮城県,亘理郡山元町,つばめの杜３丁目１７番地１,,04,362,9892208,,,,,,,2022-09-13,1,,,,,サカモトフドウサン,0
1255,5400001016000,新規,0,2022-09-13,2022-09-13,株式会社ナレッジサービス,,株式会社,岩手県,花巻市,石鳥谷町好地第７地割１１８番地１グランヴィアＤ棟,,03,205,0283101,,,,,,,2022-09-13,1,,,,,ナレッジサービス,0
1261,5430001087476,新規,0,2022-09-13,2022-09-13,株式会社坂之途中,,株式会社,北海道,小樽市,桜４丁目１番１１号,,01,203,0470156,,,,,,,2022-09-13,1,,,,,サカノトチュウ,0
1262,5430001087484,新規,0,2022-09-13,2022-09-13,株式会社アスクジュエリー,,株式会社,北海道,札幌市豊平区,月寒東三条１７丁目１５番５０号,,01,105,0620053,,,,,,,2022-09-13,1,,,,,アスクジュエリー,0
1266,5430003014263,新規,0,2022-09-13,2022-09-13,合同会社ナルカス,,合同会社,北海道,札幌市東区,北四十一条東２丁目１番６－２０２号,,01,103,0070841,,,,,,,2022-09-13,1,,,,,ナルカス,0
1270,5470001019228,新規,0,2022-09-13,2022-09-13,株式会社瀬戸内手島農園,,株式会社,香川県,丸亀市,手島町１５０４番地,,37,202,7630111,,,,,,,2022-09-13,1,,,,,,0
1272,5480005006915,新規,0,2022-09-13,2022-09-13,学校法人神山学園,,その他の設立登記法人,徳島県,名西郡神山町,神領字西上角１７５－１,,36,342,7713310,,,,,,,2022-09-13,1,,,,,カミヤマガクエン,0
1276,5500005008520,新規,0,2022-09-13,2022-09-13,特定非営利活動法人ひめだん,,その他の設立登記法人,愛媛県,松山市,本町５丁目２番１号アスティオン本町２０１号,,38,201,7900811,,,,,,,2022-09-13,1,,,,,ヒメダン,0
1278,5700150108939,新規,0,2022-09-13,2022-05-24,福吉ジャズ実行委員会,,その他,福岡県,糸島市,二丈福井２８４１－１,,40,230,8191631,,,,,,,2022-05-24,1,,,,,フクヨシジヤズジツコウイインカイ,0
1294,6010001229425,新規,0,2022-09-13,2022-09-13,株式会社ＣＨＩＬＤａｔａ,,株式会社,東京都,千代田区,丸の内１丁目１１番１号パシフィックセンチュリープレイス丸の内８Ｆ,,13,101,1000005,,,,,,,2022-09-13,1,,,,,チャイルデータ,0
1295,6010001229490,新規,0,2022-09-13,2022-09-13,株式会社ソアリント,,株式会社,東京都,千代田区,神田佐久間町１丁目１４,,13,101,1010025,,,,,,,2022-09-13,1,,,,,ソアリント,0
1300,6010003038667,新規,0,2022-09-13,2022-09-13,ＡＭＡＩＲＯ　ＭＧＭＴ合同会社,,合同会社,東京都,中央区,銀座１丁目１２番４号Ｎ＆Ｅ．ＢＬＤ．６Ｆ,,13,102,1040061,,,,,,,2022-09-13,1,,,,,アマイロマネジメント,0
1313,6010401168669,新規,0,2022-09-13,2022-09-13,株式会社Ｒｅｓｐｏｎｄ,,株式会社,東京都,港区,六本木７丁目６番２－５０４号,,13,103,1060032,,,,,,,2022-09-13,1,,,,,レスポンド,0
1314,6010401169642,新規,0,2022-09-13,2022-09-13,株式会社ＷＨＹＴ,,株式会社,東京都,港区,南青山２丁目１４－１３,,13,103,1070062,,,,,,,2022-09-13,1,,,,,ホワイト,0
1315,6010401169683,新規,0,2022-09-13,2022-09-13,株式会社ビジクリ,,株式会社,東京都,港区,浜松町２丁目２－１５浜松町ダイヤビル２Ｆ,,13,103,1050013,,,,,,,2022-09-13,1,,,,,ビジクリ,0
1317,6010403028482,新規,0,2022-09-13,2022-09-13,合同会社あいおいＦＡＳ,,合同会社,東京都,港区,浜松町２丁目５番３号リブポート浜松町ビル,,13,103,1050013,,,,,,,2022-09-13,1,,,,,アイオイファズ,0
1319,6010505003342,新規,0,2022-09-13,2022-09-13,税理士法人蛤谷会計事務所,,その他の設立登記法人,東京都,台東区,台東４丁目１４番１号,,13,106,1100016,,,,,,,2022-09-13,1,,,,,ハマヤカイケイジムショ,0
1320,6010601061855,新規,0,2022-09-13,2022-09-13,ｉｖｉｅｗ株式会社,,株式会社,東京都,江東区,越中島３丁目２番７－１１２号,,13,108,1350044,,,,,,,2022-09-13,1,,,,,アイビュー,0
1321,6010605004125,新規,0,2022-09-13,2022-09-13,医療法人社団タンネ,,その他の設立登記法人,東京都,墨田区,太平４丁目１番５号オリナスモール４階,,13,107,1300012,,,,,,,2022-09-13,1,,,,,タンネ,0
1323,6010701043209,新規,0,2022-09-13,2022-09-13,株式会社未来教育探究社,,株式会社,東京都,品川区,西五反田２丁目３０番４号,,13,109,1410031,,,,,,,2022-09-13,1,,,,,ミライキョウイクタンキュウシャ,0
1325,6010901051614,新規,0,2022-09-13,2022-09-13,株式会社世田谷グリーンハーベスト,,株式会社,東京都,世田谷区,太子堂３丁目３７番１－Ｃ１１０９号,,13,112,1540004,,,,,,,2022-09-13,1,,,,,セタガヤグリーンハーベスト,0
1327,6010903007630,新規,0,2022-09-13,2022-09-13,合同会社ＬｉＲＩＳ,,合同会社,東京都,世田谷区,若林４丁目１番９号,,13,112,1540023,,,,,,,2022-09-13,1,,,,,リリス,0
1336,6011101100153,新規,0,2022-09-13,2022-09-13,株式会社ＣｏｌｏｕｒｆｕＲｏｏｔ,,株式会社,東京都,新宿区,四谷２丁目１０,,13,104,1600004,,,,,,,2022-09-13,1,,,,,,0
1342,6011501028465,新規,0,2022-09-13,2022-09-13,斉明株式会社,,株式会社,東京都,荒川区,東尾久５丁目１７番１５号３０２号,,13,118,1160012,,,,,,,2022-09-13,1,,,,,サイメイ,0
1344,6011603003696,新規,0,2022-09-13,2022-09-13,ＡＲ　ＪＡＰＡＮ合同会社,,合同会社,東京都,練馬区,上石神井４丁目３０番２号,,13,120,1770044,,,,,,,2022-09-13,1,,,,,エーアールジャパン,0
1348,6011803005261,新規,0,2022-09-13,2022-09-13,合同会社ロードスター,,合同会社,東京都,葛飾区,東四つ木４丁目２－１５第２ゆたか荘１０５,,13,122,1240014,,,,,,,2022-09-13,1,,,,,ロードスター,0
1365,6020003022397,新規,0,2022-09-13,2022-09-13,合同会社ＨＯＭＡＲＥ　ＭＵＳＩＣ,,合同会社,神奈川県,横浜市中区,山下町６０番地１－１８０６号室,,14,104,2310023,,,,,,,2022-09-13,1,,,,,ホマレミュージック,0
1368,6021001076939,新規,0,2022-09-13,2022-09-13,ＳＯＪＯ株式会社,,株式会社,神奈川県,海老名市,社家２丁目２４番,,14,215,2430424,,,,,,,2022-09-13,1,,,,,ソージョー,0
1369,6021001076971,新規,0,2022-09-13,2022-09-13,ＮＫホールディングス株式会社,,株式会社,神奈川県,綾瀬市,早川８４２番地７,,14,218,2521123,,,,,,,2022-09-13,1,,,,,エヌケイホールディングス,0
1370,6021001076988,新規,0,2022-09-13,2022-09-13,株式会社太陽,,株式会社,神奈川県,大和市,鶴間２丁目２番１３号－１０１,,14,213,2420004,,,,,,,2022-09-13,1,,,,,タイヨウ,0
1375,6021003012132,新規,0,2022-09-13,2022-09-13,合同会社まるふく,,合同会社,神奈川県,相模原市緑区,下九沢２８０番地４７,,14,151,2520134,,,,,,,2022-09-13,1,,,,,マルフク,0
1385,6030001150034,新規,0,2022-09-13,2022-09-13,Ｍｓジャパン株式会社,,株式会社,埼玉県,越谷市,七左町１丁目１６番地１,,11,222,3430851,,,,,,,2022-09-13,1,,,,,エムエスジャパン,0
1386,6030001150100,新規,0,2022-09-13,2022-09-13,株式会社ＫＹＡロジコム,,株式会社,埼玉県,さいたま市西区,西大宮３丁目３３番地１２,,11,101,3310078,,,,,,,2022-09-13,1,,,,,ケーワイエーロジコム,0
1389,6030003020169,新規,0,2022-09-13,2022-09-13,栗原金物店合同会社,,合同会社,埼玉県,さいたま市浦和区,北浦和３丁目１７番１６号,,11,107,3300074,,,,,,,2022-09-13,1,,,,,クリハラカナモノテン,0
1395,6040001124821,新規,0,2022-09-13,2022-09-13,ＴＲＡＧＥＮ株式会社,,株式会社,千葉県,千葉市稲毛区,黒砂１丁目２２－１５カーサ黒砂７１５,,12,103,2630042,,,,,,,2022-09-13,1,,,,,トラゲン,0
1396,6040001124986,新規,0,2022-09-13,2022-09-13,悟宿株式会社,,株式会社,千葉県,千葉市中央区,今井２丁目１１番地２５,,12,101,2600834,,,,,,,2022-09-13,1,,,,,ゴシュク,0
1397,6040001125068,新規,0,2022-09-13,2022-09-13,株式会社フェースージャパン,,株式会社,千葉県,八街市,八街は１０５－２０７,,12,230,2891107,,,,,,,2022-09-13,1,,,,,フェースージャパン,0
1404,6050001051676,新規,0,2022-09-13,2022-09-13,株式会社Ｎ・Ｋ・Ｓ　ＩＮＴＥＲＮＡＴＩＯＮＡＬ,,株式会社,茨城県,坂東市,岩井４３１５番地９,,08,228,3060631,,,,,,,2022-09-13,1,,,,,エヌケーエスインターナショナル,0
1406,6050003006843,新規,0,2022-09-13,2022-09-13,ＳＡＭＥＥ　ＨＯＬＤＩＮＧ合同会社,,合同会社,茨城県,下妻市,鎌庭３７８番地８,,08,210,3040819,,,,,,,2022-09-13,1,,,,,サミーホールディング,0
1409,6060001035265,新規,0,2022-09-13,2022-09-13,株式会社ムラタトータルサポート,,株式会社,栃木県,宇都宮市,平松本町３７４番地Ｂ棟Ｂ１,,09,201,3210932,,,,,,,2022-09-13,1,,,,,,0
1410,6060003004227,新規,0,2022-09-13,2022-09-13,合同会社訪問介護ステーション言の葉,,合同会社,栃木県,佐野市,小中町２０１５－１,,09,204,3270001,,,,,,,2022-09-13,1,,,,,ホウモンカイゴステーションコトノハ,0
1414,6080105006284,新規,0,2022-09-13,2022-09-13,一般社団法人ふじのくにサイクルスポーツコミッション,,その他の設立登記法人,静岡県,伊豆市,大野１８２６番地,,22,222,4102402,,,,,,,2022-09-13,1,,,,,フジノクニサイクルスポーツコミッション,0
1427,6100003006689,新規,0,2022-09-13,2022-09-13,合同会社ＲＩＤＥ　ＯＮ,,合同会社,長野県,岡谷市,本町２丁目３番１０号,,20,204,3940028,,,,,,,2022-09-13,1,,,,,ライドオン,0
1441,6120003022445,新規,0,2022-09-13,2022-09-13,合同会社ＩＦ,,合同会社,大阪府,大阪市東淀川区,淡路５丁目９番１４－１Ｃ号,,27,114,5330032,,,,,,,2022-09-13,1,,,,,アイエフ,0
1443,6120901046495,新規,0,2022-09-13,2022-09-13,株式会社Ｐｌｕｓ　Ｐｒｉｓｍ,,株式会社,大阪府,吹田市,山田西４丁目８番５－１号,,27,205,5650824,,,,,,,2022-09-13,1,,,,,プラスプリズム,0
1446,6130001072607,新規,0,2022-09-13,2022-09-13,京都雅斎株式会社,,株式会社,京都府,京都市北区,上賀茂葵之森町５－８５－２０２室,,26,101,6038034,,,,,,,2022-09-13,1,,,,,キョウトガサイ,0
1450,6140001127319,新規,0,2022-09-13,2022-09-13,株式会社ＡｌｉｌＡ,,株式会社,兵庫県,神戸市須磨区,戎町２丁目１番１７号,,28,107,6540023,,,,,,,2022-09-13,1,,,,,アリラ,0
1451,6140001127368,新規,0,2022-09-13,2022-09-13,株式会社サムライオイスター,,株式会社,兵庫県,赤穂市,中広１５７６番地１１,,28,212,6780232,,,,,,,2022-09-13,1,,,,,サムライオイスター,0
1456,6170003001774,新規,0,2022-09-13,2022-09-13,合同会社ブレイブワンコンサルティング,,合同会社,和歌山県,橋本市,城山台２丁目２９番地の９,,30,203,6480054,,,,,,,2022-09-13,1,,,,,ブレイブワンコンサルティング,0
1468,6180001152916,新規,0,2022-09-13,2022-09-13,ＳＥＷＡＮＡ　ＨＯＬＤＩＮＧＳ株式会社,,株式会社,愛知県,弥富市,東末広３丁目８６番地,,23,235,4980063,,,,,,,2022-09-13,1,,,,,セワナホールディングス,0
1474,6180301036620,新規,0,2022-09-13,2022-09-13,株式会社ラスＬＡＢＯ,,株式会社,愛知県,豊橋市,井原町１５番地の１（１０４）,,23,201,4400025,,,,,,,2022-09-13,1,,,,,ラスラボ,0
1475,6180303005441,新規,0,2022-09-13,2022-09-13,多縁メディカル合同会社,,合同会社,愛知県,西尾市,天竹町地蔵前１３番地,,23,213,4450051,,,,,,,2022-09-13,1,,,,,タエンメディカル,0
1476,6190001029758,新規,0,2022-09-13,2022-09-13,株式会社心華,,株式会社,三重県,多気郡明和町,大字大堀川新田２２番地３,,24,442,5150301,,,,,,,2022-09-13,1,,,,,シンカ,0
1481,6220001025027,新規,0,2022-09-13,2022-09-13,サンエム設備株式会社,,株式会社,石川県,小松市,木場台１８７番地,,17,203,9230312,,,,,,,2022-09-13,1,,,,,サンエムセツビ,0
1482,6220003003360,新規,0,2022-09-13,2022-09-13,合同会社ＫＭＹ‐Ｃ,,合同会社,石川県,金沢市,新神田２丁目９‐２６,,17,201,9218013,,,,,,,2022-09-13,1,,,,,ケーエムワイシー,0
1493,6260003004033,新規,0,2022-09-13,2022-09-13,合同会社得能,,合同会社,岡山県,総社市,清音柿木３２７番地,,33,208,7191176,,,,,,,2022-09-13,1,,,,,トクノウ,0
1494,6260005011135,新規,0,2022-09-13,2022-09-13,一般社団法人晴れの郷,,その他の設立登記法人,岡山県,久米郡美咲町,藤田下２９４番地,,33,666,7081513,,,,,,,2022-09-13,1,,,,,ハレノサト,0
1502,6290001098925,新規,0,2022-09-13,2022-09-13,株式会社Ｓｕｎ　Ｍａｌｌｉｋａ,,株式会社,福岡県,福岡市中央区,天神１丁目１番１号アクロス福岡１階ｆａｂｂｉｔ,,40,133,8100001,,,,,,,2022-09-13,1,,,,,サンマリカ,0
1504,6290003012941,新規,0,2022-09-13,2022-09-13,合同会社アイ・エフ・シー,,合同会社,福岡県,福岡市城南区,東油山４丁目３番３号,,40,136,8140155,,,,,,,2022-09-13,1,,,,,アイエフシー,0
1505,6290005018805,新規,0,2022-09-13,2022-09-13,一般社団法人あさ・くる,,その他の設立登記法人,福岡県,朝倉市,杷木志波２０４０番地２,,40,228,8381521,,,,,,,2022-09-13,1,,,,,アサクル,0
1506,6300005007095,新規,0,2022-09-13,2022-09-13,行政書士法人トータルパートナーズ,,その他の設立登記法人,佐賀県,鳥栖市,本鳥栖町８１４番地１アルシオネ鳥栖６０１,,41,203,8410026,,,,,,,2022-09-13,1,,,,,トータルパートナーズ,0
1512,6340003003902,新規,0,2022-09-13,2022-09-13,合同会社ＦＩＯＳ,,合同会社,鹿児島県,鹿児島市,田上２丁目４番３号,,46,201,8900034,,,,,,,2022-09-13,1,,,,,フィオス,0
1517,6360001030871,新規,0,2022-09-13,2022-09-13,株式会社ｆａｎ‐ｍｉｌｙ,,株式会社,沖縄県,名護市,字宮里１００４番地,,47,209,9050011,,,,,,,2022-09-13,1,,,,,ファンミリー,0
1526,6390001017024,新規,0,2022-09-13,2022-09-13,株式会社Ｙａｍａｇａｔａクラス,,株式会社,山形県,山形市,流通センター１丁目８番地の１,,06,201,9900071,,,,,,,2022-09-13,1,,,,,ヤマガタクラス,0
1531,6430003014262,新規,0,2022-09-13,2022-09-13,合同会社ＳＡＩＺＯ,,合同会社,北海道,札幌市白石区,東札幌三条４丁目５番２８－８０１号,,01,104,0030003,,,,,,,2022-09-13,1,,,,,サイゾー,0
1533,6450001013792,新規,0,2022-09-13,2022-09-13,ＮＡＫＡ電工株式会社,,株式会社,北海道,稚内市,中央１丁目４番３１号,,01,214,0970022,,,,,,,2022-09-13,1,,,,,ナカデンコウ,0
1539,6480005006914,新規,0,2022-09-13,2022-09-13,一般社団法人プールラフティング協会,,その他の設立登記法人,徳島県,三好市,山城町引地１４５番地５,,36,208,7795315,,,,,,,2022-09-13,1,,,,,,0
1550,6700150111685,新規,0,2022-09-13,2022-09-13,ＧＬＯＢＡＬ　ＴＹＲＥ　ＭＡＲＴ　ＰＲＩＶＡＴＥ　ＬＩＭＩＴＥＤ,,外国会社等,千葉県,山武市,上横地２９９５番地７,,12,237,2891313,スリランカ民主社会主義共和国、キャンディ、アクラナ、クドゥガラ、マータレーロード、Ｎｏ．１７１,,,,,,2022-09-13,1,,,,,グローバルタイヤマートプライベートリミテツド,0
1556,7010001229408,新規,0,2022-09-13,2022-09-13,株式会社Ｃａｉｘａ,,株式会社,東京都,中央区,銀座１丁目２２－１１銀座大竹ビジデンス２階,,13,102,1040061,,,,,,,2022-09-13,1,,,,,カイシャ,0
1557,7010001229449,新規,0,2022-09-13,2022-09-13,株式会社テクノスケープ,,株式会社,東京都,千代田区,九段南１丁目５番６号りそな九段ビル５階ＫＳフロア,,13,101,1020074,,,,,,,2022-09-13,1,,,,,テクノスケープ,0
1558,7010001229465,新規,0,2022-09-13,2022-09-13,アイヤゲームスジャパン株式会社,,株式会社,東京都,千代田区,内幸町２丁目２番２号富国生命ビル渥美坂井法律事務所・外国法共同事業所内,,13,101,1000011,,,,,,,2022-09-13,1,,,,,アイヤゲームスジャパン,0
1559,7010001229473,新規,0,2022-09-13,2022-09-13,株式会社Ｑ０,,株式会社,東京都,千代田区,一ツ橋１丁目１番１号,,13,101,1000003,,,,,,,2022-09-13,1,,,,,キューゼロ,0
1575,7010501049306,新規,0,2022-09-13,2022-09-13,軒特機械株式会社,,株式会社,東京都,台東区,千束３丁目２１－１２－３０６,,13,106,1110031,,,,,,,2022-09-13,1,,,,,ケントクキカイ,0
1576,7010501049371,新規,0,2022-09-13,2022-09-13,ＳＰＯＴＬＩＧＨＴ　ＣＯＲＰＯＲＡＴＩＯＮ株式会社,,株式会社,東京都,台東区,台東２丁目２７番３号ＮＳＫビル１０Ｆ,,13,106,1100016,,,,,,,2022-09-13,1,,,,,スポットライトコーポレーション,0
1582,7010601061846,新規,0,2022-09-13,2022-09-13,北洋株式会社,,株式会社,東京都,墨田区,錦糸４丁目１０番９－４０２号クレヴィア錦糸公園,,13,107,1300013,,,,,,,2022-09-13,1,,,,,ホクヨウ,0
1583,7010605004124,新規,0,2022-09-13,2022-09-13,医療法人社団ＯＳＭＯ,,その他の設立登記法人,東京都,墨田区,両国３丁目２０番８号１階２階,,13,107,1300026,,,,,,,2022-09-13,1,,,,,オスモ,0
1592,7010903007638,新規,0,2022-09-13,2022-09-13,テイエムケイ合同会社,,合同会社,東京都,世田谷区,奥沢１丁目２４番１５号グランデュール奥沢１０２,,13,112,1580083,,,,,,,2022-09-13,1,,,,,テイエムケイ,0
1600,7011001149711,新規,0,2022-09-13,2022-09-13,株式会社クリアロケーション,,株式会社,東京都,目黒区,自由が丘２丁目１６－１２ＲＪ３,,13,110,1520035,,,,,,,2022-09-13,1,,,,,クリアロケーション,0
1603,7011003015390,新規,0,2022-09-13,2022-09-13,合同会社ダイ,,合同会社,東京都,渋谷区,渋谷２丁目１９番１５宮益坂ビルディング６０９,,13,113,1500002,,,,,,,2022-09-13,1,,,,,ダイ,0
1607,7011101100144,新規,0,2022-09-13,2022-09-13,株式会社５９０,,株式会社,東京都,新宿区,早稲田鶴巻町５２０番地１０新宿早稲田レーベル１０７,,13,104,1620041,,,,,,,2022-09-13,1,,,,,コグレ,0
1608,7011101100177,新規,0,2022-09-13,2022-09-13,ＦＡＰＳ株式会社,,株式会社,東京都,新宿区,四谷４丁目２４番１６号御苑ハイム３階,,13,104,1600004,,,,,,,2022-09-13,1,,,,,エフエーピーエス,0
1611,7011105010397,新規,0,2022-09-13,2022-09-13,一般社団法人草間彌生,,その他の設立登記法人,東京都,新宿区,弁天町１０９,,13,104,1620851,,,,,,,2022-09-13,1,,,,,クサマヤヨイ,0
1613,7011303004515,新規,0,2022-09-13,2022-09-13,合同会社Ｐｉｎｅ,,合同会社,東京都,杉並区,阿佐谷北３丁目４０－４メイツ阿佐谷２０１,,13,115,1660001,,,,,,,2022-09-13,1,,,,,パイン,0
1617,7011501028456,新規,0,2022-09-13,2022-09-13,味之道株式会社,,株式会社,東京都,荒川区,西日暮里６丁目３７番１号西日暮里オフィス６号室,,13,118,1160013,,,,,,,2022-09-13,1,,,,,アジノミチ,0
1625,7012401039618,新規,0,2022-09-13,2022-09-13,株式会社ブビシャフ,,株式会社,東京都,府中市,南町１丁目１１番地の４２,,13,206,1830026,,,,,,,2022-09-13,1,,,,,ブビシャフ,0
1628,7012801021844,新規,0,2022-09-13,2022-09-13,株式会社ラルシアン,,株式会社,東京都,昭島市,武蔵野３丁目２番３５号ハイツ美の宮Ａ１０１号,,13,207,1960021,,,,,,,2022-09-13,1,,,,,ラルシアン,0
1644,7020003022371,新規,0,2022-09-13,2022-09-13,アシタノミチ合同会社,,合同会社,神奈川県,横浜市都筑区,北山田３丁目２８番１４号,,14,118,2240021,,,,,,,2022-09-13,1,,,,,アシタノミチ,0
1649,7020005015662,新規,0,2022-09-13,2022-09-13,プラウドシーズン横濱洋光台団地管理組合法人,,その他の設立登記法人,神奈川県,横浜市港南区,笹下４丁目１４番６０号,,14,111,2340052,,,,,,,2022-09-13,1,,,,,プラウドシーズンヨコハマヨウコウダイ,0
1651,7021001076987,新規,0,2022-09-13,2022-09-13,株式会社セキコー,,株式会社,神奈川県,相模原市南区,上鶴間本町９丁目１２番４０号,,14,153,2520318,,,,,,,2022-09-13,1,,,,,セキコー,0
1661,7030001150082,新規,0,2022-09-13,2022-09-13,株式会社ＣＨＥＥＲＦＵＬ,,株式会社,埼玉県,所沢市,緑町３丁目５番１６号,,11,208,3591111,,,,,,,2022-09-13,1,,,,,チアフル,0
1673,7040001125059,新規,0,2022-09-13,2022-09-13,株式会社アスピラーレ,,株式会社,千葉県,千葉市若葉区,殿台町８０番地１,,12,104,2640036,,,,,,,2022-09-13,1,,,,,アスピラーレ,0
1674,7040001125067,新規,0,2022-09-13,2022-09-13,儀商事株式会社,,株式会社,千葉県,松戸市,小金きよしケ丘４丁目１５番１号小金きよしヶ丘１階店舗,,12,207,2700013,,,,,,,2022-09-13,1,,,,,イショウジ,0
1675,7040003020811,新規,0,2022-09-13,2022-09-13,合同会社Ｎｉｐｐｏｎ　Ｄｅｌｔａ,,合同会社,千葉県,香取市,伊地山５６９番地１,,12,236,2870023,,,,,,,2022-09-13,1,,,,,ニッポンデルタ,0
1685,7060003004218,新規,0,2022-09-13,2022-09-13,合同会社結,,合同会社,栃木県,宇都宮市,駒生町２５８６番地１６,,09,201,3200065,,,,,,,2022-09-13,1,,,,,ムスビ,0
1686,7060003004226,新規,0,2022-09-13,2022-09-13,合同会社楽暮,,合同会社,栃木県,佐野市,高萩町１２２１番地７,,09,204,3270821,,,,,,,2022-09-13,1,,,,,ラクラ,0
1707,7110005016858,新規,0,2022-09-13,2022-09-13,医療法人社団やおえだ眼科,,その他の設立登記法人,新潟県,長岡市,長町２丁目１６４９番地１,,15,202,9400053,,,,,,,2022-09-13,1,,,,,ヤオエダガンカ,0
1717,7120001248735,新規,0,2022-09-13,2022-09-13,株式会社ルミエール,,株式会社,大阪府,大阪市淀川区,西三国１丁目２番３５号サン三国マンション５１４号,,27,123,5320006,,,,,,,2022-09-13,1,,,,,ルミエール,0
1720,7120003022452,新規,0,2022-09-13,2022-09-13,７ＡＲＣ　Ｐｒｏｊｅｃｔ合同会社,,合同会社,大阪府,大阪市西淀川区,大和田６丁目３番４１号,,27,113,5550032,,,,,,,2022-09-13,1,,,,,セブンアークプロジェクト,0
1734,7122001036244,新規,0,2022-09-13,2022-09-13,株式会社Ｓカラーペイント,,株式会社,大阪府,八尾市,水越７丁目１４番地,,27,212,5810856,,,,,,,2022-09-13,1,,,,,エスカラーペイント,0
1741,7130001072597,新規,0,2022-09-13,2022-09-13,日本大昌株式会社,,株式会社,京都府,京都市東山区,松原通大橋東四丁目清水二丁目２５７番地１７,,26,105,6050000,,,,,,,2022-09-13,1,,,,,ニホンダイショウ,0
1753,7140001127342,新規,0,2022-09-13,2022-09-13,えむず建築工房株式会社,,株式会社,兵庫県,神戸市須磨区,妙法寺字乗越２１８－５,,28,107,6540121,,,,,,,2022-09-13,1,,,,,エムズケンチクコウボウ,0
1754,7140001127350,新規,0,2022-09-13,2022-09-13,株式会社ＭＡＭＥ,,株式会社,兵庫県,神戸市兵庫区,芦原通２丁目１番２７号神戸木材運輸ビル２階南１号室,00127829,28,105,6520882,,,,,,,2022-09-13,1,,,,,マメ,0
1758,7140003018119,新規,0,2022-09-13,2022-09-13,合同会社結,,合同会社,兵庫県,神戸市須磨区,平田町２丁目２番１号ＨＩＲＡＴＡ１９７７ＢＵＩＬＤＩＮＧ２階,,28,107,6540021,,,,,,,2022-09-13,1,,,,,ユイ,0
1761,7150003002773,新規,0,2022-09-13,2022-09-13,Ｍｅｔａ＆Ｂｉｔ合同会社,,合同会社,奈良県,生駒郡三郷町,美松ケ丘西２丁目４番２８号,,29,343,6360804,,,,,,,2022-09-13,1,,,,,メタアンドビット,0
1762,7160001024505,新規,0,2022-09-13,2022-09-13,株式会社コネクト,,株式会社,滋賀県,大津市,朝日が丘１丁目１４－１５,,25,201,5200052,,,,,,,2022-09-13,1,,,,,コネクト,0
1765,7170003001773,新規,0,2022-09-13,2022-09-13,合同会社ＰＨ,,合同会社,和歌山県,和歌山市,三沢町２丁目１２－３三沢第８団地６０４号室,,30,201,6408123,,,,,,,2022-09-13,1,,,,,ピーエイチ,0
1771,7180001152849,新規,0,2022-09-13,2022-09-13,株式会社援人,,株式会社,愛知県,名古屋市緑区,篭山１丁目１０９－１シティコーポ小坂南１０１号,,23,114,4580007,,,,,,,2022-09-13,1,,,,,エンジン,0
1773,7180003024253,新規,0,2022-09-13,2022-09-13,合同会社Ｈａｔｃｈ,,合同会社,愛知県,名古屋市東区,芳野１丁目１８番７号レジディア白壁東３０１号,,23,102,4610027,,,,,,,2022-09-13,1,,,,,ハッチ,0
1777,7200001040448,新規,0,2022-09-13,2022-09-13,株式会社アルティメック,,株式会社,岐阜県,安八郡安八町,東結１１９１番地,,21,383,5030112,,,,,,,2022-09-13,1,,,,,アルティメック,0
1780,7220001025026,新規,0,2022-09-13,2022-09-13,優和産業株式会社,,株式会社,石川県,金沢市,古府１丁目７７番地,,17,201,9200362,,,,,,,2022-09-13,1,,,,,ユウワサンギョウ,0
1793,7290001098916,新規,0,2022-09-13,2022-09-13,株式会社ＡＬＢＡ,,株式会社,福岡県,福岡市中央区,清川２丁目１３番３４－５０１号,,40,133,8100005,,,,,,,2022-09-13,1,,,,,アルバ,0
1794,7290001098924,新規,0,2022-09-13,2022-09-13,株式会社アポロツアーズ,,株式会社,福岡県,福岡市中央区,平尾２丁目１７－１４ＩＮＧＳビル４Ｆ,,40,133,8100014,,,,,,,2022-09-13,1,,,,,アポロツアーズ,0
1798,7300001013063,新規,0,2022-09-13,2022-09-13,株式会社ＮＥＷ　ＳＴＡＮＤＡＲＤ,,株式会社,佐賀県,三養基郡基山町,大字宮浦４８６番地１７９,,41,341,8410204,,,,,,,2022-09-13,1,,,,,ニュースタンダード,0
1799,7310001018029,新規,0,2022-09-13,2022-09-13,株式会社フクロウ企画,,株式会社,長崎県,佐世保市,松瀬町７６０番地１,,42,202,8570102,,,,,,,2022-09-13,1,,,,,フクロウキカク,0
1801,7330001030106,新規,0,2022-09-13,2022-09-13,ニューオーダー株式会社,,株式会社,熊本県,八代市,松江本町２番５３－１０３号,,43,202,8660882,,,,,,,2022-09-13,1,,,,,ニューオーダー,0
1809,7360001030978,新規,0,2022-09-13,2022-09-13,リンクスル株式会社,,株式会社,沖縄県,浦添市,屋富祖２丁目５番１２号池原ビル１０２,,47,208,9012127,,,,,,,2022-09-13,1,,,,,リンクスル,0
1811,7360003012306,新規,0,2022-09-13,2022-09-13,合同会社カーメンテナンス沖縄,,合同会社,沖縄県,宜野湾市,伊佐１丁目１番９号２Ｆ,,47,205,9012221,,,,,,,2022-09-13,1,,,,,カーメンテナンスオキナワ,0
1813,7370001049043,新規,0,2022-09-13,2022-09-13,株式会社ＧＩＮＭＵＳＵＢＩ,,株式会社,宮城県,富谷市,日吉台３丁目９番地１０,,04,216,9813362,,,,,,,2022-09-13,1,,,,,ギンムスビ,0
1827,7430001087458,新規,0,2022-09-13,2022-09-13,株式会社モリタカ,,株式会社,北海道,札幌市白石区,菊水七条１丁目６番２号,,01,104,0030807,,,,,,,2022-09-13,1,,,,,モリタカ,0
1828,7430001087466,新規,0,2022-09-13,2022-09-13,株式会社プルプァ,,株式会社,北海道,札幌市中央区,南三条東３丁目８番地,,01,101,0600053,,,,,,,2022-09-13,1,,,,,プルプァ,0
1829,7430001087482,新規,0,2022-09-13,2022-09-13,株式会社Ｗ＆Ｖ,,株式会社,北海道,札幌市中央区,宮の森四条１２丁目３番２５号,,01,101,0640954,,,,,,,2022-09-13,1,,,,,ダブリューアンドブイ,0
1840,7500001024461,新規,0,2022-09-13,2022-09-13,株式会社ＡＴＩＣＳ,,株式会社,愛媛県,松山市,空港通２丁目１６番１４号,,38,201,7900054,,,,,,,2022-09-13,1,,,,,アティックス,0
1842,7700150109811,新規,0,2022-09-13,2022-06-15,福井県都市監査委員会,,その他,福井県,福井市,大手３丁目１０－１,,18,201,9100005,,,,,,,2022-06-15,1,,,,,フクイケントシカンサイインカイ,0
1843,7700150111263,新規,0,2022-09-13,2022-08-15,Ｍｕｓｉｃ　ｏｆ　Ｌｉｆｅ,,その他,埼玉県,蕨市,中央３丁目８番７号ファンタジア５０３号室,,11,223,3350004,,,,,,,2022-08-15,1,,,,,ミユージツクオブライフ,0
1844,7700150111569,新規,0,2022-09-13,2022-08-30,あらそわ連実行委員会,,その他,徳島県,徳島市,寺島本町西１丁目６１番地,,36,201,7700831,,,,,,,2022-08-30,1,,,,,アラソワレンジツコウイインカイ,0
1845,7700150111684,新規,0,2022-09-13,2022-09-13,Ｍ．Ａ．ＥＮＴＥＲＰＲＩＳＥＳ,,外国会社等,千葉県,山武市,上横地２９９５番地４,,12,237,2891313,スリランカ民主社会主義共和国、アヌラハプラ、ブッダガヤロード、カーダ５０、６１８／Ｅ／５６,,,,,,2022-09-13,1,,,,,エムエーエンタープライズ,0
1846,8010001229407,新規,0,2022-09-13,2022-09-13,株式会社ＱＵＯＮ,,株式会社,東京都,千代田区,飯田橋３丁目１１番２５号ＳＰＲＯＵＴＩＩＤＡＢＡＳＨＩ９階,,13,101,1020072,,,,,,,2022-09-13,1,,,,,クオン,0
1847,8010001229448,新規,0,2022-09-13,2022-09-13,株式会社ｇａｕｄｙ　ｖｉｌｌａｇｅ,,株式会社,東京都,中央区,東日本橋２丁目１番６号東日本橋藤和ビル３Ｆ,,13,102,1030004,,,,,,,2022-09-13,1,,,,,ガウディヴィレッジ,0
1848,8010001229472,新規,0,2022-09-13,2022-09-13,株式会社ゴールド・ブラザーズ,,株式会社,東京都,中央区,銀座１丁目２２－１１銀座大竹ビジデンス２階,,13,102,1040061,,,,,,,2022-09-13,1,,,,,ゴールドブラザーズ,0
1849,8010001229489,新規,0,2022-09-13,2022-09-13,株式会社Ｊ‐ＦＵＮ８,,株式会社,東京都,千代田区,丸の内１丁目８番２号,,13,101,1000005,,,,,,,2022-09-13,1,,,,,ジェイファンエイト,0
1851,8010003038616,新規,0,2022-09-13,2022-09-13,東京オフィスＥａｓｔ２合同会社,,合同会社,東京都,千代田区,丸の内３丁目１番１号東京共同会計事務所内,,13,101,1000005,,,,,,,2022-09-13,1,,,,,トウキョウオフィスイーストツー,0
1854,8010101015327,新規,0,2022-09-13,2022-09-13,株式会社ＤＵＯ,,株式会社,東京都,八王子市,石川町１５３２－３６,,13,201,1920032,,,,,,,2022-09-13,1,,,,,デュオ,0
1877,8010901051629,新規,0,2022-09-13,2022-09-13,株式会社Ｓ,,株式会社,東京都,世田谷区,三軒茶屋２丁目２１番２－４０２号,,13,112,1540024,,,,,,,2022-09-13,1,,,,,エス,0
1881,8011001149693,新規,0,2022-09-13,2022-09-13,株式会社プロドウガ,,株式会社,東京都,渋谷区,神宮前６丁目２３番４号桑野ビル２階,,13,113,1500001,,,,,,,2022-09-13,1,,,,,プロドウガ,0
1882,8011001149735,新規,0,2022-09-13,2022-09-13,Ｓｏｌｕｔｅ株式会社,,株式会社,東京都,渋谷区,神泉町１０－１５,,13,113,1500045,,,,,,,2022-09-13,1,,,,,ソリュート,0
1883,8011001149743,新規,0,2022-09-13,2022-09-13,株式会社Ｎｏｅｎ,,株式会社,東京都,渋谷区,東１丁目２５番２号丸橋ビル２Ｆ,,13,113,1500011,,,,,,,2022-09-13,1,,,,,ノエン,0
1884,8011003015349,新規,0,2022-09-13,2022-09-13,Ｌａｓ　Ｒｏｚａｓ合同会社,,合同会社,東京都,渋谷区,恵比寿南３丁目７番７－３０４号,,13,113,1500022,,,,,,,2022-09-13,1,,,,,,0
1885,8011003015381,新規,0,2022-09-13,2022-09-13,合同会社アンナマリー,,合同会社,東京都,渋谷区,幡ヶ谷３丁目３９番１２号渋谷ウェストビル１階,,13,113,1510072,,,,,,,2022-09-13,1,,,,,アンナマリー,0
1890,8011101100143,新規,0,2022-09-13,2022-09-13,株式会社ｍｅｍｍａ,,株式会社,東京都,新宿区,大久保３丁目１４番３－２０８号,,13,104,1690072,,,,,,,2022-09-13,1,,,,,メンマ,0
1891,8011101100168,新規,0,2022-09-13,2022-09-13,株式会社ＺＥＲＯ　ＣＲＡＦＴ,,株式会社,東京都,新宿区,北新宿１丁目３６番５号,,13,104,1690074,,,,,,,2022-09-13,1,,,,,ゼロクラフト,0
1894,8011103012155,新規,0,2022-09-13,2022-09-13,合同会社ＤＡＴ　ＣＡＮＧ,,合同会社,東京都,新宿区,百人町１丁目３番２９レオパレス新宿Ａ２０１号,,13,104,1690073,,,,,,,2022-09-13,1,,,,,ダットカン,0
1895,8011301028102,新規,0,2022-09-13,2022-09-13,株式会社ダンエステート,,株式会社,東京都,杉並区,堀ノ内２丁目１番２８－１０３号,,13,115,1660013,,,,,,,2022-09-13,1,,,,,ダンエステート,0
1898,8011303004522,新規,0,2022-09-13,2022-09-13,合同会社Ｍｅｒｃｕｒｙ．Ｖｉｎｔａｇｅ,,合同会社,東京都,杉並区,阿佐谷北３丁目３１番２１号Ｔ＆Ｍライフサポート社宅１,,13,115,1660001,,,,,,,2022-09-13,1,,,,,マーキュリーヴィンテージ,0
1907,8012401039633,新規,0,2022-09-13,2022-09-13,株式会社コイズミ,,株式会社,東京都,多摩市,中沢２丁目８番地の１,,13,224,2060036,,,,,,,2022-09-13,1,,,,,コイズミ,0
1908,8012401039641,新規,0,2022-09-13,2022-09-13,株式会社オピス,,株式会社,東京都,三鷹市,井の頭５丁目４番１９号ＫＯＴＩ：２０１,,13,204,1810001,,,,,,,2022-09-13,1,,,,,オピス,0
1918,8020001148168,新規,0,2022-09-13,2022-09-13,株式会社みくも,,株式会社,神奈川県,横浜市金沢区,能見台通２番１２号,,14,108,2360053,,,,,,,2022-09-13,1,,,,,ミクモ,0
1919,8020001148201,新規,0,2022-09-13,2022-09-13,Ｄ２株式会社,,株式会社,神奈川県,横浜市鶴見区,平安町２丁目２番地５河西ビル１０１,,14,101,2300031,,,,,,,2022-09-13,1,,,,,ディーツー,0
1922,8020003022379,新規,0,2022-09-13,2022-09-13,合同会社エスポワール,,合同会社,神奈川県,川崎市中原区,下小田中１丁目２９番１５－３０３号なとりエミネンス,,14,133,2110041,,,,,,,2022-09-13,1,,,,,エスポワール,0
1923,8020003022395,新規,0,2022-09-13,2022-09-13,合同会社エムイー,,合同会社,神奈川県,川崎市中原区,新丸子町７２０番地９サンコート２０３,,14,133,2110005,,,,,,,2022-09-13,1,,,,,エムイー,0
1925,8021001076978,新規,0,2022-09-13,2022-09-13,株式会社ＢＢＩＣ,,株式会社,神奈川県,茅ヶ崎市,浜竹４丁目１番２５－５号,,14,207,2530021,,,,,,,2022-09-13,1,,,,,ビービーアイシー,0
1940,8030003020191,新規,0,2022-09-13,2022-09-13,合同会社Ｃｈａｒｇｅ,,合同会社,埼玉県,さいたま市南区,別所５丁目１５番２号,,11,108,3360021,,,,,,,2022-09-13,1,,,,,チャージ,0
1947,8040001125017,新規,0,2022-09-13,2022-09-13,アースエンタープライズ株式会社,,株式会社,千葉県,千葉市中央区,生実町２０３１番地９,,12,101,2600813,,,,,,,2022-09-13,1,,,,,アースエンタープライズ,0
1949,8040003020810,新規,0,2022-09-13,2022-09-13,合同会社Ｓｕｈａｄａ　Ｊａｐａｎ　Ｌａｎｋａ,,合同会社,千葉県,山武市,木原８７番地,,12,237,2891212,,,,,,,2022-09-13,1,,,,,スハダジャパンランカ,0
1954,8050001051674,新規,0,2022-09-13,2022-09-13,株式会社マルセイ,,株式会社,茨城県,龍ケ崎市,佐貫町３７５４番３,,08,208,3010033,,,,,,,2022-09-13,1,,,,,マルセイ,0
1957,8050003006841,新規,0,2022-09-13,2022-09-13,エルスロット合同会社,,合同会社,茨城県,神栖市,大野原１丁目８番４号プリムローズ４－１０１,,08,232,3140144,,,,,,,2022-09-13,1,,,,,エルスロット,0
1960,8070001039577,新規,0,2022-09-13,2022-09-13,株式会社利根沼田野菜,,株式会社,群馬県,沼田市,東倉内町８３７番地,,10,206,3780043,,,,,,,2022-09-13,1,,,,,トネヌマタヤサイ,0
1961,8070001039635,新規,0,2022-09-13,2022-09-13,株式会社Ｅｉｇｈｔ　ｔｒａｄｉｎｇ,,株式会社,群馬県,前橋市,駒形町５０５－４０、２０１,,10,201,3792122,,,,,,,2022-09-13,1,,,,,エイトトレーディング,0
1969,8080103002647,新規,0,2022-09-13,2022-09-13,合同会社ＨＯＴｍｅ,,合同会社,静岡県,賀茂郡南伊豆町,下賀茂８３９番地３,,22,304,4150303,,,,,,,2022-09-13,1,,,,,ホットミー,0
1980,8120003022435,新規,0,2022-09-13,2022-09-13,合同会社三昌,,合同会社,大阪府,枚方市,山之上西町７番５２号,,27,210,5730048,,,,,,,2022-09-13,1,,,,,サンショウ,0
1988,8122001036235,新規,0,2022-09-13,2022-09-13,株式会社ユウイテクノ,,株式会社,大阪府,東大阪市,若江本町１丁目１番５１号,,27,227,5780942,,,,,,,2022-09-13,1,,,,,ユウイテクノ,0
1996,8140001127366,新規,0,2022-09-13,2022-09-13,株式会社ＳＹＭ,,株式会社,兵庫県,丹波篠山市,住吉台６９－３,,28,221,6692231,,,,,,,2022-09-13,1,,,,,エスワイエム,0
2004,8160005011110,新規,0,2022-09-13,2022-09-13,一般社団法人おおりびと,,その他の設立登記法人,滋賀県,彦根市,三津屋町１０８８,,25,202,5220059,,,,,,,2022-09-13,1,,,,,オオリビト,0
2010,8180001152856,新規,0,2022-09-13,2022-09-13,株式会社ＳＳＳ,,株式会社,愛知県,北名古屋市,高田寺東の川３１番地,,23,234,4810011,,,,,,,2022-09-13,1,,,,,スリーエス,0
2011,8180001153012,新規,0,2022-09-13,2022-09-13,株式会社アリーズコンサルティング,,株式会社,愛知県,名古屋市中区,丸の内１丁目４番１２号,,23,106,4600002,,,,,,,2022-09-13,1,,,,,アリーズコンサルティング,0
2015,8190003004088,新規,0,2022-09-13,2022-09-13,合同会社ｉｍａｉ,,合同会社,三重県,四日市市,諏訪栄町８番８号ブラウンビル１Ｆ,,24,202,5100086,,,,,,,2022-09-13,1,,,,,イマイ,0
2019,8210001019085,新規,0,2022-09-13,2022-09-13,株式会社ＬａＬ,,株式会社,福井県,福井市,大町２丁目１１０番地ツジビル１０３,,18,201,9188116,,,,,,,2022-09-13,1,,,,,ラル,0
2021,8220001025025,新規,0,2022-09-13,2022-09-13,株式会社ビックオートスズ,,株式会社,石川県,珠洲市,若山町出田１０字４６番地,,17,205,9271233,,,,,,,2022-09-13,1,,,,,ビックオートスズ,0
2028,8240001060367,新規,0,2022-09-13,2022-09-13,株式会社ＯＮＥ　ＶＯＷ　ＦＩＬＭＳ　ＪＡＰＡＮ,,株式会社,広島県,広島市安佐南区,上安１丁目２２番２５号,,34,105,7310154,,,,,,,2022-09-13,1,,,,,ワンバウフィルムスジャパン,0
2029,8240003005799,新規,0,2022-09-13,2022-09-13,合同会社ｎａｎｓａｔｅ．ｃｏｍ,,合同会社,広島県,広島市佐伯区,五日市５丁目１５－３コーポ泉２０１,,34,108,7315127,,,,,,,2022-09-13,1,,,,,ナンサテドットコム,0
2036,8290001098907,新規,0,2022-09-13,2022-09-13,Ｍｉｘｕ　Ｊａｐａｎ株式会社,,株式会社,福岡県,福岡市博多区,博多駅前３丁目２７番２４号博多タナカビル７Ｂ,,40,132,8120011,,,,,,,2022-09-13,1,,,,,ミシュージャパン,0
2039,8300001013062,新規,0,2022-09-13,2022-09-13,株式会社真誠,,株式会社,佐賀県,伊万里市,山代町楠久６８４番地１,,41,205,8494251,,,,,,,2022-09-13,1,,,,,シンセイ,0
2044,8330005010557,新規,0,2022-09-13,2022-09-13,一般社団法人２ＭＯＲＯ,,その他の設立登記法人,熊本県,合志市,幾久富１２５０番地３,,43,216,8611112,,,,,,,2022-09-13,1,,,,,,0
2045,8340003003900,新規,0,2022-09-13,2022-09-13,合同会社０１ＥＧＧ,,合同会社,鹿児島県,鹿屋市,白崎町２０－１ホワイトベッセル１０３号室,,46,203,8930016,,,,,,,2022-09-13,1,,,,,ゼロワンエッグ,0
2050,8360001030928,新規,0,2022-09-13,2022-09-13,株式会社斬新クリエイティブ,,株式会社,沖縄県,名護市,大西４丁目１８番２２号,,47,209,9050018,,,,,,,2022-09-13,1,,,,,ザンシンクリエイティブ,0
2051,8360003012305,新規,0,2022-09-13,2022-09-13,ＭＯＮＧＯＬＩＡＮ合同会社,,合同会社,沖縄県,浦添市,屋富祖１丁目３番１号永山アパートＢ－５,,47,208,9012127,,,,,,,2022-09-13,1,,,,,モンゴリアン,0
2059,8380003005273,新規,0,2022-09-13,2022-09-13,合同会社Ｈｏｌｌｙ,,合同会社,福島県,会津若松市,花春町２番４０号,,07,202,9650804,,,,,,,2022-09-13,1,,,,,ホーリー,0
2060,8380005012623,新規,0,2022-09-13,2022-09-13,一般社団法人みんぽうスポーツ・文化コミッション,,その他の設立登記法人,福島県,南相馬市,原町区三島町２丁目１９３番地,,07,212,9750012,,,,,,,2022-09-13,1,,,,,ミンポウスポーツブンカコミッション,0
2062,8390001017022,新規,0,2022-09-13,2022-09-13,株式会社庄内鉄板リース,,株式会社,山形県,酒田市,東大町３丁目３４番地の１９,,06,204,9980851,,,,,,,2022-09-13,1,,,,,ショウナイテッパンリース,0
2069,8430001087449,新規,0,2022-09-13,2022-09-13,株式会社妃,,株式会社,北海道,札幌市中央区,南五条西４丁目１３番地,,01,101,0640805,,,,,,,2022-09-13,1,,,,,キサキ,0
2077,8490005006861,新規,0,2022-09-13,2022-09-13,中土佐町国際事業協同組合,,その他の設立登記法人,高知県,高岡郡中土佐町,久礼２４１６,,39,401,7891301,,,,,,,2022-09-13,1,,,,,ナカトサチョウコクサイジギョウ,0
2080,8500001024460,新規,0,2022-09-13,2022-09-13,株式会社ｕｌｕ,,株式会社,愛媛県,松山市,東野５丁目１２番１１号ブリズ・ド・エストＡ１０２号,,38,201,7900903,,,,,,,2022-09-13,1,,,,,ウル,0
2087,9010001229422,新規,0,2022-09-13,2022-09-13,株式会社ＴＲＡＤＩＮＮＯ,,株式会社,東京都,中央区,築地６丁目１７番４号リードシー築地ビル４階,,13,102,1040045,,,,,,,2022-09-13,1,,,,,トレディンノ,0
2088,9010001229439,新規,0,2022-09-13,2022-09-13,株式会社ＮＧＣ,,株式会社,東京都,千代田区,神田神保町２丁目１４番地１１,,13,101,1010051,,,,,,,2022-09-13,1,,,,,エヌジーシー,0
2089,9010001229471,新規,0,2022-09-13,2022-09-13,アドバレス株式会社,,株式会社,東京都,中央区,新川２丁目７番１１－７０５号,,13,102,1040033,,,,,,,2022-09-13,1,,,,,アドバレス,0
2092,9010003038615,新規,0,2022-09-13,2022-09-13,合同会社ＫＮＴＩＭ,,合同会社,東京都,千代田区,丸の内３丁目１番１号東京共同会計事務所内,,13,101,1000005,,,,,,,2022-09-13,1,,,,,ケイエヌティアイエム,0
2109,9010405021350,新規,0,2022-09-13,2022-09-13,一般社団法人リードマインドジャパン,,その他の設立登記法人,東京都,港区,浜松町２丁目２番１５号浜松町ダイヤビル２Ｆ,,13,103,1050013,,,,,,,2022-09-13,1,,,,,リードマインドジャパン,0
2112,9010501049361,新規,0,2022-09-13,2022-09-13,株式会社ＴＯＧＡＲＩエンターテイメント,,株式会社,東京都,台東区,浅草４丁目２１番８－１３０１号ソルフィエスタ浅草,,13,106,1110032,,,,,,,2022-09-13,1,,,,,トガリエンターテイメント,0
2113,9010503006716,新規,0,2022-09-13,2022-09-13,ＡＬＡＮ　ＬＩＵ合同会社,,合同会社,東京都,台東区,浅草橋５丁目４番４号,,13,106,1110053,,,,,,,2022-09-13,1,,,,,アランリウ,0
2118,9010701043206,新規,0,2022-09-13,2022-09-13,株式会社ウィルパートナーズ,,株式会社,東京都,品川区,小山３丁目２４番２号,,13,109,1420062,,,,,,,2022-09-13,1,,,,,ウィルパートナーズ,0
2133,9011101100150,新規,0,2022-09-13,2022-09-13,株式会社鈴木商店,,株式会社,東京都,新宿区,歌舞伎町１丁目１番１５－８０３号,,13,104,1600021,,,,,,,2022-09-13,1,,,,,スズキショウテン,0
2134,9011101100159,新規,0,2022-09-13,2022-09-13,株式会社早稲田クラフト醸造所,,株式会社,東京都,新宿区,高田馬場２丁目４番２２号,,13,104,1690075,,,,,,,2022-09-13,1,,,,,ワセダクラフトジョウゾウジョ,0
2141,9011605002470,新規,0,2022-09-13,2022-09-13,医療法人社団ＡＡＥ,,その他の設立登記法人,東京都,練馬区,田柄５丁目１６番５号Ｃクリニック光が丘３階,,13,120,1790073,,,,,,,2022-09-13,1,,,,,エーエーイー,0
2145,9011703003255,新規,0,2022-09-13,2022-09-13,Ｃｏｎｎｅｃｔｒｕｓｔ合同会社,,合同会社,東京都,江戸川区,瑞江２丁目５番３号,,13,123,1320011,,,,,,,2022-09-13,1,,,,,コネクトラスト,0
2147,9011801041264,新規,0,2022-09-13,2022-09-13,株式会社村松防水,,株式会社,東京都,足立区,西伊興３丁目１２番１７号,,13,121,1210824,,,,,,,2022-09-13,1,,,,,ムラマツボウスイ,0
2148,9012401039624,新規,0,2022-09-13,2022-09-13,ＳＴＡＹ株式会社,,株式会社,東京都,武蔵野市,吉祥寺東町２丁目１０番４号,,13,203,1800002,,,,,,,2022-09-13,1,,,,,ステイ,0
2153,9012801021842,新規,0,2022-09-13,2022-09-13,株式会社Ｍｓｕｓ‐Ｙ,,株式会社,東京都,国立市,西１丁目３番地の２３シャーメゾン国立ウエスト１０４,,13,215,1860005,,,,,,,2022-09-13,1,,,,,エムサスワイ,0
2154,9012803002881,新規,0,2022-09-13,2022-09-13,ＭＩＳＳＯ合同会社,,合同会社,東京都,国分寺市,戸倉４丁目２番１９‐１０５号,,13,214,1850003,,,,,,,2022-09-13,1,,,,,ミッソ,0
2156,9013101009009,新規,0,2022-09-13,2022-09-13,株式会社飛鳥通商,,株式会社,東京都,羽村市,羽加美３丁目１２番３号,,13,227,2050016,,,,,,,2022-09-13,1,,,,,アスカツウショウ,0
2166,9020001148191,新規,0,2022-09-13,2022-09-13,株式会社Ｋｉｚｕｋｉホールディングス,,株式会社,神奈川県,横浜市都筑区,川和町１０１番地,,14,118,2240057,,,,,,,2022-09-13,1,,,,,キズキホールディングス,0
2167,9020001148200,新規,0,2022-09-13,2022-09-13,セーフティガード警備横浜株式会社,,株式会社,神奈川県,横浜市緑区,青砥町１０５７番地コーポ園青砥１０１号室,,14,113,2260022,,,,,,,2022-09-13,1,,,,,セーフティガードケイビヨコハマ,0
2169,9020003022394,新規,0,2022-09-13,2022-09-13,ＵＮＩＦＯＲＣＥ合同会社,,合同会社,神奈川県,横浜市南区,永田東２丁目２番１６－９号,,14,105,2320072,,,,,,,2022-09-13,1,,,,,ユニフォース,0
2172,9021001076878,新規,0,2022-09-13,2022-09-13,株式会社水姫,,株式会社,神奈川県,小田原市,扇町４丁目７番１０号,,14,206,2500001,,,,,,,2022-09-13,1,,,,,ミズキ,0
2173,9021001076977,新規,0,2022-09-13,2022-09-13,株式会社セントラルサン,,株式会社,神奈川県,茅ヶ崎市,浜須賀１４番３号,,14,207,2530035,,,,,,,2022-09-13,1,,,,,セントラルサン,0
2180,9030001150089,新規,0,2022-09-13,2022-09-13,株式会社ＷＥＤＧＥＷＥＢ,,株式会社,埼玉県,入間市,大字下藤沢１０９０番地２レグザ入間が丘３０２,,11,225,3580011,,,,,,,2022-09-13,1,,,,,ウェッジウェブ,0
2181,9030001150097,新規,0,2022-09-13,2022-09-13,株式会社和心堂,,株式会社,埼玉県,さいたま市北区,吉野町２丁目１７２番地５,,11,102,3310811,,,,,,,2022-09-13,1,,,,,ワゴコロドウ,0
2182,9030001150114,新規,0,2022-09-13,2022-09-13,株式会社ＭＫコンフィアンサ,,株式会社,埼玉県,さいたま市中央区,上落合７丁目７番２－３３０３号,,11,105,3380001,,,,,,,2022-09-13,1,,,,,エムケーコンフィアンサ,0
2189,9040005021731,新規,0,2022-09-13,2022-09-13,一般社団法人旭市観光物産協会,,その他の設立登記法人,千葉県,旭市,ニの２７８７番地１,,12,215,2892504,,,,,,,2022-09-13,1,,,,,アサヒシカンコウブッサンキョウカイ,0
2191,9050001051673,新規,0,2022-09-13,2022-09-13,株式会社ＫＯＴＥ　ｓｔａｂｌｅ,,株式会社,茨城県,土浦市,大和町３番１５－１００３号,,08,203,3000036,,,,,,,2022-09-13,1,,,,,コテステーブル,0
2204,9070001039634,新規,0,2022-09-13,2022-09-13,株式会社ＮＳホールディングス,,株式会社,群馬県,邑楽郡大泉町,大字寄木戸１２１番地,,10,524,3700535,,,,,,,2022-09-13,1,,,,,エヌエスホールディングス,0
2214,9080401026041,新規,0,2022-09-13,2022-09-13,株式会社ＲＥＢＯＲＮ　ＳＥＲＶＩＣＥ,,株式会社,静岡県,浜松市中区,早出町１０４０番地の４,,22,131,4350054,,,,,,,2022-09-13,1,,,,,リボーンサービス,0
2219,9100005012914,新規,0,2022-09-13,2022-09-13,社会保険労務士法人ますだ事務所,,その他の設立登記法人,長野県,長野市,往生地１３０６番地１,,20,201,3810000,,,,,,,2022-09-13,1,,,,,マスダジムショ,0
2221,9110005016856,新規,0,2022-09-13,2022-09-13,医療法人社団畑歯科医院,,その他の設立登記法人,新潟県,上越市,とよば１０７番地イル・クオーレとよば１Ｆ,,15,222,9430146,,,,,,,2022-09-13,1,,,,,ハタシカイイン,0
2228,9120001248766,新規,0,2022-09-13,2022-09-13,株式会社Ｎｉｔｔｓｕファーム,,株式会社,大阪府,大阪市中央区,南船場３丁目９－１心斎橋プラチナプラザ５階,,27,128,5420081,,,,,,,2022-09-13,1,,,,,,0
2229,9120001248774,新規,0,2022-09-13,2022-09-13,江東商事株式会社,,株式会社,大阪府,大阪市西淀川区,竹島３丁目１１番１７号,,27,113,5550011,,,,,,,2022-09-13,1,,,,,エトウショウジ,0
2230,9120001248782,新規,0,2022-09-13,2022-09-13,株式会社ポプラス,,株式会社,大阪府,大阪市中央区,上本町西１丁目５番９号シャイニングスター４０７室,,27,128,5420062,,,,,,,2022-09-13,1,,,,,ポプラス,0
2231,9120001248790,新規,0,2022-09-13,2022-09-13,盛豊商事株式会社,,株式会社,大阪府,大阪市都島区,都島中通２丁目５番１２号,,27,102,5340022,,,,,,,2022-09-13,1,,,,,セイホウショウジ,0
2232,9120001248824,新規,0,2022-09-13,2022-09-13,株式会社ナチュラ,,株式会社,大阪府,大阪市東成区,大今里１丁目２６番２７号,,27,115,5370012,,,,,,,2022-09-13,1,,,,,ナチュラ,0
2233,9120003022434,新規,0,2022-09-13,2022-09-13,Ｂｌｕｅ　Ｌａｇｏｏｎ合同会社,,合同会社,大阪府,大阪市東淀川区,東中島３丁目２－６－７Ｆ,,27,114,5330033,,,,,,,2022-09-13,1,,,,,ブルーラグーン,0
2239,9122001036242,新規,0,2022-09-13,2022-09-13,株式会社にんじん企画,,株式会社,大阪府,東大阪市,荒川２丁目８番２８－４０１号,,27,227,5770843,,,,,,,2022-09-13,1,,,,,ニンジンキカク,0
2244,9130001072629,新規,0,2022-09-13,2022-09-13,株式会社Ｆｉｒｅｌｉｇｈｔ,,株式会社,京都府,京都市中京区,御池通高倉西北角４Ｆ,,26,104,6040000,,,,,,,2022-09-13,1,,,,,ファイヤーライト,0
2252,9140001127324,新規,0,2022-09-13,2022-09-13,株式会社メタゴリラ,,株式会社,兵庫県,神戸市中央区,栄町通３丁目３番５号,,28,110,6500023,,,,,,,2022-09-13,1,,,,,メタゴリラ,0
2259,9150001025816,新規,0,2022-09-13,2022-09-13,株式会社いぶき,,株式会社,奈良県,御所市,大字南十三６６番地の１,,29,208,6392204,,,,,,,2022-09-13,1,,,,,イブキ,0
2274,9180001153003,新規,0,2022-09-13,2022-09-13,エルフィールド株式会社,,株式会社,愛知県,江南市,大字上奈良町７３番地,,23,217,4830000,,,,,,,2022-09-13,1,,,,,エルフィールド,0
2277,9180301036626,新規,0,2022-09-13,2022-09-13,ＭＫ文化総合株式会社,,株式会社,愛知県,豊橋市,曙町字南松原５７番地５,00127838,23,201,4418151,,,,,,,2022-09-13,1,,,,,エムケイブンカソウゴウ,0
2278,9180303005439,新規,0,2022-09-13,2022-09-13,ＰＴＴ合同会社,,合同会社,愛知県,碧南市,白砂町５丁目８番地,,23,209,4470076,,,,,,,2022-09-13,1,,,,,ピーティーティー,0
2281,9230001019520,新規,0,2022-09-13,2022-09-13,株式会社エールアジアビジネスコンサルティング,,株式会社,富山県,高岡市,二上１６３２番地,,16,202,9330981,,,,,,,2022-09-13,1,,,,,エールアジアビジネスコンサルティング,0
2283,9240001060366,新規,0,2022-09-13,2022-09-13,株式会社福龍,,株式会社,広島県,庄原市,戸郷町７６番地１,,34,210,7270017,,,,,,,2022-09-13,1,,,,,フクリュウ,0
2286,9240003005798,新規,0,2022-09-13,2022-09-13,広島不動産合同会社,,合同会社,広島県,広島市南区,松原町３番２－３６０７号グランクロスタワー広島,,34,103,7320822,,,,,,,2022-09-13,1,,,,,ヒロシマフドウサン,0
2298,9290001098906,新規,0,2022-09-13,2022-09-13,株式会社ＭＡＳＴ,,株式会社,福岡県,筑後市,大字長浜１２５１番地１１,,40,211,8330005,,,,,,,2022-09-13,1,,,,,マスト,0
2299,9290001098914,新規,0,2022-09-13,2022-09-13,株式会社ブランボヤージュホールディングス,,株式会社,福岡県,福岡市中央区,舞鶴３丁目１番８号本町ビル３階,,40,133,8100073,,,,,,,2022-09-13,1,,,,,ブランボヤージュホールディングス,0
2302,9290003012947,新規,0,2022-09-13,2022-09-13,ＮＡＴ合同会社,,合同会社,福岡県,福岡市南区,大楠３丁目２４番６号,,40,134,8150082,,,,,,,2022-09-13,1,,,,,エヌエイティー,0
2305,9300003001881,新規,0,2022-09-13,2022-09-13,合同会社幸の花,,合同会社,佐賀県,鳥栖市,萱方町１５８番地１Ａ－２０４,,41,203,8410081,,,,,,,2022-09-13,1,,,,,ユキノハナ,0
2311,9370001049041,新規,0,2022-09-13,2022-09-13,株式会社ＷＨＩＴＥ　ＢＡＳＥ,,株式会社,宮城県,気仙沼市,東八幡前３２０番地４,,04,205,9880811,,,,,,,2022-09-13,1,,,,,ホワイトベース,0
2319,9410001013281,新規,0,2022-09-13,2022-09-13,ネコパンチ株式会社,,株式会社,秋田県,秋田市,牛島南２丁目２１番４０号,,05,201,0100066,,,,,,,2022-09-13,1,,,,,ネコパンチ,0
2326,9430001087464,新規,0,2022-09-13,2022-09-13,株式会社ＭＹ　ＶＩＳＩＯＮ,,株式会社,北海道,札幌市中央区,南五条西３丁目８番地Ｎグランデビル３Ｆ,,01,101,0640805,,,,,,,2022-09-13,1,,,,,マイビジョン,0
2327,9430001087480,新規,0,2022-09-13,2022-09-13,株式会社うら住宅設備,,株式会社,北海道,千歳市,幸福２丁目７番１５号,,01,224,0660082,,,,,,,2022-09-13,1,,,,,ウラジュウタクセツビ,0
2331,9470005006466,新規,0,2022-09-13,2022-09-13,医療法人しみずこどもクリニック,,その他の設立登記法人,香川県,高松市,木太町５０８０番地１２,,37,201,7600080,,,,,,,2022-09-13,1,,,,,シミズコドモクリニック,0
