sequenceNumber,corporateNumber,process,correct,updateDate,changeDate,name,nameImageId,kind,prefectureName,cityName,streetNumber,addressImageId,prefectureCode,cityCode,postCode,addressOutside,addressOutsideImageId,closeDate,closeCause,successorCorporateNumber,changeCause,assignmentDate,latest,enName,enPrefectureName,enCityName,enAddressOutside,furigana,hihyoji
3,1010001211412,登記記録の閉鎖等,0,2022-11-21,2022-11-17,株式会社たすけあいサポート,,株式会社,東京都,千代田区,九段南１丁目５番６号りそな九段ビル５階ＫＳフロア,,13,101,1020074,,,2022-11-17,清算の結了等,,,2020-08-06,1,,,,,タスケアイサポート,0
12,1010401155936,登記記録の閉鎖等,0,2022-11-21,2022-11-09,株式会社ＡｄＬｕｓｈ,,株式会社,東京都,港区,浜松町２丁目２番１５号浜松町ダイヤビル２Ｆ,,13,103,1050013,,,2022-11-09,清算の結了等,,,2020-10-21,1,,,,,アドラッシュ,0
23,1010602017217,登記記録の閉鎖等,0,2022-11-21,2022-11-15,有限会社岡田装業,,有限会社,東京都,江東区,森下５丁目１４番１６号,,13,108,1350004,,,2022-11-15,清算の結了等,,,2015-10-05,1,,,,,オカダソウギョウ,0
30,1010705002660,登記記録の閉鎖等,0,2022-11-21,2022-11-14,特定非営利活動法人全国歯科福利厚生機構,,その他の設立登記法人,東京都,品川区,南品川６丁目４番１１号アートグラスビル１Ｆ,,13,109,1400004,,,2022-11-14,清算の結了等,,,2017-08-30,1,,,,,ゼンコクシカフクリコウセイキコウ,0
44,1011105000552,商号の登記の抹消,0,2022-11-21,2022-11-11,宗教法人我國神徳社,,その他の設立登記法人,東京都,新宿区,大久保２丁目３３番１８号,,13,104,1690072,,,,,,,2015-10-05,1,,,,,ワガクニシントクシャ,0
51,1011702003767,登記記録の閉鎖等,0,2022-11-21,2022-11-18,有限会社京葉バーチャル・サービス,,有限会社,東京都,江戸川区,東小岩１丁目２２番２号,,13,123,1330052,,,2022-11-18,清算の結了等,,,2015-10-05,1,,,,,ケイヨウバーチャルサービス,0
52,1011703002438,登記記録の閉鎖等,0,2022-11-21,2022-11-17,ジェクト合同会社,,合同会社,東京都,江戸川区,船堀４丁目７番９号マイキャッスル船堀５０２,,13,123,1340091,,,2022-11-17,清算の結了等,,,2019-12-25,1,,,,,ジェクト,0
54,1012301008174,登記記録の閉鎖等,0,2022-11-21,2022-11-17,株式会社ファルカータ,,株式会社,東京都,町田市,原町田４丁目１番７号,,13,209,1940013,,,2022-11-17,清算の結了等,,,2015-10-05,1,,,,,,0
79,1021002010397,登記記録の閉鎖等,0,2022-11-21,2022-11-17,有限会社オアシス,,有限会社,神奈川県,茅ヶ崎市,東海岸北４丁目１５番１３号,,14,207,2530053,,,2022-11-17,清算の結了等,,,2015-10-05,1,,,,,オアシス,0
85,1030001031024,登記記録の閉鎖等,0,2022-11-21,2022-11-11,株式会社テクノプラス,,株式会社,埼玉県,白岡市,新白岡３丁目２８番地５,,11,246,3490212,,,2022-11-11,清算の結了等,,,2015-10-05,1,,,,,テクノプラス,0
107,1040002073650,登記記録の閉鎖等,0,2022-11-21,2022-11-11,有限会社島寿司,,有限会社,千葉県,市原市,五井中央東１丁目１２番地２１,,12,219,2900054,,,2022-11-11,清算の結了等,,,2015-10-05,1,,,,,シマズシ,0
120,1070001036060,登記記録の閉鎖等,0,2022-11-21,2022-11-15,株式会社創和工房,,株式会社,群馬県,前橋市,元総社町１丁目１８番４号,,10,201,3710846,,,2022-11-15,清算の結了等,,,2019-08-27,1,,,,,ソウワコウボウ,0
131,1120001236349,登記記録の閉鎖等,0,2022-11-21,2022-11-17,日本優勢株式会社,,株式会社,大阪府,大阪市北区,中之島４丁目２番２８－１１０２号,,27,127,5300005,,,2022-11-17,清算の結了等,,,2021-04-05,1,,,,,ニホンユウセイ,0
136,1120002082255,登記記録の閉鎖等,0,2022-11-21,2022-11-16,株式会社アークステーション,,株式会社,大阪府,大阪市北区,堂山町１番５号,,27,127,5300027,,,2022-11-16,清算の結了等,,,2015-10-05,1,,,,,,0
142,1130001031377,登記記録の閉鎖等,0,2022-11-21,2022-11-15,株式会社コスモラビット,,株式会社,京都府,京都市山科区,椥辻平田町６７－１７アネシス小島３０３,00036155,26,110,6078165,,,2022-11-15,清算の結了等,,,2015-10-05,1,,,,,コスモラビット,0
163,1160001017596,登記記録の閉鎖等,0,2022-11-21,2022-11-11,株式会社スイートプロモーション,,株式会社,京都府,京都市中京区,壬生賀陽御所町３－１京都幸ビル４階,,26,104,6048811,,,2022-11-11,合併による解散等,6130001002365,令和４年１０月３１日京都市中京区壬生賀陽御所町３－１京都幸ビル４階株式会社京都大和（6130001002365）に合併し解散,2015-10-05,1,,,,,スイートプロモーション,0
182,1210005001260,登記記録の閉鎖等,0,2022-11-21,2022-11-07,普門寺,,その他の設立登記法人,福井県,福井市,南山町１１号２１番地,,18,201,9102162,,,2022-11-07,合併による解散等,1430005011238,令和４年１０月２７日北海道虻田郡洞爺湖町三豊６番地２大真寺（1430005011238）に合併し解散,2015-10-05,1,,,,,,0
210,1340002024053,登記記録の閉鎖等,0,2022-11-21,2022-11-18,有限会社お元気ケアセンター加世田,,有限会社,鹿児島県,南さつま市,加世田村原２丁目１７番地５,,46,220,8970001,,,2022-11-18,清算の結了等,,,2015-10-05,1,,,,,オゲンキケアセンターカセダ,0
218,1380002028208,登記記録の閉鎖等,0,2022-11-21,2022-11-15,有限会社大内ボーサイ,,有限会社,福島県,南相馬市,原町区萱浜字六貫山１８４番地の５,,07,212,9750036,,,2022-11-15,清算の結了等,,,2015-10-05,1,,,,,オオウチボーサイ,0
239,2010001105118,登記記録の閉鎖等,0,2022-11-21,2022-11-08,株式会社サンキューパワー,,株式会社,愛知県,名古屋市北区,辻本通１丁目５３番地,00072645,23,103,4620861,,,2022-11-08,合併による解散等,4180001102154,令和４年１１月１日名古屋市中区栄一丁目１２番１０号株式会社サンキュージャパン（4180001102154）に合併し解散,2015-10-05,1,,,,,サンキューパワー,0
243,2010002047268,登記記録の閉鎖等,0,2022-11-21,2022-11-18,有限会社Ａ．ｃｏｍｐａｎｙ,,有限会社,東京都,中央区,日本橋人形町２丁目１２－５－２０４,,13,102,1030013,,,2022-11-18,清算の結了等,,,2015-10-05,1,,,,,エーカンパニー,0
247,2010401061902,登記記録の閉鎖等,0,2022-11-21,2022-11-10,株式会社福利厚生,,株式会社,東京都,港区,西新橋１丁目１５番５号,,13,103,1050003,,,2022-11-10,清算の結了等,,,2015-10-05,1,,,,,フクリコウセイ,0
306,2020002044990,登記記録の閉鎖等,0,2022-11-21,2022-11-14,有限会社ホテル厚木八重洲,,有限会社,神奈川県,横浜市中区,根岸旭台３１番地,,14,104,2310854,,,2022-11-14,清算の結了等,,,2015-10-05,1,,,,,ホテルアツギヤエス,0
315,2030001144782,登記記録の閉鎖等,0,2022-11-21,2022-11-14,株式会社ミラー,,株式会社,埼玉県,朝霞市,根岸台７丁目１番３７号コーポ八代２０２号室,,11,227,3510005,,,2022-11-14,清算の結了等,,,2021-10-11,1,,,,,ミラー,0
324,2040001050377,登記記録の閉鎖等,0,2022-11-21,2022-11-11,株式会社石川物流サービス,,株式会社,千葉県,木更津市,清見台東３丁目１８番４号,,12,206,2920041,,,2022-11-11,清算の結了等,,,2015-10-05,1,,,,,イシカワブツリュウサービス,0
339,2080401004276,登記記録の閉鎖等,0,2022-11-21,2022-11-18,株式会社袴田組,,株式会社,静岡県,浜松市中区,龍禅寺町２５５番地,,22,131,4300924,,,2022-11-18,清算の結了等,,,2015-10-05,1,,,,,ハカマタグミ,0
340,2080402006230,登記記録の閉鎖等,0,2022-11-21,2022-11-18,有限会社浜松ラジオ商会,,有限会社,静岡県,浜松市中区,佐鳴台３丁目３４番１号,,22,131,4328021,,,2022-11-18,清算の結了等,,,2015-10-05,1,,,,,ハママツラジオショウカイ,0
361,2120005014270,登記記録の閉鎖等,0,2022-11-21,2022-11-16,特定非営利活動法人門真プルトップ推進協会,,その他の設立登記法人,大阪府,門真市,大字北島５４６番地門真市民プラザ３階,,27,223,5710025,,,2022-11-16,清算の結了等,,,2015-10-05,1,,,,,カドマプルトップスイシンキョウカイ,0
368,2120901001652,登記記録の閉鎖等,0,2022-11-21,2022-11-16,ＧＧグレートグレイシャー株式会社,,株式会社,大阪府,大阪市北区,堂山町１番５号,,27,127,5300027,,,2022-11-16,清算の結了等,,,2015-10-05,1,,,,,,0
370,2120901033002,登記記録の閉鎖等,0,2022-11-21,2022-11-16,株式会社カスヤ,,株式会社,大阪府,茨木市,真砂２丁目１４番１０号２０４,,27,211,5670851,,,2022-11-16,清算の結了等,,,2015-10-05,1,,,,,カスヤ,0
382,2140005025860,登記記録の閉鎖等,0,2022-11-21,2022-11-18,一般社団法人リサーチＩＴＯＧＵＴＩ,,その他の設立登記法人,兵庫県,三田市,あかしあ台４丁目１０番地３,,28,219,6691323,,,2022-11-18,清算の結了等,,,2021-10-18,1,,,,,リサーチイトグチ,0
385,2160005010299,登記記録の閉鎖等,0,2022-11-21,2022-11-16,一般社団法人滋賀士業相談センター,,その他の設立登記法人,滋賀県,彦根市,小泉町２８５番地２３,,25,202,5220043,,,2022-11-16,清算の結了等,,,2016-09-07,1,,,,,シガシギョウソウダンセンター,0
399,2180301012609,登記記録の閉鎖等,0,2022-11-21,2022-11-18,株式会社アクセル,,株式会社,愛知県,安城市,昭和町１番１８号,,23,212,4460063,,,2022-11-18,清算の結了等,,,2015-10-05,1,,,,,アクセル,0
410,2250001011820,登記記録の閉鎖等,0,2022-11-21,2022-11-15,株式会社大原組,,株式会社,山口県,岩国市,由宇町南３丁目３番１号,,35,208,7401451,,,2022-11-15,清算の結了等,,,2015-10-05,1,,,,,オオハラグミ,0
414,2290001042440,登記記録の閉鎖等,0,2022-11-21,2022-11-14,株式会社アイ・プランニング,,株式会社,福岡県,大野城市,つつじケ丘１丁目４番１４号,,40,219,8160962,,,2022-11-14,清算の結了等,,,2015-10-05,1,,,,,アイプランニング,0
420,2290801027319,登記記録の閉鎖等,0,2022-11-21,2022-11-17,株式会社ＡＣＳ,,株式会社,福岡県,北九州市八幡東区,祝町２丁目１３番３３号,,40,108,8050041,,,2022-11-17,清算の結了等,,,2021-04-05,1,,,,,エーシーエス,0
432,2370002007260,登記記録の閉鎖等,0,2022-11-21,2022-11-14,有限会社クリーン・ハウス,,有限会社,宮城県,仙台市太白区,向山４丁目１３番１号,,04,104,9820841,,,2022-11-14,清算の結了等,,,2015-10-05,1,,,,,クリーンハウス,0
441,2410005005141,登記記録の閉鎖等,0,2022-11-21,2022-11-16,沼館生産森林組合,,その他の設立登記法人,秋田県,横手市,雄物川町沼館字小谷地６２番地の１,,05,203,0130208,,,2022-11-16,清算の結了等,,,2015-10-05,1,,,,,ヌマダテ,0
486,3010802015927,登記記録の閉鎖等,0,2022-11-21,2022-11-10,有限会社和田製作所,,有限会社,東京都,大田区,西六郷４丁目６番２４－４１８号,,13,111,1440056,,,2022-11-10,清算の結了等,,,2015-10-05,1,,,,,ワダセイサクショ,0
487,3010802016157,登記記録の閉鎖等,0,2022-11-21,2022-11-10,有限会社エッチアンドエッチ,,有限会社,東京都,大田区,大森北１丁目３４番１９号,,13,111,1430016,,,2022-11-10,清算の結了等,,,2015-10-05,1,,,,,エッチアンドエッチ,0
514,3012302004575,登記記録の閉鎖等,0,2022-11-21,2022-11-17,有限会社松村食品,,有限会社,東京都,町田市,中町３丁目６番２７号,,13,209,1940021,,,2022-11-17,清算の結了等,,,2015-10-05,1,,,,,,0
520,3013101005005,登記記録の閉鎖等,0,2022-11-21,2022-11-17,端空調株式会社,,株式会社,東京都,西多摩郡瑞穂町,大字殿ケ谷４１０番地２６,,13,303,1901212,,,2022-11-17,清算の結了等,,,2015-10-05,1,,,,,,0
524,3013305001238,登記記録の閉鎖等,0,2022-11-21,2022-11-15,公益社団法人青少年交友協会,,その他の設立登記法人,東京都,豊島区,池袋２丁目７０番地１１号豊永ビル２Ａ号室,,13,116,1710014,,,2022-11-15,清算の結了等,,,2015-10-05,1,,,,,セイショウネンコウユウキョウカイ,0
542,3020002078732,登記記録の閉鎖等,0,2022-11-21,2022-11-16,有限会社コシノ興産,,有限会社,神奈川県,横浜市戸塚区,平戸町２３９番地６,,14,110,2440803,,,2022-11-16,清算の結了等,,,2015-10-05,1,,,,,コシノコウサン,0
559,3030002040278,登記記録の閉鎖等,0,2022-11-21,2022-11-11,松崎メディカルサービス有限会社,00016536,有限会社,埼玉県,久喜市,南栗橋７丁目６番地１８,,11,232,3491117,,,2022-11-11,清算の結了等,,,2015-10-05,1,,,,,マツザキメディカルサービス,0
566,3040001114684,登記記録の閉鎖等,0,2022-11-21,2022-11-11,株式会社エムインベスト,,株式会社,千葉県,柏市,旭町２丁目５番３号,,12,217,2770852,,,2022-11-11,合併による解散等,2040001115782,令和４年１１月１日千葉県柏市旭町二丁目５番３－１１０１号株式会社ＭＭＷ（2040001115782）に合併し解散,2020-08-13,1,,,,,エムインベスト,0
569,3040003017126,登記記録の閉鎖等,0,2022-11-21,2022-11-11,昇フーズ合同会社,,合同会社,千葉県,佐倉市,中志津７丁目１６番３号,,12,212,2850843,,,2022-11-11,清算の結了等,,,2021-03-02,1,,,,,ノボルフーズ,0
574,3050002022893,登記記録の閉鎖等,0,2022-11-21,2022-11-14,有限会社ＯＰＪ,,有限会社,茨城県,つくば市,金田２０３９番地,,08,220,3050018,,,2022-11-14,清算の結了等,,,2015-10-05,1,,,,,,0
585,3080101004352,登記記録の閉鎖等,0,2022-11-21,2022-11-17,株式会社ワールドバズ,,株式会社,東京都,八王子市,片倉町１５６１番地４,,13,201,1920914,,,2022-11-17,清算の結了等,,,2015-10-05,1,,,,,ワールドバズ,0
588,3080402018786,登記記録の閉鎖等,0,2022-11-21,2022-11-18,有限会社みのり薬局,,有限会社,静岡県,菊川市,東横地１６０７番地の１,,22,224,4390022,,,2022-11-18,清算の結了等,,,2015-10-05,1,,,,,ミノリヤッキョク,0
599,3120001118009,登記記録の閉鎖等,0,2022-11-21,2022-11-14,株式会社アクティーサービス,,株式会社,大阪府,大阪市西区,川口１丁目４番２０号,,27,106,5500021,,,2022-11-14,清算の結了等,,,2015-10-05,1,,,,,アクティーサービス,0
645,3180005018042,登記記録の閉鎖等,0,2022-11-21,2022-11-17,一般社団法人ハート＆ライフサポート協会,,その他の設立登記法人,愛知県,北名古屋市,鹿田２５６８番地１グリーンシティＣ－１４１３,,23,234,4810004,,,2022-11-17,清算の結了等,,,2018-11-12,1,,,,,ハートアンドライフサポートキョウカイ,0
646,3180301004233,登記記録の閉鎖等,0,2022-11-21,2022-11-08,株式会社マルキ通商,,株式会社,京都府,南丹市,美山町安掛上ノ滝４番地,,26,213,6010722,,,2022-11-08,合併による解散等,2290001045815,令和４年１１月１日福岡県飯塚市平恒５１５番地の１９長竹道路株式会社（2290001045815）に合併し解散,2015-10-05,1,,,,,マルキツウショウ,0
648,3180301019347,登記記録の閉鎖等,0,2022-11-21,2022-11-14,株式会社マルミ,,株式会社,愛知県,豊田市,若林西町北間１５番地２,,23,211,4730917,,,2022-11-14,清算の結了等,,,2015-10-05,1,,,,,マルミ,0
652,3190002012055,登記記録の閉鎖等,0,2022-11-21,2022-11-17,有限会社池田設備工業,,有限会社,三重県,伊賀市,上野車坂町６１５番地の６３,,24,216,5180832,,,2022-11-17,清算の結了等,,,2015-10-05,1,,,,,イケダセツビコウギョウ,0
661,3230002000138,登記記録の閉鎖等,0,2022-11-21,2022-11-17,有限会社浅井スプリング,,有限会社,富山県,富山市,水橋辻ヶ堂２５９８番地,00078986,16,201,9393515,,,2022-11-17,清算の結了等,,,2015-10-05,1,,,,,アサイスプリング,0
662,3230002012538,登記記録の閉鎖等,0,2022-11-21,2022-11-18,有限会社トルー,,有限会社,富山県,高岡市,井口本江１００番地,,16,202,9330807,,,2022-11-18,清算の結了等,,,2015-10-05,1,,,,,トルー,0
670,3280002006155,登記記録の閉鎖等,0,2022-11-21,2022-11-18,有限会社渡部工務店,,有限会社,島根県,出雲市,所原町１９１０番地２,,32,203,6930214,,,2022-11-18,清算の結了等,,,2015-10-05,1,,,,,ワタナベコウムテン,0
672,3290001021435,登記記録の閉鎖等,0,2022-11-21,2022-11-14,新日本エナジー株式会社,,株式会社,福岡県,福岡市早良区,西新１丁目９番２３号,,40,137,8140002,,,2022-11-14,清算の結了等,,,2015-10-05,1,,,,,シンニホンエナジー,0
727,4010401084521,登記記録の閉鎖等,0,2022-11-21,2022-11-17,株式会社コネクトワールド,,株式会社,東京都,中央区,日本橋堀留町１丁目２番１号,,13,102,1030012,,,2022-11-17,清算の結了等,,,2015-10-05,1,,,,,,0
733,4010401157954,登記記録の閉鎖等,0,2022-11-21,2022-11-08,Ｙｕｎｔｈ株式会社,,株式会社,東京都,港区,南青山４丁目１８番１１号,,13,103,1070062,,,2022-11-08,合併による解散等,8011001110465,令和４年１１月１日東京都港区六本木六丁目１０番１号Ａｉロボティクス株式会社（8011001110465）に合併し解散,2021-02-04,1,,,,,ユンス,0
736,4010403007455,登記記録の閉鎖等,0,2022-11-21,2022-11-10,合同会社アロークロスペクト５,,合同会社,東京都,港区,西新橋１丁目１５番５号株式会社アイピービー内,,13,103,1050003,,,2022-11-10,清算の結了等,,,2015-10-05,1,,,,,アロークロスペクトファイブ,0
739,4010601002423,登記記録の閉鎖等,0,2022-11-21,2022-11-17,株式会社ジーエムプロダクション,,株式会社,東京都,世田谷区,代田４丁目２０番１２号,,13,112,1550033,,,2022-11-17,清算の結了等,,,2015-10-05,1,,,,,ジーエムプロダクション,0
754,4011002010230,登記記録の閉鎖等,0,2022-11-21,2022-11-14,有限会社初見商店,,有限会社,東京都,渋谷区,恵比寿１丁目５番１号,,13,113,1500013,,,2022-11-14,清算の結了等,,,2015-10-05,1,,,,,ハツミショウテン,0
777,4013301042557,登記記録の閉鎖等,0,2022-11-21,2022-11-15,株式会社セルビスタ,,株式会社,東京都,豊島区,南大塚２丁目１１－１０ミモザビル３Ｆ,,13,116,1700005,,,2022-11-15,清算の結了等,,,2018-07-18,1,,,,,セルビスタ,0
779,4013402003656,登記記録の閉鎖等,0,2022-11-21,2022-11-17,有限会社タカハシスポーツ,,有限会社,東京都,稲城市,矢野口８５２番地,,13,225,2060812,,,2022-11-17,清算の結了等,,,2015-10-05,1,,,,,タカハシスポーツ,0
783,4020001114636,登記記録の閉鎖等,0,2022-11-21,2022-11-15,株式会社ほそや,,株式会社,神奈川県,横浜市鶴見区,本町通１丁目２番地６,,14,101,2300048,,,2022-11-15,清算の結了等,,,2016-01-28,1,,,,,ホソヤ,0
823,4080001005251,登記記録の閉鎖等,0,2022-11-21,2022-11-16,株式会社木材センター・マルコ,,株式会社,静岡県,静岡市葵区,籠上１番５５号,,22,101,4200873,,,2022-11-16,清算の結了等,,,2015-10-05,1,,,,,モクザイセンターマルコ,0
825,4080002010127,登記記録の閉鎖等,0,2022-11-21,2022-11-18,有限会社司奈,,有限会社,静岡県,静岡市清水区,草薙３３２番地の１３５,,22,103,4240886,,,2022-11-18,清算の結了等,,,2015-10-05,1,,,,,ジナ,0
826,4080102018400,登記記録の閉鎖等,0,2022-11-21,2022-11-17,有限会社中央ビル,,有限会社,静岡県,熱海市,中央町１番９号,,22,205,4130015,,,2022-11-17,清算の結了等,,,2015-10-05,1,,,,,チュウオウビル,0
847,4120003017067,登記記録の閉鎖等,0,2022-11-21,2022-11-21,ＡＭＤセラピューティックス合同会社,,合同会社,大阪府,大阪市此花区,酉島４丁目１番２０－１７１０号,,27,104,5540051,,,2022-11-21,清算の結了等,,,2020-02-28,1,,,,,エーエムディーセラピューティックス,0
855,4122001015119,登記記録の閉鎖等,0,2022-11-21,2022-11-16,株式会社エフ、ジー、エス,,株式会社,大阪府,大東市,中垣内７丁目７番１号,,27,218,5740013,,,2022-11-16,清算の結了等,,,2015-10-05,1,,,,,エフジーエス,0
925,4320002010738,登記記録の閉鎖等,0,2022-11-21,2022-11-15,赤嶺興業有限会社,,有限会社,大分県,別府市,山の手町１４番１８号,,44,202,8740828,,,2022-11-15,合併による解散等,7330002012235,令和４年１１月１日大分県別府市山の手町１４番１８号南海興産株式会社（7330002012235）に合併し解散,2015-10-05,1,,,,,アカミネコウギョウ,0
935,4350001017434,登記記録の閉鎖等,0,2022-11-21,2022-11-15,株式会社ｍｃｓ．Ｌｉｎｋ,,株式会社,宮崎県,宮崎市,小戸町１０４番地１リベラル一ツ葉１０６号,,45,201,8800857,,,2022-11-15,清算の結了等,,,2021-11-29,1,,,,,エムシーエスドットリンク,0
940,4370205001447,登記記録の閉鎖等,0,2022-11-21,2022-11-09,文字牧野農業協同組合,,その他の設立登記法人,宮城県,栗原市,栗駒文字葛峰前１２番地の１,,04,213,9895361,,,2022-11-09,清算の結了等,,,2015-10-05,1,,,,,モンジボクヤ,0
946,4420002012716,登記記録の閉鎖等,0,2022-11-21,2022-11-15,有限会社アオイ調剤薬局,,有限会社,青森県,弘前市,大字早稲田２丁目７番地４,,02,202,0368087,,,2022-11-15,清算の結了等,,,2015-10-05,1,,,,,アオイチョウザイヤッキョク,0
947,4430001024744,登記記録の閉鎖等,0,2022-11-21,2022-11-14,株式会社ジョイネットソリューション,,株式会社,北海道,札幌市中央区,伏見１丁目２番２５－２０４号,,01,101,0640942,,,2022-11-14,清算の結了等,,,2015-10-05,1,,,,,ジョイネットソリューション,0
950,4440001006378,登記記録の閉鎖等,0,2022-11-21,2022-11-16,株式会社せたな介護支援ネット,,株式会社,北海道,久遠郡せたな町,北檜山区徳島２４番地７,,01,371,0494512,,,2022-11-16,清算の結了等,,,2015-10-05,1,,,,,セタナカイゴシエンネット,0
966,5010101012657,登記記録の閉鎖等,0,2022-11-21,2022-11-18,Ｉ．Ｓ．Ｓ．建設株式会社,,株式会社,東京都,八王子市,中野上町３丁目２３番５号,,13,201,1920041,,,2022-11-18,清算の結了等,,,2017-01-12,1,,,,,アイエスエスケンセツ,0
969,5010401108089,登記記録の閉鎖等,0,2022-11-21,2022-11-10,あまね株式会社,,株式会社,東京都,港区,南青山２丁目２番１５号,,13,103,1070062,,,2022-11-10,清算の結了等,,,2015-10-05,1,,,,,アマネ,0
973,5010401157953,登記記録の閉鎖等,0,2022-11-21,2022-11-08,１７ｓｋｉｎ株式会社,,株式会社,東京都,港区,南青山４丁目１８番１１号,,13,103,1070062,,,2022-11-08,合併による解散等,8011001110465,令和４年１１月１日東京都港区六本木六丁目１０番１号Ａｉロボティクス株式会社（8011001110465）に合併し解散,2021-02-04,1,,,,,イチナナスキン,0
975,5010402033872,登記記録の閉鎖等,0,2022-11-21,2022-11-08,有限会社中部活性化,,有限会社,東京都,港区,西新橋３丁目１７番７号パークキューブ愛宕山タワー２９０１,,13,103,1050003,,,2022-11-08,清算の結了等,,,2015-10-05,1,,,,,チュウブカッセイカ,0
977,5010403024458,登記記録の閉鎖等,0,2022-11-21,2022-11-07,Ｄｅｒｂｙ合同会社,,合同会社,東京都,港区,虎ノ門５丁目１番４号,,13,103,1050001,,,2022-11-07,清算の結了等,,,2021-01-07,1,,,,,ダービー,0
994,5011001059061,登記記録の閉鎖等,0,2022-11-21,2022-11-10,株式会社ＤＵＣＫ　ＴＡＩＬ,,株式会社,東京都,渋谷区,宇田川町２番１－３０２号,,13,113,1500042,,,2022-11-10,清算の結了等,,,2015-10-05,1,,,,,ダックテイル,0
996,5011001070588,登記記録の閉鎖等,0,2022-11-21,2022-11-14,キョウヤ株式会社,,株式会社,東京都,渋谷区,本町３丁目４３番４号エース渋谷本町ビル,,13,113,1510071,,,2022-11-14,清算の結了等,,,2015-10-05,1,,,,,キョウヤ,0
1000,5011001133758,登記記録の閉鎖等,0,2022-11-21,2022-11-09,株式会社デルタ・アセットマネジメント,,株式会社,東京都,目黒区,目黒本町６丁目１０番１４号,,13,110,1520002,,,2022-11-09,清算の結了等,,,2020-05-20,1,,,,,デルタアセットマネジメント,0
1011,5011301020391,登記記録の閉鎖等,0,2022-11-21,2022-11-16,アークプラス株式会社,,株式会社,東京都,武蔵野市,西久保１丁目３番１０号,,13,203,1800013,,,2022-11-16,清算の結了等,,,2015-10-05,1,,,,,アークプラス,0
1017,5011701002667,登記記録の閉鎖等,0,2022-11-21,2022-11-18,株式会社京葉マックス,,株式会社,東京都,江戸川区,東小岩１丁目２２番２号,,13,123,1330052,,,2022-11-18,清算の結了等,,,2015-10-05,1,,,,,ケイヨウマックス,0
1026,5012405002763,登記記録の閉鎖等,0,2022-11-21,2022-11-16,特定非営利活動法人ゆずりはの会・府中つばめの里,,その他の設立登記法人,東京都,府中市,日新町５丁目１６番地の７,,13,206,1830036,,,2022-11-16,清算の結了等,,,2015-10-05,1,,,,,ユズリハノカイフチュウツバメノサト,0
1035,5020003007762,登記記録の閉鎖等,0,2022-11-21,2022-11-16,合同会社ドリーム・プラザ,,合同会社,神奈川県,横浜市神奈川区,入江２丁目１８番３１号ダイアパレス３０２,,14,102,2210014,,,2022-11-16,清算の結了等,,,2015-10-05,1,,,,,ドリームプラザ,0
1044,5030001040194,登記記録の閉鎖等,0,2022-11-21,2022-11-14,コラフル株式会社,,株式会社,埼玉県,草加市,西町６３２番地５,,11,221,3400035,,,2022-11-14,清算の結了等,,,2015-10-05,1,,,,,コラフル,0
1045,5030001088127,登記記録の閉鎖等,0,2022-11-21,2022-11-14,株式会社サンプラザ,,株式会社,埼玉県,熊谷市,久下１６２８番地１,,11,202,3600026,,,2022-11-14,清算の結了等,,,2015-10-05,1,,,,,サンプラザ,0
1070,5050001040291,登記記録の閉鎖等,0,2022-11-21,2022-11-16,株式会社くいしんぼ市場,,株式会社,茨城県,筑西市,山崎５８７番地４,,08,227,3080865,,,2022-11-16,清算の結了等,,,2016-01-05,1,,,,,,0
1090,5120001146461,登記記録の閉鎖等,0,2022-11-21,2022-11-16,株式会社大手前商事,,株式会社,大阪府,大阪市北区,西天満５丁目８番１８－１１０１号,,27,127,5300047,,,2022-11-16,清算の結了等,,,2015-10-05,1,,,,,オオテマエショウジ,0
1165,5330001008707,登記記録の閉鎖等,0,2022-11-21,2022-11-16,株式会社レオ企画,,株式会社,熊本県,熊本市東区,鹿帰瀬町６１７番地,,43,102,8618011,,,2022-11-16,清算の結了等,,,2015-10-05,1,,,,,レオキカク,0
1170,5360001000974,登記記録の閉鎖等,0,2022-11-21,2022-11-01,株式会社サンキュウファーマシー,,株式会社,沖縄県,那覇市,泉崎２丁目３番地３,,47,201,9000021,,,2022-11-01,合併による解散等,9360001001861,令和４年１１月１日沖縄県那覇市泉崎二丁目３番地３株式会社ふく薬品（9360001001861）に合併し解散,2015-10-05,1,,,,,サンキュウファーマシー,0
1196,6010001206671,登記記録の閉鎖等,0,2022-11-21,2022-11-16,株式会社ＣＯ－ＰＯＲＴ,,株式会社,東京都,中央区,銀座６丁目１４番８号銀座石井ビルＴＨＥＯＦＦＩＣＥ銀座５１３号室,,13,102,1040061,,,2022-11-16,清算の結了等,,,2020-01-16,1,,,,,シーオーポート,0
1212,6010405017509,登記記録の閉鎖等,0,2022-11-21,2022-11-09,一般社団法人ＭＩＣＬ,,その他の設立登記法人,東京都,港区,虎ノ門３丁目１８番１２－５０２号株式会社虎ノ門会計神谷町分室内,,13,103,1050001,,,2022-11-09,清算の結了等,,,2019-03-06,1,,,,,エムアイシーエル,0
1227,6010905002134,登記記録の閉鎖等,0,2022-11-21,2022-11-17,特定非営利活動法人不動産女性会議,,その他の設立登記法人,東京都,世田谷区,奥沢５丁目１４番３１号,,13,112,1580083,,,2022-11-17,清算の結了等,,,2015-10-05,1,,,,,フドウサンジョセイカイギ,0
1253,6011401015002,登記記録の閉鎖等,0,2022-11-21,2022-11-18,株式会社ＲＥＰＲＯ,,株式会社,東京都,板橋区,成増３丁目４６番９号ルーブル成増２０２号室,,13,119,1750094,,,2022-11-18,清算の結了等,,,2015-10-05,1,,,,,,0
1257,6012301006421,登記記録の閉鎖等,0,2022-11-21,2022-11-17,株式会社松製麺,,株式会社,東京都,町田市,中町３丁目６番２７号,,13,209,1940021,,,2022-11-17,清算の結了等,,,2015-10-05,1,,,,,,0
1273,6020001063204,登記記録の閉鎖等,0,2022-11-21,2022-11-16,株式会社待夢,,株式会社,神奈川県,横浜市鶴見区,豊岡町１６番１３号,,14,101,2300062,,,2022-11-16,清算の結了等,,,2015-10-05,1,,,,,,0
1280,6020001125466,登記記録の閉鎖等,0,2022-11-21,2022-11-16,株式会社テクノファイン,,株式会社,神奈川県,川崎市麻生区,栗木２丁目６番１,,14,137,2150033,,,2022-11-16,清算の結了等,,,2018-03-16,1,,,,,テクノファイン,0
1285,6021001021309,登記記録の閉鎖等,0,2022-11-21,2022-11-16,メディカルサービス神奈川株式会社,,株式会社,神奈川県,伊勢原市,桜台１丁目９番９号,,14,214,2591132,,,2022-11-16,清算の結了等,,,2015-10-05,1,,,,,メディカルサービスカナガワ,0
1292,6021002035092,登記記録の閉鎖等,0,2022-11-21,2022-11-17,有限会社湘南機電サービス,00013384,有限会社,神奈川県,伊勢原市,下落合５３１番地の１６,,14,214,2591121,,,2022-11-17,清算の結了等,,,2015-10-05,1,,,,,ショウナンキデンサービス,0
1295,6021002063077,登記記録の閉鎖等,0,2022-11-21,2022-11-16,有限会社エイチ・エイチ・エス,,有限会社,神奈川県,横須賀市,公郷町１丁目５９番地,,14,201,2380022,,,2022-11-16,清算の結了等,,,2015-10-05,1,,,,,エイチエイチエス,0
1297,6021005012048,登記記録の閉鎖等,0,2022-11-21,2022-11-15,一般社団法人大和中央公共嘱託登記土地家屋調査士協会,,その他の設立登記法人,神奈川県,大和市,西鶴間３丁目９番２５号,,14,213,2420005,,,2022-11-15,清算の結了等,,,2020-11-04,1,,,,,ヤマトチュウオウコウキョウショクタクトウキトチカオクチョウサシキョウカイ,0
1301,6030001053542,登記記録の閉鎖等,0,2022-11-21,2022-11-14,株式会社タウンプレス,,株式会社,埼玉県,春日部市,大枝４６８番地５,,11,214,3440023,,,2022-11-14,清算の結了等,,,2015-10-05,1,,,,,タウンプレス,0
1308,6030002079165,登記記録の閉鎖等,0,2022-11-21,2022-11-10,有限会社プラスアルファー,,有限会社,埼玉県,ふじみ野市,上福岡１丁目１５番２号,,11,245,3560004,,,2022-11-10,清算の結了等,,,2015-10-05,1,,,,,プラスアルファー,0
1309,6030002093703,登記記録の閉鎖等,0,2022-11-21,2022-11-14,有限会社わくわくカンパニー,,有限会社,埼玉県,鶴ヶ島市,新町１丁目７番地８,,11,241,3502227,,,2022-11-14,清算の結了等,,,2015-10-05,1,,,,,ワクワクカンパニー,0
1317,6040001012290,登記記録の閉鎖等,0,2022-11-21,2022-11-14,株式会社千葉総合コンサルティング,,株式会社,千葉県,千葉市中央区,中央３丁目３番１号フジモト第一生命ビルディング,,12,101,2600013,,,2022-11-14,清算の結了等,,,2015-10-05,1,,,,,チバソウゴウコンサルティング,0
1357,6120902011705,登記記録の閉鎖等,0,2022-11-21,2022-11-18,有限会社エム・アイ島本,,有限会社,大阪府,三島郡島本町,青葉３丁目８番９号,,27,301,6180015,,,2022-11-18,清算の結了等,,,2015-10-05,1,,,,,,0
1362,6130001045356,登記記録の閉鎖等,0,2022-11-21,2022-11-15,アイメディア株式会社,,株式会社,京都府,京都市右京区,西院平町２５番地ライフプラザ西大路四条７階,,26,108,6150022,,,2022-11-15,清算の結了等,,,2015-10-05,1,,,,,アイメディア,0
1377,6160005002648,登記記録の閉鎖等,0,2022-11-21,2022-11-14,株式会社市場生森,,株式会社,滋賀県,甲賀市,土山町黒川１５７８番地の３,,25,209,5280208,,,2022-11-14,清算の結了等,,,2015-10-05,1,,,,,イチバセイシン,0
1390,6180005018865,登記記録の閉鎖等,0,2022-11-21,2022-11-18,一般社団法人ジュニアチーフインターンシップ認定協議会,,その他の設立登記法人,愛知県,名古屋市西区,中小田井２丁目３２０番地,,23,104,4520822,,,2022-11-18,清算の結了等,,,2020-07-03,1,,,,,ジュニアチーフインターンシップニンテイキョウギカイ,0
1396,6200002002976,登記記録の閉鎖等,0,2022-11-21,2022-11-16,有限会社中日電子計器,,有限会社,岐阜県,岐阜市,雲竜町９番地,,21,201,5008123,,,2022-11-16,清算の結了等,,,2015-10-05,1,,,,,チュウニチデンシケイキ,0
1429,6360001015559,登記記録の閉鎖等,0,2022-11-21,2022-11-09,株式会社うるまＡＶセンター,,株式会社,沖縄県,うるま市,字赤道３３６番地１,,47,213,9042245,,,2022-11-09,清算の結了等,,,2015-10-05,1,,,,,ウルマエイブイセンター,0
1434,6370302000721,登記記録の閉鎖等,0,2022-11-21,2022-11-14,有限会社河北電業,,有限会社,宮城県,石巻市,飯野字碓前１６５番地,,04,202,9860131,,,2022-11-14,清算の結了等,,,2015-10-05,1,,,,,カホクデンギョウ,0
1470,7010401120521,登記記録の閉鎖等,0,2022-11-21,2022-11-09,Ｆ＆Ｔ　Ｈｙｄｒｏ　ｐｏｗｅｒ株式会社,,株式会社,東京都,港区,浜松町１丁目１０番１４号,,13,103,1050013,,,2022-11-09,清算の結了等,,,2015-10-05,1,,,,,エフアンドティーハイドロパワー,0
1484,7010405004984,登記記録の閉鎖等,0,2022-11-21,2022-11-09,特定非営利活動法人ホスピタリティネット,,その他の設立登記法人,東京都,港区,芝大門１丁目１５番１号,,13,103,1050012,,,2022-11-09,清算の結了等,,,2015-10-05,1,,,,,ホスピタリティネット,0
1493,7010901008357,登記記録の閉鎖等,0,2022-11-21,2022-11-14,トーホーフェンス株式会社,,株式会社,東京都,品川区,南大井１丁目２０番１６－７０１号,,13,109,1400013,,,2022-11-14,清算の結了等,,,2015-10-05,1,,,,,トーホーフェンス,0
1498,7011001032099,登記記録の閉鎖等,0,2022-11-21,2022-11-17,株式会社エフモード,,株式会社,東京都,渋谷区,渋谷１丁目７番５号青山セブンハイツ,,13,113,1500002,,,2022-11-17,清算の結了等,,,2015-10-05,1,,,,,,0
1499,7011001061379,登記記録の閉鎖等,0,2022-11-21,2022-11-01,株式会社アール＆キャリア,,株式会社,東京都,千代田区,大手町１丁目３番１号,,13,101,1000004,,,2022-11-01,合併による解散等,6010001023019,令和４年１１月１日東京都千代田区麹町二丁目１４番地アイング株式会社（6010001023019）に合併し解散,2015-10-05,1,,,,,アールアンドキャリア,0
1519,7012401016889,登記記録の閉鎖等,0,2022-11-21,2022-11-16,株式会社ワイエス企画,,株式会社,東京都,三鷹市,北野２丁目６番４７号,,13,204,1810003,,,2022-11-16,清算の結了等,,,2015-10-05,1,,,,,ワイエスキカク,0
1532,7020003009988,登記記録の閉鎖等,0,2022-11-21,2022-11-14,Ｐｉｇ　Ｂｒｅｗｉｎｇ合同会社,,合同会社,東京都,品川区,北品川１丁目９番７号トップルーム品川１０１５号,,13,109,1400001,,,2022-11-14,清算の結了等,,,2015-10-05,1,,,,,ピグブリューイング,0
1544,7021002023154,登記記録の閉鎖等,0,2022-11-21,2022-11-17,有限会社日豊精機,,有限会社,神奈川県,相模原市中央区,緑が丘１丁目２５番４号,,14,152,2520225,,,2022-11-17,清算の結了等,,,2015-10-05,1,,,,,ニッポウセイキ,0
1555,7040001104525,登記記録の閉鎖等,0,2022-11-21,2022-11-11,ＬＥＡＤデジタルマーケティング株式会社,,株式会社,千葉県,千葉市中央区,中央３丁目９番９号エレル千葉中央ビル６階,,12,101,2600013,,,2022-11-11,清算の結了等,,,2018-05-09,1,,,,,リードデジタルマーケティング,0
1568,7060001024787,登記記録の閉鎖等,0,2022-11-21,2022-11-14,株式会社ＦＰＩ,,株式会社,栃木県,足利市,田中町９１５番地１７,,09,202,3260822,,,2022-11-14,清算の結了等,,,2015-10-05,1,,,,,エフピーアイ,0
1569,7060002009820,登記記録の閉鎖等,0,2022-11-21,2022-11-16,有限会社リリー分室,,有限会社,栃木県,宇都宮市,北一の沢町７番１１号,,09,201,3200048,,,2022-11-16,清算の結了等,,,2015-10-05,1,,,,,リリーブンシツ,0
1588,7120005015990,登記記録の閉鎖等,0,2022-11-21,2022-11-18,一般社団法人ＦＡＰＲＡ,,その他の設立登記法人,大阪府,大阪市北区,西天満４丁目９番地２号,,27,127,5300047,,,2022-11-18,清算の結了等,,,2015-10-05,1,,,,,ファプラ,0
1589,7120005016535,登記記録の閉鎖等,0,2022-11-21,2022-11-17,一般社団法人どすこい,,その他の設立登記法人,大阪府,大阪市阿倍野区,昭和町４丁目１１番２２号,,27,119,5450011,,,2022-11-17,清算の結了等,,,2015-10-05,1,,,,,ドスコイ,0
1593,7130001005953,登記記録の閉鎖等,0,2022-11-21,2022-11-17,滋賀和研株式会社,,株式会社,滋賀県,草津市,下笠町９４５番地１,,25,206,5250029,,,2022-11-17,清算の結了等,,,2015-10-05,1,,,,,シガワケン,0
1600,7130002007239,登記記録の閉鎖等,0,2022-11-21,2022-11-16,有限会社島津興産,,有限会社,京都府,京都市中京区,錦小路通堀川東入三文字町５７１番地嶋津マンション２０３号,,26,104,6048236,,,2022-11-16,清算の結了等,,,2015-10-05,1,,,,,シマヅコウサン,0
1635,7200001018080,登記記録の閉鎖等,0,2022-11-21,2022-11-17,株式会社シオンにじゅういち,,株式会社,岐阜県,加茂郡川辺町,比久見１８６番地の２,,21,503,5090315,,,2022-11-17,清算の結了等,,,2015-10-05,1,,,,,シオンニジュウイチ,0
1643,7230001011140,登記記録の閉鎖等,0,2022-11-21,2022-11-16,吉建工業株式会社,,株式会社,富山県,高岡市,昭和町１丁目３番４７号,,16,202,9330946,,,2022-11-16,清算の結了等,,,2015-10-05,1,,,,,ヨシケンコウギョウ,0
1649,7250002016112,登記記録の閉鎖等,0,2022-11-21,2022-11-16,有限会社パルティール,,有限会社,山口県,下松市,西柳２丁目２番３０号,,35,207,7440018,,,2022-11-16,清算の結了等,,,2015-10-05,1,,,,,パルティール,0
1657,7320002011592,登記記録の閉鎖等,0,2022-11-21,2022-11-15,有限会社将星興産,,有限会社,大分県,別府市,山の手町１４番１８号,,44,202,8740828,,,2022-11-15,合併による解散等,7330002012235,令和４年１１月１日大分県別府市山の手町１４番１８号南海興産株式会社（7330002012235）に合併し解散,2015-10-05,1,,,,,ショウセイコウサン,0
1666,7360001016572,登記記録の閉鎖等,0,2022-11-21,2022-11-04,株式会社エムアンドエムリンク,,株式会社,沖縄県,中頭郡北谷町,字港１５番地６１パラダイスビル２Ｆ,,47,326,9040114,,,2022-11-04,清算の結了等,,,2015-10-05,1,,,,,,0
1681,7430005004392,登記記録の閉鎖等,0,2022-11-21,2022-11-14,特定非営利活動法人ＧＫれじおん,,その他の設立登記法人,北海道,札幌市西区,琴似四条４丁目１番１８号タカヤビル１Ｆ,,01,107,0630814,,,2022-11-14,清算の結了等,,,2015-10-05,1,,,,,ジーケーレジオン,0
1682,7430005013947,登記記録の閉鎖等,0,2022-11-21,2022-11-11,一般社団法人宮本土建工業株式管理,,その他の設立登記法人,北海道,小樽市,奥沢１丁目１９番４号,,01,203,0470013,,,2022-11-11,清算の結了等,,,2020-07-06,1,,,,,ミヤモトドケンコウギョウカブシキカンリ,0
1691,8010001028800,登記記録の閉鎖等,0,2022-11-21,2022-11-15,株式会社ペトラル,,株式会社,東京都,千代田区,永田町２丁目１７番１０号,,13,101,1000014,,,2022-11-15,清算の結了等,,,2015-10-05,1,,,,,ペトラル,0
1706,8010401043234,登記記録の閉鎖等,0,2022-11-21,2022-11-08,ヨコハマゴム・ファイナンス株式会社,,株式会社,東京都,港区,新橋５丁目３６番１１号,,13,103,1050004,,,2022-11-08,合併による解散等,4010401030574,令和４年１１月５日東京都港区新橋五丁目３６番１１号横浜ゴム株式会社（4010401030574）に合併し解散,2015-10-05,1,,,,,ヨコハマゴムファイナンス,0
1742,8011101004682,登記記録の閉鎖等,0,2022-11-21,2022-11-16,株式会社カントリー,,株式会社,東京都,新宿区,愛住町二丁目５番地,,13,104,1600005,,,2022-11-16,清算の結了等,,,2015-10-05,1,,,,,カントリー,0
1755,8011403000850,登記記録の閉鎖等,0,2022-11-21,2022-11-15,合資会社グリーンハーブズ,,合資会社,東京都,板橋区,赤塚２丁目１０番１４号,,13,119,1750092,,,2022-11-15,清算の結了等,,,2015-10-05,1,,,,,グリーンハーブズ,0
1762,8012403005063,登記記録の閉鎖等,0,2022-11-21,2022-11-16,合同会社ぽん,,合同会社,東京都,武蔵野市,桜堤１丁目１番６－８０３号,,13,203,1800021,,,2022-11-16,清算の結了等,,,2021-10-08,1,,,,,ポン,0
1771,8020001035192,登記記録の閉鎖等,0,2022-11-21,2022-11-15,オーピーアイジャパン株式会社,,株式会社,東京都,新宿区,西新宿３丁目２０番２号東京オペラシティタワー,,13,104,1600023,,,2022-11-15,合併による解散等,8010403014051,令和４年１１月１日東京都港区北青山三丁目３番５号ＨＦＣプレステージジャパン合同会社（8010403014051）に合併し解散,2015-10-05,1,,,,,オーピーアイジャパン,0
1774,8020002069454,登記記録の閉鎖等,0,2022-11-21,2022-10-19,有限会社新邦産業,,有限会社,神奈川県,横浜市神奈川区,入江１丁目２５番地１０号,,14,102,2210014,,,2022-10-19,清算の結了等,,,2015-10-05,1,,,,,シンポウサンギョウ,0
1780,8021001007867,登記記録の閉鎖等,0,2022-11-21,2022-11-14,湘南エステート株式会社,,株式会社,神奈川県,茅ヶ崎市,円蔵２４２７番地,,14,207,2530084,,,2022-11-14,清算の結了等,,,2016-01-21,1,,,,,,0
1789,8030001060355,登記記録の閉鎖等,0,2022-11-21,2022-11-11,日本グリーン工業株式会社,,株式会社,埼玉県,本庄市,新井８１２番地,,11,211,3670075,,,2022-11-11,清算の結了等,,,2015-10-05,1,,,,,ニホングリーンコウギョウ,0
1812,8040002067051,登記記録の閉鎖等,0,2022-11-21,2022-11-10,有限会社そば処はせ川,,有限会社,千葉県,木更津市,貝渕４丁目１０番７号,,12,206,2920833,,,2022-11-10,清算の結了等,,,2015-10-05,1,,,,,ソバドコロハセガワ,0
1818,8060001024233,登記記録の閉鎖等,0,2022-11-21,2022-11-15,株式会社ワイケイファーム,,株式会社,栃木県,栃木市,岩舟町新里１４６６番地１,,09,203,3294316,,,2022-11-15,清算の結了等,,,2015-10-05,1,,,,,ワイケイファーム,0
1828,8100002014955,登記記録の閉鎖等,0,2022-11-21,2022-11-16,有限会社山野井製作所,,有限会社,長野県,上田市,仁古田６３８番地１,,20,203,3861544,,,2022-11-16,清算の結了等,,,2015-10-05,1,,,,,ヤマノイセイサクショ,0
1829,8100002037493,登記記録の閉鎖等,0,2022-11-21,2022-11-15,有限会社村松総合ビジネス,,有限会社,長野県,飯田市,鼎西鼎６０１番地３,,20,205,3950026,,,2022-11-15,清算の結了等,,,2015-10-05,1,,,,,ムラマツソウゴウビジネス,0
1861,8140001094739,登記記録の閉鎖等,0,2022-11-21,2022-11-16,株式会社興亜リース,,株式会社,兵庫県,神戸市須磨区,弥栄台１丁目１０番地の６,,28,107,6540161,,,2022-11-16,清算の結了等,,,2015-10-05,1,,,,,コウアリース,0
1866,8150001006775,登記記録の閉鎖等,0,2022-11-21,2022-11-17,山本硝子株式会社,,株式会社,奈良県,天理市,田井庄町６３６番地,,29,204,6320071,,,2022-11-17,清算の結了等,,,2015-10-05,1,,,,,ヤマモトガラス,0
1872,8180001054508,登記記録の閉鎖等,0,2022-11-21,2022-11-17,Ｄ－Ｕｎｉｔｙ株式会社,,株式会社,愛知県,名古屋市熱田区,花表町２０番３５号,,23,109,4560033,,,2022-11-17,清算の結了等,,,2015-10-05,1,,,,,ディーユニティ,0
1876,8180001087094,登記記録の閉鎖等,0,2022-11-21,2022-11-14,ＴｈｉｎＱ株式会社,,株式会社,愛知県,一宮市,浅井町江森字西之森５４番地の１１,,23,203,4910114,,,2022-11-14,清算の結了等,,,2015-10-05,1,,,,,シンク,0
1880,8180002085741,登記記録の閉鎖等,0,2022-11-21,2022-11-15,有限会社山権,,有限会社,愛知県,知多郡南知多町,大字豊浜字上大田面５７番地の１,,23,445,4703412,,,2022-11-15,清算の結了等,,,2015-10-05,1,,,,,ヤマゴン,0
1882,8180301000574,登記記録の閉鎖等,0,2022-11-21,2022-11-18,株式会社川上酢店,,株式会社,愛知県,岡崎市,日名本町８番地８,,23,202,4440916,,,2022-11-18,清算の結了等,,,2015-10-05,1,,,,,,0
1885,8230005004016,登記記録の閉鎖等,0,2022-11-21,2022-11-17,公益財団法人魚津奨学会,,その他の設立登記法人,富山県,下新川郡朝日町,道下２２８番地,,16,343,9390743,,,2022-11-17,清算の結了等,,,2015-10-05,1,,,,,ウオヅショウガクカイ,0
1909,8320003001179,登記記録の閉鎖等,0,2022-11-21,2022-11-17,合同会社松岡製材所,,合同会社,大分県,杵築市,大字杵築６９８番地１,,44,210,8730001,,,2022-11-17,清算の結了等,,,2015-10-05,1,,,,,マツオカセイザイショ,0
1918,8360001020441,登記記録の閉鎖等,0,2022-11-21,2022-11-14,株式会社沖県住宅,,株式会社,沖縄県,石垣市,字石垣２７０番地１０,,47,207,9070023,,,2022-11-14,清算の結了等,,,2016-02-05,1,,,,,オキケンジュウタク,0
1919,8400001001049,登記記録の閉鎖等,0,2022-11-21,2022-11-16,東北街路灯照明株式会社,,株式会社,岩手県,盛岡市,向中野字細谷地５７番地の５,,03,201,0200851,,,2022-11-16,清算の結了等,,,2015-10-05,1,,,,,トウホクガイロトウショウメイ,0
1924,8400602000952,登記記録の閉鎖等,0,2022-11-21,2022-10-31,有限会社コウヨウ商事,,有限会社,岩手県,奥州市,江刺愛宕字酉丸３００番地の１,,03,215,0231131,,,2022-10-31,清算の結了等,,,2015-10-05,1,,,,,,0
1948,9010005023177,登記記録の閉鎖等,0,2022-11-21,2022-11-17,一般社団法人グローバルアーティスト支援機構,,その他の設立登記法人,東京都,中央区,日本橋富沢町５番５－５０２号,,13,102,1030006,,,2022-11-17,清算の結了等,,,2015-10-05,1,,,,,グローバルアーティストシエンキコウ,0
1950,9010005031361,登記記録の閉鎖等,0,2022-11-21,2022-11-18,一般社団法人日本パワーイメージング協会,,その他の設立登記法人,東京都,千代田区,九段南１丁目５番６号,,13,101,1020074,,,2022-11-18,清算の結了等,,,2020-01-28,1,,,,,ニホンパワーイメージングキョウカイ,0
1952,9010102002554,登記記録の閉鎖等,0,2022-11-21,2022-11-15,有限会社興和商事,,有限会社,東京都,八王子市,中野山王１丁目１４番１号,,13,201,1920042,,,2022-11-15,清算の結了等,,,2015-10-05,1,,,,,コウワショウジ,0
1954,9010103001745,登記記録の閉鎖等,0,2022-11-21,2022-11-17,コンパス合同会社,,合同会社,東京都,八王子市,片倉町７０３番地７ＭＮＴテラスハウス１０２,,13,201,1920914,,,2022-11-17,清算の結了等,,,2021-08-03,1,,,,,コンパス,0
2010,9012301006848,登記記録の閉鎖等,0,2022-11-21,2022-11-16,株式会社千の丸,,株式会社,神奈川県,相模原市南区,上鶴間本町９丁目１９番地２１号,,14,153,2520318,,,2022-11-16,清算の結了等,,,2015-10-05,1,,,,,センノマル,0
2013,9012401008950,登記記録の閉鎖等,0,2022-11-21,2022-11-16,株式会社エス・メンテナンス,,株式会社,東京都,狛江市,中和泉１丁目２２番２５号,,13,219,2010012,,,2022-11-16,清算の結了等,,,2015-10-05,1,,,,,,0
2028,9020002077720,登記記録の閉鎖等,0,2022-11-21,2022-11-16,有限会社前徳道場,,有限会社,神奈川県,横浜市鶴見区,潮田町１丁目２１番地,,14,101,2300041,,,2022-11-16,清算の結了等,,,2015-10-05,1,,,,,マエトクドウジョウ,0
2042,9030001024367,登記記録の閉鎖等,0,2022-11-21,2022-11-11,株式会社鈴九工務店,,株式会社,埼玉県,所沢市,大字中富１１４番地,,11,208,3590002,,,2022-11-11,清算の結了等,,,2015-10-05,1,,,,,スズキュウコウムテン,0
2044,9030001032147,登記記録の閉鎖等,0,2022-11-21,2022-11-11,ビジネスネットワークサービス株式会社,,株式会社,埼玉県,久喜市,八甫２丁目２９７番地,,11,232,3400201,,,2022-11-11,清算の結了等,,,2015-10-05,1,,,,,ビジネスネットワークサービス,0
2045,9030001055239,登記記録の閉鎖等,0,2022-11-21,2022-11-11,株式会社東和石材,,株式会社,埼玉県,川越市,大字小ケ谷２３５番地,,11,201,3501104,,,2022-11-11,清算の結了等,,,2015-10-05,1,,,,,トウワセキザイ,0
2062,9050002034504,登記記録の閉鎖等,0,2022-11-21,2022-11-15,有限会社かたやま,,有限会社,茨城県,龍ケ崎市,城ノ内３丁目１番地９３,,08,208,3010847,,,2022-11-15,清算の結了等,,,2015-10-05,1,,,,,カタヤマ,0
2066,9060003004059,登記記録の閉鎖等,0,2022-11-21,2022-11-14,合同会社ｍｙＩＣ,,合同会社,栃木県,宇都宮市,元今泉７丁目２６番２７号,,09,201,3210954,,,2022-11-14,清算の結了等,,,2022-05-02,1,,,,,マイアイシー,0
2070,9080103001169,登記記録の閉鎖等,0,2022-11-21,2022-11-18,マスカット合同会社,,合同会社,東京都,板橋区,徳丸７丁目２番７号,,13,119,1750083,,,2022-11-18,清算の結了等,,,2015-10-05,1,,,,,マスカット,0
2071,9080402020992,登記記録の閉鎖等,0,2022-11-21,2022-11-18,有限会社環境・地域づくり研究所,,有限会社,静岡県,磐田市,池田１６３番地４,,22,211,4380805,,,2022-11-18,清算の結了等,,,2015-10-05,1,,,,,カンキョウチイキヅクリケンキュウジョ,0
2074,9110001014772,登記記録の閉鎖等,0,2022-11-21,2022-11-16,株式会社山久商店,,株式会社,新潟県,三条市,林町１丁目３番２８号,,15,204,9550061,,,2022-11-16,清算の結了等,,,2015-10-05,1,,,,,ヤマキュウショウテン,0
2084,9120001230815,登記記録の閉鎖等,0,2022-11-21,2022-11-16,株式会社ビルド,,株式会社,大阪府,大阪市城東区,野江２丁目１６番２５号,,27,118,5360006,,,2022-11-16,清算の結了等,,,2020-08-06,1,,,,,ビルド,0
2090,9120001245796,登記記録の閉鎖等,0,2022-11-21,2022-11-17,ＳＫブリッジ株式会社,,株式会社,大阪府,大阪市淀川区,西宮原１丁目８番３９号,,27,123,5320004,,,2022-11-17,合併による解散等,3140001126182,令和４年１１月１５日兵庫県三木市細川町垂穂８９４番地の６０号株式会社ネスタリゾート神戸（3140001126182）に合併し解散,2022-05-09,1,,,,,エスケーブリッジ,0
2108,9140001086561,登記記録の閉鎖等,0,2022-11-21,2022-11-16,株式会社ナカガワ精密,,株式会社,兵庫県,加西市,野田町２８８番地,,28,220,6752211,,,2022-11-16,清算の結了等,,,2015-10-05,1,,,,,ナカガワセイミツ,0
2109,9140001094738,登記記録の閉鎖等,0,2022-11-21,2022-11-16,株式会社大東亜リース,,株式会社,兵庫県,神戸市須磨区,弥栄台１丁目１０番地の６,,28,107,6540161,,,2022-11-16,清算の結了等,,,2015-10-05,1,,,,,ダイトウアリース,0
2111,9140003005214,登記記録の閉鎖等,0,2022-11-21,2022-11-16,合同会社一福,,合同会社,兵庫県,神戸市灘区,千旦通３丁目３番３号,,28,102,6570056,,,2022-11-16,清算の結了等,,,2015-10-05,1,,,,,イップク,0
2121,9180001054977,登記記録の閉鎖等,0,2022-11-21,2022-11-08,株式会社サンキューナレッジ,,株式会社,愛知県,名古屋市北区,辻本通１丁目５３番地,00072181,23,103,4620861,,,2022-11-08,合併による解散等,7180001102168,令和４年１１月１日名古屋市中区栄一丁目１２番１０号株式会社サンキュー（7180001102168）に合併し解散,2015-10-05,1,,,,,サンキューナレッジ,0
2140,9210001018929,登記記録の閉鎖等,0,2022-11-21,2022-11-15,株式会社エリアベイス,,株式会社,福井県,あわら市,滝第１１号１０番地,,18,208,9190805,,,2022-11-15,清算の結了等,,,2022-05-13,1,,,,,エリアベイス,0
2142,9240001018109,登記記録の閉鎖等,0,2022-11-21,2022-11-18,広島シーフード食品株式会社,,株式会社,広島県,広島市西区,草津新町１丁目１２番１１号,,34,104,7330834,,,2022-11-18,清算の結了等,,,2015-10-05,1,,,,,,0
2144,9240001033652,登記記録の閉鎖等,0,2022-11-21,2022-11-11,宮原建設株式会社,,株式会社,広島県,福山市,新市町大字宮内１４３６番地,,34,207,7293104,,,2022-11-11,清算の結了等,,,2015-10-05,1,,,,,ミヤハラケンセツ,0
2148,9260001017281,登記記録の閉鎖等,0,2022-11-21,2022-11-16,株式会社日講,,株式会社,岡山県,総社市,福井５１７番地５,,33,208,7191115,,,2022-11-16,清算の結了等,,,2015-10-05,1,,,,,ニッコウ,0
2157,9310002007672,登記記録の閉鎖等,0,2022-11-21,2022-11-18,有限会社金澤食品,,有限会社,長崎県,西彼杵郡時津町,元村郷１２９９番地３,,42,308,8512103,,,2022-11-18,清算の結了等,,,2015-10-05,1,,,,,カナザワショクヒン,0
2174,9400602000902,登記記録の閉鎖等,0,2022-11-21,2022-11-15,有限会社大石住建,,有限会社,岩手県,奥州市,江刺栄町６番２号,,03,215,0231118,,,2022-11-15,清算の結了等,,,2015-10-05,1,,,,,オオイシジュウケン,0
2176,9420002005450,登記記録の閉鎖等,0,2022-11-21,2022-11-17,有限会社アイ・デザインリフォーム,,有限会社,青森県,青森市,中央３丁目２番７号,,02,201,0300822,,,2022-11-17,清算の結了等,,,2015-10-05,1,,,,,アイデザインリフォーム,0
2180,9430002008386,登記記録の閉鎖等,0,2022-11-21,2022-11-11,有限会社サキマクリーニング,,有限会社,北海道,札幌市西区,琴似三条３丁目１番３２号,,01,107,0630813,,,2022-11-11,清算の結了等,,,2015-10-05,1,,,,,サキマクリーニング,0
