sequenceNumber,corporateNumber,process,correct,updateDate,changeDate,name,nameImageId,kind,prefectureName,cityName,streetNumber,addressImageId,prefectureCode,cityCode,postCode,addressOutside,addressOutsideImageId,closeDate,closeCause,successorCorporateNumber,changeCause,assignmentDate,latest,enName,enPrefectureName,enCityName,enAddressOutside,furigana,hihyoji
5,1010001228968,新規,0,2022-08-23,2022-08-23,株式会社八十八商会,,株式会社,東京都,千代田区,九段南２丁目８番５号,,13,101,1020074,,,,,,,2022-08-23,1,,,,,ヤソハチショウカイ,0
6,1010001228984,新規,0,2022-08-23,2022-08-23,株式会社ＡＸＥＦＩＥＬＤ,,株式会社,東京都,中央区,銀座１丁目１２番４号Ｎ＆ＥＢＬＤ．７階,,13,102,1040061,,,,,,,2022-08-23,1,,,,,アックスフィールド,0
10,1010003038457,新規,0,2022-08-23,2022-08-23,Ｄａｗｎｌｉｇｈｔ　Ａｄｖｉｓｏｒｓ　Ｊａｐａｎ合同会社,,合同会社,東京都,千代田区,神田小川町３丁目２８番１３号ラフィネお茶の水１００９号,,13,101,1010052,,,,,,,2022-08-23,1,,,,,ドーンライトアドバイザーズジャパン,0
11,1010005035444,新規,0,2022-08-23,2022-08-23,一般社団法人相馬,,その他の設立登記法人,東京都,千代田区,内神田２丁目２番６号５階あすな会計事務所内,,13,101,1010047,,,,,,,2022-08-23,1,,,,,ソウマ,0
39,1011001149246,新規,0,2022-08-23,2022-08-23,株式会社Ｄｉｇｉｔｔｌｅ,,株式会社,東京都,渋谷区,渋谷２丁目６番６－２０１号,,13,113,1500002,,,,,,,2022-08-23,1,,,,,ディジタル,0
40,1011001149295,新規,0,2022-08-23,2022-08-23,株式会社ＥＶＥＲＹＳ,,株式会社,東京都,渋谷区,道玄坂１丁目１０番８号渋谷道玄坂東急ビル２Ｆ－Ｃ,,13,113,1500043,,,,,,,2022-08-23,1,,,,,エブリス,0
41,1011001149378,新規,0,2022-08-23,2022-08-23,株式会社サングリア,,株式会社,東京都,渋谷区,円山町１２番２号,,13,113,1500044,,,,,,,2022-08-23,1,,,,,サングリア,0
44,1011003015231,新規,0,2022-08-23,2022-08-23,ＭＩＲＡＣＬＥ　ＦＩＥＬＤ合同会社,,合同会社,東京都,渋谷区,渋谷１丁目１２－２,,13,113,1500002,,,,,,,2022-08-23,1,,,,,ミラクルフィールド,0
45,1011003015248,新規,0,2022-08-23,2022-08-23,合同会社Ｓ‐Ｃｕｌｔｕｒｅ,,合同会社,東京都,目黒区,自由が丘２丁目１６番地１２号ＲＪ３,,13,110,1520035,,,,,,,2022-08-23,1,,,,,エスカルチャー,0
52,1011101099936,新規,0,2022-08-23,2022-08-23,株式会社イーハウス,,株式会社,東京都,新宿区,百人町１丁目１８番８号大久保カドビル４０４号室,,13,104,1690073,,,,,,,2022-08-23,1,,,,,イーハウス,0
54,1011401024494,新規,0,2022-08-23,2022-08-23,株式会社鄭記商事,,株式会社,東京都,板橋区,仲町１３番１－１０１,,13,119,1730022,,,,,,,2022-08-23,1,,,,,テイキショウジ,0
56,1011503005260,新規,0,2022-08-23,2022-08-23,Ｙ＆Ｓ合同会社,,合同会社,東京都,荒川区,東尾久６丁目３６番９号プレサンスロジェ熊野前１０３号,,13,118,1160012,,,,,,,2022-08-23,1,,,,,ワイアンドエス,0
66,1013301049547,新規,0,2022-08-23,2022-08-23,ＮＭＮ聯盟株式会社,,株式会社,東京都,豊島区,巣鴨５丁目１５番１１号,,13,116,1700002,,,,,,,2022-08-23,1,,,,,エヌエムエヌレンメイ,0
71,1020001147886,新規,0,2022-08-23,2022-08-23,株式会社ＲｅＬｉｖｅ,,株式会社,神奈川県,横浜市中区,扇町１丁目１番地２５キンガビル,,14,104,2310027,,,,,,,2022-08-23,1,,,,,リライブ,0
73,1020003022261,新規,0,2022-08-23,2022-08-23,合資会社港南創研,,合資会社,神奈川県,横浜市港南区,上永谷４丁目１０番２１号１１１,,14,111,2330012,,,,,,,2022-08-23,1,,,,,コウナンソウケン,0
74,1020005015635,新規,0,2022-08-23,2022-08-23,ＮＰＯ法人まちラボ,,その他の設立登記法人,神奈川県,横浜市都筑区,東山田１丁目２番１２号,,14,118,2240023,,,,,,,2022-08-23,1,,,,,マチラボ,0
80,1021005012589,新規,0,2022-08-23,2022-08-23,特定非営利活動法人ＳＭＩＬＥ,,その他の設立登記法人,神奈川県,藤沢市,鵠沼橘１丁目４番８号,00127592,14,205,2510024,,,,,,,2022-08-23,1,,,,,スマイル,0
86,1030001149782,新規,0,2022-08-23,2022-08-23,株式会社大栄,,株式会社,埼玉県,朝霞市,本町１丁目２４番２号ＣｏｃｏｓＧａｒｄｅｎＶｉｌｌａ１０２号,,11,227,3510011,,,,,,,2022-08-23,1,,,,,ダイエイ,0
87,1030002003641,新規,0,2022-08-23,2022-08-23,ディグポ有限会社,,有限会社,埼玉県,さいたま市北区,宮原町２丁目３９番地の８,,11,102,3310812,,,,,,,2022-08-23,1,,,,,ディグポ,0
94,1040003020668,新規,0,2022-08-23,2022-08-23,ミリンダランカ合同会社,,合同会社,千葉県,山武市,松尾町大堤１６２番地４,,12,237,2891527,,,,,,,2022-08-23,1,,,,,ミリンダランカ,0
95,1040003020684,新規,0,2022-08-23,2022-08-23,合同会社グランセイ,,合同会社,千葉県,千葉市美浜区,高洲３丁目１５番４棟４１０号,,12,106,2610004,,,,,,,2022-08-23,1,,,,,グランセイ,0
96,1050001051573,新規,0,2022-08-23,2022-08-23,Ｍ・Ｓ・ＴＲＡＤＩＮＧ株式会社,,株式会社,茨城県,結城市,大字大木４０９番地５２,,08,207,3070031,,,,,,,2022-08-23,1,,,,,エムエストレーディング,0
97,1050001051581,新規,0,2022-08-23,2022-08-23,株式会社ＹＵＫＩＣＨＩ．ＣＯ,,株式会社,茨城県,水戸市,南町３丁目４番２４－３０１号,,08,201,3100021,,,,,,,2022-08-23,1,,,,,ユキチドットシーオー,0
119,1120001248328,新規,0,2022-08-23,2022-08-23,投桃株式会社,,株式会社,大阪府,大阪市東成区,深江北３丁目４番２１号エクラ深江橋６１０Ａ,,27,115,5370001,,,,,,,2022-08-23,1,,,,,トウトウ,0
120,1120001248344,新規,0,2022-08-23,2022-08-23,株式会社フォレスト製薬,,株式会社,大阪府,大阪市中央区,南船場４丁目６番２２号６０１号室,,27,128,5420081,,,,,,,2022-08-23,1,,,,,フォレストセイヤク,0
121,1120001248360,新規,0,2022-08-23,2022-08-23,株式会社日本企福,,株式会社,大阪府,大阪市生野区,田島５丁目１９番７号８号室,,27,116,5440011,,,,,,,2022-08-23,1,,,,,ニホンキフク,0
126,1120101066118,新規,0,2022-08-23,2022-08-23,株式会社ＵＣＨＩＤＡ,,株式会社,大阪府,堺市美原区,北余部４０番地１０３,,27,147,5870051,,,,,,,2022-08-23,1,,,,,ウチダ,0
129,1122001036183,新規,0,2022-08-23,2022-08-23,株式会社セリウム,,株式会社,大阪府,四條畷市,大字清瀧１１３０番７０号,,27,229,5750063,,,,,,,2022-08-23,1,,,,,セリウム,0
131,1130003008142,新規,0,2022-08-23,2022-08-23,合同会社ＬＥＥＰＥＡＲＬ,,合同会社,京都府,京都市山科区,厨子奥若林町５１番地３,,26,110,6078451,,,,,,,2022-08-23,1,,,,,リパール,0
133,1140001127026,新規,0,2022-08-23,2022-08-23,株式会社Ａｌｌ‐Ｒｉｇｈｔ,,株式会社,兵庫県,尼崎市,猪名寺１丁目２３番１６号,,28,202,6610981,,,,,,,2022-08-23,1,,,,,オーライ,0
136,1180001152664,新規,0,2022-08-23,2022-08-23,株式会社ＴＡＫＡＭＡＳＡ,,株式会社,愛知県,北名古屋市,法成寺八竜６９番地,,23,234,4810039,,,,,,,2022-08-23,1,,,,,タカマサ,0
137,1180001152714,新規,0,2022-08-23,2022-08-23,胡人文化株式会社,,株式会社,愛知県,名古屋市西区,名駅１丁目１番１７号名駅ダイヤメイテツビル１１階,,23,104,4510045,,,,,,,2022-08-23,1,,,,,コジンブンカ,0
138,1180301036559,新規,0,2022-08-23,2022-08-23,株式会社ＡＮＬＵＸＥ,,株式会社,愛知県,岡崎市,井内町字上堤１１番地１グレフューレ壱番館１０１号,,23,202,4440203,,,,,,,2022-08-23,1,,,,,アンリュクス,0
147,1210003001551,新規,0,2022-08-23,2022-08-23,トミオカファーム合同会社,,合同会社,福井県,福井市,春日１丁目６－４,,18,201,9188108,,,,,,,2022-08-23,1,,,,,トミオカファーム,0
148,1210005010047,新規,0,2022-08-23,2022-08-23,一般社団法人ＭＹＮＫＳ,,その他の設立登記法人,福井県,あわら市,下番第２３号２番地１４,,18,208,9104138,,,,,,,2022-08-23,1,,,,,ミンクス,0
151,1250001019732,新規,0,2022-08-23,2022-08-23,ｃｏｃｏｒｏ株式会社,,株式会社,山口県,岩国市,今津町１丁目８番２６号,,35,208,7400017,,,,,,,2022-08-23,1,,,,,ココロ,0
154,1260001037163,新規,0,2022-08-23,2022-08-23,ＵＭコンサルティング株式会社,,株式会社,岡山県,岡山市南区,福成２丁目１９番６号,,33,104,7028022,,,,,,,2022-08-23,1,,,,,ユーエムコンサルティング,0
161,1290001098657,新規,0,2022-08-23,2022-08-23,ＭＳＫ株式会社,,株式会社,福岡県,福岡市城南区,南片江６丁目９番８号,,40,136,8140143,,,,,,,2022-08-23,1,,,,,エムエスケー,0
167,1300001013044,新規,0,2022-08-23,2022-08-23,吉岡商事株式会社,,株式会社,佐賀県,佐賀市,八幡小路４番２７号３０１,,41,201,8400834,,,,,,,2022-08-23,1,,,,,ヨシオカショウジ,0
169,1320003003883,新規,0,2022-08-23,2022-08-23,合同会社ＰＯＰＰＯ,,合同会社,大分県,佐伯市,野岡町１丁目４番４３号,,44,205,8760815,,,,,,,2022-08-23,1,,,,,ポッポ,0
180,1360001030843,新規,0,2022-08-23,2022-08-23,株式会社大城保険サービス,,株式会社,沖縄県,豊見城市,字与根１７９番地,,47,212,9010224,,,,,,,2022-08-23,1,,,,,オオシロホケンサービス,0
181,1360001030868,新規,0,2022-08-23,2022-08-23,株式会社オカノメンテナンスサービス,,株式会社,沖縄県,那覇市,安謝１丁目２３番８号,,47,201,9000003,,,,,,,2022-08-23,1,,,,,オカノメンテナンスサービス,0
184,1360003012253,新規,0,2022-08-23,2022-08-23,合同会社ほぐっど,,合同会社,沖縄県,沖縄市,登川２丁目２７番１８号,,47,211,9042142,,,,,,,2022-08-23,1,,,,,ホグット,0
192,1430003014201,新規,0,2022-08-23,2022-08-23,合同会社Ｈａｐｐｙ　Ｓｍｉｌｅ,,合同会社,北海道,岩見沢市,幌向南二条２丁目２０５番地２,,01,210,0690372,,,,,,,2022-08-23,1,,,,,ハッピースマイル,0
195,1450003002237,新規,0,2022-08-23,2022-08-23,合同会社ｍｉｉｍｉ,,合同会社,北海道,旭川市,永山一条２丁目３－２１,,01,204,0798411,,,,,,,2022-08-23,1,,,,,ミィミ,0
212,2010001228959,新規,0,2022-08-23,2022-08-23,Ｓ・Ｋ＆Ｍ株式会社,,株式会社,東京都,千代田区,麹町４丁目５番地２０ＫＳビル７階,,13,101,1020083,,,,,,,2022-08-23,1,,,,,エスケーアンドエム,0
218,2010003038456,新規,0,2022-08-23,2022-08-23,合同会社ヒロ・コーポレーション,,合同会社,東京都,中央区,銀座１丁目２２番１１号銀座大竹ビジデンス２階,,13,102,1040061,,,,,,,2022-08-23,1,,,,,ヒロコーポレーション,0
226,2010501049277,新規,0,2022-08-23,2022-08-23,株式会社Ｍｉｍｉｌｙ,,株式会社,東京都,台東区,北上野１丁目３－４アクシルコート上野６０４,,13,106,1100014,,,,,,,2022-08-23,1,,,,,ミミリー,0
233,2010901051428,新規,0,2022-08-23,2022-08-23,株式会社ａｎｄ　ａｗｅｓｏｍｅ,,株式会社,東京都,世田谷区,上野毛４丁目３３番１号,,13,112,1580093,,,,,,,2022-08-23,1,,,,,アンドオーサム,0
245,2011201024058,新規,0,2022-08-23,2022-08-23,株式会社サンサン,,株式会社,東京都,中野区,弥生町１丁目４３番１５号,,13,114,1640013,,,,,,,2022-08-23,1,,,,,サンサン,0
252,2012401039548,新規,0,2022-08-23,2022-08-23,株式会社ＢＲＩＯＳＯ,,株式会社,東京都,調布市,入間町１丁目３７番４６号,,13,208,1820004,,,,,,,2022-08-23,1,,,,,ブリオーソ,0
253,2012701017212,新規,0,2022-08-23,2022-08-23,株式会社ＭＯＯＮ　ＴＩＭＥ,,株式会社,東京都,西東京市,谷戸町２丁目６番９－６１５号Ａ室,,13,229,1880001,,,,,,,2022-08-23,1,,,,,ムーンタイム,0
262,2020001147885,新規,0,2022-08-23,2022-08-23,Ｎ‐システム株式会社,,株式会社,神奈川県,川崎市多摩区,宿河原６丁目２６番２号,,14,135,2140021,,,,,,,2022-08-23,1,,,,,エヌシステム,0
263,2020001147902,新規,0,2022-08-23,2022-08-23,株式会社みらい不動産,,株式会社,神奈川県,横浜市中区,長者町９丁目１４５番地２,,14,104,2310033,,,,,,,2022-08-23,1,,,,,ミライフドウサン,0
267,2020003022277,新規,0,2022-08-23,2022-08-23,合同会社ＹＭＤ・Ｎ,,合同会社,神奈川県,川崎市川崎区,四谷上町１０番２－７０４号クオス川崎エスタル,,14,131,2100828,,,,,,,2022-08-23,1,,,,,ワイエムディーエヌ,0
275,2030001149765,新規,0,2022-08-23,2022-08-23,株式会社ＩＡＳ　ＪＡＰＡＮ,,株式会社,埼玉県,北葛飾郡松伏町,大字築比地２１６５番地２,,11,465,3430102,,,,,,,2022-08-23,1,,,,,アイエーエスジャパン,0
290,2040001124619,新規,0,2022-08-23,2022-08-23,株式会社三晴,,株式会社,千葉県,木更津市,富士見１丁目２番１号株式会社木更津そごう内,,12,206,2920831,,,,,,,2022-08-23,1,,,,,サンセ,0
291,2040001124767,新規,0,2022-08-23,2022-08-23,株式会社金属技研,,株式会社,千葉県,野田市,目吹２２８４番地２,,12,208,2780001,,,,,,,2022-08-23,1,,,,,キンゾクギケン,0
294,2040003020675,新規,0,2022-08-23,2022-08-23,合同会社ＴＨＡＴＳＯＵ,,合同会社,千葉県,野田市,つつみ野２丁目２７番地の１,,12,208,2780038,,,,,,,2022-08-23,1,,,,,ザッソウ,0
297,2040005021663,新規,0,2022-08-23,2022-08-23,一般社団法人東金労働基準協会,,その他の設立登記法人,千葉県,東金市,東金５８７番地６南総通運（株）旧本社ビル３階,,12,213,2830802,,,,,,,2022-08-23,1,,,,,トウガネロウドウキジュンキョウカイ,0
314,2120001248285,新規,0,2022-08-23,2022-08-23,株式会社匠志向,,株式会社,大阪府,大阪市大正区,三軒家西３丁目４番１６号中山ビル,,27,108,5510001,,,,,,,2022-08-23,1,,,,,タクミシコウ,0
315,2120001248319,新規,0,2022-08-23,2022-08-23,ＮＡＴＨＡＮ株式会社,,株式会社,大阪府,大阪市中央区,東心斎橋１丁目３番１０号－６０３,,27,128,5420083,,,,,,,2022-08-23,1,,,,,ネイサン,0
316,2120001248351,新規,0,2022-08-23,2022-08-23,株式会社ｋｉｓｅｅｅｅｎ,,株式会社,大阪府,大阪市平野区,瓜破西２丁目１３番４３号,,27,126,5470025,,,,,,,2022-08-23,1,,,,,キセーン,0
320,2120101066117,新規,0,2022-08-23,2022-08-23,株式会社ＸＲＥＥＤ,,株式会社,大阪府,羽曳野市,南古市２丁目９番１２号,,27,222,5830858,,,,,,,2022-08-23,1,,,,,エリード,0
334,2160003002653,新規,0,2022-08-23,2022-08-23,合同会社グッドスペース,,合同会社,滋賀県,草津市,西大路町５番１０－７０３号ユニハイム草津フレッシア,,25,206,5250037,,,,,,,2022-08-23,1,,,,,グッドスペース,0
338,2180001152721,新規,0,2022-08-23,2022-08-23,Ａｕｘｉｌｉａｒｙ株式会社,,株式会社,愛知県,名古屋市東区,代官町３５番１６号第一富士ビル６階,,23,102,4610002,,,,,,,2022-08-23,1,,,,,オーゼリアリー,0
345,2190003004069,新規,0,2022-08-23,2022-08-23,仁和合同会社,,合同会社,三重県,鈴鹿市,大池３丁目９番５号,,24,207,5130827,,,,,,,2022-08-23,1,,,,,ニンワ,0
349,2250001019731,新規,0,2022-08-23,2022-08-23,株式会社Ｂｅｃｋｍａｎ,,株式会社,山口県,岩国市,牛野谷町３丁目３９番９－２号,,35,208,7410071,,,,,,,2022-08-23,1,,,,,ベックマン,0
358,2290001098672,新規,0,2022-08-23,2022-08-23,株式会社ＴＲＩＰＬＥ５,,株式会社,福岡県,福岡市西区,今宿１丁目１２番４－５０７号サングレート今宿オーシャンテラス,,40,135,8190167,,,,,,,2022-08-23,1,,,,,トリプルファイブ,0
362,2300001013043,新規,0,2022-08-23,2022-08-23,株式会社サンダルフォン,,株式会社,佐賀県,佐賀市,北川副町大字新郷６２４番地,,41,201,8400013,,,,,,,2022-08-23,1,,,,,サンダルフォン,0
365,2320003003882,新規,0,2022-08-23,2022-08-23,合同会社つなぐ,,合同会社,大分県,大分市,大道町２丁目８番１１号,,44,201,8700822,,,,,,,2022-08-23,1,,,,,ツナグ,0
367,2330001030036,新規,0,2022-08-23,2022-08-23,巧アセット株式会社,,株式会社,熊本県,熊本市西区,池上町３８０－５,,43,103,8600048,,,,,,,2022-08-23,1,,,,,タクミアセット,0
384,2430001087330,新規,0,2022-08-23,2022-08-23,株式会社カツヤオート苫小牧,,株式会社,北海道,苫小牧市,明野新町４丁目９番１８号,,01,213,0530054,,,,,,,2022-08-23,1,,,,,カツヤオートトマコマイ,0
385,2430005014537,新規,0,2022-08-23,2022-08-23,一般社団法人ＨＡＷＡＨ　ＬＹＭＰＨＡＴＩＣ　ＳＹＳＴＥＭ　ＲＥＳＥＡＲＣＨ,,その他の設立登記法人,北海道,白老郡白老町,日の出町５丁目２８番地７０,,01,578,0590903,,,,,,,2022-08-23,1,,,,,ハワリンパティックシステムリサーチ,0
394,3010001228974,新規,0,2022-08-23,2022-08-23,株式会社ＴＡＩＹＯ,,株式会社,東京都,文京区,西片２丁目１２番２６号,,13,105,1130024,,,,,,,2022-08-23,1,,,,,タイヨー,0
396,3010003038463,新規,0,2022-08-23,2022-08-23,合同会社ＨＲ＆Ｎコンサルティング,,合同会社,東京都,文京区,関口１丁目６番５号プラウド文京関口７０４,,13,105,1120014,,,,,,,2022-08-23,1,,,,,エイチアールアンドエヌコンサルティング,0
406,3010401168936,新規,0,2022-08-23,2022-08-23,株式会社Ｂｌｉｔｚｗａｙ　Ｊａｐａｎ,,株式会社,東京都,港区,芝大門１丁目４番４－９０９号,,13,103,1050012,,,,,,,2022-08-23,1,,,,,ブリッツウェイジャパン,0
407,3010401169026,新規,0,2022-08-23,2022-08-23,ティーエヌインキュベーション株式会社,,株式会社,東京都,港区,南麻布５丁目４番１号オパス有栖川テラス７０５,,13,103,1060047,,,,,,,2022-08-23,1,,,,,ティーエヌインキュベーション,0
411,3010701043104,新規,0,2022-08-23,2022-08-23,日本＿州臻昇資源貿易株式会社,00127598,株式会社,東京都,品川区,南品川１丁目１番３号,,13,109,1400004,,,,,,,2022-08-23,1,,,,,ニホンカンシュウシンショウシゲンボウエキ,0
419,3010901051476,新規,0,2022-08-23,2022-08-23,株式会社ジーエー,,株式会社,東京都,世田谷区,松原４丁目８番１０－２０１号,,13,112,1560043,,,,,,,2022-08-23,1,,,,,ジーエー,0
422,3011001149335,新規,0,2022-08-23,2022-08-23,株式会社ＫＡＤＯＤＥ,,株式会社,東京都,渋谷区,代々木２丁目２１－３－２０１,,13,113,1510053,,,,,,,2022-08-23,1,,,,,,0
423,3011001149343,新規,0,2022-08-23,2022-08-23,株式会社大志,,株式会社,東京都,目黒区,東が丘１丁目１０－１６アンビエラ東が丘１０２,,13,110,1520021,,,,,,,2022-08-23,1,,,,,タイシ,0
435,3011703003236,新規,0,2022-08-23,2022-08-23,スカイ・ホールディング合同会社,,合同会社,東京都,江戸川区,東葛西４丁目４番１号,,13,123,1340084,,,,,,,2022-08-23,1,,,,,スカイホールディング,0
436,3012303001712,新規,0,2022-08-23,2022-08-23,合同会社アリアンツ,,合同会社,東京都,町田市,小山ヶ丘３丁目１２番地８ドミール多摩境Ｄ１０１,,13,209,1940215,,,,,,,2022-08-23,1,,,,,アリアンツ,0
441,3013301049545,新規,0,2022-08-23,2022-08-23,株式会社ＡｌｇｏＣｒｅａｔｉｏｎ,,株式会社,東京都,豊島区,東池袋１丁目３４番５号いちご東池袋ビル６階,,13,116,1700013,,,,,,,2022-08-23,1,,,,,アルゴクリエーション,0
448,3020001147868,新規,0,2022-08-23,2022-08-23,株式会社イクシナ,,株式会社,神奈川県,横浜市泉区,緑園３丁目３７番地３９,,14,116,2450002,,,,,,,2022-08-23,1,,,,,イクシナ,0
455,3021001076818,新規,0,2022-08-23,2022-08-23,株式会社Ｋａｓｈｉｗａｇｉ,,株式会社,神奈川県,綾瀬市,寺尾釜田１丁目１番１２号,,14,218,2521135,,,,,,,2022-08-23,1,,,,,カシワギ,0
459,3021003012060,新規,0,2022-08-23,2022-08-23,合同会社Ｎｓちゅうりっぷ,,合同会社,神奈川県,相模原市南区,上鶴間本町１丁目４２番１２号,,14,153,2520318,,,,,,,2022-08-23,1,,,,,エヌエスチュウリップ,0
461,3030001149772,新規,0,2022-08-23,2022-08-23,株式会社みらい北本,,株式会社,埼玉県,北本市,西高尾１丁目２１４番地,,11,233,3640035,,,,,,,2022-08-23,1,,,,,,0
472,3040001124766,新規,0,2022-08-23,2022-08-23,かまね株式会社,,株式会社,千葉県,柏市,旭町８丁目５番１９号,,12,217,2770852,,,,,,,2022-08-23,1,,,,,カマネ,0
478,3040003020658,新規,0,2022-08-23,2022-08-23,田義建材合同会社,,合同会社,千葉県,八街市,八街は３９番地,,12,230,2891107,,,,,,,2022-08-23,1,,,,,タヨシケンザイ,0
479,3040005021704,新規,0,2022-08-23,2022-08-23,行政書士法人フロイデ,,その他の設立登記法人,千葉県,船橋市,高根台６丁目３３番２０号,,12,204,2740065,,,,,,,2022-08-23,1,,,,,フロイデ,0
480,3040005021712,新規,0,2022-08-23,2022-08-23,一般社団法人市民会議,,その他の設立登記法人,千葉県,船橋市,市場１丁目８番１号,,12,204,2730001,,,,,,,2022-08-23,1,,,,,シミンカイギ,0
497,3110005016845,新規,0,2022-08-23,2022-08-23,医療法人社団ｅｙｅ‐ｌａｎｄ,,その他の設立登記法人,新潟県,新潟市中央区,西堀通３番町２５７番地１０,,15,103,9518061,,,,,,,2022-08-23,1,,,,,アイランド,0
505,3120001248301,新規,0,2022-08-23,2022-08-23,株式会社セオリーｉｎｃ,,株式会社,大阪府,大阪市淀川区,新高６丁目１４番７－３０５号,,27,123,5320033,,,,,,,2022-08-23,1,,,,,セオリーインク,0
506,3120001248318,新規,0,2022-08-23,2022-08-23,株式会社Ｕ．Ｔ．Ｒ,,株式会社,大阪府,大阪市東成区,中本５丁目１３番８－１００１号,,27,115,5370022,,,,,,,2022-08-23,1,,,,,ユーティーアール,0
507,3120001248334,新規,0,2022-08-23,2022-08-23,ＹＥＳトラスト株式会社,,株式会社,大阪府,大阪市北区,西天満５丁目９番３号アールビル本館７階,,27,127,5300047,,,,,,,2022-08-23,1,,,,,イエストラスト,0
508,3120001248375,新規,0,2022-08-23,2022-08-23,株式会社リーヴスツリー,,株式会社,大阪府,大阪市西成区,長橋１丁目４番７号今宮スカイハイツ１０２,,27,122,5570025,,,,,,,2022-08-23,1,,,,,リーヴスツリー,0
509,3120003022324,新規,0,2022-08-23,2022-08-23,Ｔ＆Ｌ　ＦＯＯＤ合同会社,,合同会社,大阪府,大阪市阿倍野区,三明町２丁目１１番２９号６０１,,27,119,5450005,,,,,,,2022-08-23,1,,,,,ティアンドエルフード,0
520,3122001036198,新規,0,2022-08-23,2022-08-23,ＮＥＷＷＡＹ株式会社,,株式会社,大阪府,東大阪市,荒本新町４番１３号,,27,227,5770022,,,,,,,2022-08-23,1,,,,,ニューウエイ,0
525,3130005016554,新規,0,2022-08-23,2022-08-23,一般社団法人日本マーケティングオペレーション協会,,その他の設立登記法人,京都府,京都市中京区,河原町通二条下る二丁目下丸屋町４０３番地,,26,104,6040000,,,,,,,2022-08-23,1,,,,,ニホンマーケティングオペレーションキョウカイ,0
530,3140001127123,新規,0,2022-08-23,2022-08-23,株式会社ＹＴＫ,,株式会社,兵庫県,神戸市北区,鹿の子台南町１丁目１０番１号,,28,109,6511514,,,,,,,2022-08-23,1,,,,,ワイティケイ,0
538,3180001152712,新規,0,2022-08-23,2022-08-23,株式会社ＣＨＨ,,株式会社,愛知県,名古屋市中川区,尾頭橋１丁目１番３５号（シティコーポ尾頭橋２号館１００１号）,,23,110,4540012,,,,,,,2022-08-23,1,,,,,シーエイチエイチ,0
539,3180001152720,新規,0,2022-08-23,2022-08-23,株式会社ＰＨＸ,,株式会社,愛知県,稲沢市,高重町屋敷１８番地３,,23,220,4928422,,,,,,,2022-08-23,1,,,,,ピーエイチエックス,0
540,3180005019899,新規,0,2022-08-23,2022-08-23,特定非営利活動法人日本睡眠衛生推進機構,,その他の設立登記法人,愛知県,春日井市,中央通１丁目６４番地２号クイール中央通６－Ａ,,23,206,4860825,,,,,,,2022-08-23,1,,,,,ニホンスイミンエイセイスイシンキコウ,0
545,3180301036524,新規,0,2022-08-23,2022-08-23,山崎商事株式会社,,株式会社,愛知県,西尾市,下羽角町六反６６番地,,23,213,4450012,,,,,,,2022-08-23,1,,,,,ヤマザキショウジ,0
546,3190001029703,新規,0,2022-08-23,2022-08-23,クルア・ベンジャロン株式会社,,株式会社,三重県,鈴鹿市,算所１丁目１２番２５号,,24,207,5130806,,,,,,,2022-08-23,1,,,,,クルアベンジャロン,0
547,3190003004068,新規,0,2022-08-23,2022-08-23,合同会社ナカムラ山事,,合同会社,三重県,北牟婁郡紀北町,島勝浦１６１番地２,,24,543,5193412,,,,,,,2022-08-23,1,,,,,ナカムラヤマゴト,0
551,3210001019049,新規,0,2022-08-23,2022-08-23,株式会社ｍｅｍｅ,,株式会社,福井県,福井市,中央１丁目８番２１号伊井ビル５号館２階,,18,201,9100006,,,,,,,2022-08-23,1,,,,,ミーム,0
555,3230001019492,新規,0,2022-08-23,2022-08-23,株式会社グロースリンク,,株式会社,富山県,高岡市,金屋１２９番地１,,16,202,9340096,,,,,,,2022-08-23,1,,,,,グロースリンク,0
562,3290001098671,新規,0,2022-08-23,2022-08-23,株式会社Ｔｉｇｒａｍ,,株式会社,福岡県,宗像市,田熊６丁目４番１０－２０２号,,40,220,8113431,,,,,,,2022-08-23,1,,,,,ティグラム,0
566,3290801028828,新規,0,2022-08-23,2022-08-23,株式会社長久,,株式会社,福岡県,北九州市小倉南区,葛原本町１丁目１２番９号,,40,107,8000253,,,,,,,2022-08-23,1,,,,,チョウキュウ,0
568,3300001013042,新規,0,2022-08-23,2022-08-23,株式会社クロスビジョン,,株式会社,佐賀県,鳥栖市,神辺町９１８番地,,41,203,8410004,,,,,,,2022-08-23,1,,,,,クロスビジョン,0
574,3340003003888,新規,0,2022-08-23,2022-08-23,合同会社ｐｌａｙｚ,,合同会社,鹿児島県,霧島市,隼人町真孝２４４０番地１,,46,218,8995102,,,,,,,2022-08-23,1,,,,,プレイズ,0
577,3370001048899,新規,0,2022-08-23,2022-08-23,株式会社ＴＯＨＣＡ,,株式会社,宮城県,仙台市青葉区,一番町１丁目１１番９号仙台リエゾン３０７,,04,101,9800811,,,,,,,2022-08-23,1,,,,,トウカ,0
578,3370001048973,新規,0,2022-08-23,2022-08-23,Ｌｉｍエステート株式会社,,株式会社,宮城県,仙台市宮城野区,銀杏町５番１７－１０６号,,04,102,9830047,,,,,,,2022-08-23,1,,,,,リムエステート,0
579,3370003005808,新規,0,2022-08-23,2022-08-23,合同会社庄子建装,,合同会社,宮城県,仙台市青葉区,折立２丁目７番２０－６０７号,,04,101,9820261,,,,,,,2022-08-23,1,,,,,ショウジケンソウ,0
583,3380005012611,新規,0,2022-08-23,2022-08-23,特定非営利活動法人スポーツクラブエルマノス,,その他の設立登記法人,福島県,会津若松市,一箕町大字八幡字墓料１０４番地の１７,,07,202,9650003,,,,,,,2022-08-23,1,,,,,スポーツクラブエルマノス,0
591,3430003014199,新規,0,2022-08-23,2022-08-23,合同会社Ｃｏ．ｌｌａｂｏ,,合同会社,北海道,札幌市清田区,美しが丘二条２丁目９番７号,,01,110,0040812,,,,,,,2022-08-23,1,,,,,コラボ,0
604,4010001228957,新規,0,2022-08-23,2022-08-23,東京国林医療株式会社,,株式会社,東京都,千代田区,外神田２丁目１３番５号ＭＩＮＴＲＯＮ秋葉原ビル６階,,13,101,1010021,,,,,,,2022-08-23,1,,,,,トウキョウコクリンイリョウ,0
607,4010003038479,新規,0,2022-08-23,2022-08-23,Ａｓｃｐｈｅｒｅ合同会社,,合同会社,東京都,中央区,銀座６丁目１３－１６銀座ＷａｌｌビルＵＣＦ５０１,,13,102,1040061,,,,,,,2022-08-23,1,,,,,アスフィア,0
626,4011001149334,新規,0,2022-08-23,2022-08-23,株式会社Ａｖｒｉｏｔ　Ｈｏｌｄｉｎｇｓ,,株式会社,東京都,渋谷区,道玄坂１丁目１０番８号渋谷道玄坂東急ビル２Ｆ‐Ｃ,,13,113,1500043,,,,,,,2022-08-23,1,,,,,アヴリオットホールディングス,0
627,4011001149350,新規,0,2022-08-23,2022-08-23,株式会社Ｌｕｎａ,,株式会社,東京都,目黒区,自由が丘２丁目１６－１２ＲＪ３,,13,110,1520035,,,,,,,2022-08-23,1,,,,,ルナ,0
630,4011003015162,新規,0,2022-08-23,2022-08-23,ＴＳＵＢＡＳＡ合同会社,,合同会社,東京都,目黒区,上目黒３丁目４１番１号,,13,110,1530051,,,,,,,2022-08-23,1,,,,,ツバサ,0
631,4011003015261,新規,0,2022-08-23,2022-08-23,合同会社Ｓｔｒａｗｂｅｒｒｙ　Ｆｉｅｌｄｓ,,合同会社,東京都,渋谷区,南平台町７番６－３１０号,,13,113,1500036,,,,,,,2022-08-23,1,,,,,ストロベリーフィールズ,0
632,4011005009690,新規,0,2022-08-23,2022-08-23,一般社団法人渋谷ボッチャ協会,,その他の設立登記法人,東京都,渋谷区,神宮前４丁目１５番３号,,13,113,1500001,,,,,,,2022-08-23,1,,,,,シブヤボッチャキョウカイ,0
637,4011301028056,新規,0,2022-08-23,2022-08-23,ＣＪＫ健康支援コンサルタント株式会社,,株式会社,東京都,杉並区,桃井４丁目３番１３号－４０１号室,,13,115,1670034,,,,,,,2022-08-23,1,,,,,シージェーケーケンコウシエンコンサルタント,0
646,4011801041178,新規,0,2022-08-23,2022-08-23,株式会社ラーク,,株式会社,東京都,足立区,谷中１丁目３２番２５－３０２号,,13,121,1200006,,,,,,,2022-08-23,1,,,,,ラーク,0
648,4011803005230,新規,0,2022-08-23,2022-08-23,合同会社Ｂｅｙｏｎｄ,,合同会社,東京都,足立区,千住４丁目４－３－２０４,,13,121,1200034,,,,,,,2022-08-23,1,,,,,ビヨンド,0
649,4012301013106,新規,0,2022-08-23,2022-08-23,株式会社英幸商事,,株式会社,東京都,町田市,山崎町１３５６番地シーアイハイツＦ－９０３,,13,209,1950074,,,,,,,2022-08-23,1,,,,,エイコウショウジ,0
652,4012803002853,新規,0,2022-08-23,2022-08-23,合同会社ＧＴＯ,,合同会社,東京都,日野市,大字上田３３９番地の５,,13,212,1910014,,,,,,,2022-08-23,1,,,,,ジーティーオー,0
660,4020003022267,新規,0,2022-08-23,2022-08-23,合同会社ｋａｗａｋａｍｉ,,合同会社,神奈川県,横浜市緑区,長津田７丁目１９番３３－２号,,14,113,2260027,,,,,,,2022-08-23,1,,,,,カワカミ,0
668,4030001149755,新規,0,2022-08-23,2022-08-23,株式会社ＳＨＩＫＯＵ,,株式会社,埼玉県,羽生市,南４丁目９番地２３,,11,216,3480053,,,,,,,2022-08-23,1,,,,,シコウ,0
669,4030001149771,新規,0,2022-08-23,2022-08-23,勝田農業株式会社,,株式会社,埼玉県,熊谷市,男沼１５２番地２,,11,202,3600242,,,,,,,2022-08-23,1,,,,,カツタノウギョウ,0
680,4030003020047,新規,0,2022-08-23,2022-08-23,ＣＨＡＡＮＤ合同会社,,合同会社,埼玉県,川越市,的場北１丁目５番地１２－１階,,11,201,3501102,,,,,,,2022-08-23,1,,,,,チャンド,0
687,4040001124724,新規,0,2022-08-23,2022-08-23,株式会社ＮＡＯＦＡＲＭ,,株式会社,千葉県,茂原市,法目４１番地,,12,210,2994113,,,,,,,2022-08-23,1,,,,,ナオファーム,0
688,4040001124798,新規,0,2022-08-23,2022-08-23,サクラサカス株式会社,,株式会社,千葉県,千葉市花見川区,幕張本郷６丁目７番１号ハイツ本郷３０２号,,12,102,2620033,,,,,,,2022-08-23,1,,,,,サクラサカス,0
691,4040003020673,新規,0,2022-08-23,2022-08-23,合同会社ことか,,合同会社,千葉県,四街道市,和良比２８９番地１,,12,228,2840044,,,,,,,2022-08-23,1,,,,,コトカ,0
700,4060003004195,新規,0,2022-08-23,2022-08-23,合同会社シャファード‐Ｃｏ,,合同会社,栃木県,下都賀郡壬生町,大字藤井６１２番地８,,09,361,3210221,,,,,,,2022-08-23,1,,,,,シャファード,0
705,4080003002858,新規,0,2022-08-23,2022-08-23,合同会社ＫＳＩ,,合同会社,静岡県,静岡市葵区,城東町２４番１５号,,22,101,4200846,,,,,,,2022-08-23,1,,,,,ケーエスアイ,0
707,4080105006278,新規,0,2022-08-23,2022-08-23,熱海サニーハイツ管理組合法人,,その他の設立登記法人,静岡県,熱海市,海光町７番１７号熱海サニーハイツ管理事務室,,22,205,4130003,,,,,,,2022-08-23,1,,,,,アタミサニーハイツ,0
712,4100001035634,新規,0,2022-08-23,2022-08-23,株式会社レシートローラ,,株式会社,長野県,上水内郡飯綱町,大字高坂字中原１３００番地２８,,20,590,3891227,,,,,,,2022-08-23,1,,,,,レシートローラ,0
713,4110005016844,新規,0,2022-08-23,2022-08-23,医療法人社団星野歯科医院,,その他の設立登記法人,新潟県,上越市,柿崎区上下浜４９６番地,,15,222,9493255,,,,,,,2022-08-23,1,,,,,ホシノシカイイン,0
739,4140003018022,新規,0,2022-08-23,2022-08-23,合同会社ハピネ,,合同会社,兵庫県,神戸市中央区,橘通３丁目２番３号高山ビル３階,,28,110,6500016,,,,,,,2022-08-23,1,,,,,ハピネ,0
742,4160001024466,新規,0,2022-08-23,2022-08-23,ＴＰＭ兄弟商会株式会社,,株式会社,滋賀県,大津市,千石台３番２３号,,25,201,5200028,,,,,,,2022-08-23,1,,,,,ティーピーエムキョウダイショウカイ,0
776,4300001013041,新規,0,2022-08-23,2022-08-23,株式会社Ｒｅｖｅ,,株式会社,佐賀県,武雄市,武雄町大字武雄５７３１－３,,41,206,8430022,,,,,,,2022-08-23,1,,,,,レーヴ,0
777,4310003004426,新規,0,2022-08-23,2022-08-23,合同会社カーム・スタンダード,,合同会社,長崎県,長崎市,北栄町５番１６号,,42,201,8528063,,,,,,,2022-08-23,1,,,,,カームスタンダード,0
779,4320001019284,新規,0,2022-08-23,2022-08-23,株式会社ＳＡＮＴＡ　ＣＬＵＢ,,株式会社,大分県,別府市,石垣東８丁目１番３６号,,44,202,8740919,,,,,,,2022-08-23,1,,,,,サンタクラブ,0
781,4330001030042,新規,0,2022-08-23,2022-08-23,株式会社公心企業,,株式会社,熊本県,宇城市,松橋町竹崎１２４１番地１－２０５号,,43,213,8690523,,,,,,,2022-08-23,1,,,,,コウシンキギョウ,0
784,4340003003887,新規,0,2022-08-23,2022-08-23,合同会社Ｎｅｘｔ　Ｔｅｒｒａｃｅ,,合同会社,鹿児島県,鹿児島市,中町４番３号,,46,201,8920827,,,,,,,2022-08-23,1,,,,,ネクストテラス,0
786,4370001048972,新規,0,2022-08-23,2022-08-23,株式会社ＳＥＮＳＥ,,株式会社,宮城県,仙台市青葉区,本町１丁目５番２８号カーニープレイス仙台駅前通６０３号室,,04,101,9800014,,,,,,,2022-08-23,1,,,,,センス,0
787,4370003005807,新規,0,2022-08-23,2022-08-23,合同会社バズプロ,,合同会社,宮城県,仙台市青葉区,中央４丁目１０－３ＪＭＦビル仙台０１、２Ｆ,,04,101,9800021,,,,,,,2022-08-23,1,,,,,バズプロ,0
800,4430001087345,新規,0,2022-08-23,2022-08-23,Ｒｎ株式会社,,株式会社,北海道,札幌市中央区,南八条西４丁目２８８番地１ティアラタワー中島倶楽部６０６号,,01,101,0640808,,,,,,,2022-08-23,1,,,,,アールエヌ,0
808,4470001019220,新規,0,2022-08-23,2022-08-23,文学不動産株式会社,,株式会社,香川県,高松市,花園町２丁目１番地８,,37,201,7600072,,,,,,,2022-08-23,1,,,,,ブンガクフドウサン,0
810,4700150111464,新規,0,2022-08-23,2022-08-23,ＯＣＥＡＮ　ＷＨＥＥＬＳ　ＬＡＮＫＡ,,外国会社等,新潟県,妙高市,大字小濁７３１レンタルスペース２Ｆ－３,,15,217,9440221,スリランカ民主社会主義共和国、マワナレ、ユナイテッド、レーン、３２／Ａ,,,,,,2022-08-23,1,,,,,オシエンウイルスランカ,0
820,5010005035465,新規,0,2022-08-23,2022-08-23,ＩＲＩＳ一般社団法人,,その他の設立登記法人,東京都,千代田区,丸の内３丁目１番１号東京共同会計事務所内,,13,101,1000005,,,,,,,2022-08-23,1,,,,,アイリス,0
832,5010401169098,新規,0,2022-08-23,2022-08-23,ダンデライオン株式会社,,株式会社,東京都,港区,赤坂７丁目６番７０号キャストロ赤坂１０１,,13,103,1070052,,,,,,,2022-08-23,1,,,,,ダンデライオン,0
835,5010403028285,新規,0,2022-08-23,2022-08-23,合同会社Ｒ＆Ｔ,,合同会社,東京都,港区,三田２丁目２０番３号クリスティ・ハウス２０３,,13,103,1080073,,,,,,,2022-08-23,1,,,,,アールアンドティー,0
839,5010701043093,新規,0,2022-08-23,2022-08-23,株式会社リ・セゾン,,株式会社,東京都,品川区,大井６丁目１７番１７号,,13,109,1400014,,,,,,,2022-08-23,1,,,,,リセゾン,0
852,5011001149291,新規,0,2022-08-23,2022-08-23,株式会社ＩＮＣＬＵＳＩＶＩＴＹ,,株式会社,東京都,渋谷区,神宮前６丁目２３番４号桑野ビル２階,,13,113,1500001,,,,,,,2022-08-23,1,,,,,インクルーシビティー,0
853,5011001149390,新規,0,2022-08-23,2022-08-23,株式会社ＣｈａＰｌｕｓ,,株式会社,東京都,渋谷区,神宮前６丁目２３番４号桑野ビル２階,,13,113,1500001,,,,,,,2022-08-23,1,,,,,チャプラス,0
856,5011003015244,新規,0,2022-08-23,2022-08-23,合同会社グリットジョイン,,合同会社,東京都,渋谷区,神宮前６丁目２３番４号桑野ビル２階,,13,113,1500001,,,,,,,2022-08-23,1,,,,,グリットジョイン,0
858,5011101099940,新規,0,2022-08-23,2022-08-23,株式会社アンディファインド,,株式会社,東京都,新宿区,西新宿１丁目３番３号品川ステーションビル新宿４１０号室,,13,104,1600023,,,,,,,2022-08-23,1,,,,,アンディファインド,0
872,5012401039553,新規,0,2022-08-23,2022-08-23,株式会社ドルフィンケア,,株式会社,東京都,調布市,佐須町３丁目７番地１８,,13,208,1820016,,,,,,,2022-08-23,1,,,,,ドルフィンケア,0
873,5012403005553,新規,0,2022-08-23,2022-08-23,共創合同会社,,合同会社,東京都,府中市,東芝町１番地の６４エフユニバース１０２８,,13,206,1830043,,,,,,,2022-08-23,1,,,,,キョウソウ,0
876,5012803002852,新規,0,2022-08-23,2022-08-23,合同会社北斗星,,合同会社,東京都,日野市,大字上田３３９番地の５,,13,212,1910014,,,,,,,2022-08-23,1,,,,,ホクトセイ,0
877,5012805003139,新規,0,2022-08-23,2022-08-23,一般社団法人ＧＴＯ,,その他の設立登記法人,東京都,日野市,大字上田３３９番地の５,,13,212,1910014,,,,,,,2022-08-23,1,,,,,ジーティーオー,0
893,5021001076816,新規,0,2022-08-23,2022-08-23,ＫＩＮＧＳ　ＡＵＴＯ株式会社,,株式会社,神奈川県,厚木市,山際１番地６オリエントハイツＮｏ．５－２１０,,14,212,2430803,,,,,,,2022-08-23,1,,,,,キングスオート,0
905,5030003020046,新規,0,2022-08-23,2022-08-23,合同会社アットマークオリヴィエ,,合同会社,埼玉県,入間市,大字野田１９７６番地５,,11,225,3580054,,,,,,,2022-08-23,1,,,,,アットマークオリヴィエ,0
908,5040001124764,新規,0,2022-08-23,2022-08-23,株式会社イタヤ,,株式会社,千葉県,野田市,はやま１７番地２,,12,208,2700217,,,,,,,2022-08-23,1,,,,,イタヤ,0
912,5040003020656,新規,0,2022-08-23,2022-08-23,みらい商事合同会社,,合同会社,千葉県,山武郡九十九里町,不動堂３０６番地１１,,12,403,2830113,,,,,,,2022-08-23,1,,,,,ミライショウジ,0
921,5070005010025,新規,0,2022-08-23,2022-08-23,一般社団法人日本金属屋根施工ネットワーク,,その他の設立登記法人,群馬県,伊勢崎市,上植木本町２６４６番地２２,,10,204,3720013,,,,,,,2022-08-23,1,,,,,ニホンキンゾクヤネセコウネットワーク,0
923,5080001025141,新規,0,2022-08-23,2022-08-23,ＴＳＴエナジーインベストメント株式会社,,株式会社,静岡県,静岡市駿河区,八幡１丁目５番３８号,,22,102,4228076,,,,,,,2022-08-23,1,,,,,ティーエスティーエナジーインベストメント,0
937,5120001248159,新規,0,2022-08-23,2022-08-23,株式会社ＨＯＰ,,株式会社,大阪府,大阪市淀川区,西三国１丁目９番２６号,,27,123,5320006,,,,,,,2022-08-23,1,,,,,ホップ,0
941,5120003022322,新規,0,2022-08-23,2022-08-23,多根合同会社,,合同会社,大阪府,大阪市東成区,中本５丁目２２番１１号ウエストハイツ中本３０３号室,,27,115,5370022,,,,,,,2022-08-23,1,,,,,タネ,0
942,5120003022330,新規,0,2022-08-23,2022-08-23,合同会社フォレスター,,合同会社,大阪府,大阪市西区,境川２丁目５－２７谷野ビル２Ｆ,,27,106,5500024,,,,,,,2022-08-23,1,,,,,フォレスター,0
951,5120901046389,新規,0,2022-08-23,2022-08-23,株式会社ＰＯＮＹＯＮＧ,,株式会社,大阪府,吹田市,江坂町２丁目２番９号清洲江坂ビル１Ｆ,,27,205,5640063,,,,,,,2022-08-23,1,,,,,ポニョン,0
956,5130001072491,新規,0,2022-08-23,2022-08-23,ｓｋｙｌａｎｄ株式会社,,株式会社,京都府,京都市東山区,六波羅南通東入三盛町１７０番地３－４Ｆ－４０１号,,26,105,6050842,,,,,,,2022-08-23,1,,,,,スカイランド,0
963,5170005006970,新規,0,2022-08-23,2022-08-23,特定非営利活動法人サードプレイス,,その他の設立登記法人,和歌山県,和歌山市,元町奉行丁２丁目３番地１サンシティ広瀬１００５,,30,201,6408127,,,,,,,2022-08-23,1,,,,,サードプレイス,0
967,5180001152693,新規,0,2022-08-23,2022-08-23,株式会社ＰＡＴＨＦＩＮＤＥＲ,,株式会社,愛知県,名古屋市瑞穂区,洲山町１丁目４７ライオンズ新瑞橋第３　１０４号,,23,108,4670066,,,,,,,2022-08-23,1,,,,,パスファインダー,0
968,5180001152710,新規,0,2022-08-23,2022-08-23,株式会社コンサルバロン,,株式会社,愛知県,津島市,北町１２５番地７,,23,208,4960817,,,,,,,2022-08-23,1,,,,,コンサルバロン,0
998,5290801028826,新規,0,2022-08-23,2022-08-23,株式会社宣伝部長,,株式会社,福岡県,北九州市小倉北区,赤坂４丁目５番６号,,40,106,8020032,,,,,,,2022-08-23,1,,,,,センデンブチョウ,0
1007,5350002018364,新規,0,2022-08-23,2022-08-23,有限会社赤木建設,,有限会社,宮崎県,小林市,東方３２０１番地８,,45,205,8860001,,,,,,,2022-08-23,1,,,,,,0
1010,5360003012233,新規,0,2022-08-23,2022-08-23,合同会社Ｎａｂｅｅクラブ,,合同会社,沖縄県,那覇市,古波蔵３丁目１番１－９０２号Ｆステージ古波蔵レイクフロント,,47,201,9000024,,,,,,,2022-08-23,1,,,,,ナビィクラブ,0
1011,5360005006704,新規,0,2022-08-23,2022-08-23,一般社団法人チームがじゃん,,その他の設立登記法人,沖縄県,中頭郡西原町,字上原２０７番地,,47,329,9030125,,,,,,,2022-08-23,1,,,,,,0
1017,5390001017000,新規,0,2022-08-23,2022-08-23,株式会社巴ホテル,,株式会社,山形県,鶴岡市,末広町１２番６号,,06,203,9970015,,,,,,,2022-08-23,1,,,,,,0
1038,6010005035456,新規,0,2022-08-23,2022-08-23,ＭＴ‐ＳＭＹインベストメント一般社団法人,,その他の設立登記法人,東京都,中央区,日本橋１丁目４番１号日本橋一丁目ビルディング,,13,102,1030027,,,,,,,2022-08-23,1,,,,,エムティスマイインベストメント,0
1040,6010403028053,新規,0,2022-08-23,2022-08-23,合同会社ｋａＭ,,合同会社,東京都,港区,南青山２丁目２番１５号ＷＩＮ青山５３１,,13,103,1070062,,,,,,,2022-08-23,1,,,,,ケーエーエム,0
1041,6010403028318,新規,0,2022-08-23,2022-08-23,ヴェジファームデベロッパー合同会社,,合同会社,東京都,港区,麻布十番２丁目８番５号メゾンアザブディックス２０１,,13,103,1060045,,,,,,,2022-08-23,1,,,,,ヴェジファームデベロッパー,0
1051,6010701043101,新規,0,2022-08-23,2022-08-23,荏原コンサルティング株式会社,,株式会社,東京都,品川区,旗の台５丁目２４番１５号,,13,109,1420064,,,,,,,2022-08-23,1,,,,,エバラコンサルティング,0
1066,6011001149200,新規,0,2022-08-23,2022-08-23,株式会社バフ,,株式会社,東京都,渋谷区,神宮前６丁目２３番４号桑野ビル２階,,13,113,1500001,,,,,,,2022-08-23,1,,,,,バフ,0
1067,6011001149290,新規,0,2022-08-23,2022-08-23,株式会社ＴＡＯ,,株式会社,東京都,渋谷区,円山町５番５号Ｎａｖｉ渋谷Ｖ３階,,13,113,1500044,,,,,,,2022-08-23,1,,,,,タオ,0
1069,6011101099948,新規,0,2022-08-23,2022-08-23,株式会社Ｋ’ｚ　Ｆａｃｔｏｒｙ,,株式会社,東京都,新宿区,新宿１丁目３６番２号新宿第七葉山ビル３階,,13,104,1600022,,,,,,,2022-08-23,1,,,,,ケイズファクトリー,0
1080,6011801041176,新規,0,2022-08-23,2022-08-23,Ｂｅｙｏｎｄ　Ｒｏａｄ株式会社,,株式会社,東京都,足立区,梅田３丁目１７番１３号・１Ｆ,,13,121,1230851,,,,,,,2022-08-23,1,,,,,ビヨンドロード,0
1086,6012805003138,新規,0,2022-08-23,2022-08-23,一般社団法人北斗星,,その他の設立登記法人,東京都,日野市,大字上田３３９番地の５,,13,212,1910014,,,,,,,2022-08-23,1,,,,,ホクトセイ,0
1092,6020001147881,新規,0,2022-08-23,2022-08-23,株式会社ＬＯＣＡＬ　ＪＡＰＡＮ,,株式会社,神奈川県,横浜市神奈川区,神大寺４丁目２４番地１２号,,14,102,2210801,,,,,,,2022-08-23,1,,,,,ローカルジャパン,0
1107,6030001149687,新規,0,2022-08-23,2022-08-23,４ＤＰｏｃｋｅｔ株式会社,,株式会社,埼玉県,川越市,大字小堤５９５－１,,11,201,3500811,,,,,,,2022-08-23,1,,,,,フォーディーポケット,0
1111,6030003020020,新規,0,2022-08-23,2022-08-23,ＣＯＮＮＥＣＴＥＮ合同会社,,合同会社,埼玉県,八潮市,大字八條４３９番地Ｕｐｓｔａｉｒｓ,,11,234,3400801,,,,,,,2022-08-23,1,,,,,コネクテン,0
1119,6040001124771,新規,0,2022-08-23,2022-08-23,株式会社ＫＡＮＤＹ　ＥＮＴＥＲＰＲＩＳＥＳ,,株式会社,千葉県,野田市,柏寺２５８番地１１,,12,208,2700214,,,,,,,2022-08-23,1,,,,,キャンディーエンタープライゼス,0
1125,6040003020647,新規,0,2022-08-23,2022-08-23,合同会社エンソレイル,,合同会社,千葉県,流山市,向小金３丁目７０―３０,,12,220,2700143,,,,,,,2022-08-23,1,,,,,エンソレイル,0
1142,6110001036902,新規,0,2022-08-23,2022-08-23,株式会社興明舎,,株式会社,新潟県,刈羽郡刈羽村,大字滝谷５５番地１,,15,504,9450303,,,,,,,2022-08-23,1,,,,,コウメイシャ,0
1143,6110005016842,新規,0,2022-08-23,2022-08-23,医療法人ＥＭＭＡ,,その他の設立登記法人,新潟県,新潟市中央区,万代１丁目３－１０万代Ｊビルディング５階,,15,103,9500088,,,,,,,2022-08-23,1,,,,,エマ,0
1149,6120001248315,新規,0,2022-08-23,2022-08-23,株式会社スタッツ,,株式会社,大阪府,門真市,島頭２丁目５番３３号,,27,223,5710016,,,,,,,2022-08-23,1,,,,,スタッツ,0
1154,6120005023094,新規,0,2022-08-23,2022-08-23,一般社団法人ひらかたしっぽの会,,その他の設立登記法人,大阪府,枚方市,長尾元町７丁目３２番１号,,27,210,5730163,,,,,,,2022-08-23,1,,,,,ヒラカタシッポノカイ,0
1156,6120101066113,新規,0,2022-08-23,2022-08-23,株式会社Ｖｉｖｉ,,株式会社,大阪府,堺市堺区,戎之町東１丁１番６－８０２号,,27,141,5900945,,,,,,,2022-08-23,1,,,,,ヴィヴィ,0
1158,6120103004822,新規,0,2022-08-23,2022-08-23,合同会社Ｉｓｋａｎｄａｒ,,合同会社,大阪府,堺市美原区,黒山５０３番地２,,27,147,5870002,,,,,,,2022-08-23,1,,,,,イスカンダル,0
1161,6120901046388,新規,0,2022-08-23,2022-08-23,株式会社ＬＡＺＯＳＹ,,株式会社,大阪府,豊中市,蛍池中町２－３－１モンセーヌ蛍池ステーションサイド６１５,,27,203,5600000,,,,,,,2022-08-23,1,,,,,ラゾスワイ,0
1162,6120903004278,新規,0,2022-08-23,2022-08-23,８０ｂａｓｅ合同会社,,合同会社,大阪府,茨木市,竹橋町１２－１５－１０２,,27,211,5670815,,,,,,,2022-08-23,1,,,,,ハチゼロベース,0
1164,6122001036187,新規,0,2022-08-23,2022-08-23,株式会社ツー・エムホールディングス,,株式会社,大阪府,東大阪市,元町２丁目３番６０号,,27,227,5798005,,,,,,,2022-08-23,1,,,,,ツーエムホールディングス,0
1172,6140001127087,新規,0,2022-08-23,2022-08-23,Ｓ．Ｔｅａ株式会社,,株式会社,兵庫県,神戸市東灘区,西岡本２丁目２６－１パークスクエア岡本７２７,,28,101,6580073,,,,,,,2022-08-23,1,,,,,ティー,0
1174,6140003018053,新規,0,2022-08-23,2022-08-23,合同会社みくりや,,合同会社,兵庫県,明石市,松が丘１丁目７番２２号,,28,203,6730862,,,,,,,2022-08-23,1,,,,,ミクリヤ,0
1176,6160001024464,新規,0,2022-08-23,2022-08-23,株式会社リビエラ,,株式会社,滋賀県,大津市,大将軍２丁目７－３１ベルヴィ大将軍３０３,,25,201,5202145,,,,,,,2022-08-23,1,,,,,リビエラ,0
1183,6180001152668,新規,0,2022-08-23,2022-08-23,Ｏｌｉｖｅ株式会社,,株式会社,愛知県,名古屋市中区,錦２丁目４番１５号,,23,106,4600003,,,,,,,2022-08-23,1,,,,,オリーブ,0
1194,6250001019736,新規,0,2022-08-23,2022-08-23,株式会社グランドステーキ,,株式会社,山口県,周南市,青山町１－１８ゆめタウン徳山２Ｆ,,35,215,7450842,,,,,,,2022-08-23,1,,,,,グランドステーキ,0
1196,6260001037167,新規,0,2022-08-23,2022-08-23,株式会社福元建築研究所,,株式会社,岡山県,岡山市南区,大福６７９番地２１,,33,104,7010204,,,,,,,2022-08-23,1,,,,,フクモトケンチクケンキュウショ,0
1202,6290003012867,新規,0,2022-08-23,2022-08-23,合同会社ドルフィン,,合同会社,福岡県,那珂川市,中原３丁目７番地６Ｆ,,40,231,8111213,,,,,,,2022-08-23,1,,,,,ドルフィン,0
1203,6290005018788,新規,0,2022-08-23,2022-08-23,一般社団法人アジア大洋州小児神経学会,,その他の設立登記法人,福岡県,福岡市早良区,百道浜１丁目３番７０－５８０５号,,40,137,8140001,,,,,,,2022-08-23,1,,,,,アジアタイヨウシュウショウニシンケイガッカイ,0
1206,6300003001876,新規,0,2022-08-23,2022-08-23,合同会社よろずや,,合同会社,佐賀県,佐賀市,兵庫北３丁目１２番２０号,,41,201,8490919,,,,,,,2022-08-23,1,,,,,ヨロズヤ,0
1213,6330005010542,新規,0,2022-08-23,2022-08-23,くまもと県産材ＳＣＭ協同組合,,その他の設立登記法人,熊本県,熊本市中央区,神水１丁目１１番１４号,,43,101,8620954,,,,,,,2022-08-23,1,,,,,クマモトケンサンザイエスシーエム,0
1215,6340001024982,新規,0,2022-08-23,2022-08-23,ＴＯＰ工業株式会社,,株式会社,鹿児島県,鹿屋市,西祓川５０９－５谷口テナント１０５号,,46,203,8930000,,,,,,,2022-08-23,1,,,,,トップコウギョウ,0
1216,6340003003885,新規,0,2022-08-23,2022-08-23,合同会社ＢＢＱＳＴＡＮＤ,,合同会社,鹿児島県,鹿児島市,下荒田１丁目６－１９,,46,201,8900056,,,,,,,2022-08-23,1,,,,,バーベキュースタンド,0
1221,6360005006703,新規,0,2022-08-23,2022-08-23,一般社団法人沖縄県相続支援協会,,その他の設立登記法人,沖縄県,那覇市,牧志３丁目１番２０号,,47,201,9000013,,,,,,,2022-08-23,1,,,,,オキナワケンソウゾクシエンキョウカイ,0
1224,6380001033063,新規,0,2022-08-23,2022-08-23,株式会社ライオット,,株式会社,福島県,いわき市,鹿島町走熊字坪下１０番地２０３,,07,204,9718141,,,,,,,2022-08-23,1,,,,,ライオット,0
1236,6450001013776,新規,0,2022-08-23,2022-08-23,株式会社＿達通商,00127593,株式会社,北海道,稚内市,宝来３丁目２番１３号,,01,214,0970024,,,,,,,2022-08-23,1,,,,,キンタツツウショウ,0
1242,6500003002879,新規,0,2022-08-23,2022-08-23,フジマネジメント合同会社,,合同会社,愛媛県,東温市,野田１丁目５－２２,,38,215,7910216,,,,,,,2022-08-23,1,,,,,フジマネジメント,0
1243,6700150111454,新規,0,2022-08-23,2022-08-23,ＴＯＳＨＩＭＡ　ＴＲＡＤＩＮＧ　ＰＶＴ　ＬＴＤ,,外国会社等,千葉県,八街市,朝日２８４－１０２,,12,230,2891101,スリランカ民主社会主義共和国、キャンディ、アクラナ、クルゴダ、Ｎｏ．１１２,,,,,,2022-08-23,1,,,,,トシマトレーデイングピーヴイテイエルテイデイ,0
1254,7010001228970,新規,0,2022-08-23,2022-08-23,ボナファディズサポート株式会社,,株式会社,東京都,千代田区,神田神保町１丁目３６番地１新神保町ビル６０１号,,13,101,1010051,,,,,,,2022-08-23,1,,,,,ボナファディズサポート,0
1255,7010005035406,新規,0,2022-08-23,2022-08-23,一般社団法人未来環境推進,,その他の設立登記法人,東京都,千代田区,永田町２丁目１７－３,,13,101,1000014,,,,,,,2022-08-23,1,,,,,ミライカンキョウスイシン,0
1256,7010101015303,新規,0,2022-08-23,2022-08-23,株式会社ウェルプロ,,株式会社,東京都,八王子市,大和田町２丁目５番４０号,,13,201,1920045,,,,,,,2022-08-23,1,,,,,ウェルプロ,0
1265,7010405021278,新規,0,2022-08-23,2022-08-23,特定非営利活動法人スターズアーツ,,その他の設立登記法人,東京都,港区,北青山１丁目６番１－１１８号,,13,103,1070061,,,,,,,2022-08-23,1,,,,,スターズアーツ,0
1267,7010503006692,新規,0,2022-08-23,2022-08-23,ＭＲコンサルティング合同会社,,合同会社,東京都,台東区,松が谷２丁目７－１０,,13,106,1110036,,,,,,,2022-08-23,1,,,,,エムアールコンサルティング,0
1271,7010701043091,新規,0,2022-08-23,2022-08-23,株式会社プレインアンドシー,,株式会社,東京都,品川区,東品川２丁目６番１７－８０５号,,13,109,1400002,,,,,,,2022-08-23,1,,,,,プレインアンドシー,0
1273,7010803004264,新規,0,2022-08-23,2022-08-23,合同会社ＣＯＭＢＡＴ　ＬＡＢＥＬ,,合同会社,東京都,大田区,南雪谷２丁目１２－９－２０１,,13,111,1450066,,,,,,,2022-08-23,1,,,,,コンバットレーベル,0
1277,7011001149265,新規,0,2022-08-23,2022-08-23,株式会社ＢＡＮＳＯＯ,,株式会社,東京都,目黒区,中目黒２丁目９－１１,,13,110,1530061,,,,,,,2022-08-23,1,,,,,,0
1278,7011001149372,新規,0,2022-08-23,2022-08-23,株式会社シンクスト,,株式会社,東京都,渋谷区,神宮前６丁目２３番４号桑野ビル２階,,13,113,1500001,,,,,,,2022-08-23,1,,,,,シンクスト,0
1279,7011003015250,新規,0,2022-08-23,2022-08-23,ＬＵＸ’ＪＵ合同会社,,合同会社,東京都,渋谷区,神南１丁目２２番９,,13,113,1500041,,,,,,,2022-08-23,1,,,,,ラグジュ,0
1285,7011201024045,新規,0,2022-08-23,2022-08-23,株式会社イマロ,,株式会社,東京都,中野区,松が丘２丁目１９－７－１０１,,13,114,1650024,,,,,,,2022-08-23,1,,,,,イマロ,0
1294,7011801041175,新規,0,2022-08-23,2022-08-23,株式会社ＲＩＧＩＤ,,株式会社,東京都,足立区,中央本町４丁目１２－１５・２Ｆ,,13,121,1210011,,,,,,,2022-08-23,1,,,,,リジッド,0
1308,7020001147880,新規,0,2022-08-23,2022-08-23,ＳＹ工業株式会社,,株式会社,神奈川県,横浜市西区,みなとみらい２丁目２番１号横浜ランドマークプラザ５Ｆ,,14,103,2200012,,,,,,,2022-08-23,1,,,,,エスワイコウギョウ,0
1309,7020001147889,新規,0,2022-08-23,2022-08-23,株式会社Ｊｕｓｔ　Ｌｉｎｅ,,株式会社,神奈川県,横浜市港北区,菊名３丁目１５番３０号バーディー飯倉１０２号,,14,109,2220011,,,,,,,2022-08-23,1,,,,,ジャストライン,0
1316,7020003022280,新規,0,2022-08-23,2022-08-23,合同会社ｊｏｉｎ,,合同会社,神奈川県,川崎市宮前区,菅生１丁目１３－１４,,14,136,2160015,,,,,,,2022-08-23,1,,,,,ジョイン,0
1319,7021001076830,新規,0,2022-08-23,2022-08-23,株式会社エヌエフブレイン,,株式会社,神奈川県,三浦郡葉山町,長柄６５４番地の８,,14,301,2400113,,,,,,,2022-08-23,1,,,,,エヌエフブレイン,0
1323,7030001149760,新規,0,2022-08-23,2022-08-23,株式会社レギオンサービス,,株式会社,埼玉県,越谷市,赤山町１丁目３０４番地１０,,11,222,3430807,,,,,,,2022-08-23,1,,,,,レギオンサービス,0
1324,7030001149777,新規,0,2022-08-23,2022-08-23,株式会社ＦＡＩＲＥ,,株式会社,埼玉県,川口市,芝西２丁目４番２１号,,11,203,3330855,,,,,,,2022-08-23,1,,,,,フェール,0
1327,7030003020036,新規,0,2022-08-23,2022-08-23,合同会社ＯＴＫ,,合同会社,埼玉県,上尾市,愛宕２丁目２４番６－１４号,,11,219,3620034,,,,,,,2022-08-23,1,,,,,オーティーケー,0
1338,7040001124787,新規,0,2022-08-23,2022-08-23,株式会社完奈,,株式会社,千葉県,千葉市緑区,おゆみ野５丁目５６－１サンボナールＪ１０１,,12,105,2660031,,,,,,,2022-08-23,1,,,,,カンナ,0
1339,7040001124795,新規,0,2022-08-23,2022-08-23,株式会社コッポラ,,株式会社,千葉県,茂原市,茂原８７０番地－６ヒカリハイツ１０２,,12,210,2970026,,,,,,,2022-08-23,1,,,,,コッポラ,0
1343,7040003020638,新規,0,2022-08-23,2022-08-23,アベリア合同会社,,合同会社,千葉県,浦安市,北栄２丁目１５番１１－１０６号エスポワールＶＩＩＩ,00127599,12,227,2790002,,,,,,,2022-08-23,1,,,,,アベリア,0
1344,7040003020679,新規,0,2022-08-23,2022-08-23,合同会社２２世紀数理統計研究所,,合同会社,千葉県,佐倉市,臼井１５０３番地２,,12,212,2850863,,,,,,,2022-08-23,1,,,,,ニジュウニセイキスウリトウケイケンキュウショ,0
1346,7050005013127,新規,0,2022-08-23,2022-08-23,一般社団法人茨城県ドローン協会,,その他の設立登記法人,茨城県,稲敷郡阿見町,岡崎１丁目２０番地１,,08,443,3000335,,,,,,,2022-08-23,1,,,,,,0
1360,7120001035563,新規,0,2022-08-23,2022-08-23,太陽青果株式会社,,株式会社,大阪府,大阪市福島区,野田１丁目１番８６号,,27,103,5530005,,,,,,,2022-08-23,1,,,,,,0
1372,7120001248314,新規,0,2022-08-23,2022-08-23,株式会社ｒｙｕ,,株式会社,大阪府,大阪市西成区,玉出東１丁目１０番２０号,,27,122,5570043,,,,,,,2022-08-23,1,,,,,リュウ,0
1373,7120001248322,新規,0,2022-08-23,2022-08-23,株式会社病院まちねっと,,株式会社,大阪府,大阪市中央区,平野町４丁目６番４号,,27,128,5410046,,,,,,,2022-08-23,1,,,,,ビョウインマチネット,0
1374,7120001248339,新規,0,2022-08-23,2022-08-23,株式会社継貢社,,株式会社,大阪府,大阪市北区,天神橋２丁目５番３号－６０５,,27,127,5300041,,,,,,,2022-08-23,1,,,,,ケイコウシャ,0
1379,7120003022337,新規,0,2022-08-23,2022-08-23,合同会社バンブーサークル,,合同会社,大阪府,大阪市西区,江戸堀１丁目２７番１－８０３,,27,106,5500002,,,,,,,2022-08-23,1,,,,,バンブーサークル,0
1381,7120101066120,新規,0,2022-08-23,2022-08-23,株式会社レッツ,,株式会社,大阪府,堺市中区,深阪６丁２１－５４,,27,142,5998253,,,,,,,2022-08-23,1,,,,,レッツ,0
1382,7120903004277,新規,0,2022-08-23,2022-08-23,合同会社ＣＦＢ,,合同会社,大阪府,茨木市,総持寺駅前町４番１２号さくらいふビル２０３号室,,27,211,5670802,,,,,,,2022-08-23,1,,,,,シーエフビー,0
1383,7122001036186,新規,0,2022-08-23,2022-08-23,株式会社Ｍｅｉｈｏコーポレーション,,株式会社,大阪府,八尾市,田井中２丁目９０番地の２,,27,212,5810095,,,,,,,2022-08-23,1,,,,,メイホコーポレーション,0
1386,7140001127144,新規,0,2022-08-23,2022-08-23,リノテック株式会社,,株式会社,兵庫県,神戸市灘区,記田町４丁目１番６号,,28,102,6570034,,,,,,,2022-08-23,1,,,,,リノテック,0
1387,7140001127152,新規,0,2022-08-23,2022-08-23,株式会社金一,,株式会社,兵庫県,尼崎市,昭和通２丁目１２番２９号黒谷ビル２Ｆ,,28,202,6600881,,,,,,,2022-08-23,1,,,,,カネイチ,0
1388,7140001127160,新規,0,2022-08-23,2022-08-23,日輝国際株式会社,,株式会社,兵庫県,神戸市中央区,磯辺通３丁目１番２号,,28,110,6510084,,,,,,,2022-08-23,1,,,,,ニッキコクサイ,0
1390,7140003018052,新規,0,2022-08-23,2022-08-23,合同会社Ｂｉｏｔｙｆｕｌ,,合同会社,兵庫県,姫路市,御立西２丁目１０－２１－１,,28,201,6700074,,,,,,,2022-08-23,1,,,,,ビオティフル,0
1391,7160001024463,新規,0,2022-08-23,2022-08-23,株式会社Ｔ＆Ｔ,,株式会社,滋賀県,大津市,錦織１丁目２４番３８号,,25,201,5200027,,,,,,,2022-08-23,1,,,,,ティアンドティ,0
1396,7180005019895,新規,0,2022-08-23,2022-08-23,特定非営利活動法人石尾台おでかけサービス協議会,,その他の設立登記法人,愛知県,春日井市,石尾台６丁目５番１５,,23,206,4870006,,,,,,,2022-08-23,1,,,,,イシオダイオデカケサービスキョウギカイ,0
1404,7200001040381,新規,0,2022-08-23,2022-08-23,池尚貿易株式会社,,株式会社,岐阜県,大垣市,東町２丁目１２０リバーサイドコートあづま５０５,,21,202,5030802,,,,,,,2022-08-23,1,,,,,チーシャンボウエキ,0
1420,7290001098668,新規,0,2022-08-23,2022-08-23,清野株式会社,,株式会社,福岡県,福岡市早良区,賀茂３丁目１番４号（２０１号室）,,40,137,8140164,,,,,,,2022-08-23,1,,,,,セイノ,0
1426,7300003001875,新規,0,2022-08-23,2022-08-23,合同会社ｓｕｎａｐｐ,,合同会社,佐賀県,佐賀市,本庄町１番地佐賀大学理工学部７号館３０８,,41,201,8490000,,,,,,,2022-08-23,1,,,,,スナップ,0
1430,7350003004147,新規,0,2022-08-23,2022-08-23,合同会社シンクアップ宮崎,,合同会社,宮崎県,宮崎市,生目台東１丁目１６番地７,,45,201,8800942,,,,,,,2022-08-23,1,,,,,シンクアップミヤザキ,0
1445,7420003002564,新規,0,2022-08-23,2022-08-23,合同会社モーニングストーン,,合同会社,青森県,弘前市,大字小沢字広野２６―１,,02,202,0368243,,,,,,,2022-08-23,1,,,,,モーニングストーン,0
1446,7460101007239,新規,0,2022-08-23,2022-08-23,株式会社Ｋ．Ｄｒｅａｍ,,株式会社,北海道,帯広市,東四条南２０丁目１９番地,,01,207,0800804,,,,,,,2022-08-23,1,,,,,ケイドリーム,0
1448,7480001011834,新規,0,2022-08-23,2022-08-23,株式会社ジェミニ,,株式会社,徳島県,徳島市,川内町大松１４６番地の３,,36,201,7710131,,,,,,,2022-08-23,1,,,,,ジェミニ,0
1450,7700150111453,新規,0,2022-08-23,2022-08-23,Ｎ．Ｍ．Ａ．ＬＡＮＫＡ　ＨＯＬＤＩＮＧＳ,,外国会社等,千葉県,八街市,朝日２８４－１０１,,12,230,2891101,スリランカ民主社会主義共和国、アクラナ、マタレロード、クルンドガハエラＮｏ．２４０／Ｃ,,,,,,2022-08-23,1,,,,,エヌエムエイランカホールデイングス,0
1468,8010405021319,新規,0,2022-08-23,2022-08-23,Ｇａｒｄｅｎ　Ｈｉｌｌｓ特定目的会社,,その他の設立登記法人,東京都,港区,六本木１丁目９番１０号アークヒルズ仙石山森タワー４０階ＳａｎｎｅＧｒｏｕｐＪａｐａｎ株式会社内,,13,103,1060032,,,,,,,2022-08-23,1,,,,,ガーデンヒルズ,0
1470,8010501049271,新規,0,2022-08-23,2022-08-23,株式会社ＳＡＮＹＡＭ　ＤＩＡＭＯＮＤＳ,,株式会社,東京都,台東区,台東２丁目６番６－４０２号,,13,106,1100016,,,,,,,2022-08-23,1,,,,,サンヤムダイヤモンズ,0
1490,8011001149297,新規,0,2022-08-23,2022-08-23,株式会社Ｃｙｇｎｕｓ,,株式会社,東京都,渋谷区,笹塚２丁目１６－４アンディーラニ笹塚２０１,,13,113,1510073,,,,,,,2022-08-23,1,,,,,シグナス,0
1491,8011003015241,新規,0,2022-08-23,2022-08-23,合同会社Ｔ２ＰＬＵＳ,,合同会社,東京都,目黒区,中根２丁目１４番１９号,,13,110,1520031,,,,,,,2022-08-23,1,,,,,ティツープラス,0
1495,8011501028406,新規,0,2022-08-23,2022-08-23,株式会社やまりき,,株式会社,東京都,荒川区,東日暮里１丁目１１番８号,,13,118,1160014,,,,,,,2022-08-23,1,,,,,ヤマリキ,0
1498,8011603003686,新規,0,2022-08-23,2022-08-23,エナ合同会社,,合同会社,東京都,練馬区,田柄３丁目１７番２０号,,13,120,1790073,,,,,,,2022-08-23,1,,,,,エナ,0
1501,8012403005550,新規,0,2022-08-23,2022-08-23,合同会社ＫｅｙＧ,,合同会社,東京都,三鷹市,井の頭５丁目１０番４号チェンテナリオＱ５,,13,204,1810001,,,,,,,2022-08-23,1,,,,,キージ,0
1521,8030003019985,新規,0,2022-08-23,2022-08-23,ＮＥＭ合同会社,,合同会社,埼玉県,さいたま市北区,土呂町１丁目３０番地２・６１０号,,11,102,3310804,,,,,,,2022-08-23,1,,,,,エヌイーエム,0
1523,8030005020974,新規,0,2022-08-23,2022-08-23,一般社団法人住宅ローン問題相談センター,,その他の設立登記法人,埼玉県,新座市,野寺４丁目２番１６号,,11,230,3520034,,,,,,,2022-08-23,1,,,,,ジュウタクローンモンダイソウダンセンター,0
1534,8050003006783,新規,0,2022-08-23,2022-08-23,合同会社ヘルプリバー,,合同会社,茨城県,つくば市,並木２丁目２番地１８,,08,220,3050044,,,,,,,2022-08-23,1,,,,,ヘルプリバー,0
1542,8080001025139,新規,0,2022-08-23,2022-08-23,株式会社ＩＢレジデンス,,株式会社,静岡県,藤枝市,兵太夫５８２番地の２,,22,214,4260042,,,,,,,2022-08-23,1,,,,,アイビーレジデンス,0
1549,8120001248313,新規,0,2022-08-23,2022-08-23,株式会社リピートワーク,,株式会社,大阪府,大阪市都島区,都島本通１丁目１５番１４号,,27,102,5340021,,,,,,,2022-08-23,1,,,,,リピートワーク,0
1550,8120001248354,新規,0,2022-08-23,2022-08-23,株式会社ＳＩＭ,,株式会社,大阪府,大阪市住吉区,苅田９丁目１４番７－１３０３号,,27,120,5580011,,,,,,,2022-08-23,1,,,,,シム,0
1553,8120003022328,新規,0,2022-08-23,2022-08-23,合同会社ＹＡＡ,,合同会社,大阪府,大阪市西区,新町４丁目８－８・１４０８号,,27,106,5500013,,,,,,,2022-08-23,1,,,,,ヤア,0
1565,8150003002756,新規,0,2022-08-23,2022-08-23,やまと事業承継サポートセンター合同会社,,合同会社,奈良県,生駒郡三郷町,勢野北２丁目７番１３号,,29,343,6360815,,,,,,,2022-08-23,1,,,,,ヤマトジギョウショウケイサポートセンター,0
1568,8160001024462,新規,0,2022-08-23,2022-08-23,株式会社ＳＴＡＮＤ　ＵＰ,,株式会社,滋賀県,大津市,大萱１丁目１７番３１－３０１号,,25,201,5202144,,,,,,,2022-08-23,1,,,,,スタンドアップ,0
1586,8230005009254,新規,0,2022-08-23,2022-08-23,ＫＡＪ国際技術支援協同組合,,その他の設立登記法人,富山県,富山市,寺島４６番地７,,16,201,9302225,,,,,,,2022-08-23,1,,,,,ケーエージェイコクサイギジュツシエン,0
1588,8250001019734,新規,0,2022-08-23,2022-08-23,アントニーファーム株式会社,,株式会社,山口県,山口市,佐山字産業団地南１２００番１６,,35,203,7540894,,,,,,,2022-08-23,1,,,,,アントニーファーム,0
1589,8260001037165,新規,0,2022-08-23,2022-08-23,株式会社豚平,,株式会社,岡山県,苫田郡鏡野町,古川８７３番地３,,33,606,7080333,,,,,,,2022-08-23,1,,,,,トンペイ,0
1618,8380001033061,新規,0,2022-08-23,2022-08-23,株式会社ＳＡＴＯエステート,,株式会社,福島県,郡山市,大槻町字反田５番１,,07,203,9630201,,,,,,,2022-08-23,1,,,,,サトウエステート,0
1628,8470001019225,新規,0,2022-08-23,2022-08-23,株式会社しぜんｉｎｇ,,株式会社,香川県,丸亀市,垂水町８９７番地３３,,37,202,7630095,,,,,,,2022-08-23,1,,,,,,0
1630,8480001011833,新規,0,2022-08-23,2022-08-23,ＯＵＴＣＬＡＳＳ　ＨＯＬＤＩＮＧＳ株式会社,,株式会社,徳島県,徳島市,方上町寺内６番地の８,,36,201,7708033,,,,,,,2022-08-23,1,,,,,アウトクラスホールディングス,0
1635,8700150111469,新規,0,2022-08-23,2022-08-23,ＭＯＴＯＲＦＩＸ　ＡＵＴＯ　ＥＮＧＩＮＥＥＲＳ,,外国会社等,三重県,四日市市,水沢町２４０５－３,,24,202,5121105,スリランカ民主社会主義共和国、ニュータウン、ムレリヤワ、ワルポラ、スメダ・マワサ、２９／１Ｂ,,,,,,2022-08-23,1,,,,,モーターフイツクスオートエンジニアズ,0
1642,9010001228969,新規,0,2022-08-23,2022-08-23,株式会社リナレクス,,株式会社,東京都,千代田区,外神田３丁目１５番６号小暮末広ビル４階,,13,101,1010021,,,,,,,2022-08-23,1,,,,,リナレクス,0
1643,9010003038458,新規,0,2022-08-23,2022-08-23,全ツ合同会社,,合同会社,東京都,千代田区,飯田橋３丁目１－６マリアナ飯田橋Ｅａｓｔ６Ｆ,,13,101,1020072,,,,,,,2022-08-23,1,,,,,ゼンツ,0
1644,9010003038466,新規,0,2022-08-23,2022-08-23,合同会社ＢＣＪ‐６７,,合同会社,東京都,千代田区,丸の内１丁目１番１号パレスビル５階,,13,101,1000005,,,,,,,2022-08-23,1,,,,,ビーシージェイシックスティーセブン,0
1657,9010401168815,新規,0,2022-08-23,2022-08-23,株式会社ＨＵＧＥＮ,,株式会社,東京都,港区,六本木４丁目２番２０号パークサイド六本木３１０号室,,13,103,1060032,,,,,,,2022-08-23,1,,,,,ヒュージェン,0
1658,9010401168996,新規,0,2022-08-23,2022-08-23,ＭＧＥ株式会社,,株式会社,東京都,港区,西新橋２丁目２０番１号,,13,103,1050003,,,,,,,2022-08-23,1,,,,,エムジーイー,0
1659,9010403028281,新規,0,2022-08-23,2022-08-23,Ｖｏｘ　ｅｔ合同会社,,合同会社,東京都,港区,西麻布４丁目５番１０－１１０５号,,13,103,1060031,,,,,,,2022-08-23,1,,,,,ヴォックスエト,0
1663,9010501049279,新規,0,2022-08-23,2022-08-23,名香生物製薬株式会社,,株式会社,東京都,台東区,松が谷３丁目５番９号西ビル２Ｆ,,13,106,1110036,,,,,,,2022-08-23,1,,,,,メイコウセイブツセイヤク,0
1676,9011001149338,新規,0,2022-08-23,2022-08-23,株式会社夢,,株式会社,東京都,渋谷区,東３丁目１１番１０号,,13,113,1500011,,,,,,,2022-08-23,1,,,,,ユメ,0
1677,9011001149346,新規,0,2022-08-23,2022-08-23,加美屋リゾート株式会社,,株式会社,東京都,渋谷区,恵比寿３丁目９番１３号,,13,113,1500013,,,,,,,2022-08-23,1,,,,,カミヤリゾート,0
1678,9011005009694,新規,0,2022-08-23,2022-08-23,一般社団法人Ｓｔａｎｄ　Ｗｉｔｈ　Ｕｋｒａｉｎｅ　Ｊａｐａｎ,,その他の設立登記法人,東京都,目黒区,目黒２丁目１１番３号,,13,110,1530063,,,,,,,2022-08-23,1,,,,,スタンドウィズウクライナジャパン,0
1685,9011101099838,新規,0,2022-08-23,2022-08-23,Ｈｕｅ‐ｉｓｈ株式会社,,株式会社,東京都,新宿区,新宿６丁目２９番１１号新宿イーストクロスタワー１０Ｆ,,13,104,1600022,,,,,,,2022-08-23,1,,,,,ヒューイッシュ,0
1686,9011103012088,新規,0,2022-08-23,2022-08-23,合同会社Ｂａｌｌｏｏｎ　ｕｐ,,合同会社,東京都,新宿区,西新宿２丁目２番１号ＫＥＩＯＢＩＺＰＬＡＺＡ,,13,104,1600023,,,,,,,2022-08-23,1,,,,,バルーンアップ,0
1689,9011401024495,新規,0,2022-08-23,2022-08-23,株式会社ＳＫ１０,,株式会社,東京都,板橋区,板橋３丁目３９－３－２０２,,13,119,1730004,,,,,,,2022-08-23,1,,,,,スケット,0
1692,9011501028413,新規,0,2022-08-23,2022-08-23,株式会社ウラカン,,株式会社,東京都,荒川区,町屋７丁目１４番５－７０４号,,13,118,1160001,,,,,,,2022-08-23,1,,,,,ウラカン,0
1693,9011601026192,新規,0,2022-08-23,2022-08-23,株式会社ラッキーパンチ,,株式会社,東京都,練馬区,豊玉北６丁目１３番１１－５０４号,,13,120,1760012,,,,,,,2022-08-23,1,,,,,ラッキーパンチ,0
1697,9011803005226,新規,0,2022-08-23,2022-08-23,亜美合同会社,,合同会社,東京都,葛飾区,立石６丁目８番１１－１０９号,,13,122,1240012,,,,,,,2022-08-23,1,,,,,アミ,0
1698,9012701017214,新規,0,2022-08-23,2022-08-23,株式会社ＳＧＴ,,株式会社,東京都,西東京市,西原町５丁目１番１７号,,13,229,1880004,,,,,,,2022-08-23,1,,,,,エスジーティー,0
1703,9020001147887,新規,0,2022-08-23,2022-08-23,大和スマートパートナーズ株式会社,,株式会社,神奈川県,横浜市港北区,新横浜３丁目７番地７新横浜アリーナ通りビル３階,,14,109,2220033,,,,,,,2022-08-23,1,,,,,ダイワスマートパートナーズ,0
1718,9030001149767,新規,0,2022-08-23,2022-08-23,禾下株式会社,,株式会社,埼玉県,川口市,中青木１丁目５番５－５０１号,,11,203,3320032,,,,,,,2022-08-23,1,,,,,イネシタ,0
1725,9040001124760,新規,0,2022-08-23,2022-08-23,株式会社ＳＫ,,株式会社,千葉県,いすみ市,岬町和泉字上ノ原４１６番地２,,12,238,2994503,,,,,,,2022-08-23,1,,,,,エスケイ,0
1730,9040003020685,新規,0,2022-08-23,2022-08-23,ＡＵＴＯＫＩ　ＥＮＴＥＲＰＲＩＳＥ合同会社,,合同会社,千葉県,山武市,雨坪１１０－４,,12,237,2891213,,,,,,,2022-08-23,1,,,,,アウトキエンタープライズ,0
1731,9050001051574,新規,0,2022-08-23,2022-08-23,株式会社ツインデイズ,,株式会社,茨城県,土浦市,荒川沖東３丁目３－２ＯＧビル２階,,08,203,3000871,,,,,,,2022-08-23,1,,,,,ツインデイズ,0
1752,9120001248353,新規,0,2022-08-23,2022-08-23,株式会社クラウドストライフ,,株式会社,大阪府,大阪市西区,北堀江１丁目１３番２３号３０２,,27,106,5500014,,,,,,,2022-08-23,1,,,,,クラウドストライフ,0
1757,9120101066119,新規,0,2022-08-23,2022-08-23,株式会社Ｋ＆Ｓ,,株式会社,大阪府,富田林市,若松町４丁目１４－４４,,27,214,5840024,,,,,,,2022-08-23,1,,,,,ケーアンドエス,0
1759,9120901046393,新規,0,2022-08-23,2022-08-23,株式会社クリエイトコモンズ,,株式会社,大阪府,池田市,畑１丁目２番１７号,,27,204,5630021,,,,,,,2022-08-23,1,,,,,クリエイトコモンズ,0
1761,9130001072488,新規,0,2022-08-23,2022-08-23,株式会社Ｒａｖｅｎ,,株式会社,京都府,八幡市,八幡三本橋１８番地１６９,,26,210,6148093,,,,,,,2022-08-23,1,,,,,レイヴン,0
1772,9140003018050,新規,0,2022-08-23,2022-08-23,ｋａｉ総合サポート合同会社,,合同会社,兵庫県,宝塚市,野上１丁目１０番１５号,,28,214,6650022,,,,,,,2022-08-23,1,,,,,カイソウゴウサポート,0
1775,9160001024461,新規,0,2022-08-23,2022-08-23,中道農園株式会社,,株式会社,滋賀県,野洲市,比留田２４５８番地,,25,210,5202422,,,,,,,2022-08-23,1,,,,,ナカミチノウエン,0
1782,9180001152715,新規,0,2022-08-23,2022-08-23,株式会社ｍａｍｅｐｉｎ,,株式会社,愛知県,大府市,柊山町１丁目１１２番地ＧＭ大府花咲台３－３０５,,23,223,4740053,,,,,,,2022-08-23,1,,,,,マメピン,0
1789,9190001029706,新規,0,2022-08-23,2022-08-23,株式会社ＹＳＤ,,株式会社,三重県,松阪市,久保町１８２１番地４１,,24,204,5150044,,,,,,,2022-08-23,1,,,,,ワイエスディー,0
1791,9200003005645,新規,0,2022-08-23,2022-08-23,合同会社ＦＵＫＵＭＯＴＯ,,合同会社,岐阜県,本巣市,政田４３４番地１,,21,218,5010471,,,,,,,2022-08-23,1,,,,,フクモト,0
1799,9250001019733,新規,0,2022-08-23,2022-08-23,森宗瓦工事店株式会社,,株式会社,山口県,下関市,一の宮町４丁目９番６号,,35,201,7510806,,,,,,,2022-08-23,1,,,,,モリムネカワラコウジテン,0
1803,9260003004014,新規,0,2022-08-23,2022-08-23,合同会社ＤＲＡＧＯＮＭＯＴＯＲ,,合同会社,岡山県,岡山市北区,南中央町１０番４号,,33,101,7000837,,,,,,,2022-08-23,1,,,,,ドラゴンモーター,0
1814,9290805009579,新規,0,2022-08-23,2022-08-23,単立折尾クリスチャン・チャーチ,,その他の設立登記法人,福岡県,北九州市八幡西区,藤原２丁目１２番６号,,40,109,8070873,,,,,,,2022-08-23,1,,,,,タンリツオリオクリスチャンチャーチ,0
1822,9360001030860,新規,0,2022-08-23,2022-08-23,株式会社くじらの島,,株式会社,沖縄県,中頭郡読谷村,字長浜１３７９番地,,47,324,9040324,,,,,,,2022-08-23,1,,,,,クジラノシマ,0
1827,9380005012614,新規,0,2022-08-23,2022-08-23,一般社団法人日本農スポ推進協議会,,その他の設立登記法人,福島県,福島市,金谷川１番地福島大学人間発達文化学類保健体育棟蓮沼研究室内,,07,201,9601248,,,,,,,2022-08-23,1,,,,,ニホンノウスポスイシンキョウギカイ,0
1829,9390002016435,新規,0,2022-08-23,2022-08-23,有限会社大倉電子製作所,,有限会社,山形県,村山市,大字林崎６８番地,,06,208,9950006,,,,,,,2022-08-23,1,,,,,,0
1839,9430003014227,新規,0,2022-08-23,2022-08-23,合同会社有明グリーンガレージ,,合同会社,北海道,札幌市清田区,有明５番２,,01,110,0040821,,,,,,,2022-08-23,1,,,,,アリアケグリーンガレージ,0
1840,9450001013781,新規,0,2022-08-23,2022-08-23,株式会社平間ファーム美瑛,,株式会社,北海道,旭川市,神居三条８丁目２番１５号,,01,204,0708013,,,,,,,2022-08-23,1,,,,,ヒラマファームビエイ,0
1841,9450003002238,新規,0,2022-08-23,2022-08-23,合同会社ｏｆｆｉｃｅ　ｉｍｐａｃｔ,,合同会社,北海道,旭川市,豊岡九条５丁目５番８号,,01,204,0788239,,,,,,,2022-08-23,1,,,,,オフィスインパクト,0
1843,9470001019224,新規,0,2022-08-23,2022-08-23,株式会社ライフケアサポートアップル,,株式会社,香川県,東かがわ市,三本松１２０６番地,,37,207,7692601,,,,,,,2022-08-23,1,,,,,ライフケアサポートアップル,0
1846,9490005006860,新規,0,2022-08-23,2022-08-23,一般社団法人カネタ土壌改修評議機構,,その他の設立登記法人,高知県,高知市,仁井田４５６３番地１,,39,201,7810112,,,,,,,2022-08-23,1,,,,,カネタドジョウカイシュウヒョウギキコウ,0
