sequenceNumber,corporateNumber,process,correct,updateDate,changeDate,name,nameImageId,kind,prefectureName,cityName,streetNumber,addressImageId,prefectureCode,cityCode,postCode,addressOutside,addressOutsideImageId,closeDate,closeCause,successorCorporateNumber,changeCause,assignmentDate,latest,enName,enPrefectureName,enCityName,enAddressOutside,furigana,hihyoji
6,1010001248504,新規,0,2024-09-27,2024-09-27,ＪＰＡ第３１６号株式会社,,株式会社,東京都,千代田区,霞が関３丁目２番１号,,13,101,1000013,,,,,,,2024-09-27,1,,,,,ジェイピーエーダイサンビャクジュウロクゴウ,0
7,1010001248512,新規,0,2024-09-27,2024-09-27,ＪＰＡ第３２４号株式会社,,株式会社,東京都,千代田区,霞が関３丁目２番１号,,13,101,1000013,,,,,,,2024-09-27,1,,,,,ジェイピーエーダイサンビャクニジュウヨンゴウ,0
8,1010001248520,新規,0,2024-09-27,2024-09-27,Ｓｉｇｅｎｅｒｇｙ　Ｊａｐａｎ株式会社,,株式会社,東京都,中央区,入船１丁目９番８号７階,,13,102,1040042,,,,,,,2024-09-27,1,,,,,シジェナジージャパン,0
9,1010001248537,新規,0,2024-09-27,2024-09-27,菲菲株式会社,,株式会社,東京都,千代田区,神田神保町２丁目３４－１－２１６,,13,101,1010051,,,,,,,2024-09-27,1,,,,,ヒヒ,0
10,1010001248669,新規,0,2024-09-27,2024-09-27,株式会社Ｍｉｄｇａｒｄ,,株式会社,東京都,中央区,銀座１丁目１２－４Ｎ＆ＥＢＬＤ．７階,,13,102,1040061,,,,,,,2024-09-27,1,,,,,ミッドガルド,0
12,1010003044959,新規,0,2024-09-27,2024-09-27,ＲＣ　Ｔｅｃｈｎｏｌｏｇｙ　Ｊａｐａｎ合同会社,,合同会社,東京都,中央区,銀座６丁目１３番１６号銀座ＷａｌｌビルＵＣＦ５０１,,13,102,1040061,,,,,,,2024-09-27,1,,,,,アールシーテクノロジージャパン,0
13,1010003044967,新規,0,2024-09-27,2024-09-27,合同会社ＳｔｅｒｒｉａＲ,,合同会社,東京都,中央区,銀座１丁目１２番４号Ｎ＆ＥＢＬＤ．６Ｆ,,13,102,1040061,,,,,,,2024-09-27,1,,,,,ステリア,0
14,1010003045008,新規,0,2024-09-27,2024-09-27,トーメイ・ホールディング合同会社,,合同会社,東京都,千代田区,丸の内１丁目４番１号東京共同会計事務所内,,13,101,1000005,,,,,,,2024-09-27,1,,,,,トーメイホールディング,0
15,1010005038876,新規,0,2024-09-27,2024-09-27,一般社団法人ＡＪＣＣＡ,,その他の設立登記法人,東京都,千代田区,大手町１丁目７番２号東京サンケイビル２７階,,13,101,1000004,,,,,,,2024-09-27,1,,,,,エージェーシーシーエー,0
16,1010103002420,新規,0,2024-09-27,2024-09-27,柏合同会社,,合同会社,東京都,八王子市,東町１０番３号１階,,13,201,1920082,,,,,,,2024-09-27,1,,,,,カシワ,0
26,1010401185355,新規,0,2024-09-27,2024-09-27,株式会社ＲＡＤ,,株式会社,東京都,港区,南青山３丁目１番３６号青山丸竹ビル６Ｆ,,13,103,1070062,,,,,,,2024-09-27,1,,,,,ラッド,0
27,1010401185363,新規,0,2024-09-27,2024-09-27,株式会社Ｂｏｕｓｓｏｌｅｉｌ,,株式会社,東京都,港区,赤坂２丁目２１番４号天翔赤坂ＡＮＮＥＸビル５階,,13,103,1070052,,,,,,,2024-09-27,1,,,,,ブッソレイユ,0
28,1010401185388,新規,0,2024-09-27,2024-09-27,コンポジットテーラーズ株式会社,,株式会社,東京都,港区,南麻布３丁目２０番１号,,13,103,1060047,,,,,,,2024-09-27,1,,,,,コンポジットテーラーズ,0
29,1010401185396,新規,0,2024-09-27,2024-09-27,株式会社アルテミシア,,株式会社,東京都,港区,北青山１丁目３番１号アールキューブ青山３階,,13,103,1070061,,,,,,,2024-09-27,1,,,,,アルテミシア,0
33,1010403033487,新規,0,2024-09-27,2024-09-27,新東京インベストメント合同会社,,合同会社,東京都,港区,台場１丁目３番４－２２０６号,,13,103,1350091,,,,,,,2024-09-27,1,,,,,シントウキョウインベストメント,0
35,1010405023544,新規,0,2024-09-27,2024-09-27,弁理士法人小田・齊藤特許事務所,,その他の設立登記法人,東京都,港区,虎ノ門１丁目１番２４号オカモトヤビル８階,,13,103,1050001,,,,,,,2024-09-27,1,,,,,オダサイトウトッキョジムショ,0
37,1010601065992,新規,0,2024-09-27,2024-09-27,株式会社Ａｍｅｒｙｍ,,株式会社,東京都,墨田区,業平２丁目１２番３号,,13,107,1300002,,,,,,,2024-09-27,1,,,,,アメリム,0
38,1010601066000,新規,0,2024-09-27,2024-09-27,株式会社アサインブリッジ,,株式会社,東京都,墨田区,両国４丁目３７番１３号村上ビル３０１号室,,13,107,1300026,,,,,,,2024-09-27,1,,,,,アサインブリッジ,0
41,1010701046579,新規,0,2024-09-27,2024-09-27,Ｈｏｍｅｔｏｗｎ株式会社,,株式会社,東京都,品川区,東五反田５丁目２２番５－２１０Ｃ号,,13,109,1410022,,,,,,,2024-09-27,1,,,,,ホームタウン,0
45,1010901056031,新規,0,2024-09-27,2024-09-27,株式会社ナルカワフィットパッケージ,,株式会社,東京都,世田谷区,上北沢４丁目１２番８号鳴川ビル,,13,112,1560057,,,,,,,2024-09-27,1,,,,,ナルカワフィットパッケージ,0
46,1010903009383,新規,0,2024-09-27,2024-09-27,合同会社Ｒ,,合同会社,東京都,世田谷区,大蔵１丁目３番１６号,,13,112,1570074,,,,,,,2024-09-27,1,,,,,アール,0
52,1011001164848,新規,0,2024-09-27,2024-09-27,株式会社ｉｋ３１,,株式会社,東京都,渋谷区,恵比寿西２丁目８番４号ＥＸ恵比寿西ビル５階,,13,113,1500021,,,,,,,2024-09-27,1,,,,,アイケーサンジュウイチ,0
53,1011001164856,新規,0,2024-09-27,2024-09-27,株式会社ＬｉｎｋＴｒｉｐ,,株式会社,東京都,渋谷区,渋谷２丁目１９－１５宮益坂ビルディング６０９,,13,113,1500002,,,,,,,2024-09-27,1,,,,,リンクトリップ,0
54,1011003020099,新規,0,2024-09-27,2024-09-27,アクアエコー合同会社,,合同会社,東京都,目黒区,洗足２丁目１０番１８号,,13,110,1520012,,,,,,,2024-09-27,1,,,,,アクアエコー,0
66,1011101108903,新規,0,2024-09-27,2024-09-27,長野山葵株式会社,,株式会社,東京都,新宿区,高田馬場３丁目２３番２号内藤ビル５０２,,13,104,1690075,,,,,,,2024-09-27,1,,,,,ナガノワサビ,0
67,1011101108911,新規,0,2024-09-27,2024-09-27,妙途株式会社,,株式会社,東京都,新宿区,高田馬場２丁目１７番１５号唐橋ビル５階,,13,104,1690075,,,,,,,2024-09-27,1,,,,,ミョウト,0
68,1011101108952,新規,0,2024-09-27,2024-09-27,株式会社エコサスティナ,,株式会社,東京都,新宿区,西新宿８丁目８番６号ＬＵビル２０１,,13,104,1600023,,,,,,,2024-09-27,1,,,,,エコサスティナ,0
72,1011303005295,新規,0,2024-09-27,2024-09-27,ＦＩＧ合同会社,,合同会社,東京都,杉並区,西荻南４丁目２０番１０号,,13,115,1670053,,,,,,,2024-09-27,1,,,,,フィグ,0
73,1011303005304,新規,0,2024-09-27,2024-09-27,星川商事合同会社,,合同会社,東京都,杉並区,天沼１丁目４２－１５,,13,115,1670032,,,,,,,2024-09-27,1,,,,,ホシカワショウジ,0
76,1011401026441,新規,0,2024-09-27,2024-09-27,株式会社クリシュナ,,株式会社,東京都,板橋区,蓮根２丁目７番１１号グランドジョラス２０２号室,,13,119,1740046,,,,,,,2024-09-27,1,,,,,クリシュナ,0
79,1011701027635,新規,0,2024-09-27,2024-09-27,紅旭株式会社,,株式会社,東京都,江戸川区,南小岩８丁目１０－８－３Ｆ,,13,123,1330056,,,,,,,2024-09-27,1,,,,,コウキョク,0
81,1011703003972,新規,0,2024-09-27,2024-09-27,合同会社ＪＣコンサルタント,,合同会社,東京都,江戸川区,東葛西５丁目１８番３号,,13,123,1340084,,,,,,,2024-09-27,1,,,,,ジェイシーコンサルタント,0
84,1011801044852,新規,0,2024-09-27,2024-09-27,速＿通信株式会社,00136416,株式会社,東京都,葛飾区,東新小岩３丁目１３－５－１Ｆ,,13,122,1240023,,,,,,,2024-09-27,1,,,,,ソクエイツウシン,0
85,1011801044885,新規,0,2024-09-27,2024-09-27,株式会社ウィート,,株式会社,東京都,葛飾区,宝町２丁目３４番５－８０２号東急ドエル・アルスお花茶屋,,13,122,1240005,,,,,,,2024-09-27,1,,,,,ウィート,0
86,1011801044893,新規,0,2024-09-27,2024-09-27,株式会社木内,,株式会社,東京都,葛飾区,堀切３丁目３２番１４号ＡＺＥＳＴ堀切菖蒲園６０４,,13,122,1240006,,,,,,,2024-09-27,1,,,,,キウチ,0
87,1011803006438,新規,0,2024-09-27,2024-09-27,ＰＮＮ合同会社,,合同会社,東京都,葛飾区,西新小岩４丁目２３－５－１Ｃ,,13,122,1240025,,,,,,,2024-09-27,1,,,,,ピーエヌエヌ,0
88,1011803006470,新規,0,2024-09-27,2024-09-27,合同会社インテリア齋藤,,合同会社,東京都,足立区,保木間３丁目２５番２－１０１号,,13,121,1210064,,,,,,,2024-09-27,1,,,,,インテリアサイトウ,0
105,1020001159155,新規,0,2024-09-27,2024-09-27,株式会社ｉ‐ＣＲＯＳＳ,,株式会社,神奈川県,川崎市宮前区,宮前平１丁目４番地２５,,14,136,2160006,,,,,,,2024-09-27,1,,,,,アイクロス,0
106,1020001159337,新規,0,2024-09-27,2024-09-27,株式会社Ｇｅｎｅｓｉｓｕ,,株式会社,神奈川県,横浜市神奈川区,鶴屋町１丁目４１番地ＴＨＥ・ＹＯＫＯＨＡＭＡ・ＦＲＯＮＴ・ＴＯＷＥＲ１５０４号,,14,102,2210835,,,,,,,2024-09-27,1,,,,,ジェネシス,0
110,1020003026964,新規,0,2024-09-27,2024-09-27,福源天賜合同会社,,合同会社,神奈川県,横浜市中区,末吉町１丁目８－９－１０１号室,,14,104,2310055,,,,,,,2024-09-27,1,,,,,フクゲンテンシ,0
111,1020003026972,新規,0,2024-09-27,2024-09-27,合同会社ＴＲＡＶＩＬＬＡ,,合同会社,神奈川県,横浜市都筑区,東山田４丁目５番７－３０３号,,14,118,2240023,,,,,,,2024-09-27,1,,,,,トラヴィラ,0
112,1020005016550,新規,0,2024-09-27,2024-09-27,弁護士法人横浜キャピタル法律事務所,,その他の設立登記法人,神奈川県,横浜市西区,浅間町２丁目９８番４号北尾ビル２０１,,14,103,2200072,,,,,,,2024-09-27,1,,,,,ヨコハマキャピタルホウリツジムショ,0
113,1020005016559,新規,0,2024-09-27,2024-09-27,特定非営利活動法人ウォーク,,その他の設立登記法人,神奈川県,横浜市港南区,上永谷５丁目２２番９０号,,14,111,2330012,,,,,,,2024-09-27,1,,,,,ウォーク,0
118,1021001083320,新規,0,2024-09-27,2024-09-27,株式会社ＢｅＭｏｒｅ,,株式会社,神奈川県,藤沢市,辻堂元町５丁目１６番１９号,,14,205,2510043,,,,,,,2024-09-27,1,,,,,ビーモア,0
121,1030001162562,新規,0,2024-09-27,2024-09-27,株式会社冨順,,株式会社,埼玉県,川越市,大字的場１８１２番地,,11,201,3501101,,,,,,,2024-09-27,1,,,,,トミジュン,0
122,1030001162612,新規,0,2024-09-27,2024-09-27,株式会社ＴＲ・Ｃｏｍｐａｎｙ,,株式会社,埼玉県,草加市,青柳７丁目２５番１８号３Ｆ,,11,221,3400002,,,,,,,2024-09-27,1,,,,,ティーアールカンパニー,0
123,1030001162620,新規,0,2024-09-27,2024-09-27,株式会社ＳＵＭＯ　ＪＡＰＡＮ　ＴＲＡＤＩＮＧ,,株式会社,埼玉県,蕨市,塚越４丁目１０番１４号,,11,223,3350002,,,,,,,2024-09-27,1,,,,,スモジャパントレーディング,0
124,1030001162653,新規,0,2024-09-27,2024-09-27,株式会社山岸工務店,,株式会社,埼玉県,さいたま市西区,大字佐知川４４４番地８,,11,101,3310064,,,,,,,2024-09-27,1,,,,,ヤマギシコウムテン,0
131,1030003025172,新規,0,2024-09-27,2024-09-27,合同会社フリースタイル,,合同会社,埼玉県,所沢市,大字上山口１１２番地の６,,11,208,3591153,,,,,,,2024-09-27,1,,,,,,0
132,1030003025189,新規,0,2024-09-27,2024-09-27,合同会社Ｃａｒ　Ｃｏｌｌｅｃｔｉｏｎ,,合同会社,埼玉県,久喜市,青葉５丁目２３番地７クレストタウンズＡ２０２号,,11,232,3460013,,,,,,,2024-09-27,1,,,,,カーコレクション,0
133,1030003025197,新規,0,2024-09-27,2024-09-27,ＫＩＮＺＯ合同会社,,合同会社,埼玉県,川口市,桜町１丁目１０－２７大沼ビル１Ｆ,,11,203,3340001,,,,,,,2024-09-27,1,,,,,キンゾー,0
137,1040001135583,新規,0,2024-09-27,2024-09-27,株式会社Ｌｅａｄｘ,,株式会社,千葉県,匝瑳市,吉田４６２１,,12,235,2892169,,,,,,,2024-09-27,1,,,,,リーデックス,0
142,1040005022522,新規,0,2024-09-27,2024-09-27,医療法人社団望旦会,,その他の設立登記法人,千葉県,流山市,市野谷５２２,,12,220,2700137,,,,,,,2024-09-27,1,,,,,ボウタンカイ,0
143,1050003008695,新規,0,2024-09-27,2024-09-27,合同会社ファイブ,,合同会社,茨城県,那珂郡東海村,村松北１丁目１８番１０号第２サンモールコウヤ１０２,,08,341,3191108,,,,,,,2024-09-27,1,,,,,ファイブ,0
144,1050005013495,新規,0,2024-09-27,2024-09-27,医療法人ＯＳＧ,,その他の設立登記法人,茨城県,東茨城郡大洗町,桜道２７８番地,,08,309,3111307,,,,,,,2024-09-27,1,,,,,オーエスジー,0
148,1060001037514,新規,0,2024-09-27,2024-09-27,株式会社藤田工業,,株式会社,栃木県,那須塩原市,一区町３１５番地１７４,,09,213,3292732,,,,,,,2024-09-27,1,,,,,フジタコウギョウ,0
149,1060001037522,新規,0,2024-09-27,2024-09-27,ＸＥＩ‐Ｚ株式会社,,株式会社,栃木県,宇都宮市,星が丘２丁目２番４２号,,09,201,3200038,,,,,,,2024-09-27,1,,,,,ゼイズ,0
152,1070001042208,新規,0,2024-09-27,2024-09-27,株式会社ＴＨＥ　ＮＥＸＴＡＧＥ　ＣＯＭＰＡＮＹ,,株式会社,群馬県,桐生市,境野町７丁目１７７５番地の２,,10,203,3760002,,,,,,,2024-09-27,1,,,,,ザネクステージカンパニー,0
153,1070003005591,新規,0,2024-09-27,2024-09-27,合同会社えとせとら,,合同会社,群馬県,伊勢崎市,市場町１丁目１５１９番地,,10,204,3792211,,,,,,,2024-09-27,1,,,,,エトセトラ,0
154,1080101025020,新規,0,2024-09-27,2024-09-27,株式会社ＤＡＴ,,株式会社,静岡県,富士市,今泉２６５７番地の７０,,22,210,4170001,,,,,,,2024-09-27,1,,,,,ディーエーティー,0
160,1080403005100,新規,0,2024-09-27,2024-09-27,シンクリエート合同会社,,合同会社,静岡県,浜松市天竜区,二俣町鹿島字永田２５３番地５,,22,140,4313313,,,,,,,2024-09-27,1,,,,,シンクリエート,0
163,1100001037872,新規,0,2024-09-27,2024-09-27,株式会社ハウ助ッ人,,株式会社,長野県,塩尻市,大字洗馬３２２番地１０,,20,215,3996462,,,,,,,2024-09-27,1,,,,,ハウスケット,0
174,1120001268788,新規,0,2024-09-27,2024-09-27,株式会社ＪＭＬ,,株式会社,大阪府,大阪市此花区,西九条６丁目１番１６－４０５号,,27,104,5540012,,,,,,,2024-09-27,1,,,,,ジェイエムエル,0
175,1120001268813,新規,0,2024-09-27,2024-09-27,株式会社Ｇ‐ＳＴＹＬＥ,,株式会社,大阪府,大阪市西成区,出城３丁目２番３号,,27,122,5570024,,,,,,,2024-09-27,1,,,,,ジースタイル,0
176,1120003027606,新規,0,2024-09-27,2024-09-27,華潤合同会社,,合同会社,大阪府,大阪市生野区,新今里６丁目３－１０エクラ新今里４０３,,27,116,5440001,,,,,,,2024-09-27,1,,,,,カジュン,0
180,1120903005355,新規,0,2024-09-27,2024-09-27,合同会社Ｕ‐ｎｏｓ,,合同会社,大阪府,箕面市,森町南２丁目１１番２０号,,27,220,5630258,,,,,,,2024-09-27,1,,,,,ユーノス,0
190,1130001077932,新規,0,2024-09-27,2024-09-27,株式会社京処方菓子研究所,,株式会社,京都府,京都市中京区,瓦之町３８４,,26,104,6040837,,,,,,,2024-09-27,1,,,,,キョウショホウガシケンキュウショ,0
191,1130001077998,新規,0,2024-09-27,2024-09-27,株式会社キュービックイノベート,,株式会社,京都府,京都市伏見区,深草中ノ島町５番地２４,,26,109,6120049,,,,,,,2024-09-27,1,,,,,キュービックイノベート,0
197,1140001135887,新規,0,2024-09-27,2024-09-27,株式会社ブルーバック,,株式会社,兵庫県,尼崎市,南塚口町２丁目１番３－６０９号,,28,202,6610012,,,,,,,2024-09-27,1,,,,,ブルーバック,0
198,1140001135912,新規,0,2024-09-27,2024-09-27,株式会社美ら家,,株式会社,兵庫県,川西市,花屋敷１丁目８番１号,,28,217,6660035,,,,,,,2024-09-27,1,,,,,ミライエ,0
201,1160001026234,新規,0,2024-09-27,2024-09-27,株式会社和樂,,株式会社,滋賀県,近江八幡市,安土町石寺１２９６番地,,25,204,5211331,,,,,,,2024-09-27,1,,,,,ワラク,0
208,1180001163389,新規,0,2024-09-27,2024-09-27,株式会社雄功電設,,株式会社,愛知県,名古屋市西区,牛島町６番１号名古屋ルーセントタワー４０階,,23,104,4510046,,,,,,,2024-09-27,1,,,,,ユウコウデンセツ,0
209,1180001163439,新規,0,2024-09-27,2024-09-27,株式会社ＬｉｂｅｒＴｅｅｎ,,株式会社,愛知県,名古屋市西区,城西４丁目２７－２０ＳＫビル城西４０２,,23,104,4510031,,,,,,,2024-09-27,1,,,,,リバティーン,0
211,1180003027369,新規,0,2024-09-27,2024-09-27,合同会社進光,,合同会社,愛知県,名古屋市中区,新栄２丁目１２番１７号,,23,106,4600007,,,,,,,2024-09-27,1,,,,,シンコウ,0
222,1240003006861,新規,0,2024-09-27,2024-09-27,合同会社ＹＯＴＡＫＡ,,合同会社,広島県,呉市,音戸町波多見３丁目１８－１１－Ｂ１０２,,34,202,7371207,,,,,,,2024-09-27,1,,,,,ヨタカ,0
232,1290003015833,新規,0,2024-09-27,2024-09-27,合同会社ラポールエステート,,合同会社,福岡県,福岡市東区,香住ヶ丘４丁目１９番１０号,,40,131,8130003,,,,,,,2024-09-27,1,,,,,ラポールエステート,0
234,1290005019502,新規,0,2024-09-27,2024-09-27,一般社団法人ｄａｈｌｉａ,,その他の設立登記法人,福岡県,筑後市,大字馬間田１９２番地３,,40,211,8330023,,,,,,,2024-09-27,1,,,,,ダリア,0
236,1300003002185,新規,0,2024-09-27,2024-09-27,合同会社Ｇｒｏｗ　ｕｐ,,合同会社,佐賀県,杵島郡江北町,大字山口１４０３番地１,,41,424,8490501,,,,,,,2024-09-27,1,,,,,グローアップ,0
247,1350003004755,新規,0,2024-09-27,2024-09-27,合同会社ＨＤＡフーズ,,合同会社,宮崎県,都城市,牟田町７番地１８ミューズコート３０１,,45,202,8850079,,,,,,,2024-09-27,1,,,,,エイチディーエイフーズ,0
251,1370001051748,新規,0,2024-09-27,2024-09-27,株式会社Ｄ’ｓ,,株式会社,宮城県,石巻市,門脇字青葉西９６番地,,04,202,9860853,,,,,,,2024-09-27,1,,,,,ディーズ,0
255,1390001017747,新規,0,2024-09-27,2024-09-27,株式会社Ｒｏｐｓ,,株式会社,山形県,山形市,小白川町３丁目４番３号天神マンション７０４号,,06,201,9900021,,,,,,,2024-09-27,1,,,,,ロプス,0
265,1430003016817,新規,0,2024-09-27,2024-09-27,合同会社ＷｉｔｈＵ,,合同会社,北海道,札幌市中央区,南五条西１５丁目２－３－５０３,,01,101,0640805,,,,,,,2024-09-27,1,,,,,ウィズユー,0
266,1440003001628,新規,0,2024-09-27,2024-09-27,ＨＯＲＩＺＯＮ合同会社,,合同会社,北海道,檜山郡上ノ国町,字北村２１１番地７,,01,362,0490622,,,,,,,2024-09-27,1,,,,,ホウリゾン,0
267,1450001014416,新規,0,2024-09-27,2024-09-27,株式会社Ｔ‐ＰＬＡＮＮＩＮＧ,,株式会社,北海道,旭川市,永山四条１７丁目２番１８号,,01,204,0798414,,,,,,,2024-09-27,1,,,,,ティープランニング,0
270,1490001010873,新規,0,2024-09-27,2024-09-27,株式会社ウェルプレイス,,株式会社,高知県,高知市,中久万４９番地１２エントランスパークビル２００号室,,39,201,7800983,,,,,,,2024-09-27,1,,,,,ウェルプレイス,0
272,1500001025894,新規,0,2024-09-27,2024-09-27,株式会社ビブレ,,株式会社,愛媛県,松山市,南江戸町二丁目６番１８号,,38,201,7900061,,,,,,,2024-09-27,1,,,,,ビブレ,0
273,1500001025903,新規,0,2024-09-27,2024-09-27,戸田農園株式会社,,株式会社,愛媛県,西条市,西泉乙３６７番地１,,38,206,7930064,,,,,,,2024-09-27,1,,,,,トダノウエン,0
281,2010001248486,新規,0,2024-09-27,2024-09-27,ベルフルール株式会社,,株式会社,東京都,中央区,銀座２丁目１１番１１号第２銀座ヤマトビル７階,,13,102,1040061,,,,,,,2024-09-27,1,,,,,ベルフルール,0
282,2010001248503,新規,0,2024-09-27,2024-09-27,ＪＰＡ第３１５号株式会社,,株式会社,東京都,千代田区,霞が関３丁目２番１号,,13,101,1000013,,,,,,,2024-09-27,1,,,,,ジェイピーエーダイサンビャクジュウゴゴウ,0
283,2010001248511,新規,0,2024-09-27,2024-09-27,ＪＰＡ第３２３号株式会社,,株式会社,東京都,千代田区,霞が関３丁目２番１号,,13,101,1000013,,,,,,,2024-09-27,1,,,,,ジェイピーエーダイサンビャクニジュウサンゴウ,0
284,2010001248536,新規,0,2024-09-27,2024-09-27,株式会社Ｍｙ　Ｒｕｎｗａｙ　Ｐｒｏｊｅｃｔ,,株式会社,東京都,中央区,築地７丁目１８番２８－８１５号,,13,102,1040045,,,,,,,2024-09-27,1,,,,,マイランウェイプロジェクト,0
285,2010001248552,新規,0,2024-09-27,2024-09-27,ＡＩｏＴ株式会社,,株式会社,東京都,中央区,京橋１丁目１番５号セントラルビル２階,,13,102,1040031,,,,,,,2024-09-27,1,,,,,アイオティ,0
286,2010001248560,新規,0,2024-09-27,2024-09-27,株式会社Ｄｅｖｉｓｉｏｎ,,株式会社,東京都,文京区,本郷２丁目３５番１０号本郷瀬川ビル４Ｆ,,13,105,1130033,,,,,,,2024-09-27,1,,,,,ディビジョン,0
293,2010401185370,新規,0,2024-09-27,2024-09-27,サイドスリー株式会社,,株式会社,東京都,港区,愛宕１丁目１番１－１６０４号,,13,103,1050002,,,,,,,2024-09-27,1,,,,,サイドスリー,0
294,2010401185420,新規,0,2024-09-27,2024-09-27,株式会社ＢｅＪｏｙｆｕｌ,,株式会社,東京都,港区,白金６丁目２－１２－３,,13,103,1080072,,,,,,,2024-09-27,1,,,,,ビジョイフル,0
308,2010601065967,新規,0,2024-09-27,2024-09-27,株式会社アイナ,,株式会社,東京都,墨田区,本所４丁目１９番３号本所吾妻橋ＤＪビル,,13,107,1300004,,,,,,,2024-09-27,1,,,,,アイナ,0
309,2010601065991,新規,0,2024-09-27,2024-09-27,株式会社レセラン,,株式会社,東京都,墨田区,東向島４丁目５－１０加瀬ビル１４９,,13,107,1310032,,,,,,,2024-09-27,1,,,,,レセラン,0
310,2010603011119,新規,0,2024-09-27,2024-09-27,合同会社ＡＤＶＡＮ,,合同会社,東京都,江東区,亀戸９丁目３４番１－９２４号,,13,108,1360071,,,,,,,2024-09-27,1,,,,,アドバン,0
311,2010703007339,新規,0,2024-09-27,2024-09-27,合同会社ｋａｖａｔｉｅｒ,,合同会社,東京都,品川区,大崎４丁目１３番８号,,13,109,1410032,,,,,,,2024-09-27,1,,,,,カバティエ,0
318,2010903009382,新規,0,2024-09-27,2024-09-27,合同会社Ｋａｅｎ,,合同会社,東京都,世田谷区,砧８丁目６番地７号メゾンモトオ３０１,,13,112,1570073,,,,,,,2024-09-27,1,,,,,カエン,0
327,2011001164888,新規,0,2024-09-27,2024-09-27,株式会社ｓｔｕｄｉｏ　ＧＡＲＢＯ,,株式会社,東京都,渋谷区,上原３丁目３２番９号,,13,113,1510064,,,,,,,2024-09-27,1,,,,,スタジオガルボ,0
329,2011003020081,新規,0,2024-09-27,2024-09-27,合同会社ＰＲＩＭＥ　ＡＧＥＮＴＳ,,合同会社,東京都,目黒区,碑文谷４丁目１０－６,,13,110,1520003,,,,,,,2024-09-27,1,,,,,プライムエージェンツ,0
332,2011101108910,新規,0,2024-09-27,2024-09-27,株式会社アクシージアテクノロジー,,株式会社,東京都,新宿区,西新宿２丁目６番１号新宿住友ビル３５階,,13,104,1600023,,,,,,,2024-09-27,1,,,,,アクシージアテクノロジー,0
333,2011101108919,新規,0,2024-09-27,2024-09-27,株式会社ＭＩＲＡＩＥ,,株式会社,東京都,新宿区,西新宿５丁目８番６号,,13,104,1600023,,,,,,,2024-09-27,1,,,,,ミライエ,0
334,2011103014958,新規,0,2024-09-27,2024-09-27,ＣＳ長野茅野ＥＳＳ合同会社,,合同会社,東京都,新宿区,西新宿２丁目１番１号新宿三井ビル４３階,,13,104,1600023,,,,,,,2024-09-27,1,,,,,シーエスナガノチノイーエスエス,0
335,2011103014974,新規,0,2024-09-27,2024-09-27,ＳＤＣ合同会社,,合同会社,東京都,新宿区,北新宿２丁目３番１３号グリーンキャピタル北新宿３０１,,13,104,1690074,,,,,,,2024-09-27,1,,,,,エスディシー,0
337,2011301030022,新規,0,2024-09-27,2024-09-27,ＩＯＥＴＥＣＨ株式会社,,株式会社,東京都,杉並区,和泉２丁目１５番４－４０１号,,13,115,1680063,,,,,,,2024-09-27,1,,,,,イオエテック,0
338,2011303005294,新規,0,2024-09-27,2024-09-27,合同会社ＨＭＡ,,合同会社,東京都,杉並区,阿佐谷北４丁目２４番地３号迦葉阿佐谷マンション,,13,115,1660001,,,,,,,2024-09-27,1,,,,,エイチエムエー,0
341,2011801044884,新規,0,2024-09-27,2024-09-27,株式会社ｋｉｚｕｋｕ,,株式会社,東京都,足立区,江北３丁目３４－４４,,13,121,1230872,,,,,,,2024-09-27,1,,,,,キズク,0
342,2011801044892,新規,0,2024-09-27,2024-09-27,株式会社富士工業,,株式会社,東京都,足立区,東和４丁目９番６号松美ビル４０１,,13,121,1200003,,,,,,,2024-09-27,1,,,,,フジコウギョウ,0
345,2012301014097,新規,0,2024-09-27,2024-09-27,株式会社アビスホールデム,,株式会社,東京都,町田市,原町田１丁目１４番８号,,13,209,1940013,,,,,,,2024-09-27,1,,,,,アビスホールデム,0
349,2012401042312,新規,0,2024-09-27,2024-09-27,株式会社シンセリティ,,株式会社,東京都,三鷹市,牟礼６丁目２３番８－８２１号,,13,204,1810002,,,,,,,2024-09-27,1,,,,,シンセリティ,0
353,2012801023473,新規,0,2024-09-27,2024-09-27,Ｔｈｅ　Ａｎｓｗｅｒ株式会社,,株式会社,東京都,日野市,新井３丁目１４番地の１,,13,212,1910022,,,,,,,2024-09-27,1,,,,,ジアンサー,0
359,2020003026947,新規,0,2024-09-27,2024-09-27,合同会社デスクサポート,,合同会社,神奈川県,横浜市緑区,新治町１１９３番地６,,14,113,2260017,,,,,,,2024-09-27,1,,,,,デスクサポート,0
363,2021001083303,新規,0,2024-09-27,2024-09-27,株式会社吉田,,株式会社,神奈川県,伊勢原市,下糟屋東３丁目１６番,,14,214,2591148,,,,,,,2024-09-27,1,,,,,ヨシダ,0
382,2030001162628,新規,0,2024-09-27,2024-09-27,株式会社Ｗｅｂｘａｍ,,株式会社,埼玉県,さいたま市浦和区,大原１丁目２２－２０,,11,107,3300046,,,,,,,2024-09-27,1,,,,,ウェブザム,0
383,2030001162636,新規,0,2024-09-27,2024-09-27,株式会社プラスワークス,,株式会社,埼玉県,熊谷市,妻沼東２丁目８５番地５,,11,202,3600202,,,,,,,2024-09-27,1,,,,,プラスワークス,0
384,2030001162652,新規,0,2024-09-27,2024-09-27,木下商事株式会社,,株式会社,埼玉県,さいたま市桜区,栄和６丁目６番１４号モジュール８８－１ＭＨ,,11,106,3380823,,,,,,,2024-09-27,1,,,,,キノシタショウジ,0
388,2030003025155,新規,0,2024-09-27,2024-09-27,合同会社寛大,,合同会社,埼玉県,川口市,大字藤兵衛新田１６９番地の１エターナル１０２号,,11,203,3330803,,,,,,,2024-09-27,1,,,,,カンダイ,0
389,2030003025188,新規,0,2024-09-27,2024-09-27,合同会社ウッドシンフォニー,,合同会社,埼玉県,朝霞市,根岸台７丁目４３－２２ユーハウス１０２,,11,227,3510005,,,,,,,2024-09-27,1,,,,,ウッドシンフォニー,0
392,2040001135319,新規,0,2024-09-27,2024-09-27,Ｔ．Ｍ．Ｍｅｄｉｃａｌ株式会社,,株式会社,千葉県,佐倉市,寺崎北３丁目６－４,,12,212,2850819,,,,,,,2024-09-27,1,,,,,ティーエムメディカル,0
393,2040001135517,新規,0,2024-09-27,2024-09-27,エスアールディー株式会社,,株式会社,千葉県,市川市,大野町３丁目１８２５番地１,,12,203,2720805,,,,,,,2024-09-27,1,,,,,エスアールディー,0
396,2040003025848,新規,0,2024-09-27,2024-09-27,合同会社リーダー,,合同会社,千葉県,千葉市稲毛区,園生町４６８番地５１８,,12,103,2630051,,,,,,,2024-09-27,1,,,,,リーダー,0
400,2050003008694,新規,0,2024-09-27,2024-09-27,合同会社サン,,合同会社,茨城県,那珂郡東海村,村松北１丁目１８番１０号第２サンモールコウヤ１０２,,08,341,3191108,,,,,,,2024-09-27,1,,,,,サン,0
401,2050005013494,新規,0,2024-09-27,2024-09-27,医療法人社団とおる歯科クリニック,,その他の設立登記法人,茨城県,つくば市,島名４４３６番地（香取台Ｂ５７街区１）ガレリアヴェール１２１６号,,08,220,3002655,,,,,,,2024-09-27,1,,,,,トオルシカクリニック,0
402,2060001037521,新規,0,2024-09-27,2024-09-27,ライフイズワンダフル株式会社,,株式会社,栃木県,足利市,大前町６９５番地１富士ビル１Ｆ,,09,202,3260845,,,,,,,2024-09-27,1,,,,,ライフイズワンダフル,0
407,2080401027467,新規,0,2024-09-27,2024-09-27,株式会社ＤＲＫＳインターナショナル,,株式会社,静岡県,浜松市中央区,旭町６番地の１一条タワー３００４,,22,138,4300927,,,,,,,2024-09-27,1,,,,,ディーアールケーエスインターナショナル,0
408,2100001037863,新規,0,2024-09-27,2024-09-27,株式会社Ｏ‐ＣＲＥＷ,,株式会社,長野県,長野市,大岡甲７８２５番１,,20,201,3812704,,,,,,,2024-09-27,1,,,,,オークルー,0
412,2100003007798,新規,0,2024-09-27,2024-09-27,合同会社Ｃｉｒｃｌｅ,,合同会社,長野県,佐久市,瀬戸２５９７番地,,20,217,3850035,,,,,,,2024-09-27,1,,,,,サークル,0
414,2110001038720,新規,0,2024-09-27,2024-09-27,株式会社友進工業,,株式会社,新潟県,阿賀野市,みそら野町８番１２号,,15,223,9592006,,,,,,,2024-09-27,1,,,,,ユウシンコウギョウ,0
422,2120001268746,新規,0,2024-09-27,2024-09-27,株式会社Ｕｎｒｉｖａｌｅｄ,,株式会社,大阪府,大阪市鶴見区,横堤２丁目５番８０－４号,,27,124,5380052,,,,,,,2024-09-27,1,,,,,アンライバルド,0
423,2120001268779,新規,0,2024-09-27,2024-09-27,株式会社ＷＯＲＬＤ　ＧＡＴＥ,,株式会社,大阪府,大阪市中央区,南船場３丁目７番２９号５０１,,27,128,5420081,,,,,,,2024-09-27,1,,,,,ワールドゲート,0
424,2120001268787,新規,0,2024-09-27,2024-09-27,株式会社ワコズナイ,,株式会社,大阪府,大阪市福島区,玉川４丁目１５番１５号,,27,103,5530004,,,,,,,2024-09-27,1,,,,,ワコズナイ,0
425,2120001268804,新規,0,2024-09-27,2024-09-27,株式会社Ｌｕｃｃｉ,,株式会社,大阪府,大阪市北区,梅田１丁目２番２号大阪駅前第２ビル１２－１２,,27,127,5300001,,,,,,,2024-09-27,1,,,,,ルッチ,0
426,2120003027588,新規,0,2024-09-27,2024-09-27,合同会社大松,,合同会社,大阪府,大阪市東淀川区,下新庄５丁目２番１５号,,27,114,5330021,,,,,,,2024-09-27,1,,,,,ダイマツ,0
427,2120003027605,新規,0,2024-09-27,2024-09-27,Ｓｍｉｌｅｓ合同会社,,合同会社,大阪府,大阪市浪速区,恵美須西１丁目４－２３－５０８,,27,111,5560003,,,,,,,2024-09-27,1,,,,,スマイルズ,0
429,2120005024550,新規,0,2024-09-27,2024-09-27,一般社団法人社内ラジオ推進協会,,その他の設立登記法人,大阪府,守口市,金下町１丁目１０番８号,,27,209,5700079,,,,,,,2024-09-27,1,,,,,シャナイラジオスイシンキョウカイ,0
432,2120103006070,新規,0,2024-09-27,2024-09-27,合同会社オレンジ,,合同会社,大阪府,堺市堺区,翁橋町１丁８番６－１００３号,,27,141,5900061,,,,,,,2024-09-27,1,,,,,オレンジ,0
435,2120901049824,新規,0,2024-09-27,2024-09-27,株式会社むくのきスタジオ,,株式会社,大阪府,豊中市,本町１丁目１１番４号４階,,27,203,5600021,,,,,,,2024-09-27,1,,,,,ムクノキスタジオ,0
440,2130001078005,新規,0,2024-09-27,2024-09-27,株式会社ｆｓ　ｌａｂ,,株式会社,京都府,京都市下京区,七条通油小路東入大黒町２２７番地第２キョートビル４０２,,26,106,6008223,,,,,,,2024-09-27,1,,,,,エフエスラボ,0
441,2130001078021,新規,0,2024-09-27,2024-09-27,むらびとらべる株式会社,,株式会社,京都府,相楽郡南山城村,大字北大河原小字渋久３３番４,,26,367,6191411,,,,,,,2024-09-27,1,,,,,ムラビトラベル,0
443,2130003009882,新規,0,2024-09-27,2024-09-27,合同会社Ｗｉｎｄ,,合同会社,京都府,京都市下京区,七条通油小路東入大黒町２２７番地第２キョートビル４０２,,26,106,6008223,,,,,,,2024-09-27,1,,,,,ウィンド,0
450,2140001135878,新規,0,2024-09-27,2024-09-27,株式会社Ｃ．Ｃ．Ｒモビリティサービス,,株式会社,兵庫県,姫路市,白浜町甲４０２番地３２９,,28,201,6728023,,,,,,,2024-09-27,1,,,,,シーシーアールモビリティサービス,0
453,2140003021119,新規,0,2024-09-27,2024-09-27,合同会社ＢｏｎｈｅｕＲ,,合同会社,兵庫県,神戸市中央区,北長狭通２丁目６番７号,,28,110,6500012,,,,,,,2024-09-27,1,,,,,ボヌール,0
457,2160001026233,新規,0,2024-09-27,2024-09-27,嘉文雅宝株式会社,,株式会社,滋賀県,大津市,秋葉台９番２号,,25,201,5200822,,,,,,,2024-09-27,1,,,,,カブンガホウ,0
459,2180001163371,新規,0,2024-09-27,2024-09-27,株式会社Ｈｏｗｄｙ,,株式会社,愛知県,一宮市,木曽川町黒田字宝光寺東２５番地１,,23,203,4930001,,,,,,,2024-09-27,1,,,,,ハウディ,0
460,2180301039081,新規,0,2024-09-27,2024-09-27,株式会社幸成,,株式会社,愛知県,西尾市,一色町対米蒲池３３番地,,23,213,4440406,,,,,,,2024-09-27,1,,,,,コウセイ,0
461,2180303006278,新規,0,2024-09-27,2024-09-27,合同会社ＶａｎｉＥｓ,,合同会社,愛知県,安城市,小川町加美５８番地,,23,212,4441162,,,,,,,2024-09-27,1,,,,,バニエス,0
462,2190001031668,新規,0,2024-09-27,2024-09-27,株式会社姫野工業,,株式会社,三重県,四日市市,大字茂福２３１２番地１０,,24,202,5108027,,,,,,,2024-09-27,1,,,,,ヒメノコウギョウ,0
465,2200001042977,新規,0,2024-09-27,2024-09-27,株式会社大善,,株式会社,岐阜県,海津市,南濃町津屋２８３７番地１７１,,21,221,5030401,,,,,,,2024-09-27,1,,,,,ダイゼン,0
469,2200003006518,新規,0,2024-09-27,2024-09-27,エヌトップ合同会社,,合同会社,岐阜県,各務原市,各務山の前町４丁目１０２番地,,21,213,5090105,,,,,,,2024-09-27,1,,,,,エヌトップ,0
476,2240001063854,新規,0,2024-09-27,2024-09-27,株式会社イルナ,,株式会社,広島県,広島市佐伯区,八幡１丁目２２番１０号,,34,108,7315116,,,,,,,2024-09-27,1,,,,,イルナ,0
477,2240003006869,新規,0,2024-09-27,2024-09-27,おのみち行里合同会社,,合同会社,広島県,尾道市,土堂１丁目１２番１０号,,34,205,7220035,,,,,,,2024-09-27,1,,,,,オノミチユキサト,0
480,2260001039489,新規,0,2024-09-27,2024-09-27,ＥＰＩＦＡ株式会社,,株式会社,岡山県,岡山市南区,妹尾８２３番地２,,33,104,7010205,,,,,,,2024-09-27,1,,,,,エピファ,0
481,2270001009061,新規,0,2024-09-27,2024-09-27,株式会社Ｉｃａｎａ,,株式会社,鳥取県,鳥取市,河原町河原７２番地１１,,31,201,6801251,,,,,,,2024-09-27,1,,,,,アイカナ,0
491,2340003004615,新規,0,2024-09-27,2024-09-27,合同会社ＢＳＣ,,合同会社,鹿児島県,日置市,吹上町湯之浦１１７８番地,,46,216,8993303,,,,,,,2024-09-27,1,,,,,ビーエスシー,0
493,2360001034232,新規,0,2024-09-27,2024-09-27,株式会社ＲＥＫ　ｍｅｄｉｃａｌ,,株式会社,沖縄県,沖縄市,古謝津嘉山町１４番２９号,,47,211,9042166,,,,,,,2024-09-27,1,,,,,レックメディカル,0
495,2370001051747,新規,0,2024-09-27,2024-09-27,ｏｎｅ４ｅｃｏ株式会社,,株式会社,宮城県,仙台市青葉区,北目町４番７号,,04,101,9800023,,,,,,,2024-09-27,1,,,,,ワンフォーエコ,0
497,2370003006765,新規,0,2024-09-27,2024-09-27,サンエス合同会社,,合同会社,宮城県,仙台市泉区,南中山１丁目８番地の６,,04,105,9813213,,,,,,,2024-09-27,1,,,,,サンエス,0
507,2420001018880,新規,0,2024-09-27,2024-09-27,株式会社翔羽,,株式会社,青森県,弘前市,大字城西３丁目１１－１３,,02,202,0368275,,,,,,,2024-09-27,1,,,,,ショウワ,0
512,2430001092727,新規,0,2024-09-27,2024-09-27,フューチャーコミュニケーションズ株式会社,,株式会社,北海道,余市郡余市町,大川町９丁目４９番地５９,,01,408,0460004,,,,,,,2024-09-27,1,,,,,フューチャーコミュニケーションズ,0
513,2430001092743,新規,0,2024-09-27,2024-09-27,株式会社Ｅ．ＣＲＡＦＴ,,株式会社,北海道,石狩市,花川南七条４丁目２番地,,01,235,0613207,,,,,,,2024-09-27,1,,,,,イークラフト,0
516,2430003016808,新規,0,2024-09-27,2024-09-27,合同会社まぁじゅ,,合同会社,北海道,札幌市清田区,北野四条３丁目７番６号,,01,110,0040864,,,,,,,2024-09-27,1,,,,,マァジュ,0
517,2440001009498,新規,0,2024-09-27,2024-09-27,株式会社金澤商店,,株式会社,北海道,亀田郡七飯町,本町２丁目２０番３４号,,01,337,0411111,,,,,,,2024-09-27,1,,,,,カナザワショウテン,0
522,2500001025902,新規,0,2024-09-27,2024-09-27,株式会社Ｐｉｎｎａｃｌｅ,,株式会社,愛媛県,松山市,市坪南１丁目８番３号リヴェールマノワール２０１号,,38,201,7900947,,,,,,,2024-09-27,1,,,,,ピナクル,0
523,2500003003336,新規,0,2024-09-27,2024-09-27,合同会社希翔マリン,,合同会社,愛媛県,伊予市,米湊１５９６番地１２,,38,210,7993113,,,,,,,2024-09-27,1,,,,,キショウマリン,0
526,3010001248502,新規,0,2024-09-27,2024-09-27,ＪＰＡ第３１４号株式会社,,株式会社,東京都,千代田区,霞が関３丁目２番１号,,13,101,1000013,,,,,,,2024-09-27,1,,,,,ジェイピーエーダイサンビャクジュウヨンゴウ,0
527,3010001248510,新規,0,2024-09-27,2024-09-27,ＪＰＡ第３２２号株式会社,,株式会社,東京都,千代田区,霞が関３丁目２番１号,,13,101,1000013,,,,,,,2024-09-27,1,,,,,ジェイピーエーダイサンビャクニジュウニゴウ,0
528,3010001248543,新規,0,2024-09-27,2024-09-27,新泰株式会社,,株式会社,東京都,中央区,入船２丁目３－７築地エーアイユービル５階,,13,102,1040042,,,,,,,2024-09-27,1,,,,,シンタイ,0
529,3010001248592,新規,0,2024-09-27,2024-09-27,株式会社つくばフーズ,,株式会社,東京都,中央区,八丁堀２丁目１３番２号ドミノビル３０１号室,,13,102,1040032,,,,,,,2024-09-27,1,,,,,ツクバフーズ,0
533,3010003045022,新規,0,2024-09-27,2024-09-27,合同会社３ＴＦ,,合同会社,東京都,中央区,日本橋室町１丁目１１番１２号日本橋水野ビル７階,,13,102,1030022,,,,,,,2024-09-27,1,,,,,スリーティーエフ,0
542,3010403033502,新規,0,2024-09-27,2024-09-27,八十八合同会社,,合同会社,東京都,港区,南青山７丁目１番１２号,,13,103,1070062,,,,,,,2024-09-27,1,,,,,ヤソヤ,0
545,3010603011118,新規,0,2024-09-27,2024-09-27,合同会社ＥＳＴ,,合同会社,東京都,江東区,毛利１丁目１１－１１ハイム野沢１０１,,13,108,1350001,,,,,,,2024-09-27,1,,,,,エスト,0
547,3010703007362,新規,0,2024-09-27,2024-09-27,合同会社ＣＬＯＳＭ,,合同会社,東京都,品川区,北品川５丁目７番１４ー１００１号,,13,109,1410001,,,,,,,2024-09-27,1,,,,,カローサム,0
552,3010901056038,新規,0,2024-09-27,2024-09-27,株式会社ＣＯＣＯＲＯＯＤＯＲＵ,,株式会社,東京都,世田谷区,奥沢２丁目２１番３号,,13,112,1580083,,,,,,,2024-09-27,1,,,,,ココロオドル,0
557,3011001164870,新規,0,2024-09-27,2024-09-27,株式会社ｙｏｋａｚｅ,,株式会社,東京都,渋谷区,渋谷１丁目２番５号ＭＦＰＲビル８階,,13,113,1500002,,,,,,,2024-09-27,1,,,,,ヨカゼ,0
558,3011001164879,新規,0,2024-09-27,2024-09-27,みなみコンサル株式会社,,株式会社,東京都,渋谷区,道玄坂１丁目１０番８号渋谷道玄坂東急ビル２Ｆ‐Ｃ,,13,113,1500043,,,,,,,2024-09-27,1,,,,,ミナミコンサル,0
560,3011003020097,新規,0,2024-09-27,2024-09-27,Ｖａｒｙａｔｉｏｎ　Ｃｏｎｓｕｌｔｉｎｇ合同会社,,合同会社,東京都,目黒区,目黒４丁目９番１４号カーサフォーラム１０１,,13,110,1530063,,,,,,,2024-09-27,1,,,,,バリエーションコンサルティング,0
561,3011005010674,新規,0,2024-09-27,2024-09-27,医療法人社団Ｍｉｌｉｇｈｔ,,その他の設立登記法人,東京都,渋谷区,初台１丁目１１番１号サンエム初台マンション１階,,13,113,1510061,,,,,,,2024-09-27,1,,,,,ミライト,0
562,3011005010699,新規,0,2024-09-27,2024-09-27,一般社団法人ＫＭＩＩ　ＪＥＰＡＮＧ,,その他の設立登記法人,東京都,目黒区,目黒３丁目８番１０号パラスト目黒３丁目５０６,,13,110,1530063,,,,,,,2024-09-27,1,,,,,ケイエムアイアイジャパン,0
565,3011101108827,新規,0,2024-09-27,2024-09-27,Ｔｏｇｅｔｈｅｒ　Ｔｅｃｈ株式会社,,株式会社,東京都,新宿区,山吹町１６－３ザ・パークワンズ山吹神楽坂６０５,,13,104,1620801,,,,,,,2024-09-27,1,,,,,トゥゲザーテック,0
568,3011501031190,新規,0,2024-09-27,2024-09-27,株式会社きさらぎ,,株式会社,東京都,北区,志茂４丁目３９番５－３１７号サンセゾンＩ,,13,117,1150042,,,,,,,2024-09-27,1,,,,,キサラギ,0
575,3011801044891,新規,0,2024-09-27,2024-09-27,株式会社滋豊,,株式会社,東京都,足立区,弘道１丁目４番２０－２０１号,,13,121,1200013,,,,,,,2024-09-27,1,,,,,シゲト,0
578,3012401042311,新規,0,2024-09-27,2024-09-27,吉祥天株式会社,,株式会社,東京都,武蔵野市,吉祥寺本町２丁目３３番５号平井ビル３０６号,,13,203,1800004,,,,,,,2024-09-27,1,,,,,キッショウテン,0
591,3021001083319,新規,0,2024-09-27,2024-09-27,株式会社Ｒｅｌｉｅｒ,,株式会社,神奈川県,小田原市,城山１丁目２８番２５号ＵＤビル１０２号室,,14,206,2500045,,,,,,,2024-09-27,1,,,,,ルリエ,0
604,3030001162453,新規,0,2024-09-27,2024-09-27,核廃絶株式会社,,株式会社,埼玉県,入間郡三芳町,大字上富１９１６－１０,,11,324,3540045,,,,,,,2024-09-27,1,,,,,カクハイゼツ,0
605,3030001162593,新規,0,2024-09-27,2024-09-27,株式会社Ｓｙｓｔｅｍ　Ｙａｃｈｔ,,株式会社,埼玉県,吉川市,高富２丁目１０番１１,,11,243,3420036,,,,,,,2024-09-27,1,,,,,システムヨット,0
606,3030001162627,新規,0,2024-09-27,2024-09-27,株式会社ＢＯＵＮＤＺ,,株式会社,埼玉県,新座市,あたご３丁目４番１０号,,11,230,3520021,,,,,,,2024-09-27,1,,,,,バウンズ,0
607,3030001162651,新規,0,2024-09-27,2024-09-27,ＹＴＺＺ株式会社,,株式会社,埼玉県,川口市,大字木曽呂３２４番地の３グレイスフル２０２号,,11,203,3330831,,,,,,,2024-09-27,1,,,,,ヨトス,0
611,3030003025187,新規,0,2024-09-27,2024-09-27,花彩合同会社,,合同会社,埼玉県,比企郡滑川町,大字羽尾５９４番地１８,,11,341,3550811,,,,,,,2024-09-27,1,,,,,ハナイロ,0
615,3040001135524,新規,0,2024-09-27,2024-09-27,株式会社ＢＡＮＹＡＬ,,株式会社,千葉県,船橋市,東船橋２丁目３番８－１０１号,,12,204,2730002,,,,,,,2024-09-27,1,,,,,バニャル,0
618,3040003025847,新規,0,2024-09-27,2024-09-27,ＯＲＩＳＩＳ合同会社,,合同会社,千葉県,流山市,流山５丁目３２番５,,12,220,2700164,,,,,,,2024-09-27,1,,,,,オリシス,0
620,3040005022520,新規,0,2024-09-27,2024-09-27,一般社団法人日本治療技術検定協会,,その他の設立登記法人,千葉県,千葉市花見川区,南花園２丁目２番１５号第２３ＣＩビル１０２,,12,102,2620022,,,,,,,2024-09-27,1,,,,,ニホンチリョウギジュツケンテイキョウカイ,0
622,3050001055440,新規,0,2024-09-27,2024-09-27,株式会社Ｊ,,株式会社,茨城県,水戸市,大工町１丁目４番１２号,,08,201,3100031,,,,,,,2024-09-27,1,,,,,ジェイ,0
623,3050001055457,新規,0,2024-09-27,2024-09-27,株式会社Ｋ・Ｋａｓｓｙ,,株式会社,茨城県,ひたちなか市,大字佐和１８９１番地２６,,08,221,3120001,,,,,,,2024-09-27,1,,,,,ケイカッシー,0
628,3060001037520,新規,0,2024-09-27,2024-09-27,株式会社ＳＩＮＨＡ,,株式会社,栃木県,足利市,堀込町１７７番地１,,09,202,3260831,,,,,,,2024-09-27,1,,,,,シンハ,0
632,3090003002651,新規,0,2024-09-27,2024-09-27,合同会社エヌコミュニケーションズ,,合同会社,山梨県,山梨市,下神内川３６８－１,,19,205,4050017,,,,,,,2024-09-27,1,,,,,エヌコミュニケーションズ,0
637,3100001037862,新規,0,2024-09-27,2024-09-27,株式会社Ｌｉｅｎｊｏｕｘ,,株式会社,長野県,駒ヶ根市,赤穂１４３１番地２,,20,210,3994117,,,,,,,2024-09-27,1,,,,,リアンジュ,0
643,3110003005528,新規,0,2024-09-27,2024-09-27,合同会社吉澤,,合同会社,新潟県,新潟市東区,牡丹山１丁目２８番１６号,,15,102,9500872,,,,,,,2024-09-27,1,,,,,ヨシザワ,0
654,3120001268704,新規,0,2024-09-27,2024-09-27,浩汐株式会社,,株式会社,大阪府,大阪市西区,南堀江４丁目３番１９－７０３号,,27,106,5500015,,,,,,,2024-09-27,1,,,,,コウセキ,0
655,3120001268786,新規,0,2024-09-27,2024-09-27,株式会社ジャカランダ,,株式会社,大阪府,大阪市福島区,玉川４丁目１５番１５号,,27,103,5530004,,,,,,,2024-09-27,1,,,,,ジャカランダ,0
656,3120001268794,新規,0,2024-09-27,2024-09-27,株式会社Ｂｕｌｌ,,株式会社,大阪府,大阪市此花区,伝法１丁目１番１－２０１号,,27,104,5540002,,,,,,,2024-09-27,1,,,,,ブル,0
657,3120001268803,新規,0,2024-09-27,2024-09-27,Ｙ２ＫＨＯＭＥ株式会社,,株式会社,大阪府,大阪市城東区,放出西３丁目２０番７号,,27,118,5360011,,,,,,,2024-09-27,1,,,,,ワイツーケーホーム,0
658,3120001268811,新規,0,2024-09-27,2024-09-27,株式会社エヌアール,,株式会社,大阪府,大阪市平野区,長吉川辺１丁目１番５５号,,27,126,5470014,,,,,,,2024-09-27,1,,,,,エヌアール,0
663,3120103006061,新規,0,2024-09-27,2024-09-27,合同会社ＨＯＲＮｔｏＴＡＩＬ,,合同会社,大阪府,河内長野市,木戸３丁目２３－１－３,,27,216,5860001,,,,,,,2024-09-27,1,,,,,ホーントゥーテイル,0
665,3120901049823,新規,0,2024-09-27,2024-09-27,株式会社Ｌｚ,,株式会社,大阪府,豊中市,庄内東町２丁目２番８－４０３号,,27,203,5610831,,,,,,,2024-09-27,1,,,,,エルズ,0
666,3122001038467,新規,0,2024-09-27,2024-09-27,謙頤豊株式会社,,株式会社,大阪府,東大阪市,源氏ケ丘１番１３号４０４号室,,27,227,5770822,,,,,,,2024-09-27,1,,,,,ケンイホウ,0
667,3122001038475,新規,0,2024-09-27,2024-09-27,株式会社ＢＥ　ＴＥＣＨ,,株式会社,大阪府,東大阪市,高井田本通７丁目６番１０号,,27,227,5770066,,,,,,,2024-09-27,1,,,,,ビーテック,0
668,3122003003007,新規,0,2024-09-27,2024-09-27,合同会社由空,,合同会社,大阪府,大東市,三箇６丁目１１番１５号ベルヴェデール大東２０７号,,27,218,5740077,,,,,,,2024-09-27,1,,,,,ユラ,0
671,3130001078020,新規,0,2024-09-27,2024-09-27,株式会社エムズアーキ,,株式会社,京都府,八幡市,西山和気６番地１１,,26,210,6148352,,,,,,,2024-09-27,1,,,,,エムズアーキ,0
674,3140001135885,新規,0,2024-09-27,2024-09-27,株式会社ふたば,,株式会社,兵庫県,伊丹市,瑞原３丁目７０番７号,,28,207,6640005,,,,,,,2024-09-27,1,,,,,フタバ,0
675,3140003021118,新規,0,2024-09-27,2024-09-27,Ｆｌｏｒｉａｂｅａｕｔｙ合同会社,,合同会社,兵庫県,神戸市中央区,御幸通８丁目１番６号神戸国際会館２２Ｆ,,28,110,6510087,,,,,,,2024-09-27,1,,,,,フロリアビューティ,0
685,3180303006285,新規,0,2024-09-27,2024-09-27,合同会社あしすと,,合同会社,愛知県,西尾市,今川町元川原７６番地２,,23,213,4450063,,,,,,,2024-09-27,1,,,,,アシスト,0
690,3210001019924,新規,0,2024-09-27,2024-09-27,株式会社ＶｏｔｅＢｏｏｓｔ,,株式会社,福井県,福井市,日之出５丁目８－１１ベレオハレアカラ２０２,,18,201,9100859,,,,,,,2024-09-27,1,,,,,ボートブースト,0
695,3240001063845,新規,0,2024-09-27,2024-09-27,株式会社ショウセイ,,株式会社,広島県,尾道市,因島中庄町１６７３番地,,34,205,7222211,,,,,,,2024-09-27,1,,,,,ショウセイ,0
698,3250003003567,新規,0,2024-09-27,2024-09-27,合同会社ＺＥＲＯ,,合同会社,山口県,山口市,秋穂東６３０７番地１,,35,203,7541101,,,,,,,2024-09-27,1,,,,,ゼロ,0
703,3290005019517,新規,0,2024-09-27,2024-09-27,一般社団法人７Ｈｅａｒｔ,,その他の設立登記法人,福岡県,久留米市,北野町中４４８番地１,,40,203,8301113,,,,,,,2024-09-27,1,,,,,セブンハート,0
704,3300001013918,新規,0,2024-09-27,2024-09-27,ＫＫＳ株式会社,,株式会社,佐賀県,神埼郡吉野ヶ里町,田手１９２３番地３０,,41,327,8420035,,,,,,,2024-09-27,1,,,,,ケーケーエス,0
711,3350001019200,新規,0,2024-09-27,2024-09-27,株式会社くるみ,,株式会社,宮崎県,宮崎市,大淀２丁目７番１１号ベルヴィーユ大淀３Ｆ,,45,201,8800902,,,,,,,2024-09-27,1,,,,,クルミ,0
712,3360003014322,新規,0,2024-09-27,2024-09-27,Ｄｏｔ合同会社,,合同会社,沖縄県,那覇市,銘苅３丁目９－２２ＫＡキャンディービル２階,,47,201,9000004,,,,,,,2024-09-27,1,,,,,ドット,0
715,3370001051762,新規,0,2024-09-27,2024-09-27,小山マネジメントコミュニケーション株式会社,,株式会社,宮城県,石巻市,あけぼの３丁目３番地１２リッシュあけぼの１号,,04,202,9860862,,,,,,,2024-09-27,1,,,,,オヤママネジメントコミュニケーション,0
720,3380001034808,新規,0,2024-09-27,2024-09-27,株式会社福島薬局,,株式会社,福島県,福島市,宮下町５番３号,,07,201,9608011,,,,,,,2024-09-27,1,,,,,フクシマヤッキョク,0
725,3400005008441,新規,0,2024-09-27,2024-09-27,特定非営利活動法人静華学院,,その他の設立登記法人,岩手県,胆沢郡金ケ崎町,西根表小路３番地６,,03,381,0294503,,,,,,,2024-09-27,1,,,,,セイカガクイン,0
732,3430003016815,新規,0,2024-09-27,2024-09-27,渡部ポール合同会社,,合同会社,北海道,勇払郡安平町,追分本町１丁目４５－１,,01,585,0591911,,,,,,,2024-09-27,1,,,,,ワタベポール,0
752,4010001248352,新規,0,2024-09-27,2024-09-27,＿甲美館株式会社,00136413,株式会社,東京都,中央区,日本橋横山町６番１４号－５Ｆ,,13,102,1030003,,,,,,,2024-09-27,1,,,,,ゲンコウビカン,0
753,4010001248501,新規,0,2024-09-27,2024-09-27,ＪＰＡ第３１３号株式会社,,株式会社,東京都,千代田区,霞が関３丁目２番１号,,13,101,1000013,,,,,,,2024-09-27,1,,,,,ジェイピーエーダイサンビャクジュウサンゴウ,0
754,4010001248542,新規,0,2024-09-27,2024-09-27,Ｈｏｒｕｓ＆ａｉ株式会社,,株式会社,東京都,中央区,銀座２丁目１４番９号ＧＦビル,,13,102,1040061,,,,,,,2024-09-27,1,,,,,ホルスアンドアイ,0
762,4010101016337,新規,0,2024-09-27,2024-09-27,匠海商会株式会社,,株式会社,東京都,八王子市,小門町８番地１３,,13,201,1920054,,,,,,,2024-09-27,1,,,,,タクミショウカイ,0
770,4010401185385,新規,0,2024-09-27,2024-09-27,オルフォンズ・ジャパン株式会社,,株式会社,東京都,港区,西新橋１丁目２番９号日比谷セントラルビル１４階,,13,103,1050003,,,,,,,2024-09-27,1,,,,,オルフォンズジャパン,0
772,4010403033492,新規,0,2024-09-27,2024-09-27,Ｂｌａｃｋ　Ｍｏｏｎ　Ｃａｐｉｔａｌ合同会社,,合同会社,東京都,港区,六本木５丁目１３－１９ライオンズマンション３０３,,13,103,1060032,,,,,,,2024-09-27,1,,,,,ブラックムーンキャピタル,0
773,4010601065981,新規,0,2024-09-27,2024-09-27,株式会社ＭＯＧＡＴＥＸ,,株式会社,東京都,墨田区,亀沢４丁目５番６－１０１号,,13,107,1300014,,,,,,,2024-09-27,1,,,,,モガテキ,0
774,4010603011117,新規,0,2024-09-27,2024-09-27,合同会社ｋａｅｄｅ,,合同会社,東京都,江東区,常盤２丁目１３番１４－１２０６号,,13,108,1350006,,,,,,,2024-09-27,1,,,,,カエデ,0
784,4011001164820,新規,0,2024-09-27,2024-09-27,Ｅａｓｔ　Ｆｏｒｔｕｎｅ　Ｒｅｓｔａｕｒａｎｔｓ　Ｍａｎａｇｅｍｅｎｔ株式会社,,株式会社,東京都,渋谷区,恵比寿南１丁目１７番１７号ＴｉｍｅＺｏｎｅテラスビル３階全号室,,13,113,1500022,,,,,,,2024-09-27,1,,,,,イーストフォーチュンレストランツマネジメント,0
785,4011003020096,新規,0,2024-09-27,2024-09-27,合同会社ＣＵＥＮ,,合同会社,東京都,目黒区,青葉台４丁目４番１２－１２１１号,,13,110,1530042,,,,,,,2024-09-27,1,,,,,キューン,0
786,4011005010681,新規,0,2024-09-27,2024-09-27,幸來路税理士法人,,その他の設立登記法人,東京都,目黒区,中目黒３丁目１２番１９号幸來路ビル５階,,13,110,1530061,,,,,,,2024-09-27,1,,,,,シンライルー,0
789,4011101108917,新規,0,2024-09-27,2024-09-27,株式会社ＡＱＵＡ,,株式会社,東京都,新宿区,西新宿３丁目３番１３号西新宿水間ビル６階,,13,104,1600023,,,,,,,2024-09-27,1,,,,,アクア,0
790,4011103014989,新規,0,2024-09-27,2024-09-27,合同会社匠良品,,合同会社,東京都,新宿区,西新宿３丁目３番１３号西新宿水間ビル２Ｆ,,13,104,1600023,,,,,,,2024-09-27,1,,,,,タクミリョウヒン,0
794,4011701027640,新規,0,2024-09-27,2024-09-27,株式会社城信建設,,株式会社,東京都,江戸川区,東葛西７丁目２０番３１号マンションルピナス２０３,,13,123,1340084,,,,,,,2024-09-27,1,,,,,ジョウシンケンセツ,0
796,4011801044899,新規,0,2024-09-27,2024-09-27,承安株式会社,,株式会社,東京都,葛飾区,東金町３丁目７番４－１０５号プレミスト金町,,13,122,1250041,,,,,,,2024-09-27,1,,,,,ショウアン,0
800,4012305002105,新規,0,2024-09-27,2024-09-27,一般社団法人ヘルスプロモーションセンター,,その他の設立登記法人,東京都,町田市,玉川学園４丁目１０番２３号,,13,209,1940041,,,,,,,2024-09-27,1,,,,,ヘルスプロモーションセンター,0
803,4013103001372,新規,0,2024-09-27,2024-09-27,ＡＤＶＥＮＴＵＲＥＲ合同会社,,合同会社,東京都,羽村市,富士見平２丁目１９番地６アーバイン１０３,,13,227,2050013,,,,,,,2024-09-27,1,,,,,,0
808,4013301053133,新規,0,2024-09-27,2024-09-27,アルコープ株式会社,,株式会社,東京都,豊島区,巣鴨３丁目３４番１０号イーグル巣鴨３０５,,13,116,1700002,,,,,,,2024-09-27,1,,,,,アルコープ,0
813,4020001159391,新規,0,2024-09-27,2024-09-27,株式会社Ａｃｃａｎｔｏ,,株式会社,神奈川県,川崎市高津区,溝口３丁目６番８号,,14,134,2130001,,,,,,,2024-09-27,1,,,,,アカント,0
814,4020001159409,新規,0,2024-09-27,2024-09-27,株式会社桜関,,株式会社,神奈川県,横浜市西区,老松町３８番地５,,14,103,2200032,,,,,,,2024-09-27,1,,,,,オウゼキ,0
825,4021001083301,新規,0,2024-09-27,2024-09-27,日本三千甲文化株式会社,,株式会社,神奈川県,秦野市,南矢名２２２３番地の４東海ビル１０２Ａ,,14,211,2570003,,,,,,,2024-09-27,1,,,,,ニホンサンゼンカブンカ,0
826,4021001083318,新規,0,2024-09-27,2024-09-27,株式会社可視化研究所,,株式会社,神奈川県,平塚市,東八幡１丁目１５番４－２０５号メゾンクレール,,14,203,2540016,,,,,,,2024-09-27,1,,,,,カシカケンキュウジョ,0
829,4021005013188,新規,0,2024-09-27,2024-09-27,一般社団法人児童支援リリーブ,,その他の設立登記法人,神奈川県,大和市,上和田３４１８番地５,,14,213,2420014,,,,,,,2024-09-27,1,,,,,ジドウシエンリリーブ,0
835,4030001162642,新規,0,2024-09-27,2024-09-27,株式会社長谷川建設,,株式会社,埼玉県,川口市,飯原町５番１６号,,11,203,3320024,,,,,,,2024-09-27,1,,,,,ハセガワケンセツ,0
836,4030001162650,新規,0,2024-09-27,2024-09-27,ツツミ金属株式会社,,株式会社,埼玉県,草加市,原町３丁目６番２号,,11,221,3400048,,,,,,,2024-09-27,1,,,,,ツツミキンゾク,0
843,4030003025186,新規,0,2024-09-27,2024-09-27,ＦＯＭＯＴＡＲ　ＩＮＴＥＲＮＡＴＩＯＮＡＬ合同会社,,合同会社,埼玉県,草加市,氷川町２１２２－３コーポ葉月２０３号,,11,221,3400034,,,,,,,2024-09-27,1,,,,,フォモターインターナショナル,0
844,4030005021860,新規,0,2024-09-27,2024-09-27,一般社団法人再生可能エネルギー・評価リサイクル協会,,その他の設立登記法人,埼玉県,熊谷市,佐谷田３７１－１４,,11,202,3600023,,,,,,,2024-09-27,1,,,,,サイセイカノウエネルギーヒョウカリサイクルキョウカイ,0
859,4040003025838,新規,0,2024-09-27,2024-09-27,合同会社Ｌａｙｌａ,,合同会社,千葉県,千葉市花見川区,幕張町４丁目６５１番地１,,12,102,2620032,,,,,,,2024-09-27,1,,,,,レイラ,0
860,4040003025854,新規,0,2024-09-27,2024-09-27,合同会社サンボックス,,合同会社,千葉県,松戸市,日暮１丁目２番６号勝どきビル４０１,,12,207,2702253,,,,,,,2024-09-27,1,,,,,サンボックス,0
861,4040003025862,新規,0,2024-09-27,2024-09-27,Ｇ‐ＲＥＳＯＲＴ合同会社,,合同会社,千葉県,千葉市中央区,松波１丁目７番１０号フィネス松波３０２号,,12,101,2600044,,,,,,,2024-09-27,1,,,,,ジーリゾート,0
864,4050001055456,新規,0,2024-09-27,2024-09-27,株式会社ＫＳ工業,,株式会社,茨城県,結城市,大字小森字下坪８３番地,,08,207,3070011,,,,,,,2024-09-27,1,,,,,ケーエスコウギョウ,0
870,4070001042213,新規,0,2024-09-27,2024-09-27,株式会社アンロックワークス,,株式会社,群馬県,前橋市,城東町５丁目３番１４－１０３号アッコラファースト,,10,201,3710016,,,,,,,2024-09-27,1,,,,,アンロックワークス,0
890,4120001268711,新規,0,2024-09-27,2024-09-27,株式会社全日本不動産,,株式会社,大阪府,大阪市中央区,安土町１丁目７－２０（９Ｆ）,,27,128,5410052,,,,,,,2024-09-27,1,,,,,ゼンニッポンフドウサン,0
891,4120001268802,新規,0,2024-09-27,2024-09-27,株式会社ｗａｖｅｒ,,株式会社,大阪府,大阪市西区,江戸堀３丁目１－１９フェスタ江戸堀８Ｆ,,27,106,5500002,,,,,,,2024-09-27,1,,,,,ウェイバー,0
892,4120001268810,新規,0,2024-09-27,2024-09-27,関西令和総合警備サービス株式会社,,株式会社,大阪府,大阪市北区,南扇町７番２１－８０２号,,27,127,5300052,,,,,,,2024-09-27,1,,,,,カンサイレイワソウゴウケイビサービス,0
895,4120003027537,新規,0,2024-09-27,2024-09-27,合同会社ＪＫ,,合同会社,大阪府,守口市,滝井元町３丁目９番２号１０１号室,,27,209,5700065,,,,,,,2024-09-27,1,,,,,ジェケー,0
896,4120003027611,新規,0,2024-09-27,2024-09-27,Ｂ‐Ｐｌａｎｎｉｎｇ合同会社,,合同会社,大阪府,大阪市北区,梅田１丁目１１番４－９２３号,,27,127,5300001,,,,,,,2024-09-27,1,,,,,ビープランニング,0
899,4120101070323,新規,0,2024-09-27,2024-09-27,株式会社新進工業,,株式会社,大阪府,松原市,東新町２丁目１５９－２,,27,217,5800024,,,,,,,2024-09-27,1,,,,,シンシンコウギョウ,0
900,4120101070331,新規,0,2024-09-27,2024-09-27,Ｎｉｃｅ株式会社,,株式会社,大阪府,岸和田市,河合町１９５７－１,,27,202,5960113,,,,,,,2024-09-27,1,,,,,ナイス,0
903,4120901049814,新規,0,2024-09-27,2024-09-27,株式会社豊一,,株式会社,大阪府,豊中市,名神口１丁目１番２６号Ｂ棟１０２,,27,203,5610841,,,,,,,2024-09-27,1,,,,,トヨイチ,0
906,4130001078003,新規,0,2024-09-27,2024-09-27,株式会社Ｒｉｓｅホールディングス,,株式会社,京都府,京都市山科区,小野西浦２６番地,,26,110,6078258,,,,,,,2024-09-27,1,,,,,ライズホールディングス,0
907,4130003009880,新規,0,2024-09-27,2024-09-27,合同会社ｎｅｘｔ　ｏｎｅ,,合同会社,京都府,京都市伏見区,西大手町３２５番地オリュザ西大手５０４,,26,109,6128362,,,,,,,2024-09-27,1,,,,,ネクストワン,0
908,4140001135884,新規,0,2024-09-27,2024-09-27,株式会社幸産業開発,,株式会社,兵庫県,尼崎市,汐町５２番地ＯＡマンション２０２号,,28,202,6600866,,,,,,,2024-09-27,1,,,,,,0
909,4140001135892,新規,0,2024-09-27,2024-09-27,株式会社ＡＧＲＥＥ,,株式会社,兵庫県,宝塚市,武庫山１丁目１１番２１号,,28,214,6650005,,,,,,,2024-09-27,1,,,,,アグリー,0
910,4140001135918,新規,0,2024-09-27,2024-09-27,株式会社Ｏｈａｎａ　Ｃａｒｅ,,株式会社,兵庫県,神戸市中央区,中山手通３丁目７－２８－１１０１号,,28,110,6500004,,,,,,,2024-09-27,1,,,,,オハナケア,0
912,4140003021100,新規,0,2024-09-27,2024-09-27,合同会社ＴＡｘＴ,,合同会社,兵庫県,三木市,緑が丘町中１丁目６－２２第一盛ビル１Ｆ東側,,28,215,6730532,,,,,,,2024-09-27,1,,,,,タクト,0
915,4170001018319,新規,0,2024-09-27,2024-09-27,日進プロパン株式会社,,株式会社,和歌山県,和歌山市,加納２０番地３,,30,201,6408391,,,,,,,2024-09-27,1,,,,,ニッシンプロパン,0
916,4180001163270,新規,0,2024-09-27,2024-09-27,Ｈｉｌｌ　Ｔｒｅｎｄ株式会社,,株式会社,愛知県,名古屋市守山区,翠松園２丁目２１８番地の３,,23,113,4630010,,,,,,,2024-09-27,1,,,,,ヒルトレンド,0
917,4180001163312,新規,0,2024-09-27,2024-09-27,日本環境整備機構株式会社,,株式会社,愛知県,名古屋市中区,錦２丁目４番３号錦パークビル２１０１号,,23,106,4600003,,,,,,,2024-09-27,1,,,,,ニホンカンキョウセイビキコウ,0
918,4180001163378,新規,0,2024-09-27,2024-09-27,株式会社ＧＭＷ,,株式会社,愛知県,名古屋市西区,上名古屋２丁目２２番１号（エルブ浄心４０９号）,,23,104,4510025,,,,,,,2024-09-27,1,,,,,ジーエムダブリュー,0
919,4180001163428,新規,0,2024-09-27,2024-09-27,株式会社ＺＡＩＮ　ＩＮＴＥＲＮＡＴＩＯＮＡＬ,,株式会社,愛知県,名古屋市港区,高木町１丁目３７番地の１マンションキムラ２０４号,,23,111,4550821,,,,,,,2024-09-27,1,,,,,ゼインインターナショナル,0
924,4180303006284,新規,0,2024-09-27,2024-09-27,合同会社ｋｏｄａ,,合同会社,愛知県,額田郡幸田町,大字芦谷字要善２番地１５,,23,501,4440116,,,,,,,2024-09-27,1,,,,,ケイオーディーエー,0
928,4200001042967,新規,0,2024-09-27,2024-09-27,株式会社クリエートリンク,,株式会社,岐阜県,岐阜市,清住町２丁目４番地１セントマークス弐番館１４０６,,21,201,5008178,,,,,,,2024-09-27,1,,,,,クリエートリンク,0
945,4300001013917,新規,0,2024-09-27,2024-09-27,株式会社ｋａｎｔｅ,,株式会社,佐賀県,三養基郡基山町,大字園部２７７１番地２,,41,341,8410203,,,,,,,2024-09-27,1,,,,,カンテ,0
946,4310001019211,新規,0,2024-09-27,2024-09-27,株式会社Ｉ　ＬｏｖｅファームＷｏｒｋｓ,,株式会社,長崎県,五島市,高田町１９２８番１号,,42,211,8530043,,,,,,,2024-09-27,1,,,,,アイラブファームワークス,0
948,4330001032484,新規,0,2024-09-27,2024-09-27,株式会社黒亭本社,,株式会社,熊本県,熊本市西区,二本木２丁目４番４号,,43,103,8600051,,,,,,,2024-09-27,1,,,,,コクテイホンシャ,0
949,4340003004613,新規,0,2024-09-27,2024-09-27,合同会社エコアイ,,合同会社,鹿児島県,志布志市,志布志町帖３６２４番地２,,46,221,8997102,,,,,,,2024-09-27,1,,,,,エコアイ,0
950,4340005009775,新規,0,2024-09-27,2024-09-27,一般社団法人鹿児島守人,,その他の設立登記法人,鹿児島県,鹿児島市,中山町４２番地８,,46,201,8910105,,,,,,,2024-09-27,1,,,,,カゴシマモリト,0
956,4350001019199,新規,0,2024-09-27,2024-09-27,ＧＯＥＡＮ株式会社,,株式会社,宮崎県,北諸県郡三股町,大字蓼池４１９６番地５,,45,341,8891914,,,,,,,2024-09-27,1,,,,,ゴエアン,0
958,4360001034222,新規,0,2024-09-27,2024-09-27,株式会社嘉風,,株式会社,沖縄県,那覇市,牧志２丁目１７－２７,,47,201,9000013,,,,,,,2024-09-27,1,,,,,カフウ,0
962,4370001051761,新規,0,2024-09-27,2024-09-27,株式会社セレブリティオート,,株式会社,宮城県,仙台市青葉区,昭和町３番７－１１０６号,,04,101,9810913,,,,,,,2024-09-27,1,,,,,セレブリティオート,0
967,4380001034807,新規,0,2024-09-27,2024-09-27,株式会社Ｏ．Ｖ．Ｒ‐ＷＯＲＫＳ,,株式会社,福島県,いわき市,小名浜相子島字石田４４番地の３,,07,204,9718123,,,,,,,2024-09-27,1,,,,,オーブイアールワークス,0
968,4380005012866,新規,0,2024-09-27,2024-09-27,土地家屋調査士法人グランドサーベイ,,その他の設立登記法人,福島県,郡山市,鶴見坦１丁目６番３４号,,07,203,9638861,,,,,,,2024-09-27,1,,,,,グランドサーベイ,0
969,4390001017752,新規,0,2024-09-27,2024-09-27,株式会社佳金属,,株式会社,山形県,鶴岡市,安丹字村上１番地１,,06,203,9970057,,,,,,,2024-09-27,1,,,,,ヨシキンゾク,0
976,4430001092758,新規,0,2024-09-27,2024-09-27,恵庭システムズ株式会社,,株式会社,北海道,恵庭市,住吉町３丁目６番３号,,01,231,0611441,,,,,,,2024-09-27,1,,,,,エニワシステムズ,0
979,4430005015079,新規,0,2024-09-27,2024-09-27,一般社団法人北海道スポーツ文化芸術国際交流協会,,その他の設立登記法人,北海道,札幌市北区,北七条西４丁目１番１号トーカン札幌第一キャステール６０７,,01,102,0600807,,,,,,,2024-09-27,1,,,,,ホッカイドウスポーツブンカゲイジュツコクサイコウリュウキョウカイ,0
981,4470001020392,新規,0,2024-09-27,2024-09-27,株式会社福土,,株式会社,香川県,丸亀市,垂水町１０４３番地１,,37,202,7630095,,,,,,,2024-09-27,1,,,,,フクド,0
984,4480001012604,新規,0,2024-09-27,2024-09-27,東騰株式会社,,株式会社,徳島県,勝浦郡上勝町,大字生実字下野７９番地,,36,302,7714503,,,,,,,2024-09-27,1,,,,,トウトウ,0
992,5010001248500,新規,0,2024-09-27,2024-09-27,ＪＰＡ第３１２号株式会社,,株式会社,東京都,千代田区,霞が関３丁目２番１号,,13,101,1000013,,,,,,,2024-09-27,1,,,,,ジェイピーエーダイサンビャクジュウニゴウ,0
993,5010001248509,新規,0,2024-09-27,2024-09-27,ＪＰＡ第３２１号株式会社,,株式会社,東京都,千代田区,霞が関３丁目２番１号,,13,101,1000013,,,,,,,2024-09-27,1,,,,,ジェイピーエーダイサンビャクニジュウイチゴウ,0
994,5010001248558,新規,0,2024-09-27,2024-09-27,株式会社ＴＲＵＥ　ＮＯＷ,,株式会社,東京都,文京区,大塚２丁目１４－５音羽パークホームズ４０２,,13,105,1120012,,,,,,,2024-09-27,1,,,,,ツルーナウ,0
995,5010005038864,新規,0,2024-09-27,2024-09-27,一般社団法人ハイクラス女子会,,その他の設立登記法人,東京都,中央区,銀座１丁目１２番４号Ｎ＆ＥＢＬＤ．６階,,13,102,1040061,,,,,,,2024-09-27,1,,,,,ハイクラスジョシカイ,0
996,5010005038872,新規,0,2024-09-27,2024-09-27,一般社団法人ＣＢ２,,その他の設立登記法人,東京都,中央区,日本橋１丁目４番１号,,13,102,1030027,,,,,,,2024-09-27,1,,,,,シービーツー,0
1002,5010401185327,新規,0,2024-09-27,2024-09-27,アメラシアＳ＆Ｔジャパン株式会社,,株式会社,東京都,港区,新橋２丁目２０番１５号新橋駅前ビル１号館４階,,13,103,1050004,,,,,,,2024-09-27,1,,,,,アメラシアエスアンドティージャパン,0
1005,5010403033491,新規,0,2024-09-27,2024-09-27,グリーンドットコムジャパン合同会社,,合同会社,東京都,港区,赤坂９丁目１番７号,,13,103,1070052,,,,,,,2024-09-27,1,,,,,グリーンドットコムジャパン,0
1008,5010601065989,新規,0,2024-09-27,2024-09-27,ＭｙＴＨ株式会社,,株式会社,東京都,江東区,有明１丁目２番１１,,13,108,1350063,,,,,,,2024-09-27,1,,,,,マイス,0
1009,5010601065997,新規,0,2024-09-27,2024-09-27,株式会社ｉｎｖｅｒｓｉｏｎ,,株式会社,東京都,江東区,有明１丁目３番１４－１４０７号,,13,108,1350063,,,,,,,2024-09-27,1,,,,,インヴェルシオン,0
1012,5010701046575,新規,0,2024-09-27,2024-09-27,株式会社トラディションホールディングス,,株式会社,東京都,品川区,上大崎３丁目１番２号,,13,109,1410021,,,,,,,2024-09-27,1,,,,,,0
1015,5011001164877,新規,0,2024-09-27,2024-09-27,株式会社Ｐｏｌａｒｉｓ,,株式会社,東京都,渋谷区,道玄坂１丁目１０番８号渋谷道玄坂東急ビル２Ｆ－Ｃ,,13,113,1500043,,,,,,,2024-09-27,1,,,,,ポラリス,0
1016,5011001164919,新規,0,2024-09-27,2024-09-27,ＯＵＴＲＩＧＧＥＲ　ＨＯＳＰＩＴＡＬＩＴＹ　ＪＡＰＡＮ株式会社,,株式会社,東京都,渋谷区,神宮前１丁目５番８号神宮前タワービルディング１４階,,13,113,1500001,,,,,,,2024-09-27,1,,,,,アウトリガーホスピタリティジャパン,0
1020,5011003020079,新規,0,2024-09-27,2024-09-27,Ｄｒｅｈｐｕｎｋｔ合同会社,,合同会社,東京都,渋谷区,代官山町７番７－４０１号,,13,113,1500034,,,,,,,2024-09-27,1,,,,,ドレープンクト,0
1024,5011303005300,新規,0,2024-09-27,2024-09-27,合同会社グランツ,,合同会社,東京都,杉並区,今川２丁目１０番８号,,13,115,1670035,,,,,,,2024-09-27,1,,,,,グランツ,0
1027,5011501031189,新規,0,2024-09-27,2024-09-27,株式会社赤蜻蛉,,株式会社,東京都,北区,十条仲原１丁目２６番５号鳥芳ビル３０４号室,,13,117,1140031,,,,,,,2024-09-27,1,,,,,アカトンボ,0
1028,5011705001855,新規,0,2024-09-27,2024-09-27,一般社団法人ＣＶＷＪＡＰＡＮ,,その他の設立登記法人,東京都,江戸川区,東小岩２丁目１８番,,13,123,1330052,,,,,,,2024-09-27,1,,,,,シーブイダブリュージャパン,0
1030,5011801044824,新規,0,2024-09-27,2024-09-27,金龍株式会社,,株式会社,東京都,葛飾区,新小岩２丁目７－１１－２Ｆ,,13,122,1240024,,,,,,,2024-09-27,1,,,,,キンリュウ,0
1032,5011805003396,新規,0,2024-09-27,2024-09-27,一般社団法人ママに優しいニューボーンフォト普及協会,,その他の設立登記法人,東京都,葛飾区,東新小岩２丁目７番５－５０２号,,13,122,1240023,,,,,,,2024-09-27,1,,,,,ママニヤサシイニューボーンフォトフキュウキョウカイ,0
1035,5012701018471,新規,0,2024-09-27,2024-09-27,ウッディ・アンド・パートナーズ株式会社,,株式会社,東京都,小平市,花小金井南町２丁目１３番地１８－６号,,13,211,1870003,,,,,,,2024-09-27,1,,,,,ウッディアンドパートナーズ,0
1051,5020001159358,新規,0,2024-09-27,2024-09-27,ＮｅｔＬｉｎｋ株式会社,,株式会社,神奈川県,横浜市西区,浅間町１丁目４番３号ウィザードビル４０２,,14,103,2200072,,,,,,,2024-09-27,1,,,,,ネットリンク,0
1055,5021001083317,新規,0,2024-09-27,2024-09-27,株式会社はなぶさ,,株式会社,神奈川県,鎌倉市,雪ノ下１丁目８番３９号,,14,204,2480005,,,,,,,2024-09-27,1,,,,,ハナブサ,0
1056,5021001083325,新規,0,2024-09-27,2024-09-27,株式会社神谷,,株式会社,神奈川県,相模原市南区,新磯野２丁目４１番１号,,14,153,2520325,,,,,,,2024-09-27,1,,,,,カミヤ,0
1060,5021003015053,新規,0,2024-09-27,2024-09-27,合同会社板倉商会,,合同会社,神奈川県,大和市,中央林間西４丁目９―２８,,14,213,2420008,,,,,,,2024-09-27,1,,,,,イタクラショウカイ,0
1061,5021005013187,新規,0,2024-09-27,2024-09-27,社会保険労務士法人わたなべ社会保険労務士事務所,,その他の設立登記法人,神奈川県,横須賀市,米が浜通１丁目７番地２サクマ横須賀ビル２０３,,14,201,2380011,,,,,,,2024-09-27,1,,,,,ワタナベシャカイホケンロウムシジムショ,0
1066,5030001162625,新規,0,2024-09-27,2024-09-27,株式会社共進,,株式会社,埼玉県,川口市,大字安行吉蔵３０１番地４５,,11,203,3340053,,,,,,,2024-09-27,1,,,,,キョウシン,0
1067,5030001162641,新規,0,2024-09-27,2024-09-27,株式会社ＭＹ　ＰＬＡＣＥ,,株式会社,埼玉県,東松山市,あずま町３丁目１番地１６７,,11,212,3550048,,,,,,,2024-09-27,1,,,,,マイプレイス,0
1073,5040001135530,新規,0,2024-09-27,2024-09-27,サン・キャット株式会社,,株式会社,千葉県,木更津市,清見台南１丁目１１番１号,,12,206,2920042,,,,,,,2024-09-27,1,,,,,サンキャット,0
1075,5040003025837,新規,0,2024-09-27,2024-09-27,合同会社Ｙｕｙａ,,合同会社,千葉県,千葉市美浜区,中瀬１丁目６,,12,106,2610023,,,,,,,2024-09-27,1,,,,,ユウヤ,0
1077,5050001055406,新規,0,2024-09-27,2024-09-27,株式会社Ｎ２Ｕ　ＴＲＡＤＩＮＧ,,株式会社,茨城県,常総市,大輪町９９３番地１,,08,211,3002512,,,,,,,2024-09-27,1,,,,,エヌツーユートレーディング,0
1078,5050001055430,新規,0,2024-09-27,2024-09-27,株式会社ＭＩＫＥ　ＲＡＣＩＮＧ,,株式会社,茨城県,坂東市,岩井２２７９番地１,,08,228,3060631,,,,,,,2024-09-27,1,,,,,マイキレーシング,0
1082,5060003005259,新規,0,2024-09-27,2024-09-27,ＳＩＤＤＩＱ　ＴＲＡＤＩＮＧ合同会社,,合同会社,栃木県,栃木市,藤岡町甲２１０４番地１,,09,203,3231105,,,,,,,2024-09-27,1,,,,,シディクトレーディング,0
1087,5080103003152,新規,0,2024-09-27,2024-09-27,合同会社エイチワン,,合同会社,静岡県,駿東郡長泉町,南一色９０番地の１３,,22,342,4110932,,,,,,,2024-09-27,1,,,,,エイチワン,0
1092,5090001018920,新規,0,2024-09-27,2024-09-27,株式会社ティアドロップ,,株式会社,山梨県,甲府市,岩窪町３５９－１２,,19,201,4000013,,,,,,,2024-09-27,1,,,,,ティアドロップ,0
1094,5100001037860,新規,0,2024-09-27,2024-09-27,株式会社ＮＯＬＩＳ,,株式会社,長野県,長野市,大字安茂里３６５３番地,,20,201,3800941,,,,,,,2024-09-27,1,,,,,ノリス,0
1104,5120001268644,新規,0,2024-09-27,2024-09-27,辻工業株式会社,00136415,株式会社,大阪府,枚方市,東香里元町４番３６号,,27,210,5730076,,,,,,,2024-09-27,1,,,,,ツジコウギョウ,0
1105,5120001268735,新規,0,2024-09-27,2024-09-27,佑泰株式会社,,株式会社,大阪府,大阪市生野区,巽北１丁目１番１号１Ｆ－Ｆ,00136424,27,116,5440004,,,,,,,2024-09-27,1,,,,,ユウタイ,0
1106,5120001268776,新規,0,2024-09-27,2024-09-27,星貿株式会社,,株式会社,大阪府,大阪市東淀川区,北江口２丁目１０番１８号１０６室,,27,114,5330002,,,,,,,2024-09-27,1,,,,,セイボウ,0
1107,5120001268784,新規,0,2024-09-27,2024-09-27,ＮＫＨホールディングス株式会社,,株式会社,大阪府,大阪市住之江区,南港南１丁目１－１８１,,27,125,5590032,,,,,,,2024-09-27,1,,,,,エヌケーエイチホールディングス,0
1108,5120001268801,新規,0,2024-09-27,2024-09-27,株式会社ＴＨＲＥＥ　ＢＲＯ,,株式会社,大阪府,大阪市中央区,瓦町４丁目７－８本町東栄ビル３０１号室,,27,128,5410048,,,,,,,2024-09-27,1,,,,,スリーブロ,0
1109,5120003027602,新規,0,2024-09-27,2024-09-27,合同会社スマイルライフ,,合同会社,大阪府,大阪市西区,靱本町１丁目１０番７－３６０１号,,27,106,5500004,,,,,,,2024-09-27,1,,,,,スマイルライフ,0
1111,5120005024548,新規,0,2024-09-27,2024-09-27,一般社団法人デフノバ,,その他の設立登記法人,大阪府,大阪市東成区,中道３丁目３番３１号中村ハイツ３０１号,,27,115,5370025,,,,,,,2024-09-27,1,,,,,デフノバ,0
1113,5120901049813,新規,0,2024-09-27,2024-09-27,ＡＴＯＭＳ株式会社,,株式会社,大阪府,箕面市,萱野１丁目１０番３－１０８号,,27,220,5620014,,,,,,,2024-09-27,1,,,,,アトモス,0
1115,5122001038473,新規,0,2024-09-27,2024-09-27,株式会社Ｍｏｖｅ　Ｉｍｐａｃｔ,,株式会社,大阪府,東大阪市,小若江３丁目６番９号近畿大学ＫＩＮＣＵＢＡＢａｓｅＣａｍｐ,,27,227,5770818,,,,,,,2024-09-27,1,,,,,ムーブインパクト,0
1132,5140001135909,新規,0,2024-09-27,2024-09-27,株式会社横倉電工,,株式会社,兵庫県,神戸市長田区,大日丘町３丁目４番７号,,28,106,6530872,,,,,,,2024-09-27,1,,,,,ヨコクラデンコウ,0
1142,5180001163377,新規,0,2024-09-27,2024-09-27,株式会社ＳＫ　ＨＯＬＤＩＮＧＳ,,株式会社,愛知県,名古屋市港区,小碓２丁目８２番地,,23,111,4550801,,,,,,,2024-09-27,1,,,,,エスケーホールディングス,0
1143,5180001163393,新規,0,2024-09-27,2024-09-27,株式会社トラストデジタルラボラトリー,,株式会社,愛知県,名古屋市南区,平子２丁目８番地の１,,23,112,4570001,,,,,,,2024-09-27,1,,,,,トラストデジタルラボラトリー,0
1153,5200001042974,新規,0,2024-09-27,2024-09-27,株式会社アストラＳｏｐｈｉａ,,株式会社,岐阜県,岐阜市,入舟町４丁目１０番地,,21,201,5008152,,,,,,,2024-09-27,1,,,,,アストラソフィア,0
1163,5230003002305,新規,0,2024-09-27,2024-09-27,合同会社ＣＨＡＫＩ,,合同会社,富山県,富山市,粟島町２丁目３番２４号,,16,201,9318314,,,,,,,2024-09-27,1,,,,,チャキ,0
1166,5240003006858,新規,0,2024-09-27,2024-09-27,エルマル合同会社,,合同会社,広島県,東広島市,西条町寺家６０８２－１７,,34,212,7390041,,,,,,,2024-09-27,1,,,,,エルマル,0
1175,5260001039486,新規,0,2024-09-27,2024-09-27,株式会社ＭＡＳＣＵＳ,,株式会社,岡山県,岡山市東区,西大寺松崎４４７番地１１９,,33,103,7048183,,,,,,,2024-09-27,1,,,,,マスカス,0
1177,5280003001888,新規,0,2024-09-27,2024-09-27,合同会社磯谷運送,,合同会社,島根県,隠岐郡海士町,大字海士１４８２番地７,,32,525,6840403,,,,,,,2024-09-27,1,,,,,イソタニウンソウ,0
1182,5290003015862,新規,0,2024-09-27,2024-09-27,エースハイ合同会社,,合同会社,福岡県,筑紫野市,原田７丁目２－１１パインテールＨＡＲＵＤＡ２－Ａ,,40,217,8180024,,,,,,,2024-09-27,1,,,,,エースハイ,0
1193,5330001032483,新規,0,2024-09-27,2024-09-27,ホーミーズ株式会社,,株式会社,熊本県,熊本市南区,元三町１丁目１番３号,,43,104,8614105,,,,,,,2024-09-27,1,,,,,ホーミーズ,0
1196,5340001026815,新規,0,2024-09-27,2024-09-27,株式会社鹿児島総合食品,,株式会社,鹿児島県,鹿屋市,今坂町９９８２番地１４,,46,203,8930057,,,,,,,2024-09-27,1,,,,,カゴシマソウゴウショクヒン,0
1198,5360003014329,新規,0,2024-09-27,2024-09-27,合同会社スエヒロガリ,,合同会社,沖縄県,宜野湾市,大山２丁目２３－１,,47,205,9012223,,,,,,,2024-09-27,1,,,,,スエヒロガリ,0
1201,5370001051760,新規,0,2024-09-27,2024-09-27,株式会社ｆｌｅｕｒ,,株式会社,宮城県,多賀城市,東田中１丁目２番４－４号,,04,209,9850863,,,,,,,2024-09-27,1,,,,,フルール,0
1207,5380005012865,新規,0,2024-09-27,2024-09-27,行政書士法人グランドサーベイ,,その他の設立登記法人,福島県,郡山市,鶴見坦１丁目６番３４号,,07,203,9638861,,,,,,,2024-09-27,1,,,,,グランドサーベイ,0
1209,5390001017751,新規,0,2024-09-27,2024-09-27,輝蘭左官工業株式会社,,株式会社,山形県,鶴岡市,白山字興野７５番地１,,06,203,9970841,,,,,,,2024-09-27,1,,,,,キラサカンコウギョウ,0
1215,5430001092749,新規,0,2024-09-27,2024-09-27,株式会社Ｃａｌｍ,,株式会社,北海道,札幌市中央区,南九条西９丁目３番１３－８０２号,,01,101,0640809,,,,,,,2024-09-27,1,,,,,カーム,0
1216,5430003016821,新規,0,2024-09-27,2024-09-27,合同会社クラスレン,,合同会社,北海道,札幌市中央区,南五条西１５丁目２－３－５０３号,,01,101,0640805,,,,,,,2024-09-27,1,,,,,クラスレン,0
1219,5440003001632,新規,0,2024-09-27,2024-09-27,合同会社Ｌｉｅｖｅ,,合同会社,北海道,函館市,本通１丁目２０番２６号,,01,202,0410851,,,,,,,2024-09-27,1,,,,,リーベ,0
1228,5480005007038,新規,0,2024-09-27,2024-09-27,医療法人つだ形成クリニック,,その他の設立登記法人,徳島県,徳島市,北常三島町２丁目４８番地１グローバル・アシストビル１Ｆ,,36,201,7700812,,,,,,,2024-09-27,1,,,,,ツダケイセイクリニック,0
1229,5700150126833,新規,0,2024-09-27,2024-08-23,祇園　花街芸術資料館実行委員会,,その他,京都府,京都市東山区,祇園町南側５７０－２八坂倶楽部,,26,105,6050074,,,,,,,2024-08-23,1,,,,,ギオンカガイゲイジユツシリヨウカンジツコウイインカイ,0
1230,5700150126899,新規,0,2024-09-27,2024-08-26,青空市民クラブ,,その他,岡山県,倉敷市,西中新田６４０本庁舎３階議員会館内,,33,202,7100833,,,,,,,2024-08-26,1,,,,,アオゾラシミンクラブ,0
1257,6010001248425,新規,0,2024-09-27,2024-09-27,株式会社ミーズ,,株式会社,東京都,千代田区,神田佐久間町２丁目１８番地１号,,13,101,1010025,,,,,,,2024-09-27,1,,,,,ミーズ,0
1258,6010001248499,新規,0,2024-09-27,2024-09-27,ＪＰＡ第３１１号株式会社,,株式会社,東京都,千代田区,霞が関３丁目２番１号,,13,101,1000013,,,,,,,2024-09-27,1,,,,,ジェイピーエーダイサンビャクジュウイチゴウ,0
1259,6010001248508,新規,0,2024-09-27,2024-09-27,ＪＰＡ第３２０号株式会社,,株式会社,東京都,千代田区,霞が関３丁目２番１号,,13,101,1000013,,,,,,,2024-09-27,1,,,,,ジェイピーエーダイサンビャクニジュウゴウ,0
1260,6010001248648,新規,0,2024-09-27,2024-09-27,Ｓｏｌａｒｉｓ　Ｊａｐａｎ株式会社,,株式会社,東京都,千代田区,霞が関３丁目２番５号霞が関ビルディング３２階,,13,101,1000013,,,,,,,2024-09-27,1,,,,,ソラリスジャパン,0
1262,6010003045028,新規,0,2024-09-27,2024-09-27,合同会社ａｉｍ．ｔｏｐ,,合同会社,東京都,中央区,晴海５丁目５－６－１４０９,,13,102,1040053,,,,,,,2024-09-27,1,,,,,エイムトップ,0
1269,6010401185334,新規,0,2024-09-27,2024-09-27,株式会社ＲＷＢ,,株式会社,東京都,港区,芝５丁目２７番３号ＭＢＣ－Ａ－１０号室,,13,103,1080014,,,,,,,2024-09-27,1,,,,,アールダブリュービー,0
1270,6010401185375,新規,0,2024-09-27,2024-09-27,株式会社ザイマックスアセットマネジメント,,株式会社,東京都,港区,赤坂１丁目１１番３０号,,13,103,1070052,,,,,,,2024-09-27,1,,,,,ザイマックスアセットマネジメント,0
1277,6010403033490,新規,0,2024-09-27,2024-09-27,合同会社ＣＵＰＰＡ　Ｋ・Ｋ,,合同会社,東京都,港区,南青山４丁目１７番３１－２０４号,,13,103,1070062,,,,,,,2024-09-27,1,,,,,カッパケイケイ,0
1280,6010405023548,新規,0,2024-09-27,2024-09-27,一般社団法人金属製品トータルサポート,,その他の設立登記法人,東京都,港区,北青山１丁目３番１号アールキューブ青山３階,,13,103,1070061,,,,,,,2024-09-27,1,,,,,キンゾクセイヒントータルサポート,0
1283,6010801035403,新規,0,2024-09-27,2024-09-27,Ｗｏｒｌｄ　ｏｆ　Ｔｒｕｆｆｌｅｓ　Ｊａｐａｎ株式会社,,株式会社,東京都,大田区,南久が原２丁目３０－１１,,13,111,1460084,,,,,,,2024-09-27,1,,,,,ワールドオブトリュフ,0
1284,6010801035411,新規,0,2024-09-27,2024-09-27,株式会社Ｙｏｉｎｔ,,株式会社,東京都,大田区,田園調布１丁目１５番４号,,13,111,1450071,,,,,,,2024-09-27,1,,,,,ヨイント,0
1290,6010901056027,新規,0,2024-09-27,2024-09-27,株式会社Ｍｅｌｏｄｉｎｅｓｔ,,株式会社,東京都,世田谷区,経堂４丁目５番２０号ＴＭハウスＢ,,13,112,1560052,,,,,,,2024-09-27,1,,,,,メロディネスト,0
1291,6010901056035,新規,0,2024-09-27,2024-09-27,Ｅｐｏｑｕｅ　Ｇｒｏｕｐ株式会社,,株式会社,東京都,世田谷区,下馬４丁目２０－４,,13,112,1540002,,,,,,,2024-09-27,1,,,,,エポックグループ,0
1294,6010903009379,新規,0,2024-09-27,2024-09-27,合同会社４２７,,合同会社,東京都,世田谷区,玉川４丁目８番３号,,13,112,1580094,,,,,,,2024-09-27,1,,,,,ヨンニナナ,0
1301,6011003020111,新規,0,2024-09-27,2024-09-27,ＮＯＵＳ合同会社,,合同会社,東京都,目黒区,三田２丁目１０番５５‐１０３号ヴェラハイツ目黒三田,,13,110,1530062,,,,,,,2024-09-27,1,,,,,ヌー,0
1306,6011101108857,新規,0,2024-09-27,2024-09-27,株式会社リステージ,,株式会社,東京都,新宿区,百人町１丁目１８番８号大久保カドビルＬｉｎｋＳｐａｃｅ百人町Ａ１８,,13,104,1690073,,,,,,,2024-09-27,1,,,,,リステージ,0
1307,6011103014970,新規,0,2024-09-27,2024-09-27,合同会社タイタン,,合同会社,東京都,新宿区,西新宿３丁目３番１３号西新宿水間ビル６階,,13,104,1600023,,,,,,,2024-09-27,1,,,,,タイタン,0
1312,6011601028076,新規,0,2024-09-27,2024-09-27,ｎｏｍｏｔｏ株式会社,,株式会社,東京都,練馬区,石神井町４丁目２１番１３号,,13,120,1770041,,,,,,,2024-09-27,1,,,,,ノモト,0
1313,6011603004463,新規,0,2024-09-27,2024-09-27,合同会社ｅｄｏｇｉｎ,,合同会社,東京都,練馬区,石神井台７丁目１１－３－５１４号,,13,120,1770045,,,,,,,2024-09-27,1,,,,,エドギン,0
1316,6011801044880,新規,0,2024-09-27,2024-09-27,株式会社ＴＣＫ,,株式会社,東京都,足立区,江北４丁目６番８号,,13,121,1230872,,,,,,,2024-09-27,1,,,,,ティーシーケー,0
1318,6011803006474,新規,0,2024-09-27,2024-09-27,ＯＰＥＮＪＯＹＮＴ　ＩＮＴＥＲＮＡＴＩＯＮＡＬ合同会社,,合同会社,東京都,足立区,関原２丁目１３番４号,,13,121,1230852,,,,,,,2024-09-27,1,,,,,オープンジョイントインターナショナル,0
1324,6013105001856,新規,0,2024-09-27,2024-09-27,一般社団法人Ｈａｕｓａｒｚｔ,,その他の設立登記法人,東京都,福生市,本町５３番地健之会ビル２階,,13,218,1970022,,,,,,,2024-09-27,1,,,,,ハウスアールツト,0
1332,6020001159290,新規,0,2024-09-27,2024-09-27,株式会社ＨＡＹＡＢＵＳＡ,,株式会社,神奈川県,横浜市港北区,大豆戸町４７１番２,,14,109,2220032,,,,,,,2024-09-27,1,,,,,ハヤブサ,0
1333,6020001159398,新規,0,2024-09-27,2024-09-27,株式会社ＴＡＫＥ　ＣＡＲＥ　ＯＲ　ＲＥＮＡＴＡ,,株式会社,神奈川県,川崎市川崎区,本町１丁目５番地４アドヴァンス川崎駅前２０１,,14,131,2100001,,,,,,,2024-09-27,1,,,,,テイクケアオアレナータ,0
1334,6020001159407,新規,0,2024-09-27,2024-09-27,株式会社恵利のお家,,株式会社,神奈川県,横浜市磯子区,岡村６丁目５番８号,,14,107,2350021,,,,,,,2024-09-27,1,,,,,エリノオウチ,0
1342,6030001162632,新規,0,2024-09-27,2024-09-27,株式会社風間電池,,株式会社,埼玉県,さいたま市岩槻区,大字真福寺６９番２,,11,110,3390044,,,,,,,2024-09-27,1,,,,,カザマデンチ,0
1343,6030001162640,新規,0,2024-09-27,2024-09-27,株式会社猿人,,株式会社,埼玉県,さいたま市西区,大字中釘２１６２番地５,,11,101,3310077,,,,,,,2024-09-27,1,,,,,エンジン,0
1344,6030001162649,新規,0,2024-09-27,2024-09-27,株式会社ＶｉｎＫ,,株式会社,埼玉県,志木市,柏町１丁目９番４１号パークハイムＣ１０１号,,11,228,3530007,,,,,,,2024-09-27,1,,,,,ヴィンク,0
1349,6030003025151,新規,0,2024-09-27,2024-09-27,Ｄｃｏｍｐａｎｙ合同会社,,合同会社,埼玉県,草加市,八幡町８９４番地１８,,11,221,3400006,,,,,,,2024-09-27,1,,,,,ディーカンパニー,0
1350,6030003025184,新規,0,2024-09-27,2024-09-27,三美合同会社,,合同会社,埼玉県,戸田市,中町１丁目１７番地の７－５０１号,,11,224,3350012,,,,,,,2024-09-27,1,,,,,サンビ,0
1351,6030003025192,新規,0,2024-09-27,2024-09-27,陽だまり合同会社,,合同会社,埼玉県,越谷市,大字袋山１２０４番地１,,11,222,3430032,,,,,,,2024-09-27,1,,,,,ヒダマリ,0
1360,6040001135538,新規,0,2024-09-27,2024-09-27,ＭＲ株式会社,,株式会社,千葉県,四街道市,鹿渡８５９－１－２０３,,12,228,2840003,,,,,,,2024-09-27,1,,,,,エムアール,0
1364,6040003025836,新規,0,2024-09-27,2024-09-27,合同会社Ｄａｈｌｉａ,,合同会社,千葉県,千葉市美浜区,中瀬１丁目６,,12,106,2610023,,,,,,,2024-09-27,1,,,,,ダリア,0
1367,6050001055454,新規,0,2024-09-27,2024-09-27,株式会社ＴｅＣｌ,,株式会社,茨城県,坂東市,長谷２３９０番地３,,08,228,3060642,,,,,,,2024-09-27,1,,,,,テックル,0
1368,6050003008690,新規,0,2024-09-27,2024-09-27,合同会社エイト,,合同会社,茨城県,稲敷郡阿見町,大字吉原２２３７－３,,08,443,3001155,,,,,,,2024-09-27,1,,,,,エイト,0
1369,6060001037518,新規,0,2024-09-27,2024-09-27,株式会社ブライト,,株式会社,栃木県,真岡市,若旅１４３１番地１８,,09,209,3214352,,,,,,,2024-09-27,1,,,,,ブライト,0
1374,6100001037876,新規,0,2024-09-27,2024-09-27,ほたて不動産株式会社,,株式会社,長野県,飯山市,南町１３番地４,,20,213,3892254,,,,,,,2024-09-27,1,,,,,ホタテフドウサン,0
1384,6120001268775,新規,0,2024-09-27,2024-09-27,ｉ楽一株式会社,,株式会社,大阪府,大阪市東淀川区,北江口２丁目１０番１８号１０４室,,27,114,5330002,,,,,,,2024-09-27,1,,,,,アイラクイチ,0
1385,6120001268833,新規,0,2024-09-27,2024-09-27,株式会社Ｒａｃｋｓ　ｏｎ　Ｇａｍｅｓ,,株式会社,大阪府,大阪市北区,曾根崎２丁目１６－１９メッセージ梅田ビル１階ＯＮｔｈｅＵＭＥＤＡ内,,27,127,5300057,,,,,,,2024-09-27,1,,,,,ラックスオンゲームズ,0
1388,6120003027592,新規,0,2024-09-27,2024-09-27,合同会社Ｂｅｇｉｎｎｉｎｇ,,合同会社,大阪府,大阪市北区,天神橋８丁目１３番２４号,,27,127,5310041,,,,,,,2024-09-27,1,,,,,ビギニング,0
1389,6120005024547,新規,0,2024-09-27,2024-09-27,一般社団法人日本医療アートメイクアカデミー,,その他の設立登記法人,大阪府,大阪市東淀川区,東中島１丁目１９番９号４階,,27,114,5330033,,,,,,,2024-09-27,1,,,,,ニホンイリョウアートメイクアカデミー,0
1398,6120901049812,新規,0,2024-09-27,2024-09-27,株式会社ＢＥＯＲＣ,,株式会社,大阪府,摂津市,鳥飼上４丁目８番２２号,,27,224,5660062,,,,,,,2024-09-27,1,,,,,ベオーク,0
1401,6122001038480,新規,0,2024-09-27,2024-09-27,株式会社日新,,株式会社,大阪府,東大阪市,日下町７丁目３番３３号,,27,227,5798003,,,,,,,2024-09-27,1,,,,,ニッシン,0
1404,6130001078001,新規,0,2024-09-27,2024-09-27,株式会社ことほぎ,,株式会社,京都府,京都市下京区,玉津島町２９４番地,,26,106,6008427,,,,,,,2024-09-27,1,,,,,コトホギ,0
1405,6130003009879,新規,0,2024-09-27,2024-09-27,成幸経営研究所合同会社,,合同会社,京都府,京都市下京区,七条通油小路東入大黒町２２７番地第２キョートビル４０２,,26,106,6008223,,,,,,,2024-09-27,1,,,,,セイコウケイエイケンキュウショ,0
1411,6140001135882,新規,0,2024-09-27,2024-09-27,株式会社ＫＩＲＡＲＩ,,株式会社,兵庫県,川西市,小花１丁目１２番４号,,28,217,6660015,,,,,,,2024-09-27,1,,,,,キラリ,0
1416,6150003003384,新規,0,2024-09-27,2024-09-27,合同会社ＤＹホールディングス,,合同会社,奈良県,生駒市,西松ケ丘１９丸山住宅５－３,,29,209,6300246,,,,,,,2024-09-27,1,,,,,ディーワイホールディングス,0
1418,6160001026238,新規,0,2024-09-27,2024-09-27,株式会社さくら,,株式会社,滋賀県,甲賀市,土山町北土山５３６番地,,25,209,5280211,,,,,,,2024-09-27,1,,,,,サクラ,0
1424,6180001163368,新規,0,2024-09-27,2024-09-27,株式会社ＶＥＲＤＥ,,株式会社,愛知県,名古屋市東区,葵２丁目１３番１３号,,23,102,4610004,,,,,,,2024-09-27,1,,,,,ヴェルデ,0
1425,6180001163384,新規,0,2024-09-27,2024-09-27,株式会社アクロスデザイン,,株式会社,愛知県,春日井市,藤山台１丁目４番地２、１１９号棟２０４号室,,23,206,4870035,,,,,,,2024-09-27,1,,,,,アクロスデザイン,0
1428,6180301039086,新規,0,2024-09-27,2024-09-27,株式会社ＳＬＳ,,株式会社,愛知県,岡崎市,大平町字岡田２９番地,,23,202,4440007,,,,,,,2024-09-27,1,,,,,エスエルエス,0
1434,6200001042965,新規,0,2024-09-27,2024-09-27,株式会社アンビシャス,,株式会社,岐阜県,各務原市,鵜沼西町４丁目６９番地,,21,213,5090132,,,,,,,2024-09-27,1,,,,,アンビシャス,0
1437,6210001019921,新規,0,2024-09-27,2024-09-27,株式会社Ｋ‐ｇｒｏｗｔｈ,,株式会社,福井県,敦賀市,昭和町１丁目６番２９－２０２号ラウレア敦賀,,18,202,9140812,,,,,,,2024-09-27,1,,,,,ケーグロース,0
1446,6260001039477,新規,0,2024-09-27,2024-09-27,株式会社Ｌｅｇａｍｅ,,株式会社,岡山県,岡山市中区,古京町１丁目８番１０－１号,,33,102,7038278,,,,,,,2024-09-27,1,,,,,レガーメ,0
1451,6290001107124,新規,0,2024-09-27,2024-09-27,株式会社Ｌａ　ｐｏｒｔｅ,,株式会社,福岡県,福岡市早良区,野芥４丁目４５番５６号,,40,137,8140171,,,,,,,2024-09-27,1,,,,,ラポルト,0
1462,6320003004480,新規,0,2024-09-27,2024-09-27,合同会社ビー・クルー,,合同会社,大分県,別府市,原町５番６号,,44,202,8740820,,,,,,,2024-09-27,1,,,,,ビークルー,0
1465,6330001032482,新規,0,2024-09-27,2024-09-27,株式会社ＴＳＩ,,株式会社,熊本県,熊本市東区,御領５丁目１番４１号,,43,102,8618035,,,,,,,2024-09-27,1,,,,,ティーエスアイ,0
1466,6330001032490,新規,0,2024-09-27,2024-09-27,株式会社クマモト福祉サポート,,株式会社,熊本県,熊本市東区,山ノ内１丁目１－９２－１０３,,43,102,8620914,,,,,,,2024-09-27,1,,,,,クマモトフクシサポート,0
1468,6330005010831,新規,0,2024-09-27,2024-09-27,医療法人高水間会,00136417,その他の設立登記法人,熊本県,山鹿市,大橋通１００５番地,,43,208,8610517,,,,,,,2024-09-27,1,,,,,コウズマカイ,0
1469,6340001026814,新規,0,2024-09-27,2024-09-27,株式会社ベルビル,,株式会社,鹿児島県,指宿市,開聞十町１１１５番地,,46,210,8910603,,,,,,,2024-09-27,1,,,,,ベルビル,0
1485,6390001017750,新規,0,2024-09-27,2024-09-27,株式会社ミナトレッカー,,株式会社,山形県,酒田市,緑ケ丘２丁目５番地の３０,,06,204,9980052,,,,,,,2024-09-27,1,,,,,ミナトレッカー,0
1486,6400001016791,新規,0,2024-09-27,2024-09-27,株式会社ＦＶＳ,,株式会社,岩手県,遠野市,松崎町白岩２３地割６６番地８,,03,208,0280541,,,,,,,2024-09-27,1,,,,,エフブイエス,0
1487,6400005008447,新規,0,2024-09-27,2024-09-27,一般財団法人丹内財団,,その他の設立登記法人,岩手県,一関市,山目字館６４番地１９０,,03,209,0210061,,,,,,,2024-09-27,1,,,,,タンナイザイダン,0
1491,6430001092715,新規,0,2024-09-27,2024-09-27,株式会社Ｍｅｄ　Ｓｔａｇｅ,,株式会社,北海道,札幌市西区,発寒六条１３丁目１番１９号,,01,107,0630826,,,,,,,2024-09-27,1,,,,,メドステージ,0
1495,6460101007611,新規,0,2024-09-27,2024-09-27,株式会社ＭａｒｉｎｅＢｌｕｅ,,株式会社,北海道,帯広市,西十六条北１丁目１番地８６エーデルハイツ１０１,,01,207,0800046,,,,,,,2024-09-27,1,,,,,マリンブルー,0
1498,6470005006584,新規,0,2024-09-27,2024-09-27,農事組合法人三共森安,,その他の設立登記法人,香川県,さぬき市,長尾西４８３番地,,37,206,7692302,,,,,,,2024-09-27,1,,,,,,0
1499,6480001012593,新規,0,2024-09-27,2024-09-27,株式会社Ｓａｖｉｌｅｒｏｗ,,株式会社,徳島県,名西郡石井町,石井字石井１０８６番地１,,36,341,7793233,,,,,,,2024-09-27,1,,,,,サヴィルロウ,0
1501,6480005007037,新規,0,2024-09-27,2024-09-27,医療法人阪仁会,,その他の設立登記法人,徳島県,徳島市,住吉４丁目２－４６,,36,201,7700861,,,,,,,2024-09-27,1,,,,,ハンジンカイ,0
1506,6700150127351,新規,0,2024-09-27,2024-09-27,Ｕ．Ｎ．Ｒトレーディングカンパニー,,外国会社等,千葉県,八街市,八街ほ１１３番地４３ドミール桃園１０３,,12,230,2891115,スリランカ民主社会主義共和国、コロンボ１１、フォース・クロス通りＮｏ．１７９Ａ,,,,,,2024-09-27,1,,,,,ユーエヌアールトレーデイングカンパニー,0
1511,7010001248473,新規,0,2024-09-27,2024-09-27,Ｇｒａｎｄ　Ｓｔｏｎｅ株式会社,,株式会社,東京都,中央区,日本橋横山町５番地１８,,13,102,1030003,,,,,,,2024-09-27,1,,,,,グランドストーン,0
1512,7010001248498,新規,0,2024-09-27,2024-09-27,ＪＰＡ第３１０号株式会社,,株式会社,東京都,千代田区,霞が関３丁目２番１号,,13,101,1000013,,,,,,,2024-09-27,1,,,,,ジェイピーエーダイサンビャクジュウゴウ,0
1513,7010001248507,新規,0,2024-09-27,2024-09-27,ＪＰＡ第３１９号株式会社,,株式会社,東京都,千代田区,霞が関３丁目２番１号,,13,101,1000013,,,,,,,2024-09-27,1,,,,,ジェイピーエーダイサンビャクジュウキュウゴウ,0
1535,7010401185366,新規,0,2024-09-27,2024-09-27,株式会社プレファーマ,,株式会社,東京都,港区,芝４丁目５番８号池藤ビル３階,,13,103,1080014,,,,,,,2024-09-27,1,,,,,プレファーマ,0
1536,7010401185374,新規,0,2024-09-27,2024-09-27,株式会社ペットパートナー,,株式会社,東京都,港区,南青山２丁目２番１５号ウィン青山１２１４号,,13,103,1070062,,,,,,,2024-09-27,1,,,,,ペットパートナー,0
1537,7010401185390,新規,0,2024-09-27,2024-09-27,シスタ株式会社,,株式会社,東京都,港区,赤坂９丁目６番２８号,,13,103,1070052,,,,,,,2024-09-27,1,,,,,シスタ,0
1539,7010501052961,新規,0,2024-09-27,2024-09-27,網資生医科技株式会社,,株式会社,東京都,台東区,東上野３丁目１３－５深谷ビル６Ｆ,,13,106,1100015,,,,,,,2024-09-27,1,,,,,アミシセイイカギ,0
1542,7010601065979,新規,0,2024-09-27,2024-09-27,株式会社ＬＡＮＤ,,株式会社,東京都,墨田区,千歳２丁目６番９－３０１号,,13,107,1300025,,,,,,,2024-09-27,1,,,,,ランド,0
1543,7010601065995,新規,0,2024-09-27,2024-09-27,ＴＯＫＹＯ　ＣＯＮＣＩＥＲＧＥ株式会社,,株式会社,東京都,墨田区,緑３丁目１１－８－６０３,,13,107,1300021,,,,,,,2024-09-27,1,,,,,トウキョウコンシェルジェ,0
1547,7010603011122,新規,0,2024-09-27,2024-09-27,伊達総研合同会社,,合同会社,東京都,墨田区,菊川２丁目１番１４,,13,107,1300024,,,,,,,2024-09-27,1,,,,,ダテソウケン,0
1552,7010901056034,新規,0,2024-09-27,2024-09-27,株式会社食欲,,株式会社,東京都,世田谷区,経堂１丁目１８番１１号山田ビル２階,,13,112,1560052,,,,,,,2024-09-27,1,,,,,ショクヨク,0
1555,7010903009378,新規,0,2024-09-27,2024-09-27,合同会社ベネッセレ,,合同会社,東京都,世田谷区,桜２丁目１９番４号－４,,13,112,1560053,,,,,,,2024-09-27,1,,,,,ベネッセレ,0
1562,7011001164842,新規,0,2024-09-27,2024-09-27,株式会社リリーコンサルティング,,株式会社,東京都,渋谷区,神宮前６丁目２３番４号桑野ビル２階,,13,113,1500001,,,,,,,2024-09-27,1,,,,,リリーコンサルティング,0
1563,7011001164883,新規,0,2024-09-27,2024-09-27,株式会社くう,,株式会社,東京都,渋谷区,上原１丁目２３番７号,,13,113,1510064,,,,,,,2024-09-27,1,,,,,クウ,0
1564,7011001164909,新規,0,2024-09-27,2024-09-27,株式会社ＰＯＴＥＴＯ　Ｄｅｓｉｇｎ,,株式会社,東京都,渋谷区,渋谷１丁目３番１８号,,13,113,1500002,,,,,,,2024-09-27,1,,,,,ポテトデザイン,0
1565,7011003020093,新規,0,2024-09-27,2024-09-27,優秀不動産合同会社,,合同会社,東京都,目黒区,中目黒１丁目８‐３‐１０７,,13,110,1530061,,,,,,,2024-09-27,1,,,,,ユウシュウフドウサン,0
1566,7011005010679,新規,0,2024-09-27,2024-09-27,医療法人社団ＡＲＭＯＮＩＡ,,その他の設立登記法人,東京都,渋谷区,笹塚１丁目５８番７号０００３号室,,13,113,1510073,,,,,,,2024-09-27,1,,,,,アルモニア,0
1571,7012401042316,新規,0,2024-09-27,2024-09-27,株式会社すむすむ,,株式会社,東京都,狛江市,西野川４丁目１９番６号,,13,219,2010001,,,,,,,2024-09-27,1,,,,,スムスム,0
1579,7020001159414,新規,0,2024-09-27,2024-09-27,株式会社たまその社中,,株式会社,神奈川県,川崎市中原区,小杉陣屋町２丁目７番２８号花かげのいをり１０１,,14,133,2110062,,,,,,,2024-09-27,1,,,,,タマソノシャチュウ,0
1585,7021001083323,新規,0,2024-09-27,2024-09-27,Ｆｒｅｅｄｏｍ　Ｐｌｕｓ株式会社,,株式会社,神奈川県,藤沢市,辻堂西海岸１丁目２－１４,00136414,14,205,2510046,,,,,,,2024-09-27,1,,,,,フリーダムプラス,0
1586,7021001083331,新規,0,2024-09-27,2024-09-27,株式会社Ｍｏｏｎ　Ｐａｔｈ,,株式会社,神奈川県,相模原市緑区,相原１丁目１－４ａｉｓａｎｃｅ相原１Ｆ,,14,151,2520141,,,,,,,2024-09-27,1,,,,,ムーンパス,0
1594,7030001162615,新規,0,2024-09-27,2024-09-27,株式会社Ｅ‐ＰＬＵＳ,,株式会社,埼玉県,所沢市,大字坂之下４８５番地の２,,11,208,3590012,,,,,,,2024-09-27,1,,,,,イープラス,0
1595,7030001162623,新規,0,2024-09-27,2024-09-27,株式会社フラリッシュ,,株式会社,埼玉県,三郷市,彦江１丁目２６５番地,,11,237,3410058,,,,,,,2024-09-27,1,,,,,フラリッシュ,0
1596,7030001162631,新規,0,2024-09-27,2024-09-27,株式会社ＫＩＴＣ,,株式会社,埼玉県,川口市,大字峯５３番地の２３,,11,203,3340056,,,,,,,2024-09-27,1,,,,,ケーアイティーシー,0
1597,7030001162656,新規,0,2024-09-27,2024-09-27,Ｒｅｈａｐｐｙ株式会社,,株式会社,埼玉県,戸田市,笹目北町５番１０号,,11,224,3350033,,,,,,,2024-09-27,1,,,,,リハッピー,0
1601,7030003025142,新規,0,2024-09-27,2024-09-27,ＫＣＣ合同会社,,合同会社,埼玉県,戸田市,喜沢南２丁目９－２４ＣＳビル１０５,,11,224,3350014,,,,,,,2024-09-27,1,,,,,ケーシーシー,0
1602,7030003025183,新規,0,2024-09-27,2024-09-27,合同会社Ｓｕｎｆｒｏｗｏｒｋｓ,,合同会社,埼玉県,川口市,芝宮根町２番２９号,,11,203,3330869,,,,,,,2024-09-27,1,,,,,サンフラワークス,0
1603,7030003025191,新規,0,2024-09-27,2024-09-27,合同会社ｍｉｔｙ,,合同会社,埼玉県,上尾市,今泉１丁目３０番地２２,,11,219,3620047,,,,,,,2024-09-27,1,,,,,ミティ,0
1611,7040001135388,新規,0,2024-09-27,2024-09-27,ル・メゾン・ホスピタリテ株式会社,,株式会社,千葉県,市川市,市川２丁目３１－２０,,12,203,2720034,,,,,,,2024-09-27,1,,,,,ルメゾンホスピタリテ,0
1612,7040001135520,新規,0,2024-09-27,2024-09-27,株式会社ブンブン,,株式会社,千葉県,柏市,増尾台１丁目１０番５３－２０５号,,12,217,2770052,,,,,,,2024-09-27,1,,,,,ブンブン,0
1613,7040001135537,新規,0,2024-09-27,2024-09-27,Ｒ＆Ｈ株式会社,,株式会社,千葉県,四街道市,物井１７９２－７３－８１５,,12,228,2840012,,,,,,,2024-09-27,1,,,,,アールアンドエイチ,0
1616,7040003025835,新規,0,2024-09-27,2024-09-27,合同会社ａｒｉａ,,合同会社,千葉県,千葉市美浜区,中瀬１丁目６,,12,106,2610023,,,,,,,2024-09-27,1,,,,,アリア,0
1622,7060001037517,新規,0,2024-09-27,2024-09-27,セントラルパートナーズ株式会社,,株式会社,栃木県,栃木市,大宮町２１３６番地９,,09,203,3280011,,,,,,,2024-09-27,1,,,,,セントラルパートナーズ,0
1628,7090001018910,新規,0,2024-09-27,2024-09-27,株式会社ＭＷＤ,,株式会社,山梨県,北杜市,長坂町塚川５８１番地８,,19,209,4080022,,,,,,,2024-09-27,1,,,,,エムダブリューディー,0
1630,7100001037859,新規,0,2024-09-27,2024-09-27,株式会社至誠,,株式会社,長野県,北安曇郡白馬村,大字北城８２８－３５１,,20,485,3999301,,,,,,,2024-09-27,1,,,,,シセイ,0
1631,7100001037883,新規,0,2024-09-27,2024-09-27,株式会社アスリード,,株式会社,長野県,佐久市,今井１５８－４,,20,217,3850015,,,,,,,2024-09-27,1,,,,,アスリード,0
1634,7100003007793,新規,0,2024-09-27,2024-09-27,ＹＡＭＡＨＯＮ合同会社,,合同会社,長野県,上水内郡小川村,大字高府２２９９番地５,,20,588,3813302,,,,,,,2024-09-27,1,,,,,ヤマホン,0
1636,7110001038699,新規,0,2024-09-27,2024-09-27,株式会社グリーンズ・グリーンホールディングス,,株式会社,新潟県,新潟市中央区,女池７丁目１９－１１Ｇ．ｌａｂＮＩＩＧＡＴＡ,,15,103,9500941,,,,,,,2024-09-27,1,,,,,グリーンズグリーンホールディングス,0
1637,7110003005524,新規,0,2024-09-27,2024-09-27,合同会社ノラクラフター,,合同会社,新潟県,上越市,三和区末野１０７０,,15,222,9420262,,,,,,,2024-09-27,1,,,,,ノラクラフター,0
1645,7120001268782,新規,0,2024-09-27,2024-09-27,君怡国際株式会社,,株式会社,大阪府,大阪市都島区,高倉町２丁目３－９－４０２号室,,27,102,5340011,,,,,,,2024-09-27,1,,,,,ジュンイコクサイ,0
1646,7120001268808,新規,0,2024-09-27,2024-09-27,智成株式会社,,株式会社,大阪府,大阪市東住吉区,今川８丁目５番３４号常磐ビル２０５号室,,27,121,5460003,,,,,,,2024-09-27,1,,,,,トモナリ,0
1650,7120003027591,新規,0,2024-09-27,2024-09-27,合同会社Ｆｉｅｌｄ　Ｉｓｌａｎｄ,,合同会社,大阪府,大阪市浪速区,稲荷１丁目１２番１０－１００２号,,27,111,5560023,,,,,,,2024-09-27,1,,,,,フィールドアイランド,0
1651,7120003027600,新規,0,2024-09-27,2024-09-27,合同会社心美栄星,,合同会社,大阪府,大阪市西区,南堀江１丁目１２番２号,,27,106,5500015,,,,,,,2024-09-27,1,,,,,シンビエイセイ,0
1657,7130001078025,新規,0,2024-09-27,2024-09-27,Ｗｉｎ　ＴＥＫ　Ｃｏｒｐｏｒａｔｉｏｎ株式会社,,株式会社,京都府,京都市下京区,正面通木屋町東入山王町３３８番地３,,26,106,6008134,,,,,,,2024-09-27,1,,,,,ウインテックコーポレーション,0
1661,7140001135898,新規,0,2024-09-27,2024-09-27,セイバン機工株式会社,,株式会社,兵庫県,たつの市,揖西町小神２３番地７,,28,229,6794003,,,,,,,2024-09-27,1,,,,,セイバンキコウ,0
1662,7140001135931,新規,0,2024-09-27,2024-09-27,株式会社Ｃｏｃｏａ,,株式会社,兵庫県,神戸市東灘区,西岡本４丁目２番６号,,28,101,6580073,,,,,,,2024-09-27,1,,,,,ココア,0
1668,7160001026237,新規,0,2024-09-27,2024-09-27,株式会社白野,,株式会社,滋賀県,蒲生郡日野町,大字中在寺１１１１番地７０,,25,383,5291662,,,,,,,2024-09-27,1,,,,,シラノ,0
1676,7180301039077,新規,0,2024-09-27,2024-09-27,株式会社泉空調,,株式会社,愛知県,豊橋市,嵩山町字尾曽根１２７番地２,,23,201,4411111,,,,,,,2024-09-27,1,,,,,イズミクウチョウ,0
1677,7180301039085,新規,0,2024-09-27,2024-09-27,株式会社住田電機,,株式会社,愛知県,岡崎市,美合町字小豆坂８番地２７,,23,202,4440802,,,,,,,2024-09-27,1,,,,,スミダデンキ,0
1678,7180303006281,新規,0,2024-09-27,2024-09-27,合同会社リバティ,,合同会社,愛知県,豊田市,若林西町宮下１８番地９ハイツ都１－Ｂ,,23,211,4730917,,,,,,,2024-09-27,1,,,,,リバティ,0
1688,7230003002303,新規,0,2024-09-27,2024-09-27,ＢＥＶＩＣ合同会社,,合同会社,富山県,砺波市,柳瀬９９３‐１０,,16,208,9391313,,,,,,,2024-09-27,1,,,,,ビビック,0
1693,7240001063866,新規,0,2024-09-27,2024-09-27,株式会社エクラリア,,株式会社,広島県,広島市西区,楠木町２丁目４番６号,,34,104,7330002,,,,,,,2024-09-27,1,,,,,エクラリア,0
1694,7240003006872,新規,0,2024-09-27,2024-09-27,合同会社ＩＮＡＨＯ,,合同会社,広島県,世羅郡世羅町,大字川尻８９８－８,,34,462,7293302,,,,,,,2024-09-27,1,,,,,イナホ,0
1705,7320001020727,新規,0,2024-09-27,2024-09-27,センテンツ株式会社,,株式会社,大分県,由布市,挾間町向原１６番地,,44,213,8795502,,,,,,,2024-09-27,1,,,,,センテンツ,0
1708,7330001032481,新規,0,2024-09-27,2024-09-27,株式会社ＫＵＴＯ‐ＴＥＮ,,株式会社,熊本県,熊本市北区,池田３丁目１番４０号２Ｆ,,43,105,8600082,,,,,,,2024-09-27,1,,,,,クトウテン,0
1720,7370005010843,新規,0,2024-09-27,2024-09-27,特定非営利活動法人チルドレンズ・アート・ミュージアムしおがま,,その他の設立登記法人,宮城県,塩竈市,港町２丁目３番１１号,,04,203,9850016,,,,,,,2024-09-27,1,,,,,チルドレンズアートミュージアムシオガマ,0
1723,7380001034812,新規,0,2024-09-27,2024-09-27,株式会社桜商会,,株式会社,福島県,会津若松市,門田町大字飯寺字村西６３５番地島影アパート７号,,07,202,9650846,,,,,,,2024-09-27,1,,,,,サクラショウカイ,0
1730,7430003016803,新規,0,2024-09-27,2024-09-27,新翔電気合同会社,,合同会社,北海道,江別市,大麻泉町６番地の１,,01,217,0690864,,,,,,,2024-09-27,1,,,,,シンショウデンキ,0
1731,7430003016828,新規,0,2024-09-27,2024-09-27,お掃除ＬＡＢＯたちなみ君合同会社,,合同会社,北海道,札幌市中央区,南十条西９丁目１－２６,,01,101,0640810,,,,,,,2024-09-27,1,,,,,オソウジラボタチナミクン,0
1734,7460103001652,新規,0,2024-09-27,2024-09-27,合同会社ＰＡＰＥＲ　ＭＵＬＢＥＲＲＹ,,合同会社,北海道,帯広市,西六条南４丁目１４番地１,,01,207,0800016,,,,,,,2024-09-27,1,,,,,ペーパーマルベリー,0
1735,7460105002302,新規,0,2024-09-27,2024-09-27,一般社団法人かみしほろペイメント,,その他の設立登記法人,北海道,河東郡上士幌町,字上士幌東３線２４７番地４,,01,633,0801408,,,,,,,2024-09-27,1,,,,,カミシホロペイメント,0
1737,7700150127350,新規,0,2024-09-27,2024-09-27,Ｓ＆Ｊ　ＥＮＴＥＲＰＲＩＳＥＳ,,外国会社等,三重県,鈴鹿市,住吉４丁目２１－１１第二コーポ住吉１０３号,,24,207,5130826,スリランカ民主社会主義共和国、アクラナ、ドゥヌヴィラ通り、Ｎｏ９１,,,,,,2024-09-27,1,,,,,エスアンドジエイエンタープライセス,0
1750,8010001248480,新規,0,2024-09-27,2024-09-27,株式会社ＩＤＡＴＥＮａｓｅ,,株式会社,東京都,文京区,本郷６丁目２５番１４号,,13,105,1130033,,,,,,,2024-09-27,1,,,,,イダテネース,0
1751,8010001248506,新規,0,2024-09-27,2024-09-27,ＪＰＡ第３１８号株式会社,,株式会社,東京都,千代田区,霞が関３丁目２番１号,,13,101,1000013,,,,,,,2024-09-27,1,,,,,ジェイピーエーダイサンビャクジュウハチゴウ,0
1754,8010003044993,新規,0,2024-09-27,2024-09-27,ＰＲｉｍｅ合同会社,,合同会社,東京都,中央区,銀座１丁目１２－４Ｎ＆ＥＢＬＤ．７階,,13,102,1040061,,,,,,,2024-09-27,1,,,,,プライム,0
1755,8010003045018,新規,0,2024-09-27,2024-09-27,Ｂａｋａｒｉ　Ｓａｎ合同会社,,合同会社,東京都,中央区,新川１丁目２７番８号新川大原ビル８階,,13,102,1040033,,,,,,,2024-09-27,1,,,,,バカリサン,0
1762,8010401185332,新規,0,2024-09-27,2024-09-27,ミューロン株式会社,,株式会社,東京都,港区,海岸１丁目４番２２号ＳＮビル９階,,13,103,1050022,,,,,,,2024-09-27,1,,,,,ミューロン,0
1763,8010401185357,新規,0,2024-09-27,2024-09-27,株式会社アオボシ,,株式会社,東京都,港区,赤坂２丁目１２番３３号赤坂永楽ビル５階,,13,103,1070052,,,,,,,2024-09-27,1,,,,,アオボシ,0
1764,8010401185381,新規,0,2024-09-27,2024-09-27,株式会社ＭＡＴＳＵＲＩ,,株式会社,東京都,港区,南青山４丁目１７番３３号ＧＣ南青山,,13,103,1070062,,,,,,,2024-09-27,1,,,,,マツリ,0
1766,8010405023554,新規,0,2024-09-27,2024-09-27,一般社団法人がん互助推進研究慈善基金会,,その他の設立登記法人,東京都,港区,虎ノ門１丁目２３番２号,,13,103,1050001,,,,,,,2024-09-27,1,,,,,ガンゴジョスイシンケンキュウジゼンキキンカイ,0
1774,8010601066002,新規,0,2024-09-27,2024-09-27,Ｔ‐ＬＩＦＥ株式会社,,株式会社,東京都,江東区,木場５丁目８－６アビタシオン木場公園６０２,,13,108,1350042,,,,,,,2024-09-27,1,,,,,ティーライフ,0
1779,8010901056033,新規,0,2024-09-27,2024-09-27,株式会社ＥＶＯＬ,,株式会社,東京都,世田谷区,南烏山６丁目３４番３号,,13,112,1570062,,,,,,,2024-09-27,1,,,,,エヴォル,0
1784,8011001164692,新規,0,2024-09-27,2024-09-27,株式会社ＳＩカンパニー,,株式会社,東京都,目黒区,自由が丘２丁目１６番１２号ＲＪ３,,13,110,1520035,,,,,,,2024-09-27,1,,,,,エスアイカンパニー,0
1786,8011003020035,新規,0,2024-09-27,2024-09-27,合同会社Ｒ３７２,,合同会社,東京都,渋谷区,恵比寿３丁目２番９号,,13,113,1500013,,,,,,,2024-09-27,1,,,,,アールスリーセブンツー,0
1787,8011003020092,新規,0,2024-09-27,2024-09-27,合同会社つちいち,,合同会社,東京都,渋谷区,渋谷２丁目１９‐１５宮益坂ビルディング６０９,,13,113,1500002,,,,,,,2024-09-27,1,,,,,ツチイチ,0
1790,8011101108921,新規,0,2024-09-27,2024-09-27,株式会社ＫａｉＳａｋｕ,,株式会社,東京都,新宿区,南元町４番地５１,,13,104,1600012,,,,,,,2024-09-27,1,,,,,カイサク,0
1793,8011301030025,新規,0,2024-09-27,2024-09-27,株式会社ＭＳ　ＦＣＳＴ,,株式会社,東京都,杉並区,高円寺北１丁目１８－５－３０１,,13,115,1660002,,,,,,,2024-09-27,1,,,,,エムエスフォーキャスト,0
1795,8011501031194,新規,0,2024-09-27,2024-09-27,株式会社ユニテック,,株式会社,東京都,北区,豊島１丁目９番１－４０２号,,13,117,1140003,,,,,,,2024-09-27,1,,,,,ユニテック,0
1797,8011503006236,新規,0,2024-09-27,2024-09-27,ＴＲＨ合同会社,,合同会社,東京都,北区,浮間３丁目２１－１４－２０２,,13,117,1150051,,,,,,,2024-09-27,1,,,,,ティーアールエイチ,0
1800,8011801044870,新規,0,2024-09-27,2024-09-27,株式会社ＪＩＮＲＩＫＩ,,株式会社,東京都,葛飾区,新小岩１丁目５３－１５ＦＵＪＩＨＩＲＯビル１Ｆ,,13,122,1240024,,,,,,,2024-09-27,1,,,,,ジンリキ,0
1801,8011801044887,新規,0,2024-09-27,2024-09-27,株式会社ＰＯＧＩ,,株式会社,東京都,足立区,島根１丁目２－５－５０３,,13,121,1210815,,,,,,,2024-09-27,1,,,,,ポギ,0
1802,8011801044895,新規,0,2024-09-27,2024-09-27,株式会社トゥウェニードット,,株式会社,東京都,足立区,千住１丁目４番１号東京芸術センター,,13,121,1200034,,,,,,,2024-09-27,1,,,,,トゥウェニードット,0
1804,8011803006472,新規,0,2024-09-27,2024-09-27,ＨＢコーポレーション合同会社,,合同会社,東京都,葛飾区,鎌倉４丁目１０番１号金沢店舗,,13,122,1250053,,,,,,,2024-09-27,1,,,,,エイチビーコーポレーション,0
1805,8012701018460,新規,0,2024-09-27,2024-09-27,株式会社トーコー,,株式会社,東京都,東村山市,本町２丁目１２番地９,,13,213,1890014,,,,,,,2024-09-27,1,,,,,トーコー,0
1806,8012801023451,新規,0,2024-09-27,2024-09-27,株式会社スマイルＴＴ,,株式会社,東京都,立川市,上砂町２丁目４４番２４号,,13,202,1900032,,,,,,,2024-09-27,1,,,,,スマイルティーティー,0
1811,8013303007323,新規,0,2024-09-27,2024-09-27,合同会社ガチホ,,合同会社,東京都,豊島区,東池袋１丁目３４番５号いちご東池袋ビル６階,,13,116,1700013,,,,,,,2024-09-27,1,,,,,ガチホ,0
1813,8020001159339,新規,0,2024-09-27,2024-09-27,さがみデザイン株式会社,,株式会社,神奈川県,横浜市瀬谷区,瀬谷２丁目３５番地９,,14,114,2460031,,,,,,,2024-09-27,1,,,,,サガミデザイン,0
1814,8020001159405,新規,0,2024-09-27,2024-09-27,株式会社中町瓦工業,,株式会社,神奈川県,横浜市旭区,上川井町２０４３番地１２,,14,112,2410802,,,,,,,2024-09-27,1,,,,,ナカマチカワラコウギョウ,0
1832,8030001162630,新規,0,2024-09-27,2024-09-27,株式会社ＣＲＥＡＳ,,株式会社,埼玉県,川口市,坂下町１丁目１０番１１号ＡＺＵＬ・ＫＡＷＡＧＵＣＨＩ１０１,,11,203,3340003,,,,,,,2024-09-27,1,,,,,クレアス,0
1833,8030001162639,新規,0,2024-09-27,2024-09-27,株式会社ＫＨＡＮＺＡＤＡ　ＩＮＴＥＲＮＡＴＩＯＮＡＬ,,株式会社,埼玉県,羽生市,東６丁目２０番地８フレグランス羽生東Ａ－２０２,,11,216,3480052,,,,,,,2024-09-27,1,,,,,カンザダインターナショナル,0
1834,8030001162671,新規,0,2024-09-27,2024-09-27,株式会社Ｗｉｌｌｏｗ,,株式会社,埼玉県,上尾市,富士見２丁目５－１－３０２号,,11,219,3620041,,,,,,,2024-09-27,1,,,,,ウィロー,0
1841,8030003025182,新規,0,2024-09-27,2024-09-27,合同会社Ｗｉｎｇ・ウィング,,合同会社,埼玉県,さいたま市緑区,大字南部領辻４０５４番地,00136412,11,109,3360973,,,,,,,2024-09-27,1,,,,,ウィングウィング,0
1843,8040001135536,新規,0,2024-09-27,2024-09-27,株式会社Ｔｅｒｒａｄｉｘ,,株式会社,千葉県,南房総市,千倉町瀬戸２４１１番地２－ｂ号,,12,234,2950004,,,,,,,2024-09-27,1,,,,,テラディクス,0
1850,8040003025850,新規,0,2024-09-27,2024-09-27,合同会社ｍｉｃｏさんぽ,,合同会社,千葉県,船橋市,三咲７丁目１番４－３号,,12,204,2740812,,,,,,,2024-09-27,1,,,,,ミコサンポ,0
1855,8050005013497,新規,0,2024-09-27,2024-09-27,医療法人健美会,,その他の設立登記法人,茨城県,筑西市,蓮沼１１２８番地３,,08,227,3091115,,,,,,,2024-09-27,1,,,,,ケンビカイ,0
1856,8060001037516,新規,0,2024-09-27,2024-09-27,株式会社リハーシャル,,株式会社,栃木県,栃木市,岩舟町静５１４５番地８,,09,203,3294307,,,,,,,2024-09-27,1,,,,,リハーシャル,0
1862,8070003005593,新規,0,2024-09-27,2024-09-27,合同会社Ｔｒｏｕｐｅ,,合同会社,群馬県,高崎市,白銀町９番地白銀ビル３階,,10,202,3700825,,,,,,,2024-09-27,1,,,,,トループ,0
1877,8120003027590,新規,0,2024-09-27,2024-09-27,合同会社ＩＡＳ　Ｊａｐａｎ,,合同会社,大阪府,枚方市,南中振１丁目５４番８号,,27,210,5730094,,,,,,,2024-09-27,1,,,,,アイエーエスジャパン,0
1879,8120101070328,新規,0,2024-09-27,2024-09-27,株式会社Ｒｅｓｔａ,,株式会社,大阪府,堺市中区,陶器北１１９０番地４,,27,142,5998242,,,,,,,2024-09-27,1,,,,,レスタ,0
1884,8130001078016,新規,0,2024-09-27,2024-09-27,秀優株式会社,,株式会社,京都府,京都市山科区,竹鼻竹ノ街道町３９番地１リベロ上田２０６号,,26,110,6078080,,,,,,,2024-09-27,1,,,,,ショウユウ,0
1886,8130003009877,新規,0,2024-09-27,2024-09-27,合同会社やまもとふうふ,,合同会社,京都府,京都市北区,紫野上門前町４１番地,,26,101,6038217,,,,,,,2024-09-27,1,,,,,ヤマモトフウフ,0
1890,8140001135889,新規,0,2024-09-27,2024-09-27,株式会社ＳＨＩＮＷＡ,,株式会社,兵庫県,明石市,魚住町西岡２３４３番地プレステージ明石魚住アルカンシェル７０３号,,28,203,6740084,,,,,,,2024-09-27,1,,,,,シンワ,0
1891,8140001135906,新規,0,2024-09-27,2024-09-27,ツチダホールディングス株式会社,,株式会社,兵庫県,神戸市兵庫区,塚本通３丁目１番１３号,,28,105,6520804,,,,,,,2024-09-27,1,,,,,ツチダホールディングス,0
1894,8140003021121,新規,0,2024-09-27,2024-09-27,合同会社日建フロアー,,合同会社,兵庫県,丹波篠山市,住吉台７３番地２,,28,221,6692231,,,,,,,2024-09-27,1,,,,,ニッケンフロアー,0
1895,8150001027581,新規,0,2024-09-27,2024-09-27,株式会社ワンダフルだ１１,,株式会社,奈良県,奈良市,登美ヶ丘３丁目１２番９号,,29,201,6310004,,,,,,,2024-09-27,1,,,,,ワンダフルダワンワン,0
1896,8150003003382,新規,0,2024-09-27,2024-09-27,合同会社３年Ｄ組,,合同会社,奈良県,奈良市,四条大路南町１４番１６号,,29,201,6308015,,,,,,,2024-09-27,1,,,,,サンネンディーグミ,0
1903,8180001163374,新規,0,2024-09-27,2024-09-27,株式会社ハイテック,,株式会社,愛知県,知多郡東浦町,大字緒川字西高岨３８番９,,23,442,4702102,,,,,,,2024-09-27,1,,,,,ハイテック,0
1905,8180003027404,新規,0,2024-09-27,2024-09-27,合同会社メガソーラーきそ,,合同会社,愛知県,名古屋市東区,東新町１番地,,23,102,4610006,,,,,,,2024-09-27,1,,,,,メガソーラーキソ,0
1909,8180301039076,新規,0,2024-09-27,2024-09-27,株式会社都,,株式会社,愛知県,安城市,赤松町新屋敷１９７番地,,23,212,4460046,,,,,,,2024-09-27,1,,,,,ミヤコ,0
1910,8180301039084,新規,0,2024-09-27,2024-09-27,株式会社ＥＰＩＣ　ＯＮＥ,,株式会社,愛知県,岡崎市,上六名２丁目６番地１６,,23,202,4440858,,,,,,,2024-09-27,1,,,,,エピックワン,0
1911,8190001031670,新規,0,2024-09-27,2024-09-27,株式会社中村デザイン室,,株式会社,三重県,桑名市,新西方５丁目７７番地１,,24,205,5110863,,,,,,,2024-09-27,1,,,,,ナカムラデザインシツ,0
1919,8240001063865,新規,0,2024-09-27,2024-09-27,正栄株式会社,,株式会社,広島県,呉市,焼山東１丁目１６番１１号,,34,202,7370936,,,,,,,2024-09-27,1,,,,,ショウエイ,0
1933,8320003004479,新規,0,2024-09-27,2024-09-27,クリーンウェーブ合同会社,,合同会社,大分県,大分市,寺崎町２丁目４番１４号ＮＥＯ２１－２０２,,44,201,8700137,,,,,,,2024-09-27,1,,,,,クリーンウェーブ,0
1935,8340001026812,新規,0,2024-09-27,2024-09-27,ｓ　ｆｉｅｌｄｓ株式会社,,株式会社,鹿児島県,鹿児島市,西伊敷５丁目１４番１４号,,46,201,8911202,,,,,,,2024-09-27,1,,,,,エスフィールズ,0
1938,8360001034219,新規,0,2024-09-27,2024-09-27,株式会社Ｒｅ　Ｌｉｆｅ,,株式会社,沖縄県,南城市,玉城字船越５１番地１,,47,215,9010618,,,,,,,2024-09-27,1,,,,,リライフ,0
1941,8360003014326,新規,0,2024-09-27,2024-09-27,合同会社アントス,,合同会社,沖縄県,宜野湾市,宜野湾２丁目１０番６－１号ちゅらハウス４０３号,,47,205,9012211,,,,,,,2024-09-27,1,,,,,アントス,0
1942,8360003014334,新規,0,2024-09-27,2024-09-27,合同会社Ａ’ｓ,,合同会社,沖縄県,中頭郡中城村,字津覇１８２番地,,47,328,9012413,,,,,,,2024-09-27,1,,,,,エース,0
1943,8370001051758,新規,0,2024-09-27,2024-09-27,株式会社Ｙ・Ｙコーポレーション,,株式会社,宮城県,仙台市若林区,古城３丁目９番１２号,,04,103,9840825,,,,,,,2024-09-27,1,,,,,ワイワイコーポレーション,0
1944,8370005010842,新規,0,2024-09-27,2024-09-27,一般社団法人仙台あんかけカレー協会,,その他の設立登記法人,宮城県,仙台市青葉区,花京院２丁目１番地２８号菅原ビル２階,,04,101,9800013,,,,,,,2024-09-27,1,,,,,センダイアンカケカレーキョウカイ,0
1956,8430003016819,新規,0,2024-09-27,2024-09-27,合同会社ｓｈｉｎｅ,,合同会社,北海道,札幌市東区,北三十条東４丁目４番５号,,01,103,0650030,,,,,,,2024-09-27,1,,,,,シャイン,0
1958,8450005004423,新規,0,2024-09-27,2024-09-27,医療法人とりくり,,その他の設立登記法人,北海道,旭川市,東光一条２丁目２番１０号,,01,204,0788341,,,,,,,2024-09-27,1,,,,,トリクリ,0
1959,8460103001651,新規,0,2024-09-27,2024-09-27,合同会社喜成里,,合同会社,北海道,河西郡芽室町,東三条南４丁目３番地５,,01,637,0820053,,,,,,,2024-09-27,1,,,,,キナリ,0
1961,8500001025896,新規,0,2024-09-27,2024-09-27,ＮＯＢＡＬＬ．Ｈｉｇｈ株式会社,,株式会社,愛媛県,松山市,湊町１丁目１番地１１ジョイフル湊町４０３,,38,201,7900012,,,,,,,2024-09-27,1,,,,,ノボールハイ,0
1962,8700150076695,新規,0,2024-09-27,2016-10-31,丹青社取引先持株会,,その他,東京都,港区,港南１丁目２－７０,,13,103,1080075,,,,,,,2016-10-31,1,,,,,タンセイシャトリヒキサキモチカブカイ,0
1970,9010001248414,新規,0,2024-09-27,2024-09-27,株式会社ＹＭ‐ＬＡＢＯ,,株式会社,東京都,中央区,銀座６丁目６番１号銀座風月堂ビル５Ｆ,,13,102,1040061,,,,,,,2024-09-27,1,,,,,ワイエムラボ,0
1971,9010001248439,新規,0,2024-09-27,2024-09-27,ｍｏｆ株式会社,,株式会社,東京都,中央区,銀座１丁目２２番１１号銀座大竹ビジデンス２階,,13,102,1040061,,,,,,,2024-09-27,1,,,,,モフ,0
1972,9010001248505,新規,0,2024-09-27,2024-09-27,ＪＰＡ第３１７号株式会社,,株式会社,東京都,千代田区,霞が関３丁目２番１号,,13,101,1000013,,,,,,,2024-09-27,1,,,,,ジェイピーエーダイサンビャクジュウナナゴウ,0
1973,9010001248538,新規,0,2024-09-27,2024-09-27,株式会社ＢＥ　ＺＥＲＯ　ＯＮＥ,,株式会社,東京都,千代田区,神田和泉町１番地６―１６ヤマトビル４０５,,13,101,1010024,,,,,,,2024-09-27,1,,,,,ビーゼロワン,0
1974,9010001248554,新規,0,2024-09-27,2024-09-27,日高株式会社,,株式会社,東京都,千代田区,神田神保町２丁目３４番１号鳴海ビル２１１号室,,13,101,1010051,,,,,,,2024-09-27,1,,,,,ヒダカ,0
1975,9010001248587,新規,0,2024-09-27,2024-09-27,株式会社エーシーシステムコンサルティング,,株式会社,東京都,中央区,晴海３丁目１０－１,,13,102,1040053,,,,,,,2024-09-27,1,,,,,エーシーシステムコンサルティング,0
1978,9010003044571,新規,0,2024-09-27,2024-09-27,合同会社ＨＡＮＡＵＴＡ,,合同会社,東京都,中央区,日本橋富沢町５－５エクセルシオール日本橋９０２,,13,102,1030006,,,,,,,2024-09-27,1,,,,,ハナウタ,0
1979,9010003044984,新規,0,2024-09-27,2024-09-27,ブルーインフラ６号合同会社,,合同会社,東京都,千代田区,永田町２丁目１７番５号,,13,101,1000014,,,,,,,2024-09-27,1,,,,,ブルーインフラロクゴウ,0
1983,9010401185075,新規,0,2024-09-27,2024-09-27,株式会社ティーダ産業医事務所,,株式会社,東京都,港区,北青山１丁目３番１号アールキューブ青山３階,,13,103,1070061,,,,,,,2024-09-27,1,,,,,ティーダサンギョウイジムショ,0
1984,9010401185356,新規,0,2024-09-27,2024-09-27,株式会社ＬＩＢＥＲＡＬ　ＶＩＳＩＯＮＳ,,株式会社,東京都,港区,海岸２丁目１番１６号鈴与浜松町ビル８Ｆ,,13,103,1050022,,,,,,,2024-09-27,1,,,,,リベラルビジョンズ,0
1985,9010401185372,新規,0,2024-09-27,2024-09-27,光和商事株式会社,,株式会社,東京都,港区,東麻布３丁目６番１１号４Ｆ,,13,103,1060044,,,,,,,2024-09-27,1,,,,,コウワショウジ,0
1986,9010401185380,新規,0,2024-09-27,2024-09-27,株式会社Ｐｈａｒｍｅｓｔｈｅｔｉｃ　ＪＡＰＡＮ,,株式会社,東京都,港区,北青山１丁目３番１号アールキューブ青山３Ｆ,,13,103,1070061,,,,,,,2024-09-27,1,,,,,ファーメステティックジャパン,0
1987,9010405023545,新規,0,2024-09-27,2024-09-27,一般社団法人公共コンサルティング協議会,,その他の設立登記法人,東京都,港区,東新橋１丁目５番２号,,13,103,1050021,,,,,,,2024-09-27,1,,,,,コウキョウコンサルティングキョウギカイ,0
1990,9010601065936,新規,0,2024-09-27,2024-09-27,株式会社ＪＵ,,株式会社,東京都,江東区,亀戸６丁目３１番１－５０６号,,13,108,1360071,,,,,,,2024-09-27,1,,,,,ジェイユー,0
1991,9010601065993,新規,0,2024-09-27,2024-09-27,ライトナーセリー株式会社,,株式会社,東京都,江東区,北砂６丁目１番２２号,,13,108,1360073,,,,,,,2024-09-27,1,,,,,ライトナーセリー,0
1993,9010603011120,新規,0,2024-09-27,2024-09-27,合同会社ＮＡＭＡＲＵ,,合同会社,東京都,江東区,佐賀１丁目７番４号グランイーグル門前仲町９０２,,13,108,1350031,,,,,,,2024-09-27,1,,,,,ナマル,0
2013,9011001164808,新規,0,2024-09-27,2024-09-27,株式会社コノハ,,株式会社,東京都,渋谷区,神宮前３丁目７‐４パークプレース神宮前３Ｆ,,13,113,1500001,,,,,,,2024-09-27,1,,,,,コノハ,0
2014,9011001164881,新規,0,2024-09-27,2024-09-27,株式会社ＡＮＩＭＡＮＥＣＴ,,株式会社,東京都,渋谷区,道玄坂１丁目１０番８号渋谷道玄坂東急ビル２Ｆ－Ｃ,,13,113,1500043,,,,,,,2024-09-27,1,,,,,アニマネクト,0
2016,9011003020034,新規,0,2024-09-27,2024-09-27,合同会社Ｒ３７１,,合同会社,東京都,渋谷区,恵比寿３丁目２番９号,,13,113,1500013,,,,,,,2024-09-27,1,,,,,アールスリーセブンワン,0
2017,9011003020083,新規,0,2024-09-27,2024-09-27,Ａｘｉｏｎ　Ｓｐｈｅｒｅ合同会社,,合同会社,東京都,渋谷区,渋谷２丁目１９－１５宮益坂ビルディング６０９,,13,113,1500002,,,,,,,2024-09-27,1,,,,,アキシオンスフィア,0
2021,9011101108631,新規,0,2024-09-27,2024-09-27,株式会社光良,,株式会社,東京都,新宿区,西新宿３丁目３番１３号西新宿水間ビル２Ｆ,,13,104,1600023,,,,,,,2024-09-27,1,,,,,コウリョウ,0
2022,9011101108912,新規,0,2024-09-27,2024-09-27,株式会社スズタック,,株式会社,東京都,新宿区,信濃町３番地２,,13,104,1600016,,,,,,,2024-09-27,1,,,,,スズタック,0
2025,9011301030024,新規,0,2024-09-27,2024-09-27,株式会社東京管財,,株式会社,東京都,杉並区,西荻北４丁目２４番１０号,,13,115,1670042,,,,,,,2024-09-27,1,,,,,トウキョウカンザイ,0
2034,9011701027644,新規,0,2024-09-27,2024-09-27,ＣＯＮＶＩＩ株式会社,,株式会社,東京都,江戸川区,西葛西５丁目７番６号３階３０７号室,,13,123,1340088,,,,,,,2024-09-27,1,,,,,コンビー,0
2035,9011703003981,新規,0,2024-09-27,2024-09-27,ＳＮＯＲＥ５１２合同会社,,合同会社,東京都,江戸川区,南小岩２丁目７番１１号,,13,123,1330056,,,,,,,2024-09-27,1,,,,,スノアーゴイチニ,0
2038,9011803006471,新規,0,2024-09-27,2024-09-27,Ｙ・Ｆ合同会社,,合同会社,東京都,足立区,西新井本町１丁目２７番６号太平ビル３０６,,13,121,1230845,,,,,,,2024-09-27,1,,,,,ワイエフ,0
2042,9013301053137,新規,0,2024-09-27,2024-09-27,株式会社コネクテラ,,株式会社,東京都,豊島区,東池袋３丁目１番１号サンシャイン６０・１１階,,13,116,1700013,,,,,,,2024-09-27,1,,,,,コネクテラ,0
2046,9020001159172,新規,0,2024-09-27,2024-09-27,株式会社ＭＥＬＬＯＷ,,株式会社,神奈川県,横浜市港北区,綱島西６丁目２番２６－３０１号,,14,109,2230053,,,,,,,2024-09-27,1,,,,,,0
2054,9021001083321,新規,0,2024-09-27,2024-09-27,根上建築株式会社,,株式会社,神奈川県,小田原市,南町２丁目２番１７号,,14,206,2500013,,,,,,,2024-09-27,1,,,,,ネガミケンチク,0
2065,9030001162638,新規,0,2024-09-27,2024-09-27,株式会社ＹＰ,,株式会社,埼玉県,草加市,旭町５丁目６番６号マンション草加旭園３０４号,,11,221,3400053,,,,,,,2024-09-27,1,,,,,ワイピー,0
2069,9030003025181,新規,0,2024-09-27,2024-09-27,合同会社一二三,,合同会社,埼玉県,さいたま市緑区,東浦和３丁目２６番地８－６０５,,11,109,3360926,,,,,,,2024-09-27,1,,,,,ヒフミ,0
2074,9040001135519,新規,0,2024-09-27,2024-09-27,株式会社ＬａＢｒｉｌｌｅｒ,,株式会社,千葉県,千葉市中央区,富士見２丁目７番９号富士見ビル６０９号,,12,101,2600015,,,,,,,2024-09-27,1,,,,,ラブリエ,0
2081,9050001055435,新規,0,2024-09-27,2024-09-27,株式会社Ｓｏｍｅｄａｙ,,株式会社,茨城県,土浦市,霞ケ岡町２２番８号,,08,203,3000825,,,,,,,2024-09-27,1,,,,,サムデイ,0
2082,9050001055443,新規,0,2024-09-27,2024-09-27,徳成株式会社,,株式会社,茨城県,取手市,新町１丁目９－１リボンとりで５Ｆ,,08,217,3020024,,,,,,,2024-09-27,1,,,,,トクセイ,0
2083,9050003008688,新規,0,2024-09-27,2024-09-27,合同会社ＦＡＺＡＬ　ＴＲＡＤＩＮＧ,,合同会社,茨城県,坂東市,逆井３５３６番地大都ビル１０２,,08,228,3060501,,,,,,,2024-09-27,1,,,,,ファザルトレーディング,0
2084,9050003008696,新規,0,2024-09-27,2024-09-27,合同会社オルフェウスカンパニー,,合同会社,茨城県,土浦市,北荒川沖町７－２９,,08,203,3000876,,,,,,,2024-09-27,1,,,,,オルフェウスカンパニー,0
2085,9050005013496,新規,0,2024-09-27,2024-09-27,医療法人Ｌｉｎｋ‐ｄｏ,,その他の設立登記法人,茨城県,神栖市,筒井１７０９番地２２－２０１,,08,232,3140132,,,,,,,2024-09-27,1,,,,,リンクドゥ,0
2087,9060001037523,新規,0,2024-09-27,2024-09-27,株式会社エヌカイラスコーポレーション,,株式会社,栃木県,小山市,大字小山１０２番地１０,,09,208,3230825,,,,,,,2024-09-27,1,,,,,エヌカイラスコーポレーション,0
2088,9060001037531,新規,0,2024-09-27,2024-09-27,Ｔ＆Ｆ通運株式会社,,株式会社,栃木県,宇都宮市,上戸祭町２８３４番地１２９,,09,201,3200051,,,,,,,2024-09-27,1,,,,,ティーアンドエフツウウン,0
2091,9070001042209,新規,0,2024-09-27,2024-09-27,株式会社ＯＣＴ,,株式会社,群馬県,前橋市,六供町１丁目８番地６,,10,201,3710804,,,,,,,2024-09-27,1,,,,,オクト,0
2094,9080101025021,新規,0,2024-09-27,2024-09-27,株式会社渡辺会計,,株式会社,静岡県,富士市,天間１４８１番地の２,,22,210,4190205,,,,,,,2024-09-27,1,,,,,ワタナベカイケイ,0
2098,9090003002654,新規,0,2024-09-27,2024-09-27,探楽合同会社,,合同会社,山梨県,甲府市,城東２丁目１５番５号,,19,201,4000861,,,,,,,2024-09-27,1,,,,,タンラク,0
2100,9100001037873,新規,0,2024-09-27,2024-09-27,長野蓄電株式会社,,株式会社,長野県,長野市,豊野町浅野１８２７番地１,,20,201,3891104,,,,,,,2024-09-27,1,,,,,ナガノチクデン,0
2102,9100003007791,新規,0,2024-09-27,2024-09-27,Ｂｌｕｎａｖａ合同会社,,合同会社,長野県,松本市,大字中山３１１３－１,,20,202,3900823,,,,,,,2024-09-27,1,,,,,ブルナーヴァ,0
2103,9110001038722,新規,0,2024-09-27,2024-09-27,ｅ．ｂｉｓ株式会社,,株式会社,新潟県,燕市,粟生津２２４番地,,15,213,9590227,,,,,,,2024-09-27,1,,,,,エビス,0
2105,9110003005530,新規,0,2024-09-27,2024-09-27,合同会社平澤山,,合同会社,新潟県,糸魚川市,押上２丁目３番１３号,,15,216,9410051,,,,,,,2024-09-27,1,,,,,ヒラサワヤマ,0
2119,9120001268657,新規,0,2024-09-27,2024-09-27,株式会社ＩＣＨＩＳＥＫＩ,,株式会社,大阪府,大阪市福島区,福島６丁目１２番１２－４０３号,,27,103,5530003,,,,,,,2024-09-27,1,,,,,イチセキ,0
2120,9120001268748,新規,0,2024-09-27,2024-09-27,福宝ホールディングス株式会社,,株式会社,大阪府,大阪市浪速区,難波中３丁目９番５号福宝ビル,,27,111,5560011,,,,,,,2024-09-27,1,,,,,フクホーホールディングス,0
2121,9120001268764,新規,0,2024-09-27,2024-09-27,株式会社ＳＫ,,株式会社,大阪府,大阪市鶴見区,諸口１丁目１番９号２Ｆ,,27,124,5380051,,,,,,,2024-09-27,1,,,,,エスケイ,0
2122,9120001268780,新規,0,2024-09-27,2024-09-27,漢賦株式会社,,株式会社,大阪府,大阪市都島区,御幸町１丁目５番２６－６０３号,,27,102,5340012,,,,,,,2024-09-27,1,,,,,カンフ,0
2123,9120001268822,新規,0,2024-09-27,2024-09-27,イーストアップ株式会社,,株式会社,大阪府,大阪市淀川区,東三国３丁目１０番３－９０８号,,27,123,5320002,,,,,,,2024-09-27,1,,,,,イーストアップ,0
2125,9120101070319,新規,0,2024-09-27,2024-09-27,ＡＬＬ株式会社,,株式会社,大阪府,松原市,阿保５丁目１９番１４号,,27,217,5800043,,,,,,,2024-09-27,1,,,,,オール,0
2133,9130001077999,新規,0,2024-09-27,2024-09-27,ＵｍｅＳｈｉｐ株式会社,,株式会社,京都府,京都市中京区,聚楽廻南町１番地４,,26,104,6048411,,,,,,,2024-09-27,1,,,,,ウメシップ,0
2134,9130001078007,新規,0,2024-09-27,2024-09-27,株式会社ＴＨＲＥＥ　ＮＥＥＤＳ,,株式会社,京都府,京都市下京区,七条通油小路東入大黒町２２７番地第２キョートビル４０２,,26,106,6008223,,,,,,,2024-09-27,1,,,,,スリーニーズ,0
2135,9130001078015,新規,0,2024-09-27,2024-09-27,株式会社ベジオンＫＹＯＴＯ,,株式会社,京都府,亀岡市,千代川町今津１丁目１５番１５号,,26,206,6210051,,,,,,,2024-09-27,1,,,,,ベジオンキョウト,0
2136,9130003009876,新規,0,2024-09-27,2024-09-27,テイルウィンド合同会社,,合同会社,京都府,京都市東山区,大和大路通四条下る四丁目小松町５５７番地２０,,26,105,6050000,,,,,,,2024-09-27,1,,,,,テイルウィンド,0
2141,9140001135888,新規,0,2024-09-27,2024-09-27,株式会社Ｌｉｎｋ,,株式会社,兵庫県,神戸市東灘区,深江本町３丁目９番１号深江駅前ビル５０１,,28,101,6580021,,,,,,,2024-09-27,1,,,,,リンク,0
2142,9140001135921,新規,0,2024-09-27,2024-09-27,神戸いかり不動産株式会社,,株式会社,兵庫県,神戸市須磨区,権現町１丁目４番１８号,,28,107,6540031,,,,,,,2024-09-27,1,,,,,コウベイカリフドウサン,0
2144,9140003021120,新規,0,2024-09-27,2024-09-27,ソトハナ・メゾン企画合資会社,,合資会社,兵庫県,西宮市,二見町５番８号,,28,204,6638111,,,,,,,2024-09-27,1,,,,,ソトハナメゾンキカク,0
2148,9160001026235,新規,0,2024-09-27,2024-09-27,株式会社Ｏｎｅ　Ｒｉｖｅｒ,,株式会社,滋賀県,蒲生郡日野町,松尾１丁目５７番地１－２０１号,,25,383,5291601,,,,,,,2024-09-27,1,,,,,ワンリバー,0
2149,9160005011340,新規,0,2024-09-27,2024-09-27,特定非営利活動法人メッターヴィハーラ,,その他の設立登記法人,滋賀県,大津市,関津６丁目２２番２２号,,25,201,5202277,,,,,,,2024-09-27,1,,,,,メッターヴィハーラ,0
2155,9180001163365,新規,0,2024-09-27,2024-09-27,株式会社中部人事総研,,株式会社,愛知県,稲沢市,国府宮神田町２８番地ソシア国府宮Ａ棟２０１,,23,220,4928139,,,,,,,2024-09-27,1,,,,,チュウブジンジソウケン,0
2157,9180301039083,新規,0,2024-09-27,2024-09-27,株式会社ＧＲＡＮ,,株式会社,愛知県,豊田市,栄町１丁目２２番地５,,23,211,4710066,,,,,,,2024-09-27,1,,,,,グラン,0
2162,9180303006288,新規,0,2024-09-27,2024-09-27,ＲｉｐｅＫａ合同会社,,合同会社,愛知県,岡崎市,秦梨町字寺向７番地２,,23,202,4443343,,,,,,,2024-09-27,1,,,,,リペカ,0
2171,9210003001841,新規,0,2024-09-27,2024-09-27,Ｍｉｎｏｒｉ合同会社,,合同会社,福井県,福井市,砂子坂町第１４号２番地,,18,201,9103143,,,,,,,2024-09-27,1,,,,,ミノリ,0
2172,9220001026220,新規,0,2024-09-27,2024-09-27,株式会社ラ・ファミーユ,,株式会社,石川県,金沢市,上荒屋８丁目８１番地２,,17,201,9218065,,,,,,,2024-09-27,1,,,,,ラファミーユ,0
2174,9240001063848,新規,0,2024-09-27,2024-09-27,株式会社オフィス高橋,,株式会社,広島県,福山市,北本庄２丁目１５番１８号,,34,207,7200074,,,,,,,2024-09-27,1,,,,,オフィスタカハシ,0
2175,9240001063856,新規,0,2024-09-27,2024-09-27,株式会社マトンファクトリー,,株式会社,広島県,広島市西区,田方１丁目２６番２７－２号,,34,104,7330851,,,,,,,2024-09-27,1,,,,,マトンファクトリー,0
2177,9240003006870,新規,0,2024-09-27,2024-09-27,合同会社Ｂｒｉｎｇ　ｕｐ,,合同会社,広島県,広島市西区,草津梅が台７番６号,,34,104,7330864,,,,,,,2024-09-27,1,,,,,ブリングアップ,0
2190,9300001013912,新規,0,2024-09-27,2024-09-27,株式会社電子印刷社,,株式会社,佐賀県,鳥栖市,本鳥栖町１４８９番地１,,41,203,8410026,,,,,,,2024-09-27,1,,,,,デンシインサツシャ,0
2194,9310003004867,新規,0,2024-09-27,2024-09-27,合同会社ＳＰＵＲＳ,,合同会社,長崎県,大村市,東本町９６中尾ビル１号室,,42,205,8560831,,,,,,,2024-09-27,1,,,,,スパーズ,0
2201,9340003004617,新規,0,2024-09-27,2024-09-27,合同会社Ｊｉｍｎｙ．,,合同会社,鹿児島県,姶良郡湧水町,木場３２１０番地７,,46,452,8996201,,,,,,,2024-09-27,1,,,,,ジムニードット,0
2202,9350001019194,新規,0,2024-09-27,2024-09-27,株式会社日南飫肥石油,,株式会社,宮崎県,日南市,飫肥１丁目１番１号,,45,204,8892535,,,,,,,2024-09-27,1,,,,,ニチナンオビセキユ,0
2204,9360001034226,新規,0,2024-09-27,2024-09-27,株式会社島,,株式会社,沖縄県,糸満市,字阿波根３８番地,,47,210,9010301,,,,,,,2024-09-27,1,,,,,シマ,0
2209,9380001034810,新規,0,2024-09-27,2024-09-27,株式会社シャインビー,,株式会社,福島県,福島市,渡利字岩崎町３０番地の２,,07,201,9608141,,,,,,,2024-09-27,1,,,,,シャインビー,0
2219,9460303000840,新規,0,2024-09-27,2024-09-27,合同会社能登カンパニー,,合同会社,北海道,北見市,山下町１丁目１番１０－３０１号,,01,208,0900037,,,,,,,2024-09-27,1,,,,,ノトカンパニー,0
2225,9500001025895,新規,0,2024-09-27,2024-09-27,株式会社小田運送,,株式会社,愛媛県,松山市,高岡町５９番地４,,38,201,7918036,,,,,,,2024-09-27,1,,,,,オダウンソウ,0
2226,9500001025904,新規,0,2024-09-27,2024-09-27,四国ペインターズ株式会社,,株式会社,愛媛県,松山市,萱町６丁目２０番地８,,38,201,7900813,,,,,,,2024-09-27,1,,,,,シコクペインターズ,0
2227,9700150017673,新規,0,2024-09-27,2015-10-09,熊谷市職員労働組合,,その他,埼玉県,熊谷市,宮町２丁目４７－１,,11,202,3600041,,,,,,,2015-10-09,1,,,,,クマガヤシシヨクインロウドウクミアイ,0
