sequenceNumber,corporateNumber,process,correct,updateDate,changeDate,name,nameImageId,kind,prefectureName,cityName,streetNumber,addressImageId,prefectureCode,cityCode,postCode,addressOutside,addressOutsideImageId,closeDate,closeCause,successorCorporateNumber,changeCause,assignmentDate,latest,enName,enPrefectureName,enCityName,enAddressOutside,furigana,hihyoji
14,1010001230016,新規,0,2022-10-07,2022-10-07,株式会社ＢＯＲＮＳＴＡＲ　ＪＡＰＡＮ,,株式会社,東京都,中央区,晴海３丁目１３番２号,,13,102,1040053,,,,,,,2022-10-07,1,,,,,ボーンスタージャパン,0
15,1010001230032,新規,0,2022-10-07,2022-10-07,株式会社スパイラルキュートラボ,,株式会社,東京都,中央区,新川２丁目６番２号,,13,102,1040033,,,,,,,2022-10-07,1,,,,,スパイラルキュートラボ,0
16,1010001230049,新規,0,2022-10-07,2022-10-07,株式会社ＵＰｅｒｓ,,株式会社,東京都,文京区,本駒込３丁目１０番２３号早川ビルＢ１,,13,105,1130021,,,,,,,2022-10-07,1,,,,,アッパーズ,0
21,1010003038812,新規,0,2022-10-07,2022-10-07,ＦＰＡ合同会社,,合同会社,東京都,千代田区,麹町３丁目５番１７号,,13,101,1020083,,,,,,,2022-10-07,1,,,,,エフピーエー,0
22,1010005035618,新規,0,2022-10-07,2022-10-07,特定非営利活動法人Ｗｏｏｄｓ,,その他の設立登記法人,東京都,文京区,白山２丁目１９番９号２階アトリエ１,,13,105,1120001,,,,,,,2022-10-07,1,,,,,ウッズ,0
23,1010005035642,新規,0,2022-10-07,2022-10-07,一般社団法人インターナショナルキャットクラブ,,その他の設立登記法人,東京都,千代田区,神田須田町１丁目２２番地大久保ビル３Ｆ,,13,101,1010041,,,,,,,2022-10-07,1,,,,,インターナショナルキャットクラブ,0
26,1010401170076,新規,0,2022-10-07,2022-10-07,株式会社朝日デジタルラボ,,株式会社,東京都,港区,虎ノ門３丁目２２番１号,,13,103,1050001,,,,,,,2022-10-07,1,,,,,アサヒデジタルラボ,0
27,1010401170118,新規,0,2022-10-07,2022-10-07,アクシア都市開発株式会社,,株式会社,東京都,港区,南青山３丁目１番３６号青山丸竹ビル６Ｆ,,13,103,1070062,,,,,,,2022-10-07,1,,,,,アクシアトシカイハツ,0
28,1010401170126,新規,0,2022-10-07,2022-10-07,ジャパンプロダクション株式会社,,株式会社,東京都,港区,赤坂６丁目１３番１９－６０２号,,13,103,1070052,,,,,,,2022-10-07,1,,,,,ジャパンプロダクション,0
29,1010401170142,新規,0,2022-10-07,2022-10-07,株式会社Ｄｏｃｕｍｅｎｔ　Ｎｏｔ　Ｆｏｕｎｄ,,株式会社,東京都,港区,新橋２丁目１６－１ニュー新橋ビル７０２,,13,103,1050004,,,,,,,2022-10-07,1,,,,,ドキュメントノットファウンド,0
30,1010401170150,新規,0,2022-10-07,2022-10-07,三合国際文化株式会社,,株式会社,東京都,港区,新橋６丁目５番４－８０８号,,13,103,1050004,,,,,,,2022-10-07,1,,,,,サンワコクサイブンカ,0
31,1010401170159,新規,0,2022-10-07,2022-10-07,株式会社ＭＡＴＳＵＯＫＡ,,株式会社,東京都,港区,麻布十番３丁目７－４コムズ麻布十番Ｂ１Ｆ,,13,103,1060045,,,,,,,2022-10-07,1,,,,,マツオカ,0
33,1010403028561,新規,0,2022-10-07,2022-10-07,合同会社ＮＺＵ,,合同会社,東京都,港区,浜松町２丁目２番１５号浜松町ダイヤビル２Ｆ,,13,103,1050013,,,,,,,2022-10-07,1,,,,,エヌゼットユー,0
34,1010403028628,新規,0,2022-10-07,2022-10-07,合同会社グリーンパワーいすみ,,合同会社,東京都,港区,赤坂１丁目１１番４４号赤坂インターシティ,,13,103,1070052,,,,,,,2022-10-07,1,,,,,グリーンパワーイスミ,0
35,1010403028644,新規,0,2022-10-07,2022-10-07,合同会社ボイスプラン,,合同会社,東京都,港区,浜松町２丁目２－１５浜松町ダイヤビル２Ｆ,,13,103,1050013,,,,,,,2022-10-07,1,,,,,ボイスプラン,0
36,1010403028660,新規,0,2022-10-07,2022-10-07,ルミエール合同会社,,合同会社,東京都,港区,赤坂６丁目６番２２号,,13,103,1070052,,,,,,,2022-10-07,1,,,,,ルミエール,0
43,1010603009766,新規,0,2022-10-07,2022-10-07,合同会社ＲｏｏｔＳ,,合同会社,東京都,江東区,亀戸５丁目２番１号カメヤビル６Ｆ,,13,108,1360071,,,,,,,2022-10-07,1,,,,,ルーツ,0
46,1010803004303,新規,0,2022-10-07,2022-10-07,一歩一歩合同会社,,合同会社,東京都,大田区,西馬込１丁目４番７－４０７号,,13,111,1430026,,,,,,,2022-10-07,1,,,,,イッポイッポ,0
48,1010901051767,新規,0,2022-10-07,2022-10-07,株式会社トップレター,,株式会社,東京都,世田谷区,梅丘１丁目４２－２－３０４,,13,112,1540022,,,,,,,2022-10-07,1,,,,,トップレター,0
52,1010905004374,新規,0,2022-10-07,2022-10-07,医療法人社団松希会,,その他の設立登記法人,東京都,世田谷区,南烏山６丁目４番３号タカラビル３階,,13,112,1570062,,,,,,,2022-10-07,1,,,,,ショウキカイ,0
54,1011001150030,新規,0,2022-10-07,2022-10-07,株式会社ポリモッドクリエイティブ,,株式会社,東京都,渋谷区,円山町５番５号Ｎａｖｉ渋谷Ｖ３階,,13,113,1500044,,,,,,,2022-10-07,1,,,,,ポリモッドクリエイティブ,0
55,1011001150179,新規,0,2022-10-07,2022-10-07,株式会社ｎｆｔ　ｒｅｖｉｅｗ,,株式会社,東京都,目黒区,八雲３丁目１０番７号ウィステリア八雲１０２,,13,110,1520023,,,,,,,2022-10-07,1,,,,,エヌエフティレビュー,0
57,1011003015479,新規,0,2022-10-07,2022-10-07,壌結合同会社,,合同会社,東京都,渋谷区,猿楽町４番９号,,13,113,1500033,,,,,,,2022-10-07,1,,,,,ツチムスビ,0
67,1011101100414,新規,0,2022-10-07,2022-10-07,株式会社ＴＩＤＹ,,株式会社,東京都,新宿区,西新宿３丁目３番１３号西新宿水間ビル６階,,13,104,1600023,,,,,,,2022-10-07,1,,,,,タイディ,0
68,1011101100430,新規,0,2022-10-07,2022-10-07,株式会社アルゴ,,株式会社,東京都,新宿区,西新宿１丁目２５番１号新宿センタービル４９階,,13,104,1600023,,,,,,,2022-10-07,1,,,,,アルゴ,0
71,1011103012236,新規,0,2022-10-07,2022-10-07,ＴＹＢＬ　ＣＯＮＳＵＬＴＩＮＧ合同会社,,合同会社,東京都,新宿区,新宿６丁目６番５号,,13,104,1600022,,,,,,,2022-10-07,1,,,,,ティーワイビーエルコンサルティング,0
74,1011201024133,新規,0,2022-10-07,2022-10-07,株式会社Ｈａｋｕｎａ　Ｍａｔａｔａ,,株式会社,東京都,中野区,沼袋１丁目２０番３号,,13,114,1650025,,,,,,,2022-10-07,1,,,,,ハクナマタタ,0
75,1011301028166,新規,0,2022-10-07,2022-10-07,株式会社サカエル,,株式会社,東京都,杉並区,高井戸東４丁目２２番１７－３号,,13,115,1680072,,,,,,,2022-10-07,1,,,,,サカエル,0
76,1011401024585,新規,0,2022-10-07,2022-10-07,捷高日本株式会社,,株式会社,東京都,板橋区,仲宿５６番７－１００７号,,13,119,1730005,,,,,,,2022-10-07,1,,,,,ショウコウニホン,0
77,1011401024593,新規,0,2022-10-07,2022-10-07,Ｒｅａｌ　ｅｓｔａｔｅ　ｔｅａｍ株式会社,,株式会社,東京都,板橋区,大谷口上町２－５北村第一ビル３Ｆ,,13,119,1730032,,,,,,,2022-10-07,1,,,,,リアルエステートチーム,0
80,1011705001751,新規,0,2022-10-07,2022-10-07,西川・伊藤税理士法人,,その他の設立登記法人,東京都,江戸川区,南小岩８丁目１６番２２号,,13,123,1330056,,,,,,,2022-10-07,1,,,,,ニシカワイトウ,0
85,1011801041354,新規,0,2022-10-07,2022-10-07,株式会社ＹＧＰ,,株式会社,東京都,足立区,西新井本町４丁目２９番１１－４０７号,,13,121,1230845,,,,,,,2022-10-07,1,,,,,ワイジーピー,0
86,1011801041370,新規,0,2022-10-07,2022-10-07,株式会社林住設,,株式会社,東京都,足立区,東綾瀬３丁目７番１６号幸保ビル１０２号室,,13,121,1200004,,,,,,,2022-10-07,1,,,,,ハヤシジュウセツ,0
90,1012303001730,新規,0,2022-10-07,2022-10-07,Ｍ’ｓ合同会社,,合同会社,東京都,町田市,小川６丁目２２番１号,,13,209,1940003,,,,,,,2022-10-07,1,,,,,エムズ,0
92,1012403005615,新規,0,2022-10-07,2022-10-07,合同会社ＡＮＤ　ＯＮＯ,,合同会社,東京都,小金井市,本町２丁目１９番３６号,,13,210,1840004,,,,,,,2022-10-07,1,,,,,アンドオノ,0
93,1012701017295,新規,0,2022-10-07,2022-10-07,株式会社サンテックフォワード,,株式会社,東京都,西東京市,保谷町５丁目１５番２２－１号,,13,229,2020015,,,,,,,2022-10-07,1,,,,,サンテックフォワード,0
95,1013101009024,新規,0,2022-10-07,2022-10-07,株式会社そぷら,,株式会社,東京都,あきる野市,油平２０５番地５,,13,228,1970827,,,,,,,2022-10-07,1,,,,,ソプラ,0
102,1020001148471,新規,0,2022-10-07,2022-10-07,株式会社三本住宅設備,,株式会社,神奈川県,横浜市緑区,北八朔町１８６番地オーチャードアパートメントＣ２０３,,14,113,2260021,,,,,,,2022-10-07,1,,,,,ミツモトジュウタクセツビ,0
105,1020005015684,新規,0,2022-10-07,2022-10-07,一般社団法人日本大通りエリアマネジメント協議会,,その他の設立登記法人,神奈川県,横浜市西区,みなとみらい２丁目３－１クイーンズタワーＡ４０３Ｂ,,14,103,2200012,,,,,,,2022-10-07,1,,,,,ニホンオオドオリエリアマネジメントキョウギカイ,0
114,1021001077108,新規,0,2022-10-07,2022-10-07,株式会社さざん,,株式会社,神奈川県,海老名市,中央１丁目１６番４０号,,14,215,2430432,,,,,,,2022-10-07,1,,,,,サザン,0
115,1021001077132,新規,0,2022-10-07,2022-10-07,辰実工業株式会社,,株式会社,神奈川県,小田原市,南町３丁目１番５２号,,14,206,2500013,,,,,,,2022-10-07,1,,,,,タツミコウギョウ,0
128,1030001150393,新規,0,2022-10-07,2022-10-07,株式会社五十嵐ボーリング,,株式会社,埼玉県,羽生市,大字藤井上組３６４番地６,,11,216,3480064,,,,,,,2022-10-07,1,,,,,イガラシボーリング,0
129,1030001150402,新規,0,2022-10-07,2022-10-07,株式会社ワイズエキスパート,,株式会社,埼玉県,川口市,朝日５丁目３－２７,,11,203,3320001,,,,,,,2022-10-07,1,,,,,ワイズエキスパート,0
130,1030001150410,新規,0,2022-10-07,2022-10-07,良将工業株式会社,,株式会社,埼玉県,さいたま市岩槻区,大字鹿室１１２５番地１５,,11,110,3390001,,,,,,,2022-10-07,1,,,,,リョウショウコウギョウ,0
131,1030001150435,新規,0,2022-10-07,2022-10-07,株式会社たねや,,株式会社,埼玉県,さいたま市見沼区,大字南中丸６２８番地,,11,104,3370041,,,,,,,2022-10-07,1,,,,,タネヤ,0
132,1030001150443,新規,0,2022-10-07,2022-10-07,Ａｚ株式会社,,株式会社,埼玉県,川口市,江戸袋１丁目１５番５号,,11,203,3340075,,,,,,,2022-10-07,1,,,,,アズ,0
133,1030001150451,新規,0,2022-10-07,2022-10-07,株式会社ＤＲＥＡＭ　ＵＰ,,株式会社,埼玉県,草加市,青柳７丁目６１番２５号,,11,221,3400002,,,,,,,2022-10-07,1,,,,,ドリームアップ,0
140,1030003020330,新規,0,2022-10-07,2022-10-07,合同会社Ｓｌｅｅｐｙ　Ｈｉｐｐｏ,,合同会社,埼玉県,川口市,大字安行慈林６９５番地１号グリーンヒルズ２０２号室,,11,203,3340071,,,,,,,2022-10-07,1,,,,,スリーピーヒッポ,0
141,1030003020339,新規,0,2022-10-07,2022-10-07,合同会社クラブイート,,合同会社,埼玉県,川越市,中台南２丁目１番地１,,11,201,3501150,,,,,,,2022-10-07,1,,,,,クラブイート,0
142,1030003020347,新規,0,2022-10-07,2022-10-07,合同会社Ｏｎｅ　Ｓｔｅｐ,,合同会社,埼玉県,草加市,氷川町２１５２番地２－２０９,,11,221,3400034,,,,,,,2022-10-07,1,,,,,ワンステップ,0
146,1040001125279,新規,0,2022-10-07,2022-10-07,ＬＥＡＰホールディングス株式会社,,株式会社,千葉県,流山市,大字木４６２番地の４（木Ｂ６６街区６）,,12,220,2700162,,,,,,,2022-10-07,1,,,,,リープホールディングス,0
147,1040001125312,新規,0,2022-10-07,2022-10-07,クルマルシェ株式会社,,株式会社,千葉県,市原市,青柳２０４２番地１,,12,219,2990102,,,,,,,2022-10-07,1,,,,,クルマルシェ,0
153,1050001051755,新規,0,2022-10-07,2022-10-07,株式会社アンビエンテ・リフォーム,,株式会社,茨城県,石岡市,石岡１３９０３番地３,,08,205,3150001,,,,,,,2022-10-07,1,,,,,アンビエンテリフォーム,0
157,1050005013157,新規,0,2022-10-07,2022-10-07,医療法人はならび,,その他の設立登記法人,茨城県,日立市,千石町２丁目５番１９号,,08,202,3160013,,,,,,,2022-10-07,1,,,,,ハナラビ,0
158,1060001035328,新規,0,2022-10-07,2022-10-07,株式会社ナラ入沢,,株式会社,栃木県,日光市,上三依６２３番地１,,09,206,3212802,,,,,,,2022-10-07,1,,,,,ナライリサワ,0
159,1060001035336,新規,0,2022-10-07,2022-10-07,ＥＧＹＰＴ　ＴＲＡＤＩＮＧ株式会社,,株式会社,栃木県,小山市,東城南２丁目１３番地１５森子ハイツ２階２０１号室,,09,208,3230829,,,,,,,2022-10-07,1,,,,,エジプトトレーディング,0
160,1070001039708,新規,0,2022-10-07,2022-10-07,エスエス産業株式会社,,株式会社,群馬県,前橋市,茂木町７９番地６,,10,201,3710232,,,,,,,2022-10-07,1,,,,,エスエスサンギョウ,0
165,1070005010045,新規,0,2022-10-07,2022-10-07,医療法人Ｍ’ｓ　Ｆａｍｉｌｙ,,その他の設立登記法人,群馬県,前橋市,朝倉町３丁目３４番６,,10,201,3710811,,,,,,,2022-10-07,1,,,,,エムズファミリー,0
166,1080001025236,新規,0,2022-10-07,2022-10-07,株式会社ＬＯＣＯＳＥＲＡ,,株式会社,静岡県,静岡市葵区,常磐町３丁目２－７ＳＯＺＯＳＹＡ常磐町２Ｃ,,22,101,4200034,,,,,,,2022-10-07,1,,,,,ロコセラ,0
180,1100001035777,新規,0,2022-10-07,2022-10-07,株式会社２８ＬＡＢＯ,,株式会社,長野県,千曲市,大字八幡６０２６番地１,,20,218,3870023,,,,,,,2022-10-07,1,,,,,ニワラボ,0
183,1110001037021,新規,0,2022-10-07,2022-10-07,株式会社田辺建築設計,,株式会社,新潟県,燕市,上児木３３１番地１,,15,213,9591223,,,,,,,2022-10-07,1,,,,,タナベケンチクセッケイ,0
194,1120001249292,新規,0,2022-10-07,2022-10-07,株式会社Ｎｏａ,,株式会社,大阪府,大阪市北区,大淀南２丁目９番７号パークフロント北梅田５０１号室,,27,127,5310075,,,,,,,2022-10-07,1,,,,,ノア,0
195,1120001249359,新規,0,2022-10-07,2022-10-07,株式会社ことといろ,,株式会社,大阪府,大阪市中央区,船場中央１丁目３番２－１０１号船場センタービル２号館１階一般財団法人大阪デザインセンター内,,27,128,5410055,,,,,,,2022-10-07,1,,,,,コトトイロ,0
196,1120001249367,新規,0,2022-10-07,2022-10-07,豪嘉株式会社,,株式会社,大阪府,大阪市平野区,瓜破２丁目１－５０アビタシオン２３－２０２号,,27,126,5470024,,,,,,,2022-10-07,1,,,,,ゴウカ,0
197,1120001249375,新規,0,2022-10-07,2022-10-07,ＫｉＴｏｕ株式会社,,株式会社,大阪府,大阪市西成区,長橋２丁目６番２４号,,27,122,5570025,,,,,,,2022-10-07,1,,,,,キトウ,0
198,1120001249409,新規,0,2022-10-07,2022-10-07,Ｌａｕｎｃｈ　Ｃｏｎｔｒｏｌ　Ａｓｓｅｔ　Ｍａｎａｇｅｍｅｎｔ株式会社,,株式会社,大阪府,大阪市東淀川区,豊新５丁目１７番７－３０１号,,27,114,5330014,,,,,,,2022-10-07,1,,,,,ローンチコントロールアセットマネジメント,0
200,1120005023223,新規,0,2022-10-07,2022-10-07,一般社団法人事業活動推進協会,,その他の設立登記法人,大阪府,大阪市浪速区,幸町２丁目３番１４号,,27,111,5560021,,,,,,,2022-10-07,1,,,,,ジギョウカツドウスイシンキョウカイ,0
201,1120005023231,新規,0,2022-10-07,2022-10-07,一般社団法人シニア・ライフ・パートナーズ,,その他の設立登記法人,大阪府,大阪市中央区,内久宝寺町２丁目６番５号,,27,128,5400013,,,,,,,2022-10-07,1,,,,,シニアライフパートナーズ,0
202,1120101066282,新規,0,2022-10-07,2022-10-07,株式会社ＫＳＫ,,株式会社,大阪府,泉佐野市,湊２丁目１－１２,,27,213,5980063,,,,,,,2022-10-07,1,,,,,ケーエスケー,0
203,1120101066316,新規,0,2022-10-07,2022-10-07,株式会社ＭＹＡ,,株式会社,大阪府,富田林市,喜志町４丁目１１番９号,,27,214,5840005,,,,,,,2022-10-07,1,,,,,エムワイエー,0
204,1120101066332,新規,0,2022-10-07,2022-10-07,光亜技建株式会社,,株式会社,大阪府,堺市堺区,緑ヶ丘中町２丁１番２号,,27,141,5900805,,,,,,,2022-10-07,1,,,,,コウアギケン,0
205,1120101066349,新規,0,2022-10-07,2022-10-07,新晃リノベーション株式会社,,株式会社,大阪府,松原市,上田６丁目２４４番地の５,,27,217,5800016,,,,,,,2022-10-07,1,,,,,シンコウリノベーション,0
208,1120901046566,新規,0,2022-10-07,2022-10-07,株式会社Ｒ＆Ｄ　ＥＳＰＲＥＳＳＯ　ＬＡＢ,,株式会社,大阪府,摂津市,一津屋１丁目３２番１０号,,27,224,5660043,,,,,,,2022-10-07,1,,,,,アールアンドディーエスプレッソラボ,0
209,1120901046574,新規,0,2022-10-07,2022-10-07,株式会社ＭｏｉＧａｒｄｅｎＤｅｓｉｇｎ,,株式会社,大阪府,箕面市,牧落１丁目１９番１９号１Ｆ－Ｃ,,27,220,5620004,,,,,,,2022-10-07,1,,,,,モイガーデンデザイン,0
213,1130003008233,新規,0,2022-10-07,2022-10-07,合同会社ｐｕｓｕ,,合同会社,京都府,京都市北区,大宮上ノ岸町６２番地６,,26,101,6038401,,,,,,,2022-10-07,1,,,,,プス,0
225,1140001127587,新規,0,2022-10-07,2022-10-07,ＡｌｌｉｅｄＣｅｌ株式会社,,株式会社,兵庫県,神戸市中央区,港島南町１丁目５番５号,,28,110,6500047,,,,,,,2022-10-07,1,,,,,アライドセル,0
226,1140001127612,新規,0,2022-10-07,2022-10-07,株式会社プラスワン,,株式会社,兵庫県,姫路市,白鳥台３丁目２４番１３号,,28,201,6712245,,,,,,,2022-10-07,1,,,,,プラスワン,0
227,1140001127629,新規,0,2022-10-07,2022-10-07,株式会社ＩＷＡＴＡ　ＪＡＰＡＮ,,株式会社,兵庫県,神戸市兵庫区,福原町３２番１５号,,28,105,6520036,,,,,,,2022-10-07,1,,,,,イワタジャパン,0
228,1140001127637,新規,0,2022-10-07,2022-10-07,株式会社宍粟印,,株式会社,兵庫県,宍粟市,一宮町東河内９８番地２,,28,227,6714141,,,,,,,2022-10-07,1,,,,,シソウジルシ,0
231,1140003018223,新規,0,2022-10-07,2022-10-07,合同会社ウェルビーイング,,合同会社,兵庫県,西宮市,大浜町１番５８－５０１号,,28,204,6620957,,,,,,,2022-10-07,1,,,,,ウェルビーイング,0
234,1150001025856,新規,0,2022-10-07,2022-10-07,株式会社ロカ,,株式会社,奈良県,生駒郡平群町,西宮３丁目８番１１号１Ｆ,,29,342,6360914,,,,,,,2022-10-07,1,,,,,ロカ,0
235,1150001025864,新規,0,2022-10-07,2022-10-07,株式会社宮内工業,,株式会社,奈良県,橿原市,北妙法寺町５１３番地ディーグラフォートＥ棟１０２号室,,29,205,6340843,,,,,,,2022-10-07,1,,,,,ミヤウチコウギョウ,0
236,1150003002787,新規,0,2022-10-07,2022-10-07,合同会社かいこうら,,合同会社,奈良県,橿原市,醍醐町１４６番地の１１,,29,205,6340072,,,,,,,2022-10-07,1,,,,,カイコウラ,0
238,1160001024551,新規,0,2022-10-07,2022-10-07,ＬＩＣ株式会社,,株式会社,滋賀県,野洲市,市三宅３１５０番地１０１,,25,210,5202362,,,,,,,2022-10-07,1,,,,,リック,0
239,1170001017307,新規,0,2022-10-07,2022-10-07,株式会社宵酔,,株式会社,和歌山県,和歌山市,上三毛９４２番地２,,30,201,6496262,,,,,,,2022-10-07,1,,,,,ヨイヨイ,0
245,1180001153142,新規,0,2022-10-07,2022-10-07,株式会社Ｓホールディングス,,株式会社,愛知県,春日井市,東野町４丁目５番地５,,23,206,4860817,,,,,,,2022-10-07,1,,,,,エスホールディングス,0
246,1180001153217,新規,0,2022-10-07,2022-10-07,株式会社エスディーケー,,株式会社,愛知県,一宮市,今伊勢町馬寄字観音堂１３番地１,,23,203,4910051,,,,,,,2022-10-07,1,,,,,エスディーケー,0
247,1180001153258,新規,0,2022-10-07,2022-10-07,株式会社Ｐｅｒ　Ｓｏｒｄｉ．,,株式会社,愛知県,名古屋市中村区,名駅４丁目１７番３号,,23,105,4500002,,,,,,,2022-10-07,1,,,,,ペルソールディ,0
248,1180001153266,新規,0,2022-10-07,2022-10-07,株式会社ＮＴＩ,,株式会社,愛知県,名古屋市中区,錦１丁目４番１９号プラウドタワー名古屋丸の内１５０１号,,23,106,4600003,,,,,,,2022-10-07,1,,,,,エヌティーアイ,0
249,1180001153274,新規,0,2022-10-07,2022-10-07,株式会社スプラウト,,株式会社,愛知県,名古屋市天白区,植田南３丁目３０８番地プレミスト植田７０３号,,23,116,4680053,,,,,,,2022-10-07,1,,,,,スプラウト,0
250,1180001153282,新規,0,2022-10-07,2022-10-07,株式会社パプリカ,,株式会社,愛知県,日進市,岩崎台４丁目１１１２番地７,,23,230,4700135,,,,,,,2022-10-07,1,,,,,パプリカ,0
251,1180001153308,新規,0,2022-10-07,2022-10-07,株式会社ＮＩＮＥ,,株式会社,愛知県,名古屋市中区,大須４丁目１番２号三玉ビル３Ｆ,,23,106,4600011,,,,,,,2022-10-07,1,,,,,ナイン,0
252,1180001153316,新規,0,2022-10-07,2022-10-07,うさぎ堂株式会社,,株式会社,愛知県,名古屋市西区,名塚町３丁目１０３,,23,104,4510081,,,,,,,2022-10-07,1,,,,,,0
253,1180001153332,新規,0,2022-10-07,2022-10-07,株式会社Ｓ．Ｋ．Ｗｏｒｋｓ,,株式会社,愛知県,一宮市,木曽川町黒田字勘宗山５４番地（１号室）,,23,203,4930001,,,,,,,2022-10-07,1,,,,,エスケーワークス,0
258,1180003024341,新規,0,2022-10-07,2022-10-07,ＲＡＢＢＩＴ　ＨＯＵＳＥ合同会社,,合同会社,愛知県,名古屋市中区,栄５丁目２６番３９号ＧＳ栄ビル３Ｆ,,23,106,4600008,,,,,,,2022-10-07,1,,,,,ラビットハウス,0
260,1180005019950,新規,0,2022-10-07,2022-10-07,一般社団法人ゆいまーるの会,,その他の設立登記法人,愛知県,日進市,赤池町箕ノ手２番地１７３０,,23,230,4700126,,,,,,,2022-10-07,1,,,,,ユイマールノカイ,0
261,1180005019967,新規,0,2022-10-07,2022-10-07,一般社団法人海と日本プロジェクトｉｎ愛知県,,その他の設立登記法人,愛知県,名古屋市中区,大須２丁目４番８号,,23,106,4600011,,,,,,,2022-10-07,1,,,,,ウミトニッポンプロジェクトインアイチケン,0
263,1180301036690,新規,0,2022-10-07,2022-10-07,株式会社Ｔｒｅｓ,,株式会社,愛知県,刈谷市,高津波町３丁目５１０番地,,23,210,4480047,,,,,,,2022-10-07,1,,,,,トレス,0
269,1190001029812,新規,0,2022-10-07,2022-10-07,株式会社鈴一工業,,株式会社,三重県,四日市市,笹川２丁目１１６番地アークヒルズ栄Ｂ－２０２,,24,202,5100944,,,,,,,2022-10-07,1,,,,,スズイチコウギョウ,0
270,1190001029820,新規,0,2022-10-07,2022-10-07,株式会社真和,,株式会社,三重県,松阪市,飯高町森１２８０番地,,24,204,5151615,,,,,,,2022-10-07,1,,,,,シンワ,0
272,1200001040528,新規,0,2022-10-07,2022-10-07,ＩＢ測量開発株式会社,,株式会社,岐阜県,大垣市,三本木４丁目２１番地,,21,202,5030813,,,,,,,2022-10-07,1,,,,,アイビーソクリョウカイハツ,0
275,1200005013397,新規,0,2022-10-07,2022-10-07,一般社団法人才技能支援協力会,,その他の設立登記法人,岐阜県,美濃加茂市,加茂野町木野字下池４６４番地８,,21,211,5050053,,,,,,,2022-10-07,1,,,,,サイギノウシエンキョウリョクカイ,0
281,1220001025064,新規,0,2022-10-07,2022-10-07,株式会社前田建築板金,,株式会社,石川県,金沢市,忠縄町２４８番地１,,17,201,9203102,,,,,,,2022-10-07,1,,,,,マエダケンチクバンキン,0
284,1230001019544,新規,0,2022-10-07,2022-10-07,アイオー株式会社,,株式会社,富山県,高岡市,石堤４３０番地,,16,202,9330355,,,,,,,2022-10-07,1,,,,,アイオー,0
287,1240001060456,新規,0,2022-10-07,2022-10-07,株式会社明石,,株式会社,広島県,豊田郡大崎上島町,明石２６３０番地４,,34,431,7250403,,,,,,,2022-10-07,1,,,,,アカシ,0
288,1240001060480,新規,0,2022-10-07,2022-10-07,株式会社ｅｌｅｃｏｎｅ,,株式会社,広島県,東広島市,八本松南２丁目１１番１７号,,34,212,7390144,,,,,,,2022-10-07,1,,,,,エレクワン,0
289,1240005015472,新規,0,2022-10-07,2022-10-07,医療法人楽々園内科呼吸器クリニック,,その他の設立登記法人,広島県,広島市佐伯区,楽々園５丁目９番５－３０３号,,34,108,7315136,,,,,,,2022-10-07,1,,,,,ラクラクエンナイカコキュウキクリニック,0
292,1260001037312,新規,0,2022-10-07,2022-10-07,株式会社ビジョンデザイン,,株式会社,岡山県,岡山市北区,北長瀬表町２丁目１７番８０号ＢＲＡＮＣＨ岡山北長瀬ハッシュタグ岡山コワーキングスペース,,33,101,7000962,,,,,,,2022-10-07,1,,,,,ビジョンデザイン,0
295,1270001008642,新規,0,2022-10-07,2022-10-07,株式会社イーエス,,株式会社,鳥取県,鳥取市,本町１丁目２０３番地４金居商店ビル３Ｆ,,31,201,6800031,,,,,,,2022-10-07,1,,,,,イーエス,0
302,1290001099093,新規,0,2022-10-07,2022-10-07,株式会社Ｂｅ　ｗｏｒｋｓ,,株式会社,福岡県,春日市,春日原東町２丁目８－１,,40,218,8160801,,,,,,,2022-10-07,1,,,,,ビーワークス,0
304,1290801028945,新規,0,2022-10-07,2022-10-07,株式会社ＺＥＮＤＥＮ,,株式会社,福岡県,豊前市,大字大村５番地１,,40,214,8280066,,,,,,,2022-10-07,1,,,,,ゼンデン,0
308,1310003004461,新規,0,2022-10-07,2022-10-07,合同会社西九州させぼ地域商社,,合同会社,長崎県,佐世保市,石坂町１９９番地１６ウィング石坂６０３号,,42,202,8570037,,,,,,,2022-10-07,1,,,,,ニシキュウシュウサセボチイキショウシャ,0
311,1330001030185,新規,0,2022-10-07,2022-10-07,株式会社ｎａｎｏ　Ａｇｅｎｔ,,株式会社,熊本県,熊本市西区,田崎１丁目７番２５－１号,,43,103,8600053,,,,,,,2022-10-07,1,,,,,ナノエージェント,0
312,1330003009541,新規,0,2022-10-07,2022-10-07,合同会社ＳＥＫＩＢＥ,,合同会社,熊本県,熊本市中央区,出水１丁目４番２８号ＳＥＫＩＢＥ　ＢＬＤＧ２,,43,101,8620941,,,,,,,2022-10-07,1,,,,,セキベ,0
315,1350003004185,新規,0,2022-10-07,2022-10-07,合同会社Ｔ・Ｋ塗工,,合同会社,宮崎県,宮崎市,大字富吉２６０９番地５,,45,201,8802114,,,,,,,2022-10-07,1,,,,,ティーケイトコウ,0
317,1360001031024,新規,0,2022-10-07,2022-10-07,株式会社ＯＦＦＩＣＥ華僑,,株式会社,沖縄県,うるま市,字川崎２３９番地１,,47,213,9042203,,,,,,,2022-10-07,1,,,,,オフィスカキョウ,0
318,1360001031040,新規,0,2022-10-07,2022-10-07,農地所有適格法人株式会社みのりファーム,,株式会社,沖縄県,那覇市,曙２丁目２４番１３号,,47,201,9000002,,,,,,,2022-10-07,1,,,,,ノウチショユウテキカクホウジンミノリファーム,0
332,1390001017045,新規,0,2022-10-07,2022-10-07,株式会社ＫＤＣＣ,,株式会社,山形県,長井市,今泉１８５７番地,,06,209,9930033,,,,,,,2022-10-07,1,,,,,ケイディーシーシー,0
335,1410005006487,新規,0,2022-10-07,2022-10-07,こだま社会保険労務士法人,,その他の設立登記法人,秋田県,南秋田郡五城目町,大川西野字西野８３番地５,,05,361,0181732,,,,,,,2022-10-07,1,,,,,コダマ,0
336,1420003002586,新規,0,2022-10-07,2022-10-07,合同会社佐野会計,,合同会社,青森県,八戸市,大字尻内町字家口田４番地１,,02,203,0391101,,,,,,,2022-10-07,1,,,,,サノカイケイ,0
341,1430001087579,新規,0,2022-10-07,2022-10-07,株式会社みつばコンサルティング,,株式会社,北海道,札幌市中央区,北六条西２０丁目１番２２号,,01,101,0600006,,,,,,,2022-10-07,1,,,,,ミツバコンサルティング,0
342,1430001087587,新規,0,2022-10-07,2022-10-07,株式会社オー・クレール,,株式会社,北海道,恵庭市,駒場町１丁目７番２号,,01,231,0611417,,,,,,,2022-10-07,1,,,,,オークレール,0
344,1430003014341,新規,0,2022-10-07,2022-10-07,合同会社タムラ不動産,,合同会社,北海道,苫小牧市,光洋町２丁目４番２８－５号,,01,213,0530811,,,,,,,2022-10-07,1,,,,,タムラフドウサン,0
348,1450001013814,新規,0,2022-10-07,2022-10-07,株式会社ＰＩＰＩ,,株式会社,北海道,旭川市,大町二条４丁目２１番地の１８,,01,204,0700842,,,,,,,2022-10-07,1,,,,,ピピ,0
354,1500001024517,新規,0,2022-10-07,2022-10-07,株式会社土居土地開発,,株式会社,愛媛県,今治市,中寺２４３番地１,,38,202,7940840,,,,,,,2022-10-07,1,,,,,ドイトチカイハツ,0
369,2010001229973,新規,0,2022-10-07,2022-10-07,ブライティアーズ株式会社,,株式会社,東京都,中央区,日本橋浜町３丁目３８番４－６０５号,,13,102,1030007,,,,,,,2022-10-07,1,,,,,ブライティアーズ,0
370,2010001230048,新規,0,2022-10-07,2022-10-07,株式会社ＣＭＭＨ,,株式会社,東京都,中央区,八丁堀４丁目１１番２,,13,102,1040032,,,,,,,2022-10-07,1,,,,,シーエムエムエイチ,0
374,2010005035641,新規,0,2022-10-07,2022-10-07,一般社団法人農業情報学会,,その他の設立登記法人,東京都,中央区,新川２丁目２２番４号新共立ビル２階,,13,102,1040033,,,,,,,2022-10-07,1,,,,,ノウギョウジョウホウガッカイ,0
375,2010103002007,新規,0,2022-10-07,2022-10-07,合同会社ＳＮＩＲ,,合同会社,東京都,八王子市,長沼町１３０５番地１１号,,13,201,1920907,,,,,,,2022-10-07,1,,,,,エスエヌアイアール,0
381,2010401169828,新規,0,2022-10-07,2022-10-07,株式会社Ｖｅｎｔｉ,,株式会社,東京都,港区,南青山２丁目２番１５,,13,103,1070062,,,,,,,2022-10-07,1,,,,,ベンティ,0
382,2010401170091,新規,0,2022-10-07,2022-10-07,株式会社Ｚメディア,,株式会社,東京都,港区,港南２丁目３番１号大信秋山ビル３階,,13,103,1080075,,,,,,,2022-10-07,1,,,,,ゼットメディア,0
383,2010401170109,新規,0,2022-10-07,2022-10-07,アール・アンド・エフ株式会社,,株式会社,東京都,港区,芝５丁目３６番４号札の辻スクエア９Ｆ,00128047,13,103,1080014,,,,,,,2022-10-07,1,,,,,アールアンドエフ,0
384,2010401170125,新規,0,2022-10-07,2022-10-07,株式会社ＨＩＡＣＥ,,株式会社,東京都,港区,白金１丁目１６番５－３０１号,,13,103,1080072,,,,,,,2022-10-07,1,,,,,ハイエース,0
385,2010401170166,新規,0,2022-10-07,2022-10-07,株式会社Ｃｈａｐｔｅｒ．３,,株式会社,東京都,港区,南青山６丁目８番３号南青山セピアコート４０１,,13,103,1070062,,,,,,,2022-10-07,1,,,,,チャプタースリー,0
390,2010403028668,新規,0,2022-10-07,2022-10-07,合同会社神谷町インベストメント３０号,,合同会社,東京都,港区,虎ノ門５丁目１番４号,,13,103,1050001,,,,,,,2022-10-07,1,,,,,カミヤチョウインベストメントサンジュウゴウ,0
394,2010601061966,新規,0,2022-10-07,2022-10-07,株式会社ＷＡＶＥ,,株式会社,東京都,墨田区,墨田４丁目５５－１２,,13,107,1310031,,,,,,,2022-10-07,1,,,,,ウェイブ,0
396,2010603009765,新規,0,2022-10-07,2022-10-07,合同会社あおいファーマシー,,合同会社,東京都,墨田区,江東橋４丁目２２－１０深谷ビル１階,,13,107,1300022,,,,,,,2022-10-07,1,,,,,アオイファーマシー,0
401,2010701043286,新規,0,2022-10-07,2022-10-07,株式会社アートカノン,,株式会社,東京都,品川区,上大崎３丁目１４番３０号目黒ハイホーム２階,,13,109,1410021,,,,,,,2022-10-07,1,,,,,アートカノン,0
402,2010701043303,新規,0,2022-10-07,2022-10-07,藤矢株式会社,,株式会社,東京都,品川区,東五反田１丁目１０－９ＳＴビル８階,,13,109,1410022,,,,,,,2022-10-07,1,,,,,フジヤ,0
403,2010703006407,新規,0,2022-10-07,2022-10-07,合同会社ハタフタ,,合同会社,東京都,品川区,南品川３丁目４番１５号Ｍビル１階,,13,109,1400004,,,,,,,2022-10-07,1,,,,,ハタフタ,0
405,2010801033328,新規,0,2022-10-07,2022-10-07,栄豊商事株式会社,,株式会社,東京都,大田区,山王２丁目５番１３号大森北口ビル５Ｆ,,13,111,1430023,,,,,,,2022-10-07,1,,,,,エイホウショウジ,0
408,2010903007709,新規,0,2022-10-07,2022-10-07,合同会社エイトビーチ,,合同会社,東京都,世田谷区,下馬１丁目５１番２号,,13,112,1540002,,,,,,,2022-10-07,1,,,,,エイトビーチ,0
414,2011001150129,新規,0,2022-10-07,2022-10-07,株式会社Ｓｉｇｎａｌｉｚｅ,,株式会社,東京都,渋谷区,渋谷２丁目１９－１５宮益坂ビルディング６０９,,13,113,1500002,,,,,,,2022-10-07,1,,,,,シグナライズ,0
415,2011001150161,新規,0,2022-10-07,2022-10-07,株式会社ＭＡＲＬＥ,,株式会社,東京都,渋谷区,神宮前１丁目１０番１１号パークアクシス明治神宮前４０４,,13,113,1500001,,,,,,,2022-10-07,1,,,,,マルレ,0
416,2011001150178,新規,0,2022-10-07,2022-10-07,株式会社ＲＯＯＴ　ＤＯＷＮ,,株式会社,東京都,目黒区,大橋１丁目１番１７号,,13,110,1530044,,,,,,,2022-10-07,1,,,,,ルートダウン,0
417,2011001150186,新規,0,2022-10-07,2022-10-07,株式会社ワイズメディカルサポート,,株式会社,東京都,渋谷区,恵比寿４丁目２０番３号恵比寿ガーデンプレイスタワー１８階,,13,113,1500013,,,,,,,2022-10-07,1,,,,,ワイズメディカルサポート,0
418,2011001150203,新規,0,2022-10-07,2022-10-07,株式会社飛び台,,株式会社,東京都,渋谷区,千駄ヶ谷３丁目１６番５号９階,,13,113,1510051,,,,,,,2022-10-07,1,,,,,トビダイ,0
424,2011101100413,新規,0,2022-10-07,2022-10-07,株式会社ロブラボ,,株式会社,東京都,新宿区,新宿５丁目１５番１４号,,13,104,1600022,,,,,,,2022-10-07,1,,,,,ロブラボ,0
425,2011101100421,新規,0,2022-10-07,2022-10-07,株式会社ブルク,,株式会社,東京都,新宿区,新宿６丁目２９番１１号新宿イーストクロスタワー１０Ｆ,,13,104,1600022,,,,,,,2022-10-07,1,,,,,ブルク,0
426,2011101100462,新規,0,2022-10-07,2022-10-07,株式会社ＮＩＣＯ,,株式会社,東京都,新宿区,大京町１８番地１７ジェノビア四谷三丁目グリーンヴェール２０２,,13,104,1600015,,,,,,,2022-10-07,1,,,,,ニコ,0
427,2011105010427,新規,0,2022-10-07,2022-10-07,司法書士法人ＴＯＴ,,その他の設立登記法人,東京都,新宿区,新宿１丁目６番５号シガラキビル２階,,13,104,1600022,,,,,,,2022-10-07,1,,,,,ティーオーティー,0
429,2011203003919,新規,0,2022-10-07,2022-10-07,合同会社ランビリス,,合同会社,東京都,中野区,東中野２丁目１０番５‐２０１号,,13,114,1640003,,,,,,,2022-10-07,1,,,,,ランビリス,0
431,2011401024584,新規,0,2022-10-07,2022-10-07,株式会社ＯＮ,,株式会社,東京都,板橋区,大和町２２番１０－３０５号,,13,119,1730012,,,,,,,2022-10-07,1,,,,,オーエヌ,0
432,2011401024592,新規,0,2022-10-07,2022-10-07,株式会社Ｔａｂ,,株式会社,東京都,板橋区,氷川町２９番１０号,,13,119,1730013,,,,,,,2022-10-07,1,,,,,タブ,0
436,2011605002477,新規,0,2022-10-07,2022-10-07,社会保険労務士法人トゥービーワーク,,その他の設立登記法人,東京都,練馬区,旭町３丁目２４番１９号,,13,120,1790071,,,,,,,2022-10-07,1,,,,,トゥービーワーク,0
441,2011801041361,新規,0,2022-10-07,2022-10-07,金億株式会社,,株式会社,東京都,葛飾区,東立石１丁目１３番４,,13,122,1240013,,,,,,,2022-10-07,1,,,,,キンオク,0
446,2012403005614,新規,0,2022-10-07,2022-10-07,ブルックランド合同会社,,合同会社,東京都,狛江市,猪方２丁目１４番２７号,,13,219,2010015,,,,,,,2022-10-07,1,,,,,ブルックランド,0
448,2012703002550,新規,0,2022-10-07,2022-10-07,合同会社ＢＲＡＷ,,合同会社,東京都,小平市,小川町１丁目５０２番地の３５,,13,211,1870032,,,,,,,2022-10-07,1,,,,,ブラウ,0
450,2012801021873,新規,0,2022-10-07,2022-10-07,株式会社ＳＲＫ,,株式会社,東京都,昭島市,拝島町４丁目２０番３８号,,13,207,1960002,,,,,,,2022-10-07,1,,,,,エスアールケイ,0
460,2013303006322,新規,0,2022-10-07,2022-10-07,合同会社ＥＫ　ＴＲＵＳＴ,,合同会社,東京都,豊島区,西巣鴨２丁目３５番５号,,13,116,1700001,,,,,,,2022-10-07,1,,,,,イーケートラスト,0
466,2020001148438,新規,0,2022-10-07,2022-10-07,株式会社ＮＡＭＩＫＩ　ＰＲＯ,,株式会社,神奈川県,横浜市磯子区,森６丁目１２番２３号,,14,107,2350023,,,,,,,2022-10-07,1,,,,,ナミキプロ,0
467,2020001148487,新規,0,2022-10-07,2022-10-07,株式会社亀山総業,,株式会社,神奈川県,川崎市川崎区,東田町１１番地１－１００３号,,14,131,2100005,,,,,,,2022-10-07,1,,,,,カメヤマソウギョウ,0
468,2020001148504,新規,0,2022-10-07,2022-10-07,横浜ＷＥＳＴ管理株式会社,,株式会社,神奈川県,横浜市西区,中央１丁目１８番２２号,,14,103,2200051,,,,,,,2022-10-07,1,,,,,ヨコハマウェストカンリ,0
472,2020003022509,新規,0,2022-10-07,2022-10-07,合同会社東信,,合同会社,神奈川県,川崎市多摩区,長沢４丁目１７－１５,,14,135,2140035,,,,,,,2022-10-07,1,,,,,トウシン,0
473,2020003022517,新規,0,2022-10-07,2022-10-07,中伊興業合同会社,,合同会社,神奈川県,横浜市保土ケ谷区,岩井町３９７番地コート保土ケ谷Ａ棟２０４号,,14,106,2400023,,,,,,,2022-10-07,1,,,,,ナカイコウギョウ,0
474,2020003022525,新規,0,2022-10-07,2022-10-07,合同会社１ｍｍ,,合同会社,神奈川県,横浜市磯子区,新杉田町８－８クリオレジダンス横浜新杉田２０４,,14,107,2350032,,,,,,,2022-10-07,1,,,,,イチミリ,0
475,2020005015683,新規,0,2022-10-07,2022-10-07,一般社団法人海と日本プロジェクトｉｎかながわ,,その他の設立登記法人,神奈川県,横浜市中区,太田町２丁目２３番地,,14,104,2310011,,,,,,,2022-10-07,1,,,,,ウミトニッポンプロジェクトインカナガワ,0
478,2021001077131,新規,0,2022-10-07,2022-10-07,株式会社ＣＢＭイースト,,株式会社,神奈川県,相模原市中央区,淵野辺３丁目１０番１３号ダイアパレス淵野辺ＩＩＩ１階１０１号室,00128051,14,152,2520206,,,,,,,2022-10-07,1,,,,,シービーエムイースト,0
479,2021003012193,新規,0,2022-10-07,2022-10-07,合同会社廣納工務店,,合同会社,神奈川県,平塚市,南金目１３６４番地の６,,14,203,2591201,,,,,,,2022-10-07,1,,,,,ヒロノウコウムテン,0
489,2030001150368,新規,0,2022-10-07,2022-10-07,株式会社ＬＩＴＯ,,株式会社,埼玉県,三郷市,谷口１６３番地１,,11,237,3410042,,,,,,,2022-10-07,1,,,,,リト,0
490,2030001150442,新規,0,2022-10-07,2022-10-07,株式会社Ｉｎｆｉｎｉｔｅ　Ａｕｔｏ　Ｄｅｔａｉｌｉｎｇ,,株式会社,埼玉県,上尾市,二ツ宮１００５番地８,,11,219,3620017,,,,,,,2022-10-07,1,,,,,インフィニットオートディテーリング,0
491,2030001150459,新規,0,2022-10-07,2022-10-07,株式会社ＤＥＫＯｂｏｋｏ,,株式会社,埼玉県,所沢市,松葉町２番２２号矢島ビル４階,,11,208,3590044,,,,,,,2022-10-07,1,,,,,デコボコ,0
494,2030003020338,新規,0,2022-10-07,2022-10-07,合同会社ＡＩＬＬ,,合同会社,埼玉県,日高市,大字鹿山２３８番地５,,11,242,3501231,,,,,,,2022-10-07,1,,,,,アイル,0
495,2030005021004,新規,0,2022-10-07,2022-10-07,弁護士法人長島法律事務所,,その他の設立登記法人,埼玉県,さいたま市浦和区,高砂３丁目１２番９号農林会館４階,,11,107,3300063,,,,,,,2022-10-07,1,,,,,ナガシマホウリツジムショ,0
500,2040001125303,新規,0,2022-10-07,2022-10-07,株式会社ＥＢＡＲＡ,,株式会社,千葉県,船橋市,湊町２丁目１２－２４湊町日本橋ビル６Ｆ,,12,204,2730011,,,,,,,2022-10-07,1,,,,,エバラ,0
501,2040001125328,新規,0,2022-10-07,2022-10-07,株式会社メディカルプロモーション,,株式会社,千葉県,松戸市,稔台７丁目２番地の１７,,12,207,2702231,,,,,,,2022-10-07,1,,,,,メディカルプロモーション,0
502,2040001125336,新規,0,2022-10-07,2022-10-07,英和建設株式会社,,株式会社,千葉県,市川市,福栄３丁目６番１１－１０５号,,12,203,2720137,,,,,,,2022-10-07,1,,,,,エイワケンセツ,0
505,2040003021005,新規,0,2022-10-07,2022-10-07,Ｓｐａｒｋｌｅ　Ｃｒｅａｔｉｏｎｓ合同会社,,合同会社,千葉県,浦安市,高洲１丁目１１番６号,,12,227,2790023,,,,,,,2022-10-07,1,,,,,スパークルクリエーションズ,0
506,2040005021754,新規,0,2022-10-07,2022-10-07,特定非営利活動法人さざなみ,,その他の設立登記法人,千葉県,習志野市,奏の杜１丁目９番３３－１１９号,,12,216,2750028,,,,,,,2022-10-07,1,,,,,サザナミ,0
508,2050001051762,新規,0,2022-10-07,2022-10-07,Ｅ＆Ａサービス株式会社,,株式会社,茨城県,笠間市,柏井５７１番地２２４,,08,216,3091713,,,,,,,2022-10-07,1,,,,,イーアンドエー,0
509,2050001051795,新規,0,2022-10-07,2022-10-07,株式会社Ｍｉｒａｉ　Ｒｅｓｏｒｔ,,株式会社,茨城県,つくば市,二の宮２丁目１７番１０号パークサイド洞峰２０２号室,,08,220,3050051,,,,,,,2022-10-07,1,,,,,ミライリゾート,0
512,2060001035335,新規,0,2022-10-07,2022-10-07,ＩＳＭＡＩＬ　ＧＬＯＢＡＬ　ＴＲＡＤＩＮＧ株式会社,,株式会社,栃木県,小山市,駅南町５丁目９番８号アンビション駅南２階２０２号室,,09,208,3230822,,,,,,,2022-10-07,1,,,,,イスマイルグローバルトレーディング,0
518,2070001039715,新規,0,2022-10-07,2022-10-07,株式会社シャテール,,株式会社,群馬県,高崎市,塚田町１１８番地７,,10,202,3703515,,,,,,,2022-10-07,1,,,,,シャテール,0
530,2090003002181,新規,0,2022-10-07,2022-10-07,合同会社彩陽興業,,合同会社,山梨県,山梨市,牧丘町室伏２８２番地,,19,205,4040012,,,,,,,2022-10-07,1,,,,,サイヨウコウギョウ,0
533,2100001035751,新規,0,2022-10-07,2022-10-07,株式会社ティーティーエス,,株式会社,長野県,安曇野市,豊科高家６０１６番地４,,20,220,3998204,,,,,,,2022-10-07,1,,,,,ティーティーエス,0
534,2100001035768,新規,0,2022-10-07,2022-10-07,てらシステム株式会社,,株式会社,長野県,東御市,滋野乙６３０番地,,20,219,3890512,,,,,,,2022-10-07,1,,,,,テラシステム,0
541,2110001037020,新規,0,2022-10-07,2022-10-07,株式会社ｋｏｍｉ,,株式会社,新潟県,新潟市江南区,丸山ノ内善之丞組７１２番地,,15,104,9500000,,,,,,,2022-10-07,1,,,,,コミ,0
542,2110003004885,新規,0,2022-10-07,2022-10-07,Ｎｏ　Ｍａｔｔｅｒ合同会社,,合同会社,新潟県,新潟市中央区,上大川前通７番町１２３０番地７ストークビル鏡橋７Ｆ,,15,103,9518068,,,,,,,2022-10-07,1,,,,,ノーマター,0
563,2120001249408,新規,0,2022-10-07,2022-10-07,Ｅ‐テンポ株式会社,,株式会社,大阪府,大阪市淀川区,宮原１丁目１９番１１号ネオハイツ新大阪１４０８,,27,123,5320003,,,,,,,2022-10-07,1,,,,,イーテンポ,0
567,2120005023230,新規,0,2022-10-07,2022-10-07,ユニバーサル事業創成協同組合,,その他の設立登記法人,大阪府,大阪市福島区,吉野３丁目２２番１７号野田ロイヤルビル２０３号室,,27,103,5530006,,,,,,,2022-10-07,1,,,,,ユニバーサルジギョウソウセイ,0
568,2120101066298,新規,0,2022-10-07,2022-10-07,株式会社ＲｅＷｅｌ,,株式会社,大阪府,堺市堺区,緑ヶ丘北町２丁２番８号（２０６号）,,27,141,5900806,,,,,,,2022-10-07,1,,,,,リウェル,0
569,2120101066348,新規,0,2022-10-07,2022-10-07,株式会社まるぅ,,株式会社,大阪府,堺市北区,常磐町２丁２３番地３,,27,146,5918001,,,,,,,2022-10-07,1,,,,,マルゥ,0
572,2120105009633,新規,0,2022-10-07,2022-10-07,一般社団法人いろは塾,,その他の設立登記法人,大阪府,泉大津市,豊中町３丁目２番２９号インテリジェントビル２Ｆ,,27,206,5950023,,,,,,,2022-10-07,1,,,,,イロハジュク,0
578,2122001036307,新規,0,2022-10-07,2022-10-07,株式会社ＧＬＡＮＺ　Ｄ．Ｌ,,株式会社,大阪府,八尾市,八尾木北５丁目４６番地の４パークサイドマンション１０２,,27,212,5810016,,,,,,,2022-10-07,1,,,,,グランツディーエル,0
579,2130001072750,新規,0,2022-10-07,2022-10-07,株式会社ＢＵＬＫ,,株式会社,京都府,京都市西京区,大原野上羽町４０２番地,,26,111,6101131,,,,,,,2022-10-07,1,,,,,バルク,0
580,2130001072767,新規,0,2022-10-07,2022-10-07,株式会社ＥｘＴＨＯＷ京都,,株式会社,京都府,京都市山科区,西野離宮町３１番地１３ＢＥＬＩＳＴＡ京都山科６２７号,,26,110,6078345,,,,,,,2022-10-07,1,,,,,イクストハウキョウト,0
584,2140001127578,新規,0,2022-10-07,2022-10-07,株式会社Ａ‐Ｎａｔｕｒａｌ,,株式会社,兵庫県,神戸市北区,鈴蘭台北町１丁目４番７号,,28,109,6511111,,,,,,,2022-10-07,1,,,,,エーナチュラル,0
585,2140001127586,新規,0,2022-10-07,2022-10-07,株式会社フドウ,,株式会社,兵庫県,尼崎市,大庄西町２丁目１９番２号,,28,202,6600077,,,,,,,2022-10-07,1,,,,,フドウ,0
587,2140003018206,新規,0,2022-10-07,2022-10-07,合同会社ＴＫＤネクスト,,合同会社,兵庫県,神戸市須磨区,大田町３丁目４番２５－５０３号,,28,107,6540024,,,,,,,2022-10-07,1,,,,,ティーケーディーネクスト,0
588,2150001025855,新規,0,2022-10-07,2022-10-07,株式会社ミントＩＴ商店,,株式会社,奈良県,生駒市,松美台４５番地２７,,29,209,6300241,,,,,,,2022-10-07,1,,,,,ミントアイティーショウテン,0
592,2160001024550,新規,0,2022-10-07,2022-10-07,株式会社ウィステリアコーポレーション,,株式会社,滋賀県,大津市,雄琴３丁目２１番１２号,,25,201,5200101,,,,,,,2022-10-07,1,,,,,ウィステリアコーポレーション,0
595,2170001017314,新規,0,2022-10-07,2022-10-07,株式会社北岡建設,,株式会社,和歌山県,日高郡日高町,大字小池３３４番地の１,,30,382,6491222,,,,,,,2022-10-07,1,,,,,キタオカケンセツ,0
598,2180001153158,新規,0,2022-10-07,2022-10-07,株式会社アグリッター,,株式会社,愛知県,名古屋市中村区,名駅南２丁目１４－１９,,23,105,4500003,,,,,,,2022-10-07,1,,,,,アグリッター,0
599,2180001153265,新規,0,2022-10-07,2022-10-07,株式会社ＭＡＲＩＮＥ,,株式会社,愛知県,半田市,瑞穂町２丁目４番地の２８,,23,205,4750828,,,,,,,2022-10-07,1,,,,,マリン,0
600,2180001153273,新規,0,2022-10-07,2022-10-07,ＫＥＹＴＥＣ株式会社,,株式会社,愛知県,名古屋市北区,五反田町１８８番地,,23,103,4620011,,,,,,,2022-10-07,1,,,,,キーテック,0
601,2180001153281,新規,0,2022-10-07,2022-10-07,株式会社エスケーユー,,株式会社,愛知県,一宮市,森本４丁目１９番９号エーデルメゾン１０２,,23,203,4910831,,,,,,,2022-10-07,1,,,,,エスケーユー,0
602,2180001153298,新規,0,2022-10-07,2022-10-07,株式会社メディカルアライアンス,,株式会社,愛知県,名古屋市瑞穂区,洲雲町３丁目３８番地の３,,23,108,4670804,,,,,,,2022-10-07,1,,,,,メディカルアライアンス,0
603,2180001153307,新規,0,2022-10-07,2022-10-07,株式会社Ｒ．Ｃ,,株式会社,愛知県,津島市,莪原町字神守前５６番地,,23,208,4960011,,,,,,,2022-10-07,1,,,,,アールシー,0
604,2180001153315,新規,0,2022-10-07,2022-10-07,株式会社アイビーエム,,株式会社,愛知県,北名古屋市,鍜治ケ一色東二丁目５番地,,23,234,4810037,,,,,,,2022-10-07,1,,,,,アイビーエム,0
605,2180001153323,新規,0,2022-10-07,2022-10-07,株式会社ＴＲＩＧＧＥＲ,,株式会社,愛知県,名古屋市守山区,天子田３丁目１４０８番地,,23,113,4630037,,,,,,,2022-10-07,1,,,,,トリガー,0
606,2180003024340,新規,0,2022-10-07,2022-10-07,合同会社ＵＮＤＥＲＬＩＮＥ,,合同会社,愛知県,瀬戸市,小坂町５４番地,,23,204,4890978,,,,,,,2022-10-07,1,,,,,アンダーライン,0
607,2180005019966,新規,0,2022-10-07,2022-10-07,ミッドランド監査法人,,その他の設立登記法人,愛知県,名古屋市中村区,名駅３丁目２８番１２号大名古屋ビルヂング２１Ｆ,,23,105,4500002,,,,,,,2022-10-07,1,,,,,ミッドランド,0
609,2180301036707,新規,0,2022-10-07,2022-10-07,株式会社ネイチャーレイ,,株式会社,愛知県,豊田市,下川口町水汲２１８番地,,23,211,4700422,,,,,,,2022-10-07,1,,,,,ネイチャーレイ,0
613,2200001040477,新規,0,2022-10-07,2022-10-07,株式会社カーファイン,,株式会社,岐阜県,岐阜市,春近古市場南１０２番地１,,21,201,5012525,,,,,,,2022-10-07,1,,,,,カーファイン,0
614,2210001019116,新規,0,2022-10-07,2022-10-07,株式会社セキュリティ＆リサイクル北陸,,株式会社,福井県,福井市,江端町第３６号２０番地,,18,201,9188016,,,,,,,2022-10-07,1,,,,,セキュリティリサイクルホクリク,0
616,2220001025055,新規,0,2022-10-07,2022-10-07,株式会社ＬＵＮＡＪＥＷＥＬ,,株式会社,石川県,金沢市,久安２丁目４６０番地,,17,201,9218164,,,,,,,2022-10-07,1,,,,,ルナジュエル,0
624,2240001060439,新規,0,2022-10-07,2022-10-07,株式会社サンキュウ商事,,株式会社,広島県,安芸郡府中町,本町５丁目１６番１６号,,34,302,7350006,,,,,,,2022-10-07,1,,,,,サンキュウショウジ,0
625,2240001060463,新規,0,2022-10-07,2022-10-07,株式会社一誠工業,,株式会社,広島県,広島市中区,光南５丁目１番６１‐９０６号,,34,101,7300825,,,,,,,2022-10-07,1,,,,,イッセイコウギョウ,0
626,2240001060471,新規,0,2022-10-07,2022-10-07,新高技検株式会社,,株式会社,広島県,三原市,本郷南３丁目２２番１３号,,34,204,7290417,,,,,,,2022-10-07,1,,,,,ニイタカギケン,0
632,2260003004053,新規,0,2022-10-07,2022-10-07,合同会社たかとし,,合同会社,岡山県,岡山市中区,雄町２１７番地１８,,33,102,7038204,,,,,,,2022-10-07,1,,,,,タカトシ,0
634,2290001099134,新規,0,2022-10-07,2022-10-07,株式会社ＡＯ,,株式会社,福岡県,福岡市博多区,博多駅東２丁目５番９号サンライフ第３ビル６階,,40,132,8120013,,,,,,,2022-10-07,1,,,,,アオ,0
636,2290003013027,新規,0,2022-10-07,2022-10-07,合同会社シティ地所,,合同会社,福岡県,久留米市,北野町中１１８０番地４７,,40,203,8301113,,,,,,,2022-10-07,1,,,,,シティジショ,0
637,2290003013043,新規,0,2022-10-07,2022-10-07,Ｊ　ＣＥＹＬＯＮ　ＨＯＬＤＩＮＧ合同会社,,合同会社,福岡県,福岡市早良区,西新１丁目１－２１－６０２号,,40,137,8140002,,,,,,,2022-10-07,1,,,,,ジェイシロンホールディング,0
638,2290005018825,新規,0,2022-10-07,2022-10-07,税理士法人マイルストーン,,その他の設立登記法人,福岡県,福岡市中央区,赤坂１丁目１０番２６号,,40,133,8100042,,,,,,,2022-10-07,1,,,,,マイルストーン,0
648,2330001030176,新規,0,2022-10-07,2022-10-07,株式会社ＭＩＲＡＩＰＩＥＣＥ,,株式会社,熊本県,熊本市北区,梶尾町１４０９番地３,,43,105,8615512,,,,,,,2022-10-07,1,,,,,ミライピース,0
649,2330001030184,新規,0,2022-10-07,2022-10-07,株式会社Ｇｒａｖｉｔｙコンサルティング事務所,,株式会社,熊本県,熊本市西区,二本木３丁目７番２３号,,43,103,8600051,,,,,,,2022-10-07,1,,,,,グラヴィティコンサルティングジムショ,0
650,2330003009540,新規,0,2022-10-07,2022-10-07,合同会社ｃｕｂｉＱ,,合同会社,熊本県,菊池郡菊陽町,大字津久礼３７２５－３－１０２,,43,404,8691101,,,,,,,2022-10-07,1,,,,,,0
653,2350001017989,新規,0,2022-10-07,2022-10-07,株式会社九州エアリアル,,株式会社,宮崎県,西都市,有吉町２丁目１２番地,,45,208,8810011,,,,,,,2022-10-07,1,,,,,キュウシュウエアリアル,0
656,2360003012351,新規,0,2022-10-07,2022-10-07,合同会社Ｃｏｓｍｏ５,,合同会社,沖縄県,宜野湾市,真志喜２丁目１６番１－７０１号,,47,205,9012224,,,,,,,2022-10-07,1,,,,,コスモファイヴ,0
657,2360005006723,新規,0,2022-10-07,2022-10-07,一般社団法人かがやき,,その他の設立登記法人,沖縄県,うるま市,字昆布１８３２番地６７１,,47,213,9042201,,,,,,,2022-10-07,1,,,,,カガヤキ,0
662,2370001049106,新規,0,2022-10-07,2022-10-07,エルマ株式会社,,株式会社,宮城県,仙台市太白区,緑ケ丘２丁目４番８号,,04,104,9820021,,,,,,,2022-10-07,1,,,,,エルマ,0
664,2380001033166,新規,0,2022-10-07,2022-10-07,株式会社古殿パルスプラント,,株式会社,福島県,石川郡古殿町,大字山上字高柄木２８番地,,07,505,9638302,,,,,,,2022-10-07,1,,,,,フルドノパルスプラント,0
669,2410001013296,新規,0,2022-10-07,2022-10-07,株式会社龍興業,,株式会社,秋田県,大館市,柄沢字狐台１２番地２２,,05,204,0170804,,,,,,,2022-10-07,1,,,,,リュウコウギョウ,0
671,2420001018030,新規,0,2022-10-07,2022-10-07,株式会社北村麻子ＮＥＢＵＴＡｓｔｕｄｉｏ,,株式会社,青森県,青森市,大字安田字近野４８５番地４,,02,201,0380021,,,,,,,2022-10-07,1,,,,,キタムラアサコネブタスタジオ,0
677,2430001087578,新規,0,2022-10-07,2022-10-07,株式会社コーストライン,,株式会社,北海道,札幌市東区,本町一条６丁目４番１８号,,01,103,0650041,,,,,,,2022-10-07,1,,,,,コーストライン,0
678,2430001087594,新規,0,2022-10-07,2022-10-07,ＬＹＳ株式会社,,株式会社,北海道,札幌市中央区,南五条西２３丁目１番１５－６０４号,,01,101,0640805,,,,,,,2022-10-07,1,,,,,リス,0
690,2700150112051,新規,0,2022-10-07,2022-10-07,Ｓｈｅｎｚｈｅｎ　Ｈａｉｂａｏ　Ｓｕｐｐｌｙ　Ｃｈａｉｎ　Ｃｏ．，Ｌｔｄ．,,外国会社等,,,,,,,,Ｒｏｏｍ　４１３，Ｂｕｉｌｄｉｎｇ　Ａ，Ｎｏ．４０８８，Ｂａｎｘｕｅｇａｎｇ　Ｒｏａｄ，Ｘｉａｎｇｉａｏｔａｎｇ　Ｃｏｍｍｕｎｉｔｙ，Ｓｈｅｎｚｈｅｎ,,,,,,2022-10-07,1,,,,,シエンチエンハイバオサプライチエーンカンパニーリミテツド,0
691,2700150112084,新規,0,2022-10-07,2022-10-07,ＨＩＡＣＥ　ＬＡＮＫＡ　ＡＵＴＯ　ＰＡＲＴＳ,,外国会社等,千葉県,山武郡九十九里町,西野１００２－５,,12,403,2830116,スリランカ民主社会主義共和国、ゲリオヤ、ピタワラワッタ、Ｎｏ．９２／Ｃ／６,,,,,,2022-10-07,1,,,,,ハイエースランカオートパーツ,0
692,2700150112101,新規,0,2022-10-07,2022-10-07,フォクスンド・インターナショナル・トレーディング・プライベートリミテッド,,外国会社等,東京都,八王子市,子安町２丁目１３－７多摩レジデンス１５,,13,201,1920904,カトマンズ行政部カトマンズメトロポリタンシティー６、ボウダ,,,,,,2022-10-07,1,,,,,フオクスンドインターナシヨナルトレーデイングプライベートリミテツド,0
698,3010001229931,新規,0,2022-10-07,2022-10-07,株式会社ステージラボ,,株式会社,東京都,千代田区,神田錦町１丁目５番地,,13,101,1010054,,,,,,,2022-10-07,1,,,,,ステージラボ,0
699,3010001229956,新規,0,2022-10-07,2022-10-07,株式会社ＳＦＡＭ,,株式会社,東京都,文京区,西片２丁目７番９号,,13,105,1130024,,,,,,,2022-10-07,1,,,,,エスエフエーエム,0
701,3010003038835,新規,0,2022-10-07,2022-10-07,ＴＡ千代田合同会社,,合同会社,東京都,中央区,日本橋１丁目４番１号日本橋一丁目ビルディング,,13,102,1030027,,,,,,,2022-10-07,1,,,,,ティーエーチヨダ,0
702,3010003038843,新規,0,2022-10-07,2022-10-07,合同会社かんらん舎,,合同会社,東京都,文京区,小石川１丁目５番１号,,13,105,1120002,,,,,,,2022-10-07,1,,,,,カンランシャ,0
705,3010005035640,新規,0,2022-10-07,2022-10-07,一般社団法人ＴＡ千代田,,その他の設立登記法人,東京都,中央区,日本橋１丁目４番１号日本橋一丁目ビルディング,,13,102,1030027,,,,,,,2022-10-07,1,,,,,ティーエーチヨダ,0
706,3010103002006,新規,0,2022-10-07,2022-10-07,合同会社Ｋ＆Ｐ,,合同会社,東京都,八王子市,高倉町３番地４,,13,201,1920033,,,,,,,2022-10-07,1,,,,,ケーアンドピー,0
715,3010401170090,新規,0,2022-10-07,2022-10-07,株式会社バックス,,株式会社,東京都,港区,麻布十番１丁目８番１１号３階,,13,103,1060045,,,,,,,2022-10-07,1,,,,,バックス,0
716,3010401170124,新規,0,2022-10-07,2022-10-07,ｆｌｙｉｎｇｃａｐｅ株式会社,,株式会社,東京都,港区,赤坂７丁目５番３３号ベルバン赤坂２０３,,13,103,1070052,,,,,,,2022-10-07,1,,,,,フライングケープ,0
717,3010401170140,新規,0,2022-10-07,2022-10-07,株式会社シフト・ビジョン,,株式会社,東京都,港区,虎ノ門１丁目１６番６号虎ノ門ＲＡＰＯ－ＴＯビルＵＣＦ７０３,,13,103,1050001,,,,,,,2022-10-07,1,,,,,シフトビジョン,0
718,3010401170149,新規,0,2022-10-07,2022-10-07,株式会社ジャンヌダルク,,株式会社,東京都,港区,六本木７丁目１２番２号Ｒ２ビルディングＳＰＡＣＥＳ六本木,,13,103,1060032,,,,,,,2022-10-07,1,,,,,ジャンヌダルク,0
719,3010401170173,新規,0,2022-10-07,2022-10-07,株式会社Ａｒｙ　Ｃｏｎｓｕｌｔｉｎｇ,,株式会社,東京都,港区,浜松町２丁目２－１５浜松町ダイヤビル２Ｆ,,13,103,1050013,,,,,,,2022-10-07,1,,,,,アリーコンサルティング,0
720,3010403028642,新規,0,2022-10-07,2022-10-07,スイートスポット合同会社,,合同会社,東京都,港区,赤坂２丁目２３番１号アークヒルズ・フロントタワーＩｎＣｏｎｔｒｏｌ内,,13,103,1070052,,,,,,,2022-10-07,1,,,,,スイートスポット,0
721,3010403028650,新規,0,2022-10-07,2022-10-07,合同会社廣澤孝之事務所,,合同会社,東京都,港区,赤坂６丁目６番１９号,,13,103,1070052,,,,,,,2022-10-07,1,,,,,ヒロサワタカユキジムショ,0
722,3010403028659,新規,0,2022-10-07,2022-10-07,合同会社ＹＩＣ,,合同会社,東京都,港区,芝浦４丁目２０番２－３０９号,,13,103,1080023,,,,,,,2022-10-07,1,,,,,ワイアイシー,0
723,3010403028667,新規,0,2022-10-07,2022-10-07,合同会社神谷町インベストメント２９号,,合同会社,東京都,港区,虎ノ門５丁目１番４号,,13,103,1050001,,,,,,,2022-10-07,1,,,,,カミヤチョウインベストメントニジュウキュウゴウ,0
726,3010601061957,新規,0,2022-10-07,2022-10-07,株式会社ＴＭ　Ｐａｒｔｎｅｒｓ,,株式会社,東京都,江東区,白河２丁目２２番１－５１４号,,13,108,1350021,,,,,,,2022-10-07,1,,,,,ティーエムパートナーズ,0
728,3010701043285,新規,0,2022-10-07,2022-10-07,株式会社ジャパンスプリングウォーター,,株式会社,東京都,品川区,西五反田４丁目１番２号,,13,109,1410031,,,,,,,2022-10-07,1,,,,,ジャパンスプリングウォーター,0
729,3010701043302,新規,0,2022-10-07,2022-10-07,株式会社Ｂａｍｏｓ,,株式会社,東京都,品川区,西五反田２丁目１９番１２号,,13,109,1410031,,,,,,,2022-10-07,1,,,,,バモス,0
739,3011101100412,新規,0,2022-10-07,2022-10-07,株式会社かむろ坂コーポレーション,,株式会社,東京都,新宿区,歌舞伎町２丁目４番１４号東新宿レジデンシャルタワー１１１１号室,,13,104,1600021,,,,,,,2022-10-07,1,,,,,カムロザカコーポレーション,0
740,3011101100420,新規,0,2022-10-07,2022-10-07,ＯｖｅｒＸ株式会社,,株式会社,東京都,新宿区,西落合３丁目２番１１号ロシェ西落合１０３,,13,104,1610031,,,,,,,2022-10-07,1,,,,,オーバーエックス,0
741,3011101100445,新規,0,2022-10-07,2022-10-07,株式会社Ｍａｒｉｎｅ　Ｓｔｏｒａｇｅ,,株式会社,東京都,新宿区,西新宿３丁目３番１３号西新宿水間ビル２Ｆ,,13,104,1600023,,,,,,,2022-10-07,1,,,,,マリンストレージ,0
742,3011101100453,新規,0,2022-10-07,2022-10-07,ＦｉＶＥ株式会社,,株式会社,東京都,新宿区,西五軒町７－１Ｈｉｒｏ神楽坂３０１,,13,104,1620812,,,,,,,2022-10-07,1,,,,,ファイブ,0
745,3011201024148,新規,0,2022-10-07,2022-10-07,ｓｃｒａｔｃｈ株式会社,,株式会社,東京都,中野区,南台５丁目２１－１プライマル方南町１１１号室,,13,114,1640014,,,,,,,2022-10-07,1,,,,,スクラッチ,0
749,3011501028534,新規,0,2022-10-07,2022-10-07,株式会社ハウスコンフォート,,株式会社,東京都,北区,浮間４丁目３２番２６－５１０号パークフロント,,13,117,1150051,,,,,,,2022-10-07,1,,,,,ハウスコンフォート,0
753,3011701025678,新規,0,2022-10-07,2022-10-07,株式会社Ａｌｐｈｉｎａｕｄ,,株式会社,東京都,江戸川区,西小岩４丁目６番２０号,,13,123,1330057,,,,,,,2022-10-07,1,,,,,アルフィノ,0
754,3011703003277,新規,0,2022-10-07,2022-10-07,合同会社ＺＡＫ,,合同会社,東京都,江戸川区,西小岩２丁目３番１５号,,13,123,1330057,,,,,,,2022-10-07,1,,,,,ザク,0
756,3011801041360,新規,0,2022-10-07,2022-10-07,ＣＳＡ匠株式会社,,株式会社,東京都,足立区,舎人４丁目９番６号,,13,121,1210831,,,,,,,2022-10-07,1,,,,,シーエスエータクミ,0
757,3011801041369,新規,0,2022-10-07,2022-10-07,株式会社富源,,株式会社,東京都,足立区,扇２丁目１４番１２号,,13,121,1230873,,,,,,,2022-10-07,1,,,,,フゲン,0
758,3011803005297,新規,0,2022-10-07,2022-10-07,合同会社Ｓｈｉｎ,,合同会社,東京都,足立区,東綾瀬１丁目１５番１８号,,13,121,1200004,,,,,,,2022-10-07,1,,,,,シン,0
759,3012401039720,新規,0,2022-10-07,2022-10-07,株式会社Ａ　ＳＴＹＬＥ,,株式会社,東京都,府中市,若松町５丁目１０番地の３,,13,206,1830005,,,,,,,2022-10-07,1,,,,,エースタイル,0
760,3012403005613,新規,0,2022-10-07,2022-10-07,イーリンクス合同会社,,合同会社,東京都,調布市,仙川町２丁目２番地４９,,13,208,1820002,,,,,,,2022-10-07,1,,,,,イーリンクス,0
761,3012701017293,新規,0,2022-10-07,2022-10-07,株式会社ＥＶＩＳリフォーム,,株式会社,東京都,西東京市,東町５丁目１－１５,,13,229,2020012,,,,,,,2022-10-07,1,,,,,エビスリフォーム,0
765,3012801021880,新規,0,2022-10-07,2022-10-07,株式会社ブラフ・マン・エンターテインメント,,株式会社,東京都,国分寺市,日吉町３丁目２９番地３２,,13,214,1850032,,,,,,,2022-10-07,1,,,,,ブラフマンエンターテインメント,0
768,3013301049768,新規,0,2022-10-07,2022-10-07,株式会社スタークリエーション,,株式会社,東京都,豊島区,西池袋５丁目５－２１ザ・タワー・グランディア１３０９号室,,13,116,1710021,,,,,,,2022-10-07,1,,,,,スタークリエーション,0
775,3020001148379,新規,0,2022-10-07,2022-10-07,エム建設株式会社,,株式会社,神奈川県,川崎市川崎区,大師本町４番８－４１２号,,14,131,2100817,,,,,,,2022-10-07,1,,,,,,0
776,3020001148420,新規,0,2022-10-07,2022-10-07,株式会社クラウドランド,,株式会社,神奈川県,横浜市都筑区,茅ケ崎中央１９番３号,,14,118,2240032,,,,,,,2022-10-07,1,,,,,クラウドランド,0
777,3020001148453,新規,0,2022-10-07,2022-10-07,株式会社Ｓｕｒｖｉｖｅ,,株式会社,神奈川県,横浜市緑区,東本郷４丁目２４番１１号,,14,113,2260002,,,,,,,2022-10-07,1,,,,,サヴァイブ,0
778,3020001148461,新規,0,2022-10-07,2022-10-07,株式会社ヤマケン,,株式会社,神奈川県,川崎市宮前区,初山１丁目２３－９－１０３,,14,136,2160026,,,,,,,2022-10-07,1,,,,,ヤマケン,0
779,3020001148486,新規,0,2022-10-07,2022-10-07,株式会社ニッセイ商会,,株式会社,神奈川県,横浜市中区,宮川町３丁目８４番地２,,14,104,2310065,,,,,,,2022-10-07,1,,,,,ニッセイショウカイ,0
780,3020001148503,新規,0,2022-10-07,2022-10-07,株式会社白井不動産,,株式会社,神奈川県,川崎市麻生区,千代ケ丘１丁目２番地９、２０２号室,,14,137,2150005,,,,,,,2022-10-07,1,,,,,シライフドウサン,0
788,3020005015690,新規,0,2022-10-07,2022-10-07,税理士法人ハヤシパートナーズ,,その他の設立登記法人,神奈川県,横浜市西区,平沼１丁目７番１０号横浜ＹＳＫビル,,14,103,2200023,,,,,,,2022-10-07,1,,,,,ハヤシパートナーズ,0
789,3021001077130,新規,0,2022-10-07,2022-10-07,株式会社ＲＥＡＬ２０００,,株式会社,神奈川県,相模原市中央区,上溝２１７１番地１９－１０３号,,14,152,2520243,,,,,,,2022-10-07,1,,,,,リアルニセン,0
790,3021001077139,新規,0,2022-10-07,2022-10-07,Ｌｅａ　Ｈｏｍｅ株式会社,,株式会社,神奈川県,座間市,入谷西３丁目５番１０号,,14,216,2520029,,,,,,,2022-10-07,1,,,,,レアホーム,0
793,3021003012226,新規,0,2022-10-07,2022-10-07,合同会社アダチ工業,,合同会社,神奈川県,藤沢市,片瀬３丁目１４番３５号２０３,,14,205,2510032,,,,,,,2022-10-07,1,,,,,,0
802,3030001150375,新規,0,2022-10-07,2022-10-07,株式会社すたんどわーくす,,株式会社,埼玉県,さいたま市浦和区,高砂２丁目６番１９号,,11,107,3300063,,,,,,,2022-10-07,1,,,,,スタンドワークス,0
803,3030001150391,新規,0,2022-10-07,2022-10-07,株式会社ＫＲＥＳＴ,,株式会社,埼玉県,川口市,領家１丁目１９－９ソシア領家,,11,203,3320004,,,,,,,2022-10-07,1,,,,,クレスト,0
804,3030001150441,新規,0,2022-10-07,2022-10-07,株式会社ＪＣＫＳ,,株式会社,埼玉県,蕨市,中央３丁目２８番９号,,11,223,3350004,,,,,,,2022-10-07,1,,,,,ジェイクス,0
805,3030001150458,新規,0,2022-10-07,2022-10-07,株式会社ＡＧ建板,,株式会社,埼玉県,上尾市,大字領家９３番地２０,,11,219,3620066,,,,,,,2022-10-07,1,,,,,エージーケンバン,0
812,3030003020329,新規,0,2022-10-07,2022-10-07,ＳＥＫＩ合同会社,,合同会社,埼玉県,川口市,西川口１丁目３０番２０－６０１号,,11,203,3320021,,,,,,,2022-10-07,1,,,,,セキ,0
813,3030003020337,新規,0,2022-10-07,2022-10-07,合同会社ＫＲテック,,合同会社,埼玉県,春日部市,藤塚１６８２番地１ネオアクシススール１０１,,11,214,3440011,,,,,,,2022-10-07,1,,,,,ケイアールテック,0
824,3040001125285,新規,0,2022-10-07,2022-10-07,株式会社ＱＲＥＳｉＡ,,株式会社,千葉県,八街市,希望ヶ丘２６１－８５,,12,230,2891131,,,,,,,2022-10-07,1,,,,,クレシア,0
825,3040001125302,新規,0,2022-10-07,2022-10-07,株式会社Ｒａｂｂｉｔ,,株式会社,千葉県,木更津市,清川２丁目１５－２１プランドールＡ,,12,206,2920051,,,,,,,2022-10-07,1,,,,,ラビット,0
826,3040001125319,新規,0,2022-10-07,2022-10-07,とらいあんごー株式会社,,株式会社,千葉県,長生郡長柄町,六地蔵２０５番地１８,,12,426,2970233,,,,,,,2022-10-07,1,,,,,トライアンゴー,0
827,3040001125335,新規,0,2022-10-07,2022-10-07,株式会社ＢＡＢＡ　ＫＥＮ,,株式会社,千葉県,柏市,南増尾６丁目２番５９号,,12,217,2770054,,,,,,,2022-10-07,1,,,,,ババケン,0
828,3040001125368,新規,0,2022-10-07,2022-10-07,株式会社イッツアイ・クリエイト,,株式会社,千葉県,千葉市若葉区,大宮台３丁目１６番５号,,12,104,2640015,,,,,,,2022-10-07,1,,,,,イッツアイクリエイト,0
829,3040001125376,新規,0,2022-10-07,2022-10-07,０．ｃ株式会社,,株式会社,千葉県,松戸市,金ケ作２６７番１号,,12,207,2702251,,,,,,,2022-10-07,1,,,,,レイドシー,0
832,3040003020996,新規,0,2022-10-07,2022-10-07,合同会社レオパルド,,合同会社,千葉県,東金市,滝２３７番地２２,,12,213,2830825,,,,,,,2022-10-07,1,,,,,レオパルド,0
833,3040005021753,新規,0,2022-10-07,2022-10-07,行政書士法人木更津相続サポートセンター,,その他の設立登記法人,千葉県,木更津市,東中央２丁目４番１４号,,12,206,2920057,,,,,,,2022-10-07,1,,,,,キサラヅソウゾクサポートセンター,0
835,3050001051761,新規,0,2022-10-07,2022-10-07,株式会社ＡＫＴ,,株式会社,茨城県,龍ケ崎市,佐貫４丁目１４番地２１,,08,208,3010032,,,,,,,2022-10-07,1,,,,,エーケーティー,0
836,3050001051778,新規,0,2022-10-07,2022-10-07,株式会社三傘,,株式会社,茨城県,水戸市,飯島町１４８２番地の１４,,08,201,3114155,,,,,,,2022-10-07,1,,,,,ミカサ,0
839,3060001035326,新規,0,2022-10-07,2022-10-07,株式会社Ｔｈｅ　Ｂｏｔｔｏｍ　Ｗｅｅｄ,,株式会社,栃木県,宇都宮市,駅前通り２丁目１－５ＵＳＨビル１Ｆ,,09,201,3210964,,,,,,,2022-10-07,1,,,,,ザボットムウィード,0
840,3070001039722,新規,0,2022-10-07,2022-10-07,株式会社一昂,,株式会社,群馬県,伊勢崎市,日乃出町７０２番地,,10,204,3720022,,,,,,,2022-10-07,1,,,,,イッコウ,0
841,3070003004641,新規,0,2022-10-07,2022-10-07,ＣＯ２ｂｉｃｙｃｌｅ合同会社,,合同会社,群馬県,安中市,下後閑１３８４番地２,,10,211,3790106,,,,,,,2022-10-07,1,,,,,,0
844,3080005007484,新規,0,2022-10-07,2022-10-07,税理士法人エース,,その他の設立登記法人,静岡県,焼津市,西焼津３０番地の２,,22,212,4250075,,,,,,,2022-10-07,1,,,,,エース,0
846,3080101023567,新規,0,2022-10-07,2022-10-07,株式会社関建設,,株式会社,静岡県,熱海市,伊豆山２０６番地の５,,22,205,4130002,,,,,,,2022-10-07,1,,,,,セキケンセツ,0
850,3080403004629,新規,0,2022-10-07,2022-10-07,Ｒｏｃｋｗｅｌｌ合同会社,,合同会社,静岡県,浜松市南区,恩地町７５番地１,,22,134,4300814,,,,,,,2022-10-07,1,,,,,ロックウェル,0
852,3090001017809,新規,0,2022-10-07,2022-10-07,ｎｉｗａ　ｔｏ　ｋｉ株式会社,,株式会社,山梨県,南都留郡富士河口湖町,船津６８９５番地,,19,430,4010301,,,,,,,2022-10-07,1,,,,,ニワトキ,0
855,3100001035775,新規,0,2022-10-07,2022-10-07,株式会社山森人,,株式会社,長野県,上田市,保野１０２７番地１,,20,203,3861321,,,,,,,2022-10-07,1,,,,,ヤマモト,0
875,3120001249324,新規,0,2022-10-07,2022-10-07,株式会社ｇｒｏｗｔｈ　ｄｅｖｅｌｏｐ,,株式会社,大阪府,大阪市東住吉区,北田辺２丁目３番９号,,27,121,5460044,,,,,,,2022-10-07,1,,,,,グロースデベロップ,0
876,3120001249340,新規,0,2022-10-07,2022-10-07,株式会社ＫＤロジスティクス,,株式会社,大阪府,大阪市中央区,今橋２丁目４番１０号,,27,128,5410042,,,,,,,2022-10-07,1,,,,,ケーディーロジスティクス,0
877,3120001249365,新規,0,2022-10-07,2022-10-07,日本マイクロン電子株式会社,,株式会社,大阪府,大阪市中央区,淡路町１丁目４－１５ＲＩＣＯＴＴＯ,,27,128,5410047,,,,,,,2022-10-07,1,,,,,ニホンマイクロンデンシ,0
878,3120001249415,新規,0,2022-10-07,2022-10-07,株式会社北建築設計事務所,,株式会社,大阪府,大阪市中央区,大手通３丁目１番６号,,27,128,5400021,,,,,,,2022-10-07,1,,,,,キタケンチクセッケイジムショ,0
882,3120003022605,新規,0,2022-10-07,2022-10-07,合同会社ティナララ,,合同会社,大阪府,寝屋川市,萱島信和町２０番１２－７０１号,,27,215,5720829,,,,,,,2022-10-07,1,,,,,ティナララ,0
884,3120101066314,新規,0,2022-10-07,2022-10-07,株式会社泉州工房,,株式会社,大阪府,泉佐野市,新安松３丁目７番４５号,,27,213,5980032,,,,,,,2022-10-07,1,,,,,センシュウコウボウ,0
885,3120105009632,新規,0,2022-10-07,2022-10-07,一般社団法人花漾漢語,,その他の設立登記法人,大阪府,堺市南区,原山台１丁２番１－５０２号,,27,145,5900132,,,,,,,2022-10-07,1,,,,,カヨウカンゴ,0
890,3120901046572,新規,0,2022-10-07,2022-10-07,ｏｆｆｉｃｅ白馬ホールディングス株式会社,,株式会社,大阪府,豊能郡豊能町,吉川３３０番地,,27,321,5630101,,,,,,,2022-10-07,1,,,,,オフィスハクバホールディングス,0
891,3120901046589,新規,0,2022-10-07,2022-10-07,光明医療株式会社,,株式会社,大阪府,箕面市,船場西３丁目８番１１－２０１号,,27,220,5620036,,,,,,,2022-10-07,1,,,,,コウミョウイリョウ,0
892,3120903004330,新規,0,2022-10-07,2022-10-07,宮本会計コンサルティング合同会社,,合同会社,大阪府,箕面市,船場東３丁目１１番１３－４０２号,,27,220,5620035,,,,,,,2022-10-07,1,,,,,ミヤモトカイケイコンサルティング,0
897,3130001072709,新規,0,2022-10-07,2022-10-07,ＭＡＳＡ　ＥＳＴＡＴＥ株式会社,,株式会社,京都府,乙訓郡大山崎町,字大山崎小字鏡田１９番地３,,26,303,6180071,,,,,,,2022-10-07,1,,,,,マサエステート,0
900,3140001127585,新規,0,2022-10-07,2022-10-07,ＬＡＮＤ　ＦＡＲＭ株式会社,,株式会社,兵庫県,三木市,志染町戸田４３０番地,,28,215,6730514,,,,,,,2022-10-07,1,,,,,ランドファーム,0
901,3140001127593,新規,0,2022-10-07,2022-10-07,株式会社プライベートセレモニー,,株式会社,兵庫県,姫路市,東辻井１丁目１０番２４号,00128061,28,201,6700084,,,,,,,2022-10-07,1,,,,,プライベートセレモニー,0
902,3140001127668,新規,0,2022-10-07,2022-10-07,株式会社やまさき塾,,株式会社,兵庫県,西宮市,羽衣町１０番５号,,28,204,6620051,,,,,,,2022-10-07,1,,,,,ヤマサキジュク,0
907,3140003018213,新規,0,2022-10-07,2022-10-07,合同会社Ｒｅｍｅｍｂｅｒ,,合同会社,兵庫県,神戸市西区,学園東町４丁目２８番地の１３,,28,111,6512102,,,,,,,2022-10-07,1,,,,,リメンバー,0
908,3150001025862,新規,0,2022-10-07,2022-10-07,株式会社Ｎｅｘｔａｇｅ,,株式会社,奈良県,奈良市,藤ノ木台３丁目１６番６号,,29,201,6310044,,,,,,,2022-10-07,1,,,,,ネクステージ,0
912,3160001024533,新規,0,2022-10-07,2022-10-07,株式会社Ｆｏｒｔｕｎａ,,株式会社,滋賀県,彦根市,河原２丁目２番３３号・２Ｆ,,25,202,5220083,,,,,,,2022-10-07,1,,,,,フォルトゥーナ,0
916,3170001017305,新規,0,2022-10-07,2022-10-07,同盛商事株式会社,,株式会社,和歌山県,和歌山市,平岡１２３番地の１,,30,201,6496303,,,,,,,2022-10-07,1,,,,,ドウセイショウジ,0
919,3180001153248,新規,0,2022-10-07,2022-10-07,株式会社エイデンシャ,,株式会社,愛知県,名古屋市中区,栄１丁目１８番１号,,23,106,4600008,,,,,,,2022-10-07,1,,,,,エイデンシャ,0
920,3180001153264,新規,0,2022-10-07,2022-10-07,株式会社ＧＯ,,株式会社,愛知県,名古屋市中村区,塩池町１丁目１１番２０号,,23,105,4530032,,,,,,,2022-10-07,1,,,,,ゴウ,0
921,3180001153289,新規,0,2022-10-07,2022-10-07,株式会社ｒｅ．Ｕ,,株式会社,愛知県,名古屋市中区,丸の内２丁目１７番１３号ＮＫ丸の内ビル２Ｆ,,23,106,4600002,,,,,,,2022-10-07,1,,,,,リユー,0
922,3180001153330,新規,0,2022-10-07,2022-10-07,株式会社大弘,,株式会社,愛知県,津島市,金柳町字南脇１６０番地２,,23,208,4960014,,,,,,,2022-10-07,1,,,,,ダイコウ,0
923,3180001153347,新規,0,2022-10-07,2022-10-07,株式会社ｅｌｉ,,株式会社,愛知県,名古屋市北区,志賀町４丁目２７番地の４,,23,103,4620037,,,,,,,2022-10-07,1,,,,,エリ,0
924,3180003024348,新規,0,2022-10-07,2022-10-07,合同会社これから,,合同会社,愛知県,名古屋市守山区,大森八龍１丁目２５０４番地の２２,,23,113,4630028,,,,,,,2022-10-07,1,,,,,コレカラ,0
926,3180301036689,新規,0,2022-10-07,2022-10-07,株式会社カワシマと,,株式会社,愛知県,豊田市,住吉町１丁目１４番地２３,,23,211,4730905,,,,,,,2022-10-07,1,,,,,カワシマト,0
930,3190001029819,新規,0,2022-10-07,2022-10-07,株式会社Ｙ．Ｔ．Ｓ．,,株式会社,三重県,四日市市,白須賀２丁目５番１５号,,24,202,5100018,,,,,,,2022-10-07,1,,,,,ワイティーエス,0
941,3210001019115,新規,0,2022-10-07,2022-10-07,株式会社ＭＩＲＡＩ,,株式会社,福井県,丹生郡越前町,西田中２丁目１０４番地１,,18,423,9160141,,,,,,,2022-10-07,1,,,,,ミライ,0
942,3210005010061,新規,0,2022-10-07,2022-10-07,一般社団法人ピアアソシエ,,その他の設立登記法人,福井県,福井市,福町第３１号１番地９６,,18,201,9188027,,,,,,,2022-10-07,1,,,,,ピアアソシエ,0
945,3230001019542,新規,0,2022-10-07,2022-10-07,株式会社伊東,,株式会社,富山県,富山市,大泉町１丁目２番９号,,16,201,9398087,,,,,,,2022-10-07,1,,,,,イトウ,0
953,3240001060462,新規,0,2022-10-07,2022-10-07,リビング株式会社,,株式会社,広島県,広島市西区,山手町１６番２２号,,34,104,7330804,,,,,,,2022-10-07,1,,,,,リビング,0
955,3240003005845,新規,0,2022-10-07,2022-10-07,Ａｒｋ　Ｐｒｏｊｅｃｔｓ合同会社,,合同会社,広島県,広島市西区,庚午南１丁目３２番３４－３１０号,,34,104,7330823,,,,,,,2022-10-07,1,,,,,アークプロジェクト,0
957,3250003003162,新規,0,2022-10-07,2022-10-07,合同会社匠鈑金整備,,合同会社,山口県,山口市,小郡明治２丁目１２番１９－７０１号,,35,203,7540043,,,,,,,2022-10-07,1,,,,,タクミバンキンセイビ,0
968,3290001099117,新規,0,2022-10-07,2022-10-07,株式会社フロア,,株式会社,福岡県,福岡市中央区,渡辺通５丁目１４番１２号南天神ビル３Ｆ,,40,133,8100004,,,,,,,2022-10-07,1,,,,,フロア,0
969,3290001099158,新規,0,2022-10-07,2022-10-07,株式会社剛健工業,,株式会社,福岡県,福岡市博多区,寿町２丁目５－１６セイカハイム５号室,,40,132,8120884,,,,,,,2022-10-07,1,,,,,ゴウケンコウギョウ,0
970,3290001099174,新規,0,2022-10-07,2022-10-07,株式会社ＳＩＭＳ,,株式会社,福岡県,福岡市博多区,中洲１丁目４番１３号ＭＡＮ－ＭＡＮ中洲ビル４Ｆ,,40,132,8100801,,,,,,,2022-10-07,1,,,,,シムズ,0
973,3290003013026,新規,0,2022-10-07,2022-10-07,合同会社ＮＬＷｏｒｋｓ,,合同会社,福岡県,福岡市早良区,城西３丁目２１番２７号美食街Ｂ－ｄｉｓｈ,,40,137,8140003,,,,,,,2022-10-07,1,,,,,エヌエルワークス,0
977,3290005018824,新規,0,2022-10-07,2022-10-07,一般社団法人こども未来投資プロジェクト,,その他の設立登記法人,福岡県,福岡市博多区,千代１丁目１－６８,,40,132,8120044,,,,,,,2022-10-07,1,,,,,コドモミライトウシプロジェクト,0
985,3300001013091,新規,0,2022-10-07,2022-10-07,株式会社山田造園,,株式会社,佐賀県,佐賀市,久保泉町大字川久保２９４６番地,,41,201,8490901,,,,,,,2022-10-07,1,,,,,ヤマダゾウエン,0
990,3320001019368,新規,0,2022-10-07,2022-10-07,株式会社大分さくらホールディングス,,株式会社,大分県,大分市,大字種具１３９４番地の１,,44,201,8700274,,,,,,,2022-10-07,1,,,,,オオイタサクラホールディングス,0
991,3330001030167,新規,0,2022-10-07,2022-10-07,Ａ．Ｔ　ＩＮＴＥＲＮＡＴＩＯＮＡＬ株式会社,,株式会社,熊本県,阿蘇市,内牧１０３８－６－１０３,,43,214,8692301,,,,,,,2022-10-07,1,,,,,エイティーインターナショナル,0
992,3330001030183,新規,0,2022-10-07,2022-10-07,株式会社中よし,,株式会社,熊本県,熊本市中央区,南熊本５丁目１１番１０号,,43,101,8600812,,,,,,,2022-10-07,1,,,,,ナカヨシ,0
993,3330001030191,新規,0,2022-10-07,2022-10-07,株式会社わた邉商店,,株式会社,熊本県,熊本市中央区,新屋敷１丁目１４番２６号新屋敷中尾ビル１Ｆ,,43,101,8620975,,,,,,,2022-10-07,1,,,,,ワタナベショウテン,0
1001,3360003012342,新規,0,2022-10-07,2022-10-07,合同会社宮古島パニパニファーム,,合同会社,沖縄県,宮古島市,上野字宮国１３４８番地１,,47,214,9060203,,,,,,,2022-10-07,1,,,,,ミヤコジマパニパニファーム,0
1002,3360005006722,新規,0,2022-10-07,2022-10-07,一般社団法人ホワイトボード,,その他の設立登記法人,沖縄県,糸満市,字兼城５２１番地の２１,,47,210,9010303,,,,,,,2022-10-07,1,,,,,ホワイトボード,0
1006,3370003005857,新規,0,2022-10-07,2022-10-07,合同会社楽市,,合同会社,宮城県,大崎市,古川十日町８番８号,,04,215,9896165,,,,,,,2022-10-07,1,,,,,ラクイチ,0
1011,3380001033165,新規,0,2022-10-07,2022-10-07,株式会社ＫＡＳＵＭＩ,,株式会社,福島県,福島市,八木田字井戸上８６番地の１,,07,201,9608164,,,,,,,2022-10-07,1,,,,,カスミ,0
1014,3430001087577,新規,0,2022-10-07,2022-10-07,モノクロラボ株式会社,,株式会社,北海道,札幌市白石区,北郷九条７丁目４番７号,,01,104,0030839,,,,,,,2022-10-07,1,,,,,モノクロラボ,0
1015,3430003014323,新規,0,2022-10-07,2022-10-07,合同会社ＡＬＭＡ　ＲＥＶＯ,,合同会社,北海道,札幌市手稲区,富丘三条３丁目１番１６号,,01,109,0060013,,,,,,,2022-10-07,1,,,,,アルマレボ,0
1023,3700150111515,新規,0,2022-10-07,2022-08-29,土場川水土里保全会,,その他,青森県,上北郡東北町,字塔ノ沢山１－４４７,,02,408,0392654,,,,,,,2022-08-29,1,,,,,ドバガワミドリホゼンカイ,0
1024,3700150112100,新規,0,2022-10-07,2022-10-07,マル・ガネーシャ・インターナショナル・トレーディング・プライベートリミテッド　,,外国会社等,東京都,八王子市,台町４丁目３３－８月ビル１０１,,13,201,1930931,カトマンズ行政部カトマンズメトロポリタンシティー６、サラスワティナガル,,,,,,2022-10-07,1,,,,,マルガネーシヤインターナシヨナルトレーデイングプライベートリミテツド,0
1031,4010001229930,新規,0,2022-10-07,2022-10-07,パッチワークキルト株式会社,,株式会社,東京都,千代田区,紀尾井町６番３号,,13,101,1020094,,,,,,,2022-10-07,1,,,,,パッチワークキルト,0
1039,4010401170016,新規,0,2022-10-07,2022-10-07,ＡＯＩ　ＡＱＵＡ株式会社,,株式会社,東京都,港区,虎ノ門１丁目３－１東京虎ノ門グローバルスクエア５Ｆ,,13,103,1050001,,,,,,,2022-10-07,1,,,,,エーオーアイアクア,0
1040,4010401170081,新規,0,2022-10-07,2022-10-07,株式会社かのなん,,株式会社,東京都,港区,白金６丁目１６番２５号グランメゾン白金の杜ザタワー１４０５号,,13,103,1080072,,,,,,,2022-10-07,1,,,,,カノナン,0
1041,4010401170115,新規,0,2022-10-07,2022-10-07,株式会社桃李,,株式会社,東京都,港区,港南２丁目１６番７－３６０６号,,13,103,1080075,,,,,,,2022-10-07,1,,,,,トウリ,0
1042,4010401170148,新規,0,2022-10-07,2022-10-07,株式会社Ｒｅｃｅｉｖｅ,,株式会社,東京都,港区,芝浦１丁目１３番１０号,,13,103,1050023,,,,,,,2022-10-07,1,,,,,レシーブ,0
1044,4010403028641,新規,0,2022-10-07,2022-10-07,合同会社ファースト,,合同会社,東京都,港区,南青山２丁目２番１５号,,13,103,1070062,,,,,,,2022-10-07,1,,,,,ファースト,0
1045,4010403028658,新規,0,2022-10-07,2022-10-07,合同会社ＴＩＣ,,合同会社,東京都,港区,芝浦４丁目２０番２－３０９号,,13,103,1080023,,,,,,,2022-10-07,1,,,,,ティアイシー,0
1046,4010403028666,新規,0,2022-10-07,2022-10-07,メイズインターナショナル合同会社,,合同会社,東京都,港区,白金５丁目１１番１１－２０１号,,13,103,1080072,,,,,,,2022-10-07,1,,,,,メイズインターナショナル,0
1048,4010501049440,新規,0,2022-10-07,2022-10-07,株式会社トッパンクーハン,,株式会社,東京都,台東区,台東１丁目５番１号,,13,106,1100016,,,,,,,2022-10-07,1,,,,,トッパンクーハン,0
1049,4010501049465,新規,0,2022-10-07,2022-10-07,ＳＯＢＡＴＭＡＮ　ＤＥＳＩＧＮ株式会社,,株式会社,東京都,台東区,蔵前１丁目３番７号東光シャルム５０１,,13,106,1110051,,,,,,,2022-10-07,1,,,,,ソバットマンデザイン,0
1053,4010601061956,新規,0,2022-10-07,2022-10-07,Ｗａｙｆｉｎｄｅｒ　Ｇｒｏｕｐ株式会社,,株式会社,東京都,江東区,東雲１丁目９番４－２５１１号,,13,108,1350062,,,,,,,2022-10-07,1,,,,,ウェイファインダーグループ,0
1054,4010601061964,新規,0,2022-10-07,2022-10-07,株式会社ＧＲＡＮＮＹ,,株式会社,東京都,墨田区,菊川３丁目１４番２号,,13,107,1300024,,,,,,,2022-10-07,1,,,,,グラニー,0
1055,4010603009771,新規,0,2022-10-07,2022-10-07,合同会社オーティーピー,,合同会社,東京都,墨田区,京島１丁目１番２号,,13,107,1310046,,,,,,,2022-10-07,1,,,,,オーティーピー,0
1057,4010801033318,新規,0,2022-10-07,2022-10-07,株式会社フォーウェルエステート,,株式会社,東京都,大田区,池上５丁目１７番１０号,,13,111,1460082,,,,,,,2022-10-07,1,,,,,フォーウェルエステート,0
1058,4010801033334,新規,0,2022-10-07,2022-10-07,サーキュラーデザイン株式会社,,株式会社,東京都,大田区,山王２丁目２１－１１,,13,111,1430023,,,,,,,2022-10-07,1,,,,,サーキュラーデザイン,0
1060,4010803004309,新規,0,2022-10-07,2022-10-07,合同会社ｅ‐Ｂｅｔｈ,,合同会社,東京都,大田区,田園調布２丁目５５番１５号,,13,111,1450071,,,,,,,2022-10-07,1,,,,,イーベス,0
1061,4010805002979,新規,0,2022-10-07,2022-10-07,一般社団法人ディレクションサポート協会,,その他の設立登記法人,東京都,大田区,山王２丁目５番６号ＳＡＮＮＯ　ＢＲＩＤＧＥ,,13,111,1430023,,,,,,,2022-10-07,1,,,,,ディレクションサポートキョウカイ,0
1063,4010903007698,新規,0,2022-10-07,2022-10-07,ｈａｎａｍａｒｉ　ｃａｆｅ合同会社,,合同会社,東京都,世田谷区,上祖師谷１丁目１０番２２号,,13,112,1570065,,,,,,,2022-10-07,1,,,,,ハナマリカフェ,0
1075,4011001150135,新規,0,2022-10-07,2022-10-07,株式会社ＩＤ‐ＣＬＡＮ,,株式会社,東京都,渋谷区,本町６丁目３８番６号,,13,113,1510071,,,,,,,2022-10-07,1,,,,,アイディークラン,0
1076,4011001150168,新規,0,2022-10-07,2022-10-07,株式会社スリーワーク,,株式会社,東京都,渋谷区,円山町５番５号Ｎａｖｉ渋谷Ｖ３階,,13,113,1500044,,,,,,,2022-10-07,1,,,,,スリーワーク,0
1077,4011001150176,新規,0,2022-10-07,2022-10-07,株式会社ＬＩＮＫＩＮＧ,,株式会社,東京都,渋谷区,神宮前６丁目１２番７号,,13,113,1500001,,,,,,,2022-10-07,1,,,,,リンキング,0
1083,4011101100411,新規,0,2022-10-07,2022-10-07,Ｇｒａｎｉｔｅ株式会社,,株式会社,東京都,新宿区,新宿１丁目３６番２号新宿第七葉山ビル３階,,13,104,1600022,,,,,,,2022-10-07,1,,,,,グラニテ,0
1084,4011101100428,新規,0,2022-10-07,2022-10-07,株式会社メルティングヴォイス,,株式会社,東京都,新宿区,新宿１丁目７番１０号,,13,104,1600022,,,,,,,2022-10-07,1,,,,,メルティングヴォイス,0
1085,4011101100436,新規,0,2022-10-07,2022-10-07,上和株式会社,,株式会社,東京都,新宿区,西落合３丁目３０－５－３Ｆ,,13,104,1610031,,,,,,,2022-10-07,1,,,,,ジョウワ,0
1091,4011203003925,新規,0,2022-10-07,2022-10-07,合同会社ＴｗｉｎＬｅａｆ,,合同会社,東京都,中野区,弥生町１丁目３３番５－５０９号,,13,114,1640013,,,,,,,2022-10-07,1,,,,,ツインリーフ,0
1093,4011301028139,新規,0,2022-10-07,2022-10-07,株式会社Ａｇｏｒａｘａ,,株式会社,東京都,杉並区,高円寺南２丁目４０番２３号,,13,115,1660003,,,,,,,2022-10-07,1,,,,,アゴラザ,0
1095,4011401024590,新規,0,2022-10-07,2022-10-07,Ｌａ　ｃｏｍｐａｓｓｉｏｎ株式会社,,株式会社,東京都,板橋区,常盤台２丁目５番４号Ｖａｌｉａｎｔビル２Ｆ,,13,119,1740071,,,,,,,2022-10-07,1,,,,,ラコンパッション,0
1102,4011701025669,新規,0,2022-10-07,2022-10-07,株式会社ライズフィット,,株式会社,東京都,江戸川区,東葛西６丁目１８番２０－１０３号,,13,123,1340084,,,,,,,2022-10-07,1,,,,,ライズフィット,0
1103,4011703003276,新規,0,2022-10-07,2022-10-07,Ｔ＆Ｃ合同会社,,合同会社,東京都,江戸川区,清新町１丁目１番１８－１２０４号,,13,123,1340087,,,,,,,2022-10-07,1,,,,,ティーアンドシー,0
1105,4011801041368,新規,0,2022-10-07,2022-10-07,株式会社ＬＩＰＡＱ,,株式会社,東京都,足立区,西加平２丁目３番３号,,13,121,1210074,,,,,,,2022-10-07,1,,,,,リパック,0
1106,4011801041376,新規,0,2022-10-07,2022-10-07,メイト株式会社,,株式会社,東京都,葛飾区,奥戸９丁目４番５号,,13,122,1240022,,,,,,,2022-10-07,1,,,,,メイト,0
1110,4012401039728,新規,0,2022-10-07,2022-10-07,株式会社Ｉ‐ＣＲＯＳＳ,,株式会社,東京都,武蔵野市,中町２丁目１５番８号,,13,203,1800006,,,,,,,2022-10-07,1,,,,,アイクロス,0
1113,4012403005620,新規,0,2022-10-07,2022-10-07,こだわりマックス合同会社,,合同会社,東京都,三鷹市,井の頭３丁目３番２３号ガーデンテラス１０３,,13,204,1810001,,,,,,,2022-10-07,1,,,,,コダワリマックス,0
1115,4012701017292,新規,0,2022-10-07,2022-10-07,株式会社Ｆｏｒｅｓｔメディカル,,株式会社,東京都,西東京市,東町６丁目５番１２－１０５号,,13,229,2020012,,,,,,,2022-10-07,1,,,,,フォレストメディカル,0
1121,4013301049767,新規,0,2022-10-07,2022-10-07,株式会社營臺,,株式会社,東京都,豊島区,南池袋１丁目８番２－７０１号,,13,116,1710022,,,,,,,2022-10-07,1,,,,,エイタイ,0
1128,4020001148411,新規,0,2022-10-07,2022-10-07,ＭＡＮＤＡＬＩ株式会社,,株式会社,神奈川県,横浜市保土ケ谷区,西久保町２０１番地６保土ケ谷アイランド１０１号,,14,106,2400022,,,,,,,2022-10-07,1,,,,,マンダリ,0
1129,4020001148444,新規,0,2022-10-07,2022-10-07,株式会社ＫＡＮＡ　ＦＵＲＵＳＡＷＡ,,株式会社,神奈川県,川崎市麻生区,万福寺１丁目１２番１号２階Ｄ号室,,14,137,2150004,,,,,,,2022-10-07,1,,,,,カナフルサワ,0
1130,4020001148460,新規,0,2022-10-07,2022-10-07,株式会社サンペンタス,,株式会社,神奈川県,川崎市幸区,下平間８３番地,,14,132,2120053,,,,,,,2022-10-07,1,,,,,サンペンタス,0
1131,4020001148469,新規,0,2022-10-07,2022-10-07,株式会社Ｔｒｉｕｍｐｈ,,株式会社,神奈川県,横浜市旭区,今宿東町７９６番地３,,14,112,2410032,,,,,,,2022-10-07,1,,,,,トライアンフ,0
1132,4020001148477,新規,0,2022-10-07,2022-10-07,株式会社こねくと,,株式会社,神奈川県,横浜市神奈川区,栄町２１番地３,,14,102,2210052,,,,,,,2022-10-07,1,,,,,コネクト,0
1133,4020001148493,新規,0,2022-10-07,2022-10-07,株式会社横浜資源,,株式会社,神奈川県,横浜市中区,長者町５丁目７５番地１,,14,104,2310033,,,,,,,2022-10-07,1,,,,,ヨコハマシゲン,0
1134,4020001148502,新規,0,2022-10-07,2022-10-07,デジタル・Ｆ株式会社,,株式会社,神奈川県,横浜市神奈川区,泉町１５番５号山本ビル２Ｆ,,14,102,2210842,,,,,,,2022-10-07,1,,,,,デジタルエフ,0
1135,4020001148527,新規,0,2022-10-07,2022-10-07,株式会社ＡＶＯＣＡＤＯ,,株式会社,神奈川県,川崎市高津区,溝口６丁目１０－１１－２０３,,14,134,2130001,,,,,,,2022-10-07,1,,,,,アボカド,0
1140,4020003022465,新規,0,2022-10-07,2022-10-07,合同会社モンステラ,,合同会社,神奈川県,横浜市泉区,緑園３丁目４０－１４,,14,116,2450002,,,,,,,2022-10-07,1,,,,,モンステラ,0
1141,4020003022473,新規,0,2022-10-07,2022-10-07,サン美容合同会社,,合同会社,神奈川県,横浜市港北区,鳥山町２９１番地,,14,109,2220035,,,,,,,2022-10-07,1,,,,,サンビヨウ,0
1142,4020003022481,新規,0,2022-10-07,2022-10-07,万事屋凜ちゃん合同会社,,合同会社,神奈川県,横浜市青葉区,鴨志田町５１１－９,,14,117,2270033,,,,,,,2022-10-07,1,,,,,ヨロズヤリンチャン,0
1143,4020003022523,新規,0,2022-10-07,2022-10-07,合同会社鞠居,,合同会社,神奈川県,横浜市鶴見区,尻手３丁目４番９号,,14,101,2300003,,,,,,,2022-10-07,1,,,,,マリイ,0
1144,4020003022531,新規,0,2022-10-07,2022-10-07,合同会社ＮａｕｔｉｃａｌＳｔａｒ,,合同会社,神奈川県,横浜市中区,桜木町１丁目１０１番地１クロスゲート７階,,14,104,2310062,,,,,,,2022-10-07,1,,,,,ノーティカルスター,0
1148,4021001077138,新規,0,2022-10-07,2022-10-07,株式会社ＢＦＡ,,株式会社,神奈川県,茅ヶ崎市,香川１丁目３７番６号,,14,207,2530082,,,,,,,2022-10-07,1,,,,,ビーエフエー,0
1152,4021003012217,新規,0,2022-10-07,2022-10-07,合同会社Ｌｉｖｉｎｇ　ｏｎ,,合同会社,神奈川県,横須賀市,久里浜２丁目２２番地５－２０２,,14,201,2390831,,,,,,,2022-10-07,1,,,,,リビングオン,0
1158,4030001150275,新規,0,2022-10-07,2022-10-07,株式会社ＥＮＲＩＣＨ,,株式会社,埼玉県,越谷市,大字弥十郎２０３番地１６,,11,222,3430047,,,,,,,2022-10-07,1,,,,,エンリッチ,0
1159,4030001150366,新規,0,2022-10-07,2022-10-07,株式会社雅,,株式会社,埼玉県,戸田市,氷川町２丁目８番２８－１３０３号,,11,224,3350027,,,,,,,2022-10-07,1,,,,,ミヤビ,0
1160,4030001150374,新規,0,2022-10-07,2022-10-07,株式会社サナスエフォート,,株式会社,埼玉県,鶴ヶ島市,大字上広谷６９４番地４,,11,241,3502203,,,,,,,2022-10-07,1,,,,,サナスエフォート,0
1161,4030001150390,新規,0,2022-10-07,2022-10-07,株式会社エイジェックマーケティングリサーチ,,株式会社,埼玉県,さいたま市大宮区,桜木町１丁目７番地５ソニックシティビル,,11,103,3300854,,,,,,,2022-10-07,1,,,,,エイジェックマーケティングリサーチ,0
1162,4030001150408,新規,0,2022-10-07,2022-10-07,パナセ株式会社,,株式会社,埼玉県,熊谷市,筑波２丁目６１番地大谷ビル１階,,11,202,3600037,,,,,,,2022-10-07,1,,,,,パナセ,0
1163,4030001150432,新規,0,2022-10-07,2022-10-07,株式会社栗田商店,,株式会社,埼玉県,川口市,中青木２丁目３番２５－１０２号,,11,203,3320032,,,,,,,2022-10-07,1,,,,,クリタショウテン,0
1164,4030001150440,新規,0,2022-10-07,2022-10-07,株式会社Ｋホールディングス,,株式会社,埼玉県,さいたま市桜区,西堀５丁目９番３９号,,11,106,3380832,,,,,,,2022-10-07,1,,,,,ケイホールディングス,0
1165,4030001150449,新規,0,2022-10-07,2022-10-07,株式会社橋爪工業,,株式会社,埼玉県,川口市,芝宮根町５番２０号１０１,,11,203,3330869,,,,,,,2022-10-07,1,,,,,ハシヅメコウギョウ,0
1166,4030001150457,新規,0,2022-10-07,2022-10-07,株式会社ｓｕｎｒｉｓｅ,,株式会社,埼玉県,越谷市,南越谷１丁目１５番地１南越谷ラクーン４Ｆ,,11,222,3430845,,,,,,,2022-10-07,1,,,,,サンライズ,0
1167,4030001150473,新規,0,2022-10-07,2022-10-07,株式会社ＮＭＫ,,株式会社,埼玉県,川口市,南鳩ヶ谷７丁目４０番１２号,,11,203,3340013,,,,,,,2022-10-07,1,,,,,エヌエムケー,0
1171,4030003020336,新規,0,2022-10-07,2022-10-07,合同会社ルークス,,合同会社,埼玉県,上尾市,大字原市４０９６番地１２,,11,219,3620021,,,,,,,2022-10-07,1,,,,,ルークス,0
1172,4030003020352,新規,0,2022-10-07,2022-10-07,合同会社ソリッド,,合同会社,埼玉県,狭山市,広瀬東２丁目２５番１１号,,11,215,3501320,,,,,,,2022-10-07,1,,,,,ソリッド,0
1173,4030003020360,新規,0,2022-10-07,2022-10-07,合同会社Ｅｎｄｒｅｓｓ,,合同会社,埼玉県,所沢市,松が丘２丁目４４番地の７,,11,208,3591132,,,,,,,2022-10-07,1,,,,,エンドレス,0
1181,4040001125318,新規,0,2022-10-07,2022-10-07,株式会社アースペイント,,株式会社,千葉県,野田市,山崎１８４８番地,,12,208,2780022,,,,,,,2022-10-07,1,,,,,アースペイント,0
1182,4040001125326,新規,0,2022-10-07,2022-10-07,市原バイオサイクル株式会社,,株式会社,千葉県,市原市,村上１４３３番地３,,12,219,2900031,,,,,,,2022-10-07,1,,,,,イチハラバイオサイクル,0
1183,4040001125334,新規,0,2022-10-07,2022-10-07,ＰｅａｃｅＬｉｎｅ株式会社,,株式会社,千葉県,八街市,八街に１３８番地７,,12,230,2891103,,,,,,,2022-10-07,1,,,,,ピースライン,0
1184,4040001125391,新規,0,2022-10-07,2022-10-07,株式会社ＬｉｆＬｉｍ,,株式会社,千葉県,市川市,稲荷木１丁目２５番７号プファンクーヘン３０５,,12,203,2720024,,,,,,,2022-10-07,1,,,,,リフリム,0
1187,4040003020970,新規,0,2022-10-07,2022-10-07,合同会社ＰＡＲＡＳＥＣＴ,,合同会社,千葉県,船橋市,山手２丁目３番３３－５０９号,,12,204,2730045,,,,,,,2022-10-07,1,,,,,パラセクト,0
1188,4040003020995,新規,0,2022-10-07,2022-10-07,合同会社ＳＨＥＩＯＮ,,合同会社,千葉県,千葉市美浜区,打瀬１丁目６番地１シティズフォート１－３０７号,,12,106,2610013,,,,,,,2022-10-07,1,,,,,シーオン,0
1189,4040003021011,新規,0,2022-10-07,2022-10-07,合同会社ＯＳＨＡＤＩ　ＥＸＰＯＲＴ,,合同会社,千葉県,白井市,神々廻１８１６番地の１９,,12,232,2701416,,,,,,,2022-10-07,1,,,,,オシャディエクスポート,0
1193,4050001051760,新規,0,2022-10-07,2022-10-07,株式会社エンビジョンＡＥＳＣ茨城,,株式会社,茨城県,東茨城郡茨城町,中央工業団地９番１０,,08,302,3113108,,,,,,,2022-10-07,1,,,,,エンビジョンエーイーエスシーイバラキ,0
1194,4050001051785,新規,0,2022-10-07,2022-10-07,株式会社ａｔｏｗａ　ｄｅｓｉｇｎ,,株式会社,茨城県,日立市,大みか町３丁目１番１２号,,08,202,3191221,,,,,,,2022-10-07,1,,,,,アトワデザイン,0
1196,4050003006903,新規,0,2022-10-07,2022-10-07,合同会社Ｌａｋｓｈ　ｉｎｔｅｒｎａｔｉｏｎａｌ,,合同会社,茨城県,結城市,大字山王２００－２,,08,207,3070023,,,,,,,2022-10-07,1,,,,,ラクシュインターナショナル,0
1202,4060001035300,新規,0,2022-10-07,2022-10-07,株式会社コマツバラ,,株式会社,栃木県,佐野市,吉水町２５２番地４,,09,204,3270313,,,,,,,2022-10-07,1,,,,,コマツバラ,0
1203,4060001035333,新規,0,2022-10-07,2022-10-07,株式会社ＢｅＬ,,株式会社,栃木県,宇都宮市,屋板町６６４番地７,,09,201,3210112,,,,,,,2022-10-07,1,,,,,ベル,0
1206,4070001039713,新規,0,2022-10-07,2022-10-07,株式会社水澤亭,,株式会社,群馬県,渋川市,伊香保町水沢２３３番地８,,10,208,3770103,,,,,,,2022-10-07,1,,,,,ミズサワテイ,0
1210,4080403004628,新規,0,2022-10-07,2022-10-07,合同会社心愛,,合同会社,静岡県,浜松市東区,中田町３３４番地の５,,22,132,4350057,,,,,,,2022-10-07,1,,,,,シンアイ,0
1212,4100001035766,新規,0,2022-10-07,2022-10-07,株式会社そまびと,,株式会社,長野県,下伊那郡阿南町,南條１７２８番地１,,20,404,3991503,,,,,,,2022-10-07,1,,,,,ソマビト,0
1213,4100001035774,新規,0,2022-10-07,2022-10-07,ロンズデザイン株式会社,,株式会社,長野県,長野市,大字南長野南石堂町１９７２番地エスタシオン長野ビル,,20,201,3800824,,,,,,,2022-10-07,1,,,,,ロンズデザイン,0
1215,4100005012910,新規,0,2022-10-07,2022-10-07,特定非営利活動法人アルボグランデ,,その他の設立登記法人,長野県,諏訪市,大字四賀２５１３番地,,20,206,3920012,,,,,,,2022-10-07,1,,,,,アルボグランデ,0
1216,4110001037019,新規,0,2022-10-07,2022-10-07,株式会社ＴＲＡＤ　ＯＮＥ,,株式会社,新潟県,新潟市中央区,長潟１２０８番地１６,,15,103,9500932,,,,,,,2022-10-07,1,,,,,トラッドワン,0
1230,4120001249372,新規,0,2022-10-07,2022-10-07,旭油業ＮＥＸＴ株式会社,,株式会社,大阪府,大阪市北区,中崎西１丁目６番４号,,27,127,5300015,,,,,,,2022-10-07,1,,,,,アサヒユギョウネクスト,0
1236,4120101066305,新規,0,2022-10-07,2022-10-07,株式会社ＣＯＣＯＲＥ,,株式会社,大阪府,堺市西区,鳳中町６丁２０３番地７,,27,144,5938327,,,,,,,2022-10-07,1,,,,,ココレ,0
1237,4120101066313,新規,0,2022-10-07,2022-10-07,株式会社原田設備,,株式会社,大阪府,堺市東区,白鷺町３丁１２番２号,,27,143,5998107,,,,,,,2022-10-07,1,,,,,ハラダセツビ,0
1238,4120101066321,新規,0,2022-10-07,2022-10-07,株式会社サークルワイ,,株式会社,大阪府,富田林市,高辺台２丁目２０番７号,,27,214,5840072,,,,,,,2022-10-07,1,,,,,サークルワイ,0
1239,4120101066338,新規,0,2022-10-07,2022-10-07,株式会社ジョイント,,株式会社,大阪府,藤井寺市,大井３丁目１２番３４号,,27,226,5830008,,,,,,,2022-10-07,1,,,,,ジョイント,0
1240,4120101066346,新規,0,2022-10-07,2022-10-07,ＡｃｃｅｌｅｒａｔｏｒＸ株式会社,,株式会社,大阪府,阪南市,舞３丁目１２－１０,,27,232,5990224,,,,,,,2022-10-07,1,,,,,アクセラレーターエックス,0
1242,4120901046588,新規,0,2022-10-07,2022-10-07,前田研磨株式会社,,株式会社,大阪府,摂津市,鳥飼上３丁目２０番４２号,,27,224,5660062,,,,,,,2022-10-07,1,,,,,マエダケンマ,0
1247,4130003008247,新規,0,2022-10-07,2022-10-07,合同会社アイコネクト,,合同会社,京都府,京都市伏見区,中島外山町１０３番地マジェスティサザンＩ棟３０５号室,00128056,26,109,6128455,,,,,,,2022-10-07,1,,,,,アイコネクト,0
1248,4130005016594,新規,0,2022-10-07,2022-10-07,医療法人にしかわクリニック,,その他の設立登記法人,京都府,京都市右京区,西京極東池田町１番地２シオン桂１階,,26,108,6150805,,,,,,,2022-10-07,1,,,,,ニシカワクリニック,0
1249,4130005016603,新規,0,2022-10-07,2022-10-07,税理士法人橋本・森崎事務所,,その他の設立登記法人,京都府,京都市下京区,東洞院通七条下る塩小路町５２４番地１パデシオン京都駅前２０５,,26,106,6008212,,,,,,,2022-10-07,1,,,,,ハシモトモリサキジムショ,0
1255,4140001127477,新規,0,2022-10-07,2022-10-07,株式会社Ａｃｒｅ,,株式会社,兵庫県,神戸市中央区,琴ノ緒町５丁目５－９ヒューチャービル３階３０２号室,,28,110,6510094,,,,,,,2022-10-07,1,,,,,アクレ,0
1256,4140001127502,新規,0,2022-10-07,2022-10-07,Ｍｉｓｕｍｉ株式会社,,株式会社,兵庫県,加古郡播磨町,宮北３丁目１０番３１号,,28,382,6750143,,,,,,,2022-10-07,1,,,,,ミスミ,0
1257,4140001127592,新規,0,2022-10-07,2022-10-07,株式会社ｂｌｕｅ　ｓｏｎｉｃ,,株式会社,兵庫県,伊丹市,高台１丁目１０７番地,,28,207,6640892,,,,,,,2022-10-07,1,,,,,ブルーソニック,0
1258,4140001127642,新規,0,2022-10-07,2022-10-07,ＴＫＴ株式会社,,株式会社,兵庫県,姫路市,北今宿２丁目３番１９号パティオタカタ１０１号,,28,201,6700057,,,,,,,2022-10-07,1,,,,,ティーケーケィー,0
1259,4140001127667,新規,0,2022-10-07,2022-10-07,株式会社Ｂｏｎｉｔｏ,,株式会社,兵庫県,神戸市中央区,山本通４丁目２番１２－４０１号,,28,110,6500003,,,,,,,2022-10-07,1,,,,,ボニート,0
1265,4140005026337,新規,0,2022-10-07,2022-10-07,一般社団法人フジタ福祉会,,その他の設立登記法人,兵庫県,神戸市中央区,二宮町２丁目６番１８－８０１号,,28,110,6510093,,,,,,,2022-10-07,1,,,,,フジタフクシカイ,0
1266,4150001025861,新規,0,2022-10-07,2022-10-07,株式会社都,,株式会社,奈良県,北葛城郡河合町,久美ケ丘１丁目１０番地１,,29,427,6360063,,,,,,,2022-10-07,1,,,,,ミヤコ,0
1267,4160001024549,新規,0,2022-10-07,2022-10-07,株式会社ＥＳＰａｔｉｏｎ　Ｍｅｔａｌ,,株式会社,滋賀県,近江八幡市,南津田町１２６０番地,,25,204,5230085,,,,,,,2022-10-07,1,,,,,エスペーションメタル,0
1270,4180001153271,新規,0,2022-10-07,2022-10-07,株式会社Ｋ．Ｆａｃｉｌｉｔｙ,,株式会社,愛知県,小牧市,多気南町２４４番地,,23,219,4850053,,,,,,,2022-10-07,1,,,,,ケーファシリティー,0
1271,4180001153288,新規,0,2022-10-07,2022-10-07,株式会社ＳｏｉｌＬｉｔｅ,,株式会社,愛知県,名古屋市港区,東築地町２番２３,,23,111,4550023,,,,,,,2022-10-07,1,,,,,ソイルライト,0
1272,4180001153296,新規,0,2022-10-07,2022-10-07,株式会社チロル,,株式会社,愛知県,名古屋市中区,正木１丁目１番８号,,23,106,4600024,,,,,,,2022-10-07,1,,,,,チロル,0
1273,4180001153313,新規,0,2022-10-07,2022-10-07,株式会社エヌワン,,株式会社,愛知県,名古屋市千種区,穂波町２丁目５２番地,,23,101,4640822,,,,,,,2022-10-07,1,,,,,エヌワン,0
1274,4180001153354,新規,0,2022-10-07,2022-10-07,株式会社エムワークス,,株式会社,愛知県,春日井市,宮町字宮町１０７番地９,,23,206,4860904,,,,,,,2022-10-07,1,,,,,エムワークス,0
1275,4180001153379,新規,0,2022-10-07,2022-10-07,株式会社イナヨシ,,株式会社,愛知県,名古屋市中村区,稲上町４丁目６９番地の２,,23,105,4530066,,,,,,,2022-10-07,1,,,,,イナヨシ,0
1276,4180005019956,新規,0,2022-10-07,2022-10-07,税理士法人ＨＯＰＥ,,その他の設立登記法人,愛知県,名古屋市千種区,池下１丁目４番１５号泰明ビル４階,,23,101,4640067,,,,,,,2022-10-07,1,,,,,ホープ,0
1277,4180301036688,新規,0,2022-10-07,2022-10-07,シロキ名古屋株式会社,,株式会社,愛知県,豊田市,西広瀬町小麦生６２５番地２６,,23,211,4700309,,,,,,,2022-10-07,1,,,,,シロキナゴヤ,0
1285,4210003001565,新規,0,2022-10-07,2022-10-07,合同会社ＬＥＴＯ,,合同会社,福井県,福井市,小稲津町第２８号１４番地,,18,201,9188131,,,,,,,2022-10-07,1,,,,,レト,0
1288,4220001025053,新規,0,2022-10-07,2022-10-07,株式会社ビジョンシステム,,株式会社,石川県,金沢市,広岡３丁目１番１号,,17,201,9200031,,,,,,,2022-10-07,1,,,,,ビジョンシステム,0
1292,4220003003370,新規,0,2022-10-07,2022-10-07,合同会社エステック・パークライフ金沢兼六元町,,合同会社,石川県,金沢市,新神田５丁目５番地,,17,201,9218013,,,,,,,2022-10-07,1,,,,,エステックパークライフカナザワケンロクモトマチ,0
1295,4240003005844,新規,0,2022-10-07,2022-10-07,スエナガ会計コンサルタント合同会社,,合同会社,広島県,広島市安佐南区,山本新町４丁目１４番２６号,,34,105,7310139,,,,,,,2022-10-07,1,,,,,スエナガカイケイコンサルタント,0
1297,4250003003153,新規,0,2022-10-07,2022-10-07,合同会社Ｇｏｅｎ,,合同会社,山口県,山口市,小郡黄金町１０－３第３正興ビル３Ｆ,,35,203,7540021,,,,,,,2022-10-07,1,,,,,ゴーエン,0
1298,4250003003161,新規,0,2022-10-07,2022-10-07,合同会社マコトレーディング,,合同会社,山口県,山陽小野田市,大字鴨庄５８４番地１６,,35,216,7570005,,,,,,,2022-10-07,1,,,,,マコトレーディング,0
1301,4290001099108,新規,0,2022-10-07,2022-10-07,株式会社グルモンディーズ,,株式会社,福岡県,福岡市中央区,天神４丁目６番２８号天神ファーストビル７階,,40,133,8100001,,,,,,,2022-10-07,1,,,,,グルモンディーズ,0
1303,4290003012992,新規,0,2022-10-07,2022-10-07,ＭＩＮＩ　ＣＨＡＮ合同会社,,合同会社,福岡県,福岡市東区,原田１丁目１４番２２号,,40,131,8120063,,,,,,,2022-10-07,1,,,,,ミニチャン,0
1304,4290003013041,新規,0,2022-10-07,2022-10-07,ヤーマン合同会社,,合同会社,福岡県,八女市,上陽町北川内４６５番地２,,40,210,8341102,,,,,,,2022-10-07,1,,,,,ヤーマン,0
1305,4290005018823,新規,0,2022-10-07,2022-10-07,一般社団法人メディカルハートクラブ福岡,,その他の設立登記法人,福岡県,福岡市博多区,須崎町１３番２３号,,40,132,8120028,,,,,,,2022-10-07,1,,,,,メディカルハートクラブフクオカ,0
1307,4300001013090,新規,0,2022-10-07,2022-10-07,株式会社ＲＥ．ＲＩＳＥ,,株式会社,佐賀県,武雄市,朝日町大字中野１０７５９番地１,,41,206,8430002,,,,,,,2022-10-07,1,,,,,リライズ,0
1315,4330001030158,新規,0,2022-10-07,2022-10-07,株式会社松英,,株式会社,熊本県,合志市,幾久富１８６６番地７０,,43,216,8611112,,,,,,,2022-10-07,1,,,,,マツエイ,0
1321,4340001025090,新規,0,2022-10-07,2022-10-07,株式会社Ａ‐ＲＵ,,株式会社,鹿児島県,鹿児島市,小野２丁目１４番１８－１号,,46,201,8900021,,,,,,,2022-10-07,1,,,,,アール,0
1324,4350001017987,新規,0,2022-10-07,2022-10-07,株式会社未来グリーン,,株式会社,宮崎県,延岡市,北浦町古江２４３８番地,,45,203,8890301,,,,,,,2022-10-07,1,,,,,ミライグリーン,0
1325,4360005006721,新規,0,2022-10-07,2022-10-07,一般社団法人未来ビジネス村,,その他の設立登記法人,沖縄県,うるま市,石川伊波１５５３番３０,,47,213,9041115,,,,,,,2022-10-07,1,,,,,ミライビジネスムラ,0
1326,4370001049112,新規,0,2022-10-07,2022-10-07,株式会社Ｏ．Ｂ．Ｆ,,株式会社,宮城県,塩竈市,後楽町２０番３号,,04,203,9850067,,,,,,,2022-10-07,1,,,,,オービーエフ,0
1328,4370003005856,新規,0,2022-10-07,2022-10-07,合同会社ＫＮエネルギー,,合同会社,宮城県,仙台市若林区,六丁の目中町１８番１５号斎喜六丁の目ビル２階,,04,103,9840012,,,,,,,2022-10-07,1,,,,,ケイエヌエネルギー,0
1331,4380001033164,新規,0,2022-10-07,2022-10-07,株式会社ＭＤＡコンサルティング,,株式会社,福島県,会津若松市,中央１丁目５番２９号Ｂステップ３階３０３,,07,202,9650037,,,,,,,2022-10-07,1,,,,,エムディーエーコンサルティング,0
1337,4430001087601,新規,0,2022-10-07,2022-10-07,ＪＡＰＡＮ　ＡＸ　ＰＲＯＪＥＣＴ株式会社,,株式会社,北海道,札幌市北区,あいの里三条６丁目１６番８号,,01,102,0028073,,,,,,,2022-10-07,1,,,,,ジャパンエーエックスプロジェクト,0
1341,4430003014322,新規,0,2022-10-07,2022-10-07,合同会社トトアミューズ,,合同会社,北海道,札幌市中央区,南七条西３丁目７番２９号,,01,101,0640807,,,,,,,2022-10-07,1,,,,,トトアミューズ,0
1343,4460101007258,新規,0,2022-10-07,2022-10-07,株式会社ｅｌｅｐｈａｎｔ,,株式会社,北海道,帯広市,西十六条北１丁目１４番地１,,01,207,0800046,,,,,,,2022-10-07,1,,,,,エレファント,0
1345,4470003002265,新規,0,2022-10-07,2022-10-07,児玉設備合同会社,,合同会社,香川県,小豆郡土庄町,淵崎甲１２０番地１,,37,322,7614121,,,,,,,2022-10-07,1,,,,,コダマセツビ,0
1346,4480001011878,新規,0,2022-10-07,2022-10-07,ナイス原木流通株式会社,,株式会社,徳島県,小松島市,金磯町３番６５号,,36,203,7730007,,,,,,,2022-10-07,1,,,,,ナイスゲンボクリュウツウ,0
1349,4500001024530,新規,0,2022-10-07,2022-10-07,株式会社エースビルド,,株式会社,愛媛県,伊予市,尾崎１４２－２,,38,210,7993127,,,,,,,2022-10-07,1,,,,,エースビルド,0
1351,4700150111539,新規,0,2022-10-07,2022-10-07,ＡＭＫＯＲ　ＴＥＣＨＮＯＬＯＧＹ　ＳＩＮＧＡＰＯＲＥ　ＨＯＬＤＩＮＧ　ＰＴＥ．ＬＴＤ．,,外国会社等,,,,,,,,４９１Ｂ　ＲＩＶＥＲ　ＶＡＬＬＥＹ　ＲＯＡＤ　＃１２－０３　ＶＡＬＬＥＹ　ＰＯＩＮＴ　ＳＩＮＧＡＰＯＲＥ　２４８３７３,,,,,,2022-10-07,1,,,,,アムコーテクノロジーシンガポールホールデイングピーテイーイーエルテイーデイー,0
1352,4700150112099,新規,0,2022-10-07,2022-10-07,神谷内葵町会,,その他,石川県,金沢市,神谷内町葵２８４番地,,17,201,9200801,,,,,,,2022-10-07,1,,,,,カミヤチアオイチヨウカイ,0
1365,5010001229979,新規,0,2022-10-07,2022-10-07,株式会社富士製薬,,株式会社,東京都,中央区,銀座６丁目１３番１６号銀座Ｗａｌｌビル５０１,,13,102,1040061,,,,,,,2022-10-07,1,,,,,フジセイヤク,0
1366,5010001230004,新規,0,2022-10-07,2022-10-07,アシタエ株式会社,,株式会社,東京都,中央区,晴海１丁目６番１－４８０８号,,13,102,1040053,,,,,,,2022-10-07,1,,,,,アシタエ,0
1367,5010001230045,新規,0,2022-10-07,2022-10-07,健心ヘルスケア株式会社,,株式会社,東京都,中央区,勝どき２丁目８番１２号東京ビュック中銀１４２２号室,,13,102,1040054,,,,,,,2022-10-07,1,,,,,ケンシンヘルスケア,0
1369,5010003038825,新規,0,2022-10-07,2022-10-07,合同会社タチバナストリート,,合同会社,東京都,千代田区,神田神保町１丁目１１番地さくら綜合事務所内,,13,101,1010051,,,,,,,2022-10-07,1,,,,,タチバナストリート,0
1370,5010003038841,新規,0,2022-10-07,2022-10-07,合同会社ＭＵＮＩ,,合同会社,東京都,青ヶ島村,無番地,,13,402,1001701,,,,,,,2022-10-07,1,,,,,ムニ,0
1371,5010005035630,新規,0,2022-10-07,2022-10-07,弁理士法人テックロー国際知財事務所,,その他の設立登記法人,東京都,千代田区,九段北１丁目１２番４号,,13,101,1020073,,,,,,,2022-10-07,1,,,,,テックローコクサイチザイジムショ,0
1372,5010005035639,新規,0,2022-10-07,2022-10-07,一般社団法人日本ネパール交流支援協会,,その他の設立登記法人,東京都,中央区,東日本橋２丁目１７番１０号４階,,13,102,1030004,,,,,,,2022-10-07,1,,,,,ニホンネパールコウリュウシエンキョウカイ,0
1373,5010005035647,新規,0,2022-10-07,2022-10-07,一般社団法人全国容器循環協議会,,その他の設立登記法人,東京都,中央区,日本橋小舟町８番６号Ｈ１Ｏ日本橋小舟町３０７,,13,102,1030024,,,,,,,2022-10-07,1,,,,,ゼンコクヨウキジュンカンキョウギカイ,0
1379,5010401170114,新規,0,2022-10-07,2022-10-07,株式会社Ｗｉｌｌ,,株式会社,東京都,港区,浜松町２丁目２番１５号浜松町ダイヤビル２階,,13,103,1050013,,,,,,,2022-10-07,1,,,,,ウィル,0
1380,5010401170130,新規,0,2022-10-07,2022-10-07,株式会社フィックス,,株式会社,東京都,港区,南青山６丁目１番３２号,,13,103,1070062,,,,,,,2022-10-07,1,,,,,フィックス,0
1381,5010401170139,新規,0,2022-10-07,2022-10-07,株式会社サザナミーティング,,株式会社,東京都,港区,新橋３丁目１６番１２号横山ビル,,13,103,1050004,,,,,,,2022-10-07,1,,,,,サザナミーティング,0
1382,5010401170147,新規,0,2022-10-07,2022-10-07,株式会社ＵＮＣＨＡＩＮ,,株式会社,東京都,港区,白金３丁目９番８号スカーラ白金シティプラザ６０２,,13,103,1080072,,,,,,,2022-10-07,1,,,,,アンチェイン,0
1383,5010401170171,新規,0,2022-10-07,2022-10-07,株式会社ＫＡＷＡＭＵＲＡ,,株式会社,東京都,港区,芝２丁目２９番８号Ｈａｌｕｗａ芝公園５０５,,13,103,1050014,,,,,,,2022-10-07,1,,,,,,0
1384,5010403028640,新規,0,2022-10-07,2022-10-07,合同会社ＳａｌｅｓＴｅｃｈ,,合同会社,東京都,港区,赤坂６丁目１９番７号２０４号室,,13,103,1070052,,,,,,,2022-10-07,1,,,,,セールステック,0
1385,5010403028657,新規,0,2022-10-07,2022-10-07,合同会社アタリ・パフォーマンス,,合同会社,東京都,港区,東麻布１丁目９番１５号東麻布一丁目ビル８階,,13,103,1060044,,,,,,,2022-10-07,1,,,,,アタリパフォーマンス,0
1388,5010501049448,新規,0,2022-10-07,2022-10-07,株式会社サムズアップ,,株式会社,東京都,台東区,台東２丁目７番１号安藤ビル６階,,13,106,1100016,,,,,,,2022-10-07,1,,,,,サムズアップ,0
1391,5010601061947,新規,0,2022-10-07,2022-10-07,株式会社ＶＩＸＥＥＤ,,株式会社,東京都,江東区,越中島２丁目１４番１１号ＧＰビル３階,,13,108,1350044,,,,,,,2022-10-07,1,,,,,ヴィクシード,0
1392,5010601061955,新規,0,2022-10-07,2022-10-07,株式会社ｍｅ．ｙ,,株式会社,東京都,江東区,豊洲６丁目２番２９－３００２号,,13,108,1350061,,,,,,,2022-10-07,1,,,,,ミーワイ,0
1393,5010601061963,新規,0,2022-10-07,2022-10-07,株式会社ブルーエデン,,株式会社,東京都,墨田区,立川４丁目１９番６－６０２号,,13,107,1300023,,,,,,,2022-10-07,1,,,,,ブルーエデン,0
1396,5010701043300,新規,0,2022-10-07,2022-10-07,株式会社ＤＡＹ　ＯＮＥ,,株式会社,東京都,品川区,上大崎２丁目１５番９号ＭＧ目黒駅前ビル,,13,109,1410021,,,,,,,2022-10-07,1,,,,,デイワン,0
1400,5010803004308,新規,0,2022-10-07,2022-10-07,合同会社ＳＴＵＤＩＯ　ＣＯＩＮＴＯＳＳ,,合同会社,東京都,大田区,南雪谷１丁目１２－９プレイヤー南雪谷３０１号室,,13,111,1450066,,,,,,,2022-10-07,1,,,,,スタジオコイントス,0
1404,5010901051763,新規,0,2022-10-07,2022-10-07,株式会社ＲＥＬＩＧＨＴ　ＣＲＥＷ,,株式会社,東京都,世田谷区,弦巻１丁目３５番１８号,,13,112,1540016,,,,,,,2022-10-07,1,,,,,リライトクルー,0
1412,5011001150076,新規,0,2022-10-07,2022-10-07,株式会社Ａｐｏｔｅｃａ　Ｃａｒｅ,,株式会社,東京都,渋谷区,桜丘町１４－５渋谷サニーヒル４０５,,13,113,1500031,,,,,,,2022-10-07,1,,,,,アポテカケア,0
1413,5011001150142,新規,0,2022-10-07,2022-10-07,株式会社ＧＡＴＥ,,株式会社,東京都,渋谷区,上原２丁目３３番８号,,13,113,1510064,,,,,,,2022-10-07,1,,,,,ゲート,0
1414,5011001150167,新規,0,2022-10-07,2022-10-07,株式会社Ｋａｎｏｎ,,株式会社,東京都,目黒区,上目黒１丁目７番４号,,13,110,1530051,,,,,,,2022-10-07,1,,,,,カノン,0
1419,5011101100393,新規,0,2022-10-07,2022-10-07,株式会社ＹｏＬｏ,,株式会社,東京都,新宿区,西新宿７丁目１３番５号山京ビル４０３,,13,104,1600023,,,,,,,2022-10-07,1,,,,,ヨーロー,0
1420,5011101100410,新規,0,2022-10-07,2022-10-07,株式会社イーグルパートナーズ,,株式会社,東京都,新宿区,西新宿２丁目１番１号新宿三井ビルディング４９Ｆ,,13,104,1600023,,,,,,,2022-10-07,1,,,,,イーグルパートナーズ,0
1421,5011101100427,新規,0,2022-10-07,2022-10-07,リン・ヤコブス株式会社,,株式会社,東京都,新宿区,新宿３丁目５番６号キュープラザ新宿三丁目４Ｆ,,13,104,1600022,,,,,,,2022-10-07,1,,,,,リンヤコブス,0
1422,5011101100435,新規,0,2022-10-07,2022-10-07,澤佳株式会社,,株式会社,東京都,新宿区,新宿５丁目１４番１２号天翔オフィス新宿三丁目６０８号室,,13,104,1600022,,,,,,,2022-10-07,1,,,,,サワヨシ,0
1423,5011101100443,新規,0,2022-10-07,2022-10-07,株式会社ファースト,,株式会社,東京都,新宿区,河田町３番５１－３００４号,,13,104,1620054,,,,,,,2022-10-07,1,,,,,ファースト,0
1424,5011101100451,新規,0,2022-10-07,2022-10-07,ＺＩＰＡＮＧＵ　Ｎｅｘｔａｇｅ株式会社,,株式会社,東京都,新宿区,下落合１丁目１３番４号,,13,104,1610033,,,,,,,2022-10-07,1,,,,,ジパングネクステージ,0
1426,5011103012232,新規,0,2022-10-07,2022-10-07,合同会社ＯＨＧリニューアブルエナジー１,,合同会社,東京都,新宿区,四谷２丁目９番地１５東京ユナイテッド綜合事務所内,,13,104,1600004,,,,,,,2022-10-07,1,,,,,オーエイチジーリニューアブルエナジーワン,0
1431,5011203003924,新規,0,2022-10-07,2022-10-07,合同会社ムーンベア,,合同会社,東京都,中野区,本町５丁目３６番８号オルティス新中野４０３号室,,13,114,1640012,,,,,,,2022-10-07,1,,,,,ムーンベア,0
1432,5011301028162,新規,0,2022-10-07,2022-10-07,株式会社ＥＭＧ,,株式会社,東京都,杉並区,天沼２丁目３２番５号,,13,115,1670032,,,,,,,2022-10-07,1,,,,,,0
1435,5011601026279,新規,0,2022-10-07,2022-10-07,株式会社ＲＥＢＯＲＮ,,株式会社,東京都,練馬区,大泉学園町５丁目８番１０号甲子ハイツ北１０１号室,,13,120,1780061,,,,,,,2022-10-07,1,,,,,リボーン,0
1436,5011603003714,新規,0,2022-10-07,2022-10-07,ａｄ‐ｌｉｂ合同会社,,合同会社,東京都,練馬区,北町８丁目１２番１８号,,13,120,1790081,,,,,,,2022-10-07,1,,,,,アドリブ,0
1437,5011701025676,新規,0,2022-10-07,2022-10-07,株式会社ＪＳマル,,株式会社,東京都,江戸川区,西瑞江４丁目１７番地２７,,13,123,1340015,,,,,,,2022-10-07,1,,,,,ジェーエスマル,0
1439,5011801041367,新規,0,2022-10-07,2022-10-07,Ａｉｍｅｒ株式会社,,株式会社,東京都,足立区,西新井栄町２丁目４番１０号ソラトカゼト西新井２Ｆ,,13,121,1230843,,,,,,,2022-10-07,1,,,,,エメ,0
1442,5012401039719,新規,0,2022-10-07,2022-10-07,Ｋ‐ＡＣＥ　ＰＬＡＮＥＴＳ株式会社,,株式会社,東京都,府中市,府中町１丁目２６番地３,,13,206,1830055,,,,,,,2022-10-07,1,,,,,ケイエースプラネッツ,0
1443,5012701017291,新規,0,2022-10-07,2022-10-07,株式会社亀虎,,株式会社,東京都,東久留米市,南町４丁目８番２２号,,13,222,2030031,,,,,,,2022-10-07,1,,,,,キトラ,0
1445,5012801021887,新規,0,2022-10-07,2022-10-07,株式会社こいぬ,,株式会社,東京都,国分寺市,光町１丁目４２番地２２Ｌｕｃｅ国立Ｓｕｄ－Ｓ１０２,,13,214,1850034,,,,,,,2022-10-07,1,,,,,コイヌ,0
1447,5013101009029,新規,0,2022-10-07,2022-10-07,ＮＯＶＡ株式会社,,株式会社,東京都,福生市,大字熊川１４９７番地１６グリーンウッドＩＩ２０１号室,00128054,13,218,1970003,,,,,,,2022-10-07,1,,,,,ノヴァ,0
1451,5013301049766,新規,0,2022-10-07,2022-10-07,株式会社ＡＩＬＩＮＸ,,株式会社,東京都,豊島区,西池袋２丁目３７番４号,,13,116,1710021,,,,,,,2022-10-07,1,,,,,アイリンクス,0
1457,5020001148402,新規,0,2022-10-07,2022-10-07,株式会社アフェクター,,株式会社,神奈川県,川崎市川崎区,砂子１丁目２番地４,,14,131,2100006,,,,,,,2022-10-07,1,,,,,アフェクター,0
1458,5020001148484,新規,0,2022-10-07,2022-10-07,シーエイアンドオー株式会社,,株式会社,神奈川県,横浜市港南区,日野１丁目８－１８,,14,111,2340051,,,,,,,2022-10-07,1,,,,,シーエイアンドオー,0
1459,5020001148492,新規,0,2022-10-07,2022-10-07,株式会社ＳＨＩＲＯＰ,,株式会社,神奈川県,横浜市中区,桜木町２丁目２港陽ビル３－４Ｆ,,14,104,2310062,,,,,,,2022-10-07,1,,,,,シロップ,0
1460,5020001148501,新規,0,2022-10-07,2022-10-07,株式会社嶋村,,株式会社,神奈川県,横浜市港北区,樽町２丁目１３番２９号,,14,109,2220001,,,,,,,2022-10-07,1,,,,,シマムラ,0
1464,5020003022530,新規,0,2022-10-07,2022-10-07,合同会社ＳＡＫＯ企画,,合同会社,神奈川県,横浜市青葉区,大場町３５６番地５０,,14,117,2250023,,,,,,,2022-10-07,1,,,,,サコウキカク,0
1465,5020005015680,新規,0,2022-10-07,2022-10-07,一般社団法人日中ペット産業振興会,,その他の設立登記法人,神奈川県,横浜市中区,山下町２２３番地１ＮＵ関内ビル４Ｆ－Ａ,,14,104,2310023,,,,,,,2022-10-07,1,,,,,ニッチュウペットサンギョウシンコウカイ,0
1475,5021001077120,新規,0,2022-10-07,2022-10-07,株式会社ほほえみ建築研究所,,株式会社,神奈川県,横須賀市,湘南鷹取１丁目１４番１６号,,14,201,2370066,,,,,,,2022-10-07,1,,,,,ホホエミケンチクケンキュウジョ,0
1476,5021001077129,新規,0,2022-10-07,2022-10-07,株式会社岡本硝子,,株式会社,神奈川県,藤沢市,白旗２丁目１８番２７号,,14,205,2510051,,,,,,,2022-10-07,1,,,,,オカモトガラス,0
1477,5021001077137,新規,0,2022-10-07,2022-10-07,株式会社ＬＡＣＯＵＰＥ,,株式会社,神奈川県,座間市,相武台３丁目４２番６１号それいゆ相武台１階１０２号,,14,216,2520011,,,,,,,2022-10-07,1,,,,,ラクープ,0
1482,5021003012224,新規,0,2022-10-07,2022-10-07,合同会社Ｈａｔｃｈエンターテイメント,,合同会社,神奈川県,茅ヶ崎市,矢畑６８０番地１－７０４号,,14,207,2530085,,,,,,,2022-10-07,1,,,,,ハッチエンターテイメント,0
1490,5030001150274,新規,0,2022-10-07,2022-10-07,ＪＣＬ株式会社,,株式会社,埼玉県,草加市,八幡町８１７－３－１０１,,11,221,3400006,,,,,,,2022-10-07,1,,,,,ジェーシーエル,0
1491,5030001150357,新規,0,2022-10-07,2022-10-07,長岡総研株式会社,,株式会社,埼玉県,深谷市,岡１丁目１８番地１高橋ビル１０２号室,,11,218,3690201,,,,,,,2022-10-07,1,,,,,ナガオカソウケン,0
1492,5030001150407,新規,0,2022-10-07,2022-10-07,株式会社ＨＲ,,株式会社,埼玉県,川口市,桜町１丁目６番６号,,11,203,3340001,,,,,,,2022-10-07,1,,,,,エイチアール,0
1493,5030001150431,新規,0,2022-10-07,2022-10-07,株式会社ホンダ美装,,株式会社,埼玉県,さいたま市北区,吉野町１丁目３４３番地３５－２０２,,11,102,3310811,,,,,,,2022-10-07,1,,,,,ホンダビソウ,0
1494,5030001150456,新規,0,2022-10-07,2022-10-07,彩クリーンハウス株式会社,,株式会社,埼玉県,上尾市,本町５丁目１８番１３号ＳＯＨＯマンション１０２号,,11,219,3620014,,,,,,,2022-10-07,1,,,,,サイクリーンハウス,0
1496,5030003020351,新規,0,2022-10-07,2022-10-07,友光合同会社,,合同会社,埼玉県,所沢市,小手指町３丁目７番地の３,,11,208,3591141,,,,,,,2022-10-07,1,,,,,ユウコウ,0
1497,5030005021001,新規,0,2022-10-07,2022-10-07,トゥギャザー協同組合,,その他の設立登記法人,埼玉県,久喜市,鷲宮中央２丁目３番３５号中央ハイツ２号,,11,232,3400216,,,,,,,2022-10-07,1,,,,,トゥギャザー,0
1498,5030005021026,新規,0,2022-10-07,2022-10-07,医療法人清白会,,その他の設立登記法人,埼玉県,和光市,本町１５番３５号大野ビル１階,,11,229,3510114,,,,,,,2022-10-07,1,,,,,スズシロカイ,0
1505,5040001125309,新規,0,2022-10-07,2022-10-07,株式会社Ｎｅｘｔ　Ｔｒｉｂｅ,,株式会社,千葉県,柏市,中央１丁目５番２７－４２２号,,12,217,2770023,,,,,,,2022-10-07,1,,,,,ネクストトライブ,0
1506,5040001125333,新規,0,2022-10-07,2022-10-07,株式会社Ｌａｒｕｓ,,株式会社,千葉県,市川市,南八幡４丁目３番１７号,,12,203,2720023,,,,,,,2022-10-07,1,,,,,ラルス,0
1509,5040003020994,新規,0,2022-10-07,2022-10-07,ＯＳＨＩＤＡ　ＬＡＮＫＡ　ＩＮＴＥＲＮＡＴＩＯＮＡＬ合同会社,,合同会社,千葉県,富里市,中沢２９２番地３２,,12,233,2860222,,,,,,,2022-10-07,1,,,,,オシダランカインターナショナル,0
1510,5040005021751,新規,0,2022-10-07,2022-10-07,グランシティ八千代緑が丘管理組合法人,,その他の設立登記法人,千葉県,八千代市,大和田新田９４番地２,,12,221,2760046,,,,,,,2022-10-07,1,,,,,グランシティヤチヨミドリガオカ,0
1512,5050001051702,新規,0,2022-10-07,2022-10-07,株式会社豊栄,,株式会社,茨城県,土浦市,沢辺７５７番地,,08,203,3004104,,,,,,,2022-10-07,1,,,,,トヨサカ,0
1513,5050001051751,新規,0,2022-10-07,2022-10-07,株式会社ゼニー商事,,株式会社,茨城県,古河市,尾崎２８１７番地２,,08,204,3060101,,,,,,,2022-10-07,1,,,,,ゼニーショウジ,0
1523,5080103002666,新規,0,2022-10-07,2022-10-07,合同会社アルファ,,合同会社,静岡県,沼津市,大手町１丁目１番３号,,22,203,4100801,,,,,,,2022-10-07,1,,,,,アルファ,0
1525,5080401026086,新規,0,2022-10-07,2022-10-07,株式会社ｅｖｏｌｔｚ,,株式会社,静岡県,浜松市中区,高丘西２丁目３番６号,,22,131,4338118,,,,,,,2022-10-07,1,,,,,エボルツ,0
1526,5080403004627,新規,0,2022-10-07,2022-10-07,合同会社Ｂｒｉｇｈｔ,,合同会社,静岡県,磐田市,上万能２５１番地,,22,211,4380817,,,,,,,2022-10-07,1,,,,,ブライト,0
1530,5090003002179,新規,0,2022-10-07,2022-10-07,山梨市あかりメンテ合同会社,,合同会社,山梨県,山梨市,北３３９番地１,,19,205,4050041,,,,,,,2022-10-07,1,,,,,ヤマナシシアカリメンテ,0
1534,5100003006707,新規,0,2022-10-07,2022-10-07,ビスタライト合同会社,,合同会社,長野県,駒ヶ根市,北町２６番４号,,20,210,3994111,,,,,,,2022-10-07,1,,,,,ビスタライト,0
1536,5110001037018,新規,0,2022-10-07,2022-10-07,株式会社小暮工業,,株式会社,新潟県,柏崎市,大字水上６５０番地１,,15,205,9451244,,,,,,,2022-10-07,1,,,,,コグレコウギョウ,0
1553,5120001249322,新規,0,2022-10-07,2022-10-07,株式会社ＺＩＺＯ　ＢＲＡＮＤ　ＬＯＣＡＬＩＺＡＴＩＯＮ,,株式会社,大阪府,大阪市西区,京町堀１丁目１７番１６号,,27,106,5500003,,,,,,,2022-10-07,1,,,,,ジゾーブランドローカライゼーション,0
1554,5120001249339,新規,0,2022-10-07,2022-10-07,株式会社ＫＤファシリティズ,,株式会社,大阪府,大阪市中央区,今橋２丁目４番１０号,,27,128,5410042,,,,,,,2022-10-07,1,,,,,ケーディーファシリティズ,0
1555,5120001249355,新規,0,2022-10-07,2022-10-07,ミラクル株式会社,,株式会社,大阪府,大阪市都島区,友渕町１丁目５－８－２６０４,,27,102,5340016,,,,,,,2022-10-07,1,,,,,ミラクル,0
1556,5120001249363,新規,0,2022-10-07,2022-10-07,Ｌｉｖｉｎｇ　Ｄｅｓｉｇｎ　Ｇｒｏｕｐ株式会社,,株式会社,大阪府,大阪市西区,土佐堀２丁目３－１３－５０４,,27,106,5500001,,,,,,,2022-10-07,1,,,,,リビングデザイングループ,0
1557,5120001249388,新規,0,2022-10-07,2022-10-07,株式会社Ｈ＆Ｒ,,株式会社,大阪府,大阪市住吉区,住吉１丁目５番４７号,,27,120,5580045,,,,,,,2022-10-07,1,,,,,エイチアンドアール,0
1558,5120001249396,新規,0,2022-10-07,2022-10-07,株式会社ＯＮＥ　ＷＯＲＬＤ　ＯＳＡＫＡ,,株式会社,大阪府,大阪市天王寺区,堂ケ芝２丁目１４番８号,,27,109,5430033,,,,,,,2022-10-07,1,,,,,ワンワールドオオサカ,0
1561,5120003022603,新規,0,2022-10-07,2022-10-07,合同会社大谷事務所,,合同会社,大阪府,大阪市大正区,三軒家東１丁目７番６－１１０４号,,27,108,5510002,,,,,,,2022-10-07,1,,,,,オオタニジムショ,0
1562,5120005023228,新規,0,2022-10-07,2022-10-07,一般社団法人ＧＴＨ,,その他の設立登記法人,大阪府,大阪市都島区,片町１丁目５番１３号大手前センチュリービル４Ｆ,,27,102,5340025,,,,,,,2022-10-07,1,,,,,ジーティーエイチ,0
1566,5120101066312,新規,0,2022-10-07,2022-10-07,エス＆ブイ工業株式会社,,株式会社,大阪府,藤井寺市,小山１丁目１４番３１号,,27,226,5830033,,,,,,,2022-10-07,1,,,,,エスブイコウギョウ,0
1567,5120101066320,新規,0,2022-10-07,2022-10-07,株式会社オリオン加工,,株式会社,大阪府,堺市美原区,小平尾６６０番地５,,27,147,5870021,,,,,,,2022-10-07,1,,,,,オリオンカコウ,0
1568,5120101066337,新規,0,2022-10-07,2022-10-07,ａｋｔ　ａｒｃｈｉｔｅｃｔ株式会社,,株式会社,大阪府,和泉市,北田中町３７８番地の１,,27,219,5941122,,,,,,,2022-10-07,1,,,,,アクトアーキテクト,0
1569,5120103004880,新規,0,2022-10-07,2022-10-07,シバーザーニ合同会社,,合同会社,大阪府,藤井寺市,春日丘１丁目２番２３号,,27,226,5830026,,,,,,,2022-10-07,1,,,,,シバーザーニ,0
1570,5120901046579,新規,0,2022-10-07,2022-10-07,株式会社チェルベネット,,株式会社,大阪府,高槻市,庄所町２番１８号４階,,27,207,5690064,,,,,,,2022-10-07,1,,,,,チェルベネット,0
1571,5120903004329,新規,0,2022-10-07,2022-10-07,合同会社Ｈｅｒｅ＆Ｎｏｗ,,合同会社,大阪府,豊中市,蛍池西町２－１４－７,,27,203,5600000,,,,,,,2022-10-07,1,,,,,ヒアアンドナウ,0
1576,5130001072748,新規,0,2022-10-07,2022-10-07,株式会社Ｔｏｋｏ　Ｋｏｍｕｎｉｔａｓ,,株式会社,京都府,綴喜郡宇治田原町,大字郷之口小字中林１番地１,,26,344,6100255,,,,,,,2022-10-07,1,,,,,トココムニタス,0
1577,5130001072797,新規,0,2022-10-07,2022-10-07,株式会社スリーライト,,株式会社,京都府,京都市下京区,西七条西八反田町１４１番地４,,26,106,6008892,,,,,,,2022-10-07,1,,,,,スリーライト,0
1580,5130005016602,新規,0,2022-10-07,2022-10-07,医療法人宥信会,,その他の設立登記法人,京都府,京都市中京区,麩屋町通御池上る上白山町２５８番地１,,26,104,6040943,,,,,,,2022-10-07,1,,,,,ユウシンカイ,0
1583,5140001127583,新規,0,2022-10-07,2022-10-07,株式会社美リブ,,株式会社,兵庫県,尼崎市,南塚口町１丁目１２番８号,,28,202,6610012,,,,,,,2022-10-07,1,,,,,ビリブ,0
1584,5140001127617,新規,0,2022-10-07,2022-10-07,株式会社ビズトラスト,,株式会社,兵庫県,西宮市,田近野町４番１‐１３０９号,,28,204,6638001,,,,,,,2022-10-07,1,,,,,ビズトラスト,0
1585,5140001127625,新規,0,2022-10-07,2022-10-07,Ｓｉｘｐａｃｊｏｅ株式会社,,株式会社,兵庫県,三木市,志染町井上５１番地の１,,28,215,6730512,,,,,,,2022-10-07,1,,,,,シックスパックジョー,0
1586,5140001127641,新規,0,2022-10-07,2022-10-07,株式会社久保田,,株式会社,兵庫県,高砂市,高砂町藍屋町１７４５番地の１,,28,216,6760037,,,,,,,2022-10-07,1,,,,,クボタ,0
1587,5140001127658,新規,0,2022-10-07,2022-10-07,宏辰商事株式会社,,株式会社,兵庫県,伊丹市,安堂寺町７丁目１８２番地４,,28,207,6640864,,,,,,,2022-10-07,1,,,,,コウシンショウジ,0
1590,5140005026336,新規,0,2022-10-07,2022-10-07,一般社団法人ファミリーケアセンターＭＯＭ,,その他の設立登記法人,兵庫県,洲本市,物部１丁目１７番１３号,,28,205,6560051,,,,,,,2022-10-07,1,,,,,ファミリーケアセンターマム,0
1592,5150001025860,新規,0,2022-10-07,2022-10-07,株式会社ＳＥＶＥＮ　ＳＴＡＲ　ＩＮＴＥＲＮＡＴＩＯＮＡＬ,,株式会社,奈良県,橿原市,葛本町７０８番地１,,29,205,6340007,,,,,,,2022-10-07,1,,,,,セブンスターインターナショナル,0
1594,5160001024548,新規,0,2022-10-07,2022-10-07,株式会社蔵,,株式会社,滋賀県,大津市,本堅田６丁目８番１号,,25,201,5200242,,,,,,,2022-10-07,1,,,,,クラ,0
1595,5160003002691,新規,0,2022-10-07,2022-10-07,合同会社ＲＯＮＤＯ　ＰＬＵＳ,,合同会社,滋賀県,長浜市,湖北町尾上１４番地,,25,203,5290364,,,,,,,2022-10-07,1,,,,,ロンドプラス,0
1597,5180001153270,新規,0,2022-10-07,2022-10-07,黒木ユニット株式会社,,株式会社,愛知県,名古屋市南区,呼続２丁目２０番２７号ドール青峰通５０７号,,23,112,4570014,,,,,,,2022-10-07,1,,,,,クロキユニット,0
1598,5180001153279,新規,0,2022-10-07,2022-10-07,株式会社名鉄未来クリエイツ,,株式会社,愛知県,名古屋市名東区,にじが丘３丁目１４,,23,115,4650078,,,,,,,2022-10-07,1,,,,,メイテツミライクリエイツ,0
1599,5180001153295,新規,0,2022-10-07,2022-10-07,株式会社エスティー,,株式会社,愛知県,名古屋市中区,錦２丁目１２番３２号,,23,106,4600003,,,,,,,2022-10-07,1,,,,,エスティー,0
1600,5180001153304,新規,0,2022-10-07,2022-10-07,株式会社ＨＩＫＥＮ,,株式会社,愛知県,名古屋市中川区,野田１丁目５０９番地,,23,110,4540912,,,,,,,2022-10-07,1,,,,,ヒケン,0
1601,5180001153312,新規,0,2022-10-07,2022-10-07,株式会社ＢＥＬＬ　ＷｏｏＤ,,株式会社,愛知県,海部郡大治町,大字三本木字前深田３７番地,,23,424,4901142,,,,,,,2022-10-07,1,,,,,ベルウッド,0
1602,5180001153320,新規,0,2022-10-07,2022-10-07,株式会社Ｃｏｌｏｒｓ,,株式会社,愛知県,一宮市,開明字南新田６０番地,,23,203,4940001,,,,,,,2022-10-07,1,,,,,カラーズ,0
1603,5180001153345,新規,0,2022-10-07,2022-10-07,秋建設株式会社,,株式会社,愛知県,春日井市,穴橋町２丁目９番地３２,,23,206,4860853,,,,,,,2022-10-07,1,,,,,アキケンセツ,0
1606,5180003024346,新規,0,2022-10-07,2022-10-07,合同会社ｅｃｅ．,,合同会社,愛知県,日進市,香久山１丁目５１５番地,,23,230,4700134,,,,,,,2022-10-07,1,,,,,イース,0
1607,5180005019955,新規,0,2022-10-07,2022-10-07,一般社団法人アジア・パシフィック循環型社会推進機構,,その他の設立登記法人,愛知県,名古屋市中川区,畑田町４丁目３８番地の２,,23,110,4540860,,,,,,,2022-10-07,1,,,,,アジアパシフィックジュンカンガタシャカイスイシンキコウ,0
1608,5180005019963,新規,0,2022-10-07,2022-10-07,税理士法人タイム,,その他の設立登記法人,愛知県,名古屋市東区,泉１丁目１９番１号,,23,102,4610001,,,,,,,2022-10-07,1,,,,,タイム,0
1610,5180301036712,新規,0,2022-10-07,2022-10-07,株式会社ＬＩＦＥ,,株式会社,愛知県,岡崎市,材木町１丁目３９番地,,23,202,4440057,,,,,,,2022-10-07,1,,,,,ライフ,0
1612,5190001029817,新規,0,2022-10-07,2022-10-07,株式会社ＯＣｏｎｎｅｃｔ,,株式会社,三重県,松阪市,光町２５番地１２,,24,204,5150051,,,,,,,2022-10-07,1,,,,,オーコネクト,0
1613,5190001029825,新規,0,2022-10-07,2022-10-07,ＳＴＡＲＲＹ株式会社,,株式会社,三重県,四日市市,小古曽１丁目７５９番地,,24,202,5100958,,,,,,,2022-10-07,1,,,,,サテリ,0
1619,5200001040524,新規,0,2022-10-07,2022-10-07,株式会社エジソンホーム,,株式会社,岐阜県,岐阜市,東鶉３丁目１番地１,,21,201,5008281,,,,,,,2022-10-07,1,,,,,エジソンホーム,0
1626,5220001025069,新規,0,2022-10-07,2022-10-07,株式会社豊岡左官,,株式会社,石川県,能美市,末信町ホ６５番地,,17,211,9231117,,,,,,,2022-10-07,1,,,,,トヨオカサカン,0
1635,5240003005843,新規,0,2022-10-07,2022-10-07,合同会社Ｗａｄａｃｈｉ,,合同会社,広島県,福山市,神辺町字徳田２０５５番地,,34,207,7202126,,,,,,,2022-10-07,1,,,,,ワダチ,0
1641,5290001099172,新規,0,2022-10-07,2022-10-07,株式会社Ｚｅｎｏｄｉａ,,株式会社,福岡県,福岡市博多区,博多駅前２丁目１９番１７号トーカン博多第５ビル３１２号室,,40,132,8120011,,,,,,,2022-10-07,1,,,,,ゼノディア,0
1649,5320001019366,新規,0,2022-10-07,2022-10-07,株式会社松田真珠,,株式会社,大分県,佐伯市,蒲江大字畑野浦２７７番地,,44,205,8762201,,,,,,,2022-10-07,1,,,,,マツダシンジュ,0
1656,5330001030149,新規,0,2022-10-07,2022-10-07,株式会社新花伝,,株式会社,熊本県,熊本市中央区,春竹町大字春竹４９６番地（３０４号）チュリス南熊本,,43,101,8600815,,,,,,,2022-10-07,1,,,,,シンカデン,0
1663,5350005006102,新規,0,2022-10-07,2022-10-07,税理士法人宮崎未来創造,,その他の設立登記法人,宮崎県,宮崎市,大橋２丁目４１番地６,,45,201,8800022,,,,,,,2022-10-07,1,,,,,ミヤザキミライソウゾウ,0
1668,5370001049111,新規,0,2022-10-07,2022-10-07,ＪＨＡＲＡＮＡ　ＪＡＰＡＮ株式会社,,株式会社,宮城県,仙台市青葉区,錦ケ丘１丁目３番地１錦ケ丘ヒルサイドモールＳＡＭＯＳＡ,,04,101,9893123,,,,,,,2022-10-07,1,,,,,ジャラナジャパン,0
1669,5370001049128,新規,0,2022-10-07,2022-10-07,株式会社タニカゼクリーン,,株式会社,宮城県,仙台市若林区,上飯田字天神４１番地の１２,,04,103,9840838,,,,,,,2022-10-07,1,,,,,タニカゼクリーン,0
1674,5380003005292,新規,0,2022-10-07,2022-10-07,フロシー合同会社,,合同会社,福島県,福島市,南矢野目字向原１６番地の４,,07,201,9600112,,,,,,,2022-10-07,1,,,,,,0
1679,5420001018028,新規,0,2022-10-07,2022-10-07,アークスカイホールディングス株式会社,,株式会社,青森県,青森市,大字田茂木野字阿部野１番地５,,02,201,0300124,,,,,,,2022-10-07,1,,,,,アークスカイホールディングス,0
1684,5430001087591,新規,0,2022-10-07,2022-10-07,株式会社泉瑞,,株式会社,北海道,札幌市中央区,北四条東４丁目１番地３クリーンリバーフィネス札幌駅イースト１００５号,,01,101,0600034,,,,,,,2022-10-07,1,,,,,センズイ,0
1685,5430001087600,新規,0,2022-10-07,2022-10-07,株式会社ＭＨ２,,株式会社,北海道,札幌市手稲区,新発寒四条３丁目１６番１０号,,01,109,0060804,,,,,,,2022-10-07,1,,,,,エムエイチツー,0
1686,5430001087609,新規,0,2022-10-07,2022-10-07,元祺株式会社,,株式会社,北海道,札幌市中央区,南十条西１３丁目３番１号キャロット１３－３０６号,,01,101,0640810,,,,,,,2022-10-07,1,,,,,ゲンギ,0
1689,5430003014338,新規,0,2022-10-07,2022-10-07,合同会社独歩,,合同会社,北海道,札幌市北区,北三十三条西２丁目１番１５号,,01,102,0010033,,,,,,,2022-10-07,1,,,,,ドッポ,0
1690,5430003014346,新規,0,2022-10-07,2022-10-07,ａｎｄ　ｐｌａｃｅ合同会社,,合同会社,北海道,札幌市南区,藤野二条６丁目３番１８号２Ｆ,,01,106,0612282,,,,,,,2022-10-07,1,,,,,アンドプレイス,0
1691,5430005014575,新規,0,2022-10-07,2022-10-07,医療法人社団糸,,その他の設立登記法人,北海道,札幌市中央区,北二条西２８丁目１番２６号エストラーダ円山２階,,01,101,0640822,,,,,,,2022-10-07,1,,,,,イト,0
1692,5440005002736,新規,0,2022-10-07,2022-10-07,一般社団法人あうたの家,,その他の設立登記法人,北海道,亀田郡七飯町,大川５丁目５番１８号,,01,337,0411122,,,,,,,2022-10-07,1,,,,,アウタノイエ,0
1694,5470001019285,新規,0,2022-10-07,2022-10-07,株式会社Ｎａｔｕｒａｌ　Ｓｔｙｌｅ,,株式会社,香川県,善通寺市,中村町２６番地１,,37,204,7650073,,,,,,,2022-10-07,1,,,,,ナチュラルスタイル,0
1698,5700150112098,新規,0,2022-10-07,2022-10-07,ＯＰＩＳ　Ｓ．Ｒ．Ｌ．日本駐在員事務所,,外国会社等,東京都,台東区,上野３丁目１６－２天翔上野末広町ビル３階３０９号室,,13,106,1100005,ＶＩＡ　ＭＡＴＴＥＯＴＴＩ　１０，２０８３２　ＤＥＳＩＯ　（ＭＢ）　ＩＴＡＬＹ,,,,,,2022-10-07,1,,,,,オーピスエスアールエルニホンチユウザイインジムシヨ,0
1705,6010001229937,新規,0,2022-10-07,2022-10-07,株式会社メルヘン,,株式会社,東京都,千代田区,二番町１－２,,13,101,1020084,,,,,,,2022-10-07,1,,,,,メルヘン,0
1710,6010003038832,新規,0,2022-10-07,2022-10-07,合同会社信アーキテクツ,,合同会社,東京都,文京区,弥生２丁目１５番５号,,13,105,1130032,,,,,,,2022-10-07,1,,,,,シンアーキテクツ,0
1711,6010005035638,新規,0,2022-10-07,2022-10-07,税理士法人竹宮会計,,その他の設立登記法人,東京都,千代田区,九段南１丁目６番５号,,13,101,1020074,,,,,,,2022-10-07,1,,,,,タケミヤカイケイ,0
1712,6010005035646,新規,0,2022-10-07,2022-10-07,一般社団法人日本女性アスリート協会,,その他の設立登記法人,東京都,千代田区,丸の内２丁目３番２号郵船ビル１Ｆ,,13,101,1000005,,,,,,,2022-10-07,1,,,,,ニホンジョセイアスリートキョウカイ,0
1720,6010401170096,新規,0,2022-10-07,2022-10-07,株式会社Ｒｅｍｅｄｉ,,株式会社,東京都,港区,南青山２丁目４番６号,,13,103,1070062,,,,,,,2022-10-07,1,,,,,レメディ,0
1721,6010401170113,新規,0,2022-10-07,2022-10-07,株式会社川田情報企画,,株式会社,東京都,港区,西麻布３丁目６番１６号,,13,103,1060031,,,,,,,2022-10-07,1,,,,,カワダジョウホウキカク,0
1722,6010401170146,新規,0,2022-10-07,2022-10-07,株式会社サン・クリエイティブ,,株式会社,東京都,港区,南麻布３丁目４番１号,,13,103,1060047,,,,,,,2022-10-07,1,,,,,サンクリエイティブ,0
1723,6010401170154,新規,0,2022-10-07,2022-10-07,ｉＦｏｏｄ株式会社,,株式会社,東京都,港区,港南２丁目１６番１号品川イーストワンタワー７階,,13,103,1080075,,,,,,,2022-10-07,1,,,,,アイフード,0
1724,6010401170179,新規,0,2022-10-07,2022-10-07,株式会社アンド・ナウ,,株式会社,東京都,港区,芝５丁目３６番４号札の辻スクエア９階,,13,103,1080014,,,,,,,2022-10-07,1,,,,,アンドナウ,0
1725,6010403028656,新規,0,2022-10-07,2022-10-07,合同会社えくまに,,合同会社,東京都,港区,虎ノ門４丁目１番２０号,,13,103,1050001,,,,,,,2022-10-07,1,,,,,エクマニ,0
1729,6010501049439,新規,0,2022-10-07,2022-10-07,マルサンクロノス株式会社,,株式会社,東京都,台東区,元浅草１丁目３番２号,,13,106,1110041,,,,,,,2022-10-07,1,,,,,マルサンクロノス,0
1730,6010501049447,新規,0,2022-10-07,2022-10-07,栄豊株式会社,,株式会社,東京都,台東区,北上野２丁目２５番９号－６０２号室,,13,106,1100014,,,,,,,2022-10-07,1,,,,,エイホウ,0
1731,6010501049455,新規,0,2022-10-07,2022-10-07,株式会社Ｎｅｘｔ　Ｆｕｔｕｒｅ　Ｉｎｖｅｓｔｍｅｎｔ,,株式会社,東京都,台東区,台東１丁目８番５号秋葉原ラボ,,13,106,1100016,,,,,,,2022-10-07,1,,,,,ネクストフューチャーインベストメント,0
1734,6010601061962,新規,0,2022-10-07,2022-10-07,株式会社ファミーユ・ドッグ,,株式会社,東京都,江東区,大島１丁目１番１１－３０４号,,13,108,1360072,,,,,,,2022-10-07,1,,,,,ファミーユドッグ,0
1735,6010601061970,新規,0,2022-10-07,2022-10-07,株式会社ルーカ,,株式会社,東京都,墨田区,東駒形３丁目２５番２号,,13,107,1300005,,,,,,,2022-10-07,1,,,,,ルーカ,0
1740,6010803004307,新規,0,2022-10-07,2022-10-07,ＳＴＢ　ＧＲＯＵＰ合同会社,,合同会社,東京都,大田区,大森北４丁目１６番１８号,,13,111,1430016,,,,,,,2022-10-07,1,,,,,エスティービーグループ,0
1744,6010901051738,新規,0,2022-10-07,2022-10-07,株式会社テンフレンズ,,株式会社,東京都,世田谷区,瀬田１丁目２８番２５号,,13,112,1580095,,,,,,,2022-10-07,1,,,,,テンフレンズ,0
1745,6010901051746,新規,0,2022-10-07,2022-10-07,株式会社エムズマネジメント,,株式会社,東京都,世田谷区,奥沢７丁目４６番３号,,13,112,1580083,,,,,,,2022-10-07,1,,,,,エムズマネジメント,0
1748,6011001150117,新規,0,2022-10-07,2022-10-07,株式会社レ・ビジュー,,株式会社,東京都,渋谷区,富ヶ谷１丁目４４番２１号,,13,113,1510063,,,,,,,2022-10-07,1,,,,,レビジュー,0
1749,6011001150174,新規,0,2022-10-07,2022-10-07,ＨＭＩ　Ａｄｖｉｓｏｒｓ株式会社,,株式会社,東京都,渋谷区,神宮前６丁目２３番４号桑野ビル２階,,13,113,1500001,,,,,,,2022-10-07,1,,,,,エイチエムアイアドバイザーズ,0
1750,6011001150190,新規,0,2022-10-07,2022-10-07,株式会社Ｐｆｉｎｅｓ,,株式会社,東京都,渋谷区,千駄ヶ谷１丁目５番６号,,13,113,1510051,,,,,,,2022-10-07,1,,,,,ピフィニ,0
1751,6011001150199,新規,0,2022-10-07,2022-10-07,株式会社ＣＲＡＶＥ,,株式会社,東京都,渋谷区,渋谷１丁目７番１号Ｓ－６ビル９Ｆ,,13,113,1500002,,,,,,,2022-10-07,1,,,,,クレイブ,0
1752,6011001150208,新規,0,2022-10-07,2022-10-07,株式会社ｔｏｍｏｒｒｏｗｓ,,株式会社,東京都,目黒区,大岡山１丁目２９番４号,,13,110,1520033,,,,,,,2022-10-07,1,,,,,トゥモローズ,0
1755,6011003015490,新規,0,2022-10-07,2022-10-07,合同会社チヨヲク,,合同会社,東京都,渋谷区,神泉町２２－７－９０１,,13,113,1500045,,,,,,,2022-10-07,1,,,,,チヨヲク,0
1758,6011101100426,新規,0,2022-10-07,2022-10-07,ｎａｄｅｍｏ株式会社,,株式会社,東京都,新宿区,西新宿３丁目３番１３号西新宿水間ビル２Ｆ,,13,104,1600023,,,,,,,2022-10-07,1,,,,,ナデモ,0
1759,6011101100434,新規,0,2022-10-07,2022-10-07,富徳株式会社,00128053,株式会社,東京都,新宿区,新宿５丁目１４番１２号天翔オフィス新宿三丁目６０７号室,,13,104,1600022,,,,,,,2022-10-07,1,,,,,トミトク,0
1760,6011101100442,新規,0,2022-10-07,2022-10-07,株式会社ＭＥＴＡＰＯＰ,,株式会社,東京都,新宿区,西新宿６丁目１２番４号コイトビル２０４号室,,13,104,1600023,,,,,,,2022-10-07,1,,,,,メタポップ,0
1762,6011103012231,新規,0,2022-10-07,2022-10-07,合同会社Ｗ　ｓｅｅｄ,,合同会社,東京都,新宿区,西新宿７丁目４番７号３Ｆ－Ｂ,,13,104,1600023,,,,,,,2022-10-07,1,,,,,ダブルシード,0
1768,6011301028145,新規,0,2022-10-07,2022-10-07,株式会社ｅｎｖｉｓｉｏｎ　ｓｔａｇｅ,,株式会社,東京都,杉並区,阿佐谷南１丁目７番４号Ｂ１Ｆ,,13,115,1660004,,,,,,,2022-10-07,1,,,,,エンビジョンステージ,0
1769,6011303004540,新規,0,2022-10-07,2022-10-07,合同会社アールエヌエスピー,,合同会社,東京都,杉並区,下井草３丁目２０番２０号,,13,115,1670022,,,,,,,2022-10-07,1,,,,,アールエヌエスピー,0
1772,6011401024589,新規,0,2022-10-07,2022-10-07,株式会社ＳＡＥＲＯＹＩ　ＪＡＰＡＮ,,株式会社,東京都,板橋区,大山西町２番７号東久ハイツ２０２号室,,13,119,1730033,,,,,,,2022-10-07,1,,,,,セロイジャパン,0
1775,6011601026278,新規,0,2022-10-07,2022-10-07,株式会社ハイビション,,株式会社,東京都,練馬区,石神井町４丁目１番６－７１０号,,13,120,1770041,,,,,,,2022-10-07,1,,,,,ハイビション,0
1776,6011603003713,新規,0,2022-10-07,2022-10-07,合同会社きりゅう総合事務所,,合同会社,東京都,練馬区,南大泉４丁目３８番１１号,,13,120,1780064,,,,,,,2022-10-07,1,,,,,キリュウソウゴウジムショ,0
1777,6011801041366,新規,0,2022-10-07,2022-10-07,ニッキン工業株式会社,,株式会社,東京都,葛飾区,奥戸４丁目２５番２１号奥戸ハイツ１階,,13,122,1240022,,,,,,,2022-10-07,1,,,,,ニッキンコウギョウ,0
1778,6012301013153,新規,0,2022-10-07,2022-10-07,株式会社物流機動隊,,株式会社,東京都,町田市,鶴間４丁目１５番１号,,13,209,1940004,,,,,,,2022-10-07,1,,,,,ブツリュウキドウタイ,0
1779,6012401039718,新規,0,2022-10-07,2022-10-07,株式会社ＮＯＫＯ,,株式会社,東京都,府中市,栄町２丁目１１番地の７野口荘１Ｆ,,13,206,1830051,,,,,,,2022-10-07,1,,,,,ノウコウ,0
1782,6013101009028,新規,0,2022-10-07,2022-10-07,株式会社ＰＳＪ,,株式会社,東京都,あきる野市,野辺１１１１番地１２,,13,228,1970823,,,,,,,2022-10-07,1,,,,,ピーエスジェイ,0
1798,6020001148384,新規,0,2022-10-07,2022-10-07,株式会社ＮＲＳエンジニアリング,,株式会社,神奈川県,川崎市川崎区,浜町１丁目２番９号メゾンフジタ３０２,,14,131,2100851,,,,,,,2022-10-07,1,,,,,エヌアールエスエンジニアリング,0
1799,6020001148426,新規,0,2022-10-07,2022-10-07,株式会社コルージャ・インベストメントワークス,,株式会社,神奈川県,横浜市中区,住吉町３丁目３６－２ＤＥＸ１９９２ビル７０２,,14,104,2310013,,,,,,,2022-10-07,1,,,,,コルージャインベストメントワークス,0
1800,6020001148434,新規,0,2022-10-07,2022-10-07,株式会社Ｍａｎｏｋｉ・Ｍ,,株式会社,神奈川県,横浜市旭区,金が谷２丁目２８番１４号,,14,112,2410812,,,,,,,2022-10-07,1,,,,,マノキドットエム,0
1801,6020001148450,新規,0,2022-10-07,2022-10-07,株式会社手塚工務店,,株式会社,神奈川県,川崎市多摩区,登戸２８３６番地１０１,,14,135,2140014,,,,,,,2022-10-07,1,,,,,テヅカコウムテン,0
1802,6020001148459,新規,0,2022-10-07,2022-10-07,株式会社クラベール,,株式会社,神奈川県,横浜市青葉区,鴨志田町８１６番地２３,,14,117,2270033,,,,,,,2022-10-07,1,,,,,クラベール,0
1803,6020001148500,新規,0,2022-10-07,2022-10-07,株式会社ＷＤＨ,,株式会社,神奈川県,川崎市高津区,下作延１丁目１番７号ｎｏｋｕｔｉｃａ,,14,134,2130033,,,,,,,2022-10-07,1,,,,,ダブリューディーエイチ,0
1804,6020001148525,新規,0,2022-10-07,2022-10-07,株式会社ＹＳタレント,,株式会社,神奈川県,横浜市中区,長者町４丁目９番１号,,14,104,2310033,,,,,,,2022-10-07,1,,,,,ワイエスタレント,0
1811,6021001077136,新規,0,2022-10-07,2022-10-07,株式会社雄雅,,株式会社,神奈川県,大和市,下鶴間２１６４番地,,14,213,2420001,,,,,,,2022-10-07,1,,,,,ユウガ,0
1813,6021003012207,新規,0,2022-10-07,2022-10-07,合同会社Ｒｅａｃｈ　Ｏｕｔ,,合同会社,神奈川県,逗子市,沼間５丁目１８番８号,,14,208,2490004,,,,,,,2022-10-07,1,,,,,リーチアウト,0
1814,6021003012223,新規,0,2022-10-07,2022-10-07,合同会社ハウス・サトウ,,合同会社,神奈川県,大和市,中央林間６丁目９番１８号,,14,213,2420007,,,,,,,2022-10-07,1,,,,,ハウスサトウ,0
1816,6030001150430,新規,0,2022-10-07,2022-10-07,株式会社彩道ビルド,,株式会社,埼玉県,所沢市,上新井５丁目４２番地の５,,11,208,3591142,,,,,,,2022-10-07,1,,,,,サイドウビルド,0
1817,6030001150447,新規,0,2022-10-07,2022-10-07,株式会社ウェルネスタ,,株式会社,埼玉県,朝霞市,根岸台２丁目３番４５号,,11,227,3510005,,,,,,,2022-10-07,1,,,,,ウェルネスタ,0
1818,6030001150455,新規,0,2022-10-07,2022-10-07,株式会社ＴＲＹ,,株式会社,埼玉県,越谷市,南越谷５丁目１６－２ライフピア新越谷２０９,,11,222,3430845,,,,,,,2022-10-07,1,,,,,トライ,0
1820,6030003020350,新規,0,2022-10-07,2022-10-07,合同会社東宝堂,,合同会社,埼玉県,川口市,並木元町１－４８川口マンション５０２,,11,203,3320033,,,,,,,2022-10-07,1,,,,,トウホウドウ,0
1824,6040001125332,新規,0,2022-10-07,2022-10-07,トラストパテントサーチ株式会社,,株式会社,千葉県,千葉市美浜区,磯辺４丁目１０番２号,,12,106,2610012,,,,,,,2022-10-07,1,,,,,トラストパテントサーチ,0
1825,6040001125349,新規,0,2022-10-07,2022-10-07,株式会社ＩＭマネジメントジャパン,,株式会社,千葉県,千葉市美浜区,幸町１丁目１７番４号,,12,106,2610001,,,,,,,2022-10-07,1,,,,,アイエムマネジメントジャパン,0
1826,6040001125373,新規,0,2022-10-07,2022-10-07,株式会社Ｒｅｓｔｏｒｅ,,株式会社,千葉県,千葉市美浜区,幸町２丁目１１番２４棟４０６号,,12,106,2610001,,,,,,,2022-10-07,1,,,,,レストア,0
1827,6040003020969,新規,0,2022-10-07,2022-10-07,ＪＡＤＥ合同会社,,合同会社,千葉県,我孫子市,天王台２丁目７番２６号アクセス１０１,,12,222,2701143,,,,,,,2022-10-07,1,,,,,ジェイド,0
1828,6040003021001,新規,0,2022-10-07,2022-10-07,合同会社ＰＭＯパートナーズ,,合同会社,千葉県,千葉市花見川区,幕張本郷１丁目３番９号Ｄ’クラディア幕張本郷６０３号,,12,102,2620033,,,,,,,2022-10-07,1,,,,,ピーエムオーパートナーズ,0
1829,6050001051759,新規,0,2022-10-07,2022-10-07,株式会社ビブライン,,株式会社,茨城県,つくば市,上郷７０３１番地,,08,220,3002645,,,,,,,2022-10-07,1,,,,,ビブライン,0
1830,6050001051783,新規,0,2022-10-07,2022-10-07,株式会社公和建設,,株式会社,茨城県,古河市,古河１４３番地５,,08,204,3060016,,,,,,,2022-10-07,1,,,,,コウワケンセツ,0
1831,6050003006901,新規,0,2022-10-07,2022-10-07,合同会社ピースサイン,,合同会社,茨城県,水戸市,千波町５４４番地の１４,,08,201,3100851,,,,,,,2022-10-07,1,,,,,ピースサイン,0
1832,6060001035315,新規,0,2022-10-07,2022-10-07,足利ガスホールディングス株式会社,,株式会社,栃木県,足利市,錦町２７番地１,,09,202,3260047,,,,,,,2022-10-07,1,,,,,アシカガガスホールディングス,0
1833,6060001035323,新規,0,2022-10-07,2022-10-07,株式会社月組,,株式会社,栃木県,小山市,大字出井１８５８番地３６,,09,208,3230808,,,,,,,2022-10-07,1,,,,,ツキグミ,0
1834,6060001035331,新規,0,2022-10-07,2022-10-07,株式会社ＫＧリース,,株式会社,栃木県,鹿沼市,西茂呂３丁目１９番地４,,09,205,3220029,,,,,,,2022-10-07,1,,,,,ケージーリース,0
1837,6070001039711,新規,0,2022-10-07,2022-10-07,ケアピークス株式会社,,株式会社,群馬県,北群馬郡吉岡町,大字大久保５８２,,10,345,3703602,,,,,,,2022-10-07,1,,,,,ケアピークス,0
1840,6080101023564,新規,0,2022-10-07,2022-10-07,株式会社ＦＴＤ,,株式会社,静岡県,伊豆市,小立野１５３番地の４,,22,222,4102413,,,,,,,2022-10-07,1,,,,,エフティーディー,0
1845,6100003006714,新規,0,2022-10-07,2022-10-07,合同会社ＩＳＴ,,合同会社,長野県,北安曇郡白馬村,大字北城８２７番地２６,,20,485,3999301,,,,,,,2022-10-07,1,,,,,アイエスティ,0
1846,6110001037017,新規,0,2022-10-07,2022-10-07,株式会社昴電工,,株式会社,新潟県,長岡市,山古志虫亀９５５番地３,,15,202,9470205,,,,,,,2022-10-07,1,,,,,スバルデンコウ,0
1847,6110001037025,新規,0,2022-10-07,2022-10-07,株式会社ＭＫ企画,,株式会社,新潟県,妙高市,大字菅沼２６番地の乙,,15,217,9440057,,,,,,,2022-10-07,1,,,,,エムケーキカク,0
1864,6120001249156,新規,0,2022-10-07,2022-10-07,株式会社軒夏マーケティング,,株式会社,大阪府,大阪市浪速区,恵美須東３丁目２番９号パークシャトー２０１号,,27,111,5560002,,,,,,,2022-10-07,1,,,,,ケンナツマーケティング,0
1865,6120001249321,新規,0,2022-10-07,2022-10-07,ＴＯホーム株式会社,,株式会社,大阪府,大阪市住之江区,東加賀屋１丁目７番９－１００１号,,27,125,5590012,,,,,,,2022-10-07,1,,,,,ティーオーホーム,0
1866,6120001249354,新規,0,2022-10-07,2022-10-07,株式会社ＫＴフードシステム,,株式会社,大阪府,大阪市北区,天満４丁目１番２号天満鹿鳴館ビル８Ｆ号室,,27,127,5300043,,,,,,,2022-10-07,1,,,,,ケイティフードシステム,0
1867,6120001249362,新規,0,2022-10-07,2022-10-07,株式会社ＳＯＯＹＥ,,株式会社,大阪府,大阪市西区,南堀江１丁目１０番１１号西谷ビル本館４０７,,27,106,5500015,,,,,,,2022-10-07,1,,,,,ソーイ,0
1868,6120001249395,新規,0,2022-10-07,2022-10-07,株式会社プレイシャス,,株式会社,大阪府,大阪市北区,梅田２丁目２番２号ヒルトンプラザウエストオフィスタワー１８階,,27,127,5300001,,,,,,,2022-10-07,1,,,,,プレイシャス,0
1873,6120003022610,新規,0,2022-10-07,2022-10-07,合同会社ピンキー・コーポレーション,,合同会社,大阪府,寝屋川市,松屋町１９番１－６１２号,,27,215,5720086,,,,,,,2022-10-07,1,,,,,ピンキーコーポレーション,0
1874,6120003022619,新規,0,2022-10-07,2022-10-07,合同会社淺井会計,,合同会社,大阪府,大阪市北区,梅田１丁目１番３大阪駅前第３ビル２９階１－１－１号室,,27,127,5300001,,,,,,,2022-10-07,1,,,,,アサイカイケイ,0
1875,6120005023219,新規,0,2022-10-07,2022-10-07,弁理士法人籾井特許事務所,,その他の設立登記法人,大阪府,大阪市北区,堂島浜１丁目４番４号アクア堂島東館７階,,27,127,5300004,,,,,,,2022-10-07,1,,,,,モミイトッキョジムショ,0
1876,6120005023235,新規,0,2022-10-07,2022-10-07,一般社団法人日本アートメイク技術認定協会,,その他の設立登記法人,大阪府,大阪市北区,茶屋町１０番２号渡部ビル３階,,27,127,5300013,,,,,,,2022-10-07,1,,,,,ニホンアートメイクギジュツニンテイキョウカイ,0
1886,6122001036303,新規,0,2022-10-07,2022-10-07,株式会社瀬口製作所,,株式会社,大阪府,八尾市,太田新町２丁目６７番地の２,,27,212,5810039,,,,,,,2022-10-07,1,,,,,セグチセイサクショ,0
1889,6130001072739,新規,0,2022-10-07,2022-10-07,ＣＩＭＡファイナンス株式会社,,株式会社,京都府,八幡市,岩田西玉造７１番地,,26,210,6148253,,,,,,,2022-10-07,1,,,,,シーマファイナンス,0
1890,6130001072763,新規,0,2022-10-07,2022-10-07,株式会社紀の助,,株式会社,京都府,京都市伏見区,京橋町３００番地,,26,109,6128366,,,,,,,2022-10-07,1,,,,,キノスケ,0
1893,6130005016601,新規,0,2022-10-07,2022-10-07,医療法人達仁会,,その他の設立登記法人,京都府,長岡京市,開田４丁目８番６号クリニックステーション長岡天神１Ｆ,,26,209,6170826,,,,,,,2022-10-07,1,,,,,タツジンカイ,0
1898,6140001127599,新規,0,2022-10-07,2022-10-07,株式会社ＳＤＣホールディングス,,株式会社,兵庫県,神戸市長田区,若松町２丁目１番３号,,28,106,6530038,,,,,,,2022-10-07,1,,,,,エスディーシーホールディングス,0
1902,6140005026335,新規,0,2022-10-07,2022-10-07,一般社団法人龍野観光協会,,その他の設立登記法人,兵庫県,たつの市,龍野町大道３７４番地３,,28,229,6794169,,,,,,,2022-10-07,1,,,,,タツノカンコウキョウカイ,0
1903,6150003002790,新規,0,2022-10-07,2022-10-07,合同会社やよい企画,,合同会社,奈良県,生駒市,高山町３０５番地２,,29,209,6300101,,,,,,,2022-10-07,1,,,,,ヤヨイキカク,0
1906,6160001024547,新規,0,2022-10-07,2022-10-07,株式会社杉田建設,,株式会社,滋賀県,大津市,稲葉台６番９号,,25,201,5200065,,,,,,,2022-10-07,1,,,,,スギタケンセツ,0
1907,6160003002690,新規,0,2022-10-07,2022-10-07,合同会社ＮＡＳ,,合同会社,滋賀県,長浜市,余呉町下丹生８８０番地,,25,203,5290514,,,,,,,2022-10-07,1,,,,,エヌエーエス,0
1909,6160005011129,新規,0,2022-10-07,2022-10-07,医療法人仁永会,,その他の設立登記法人,滋賀県,彦根市,長曽根南町４４６番地,,25,202,5220052,,,,,,,2022-10-07,1,,,,,ジンエイカイ,0
1915,6180001153261,新規,0,2022-10-07,2022-10-07,株式会社Ｆ＆Ｈ　ｃｏｒｐｏｒａｔｉｏｎ,,株式会社,愛知県,名古屋市西区,比良２丁目８２番地ヴィラ・フルールＡ２０１号,,23,104,4520802,,,,,,,2022-10-07,1,,,,,エフアンドエイチコーポレーション,0
1916,6180001153294,新規,0,2022-10-07,2022-10-07,Ｂａｕｈａｕｓ工房株式会社,,株式会社,愛知県,半田市,前田町９８番地,,23,205,4750082,,,,,,,2022-10-07,1,,,,,バウハウスコウボウ,0
1917,6180001153344,新規,0,2022-10-07,2022-10-07,株式会社ハマヒカリ,,株式会社,愛知県,名古屋市中区,栄２丁目２番１号,,23,106,4600008,,,,,,,2022-10-07,1,,,,,ハマヒカリ,0
1920,6180003024345,新規,0,2022-10-07,2022-10-07,合同会社昭,,合同会社,愛知県,名古屋市港区,川間町３丁目３６番地の１,,23,111,4550076,,,,,,,2022-10-07,1,,,,,ショウ,0
1923,6190001029824,新規,0,2022-10-07,2022-10-07,株式会社桑名商事,,株式会社,三重県,桑名市,藤が丘８丁目１０１番地３７,,24,205,5110865,,,,,,,2022-10-07,1,,,,,クワナショウジ,0
1924,6190003004107,新規,0,2022-10-07,2022-10-07,合同会社マルワキ脇竜商店,,合同会社,三重県,北牟婁郡紀北町,長島１１８９番地１４６,,24,543,5193205,,,,,,,2022-10-07,1,,,,,マルワキワキリュウショウテン,0
1941,6240003005842,新規,0,2022-10-07,2022-10-07,合同会社スマイルリンクス,,合同会社,広島県,福山市,千田町３丁目１７番２０－２号,,34,207,7200017,,,,,,,2022-10-07,1,,,,,スマイルリンクス,0
1948,6260003004058,新規,0,2022-10-07,2022-10-07,合同会社リアルサポート,,合同会社,岡山県,倉敷市,石見町４番９－１０５号リビングタウン石見町Ｂ棟,,33,202,7100814,,,,,,,2022-10-07,1,,,,,リアルサポート,0
1953,6290001098982,新規,0,2022-10-07,2022-10-07,徳平株式会社,,株式会社,福岡県,福岡市博多区,博多駅東２丁目５－１９サンライフ第３ビル５階,,40,132,8120013,,,,,,,2022-10-07,1,,,,,トクヘン,0
1954,6290001099130,新規,0,2022-10-07,2022-10-07,株式会社新正,,株式会社,福岡県,久留米市,三潴町高三潴１９３０番地５,,40,203,8300103,,,,,,,2022-10-07,1,,,,,シンセイ,0
1964,6320001019365,新規,0,2022-10-07,2022-10-07,株式会社刻印,,株式会社,大分県,大分市,王子中町８番４７号,,44,201,8700006,,,,,,,2022-10-07,1,,,,,コクイン,0
1967,6330001030172,新規,0,2022-10-07,2022-10-07,株式会社ＨＡＪＩＭＥ,,株式会社,熊本県,玉名市,築地１３９６番地９,,43,206,8650065,,,,,,,2022-10-07,1,,,,,ハジメ,0
1974,6350001017985,新規,0,2022-10-07,2022-10-07,ＣＯＮＴＲＡＴＯ株式会社,,株式会社,宮崎県,都城市,吉尾町９３７番地６３,,45,202,8850006,,,,,,,2022-10-07,1,,,,,コントラット,0
1975,6350003004189,新規,0,2022-10-07,2022-10-07,合同会社クラシカルリベラル,,合同会社,宮崎県,日南市,大字楠原３２８１番地１４,,45,204,8892514,,,,,,,2022-10-07,1,,,,,クラシカルリベラル,0
1976,6350005006101,新規,0,2022-10-07,2022-10-07,社会保険労務士法人Ｄｅａｒ．Ｗ,,その他の設立登記法人,宮崎県,串間市,大字西方５２９７番地１,,45,207,8880001,,,,,,,2022-10-07,1,,,,,ディアダブリュー,0
1979,6370001049102,新規,0,2022-10-07,2022-10-07,株式会社ＫＯＥＤＡ,,株式会社,宮城県,仙台市青葉区,貝ケ森１丁目２７番１１号,,04,101,9810942,,,,,,,2022-10-07,1,,,,,コエダ,0
1980,6370001049110,新規,0,2022-10-07,2022-10-07,株式会社ｆｅｅｌｇｏｏｄ,,株式会社,宮城県,仙台市青葉区,折立６丁目１番２０号,,04,101,9820261,,,,,,,2022-10-07,1,,,,,フィールグッド,0
1981,6370003005854,新規,0,2022-10-07,2022-10-07,合同会社Ｕｎｉｒ,,合同会社,宮城県,仙台市宮城野区,原町２丁目４番１９号コモドカーサ宮城野１０１,,04,102,9830841,,,,,,,2022-10-07,1,,,,,ユニール,0
1989,6380003005291,新規,0,2022-10-07,2022-10-07,合同会社エフティーエス,,合同会社,福島県,福島市,太田町４番５号,,07,201,9608068,,,,,,,2022-10-07,1,,,,,エフティーエス,0
1991,6390001017040,新規,0,2022-10-07,2022-10-07,出羽桜株式会社,,株式会社,山形県,天童市,一日町１丁目４番６号,,06,210,9940044,,,,,,,2022-10-07,1,,,,,デワザクラ,0
1993,6420001018027,新規,0,2022-10-07,2022-10-07,株式会社Ｈ．Ｄ．Ｏ,,株式会社,青森県,八戸市,大字市川町字稲荷岱４５番地５０,,02,203,0392241,,,,,,,2022-10-07,1,,,,,エッチドットディードットオー,0
1996,6430001087590,新規,0,2022-10-07,2022-10-07,株式会社小田工業,,株式会社,北海道,虻田郡洞爺湖町,入江５８番地６,,01,584,0495603,,,,,,,2022-10-07,1,,,,,オダコウギョウ,0
1997,6430001087608,新規,0,2022-10-07,2022-10-07,ＮＳ１３株式会社,,株式会社,北海道,勇払郡厚真町,新町９５－２７,,01,581,0591623,,,,,,,2022-10-07,1,,,,,エンエスサーティーン,0
1998,6430001087624,新規,0,2022-10-07,2022-10-07,ＳＥＫＩＴＯ　Ｊｒ．株式会社,,株式会社,北海道,札幌市西区,八軒七条西１０丁目１番１２号,,01,107,0630847,,,,,,,2022-10-07,1,,,,,セキトジュニア,0
2003,6460101007256,新規,0,2022-10-07,2022-10-07,株式会社ランプ,,株式会社,北海道,河西郡芽室町,上美生７線５１番地３,,01,637,0820384,,,,,,,2022-10-07,1,,,,,ランプ,0
2004,6460103001488,新規,0,2022-10-07,2022-10-07,合同会社久慈農園,,合同会社,北海道,中川郡池田町,字近牛６４番地の１６,,01,644,0893153,,,,,,,2022-10-07,1,,,,,クジノウエン,0
2007,6480003001883,新規,0,2022-10-07,2022-10-07,合同会社ＴＴＰＳ,,合同会社,徳島県,徳島市,住吉６丁目２番３号南別棟,,36,201,7700861,,,,,,,2022-10-07,1,,,,,ティーティーピーエス,0
2010,6500003002904,新規,0,2022-10-07,2022-10-07,合同会社なないろ,,合同会社,愛媛県,松山市,立花３丁目８番２８号プラーナ南松山２０２号,,38,201,7900966,,,,,,,2022-10-07,1,,,,,,0
2014,6700150087190,新規,0,2022-10-07,2018-01-30,第５回東海北陸ＨＬＡ研究会,,その他,愛知県,長久手市,岩作雁又１－１愛知医科大学医学部　内科学講座血液内科内,,23,238,4801103,,,,,,,2018-01-30,1,,,,,ダイゴカイトウカイホクリクエイチエルエイケンキユウカイ,0
2015,6700150111000,新規,0,2022-10-07,2022-08-03,ママンカンパニー,,その他,東京都,中央区,新川２丁目４－１２,,13,102,1040033,,,,,,,2022-08-03,1,,,,,ママンカンパニー,0
2016,6700150112056,新規,0,2022-10-07,2022-10-07,＿宇投資有限公司,00128019,外国会社等,東京都,大田区,蒲田５丁目３９－４,,13,111,1440052,台北市中正區仁愛路二段８巷８號６樓,,,,,,2022-10-07,1,,,,,ユンユトウシユウゲンコウシ,0
2017,6700150112097,新規,0,2022-10-07,2022-10-07,Ｓｈｅｎｚｈｅｎ　Ｙｏｕｔｅ　Ｗｅｉｃｈｕａｎｇ　Ｔｅｃｈｎｏｌｏｇｙ　Ｃｏ．，ＬＴＤ,,外国会社等,,,,,,,,Ｊｕｎｈｕａ　Ｓｏｕｔｈ　Ｒｄ　Ｌｏｎｇｈｕａ　Ｓｔｒ　１０１　Ｓｈａｎｊｕｔｏｕ　Ｇｅｎｅｒａｌ　Ｂｌｄｇ　２　Ｓｈｅｎｚｈｅｎ　Ｌｏｎｇｈｕａ　Ｎｅｗ　Ｄｉｓｔ　Ｇｕａｎｇｄｏｎｇ,,,,,,2022-10-07,1,,,,,シエンチエンユウトウエイツアンテクノロジーカンパニーリミテツド,0
2023,7010001229936,新規,0,2022-10-07,2022-10-07,株式会社後継社長支援機構,,株式会社,東京都,中央区,銀座１丁目２２番１１号Ｃ７銀座大竹ビジデンス２階,,13,102,1040061,,,,,,,2022-10-07,1,,,,,コウケイシャチョウシエンキコウ,0
2024,7010001229960,新規,0,2022-10-07,2022-10-07,ニュームーン株式会社,,株式会社,東京都,千代田区,内幸町１丁目３番１号９階,,13,101,1000011,,,,,,,2022-10-07,1,,,,,ニュームーン,0
2030,7010101015352,新規,0,2022-10-07,2022-10-07,株式会社フィクサー,,株式会社,東京都,八王子市,堀之内６６１番地２１東山３－２,,13,201,1920355,,,,,,,2022-10-07,1,,,,,フィクサー,0
2039,7010401170095,新規,0,2022-10-07,2022-10-07,株式会社了,,株式会社,東京都,港区,南青山２丁目２番１５号,,13,103,1070062,,,,,,,2022-10-07,1,,,,,リョウ,0
2040,7010401170104,新規,0,2022-10-07,2022-10-07,ミスライト株式会社,,株式会社,東京都,港区,赤坂４丁目１４番１４号,,13,103,1070052,,,,,,,2022-10-07,1,,,,,ミスライト,0
2041,7010401170145,新規,0,2022-10-07,2022-10-07,ＦｅＭｕｐ株式会社,,株式会社,東京都,港区,港南２丁目１６番１号イーストインタワー７Ｆ,,13,103,1080075,,,,,,,2022-10-07,1,,,,,フェマップ,0
2042,7010401170153,新規,0,2022-10-07,2022-10-07,ＷＡＲＥＨＯＵＳＥ株式会社,,株式会社,東京都,港区,南青山３丁目１番３６号青山丸竹ビル６Ｆ,,13,103,1070062,,,,,,,2022-10-07,1,,,,,ウェアハウス,0
2045,7010403028630,新規,0,2022-10-07,2022-10-07,合同会社ｓｅｎｓｅ,,合同会社,東京都,港区,港南４丁目６番６－１１０５号,,13,103,1080075,,,,,,,2022-10-07,1,,,,,センス,0
2046,7010403028639,新規,0,2022-10-07,2022-10-07,合同会社レジューム,,合同会社,東京都,港区,麻布十番２丁目９番８－４０８号,,13,103,1060045,,,,,,,2022-10-07,1,,,,,レジューム,0
2047,7010403028647,新規,0,2022-10-07,2022-10-07,合同会社師走屋,,合同会社,東京都,港区,南青山３丁目１番３６号青山丸竹ビル６Ｆ,,13,103,1070062,,,,,,,2022-10-07,1,,,,,シワスヤ,0
2048,7010403028663,新規,0,2022-10-07,2022-10-07,合同会社ファッションエイド,,合同会社,東京都,港区,浜松町２丁目２番１５号浜松町ダイヤビル２Ｆ,,13,103,1050013,,,,,,,2022-10-07,1,,,,,ファッションエイド,0
2056,7010701043315,新規,0,2022-10-07,2022-10-07,株式会社ブラックスター,,株式会社,東京都,品川区,中延２丁目６番３号,,13,109,1420053,,,,,,,2022-10-07,1,,,,,ブラックスター,0
2057,7010703006402,新規,0,2022-10-07,2022-10-07,合同会社範範,,合同会社,東京都,品川区,東五反田１丁目２５番１９号,,13,109,1410022,,,,,,,2022-10-07,1,,,,,ハンハン,0
2059,7010901051737,新規,0,2022-10-07,2022-10-07,株式会社遊彩,,株式会社,東京都,世田谷区,奥沢５丁目２４番１８号,,13,112,1580083,,,,,,,2022-10-07,1,,,,,ユウサイ,0
2060,7010901051753,新規,0,2022-10-07,2022-10-07,株式会社ＭＫ　ＷＯＮＤＥＲ,,株式会社,東京都,世田谷区,太子堂２丁目１２番１号,,13,112,1540004,,,,,,,2022-10-07,1,,,,,エムケーワンダー,0
2064,7011001150116,新規,0,2022-10-07,2022-10-07,株式会社審美眼,,株式会社,東京都,渋谷区,神宮前６丁目２３番４号桑野ビル２階,,13,113,1500001,,,,,,,2022-10-07,1,,,,,シンビガン,0
2065,7011001150124,新規,0,2022-10-07,2022-10-07,株式会社ＧＲＯＷ　ｉｎ　ｔｈｅ　ＦＩＧＨＴ,,株式会社,東京都,渋谷区,千駄ヶ谷５丁目３－１３ＭＤＭｓｅｎｄａｇａｙａＷＥＳＴ１０３,,13,113,1510051,,,,,,,2022-10-07,1,,,,,グローインザファイト,0
2066,7011001150132,新規,0,2022-10-07,2022-10-07,株式会社カラビナワークス,,株式会社,東京都,渋谷区,神南１丁目２３番１４号,,13,113,1500041,,,,,,,2022-10-07,1,,,,,カラビナワークス,0
2067,7011001150198,新規,0,2022-10-07,2022-10-07,株式会社ＭＩＲＡＩ,,株式会社,東京都,渋谷区,広尾１丁目１番２２－２０６号,,13,113,1500012,,,,,,,2022-10-07,1,,,,,ミライ,0
2069,7011003015481,新規,0,2022-10-07,2022-10-07,Ｋｕｂｏｔａ．Ｈｏｕｓｅ合同会社,,合同会社,東京都,目黒区,中根１丁目７番地２２号ユーカリハイツ都立大５０４,,13,110,1520031,,,,,,,2022-10-07,1,,,,,クボタドットハウス,0
2075,7011101100417,新規,0,2022-10-07,2022-10-07,株式会社Ｐ＆Ｐ,,株式会社,東京都,新宿区,大久保１丁目１番２号,,13,104,1690072,,,,,,,2022-10-07,1,,,,,ピーアンドピー,0
2076,7011101100425,新規,0,2022-10-07,2022-10-07,株式会社グローバル・ゲイト・ホールディングス,,株式会社,東京都,新宿区,市谷船河原町１１番地,,13,104,1620826,,,,,,,2022-10-07,1,,,,,グローバルゲイトホールディングス,0
2077,7011101100433,新規,0,2022-10-07,2022-10-07,株式会社マニョコンジャンジャパン,,株式会社,東京都,新宿区,西新宿３丁目３番１３号西新宿水間ビル２Ｆ,,13,104,1600023,,,,,,,2022-10-07,1,,,,,マニョコンジャンジャパン,0
2078,7011103012230,新規,0,2022-10-07,2022-10-07,ミライラボ合同会社,,合同会社,東京都,新宿区,新宿２丁目９番２２－２１２号,,13,104,1600022,,,,,,,2022-10-07,1,,,,,ミライラボ,0
2080,7011301028144,新規,0,2022-10-07,2022-10-07,株式会社ＭｏｄｓＣｏａｔ,,株式会社,東京都,杉並区,阿佐谷北３丁目３番１号,,13,115,1660001,,,,,,,2022-10-07,1,,,,,モッズコート,0
2081,7011301028152,新規,0,2022-10-07,2022-10-07,株式会社アント,,株式会社,東京都,杉並区,荻窪３丁目４８番７号ユニパリス荻窪１０１,,13,115,1670051,,,,,,,2022-10-07,1,,,,,アント,0
2082,7011301028160,新規,0,2022-10-07,2022-10-07,高山貿易株式会社,,株式会社,東京都,杉並区,梅里２丁目２５番１３号高円寺プラザ２１２号,,13,115,1660011,,,,,,,2022-10-07,1,,,,,タカヤマボウエキ,0
2083,7011305002863,新規,0,2022-10-07,2022-10-07,一般社団法人障害者生活支援ココカラ,,その他の設立登記法人,東京都,杉並区,阿佐谷南１丁目３４番６号７階,,13,115,1660004,,,,,,,2022-10-07,1,,,,,ショウガイシャセイカツシエンココカラ,0
2085,7011401024588,新規,0,2022-10-07,2022-10-07,株式会社ＨＩＮＡＴＡ,,株式会社,東京都,板橋区,南町４６番１４号ミヤビヒルズ大山４０６号室,,13,119,1730027,,,,,,,2022-10-07,1,,,,,ヒナタ,0
2088,7011501028530,新規,0,2022-10-07,2022-10-07,日本ケフ精工株式会社,,株式会社,東京都,荒川区,南千住３丁目２７－２浅草ビル,,13,118,1160003,,,,,,,2022-10-07,1,,,,,ニホンケフセイコウ,0
2089,7011501028539,新規,0,2022-10-07,2022-10-07,株式会社ラボエム,,株式会社,東京都,北区,王子５丁目１７番２２号志幸３５・コロン３０５号,,13,117,1140002,,,,,,,2022-10-07,1,,,,,ラボエム,0
2090,7011505002507,新規,0,2022-10-07,2022-10-07,医療法人社団千寿会,,その他の設立登記法人,東京都,北区,十条仲原１丁目８番２７号２階,,13,117,1140031,,,,,,,2022-10-07,1,,,,,センジュカイ,0
2094,7011701025666,新規,0,2022-10-07,2022-10-07,株式会社エンサ,,株式会社,東京都,江戸川区,南葛西２丁目２２番３号,,13,123,1340085,,,,,,,2022-10-07,1,,,,,エンサ,0
2097,7011801041365,新規,0,2022-10-07,2022-10-07,株式会社ＣＲＥＣＥＲ,,株式会社,東京都,足立区,千住大川町６番１３号北千住ガーデン１０１号室,,13,121,1200031,,,,,,,2022-10-07,1,,,,,クレセル,0
2099,7011803005302,新規,0,2022-10-07,2022-10-07,合同会社Ｐｈｏｅｎｉｘエージェンシー,,合同会社,東京都,葛飾区,細田１丁目２４番１４号,,13,122,1240021,,,,,,,2022-10-07,1,,,,,フェニックスエージェンシー,0
2100,7011805003213,新規,0,2022-10-07,2022-10-07,一般社団法人ハルタ,,その他の設立登記法人,東京都,足立区,千住宮元町８番８号,,13,121,1200043,,,,,,,2022-10-07,1,,,,,ハルタ,0
2101,7012301013152,新規,0,2022-10-07,2022-10-07,アンドヴィオラ株式会社,,株式会社,東京都,町田市,玉川学園７丁目４番７号,,13,209,1940041,,,,,,,2022-10-07,1,,,,,アンドヴィオラ,0
2102,7012401039717,新規,0,2022-10-07,2022-10-07,株式会社ＦＡＣＥ,,株式会社,東京都,多摩市,関戸１丁目３番１９号,,13,224,2060011,,,,,,,2022-10-07,1,,,,,フェイス,0
2104,7012801021877,新規,0,2022-10-07,2022-10-07,株式会社伊藤重機,,株式会社,東京都,立川市,柏町１丁目２９番地の１４,,13,202,1900004,,,,,,,2022-10-07,1,,,,,イトウジュウキ,0
2105,7012803002900,新規,0,2022-10-07,2022-10-07,合同会社Ｋ・Ｐｌａｎｎｉｎｇ,,合同会社,東京都,日野市,東豊田１丁目１番地１１,,13,212,1910052,,,,,,,2022-10-07,1,,,,,ケープランニング,0
2114,7020001148425,新規,0,2022-10-07,2022-10-07,ＴＥＡＭ　ＢＲＡＩＮ株式会社,,株式会社,神奈川県,横浜市港北区,新横浜１丁目２５番地６,,14,109,2220033,,,,,,,2022-10-07,1,,,,,チームブレイン,0
2115,7020001148466,新規,0,2022-10-07,2022-10-07,ウォーター居宅支援株式会社,,株式会社,神奈川県,横浜市西区,平沼１丁目１番３号,,14,103,2200023,,,,,,,2022-10-07,1,,,,,ウォーターキョタクシエン,0
2116,7020001148490,新規,0,2022-10-07,2022-10-07,株式会社Ｍｅｒｋｕｒ,,株式会社,神奈川県,横浜市旭区,金が谷６４０番地,,14,112,2410812,,,,,,,2022-10-07,1,,,,,メルクーア,0
2123,7020003022512,新規,0,2022-10-07,2022-10-07,ｔｅｔｒａ合同会社,,合同会社,神奈川県,横浜市戸塚区,矢部町１５２４番地４ル・サンク戸塚ブランシエラ７０４号,,14,110,2440002,,,,,,,2022-10-07,1,,,,,テトラ,0
2124,7020003022520,新規,0,2022-10-07,2022-10-07,Ｔｅｒｒａ　Ｇｌｏｂａｌ　Ｓａｌｅｓｐａｒｔｎｅｒｓ合同会社,,合同会社,神奈川県,横浜市鶴見区,本町通３丁目１６４番地１２,,14,101,2300048,,,,,,,2022-10-07,1,,,,,テラグローバルセールスパートナーズ,0
2125,7020003022529,新規,0,2022-10-07,2022-10-07,合同会社パーソナルファイナンスラボ,,合同会社,神奈川県,横浜市神奈川区,神奈川本町５－４,,14,102,2210046,,,,,,,2022-10-07,1,,,,,パーソナルファイナンスラボ,0
2126,7020003022537,新規,0,2022-10-07,2022-10-07,合同会社アトラクト・エス,,合同会社,神奈川県,横浜市金沢区,能見台４丁目３番１５－１－６０４号,,14,108,2360057,,,,,,,2022-10-07,1,,,,,アトラクトエス,0
2127,7020003022553,新規,0,2022-10-07,2022-10-07,リペアラーズ合同会社,,合同会社,神奈川県,横浜市港南区,芹が谷５丁目２８番２０号,,14,111,2330006,,,,,,,2022-10-07,1,,,,,リペアラーズ,0
2131,7021001077135,新規,0,2022-10-07,2022-10-07,株式会社ウェルネスＫ,,株式会社,神奈川県,相模原市南区,相模大野７丁目７番１３号,,14,153,2520303,,,,,,,2022-10-07,1,,,,,ウェルネスケイ,0
2132,7021001077151,新規,0,2022-10-07,2022-10-07,株式会社ＦＬＩＰ,,株式会社,神奈川県,平塚市,西真土１丁目１－３９,,14,203,2540019,,,,,,,2022-10-07,1,,,,,フリップ,0
2140,7030001150405,新規,0,2022-10-07,2022-10-07,Ｇ．Ｏ．Ａ．Ｔ．株式会社,,株式会社,埼玉県,比企郡小川町,みどりが丘５丁目１１番地３,,11,343,3550315,,,,,,,2022-10-07,1,,,,,ゴート,0
2141,7030001150421,新規,0,2022-10-07,2022-10-07,株式会社アトリエコム,,株式会社,埼玉県,さいたま市大宮区,三橋１丁目６２９－２グリーンパーク大宮１－６０２,,11,103,3300856,,,,,,,2022-10-07,1,,,,,アトリエコム,0
2142,7030001150462,新規,0,2022-10-07,2022-10-07,株式会社プラトー,,株式会社,埼玉県,さいたま市西区,大字佐知川５８２番地１,,11,101,3310064,,,,,,,2022-10-07,1,,,,,プラトー,0
2143,7030001150470,新規,0,2022-10-07,2022-10-07,株式会社ｔｕｅ　ｌｅ　ｔｅｍｐｓ,,株式会社,埼玉県,川口市,本町２丁目６番８号,,11,203,3320012,,,,,,,2022-10-07,1,,,,,チュルトン,0
2147,7030003020341,新規,0,2022-10-07,2022-10-07,ＡＵＴＯ　ＣＩＴＹ合同会社,,合同会社,埼玉県,羽生市,大字藤井上組６９４番地１リトルアニマルＢ－４,,11,216,3480064,,,,,,,2022-10-07,1,,,,,オートシティ,0
2154,7040001125298,新規,0,2022-10-07,2022-10-07,株式会社ｓｍａｒｔミライ,,株式会社,千葉県,松戸市,栄町８丁目７０１番地の１８,,12,207,2710062,,,,,,,2022-10-07,1,,,,,スマートミライ,0
2155,7040001125307,新規,0,2022-10-07,2022-10-07,株式会社侑昌設備,,株式会社,千葉県,旭市,中谷里３７２番地２,,12,215,2892523,,,,,,,2022-10-07,1,,,,,ユウショウセツビ,0
2156,7040001125323,新規,0,2022-10-07,2022-10-07,株式会社黒岩製作所,,株式会社,千葉県,市川市,原木１丁目１番２０号,,12,203,2720004,,,,,,,2022-10-07,1,,,,,クロイワセイサクショ,0
2157,7040001125389,新規,0,2022-10-07,2022-10-07,株式会社エムピーエス,,株式会社,千葉県,柏市,逆井５丁目１２番１８号,,12,217,2770042,,,,,,,2022-10-07,1,,,,,エムピーエス,0
2161,7040003020976,新規,0,2022-10-07,2022-10-07,合同会社キミア,,合同会社,千葉県,浦安市,明海６丁目１番１２－１２０９号,,12,227,2790014,,,,,,,2022-10-07,1,,,,,キミア,0
2162,7040003020984,新規,0,2022-10-07,2022-10-07,合同会社ＯＭＩＺＯ,,合同会社,千葉県,船橋市,飯山満町３丁目１５８０番地２,,12,204,2740822,,,,,,,2022-10-07,1,,,,,オミゾー,0
2163,7040003021009,新規,0,2022-10-07,2022-10-07,コトシロン合同会社,,合同会社,千葉県,流山市,平和台３丁目４番１１,,12,220,2700157,,,,,,,2022-10-07,1,,,,,コトシロン,0
2164,7050001051790,新規,0,2022-10-07,2022-10-07,Ｔ・Ｒ・Ｔ　ＴＲＡＤＩＮＧ株式会社,,株式会社,茨城県,下妻市,黒駒１０５３番４,,08,210,3040007,,,,,,,2022-10-07,1,,,,,ティーアールティートレーディング,0
2168,7060001035339,新規,0,2022-10-07,2022-10-07,株式会社つばさインターナショナル,,株式会社,栃木県,小山市,大字土塔２４６番地５２,,09,208,3230812,,,,,,,2022-10-07,1,,,,,ツバサインターナショナル,0
2172,7070001039693,新規,0,2022-10-07,2022-10-07,株式会社Ｄａｉｍａｔｓｕ　ｆａｒｍ,,株式会社,群馬県,高崎市,下里見町４８３番地１,,10,202,3703343,,,,,,,2022-10-07,1,,,,,ダイマツファーム,0
2173,7070001039727,新規,0,2022-10-07,2022-10-07,株式会社熊建築環境計算事務所,,株式会社,群馬県,前橋市,荒牧町２丁目８番地２０ハイブリッジ７－３０５号室,,10,201,3710044,,,,,,,2022-10-07,1,,,,,クマケンチクカンキョウケイサンジムショ,0
2174,7070003004638,新規,0,2022-10-07,2022-10-07,合同会社ＳＥＫＩＧＵＣＨＩＴＲＡＤＩＮＧ,,合同会社,群馬県,邑楽郡大泉町,大字吉田１８１４番地３メルビーイング１０３,,10,524,3700523,,,,,,,2022-10-07,1,,,,,セキグチトレーディング,0
2176,7080005007480,新規,0,2022-10-07,2022-10-07,一般社団法人日本リトリート協会,,その他の設立登記法人,静岡県,藤枝市,東町２２番６号,,22,214,4260038,,,,,,,2022-10-07,1,,,,,ニホンリトリートキョウカイ,0
2179,7080405007493,新規,0,2022-10-07,2022-10-07,医療法人社団ｏｓｉｃａ,,その他の設立登記法人,静岡県,浜松市中区,田町３１６番地の２８相曾ビル３階,,22,131,4300944,,,,,,,2022-10-07,1,,,,,オシカ,0
2186,7100003006713,新規,0,2022-10-07,2022-10-07,プリペア合同会社,,合同会社,長野県,伊那市,中央４７５８番地４,,20,209,3960015,,,,,,,2022-10-07,1,,,,,プリペア,0
2188,7110001037024,新規,0,2022-10-07,2022-10-07,株式会社塗巧,,株式会社,新潟県,南蒲原郡田上町,大字田上丁１９１８番地１９,,15,361,9591502,,,,,,,2022-10-07,1,,,,,ヌリコウ,0
2203,7120001249320,新規,0,2022-10-07,2022-10-07,株式会社エルラインゲート,,株式会社,大阪府,大阪市天王寺区,東高津町１１－９サムティ上本町ビル,,27,109,5430021,,,,,,,2022-10-07,1,,,,,エルラインゲート,0
2204,7120001249345,新規,0,2022-10-07,2022-10-07,Ｓｕｅｍａｒｕ　ＦＴＩ　ＷＥＳＴ株式会社,,株式会社,大阪府,大阪市西区,靭本町一丁目６－１０本町西井ビル７Ｆ,,27,106,5500000,,,,,,,2022-10-07,1,,,,,スエマルエフティーアイウエスト,0
2206,7120005023234,新規,0,2022-10-07,2022-10-07,社会保険労務士法人ほはば,,その他の設立登記法人,大阪府,大阪市北区,梅田２丁目４番１３号６Ｆ,,27,127,5300001,,,,,,,2022-10-07,1,,,,,ホハバ,0
2209,7120101066302,新規,0,2022-10-07,2022-10-07,株式会社ミハラテクノ,,株式会社,大阪府,堺市美原区,大饗２５３番地,,27,147,5870063,,,,,,,2022-10-07,1,,,,,ミハラテクノ,0
2210,7120101066319,新規,0,2022-10-07,2022-10-07,松井興産株式会社,,株式会社,大阪府,堺市北区,東浅香山町３丁１５番地１１,,27,146,5918008,,,,,,,2022-10-07,1,,,,,マツイコウサン,0
2211,7120901046593,新規,0,2022-10-07,2022-10-07,スカイラブ株式会社,,株式会社,大阪府,豊中市,上津島２丁目１７番１５－３０１号,,27,203,5610843,,,,,,,2022-10-07,1,,,,,スカイラブ,0
2223,7130001072770,新規,0,2022-10-07,2022-10-07,株式会社ｖｙ　ＴＥＣ,,株式会社,京都府,京都市下京区,河原町通四条下る二丁目稲荷町３２８番地プラネスーペリア京都四条河原町８０２,,26,106,6000000,,,,,,,2022-10-07,1,,,,,ブイワイテック,0
2228,7130003008244,新規,0,2022-10-07,2022-10-07,ＲＩＭ合同会社,,合同会社,京都府,京都市中京区,御池通東洞院東入笹屋町４３６永和御池ビル６０６号,,26,104,6048187,,,,,,,2022-10-07,1,,,,,リム,0
2230,7130005016600,新規,0,2022-10-07,2022-10-07,一般社団法人リスクファイナンス協議会,,その他の設立登記法人,京都府,京都市下京区,西洞院通四条下る妙伝寺町７２０番地光悦ビル６Ｆ,,26,106,6008472,,,,,,,2022-10-07,1,,,,,リスクファイナンスキョウギカイ,0
2234,7140001127581,新規,0,2022-10-07,2022-10-07,株式会社ＭＵＳＩＣ　ＦＯＲＥＳＴ,,株式会社,兵庫県,丹波篠山市,殿町３０３番地,,28,221,6692434,,,,,,,2022-10-07,1,,,,,ミュージックフォレスト,0
2235,7140001127598,新規,0,2022-10-07,2022-10-07,株式会社陽だまり運送,,株式会社,兵庫県,伊丹市,春日丘５丁目１１番地１ラリュール１０１号,,28,207,6640893,,,,,,,2022-10-07,1,,,,,ヒダマリウンソウ,0
2236,7140001127656,新規,0,2022-10-07,2022-10-07,株式会社ＬｉＮＫ,,株式会社,兵庫県,西宮市,霞町４番１３－３０２号,,28,204,6620052,,,,,,,2022-10-07,1,,,,,リンク,0
2237,7140003018176,新規,0,2022-10-07,2022-10-07,ＭＳ企画合同会社,,合同会社,兵庫県,神戸市中央区,坂口通６丁目１－１７,,28,110,6510062,,,,,,,2022-10-07,1,,,,,エムエスキカク,0
2238,7140003018201,新規,0,2022-10-07,2022-10-07,合同会社ｇｏｏｄ　ｄａｙ,,合同会社,兵庫県,神戸市垂水区,日向２丁目２－１４,,28,108,6550893,,,,,,,2022-10-07,1,,,,,グッドデイ,0
2240,7140005026334,新規,0,2022-10-07,2022-10-07,社会保険労務士法人神戸総合マネジメント,,その他の設立登記法人,兵庫県,神戸市中央区,八幡通３丁目１番１９号,,28,110,6510085,,,,,,,2022-10-07,1,,,,,コウベソウゴウマネジメント,0
2241,7150001025859,新規,0,2022-10-07,2022-10-07,こといろ株式会社,,株式会社,奈良県,橿原市,曽我町１０１番地の１,,29,205,6340831,,,,,,,2022-10-07,1,,,,,コトイロ,0
2242,7160001024538,新規,0,2022-10-07,2022-10-07,株式会社ＯＹＯ,,株式会社,滋賀県,大津市,神領３丁目２番２６号,,25,201,5202132,,,,,,,2022-10-07,1,,,,,オーワイオー,0
2243,7160001024554,新規,0,2022-10-07,2022-10-07,株式会社おうちホーム,,株式会社,滋賀県,大津市,南志賀４丁目１５番４１号,,25,201,5200011,,,,,,,2022-10-07,1,,,,,オウチホーム,0
2245,7170001017318,新規,0,2022-10-07,2022-10-07,株式会社陽楽,,株式会社,和歌山県,西牟婁郡すさみ町,江住１３１０番地,,30,406,6493142,,,,,,,2022-10-07,1,,,,,ヒラク,0
2246,7180001153269,新規,0,2022-10-07,2022-10-07,山崎徳華商事株式会社,,株式会社,愛知県,名古屋市中村区,八社２丁目１１２－１０５,,23,105,4530863,,,,,,,2022-10-07,1,,,,,ヤマザキトクカショウジ,0
2247,7180001153277,新規,0,2022-10-07,2022-10-07,バルボア工務店株式会社,,株式会社,愛知県,名古屋市東区,徳川２丁目１１番５号,,23,102,4610025,,,,,,,2022-10-07,1,,,,,バルボアコウムテン,0
2248,7180001153285,新規,0,2022-10-07,2022-10-07,株式会社アクール,,株式会社,愛知県,名古屋市北区,金城町４丁目３４番地の６,,23,103,4620047,,,,,,,2022-10-07,1,,,,,アクール,0
2249,7180001153293,新規,0,2022-10-07,2022-10-07,株式会社Ｎｏｖｅｌ　Ｓｔａｎｄａｒｄ,,株式会社,愛知県,名古屋市名東区,代万町２丁目５番地,,23,115,4650086,,,,,,,2022-10-07,1,,,,,ノヴェルスタンダード,0
2250,7180001153302,新規,0,2022-10-07,2022-10-07,株式会社さくら建設,,株式会社,愛知県,一宮市,馬見塚字長畑２６番地１サンハイツ丹羽１０１号室,,23,203,4910874,,,,,,,2022-10-07,1,,,,,サクラケンセツ,0
2251,7180001153319,新規,0,2022-10-07,2022-10-07,株式会社ＤＳＴ,,株式会社,愛知県,名古屋市西区,児玉３丁目１番３号大野マンション２０１号,,23,104,4510066,,,,,,,2022-10-07,1,,,,,ディーエスティ,0
2252,7180001153343,新規,0,2022-10-07,2022-10-07,株式会社Ｂｉｍｏｗａ,,株式会社,愛知県,名古屋市熱田区,金山町１丁目３番２号,,23,109,4560002,,,,,,,2022-10-07,1,,,,,ビモワ,0
2253,7180001153384,新規,0,2022-10-07,2022-10-07,プレシャスクローバー株式会社,,株式会社,愛知県,名古屋市中村区,藤江町２丁目６４－１シエル中村１０２号室,,23,105,4530045,,,,,,,2022-10-07,1,,,,,プレシャスクローバー,0
2255,7180003024344,新規,0,2022-10-07,2022-10-07,合同会社ＧＹＡＯＳ,,合同会社,愛知県,名古屋市中区,新栄２丁目４１番１１号,,23,106,4600007,,,,,,,2022-10-07,1,,,,,ギャオス,0
2258,7180301036685,新規,0,2022-10-07,2022-10-07,株式会社フジ,,株式会社,愛知県,豊川市,篠束町郷中７７番地,,23,207,4410102,,,,,,,2022-10-07,1,,,,,フジ,0
2262,7190001029815,新規,0,2022-10-07,2022-10-07,株式会社１５区,,株式会社,三重県,桑名市,大字友村３９４番地,,24,205,5110938,,,,,,,2022-10-07,1,,,,,ジュウゴク,0
2263,7190001029823,新規,0,2022-10-07,2022-10-07,株式会社くろべえ,,株式会社,三重県,松阪市,立田町５４７番地,,24,204,5150026,,,,,,,2022-10-07,1,,,,,クロベエ,0
2269,7200001040522,新規,0,2022-10-07,2022-10-07,株式会社山村商店,,株式会社,岐阜県,飛騨市,古川町上町６３３番地６,,21,217,5094254,,,,,,,2022-10-07,1,,,,,ヤマムラショウテン,0
2275,7220001025083,新規,0,2022-10-07,2022-10-07,株式会社三栄エステート,,株式会社,石川県,金沢市,有松３丁目７番２６号,,17,201,9218161,,,,,,,2022-10-07,1,,,,,サンエイエステート,0
2297,7260001037315,新規,0,2022-10-07,2022-10-07,株式会社ＶＡＳＴ,,株式会社,岡山県,岡山市東区,水門町６０９番地３,,33,103,7048148,,,,,,,2022-10-07,1,,,,,バスト,0
2299,7260003004057,新規,0,2022-10-07,2022-10-07,旭リソース合同会社,,合同会社,岡山県,岡山市南区,西市４３３番地４,,33,104,7000953,,,,,,,2022-10-07,1,,,,,アサヒリソース,0
2306,7290001099162,新規,0,2022-10-07,2022-10-07,株式会社下大利ＳＥＮＳＥ,,株式会社,福岡県,大野城市,東大利２丁目５番２０号,,40,219,8160941,,,,,,,2022-10-07,1,,,,,シモオオリセンス,0
2307,7290001099170,新規,0,2022-10-07,2022-10-07,株式会社花笑み,,株式会社,福岡県,福岡市中央区,平尾２丁目５番８号６０１号室,,40,133,8100014,,,,,,,2022-10-07,1,,,,,ハナエミ,0
2310,7290003013022,新規,0,2022-10-07,2022-10-07,ノムコ合同会社,,合同会社,福岡県,福岡市中央区,天神２丁目３番１０号天神パインクレスト７１９号,,40,133,8100001,,,,,,,2022-10-07,1,,,,,ノムコ,0
2319,7330003009544,新規,0,2022-10-07,2022-10-07,合同会社ＴＭＰ,,合同会社,熊本県,菊池市,隈府６４８番地２,,43,210,8611331,,,,,,,2022-10-07,1,,,,,ティーエムピー,0
2322,7360001031019,新規,0,2022-10-07,2022-10-07,株式会社ＮＥＸＴ‐ＯＮＥ,,株式会社,沖縄県,那覇市,久茂地３丁目２６番２－２号ＮＥＸＴ－ＯＮＥ２階,,47,201,9000015,,,,,,,2022-10-07,1,,,,,ネクストワン,0
2327,7370001049118,新規,0,2022-10-07,2022-10-07,株式会社ラピスラズリ,,株式会社,宮城県,仙台市太白区,諏訪町１４番３４号,,04,104,9820005,,,,,,,2022-10-07,1,,,,,ラピスラズリ,0
2328,7370001049126,新規,0,2022-10-07,2022-10-07,株式会社Ｅｐｉｇｒａｍ,,株式会社,宮城県,仙台市青葉区,中山８丁目２９番２６号,,04,101,9810952,,,,,,,2022-10-07,1,,,,,エピグラム,0
2329,7370003005861,新規,0,2022-10-07,2022-10-07,合同会社ｆｉｇｕｒｅＴｏａｓｔｅｒ,,合同会社,宮城県,仙台市青葉区,本町１丁目５番２８号カーニープレイス仙台駅前通６０３号室,,04,101,9800014,,,,,,,2022-10-07,1,,,,,フィギュアトースター,0
2335,7380001033161,新規,0,2022-10-07,2022-10-07,Ｓｐｒｉｎｇ　ｗｏｒｋｓ株式会社,,株式会社,福島県,西白河郡泉崎村,大字北平山字新田原３４番地１,,07,464,9690103,,,,,,,2022-10-07,1,,,,,スプリングワークス,0
2340,7400001016015,新規,0,2022-10-07,2022-10-07,株式会社ホットスタッフ岩手,,株式会社,岩手県,北上市,大通り１丁目８番２１号,,03,206,0240061,,,,,,,2022-10-07,1,,,,,ホットスタッフイワテ,0
2342,7410001013300,新規,0,2022-10-07,2022-10-07,ローカルクエスト株式会社,,株式会社,秋田県,秋田市,雄和椿川字石坂上３２－４３,,05,201,0101211,,,,,,,2022-10-07,1,,,,,ローカルクエスト,0
2347,7430001087607,新規,0,2022-10-07,2022-10-07,ＺＰ８６株式会社,,株式会社,北海道,勇払郡厚真町,新町９５－２７,,01,581,0591623,,,,,,,2022-10-07,1,,,,,ゼットピーエーティーシクス,0
2349,7440001009163,新規,0,2022-10-07,2022-10-07,株式会社イグノランス,,株式会社,北海道,函館市,上野町３６番１２号,,01,202,0420954,,,,,,,2022-10-07,1,,,,,イグノランス,0
2352,7450003002256,新規,0,2022-10-07,2022-10-07,合同会社フジライフ,,合同会社,北海道,旭川市,忠和六条４丁目１番２号,,01,204,0708046,,,,,,,2022-10-07,1,,,,,フジライフ,0
2359,7500003002903,新規,0,2022-10-07,2022-10-07,コノノン合同会社,,合同会社,愛媛県,松山市,三番町５丁目９番地１－８０１,,38,201,7900003,,,,,,,2022-10-07,1,,,,,コノノン,0
2363,7700150111115,新規,0,2022-10-07,2022-10-07,Ｗｅｓｔｅｒｎ　Ｄｉｇｉｔａｌ　Ｔｅｃｈｎｏｌｏｇｉｅｓ，Ｉｎｃ．,,外国会社等,,,,,,,,５６０１　Ｇｒｅａｔ　Ｏａｋｓ　Ｐａｒｋｗａｙ，Ｓａｎ　Ｊｏｓｅ，ＣＡ　９５１１９，ＵＳＡ,,,,,,2022-10-07,1,,,,,ウエスタンデジタルテクノロジーズインク,0
2364,7700150112088,新規,0,2022-10-07,2022-10-07,ＨＯＴＥＬ１０１ＪＡＰＡＮ　ＴＷＯ　ＰＴＥ．ＬＴＤ．,,外国会社等,東京都,千代田区,霞が関３丁目２番５号,,13,101,1000013,シンガーポール共和国０１８９８９ワンマリーナブルーバード２８－００マリーナブルーバード１,,,,,,2022-10-07,1,,,,,ホテルワンオーワンジヤパンツーピーテイーイーエルテイーデイー,0
2365,7700150112096,新規,0,2022-10-07,2022-10-07,ＥＸＣＥＬ　ＡＤＶＡＮＣＥ　ＩＮＶＥＳＴＭＥＮＴＳ　ＬＴＤ,,外国会社等,東京都,北区,赤羽２丁目７－１,,13,117,1150045,Ｖｉｓｔｒａ　Ｃｏｒｐｏｒａｔｅ　Ｓｅｒｖｉｃｅｓ　Ｃｅｎｔｒｅ，Ｗｉｃｋｈａｍｓ　Ｃａｙ　ＩＩ，Ｒｏａｄ　Ｔｏｗｎ，Ｔｏｒｔｏｌａ，ＶＧ１１１０，Ｂｒｉｔｉｓｈ　Ｖｉｒｇｉｎ　Ｉｓｌａｎｄｓ,00128044,,,,,2022-10-07,1,,,,,エクセルアドバンスインベストメントリミテツド,0
2374,8010001229893,新規,0,2022-10-07,2022-10-07,株式会社ＳＹコネクト,,株式会社,東京都,中央区,京橋２丁目２－１京橋エドグラン２６階,,13,102,1040031,,,,,,,2022-10-07,1,,,,,エスワイコネクト,0
2375,8010001229976,新規,0,2022-10-07,2022-10-07,ＨＭＩホテルリートマネジメント株式会社,,株式会社,東京都,中央区,日本橋小網町６番１号,,13,102,1030016,,,,,,,2022-10-07,1,,,,,エイチエムアイホテルリートマネジメント,0
2376,8010001229992,新規,0,2022-10-07,2022-10-07,株式会社杓谷総合研究所,,株式会社,東京都,千代田区,麹町３丁目１０番２号,,13,101,1020083,,,,,,,2022-10-07,1,,,,,シャクヤソウゴウケンキュウジョ,0
2377,8010001230001,新規,0,2022-10-07,2022-10-07,株式会社Ｈｉｔ　ＣＰＡ　Ｆｉｒｍ,,株式会社,東京都,千代田区,神田猿楽町２丁目８番１１号ＶＯＲＴ水道橋ＩＩＩ８０８,00128052,13,101,1010064,,,,,,,2022-10-07,1,,,,,ヒットシーピーエーファーム,0
2380,8010003038830,新規,0,2022-10-07,2022-10-07,セブンシーズ合同会社,,合同会社,東京都,中央区,日本橋堀留町１丁目１０番１号カクタビル２Ｆ,,13,102,1030012,,,,,,,2022-10-07,1,,,,,セブンシーズ,0
2381,8010005035628,新規,0,2022-10-07,2022-10-07,一般社団法人てくてく,,その他の設立登記法人,東京都,中央区,銀座１丁目１２番４号Ｎ＆ＥＢＬＤ．６Ｆ,,13,102,1040061,,,,,,,2022-10-07,1,,,,,テクテク,0
2382,8010101015351,新規,0,2022-10-07,2022-10-07,ＴＴ株式会社,,株式会社,東京都,八王子市,小比企町１６９２番地１８２,,13,201,1930934,,,,,,,2022-10-07,1,,,,,ティーティー,0
2386,8010401170103,新規,0,2022-10-07,2022-10-07,明徳株式会社,,株式会社,東京都,港区,芝浦１丁目６番４１－３０２４号,,13,103,1050023,,,,,,,2022-10-07,1,,,,,メイトク,0
2387,8010401170111,新規,0,2022-10-07,2022-10-07,ＷｉｔｈＦｕｎスペース株式会社,,株式会社,東京都,港区,六本木３丁目１５番１１号ホーマットウエスト４４０,,13,103,1060032,,,,,,,2022-10-07,1,,,,,ウィズファンスペース,0
2388,8010401170144,新規,0,2022-10-07,2022-10-07,株式会社澤信商事,,株式会社,東京都,港区,新橋２丁目１６番１号ニュー新橋ビル７０２,,13,103,1050004,,,,,,,2022-10-07,1,,,,,サワシンショウジ,0
2389,8010401170177,新規,0,2022-10-07,2022-10-07,株式会社Ｔｒｅｉａｎｇｌｅ,,株式会社,東京都,港区,麻布台３丁目５－５飯倉ヒルズ８０５,,13,103,1060041,,,,,,,2022-10-07,1,,,,,トライアングル,0
2390,8010403028638,新規,0,2022-10-07,2022-10-07,合同会社栃の木,,合同会社,東京都,港区,南青山４丁目１番６号,,13,103,1070062,,,,,,,2022-10-07,1,,,,,トチノキ,0
2391,8010403028646,新規,0,2022-10-07,2022-10-07,ＧｒｉｄＢｅｙｏｎｄ合同会社,,合同会社,東京都,港区,元麻布３丁目１番６号,,13,103,1060046,,,,,,,2022-10-07,1,,,,,グリッドビヨンド,0
2392,8010403028654,新規,0,2022-10-07,2022-10-07,合同会社Ｃａｌｌａ　ｌｉｌｙ,,合同会社,東京都,港区,浜松町２丁目２番１５号浜松町ダイヤビル２Ｆ,,13,103,1050013,,,,,,,2022-10-07,1,,,,,カラーリリー,0
2393,8010403028662,新規,0,2022-10-07,2022-10-07,湾岸ソーラー合同会社,,合同会社,東京都,港区,港南４丁目６番５－３１０３号,,13,103,1080075,,,,,,,2022-10-07,1,,,,,ワンガンソーラー,0
2397,8010501049453,新規,0,2022-10-07,2022-10-07,ＴＳ　Ｔｏｋｙｏ株式会社,,株式会社,東京都,台東区,台東１丁目３２番６号小島ビル４０２号室,,13,106,1100016,,,,,,,2022-10-07,1,,,,,ティーエストウキョウ,0
2404,8010601061960,新規,0,2022-10-07,2022-10-07,躍然株式会社,,株式会社,東京都,江東区,東砂５丁目５番６号Ｋビル２０７,,13,108,1360074,,,,,,,2022-10-07,1,,,,,ヤクネン,0
2408,8010701043306,新規,0,2022-10-07,2022-10-07,株式会社Ｍａｌｌｏｗ,,株式会社,東京都,品川区,南品川４丁目４番１７号品川サウスタワー,,13,109,1400004,,,,,,,2022-10-07,1,,,,,マロウ,0
2409,8010701043314,新規,0,2022-10-07,2022-10-07,株式会社ティーダジャパン,,株式会社,東京都,品川区,東大井６丁目２番２０号小島マンション７０１,,13,109,1400011,,,,,,,2022-10-07,1,,,,,ティーダジャパン,0
2411,8010803004305,新規,0,2022-10-07,2022-10-07,砂真工業合同会社,,合同会社,東京都,大田区,大森東５丁目１０－２０福本ダイヤビル３０３,,13,111,1430012,,,,,,,2022-10-07,1,,,,,スナマコウギョウ,0
2419,8011001150148,新規,0,2022-10-07,2022-10-07,株式会社Ｔ２アーキテクト,,株式会社,東京都,渋谷区,渋谷２丁目１９番１５号宮益坂ビルディング６０９,,13,113,1500002,,,,,,,2022-10-07,1,,,,,ティーツーアーキテクト,0
2420,8011001150156,新規,0,2022-10-07,2022-10-07,プレグビー株式会社,,株式会社,東京都,渋谷区,渋谷２丁目１９番１５号宮益坂ビルディング６０９,,13,113,1500002,,,,,,,2022-10-07,1,,,,,プレグビー,0
2421,8011001150197,新規,0,2022-10-07,2022-10-07,株式会社トイビー,,株式会社,東京都,渋谷区,道玄坂１丁目１６番３号,,13,113,1500043,,,,,,,2022-10-07,1,,,,,トイビー,0
2425,8011005009761,新規,0,2022-10-07,2022-10-07,特定非営利活動法人あざれあ,,その他の設立登記法人,東京都,目黒区,柿の木坂１丁目１７番９－３０３号シャンボール柿の木坂,,13,110,1520022,,,,,,,2022-10-07,1,,,,,アザレア,0
2432,8011101100416,新規,0,2022-10-07,2022-10-07,ティーエンジニアリング株式会社,,株式会社,東京都,新宿区,市谷田町３丁目８市ヶ谷科学技術イノベーションセンタービル２Ｆ,,13,104,1620843,,,,,,,2022-10-07,1,,,,,ティーエンジニアリング,0
2433,8011101100424,新規,0,2022-10-07,2022-10-07,株式会社Ｏｆｆｉｃｅ　Ｍ＆Ｐ,,株式会社,東京都,新宿区,新宿４丁目３番１５号,,13,104,1600022,,,,,,,2022-10-07,1,,,,,オフィスエムアンドピー,0
2434,8011101100432,新規,0,2022-10-07,2022-10-07,株式会社ＫＯＬＭ,,株式会社,東京都,新宿区,西新宿３丁目３番１３号西新宿水間ビル２Ｆ,,13,104,1600023,,,,,,,2022-10-07,1,,,,,コルム,0
2437,8011205002517,新規,0,2022-10-07,2022-10-07,ＭＴ‐Ｔｒｕｓｔ税理士法人,,その他の設立登記法人,東京都,中野区,中野３丁目３６番１３号サトービル３階,,13,114,1640001,,,,,,,2022-10-07,1,,,,,エムティートラスト,0
2438,8011303004539,新規,0,2022-10-07,2022-10-07,海１００合同会社,,合同会社,東京都,杉並区,西荻南４丁目３１番１１号サークルキューブ西荻南３０３号室,,13,115,1670053,,,,,,,2022-10-07,1,,,,,ウミヒャク,0
2439,8011401024587,新規,0,2022-10-07,2022-10-07,プラス・スタイル株式会社,,株式会社,東京都,板橋区,前野町５丁目５１番２号,,13,119,1740063,,,,,,,2022-10-07,1,,,,,プラススタイル,0
2446,8011801041372,新規,0,2022-10-07,2022-10-07,株式会社ＥＸＴＯＲＩＤＥ,,株式会社,東京都,葛飾区,新宿２丁目１６番３号Ｖｉｌｌｏｇｇｉｏ１０１,,13,122,1250051,,,,,,,2022-10-07,1,,,,,エクストライド,0
2448,8011803005301,新規,0,2022-10-07,2022-10-07,合同会社矢作商事,,合同会社,東京都,葛飾区,亀有３丁目１５番８号,,13,122,1250061,,,,,,,2022-10-07,1,,,,,ヤハギショウジ,0
2451,8012403005617,新規,0,2022-10-07,2022-10-07,合同会社ＳｉｚｚｌｅＬａｂ,,合同会社,東京都,多摩市,貝取１丁目５６番地の３,,13,224,2060012,,,,,,,2022-10-07,1,,,,,シズルラボ,0
2452,8012701017289,新規,0,2022-10-07,2022-10-07,株式会社一誠工務店,,株式会社,東京都,東村山市,栄町２丁目１０番地３３,,13,213,1890013,,,,,,,2022-10-07,1,,,,,イチセイコウムテン,0
2455,8012801021884,新規,0,2022-10-07,2022-10-07,ＴｏｋｙｏＢｕｓｉｎｅｓｓＡｓｓｏｃｉａｔｉｏｎ株式会社,,株式会社,東京都,武蔵村山市,大南１丁目１０８－８,,13,223,2080013,,,,,,,2022-10-07,1,,,,,トウキョービジネスアソシエーション,0
2463,8020001148424,新規,0,2022-10-07,2022-10-07,ゼネラルシムスサービス株式会社,,株式会社,神奈川県,横浜市西区,浅間町１丁目７－１,,14,103,2200072,,,,,,,2022-10-07,1,,,,,ゼネラルシムスサービス,0
2464,8020001148432,新規,0,2022-10-07,2022-10-07,株式会社ｈａｙ,,株式会社,神奈川県,横浜市神奈川区,鶴屋町３丁目３０番地５,,14,102,2210835,,,,,,,2022-10-07,1,,,,,ハイ,0
2465,8020001148440,新規,0,2022-10-07,2022-10-07,株式会社ＬＢＨ,,株式会社,神奈川県,川崎市高津区,末長３丁目２番７号ベリスタ溝の口６１２,,14,134,2130013,,,,,,,2022-10-07,1,,,,,エルビーエイチ,0
2466,8020001148449,新規,0,2022-10-07,2022-10-07,株式会社紅葉堂長倉屋書店,,株式会社,神奈川県,横浜市中区,曙町４丁目５６番地,,14,104,2310057,,,,,,,2022-10-07,1,,,,,コウヨウドウナガクラヤショテン,0
2467,8020001148457,新規,0,2022-10-07,2022-10-07,株式会社ＭＨＳ,,株式会社,神奈川県,横浜市西区,みなとみらい４丁目９番１－Ａ２４０５号,,14,103,2200012,,,,,,,2022-10-07,1,,,,,エムエイチエス,0
2468,8020001148515,新規,0,2022-10-07,2022-10-07,株式会社ベースアップ,,株式会社,神奈川県,横浜市西区,みなとみらい３丁目７番１号,,14,103,2200012,,,,,,,2022-10-07,1,,,,,ベースアップ,0
2469,8020001148531,新規,0,2022-10-07,2022-10-07,株式会社ｒｇｆ,,株式会社,神奈川県,横浜市青葉区,美しが丘２丁目１番地１２,,14,117,2250002,,,,,,,2022-10-07,1,,,,,アールジーエフ,0
2472,8020003022511,新規,0,2022-10-07,2022-10-07,人材キャリアナビ合同会社,,合同会社,神奈川県,横浜市保土ケ谷区,瀬戸ケ谷町８番地７,,14,106,2400024,,,,,,,2022-10-07,1,,,,,ジンザイキャリアナビ,0
2477,8021001077126,新規,0,2022-10-07,2022-10-07,ＴＺ株式会社,,株式会社,神奈川県,大和市,柳橋４丁目２番１４号,,14,213,2420022,,,,,,,2022-10-07,1,,,,,ティーゼット,0
2480,8021003012205,新規,0,2022-10-07,2022-10-07,合同会社カリフ,,合同会社,神奈川県,茅ヶ崎市,今宿７４９番地２１,,14,207,2530072,,,,,,,2022-10-07,1,,,,,カリフ,0
2481,8021003012221,新規,0,2022-10-07,2022-10-07,合同会社マイクス,,合同会社,神奈川県,鎌倉市,寺分３丁目３０番７号,,14,204,2470064,,,,,,,2022-10-07,1,,,,,マイクス,0
2486,8030001150346,新規,0,2022-10-07,2022-10-07,株式会社Ｐｈｉｌｏｓ　Ｆａｍｉｌｙ,,株式会社,埼玉県,上尾市,春日１丁目２番１７号エビデンス上尾３０３,,11,219,3620074,,,,,,,2022-10-07,1,,,,,フィロスファミリー,0
2487,8030001150370,新規,0,2022-10-07,2022-10-07,フランス健康トータルサービス株式会社,,株式会社,埼玉県,さいたま市北区,宮原町３丁目３０７番地,,11,102,3310812,,,,,,,2022-10-07,1,,,,,フランスケンコウトータルサービス,0
2488,8030001150420,新規,0,2022-10-07,2022-10-07,株式会社井田自動車工業,,株式会社,埼玉県,行田市,大字谷郷２４９３番地,,11,206,3610062,,,,,,,2022-10-07,1,,,,,イダジドウシャコウギョウ,0
2489,8030001150437,新規,0,2022-10-07,2022-10-07,株式会社あしばや三組,,株式会社,埼玉県,富士見市,大字鶴馬２６０９番地２（８０１）,,11,235,3540021,,,,,,,2022-10-07,1,,,,,アシバヤサンクミ,0
2490,8030001150445,新規,0,2022-10-07,2022-10-07,ＮＥＸＴ‐Ｘ株式会社,,株式会社,埼玉県,さいたま市大宮区,堀の内町３丁目４７番地２５,,11,103,3300804,,,,,,,2022-10-07,1,,,,,ネクストエックス,0
2491,8030003020308,新規,0,2022-10-07,2022-10-07,三和合同会社,,合同会社,埼玉県,越谷市,神明町１丁目１３２－１ラ・ルミエールＢ２０１号室,,11,222,3430805,,,,,,,2022-10-07,1,,,,,サンワ,0
2492,8030003020332,新規,0,2022-10-07,2022-10-07,合同会社さつき企画,,合同会社,埼玉県,三郷市,さつき平１丁目５番２－１０４号,,11,237,3410021,,,,,,,2022-10-07,1,,,,,サツキキカク,0
2493,8030003020340,新規,0,2022-10-07,2022-10-07,合同会社一栄,,合同会社,埼玉県,草加市,花栗１丁目６番５－３２２号,,11,221,3400044,,,,,,,2022-10-07,1,,,,,イチエイ,0
2500,8040001125330,新規,0,2022-10-07,2022-10-07,株式会社アムラス,,株式会社,千葉県,市原市,姉崎２４０８番地２,,12,219,2990111,,,,,,,2022-10-07,1,,,,,アムラス,0
2501,8040001125347,新規,0,2022-10-07,2022-10-07,株式会社ＳＫコーポレーション,,株式会社,千葉県,船橋市,習志野台３丁目１８番１７号,,12,204,2740063,,,,,,,2022-10-07,1,,,,,エスケイコーポレーション,0
2503,8040003020959,新規,0,2022-10-07,2022-10-07,合同会社Ｓｕｎｎｙ　Ｒｏｓｅ,,合同会社,千葉県,富里市,七栄６４６番地３３,,12,233,2860221,,,,,,,2022-10-07,1,,,,,サニーローズ,0
2504,8040003020983,新規,0,2022-10-07,2022-10-07,合同会社金綱工業,,合同会社,千葉県,いすみ市,岬町椎木６９５番地,,12,238,2994501,,,,,,,2022-10-07,1,,,,,カネツナコウギョウ,0
2505,8040005021749,新規,0,2022-10-07,2022-10-07,一般社団法人グローバル体験スタジオ,,その他の設立登記法人,千葉県,浦安市,今川２丁目２番３０号,,12,227,2790022,,,,,,,2022-10-07,1,,,,,グローバルタイケンスタジオ,0
2511,8050001051781,新規,0,2022-10-07,2022-10-07,株式会社東峯,,株式会社,茨城県,鉾田市,汲上２６２６番地２,,08,234,3112103,,,,,,,2022-10-07,1,,,,,トウミネ,0
2515,8060001035338,新規,0,2022-10-07,2022-10-07,株式会社信和,,株式会社,栃木県,那須烏山市,田野倉８番地１,,09,215,3210526,,,,,,,2022-10-07,1,,,,,シンワ,0
2517,8070001039684,新規,0,2022-10-07,2022-10-07,株式会社Ｉｒｉｓｅ,,株式会社,群馬県,前橋市,下大島町１０５２番地１,,10,201,3792152,,,,,,,2022-10-07,1,,,,,イリゼ,0
2518,8070001039718,新規,0,2022-10-07,2022-10-07,株式会社イノバン,,株式会社,群馬県,前橋市,馬場町２９４番地８,,10,201,3710242,,,,,,,2022-10-07,1,,,,,イノバン,0
2520,8070003004645,新規,0,2022-10-07,2022-10-07,合同会社瓦人堂,,合同会社,群馬県,渋川市,渋川８９８番地５０,,10,208,3770008,,,,,,,2022-10-07,1,,,,,ガジンドウ,0
2523,8080401026091,新規,0,2022-10-07,2022-10-07,宗和電工株式会社,,株式会社,静岡県,浜松市中区,高丘北３丁目２４番５号,,22,131,4338119,,,,,,,2022-10-07,1,,,,,ソウワデンコウ,0
2527,8100001035738,新規,0,2022-10-07,2022-10-07,株式会社２８,,株式会社,長野県,長野市,上千歳町１３５２番地５カサイライフビル１Ｆ,,20,201,3810000,,,,,,,2022-10-07,1,,,,,ニハチ,0
2530,8100003006712,新規,0,2022-10-07,2022-10-07,合同会社ヒカリ,,合同会社,長野県,北佐久郡軽井沢町,大字軽井沢１０５２番地７７８,,20,321,3890102,,,,,,,2022-10-07,1,,,,,ヒカリ,0
2543,8120001249105,新規,0,2022-10-07,2022-10-07,ＭＩＲＡＫＵＲＵ株式会社,,株式会社,大阪府,大阪市中央区,南船場１丁目６－１４サンシャイン南船場３０１,,27,128,5420081,,,,,,,2022-10-07,1,,,,,ミラクル,0
2544,8120001249336,新規,0,2022-10-07,2022-10-07,株式会社仲村組,,株式会社,大阪府,大阪市大正区,南恩加島６丁目１２番１号,,27,108,5510021,,,,,,,2022-10-07,1,,,,,ナカムラグミ,0
2545,8120001249369,新規,0,2022-10-07,2022-10-07,株式会社ＵＴＶ,,株式会社,大阪府,大阪市淀川区,十八条１丁目１番３２－２１７号,,27,123,5320001,,,,,,,2022-10-07,1,,,,,ユーティーブイ,0
2546,8120001249385,新規,0,2022-10-07,2022-10-07,マルニクラフツ株式会社,,株式会社,大阪府,大阪市淀川区,十八条１丁目１番３２－４０７号,,27,123,5320001,,,,,,,2022-10-07,1,,,,,マルニクラフツ,0
2547,8120003022609,新規,0,2022-10-07,2022-10-07,プレリ合同会社,,合同会社,大阪府,大阪市生野区,巽北１丁目１９番１５号,00128055,27,116,5440004,,,,,,,2022-10-07,1,,,,,プレリ,0
2548,8120101066301,新規,0,2022-10-07,2022-10-07,株式会社ヨシヒラハウジング,,株式会社,大阪府,羽曳野市,南恵我之荘１丁目５番１８号,,27,222,5830885,,,,,,,2022-10-07,1,,,,,ヨシヒラハウジング,0
2560,8130003008227,新規,0,2022-10-07,2022-10-07,Ａｒｔｓ　ＰＬＡＮ　ＤＵ合同会社,,合同会社,京都府,京都市左京区,松ケ崎桜木町２３番地２,,26,103,6060902,,,,,,,2022-10-07,1,,,,,アーツプランドゥ,0
2564,8140001127572,新規,0,2022-10-07,2022-10-07,ＣＲＥＮＴＳ　ＴＡＫＡＯホールディングス株式会社,,株式会社,兵庫県,尼崎市,南塚口町２丁目１番１号,,28,202,6610012,,,,,,,2022-10-07,1,,,,,クレンツタカオホールディングス,0
2565,8140001127622,新規,0,2022-10-07,2022-10-07,株式会社Ｄａｎｄｅｌｉｏｎ,,株式会社,兵庫県,西宮市,甲子園口４丁目７－４,,28,204,6638113,,,,,,,2022-10-07,1,,,,,ダンデライオン,0
2567,8140003018200,新規,0,2022-10-07,2022-10-07,合同会社ピエタ,,合同会社,兵庫県,姫路市,飾磨区城南町１丁目３７番地４,,28,201,6728083,,,,,,,2022-10-07,1,,,,,ピエタ,0
2571,8150001025858,新規,0,2022-10-07,2022-10-07,株式会社グレイスウィル,,株式会社,奈良県,奈良市,油阪町１番地の６１奥田ビル４階,,29,201,6308247,,,,,,,2022-10-07,1,,,,,グレイスウィル,0
2574,8160001024553,新規,0,2022-10-07,2022-10-07,株式会社Ｍｉｏ,,株式会社,滋賀県,草津市,笠山１丁目７番３７－４号,,25,206,5250072,,,,,,,2022-10-07,1,,,,,ミオ,0
2575,8160001024561,新規,0,2022-10-07,2022-10-07,なごみエンジニアリング株式会社,,株式会社,滋賀県,草津市,橋岡町９３番地１０,,25,206,5250065,,,,,,,2022-10-07,1,,,,,ナゴミエンジニアリング,0
2576,8160005011127,新規,0,2022-10-07,2022-10-07,医療法人オクムラフォレストールクリニック,,その他の設立登記法人,滋賀県,大津市,松原町１４番１９号,,25,201,5200831,,,,,,,2022-10-07,1,,,,,オクムラフォレストールクリニック,0
2577,8170001017309,新規,0,2022-10-07,2022-10-07,株式会社南紀養鰻,,株式会社,和歌山県,西牟婁郡すさみ町,口和深２８７番地,,30,406,6492612,,,,,,,2022-10-07,1,,,,,ナンキヨウマン,0
2580,8180001153301,新規,0,2022-10-07,2022-10-07,株式会社ＡＲＫ,,株式会社,愛知県,名古屋市千種区,東千種台１番６号,,23,101,4640001,,,,,,,2022-10-07,1,,,,,アーク,0
2581,8180001153318,新規,0,2022-10-07,2022-10-07,株式会社ＦＯＮＴＡＮＡ,,株式会社,愛知県,稲沢市,駅前２丁目２４番２４号,,23,220,4928143,,,,,,,2022-10-07,1,,,,,フォンターナ,0
2582,8180001153342,新規,0,2022-10-07,2022-10-07,株式会社エブリデイ,,株式会社,愛知県,東海市,大田町神宮前２５７番地の２,,23,222,4770031,,,,,,,2022-10-07,1,,,,,エブリデイ,0
2583,8180001153359,新規,0,2022-10-07,2022-10-07,株式会社グリーンプロダクト,,株式会社,愛知県,名古屋市東区,泉２丁目２６番１０号,,23,102,4610001,,,,,,,2022-10-07,1,,,,,グリーンプロダクト,0
2588,8180003024327,新規,0,2022-10-07,2022-10-07,合同会社Ａ．Ｉ．Ｗ,,合同会社,愛知県,名古屋市名東区,高針原２丁目１１０２番地（アップルコート１０２号）,,23,115,4650073,,,,,,,2022-10-07,1,,,,,エーアイダブリュー,0
2589,8180003024343,新規,0,2022-10-07,2022-10-07,合同会社ジェイサップス,,合同会社,愛知県,稲沢市,奥田町城戸切６５７９番地１,,23,220,4928233,,,,,,,2022-10-07,1,,,,,ジェイサップス,0
2590,8180005019952,新規,0,2022-10-07,2022-10-07,特定非営利活動法人ＨＡＰＰＹ　ＰＬＡＮＥＴ,,その他の設立登記法人,愛知県,名古屋市中村区,那古野１丁目４４番１７号嶋田ビル２０３室,,23,105,4500001,,,,,,,2022-10-07,1,,,,,ハッピープラネット,0
2591,8180005019960,新規,0,2022-10-07,2022-10-07,一般社団法人ｇｒａｓｓｒｏｏｔｓ,,その他の設立登記法人,愛知県,名古屋市千種区,千種３丁目１７番１９号グレイス千種１０２号,,23,101,4640858,,,,,,,2022-10-07,1,,,,,グラスルーツ,0
2595,8190001029814,新規,0,2022-10-07,2022-10-07,株式会社太平グループ,,株式会社,三重県,鈴鹿市,庄野町６番１３号,,24,207,5130831,,,,,,,2022-10-07,1,,,,,タイヘイグループ,0
2599,8190005011743,新規,0,2022-10-07,2022-10-07,ネクストウィル協同組合,,その他の設立登記法人,三重県,四日市市,諏訪栄町１番８号,,24,202,5100086,,,,,,,2022-10-07,1,,,,,ネクストウィル,0
2602,8200001040521,新規,0,2022-10-07,2022-10-07,ＳＵＮＳＥＴ　ＳＴＲＩＰ　ＭＯＴＯＲＺ株式会社,,株式会社,岐阜県,揖斐郡大野町,大字稲畑５１番地１,,21,403,5010511,,,,,,,2022-10-07,1,,,,,サンセットストリップモーターズ,0
2612,8240001060482,新規,0,2022-10-07,2022-10-07,株式会社かね千代不動産,,株式会社,広島県,広島市中区,南竹屋町９番２０－６０２号,,34,101,7300049,,,,,,,2022-10-07,1,,,,,カネチヨフドウサン,0
2617,8250001019791,新規,0,2022-10-07,2022-10-07,木村設備株式会社,,株式会社,山口県,下関市,大学町５丁目１０番５２号,,35,201,7510831,,,,,,,2022-10-07,1,,,,,キムラセツビ,0
2621,8260003004031,新規,0,2022-10-07,2022-10-07,合同会社エーライブ,,合同会社,岡山県,総社市,溝口１５２アルソーレＢ１０６,,33,208,7191135,,,,,,,2022-10-07,1,,,,,エーライブ,0
2629,8290001099161,新規,0,2022-10-07,2022-10-07,株式会社八郎丸,,株式会社,福岡県,福岡市早良区,原６丁目１７番１４号,,40,137,8140022,,,,,,,2022-10-07,1,,,,,ハチロウマル,0
2630,8290003013038,新規,0,2022-10-07,2022-10-07,Ｊａｐａｎ　Ｃａｐｉｔａｌ　Ｖｅｎｔｕｒｅｓ合同会社,,合同会社,福岡県,福岡市中央区,六本松２丁目１２番８－６０６号,,40,133,8100044,,,,,,,2022-10-07,1,,,,,ジャパンキャピタルヴェンチャーズ,0
2638,8330001030187,新規,0,2022-10-07,2022-10-07,株式会社フロント,,株式会社,熊本県,熊本市北区,楡木３丁目１番２３－５０６号レクシアグランヒルズ楠中央通り,,43,105,8618083,,,,,,,2022-10-07,1,,,,,フロント,0
2640,8340001025087,新規,0,2022-10-07,2022-10-07,株式会社松陸Ａｕｔｏ,,株式会社,鹿児島県,薩摩川内市,樋脇町塔之原９２４番地,,46,215,8951202,,,,,,,2022-10-07,1,,,,,マツリクオート,0
2643,8360003012338,新規,0,2022-10-07,2022-10-07,合同会社元,,合同会社,沖縄県,那覇市,松川３丁目１８－３５ＦＬＡＴＳ松川３０１号室,,47,201,9020062,,,,,,,2022-10-07,1,,,,,ゲン,0
2644,8370001049117,新規,0,2022-10-07,2022-10-07,株式会社Ａｄｄ‐Ｂｉｚ,,株式会社,宮城県,仙台市宮城野区,白鳥２丁目２７番１３号,,04,102,9830006,,,,,,,2022-10-07,1,,,,,アッドビズ,0
2645,8370001049125,新規,0,2022-10-07,2022-10-07,株式会社ナスキーキャリア,,株式会社,宮城県,仙台市宮城野区,榴岡３丁目１０番７号サンライン第６６ビル７階Ａ号室,,04,102,9830852,,,,,,,2022-10-07,1,,,,,ナスキーキャリア,0
2646,8370001049133,新規,0,2022-10-07,2022-10-07,Ｐ‐ｔｅｃｈ株式会社,,株式会社,宮城県,宮城郡利府町,しらかし台２丁目２番地３,,04,406,9810134,,,,,,,2022-10-07,1,,,,,ピーテック,0
2650,8380001033169,新規,0,2022-10-07,2022-10-07,株式会社ＬＩＦＥ　ＳＭＩＬＥ,,株式会社,福島県,南相馬市,原町区大木戸字松島２１７番地,,07,212,9750061,,,,,,,2022-10-07,1,,,,,ライフスマイル,0
2651,8410001013299,新規,0,2022-10-07,2022-10-07,株式会社プレゾン,,株式会社,秋田県,秋田市,山王７丁目５番３４号,,05,201,0100951,,,,,,,2022-10-07,1,,,,,プレゾン,0
2657,8430001087580,新規,0,2022-10-07,2022-10-07,株式会社ローリエ,,株式会社,北海道,札幌市西区,琴似三条７丁目３番２１号リージェントテラス１０３号室,,01,107,0630813,,,,,,,2022-10-07,1,,,,,ローリエ,0
2658,8430001087597,新規,0,2022-10-07,2022-10-07,株式会社コイケチャンネル,,株式会社,北海道,札幌市中央区,南一条西１６丁目１番地３２３春野ビル３Ｆ,,01,101,0600061,,,,,,,2022-10-07,1,,,,,コイケチャンネル,0
2659,8430001087606,新規,0,2022-10-07,2022-10-07,株式会社ＲＭＫ,,株式会社,北海道,札幌市北区,新琴似四条１丁目４番５号,,01,102,0010904,,,,,,,2022-10-07,1,,,,,アールエムケー,0
2660,8430001087614,新規,0,2022-10-07,2022-10-07,株式会社セレモニー丸田,,株式会社,北海道,江別市,上江別東町２番地の１８,,01,217,0670061,,,,,,,2022-10-07,1,,,,,セレモニーマルタ,0
2661,8430001087622,新規,0,2022-10-07,2022-10-07,株式会社ハチヤカンパニー,,株式会社,北海道,札幌市豊平区,月寒東二条２０丁目２番２３号,,01,105,0620052,,,,,,,2022-10-07,1,,,,,ハチヤカンパニー,0
2664,8430003014327,新規,0,2022-10-07,2022-10-07,合同会社ＥＮＯＺＥ,,合同会社,北海道,虻田郡倶知安町,北一条西１丁目１６番地１,,01,400,0440051,,,,,,,2022-10-07,1,,,,,エノゼ,0
2669,8500001024527,新規,0,2022-10-07,2022-10-07,株式会社ＣＬＯＵＤ　ＦＡＮＴＡＳＹ,,株式会社,愛媛県,松山市,湊町３丁目３番地８－２Ｆ,,38,201,7900012,,,,,,,2022-10-07,1,,,,,クラウドファンタジー,0
2673,8700150111205,新規,0,2022-10-07,2022-08-12,湯田温泉花火大会実行委員会,,その他,山口県,山口市,湯田温泉６丁目６－５３,,35,203,7530056,,,,,,,2022-08-12,1,,,,,ユダオンセンハナビタイカイジツコウイインカイ,0
2674,8700150112087,新規,0,2022-10-07,2022-10-07,ＮＡＳＨＡＮ　ＮＩＰＰＯＮ　ＥＮＴＥＲＰＲＩＳＥＳ,,外国会社等,千葉県,大網白里市,南飯塚２４５－３－１,,12,239,2993219,スリランカ民主社会主義共和国、カドゥガナワ、クルクタタラ、Ｎｏ．５７／Ｂ,,,,,,2022-10-07,1,,,,,ナシヤンニツポンエンタープライセス,0
2675,8700150112095,新規,0,2022-10-07,2022-10-07,Ｓａｇａｒ　Ｓｈｏｐｐｉｎｇ　Ｃｅｎｔｅｒ,,外国会社等,東京都,中野区,江古田４丁目５－６メゾンドロンジェ１０７,,13,114,1650022,ネパール国バンケ郡ネパールガンザサブメトロポリタンシティー第２区ネパールガンザ,,,,,,2022-10-07,1,,,,,サガルシヨツピングセンター,0
2679,9010001229942,新規,0,2022-10-07,2022-10-07,株式会社リプルツーリスト,,株式会社,東京都,千代田区,神田三崎町３丁目１０番２２号９階,,13,101,1010061,,,,,,,2022-10-07,1,,,,,リプルツーリスト,0
2680,9010001229959,新規,0,2022-10-07,2022-10-07,株式会社オリリオ,,株式会社,東京都,千代田区,神田神保町１丁目３２番地１,,13,101,1010051,,,,,,,2022-10-07,1,,,,,オリリオ,0
2681,9010001229983,新規,0,2022-10-07,2022-10-07,Ｃａｒｅｅｒ　Ｐｅｒｓｐｅｃｔｉｖｅ株式会社,,株式会社,東京都,千代田区,神田三崎町３丁目５番９号天翔水道橋ビル,,13,101,1010061,,,,,,,2022-10-07,1,,,,,キャリアパースペクティブ,0
2682,9010001230009,新規,0,2022-10-07,2022-10-07,株式会社毓仁舎,,株式会社,東京都,千代田区,神田東松下町２６番地１－３Ｆ,,13,101,1010042,,,,,,,2022-10-07,1,,,,,イクジンシャ,0
2690,9010401170110,新規,0,2022-10-07,2022-10-07,株式会社オーガスタ,,株式会社,東京都,港区,海岸３丁目２１番９号ＡＬＢＡ４０３,,13,103,1080022,,,,,,,2022-10-07,1,,,,,オーガスタ,0
2691,9010401170127,新規,0,2022-10-07,2022-10-07,株式会社アルファアシスト,,株式会社,東京都,港区,南麻布３丁目２０番１号Ｄａｉｗａ麻布テラス５Ｆ,,13,103,1060047,,,,,,,2022-10-07,1,,,,,アルファアシスト,0
2692,9010401170143,新規,0,2022-10-07,2022-10-07,株式会社トラステック,,株式会社,東京都,港区,港南２丁目１６番２号太陽生命品川ビル２８階,,13,103,1080075,,,,,,,2022-10-07,1,,,,,トラステック,0
2693,9010401170176,新規,0,2022-10-07,2022-10-07,株式会社ナレシー,,株式会社,東京都,港区,浜松町２丁目２番１５号浜松町ダイヤビル２Ｆ,,13,103,1050013,,,,,,,2022-10-07,1,,,,,ナレシー,0
2696,9010403028604,新規,0,2022-10-07,2022-10-07,ＲＯＫＯ合同会社,,合同会社,東京都,港区,南青山２丁目２番１５号ウィン青山９４２,,13,103,1070062,,,,,,,2022-10-07,1,,,,,ロコ,0
2697,9010403028653,新規,0,2022-10-07,2022-10-07,合同会社虎ノ門グローバル投資,,合同会社,東京都,港区,虎ノ門４丁目１－２０－１４０１,,13,103,1050001,,,,,,,2022-10-07,1,,,,,トラノモングローバルトウシ,0
2708,9010701043288,新規,0,2022-10-07,2022-10-07,株式会社学研ファミーユ,,株式会社,東京都,品川区,西五反田２丁目１１番８号,,13,109,1410031,,,,,,,2022-10-07,1,,,,,ガッケンファミーユ,0
2709,9010701043305,新規,0,2022-10-07,2022-10-07,Ｌａｎｄ．Ｒ株式会社,,株式会社,東京都,品川区,西品川１丁目１６番１号,,13,109,1410033,,,,,,,2022-10-07,1,,,,,ランドアール,0
2710,9010703006409,新規,0,2022-10-07,2022-10-07,合同会社シュエット大森,,合同会社,東京都,品川区,南大井２丁目１０番６－１５０８号,,13,109,1400013,,,,,,,2022-10-07,1,,,,,シュエットオオモリ,0
2711,9010801033321,新規,0,2022-10-07,2022-10-07,株式会社ｔｅ．ｃｏｎｎｅｃｔ,,株式会社,東京都,大田区,大森北６丁目９番６号,,13,111,1430016,,,,,,,2022-10-07,1,,,,,ティーイーコネクト,0
2714,9010901051768,新規,0,2022-10-07,2022-10-07,株式会社Ｄｒｅａｍ　Ｆａｃｔｏｒｙ,,株式会社,東京都,世田谷区,成城８丁目１３番２号,,13,112,1570066,,,,,,,2022-10-07,1,,,,,ドリームファクトリー,0
2723,9011001150114,新規,0,2022-10-07,2022-10-07,Ｗｅｂ‐Ｂａｓｅｄ　Ｊａｐａｎ株式会社,,株式会社,東京都,渋谷区,神宮前６丁目２３番４号桑野ビル２階,,13,113,1500001,,,,,,,2022-10-07,1,,,,,ウエブベースドジャパン,0
2724,9011001150139,新規,0,2022-10-07,2022-10-07,株式会社ＲＩＴＡ　ＰＡＲＴＮＥＲＳ,,株式会社,東京都,渋谷区,道玄坂１丁目１０番８号渋谷道玄坂東急ビル２Ｆ－Ｃ,,13,113,1500043,,,,,,,2022-10-07,1,,,,,リタパートナーズ,0
2725,9011001150147,新規,0,2022-10-07,2022-10-07,Ｉｎｎｏｃｏｎｓｕｌｔ　Ｃａｒｄ　Ｓｅｒｖｉｃｅｓ株式会社,,株式会社,東京都,渋谷区,代々木１丁目４１番９号ＤＭＫ代々木ビル７階,,13,113,1510053,,,,,,,2022-10-07,1,,,,,イノコンサルトカードサービシーズ,0
2726,9011001150155,新規,0,2022-10-07,2022-10-07,株式会社Ｎ＆Ｌホールディング,,株式会社,東京都,渋谷区,渋谷２丁目１１番５号クロスオフィス渋谷メディオ６－Ａ号室,,13,113,1500002,,,,,,,2022-10-07,1,,,,,エヌアンドエルホールディング,0
2727,9011001150171,新規,0,2022-10-07,2022-10-07,株式会社プライムアセット,,株式会社,東京都,目黒区,下目黒２丁目８番２－５０３号,,13,110,1530064,,,,,,,2022-10-07,1,,,,,プライムアセット,0
2728,9011001150196,新規,0,2022-10-07,2022-10-07,株式会社Ｓｔｅｌｌａ　Ｄｅｓｉｇｎ,,株式会社,東京都,渋谷区,渋谷１丁目１番３号３Ｆ,,13,113,1500002,,,,,,,2022-10-07,1,,,,,ステラデザイン,0
2729,9011003015496,新規,0,2022-10-07,2022-10-07,合同会社ＳＮＯＸ,,合同会社,東京都,目黒区,碑文谷１丁目２３番１５号ザ・パークハウス碑文谷一丁目２０４,,13,110,1520003,,,,,,,2022-10-07,1,,,,,スノックス,0
2730,9011005009760,新規,0,2022-10-07,2022-10-07,一般社団法人２１１２,,その他の設立登記法人,東京都,渋谷区,宇田川町２番１－３１０号,,13,113,1500042,,,,,,,2022-10-07,1,,,,,ニイイチイチニイ,0
2731,9011005009777,新規,0,2022-10-07,2022-10-07,社会保険労務士法人ＡＲＩＡ　Ｓｏｌｕｔｉｏｎ,,その他の設立登記法人,東京都,渋谷区,初台１丁目１１番２号,,13,113,1510061,,,,,,,2022-10-07,1,,,,,アリアソリューション,0
2733,9011101100415,新規,0,2022-10-07,2022-10-07,中興百瑞技術株式会社,,株式会社,東京都,新宿区,西新宿７丁目１０－１７新宿ダイカンプラザＢ館４０６号,,13,104,1600023,,,,,,,2022-10-07,1,,,,,チュウコウヒャクズイギジュツ,0
2734,9011101100431,新規,0,2022-10-07,2022-10-07,株式会社日本金融教育センター,,株式会社,東京都,新宿区,新宿５丁目１１－１３富士新宿ビル４階,,13,104,1600022,,,,,,,2022-10-07,1,,,,,ニホンキンユウキョウイクセンター,0
2736,9011205002516,新規,0,2022-10-07,2022-10-07,一般社団法人Ｒａｉｓｅ,,その他の設立登記法人,東京都,中野区,中野１丁目３３番１号グランデ城山４０１,,13,114,1640001,,,,,,,2022-10-07,1,,,,,レイズ,0
2738,9011301028167,新規,0,2022-10-07,2022-10-07,株式会社ｒｏｏｔ　Ａ,,株式会社,東京都,杉並区,天沼１丁目３６－１１,,13,115,1670032,,,,,,,2022-10-07,1,,,,,ルートエー,0
2739,9011303004538,新規,0,2022-10-07,2022-10-07,合同会社くらしや,,合同会社,東京都,杉並区,高円寺南１丁目４番５号,,13,115,1660003,,,,,,,2022-10-07,1,,,,,クラシヤ,0
2742,9011701025672,新規,0,2022-10-07,2022-10-07,株式会社東京シアトリエ,,株式会社,東京都,江戸川区,臨海町６丁目２番２号,,13,123,1340086,,,,,,,2022-10-07,1,,,,,トウキョウシアトリエ,0
2747,9011801041355,新規,0,2022-10-07,2022-10-07,株式会社ＴＫＳ,,株式会社,東京都,足立区,六木３丁目６番１７号,,13,121,1210052,,,,,,,2022-10-07,1,,,,,ティーケーエス,0
2748,9011801041371,新規,0,2022-10-07,2022-10-07,株式会社ＧＲＯＵＮＤ,,株式会社,東京都,葛飾区,白鳥２丁目４番４－１１９号,,13,122,1250063,,,,,,,2022-10-07,1,,,,,グラウンド,0
2750,9011803005300,新規,0,2022-10-07,2022-10-07,合同会社ノマノバ,,合同会社,東京都,足立区,東和５丁目５番５号,,13,121,1200003,,,,,,,2022-10-07,1,,,,,ノマノバ,0
2754,9012801021875,新規,0,2022-10-07,2022-10-07,株式会社ごんとふう,,株式会社,東京都,日野市,南平５丁目２８番地の３７,,13,212,1910041,,,,,,,2022-10-07,1,,,,,ゴントフウ,0
2755,9012801021883,新規,0,2022-10-07,2022-10-07,株式会社さくら管理,,株式会社,東京都,国分寺市,内藤１丁目２３番地５,,13,214,1850033,,,,,,,2022-10-07,1,,,,,サクラカンリ,0
2757,9012803002898,新規,0,2022-10-07,2022-10-07,合同会社ｆａｔｅｆｕｌｌ,,合同会社,東京都,昭島市,大神町４丁目３３－５,,13,207,1960013,,,,,,,2022-10-07,1,,,,,フェイトフル,0
2760,9020001148423,新規,0,2022-10-07,2022-10-07,株式会社神奈川死因調査事務所,,株式会社,神奈川県,横浜市神奈川区,西神奈川１丁目６番地１５サクラビル８０６号,,14,102,2210822,,,,,,,2022-10-07,1,,,,,カナガワシインチョウサジムショ,0
2761,9020001148448,新規,0,2022-10-07,2022-10-07,株式会社ＴＳＫソリューション,,株式会社,神奈川県,横浜市神奈川区,鶴屋町３丁目３１番５号久保田ビル７階,,14,102,2210835,,,,,,,2022-10-07,1,,,,,,0
2762,9020001148456,新規,0,2022-10-07,2022-10-07,株式会社ＭＩＹＡＫＯ,,株式会社,神奈川県,横浜市瀬谷区,相沢６丁目３７番地５,,14,114,2460013,,,,,,,2022-10-07,1,,,,,ミヤコ,0
2763,9020001148472,新規,0,2022-10-07,2022-10-07,株式会社ＣＳＺ,,株式会社,神奈川県,横浜市栄区,野七里２丁目１９－８,,14,115,2470024,,,,,,,2022-10-07,1,,,,,シーエスゼット,0
2764,9020001148497,新規,0,2022-10-07,2022-10-07,株式会社ビーアイエフ,,株式会社,神奈川県,横浜市青葉区,あざみ野３丁目２３番地１－Ｂ１０２,,14,117,2250011,,,,,,,2022-10-07,1,,,,,ビーアイエフ,0
2765,9020001148506,新規,0,2022-10-07,2022-10-07,株式会社アイリス,,株式会社,神奈川県,川崎市幸区,堀川町７２番地２１Ｔ２０７,,14,132,2120013,,,,,,,2022-10-07,1,,,,,アイリス,0
2767,9020003022519,新規,0,2022-10-07,2022-10-07,合同会社Ａｒａｉ　ｈｏｍｅ,,合同会社,神奈川県,川崎市麻生区,王禅寺２４１番地５８,,14,137,2150013,,,,,,,2022-10-07,1,,,,,アライホーム,0
2773,9021003012220,新規,0,2022-10-07,2022-10-07,Ｃｒｕｃｅ合同会社,,合同会社,神奈川県,鎌倉市,大船２丁目１６－５１,,14,204,2470056,,,,,,,2022-10-07,1,,,,,クルーセ,0
2779,9030001150394,新規,0,2022-10-07,2022-10-07,サイバーアキシス株式会社,,株式会社,埼玉県,さいたま市大宮区,宮町２丁目９３－２,,11,103,3300802,,,,,,,2022-10-07,1,,,,,サイバーアキシス,0
2780,9030001150428,新規,0,2022-10-07,2022-10-07,株式会社ＨＡＹＡＴＯ,,株式会社,埼玉県,さいたま市岩槻区,大字笹久保２００３番地１,,11,110,3390034,,,,,,,2022-10-07,1,,,,,ハヤト,0
2781,9030001150436,新規,0,2022-10-07,2022-10-07,株式会社Ｓｋｙ,,株式会社,埼玉県,鶴ヶ島市,大字上広谷４０３番地５サンライズ盛流１０３号,,11,241,3502203,,,,,,,2022-10-07,1,,,,,スカイ,0
2782,9030001150444,新規,0,2022-10-07,2022-10-07,株式会社港屋,,株式会社,埼玉県,川口市,青木５丁目６番１２－７０１号,,11,203,3320031,,,,,,,2022-10-07,1,,,,,ミナトヤ,0
2783,9030001150452,新規,0,2022-10-07,2022-10-07,クリエイトフード株式会社,,株式会社,埼玉県,新座市,野火止３丁目１２番４１号,,11,230,3520011,,,,,,,2022-10-07,1,,,,,クリエイトフード,0
2784,9030001150460,新規,0,2022-10-07,2022-10-07,ＫＡＺＵＡＵＴＯ株式会社,,株式会社,埼玉県,幸手市,大字幸手２５０３番地２,,11,240,3400113,,,,,,,2022-10-07,1,,,,,カズオート,0
2785,9030001150469,新規,0,2022-10-07,2022-10-07,株式会社橋本興業,,株式会社,埼玉県,新座市,あたご３丁目２番１０号,,11,230,3520021,,,,,,,2022-10-07,1,,,,,ハシモトコウギョウ,0
2786,9030001150510,新規,0,2022-10-07,2022-10-07,株式会社ＵＥＮＡ,,株式会社,埼玉県,さいたま市大宮区,桜木町２丁目３番地大宮マルイ７Ｆ,,11,103,3300854,,,,,,,2022-10-07,1,,,,,ウエナ,0
2787,9030003020331,新規,0,2022-10-07,2022-10-07,合同会社ヘロンバレー,,合同会社,埼玉県,東松山市,大字西本宿１９８２番地１,,11,212,3550062,,,,,,,2022-10-07,1,,,,,ヘロンバレー,0
2788,9030003020348,新規,0,2022-10-07,2022-10-07,合同会社小松企画,,合同会社,埼玉県,さいたま市桜区,大字白鍬９５番地６,,11,106,3380811,,,,,,,2022-10-07,1,,,,,コマツキカク,0
2797,9040001125263,新規,0,2022-10-07,2022-10-07,株式会社誠友産業,,株式会社,千葉県,市川市,市川南４丁目４番１７号,,12,203,2720033,,,,,,,2022-10-07,1,,,,,セイユウサンギョウ,0
2798,9040001125305,新規,0,2022-10-07,2022-10-07,株式会社ビーチシェル,,株式会社,千葉県,鴨川市,貝渚２９５１番地の１０,,12,223,2960004,,,,,,,2022-10-07,1,,,,,ビーチシェル,0
2799,9040001125313,新規,0,2022-10-07,2022-10-07,株式会社デセオ,,株式会社,千葉県,成田市,花崎町８３０番地１９ＮＫビル,,12,211,2860033,,,,,,,2022-10-07,1,,,,,デセオ,0
2800,9040001125354,新規,0,2022-10-07,2022-10-07,株式会社Ｃｂｒｉｄｇｅ,,株式会社,千葉県,市川市,平田４丁目１番１３号,,12,203,2720031,,,,,,,2022-10-07,1,,,,,シーブリッジ,0
2801,9040003020966,新規,0,2022-10-07,2022-10-07,山崎ビル合同会社,00128049,合同会社,千葉県,市川市,押切７番１５号,,12,203,2720107,,,,,,,2022-10-07,1,,,,,ヤマザキビル,0
2804,9050001051764,新規,0,2022-10-07,2022-10-07,株式会社ＡＳＸＥＥＤ,,株式会社,茨城県,取手市,小文間５１６０番地２７,,08,217,3020001,,,,,,,2022-10-07,1,,,,,アスシード,0
2805,9050001051789,新規,0,2022-10-07,2022-10-07,株式会社ＳＴＡＲテクノ,,株式会社,茨城県,古河市,大和田９８７番地１２,,08,204,3060111,,,,,,,2022-10-07,1,,,,,スターテクノ,0
2806,9050005013158,新規,0,2022-10-07,2022-10-07,一般社団法人らいふ,,その他の設立登記法人,茨城県,水戸市,東前３丁目１４１番地の１,,08,201,3111136,,,,,,,2022-10-07,1,,,,,ライフ,0
2812,9080001025237,新規,0,2022-10-07,2022-10-07,株式会社ビバノッチ,,株式会社,静岡県,静岡市葵区,柳町１９３番地の１,,22,101,4200007,,,,,,,2022-10-07,1,,,,,ビバノッチ,0
2814,9080101023553,新規,0,2022-10-07,2022-10-07,倉田グループ株式会社,,株式会社,静岡県,三島市,大社町１４番５号,,22,206,4110853,,,,,,,2022-10-07,1,,,,,クラタグループ,0
2820,9100001035745,新規,0,2022-10-07,2022-10-07,株式会社ラピス,,株式会社,長野県,埴科郡坂城町,大字坂城６０９８番地６,,20,521,3890601,,,,,,,2022-10-07,1,,,,,ラピス,0
2823,9110001037014,新規,0,2022-10-07,2022-10-07,株式会社ＹＴＣホールディングス,,株式会社,新潟県,新潟市秋葉区,鎌倉５０７番地１,,15,105,9560115,,,,,,,2022-10-07,1,,,,,ワイティーシーホールディングス,0
2824,9110005016864,新規,0,2022-10-07,2022-10-07,一般社団法人新潟県宅建サポートセンター,,その他の設立登記法人,新潟県,新潟市中央区,明石１丁目３番１０号,,15,103,9500084,,,,,,,2022-10-07,1,,,,,ニイガタケンタッケンサポートセンター,0
2838,9120001249376,新規,0,2022-10-07,2022-10-07,株式会社リズムウエスト,,株式会社,大阪府,大阪市西区,南堀江３丁目６番５号Ａ’ｓ南堀江２０１号,,27,106,5500015,,,,,,,2022-10-07,1,,,,,リズムウエスト,0
2839,9120001249384,新規,0,2022-10-07,2022-10-07,オオタニ商店株式会社,,株式会社,大阪府,大阪市浪速区,元町３丁目１番１号鎌田ビル６階,,27,111,5560016,,,,,,,2022-10-07,1,,,,,オオタニショウテン,0
2840,9120001249426,新規,0,2022-10-07,2022-10-07,株式会社そらの木,,株式会社,大阪府,枚方市,伊加賀寿町１５番１２号,,27,210,5730061,,,,,,,2022-10-07,1,,,,,ソラノキ,0
2848,9120003022608,新規,0,2022-10-07,2022-10-07,グローバル・インテリア・ファーニシングス合同会社,,合同会社,大阪府,大阪市此花区,島屋３丁目８番１６－１５１０号,,27,104,5540024,,,,,,,2022-10-07,1,,,,,グローバルインテリアファーニシングス,0
2855,9120101066300,新規,0,2022-10-07,2022-10-07,株式会社信栄機材,,株式会社,大阪府,阪南市,下出５０１番地Ｂ－２０２号,,27,232,5990202,,,,,,,2022-10-07,1,,,,,シンエイキザイ,0
2859,9120901046550,新規,0,2022-10-07,2022-10-07,株式会社エムアンドエム,,株式会社,大阪府,池田市,住吉２丁目３番１７号,,27,204,5630033,,,,,,,2022-10-07,1,,,,,エムアンドエム,0
2860,9120901046567,新規,0,2022-10-07,2022-10-07,木畑精密株式会社,,株式会社,大阪府,豊中市,今在家町７－６,,27,203,5610842,,,,,,,2022-10-07,1,,,,,キバタセイミツ,0
2863,9122001036300,新規,0,2022-10-07,2022-10-07,株式会社大昌,,株式会社,大阪府,八尾市,中田４丁目２０番地,,27,212,5810014,,,,,,,2022-10-07,1,,,,,ダイショウ,0
2877,9130001072760,新規,0,2022-10-07,2022-10-07,株式会社リヒトヘアー,,株式会社,京都府,京都市下京区,万里小路町１７１番地,,26,106,6008075,,,,,,,2022-10-07,1,,,,,リヒトヘアー,0
2887,9140001127571,新規,0,2022-10-07,2022-10-07,Ｇ‐ｃｏｎｓｔｒｕｃｔｉｏｎ株式会社,,株式会社,兵庫県,姫路市,車崎１丁目２番９－１２０号エバーグリーン今宿Ｂ棟,,28,201,6700058,,,,,,,2022-10-07,1,,,,,ジーコンストラクション,0
2888,9140001127588,新規,0,2022-10-07,2022-10-07,株式会社ＦｏｕｒＣ,,株式会社,兵庫県,西宮市,甲子園七番町２０番１５号,,28,204,6638177,,,,,,,2022-10-07,1,,,,,フォーシー,0
2889,9140001127638,新規,0,2022-10-07,2022-10-07,株式会社ＫＳＴ,,株式会社,兵庫県,神戸市中央区,加納町４丁目９番１４号,,28,110,6500001,,,,,,,2022-10-07,1,,,,,ケーエスティー,0
2890,9140001127654,新規,0,2022-10-07,2022-10-07,株式会社勇希電工,,株式会社,兵庫県,高砂市,中島３丁目７－４８－３,,28,216,6760001,,,,,,,2022-10-07,1,,,,,ユウキデンコウ,0
2891,9140001127670,新規,0,2022-10-07,2022-10-07,株式会社藤田,,株式会社,兵庫県,姫路市,御立中４丁目５番１号プラザ平松１０６,,28,201,6700073,,,,,,,2022-10-07,1,,,,,フジタ,0
2894,9140003018208,新規,0,2022-10-07,2022-10-07,Ｒｕｎｅ’ｓ　Ｃａｆｅ合同会社,,合同会社,兵庫県,宝塚市,湯本町５番３－１０５号,,28,214,6650003,,,,,,,2022-10-07,1,,,,,ルネズカフェ,0
2896,9150001025857,新規,0,2022-10-07,2022-10-07,日吉自動車工業株式会社,00128046,株式会社,奈良県,宇陀市,菟田野松井７０番１,,29,212,6332221,,,,,,,2022-10-07,1,,,,,ヒヨシジドウシャコウギョウ,0
2897,9150003002788,新規,0,2022-10-07,2022-10-07,合同会社藤快,,合同会社,奈良県,奈良市,平松４丁目１３番２６－１号,,29,201,6310846,,,,,,,2022-10-07,1,,,,,フジヨシ,0
2898,9160001024552,新規,0,2022-10-07,2022-10-07,株式会社リンクプラス,,株式会社,滋賀県,大津市,下阪本３丁目１１番３７号,,25,201,5200105,,,,,,,2022-10-07,1,,,,,リンクプラス,0
2899,9160003002688,新規,0,2022-10-07,2022-10-07,日本画像診断合同会社,,合同会社,滋賀県,栗東市,綣３丁目１５－１９サンロイヤル栗東４０６,,25,208,5203031,,,,,,,2022-10-07,1,,,,,ニホンガゾウシンダン,0
2900,9170001017316,新規,0,2022-10-07,2022-10-07,株式会社ＫＯＨＤＡＩ,,株式会社,和歌山県,紀の川市,古和田１９４番地２１,,30,208,6496432,,,,,,,2022-10-07,1,,,,,コーダイ,0
2905,9180001153226,新規,0,2022-10-07,2022-10-07,ネオ・ミュージックプロダクション株式会社,,株式会社,愛知県,名古屋市北区,成願寺１丁目６番Ａ－１５０４号,,23,103,4620021,,,,,,,2022-10-07,1,,,,,ネオミュージックプロダクション,0
2906,9180001153275,新規,0,2022-10-07,2022-10-07,株式会社大栄,,株式会社,愛知県,名古屋市守山区,笹ヶ根２丁目５０１番地の２,,23,113,4630812,,,,,,,2022-10-07,1,,,,,ダイエイ,0
2907,9180001153283,新規,0,2022-10-07,2022-10-07,株式会社ＳＥＮＳＥ,,株式会社,愛知県,北名古屋市,鹿田清井古１１１番地,,23,234,4810004,,,,,,,2022-10-07,1,,,,,センス,0
2908,9180001153317,新規,0,2022-10-07,2022-10-07,株式会社ｓｑｃｅｄ,,株式会社,愛知県,西春日井郡豊山町,大字豊場字八反１２１番地１,,23,342,4800202,,,,,,,2022-10-07,1,,,,,サクシード,0
2909,9180001153325,新規,0,2022-10-07,2022-10-07,株式会社エフ・ジースチール,,株式会社,愛知県,名古屋市千種区,香流橋１丁目２番４３号フローレンスパレ３０２号,,23,101,4640002,,,,,,,2022-10-07,1,,,,,エフジースチール,0
2910,9180001153333,新規,0,2022-10-07,2022-10-07,株式会社Ｓｔａｒ　ｍｅｅｔｉｎｇ,,株式会社,愛知県,瀬戸市,塩草町１１番地の２５８,,23,204,4890895,,,,,,,2022-10-07,1,,,,,スターミーティング,0
2911,9180003024342,新規,0,2022-10-07,2022-10-07,合同会社ＣＥサービス,,合同会社,愛知県,小牧市,古雅３丁目１４番地１,,23,219,4850814,,,,,,,2022-10-07,1,,,,,シーイーサービス,0
2915,9180301036709,新規,0,2022-10-07,2022-10-07,株式会社ＧｒｉｔＦｏｒＡＬＬ,,株式会社,愛知県,豊田市,山之手４丁目２１番地ダイアパレス三河豊田１３０２号,,23,211,4710833,,,,,,,2022-10-07,1,,,,,グリットフォーオール,0
2917,9190001029813,新規,0,2022-10-07,2022-10-07,マツダテクノ株式会社,,株式会社,三重県,伊賀市,上郡３４８番地,,24,216,5180125,,,,,,,2022-10-07,1,,,,,マツダテクノ,0
2918,9190001029821,新規,0,2022-10-07,2022-10-07,株式会社プラマーズ,,株式会社,三重県,松阪市,嬉野上野町１７９８番地２,,24,204,5152356,,,,,,,2022-10-07,1,,,,,プラマーズ,0
2923,9200001040529,新規,0,2022-10-07,2022-10-07,Ｊ・ＪＡＰＡＮ　ＴＲＡＤＩＮＧ株式会社,,株式会社,岐阜県,大垣市,長松町８８９番地１木下ビル２階,,21,202,5030997,,,,,,,2022-10-07,1,,,,,ジェイジャパントレーディング,0
2928,9230001019545,新規,0,2022-10-07,2022-10-07,株式会社ルート,,株式会社,富山県,富山市,婦中町堀５５３番地,,16,201,9392742,,,,,,,2022-10-07,1,,,,,ルート,0
2933,9240005015473,新規,0,2022-10-07,2022-10-07,医療法人有和会,,その他の設立登記法人,広島県,広島市東区,戸坂中町６番８号,,34,102,7320003,,,,,,,2022-10-07,1,,,,,ユウワカイ,0
2941,9260001037288,新規,0,2022-10-07,2022-10-07,株式会社ガーデンペコ,,株式会社,岡山県,倉敷市,東富井９５４番地１２,,33,202,7100847,,,,,,,2022-10-07,1,,,,,ガーデンペコ,0
2942,9260001037313,新規,0,2022-10-07,2022-10-07,株式会社トニーカレッジ,,株式会社,岡山県,倉敷市,堀南７５７－１６,,33,202,7100841,,,,,,,2022-10-07,1,,,,,トニーカレッジ,0
2944,9270003001448,新規,0,2022-10-07,2022-10-07,合同会社高橋冨川堂,00128048,合同会社,鳥取県,米子市,彦名町１１６４番地５,,31,202,6830854,,,,,,,2022-10-07,1,,,,,タカハシフセンドウ,0
2949,9290001099111,新規,0,2022-10-07,2022-10-07,セルフメイド株式会社,,株式会社,福岡県,大牟田市,浜田町１７番地１,,40,202,8360026,,,,,,,2022-10-07,1,,,,,セルフメイド,0
2950,9290001099128,新規,0,2022-10-07,2022-10-07,株式会社柴田産業ホールディングス,,株式会社,福岡県,福岡市博多区,博多駅南３丁目１８番２号,,40,132,8120016,,,,,,,2022-10-07,1,,,,,シバタサンギョウホールディングス,0
2951,9290001099160,新規,0,2022-10-07,2022-10-07,株式会社よし川商店,,株式会社,福岡県,福岡市中央区,渡辺通２丁目３番２７号,,40,133,8100004,,,,,,,2022-10-07,1,,,,,ヨシカワショウテン,0
2952,9290001099169,新規,0,2022-10-07,2022-10-07,株式会社クレッセンス,,株式会社,福岡県,福岡市博多区,博多駅中央街８番１号ＪＲＪＰ博多ビル３階,,40,132,8120012,,,,,,,2022-10-07,1,,,,,クレッセンス,0
2955,9290003013029,新規,0,2022-10-07,2022-10-07,カーサービスビッケ合同会社,,合同会社,福岡県,糟屋郡須惠町,大字植木１７４０番地１,,40,344,8112112,,,,,,,2022-10-07,1,,,,,カーサービスビッケ,0
2961,9330001030153,新規,0,2022-10-07,2022-10-07,株式会社ルーズヴェルトＧ,,株式会社,熊本県,熊本市中央区,船場町２番４１号,,43,101,8610000,,,,,,,2022-10-07,1,,,,,ルーズヴェルトジー,0
2962,9330001030186,新規,0,2022-10-07,2022-10-07,株式会社ＭＩＲＡ,,株式会社,熊本県,熊本市中央区,新屋敷１丁目３番２５号,,43,101,8620975,,,,,,,2022-10-07,1,,,,,ミラ,0
2966,9340001025086,新規,0,2022-10-07,2022-10-07,藤井商会株式会社,,株式会社,鹿児島県,薩摩川内市,百次町１１２２番地７,,46,215,8950007,,,,,,,2022-10-07,1,,,,,フジイショウカイ,0
2970,9350003004186,新規,0,2022-10-07,2022-10-07,合同会社グリーン＆サン,,合同会社,宮崎県,宮崎市,天満町１０番２号,,45,201,8800935,,,,,,,2022-10-07,1,,,,,グリーンアンドサン,0
2971,9360001031009,新規,0,2022-10-07,2022-10-07,Ｐｌｕｓ　Ｃａｎｎａ株式会社,,株式会社,沖縄県,糸満市,字与座４１２番地の３１,,47,210,9010322,,,,,,,2022-10-07,1,,,,,プラスカンナ,0
2972,9360003012361,新規,0,2022-10-07,2022-10-07,合同会社ＺＥＮプラス,,合同会社,沖縄県,豊見城市,字豊崎１番地１１７５ジ・オーシャンテラス豊崎１１１８号室,,47,212,9010225,,,,,,,2022-10-07,1,,,,,ゼンプラス,0
2980,9370001049116,新規,0,2022-10-07,2022-10-07,株式会社アイエスオー,,株式会社,宮城県,仙台市泉区,南光台６丁目３０番２号,,04,105,9818003,,,,,,,2022-10-07,1,,,,,アイエスオー,0
2981,9370001049124,新規,0,2022-10-07,2022-10-07,株式会社ビー・ワークス,,株式会社,宮城県,仙台市太白区,富田字八幡東２９番地の１７,,04,104,9820033,,,,,,,2022-10-07,1,,,,,ビーワークス,0
2982,9370001049132,新規,0,2022-10-07,2022-10-07,株式会社信栄,,株式会社,宮城県,仙台市若林区,大和町５丁目２３番１２－１１０６,,04,103,9840042,,,,,,,2022-10-07,1,,,,,シンエイ,0
2983,9370003005851,新規,0,2022-10-07,2022-10-07,合同会社小谷野商会,,合同会社,宮城県,岩沼市,平等４丁目２番地の１５,,04,211,9892457,,,,,,,2022-10-07,1,,,,,コヤノショウカイ,0
2989,9380001033168,新規,0,2022-10-07,2022-10-07,株式会社慈正会,,株式会社,福島県,福島市,笹谷字稲場２３番地の４,,07,201,9600241,,,,,,,2022-10-07,1,,,,,ジショウカイ,0
2992,9410001013298,新規,0,2022-10-07,2022-10-07,株式会社滝沢事務所,,株式会社,秋田県,秋田市,八橋南２丁目３番５号,,05,201,0100976,,,,,,,2022-10-07,1,,,,,タキサワジムショ,0
2995,9430001087522,新規,0,2022-10-07,2022-10-07,株式会社Ｔ・Ｓ・Ｓ,,株式会社,北海道,札幌市東区,北十五条東１２丁目２番２号,,01,103,0650015,,,,,,,2022-10-07,1,,,,,ティーエスエス,0
2996,9430001087596,新規,0,2022-10-07,2022-10-07,ＨｉＮＯＤＥ株式会社,,株式会社,北海道,札幌市中央区,北一条西２１丁目３番３２号第７１藤栄ビル４－１号,,01,101,0640821,,,,,,,2022-10-07,1,,,,,ヒノデ,0
3000,9470003002269,新規,0,2022-10-07,2022-10-07,アリシア会計合同会社,,合同会社,香川県,坂出市,福江町２丁目２番１２号,,37,203,7620034,,,,,,,2022-10-07,1,,,,,アリシアカイケイ,0
3001,9480001011881,新規,0,2022-10-07,2022-10-07,株式会社ｏｆｆｉｃｅ　ＳＥＲＥＮＯ,,株式会社,徳島県,徳島市,東吉野町２丁目１６番地,,36,201,7700811,,,,,,,2022-10-07,1,,,,,オフィスセレーノ,0
3002,9490001010305,新規,0,2022-10-07,2022-10-07,株式会社一釣,,株式会社,高知県,高知市,大川筋２丁目２番９号,,39,201,7800052,,,,,,,2022-10-07,1,,,,,イッチョウ,0
3005,9700150112045,新規,0,2022-10-07,2022-10-07,株式会社　サンナムタープス,,外国会社等,東京都,品川区,上大崎２丁目１０番３４－４－３０６号,,13,109,1410021,韓国　ソウル特別市　江南区　宣陵路１４１ギル　３－１６,,,,,,2022-10-07,1,,,,,カブシキガイシヤサンナムタープス,0
