sequenceNumber,corporateNumber,process,correct,updateDate,changeDate,name,nameImageId,kind,prefectureName,cityName,streetNumber,addressImageId,prefectureCode,cityCode,postCode,addressOutside,addressOutsideImageId,closeDate,closeCause,successorCorporateNumber,changeCause,assignmentDate,latest,enName,enPrefectureName,enCityName,enAddressOutside,furigana,hihyoji
2,1010001064959,登記記録の閉鎖等,0,2025-03-06,2025-02-19,株式会社サンズーム,,株式会社,東京都,中央区,日本橋浜町１丁目３番５号,,13,102,1030007,,,2025-02-19,清算の結了等,,,2015-10-05,1,,,,,サンズーム,0
12,1010401050674,登記記録の閉鎖等,0,2025-03-06,2025-02-26,テクノロジストコンサルティング株式会社,,株式会社,神奈川県,鎌倉市,梶原３丁目８番５号,,14,204,2470063,,,2025-02-26,清算の結了等,,,2015-10-05,1,,,,,テクノロジストコンサルティング,0
13,1010401090910,登記記録の閉鎖等,0,2025-03-06,2025-03-03,株式会社ＷＯＮ　ＣＯＲＰＯＲＡＴＩＯＮ,,株式会社,京都府,京都市中京区,車屋町通二条下る仁王門突抜町３２５番地,,26,104,6040841,,,2025-03-03,合併による解散等,6360001015253,令和７年３月１日京都市中京区車屋町通二条下ル仁王門突抜町３２５番地京都紅葉株式会社（6360001015253）に合併し解散,2015-10-05,1,,,,,ウォンコーポレーション,0
23,1010501052703,登記記録の閉鎖等,0,2025-03-06,2025-02-26,ｐｉｎｋ　ｂｌｏｏｄ株式会社,,株式会社,東京都,台東区,竜泉３丁目３３番１１号アンベリール三ノ輪２０２,,13,106,1100012,,,2025-02-26,清算の結了等,,,2024-08-05,1,,,,,ピンクブラッド,0
36,1011001135130,登記記録の閉鎖等,0,2025-03-06,2025-02-07,ＧＯ株式会社,,株式会社,東京都,渋谷区,千駄ヶ谷５丁目１６番２－２０１号エルスタンザ代々木,,13,113,1510051,,,2025-02-07,清算の結了等,,,2020-08-05,1,,,,,ゴウ,0
37,1011001144296,登記記録の閉鎖等,0,2025-03-06,2025-02-05,株式会社ＢＥＫ,,株式会社,東京都,渋谷区,代官山町２０番９号,,13,113,1500034,,,2025-02-05,合併による解散等,1011001046633,令和７年２月１日東京都渋谷区代官山町２０番９号株式会社ブロードエッジ・アドバイザーズ（1011001046633）に合併し解散,2021-12-07,1,,,,,ビーイーケー,0
50,1011201000217,登記記録の閉鎖等,0,2025-03-06,2025-03-03,株式会社アスパック,,株式会社,東京都,中野区,中央５丁目２３番８号,,13,114,1640011,,,2025-03-03,清算の結了等,,,2015-10-05,1,,,,,アスパック,0
51,1011202004794,登記記録の閉鎖等,0,2025-03-06,2025-03-04,有限会社ハセデザイン,,有限会社,東京都,中野区,上鷺宮５丁目８番２２号,,13,114,1650031,,,2025-03-04,清算の結了等,,,2015-10-05,1,,,,,ハセデザイン,0
59,1011803006280,登記記録の閉鎖等,0,2025-03-06,2025-03-03,合同会社イラハクリーン,,合同会社,東京都,足立区,花畑６丁目３３番４号,,13,121,1210061,,,2025-03-03,清算の結了等,,,2024-06-12,1,,,,,イハラクリーン,0
66,1012802007360,登記記録の閉鎖等,0,2025-03-06,2025-02-25,有限会社エムテック,,有限会社,東京都,立川市,砂川町２丁目５９番地の１９,,13,202,1900031,,,2025-02-25,清算の結了等,,,2015-10-05,1,,,,,エムテック,0
67,1013301038442,登記記録の閉鎖等,0,2025-03-06,2025-02-25,株式会社アーネスト,,株式会社,東京都,豊島区,東池袋２丁目６２－８ＢＩＧオフィスプラザ池袋１１Ｆ,,13,116,1700013,,,2025-02-25,清算の結了等,,,2016-03-07,1,,,,,アーネスト,0
84,1030001068223,登記記録の閉鎖等,0,2025-03-06,2025-03-03,株式会社ムラセ空設工業,,株式会社,埼玉県,北葛飾郡松伏町,大字松伏５７０番地６,,11,465,3430111,,,2025-03-03,清算の結了等,,,2015-10-05,1,,,,,ムラセクウセツコウギョウ,0
87,1030001147365,登記記録の閉鎖等,0,2025-03-06,2025-03-03,株式会社ネクストライン,,株式会社,埼玉県,越谷市,北越谷５丁目５番２５号,,11,222,3430026,,,2025-03-03,清算の結了等,,,2022-03-22,1,,,,,ネクストライン,0
88,1030001150484,登記記録の閉鎖等,0,2025-03-06,2025-03-03,株式会社根本工業,,株式会社,埼玉県,和光市,新倉１丁目２７番１号２０２,,11,229,3510115,,,2025-03-03,清算の結了等,,,2022-10-14,1,,,,,ネモトコウギョウ,0
100,1040001032351,登記記録の閉鎖等,0,2025-03-06,2025-02-27,株式会社ＡＹＮＩＩ,,株式会社,千葉県,鎌ケ谷市,東中沢２丁目５番１０号,,12,224,2730112,,,2025-02-27,清算の結了等,,,2015-10-05,1,,,,,エイニー,0
106,1050001007856,登記記録の閉鎖等,0,2025-03-06,2025-02-28,株式会社プロヴァンス,,株式会社,茨城県,ひたちなか市,大字東石川３１６１番地７,,08,221,3120052,,,2025-02-28,清算の結了等,,,2015-10-05,1,,,,,プロヴァンス,0
125,1100001013989,登記記録の閉鎖等,0,2025-03-06,2025-03-03,株式会社フローラルメイト,,株式会社,長野県,松本市,大字笹賀７２９８番地１,,20,202,3990033,,,2025-03-03,合併による解散等,6100001013893,令和７年３月１日長野県安曇野市三郷温５９１９番地ハマ園芸株式会社（6100001013893）に合併し解散,2015-10-05,1,,,,,フローラルメイト,0
132,1120001042458,登記記録の閉鎖等,0,2025-03-06,2025-02-28,関西システム管理株式会社,00028153,株式会社,大阪府,大阪市西区,北堀江１丁目２０番１５号長堀佐野ビル,,27,106,5500014,,,2025-02-28,清算の結了等,,,2015-10-05,1,,,,,カンサイシステムカンリ,0
143,1120101031154,登記記録の閉鎖等,0,2025-03-06,2025-02-28,株式会社日吉パッキング製作所,,株式会社,大阪府,堺市西区,上野芝町４丁８番２３－８０２号,,27,144,5938301,,,2025-02-28,清算の結了等,,,2015-10-05,1,,,,,ヒヨシパッキングセイサクショ,0
144,1120101064591,登記記録の閉鎖等,0,2025-03-06,2025-02-28,株式会社鶴田池ゴルフセンター,,株式会社,大阪府,堺市西区,草部１６３０番地,,27,144,5938312,,,2025-02-28,清算の結了等,,,2021-11-05,1,,,,,ツルタイケゴルフセンター,0
149,1122001025392,登記記録の閉鎖等,0,2025-03-06,2025-02-26,株式会社スーパーキュア,,株式会社,大阪府,東大阪市,大蓮北２丁目８番２１号,00034566,27,227,5770826,,,2025-02-26,清算の結了等,,,2015-10-05,1,,,,,スーパーキュア,0
178,1160005004888,登記記録の閉鎖等,0,2025-03-06,2025-03-04,公益財団法人芙蓉会,,その他の設立登記法人,滋賀県,犬上郡豊郷町,大字四十九院８１５番地,,25,441,5291161,,,2025-03-04,清算の結了等,,,2015-10-05,1,,,,,フヨウカイ,0
210,1310002002615,登記記録の閉鎖等,0,2025-03-06,2025-03-03,有限会社ステップワン,,有限会社,長崎県,長崎市,泉２丁目２４番２４号－１１１５,,42,201,8528151,,,2025-03-03,清算の結了等,,,2015-10-05,1,,,,,ステップワン,0
220,1370001044371,登記記録の閉鎖等,0,2025-03-06,2025-02-28,株式会社アグリワークス,,株式会社,宮城県,名取市,小塚原字田中５０番,,04,207,9811212,,,2025-02-28,清算の結了等,,,2019-05-13,1,,,,,アグリワークス,0
221,1370002005125,登記記録の閉鎖等,0,2025-03-06,2025-03-03,有限会社佐瀬コンタクトレンズ,,有限会社,宮城県,仙台市若林区,荒町２０番地,,04,103,9840073,,,2025-03-03,清算の結了等,,,2015-10-05,1,,,,,サセコンタクトレンズ,0
234,1410002011440,登記記録の閉鎖等,0,2025-03-06,2025-02-28,有限会社三栄コンサルタンツ,,有限会社,秋田県,大仙市,大曲大町８番１１号,,05,212,0140025,,,2025-02-28,清算の結了等,,,2015-10-05,1,,,,,サンエイコンサルタンツ,0
246,1470002002120,登記記録の閉鎖等,0,2025-03-06,2025-02-28,有限会社川田組,,有限会社,香川県,高松市,三谷町２２０７番地２,,37,201,7610450,,,2025-02-28,清算の結了等,,,2015-10-05,1,,,,,カワダグミ,0
287,2010802006332,登記記録の閉鎖等,0,2025-03-06,2025-02-19,有限会社山王マネキン紹介所,,有限会社,東京都,品川区,大井７丁目１９番２６号,,13,109,1400014,,,2025-02-19,清算の結了等,,,2015-10-05,1,,,,,サンノウマネキンショウカイジョ,0
289,2010902011868,登記記録の閉鎖等,0,2025-03-06,2025-03-03,有限会社白栄舎,,有限会社,東京都,世田谷区,代沢５丁目２８番１６号,,13,112,1550032,,,2025-03-03,清算の結了等,,,2015-10-05,1,,,,,ハクエイシャ,0
290,2011001067042,登記記録の閉鎖等,0,2025-03-06,2025-02-05,株式会社ブロードエッジ・ファクトリー,,株式会社,東京都,渋谷区,代官山町２０番９号,,13,113,1500034,,,2025-02-05,合併による解散等,1011001046633,令和７年２月１日東京都渋谷区代官山町２０番９号株式会社ブロードエッジ・アドバイザーズ（1011001046633）に合併し解散,2015-10-05,1,,,,,ブロードエッジファクトリー,0
291,2011001111477,登記記録の閉鎖等,0,2025-03-06,2025-02-05,ＦＯＯＤ　ＥＮＧＩＮＥＥＲＩＮＧ　ＤＥＳＩＧＮ株式会社,,株式会社,東京都,渋谷区,代官山町２０番９号,,13,113,1500034,,,2025-02-05,合併による解散等,1011001046633,令和７年２月１日東京都渋谷区代官山町２０番９号株式会社ブロードエッジ・アドバイザーズ（1011001046633）に合併し解散,2016-06-20,1,,,,,フードエンジニアリングデザイン,0
292,2011001138074,登記記録の閉鎖等,0,2025-03-06,2025-02-25,セールスブースト株式会社,,株式会社,東京都,豊島区,雑司が谷２丁目１４－４コンセール目白６０３,,13,116,1710032,,,2025-02-25,清算の結了等,,,2021-01-25,1,,,,,セールスブースト,0
319,2012401025639,登記記録の閉鎖等,0,2025-03-06,2025-03-04,株式会社ウィズ・コンサルタンツ,,株式会社,東京都,調布市,布田１丁目４３番地２,,13,208,1820024,,,2025-03-04,清算の結了等,,,2015-10-05,1,,,,,ウィズコンサルタンツ,0
331,2020001128951,登記記録の閉鎖等,0,2025-03-06,2025-02-19,株式会社Ｅｉｇｈｔｈ,,株式会社,神奈川県,横浜市港北区,下田町５丁目６番地１９号１,,14,109,2230064,,,2025-02-19,清算の結了等,,,2018-11-30,1,,,,,エイス,0
338,2020002056499,登記記録の閉鎖等,0,2025-03-06,2025-02-19,有限会社橋本組,,有限会社,神奈川県,横浜市神奈川区,白幡南町３４番Ｂ－３０３号,,14,102,2210073,,,2025-02-19,清算の結了等,,,2015-10-05,1,,,,,,0
344,2030001049346,登記記録の閉鎖等,0,2025-03-06,2025-02-28,株式会社グラフィックアーツ,,株式会社,埼玉県,志木市,下宗岡４丁目２３番３０号,,11,228,3530003,,,2025-02-28,清算の結了等,,,2015-10-05,1,,,,,グラフィックアーツ,0
394,2120001264183,登記記録の閉鎖等,0,2025-03-06,2025-03-03,ヴォアラテック株式会社,,株式会社,大阪府,大阪市住之江区,粉浜西３丁目７番１８号,,27,125,5590007,,,2025-03-03,清算の結了等,,,2024-04-19,1,,,,,ヴォアラテック,0
408,2122002012694,登記記録の閉鎖等,0,2025-03-06,2025-03-03,有限会社テレック,,有限会社,大阪府,大東市,氷野２丁目６番２４号,,27,218,5740062,,,2025-03-03,清算の結了等,,,2015-10-05,1,,,,,テレック,0
424,2160003001556,登記記録の閉鎖等,0,2025-03-06,2025-01-27,ＪＢ合同会社,,合同会社,滋賀県,大津市,坂本８丁目１３番２７号,,25,201,5200113,,,2025-01-27,清算の結了等,,,2017-09-14,1,,,,,ジェイビー,0
426,2180002060361,登記記録の閉鎖等,0,2025-03-06,2025-02-28,有限会社ウエスト,,有限会社,愛知県,名古屋市西区,比良４丁目２６９番地,,23,104,4520802,,,2025-02-28,清算の結了等,,,2015-10-05,1,,,,,ウエスト,0
428,2180003026097,登記記録の閉鎖等,0,2025-03-06,2025-02-21,合同会社Ａｕｔｏｉｎｄｏ,,合同会社,愛知県,名古屋市中村区,畑江通５丁目１番地,,23,105,4530851,,,2025-02-21,清算の結了等,,,2023-12-11,1,,,,,オートインドウ,0
431,2180301008912,登記記録の閉鎖等,0,2025-03-06,2025-02-27,株式会社グラーナ,,株式会社,愛知県,豊橋市,下五井町青木３２番地１,,23,201,4400091,,,2025-02-27,清算の結了等,,,2015-10-05,1,,,,,グラーナ,0
439,2190005007128,登記記録の閉鎖等,0,2025-03-06,2025-02-28,浄楽寺,,その他の設立登記法人,三重県,多気郡多気町,佐伯中１９４番地,,24,441,5192185,,,2025-02-28,清算の結了等,,,2015-10-05,1,,,,,ジョウラクジ,0
443,2220001022655,登記記録の閉鎖等,0,2025-03-06,2025-03-03,源乃商事株式会社,,株式会社,石川県,金沢市,西金沢新町１９５番地,,17,201,9218055,,,2025-03-03,清算の結了等,,,2018-12-27,1,,,,,,0
454,2270001007081,登記記録の閉鎖等,0,2025-03-06,2025-03-05,株式会社北島物流,,株式会社,鳥取県,東伯郡北栄町,北条島４３６番地２,,31,372,6892112,,,2025-03-05,清算の結了等,,,2016-10-21,1,,,,,キタジマブツリュウ,0
475,2340002018491,登記記録の閉鎖等,0,2025-03-06,2025-02-27,有限会社アロハ交通,,有限会社,鹿児島県,指宿市,東方１０１００番地３,,46,210,8910404,,,2025-02-27,清算の結了等,,,2015-10-05,1,,,,,アロハコウツウ,0
476,2350001008237,登記記録の閉鎖等,0,2025-03-06,2025-03-03,株式会社ひろせストアー,,株式会社,宮崎県,都城市,鷹尾５丁目１街区１１号,,45,202,8850081,,,2025-03-03,合併による解散等,4350001017442,令和７年３月１日宮崎県都城市鷹尾五丁目１街区１１号株式会社ひろせアセット（4350001017442）に合併し解散,2015-10-05,1,,,,,ヒロセストアー,0
487,2400002008651,登記記録の閉鎖等,0,2025-03-06,2025-02-21,株式会社創健舎,,株式会社,岩手県,花巻市,石鳥谷町松林寺第３地割８１番地１３,,03,205,0283182,,,2025-02-21,清算の結了等,,,2015-10-05,1,,,,,ソウケンシャ,0
515,3010403018924,登記記録の閉鎖等,0,2025-03-06,2025-02-28,合同会社水明ソーラーパーク,,合同会社,島根県,邑智郡邑南町,上亀谷３９４番１,,32,449,6960224,,,2025-02-28,合併による解散等,3011001038942,令和７年１月１日東京都港区六本木三丁目２番１号合同会社ＤＭＭ．ｃｏｍ（3011001038942）に合併し解散,2018-07-09,1,,,,,スイメイソーラーパーク,0
530,3011001105684,登記記録の閉鎖等,0,2025-03-06,2025-02-25,株式会社ＩＫ,,株式会社,東京都,立川市,柴崎町２丁目１１番２０号スマイル立川３Ｆ,,13,202,1900023,,,2025-02-25,清算の結了等,,,2015-10-05,1,,,,,アイケー,0
532,3011001131937,登記記録の閉鎖等,0,2025-03-06,2025-02-18,ビフォーデント株式会社,,株式会社,東京都,千代田区,永田町２丁目１７番５－６０２号,,13,101,1000014,,,2025-02-18,清算の結了等,,,2020-01-24,1,,,,,ビフォーデント,0
575,3030001157098,登記記録の閉鎖等,0,2025-03-06,2025-03-03,株式会社グローバル総研,,株式会社,埼玉県,川口市,芝中田１丁目３９番９号ＲＯＮＤＯ－ＰＡＲＫビル２Ｆ,,11,203,3330847,,,2025-03-03,清算の結了等,,,2023-11-10,1,,,,,グローバルソウケン,0
598,3050002033180,登記記録の閉鎖等,0,2025-03-06,2025-02-18,有限会社酒井商事,,有限会社,茨城県,龍ケ崎市,南中島町３８４番地,,08,208,3010047,,,2025-02-18,清算の結了等,,,2015-10-05,1,,,,,サカイショウジ,0
602,3070001026217,登記記録の閉鎖等,0,2025-03-06,2025-03-03,株式会社ＪＡファームたかさき,,株式会社,群馬県,高崎市,新保町１４８２番地,,10,202,3700018,,,2025-03-03,清算の結了等,,,2015-10-05,1,,,,,ジェイエイファームタカサキ,0
607,3080002004807,登記記録の閉鎖等,0,2025-03-06,2025-03-03,有限会社聖産業,,有限会社,静岡県,静岡市駿河区,聖一色４４１番地,,22,102,4228007,,,2025-03-03,合併による解散等,3080002012727,令和７年３月１日静岡市駿河区聖一色４４１番地株式会社ＭＡＭ（3080002012727）に合併し解散,2015-10-05,1,,,,,ヒジリサンギョウ,0
609,3080101021769,登記記録の閉鎖等,0,2025-03-06,2025-02-28,株式会社Ｃｉｅｌ,,株式会社,静岡県,富士宮市,中島町３５６番地の６,,22,207,4180045,,,2025-02-28,清算の結了等,,,2020-04-30,1,,,,,シエル,0
612,3080402004695,登記記録の閉鎖等,0,2025-03-06,2025-02-26,有限会社竹内建装,,有限会社,静岡県,浜松市中央区,野口町５４６番地の６,,22,138,4300919,,,2025-02-26,清算の結了等,,,2015-10-05,1,,,,,タケウチケンソウ,0
613,3110001014662,登記記録の閉鎖等,0,2025-03-06,2025-03-03,株式会社北栄商会,,株式会社,新潟県,三条市,西四日町４丁目１３番１１号,,15,204,9550851,,,2025-03-03,清算の結了等,,,2015-10-05,1,,,,,ホクエイショウカイ,0
627,3120003016623,登記記録の閉鎖等,0,2025-03-06,2025-02-27,合同会社ＡＢＹ,,合同会社,大阪府,大阪市東淀川区,下新庄１丁目１１番１１－３１１号,,27,114,5330021,,,2025-02-27,清算の結了等,,,2019-12-04,1,,,,,アビィ,0
631,3120105008601,登記記録の閉鎖等,0,2025-03-06,2025-02-27,一般社団法人ほっと,,その他の設立登記法人,大阪府,堺市中区,深井中町１１５４番地２３,,27,142,5998272,,,2025-02-27,清算の結了等,,,2016-12-19,1,,,,,ホット,0
648,3160001015870,登記記録の閉鎖等,0,2025-03-06,2025-03-03,近江技研商事株式会社,,株式会社,滋賀県,守山市,焔魔堂町１０３番地の７,,25,207,5240042,,,2025-03-03,清算の結了等,,,2015-10-05,1,,,,,オウミギケンショウジ,0
663,3200001016815,登記記録の閉鎖等,0,2025-03-06,2025-03-03,ディエスイー株式会社,,株式会社,岐阜県,羽島市,竹鼻町錦町７番地,,21,209,5016242,,,2025-03-03,合併による解散等,1200001011990,令和７年３月１日岐阜県羽島市舟橋町出須賀二丁目３５番地ＫＳＣ株式会社（1200001011990）に合併し解散,2015-10-05,1,,,,,ディエスイー,0
669,3230001016952,登記記録の閉鎖等,0,2025-03-06,2025-03-03,中野Ｃｏｍｐａｎｙ株式会社,,株式会社,東京都,調布市,仙川町３丁目９番地７エテルノ上原Ｂ１Ｆ,,13,208,1820002,,,2025-03-03,清算の結了等,,,2017-05-08,1,,,,,ナカノカンパニー,0
715,3380005006869,登記記録の閉鎖等,0,2025-03-06,2025-02-25,ＮＰＯ法人タッチ・ザ・サイエンス,,その他の設立登記法人,福島県,いわき市,錦町江栗３丁目９０番地,,07,204,9748232,,,2025-02-25,清算の結了等,,,2015-10-05,1,,,,,エヌピーオーホウジンタッチザサイエンス,0
727,3480005004227,登記記録の閉鎖等,0,2025-03-06,2025-03-04,医療法人森本内科胃腸科,,その他の設立登記法人,徳島県,阿南市,富岡町あ石１６番地１,,36,204,7740030,,,2025-03-04,清算の結了等,,,2015-10-05,1,,,,,モリモトナイカイチョウカ,0
756,4010005029435,登記記録の閉鎖等,0,2025-03-06,2025-02-28,Ｏｔｏｗａ　Ｊａｐａｎ　Ｈｏｌｄｉｎｇ特定目的会社,,その他の設立登記法人,東京都,千代田区,霞が関３丁目２番５号霞が関ビル,,13,101,1000013,,,2025-02-28,清算の結了等,,,2018-12-04,1,,,,,オトワジャパンホールディング,0
841,4012705001350,登記記録の閉鎖等,0,2025-03-06,2025-02-26,特定非営利活動法人ＭＥＩＭＩ・ＣＬＵＢ,,その他の設立登記法人,東京都,東久留米市,下里７丁目８番１０－１０４号,,13,222,2030043,,,2025-02-26,清算の結了等,,,2015-10-05,1,,,,,メイミクラブ,0
847,4020002014711,登記記録の閉鎖等,0,2025-03-06,2025-02-26,有限会社ダイムストアー,,有限会社,神奈川県,横浜市青葉区,鴨志田町５３９番地２,,14,117,2270033,,,2025-02-26,清算の結了等,,,2015-10-05,1,,,,,ダイムストアー,0
896,4120001202050,登記記録の閉鎖等,0,2025-03-06,2025-02-28,株式会社ＭＡＲＵＨＡＴＡ,,株式会社,大阪府,大阪市中央区,西心斎橋１丁目１２番２３－２６０４号,,27,128,5420086,,,2025-02-28,清算の結了等,,,2016-11-21,1,,,,,マルハタ,0
897,4120001251592,登記記録の閉鎖等,0,2025-03-06,2025-02-03,株式会社住商,,株式会社,大阪府,大阪市淀川区,宮原５丁目３番４９号（松尾ビル４階）,,27,123,5320003,,,2025-02-03,清算の結了等,,,2023-01-12,1,,,,,スミショウ,0
899,4120002043849,登記記録の閉鎖等,0,2025-03-06,2025-02-26,有限会社金井建築設計,,有限会社,大阪府,池田市,城山町３番１８号,,27,204,5630052,,,2025-02-26,清算の結了等,,,2015-10-05,1,,,,,カナイケンチクセッケイ,0
910,4140001001129,登記記録の閉鎖等,0,2025-03-06,2025-03-03,株式会社エンゼル引越サービス,,株式会社,兵庫県,神戸市東灘区,魚崎浜町２７番地の３５,,28,101,6580024,,,2025-03-03,清算の結了等,,,2015-10-05,1,,,,,エンゼルヒッコシサービス,0
912,4140001099675,登記記録の閉鎖等,0,2025-03-06,2025-02-26,ＣＡＣＡＯ　ＡＬＵＮ株式会社,,株式会社,静岡県,浜松市中央区,丸塚町５１０番地の７,,22,138,4350046,,,2025-02-26,清算の結了等,,,2015-10-23,1,,,,,カカオアルン,0
917,4140002037485,登記記録の閉鎖等,0,2025-03-06,2025-02-28,有限会社大盛ミート,,有限会社,兵庫県,明石市,大久保町八木１６２番地の１,,28,203,6740063,,,2025-02-28,清算の結了等,,,2015-10-05,1,,,,,オオモリミート,0
922,4150005002493,登記記録の閉鎖等,0,2025-03-06,2025-03-05,特定非営利活動法人スクラップブッキング協会,,その他の設立登記法人,奈良県,奈良市,左京６丁目５番３号ならやま研究パーク内,,29,201,6310801,,,2025-03-05,清算の結了等,,,2015-10-05,1,,,,,スクラップブッキングキョウカイ,0
975,4340002018746,登記記録の閉鎖等,0,2025-03-06,2025-02-27,白洋産業有限会社,,有限会社,鹿児島県,指宿市,東方１２１２６番地１２,,46,210,8910404,,,2025-02-27,清算の結了等,,,2015-10-05,1,,,,,ハクヨウサンギョウ,0
978,4350002003045,登記記録の閉鎖等,0,2025-03-06,2025-03-03,有限会社ディレイ,,有限会社,宮崎県,宮崎市,和知川原１丁目４９番地,,45,201,8800023,,,2025-03-03,清算の結了等,,,2015-10-05,1,,,,,ディレイ,0
1011,4470001008710,登記記録の閉鎖等,0,2025-03-06,2025-02-28,株式会社喜悦,,株式会社,香川県,綾歌郡宇多津町,浜二番丁２０番地５,,37,386,7690202,,,2025-02-28,清算の結了等,,,2015-10-05,1,,,,,キエツ,0
1018,5010001042911,登記記録の閉鎖等,0,2025-03-06,2025-02-07,株式会社ケイ・エヌ・コマース,,株式会社,東京都,中央区,日本橋本町４丁目１２番１６号,,13,102,1030023,,,2025-02-07,合併による解散等,3010001040198,令和７年２月１日東京都中央区日本橋本町四丁目１２番１６号株式会社カネキカナカオ（3010001040198）に合併し解散,2015-10-05,1,,,,,ケイエヌコマース,0
1037,5010401166368,登記記録の閉鎖等,0,2025-03-06,2025-02-18,日本ＧＬＰ株式会社,,株式会社,東京都,中央区,八重洲２丁目２番１号,,13,102,1040028,,,2025-02-18,合併による解散等,8010401080871,令和７年２月８日東京都中央区八重洲二丁目２番１号日本ＧＬＰ株式会社（8010401080871）に合併し解散,2022-03-28,1,,,,,ニホンジーエルピー,0
1050,5010501027536,登記記録の閉鎖等,0,2025-03-06,2025-02-28,エブリアート株式会社,,株式会社,東京都,千代田区,外神田３丁目１６番１３号,,13,101,1010021,,,2025-02-28,合併による解散等,8010401001027,令和７年２月１日東京都港区赤坂六丁目１５番１１号株式会社ＴＮＮホールディングス（8010401001027）に合併し解散,2015-10-05,1,,,,,エブリアート,0
1068,5011103010277,登記記録の閉鎖等,0,2025-03-06,2025-02-26,ＳＩプロパティーズ合同会社,,合同会社,東京都,新宿区,四谷２丁目９番地１５東京ユナイテッド綜合事務所内,,13,104,1600004,,,2025-02-26,清算の結了等,,,2020-12-23,1,,,,,エスアイプロパティーズ,0
1071,5011202002869,登記記録の閉鎖等,0,2025-03-06,2025-03-04,新東京アパート株式会社,,株式会社,東京都,中野区,中野５丁目３５番８号,,13,114,1640001,,,2025-03-04,清算の結了等,,,2015-10-05,1,,,,,シントウキョウアパート,0
1078,5012301001415,登記記録の閉鎖等,0,2025-03-06,2025-03-03,株式会社ダウ,,株式会社,東京都,町田市,玉川学園２丁目１番１４号,,13,209,1940041,,,2025-03-03,清算の結了等,,,2015-10-05,1,,,,,ダウ,0
1087,5013101007560,登記記録の閉鎖等,0,2025-03-06,2025-03-03,オリジナルガーデン株式会社,,株式会社,東京都,あきる野市,下代継２５番地３,,13,228,1970831,,,2025-03-03,合併による解散等,7013101005991,令和７年３月１日東京都あきる野市下代継２５番地３小澤総業株式会社（7013101005991）に合併し解散,2017-03-17,1,,,,,オリジナルガーデン,0
1105,5021001042891,登記記録の閉鎖等,0,2025-03-06,2025-03-04,ＩＴ－ＳＥＡ株式会社,,株式会社,神奈川県,横須賀市,佐島３丁目１１番３３号,,14,201,2400103,,,2025-03-04,清算の結了等,,,2015-10-05,1,,,,,アイティーシー,0
1137,5050001048054,登記記録の閉鎖等,0,2025-03-06,2025-02-28,株式会社ブランクスペース,,株式会社,茨城県,つくば市,二の宮１丁目２番２号,,08,220,3050051,,,2025-02-28,清算の結了等,,,2020-09-17,1,,,,,ブランクスペース,0
1145,5070002002982,登記記録の閉鎖等,0,2025-03-06,2025-03-04,有限会社スタディオート,,有限会社,群馬県,前橋市,三俣町１丁目２２番地１３,,10,201,3710018,,,2025-03-04,清算の結了等,,,2015-10-05,1,,,,,スタディオート,0
1147,5080102011404,登記記録の閉鎖等,0,2025-03-06,2025-03-03,有限会社広瀬塗装工業,,有限会社,静岡県,三島市,谷田２０３７番地の１４,,22,206,4110801,,,2025-03-03,清算の結了等,,,2015-10-05,1,,,,,ヒロセトソウコウギョウ,0
1153,5080402015360,登記記録の閉鎖等,0,2025-03-06,2025-02-26,有限会社花大,,有限会社,静岡県,浜松市浜名区,沼２６６番地の７,,22,139,4340037,,,2025-02-26,清算の結了等,,,2015-10-05,1,,,,,ハナダイ,0
1159,5120001193883,登記記録の閉鎖等,0,2025-03-06,2025-02-28,株式会社藤,,株式会社,大阪府,大阪市阿倍野区,阿倍野筋１丁目６番１号,,27,119,5450052,,,2025-02-28,清算の結了等,,,2015-10-19,1,,,,,フジ,0
1166,5120002007778,登記記録の閉鎖等,0,2025-03-06,2025-03-03,有限会社エヌティサービス,,有限会社,大阪府,大阪市城東区,永田２丁目４番１８－１１０９号,,27,118,5360022,,,2025-03-03,清算の結了等,,,2015-10-05,1,,,,,エヌティサービス,0
1173,5120901022514,登記記録の閉鎖等,0,2025-03-06,2025-02-05,株式会社スイーツデザインラボ,,株式会社,東京都,渋谷区,代官山町２０番９号,,13,113,1500034,,,2025-02-05,合併による解散等,1011001046633,令和７年２月１日東京都渋谷区代官山町２０番９号株式会社ブロードエッジ・アドバイザーズ（1011001046633）に合併し解散,2015-10-05,1,,,,,スイーツデザインラボ,0
1176,5130001026605,登記記録の閉鎖等,0,2025-03-06,2025-03-04,ｃａｂｉｃ株式会社,,株式会社,京都府,京都市中京区,烏丸通六角上る饅頭屋町６１７番地六角長谷ビル８階,,26,104,6048161,,,2025-03-04,合併による解散等,9011001045116,令和７年２月１日東京都渋谷区渋谷二丁目１２番１９号インパクトフィールド株式会社（9011001045116）に合併し解散,2015-10-05,1,,,,,キャビック,0
1182,5140001134324,登記記録の閉鎖等,0,2025-03-06,2025-02-26,株式会社Ｙ　Ｉ　ＣＯＲＲＥＣＴ,,株式会社,兵庫県,加古川市,平岡町新在家１４５７番地の１０,,28,210,6750101,,,2025-02-26,清算の結了等,,,2024-05-07,1,,,,,ワイアイコレクト,0
1188,5160005010296,登記記録の閉鎖等,0,2025-03-06,2025-03-04,一般社団法人お茶芽Ｄｒｅａｍ朝宮,,その他の設立登記法人,滋賀県,甲賀市,信楽町上朝宮８１９番地,,25,209,5291841,,,2025-03-04,清算の結了等,,,2016-09-07,1,,,,,オチャメドリームアサミヤ,0
1198,5180302000948,登記記録の閉鎖等,0,2025-03-06,2025-03-03,株式会社ウインディ,,株式会社,愛知県,岡崎市,大和町字西之坊２８番地４,,23,202,4440931,,,2025-03-03,清算の結了等,,,2015-10-05,1,,,,,ウインディ,0
1199,5180302023825,登記記録の閉鎖等,0,2025-03-06,2025-02-28,有限会社勇基,,有限会社,愛知県,豊田市,平芝町３丁目１８番地２,,23,211,4710065,,,2025-02-28,清算の結了等,,,2015-10-05,1,,,,,ユウキ,0
1202,5190002011336,登記記録の閉鎖等,0,2025-03-06,2025-03-04,有限会社木村通商,,有限会社,三重県,志摩市,阿児町鵜方３４５４番地１０,,24,215,5170501,,,2025-03-04,清算の結了等,,,2015-10-05,1,,,,,キムラツウショウ,0
1208,5220002013691,登記記録の閉鎖等,0,2025-03-06,2025-03-03,有限会社笠井水産,,有限会社,石川県,七尾市,大田町壱壱壱部１７番地２,,17,202,9260006,,,2025-03-03,清算の結了等,,,2015-10-05,1,,,,,,0
1224,5280001005585,登記記録の閉鎖等,0,2025-03-06,2025-03-05,木次水産株式会社,,株式会社,島根県,雲南市,木次町里方８８４番地２,,32,209,6991311,,,2025-03-05,清算の結了等,,,2015-10-05,1,,,,,,0
1246,5340002017334,登記記録の閉鎖等,0,2025-03-06,2025-03-03,有限会社入来観光交通,,有限会社,鹿児島県,薩摩川内市,入来町副田５８５２番地７・８,,46,215,8951401,,,2025-03-03,清算の結了等,,,2015-10-05,1,,,,,イリキカンコウコウツウ,0
1251,5360001009388,登記記録の閉鎖等,0,2025-03-06,2025-03-04,株式会社メディア沖縄,,株式会社,沖縄県,浦添市,仲西３丁目１番７号,,47,208,9012125,,,2025-03-04,清算の結了等,,,2015-10-05,1,,,,,メディアオキナワ,0
1253,5360001024049,登記記録の閉鎖等,0,2025-03-06,2025-02-28,株式会社ＤＭＭ　ＲＥＳＯＲＴＳ,,株式会社,沖縄県,豊見城市,字豊崎３番地５９,,47,212,9010225,,,2025-02-28,合併による解散等,3011001038942,令和７年１月１日東京都港区六本木三丁目２番１号合同会社ＤＭＭ．ｃｏｍ（3011001038942）に合併し解散,2018-06-01,1,,,,,ディーエムエムリゾーツ,0
1261,5400001000391,登記記録の閉鎖等,0,2025-03-06,2025-02-21,株式会社岡部工業所,,株式会社,岩手県,盛岡市,大通３丁目１０番１２号,,03,201,0200022,,,2025-02-21,清算の結了等,,,2015-10-05,1,,,,,オカベコウギョウショ,0
1349,6012401037052,登記記録の閉鎖等,0,2025-03-06,2025-03-03,株式会社ｃｏｎｏｔｅ,,株式会社,東京都,調布市,小島町１丁目１１番９号,,13,208,1820026,,,2025-03-03,合併による解散等,8011001056287,令和７年２月１日東京都渋谷区神宮前六丁目１５番１４号株式会社　ｆｉｆｔｈ（8011001056287）に合併し解散,2020-10-07,1,,,,,コノテ,0
1351,6012402013135,登記記録の閉鎖等,0,2025-03-06,2025-03-04,有限会社大塚保険商会,,有限会社,東京都,狛江市,岩戸北４丁目１番３号,,13,219,2010004,,,2025-03-04,清算の結了等,,,2015-10-05,1,,,,,オオツカホケンショウカイ,0
1357,6020001069564,登記記録の閉鎖等,0,2025-03-06,2025-02-21,株式会社せいじ建築設計事務所,,株式会社,神奈川県,川崎市中原区,今井上町１０－１－１３０,,14,133,2110067,,,2025-02-21,清算の結了等,,,2015-10-05,1,,,,,セイジケンチクセッケイジムショ,0
1378,6030002120218,登記記録の閉鎖等,0,2025-03-06,2025-03-04,有限会社植庸園,,有限会社,埼玉県,日高市,大字女影１７３４番地,,11,242,3501227,,,2025-03-04,清算の結了等,,,2015-10-05,1,,,,,ショクヨウエン,0
1389,6050005012856,登記記録の閉鎖等,0,2025-03-06,2025-02-27,一般社団法人だんらん茨城,,その他の設立登記法人,茨城県,水戸市,城南１丁目３番３２号,,08,201,3100803,,,2025-02-27,清算の結了等,,,2021-04-09,1,,,,,ダンランイバラキ,0
1393,6070001012998,登記記録の閉鎖等,0,2025-03-06,2025-03-04,ギガネットワーク株式会社,,株式会社,群馬県,前橋市,前箱田町１３６番地１マイトピアＡ－１０１号,,10,201,3710835,,,2025-03-04,清算の結了等,,,2015-10-05,1,,,,,ギガネットワーク,0
1394,6070001031899,登記記録の閉鎖等,0,2025-03-06,2025-03-03,株式会社Ｌｉｎｋｓ,,株式会社,群馬県,高崎市,小八木町１６７８番地,,10,202,3700071,,,2025-03-03,合併による解散等,6070001007800,令和７年３月１日群馬県高崎市小八木町１５３８番地株式会社東部オート（6070001007800）に合併し解散,2016-03-04,1,,,,,リンクス,0
1405,6100001022259,登記記録の閉鎖等,0,2025-03-06,2025-02-28,信州下伊那くだもの直販株式会社,,株式会社,長野県,飯田市,箕瀬町１丁目２４５４番地１,,20,205,3950054,,,2025-02-28,清算の結了等,,,2015-10-05,1,,,,,シンシュウシモイナクダモノチョクハン,0
1406,6100001031986,登記記録の閉鎖等,0,2025-03-06,2025-02-28,株式会社縁側,,株式会社,長野県,諏訪郡原村,１３７３４番地イ,,20,363,3910100,,,2025-02-28,清算の結了等,,,2019-02-19,1,,,,,エンガワ,0
1416,6120001118749,登記記録の閉鎖等,0,2025-03-06,2025-02-25,日本食品流通研究所株式会社,,株式会社,大阪府,吹田市,千里山西１丁目３５番４３号,,27,205,5650851,,,2025-02-25,清算の結了等,,,2015-10-05,1,,,,,,0
1419,6120001256706,登記記録の閉鎖等,0,2025-03-06,2025-03-05,株式会社アドバンス,,株式会社,大阪府,大阪市東淀川区,東中島２丁目１番２１,,27,114,5330033,,,2025-03-05,清算の結了等,,,2023-07-28,1,,,,,アドバンス,0
1461,6180002014702,登記記録の閉鎖等,0,2025-03-06,2025-03-03,有限会社ピーエフテー,,有限会社,愛知県,名古屋市南区,要町４丁目５番地,,23,112,4570802,,,2025-03-03,清算の結了等,,,2015-10-05,1,,,,,ピーエフテー,0
1479,6210002011167,登記記録の閉鎖等,0,2025-03-06,2025-03-03,有限会社ＴＲＩＯ,,有限会社,福井県,敦賀市,櫛川町２丁目９１５番地,00077919,18,202,9140822,,,2025-03-03,清算の結了等,,,2015-10-05,1,,,,,ティーアールアイオー,0
1483,6240001042796,登記記録の閉鎖等,0,2025-03-06,2025-02-28,株式会社ダイレクトビジネスゲート,,株式会社,広島県,呉市,焼山政畝１丁目９番１７号,,34,202,7370934,,,2025-02-28,清算の結了等,,,2015-10-05,1,,,,,ダイレクトビジネスゲート,0
1500,6290802022810,登記記録の閉鎖等,0,2025-03-06,2025-03-05,有限会社かんだ介護サービス,,有限会社,福岡県,京都郡苅田町,京町１丁目１７番地の１９,,40,621,8000351,,,2025-03-05,清算の結了等,,,2015-10-05,1,,,,,カンダカイゴサービス,0
1501,6310001009383,登記記録の閉鎖等,0,2025-03-06,2025-03-04,株式会社シルバーグラスエンジニアリング,,株式会社,長崎県,大村市,武部町４６０番地２,,42,205,8560035,,,2025-03-04,清算の結了等,,,2015-10-05,1,,,,,シルバーグラスエンジニアリング,0
1513,6360003009988,登記記録の閉鎖等,0,2025-03-06,2025-03-04,合同会社ハピネス,,合同会社,沖縄県,那覇市,三原３丁目１２番４４号,,47,201,9020063,,,2025-03-04,清算の結了等,,,2019-12-25,1,,,,,ハピネス,0
1520,6380001020482,登記記録の閉鎖等,0,2025-03-06,2025-02-25,株式会社大心総業,,株式会社,福島県,福島市,荒井字杉下前３２番地の２,,07,201,9602156,,,2025-02-25,清算の結了等,,,2015-10-05,1,,,,,,0
1538,6450002011325,登記記録の閉鎖等,0,2025-03-06,2025-02-28,有限会社松本商店,,有限会社,北海道,天塩郡豊富町,字豊富停車場通１６番地,,01,516,0984140,,,2025-02-28,清算の結了等,,,2015-10-05,1,,,,,マツモトショウテン,0
1546,7010001124897,登記記録の閉鎖等,0,2025-03-06,2025-02-18,大塚設備サービス株式会社,,株式会社,東京都,文京区,本郷５丁目１１番１４号,,13,105,1130033,,,2025-02-18,清算の結了等,,,2015-10-05,1,,,,,オオツカセツビサービス,0
1559,7010005006324,登記記録の閉鎖等,0,2025-03-06,2025-02-28,特定非営利活動法人炭文化協会,,その他の設立登記法人,東京都,中央区,銀座７丁目１８番１３号クオリア銀座２０３号,,13,102,1040061,,,2025-02-28,清算の結了等,,,2015-10-05,1,,,,,スミブンカキョウカイ,0
1563,7010401166003,登記記録の閉鎖等,0,2025-03-06,2025-02-13,株式会社ＳＯＵＴＨ　ＶＩＬＬＡＧＥ,,株式会社,東京都,港区,六本木４丁目１１－１１ＧＭビル８階,,13,103,1060032,,,2025-02-13,清算の結了等,,,2022-03-28,1,,,,,サウスヴィレッジ,0
1568,7010403015439,登記記録の閉鎖等,0,2025-03-06,2025-02-14,合同会社ＴＳＭ１３８,,合同会社,東京都,港区,元赤坂１丁目１番７号,,13,103,1070051,,,2025-02-14,清算の結了等,,,2016-10-14,1,,,,,ティーエスエムヒャクサンジュウハチ,0
1574,7010502018490,登記記録の閉鎖等,0,2025-03-06,2025-03-03,有限会社日本セレスコ,,有限会社,東京都,足立区,西保木間２丁目２番２２－５０５号,,13,121,1210812,,,2025-03-03,清算の結了等,,,2015-10-05,1,,,,,ニホンセレスコ,0
1601,7011801000825,登記記録の閉鎖等,0,2025-03-06,2025-03-04,岡田タイヤ工業株式会社,,株式会社,東京都,葛飾区,白鳥１丁目１２番６号,,13,122,1250063,,,2025-03-04,清算の結了等,,,2015-10-05,1,,,,,オカダタイヤコウギョウ,0
1605,7012401020593,登記記録の閉鎖等,0,2025-03-06,2025-03-03,株式会社エッセンス,,株式会社,東京都,武蔵野市,吉祥寺本町１丁目１１番２１号,,13,203,1800004,,,2025-03-03,清算の結了等,,,2015-10-05,1,,,,,エッセンス,0
1615,7020001056306,登記記録の閉鎖等,0,2025-03-06,2025-02-19,株式会社ウォーキングＤＡＹ,,株式会社,神奈川県,横浜市港北区,篠原台町３２番１８号,,14,109,2220024,,,2025-02-19,清算の結了等,,,2015-10-05,1,,,,,ウォーキングデイ,0
1624,7020002020987,登記記録の閉鎖等,0,2025-03-06,2025-02-25,有限会社カミヤ技研,,有限会社,神奈川県,横浜市旭区,今宿西町２０６番地３,,14,112,2410031,,,2025-02-25,清算の結了等,,,2015-10-05,1,,,,,カミヤギケン,0
1625,7020002054085,登記記録の閉鎖等,0,2025-03-06,2025-02-25,有限会社アルファメンテック,,有限会社,神奈川県,横浜市旭区,川井本町１１番地１,,14,112,2410803,,,2025-02-25,清算の結了等,,,2015-10-05,1,,,,,アルファメンテック,0
1641,7030002080304,登記記録の閉鎖等,0,2025-03-06,2025-03-03,有限会社ピーアールシステム,,有限会社,埼玉県,川越市,大字上戸３４２番地２４,,11,201,3500816,,,2025-03-03,清算の結了等,,,2015-10-05,1,,,,,ピーアールシステム,0
1647,7040001090591,登記記録の閉鎖等,0,2025-03-06,2025-03-03,イオンリテールストア株式会社,,株式会社,千葉県,千葉市美浜区,中瀬１丁目５番地１,,12,106,2610023,,,2025-03-03,合併による解散等,2040001000456,令和７年３月１日千葉市美浜区中瀬一丁目５番地１イオンリテール株式会社（2040001000456）に合併し解散,2015-10-05,1,,,,,イオンリテールストア,0
1671,7080101005487,登記記録の閉鎖等,0,2025-03-06,2025-03-03,株式会社河村通信,,株式会社,静岡県,駿東郡清水町,堂庭２４７番地の１０,,22,341,4110903,,,2025-03-03,清算の結了等,,,2015-10-05,1,,,,,カワムラツウシン,0
1724,7160001023564,登記記録の閉鎖等,0,2025-03-06,2025-03-03,株式会社近江之花,,株式会社,滋賀県,大津市,萱野浦２５番２４－２０１号,,25,201,5202143,,,2025-03-03,合併による解散等,1160001022803,令和７年３月１日滋賀県大津市萱野浦２５番２４－２０１号株式会社優琵（1160001022803）に合併し解散,2021-08-20,1,,,,,オウミノハナ,0
1749,7250003001773,登記記録の閉鎖等,0,2025-03-06,2025-02-25,高度エネルギー事業拡大パートナーズ合同会社,,合同会社,東京都,千代田区,内幸町２丁目２番２号富国生命ビル１２階ヤンセン外国法事務弁護士事務所内,,13,101,1000011,,,2025-02-25,合併による解散等,8011003009838,令和６年１２月３１日大分県別府市上人仲町９番２４号ハイエネルギー技術ＩＰホールディング合同会社（8011003009838）に合併し解散,2015-10-05,1,,,,,コウドエネルギージギョウカクダイパートナーズ,0
1832,8010402013814,登記記録の閉鎖等,0,2025-03-06,2025-02-14,有限会社ラボラトリイ・オブプリンシピア,,有限会社,東京都,港区,南青山２丁目２２番４号,,13,103,1070062,,,2025-02-14,清算の結了等,,,2015-10-05,1,,,,,ラボラトリイオブプリンシピア,0
1853,8011001122106,登記記録の閉鎖等,0,2025-03-06,2025-02-05,株式会社ブロードエッジ・ウェルビーイング,,株式会社,東京都,渋谷区,代官山町２０番９号,,13,113,1500034,,,2025-02-05,合併による解散等,1011001046633,令和７年２月１日東京都渋谷区代官山町２０番９号株式会社ブロードエッジ・アドバイザーズ（1011001046633）に合併し解散,2018-05-11,1,,,,,ブロードエッジウェルビーイング,0
1873,8011501025535,登記記録の閉鎖等,0,2025-03-06,2025-03-03,報徳電設株式会社,,株式会社,東京都,荒川区,西日暮里２丁目４５番８号角田ビル４Ｆ,,13,118,1160013,,,2025-03-03,清算の結了等,,,2020-01-28,1,,,,,ホウトクデンセツ,0
1883,8020001022629,登記記録の閉鎖等,0,2025-03-06,2025-02-19,株式会社オー・エス・ピー,,株式会社,神奈川県,横浜市神奈川区,鶴屋町２丁目１２番地の１,,14,102,2210835,,,2025-02-19,清算の結了等,,,2015-10-05,1,,,,,オーエスピー,0
1908,8040001078140,登記記録の閉鎖等,0,2025-03-06,2025-03-03,鹿林大建株式会社,,株式会社,千葉県,浦安市,富士見３丁目３番１４号,,12,227,2790043,,,2025-03-03,合併による解散等,7040001029375,令和７年３月１日千葉県浦安市富士見三丁目３番１４号株式会社王鹿（7040001029375）に合併し解散,2015-10-05,1,,,,,シカバヤシダイケン,0
1923,8050002036138,登記記録の閉鎖等,0,2025-03-06,2025-02-28,有限会社會田鉄筋工業,,有限会社,茨城県,取手市,戸頭４丁目１２番２０号,,08,217,3020034,,,2025-02-28,清算の結了等,,,2015-10-05,1,,,,,アイダテッキンコウギョウ,0
1930,8070001026443,登記記録の閉鎖等,0,2025-03-06,2025-02-28,絆良品株式会社,,株式会社,群馬県,太田市,東今泉町１４３番地１,,10,205,3730021,,,2025-02-28,清算の結了等,,,2015-10-05,1,,,,,キズナリョウヒン,0
1933,8070002025510,登記記録の閉鎖等,0,2025-03-06,2025-03-04,有限会社ネットヒルズ,,有限会社,群馬県,桐生市,堤町３丁目１７－４４,,10,203,3760042,,,2025-03-04,合併による解散等,9010401108366,令和７年３月１日群馬県桐生市錦町三丁目１１番２号株式会社ＡＲＡＫＩ＆ＣＯＭＰＡＮＹ（9010401108366）に合併し解散,2015-10-05,1,,,,,ネットヒルズ,0
1936,8080101009644,登記記録の閉鎖等,0,2025-03-06,2025-03-03,株式会社ホームアシスト,,株式会社,静岡県,富士市,日乃出町１１７番地の３,,22,210,4170056,,,2025-03-03,清算の結了等,,,2015-10-05,1,,,,,ホームアシスト,0
1970,8130002020694,登記記録の閉鎖等,0,2025-03-06,2025-03-04,有限会社エナール管理センター,,有限会社,京都府,京都市北区,紫野下御輿町２８番地１,,26,101,6038235,,,2025-03-04,清算の結了等,,,2015-10-05,1,,,,,,0
1981,8150005008479,登記記録の閉鎖等,0,2025-03-06,2025-03-04,一般社団法人Ｔ＆Ｍ,,その他の設立登記法人,奈良県,奈良市,鳥見町１丁目１番地の１５,,29,201,6310065,,,2025-03-04,清算の結了等,,,2015-10-05,1,,,,,ティーアンドエム,0
1985,8180002053112,登記記録の閉鎖等,0,2025-03-06,2025-03-03,有限会社敏プランニング,,有限会社,愛知県,名古屋市中村区,高道町３丁目３番２５号,,23,105,4530037,,,2025-03-03,清算の結了等,,,2015-10-05,1,,,,,トシプランニング,0
1986,8180002061775,登記記録の閉鎖等,0,2025-03-06,2025-02-28,有限会社尾野自動車販売,,有限会社,愛知県,愛知郡東郷町,春木台２丁目１番地の１８,,23,302,4700161,,,2025-02-28,清算の結了等,,,2015-10-05,1,,,,,オノジドウシャハンバイ,0
2002,8240001004167,登記記録の閉鎖等,0,2025-03-06,2025-03-03,株式会社ジェイワンホーム,,株式会社,広島県,広島市西区,三篠町３丁目１９番１５号,,34,104,7330003,,,2025-03-03,合併による解散等,4240001004170,令和７年３月１日広島市西区三篠町三丁目１９番１６号株式会社佐野商事（4240001004170）に合併し解散,2015-10-05,1,,,,,ジェイワンホーム,0
2019,8290001047558,登記記録の閉鎖等,0,2025-03-06,2025-02-20,株式会社読売筑後マーケテイングセンター,,株式会社,福岡県,筑後市,大字長浜４７８番地１,,40,211,8330005,,,2025-02-20,清算の結了等,,,2015-10-05,1,,,,,ヨミウリチクゴマーケティングセンター,0
2034,8340001017844,登記記録の閉鎖等,0,2025-03-06,2025-03-03,株式会社益山工建,,株式会社,鹿児島県,鹿児島市,下伊敷３丁目８６番７号,,46,201,8900005,,,2025-03-03,清算の結了等,,,2015-10-05,1,,,,,,0
2040,8360001008370,登記記録の閉鎖等,0,2025-03-06,2025-03-05,株式会社マイホーム,,株式会社,沖縄県,豊見城市,字嘉数４３番地,,47,212,9010202,,,2025-03-05,清算の結了等,,,2015-10-05,1,,,,,マイホーム,0
2063,8440001005145,登記記録の閉鎖等,0,2025-03-06,2025-03-04,株式会社オフィスＹＯＫＯＨＡＭＡ,,株式会社,北海道,函館市,美原５丁目１５番４号,,01,202,0410806,,,2025-03-04,清算の結了等,,,2015-10-05,1,,,,,,0
2070,8490001001957,登記記録の閉鎖等,0,2025-03-06,2025-03-03,マルチメディアソリューションズ株式会社,,株式会社,高知県,高知市,帯屋町２丁目２番１号,,39,201,7800841,,,2025-03-03,合併による解散等,2490001001954,令和７年３月１日高知市帯屋町二丁目２番１号ヒワサキコンピュータシステム株式会社（2490001001954）に合併し解散,2015-10-05,1,,,,,マルチメディアソリューションズ,0
2083,9010001204458,登記記録の閉鎖等,0,2025-03-06,2025-03-04,ＮＥＵＦＩＥＬＤ株式会社,,株式会社,神奈川県,厚木市,田村町１１番２２－３０２号,,14,212,2430016,,,2025-03-04,清算の結了等,,,2019-10-03,1,,,,,ニューフィールド,0
2085,9010001246087,登記記録の閉鎖等,0,2025-03-06,2025-02-18,Ａｄａ　Ｉｎｆｒａｓｔｒｕｃｔｕｒｅ　Ｊａｐａｎ株式会社,,株式会社,東京都,中央区,八重洲２丁目２番１号,,13,102,1040028,,,2025-02-18,合併による解散等,8010401080871,令和７年２月８日東京都中央区八重洲二丁目２番１号日本ＧＬＰ株式会社（8010401080871）に合併し解散,2024-06-26,1,,,,,エイダインフラストラクチャージャパン,0
2091,9010005018458,登記記録の閉鎖等,0,2025-03-06,2025-03-03,公益財団法人日本国際協力財団,,その他の設立登記法人,東京都,千代田区,一番町四番２５－７,,13,101,1020082,,,2025-03-03,清算の結了等,,,2015-10-05,1,,,,,ニホンコクサイキョウリョクザイダン,0
2105,9010405015179,登記記録の閉鎖等,0,2025-03-06,2025-02-14,一般社団法人ＴＳＭ１３８,,その他の設立登記法人,東京都,港区,元赤坂１丁目１番７号,,13,103,1070051,,,2025-02-14,清算の結了等,,,2016-10-12,1,,,,,ティーエスエムヒャクサンジュウハチ,0
2106,9010405020179,登記記録の閉鎖等,0,2025-03-06,2025-02-14,一般社団法人ＲＥＡＬＰＡＲＴＮＥＲＳ－０１,,その他の設立登記法人,東京都,港区,虎ノ門２丁目６番１号,,13,103,1050001,,,2025-02-14,清算の結了等,,,2021-09-10,1,,,,,リアルパートナーズゼロワン,0
2110,9010505002556,登記記録の閉鎖等,0,2025-03-06,2025-02-27,一般社団法人谷中ヒマラヤ杉基金,,その他の設立登記法人,東京都,台東区,谷中６丁目３番５号,,13,106,1100001,,,2025-02-27,清算の結了等,,,2015-10-05,1,,,,,,0
2162,9020002084948,登記記録の閉鎖等,0,2025-03-06,2025-02-25,有限会社フロンティア,,有限会社,神奈川県,川崎市中原区,下小田中３丁目２０番３８号,,14,133,2110041,,,2025-02-25,清算の結了等,,,2015-10-05,1,,,,,フロンティア,0
2184,9030002008567,登記記録の閉鎖等,0,2025-03-06,2025-03-04,有限会社ダイ・ネットワークシステム彩玉,,有限会社,埼玉県,さいたま市中央区,本町西５丁目２番２－７１３号,,11,105,3380004,,,2025-03-04,清算の結了等,,,2015-10-05,1,,,,,ダイネットワークシステムサイタマ,0
2190,9030002114217,登記記録の閉鎖等,0,2025-03-06,2025-03-03,有限会社松葉塗建工業所,,有限会社,埼玉県,熊谷市,原島１２１９番地２２,,11,202,3600811,,,2025-03-03,清算の結了等,,,2015-10-05,1,,,,,マツバトケンコウギョウショ,0
2220,9080402007569,登記記録の閉鎖等,0,2025-03-06,2025-02-26,有限会社松本製作所,,有限会社,静岡県,浜松市中央区,南浅田１丁目１７番２１号,,22,138,4328044,,,2025-02-26,清算の結了等,,,2015-10-05,1,,,,,マツモトセイサクショ,0
2224,9100002036503,登記記録の閉鎖等,0,2025-03-06,2025-02-28,有限会社下村保険事務所,,有限会社,長野県,飯田市,本町４丁目１２４３番地２,,20,205,3950044,,,2025-02-28,清算の結了等,,,2015-10-05,1,,,,,シモムラホケンジムショ,0
2275,9180002045736,登記記録の閉鎖等,0,2025-03-06,2025-03-03,トリプルツアー有限会社,,有限会社,愛知県,名古屋市中村区,十王町８番１号,,23,105,4530035,,,2025-03-03,清算の結了等,,,2015-10-05,1,,,,,トリプルツアー,0
2280,9190003001142,登記記録の閉鎖等,0,2025-03-06,2025-03-03,合資会社杉森,,合資会社,三重県,名張市,松崎町１４５２番地,,24,208,5180722,,,2025-03-03,清算の結了等,,,2015-10-05,1,,,,,スギモリ,0
2312,9290803002692,登記記録の閉鎖等,0,2025-03-06,2025-02-26,合同会社桜栄,,合同会社,福岡県,北九州市若松区,高須西１丁目２番１５号,,40,103,8080146,,,2025-02-26,清算の結了等,,,2016-05-20,1,,,,,オウエイ,0
2320,9330002024609,登記記録の閉鎖等,0,2025-03-06,2025-02-28,有限会社中川タクシー,,有限会社,熊本県,宇土市,築籠町１７８番地５,,43,211,8690408,,,2025-02-28,清算の結了等,,,2015-10-05,1,,,,,ナカガワタクシー,0
2323,9340002022479,登記記録の閉鎖等,0,2025-03-06,2025-03-03,有限会社システムエンジニアリング,,有限会社,鹿児島県,出水市,文化町１２０番地,,46,208,8990208,,,2025-03-03,清算の結了等,,,2015-10-05,1,,,,,システムエンジニアリング,0
2331,9360003008913,登記記録の閉鎖等,0,2025-03-06,2025-02-07,合同会社Ｅｖｅｒｇｒｅｅｎ,,合同会社,東京都,渋谷区,神宮前６丁目２３番４号桑野ビル２階,,13,113,1500001,,,2025-02-07,清算の結了等,,,2018-06-26,1,,,,,エバーグリーン,0
2335,9380001027104,登記記録の閉鎖等,0,2025-03-06,2025-02-25,株式会社ガイサーテック,,株式会社,福島県,郡山市,若葉町８番８号若葉マンション４０１号,,07,203,9638011,,,2025-02-25,清算の結了等,,,2016-07-08,1,,,,,,0
2343,9410001008026,登記記録の閉鎖等,0,2025-03-06,2025-02-27,株式会社ドーターヨシダ,,株式会社,秋田県,大仙市,神宮寺字本郷野４６番地の２,,05,212,0191701,,,2025-02-27,清算の結了等,,,2015-10-05,1,,,,,ドーターヨシダ,0
2354,9460302000429,登記記録の閉鎖等,0,2025-03-06,2025-03-05,有限会社きくや,,有限会社,北海道,北見市,北三条西６丁目９番地１,,01,208,0900043,,,2025-03-05,清算の結了等,,,2015-10-05,1,,,,,キクヤ,0
2357,9480002007400,登記記録の閉鎖等,0,2025-03-06,2025-03-03,有限会社ケイ企画,,有限会社,徳島県,徳島市,東沖洲１丁目３番地６,,36,201,7700873,,,2025-03-03,合併による解散等,5480001004344,令和７年３月１日徳島市東沖洲一丁目３番地６株式会社エーテック（5480001004344）に合併し解散,2015-10-05,1,,,,,ケイキカク,0
