sequenceNumber,corporateNumber,process,correct,updateDate,changeDate,name,nameImageId,kind,prefectureName,cityName,streetNumber,addressImageId,prefectureCode,cityCode,postCode,addressOutside,addressOutsideImageId,closeDate,closeCause,successorCorporateNumber,changeCause,assignmentDate,latest,enName,enPrefectureName,enCityName,enAddressOutside,furigana,hihyoji
17,1010401168608,新規,0,2022-07-21,2022-07-21,ＸＸＸＧ株式会社,,株式会社,東京都,港区,南青山２丁目２番１５号,,13,103,1070062,,,,,,,2022-07-21,1,,,,,エクスジー,0
18,1010401168649,新規,0,2022-07-21,2022-07-21,Ｍｅｎａｉ　Ｍａｒｋｅｔｓ　Ｊａｐａｎ株式会社,,株式会社,東京都,港区,虎ノ門１丁目１７番１号虎ノ門ヒルズビジネスタワー１５階,,13,103,1050001,,,,,,,2022-07-21,1,,,,,メナイマーケッツジャパン,0
22,1010703006325,新規,0,2022-07-21,2022-07-21,ｉＰｒｏｆｅｓｓパートナーズ合同会社,,合同会社,東京都,品川区,西五反田３丁目１５番６号リードシー目黒不動前ビル６階６‐０５,,13,109,1410031,,,,,,,2022-07-21,1,,,,,アイプロフェスパートナーズ,0
31,1010901051230,新規,0,2022-07-21,2022-07-21,株式会社ｋｅｙｓ,,株式会社,東京都,世田谷区,等々力３丁目３２番７号ルシード等々力４０１,,13,112,1580082,,,,,,,2022-07-21,1,,,,,キーズ,0
33,1010903007528,新規,0,2022-07-21,2022-07-21,合同会社中村晋一郎事務所,,合同会社,東京都,世田谷区,成城７丁目１１番１４号,,13,112,1570066,,,,,,,2022-07-21,1,,,,,ナカムラシンイチロウジムショ,0
39,1011003015025,新規,0,2022-07-21,2022-07-21,合同会社ＯｎｅＴｉｐ,,合同会社,東京都,渋谷区,神宮前６丁目２３番４号桑野ビル２階,,13,113,1500001,,,,,,,2022-07-21,1,,,,,ワンチップ,0
46,1011101099572,新規,0,2022-07-21,2022-07-21,株式会社徳永研究所,00127269,株式会社,東京都,新宿区,新宿１丁目９番４号中公ビル御苑グリーンハイツ６０１,,13,104,1600022,,,,,,,2022-07-21,1,,,,,トクナガケンキュウジョ,0
47,1011101099614,新規,0,2022-07-21,2022-07-21,株式会社４０４ｐｒｏｊｅｃｔ,,株式会社,東京都,新宿区,西新宿３丁目３番１３号西新宿水間ビル６階,,13,104,1600023,,,,,,,2022-07-21,1,,,,,ヨンマルヨンプロジェクト,0
49,1011105010329,新規,0,2022-07-21,2022-07-21,一般社団法人ビジネスグロース協会,,その他の設立登記法人,東京都,新宿区,四谷三栄町１５番２号ＪＨＣビル２階,,13,104,1600008,,,,,,,2022-07-21,1,,,,,ビジネスグロースキョウカイ,0
51,1011201023977,新規,0,2022-07-21,2022-07-21,株式会社Ａ．Ｇ．ＦＯＲＥＮＴ,,株式会社,東京都,中野区,本町２丁目３番７号,,13,114,1640012,,,,,,,2022-07-21,1,,,,,エージーフォレント,0
57,1011403003728,新規,0,2022-07-21,2022-07-21,合同会社アドバンス,,合同会社,東京都,板橋区,南常盤台１丁目１９番１－６０１号,,13,119,1740072,,,,,,,2022-07-21,1,,,,,アドバンス,0
63,1011701025473,新規,0,2022-07-21,2022-07-21,１６Ｔｙｐｅ株式会社,,株式会社,東京都,江戸川区,西葛西３丁目２２番１０－５０３Ｃ,,13,123,1340088,,,,,,,2022-07-21,1,,,,,ジュウロクタイプ,0
65,1011801041032,新規,0,2022-07-21,2022-07-21,株式会社ビルディ,,株式会社,東京都,葛飾区,宝町２丁目２３番８号,,13,122,1240005,,,,,,,2022-07-21,1,,,,,ビルディ,0
66,1011803005183,新規,0,2022-07-21,2022-07-21,合同会社ＩＤＡＴＥＮ,,合同会社,東京都,葛飾区,堀切２丁目４０－１１ＬＥＧＲＡＮＤ２０１,,13,122,1240006,,,,,,,2022-07-21,1,,,,,イダテン,0
67,1012305002017,新規,0,2022-07-21,2022-07-21,一般社団法人腸美人研究所,,その他の設立登記法人,東京都,町田市,矢部町２８３７番地３,,13,209,1940214,,,,,,,2022-07-21,1,,,,,チョウビジンケンキュウジョ,0
72,1013301049398,新規,0,2022-07-21,2022-07-21,株式会社山太郎,,株式会社,東京都,豊島区,池袋３丁目２５番３号,,13,116,1710014,,,,,,,2022-07-21,1,,,,,ヤマタロウ,0
110,1040003020461,新規,0,2022-07-21,2022-07-21,合同会社ＶＮ＆ＪＰ,,合同会社,千葉県,市川市,真間４丁目６番１１－マンションテコナ２０３号,,12,203,2720826,,,,,,,2022-07-21,1,,,,,ブイエヌアンドジェイピー,0
121,1080101023429,新規,0,2022-07-21,2022-07-21,明美株式会社,,株式会社,静岡県,富士市,本町１５番地５ＳＫ１７－３０１号,,22,210,4160914,,,,,,,2022-07-21,1,,,,,アケミ,0
125,1100001035546,新規,0,2022-07-21,2022-07-21,スカイトレーディング株式会社,,株式会社,長野県,小諸市,大字滋野甲６６番地１,,20,208,3840809,,,,,,,2022-07-21,1,,,,,スカイトレーディング,0
127,1110001036824,新規,0,2022-07-21,2022-07-21,丸千商事株式会社,,株式会社,新潟県,村上市,三之町８番１１号,,15,212,9580837,,,,,,,2022-07-21,1,,,,,マルセンショウジ,0
139,1120001247429,新規,0,2022-07-21,2022-07-21,ゼロベンチャー株式会社,,株式会社,大阪府,大阪市淀川区,田川北２丁目５－３４・Ｃ棟２０１号室,,27,123,5320021,,,,,,,2022-07-21,1,,,,,ゼロベンチャー,0
140,1120001247437,新規,0,2022-07-21,2022-07-21,朝日自動車第三株式会社,,株式会社,大阪府,大阪市住之江区,南港東３丁目１番２７号,,27,125,5590031,,,,,,,2022-07-21,1,,,,,アサヒジドウシャダイサン,0
141,1120001247486,新規,0,2022-07-21,2022-07-21,ねこふく株式会社,,株式会社,大阪府,大阪市住吉区,帝塚山東１丁目３－２５,,27,120,5580054,,,,,,,2022-07-21,1,,,,,ネコフク,0
144,1120003022111,新規,0,2022-07-21,2022-07-21,合同会社ＳＲ労務企画,,合同会社,大阪府,大阪市住吉区,東粉浜３丁目１２番１６号ロイアルハイツ住吉５０１号,,27,120,5580051,,,,,,,2022-07-21,1,,,,,エスアールロウムキカク,0
150,1120101065945,新規,0,2022-07-21,2022-07-21,株式会社ＷＥＬＬＯＮＥ,,株式会社,大阪府,堺市堺区,今池町１丁２番１０－０４号,,27,141,5900018,,,,,,,2022-07-21,1,,,,,ウェルワン,0
151,1120901046252,新規,0,2022-07-21,2022-07-21,株式会社デザシス,,株式会社,大阪府,箕面市,牧落２丁目１－４－１０３,,27,220,5620004,,,,,,,2022-07-21,1,,,,,デザシス,0
152,1120901046277,新規,0,2022-07-21,2022-07-21,ＹＫ株式会社,,株式会社,大阪府,吹田市,千里山松が丘１７番１３号,,27,205,5650843,,,,,,,2022-07-21,1,,,,,ワイケー,0
153,1122001036092,新規,0,2022-07-21,2022-07-21,株式会社岡山三洋商事,,株式会社,大阪府,八尾市,安中町２丁目１番１５号,,27,212,5810085,,,,,,,2022-07-21,1,,,,,オカヤマサンヨウショウジ,0
162,1140001126779,新規,0,2022-07-21,2022-07-21,株式会社三真商事,,株式会社,兵庫県,神戸市垂水区,大町２丁目６番高丸ビルＡ棟３１１号室,,28,108,6550014,,,,,,,2022-07-21,1,,,,,サンシンショウジ,0
163,1140001126804,新規,0,2022-07-21,2022-07-21,株式会社ＭＩＬＡＩＱＳ,,株式会社,兵庫県,尼崎市,南塚口町１丁目３０－１１Ｍ＆Ｐビルディング１０１,,28,202,6610012,,,,,,,2022-07-21,1,,,,,ミライクス,0
168,1150001025708,新規,0,2022-07-21,2022-07-21,株式会社Ｍ・Ｉ産業,,株式会社,奈良県,香芝市,畑４丁目５５６－１,,29,210,6390245,,,,,,,2022-07-21,1,,,,,エムアイサンギョウ,0
182,1180001152177,新規,0,2022-07-21,2022-07-21,株式会社ｃｉｃｉ,,株式会社,愛知県,名古屋市名東区,名東本町１番地プラウド星ヶ丘３０１,,23,115,4650088,,,,,,,2022-07-21,1,,,,,シシ,0
183,1180001152243,新規,0,2022-07-21,2022-07-21,株式会社リブロ,,株式会社,愛知県,名古屋市西区,上小田井１丁目５６番地（ファミリアーレ上小田井レジデンス１２０３号）,,23,104,4520821,,,,,,,2022-07-21,1,,,,,リブロ,0
184,1180001152276,新規,0,2022-07-21,2022-07-21,株式会社昌和,,株式会社,愛知県,名古屋市千種区,日和町２丁目４ライオンズマンション本山３０１号,,23,101,4640039,,,,,,,2022-07-21,1,,,,,ショウワ,0
189,1180003024060,新規,0,2022-07-21,2022-07-21,ｌｅ　ｓｏｌｅｉｌ合同会社,,合同会社,愛知県,東海市,横須賀町狐塚１２番地の１サンマンションアトレ横須賀駅前（２０３）,,23,222,4770036,,,,,,,2022-07-21,1,,,,,ルソレイユ,0
204,1230001019461,新規,0,2022-07-21,2022-07-21,株式会社久保瓦工業,,株式会社,富山県,富山市,千成町１７番７号,,16,201,9300815,,,,,,,2022-07-21,1,,,,,クボカワラコウギョウ,0
209,1240001060118,新規,0,2022-07-21,2022-07-21,株式会社ＥＤＨホールディングス,,株式会社,広島県,広島市中区,江波南２丁目１６番２０号,,34,101,7300835,,,,,,,2022-07-21,1,,,,,イーディーエイチホールディングス,0
216,1260001037056,新規,0,2022-07-21,2022-07-21,株式会社八咫,,株式会社,岡山県,岡山市北区,中山下１丁目９番３０号ミルフルール５０１号,,33,101,7000821,,,,,,,2022-07-21,1,,,,,ヤタ,0
230,1290001098343,新規,0,2022-07-21,2022-07-21,株式会社みんなのドローン,,株式会社,福岡県,福岡市中央区,大名２丁目６－１１ＦｕｋｕｏｋａＧｒｏｗｔｈＮｅｘｔ,,40,133,8100041,,,,,,,2022-07-21,1,,,,,ミンナノドローン,0
236,1290803004168,新規,0,2022-07-21,2022-07-21,合同会社フューチャーリード,,合同会社,福岡県,北九州市小倉南区,徳力１丁目１３番６号ウィンベル徳力４０２号,,40,107,8020974,,,,,,,2022-07-21,1,,,,,フューチャーリード,0
247,1340003003865,新規,0,2022-07-21,2022-07-21,合同会社Ｈ‐Ｓｔｙｌｅ,,合同会社,鹿児島県,鹿児島市,樋之口町１０番３３－５０３号,,46,201,8920845,,,,,,,2022-07-21,1,,,,,エイチスタイル,0
248,1350003004128,新規,0,2022-07-21,2022-07-21,合同会社フェニックス企画,,合同会社,宮崎県,東臼杵郡門川町,平城東１０番８号,,45,421,8890625,,,,,,,2022-07-21,1,,,,,フェニックスキカク,0
250,1360001030703,新規,0,2022-07-21,2022-07-21,株式会社ＮＳＴ,,株式会社,沖縄県,那覇市,牧志２丁目１７番４－２０２,,47,201,9000013,,,,,,,2022-07-21,1,,,,,エヌエスティー,0
252,1360003012162,新規,0,2022-07-21,2022-07-21,ふれあいカンパニー合同会社,,合同会社,沖縄県,浦添市,城間１丁目３２番地７号ハロービル三階イノベスタ（株）内,,47,208,9012133,,,,,,,2022-07-21,1,,,,,フレアイカンパニー,0
254,1370001048819,新規,0,2022-07-21,2022-07-21,株式会社庄司産業,,株式会社,宮城県,栗原市,築館木戸１３番５６号,,04,213,9872212,,,,,,,2022-07-21,1,,,,,ショウジサンギョウ,0
259,1400001015947,新規,0,2022-07-21,2022-07-21,一関倉庫物産株式会社,,株式会社,岩手県,一関市,字新大町８５番地,,03,209,0210000,,,,,,,2022-07-21,1,,,,,イチノセキソウコブッサン,0
262,1430001087067,新規,0,2022-07-21,2022-07-21,株式会社リヴクリエイティブ,,株式会社,北海道,江別市,一番町２５番地の１１,,01,217,0670072,,,,,,,2022-07-21,1,,,,,リヴクリエイティブ,0
263,1430001087083,新規,0,2022-07-21,2022-07-21,株式会社Ｒｅ．ｍｈ,,株式会社,北海道,虻田郡ニセコ町,字本通１３７番地,,01,395,0481502,,,,,,,2022-07-21,1,,,,,アールイードットエムエイチ,0
264,1430001087091,新規,0,2022-07-21,2022-07-21,日中藝術友好株式会社,,株式会社,北海道,札幌市西区,琴似二条２丁目４番２０－１０５号,,01,107,0630812,,,,,,,2022-07-21,1,,,,,ニッチュウゲイジュツユウコウ,0
265,1430001087117,新規,0,2022-07-21,2022-07-21,株式会社六角ふしみ,,株式会社,北海道,札幌市南区,澄川二条５丁目４番１０－４０５号,,01,106,0050002,,,,,,,2022-07-21,1,,,,,ロッカクフシミ,0
268,1430003014119,新規,0,2022-07-21,2022-07-21,合同会社ダルフィンインターナショナル,,合同会社,北海道,小樽市,石山町１７番３号,,01,203,0470038,,,,,,,2022-07-21,1,,,,,ダルフィンインターナショナル,0
269,1430003014143,新規,0,2022-07-21,2022-07-21,合同会社ＳＴＥＰ・ＯＮＥテクノサービス,,合同会社,北海道,札幌市豊平区,美園四条３丁目１番１５号２Ｆ,,01,105,0620004,,,,,,,2022-07-21,1,,,,,ステップワンテクノサービス,0
288,2010001228216,新規,0,2022-07-21,2022-07-21,大日本技研株式会社,,株式会社,東京都,中央区,新富２丁目４番５号１Ｆ,,13,102,1040041,,,,,,,2022-07-21,1,,,,,ダイニホンギケン,0
289,2010001228265,新規,0,2022-07-21,2022-07-21,株式会社アーティザンゴルフデザイン,,株式会社,東京都,中央区,日本橋小舟町８－１３天翔日本橋ビル２０７,,13,102,1030024,,,,,,,2022-07-21,1,,,,,アーティザンゴルフデザイン,0
292,2010101015258,新規,0,2022-07-21,2022-07-21,株式会社アップス,,株式会社,東京都,八王子市,西寺方町１０１９番地２５４,,13,201,1920153,,,,,,,2022-07-21,1,,,,,アップス,0
324,2010903007527,新規,0,2022-07-21,2022-07-21,Ｇｏｌｄｃａｔ合同会社,,合同会社,東京都,世田谷区,玉川３丁目２０番２号マノア玉川第３ビル５階,,13,112,1580094,,,,,,,2022-07-21,1,,,,,ゴールドキャット,0
331,2011001148809,新規,0,2022-07-21,2022-07-21,株式会社ＮＡＯ‐ＰＲ,,株式会社,東京都,渋谷区,松濤１丁目４番９号松濤サン・エルサ５階,,13,113,1500046,,,,,,,2022-07-21,1,,,,,ナオピーアール,0
335,2011101099605,新規,0,2022-07-21,2022-07-21,株式会社ディープハーフ,,株式会社,東京都,新宿区,高田馬場３丁目１番５号菊栄ビル１０５,,13,104,1690075,,,,,,,2022-07-21,1,,,,,ディープハーフ,0
344,2011703003170,新規,0,2022-07-21,2022-07-21,ホエールデータ合同会社,,合同会社,東京都,江戸川区,北葛西１丁目１７－２２－７０５,,13,123,1340081,,,,,,,2022-07-21,1,,,,,ホエールデータ,0
346,2011801041023,新規,0,2022-07-21,2022-07-21,株式会社Ｌｉｆｅ　Ｓｅｒｖｉｃｅ,,株式会社,東京都,葛飾区,水元１丁目２９番１号５０８号室,,13,122,1250032,,,,,,,2022-07-21,1,,,,,ライフサービス,0
347,2011801041031,新規,0,2022-07-21,2022-07-21,株式会社レミタスフーズ,,株式会社,東京都,足立区,保木間２丁目３１番４号,,13,121,1210064,,,,,,,2022-07-21,1,,,,,レミタスフーズ,0
353,2012401039449,新規,0,2022-07-21,2022-07-21,株式会社Ｂ‐ＢＡＳＥ,,株式会社,東京都,武蔵野市,関前５丁目１９番７号,,13,203,1800014,,,,,,,2022-07-21,1,,,,,ビーベース,0
355,2012701017154,新規,0,2022-07-21,2022-07-21,株式会社Ｌｅａ,,株式会社,東京都,小平市,小川町１丁目７６３番地の５,,13,211,1870032,,,,,,,2022-07-21,1,,,,,レア,0
371,2030001149286,新規,0,2022-07-21,2022-07-21,株式会社レヴァンテ,,株式会社,埼玉県,草加市,長栄１丁目６７８番地２,,11,221,3400051,,,,,,,2022-07-21,1,,,,,レヴァンテ,0
372,2030001149294,新規,0,2022-07-21,2022-07-21,株式会社ＭＴＶ貿易,,株式会社,埼玉県,幸手市,大字上高野１３４４番地４,,11,240,3400155,,,,,,,2022-07-21,1,,,,,エムティーブイボウエキ,0
373,2030001149311,新規,0,2022-07-21,2022-07-21,株式会社都市開発技工,,株式会社,埼玉県,比企郡川島町,大字中山１９１３番２号,,11,346,3500165,,,,,,,2022-07-21,1,,,,,トシカイハツギコウ,0
376,2030003019826,新規,0,2022-07-21,2022-07-21,合同会社リアン,,合同会社,埼玉県,加須市,外川４４６番地６,,11,210,3470106,,,,,,,2022-07-21,1,,,,,リアン,0
381,2040001124354,新規,0,2022-07-21,2022-07-21,株式会社Ｎｅｘｔ　Ｆｏｒｔｕｎｅ,,株式会社,千葉県,市川市,福栄１丁目６－９,,12,203,2720137,,,,,,,2022-07-21,1,,,,,ネクストフォーチュン,0
405,2090001017685,新規,0,2022-07-21,2022-07-21,Ｔ．Ｒ．Ｄ．ＩＮＴＥＲＮＡＴＩＯＮＡＬ．株式会社,,株式会社,山梨県,南都留郡山中湖村,平野上原１０１６番地Ｂ１－１号,,19,425,4010502,,,,,,,2022-07-21,1,,,,,ティーアールディーインターナショナル,0
420,2120001247428,新規,0,2022-07-21,2022-07-21,株式会社珍誉,,株式会社,大阪府,大阪市淀川区,田川北２丁目５－３４・Ｃ棟３０２号室,,27,123,5320021,,,,,,,2022-07-21,1,,,,,チンヨ,0
421,2120001247436,新規,0,2022-07-21,2022-07-21,朝日自動車第二株式会社,,株式会社,大阪府,大阪市住之江区,南港東３丁目１番２７号,,27,125,5590031,,,,,,,2022-07-21,1,,,,,アサヒジドウシャダイニ,0
422,2120001247452,新規,0,2022-07-21,2022-07-21,好運株式会社,,株式会社,大阪府,大阪市中央区,谷町７丁目１番３９－３０１号Ｂ,,27,128,5420012,,,,,,,2022-07-21,1,,,,,コウウン,0
423,2120003022110,新規,0,2022-07-21,2022-07-21,Ｈ＆Ｒ　ＢＥＡＵＴＹ合同会社,,合同会社,大阪府,大阪市浪速区,敷津西１丁目６番４号グランコルベールなんば８０５,,27,111,5560015,,,,,,,2022-07-21,1,,,,,エイチアンドアールビューティー,0
424,2120003022119,新規,0,2022-07-21,2022-07-21,合同会社キナリ,,合同会社,大阪府,大阪市北区,梅田１丁目１－３大阪駅前第３ビル２９階１－１－１号室,,27,127,5300001,,,,,,,2022-07-21,1,,,,,キナリ,0
432,2120901046276,新規,0,2022-07-21,2022-07-21,エフエージャパン株式会社,,株式会社,大阪府,茨木市,玉瀬町３２番２７号,,27,211,5670893,,,,,,,2022-07-21,1,,,,,エフエージャパン,0
440,2130001072214,新規,0,2022-07-21,2022-07-21,ＢＦＮ　Ｒｅｓｅａｒｃｈ株式会社,,株式会社,京都府,京都市伏見区,桃山町三河５４－１０,,26,109,6128029,,,,,,,2022-07-21,1,,,,,ビーエフエヌリサーチ,0
441,2130001072239,新規,0,2022-07-21,2022-07-21,株式会社宇治巨椋園,,株式会社,京都府,宇治市,小倉町堀池５１番地,,26,204,6110042,,,,,,,2022-07-21,1,,,,,ウジオグラエン,0
447,2140001126794,新規,0,2022-07-21,2022-07-21,ＡＲ株式会社,,株式会社,兵庫県,三木市,細川町増田６６番地の４０,,28,215,6730704,,,,,,,2022-07-21,1,,,,,エーアール,0
452,2140003017918,新規,0,2022-07-21,2022-07-21,合同会社ＴＨホールディングス,,合同会社,兵庫県,神戸市中央区,下山手通８丁目１０－６,,28,110,6500011,,,,,,,2022-07-21,1,,,,,ティーエイチホールディングス,0
455,2160001024393,新規,0,2022-07-21,2022-07-21,株式会社Ｖｅｔ　Ｃｏｕｒｔ,,株式会社,滋賀県,野洲市,市三宅３１６３番地,,25,210,5202362,,,,,,,2022-07-21,1,,,,,ベットコート,0
469,2200001040295,新規,0,2022-07-21,2022-07-21,株式会社Ｖｅｎｄｓ,,株式会社,岐阜県,本巣市,屋井１２４１番地２,,21,218,5010417,,,,,,,2022-07-21,1,,,,,ベンズ,0
470,2200001040304,新規,0,2022-07-21,2022-07-21,株式会社あい,,株式会社,岐阜県,岐阜市,橋本町２丁目５２岐阜シティタワー４３スカイアークス４００３,,21,201,5008856,,,,,,,2022-07-21,1,,,,,アイ,0
479,2240001060117,新規,0,2022-07-21,2022-07-21,株式会社サミユーナ,,株式会社,広島県,廿日市市,駅前２番７号,,34,213,7380011,,,,,,,2022-07-21,1,,,,,サミユーナ,0
482,2260003003988,新規,0,2022-07-21,2022-07-21,Ｉｓｈｉｋａｗｏｒｋｓ合同会社,,合同会社,岡山県,玉野市,玉５丁目４番２３号,,33,204,7060012,,,,,,,2022-07-21,1,,,,,イシカワークス,0
490,2290001098334,新規,0,2022-07-21,2022-07-21,株式会社ｓｍｉｌｅ,,株式会社,福岡県,福岡市南区,清水１丁目２４番１８号玉川ビル３０６号,,40,134,8150031,,,,,,,2022-07-21,1,,,,,スマイル,0
497,2350001017865,新規,0,2022-07-21,2022-07-21,株式会社ＢＬＡＳＴ,,株式会社,宮崎県,宮崎市,大字瓜生野２２６４番地１０,,45,201,8800044,,,,,,,2022-07-21,1,,,,,ブラスト,0
498,2360001030693,新規,0,2022-07-21,2022-07-21,株式会社コリカ,,株式会社,沖縄県,沖縄市,字照屋一丁目２９番地１－１０２,,47,211,9040011,,,,,,,2022-07-21,1,,,,,コリカ,0
499,2360001030710,新規,0,2022-07-21,2022-07-21,株式会社ＫＲＪ,,株式会社,沖縄県,沖縄市,中央３丁目８番１７号シティビューマンション５０３,,47,211,9040004,,,,,,,2022-07-21,1,,,,,ケイアールジェイ,0
501,2370003005783,新規,0,2022-07-21,2022-07-21,合同会社ヒシラボ,,合同会社,宮城県,仙台市宮城野区,小田原１丁目５－３サンデュエル仙台駅東７０３,,04,102,9830803,,,,,,,2022-07-21,1,,,,,ヒシラボ,0
505,2420003002544,新規,0,2022-07-21,2022-07-21,合同会社ＳｔａｒｔＵｐＮｏｗ,,合同会社,青森県,青森市,松森１丁目１番７号コンフォート松森１０２号,,02,201,0300965,,,,,,,2022-07-21,1,,,,,スタートアップナウ,0
511,2430001087099,新規,0,2022-07-21,2022-07-21,山崎自動車販売株式会社,00127270,株式会社,北海道,札幌市東区,東苗穂三条３丁目２番８９号,,01,103,0070803,,,,,,,2022-07-21,1,,,,,ヤマザキジドウシャハンバイ,0
512,2430001087108,新規,0,2022-07-21,2022-07-21,株式会社Ｂｅｔｔｙ　ＧＲＯＵＰ,,株式会社,北海道,北広島市,大曲柏葉４丁目１番地４,,01,234,0611273,,,,,,,2022-07-21,1,,,,,ベティグループ,0
528,3010003038174,新規,0,2022-07-21,2022-07-21,ＴＯＩ　ＡＴＥＬＩ合同会社,,合同会社,東京都,中央区,銀座８丁目１０－５ＤＥＮＳＡＮビルＧ－６２４５２,,13,102,1040061,,,,,,,2022-07-21,1,,,,,トイアトリ,0
534,3010101015257,新規,0,2022-07-21,2022-07-21,株式会社レアル・オーエヌシ,,株式会社,東京都,八王子市,松木３３番地８,,13,201,1920362,,,,,,,2022-07-21,1,,,,,レアルオーエヌシ,0
540,3010401168614,新規,0,2022-07-21,2022-07-21,Ｍａｎｉｐｕｌａｔｉｏｎ株式会社,,株式会社,東京都,港区,浜松町２丁目２番１５号浜松町ダイヤビル２Ｆ,,13,103,1050013,,,,,,,2022-07-21,1,,,,,マニピュレーション,0
552,3010801033137,新規,0,2022-07-21,2022-07-21,Ｎ＆Ｂ　ＬＩＦＥ株式会社,,株式会社,東京都,大田区,大森北１丁目７番１号,,13,111,1430016,,,,,,,2022-07-21,1,,,,,エヌアンドビーライフ,0
561,3010901051278,新規,0,2022-07-21,2022-07-21,株式会社ＡＥＲＵ,,株式会社,東京都,世田谷区,船橋１丁目２８－１３－１０１,,13,112,1560055,,,,,,,2022-07-21,1,,,,,アエル,0
566,3011103011987,新規,0,2022-07-21,2022-07-21,ワールドスコープ合同会社,,合同会社,東京都,新宿区,西新宿３丁目３番１３号西新宿水間ビル６階,,13,104,1600023,,,,,,,2022-07-21,1,,,,,ワールドスコープ,0
572,3011301027967,新規,0,2022-07-21,2022-07-21,株式会社ドラセナ,,株式会社,東京都,杉並区,南荻窪２丁目４０番８号フェリーチェ南荻窪１０５,,13,115,1670052,,,,,,,2022-07-21,1,,,,,ドラセナ,0
574,3011303004477,新規,0,2022-07-21,2022-07-21,合同会社ＦＩＤＡＴＯ,,合同会社,東京都,杉並区,下高井戸３丁目３０番９号,,13,115,1680073,,,,,,,2022-07-21,1,,,,,フィダート,0
577,3011503005226,新規,0,2022-07-21,2022-07-21,合同会社ＮＵＫＨＢＡ　ＩＮＴＥＲＮＡＴＩＯＮＡＬ,,合同会社,東京都,北区,堀船３丁目２５番１８号,,13,117,1140004,,,,,,,2022-07-21,1,,,,,ヌクバインターナショナル,0
583,3012305002015,新規,0,2022-07-21,2022-07-21,一般社団法人アクトポート,,その他の設立登記法人,東京都,町田市,野津田町３７４１番地５,,13,209,1950063,,,,,,,2022-07-21,1,,,,,アクトポート,0
586,3012801021740,新規,0,2022-07-21,2022-07-21,アジェンズケミカル株式会社,,株式会社,東京都,日野市,多摩平１丁目６－１７,,13,212,1910062,,,,,,,2022-07-21,1,,,,,アジェンズケミカル,0
599,3021003011962,新規,0,2022-07-21,2022-07-21,合同会社ＳＪ３,,合同会社,神奈川県,藤沢市,下土棚１０７５番地の５,,14,205,2520807,,,,,,,2022-07-21,1,,,,,エスジェースリー,0
604,3030001149310,新規,0,2022-07-21,2022-07-21,株式会社ＡＸＩＡ,,株式会社,埼玉県,新座市,馬場１丁目５番３５号パルステージ１１０号室,,11,230,3520016,,,,,,,2022-07-21,1,,,,,アクシア,0
608,3040001124337,新規,0,2022-07-21,2022-07-21,株式会社ＭＳアドバンス,,株式会社,千葉県,千葉市花見川区,千種町２０３番地１３,,12,102,2620012,,,,,,,2022-07-21,1,,,,,エムエスアドバンス,0
609,3040001124353,新規,0,2022-07-21,2022-07-21,株式会社ノウハウジャパン,,株式会社,千葉県,鎌ケ谷市,南初富２丁目１番４３号,,12,224,2730123,,,,,,,2022-07-21,1,,,,,ノウハウジャパン,0
619,3050001051423,新規,0,2022-07-21,2022-07-21,ＷＡＨＬＡ　ＢＲＯ　ＩＮＴＥＲＮＡＴＩＯＮＡＬ株式会社,,株式会社,茨城県,古河市,静町７番３号,,08,204,3060001,,,,,,,2022-07-21,1,,,,,ワラブロインターナショナル,0
622,3060001035094,新規,0,2022-07-21,2022-07-21,株式会社小山水族館,,株式会社,栃木県,小山市,大字喜沢１４７５番地,,09,208,3230014,,,,,,,2022-07-21,1,,,,,,0
636,3120001247427,新規,0,2022-07-21,2022-07-21,北物株式会社,,株式会社,大阪府,大阪市淀川区,田川北２丁目５－３４・Ｃ棟２０２号室,,27,123,5320021,,,,,,,2022-07-21,1,,,,,キタモツ,0
637,3120001247435,新規,0,2022-07-21,2022-07-21,朝日自動車第一株式会社,,株式会社,大阪府,大阪市住之江区,南港東３丁目１番２７号,,27,125,5590031,,,,,,,2022-07-21,1,,,,,アサヒジドウシャダイイチ,0
638,3120001247451,新規,0,2022-07-21,2022-07-21,竹道株式会社,,株式会社,大阪府,大阪市住吉区,長居東４丁目１５番２０－５０３号,,27,120,5580004,,,,,,,2022-07-21,1,,,,,タケミチ,0
642,3120101065943,新規,0,2022-07-21,2022-07-21,株式会社リパガルティ,,株式会社,大阪府,松原市,三宅西３丁目２６６番地の８,,27,217,5800045,,,,,,,2022-07-21,1,,,,,リパガルティ,0
644,3120105009599,新規,0,2022-07-21,2022-07-21,医療法人ふじもと歯科,,その他の設立登記法人,大阪府,堺市堺区,中瓦町２丁３番１４号栄屋ビル２階,,27,141,5900077,,,,,,,2022-07-21,1,,,,,フジモトシカ,0
645,3120901046267,新規,0,2022-07-21,2022-07-21,株式会社Ｒｉｖ,,株式会社,大阪府,茨木市,白川３丁目２番３－７０３号,,27,211,5670832,,,,,,,2022-07-21,1,,,,,リブ,0
664,3170003001752,新規,0,2022-07-21,2022-07-21,合同会社ポングリカンパニー,,合同会社,和歌山県,紀の川市,野上６１４－１,,30,208,6496525,,,,,,,2022-07-21,1,,,,,ポングリカンパニー,0
670,3180003024059,新規,0,2022-07-21,2022-07-21,合同会社明進建設,,合同会社,愛知県,名古屋市中村区,宿跡町３丁目３６番サンシャイン宿跡６Ｂ,,23,105,4530067,,,,,,,2022-07-21,1,,,,,メイシンケンセツ,0
676,3190001017229,新規,0,2022-07-21,2022-07-21,株式会社魚市蒲鉾店,,株式会社,三重県,四日市市,清水町４番４６号,,24,202,5100814,,,,,,,2022-07-21,1,,,,,,0
680,3200001040303,新規,0,2022-07-21,2022-07-21,株式会社ＭＨＲ,,株式会社,岐阜県,各務原市,那加土山町２丁目１４０番地１,,21,213,5040041,,,,,,,2022-07-21,1,,,,,エムエイチアール,0
683,3220001024956,新規,0,2022-07-21,2022-07-21,アソボ株式会社,,株式会社,石川県,金沢市,大浦町リ６３番地５,,17,201,9200205,,,,,,,2022-07-21,1,,,,,アソボ,0
686,3230003001894,新規,0,2022-07-21,2022-07-21,合同会社ＤＵＤＥ,,合同会社,富山県,富山市,桃井町２丁目４番１２シンパティコＳＩＩ１０１号,00127276,16,201,9300072,,,,,,,2022-07-21,1,,,,,デュード,0
692,3240001060116,新規,0,2022-07-21,2022-07-21,松山測量株式会社,,株式会社,広島県,福山市,松永町２丁目９番１４号,,34,207,7290104,,,,,,,2022-07-21,1,,,,,マツヤマソクリョウ,0
695,3260001037062,新規,0,2022-07-21,2022-07-21,株式会社コンプリアール岡山,,株式会社,岡山県,岡山市南区,浦安南町５７８番地２,,33,104,7028024,,,,,,,2022-07-21,1,,,,,コンプリアールオカヤマ,0
714,3300001013018,新規,0,2022-07-21,2022-07-21,株式会社ＳＫ．ＰＯＷＥＲ,,株式会社,佐賀県,佐賀市,神野東３丁目６－１９,,41,201,8400804,,,,,,,2022-07-21,1,,,,,エスケイパワー,0
721,3350001017864,新規,0,2022-07-21,2022-07-21,ＫＯＴＯＮＡＲＩ宮崎株式会社,,株式会社,宮崎県,宮崎市,祇園３丁目１７６番地１１－２０２,,45,201,8800024,,,,,,,2022-07-21,1,,,,,コトナリミヤザキ,0
723,3360001030718,新規,0,2022-07-21,2022-07-21,株式会社レキオス農園,,株式会社,沖縄県,那覇市,字与儀３７８番１５,,47,201,9020076,,,,,,,2022-07-21,1,,,,,レキオスノウエン,0
724,3360001030726,新規,0,2022-07-21,2022-07-21,株式会社ＰＯＷＥＲＧＸ,,株式会社,沖縄県,那覇市,前島３丁目２５番２号泊ポートビル５Ｆ,,47,201,9000016,,,,,,,2022-07-21,1,,,,,パワージーエックス,0
725,3360003012169,新規,0,2022-07-21,2022-07-21,ラピスラズリー合同会社,,合同会社,沖縄県,中頭郡北中城村,字安谷屋２１６２番地２,,47,327,9012316,,,,,,,2022-07-21,1,,,,,ラピスラズリー,0
726,3360003012177,新規,0,2022-07-21,2022-07-21,合同会社春秋,,合同会社,沖縄県,宜野湾市,我如古２丁目１２－６,,47,205,9012214,,,,,,,2022-07-21,1,,,,,,0
728,3370001048817,新規,0,2022-07-21,2022-07-21,ＲＥＣＴ株式会社,,株式会社,宮城県,富谷市,日吉台２丁目３９－２,,04,216,9813362,,,,,,,2022-07-21,1,,,,,レクト,0
729,3380003005245,新規,0,2022-07-21,2022-07-21,合同会社ベト味,,合同会社,福島県,郡山市,駅前２丁目６番１号ＧＹビルＢ１Ｆ,,07,203,9638002,,,,,,,2022-07-21,1,,,,,ベトアジ,0
737,3430001087081,新規,0,2022-07-21,2022-07-21,信和電子株式会社,,株式会社,北海道,札幌市厚別区,青葉町６丁目１番１－４０３号,,01,108,0040021,,,,,,,2022-07-21,1,,,,,シンワデンシ,0
738,3430001087164,新規,0,2022-07-21,2022-07-21,ｉＮＴＥＲｔｗｉｎ株式会社,,株式会社,北海道,札幌市中央区,南一条西２丁目４番地１第５藤井ビル５Ｆ１１０,,01,101,0600061,,,,,,,2022-07-21,1,,,,,インタートゥエン,0
739,3430001087180,新規,0,2022-07-21,2022-07-21,株式会社ふれあいケアサービスＨＤ,,株式会社,北海道,札幌市白石区,菊水元町六条１丁目１番２７号,,01,104,0030826,,,,,,,2022-07-21,1,,,,,フレアイケアサービスエイチディー,0
749,3490001010236,新規,0,2022-07-21,2022-07-21,株式会社結いまある,,株式会社,高知県,高知市,知寄町１丁目１－３５－１階,,39,201,7810806,,,,,,,2022-07-21,1,,,,,ユイマアル,0
753,3700150110566,新規,0,2022-07-21,2022-06-29,常磐津八重太夫の会,,その他,東京都,小平市,小川町１丁目５００－１８,,13,211,1870032,,,,,,,2022-06-29,1,,,,,トキワズヤエタユウノカイ,0
754,3700150110888,新規,0,2022-07-21,2022-07-11,ワイズユウラク浦和管理組合,,その他,埼玉県,さいたま市浦和区,東仲町８－２１,,11,107,3300056,,,,,,,2022-07-11,1,,,,,ワイズユウラクウラワカンリクミアイ,0
758,4010001228230,新規,0,2022-07-21,2022-07-21,株式会社山田事業,,株式会社,東京都,中央区,日本橋横山町９番１３号イワモトビル７階,,13,102,1030003,,,,,,,2022-07-21,1,,,,,ヤマダジギョウ,0
763,4010003038223,新規,0,2022-07-21,2022-07-21,ＡＲ合同会社,,合同会社,東京都,千代田区,九段南１丁目４番１０号,,13,101,1020074,,,,,,,2022-07-21,1,,,,,エーアール,0
773,4010401168497,新規,0,2022-07-21,2022-07-21,株式会社ＯＣＥＡＮ‐ＰＬＡＮＮＩＮＧ,,株式会社,東京都,港区,新橋２丁目５番地２号,,13,103,1050004,,,,,,,2022-07-21,1,,,,,オーシャンプランニング,0
775,4010403027965,新規,0,2022-07-21,2022-07-21,合同会社グレジスティクス,,合同会社,東京都,港区,南青山２丁目２番１５号,,13,103,1070062,,,,,,,2022-07-21,1,,,,,グレジスティクス,0
776,4010403028096,新規,0,2022-07-21,2022-07-21,合同会社ＬＡＩ１,,合同会社,東京都,港区,愛宕２丁目５番１号愛宕グリーンヒルズＭＯＲＩタワー２７階,,13,103,1050002,,,,,,,2022-07-21,1,,,,,エルエーワン,0
784,4010601061519,新規,0,2022-07-21,2022-07-21,ワカカ株式会社,,株式会社,東京都,江東区,東砂５丁目５番６号Ｋビル２０３,,13,108,1360074,,,,,,,2022-07-21,1,,,,,ワカカ,0
789,4010801033128,新規,0,2022-07-21,2022-07-21,株式会社グローバルライフデザイン,,株式会社,東京都,大田区,大森北２丁目３－１５第１５下川ビル４階,,13,111,1430016,,,,,,,2022-07-21,1,,,,,グローバルライフデザイン,0
795,4010901051269,新規,0,2022-07-21,2022-07-21,株式会社Ｆ‐ＢＯＯＫＳ,,株式会社,東京都,世田谷区,深沢２丁目１番３－１６０７号,,13,112,1580081,,,,,,,2022-07-21,1,,,,,エフブックス,0
804,4011003015014,新規,0,2022-07-21,2022-07-21,合同会社Ｒｅａｄ　Ｏｆｆｉｃｅ１０９,,合同会社,東京都,渋谷区,神泉町１０番９－９０７号,,13,113,1500045,,,,,,,2022-07-21,1,,,,,リードオフィストウキュウ,0
807,4011101099611,新規,0,2022-07-21,2022-07-21,株式会社ＪＰコネクト,,株式会社,東京都,新宿区,天神町７７－３都住創ラスティックビル７階,,13,104,1620808,,,,,,,2022-07-21,1,,,,,ジェーピーコネクト,0
808,4011105010326,新規,0,2022-07-21,2022-07-21,弁護士法人おかげさま,,その他の設立登記法人,東京都,新宿区,西新宿８丁目９番１４号ベイベリー２０２号室,,13,104,1600023,,,,,,,2022-07-21,1,,,,,オカゲサマ,0
809,4011301027958,新規,0,2022-07-21,2022-07-21,ガワ株式会社,,株式会社,東京都,杉並区,上荻１丁目９番１号タウンセブン,,13,115,1670043,,,,,,,2022-07-21,1,,,,,ガワ,0
810,4011303004476,新規,0,2022-07-21,2022-07-21,フューチャードリーム合同会社,,合同会社,東京都,杉並区,上井草１丁目９－１５,,13,115,1670023,,,,,,,2022-07-21,1,,,,,フューチャードリーム,0
815,4011501028293,新規,0,2022-07-21,2022-07-21,株式会社フロントライン,,株式会社,東京都,北区,十条仲原１丁目２１番１２号コスモ十条グランシティ５０３号室,,13,117,1140031,,,,,,,2022-07-21,1,,,,,フロントライン,0
816,4011503005233,新規,0,2022-07-21,2022-07-21,Ｂ＆Ｔ合同会社,,合同会社,東京都,荒川区,東日暮里６丁目４６番１１号ファーストビル３０１号,,13,118,1160014,,,,,,,2022-07-21,1,,,,,ビーアンドティー,0
823,4013301049362,新規,0,2022-07-21,2022-07-21,株式会社ブレア・ヒガシ,,株式会社,東京都,豊島区,西池袋５丁目２６－１６ＣＨＩＢＡビル５１０号室,,13,116,1710021,,,,,,,2022-07-21,1,,,,,ブレアヒガシ,0
840,4030001149326,新規,0,2022-07-21,2022-07-21,株式会社サウンドファクトリー,,株式会社,埼玉県,戸田市,美女木１丁目１５番２６号,,11,224,3350031,,,,,,,2022-07-21,1,,,,,サウンドファクトリー,0
848,4040001124336,新規,0,2022-07-21,2022-07-21,株式会社スティント,,株式会社,千葉県,山武郡芝山町,岩山２２６９番地１２－２０２,,12,409,2891608,,,,,,,2022-07-21,1,,,,,スティント,0
849,4040001124352,新規,0,2022-07-21,2022-07-21,株式会社シニアサポートＴＯＭＯ,,株式会社,千葉県,柏市,柏６丁目１番３－５０６号,,12,217,2770005,,,,,,,2022-07-21,1,,,,,シニアサポートトモ,0
855,4080101023434,新規,0,2022-07-21,2022-07-21,株式会社昇真土建,,株式会社,静岡県,伊豆市,熊坂１２５７番地の７５,,22,222,4102411,,,,,,,2022-07-21,1,,,,,ショウシンドケン,0
858,4080403004586,新規,0,2022-07-21,2022-07-21,合同会社ＲＴＮ,,合同会社,静岡県,浜松市中区,鴨江１丁目３０番１５号レガーロ鴨江ＩＩ３０６号,00127271,22,131,4328023,,,,,,,2022-07-21,1,,,,,リレーション,0
865,4110003004818,新規,0,2022-07-21,2022-07-21,合同会社Ｉｒｉｓ,,合同会社,新潟県,新潟市中央区,東幸町４番１０号ダイヤパレスロイヤルシティ東幸町東棟３０４,,15,103,9500906,,,,,,,2022-07-21,1,,,,,イリス,0
870,4120001247475,新規,0,2022-07-21,2022-07-21,株式会社ＣＯＬＯＲＳ,,株式会社,大阪府,大阪市中央区,南船場２丁目１０番３０号ＮＬＣ心斎橋アースビル５０３号,,27,128,5420081,,,,,,,2022-07-21,1,,,,,カラーズ,0
878,4120103004782,新規,0,2022-07-21,2022-07-21,中園通商合同会社,,合同会社,大阪府,堺市中区,深井沢町３２６３－２０１号,,27,142,5998236,,,,,,,2022-07-21,1,,,,,ナカゾノツウショウ,0
879,4120105009598,新規,0,2022-07-21,2022-07-21,医療法人日仁会,,その他の設立登記法人,大阪府,堺市北区,南長尾町２丁１番２１号,,27,146,5918045,,,,,,,2022-07-21,1,,,,,ニチジンカイ,0
904,4140003017924,新規,0,2022-07-21,2022-07-21,中村打刃物合同会社,,合同会社,兵庫県,小野市,上本町２７番地１５,,28,218,6751379,,,,,,,2022-07-21,1,,,,,ナカムラウチハモノ,0
905,4150001025705,新規,0,2022-07-21,2022-07-21,株式会社梅本建設,,株式会社,奈良県,奈良市,大安寺３丁目９番３－３０５号,,29,201,6308133,,,,,,,2022-07-21,1,,,,,ウメモトケンセツ,0
921,4180303005402,新規,0,2022-07-21,2022-07-21,合同会社みいな,,合同会社,愛知県,安城市,御幸本町７番１７号安城壱番館２Ｆ西,,23,212,4460032,,,,,,,2022-07-21,1,,,,,ミイナ,0
923,4180305009368,新規,0,2022-07-21,2022-07-21,一般社団法人がまやどり,,その他の設立登記法人,愛知県,蒲郡市,海陽町２丁目１番地,,23,214,4430014,,,,,,,2022-07-21,1,,,,,ガマヤドリ,0
931,4200003005625,新規,0,2022-07-21,2022-07-21,小椋造園事務所合同会社,,合同会社,岐阜県,各務原市,蘇原東島町２丁目１４８番地,,21,213,5040816,,,,,,,2022-07-21,1,,,,,オグラゾウエンジムショ,0
935,4230001019459,新規,0,2022-07-21,2022-07-21,株式会社和,,株式会社,富山県,魚津市,上村木１丁目１番１号,,16,204,9370046,,,,,,,2022-07-21,1,,,,,ナゴミ,0
937,4240001060115,新規,0,2022-07-21,2022-07-21,株式会社ＧＲＯＷ,,株式会社,広島県,廿日市市,津田３５５１番地３,,34,213,7380222,,,,,,,2022-07-21,1,,,,,グロー,0
947,4290001098340,新規,0,2022-07-21,2022-07-21,木子国際株式会社,,株式会社,福岡県,福岡市東区,松香台２丁目６－１崎村ビル店舗１０５号,,40,131,8130004,,,,,,,2022-07-21,1,,,,,キココクサイ,0
950,4290003012695,新規,0,2022-07-21,2022-07-21,合同会社ＡＬＰＨＡ,,合同会社,福岡県,福岡市博多区,比恵町１－１８東カン第二２０５,,40,132,8120014,,,,,,,2022-07-21,1,,,,,アルファー,0
955,4320005010009,新規,0,2022-07-21,2022-07-21,特定非営利活動法人空き家バンクサポートべっぷ,,その他の設立登記法人,大分県,別府市,石垣西１丁目３番４号,,44,202,8740910,,,,,,,2022-07-21,1,,,,,アキヤバンクサポートベップ,0
964,4360003012184,新規,0,2022-07-21,2022-07-21,合同会社ＳＥＡ　ＡＰＰＬＥ,,合同会社,沖縄県,八重山郡竹富町,字上原５８３番地,,47,381,9071541,,,,,,,2022-07-21,1,,,,,シーアップル,0
966,4380003005244,新規,0,2022-07-21,2022-07-21,テールスラップ合同会社,,合同会社,福島県,郡山市,安積荒井１丁目８６番地,,07,203,9630117,,,,,,,2022-07-21,1,,,,,テールスラップ,0
971,4430001087097,新規,0,2022-07-21,2022-07-21,ぼたん株式会社,,株式会社,北海道,北広島市,大曲末広６丁目７番地２,,01,234,0611272,,,,,,,2022-07-21,1,,,,,ボタン,0
972,4460001005717,新規,0,2022-07-21,2022-07-21,スノーペット株式会社,,株式会社,北海道,川上郡弟子屈町,摩周２丁目４番７号,,01,665,0883201,,,,,,,2022-07-21,1,,,,,スノーペット,0
977,4700150050885,新規,0,2022-07-21,2015-10-09,とやま技術交流クラブ,,その他,富山県,富山市,高田５２９,,16,201,9300866,,,,,,,2015-10-09,1,,,,,トヤマギジユツコウリユウクラブ,0
978,4700150110953,新規,0,2022-07-21,2022-07-21,新発田いのちのパンチャーチ,,その他,新潟県,新発田市,中央町１丁目２－３,,15,206,9570053,,,,,,,2022-07-21,1,,,,,シバタイノチノパンチャーチ,0
994,5010001228114,新規,0,2022-07-21,2022-07-21,東京青山工業研究所株式会社,,株式会社,東京都,中央区,東日本橋２丁目２８番５号５０８,,13,102,1030004,,,,,,,2022-07-21,1,,,,,トウキョウアオヤマコウギョウケンキュウジョ,0
996,5010003038172,新規,0,2022-07-21,2022-07-21,合同会社スプリングワン,,合同会社,東京都,千代田区,丸の内３丁目１番１号東京共同会計事務所内,,13,101,1000005,,,,,,,2022-07-21,1,,,,,スプリングワン,0
997,5010003038222,新規,0,2022-07-21,2022-07-21,ワンストップ合同会社,,合同会社,東京都,千代田区,神田須田町１丁目７番１号,,13,101,1010041,,,,,,,2022-07-21,1,,,,,ワンストップ,0
999,5010101015255,新規,0,2022-07-21,2022-07-21,株式会社和,,株式会社,東京都,八王子市,川口町７７９番地７６,,13,201,1930801,,,,,,,2022-07-21,1,,,,,ナゴミ,0
1006,5010403028095,新規,0,2022-07-21,2022-07-21,Ｌ’ａｒｂｒｅ合同会社,,合同会社,東京都,港区,北青山３丁目６番７号青山パラシオタワー１１階,,13,103,1070061,,,,,,,2022-07-21,1,,,,,ラブレア,0
1007,5010403028112,新規,0,2022-07-21,2022-07-21,合同会社Ｂｌｕｅｇｅ,,合同会社,東京都,港区,六本木４丁目９番２号俳優座ビル６０６,,13,103,1060032,,,,,,,2022-07-21,1,,,,,ブルージュ,0
1008,5010403028120,新規,0,2022-07-21,2022-07-21,合同会社ゴールドＩ５,,合同会社,東京都,港区,虎ノ門３丁目２２番１０－２０１号,,13,103,1050001,,,,,,,2022-07-21,1,,,,,ゴールドアイファイブ,0
1012,5010501049134,新規,0,2022-07-21,2022-07-21,株式会社タカシマ,,株式会社,東京都,台東区,浅草橋４丁目１番４号МＴＣビル１Ｆ,,13,106,1110053,,,,,,,2022-07-21,1,,,,,タカシマ,0
1022,5010803004233,新規,0,2022-07-21,2022-07-21,合同会社せとうち企画,,合同会社,東京都,大田区,山王２丁目５番６号山王ブリッジ５階４５号室,,13,111,1430023,,,,,,,2022-07-21,1,,,,,セトウチキカク,0
1023,5010901051268,新規,0,2022-07-21,2022-07-21,株式会社イーゼル・プランニング,,株式会社,東京都,世田谷区,世田谷１丁目２７番１５号,,13,112,1540017,,,,,,,2022-07-21,1,,,,,イーゼルプランニング,0
1026,5011001148789,新規,0,2022-07-21,2022-07-21,株式会社親孝行ドットコム,,株式会社,東京都,渋谷区,神南１丁目８番１８－２０３号,,13,113,1500041,,,,,,,2022-07-21,1,,,,,オヤコウコウドットコム,0
1033,5011101099602,新規,0,2022-07-21,2022-07-21,株式会社カンナム,,株式会社,東京都,新宿区,歌舞伎町２丁目４１番１１号,,13,104,1600021,,,,,,,2022-07-21,1,,,,,カンナム,0
1035,5011103011985,新規,0,2022-07-21,2022-07-21,合同会社Ｎコネクト,,合同会社,東京都,新宿区,西新宿３丁目５－３,,13,104,1600023,,,,,,,2022-07-21,1,,,,,エヌコネクト,0
1036,5011103011993,新規,0,2022-07-21,2022-07-21,合同会社ＤＥＶ１６,,合同会社,東京都,新宿区,西新宿３丁目３番１３号西新宿水間ビル２階,,13,104,1600023,,,,,,,2022-07-21,1,,,,,ディブジュウロク,0
1037,5011301027940,新規,0,2022-07-21,2022-07-21,株式会社Ｎ,,株式会社,東京都,杉並区,荻窪４丁目８－２クローバーテラス荻窪３０１,,13,115,1670051,,,,,,,2022-07-21,1,,,,,エヌ,0
1038,5011303004475,新規,0,2022-07-21,2022-07-21,合同会社にこっとホーム,,合同会社,東京都,杉並区,松ノ木２丁目６番６号,,13,115,1660014,,,,,,,2022-07-21,1,,,,,ニコットホーム,0
1041,5011401024417,新規,0,2022-07-21,2022-07-21,ＡＰＣ　Ｔｒｅｎｄｓ株式会社,,株式会社,東京都,板橋区,徳丸１丁目１番１８号,,13,119,1750083,,,,,,,2022-07-21,1,,,,,エーピーシートレンヅ,0
1043,5011501028292,新規,0,2022-07-21,2022-07-21,上島産業株式会社,,株式会社,東京都,荒川区,町屋３丁目２番１号Ｂ１Ｆ,,13,118,1160001,,,,,,,2022-07-21,1,,,,,ウエシマサンギョウ,0
1045,5011503005232,新規,0,2022-07-21,2022-07-21,合同会社ｐｏｏｌ　ｄｏｌｌａｒ,,合同会社,東京都,荒川区,西日暮里２丁目４０番３号日神パレス３０２,,13,118,1160013,,,,,,,2022-07-21,1,,,,,プードル,0
1047,5011601026114,新規,0,2022-07-21,2022-07-21,株式会社ゴールデン・ディアー,,株式会社,東京都,練馬区,錦２丁目１６番１３－４０２,,13,120,1790082,,,,,,,2022-07-21,1,,,,,ゴールデンディアー,0
1051,5011801041029,新規,0,2022-07-21,2022-07-21,厳若小良株式会社,,株式会社,東京都,足立区,中央本町４丁目１１番３７号メゾン中央２階,,13,121,1210011,,,,,,,2022-07-21,1,,,,,ゲンジャクショウリョウ,0
1055,5012303001702,新規,0,2022-07-21,2022-07-21,合同会社ＺＥＳＴ　ＦＯＲ　ＬＩＦＥ,,合同会社,東京都,町田市,玉川学園４丁目７番１５号,,13,209,1940041,,,,,,,2022-07-21,1,,,,,ゼストフォーライフ,0
1063,5013301049403,新規,0,2022-07-21,2022-07-21,株式会社ＫＭＣ,,株式会社,東京都,豊島区,東池袋３丁目２２番１２号ヴィラロッソカバーロ４０８,,13,116,1700013,,,,,,,2022-07-21,1,,,,,ケーエムシー,0
1074,5021003011960,新規,0,2022-07-21,2022-07-21,合同会社淀彦エステート,,合同会社,神奈川県,伊勢原市,伊勢原２丁目６番３４号,,14,214,2591131,,,,,,,2022-07-21,1,,,,,ヨドヒコエステート,0
1083,5030001149291,新規,0,2022-07-21,2022-07-21,逸隆株式会社,,株式会社,埼玉県,さいたま市南区,大字大谷口３１９５番地１３,,11,108,3360042,,,,,,,2022-07-21,1,,,,,イチリュウ,0
1084,5030001149300,新規,0,2022-07-21,2022-07-21,株式会社Ｔｏｍｍｙ　Ｂａｎｓｏ　Ｃｒｅａｔｉｖｅ,,株式会社,埼玉県,さいたま市南区,白幡３丁目１２番１６号,,11,108,3360022,,,,,,,2022-07-21,1,,,,,トミーバンソークリエイティブ,0
1085,5030001149317,新規,0,2022-07-21,2022-07-21,株式会社Ｖｅｉｌ,,株式会社,埼玉県,川口市,大字東内野３０４,,11,203,3330821,,,,,,,2022-07-21,1,,,,,ヴェール,0
1086,5030001149325,新規,0,2022-07-21,2022-07-21,ＣＣＢ株式会社,,株式会社,埼玉県,川口市,西川口１丁目３０番２０－２１５号,,11,203,3320021,,,,,,,2022-07-21,1,,,,,シーシービー,0
1090,5030003019823,新規,0,2022-07-21,2022-07-21,ＡＴＭＯＲＥ合同会社,,合同会社,埼玉県,さいたま市浦和区,常盤３丁目１４－３ラウンドハイツ３０２,,11,107,3300061,,,,,,,2022-07-21,1,,,,,アットモール,0
1095,5040001124351,新規,0,2022-07-21,2022-07-21,ｍａｒｋ＆ｐａｒｔｎｅｒｓ株式会社,,株式会社,千葉県,柏市,増尾１丁目１８－７,,12,217,2770033,,,,,,,2022-07-21,1,,,,,マークアンドパートナーズ,0
1096,5040003020441,新規,0,2022-07-21,2022-07-21,Ｄｉｎ９合同会社,,合同会社,千葉県,大網白里市,南横川３０１２番２３,,12,239,2993223,,,,,,,2022-07-21,1,,,,,ディング,0
1097,5040003020466,新規,0,2022-07-21,2022-07-21,合同会社岩瀬,,合同会社,千葉県,千葉市若葉区,小倉台７丁目１番１号,,12,104,2640006,,,,,,,2022-07-21,1,,,,,イワセ,0
1107,5070002037748,新規,0,2022-07-21,2022-07-21,有限会社滝沢建設,,有限会社,群馬県,前橋市,富士見町小暮８７９番地,,10,201,3710103,,,,,,,2022-07-21,1,,,,,タキザワケンセツ,0
1110,5080101023433,新規,0,2022-07-21,2022-07-21,株式会社ＳＡＩＳＥＩ,,株式会社,静岡県,三島市,一番町２０番３号,,22,206,4110036,,,,,,,2022-07-21,1,,,,,サイセイ,0
1136,5120003022108,新規,0,2022-07-21,2022-07-21,ＧＭＢ　ＧＬＯＢＡＬ合同会社,,合同会社,大阪府,大阪市淀川区,塚本２丁目１５番３－３０１号,,27,123,5320026,,,,,,,2022-07-21,1,,,,,ジーエムビーグローバル,0
1137,5120005023079,新規,0,2022-07-21,2022-07-21,医療法人橙和会,,その他の設立登記法人,大阪府,大阪市北区,菅栄町２番１６号マジェスタ天満１階,,27,127,5300031,,,,,,,2022-07-21,1,,,,,トウワカイ,0
1142,5120103004781,新規,0,2022-07-21,2022-07-21,丸昌商事合同会社,,合同会社,大阪府,堺市中区,深井沢町３２６３－２０２号,,27,142,5998236,,,,,,,2022-07-21,1,,,,,マルショウショウジ,0
1143,5120105009597,新規,0,2022-07-21,2022-07-21,医療法人健明会,,その他の設立登記法人,大阪府,松原市,天美東６丁目１８番３７号,,27,217,5800032,,,,,,,2022-07-21,1,,,,,ケンメイカイ,0
1145,5120901046265,新規,0,2022-07-21,2022-07-21,株式会社マイスター,,株式会社,大阪府,高槻市,西冠１丁目２１番１７号,,27,207,5690055,,,,,,,2022-07-21,1,,,,,マイスター,0
1146,5120901046273,新規,0,2022-07-21,2022-07-21,株式会社木村建築,,株式会社,大阪府,茨木市,玉瀬町４１番２７－３０２号,,27,211,5670893,,,,,,,2022-07-21,1,,,,,キムラケンチク,0
1164,5140001126528,新規,0,2022-07-21,2022-07-21,株式会社ＢＲＥＡＫ　ＪＡＰＡＮ　Ｃｏ．,,株式会社,兵庫県,姫路市,北条梅原町１３００－１,,28,201,6700945,,,,,,,2022-07-21,1,,,,,ブレークジャパンカンパニー,0
1165,5140003017915,新規,0,2022-07-21,2022-07-21,合同会社Ａサロン,,合同会社,兵庫県,西宮市,鳴尾町２丁目１番１８号,,28,204,6638184,,,,,,,2022-07-21,1,,,,,エーサロン,0
1186,5180001152223,新規,0,2022-07-21,2022-07-21,ハリスインコーポレーション株式会社,,株式会社,愛知県,名古屋市中区,錦２丁目５番３１号,,23,106,4600003,,,,,,,2022-07-21,1,,,,,ハリスインコーポレーション,0
1194,5180003024057,新規,0,2022-07-21,2022-07-21,Ｍ＆Ｙ’ｓ合同会社,,合同会社,愛知県,春日井市,中央台８丁目２番地２リバピア中央台５号棟５０２号室,,23,206,4870011,,,,,,,2022-07-21,1,,,,,エムアンドワイズ,0
1197,5180005019864,新規,0,2022-07-21,2022-07-21,一般社団法人真愛メディカル,,その他の設立登記法人,愛知県,名古屋市西区,城西３丁目２１番２３号,,23,104,4510031,,,,,,,2022-07-21,1,,,,,シンアイメディカル,0
1199,5180301036316,新規,0,2022-07-21,2022-07-21,株式会社原田産業,,株式会社,愛知県,豊橋市,吾妻町１７３番地,,23,201,4400045,,,,,,,2022-07-21,1,,,,,ハラダサンギョウ,0
1200,5180305009367,新規,0,2022-07-21,2022-07-21,医療法人晃和会野本医院,,その他の設立登記法人,愛知県,豊川市,萩山町３丁目６番地の２,,23,207,4420879,,,,,,,2022-07-21,1,,,,,コウワカイノモトイイン,0
1202,5200001040301,新規,0,2022-07-21,2022-07-21,株式会社美子精工,,株式会社,岐阜県,各務原市,蘇原島崎町２丁目７番地２,,21,213,5040856,,,,,,,2022-07-21,1,,,,,ミコセイコウ,0
1206,5230001019458,新規,0,2022-07-21,2022-07-21,大山工業株式会社,,株式会社,富山県,射水市,中太閤山４丁目５番地２,,16,211,9390363,,,,,,,2022-07-21,1,,,,,オオヤマコウギョウ,0
1217,5240001060114,新規,0,2022-07-21,2022-07-21,株式会社広葉,,株式会社,広島県,呉市,安浦町大字女子畑１３１０番地１,,34,202,7372501,,,,,,,2022-07-21,1,,,,,コウヨウ,0
1219,5250003003111,新規,0,2022-07-21,2022-07-21,山陽小野田ＬＡＢＶプロジェクト合同会社,,合同会社,山口県,山陽小野田市,稲荷町１０番２３号,,35,216,7560811,,,,,,,2022-07-21,1,,,,,サンヨウオノダエルエービーブイプロジェクト,0
1223,5260001037060,新規,0,2022-07-21,2022-07-21,株式会社ＨＲＭ,,株式会社,岡山県,総社市,総社２丁目３番２０－６号,,33,208,7191126,,,,,,,2022-07-21,1,,,,,エイチアールエム,0
1231,5290001098348,新規,0,2022-07-21,2022-07-21,株式会社太二,,株式会社,福岡県,福岡市博多区,石城町５番１１－１２０３号,,40,132,8120032,,,,,,,2022-07-21,1,,,,,ダイニ,0
1233,5290003012752,新規,0,2022-07-21,2022-07-21,合同会社福慶,,合同会社,福岡県,福岡市城南区,別府５丁目１３－３０,,40,136,8140104,,,,,,,2022-07-21,1,,,,,フクケイ,0
1234,5290003012760,新規,0,2022-07-21,2022-07-21,合同会社ｆａｓｔｌａｎｅ,,合同会社,福岡県,飯塚市,幸袋９１番地１,,40,205,8200066,,,,,,,2022-07-21,1,,,,,ファストレーン,0
1236,5290803004164,新規,0,2022-07-21,2022-07-21,合同会社Ｏｆｆｉｃｅ２７９,,合同会社,福岡県,北九州市小倉北区,堺町２丁目１－１角田ビル６１７,,40,106,8020005,,,,,,,2022-07-21,1,,,,,オフィスツナグ,0
1237,5300003001869,新規,0,2022-07-21,2022-07-21,バミカトレデンゴ合同会社,,合同会社,佐賀県,神埼郡吉野ヶ里町,三津１９２０番地,,41,327,8420104,,,,,,,2022-07-21,1,,,,,バミカトレデンゴ,0
1245,5360001030724,新規,0,2022-07-21,2022-07-21,株式会社新垣鉄筋工業,,株式会社,沖縄県,中頭郡中城村,字和宇慶１７３番地,,47,328,9012416,,,,,,,2022-07-21,1,,,,,アラカキテッキンコウギョウ,0
1246,5360003012183,新規,0,2022-07-21,2022-07-21,合同会社我那覇技研,,合同会社,沖縄県,名護市,字宇茂佐１８３５番地４,,47,209,9050006,,,,,,,2022-07-21,1,,,,,ガナハギケン,0
1259,5420003002541,新規,0,2022-07-21,2022-07-21,合同会社ＮＩＣＮ,,合同会社,青森県,八戸市,大字白銀町字右岩淵通１９番地７,,02,203,0310822,,,,,,,2022-07-21,1,,,,,エヌアイシーエヌ,0
1262,5430003014123,新規,0,2022-07-21,2022-07-21,合同会社ｍｏｖｅｏｎさっぽろ,,合同会社,北海道,札幌市南区,澄川五条１３丁目１０－６,,01,106,0050005,,,,,,,2022-07-21,1,,,,,ムーブオンサッポロ,0
1278,6010001228229,新規,0,2022-07-21,2022-07-21,株式会社ステリウム８,,株式会社,東京都,中央区,日本橋兜町５－１兜町第１平和ビル３Ｆ,,13,102,1030026,,,,,,,2022-07-21,1,,,,,ステリウムエイト,0
1279,6010001228237,新規,0,2022-07-21,2022-07-21,株式会社Ｓｙｕ‐Ｒａｉ,,株式会社,東京都,中央区,日本橋横山町１－４林屋ビル３０８号室,,13,102,1030003,,,,,,,2022-07-21,1,,,,,シューライ,0
1280,6010001228245,新規,0,2022-07-21,2022-07-21,株式会社ｓｈｉｐ,,株式会社,東京都,中央区,佃２丁目１番１－３８１２号,,13,102,1040051,,,,,,,2022-07-21,1,,,,,シップ,0
1281,6010101015254,新規,0,2022-07-21,2022-07-21,株式会社ウエストコーポレーション,,株式会社,東京都,八王子市,松木３番地２３,,13,201,1920362,,,,,,,2022-07-21,1,,,,,ウエストコーポレーション,0
1288,6010401168545,新規,0,2022-07-21,2022-07-21,株式会社夢Ｄｅｓｉｇｎ,,株式会社,東京都,港区,南青山２丁目２番１５号,,13,103,1070062,,,,,,,2022-07-21,1,,,,,ユメデザイン,0
1291,6010403028111,新規,0,2022-07-21,2022-07-21,ＳＫＹＬＩＧＨＴ　ＮＥＴＷＯＲＫＳ合同会社,,合同会社,東京都,港区,浜松町２丁目２－１５浜松町ダイヤビル２Ｆ,,13,103,1050013,,,,,,,2022-07-21,1,,,,,スカイライトネットワークス,0
1292,6010403028128,新規,0,2022-07-21,2022-07-21,合同会社ＩＮＡＲＩ,,合同会社,東京都,港区,南青山２丁目２番１５号ウィン青山１２１４号,,13,103,1070062,,,,,,,2022-07-21,1,,,,,イナリ,0
1299,6010703006320,新規,0,2022-07-21,2022-07-21,ワイケイズ合同会社,,合同会社,東京都,品川区,小山７丁目１４―１１,,13,109,1420062,,,,,,,2022-07-21,1,,,,,ワイケイズ,0
1303,6010901051267,新規,0,2022-07-21,2022-07-21,株式会社カーラ,,株式会社,東京都,世田谷区,野沢４丁目４－１,,13,112,1540003,,,,,,,2022-07-21,1,,,,,カーラ,0
1304,6010901051275,新規,0,2022-07-21,2022-07-21,株式会社ナナガツ,,株式会社,東京都,世田谷区,代田２丁目３６番１５号ＢＯＮＵＳＴＲＡＣＫＬＯＵＮＧＥ,,13,112,1550033,,,,,,,2022-07-21,1,,,,,ナナガツ,0
1315,6011101099592,新規,0,2022-07-21,2022-07-21,株式会社ａｃｔｉｖｅｓｅｔ,,株式会社,東京都,新宿区,大久保１丁目１番９－４１１号,,13,104,1690072,,,,,,,2022-07-21,1,,,,,アクティブセット,0
1316,6011101099601,新規,0,2022-07-21,2022-07-21,株式会社Ｓａｎｄｕ,,株式会社,東京都,新宿区,北新宿１丁目１番２０号プリオール三信ビル８Ｆ,,13,104,1690074,,,,,,,2022-07-21,1,,,,,サンドゥ,0
1318,6011103011992,新規,0,2022-07-21,2022-07-21,Ａｓｓｅｔ　Ｒｅｖｉｅｗ合同会社,,合同会社,東京都,新宿区,西新宿３丁目３番１３号西新宿水間ビル６階,,13,104,1600023,,,,,,,2022-07-21,1,,,,,アセットレビュー,0
1321,6011503005231,新規,0,2022-07-21,2022-07-21,ＢＡＯ合同会社,,合同会社,東京都,北区,浮間１丁目１－１４リムジンビル３０５,,13,117,1150051,,,,,,,2022-07-21,1,,,,,バオ,0
1322,6011601026113,新規,0,2022-07-21,2022-07-21,株式会社ＴＮ‐ＧＲＩＴ,,株式会社,東京都,練馬区,大泉町６丁目２９番２０号,,13,120,1780062,,,,,,,2022-07-21,1,,,,,ティーエヌグリット,0
1325,6011703003200,新規,0,2022-07-21,2022-07-21,いろは計画合同会社,,合同会社,東京都,江戸川区,東葛西５丁目１３番１号マインコーポ葛西４１７,,13,123,1340084,,,,,,,2022-07-21,1,,,,,イロハケイカク,0
1326,6012301013070,新規,0,2022-07-21,2022-07-21,株式会社プロイエ,,株式会社,東京都,町田市,三輪町１０９９番地１,,13,209,1950054,,,,,,,2022-07-21,1,,,,,プロイエ,0
1331,6013101008979,新規,0,2022-07-21,2022-07-21,セキュリティプロフェッショナル株式会社,,株式会社,東京都,羽村市,神明台１丁目１０－１０,,13,227,2050023,,,,,,,2022-07-21,1,,,,,,0
1342,6020001147444,新規,0,2022-07-21,2022-07-21,株式会社Ｉ．Ｄ．Ａ．,,株式会社,神奈川県,横浜市中区,元町５丁目２０６番４号,,14,104,2310861,,,,,,,2022-07-21,1,,,,,アイディーエー,0
1356,6021003011803,新規,0,2022-07-21,2022-07-21,合同会社ハピモト電気興業,,合同会社,神奈川県,横須賀市,坂本町３丁目２９,,14,201,2380043,,,,,,,2022-07-21,1,,,,,ハピモトデンキコウギョウ,0
1357,6021003011910,新規,0,2022-07-21,2022-07-21,Ｌｉｇａｒｅａｃｈ合同会社,,合同会社,神奈川県,相模原市南区,相模大野６丁目１５－１６,,14,153,2520303,,,,,,,2022-07-21,1,,,,,,0
1361,6030001149308,新規,0,2022-07-21,2022-07-21,株式会社ナノクリーンジャパン,,株式会社,埼玉県,春日部市,大沼６丁目１３７番地１,,11,214,3440038,,,,,,,2022-07-21,1,,,,,ナノクリーンジャパン,0
1365,6030003019830,新規,0,2022-07-21,2022-07-21,合同会社サンテック,,合同会社,埼玉県,三郷市,中央２丁目２９番地２０ロイヤルハーモニーＢ２０３,,11,237,3410038,,,,,,,2022-07-21,1,,,,,サンテック,0
1371,6040001124342,新規,0,2022-07-21,2022-07-21,清水皓源株式会社,,株式会社,千葉県,千葉市花見川区,花園３丁目３番５号,,12,102,2620025,,,,,,,2022-07-21,1,,,,,シミズコウゲン,0
1372,6040001124350,新規,0,2022-07-21,2022-07-21,げんた不動産株式会社,,株式会社,千葉県,松戸市,八ケ崎３丁目１３－７,,12,207,2700023,,,,,,,2022-07-21,1,,,,,ゲンタフドウサン,0
1384,6080101023432,新規,0,2022-07-21,2022-07-21,株式会社ＨＩＴＯＭＩ　ＤＥＳＩＧＮ　ＯＦＦＩＣＥ,,株式会社,静岡県,三島市,一番町２０番３号,,22,206,4110036,,,,,,,2022-07-21,1,,,,,ヒトミデザインオフィス,0
1391,6100003006631,新規,0,2022-07-21,2022-07-21,シーゼロ合同会社,,合同会社,長野県,北佐久郡軽井沢町,軽井沢１０２０番地３７,,20,321,3890103,,,,,,,2022-07-21,1,,,,,シーゼロ,0
1399,6120001150446,新規,0,2022-07-21,2022-07-21,東大阪綜合開発株式会社,,株式会社,大阪府,枚方市,長尾家具町２丁目１２番１号,,27,210,5730102,,,,,,,2022-07-21,1,,,,,ヒガシオオサカソウゴウカイハツ,0
1401,6120001247481,新規,0,2022-07-21,2022-07-21,株式会社恵煌,,株式会社,大阪府,枚方市,津田駅前１丁目８番２３号,,27,210,5730125,,,,,,,2022-07-21,1,,,,,ケイコウ,0
1406,6120003022107,新規,0,2022-07-21,2022-07-21,ＦＤＹ合同会社,,合同会社,大阪府,大阪市城東区,中浜１丁目１７番１４号センチュリー中浜・２Ａ,,27,118,5360024,,,,,,,2022-07-21,1,,,,,エフディーワイ,0
1413,6120105009596,新規,0,2022-07-21,2022-07-21,医療法人恒尋会,,その他の設立登記法人,大阪府,羽曳野市,西浦１６２４番地の１,,27,222,5830861,,,,,,,2022-07-21,1,,,,,コウジンカイ,0
1423,6130005016527,新規,0,2022-07-21,2022-07-21,医療法人なかのうクリニック,,その他の設立登記法人,京都府,京都市北区,紫竹上梅ノ木町１７番地５,,26,101,6038179,,,,,,,2022-07-21,1,,,,,ナカノウクリニック,0
1432,6140001126808,新規,0,2022-07-21,2022-07-21,株式会社睦仮設,,株式会社,兵庫県,加古川市,西神吉町辻２５５番地１,,28,210,6750046,,,,,,,2022-07-21,1,,,,,ムツミカセツ,0
1452,6180001152296,新規,0,2022-07-21,2022-07-21,株式会社ハレル屋,,株式会社,愛知県,一宮市,三ツ井１丁目１４番４号,,23,203,4910827,,,,,,,2022-07-21,1,,,,,ハレルヤ,0
1454,6180003024064,新規,0,2022-07-21,2022-07-21,ａｎｏｎｅ合同会社,,合同会社,愛知県,名古屋市中区,大須１丁目７番１４号パークＩＭビル２Ｆ,,23,106,4600011,,,,,,,2022-07-21,1,,,,,アノネ,0
1457,6180301036439,新規,0,2022-07-21,2022-07-21,マネービタミン株式会社,,株式会社,愛知県,岡崎市,竜美台２丁目１１番地４,,23,202,4440873,,,,,,,2022-07-21,1,,,,,マネービタミン,0
1458,6180301036455,新規,0,2022-07-21,2022-07-21,株式会社豊橋クリーンシステム,,株式会社,愛知県,豊橋市,神野新田町字トノ割２８番地,,23,201,4418077,,,,,,,2022-07-21,1,,,,,トヨハシクリーンシステム,0
1479,6240003005719,新規,0,2022-07-21,2022-07-21,ＬＩＢＥＲＴＹ合同会社,,合同会社,広島県,広島市中区,大手町１丁目７番２１－４０３号,,34,101,7300051,,,,,,,2022-07-21,1,,,,,リバティ,0
1487,6270001008596,新規,0,2022-07-21,2022-07-21,ＪＣＴテクノロジーズ株式会社,,株式会社,鳥取県,米子市,東倉吉町５８番地＆Ａビル３階,,31,202,6830815,,,,,,,2022-07-21,1,,,,,ジェーシーティーテクノロジーズ,0
1499,6320005010007,新規,0,2022-07-21,2022-07-21,ＮＰＯ法人子どもと女性と動物のかけこみ寺,,その他の設立登記法人,大分県,大分市,大字勢家９２６番地,,44,201,8700100,,,,,,,2022-07-21,1,,,,,コドモトジョセイトドウブツノカケコミデラ,0
1508,6350003004131,新規,0,2022-07-21,2022-07-21,合同会社ＳＴＳ,,合同会社,宮崎県,西都市,旭２丁目８７番地,,45,208,8810031,,,,,,,2022-07-21,1,,,,,エスティエス,0
1518,6410001013243,新規,0,2022-07-21,2022-07-21,株式会社バーンフュージョン秋田,,株式会社,秋田県,横手市,駅前町１番１３号,,05,203,0130036,,,,,,,2022-07-21,1,,,,,バーンフュージョンアキタ,0
1520,6430001087104,新規,0,2022-07-21,2022-07-21,株式会社縹色,,株式会社,北海道,札幌市北区,篠路町上篠路２５７番地２２,,01,102,0028052,,,,,,,2022-07-21,1,,,,,ハナダイロ,0
1522,6430003014122,新規,0,2022-07-21,2022-07-21,合同会社ＨＩＤＥ,,合同会社,北海道,札幌市豊平区,平岸二条１８丁目１番３０－４２０号,,01,105,0620932,,,,,,,2022-07-21,1,,,,,ヒデ,0
1523,6450001013751,新規,0,2022-07-21,2022-07-21,株式会社濱谷工務店,,株式会社,北海道,旭川市,春光台三条３丁目２番１８号,,01,204,0718143,,,,,,,2022-07-21,1,,,,,ハマヤコウムテン,0
1532,6500005008511,新規,0,2022-07-21,2022-07-21,一般社団法人愛媛フィンランド協会,,その他の設立登記法人,愛媛県,東温市,上林甲３００７番地１,,38,215,7910223,,,,,,,2022-07-21,1,,,,,エヒメフィンランドキョウカイ,0
1538,7010001228046,新規,0,2022-07-21,2022-07-21,パズル株式会社,,株式会社,東京都,千代田区,丸の内３丁目１番１号国際ビル２階２３６区,,13,101,1000005,,,,,,,2022-07-21,1,,,,,パズル,0
1539,7010001228236,新規,0,2022-07-21,2022-07-21,ミリオンパシフィック株式会社,,株式会社,東京都,千代田区,神田錦町３丁目２１,,13,101,1010054,,,,,,,2022-07-21,1,,,,,ミリオンパシフィック,0
1540,7010001228244,新規,0,2022-07-21,2022-07-21,株式会社グロースアビリティ,,株式会社,東京都,中央区,日本橋３丁目２番１４号新槇町ビル別館第一２階,,13,102,1030027,,,,,,,2022-07-21,1,,,,,グロースアビリティ,0
1543,7010003038220,新規,0,2022-07-21,2022-07-21,合同会社Ａｆｆｅｃｔ,,合同会社,東京都,中央区,晴海３丁目１３番１－５０７号,,13,102,1040053,,,,,,,2022-07-21,1,,,,,アフェクト,0
1546,7010103001953,新規,0,2022-07-21,2022-07-21,合同会社ＦＩＲＳＴ,,合同会社,東京都,八王子市,椚田町５０５番地３,,13,201,1930942,,,,,,,2022-07-21,1,,,,,ファースト,0
1547,7010105002173,新規,0,2022-07-21,2022-07-21,行政書士法人相続ワンストップ,,その他の設立登記法人,東京都,八王子市,横山町３番１２号,,13,201,1920081,,,,,,,2022-07-21,1,,,,,ソウゾクワンストップ,0
1558,7010401168635,新規,0,2022-07-21,2022-07-21,株式会社パイレーツ２００７,,株式会社,東京都,港区,白金４丁目４番８号,,13,103,1080072,,,,,,,2022-07-21,1,,,,,パイレーツニーマルマルナナ,0
1561,7010403028110,新規,0,2022-07-21,2022-07-21,Ｌｏｃａｔｉｅ合同会社,,合同会社,東京都,港区,南青山２丁目２番１５号,,13,103,1070062,,,,,,,2022-07-21,1,,,,,ロカティエ,0
1562,7010403028119,新規,0,2022-07-21,2022-07-21,合同会社ゴールドＩ４,,合同会社,東京都,港区,虎ノ門３丁目２２番１０－２０１号,,13,103,1050001,,,,,,,2022-07-21,1,,,,,ゴールドアイフォー,0
1575,7010701042985,新規,0,2022-07-21,2022-07-21,トラスト株式会社,,株式会社,東京都,品川区,西五反田８丁目２－１２アール五反田７Ａ,,13,109,1410031,,,,,,,2022-07-21,1,,,,,トラスト,0
1581,7010901051274,新規,0,2022-07-21,2022-07-21,株式会社ＭＩＹＯＳＨＩ　ＭＩＬＡＩ,,株式会社,東京都,世田谷区,深沢７丁目２３番８号,,13,112,1580081,,,,,,,2022-07-21,1,,,,,ミヨシミライ,0
1584,7010903007530,新規,0,2022-07-21,2022-07-21,ＭＩＭＯＲＩ　ｄｅｓｉｇｎ合同会社,,合同会社,東京都,世田谷区,瀬田３丁目５－１４－４０１,,13,112,1580095,,,,,,,2022-07-21,1,,,,,ミモリデザイン,0
1585,7010905004344,新規,0,2022-07-21,2022-07-21,一般社団法人ｃｏｔｔｏｎ,,その他の設立登記法人,東京都,世田谷区,成城７丁目１６－８,,13,112,1570066,,,,,,,2022-07-21,1,,,,,コットン,0
1596,7011101099575,新規,0,2022-07-21,2022-07-21,トミネ株式会社,,株式会社,東京都,新宿区,四谷４丁目２４番１６号,,13,104,1600004,,,,,,,2022-07-21,1,,,,,トミネ,0
1597,7011103011991,新規,0,2022-07-21,2022-07-21,合同会社みず９,,合同会社,東京都,新宿区,西五軒町１２－１－２０５,,13,104,1620812,,,,,,,2022-07-21,1,,,,,ミズク,0
1601,7011405002210,新規,0,2022-07-21,2022-07-21,一般社団法人華人登山協会,,その他の設立登記法人,東京都,板橋区,板橋２丁目１９番地５号メインステージパーク大山１１０５号室,,13,119,1730004,,,,,,,2022-07-21,1,,,,,カジントザンキョウカイ,0
1609,7011701025476,新規,0,2022-07-21,2022-07-21,株式会社ａｌｇａ,,株式会社,東京都,江戸川区,中央３丁目５－１,,13,123,1320021,,,,,,,2022-07-21,1,,,,,アルガ,0
1616,7012301013078,新規,0,2022-07-21,2022-07-21,株式会社Ｆｏｏｔｗｏｒｋ,,株式会社,東京都,町田市,森野１丁目１２番３号,,13,209,1940022,,,,,,,2022-07-21,1,,,,,フットワーク,0
1620,7012403005493,新規,0,2022-07-21,2022-07-21,チキバン合同会社,,合同会社,東京都,狛江市,元和泉１丁目１－２イトーピア狛江エコルマ２、２階,,13,219,2010013,,,,,,,2022-07-21,1,,,,,チキバン,0
1624,7012801021737,新規,0,2022-07-21,2022-07-21,株式会社おぎくぼ,,株式会社,東京都,立川市,錦町２丁目１番３２号山崎ビル３０１,,13,202,1900022,,,,,,,2022-07-21,1,,,,,オギクボ,0
1646,7021003011959,新規,0,2022-07-21,2022-07-21,合同会社フルーツバスケット,,合同会社,神奈川県,大和市,中央林間４丁目７－１２－９０１,,14,213,2420007,,,,,,,2022-07-21,1,,,,,フルーツバスケット,0
1654,7030001149323,新規,0,2022-07-21,2022-07-21,株式会社ＹＡＧＯＣＯＲＯ,,株式会社,埼玉県,児玉郡上里町,大字金久保３１１番地１,,11,385,3690301,,,,,,,2022-07-21,1,,,,,ヤゴコロ,0
1656,7030003019821,新規,0,2022-07-21,2022-07-21,ＲｅＬＩＦＥ合同会社,,合同会社,埼玉県,富士見市,渡戸２丁目１７番１７号,,11,235,3540032,,,,,,,2022-07-21,1,,,,,リライフ,0
1664,7040001124333,新規,0,2022-07-21,2022-07-21,株式会社ファシアマネジメント,,株式会社,千葉県,松戸市,小金原１丁目７番地の２７,,12,207,2700021,,,,,,,2022-07-21,1,,,,,ファシアマネジメント,0
1666,7040003020456,新規,0,2022-07-21,2022-07-21,ＳＡＮトレーディング合同会社,,合同会社,千葉県,千葉市花見川区,犢橋町７２番地,,12,102,2620013,,,,,,,2022-07-21,1,,,,,サントレーディング,0
1668,7050003006702,新規,0,2022-07-21,2022-07-21,ＣＯＣＯプラス合同会社,,合同会社,茨城県,日立市,多賀町２丁目１４番１０号,,08,202,3160003,,,,,,,2022-07-21,1,,,,,ココプラス,0
1684,7080101023431,新規,0,2022-07-21,2022-07-21,株式会社創検,,株式会社,静岡県,富士市,柚木２１９番地の５,,22,210,4160908,,,,,,,2022-07-21,1,,,,,ソウケン,0
1693,7110005016833,新規,0,2022-07-21,2022-07-21,一般社団法人イノベーションみらい,,その他の設立登記法人,新潟県,新潟市中央区,天神１丁目１番地プラーカ３,,15,103,9500917,,,,,,,2022-07-21,1,,,,,イノベーションミライ,0
1702,7120001247480,新規,0,2022-07-21,2022-07-21,株式会社Ｌ’ａｒｃｏｂａｌｅｎｏ,,株式会社,大阪府,大阪市鶴見区,鶴見３丁目１２番１０－３０８号,,27,124,5380053,,,,,,,2022-07-21,1,,,,,ラルコバレーノ,0
1703,7120001247489,新規,0,2022-07-21,2022-07-21,株式会社ラスイートルパン,,株式会社,大阪府,大阪市天王寺区,上汐３丁目３番２号,,27,109,5430002,,,,,,,2022-07-21,1,,,,,ラスイートルパン,0
1710,7120105009595,新規,0,2022-07-21,2022-07-21,医療法人きのした整形外科,,その他の設立登記法人,大阪府,羽曳野市,西浦３丁目５番１０号羽曳野西浦クリニックビル３階,,27,222,5830861,,,,,,,2022-07-21,1,,,,,キノシタセイケイゲカ,0
1714,7122005003629,新規,0,2022-07-21,2022-07-21,医療法人廣福会,,その他の設立登記法人,大阪府,八尾市,龍華町１丁目４番１号メガシティタワーズ２階,,27,212,5810069,,,,,,,2022-07-21,1,,,,,コウフクカイ,0
1725,7140001126798,新規,0,2022-07-21,2022-07-21,株式会社ビーフラット,,株式会社,兵庫県,尼崎市,立花町２丁目２１番４号若松マンション１０４,,28,202,6610025,,,,,,,2022-07-21,1,,,,,ビーフラット,0
1726,7140001126807,新規,0,2022-07-21,2022-07-21,リジェネラティブ株式会社,,株式会社,兵庫県,神戸市中央区,海岸通５番地,,28,110,6500024,,,,,,,2022-07-21,1,,,,,リジェネラティブ,0
1729,7140003017921,新規,0,2022-07-21,2022-07-21,合同会社ＬＥＩ,,合同会社,兵庫県,姫路市,御国野町国分寺７番地ボニート・ショコラＩＩ１０３,00127268,28,201,6710234,,,,,,,2022-07-21,1,,,,,エルイーアイ,0
1740,7180001152238,新規,0,2022-07-21,2022-07-21,株式会社ＬＬコーポレーション,,株式会社,愛知県,名古屋市港区,中川本町７丁目１番地の８６,,23,111,4550051,,,,,,,2022-07-21,1,,,,,エルエルコーポレーション,0
1741,7180001152304,新規,0,2022-07-21,2022-07-21,株式会社Ｔｈｏｕｓａｎｄ　Ｖｉｌｌａｇｅ,,株式会社,愛知県,名古屋市中村区,深川町１丁目１９番地,,23,105,4530805,,,,,,,2022-07-21,1,,,,,サウザントヴィレッジ,0
1748,7180005019846,新規,0,2022-07-21,2022-07-21,一般社団法人つるまいナース,,その他の設立登記法人,愛知県,名古屋市中川区,愛知町１９番地６号,,23,110,4540807,,,,,,,2022-07-21,1,,,,,ツルマイナース,0
1764,7220003003327,新規,0,2022-07-21,2022-07-21,アジアメイドクラフト合同会社,,合同会社,石川県,白山市,北安田町５２１５番地,,17,210,9240024,,,,,,,2022-07-21,1,,,,,アジアメイドクラフト,0
1771,7220005008687,新規,0,2022-07-21,2022-07-21,一般社団法人共生会,,その他の設立登記法人,石川県,金沢市,堀川新町１番１号,,17,201,9200849,,,,,,,2022-07-21,1,,,,,キョウセイカイ,0
1779,7260001037067,新規,0,2022-07-21,2022-07-21,株式会社石原工業,,株式会社,岡山県,岡山市東区,楢原６５７番地,,33,103,7090611,,,,,,,2022-07-21,1,,,,,イシハラコウギョウ,0
1784,7290001098346,新規,0,2022-07-21,2022-07-21,Ｍａｔｓｕｍｏｔｏ株式会社,,株式会社,福岡県,福岡市西区,横浜２丁目３３番３８号,,40,135,8190166,,,,,,,2022-07-21,1,,,,,マツモト,0
1787,7290003012759,新規,0,2022-07-21,2022-07-21,ミカツキ合同会社,,合同会社,福岡県,福岡市中央区,赤坂３丁目４番３１－４０１号,,40,133,8100042,,,,,,,2022-07-21,1,,,,,ミカツキ,0
1788,7290005018754,新規,0,2022-07-21,2022-07-21,一般社団法人センチュリー再生医療機構,,その他の設立登記法人,福岡県,朝倉市,板屋２番地１,,40,228,8380027,,,,,,,2022-07-21,1,,,,,センチュリーサイセイイリョウキコウ,0
1791,7290803004170,新規,0,2022-07-21,2022-07-21,合同会社ＴＮＴ,,合同会社,福岡県,北九州市八幡西区,丸尾町２番４８号１Ｆ,,40,109,8070826,,,,,,,2022-07-21,1,,,,,ティーエヌティー,0
1796,7320001019224,新規,0,2022-07-21,2022-07-21,Ｃｒｅｄｙ‐ｃａｒ株式会社,,株式会社,大分県,別府市,大字鶴見字新別府３０１８番地の２,,44,202,8740840,,,,,,,2022-07-21,1,,,,,クレディカ,0
1803,7380001032997,新規,0,2022-07-21,2022-07-21,株式会社Ｎｏｔｅファルマ,,株式会社,福島県,須賀川市,北横田字石の花１８６番地,,07,207,9620313,,,,,,,2022-07-21,1,,,,,ノートファルマ,0
1808,7390001016974,新規,0,2022-07-21,2022-07-21,株式会社ＫＯＮＮＯ,,株式会社,山形県,天童市,糠塚１丁目１１‐２６村山ビル３０２,,06,210,9940014,,,,,,,2022-07-21,1,,,,,コンノ,0
1813,7410005006481,新規,0,2022-07-21,2022-07-21,一般社団法人秋田県任意売却支援協会,,その他の設立登記法人,秋田県,大仙市,若竹町３１番５号,,05,212,0140016,,,,,,,2022-07-21,1,,,,,アキタケンニンイバイキャクシエンキョウカイ,0
1822,7430003014121,新規,0,2022-07-21,2022-07-21,合同会社ＧＲＩＴ,,合同会社,北海道,札幌市西区,山の手三条１丁目４番１号－１２０５号室,,01,107,0630003,,,,,,,2022-07-21,1,,,,,グリット,0
1824,7470001019168,新規,0,2022-07-21,2022-07-21,株式会社３１,,株式会社,香川県,高松市,香川町川東上６３６番地７８,,37,201,7611706,,,,,,,2022-07-21,1,,,,,ミイ,0
1830,7500001024354,新規,0,2022-07-21,2022-07-21,株式会社ジャクソン・カーセンター,,株式会社,愛媛県,東温市,牛渕１１１７番地５,,38,215,7910213,,,,,,,2022-07-21,1,,,,,ジャクソンカーセンター,0
1831,7700150109373,新規,0,2022-07-21,2022-06-10,Ｐｉｅｃｅ　Ｂｏｘ,,その他,東京都,板橋区,上板橋３丁目８－７ホワイトハイツ１０２号室,,13,119,1740076,,,,,,,2022-06-10,1,,,,,ピースボツクス,0
1841,8010001228219,新規,0,2022-07-21,2022-07-21,株式会社ｒｅｓｅｒｖｅ,,株式会社,東京都,文京区,湯島３丁目３９－１１－５階,,13,105,1130034,,,,,,,2022-07-21,1,,,,,リザーブ,0
1842,8010003038194,新規,0,2022-07-21,2022-07-21,ちゃちゃ合同会社,,合同会社,東京都,中央区,入船１丁目１－２６,,13,102,1040042,,,,,,,2022-07-21,1,,,,,チャチャ,0
1846,8010103001952,新規,0,2022-07-21,2022-07-21,合同会社アドニス,,合同会社,東京都,八王子市,明神町４丁目２番７号秀和第１八王子レジデンス３０７号,,13,201,1920046,,,,,,,2022-07-21,1,,,,,アドニス,0
1851,8010401168618,新規,0,2022-07-21,2022-07-21,日本楽宙株式会社,,株式会社,東京都,港区,三田１丁目２番１８号ＴＴＤビル,,13,103,1080073,,,,,,,2022-07-21,1,,,,,ニホンラクチュウ,0
1852,8010401168634,新規,0,2022-07-21,2022-07-21,株式会社ＭＡＮＡＧＥＭＥＮＴ　ＰＬＡＴＦＯＲＭ,,株式会社,東京都,港区,南青山２丁目２番１５号,,13,103,1070062,,,,,,,2022-07-21,1,,,,,マネジメントプラットフォーム,0
1854,8010501049131,新規,0,2022-07-21,2022-07-21,株式会社工藤浩平建築設計事務所,,株式会社,東京都,台東区,浅草橋２丁目２７番１０－２Ｆ日の出ビル,,13,106,1110053,,,,,,,2022-07-21,1,,,,,クドウコウヘイケンチクセッケイ,0
1860,8010603009644,新規,0,2022-07-21,2022-07-21,合同会社ギフト,,合同会社,東京都,江東区,亀戸７丁目５番８号シティマークス亀戸５０３号,,13,108,1360071,,,,,,,2022-07-21,1,,,,,ギフト,0
1863,8010701042984,新規,0,2022-07-21,2022-07-21,株式会社リディスカバー,,株式会社,東京都,品川区,二葉１丁目４－２４フェイム大井山手台２０１,,13,109,1420043,,,,,,,2022-07-21,1,,,,,リディスカバー,0
1867,8010801033132,新規,0,2022-07-21,2022-07-21,株式会社ラトシア,,株式会社,東京都,大田区,新蒲田３丁目２０－６,,13,111,1440054,,,,,,,2022-07-21,1,,,,,ラトシア,0
1870,8010901051257,新規,0,2022-07-21,2022-07-21,株式会社ｗｅｌｌｙ,,株式会社,東京都,世田谷区,上馬２丁目２９番１３号アルカンシェール三軒茶屋２０１,,13,112,1540011,,,,,,,2022-07-21,1,,,,,ウェリー,0
1871,8010901051265,新規,0,2022-07-21,2022-07-21,株式会社ウエストコンサルティング,,株式会社,東京都,世田谷区,太子堂３丁目８番１２号,,13,112,1540004,,,,,,,2022-07-21,1,,,,,ウエストコンサルティング,0
1872,8010901051273,新規,0,2022-07-21,2022-07-21,株式会社緑の館,,株式会社,東京都,世田谷区,喜多見６丁目２３番１４号,,13,112,1570067,,,,,,,2022-07-21,1,,,,,ミドリノヤカタ,0
1880,8011101099608,新規,0,2022-07-21,2022-07-21,四谷倶楽部株式会社,,株式会社,東京都,新宿区,四谷１丁目１１番地,,13,104,1600004,,,,,,,2022-07-21,1,,,,,ヨツヤクラブ,0
1893,8011801041026,新規,0,2022-07-21,2022-07-21,株式会社彩誓,,株式会社,東京都,足立区,東保木間１丁目２６－３４,,13,121,1210063,,,,,,,2022-07-21,1,,,,,サイセイ,0
1896,8012701017157,新規,0,2022-07-21,2022-07-21,ＦＥＲＮＡＬＵＣＥ株式会社,,株式会社,東京都,小平市,天神町４丁目３２番６号,,13,211,1870004,,,,,,,2022-07-21,1,,,,,フェルナルーチェ,0
1906,8021001076417,新規,0,2022-07-21,2022-07-21,株式会社ＷＥＢＲＩＤＧＥ,,株式会社,神奈川県,小田原市,矢作１５２番地の６,,14,206,2500873,,,,,,,2022-07-21,1,,,,,ウェブリッジ,0
1907,8021001076573,新規,0,2022-07-21,2022-07-21,株式会社大和キャピタル,,株式会社,神奈川県,大和市,西鶴間２丁目１９番２０号,,14,213,2420005,,,,,,,2022-07-21,1,,,,,ヤマトキャピタル,0
1921,8030001149297,新規,0,2022-07-21,2022-07-21,株式会社ＣＯＭＦＯＲＴ,,株式会社,埼玉県,さいたま市緑区,大字大牧１４２８番地２,,11,109,3360922,,,,,,,2022-07-21,1,,,,,コンフォート,0
1922,8030001149306,新規,0,2022-07-21,2022-07-21,ＳＢＴマネジメント株式会社,,株式会社,埼玉県,さいたま市北区,宮原町２丁目９０番４号アイネットビル４階,,11,102,3310812,,,,,,,2022-07-21,1,,,,,エスビーティーマネジメント,0
1923,8030003019820,新規,0,2022-07-21,2022-07-21,ウェルス夢明華合同会社,,合同会社,埼玉県,越谷市,蒲生東町４番４８号ゼファー新越谷リビーノ１１１号,,11,222,3430841,,,,,,,2022-07-21,1,,,,,ウェルスユメカ,0
1924,8030005020925,新規,0,2022-07-21,2022-07-21,一般社団法人つなげる,,その他の設立登記法人,埼玉県,所沢市,上新井４丁目６番地の１５,,11,208,3591142,,,,,,,2022-07-21,1,,,,,ツナゲル,0
1931,8040003020463,新規,0,2022-07-21,2022-07-21,Ｅｔｏｉｌｅ合同会社,,合同会社,千葉県,四街道市,四街道１５２２番地１７フェブリエ１０２,,12,228,2840005,,,,,,,2022-07-21,1,,,,,エトワール,0
1935,8050003006701,新規,0,2022-07-21,2022-07-21,ＲＯＹＡＬ　ＳＴＡＲ　ＪＡＰＡＮ合同会社,,合同会社,茨城県,鉾田市,上幡木１６２７番地４,,08,234,3112113,,,,,,,2022-07-21,1,,,,,ロイヤルスタージャパン,0
1936,8060001035098,新規,0,2022-07-21,2022-07-21,株式会社ＡＲＭ,,株式会社,栃木県,宇都宮市,泉が丘３丁目１番１０号サカヨリビル３Ｆ,,09,201,3210952,,,,,,,2022-07-21,1,,,,,エーアールエム,0
1940,8070001039412,新規,0,2022-07-21,2022-07-21,株式会社ブック・ブック,,株式会社,群馬県,高崎市,緑町４丁目７番地７,,10,202,3700073,,,,,,,2022-07-21,1,,,,,ブックブック,0
1943,8080101023430,新規,0,2022-07-21,2022-07-21,株式会社マツコー,,株式会社,静岡県,富士宮市,泉町１５５番地富士宮パレス２６号,,22,207,4180043,,,,,,,2022-07-21,1,,,,,マツコー,0
1945,8080405007476,新規,0,2022-07-21,2022-07-21,一般社団法人ＴＨＲＥＥＥ．,,その他の設立登記法人,静岡県,浜松市東区,篠ケ瀬町２１２番地グランストーク篠ケ瀬ＩＩ１０２,00127278,22,132,4350042,,,,,,,2022-07-21,1,,,,,スリー,0
1947,8100005012898,新規,0,2022-07-21,2022-07-21,一般社団法人恵優会,,その他の設立登記法人,長野県,松本市,寿北３丁目２番１３号,,20,202,3990011,,,,,,,2022-07-21,1,,,,,ケイユウカイ,0
1966,8120901046279,新規,0,2022-07-21,2022-07-21,ＡＫＲ運送株式会社,,株式会社,大阪府,茨木市,小柳町１３番８号シャーメゾン小柳１０７号,,27,211,5670852,,,,,,,2022-07-21,1,,,,,エイケイアールウンソウ,0
1972,8122001036086,新規,0,2022-07-21,2022-07-21,株式会社アルク,,株式会社,大阪府,東大阪市,高井田中１丁目８番３０号,,27,227,5770065,,,,,,,2022-07-21,1,,,,,アルク,0
1981,8140001126797,新規,0,2022-07-21,2022-07-21,株式会社山崎地所,,株式会社,兵庫県,姫路市,勝原区勝山町１３３番地６３５,,28,201,6711202,,,,,,,2022-07-21,1,,,,,ヤマサキジショ,0
1999,8180003024062,新規,0,2022-07-21,2022-07-21,合同会社コトノバ,,合同会社,愛知県,日進市,岩崎台３丁目３０５,,23,230,4700135,,,,,,,2022-07-21,1,,,,,コトノバ,0
2004,8190001029632,新規,0,2022-07-21,2022-07-21,守成ホールディングス株式会社,,株式会社,三重県,四日市市,川北１丁目１８番５号,,24,202,5108031,,,,,,,2022-07-21,1,,,,,モリセイホールディングス,0
2011,8220005008686,新規,0,2022-07-21,2022-07-21,キャンドゥ協同組合,,その他の設立登記法人,石川県,金沢市,三十苅町乙１５７番地,,17,201,9218131,,,,,,,2022-07-21,1,,,,,キャンドゥ,0
2028,8290003012758,新規,0,2022-07-21,2022-07-21,ギークアウト合同会社,,合同会社,福岡県,福岡市東区,高美台２丁目３４番６号,,40,131,8110215,,,,,,,2022-07-21,1,,,,,ギークアウト,0
2033,8310001017962,新規,0,2022-07-21,2022-07-21,ファーミライズ株式会社,,株式会社,長崎県,東彼杵郡東彼杵町,八反田郷１０２１番地２,,42,321,8593922,,,,,,,2022-07-21,1,,,,,ファーミライズ,0
2042,8390001016973,新規,0,2022-07-21,2022-07-21,株式会社Ｄ．ｗｏｒｋ,,株式会社,山形県,山形市,上町４丁目１３番１６号,,06,201,9902483,,,,,,,2022-07-21,1,,,,,ディーワーク,0
2047,8410005006480,新規,0,2022-07-21,2022-07-21,一般社団法人ＩＣＥ　ＰＩＣＫ,,その他の設立登記法人,秋田県,横手市,駅前町一丁目２１番地Ｙ２ぷらざ３階Ｂｉｚサポートよこて,,05,203,0130036,,,,,,,2022-07-21,1,,,,,アイスピック,0
2049,8430001087077,新規,0,2022-07-21,2022-07-21,株式会社ウェイド,,株式会社,北海道,札幌市中央区,南十一条西１丁目５番１６号,,01,101,0640811,,,,,,,2022-07-21,1,,,,,ウェイド,0
2050,8430001087127,新規,0,2022-07-21,2022-07-21,株式会社アプレンド・ツリー,,株式会社,北海道,札幌市東区,北二十五条東３丁目３－１７シャレオサッポロ２５　１０１号室,,01,103,0650025,,,,,,,2022-07-21,1,,,,,アプレンドツリー,0
2051,8430003014112,新規,0,2022-07-21,2022-07-21,合同会社美章,,合同会社,北海道,札幌市北区,北三十四条西８丁目１－３０クリューソス１０２,,01,102,0010034,,,,,,,2022-07-21,1,,,,,ミショウ,0
2054,8470001019167,新規,0,2022-07-21,2022-07-21,株式会社香川総合経営,,株式会社,香川県,木田郡三木町,大字平木３３番地２,,37,341,7610702,,,,,,,2022-07-21,1,,,,,カガワソウゴウケイエイ,0
2055,8480001011800,新規,0,2022-07-21,2022-07-21,株式会社ｃｉｒｃｕｌａ,,株式会社,徳島県,板野郡北島町,鯛浜字西ノ須１７４,,36,402,7710204,,,,,,,2022-07-21,1,,,,,,0
2058,8700150109406,新規,0,2022-07-21,2022-06-10,青島広志ブレーメン楽団,,その他,東京都,豊島区,駒込１丁目２５－４,,13,116,1700003,,,,,,,2022-06-10,1,,,,,アオシマヒロシブレーメンガクダン,0
2059,8700150109959,新規,0,2022-07-21,2022-06-16,大坂東地域資源保全の会,,その他,静岡県,掛川市,大坂６８２８,,22,213,4371421,,,,,,,2022-06-16,1,,,,,オオサカヒガシチイキシゲンホゼンノカイ,0
2072,9010001227780,新規,0,2022-07-21,2022-07-21,株式会社アイテイエス,,株式会社,東京都,千代田区,飯田橋１丁目８番９号ニューシティハイツ飯田橋７０７,,13,101,1020072,,,,,,,2022-07-21,1,,,,,アイテイエス,0
2073,9010001228226,新規,0,2022-07-21,2022-07-21,ＨＫパートナーズ株式会社,,株式会社,東京都,千代田区,麹町５丁目３番地第７秋山ビル８階,,13,101,1020083,,,,,,,2022-07-21,1,,,,,エイチケーパートナーズ,0
2074,9010001228242,新規,0,2022-07-21,2022-07-21,株式会社ＮＡＹＵＴＡ,,株式会社,東京都,中央区,銀座１丁目２７番８号セントラルビル７０３号,,13,102,1040061,,,,,,,2022-07-21,1,,,,,ナユタ,0
2088,9010401168311,新規,0,2022-07-21,2022-07-21,株式会社ユニマットクリエイティブ,,株式会社,東京都,港区,北青山２丁目７番１３号プラセオ青山ビル,,13,103,1070061,,,,,,,2022-07-21,1,,,,,ユニマットクリエイティブ,0
2104,9010901051280,新規,0,2022-07-21,2022-07-21,株式会社ベネフィット,,株式会社,東京都,世田谷区,太子堂１丁目１２番２７号コンフォートテラス１００５号,,13,112,1540004,,,,,,,2022-07-21,1,,,,,ベネフィット,0
2105,9010903007529,新規,0,2022-07-21,2022-07-21,合同会社デジタルマネー,,合同会社,東京都,世田谷区,玉堤１丁目１５番１８号,,13,112,1580087,,,,,,,2022-07-21,1,,,,,デジタルマネー,0
2116,9011101099557,新規,0,2022-07-21,2022-07-21,Ｆｒｅｉｇｈｔ　Ｃｏｎｓｏｌ　Ｉｎｔｅｒｎａｔｉｏｎａｌ　Ｊａｐａｎ株式会社,,株式会社,東京都,新宿区,西新宿７丁目４番３号,,13,104,1600023,,,,,,,2022-07-21,1,,,,,フライトコンソルインターナショナルジャパン,0
2118,9011403003720,新規,0,2022-07-21,2022-07-21,ＭＪＧＡ合同会社,,合同会社,東京都,板橋区,南常盤台２丁目２０番１７号,,13,119,1740072,,,,,,,2022-07-21,1,,,,,エムジェージーエー,0
2121,9011603003652,新規,0,2022-07-21,2022-07-21,合同会社ＬＥＸ,,合同会社,東京都,練馬区,上石神井１丁目２０番１７号ＷＡＲＡＫＵ上石神井１０２号,,13,120,1770044,,,,,,,2022-07-21,1,,,,,レックス,0
2126,9011801041025,新規,0,2022-07-21,2022-07-21,株式会社佳一品,,株式会社,東京都,足立区,谷中４丁目１９番９－７０４号,,13,121,1200006,,,,,,,2022-07-21,1,,,,,カイッピン,0
2127,9011801041033,新規,0,2022-07-21,2022-07-21,株式会社センチュリーエステート,,株式会社,東京都,足立区,南花畑３丁目３３番２４号,,13,121,1210062,,,,,,,2022-07-21,1,,,,,センチュリーエステート,0
2129,9012301013068,新規,0,2022-07-21,2022-07-21,株式会社イース,,株式会社,東京都,町田市,森野２丁目３１番１１号シャレー三井４０２,,13,209,1940022,,,,,,,2022-07-21,1,,,,,イース,0
2138,9013301049390,新規,0,2022-07-21,2022-07-21,株式会社Ｄｅｒｌｏｎｅ,,株式会社,東京都,豊島区,高田３丁目３－２２開成館１Ｆ,,13,116,1710033,,,,,,,2022-07-21,1,,,,,デロン,0
2139,9013301049399,新規,0,2022-07-21,2022-07-21,株式会社ＰＩＮＧ‐ＰＯＮＧ　ＣＯＭＰＡＮＹ,,株式会社,東京都,豊島区,目白４丁目１３番３号大和ビル２Ｆ,,13,116,1710031,,,,,,,2022-07-21,1,,,,,ピンポンカンパニー,0
2148,9021001076572,新規,0,2022-07-21,2022-07-21,Ｒｕｂａｔｏ株式会社,,株式会社,神奈川県,海老名市,大谷南３丁目２９－３３,,14,215,2430418,,,,,,,2022-07-21,1,,,,,ルバート,0
2150,9021003011957,新規,0,2022-07-21,2022-07-21,合同会社フォーカス,,合同会社,神奈川県,横須賀市,浦賀２丁目１番５号,,14,201,2390822,,,,,,,2022-07-21,1,,,,,フォーカス,0
2155,9030001149305,新規,0,2022-07-21,2022-07-21,新町ｌａｂｏ株式会社,,株式会社,埼玉県,川口市,大字西立野１０５７番地,,11,203,3330813,,,,,,,2022-07-21,1,,,,,シンマチラボ,0
2159,9030003019811,新規,0,2022-07-21,2022-07-21,翔雁合同会社,,合同会社,埼玉県,川口市,仲町１７番２号,,11,203,3320022,,,,,,,2022-07-21,1,,,,,ショウガン,0
2161,9040001124067,新規,0,2022-07-21,2022-07-21,ＳＡＷＡ　ＪＡＰＡＮ株式会社,,株式会社,千葉県,茂原市,早野１８２８,,12,210,2970037,,,,,,,2022-07-21,1,,,,,サワジャパン,0
2162,9040001124307,新規,0,2022-07-21,2022-07-21,株式会社Ｗａ‐Ｖｅｒ,,株式会社,千葉県,八千代市,ゆりのき台３丁目７番地１－１４棟５０７号,,12,221,2760042,,,,,,,2022-07-21,1,,,,,ウェーバー,0
2165,9040003020462,新規,0,2022-07-21,2022-07-21,合同会社テリアズ,,合同会社,千葉県,市川市,南行徳２丁目１５番４号,,12,203,2720138,,,,,,,2022-07-21,1,,,,,テリアズ,0
2176,9080003002837,新規,0,2022-07-21,2022-07-21,合同会社ユーアシスト,,合同会社,静岡県,静岡市葵区,吉野町４－７,,22,101,4200046,,,,,,,2022-07-21,1,,,,,ユーアシスト,0
2177,9080005007470,新規,0,2022-07-21,2022-07-21,一般財団法人南アルプスみらい財団,,その他の設立登記法人,静岡県,静岡市葵区,追手町９番６号静岡県庁西館８階,,22,101,4200853,,,,,,,2022-07-21,1,,,,,ミナミアルプスミライザイダン,0
2179,9090003002134,新規,0,2022-07-21,2022-07-21,合同会社メンローパーク,,合同会社,山梨県,南都留郡富士河口湖町,船津７０６３番地１,,19,430,4010301,,,,,,,2022-07-21,1,,,,,メンローパーク,0
2187,9120001247487,新規,0,2022-07-21,2022-07-21,ライズアップ株式会社,,株式会社,大阪府,大阪市西成区,出城１丁目８番１９号３階,,27,122,5570024,,,,,,,2022-07-21,1,,,,,ライズアップ,0
2191,9120005023067,新規,0,2022-07-21,2022-07-21,農事組合法人農民連大阪産直センター,,その他の設立登記法人,大阪府,大阪市城東区,鴫野西２丁目５番２２号,,27,118,5360014,,,,,,,2022-07-21,1,,,,,ノウミンレンオオサカサンチョクセンター,0
2192,9120005023091,新規,0,2022-07-21,2022-07-21,医療法人神美庵,,その他の設立登記法人,大阪府,大阪市北区,梅田１丁目８番１６号ヒルトンプラザイースト５Ｆ,,27,127,5300001,,,,,,,2022-07-21,1,,,,,シンビアン,0
2195,9120901046261,新規,0,2022-07-21,2022-07-21,株式会社Ｍ．Ｏ．Ｓ,,株式会社,大阪府,茨木市,鮎川４丁目２７番２５－２０６号,,27,211,5670831,,,,,,,2022-07-21,1,,,,,エムオーエス,0
2199,9130005016532,新規,0,2022-07-21,2022-07-21,一般社団法人福知山ユナイテッド,,その他の設立登記法人,京都府,福知山市,かしの木台２丁目２６番地,,26,201,6200921,,,,,,,2022-07-21,1,,,,,フクチヤマユナイテッド,0
2205,9140001126796,新規,0,2022-07-21,2022-07-21,株式会社六甲コンサルタント,,株式会社,兵庫県,神戸市灘区,宮山町３丁目３番４３号,,28,102,6570065,,,,,,,2022-07-21,1,,,,,ロッコウコンサルタント,0
2212,9170001017200,新規,0,2022-07-21,2022-07-21,株式会社いろは,,株式会社,和歌山県,和歌山市,井辺４２５番地３２,,30,201,6408302,,,,,,,2022-07-21,1,,,,,イロハ,0
2238,9250001019667,新規,0,2022-07-21,2022-07-21,株式会社ｓｈｕｒｉｎｃｏ,,株式会社,山口県,宇部市,大字妻崎開作４８９－８,,35,202,7590204,,,,,,,2022-07-21,1,,,,,シュリンコ,0
2239,9250003003116,新規,0,2022-07-21,2022-07-21,合同会社ディアメント,,合同会社,山口県,下松市,せせらぎ町３丁目１番２号,,35,207,7440076,,,,,,,2022-07-21,1,,,,,ディアメント,0
2254,9320001019222,新規,0,2022-07-21,2022-07-21,株式会社小関工業,,株式会社,大分県,豊後高田市,玉津１３６６番地,,44,209,8790606,,,,,,,2022-07-21,1,,,,,オゼキコウギョウ,0
2258,9330005010531,新規,0,2022-07-21,2022-07-21,一般社団法人水俣ふるさとの会,,その他の設立登記法人,熊本県,水俣市,幸町１番６号さいわい荘１－１,,43,205,8670064,,,,,,,2022-07-21,1,,,,,ミナマタフルサトノカイ,0
2271,9430001087084,新規,0,2022-07-21,2022-07-21,株式会社ナカヤマ水産,,株式会社,北海道,室蘭市,舟見町２丁目３番４号,,01,205,0510013,,,,,,,2022-07-21,1,,,,,ナカヤマスイサン,0
2276,9480003001856,新規,0,2022-07-21,2022-07-21,合同会社ＭＴＫ,,合同会社,徳島県,阿波市,市場町興崎字南分３３４番地１,,36,206,7711622,,,,,,,2022-07-21,1,,,,,エムティーケイ,0
