sequenceNumber,corporateNumber,process,correct,updateDate,changeDate,name,nameImageId,kind,prefectureName,cityName,streetNumber,addressImageId,prefectureCode,cityCode,postCode,addressOutside,addressOutsideImageId,closeDate,closeCause,successorCorporateNumber,changeCause,assignmentDate,latest,enName,enPrefectureName,enCityName,enAddressOutside,furigana,hihyoji
8,1010001237936,新規,0,2023-08-25,2023-08-25,株式会社盤匠組,,株式会社,東京都,千代田区,九段南３丁目５番３号,,13,101,1020074,,,,,,,2023-08-25,1,,,,,バンショウグミ,0
9,1010001237969,新規,0,2023-08-25,2023-08-25,株式会社Ｔｅｎ,,株式会社,東京都,中央区,銀座１丁目２２番１１号銀座大竹ビジデンス２階,,13,102,1040061,,,,,,,2023-08-25,1,,,,,テン,0
10,1010001237993,新規,0,2023-08-25,2023-08-25,ネクストワン株式会社,,株式会社,東京都,中央区,月島１丁目５番１－２８０１号,,13,102,1040052,,,,,,,2023-08-25,1,,,,,ネクストワン,0
12,1010003041469,新規,0,2023-08-25,2023-08-25,ＮＫコンサルティング合同会社,,合同会社,東京都,文京区,関口２丁目４番２４―４０３号,,13,105,1120014,,,,,,,2023-08-25,1,,,,,エヌケーコンサルティング,0
25,1010401176354,新規,0,2023-08-25,2023-08-25,ナグネット株式会社,,株式会社,東京都,港区,赤坂１丁目７番１号,,13,103,1070052,,,,,,,2023-08-25,1,,,,,ナグネット,0
26,1010401176602,新規,0,2023-08-25,2023-08-25,ヘッドオフィスジャパン株式会社,,株式会社,東京都,港区,西新橋１丁目２番９号メンターキャピタル税理士法人内,,13,103,1050003,,,,,,,2023-08-25,1,,,,,ヘッドオフィスジャパン,0
27,1010401176610,新規,0,2023-08-25,2023-08-25,シズオカ・ハマナコ１株式会社,,株式会社,東京都,港区,西新橋１丁目２番９号メンターキャピタル税理士法人内,,13,103,1050003,,,,,,,2023-08-25,1,,,,,シズオカハマナコワン,0
28,1010401176619,新規,0,2023-08-25,2023-08-25,トチギ・ナス１株式会社,,株式会社,東京都,港区,西新橋１丁目２番９号メンターキャピタル税理士法人内,,13,103,1050003,,,,,,,2023-08-25,1,,,,,トチギナスワン,0
29,1010401176627,新規,0,2023-08-25,2023-08-25,カゴシマ・キリシマ１株式会社,,株式会社,東京都,港区,西新橋１丁目２番９号メンターキャピタル税理士法人内,,13,103,1050003,,,,,,,2023-08-25,1,,,,,カゴシマキリシマワン,0
30,1010401176750,新規,0,2023-08-25,2023-08-25,カナイゴト株式会社,,株式会社,東京都,港区,麻布十番１－５－１０アトラスビルＴＨＥＨＵＢ麻布十番６０７号室,,13,103,1050000,,,,,,,2023-08-25,1,,,,,カナイゴト,0
31,1010401176817,新規,0,2023-08-25,2023-08-25,幸運インベストメント株式会社,,株式会社,東京都,港区,芝浦３丁目４番２号２１０１,,13,103,1080023,,,,,,,2023-08-25,1,,,,,コウウンインベストメント,0
32,1010403030724,新規,0,2023-08-25,2023-08-25,ビィオテラス合同会社,,合同会社,東京都,港区,南青山３丁目１番３６号青山丸竹ビル６Ｆ,,13,103,1070062,,,,,,,2023-08-25,1,,,,,ビィオテラス,0
33,1010403030815,新規,0,2023-08-25,2023-08-25,天王洲マネジメント合同会社,,合同会社,東京都,港区,六本木１丁目６番１号泉ガーデンタワー,,13,103,1060032,,,,,,,2023-08-25,1,,,,,テンノウズマネジメント,0
34,1010601063666,新規,0,2023-08-25,2023-08-25,株式会社オフィス・サトウ,,株式会社,東京都,江東区,亀戸１丁目１３番３号,,13,108,1360071,,,,,,,2023-08-25,1,,,,,オフィスサトウ,0
38,1010603010294,新規,0,2023-08-25,2023-08-25,合同会社ＭＵＧＥＮ,,合同会社,東京都,江東区,北砂３丁目２２－２２－４０３,,13,108,1360073,,,,,,,2023-08-25,1,,,,,ムゲン,0
40,1010801034277,新規,0,2023-08-25,2023-08-25,株式会社Ｎ建,,株式会社,東京都,大田区,南六郷２丁目８番７号,,13,111,1440045,,,,,,,2023-08-25,1,,,,,エヌケン,0
43,1010901053689,新規,0,2023-08-25,2023-08-25,株式会社Ｓｐｌｕｓ,,株式会社,東京都,世田谷区,用賀１丁目１５番２０－１１０２号,,13,112,1580097,,,,,,,2023-08-25,1,,,,,エスプラス,0
50,1011001156597,新規,0,2023-08-25,2023-08-25,Ｐｒｏｄｕｃｔ　Ｐｅｏｐｌｅ株式会社,,株式会社,東京都,渋谷区,道玄坂１丁目１０番８号渋谷道玄坂東急ビル２Ｆ－Ｃ,,13,113,1500043,,,,,,,2023-08-25,1,,,,,プロダクトピープル,0
51,1011005010189,新規,0,2023-08-25,2023-08-25,一般社団法人Ｗｅｂ５．０推進協議会,,その他の設立登記法人,東京都,渋谷区,千駄ヶ谷３丁目１３番２０－６０６号第７宮庭マンション,,13,113,1510051,,,,,,,2023-08-25,1,,,,,ウェブゴウテンゼロスイシンキョウギカイ,0
55,1011101104084,新規,0,2023-08-25,2023-08-25,株式会社Ｓａｌｏｎ　ｄｅ　Ｋｏｒｅａ,,株式会社,東京都,新宿区,百人町１丁目８番１１号オリエンタルビル４０１号室,,13,104,1690073,,,,,,,2023-08-25,1,,,,,サロンドコリア,0
56,1011101104126,新規,0,2023-08-25,2023-08-25,株式会社ＩＣＨＩＫＡＷＡ　ＬＡＮＤ,,株式会社,東京都,新宿区,高田馬場４丁目６番６号カスケード璃,,13,104,1690075,,,,,,,2023-08-25,1,,,,,イチカワランド,0
57,1011101104134,新規,0,2023-08-25,2023-08-25,株式会社ＩＫＥＤＡ,,株式会社,東京都,新宿区,天神町６４番地１グランドメゾン神楽坂１００４,,13,104,1620808,,,,,,,2023-08-25,1,,,,,イケダ,0
58,1011101104142,新規,0,2023-08-25,2023-08-25,Ｓｕｎｔｅｒｒｉｔｏｒｙ株式会社,,株式会社,東京都,新宿区,西新宿６丁目１１番３号Ｄタワー１６Ｆ１０４,,13,104,1600023,,,,,,,2023-08-25,1,,,,,サンテリトリー,0
59,1011103013416,新規,0,2023-08-25,2023-08-25,合同会社マイトン,,合同会社,東京都,新宿区,西新宿３丁目３番１３号西新宿水間ビル２Ｆ,,13,104,1600023,,,,,,,2023-08-25,1,,,,,マイトン,0
61,1011301028950,新規,0,2023-08-25,2023-08-25,日本文房実業株式会社,,株式会社,東京都,杉並区,南荻窪４丁目２４番１５号グリーンプレイス荻窪２０１,,13,115,1670052,,,,,,,2023-08-25,1,,,,,ニホンブンボウジツギョウ,0
66,1011501029690,新規,0,2023-08-25,2023-08-25,株式会社ｎｏｍｉ,,株式会社,東京都,荒川区,町屋３丁目１－１３－３０２,,13,118,1160001,,,,,,,2023-08-25,1,,,,,ノーミ,0
73,1012301013570,新規,0,2023-08-25,2023-08-25,Ｃａｒｅｐｏｄ　Ｊａｐａｎ株式会社,,株式会社,東京都,町田市,森野１丁目１１番９号ＭＫＫ３０１,,13,209,1940022,,,,,,,2023-08-25,1,,,,,ケアポッドジャパン,0
76,1012803003169,新規,0,2023-08-25,2023-08-25,合同会社コバル,,合同会社,東京都,日野市,豊田３丁目３－３３,,13,212,1910053,,,,,,,2023-08-25,1,,,,,コバル,0
77,1012805003217,新規,0,2023-08-25,2023-08-25,一般社団法人チーム主夫ラボ,,その他の設立登記法人,東京都,昭島市,東町１丁目３番６号,,13,207,1960033,,,,,,,2023-08-25,1,,,,,チームシュフラボ,0
78,1013301051271,新規,0,2023-08-25,2023-08-25,株式会社アークプログレス,,株式会社,東京都,豊島区,西池袋３丁目２３番１号,,13,116,1710021,,,,,,,2023-08-25,1,,,,,アークプログレス,0
87,1020003024464,新規,0,2023-08-25,2023-08-25,合同会社アンリミテッド,,合同会社,神奈川県,横浜市戸塚区,下倉田町１２６９番地Ｅ６０７,,14,110,2440815,,,,,,,2023-08-25,1,,,,,アンリミテッド,0
94,1030001155351,新規,0,2023-08-25,2023-08-25,株式会社サクラ,,株式会社,埼玉県,川口市,桜町６丁目９－１８,,11,203,3340001,,,,,,,2023-08-25,1,,,,,サクラ,0
95,1030001155368,新規,0,2023-08-25,2023-08-25,株式会社ＦａｃｔＸ,,株式会社,埼玉県,川口市,栄町２丁目１２番４号ＰｉｎｅＶｉｌｌａｇｅＢ３０１号,,11,203,3320017,,,,,,,2023-08-25,1,,,,,ファクトエックス,0
96,1030001155418,新規,0,2023-08-25,2023-08-25,株式会社中浜家具製作所,,株式会社,埼玉県,越谷市,北越谷５丁目５番１４－２号,,11,222,3430026,,,,,,,2023-08-25,1,,,,,ナカハマカグセイサクショ,0
99,1030003022310,新規,0,2023-08-25,2023-08-25,Ｍａｉｎ合同会社,,合同会社,埼玉県,さいたま市南区,四谷３丁目１４番１３－７号,,11,108,3360032,,,,,,,2023-08-25,1,,,,,マン,0
105,1040001129791,新規,0,2023-08-25,2023-08-25,株式会社トライス,,株式会社,千葉県,船橋市,本町２丁目２－７船橋本町プラザ４階ＣＢＴ船橋駅前通りテストセンター内,,12,204,2730005,,,,,,,2023-08-25,1,,,,,トライス,0
106,1040001129809,新規,0,2023-08-25,2023-08-25,株式会社ＦＳｏｌ,,株式会社,千葉県,印西市,木下南２丁目３番１１号,,12,231,2701328,,,,,,,2023-08-25,1,,,,,エフソル,0
107,1040001129817,新規,0,2023-08-25,2023-08-25,株式会社フォーストーンズ,,株式会社,千葉県,千葉市中央区,市場町３番３号,,12,101,2600855,,,,,,,2023-08-25,1,,,,,フォーストーンズ,0
108,1040001129833,新規,0,2023-08-25,2023-08-25,株式会社マルイオート,,株式会社,千葉県,柏市,豊四季７３番地１７,,12,217,2770863,,,,,,,2023-08-25,1,,,,,マルイオート,0
113,1060001036284,新規,0,2023-08-25,2023-08-25,株式会社近代日本環境サービス,,株式会社,栃木県,矢板市,扇町２丁目７番４７号,,09,211,3292161,,,,,,,2023-08-25,1,,,,,キンダイニホンカンキョウサービス,0
115,1060003004693,新規,0,2023-08-25,2023-08-25,ＴＦＴ　ＩＮＴＥＲＮＡＴＩＯＮＡＬ合同会社,,合同会社,栃木県,小山市,東城南１丁目１１－９ニューレジデンス２０６号室,,09,208,3230829,,,,,,,2023-08-25,1,,,,,チエフチインターナショナル,0
126,1090001018296,新規,0,2023-08-25,2023-08-25,ＣＡＤＬｉｎｋ　Ｊａｐａｎ株式会社,,株式会社,山梨県,北杜市,高根町東井出４９８６番地５２８,,19,209,4080003,,,,,,,2023-08-25,1,,,,,キャドリンクジャパン,0
131,1110003005141,新規,0,2023-08-25,2023-08-25,合同会社島とりどり,,合同会社,新潟県,佐渡市,大小１２４番地４,,15,224,9520431,,,,,,,2023-08-25,1,,,,,シマトリドリ,0
139,1120001257568,新規,0,2023-08-25,2023-08-25,ネクストバディ株式会社,,株式会社,大阪府,大阪市北区,万歳町１番１１号５Ｆ,,27,127,5300028,,,,,,,2023-08-25,1,,,,,ネクストバディ,0
140,1120001257576,新規,0,2023-08-25,2023-08-25,株式会社ＴＴサービス,,株式会社,大阪府,大阪市北区,天満２丁目１番３２－１１０１号,,27,127,5300043,,,,,,,2023-08-25,1,,,,,ティティサービス,0
141,1120003024751,新規,0,2023-08-25,2023-08-25,合同会社ジェーピードリーム,,合同会社,大阪府,大阪市北区,堂山町１５番４－５０７号,,27,127,5300027,,,,,,,2023-08-25,1,,,,,ジェーピードリーム,0
142,1120003024784,新規,0,2023-08-25,2023-08-25,文心合同会社,,合同会社,大阪府,大阪市東成区,玉津２丁目１１番７号スタートライン玉津３０３号室,,27,115,5370023,,,,,,,2023-08-25,1,,,,,ブンシン,0
143,1120005023842,新規,0,2023-08-25,2023-08-25,特定非営利活動法人わんど村,,その他の設立登記法人,大阪府,守口市,橋波西之町１丁目８番２０号,,27,209,5700039,,,,,,,2023-08-25,1,,,,,ワンドムラ,0
144,1120101068089,新規,0,2023-08-25,2023-08-25,株式会社オートエイブル,,株式会社,大阪府,堺市美原区,さつき野東３丁目２番地６,,27,147,5870032,,,,,,,2023-08-25,1,,,,,オートエイブル,0
145,1120101068106,新規,0,2023-08-25,2023-08-25,ＹＮＭ株式会社,,株式会社,大阪府,泉大津市,二田町３丁目２番４号,,27,206,5950015,,,,,,,2023-08-25,1,,,,,ワイエヌエム,0
151,1120903004794,新規,0,2023-08-25,2023-08-25,合同会社肌美,,合同会社,大阪府,箕面市,新稲５丁目８番３７号,,27,220,5620005,,,,,,,2023-08-25,1,,,,,ハダビ,0
153,1122001037306,新規,0,2023-08-25,2023-08-25,ニューノーマルボート株式会社,,株式会社,大阪府,八尾市,東太子１丁目２番２５号－１０６号,,27,212,5810062,,,,,,,2023-08-25,1,,,,,ニューノーマルボート,0
156,1130001075052,新規,0,2023-08-25,2023-08-25,Ｇｅｎｔｌｅ　Ｍｏｏｎ株式会社,,株式会社,京都府,京丹後市,久美浜町湊宮１８６７番地,,26,212,6293422,,,,,,,2023-08-25,1,,,,,ジェントルムーン,0
157,1130001075077,新規,0,2023-08-25,2023-08-25,株式会社クライス,,株式会社,京都府,京都市伏見区,小栗栖山口町５２番地１３,,26,109,6011454,,,,,,,2023-08-25,1,,,,,クライス,0
163,1150003003042,新規,0,2023-08-25,2023-08-25,合同会社この華,,合同会社,奈良県,奈良市,五条西１丁目１７番８号,,29,201,6308034,,,,,,,2023-08-25,1,,,,,コノハナ,0
165,1160001025285,新規,0,2023-08-25,2023-08-25,ＧＬＩＮＸ株式会社,,株式会社,滋賀県,愛知郡愛荘町,上蚊野４５０,,25,425,5291203,,,,,,,2023-08-25,1,,,,,グリンクス,0
170,1180001157738,新規,0,2023-08-25,2023-08-25,株式会社ＵＦＣ,,株式会社,愛知県,名古屋市千種区,城山町１丁目２５番地の１,,23,101,4640045,,,,,,,2023-08-25,1,,,,,ユーエフシー,0
171,1180001157754,新規,0,2023-08-25,2023-08-25,アールシーケイ株式会社,,株式会社,愛知県,名古屋市北区,上飯田東町５丁目４２番地（シティファミリー上飯田Ａ棟２０２号）,,23,103,4620803,,,,,,,2023-08-25,1,,,,,アールシーケイ,0
172,1180001157762,新規,0,2023-08-25,2023-08-25,株式会社寧仁,,株式会社,愛知県,春日井市,中切町１０４番地１,,23,206,4860925,,,,,,,2023-08-25,1,,,,,ネイト,0
179,1180301037739,新規,0,2023-08-25,2023-08-25,ＭＭｎｅｏ株式会社,,株式会社,愛知県,安城市,三河安城本町２丁目２番地５一条レジデンス三河安城１４０４,,23,212,4460059,,,,,,,2023-08-25,1,,,,,エムエムネオ,0
182,1190001030687,新規,0,2023-08-25,2023-08-25,株式会社Ｃ‐ＴＥＣＨ,,株式会社,三重県,伊賀市,千歳字野添９６７番地２階,,24,216,5180002,,,,,,,2023-08-25,1,,,,,シーテック,0
191,1240001062031,新規,0,2023-08-25,2023-08-25,株式会社福泉商事,,株式会社,広島県,福山市,沼隈町大字能登原１４２９番地１２８,,34,207,7200312,,,,,,,2023-08-25,1,,,,,フクセンショウジ,0
200,1290003014273,新規,0,2023-08-25,2023-08-25,合同会社ＴＲＳＵＴ,,合同会社,福岡県,春日市,桜ヶ丘５丁目７－２０３,,40,218,8160872,,,,,,,2023-08-25,1,,,,,トラスト,0
208,1330001031175,新規,0,2023-08-25,2023-08-25,株式会社ＥＶ１１１Ｘ,,株式会社,熊本県,上益城郡益城町,大字広崎３７３番地３,,43,443,8612236,,,,,,,2023-08-25,1,,,,,イビックス,0
214,1360003013227,新規,0,2023-08-25,2023-08-25,ＳＩＬＶＡ合同会社,,合同会社,沖縄県,沖縄市,知花４丁目７番２３号白川マンション２Ｆ,,47,211,9042143,,,,,,,2023-08-25,1,,,,,シルバ,0
224,1380001033943,新規,0,2023-08-25,2023-08-25,ｉｇｌｃｏａｔｉｎｇｓＪＡＰＡＮ株式会社,,株式会社,福島県,いわき市,平字新川町３６番地１２,,07,204,9708026,,,,,,,2023-08-25,1,,,,,アイジーエルコーティングスジャパン,0
237,1700150114750,新規,0,2023-08-25,2023-08-25,ｃｈｅｎｇｄｕｔｕｏｐｕｓｅｎｋｅｊｉｙｏｕｘｉａｎｇｏｎｇｓｉ,,外国会社等,,,,,,,,９１５，Ｆｌｏｏｒ　９，Ｂｕｉｌｄｉｎｇ　１，Ｎｏ．１３８８　Ｍｉｄｄｌｅ　Ｓｅｃｔｉｏｎ　ｏｆ　Ｔｉａｎｆｕ　Ａｖｅｎｕｅ，Ｈｉｇｈ　ｔｅｃｈ　Ｚｏｎｅ　Ｃｈｅｎｇｄｕ　Ｓｉｃｈｕａｎ　６１００００　ＣＮ,,,,,,2023-08-25,1,,,,,チォンドウトゥアプーセンクァアジーヨウシィェンゴンスー,0
238,1700150117893,新規,0,2023-08-25,2023-08-25,ｓｈｅｎｚｈｅｎｓｈｉ　ｌｅｍｉｇｅ　ｋｅｊｉｙｏｕｘｉａｎｇｏｎｇｓｉ,,外国会社等,,,,,,,,Ｒｏｏｍ　Ｃ１０２８，ｎｉｕｌａｎｑｉａｎｄａｓｈａ，ｍｉｎｚｈｉ，ｌｏｎｇｈｕａ，Ｓｈｅｎｚｈｅｎ　Ｇｕａｎｇｄｏｎｇ　５１８０００　ＣＮ,,,,,,2023-08-25,1,,,,,シェンジェンシラミーゴォカージヨウシェンゴンスー,0
239,1700150119279,新規,0,2023-08-25,2023-08-25,Ｇａｎ　ｚｈｏｕ　ｓｈｉ　ｎａｎ　ｚｈｅｎ　ｓｈａｎｇ　ｍａｏ　ｙｏｕ　ｘｉａｎ　ｇｏｎｇ　ｓｉ,,外国会社等,,,,,,,,ＧＡＮＺＨＯＵＪＩＮＧＪＩＪＩＳＨＵＫＡＩＦＡＱＵ　ＸＩＡＮＧＪＩＡＮＧＤＡＤＡＯＢＥＩＣＥ　ＨＵＡＪＩＡＮＢＥＩＬＵ　ＸＩＣＥ　ＧＡＮＺＨＯＵＧＵＯＪＩＱＩＹＥＺＨＯＮＧＸＩＮ　Ｂ１２ＨＡＯＬＯＵ６０２ＳＨＩ　ＧＡＮＺＨＯＵＳＨＩ　ＪＩＡＮＧＸＩＳＨＥＮＧ　３４１０００ＣＮ,,,,,,2023-08-25,1,,,,,ガンヂョウシーナンヂェンシャンマオヨウシィェンゴンスー,0
240,1700150119287,新規,0,2023-08-25,2023-08-25,Ｓｈｅｎｚｈｅｎ　Ｘｉｎｇｙｉｈｅｎｇ　Ｔｅｃｈｎｏｌｏｇｙ　Ｃｏ．，Ｌｔｄ．,,外国会社等,,,,,,,,Ｍｉｎｚｈｉ　Ｓｔｒｅｅｔ　Ｘｉｎｎｉｕ　Ｃｏｍｍｕｎｉｔｙ　Ｍｉｎｚｈｉ　Ａｖｅｎｕｅ　Ｎｉｕｌａｎｑｉａｎ　Ｂｕｉｌｄｉｎｇ　Ｂ５１６－２，Ｌｏｎｇｈｕａ　Ｄｉｓｔｒｉｃｔ，Ｓｈｅｎｚｈｅｎ　Ｃｉｔｙ,,,,,,2023-08-25,1,,,,,シェンジェンシーイーシンホンコージーヨウシエンゴンスー,0
241,1700150119312,新規,0,2023-08-25,2023-08-25,Ｓｈｅｎｚｈｅｎ　Ｘｉｄａ　Ｔｅｃｈｎｏｌｏｇｙ　Ｃｏｍｐａｎｙ　Ｌｉｍｉｔｅｄ,,外国会社等,,,,,,,,Ｒｏｏｍ＃３０５，３Ｆ，Ｂｌｏｃｋ　Ｅ，ＢＡＯＡＮ　ＺＨＩＧＵ　ＩＮＮＯＶＡＴＩＯＮ　ＰＡＲＫ　＃４　ＹＩＮＴＩＡＮ　Ｂａｏａｎ　Ｚｈｉｇｕ　Ｉｎｎｏｖａｔｉｏｎ　Ｐａｒｋ，　＃４　Ｙｉｎｔｉａｎ　Ｒｏａｄ　Ｘｉａｎｇｘｉ，Ｂａｏａｎ，Ｓｈｅｎｚｈｅｎ　Ｇｕａｎｇｄｏｎｇ　５１８１０２　ＣＮ,,,,,,2023-08-25,1,,,,,シエンジエンシーダテクノロジーカンパニーリミテツド,0
242,1700150119320,新規,0,2023-08-25,2023-08-25,Ｘｉａｍｅｎ　Ｅｃｏ－Ｓｏｕｒｃｅｓ　Ｔｅｃｈｎｏｌｏｇｙ　Ｃｏ．，Ｌｔｄ,,外国会社等,,,,,,,,Ｒｏｏｍ　２０２Ａ，Ｈｏｎｇｙｅ　Ｂｕｉｌｄｉｎｇ　Ｅａｓｔ，ｃｈｕａｎｇｙｅ　Ｐａｒｋ　Ｔｏｒｃｈ　Ｈｉｇｈ－ｔｅｃｈ　Ｚｏｎｅ　Ｘｉａｍｅｎ　３６１００９　ＣＮ,,,,,,2023-08-25,1,,,,,シヤーメンエコソーステクノロジーカンパニーリミテツド,0
243,1700150119329,新規,0,2023-08-25,2023-08-25,Ｎｉｎｇｂｏ　Ｗｅｌｌｄｏ　Ｔｏｏｌｓ　Ｉｎｄｕｓｔｒｉａｌ　Ｃｏ．，ｌｔｄ,,外国会社等,,,,,,,,Ｊｉａｎｇｂｅｉｑｕｃｈａｎｇｘｉｎｇｌｕ６１８ｈａｏ４３ｚｈｕａｎｇ２１４３ｓｈｉ　Ｎｉｎｇｂｏ　Ｚｈｅｊｉａｎｇ　３１５０３３　ＣＮ,,,,,,2023-08-25,1,,,,,ニンボーウエイドウツールズインダストリアルカンパニーリミテツド,0
262,2010401176618,新規,0,2023-08-25,2023-08-25,オオイタ・ベップワン１株式会社,,株式会社,東京都,港区,西新橋１丁目２番９号メンターキャピタル税理士法人内,,13,103,1050003,,,,,,,2023-08-25,1,,,,,オオイタベップワンワン,0
263,2010401176626,新規,0,2023-08-25,2023-08-25,ホッカイドウ・サッポロ１株式会社,,株式会社,東京都,港区,西新橋１丁目２番９号メンターキャピタル税理士法人内,,13,103,1050003,,,,,,,2023-08-25,1,,,,,ホッカイドウサッポロワン,0
264,2010401176774,新規,0,2023-08-25,2023-08-25,Ｌｕｘｕｒｙ　Ｃａｐｉｔａｌ　Ｈｏｌｄｉｎｇｓ株式会社,,株式会社,東京都,港区,東麻布１丁目９番１１号,,13,103,1060044,,,,,,,2023-08-25,1,,,,,ラグジュアリーキャピタルホールディングス,0
267,2010403030806,新規,0,2023-08-25,2023-08-25,合同会社ノゾミ投資,,合同会社,東京都,港区,北青山１丁目３番１号アールキューブ青山３階,,13,103,1070061,,,,,,,2023-08-25,1,,,,,ノゾミトウシ,0
268,2010405022454,新規,0,2023-08-25,2023-08-25,一般社団法人Ｒレジデンス１号,,その他の設立登記法人,東京都,港区,虎ノ門３丁目２２番１０－２０１号,,13,103,1050001,,,,,,,2023-08-25,1,,,,,アールレジデンスイチゴウ,0
274,2010901053696,新規,0,2023-08-25,2023-08-25,株式会社エンゲージアンドトラスト,,株式会社,東京都,世田谷区,船橋５丁目１６－２２,,13,112,1560055,,,,,,,2023-08-25,1,,,,,エンゲージアンドトラスト,0
281,2011001156547,新規,0,2023-08-25,2023-08-25,株式会社Ｌａｖｉｅｒｅ．,,株式会社,東京都,渋谷区,恵比寿４丁目２０番４号恵比寿ガーデンプレイスグラススクエアＢ１Ｆ,,13,113,1500013,,,,,,,2023-08-25,1,,,,,ラヴィエール,0
282,2011001156571,新規,0,2023-08-25,2023-08-25,ＣＳＩ株式会社,,株式会社,東京都,渋谷区,道玄坂１丁目１０番８号渋谷道玄坂東急ビル２Ｆ－Ｃ,,13,113,1500043,,,,,,,2023-08-25,1,,,,,シーエスアイ,0
283,2011001156596,新規,0,2023-08-25,2023-08-25,株式会社Ｇｒａｓｓｒｏｏｔｓ＆Ｃｏ．,,株式会社,東京都,渋谷区,渋谷１丁目３－１８,,13,113,1500002,,,,,,,2023-08-25,1,,,,,グラスルーツアンドコー,0
286,2011101104141,新規,0,2023-08-25,2023-08-25,Ｎｅｐａｌ　Ｅｖｅｒｅｓｔ４４株式会社,,株式会社,東京都,新宿区,百人町１丁目２３－１９南口共同ビルＢ１０３,,13,104,1690073,,,,,,,2023-08-25,1,,,,,ネパールエベレストフォーティーフォー,0
289,2011201024875,新規,0,2023-08-25,2023-08-25,株式会社ｇｔｎ,,株式会社,東京都,中野区,本町４丁目２７番７号矢萩メゾン１０２,,13,114,1640012,,,,,,,2023-08-25,1,,,,,ジーティーエヌ,0
290,2011301028958,新規,0,2023-08-25,2023-08-25,ｐｈｙｓｉｃａｌ　ｓｋｉｎ　ｓｃｉｅｎｃｅ株式会社,,株式会社,東京都,杉並区,久我山５丁目５番１５－５０４号,,13,115,1680082,,,,,,,2023-08-25,1,,,,,フィジカルスキンサイエンス,0
295,2011401025401,新規,0,2023-08-25,2023-08-25,株式会社Ｌ’ｓ　ＣＯＭＰＡＮＹ,,株式会社,東京都,板橋区,若木２丁目１０番６号ＦｏｒｅｓｔＨｉｌｌｓ１０２,,13,119,1740065,,,,,,,2023-08-25,1,,,,,エルズカンパニー,0
297,2011801042946,新規,0,2023-08-25,2023-08-25,株式会社ダイショウ,,株式会社,東京都,葛飾区,金町６丁目７番８－４０５号,,13,122,1250042,,,,,,,2023-08-25,1,,,,,ダイショウ,0
305,2013301051270,新規,0,2023-08-25,2023-08-25,エイトビューティー株式会社,,株式会社,東京都,豊島区,東池袋３丁目８－５ＰＡＲＩＤＵＲＵ１３０３,,13,116,1700013,,,,,,,2023-08-25,1,,,,,エイトビューティー,0
317,2020001153165,新規,0,2023-08-25,2023-08-25,株式会社Ｆｕｎｇｉｉ,,株式会社,神奈川県,横浜市瀬谷区,二ツ橋町３５７番地２ビブレ三ツ境３０２,,14,114,2460021,,,,,,,2023-08-25,1,,,,,ファンジー,0
323,2020003024439,新規,0,2023-08-25,2023-08-25,合同会社Ｎｕｍｌｉｎｘ,,合同会社,神奈川県,横浜市西区,浅間町１丁目４番３号ウィザードビル４０２,,14,103,2200072,,,,,,,2023-08-25,1,,,,,ナムリンクス,0
324,2020003024463,新規,0,2023-08-25,2023-08-25,満洲技術サービス合同会社,,合同会社,神奈川県,横浜市西区,浅間町１丁目４番３号ウィザードビル４０２,,14,103,2200072,,,,,,,2023-08-25,1,,,,,マンシュウギジュツサービス,0
325,2020003024471,新規,0,2023-08-25,2023-08-25,合同会社Ｍｏｒｇｅｎｒｏｔ　ｆｉｌｍ,,合同会社,神奈川県,川崎市麻生区,上麻生３丁目２１番６号山口ハイツ１０３,,14,137,2150021,,,,,,,2023-08-25,1,,,,,モルゲンロートフィルム,0
330,2030001155458,新規,0,2023-08-25,2023-08-25,株式会社エー・ペック,,株式会社,埼玉県,上尾市,東町２丁目６番３－２号,,11,219,3620031,,,,,,,2023-08-25,1,,,,,エーペック,0
331,2030001155739,新規,0,2023-08-25,2023-08-25,Ｌｏｖｅ　ｔｈｅ　Ｌｉｆｅ株式会社,,株式会社,埼玉県,加須市,礼羽６７９番地２シルクハイムＧ号棟,,11,210,3470044,,,,,,,2023-08-25,1,,,,,ラブザライフ,0
341,2040001129832,新規,0,2023-08-25,2023-08-25,松吉株式会社,,株式会社,千葉県,八千代市,八千代台東３丁目１２－３８レオパレス八千代台第２１－２０２号室,,12,221,2760032,,,,,,,2023-08-25,1,,,,,マツヨシ,0
345,2040003023166,新規,0,2023-08-25,2023-08-25,合同会社ベガ,,合同会社,千葉県,船橋市,本町４丁目２４番１２号,,12,204,2730005,,,,,,,2023-08-25,1,,,,,ベガ,0
346,2040003023174,新規,0,2023-08-25,2023-08-25,マダムＹｏｓｈｉ合同会社,,合同会社,千葉県,山武市,成東５３５番地２世界のＡＮＡＢＡ,,12,237,2891326,,,,,,,2023-08-25,1,,,,,マダムヨシ,0
347,2040003023190,新規,0,2023-08-25,2023-08-25,合同会社ＯＦＦＩＣＥ　ＫＵＮＩＹＯＳＨＩ,,合同会社,千葉県,佐倉市,中志津６丁目２１－２,,12,212,2850843,,,,,,,2023-08-25,1,,,,,オフィスクニヨシ,0
348,2040003023199,新規,0,2023-08-25,2023-08-25,ＨＭ市川塩焼合同会社,,合同会社,千葉県,市川市,塩焼５丁目１４－１５,,12,203,2720114,,,,,,,2023-08-25,1,,,,,エイチエムイチカワシオヤキ,0
355,2070001040755,新規,0,2023-08-25,2023-08-25,株式会社クロティア,,株式会社,群馬県,前橋市,千代田町２丁目２番１１号ＧＳレジデンス１階西,,10,201,3710022,,,,,,,2023-08-25,1,,,,,,0
371,2120001257567,新規,0,2023-08-25,2023-08-25,株式会社ＬＦＣ,,株式会社,大阪府,大阪市此花区,西九条２丁目１－３２－１１５,,27,104,5540012,,,,,,,2023-08-25,1,,,,,エルエフシー,0
372,2120001257591,新規,0,2023-08-25,2023-08-25,旭暉株式会社,,株式会社,大阪府,大阪市阿倍野区,阪南町１丁目４６番２２号グリーンハイツ５０３号室,,27,119,5450021,,,,,,,2023-08-25,1,,,,,キョクキ,0
373,2120001257625,新規,0,2023-08-25,2023-08-25,株式会社ＢＥＰＬＥＡ,,株式会社,大阪府,大阪市西区,新町２丁目１番２－８０４号,,27,106,5500013,,,,,,,2023-08-25,1,,,,,ビープリア,0
375,2120003024783,新規,0,2023-08-25,2023-08-25,合同会社ヒロ企画,,合同会社,大阪府,大阪市生野区,巽中３丁目１９番３号,00131661,27,116,5440013,,,,,,,2023-08-25,1,,,,,ヒロキカク,0
376,2120103005394,新規,0,2023-08-25,2023-08-25,合同会社松寿,,合同会社,大阪府,堺市中区,土師町２丁１番４７－１号,,27,142,5998238,,,,,,,2023-08-25,1,,,,,ショウジュ,0
383,2122001037313,新規,0,2023-08-25,2023-08-25,株式会社エス・ケイテック,,株式会社,大阪府,大東市,御領３丁目５番３０号,,27,218,5740064,,,,,,,2023-08-25,1,,,,,エスケイテック,0
396,2140001131340,新規,0,2023-08-25,2023-08-25,株式会社光運,,株式会社,兵庫県,姫路市,勝原区大谷７番地４プーロフォンターナＢ２０１,,28,201,6711205,,,,,,,2023-08-25,1,,,,,コウウン,0
400,2170001017743,新規,0,2023-08-25,2023-08-25,株式会社夢グループ,,株式会社,和歌山県,有田市,箕島５３６番地１０,,30,204,6490304,,,,,,,2023-08-25,1,,,,,ユメグループ,0
405,2180001157745,新規,0,2023-08-25,2023-08-25,株式会社ＡＮＤ　ＣＯＮＮＥＣＴＩＯＮ,,株式会社,愛知県,名古屋市中村区,大宮町１丁目６０番地,,23,105,4530821,,,,,,,2023-08-25,1,,,,,アンドコネクション,0
409,2180003025660,新規,0,2023-08-25,2023-08-25,合同会社１ｔｏ１Ｔｅｃｈｎｉｃａｌ,,合同会社,愛知県,稲沢市,平和町塩川２７５番地２,,23,220,4901323,,,,,,,2023-08-25,1,,,,,ワントゥーワンテクニカル,0
410,2180003025669,新規,0,2023-08-25,2023-08-25,ＭＩ合同会社,,合同会社,愛知県,瀬戸市,本郷町７４１番地１,,23,204,4890906,,,,,,,2023-08-25,1,,,,,エムアイ,0
413,2180301037738,新規,0,2023-08-25,2023-08-25,猫一番株式会社,,株式会社,愛知県,刈谷市,野田町西田３１番地１４,,23,210,4480803,,,,,,,2023-08-25,1,,,,,ネコイチバン,0
414,2180301037746,新規,0,2023-08-25,2023-08-25,株式会社ナッツアセットマネジメント,,株式会社,愛知県,新城市,字札木１８番地２,,23,221,4411367,,,,,,,2023-08-25,1,,,,,ナッツアセットマネジメント,0
416,2190001030686,新規,0,2023-08-25,2023-08-25,株式会社Ｓｔｏｎｅ　Ｐａｒｔｎｅｒｓ,,株式会社,三重県,北牟婁郡紀北町,東長島１１１６番地１,,24,543,5193204,,,,,,,2023-08-25,1,,,,,ストーンパートナーズ,0
418,2190003004424,新規,0,2023-08-25,2023-08-25,合同会社結家不動産,,合同会社,三重県,伊賀市,西明寺２７９８番地３,,24,216,5180809,,,,,,,2023-08-25,1,,,,,ムスビヤフドウサン,0
419,2220001025575,新規,0,2023-08-25,2023-08-25,株式会社まるひろ屋,,株式会社,石川県,金沢市,旭町３丁目１７番８号,,17,201,9200941,,,,,,,2023-08-25,1,,,,,マルヒロヤ,0
437,2290801029810,新規,0,2023-08-25,2023-08-25,株式会社ワイズトータル,,株式会社,福岡県,北九州市小倉北区,白銀１丁目１２番１６号,,40,106,8020074,,,,,,,2023-08-25,1,,,,,ワイズトータル,0
441,2310003004626,新規,0,2023-08-25,2023-08-25,合同会社ファーマーズワン,,合同会社,長崎県,五島市,武家屋敷３丁目１番地５号,,42,211,8530017,,,,,,,2023-08-25,1,,,,,,0
444,2330001031190,新規,0,2023-08-25,2023-08-25,株式会社リプロアセット,,株式会社,熊本県,熊本市東区,若葉２丁目１５番４号,,43,102,8620903,,,,,,,2023-08-25,1,,,,,リプロアセット,0
445,2330003009945,新規,0,2023-08-25,2023-08-25,合同会社かまくら,,合同会社,熊本県,菊池郡大津町,大字室１９４番地６,,43,403,8691235,,,,,,,2023-08-25,1,,,,,カマクラ,0
446,2340005009645,新規,0,2023-08-25,2023-08-25,特定非営利活動法人あさひ,,その他の設立登記法人,鹿児島県,鹿児島市,谷山中央５丁目３２番１０号,,46,201,8910141,,,,,,,2023-08-25,1,,,,,アサヒ,0
453,2380003005551,新規,0,2023-08-25,2023-08-25,合同会社ＬＩＮＫ建設,,合同会社,福島県,郡山市,田村町岩作字駒形１３番地の５,,07,203,9631154,,,,,,,2023-08-25,1,,,,,,0
466,2480001012192,新規,0,2023-08-25,2023-08-25,株式会社Ｔ＆Ｓ,,株式会社,徳島県,阿南市,宝田町今市東ヤシキ２０番地,,36,204,7740045,,,,,,,2023-08-25,1,,,,,ティアンドエス,0
469,2700150114816,新規,0,2023-08-25,2023-08-25,Ｌｖｊｕｍａｏ　Ｃｕｌｔｕｒｅ　Ｃｏｍｍｕｎｉｃａｔｉｏｎ　Ｃｏ．，Ｌｔｄ,,外国会社等,,,,,,,,ＰＩＮＧＳＨＡＮ　ＳＴＲＥＥＴ，ＬＩＵＬＩＡＮ　ＣＯＭＭＵＮＩＴＹ　ＣＨＵＡＮＧＸＩＮ　ＳＱＵＡＲＥ　Ｃ１５２６　ＳＨＥＮＺＨＥＮ　ＰＩＮＧＳＨＡＮ　ＧＵＡＮＧＤＯＮＧ　５１８０００　ＣＮ,,,,,,2023-08-25,1,,,,,シェンヂェンシージュマオウェンファチュァンブォヨウシィェンゴンスー,0
470,2700150117892,新規,0,2023-08-25,2023-08-25,Ｗｅｉｊｉ　Ｇｕｏｊｉ　Ｍａｏｙｉ（Ｃｈａｎｇｚｈｏｕ）Ｙｏｕｘｉａｎ　Ｚｅｒｅｎ　Ｇｏｎｇｓｉ,,外国会社等,,,,,,,,Ｒｏｏｍ　２０５，Ｂｕｉｌｄｉｎｇ　４，Ｎｏ．３２３，Ｌａｏｄｏｎｇ　Ｗｅｓｔ　Ｒｏａｄ　Ｚｈｏｎｇｌｏｕ　Ｄｉｓｔｒｉｃｔ　Ｃｈａｎｇｚｈｏｕ　Ｃｉｔｙ　Ｊｉａｎｇｓｕ　Ｓｈｅｎｇ　２１３０００ＣＮ,,,,,,2023-08-25,1,,,,,ウェイジーグオジマオイーチャンジョウヨウシェンズァレンゴンスー,0
471,2700150119278,新規,0,2023-08-25,2023-08-25,Ｂｌａｃｋｓｐａｃｅ　Ｔｅｃｈ　Ｌｔｄ．,,外国会社等,,,,,,,,Ｒｏｏｍ６０６７，Ｆｌｏｏｒ６，Ｂｕｉｌｄｉｎｇ２，Ｙｏｎｇｘｉｎ　Ｔｉｍｅｓ　Ｓｑｕａｒｅ，Ｉｎｔｅｒｓｅｃｔｉｏｎ　ｏｆ　Ｄｏｎｇｂｉｎ　Ｒｏａｄ　ａｎｄ　Ｎａｎｇｕａｎｇ　Ｒｏａｄ，Ｄｅｎｇｌｉａｎｇ　Ｃｏｍｍｕｎｉｔｙ，Ｎａｎｓｈａｎ　Ｓｔｒｅｅｔ　Ｎａｎｓｈａｎ　Ｄｉｓｔｒｉｃｔ，Ｓｈｅｎｚｈｅｎ，ＧｕａｎｇＤｏｎｇ　５１８０００ＣＮ,,,,,,2023-08-25,1,,,,,ヘイコンジーシュトウズーシェンヂェンヨウシィェンゴンスー,0
472,2700150119286,新規,0,2023-08-25,2023-08-25,ＳＨＥＮＺＨＥＮ　ＴＯＭＩＬＥ　ＦＵＲＮＩＴＵＲＥ　ＣＯＭＰＡＮＹ　ＬＴＤ,,外国会社等,,,,,,,,６０８，Ｂｕｉｌｄｉｎｇ　Ａ１，Ｎｏ．１，Ｒｏａｄ１，Ｘｉａｗｅｉ　Ｉｎｄｕｓｔｒｉａｌ　Ｚｏｎｅ，ｚｈａｎｇｋｅｎｇｊｉｎ，ｌｏｎｇｈｕａ，Ｓｈｅｎｚｈｅｎ　Ｇｕａｎｇｄｏｎｇ　５１８１１０　ＣＮ,,,,,,2023-08-25,1,,,,,シェンジェンシトゥオミーライジャアジュイヨウシェンゴンスー,0
473,2700150119311,新規,0,2023-08-25,2023-08-25,ＮａｎｙａｎｇｓｈｉＹｉｎｇＬｉＹｉｎｇＤｉａｎＺｈｉＪｉａＸｉｎＮｅｎｇＹｕａｎＹｏｕＸｉａｎ,,外国会社等,,,,,,,,ｎａｎ　ｙａｎｇ　ｓｈｉ　ｗａｎ　ｃｈｅｎｇ　ｑｕ　ｌｉ　ｈｅ　ｗｕ　ｌｉｕ　ｙｕａｎ　Ｃ１　ｑｕ　５２０８－５２０９　Ｈｅｎａｎｓｈｅｎｇ　４７３０００　ＣＮ,,,,,,2023-08-25,1,,,,,ナンヤンシインリーインデイエンジージヤアシンノンユエンヨウシエンゴンス,0
474,2700150119328,新規,0,2023-08-25,2023-08-25,Ｊｕｎ　Ｒｏｎｇ　Ｆｅｎｇ　Ｈｕａ　Ｔｒａｄｅ　Ｃｏ．，Ｌｔｄ．,,外国会社等,,,,,,,,３８０１，ＴｏｗｅｒＢ，Ｂｕｉｌｄｉｎｇ２，Ｊｉｎｄｉ　Ｋａｉ　Ｘｕａｎ　Ｇｕａｎｇ　Ｃｈａｎｇ，Ｎｏ．３１　Ｌｏｎｇｃｈｅｎｇ　Ａｖｅｎｕｅ，Ｎａｎｌｉａｎ　Ｃｏｍｍｕｎｉｔｙ，Ｌｏｎｇｇａｎｇ　ｓｔｒｅｅｔ，Ｓｈｅｎｚｈｅｎ　Ｇｕａｎｇｄｏｎｇ　Ｃｈｉｎａ　５１８０００,,,,,,2023-08-25,1,,,,,ジユンロンフオンホアトレードカンパニーリミテツド,0
484,3010001237975,新規,0,2023-08-25,2023-08-25,Ｄｉｇｉｔａｌ　Ｅｘｐｅｒｔｓ株式会社,,株式会社,東京都,千代田区,大手町１丁目４番２号,,13,101,1000004,,,,,,,2023-08-25,1,,,,,デジタルエキスパーツ,0
486,3010003041500,新規,0,2023-08-25,2023-08-25,Ｈｏｕｓｅ　ｏｆ　Ｏｗｌｓ合同会社,,合同会社,東京都,中央区,日本橋兜町１７番１号日本橋ロイヤルプラザ７０６,,13,102,1030026,,,,,,,2023-08-25,1,,,,,ハウスオブアウルズ,0
487,3010005037042,新規,0,2023-08-25,2023-08-25,一般社団法人おはなし千一夜,,その他の設立登記法人,東京都,文京区,千駄木３丁目３７番１７－１１０１号,,13,105,1130022,,,,,,,2023-08-25,1,,,,,オハナシセンイチヤ,0
488,3010005037158,新規,0,2023-08-25,2023-08-25,一般財団法人聖徳學院,,その他の設立登記法人,東京都,文京区,白山５丁目７番１４号,,13,105,1120001,,,,,,,2023-08-25,1,,,,,セイトクガクイン,0
494,3010401176609,新規,0,2023-08-25,2023-08-25,ナラ・カシハラ１株式会社,,株式会社,東京都,港区,西新橋１丁目２番９号メンターキャピタル税理士法人内,,13,103,1050003,,,,,,,2023-08-25,1,,,,,ナラカシハラワン,0
495,3010401176617,新規,0,2023-08-25,2023-08-25,サガ・カラツ１株式会社,,株式会社,東京都,港区,西新橋１丁目２番９号メンターキャピタル税理士法人内,,13,103,1050003,,,,,,,2023-08-25,1,,,,,サガカラツワン,0
496,3010401176625,新規,0,2023-08-25,2023-08-25,オキナワ・ザンパ１株式会社,,株式会社,東京都,港区,西新橋１丁目２番９号メンターキャピタル税理士法人内,,13,103,1050003,,,,,,,2023-08-25,1,,,,,オキナワザンパワン,0
497,3010401176740,新規,0,2023-08-25,2023-08-25,株式会社ＩＣＨＩＴＡＳＳ,,株式会社,東京都,港区,港南２丁目１７－１京王品川ビル２Ｆ,,13,103,1080075,,,,,,,2023-08-25,1,,,,,イチタス,0
498,3010401176757,新規,0,2023-08-25,2023-08-25,株式会社栄一,,株式会社,東京都,港区,北青山１丁目３番１号,,13,103,1070061,,,,,,,2023-08-25,1,,,,,エイイチ,0
500,3010501050936,新規,0,2023-08-25,2023-08-25,株式会社ＡＯＴ,,株式会社,東京都,台東区,駒形２丁目１番５号ＭＯＯＮＰＬＡＣＥ,,13,106,1110043,,,,,,,2023-08-25,1,,,,,エーオーティー,0
501,3010603010326,新規,0,2023-08-25,2023-08-25,合同会社Ｉｍａｇｉｎａｔｉｏｎ　Ｓｔｕｄｉｏ,,合同会社,東京都,墨田区,文花１丁目１８－１３,,13,107,1310044,,,,,,,2023-08-25,1,,,,,イマジネーションスタジオ,0
502,3010605004235,新規,0,2023-08-25,2023-08-25,一般社団法人ＥＮＩＳＨＩ,,その他の設立登記法人,東京都,江東区,佐賀１丁目１０番１５－１００４号,,13,108,1350031,,,,,,,2023-08-25,1,,,,,エニシ,0
511,3011001156546,新規,0,2023-08-25,2023-08-25,株式会社Ｕｐｃｙｃｌｅ　Ｅｎｅｒｇｙ,,株式会社,東京都,渋谷区,恵比寿４丁目２０番３号恵比寿ガーデンプレイスタワー１８階,,13,113,1500013,,,,,,,2023-08-25,1,,,,,アップサイクルエナジー,0
512,3011001156554,新規,0,2023-08-25,2023-08-25,株式会社森,,株式会社,東京都,目黒区,平町２丁目１０番５号,,13,110,1520032,,,,,,,2023-08-25,1,,,,,モリ,0
513,3011001156579,新規,0,2023-08-25,2023-08-25,株式会社ダブルエイチ,,株式会社,東京都,渋谷区,渋谷２丁目６番１２号ベルデ青山ビル６階,,13,113,1500002,,,,,,,2023-08-25,1,,,,,ダブルエイチ,0
514,3011001156595,新規,0,2023-08-25,2023-08-25,株式会社Ｃａｆｋａｈ,,株式会社,東京都,渋谷区,神宮前６丁目２３番４号桑野ビル２階,,13,113,1500001,,,,,,,2023-08-25,1,,,,,カフカ,0
518,3011101104140,新規,0,2023-08-25,2023-08-25,株式会社ランドブリッジ,,株式会社,東京都,新宿区,西新宿３丁目３番１３号西新宿水間ビル２Ｆ,,13,104,1600023,,,,,,,2023-08-25,1,,,,,ランドブリッジ,0
520,3011105010756,新規,0,2023-08-25,2023-08-25,一般社団法人ＴＵ１７,,その他の設立登記法人,東京都,新宿区,四谷２丁目９番地１５東京ユナイテッド綜合事務所内,,13,104,1600004,,,,,,,2023-08-25,1,,,,,ティーユージュウナナ,0
522,3011301028957,新規,0,2023-08-25,2023-08-25,ＣＬＥＡＲ　ＩＮＮＯＶＡＴＩＯＮ株式会社,,株式会社,東京都,杉並区,松庵２丁目１５番１７号,,13,115,1670054,,,,,,,2023-08-25,1,,,,,クリアイノベーション,0
524,3011401025400,新規,0,2023-08-25,2023-08-25,株式会社ラフテル,,株式会社,東京都,板橋区,成増２丁目１９番２号ＥＨ第７ビル２Ｆ,,13,119,1750094,,,,,,,2023-08-25,1,,,,,ラフテル,0
527,3011801042945,新規,0,2023-08-25,2023-08-25,豊和メタル株式会社,,株式会社,東京都,葛飾区,水元２丁目２２－１４－１０１,,13,122,1250032,,,,,,,2023-08-25,1,,,,,ホウワメタル,0
528,3011803005801,新規,0,2023-08-25,2023-08-25,Ｎａｒｋｉｄ　ＩＴ　Ｃｏｎｓｕｌｔａｎｃｙ合同会社,,合同会社,東京都,足立区,鹿浜７丁目１１番６－１０５号,,13,121,1230864,,,,,,,2023-08-25,1,,,,,ナーキッドアイティーコンサルタンシー,0
529,3011805003290,新規,0,2023-08-25,2023-08-25,一般社団法人安全社会基盤研究センター,,その他の設立登記法人,東京都,足立区,千住１丁目４番１号東京芸術センター１０階,,13,121,1200034,,,,,,,2023-08-25,1,,,,,アンゼンシャカイキバンケンキュウセンター,0
533,3013301051261,新規,0,2023-08-25,2023-08-25,株式会社ＴＥＳＴ,,株式会社,東京都,豊島区,南池袋１丁目９番１８号,,13,116,1710022,,,,,,,2023-08-25,1,,,,,テスト,0
539,3020001153123,新規,0,2023-08-25,2023-08-25,株式会社ＳｈｉｎｙＡ,,株式会社,神奈川県,横浜市西区,北幸１丁目１１番１号水信ビル７階,,14,103,2200004,,,,,,,2023-08-25,1,,,,,シャイニーエー,0
540,3020001153131,新規,0,2023-08-25,2023-08-25,株式会社ＦＡＲＣ　ＭＡＮＡＧＥＭＥＮＴ,,株式会社,神奈川県,横浜市中区,山下町７８－８横浜イーストゲートビルＢ１,,14,104,2310023,,,,,,,2023-08-25,1,,,,,ファークマネージメント,0
541,3020001153148,新規,0,2023-08-25,2023-08-25,スペースＮＳプラン株式会社,,株式会社,神奈川県,横浜市緑区,北八朔町１６５３番地１０,,14,113,2260021,,,,,,,2023-08-25,1,,,,,スペースエヌエスプラン,0
542,3020001153156,新規,0,2023-08-25,2023-08-25,株式会社ＦＡＩＴＨ,,株式会社,神奈川県,川崎市川崎区,大島５丁目３０－２,,14,131,2100834,,,,,,,2023-08-25,1,,,,,フェイス,0
543,3020001153172,新規,0,2023-08-25,2023-08-25,株式会社ＣｕｒｉｏＣｏｍｍ,,株式会社,神奈川県,川崎市中原区,今井仲町１８番４６号,,14,133,2110065,,,,,,,2023-08-25,1,,,,,キュリオコム,0
544,3020001153189,新規,0,2023-08-25,2023-08-25,株式会社ＺＥＲＯＯＮＥＦＩＬＭ,,株式会社,神奈川県,横浜市港北区,高田西１丁目１６－４２,,14,109,2230066,,,,,,,2023-08-25,1,,,,,ゼロワンフィルム,0
548,3020003024438,新規,0,2023-08-25,2023-08-25,合同会社シーエーティー,,合同会社,神奈川県,横浜市鶴見区,本町通４丁目１７０番地１三恵鶴見ハイツ１０２,,14,101,2300048,,,,,,,2023-08-25,1,,,,,シーエーティー,0
550,3021001080019,新規,0,2023-08-25,2023-08-25,株式会社田丸仮設,,株式会社,神奈川県,大和市,柳橋５丁目１１番地１,,14,213,2420022,,,,,,,2023-08-25,1,,,,,タマルカセツ,0
551,3021003013505,新規,0,2023-08-25,2023-08-25,Ｇｏｌｄｅｎ　Ｗｉｎｇｓ合同会社,,合同会社,神奈川県,鎌倉市,台４丁目１１番１６号,,14,204,2470061,,,,,,,2023-08-25,1,,,,,ゴールデンウィングス,0
557,3030001155374,新規,0,2023-08-25,2023-08-25,株式会社山崎地所,00131656,株式会社,埼玉県,さいたま市緑区,大字三室４９３番地,,11,109,3360911,,,,,,,2023-08-25,1,,,,,ヤマザキジショ,0
558,3030001155382,新規,0,2023-08-25,2023-08-25,株式会社ＱＯＯＬＳ,,株式会社,埼玉県,さいたま市西区,大字指扇７８３番地１０,,11,101,3310047,,,,,,,2023-08-25,1,,,,,クールズ,0
559,3030001155416,新規,0,2023-08-25,2023-08-25,株式会社Ｏ．Ｄ．Ｋ,,株式会社,埼玉県,川越市,大字的場１１９６番地９,,11,201,3501101,,,,,,,2023-08-25,1,,,,,オーディーケー,0
560,3030001155432,新規,0,2023-08-25,2023-08-25,株式会社荻原板金工業,,株式会社,埼玉県,本庄市,千代田４丁目３番３３号,,11,211,3670054,,,,,,,2023-08-25,1,,,,,オギワラバンキンコウギョウ,0
565,3030003022424,新規,0,2023-08-25,2023-08-25,合同会社アルファ,,合同会社,埼玉県,草加市,西町７５１番地２アンシャンテ草加３０２号,,11,221,3400035,,,,,,,2023-08-25,1,,,,,アルファ,0
570,3040001129815,新規,0,2023-08-25,2023-08-25,株式会社あゆみのきのこ,,株式会社,千葉県,佐倉市,上志津１６５６番地５５第３三藤ビル３０４号室,,12,212,2850846,,,,,,,2023-08-25,1,,,,,アユミノキノコ,0
571,3040001129831,新規,0,2023-08-25,2023-08-25,３ＭＲＰ株式会社,,株式会社,千葉県,南房総市,白子２０４７番地１,,12,234,2992521,,,,,,,2023-08-25,1,,,,,スリーエムアールピー,0
574,3040003023173,新規,0,2023-08-25,2023-08-25,ＬＩＦＩＸ合同会社,,合同会社,千葉県,柏市,十余二４番地１０２,,12,217,2770872,,,,,,,2023-08-25,1,,,,,リフィックス,0
579,3050003007745,新規,0,2023-08-25,2023-08-25,合同会社ひまわり,,合同会社,茨城県,取手市,井野台４丁目２０－６－１０１,,08,217,3020015,,,,,,,2023-08-25,1,,,,,ヒマワリ,0
602,3120001257616,新規,0,2023-08-25,2023-08-25,株式会社リノビルダー,,株式会社,大阪府,大阪市住吉区,万代東２丁目３番１１号,,27,120,5580056,,,,,,,2023-08-25,1,,,,,リノビルダー,0
603,3120001257640,新規,0,2023-08-25,2023-08-25,ＫｉｎｄＣｒｅａｔｉｏｎ株式会社,,株式会社,大阪府,寝屋川市,小路北町８－２４,,27,215,5720865,,,,,,,2023-08-25,1,,,,,カインドクリエイション,0
605,3120003024725,新規,0,2023-08-25,2023-08-25,合同会社ＣｒｅｓｔＣｈｏｒｄ,,合同会社,大阪府,大阪市浪速区,戎本町１丁目４番６号シロミズビル３０６号室,,27,111,5560013,,,,,,,2023-08-25,1,,,,,クレストコード,0
606,3120003024766,新規,0,2023-08-25,2023-08-25,合同会社みらいの,,合同会社,大阪府,大阪市北区,梅田１丁目２番２号大阪駅前第２ビル１２－１２,,27,127,5300001,,,,,,,2023-08-25,1,,,,,ミライノ,0
607,3120003024782,新規,0,2023-08-25,2023-08-25,合同会社ｓｈｏｕＴｐｕＴ,,合同会社,大阪府,大阪市北区,梅田１丁目２番２号大阪駅前第２ビル１２‐１２,,27,127,5300001,,,,,,,2023-08-25,1,,,,,シャウトプット,0
609,3120101068104,新規,0,2023-08-25,2023-08-25,株式会社ＴＮＫ,,株式会社,大阪府,堺市堺区,寺地町東２丁１番１４号,,27,141,5900962,,,,,,,2023-08-25,1,,,,,ティーエヌケー,0
615,3122001037312,新規,0,2023-08-25,2023-08-25,株式会社Ｒｅ．Ａｃｔ,,株式会社,大阪府,四條畷市,北出町１７番２９号,,27,229,5750043,,,,,,,2023-08-25,1,,,,,リアクト,0
620,3130001075034,新規,0,2023-08-25,2023-08-25,株式会社Ｂｏｎｄ,,株式会社,京都府,城陽市,久世里ノ西２０番地の７１,,26,207,6100102,,,,,,,2023-08-25,1,,,,,ボンド,0
623,3140001131364,新規,0,2023-08-25,2023-08-25,株式会社Ｂｗｉｔｈ,,株式会社,兵庫県,伊丹市,伊丹１丁目２番９号,,28,207,6640846,,,,,,,2023-08-25,1,,,,,ビーウィズ,0
634,3180003025668,新規,0,2023-08-25,2023-08-25,櫻花国際パートナーズ合同会社,,合同会社,愛知県,一宮市,貴船１丁目１番１９号,,23,203,4910037,,,,,,,2023-08-25,1,,,,,オウカコクサイパートナーズ,0
641,3200001041623,新規,0,2023-08-25,2023-08-25,株式会社エバーグリーン,,株式会社,岐阜県,中津川市,新町３番１２号,,21,206,5080038,,,,,,,2023-08-25,1,,,,,エバーグリーン,0
646,3240001031100,新規,0,2023-08-25,2023-08-25,瀬戸内海建設工業株式会社,,株式会社,広島県,福山市,御幸町大字中津原１７４７番地の１,,34,207,7200004,,,,,,,2023-08-25,1,,,,,,0
654,3280001009027,新規,0,2023-08-25,2023-08-25,株式会社ＨＡＭＡＭＵＲＡ,,株式会社,島根県,出雲市,大津町１４９７番地３,,32,203,6930011,,,,,,,2023-08-25,1,,,,,ハマムラ,0
673,3330001031181,新規,0,2023-08-25,2023-08-25,ラピスホーム株式会社,,株式会社,熊本県,熊本市中央区,出水５丁目１番３９号,,43,101,8620941,,,,,,,2023-08-25,1,,,,,ラピスホーム,0
683,3360003013233,新規,0,2023-08-25,2023-08-25,合同会社Ｐｌｕｓ,,合同会社,沖縄県,中頭郡中城村,字南上原１１６３,,47,328,9012424,,,,,,,2023-08-25,1,,,,,プラス,0
684,3360005006895,新規,0,2023-08-25,2023-08-25,特定非営利活動法人Ｃｉｎｅｍａ　ａｔ　Ｓｅａ,,その他の設立登記法人,沖縄県,那覇市,樋川２丁目１番３号開南ビル４階,,47,201,9000022,,,,,,,2023-08-25,1,,,,,シネマアットシー,0
692,3390001017357,新規,0,2023-08-25,2023-08-25,株式会社矢口,,株式会社,山形県,新庄市,大字鳥越字栗田６０６番地の１８,,06,205,9960041,,,,,,,2023-08-25,1,,,,,ヤグチ,0
697,3430001089838,新規,0,2023-08-25,2023-08-25,株式会社ファームブルーフィールド,,株式会社,北海道,白老郡白老町,字社台３７０番地１,,01,578,0590901,,,,,,,2023-08-25,1,,,,,ファームブルーフィールド,0
707,3700150114749,新規,0,2023-08-25,2023-08-25,Ｓｈｅｎｚｈｅｎ　Ｊｉｎｄｅ　Ｔｒａｄｉｎｇ　Ｃｏ．，Ｌｔｄ,,外国会社等,,,,,,,,６０４，Ｎｏ．３，Ｔｈｉｒｄ　Ｌａｎｅ，Ｈｕａｄａ　Ｖｉｌｌａｇｅ，Ｘｉｎｈｅ　Ｃｏｍｍｕｎｉｔｙ，Ｆｕｈａｉ　Ｓｔｒｅｅｔ，Ｂａｏ’ａｎ　Ｄｉｓｔｒｉｃｔ,,,,,,2023-08-25,1,,,,,シェンヂェンシージンデェアシャンマオヨウシィェンゴンスー,0
708,3700150117891,新規,0,2023-08-25,2023-08-25,ＤＵＯＨＥＧＵ　ＩＮＴＥＲＮＡＴＩＯＮＡＬ　ＴＲＡＤＩＮＧ　ＣＯ．，ＬＩＭＩＴＥＤ,,外国会社等,,,,,,,,ＲＭ　５０２Ｃ，５／Ｆ，ＨＯ　ＫＩＮＧ　ＣＯＭＭ　ＣＴＲ　２－１６　ＦＡ　ＹＵＥＮ　ＳＴ　ＭＯＮＧＫＯＫ　Ｋｏｗｌｏｏｎ　Ｈｏｎｇ　Ｋｏｎｇ　９９９０７７ＨＫ,,,,,,2023-08-25,1,,,,,ドゥオホグゥグオジマオイーヨウシェンゴンスー,0
709,3700150119277,新規,0,2023-08-25,2023-08-25,ｄｏｎｇｇｕａｎｓｈｉｙａｎｇｑｉａｎｙｕａｎｄｉａｎｚｉｋｅｊｉｙｏｕｘｉａｎｇｏｎｇｓｉ,,外国会社等,,,,,,,,ｄｏｎｇｃｈｅｎｇｊｉｅｄａｏｔｏｎｇｓｈａｓｈｅｑｕｄｏｎｇｃｈｅｎｇｋｅｊｉｇｏｎｇｙｅｙｕａｎｄｏｎｇｋｅｌｕ１ｈａｏｚｏｎｇｓｈｉｊｉｄｉ６ｄｏｎｇ２ｌｏｕ２０６ｓｈｉｊｉｑｕ００００４２ｈａｏｄｏｎｇｇｕａｎｓｈｅｎｚｈｅｎ５２３０００ＣＮ,,,,,,2023-08-25,1,,,,,ドンワンシヤンチェンユエンディエンズカージヨウシエンゴンス,0
710,3700150119285,新規,0,2023-08-25,2023-08-25,ｘｉａｍｅｎｋｕｗｕｌａｎｇｍａｏｙｉｙｏｕｘｉａｎｇｏｎｇｓｉ,,外国会社等,,,,,,,,ＢＩＮ　ＳＨＵＩ　ＺＨＯＮＧ　ＹＩ　ＬＩ　１０　ＨＡＯ　８０２　ＳＨＩ　ＺＨＩ　ＪＩＵ　ＸＩＡ　ＭＥＮ　ＳＨＩ　ＪＩ　ＭＥＩ　ＱＵ　ＦＵ　ＪＩＡＮ　ＳＨＥＮＧ　３６１０００ＣＮ,,,,,,2023-08-25,1,,,,,シャアメンクウーランマオイーヨウシェンゴンスー,0
711,3700150119310,新規,0,2023-08-25,2023-08-25,Ｓｈｅｎｇｚｈｅｎｓｈｉｒｕｉｓｉｍａｎｋｅｊｉｙｏｕｘｉａｎｇｏｎｇｓｉ,,外国会社等,,,,,,,,ｂａｏａｎｑｕ　ｆｕｈａｉｊｉｅｄａｏ　ｑｉａｏｔｏｕｓｈｅｑｕ　ｓｏｎｇｆｕｄａｄａｏｙｕｃｈｏｎｇｑｉｎｇｌｕｊｉａｏｈｕｌｃｈｕ　ｄｏｎｇｂｅｉｃｅ　ｊｕｎｆｅｎｇｄａｓｈａ７０８－Ｂ　ｓｈｅｎｚｈｅｎｓｈｉ　Ｇｕａｎｇｄｏｎｇｓｈｅｎｇ　５１８０００　ＣＮ,,,,,,2023-08-25,1,,,,,シエンジエンシルイスーマンカージヨウシエンゴンス,0
712,3700150119319,新規,0,2023-08-25,2023-08-25,Ｓｈｅｎｚｈｅｎ　Ｗｕｚｈｉｒｕｎ　Ｔｒａｄｅ　Ｃｏ．，Ｌｔｄ．,,外国会社等,,,,,,,,ｌｏｎｇｈｕａｘｉｎｑｕｍｉｎｚｈｉｊｉｅｄａｏｍｅｉｌｏｎｇｌｕ　ｘｉｎｇｈｅｓｈｅｎｇｓｈｉｈｕａｙｕａｎｙｉｑｉ１ｄｏｎｇＡ１ｚｕｏ１ｄａｎｙｕａｎ１２０１　ｓｈｅｎｚｈｅｎｓｈｉ　ｇｕａｎｇｄｏｎｇ　５１８０００　ＣＮ,,,,,,2023-08-25,1,,,,,シエンジエンウジールントレードカンパニーリミテツド,0
713,3700150119327,新規,0,2023-08-25,2023-08-25,Ｔａｉｚｈｏｕ　Ｍｉｓｔｅｒ　Ｓｈｏｃｋ　Ａｂｓｏｒｂｅｒ　Ｃｏ．，Ｌｉｍｉｔｅｄ,,外国会社等,,,,,,,,ＵＮＩＴ２５０８Ａ　２５／Ｆ　ＢＡＮＫ　ＯＦ　ＡＭＥＲＩＣＡ　ＴＯＷＥＲ１２　ＨＡＲＣＯＵＲＴ　ＲＯＡＤ　ＣＥＮＴＲＡＬ　ＨＫ,,,,,,2023-08-25,1,,,,,タイチヨウミスターシヨツクアブソーバーカンパニーリミテツド,0
714,3700150119335,新規,0,2023-08-25,2023-08-25,豊明間米南部土地区画整理組合,,その他,愛知県,豊明市,間米町廻渡７６７番地１,,23,229,4701132,,,,,,,2023-08-25,1,,,,,トヨアケマゴメナンブトチクカクセイリクミアイ,0
720,4010003041499,新規,0,2023-08-25,2023-08-25,ＩＧＵ　ＯＦＦＩＣＥ合同会社,,合同会社,東京都,千代田区,神田佐久間町２丁目１８番地１秋葉原ＳＴＮフロント１０階,,13,101,1010025,,,,,,,2023-08-25,1,,,,,イグオフィス,0
722,4010101015784,新規,0,2023-08-25,2023-08-25,株式会社アマテラス,,株式会社,東京都,八王子市,東浅川町１０３４番地ヴィラ・ハーベストムーン１Ｆ,,13,201,1930834,,,,,,,2023-08-25,1,,,,,アマテラス,0
727,4010401176616,新規,0,2023-08-25,2023-08-25,ヒョウゴ・ミナミアワジ１株式会社,,株式会社,東京都,港区,西新橋１丁目２番９号メンターキャピタル税理士法人内,,13,103,1050003,,,,,,,2023-08-25,1,,,,,ヒョウゴミナミアワジワン,0
728,4010401176624,新規,0,2023-08-25,2023-08-25,フクオカ・ムナカタ１株式会社,,株式会社,東京都,港区,西新橋１丁目２番９号メンターキャピタル税理士法人内,,13,103,1050003,,,,,,,2023-08-25,1,,,,,フクオカムナカタワン,0
729,4010401176789,新規,0,2023-08-25,2023-08-25,株式会社ＭＴＭ,,株式会社,東京都,港区,南青山１丁目１５番１号みいでらビル２階,,13,103,1070062,,,,,,,2023-08-25,1,,,,,エムティーエム,0
732,4010403030795,新規,0,2023-08-25,2023-08-25,合同会社Ｒレジデンス１号,,合同会社,東京都,港区,虎ノ門３丁目２２番１０－２０１号,,13,103,1050001,,,,,,,2023-08-25,1,,,,,アールレジデンスイチゴウ,0
737,4010701044753,新規,0,2023-08-25,2023-08-25,株式会社Ｃａｓｅｙ,,株式会社,東京都,品川区,上大崎４丁目５番３７号,,13,109,1410021,,,,,,,2023-08-25,1,,,,,ケーシー,0
741,4010703006834,新規,0,2023-08-25,2023-08-25,ｉｋｏｎｏ合同会社,,合同会社,東京都,品川区,東大井３丁目１１番１８－３０４号,,13,109,1400011,,,,,,,2023-08-25,1,,,,,イコノ,0
742,4010705003532,新規,0,2023-08-25,2023-08-25,一般社団法人中和産業,,その他の設立登記法人,東京都,品川区,上大崎３丁目１番１号目黒セントラルスクエア１５階,,13,109,1410021,,,,,,,2023-08-25,1,,,,,チュウワサンギョウ,0
755,4011001156553,新規,0,2023-08-25,2023-08-25,カフネ株式会社,,株式会社,東京都,渋谷区,代官山町８番７号,,13,113,1500034,,,,,,,2023-08-25,1,,,,,カフネ,0
756,4011001156578,新規,0,2023-08-25,2023-08-25,Ｂｒｉｄｇｅ‐Ｔｒａｖｅｌｓ株式会社,,株式会社,東京都,渋谷区,広尾１丁目１－２２－２０６,,13,113,1500012,,,,,,,2023-08-25,1,,,,,ブリッジトラベルズ,0
757,4011001156594,新規,0,2023-08-25,2023-08-25,株式会社ライラック,,株式会社,東京都,渋谷区,広尾４丁目１番１２－１１０６号,,13,113,1500012,,,,,,,2023-08-25,1,,,,,ライラック,0
761,4011101104115,新規,0,2023-08-25,2023-08-25,株式会社プラスハンズ,,株式会社,東京都,新宿区,市谷仲之町４番３０,,13,104,1620064,,,,,,,2023-08-25,1,,,,,プラスハンズ,0
762,4011101104123,新規,0,2023-08-25,2023-08-25,株式会社ＳａｋｉＸ,,株式会社,東京都,新宿区,西落合４丁目２１番５－１０２号Ｃｌａｒｉｓｓｅ西落合,,13,104,1610031,,,,,,,2023-08-25,1,,,,,サキガケ,0
763,4011101104131,新規,0,2023-08-25,2023-08-25,Ｒｏｙａｌ　Ｓｔｒａｉｇｈｔ　Ｆｌｕｓｈ株式会社,,株式会社,東京都,新宿区,高田馬場４丁目２８－２０ＩＫビル４Ｆ,,13,104,1690075,,,,,,,2023-08-25,1,,,,,ロイヤルストレートフラッシュ,0
766,4011105010755,新規,0,2023-08-25,2023-08-25,一般社団法人ＴＵ１６,,その他の設立登記法人,東京都,新宿区,四谷２丁目９番地１５東京ユナイテッド綜合事務所内,,13,104,1600004,,,,,,,2023-08-25,1,,,,,ティーユージュウロク,0
769,4011201024873,新規,0,2023-08-25,2023-08-25,株式会社トリア,,株式会社,東京都,中野区,野方３丁目１番１０号,,13,114,1650027,,,,,,,2023-08-25,1,,,,,トリア,0
772,4011203004155,新規,0,2023-08-25,2023-08-25,合同会社ｅｎｎ,,合同会社,東京都,中野区,中野３丁目４６－１２－１００７,,13,114,1640001,,,,,,,2023-08-25,1,,,,,エン,0
773,4011301028956,新規,0,2023-08-25,2023-08-25,グローバルランドロード株式会社,,株式会社,東京都,杉並区,浜田山３丁目３５番１５号,,13,115,1680065,,,,,,,2023-08-25,1,,,,,グローバルランドロード,0
779,4012401040859,新規,0,2023-08-25,2023-08-25,株式会社ＨＲ　ｄｏｃｋ,,株式会社,東京都,府中市,押立町４丁目１７番地４０,,13,206,1830012,,,,,,,2023-08-25,1,,,,,エイチアールドック,0
790,4020001153171,新規,0,2023-08-25,2023-08-25,株式会社シエルロジスティック,,株式会社,神奈川県,横浜市鶴見区,矢向５丁目４番３１号,,14,101,2300001,,,,,,,2023-08-25,1,,,,,シエルロジスティック,0
791,4020001153196,新規,0,2023-08-25,2023-08-25,株式会社れん根ケアサービス,,株式会社,神奈川県,横浜市緑区,東本郷２丁目２番４号,,14,113,2260002,,,,,,,2023-08-25,1,,,,,レンコンケアサービス,0
796,4020003024453,新規,0,2023-08-25,2023-08-25,合同会社ＧＬＯＢＡＬ,,合同会社,神奈川県,横浜市戸塚区,俣野町１４０３－２０－３０９,,14,110,2450066,,,,,,,2023-08-25,1,,,,,グローバル,0
797,4020003024461,新規,0,2023-08-25,2023-08-25,合同会社Ｓｅｃｏｎｄ,,合同会社,神奈川県,横浜市港北区,新羽町３３８番地プラネスーペリア北新横浜７０３号,,14,109,2230057,,,,,,,2023-08-25,1,,,,,セカンド,0
802,4030001155398,新規,0,2023-08-25,2023-08-25,株式会社エムファースト,,株式会社,埼玉県,秩父市,大宮５８０９番地,,11,207,3680023,,,,,,,2023-08-25,1,,,,,エムファースト,0
803,4030001155431,新規,0,2023-08-25,2023-08-25,株式会社アクアマリン,,株式会社,埼玉県,八潮市,大字西袋１０８２番地,,11,234,3400833,,,,,,,2023-08-25,1,,,,,アクアマリン,0
805,4030003022381,新規,0,2023-08-25,2023-08-25,正合合同会社,,合同会社,埼玉県,川口市,中青木３丁目９－２青木町ハイツ３０３,,11,203,3320032,,,,,,,2023-08-25,1,,,,,セイゴウ,0
808,4040001129814,新規,0,2023-08-25,2023-08-25,株式会社菊誠,,株式会社,千葉県,茂原市,長清水１３８番地,,12,210,2970038,,,,,,,2023-08-25,1,,,,,キクセイ,0
809,4040001129822,新規,0,2023-08-25,2023-08-25,ＧＴＣ株式会社,,株式会社,千葉県,松戸市,小山５０１－６－３０３,,12,207,2710093,,,,,,,2023-08-25,1,,,,,ジーティーシー,0
813,4040003023189,新規,0,2023-08-25,2023-08-25,合同会社ＴＨ　Ｔｒａｄｉｎｇ,,合同会社,千葉県,富里市,七栄２４３番地１３,,12,233,2860221,,,,,,,2023-08-25,1,,,,,ティーエイチトレーディング,0
814,4050001053344,新規,0,2023-08-25,2023-08-25,Ｋｏｓｏｎｅ　Ｍｏｔｏｒｓ株式会社,,株式会社,茨城県,行方市,芹沢５７４番地８,,08,233,3113501,,,,,,,2023-08-25,1,,,,,コソネモータース,0
820,4080401026681,新規,0,2023-08-25,2023-08-25,株式会社ＴＫワークス,,株式会社,静岡県,浜松市浜北区,中瀬３４３３番地,,22,136,4340012,,,,,,,2023-08-25,1,,,,,ティケイワークス,0
833,4120001257490,新規,0,2023-08-25,2023-08-25,ＲＥＴＲＩＮ株式会社,,株式会社,大阪府,大阪市旭区,高殿２丁目１８－１３－１０１０,,27,117,5350031,,,,,,,2023-08-25,1,,,,,リトライン,0
834,4120001257557,新規,0,2023-08-25,2023-08-25,株式会社翔栄,,株式会社,大阪府,大阪市大正区,南恩加島２丁目１１番２０号,,27,108,5510021,,,,,,,2023-08-25,1,,,,,ショウエイ,0
835,4120001257615,新規,0,2023-08-25,2023-08-25,株式会社そこね屋,,株式会社,大阪府,大阪市淀川区,三津屋北２丁目１３番４号,,27,123,5320032,,,,,,,2023-08-25,1,,,,,ソコネヤ,0
836,4120001257623,新規,0,2023-08-25,2023-08-25,追光株式会社,,株式会社,大阪府,大阪市西淀川区,佃２丁目１番３１号２０１号室,,27,113,5550001,,,,,,,2023-08-25,1,,,,,ツイコウ,0
840,4120003024781,新規,0,2023-08-25,2023-08-25,合同会社ストレイドッグス,,合同会社,大阪府,大阪市北区,梅田１丁目２番２号大阪駅前第２ビル１２－１２,,27,127,5300001,,,,,,,2023-08-25,1,,,,,ストレイドッグス,0
850,4122001037311,新規,0,2023-08-25,2023-08-25,株式会社Ｋ２ＪＡＰＡＮ,,株式会社,大阪府,八尾市,服部川１丁目４３番,,27,212,5810865,,,,,,,2023-08-25,1,,,,,ケイツージャパン,0
853,4130001075025,新規,0,2023-08-25,2023-08-25,株式会社アサガオ,,株式会社,京都府,京都市西京区,大原野灰方町４１番地５,,26,111,6101132,,,,,,,2023-08-25,1,,,,,アサガオ,0
854,4130001075041,新規,0,2023-08-25,2023-08-25,ダブルスチール株式会社,,株式会社,京都府,向日市,寺戸町殿長２２番地フロイデ東向日１０５号室,,26,208,6170002,,,,,,,2023-08-25,1,,,,,ダブルスチール,0
858,4140001131363,新規,0,2023-08-25,2023-08-25,株式会社ＤＡＣＣＨＩ,,株式会社,兵庫県,神戸市中央区,南本町通２丁目２番４号ＨＡＴ・ＢＵＩＬＤＩＮＧ・３Ｆ,,28,110,6510074,,,,,,,2023-08-25,1,,,,,ダッチ,0
862,4140003019474,新規,0,2023-08-25,2023-08-25,合同会社ＫＳＣ,,合同会社,兵庫県,西宮市,伏原町１番７５－４,,28,204,6638031,,,,,,,2023-08-25,1,,,,,ケイエスシー,0
867,4180001157743,新規,0,2023-08-25,2023-08-25,株式会社カエルワーク,,株式会社,愛知県,一宮市,浅野字大西東１０番地,,23,203,4910871,,,,,,,2023-08-25,1,,,,,カエルワーク,0
868,4180001157776,新規,0,2023-08-25,2023-08-25,Ｍｔ．Ｖａｌｌｅｙ株式会社,,株式会社,愛知県,愛知郡東郷町,大字諸輪字狐坂１２番地６バンベール和合弐番館４０３号,,23,302,4700151,,,,,,,2023-08-25,1,,,,,マウントバレー,0
872,4180003025659,新規,0,2023-08-25,2023-08-25,合同会社ＵＴＡ,,合同会社,愛知県,名古屋市中村区,名駅４丁目２４番５号第２森ビル４０１,,23,105,4500002,,,,,,,2023-08-25,1,,,,,ユーティーエー,0
873,4180003025667,新規,0,2023-08-25,2023-08-25,合同会社ＥＣＶＥＬ,,合同会社,愛知県,長久手市,岩作中権代５７番地２ジーオー長久手マンション５０２号,,23,238,4801103,,,,,,,2023-08-25,1,,,,,エクベル,0
875,4180301037736,新規,0,2023-08-25,2023-08-25,株式会社パクター,,株式会社,愛知県,豊田市,御幸本町１丁目１７３番地,,23,211,4730901,,,,,,,2023-08-25,1,,,,,パクター,0
876,4180301037744,新規,0,2023-08-25,2023-08-25,株式会社ｂｅ　ｃｏｎｎｅｃｔ,,株式会社,愛知県,西尾市,菱池町新田２０番地,,23,213,4450874,,,,,,,2023-08-25,1,,,,,ビーコネクト,0
878,4200001041630,新規,0,2023-08-25,2023-08-25,株式会社とんとん,,株式会社,岐阜県,岐阜市,橋本町２丁目１２番地６,,21,201,5008856,,,,,,,2023-08-25,1,,,,,トントン,0
880,4200005013519,新規,0,2023-08-25,2023-08-25,一般財団法人ひだ財団,,その他の設立登記法人,岐阜県,高山市,岡本町１丁目９９番地,,21,203,5060054,,,,,,,2023-08-25,1,,,,,ヒダザイダン,0
886,4240001062037,新規,0,2023-08-25,2023-08-25,株式会社ねこめぐり,,株式会社,広島県,広島市安佐南区,大町西３丁目１１番４５－４号,,34,105,7310125,,,,,,,2023-08-25,1,,,,,ネコメグリ,0
898,4290003014270,新規,0,2023-08-25,2023-08-25,合同会社コアフィールド,,合同会社,福岡県,福岡市博多区,博多駅南３丁目１３番２９－１２０５号,,40,132,8120016,,,,,,,2023-08-25,1,,,,,コアフィールド,0
899,4290801029809,新規,0,2023-08-25,2023-08-25,株式会社みすず会計,,株式会社,福岡県,北九州市小倉南区,湯川新町１丁目５番４８号（２０１号室）,,40,107,8000256,,,,,,,2023-08-25,1,,,,,ミスズカイケイ,0
906,4360001032457,新規,0,2023-08-25,2023-08-25,ＨＡＰＰＹ　ＯＫＩＮＡＷＡ　ＭＡＮＡＧＥＭＥＮＴ株式会社,,株式会社,沖縄県,名護市,字済井出１０６３番地２２,,47,209,9051635,,,,,,,2023-08-25,1,,,,,ハッピーオキナワマネジメント,0
908,4360003013216,新規,0,2023-08-25,2023-08-25,合同会社桃原工業,,合同会社,沖縄県,那覇市,壺屋２丁目９－２４藤マンション４階４Ａ,,47,201,9020065,,,,,,,2023-08-25,1,,,,,トウバルコウギョウ,0
909,4360003013232,新規,0,2023-08-25,2023-08-25,合同会社本永創建工業,,合同会社,沖縄県,宮古島市,城辺字福里１１０１番地,,47,214,9060103,,,,,,,2023-08-25,1,,,,,モトナガソウケンコウギョウ,0
910,4360003013240,新規,0,2023-08-25,2023-08-25,合同会社ｋｉｋｏｒｉ,,合同会社,沖縄県,沖縄市,比屋根４丁目９番１３号３０１,,47,211,9042173,,,,,,,2023-08-25,1,,,,,キコリ,0
928,4430001089853,新規,0,2023-08-25,2023-08-25,株式会社Ｓａｃｈｉ,,株式会社,北海道,札幌市中央区,宮の森一条３丁目１番１８－１０１号,,01,101,0640951,,,,,,,2023-08-25,1,,,,,サチ,0
932,4430005014766,新規,0,2023-08-25,2023-08-25,一般社団法人藤秀会,,その他の設立登記法人,北海道,札幌市南区,藤野三条１丁目２番１号はまなすビル２階,,01,106,0612283,,,,,,,2023-08-25,1,,,,,トウシュウカイ,0
939,4500005008637,新規,0,2023-08-25,2023-08-25,ポレスター神拝アクアステージ管理組合法人,,その他の設立登記法人,愛媛県,西条市,神拝甲５３３番地１,,38,206,7930041,,,,,,,2023-08-25,1,,,,,ポレスターカンバイアクアステージ,0
940,4700150119276,新規,0,2023-08-25,2023-08-25,ＳｈｅｎｚｈｅｎＬｕｏｌａｎｄｉｋｅｔｏｎｇＫｅｊｉｙｏｕｘｉａｎｇｏｎｇｓｉ,,外国会社等,,,,,,,,ｌｏｎｇｇａｎｇｑｕｐｉｎｇｈｕｊｉｅｄａｏｋｅｙｕａｎｘｉｌｕ１００ｈａｏ２ｄｏｎｇ５ｌｏｕ５０２ｓｈｅｎｚｈｅｎｇｕａｎｇｄｏｎｇ５１８０００ＣＮ,,,,,,2023-08-25,1,,,,,シェンジェンルオランディカトンカージヨウシエンゴンス,0
941,4700150119284,新規,0,2023-08-25,2023-08-25,ＳｈｅｎＺｈｅｎ　ＹｏｕＨｏｎｇ　Ｅｌｅｃｔｒｏｎｉｃ　Ｃｏ．Ｌ．ｔ．ｄ,,外国会社等,,,,,,,,１０２０，Ｂｕｉｌｄｉｎｇ　３，Ｈｕａｎａｎ　Ｘｉｙｕａｎ　Ｐｈａｓｅ　１　Ｐｉｎｇｘｉｎ　Ｎｏｒｔｈ　Ｒｏａｄ，Ｈｅｈｕａ　Ｃｏｍｍｕｎｉｔｙ　Ｌｏｎｇｇａｎｇ　Ｄｉｓｔｒｉｃｔ，ＳｈｅｎＺｈｅｎ　Ｃｉｔｙ　Ｇｕａｎｇｄｏｎｇ　Ｐｒｏｖｉｎｃｅ，５１８１１１ＣＮ,,,,,,2023-08-25,1,,,,,シェンジェンシヨウホンディエンズーヨウシェンゴンスー,0
942,4700150119301,新規,0,2023-08-25,2023-08-25,吉田土地改良区,,その他,群馬県,富岡市,富岡１４６０－１,,10,210,3702316,,,,,,,2023-08-25,1,,,,,ヨシダトチカイリヨウク,0
943,4700150119318,新規,0,2023-08-25,2023-08-25,ＳＨＥＮ　ＺＨＥＮ　ＳＨＩＸＩＡＮ　ＤＩＡＮ　ＺＩ　ＹＯＵ　ＸＩＡＮ　ＺＥ　ＲＥＮ　ＧＯＮＧ　ＳＩ,,外国会社等,,,,,,,,ＢＡＯＡＮ　ＳＯＮＧＧＡＮＧ　ＪＩＥＤＡＯ　ＨＵＡＭＥＩ　１　ＬＵ　ＨＵＡＭＥＩ　ＤＡＳＨＡ　８１５　ＳＨＥＮＺＨＥＮ　５１８１０５　ＣＮ,,,,,,2023-08-25,1,,,,,シエンジエンシシシエンデイエンズーヨウシエンズアレンゴンス,0
944,4700150119326,新規,0,2023-08-25,2023-08-25,Ｈａｎｇｚｈｏｕ　Ｌｕｍｉｙａ　Ｔｅｃｈｎｏｌｏｇｙ　Ｃｏ．，Ｌｔｄ．,,外国会社等,,,,,,,,Ｒｏｏｍ　４０３－５，Ｂｕｉｌｄｉｎｇ　９，Ｙｕｎｋｏｎｇｃｈｅｎｇｆｅｎｇｚｈｉｚｈｕ，Ｗｕｃｈａｎｇ　Ｓｔｒ．，Ｙｕｈａｎｇ　ＤｉｓｔｒｉｃｔＨａｎｇｚｈｏｕＺｈｅｊｉａｎｇ　３１００２３　ＣＮ,,,,,,2023-08-25,1,,,,,ハンジヨウルーミーヤテクノロジーカンパニーリミテツド,0
951,5010001237916,新規,0,2023-08-25,2023-08-25,株式会社なでし子,,株式会社,東京都,中央区,銀座７丁目１５番８号タウンハイツ銀座４０６,,13,102,1040061,,,,,,,2023-08-25,1,,,,,ナデシコ,0
952,5010001237932,新規,0,2023-08-25,2023-08-25,株式会社Ｍ＆Ｌ　Ｌｏｏｐ,,株式会社,東京都,中央区,日本橋蛎殻町１丁目１４番７号,,13,102,1030014,,,,,,,2023-08-25,1,,,,,エムアンドエルループ,0
953,5010001237957,新規,0,2023-08-25,2023-08-25,ミャオチェック株式会社,,株式会社,東京都,中央区,新川１丁目３－２１ＢＩＺＳＭＡＲＴ茅場町３階,,13,102,1040033,,,,,,,2023-08-25,1,,,,,ミャオチェック,0
957,5010003041424,新規,0,2023-08-25,2023-08-25,合同会社ＦＥＤＬＩＣ　ＴＯＫＹＯ,,合同会社,東京都,千代田区,外神田６丁目６－２シュロス神田五軒町９０１,,13,101,1010021,,,,,,,2023-08-25,1,,,,,フェドリックトーキョー,0
958,5010101015783,新規,0,2023-08-25,2023-08-25,Ｃｏｎｎｅｃｔ　Ｓｅｒｖｉｃｅ株式会社,,株式会社,東京都,八王子市,大谷町２７７番地９,,13,201,1920034,,,,,,,2023-08-25,1,,,,,コネクトサービス,0
965,5010401176607,新規,0,2023-08-25,2023-08-25,フクシマ・ウラバンダイ１株式会社,,株式会社,東京都,港区,西新橋１丁目２番９号メンターキャピタル税理士法人内,,13,103,1050003,,,,,,,2023-08-25,1,,,,,フクシマウラバンダイワン,0
966,5010401176615,新規,0,2023-08-25,2023-08-25,ワカヤマ・クシモト１株式会社,,株式会社,東京都,港区,西新橋１丁目２番９号メンターキャピタル税理士法人内,,13,103,1050003,,,,,,,2023-08-25,1,,,,,ワカヤマクシモトワン,0
967,5010401176623,新規,0,2023-08-25,2023-08-25,コウチ・トサ１株式会社,,株式会社,東京都,港区,西新橋１丁目２番９号メンターキャピタル税理士法人内,,13,103,1050003,,,,,,,2023-08-25,1,,,,,コウチトサワン,0
968,5010401176747,新規,0,2023-08-25,2023-08-25,株式会社マサプランニング,,株式会社,東京都,港区,南青山６丁目１３番４号,,13,103,1070062,,,,,,,2023-08-25,1,,,,,マサプランニング,0
970,5010403030794,新規,0,2023-08-25,2023-08-25,合同会社ＯＮＴＡＩ　ＡＳＳＥＴ　ＭＡＮＡＧＥＭＥＮＴ,,合同会社,東京都,港区,西麻布３丁目１番１１号,,13,103,1060031,,,,,,,2023-08-25,1,,,,,オンタイアセットマネジメント,0
985,5010701044744,新規,0,2023-08-25,2023-08-25,株式会社ストライプ,,株式会社,東京都,品川区,西五反田２丁目１１番１１号ヒルトップ五反田ハイツ３０２号,,13,109,1410031,,,,,,,2023-08-25,1,,,,,ストライプ,0
992,5011001156610,新規,0,2023-08-25,2023-08-25,株式会社Ｌｉｎｃｏｌｎ,,株式会社,東京都,渋谷区,道玄坂１丁目１０番８号渋谷道玄坂東急ビル２Ｆ－Ｃ,,13,113,1500043,,,,,,,2023-08-25,1,,,,,リンカーン,0
994,5011003017158,新規,0,2023-08-25,2023-08-25,ＺＯＮＯ合同会社,,合同会社,東京都,目黒区,大橋２丁目１０－１２コーポミナミ３０３,,13,110,1530044,,,,,,,2023-08-25,1,,,,,ゾノ,0
997,5011101104114,新規,0,2023-08-25,2023-08-25,株式会社ＳＹＮＴＨＥＳＩＳ,,株式会社,東京都,新宿区,西新宿３丁目３番１３号西新宿水間ビル６階,,13,104,1600023,,,,,,,2023-08-25,1,,,,,シンセシス,0
1000,5011201024872,新規,0,2023-08-25,2023-08-25,株式会社蒋碧央,,株式会社,東京都,中野区,東中野４丁目４番５－８１２号,,13,114,1640003,,,,,,,2023-08-25,1,,,,,ショウミオ,0
1002,5011401025398,新規,0,2023-08-25,2023-08-25,ＯＮＤＯ株式会社,,株式会社,東京都,板橋区,舟渡２丁目２４番９号,,13,119,1740041,,,,,,,2023-08-25,1,,,,,オンド,0
1004,5011603004035,新規,0,2023-08-25,2023-08-25,Ｌａｎｉｋａｉアセットマネジメント合同会社,,合同会社,東京都,練馬区,小竹町２丁目３０番７号,,13,120,1760004,,,,,,,2023-08-25,1,,,,,ラニカイアセットマネジメント,0
1010,5011801042943,新規,0,2023-08-25,2023-08-25,株式会社イーグル・エンパワーズ,,株式会社,東京都,足立区,千住仲町４１番地１号－５階,,13,121,1200036,,,,,,,2023-08-25,1,,,,,イーグルエンパワーズ,0
1012,5012401040916,新規,0,2023-08-25,2023-08-25,サーパス株式会社,,株式会社,東京都,調布市,小島町３丁目４２番地９グリーンガーデンＩ－１０１,00131658,13,208,1820026,,,,,,,2023-08-25,1,,,,,サーパス,0
1017,5012405004891,新規,0,2023-08-25,2023-08-25,特定非営利活動法人ＢＯＲＤＥＲ　ＦＲＥＥ,,その他の設立登記法人,東京都,多摩市,鶴牧３丁目２番地ブリリア多摩センター１４１６,,13,224,2060034,,,,,,,2023-08-25,1,,,,,ボーダーフリー,0
1026,5013303006773,新規,0,2023-08-25,2023-08-25,合同会社エイジング,,合同会社,東京都,豊島区,北大塚１丁目３４番１９号,,13,116,1700004,,,,,,,2023-08-25,1,,,,,エイジング,0
1030,5020001153170,新規,0,2023-08-25,2023-08-25,株式会社弓義エージェンシー,,株式会社,神奈川県,横浜市西区,みなとみらい４丁目４－２・横浜ブルーアベニュー１２階,,14,103,2200012,,,,,,,2023-08-25,1,,,,,,0
1031,5020001153187,新規,0,2023-08-25,2023-08-25,株式会社ピュット,,株式会社,神奈川県,川崎市宮前区,宮崎１４３番９,,14,136,2160033,,,,,,,2023-08-25,1,,,,,ピュット,0
1034,5020003024460,新規,0,2023-08-25,2023-08-25,ＫＳｗｏｒｋｓ合同会社,,合同会社,神奈川県,川崎市麻生区,白鳥４丁目４番４１号,,14,137,2150024,,,,,,,2023-08-25,1,,,,,ケーエスワークス,0
1035,5020003024469,新規,0,2023-08-25,2023-08-25,Ｓｔｙｌｅ　Ｅｌｅｍｅｎｔｓ合同会社,,合同会社,神奈川県,川崎市幸区,中幸町３丁目２６番地２４クレッセント川崎タワー３４０８,,14,132,2120012,,,,,,,2023-08-25,1,,,,,スタイルエレメンツ,0
1038,5021001080017,新規,0,2023-08-25,2023-08-25,株式会社ＢＯＳＣＯ　ＬＩＢＲＯ,,株式会社,神奈川県,茅ヶ崎市,本村４丁目１８番１６－２０３号,,14,207,2530042,,,,,,,2023-08-25,1,,,,,ボスコリブロ,0
1040,5021003013503,新規,0,2023-08-25,2023-08-25,合同会社ｖｉｖｉ,,合同会社,神奈川県,中郡大磯町,国府新宿３０２－２５,,14,341,2590112,,,,,,,2023-08-25,1,,,,,ビビ,0
1042,5030001155348,新規,0,2023-08-25,2023-08-25,株式会社ワイエムズコーポレーション,,株式会社,埼玉県,さいたま市浦和区,仲町１丁目２－２浦和湯銭ビル２階,,11,107,3300062,,,,,,,2023-08-25,1,,,,,ワイエムズコーポレーション,0
1043,5030001155406,新規,0,2023-08-25,2023-08-25,株式会社アバランチ,,株式会社,埼玉県,志木市,幸町２丁目４番３６－３０１号,,11,228,3530005,,,,,,,2023-08-25,1,,,,,アバランチ,0
1044,5030001155430,新規,0,2023-08-25,2023-08-25,翔和美装株式会社,,株式会社,埼玉県,越谷市,蒲生３丁目４番４０号,,11,222,3430838,,,,,,,2023-08-25,1,,,,,ショウワビソウ,0
1045,5030001155686,新規,0,2023-08-25,2023-08-25,はなよりい株式会社,,株式会社,埼玉県,大里郡寄居町,大字西ノ入１３９７番地,,11,408,3691225,,,,,,,2023-08-25,1,,,,,ハナヨリイ,0
1048,5030003022364,新規,0,2023-08-25,2023-08-25,椿合同会社,,合同会社,埼玉県,川口市,並木３丁目２９番８－１０８号サマレジデンス,,11,203,3320034,,,,,,,2023-08-25,1,,,,,ツバキ,0
1052,5040001129796,新規,0,2023-08-25,2023-08-25,株式会社ＧＬＯ美肌健康研究所,,株式会社,千葉県,松戸市,幸田５丁目３７番地の６,,12,207,2700001,,,,,,,2023-08-25,1,,,,,ジーエルオービハダケンコウケンキュウジョ,0
1053,5040001129813,新規,0,2023-08-25,2023-08-25,株式会社くるクル車買取,,株式会社,千葉県,浦安市,猫実２丁目３１番１２号,,12,227,2790004,,,,,,,2023-08-25,1,,,,,クルクルクルマカイトリ,0
1054,5040001129821,新規,0,2023-08-25,2023-08-25,株式会社コンフォートランディング,,株式会社,千葉県,山武郡九十九里町,粟生１９９６番地２,,12,403,2830105,,,,,,,2023-08-25,1,,,,,コンフォートランディング,0
1056,5040003023188,新規,0,2023-08-25,2023-08-25,合同会社ＵＧｏＫｅ,,合同会社,千葉県,柏市,中央町５番２２号ＬＩＢＬＩＳＳ柏中央３０１号,,12,217,2770021,,,,,,,2023-08-25,1,,,,,ウゴケ,0
1059,5050001053343,新規,0,2023-08-25,2023-08-25,江崎株式会社,,株式会社,茨城県,牛久市,南１丁目３番地２,,08,219,3001222,,,,,,,2023-08-25,1,,,,,エザキ,0
1062,5050003007751,新規,0,2023-08-25,2023-08-25,合同会社小國総業,,合同会社,茨城県,ひたちなか市,大字高場１９３１－５２,,08,221,3120062,,,,,,,2023-08-25,1,,,,,オグニソウギョウ,0
1065,5080001025819,新規,0,2023-08-25,2023-08-25,株式会社碧の空コンサルティング,,株式会社,静岡県,静岡市葵区,鷹匠３丁目１８番５号,,22,101,4200839,,,,,,,2023-08-25,1,,,,,アオノソラコンサルティング,0
1068,5100001036722,新規,0,2023-08-25,2023-08-25,株式会社グローバルシステムズ,,株式会社,長野県,長野市,稲里町中央１丁目６番１号,,20,201,3812217,,,,,,,2023-08-25,1,,,,,グローバルシステムズ,0
1086,5120001257168,新規,0,2023-08-25,2023-08-25,株式会社クリーンアップ,,株式会社,大阪府,大阪市東住吉区,矢田２丁目１７番７号,,27,121,5460023,,,,,,,2023-08-25,1,,,,,クリーンアップ,0
1087,5120001257614,新規,0,2023-08-25,2023-08-25,すみれマーケティング株式会社,,株式会社,大阪府,大阪市淀川区,木川東４丁目１１番１－９１４号,,27,123,5320012,,,,,,,2023-08-25,1,,,,,スミレマーケティング,0
1088,5120001257622,新規,0,2023-08-25,2023-08-25,株式会社ＢＩＣ,,株式会社,大阪府,大阪市天王寺区,大道５丁目６番８号,,27,109,5430052,,,,,,,2023-08-25,1,,,,,ビーアイシー,0
1089,5120001257639,新規,0,2023-08-25,2023-08-25,株式会社ＣａｒｐｅＤｉｅｍ,,株式会社,大阪府,大阪市浪速区,敷津西２丁目５番７－８０９,,27,111,5560015,,,,,,,2023-08-25,1,,,,,カルペディエム,0
1095,5120003024764,新規,0,2023-08-25,2023-08-25,ＴＵＡＮ　ＡＮＨ合同会社,,合同会社,大阪府,大阪市生野区,新今里３丁目２番１２号サンプラザ今里Ｖ番館２０６号室,00131664,27,116,5440001,,,,,,,2023-08-25,1,,,,,トアンアイン,0
1099,5120903004799,新規,0,2023-08-25,2023-08-25,合同会社ダイレクト,,合同会社,大阪府,吹田市,佐竹台１丁目５番ＯＰＨ千里佐竹台１棟７０１号,,27,205,5650855,,,,,,,2023-08-25,1,,,,,ダイレクト,0
1106,5130001075032,新規,0,2023-08-25,2023-08-25,株式会社キョウトブリック,,株式会社,京都府,京都市北区,衣笠北天神森町２４－１,,26,101,6038376,,,,,,,2023-08-25,1,,,,,キョウトブリック,0
1110,5130003008915,新規,0,2023-08-25,2023-08-25,合同会社クラフトワーク,,合同会社,京都府,京都市右京区,梅津南広町４７番地１デリード＆サンヴェール桂川東１００２号,,26,108,6150901,,,,,,,2023-08-25,1,,,,,クラフトワーク,0
1116,5140003019457,新規,0,2023-08-25,2023-08-25,合同会社高田屋,00131655,合同会社,兵庫県,神戸市須磨区,潮見台町１丁目２－３－１階,,28,107,6540075,,,,,,,2023-08-25,1,,,,,タカタヤ,0
1119,5170001011669,新規,0,2023-08-25,2023-08-25,株式会社丸濱組,,株式会社,和歌山県,東牟婁郡那智勝浦町,大字北浜３丁目２番地,,30,421,6495333,,,,,,,2023-08-25,1,,,,,マルハマグミ,0
1120,5170001017749,新規,0,2023-08-25,2023-08-25,株式会社ＭＡＲＵＷＡ,,株式会社,和歌山県,和歌山市,植松丁２５番地,,30,201,6408298,,,,,,,2023-08-25,1,,,,,マルワ,0
1124,5180001157750,新規,0,2023-08-25,2023-08-25,株式会社福田創夢,,株式会社,愛知県,知多郡武豊町,字平海道１番地８７,,23,447,4702507,,,,,,,2023-08-25,1,,,,,フクダソウム,0
1125,5180001157767,新規,0,2023-08-25,2023-08-25,株式会社ｓｈａｋｅ　ｈａｎｄｓ　ｆａｃｔｏｒｙ,,株式会社,愛知県,名古屋市中村区,太閤３丁目７番６５号,,23,105,4530801,,,,,,,2023-08-25,1,,,,,シェイクハンズファクトリー,0
1131,5180003025658,新規,0,2023-08-25,2023-08-25,合同会社さとうメディカルサポート,,合同会社,愛知県,名古屋市瑞穂区,桜見町２丁目１６番地ガーデンクルセ桜見館１Ｆ,,23,108,4670805,,,,,,,2023-08-25,1,,,,,サトウメディカルサポート,0
1144,5250003003334,新規,0,2023-08-25,2023-08-25,合同会社Ａ‐ＳＴＹＬＥ,,合同会社,山口県,周南市,大字原２２６番地の８,,35,215,7450621,,,,,,,2023-08-25,1,,,,,エースタイル,0
1149,5280003001756,新規,0,2023-08-25,2023-08-25,ササヤレコナーサ合同会社,,合同会社,島根県,鹿足郡津和野町,後田ロ６０－１８,,32,501,6995605,,,,,,,2023-08-25,1,,,,,ササヤレコナーサ,0
1155,5290001102778,新規,0,2023-08-25,2023-08-25,株式会社ウェルネス・コライフ,,株式会社,福岡県,福岡市博多区,下川端町１番３号,,40,132,8120027,,,,,,,2023-08-25,1,,,,,ウェルネスコライフ,0
1162,5290005019119,新規,0,2023-08-25,2023-08-25,農事組合法人グリーングライダー,,その他の設立登記法人,福岡県,筑紫野市,上古賀３丁目２番１６号,,40,217,8180041,,,,,,,2023-08-25,1,,,,,グリーングライダー,0
1163,5310001018575,新規,0,2023-08-25,2023-08-25,株式会社ＨＡＲＥＲＵＹＡ,,株式会社,長崎県,長崎市,大黒町１０番１０号ＫＯＫＯＲＯビル６１２５号室,,42,201,8500057,,,,,,,2023-08-25,1,,,,,,0
1167,5320005010098,新規,0,2023-08-25,2023-08-25,一般社団法人レッツゴーおおいた,,その他の設立登記法人,大分県,大分市,府内町３丁目８番１１号,,44,201,8700021,,,,,,,2023-08-25,1,,,,,レッツゴーオオイタ,0
1168,5330001031188,新規,0,2023-08-25,2023-08-25,株式会社侑幸,,株式会社,熊本県,熊本市南区,田井島３丁目５番４１号,,43,104,8620965,,,,,,,2023-08-25,1,,,,,ユウコウ,0
1172,5340003004224,新規,0,2023-08-25,2023-08-25,Ｍアセットマネジメント合同会社,,合同会社,鹿児島県,鹿児島市,宇宿４丁目２５番１１号,,46,201,8900073,,,,,,,2023-08-25,1,,,,,エムアセットマネジメント,0
1187,5410001013582,新規,0,2023-08-25,2023-08-25,株式会社保坂リフォーム,,株式会社,秋田県,秋田市,土崎港中央３丁目２番１８号,,05,201,0110946,,,,,,,2023-08-25,1,,,,,ホサカリフォーム,0
1192,5430001089844,新規,0,2023-08-25,2023-08-25,株式会社なんとかします,,株式会社,北海道,札幌市中央区,北五条西１１丁目１４番地,,01,101,0600005,,,,,,,2023-08-25,1,,,,,ナントカシマス,0
1193,5430005014757,新規,0,2023-08-25,2023-08-25,コスモレジデンス管理組合法人,,その他の設立登記法人,北海道,札幌市西区,琴似一条１丁目４番地１,,01,107,0630811,,,,,,,2023-08-25,1,,,,,コスモレジデンス,0
1194,5440005002760,新規,0,2023-08-25,2023-08-25,一般社団法人チャイルドチア道南,,その他の設立登記法人,北海道,函館市,梁川町６番１１－３０４号,,01,202,0400015,,,,,,,2023-08-25,1,,,,,チャイルドチアドウナン,0
1198,5460401001257,新規,0,2023-08-25,2023-08-25,株式会社根室水産,,株式会社,北海道,根室市,緑町３丁目４２番地,,01,223,0870051,,,,,,,2023-08-25,1,,,,,ネムロスイサン,0
1199,5470001019780,新規,0,2023-08-25,2023-08-25,株式会社あなぶきレジデンシャル流通,,株式会社,香川県,高松市,紺屋町３番地６,,37,201,7600027,,,,,,,2023-08-25,1,,,,,アナブキレジデンシャルリュウツウ,0
1206,5700150119275,新規,0,2023-08-25,2023-08-25,ｓｈｅｎｚｈｅｎ　ｘｉｅ　ｘｕｅ　ｂｉｎ　ｋｅ　ｊｉ　ｙｏｕ　ｘｉａｎ　ｇｏｎｇ　ｓｉ,,外国会社等,,,,,,,,ｓａｉｈｅｋｕａｊｉｎｇｄｉａｎｓｈａｎｇｃｈａｎｙｅｙｕａｎ　３ｄｏｎｇ１１１９ｈａｏ　ｌｏｎｇｇａｎｇｑｕ　ｂａｎｔｉａｎｊｉｅｄａｏ　ｂｕｌｏｎｇｌｕ　ｓｈｅｎｚｈｅｎ　ｇｕａｎｇｄｏｎｇ　５１８１００　ＣＮ,,,,,,2023-08-25,1,,,,,シェンジェンシエシュエビンカージヨウシェンゴンスー,0
1207,5700150119283,新規,0,2023-08-25,2023-08-25,ｘｕｃｈａｎｇｍｉｎｇｄｏｎｇｓｈａｎｇｍａｏｙｏｕｘｉａｎｇｏｎｇｓｉ,,外国会社等,,,,,,,,ｗａｎｔｏｎｇｑｉｍａｏｃｈｅｎｇ２ｈａｏｌｏｕ１０６　ｘｕｃｈａｎｇｓｈｉｗｅｉｄｕｑｕ　ｈｅｎａｎｓｈｅｎｇ　４６１０００ＣＮ,,,,,,2023-08-25,1,,,,,シュイチャンミンドンシャンマオヨウシェンゴンスー,0
1208,5700150119309,新規,0,2023-08-25,2023-08-25,Ｙｉｗｕ　Ｗａｎｓｉ　Ｅ－Ｂｕｓｉｎｅｓｓ　Ｃｏ．，Ｌｔｄ．,,外国会社等,,,,,,,,Ｔｕｏｇｕａｎ　６４　ＺＨＥＪＩＡＮＧＺＨＥＮＡＩＦＵＳＨＩＹＯＵＸＩＡＮＧＯＮＧＳＩ　Ｘｉｎｗｕ　Ｖｉｌｌａｇｅ，Ｗｕｚｈｏｕ　Ｂｏｕｌｅｖａｒｄ，Ｃｈｏｕｊｉａｎｇ　Ｓｕｂ－ｄｉｓ，ＹＩＷＵＳＨＩ　Ｚｈｅｊｉａｎｇｓｈｅｎｇ　３２２０９９　ＣＮ,,,,,,2023-08-25,1,,,,,イーウーワンスイービジネスカンパニーリミテツド,0
1209,5700150119317,新規,0,2023-08-25,2023-08-25,ｓｈｅｎｚｈｅｎｓｈｉｊｉｊｕｘｉｅｋｅｊｉｙｏｕｘｉａｎｇｏｎｇｓｉ,,外国会社等,,,,,,,,ｂａｏａｎ　ｓｈｉｙａｎｊｉｅｄａｏ　ｗａｉｍａｏｇｏｎｇｙｅｙｕａｎ　ｑｕｎｌｉｎｙｉｇｏｎｇｙｅｑｕ　Ｃ－３０２ｓｈｅｎｚｈｅｎ　ｇｕｎｇｄｏｎｇ　５１８０００　ＣＮ,,,,,,2023-08-25,1,,,,,シエンジエンシジジユイシエカージヨウシエンゴンス,0
1210,5700150119325,新規,0,2023-08-25,2023-08-25,Ｑｕａｎｚｈｏｕ　Ｓｈｕｇｅ　Ｅｌｅｃｔｒｏｎｉｃ　Ｃｏｍｍｅｒｃｅ　Ｃｏ．，Ｌｔｄ,,外国会社等,,,,,,,,４０５　１０　Ｂｕｉｌｄｉｎｇ，Ｂｉｓｈｕｉｗａｎ，Ｐｉｎｇｓｈａｎ　ＲｏａｄＱｕａｎｚｈｏｕ　Ｆｕｊｉａｎ　３６２０００　ＣＮ,,,,,,2023-08-25,1,,,,,チユエンジヨウシユウゴエレクトリツクコマースカンパニーリミテツド,0
1212,6010001237931,新規,0,2023-08-25,2023-08-25,株式会社プロステート,,株式会社,東京都,中央区,日本橋３丁目５番１２号ヒューリック八重洲ビル３Ｆ,,13,102,1030027,,,,,,,2023-08-25,1,,,,,プロステート,0
1213,6010001237989,新規,0,2023-08-25,2023-08-25,株式会社カプラス,,株式会社,東京都,中央区,日本橋小舟町８番１３号天翔日本橋ビル３階,,13,102,1030024,,,,,,,2023-08-25,1,,,,,カプラス,0
1214,6010005037171,新規,0,2023-08-25,2023-08-25,ＤＨＦ２一般社団法人,,その他の設立登記法人,東京都,千代田区,丸の内３丁目１番１号東京共同会計事務所内,,13,101,1000005,,,,,,,2023-08-25,1,,,,,ディーエイチエフツー,0
1220,6010401176606,新規,0,2023-08-25,2023-08-25,ミヤギ・ミヤギザオウ１株式会社,,株式会社,東京都,港区,西新橋１丁目２番９号メンターキャピタル税理士法人内,,13,103,1050003,,,,,,,2023-08-25,1,,,,,ミヤギミヤギザオウワン,0
1221,6010401176614,新規,0,2023-08-25,2023-08-25,キョウト・ミヤヅ１株式会社,,株式会社,東京都,港区,西新橋１丁目２番９号メンターキャピタル税理士法人内,,13,103,1050003,,,,,,,2023-08-25,1,,,,,キョウトミヤヅワン,0
1222,6010401176622,新規,0,2023-08-25,2023-08-25,トットリ・ダイセン１株式会社,,株式会社,東京都,港区,西新橋１丁目２番９号メンターキャピタル税理士法人内,,13,103,1050003,,,,,,,2023-08-25,1,,,,,トットリダイセンワン,0
1223,6010401176754,新規,0,2023-08-25,2023-08-25,株式会社Ｍａｒｉｅ．,,株式会社,東京都,港区,芝４丁目１６番２－３３０１号,,13,103,1080014,,,,,,,2023-08-25,1,,,,,マリー,0
1224,6010401176787,新規,0,2023-08-25,2023-08-25,アストリッド・ジャパン株式会社,,株式会社,東京都,港区,元麻布３丁目１番６号,,13,103,1060046,,,,,,,2023-08-25,1,,,,,アストリッドジャパン,0
1226,6010403030793,新規,0,2023-08-25,2023-08-25,合同会社杉本,,合同会社,東京都,港区,南青山２丁目２番１５号,,13,103,1070062,,,,,,,2023-08-25,1,,,,,スギモト,0
1227,6010403030802,新規,0,2023-08-25,2023-08-25,合同会社ペコラ,,合同会社,東京都,港区,浜松町２丁目２番１５号浜松町ダイヤビル２Ｆ,,13,103,1050013,,,,,,,2023-08-25,1,,,,,ペコラ,0
1235,6010803004653,新規,0,2023-08-25,2023-08-25,簗場不動産合同会社,,合同会社,東京都,大田区,大森西４丁目１８番１６－７０４号,,13,111,1430015,,,,,,,2023-08-25,1,,,,,ヤナバフドウサン,0
1244,6011101104121,新規,0,2023-08-25,2023-08-25,株式会社メディア,,株式会社,東京都,新宿区,西新宿３丁目３番１３号西新宿水間ビル２Ｆ,,13,104,1600023,,,,,,,2023-08-25,1,,,,,メディア,0
1245,6011103013411,新規,0,2023-08-25,2023-08-25,合同会社Ｔ企画,,合同会社,東京都,新宿区,新宿５丁目１１－１８ライオンズマンション６０５,,13,104,1600022,,,,,,,2023-08-25,1,,,,,ティーキカク,0
1247,6011301028954,新規,0,2023-08-25,2023-08-25,ＲＵＲＵ　ＲＥＳＵＮＧＡ株式会社,,株式会社,東京都,杉並区,阿佐谷南２丁目９番１６号門屋ハイツ,,13,115,1660004,,,,,,,2023-08-25,1,,,,,ルルレスンガ,0
1248,6011301028962,新規,0,2023-08-25,2023-08-25,株式会社エドガー,,株式会社,東京都,杉並区,成田東４丁目３番１－２１７号,,13,115,1660015,,,,,,,2023-08-25,1,,,,,エドガー,0
1249,6011401025397,新規,0,2023-08-25,2023-08-25,興華美株式会社,,株式会社,東京都,板橋区,板橋１丁目４８－８ダイアパレス新板橋１１０９号,,13,119,1730004,,,,,,,2023-08-25,1,,,,,コウカミ,0
1252,6011601027078,新規,0,2023-08-25,2023-08-25,栄光富士興業株式会社,,株式会社,東京都,練馬区,土支田４丁目４３－３,,13,120,1790076,,,,,,,2023-08-25,1,,,,,エイコウフジコウギョウ,0
1253,6011701026541,新規,0,2023-08-25,2023-08-25,わいしい株式会社,,株式会社,東京都,江戸川区,篠崎町７丁目５ー２１,,13,123,1330061,,,,,,,2023-08-25,1,,,,,ワイシイ,0
1257,6013301051267,新規,0,2023-08-25,2023-08-25,株式会社Ｃｌｉｍｂ　Ｈｉｇｈ,,株式会社,東京都,豊島区,要町２丁目３０番２号レジデンスネモト１０２号,,13,116,1710043,,,,,,,2023-08-25,1,,,,,クライムハイ,0
1269,6020001153161,新規,0,2023-08-25,2023-08-25,株式会社Ｅｎｅｄｉｏｌ,,株式会社,神奈川県,横浜市西区,高島２丁目１１番２号スカイメナー横浜５１９,,14,103,2200011,,,,,,,2023-08-25,1,,,,,エンジオール,0
1270,6020001153194,新規,0,2023-08-25,2023-08-25,ゴールデンレイアウトテクノロジージャパン株式会社,,株式会社,神奈川県,横浜市中区,山下町２番地産業貿易センタービル２階,,14,104,2310023,,,,,,,2023-08-25,1,,,,,ゴールデンレイアウトテクノロジージャパン,0
1282,6030001155371,新規,0,2023-08-25,2023-08-25,株式会社アバター,,株式会社,埼玉県,川口市,川口１丁目３－１－５０６号室,,11,203,3320015,,,,,,,2023-08-25,1,,,,,アバター,0
1292,6040001129820,新規,0,2023-08-25,2023-08-25,株式会社エスライン,,株式会社,千葉県,香取市,大倉２０５４番地１,,12,236,2870013,,,,,,,2023-08-25,1,,,,,エスライン,0
1296,6040003023170,新規,0,2023-08-25,2023-08-25,ＡＬＥＹＡ合同会社,,合同会社,千葉県,松戸市,松戸新田２４京葉流通センター２－１３Ａ,,12,207,2702241,,,,,,,2023-08-25,1,,,,,アレイヤ,0
1297,6040003023195,新規,0,2023-08-25,2023-08-25,合同会社ＯＡＴＨ,,合同会社,千葉県,浦安市,明海２丁目２番１－３１６号クオン新浦安Ａ棟,,12,227,2790014,,,,,,,2023-08-25,1,,,,,オース,0
1305,6080001025818,新規,0,2023-08-25,2023-08-25,佐野ホールディングス株式会社,,株式会社,静岡県,静岡市駿河区,中田１丁目１番２０号,,22,102,4228041,,,,,,,2023-08-25,1,,,,,サノホールディングス,0
1310,6100001036721,新規,0,2023-08-25,2023-08-25,株式会社ＳＡＰ　ＭＡＮＡＧＥＭＥＮＴ,,株式会社,長野県,長野市,大字長野東町１４２番地２ＳＨＩＮＫＯＪＩ北棟２階,,20,201,3800831,,,,,,,2023-08-25,1,,,,,サップマネジメント,0
1322,6120001257539,新規,0,2023-08-25,2023-08-25,喜多財株式会社,,株式会社,大阪府,大阪市天王寺区,空清町４番１１号杉野ビル本館１０５室,,27,109,5430018,,,,,,,2023-08-25,1,,,,,キタザイ,0
1323,6120001257563,新規,0,2023-08-25,2023-08-25,Ｅｍｅｒｇｉｎｇ　ｆｏｒｃｅ株式会社,,株式会社,大阪府,大阪市中央区,南船場２丁目１１番９－５０２号,,27,128,5420081,,,,,,,2023-08-25,1,,,,,エマージングフォース,0
1324,6120001257638,新規,0,2023-08-25,2023-08-25,株式会社Ｐｉｃｔｏｍｉｎａ,,株式会社,大阪府,大阪市北区,梅田１丁目１－３大阪駅前第３ビル２９階１－１－１号室,,27,127,5300001,,,,,,,2023-08-25,1,,,,,ピクトミナ,0
1330,6120003024730,新規,0,2023-08-25,2023-08-25,合同会社上杉,,合同会社,大阪府,門真市,月出町２４番９号,,27,223,5710052,,,,,,,2023-08-25,1,,,,,ウエスギ,0
1334,6120901047972,新規,0,2023-08-25,2023-08-25,株式会社ウレギフ,,株式会社,大阪府,高槻市,真上町２丁目１２番２５－５０６号,,27,207,5691121,,,,,,,2023-08-25,1,,,,,ウレギフ,0
1340,6130001075048,新規,0,2023-08-25,2023-08-25,株式会社京ファームゆい,,株式会社,京都府,亀岡市,千代川町湯井南筋４１番地,,26,206,6210045,,,,,,,2023-08-25,1,,,,,キョウファームユイ,0
1347,6170001017748,新規,0,2023-08-25,2023-08-25,株式会社正紀屋,,株式会社,和歌山県,西牟婁郡白浜町,１０６６番地の６,,30,401,6492211,,,,,,,2023-08-25,1,,,,,マサキヤ,0
1349,6180001157428,新規,0,2023-08-25,2023-08-25,株式会社アキコホールディングス,,株式会社,愛知県,名古屋市中区,新栄２丁目４２番２８号,,23,106,4600007,,,,,,,2023-08-25,1,,,,,アキコホールディングス,0
1350,6180001157741,新規,0,2023-08-25,2023-08-25,パーキング保証．ｃｏｍ株式会社,,株式会社,愛知県,名古屋市西区,名駅２丁目２７番８号,,23,104,4510045,,,,,,,2023-08-25,1,,,,,パーキングホショウドットコム,0
1351,6180001157766,新規,0,2023-08-25,2023-08-25,アイディーＨＤ株式会社,,株式会社,愛知県,名古屋市守山区,東禅寺１８０３番地,,23,113,4630019,,,,,,,2023-08-25,1,,,,,アイディーエイチディー,0
1355,6180003025665,新規,0,2023-08-25,2023-08-25,合同会社ＷＦＰＨ,,合同会社,愛知県,名古屋市中区,平和１丁目９番４号,,23,106,4600021,,,,,,,2023-08-25,1,,,,,ダブルエフピーエイチ,0
1364,6200001041629,新規,0,2023-08-25,2023-08-25,株式会社永吉,,株式会社,岐阜県,高山市,曙町２丁目６３番地１,,21,203,5060806,,,,,,,2023-08-25,1,,,,,エイキチ,0
1376,6240001062043,新規,0,2023-08-25,2023-08-25,株式会社ＴＯＫＩＨＡ,,株式会社,広島県,広島市中区,八丁堀５番２９号,,34,101,7300013,,,,,,,2023-08-25,1,,,,,,0
1378,6240003006270,新規,0,2023-08-25,2023-08-25,合同会社貞吉工務店,,合同会社,広島県,福山市,駅家町大字万能倉５８５番地５,,34,207,7201131,,,,,,,2023-08-25,1,,,,,サダヨシコウムテン,0
1381,6260005011267,新規,0,2023-08-25,2023-08-25,心和寺,,その他の設立登記法人,岡山県,倉敷市,中島２３５５番地１５６,,33,202,7100803,,,,,,,2023-08-25,1,,,,,シンナジ,0
1386,6290001102785,新規,0,2023-08-25,2023-08-25,株式会社ＭＭカンパニー,,株式会社,福岡県,福岡市東区,香住ヶ丘５丁目１７番１０号,,40,131,8130003,,,,,,,2023-08-25,1,,,,,エムエムカンパニー,0
1389,6290005019134,新規,0,2023-08-25,2023-08-25,特定非営利活動法人ＫＮＴエージェンシー,,その他の設立登記法人,福岡県,久留米市,津福本町１８３番地３,,40,203,8300047,,,,,,,2023-08-25,1,,,,,ケイエヌティエージェンシー,0
1394,6330001031195,新規,0,2023-08-25,2023-08-25,旗印株式会社,,株式会社,熊本県,熊本市東区,水源１丁目３番４－２号,,43,102,8620907,,,,,,,2023-08-25,1,,,,,ハタジルシ,0
1395,6330005010690,新規,0,2023-08-25,2023-08-25,一般社団法人ハピハピライフ,,その他の設立登記法人,熊本県,熊本市北区,植木町石川４７３番地,,43,105,8610124,,,,,,,2023-08-25,1,,,,,ハピハピライフ,0
1402,6360003013180,新規,0,2023-08-25,2023-08-25,合同会社ｗａｋｗａｋ,,合同会社,沖縄県,宮古島市,下地字川満８１番地２,,47,214,9060301,,,,,,,2023-08-25,1,,,,,ワクワク,0
1415,6430005014764,新規,0,2023-08-25,2023-08-25,特定非営利活動法人ペリネイタル・ロスサポートなごみ,,その他の設立登記法人,北海道,札幌市中央区,南一条西１６丁目１番地３２３春野ビル３Ｆ,,01,101,0600061,,,,,,,2023-08-25,1,,,,,ペリネイタルロスサポートナゴミ,0
1418,6460003000961,新規,0,2023-08-25,2023-08-25,合同会社大吉田森海産,,合同会社,北海道,釧路郡釧路町,鳥里７丁目１番地,,01,661,0882144,,,,,,,2023-08-25,1,,,,,ダイキチタモリカイサン,0
1423,6700150114746,新規,0,2023-08-25,2023-08-25,ｈｅｚｈｏｕｘｉａｎｇｓｈａｎｇｋｅｊｉｙｏｕｘｉａｎｇｏｎｇｓｉ,,外国会社等,,,,,,,,ｂａ　ｂｕ　ｑｕ　ｇｕａｎｇ　ｍｉｎｇ　ｓｈｅ　ｑｕ　ｊｉａｎ　ｓｈｅ　ｘｉ　ｌｕ　２４５　ｈａｏ　２０３　ｓｈｉ　Ｈｅ　ｚｈｏｕ　Ｇｕａｎｇ　ｘｉ　５４２８００　ＣＮ,,,,,,2023-08-25,1,,,,,フェアヂョウシィァンシャンクァアジーヨウシィェンゴンスー,0
1424,6700150119274,新規,0,2023-08-25,2023-08-25,ＳｈｅｎＺｈｅｎＳｈｉ　ＺｈｕｏＹｕｅＸｉａｎｇ　Ｔｅｃｈｎｏｌｏｇｙ　Ｃｏ．，Ｌｔｄ,,外国会社等,,,,,,,,６０８，６ｔｈ　Ｆｌｏｏｒ，Ｂｕｉｌｄｉｎｇ　Ｄ，Ｚｈｉｈｕｉ　Ｙｕｎｃａｎｇ　Ｂｕｉｌｄｉｎｇ　Ｓｈｕｉｔｉａｎ　１ｓｔ　Ｒｏａｄ，Ｌｏｎｇｇａｎｇ　Ｓｔｒｅｅｔ，Ｌｏｎｇｇａｎｇ　Ｄｉｓｔｒｉｃｔ　ｓｈｅｎｚｈｅｎ　ｇｕａｎｇｄｏｎｇ　５１８０００　ＣＮ,,,,,,2023-08-25,1,,,,,シェンジェンシジュオユエシァンテクノロジーシーオーエルティディ,0
1425,6700150119282,新規,0,2023-08-25,2023-08-25,ｓｈｅｎｚｈｅｎｓｈｉ　ｘｉｓｈｉｍａｏｙｉ　ｙｏｕｘｉａｎｇｏｎｇｓｉ,,外国会社等,,,,,,,,ｓｈｅｎｚｈｅｎｓｈｉｌｏｎｇｇａｎｇｑｕｂａｎｔｉａｎｊｉｅｄａｏｙａｎｇｍｅｉｓｈｅｑｕｙｕｅｆｅｎｇ６ｄｏｎｇＢ６０５,,,,,,2023-08-25,1,,,,,シンセンシシシマオイユウゲンコウシ,0
1426,6700150119308,新規,0,2023-08-25,2023-08-25,Ｓｈｅｎｚｈｅｎｓｈｉｙｕａｎｑｉｓｈｕｎｋｅｊｉｙｏｕｘｉａｎｇｏｎｇｓｉ,,外国会社等,,,,,,,,ｂａｏａｎｑｕ，ｆｕｈａｉｊｉｅｄａｏ，ｑｉａｏｔｏｕｓｈｅｑｕ，ｚａｏｘｉａｌｕ７４ｈａｏ　ｔｅｎｇｙａｏｚｈｉｎｅｎｇｂａｎｇｏｎｇｌｏｕ１４０１－Ｄ　Ｓｈｅｎｚｈｅｎ　Ｇｕａｎｇｄｏｎｇ　５１８０００　ＣＮ,,,,,,2023-08-25,1,,,,,シエンジエンシユエンチーシユンカージヨウシエンゴンス,0
1427,6700150119324,新規,0,2023-08-25,2023-08-25,Ｎａｎｊｉｎｇｌｉｌｉｓｉｍａｏｙｉｙｏｕｘｉａｎｇｏｎｇｓｉ,,外国会社等,,,,,,,,Ｎａｎ　ｊｉｎｇ　ｓｈｉ　ｊｉａｎｇ　ｎｉｎｇ　ｑｕ　ｄｏｎｇ　ｓｈａｎ　ｊｉｅ　ｄａｏ　ｊｉｎ　ｌａｎ　ｌｕ　２ｈａｏ　ｙｉ　ｚｈｕａｎｇ,,,,,,2023-08-25,1,,,,,ナンジンリーリースーマオイーヨウシエンゴーンス,0
1436,7010001237740,新規,0,2023-08-25,2023-08-25,日本沢潤行株式会社,,株式会社,東京都,千代田区,丸の内１丁目８番３号丸の内トラストタワー本館２０階,,13,101,1000005,,,,,,,2023-08-25,1,,,,,ニホンサワジュンコウ,0
1437,7010001237930,新規,0,2023-08-25,2023-08-25,真耶株式会社,,株式会社,東京都,中央区,銀座１丁目１２番４号Ｎ＆Ｅ、ＢＬＤ７階,,13,102,1040061,,,,,,,2023-08-25,1,,,,,マヤ,0
1441,7010003041488,新規,0,2023-08-25,2023-08-25,リモンド合同会社,,合同会社,東京都,千代田区,外神田３丁目６番４号第一勧業信用組合秋葉原ビル,,13,101,1010021,,,,,,,2023-08-25,1,,,,,リモンド,0
1449,7010401176605,新規,0,2023-08-25,2023-08-25,トヤマ・トナミ１株式会社,,株式会社,東京都,港区,西新橋１丁目２番９号メンターキャピタル税理士法人内,,13,103,1050003,,,,,,,2023-08-25,1,,,,,トヤマトナミワン,0
1450,7010401176613,新規,0,2023-08-25,2023-08-25,シガ・ナガハマ１株式会社,,株式会社,東京都,港区,西新橋１丁目２番９号メンターキャピタル税理士法人内,,13,103,1050003,,,,,,,2023-08-25,1,,,,,シガナガハマワン,0
1451,7010401176621,新規,0,2023-08-25,2023-08-25,イシカワ・ノト１株式会社,,株式会社,東京都,港区,西新橋１丁目２番９号メンターキャピタル税理士法人内,,13,103,1050003,,,,,,,2023-08-25,1,,,,,イシカワノトワン,0
1452,7010401176737,新規,0,2023-08-25,2023-08-25,株式会社かたばみ,,株式会社,東京都,港区,南麻布４丁目１３番２号,,13,103,1060047,,,,,,,2023-08-25,1,,,,,カタバミ,0
1453,7010401176761,新規,0,2023-08-25,2023-08-25,Ｈｉｄｄｅｎ　Ｒｏａｄ　Ｐａｒｔｎｅｒｓ　ＣＩＶ　ＪＰ株式会社,,株式会社,東京都,港区,南麻布５丁目１６番１３－３０２号,,13,103,1060047,,,,,,,2023-08-25,1,,,,,ヒドゥンロードパートナーズシーアイブイジェーピー,0
1456,7010403030628,新規,0,2023-08-25,2023-08-25,Ｑｕａｄｒａｎｔ　Ｊａｐａｎ合同会社,,合同会社,東京都,港区,西新橋２丁目３３番４－７０２号,,13,103,1050003,,,,,,,2023-08-25,1,,,,,クアドラントジャパン,0
1459,7010601063677,新規,0,2023-08-25,2023-08-25,株式会社ＪＡＹ　ＲＯＵＮＤ,,株式会社,東京都,江東区,常盤１丁目１６番２号２Ｆ,,13,108,1350006,,,,,,,2023-08-25,1,,,,,ジェイランド,0
1462,7010803004652,新規,0,2023-08-25,2023-08-25,パムクコンサルティング合同会社,,合同会社,東京都,大田区,大森東１丁目８－１０,,13,111,1430012,,,,,,,2023-08-25,1,,,,,パムクコンサルティング,0
1464,7010901053709,新規,0,2023-08-25,2023-08-25,株式会社ニンジャボックス,,株式会社,東京都,世田谷区,太子堂２丁目１７番５号佐藤ビル３Ｆ,,13,112,1540004,,,,,,,2023-08-25,1,,,,,ニンジャボックス,0
1471,7011001156575,新規,0,2023-08-25,2023-08-25,介護Ｍ＆Ａパートナーズ株式会社,,株式会社,東京都,渋谷区,恵比寿南１丁目２０番６号第２１荒井ビル４階,,13,113,1500022,,,,,,,2023-08-25,1,,,,,カイゴエムアンドエイパートナーズ,0
1472,7011001156600,新規,0,2023-08-25,2023-08-25,ｎａｖｉｘ株式会社,,株式会社,東京都,渋谷区,桜丘町３０－４渋谷アジアマンション２０２－Ｌ,,13,113,1500031,,,,,,,2023-08-25,1,,,,,ナビクス,0
1473,7011001156609,新規,0,2023-08-25,2023-08-25,株式会社ＫＥＡ,,株式会社,東京都,目黒区,目黒１丁目１番３３号,,13,110,1530063,,,,,,,2023-08-25,1,,,,,ケア,0
1480,7011101104079,新規,0,2023-08-25,2023-08-25,株式会社ＹＹＹ‐Ｓ,,株式会社,東京都,新宿区,歌舞伎町２丁目２４番７号エコロ新宿第２ビル５０１号室,,13,104,1600021,,,,,,,2023-08-25,1,,,,,スリーワイエス,0
1483,7011201024870,新規,0,2023-08-25,2023-08-25,パンダ株式会社,,株式会社,東京都,中野区,弥生町１丁目４２番１０号メゾン・ド・サブリエ３０６,,13,114,1640013,,,,,,,2023-08-25,1,,,,,パンダ,0
1484,7011301028953,新規,0,2023-08-25,2023-08-25,世紀生命株式会社,,株式会社,東京都,杉並区,成田西２丁目１番１１号Ｃ号棟,,13,115,1660016,,,,,,,2023-08-25,1,,,,,セイキセイメイ,0
1485,7011303004886,新規,0,2023-08-25,2023-08-25,合同会社アンジュ・アンド・ユー,,合同会社,東京都,杉並区,下高井戸１丁目３１番２－３０７号,,13,115,1680073,,,,,,,2023-08-25,1,,,,,アンジュアンドユー,0
1497,7013105001830,新規,0,2023-08-25,2023-08-25,一般社団法人ペーパーエタノール協会,,その他の設立登記法人,東京都,西多摩郡瑞穂町,大字箱根ケ崎２１１３番地,,13,303,1901221,,,,,,,2023-08-25,1,,,,,ペーパーエタノールキョウカイ,0
1502,7013301051266,新規,0,2023-08-25,2023-08-25,株式会社ＡＣＴ,,株式会社,東京都,豊島区,西池袋３丁目１７番７－３０１号,,13,116,1710021,,,,,,,2023-08-25,1,,,,,アクト,0
1507,7020001153160,新規,0,2023-08-25,2023-08-25,株式会社Ｃｒｅｓｃｅｒｅ,,株式会社,神奈川県,横浜市鶴見区,豊岡町１３－２アッシュ横濱鶴見１Ｆ,,14,101,2300062,,,,,,,2023-08-25,1,,,,,クレッシェレ,0
1508,7020001153177,新規,0,2023-08-25,2023-08-25,株式会社トポロジー,,株式会社,神奈川県,横浜市南区,中村町４丁目２９０番地の７,,14,105,2320033,,,,,,,2023-08-25,1,,,,,トポロジー,0
1511,7020003024450,新規,0,2023-08-25,2023-08-25,合同会社Ｅ‐Ｆｏｒｃｅ,,合同会社,神奈川県,横浜市西区,北幸２丁目１０番地２８むつみビル３Ｆ,,14,103,2200004,,,,,,,2023-08-25,1,,,,,イーフォース,0
1517,7030001155370,新規,0,2023-08-25,2023-08-25,雅メンテナンス株式会社,,株式会社,埼玉県,さいたま市桜区,大字白鍬６００－６－２０１,,11,106,3380811,,,,,,,2023-08-25,1,,,,,,0
1518,7030001155412,新規,0,2023-08-25,2023-08-25,ＭＡＲＩＮＯ株式会社,,株式会社,埼玉県,新座市,栗原２丁目３番３５号タカコービル２０２,,11,230,3520035,,,,,,,2023-08-25,1,,,,,マリノ,0
1520,7030003022362,新規,0,2023-08-25,2023-08-25,合同会社イナセエスパス,,合同会社,埼玉県,朝霞市,西弁財１丁目１１番１－７０１号,,11,227,3510021,,,,,,,2023-08-25,1,,,,,イナセエスパス,0
1521,7030003022437,新規,0,2023-08-25,2023-08-25,合同会社ＷＡ,,合同会社,埼玉県,北足立郡伊奈町,栄１丁目８４番地５,,11,301,3620805,,,,,,,2023-08-25,1,,,,,ワ,0
1532,7040001129811,新規,0,2023-08-25,2023-08-25,株式会社グローリージャパン,,株式会社,千葉県,市川市,南八幡３丁目１０番９号グリーンベル１０２号室,,12,203,2720023,,,,,,,2023-08-25,1,,,,,グローリージャパン,0
1537,7040003023186,新規,0,2023-08-25,2023-08-25,合同会社ＴＯＰ,,合同会社,千葉県,佐倉市,宮前３丁目４番地１０ラポール観山２Ｆ－Ｄ号室,,12,212,2850005,,,,,,,2023-08-25,1,,,,,トップ,0
1546,7090001018290,新規,0,2023-08-25,2023-08-25,ＲＢ　ｃｒａｆｔｓｍａｎ株式会社,,株式会社,山梨県,富士吉田市,上暮地３丁目５番３号,,19,202,4030001,,,,,,,2023-08-25,1,,,,,アールビークラフツマン,0
1547,7090001018299,新規,0,2023-08-25,2023-08-25,銘瑞貿易株式会社,,株式会社,山梨県,甲府市,中村町１４番２０号,,19,201,4000069,,,,,,,2023-08-25,1,,,,,メイレイボウエキ,0
1560,7120001257100,新規,0,2023-08-25,2023-08-25,株式会社ＹＷＡＹ,,株式会社,大阪府,大阪市北区,天満１丁目１３番５－５０２号,,27,127,5300043,,,,,,,2023-08-25,1,,,,,ワイウェイ,0
1561,7120001257538,新規,0,2023-08-25,2023-08-25,東＿株式会社,00131654,株式会社,大阪府,大阪市港区,南市岡３丁目１０番２号グリシーヌ弁天町４０４室,,27,107,5520011,,,,,,,2023-08-25,1,,,,,トウワ,0
1562,7120001257587,新規,0,2023-08-25,2023-08-25,株式会社ＥＭＣ,,株式会社,大阪府,大阪市中央区,伏見町３丁目１番１－１９０８号,,27,128,5410044,,,,,,,2023-08-25,1,,,,,イーエムシー,0
1563,7120001257629,新規,0,2023-08-25,2023-08-25,ティーエスダブル株式会社,,株式会社,大阪府,大阪市北区,大淀中１丁目１番３０号梅田スカイビルタワーウエスト３２階,,27,127,5310076,,,,,,,2023-08-25,1,,,,,ティーエスダブル,0
1566,7120003024779,新規,0,2023-08-25,2023-08-25,裕實合同会社,,合同会社,大阪府,大阪市中央区,谷町６丁目４番８号新空堀ビル２０５－２Ｂ号室,,27,128,5420012,,,,,,,2023-08-25,1,,,,,ユウジツ,0
1571,7120101068109,新規,0,2023-08-25,2023-08-25,株式会社エヌ・ティ・ピーアール,,株式会社,大阪府,松原市,上田３丁目８番２０－８０３号,,27,217,5800016,,,,,,,2023-08-25,1,,,,,エヌティピーアール,0
1572,7120103005398,新規,0,2023-08-25,2023-08-25,合同会社ＷＥＬＬＶＹ,,合同会社,大阪府,藤井寺市,沢田１丁目８番２３号フォンタルナカノ１階,,27,226,5830011,,,,,,,2023-08-25,1,,,,,ウェルビー,0
1573,7130001075039,新規,0,2023-08-25,2023-08-25,京友株式会社,,株式会社,京都府,久世郡久御山町,市田大領２番地９,,26,322,6130022,,,,,,,2023-08-25,1,,,,,キョウユウ,0
1574,7130001075047,新規,0,2023-08-25,2023-08-25,株式会社Ｂｅ　Ｓｈｏｗ,,株式会社,京都府,京都市中京区,夷川通東洞院東入山中町５４２番地ＭＯＲＥ御所南２０１,,26,104,6040815,,,,,,,2023-08-25,1,,,,,ビーショー,0
1581,7140001131360,新規,0,2023-08-25,2023-08-25,株式会社世流,,株式会社,兵庫県,神戸市中央区,熊内町２丁目６番１０号,,28,110,6510056,,,,,,,2023-08-25,1,,,,,セイリュウ,0
1595,7180001157427,新規,0,2023-08-25,2023-08-25,株式会社アヤコホールディングス,,株式会社,愛知県,名古屋市中区,新栄２丁目４２番２８号,,23,106,4600007,,,,,,,2023-08-25,1,,,,,アヤコホールディングス,0
1596,7180001157749,新規,0,2023-08-25,2023-08-25,株式会社Ｉ　ＡＭ,,株式会社,愛知県,名古屋市中区,富士見町７番１２号センチュリー富士見２０４号,,23,106,4600014,,,,,,,2023-08-25,1,,,,,アイアム,0
1597,7180001157757,新規,0,2023-08-25,2023-08-25,株式会社メイサン,,株式会社,愛知県,名古屋市西区,五才美町１２５番地カーサマンション３０１号,,23,104,4520806,,,,,,,2023-08-25,1,,,,,メイサン,0
1604,7180301037618,新規,0,2023-08-25,2023-08-25,東豊商事株式会社,,株式会社,愛知県,北設楽郡設楽町,田口字居立４番地,,23,561,4412301,,,,,,,2023-08-25,1,,,,,,0
1610,7240001062042,新規,0,2023-08-25,2023-08-25,プランテック株式会社,,株式会社,広島県,東広島市,黒瀬町兼沢１５８９,,34,212,7392731,,,,,,,2023-08-25,1,,,,,プランテック,0
1614,7260001038255,新規,0,2023-08-25,2023-08-25,株式会社はーとふる・けあ,,株式会社,岡山県,備前市,日生町日生７２１,,33,211,7013204,,,,,,,2023-08-25,1,,,,,ハートフルケア,0
1615,7260003004404,新規,0,2023-08-25,2023-08-25,Ｇｏｎ合同会社,,合同会社,岡山県,岡山市北区,天瀬二丁目２１番地２階,,33,101,7000833,,,,,,,2023-08-25,1,,,,,ゴン,0
1628,7340005009632,新規,0,2023-08-25,2023-08-25,一般社団法人Ｃｉｒｃｌｅ,,その他の設立登記法人,鹿児島県,大島郡知名町,大字瀬利覚４６５番地,,46,534,8919213,,,,,,,2023-08-25,1,,,,,サークル,0
1633,7360001032462,新規,0,2023-08-25,2023-08-25,株式会社ＪＥＡＬＯＵＳ,,株式会社,沖縄県,那覇市,松山１丁目１４番１９号,,47,201,9000032,,,,,,,2023-08-25,1,,,,,ジェラス,0
1637,7410001013580,新規,0,2023-08-25,2023-08-25,株式会社ＯＷＬ,,株式会社,秋田県,秋田市,手形字山崎１４８－１,,05,201,0100851,,,,,,,2023-08-25,1,,,,,アウル,0
1647,7430005014763,新規,0,2023-08-25,2023-08-25,社会福祉法人とらくろ,,その他の設立登記法人,北海道,札幌市東区,北三十八条東８丁目１番６号,,01,103,0070838,,,,,,,2023-08-25,1,,,,,トラクロ,0
1658,7700150080632,新規,0,2023-08-25,2017-02-08,日本言語テスト学会,,その他,東京都,新宿区,山吹町３５８－５アカデミーセンター,,13,104,1620801,,,,,,,2017-02-08,1,,,,,ニホンゲンゴテストガツカイ,0
1659,7700150114745,新規,0,2023-08-25,2023-08-25,ＫＥＢＴＥＫ　ＬＴＤ,,外国会社等,,,,,,,,ＳＯＵＴＨ　ＢＡＮＫ　ＴＯＷＥＲ，５５　ＵＰＰＥＲ　ＧＲＯＵＮＤ　ＵＮＩＴ　１８０４　ＬＯＮＤＯＮ　ＥＮＧＬＡＮＤ　ＳＥ１　９ＥＹ　ＧＢ,,,,,,2023-08-25,1,,,,,ケブテックエルティーディー,0
1660,7700150119273,新規,0,2023-08-25,2023-08-25,ＳｈｅｎＺｈｅｎＳｈｉ　ＲｕｉＺｅＪｉｎ　Ｔｅｃｈｎｏｌｏｇｙ　Ｃｏ．，Ｌｔｄ,,外国会社等,,,,,,,,Ｒｏｏｍ　７０９，７ｔｈ　Ｆｌｏｏｒ，Ｚｈｉｈｕｉ　Ｙｕｎｃａｎｇ　Ｂｕｉｌｄｉｎｇ　Ｎｏ．１１　Ｓｈｕｉｔｉａｎ　１ｓｔ　Ｒｏａｄ，Ｌｏｎｇｇａｎｇ　Ｓｔｒｅｅｔ，Ｌｏｎｇｇａｎｇ　Ｄｉｓｔｒｉｃｔ　ｓｈｅｎｚｈｅｎ　ｇｕａｎｇｄｏｎｇ　５１８０００　ＣＮ,,,,,,2023-08-25,1,,,,,シェンジェンシルイズァジンテクノロジーシーオーエルティディ,0
1661,7700150119281,新規,0,2023-08-25,2023-08-25,Ｇｕａｎｇｚｈｏｕ　Ｊｉｎｇｌｉｎｇ　ｑｉｍｏｐｅｉｊｉａｎ　Ｃｏ．，Ｌｔｄ．,,外国会社等,,,,,,,,ｐａｎｙｕ　ｄｉｓｔｒｉｃｔ，ｄａｓｈｉ　ｓｔｒｅｅｔ，ｃｈａｏｙａｎｇ　ｅａｓｔ　ｒｏａｄ　Ｎｏ．１６８．ｒｏｏｍ　４１２．Ｇｕａｎｇｚｈｏｕ　Ｇｕａｎｇｄｏｎｇ　５１１４３０　ＣＮ,,,,,,2023-08-25,1,,,,,グゥァンヂョウジンリンチーマァーペイジィェンヨウシィェンゴンスー,0
1662,7700150119307,新規,0,2023-08-25,2023-08-25,ｓｈｅｎｚｈｅｎｓｈｉｙｉｎｇｌｉｆｅｎｇｋｅｊｉｙｏｕｘｉａｎｇｏｎｇｓｉ,,外国会社等,,,,,,,,ＮＡＮＳＨＡＮＱＵＹＵＥＨＡＩＪＩＥＤＡＯＸＩＮＧＮＡＮＬＵ　ＪＩＮＧＧＵＡＮＧＨＡＩＪＩＮＧＨＵＡＹＵＡＮＤＡＳＨＡ　Ｂ　ＤＯＮＧ　１８Ａ　ＳＨＥＮＺＨＥＮ　ＧＵＡＮＧＤＯＮＧ　５１８０６４　ＣＮ,,,,,,2023-08-25,1,,,,,シエンジエンシインリーフオンカージヨウシエンゴンス,0
1663,7700150119315,新規,0,2023-08-25,2023-08-25,ｓｈｅｎｚｈｅｎｓｈｉ　ｔｉａｎｈａｉｌａｎｋｅｊｉ　ｙｏｕｘｉａｎｇｏｎｇｓｉ,,外国会社等,,,,,,,,４　ｆｌｏｏｒ，７　ｂｕｉｌｄｉｎｇ，ｃｉ　ｔａｎｇ　ｃｕｎ　ｉｎｄｕｓｔｒｙ　ｚｏｎｅ，Ｆｕｓｔｉａｎ　ｄｉｓｔｒｉｃｔ，Ｓｈｅｎｚｈｅｎ　Ｇｏｎｇｄｏｎｇ　５１８３０４　ＣＮ,,,,,,2023-08-25,1,,,,,シンセンシテイエンハイケージヨウシエンゴンス,0
1664,7700150119323,新規,0,2023-08-25,2023-08-25,Ｘｉｎ　ｓｅｎ　ｌｏｎｇ　Ｓｈｅｎｚｈｅｎ　Ｅｌｅｃｔｒｏｎｉｃｓ　Ｃｏ．，Ｌｔｄ,,外国会社等,,,,,,,,Ｒｏｏｍ　Ｃ３０１，ＳｏｎｇＳｈｅｎｇＢｕｉｌｄｉｎｇ，Ｃｈａｏｙａｎｇ　ｎｅｉｇｈｂｏｒｈｏｏｄ　Ｓｏｎｇｇｏｎｇ，Ｂａｏａｎ，Ｄｉｓｔｒｉｃｔ，ＳｈｅｎＺｈｅｎ　５１８１０５　ＣＮ,,,,,,2023-08-25,1,,,,,シンセンロンシエンジエンエレクトロニクスカンパニーリミテツド,0
1665,7700150119331,新規,0,2023-08-25,2023-08-25,ＬＡＮＧＩＳ　ＬＬＣ,,外国会社等,,,,,,,,２７１１　ＣＥＮＴＥＲＶＩＬＬＥ　ＲＤ　ＳＴＥ　４００　ＷＩＬＭＩＮＧＴＯＮ　ＤＥＬＡＷＡＲＥ　Ｕｎｉｔｅｄ　Ｓｔａｔｅｓ　１９８０８,,,,,,2023-08-25,1,,,,,ランギスエルエルシー,0
1666,7700150119348,新規,0,2023-08-25,2023-08-25,ＺＵＭＩＭＡＬＬ　ＴＥＣＨＮＯＬＯＧＹ　ＣＯ．，ＬＩＭＩＴＥＤ,,外国会社等,,,,,,,,ＨＫ，９９９０７７，Ｋｏｗｌｏｏｎ，Ｔｓｉｍ　Ｓｈａ　Ｔｓｕｉ，４５－５１　Ｃｈａｔｈａｍ　Ｒｏａｄ　Ｓｏｕｔｈ，Ｒｏｏｍ　８０３，Ｃｈｅｖａｌｉｅｒ　Ｂｕｉｌｄｉｎｇ,,,,,,2023-08-25,1,,,,,ジンアンコージーヨウシエンゴンスー,0
1675,8010003041504,新規,0,2023-08-25,2023-08-25,Ｄｉｇｉｔａｌ　Ｊｏｕｒｎｅｙ　Ｅｎｔｅｒｐｒｉｓｅｓ合同会社,,合同会社,東京都,中央区,銀座１丁目１２番４号Ｎ＆Ｅ．ＢＬＤ．６Ｆ,,13,102,1040061,,,,,,,2023-08-25,1,,,,,デジタルジャーニーエンタープライズ,0
1680,8010401176604,新規,0,2023-08-25,2023-08-25,ナガノ・ナガノ１株式会社,,株式会社,東京都,港区,西新橋１丁目２番９号メンターキャピタル税理士法人内,,13,103,1050003,,,,,,,2023-08-25,1,,,,,ナガノナガノワン,0
1681,8010401176612,新規,0,2023-08-25,2023-08-25,ミエ・イセ１株式会社,,株式会社,東京都,港区,西新橋１丁目２番９号メンターキャピタル税理士法人内,,13,103,1050003,,,,,,,2023-08-25,1,,,,,ミエイセワン,0
1682,8010401176620,新規,0,2023-08-25,2023-08-25,ヤマナシ・ヤツガタケ１株式会社,,株式会社,東京都,港区,西新橋１丁目２番９号メンターキャピタル税理士法人内,,13,103,1050003,,,,,,,2023-08-25,1,,,,,ヤマナシヤツガタケワン,0
1684,8010403030800,新規,0,2023-08-25,2023-08-25,合同会社ＡＵＢＥ,,合同会社,東京都,港区,赤坂９丁目１番７－３３９号,,13,103,1070052,,,,,,,2023-08-25,1,,,,,オーブ,0
1690,8010803004651,新規,0,2023-08-25,2023-08-25,合同会社イガリ,,合同会社,東京都,大田区,田園調布１丁目１１番４号ヴィラ・コンフォート田園調布１０１,,13,111,1450071,,,,,,,2023-08-25,1,,,,,イガリ,0
1695,8011103013384,新規,0,2023-08-25,2023-08-25,合同会社ＹＯＫ,,合同会社,東京都,新宿区,高田馬場３丁目５番３号第９０東京ビル３Ｆ,,13,104,1690075,,,,,,,2023-08-25,1,,,,,ワイオーケー,0
1698,8011301028952,新規,0,2023-08-25,2023-08-25,輪駆出版株式会社,,株式会社,東京都,杉並区,荻窪３丁目７番１号,,13,115,1670051,,,,,,,2023-08-25,1,,,,,リンクシュッパン,0
1701,8011401025395,新規,0,2023-08-25,2023-08-25,セントラル株式会社,,株式会社,東京都,板橋区,高島平３丁目８番３－１０１号,,13,119,1750082,,,,,,,2023-08-25,1,,,,,セントラル,0
1704,8012301013572,新規,0,2023-08-25,2023-08-25,株式会社ＴＯＲＡＫＩＮ,,株式会社,東京都,町田市,山崎町１１５３番地１,,13,209,1950074,,,,,,,2023-08-25,1,,,,,トラキン,0
1706,8012401040913,新規,0,2023-08-25,2023-08-25,香水海株式会社,,株式会社,東京都,調布市,西つつじケ丘４丁目１６番地１フレ・ジュノウ２０１号,,13,208,1820006,,,,,,,2023-08-25,1,,,,,コウスイカイ,0
1708,8013301051257,新規,0,2023-08-25,2023-08-25,一番株式会社,,株式会社,東京都,豊島区,東池袋１丁目３４番５号いちご東池袋ビル６階,,13,116,1700013,,,,,,,2023-08-25,1,,,,,イチバン,0
1709,8013301051265,新規,0,2023-08-25,2023-08-25,Ｂｒｉｌｌｉａｎｔ株式会社,,株式会社,東京都,豊島区,池袋２丁目５１番８号シルバープラザ３０３号室,,13,116,1710014,,,,,,,2023-08-25,1,,,,,ブリリアント,0
1715,8020001152855,新規,0,2023-08-25,2023-08-25,Ｃｏｒｅ　Ｂｌｕｅ株式会社,,株式会社,神奈川県,横浜市西区,久保町３５番５－３号,,14,103,2200061,,,,,,,2023-08-25,1,,,,,コアブルー,0
1716,8020001153168,新規,0,2023-08-25,2023-08-25,株式会社ＳＡＩＫＡ,,株式会社,神奈川県,横浜市神奈川区,三ツ沢東町３－１３,,14,102,2210853,,,,,,,2023-08-25,1,,,,,サイカ,0
1717,8020001153201,新規,0,2023-08-25,2023-08-25,株式会社エステート中山,,株式会社,神奈川県,川崎市麻生区,五力田３丁目２４番１７号,,14,137,2150025,,,,,,,2023-08-25,1,,,,,エステートナカヤマ,0
1720,8020003024425,新規,0,2023-08-25,2023-08-25,合同会社藍尾,,合同会社,神奈川県,横浜市港北区,大豆戸町４２３番地３菊名台ハイム１０１号室,,14,109,2220032,,,,,,,2023-08-25,1,,,,,ランビ,0
1721,8021001080030,新規,0,2023-08-25,2023-08-25,株式会社ねこん家,,株式会社,神奈川県,藤沢市,片瀬海岸２丁目８番１７号,,14,205,2510035,,,,,,,2023-08-25,1,,,,,ネコンチ,0
1724,8021003013483,新規,0,2023-08-25,2023-08-25,ＷＭＮ合同会社,,合同会社,神奈川県,中郡二宮町,二宮１１３３番地の５,,14,342,2590123,,,,,,,2023-08-25,1,,,,,ダブリューエムエヌ,0
1725,8021003013500,新規,0,2023-08-25,2023-08-25,無合同会社,,合同会社,神奈川県,座間市,入谷東４丁目５３番１６号１Ｂ,,14,216,2520028,,,,,,,2023-08-25,1,,,,,ム,0
1726,8021003013509,新規,0,2023-08-25,2023-08-25,サトウ工業合同会社,,合同会社,神奈川県,平塚市,四之宮１丁目１０番５号アルカディア湘南１１２号室,,14,203,2540014,,,,,,,2023-08-25,1,,,,,サトウコウギョウ,0
1737,8030001155353,新規,0,2023-08-25,2023-08-25,株式会社Ｍａｒｓ,,株式会社,埼玉県,草加市,谷塚１丁目２６番１号,,11,221,3400028,,,,,,,2023-08-25,1,,,,,マルス,0
1738,8030001155477,新規,0,2023-08-25,2023-08-25,ブルーリペア株式会社,,株式会社,埼玉県,深谷市,仲町１８番１６号,,11,218,3660822,,,,,,,2023-08-25,1,,,,,ブルーリペア,0
1739,8030001155725,新規,0,2023-08-25,2023-08-25,株式会社ティーエスホールディングス,,株式会社,埼玉県,越谷市,七左町５丁目１５３番地,,11,222,3430851,,,,,,,2023-08-25,1,,,,,ティーエスホールディングス,0
1740,8030003022320,新規,0,2023-08-25,2023-08-25,建福家合同会社,,合同会社,埼玉県,吉川市,栄町１３６２番地９,,11,243,3420050,,,,,,,2023-08-25,1,,,,,ケンフクヤ,0
1741,8030003022337,新規,0,2023-08-25,2023-08-25,村上建築事務所合同会社,,合同会社,埼玉県,本庄市,本庄２丁目７番３－６０６号ライオンズマンション本庄,,11,211,3670051,,,,,,,2023-08-25,1,,,,,ムラカミケンチクジムショ,0
1742,8030003022353,新規,0,2023-08-25,2023-08-25,Ｋ’ＴＨＲＩＶＥ合同会社,,合同会社,埼玉県,さいたま市大宮区,大門町３丁目５０番地１００１号室,,11,103,3300846,,,,,,,2023-08-25,1,,,,,ケースライヴ,0
1748,8040001129810,新規,0,2023-08-25,2023-08-25,株式会社Ｋ．Ｖｅｒｇｅｒ,,株式会社,千葉県,白井市,根１０２９番地の１６,,12,232,2701431,,,,,,,2023-08-25,1,,,,,ケーヴェルジェ,0
1749,8040001129819,新規,0,2023-08-25,2023-08-25,株式会社校倉建設,,株式会社,千葉県,松戸市,六高台５丁目１７０番地の２フレンドリーハイツ２０２,,12,207,2702203,,,,,,,2023-08-25,1,,,,,アゼクラケンセツ,0
1755,8050005013316,新規,0,2023-08-25,2023-08-25,特定非営利活動法人筑西母親クラブ,,その他の設立登記法人,茨城県,筑西市,小川乙１５６１番地２,,08,227,3080857,,,,,,,2023-08-25,1,,,,,チクセイハハオヤクラブ,0
1756,8060001036286,新規,0,2023-08-25,2023-08-25,株式会社月がきれいですね,,株式会社,栃木県,真岡市,熊倉町３４４９番地３１,,09,209,3214362,,,,,,,2023-08-25,1,,,,,ツキガキレイデスネ,0
1764,8080003003043,新規,0,2023-08-25,2023-08-25,合同会社ｈａｔｃｈｉｉ‐ｉ,,合同会社,静岡県,静岡市葵区,池ケ谷東８番１４号,,22,101,4200935,,,,,,,2023-08-25,1,,,,,ハッチーイ,0
1766,8090005007586,新規,0,2023-08-25,2023-08-25,ＮＰＯ法人ＢＡＮＤＩＴＳ,,その他の設立登記法人,山梨県,南巨摩郡富士川町,大椚４４４番地１,,19,368,4000506,,,,,,,2023-08-25,1,,,,,バンディッツ,0
1769,8100003007157,新規,0,2023-08-25,2023-08-25,合同会社ＴＲＳ,,合同会社,長野県,松本市,大字岡田町４８９番地１９,,20,202,3900315,,,,,,,2023-08-25,1,,,,,ティーアールエス,0
1784,8120001257512,新規,0,2023-08-25,2023-08-25,株式会社ハウスネット不動産,,株式会社,大阪府,大阪市中央区,内本町２丁目３番８号,,27,128,5400026,,,,,,,2023-08-25,1,,,,,ハウスネットフドウサン,0
1788,8120003024778,新規,0,2023-08-25,2023-08-25,豊天合同会社,,合同会社,大阪府,大阪市東成区,大今里南１丁目１８番７号大宝今里ロイヤルハイツ２０３号室,,27,115,5370013,,,,,,,2023-08-25,1,,,,,ホウテン,0
1789,8120003024786,新規,0,2023-08-25,2023-08-25,合同会社Ａｓｓｅｔｓ　Ｕｐ,,合同会社,大阪府,大阪市生野区,巽中２丁目２５番６号,00131657,27,116,5440013,,,,,,,2023-08-25,1,,,,,アセッツアップ,0
1794,8122001037290,新規,0,2023-08-25,2023-08-25,株式会社近畿産業,,株式会社,大阪府,東大阪市,鴻池町１丁目２０番１８号,,27,227,5780972,,,,,,,2023-08-25,1,,,,,キンキサンギョウ,0
1795,8122003002648,新規,0,2023-08-25,2023-08-25,大商ホールディングス合同会社,,合同会社,大阪府,八尾市,緑ヶ丘４丁目４６番地の４０,,27,212,5810837,,,,,,,2023-08-25,1,,,,,ダイショウホールディングス,0
1797,8130001075054,新規,0,2023-08-25,2023-08-25,株式会社ＳＣＡＬＥＲ,,株式会社,京都府,京都市中京区,三条通烏丸西入御倉町８５番地１烏丸ビル５階,,26,104,6048166,,,,,,,2023-08-25,1,,,,,スケーラー,0
1798,8130001075079,新規,0,2023-08-25,2023-08-25,株式会社ＺＷ,,株式会社,京都府,京都市左京区,吉田下大路町４９番地１０,,26,103,6068314,,,,,,,2023-08-25,1,,,,,ゼットダブリュ,0
1806,8140001131351,新規,0,2023-08-25,2023-08-25,愛興産業株式会社,,株式会社,兵庫県,神戸市中央区,花隈町２４－４－５０２,,28,110,6500013,,,,,,,2023-08-25,1,,,,,アイコウサンギョウ,0
1813,8180001157756,新規,0,2023-08-25,2023-08-25,株式会社巳来,,株式会社,愛知県,清須市,西枇杷島町宮前２丁目５８番地１,,23,233,4520031,,,,,,,2023-08-25,1,,,,,ミライ,0
1814,8180001157780,新規,0,2023-08-25,2023-08-25,ＮＥＸＴＧＡＭＥ株式会社,,株式会社,愛知県,名古屋市中区,丸の内２丁目１６番２６号ラ・シェンテ丸の内４０１号,,23,106,4600002,,,,,,,2023-08-25,1,,,,,ネクストゲーム,0
1826,8260001038246,新規,0,2023-08-25,2023-08-25,株式会社創拓プラニング,,株式会社,岡山県,岡山市中区,藤崎５２０番地９,,33,102,7028006,,,,,,,2023-08-25,1,,,,,ソウタクプラニング,0
1837,8290003014275,新規,0,2023-08-25,2023-08-25,合同会社自然,,合同会社,福岡県,福岡市中央区,天神１丁目１－１アクロス福岡１Ｆ,,40,133,8100001,,,,,,,2023-08-25,1,,,,,ジネン,0
1839,8290801029813,新規,0,2023-08-25,2023-08-25,株式会社西建,,株式会社,福岡県,築上郡築上町,大字小原４４２番地,,40,647,8290304,,,,,,,2023-08-25,1,,,,,ニシケン,0
1848,8330003009948,新規,0,2023-08-25,2023-08-25,メガホンフード合同会社,,合同会社,熊本県,上益城郡御船町,大字滝川６３４番地３,,43,441,8613205,,,,,,,2023-08-25,1,,,,,メガホンフード,0
1852,8350001018536,新規,0,2023-08-25,2023-08-25,株式会社Ｇｒａｔｉｕｓ,,株式会社,宮崎県,宮崎市,大字恒久４４２７番地１エレガンスメゾン６Ｂ５０７号,,45,201,8800916,,,,,,,2023-08-25,1,,,,,グラティアス,0
1854,8360003013237,新規,0,2023-08-25,2023-08-25,松元プランニング合同会社,,合同会社,沖縄県,中頭郡嘉手納町,字嘉手納１８０番地,,47,325,9040203,,,,,,,2023-08-25,1,,,,,マツモトプランニング,0
1863,8430001089833,新規,0,2023-08-25,2023-08-25,アートノヴァ株式会社,,株式会社,北海道,札幌市東区,伏古八条３丁目５番１５号,,01,103,0070868,,,,,,,2023-08-25,1,,,,,アートノヴァ,0
1868,8430005014762,新規,0,2023-08-25,2023-08-25,行政書士法人中村事務所,,その他の設立登記法人,北海道,札幌市豊平区,平岸六条１２丁目１３番８号,,01,105,0620936,,,,,,,2023-08-25,1,,,,,ナカムラジムショ,0
1869,8460101007428,新規,0,2023-08-25,2023-08-25,株式会社ウィンターワークス,,株式会社,北海道,帯広市,西五条南３３丁目６１－１,,01,207,0800015,,,,,,,2023-08-25,1,,,,,ウィンターワークス,0
1871,8470001019778,新規,0,2023-08-25,2023-08-25,株式会社Ａｉｚｉｅｒ,,株式会社,香川県,高松市,六条町１０６８－５－２０５,,37,201,7610303,,,,,,,2023-08-25,1,,,,,エジエ,0
1876,8700150116617,新規,0,2023-08-25,2023-08-25,ＶＯＣＨＬＥＡ　ＭＵＳＩＣ　ＬＴＤ,,外国会社等,,,,,,,,Ａ２０４，Ａｌｍｏｎｄ　Ｓｔｕｄｉｏｓ　Ｔｈｅ　Ｂｉｓｃｕｉｔ　Ｆａｃｔｏｒｙ，１００　Ｄｒｕｍｍｏｎｄ　Ｒｏａｄ，Ｌｏｎｄｏｎ，Ｅｎｇｌａｎｄ　ＳＥ１６　４ＤＧ,,,,,,2023-08-25,1,,,,,ボチェレアミュージックリミテッド,0
1877,8700150119272,新規,0,2023-08-25,2023-08-25,ＳｈｅｎＺｈｅｎＳｈｉ　ＪｉｎＹｕｅＴａｉ　Ｔｅｃｈｎｏｌｏｇｙ　Ｃｏ．Ｌｔｄ,,外国会社等,,,,,,,,ｌｏｎｇｇａｎｇｑｕｂａｎｔｉａｎｊｉｅｄａｏｎａｎｋｅｎｇｓｈｅｑｕ　ｑｉｌｉｎｌｕ９ｈａｏｄｉｓａｎｇｏｎｇｙｅｑｕ８ｄｏｎｇ２０９　ｓｈｅｎｚｈｅｎ　ｇｕａｎｇｄｏｎｇ　５１８０００　ＣＮ,,,,,,2023-08-25,1,,,,,シェンジェンシジンユエタイテクノロジーシーオーエルティディ,0
1878,8700150119280,新規,0,2023-08-25,2023-08-25,ｈｅｚｈｏｕ　ｓｈｉ　ｊｉｎｇｌｉｎｇ　Ｔｅｃｈｎｏｌｏｇｙ　Ｃｏ．，Ｌｔｄ．,,外国会社等,,,,,,,,Ｒｏｏｍ２０１，２ｎｄ　Ｆｌｏｏｒ，Ｂｕｉｌｄｉｎｇ　２４５，Ｊｉａｎｓｈｅ　Ｗｅｓｔ　Ｒｏａｄ，Ｇｕａｎｇｍｉｎｇ　Ｃｏｍｍｕｎｉｔｙ，Ｂａｂｕ　Ｄｉｓｔｒｉｃｔ　Ｈｅｚｈｏｕ　Ｇｕａｎｇｘｉ　５４２８００　ＣＮ,,,,,,2023-08-25,1,,,,,ファアヂョウシージンリンクァジーヨウシィェンゴンスー,0
1879,8700150119297,新規,0,2023-08-25,2023-08-25,Ｂ．Ｍ．Ｓ　Ｅｎｔｅｒｐｒｉｓｅｓ,,外国会社等,茨城県,稲敷郡美浦村,大字花見塚８１３番地５,,08,442,3000418,スリランカ民主社会主義共和国、ダンボッカボガガネディッデニヤワッタセカンドレーン、１４１,,,,,,2023-08-25,1,,,,,ビーエムエスエンタープライズ,0
1880,8700150119306,新規,0,2023-08-25,2023-08-25,ＲＥＴＯ　Ｐｒｏｄｕｃｔｉｏｎ　Ｌｉｍｉｔｅｄ,,外国会社等,,,,,,,,Ｒｍ　ｉ２，１３／Ｆ，Ｙｅｕｎｇ　Ｙｉｕ　Ｃｈｕｎｇ（ｎｏ．８）　Ｉｎｄｕｓｔｒｉａｌ　Ｂｕｉｌｄｉｎｇ，２０　Ｗａｎｇ　Ｈｏｉ　Ｒｏａｄ，Ｋｏｗｌｏｏｎ，Ｈｏｎｇ　Ｋｏｎｇ,,,,,,2023-08-25,1,,,,,レトプロダクシヨンリミテツド,0
1881,8700150119314,新規,0,2023-08-25,2023-08-25,Ｓｈｅｎｚｈｅｎｓｈｉ　Ｃｈｕｎｚａｏｋｅｊｉ　Ｙｏｕｘｉａｎｇｏｎｇｓｉ,,外国会社等,,,,,,,,ＦｕｔｉａｎＱｕ　ｍｅｉｌｉｎｊｉｅｄａｏ　ｚｈｏｎｇｋａｎｇｌｕ　１　ｈａｏ　Ｈｕａｍａｏｙｕａｎ　８　ｄｏｎｇ　２　ｄａｎｙｕａｎ　６０５　ｓｈｅｎｚｈｅｎ　Ｇｕａｎｇｄｏｎｇ　５１８００　ＣＮ,,,,,,2023-08-25,1,,,,,シエンジエンシチユンザオカージーヨウシエンゴーンス,0
1882,8700150119322,新規,0,2023-08-25,2023-08-25,ＳＨＥＮＺＨＥＮＳＨＩ　ＦＥＮＧＹＩＤＡＭＡＯＹＩ　ＹＯＵＸＩＡＮＧＧＯＮＧＳＩ,,外国会社等,,,,,,,,ＬＯＮＧＨＵＡＱＵ　ＬＯＮＧＨＵＡＪＩＥＤＡＯ　ＷＥＮＨＵＡＪＩＥＧＵＦＥＮ　ＤＡＳＨＡ　１―５０１ＳＨＥＮＺＨＥＮＳＨＩ　５１８１０９　ＣＮ,,,,,,2023-08-25,1,,,,,シエンジエンシフオンイーダマオイーヨウシエンゴンス,0
1883,8700150119330,新規,0,2023-08-25,2023-08-25,ＮｉｎｇＢｏＳｈｅｎｇＹｉＣｈｕａｎＭｅｉＹｏｕＸｉａｎＧｏｎｇＳｉ,,外国会社等,,,,,,,,Ｘｉｎｈｕｉｌｕ７７７ｈａｏ０４３ｚｈｕａｎｇ２１３１ｓｈｉ　ｚｈｏｕｊｉｊｉｕｄｉａｎｎｅｉ　Ｎｉｎｇｂｏｓｈｉ　Ｇａｏｘｉｎｑｕ　Ｚｈｅｊｉａｎｇｓｈｅｎｇ　３１５０００ＣＮ,,,,,,2023-08-25,1,,,,,ニンボーシユヨンイーチユワンメイヨウシエンゴンス,0
1884,8700150119347,新規,0,2023-08-25,2023-08-25,ｓｈｅｎｚｈｅｎｓｈｉｓｈｅｎｇｙｉｔａｎｇｋｅｊｉｙｏｕｘｉａｎｇｏｎｇｓｉ　　　　,,外国会社等,,,,,,,,Ｎａｎｙｕａｎ　Ｖｉｌｌａｇｅ，Ｎａｎｙｕａｎ　Ｃｏｍｍｕｎｉｔｙ　Ｒｏｏｍ　２０４，Ｂｕｉｌｄｉｎｇ　１５，Ｘｉｎｑｉｆａｎｇ　ＳｈｅｎＺｈｅｎ　Ｎａｎｓｈａｎ　Ｇｕａｎｇｄｏｎｇ,,,,,,2023-08-25,1,,,,,シェンジェンシーションイータンコージーヨウシエンゴンスー,0
1890,9010001237813,新規,0,2023-08-25,2023-08-25,株式会社イーガイアプログレス,,株式会社,東京都,千代田区,九段南２丁目３番１０号ＢＣプラザ６階,,13,101,1020074,,,,,,,2023-08-25,1,,,,,イーガイアプログレス,0
1891,9010001237937,新規,0,2023-08-25,2023-08-25,株式会社ＰＷ,,株式会社,東京都,中央区,月島２丁目１番１－４１２号,,13,102,1040052,,,,,,,2023-08-25,1,,,,,ピーダブリュー,0
1895,9010005037144,新規,0,2023-08-25,2023-08-25,一般社団法人アートメント協会,,その他の設立登記法人,東京都,中央区,銀座１丁目２２番１１号銀座大竹ビジデンス２階,,13,102,1040061,,,,,,,2023-08-25,1,,,,,アートメントキョウカイ,0
1896,9010101015788,新規,0,2023-08-25,2023-08-25,株式会社ＴＳ,,株式会社,東京都,八王子市,大谷町２７７番地９,,13,201,1920034,,,,,,,2023-08-25,1,,,,,ティーエス,0
1900,9010401176603,新規,0,2023-08-25,2023-08-25,ワカヤマ・ミナベ１株式会社,,株式会社,東京都,港区,西新橋１丁目２番９号メンターキャピタル税理士法人内,,13,103,1050003,,,,,,,2023-08-25,1,,,,,ワカヤマミナベワン,0
1901,9010401176611,新規,0,2023-08-25,2023-08-25,チバ・ミナミボウソウ１株式会社,,株式会社,東京都,港区,西新橋１丁目２番９号メンターキャピタル税理士法人内,,13,103,1050003,,,,,,,2023-08-25,1,,,,,チバミナミボウソウワン,0
1902,9010401176751,新規,0,2023-08-25,2023-08-25,Ｉｍｐａｃｔｉｏ　Ｌａｂｏｒａｔｏｒｉｅｓ株式会社,,株式会社,東京都,港区,三田１丁目３番４０号天翔オフィス麻布十番３０２号室,,13,103,1080073,,,,,,,2023-08-25,1,,,,,インパクシオラボラトリーズ,0
1903,9010401176784,新規,0,2023-08-25,2023-08-25,株式会社ｋｉｋｏｎ,,株式会社,東京都,港区,三田１丁目６番３号,,13,103,1080073,,,,,,,2023-08-25,1,,,,,キコン,0
1904,9010403030790,新規,0,2023-08-25,2023-08-25,合同会社ファングリーズ,,合同会社,東京都,港区,南青山３丁目１番３６号青山丸竹ビル６Ｆ,,13,103,1070062,,,,,,,2023-08-25,1,,,,,ファングリーズ,0
1914,9011001156581,新規,0,2023-08-25,2023-08-25,ヘルスアンドウェルネス株式会社,,株式会社,東京都,渋谷区,広尾５丁目４番１６号３Ｆ,,13,113,1500012,,,,,,,2023-08-25,1,,,,,ヘルスアンドウェルネス,0
1918,9011101104127,新規,0,2023-08-25,2023-08-25,エイチツーヘルステック株式会社,,株式会社,東京都,新宿区,荒木町１１番地２４,,13,104,1600007,,,,,,,2023-08-25,1,,,,,エイチツーヘルステック,0
1927,9012401040904,新規,0,2023-08-25,2023-08-25,株式会社エース・ワン,,株式会社,東京都,府中市,美好町１丁目３４番地の７,,13,206,1830045,,,,,,,2023-08-25,1,,,,,エースワン,0
1930,9013101009231,新規,0,2023-08-25,2023-08-25,株式会社木村総業,,株式会社,東京都,福生市,武蔵野台１丁目１９番地８メルベーユ５０９号室,,13,218,1970013,,,,,,,2023-08-25,1,,,,,キムラソウギョウ,0
1938,9020001153167,新規,0,2023-08-25,2023-08-25,株式会社リンクサポート,,株式会社,神奈川県,横浜市西区,北幸１丁目１１番５号,,14,103,2200004,,,,,,,2023-08-25,1,,,,,リンクサポート,0
1944,9021003013508,新規,0,2023-08-25,2023-08-25,カーム・テクノロジー合同会社,,合同会社,神奈川県,相模原市南区,上鶴間本町５丁目１９番１－１０７号,,14,153,2520318,,,,,,,2023-08-25,1,,,,,カームテクノロジー,0
1948,9030001155377,新規,0,2023-08-25,2023-08-25,ｃｏｌｓｕｍ株式会社,,株式会社,埼玉県,川越市,岸町３丁目２４－２５,,11,201,3501131,,,,,,,2023-08-25,1,,,,,コルサム,0
1949,9030001155674,新規,0,2023-08-25,2023-08-25,株式会社ＣＵＲＲＵＳ　　Ｄｅｔａｉｌｉｎｇ,,株式会社,埼玉県,川越市,大字下赤坂６３７番地６,,11,201,3501155,,,,,,,2023-08-25,1,,,,,クルスディテーリング,0
1957,9040001129792,新規,0,2023-08-25,2023-08-25,松村技研株式会社,,株式会社,千葉県,船橋市,本町２丁目２－７船橋本町プラザ４階ＣＢＴ船橋駅前通りテストセンター内,,12,204,2730005,,,,,,,2023-08-25,1,,,,,マツムラギケン,0
1962,9050003007748,新規,0,2023-08-25,2023-08-25,合同会社ケアプランせんじゅ,,合同会社,茨城県,那珂郡東海村,舟石川駅西１丁目４番１３号第一東住ビル１－Ｃ,,08,341,3191116,,,,,,,2023-08-25,1,,,,,ケアプランセンジュ,0
1965,9060001036285,新規,0,2023-08-25,2023-08-25,株式会社ランドファーム大越,,株式会社,栃木県,下野市,笹原２８１番地１,,09,216,3290402,,,,,,,2023-08-25,1,,,,,ランドファームオオコシ,0
1972,9080005007561,新規,0,2023-08-25,2023-08-25,一般社団法人歴史歌劇創造プロジェクト,,その他の設立登記法人,静岡県,藤枝市,善左衛門２丁目１８番地の４４,,22,214,4260053,,,,,,,2023-08-25,1,,,,,レキシカゲキソウゾウプロジェクト,0
1974,9100003007156,新規,0,2023-08-25,2023-08-25,富強合同会社,,合同会社,長野県,安曇野市,穂高６８６３－１３,,20,220,3998303,,,,,,,2023-08-25,1,,,,,フキョウ,0
1985,9120001257420,新規,0,2023-08-25,2023-08-25,ＡＮＧＬＥ株式会社,,株式会社,大阪府,大阪市西区,立売堀１丁目９番１号井上プロパティビル２０１号室,,27,106,5500012,,,,,,,2023-08-25,1,,,,,アングル,0
1986,9120001257602,新規,0,2023-08-25,2023-08-25,東源投資株式会社,,株式会社,大阪府,大阪市平野区,平野馬場１丁目５番２５号,,27,126,5470048,,,,,,,2023-08-25,1,,,,,トウゲントウシ,0
1987,9120001257643,新規,0,2023-08-25,2023-08-25,株式会社ポッシビリタ,,株式会社,大阪府,大阪市北区,鶴野町４－１１朝日プラザ梅田ビル２Ｆ－４０,,27,127,5300014,,,,,,,2023-08-25,1,,,,,ポッシビリタ,0
1992,9120101068107,新規,0,2023-08-25,2023-08-25,株式会社大勝商事,,株式会社,大阪府,松原市,小川５丁目２１番２５号,,27,217,5800002,,,,,,,2023-08-25,1,,,,,ダイカツショウジ,0
1997,9120901047978,新規,0,2023-08-25,2023-08-25,株式会社ブライト,,株式会社,大阪府,池田市,城南３丁目７番１８－１０６号,,27,204,5630025,,,,,,,2023-08-25,1,,,,,ブライト,0
1998,9120903004795,新規,0,2023-08-25,2023-08-25,合同会社Ｓｈｉｆｔ,,合同会社,大阪府,高槻市,芥川町１丁目１０番３０号リティアコート３０２,,27,207,5691123,,,,,,,2023-08-25,1,,,,,シフト,0
2000,9130001074939,新規,0,2023-08-25,2023-08-25,株式会社ＡＫＰＲＯ　ＣＯＮＳＴＲＵＣＴＩＯＮ,,株式会社,京都府,京都市左京区,岩倉長谷町１８７番地１ハイツ松尾１０２,,26,103,6060026,,,,,,,2023-08-25,1,,,,,エーケープロコンストラクション,0
2001,9130001075020,新規,0,2023-08-25,2023-08-25,Ｓａｌｔａｎｇｅ株式会社,,株式会社,京都府,京都市中京区,錦大宮町１１５番地３ＮＡＳビル５階,,26,104,6040000,,,,,,,2023-08-25,1,,,,,ソルタンジュ,0
2002,9130003008928,新規,0,2023-08-25,2023-08-25,九＿商事合同会社,00131665,合同会社,京都府,京都市左京区,下鴨貴船町４９－２貴船マンション３０２号室,,26,103,6060813,,,,,,,2023-08-25,1,,,,,キュウコウショウジ,0
2006,9140001131359,新規,0,2023-08-25,2023-08-25,株式会社すわや,,株式会社,兵庫県,たつの市,揖西町土師８６４番地,,28,229,6794017,,,,,,,2023-08-25,1,,,,,スワヤ,0
2008,9150001026673,新規,0,2023-08-25,2023-08-25,株式会社シルキーハウス,,株式会社,奈良県,天理市,柳本町２０２８番地１２,,29,204,6320052,,,,,,,2023-08-25,1,,,,,シルキーハウス,0
2009,9150003003043,新規,0,2023-08-25,2023-08-25,ＭＩＮＩ合同会社,,合同会社,奈良県,奈良市,三条町５９３－１７,,29,201,6308244,,,,,,,2023-08-25,1,,,,,ミニ,0
2014,9180001157730,新規,0,2023-08-25,2023-08-25,ア・レーズ株式会社,,株式会社,愛知県,名古屋市港区,多加良浦町４丁目２４９番地の１,,23,111,4550825,,,,,,,2023-08-25,1,,,,,アレーズ,0
2015,9180001157747,新規,0,2023-08-25,2023-08-25,株式会社アローズ,,株式会社,愛知県,日進市,竹の山４丁目１１０３番地４,,23,230,4700136,,,,,,,2023-08-25,1,,,,,アローズ,0
2016,9180001157755,新規,0,2023-08-25,2023-08-25,株式会社Ａｉｄ　Ｂｒｉｄｇｅ,,株式会社,愛知県,日進市,赤池１丁目２８０１－２０Ｄ,,23,230,4700125,,,,,,,2023-08-25,1,,,,,エイドブリッジ,0
2017,9180001157771,新規,0,2023-08-25,2023-08-25,株式会社輪人,,株式会社,愛知県,名古屋市緑区,神の倉４丁目１１３番地の１,,23,114,4580812,,,,,,,2023-08-25,1,,,,,リンド,0
2019,9180003025662,新規,0,2023-08-25,2023-08-25,合同会社Ｇｅ．Ｎｅｘｔ,,合同会社,愛知県,名古屋市緑区,東神の倉１丁目８１６番地,,23,114,4580808,,,,,,,2023-08-25,1,,,,,ジェネクスト,0
2022,9180303005810,新規,0,2023-08-25,2023-08-25,合同会社ハレオ・Ｂｉｚ,,合同会社,愛知県,みよし市,三好丘旭２丁目１７番地６,,23,236,4700203,,,,,,,2023-08-25,1,,,,,ハレオビズ,0
2025,9200003006057,新規,0,2023-08-25,2023-08-25,合同会社ピエール・ノワール,,合同会社,岐阜県,岐阜市,茜部寺屋敷１丁目１１８番地３,,21,201,5008267,,,,,,,2023-08-25,1,,,,,ピエールノワール,0
2028,9250001020245,新規,0,2023-08-25,2023-08-25,株式会社ＣＡＳＡ,,株式会社,山口県,萩市,大字呉服町２丁目６番地１,,35,204,7580072,,,,,,,2023-08-25,1,,,,,カーサ,0
2030,9260003004402,新規,0,2023-08-25,2023-08-25,合同会社Ｏｃｅａｎｕｓ,,合同会社,岡山県,岡山市北区,惣爪７５４番地２,,33,101,7011343,,,,,,,2023-08-25,1,,,,,オシアナス,0
2037,9290003014282,新規,0,2023-08-25,2023-08-25,合同会社ＺＥＲＯ,,合同会社,福岡県,八女郡広川町,大字新代１１７０－１サトゥルナリアＡ２０６,,40,544,8340115,,,,,,,2023-08-25,1,,,,,ゼロ,0
2038,9290005019131,新規,0,2023-08-25,2023-08-25,一般社団法人ＧＲＩＣＨ,,その他の設立登記法人,福岡県,糸島市,志摩師吉６４４番地２,,40,230,8191314,,,,,,,2023-08-25,1,,,,,ジーリッチ,0
2041,9290801029812,新規,0,2023-08-25,2023-08-25,株式会社フリーグッド,,株式会社,福岡県,北九州市八幡西区,香月西３丁目５番２６号,,40,109,8071103,,,,,,,2023-08-25,1,,,,,フリーグッド,0
2042,9290803004490,新規,0,2023-08-25,2023-08-25,合同会社Ｃｏｎｔｉｎｅｎｔ,,合同会社,福岡県,北九州市小倉南区,中曽根東４丁目１７番６号,,40,107,8000213,,,,,,,2023-08-25,1,,,,,コンチネント,0
2050,9330005010688,新規,0,2023-08-25,2023-08-25,一般社団法人ｄｅ　ｃｏｕｌｄ,,その他の設立登記法人,熊本県,熊本市北区,万楽寺町１０７７番地,,43,105,8615537,,,,,,,2023-08-25,1,,,,,デクッド,0
2054,9350003004426,新規,0,2023-08-25,2023-08-25,ライズフォーチュン合同会社,,合同会社,宮崎県,都城市,西町３７３８番地６ライズ霧島５０１,,45,202,8850076,,,,,,,2023-08-25,1,,,,,ライズフォーチュン,0
2060,9360001032452,新規,0,2023-08-25,2023-08-25,エル株式会社,,株式会社,沖縄県,宮古島市,平良字荷川取１２３４番地１,,47,214,9060008,,,,,,,2023-08-25,1,,,,,エル,0
2067,9430001089840,新規,0,2023-08-25,2023-08-25,株式会社ｂｅｉｎｇ‐ｉｓｈ,,株式会社,北海道,札幌市中央区,南一条西１６丁目１－３２３春野ビル内,,01,101,0600061,,,,,,,2023-08-25,1,,,,,ビーインギッシュ,0
2077,9490001010569,新規,0,2023-08-25,2023-08-25,株式会社ＲＥＡＬａｂ．Ｗｏｒｋｓ,,株式会社,高知県,南国市,領石６２０番地１,,39,204,7830056,,,,,,,2023-08-25,1,,,,,リアラボワークス,0
2078,9700150117894,新規,0,2023-08-25,2023-08-25,Ｆｏｓｈａｎ　Ｂａｏ　Ｎｉｓｕｏ　Ａｉ　Ｔｒａｄｉｎｇ　Ｃｏ．，Ｌｔｄ．,,外国会社等,,,,,,,,Ｒｏｏｍ　６１１，６ｔｈ　Ｆｌｏｏｒ，”Ｄａｓｈａｎｇａｎｇ”（Ｗｏｒｋｓｈｏｐ１），ｆｏｒｍｅｒ　Ｓｈｉｓｈａｎ　Ｆａｒｍ，Ｓｈｉｓｈａｎ　Ｔｏｗｎ　Ｆｏｓｈａｎ　Ｃｉｔｙ　Ｇｕａｎｇｄｏｎｇ　Ｐｒｏｖｉｎｃｅ５２８２２５　ＣＮ,,,,,,2023-08-25,1,,,,,フォーシャンシバオニースオアイマオイーヨウシェンゴンスー,0
2079,9700150119271,新規,0,2023-08-25,2023-08-25,ＤｏｎｇＧｕａｎＳｈｉ　ＪｉｎＭａｉＺｈｅ　Ｅｌｅｃｔｒｏｎｉｃ　Ｃｏｍｍｅｒｃｅ　Ｃｏ　Ｌｔｄ,,外国会社等,,,,,,,,ｄｏｎｇｋｅｌｕ１ｈａｏｚｏｎｇｓｈｉｊｉｄｉ６ｄｏｎｇ２ｌｏｕ２０６ｓｈｉｊｉｑｕ００００６７ｈａｏ　ｄｏｎｇｃｈｅｎｇｊｉｅｄａｏｔｏｎｇｓｈａｓｈｅｑｕｄｏｎｇｃｈｅｎｇｋｅｊｉｇｏｎｇｙｅｙｕａｎ　ｇｕａｎｇｄｏｎｇ　ｄｏｎｇｇｕａｎ　５２３０００　ＣＮ,,,,,,2023-08-25,1,,,,,ドンワンシジンマイジョアエレクトロニックコマースシーオーエルティディ,0
2080,9700150119288,新規,0,2023-08-25,2023-08-25,Ｓｈｅｎｚｈｅｎ　Ｑｉｄａｃｈｅｎｇ　Ｔｒａｄｉｎｇ　Ｃｏ．，Ｌｔｄ．,,外国会社等,,,,,,,,２６０１Ｋ１８，Ｙｉｎｇｌｏｎｇ　Ｚｈａｎｙｅ　Ｂｕｉｌｄｉｎｇ，Ｎｏ．６０２５，Ｓｈｅｎｎａｎ　Ａｖｅｎｕｅ，Ｔｉａｎ’ａｎ　Ｃｏｍｍｕｎｉｔｙ，Ｓｈａｔｏｕ　Ｓｕｂ－ｄｉｓｔｒｉｃｔ，Ｓｈｅｎｚｈｅｎ　Ｃｉｔｙ,,,,,,2023-08-25,1,,,,,シェンジェンシーチーダーチョンマオイーヨウシエンゴンスー,0
2081,9700150119305,新規,0,2023-08-25,2023-08-25,Ｚｈｏｎｇｓｈａｎ　Ｙａｎｈａｎｇ　Ｅ－ｃｏｍｍｅｒｃｅ　Ｃｏ．，Ｌｔｄ．,,外国会社等,,,,,,,,２０２　ＮＯ．１３２　Ｑｉｗａｎ　Ｎｏｒｔｈ　Ｒｏｄ　Ｄｏｎｇ　Ｑｕ，Ｚｈｏｎｇｓｈａｎ，Ｇｕａｎｇｄｏｎｇ，Ｃｈｉｎａ　Ｚｈｏｎｇｓｈａｎ　Ｇｕａｎｇｄｏｎｇ　５２８４０３　ＣＮ,,,,,,2023-08-25,1,,,,,ジヨンシヤンイエンハンイーコマースカンパニーリミテツド,0
2082,9700150119313,新規,0,2023-08-25,2023-08-25,Ｓｈｅｎｚｈｅｎ　Ｙｏｕｊｉｋｅ　Ｅ－Ｃｏｍｍｅｒｃｅ　Ｃｏ．，Ｌｔｄ,,外国会社等,,,,,,,,Ｒｏｏｍ　３０６，Ｅ　Ｂｕｉｌｄｉｎｇ，Ｈｕａｆｅｎｇ　Ｂａｏａｎ　Ｚｈｉｇｕ　Ｓｃｉｅｎｃｅ＆Ｔｅｃｈｎｏｌｏｇｙ　ＳＨＥＮＺＨＥＮ　ＧｕａｎｇＤｏｎｇ　５１８０００　ＣＮ,,,,,,2023-08-25,1,,,,,シエンジエンヨウジーカイーコマースカンパニーリミテツド,0
2083,9700150119321,新規,0,2023-08-25,2023-08-25,ＩＴＩＰＬＩＮＫ　ＨＫ　ＬＩＭＩＴＥＤ,,外国会社等,,,,,,,,７０５Ａ　ＳＩＬＶＥＲＣＯＲＤ　ＴＯＷＥＲ　２３０　ＣＡＮＴＯＮ　ＲＯＡＤ　ＴＳＩＭ　ＳＨＡ　ＴＳＵＩＫＬ　ＨＯＮＧＫＯＮＧ　９９９０７７　ＨＫ,,,,,,2023-08-25,1,,,,,アイテイーアイプリンクエイチケーリミテツド,0
