sequenceNumber,corporateNumber,process,correct,updateDate,changeDate,name,nameImageId,kind,prefectureName,cityName,streetNumber,addressImageId,prefectureCode,cityCode,postCode,addressOutside,addressOutsideImageId,closeDate,closeCause,successorCorporateNumber,changeCause,assignmentDate,latest,enName,enPrefectureName,enCityName,enAddressOutside,furigana,hihyoji
2,1010001047583,登記記録の閉鎖等,0,2025-12-03,2025-11-17,株式会社スズキフロリスト,,株式会社,東京都,中央区,銀座３丁目１２番９号,,13,102,1040061,,,2025-11-17,清算の結了等,,,2015-10-05,1,,,,,,0
8,1010001207187,登記記録の閉鎖等,0,2025-12-03,2025-11-06,株式会社Ｂ＆Ｗ,,株式会社,東京都,港区,六本木２丁目３－２ＶＯＲＴ六本木一丁目８階,,13,103,1060032,,,2025-11-06,清算の結了等,,,2020-02-04,1,,,,,ビーアンドダブリュ,0
9,1010001224067,登記記録の閉鎖等,0,2025-12-03,2025-11-18,株式会社ＧＲＩＴｚ,,株式会社,東京都,千代田区,内幸町２丁目１番１号,,13,101,1000011,,,2025-11-18,清算の結了等,,,2022-01-25,1,,,,,グリッツ,0
17,1010401099357,登記記録の閉鎖等,0,2025-12-03,2025-11-07,ＡＮＥＷ株式会社,,株式会社,東京都,目黒区,大橋１丁目６番１３号,,13,110,1530044,,,2025-11-07,清算の結了等,,,2015-10-05,1,,,,,アニュー,0
23,1010403023463,登記記録の閉鎖等,0,2025-12-03,2025-11-27,合同会社Ｇｏｏｄｅｓｔ,,合同会社,東京都,港区,浜松町２丁目２番１５号浜松町ダイヤビル２階,,13,103,1050013,,,2025-11-27,合併による解散等,5430001084713,令和７年８月１５日北海道虻田郡ニセコ町字有島１８番地３４株式会社ＬＯＯＰＯＲＴ（5430001084713）に合併し解散,2020-08-12,1,,,,,,0
34,1010701036200,登記記録の閉鎖等,0,2025-12-03,2025-11-26,株式会社ビットファクトリー,,株式会社,東京都,品川区,東五反田２丁目８番５号,,13,109,1410022,,,2025-11-26,清算の結了等,,,2018-07-31,1,,,,,ビットファクトリー,0
35,1010801001624,登記記録の閉鎖等,0,2025-12-03,2025-11-20,株式会社エッチ・ビー・アール,,株式会社,東京都,大田区,久が原６丁目７番２８号,,13,111,1460085,,,2025-11-20,清算の結了等,,,2015-10-05,1,,,,,,0
43,1011001161093,登記記録の閉鎖等,0,2025-12-03,2025-11-10,ＡＭＡＳＳ株式会社,,株式会社,東京都,渋谷区,神宮前６丁目２３番４号桑野ビル２階,,13,113,1500001,,,2025-11-10,清算の結了等,,,2024-04-09,1,,,,,アマス,0
54,1011101098608,登記記録の閉鎖等,0,2025-12-03,2025-11-06,株式会社ウィンワーク,,株式会社,東京都,新宿区,西新宿３丁目２－７,,13,104,1600023,,,2025-11-06,清算の結了等,,,2022-04-22,1,,,,,ウィンワーク,0
61,1011301000637,登記記録の閉鎖等,0,2025-12-03,2025-11-26,株式会社和泉山内土建,,株式会社,東京都,杉並区,和泉４丁目１２番１号,,13,115,1680063,,,2025-11-26,清算の結了等,,,2015-10-05,1,,,,,イズミヤマウチドケン,0
65,1011402002986,登記記録の閉鎖等,0,2025-12-03,2025-11-26,有限会社桑原電気工事,,有限会社,東京都,板橋区,大山町２１番８－５０１号,,13,119,1730023,,,2025-11-26,清算の結了等,,,2015-10-05,1,,,,,クワバラデンキコウジ,0
70,1011601011615,登記記録の閉鎖等,0,2025-12-03,2025-12-01,栄光ビジネス株式会社,,株式会社,東京都,練馬区,石神井台８丁目１８番１３号,,13,120,1770045,,,2025-12-01,清算の結了等,,,2015-10-05,1,,,,,エイコウビジネス,0
98,1021002003137,登記記録の閉鎖等,0,2025-12-03,2025-11-12,有限会社太陽印刷,,有限会社,神奈川県,藤沢市,村岡東３丁目１４番地の１８,,14,205,2510012,,,2025-11-12,清算の結了等,,,2015-10-05,1,,,,,タイヨウインサツ,0
100,1021002044222,登記記録の閉鎖等,0,2025-12-03,2025-11-11,有限会社マーキス,,有限会社,神奈川県,座間市,相武台２丁目３４番３０号,,14,216,2520011,,,2025-11-11,清算の結了等,,,2015-10-05,1,,,,,マーキス,0
121,1040003015809,登記記録の閉鎖等,0,2025-12-03,2025-11-12,合同会社すこっぷ,,合同会社,千葉県,館山市,北条１８３４番１号ＷＥＥＫＥＮＤ,,12,205,2940045,,,2025-11-12,清算の結了等,,,2020-07-28,1,,,,,スコップ,0
126,1050001006032,登記記録の閉鎖等,0,2025-12-03,2025-11-26,株式会社ワンコイン,,株式会社,茨城県,水戸市,笠原町１２５６番地の３７,,08,201,3100852,,,2025-11-26,清算の結了等,,,2015-10-05,1,,,,,ワンコイン,0
127,1050001008284,登記記録の閉鎖等,0,2025-12-03,2025-11-21,株式会社スガヤ工務店,,株式会社,茨城県,笠間市,仁古田７７４番地２,,08,216,3091714,,,2025-11-21,清算の結了等,,,2015-10-05,1,,,,,スガヤコウムテン,0
132,1050002000422,登記記録の閉鎖等,0,2025-12-03,2025-11-28,有限会社岩崎電機商会,,有限会社,茨城県,水戸市,青柳町４６９０番地の４,,08,201,3100004,,,2025-11-28,清算の結了等,,,2015-10-05,1,,,,,イワサキデンキショウカイ,0
134,1060001009281,登記記録の閉鎖等,0,2025-12-03,2025-12-01,株式会社上広製作所,,株式会社,栃木県,真岡市,東大島１０８４番地,,09,209,3214322,,,2025-12-01,清算の結了等,,,2015-10-05,1,,,,,カミヒロセイサクショ,0
143,1110002032178,登記記録の閉鎖等,0,2025-12-03,2025-12-01,有限会社佐藤建築工業,,有限会社,新潟県,小千谷市,大字三仏生４０３４番地子,,15,208,9470051,,,2025-12-01,清算の結了等,,,2015-10-05,1,,,,,サトウケンチクコウギョウ,0
145,1110005007128,登記記録の閉鎖等,0,2025-12-03,2025-11-28,長福寺,,その他の設立登記法人,新潟県,柏崎市,大字善根４８７８番地,,15,205,9451432,,,2025-11-28,清算の結了等,,,2015-10-05,1,,,,,チョウフクジ,0
148,1120001074427,登記記録の閉鎖等,0,2025-12-03,2025-12-01,株式会社イシダ,,株式会社,大阪府,大阪市北区,中之島５丁目３番６８号株式会社ロイヤルホテル１２６７号室,,27,127,5300005,,,2025-12-01,清算の結了等,,,2015-10-05,1,,,,,イシダ,0
165,1120002023473,登記記録の閉鎖等,0,2025-12-03,2025-12-01,有限会社ロックブリッジ,,有限会社,大阪府,大阪市西区,立売堀１丁目２番２号,,27,106,5500012,,,2025-12-01,合併による解散等,7120001068968,令和７年１２月１日大阪市北区天神橋一丁目１４番１２号株式会社ハトヤ（7120001068968）に合併し解散,2015-10-05,1,,,,,ロックブリッジ,0
197,1140003018495,登記記録の閉鎖等,0,2025-12-03,2025-12-01,日新産業合同会社,,合同会社,兵庫県,三木市,別所町下石野１４９１－１,,28,215,6730453,,,2025-12-01,清算の結了等,,,2022-12-21,1,,,,,ニッシンサンギョウ,0
199,1140005015680,登記記録の閉鎖等,0,2025-12-03,2025-12-01,特定非営利活動法人加古川人権ネットワーク,,その他の設立登記法人,兵庫県,加古川市,志方町投松２５８番地の２,,28,210,6750313,,,2025-12-01,清算の結了等,,,2015-10-05,1,,,,,カコガワジンケンネットワーク,0
204,1170001000155,登記記録の閉鎖等,0,2025-12-03,2025-11-28,株式会社Ｋ,,株式会社,大阪府,大阪市中央区,北浜２丁目３番９号,,27,128,5410041,,,2025-11-28,清算の結了等,,,2015-10-05,1,,,,,ケー,0
206,1180001141659,登記記録の閉鎖等,0,2025-12-03,2025-11-26,株式会社ジープラン,,株式会社,愛知県,一宮市,大和町苅安賀字上西之杁１１２番地,,23,203,4910934,,,2025-11-26,清算の結了等,,,2020-06-22,1,,,,,ジープラン,0
214,1180003025843,登記記録の閉鎖等,0,2025-12-03,2025-11-28,合同会社ｂｌａｎｃ　ｃｏｃｏ,,合同会社,愛知県,名古屋市西区,赤城町１５８番地,,23,104,4520813,,,2025-11-28,清算の結了等,,,2023-10-16,1,,,,,ブランココ,0
216,1180301002346,登記記録の閉鎖等,0,2025-12-03,2025-11-11,レッドバロン川越株式会社,,株式会社,愛知県,岡崎市,大平町字市木２８番地,,23,202,4440007,,,2025-11-11,合併による解散等,7180301002266,令和７年１１月１日愛知県岡崎市藤川町字境松西１番地株式会社レッドバロン（7180301002266）に合併し解散,2015-10-05,1,,,,,レッドバロンカワゴエ,0
219,1180302003244,登記記録の閉鎖等,0,2025-12-03,2025-11-11,レッドバロン磯子有限会社,,有限会社,愛知県,岡崎市,大平町字市木２８番地,,23,202,4440007,,,2025-11-11,合併による解散等,7180301002266,令和７年１１月１日愛知県岡崎市藤川町字境松西１番地株式会社レッドバロン（7180301002266）に合併し解散,2015-10-05,1,,,,,レッドバロンイソゴ,0
220,1180302003277,登記記録の閉鎖等,0,2025-12-03,2025-11-11,レッドバロン新居浜有限会社,,有限会社,愛知県,岡崎市,大平町字市木２８番地,,23,202,4440007,,,2025-11-11,合併による解散等,7180301002266,令和７年１１月１日愛知県岡崎市藤川町字境松西１番地株式会社レッドバロン（7180301002266）に合併し解散,2015-10-05,1,,,,,レッドバロンニイハマ,0
221,1180302004184,登記記録の閉鎖等,0,2025-12-03,2025-11-11,レッドバロン石川有限会社,,有限会社,愛知県,岡崎市,大平町字市木２８番地,,23,202,4440007,,,2025-11-11,合併による解散等,7180301002266,令和７年１１月１日愛知県岡崎市藤川町字境松西１番地株式会社レッドバロン（7180301002266）に合併し解散,2015-10-05,1,,,,,レッドバロンイシカワ,0
233,1240001032612,登記記録の閉鎖等,0,2025-12-03,2025-11-26,株式会社ワダ,,株式会社,広島県,福山市,駅家町大字倉光３４５番地の５,,34,207,7201132,,,2025-11-26,清算の結了等,,,2015-10-05,1,,,,,ワダ,0
259,1310001002236,登記記録の閉鎖等,0,2025-12-03,2025-11-26,山口園商事株式会社,,株式会社,長崎県,長崎市,文教町８番２号,,42,201,8528131,,,2025-11-26,清算の結了等,,,2015-10-05,1,,,,,ヤマグチエンショウジ,0
260,1310003004437,登記記録の閉鎖等,0,2025-12-03,2025-11-28,合同会社中尾塾植松校,,合同会社,長崎県,大村市,玖島３丁目７０３番地７,,42,205,8560834,,,2025-11-28,清算の結了等,,,2022-09-05,1,,,,,ナカオジュクウエマツコウ,0
271,1370802001216,登記記録の閉鎖等,0,2025-12-03,2025-11-27,有限会社おおほり,,有限会社,宮城県,亘理郡亘理町,逢隈田沢字鈴木堀９２番地の１,00082159,04,361,9892383,,,2025-11-27,清算の結了等,,,2015-10-05,1,,,,,オオホリ,0
287,1450001006207,登記記録の閉鎖等,0,2025-12-03,2025-12-01,株式会社プロ・シール,,株式会社,北海道,旭川市,春光台四条８丁目１０番地の６,,01,204,0718144,,,2025-12-01,清算の結了等,,,2015-10-05,1,,,,,プロシール,0
293,1480001008704,登記記録の閉鎖等,0,2025-12-03,2025-12-01,株式会社ＢＥＬＬ,,株式会社,徳島県,徳島市,南矢三町２丁目５番５１号,,36,201,7700005,,,2025-12-01,清算の結了等,,,2015-10-05,1,,,,,ベル,0
301,2010401022697,登記記録の閉鎖等,0,2025-12-03,2025-11-10,日本精密株式会社,,株式会社,東京都,港区,西新橋３丁目１３番５号,,13,103,1050003,,,2025-11-10,清算の結了等,,,2015-10-05,1,,,,,ニホンセイミツ,0
303,2010401170538,登記記録の閉鎖等,0,2025-12-03,2025-11-07,株式会社Ｊ‐Ｗｅｌｆａｒｅ,,株式会社,東京都,港区,芝浦１丁目６－４１グローバルフロントタワー２５０２,,13,103,1050023,,,2025-11-07,清算の結了等,,,2022-10-31,1,,,,,ジェイウェルファ,0
312,2010701026068,登記記録の閉鎖等,0,2025-12-03,2025-11-27,株式会社デュ・パン・フランセ,,株式会社,東京都,品川区,豊町１丁目１８番３－３０３号,,13,109,1420042,,,2025-11-27,清算の結了等,,,2015-10-05,1,,,,,,0
336,2011101097699,登記記録の閉鎖等,0,2025-12-03,2025-11-07,株式会社ＭＯＫＯＳ,,株式会社,東京都,新宿区,西新宿３丁目３番１３号西新宿水間ビル６階,,13,104,1600023,,,2025-11-07,清算の結了等,,,2022-02-03,1,,,,,モコズ,0
344,2011605001925,登記記録の閉鎖等,0,2025-12-03,2025-11-28,医療法人社団みらい,,その他の設立登記法人,東京都,中央区,日本橋小伝馬町１４番７号,,13,102,1030001,,,2025-11-28,清算の結了等,,,2015-10-05,1,,,,,ミライ,0
345,2011701005887,登記記録の閉鎖等,0,2025-12-03,2025-11-28,株式会社中島徽章製作所,00056436,株式会社,東京都,江戸川区,松島１丁目３５番６号,,13,123,1320031,,,2025-11-28,清算の結了等,,,2015-10-05,1,,,,,ナカジマキショウセイサクショ,0
346,2011702010977,登記記録の閉鎖等,0,2025-12-03,2025-11-25,丸善物流有限会社,,有限会社,東京都,江戸川区,東瑞江２丁目９番１５号,,13,123,1320014,,,2025-11-25,清算の結了等,,,2015-10-05,1,,,,,マルゼンブツリュウ,0
350,2012401039960,登記記録の閉鎖等,0,2025-12-03,2025-12-01,ＬｅＣｏプロパティー株式会社,,株式会社,東京都,武蔵野市,吉祥寺東町２丁目３５番１１号,,13,203,1800002,,,2025-12-01,清算の結了等,,,2022-12-14,1,,,,,レコプロパティ,0
365,2013402001686,登記記録の閉鎖等,0,2025-12-03,2025-12-01,有限会社青木屋,,有限会社,東京都,多摩市,諏訪５丁目６番地３－１０７,,13,224,2060024,,,2025-12-01,清算の結了等,,,2015-10-05,1,,,,,アオキヤ,0
382,2030003007582,登記記録の閉鎖等,0,2025-12-03,2025-11-25,合同会社オオルリ工業,,合同会社,埼玉県,加須市,愛宕２丁目５番５号,,11,210,3470057,,,2025-11-25,清算の結了等,,,2015-10-05,1,,,,,オオルリコウギョウ,0
388,2040001034677,登記記録の閉鎖等,0,2025-12-03,2025-11-10,株式会社セントラル・エデュケーション,,株式会社,千葉県,千葉市中央区,中央４丁目１０番１２号,,12,101,2600013,,,2025-11-10,清算の結了等,,,2015-10-05,1,,,,,セントラルエデュケーション,0
401,2050002031433,登記記録の閉鎖等,0,2025-12-03,2025-11-26,益子米穀有限会社,,有限会社,茨城県,日立市,大みか町２丁目６番１０号,,08,202,3191221,,,2025-11-26,清算の結了等,,,2015-10-05,1,,,,,マシコベイコク,0
412,2080102000632,登記記録の閉鎖等,0,2025-12-03,2025-11-28,有限会社エルアンドエム商会,,有限会社,静岡県,沼津市,住吉町７番１５号,,22,203,4100816,,,2025-11-28,清算の結了等,,,2015-10-05,1,,,,,エルアンドエムショウカイ,0
422,2120001097237,登記記録の閉鎖等,0,2025-12-03,2025-12-01,株式会社キッズインテグレーション,,株式会社,大阪府,大阪市中央区,本町２丁目３番８号,,27,128,5410053,,,2025-12-01,合併による解散等,5120001077863,令和７年１２月１日大阪市中央区本町二丁目３番８号株式会社キッズ・コーポレーション（5120001077863）に合併し解散,2015-10-05,1,,,,,キッズインテグレーション,0
462,2140005024227,登記記録の閉鎖等,0,2025-12-03,2025-11-26,一般社団法人ＬＳＢ－心身学協会,,その他の設立登記法人,兵庫県,神戸市東灘区,森北町７丁目３－１９,,28,101,6580001,,,2025-11-26,清算の結了等,,,2018-08-03,1,,,,,エルエスビーシンシンガククキョウカイ,0
482,2180301002345,登記記録の閉鎖等,0,2025-12-03,2025-11-11,レッドバロン京都北株式会社,,株式会社,愛知県,岡崎市,大平町字市木２８番地,,23,202,4440007,,,2025-11-11,合併による解散等,7180301002266,令和７年１１月１日愛知県岡崎市藤川町字境松西１番地株式会社レッドバロン（7180301002266）に合併し解散,2015-10-05,1,,,,,レッドバロンキョウトキタ,0
483,2180301002353,登記記録の閉鎖等,0,2025-12-03,2025-11-11,レッドバロン茅ヶ崎株式会社,,株式会社,愛知県,岡崎市,大平町字市木２８番地,,23,202,4440007,,,2025-11-11,合併による解散等,7180301002266,令和７年１１月１日愛知県岡崎市藤川町字境松西１番地株式会社レッドバロン（7180301002266）に合併し解散,2015-10-05,1,,,,,レッドバロンチガサキ,0
487,2180302003061,登記記録の閉鎖等,0,2025-12-03,2025-11-11,レッドバロン諏訪店有限会社,,有限会社,愛知県,岡崎市,大平町字市木２８番地,,23,202,4440007,,,2025-11-11,合併による解散等,7180301002266,令和７年１１月１日愛知県岡崎市藤川町字境松西１番地株式会社レッドバロン（7180301002266）に合併し解散,2015-10-05,1,,,,,レッドバロンスワテン,0
488,2180302003243,登記記録の閉鎖等,0,2025-12-03,2025-11-11,レッドバロン岡山中庄有限会社,,有限会社,愛知県,岡崎市,大平町字市木２８番地,,23,202,4440007,,,2025-11-11,合併による解散等,7180301002266,令和７年１１月１日愛知県岡崎市藤川町字境松西１番地株式会社レッドバロン（7180301002266）に合併し解散,2015-10-05,1,,,,,レッドバロンオカヤマナカショウ,0
489,2180302003284,登記記録の閉鎖等,0,2025-12-03,2025-11-11,レッドバロン船橋十四号有限会社,,有限会社,愛知県,岡崎市,大平町字市木２８番地,,23,202,4440007,,,2025-11-11,合併による解散等,7180301002266,令和７年１１月１日愛知県岡崎市藤川町字境松西１番地株式会社レッドバロン（7180301002266）に合併し解散,2015-10-05,1,,,,,レッドバロンフナバシジュウヨンゴウ,0
490,2180302004183,登記記録の閉鎖等,0,2025-12-03,2025-11-11,レッドバロン山形有限会社,,有限会社,愛知県,岡崎市,大平町字市木２８番地,,23,202,4440007,,,2025-11-11,合併による解散等,7180301002266,令和７年１１月１日愛知県岡崎市藤川町字境松西１番地株式会社レッドバロン（7180301002266）に合併し解散,2015-10-05,1,,,,,レッドバロンヤマガタ,0
491,2180302021666,登記記録の閉鎖等,0,2025-12-03,2025-11-27,有限会社尾上,,有限会社,愛知県,豊田市,藤岡飯野町大川ケ原１１６１番地１９０,,23,211,4700451,,,2025-11-27,清算の結了等,,,2015-10-05,1,,,,,オノウエ,0
509,2290001033043,登記記録の閉鎖等,0,2025-12-03,2025-11-10,株式会社寿苑,,株式会社,福岡県,糸島市,高田４丁目１番１０号,,40,230,8191102,,,2025-11-10,清算の結了等,,,2015-10-05,1,,,,,コトブキエン,0
522,2290802013697,登記記録の閉鎖等,0,2025-12-03,2025-11-25,有限会社柿原ホーム商事,,有限会社,福岡県,北九州市八幡西区,力丸町２０番２３号,,40,109,8070802,,,2025-11-25,清算の結了等,,,2015-10-05,1,,,,,カキハラホームショウジ,0
529,2330003009846,登記記録の閉鎖等,0,2025-12-03,2025-11-27,アデリス合同会社,,合同会社,熊本県,熊本市中央区,水道町６番３－３０６号,,43,101,8600844,,,2025-11-27,清算の結了等,,,2023-05-15,1,,,,,アデリス,0
533,2340002000061,登記記録の閉鎖等,0,2025-12-03,2025-11-20,鹿児島エアーサービス有限会社,,有限会社,鹿児島県,鹿児島市,西佐多町２４８１番地,,46,201,8911301,,,2025-11-20,清算の結了等,,,2015-10-05,1,,,,,カゴシマエアーサービス,0
552,2410005005843,登記記録の閉鎖等,0,2025-12-03,2025-12-01,株式会社ドリームＴＡＺＡＷＡＫＯファーム,,株式会社,秋田県,仙北市,田沢湖生保内字船場５７番地,,05,215,0141201,,,2025-12-01,合併による解散等,5410001001686,令和７年１２月１日秋田市新屋朝日町１７番３号高谷林業株式会社（5410001001686）に合併し解散,2015-10-05,1,,,,,ドリームタザワコファーム,0
555,2430002008789,登記記録の閉鎖等,0,2025-12-03,2025-11-28,有限会社サダヤスデンタルワーク,,有限会社,北海道,札幌市南区,澄川五条１３丁目１２番８号,,01,106,0050005,,,2025-11-28,清算の結了等,,,2015-10-05,1,,,,,サダヤスデンタルワーク,0
593,3010701043780,登記記録の閉鎖等,0,2025-12-03,2025-11-27,株式会社ネオフリート,,株式会社,東京都,品川区,西五反田１丁目２６番２号五反田サンハイツ９１１,,13,109,1410031,,,2025-11-27,清算の結了等,,,2023-01-31,1,,,,,ネオフリート,0
628,3011503003865,登記記録の閉鎖等,0,2025-12-03,2025-12-01,合同会社Ｒｉｖｅｒ　Ｖｉｌｌａｇｅ,,合同会社,東京都,荒川区,荒川５丁目２８－１久米ハイツ１０１,,13,118,1160002,,,2025-12-01,清算の結了等,,,2019-01-25,1,,,,,リバービレッジ,0
632,3011801011504,登記記録の閉鎖等,0,2025-12-03,2025-11-27,株式会社ＦＪＤＮ,,株式会社,東京都,足立区,中央本町４丁目２３番１９号,,13,121,1210011,,,2025-11-27,清算の結了等,,,2015-10-05,1,,,,,エフジェイディーエヌ,0
653,3021001063881,登記記録の閉鎖等,0,2025-12-03,2025-11-10,株式会社エクセル,,株式会社,神奈川県,綾瀬市,深谷中３丁目１１番４３号,,14,218,2521107,,,2025-11-10,清算の結了等,,,2018-01-12,1,,,,,エクセル,0
675,3040001127471,登記記録の閉鎖等,0,2025-12-03,2025-11-06,株式会社ＧＣＫＩ,,株式会社,千葉県,柏市,松葉町６丁目３７番地１１,,12,217,2770827,,,2025-11-06,清算の結了等,,,2023-03-10,1,,,,,ジーシーケイアイ,0
697,3120001069144,登記記録の閉鎖等,0,2025-12-03,2025-12-01,株式会社バルテック,,株式会社,徳島県,徳島市,沖浜東３丁目１５番地,,36,201,7708053,,,2025-12-01,合併による解散等,4480001010814,令和７年１２月１日徳島市沖浜東三丁目１５番地ノヴィル株式会社（4480001010814）に合併し解散,2015-10-05,1,,,,,バルテック,0
702,3120001240159,登記記録の閉鎖等,0,2025-12-03,2025-11-28,株式会社白庵,,株式会社,大阪府,大阪市淀川区,新高６丁目１２－７三和マンション１Ｆ,,27,123,5320033,,,2025-11-28,清算の結了等,,,2021-09-06,1,,,,,ビャクアン,0
711,3120003012853,登記記録の閉鎖等,0,2025-12-03,2025-11-25,合同会社Ｂ．Ｉスクール,,合同会社,大阪府,大阪市東淀川区,東中島１丁目１９番４号新大阪ＮＬＣビル,,27,114,5330033,,,2025-11-25,合併による解散等,9120001127648,令和７年１０月１日東京都港区三田一丁目３番３１号ＦＯＲＥＣＡＳＴ三田株式会社ＡＷＡＲＥＮＥＳＳ（9120001127648）に合併し解散,2017-05-29,1,,,,,ビーアイスクール,0
715,3120101023117,登記記録の閉鎖等,0,2025-12-03,2025-11-28,株式会社ＡＦ２,,株式会社,大阪府,堺市南区,三原台１丁１番３号ジョイパーク３階,,27,145,5900111,,,2025-11-28,清算の結了等,,,2015-10-05,1,,,,,エイエフツー,0
749,3140005024770,登記記録の閉鎖等,0,2025-12-03,2025-11-28,一般社団法人在日ベトナム人友の会,,その他の設立登記法人,兵庫県,神戸市灘区,篠原北町１丁目８番２５号イエズス会神戸修道院内,,28,102,6570068,,,2025-11-28,清算の結了等,,,2019-09-02,1,,,,,ザイニチベトナムジントモノカイ,0
751,3160001012728,登記記録の閉鎖等,0,2025-12-03,2025-12-01,株式会社カードックオオニシ,,株式会社,滋賀県,草津市,馬場町２０７番地４０,,25,206,5250043,,,2025-12-01,清算の結了等,,,2015-10-05,1,,,,,カードックオオニシ,0
754,3160001018683,登記記録の閉鎖等,0,2025-12-03,2025-12-01,株式会社ティナノ,,株式会社,滋賀県,東近江市,平田町２５１番地２０,,25,213,5270087,,,2025-12-01,清算の結了等,,,2015-10-05,1,,,,,ティナノ,0
769,3180003004291,登記記録の閉鎖等,0,2025-12-03,2025-12-01,加藤辰合資会社,,合資会社,愛知県,名古屋市中村区,日ノ宮町４丁目７２番地,,23,105,4530823,,,2025-12-01,清算の結了等,,,2015-10-05,1,,,,,カトウタツ,0
774,3180301017292,登記記録の閉鎖等,0,2025-12-03,2025-12-01,株式会社サンローレン,,株式会社,愛知県,安城市,篠目町３丁目２３番地４,,23,212,4460073,,,2025-12-01,清算の結了等,,,2015-10-05,1,,,,,サンローレン,0
777,3180302003267,登記記録の閉鎖等,0,2025-12-03,2025-11-11,レッドバロン城陽有限会社,,有限会社,愛知県,岡崎市,大平町字市木２８番地,,23,202,4440007,,,2025-11-11,合併による解散等,7180301002266,令和７年１１月１日愛知県岡崎市藤川町字境松西１番地株式会社レッドバロン（7180301002266）に合併し解散,2015-10-05,1,,,,,レッドバロンジョウヨウ,0
778,3180302003275,登記記録の閉鎖等,0,2025-12-03,2025-11-11,レッドバロン取手有限会社,,有限会社,愛知県,岡崎市,大平町字市木２８番地,,23,202,4440007,,,2025-11-11,合併による解散等,7180301002266,令和７年１１月１日愛知県岡崎市藤川町字境松西１番地株式会社レッドバロン（7180301002266）に合併し解散,2015-10-05,1,,,,,レッドバロントリデ,0
779,3180302004182,登記記録の閉鎖等,0,2025-12-03,2025-11-11,オートセンター広島有限会社,,有限会社,愛知県,岡崎市,大平町字市木２８番地,,23,202,4440007,,,2025-11-11,合併による解散等,7180301002266,令和７年１１月１日愛知県岡崎市藤川町字境松西１番地株式会社レッドバロン（7180301002266）に合併し解散,2015-10-05,1,,,,,オートセンターヒロシマ,0
785,3200001024660,登記記録の閉鎖等,0,2025-12-03,2025-11-28,株式会社アート造園,,株式会社,岐阜県,高山市,千島町５２０番地１,,21,203,5060032,,,2025-11-28,清算の結了等,,,2015-10-05,1,,,,,アートゾウエン,0
793,3230002003090,登記記録の閉鎖等,0,2025-12-03,2025-12-01,有限会社プランネット,,有限会社,富山県,富山市,稲荷町１丁目３番１９号,,16,201,9300012,,,2025-12-01,清算の結了等,,,2015-10-05,1,,,,,プランネット,0
797,3260001005770,登記記録の閉鎖等,0,2025-12-03,2025-11-28,福井興産株式会社,,株式会社,岡山県,岡山市北区,春日町３番１０号,,33,101,7000905,,,2025-11-28,清算の結了等,,,2015-10-05,1,,,,,フクイコウサン,0
802,3290001071471,登記記録の閉鎖等,0,2025-12-03,2025-11-05,株式会社日本イー・コム,,株式会社,福岡県,福岡市博多区,冷泉町２番９号,,40,132,8120039,,,2025-11-05,清算の結了等,,,2015-10-05,1,,,,,ニホンイーコム,0
814,3290801007897,登記記録の閉鎖等,0,2025-12-03,2025-12-02,株式会社北九州フレッシュ,,株式会社,福岡県,北九州市小倉南区,下吉田４丁目１５番５号,,40,107,8000203,,,2025-12-02,清算の結了等,,,2015-10-05,1,,,,,キタキュウシュウフレッシュ,0
820,3300005000029,登記記録の閉鎖等,0,2025-12-03,2025-12-02,一般社団法人佐賀県楠風会,,その他の設立登記法人,佐賀県,佐賀市,八丁畷町８番１号,,41,201,8490925,,,2025-12-02,清算の結了等,,,2015-10-05,1,,,,,サガケンナンプウカイ,0
833,3360003007177,登記記録の閉鎖等,0,2025-12-03,2025-11-28,合同会社暁,,合同会社,沖縄県,沖縄市,山内１丁目１１番５号,,47,211,9040034,,,2025-11-28,清算の結了等,,,2015-10-05,1,,,,,アカツキ,0
841,3410001010210,登記記録の閉鎖等,0,2025-12-03,2025-12-01,株式会社三高水産,,株式会社,秋田県,男鹿市,船川港双六字館山１２２番地,,05,206,0100533,,,2025-12-01,清算の結了等,,,2015-10-05,1,,,,,サンコウスイサン,0
845,3450001002625,登記記録の閉鎖等,0,2025-12-03,2025-12-01,株式会社不動産情報センター,,株式会社,北海道,旭川市,四条通４丁目１３６０番地ＮＳハイツ１階,,01,204,0700034,,,2025-12-01,清算の結了等,,,2015-10-05,1,,,,,フドウサンジョウホウセンター,0
846,3460101001708,登記記録の閉鎖等,0,2025-12-03,2025-11-27,丸徳運輸株式会社,,株式会社,北海道,帯広市,東一条南６丁目９番地,,01,207,0800801,,,2025-11-27,清算の結了等,,,2015-10-05,1,,,,,マルトクウンユ,0
848,3460103000955,登記記録の閉鎖等,0,2025-12-03,2025-11-26,合同会社おひさま,,合同会社,北海道,帯広市,西二十一条南５丁目２７番地２Ｆｕｊｉ１０５号室,,01,207,0802471,,,2025-11-26,清算の結了等,,,2015-10-05,1,,,,,オヒサマ,0
859,4010001123407,登記記録の閉鎖等,0,2025-12-03,2025-11-07,タスクネットワーク株式会社,,株式会社,千葉県,船橋市,海神４丁目６番１７号,,12,204,2730021,,,2025-11-07,清算の結了等,,,2015-10-05,1,,,,,タスクネットワーク,0
860,4010001211426,登記記録の閉鎖等,0,2025-12-03,2025-11-06,株式会社ＭＥＬＬＯＷ,,株式会社,東京都,港区,六本木２丁目３－２ＶＯＲＴ六本木一丁目８階,,13,103,1060032,,,2025-11-06,清算の結了等,,,2020-08-11,1,,,,,メロウ,0
863,4010002025131,登記記録の閉鎖等,0,2025-12-03,2025-11-27,有限会社丸十高橋,00049826,有限会社,東京都,江東区,豊洲６丁目５番１号,,13,108,1350061,,,2025-11-27,清算の結了等,,,2015-10-05,1,,,,,マルジュウタカハシ,0
868,4010101008474,登記記録の閉鎖等,0,2025-12-03,2025-12-01,株式会社ランドサービス,,株式会社,東京都,八王子市,横川町５０６番地,,13,201,1930823,,,2025-12-01,清算の結了等,,,2015-10-05,1,,,,,ランドサービス,0
889,4010601065544,登記記録の閉鎖等,0,2025-12-03,2025-11-27,あい株式会社,,株式会社,東京都,江東区,有明３丁目７番２６号有明フロンティアビルＢ棟９階,,13,108,1350063,,,2025-11-27,清算の結了等,,,2024-07-11,1,,,,,アイ,0
892,4010701020333,登記記録の閉鎖等,0,2025-12-03,2025-11-27,大日テクノ株式会社,,株式会社,東京都,品川区,西五反田７丁目１７番５号４Ｆ,,13,109,1410031,,,2025-11-27,清算の結了等,,,2015-10-05,1,,,,,ダイニチテクノ,0
912,4011101051019,登記記録の閉鎖等,0,2025-12-03,2025-11-06,株式会社濱田企画,,株式会社,東京都,新宿区,新宿１丁目２９番７号,,13,104,1600022,,,2025-11-06,清算の結了等,,,2015-10-05,1,,,,,ハマダキカク,0
914,4011101087608,登記記録の閉鎖等,0,2025-12-03,2025-11-06,アウルクリーフ株式会社,,株式会社,東京都,新宿区,歌舞伎町２丁目２５番８－１２５号,,13,104,1600021,,,2025-11-06,清算の結了等,,,2019-05-16,1,,,,,アウルクリーフ,0
916,4011101108545,登記記録の閉鎖等,0,2025-12-03,2025-11-07,株式会社Ｇ防衛隊,,株式会社,東京都,新宿区,西新宿３丁目７番３０号フロンティアグラン西新宿１０１,,13,104,1600023,,,2025-11-07,清算の結了等,,,2024-08-23,1,,,,,ジーボウエイタイ,0
921,4011401000807,登記記録の閉鎖等,0,2025-12-03,2025-12-02,株式会社エイ・エム,,株式会社,東京都,板橋区,向原３丁目４番９号,,13,119,1730036,,,2025-12-02,清算の結了等,,,2015-10-05,1,,,,,エイエム,0
932,4011601013757,登記記録の閉鎖等,0,2025-12-03,2025-12-01,株式会社サンライズ,,株式会社,東京都,練馬区,東大泉１丁目２０番３６号,,13,120,1780063,,,2025-12-01,清算の結了等,,,2015-10-05,1,,,,,サンライズ,0
938,4012402005043,登記記録の閉鎖等,0,2025-12-03,2025-12-01,有限会社神農商店,,有限会社,東京都,小金井市,桜町２丁目１２番３９号,,13,210,1840005,,,2025-12-01,清算の結了等,,,2015-10-05,1,,,,,カンノウショウテン,0
952,4021001000454,登記記録の閉鎖等,0,2025-12-03,2025-11-14,関東設備工業株式会社,,株式会社,神奈川県,藤沢市,大庭１０２５番地７,,14,205,2510861,,,2025-11-14,清算の結了等,,,2015-10-05,1,,,,,カントウセツビコウギョウ,0
955,4021002002202,登記記録の閉鎖等,0,2025-12-03,2025-10-31,有限会社湘南江ノ島ダイビング,,有限会社,神奈川県,藤沢市,城南１丁目７番７号,,14,205,2510057,,,2025-10-31,清算の結了等,,,2015-10-05,1,,,,,ショウナンエノシマダイビング,0
956,4021002034889,登記記録の閉鎖等,0,2025-12-03,2025-11-11,有限会社型伸工業,,有限会社,神奈川県,伊勢原市,下落合４１０番地の８,,14,214,2591121,,,2025-11-11,清算の結了等,,,2015-10-05,1,,,,,ケイシンコウギョウ,0
961,4030001046804,登記記録の閉鎖等,0,2025-12-03,2025-11-28,日新電子株式会社,,株式会社,埼玉県,和光市,下新倉４丁目２５番１４号,,11,229,3510111,,,2025-11-28,清算の結了等,,,2015-10-05,1,,,,,ニッシンデンシ,0
962,4030002010115,登記記録の閉鎖等,0,2025-12-03,2025-11-26,有限会社ナカジマ産商,,有限会社,埼玉県,さいたま市北区,植竹町１丁目３２５番地,,11,102,3310813,,,2025-11-26,清算の結了等,,,2015-10-05,1,,,,,ナカジマサンショウ,0
966,4030002043370,登記記録の閉鎖等,0,2025-12-03,2025-11-27,有限会社植昌工務店,,有限会社,埼玉県,草加市,金明町１０２７番地,,11,221,3400052,,,2025-11-27,清算の結了等,,,2015-10-05,1,,,,,ウエショウコウムテン,0
981,4040002084380,登記記録の閉鎖等,0,2025-12-03,2025-11-06,有限会社ケーエムプランニング,,有限会社,千葉県,市原市,瀬又４８５番地の３,,12,219,2900151,,,2025-11-06,清算の結了等,,,2015-10-05,1,,,,,ケーエムプランニング,0
982,4050002004750,登記記録の閉鎖等,0,2025-12-03,2025-11-21,有限会社アイル,,有限会社,茨城県,水戸市,千波町２９９番地の６,,08,201,3100851,,,2025-11-21,清算の結了等,,,2015-10-05,1,,,,,アイル,0
991,4080001025266,登記記録の閉鎖等,0,2025-12-03,2025-11-27,アクトアライズ株式会社,,株式会社,静岡県,静岡市葵区,下１１０８番地の８,,22,101,4212108,,,2025-11-27,清算の結了等,,,2022-11-01,1,,,,,アクトアライズ,0
993,4080101016454,登記記録の閉鎖等,0,2025-12-03,2025-12-01,株式会社アドヴァンス,,株式会社,静岡県,三島市,佐野１０８５番地の１,,22,206,4110047,,,2025-12-01,清算の結了等,,,2015-10-05,1,,,,,アドヴァンス,0
994,4080401010801,登記記録の閉鎖等,0,2025-12-03,2025-12-01,株式会社アキハ路高原,,株式会社,静岡県,浜松市天竜区,春野町堀之内１２６２番地の８,,22,140,4370625,,,2025-12-01,清算の結了等,,,2015-10-05,1,,,,,アキハジコウゲン,0
1006,4120001163813,登記記録の閉鎖等,0,2025-12-03,2025-11-28,株式会社成信,,株式会社,大阪府,大阪市淀川区,三国本町１丁目１５番２５号,,27,123,5320005,,,2025-11-28,清算の結了等,,,2015-10-05,1,,,,,セイシン,0
1009,4120001211357,登記記録の閉鎖等,0,2025-12-03,2025-11-28,株式会社有田通商,,株式会社,大阪府,大阪市浪速区,湊町１丁目２番１７号ローレルタワー難波９０５,,27,111,5560017,,,2025-11-28,清算の結了等,,,2018-02-14,1,,,,,アリタツウショウ,0
1025,4120003014436,登記記録の閉鎖等,0,2025-12-03,2025-12-01,エースサービス合同会社,,合同会社,大阪府,大阪市浪速区,恵美須東１丁目７番１２号,,27,111,5560002,,,2025-12-01,清算の結了等,,,2018-06-22,1,,,,,エースサービス,0
1039,4130002033007,登記記録の閉鎖等,0,2025-12-03,2025-12-01,有限会社芦田機工,,有限会社,京都府,福知山市,土師新町３丁目５６番地,,26,201,6200855,,,2025-12-01,清算の結了等,,,2015-10-05,1,,,,,アシダキコウ,0
1043,4140001135281,登記記録の閉鎖等,0,2025-12-03,2025-11-28,株式会社ｃｌｉｍｂ,,株式会社,兵庫県,宝塚市,宝梅１丁目１０番１８号,,28,214,6650013,,,2025-11-28,清算の結了等,,,2024-07-31,1,,,,,クライム,0
1051,4140005003344,登記記録の閉鎖等,0,2025-12-03,2025-12-02,板宿南部市場協同組合,,その他の設立登記法人,兵庫県,神戸市須磨区,飛松町２丁目１番７号,,28,107,6540012,,,2025-12-02,清算の結了等,,,2015-10-05,1,,,,,イタヤドナンブイチバ,0
1057,4140005023094,登記記録の閉鎖等,0,2025-12-03,2025-12-01,一般社団法人光輝会,,その他の設立登記法人,兵庫県,姫路市,飾磨区中島６０２－１－２,,28,201,6728035,,,2025-12-01,清算の結了等,,,2016-08-08,1,,,,,コウキカイ,0
1066,4170002009283,登記記録の閉鎖等,0,2025-12-03,2025-12-02,有限会社レディスすずき,,有限会社,和歌山県,田辺市,南新町１２７番地,,30,206,6460042,,,2025-12-02,清算の結了等,,,2015-10-05,1,,,,,レディススズキ,0
1083,4180301000413,登記記録の閉鎖等,0,2025-12-03,2025-11-11,オートセンター四国株式会社,,株式会社,愛知県,岡崎市,大平町字市木２８番地,,23,202,4440007,,,2025-11-11,合併による解散等,7180301002266,令和７年１１月１日愛知県岡崎市藤川町字境松西１番地株式会社レッドバロン（7180301002266）に合併し解散,2015-10-05,1,,,,,オートセンターシコク,0
1084,4180301002343,登記記録の閉鎖等,0,2025-12-03,2025-11-11,レッドバロン金沢株式会社,,株式会社,愛知県,岡崎市,大平町字市木２８番地,,23,202,4440007,,,2025-11-11,合併による解散等,7180301002266,令和７年１１月１日愛知県岡崎市藤川町字境松西１番地株式会社レッドバロン（7180301002266）に合併し解散,2015-10-05,1,,,,,レッドバロンカナザワ,0
1088,4180302003258,登記記録の閉鎖等,0,2025-12-03,2025-11-11,レッドバロン川崎本店有限会社,,有限会社,愛知県,岡崎市,大平町字市木２８番地,,23,202,4440007,,,2025-11-11,合併による解散等,7180301002266,令和７年１１月１日愛知県岡崎市藤川町字境松西１番地株式会社レッドバロン（7180301002266）に合併し解散,2015-10-05,1,,,,,レッドバロンカワサキホンテン,0
1089,4180302003266,登記記録の閉鎖等,0,2025-12-03,2025-11-11,レッドバロン座間有限会社,,有限会社,愛知県,岡崎市,大平町字市木２８番地,,23,202,4440007,,,2025-11-11,合併による解散等,7180301002266,令和７年１１月１日愛知県岡崎市藤川町字境松西１番地株式会社レッドバロン（7180301002266）に合併し解散,2015-10-05,1,,,,,レッドバロンザマ,0
1090,4180302003274,登記記録の閉鎖等,0,2025-12-03,2025-11-11,レッドバロン富山高岡店有限会社,,有限会社,愛知県,岡崎市,大平町字市木２８番地,,23,202,4440007,,,2025-11-11,合併による解散等,7180301002266,令和７年１１月１日愛知県岡崎市藤川町字境松西１番地株式会社レッドバロン（7180301002266）に合併し解散,2015-10-05,1,,,,,レッドバロントヤマタカオカテン,0
1091,4180302003282,登記記録の閉鎖等,0,2025-12-03,2025-11-11,レッドバロン彦根有限会社,,有限会社,愛知県,岡崎市,大平町字市木２８番地,,23,202,4440007,,,2025-11-11,合併による解散等,7180301002266,令和７年１１月１日愛知県岡崎市藤川町字境松西１番地株式会社レッドバロン（7180301002266）に合併し解散,2015-10-05,1,,,,,レッドバロンヒコネ,0
1092,4180302004181,登記記録の閉鎖等,0,2025-12-03,2025-11-11,レッドバロン柏有限会社,,有限会社,愛知県,岡崎市,大平町字市木２８番地,,23,202,4440007,,,2025-11-11,合併による解散等,7180301002266,令和７年１１月１日愛知県岡崎市藤川町字境松西１番地株式会社レッドバロン（7180301002266）に合併し解散,2015-10-05,1,,,,,レッドバロンカシワ,0
1093,4180303004858,登記記録の閉鎖等,0,2025-12-03,2025-11-28,合同会社クリーン＆パートナーズ,,合同会社,愛知県,額田郡幸田町,大字菱池字寺東１０７番地１,,23,501,4440113,,,2025-11-28,清算の結了等,,,2021-01-06,1,,,,,クリーンアンドパートナーズ,0
1098,4200001035005,登記記録の閉鎖等,0,2025-12-03,2025-11-27,株式会社学生ジャパン,,株式会社,愛知県,名古屋市中村区,日比津町２丁目２番８号,,23,105,4530061,,,2025-11-27,清算の結了等,,,2018-04-04,1,,,,,ガクセイジャパン,0
1104,4200003007002,登記記録の閉鎖等,0,2025-12-03,2025-11-28,合同会社スズキユイコ,,合同会社,岐阜県,中津川市,川上１６０５番地,,21,206,5099201,,,2025-11-28,清算の結了等,,,2025-09-01,1,,,,,スズキユイコ,0
1118,4280005003289,登記記録の閉鎖等,0,2025-12-03,2025-12-01,医療法人山根クリニック,,その他の設立登記法人,島根県,出雲市,芦渡町７８９番地２,,32,203,6930035,,,2025-12-01,清算の結了等,,,2015-10-05,1,,,,,ヤマネクリニック,0
1136,4310001009807,登記記録の閉鎖等,0,2025-12-03,2025-12-02,株式会社以和貴,,株式会社,長崎県,南島原市,西有家町里坊５０番地１,,42,214,8592211,,,2025-12-02,清算の結了等,,,2015-10-05,1,,,,,イワキ,0
1139,4320002003056,登記記録の閉鎖等,0,2025-12-03,2025-12-01,有限会社佐藤屋ビル,,有限会社,大分県,大分市,大字下宗方１１４８番地の４,,44,201,8701141,,,2025-12-01,清算の結了等,,,2015-10-05,1,,,,,サトウヤビル,0
1155,4450001001808,登記記録の閉鎖等,0,2025-12-03,2025-12-01,株式会社ＫＩ,,株式会社,北海道,旭川市,東旭川北一条７丁目１１番２５号,,01,204,0788251,,,2025-12-01,合併による解散等,4450001000801,令和７年１２月１日北海道旭川市東旭川北一条七丁目１１番２５号株式会社片岡鋼業（4450001000801）に合併し解散,2015-10-05,1,,,,,ケーアイ,0
1157,4460101003182,登記記録の閉鎖等,0,2025-12-03,2025-11-28,山七北幸通産株式会社,,株式会社,北海道,河東郡鹿追町,新町３丁目１６番地２,,01,634,0810201,,,2025-11-28,清算の結了等,,,2015-10-05,1,,,,,ヤマシチホクコウツウサン,0
1160,4490001009343,登記記録の閉鎖等,0,2025-12-03,2025-11-21,株式会社四国プロパティーズ,,株式会社,高知県,高知市,南はりまや町２丁目４番１５号,,39,201,7800833,,,2025-11-21,合併による解散等,6011101015153,令和７年１０月１日東京都新宿区西新宿六丁目２４番１号東京美装興業株式会社（6011101015153）に合併し解散,2019-08-13,1,,,,,シコクプロパティーズ,0
1161,4490003000746,登記記録の閉鎖等,0,2025-12-03,2025-11-28,合同会社ハピネス,,合同会社,高知県,幡多郡黒潮町,佐賀６９５番地２０,,39,428,7891720,,,2025-11-28,清算の結了等,,,2015-10-05,1,,,,,ハピネス,0
1212,5011101015154,登記記録の閉鎖等,0,2025-12-03,2025-11-07,東京ビジコン株式会社,,株式会社,東京都,新宿区,西新宿６丁目２４番１号西新宿三井ビルディング３階,,13,104,1600023,,,2025-11-07,清算の結了等,,,2015-10-05,1,,,,,トウキョウビジコン,0
1238,5011801004761,登記記録の閉鎖等,0,2025-12-03,2025-11-28,株式会社美保建築事務所,,株式会社,東京都,葛飾区,四つ木５丁目２２番１２号,,13,122,1240011,,,2025-11-28,清算の結了等,,,2015-10-05,1,,,,,ミホケンチクジムショ,0
1239,5011801045046,登記記録の閉鎖等,0,2025-12-03,2025-11-27,株式会社ヤクシン晃誠,,株式会社,東京都,足立区,伊興４丁目１７番１９号,,13,121,1210823,,,2025-11-27,清算の結了等,,,2024-10-30,1,,,,,ヤクシンコウセイ,0
1241,5011805002530,登記記録の閉鎖等,0,2025-12-03,2025-12-01,特定非営利活動法人あだち菜うどん学会,,その他の設立登記法人,東京都,足立区,千住橋戸町５０番地,,13,121,1200038,,,2025-12-01,清算の結了等,,,2015-12-10,1,,,,,アダチナウドンガッカイ,0
1252,5020001007087,登記記録の閉鎖等,0,2025-12-03,2025-11-04,イトシン建設株式会社,,株式会社,神奈川県,横浜市戸塚区,下倉田町８２８番地７１,,14,110,2440815,,,2025-11-04,清算の結了等,,,2015-10-05,1,,,,,イトシンケンセツ,0
1278,5030002101920,登記記録の閉鎖等,0,2025-12-03,2025-11-25,有限会社川又保険事務所,,有限会社,埼玉県,川口市,上青木西５丁目２６番５号,,11,203,3330845,,,2025-11-25,清算の結了等,,,2015-10-05,1,,,,,カワマタホケンジムショ,0
1286,5040002062476,登記記録の閉鎖等,0,2025-12-03,2025-11-10,有限会社ヒカリクリエート,,有限会社,千葉県,四街道市,千代田１丁目３５番１８号,,12,228,2840015,,,2025-11-10,清算の結了等,,,2015-10-05,1,,,,,ヒカリクリエート,0
1288,5040003024392,登記記録の閉鎖等,0,2025-12-03,2025-11-10,谷フーズ合同会社,,合同会社,千葉県,八千代市,八千代台東１丁目２番１２号第２イーストビル１階,,12,221,2760032,,,2025-11-10,清算の結了等,,,2024-02-27,1,,,,,タニフーズ,0
1309,5100005002365,登記記録の閉鎖等,0,2025-12-03,2025-11-21,高山村土地開発公社,,その他の設立登記法人,長野県,上高井郡高山村,大字高井４９７２番地,,20,543,3820800,,,2025-11-21,清算の結了等,,,2015-10-05,1,,,,,タカヤマムラ,0
1336,5130001075370,登記記録の閉鎖等,0,2025-12-03,2025-11-20,株式会社ＹｓＹＹ,,株式会社,京都府,京都市中京区,薬師町６５２番１１号ヴィラ夷川１階,,26,104,6040062,,,2025-11-20,清算の結了等,,,2023-10-06,1,,,,,ワイエスワイワイ,0
1340,5140001032115,登記記録の閉鎖等,0,2025-12-03,2025-11-28,株式会社ブリス,,株式会社,兵庫県,神戸市西区,学園東町６丁目８番地の６,,28,111,6512102,,,2025-11-28,清算の結了等,,,2015-10-05,1,,,,,ブリス,0
1345,5140001098123,登記記録の閉鎖等,0,2025-12-03,2025-12-01,小田総研株式会社,,株式会社,兵庫県,神戸市中央区,海岸通２丁目２番３号,,28,110,6500024,,,2025-12-01,清算の結了等,,,2015-10-05,1,,,,,オダソウケン,0
1361,5180001087279,登記記録の閉鎖等,0,2025-12-03,2025-11-27,株式会社エビスヤ商店,,株式会社,愛知県,江南市,古知野町久保見２１６番地,,23,217,4838275,,,2025-11-27,清算の結了等,,,2015-10-05,1,,,,,エビスヤショウテン,0
1366,5180001144591,登記記録の閉鎖等,0,2025-12-03,2025-11-28,株式会社ＲＥＩＫＯ,,株式会社,愛知県,名古屋市名東区,社が丘３丁目１３０１番地パビリオン東山Ｂ棟３０２号,,23,115,4650051,,,2025-11-28,清算の結了等,,,2021-01-27,1,,,,,レイコ,0
1370,5180002024470,登記記録の閉鎖等,0,2025-12-03,2025-12-01,有限会社冨士竹商店,,有限会社,愛知県,名古屋市西区,児玉２丁目１１番１８号,,23,104,4510066,,,2025-12-01,清算の結了等,,,2015-10-05,1,,,,,フジタケショウテン,0
1371,5180002030436,登記記録の閉鎖等,0,2025-12-03,2025-12-01,有限会社川松銘木店,,有限会社,愛知県,名古屋市中区,橘２丁目３番１３号,,23,106,4600016,,,2025-12-01,清算の結了等,,,2015-10-05,1,,,,,カワマツメイボクテン,0
1372,5180002036037,登記記録の閉鎖等,0,2025-12-03,2025-12-01,有限会社オノテック,,有限会社,愛知県,名古屋市中川区,十番町５丁目１０番地,,23,110,4540055,,,2025-12-01,清算の結了等,,,2015-10-05,1,,,,,オノテック,0
1382,5180302003273,登記記録の閉鎖等,0,2025-12-03,2025-11-11,レッドバロン千葉本店有限会社,,有限会社,愛知県,岡崎市,大平町字市木２８番地,,23,202,4440007,,,2025-11-11,合併による解散等,7180301002266,令和７年１１月１日愛知県岡崎市藤川町字境松西１番地株式会社レッドバロン（7180301002266）に合併し解散,2015-10-05,1,,,,,レッドバロンチバホンテン,0
1383,5180302004180,登記記録の閉鎖等,0,2025-12-03,2025-11-11,レッドバロン宮崎有限会社,,有限会社,愛知県,岡崎市,大平町字市木２８番地,,23,202,4440007,,,2025-11-11,合併による解散等,7180301002266,令和７年１１月１日愛知県岡崎市藤川町字境松西１番地株式会社レッドバロン（7180301002266）に合併し解散,2015-10-05,1,,,,,レッドバロンミヤザキ,0
1386,5200002028023,登記記録の閉鎖等,0,2025-12-03,2025-11-28,有限会社シンエー技建,,有限会社,岐阜県,郡上市,大和町栗巣４７番地１,,21,219,5014603,,,2025-11-28,清算の結了等,,,2015-10-05,1,,,,,シンエーギケン,0
1401,5250002015082,登記記録の閉鎖等,0,2025-12-03,2025-11-28,有限会社永末,,有限会社,山口県,周南市,慶万町３番８－４０１号,,35,215,7450836,,,2025-11-28,清算の結了等,,,2015-10-05,1,,,,,ナガスエ,0
1423,5350001011048,登記記録の閉鎖等,0,2025-12-03,2025-11-28,株式会社九州建設サポート,,株式会社,宮崎県,宮崎市,大字大瀬町３５９番地,,45,201,8800045,,,2025-11-28,清算の結了等,,,2015-10-05,1,,,,,キュウシュウケンセツサポート,0
1424,5350001015453,登記記録の閉鎖等,0,2025-12-03,2025-12-01,株式会社鳥越企画,,株式会社,宮崎県,都城市,山之口町山之口２２８４番地,,45,202,8891803,,,2025-12-01,清算の結了等,,,2018-09-21,1,,,,,トリゴエキカク,0
1430,5370601000299,登記記録の閉鎖等,0,2025-12-03,2025-11-27,株式会社佐々勝工務店,,株式会社,宮城県,宮城郡松島町,竹谷字丈倉部５６番地の２,,04,401,9810201,,,2025-11-27,清算の結了等,,,2015-10-05,1,,,,,ササカツコウムテン,0
1437,5420001016287,登記記録の閉鎖等,0,2025-12-03,2025-11-25,株式会社森林コーディネート,,株式会社,青森県,八戸市,大字糠塚字大開２番地８,,02,203,0310022,,,2025-11-25,清算の結了等,,,2018-08-08,1,,,,,シンリンコーディネート,0
1460,6010002020584,登記記録の閉鎖等,0,2025-12-03,2025-11-27,有限会社下川企画,,有限会社,東京都,中央区,銀座６丁目２番６号,,13,102,1040061,,,2025-11-27,合併による解散等,7010001063419,令和７年１１月１日東京都港区北青山一丁目３番１号アールキューブ青山３階志賀興業株式会社（7010001063419）に合併し解散,2015-10-05,1,,,,,シモカワキカク,0
1479,6010603006998,登記記録の閉鎖等,0,2025-12-03,2025-11-17,カルム合同会社,,合同会社,東京都,墨田区,緑４丁目３０番３号,,13,107,1300021,,,2025-11-17,清算の結了等,,,2017-11-20,1,,,,,カルム,0
1500,6011103013254,登記記録の閉鎖等,0,2025-12-03,2025-11-07,流山ロジスティクス合同会社,,合同会社,東京都,新宿区,四谷２丁目９番地１５東京ユナイテッド綜合事務所内,,13,104,1600004,,,2025-11-07,清算の結了等,,,2023-07-14,1,,,,,ナガレヤマロジスティクス,0
1502,6011201017181,登記記録の閉鎖等,0,2025-12-03,2025-11-13,株式会社ＫＯＫＯＩＩ,,株式会社,東京都,中野区,鷺宮３丁目３４番９号,,13,114,1650032,,,2025-11-13,清算の結了等,,,2015-10-05,1,,,,,,0
1540,6020001122694,登記記録の閉鎖等,0,2025-12-03,2025-11-20,株式会社１２Ｌｉｎｋｓ,,株式会社,神奈川県,横浜市神奈川区,金港町５番地１４クアドリフォリオ,,14,102,2210056,,,2025-11-20,清算の結了等,,,2017-08-21,1,,,,,トゥエルブリンクス,0
1544,6020002021326,登記記録の閉鎖等,0,2025-12-03,2025-11-27,有限会社サン・クリン河原,,有限会社,神奈川県,横浜市旭区,市沢町３２５番地,,14,112,2410014,,,2025-11-27,清算の結了等,,,2015-10-05,1,,,,,サンクリンカワハラ,0
1545,6020003018932,登記記録の閉鎖等,0,2025-12-03,2025-11-18,合同会社ＤａＫＡＲＰＯ,,合同会社,神奈川県,横浜市港南区,日野中央２丁目２１番４２号,,14,111,2340053,,,2025-11-18,清算の結了等,,,2020-12-14,1,,,,,ダカーポ,0
1556,6030001158374,登記記録の閉鎖等,0,2025-12-03,2025-11-27,株式会社柳屋ハウス,,株式会社,埼玉県,吉川市,高久１丁目１番地３１,,11,243,3420035,,,2025-11-27,清算の結了等,,,2024-01-24,1,,,,,ヤナギヤハウス,0
1566,6050001003330,登記記録の閉鎖等,0,2025-12-03,2025-11-27,株式会社茨城エナジック,,株式会社,茨城県,水戸市,河和田町４３８１番地１７,,08,201,3114153,,,2025-11-27,清算の結了等,,,2015-10-05,1,,,,,イバラキエナジック,0
1568,6050001043450,登記記録の閉鎖等,0,2025-12-03,2025-11-25,２ＣＯ株式会社,,株式会社,茨城県,古河市,久能１２１３番地１９,,08,204,3060212,,,2025-11-25,清算の結了等,,,2017-10-05,1,,,,,ニコ,0
1572,6070002000515,登記記録の閉鎖等,0,2025-12-03,2025-12-01,有限会社いしざわ,,有限会社,群馬県,前橋市,北代田町５４６番地,,10,201,3710055,,,2025-12-01,清算の結了等,,,2015-10-05,1,,,,,イシザワ,0
1577,6080002014794,登記記録の閉鎖等,0,2025-12-03,2025-11-27,有限会社ワイ・エム・ティー製作所,,有限会社,静岡県,榛原郡吉田町,大幡２１３１番地の３８,,22,424,4210305,,,2025-11-27,清算の結了等,,,2015-10-05,1,,,,,ワイエムティーセイサクショ,0
1580,6080401010799,登記記録の閉鎖等,0,2025-12-03,2025-12-01,株式会社アキハ原木,,株式会社,静岡県,浜松市天竜区,春野町堀之内１２６２番地の８,,22,140,4370625,,,2025-12-01,清算の結了等,,,2015-10-05,1,,,,,アキハゲンボク,0
1584,6090001019298,登記記録の閉鎖等,0,2025-12-03,2025-11-28,株式会社ＡＬ,,株式会社,山梨県,甲府市,丸の内２丁目３９番４号,,19,201,4000031,,,2025-11-28,合併による解散等,9090002000213,令和７年１１月２８日山梨県甲府市丸の内二丁目３９番４号アルプス事務機株式会社（9090002000213）に合併し解散,2025-05-29,1,,,,,エイエル,0
1606,6120101059793,登記記録の閉鎖等,0,2025-12-03,2025-11-27,株式会社代田商店,,株式会社,大阪府,岸和田市,加守町２丁目１２番４号,,27,202,5960042,,,2025-11-27,清算の結了等,,,2019-04-26,1,,,,,シロタショウテン,0
1611,6130001057640,登記記録の閉鎖等,0,2025-12-03,2025-12-01,マツダイノベーション株式会社,,株式会社,京都府,京都市中京区,橘町６０４ヴィラスタジオーネ御所南２０１,,26,104,6040944,,,2025-12-01,合併による解散等,9130001067190,令和７年１２月１日京都市東山区祇園町北側３４７－１４７グラッシービル２階株式会社宮川町えん（9130001067190）に合併し解散,2016-06-07,1,,,,,マツダイノベーション,0
1628,6140002002264,登記記録の閉鎖等,0,2025-12-03,2025-11-27,有限会社ブルースター,,有限会社,兵庫県,神戸市東灘区,住吉東町２丁目４番１８－４０２号,,28,101,6580052,,,2025-11-27,清算の結了等,,,2015-10-05,1,,,,,ブルースター,0
1632,6150003002683,登記記録の閉鎖等,0,2025-12-03,2025-11-26,ｅｎｔｒａ合同会社,,合同会社,奈良県,生駒郡平群町,椿台２丁目２－３,,29,342,6360943,,,2025-11-26,清算の結了等,,,2022-05-16,1,,,,,エントラ,0
1633,6160001010183,登記記録の閉鎖等,0,2025-12-03,2025-11-28,藤森建設株式会社,,株式会社,滋賀県,東近江市,青葉町３番２９号,,25,213,5270039,,,2025-11-28,清算の結了等,,,2015-10-05,1,,,,,フジモリケンセツ,0
1656,6180002057701,登記記録の閉鎖等,0,2025-12-03,2025-12-01,有限会社ネッツ池山,,有限会社,愛知県,名古屋市瑞穂区,雁道町２丁目２番７,,23,108,4670877,,,2025-12-01,清算の結了等,,,2015-10-05,1,,,,,ネッツイケヤマ,0
1660,6180301037800,登記記録の閉鎖等,0,2025-12-03,2025-11-28,株式会社Ｔ＆Ｃ,,株式会社,愛知県,岡崎市,緑丘１丁目２５番地６,,23,202,4440806,,,2025-11-28,清算の結了等,,,2023-09-11,1,,,,,ティーアンドシー,0
1663,6180302003264,登記記録の閉鎖等,0,2025-12-03,2025-11-11,レッドバロン四條畷有限会社,,有限会社,愛知県,岡崎市,大平町字市木２８番地,,23,202,4440007,,,2025-11-11,合併による解散等,7180301002266,令和７年１１月１日愛知県岡崎市藤川町字境松西１番地株式会社レッドバロン（7180301002266）に合併し解散,2015-10-05,1,,,,,レッドバロンシジョウナワテ,0
1664,6180302003272,登記記録の閉鎖等,0,2025-12-03,2025-11-11,レッドバロン鳥取有限会社,,有限会社,愛知県,岡崎市,大平町字市木２８番地,,23,202,4440007,,,2025-11-11,合併による解散等,7180301002266,令和７年１１月１日愛知県岡崎市藤川町字境松西１番地株式会社レッドバロン（7180301002266）に合併し解散,2015-10-05,1,,,,,レッドバロントットリ,0
1665,6180302003280,登記記録の閉鎖等,0,2025-12-03,2025-11-11,レッドバロン福岡中央店有限会社,,有限会社,愛知県,岡崎市,大平町字市木２８番地,,23,202,4440007,,,2025-11-11,合併による解散等,7180301002266,令和７年１１月１日愛知県岡崎市藤川町字境松西１番地株式会社レッドバロン（7180301002266）に合併し解散,2015-10-05,1,,,,,レッドバロンフクオカチュウオウテン,0
1675,6210005009745,登記記録の閉鎖等,0,2025-12-03,2025-12-01,特定非営利活動法人繊維技術活性化協会,,その他の設立登記法人,福井県,福井市,文京３丁目９番１号,,18,201,9100017,,,2025-12-01,清算の結了等,,,2018-06-01,1,,,,,センイギジュツカッセイカキョウカイ,0
1679,6250001013433,登記記録の閉鎖等,0,2025-12-03,2025-12-01,株式会社セーフティリード,,株式会社,山口県,宇部市,大字善和字牛明３９８番地２,,35,202,7590134,,,2025-12-01,合併による解散等,1250001003125,令和７年１２月１日山口県宇部市港町一丁目１４番２６号上生機工株式会社（1250001003125）に合併し解散,2015-10-05,1,,,,,セーフティリード,0
1704,6340002020790,登記記録の閉鎖等,0,2025-12-03,2025-11-28,有限会社河野組,,有限会社,鹿児島県,奄美市,名瀬鳩浜町３０９－８,,46,222,8940004,,,2025-11-28,清算の結了等,,,2015-10-05,1,,,,,カワノグミ,0
1735,6460101004922,登記記録の閉鎖等,0,2025-12-03,2025-11-27,株式会社ＭＭＫホンダ,,株式会社,北海道,河西郡芽室町,東五条７丁目２番地１４,,01,637,0820015,,,2025-11-27,清算の結了等,,,2015-10-05,1,,,,,エムエムケーホンダ,0
1757,7010001123511,登記記録の閉鎖等,0,2025-12-03,2025-11-17,株式会社アド・テックス,,株式会社,東京都,中央区,新川２丁目２１番１６－３０６号,,13,102,1040033,,,2025-11-17,清算の結了等,,,2015-10-05,1,,,,,,0
1761,7010001163879,登記記録の閉鎖等,0,2025-12-03,2025-11-17,トラステール株式会社,,株式会社,東京都,千代田区,神田多町２丁目２番２２号,,13,101,1010046,,,2025-11-17,清算の結了等,,,2015-10-05,1,,,,,,0
1768,7010002031416,登記記録の閉鎖等,0,2025-12-03,2025-11-27,有限会社高嶋コーポレーション,00133822,有限会社,東京都,中央区,銀座６丁目２番６号,,13,102,1040061,,,2025-11-27,合併による解散等,7010001063419,令和７年１１月１日東京都港区北青山一丁目３番１号アールキューブ青山３階志賀興業株式会社（7010001063419）に合併し解散,2015-10-05,1,,,,,タカシマコーポレーション,0
1772,7010401053102,登記記録の閉鎖等,0,2025-12-03,2025-11-17,株式会社ヴァスダックキャピタル,,株式会社,東京都,中央区,日本橋兜町三丁目３番,,13,102,1030026,,,2025-11-17,清算の結了等,,,2015-10-05,1,,,,,,0
1780,7010402034836,登記記録の閉鎖等,0,2025-12-03,2025-11-27,有限会社ティアンドアイ,,有限会社,東京都,中央区,京橋２丁目６番１３号,,13,102,1040031,,,2025-11-27,合併による解散等,7010001063419,令和７年１１月１日東京都港区北青山一丁目３番１号アールキューブ青山３階志賀興業株式会社（7010001063419）に合併し解散,2015-10-05,1,,,,,ティアンドアイ,0
1786,7010601029612,登記記録の閉鎖等,0,2025-12-03,2025-11-26,株式会社日本プロジェクト,,株式会社,東京都,墨田区,菊川１丁目７番３号,,13,107,1300024,,,2025-11-26,清算の結了等,,,2015-10-05,1,,,,,ニホンプロジェクト,0
1792,7010901021558,登記記録の閉鎖等,0,2025-12-03,2025-12-02,株式会社アースサービス,,株式会社,東京都,世田谷区,成城２丁目４０番８－２０２号,,13,112,1570066,,,2025-12-02,清算の結了等,,,2015-10-05,1,,,,,アースサービス,0
1819,7011301020753,登記記録の閉鎖等,0,2025-12-03,2025-11-27,エバーラスティング株式会社,,株式会社,長野県,千曲市,杭瀬下１丁目１２番地,,20,218,3870011,,,2025-11-27,清算の結了等,,,2015-10-05,1,,,,,エバーラスティング,0
1821,7011403004092,登記記録の閉鎖等,0,2025-12-03,2025-11-25,合同会社Ｄｏｋａｍ,,合同会社,大阪府,河内長野市,上田町２４１番地の６,,27,216,5860034,,,2025-11-25,清算の結了等,,,2023-08-24,1,,,,,ドゥーカム,0
1822,7011501002584,登記記録の閉鎖等,0,2025-12-03,2025-11-28,株式会社大幸工務店,,株式会社,東京都,北区,豊島７丁目５番２号,,13,117,1140003,,,2025-11-28,清算の結了等,,,2015-10-05,1,,,,,ダイコウコウムテン,0
1825,7011801033965,登記記録の閉鎖等,0,2025-12-03,2025-11-27,株式会社エスケイワイ,,株式会社,東京都,葛飾区,お花茶屋１丁目１８番１１号,,13,122,1240003,,,2025-11-27,清算の結了等,,,2017-10-16,1,,,,,エスケイワイ,0
1828,7012401020040,登記記録の閉鎖等,0,2025-12-03,2025-11-28,株式会社昴計画,,株式会社,東京都,国立市,東３丁目１６番地の２１,,13,215,1860002,,,2025-11-28,清算の結了等,,,2015-10-05,1,,,,,スバルケイカク,0
1838,7020001140200,登記記録の閉鎖等,0,2025-12-03,2025-11-27,アクセス株式会社,,株式会社,兵庫県,姫路市,広畑区東新町２丁目１３番地１,,28,201,6711121,,,2025-11-27,清算の結了等,,,2021-03-04,1,,,,,アクセス,0
1849,7021001038599,登記記録の閉鎖等,0,2025-12-03,2025-11-11,株式会社Ｉ・Ｎ・Ｄ,,株式会社,神奈川県,平塚市,諏訪町３３番３号,,14,203,2540063,,,2025-11-11,清算の結了等,,,2015-10-05,1,,,,,アイエヌディー,0
1877,7050001042022,登記記録の閉鎖等,0,2025-12-03,2025-11-25,三水＿株式会社,00108814,株式会社,茨城県,水戸市,城南２丁目７番１号常磐第２ビル３階３０５,,08,201,3100803,,,2025-11-25,清算の結了等,,,2016-12-28,1,,,,,サンスイミョウ,0
1882,7070002019050,登記記録の閉鎖等,0,2025-12-03,2025-12-01,有限会社猿橋,,有限会社,群馬県,伊勢崎市,太田町１５１番地１,,10,204,3720006,,,2025-12-01,清算の結了等,,,2015-10-05,1,,,,,サルハシ,0
1891,7110001029079,登記記録の閉鎖等,0,2025-12-03,2025-12-01,株式会社新潟藤吉,,株式会社,新潟県,新潟市東区,東中野山４丁目５番１４号,,15,102,9500836,,,2025-12-01,清算の結了等,,,2015-10-05,1,,,,,ニイガタフジヨシ,0
1897,7110005004755,登記記録の閉鎖等,0,2025-12-03,2025-12-01,慶学院,,その他の設立登記法人,新潟県,新発田市,諏訪町３丁目２番１９号,,15,206,9570055,,,2025-12-01,清算の結了等,,,2015-10-05,1,,,,,ケイガクイン,0
1903,7120001189698,登記記録の閉鎖等,0,2025-12-03,2025-11-25,株式会社フェイムワン,,株式会社,大阪府,箕面市,船場西２丁目１５番６号,,27,220,5620036,,,2025-11-25,清算の結了等,,,2015-10-05,1,,,,,フェイムワン,0
1904,7120001215512,登記記録の閉鎖等,0,2025-12-03,2025-12-01,株式会社どやねん,,株式会社,大阪府,大阪市西区,西本町１丁目２番４号,,27,106,5500005,,,2025-12-01,合併による解散等,8120101048654,令和７年１２月１日大阪市西区西本町一丁目２番４号株式会社タカガワ・ジャパン（8120101048654）に合併し解散,2018-08-23,1,,,,,ドヤネン,0
1922,7120103000564,登記記録の閉鎖等,0,2025-12-03,2025-11-28,合資会社優あい介護総合サービス,,合資会社,大阪府,堺市堺区,山本町５丁１１０番地の３４,,27,141,5900983,,,2025-11-28,清算の結了等,,,2015-10-05,1,,,,,,0
1937,7140001105001,登記記録の閉鎖等,0,2025-12-03,2025-11-27,華獅美研ラボ株式会社,,株式会社,兵庫県,神戸市中央区,港島南町５丁目５番２号神戸国際ビジネスセンター,,28,110,6500047,,,2025-11-27,清算の結了等,,,2017-02-08,1,,,,,カシビケンラボ,0
1941,7140002008194,登記記録の閉鎖等,0,2025-12-03,2025-12-01,有限会社岩井工作所,,有限会社,兵庫県,神戸市西区,押部谷町養田３０－５,,28,111,6512205,,,2025-12-01,清算の結了等,,,2015-10-05,1,,,,,イワイコウサクショ,0
1961,7180301001607,登記記録の閉鎖等,0,2025-12-03,2025-11-11,レッドバロン高松株式会社,,株式会社,愛知県,岡崎市,大平町字市木２８番地,,23,202,4440007,,,2025-11-11,合併による解散等,7180301002266,令和７年１１月１日愛知県岡崎市藤川町字境松西１番地株式会社レッドバロン（7180301002266）に合併し解散,2015-10-05,1,,,,,レッドバロンタカマツ,0
1962,7180301002373,登記記録の閉鎖等,0,2025-12-03,2025-11-11,レッドバロン小平株式会社,,株式会社,愛知県,岡崎市,大平町字市木２８番地,,23,202,4440007,,,2025-11-11,合併による解散等,7180301002266,令和７年１１月１日愛知県岡崎市藤川町字境松西１番地株式会社レッドバロン（7180301002266）に合併し解散,2015-10-05,1,,,,,レッドバロンコダイラ,0
1963,7180301012521,登記記録の閉鎖等,0,2025-12-03,2025-11-11,レッドバロン岐南株式会社,,株式会社,愛知県,岡崎市,大平町字市木２８番地,,23,202,4440007,,,2025-11-11,合併による解散等,7180301002266,令和７年１１月１日愛知県岡崎市藤川町字境松西１番地株式会社レッドバロン（7180301002266）に合併し解散,2015-10-05,1,,,,,レッドバロンギナン,0
1966,7180302003239,登記記録の閉鎖等,0,2025-12-03,2025-11-11,レッドバロン太田店有限会社,,有限会社,愛知県,岡崎市,大平町字市木２８番地,,23,202,4440007,,,2025-11-11,合併による解散等,7180301002266,令和７年１１月１日愛知県岡崎市藤川町字境松西１番地株式会社レッドバロン（7180301002266）に合併し解散,2015-10-05,1,,,,,レッドバロンオオタテン,0
1967,7180302003271,登記記録の閉鎖等,0,2025-12-03,2025-11-11,レッドバロン土浦有限会社,,有限会社,愛知県,岡崎市,大平町字市木２８番地,,23,202,4440007,,,2025-11-11,合併による解散等,7180301002266,令和７年１１月１日愛知県岡崎市藤川町字境松西１番地株式会社レッドバロン（7180301002266）に合併し解散,2015-10-05,1,,,,,レッドバロンツチウラ,0
1968,7180302003288,登記記録の閉鎖等,0,2025-12-03,2025-11-11,レッドバロン前橋有限会社,,有限会社,愛知県,岡崎市,大平町字市木２８番地,,23,202,4440007,,,2025-11-11,合併による解散等,7180301002266,令和７年１１月１日愛知県岡崎市藤川町字境松西１番地株式会社レッドバロン（7180301002266）に合併し解散,2015-10-05,1,,,,,レッドバロンマエバシ,0
1969,7180302004179,登記記録の閉鎖等,0,2025-12-03,2025-11-11,レッドバロン新潟東有限会社,,有限会社,愛知県,岡崎市,大平町字市木２８番地,,23,202,4440007,,,2025-11-11,合併による解散等,7180301002266,令和７年１１月１日愛知県岡崎市藤川町字境松西１番地株式会社レッドバロン（7180301002266）に合併し解散,2015-10-05,1,,,,,レッドバロンニイガタヒガシ,0
1983,7260001020601,登記記録の閉鎖等,0,2025-12-03,2025-11-18,株式会社イーストワン,,株式会社,岡山県,津山市,南町１丁目８７番地１ＥＡＳＴビル,,33,203,7080881,,,2025-11-18,清算の結了等,,,2015-10-05,1,,,,,イーストワン,0
2024,7380002026965,登記記録の閉鎖等,0,2025-12-03,2025-11-27,有限会社ヤマキサッシ,,有限会社,福島県,いわき市,若葉台１丁目２０番地の８,,07,204,9718138,,,2025-11-27,清算の結了等,,,2015-10-05,1,,,,,ヤマキサッシ,0
2030,7410001013267,登記記録の閉鎖等,0,2025-12-03,2025-12-01,株式会社きららオートモビル,,株式会社,秋田県,秋田市,柳田字柳田５９番地２,,05,201,0100825,,,2025-12-01,合併による解散等,2410002002356,令和７年１２月１日秋田市大町二丁目５番１号株式会社きららホールディングス（2410002002356）に合併し解散,2022-08-29,1,,,,,キララオートモビル,0
2032,7410002009396,登記記録の閉鎖等,0,2025-12-03,2025-11-28,有限会社コウガ堂,,有限会社,秋田県,北秋田市,松葉町１１番２５号,,05,213,0183321,,,2025-11-28,清算の結了等,,,2015-10-05,1,,,,,コウガドウ,0
2040,7480002010323,登記記録の閉鎖等,0,2025-12-03,2025-12-03,有限会社エスピック工業,,有限会社,徳島県,徳島市,応神町東貞方字西川淵８７番地２,,36,201,7711154,,,2025-12-03,清算の結了等,,,2015-10-05,1,,,,,エスピックコウギョウ,0
2054,8010401162307,登記記録の閉鎖等,0,2025-12-03,2025-11-06,アイキャップ・エナジー・ジャパン株式会社,,株式会社,東京都,港区,赤坂２丁目１７番７号,,13,103,1070052,,,2025-11-06,清算の結了等,,,2021-08-27,1,,,,,アイキャップエナジージャパン,0
2063,8010403019455,登記記録の閉鎖等,0,2025-12-03,2025-11-28,Ａｒｃｏｎｅｓｔ合同会社,,合同会社,東京都,港区,浜松町１丁目１８番１３号高桑ビル３階,,13,103,1050013,,,2025-11-28,合併による解散等,8490001001057,令和７年１１月１日高知市本町四丁目１番６号株式会社コマ（8490001001057）に合併し解散,2018-10-04,1,,,,,アルコネスト,0
2067,8010505000684,登記記録の閉鎖等,0,2025-12-03,2025-11-28,浅草親睦商業協同組合,,その他の設立登記法人,東京都,台東区,浅草６丁目８番４号,,13,106,1110032,,,2025-11-28,清算の結了等,,,2015-10-05,1,,,,,アサクサシンボクショウギョウ,0
2074,8011001030894,登記記録の閉鎖等,0,2025-12-03,2025-11-07,株式会社篠塚コーポレーション,,株式会社,東京都,目黒区,平町１丁目２番１３号,,13,110,1520032,,,2025-11-07,清算の結了等,,,2015-10-05,1,,,,,シノヅカコーポレーション,0
2083,8011101098279,登記記録の閉鎖等,0,2025-12-03,2025-11-06,株式会社ＧＲＯＷＩＮＧ,,株式会社,東京都,新宿区,新宿５丁目１５番６号,,13,104,1600022,,,2025-11-06,清算の結了等,,,2022-03-28,1,,,,,グローイング,0
2099,8011801007992,登記記録の閉鎖等,0,2025-12-03,2025-11-27,三啓テクノ株式会社,,株式会社,東京都,足立区,大谷田４丁目１４番１５号,,13,121,1200001,,,2025-11-27,清算の結了等,,,2015-10-05,1,,,,,サンケイテクノ,0
2100,8011801009394,登記記録の閉鎖等,0,2025-12-03,2025-11-27,株式会社エコート,,株式会社,埼玉県,八潮市,大字鶴ケ曽根７８０番９,,11,234,3400802,,,2025-11-27,清算の結了等,,,2015-10-05,1,,,,,エコート,0
2128,8030001025845,登記記録の閉鎖等,0,2025-12-03,2025-11-06,アーチ株式会社,,株式会社,東京都,渋谷区,円山町６番７号,,13,113,1500044,,,2025-11-06,清算の結了等,,,2015-10-05,1,,,,,アーチ,0
2131,8030001060578,登記記録の閉鎖等,0,2025-12-03,2025-11-19,株式会社アイ・エス・シー,,株式会社,埼玉県,本庄市,児玉町蛭川１０５１番地６,,11,211,3670204,,,2025-11-19,清算の結了等,,,2015-10-05,1,,,,,アイエスシー,0
2135,8030003022659,登記記録の閉鎖等,0,2025-12-03,2025-11-25,ＨＡＳＯＭＯ合同会社,,合同会社,埼玉県,川越市,南台２丁目１１番６号熊谷店舗２階,,11,201,3501165,,,2025-11-25,清算の結了等,,,2023-10-03,1,,,,,ハーソモ,0
2142,8040001118490,登記記録の閉鎖等,0,2025-12-03,2025-11-06,株式会社斎藤牧場,,株式会社,千葉県,千葉市若葉区,中野町５７５番地４７,,12,104,2650051,,,2025-11-06,清算の結了等,,,2021-05-19,1,,,,,サイトウボクジョウ,0
2144,8040002067241,登記記録の閉鎖等,0,2025-12-03,2025-11-07,有限会社長栄,,有限会社,千葉県,木更津市,中央３丁目１０番６号,,12,206,2920067,,,2025-11-07,清算の結了等,,,2015-10-05,1,,,,,,0
2147,8050001005580,登記記録の閉鎖等,0,2025-12-03,2025-11-05,藤田商事株式会社,,株式会社,東京都,港区,芝大門１丁目３番１４号,,13,103,1050012,,,2025-11-05,清算の結了等,,,2015-10-05,1,,,,,フジタショウジ,0
2152,8060002009349,登記記録の閉鎖等,0,2025-12-03,2025-12-01,有限会社有備,,有限会社,栃木県,宇都宮市,簗瀬町１３７９番地１３,,09,201,3210933,,,2025-12-01,清算の結了等,,,2015-10-05,1,,,,,ユウビ,0
2156,8080401003108,登記記録の閉鎖等,0,2025-12-03,2025-11-25,株式会社田中工務所,,株式会社,静岡県,浜松市中央区,村櫛町４２４１番地の１,,22,138,4311207,,,2025-11-25,清算の結了等,,,2015-10-05,1,,,,,タナカコウムショ,0
2162,8100001028064,登記記録の閉鎖等,0,2025-12-03,2025-11-27,ｉ－ＨＯＰＥ株式会社,,株式会社,長野県,伊那市,西春近４１０５番地２４９,,20,209,3994431,,,2025-11-27,清算の結了等,,,2015-10-05,1,,,,,アイホープ,0
2171,8120001121981,登記記録の閉鎖等,0,2025-12-03,2025-11-25,株式会社三幸,,株式会社,大阪府,大阪市平野区,瓜破東５丁目１番１８号,,27,126,5470022,,,2025-11-25,清算の結了等,,,2015-10-05,1,,,,,ミコウ,0
2177,8120001218704,登記記録の閉鎖等,0,2025-12-03,2025-12-01,株式会社ロータスゴールド,,株式会社,大阪府,大阪市西区,西本町１丁目２番４号,,27,106,5500005,,,2025-12-01,合併による解散等,8120101048654,令和７年１２月１日大阪市西区西本町一丁目２番４号株式会社タカガワ・ジャパン（8120101048654）に合併し解散,2019-01-31,1,,,,,ロータスゴールド,0
2185,8120002022188,登記記録の閉鎖等,0,2025-12-03,2025-12-01,有限会社スタジオコルギ,,有限会社,奈良県,奈良市,北登美ヶ丘５丁目１６番３６号,,29,201,6310001,,,2025-12-01,清算の結了等,,,2015-10-05,1,,,,,スタジオコルギ,0
2191,8120102021429,登記記録の閉鎖等,0,2025-12-03,2025-11-14,有限会社西村ポンプサービス,,有限会社,大阪府,岸和田市,加守町１丁目１５番３号,,27,202,5960042,,,2025-11-14,清算の結了等,,,2015-10-05,1,,,,,ニシムラポンプサービス,0
2198,8120902000193,登記記録の閉鎖等,0,2025-12-03,2025-11-28,有限会社岩村商事,,有限会社,大阪府,茨木市,永代町５番Ｂ１１３号,,27,211,5670816,,,2025-11-28,清算の結了等,,,2015-10-05,1,,,,,イワムラショウジ,0
2206,8140001029604,登記記録の閉鎖等,0,2025-12-03,2025-12-01,株式会社セキュリティ・トラスト,,株式会社,兵庫県,神戸市垂水区,舞子台６丁目１９番１４号,,28,108,6550046,,,2025-12-01,清算の結了等,,,2015-10-05,1,,,,,セキュリティトラスト,0
2207,8140001030520,登記記録の閉鎖等,0,2025-12-03,2025-12-01,株式会社アルテサーノ,,株式会社,兵庫県,神戸市長田区,鹿松町１丁目３番２１号,,28,106,6530877,,,2025-12-01,清算の結了等,,,2015-10-05,1,,,,,アルテサーノ,0
2215,8140003010784,登記記録の閉鎖等,0,2025-12-03,2025-12-01,合同会社コンビニ神戸うえだ,,合同会社,兵庫県,神戸市西区,伊川谷町有瀬４８０番地の２０,,28,111,6512113,,,2025-12-01,清算の結了等,,,2015-10-05,1,,,,,コンビニコウベウエダ,0
2229,8180001096319,登記記録の閉鎖等,0,2025-12-03,2025-12-01,安達毛織株式会社,,株式会社,愛知県,愛西市,西川端町川原前７５番地１,,23,232,4968019,,,2025-12-01,清算の結了等,,,2015-10-05,1,,,,,アダチケオリ,0
2233,8180001160058,登記記録の閉鎖等,0,2025-12-03,2025-12-01,株式会社ウッドコンストラクション,,株式会社,愛知県,名古屋市中区,栄４丁目５番３号,,23,106,4600008,,,2025-12-01,合併による解散等,4180001016164,令和７年１２月１日名古屋市中区栄四丁目５番３号株式会社ウッドフレンズ（4180001016164）に合併し解散,2024-02-07,1,,,,,ウッドコンストラクション,0
2237,8180003007125,登記記録の閉鎖等,0,2025-12-03,2025-12-01,合名会社志知本店,,合名会社,愛知県,名古屋市中区,古渡町１５番３０号,,23,106,4600025,,,2025-12-01,清算の結了等,,,2015-10-05,1,,,,,シチホンテン,0
2241,8180301002356,登記記録の閉鎖等,0,2025-12-03,2025-11-11,レッドバロン天白株式会社,,株式会社,愛知県,岡崎市,大平町字市木２８番地,,23,202,4440007,,,2025-11-11,合併による解散等,7180301002266,令和７年１１月１日愛知県岡崎市藤川町字境松西１番地株式会社レッドバロン（7180301002266）に合併し解散,2015-10-05,1,,,,,レッドバロンテンパク,0
2243,8180302003254,登記記録の閉鎖等,0,2025-12-03,2025-11-11,レッドバロン春日部有限会社,,有限会社,愛知県,岡崎市,大平町字市木２８番地,,23,202,4440007,,,2025-11-11,合併による解散等,7180301002266,令和７年１１月１日愛知県岡崎市藤川町字境松西１番地株式会社レッドバロン（7180301002266）に合併し解散,2015-10-05,1,,,,,レッドバロンカスカベ,0
2245,8180303001117,登記記録の閉鎖等,0,2025-12-03,2025-11-27,合同会社あいち技術戦略,,合同会社,愛知県,岡崎市,城南町２丁目１番地１０,,23,202,4440835,,,2025-11-27,清算の結了等,,,2015-10-05,1,,,,,アイチギジュツセンリャク,0
2248,8180305008820,登記記録の閉鎖等,0,2025-12-03,2025-12-01,一般社団法人ライフサポート,,その他の設立登記法人,愛知県,蒲郡市,元町２番１０号,,23,214,4430043,,,2025-12-01,清算の結了等,,,2018-08-17,1,,,,,ライフサポート,0
2250,8190005010407,登記記録の閉鎖等,0,2025-12-03,2025-12-01,特定非営利活動法人大杉谷さいこうプロジェクト,,その他の設立登記法人,三重県,多気郡大台町,桧原５００番地,,24,443,5192632,,,2025-12-01,清算の結了等,,,2015-10-05,1,,,,,オオスギダニサイコウプロジェクト,0
2257,8220001012188,登記記録の閉鎖等,0,2025-12-03,2025-11-26,株式会社辻のや,,株式会社,石川県,小松市,粟津町ワ４７番地,,17,203,9230326,,,2025-11-26,清算の結了等,,,2015-10-05,1,,,,,,0
2265,8290001042889,登記記録の閉鎖等,0,2025-12-03,2025-11-05,田本設計株式会社,,株式会社,福岡県,春日市,小倉６丁目６７番地１－６０７,,40,218,8160824,,,2025-11-05,清算の結了等,,,2015-10-05,1,,,,,タモトセッケイ,0
2266,8290001075179,登記記録の閉鎖等,0,2025-12-03,2025-11-25,アルファリンク株式会社,,株式会社,福岡県,筑紫野市,二日市中央２丁目５－１０林ビル１Ｆ,,40,217,8180072,,,2025-11-25,清算の結了等,,,2016-09-13,1,,,,,アルファリンク,0
2269,8290001095714,登記記録の閉鎖等,0,2025-12-03,2025-12-01,株式会社ＤＡＺＡＩ住空間研究所,,株式会社,福岡県,福岡市中央区,薬院３丁目１１番１８号,,40,133,8100022,,,2025-12-01,合併による解散等,7122001027664,令和７年１２月１日福岡市中央区薬院三丁目１１番１８号株式会社大宰（7122001027664）に合併し解散,2021-12-16,1,,,,,ダザイジュウクウカンケンキュウジョ,0
2278,8290802020267,登記記録の閉鎖等,0,2025-12-03,2025-12-01,有限会社三和工業,,有限会社,福岡県,直方市,大字永満寺２５６２番地,,40,204,8220005,,,2025-12-01,清算の結了等,,,2015-10-05,1,,,,,サンワコウギョウ,0
2290,8350005002420,登記記録の閉鎖等,0,2025-12-03,2025-11-27,農事組合法人鹿場養蚕組合,,その他の設立登記法人,宮崎県,日向市,美々津町１７６９番地,,45,206,8891111,,,2025-11-27,清算の結了等,,,2015-10-05,1,,,,,シカバヨウサンクミアイ,0
2302,8370001024581,登記記録の閉鎖等,0,2025-12-03,2025-11-28,株式会社Ｓｍｏｏｃｈｉｅｓ,,株式会社,宮城県,仙台市青葉区,宮町１丁目１番２２号,,04,101,9800004,,,2025-11-28,清算の結了等,,,2015-10-05,1,,,,,スムーチーズ,0
2318,8430002002324,登記記録の閉鎖等,0,2025-12-03,2025-11-28,有限会社ウインクス,,有限会社,北海道,札幌市北区,あいの里一条４丁目２１番２３号,,01,102,0028071,,,2025-11-28,清算の結了等,,,2015-10-05,1,,,,,ウインクス,0
2321,8450001010879,登記記録の閉鎖等,0,2025-12-03,2025-11-28,北海道清水物産株式会社,,株式会社,北海道,深川市,音江町字広里１０５番地１２,,01,228,0741271,,,2025-11-28,合併による解散等,8040001101372,令和７年１０月３１日千葉市美浜区中瀬二丁目６番地１清水物産ホールディングス株式会社（8040001101372）に合併し解散,2015-10-05,1,,,,,ホッカイドウシミズブッサン,0
2322,8450003002478,登記記録の閉鎖等,0,2025-12-03,2025-12-01,ＩｃｈｉｇｏＴｅｃｈ合同会社,,合同会社,北海道,富良野市,東麻町５－１５,,01,229,0760051,,,2025-12-01,清算の結了等,,,2024-05-02,1,,,,,イチゴテック,0
2336,9010001218409,登記記録の閉鎖等,0,2025-12-03,2025-11-27,株式会社エフフォーリア,,株式会社,東京都,江東区,塩浜１丁目４番３３－１４４６号,,13,108,1350043,,,2025-11-27,清算の結了等,,,2021-05-31,1,,,,,エフフォーリア,0
2369,9010801008348,登記記録の閉鎖等,0,2025-12-03,2025-11-19,株式会社トーハル,,株式会社,東京都,大田区,北馬込２丁目３３番１号,,13,111,1430021,,,2025-11-19,清算の結了等,,,2025-06-02,1,,,,,トーハル,0
2396,9011101067200,登記記録の閉鎖等,0,2025-12-03,2025-12-01,株式会社ＭＥＤＩＣＯ,,株式会社,東京都,杉並区,上荻１丁目７番３号プラネッツ１階,,13,115,1670043,,,2025-12-01,合併による解散等,8011301021602,令和７年１２月１日東京都杉並区西荻北二丁目３番９号メディカルグレース株式会社（8011301021602）に合併し解散,2015-10-05,1,,,,,メディコ,0
2400,9011105001857,登記記録の閉鎖等,0,2025-12-03,2025-11-05,特定非営利活動法人リカバリー・サポート・センター,,その他の設立登記法人,東京都,新宿区,新宿１丁目１５番６号オリエント新宿２０４号,,13,104,1600022,,,2025-11-05,清算の結了等,,,2015-10-05,1,,,,,リカバリーサポートセンター,0
2407,9011402017795,登記記録の閉鎖等,0,2025-12-03,2025-12-01,有限会社中村インテリア,,有限会社,東京都,板橋区,高島平５丁目４１番８号,,13,119,1750082,,,2025-12-01,清算の結了等,,,2015-10-05,1,,,,,,0
2408,9011601004578,登記記録の閉鎖等,0,2025-12-03,2025-12-01,株式会社東京フイルム研究所,,株式会社,東京都,練馬区,下石神井２丁目１７番４号,,13,120,1770042,,,2025-12-01,清算の結了等,,,2015-10-05,1,,,,,トウキョウフイルムケンキュウジョ,0
2413,9011802013023,登記記録の閉鎖等,0,2025-12-03,2025-11-27,有限会社サンコー技研,,有限会社,東京都,足立区,柳原２丁目１５番７号,,13,121,1200022,,,2025-11-27,清算の結了等,,,2015-10-05,1,,,,,,0
2425,9012703000960,登記記録の閉鎖等,0,2025-12-03,2025-11-27,合同会社Ｓ＆Ｋ物産,,合同会社,東京都,西東京市,谷戸町１丁目１０番４号,,13,229,1880001,,,2025-11-27,清算の結了等,,,2015-10-05,1,,,,,,0
2444,9021002044818,登記記録の閉鎖等,0,2025-12-03,2025-11-11,有限会社カタノ,,有限会社,神奈川県,海老名市,中新田２丁目１０番２２号,,14,215,2430422,,,2025-11-11,清算の結了等,,,2015-10-05,1,,,,,カタノ,0
2445,9021002055682,登記記録の閉鎖等,0,2025-12-03,2025-11-12,有限会社丸島水産,,有限会社,神奈川県,足柄上郡開成町,吉田島９０９番地,,14,366,2580021,,,2025-11-12,清算の結了等,,,2015-10-05,1,,,,,マルシマスイサン,0
2446,9021005008588,登記記録の閉鎖等,0,2025-12-03,2025-11-11,特定非営利活動法人パル,,その他の設立登記法人,神奈川県,逗子市,池子２丁目８番１４号,,14,208,2490003,,,2025-11-11,清算の結了等,,,2015-10-05,1,,,,,パル,0
2460,9040001079600,登記記録の閉鎖等,0,2025-12-03,2025-11-10,株式会社ヒラヤマ防水,,株式会社,千葉県,船橋市,西習志野３丁目３７番１５号,,12,204,2740815,,,2025-11-10,清算の結了等,,,2015-10-05,1,,,,,ヒラヤマボウスイ,0
2466,9040002090457,登記記録の閉鎖等,0,2025-12-03,2025-11-10,有限会社大信硝子,,有限会社,千葉県,柏市,十余二２９７番地,,12,217,2770872,,,2025-11-10,清算の結了等,,,2015-10-05,1,,,,,ダイシンガラス,0
2483,9080401001630,登記記録の閉鎖等,0,2025-12-03,2025-11-25,小池石油株式会社,,株式会社,静岡県,浜松市中央区,上浅田２丁目４番２３号,,22,138,4328042,,,2025-11-25,清算の結了等,,,2015-10-05,1,,,,,コイケセキユ,0
2497,9120001170433,登記記録の閉鎖等,0,2025-12-03,2025-11-25,株式会社エコライフ・サービス,,株式会社,大阪府,大阪市東住吉区,今川１丁目３番１７号,,27,121,5460003,,,2025-11-25,清算の結了等,,,2015-10-05,1,,,,,エコライフサービス,0
2505,9120002000036,登記記録の閉鎖等,0,2025-12-03,2025-12-01,有限会社旭貿易,,有限会社,大阪府,大阪市旭区,高殿２丁目８番３８－７２０号,,27,117,5350031,,,2025-12-01,清算の結了等,,,2015-10-05,1,,,,,アサヒボウエキ,0
2513,9120005011311,登記記録の閉鎖等,0,2025-12-03,2025-12-01,特定非営利活動法人タクラマカン砂漠緑化の会,,その他の設立登記法人,大阪府,大阪市北区,東天満２丁目９番１号,,27,127,5300044,,,2025-12-01,清算の結了等,,,2015-10-05,1,,,,,タクラマカンサバクリョッカノカイ,0
2519,9120103002435,登記記録の閉鎖等,0,2025-12-03,2025-11-28,ブレッシングオブパンタイ合同会社,,合同会社,大阪府,堺市堺区,北三国ヶ丘町８丁８－１５ディ・カビーネ４Ｇ,,27,141,5900021,,,2025-11-28,清算の結了等,,,2016-03-29,1,,,,,,0
2525,9122003002481,登記記録の閉鎖等,0,2025-12-03,2025-11-19,合同会社朝焼けいちばん,,合同会社,大阪府,八尾市,高安町南６丁目１番地の５号,,27,212,5810875,,,2025-11-19,清算の結了等,,,2023-01-17,1,,,,,アサヤケイチバン,0
2528,9130001008954,登記記録の閉鎖等,0,2025-12-03,2025-12-01,株式会社アーモン,,株式会社,京都府,京都市東山区,古門前通大和大路東入３丁目古西町３２４番地,,26,105,6050065,,,2025-12-01,清算の結了等,,,2015-10-05,1,,,,,アーモン,0
2531,9130002017764,登記記録の閉鎖等,0,2025-12-03,2025-12-01,有限会社ルラーシュ,,有限会社,京都府,京都市中京区,寺町通錦小路下る東大文字町３０６番地,,26,104,6048043,,,2025-12-01,清算の結了等,,,2015-10-05,1,,,,,ルラーシュ,0
2534,9130005004578,登記記録の閉鎖等,0,2025-12-03,2025-11-28,高野ウエスト商店街振興組合,,その他の設立登記法人,京都府,京都市左京区,高野西開町５５の２,,26,103,6068103,,,2025-11-28,清算の結了等,,,2015-10-05,1,,,,,タカノウエスト,0
2542,9140003018975,登記記録の閉鎖等,0,2025-12-03,2025-11-28,合同会社Ｌｏｔｕｓ,,合同会社,兵庫県,高砂市,荒井町蓮池２丁目１１番１１号,,28,216,6760013,,,2025-11-28,清算の結了等,,,2023-04-17,1,,,,,ロータス,0
2546,9160001023950,登記記録の閉鎖等,0,2025-12-03,2025-12-01,ＴＭＮ株式会社,,株式会社,滋賀県,大津市,石山寺３丁目２６番１号,,25,201,5200861,,,2025-12-01,清算の結了等,,,2022-01-19,1,,,,,ティーエムエヌ,0
2566,9180002011754,登記記録の閉鎖等,0,2025-12-03,2025-12-01,有限会社西部建築構造設計事務所,,有限会社,愛知県,名古屋市北区,清水３丁目１９番８号,,23,103,4620844,,,2025-12-01,清算の結了等,,,2015-10-05,1,,,,,ニシベケンチクコウゾウセッケイジムショ,0
2569,9180003016728,登記記録の閉鎖等,0,2025-12-03,2025-11-28,ａｔｅｌｉｅｒ　Ｎｅｕ合同会社,,合同会社,愛知県,名古屋市千種区,振甫町２丁目２４番地の２,,23,101,4640072,,,2025-11-28,清算の結了等,,,2015-11-19,1,,,,,アトリエノイ,0
2572,9180301002355,登記記録の閉鎖等,0,2025-12-03,2025-11-11,レッドバロン津島株式会社,,株式会社,愛知県,岡崎市,大平町字市木２８番地,,23,202,4440007,,,2025-11-11,合併による解散等,7180301002266,令和７年１１月１日愛知県岡崎市藤川町字境松西１番地株式会社レッドバロン（7180301002266）に合併し解散,2015-10-05,1,,,,,レッドバロンツシマ,0
2573,9180301002371,登記記録の閉鎖等,0,2025-12-03,2025-11-11,レッドバロン一宮株式会社,,株式会社,愛知県,岡崎市,大平町字市木２８番地,,23,202,4440007,,,2025-11-11,合併による解散等,7180301002266,令和７年１１月１日愛知県岡崎市藤川町字境松西１番地株式会社レッドバロン（7180301002266）に合併し解散,2015-10-05,1,,,,,レッドバロンイチノミヤ,0
2582,9200001014094,登記記録の閉鎖等,0,2025-12-03,2025-11-27,日特工業株式会社,,株式会社,岐阜県,大垣市,禾森町３丁目２０６３番地の２,,21,202,5030852,,,2025-11-27,清算の結了等,,,2015-10-05,1,,,,,ニットクコウギョウ,0
2586,9200002025355,登記記録の閉鎖等,0,2025-12-03,2025-11-17,株式会社正学社,,株式会社,東京都,千代田区,麹町３丁目３番地ＫＤＸ麹町ビル４階,,13,101,1020083,,,2025-11-17,清算の結了等,,,2015-10-05,1,,,,,ショウガクシャ,0
2588,9210001017765,登記記録の閉鎖等,0,2025-12-03,2025-11-28,株式会社スマートランザクション,,株式会社,福井県,福井市,宝永４丁目１４番２２号,,18,201,9100004,,,2025-11-28,清算の結了等,,,2019-10-23,1,,,,,スマートランザクション,0
2594,9250001002945,登記記録の閉鎖等,0,2025-12-03,2025-12-01,伊藤鉄工株式会社,,株式会社,山口県,宇部市,厚南北４丁目１８番１０号,,35,202,7590209,,,2025-12-01,合併による解散等,1250002004907,令和７年１２月１日山口県宇部市大字妻崎開作１８６７番地２キチナンテクノエンジ株式会社（1250002004907）に合併し解散,2015-10-05,1,,,,,イトウテッコウ,0
2598,9260001028155,登記記録の閉鎖等,0,2025-12-03,2025-12-01,株式会社アソシエ,,株式会社,岡山県,苫田郡鏡野町,円宗寺１４１７番地,,33,606,7080321,,,2025-12-01,清算の結了等,,,2015-10-05,1,,,,,,0
2602,9260002019509,登記記録の閉鎖等,0,2025-12-03,2025-12-01,有限会社タチカワ電工,,有限会社,岡山県,倉敷市,日ノ出町２丁目４番２３号,,33,202,7100063,,,2025-12-01,清算の結了等,,,2015-10-05,1,,,,,タチカワデンコウ,0
2611,9290001057498,登記記録の閉鎖等,0,2025-12-03,2025-11-05,株式会社博米,,株式会社,福岡県,福岡市博多区,堅粕２丁目１３番１２号,,40,132,8120043,,,2025-11-05,清算の結了等,,,2015-10-05,1,,,,,ハクベイ,0
2614,9290001098402,登記記録の閉鎖等,0,2025-12-03,2025-11-26,前田機工株式会社,,株式会社,福岡県,大牟田市,住吉町４番地７クローバーマンション大牟田ＩＩ２０３号,00127366,40,202,8360024,,,2025-11-26,清算の結了等,,,2022-07-29,1,,,,,マエダキコウ,0
2624,9290801006448,登記記録の閉鎖等,0,2025-12-03,2025-12-01,株式会社ホーコーインテム,,株式会社,福岡県,北九州市門司区,小森江１丁目４番５９号,,40,101,8000007,,,2025-12-01,清算の結了等,,,2015-10-05,1,,,,,ホーコーインテム,0
2633,9320202000146,登記記録の閉鎖等,0,2025-12-03,2025-11-27,有限会社川野電機,,有限会社,大分県,臼杵市,大字江無田２８２番地の１,,44,206,8750023,,,2025-11-27,清算の結了等,,,2015-10-05,1,,,,,カワノデンキ,0
2640,9370802001720,登記記録の閉鎖等,0,2025-12-03,2025-11-27,有限会社明広産業,,有限会社,宮城県,亘理郡亘理町,逢隈榎袋字須賀川１６８番地,00082246,04,361,9892321,,,2025-11-27,清算の結了等,,,2015-10-05,1,,,,,メイコウサンギョウ,0
2646,9380003000802,登記記録の閉鎖等,0,2025-12-03,2025-11-27,合資会社母畑元湯,,合資会社,福島県,石川郡石川町,大字母畑字樋田１１２番地,00084225,07,501,9637831,,,2025-11-27,清算の結了等,,,2015-10-05,1,,,,,ボバタモトユ,0
2653,9400002000296,登記記録の閉鎖等,0,2025-12-03,2025-11-25,株式会社岩手日報都南センター,,株式会社,岩手県,盛岡市,永井２５地割６９番地３,,03,201,0200834,,,2025-11-25,合併による解散等,9400001013076,令和７年１１月１０日岩手県盛岡市永井２５地割６９番地３株式会社トータルケア（9400001013076）に合併し解散,2015-10-05,1,,,,,イワテニッポウトナンセンター,0
2661,9430002065304,登記記録の閉鎖等,0,2025-12-03,2025-11-28,有限会社合田板金工業,,有限会社,北海道,登別市,緑町１丁目１４番地５,,01,230,0590024,,,2025-11-28,清算の結了等,,,2015-10-05,1,,,,,ゴウダバンキンコウギョウ,0
2666,9450002009531,登記記録の閉鎖等,0,2025-12-03,2025-12-01,有限会社丸ワ渡辺商店,,有限会社,北海道,空知郡上富良野町,東町４丁目１番３３号,,01,460,0710555,,,2025-12-01,清算の結了等,,,2015-10-05,1,,,,,,0
