sequenceNumber,corporateNumber,process,correct,updateDate,changeDate,name,nameImageId,kind,prefectureName,cityName,streetNumber,addressImageId,prefectureCode,cityCode,postCode,addressOutside,addressOutsideImageId,closeDate,closeCause,successorCorporateNumber,changeCause,assignmentDate,latest,enName,enPrefectureName,enCityName,enAddressOutside,furigana,hihyoji
7,1010001241847,新規,0,2024-01-29,2024-01-29,スターツ環境開発株式会社,,株式会社,東京都,中央区,日本橋３丁目４番１０号,,13,102,1030027,,,,,,,2024-01-29,1,,,,,スターツカンキョウカイハツ,0
8,1010001241855,新規,0,2024-01-29,2024-01-29,ＨＬＳ株式会社,,株式会社,東京都,文京区,向丘２丁目２３－１６,,13,105,1130023,,,,,,,2024-01-29,1,,,,,エイチエルエス,0
10,1010003042731,新規,0,2024-01-29,2024-01-29,ソーラーニーチェ合同会社,,合同会社,東京都,中央区,八丁堀４丁目２番１０号ＡＯＪ税理士法人内,,13,102,1040032,,,,,,,2024-01-29,1,,,,,ソーラーニーチェ,0
11,1010003042789,新規,0,2024-01-29,2024-01-29,合同会社ＮＮＲファンド第１号,,合同会社,東京都,千代田区,丸の内３丁目１番１号東京共同会計事務所内,,13,101,1000005,,,,,,,2024-01-29,1,,,,,エヌエヌアールファンドダイイチゴウ,0
12,1010005037812,新規,0,2024-01-29,2024-01-29,ペリカン４一般社団法人,,その他の設立登記法人,東京都,千代田区,丸の内３丁目１番１号東京共同会計事務所内,,13,101,1000005,,,,,,,2024-01-29,1,,,,,ペリカンフォー,0
14,1010401179951,新規,0,2024-01-29,2024-01-29,株式会社Ｂｅｌａｙ,,株式会社,東京都,港区,白金台５丁目１５番１号フォルマ白金３０２,,13,103,1080071,,,,,,,2024-01-29,1,,,,,ビレイ,0
15,1010401179968,新規,0,2024-01-29,2024-01-29,株式会社秋山商事,,株式会社,東京都,港区,港南２丁目４番１８号,,13,103,1080075,,,,,,,2024-01-29,1,,,,,,0
25,1010403031838,新規,0,2024-01-29,2024-01-29,ｏ合同会社,,合同会社,東京都,港区,南青山２丁目２番１５号ウィン青山９４２,,13,103,1070062,,,,,,,2024-01-29,1,,,,,オ,0
33,1010505003487,新規,0,2024-01-29,2024-01-29,一般社団法人国際介護研究委員会,,その他の設立登記法人,東京都,台東区,台東２丁目２７番３号ＮＳＫビル１０Ｆ,,13,106,1100016,,,,,,,2024-01-29,1,,,,,コクサイカイゴケンキュウイインカイ,0
34,1010601064557,新規,0,2024-01-29,2024-01-29,株式会社ＫｅｙＲｉｎｇ,,株式会社,東京都,江東区,三好１丁目８番３号,,13,108,1350022,,,,,,,2024-01-29,1,,,,,キーリング,0
35,1010603010609,新規,0,2024-01-29,2024-01-29,アイエヌジー合同会社,,合同会社,東京都,江東区,有明３丁目７番２６号有明フロンティアビルＢ棟９階,,13,108,1350063,,,,,,,2024-01-29,1,,,,,アイエヌジー,0
47,1011001155806,新規,0,2024-01-29,2024-01-29,株式会社ＡＺＵＲＥ,,株式会社,東京都,渋谷区,神宮前３丁目３７番１－３０８号ザ・神宮前レジデンス,,13,113,1500001,,,,,,,2024-01-29,1,,,,,アズール,0
48,1011001159658,新規,0,2024-01-29,2024-01-29,ＱＵＩＣＫ　ＳＨＯＰＰＩＮＧ株式会社,,株式会社,東京都,渋谷区,円山町５番５号Ｎａｖｉ渋谷Ｖ３Ｆ,,13,113,1500044,,,,,,,2024-01-29,1,,,,,クイックショッピング,0
49,1011003018382,新規,0,2024-01-29,2024-01-29,ライトコンサルティング合同会社,,合同会社,東京都,目黒区,原町２丁目１番８－３０２号,,13,110,1520011,,,,,,,2024-01-29,1,,,,,ライトコンサルティング,0
52,1011101106007,新規,0,2024-01-29,2024-01-29,株式会社Ｆｒｅｅ　ｃｈｏｉｃｅ,,株式会社,東京都,新宿区,西新宿３丁目３番１３号西新宿水間ビル６階,,13,104,1600023,,,,,,,2024-01-29,1,,,,,フリーチョイス,0
53,1011103014034,新規,0,2024-01-29,2024-01-29,合同会社出野,,合同会社,東京都,新宿区,西新宿６丁目９－１－６０３,,13,104,1600023,,,,,,,2024-01-29,1,,,,,イデノ,0
54,1011401025815,新規,0,2024-01-29,2024-01-29,株式会社Ｌｉｂｅｒｔｙ　Ｇａｒｄｅｎｅｒ,,株式会社,東京都,板橋区,成増１丁目６番１５号寿ハイツＢ－２,,13,119,1750094,,,,,,,2024-01-29,1,,,,,リバティガーデナー,0
57,1011601027495,新規,0,2024-01-29,2024-01-29,株式会社エンタメイト,,株式会社,東京都,練馬区,旭町３丁目２４番１９号リビナ奥村ドゥー１０１,,13,120,1790071,,,,,,,2024-01-29,1,,,,,エンタメイト,0
60,1011703003725,新規,0,2024-01-29,2024-01-29,合同会社クリメディア,,合同会社,東京都,江戸川区,松江７丁目３３－２,,13,123,1320025,,,,,,,2024-01-29,1,,,,,クリメディア,0
61,1011801043706,新規,0,2024-01-29,2024-01-29,株式会社ＺＡＩ,,株式会社,東京都,葛飾区,西亀有４丁目２１番８－４０９号ＡＺＥＳＴ亀有ＩＩ,00133540,13,122,1250002,,,,,,,2024-01-29,1,,,,,ザイ,0
67,1012401041463,新規,0,2024-01-29,2024-01-29,Ｗａｄｏｎａ　Ｃｒｅａｔｉｏｎ株式会社,,株式会社,東京都,武蔵野市,吉祥寺本町１丁目２０番１号吉祥寺永谷シティプラザ１００２,,13,203,1800004,,,,,,,2024-01-29,1,,,,,ワドナクリエーション,0
68,1012401041471,新規,0,2024-01-29,2024-01-29,優伸電設株式会社,,株式会社,東京都,三鷹市,北野１丁目１番９－１０１号,,13,204,1810003,,,,,,,2024-01-29,1,,,,,ユウシンデンセツ,0
70,1012405004937,新規,0,2024-01-29,2024-01-29,一般社団法人ＩＴＥ,,その他の設立登記法人,東京都,武蔵野市,吉祥寺本町１丁目１２番９号ＶＯＲＴ吉祥寺４階,,13,203,1800004,,,,,,,2024-01-29,1,,,,,アイト,0
71,1012801022939,新規,0,2024-01-29,2024-01-29,株式会社ＲＥＮＴＯ,,株式会社,東京都,武蔵村山市,学園１丁目２３番地の２９,,13,223,2080011,,,,,,,2024-01-29,1,,,,,レント,0
75,1013301051973,新規,0,2024-01-29,2024-01-29,株式会社せんせい,,株式会社,東京都,豊島区,北大塚３丁目２８番７号ガリシア大塚５０３,,13,116,1700004,,,,,,,2024-01-29,1,,,,,センセイ,0
81,1020001155476,新規,0,2024-01-29,2024-01-29,御川株式会社,,株式会社,神奈川県,横浜市神奈川区,栄町１１番地９ライオンズマンション横浜５０６号,,14,102,2210052,,,,,,,2024-01-29,1,,,,,ミカワ,0
82,1020001155501,新規,0,2024-01-29,2024-01-29,株式会社ＳＳＢ,,株式会社,神奈川県,横浜市西区,北幸２丁目１０番地４８むつみビル３Ｆ,,14,103,2200004,,,,,,,2024-01-29,1,,,,,エスエスビー,0
83,1020001155550,新規,0,2024-01-29,2024-01-29,Ｎｅｔ　Ｐｅａｃｅ株式会社,,株式会社,神奈川県,横浜市西区,西平沼町３－５,,14,103,2200024,,,,,,,2024-01-29,1,,,,,ネットピース,0
86,1020003025454,新規,0,2024-01-29,2024-01-29,源泉合同会社,,合同会社,神奈川県,横浜市緑区,いぶき野６７番地２７,,14,113,2260028,,,,,,,2024-01-29,1,,,,,ゲンセン,0
89,1021001081316,新規,0,2024-01-29,2024-01-29,くれよん株式会社,,株式会社,神奈川県,座間市,入谷東４丁目５４番３１－７０３号ホワトパレット,,14,216,2520028,,,,,,,2024-01-29,1,,,,,クレヨン,0
90,1021001081324,新規,0,2024-01-29,2024-01-29,株式会社伊藤設備,,株式会社,神奈川県,相模原市南区,相模台５丁目８番１５号,,14,153,2520321,,,,,,,2024-01-29,1,,,,,イトウセツビ,0
114,1030001158313,新規,0,2024-01-29,2024-01-29,株式会社ぷろメディカルけあ,,株式会社,埼玉県,川口市,弥平１丁目４番１１号,,11,203,3320002,,,,,,,2024-01-29,1,,,,,プロメディカルケア,0
115,1030001158321,新規,0,2024-01-29,2024-01-29,株式会社読売センター春日部西部,,株式会社,埼玉県,春日部市,豊町５丁目４番地２１,,11,214,3440066,,,,,,,2024-01-29,1,,,,,ヨミウリセンターカスカベセイブ,0
116,1030001158338,新規,0,2024-01-29,2024-01-29,株式会社ＶＩＬＯＰ,,株式会社,埼玉県,行田市,佐間２丁目１２番１１号,,11,206,3610032,,,,,,,2024-01-29,1,,,,,ヴィラップ,0
117,1030001158379,新規,0,2024-01-29,2024-01-29,株式会社マミヤ,,株式会社,埼玉県,さいたま市西区,大字西遊馬２８０番地１,,11,101,3310061,,,,,,,2024-01-29,1,,,,,マミヤ,0
118,1030001158387,新規,0,2024-01-29,2024-01-29,株式会社２４,,株式会社,埼玉県,所沢市,中新井３丁目１９番９号,,11,208,3590041,,,,,,,2024-01-29,1,,,,,トゥエンティーフォー,0
162,1030003023523,新規,0,2024-01-29,2024-01-29,合同会社リグラス,,合同会社,埼玉県,川越市,砂新田１丁目３番地４３,,11,201,3501137,,,,,,,2024-01-29,1,,,,,リグラス,0
163,1030003023531,新規,0,2024-01-29,2024-01-29,ｆｌｙ合同会社,,合同会社,埼玉県,幸手市,南１丁目５－１０,,11,240,3400156,,,,,,,2024-01-29,1,,,,,フライ,0
179,1040003024157,新規,0,2024-01-29,2024-01-29,合同会社グリーンレモン,,合同会社,千葉県,千葉市花見川区,作新台８丁目４－３,,12,102,2620045,,,,,,,2024-01-29,1,,,,,グリーンレモン,0
180,1040003024231,新規,0,2024-01-29,2024-01-29,合同会社ぎあはーと,,合同会社,千葉県,白井市,清水口３丁目３０‐８,,12,232,2701435,,,,,,,2024-01-29,1,,,,,ギアハート,0
181,1040005022258,新規,0,2024-01-29,2024-01-29,医療法人社団悠希会,,その他の設立登記法人,千葉県,印西市,西の原５丁目１２番地１印西医療クリニックビル１階,,12,231,2701334,,,,,,,2024-01-29,1,,,,,ユウキカイ,0
191,1050001054188,新規,0,2024-01-29,2024-01-29,株式会社ヒシキ＆Ｑ,,株式会社,茨城県,猿島郡五霞町,大字元栗橋５９７１番地３１,,08,542,3060313,,,,,,,2024-01-29,1,,,,,ヒシキアンドキュウ,0
192,1050001054196,新規,0,2024-01-29,2024-01-29,ポッドテック株式会社,,株式会社,茨城県,つくば市,吾妻２丁目５－１,,08,220,3050031,,,,,,,2024-01-29,1,,,,,ポッドテック,0
206,1060001036771,新規,0,2024-01-29,2024-01-29,株式会社Ｆ＆Ｆ,,株式会社,栃木県,那須烏山市,落合８６番地,,09,215,3210636,,,,,,,2024-01-29,1,,,,,エフアンドエフ,0
208,1070001041317,新規,0,2024-01-29,2024-01-29,株式会社ＦＲＯＨＡＵＳ,,株式会社,群馬県,高崎市,本町１１８番地２,,10,202,3700813,,,,,,,2024-01-29,1,,,,,フォーハウス,0
209,1070001041325,新規,0,2024-01-29,2024-01-29,株式会社Ｎｏｘ,,株式会社,群馬県,前橋市,古市町４９７番地４,,10,201,3710844,,,,,,,2024-01-29,1,,,,,ノックス,0
210,1070001041333,新規,0,2024-01-29,2024-01-29,ＡＫＹＵ株式会社,,株式会社,群馬県,太田市,飯塚町９１１番地２コートドリームＡ１０２,,10,205,3730817,,,,,,,2024-01-29,1,,,,,,0
211,1070003005253,新規,0,2024-01-29,2024-01-29,合同会社Ｉｎｓｐｅｃｔｉｏｎ,,合同会社,群馬県,太田市,鶴生田町２６１番地,,10,205,3730008,,,,,,,2024-01-29,1,,,,,インスペクション,0
213,1080401026973,新規,0,2024-01-29,2024-01-29,株式会社Ｔ＆Ｍ,,株式会社,静岡県,磐田市,豊岡６１１５番地の５,,22,211,4380231,,,,,,,2024-01-29,1,,,,,ティーアンドエム,0
220,1110001038135,新規,0,2024-01-29,2024-01-29,株式会社力鳶興業,,株式会社,新潟県,新潟市東区,新松崎３丁目３番６号,,15,102,9500017,,,,,,,2024-01-29,1,,,,,リキトビコウギョウ,0
229,1120001261685,新規,0,2024-01-29,2024-01-29,ＷＥＬＬ　ＴＲＡＶＥＬ株式会社,,株式会社,大阪府,大阪市東住吉区,杭全２丁目７－１４,,27,121,5460002,,,,,,,2024-01-29,1,,,,,ウェルトラベル,0
230,1120001261792,新規,0,2024-01-29,2024-01-29,株式会社ＪＯＹ,,株式会社,大阪府,大阪市中央区,谷町６丁目１７番３９－２０４号,,27,128,5420012,,,,,,,2024-01-29,1,,,,,ジョイ,0
232,1120005024130,新規,0,2024-01-29,2024-01-29,一般社団法人ふらっとふぃーるど,,その他の設立登記法人,大阪府,枚方市,藤阪元町２丁目２６番１１－１０３号,,27,210,5730157,,,,,,,2024-01-29,1,,,,,フラットフィールド,0
234,1120901048703,新規,0,2024-01-29,2024-01-29,株式会社ビーコンタクト,,株式会社,大阪府,茨木市,大正町２番１５－１０５号,,27,211,5670867,,,,,,,2024-01-29,1,,,,,ビーコンタクト,0
238,1122001037776,新規,0,2024-01-29,2024-01-29,株式会社ＡＤＥＰＡＤＯ一級建築士事務所,,株式会社,大阪府,東大阪市,東石切町５丁目５７４番１３,,27,227,5798011,,,,,,,2024-01-29,1,,,,,アデパドイッキュウケンチクシジムショ,0
242,1130001076232,新規,0,2024-01-29,2024-01-29,株式会社モン・シェールアヴニール,,株式会社,京都府,京都市伏見区,深草大亀谷大山町２１番地１,,26,109,6120847,,,,,,,2024-01-29,1,,,,,モンシェールアヴニール,0
243,1130003009264,新規,0,2024-01-29,2024-01-29,ＫＯＹＡ合同会社,,合同会社,京都府,京都市下京区,早尾町３１４番地,,26,106,6008114,,,,,,,2024-01-29,1,,,,,コヤ,0
270,1140001133081,新規,0,2024-01-29,2024-01-29,株式会社ＳＨＩＲＯＯＫＡ,,株式会社,兵庫県,加古川市,加古川町稲屋１００９番地５,,28,210,6750034,,,,,,,2024-01-29,1,,,,,シロオカ,0
271,1140001133148,新規,0,2024-01-29,2024-01-29,株式会社豊永,,株式会社,兵庫県,神戸市兵庫区,浜中町１丁目１６番１８号フレール浜山１－８０５号,,28,105,6520875,,,,,,,2024-01-29,1,,,,,トヨナガ,0
298,1180001159940,新規,0,2024-01-29,2024-01-29,株式会社進欣,,株式会社,愛知県,津島市,蛭間町字西屋敷１０８９番地,,23,208,4960004,,,,,,,2024-01-29,1,,,,,シンキン,0
299,1180001159965,新規,0,2024-01-29,2024-01-29,株式会社ｂｅｓｔｉｅ,,株式会社,愛知県,名古屋市東区,白壁４丁目５１番地グラン　レ・ジェイド　白壁　凛然ノ邸４０１号,,23,102,4610011,,,,,,,2024-01-29,1,,,,,ベスティー,0
304,1190003004565,新規,0,2024-01-29,2024-01-29,合同会社ＲＢＯ,,合同会社,三重県,伊勢市,宮町１丁目１０番１５号,,24,203,5160077,,,,,,,2024-01-29,1,,,,,アールビーオー,0
307,1200003006221,新規,0,2024-01-29,2024-01-29,合同会社Ｖｅｔｓ　Ｌａｂｏ　Ｌａｕｌｅ’ａ,,合同会社,岐阜県,海津市,南濃町羽沢３９６番地４,,21,221,5030413,,,,,,,2024-01-29,1,,,,,ベッツラボラウレア,0
315,1260001038707,新規,0,2024-01-29,2024-01-29,みやけ株式会社,,株式会社,岡山県,倉敷市,新田２７５５番地６,,33,202,7100038,,,,,,,2024-01-29,1,,,,,ミヤケ,0
316,1260001038715,新規,0,2024-01-29,2024-01-29,株式会社ＵＭＰ,,株式会社,岡山県,岡山市北区,青江１丁目１３番２２号メゾンドール青江１０１,,33,101,7000941,,,,,,,2024-01-29,1,,,,,ユーエムーピー,0
320,1280001009111,新規,0,2024-01-29,2024-01-29,出雲コネクション株式会社,,株式会社,島根県,雲南市,三刀屋町粟谷５４番地２,,32,209,6902513,,,,,,,2024-01-29,1,,,,,イズモコネクション,0
327,1290001104480,新規,0,2024-01-29,2024-01-29,株式会社トーコー福岡,,株式会社,福岡県,福岡市博多区,東比恵３丁目１２番１６号,,40,132,8120007,,,,,,,2024-01-29,1,,,,,トーコーフクオカ,0
328,1290001104514,新規,0,2024-01-29,2024-01-29,株式会社ホープライン,,株式会社,福岡県,みやま市,山川町尾野１４２４－６,,40,229,8350102,,,,,,,2024-01-29,1,,,,,ホープライン,0
335,1320001020261,新規,0,2024-01-29,2024-01-29,株式会社すばるセンター学園,,株式会社,大分県,大分市,南春日町５番２－１号,,44,201,8700815,,,,,,,2024-01-29,1,,,,,スバルセンターガクエン,0
338,1330001031704,新規,0,2024-01-29,2024-01-29,株式会社ＳＩＮＦＡ,,株式会社,熊本県,熊本市中央区,花畑町１番１４号,,43,101,8600806,,,,,,,2024-01-29,1,,,,,シンファ,0
340,1330005010753,新規,0,2024-01-29,2024-01-29,社会保険労務士法人さくら優和,,その他の設立登記法人,熊本県,熊本市中央区,辛島町６９ＬＡＭОＮＴＥ１　６Ｆ,,43,101,8600804,,,,,,,2024-01-29,1,,,,,サクラユウワ,0
342,1350001018765,新規,0,2024-01-29,2024-01-29,すずらん保険株式会社,,株式会社,宮崎県,小林市,駅南３２番地,,45,205,8860009,,,,,,,2024-01-29,1,,,,,スズランホケン,0
348,1360001033128,新規,0,2024-01-29,2024-01-29,株式会社ＡＢＣＫＯＮ,,株式会社,沖縄県,沖縄市,諸見里１丁目２－２３,,47,211,9040032,,,,,,,2024-01-29,1,,,,,エービーシーコン,0
349,1360003013648,新規,0,2024-01-29,2024-01-29,オキナワハッピーカンパニー合同会社,,合同会社,沖縄県,うるま市,字天願１４６１,,47,213,9042202,,,,,,,2024-01-29,1,,,,,オキナワハッピーカンパニー,0
355,1400003003207,新規,0,2024-01-29,2024-01-29,合同会社グッド・チェンジ,,合同会社,岩手県,北上市,大通り３丁目３番８号,,03,206,0240061,,,,,,,2024-01-29,1,,,,,グッドチェンジ,0
356,1420001018576,新規,0,2024-01-29,2024-01-29,株式会社アオアパ,,株式会社,青森県,青森市,浪岡大字樽沢字村元３８１番地２,,02,201,0381342,,,,,,,2024-01-29,1,,,,,アオアパ,0
357,1430001090962,新規,0,2024-01-29,2024-01-29,ザ・ノースハウス株式会社,,株式会社,北海道,小樽市,銭函２丁目４５番１１号,,01,203,0470261,,,,,,,2024-01-29,1,,,,,ザノースハウス,0
358,1430003015892,新規,0,2024-01-29,2024-01-29,合同会社Ｒｅｌｅｎｔ,,合同会社,北海道,札幌市西区,琴似一条５丁目２番２１－１０２号,,01,107,0630811,,,,,,,2024-01-29,1,,,,,リレント,0
363,1480001012375,新規,0,2024-01-29,2024-01-29,株式会社ＴＡＫＩカッティング,,株式会社,徳島県,美馬市,脇町字拝原８１２番地１,,36,207,7793601,,,,,,,2024-01-29,1,,,,,タキカッティング,0
366,1700150123685,新規,0,2024-01-29,2024-01-29,ＭＴＦ　ＴＥＣＨＮＯＬＯＧＩＥＳ,,外国会社等,栃木県,小山市,大字南半田２０５３－１４スカイピーク１０２号室,,09,208,3230011,パキスタンカラチ、ナジマバード、ブロックＭ、ニューハイデリーマーケット、オフィス番号Ｃ－２９,,,,,,2024-01-29,1,,,,,エムテイーエフテクノロジーズ,0
369,2010001241854,新規,0,2024-01-29,2024-01-29,株式会社Ｌｉａｃｏ,,株式会社,東京都,中央区,銀座１丁目１２－４Ｎ＆ＥＢＬＤ．６Ｆ,,13,102,1040061,,,,,,,2024-01-29,1,,,,,リアコ,0
370,2010001241862,新規,0,2024-01-29,2024-01-29,株式会社Ｎｅｗ．,,株式会社,東京都,中央区,月島３丁目３番２号,,13,102,1040052,,,,,,,2024-01-29,1,,,,,ニュードット,0
371,2010001241879,新規,0,2024-01-29,2024-01-29,和英共創株式会社,,株式会社,東京都,中央区,勝どき２丁目８－１２東京ビュック中銀１４２２,,13,102,1040054,,,,,,,2024-01-29,1,,,,,ワエイキョウソウ,0
374,2010003042730,新規,0,2024-01-29,2024-01-29,ソーラープラトン合同会社,,合同会社,東京都,中央区,八丁堀４丁目２番１０号ＡＯＪ税理士法人内,,13,102,1040032,,,,,,,2024-01-29,1,,,,,ソーラープラトン,0
375,2010005037803,新規,0,2024-01-29,2024-01-29,一般社団法人日本縮毛矯正協会,,その他の設立登記法人,東京都,中央区,銀座６丁目１３－９ＧＩＲＡＣＧＩＮＺＡ１０Ｆ,,13,102,1040061,,,,,,,2024-01-29,1,,,,,ニホンシュクモウキョウセイキョウカイ,0
376,2010005037811,新規,0,2024-01-29,2024-01-29,一般社団法人ＡＲＫ０２,,その他の設立登記法人,東京都,千代田区,丸の内３丁目１番１号東京共同会計事務所内,,13,101,1000005,,,,,,,2024-01-29,1,,,,,アークゼロツー,0
381,2010401179892,新規,0,2024-01-29,2024-01-29,天子インベストメント株式会社,,株式会社,東京都,港区,三田５丁目４－４・２Ａ,,13,103,1080073,,,,,,,2024-01-29,1,,,,,,0
382,2010401179967,新規,0,2024-01-29,2024-01-29,株式会社ＬａｂＣｒｅａｔｅ,,株式会社,東京都,港区,南青山２丁目２番１５号ウィン青山９４２,,13,103,1070062,,,,,,,2024-01-29,1,,,,,ラボクリエイト,0
387,2010403031770,新規,0,2024-01-29,2024-01-29,おかだ合同会社,,合同会社,東京都,港区,赤坂８丁目１０－３４－３０３,,13,103,1070052,,,,,,,2024-01-29,1,,,,,オカダ,0
388,2010403031804,新規,0,2024-01-29,2024-01-29,ビッグフィッシュ合同会社,,合同会社,東京都,港区,赤坂４丁目７番６号赤坂ビジネスコート,,13,103,1070052,,,,,,,2024-01-29,1,,,,,ビッグフィッシュ,0
392,2010501051679,新規,0,2024-01-29,2024-01-29,ＴＩＭＥ　ＴＲＡＶＥＬＥＲ株式会社,,株式会社,東京都,台東区,三筋２丁目３番２号２階,,13,106,1110055,,,,,,,2024-01-29,1,,,,,タイムトラベラー,0
393,2010603010616,新規,0,2024-01-29,2024-01-29,合同会社ｋｙｒｏ,,合同会社,東京都,江東区,南砂３丁目８－１－１２１５,,13,108,1360076,,,,,,,2024-01-29,1,,,,,カイロ,0
397,2010901054604,新規,0,2024-01-29,2024-01-29,株式会社ＢＯＲＤＥＲＬＩＮＥ,,株式会社,東京都,世田谷区,赤堤１丁目１１番１５号,,13,112,1560044,,,,,,,2024-01-29,1,,,,,ボーダーライン,0
404,2011001159640,新規,0,2024-01-29,2024-01-29,Ｔａｋｅ‐５Ｇｌｏｂａｌ株式会社,,株式会社,東京都,渋谷区,神宮前６丁目２８番９号東武ビル６Ｆ,,13,113,1500001,,,,,,,2024-01-29,1,,,,,テークファイブグローバル,0
405,2011001159649,新規,0,2024-01-29,2024-01-29,株式会社Ｕｔａｔａｎｅ,,株式会社,東京都,渋谷区,道玄坂１丁目１０番８号渋谷道玄坂東急ビル２Ｆ－Ｃ,,13,113,1500043,,,,,,,2024-01-29,1,,,,,ウタタネ,0
406,2011003018398,新規,0,2024-01-29,2024-01-29,合同会社ＮＯＲＴＨ　ＰＯＩＮＴ,,合同会社,東京都,渋谷区,渋谷２丁目１９－１５宮益坂ビルディング６０９,,13,113,1500002,,,,,,,2024-01-29,1,,,,,ノースポイント,0
409,2011101105998,新規,0,2024-01-29,2024-01-29,株式会社Ｗｏｒｌｄ　Ｇｏ,,株式会社,東京都,新宿区,百人町２丁目２番４１号アリコヴェール４０２号,,13,104,1690073,,,,,,,2024-01-29,1,,,,,ワールドゴー,0
410,2011103014033,新規,0,2024-01-29,2024-01-29,合同会社ひいらぎ,,合同会社,東京都,新宿区,西新宿３丁目３番１３号西新宿水間ビル６階,,13,104,1600023,,,,,,,2024-01-29,1,,,,,ヒイラギ,0
411,2011301029361,新規,0,2024-01-29,2024-01-29,株式会社ＢＲＩＳＴＥＬＬＡ,,株式会社,東京都,杉並区,清水２丁目２１－１７,,13,115,1670033,,,,,,,2024-01-29,1,,,,,ブリステラ,0
415,2011501030251,新規,0,2024-01-29,2024-01-29,株式会社東宝ハウス王子,,株式会社,東京都,北区,本町一丁目１７番６号,,13,117,1140000,,,,,,,2024-01-29,1,,,,,トウホウハウスオウジ,0
416,2011601027494,新規,0,2024-01-29,2024-01-29,株式会社日本民間救急絆,,株式会社,東京都,練馬区,貫井４丁目３１番２号,,13,120,1760021,,,,,,,2024-01-29,1,,,,,ニホンミンカンキュウキュウキズナ,0
421,2013103001300,新規,0,2024-01-29,2024-01-29,ＢＯＣ合同会社,,合同会社,東京都,青梅市,新町８丁目２３－２８,,13,205,1980024,,,,,,,2024-01-29,1,,,,,ボック,0
426,2013301051956,新規,0,2024-01-29,2024-01-29,株式会社Ｎ＆Ｓ,,株式会社,東京都,豊島区,池袋４丁目１５番７号,,13,116,1710014,,,,,,,2024-01-29,1,,,,,エヌアンドエス,0
427,2013301051972,新規,0,2024-01-29,2024-01-29,株式会社わんぼいす,,株式会社,東京都,豊島区,雑司が谷１丁目４８番９－６０４号,,13,116,1710032,,,,,,,2024-01-29,1,,,,,ワンボイス,0
430,2020001155566,新規,0,2024-01-29,2024-01-29,株式会社ＮｏｖａＣｒｅａｔｅ,,株式会社,神奈川県,横浜市西区,北幸２丁目１０番４８号むつみビル３階,,14,103,2200004,,,,,,,2024-01-29,1,,,,,ノヴァクリエイト,0
438,2021001081331,新規,0,2024-01-29,2024-01-29,株式会社ｚｅｎｂｅｅ,,株式会社,神奈川県,藤沢市,大鋸３丁目４番９号,,14,205,2510002,,,,,,,2024-01-29,1,,,,,ゼンベェ,0
440,2021003014082,新規,0,2024-01-29,2024-01-29,ＦＡＡＺ　ＴＲＡＤＩＮＧ合同会社,,合同会社,神奈川県,茅ヶ崎市,芹沢６４６番地７－３,,14,207,2530008,,,,,,,2024-01-29,1,,,,,ファストレーディング,0
441,2021003014099,新規,0,2024-01-29,2024-01-29,合同会社みかん,,合同会社,神奈川県,相模原市南区,上鶴間本町７丁目３１―８,,14,153,2520318,,,,,,,2024-01-29,1,,,,,ミカン,0
464,2030001158378,新規,0,2024-01-29,2024-01-29,来客株式会社,,株式会社,埼玉県,三郷市,三郷３丁目１番２号ライオンズマンション三郷８０２号室,,11,237,3410024,,,,,,,2024-01-29,1,,,,,ライキャク,0
465,2030001158386,新規,0,2024-01-29,2024-01-29,株式会社アドバンスウィナー,,株式会社,埼玉県,さいたま市大宮区,上小町７６４番地４,,11,103,3300855,,,,,,,2024-01-29,1,,,,,アドバンスウィナー,0
506,2030003023489,新規,0,2024-01-29,2024-01-29,ＳＡｐａｙｍｅｎｔ合同会社,,合同会社,埼玉県,富士見市,鶴瀬東２丁目６番２０号ローズガーデンＩ２０２,,11,235,3540024,,,,,,,2024-01-29,1,,,,,エスエーペイメント,0
507,2030003023514,新規,0,2024-01-29,2024-01-29,合同会社アールアンドエー,,合同会社,埼玉県,さいたま市大宮区,土手町１丁目３３番地２ジェイドパレス７０６号室,,11,103,3300801,,,,,,,2024-01-29,1,,,,,アールアンドエー,0
508,2030003023522,新規,0,2024-01-29,2024-01-29,合同会社ＨＡＬＵ,,合同会社,埼玉県,さいたま市北区,奈良町１２２－２大宮奈良町ビューパレー１０３,,11,102,3310822,,,,,,,2024-01-29,1,,,,,ハル,0
514,2030005021532,新規,0,2024-01-29,2024-01-29,一般社団法人改革派長老会日本宣教センター,,その他の設立登記法人,埼玉県,川口市,芝樋ノ爪２丁目１－３福音第一ビル,,11,203,3330852,,,,,,,2024-01-29,1,,,,,カイカクハチョウロウカイニホンセンキョウセンター,0
515,2040001131937,新規,0,2024-01-29,2024-01-29,株式会社ライトフラット,,株式会社,千葉県,流山市,大字中野久木４３６番地の１３,,12,220,2700116,,,,,,,2024-01-29,1,,,,,ライトフラット,0
516,2040001131945,新規,0,2024-01-29,2024-01-29,株式会社Ｎ’ＥＸｔ　Ｐｌａｎｎｉｎｇ,,株式会社,千葉県,船橋市,前原西２丁目１４番２号津田沼駅前安田ビル別館２Ｆ,,12,204,2740825,,,,,,,2024-01-29,1,,,,,ネクストプランニング,0
520,2040003024172,新規,0,2024-01-29,2024-01-29,Ｓｕｎｎｙ　Ｔｒａｄｉｎｇ合同会社,,合同会社,千葉県,山武市,木原字松崎８７番地,,12,237,2891212,,,,,,,2024-01-29,1,,,,,サニートレーディング,0
521,2040005022257,新規,0,2024-01-29,2024-01-29,特定非営利活動法人Ｇｒｅａｔｅｒ　Ｂａｒｉｓａｌ　Ｓｏｃｉｅｔｙ　Ｊａｐａｎ,,その他の設立登記法人,千葉県,船橋市,印内２丁目１１番１２－２０１号,,12,204,2730039,,,,,,,2024-01-29,1,,,,,グレーターバリサルソサエティジャパン,0
531,2050001054187,新規,0,2024-01-29,2024-01-29,株式会社旭ファーム,,株式会社,茨城県,つくば市,高野２７５番地１,,08,220,3002642,,,,,,,2024-01-29,1,,,,,アサヒファーム,0
543,2060001036770,新規,0,2024-01-29,2024-01-29,株式会社ＢＡＲＳＭＩＴＨ,,株式会社,栃木県,那須塩原市,本郷町３番１４号パラダイスビル２Ｆ,,09,213,3250053,,,,,,,2024-01-29,1,,,,,バースミス,0
549,2070001041324,新規,0,2024-01-29,2024-01-29,旭株式会社,,株式会社,群馬県,伊勢崎市,平和町９番５号,,10,204,3720041,,,,,,,2024-01-29,1,,,,,,0
550,2070001041332,新規,0,2024-01-29,2024-01-29,株式会社羽生田ベジタブル,,株式会社,群馬県,吾妻郡嬬恋村,大字干俣１４９９番地,,10,425,3771611,,,,,,,2024-01-29,1,,,,,ハニュウダベジタブル,0
552,2070003005252,新規,0,2024-01-29,2024-01-29,合同会社ＩＧＭ,,合同会社,群馬県,前橋市,大胡町７１６番地６,,10,201,3710223,,,,,,,2024-01-29,1,,,,,アイジーエム,0
553,2080003003123,新規,0,2024-01-29,2024-01-29,ＣＡＲ　ＩＫＥＧＡＷＡ　ＭＯＴＯＲ　ＦＰＩ　ＪＡＰＡＮ　ＦＩＦＡ合同会社,,合同会社,静岡県,藤枝市,本町４丁目６番５号シャリティ本町３－Ａ,,22,214,4260018,,,,,,,2024-01-29,1,,,,,カーイケガワモーターエフピーアイジャパンフィーファ,0
556,2080401026964,新規,0,2024-01-29,2024-01-29,株式会社ファミリーファースト,,株式会社,静岡県,浜松市中央区,佐鳴台１丁目１５番３１号,,22,138,4328021,,,,,,,2024-01-29,1,,,,,ファミリーファースト,0
557,2080401026972,新規,0,2024-01-29,2024-01-29,株式会社ナカシオ,,株式会社,静岡県,浜松市中央区,舞阪町舞阪２３４４番地の３,,22,138,4310211,,,,,,,2024-01-29,1,,,,,ナカシオ,0
563,2100003007377,新規,0,2024-01-29,2024-01-29,ミテオリック合同会社,,合同会社,長野県,木曽郡木曽町,福島２７７３―１,,20,432,3970001,,,,,,,2024-01-29,1,,,,,ミテオリック,0
567,2110003005256,新規,0,2024-01-29,2024-01-29,合同会社マッシュマー,,合同会社,新潟県,上越市,本町７丁目１－２３,,15,222,9430832,,,,,,,2024-01-29,1,,,,,マッシュマー,0
573,2120001261676,新規,0,2024-01-29,2024-01-29,＿華株式会社,00133539,株式会社,大阪府,大阪市生野区,桃谷２丁目１２番２０号１０１,,27,116,5440034,,,,,,,2024-01-29,1,,,,,レイカ,0
574,2120001261718,新規,0,2024-01-29,2024-01-29,株式会社リプル,,株式会社,大阪府,大阪市北区,梅田１丁目２番２号大阪駅前第２ビル１２－１２,,27,127,5300001,,,,,,,2024-01-29,1,,,,,リプル,0
575,2120001261734,新規,0,2024-01-29,2024-01-29,株式会社ヴァリエッタ,,株式会社,大阪府,大阪市住吉区,帝塚山中１丁目５－２９帝塚山サンコーポユウ１０３Ａ,,27,120,5580053,,,,,,,2024-01-29,1,,,,,ヴァリエッタ,0
576,2120001261750,新規,0,2024-01-29,2024-01-29,株式会社ＶＬＣ,,株式会社,大阪府,大阪市西成区,玉出西２丁目８－２１－２０６,,27,122,5570045,,,,,,,2024-01-29,1,,,,,ヴィエルシ,0
578,2120003025798,新規,0,2024-01-29,2024-01-29,Ｐ＆Ｔ合同会社,,合同会社,大阪府,大阪市西成区,花園北１丁目４番２２号１階Ａ号室,,27,122,5570016,,,,,,,2024-01-29,1,,,,,ピーアンドティー,0
591,2130001076058,新規,0,2024-01-29,2024-01-29,ＮＥＯ　ＥＮＥＲＧＹ株式会社,,株式会社,京都府,京都市上京区,烏丸通鞍馬口下る東入上御霊中町４５５番地４,,26,102,6020894,,,,,,,2024-01-29,1,,,,,ネオエネルギー,0
592,2130001076223,新規,0,2024-01-29,2024-01-29,ＲＥＩ　ＡＵＴＯＴＥＣ株式会社,,株式会社,京都府,京都市伏見区,過書町７８５番地ドメーヌ伏見２０５,,26,109,6128202,,,,,,,2024-01-29,1,,,,,レイオートテック,0
593,2130001076231,新規,0,2024-01-29,2024-01-29,株式会社ＺＡＭＯ　ＤＥＳＩＧＮ,,株式会社,京都府,京都市下京区,新町通松原下る富永町１０７番地１ＧＲＯＶＩＮＧＢＡＳＥ４０号室,,26,106,6008449,,,,,,,2024-01-29,1,,,,,ザモデザイン,0
594,2130005016992,新規,0,2024-01-29,2024-01-29,特定非営利活動法人ハンリム芸能芸術学校,,その他の設立登記法人,京都府,京都市西京区,松室中溝町３８番地６１,,26,111,6158205,,,,,,,2024-01-29,1,,,,,ハンリムゲイノウゲイジュツガッコウ,0
611,2140001133089,新規,0,2024-01-29,2024-01-29,株式会社ワンアシスト,,株式会社,兵庫県,神戸市東灘区,向洋町中７丁目１番地の５ウエストコート１１番街９１８号,,28,101,6580032,,,,,,,2024-01-29,1,,,,,ワンアシスト,0
612,2140001133139,新規,0,2024-01-29,2024-01-29,株式会社Ｓｔａｙ　Ｇｏｌｄ．,,株式会社,兵庫県,神戸市西区,持子２丁目３０番地２０１号,,28,111,6512131,,,,,,,2024-01-29,1,,,,,ステイゴールドドット,0
613,2140001133147,新規,0,2024-01-29,2024-01-29,株式会社ＳＴＯＲＫ,,株式会社,兵庫県,明石市,大久保町江井島１０２８番地の１－２Ｆ,,28,203,6740064,,,,,,,2024-01-29,1,,,,,ストーク,0
628,2140003020087,新規,0,2024-01-29,2024-01-29,合同会社ワンデイ,,合同会社,兵庫県,神戸市長田区,神楽町３丁目２番２５号４０３号,,28,106,6530836,,,,,,,2024-01-29,1,,,,,ワンデイ,0
629,2140003020104,新規,0,2024-01-29,2024-01-29,合同会社はった,,合同会社,兵庫県,宝塚市,湯本町１番１,,28,214,6650003,,,,,,,2024-01-29,1,,,,,ハッタ,0
638,2150001027042,新規,0,2024-01-29,2024-01-29,株式会社森光,,株式会社,奈良県,大和高田市,内本町８番２０号,,29,202,6350087,,,,,,,2024-01-29,1,,,,,シンコウ,0
646,2180001159898,新規,0,2024-01-29,2024-01-29,株式会社知多堆肥センター,,株式会社,愛知県,知多郡南知多町,大字大井字上二本松９６番地の１,,23,445,4703501,,,,,,,2024-01-29,1,,,,,チタタイヒセンター,0
649,2180003026287,新規,0,2024-01-29,2024-01-29,合同会社ＪＵＳＴＩＮ,,合同会社,愛知県,名古屋市中村区,名駅４丁目２４番５号第２森ビル４０１,,23,105,4500002,,,,,,,2024-01-29,1,,,,,ジャストイン,0
652,2190001031065,新規,0,2024-01-29,2024-01-29,株式会社零エレメント,,株式会社,三重県,四日市市,貝家町１６３６番地２,,24,202,5100956,,,,,,,2024-01-29,1,,,,,ゼロエレメント,0
661,2240003006506,新規,0,2024-01-29,2024-01-29,ＮＦクリーンエナジー合同会社,,合同会社,広島県,広島市安佐北区,落合２丁目４１番２１号,,34,106,7391731,,,,,,,2024-01-29,1,,,,,エヌエフクリーンエナジー,0
662,2240003006514,新規,0,2024-01-29,2024-01-29,ナカノパーク合同会社,,合同会社,広島県,安芸郡府中町,緑ケ丘５－５,,34,302,7350024,,,,,,,2024-01-29,1,,,,,ナカノパーク,0
664,2250001020499,新規,0,2024-01-29,2024-01-29,株式会社ＤＳ　Ｗｏｒｌｄ　Ｆｏｏｄｓ,,株式会社,山口県,光市,大字小周防６７６番地１,,35,210,7430061,,,,,,,2024-01-29,1,,,,,デイエスワールドフーズ,0
667,2260001038714,新規,0,2024-01-29,2024-01-29,Ｐｉｃｍｏ株式会社,,株式会社,岡山県,岡山市北区,野田屋町１丁目１１番１号,,33,101,7000815,,,,,,,2024-01-29,1,,,,,ピクモ,0
670,2280005007589,新規,0,2024-01-29,2024-01-29,まつえ特定地域づくり事業協同組合,,その他の設立登記法人,島根県,松江市,美保関町北浦２７９番地,,32,201,6901221,,,,,,,2024-01-29,1,,,,,マツエトクテイチイキヅクリ,0
680,2290001104538,新規,0,2024-01-29,2024-01-29,株式会社奥電,,株式会社,福岡県,福岡市中央区,輝国２丁目１２番１２－１４２号輝国団地１棟,,40,133,8100032,,,,,,,2024-01-29,1,,,,,オクデン,0
683,2290003014909,新規,0,2024-01-29,2024-01-29,合同会社ＹＯＫＥＩ,,合同会社,福岡県,福岡市中央区,平和３丁目９番１５号,,40,133,8100016,,,,,,,2024-01-29,1,,,,,ヨケイ,0
688,2330005010752,新規,0,2024-01-29,2024-01-29,一般社団法人映像制作業振興協会,,その他の設立登記法人,熊本県,熊本市東区,錦ケ丘２３番５号,,43,102,8620912,,,,,,,2024-01-29,1,,,,,エイゾウセイサクギョウシンコウキョウカイ,0
694,2370001050880,新規,0,2024-01-29,2024-01-29,オーク・リアルエステート・パートナーズ株式会社,,株式会社,宮城県,仙台市青葉区,本町１丁目１２番２号,,04,101,9800014,,,,,,,2024-01-29,1,,,,,オークリアルエステートパートナーズ,0
701,2420001018575,新規,0,2024-01-29,2024-01-29,株式会社ＮＤＳ,,株式会社,青森県,むつ市,昭和町１３－２１,,02,208,0350052,,,,,,,2024-01-29,1,,,,,エヌディーエス,0
703,2430001090937,新規,0,2024-01-29,2024-01-29,株式会社エコシス,,株式会社,北海道,札幌市中央区,南十六条西１９丁目１番１号,,01,101,0640916,,,,,,,2024-01-29,1,,,,,エコシス,0
704,2430003015883,新規,0,2024-01-29,2024-01-29,合同会社高野農園,00133530,合同会社,北海道,伊達市,中稀府町１００番地,,01,233,0590274,,,,,,,2024-01-29,1,,,,,タカノノウエン,0
705,2430003015900,新規,0,2024-01-29,2024-01-29,如月建装合同会社,,合同会社,北海道,札幌市東区,北十一条東１３丁目１－２６,,01,103,0650011,,,,,,,2024-01-29,1,,,,,キサラギケンソウ,0
707,2470001020007,新規,0,2024-01-29,2024-01-29,株式会社ウエストアドバンス,,株式会社,香川県,高松市,伏石町９３５番地２,,37,201,7618071,,,,,,,2024-01-29,1,,,,,ウエストアドバンス,0
708,2490003001861,新規,0,2024-01-29,2024-01-29,ウェスタフードサービス合同会社,,合同会社,高知県,高知市,薊野中町１５番９号高知インターマンション１０１号,,39,201,7810013,,,,,,,2024-01-29,1,,,,,ウェスタフードサービス,0
710,2700150122810,新規,0,2024-01-29,2023-12-19,ＥＮＪＯＹ　ＣＨＵＲＣＨ　ＯＳＡＫＡ,,その他,大阪府,大阪市淀川区,十三本町１丁目８－８大幸ロイヤルＡ３－２０１,,27,123,5320024,,,,,,,2023-12-19,1,,,,,エンジヨイチヤーチオオサカ,0
711,2700150122950,新規,0,2024-01-29,2023-12-21,北海道創生研究会,,その他,北海道,留萌市,旭町１丁目４－２９,,01,212,0770043,,,,,,,2023-12-21,1,,,,,ホツカイドウソウセイケンキユウカイ,0
712,2700150123684,新規,0,2024-01-29,2024-01-29,ＳＩＲＡＳＡ　ＥＮＴＥＲＰＲＩＳＥＳ,,外国会社等,千葉県,匝瑳市,西小笹字和曽根１０７３－１,,12,235,2892125,スリランカ民主社会主義共和国、アラワトゥゴダ、ヒーピティヤロードＮｏ．１０９,,,,,,2024-01-29,1,,,,,シラサエンタープライズ,0
717,3010001241878,新規,0,2024-01-29,2024-01-29,ビジネスデザイン株式会社,,株式会社,東京都,千代田区,内神田３丁目１６番１０号金剛ビル２０１,,13,101,1010047,,,,,,,2024-01-29,1,,,,,ビジネスデザイン,0
719,3010003042779,新規,0,2024-01-29,2024-01-29,合同会社宇田川メディカル,,合同会社,東京都,文京区,小日向１丁目７番８号ヒルサイド小日向１０２,,13,105,1120006,,,,,,,2024-01-29,1,,,,,ウダガワメディカル,0
720,3010003042795,新規,0,2024-01-29,2024-01-29,ソワカ合同会社,,合同会社,東京都,千代田区,一番町２２－１－１００２,,13,101,1020082,,,,,,,2024-01-29,1,,,,,ソワカ,0
721,3010003042812,新規,0,2024-01-29,2024-01-29,ＳＩＸ　ＺＥＲＯ　Ｆ合同会社,,合同会社,東京都,中央区,銀座１丁目１２番４号Ｎ＆ＥＢＬＤ．６Ｆ,,13,102,1040061,,,,,,,2024-01-29,1,,,,,シックスゼロエフ,0
722,3010005037810,新規,0,2024-01-29,2024-01-29,ＰＭＦ３一般社団法人,,その他の設立登記法人,東京都,千代田区,丸の内３丁目１番１号東京共同会計事務所内,,13,101,1000005,,,,,,,2024-01-29,1,,,,,ピーエムエフスリー,0
727,3010401179966,新規,0,2024-01-29,2024-01-29,ヘルスケアマーケティング＆テクノロジー株式会社,,株式会社,東京都,港区,北青山１丁目４番５号,,13,103,1070061,,,,,,,2024-01-29,1,,,,,ヘルスケアマーケティングアンドテクノロジー,0
728,3010401180008,新規,0,2024-01-29,2024-01-29,Ｇｕｒｉｎ　Ｓｅｒｖｉｃｅｓ　Ｊａｐａｎ株式会社,,株式会社,東京都,港区,赤坂１丁目１１番４４号赤坂インターシティ５階Ｍａｚａｒｓ・Ｊａｐａｎ株式会社内,,13,103,1070052,,,,,,,2024-01-29,1,,,,,グリンサービスジャパン,0
732,3010403031836,新規,0,2024-01-29,2024-01-29,合同会社ｍｏｏｎｌｉｇｈｔｉｎｇ,,合同会社,東京都,港区,芝浦４丁目１３番３－１１０３号,,13,103,1080023,,,,,,,2024-01-29,1,,,,,ムーンライティング,0
739,3010601064555,新規,0,2024-01-29,2024-01-29,Ｕｍａｍｉ株式会社,,株式会社,東京都,江東区,大島８丁目３１番１０号,,13,108,1360072,,,,,,,2024-01-29,1,,,,,ウマミ,0
754,3011103014032,新規,0,2024-01-29,2024-01-29,合同会社ＧＯＳ３６５,,合同会社,東京都,新宿区,西新宿３丁目５番１２号トーカン新宿第二キャステール３１０号室,,13,104,1600023,,,,,,,2024-01-29,1,,,,,ジーオーエスサンロクゴ,0
755,3011103014040,新規,0,2024-01-29,2024-01-29,ＩｎｏｖａＬｉｇｏ合同会社,,合同会社,東京都,新宿区,西新宿３丁目３番１３号西新宿水間ビル２Ｆ,,13,104,1600023,,,,,,,2024-01-29,1,,,,,イノヴァリゴ,0
759,3011303005038,新規,0,2024-01-29,2024-01-29,Ｊ．Ｂコンサルティング合同会社,,合同会社,東京都,杉並区,和泉３丁目４６番２１号,,13,115,1680063,,,,,,,2024-01-29,1,,,,,ジェイビーコンサルティング,0
760,3011403004253,新規,0,2024-01-29,2024-01-29,ＴＩＳＨＡ合同会社,,合同会社,東京都,板橋区,大山金井町４１－５,,13,119,1730024,,,,,,,2024-01-29,1,,,,,ティシャ,0
764,3011501030242,新規,0,2024-01-29,2024-01-29,株式会社ＦＯＬ,,株式会社,東京都,荒川区,西日暮里２丁目２５－１ステーションガーデンタワー１６０１,,13,118,1160013,,,,,,,2024-01-29,1,,,,,フォル,0
765,3011501030250,新規,0,2024-01-29,2024-01-29,株式会社Ｆｒｅｃ,,株式会社,東京都,荒川区,荒川７丁目４６番１,,13,118,1160002,,,,,,,2024-01-29,1,,,,,フレック,0
767,3011601027493,新規,0,2024-01-29,2024-01-29,株式会社Ｋ’ｓウイング,,株式会社,東京都,練馬区,上石神井１丁目６番２２号メゾンエア,,13,120,1770044,,,,,,,2024-01-29,1,,,,,ケーズウイング,0
768,3011603004219,新規,0,2024-01-29,2024-01-29,合同会社Ｂｒｅｗｌｉｎｋ,,合同会社,東京都,練馬区,春日町１丁目１１番４号,,13,120,1790074,,,,,,,2024-01-29,1,,,,,ブリューリンク,0
769,3011701026965,新規,0,2024-01-29,2024-01-29,株式会社スエルテ,,株式会社,東京都,江戸川区,平井４丁目２０番１５－１４０８号,,13,123,1320035,,,,,,,2024-01-29,1,,,,,スエルテ,0
770,3011703003723,新規,0,2024-01-29,2024-01-29,銀貝基姆合同会社,,合同会社,東京都,江戸川区,西葛西２丁目１８番７－４０８号第２ニュー和幸,,13,123,1340088,,,,,,,2024-01-29,1,,,,,ギンベキムン,0
771,3011801043704,新規,0,2024-01-29,2024-01-29,株式会社Ｏ‐ＴＡＫＥ,,株式会社,東京都,足立区,梅田７丁目１６番２－１０３号,,13,121,1230851,,,,,,,2024-01-29,1,,,,,オーテイク,0
775,3012403006388,新規,0,2024-01-29,2024-01-29,合同会社Ｏｎｅ　Ｔｒｉｃｋ　Ｗｏｎｄｅｒ,,合同会社,東京都,小金井市,東町４丁目１３番６－３１０号Ｎステージ東小金井,,13,210,1840011,,,,,,,2024-01-29,1,,,,,ワントリックワンダー,0
776,3012701018052,新規,0,2024-01-29,2024-01-29,株式会社ＨＡＬ企画,,株式会社,東京都,西東京市,谷戸町２丁目１番７８－８０号,,13,229,1880001,,,,,,,2024-01-29,1,,,,,ハルキカク,0
779,3012803003299,新規,0,2024-01-29,2024-01-29,シードラー合同会社,,合同会社,東京都,日野市,西平山５丁目７番地の７,,13,212,1910055,,,,,,,2024-01-29,1,,,,,シードラー,0
782,3013301051971,新規,0,2024-01-29,2024-01-29,株式会社ティーンポップテクノロジー,,株式会社,東京都,豊島区,千早１丁目３番３号メゾ・フォルテ２０３号,,13,116,1710044,,,,,,,2024-01-29,1,,,,,ティーンポップテクノロジー,0
783,3013303006981,新規,0,2024-01-29,2024-01-29,スイッチ合同会社,,合同会社,東京都,豊島区,千早１丁目２１番３号,,13,116,1710044,,,,,,,2024-01-29,1,,,,,スイッチ,0
789,3020001155490,新規,0,2024-01-29,2024-01-29,株式会社大村,,株式会社,神奈川県,横浜市栄区,金井町３６０番地１,,14,115,2440845,,,,,,,2024-01-29,1,,,,,オオムラ,0
792,3020003025452,新規,0,2024-01-29,2024-01-29,合同会社ｃｕｒｒｅｎｔ,,合同会社,神奈川県,横浜市南区,浦舟町１丁目１－１５開盛堂ビル２０２,,14,105,2320024,,,,,,,2024-01-29,1,,,,,カレント,0
793,3020003025460,新規,0,2024-01-29,2024-01-29,ＵＳＡＧＩＹ合同会社,,合同会社,神奈川県,横浜市中区,万代町１丁目１番地１関東学院大学関内キャンパス４階,,14,104,2310031,,,,,,,2024-01-29,1,,,,,ウサギイ,0
794,3021001081339,新規,0,2024-01-29,2024-01-29,株式会社金菱商事,,株式会社,神奈川県,相模原市中央区,清新５丁目１７番７－２０４号,,14,152,2520216,,,,,,,2024-01-29,1,,,,,カナビシショウジ,0
824,3030001158377,新規,0,2024-01-29,2024-01-29,株式会社ＬａｎｄＰｅａｋ,,株式会社,埼玉県,越谷市,蒲生茜町２６番地２－３０１,,11,222,3430843,,,,,,,2024-01-29,1,,,,,ランドピーク,0
825,3030001158410,新規,0,2024-01-29,2024-01-29,ＪＡＳＩＡ　ＣＯＮＮＥＣＴ株式会社,,株式会社,埼玉県,川口市,大字東本郷１７２８番地１,,11,203,3340063,,,,,,,2024-01-29,1,,,,,ジェイシアコネクト,0
826,3030001158427,新規,0,2024-01-29,2024-01-29,株式会社ＥＭＩＴＡＳ,,株式会社,埼玉県,さいたま市大宮区,三橋１丁目７０９ヒルズ三橋３０５,,11,103,3300856,,,,,,,2024-01-29,1,,,,,エミタス,0
872,3040001131928,新規,0,2024-01-29,2024-01-29,株式会社粕谷,,株式会社,千葉県,袖ケ浦市,百目木５６３番地２,,12,229,2990213,,,,,,,2024-01-29,1,,,,,カスヤ,0
873,3040001131960,新規,0,2024-01-29,2024-01-29,東昇国際株式会社,,株式会社,千葉県,松戸市,高塚新田５０番地の１１－２Ｆ,,12,207,2702222,,,,,,,2024-01-29,1,,,,,トウショウコクサイ,0
898,3060001036778,新規,0,2024-01-29,2024-01-29,株式会社ＵＮＩＭＯＴＴＯ,,株式会社,栃木県,真岡市,長田５丁目８番地９,,09,209,3214364,,,,,,,2024-01-29,1,,,,,ユニモット,0
902,3070001041323,新規,0,2024-01-29,2024-01-29,株式会社あったらいいなをカタチにする会社,,株式会社,群馬県,前橋市,小屋原町１７３２番地９,,10,201,3792121,,,,,,,2024-01-29,1,,,,,,0
903,3070001041331,新規,0,2024-01-29,2024-01-29,株式会社ＮＯＮＮＡ　ＳＯＵ,,株式会社,群馬県,伊勢崎市,西小保方町１５６番地２,,10,204,3792224,,,,,,,2024-01-29,1,,,,,,0
908,3080101024499,新規,0,2024-01-29,2024-01-29,株式会社セイデンプラス,,株式会社,静岡県,富士宮市,矢立町８２５番地の１アーバンシティ富士宮矢立町１０５,,22,207,4180072,,,,,,,2024-01-29,1,,,,,セイデンプラス,0
926,3120001261551,新規,0,2024-01-29,2024-01-29,旭株式会社,,株式会社,大阪府,大阪市浪速区,難波中３丁目１６番１２号,,27,111,5560011,,,,,,,2024-01-29,1,,,,,アサヒ,0
927,3120001261766,新規,0,2024-01-29,2024-01-29,株式会社ＢＥ　ＤＯＧ,,株式会社,大阪府,大阪市中央区,東高麗橋２－３２－３０２,,27,128,5400039,,,,,,,2024-01-29,1,,,,,ビードッグ,0
928,3120001261790,新規,0,2024-01-29,2024-01-29,ＩＴＲ株式会社,,株式会社,大阪府,大阪市東成区,大今里南１丁目１４番１１号,,27,115,5370013,,,,,,,2024-01-29,1,,,,,アイティアール,0
933,3120003025797,新規,0,2024-01-29,2024-01-29,合同会社ｇｈｉｂｌｉ,,合同会社,大阪府,大阪市淀川区,西中島３丁目１４番１４号４階,,27,123,5320011,,,,,,,2024-01-29,1,,,,,ギブリ,0
936,3120105009822,新規,0,2024-01-29,2024-01-29,一般社団法人さんしまい,,その他の設立登記法人,大阪府,岸和田市,西之内町４４番４号,,27,202,5960044,,,,,,,2024-01-29,1,,,,,サンシマイ,0
938,3120901048676,新規,0,2024-01-29,2024-01-29,ＩＲＩ商事株式会社,,株式会社,大阪府,箕面市,桜１丁目１１番４号,,27,220,5620041,,,,,,,2024-01-29,1,,,,,アイアールアイショウジ,0
939,3120903005031,新規,0,2024-01-29,2024-01-29,合同会社ディシーエム,,合同会社,大阪府,茨木市,南春日丘５丁目８番２７号,,27,211,5670046,,,,,,,2024-01-29,1,,,,,ディシーエム,0
942,3122003002784,新規,0,2024-01-29,2024-01-29,ｓａｎｒｉｔｓｕ舎合同会社,,合同会社,大阪府,東大阪市,日下町３丁目２番２５号,,27,227,5798003,,,,,,,2024-01-29,1,,,,,サンリツシャ,0
943,3130001076222,新規,0,2024-01-29,2024-01-29,株式会社Ｈａｓｈｉｄａ　Ｔｒａｖｅｌ,,株式会社,京都府,京都市西京区,大原野小塩町３６３番地,,26,111,6101133,,,,,,,2024-01-29,1,,,,,ハシダトラベル,0
944,3130003009262,新規,0,2024-01-29,2024-01-29,合同会社Ｖａｒｄ,,合同会社,京都府,京都市伏見区,両替町２丁目３４８番地１エグザス伏見４０３,,26,109,6128082,,,,,,,2024-01-29,1,,,,,バード,0
967,3140001133113,新規,0,2024-01-29,2024-01-29,株式会社Ｌｉｆｅ　Ｆａｃｉｌｉｔａｔｉｏｎ,,株式会社,兵庫県,伊丹市,荻野３丁目５３番４号,,28,207,6640002,,,,,,,2024-01-29,1,,,,,ライフファシリテーション,0
968,3140001133138,新規,0,2024-01-29,2024-01-29,株式会社いざなぎエステート,,株式会社,兵庫県,洲本市,物部３丁目１番３８号,,28,205,6560051,,,,,,,2024-01-29,1,,,,,イザナギエステート,0
969,3140001133146,新規,0,2024-01-29,2024-01-29,ＴＩＣＫ株式会社,,株式会社,兵庫県,神戸市東灘区,田中町１丁目１番２７－４０１号,,28,101,6580081,,,,,,,2024-01-29,1,,,,,ティーアイシーケー,0
982,3140003020094,新規,0,2024-01-29,2024-01-29,合同会社ＥＢＳ,,合同会社,兵庫県,尼崎市,七松町３丁目１２番１４号３０３号,,28,202,6600052,,,,,,,2024-01-29,1,,,,,イービーエス,0
983,3140003020103,新規,0,2024-01-29,2024-01-29,合同会社ハシワタシ,,合同会社,兵庫県,明石市,大明石町１丁目１２番３号ヴェルビュ明石駅前５０２,,28,203,6730891,,,,,,,2024-01-29,1,,,,,ハシワタシ,0
990,3150001027041,新規,0,2024-01-29,2024-01-29,ＦＲＧＴｅｃｈ株式会社,,株式会社,奈良県,奈良市,古市町１６６０－２５,,29,201,6308424,,,,,,,2024-01-29,1,,,,,エフアールジーテック,0
991,3150003003172,新規,0,2024-01-29,2024-01-29,合同会社ＮＯＸ,,合同会社,奈良県,大和高田市,曽大根１丁目１３番１９号,,29,202,6350055,,,,,,,2024-01-29,1,,,,,ノックス,0
997,3180001159930,新規,0,2024-01-29,2024-01-29,株式会社エクリ,,株式会社,愛知県,名古屋市中区,丸の内３丁目２３番１１号セントヒルズ丸の内７０２,,23,106,4600002,,,,,,,2024-01-29,1,,,,,エクリ,0
999,3180003026261,新規,0,2024-01-29,2024-01-29,合同会社フレンズ商店,,合同会社,愛知県,名古屋市西区,花の木１丁目９番１３号プレジデント浄心２０３号室,,23,104,4510062,,,,,,,2024-01-29,1,,,,,フレンズショウテン,0
1000,3180003026286,新規,0,2024-01-29,2024-01-29,合同会社アールコンサルタント,,合同会社,愛知県,名古屋市緑区,大高町字常世島５番地の１,,23,114,4598001,,,,,,,2024-01-29,1,,,,,アールコンサルタント,0
1012,3230003002141,新規,0,2024-01-29,2024-01-29,ミライネクス合同会社,,合同会社,富山県,富山市,新庄町１９番地１,,16,201,9300992,,,,,,,2024-01-29,1,,,,,ミライネクス,0
1017,3240001062715,新規,0,2024-01-29,2024-01-29,株式会社結心,,株式会社,広島県,福山市,神辺町字下御領９７１番地１０,,34,207,7202117,,,,,,,2024-01-29,1,,,,,ユウシン,0
1018,3240001062731,新規,0,2024-01-29,2024-01-29,株式会社Ｙ．Ｔ．Ａ．,,株式会社,広島県,広島市佐伯区,楽々園４丁目１番２６号平田ビル２０２,,34,108,7315136,,,,,,,2024-01-29,1,,,,,ワイティエイ,0
1020,3240003006513,新規,0,2024-01-29,2024-01-29,合同会社ライフプラン,,合同会社,広島県,広島市中区,本通７番２９号,,34,101,7300035,,,,,,,2024-01-29,1,,,,,ライフプラン,0
1025,3260003004556,新規,0,2024-01-29,2024-01-29,合同会社鷹商事,,合同会社,岡山県,岡山市南区,福富中２丁目１０－１７,,33,104,7028032,,,,,,,2024-01-29,1,,,,,タカショウジ,0
1026,3260005011311,新規,0,2024-01-29,2024-01-29,一般社団法人くらしきづくＲｅ,,その他の設立登記法人,岡山県,倉敷市,東町１番２６号,,33,202,7100053,,,,,,,2024-01-29,1,,,,,クラシキヅクリ,0
1031,3290001104504,新規,0,2024-01-29,2024-01-29,株式会社ＡＳＵＫＡＯＲＵ,,株式会社,福岡県,福岡市西区,姪浜駅南４丁目２１番１６号,,40,135,8190006,,,,,,,2024-01-29,1,,,,,アスカオル,0
1032,3290001104512,新規,0,2024-01-29,2024-01-29,株式会社六敬,,株式会社,福岡県,福岡市博多区,博多駅前２丁目１７－１博多プレステージ本館１Ｆ,,40,132,8120011,,,,,,,2024-01-29,1,,,,,ロッケイ,0
1037,3310001018833,新規,0,2024-01-29,2024-01-29,株式会社ＲｅＦｌａｐ,,株式会社,長崎県,平戸市,大久保町２９７番地５,,42,207,8595102,,,,,,,2024-01-29,1,,,,,リフラップ,0
1043,3340001026247,新規,0,2024-01-29,2024-01-29,ＳｅａＷｉｓｄｏｍ株式会社,,株式会社,鹿児島県,鹿児島市,照国町８番１－６０４号,,46,201,8920841,,,,,,,2024-01-29,1,,,,,スィーウィズダム,0
1047,3360001033134,新規,0,2024-01-29,2024-01-29,株式会社ピックアックス,,株式会社,沖縄県,名護市,字伊差川２２６番地２７,,47,209,9051152,,,,,,,2024-01-29,1,,,,,ピックアックス,0
1049,3360003013646,新規,0,2024-01-29,2024-01-29,合同会社Ｓ．Ｏ．Ｌ,,合同会社,沖縄県,沖縄市,比屋根６丁目３５－６－２０３号室,,47,211,9042173,,,,,,,2024-01-29,1,,,,,ソル,0
1056,3380001034270,新規,0,2024-01-29,2024-01-29,株式会社イワネ製作所,,株式会社,福島県,郡山市,亀田２丁目１１番１９号,,07,203,9638033,,,,,,,2024-01-29,1,,,,,イワネセイサクショ,0
1062,3430001090960,新規,0,2024-01-29,2024-01-29,株式会社カミナリ,,株式会社,北海道,札幌市中央区,北一条西４丁目１番地１三甲大通公園ビル１階,,01,101,0600001,,,,,,,2024-01-29,1,,,,,カミナリ,0
1065,3430003015890,新規,0,2024-01-29,2024-01-29,合同会社森のパン工房ウタリ,,合同会社,北海道,北広島市,輪厚３０８,,01,234,0611264,,,,,,,2024-01-29,1,,,,,モリノパンコウボウウタリ,0
1067,3460003000980,新規,0,2024-01-29,2024-01-29,合同会社シャッツ,,合同会社,北海道,釧路市,愛国西１丁目１７番１７号ル・フランセＲ１２２号室,,01,206,0850057,,,,,,,2024-01-29,1,,,,,シャッツ,0
1070,3500001025439,新規,0,2024-01-29,2024-01-29,株式会社常樹社,,株式会社,愛媛県,松山市,喜与町１丁目４番地６,,38,201,7900802,,,,,,,2024-01-29,1,,,,,ジョウジュシャ,0
1073,3700150123683,新規,0,2024-01-29,2024-01-29,ＷＩＮＤ－ＳＭＩＬＥ　ＶＩＥＴＮＡＭ　ＣＯＭＰＡＮＹ　ＬＩＭＩＴＥＤ,,外国会社等,東京都,江東区,白河３丁目２番８号,,13,108,1350021,ベトナム社会主義共和国ホーチミン市１区ダーカオ地区ニュエン・ディン・チュー・ロード５８番アバカスビル７階,,,,,,2024-01-29,1,,,,,ウインドスマイルベトナムカンパニーリミテツド,0
1080,4010001241794,新規,0,2024-01-29,2024-01-29,Ｒａｋｕｈｏｕｓｅ株式会社,,株式会社,東京都,中央区,日本橋小網町１９番８－７０１号,,13,102,1030016,,,,,,,2024-01-29,1,,,,,ラクハウス,0
1081,4010001241844,新規,0,2024-01-29,2024-01-29,株式会社ペルテ,,株式会社,東京都,中央区,新富１丁目４－５東銀座ビル３Ｆ,,13,102,1040041,,,,,,,2024-01-29,1,,,,,ペルテ,0
1082,4010001241877,新規,0,2024-01-29,2024-01-29,リュミエール株式会社,,株式会社,東京都,中央区,銀座５丁目１２番１３号,,13,102,1040061,,,,,,,2024-01-29,1,,,,,リュミエール,0
1084,4010003042803,新規,0,2024-01-29,2024-01-29,フォロースルーコンサルティング合同会社,,合同会社,東京都,中央区,銀座１丁目１２番４号,,13,102,1040061,,,,,,,2024-01-29,1,,,,,フォロースルーコンサルティング,0
1100,4010701045470,新規,0,2024-01-29,2024-01-29,株式会社コピエ,,株式会社,東京都,品川区,荏原１丁目１９番１４号,,13,109,1420063,,,,,,,2024-01-29,1,,,,,コピエ,0
1101,4010703007031,新規,0,2024-01-29,2024-01-29,合同会社ＨＡＲＵ　ＳＴＵＤＩＯ,,合同会社,東京都,品川区,西大井３丁目１５－２４,,13,109,1400015,,,,,,,2024-01-29,1,,,,,ハルスタジオ,0
1105,4010901054619,新規,0,2024-01-29,2024-01-29,株式会社ＡＲＣＥ,,株式会社,東京都,世田谷区,三軒茶屋２丁目１８番１１号ラコルテＤ－２,,13,112,1540024,,,,,,,2024-01-29,1,,,,,アルセ,0
1109,4010903008779,新規,0,2024-01-29,2024-01-29,合同会社ＢｅＮｅＪａｐａｎ,,合同会社,東京都,世田谷区,玉堤１丁目２７－５,,13,112,1580087,,,,,,,2024-01-29,1,,,,,ベネジャパン,0
1119,4011005010351,新規,0,2024-01-29,2024-01-29,弁護士法人恵比寿パートナーズ法律事務所,,その他の設立登記法人,東京都,渋谷区,恵比寿４丁目２０番３号恵比寿ガーデンプレイスタワー１８階,,13,113,1500013,,,,,,,2024-01-29,1,,,,,エビスパートナーズホウリツジムショ,0
1130,4011103014031,新規,0,2024-01-29,2024-01-29,合同会社メディアシティ,,合同会社,東京都,新宿区,下落合４丁目２２番１３号,,13,104,1610033,,,,,,,2024-01-29,1,,,,,メディアシティ,0
1134,4011303005045,新規,0,2024-01-29,2024-01-29,合同会社堀切エステート,,合同会社,東京都,杉並区,久我山１丁目２－９－３,,13,115,1680082,,,,,,,2024-01-29,1,,,,,ホリキリエステート,0
1135,4011403004252,新規,0,2024-01-29,2024-01-29,ＪＳパートナーズ合同会社,,合同会社,東京都,板橋区,赤塚２丁目１番１２号パンダビル２Ｆ２０９号,,13,119,1750092,,,,,,,2024-01-29,1,,,,,ジェイエスパートナーズ,0
1136,4011501030233,新規,0,2024-01-29,2024-01-29,株式会社ＲＨ　ＰＬＵＳ,,株式会社,東京都,荒川区,西日暮里５丁目３２番４号,,13,118,1160013,,,,,,,2024-01-29,1,,,,,アールエイチプラス,0
1138,4011503005927,新規,0,2024-01-29,2024-01-29,Ｎｏａｈ’ｓ　Ａｒｋ合同会社,,合同会社,東京都,荒川区,東日暮里３丁目２８番５－１０６号ＣｒｙｓｔａｌＢｕｉｌｄｉｎｇ,,13,118,1160014,,,,,,,2024-01-29,1,,,,,ノアズアーク,0
1141,4011603004226,新規,0,2024-01-29,2024-01-29,合同会社Ｐｒｅｃｉｏｕｓ　ｒｅｂｏｒｎ,,合同会社,東京都,練馬区,氷川台３丁目１２番１６号ハイム篠崎１０１号,,13,120,1790084,,,,,,,2024-01-29,1,,,,,プレシャスリボーン,0
1145,4011801043703,新規,0,2024-01-29,2024-01-29,新新株式会社,,株式会社,東京都,葛飾区,西新小岩２丁目１番２号－４０５号,,13,122,1240025,,,,,,,2024-01-29,1,,,,,シンシン,0
1154,4020001155449,新規,0,2024-01-29,2024-01-29,株式会社セルーラコピア,,株式会社,神奈川県,横浜市青葉区,青葉台２丁目２９番地１Ｇ－６２６,,14,117,2270062,,,,,,,2024-01-29,1,,,,,セルーラコピア,0
1155,4020001155515,新規,0,2024-01-29,2024-01-29,株式会社ＣＵＢＥ,,株式会社,神奈川県,横浜市中区,南本牧３番地３,,14,104,2310816,,,,,,,2024-01-29,1,,,,,キューブ,0
1156,4020001155531,新規,0,2024-01-29,2024-01-29,株式会社サンズアップ,,株式会社,神奈川県,横浜市西区,北幸２丁目１０番４８号むつみビル３階,,14,103,2200004,,,,,,,2024-01-29,1,,,,,サンズアップ,0
1157,4020001155548,新規,0,2024-01-29,2024-01-29,パーフェクトトップ株式会社,,株式会社,神奈川県,横浜市旭区,鶴ケ峰２丁目８２番地１クリオレジダンスタワー横濱鶴ヶ峰２３１１号,,14,112,2410022,,,,,,,2024-01-29,1,,,,,パーフェクトトップ,0
1162,4020003025427,新規,0,2024-01-29,2024-01-29,ＹＥＬＬＯＷ　ｂｏｕｑｕｅｔ合同会社,,合同会社,神奈川県,横浜市神奈川区,東神奈川２丁目２９番地１８,,14,102,2210044,,,,,,,2024-01-29,1,,,,,イエローブーケ,0
1163,4020003025435,新規,0,2024-01-29,2024-01-29,合同会社ぷにぷに,,合同会社,神奈川県,横浜市都筑区,見花山一丁目３０番地見花山ビル４０３,,14,118,2240066,,,,,,,2024-01-29,1,,,,,プニプニ,0
1164,4020005016267,新規,0,2024-01-29,2024-01-29,一般社団法人ＪＹＢ,,その他の設立登記法人,神奈川県,横浜市西区,花咲町７丁目１５８－３－９０４,,14,103,2200022,,,,,,,2024-01-29,1,,,,,ジェイワイビー,0
1168,4021001081321,新規,0,2024-01-29,2024-01-29,株式会社万世工業,,株式会社,神奈川県,相模原市緑区,橋本台１丁目１５－１レイハウス橋本３０１,,14,151,2520132,,,,,,,2024-01-29,1,,,,,マンセイコウギョウ,0
1171,4021003014048,新規,0,2024-01-29,2024-01-29,合同会社安藤電気,,合同会社,神奈川県,厚木市,戸室５丁目１６番１８号,,14,212,2430031,,,,,,,2024-01-29,1,,,,,アンドウデンキ,0
1197,4030001158392,新規,0,2024-01-29,2024-01-29,株式会社京禧,,株式会社,埼玉県,川口市,栄町３丁目２－２１,,11,203,3320017,,,,,,,2024-01-29,1,,,,,キョウキ,0
1198,4030001158401,新規,0,2024-01-29,2024-01-29,株式会社ＭＴ,,株式会社,埼玉県,さいたま市岩槻区,加倉４丁目２２番４５号,,11,110,3390056,,,,,,,2024-01-29,1,,,,,エムティー,0
1225,4030003023495,新規,0,2024-01-29,2024-01-29,合同会社ＭＲＳｙｓｔｅｍｓ,,合同会社,埼玉県,所沢市,松葉町１９－１１ベルトゥリー１０３号,,11,208,3590044,,,,,,,2024-01-29,1,,,,,エムアールシステムズ,0
1232,4040001131761,新規,0,2024-01-29,2024-01-29,株式会社Ｄａｉｓｙｓ,,株式会社,千葉県,香取郡神崎町,神崎本宿２１３３番地,,12,342,2890221,,,,,,,2024-01-29,1,,,,,デイジーズ,0
1235,4040003024187,新規,0,2024-01-29,2024-01-29,合同会社Ｌｉｅｔｏ,,合同会社,千葉県,船橋市,藤原７丁目４２番５１号,,12,204,2730047,,,,,,,2024-01-29,1,,,,,リエート,0
1257,4050003008081,新規,0,2024-01-29,2024-01-29,ＧＤＲ合同会社,,合同会社,茨城県,つくば市,高見原２丁目１１番地３０,,08,220,3001252,,,,,,,2024-01-29,1,,,,,ジーディーアール,0
1261,4060001036777,新規,0,2024-01-29,2024-01-29,株式会社ＲＥＯ,,株式会社,栃木県,小山市,大字間々田７８９番地２５４,,09,208,3290205,,,,,,,2024-01-29,1,,,,,レオ,0
1262,4060005010167,新規,0,2024-01-29,2024-01-29,農事組合法人敦聖ファーム,,その他の設立登記法人,栃木県,鹿沼市,深津１８５７番地１,,09,205,3220013,,,,,,,2024-01-29,1,,,,,アツキファーム,0
1272,4100001037176,新規,0,2024-01-29,2024-01-29,株式会社ベジシャス,,株式会社,長野県,安曇野市,三郷温４６２０番地２,,20,220,3998102,,,,,,,2024-01-29,1,,,,,ベジシャス,0
1280,4120001261708,新規,0,2024-01-29,2024-01-29,株式会社司装飾,,株式会社,大阪府,大阪市平野区,長吉六反３丁目５番７号,,27,126,5470012,,,,,,,2024-01-29,1,,,,,ツカサソウショク,0
1282,4120003025788,新規,0,2024-01-29,2024-01-29,合同会社ビーチブックカンパニー,,合同会社,大阪府,大阪市北区,梅田１丁目１１番４－１０００号,,27,127,5300001,,,,,,,2024-01-29,1,,,,,ビーチブックカンパニー,0
1284,4120101068978,新規,0,2024-01-29,2024-01-29,株式会社かわち工務店,,株式会社,大阪府,泉大津市,北豊中町１丁目３－２８,,27,206,5950012,,,,,,,2024-01-29,1,,,,,カワチコウムテン,0
1288,4120103005649,新規,0,2024-01-29,2024-01-29,合同会社スプリングバレイジャパン,,合同会社,大阪府,堺市中区,小阪４４０番地１１,,27,142,5998276,,,,,,,2024-01-29,1,,,,,スプリングバレイジャパン,0
1289,4120901048700,新規,0,2024-01-29,2024-01-29,株式会社木山建具,,株式会社,大阪府,摂津市,千里丘４丁目１２番２１号,,27,224,5660001,,,,,,,2024-01-29,1,,,,,キヤマタテグ,0
1293,4122001037773,新規,0,2024-01-29,2024-01-29,株式会社アンドＳＫカンパニー,,株式会社,大阪府,八尾市,高安町南１丁目２１番地の２,,27,212,5810875,,,,,,,2024-01-29,1,,,,,アンドエスケーカンパニー,0
1296,4130001076221,新規,0,2024-01-29,2024-01-29,株式会社舞妓クレーンサービス,,株式会社,京都府,京都市山科区,音羽稲芝２８番地７,,26,110,6078068,,,,,,,2024-01-29,1,,,,,マイコクレーンサービス,0
1297,4130001076238,新規,0,2024-01-29,2024-01-29,エヌライト株式会社,,株式会社,京都府,京都市伏見区,横大路三栖山城屋敷町１０４番地２クレアガーデン伏見桃山１０３号室,,26,109,6128207,,,,,,,2024-01-29,1,,,,,エヌライト,0
1298,4130001076246,新規,0,2024-01-29,2024-01-29,永恒株式会社,,株式会社,京都府,京都市伏見区,深草西浦町８丁目Ｌｕｘｅ４０２室,,26,109,6120029,,,,,,,2024-01-29,1,,,,,エイコウ,0
1323,4140001133104,新規,0,2024-01-29,2024-01-29,クリード不動産販売株式会社,,株式会社,兵庫県,西宮市,染殿町１１番４号,,28,204,6620913,,,,,,,2024-01-29,1,,,,,クリードフドウサンハンバイ,0
1324,4140001133137,新規,0,2024-01-29,2024-01-29,株式会社ＴＲＡＳＴ,,株式会社,兵庫県,明石市,野々上３丁目８番地７－２０１号室,,28,203,6730017,,,,,,,2024-01-29,1,,,,,トラスト,0
1325,4140001133153,新規,0,2024-01-29,2024-01-29,株式会社ハッピーリノベーション,,株式会社,兵庫県,西宮市,熊野町１番３１号２０２号,,28,204,6638103,,,,,,,2024-01-29,1,,,,,ハッピーリノベーション,0
1340,4160001025662,新規,0,2024-01-29,2024-01-29,株式会社比良動物病院,,株式会社,滋賀県,大津市,和邇今宿３４０番地７,,25,201,5200524,,,,,,,2024-01-29,1,,,,,ヒラドウブツビョウイン,0
1346,4180001159896,新規,0,2024-01-29,2024-01-29,株式会社Ａｒｔｉｃａｌ,,株式会社,愛知県,知多市,八幡字笹廻間７－１２,,23,224,4780001,,,,,,,2024-01-29,1,,,,,アーティカル,0
1347,4180001159921,新規,0,2024-01-29,2024-01-29,株式会社うな和,,株式会社,愛知県,小牧市,弥生町１４６番地１,,23,219,4850071,,,,,,,2024-01-29,1,,,,,ウナワ,0
1348,4180001159946,新規,0,2024-01-29,2024-01-29,株式会社セキュアＤＸ,,株式会社,愛知県,名古屋市中村区,大秋町２丁目５１番地,,23,105,4530042,,,,,,,2024-01-29,1,,,,,セキュアディーエックス,0
1349,4180001159954,新規,0,2024-01-29,2024-01-29,株式会社サンパーク,,株式会社,愛知県,一宮市,北神明町３丁目７１番地３,,23,203,4910069,,,,,,,2024-01-29,1,,,,,サンパーク,0
1350,4180003026269,新規,0,2024-01-29,2024-01-29,合同会社トライブレイン,,合同会社,愛知県,名古屋市天白区,土原３丁目３０４番地の２,,23,116,4680026,,,,,,,2024-01-29,1,,,,,トライブレイン,0
1351,4180003026277,新規,0,2024-01-29,2024-01-29,合同会社ＧＫＮ,,合同会社,愛知県,名古屋市瑞穂区,西ノ割町１丁目４４番地の１,,23,108,4670813,,,,,,,2024-01-29,1,,,,,ジーケーエヌ,0
1357,4190001031063,新規,0,2024-01-29,2024-01-29,株式会社ＲＩＣＥ　ＨＡＣＫ,,株式会社,三重県,桑名市,長島町福豊９０５,,24,205,5111132,,,,,,,2024-01-29,1,,,,,ライスハック,0
1361,4230003002140,新規,0,2024-01-29,2024-01-29,ＮＲ工業合同会社,,合同会社,富山県,射水市,太閤山１丁目７番地２０,,16,211,9390362,,,,,,,2024-01-29,1,,,,,エヌアールコウギョウ,0
1364,4240003006512,新規,0,2024-01-29,2024-01-29,合同会社アトリエ,,合同会社,広島県,広島市安佐北区,落合１丁目４８番１－９０３号,,34,106,7391731,,,,,,,2024-01-29,1,,,,,アトリエ,0
1365,4250003003426,新規,0,2024-01-29,2024-01-29,合同会社アンドエー,,合同会社,山口県,周南市,新宿通５丁目３番２５号,,35,215,7450056,,,,,,,2024-01-29,1,,,,,アンドエー,0
1366,4260005011310,新規,0,2024-01-29,2024-01-29,一般社団法人岡山北ｓｆｉｖｏ,,その他の設立登記法人,岡山県,岡山市北区,谷万成２丁目９－５,,33,101,7000071,,,,,,,2024-01-29,1,,,,,オカヤマキタスフィーヴォ,0
1367,4270001008912,新規,0,2024-01-29,2024-01-29,株式会社縁ノ和,,株式会社,鳥取県,鳥取市,湖山町南３丁目１７６番地９,,31,201,6800945,,,,,,,2024-01-29,1,,,,,エンノワ,0
1371,4290001104536,新規,0,2024-01-29,2024-01-29,株式会社グランリープ,,株式会社,福岡県,福岡市中央区,薬院２丁目２番１７,,40,133,8100022,,,,,,,2024-01-29,1,,,,,グランリープ,0
1374,4310001018816,新規,0,2024-01-29,2024-01-29,株式会社ＳｉｇＰＡｒｔ,,株式会社,長崎県,佐世保市,松浦町５－１ＶＳＩＤＥ佐世保市産業支援センター,,42,202,8570052,,,,,,,2024-01-29,1,,,,,シグパラート,0
1375,4310001018832,新規,0,2024-01-29,2024-01-29,Ｃａｄｍａｔｉｃ　Ｊａｐａｎ株式会社,,株式会社,長崎県,佐世保市,花園町１５４番地１,,42,202,8570024,,,,,,,2024-01-29,1,,,,,キャドマティックジャパン,0
1378,4320001020259,新規,0,2024-01-29,2024-01-29,株式会社しんけん,,株式会社,大分県,大分市,明野南３丁目６番７号,,44,201,8700163,,,,,,,2024-01-29,1,,,,,シンケン,0
1379,4320003004284,新規,0,2024-01-29,2024-01-29,合同会社かわせみ,,合同会社,大分県,玖珠郡九重町,大字田野１６７２－１５０,,44,461,8794911,,,,,,,2024-01-29,1,,,,,カワセミ,0
1381,4340001026246,新規,0,2024-01-29,2024-01-29,株式会社遊心設計,,株式会社,鹿児島県,鹿屋市,川東町７０４８番地３８,,46,203,8930031,,,,,,,2024-01-29,1,,,,,ユウジンセッケイ,0
1383,4340003004357,新規,0,2024-01-29,2024-01-29,合同会社ｍｉｄｄｉｅ　ｂａｓｅ,,合同会社,鹿児島県,鹿児島市,上福元町５９２０番地１４,,46,201,8910116,,,,,,,2024-01-29,1,,,,,ミディベース,0
1387,4350005006210,新規,0,2024-01-29,2024-01-29,医療法人いわよし耳鼻咽喉科クリニック,,その他の設立登記法人,宮崎県,都城市,千町５２７３番地１,,45,202,8850015,,,,,,,2024-01-29,1,,,,,イワヨシジビインコウカクリニック,0
1388,4360003013661,新規,0,2024-01-29,2024-01-29,トレシー・ホーム合同会社,,合同会社,沖縄県,那覇市,首里石嶺町４丁目２３番地伊佐アパート１０２号,,47,201,9030804,,,,,,,2024-01-29,1,,,,,トレシーホーム,0
1390,4390001017496,新規,0,2024-01-29,2024-01-29,Ｔｒｏｕｔ＆Ａｃｔｉｖｉｔｙ株式会社,,株式会社,山形県,最上郡金山町,大字有屋３１２,,06,361,9995401,,,,,,,2024-01-29,1,,,,,トラウトアンドアクティビティ,0
1395,4430001090943,新規,0,2024-01-29,2024-01-29,泰翔商事株式会社,,株式会社,北海道,札幌市西区,山の手四条１丁目１番１号Ｎｏ．３マックスビル,,01,107,0630004,,,,,,,2024-01-29,1,,,,,タイショウショウジ,0
1396,4430001090951,新規,0,2024-01-29,2024-01-29,株式会社和田,,株式会社,北海道,札幌市中央区,北一条西２７丁目１番７号,,01,101,0640821,,,,,,,2024-01-29,1,,,,,ワダ,0
1397,4430003015898,新規,0,2024-01-29,2024-01-29,合同会社一,,合同会社,北海道,札幌市西区,八軒二条東４丁目４－１０,,01,107,0630862,,,,,,,2024-01-29,1,,,,,ハジメ,0
1400,4460305002006,新規,0,2024-01-29,2024-01-29,特定非営利活動法人遠軽ｈｅａｒｔｚ,,その他の設立登記法人,北海道,紋別郡遠軽町,留岡３４番地,,01,555,0990408,,,,,,,2024-01-29,1,,,,,エンガルハーツ,0
1405,4490001010689,新規,0,2024-01-29,2024-01-29,炭玄株式会社,,株式会社,高知県,室戸市,吉良川町甲２３２３番地１,,39,202,7816832,,,,,,,2024-01-29,1,,,,,スミゲン,0
1417,5010001241736,新規,0,2024-01-29,2024-01-29,ＳｗｉｆｔＬｉｎｋ株式会社,,株式会社,東京都,中央区,銀座１丁目２２番１１号銀座大竹ビジデンス２Ｆ,,13,102,1040061,,,,,,,2024-01-29,1,,,,,スイフトリンク,0
1418,5010001241777,新規,0,2024-01-29,2024-01-29,大研バイオメディカル株式会社,,株式会社,東京都,中央区,築地５丁目４番１９号,,13,102,1040045,,,,,,,2024-01-29,1,,,,,ダイケンバイオメディカル,0
1419,5010001241835,新規,0,2024-01-29,2024-01-29,ＷＴＪ株式会社,,株式会社,東京都,中央区,日本橋小網町８番２号,,13,102,1030016,,,,,,,2024-01-29,1,,,,,ダブリューティージェイ,0
1420,5010001241884,新規,0,2024-01-29,2024-01-29,株式会社ＳＫＡＴＥ,,株式会社,東京都,千代田区,平河町１丁目３番８号－４０７,,13,101,1020093,,,,,,,2024-01-29,1,,,,,スケート,0
1424,5010003042785,新規,0,2024-01-29,2024-01-29,えのぐ合同会社,,合同会社,東京都,千代田区,神田和泉町１番地６－１６ヤマトビル４０５,,13,101,1010024,,,,,,,2024-01-29,1,,,,,エノグ,0
1428,5010005037809,新規,0,2024-01-29,2024-01-29,ＰＡＴＲＩＺＩＡ　ＭＦ３一般社団法人,,その他の設立登記法人,東京都,千代田区,丸の内３丁目１番１号東京共同会計事務所内,,13,101,1000005,,,,,,,2024-01-29,1,,,,,パトリシアエムエフスリー,0
1432,5010401179964,新規,0,2024-01-29,2024-01-29,株式会社ＧＩＮＦＯＮ,,株式会社,東京都,港区,芝浦４丁目１５－１プラウドタワー芝浦９１２室,,13,103,1080023,,,,,,,2024-01-29,1,,,,,ジンフォン,0
1440,5010901054626,新規,0,2024-01-29,2024-01-29,株式会社シックスワース,,株式会社,東京都,世田谷区,玉川１丁目１５番１－１４０５号,,13,112,1580094,,,,,,,2024-01-29,1,,,,,シックスワース,0
1444,5011003018346,新規,0,2024-01-29,2024-01-29,合同会社Ｄｉｓｋ,,合同会社,東京都,渋谷区,広尾１丁目１－３１,,13,113,1500012,,,,,,,2024-01-29,1,,,,,ディスク,0
1445,5011003018354,新規,0,2024-01-29,2024-01-29,合同会社プリンスＫ,,合同会社,東京都,渋谷区,千駄ヶ谷４丁目６番８号,,13,113,1510051,,,,,,,2024-01-29,1,,,,,プリンスケー,0
1446,5011003018379,新規,0,2024-01-29,2024-01-29,合同会社Ｐｏｐ‐Ｕｐ,,合同会社,東京都,渋谷区,道玄坂１丁目１０番８号渋谷道玄坂東急ビル２Ｆ－Ｃ,,13,113,1500043,,,,,,,2024-01-29,1,,,,,ポップアップ,0
1452,5011101105962,新規,0,2024-01-29,2024-01-29,株式会社Ｃｒｅａｆｉｄｅｎｃｅ,,株式会社,東京都,新宿区,新宿２丁目１２番１３号２Ｆ,,13,104,1600022,,,,,,,2024-01-29,1,,,,,クリエイフィデンス,0
1453,5011101105995,新規,0,2024-01-29,2024-01-29,株式会社Ａ‐ＭＩ．ａｇｅｎｃｙ,,株式会社,東京都,新宿区,歌舞伎町１丁目２－７－７Ｇ,,13,104,1600021,,,,,,,2024-01-29,1,,,,,アーミエージェンシー,0
1454,5011101106003,新規,0,2024-01-29,2024-01-29,株式会社ＭＹ　ＴＯＫＹＯ,,株式会社,東京都,新宿区,百人町２丁目７番９－３０７号,,13,104,1690073,,,,,,,2024-01-29,1,,,,,マイトーキョー,0
1457,5011201025210,新規,0,2024-01-29,2024-01-29,株式会社植竹工務店,,株式会社,東京都,中野区,上高田５丁目４５番１５号,,13,114,1640002,,,,,,,2024-01-29,1,,,,,ウエタケコウムテン,0
1459,5011301029359,新規,0,2024-01-29,2024-01-29,エイアールシー株式会社,,株式会社,東京都,杉並区,高円寺南１丁目６番５－５０５号高円寺サマリヤマンション,,13,115,1660003,,,,,,,2024-01-29,1,,,,,エイアールシー,0
1466,5012401041451,新規,0,2024-01-29,2024-01-29,リブラ株式会社,,株式会社,東京都,府中市,日新町４丁目３番地の１７,,13,206,1830036,,,,,,,2024-01-29,1,,,,,リブラ,0
1467,5012401041468,新規,0,2024-01-29,2024-01-29,株式会社アキラコンテナハウス,,株式会社,東京都,稲城市,矢野口３０５番地の１長坂ビル３階,,13,225,2060812,,,,,,,2024-01-29,1,,,,,アキラコンテナハウス,0
1468,5012403006386,新規,0,2024-01-29,2024-01-29,合同会社ＴＯＲＣＨ,,合同会社,東京都,小金井市,本町４丁目１番１－３０３号小金井ハイツ,,13,210,1840004,,,,,,,2024-01-29,1,,,,,トーチ,0
1477,5020001155547,新規,0,2024-01-29,2024-01-29,株式会社横浜総合住建,,株式会社,神奈川県,横浜市緑区,十日市場町８４７番地１７－１Ｆ,,14,113,2260025,,,,,,,2024-01-29,1,,,,,ヨコハマソウゴウジュウケン,0
1483,5021001081320,新規,0,2024-01-29,2024-01-29,株式会社ＡＬＩＶＥ,,株式会社,神奈川県,大和市,中央４丁目１４－２シティコープ大和５０３,,14,213,2420021,,,,,,,2024-01-29,1,,,,,アライブ,0
1507,5030001158284,新規,0,2024-01-29,2024-01-29,株式会社アラン,,株式会社,埼玉県,川口市,桜町３丁目１番３号ＭＱｕａｒｔｏ新井宿ＩＩ１０８号,00133528,11,203,3340001,,,,,,,2024-01-29,1,,,,,アラン,0
1508,5030001158391,新規,0,2024-01-29,2024-01-29,株式会社Ｙ’ｓ　ｌｉｎｅ,,株式会社,埼玉県,越谷市,花田２丁目５番地６,,11,222,3430015,,,,,,,2024-01-29,1,,,,,ワイズライン,0
1509,5030001158400,新規,0,2024-01-29,2024-01-29,株式会社彩匠,,株式会社,埼玉県,三郷市,戸ケ崎１丁目２０７番１－１０６号アーバンライフ,,11,237,3410044,,,,,,,2024-01-29,1,,,,,サイショウ,0
1539,5030003023478,新規,0,2024-01-29,2024-01-29,合同会社新林商事,,合同会社,埼玉県,所沢市,大字下安松３０２番地の２１,,11,208,3590024,,,,,,,2024-01-29,1,,,,,シンリンショウジ,0
1550,5040001131950,新規,0,2024-01-29,2024-01-29,株式会社吉岡茶房,,株式会社,千葉県,我孫子市,若松１７０番地４,,12,222,2701147,,,,,,,2024-01-29,1,,,,,ヨシオカサボウ,0
1551,5040001131959,新規,0,2024-01-29,2024-01-29,株式会社ムーセンネクスト,,株式会社,千葉県,船橋市,前原西２丁目４３－１０、１Ｆ,,12,204,2740825,,,,,,,2024-01-29,1,,,,,ムーセンネクスト,0
1555,5040003024153,新規,0,2024-01-29,2024-01-29,ＴＭＳ合同会社,,合同会社,千葉県,市原市,青柳３８番地１ハイツうるま２０２,,12,219,2990102,,,,,,,2024-01-29,1,,,,,ティーエムエス,0
1588,5050003008097,新規,0,2024-01-29,2024-01-29,ＪＡＤＥ　ＴＲＡＮ　ＪＡＰＡＮ合同会社,,合同会社,茨城県,牛久市,南７丁目３５番地６－２階１０２号室,,08,219,3001222,,,,,,,2024-01-29,1,,,,,ジェイドチャンジャパン,0
1594,5070001041313,新規,0,2024-01-29,2024-01-29,株式会社ハレノヒ,,株式会社,群馬県,前橋市,大友町１丁目２０番地７竹三ビル１Ｆ,,10,201,3710847,,,,,,,2024-01-29,1,,,,,ハレノヒ,0
1597,5080101024497,新規,0,2024-01-29,2024-01-29,株式会社鳥関商店,,株式会社,静岡県,熱海市,清水町１４番３号,,22,205,4130021,,,,,,,2024-01-29,1,,,,,トリセキショウテン,0
1598,5080103002971,新規,0,2024-01-29,2024-01-29,合同会社野中山地所,,合同会社,静岡県,熱海市,咲見町６番３６号,,22,205,4130019,,,,,,,2024-01-29,1,,,,,ノナカヤマジショ,0
1603,5100001037167,新規,0,2024-01-29,2024-01-29,株式会社皆戸総合企画,,株式会社,長野県,松本市,大字笹賀６０８８番地６,,20,202,3990033,,,,,,,2024-01-29,1,,,,,カイトソウゴウキカク,0
1612,5120001261698,新規,0,2024-01-29,2024-01-29,株式会社Ｔｅｎｙａ,,株式会社,大阪府,大阪市東成区,中本４丁目１番１７－９０９号,,27,115,5370022,,,,,,,2024-01-29,1,,,,,テンヤ,0
1613,5120001261707,新規,0,2024-01-29,2024-01-29,祐寧株式会社,,株式会社,大阪府,大阪市住吉区,墨江１丁目１番１１号,,27,120,5580043,,,,,,,2024-01-29,1,,,,,ユウネイ,0
1614,5120001261847,新規,0,2024-01-29,2024-01-29,株式会社さざなみの杜,,株式会社,大阪府,大阪市中央区,北久宝寺町３丁目６番１号,,27,128,5410057,,,,,,,2024-01-29,1,,,,,サザナミノモリ,0
1617,5120003025779,新規,0,2024-01-29,2024-01-29,ＴＤ合同会社,,合同会社,大阪府,大阪市天王寺区,味原町１番１７号,,27,109,5430023,,,,,,,2024-01-29,1,,,,,ティーディー,0
1618,5120003025787,新規,0,2024-01-29,2024-01-29,合同会社ティファニーアンドコウ,,合同会社,大阪府,大阪市天王寺区,味原町７番２８号ＮＯＶＡ南真田山４０１号,,27,109,5430023,,,,,,,2024-01-29,1,,,,,ティファニーアンドコウ,0
1619,5120005024110,新規,0,2024-01-29,2024-01-29,一般社団法人臥龍会,,その他の設立登記法人,大阪府,大阪市西区,京町堀１丁目３番１号ワイズビスタビル４階,,27,106,5500003,,,,,,,2024-01-29,1,,,,,ガリュウカイ,0
1620,5120005024127,新規,0,2024-01-29,2024-01-29,医療法人青優会,,その他の設立登記法人,大阪府,大阪市東淀川区,井高野３丁目２番４０－１０１号,,27,114,5330001,,,,,,,2024-01-29,1,,,,,セイユウカイ,0
1621,5120005024135,新規,0,2024-01-29,2024-01-29,一般社団法人万物謝恩協会,,その他の設立登記法人,大阪府,大阪市北区,梅田１丁目２番２号大阪駅前第２ビル１２－１２,,27,127,5300001,,,,,,,2024-01-29,1,,,,,バンブツシャオンキョウカイ,0
1627,5120903005021,新規,0,2024-01-29,2024-01-29,合同会社フローラ,,合同会社,大阪府,豊中市,桜の町３丁目１６番２２号アルフォンス桜の町１０６号室,,27,203,5600054,,,,,,,2024-01-29,1,,,,,フローラ,0
1673,5160001025661,新規,0,2024-01-29,2024-01-29,株式会社ＭＵＳＵＢＩ　ＷＯＲＫＳ,,株式会社,滋賀県,甲賀市,甲南町杉谷２４８番地１,,25,209,5203314,,,,,,,2024-01-29,1,,,,,ムスビワークス,0
1679,5180001159920,新規,0,2024-01-29,2024-01-29,株式会社誠揚,,株式会社,愛知県,名古屋市中村区,羽衣町３４番地,,23,105,4530026,,,,,,,2024-01-29,1,,,,,セイヨウ,0
1680,5180001159929,新規,0,2024-01-29,2024-01-29,株式会社ＱＩＣ,,株式会社,愛知県,一宮市,春明字神宮１番地２,,23,203,4910003,,,,,,,2024-01-29,1,,,,,キューアイシー,0
1681,5180001159945,新規,0,2024-01-29,2024-01-29,株式会社Ｙｏｕｒ　Ｐａｔｒｏｎｕｍ,,株式会社,愛知県,名古屋市名東区,照が丘１２８番地の２,,23,115,4650042,,,,,,,2024-01-29,1,,,,,ユアパトローナム,0
1682,5180001159953,新規,0,2024-01-29,2024-01-29,株式会社エバー・ブルー,,株式会社,愛知県,名古屋市名東区,猪高台１丁目１０２６番地,,23,115,4650028,,,,,,,2024-01-29,1,,,,,エバーブルー,0
1683,5180001159994,新規,0,2024-01-29,2024-01-29,高森商事株式会社,,株式会社,愛知県,北名古屋市,六ツ師宮西３８番地,,23,234,4810001,,,,,,,2024-01-29,1,,,,,タカモリショウジ,0
1688,5250001020496,新規,0,2024-01-29,2024-01-29,株式会社らんぱち,,株式会社,山口県,玖珂郡和木町,和木４丁目１４番３８号,,35,321,7400061,,,,,,,2024-01-29,1,,,,,ランパチ,0
1689,5250003003425,新規,0,2024-01-29,2024-01-29,合同会社ａｎｏｗａ,,合同会社,山口県,岩国市,岩国２丁目１０番１０号,,35,208,7410062,,,,,,,2024-01-29,1,,,,,アノワ,0
1694,5270005005574,新規,0,2024-01-29,2024-01-29,特定非営利活動法人自然体験まるたんぼう,,その他の設立登記法人,鳥取県,八頭郡智頭町,大字大屋１６０,,31,328,6891442,,,,,,,2024-01-29,1,,,,,シゼンタイケンマルタンボウ,0
1705,5290001104493,新規,0,2024-01-29,2024-01-29,株式会社ＦＬＯＷＥＲ,,株式会社,福岡県,宗像市,宮田２丁目１４番３３号,,40,220,8113416,,,,,,,2024-01-29,1,,,,,フラワー,0
1706,5290001104519,新規,0,2024-01-29,2024-01-29,株式会社Ａ＆Ａ　Ｃｏ．,,株式会社,福岡県,福岡市南区,若久３丁目５番１３号,,40,134,8150042,,,,,,,2024-01-29,1,,,,,エーアンドエーカンパニー,0
1707,5290003014906,新規,0,2024-01-29,2024-01-29,合同会社センス,,合同会社,福岡県,飯塚市,弁分６１４番地２県営住宅彼岸原１棟１０５号,,40,205,8200088,,,,,,,2024-01-29,1,,,,,センス,0
1708,5290005019283,新規,0,2024-01-29,2024-01-29,医療法人裕翔会,,その他の設立登記法人,福岡県,福岡市博多区,那珂５丁目３番５０号ステラＳＴＩＩＩ１階,00133536,40,132,8120893,,,,,,,2024-01-29,1,,,,,ユウショウカイ,0
1717,5310001018815,新規,0,2024-01-29,2024-01-29,株式会社ＪＥＡＣ,,株式会社,長崎県,平戸市,野子町１６２,,42,207,8595535,,,,,,,2024-01-29,1,,,,,ジェック,0
1718,5320001020258,新規,0,2024-01-29,2024-01-29,株式会社竜晴工業,,株式会社,大分県,大分市,富士見が丘西３丁目４番８号,,44,201,8701177,,,,,,,2024-01-29,1,,,,,リュウセイコウギョウ,0
1724,5340001026245,新規,0,2024-01-29,2024-01-29,株式会社スプリック,,株式会社,鹿児島県,鹿児島市,中央町２５番地１３カナン中央町Ａ館７０３号,,46,201,8900053,,,,,,,2024-01-29,1,,,,,スプリック,0
1727,5340003004356,新規,0,2024-01-29,2024-01-29,Ｌｅ　Ｔｏｎ　Ｄｕ　Ｔｅｍｐｓ合同会社,,合同会社,鹿児島県,鹿児島市,易居町１―２,,46,201,8920815,,,,,,,2024-01-29,1,,,,,ルトンデュトン,0
1735,5370001050878,新規,0,2024-01-29,2024-01-29,株式会社ＲＥＧＩＵＳ,,株式会社,宮城県,仙台市宮城野区,新田東２丁目１５番地の１パークシティイーストアイランド９０１,,04,102,9830039,,,,,,,2024-01-29,1,,,,,レジアス,0
1736,5370001050886,新規,0,2024-01-29,2024-01-29,すみよし株式会社,,株式会社,宮城県,仙台市太白区,向山４丁目１８－７,,04,104,9820841,,,,,,,2024-01-29,1,,,,,スミヨシ,0
1740,5390001017504,新規,0,2024-01-29,2024-01-29,株式会社アルテ,,株式会社,山形県,寒河江市,末広町１番２２号,,06,206,9910033,,,,,,,2024-01-29,1,,,,,アルテ,0
1742,5410001013715,新規,0,2024-01-29,2024-01-29,株式会社ＹＭＦ,,株式会社,秋田県,横手市,柳田１番２号,,05,203,0130054,,,,,,,2024-01-29,1,,,,,ワイエムエフ,0
1746,5430001090901,新規,0,2024-01-29,2024-01-29,株式会社マリナード,,株式会社,北海道,札幌市西区,西町北２０丁目１番１７－４０１号,,01,107,0630061,,,,,,,2024-01-29,1,,,,,マリナード,0
1747,5430001090950,新規,0,2024-01-29,2024-01-29,株式会社Ｄｉｖｅｒｓｅ　Ｔｒａｖｅｌ,,株式会社,北海道,札幌市南区,藤野五条４丁目１番１２号,,01,106,0612285,,,,,,,2024-01-29,1,,,,,ダイバーストラベル,0
1748,5430001090959,新規,0,2024-01-29,2024-01-29,ＧａｍｅＳｕｓｈｉ株式会社,,株式会社,北海道,札幌市中央区,北二条西２丁目３２番地,,01,101,0600002,,,,,,,2024-01-29,1,,,,,ゲームスシ,0
1749,5460101007488,新規,0,2024-01-29,2024-01-29,マツダファーム株式会社,,株式会社,北海道,中川郡幕別町,字古舞３３８番地の４,,01,643,0890576,,,,,,,2024-01-29,1,,,,,マツダファーム,0
1754,5500001025437,新規,0,2024-01-29,2024-01-29,株式会社光プロジェクト,,株式会社,愛媛県,宇和島市,寄松甲２８５番地８,,38,203,7980084,,,,,,,2024-01-29,1,,,,,ヒカリプロジェクト,0
1756,5700150055660,新規,0,2024-01-29,2015-10-09,飯南町学校給食会,,その他,島根県,飯石郡飯南町,頓原２０８４－４,,32,386,6903207,,,,,,,2015-10-09,1,,,,,イイナンチヨウガツコウキユウシヨクカイ,0
1757,5700150123698,新規,0,2024-01-29,2024-01-29,ＡＰＡ東京クラブ,,その他,東京都,新宿区,歌舞伎町２丁目６－１６－２０１,,13,104,1600021,,,,,,,2024-01-29,1,,,,,エーピーエートウキョウクラブ,0
1765,6010001241801,新規,0,2024-01-29,2024-01-29,株式会社Ｔｒｉｌｌｉａｎｔ,,株式会社,東京都,文京区,本郷２丁目４０番１３号本郷コーポレイション７０４号室,,13,105,1130033,,,,,,,2024-01-29,1,,,,,トリリアント,0
1766,6010001241834,新規,0,2024-01-29,2024-01-29,株式会社イコールスリー,,株式会社,東京都,千代田区,富士見１丁目３番地１１富士見デュープレックスＢ’ｓ４階,,13,101,1020071,,,,,,,2024-01-29,1,,,,,イコールスリー,0
1767,6010001241850,新規,0,2024-01-29,2024-01-29,株式会社Ｂｅｔａ,,株式会社,東京都,中央区,日本橋蛎殻町１丁目２番５号,,13,102,1030014,,,,,,,2024-01-29,1,,,,,ベータ,0
1768,6010001241867,新規,0,2024-01-29,2024-01-29,株式会社倫コーポレーション,,株式会社,東京都,中央区,晴海３丁目１６番１－１６０２号,,13,102,1040053,,,,,,,2024-01-29,1,,,,,リンコーポレーション,0
1770,6010003042776,新規,0,2024-01-29,2024-01-29,合同会社シャイン,,合同会社,東京都,文京区,湯島２丁目２０番４号,,13,105,1130034,,,,,,,2024-01-29,1,,,,,シャイン,0
1772,6010005037808,新規,0,2024-01-29,2024-01-29,一般社団法人日本ウルトラファインバブル協会,,その他の設立登記法人,東京都,中央区,銀座１丁目１２番４号Ｎ＆ＥＢＬＤ．６Ｆ,,13,102,1040061,,,,,,,2024-01-29,1,,,,,ニホンウルトラファインバブルキョウカイ,0
1773,6010103002300,新規,0,2024-01-29,2024-01-29,合同会社たかの,,合同会社,東京都,八王子市,石川町５５６番地,,13,201,1920032,,,,,,,2024-01-29,1,,,,,タカノ,0
1781,6010401179864,新規,0,2024-01-29,2024-01-29,ＩＹＳ株式会社,,株式会社,東京都,港区,虎ノ門１丁目１７番１号虎ノ門ビジネスタワー１５Ｆ,,13,103,1050001,,,,,,,2024-01-29,1,,,,,アイワイエス,0
1782,6010401179971,新規,0,2024-01-29,2024-01-29,株式会社新神田,,株式会社,東京都,港区,赤坂３丁目１２－１フローレンス赤坂３Ｆ,,13,103,1070052,,,,,,,2024-01-29,1,,,,,シンカンダ,0
1784,6010403031809,新規,0,2024-01-29,2024-01-29,富士三次土地合同会社,,合同会社,東京都,港区,六本木３丁目２番１号六本木グランドタワー,,13,103,1060032,,,,,,,2024-01-29,1,,,,,フジミヨシトチ,0
1788,6010701045477,新規,0,2024-01-29,2024-01-29,株式会社Ｐａｃｉｆｉｃ　Ｃａｐｉｔａｌ,,株式会社,東京都,品川区,大崎２丁目９番１号,,13,109,1410032,,,,,,,2024-01-29,1,,,,,パシフィックキャピタル,0
1790,6010901054600,新規,0,2024-01-29,2024-01-29,株式会社リッジピース,,株式会社,東京都,世田谷区,北沢２丁目１１番１５号ミカン下北Ａ街区４階,,13,112,1550031,,,,,,,2024-01-29,1,,,,,リッジピース,0
1792,6010903008769,新規,0,2024-01-29,2024-01-29,合同会社Ｋ．Ｆａｍｉｌｙ,,合同会社,東京都,世田谷区,奥沢５丁目１－１１メゾンドジョワ２０２号室,,13,112,1580083,,,,,,,2024-01-29,1,,,,,ケーファミリー,0
1796,6011001159645,新規,0,2024-01-29,2024-01-29,株式会社ＵＮＷＡＶＥ,,株式会社,東京都,渋谷区,恵比寿西２丁目８－４ＥＸ恵比寿西ビル５階,,13,113,1500021,,,,,,,2024-01-29,1,,,,,アンウェイブ,0
1797,6011001159661,新規,0,2024-01-29,2024-01-29,株式会社ＫＭＣ,,株式会社,東京都,渋谷区,本町１丁目７番１６－１１０８号,,13,113,1510071,,,,,,,2024-01-29,1,,,,,ケーエムシー,0
1798,6011003018337,新規,0,2024-01-29,2024-01-29,合同会社こもれびサポート,,合同会社,東京都,渋谷区,西原２丁目１番２号－Ｂ１,,13,113,1510066,,,,,,,2024-01-29,1,,,,,コモレビサポート,0
1799,6011003018378,新規,0,2024-01-29,2024-01-29,合同会社ＳａｌＷａｙ,,合同会社,東京都,渋谷区,神宮前６丁目２３番４号桑野ビル２階,,13,113,1500001,,,,,,,2024-01-29,1,,,,,サルウェー,0
1805,6011101106002,新規,0,2024-01-29,2024-01-29,株式会社ＩＴラボ,,株式会社,東京都,新宿区,舟町１－８,,13,104,1600006,,,,,,,2024-01-29,1,,,,,アイティラボ,0
1807,6011103014038,新規,0,2024-01-29,2024-01-29,合同会社２４Ｅｎｔｅｒｔａｉｎｍｅｎｔ,,合同会社,東京都,新宿区,高田馬場３丁目１６－１１戸塚ハイツ４０７,,13,104,1690075,,,,,,,2024-01-29,1,,,,,トゥウェンティーフォーエンターテインメント,0
1808,6011301029366,新規,0,2024-01-29,2024-01-29,株式会社ＹｏＹｏｕ,,株式会社,東京都,杉並区,天沼２丁目３６番７号プラスペアティ２０１,,13,115,1670032,,,,,,,2024-01-29,1,,,,,ヨユウ,0
1810,6011401025819,新規,0,2024-01-29,2024-01-29,株式会社菅野美装,,株式会社,東京都,板橋区,西台２丁目３８番７号三高ツィン・タワー・ノース８０３,,13,119,1750045,,,,,,,2024-01-29,1,,,,,スガノビソウ,0
1812,6011403004250,新規,0,2024-01-29,2024-01-29,合同会社ミラクル,,合同会社,東京都,板橋区,小茂根２丁目２０番１２－８０２号,,13,119,1730037,,,,,,,2024-01-29,1,,,,,ミラクル,0
1815,6011503005933,新規,0,2024-01-29,2024-01-29,マルパソカンパニー合同会社,,合同会社,東京都,荒川区,東尾久３丁目２１番１５号,,13,118,1160012,,,,,,,2024-01-29,1,,,,,マルパソカンパニー,0
1818,6011801043701,新規,0,2024-01-29,2024-01-29,株式会社Ｌｉｎｄ,,株式会社,東京都,足立区,古千谷本町４丁目８番１７号,,13,121,1210832,,,,,,,2024-01-29,1,,,,,リンド,0
1821,6012703002902,新規,0,2024-01-29,2024-01-29,ゼータ・サークルズ合同会社,,合同会社,東京都,小平市,津田町３丁目３３番地２３号,,13,211,1870025,,,,,,,2024-01-29,1,,,,,ゼータサークルズ,0
1822,6012705002388,新規,0,2024-01-29,2024-01-29,一般社団法人ジャンプダイ,,その他の設立登記法人,東京都,小平市,花小金井南町２丁目１７番８－２号,,13,211,1870003,,,,,,,2024-01-29,1,,,,,ジャンプダイ,0
1827,6020001155513,新規,0,2024-01-29,2024-01-29,株式会社オレンジプラムシステムズ,,株式会社,神奈川県,横浜市青葉区,美しが丘４丁目３９番地８０,,14,117,2250002,,,,,,,2024-01-29,1,,,,,オレンジプラムシステムズ,0
1828,6020001155554,新規,0,2024-01-29,2024-01-29,三井商事株式会社,,株式会社,神奈川県,川崎市幸区,遠藤町３２－５第五吉田ハイツ１０１,,14,132,2120006,,,,,,,2024-01-29,1,,,,,ミツイショウジ,0
1831,6021003014079,新規,0,2024-01-29,2024-01-29,合同会社プレーン・デザイン・ワークス,,合同会社,神奈川県,藤沢市,羽鳥５丁目１０番１２号,,14,205,2510056,,,,,,,2024-01-29,1,,,,,プレーンデザインワークス,0
1832,6021003014095,新規,0,2024-01-29,2024-01-29,Ｐｅｔｉｔｅ　Ｐａｕｓｅ合同会社,,合同会社,神奈川県,横須賀市,米が浜通２丁目１８番地,,14,201,2380011,,,,,,,2024-01-29,1,,,,,プティットポーズ,0
1846,6030001158283,新規,0,2024-01-29,2024-01-29,株式会社イチゲン,,株式会社,埼玉県,川口市,大字安行領根岸１９２０番地根岸台高層住宅ＲＣ－Ａ６０５号,,11,203,3330834,,,,,,,2024-01-29,1,,,,,イチゲン,0
1847,6030001158390,新規,0,2024-01-29,2024-01-29,株式会社Ｈ＆Ｓ,,株式会社,埼玉県,越谷市,大字長島１５６,,11,222,3430853,,,,,,,2024-01-29,1,,,,,エイチアンドエス,0
1848,6030001158399,新規,0,2024-01-29,2024-01-29,株式会社Ｔｏｔａｌ　ｓｕｐｐｏｒｔ　ｂｅｌｉｅｆ,,株式会社,埼玉県,加須市,南小浜５４１番地８,,11,210,3470028,,,,,,,2024-01-29,1,,,,,トータルサポートビリーフ,0
1881,6030003023502,新規,0,2024-01-29,2024-01-29,合同会社ゆうけん,,合同会社,埼玉県,和光市,下新倉３丁目１６番５０号,,11,229,3510111,,,,,,,2024-01-29,1,,,,,ユウケン,0
1882,6030003023510,新規,0,2024-01-29,2024-01-29,合同会社ＢＴＬ,,合同会社,埼玉県,鴻巣市,鎌塚２丁目４番３山下邸２０２号室,,11,217,3690112,,,,,,,2024-01-29,1,,,,,ビーティエル,0
1883,6030003023519,新規,0,2024-01-29,2024-01-29,合同会社マットパープル,,合同会社,埼玉県,越谷市,登戸町８番３８号,,11,222,3430846,,,,,,,2024-01-29,1,,,,,マットパープル,0
1884,6030003023527,新規,0,2024-01-29,2024-01-29,ＴＯ　ＵＹＥＮ合同会社,,合同会社,埼玉県,坂戸市,浅羽野３丁目２番地７ＫＩＳ亜州商会館坂戸Ｂ号室,,11,239,3500237,,,,,,,2024-01-29,1,,,,,トォーウエン,0
1894,6040001131933,新規,0,2024-01-29,2024-01-29,株式会社ＹＡＮＥＹＡ,,株式会社,千葉県,習志野市,津田沼６丁目１０番１号,,12,216,2750016,,,,,,,2024-01-29,1,,,,,ヤネヤ,0
1910,6050001054191,新規,0,2024-01-29,2024-01-29,株式会社川原井商事,,株式会社,茨城県,水戸市,木葉下町２７７番地,,08,201,3114165,,,,,,,2024-01-29,1,,,,,カワライショウジ,0
1919,6050003008105,新規,0,2024-01-29,2024-01-29,合同会社Ｂｅａｍｉｎｇ,,合同会社,茨城県,行方市,富田２２８,,08,233,3113833,,,,,,,2024-01-29,1,,,,,ビーミング,0
1923,6070001041304,新規,0,2024-01-29,2024-01-29,株式会社ＰＴＰ．ＷＦ,,株式会社,群馬県,高崎市,柳川町２５－２,,10,202,3700815,,,,,,,2024-01-29,1,,,,,,0
1924,6070001041312,新規,0,2024-01-29,2024-01-29,クーロンエス株式会社,,株式会社,群馬県,甘楽郡甘楽町,大字上野１４０番地１,,10,384,3702201,,,,,,,2024-01-29,1,,,,,クーロンエス,0
1925,6070001041329,新規,0,2024-01-29,2024-01-29,株式会社ハーモウ,,株式会社,群馬県,前橋市,三河町１丁目１番１０３,,10,201,3710015,,,,,,,2024-01-29,1,,,,,,0
1926,6070005010222,新規,0,2024-01-29,2024-01-29,一般社団法人ＳＨＯＵＢＩ福祉団,,その他の設立登記法人,群馬県,邑楽郡千代田町,大字赤岩１８０４番地の７,,10,523,3700503,,,,,,,2024-01-29,1,,,,,,0
1928,6090003002483,新規,0,2024-01-29,2024-01-29,合同会社ブリジャール,,合同会社,山梨県,甲府市,中央１丁目１２番５号五光ビル４Ｆ,,19,201,4000032,,,,,,,2024-01-29,1,,,,,ブリジャール,0
1943,6120001261656,新規,0,2024-01-29,2024-01-29,銘可達国際物流株式会社,,株式会社,大阪府,大阪市中央区,高津２丁目３番１３－４０２号,,27,128,5420072,,,,,,,2024-01-29,1,,,,,メイカタツコクサイブツリュウ,0
1944,6120001261706,新規,0,2024-01-29,2024-01-29,童徳株式会社,,株式会社,大阪府,大阪市中央区,船越町１丁目５番８号４０１号,,27,128,5400036,,,,,,,2024-01-29,1,,,,,ドウトク,0
1945,6120001261796,新規,0,2024-01-29,2024-01-29,Ｄａ　ｖｉｎｃｉ株式会社,,株式会社,大阪府,大阪市浪速区,元町３丁目８－７伍條ビル２Ｆ,,27,111,5560016,,,,,,,2024-01-29,1,,,,,ダヴィンチ,0
1948,6120003025753,新規,0,2024-01-29,2024-01-29,合同会社ＤＧＲマーケティング,,合同会社,大阪府,大阪市淀川区,木川西２丁目２１番２３号,,27,123,5320013,,,,,,,2024-01-29,1,,,,,ディージーアールマーケティング,0
1949,6120003025761,新規,0,2024-01-29,2024-01-29,合同会社Ｙ・Ｍ企画,,合同会社,大阪府,大阪市天王寺区,小橋町１４‐７１‐９０３,,27,109,5430028,,,,,,,2024-01-29,1,,,,,ワイエムキカク,0
1950,6120003025794,新規,0,2024-01-29,2024-01-29,ＧＩＡ　ＫＨＡＮＨ合同会社,,合同会社,大阪府,大阪市生野区,新今里３丁目２番６号グランド寿ビル３１１号室,,27,116,5440001,,,,,,,2024-01-29,1,,,,,ジャカン,0
1952,6120101068968,新規,0,2024-01-29,2024-01-29,株式会社ＮＡＣホールディングス,,株式会社,大阪府,貝塚市,二色南町３－９,,27,208,5970094,,,,,,,2024-01-29,1,,,,,エヌエーシーホールディングス,0
1955,6120901048698,新規,0,2024-01-29,2024-01-29,株式会社Ｒｅｖｉｖａｌ　ｕｐ,,株式会社,大阪府,豊中市,南桜塚３丁目７番９－４０１号,,27,203,5610882,,,,,,,2024-01-29,1,,,,,リバイバルアップ,0
1957,6120903005029,新規,0,2024-01-29,2024-01-29,合同会社ＶＩＳＴＡ,,合同会社,大阪府,池田市,石橋３丁目５番１７－Ｃ号,,27,204,5630032,,,,,,,2024-01-29,1,,,,,ビスタ,0
1958,6120905006561,新規,0,2024-01-29,2024-01-29,医療法人こうの整形外科・漢方クリニック,,その他の設立登記法人,大阪府,豊中市,上新田２丁目２４番５０の１号上新田メディカルブリッジ１階,,27,203,5600085,,,,,,,2024-01-29,1,,,,,コウノセイケイゲカカンポウクリニック,0
1961,6130001076236,新規,0,2024-01-29,2024-01-29,株式会社スマイル,,株式会社,京都府,京都市下京区,大宮通高辻大宮町１０７番地７コージーハイツ大宮１００１号室,,26,106,6000000,,,,,,,2024-01-29,1,,,,,スマイル,0
1962,6130001076244,新規,0,2024-01-29,2024-01-29,株式会社キアオラこんにちは,,株式会社,京都府,京都市中京区,河原町通二条下る二丁目下丸屋町４０３番地,,26,104,6040000,,,,,,,2024-01-29,1,,,,,キアオラコンニチハ,0
1981,6140001133102,新規,0,2024-01-29,2024-01-29,風島物流株式会社,,株式会社,兵庫県,神戸市北区,中里町２丁目３番地,,28,109,6511103,,,,,,,2024-01-29,1,,,,,カゼジマブツリュウ,0
1982,6140001133135,新規,0,2024-01-29,2024-01-29,株式会社ファンフューチャー,,株式会社,兵庫県,明石市,魚住町西岡２００１番地,,28,203,6740084,,,,,,,2024-01-29,1,,,,,ファンフューチャー,0
1983,6140001133151,新規,0,2024-01-29,2024-01-29,株式会社三日月の里・企画,,株式会社,兵庫県,佐用郡佐用町,三日月５１８番地４,,28,501,6795133,,,,,,,2024-01-29,1,,,,,ミカヅキノサトキカク,0
1999,6140003020091,新規,0,2024-01-29,2024-01-29,合同会社もりまつ,,合同会社,兵庫県,宝塚市,南口２丁目１番３９号,,28,214,6650011,,,,,,,2024-01-29,1,,,,,モリマツ,0
2010,6160001025660,新規,0,2024-01-29,2024-01-29,株式会社ＫＦ,,株式会社,滋賀県,東近江市,宮川町６９１番地３２７,,25,213,5291551,,,,,,,2024-01-29,1,,,,,ケイエフ,0
2014,6180001159969,新規,0,2024-01-29,2024-01-29,株式会社Ｈａｐｐｙ　Ｌｉｆｅ,,株式会社,愛知県,大府市,江端町３丁目１４３番地,,23,223,4740035,,,,,,,2024-01-29,1,,,,,ハッピーライフ,0
2015,6180001159977,新規,0,2024-01-29,2024-01-29,株式会社ＯｈＧｏｏＤ,,株式会社,愛知県,名古屋市西区,名駅１丁目１番１７号名駅ダイヤメイテツビル１１階,,23,104,4510045,,,,,,,2024-01-29,1,,,,,オーグッド,0
2018,6180003026275,新規,0,2024-01-29,2024-01-29,合同会社Ｌｇｏ,,合同会社,愛知県,名古屋市中区,錦２丁目７番７号,,23,106,4600003,,,,,,,2024-01-29,1,,,,,エルゴー,0
2019,6180003026283,新規,0,2024-01-29,2024-01-29,合同会社名西トラスト不動産,,合同会社,愛知県,愛西市,須依町元屋敷２６番地１,,23,232,4960902,,,,,,,2024-01-29,1,,,,,メイセイトラストフドウサン,0
2024,6200001042115,新規,0,2024-01-29,2024-01-29,株式会社ＬｉＶｉＬ,,株式会社,岐阜県,岐阜市,宇佐南４丁目１７番９号,,21,201,5008367,,,,,,,2024-01-29,1,,,,,リヴィル,0
2025,6200003006217,新規,0,2024-01-29,2024-01-29,しろくま合同会社,,合同会社,岐阜県,揖斐郡大野町,大字公郷２３５９番地４,,21,403,5010555,,,,,,,2024-01-29,1,,,,,シロクマ,0
2031,6240003006510,新規,0,2024-01-29,2024-01-29,合同会社ＭＯＢＩＴＡＳＵ,,合同会社,広島県,広島市佐伯区,五日市中央４丁目６番１７号,,34,108,7315128,,,,,,,2024-01-29,1,,,,,モビタス,0
2033,6250001020495,新規,0,2024-01-29,2024-01-29,株式会社大雅建設,,株式会社,山口県,山陽小野田市,大字埴生５７４番地１１,,35,216,7570012,,,,,,,2024-01-29,1,,,,,タイガケンセツ,0
2034,6250003003424,新規,0,2024-01-29,2024-01-29,合同会社ＤＩＲ,,合同会社,山口県,宇部市,厚南中央４丁目３番１２－２０２号,,35,202,7590212,,,,,,,2024-01-29,1,,,,,ディル,0
2039,6290001104451,新規,0,2024-01-29,2024-01-29,株式会社アヤノ建設,,株式会社,福岡県,嘉麻市,山野１６０２番地１,,40,227,8200202,,,,,,,2024-01-29,1,,,,,アヤノケンセツ,0
2040,6290001104534,新規,0,2024-01-29,2024-01-29,株式会社ＡＭＣ,,株式会社,福岡県,福岡市早良区,百道浜２丁目３番８号ＲＫＢ毎日放送会館４階,,40,137,8140001,,,,,,,2024-01-29,1,,,,,エーエムシー,0
2043,6290003014913,新規,0,2024-01-29,2024-01-29,合同会社ＦＲＯＮＴ　ＬＩＦＥ,,合同会社,福岡県,福岡市西区,今津７３５－１,,40,135,8190165,,,,,,,2024-01-29,1,,,,,フロントライフ,0
2048,6320001020249,新規,0,2024-01-29,2024-01-29,株式会社クドウ・リース,,株式会社,大分県,大分市,大字中戸次５８５６番地３ヴィラコンソラータ２０６,,44,201,8797761,,,,,,,2024-01-29,1,,,,,クドウリース,0
2049,6320001020257,新規,0,2024-01-29,2024-01-29,株式会社テイキン,,株式会社,大分県,大分市,高砂町４番２０号,,44,201,8700029,,,,,,,2024-01-29,1,,,,,テイキン,0
2053,6340001026244,新規,0,2024-01-29,2024-01-29,株式会社ＭＳＴ,,株式会社,鹿児島県,鹿児島市,山之口町８番３５号３Ｆ,,46,201,8920844,,,,,,,2024-01-29,1,,,,,エムエスティー,0
2065,6370003006464,新規,0,2024-01-29,2024-01-29,合同会社ＥＥＨ,,合同会社,宮城県,仙台市青葉区,荒巻中央１５番２７－３０８号,,04,101,9810964,,,,,,,2024-01-29,1,,,,,イーイーエイチ,0
2077,6430001090941,新規,0,2024-01-29,2024-01-29,株式会社絆シーリング,,株式会社,北海道,石狩市,花川南四条４丁目９３番地,,01,235,0613204,,,,,,,2024-01-29,1,,,,,キズナシーリング,0
2078,6430001090958,新規,0,2024-01-29,2024-01-29,株式会社ＴＯＩＶＯＡ,,株式会社,北海道,札幌市北区,北二十八条西１１丁目１番５１号,,01,102,0010028,,,,,,,2024-01-29,1,,,,,トイボア,0
2081,6440001009379,新規,0,2024-01-29,2024-01-29,株式会社エクサマイン,,株式会社,北海道,函館市,赤川町４２５―１,,01,202,0410804,,,,,,,2024-01-29,1,,,,,エクサマイン,0
2082,6470001020003,新規,0,2024-01-29,2024-01-29,株式会社ロックストアーハウス,,株式会社,香川県,高松市,太田上町７８番地８,,37,201,7618074,,,,,,,2024-01-29,1,,,,,ロックストアーハウス,0
2084,6490005006921,新規,0,2024-01-29,2024-01-29,ＮＰＯ法人土佐伝統お座敷文化を守る会,,その他の設立登記法人,高知県,高知市,廿代町１５番１号,,39,201,7800843,,,,,,,2024-01-29,1,,,,,トサデントウオザシキブンカヲマモルカイ,0
2091,6700150123697,新規,0,2024-01-29,2024-01-29,福井坂井地区広域市町村圏事務組合清掃センター及び最終処分場運営連絡協議会,,その他,福井県,あわら市,市姫３丁目１－１,,18,208,9190621,,,,,,,2024-01-29,1,,,,,フクイサカイチクコウイキシチョウソンケンジムクミアイセイソウセンターオヨビサイシュウショブンジョウウンエイレンラクキョウギカイ,0
2104,7010003042783,新規,0,2024-01-29,2024-01-29,鹿児島天文館ホテルマネジメント合同会社,,合同会社,東京都,千代田区,霞が関３丁目２番１号,,13,101,1000013,,,,,,,2024-01-29,1,,,,,カゴシマテンモンカンホテルマネジメント,0
2106,7010005037815,新規,0,2024-01-29,2024-01-29,ＰＡＴＲＩＺＩＡ　ＭＦ３特定目的会社,,その他の設立登記法人,東京都,千代田区,丸の内３丁目１番１号東京共同会計事務所内,,13,101,1000005,,,,,,,2024-01-29,1,,,,,パトリシアエムエフスリー,0
2113,7010401179970,新規,0,2024-01-29,2024-01-29,Ｔｏｐ　Ｓｔｏｎｅ株式会社,,株式会社,東京都,港区,赤坂５丁目４番１５号ＡＲＡプレイス赤坂４階,,13,103,1070052,,,,,,,2024-01-29,1,,,,,,0
2128,7010903008743,新規,0,2024-01-29,2024-01-29,合同会社ニュートラル,,合同会社,東京都,世田谷区,駒沢１丁目５番１０－４０２号,,13,112,1540012,,,,,,,2024-01-29,1,,,,,ニュートラル,0
2133,7011003018377,新規,0,2024-01-29,2024-01-29,合同会社エヌアイエム,,合同会社,東京都,渋谷区,神宮前６丁目２３番４号桑野ビル２階,,13,113,1500001,,,,,,,2024-01-29,1,,,,,エヌアイエム,0
2141,7011103014037,新規,0,2024-01-29,2024-01-29,アシコー合同会社,,合同会社,東京都,新宿区,舟町７舟町ビルワイムポート新宿舟町Ｐ－２９,,13,104,1600006,,,,,,,2024-01-29,1,,,,,アシコー,0
2145,7011503005932,新規,0,2024-01-29,2024-01-29,合同会社鈴木聡薬業事務所,,合同会社,東京都,北区,赤羽西１丁目２３番１－３０１号コープ赤羽,,13,117,1150055,,,,,,,2024-01-29,1,,,,,スズキサトルヤクギョウジムショ,0
2146,7011601027498,新規,0,2024-01-29,2024-01-29,沐清株式会社,,株式会社,東京都,練馬区,関町北５丁目１３－２５,,13,120,1770051,,,,,,,2024-01-29,1,,,,,モクキヨ,0
2153,7011803006060,新規,0,2024-01-29,2024-01-29,合同会社ＥＡＳＴ１７８,,合同会社,東京都,足立区,千住緑町２丁目２０番１３号,,13,121,1200044,,,,,,,2024-01-29,1,,,,,イーストイチナナハチ,0
2156,7013301051976,新規,0,2024-01-29,2024-01-29,株式会社アンジェロ,,株式会社,東京都,豊島区,東池袋１丁目３４番５号いちご東池袋ビル６階,,13,116,1700013,,,,,,,2024-01-29,1,,,,,アンジェロ,0
2164,7020001155537,新規,0,2024-01-29,2024-01-29,株式会社ウオークウイズファミリー,,株式会社,神奈川県,川崎市高津区,諏訪１丁目１０番９号,,14,134,2130004,,,,,,,2024-01-29,1,,,,,ウオークウイズファミリー,0
2167,7021001081327,新規,0,2024-01-29,2024-01-29,株式会社ＴｈｅｒａｐｉＣｏ,,株式会社,神奈川県,相模原市緑区,橋本台１丁目２８－１５ディアフォレスト橋本台５０６,,14,151,2520132,,,,,,,2024-01-29,1,,,,,セラピコ,0
2169,7021005013012,新規,0,2024-01-29,2024-01-29,一般社団法人Ａｃｔｉｖｅ　Ｓｔｙｌｅ　Ｋｉｄｓ,,その他の設立登記法人,神奈川県,相模原市南区,北里２丁目１８番２号,,14,153,2520329,,,,,,,2024-01-29,1,,,,,アクティブスタイルキッズ,0
2189,7030001158415,新規,0,2024-01-29,2024-01-29,株式会社ＯＬＤ・ＴＩＭＥ,,株式会社,埼玉県,越谷市,相模町５丁目１２番地３,,11,222,3430823,,,,,,,2024-01-29,1,,,,,オールドタイム,0
2215,7030003023492,新規,0,2024-01-29,2024-01-29,合同会社ＢＣｃｏｍｐａｎｙ,,合同会社,埼玉県,草加市,中根３丁目２２－２９,,11,221,3400005,,,,,,,2024-01-29,1,,,,,ビーシーカンパニー,0
2216,7030003023518,新規,0,2024-01-29,2024-01-29,合同会社ＩＮＩＴＩＵＭ,,合同会社,埼玉県,川口市,大字木曽呂３７２番地グリーンコーポＡ２０３号,,11,203,3330831,,,,,,,2024-01-29,1,,,,,イニティウム,0
2217,7030003023534,新規,0,2024-01-29,2024-01-29,ＳＴリアルティ合同会社,,合同会社,埼玉県,越谷市,登戸町２８番２２－１号,,11,222,3430846,,,,,,,2024-01-29,1,,,,,エスティリアルティ,0
2224,7040003024151,新規,0,2024-01-29,2024-01-29,合同会社トータルコネクト,,合同会社,千葉県,野田市,花井２４８番地の１０,,12,208,2780026,,,,,,,2024-01-29,1,,,,,トータルコネクト,0
2248,7060001036774,新規,0,2024-01-29,2024-01-29,株式会社ＭＩＬＩ　ＨＡＩＲ,,株式会社,栃木県,宇都宮市,明保野町４－１０,,09,201,3200845,,,,,,,2024-01-29,1,,,,,ミリヘアー,0
2256,7080401026976,新規,0,2024-01-29,2024-01-29,株式会社ＩＬＮＩＤＥ,,株式会社,静岡県,浜松市浜名区,小松９０６番地の１,,22,139,4340042,,,,,,,2024-01-29,1,,,,,イルニード,0
2259,7100003007372,新規,0,2024-01-29,2024-01-29,合同会社三共管理,,合同会社,長野県,塩尻市,大字宗賀２８６１番地,,20,215,3996461,,,,,,,2024-01-29,1,,,,,サンキョウカンリ,0
2266,7120003025793,新規,0,2024-01-29,2024-01-29,ｓａｅｓａｔｏ合同会社,,合同会社,大阪府,枚方市,山田池東町２６番２９号,,27,210,5730165,,,,,,,2024-01-29,1,,,,,サエサト,0
2267,7120003025802,新規,0,2024-01-29,2024-01-29,合同会社クイックリサーチ,,合同会社,大阪府,大阪市中央区,南船場３丁目１１番１０号,,27,128,5420081,,,,,,,2024-01-29,1,,,,,クイックリサーチ,0
2273,7120903005028,新規,0,2024-01-29,2024-01-29,ビズマックスコレクションズ合同会社,,合同会社,大阪府,豊中市,南桜塚２丁目８番８－３０３号,,27,203,5610882,,,,,,,2024-01-29,1,,,,,ビズマックスコレクションズ,0
2274,7122001037779,新規,0,2024-01-29,2024-01-29,Ｋ‐ＭＡＸ株式会社,,株式会社,大阪府,大東市,御領３丁目１２－６９,,27,218,5740064,,,,,,,2024-01-29,1,,,,,ケーマックス,0
2281,7130001076235,新規,0,2024-01-29,2024-01-29,株式会社耕心,,株式会社,京都府,京都市中京区,堺町通夷川上る絹屋町１２８番地４,,26,104,6040804,,,,,,,2024-01-29,1,,,,,コウシン,0
2284,7130003009259,新規,0,2024-01-29,2024-01-29,合同会社ＰＥＡＣＥ　ＯＦ　ＭＩＮＤ,,合同会社,京都府,京都市伏見区,深草池ノ内町２番地３０,,26,109,6120031,,,,,,,2024-01-29,1,,,,,ピースオブマインド,0
2301,7140001133134,新規,0,2024-01-29,2024-01-29,株式会社弐番館,,株式会社,兵庫県,神戸市中央区,琴ノ緒町５丁目６番１号,,28,110,6510094,,,,,,,2024-01-29,1,,,,,ニバンカン,0
2302,7140001133142,新規,0,2024-01-29,2024-01-29,株式会社エベレスト,,株式会社,兵庫県,神戸市中央区,中山手通７丁目１４番１号,,28,110,6500004,,,,,,,2024-01-29,1,,,,,エベレスト,0
2317,7140003020099,新規,0,2024-01-29,2024-01-29,合同会社みやび,,合同会社,兵庫県,神戸市東灘区,住吉山手６丁目２番５号,,28,101,6580063,,,,,,,2024-01-29,1,,,,,ミヤビ,0
2320,7170001017986,新規,0,2024-01-29,2024-01-29,株式会社エムテック,,株式会社,和歌山県,東牟婁郡串本町,串本１５１９番地２、２Ｆ,,30,428,6493503,,,,,,,2024-01-29,1,,,,,エムテック,0
2321,7170005007067,新規,0,2024-01-29,2024-01-29,一般財団法人日本整理士協会,,その他の設立登記法人,和歌山県,和歌山市,築港５丁目９番地３,,30,201,6408287,,,,,,,2024-01-29,1,,,,,ニホンセイリシキョウカイ,0
2323,7180001159935,新規,0,2024-01-29,2024-01-29,ＡｎｓＶＩＳＴＡ株式会社,,株式会社,愛知県,名古屋市中区,大須４丁目１番１８号セイジョウビル５階,,23,106,4600011,,,,,,,2024-01-29,1,,,,,アンスヴィスタ,0
2324,7180001159976,新規,0,2024-01-29,2024-01-29,株式会社セルターゲット・メディカル,,株式会社,愛知県,名古屋市千種区,不老町１番地国立大学法人東海国立大学機構名古屋大学インキュベーション施設,,23,101,4640814,,,,,,,2024-01-29,1,,,,,セルターゲットメディカル,0
2326,7180003026274,新規,0,2024-01-29,2024-01-29,長野バイオマス発電合同会社,,合同会社,愛知県,名古屋市中村区,名駅１丁目１番１号,,23,105,4500002,,,,,,,2024-01-29,1,,,,,ナガノバイオマスハツデン,0
2327,7180003026282,新規,0,2024-01-29,2024-01-29,合同会社ＩＤＲＥＥＳ　ＴＲＡＤＩＮＧ　ＣＯＭＰＡＮＹ,,合同会社,愛知県,名古屋市南区,元柴田東町１丁目１８番地グランドール向陽３Ｃ,,23,112,4570816,,,,,,,2024-01-29,1,,,,,イドリーストレーディングカンパニー,0
2329,7200005013565,新規,0,2024-01-29,2024-01-29,特定非営利活動法人ジャズストリートクラブ,,その他の設立登記法人,岐阜県,美濃市,２２７４番地６,,21,207,5013701,,,,,,,2024-01-29,1,,,,,ジャズストリートクラブ,0
2330,7210005010132,新規,0,2024-01-29,2024-01-29,一般社団法人Ｆｉｅｌｄ　Ｖｉｓｉｏｎ,,その他の設立登記法人,福井県,丹生郡越前町,朝日第２０号１０７番地,,18,423,9160146,,,,,,,2024-01-29,1,,,,,フィールドヴィジョン,0
2338,7250001020494,新規,0,2024-01-29,2024-01-29,サポートラインＫＡＴＳＵＮＯ株式会社,,株式会社,山口県,下関市,汐入町４番３号,,35,201,7500059,,,,,,,2024-01-29,1,,,,,サポートラインカツノ,0
2339,7250003003423,新規,0,2024-01-29,2024-01-29,合同会社ＣＥＮＯＴＥ,,合同会社,山口県,下関市,あるかぽーと１番１号,,35,201,7500036,,,,,,,2024-01-29,1,,,,,セノーテ,0
2345,7290001104533,新規,0,2024-01-29,2024-01-29,株式会社蓮,,株式会社,福岡県,福岡市博多区,中洲３丁目５番６号三信ビル５階,,40,132,8100801,,,,,,,2024-01-29,1,,,,,レン,0
2348,7290003014912,新規,0,2024-01-29,2024-01-29,合同会社Ｍ‐ｆｒｅｅ,,合同会社,福岡県,福岡市東区,原田１丁目２６番２８－７０２号,,40,131,8120063,,,,,,,2024-01-29,1,,,,,エムフリー,0
2349,7290005019281,新規,0,2024-01-29,2024-01-29,医療法人悠慶会,,その他の設立登記法人,福岡県,飯塚市,川津７０７－１,,40,205,8200067,,,,,,,2024-01-29,1,,,,,ユウケイカイ,0
2354,7320001020256,新規,0,2024-01-29,2024-01-29,株式会社ファインメディカルサービス,,株式会社,大分県,大分市,中央町２丁目３番１９号大津ビル３階,,44,201,8700035,,,,,,,2024-01-29,1,,,,,ファインメディカルサービス,0
2355,7330001031698,新規,0,2024-01-29,2024-01-29,株式会社高橋総合研究所,,株式会社,熊本県,球磨郡多良木町,大字多良木１７２番地２,,43,505,8680501,,,,,,,2024-01-29,1,,,,,タカハシソウゴウケンキュウショ,0
2358,7340001026243,新規,0,2024-01-29,2024-01-29,株式会社松田自動車,,株式会社,鹿児島県,出水市,野田町下名３４番地１,,46,208,8990502,,,,,,,2024-01-29,1,,,,,マツダジドウシャ,0
2363,7350003004551,新規,0,2024-01-29,2024-01-29,合同会社テグス工房,,合同会社,宮崎県,延岡市,北川町川内名７５０９番地５２,,45,203,8890101,,,,,,,2024-01-29,1,,,,,テグスコウボウ,0
2370,7370001050876,新規,0,2024-01-29,2024-01-29,株式会社ＭＫシステム,,株式会社,宮城県,仙台市若林区,蒲町２０番５号,,04,103,9840037,,,,,,,2024-01-29,1,,,,,エムケーシステム,0
2374,7430001090949,新規,0,2024-01-29,2024-01-29,トーカンビルマネジメント株式会社,,株式会社,北海道,札幌市北区,篠路一条１０丁目１１番５号,,01,102,0028021,,,,,,,2024-01-29,1,,,,,トーカンビルマネジメント,0
2375,7430001090957,新規,0,2024-01-29,2024-01-29,株式会社ファブル,,株式会社,北海道,札幌市西区,八軒二条東５丁目６番１８号,,01,107,0630862,,,,,,,2024-01-29,1,,,,,ファブル,0
2376,7430001090965,新規,0,2024-01-29,2024-01-29,株式会社リアン,,株式会社,北海道,札幌市南区,澄川六条１１丁目２２番１９号,,01,106,0050006,,,,,,,2024-01-29,1,,,,,リアン,0
2377,7430003015895,新規,0,2024-01-29,2024-01-29,合同会社エコ商会,,合同会社,北海道,札幌市豊平区,平岸三条１０丁目１番３０号,,01,105,0620933,,,,,,,2024-01-29,1,,,,,エコショウカイ,0
2394,8010001241808,新規,0,2024-01-29,2024-01-29,Ｙ．ＣＯＭＰＡＮＹ株式会社,,株式会社,東京都,中央区,銀座６丁目３番１８号Ｌａ・Ｌａ・ＧｒａｎｄｅＧＩＮＺＡ４階,,13,102,1040061,,,,,,,2024-01-29,1,,,,,ワイカンパニー,0
2395,8010001241849,新規,0,2024-01-29,2024-01-29,旭コミュニケーション株式会社,,株式会社,東京都,千代田区,有楽町１丁目１番２号,,13,101,1000006,,,,,,,2024-01-29,1,,,,,アサヒコミュニケーション,0
2397,8010003042733,新規,0,2024-01-29,2024-01-29,ソーラーゼノン合同会社,,合同会社,東京都,中央区,八丁堀４丁目２番１０号ＡＯＪ税理士法人内,,13,102,1040032,,,,,,,2024-01-29,1,,,,,ソーラーゼノン,0
2398,8010003042741,新規,0,2024-01-29,2024-01-29,合同会社ＳＫＫ,,合同会社,東京都,中央区,新川１丁目１６番５号京八ビル２階,,13,102,1040033,,,,,,,2024-01-29,1,,,,,エスケーケー,0
2399,8010003042790,新規,0,2024-01-29,2024-01-29,ＣＲＯＳＳＴＯＡ合同会社,,合同会社,東京都,中央区,銀座１丁目１２番４号Ｎ＆ＥＢＬＤ．６Ｆ,,13,102,1040061,,,,,,,2024-01-29,1,,,,,クロストア,0
2400,8010003042799,新規,0,2024-01-29,2024-01-29,合同会社ＭＡＲＫ０２,,合同会社,東京都,千代田区,丸の内３丁目１番１号東京共同会計事務所内,,13,101,1000005,,,,,,,2024-01-29,1,,,,,マークゼロツー,0
2401,8010005037806,新規,0,2024-01-29,2024-01-29,一般社団法人オープンデジタライズ,,その他の設立登記法人,東京都,千代田区,霞が関３丁目２番５号,,13,101,1000013,,,,,,,2024-01-29,1,,,,,オープンデジタライズ,0
2422,8010703007036,新規,0,2024-01-29,2024-01-29,ｏｋｉｄｏｋｉ合同会社,,合同会社,東京都,品川区,西中延２丁目１１－１９,,13,109,1420054,,,,,,,2024-01-29,1,,,,,オーキードーキー,0
2438,8011001159602,新規,0,2024-01-29,2024-01-29,株式会社ＴａＪＵ,,株式会社,東京都,目黒区,三田１丁目１２番２７号１Ｆ,,13,110,1530062,,,,,,,2024-01-29,1,,,,,タジュー,0
2439,8011001159692,新規,0,2024-01-29,2024-01-29,株式会社リープロ,,株式会社,東京都,渋谷区,道玄坂１丁目２１番１号,,13,113,1500043,,,,,,,2024-01-29,1,,,,,リープロ,0
2441,8011101105877,新規,0,2024-01-29,2024-01-29,アドセンス株式会社,,株式会社,東京都,新宿区,西新宿３丁目３番１３号西新宿水間ビル２Ｆ,,13,104,1600023,,,,,,,2024-01-29,1,,,,,アドセンス,0
2442,8011101105992,新規,0,2024-01-29,2024-01-29,株式会社ＹＵＲＡＧＩ　ＤＥＳＩＧＮ,,株式会社,東京都,新宿区,岩戸町２０－１,,13,104,1620832,,,,,,,2024-01-29,1,,,,,ユラギデザイン,0
2448,8011501030246,新規,0,2024-01-29,2024-01-29,東京リバース開発株式会社,,株式会社,東京都,北区,田端１丁目２２番１号,,13,117,1140014,,,,,,,2024-01-29,1,,,,,トウキョウリバースカイハツ,0
2449,8011501030254,新規,0,2024-01-29,2024-01-29,ＬＩＳＡ株式会社,,株式会社,東京都,荒川区,東日暮里３丁目２８番５号ＣｒｙｓｔａｌＢｕｉｌｄｉｎｇ１階,,13,118,1160014,,,,,,,2024-01-29,1,,,,,リサ,0
2458,8012701018056,新規,0,2024-01-29,2024-01-29,株式会社エピディオン,,株式会社,東京都,西東京市,芝久保町１丁目１２番５０号６１３号室,,13,229,1880014,,,,,,,2024-01-29,1,,,,,エピディオン,0
2459,8012703002900,新規,0,2024-01-29,2024-01-29,合同会社白い箱,,合同会社,東京都,小平市,小川町１丁目８４５番地の１風舎１０４,,13,211,1870032,,,,,,,2024-01-29,1,,,,,シロイハコ,0
2460,8012801022940,新規,0,2024-01-29,2024-01-29,株式会社社会福祉士事務所ＵＮＩＢＥＳＴ,,株式会社,東京都,立川市,曙町２丁目３１番１５号日住金ビル３階,00133537,13,202,1900012,,,,,,,2024-01-29,1,,,,,シャカイフクシシジムショユニベスト,0
2477,8020001155486,新規,0,2024-01-29,2024-01-29,株式会社Ｉｒｉｓ,,株式会社,神奈川県,川崎市川崎区,東田町２番地２ＲＴビル３階,,14,131,2100005,,,,,,,2024-01-29,1,,,,,イリス,0
2478,8020001155511,新規,0,2024-01-29,2024-01-29,ＳＥＩＧＯ株式会社,,株式会社,神奈川県,横浜市鶴見区,生麦３丁目７番３２号,,14,101,2300052,,,,,,,2024-01-29,1,,,,,セイゴー,0
2479,8020001155560,新規,0,2024-01-29,2024-01-29,株式会社ネコノテ,,株式会社,神奈川県,川崎市高津区,末長１丁目２３番２５号,,14,134,2130013,,,,,,,2024-01-29,1,,,,,ネコノテ,0
2480,8020001155569,新規,0,2024-01-29,2024-01-29,株式会社ＤＡＨ,,株式会社,神奈川県,横浜市神奈川区,松見町２丁目４０４番地の１５,,14,102,2210005,,,,,,,2024-01-29,1,,,,,ディーエーエイチ,0
2482,8020003025448,新規,0,2024-01-29,2024-01-29,合同会社エリザベスカンパニー,,合同会社,神奈川県,川崎市川崎区,藤崎２丁目５番８－１号,,14,131,2100804,,,,,,,2024-01-29,1,,,,,エリザベスカンパニー,0
2485,8021001081276,新規,0,2024-01-29,2024-01-29,Ｇ・Ｌ・Ｋ株式会社,,株式会社,神奈川県,大和市,中央林間２丁目２－１５,,14,213,2420007,,,,,,,2024-01-29,1,,,,,ジーエルケー,0
2486,8021001081326,新規,0,2024-01-29,2024-01-29,株式会社プレミアムリアルエステート,,株式会社,神奈川県,藤沢市,片瀬海岸３丁目２３番１８～３０１号,,14,205,2510035,,,,,,,2024-01-29,1,,,,,プレミアムリアルエステート,0
2506,8030001158380,新規,0,2024-01-29,2024-01-29,株式会社ＦＩＲＳＴ　ＳＴＡＲ,,株式会社,埼玉県,東松山市,和泉町６番４号,,11,212,3550026,,,,,,,2024-01-29,1,,,,,ファーストスター,0
2507,8030001158406,新規,0,2024-01-29,2024-01-29,株式会社友進電気,,株式会社,埼玉県,草加市,北谷２丁目２０番２５号,,11,221,3400046,,,,,,,2024-01-29,1,,,,,ユウシンデンキ,0
2536,8030003023509,新規,0,2024-01-29,2024-01-29,合同会社コジマ,,合同会社,埼玉県,本庄市,銀座３丁目４－１５エムズビル１階,,11,211,3670052,,,,,,,2024-01-29,1,,,,,コジマ,0
2547,8040001131931,新規,0,2024-01-29,2024-01-29,株式会社Ｓｐｉｓｅａ　Ｉｓｌａｎｄｓ,,株式会社,千葉県,四街道市,美しが丘３丁目１３番１８号,,12,228,2840045,,,,,,,2024-01-29,1,,,,,スパイシーアイランズ,0
2576,8070001041327,新規,0,2024-01-29,2024-01-29,ＡＬ‐ＭＡＫＫＡＨ　ＴＲＡＤＩＮＧ株式会社,,株式会社,群馬県,太田市,新道町１４４４番地６,,10,205,3730037,,,,,,,2024-01-29,1,,,,,アルマッカトレーディング,0
2581,8100001037172,新規,0,2024-01-29,2024-01-29,株式会社さくら,,株式会社,長野県,長野市,篠ノ井塩崎６７１８番地,,20,201,3888014,,,,,,,2024-01-29,1,,,,,サクラ,0
2582,8100003007330,新規,0,2024-01-29,2024-01-29,合同会社Ｍ＆Ｈ,,合同会社,長野県,茅野市,仲町１１－２人生劇場１Ｆ,,20,214,3910005,,,,,,,2024-01-29,1,,,,,エムアンドエイチ,0
2583,8110001038137,新規,0,2024-01-29,2024-01-29,株式会社ＮＦコーポレーション,,株式会社,新潟県,新潟市中央区,沼垂東１丁目２番１２号,,15,103,9500075,,,,,,,2024-01-29,1,,,,,エヌエフコーポレーション,0
2593,8120101068966,新規,0,2024-01-29,2024-01-29,株式会社ハピネスライフ,,株式会社,大阪府,岸和田市,上松町３０４２番地の４,,27,202,5960827,,,,,,,2024-01-29,1,,,,,ハピネスライフ,0
2598,8130001076250,新規,0,2024-01-29,2024-01-29,松石山房株式会社,,株式会社,京都府,京都市右京区,西院東今田町３７－４ラトゥール西院５０２号,,26,108,6160000,,,,,,,2024-01-29,1,,,,,マツイシサンボウ,0
2599,8130003009266,新規,0,2024-01-29,2024-01-29,合同会社ＩＮＣＲＥＷ,,合同会社,京都府,京都市中京区,御池通東洞院東入笹屋町４３６永和御池ビル６０６号,,26,104,6048187,,,,,,,2024-01-29,1,,,,,インクルー,0
2628,8140001133091,新規,0,2024-01-29,2024-01-29,株式会社ＡＫｉ設備,,株式会社,兵庫県,神戸市須磨区,多井畑南町３３番地の６,,28,107,6540132,,,,,,,2024-01-29,1,,,,,アキセツビ,0
2648,8140005026928,新規,0,2024-01-29,2024-01-29,一般社団法人マチノイト,,その他の設立登記法人,兵庫県,豊岡市,中央町１番４号,,28,209,6680033,,,,,,,2024-01-29,1,,,,,マチノイト,0
2653,8180001159959,新規,0,2024-01-29,2024-01-29,株式会社ホシダ,,株式会社,愛知県,愛西市,須依町寅新田２０８番地スペリア佐屋８１６号,,23,232,4960902,,,,,,,2024-01-29,1,,,,,ホシダ,0
2659,8200005013564,新規,0,2024-01-29,2024-01-29,特定非営利活動法人アスレティクス多治見,,その他の設立登記法人,岐阜県,多治見市,田代町３丁目１番地の１モアグレース多治見３０３,,21,204,5070036,,,,,,,2024-01-29,1,,,,,アスレティクスタジミ,0
2660,8220001025801,新規,0,2024-01-29,2024-01-29,株式会社Ｈ・Ｍ．ＡＲＴ,,株式会社,石川県,白山市,森島町い７４番地２６,,17,210,9202131,,,,,,,2024-01-29,1,,,,,エイチエムアート,0
2668,8250001020493,新規,0,2024-01-29,2024-01-29,株式会社ＴｉＡｍｏ,,株式会社,山口県,下関市,大和町２丁目１１番１－２０２号,,35,201,7500067,,,,,,,2024-01-29,1,,,,,ティアモ,0
2676,8290001104508,新規,0,2024-01-29,2024-01-29,Ｗｉｌｌ　Ｆｏｒｗａｒｄ　Ｃｏｎｓｕｌｔｉｎｇ株式会社,,株式会社,福岡県,福岡市博多区,祇園町６番２６号ニューガイアオフィス博多４０６号,,40,132,8120038,,,,,,,2024-01-29,1,,,,,ウィルフォワードコンサルティング,0
2677,8290001104524,新規,0,2024-01-29,2024-01-29,株式会社ヘルスタイル,,株式会社,福岡県,福岡市中央区,渡辺通２丁目３番２７号,,40,133,8100004,,,,,,,2024-01-29,1,,,,,ヘルスタイル,0
2678,8290001104540,新規,0,2024-01-29,2024-01-29,株式会社ＳＴＲＹ,,株式会社,福岡県,福岡市中央区,赤坂１丁目８番２３号,,40,133,8100042,,,,,,,2024-01-29,1,,,,,ストレイ,0
2679,8290003014911,新規,0,2024-01-29,2024-01-29,合同会社廣蘭,,合同会社,福岡県,春日市,春日原北町３丁目２３番地フタバ春日ビル５０１号室,,40,218,8160802,,,,,,,2024-01-29,1,,,,,コウラン,0
2680,8290005019280,新規,0,2024-01-29,2024-01-29,一般社団法人今村嘉太郎君と能楽を楽しむ会,,その他の設立登記法人,福岡県,福岡市中央区,警固２丁目１２番５号,,40,133,8100023,,,,,,,2024-01-29,1,,,,,イマムラヨシタロウクントノウガクヲタノシムカイ,0
2696,8360003013658,新規,0,2024-01-29,2024-01-29,松愛建設合同会社,,合同会社,沖縄県,中頭郡西原町,字幸地９２番地の３,,47,329,9030116,,,,,,,2024-01-29,1,,,,,マツアイケンセツ,0
2697,8370001050883,新規,0,2024-01-29,2024-01-29,株式会社広吉,,株式会社,宮城県,仙台市青葉区,下愛子字町３番地の２－Ｂ号,,04,101,9893125,,,,,,,2024-01-29,1,,,,,ヒロキチ,0
2703,8430001090956,新規,0,2024-01-29,2024-01-29,株式会社モトシ,,株式会社,北海道,札幌市中央区,北五条西２８丁目３－３ＩＮＦＩＮＩＴＹ７００号室,,01,101,0640825,,,,,,,2024-01-29,1,,,,,モトシ,0
2704,8430001090964,新規,0,2024-01-29,2024-01-29,株式会社Ｒ＆Ｋ,,株式会社,北海道,札幌市中央区,北十一条西２０丁目１番５－１０３号,,01,101,0600011,,,,,,,2024-01-29,1,,,,,アールアンドケイ,0
2707,8430003015894,新規,0,2024-01-29,2024-01-29,合同会社シアシュアンジュ,,合同会社,北海道,札幌市中央区,南一条西１３丁目４番４０第４１ビッグプラザビルＩ３Ｆ,00133538,01,101,0600061,,,,,,,2024-01-29,1,,,,,シアシュアンジュ,0
2721,9010001241724,新規,0,2024-01-29,2024-01-29,株式会社フージャースマンション管理士事務所,,株式会社,東京都,中央区,日本橋室町４丁目３番１６号,,13,102,1030022,,,,,,,2024-01-29,1,,,,,フージャースマンションカンリシジムショ,0
2722,9010001241749,新規,0,2024-01-29,2024-01-29,バックライト株式会社,,株式会社,東京都,千代田区,九段南１丁目５番６号りそな九段ビル５Ｆ,,13,101,1020074,,,,,,,2024-01-29,1,,,,,バックライト,0
2723,9010001241848,新規,0,2024-01-29,2024-01-29,Ｋ　Ｂｕｓｉｎｅｓｓ　Ｐａｒｔｎｅｒｓ株式会社,,株式会社,東京都,千代田区,三番町５－１９－３０５,,13,101,1020075,,,,,,,2024-01-29,1,,,,,ケイビジネスパートナーズ,0
2724,9010001241864,新規,0,2024-01-29,2024-01-29,ＴＧエネルギー株式会社,,株式会社,東京都,中央区,勝どき５丁目１２番４－１２０３号,,13,102,1040054,,,,,,,2024-01-29,1,,,,,ティージーエネルギー,0
2725,9010001241872,新規,0,2024-01-29,2024-01-29,株式会社ＷｏｎｄｅｒＰａｌｅｔｔｅ,,株式会社,東京都,中央区,日本橋茅場町１丁目８－１茅場町一丁目平和ビル７階,,13,102,1030025,,,,,,,2024-01-29,1,,,,,ワンダーパレット,0
2727,9010003042732,新規,0,2024-01-29,2024-01-29,ソーラータレス合同会社,,合同会社,東京都,中央区,八丁堀４丁目２番１０号ＡＯＪ税理士法人内,,13,102,1040032,,,,,,,2024-01-29,1,,,,,ソーラータレス,0
2734,9010401179960,新規,0,2024-01-29,2024-01-29,株式会社ＰＲＭＨ,,株式会社,東京都,港区,芝４丁目５番１５号クレール芝４０１号室,,13,103,1080014,,,,,,,2024-01-29,1,,,,,ピーアールエムエイチ,0
2735,9010401179985,新規,0,2024-01-29,2024-01-29,株式会社ｚｉｚｉＲ,,株式会社,東京都,港区,北青山３丁目１５番１３－４０８号,,13,103,1070061,,,,,,,2024-01-29,1,,,,,ジジール,0
2738,9010403031780,新規,0,2024-01-29,2024-01-29,Ｄ２フューチャー合同会社,,合同会社,東京都,港区,南麻布１丁目１１番５―５０１号,,13,103,1060047,,,,,,,2024-01-29,1,,,,,ディツーフューチャー,0
2739,9010403031797,新規,0,2024-01-29,2024-01-29,合同会社Ｈａｗｋｓ,,合同会社,東京都,港区,虎ノ門２丁目９番１号虎ノ門ヒルズ江戸見坂テラス１０階,,13,103,1050001,,,,,,,2024-01-29,1,,,,,ホークス,0
2743,9010501051689,新規,0,2024-01-29,2024-01-29,株式会社ＡＩＣ,,株式会社,東京都,台東区,駒形２丁目３番４－６０５号,,13,106,1110043,,,,,,,2024-01-29,1,,,,,エイアイシー,0
2744,9010503007284,新規,0,2024-01-29,2024-01-29,合同会社１２３,,合同会社,東京都,台東区,上野２丁目８番７号,,13,106,1100005,,,,,,,2024-01-29,1,,,,,ワンツースリー,0
2748,9010703007035,新規,0,2024-01-29,2024-01-29,タカハシ建設合同会社,,合同会社,東京都,品川区,上大崎１丁目１１－１７,,13,109,1410021,,,,,,,2024-01-29,1,,,,,タカハシケンセツ,0
2753,9010901054606,新規,0,2024-01-29,2024-01-29,株式会社ＭＲ　ＳＴＵＤＩＯ,,株式会社,東京都,世田谷区,駒沢１丁目５番９号,,13,112,1540012,,,,,,,2024-01-29,1,,,,,エムアールスタジオ,0
2760,9011001159634,新規,0,2024-01-29,2024-01-29,株式会社ＧＲＩＯＳ,,株式会社,東京都,渋谷区,恵比寿１丁目２１番１０号,,13,113,1500013,,,,,,,2024-01-29,1,,,,,グリオス,0
2766,9011101105942,新規,0,2024-01-29,2024-01-29,株式会社Ｓｕｎｎｙｗａｙ,,株式会社,東京都,新宿区,水道町２番１１号,,13,104,1620811,,,,,,,2024-01-29,1,,,,,サニーウェイ,0
2769,9011103014035,新規,0,2024-01-29,2024-01-29,Ｒｅｖｉｔｔｅｒｙ合同会社,,合同会社,東京都,新宿区,西新宿３丁目５－１２,,13,104,1600023,,,,,,,2024-01-29,1,,,,,リビトリー,0
2770,9011201025207,新規,0,2024-01-29,2024-01-29,株式会社メリーゲイト,,株式会社,東京都,中野区,野方６丁目４６番４号,,13,114,1650027,,,,,,,2024-01-29,1,,,,,メリーゲイト,0
2777,9011603004221,新規,0,2024-01-29,2024-01-29,合同会社ｔｔｙｓ,,合同会社,東京都,練馬区,谷原６丁目１５番３号,,13,120,1770032,,,,,,,2024-01-29,1,,,,,ティーティーワイエス,0
2781,9011803006059,新規,0,2024-01-29,2024-01-29,池田セールス合同会社,,合同会社,東京都,足立区,千住大川町３７番２０－１０３号ヴォレソレイユ北千住,,13,121,1200031,,,,,,,2024-01-29,1,,,,,イケダセールス,0
2782,9011805003335,新規,0,2024-01-29,2024-01-29,一般社団法人医薬政策企画Ｐ‐Ｃｕｂｅｄ,,その他の設立登記法人,東京都,足立区,梅田８丁目３番１１号,,13,121,1230851,,,,,,,2024-01-29,1,,,,,イヤクセイサクキカクピーキューブド,0
2784,9012401041472,新規,0,2024-01-29,2024-01-29,株式会社アザラシ,,株式会社,東京都,武蔵野市,吉祥寺東町２丁目２２番１号,,13,203,1800002,,,,,,,2024-01-29,1,,,,,アザラシ,0
2785,9013301051982,新規,0,2024-01-29,2024-01-29,晨龍株式会社,,株式会社,東京都,豊島区,高田３丁目５－５－３０２号室,,13,116,1710033,,,,,,,2024-01-29,1,,,,,シンリュウ,0
2790,9020001155551,新規,0,2024-01-29,2024-01-29,株式会社ＨａｒｂｏＲ,,株式会社,神奈川県,川崎市中原区,小杉御殿町１丁目８８４－４２０,,14,133,2110068,,,,,,,2024-01-29,1,,,,,ハーバー,0
2796,9020003025447,新規,0,2024-01-29,2024-01-29,合同会社ホーリン,,合同会社,神奈川県,横浜市中区,花咲町１丁目３１番地グランド・ガーラ桜木町駅前１１０８号,,14,104,2310063,,,,,,,2024-01-29,1,,,,,ホーリン,0
2801,9021003014084,新規,0,2024-01-29,2024-01-29,合同会社ＲＯＹＡＬ　ＧＡＲＤＥＮ,,合同会社,神奈川県,藤沢市,南藤沢２２番１４号熱田ビル４Ｆ,,14,205,2510055,,,,,,,2024-01-29,1,,,,,ロイヤルガーデン,0
2829,9030001158388,新規,0,2024-01-29,2024-01-29,株式会社リミテッド,,株式会社,埼玉県,さいたま市見沼区,深作３丁目７－２０,,11,104,3370003,,,,,,,2024-01-29,1,,,,,リミテッド,0
2871,9040001131922,新規,0,2024-01-29,2024-01-29,株式会社そら,,株式会社,千葉県,八千代市,大和田新田１１０番地４５,,12,221,2760046,,,,,,,2024-01-29,1,,,,,ソラ,0
2872,9040001131939,新規,0,2024-01-29,2024-01-29,フィル日本株式会社,,株式会社,千葉県,千葉市花見川区,作新台１丁目２６番４２号,,12,102,2620045,,,,,,,2024-01-29,1,,,,,フィルニホン,0
2873,9040001131947,新規,0,2024-01-29,2024-01-29,株式会社ウォーターアシストサービス,,株式会社,千葉県,茂原市,早野３０６６番地２,,12,210,2970037,,,,,,,2024-01-29,1,,,,,ウォーターアシストサービス,0
2882,9040003024174,新規,0,2024-01-29,2024-01-29,合同会社ａｂｏｙ,,合同会社,千葉県,市川市,南八幡２丁目８番１２号,,12,203,2720023,,,,,,,2024-01-29,1,,,,,アボーイ,0
2883,9040003024208,新規,0,2024-01-29,2024-01-29,合同会社ことのはささら,,合同会社,千葉県,旭市,ニ１９７７番地４,,12,215,2892504,,,,,,,2024-01-29,1,,,,,コトノハササラ,0
2910,9050003008102,新規,0,2024-01-29,2024-01-29,ＨＡＳＩＬＡ　ＴＲＡＤＩＮＧ合同会社,,合同会社,茨城県,取手市,配松４７８番地１広健ヴィレッジ２０６号室,,08,217,3001541,,,,,,,2024-01-29,1,,,,,ハシラトレーディング,0
2914,9070001041326,新規,0,2024-01-29,2024-01-29,株式会社ヘリシティ,,株式会社,群馬県,前橋市,西善町２５０番地９,,10,201,3792131,,,,,,,2024-01-29,1,,,,,,0
2917,9080001026103,新規,0,2024-01-29,2024-01-29,株式会社ＳＭｅ,,株式会社,静岡県,静岡市葵区,沓谷１丁目３１番３号,,22,101,4200816,,,,,,,2024-01-29,1,,,,,エスエムイー,0
2920,9080101024502,新規,0,2024-01-29,2024-01-29,嘉華商会株式会社,,株式会社,静岡県,熱海市,東海岸町９番２３号,,22,205,4130012,,,,,,,2024-01-29,1,,,,,ヨシハナショウカイ,0
2921,9080401026974,新規,0,2024-01-29,2024-01-29,株式会社ＹＹ,,株式会社,静岡県,浜松市中央区,山手町３８番２８号,,22,138,4328022,,,,,,,2024-01-29,1,,,,,ワイワイ,0
2923,9100001037163,新規,0,2024-01-29,2024-01-29,こそためデザイン株式会社,,株式会社,長野県,松本市,宮田３７番８号,,20,202,3990001,,,,,,,2024-01-29,1,,,,,コソタメデザイン,0
2927,9110003005274,新規,0,2024-01-29,2024-01-29,合同会社ＲＡＴＯＵ,,合同会社,新潟県,新潟市秋葉区,新津本町４丁目２番１２号,,15,105,9560864,,,,,,,2024-01-29,1,,,,,ラトウ,0
2937,9120001261736,新規,0,2024-01-29,2024-01-29,株式会社雪,,株式会社,大阪府,大阪市北区,堂山町１番１４号,,27,127,5300027,,,,,,,2024-01-29,1,,,,,ユキ,0
2938,9120001261769,新規,0,2024-01-29,2024-01-29,株式会社大森工務店,,株式会社,大阪府,大阪市淀川区,田川北１丁目９番１７号,,27,123,5320021,,,,,,,2024-01-29,1,,,,,オオモリコウムテン,0
2939,9120003025775,新規,0,2024-01-29,2024-01-29,合同会社Ｃｏｍｅｎｚ梅田,,合同会社,大阪府,大阪市北区,兎我野町４番２１－１２０１号,,27,127,5300056,,,,,,,2024-01-29,1,,,,,コメンズウメダ,0
2940,9120005024131,新規,0,2024-01-29,2024-01-29,一般社団法人出版サポーター協会,,その他の設立登記法人,大阪府,大阪市北区,梅田１丁目１番３号大阪駅前第３ビル２９階１－１－１号室,,27,127,5300001,,,,,,,2024-01-29,1,,,,,シュッパンサポーターキョウカイ,0
2941,9120101068965,新規,0,2024-01-29,2024-01-29,株式会社ビレジ,,株式会社,大阪府,堺市中区,新家町５番地２７,,27,142,5998232,,,,,,,2024-01-29,1,,,,,ビレジ,0
2945,9120903005026,新規,0,2024-01-29,2024-01-29,合同会社優心,,合同会社,大阪府,高槻市,真上町２丁目１７番１１号,,27,207,5691121,,,,,,,2024-01-29,1,,,,,ユウシン,0
2947,9122001037777,新規,0,2024-01-29,2024-01-29,株式会社Ｇｅｎｃｅｅｄ,,株式会社,大阪府,東大阪市,小阪２丁目１０番４号,,27,227,5770801,,,,,,,2024-01-29,1,,,,,ゲンシード,0
2981,9140001133090,新規,0,2024-01-29,2024-01-29,株式会社サニーメディック,,株式会社,兵庫県,神戸市灘区,宮山町３丁目１番８－２０９号,,28,102,6570065,,,,,,,2024-01-29,1,,,,,サニーメディック,0
2982,9140001133140,新規,0,2024-01-29,2024-01-29,株式会社リブライト,,株式会社,兵庫県,神戸市東灘区,森北町４丁目２番３１号,,28,101,6580001,,,,,,,2024-01-29,1,,,,,リブライト,0
2983,9140001133149,新規,0,2024-01-29,2024-01-29,株式会社松本,,株式会社,兵庫県,神戸市中央区,中山手通２丁目４番１－２０７号,,28,110,6500004,,,,,,,2024-01-29,1,,,,,マツモト,0
2997,9140003020097,新規,0,2024-01-29,2024-01-29,合同会社ＨＳウイングス,,合同会社,兵庫県,伊丹市,西台３丁目２番２５号藤和伊丹ホームズ４０５,,28,207,6640858,,,,,,,2024-01-29,1,,,,,エイチエスウイングス,0
3007,9180001159958,新規,0,2024-01-29,2024-01-29,株式会社プラス・シー・スタッフィング,,株式会社,愛知県,名古屋市中村区,名駅３丁目２８番１２号,,23,105,4500002,,,,,,,2024-01-29,1,,,,,プラスシースタッフィング,0
3020,9220001025800,新規,0,2024-01-29,2024-01-29,株式会社２０２４,,株式会社,石川県,小松市,大領町イ２１１番地４,,17,203,9230854,,,,,,,2024-01-29,1,,,,,ニーゼロニーヨン,0
3024,9240001062726,新規,0,2024-01-29,2024-01-29,ＮＳコーポレーション株式会社,,株式会社,広島県,広島市西区,古江上２丁目４９７－２－７０３号,,34,104,7330875,,,,,,,2024-01-29,1,,,,,エヌエスコーポレーション,0
3028,9260001038708,新規,0,2024-01-29,2024-01-29,誠華電業株式会社,,株式会社,岡山県,岡山市中区,四御神１６１番地１０,,33,102,7038201,,,,,,,2024-01-29,1,,,,,セイカデンギョウ,0
3029,9260001038716,新規,0,2024-01-29,2024-01-29,サンキ株式会社,,株式会社,岡山県,岡山市南区,並木町１丁目１１番１３号,,33,104,7028058,,,,,,,2024-01-29,1,,,,,サンキ,0
3046,9290001104473,新規,0,2024-01-29,2024-01-29,株式会社ＢＯＮＤ　ｂｅａｕｔｅ,,株式会社,福岡県,春日市,小倉東１丁目４９番地２,,40,218,8160826,,,,,,,2024-01-29,1,,,,,ボンドビューテ,0
3047,9290001104523,新規,0,2024-01-29,2024-01-29,株式会社ブレックス,,株式会社,福岡県,福岡市中央区,大名１丁目３－５－１,,40,133,8100041,,,,,,,2024-01-29,1,,,,,ブレックス,0
3050,9300003002070,新規,0,2024-01-29,2024-01-29,合同会社Ｌ＆Ｃ,,合同会社,佐賀県,佐賀市,鍋島町大字八戸溝１２５６番地２６,,41,201,8490932,,,,,,,2024-01-29,1,,,,,エルアンドシー,0
3063,9360001033129,新規,0,2024-01-29,2024-01-29,ＬＡＢＯＮＶＯ株式会社,,株式会社,沖縄県,那覇市,牧志２丁目１７番２７－４０１号,,47,201,9000013,,,,,,,2024-01-29,1,,,,,ラボンボ,0
3073,9430001090939,新規,0,2024-01-29,2024-01-29,株式会社エヌエスプランニング,,株式会社,北海道,札幌市白石区,本通１７丁目北１４番２８号,,01,104,0030027,,,,,,,2024-01-29,1,,,,,エヌエスプランニング,0
3074,9430001090955,新規,0,2024-01-29,2024-01-29,株式会社ＶＩＴＩＳ,,株式会社,北海道,札幌市北区,北十七条西２丁目１番８号,,01,102,0010017,,,,,,,2024-01-29,1,,,,,ヴィティス,0
3075,9430001090963,新規,0,2024-01-29,2024-01-29,株式会社青畳カーポート,,株式会社,北海道,小樽市,新光町２２７番地８,,01,203,0470153,,,,,,,2024-01-29,1,,,,,アオタタミカーポート,0
3077,9430003015893,新規,0,2024-01-29,2024-01-29,合同会社Ｏｎｅ　Ｋｎｏｃｋ,,合同会社,北海道,札幌市豊平区,西岡四条１丁目３番５－３０５号,,01,105,0620034,,,,,,,2024-01-29,1,,,,,ワンノック,0
3078,9430003015902,新規,0,2024-01-29,2024-01-29,合同会社ＺＥＲＯ,,合同会社,北海道,札幌市中央区,南七条西２３丁目２番２０号,,01,101,0640807,,,,,,,2024-01-29,1,,,,,ゼロ,0
3081,9490001010684,新規,0,2024-01-29,2024-01-29,株式会社ＫＯＡ,,株式会社,高知県,南国市,久礼田１１３番地４,,39,204,7830062,,,,,,,2024-01-29,1,,,,,コア,0
