sequenceNumber,corporateNumber,process,correct,updateDate,changeDate,name,nameImageId,kind,prefectureName,cityName,streetNumber,addressImageId,prefectureCode,cityCode,postCode,addressOutside,addressOutsideImageId,closeDate,closeCause,successorCorporateNumber,changeCause,assignmentDate,latest,enName,enPrefectureName,enCityName,enAddressOutside,furigana,hihyoji
12,1010001231947,新規,0,2023-01-06,2023-01-06,株式会社Ｉｎｎｏｃｅｎｔ　Ｅａｓｔ,,株式会社,東京都,中央区,日本橋小舟町９番２号ソレイユビル４Ｆ,,13,102,1030024,,,,,,,2023-01-06,1,,,,,イノセントイースト,0
13,1010001231971,新規,0,2023-01-06,2023-01-06,Ｓｔｅｃ　ｃｏａｔｉｎｇ　ｗｏｒｋｓ株式会社,,株式会社,東京都,文京区,大塚６丁目５番７号,00128948,13,105,1120012,,,,,,,2023-01-06,1,,,,,ステックコーティングワークス,0
14,1010001231988,新規,0,2023-01-06,2023-01-06,株式会社Ｓａｎｓａｎ,,株式会社,東京都,文京区,白山１丁目１番１－５０３号,,13,105,1130001,,,,,,,2023-01-06,1,,,,,サンサン,0
15,1010001231996,新規,0,2023-01-06,2023-01-06,日本ＫＩＫＡＮ　ＣＡＰＩＴＡＬ株式会社,,株式会社,東京都,中央区,日本橋兜町８番１号４０３号室,,13,102,1030026,,,,,,,2023-01-06,1,,,,,ニホンキカンキャピタル,0
16,1010001232037,新規,0,2023-01-06,2023-01-06,株式会社シンクアンドクリエイトフレッシュ,,株式会社,東京都,千代田区,丸の内３丁目２番２号丸の内二重橋ビル２階,,13,101,1000005,,,,,,,2023-01-06,1,,,,,シンクアンドクリエイトフレッシュ,0
31,1010401171660,新規,0,2023-01-06,2023-01-06,株式会社ＳＨＩＳＥＩ,,株式会社,東京都,港区,南青山５丁目１６番３号メゾン青南３０２号室,,13,103,1070062,,,,,,,2023-01-06,1,,,,,シセイ,0
32,1010401171669,新規,0,2023-01-06,2023-01-06,株式会社ＵＬＵＯＩ,,株式会社,東京都,港区,南青山２丁目２番１５号,,13,103,1070062,,,,,,,2023-01-06,1,,,,,ウルオイ,0
33,1010401171677,新規,0,2023-01-06,2023-01-06,株式会社ｗｅｉｋ,,株式会社,東京都,港区,赤坂２丁目６番４－１００２号,,13,103,1070052,,,,,,,2023-01-06,1,,,,,ウェイク,0
34,1010401171685,新規,0,2023-01-06,2023-01-06,株式会社ありまる,,株式会社,東京都,港区,赤坂２丁目１７番６４－１００２号,,13,103,1070052,,,,,,,2023-01-06,1,,,,,アリマル,0
38,1010403029221,新規,0,2023-01-06,2023-01-06,ジャパン合同会社,,合同会社,東京都,港区,虎ノ門３丁目１８番６－６１４号,,13,103,1050001,,,,,,,2023-01-06,1,,,,,ジャパン,0
40,1010405021688,新規,0,2023-01-06,2023-01-06,特定非営利活動法人ハチドリーズ,,その他の設立登記法人,東京都,港区,高輪４丁目２１番８－１０４号,,13,103,1080074,,,,,,,2023-01-06,1,,,,,ハチドリーズ,0
41,1010501049823,新規,0,2023-01-06,2023-01-06,株式会社ＡＶＩＴＡ,,株式会社,東京都,台東区,下谷１丁目６番９号ＯＮＥＳＴＡＧＥ上野７Ｃ,,13,106,1100004,,,,,,,2023-01-06,1,,,,,アビータ,0
46,1010605004162,新規,0,2023-01-06,2023-01-06,一般社団法人全国商店振興会,,その他の設立登記法人,東京都,墨田区,業平４丁目１６番６号,,13,107,1300002,,,,,,,2023-01-06,1,,,,,ゼンコクショウテンシンコウカイ,0
57,1010801033568,新規,0,2023-01-06,2023-01-06,沖津樹脂株式会社,,株式会社,東京都,大田区,鵜の木２丁目３５番８号,,13,111,1460091,,,,,,,2023-01-06,1,,,,,オキツジュシ,0
62,1010901052261,新規,0,2023-01-06,2023-01-06,株式会社ｍａｒｕｓｈｉ,,株式会社,東京都,世田谷区,梅丘３丁目１３番７号メゾン・プラム２０２,,13,112,1540022,,,,,,,2023-01-06,1,,,,,,0
69,1011001151747,新規,0,2023-01-06,2023-01-06,総合あんしん共済株式会社,,株式会社,東京都,渋谷区,神宮前５丁目４６番４号イイダアネックス表参道Ｂ１,,13,113,1500001,,,,,,,2023-01-06,1,,,,,ソウゴウアンシンキョウサイ,0
70,1011001151771,新規,0,2023-01-06,2023-01-06,株式会社ＭＯＤＡ,,株式会社,東京都,渋谷区,道玄坂１丁目１０番８号渋谷道玄坂東急ビル２Ｆ－Ｃ,,13,113,1500043,,,,,,,2023-01-06,1,,,,,モダ,0
74,1011003016007,新規,0,2023-01-06,2023-01-06,合同会社ＰｒｏｔｏＮａｔｉｏｎ,,合同会社,東京都,渋谷区,道玄坂１丁目１０番８号渋谷道玄坂東急ビル２Ｆ―Ｃ,,13,113,1500043,,,,,,,2023-01-06,1,,,,,プロトネイション,0
85,1011401024809,新規,0,2023-01-06,2023-01-06,華盛良品株式会社,,株式会社,東京都,板橋区,南常盤台１丁目１０－２,,13,119,1740072,,,,,,,2023-01-06,1,,,,,カセイリョウヒン,0
86,1011501028800,新規,0,2023-01-06,2023-01-06,Ｒｅｂｅｌ　Ｕｐ株式会社,,株式会社,東京都,北区,田端１丁目１９番２号キザワマンション２０１号,,13,117,1140014,,,,,,,2023-01-06,1,,,,,レベルアップ,0
93,1011603003791,新規,0,2023-01-06,2023-01-06,合同会社ブリリアント,,合同会社,東京都,練馬区,石神井台３丁目１番６－８０５号,,13,120,1770045,,,,,,,2023-01-06,1,,,,,ブリリアント,0
99,1012801022055,新規,0,2023-01-06,2023-01-06,株式会社プレシャスホーム,,株式会社,東京都,立川市,富士見町１丁目４番３２号１０１号室,,13,202,1900013,,,,,,,2023-01-06,1,,,,,プレシャスホーム,0
101,1012803002971,新規,0,2023-01-06,2023-01-06,ＫＡＳＨＩＷＡＹＡ合同会社,,合同会社,東京都,立川市,若葉町４丁目７番地の１７,,13,202,1900001,,,,,,,2023-01-06,1,,,,,カシワヤ,0
106,1020001149643,新規,0,2023-01-06,2023-01-06,Ｍａｓｓａ　Ｐｒｏｄｕｃｔｉｏｎ　Ｃｏｎｓｕｌｔｉｎｇ株式会社,,株式会社,神奈川県,横浜市中区,伊勢佐木町５丁目１２９番地１４ストーク伊勢佐木七番館６０５号室,,14,104,2310045,,,,,,,2023-01-06,1,,,,,マッサプロダクションコンサルティング,0
112,1020003023004,新規,0,2023-01-06,2023-01-06,合同会社イーライフ,,合同会社,神奈川県,横浜市都筑区,荏田南３丁目２８番１７号,,14,118,2240007,,,,,,,2023-01-06,1,,,,,イーライフ,0
113,1020003023045,新規,0,2023-01-06,2023-01-06,合同会社ＫＵＲＩＳＨ,,合同会社,神奈川県,横浜市保土ケ谷区,仏向西２２番２－５０１号,,14,106,2400046,,,,,,,2023-01-06,1,,,,,クリッシュ,0
118,1021001077859,新規,0,2023-01-06,2023-01-06,Ｓｅｒｉｏｕｓ株式会社,,株式会社,神奈川県,茅ヶ崎市,松林２丁目８番４０号,,14,207,2530017,,,,,,,2023-01-06,1,,,,,シリアス,0
119,1021001077891,新規,0,2023-01-06,2023-01-06,株式会社Ｓｏｕｔｈ　ｐｏｉｎｔ,,株式会社,神奈川県,茅ヶ崎市,共恵２丁目１番４７号サザンコートＩＩＩ１０２,00128960,14,207,2530056,,,,,,,2023-01-06,1,,,,,サウスポイント,0
127,1030001151706,新規,0,2023-01-06,2023-01-06,株式会社ニッタマ,,株式会社,埼玉県,川口市,本町１丁目６番１７号コーポエンドレス２０３号室,,11,203,3320012,,,,,,,2023-01-06,1,,,,,ニッタマ,0
128,1030001151714,新規,0,2023-01-06,2023-01-06,株式会社ＳｐａｃｅＣｏｍｅｔ,,株式会社,埼玉県,川口市,戸塚２丁目９番１７号,,11,203,3330811,,,,,,,2023-01-06,1,,,,,スペースコメット,0
133,1030003020859,新規,0,2023-01-06,2023-01-06,合同会社ＡＸＩＡ,,合同会社,埼玉県,さいたま市西区,三橋６丁目１７３７番３５号Ｅｄｅｎ西大宮３０１号室,,11,101,3310052,,,,,,,2023-01-06,1,,,,,アクシア,0
134,1030003020900,新規,0,2023-01-06,2023-01-06,合同会社ブラッシュアップ,,合同会社,埼玉県,川越市,南大塚６丁目２３番地３,,11,201,3501162,,,,,,,2023-01-06,1,,,,,ブラッシュアップ,0
135,1030005021104,新規,0,2023-01-06,2023-01-06,一般社団法人日本相撲振興会,,その他の設立登記法人,埼玉県,さいたま市浦和区,常盤１丁目３番９号ロイヤルプラザ常盤２０５,,11,107,3300061,,,,,,,2023-01-06,1,,,,,ニホンスモウシンコウカイ,0
145,1040001126450,新規,0,2023-01-06,2023-01-06,株式会社スタートプレイス,,株式会社,千葉県,市川市,原木１丁目５番１６－１０５号室,,12,203,2720004,,,,,,,2023-01-06,1,,,,,スタートプレイス,0
146,1040001126517,新規,0,2023-01-06,2023-01-06,株式会社ＮＡＮＧＹＯ,,株式会社,千葉県,船橋市,宮本３丁目１４番６号カーサ船橋３０１,,12,204,2730003,,,,,,,2023-01-06,1,,,,,ナンギョウ,0
150,1040003021609,新規,0,2023-01-06,2023-01-06,合同会社Ｔ．Ｋ企画,,合同会社,千葉県,松戸市,稔台８丁目３２番地の１１,,12,207,2702231,,,,,,,2023-01-06,1,,,,,ティーケーキカク,0
151,1040003021633,新規,0,2023-01-06,2023-01-06,合同会社ハヤブサマーケティング,,合同会社,千葉県,柏市,大井１３７番地１,,12,217,2770902,,,,,,,2023-01-06,1,,,,,ハヤブサマーケティング,0
153,1050001052175,新規,0,2023-01-06,2023-01-06,Ｃｈａｒｍｅ・Ａｌｏ株式会社,,株式会社,茨城県,那珂郡東海村,大字船場２８８番地３,,08,341,3191115,,,,,,,2023-01-06,1,,,,,,0
154,1050001052183,新規,0,2023-01-06,2023-01-06,株式会社ささもと,,株式会社,茨城県,鹿嶋市,宮中１丁目１０番１０号,,08,222,3140031,,,,,,,2023-01-06,1,,,,,ササモト,0
155,1050001052191,新規,0,2023-01-06,2023-01-06,株式会社Ｋｅｍｉ　Ｔｒａｄｉｎｇ,,株式会社,茨城県,土浦市,手野町３６７０番地,,08,203,3000025,,,,,,,2023-01-06,1,,,,,ケミトレーディング,0
159,1070001039988,新規,0,2023-01-06,2023-01-06,株式会社アスナロ電工,,株式会社,群馬県,高崎市,新町１７９２番地５,,10,202,3701301,,,,,,,2023-01-06,1,,,,,アスナロデンコウ,0
160,1080001025384,新規,0,2023-01-06,2023-01-06,株式会社石橋測建,,株式会社,静岡県,静岡市清水区,平川地２番１５号,,22,103,4240872,,,,,,,2023-01-06,1,,,,,イシバシソッケン,0
161,1080005007503,新規,0,2023-01-06,2023-01-06,一般社団法人ホワイトメディア認定協会,,その他の設立登記法人,静岡県,静岡市葵区,伝馬町１番地の２ホテルシティオ静岡３階,,22,101,4200858,,,,,,,2023-01-06,1,,,,,ホワイトメディアニンテイキョウカイ,0
163,1080101023734,新規,0,2023-01-06,2023-01-06,株式会社眞野工業,,株式会社,静岡県,富士市,入山瀬６６６番地の７,,22,210,4190204,,,,,,,2023-01-06,1,,,,,マノコウギョウ,0
164,1090005007535,新規,0,2023-01-06,2023-01-06,一般社団法人超高圧・超臨界テクノロジー,,その他の設立登記法人,山梨県,南都留郡忍野村,忍草字立沢３０４１番地－６,,19,424,4010511,,,,,,,2023-01-06,1,,,,,,0
180,1120001251439,新規,0,2023-01-06,2023-01-06,株式会社ハイファイブ,,株式会社,大阪府,大阪市浪速区,元町２丁目１３番２号,,27,111,5560016,,,,,,,2023-01-06,1,,,,,ハイファイブ,0
181,1120001251447,新規,0,2023-01-06,2023-01-06,株式会社ジラソーレ,,株式会社,大阪府,大阪市中央区,北浜３丁目２番２５号,,27,128,5410041,,,,,,,2023-01-06,1,,,,,ジラソーレ,0
182,1120001251455,新規,0,2023-01-06,2023-01-06,株式会社Ｌｏｔｕｓ,,株式会社,大阪府,枚方市,伊加賀寿町１－３ビバレイビル２Ｆ,,27,210,5730061,,,,,,,2023-01-06,1,,,,,ロータス,0
183,1120001251463,新規,0,2023-01-06,2023-01-06,ＳＮＫ株式会社,,株式会社,大阪府,大阪市北区,天神橋２丁目５番３号第５新興ビル４０１号,,27,127,5300041,,,,,,,2023-01-06,1,,,,,エスエヌケイ,0
184,1120001251471,新規,0,2023-01-06,2023-01-06,株式会社Ｔ＆Ｔ　Ｌｕｘｕｒｙ　Ｃａｒｓ,,株式会社,大阪府,大阪市住吉区,我孫子１丁目１番１２号,,27,120,5580014,,,,,,,2023-01-06,1,,,,,ティーアンドティーラグジュアリーカーズ,0
185,1120001251488,新規,0,2023-01-06,2023-01-06,株式会社Ｊ‐Ｓｈｏｅｂｉｌｌ．,,株式会社,大阪府,大阪市中央区,南久宝寺町３丁目２－７,,27,128,5410058,,,,,,,2023-01-06,1,,,,,ジェイシュービル,0
186,1120001251496,新規,0,2023-01-06,2023-01-06,株式会社中野商店,,株式会社,大阪府,大阪市天王寺区,国分町２番２３号,,27,109,5430044,,,,,,,2023-01-06,1,,,,,ナカノショウテン,0
187,1120001251505,新規,0,2023-01-06,2023-01-06,株式会社Ｌ’Ａｒｔｉｓａｎ　ｄｕ　ｖｉｎ,,株式会社,大阪府,大阪市中央区,南久宝寺町４丁目５番１７号,,27,128,5410058,,,,,,,2023-01-06,1,,,,,ラルティザンデュヴァン,0
188,1120001251521,新規,0,2023-01-06,2023-01-06,株式会社ＪＥＶＩＳ,,株式会社,大阪府,大阪市浪速区,幸町２丁目５番１０号ＳＴＡＬＫＳＡＫＵＲＡＧＡＷＡ５０４,,27,111,5560021,,,,,,,2023-01-06,1,,,,,ジェイビス,0
189,1120001251546,新規,0,2023-01-06,2023-01-06,株式会社ＪＩＫＵＴＳＵＩ,,株式会社,大阪府,大阪市中央区,高津３丁目１４番２７－１１０４号,,27,128,5420072,,,,,,,2023-01-06,1,,,,,ジクツイ,0
192,1120101066753,新規,0,2023-01-06,2023-01-06,泉北不動産販売株式会社,,株式会社,大阪府,堺市南区,深阪南３３０番地２７,,27,145,5900103,,,,,,,2023-01-06,1,,,,,センボクフドウサンハンバイ,0
195,1120903004448,新規,0,2023-01-06,2023-01-06,合同会社みとちゃんす,,合同会社,大阪府,豊中市,上新田４丁目１６番１３－７０９号,,27,203,5600085,,,,,,,2023-01-06,1,,,,,ミトチャンス,0
200,1122003002456,新規,0,2023-01-06,2023-01-06,Ｅｖｅｒ　Ｃｏｎｓｕｌｔｉｎｇ　Ｊａｐａｎ合同会社,,合同会社,大阪府,四條畷市,田原台５丁目７番２－４号,,27,229,5750013,,,,,,,2023-01-06,1,,,,,エバーコンサルティングジャパン,0
209,1130003008415,新規,0,2023-01-06,2023-01-06,健康美長寿サロン合同会社,,合同会社,京都府,京都市下京区,石井筒町５３０番地,,26,106,6008496,,,,,,,2023-01-06,1,,,,,ケンコウビチョウジュサロン,0
223,1140001128602,新規,0,2023-01-06,2023-01-06,株式会社関メディスポーツマネージメント,,株式会社,兵庫県,西宮市,甲子園七番町１０番１１号,,28,204,6638177,,,,,,,2023-01-06,1,,,,,カンメディスポーツマネージメント,0
225,1140005026406,新規,0,2023-01-06,2023-01-06,一般社団法人めいと,,その他の設立登記法人,兵庫県,西宮市,上ケ原四番町３番２１－３０１号,,28,204,6620894,,,,,,,2023-01-06,1,,,,,メイト,0
226,1140005026430,新規,0,2023-01-06,2023-01-06,一般社団法人ＯＡＫＳ　Ｎｅｔｗｏｒｋ,,その他の設立登記法人,兵庫県,神戸市中央区,栄町通６丁目１番１８号,,28,110,6500023,,,,,,,2023-01-06,1,,,,,オークスネットワーク,0
227,1150001026061,新規,0,2023-01-06,2023-01-06,いちご専門中村農園株式会社,,株式会社,奈良県,奈良市,北之庄町６６８番地１,,29,201,6308451,,,,,,,2023-01-06,1,,,,,イチゴセンモンナカムラノウエン,0
228,1150003002853,新規,0,2023-01-06,2023-01-06,ＳＨＡＲＫＺ合同会社,,合同会社,奈良県,奈良市,帝塚山１丁目３１番地４号,,29,201,6310062,,,,,,,2023-01-06,1,,,,,シャークス,0
231,1160001024741,新規,0,2023-01-06,2023-01-06,株式会社Ｌｉｎｋ　Ｕｐ,,株式会社,滋賀県,大津市,衣川１丁目２２番６１号,,25,201,5200244,,,,,,,2023-01-06,1,,,,,リンクアップ,0
239,1180001154371,新規,0,2023-01-06,2023-01-06,ＷＩＮＧＯ株式会社,,株式会社,愛知県,名古屋市中区,錦１丁目２０番１２号伏見ビルディング２Ｆ,,23,106,4600003,,,,,,,2023-01-06,1,,,,,ウィンゴー,0
247,1180005020058,新規,0,2023-01-06,2023-01-06,キャリコ事業協同組合,,その他の設立登記法人,愛知県,名古屋市中区,丸の内２丁目１４番４号,,23,106,4600002,,,,,,,2023-01-06,1,,,,,キャリコ,0
250,1180301036947,新規,0,2023-01-06,2023-01-06,地域みらい計画株式会社,,株式会社,愛知県,蒲郡市,三谷町七舗４１番地１２,,23,214,4430021,,,,,,,2023-01-06,1,,,,,チイキミライケイカク,0
251,1180301036955,新規,0,2023-01-06,2023-01-06,株式会社Ｋぴっぐ,,株式会社,愛知県,西尾市,吉良町下横須賀須前４４番地,,23,213,4440522,,,,,,,2023-01-06,1,,,,,ケーピッグ,0
252,1180301036963,新規,0,2023-01-06,2023-01-06,株式会社色彩王國,,株式会社,愛知県,岡崎市,柱町字東荒子４番地９６アルバックス岡崎駅東１３０１,,23,202,4440834,,,,,,,2023-01-06,1,,,,,ショクサイオウコク,0
253,1180303005553,新規,0,2023-01-06,2023-01-06,合同会社ＢＯＲＮ,,合同会社,愛知県,豊田市,豊栄町２丁目４０番地２０３号,,23,211,4701201,,,,,,,2023-01-06,1,,,,,ボーン,0
254,1190001030068,新規,0,2023-01-06,2023-01-06,株式会社岡山鉄工,,株式会社,三重県,四日市市,水沢町３０２９番地１４,,24,202,5121105,,,,,,,2023-01-06,1,,,,,オカヤマテッコウ,0
255,1190001030076,新規,0,2023-01-06,2023-01-06,株式会社三代目春夏秋冬,,株式会社,三重県,鈴鹿市,西条４丁目１０マルカビルディング１Ｅ,,24,207,5130809,,,,,,,2023-01-06,1,,,,,サンダイメシュンカシュウトウ,0
256,1190003004185,新規,0,2023-01-06,2023-01-06,合同会社Ｓ‐Ｃｌｅａｒ,,合同会社,三重県,名張市,希央台５番町１６５番地東駅前ビル２Ｆ－３,,24,208,5180775,,,,,,,2023-01-06,1,,,,,エスクリア,0
258,1200001040825,新規,0,2023-01-06,2023-01-06,株式会社建築処志津,,株式会社,岐阜県,中津川市,中津川３０４２番地の４７,,21,206,5080001,,,,,,,2023-01-06,1,,,,,ケンチクドコロシヅ,0
259,1200001040833,新規,0,2023-01-06,2023-01-06,株式会社フリークル,,株式会社,岐阜県,岐阜市,日ノ出町１丁目２０番地,,21,201,5008876,,,,,,,2023-01-06,1,,,,,フリークル,0
260,1200003005792,新規,0,2023-01-06,2023-01-06,合同会社こうぼう,,合同会社,岐阜県,本巣市,上真桑１４０７番地１,,21,218,5010461,,,,,,,2023-01-06,1,,,,,コウボウ,0
262,1210001019199,新規,0,2023-01-06,2023-01-06,株式会社やなせアット農家,,株式会社,福井県,大野市,菖蒲池第３３号１６番地,,18,205,9120041,,,,,,,2023-01-06,1,,,,,ヤナセアットノウカ,0
263,1220001025196,新規,0,2023-01-06,2023-01-06,株式会社みかん,,株式会社,石川県,金沢市,八日市３丁目６３６番地１,,17,201,9218064,,,,,,,2023-01-06,1,,,,,ミカン,0
270,1220003003423,新規,0,2023-01-06,2023-01-06,合同会社ＸＡＮＪＩ,,合同会社,石川県,白山市,鶴来本町１丁目ワ１０２番地,,17,210,9202121,,,,,,,2023-01-06,1,,,,,ハンジ,0
275,1240001060877,新規,0,2023-01-06,2023-01-06,株式会社宮心工業,,株式会社,広島県,三原市,和田３丁目１３番１８号,,34,204,7230041,,,,,,,2023-01-06,1,,,,,キュウシンコウギョウ,0
276,1240001060885,新規,0,2023-01-06,2023-01-06,株式会社ｍ’ａｒｔ,,株式会社,広島県,広島市中区,大手町２丁目７番３号,,34,101,7300051,,,,,,,2023-01-06,1,,,,,マート,0
277,1240001060910,新規,0,2023-01-06,2023-01-06,株式会社栗田ＬＡＮＤ,,株式会社,広島県,広島市西区,大芝３丁目２番３号,,34,104,7330001,,,,,,,2023-01-06,1,,,,,クリタランド,0
278,1240001060919,新規,0,2023-01-06,2023-01-06,株式会社Ｋ＆ＫＥＩコーポレーション,,株式会社,広島県,広島市安佐南区,緑井１丁目１２番２１－１号,,34,105,7310103,,,,,,,2023-01-06,1,,,,,ケイアンドケイコーポレーション,0
289,1260001037535,新規,0,2023-01-06,2023-01-06,株式会社ＨＱＥ　ｇｒｏｕｐ,,株式会社,岡山県,倉敷市,日ノ出町１丁目５番３号,,33,202,7100063,,,,,,,2023-01-06,1,,,,,エイチキューイーグループ,0
290,1260001037543,新規,0,2023-01-06,2023-01-06,株式会社ＩＳＨＩＩ＆ＯＮＥインシュアランスコンサルティング,,株式会社,岡山県,岡山市北区,今８丁目１１番１０号,,33,101,7000975,,,,,,,2023-01-06,1,,,,,イシイアンドワンインシュアランスコンサルティング,0
293,1260003004137,新規,0,2023-01-06,2023-01-06,合同会社オフィスコジマ,,合同会社,岡山県,岡山市北区,中井町２丁目３番３９号,,33,101,7000804,,,,,,,2023-01-06,1,,,,,オフィスコジマ,0
294,1260005011180,新規,0,2023-01-06,2023-01-06,行政書士法人藤井事務所,,その他の設立登記法人,岡山県,倉敷市,児島田の口５丁目２番５０号,,33,202,7110903,,,,,,,2023-01-06,1,,,,,フジイジムショ,0
296,1280001008856,新規,0,2023-01-06,2023-01-06,株式会社葵海漁業,,株式会社,島根県,隠岐郡隠岐の島町,中町目貫の一１８番地,,32,528,6850013,,,,,,,2023-01-06,1,,,,,アオミギョギョウ,0
304,1290001100075,新規,0,2023-01-06,2023-01-06,株式会社ＹＯＵ‐ＺＯＵ,,株式会社,福岡県,福岡市東区,多々良１丁目２０番３７号,,40,131,8130033,,,,,,,2023-01-06,1,,,,,ユウゾウ,0
305,1290001100100,新規,0,2023-01-06,2023-01-06,株式会社ミヨシＧＴＦ,,株式会社,福岡県,福岡市博多区,千代４丁目２９番５－３０３号レーベン千代ＴＨＥ　ＰＡＲＫ　ＦＲＯＮＴ,,40,132,8120044,,,,,,,2023-01-06,1,,,,,ミヨシジーティーエフ,0
306,1290001100109,新規,0,2023-01-06,2023-01-06,株式会社ｓｅｌｅｃｔ,,株式会社,福岡県,福岡市早良区,賀茂３丁目２０番２７号,,40,137,8140164,,,,,,,2023-01-06,1,,,,,セレクト,0
307,1290001100117,新規,0,2023-01-06,2023-01-06,株式会社はいらる,,株式会社,福岡県,福岡市博多区,麦野２丁目１０番９号,,40,132,8120882,,,,,,,2023-01-06,1,,,,,ハイラル,0
310,1290003013374,新規,0,2023-01-06,2023-01-06,合同会社たから自動車,,合同会社,福岡県,糟屋郡須惠町,大字旅石７２－３０９,,40,344,8112221,,,,,,,2023-01-06,1,,,,,タカラジドウシャ,0
311,1290003013382,新規,0,2023-01-06,2023-01-06,たけわかパーク合同会社,,合同会社,福岡県,福岡市博多区,冷泉町９番１３号,,40,132,8120039,,,,,,,2023-01-06,1,,,,,タケワカパーク,0
313,1290005018900,新規,0,2023-01-06,2023-01-06,社会福祉法人わおん会,,その他の設立登記法人,福岡県,宗像市,宮田１丁目６番２号,,40,220,8113416,,,,,,,2023-01-06,1,,,,,ワオンカイ,0
314,1310001018208,新規,0,2023-01-06,2023-01-06,株式会社カー情報ステーションウインカー,,株式会社,長崎県,北松浦郡佐々町,市場免３９番地,,42,391,8570312,,,,,,,2023-01-06,1,,,,,カージョウホウステーションウインカー,0
318,1320001019502,新規,0,2023-01-06,2023-01-06,株式会社矢幡農園,,株式会社,大分県,玖珠郡九重町,大字右田１８８９番地の２,,44,461,8794601,,,,,,,2023-01-06,1,,,,,ヤハタノウエン,0
321,1330001030458,新規,0,2023-01-06,2023-01-06,株式会社久保田クレーン,,株式会社,熊本県,玉名郡南関町,大字細永１８８０番地１,,43,367,8610831,,,,,,,2023-01-06,1,,,,,クボタクレーン,0
322,1330001030466,新規,0,2023-01-06,2023-01-06,株式会社スタープラネット,,株式会社,熊本県,熊本市中央区,下通１丁目６番７号,,43,101,8600807,,,,,,,2023-01-06,1,,,,,スタープラネット,0
323,1330003009657,新規,0,2023-01-06,2023-01-06,ＴＴＭＣ合同会社,,合同会社,熊本県,熊本市東区,長嶺南７丁目１４番２８－１０５号,,43,102,8618039,,,,,,,2023-01-06,1,,,,,ティーティーエムシー,0
324,1330005010605,新規,0,2023-01-06,2023-01-06,一般社団法人日本菊芋協会,,その他の設立登記法人,熊本県,宇土市,宮庄町３９９番地１,,43,211,8690457,,,,,,,2023-01-06,1,,,,,ニホンキクイモキョウカイ,0
326,1350001018113,新規,0,2023-01-06,2023-01-06,株式会社ＯｆｆｉｃｅＴ,,株式会社,宮崎県,宮崎市,橘通東１丁目３番２５号プレミスト橘公園通り１００５号,,45,201,8800805,,,,,,,2023-01-06,1,,,,,オフィスティ,0
327,1360001031379,新規,0,2023-01-06,2023-01-06,株式会社Ｌｅａｐ　ｓｔｙｌｅ,,株式会社,沖縄県,宮古島市,平良字下里３１０７番地１０３４,,47,214,9060013,,,,,,,2023-01-06,1,,,,,リープスタイル,0
328,1360001031387,新規,0,2023-01-06,2023-01-06,株式会社綏正国際,,株式会社,沖縄県,宜野湾市,我如古４丁目１３番５－１０３号,,47,205,9012214,,,,,,,2023-01-06,1,,,,,スイセイコクサイ,0
329,1360001031395,新規,0,2023-01-06,2023-01-06,株式会社ＤＡＲＵＭＡ,,株式会社,沖縄県,那覇市,高良２丁目８番１２号,,47,201,9010145,,,,,,,2023-01-06,1,,,,,ダルマ,0
332,1370001049420,新規,0,2023-01-06,2023-01-06,株式会社齋藤興業,,株式会社,宮城県,仙台市太白区,柳生５丁目２番地の１１,,04,104,9811106,,,,,,,2023-01-06,1,,,,,サイトウコウギョウ,0
333,1370001049437,新規,0,2023-01-06,2023-01-06,株式会社アディーズ,,株式会社,宮城県,仙台市青葉区,中央３丁目８番５号新仙台駅前ビル地下１階０１０号室,,04,101,9800021,,,,,,,2023-01-06,1,,,,,アディーズ,0
337,1380001033381,新規,0,2023-01-06,2023-01-06,ＢｕｌｌＢｅａｒＩｎｖｅｓｔｍｅｎｔ株式会社,,株式会社,福島県,須賀川市,緑町８６番地２,,07,207,9620863,,,,,,,2023-01-06,1,,,,,ブルベアインベストメント,0
342,1420001018106,新規,0,2023-01-06,2023-01-06,株式会社ミリオンダラーズ,,株式会社,青森県,むつ市,若松町２番２９号,,02,208,0350063,,,,,,,2023-01-06,1,,,,,ミリオンダラーズ,0
345,1430001088115,新規,0,2023-01-06,2023-01-06,株式会社ＴＡＴＳＵＭＩ,,株式会社,北海道,白老郡白老町,川沿３丁目５５８番地,,01,578,0590915,,,,,,,2023-01-06,1,,,,,タツミ,0
346,1430001088131,新規,0,2023-01-06,2023-01-06,株式会社ＳＯＷ,,株式会社,北海道,札幌市南区,川沿三条４丁目８－１３,,01,106,0050803,,,,,,,2023-01-06,1,,,,,ソウ,0
348,1460003000933,新規,0,2023-01-06,2023-01-06,合同会社さくら海産,,合同会社,北海道,厚岸郡厚岸町,若竹４丁目７３番地,,01,662,0881118,,,,,,,2023-01-06,1,,,,,サクラカイサン,0
353,1470001019413,新規,0,2023-01-06,2023-01-06,株式会社王野塗装,,株式会社,香川県,綾歌郡綾川町,陶４０３１番地１６,,37,387,7612103,,,,,,,2023-01-06,1,,,,,オウノトソウ,0
363,1490003001722,新規,0,2023-01-06,2023-01-06,合同会社むつみ,,合同会社,高知県,室戸市,吉良川町甲２２８９番地３,,39,202,7816832,,,,,,,2023-01-06,1,,,,,ムツミ,0
381,2010001231962,新規,0,2023-01-06,2023-01-06,Ｍａｖｉｅ　Ｊａｐａｎ株式会社,,株式会社,東京都,中央区,日本橋浜町２丁目５７番１－６０２号,,13,102,1030007,,,,,,,2023-01-06,1,,,,,マーヴィージャパン,0
382,2010001231970,新規,0,2023-01-06,2023-01-06,株式会社同潤舎,,株式会社,東京都,千代田区,神田小川町３丁目２８番地５,,13,101,1010052,,,,,,,2023-01-06,1,,,,,ドウジュンシャ,0
383,2010001232011,新規,0,2023-01-06,2023-01-06,ＲＬＤ株式会社,,株式会社,東京都,中央区,京橋３丁目１番１号,,13,102,1040031,,,,,,,2023-01-06,1,,,,,アールエルディー,0
385,2010003039479,新規,0,2023-01-06,2023-01-06,合同会社ｂｉｚａｍｓ‐ｌａｂ,,合同会社,東京都,中央区,佃２丁目５番７号,,13,102,1040051,,,,,,,2023-01-06,1,,,,,ビザムスラボ,0
394,2010401171676,新規,0,2023-01-06,2023-01-06,株式会社リバースモール,,株式会社,東京都,港区,麻布十番１丁目４番８号マドモアゼルビル６０２,,13,103,1060045,,,,,,,2023-01-06,1,,,,,リバースモール,0
404,2010601062386,新規,0,2023-01-06,2023-01-06,ＧＳストラテジー株式会社,,株式会社,東京都,江東区,有明２丁目１－３－３００７,,13,108,1350063,,,,,,,2023-01-06,1,,,,,ジーエスストラテジー,0
406,2010603009930,新規,0,2023-01-06,2023-01-06,合同会社遺伝子発現制御機構,,合同会社,東京都,江東区,木場３丁目１０－１－４０３,,13,108,1350042,,,,,,,2023-01-06,1,,,,,イデンシハツゲンセイギョキコウ,0
407,2010701043666,新規,0,2023-01-06,2023-01-06,Ｐ．Ｐａｒｔｎｅｒ株式会社,,株式会社,東京都,品川区,西五反田１丁目１７番６号,,13,109,1410031,,,,,,,2023-01-06,1,,,,,ピーパートナー,0
410,2010801033567,新規,0,2023-01-06,2023-01-06,株式会社ＬＩＢＲＥＣＨ,,株式会社,東京都,大田区,中央３丁目８番１７号,,13,111,1430024,,,,,,,2023-01-06,1,,,,,リブレック,0
411,2010901052260,新規,0,2023-01-06,2023-01-06,株式会社ＴＲＩｅｄｇｅ,,株式会社,東京都,世田谷区,尾山台１丁目１４番２２号,,13,112,1580086,,,,,,,2023-01-06,1,,,,,トライエッジ,0
418,2011001151746,新規,0,2023-01-06,2023-01-06,Ａｕｔｈｅｎｔｉｃｉｔｙ株式会社,,株式会社,東京都,渋谷区,東２丁目５番３６号,,13,113,1500011,,,,,,,2023-01-06,1,,,,,オーセンティシティ,0
419,2011001151754,新規,0,2023-01-06,2023-01-06,株式会社Ｍｉｘｔ,,株式会社,東京都,渋谷区,渋谷２丁目１９番１５号宮益坂ビルディング６０９,,13,113,1500002,,,,,,,2023-01-06,1,,,,,ミクスト,0
420,2011001151820,新規,0,2023-01-06,2023-01-06,ＫＯＪ株式会社,,株式会社,東京都,渋谷区,道玄坂１丁目１０番８号渋谷道玄坂東急ビル２Ｆ―Ｃ,,13,113,1500043,,,,,,,2023-01-06,1,,,,,ケイオージェイ,0
422,2011003016014,新規,0,2023-01-06,2023-01-06,合同会社ＫＫＨ,,合同会社,東京都,目黒区,目黒４丁目２５―５,,13,110,1530063,,,,,,,2023-01-06,1,,,,,ケイケイエイチ,0
423,2011003016030,新規,0,2023-01-06,2023-01-06,合同会社ＮＤＥ,,合同会社,東京都,渋谷区,神宮前６丁目２３番４号桑野ビル２階,,13,113,1500001,,,,,,,2023-01-06,1,,,,,エヌディーイー,0
427,2011103012540,新規,0,2023-01-06,2023-01-06,合同会社ＹＫ,,合同会社,東京都,新宿区,四谷１丁目８番地１４,,13,104,1600004,,,,,,,2023-01-06,1,,,,,ワイケー,0
428,2011103012549,新規,0,2023-01-06,2023-01-06,合同会社Ｖｏｙａｇｅ,,合同会社,東京都,新宿区,新宿５丁目１１番３０号新宿第５葉山ビル３Ｆ,,13,104,1600022,,,,,,,2023-01-06,1,,,,,ボヤージュ,0
433,2011301028355,新規,0,2023-01-06,2023-01-06,株式会社ＡＤＭＡＮＳＯＮ,,株式会社,東京都,杉並区,方南２丁目２９番－７号フェリスサージュＡ棟２０３,,13,115,1680062,,,,,,,2023-01-06,1,,,,,アドマンソン,0
435,2011401024816,新規,0,2023-01-06,2023-01-06,株式会社Ｅｓｐｅｒａｎｃａ,,株式会社,東京都,板橋区,蓮根２丁目１９－３２ミナト荘１Ｆ,,13,119,1740046,,,,,,,2023-01-06,1,,,,,エスペランサ,0
437,2011503005417,新規,0,2023-01-06,2023-01-06,Ｍｅｄｉｃａｌ　Ｍｅｄｌｅｙ合同会社,,合同会社,東京都,北区,田端１丁目１２番２３号,,13,117,1140014,,,,,,,2023-01-06,1,,,,,メディカルメドレー,0
438,2011701025927,新規,0,2023-01-06,2023-01-06,株式会社ＳＥＫＫＵＮ,,株式会社,東京都,江戸川区,東葛西１丁目３２番５号,,13,123,1340084,,,,,,,2023-01-06,1,,,,,セックン,0
442,2012301013272,新規,0,2023-01-06,2023-01-06,ＹＴ住宅サービス株式会社,,株式会社,東京都,町田市,森野６丁目３５９,,13,209,1940022,,,,,,,2023-01-06,1,,,,,ワイティージュウタクサービス,0
444,2012401040043,新規,0,2023-01-06,2023-01-06,クロスバー株式会社,,株式会社,東京都,府中市,浅間町３丁目１８番地の１エルフォレストビューウィング１１３,,13,206,1830001,,,,,,,2023-01-06,1,,,,,クロスバー,0
448,2012803002970,新規,0,2023-01-06,2023-01-06,合同会社Ｅｔｅｘ,,合同会社,東京都,武蔵村山市,伊奈平６丁目５８番地の１２,,13,223,2080023,,,,,,,2023-01-06,1,,,,,エテックス,0
454,2020001149650,新規,0,2023-01-06,2023-01-06,株式会社ナベプロ,,株式会社,神奈川県,横浜市中区,山手町１２０番地４０,,14,104,2310862,,,,,,,2023-01-06,1,,,,,ナベプロ,0
455,2020001149667,新規,0,2023-01-06,2023-01-06,株式会社Ｄ．Ｓ．Ｋ,,株式会社,神奈川県,横浜市中区,山下町３１番地,,14,104,2310023,,,,,,,2023-01-06,1,,,,,ディーエスケー,0
461,2021003012565,新規,0,2023-01-06,2023-01-06,ＣＩＴＹ　ＴＲＡＤＩＮＧ合同会社,,合同会社,神奈川県,厚木市,上荻野６７９番地３－Ａ,,14,212,2430201,,,,,,,2023-01-06,1,,,,,シティトレーディング,0
470,2030001151705,新規,0,2023-01-06,2023-01-06,株式会社彩紀建設,,株式会社,埼玉県,川口市,大字赤井１２５６番地の８,,11,203,3340073,,,,,,,2023-01-06,1,,,,,サイキケンセツ,0
471,2030003020858,新規,0,2023-01-06,2023-01-06,合同会社清和工業,,合同会社,埼玉県,朝霞市,三原５丁目２番１５－３０４号,,11,227,3510025,,,,,,,2023-01-06,1,,,,,セイワコウギョウ,0
472,2030003020866,新規,0,2023-01-06,2023-01-06,グレート・ユニティー合同会社,,合同会社,埼玉県,富士見市,水谷東３丁目４５番１４－６１０号,,11,235,3540013,,,,,,,2023-01-06,1,,,,,グレートユニティー,0
473,2030003020874,新規,0,2023-01-06,2023-01-06,エンラク合同会社,,合同会社,埼玉県,蕨市,塚越６丁目９番１４号,,11,223,3350002,,,,,,,2023-01-06,1,,,,,エンラク,0
474,2030005021103,新規,0,2023-01-06,2023-01-06,一般社団法人さいたまｅスポーツ協会,,その他の設立登記法人,埼玉県,さいたま市大宮区,吉敷町２丁目７２番地,,11,103,3300843,,,,,,,2023-01-06,1,,,,,サイタマイースポーツキョウカイ,0
478,2040001126441,新規,0,2023-01-06,2023-01-06,ＡＭＡＲＵ株式会社,,株式会社,千葉県,大網白里市,砂田２２３番地,,12,239,2993249,,,,,,,2023-01-06,1,,,,,アマル,0
479,2040001126482,新規,0,2023-01-06,2023-01-06,株式会社ＭＥＩＣ,,株式会社,千葉県,松戸市,西馬橋１丁目３番地の１コーポ第二昭栄１０１,,12,207,2710044,,,,,,,2023-01-06,1,,,,,メイク,0
481,2040003021624,新規,0,2023-01-06,2023-01-06,かしら合同会社,,合同会社,千葉県,八千代市,八千代台西３丁目３番地６パークサイドハイツ１０３号,,12,221,2760034,,,,,,,2023-01-06,1,,,,,カシラ,0
483,2050001052182,新規,0,2023-01-06,2023-01-06,株式会社ＷＯＲＫ　ＦＩＶＥ,,株式会社,茨城県,ひたちなか市,大字東石川１３０２番地１２,,08,221,3120052,,,,,,,2023-01-06,1,,,,,ワークファイブ,0
486,2050003007127,新規,0,2023-01-06,2023-01-06,合同会社ＥＲＯエンジニアリング,,合同会社,茨城県,結城市,大字結城２９９４番地２－Ａ,,08,207,3070001,,,,,,,2023-01-06,1,,,,,イロエンジニアリング,0
488,2060002041191,新規,0,2023-01-06,2023-01-06,有限会社長島工業,,有限会社,栃木県,足利市,丸山町６９３番地１,,09,202,3260057,,,,,,,2023-01-06,1,,,,,ナガシマコウギョウ,0
491,2070001039962,新規,0,2023-01-06,2023-01-06,株式会社ＳＨＡＹＡ　ＭＯＴＯＲＩＮＧ,,株式会社,群馬県,富岡市,相野田字丸山６２３番地１,,10,210,3702306,,,,,,,2023-01-06,1,,,,,シャヤモートリング,0
493,2070003004774,新規,0,2023-01-06,2023-01-06,合同会社Ａｎｓｗｅｒ,,合同会社,群馬県,前橋市,北代田町７７９番地３エレガンスライフ花みずき１－１０１,,10,201,3710055,,,,,,,2023-01-06,1,,,,,アンサー,0
494,2080001025375,新規,0,2023-01-06,2023-01-06,株式会社タナカ,,株式会社,静岡県,島田市,中溝４丁目３番の２,,22,209,4270043,,,,,,,2023-01-06,1,,,,,タナカ,0
495,2080001025383,新規,0,2023-01-06,2023-01-06,株式会社フロンティアサービス,,株式会社,静岡県,静岡市駿河区,中島６５９番地の１ラハイナＡ２０２号,,22,102,4228046,,,,,,,2023-01-06,1,,,,,フロンティアサービス,0
496,2080101023733,新規,0,2023-01-06,2023-01-06,株式会社トップガレージ,,株式会社,静岡県,駿東郡清水町,久米田５９番地の１０,,22,341,4110911,,,,,,,2023-01-06,1,,,,,トップガレージ,0
498,2090003002223,新規,0,2023-01-06,2023-01-06,合同会社山本新聞販売都留店,,合同会社,山梨県,都留市,中央３丁目１番５号,,19,204,4020052,,,,,,,2023-01-06,1,,,,,ヤマモトシンブンハンバイツルテン,0
519,2120001251446,新規,0,2023-01-06,2023-01-06,株式会社Ｎ　Ｄｅｎｔａｌ　Ｃｒａｆｔ,,株式会社,大阪府,大阪市中央区,北久宝寺町１丁目５番８号北久宝寺町ビル,,27,128,5410057,,,,,,,2023-01-06,1,,,,,エヌデンタルクラフト,0
520,2120001251454,新規,0,2023-01-06,2023-01-06,株式会社ＳＲＧ,,株式会社,大阪府,大阪市東住吉区,住道矢田４丁目７番８号,,27,121,5460022,,,,,,,2023-01-06,1,,,,,エスアールジー,0
521,2120001251487,新規,0,2023-01-06,2023-01-06,株式会社ルピナス,,株式会社,大阪府,大阪市中央区,日本橋２丁目７番１３号３０３号室,,27,128,5420073,,,,,,,2023-01-06,1,,,,,ルピナス,0
522,2120001251529,新規,0,2023-01-06,2023-01-06,株式会社裕信,,株式会社,大阪府,守口市,八雲西町２丁目２６番６号,,27,209,5700006,,,,,,,2023-01-06,1,,,,,ユウシン,0
523,2120001251545,新規,0,2023-01-06,2023-01-06,株式会社ＮＢＺ　Ｊａｐａｎ,,株式会社,大阪府,大阪市城東区,今福西４丁目４番２３号,,27,118,5360004,,,,,,,2023-01-06,1,,,,,エヌビーゼットジャパン,0
524,2120001251553,新規,0,2023-01-06,2023-01-06,星河株式会社,,株式会社,大阪府,大阪市旭区,清水１丁目１２番１４号モデラート千林１０２号室,,27,117,5350021,,,,,,,2023-01-06,1,,,,,ホシカワ,0
526,2120003023174,新規,0,2023-01-06,2023-01-06,エムズプラス合同会社,,合同会社,大阪府,大阪市天王寺区,石ケ辻町１８番１０号メゾンジュールイマ６０２号,00128946,27,109,5430031,,,,,,,2023-01-06,1,,,,,エムズプラス,0
528,2120101066769,新規,0,2023-01-06,2023-01-06,株式会社ｐｒｏｓｐｅｒ,,株式会社,大阪府,泉大津市,北豊中町３丁目２－７６５,,27,206,5950012,,,,,,,2023-01-06,1,,,,,プロスパー,0
530,2120903004447,新規,0,2023-01-06,2023-01-06,合同会社季川,,合同会社,大阪府,茨木市,豊川４丁目２２番１１号,,27,211,5670057,,,,,,,2023-01-06,1,,,,,キセン,0
542,2130001073360,新規,0,2023-01-06,2023-01-06,株式会社川崎,00128947,株式会社,京都府,京都市南区,八条源町５番地５,,26,107,6018477,,,,,,,2023-01-06,1,,,,,カワサキ,0
543,2130001073385,新規,0,2023-01-06,2023-01-06,株式会社Ｋｏｌｌａｂ　Ｌｏｇｉ　Ｗｏｒｋｓ,,株式会社,京都府,亀岡市,北古世町１丁目１３番７号,,26,206,6210811,,,,,,,2023-01-06,1,,,,,コラボロジワークス,0
544,2130001073393,新規,0,2023-01-06,2023-01-06,株式会社紀陽エンジニアリングジャパン,,株式会社,京都府,京都市下京区,寺町通五条上る西橋詰町７４４番地２ベルヴィ高瀬川４０４室,,26,106,6008029,,,,,,,2023-01-06,1,,,,,キヨウエンジニアリングジャパン,0
545,2130003008422,新規,0,2023-01-06,2023-01-06,合同会社松本整事務所,,合同会社,京都府,京都市伏見区,久我東町７番地８２,,26,109,6128494,,,,,,,2023-01-06,1,,,,,マツモトタダシジムショ,0
550,2150001026060,新規,0,2023-01-06,2023-01-06,大西商事株式会社,,株式会社,奈良県,生駒郡三郷町,立野北２丁目９番７号,,29,343,6360821,,,,,,,2023-01-06,1,,,,,オオニシショウジ,0
553,2160001024740,新規,0,2023-01-06,2023-01-06,株式会社ＲＵコーポレーション,,株式会社,滋賀県,大津市,本宮２丁目６番４９－１０２号,,25,201,5200804,,,,,,,2023-01-06,1,,,,,アールユーコーポレーション,0
559,2180001154387,新規,0,2023-01-06,2023-01-06,株式会社エベレスト,,株式会社,愛知県,名古屋市西区,名駅２丁目３４番１７号セントラル名古屋１１０１号,,23,104,4510045,,,,,,,2023-01-06,1,,,,,エベレスト,0
560,2180001154395,新規,0,2023-01-06,2023-01-06,株式会社今川組,,株式会社,愛知県,一宮市,松降通７丁目１５番地１リンピア７－３０１号,,23,203,4910078,,,,,,,2023-01-06,1,,,,,イマガワグミ,0
564,2180003024613,新規,0,2023-01-06,2023-01-06,Ｔｒｅｎｄｙ　ｃｌｏｔｈｅｓ合同会社,,合同会社,愛知県,稲沢市,千代６丁目２４番地,,23,220,4928403,,,,,,,2023-01-06,1,,,,,トレンディクロテスト,0
565,2180003024662,新規,0,2023-01-06,2023-01-06,ＴＬ　ＧＲＯＵＰ合同会社,,合同会社,愛知県,名古屋市千種区,城木町１丁目５６番１号,,23,101,4640846,,,,,,,2023-01-06,1,,,,,ティーエルグループ,0
566,2180003024670,新規,0,2023-01-06,2023-01-06,合同会社ｃｒｉｍｉｎｇ,,合同会社,愛知県,一宮市,多加木４丁目３１－１２,,23,203,4910837,,,,,,,2023-01-06,1,,,,,クリミング,0
567,2180005020057,新規,0,2023-01-06,2023-01-06,税理士法人堅迅,,その他の設立登記法人,愛知県,名古屋市中区,新栄１丁目３８番１８号,,23,106,4600007,,,,,,,2023-01-06,1,,,,,ケンジン,0
568,2180005020073,新規,0,2023-01-06,2023-01-06,国際人材技能支援協同組合,,その他の設立登記法人,愛知県,名古屋市港区,十一屋３丁目１６０番地,,23,111,4550831,,,,,,,2023-01-06,1,,,,,コクサイジンザイギノウシエン,0
569,2180301036954,新規,0,2023-01-06,2023-01-06,山陽機工株式会社,,株式会社,愛知県,高浜市,稗田町１丁目５番地３８,,23,227,4441321,,,,,,,2023-01-06,1,,,,,サンヨウキコウ,0
571,2190001030067,新規,0,2023-01-06,2023-01-06,岡田鋳物株式会社,,株式会社,三重県,桑名市,多度町下野代４８７番地１,,24,205,5110117,,,,,,,2023-01-06,1,,,,,オカダイモノ,0
572,2190001030075,新規,0,2023-01-06,2023-01-06,株式会社ＩＭＭＯＲＴＥＬ,,株式会社,三重県,四日市市,泊山崎町１５－１アクシア泊１０１,,24,202,5100892,,,,,,,2023-01-06,1,,,,,イモーテル,0
574,2200001040808,新規,0,2023-01-06,2023-01-06,株式会社ＧＡＬＬＥＲＩＡ,,株式会社,岐阜県,瑞穂市,馬場春雨町２丁目５４番地,,21,216,5010204,,,,,,,2023-01-06,1,,,,,ガレリア,0
577,2210001019198,新規,0,2023-01-06,2023-01-06,株式会社経理ＰＲＯ,,株式会社,福井県,福井市,大手３丁目１５番１２号,,18,201,9100005,,,,,,,2023-01-06,1,,,,,ケイリプロ,0
578,2220003003430,新規,0,2023-01-06,2023-01-06,合同会社和光サービス,,合同会社,石川県,金沢市,千木町ヲ４６番地２,,17,201,9200001,,,,,,,2023-01-06,1,,,,,ワコウサービス,0
582,2240001060884,新規,0,2023-01-06,2023-01-06,株式会社ライカン,,株式会社,広島県,福山市,神辺町大字下竹田２５１７番地３,,34,207,7202115,,,,,,,2023-01-06,1,,,,,ライカン,0
583,2240001060892,新規,0,2023-01-06,2023-01-06,株式会社松建,,株式会社,広島県,東広島市,高屋町造賀６５６６番地,,34,212,7392101,,,,,,,2023-01-06,1,,,,,マツケン,0
588,2240003005961,新規,0,2023-01-06,2023-01-06,合同会社ＮＩＮＥＣＲＵＺ,,合同会社,広島県,福山市,神辺町字徳田１３７３,,34,207,7202126,,,,,,,2023-01-06,1,,,,,ナインクルーズ,0
592,2260003004136,新規,0,2023-01-06,2023-01-06,合同会社ＹＶＹ,,合同会社,岡山県,新見市,豊永佐伏２３７５番地,,33,210,7192722,,,,,,,2023-01-06,1,,,,,ワイブイワイ,0
593,2260003004144,新規,0,2023-01-06,2023-01-06,合同会社ヴィータ,,合同会社,岡山県,倉敷市,老松町４丁目１２番２４号,,33,202,7100826,,,,,,,2023-01-06,1,,,,,ヴィータ,0
594,2270001008699,新規,0,2023-01-06,2023-01-06,株式会社ＤＥＰ,,株式会社,鳥取県,倉吉市,清谷町１丁目７０番地１,,31,203,6820017,,,,,,,2023-01-06,1,,,,,デップ,0
596,2280001008855,新規,0,2023-01-06,2023-01-06,株式会社九代社,,株式会社,島根県,松江市,本郷町１番７号,,32,201,6900053,,,,,,,2023-01-06,1,,,,,,0
600,2290001100058,新規,0,2023-01-06,2023-01-06,株式会社メイプルツリー,,株式会社,福岡県,福岡市中央区,高砂２丁目１０番１３－１００１号,,40,133,8100011,,,,,,,2023-01-06,1,,,,,メイプルツリー,0
601,2290001100090,新規,0,2023-01-06,2023-01-06,勇進機設株式会社,,株式会社,福岡県,福岡市東区,西戸崎４丁目１番２号,,40,131,8110321,,,,,,,2023-01-06,1,,,,,ユウシンキセツ,0
604,2290003013373,新規,0,2023-01-06,2023-01-06,Ｋｏｋｏｋｕ合同会社,,合同会社,福岡県,福岡市東区,香椎駅前２丁目９番２８－１１０１号ニシコービル香椎,,40,131,8130013,,,,,,,2023-01-06,1,,,,,コーコク,0
605,2290801029182,新規,0,2023-01-06,2023-01-06,株式会社Ｎａｔｕｒｅ,,株式会社,福岡県,北九州市若松区,大字有毛２３２５番地１１,,40,103,8080123,,,,,,,2023-01-06,1,,,,,ネイチャー,0
607,2300001013183,新規,0,2023-01-06,2023-01-06,株式会社Ｄｅｕｘ‐Ｐｌａｃｅｓ　Ｈｏｌｄｉｎｇｓ,,株式会社,佐賀県,佐賀市,大財５丁目８番３４号,,41,201,8400811,,,,,,,2023-01-06,1,,,,,デュープラスホールディングス,0
610,2310003004502,新規,0,2023-01-06,2023-01-06,合同会社ＰＥＡＣＥ,,合同会社,長崎県,島原市,城内３丁目１２７０番地３,,42,203,8550036,,,,,,,2023-01-06,1,,,,,ピース,0
611,2320003003981,新規,0,2023-01-06,2023-01-06,ｔｏｒｕｏ．ｊａｐａｎ合同会社,,合同会社,大分県,中津市,大字大塚１９３番地６,,44,203,8710008,,,,,,,2023-01-06,1,,,,,トルオジャパン,0
614,2330001030473,新規,0,2023-01-06,2023-01-06,成建工業株式会社,,株式会社,熊本県,熊本市北区,清水万石１丁目８番１１７号,,43,105,8618068,,,,,,,2023-01-06,1,,,,,ナリケンコウギョウ,0
616,2330003009656,新規,0,2023-01-06,2023-01-06,合同会社ＳＧ１,,合同会社,熊本県,熊本市中央区,草葉町２番３２号２Ａ,,43,101,8600843,,,,,,,2023-01-06,1,,,,,エスジーワン,0
619,2360001031386,新規,0,2023-01-06,2023-01-06,フェアリーの庭株式会社,,株式会社,沖縄県,国頭郡金武町,字金武４００５－４０８室,,47,314,9041201,,,,,,,2023-01-06,1,,,,,フェアリーノニワ,0
624,2370001049444,新規,0,2023-01-06,2023-01-06,株式会社ｃｏｕｌｅｕｒ,,株式会社,宮城県,仙台市若林区,六丁の目南町１－１６,,04,103,9840013,,,,,,,2023-01-06,1,,,,,クルール,0
626,2380001033372,新規,0,2023-01-06,2023-01-06,株式会社トータルメディカルラボ,,株式会社,福島県,いわき市,郷ケ丘３丁目２２番地３,,07,204,9708045,,,,,,,2023-01-06,1,,,,,トータルメディカルラボ,0
627,2380001033380,新規,0,2023-01-06,2023-01-06,株式会社半沢木型製作所,,株式会社,福島県,福島市,飯坂町平野字東道下１２番地の５,,07,201,9600231,,,,,,,2023-01-06,1,,,,,ハンザワキガタセイサクジョ,0
632,2390001017119,新規,0,2023-01-06,2023-01-06,株式会社平間商事,,株式会社,山形県,東置賜郡川西町,大字上小松２０４７番地の２,,06,382,9990121,,,,,,,2023-01-06,1,,,,,ヒラマショウジ,0
636,2410001013362,新規,0,2023-01-06,2023-01-06,ユキノプロジェクト株式会社,,株式会社,秋田県,秋田市,大町２丁目５番１３号,,05,201,0100921,,,,,,,2023-01-06,1,,,,,ユキノプロジェクト,0
637,2410005006494,新規,0,2023-01-06,2023-01-06,医療法人ももとせ,,その他の設立登記法人,秋田県,秋田市,広面字蓮沼１０４番地１クリーンセラミックビル２階,,05,201,0100041,,,,,,,2023-01-06,1,,,,,モモトセ,0
643,2450001013879,新規,0,2023-01-06,2023-01-06,尾形板金工業株式会社,,株式会社,北海道,旭川市,神楽五条１丁目２番１１号,,01,204,0708005,,,,,,,2023-01-06,1,,,,,オガタバンキンコウギョウ,0
644,2450003002285,新規,0,2023-01-06,2023-01-06,合同会社ＳＨＩＲＯＢＡＫＯ,,合同会社,北海道,旭川市,大町一条６丁目１４番地の１３７,,01,204,0700841,,,,,,,2023-01-06,1,,,,,シロバコ,0
647,2460401001251,新規,0,2023-01-06,2023-01-06,株式会社菅原漁業,,株式会社,北海道,根室市,友知２００番地１,,01,223,0870161,,,,,,,2023-01-06,1,,,,,スガワラギョギョウ,0
649,2470001019404,新規,0,2023-01-06,2023-01-06,株式会社ＹＫ,,株式会社,香川県,観音寺市,粟井町２９５番地１,,37,205,7680052,,,,,,,2023-01-06,1,,,,,ワイケイ,0
650,2470001019412,新規,0,2023-01-06,2023-01-06,株式会社ｎｏｔｈｉｎｇ,,株式会社,香川県,高松市,林町２５２番地２５,,37,201,7610301,,,,,,,2023-01-06,1,,,,,ナッシング,0
656,2500001024689,新規,0,2023-01-06,2023-01-06,株式会社土井工業,,株式会社,愛媛県,四国中央市,土居町土居２２７６番地,,38,213,7990711,,,,,,,2023-01-06,1,,,,,ドイコウギョウ,0
662,3010001231912,新規,0,2023-01-06,2023-01-06,株式会社デシリオントーキョー,,株式会社,東京都,中央区,日本橋室町３丁目２番１８号海老屋ビル７Ｆ,,13,102,1030022,,,,,,,2023-01-06,1,,,,,デシリオントーキョー,0
663,3010001231986,新規,0,2023-01-06,2023-01-06,株式会社ＳＨＩＮＹ,,株式会社,東京都,中央区,銀座１丁目２２番１１号銀座大竹ビジデンス２階,,13,102,1040061,,,,,,,2023-01-06,1,,,,,シャイニー,0
664,3010003039478,新規,0,2023-01-06,2023-01-06,合同会社カレイドスケイプ,,合同会社,東京都,中央区,銀座１丁目１２番４号Ｎ＆Ｅ．ＢＬＤ．７階,,13,102,1040061,,,,,,,2023-01-06,1,,,,,カレイドスケイプ,0
671,3010401171584,新規,0,2023-01-06,2023-01-06,株式会社メイジャパン,,株式会社,東京都,港区,虎ノ門３丁目１０番５号虎ノ門水澤ビル６Ｆ,,13,103,1050001,,,,,,,2023-01-06,1,,,,,メイジャパン,0
672,3010401171642,新規,0,2023-01-06,2023-01-06,ケーヴェリタス株式会社,,株式会社,東京都,港区,虎ノ門４丁目１番３４－４０８号,,13,103,1050001,,,,,,,2023-01-06,1,,,,,ケーヴェリタス,0
673,3010401171659,新規,0,2023-01-06,2023-01-06,ジャパンラグビーマーケティング株式会社,,株式会社,東京都,港区,北青山２丁目８番３５号,,13,103,1070061,,,,,,,2023-01-06,1,,,,,ジャパンラグビーマーケティング,0
674,3010401171675,新規,0,2023-01-06,2023-01-06,株式会社Ｘ‐Ｂａｎｋ,,株式会社,東京都,港区,赤坂４丁目８番１９号,,13,103,1070052,,,,,,,2023-01-06,1,,,,,エックスバンク,0
679,3010503006837,新規,0,2023-01-06,2023-01-06,合同会社Ｆｏｙｅｒ,,合同会社,東京都,台東区,蔵前３丁目１番１１号,,13,106,1110051,,,,,,,2023-01-06,1,,,,,ホワイエ,0
680,3010603009921,新規,0,2023-01-06,2023-01-06,合同会社メニコム,,合同会社,東京都,江東区,亀戸６丁目３１番２－１９０１号,,13,108,1360071,,,,,,,2023-01-06,1,,,,,メニコム,0
684,3010701043673,新規,0,2023-01-06,2023-01-06,株式会社ファニーステージ,,株式会社,東京都,品川区,南品川４丁目１５番３号フォーチュン品川４０１,,13,109,1400004,,,,,,,2023-01-06,1,,,,,ファニーステージ,0
689,3010901052251,新規,0,2023-01-06,2023-01-06,株式会社ＴＥＡＭ　ＩＭＰＵＬ,,株式会社,東京都,世田谷区,桜丘５丁目３２番３号,,13,112,1560054,,,,,,,2023-01-06,1,,,,,チームインパル,0
690,3010901052276,新規,0,2023-01-06,2023-01-06,株式会社レビュープロ,,株式会社,東京都,世田谷区,瀬田５丁目３４番１５－４０７号,,13,112,1580095,,,,,,,2023-01-06,1,,,,,レビュープロ,0
698,3011001151753,新規,0,2023-01-06,2023-01-06,株式会社ＰＲＦ．Ｔｅｃｈ,,株式会社,東京都,目黒区,洗足２丁目２９番１１号,,13,110,1520012,,,,,,,2023-01-06,1,,,,,ピーアールエフテック,0
699,3011001151761,新規,0,2023-01-06,2023-01-06,株式会社ＨＭＣ,,株式会社,東京都,渋谷区,富ヶ谷１丁目４９番９－１０３号,,13,113,1510063,,,,,,,2023-01-06,1,,,,,エイチエムシー,0
701,3011005009898,新規,0,2023-01-06,2023-01-06,税理士法人ディヴァージュポイント,,その他の設立登記法人,東京都,渋谷区,恵比寿西１丁目１５番２号,,13,113,1500021,,,,,,,2023-01-06,1,,,,,ディヴァージュポイント,0
706,3011101101352,新規,0,2023-01-06,2023-01-06,株式会社ＣＱＱサービス,,株式会社,東京都,新宿区,新宿１丁目３４番１３号貝塚ビル１００１,,13,104,1600022,,,,,,,2023-01-06,1,,,,,シーキューキューサービス,0
708,3011301028354,新規,0,2023-01-06,2023-01-06,Ｇｅｅ　Ｈｏｏ　Ｊａｐａｎ株式会社,,株式会社,東京都,杉並区,高井戸西１丁目２７番２５号,,13,115,1680071,,,,,,,2023-01-06,1,,,,,ジーフージャパン,0
710,3011401024807,新規,0,2023-01-06,2023-01-06,株式会社エフ・オー,,株式会社,東京都,板橋区,三園１丁目４７番１３号,,13,119,1750091,,,,,,,2023-01-06,1,,,,,エフオー,0
712,3011503005416,新規,0,2023-01-06,2023-01-06,義米合同会社,,合同会社,東京都,北区,滝野川７丁目３７番１１号・３Ｆ,,13,117,1140023,,,,,,,2023-01-06,1,,,,,ギベイ,0
716,3011701025926,新規,0,2023-01-06,2023-01-06,未来株式会社,,株式会社,東京都,江戸川区,上一色１丁目１５番９号,,13,123,1330041,,,,,,,2023-01-06,1,,,,,ミライ,0
722,3012401040042,新規,0,2023-01-06,2023-01-06,株式会社ＩＭＡ,,株式会社,東京都,武蔵野市,境南町２丁目９番４号八千代マンション３０２,,13,203,1800023,,,,,,,2023-01-06,1,,,,,アイマ,0
723,3012701017418,新規,0,2023-01-06,2023-01-06,株式会社エムズキャンプ,,株式会社,東京都,東久留米市,南沢１丁目１２番２２号アザレアガーデンＣ２０３号室,,13,222,2030023,,,,,,,2023-01-06,1,,,,,エムズキャンプ,0
725,3012801022053,新規,0,2023-01-06,2023-01-06,エスティアール株式会社,,株式会社,東京都,立川市,曙町３丁目２番１５号グレーシアシティＡ３０８,00128955,13,202,1900012,,,,,,,2023-01-06,1,,,,,エスティアール,0
726,3013301050148,新規,0,2023-01-06,2023-01-06,株式会社フィオーレ,,株式会社,東京都,豊島区,東池袋３丁目２０番２１号広宣ビル５階,,13,116,1700013,,,,,,,2023-01-06,1,,,,,フィオーレ,0
728,3013303006437,新規,0,2023-01-06,2023-01-06,合同会社賀,,合同会社,東京都,豊島区,池袋１丁目９番４号西華荘２０１,,13,116,1700014,,,,,,,2023-01-06,1,,,,,ヨロコブ,0
735,3020001149633,新規,0,2023-01-06,2023-01-06,株式会社ＡＣＴＩＶＥ,,株式会社,神奈川県,川崎市川崎区,渡田１丁目１７番１３号,,14,131,2100837,,,,,,,2023-01-06,1,,,,,アクティブ,0
737,3020003022978,新規,0,2023-01-06,2023-01-06,ＨＡＣＨＩ　ＢＲＡＮＤＩＮＧ合同会社,,合同会社,神奈川県,川崎市麻生区,細山５丁目２２－１２,,14,137,2150001,,,,,,,2023-01-06,1,,,,,ハチブランディング,0
738,3020003022994,新規,0,2023-01-06,2023-01-06,合同会社ＣＯＰ,,合同会社,神奈川県,横浜市磯子区,栗木１丁目５－２１,,14,107,2350041,,,,,,,2023-01-06,1,,,,,シーオーピー,0
739,3020003023002,新規,0,2023-01-06,2023-01-06,合同会社ドミールウチダカンパニー,,合同会社,神奈川県,横浜市旭区,市沢町１８７番地,,14,112,2410014,,,,,,,2023-01-06,1,,,,,ドミールウチダカンパニー,0
747,3021001077832,新規,0,2023-01-06,2023-01-06,株式会社むすびば,,株式会社,神奈川県,相模原市中央区,相模原２丁目１３－７－４０１,,14,152,2520231,,,,,,,2023-01-06,1,,,,,ムスビバ,0
749,3021005012711,新規,0,2023-01-06,2023-01-06,司法書士法人白井事務所,,その他の設立登記法人,神奈川県,平塚市,明石町１番２５号,,14,203,2540042,,,,,,,2023-01-06,1,,,,,シライジムショ,0
751,3030001151720,新規,0,2023-01-06,2023-01-06,株式会社グランスカイエステート,,株式会社,埼玉県,さいたま市南区,南浦和１丁目３０番１９－１号,,11,108,3360017,,,,,,,2023-01-06,1,,,,,グランスカイエステート,0
752,3030001151737,新規,0,2023-01-06,2023-01-06,株式会社じどう,,株式会社,埼玉県,さいたま市岩槻区,大字真福寺１４０２番地１８,,11,110,3390044,,,,,,,2023-01-06,1,,,,,ジドウ,0
753,3030001151778,新規,0,2023-01-06,2023-01-06,Ｍ８株式会社,,株式会社,埼玉県,川越市,大字寺尾７９０番地１,,11,201,3501141,,,,,,,2023-01-06,1,,,,,メイト,0
757,3030003020832,新規,0,2023-01-06,2023-01-06,Ｒ・Ｔコーポレーション合同会社,,合同会社,埼玉県,さいたま市大宮区,吉敷町１丁目７０－１～１３０６,,11,103,3300843,,,,,,,2023-01-06,1,,,,,アールティーコーポレーション,0
758,3030003020840,新規,0,2023-01-06,2023-01-06,ダンケ合同会社,,合同会社,埼玉県,坂戸市,大字栄３２３番地１,,11,239,3500213,,,,,,,2023-01-06,1,,,,,ダンケ,0
759,3030003020873,新規,0,2023-01-06,2023-01-06,合同会社ＳＫ　ｓｔｙｌｅ,,合同会社,埼玉県,さいたま市南区,大字大谷口５４５９番地１,,11,108,3360042,,,,,,,2023-01-06,1,,,,,エスケースタイル,0
760,3030003020881,新規,0,2023-01-06,2023-01-06,合同会社さくら,,合同会社,埼玉県,越谷市,新川町１丁目２２６番地１２,,11,222,3430852,,,,,,,2023-01-06,1,,,,,サクラ,0
775,3040001126457,新規,0,2023-01-06,2023-01-06,株式会社クロスロード,,株式会社,千葉県,市原市,桜台４丁目２３番地１,,12,219,2990127,,,,,,,2023-01-06,1,,,,,クロスロード,0
776,3040001126498,新規,0,2023-01-06,2023-01-06,東松ホールディングス株式会社,,株式会社,千葉県,浦安市,猫実５丁目１８番２０号,,12,227,2790004,,,,,,,2023-01-06,1,,,,,トウショウホールディングス,0
779,3040003021607,新規,0,2023-01-06,2023-01-06,Ｆ・Ｌ・Ｃ合同会社,,合同会社,千葉県,柏市,篠籠田５４３番地２,,12,217,2770862,,,,,,,2023-01-06,1,,,,,エフエルシー,0
782,3050003007126,新規,0,2023-01-06,2023-01-06,ＣＥＹＬＯＮ　ＳＰＩＣＹ合同会社,,合同会社,茨城県,下妻市,下妻戊２２９番地,,08,210,3040062,,,,,,,2023-01-06,1,,,,,セイロンスパイシー,0
785,3070001039986,新規,0,2023-01-06,2023-01-06,株式会社尾高工建,00128954,株式会社,群馬県,安中市,簗瀬８８１番地１,,10,211,3790134,,,,,,,2023-01-06,1,,,,,オダカコウケン,0
789,3080001025374,新規,0,2023-01-06,2023-01-06,Ｓｈｉｎｏｎｏｍｅ株式会社,,株式会社,静岡県,島田市,宮川町２８０４番地の７,,22,209,4270044,,,,,,,2023-01-06,1,,,,,シノノメ,0
790,3080001025382,新規,0,2023-01-06,2023-01-06,株式会社あさり動物病院,,株式会社,静岡県,静岡市駿河区,馬渕４丁目１４番３号,,22,102,4228063,,,,,,,2023-01-06,1,,,,,アサリドウブツビョウイン,0
796,3080401026229,新規,0,2023-01-06,2023-01-06,株式会社ＳＮＪ,,株式会社,静岡県,菊川市,吉沢５１０番地の１,,22,224,4390009,,,,,,,2023-01-06,1,,,,,シンジ,0
797,3080405007514,新規,0,2023-01-06,2023-01-06,社会保険労務士法人オンライン,,その他の設立登記法人,静岡県,浜松市南区,若林町１７３６番地,,22,134,4328051,,,,,,,2023-01-06,1,,,,,オンライン,0
800,3110001037218,新規,0,2023-01-06,2023-01-06,株式会社カワシマパートナーズ,,株式会社,新潟県,新潟市東区,松和町１７番２４号１０,,15,102,9500027,,,,,,,2023-01-06,1,,,,,カワシマパートナーズ,0
815,3120001251437,新規,0,2023-01-06,2023-01-06,ＡＣＣＯＲＤ株式会社,,株式会社,大阪府,大阪市東成区,神路４丁目３－１０スターレジデンス新深江６０５号,,27,115,5370003,,,,,,,2023-01-06,1,,,,,アコード,0
816,3120001251453,新規,0,2023-01-06,2023-01-06,クレメンティア株式会社,,株式会社,大阪府,大阪市天王寺区,生玉前町３番２５号タマダビル,,27,109,5430072,,,,,,,2023-01-06,1,,,,,クレメンティア,0
817,3120001251461,新規,0,2023-01-06,2023-01-06,株式会社Ｒｅ　ＨＯＭＥ,,株式会社,大阪府,大阪市中央区,瓦町４丁目３番１４号,,27,128,5410048,,,,,,,2023-01-06,1,,,,,リーホーム,0
818,3120001251478,新規,0,2023-01-06,2023-01-06,株式会社ＡＴＫ　ＰＩＯＮＥＥＲ,,株式会社,大阪府,大阪市東住吉区,今川６丁目５番２５号１Ｆ,,27,121,5460003,,,,,,,2023-01-06,1,,,,,エイティーケイパイオニア,0
819,3120001251494,新規,0,2023-01-06,2023-01-06,株式会社クマホル,,株式会社,大阪府,大阪市天王寺区,舟橋町１９番１４号,,27,109,5430024,,,,,,,2023-01-06,1,,,,,クマホル,0
820,3120001251511,新規,0,2023-01-06,2023-01-06,株式会社フードビズエナジー,,株式会社,大阪府,大阪市中央区,瓦町３丁目５－７ＮＲＥＧ御堂筋ビル４階,,27,128,5410048,,,,,,,2023-01-06,1,,,,,フードビズエナジー,0
821,3120001251528,新規,0,2023-01-06,2023-01-06,株式会社ｐｌｕｓ　ｌａｂｏ,,株式会社,大阪府,大阪市北区,梅田１丁目２番２号大阪駅前第２ビル１２－１２,,27,127,5300001,,,,,,,2023-01-06,1,,,,,プラスラボ,0
822,3120001251544,新規,0,2023-01-06,2023-01-06,株式会社ＰＬＡＹＦＵＬＢＯＸ,,株式会社,大阪府,寝屋川市,萱島信和町２２番１０号,,27,215,5720829,,,,,,,2023-01-06,1,,,,,プレイフルボックス,0
826,3120003023165,新規,0,2023-01-06,2023-01-06,ＣＲＡ合同会社,,合同会社,大阪府,大阪市港区,港晴２丁目６番１３号,,27,107,5520023,,,,,,,2023-01-06,1,,,,,シーアールエー,0
827,3120003023181,新規,0,2023-01-06,2023-01-06,合同会社ＮａＴＭ,,合同会社,大阪府,大阪市北区,梅田１丁目２番２号大阪駅前第２ビル１２－１２,,27,127,5300001,,,,,,,2023-01-06,1,,,,,ナトム,0
829,3120101066768,新規,0,2023-01-06,2023-01-06,株式会社阪口組,,株式会社,大阪府,和泉市,光明台１丁目３７番１３号,,27,219,5941111,,,,,,,2023-01-06,1,,,,,サカグチグミ,0
831,3120103005014,新規,0,2023-01-06,2023-01-06,イーチファイブ合同会社,,合同会社,大阪府,岸和田市,尾生町５１９１番地の２１,,27,202,5960816,,,,,,,2023-01-06,1,,,,,イーチファイブ,0
835,3120901046936,新規,0,2023-01-06,2023-01-06,株式会社Ｆ．,,株式会社,大阪府,吹田市,青山台３丁目５０番１０－４０９号,,27,205,5650875,,,,,,,2023-01-06,1,,,,,エフ,0
836,3120903004446,新規,0,2023-01-06,2023-01-06,合同会社ビビットキッズ,,合同会社,大阪府,箕面市,箕面５丁目３－１３,,27,220,5620001,,,,,,,2023-01-06,1,,,,,ビビットキッズ,0
855,3130003008413,新規,0,2023-01-06,2023-01-06,リハウズ合同会社,,合同会社,京都府,京都市下京区,朱雀宝蔵町４４番地協栄ビル２階京都朱雀スタジオＧ－４０８,,26,106,6008846,,,,,,,2023-01-06,1,,,,,リハウズ,0
858,3130005016661,新規,0,2023-01-06,2023-01-06,一般社団法人京都・滋賀・奈良３３５‐Ｃ地区ライオンズ,,その他の設立登記法人,京都府,京都市下京区,東堀川通塩小路下る松明町１番地リーガロイヤルホテル京都内,,26,106,6008237,,,,,,,2023-01-06,1,,,,,キョウトシガナラサンサンゴシーチクライオンズ,0
862,3140001128567,新規,0,2023-01-06,2023-01-06,日本観光旅行不動産株式会社,,株式会社,兵庫県,神戸市中央区,花隈町７－１－９０３,,28,110,6500013,,,,,,,2023-01-06,1,,,,,ニホンカンコウリョコウフドウサン,0
863,3140001128591,新規,0,2023-01-06,2023-01-06,千真庭匠株式会社,,株式会社,兵庫県,姫路市,四郷町山脇２２４－１,,28,201,6710248,,,,,,,2023-01-06,1,,,,,センマテイショウ,0
865,3140003018519,新規,0,2023-01-06,2023-01-06,琴美合同会社,,合同会社,兵庫県,芦屋市,西蔵町１０番２号３Ｆ,,28,206,6590026,,,,,,,2023-01-06,1,,,,,コトミ,0
866,3150001026068,新規,0,2023-01-06,2023-01-06,株式会社Ｌｉｆｓ　Ｇａｒｄｅｎ,,株式会社,奈良県,奈良市,法蓮町１２３２番地,,29,201,6308113,,,,,,,2023-01-06,1,,,,,リフスガーデン,0
867,3160003002768,新規,0,2023-01-06,2023-01-06,合同会社ＫＡＹ,,合同会社,滋賀県,東近江市,五個荘河曲町３１６番地２,,25,213,5291411,,,,,,,2023-01-06,1,,,,,カイ,0
880,3180001154411,新規,0,2023-01-06,2023-01-06,株式会社ＯＭホールディングス,,株式会社,愛知県,名古屋市中村区,名駅南１丁目３番１８号,,23,105,4500003,,,,,,,2023-01-06,1,,,,,オーエムホールディングス,0
889,3180003024678,新規,0,2023-01-06,2023-01-06,合同会社ＣＳＣ,,合同会社,愛知県,名古屋市中村区,名駅３丁目４番１０号アルティメイト名駅１ｓｔ２階,,23,105,4500002,,,,,,,2023-01-06,1,,,,,シーエスシー,0
892,3180301036937,新規,0,2023-01-06,2023-01-06,株式会社サンズ,,株式会社,愛知県,豊田市,土橋町４丁目２５番地,,23,211,4710842,,,,,,,2023-01-06,1,,,,,サンズ,0
893,3180301036953,新規,0,2023-01-06,2023-01-06,株式会社ｍａｉｓｏｎ,,株式会社,愛知県,刈谷市,神明町７丁目６０番地,,23,210,4480034,,,,,,,2023-01-06,1,,,,,メゾン,0
894,3180301036961,新規,0,2023-01-06,2023-01-06,株式会社最幸,,株式会社,愛知県,碧南市,港本町４番地２１,,23,209,4470844,,,,,,,2023-01-06,1,,,,,サイコウ,0
897,3180303005551,新規,0,2023-01-06,2023-01-06,合同会社トライブ,,合同会社,愛知県,岡崎市,大和町字家下３８番地,,23,202,4440931,,,,,,,2023-01-06,1,,,,,トライブ,0
899,3190003004183,新規,0,2023-01-06,2023-01-06,合同会社Ｓｔｅｐｕｐ,,合同会社,三重県,四日市市,大池町５９番地１,,24,202,5100866,,,,,,,2023-01-06,1,,,,,ステップアップ,0
900,3190005011780,新規,0,2023-01-06,2023-01-06,税理士法人明鏡止水,,その他の設立登記法人,三重県,津市,観音寺町７６６番地８,,24,201,5140062,,,,,,,2023-01-06,1,,,,,メイキョウシスイ,0
901,3200001040823,新規,0,2023-01-06,2023-01-06,林電工株式会社,,株式会社,岐阜県,美濃加茂市,蜂屋町伊瀬９４１番地５,,21,211,5050006,,,,,,,2023-01-06,1,,,,,ハヤシデンコウ,0
902,3200001040831,新規,0,2023-01-06,2023-01-06,株式会社河合電気,,株式会社,岐阜県,瑞穂市,古橋１６１８番地１,,21,216,5010322,,,,,,,2023-01-06,1,,,,,カワイデンキ,0
904,3200003005790,新規,0,2023-01-06,2023-01-06,合同会社ダイズコーポレーション,,合同会社,岐阜県,恵那市,山岡町久保原１７９－１,,21,210,5097601,,,,,,,2023-01-06,1,,,,,ダイズコーポレーション,0
905,3220003003421,新規,0,2023-01-06,2023-01-06,ＴＫ　ｃｏｍｐａｎｙ合同会社,,合同会社,石川県,金沢市,四十万３丁目３５２番地,,17,201,9218135,,,,,,,2023-01-06,1,,,,,ティーケイカンパニー,0
907,3230003001952,新規,0,2023-01-06,2023-01-06,合同会社まるわキッチン,,合同会社,富山県,魚津市,港町４番５号,,16,204,9370057,,,,,,,2023-01-06,1,,,,,マルワキッチン,0
909,3240001060875,新規,0,2023-01-06,2023-01-06,株式会社広島アルマイト,,株式会社,広島県,東広島市,八本松町宗吉１０５１番地,,34,212,7390145,,,,,,,2023-01-06,1,,,,,ヒロシマアルマイト,0
910,3240001060883,新規,0,2023-01-06,2023-01-06,株式会社三春屋,,株式会社,広島県,呉市,広古新開８丁目２１番２５号,,34,202,7370112,,,,,,,2023-01-06,1,,,,,ミハルヤ,0
911,3240001060900,新規,0,2023-01-06,2023-01-06,株式会社コーヨー産業,,株式会社,広島県,三原市,新倉２丁目７番１８号,,34,204,7230134,,,,,,,2023-01-06,1,,,,,コーヨーサンギョウ,0
912,3240001060909,新規,0,2023-01-06,2023-01-06,東広島建設株式会社,,株式会社,広島県,東広島市,高屋町造賀１０３９６番地３,,34,212,7392101,,,,,,,2023-01-06,1,,,,,ヒガシヒロシマケンセツ,0
923,3280003001683,新規,0,2023-01-06,2023-01-06,合同会社ドルフィン,,合同会社,島根県,出雲市,上島町４０９番地,,32,203,6930101,,,,,,,2023-01-06,1,,,,,ドルフィン,0
926,3290001100032,新規,0,2023-01-06,2023-01-06,株式会社ＥＣＯＫＡＮ,,株式会社,福岡県,福岡市西区,小戸４丁目５番３号,,40,135,8190001,,,,,,,2023-01-06,1,,,,,エコカン,0
927,3290001100098,新規,0,2023-01-06,2023-01-06,株式会社ロイス,,株式会社,福岡県,福岡市中央区,港１丁目９番３０号ル・アーヴル１Ｆ,,40,133,8100075,,,,,,,2023-01-06,1,,,,,ロイス,0
930,3290005018898,新規,0,2023-01-06,2023-01-06,一般社団法人みらい承継協会,,その他の設立登記法人,福岡県,福岡市博多区,冷泉町２番１２号,,40,132,8120039,,,,,,,2023-01-06,1,,,,,ミライショウケイキョウカイ,0
933,3290801029181,新規,0,2023-01-06,2023-01-06,株式会社エスエーケーインターナショナル,,株式会社,福岡県,北九州市八幡東区,前田２丁目２番２３号,,40,108,8050069,,,,,,,2023-01-06,1,,,,,エスエーケーインターナショナル,0
935,3320001019500,新規,0,2023-01-06,2023-01-06,くにとしぶどう園株式会社,,株式会社,大分県,宇佐市,安心院町中山字鳥居原１５９６番７,,44,211,8720525,,,,,,,2023-01-06,1,,,,,クニトシブドウエン,0
938,3330001030464,新規,0,2023-01-06,2023-01-06,Ａｄ　ｉｎｃｅｎｓｅ株式会社,,株式会社,熊本県,熊本市中央区,上通町２－１７,,43,101,8600845,,,,,,,2023-01-06,1,,,,,アドインセンス,0
940,3340001025273,新規,0,2023-01-06,2023-01-06,株式会社なかぞの製茶,,株式会社,鹿児島県,鹿児島市,入佐町２１６番地１,,46,201,8992706,,,,,,,2023-01-06,1,,,,,ナカゾノセイチャ,0
941,3340001025281,新規,0,2023-01-06,2023-01-06,株式会社ハシグチ,,株式会社,鹿児島県,いちき串木野市,湊町２丁目２９番地,,46,219,8992101,,,,,,,2023-01-06,1,,,,,ハシグチ,0
942,3340003004011,新規,0,2023-01-06,2023-01-06,合同会社Ｂｅ　Ｔｗｏ　Ｌａｂ,,合同会社,鹿児島県,姶良市,西餅田３８１番地４,,46,225,8995431,,,,,,,2023-01-06,1,,,,,ビートゥーラボ,0
944,3350001018111,新規,0,2023-01-06,2023-01-06,株式会社三日月堂,,株式会社,宮崎県,日向市,上町４番６号,,45,206,8830044,,,,,,,2023-01-06,1,,,,,ミカヅキドウ,0
949,3360001031393,新規,0,2023-01-06,2023-01-06,株式会社ＳｔｕｄｉｏＣｌａｍｐ,,株式会社,沖縄県,中頭郡西原町,字我謝２４１番地の１３,,47,329,9030112,,,,,,,2023-01-06,1,,,,,スタジオクランプ,0
950,3360003012598,新規,0,2023-01-06,2023-01-06,合同会社ゴリラワークス,,合同会社,沖縄県,那覇市,樋川１丁目１８－８３－１Ｆ,,47,201,9000022,,,,,,,2023-01-06,1,,,,,ゴリラワークス,0
951,3360003012607,新規,0,2023-01-06,2023-01-06,合同会社たまき産業医事務所,,合同会社,沖縄県,那覇市,首里金城町３丁目５番１,,47,201,9030815,,,,,,,2023-01-06,1,,,,,タマキサンギョウイジムショ,0
955,3370001049419,新規,0,2023-01-06,2023-01-06,株式会社ＲｉＫｉＴｏＲａ,,株式会社,宮城県,仙台市泉区,南光台２丁目１０番５３号,,04,105,9818003,,,,,,,2023-01-06,1,,,,,リキトラ,0
956,3370001049427,新規,0,2023-01-06,2023-01-06,株式会社Ｒｉｎｋ．Ｓｔａｎｄａｒｄ,,株式会社,宮城県,仙台市青葉区,本町１丁目１３番１６号,,04,101,9800014,,,,,,,2023-01-06,1,,,,,リンクスタンダード,0
957,3370001049435,新規,0,2023-01-06,2023-01-06,礼株式会社,,株式会社,宮城県,仙台市青葉区,本町２丁目１１番２７号,,04,101,9800014,,,,,,,2023-01-06,1,,,,,レイ,0
959,3380001033371,新規,0,2023-01-06,2023-01-06,株式会社Ｐｅｒｓｏｎ　ｒｉｇｈｔ,,株式会社,福島県,須賀川市,今泉字日向前５０番地２,,07,207,9620301,,,,,,,2023-01-06,1,,,,,パーソンライト,0
961,3390001017118,新規,0,2023-01-06,2023-01-06,株式会社大沼商事,,株式会社,山形県,山形市,大字船町１６５７－１,,06,201,9900894,,,,,,,2023-01-06,1,,,,,オオヌマショウジ,0
964,3410001013361,新規,0,2023-01-06,2023-01-06,株式会社鎌田農産,,株式会社,秋田県,秋田市,河辺豊成字宮下３３番地１,,05,201,0192614,,,,,,,2023-01-06,1,,,,,カマダノウサン,0
968,3430005014619,新規,0,2023-01-06,2023-01-06,一般社団法人Ｎｅｘｔ　Ｃｒｅａｔｉｏｎ　Ｊａｐａｎ,,その他の設立登記法人,北海道,札幌市中央区,南一条西６丁目２０－１ジョブキタビル７Ｆ　ＮＰＯ法人北海道野球協議会内,,01,101,0600061,,,,,,,2023-01-06,1,,,,,ネクストクリエイションジャパン,0
972,3450001013878,新規,0,2023-01-06,2023-01-06,株式会社ＣＡＲ’Ｓクサカ,,株式会社,北海道,紋別市,落石町２丁目１２番３号,,01,219,0940007,,,,,,,2023-01-06,1,,,,,カーズクサカ,0
973,3460001005759,新規,0,2023-01-06,2023-01-06,東星渡部ホールディングス株式会社,,株式会社,北海道,川上郡弟子屈町,美里３丁目５番１号,,01,665,0883215,,,,,,,2023-01-06,1,,,,,トウセイワタベホールディングス,0
974,3470001019411,新規,0,2023-01-06,2023-01-06,株式会社ＴＡＡ,,株式会社,香川県,丸亀市,綾歌町栗熊東４２０－５,,37,202,7612406,,,,,,,2023-01-06,1,,,,,ティーエーエー,0
976,3480003001911,新規,0,2023-01-06,2023-01-06,合同会社ミコラテスラ,,合同会社,徳島県,徳島市,福島２丁目５－５６グランドパインＡ,,36,201,7700868,,,,,,,2023-01-06,1,,,,,,0
980,3500001024696,新規,0,2023-01-06,2023-01-06,株式会社ケイエストレーディング,,株式会社,愛媛県,宇和島市,明倫町４丁目４番２２号,,38,203,7980068,,,,,,,2023-01-06,1,,,,,ケイエストレーディング,0
989,4010001231886,新規,0,2023-01-06,2023-01-06,ＫＢＰ株式会社,,株式会社,東京都,千代田区,丸の内２丁目１番１号明治安田生命ビル１１階,,13,101,1000005,,,,,,,2023-01-06,1,,,,,ケービーピー,0
990,4010001231969,新規,0,2023-01-06,2023-01-06,株式会社ＭＵＳＴＥＭ,,株式会社,東京都,中央区,銀座１丁目２２番１１号銀座大竹ビジデンス２階,,13,102,1040061,,,,,,,2023-01-06,1,,,,,マステム,0
991,4010001232001,新規,0,2023-01-06,2023-01-06,ＧＭＳ株式会社,,株式会社,東京都,千代田区,九段南１丁目５番６号りそな九段ビル５階ＫＳフロア,,13,101,1020074,,,,,,,2023-01-06,1,,,,,ジーエムエス,0
994,4010003039469,新規,0,2023-01-06,2023-01-06,合同会社鳳凰シェアズ,,合同会社,東京都,千代田区,六番町１５番地２,,13,101,1020085,,,,,,,2023-01-06,1,,,,,ホウオウシェアズ,0
995,4010003039485,新規,0,2023-01-06,2023-01-06,合同会社Ａｌｂｅｒｏｎｅ,,合同会社,東京都,中央区,東日本橋２丁目２１番１－２０２号,,13,102,1030004,,,,,,,2023-01-06,1,,,,,アルベローネ,0
997,4010005036076,新規,0,2023-01-06,2023-01-06,一般社団法人デジタルエミッション３号,,その他の設立登記法人,東京都,千代田区,永田町２丁目１０番１号,,13,101,1000014,,,,,,,2023-01-06,1,,,,,デジタルエミッションサンゴウ,0
1009,4010401171641,新規,0,2023-01-06,2023-01-06,ＯＰＩメディカルホールディングス株式会社,,株式会社,東京都,港区,浜松町２丁目４番１号世界貿易センタービル南館,,13,103,1050013,,,,,,,2023-01-06,1,,,,,オーピーアイメディカルホールディングス,0
1010,4010401171674,新規,0,2023-01-06,2023-01-06,株式会社ＨＩＲＯＫＩＹＡ,,株式会社,東京都,港区,六本木５丁目２番６号ＴＫビル３Ｆ,,13,103,1060032,,,,,,,2023-01-06,1,,,,,ヒロキヤ,0
1013,4010405021719,新規,0,2023-01-06,2023-01-06,司法書士法人ＷＥＩＮ,,その他の設立登記法人,東京都,港区,海岸１丁目４番２２号,,13,103,1050022,,,,,,,2023-01-06,1,,,,,ウェイン,0
1022,4010701043672,新規,0,2023-01-06,2023-01-06,バイトム株式会社,,株式会社,東京都,品川区,南大井６丁目１６番４号,,13,109,1400013,,,,,,,2023-01-06,1,,,,,バイトム,0
1023,4010703006520,新規,0,2023-01-06,2023-01-06,合同会社リサコンサルティング,,合同会社,東京都,品川区,西大井６丁目１番１５号,,13,109,1400015,,,,,,,2023-01-06,1,,,,,リサコンサルティング,0
1025,4010901052275,新規,0,2023-01-06,2023-01-06,株式会社共同アセット,,株式会社,東京都,世田谷区,下馬６丁目２４番１２号,,13,112,1540002,,,,,,,2023-01-06,1,,,,,キョウドウアセット,0
1030,4011001151711,新規,0,2023-01-06,2023-01-06,株式会社ＭＩＸＵＥ,,株式会社,東京都,渋谷区,神宮前６丁目６番６号穏田１ｓｔ．ビル１０２号,,13,113,1500001,,,,,,,2023-01-06,1,,,,,ミーシュー,0
1031,4011001151752,新規,0,2023-01-06,2023-01-06,株式会社ＷＡＧＹＵ　ＣＨＡＭＰ,,株式会社,東京都,渋谷区,大山町４６番１８号エステパ代々木上原１０２,,13,113,1510065,,,,,,,2023-01-06,1,,,,,ワギュウチャンプ,0
1032,4011003016029,新規,0,2023-01-06,2023-01-06,ＮＡＭ合同会社,,合同会社,東京都,渋谷区,道玄坂１丁目１０番８号渋谷道玄坂東急ビル２Ｆ－Ｃ,,13,113,1500043,,,,,,,2023-01-06,1,,,,,ナム,0
1033,4011003016037,新規,0,2023-01-06,2023-01-06,尚拓合同会社,,合同会社,東京都,渋谷区,代々木５丁目５７－８パークサイド参宮橋１階,,13,113,1510053,,,,,,,2023-01-06,1,,,,,ナオヒロ,0
1036,4011101101351,新規,0,2023-01-06,2023-01-06,株式会社Ｓｕｎｎｙ　ａｓｓｉｓｔ,,株式会社,東京都,新宿区,北新宿１丁目７番３号シャトー後平３０２,,13,104,1690074,,,,,,,2023-01-06,1,,,,,サニーアシスト,0
1037,4011203003974,新規,0,2023-01-06,2023-01-06,合同会社実呂,,合同会社,東京都,中野区,中央３丁目３９番２４号,,13,114,1640011,,,,,,,2023-01-06,1,,,,,ミロ,0
1039,4011301028361,新規,0,2023-01-06,2023-01-06,株式会社ＫＡＹＬＥＹ,,株式会社,東京都,杉並区,西荻北３丁目４４番５号１０６号,,13,115,1670042,,,,,,,2023-01-06,1,,,,,ケイリー,0
1043,4011401024806,新規,0,2023-01-06,2023-01-06,株式会社Ｍ．Ｂ．Ｃ,,株式会社,東京都,板橋区,常盤台４丁目２５番１４号２Ｆ,,13,119,1740071,,,,,,,2023-01-06,1,,,,,エムビーシー,0
1044,4011401024814,新規,0,2023-01-06,2023-01-06,アクトＡ．Ｅ．Ｉ．株式会社,,株式会社,東京都,板橋区,富士見町５番１６号第二板橋荘２０２,,13,119,1740062,,,,,,,2023-01-06,1,,,,,アクトエーイーアイ,0
1046,4011603003789,新規,0,2023-01-06,2023-01-06,合同会社プレヴナンス,,合同会社,東京都,練馬区,石神井町２丁目８番３０号コスモハイツ１０３号室,,13,120,1770041,,,,,,,2023-01-06,1,,,,,プレヴナンス,0
1048,4011801041748,新規,0,2023-01-06,2023-01-06,株式会社Ｐｉｏｎｅｅｒｓ　ｏｆ　ｔｈｅ　Ｓｔａｒｓ,,株式会社,東京都,葛飾区,奥戸１丁目６番１０号,,13,122,1240022,,,,,,,2023-01-06,1,,,,,パイオニアズオブザスターズ,0
1059,4013301050147,新規,0,2023-01-06,2023-01-06,株式会社ＬＯＢＢＹＴＯＤＤＹ,,株式会社,東京都,豊島区,東池袋１丁目２８番１号,,13,116,1700013,,,,,,,2023-01-06,1,,,,,ロビートディー,0
1068,4020001149624,新規,0,2023-01-06,2023-01-06,株式会社わっきー,,株式会社,神奈川県,横浜市保土ケ谷区,和田町１－７－２９,,14,106,2400000,,,,,,,2023-01-06,1,,,,,ワッキー,0
1069,4020001149632,新規,0,2023-01-06,2023-01-06,株式会社平林設備,,株式会社,神奈川県,横浜市都筑区,茅ケ崎中央４２－２３－１００５,,14,118,2240032,,,,,,,2023-01-06,1,,,,,ヒラバヤシセツビ,0
1070,4020001149649,新規,0,2023-01-06,2023-01-06,株式会社ＴＹＣＯ‐ＯＮ,,株式会社,神奈川県,横浜市神奈川区,富家町１番地１３スカイハイツトーカイ１９０４号,,14,102,2210821,,,,,,,2023-01-06,1,,,,,タイクーン,0
1071,4020001149657,新規,0,2023-01-06,2023-01-06,燦々堂株式会社,,株式会社,神奈川県,川崎市高津区,二子５丁目１４－２９,,14,134,2130002,,,,,,,2023-01-06,1,,,,,サンサンドウ,0
1072,4020001149665,新規,0,2023-01-06,2023-01-06,株式会社ｙｕ‐ｍｅ,,株式会社,神奈川県,横浜市港北区,日吉本町１丁目２番９号,,14,109,2230062,,,,,,,2023-01-06,1,,,,,ユーミィー,0
1073,4020001149681,新規,0,2023-01-06,2023-01-06,株式会社日成ホッグサポート,,株式会社,神奈川県,横浜市泉区,和泉中央南１丁目３８番４６号,,14,116,2450023,,,,,,,2023-01-06,1,,,,,ニッセイホッグサポート,0
1074,4020003023001,新規,0,2023-01-06,2023-01-06,ＬＧ建業合同会社,,合同会社,神奈川県,横浜市鶴見区,豊岡町１８番９－５０２号,,14,101,2300062,,,,,,,2023-01-06,1,,,,,エルジーケンギョウ,0
1075,4020003023034,新規,0,2023-01-06,2023-01-06,クラウドコスト合同会社,,合同会社,神奈川県,横浜市西区,浅間町１丁目４番３号ウィザードビル４０２,,14,103,2200072,,,,,,,2023-01-06,1,,,,,クラウドコスト,0
1083,4030001151703,新規,0,2023-01-06,2023-01-06,株式会社ＳＴＡ,,株式会社,埼玉県,八潮市,八潮８丁目６番地２２,,11,234,3400815,,,,,,,2023-01-06,1,,,,,エスティーエー,0
1084,4030001151711,新規,0,2023-01-06,2023-01-06,株式会社ヨツバ商事,,株式会社,埼玉県,川口市,川口５丁目１１番１６号,,11,203,3320015,,,,,,,2023-01-06,1,,,,,ヨツバショウジ,0
1085,4030001151728,新規,0,2023-01-06,2023-01-06,株式会社バックアップ,,株式会社,埼玉県,春日部市,増富４５４番地４,,11,214,3440041,,,,,,,2023-01-06,1,,,,,バックアップ,0
1086,4030001151736,新規,0,2023-01-06,2023-01-06,株式会社亀井電気,,株式会社,埼玉県,行田市,大字埼玉３５２０番地２,,11,206,3610025,,,,,,,2023-01-06,1,,,,,カメイデンキ,0
1087,4030005021101,新規,0,2023-01-06,2023-01-06,ＮＰＯ法人ラパン,,その他の設立登記法人,埼玉県,越谷市,南越谷１丁目６番７５号ジュネシオン新越谷８０６,,11,222,3430845,,,,,,,2023-01-06,1,,,,,ラパン,0
1093,4040001126456,新規,0,2023-01-06,2023-01-06,株式会社佐藤内装,,株式会社,千葉県,市川市,平田１丁目５番１０号,,12,203,2720031,,,,,,,2023-01-06,1,,,,,サトウナイソウ,0
1094,4040001126480,新規,0,2023-01-06,2023-01-06,株式会社佐野園芸,,株式会社,千葉県,館山市,布沼８２６番地,,12,205,2940221,,,,,,,2023-01-06,1,,,,,サノエンゲイ,0
1102,4040003021606,新規,0,2023-01-06,2023-01-06,合同会社エネイブルメント研究所,,合同会社,千葉県,船橋市,海神３丁目２９番１８号,,12,204,2730021,,,,,,,2023-01-06,1,,,,,エネイブルメントケンキュウジョ,0
1104,4050001052164,新規,0,2023-01-06,2023-01-06,株式会社武居企画,,株式会社,茨城県,水戸市,文京２丁目５番１号,,08,201,3100056,,,,,,,2023-01-06,1,,,,,タケイキカク,0
1106,4060001035572,新規,0,2023-01-06,2023-01-06,株式会社アグリバックス,,株式会社,栃木県,さくら市,卯の里３丁目３１番地４ウィンベルコーポ８０６,,09,214,3291323,,,,,,,2023-01-06,1,,,,,アグリバックス,0
1111,4070001039969,新規,0,2023-01-06,2023-01-06,株式会社十坊,,株式会社,群馬県,桐生市,本町１丁目４番１３号,,10,203,3760031,,,,,,,2023-01-06,1,,,,,テンボウ,0
1112,4070001039977,新規,0,2023-01-06,2023-01-06,株式会社ブリッジ,,株式会社,群馬県,伊勢崎市,市場町１丁目３０５番地１０,,10,204,3792211,,,,,,,2023-01-06,1,,,,,ブリッジ,0
1120,4080405007513,新規,0,2023-01-06,2023-01-06,行政書士法人佐原事務所,,その他の設立登記法人,静岡県,湖西市,新居町新居１１４番地の３,,22,221,4310302,,,,,,,2023-01-06,1,,,,,サハラジムショ,0
1133,4120001251411,新規,0,2023-01-06,2023-01-06,海神株式会社,,株式会社,大阪府,大阪市中央区,内淡路町２丁目３番１号ＥＨＨ大手前２０２号室,,27,128,5400038,,,,,,,2023-01-06,1,,,,,カイジン,0
1134,4120001251428,新規,0,2023-01-06,2023-01-06,株式会社ＣＯＬＰＩＴＯ,,株式会社,大阪府,寝屋川市,打上高塚町１番３号ふぁみーゆ寝屋川セントラルパークＣ棟１１３８号室,00128957,27,215,5720850,,,,,,,2023-01-06,1,,,,,コルピト,0
1135,4120001251436,新規,0,2023-01-06,2023-01-06,黒鳥雲端株式会社,,株式会社,大阪府,大阪市中央区,高津３丁目８－１９スターレジデンス黒門２０１号室,,27,128,5420072,,,,,,,2023-01-06,1,,,,,コクチョウウンズイ,0
1136,4120001251477,新規,0,2023-01-06,2023-01-06,リサイト株式会社,,株式会社,大阪府,大阪市中央区,南船場１丁目１０番１２号ラインビルド南船場１００４号室,,27,128,5420081,,,,,,,2023-01-06,1,,,,,リサイト,0
1137,4120001251493,新規,0,2023-01-06,2023-01-06,株式会社ｅｎ,,株式会社,大阪府,大阪市中央区,松屋町６－１０朱勝ガーデン１０１,,27,128,5420067,,,,,,,2023-01-06,1,,,,,エン,0
1138,4120001251502,新規,0,2023-01-06,2023-01-06,株式会社ＴＩＮＹＲＯＣＫ,,株式会社,大阪府,大阪市中央区,瓦屋町１丁目２番１１―２０１号,,27,128,5420066,,,,,,,2023-01-06,1,,,,,タイニーロック,0
1139,4120001251510,新規,0,2023-01-06,2023-01-06,株式会社エクスクラメーションズ,,株式会社,大阪府,大阪市福島区,福島５丁目１４番８号,,27,103,5530003,,,,,,,2023-01-06,1,,,,,エクスクラメーションズ,0
1140,4120001251527,新規,0,2023-01-06,2023-01-06,株式会社プレイセリオスリースポーツクラブ,,株式会社,大阪府,大阪市阿倍野区,阿倍野筋３丁目５－１７－３０１,,27,119,5450052,,,,,,,2023-01-06,1,,,,,プレイセリオスリースポーツクラブ,0
1141,4120001251535,新規,0,2023-01-06,2023-01-06,株式会社アイ・ティー・エス,,株式会社,大阪府,大阪市北区,梅田１丁目２番２号大阪駅前第２ビル１２－１２,,27,127,5300001,,,,,,,2023-01-06,1,,,,,アイティーエス,0
1142,4120001251543,新規,0,2023-01-06,2023-01-06,株式会社リフォーム・ライト,,株式会社,大阪府,大阪市東淀川区,豊新４丁目１３番６号,,27,114,5330014,,,,,,,2023-01-06,1,,,,,リフォームライト,0
1143,4120001251551,新規,0,2023-01-06,2023-01-06,株式会社ＣＳＭ,,株式会社,大阪府,大阪市東淀川区,東中島２丁目２番１７号,,27,114,5330033,,,,,,,2023-01-06,1,,,,,シーエスエム,0
1146,4120003023172,新規,0,2023-01-06,2023-01-06,ＡＺＩＩＴＡＩ合同会社,,合同会社,大阪府,大阪市平野区,瓜破西１丁目１１番４－６０３号,,27,126,5470025,,,,,,,2023-01-06,1,,,,,アジタイ,0
1147,4120003023180,新規,0,2023-01-06,2023-01-06,合同会社ネコチャン,,合同会社,大阪府,大阪市北区,梅田１丁目２番２号大阪駅前第２ビル１２－１２,,27,127,5300001,,,,,,,2023-01-06,1,,,,,ネコチャン,0
1148,4120003023189,新規,0,2023-01-06,2023-01-06,ＳＨＡＲＥ　ＨＡＰＰＹ　ＪＡＰＡＮ合同会社,,合同会社,大阪府,大阪市中央区,南本町１丁目３－９サンコービル船場９１０号室,,27,128,5410054,,,,,,,2023-01-06,1,,,,,シェアハッピージャパン,0
1150,4120005023377,新規,0,2023-01-06,2023-01-06,一般社団法人ＯＲＩＥＣＣ,,その他の設立登記法人,大阪府,大阪市東淀川区,瑞光１丁目８番１２号ノーヴァ鍵本Ｇ号室,,27,114,5330005,,,,,,,2023-01-06,1,,,,,オリエック,0
1153,4120101066759,新規,0,2023-01-06,2023-01-06,株式会社アルファスホーム,,株式会社,大阪府,和泉市,鶴山台１丁目２９番６号,,27,219,5940013,,,,,,,2023-01-06,1,,,,,アルファスホーム,0
1154,4120103005005,新規,0,2023-01-06,2023-01-06,合同会社尾崎鋼業,00128963,合同会社,大阪府,堺市南区,庭代台１丁２３番９－３０５号,,27,145,5900133,,,,,,,2023-01-06,1,,,,,オザキコウギョウ,0
1158,4120901046935,新規,0,2023-01-06,2023-01-06,株式会社渡,,株式会社,大阪府,吹田市,春日４丁目２番１－２１３号,,27,205,5650853,,,,,,,2023-01-06,1,,,,,ワタリ,0
1168,4130003008420,新規,0,2023-01-06,2023-01-06,合同会社こども共育舎,,合同会社,京都府,京都市左京区,岩倉三笠町２８番地,,26,103,6060008,,,,,,,2023-01-06,1,,,,,コドモキョウイクシャ,0
1174,4140001128590,新規,0,2023-01-06,2023-01-06,株式会社ヘソノオ・パブリッシング,,株式会社,兵庫県,西脇市,西脇２９９ヘソノオプレイス２,,28,213,6770015,,,,,,,2023-01-06,1,,,,,ヘソノオパブリッシング,0
1175,4140001128608,新規,0,2023-01-06,2023-01-06,株式会社ａｒｔ,,株式会社,兵庫県,神戸市中央区,北長狭通１丁目２番６号白蘭ビル７Ｆ,,28,110,6500012,,,,,,,2023-01-06,1,,,,,アート,0
1176,4140001128649,新規,0,2023-01-06,2023-01-06,株式会社１４０,,株式会社,兵庫県,姫路市,岡田１５０番地４,,28,201,6700982,,,,,,,2023-01-06,1,,,,,イシオ,0
1179,4150001026059,新規,0,2023-01-06,2023-01-06,株式会社フォレストスクエア,,株式会社,奈良県,奈良市,八条１丁目８１４番地の５,,29,201,6308145,,,,,,,2023-01-06,1,,,,,フォレストスクエア,0
1182,4160001024739,新規,0,2023-01-06,2023-01-06,安土バイオ株式会社,,株式会社,滋賀県,甲賀市,信楽町神山２０８４番地,,25,209,5291812,,,,,,,2023-01-06,1,,,,,アヅチバイオ,0
1193,4180001154393,新規,0,2023-01-06,2023-01-06,ロック産業株式会社,,株式会社,愛知県,江南市,宮後町砂場東３３３番地,,23,217,4838044,,,,,,,2023-01-06,1,,,,,ロックサンギョウ,0
1194,4180001154402,新規,0,2023-01-06,2023-01-06,株式会社ＧＬＡＤＷＯＲＫ,,株式会社,愛知県,名古屋市西区,比良２丁目３１３番地,,23,104,4520802,,,,,,,2023-01-06,1,,,,,グラッドワーク,0
1195,4180001154410,新規,0,2023-01-06,2023-01-06,株式会社ホムトモ,,株式会社,愛知県,半田市,平和町６丁目５６番地,,23,205,4750963,,,,,,,2023-01-06,1,,,,,ホムトモ,0
1198,4180003024652,新規,0,2023-01-06,2023-01-06,合同会社Ｋ＆Ｋ,,合同会社,愛知県,名古屋市西区,名駅２丁目２９－２８グランディル名古屋３０６号,,23,104,4510045,,,,,,,2023-01-06,1,,,,,ケアンドケ,0
1199,4180003024677,新規,0,2023-01-06,2023-01-06,合同会社Ｌｉｍ,,合同会社,愛知県,名古屋市東区,代官町２７番３０号シティテラス名古屋代官町１４０８号,,23,102,4610002,,,,,,,2023-01-06,1,,,,,リン,0
1202,4180005020063,新規,0,2023-01-06,2023-01-06,医療法人増田歯科医院,,その他の設立登記法人,愛知県,名古屋市東区,東桜２丁目２３番１０号,,23,102,4610005,,,,,,,2023-01-06,1,,,,,マスダシカイイン,0
1203,4180005020071,新規,0,2023-01-06,2023-01-06,医療法人利真会,,その他の設立登記法人,愛知県,名古屋市中川区,野田２丁目９１番,,23,110,4540912,,,,,,,2023-01-06,1,,,,,リッシンカイ,0
1205,4180301036952,新規,0,2023-01-06,2023-01-06,株式会社愛知動物外科病院,,株式会社,愛知県,岡崎市,上地２丁目１７番地１,,23,202,4440823,,,,,,,2023-01-06,1,,,,,アイチドウブツゲカビョウイン,0
1206,4180301036960,新規,0,2023-01-06,2023-01-06,渥美太陽農園株式会社,,株式会社,愛知県,豊橋市,野依町字上原２６番地,,23,201,4418124,,,,,,,2023-01-06,1,,,,,アツミタイヨウノウエン,0
1207,4190001030065,新規,0,2023-01-06,2023-01-06,株式会社リベレ,,株式会社,三重県,いなべ市,藤原町上相場９４１番地,,24,214,5110502,,,,,,,2023-01-06,1,,,,,リベレ,0
1208,4190001030073,新規,0,2023-01-06,2023-01-06,株式会社エール,,株式会社,三重県,四日市市,鵜の森２丁目３番１４号,,24,202,5100074,,,,,,,2023-01-06,1,,,,,エール,0
1210,4200001040822,新規,0,2023-01-06,2023-01-06,株式会社Ｔｒｏｉｓ　Ｃｏｕｌｅｕｒｓ,,株式会社,岐阜県,可児市,広見１８５４番地和晃ビルＡ,,21,214,5090214,,,,,,,2023-01-06,1,,,,,トワクルール,0
1212,4220001025202,新規,0,2023-01-06,2023-01-06,株式会社アサヒ冷機,,株式会社,石川県,金沢市,問屋町３丁目２４－１,,17,201,9200061,,,,,,,2023-01-06,1,,,,,アサヒレイキ,0
1214,4220003003429,新規,0,2023-01-06,2023-01-06,合同会社トライアングル,,合同会社,石川県,金沢市,千木町ル９０番地６,,17,201,9200001,,,,,,,2023-01-06,1,,,,,トライアングル,0
1217,4230005009274,新規,0,2023-01-06,2023-01-06,一般社団法人富山県バレーボール普及協会,,その他の設立登記法人,富山県,富山市,西二俣４２７番地,,16,201,9300177,,,,,,,2023-01-06,1,,,,,トヤマケンバレーボールフキュウキョウカイ,0
1219,4240001060874,新規,0,2023-01-06,2023-01-06,株式会社やさい工房くろぶち,,株式会社,広島県,世羅郡世羅町,大字黒渕４７１番地１,,34,462,7221732,,,,,,,2023-01-06,1,,,,,ヤサイコウボウクロブチ,0
1220,4240001060882,新規,0,2023-01-06,2023-01-06,株式会社ヴェリタス,,株式会社,広島県,廿日市市,大野３４０６番地１７,,34,213,7390488,,,,,,,2023-01-06,1,,,,,ヴェリタス,0
1221,4240001060890,新規,0,2023-01-06,2023-01-06,株式会社正建,,株式会社,広島県,安芸郡海田町,東２丁目３番１６号,,34,304,7360013,,,,,,,2023-01-06,1,,,,,マサケン,0
1222,4240001060916,新規,0,2023-01-06,2023-01-06,株式会社Ｌａ　Ｆｏｎｔａｎａ,,株式会社,広島県,広島市安佐南区,祇園２丁目３番２号,,34,105,7310138,,,,,,,2023-01-06,1,,,,,ラフォンターナ,0
1224,4260001037532,新規,0,2023-01-06,2023-01-06,株式会社井原会計サポート,,株式会社,岡山県,井原市,上出部町３８６番地１０,,33,207,7150021,,,,,,,2023-01-06,1,,,,,イバラカイケイサポート,0
1229,4290001100089,新規,0,2023-01-06,2023-01-06,鳥飼技建株式会社,,株式会社,福岡県,大野城市,乙金２丁目４番２０号,,40,219,8160902,,,,,,,2023-01-06,1,,,,,トリカイギケン,0
1230,4290001100097,新規,0,2023-01-06,2023-01-06,株式会社ＴＯＤＡＹ,,株式会社,福岡県,福岡市南区,桧原１丁目３７番２７号,,40,134,8111355,,,,,,,2023-01-06,1,,,,,トゥデイ,0
1231,4290001100106,新規,0,2023-01-06,2023-01-06,株式会社工建スタッフ,,株式会社,福岡県,福岡市中央区,桜坂１丁目１番１号,,40,133,8100024,,,,,,,2023-01-06,1,,,,,コウケンスタッフ,0
1235,4290005018897,新規,0,2023-01-06,2023-01-06,医療法人結紀会やまもとホームクリニック,,その他の設立登記法人,福岡県,福岡市西区,石丸３丁目１番４２号,,40,135,8190025,,,,,,,2023-01-06,1,,,,,ユウキカイヤマモトホームクリニック,0
1236,4290801029172,新規,0,2023-01-06,2023-01-06,山陽建機株式会社,,株式会社,福岡県,京都郡みやこ町,勝山黒田６３５番地１,,40,625,8240822,,,,,,,2023-01-06,1,,,,,サンヨウケンキ,0
1237,4310001018205,新規,0,2023-01-06,2023-01-06,株式会社小松,,株式会社,長崎県,西彼杵郡時津町,日並郷３６６１番地,,42,308,8512108,,,,,,,2023-01-06,1,,,,,コマツ,0
1240,4320001019499,新規,0,2023-01-06,2023-01-06,戎工業株式会社,,株式会社,大分県,別府市,楠町６－１５,,44,202,8740943,,,,,,,2023-01-06,1,,,,,エビスコウギョウ,0
1245,4330003009662,新規,0,2023-01-06,2023-01-06,合同会社長松ビジネスセンター,,合同会社,熊本県,熊本市北区,麻生田４丁目１３番３号,,43,105,8618081,,,,,,,2023-01-06,1,,,,,ナガマツビジネスセンター,0
1247,4350001018110,新規,0,2023-01-06,2023-01-06,株式会社ＴＯ‐ＵＰ,,株式会社,宮崎県,延岡市,無鹿町２丁目３２２４番地,,45,203,8820021,,,,,,,2023-01-06,1,,,,,トゥーアップ,0
1248,4360003012614,新規,0,2023-01-06,2023-01-06,合同会社フロンティアみなみ,,合同会社,沖縄県,那覇市,首里山川町１丁目１６番地,,47,201,9030825,,,,,,,2023-01-06,1,,,,,フロンティアミナミ,0
1250,4370001049426,新規,0,2023-01-06,2023-01-06,株式会社Ｋ＆Ｍ,,株式会社,宮城県,塩竈市,大日向町４０番１号,,04,203,9850046,,,,,,,2023-01-06,1,,,,,ケーアンドエム,0
1251,4370001049434,新規,0,2023-01-06,2023-01-06,株式会社シャイニングハート,,株式会社,宮城県,仙台市青葉区,五橋２丁目１０番１８号,,04,101,9800022,,,,,,,2023-01-06,1,,,,,シャイニングハート,0
1254,4380001033370,新規,0,2023-01-06,2023-01-06,株式会社ＴＫテクノ,,株式会社,福島県,郡山市,静町２９番７号,,07,203,9630203,,,,,,,2023-01-06,1,,,,,ティーケーテクノ,0
1255,4380001033379,新規,0,2023-01-06,2023-01-06,株式会社ドローン技術研究所,,株式会社,福島県,双葉郡大熊町,大字下野上字清水２３０,,07,545,9791308,,,,,,,2023-01-06,1,,,,,ドローンギジュツケンキュウジョ,0
1257,4390001017117,新規,0,2023-01-06,2023-01-06,株式会社岡崎農園,,株式会社,山形県,西村山郡河北町,谷地庚１１０３番地,,06,321,9993511,,,,,,,2023-01-06,1,,,,,オカザキノウエン,0
1258,4390001017125,新規,0,2023-01-06,2023-01-06,株式会社Ｃｏｕｆｆｕ,,株式会社,山形県,山形市,若宮３丁目７番８号イオンモール山形南２階クールカレアン内,,06,201,9902453,,,,,,,2023-01-06,1,,,,,クッフ,0
1261,4410001013360,新規,0,2023-01-06,2023-01-06,株式会社セレクト,,株式会社,秋田県,秋田市,飯島新町２丁目８番２９号,,05,201,0110947,,,,,,,2023-01-06,1,,,,,セレクト,0
1262,4420001018111,新規,0,2023-01-06,2023-01-06,株式会社佐藤総建,,株式会社,青森県,平川市,石郷柳田５１番地２０,,02,210,0360151,,,,,,,2023-01-06,1,,,,,サトウソウケン,0
1265,4460101007308,新規,0,2023-01-06,2023-01-06,株式会社大井設備工業,,株式会社,北海道,帯広市,西十九条南２丁目３５番８号,,01,207,0802469,,,,,,,2023-01-06,1,,,,,オオイセツビコウギョウ,0
1267,4480003001910,新規,0,2023-01-06,2023-01-06,合同会社ＴＫＣ,,合同会社,徳島県,板野郡板野町,大寺字露ノ口６４番地２,,36,404,7790105,,,,,,,2023-01-06,1,,,,,ティーケーシー,0
1277,5010001231984,新規,0,2023-01-06,2023-01-06,株式会社ＭＰＦシステム,,株式会社,東京都,中央区,日本橋小網町１６番１４号,,13,102,1030016,,,,,,,2023-01-06,1,,,,,エムピーエフシステム,0
1278,5010001231992,新規,0,2023-01-06,2023-01-06,トコヨクリエーション株式会社,,株式会社,東京都,千代田区,外神田２丁目２番３号,,13,101,1010021,,,,,,,2023-01-06,1,,,,,トコヨクリエーション,0
1279,5010001232000,新規,0,2023-01-06,2023-01-06,株式会社リアライズ,,株式会社,東京都,中央区,銀座１丁目２２番１１号銀座大竹ビジデンス,,13,102,1040061,,,,,,,2023-01-06,1,,,,,リアライズ,0
1280,5010001232009,新規,0,2023-01-06,2023-01-06,株式会社インスデック,,株式会社,東京都,千代田区,九段南４丁目７番２４号トゥーラント８８ビル２０２,,13,101,1020074,,,,,,,2023-01-06,1,,,,,インスデック,0
1282,5010003039468,新規,0,2023-01-06,2023-01-06,自然エネルギーＳＥＢＥ１合同会社,,合同会社,東京都,千代田区,丸の内３丁目１番１号東京共同会計事務所内,,13,101,1000005,,,,,,,2023-01-06,1,,,,,シゼンエネルギーエスイービーイーワン,0
1289,5010401171657,新規,0,2023-01-06,2023-01-06,株式会社エムワイ,,株式会社,東京都,港区,南青山３丁目１番３６号青山丸竹ビル６Ｆ,,13,103,1070062,,,,,,,2023-01-06,1,,,,,エムワイ,0
1290,5010401171665,新規,0,2023-01-06,2023-01-06,株式会社ＲＨＬ,,株式会社,東京都,港区,元赤坂１丁目７番１８,,13,103,1070051,,,,,,,2023-01-06,1,,,,,アールエイチエル,0
1296,5010403029234,新規,0,2023-01-06,2023-01-06,友盛通商合同会社,,合同会社,東京都,港区,新橋６丁目５番４号２階,,13,103,1050004,,,,,,,2023-01-06,1,,,,,ユウセイツウショウ,0
1297,5010405021718,新規,0,2023-01-06,2023-01-06,ＷＥＩＮ税理士法人,,その他の設立登記法人,東京都,港区,海岸１丁目４番２２号,,13,103,1050022,,,,,,,2023-01-06,1,,,,,ウェイン,0
1301,5010601062383,新規,0,2023-01-06,2023-01-06,皓陽株式会社,,株式会社,東京都,墨田区,堤通１丁目１０番２号,,13,107,1310034,,,,,,,2023-01-06,1,,,,,コウヨウ,0
1305,5010905004412,新規,0,2023-01-06,2023-01-06,一般社団法人サスティナブルヘルス＆ビューティー協会,,その他の設立登記法人,東京都,世田谷区,祖師谷５丁目１７番２５号,,13,112,1570072,,,,,,,2023-01-06,1,,,,,サスティナブルヘルスアンドビューティーキョウカイ,0
1311,5011001151743,新規,0,2023-01-06,2023-01-06,株式会社ｍｉｅｕｘ,,株式会社,東京都,渋谷区,恵比寿南３丁目１１番２５－６１０号,,13,113,1500022,,,,,,,2023-01-06,1,,,,,ミュウ,0
1327,5011301028352,新規,0,2023-01-06,2023-01-06,ＩＮ株式会社,,株式会社,東京都,杉並区,下井草３丁目２７－３サンハイツ２０３,,13,115,1670022,,,,,,,2023-01-06,1,,,,,,0
1328,5011301028360,新規,0,2023-01-06,2023-01-06,株式会社Ｒｅｃｌａｉｍ,,株式会社,東京都,杉並区,久我山４丁目４１番１７号,,13,115,1680082,,,,,,,2023-01-06,1,,,,,リクレイム,0
1329,5011403003864,新規,0,2023-01-06,2023-01-06,ＳＲ合同会社,,合同会社,東京都,板橋区,大山東町５８番１９号,,13,119,1730014,,,,,,,2023-01-06,1,,,,,エスアール,0
1337,5012401040040,新規,0,2023-01-06,2023-01-06,ＤＯＧＧＯ　Ｃｏｍｐａｎｙ株式会社,,株式会社,東京都,調布市,西つつじケ丘３丁目２６番７号アーバンフラッツＭＡ２０３,,13,208,1820006,,,,,,,2023-01-06,1,,,,,ドッグゴーカンパニー,0
1341,5012701017416,新規,0,2023-01-06,2023-01-06,株式会社森田表計算,,株式会社,東京都,西東京市,谷戸町３丁目１３番１２号イマーブル・シュシュ１０１号,,13,229,1880001,,,,,,,2023-01-06,1,,,,,モリタヒョウケイサン,0
1342,5012801022051,新規,0,2023-01-06,2023-01-06,株式会社ＭＲ,,株式会社,東京都,武蔵村山市,神明２丁目５１番地の７,,13,223,2080002,,,,,,,2023-01-06,1,,,,,エムアール,0
1354,5020001149631,新規,0,2023-01-06,2023-01-06,ＮｅｘｔＳｍｉｌｅ株式会社,,株式会社,神奈川県,横浜市西区,浅間町１丁目５番１号ＹＴビル１Ｆ－Ｂ,,14,103,2200072,,,,,,,2023-01-06,1,,,,,ネクストスマイル,0
1355,5020001149656,新規,0,2023-01-06,2023-01-06,シーアールビー株式会社,,株式会社,神奈川県,横浜市港南区,東永谷１丁目３１番１０号,,14,111,2330011,,,,,,,2023-01-06,1,,,,,シーアールビー,0
1356,5020001149664,新規,0,2023-01-06,2023-01-06,ＡＪ　Ｔｒａｄｅ株式会社,,株式会社,神奈川県,川崎市多摩区,登戸２５９６番地３,,14,135,2140014,,,,,,,2023-01-06,1,,,,,アージェートレード,0
1358,5020003022992,新規,0,2023-01-06,2023-01-06,Ｓｕｎａｄａ　ｐｒｏｄｕｃｔｉｏｎｓ　ａｎｄ　Ｃｏａｃｈｉｎｇ合同会社,,合同会社,神奈川県,横浜市泉区,岡津町１６２０番地５６,,14,116,2450003,,,,,,,2023-01-06,1,,,,,スナダプロダクションズアンドコーチング,0
1359,5021001077839,新規,0,2023-01-06,2023-01-06,栄盛商事株式会社,,株式会社,神奈川県,足柄上郡開成町,吉田島４２８２番地１６,,14,366,2580021,,,,,,,2023-01-06,1,,,,,サカモリショウジ,0
1360,5021001077863,新規,0,2023-01-06,2023-01-06,株式会社ＭＩＮＯＳ,,株式会社,神奈川県,藤沢市,大庭５５２６番地の２０ＭＩＮＡＳＩＡ湘南ライフタウンＰ１０８号,,14,205,2510861,,,,,,,2023-01-06,1,,,,,ミノス,0
1361,5021001077888,新規,0,2023-01-06,2023-01-06,株式会社湘南国際調達サービス,,株式会社,神奈川県,藤沢市,片瀬１丁目５番４３号,,14,205,2510032,,,,,,,2023-01-06,1,,,,,ショウナンコクサイチョウタツサービス,0
1364,5021002056692,新規,0,2023-01-06,2023-01-06,有限会社飯尾工務店,,有限会社,神奈川県,平塚市,千石河岸２７番１５号,,14,203,2540803,,,,,,,2023-01-06,1,,,,,イイオコウムテン,0
1373,5030001151636,新規,0,2023-01-06,2023-01-06,株式会社Ｇｌｉｔｔｅｒ,,株式会社,埼玉県,鶴ヶ島市,大字脚折１５７９番地１,,11,241,3502213,,,,,,,2023-01-06,1,,,,,,0
1374,5030001151693,新規,0,2023-01-06,2023-01-06,東昇株式会社,,株式会社,埼玉県,川口市,仲町１３番４３号,,11,203,3320022,,,,,,,2023-01-06,1,,,,,トウショウ,0
1376,5030003020871,新規,0,2023-01-06,2023-01-06,合同会社ビクトリー,,合同会社,埼玉県,川越市,広谷新町３３番地６,,11,201,3500805,,,,,,,2023-01-06,1,,,,,ビクトリー,0
1377,5040001126447,新規,0,2023-01-06,2023-01-06,株式会社Ｍ．Ａオート,,株式会社,千葉県,八街市,文違３０１番地２２１５,,12,230,2891104,,,,,,,2023-01-06,1,,,,,エムエーオート,0
1378,5040001126455,新規,0,2023-01-06,2023-01-06,株式会社Ｇｅｎｅｓｉｓ　ａｃｔｉｖｉｔｙ,,株式会社,千葉県,市川市,稲荷木１丁目２番１－３０１号（テラス本八幡）,,12,203,2720024,,,,,,,2023-01-06,1,,,,,ジェネシスアクティビティ,0
1379,5040001126488,新規,0,2023-01-06,2023-01-06,鴻＿金属株式会社,00128966,株式会社,千葉県,千葉市若葉区,中田町２４４２番地,,12,104,2650043,,,,,,,2023-01-06,1,,,,,ホンハオキンゾク,0
1383,5050001052171,新規,0,2023-01-06,2023-01-06,株式会社Ｉ’ｍＯ,,株式会社,茨城県,土浦市,小岩田東１丁目８番２５号,,08,203,3000834,,,,,,,2023-01-06,1,,,,,アイムオー,0
1384,5050001052188,新規,0,2023-01-06,2023-01-06,株式会社Ｋ＆Ｇ,,株式会社,茨城県,つくば市,さくらの森５番地３２,,08,220,3050019,,,,,,,2023-01-06,1,,,,,ケーアンドジー,0
1386,5060001035571,新規,0,2023-01-06,2023-01-06,株式会社チアシーク,,株式会社,栃木県,小山市,中久喜５丁目１４番１５号,,09,208,3230806,,,,,,,2023-01-06,1,,,,,チアシーク,0
1389,5070001039968,新規,0,2023-01-06,2023-01-06,株式会社ＮＩＰＵＮＩＫＡ　ＩＮＴＥＲＮＡＴＩＯＮＡＬ,,株式会社,群馬県,太田市,大原町１５１６番地１サンハイツ大原Ｂ－３号,,10,205,3792304,,,,,,,2023-01-06,1,,,,,ニプニカインターナショナル,0
1390,5070001039976,新規,0,2023-01-06,2023-01-06,株式会社フィルドストン,,株式会社,群馬県,伊勢崎市,境保泉１丁目４－１４,,10,204,3700128,,,,,,,2023-01-06,1,,,,,フィルドストン,0
1392,5080001025380,新規,0,2023-01-06,2023-01-06,株式会社Ｌｉｎｋ,,株式会社,静岡県,藤枝市,駅前２丁目２０番１２号,,22,214,4260034,,,,,,,2023-01-06,1,,,,,リンク,0
1396,5080401026235,新規,0,2023-01-06,2023-01-06,すみよし企画開発株式会社,,株式会社,静岡県,浜松市中区,住吉１丁目１７番１６号,,22,131,4300906,,,,,,,2023-01-06,1,,,,,スミヨシキカクカイハツ,0
1397,5080405007512,新規,0,2023-01-06,2023-01-06,土地家屋調査士法人佐原事務所,,その他の設立登記法人,静岡県,湖西市,新居町新居１１４番地の３,,22,221,4310302,,,,,,,2023-01-06,1,,,,,サハラジムショ,0
1403,5110001037224,新規,0,2023-01-06,2023-01-06,株式会社小野組,,株式会社,新潟県,妙高市,大字田口１３７－１,,15,217,9492106,,,,,,,2023-01-06,1,,,,,オノグミ,0
1423,5120001251435,新規,0,2023-01-06,2023-01-06,吉創株式会社,,株式会社,大阪府,大阪市平野区,平野市町１丁目１－１３申野オフィス１０１号室,,27,126,5470042,,,,,,,2023-01-06,1,,,,,キチソウ,0
1424,5120001251476,新規,0,2023-01-06,2023-01-06,株式会社ＡＲＩＡ,,株式会社,大阪府,大阪市中央区,久太郎町３丁目１－６伊藤佑ビル大阪本町７－Ｉ,00128958,27,128,5410056,,,,,,,2023-01-06,1,,,,,アリア,0
1436,5120901046934,新規,0,2023-01-06,2023-01-06,株式会社乃一電気工事,,株式会社,大阪府,池田市,畑４丁目１２番２２号,,27,204,5630021,,,,,,,2023-01-06,1,,,,,ノイチデンキコウジ,0
1439,5120903004444,新規,0,2023-01-06,2023-01-06,合同会社翔,,合同会社,大阪府,茨木市,中河原町１３番２１号１０１,,27,211,5670063,,,,,,,2023-01-06,1,,,,,ショウ,0
1451,5130001073366,新規,0,2023-01-06,2023-01-06,株式会社うみねこ,,株式会社,京都府,京都市中京区,壬生中川町３９,,26,104,6048863,,,,,,,2023-01-06,1,,,,,ウミネコ,0
1452,5130001073399,新規,0,2023-01-06,2023-01-06,株式会社エトログループ,,株式会社,京都府,京都市中京区,堺町通夷川上る絹屋町１３５番地,,26,104,6040804,,,,,,,2023-01-06,1,,,,,エトログループ,0
1465,5140001128581,新規,0,2023-01-06,2023-01-06,やまて建設株式会社,,株式会社,兵庫県,神戸市中央区,熊内橋通６丁目３番１４号,,28,110,6510055,,,,,,,2023-01-06,1,,,,,ヤマテケンセツ,0
1468,5140003018525,新規,0,2023-01-06,2023-01-06,合同会社ＰＥＡＣＥ,,合同会社,兵庫県,明石市,朝霧南町２丁目５－２７,,28,203,6730870,,,,,,,2023-01-06,1,,,,,ピース,0
1471,5150001026058,新規,0,2023-01-06,2023-01-06,株式会社ＥＰＳＩＬＯＮ　ＩＮＴＥＲＮＡＴＩＯＮＡＬ,,株式会社,奈良県,奈良市,法蓮町７９９番地の５,,29,201,6308113,,,,,,,2023-01-06,1,,,,,イプシロンインターナショナル,0
1480,5180001154368,新規,0,2023-01-06,2023-01-06,株式会社Ｌｉｂｒａ　Ｊａｐａｎ,,株式会社,愛知県,あま市,坂牧日吉７９番地,,23,237,4901115,,,,,,,2023-01-06,1,,,,,リブラジャパン,0
1481,5180001154392,新規,0,2023-01-06,2023-01-06,株式会社暁,,株式会社,愛知県,名古屋市天白区,池場３丁目７１９番地,,23,116,4680055,,,,,,,2023-01-06,1,,,,,アカツキ,0
1491,5180003024668,新規,0,2023-01-06,2023-01-06,合同会社ＤＡＩ　ＴＨＡＮＨ,,合同会社,愛知県,名古屋市中区,栄５丁目７番４号グランディール栄４０２号,,23,106,4600008,,,,,,,2023-01-06,1,,,,,ダイタン,0
1493,5180005020062,新規,0,2023-01-06,2023-01-06,社会保険労務士法人Ｇｒｏｗｔｈ　Ｄｅｓｉｇｎ,,その他の設立登記法人,愛知県,名古屋市中村区,名駅南１丁目１１番１２号Ｍｉｎａｍｉ‐ｏｎｅビル１Ｆ,,23,105,4500003,,,,,,,2023-01-06,1,,,,,グロースデザイン,0
1494,5180005020070,新規,0,2023-01-06,2023-01-06,司法書士法人きさらぎ事務所,,その他の設立登記法人,愛知県,名古屋市千種区,内山３丁目４番７号,,23,101,4640075,,,,,,,2023-01-06,1,,,,,キサラギジムショ,0
1501,5190001030064,新規,0,2023-01-06,2023-01-06,株式会社かいてき生活,,株式会社,三重県,桑名市,陽だまりの丘８丁目２１０番地,,24,205,5110867,,,,,,,2023-01-06,1,,,,,カイテキセイカツ,0
1502,5190001030072,新規,0,2023-01-06,2023-01-06,株式会社俊盛丸,,株式会社,三重県,志摩市,浜島町浜島２８１９番地,,24,215,5170404,,,,,,,2023-01-06,1,,,,,シュンセイマル,0
1506,5200001040821,新規,0,2023-01-06,2023-01-06,株式会社ＢＬＡＣＫ,,株式会社,岐阜県,可児市,下恵土１９６番地６グレンディール１０５,,21,214,5090203,,,,,,,2023-01-06,1,,,,,ブラック,0
1507,5200001040854,新規,0,2023-01-06,2023-01-06,株式会社Ｓ．ｐｏｒｔ,,株式会社,岐阜県,岐阜市,菅生８丁目４番２０号,,21,201,5020914,,,,,,,2023-01-06,1,,,,,スポート,0
1519,5240001060873,新規,0,2023-01-06,2023-01-06,株式会社ひかり電工,,株式会社,広島県,広島市安佐北区,落合１丁目１７番１２号,,34,106,7391731,,,,,,,2023-01-06,1,,,,,ヒカリデンコウ,0
1520,5240001060881,新規,0,2023-01-06,2023-01-06,株式会社ＫＳＴ工業,,株式会社,広島県,安芸郡熊野町,呉地５丁目２８番３９号,,34,307,7314222,,,,,,,2023-01-06,1,,,,,ケイエスティーコウギョウ,0
1521,5240001060923,新規,0,2023-01-06,2023-01-06,株式会社Ｃｈｏｒｄｉｚｍ,,株式会社,広島県,広島市南区,京橋町１番７号,,34,103,7320828,,,,,,,2023-01-06,1,,,,,コーディズム,0
1525,5280001008860,新規,0,2023-01-06,2023-01-06,株式会社オキベット,,株式会社,島根県,隠岐郡隠岐の島町,西町吉田の一２番地１,,32,528,6850014,,,,,,,2023-01-06,1,,,,,オキベット,0
1528,5290001100055,新規,0,2023-01-06,2023-01-06,ＢＩＨＯＥＮ株式会社,,株式会社,福岡県,春日市,岡本４丁目２番地,,40,218,8160861,,,,,,,2023-01-06,1,,,,,ビホウエン,0
1529,5290001100063,新規,0,2023-01-06,2023-01-06,株式会社ＲｅＭｉｘ,,株式会社,福岡県,福岡市博多区,博多駅南３丁目２番３－２０２号,,40,132,8120016,,,,,,,2023-01-06,1,,,,,リーミックス,0
1530,5290001100105,新規,0,2023-01-06,2023-01-06,株式会社ＡＯＺＯＬＡ,,株式会社,福岡県,福岡市早良区,有田２丁目１９番１０号,,40,137,8140033,,,,,,,2023-01-06,1,,,,,アオゾラ,0
1531,5290001100121,新規,0,2023-01-06,2023-01-06,株式会社大神工業,,株式会社,福岡県,福岡市西区,大字千里２０１番地６,,40,135,8190374,,,,,,,2023-01-06,1,,,,,オオガミコウギョウ,0
1532,5290003013370,新規,0,2023-01-06,2023-01-06,和平カレー合同会社,,合同会社,福岡県,福岡市東区,千早３丁目４番８－４０２号エリーナ千早,,40,131,8130044,,,,,,,2023-01-06,1,,,,,カズヘイカレー,0
1533,5290003013379,新規,0,2023-01-06,2023-01-06,ｈｏｎｎｅｔｅ合同会社,,合同会社,福岡県,筑紫野市,大字俗明院１５８－２２０,,40,217,8180067,,,,,,,2023-01-06,1,,,,,オネット,0
1534,5290005018896,新規,0,2023-01-06,2023-01-06,医療法人颯愛会,,その他の設立登記法人,福岡県,福岡市西区,戸切２丁目１８番２号,,40,135,8190032,,,,,,,2023-01-06,1,,,,,ソウアイカイ,0
1539,5320005010040,新規,0,2023-01-06,2023-01-06,医療法人Ｆｅｌｉｘ　Ｖｉｔａ,,その他の設立登記法人,大分県,豊後高田市,玉津３５７番地,,44,209,8790606,,,,,,,2023-01-06,1,,,,,フェリクスヴィータ,0
1542,5330001030446,新規,0,2023-01-06,2023-01-06,株式会社アセンブリスト,,株式会社,熊本県,菊池郡大津町,大字引水８８５番地１６,,43,403,8691234,,,,,,,2023-01-06,1,,,,,アセンブリスト,0
1543,5330001030454,新規,0,2023-01-06,2023-01-06,株式会社カノン精巧,,株式会社,熊本県,熊本市南区,城南町坂野２１３６番地,,43,104,8614201,,,,,,,2023-01-06,1,,,,,カノンセイコウ,0
1544,5330001030470,新規,0,2023-01-06,2023-01-06,株式会社森壮商店,,株式会社,熊本県,熊本市中央区,大江１丁目１３番１０－１０２号,,43,101,8620971,,,,,,,2023-01-06,1,,,,,モリソウショウテン,0
1545,5330003009661,新規,0,2023-01-06,2023-01-06,合同会社亥子堂,,合同会社,熊本県,天草市,牛深町４２３番地１,,43,215,8631901,,,,,,,2023-01-06,1,,,,,イノコドウ,0
1550,5340001025271,新規,0,2023-01-06,2023-01-06,株式会社サンライズ梶原,,株式会社,鹿児島県,志布志市,志布志町志布志９３４番地５,,46,221,8997103,,,,,,,2023-01-06,1,,,,,サンライズカジハラ,0
1559,5360005006761,新規,0,2023-01-06,2023-01-06,一般社団法人ＢＴＣ教育協会,,その他の設立登記法人,沖縄県,中頭郡北谷町,美浜２丁目４番地６,,47,326,9040115,,,,,,,2023-01-06,1,,,,,ビーティーシーキョウイクキョウカイ,0
1560,5370001049417,新規,0,2023-01-06,2023-01-06,株式会社ａｄａｍａｓ,,株式会社,宮城県,仙台市宮城野区,安養寺１丁目３２番３号,,04,102,9830832,,,,,,,2023-01-06,1,,,,,アダマス,0
1561,5370001049433,新規,0,2023-01-06,2023-01-06,株式会社ＧｒａｐｐｅＭｅｎｔ,,株式会社,宮城県,仙台市青葉区,本町２丁目１４番２１号,,04,101,9800014,,,,,,,2023-01-06,1,,,,,グラップメント,0
1565,5380003005359,新規,0,2023-01-06,2023-01-06,利星合同会社,,合同会社,福島県,いわき市,小川町西小川字相川１０１番地,,07,204,9793121,,,,,,,2023-01-06,1,,,,,リセ,0
1566,5390001017116,新規,0,2023-01-06,2023-01-06,株式会社渋谷農園,,株式会社,山形県,東根市,神町営団中通り１６号,,06,211,9993732,,,,,,,2023-01-06,1,,,,,シブヤノウエン,0
1575,5450001013876,新規,0,2023-01-06,2023-01-06,株式会社ニツ水産,,株式会社,北海道,稚内市,恵比須４丁目４番３７号,,01,214,0970025,,,,,,,2023-01-06,1,,,,,ニツスイサン,0
1578,5460301005119,新規,0,2023-01-06,2023-01-06,株式会社高山商事,,株式会社,北海道,網走郡美幌町,字美禽３２５番７,,01,543,0920002,,,,,,,2023-01-06,1,,,,,,0
1583,5480001011968,新規,0,2023-01-06,2023-01-06,吉成農場株式会社,,株式会社,徳島県,鳴門市,大津町備前島３７８番地,,36,202,7720042,,,,,,,2023-01-06,1,,,,,ヨシナリノウジョウ,0
1584,5500001024694,新規,0,2023-01-06,2023-01-06,雄大技研株式会社,,株式会社,愛媛県,新居浜市,中村４丁目１７番２８号,,38,205,7920044,,,,,,,2023-01-06,1,,,,,ユウダイギケン,0
1591,6010001231967,新規,0,2023-01-06,2023-01-06,ヘリオス株式会社,,株式会社,東京都,中央区,日本橋兜町１７番１号日本橋ロイヤルプラザ７０６,,13,102,1030026,,,,,,,2023-01-06,1,,,,,ヘリオス,0
1592,6010001231975,新規,0,2023-01-06,2023-01-06,株式会社カミヤ,,株式会社,東京都,文京区,小石川４丁目１６番２４号,,13,105,1120002,,,,,,,2023-01-06,1,,,,,カミヤ,0
1593,6010001231991,新規,0,2023-01-06,2023-01-06,株式会社ＣＵＥＤ,,株式会社,東京都,中央区,銀座１丁目１２番４号Ｎ＆ＥＢＬＤ．６Ｆ,,13,102,1040061,,,,,,,2023-01-06,1,,,,,キュード,0
1594,6010001232008,新規,0,2023-01-06,2023-01-06,株式会社Ｃｏｍｍｕｎｉｔｙ　Ｆｏｒ　Ａｌｌ,,株式会社,東京都,中央区,銀座１丁目２２番１１号銀座大竹ビジデンス２階,,13,102,1040061,,,,,,,2023-01-06,1,,,,,コミュニティフォーオール,0
1595,6010001232016,新規,0,2023-01-06,2023-01-06,株式会社カーネリウム,,株式会社,東京都,中央区,日本橋３丁目２番１４号新槇町ビル別館第一２階,,13,102,1030027,,,,,,,2023-01-06,1,,,,,カーネリウム,0
1597,6010003039467,新規,0,2023-01-06,2023-01-06,アン・エンタープライズ合同会社,,合同会社,東京都,中央区,銀座８丁目２－８高本ビルＢ１Ｆ,,13,102,1040061,,,,,,,2023-01-06,1,,,,,アンエンタープライズ,0
1598,6010003039475,新規,0,2023-01-06,2023-01-06,マリメッコジャパン合同会社,,合同会社,東京都,千代田区,霞が関３丁目２番６号東京倶楽部ビルディング１１階,,13,101,1000013,,,,,,,2023-01-06,1,,,,,マリメッコジャパン,0
1599,6010003039491,新規,0,2023-01-06,2023-01-06,風雲天下合同会社,,合同会社,東京都,千代田区,飯田橋２丁目１６－４九段下コート２Ｆ－２０９号,,13,101,1020072,,,,,,,2023-01-06,1,,,,,フウウンテンカ,0
1609,6010401171680,新規,0,2023-01-06,2023-01-06,株式会社ｂｎｅ,,株式会社,東京都,港区,芝浦４丁目１９番１－８０９号,,13,103,1080023,,,,,,,2023-01-06,1,,,,,ビーエヌイー,0
1611,6010403029233,新規,0,2023-01-06,2023-01-06,合同会社高岡壮一郎＆パートナーズ,00128968,合同会社,東京都,港区,南青山１丁目３番１号,,13,103,1070062,,,,,,,2023-01-06,1,,,,,タカオカソウイチロウアンドパートナーズ,0
1622,6010901052249,新規,0,2023-01-06,2023-01-06,株式会社深化,,株式会社,東京都,世田谷区,池尻２丁目３２番２号,,13,112,1540001,,,,,,,2023-01-06,1,,,,,フカイカ,0
1623,6010901052281,新規,0,2023-01-06,2023-01-06,株式会社Ｚｅｕｓ,,株式会社,東京都,世田谷区,成城３丁目１３番２３号,,13,112,1570066,,,,,,,2023-01-06,1,,,,,,0
1633,6011001151759,新規,0,2023-01-06,2023-01-06,株式会社ウタイテ,,株式会社,東京都,渋谷区,恵比寿南１丁目１１番１０号,,13,113,1500022,,,,,,,2023-01-06,1,,,,,ウタイテ,0
1634,6011001151767,新規,0,2023-01-06,2023-01-06,株式会社ＳＨＯＷ　Ｋ,,株式会社,東京都,渋谷区,東３丁目１４番１９号,,13,113,1500011,,,,,,,2023-01-06,1,,,,,ショウケイ,0
1635,6011001151783,新規,0,2023-01-06,2023-01-06,株式会社ＫＡＩ,,株式会社,東京都,渋谷区,神泉町１０番１５号,,13,113,1500045,,,,,,,2023-01-06,1,,,,,カイ,0
1636,6011001151791,新規,0,2023-01-06,2023-01-06,株式会社ＡＮＤ　ＳＴＡＲＳ,,株式会社,東京都,渋谷区,道玄坂２丁目１６－７花菱８階,,13,113,1500043,,,,,,,2023-01-06,1,,,,,アンドスターズ,0
1639,6011003016027,新規,0,2023-01-06,2023-01-06,合同会社Ｌａｎｎ,,合同会社,東京都,目黒区,鷹番３丁目８－１０第一寿美吉ビル２Ｆ,,13,110,1520004,,,,,,,2023-01-06,1,,,,,ラン,0
1648,6011101101333,新規,0,2023-01-06,2023-01-06,株式会社ＥＤＩＦＩＣＩＯ,,株式会社,東京都,新宿区,新宿２丁目１３番１０号,,13,104,1600022,,,,,,,2023-01-06,1,,,,,エディフィシオ,0
1654,6011403003863,新規,0,2023-01-06,2023-01-06,合同会社Ｋ・Ｍ・Ｔ,,合同会社,東京都,板橋区,大谷口上町６－１６三新ビル,,13,119,1730032,,,,,,,2023-01-06,1,,,,,ケーエムティー,0
1655,6011501028804,新規,0,2023-01-06,2023-01-06,靖思堂株式会社,,株式会社,東京都,荒川区,町屋３丁目２４番２号面川ビル２０６号室,,13,118,1160001,,,,,,,2023-01-06,1,,,,,セイシドウ,0
1656,6011501028812,新規,0,2023-01-06,2023-01-06,株式会社Ａｌｌ　Ｉｎ　Ｏｎｅ,,株式会社,東京都,荒川区,東日暮里１丁目５番８－４０２号,,13,118,1160014,,,,,,,2023-01-06,1,,,,,オールインワン,0
1661,6011701025923,新規,0,2023-01-06,2023-01-06,株式会社インセンス,,株式会社,東京都,江戸川区,谷河内１丁目１９番３号,,13,123,1320002,,,,,,,2023-01-06,1,,,,,インセンス,0
1662,6011703003349,新規,0,2023-01-06,2023-01-06,Ｎａｔｕｒ合同会社,,合同会社,東京都,江戸川区,東葛西８丁目５－２０,,13,123,1340084,,,,,,,2023-01-06,1,,,,,ナトゥーア,0
1663,6011801041754,新規,0,2023-01-06,2023-01-06,株式会社ＥｖａｒＢ,,株式会社,東京都,葛飾区,高砂５丁目４番１号,,13,122,1250054,,,,,,,2023-01-06,1,,,,,エヴァーブ,0
1665,6012305002037,新規,0,2023-01-06,2023-01-06,一般社団法人全国内装業協会,,その他の設立登記法人,東京都,町田市,森野１丁目３３番２号シティフォレスト２階,,13,209,1940022,,,,,,,2023-01-06,1,,,,,ゼンコクナイソウギョウキョウカイ,0
1667,6012403005767,新規,0,2023-01-06,2023-01-06,合同会社Ａｚａｒ　ｅｓｓｅ,,合同会社,東京都,調布市,飛田給２丁目４２番地２１ブランシュネイジュ飛田給２０２,,13,208,1820036,,,,,,,2023-01-06,1,,,,,アザールエッセ,0
1668,6012701017407,新規,0,2023-01-06,2023-01-06,株式会社ＪＡＰＡＮ　ＥＥＬ,,株式会社,東京都,西東京市,谷戸町２丁目６番９－３０４号,,13,229,1880001,,,,,,,2023-01-06,1,,,,,ジャパンイーイーエル,0
1669,6012801022050,新規,0,2023-01-06,2023-01-06,オーターバレイ株式会社,,株式会社,東京都,立川市,曙町３丁目２番１７号２１８号,,13,202,1900012,,,,,,,2023-01-06,1,,,,,オーターバレイ,0
1674,6013101009093,新規,0,2023-01-06,2023-01-06,株式会社Ｔｏｍｍｙ’ｓ　Ｃｏｍｐａｎｙ,,株式会社,東京都,青梅市,新町３丁目１８番地の１ローズガーデンビル２階,,13,205,1980024,,,,,,,2023-01-06,1,,,,,トミーズカンパニー,0
1682,6020001149639,新規,0,2023-01-06,2023-01-06,２．５次元株式会社,,株式会社,神奈川県,横浜市金沢区,大川７番９－１０１号,,14,108,2360043,,,,,,,2023-01-06,1,,,,,ニィテンゴジゲン,0
1683,6020001149647,新規,0,2023-01-06,2023-01-06,株式会社ＭａＣａｒｏｎｉ,,株式会社,神奈川県,横浜市中区,港町４丁目１６番地,,14,104,2310017,,,,,,,2023-01-06,1,,,,,マカロニ,0
1684,6020001149655,新規,0,2023-01-06,2023-01-06,株式会社Ｃｈａｒｍｆｕｌ,,株式会社,神奈川県,横浜市青葉区,奈良３丁目１２番地１,,14,117,2270038,,,,,,,2023-01-06,1,,,,,チャームフル,0
1685,6020001149663,新規,0,2023-01-06,2023-01-06,曦和文化株式会社,,株式会社,神奈川県,川崎市川崎区,旭町１丁目６番５号,,14,131,2100808,,,,,,,2023-01-06,1,,,,,ギワブンカ,0
1686,6020001149671,新規,0,2023-01-06,2023-01-06,住建工業株式会社,,株式会社,神奈川県,川崎市幸区,東古市場１８番地５,,14,132,2120051,,,,,,,2023-01-06,1,,,,,ジュウケンコウギョウ,0
1687,6020001149696,新規,0,2023-01-06,2023-01-06,イーエムワークス・ジャパン株式会社,,株式会社,神奈川県,横浜市都筑区,東山田２丁目２１番２８号,,14,118,2240023,,,,,,,2023-01-06,1,,,,,イーエムワークスジャパン,0
1690,6021003012578,新規,0,2023-01-06,2023-01-06,ＡＳＨ合同会社,,合同会社,神奈川県,藤沢市,並木台１丁目７番地の５,,14,205,2510005,,,,,,,2023-01-06,1,,,,,,0
1692,6030001151684,新規,0,2023-01-06,2023-01-06,株式会社Ｋエルアール,,株式会社,埼玉県,川口市,桜町５丁目８番４号,,11,203,3340001,,,,,,,2023-01-06,1,,,,,ケイエルアール,0
1693,6030001151692,新規,0,2023-01-06,2023-01-06,株式会社Ｒｅｂｅｌ　ＪＰ,,株式会社,埼玉県,所沢市,美原町３丁目２９４４番地の１３,,11,208,3590045,,,,,,,2023-01-06,1,,,,,レベルジェーピー,0
1694,6030001151734,新規,0,2023-01-06,2023-01-06,グッドパパーズ株式会社,,株式会社,埼玉県,熊谷市,上之３９８８－７熊谷夜間救急動物病院,,11,202,3600012,,,,,,,2023-01-06,1,,,,,グッドパパーズ,0
1696,6030003020838,新規,0,2023-01-06,2023-01-06,合同会社スキップエイト,,合同会社,埼玉県,さいたま市大宮区,北袋町１丁目２８４番地３,,11,103,3300835,,,,,,,2023-01-06,1,,,,,スキップエイト,0
1697,6030003020846,新規,0,2023-01-06,2023-01-06,合同会社ＯｎｌｙＨｏｕｓｅ,,合同会社,埼玉県,所沢市,和ケ原１丁目１０８－６８,,11,208,3591162,,,,,,,2023-01-06,1,,,,,オンリーハウス,0
1698,6030003020854,新規,0,2023-01-06,2023-01-06,合同会社メカ技研工業,,合同会社,埼玉県,大里郡寄居町,大字桜沢１３７４番地１サンライズ１０２,,11,408,3691202,,,,,,,2023-01-06,1,,,,,メカギケンコウギョウ,0
1699,6030003020862,新規,0,2023-01-06,2023-01-06,合同会社ディスタントワールド,,合同会社,埼玉県,朝霞市,大字岡２２５番地シティ岡１１７,,11,227,3510007,,,,,,,2023-01-06,1,,,,,ディスタントワールド,0
1700,6030003020870,新規,0,2023-01-06,2023-01-06,合同会社Ｇ．Ｐ．Ｃ,,合同会社,埼玉県,戸田市,美女木１丁目２１番地の３,,11,224,3350031,,,,,,,2023-01-06,1,,,,,ジーピーシー,0
1707,6040001126454,新規,0,2023-01-06,2023-01-06,株式会社ＡＨＳリゾートライフ,,株式会社,千葉県,鴨川市,太海１８７６番地２,,12,223,2992862,,,,,,,2023-01-06,1,,,,,エイエイチエスリゾートライフ,0
1708,6040001126504,新規,0,2023-01-06,2023-01-06,株式会社ＤＹＢ,,株式会社,千葉県,千葉市稲毛区,園生町４０８番地１８,,12,103,2630051,,,,,,,2023-01-06,1,,,,,ディーワイビー,0
1719,6050001052170,新規,0,2023-01-06,2023-01-06,株式会社たくみ,,株式会社,茨城県,つくば市,下広岡３１６番地３号,,08,220,3050042,,,,,,,2023-01-06,1,,,,,タクミ,0
1720,6050001052187,新規,0,2023-01-06,2023-01-06,株式会社ＮＵＲ　ＪＡＰＡＮ,,株式会社,茨城県,古河市,谷貝１２３番地２,,08,204,3060113,,,,,,,2023-01-06,1,,,,,ヌールジャパン,0
1723,6060001035570,新規,0,2023-01-06,2023-01-06,ＢＵＴＴＡＲ　ＴＲＡＤＩＮＧ株式会社,,株式会社,栃木県,小山市,宮本町３丁目１０番地９,,09,208,3230024,,,,,,,2023-01-06,1,,,,,ブッタートレーディング,0
1725,6060003004367,新規,0,2023-01-06,2023-01-06,合同会社ＴＡＣＵＳ　ｃｏｍｐａｎｙ,,合同会社,栃木県,宇都宮市,石井町２９６８番地,,09,201,3210912,,,,,,,2023-01-06,1,,,,,タクスカンパニー,0
1726,6070001039975,新規,0,2023-01-06,2023-01-06,事業承継ＪＰ１株式会社,,株式会社,群馬県,前橋市,南町３丁目５０番地２プラザアン２階Ｄ－２８,,10,201,3710805,,,,,,,2023-01-06,1,,,,,ジギョウショウケイジェイピーワン,0
1727,6070001039983,新規,0,2023-01-06,2023-01-06,株式会社矢野型枠,,株式会社,群馬県,前橋市,亀里町３１５番地１１,,10,201,3792147,,,,,,,2023-01-06,1,,,,,ヤノカタワク,0
1731,6080405007511,新規,0,2023-01-06,2023-01-06,司法書士法人佐原事務所,,その他の設立登記法人,静岡県,湖西市,新居町新居１１４番地の３,,22,221,4310302,,,,,,,2023-01-06,1,,,,,サハラジムショ,0
1749,6120001251475,新規,0,2023-01-06,2023-01-06,株式会社ＭＨ,,株式会社,大阪府,大阪市中央区,西心斎橋２丁目３番２２号,,27,128,5420086,,,,,,,2023-01-06,1,,,,,エムエイチ,0
1750,6120001251500,新規,0,2023-01-06,2023-01-06,鳳茗株式会社,,株式会社,大阪府,大阪市生野区,新今里３丁目１０番２６号３Ｆ,,27,116,5440001,,,,,,,2023-01-06,1,,,,,ホウメイ,0
1751,6120001251509,新規,0,2023-01-06,2023-01-06,ケーティワイ株式会社,,株式会社,大阪府,大阪市住吉区,我孫子３丁目４番２６号,,27,120,5580014,,,,,,,2023-01-06,1,,,,,ケーティワイ,0
1752,6120001251517,新規,0,2023-01-06,2023-01-06,株式会社Ｖｅｃｃｅｌ　Ｇｒｏｕｐ,,株式会社,大阪府,門真市,泉町４番３７－１０５号,,27,223,5710053,,,,,,,2023-01-06,1,,,,,ベッセルグループ,0
1753,6120001251525,新規,0,2023-01-06,2023-01-06,えびす商店株式会社,,株式会社,大阪府,大阪市東淀川区,豊新１丁目１８－３,,27,114,5330014,,,,,,,2023-01-06,1,,,,,エビスショウテン,0
1755,6120003023179,新規,0,2023-01-06,2023-01-06,合同会社三雅,,合同会社,大阪府,大阪市阿倍野区,旭町２丁目１番１－２１２号,,27,119,5450051,,,,,,,2023-01-06,1,,,,,サンガ,0
1756,6120003023195,新規,0,2023-01-06,2023-01-06,合同会社ストラク,,合同会社,大阪府,大阪市浪速区,日本橋東３丁目７番２０－２０４号,,27,111,5560006,,,,,,,2023-01-06,1,,,,,ストラク,0
1757,6120003023204,新規,0,2023-01-06,2023-01-06,合同会社Ｎｅｗ　Ｌｅａｆ,,合同会社,大阪府,大阪市北区,梅田１丁目２番２号大阪駅前第２ビル１２－１２,,27,127,5300001,,,,,,,2023-01-06,1,,,,,ニューリーフ,0
1759,6120101066765,新規,0,2023-01-06,2023-01-06,株式会社エミネス,,株式会社,大阪府,堺市中区,八田寺町３３番地４,,27,142,5998267,,,,,,,2023-01-06,1,,,,,エミネス,0
1760,6120105009662,新規,0,2023-01-06,2023-01-06,税理士法人東潟会計事務所,,その他の設立登記法人,大阪府,羽曳野市,誉田３丁目１４番２０号メゾン白鳥２０７号,,27,222,5830857,,,,,,,2023-01-06,1,,,,,ヒガシカタカイケイジムショ,0
1761,6120901046925,新規,0,2023-01-06,2023-01-06,株式会社プレシャス,,株式会社,大阪府,吹田市,桃山台４丁目３番１－７０５号,,27,205,5650854,,,,,,,2023-01-06,1,,,,,プレシャス,0
1762,6120901046933,新規,0,2023-01-06,2023-01-06,株式会社アストレア自動車,,株式会社,大阪府,摂津市,一津屋１丁目２３番５号,,27,224,5660043,,,,,,,2023-01-06,1,,,,,アストレアジドウシャ,0
1769,6130001073398,新規,0,2023-01-06,2023-01-06,株式会社Ｈａｕｔｅ　Ｍｏｎｔａｇｎｅ,,株式会社,京都府,京都市上京区,西無車小路町６０７番地１,,26,102,6020000,,,,,,,2023-01-06,1,,,,,オートモンターニュ,0
1771,6130003008410,新規,0,2023-01-06,2023-01-06,合同会社瑚蓮,,合同会社,京都府,京都市南区,東九条東岩本町１８第七松田荘１階７２号室,,26,107,6018006,,,,,,,2023-01-06,1,,,,,コレン,0
1773,6130005016659,新規,0,2023-01-06,2023-01-06,特定非営利活動法人駆け込み寺２０２０,,その他の設立登記法人,京都府,長岡京市,長岡２丁目２８番３４号,,26,209,6170823,,,,,,,2023-01-06,1,,,,,カケコミデラニーゼロニーゼロ,0
1780,6150001026065,新規,0,2023-01-06,2023-01-06,伊藤電装機器株式会社,,株式会社,奈良県,奈良市,佐保台３丁目９０２－８３,,29,201,6308105,,,,,,,2023-01-06,1,,,,,イトウデンソウキキ,0
1783,6170001017426,新規,0,2023-01-06,2023-01-06,株式会社ＪＵＮ,,株式会社,和歌山県,橋本市,あやの台１丁目４１番地の５,,30,203,6480019,,,,,,,2023-01-06,1,,,,,ジュン,0
1791,6180001154391,新規,0,2023-01-06,2023-01-06,株式会社さくフードマーケティング,,株式会社,愛知県,名古屋市中川区,八田町２６０２番地,,23,110,4540877,,,,,,,2023-01-06,1,,,,,サクフードマーケティング,0
1794,6180003024683,新規,0,2023-01-06,2023-01-06,合同会社キープライズ,,合同会社,愛知県,小牧市,堀の内５丁目１０１番地１ＫＴ４１、Ａ号室,,23,219,4850046,,,,,,,2023-01-06,1,,,,,キープライズ,0
1795,6180005020045,新規,0,2023-01-06,2023-01-06,一般社団法人ＲｕＦＬ,,その他の設立登記法人,愛知県,名古屋市熱田区,白鳥１丁目１０－２２,,23,109,4560035,,,,,,,2023-01-06,1,,,,,ラッフル,0
1796,6180301036959,新規,0,2023-01-06,2023-01-06,株式会社スリーエスコーポレーション,,株式会社,愛知県,豊橋市,つつじが丘３丁目１２番地３,,23,201,4400858,,,,,,,2023-01-06,1,,,,,スリーエスコーポレーション,0
1803,6190001030063,新規,0,2023-01-06,2023-01-06,株式会社ＮＴサポート,,株式会社,三重県,いなべ市,員弁町大泉新田９３３番地１,,24,214,5110217,,,,,,,2023-01-06,1,,,,,エヌティーサポート,0
1805,6200001040820,新規,0,2023-01-06,2023-01-06,株式会社ピジョン,,株式会社,岐阜県,多治見市,本町２丁目３７番地,,21,204,5070033,,,,,,,2023-01-06,1,,,,,ピジョン,0
1811,6230001019655,新規,0,2023-01-06,2023-01-06,株式会社ＣＳメンテ,,株式会社,富山県,富山市,寺町２区４２５番地１,,16,201,9300874,,,,,,,2023-01-06,1,,,,,シーエスメンテ,0
1813,6240001060880,新規,0,2023-01-06,2023-01-06,株式会社ＩＴＯ,,株式会社,広島県,広島市中区,国泰寺町２丁目１番５－６０３号,,34,101,7300042,,,,,,,2023-01-06,1,,,,,アイティーオー,0
1814,6240001060897,新規,0,2023-01-06,2023-01-06,五反田産業株式会社,,株式会社,広島県,福山市,神村町４７６５番地６,,34,207,7290112,,,,,,,2023-01-06,1,,,,,ゴタンダサンギョウ,0
1821,6260001037530,新規,0,2023-01-06,2023-01-06,株式会社一心,,株式会社,岡山県,津山市,南町１丁目８７番地１ＥＡＳＴビル,,33,203,7080881,,,,,,,2023-01-06,1,,,,,イッシン,0
1822,6260001037539,新規,0,2023-01-06,2023-01-06,株式会社ｍｏｕｖ　ｄｅｓｉｇｎ,,株式会社,岡山県,瀬戸内市,長船町長船８０８番地６,,33,212,7014271,,,,,,,2023-01-06,1,,,,,モーヴデザイン,0
1831,6290001100079,新規,0,2023-01-06,2023-01-06,株式会社ＲＤＳ製作所,,株式会社,福岡県,福岡市博多区,博多駅南５丁目１２番２号,,40,132,8120016,,,,,,,2023-01-06,1,,,,,アールディーエスセイサクショ,0
1832,6290001100087,新規,0,2023-01-06,2023-01-06,株式会社富輝,,株式会社,福岡県,糟屋郡須惠町,大字新原４５０番地メゾンドロゼ１０３号,,40,344,8112111,,,,,,,2023-01-06,1,,,,,トキ,0
1833,6290001100095,新規,0,2023-01-06,2023-01-06,株式会社元盛,,株式会社,福岡県,筑後市,大字徳久１９３番地,,40,211,8330004,,,,,,,2023-01-06,1,,,,,モトモリ,0
1834,6290003013378,新規,0,2023-01-06,2023-01-06,合同会社木谷茂事務所,,合同会社,福岡県,福岡市博多区,浦田１丁目５番１３号,,40,132,8120861,,,,,,,2023-01-06,1,,,,,キタニシゲルジムショ,0
1835,6290003013386,新規,0,2023-01-06,2023-01-06,合同会社ＰＡＬＭ,,合同会社,福岡県,宗像市,池浦５０４番地２,,40,220,8113401,,,,,,,2023-01-06,1,,,,,パーム,0
1836,6290801029154,新規,0,2023-01-06,2023-01-06,プラクティスマネジメント株式会社,,株式会社,福岡県,北九州市八幡西区,光明２丁目７番２５号,,40,109,8070824,,,,,,,2023-01-06,1,,,,,プラクティスマネジメント,0
1840,6310001018194,新規,0,2023-01-06,2023-01-06,６０１ＭＡＤＩＳＯＮ株式会社,,株式会社,長崎県,佐世保市,松浦町５番２８号,,42,202,8570052,,,,,,,2023-01-06,1,,,,,シックスオーワンマディソン,0
1842,6320001019506,新規,0,2023-01-06,2023-01-06,株式会社長友工業,,株式会社,大分県,大分市,高松１丁目７番２８号,,44,201,8700917,,,,,,,2023-01-06,1,,,,,ナガトモコウギョウ,0
1846,6330001030453,新規,0,2023-01-06,2023-01-06,浜崎農園株式会社,,株式会社,熊本県,葦北郡芦北町,大字田浦１６９１番地,,43,482,8695302,,,,,,,2023-01-06,1,,,,,ハマサキノウエン,0
1847,6330003009660,新規,0,2023-01-06,2023-01-06,合同会社ベジコン,,合同会社,熊本県,熊本市東区,下江津８丁目８番２号,,43,102,8620960,,,,,,,2023-01-06,1,,,,,ベジコン,0
1850,6350001018109,新規,0,2023-01-06,2023-01-06,株式会社ＡＳＴ,,株式会社,宮崎県,小林市,細野２７７９番地１３,,45,205,8860004,,,,,,,2023-01-06,1,,,,,エーエスティー,0
1855,6360001031390,新規,0,2023-01-06,2023-01-06,株式会社ＳＫｙ　ＧＲＯＵＰ　ＪＡＰＡＮ,,株式会社,沖縄県,糸満市,字兼城５９４番地の３,,47,210,9010303,,,,,,,2023-01-06,1,,,,,スカイグループジャパン,0
1860,6360003012604,新規,0,2023-01-06,2023-01-06,７ＣＯＭＰＡＮＹ合同会社,,合同会社,沖縄県,沖縄市,大里１丁目１６番３５号,,47,211,9042163,,,,,,,2023-01-06,1,,,,,セブンカンパニィ,0
1863,6370003005937,新規,0,2023-01-06,2023-01-06,合同会社ＤＯＵＢＬＥＳ,,合同会社,宮城県,仙台市青葉区,本町１丁目５番２８号カーニープレイス仙台駅前通６０３号室,,04,101,9800014,,,,,,,2023-01-06,1,,,,,ダブルエス,0
1864,6380001033377,新規,0,2023-01-06,2023-01-06,株式会社松浦農園,,株式会社,福島県,伊達郡国見町,大字大木戸字赤穂３４番地,,07,303,9691713,,,,,,,2023-01-06,1,,,,,マツウラノウエン,0
1866,6390001017115,新規,0,2023-01-06,2023-01-06,株式会社鈴木農園,,株式会社,山形県,尾花沢市,大字毒沢７５８番地３,,06,212,9994555,,,,,,,2023-01-06,1,,,,,スズキノウエン,0
1867,6390001017131,新規,0,2023-01-06,2023-01-06,株式会社クラムピース,,株式会社,山形県,鶴岡市,西片屋字片貝１１２番地１,,06,203,9970323,,,,,,,2023-01-06,1,,,,,クラムピース,0
1874,6410003003738,新規,0,2023-01-06,2023-01-06,合同会社由利建築,,合同会社,秋田県,湯沢市,秋ノ宮字水無１３番地,,05,207,0190321,,,,,,,2023-01-06,1,,,,,ユリケンチク,0
1879,6440001009206,新規,0,2023-01-06,2023-01-06,株式会社Ａｚａｍａｓｕ,,株式会社,北海道,函館市,本通２丁目３１番６号,,01,202,0410851,,,,,,,2023-01-06,1,,,,,アザマス,0
1880,6460101007306,新規,0,2023-01-06,2023-01-06,株式会社小島農場,,株式会社,北海道,中川郡本別町,勇足２４９番地８,,01,646,0893282,,,,,,,2023-01-06,1,,,,,コジマノウジョウ,0
1881,6460301005118,新規,0,2023-01-06,2023-01-06,株式会社シブヤ,,株式会社,北海道,網走郡大空町,東藻琴新富１０６番地の４,,01,564,0993222,,,,,,,2023-01-06,1,,,,,シブヤ,0
1895,7010001231917,新規,0,2023-01-06,2023-01-06,ＨＯＴＶＥＮＵＳ株式会社,,株式会社,東京都,千代田区,神田鍛冶町３丁目７番地３３神田駅前プラザ５０１号,,13,101,1010045,,,,,,,2023-01-06,1,,,,,ホットビーナス,0
1896,7010001231966,新規,0,2023-01-06,2023-01-06,Ｄ＆Ｇ　ＩＮＤＥＸ株式会社,,株式会社,東京都,千代田区,丸の内１丁目６番２号新丸の内センタービルディング２０階・２１階,,13,101,1000005,,,,,,,2023-01-06,1,,,,,ディーアンドジーインデックス,0
1897,7010001232007,新規,0,2023-01-06,2023-01-06,Ｒｏｌｌｏｍａｔｉｃ　Ｊａｐａｎ株式会社,,株式会社,東京都,千代田区,九段南４丁目８番１３号自動車会館ビル,,13,101,1020074,,,,,,,2023-01-06,1,,,,,ロロマティックジャパン,0
1898,7010001232015,新規,0,2023-01-06,2023-01-06,株式会社フォレスト,,株式会社,東京都,中央区,新川１丁目３－２１,,13,102,1040033,,,,,,,2023-01-06,1,,,,,フォレスト,0
1901,7010005036065,新規,0,2023-01-06,2023-01-06,ベストパイロット税理士法人,,その他の設立登記法人,東京都,千代田区,大手町２丁目２番１号,,13,101,1000004,,,,,,,2023-01-06,1,,,,,ベストパイロット,0
1904,7010401171647,新規,0,2023-01-06,2023-01-06,株式会社アルマダグループ,,株式会社,東京都,港区,南青山２丁目２３番８号,,13,103,1070062,,,,,,,2023-01-06,1,,,,,アルマダグループ,0
1905,7010401171663,新規,0,2023-01-06,2023-01-06,株式会社ｐｉｃｃｈｕ．,,株式会社,東京都,港区,南青山３丁目１番３６号青山丸竹ビル６Ｆ,,13,103,1070062,,,,,,,2023-01-06,1,,,,,ピチュドット,0
1909,7010403029224,新規,0,2023-01-06,2023-01-06,ｃａｒａ合同会社,,合同会社,東京都,港区,六本木７丁目３番１８号,,13,103,1060032,,,,,,,2023-01-06,1,,,,,カーラ,0
1913,7010601062381,新規,0,2023-01-06,2023-01-06,株式会社白猫総合研究所,,株式会社,東京都,江東区,豊洲３丁目６番８－４３２０号,,13,108,1350061,,,,,,,2023-01-06,1,,,,,シロネコソウゴウケンキュウジョ,0
1918,7010901052256,新規,0,2023-01-06,2023-01-06,株式会社ジーエムティー,,株式会社,東京都,世田谷区,松原１丁目２６番２４号,,13,112,1560043,,,,,,,2023-01-06,1,,,,,ジーエムティー,0
1919,7010901052280,新規,0,2023-01-06,2023-01-06,株式会社Ｍｕｓｅ,,株式会社,東京都,世田谷区,成城３丁目１３番２３号,,13,112,1570066,,,,,,,2023-01-06,1,,,,,,0
1926,7011001151717,新規,0,2023-01-06,2023-01-06,従基株式会社,,株式会社,東京都,渋谷区,富ヶ谷１丁目１４番１４号スタンフォードアネックスビル３Ｆ,,13,113,1510063,,,,,,,2023-01-06,1,,,,,ジュウキ,0
1927,7011001151741,新規,0,2023-01-06,2023-01-06,株式会社リビルド,,株式会社,東京都,目黒区,駒場１丁目１８番１１号,,13,110,1530041,,,,,,,2023-01-06,1,,,,,リビルド,0
1928,7011001151758,新規,0,2023-01-06,2023-01-06,株式会社テント,,株式会社,東京都,目黒区,中目黒３丁目６番２号中目黒Ｆ・Ｓビル５階,,13,110,1530061,,,,,,,2023-01-06,1,,,,,テント,0
1929,7011001151766,新規,0,2023-01-06,2023-01-06,ランカーマネジメント株式会社,,株式会社,東京都,渋谷区,桜丘町２９番３３号,,13,113,1500031,,,,,,,2023-01-06,1,,,,,ランカーマネジメント,0
1930,7011001151782,新規,0,2023-01-06,2023-01-06,株式会社オクトシード,,株式会社,東京都,目黒区,上目黒３丁目２０番１２号,,13,110,1530051,,,,,,,2023-01-06,1,,,,,,0
1931,7011001151790,新規,0,2023-01-06,2023-01-06,株式会社リード,,株式会社,東京都,渋谷区,代々木２丁目１８番４号細川ビル３階,,13,113,1510053,,,,,,,2023-01-06,1,,,,,リード,0
1932,7011001151799,新規,0,2023-01-06,2023-01-06,株式会社ＴＡＫ,,株式会社,東京都,渋谷区,神宮前６丁目２３番４号桑野ビル２階,,13,113,1500001,,,,,,,2023-01-06,1,,,,,ティエイケイ,0
1939,7011401024811,新規,0,2023-01-06,2023-01-06,株式会社ニュービー・サポート,,株式会社,東京都,板橋区,蓮根１丁目２９番６－１０１号,,13,119,1740046,,,,,,,2023-01-06,1,,,,,ニュービーサポート,0
1940,7011403003862,新規,0,2023-01-06,2023-01-06,合同会社ＹＵＺＵ,,合同会社,東京都,板橋区,南常盤台１丁目１１－６レフア南常盤台１０１号室,,13,119,1740072,,,,,,,2023-01-06,1,,,,,ユズ,0
1941,7011501028811,新規,0,2023-01-06,2023-01-06,天利株式会社,,株式会社,東京都,荒川区,西日暮里１丁目４０番５号,,13,118,1160013,,,,,,,2023-01-06,1,,,,,テンリ,0
1945,7011701025930,新規,0,2023-01-06,2023-01-06,株式会社渡辺商会,,株式会社,東京都,江戸川区,松本１丁目１０番１０号,,13,123,1330043,,,,,,,2023-01-06,1,,,,,ワタナベショウカイ,0
1947,7011703003348,新規,0,2023-01-06,2023-01-06,リンクメディカ合同会社,,合同会社,東京都,江戸川区,平井７丁目４－４－１１０,,13,123,1320035,,,,,,,2023-01-06,1,,,,,リンクメディカ,0
1950,7011805003238,新規,0,2023-01-06,2023-01-06,一般社団法人清栄会,,その他の設立登記法人,東京都,足立区,入谷１丁目９番１８号ポインテアルト２－２階,,13,121,1210836,,,,,,,2023-01-06,1,,,,,セイエイカイ,0
1951,7012301013268,新規,0,2023-01-06,2023-01-06,株式会社Ｊ．Ａ．Ｍ．,,株式会社,東京都,町田市,南大谷８２番地１ＧＡＲＡＧＥ・ＭＡＣＨＩＤＡ,,13,209,1940031,,,,,,,2023-01-06,1,,,,,ジェイエーエム,0
1953,7012703002612,新規,0,2023-01-06,2023-01-06,合同会社クラウンメイト,,合同会社,東京都,小平市,天神町１丁目８番１４号,,13,211,1870004,,,,,,,2023-01-06,1,,,,,クラウンメイト,0
1957,7013101009092,新規,0,2023-01-06,2023-01-06,株式会社アルコンシェル,,株式会社,東京都,西多摩郡瑞穂町,大字石畑１８００番地グランメールみなみ２０３号,,13,303,1901211,,,,,,,2023-01-06,1,,,,,アルコンシェル,0
1959,7013301050144,新規,0,2023-01-06,2023-01-06,Ｕｎｉｔｙｉｅ株式会社,,株式会社,東京都,豊島区,南池袋３丁目１５番１０号桐生ビル３階,,13,116,1710022,,,,,,,2023-01-06,1,,,,,ユニティエ,0
1961,7020001149646,新規,0,2023-01-06,2023-01-06,株式会社エトブン,,株式会社,神奈川県,横浜市南区,大岡３丁目９番３６号,,14,105,2320061,,,,,,,2023-01-06,1,,,,,エトブン,0
1962,7020001149687,新規,0,2023-01-06,2023-01-06,株式会社リライズ,,株式会社,神奈川県,横浜市瀬谷区,三ツ境１４－４ワコービル２０１,,14,114,2460022,,,,,,,2023-01-06,1,,,,,リライズ,0
1964,7020003022999,新規,0,2023-01-06,2023-01-06,合同会社Ｒｉｔａ,,合同会社,神奈川県,横浜市金沢区,泥亀１丁目２８番,,14,108,2360021,,,,,,,2023-01-06,1,,,,,リタ,0
1973,7030001151782,新規,0,2023-01-06,2023-01-06,株式会社ＩＲＦ,,株式会社,埼玉県,さいたま市浦和区,領家１丁目１８番１４－１１０２号,,11,107,3300072,,,,,,,2023-01-06,1,,,,,アイアールエフ,0
1974,7030001151790,新規,0,2023-01-06,2023-01-06,株式会社Ｂｅａｕｔｙ‐Ｍｉｔａｒｂｅｉｔｅｒ,,株式会社,埼玉県,川口市,元郷２丁目２番６－１５１２号,,11,203,3320011,,,,,,,2023-01-06,1,,,,,ビューティーミットアルバイター,0
1985,7040001126478,新規,0,2023-01-06,2023-01-06,ポイントスクウェアズ株式会社,,株式会社,千葉県,柏市,旭町２丁目１番４－１１０１号,,12,217,2770852,,,,,,,2023-01-06,1,,,,,ポイントスクウェアズ,0
1990,7050001052178,新規,0,2023-01-06,2023-01-06,株式会社わんわん旭,,株式会社,茨城県,鉾田市,鹿田１３２８番地８,,08,234,3111416,,,,,,,2023-01-06,1,,,,,ワンワンアサヒ,0
1991,7050001052186,新規,0,2023-01-06,2023-01-06,株式会社翔建,,株式会社,茨城県,水戸市,自由が丘６番７３号,,08,201,3100042,,,,,,,2023-01-06,1,,,,,ショウケン,0
1994,7060003004358,新規,0,2023-01-06,2023-01-06,ＮＯＯＲ　ＴＲＡＤＩＮＧ合同会社,,合同会社,栃木県,小山市,駅東通り１丁目４０番１号ベルディマンションＩＩ－２０６号,00128962,09,208,3230022,,,,,,,2023-01-06,1,,,,,ヌールトレーディング,0
1995,7060003004366,新規,0,2023-01-06,2023-01-06,ＳＨＡＢ合同会社,,合同会社,栃木県,佐野市,植下町５９１番地１舘野アパート東棟,,09,204,3270835,,,,,,,2023-01-06,1,,,,,シャブ,0
1997,7070001039982,新規,0,2023-01-06,2023-01-06,株式会社Ａｌｌ　Ｂｌｕｅ　Ｃｏｍｐａｎｙ,,株式会社,群馬県,前橋市,六供町１０１６番地３,,10,201,3710804,,,,,,,2023-01-06,1,,,,,オールブルーカンパニー,0
1999,7080003002921,新規,0,2023-01-06,2023-01-06,Ｌｏｐｉｏｌｕ合同会社,,合同会社,静岡県,島田市,東町１９５６番地の６,,22,209,4270011,,,,,,,2023-01-06,1,,,,,ロピオル,0
2001,7080101023729,新規,0,2023-01-06,2023-01-06,株式会社ｍｉｙａｊｉｍａ,,株式会社,静岡県,駿東郡清水町,徳倉２４０６番地の４,,22,341,4110917,,,,,,,2023-01-06,1,,,,,ミヤジマ,0
2004,7080401026233,新規,0,2023-01-06,2023-01-06,株式会社ＦｉｒｓｔＤｏ,,株式会社,静岡県,浜松市中区,板屋町１０２番地の１５,,22,131,4300928,,,,,,,2023-01-06,1,,,,,ファーストドゥ,0
2006,7080405007510,新規,0,2023-01-06,2023-01-06,一般社団法人つながるプロジェクト,,その他の設立登記法人,静岡県,浜松市西区,伊左地町２４６０番地の２,,22,133,4311111,,,,,,,2023-01-06,1,,,,,ツナガルプロジェクト,0
2007,7090001017912,新規,0,2023-01-06,2023-01-06,株式会社Ｅｍｍ,,株式会社,山梨県,韮崎市,富士見３丁目１６番２１号,,19,207,4070014,,,,,,,2023-01-06,1,,,,,エン,0
2010,7110001037206,新規,0,2023-01-06,2023-01-06,株式会社ＡＩＤＡ,,株式会社,新潟県,阿賀野市,下里３２番地,,15,223,9592135,,,,,,,2023-01-06,1,,,,,アイダ,0
2011,7110001037222,新規,0,2023-01-06,2023-01-06,株式会社アットグリーン,,株式会社,新潟県,魚沼市,山田５４１番地,,15,225,9460055,,,,,,,2023-01-06,1,,,,,アットグリーン,0
2034,7120001251417,新規,0,2023-01-06,2023-01-06,株式会社チェリッシュ,,株式会社,大阪府,寝屋川市,香里南之町３０番２６号秋ビル１階,,27,215,5720084,,,,,,,2023-01-06,1,,,,,チェリッシュ,0
2035,7120001251458,新規,0,2023-01-06,2023-01-06,株式会社アンナチュラル,,株式会社,大阪府,大阪市中央区,上本町西５丁目１番３５－１７０１号,,27,128,5420062,,,,,,,2023-01-06,1,,,,,アンナチュラル,0
2036,7120001251482,新規,0,2023-01-06,2023-01-06,株式会社バックオフィスアクティ,,株式会社,大阪府,大阪市北区,芝田２丁目８－１１共栄ビル３Ｆ,,27,127,5300012,,,,,,,2023-01-06,1,,,,,バックオフィスアクティ,0
2037,7120001251490,新規,0,2023-01-06,2023-01-06,ライトブリッジサービス株式会社,,株式会社,大阪府,大阪市西区,境川２丁目５番１５号１００４,,27,106,5500024,,,,,,,2023-01-06,1,,,,,ライトブリッジサービス,0
2038,7120001251499,新規,0,2023-01-06,2023-01-06,株式会社橋口工務店,,株式会社,大阪府,寝屋川市,三井が丘１丁目４番８－１０６号,,27,215,5720013,,,,,,,2023-01-06,1,,,,,ハシグチコウムテン,0
2039,7120001251532,新規,0,2023-01-06,2023-01-06,株式会社ＰＫＣ,,株式会社,大阪府,大阪市北区,小松原町５番４号,,27,127,5300018,,,,,,,2023-01-06,1,,,,,ピーケーシー,0
2040,7120001251540,新規,0,2023-01-06,2023-01-06,株式会社まりふぇん,,株式会社,大阪府,大阪市北区,梅田１丁目２番２号大阪駅前第２ビル１２－１２,,27,127,5300001,,,,,,,2023-01-06,1,,,,,マリフェン,0
2042,7120003023178,新規,0,2023-01-06,2023-01-06,合同会社Ｌａ　Ｔｅｒｒｅ,,合同会社,大阪府,大阪市東住吉区,今川３丁目１番３号,,27,121,5460003,,,,,,,2023-01-06,1,,,,,ラテール,0
2044,7120005023374,新規,0,2023-01-06,2023-01-06,一般社団法人蓮華会,,その他の設立登記法人,大阪府,大阪市東住吉区,湯里２丁目３番９号,,27,121,5460013,,,,,,,2023-01-06,1,,,,,レンゲカイ,0
2046,7120103005002,新規,0,2023-01-06,2023-01-06,角谷工業合同会社,,合同会社,大阪府,泉南市,信達市場２６６５番地の９,,27,228,5900504,,,,,,,2023-01-06,1,,,,,ツノヤコウギョウ,0
2047,7120901046916,新規,0,2023-01-06,2023-01-06,株式会社Ｓｕｎ　Ｆｉｅｌｄ,,株式会社,大阪府,茨木市,美穂ケ丘１９番Ｃ－１１１２号,,27,211,5670047,,,,,,,2023-01-06,1,,,,,サンフィールド,0
2048,7120901046932,新規,0,2023-01-06,2023-01-06,株式会社ＴＳ　ｏｎｅ,,株式会社,大阪府,池田市,石橋１丁目１８番１４－Ａ号,,27,204,5630032,,,,,,,2023-01-06,1,,,,,ティーエスワン,0
2051,7122003002483,新規,0,2023-01-06,2023-01-06,合同会社晶匠設備,,合同会社,大阪府,八尾市,渋川町３丁目６番７号,,27,212,5810075,,,,,,,2023-01-06,1,,,,,アキショウセツビ,0
2063,7130001073422,新規,0,2023-01-06,2023-01-06,アートサウザン株式会社,,株式会社,京都府,京都市中京区,柳馬場通錦小路上る十文字町４４４番地５０８,,26,104,6048121,,,,,,,2023-01-06,1,,,,,アートサウザン,0
2079,7140001128506,新規,0,2023-01-06,2023-01-06,株式会社ＫＧ,,株式会社,兵庫県,姫路市,夢前町寺９番地２８フローリッシュＩ４０１号,00128897,28,201,6712116,,,,,,,2023-01-06,1,,,,,ケイジー,0
2082,7160001024736,新規,0,2023-01-06,2023-01-06,株式会社Ｋｉｍｕｒａｙａ,,株式会社,滋賀県,東近江市,蒲生堂町３３８番地２２３,,25,213,5291541,,,,,,,2023-01-06,1,,,,,キムラヤ,0
2083,7160001024744,新規,0,2023-01-06,2023-01-06,株式会社フォトサービスお写んぽ,,株式会社,滋賀県,守山市,三宅町５０番地の１１,,25,207,5240051,,,,,,,2023-01-06,1,,,,,フォトサービスオシャンポ,0
2085,7160005011152,新規,0,2023-01-06,2023-01-06,一般社団法人琵琶湖の水草工芸利用研究会,,その他の設立登記法人,滋賀県,大津市,北大路３丁目２番１２号,,25,201,5200843,,,,,,,2023-01-06,1,,,,,ビワコノミズクサコウゲイリヨウケンキュウカイ,0
2091,7180001154382,新規,0,2023-01-06,2023-01-06,株式会社Ｈｅａｒｔ　ＦＭ,,株式会社,愛知県,名古屋市中区,千代田５丁目１１番３５号,,23,106,4600012,,,,,,,2023-01-06,1,,,,,ハートエフエム,0
2092,7180001154399,新規,0,2023-01-06,2023-01-06,栄光工業株式会社,,株式会社,愛知県,名古屋市中川区,戸田４丁目１９１１番地サンライトＩＩ１０５号,00128961,23,110,4540962,,,,,,,2023-01-06,1,,,,,エイコウコウギョウ,0
2093,7180001154416,新規,0,2023-01-06,2023-01-06,株式会社５ｔｓｕｂｏ．ｄｅ．ｃａｓａ,,株式会社,愛知県,日進市,竹の山３丁目２０４番地,,23,230,4700136,,,,,,,2023-01-06,1,,,,,ゴツボデカーサ,0
2094,7180001154457,新規,0,2023-01-06,2023-01-06,株式会社ｃｋｎｏｔｏ,,株式会社,愛知県,名古屋市西区,笠取町２丁目１３１番地プレミスト庄内通４１３号,,23,104,4510072,,,,,,,2023-01-06,1,,,,,ノット,0
2095,7180003024690,新規,0,2023-01-06,2023-01-06,合同会社ビジネスサポート,,合同会社,愛知県,常滑市,蒲池町４丁目１２７－１,,23,216,4790856,,,,,,,2023-01-06,1,,,,,ビジネスサポート,0
2098,7180005020060,新規,0,2023-01-06,2023-01-06,一般社団法人東海福祉協会,,その他の設立登記法人,愛知県,名古屋市守山区,大字中志段味字湿ケ２０１５番地,,23,113,4630002,,,,,,,2023-01-06,1,,,,,トウカイフクシキョウカイ,0
2099,7180005020069,新規,0,2023-01-06,2023-01-06,司法書士法人ＡＨパートナーズ,,その他の設立登記法人,愛知県,名古屋市中村区,名駅４丁目２４番５号,,23,105,4500002,,,,,,,2023-01-06,1,,,,,エーエイチパートナーズ,0
2102,7180301036958,新規,0,2023-01-06,2023-01-06,株式会社ＫＯＨＡＲＡ,,株式会社,愛知県,豊川市,蔵子６丁目１４番８,,23,207,4420842,,,,,,,2023-01-06,1,,,,,コハラ,0
2103,7180305009431,新規,0,2023-01-06,2023-01-06,医療法人ＹＦＣ,,その他の設立登記法人,愛知県,豊橋市,牟呂町字東里６０番地,,23,201,4418087,,,,,,,2023-01-06,1,,,,,ワイエフシー,0
2104,7190001030070,新規,0,2023-01-06,2023-01-06,株式会社エス・エー・エム,,株式会社,三重県,津市,高茶屋６丁目２番３１号,,24,201,5140819,,,,,,,2023-01-06,1,,,,,エスエーエム,0
2107,7200001040828,新規,0,2023-01-06,2023-01-06,株式会社ＮＥＥＤＬＥ　ＣＡＴ　ＩＮＫ,,株式会社,岐阜県,山県市,西深瀬７２３番地３,,21,215,5012112,,,,,,,2023-01-06,1,,,,,ニードルキャットインク,0
2109,7210001019193,新規,0,2023-01-06,2023-01-06,株式会社はまみん,,株式会社,福井県,大飯郡高浜町,日置第４２号５番地８,,18,481,9192383,,,,,,,2023-01-06,1,,,,,ハマミン,0
2111,7220001025208,新規,0,2023-01-06,2023-01-06,株式会社ＢＬＯＯＯＭ,,株式会社,石川県,かほく市,宇野気チ１０３番地１,,17,209,9291125,,,,,,,2023-01-06,1,,,,,ブルーム,0
2116,7230001019654,新規,0,2023-01-06,2023-01-06,株式会社ベルメゾン鈴木,,株式会社,富山県,高岡市,姫野１５５番地,,16,202,9340093,,,,,,,2023-01-06,1,,,,,ベルメゾンスズキ,0
2119,7240001060896,新規,0,2023-01-06,2023-01-06,カタヤマシン株式会社,,株式会社,広島県,神石郡神石高原町,井関５３４９番地,,34,545,7201602,,,,,,,2023-01-06,1,,,,,カタヤマシン,0
2122,7240003005949,新規,0,2023-01-06,2023-01-06,合同会社ＢＥＳＴＯＮＥ,,合同会社,広島県,東広島市,西条町寺家６４８８－１,,34,212,7390041,,,,,,,2023-01-06,1,,,,,ベストーネ,0
2123,7240003005957,新規,0,2023-01-06,2023-01-06,合同会社和田商店,,合同会社,広島県,大竹市,本町２丁目１０番４号,,34,211,7390613,,,,,,,2023-01-06,1,,,,,ワダショウテン,0
2127,7260001037546,新規,0,2023-01-06,2023-01-06,株式会社ユーベッツ,,株式会社,岡山県,岡山市北区,国体町３番８号ベッツＵビル１００１号,,33,101,7000021,,,,,,,2023-01-06,1,,,,,ユーベッツ,0
2131,7280001008859,新規,0,2023-01-06,2023-01-06,株式会社サンボード,,株式会社,島根県,出雲市,灘分町１９１２番地,,32,203,6910003,,,,,,,2023-01-06,1,,,,,サンボード,0
2138,7290001100078,新規,0,2023-01-06,2023-01-06,株式会社ＭＴＹ　ＦＵＫＵＯＫＡ,,株式会社,福岡県,福岡市中央区,大名２丁目６番１１号,,40,133,8100041,,,,,,,2023-01-06,1,,,,,エムティーワイフクオカ,0
2139,7290001100094,新規,0,2023-01-06,2023-01-06,株式会社ランクス,,株式会社,福岡県,福岡市博多区,大博町２番４－１００１号,,40,132,8120033,,,,,,,2023-01-06,1,,,,,ランクス,0
2140,7290003013369,新規,0,2023-01-06,2023-01-06,合同会社本吉商事,,合同会社,福岡県,みやま市,瀬高町本郷９４２番地１,,40,229,8350021,,,,,,,2023-01-06,1,,,,,モトヨシショウジ,0
2144,7310001018202,新規,0,2023-01-06,2023-01-06,株式会社ＥＳＰＥＲＡＮＺＡ,,株式会社,長崎県,佐世保市,光月町７－２７－３０１,,42,202,8570805,,,,,,,2023-01-06,1,,,,,エスペランザ,0
2147,7320001019496,新規,0,2023-01-06,2023-01-06,株式会社ＳＡＮ,,株式会社,大分県,国東市,国東町中田１０２０の２番地,,44,214,8730532,,,,,,,2023-01-06,1,,,,,サン,0
2154,7330001030460,新規,0,2023-01-06,2023-01-06,株式会社みよし,,株式会社,熊本県,上益城郡御船町,大字高木１９１８番地５,,43,441,8613203,,,,,,,2023-01-06,1,,,,,ミヨシ,0
2155,7330001030469,新規,0,2023-01-06,2023-01-06,株式会社アイリング,,株式会社,熊本県,熊本市南区,並建町５０９番地,,43,104,8615263,,,,,,,2023-01-06,1,,,,,アイリング,0
2156,7330005010608,新規,0,2023-01-06,2023-01-06,税理士法人有江会計事務所,,その他の設立登記法人,熊本県,熊本市南区,合志１丁目２番８号,,43,104,8614111,,,,,,,2023-01-06,1,,,,,アリエカイケイジムショ,0
2160,7350001018108,新規,0,2023-01-06,2023-01-06,コーシン株式会社,,株式会社,宮崎県,小林市,細野２７０番地６,,45,205,8860004,,,,,,,2023-01-06,1,,,,,コーシン,0
2162,7360001031381,新規,0,2023-01-06,2023-01-06,株式会社Ｋ．Ｃ．Ｍ,,株式会社,沖縄県,沖縄市,美里１丁目１１番１号,,47,211,9042153,,,,,,,2023-01-06,1,,,,,ケイシーエム,0
2165,7360003012603,新規,0,2023-01-06,2023-01-06,合同会社Ｄｒｅａｍ,,合同会社,沖縄県,中頭郡北谷町,字北前８８５番地,,47,326,9040117,,,,,,,2023-01-06,1,,,,,ドリーム,0
2166,7370001049407,新規,0,2023-01-06,2023-01-06,株式会社ニュークリエイト,,株式会社,宮城県,大崎市,鳴子温泉字新屋敷５番地,,04,215,9896822,,,,,,,2023-01-06,1,,,,,ニュークリエイト,0
2167,7370001049423,新規,0,2023-01-06,2023-01-06,株式会社デ・リーフデ美里,,株式会社,宮城県,遠田郡美里町,練牛字赤谷三１８番地４,,04,505,9894203,,,,,,,2023-01-06,1,,,,,デリーフデミサト,0
2168,7370001049431,新規,0,2023-01-06,2023-01-06,株式会社ＴＨＥ　ＤＡＹ,,株式会社,宮城県,仙台市宮城野区,榴岡４丁目６番２１号,,04,102,9830852,,,,,,,2023-01-06,1,,,,,ザデイ,0
2169,7370001049448,新規,0,2023-01-06,2023-01-06,スタンリー株式会社,,株式会社,宮城県,仙台市青葉区,昭和町６番１０号,,04,101,9810913,,,,,,,2023-01-06,1,,,,,スタンリー,0
2170,7380001033368,新規,0,2023-01-06,2023-01-06,ＥｒａＣｒｅａｔｉｖｅＤｅｓｉｇｎ株式会社,,株式会社,福島県,郡山市,並木３丁目６－１１アポロビル１０５,,07,203,9638026,,,,,,,2023-01-06,1,,,,,イーラクリエイティブデザイン,0
2174,7390001017122,新規,0,2023-01-06,2023-01-06,株式会社阿部ファーム,,株式会社,山形県,村山市,大字田沢９０７番地１２９,,06,208,9950051,,,,,,,2023-01-06,1,,,,,アベファーム,0
2175,7390001017130,新規,0,2023-01-06,2023-01-06,株式会社グローバルネットエボリューション,,株式会社,山形県,東根市,神町北２丁目１８－２３,,06,211,9993762,,,,,,,2023-01-06,1,,,,,グローバルネットエボリューション,0
2177,7400001016114,新規,0,2023-01-06,2023-01-06,株式会社Ｔ’ｓリノベーション,,株式会社,岩手県,盛岡市,桜台３丁目３番１０号,,03,201,0200002,,,,,,,2023-01-06,1,,,,,ティーズリノベーション,0
2180,7410001013366,新規,0,2023-01-06,2023-01-06,株式会社加賀谷興業,,株式会社,秋田県,大仙市,大曲白金町７番８号,,05,212,0140015,,,,,,,2023-01-06,1,,,,,カガヤコウギョウ,0
2181,7410003003737,新規,0,2023-01-06,2023-01-06,合同会社ＰＯＶ,,合同会社,秋田県,秋田市,保戸野中町３番４２－４０５号,,05,201,0100905,,,,,,,2023-01-06,1,,,,,ピーオーヴイ,0
2185,7460101007305,新規,0,2023-01-06,2023-01-06,株式会社清水工業,,株式会社,北海道,河東郡音更町,ひびき野西町１丁目４番地６,,01,631,0800163,,,,,,,2023-01-06,1,,,,,シミズコウギョウ,0
2186,7460301005117,新規,0,2023-01-06,2023-01-06,株式会社豊島ファーム,,株式会社,北海道,網走郡大空町,女満別大東２７６番地の１２,,01,564,0992372,,,,,,,2023-01-06,1,,,,,トヨシマファーム,0
2195,7490001010372,新規,0,2023-01-06,2023-01-06,株式会社スタート,,株式会社,高知県,土佐郡土佐町,田井９５５－１,,39,363,7813521,,,,,,,2023-01-06,1,,,,,スタート,0
2197,7500005008551,新規,0,2023-01-06,2023-01-06,税理士法人ミチ・ツナグ,,その他の設立登記法人,愛媛県,松山市,中央２丁目２３－１平岡ビル２０２,,38,201,7918015,,,,,,,2023-01-06,1,,,,,ミチツナグ,0
2207,8010001231924,新規,0,2023-01-06,2023-01-06,シルクストランドファーマ株式会社,,株式会社,東京都,文京区,本郷３丁目４番５号,,13,105,1130033,,,,,,,2023-01-06,1,,,,,シルクストランドファーマ,0
2208,8010001231998,新規,0,2023-01-06,2023-01-06,株式会社エムアールラボラトリー,,株式会社,東京都,文京区,水道２丁目６番３号文京ＭＭビル３Ｆ,,13,105,1120005,,,,,,,2023-01-06,1,,,,,エムアールラボラトリー,0
2209,8010001232014,新規,0,2023-01-06,2023-01-06,株式会社ブレインボックス,,株式会社,東京都,中央区,銀座７丁目１３番２０号銀座ＴＨビル９階,,13,102,1040061,,,,,,,2023-01-06,1,,,,,ブレインボックス,0
2215,8010401171613,新規,0,2023-01-06,2023-01-06,株式会社アドバンス,,株式会社,東京都,港区,浜松町２丁目２番１５号浜松町ダイヤビル２Ｆ,,13,103,1050013,,,,,,,2023-01-06,1,,,,,アドバンス,0
2216,8010401171679,新規,0,2023-01-06,2023-01-06,株式会社Ｅｘｐａｎｄ　Ｈｏｌｄｉｎｇｓ,,株式会社,東京都,港区,六本木１丁目３番４１号１Ｆ,,13,103,1060032,,,,,,,2023-01-06,1,,,,,エクスパンドホールディングス,0
2217,8010401171687,新規,0,2023-01-06,2023-01-06,株式会社ＳｔａｒＦｕｔｕｒｅ,,株式会社,東京都,港区,新橋５丁目８－３１ル・グラシエルＢＬＤＧ．３２－１１０２,,13,103,1050004,,,,,,,2023-01-06,1,,,,,スターフューチャー,0
2227,8010403029223,新規,0,2023-01-06,2023-01-06,合同会社ＡＩＭＥＲ,,合同会社,東京都,港区,南青山３丁目１番３６号青山丸竹ビル６Ｆ,,13,103,1070062,,,,,,,2023-01-06,1,,,,,エメ,0
2228,8010501049825,新規,0,2023-01-06,2023-01-06,リベルタ・インベストメント・パートナーズ株式会社,,株式会社,東京都,台東区,台東１丁目２４番９号ブライト秋葉原,,13,106,1100016,,,,,,,2023-01-06,1,,,,,リベルタインベストメントパートナーズ,0
2236,8010701043669,新規,0,2023-01-06,2023-01-06,株式会社ｍｅｔａｍｏｎ,,株式会社,東京都,品川区,上大崎２丁目１８番２０号中銀目黒駅前マンシオン３０３,,13,109,1410021,,,,,,,2023-01-06,1,,,,,メタモン,0
2237,8010701043693,新規,0,2023-01-06,2023-01-06,ホスピスメディケア株式会社,,株式会社,東京都,品川区,東品川４丁目１２番１１号,,13,109,1400002,,,,,,,2023-01-06,1,,,,,ホスピスメディケア,0
2238,8010803004412,新規,0,2023-01-06,2023-01-06,合同会社ＣＡＳＡさわ住橋本荘,,合同会社,東京都,大田区,大森西３丁目１８番１８号橋本荘,,13,111,1430015,,,,,,,2023-01-06,1,,,,,カーササワジュウハシモトソウ,0
2242,8010901052255,新規,0,2023-01-06,2023-01-06,株式会社ティーボーン,,株式会社,東京都,世田谷区,若林３丁目３５番１１号,,13,112,1540023,,,,,,,2023-01-06,1,,,,,ティーボーン,0
2243,8010903007868,新規,0,2023-01-06,2023-01-06,合同会社ルバート,,合同会社,東京都,世田谷区,弦巻４丁目１１番２号ＳＯＵ桜新町３０４,,13,112,1540016,,,,,,,2023-01-06,1,,,,,ルバート,0
2244,8010903007876,新規,0,2023-01-06,2023-01-06,合同会社やまもと心理カウンセリングオフィス,,合同会社,東京都,世田谷区,尾山台３丁目１９番１１－５０５号,,13,112,1580086,,,,,,,2023-01-06,1,,,,,ヤマモトシンリカウンセリングオフィス,0
2250,8011001151749,新規,0,2023-01-06,2023-01-06,株式会社鰾,,株式会社,東京都,渋谷区,西原３丁目２２番５号,,13,113,1510066,,,,,,,2023-01-06,1,,,,,ウキブクロ,0
2251,8011001151781,新規,0,2023-01-06,2023-01-06,ＬＩＶＥＳＭＩＬＥ株式会社,,株式会社,東京都,渋谷区,道玄坂１丁目１５番３号プリメーラ道玄坂４１５,,13,113,1500043,,,,,,,2023-01-06,1,,,,,リブスマイル,0
2255,8011103012543,新規,0,2023-01-06,2023-01-06,Ｆｕｔｕｒｅｖｉｅｗ　Ｊａｐａｎ合同会社,,合同会社,東京都,新宿区,西新宿１丁目２６－２新宿野村ビル３２Ｆ,,13,104,1600023,,,,,,,2023-01-06,1,,,,,フューチャービュージャパン,0
2257,8011501028802,新規,0,2023-01-06,2023-01-06,ＢＯＸＩ株式会社,,株式会社,東京都,荒川区,町屋３丁目２４番２号面川ビル２０９号室,,13,118,1160001,,,,,,,2023-01-06,1,,,,,ボクシー,0
2258,8011701025913,新規,0,2023-01-06,2023-01-06,新時代株式会社,,株式会社,東京都,江戸川区,南小岩５丁目２０－３ヴィラ四宮１０１,,13,123,1330056,,,,,,,2023-01-06,1,,,,,シンジダイ,0
2261,8011801041744,新規,0,2023-01-06,2023-01-06,澄義株式会社,,株式会社,東京都,足立区,千住桜木１丁目１０番１６－６０６号,,13,121,1200045,,,,,,,2023-01-06,1,,,,,スミヨシ,0
2262,8011801041752,新規,0,2023-01-06,2023-01-06,ペンペン株式会社,,株式会社,東京都,足立区,栗原３丁目２６番１号２Ｆ,,13,121,1230842,,,,,,,2023-01-06,1,,,,,ペンペン,0
2273,8020001149629,新規,0,2023-01-06,2023-01-06,株式会社ライトハウス,,株式会社,神奈川県,横浜市保土ケ谷区,上星川３丁目２０番７号ｏｆｆｉｃｅ８,,14,106,2400042,,,,,,,2023-01-06,1,,,,,ライトハウス,0
2274,8020001149637,新規,0,2023-01-06,2023-01-06,株式会社コンフォートリビング,,株式会社,神奈川県,横浜市南区,南吉田町２丁目１７番地３５ライオンズマンション吉野町第１１－１０６号室,,14,105,2320012,,,,,,,2023-01-06,1,,,,,コンフォートリビング,0
2275,8020001149645,新規,0,2023-01-06,2023-01-06,株式会社真陽商事,,株式会社,神奈川県,横浜市中区,長者町５丁目５１番地１,,14,104,2310033,,,,,,,2023-01-06,1,,,,,シンヨウショウジ,0
2276,8020001149661,新規,0,2023-01-06,2023-01-06,株式会社ワイエス,,株式会社,神奈川県,横浜市中区,松影町２丁目７番１７号リバーハイツ石川町３０１室,,14,104,2310025,,,,,,,2023-01-06,1,,,,,ワイエス,0
2279,8020003022998,新規,0,2023-01-06,2023-01-06,合同会社ＮＲＴ,,合同会社,神奈川県,横浜市青葉区,田奈町４１番地１５,,14,117,2270064,,,,,,,2023-01-06,1,,,,,エヌアールティー,0
2280,8020003023014,新規,0,2023-01-06,2023-01-06,Ｌｅｇｉｔ合同会社,,合同会社,神奈川県,横浜市青葉区,すすき野２丁目５番地４,,14,117,2250021,,,,,,,2023-01-06,1,,,,,レジット,0
2282,8021001077860,新規,0,2023-01-06,2023-01-06,株式会社ブラドリー,,株式会社,神奈川県,相模原市南区,相模大野１丁目３５番１４号,,14,153,2520303,,,,,,,2023-01-06,1,,,,,ブラドリー,0
2294,8030001151708,新規,0,2023-01-06,2023-01-06,麻生綿製株式会社,,株式会社,埼玉県,草加市,花栗３丁目２０番４３号,,11,221,3400044,,,,,,,2023-01-06,1,,,,,アソウメンセイ,0
2295,8030001151716,新規,0,2023-01-06,2023-01-06,株式会社ハイツリー,,株式会社,埼玉県,草加市,北谷１丁目１０番１０号,,11,221,3400046,,,,,,,2023-01-06,1,,,,,ハイツリー,0
2305,8030003020893,新規,0,2023-01-06,2023-01-06,アール・インサイト合同会社,,合同会社,埼玉県,川口市,大字東内野５６－１０,,11,203,3330821,,,,,,,2023-01-06,1,,,,,アールインサイト,0
2307,8040001126452,新規,0,2023-01-06,2023-01-06,株式会社Ｃｈａｎｃｅ,,株式会社,千葉県,成田市,花崎町８１４番地４９,,12,211,2860033,,,,,,,2023-01-06,1,,,,,シャンス,0
2308,8040001126460,新規,0,2023-01-06,2023-01-06,株式会社ａｚｏｏｗ,,株式会社,千葉県,香取市,北３丁目７番地１２,,12,236,2870002,,,,,,,2023-01-06,1,,,,,アズー,0
2309,8040001126477,新規,0,2023-01-06,2023-01-06,幕張ケアマネージャー事務所株式会社,,株式会社,千葉県,千葉市花見川区,幕張町５丁目４１７番地２２２幕張グリーンハイツ２０４号,,12,102,2620032,,,,,,,2023-01-06,1,,,,,マクハリケアマネージャージムショ,0
2310,8040001126485,新規,0,2023-01-06,2023-01-06,ＭＴ株式会社,,株式会社,千葉県,柏市,塚崎１００４－３１,,12,217,2770923,,,,,,,2023-01-06,1,,,,,エムテイ,0
2311,8040001126535,新規,0,2023-01-06,2023-01-06,ＭＫ‐Ｒ株式会社,,株式会社,千葉県,船橋市,大穴町６３３番地２３,,12,204,2740066,,,,,,,2023-01-06,1,,,,,エムケーアール,0
2312,8040003021602,新規,0,2023-01-06,2023-01-06,三錦合同会社,,合同会社,千葉県,我孫子市,我孫子１丁目２４番６号（２０３号）コーポヨシダ,,12,222,2701166,,,,,,,2023-01-06,1,,,,,サンキン,0
2314,8040005021856,新規,0,2023-01-06,2023-01-06,医療法人社団慶禄会,,その他の設立登記法人,千葉県,千葉市緑区,あすみが丘東４丁目１番地１,,12,105,2670067,,,,,,,2023-01-06,1,,,,,ケイロクカイ,0
2317,8050001052169,新規,0,2023-01-06,2023-01-06,株式会社ＶＩＥＴ　ＮＨＡＴ　ＣＡＲ,,株式会社,茨城県,取手市,小文間５１６０番地１０３,,08,217,3020001,,,,,,,2023-01-06,1,,,,,ヘトナトカー,0
2320,8060001035585,新規,0,2023-01-06,2023-01-06,株式会社Ｓ　ｒｉｎｋｓ,,株式会社,栃木県,小山市,中央町３丁目３番１０号ロブレ６３２・１階Ｂ－１１２Ｗ,,09,208,3230023,,,,,,,2023-01-06,1,,,,,エスリンクス,0
2326,8070003004769,新規,0,2023-01-06,2023-01-06,ＴＩＳＩＮＩ　ＥＮＴＥＲＰＲＩＳＥＳ合同会社,,合同会社,群馬県,邑楽郡大泉町,大字寄木戸３３６番地フレックスＩ１０２号室,00128950,10,524,3700535,,,,,,,2023-01-06,1,,,,,ティシニエンタープライゼズ,0
2327,8070003004777,新規,0,2023-01-06,2023-01-06,ショコラ合同会社,,合同会社,群馬県,高崎市,鶴見町６－１１アッコラビル高崎２Ａ,,10,202,3700848,,,,,,,2023-01-06,1,,,,,ショコラ,0
2330,8080001025386,新規,0,2023-01-06,2023-01-06,ｂｉｔｇａｔｅ株式会社,,株式会社,静岡県,静岡市葵区,一番町２番地,,22,101,4200071,,,,,,,2023-01-06,1,,,,,ビットゲイト,0
2331,8080003002920,新規,0,2023-01-06,2023-01-06,合同会社Ｌｉｎｋ　ｃｏｓｍｅｔｉｃ,,合同会社,静岡県,藤枝市,駅前２丁目２０番１２号,,22,214,4260034,,,,,,,2023-01-06,1,,,,,リンクコスメティック,0
2334,8080403004681,新規,0,2023-01-06,2023-01-06,合同会社ニュー水無月,,合同会社,静岡県,磐田市,森岡１２７番地２,,22,211,4380832,,,,,,,2023-01-06,1,,,,,ニューミナヅキ,0
2337,8100003006828,新規,0,2023-01-06,2023-01-06,小林小野合同会社,,合同会社,長野県,北安曇郡白馬村,大字北城８３０番地９２,,20,485,3999301,,,,,,,2023-01-06,1,,,,,コリンコノ,0
2340,8110001037221,新規,0,2023-01-06,2023-01-06,タイショウ工業株式会社,,株式会社,新潟県,新潟市西蒲区,潟頭７番地,,15,108,9530067,,,,,,,2023-01-06,1,,,,,タイショウコウギョウ,0
2359,8120001251408,新規,0,2023-01-06,2023-01-06,株式会社ＦｅｍＴｅｃｈ,,株式会社,大阪府,大阪市淀川区,東三国４丁目１８番１７号,,27,123,5320002,,,,,,,2023-01-06,1,,,,,フェムテック,0
2360,8120001251449,新規,0,2023-01-06,2023-01-06,株式会社未来,,株式会社,大阪府,寝屋川市,点野３丁目３番９号,,27,215,5720077,,,,,,,2023-01-06,1,,,,,ミライ,0
2361,8120001251457,新規,0,2023-01-06,2023-01-06,Ｊａｐａｎ　Ｂｕｓｉｎｅｓｓ　Ｐａｒｔｎｅｒｓ株式会社,,株式会社,大阪府,大阪市淀川区,西宮原１丁目８番２４号新大阪第３ドイビル６Ｆ,,27,123,5320004,,,,,,,2023-01-06,1,,,,,ジャパンビジネスパートナーズ,0
2362,8120001251465,新規,0,2023-01-06,2023-01-06,株式会社Ｈａｐｐｙ　Ｃｒｅａｔｅ,,株式会社,大阪府,大阪市都島区,東野田町１丁目１２番１４－１５０５号,,27,102,5340024,,,,,,,2023-01-06,1,,,,,ハッピークリエイト,0
2363,8120001251473,新規,0,2023-01-06,2023-01-06,リロード株式会社,,株式会社,大阪府,大阪市中央区,南船場１丁目１０番１２号ラインビルド南船場１００４号室,,27,128,5420081,,,,,,,2023-01-06,1,,,,,リロード,0
2364,8120001251481,新規,0,2023-01-06,2023-01-06,株式会社マハーカーラ,,株式会社,大阪府,大阪市北区,梅田１丁目１１番４号,,27,127,5300001,,,,,,,2023-01-06,1,,,,,マハーカーラ,0
2365,8120001251515,新規,0,2023-01-06,2023-01-06,株式会社カミール,,株式会社,大阪府,大阪市住之江区,南加賀屋３丁目２番６号,,27,125,5590015,,,,,,,2023-01-06,1,,,,,カミール,0
2366,8120001251523,新規,0,2023-01-06,2023-01-06,株式会社Ｈ・Ｍ・Ｋ,,株式会社,大阪府,寝屋川市,宝町４番１４号,,27,215,5720067,,,,,,,2023-01-06,1,,,,,エイチエムケイ,0
2368,8120003023185,新規,0,2023-01-06,2023-01-06,合同会社Ｙ．Ｄコーポレーション,,合同会社,大阪府,大阪市西成区,天下茶屋１丁目２４番２７号,,27,122,5570014,,,,,,,2023-01-06,1,,,,,ワイアンドディーコーポレーション,0
2369,8120003023193,新規,0,2023-01-06,2023-01-06,サンコン合同会社,,合同会社,大阪府,大阪市淀川区,十三東２丁目１１番６号,,27,123,5320023,,,,,,,2023-01-06,1,,,,,サンコン,0
2370,8120005023381,新規,0,2023-01-06,2023-01-06,税理士法人今井会計事務所,,その他の設立登記法人,大阪府,大阪市都島区,都島本通１丁目７番１９号,,27,102,5340021,,,,,,,2023-01-06,1,,,,,イマイカイケイジムショ,0
2371,8120101066747,新規,0,2023-01-06,2023-01-06,株式会社大和工業,,株式会社,大阪府,堺市堺区,大町西１丁１番２０号コスモ宿院ビル１Ｆ,,27,141,5900959,,,,,,,2023-01-06,1,,,,,ヤマトコウギョウ,0
2372,8120105009660,新規,0,2023-01-06,2023-01-06,一般社団法人オダックス近畿,,その他の設立登記法人,大阪府,泉南郡岬町,淡輪３７６４番地の１０,,27,366,5990301,,,,,,,2023-01-06,1,,,,,オダックスキンキ,0
2378,8130001073388,新規,0,2023-01-06,2023-01-06,株式会社カワイ,,株式会社,京都府,京都市西京区,桂乾町５３番地８４,,26,111,6158086,,,,,,,2023-01-06,1,,,,,カワイ,0
2379,8130001073396,新規,0,2023-01-06,2023-01-06,株式会社ＺＡＷＡ,,株式会社,京都府,京都市右京区,嵯峨野西ノ藤町１７番地５８,,26,108,6168333,,,,,,,2023-01-06,1,,,,,ザワ,0
2380,8130001073421,新規,0,2023-01-06,2023-01-06,株式会社福島,,株式会社,京都府,京都市下京区,西洞院通五条上る八幡町５４１番地サンクタス西洞院ルーセント１２０１号室,,26,106,6008455,,,,,,,2023-01-06,1,,,,,フクシマ,0
2385,8130003008409,新規,0,2023-01-06,2023-01-06,合同会社ＥＰＯＣＨ　ＭＡＫＩＮＧ,,合同会社,京都府,京都市伏見区,醍醐下山口町２２番地２下山口ビル２０３号室,,26,109,6011343,,,,,,,2023-01-06,1,,,,,エポックメイキング,0
2391,8140001128595,新規,0,2023-01-06,2023-01-06,株式会社大同商事,,株式会社,兵庫県,尼崎市,長洲西通１丁目４番６号,,28,202,6600807,,,,,,,2023-01-06,1,,,,,ダイドウショウジ,0
2410,8180301036957,新規,0,2023-01-06,2023-01-06,株式会社ジークレイン,,株式会社,愛知県,豊橋市,神野新田町字ハノ割２２番地１,,23,201,4418077,,,,,,,2023-01-06,1,,,,,ジークレイン,0
2414,8200003005786,新規,0,2023-01-06,2023-01-06,合同会社龍建,,合同会社,岐阜県,大垣市,三塚町９７３番地１,,21,202,5030808,,,,,,,2023-01-06,1,,,,,ドラケン,0
2416,8220003003425,新規,0,2023-01-06,2023-01-06,合同会社ｚｅｒｏ,,合同会社,石川県,野々市市,三納２丁目１７７番地,,17,212,9218825,,,,,,,2023-01-06,1,,,,,ゼロ,0
2417,8230001019653,新規,0,2023-01-06,2023-01-06,株式会社ＳＯＭＡ,,株式会社,富山県,中新川郡上市町,若杉２丁目４２５番地,,16,322,9300314,,,,,,,2023-01-06,1,,,,,ソウマ,0
2419,8240001060870,新規,0,2023-01-06,2023-01-06,株式会社Ｍｉｎｏｒｉ,,株式会社,広島県,広島市佐伯区,三宅１丁目４番４９－４号,,34,108,7315143,,,,,,,2023-01-06,1,,,,,ミノリ,0
2420,8240001060895,新規,0,2023-01-06,2023-01-06,株式会社リベルタ,,株式会社,広島県,広島市中区,西川口町１２番１４号,,34,101,7300846,,,,,,,2023-01-06,1,,,,,リベルタ,0
2421,8240001060904,新規,0,2023-01-06,2023-01-06,株式会社ＶＲＯＡＤ,,株式会社,広島県,広島市南区,上東雲町２４－１７エルシティ東雲４０５,,34,103,7340021,,,,,,,2023-01-06,1,,,,,ヴイロード,0
2427,8240005015499,新規,0,2023-01-06,2023-01-06,幟税理士法人,,その他の設立登記法人,広島県,広島市中区,幟町６番８号,,34,101,7300016,,,,,,,2023-01-06,1,,,,,ノボリ,0
2435,8260001037529,新規,0,2023-01-06,2023-01-06,株式会社Ｋ．ＷＥＬＤ,,株式会社,岡山県,津山市,西吉田７００番地１２２,,33,203,7080856,,,,,,,2023-01-06,1,,,,,ケイウェルド,0
2436,8260001037537,新規,0,2023-01-06,2023-01-06,株式会社スリーオリジン,,株式会社,岡山県,岡山市南区,妹尾２３７３番地２３オフィス南陽２０５号,,33,104,7010205,,,,,,,2023-01-06,1,,,,,スリーオリジン,0
2439,8280001008858,新規,0,2023-01-06,2023-01-06,株式会社千賀水産,,株式会社,島根県,大田市,五十猛町１９７６番地１,,32,205,6940035,,,,,,,2023-01-06,1,,,,,センガスイサン,0
2440,8280005007526,新規,0,2023-01-06,2023-01-06,医療法人信生会,,その他の設立登記法人,島根県,出雲市,小山町２９６番地５,,32,203,6930051,,,,,,,2023-01-06,1,,,,,シンセイカイ,0
2445,8290001100093,新規,0,2023-01-06,2023-01-06,株式会社ＣＡＲＲＩＥＲＡ,,株式会社,福岡県,太宰府市,青葉台４丁目１７番１６号,,40,221,8180137,,,,,,,2023-01-06,1,,,,,カッリエラ,0
2446,8290001100119,新規,0,2023-01-06,2023-01-06,株式会社ゾンクホテル,,株式会社,福岡県,福岡市中央区,大名１丁目９番５０号,,40,133,8100041,,,,,,,2023-01-06,1,,,,,ゾンクホテル,0
2447,8290003013376,新規,0,2023-01-06,2023-01-06,合資会社ワールド,,合資会社,福岡県,福津市,八並１４４１番１,,40,224,8113201,,,,,,,2023-01-06,1,,,,,ワールド,0
2453,8310001018192,新規,0,2023-01-06,2023-01-06,イーグルホールディングス株式会社,,株式会社,長崎県,佐世保市,島瀬町３番１４号太陽ビル５　３０５号,,42,202,8570806,,,,,,,2023-01-06,1,,,,,イーグルホールディングス,0
2460,8320003003984,新規,0,2023-01-06,2023-01-06,合同会社ＡＤＶＡＮＴＡＧＥ,,合同会社,大分県,別府市,北浜１丁目４番２１号バカラビル２階,,44,202,8740920,,,,,,,2023-01-06,1,,,,,アドヴァンテージ,0
2461,8330001030451,新規,0,2023-01-06,2023-01-06,株式会社多田製材,,株式会社,熊本県,球磨郡湯前町,５３６９番地１,,43,506,8680600,,,,,,,2023-01-06,1,,,,,タダセイザイ,0
2462,8330001030468,新規,0,2023-01-06,2023-01-06,株式会社ブレーメン,,株式会社,熊本県,熊本市中央区,島崎１丁目３１番１－５０８号フラワーマンション城西,,43,101,8600073,,,,,,,2023-01-06,1,,,,,ブレーメン,0
2463,8330001030476,新規,0,2023-01-06,2023-01-06,未来彩建株式会社,,株式会社,熊本県,熊本市東区,江津３丁目４番１２号Ｈａｇｉｎｏ５１．ＢＬＤ１０４号,,43,102,8620942,,,,,,,2023-01-06,1,,,,,ミライサイケン,0
2466,8330003009659,新規,0,2023-01-06,2023-01-06,合同会社ホームタウン熊本,,合同会社,熊本県,熊本市中央区,出水３丁目７番３８－２号ローズガーデン壱番館２０３,,43,101,8620941,,,,,,,2023-01-06,1,,,,,ホームタウンクマモト,0
2467,8330005010607,新規,0,2023-01-06,2023-01-06,一般社団法人宏和ビル敷地共有者の会,,その他の設立登記法人,熊本県,熊本市中央区,桜町２番３７号錦桜町ビル１０Ｆ,,43,101,8600805,,,,,,,2023-01-06,1,,,,,コウワビルシキチキョウユウシャノカイ,0
2468,8340001025277,新規,0,2023-01-06,2023-01-06,株式会社名越造園,,株式会社,鹿児島県,西之表市,西之表３８１５番地１２,,46,213,8913101,,,,,,,2023-01-06,1,,,,,ナゴヤゾウエン,0
2471,8350001018107,新規,0,2023-01-06,2023-01-06,株式会社西村製材所,,株式会社,宮崎県,都城市,蓑原町１６５５番地,,45,202,8850095,,,,,,,2023-01-06,1,,,,,ニシムラセイザイショ,0
2474,8360001031364,新規,0,2023-01-06,2023-01-06,株式会社Ｉｎｄｕｓｔｒｉａｌ　Ｃｒｅａｔｉｏｎ＆Ｅｄｉｔ,,株式会社,沖縄県,石垣市,字大川２７８番地ＴＡＭＡビルＩＩ２０１号室,00128965,47,207,9070022,,,,,,,2023-01-06,1,,,,,インダストリアルクリエイションアンドエディット,0
2475,8360001031397,新規,0,2023-01-06,2023-01-06,オールアテンド株式会社,,株式会社,沖縄県,宮古島市,平良字下里１３１４番地３オアシティ共和マンションＩＩ４０３,00128953,47,214,9060013,,,,,,,2023-01-06,1,,,,,オールアテンド,0
2477,8370001049422,新規,0,2023-01-06,2023-01-06,株式会社ＬＩＫＯＬＵ,,株式会社,宮城県,仙台市若林区,二軒茶屋１７番４１号２Ｆ,,04,103,9840046,,,,,,,2023-01-06,1,,,,,リコル,0
2478,8370003005935,新規,0,2023-01-06,2023-01-06,合同会社鎌田商店,,合同会社,宮城県,大崎市,古川福沼１丁目２７番５号,,04,215,9896105,,,,,,,2023-01-06,1,,,,,カマダショウテン,0
2482,8390001017121,新規,0,2023-01-06,2023-01-06,株式会社はらだ農園,,株式会社,山形県,村山市,大字名取６４番地,,06,208,9950052,,,,,,,2023-01-06,1,,,,,ハラダノウエン,0
2484,8400001016113,新規,0,2023-01-06,2023-01-06,株式会社ＢｏＡ’ｓ,,株式会社,岩手県,奥州市,水沢台町２番５４号,,03,215,0230825,,,,,,,2023-01-06,1,,,,,ボア,0
2485,8410001013357,新規,0,2023-01-06,2023-01-06,株式会社Ｐｒｏｃｅｅｄ　Ｓｔｅａｄｉｌｙ,,株式会社,秋田県,大仙市,神宮寺字中瀬古川敷１４１番地１０,,05,212,0191701,,,,,,,2023-01-06,1,,,,,プロシードステディリー,0
2486,8410002014073,新規,0,2023-01-06,2023-01-06,有限会社県北不動産,,有限会社,秋田県,大館市,御成町２丁目１４番３号,,05,204,0170044,,,,,,,2023-01-06,1,,,,,ケンポクフドウサン,0
2487,8420001018108,新規,0,2023-01-06,2023-01-06,株式会社Ｒｅｗｏｒｋｓ,,株式会社,青森県,八戸市,大字根城字大久保２１番地２３,,02,203,0391166,,,,,,,2023-01-06,1,,,,,リワークス,0
2491,8430001088133,新規,0,2023-01-06,2023-01-06,株式会社ココロにハルを・ＳｈｉｇＭａ,,株式会社,北海道,札幌市西区,福井７丁目１番１３号,,01,107,0630012,,,,,,,2023-01-06,1,,,,,ココロニハルヲシグマ,0
2492,8430001088141,新規,0,2023-01-06,2023-01-06,株式会社ファーストワンマイル,,株式会社,北海道,札幌市中央区,北五条西２７丁目１番２０－２０３号,,01,101,0640825,,,,,,,2023-01-06,1,,,,,ファーストワンマイル,0
2498,8460003000935,新規,0,2023-01-06,2023-01-06,合同会社Ｅプラン,,合同会社,北海道,釧路市,芦野２丁目２１番２０号,00128964,01,206,0850061,,,,,,,2023-01-06,1,,,,,イープラン,0
2504,8500003002943,新規,0,2023-01-06,2023-01-06,合同会社Ｇｒａｎｄｅ,,合同会社,愛媛県,松山市,天山３丁目１４番２５号天山中央ビル２０５号,,38,201,7900951,,,,,,,2023-01-06,1,,,,,グランデ,0
2510,9010001231972,新規,0,2023-01-06,2023-01-06,Ｋｏｎａｍａｇｉ株式会社,,株式会社,東京都,中央区,日本橋室町１丁目２－６,,13,102,1030022,,,,,,,2023-01-06,1,,,,,コナマジ,0
2515,9010003039480,新規,0,2023-01-06,2023-01-06,合同会社ｂｉｚ‐ａｍｓ,,合同会社,東京都,中央区,佃２丁目５番７号,,13,102,1040051,,,,,,,2023-01-06,1,,,,,ビズエーエムエス,0
2516,9010003039514,新規,0,2023-01-06,2023-01-06,合同会社ｋｏｋｏｒｏ,,合同会社,東京都,中央区,銀座１丁目１２番４号Ｎ＆ＥＢＬＤ．６Ｆ,,13,102,1040061,,,,,,,2023-01-06,1,,,,,ココロ,0
2523,9010401171686,新規,0,2023-01-06,2023-01-06,ヤマワケレンディング株式会社,,株式会社,東京都,港区,芝大門１丁目３番５号芝大門スクエア２階,,13,103,1050012,,,,,,,2023-01-06,1,,,,,ヤマワケレンディング,0
2525,9010403029222,新規,0,2023-01-06,2023-01-06,合同会社ＬＩＢＥＮＩ,,合同会社,東京都,港区,南青山５丁目１７番２号,,13,103,1070062,,,,,,,2023-01-06,1,,,,,リベニ,0
2526,9010403029230,新規,0,2023-01-06,2023-01-06,Ｌｅｓ’Ｍｕｓｅｓ合同会社,,合同会社,東京都,港区,南青山２丁目２番１５号,,13,103,1070062,,,,,,,2023-01-06,1,,,,,レミューズ,0
2527,9010405021689,新規,0,2023-01-06,2023-01-06,一般社団法人Ｓｕｓｔｅｃｈパートナーズ,,その他の設立登記法人,東京都,港区,芝３丁目１番１４号芝公園阪神ビル５階,,13,103,1050014,,,,,,,2023-01-06,1,,,,,サステックパートナーズ,0
2530,9010501049799,新規,0,2023-01-06,2023-01-06,株式会社ｕｔ‐ｗｏｒｋｓ,,株式会社,東京都,台東区,蔵前１丁目３番３３－１００６号,,13,106,1110051,,,,,,,2023-01-06,1,,,,,ユーティーワークス,0
2531,9010501049824,新規,0,2023-01-06,2023-01-06,株式会社ユーノー,,株式会社,東京都,台東区,谷中３丁目２４番４－３０３号,,13,106,1100001,,,,,,,2023-01-06,1,,,,,ユーノー,0
2537,9010603009932,新規,0,2023-01-06,2023-01-06,合同会社カチムシグラフィックス,,合同会社,東京都,墨田区,立花６丁目６番２号,,13,107,1310043,,,,,,,2023-01-06,1,,,,,カチムシグラフィックス,0
2546,9010901052279,新規,0,2023-01-06,2023-01-06,Ｆｏｕｒ　Ｓｅａｓｏｎｓ　Ｆｌｏｗｅｒ株式会社,,株式会社,東京都,世田谷区,船橋２丁目４番２５ー１１１号,,13,112,1560055,,,,,,,2023-01-06,1,,,,,フォーシーズンズフラワー,0
2549,9010903007875,新規,0,2023-01-06,2023-01-06,ＴＭＯカード合同会社,,合同会社,東京都,世田谷区,下馬３丁目３２－１２,,13,112,1540002,,,,,,,2023-01-06,1,,,,,ティーエムオーカード,0
2561,9011001151748,新規,0,2023-01-06,2023-01-06,株式会社ＯＰＥＮＲＥＣ,,株式会社,東京都,渋谷区,渋谷２丁目２４番１２号,,13,113,1500002,,,,,,,2023-01-06,1,,,,,オープンレック,0
2568,9011303004629,新規,0,2023-01-06,2023-01-06,合同会社満塁ホームラン,,合同会社,東京都,杉並区,阿佐谷北２丁目３－２,,13,115,1660001,,,,,,,2023-01-06,1,,,,,マンルイホームラン,0
2575,9011601026481,新規,0,2023-01-06,2023-01-06,株式会社Ｓｔｏｎｅ　Ｂｅｌｌ,,株式会社,東京都,練馬区,豊玉北５丁目２０番１２号,,13,120,1760012,,,,,,,2023-01-06,1,,,,,ストーンベル,0
2577,9011603003792,新規,0,2023-01-06,2023-01-06,ＲＩＣＨ　ＴＥＣＨ合同会社,,合同会社,東京都,練馬区,貫井２丁目３２番１６号,,13,120,1760021,,,,,,,2023-01-06,1,,,,,リッチテック,0
2578,9011701025920,新規,0,2023-01-06,2023-01-06,株式会社ビルドハーツ,,株式会社,東京都,江戸川区,大杉５丁目３１番２０号,,13,123,1320022,,,,,,,2023-01-06,1,,,,,ビルドハーツ,0
2579,9011703003346,新規,0,2023-01-06,2023-01-06,合同会社こねくてぃ,,合同会社,東京都,江戸川区,西小岩４丁目４番１６－１０４号,,13,123,1330057,,,,,,,2023-01-06,1,,,,,コネクティ,0
2582,9012801022056,新規,0,2023-01-06,2023-01-06,株式会社Ｍ・Ｉ　Ｃｏｍｐａｎｙ,,株式会社,東京都,日野市,旭が丘２丁目３番地の１８,,13,212,1910065,,,,,,,2023-01-06,1,,,,,エムアイカンパニー,0
2584,9012803002972,新規,0,2023-01-06,2023-01-06,ＥＩＮＺＩＥＬＥ合同会社,,合同会社,東京都,武蔵村山市,学園５丁目９番地の３－１０２,,13,223,2080011,,,,,,,2023-01-06,1,,,,,アインジール,0
2586,9013301050142,新規,0,2023-01-06,2023-01-06,株式会社宜豊,,株式会社,東京都,豊島区,南大塚１丁目６０番２０号天翔大塚駅前ビルＳ９０４号室,,13,116,1700005,,,,,,,2023-01-06,1,,,,,イーフォン,0
2592,9020001149636,新規,0,2023-01-06,2023-01-06,株式会社八幡左官工芸,,株式会社,神奈川県,川崎市宮前区,神木本町４丁目８番１１号,,14,136,2160031,,,,,,,2023-01-06,1,,,,,ヤハタサカンコウゲイ,0
2593,9020001149644,新規,0,2023-01-06,2023-01-06,株式会社ＮＭＷ,,株式会社,神奈川県,横浜市中区,桜木町１丁目１０１番地１クロスゲート７階,,14,104,2310062,,,,,,,2023-01-06,1,,,,,エヌエムダブリュー,0
2594,9020001149660,新規,0,2023-01-06,2023-01-06,株式会社リル・デザイン,,株式会社,神奈川県,川崎市高津区,久本１丁目６番８号,,14,134,2130011,,,,,,,2023-01-06,1,,,,,リルデザイン,0
2595,9020001149677,新規,0,2023-01-06,2023-01-06,株式会社セクション,,株式会社,神奈川県,横浜市緑区,長津田４丁目１０番３１－５２３号,,14,113,2260027,,,,,,,2023-01-06,1,,,,,セクション,0
2598,9020003022997,新規,0,2023-01-06,2023-01-06,合同会社ＧＩＲＬ　ＢＯＳＳ,,合同会社,神奈川県,横浜市中区,山下町２９－２０４号室,,14,104,2310023,,,,,,,2023-01-06,1,,,,,ガールボス,0
2599,9020003023005,新規,0,2023-01-06,2023-01-06,合同会社ＪＬＤ,,合同会社,神奈川県,横浜市都筑区,牛久保１丁目２２番７９号,,14,118,2240012,,,,,,,2023-01-06,1,,,,,ジェイエルディー,0
2600,9020003023013,新規,0,2023-01-06,2023-01-06,合同会社菊,,合同会社,神奈川県,川崎市幸区,北加瀬２丁目１－４３,,14,132,2120057,,,,,,,2023-01-06,1,,,,,キク,0
2606,9021001077892,新規,0,2023-01-06,2023-01-06,株式会社Ｕｍｉｍａｗａｒｉ．,,株式会社,神奈川県,藤沢市,片瀬海岸１丁目１２番４号,,14,205,2510035,,,,,,,2023-01-06,1,,,,,ウミマワリ,0
2608,9021003012567,新規,0,2023-01-06,2023-01-06,合同会社オフィスルアナ,,合同会社,神奈川県,鎌倉市,大町１丁目１番１４号３Ｆ,,14,204,2480007,,,,,,,2023-01-06,1,,,,,オフィスルアナ,0
2618,9030001151673,新規,0,2023-01-06,2023-01-06,株式会社小松原建設,,株式会社,埼玉県,蕨市,塚越７丁目２４－３西川口プラザＡ１０３,,11,223,3350002,,,,,,,2023-01-06,1,,,,,コマツバラケンセツ,0
2619,9030001151707,新規,0,2023-01-06,2023-01-06,誠和通商株式会社,,株式会社,埼玉県,八潮市,大字伊草３７７－５－１０９室,,11,234,3400806,,,,,,,2023-01-06,1,,,,,セイワツウショウ,0
2620,9030001151715,新規,0,2023-01-06,2023-01-06,株式会社エス・ケー・ケー,,株式会社,埼玉県,羽生市,大字藤井上組４２４番地１１,,11,216,3480064,,,,,,,2023-01-06,1,,,,,エスケーケー,0
2621,9030001151723,新規,0,2023-01-06,2023-01-06,株式会社ワコウ,,株式会社,埼玉県,川口市,朝日３丁目３番１４号,,11,203,3320001,,,,,,,2023-01-06,1,,,,,ワコウ,0
2625,9030003020851,新規,0,2023-01-06,2023-01-06,合同会社ＴＣ　ＧＲＯＵＰ,,合同会社,埼玉県,坂戸市,南町１３番１５号勝栄ハイツ２０１号室,,11,239,3500233,,,,,,,2023-01-06,1,,,,,ティーシーグループ,0
2626,9030003020868,新規,0,2023-01-06,2023-01-06,リテールエージェント合同会社,,合同会社,埼玉県,さいたま市南区,辻１丁目３０番３号,00128951,11,108,3360026,,,,,,,2023-01-06,1,,,,,リテールエージェント,0
2627,9030003020884,新規,0,2023-01-06,2023-01-06,ケイワークプランニング合同会社,,合同会社,埼玉県,さいたま市北区,宮原町１丁目２７０番地１エクレール大宮宮原１０３号,,11,102,3310812,,,,,,,2023-01-06,1,,,,,ケイワークプランニング,0
2635,9040001126377,新規,0,2023-01-06,2023-01-06,株式会社ＦａｃｔＷｏｒｋｓ,,株式会社,千葉県,我孫子市,つくし野５丁目１５番５号,,12,222,2701164,,,,,,,2023-01-06,1,,,,,ファクトワークス,0
2636,9040001126476,新規,0,2023-01-06,2023-01-06,株式会社林塗装,,株式会社,千葉県,船橋市,市場３丁目４番２号,,12,204,2730001,,,,,,,2023-01-06,1,,,,,リントソウ,0
2639,9040003021650,新規,0,2023-01-06,2023-01-06,ベルウェル合同会社,,合同会社,千葉県,浦安市,日の出６丁目１１番２３号,,12,227,2790013,,,,,,,2023-01-06,1,,,,,ベルウェル,0
2641,9040005021855,新規,0,2023-01-06,2023-01-06,一般社団法人みらい医療企画,,その他の設立登記法人,千葉県,船橋市,飯山満町１丁目８３２番地１,,12,204,2740822,,,,,,,2023-01-06,1,,,,,ミライイリョウキカク,0
2643,9050001052168,新規,0,2023-01-06,2023-01-06,株式会社ＩＩＺＵＭＩ,,株式会社,茨城県,取手市,藤代４８３番地,,08,217,3001512,,,,,,,2023-01-06,1,,,,,イイズミ,0
2644,9050001052176,新規,0,2023-01-06,2023-01-06,株式会社ＢＬＩＳＳＧＥ,,株式会社,茨城県,古河市,上辺見５８３－４,,08,204,3060234,,,,,,,2023-01-06,1,,,,,,0
2645,9050001052192,新規,0,2023-01-06,2023-01-06,株式会社ペイフォワード,,株式会社,茨城県,猿島郡境町,大字上小橋５３６番地１,,08,546,3060434,,,,,,,2023-01-06,1,,,,,ペイフォワード,0
2649,9060001035576,新規,0,2023-01-06,2023-01-06,株式会社サンコウ,,株式会社,栃木県,足利市,八幡町１丁目９番地１ソワビルディング１０１,,09,202,3260824,,,,,,,2023-01-06,1,,,,,サンコウ,0
2650,9060001035584,新規,0,2023-01-06,2023-01-06,奥島工業株式会社,,株式会社,栃木県,宇都宮市,下栗町７０５番地１１,,09,201,3210923,,,,,,,2023-01-06,1,,,,,オクシマコウギョウ,0
2651,9060003004364,新規,0,2023-01-06,2023-01-06,ティーサクセス合同会社,,合同会社,栃木県,宇都宮市,中央５丁目１４番６号,,09,201,3200806,,,,,,,2023-01-06,1,,,,,ティーサクセス,0
2653,9070001039972,新規,0,2023-01-06,2023-01-06,株式会社Ｒｅａｌｉｚｅ,,株式会社,群馬県,伊勢崎市,上諏訪町２１１４番地１０セレーノＢ２０３,,10,204,3720021,,,,,,,2023-01-06,1,,,,,リアライズ,0
2654,9070001039980,新規,0,2023-01-06,2023-01-06,株式会社なるしまメディカル,,株式会社,群馬県,館林市,成島町７２０番地の３,,10,207,3740055,,,,,,,2023-01-06,1,,,,,ナルシマメディカル,0
2655,9070003004776,新規,0,2023-01-06,2023-01-06,Ｙ　Ｐｌａｎｎｉｎｇ合同会社,,合同会社,群馬県,高崎市,棟高町９５番地２,,10,202,3703521,,,,,,,2023-01-06,1,,,,,ワイプラニング,0
2659,9080001025377,新規,0,2023-01-06,2023-01-06,杉山マシンサービス株式会社,,株式会社,静岡県,静岡市駿河区,用宗３丁目１５番１８号,,22,102,4210122,,,,,,,2023-01-06,1,,,,,スギヤママシンサービス,0
2673,9090001017910,新規,0,2023-01-06,2023-01-06,賀崗国際株式会社,,株式会社,山梨県,笛吹市,春日居町鎮目１７８,,19,211,4060015,,,,,,,2023-01-06,1,,,,,,0
2681,9120001251456,新規,0,2023-01-06,2023-01-06,株式会社前田コーポレーション,,株式会社,大阪府,大阪市鶴見区,放出東３丁目２２番２６号,,27,124,5380044,,,,,,,2023-01-06,1,,,,,マエダコーポレーション,0
2682,9120001251464,新規,0,2023-01-06,2023-01-06,株式会社ＰＳＤ　Ｗｏｒｋｓ,,株式会社,大阪府,大阪市天王寺区,大道１丁目８番１５号サンパール天王寺ビル２０２,,27,109,5430052,,,,,,,2023-01-06,1,,,,,ピーエスディーワークス,0
2683,9120001251489,新規,0,2023-01-06,2023-01-06,株式会社Ｒｅｖｅｒｅｎｔ,,株式会社,大阪府,大阪市北区,梅田１丁目１１番４号大阪駅前第４ビル９階（９２３）,,27,127,5300001,,,,,,,2023-01-06,1,,,,,リバレント,0
2684,9120001251514,新規,0,2023-01-06,2023-01-06,株式会社Ｒｕｎａｗａｙ,,株式会社,大阪府,大阪市中央区,谷町２丁目７番４号２階,,27,128,5400012,,,,,,,2023-01-06,1,,,,,ランナウェイ,0
2685,9120001251539,新規,0,2023-01-06,2023-01-06,株式会社子供の味方,,株式会社,大阪府,大阪市天王寺区,上本町５丁目２－１１,,27,109,5430001,,,,,,,2023-01-06,1,,,,,コドモノミカタ,0
2686,9120001251555,新規,0,2023-01-06,2023-01-06,カリス株式会社,,株式会社,大阪府,大阪市東成区,大今里４丁目１６番５２号,,27,115,5370012,,,,,,,2023-01-06,1,,,,,カリス,0
2689,9120003023176,新規,0,2023-01-06,2023-01-06,合同会社愛讃,,合同会社,大阪府,大阪市西区,阿波座１丁目１４番１５号,,27,106,5500011,,,,,,,2023-01-06,1,,,,,アイサン,0
2691,9120005023380,新規,0,2023-01-06,2023-01-06,社会保険労務士法人ＳＬＭ,,その他の設立登記法人,大阪府,大阪市阿倍野区,阪南町１丁目４７番１号,,27,119,5450021,,,,,,,2023-01-06,1,,,,,エスエルエム,0
2704,9130005003183,新規,0,2023-01-06,2023-01-06,京阪奈都市開発事業協同組合,,その他の設立登記法人,京都府,京都市西京区,上桂三ノ宮町２４番地の１平和台平安ビル５階,,26,111,6158224,,,,,,,2023-01-06,1,,,,,ケイハンナトシカイハツ,0
2710,9140005026423,新規,0,2023-01-06,2023-01-06,関西聖書神学校,,その他の設立登記法人,兵庫県,神戸市垂水区,塩屋町６丁目３２番１５号,,28,108,6550872,,,,,,,2023-01-06,1,,,,,カンサイセイショシンガッコウ,0
2711,9140005026431,新規,0,2023-01-06,2023-01-06,医療法人栄愛会,,その他の設立登記法人,兵庫県,赤穂市,尾崎３１４３番地５６,,28,212,6780221,,,,,,,2023-01-06,1,,,,,エイアイカイ,0
2713,9160003002770,新規,0,2023-01-06,2023-01-06,合同会社Ｓａｋｕｒａ,,合同会社,滋賀県,甲賀市,水口町下山８０２－１４６,,25,209,5280063,,,,,,,2023-01-06,1,,,,,サクラ,0
2728,9180001154364,新規,0,2023-01-06,2023-01-06,株式会社Ｓ‐ｂｅｓｔ,,株式会社,愛知県,半田市,宮本町１丁目５９番地の５,,23,205,4750925,,,,,,,2023-01-06,1,,,,,エスベスト,0
2729,9180001154380,新規,0,2023-01-06,2023-01-06,ケイエムＡインターナショナル株式会社,,株式会社,愛知県,知多郡武豊町,字多賀６丁目１６－Ｂ,,23,447,4702361,,,,,,,2023-01-06,1,,,,,ケイエムエイインターナショナル,0
2730,9180001154406,新規,0,2023-01-06,2023-01-06,株式会社山内組,,株式会社,愛知県,名古屋市中区,金山２丁目６番６号,,23,106,4600022,,,,,,,2023-01-06,1,,,,,ヤマウチグミ,0
2731,9180001154430,新規,0,2023-01-06,2023-01-06,クオーレ株式会社,,株式会社,愛知県,名古屋市中村区,名駅３丁目１１番２２号,,23,105,4500002,,,,,,,2023-01-06,1,,,,,クオーレ,0
2742,9180005020059,新規,0,2023-01-06,2023-01-06,医療法人Ｏ．Ｄ．Ｃ,,その他の設立登記法人,愛知県,春日井市,大手町１６２３番地,,23,206,4860807,,,,,,,2023-01-06,1,,,,,オーディーシー,0
2744,9180301036948,新規,0,2023-01-06,2023-01-06,株式会社エイサム,,株式会社,愛知県,豊橋市,草間町字東山４７番地の４,,23,201,4418141,,,,,,,2023-01-06,1,,,,,エイサム,0
2745,9180301036956,新規,0,2023-01-06,2023-01-06,株式会社サンオーマウンテン,,株式会社,愛知県,北設楽郡東栄町,大字振草字古戸瓢島１６番地,,23,562,4490213,,,,,,,2023-01-06,1,,,,,サンオーマウンテン,0
2748,9190003004186,新規,0,2023-01-06,2023-01-06,合同会社Ｓａｔｉｓｆｙ,,合同会社,三重県,津市,白塚町２６３３番地３,,24,201,5140101,,,,,,,2023-01-06,1,,,,,サティスファイ,0
2754,9200001040826,新規,0,2023-01-06,2023-01-06,株式会社ゴトーホーセー,,株式会社,岐阜県,関市,小屋名５５９番地３７,,21,205,5013941,,,,,,,2023-01-06,1,,,,,ゴトーホーセー,0
2755,9200003005793,新規,0,2023-01-06,2023-01-06,フリージア・インターナショナル合同会社,,合同会社,岐阜県,各務原市,桜木町４丁目３９番地,,21,213,5090127,,,,,,,2023-01-06,1,,,,,フリージアインターナショナル,0
2759,9220001025197,新規,0,2023-01-06,2023-01-06,漆工芸大下香仙株式会社,,株式会社,石川県,加賀市,二子塚町１０３番地２,,17,206,9220325,,,,,,,2023-01-06,1,,,,,ウルシコウゲイオオシタコウセン,0
2765,9240001060894,新規,0,2023-01-06,2023-01-06,株式会社ＨＡＲＡエンドレス工業,,株式会社,広島県,福山市,佐波町７７６番地,,34,207,7200835,,,,,,,2023-01-06,1,,,,,ハラエンドレスコウギョウ,0
2772,9240003005955,新規,0,2023-01-06,2023-01-06,合同会社こぎつねてんまんてん,,合同会社,広島県,東広島市,高屋町中島２５６番地１９,,34,212,7392125,,,,,,,2023-01-06,1,,,,,コギツネテンマンテン,0
2773,9240005015498,新規,0,2023-01-06,2023-01-06,一般社団法人美鈴恵みの森,,その他の設立登記法人,広島県,広島市佐伯区,美鈴が丘東４丁目１０番２号,,34,108,7315111,,,,,,,2023-01-06,1,,,,,ミスズメグミノモリ,0
2782,9260003004138,新規,0,2023-01-06,2023-01-06,合同会社ｉｓｓｕｅ　ｔａｍａｎｏ,,合同会社,岡山県,倉敷市,連島町連島１１７４番地２３１,,33,202,7128011,,,,,,,2023-01-06,1,,,,,イッシュタマノ,0
2783,9280001008857,新規,0,2023-01-06,2023-01-06,株式会社ブダウ,,株式会社,島根県,出雲市,浜町１１６１番地１,,32,203,6930054,,,,,,,2023-01-06,1,,,,,ブダウ,0
2791,9290001100076,新規,0,2023-01-06,2023-01-06,物華天宝株式会社,,株式会社,福岡県,福岡市東区,筥松４丁目１１－４川鍋コーポ２号室,,40,131,8120061,,,,,,,2023-01-06,1,,,,,ブッカテンポウ,0
2792,9290001100092,新規,0,2023-01-06,2023-01-06,株式会社ジオ・ロジスティックス,,株式会社,福岡県,那珂川市,道善１丁目１０番地１（フローラル寿４０２号）,,40,231,8111254,,,,,,,2023-01-06,1,,,,,ジオロジスティックス,0
2793,9290001100101,新規,0,2023-01-06,2023-01-06,株式会社ｐｌａｎ９,,株式会社,福岡県,福岡市中央区,今泉１丁目４番２５号サミット天神南１－１Ｆ－Ｂ,,40,133,8100021,,,,,,,2023-01-06,1,,,,,プランナイン,0
2794,9290001100118,新規,0,2023-01-06,2023-01-06,株式会社グームホテル,,株式会社,福岡県,福岡市中央区,大名１丁目９番５０号,,40,133,8100041,,,,,,,2023-01-06,1,,,,,グームホテル,0
2796,9290003013383,新規,0,2023-01-06,2023-01-06,合同会社ワンダーウォール,,合同会社,福岡県,福岡市早良区,昭代１丁目２番８号４０６室,,40,137,8140012,,,,,,,2023-01-06,1,,,,,ワンダーウォール,0
2797,9290801029176,新規,0,2023-01-06,2023-01-06,株式会社ワイテック,,株式会社,福岡県,田川郡大任町,大字今任原４１３９ー１１５,,40,608,8240511,,,,,,,2023-01-06,1,,,,,ワイテック,0
2799,9300001013177,新規,0,2023-01-06,2023-01-06,株式会社ＮＡＮＤＯ,,株式会社,佐賀県,佐賀市,大和町大字尼寺１０４１番地３,,41,201,8400201,,,,,,,2023-01-06,1,,,,,ナンドー,0
2802,9330001030459,新規,0,2023-01-06,2023-01-06,株式会社Ａｇｒｅａ　ｂｌｕｅ,,株式会社,熊本県,熊本市中央区,新町２丁目１２番２６号アンピールメゾン光助新町３０４,,43,101,8600004,,,,,,,2023-01-06,1,,,,,アグレアブルー,0
2805,9350001018106,新規,0,2023-01-06,2023-01-06,みのり漢方株式会社,,株式会社,宮崎県,北諸県郡三股町,大字蓼池４６８８番地,,45,341,8891914,,,,,,,2023-01-06,1,,,,,ミノリカンポウ,0
2806,9350003004252,新規,0,2023-01-06,2023-01-06,合同会社中村農場,,合同会社,宮崎県,都城市,丸谷町１２３４番地２,,45,202,8851105,,,,,,,2023-01-06,1,,,,,ナカムラノウジョウ,0
2809,9360001031396,新規,0,2023-01-06,2023-01-06,株式会社クリエート・プラス,,株式会社,沖縄県,沖縄市,与儀３丁目１番７号プレミアムコート与儀パークヒルズ店舗１階,,47,211,9042174,,,,,,,2023-01-06,1,,,,,クリエートプラス,0
2810,9360003012601,新規,0,2023-01-06,2023-01-06,合同会社ロワゾブルー,,合同会社,沖縄県,糸満市,字糸満９８９－８３糸満市場いとま－るＡ１,,47,210,9010361,,,,,,,2023-01-06,1,,,,,ロワゾブルー,0
2814,9380001033366,新規,0,2023-01-06,2023-01-06,株式会社ＬＵＺ,,株式会社,福島県,郡山市,中町７－１４,,07,203,9638004,,,,,,,2023-01-06,1,,,,,ルーズ,0
2816,9390001017120,新規,0,2023-01-06,2023-01-06,株式会社あぐりライフデザイン,,株式会社,山形県,尾花沢市,新町４丁目１番２３号,,06,212,9994224,,,,,,,2023-01-06,1,,,,,アグリライフデザイン,0
2820,9410001013356,新規,0,2023-01-06,2023-01-06,株式会社チップ．２１,,株式会社,秋田県,横手市,大雄字宮小路７５番地２,,05,203,0130429,,,,,,,2023-01-06,1,,,,,チップニジュウイチ,0
2821,9420001018107,新規,0,2023-01-06,2023-01-06,株式会社タカヒロ,,株式会社,青森県,三戸郡五戸町,大字倉石石沢字一ノ坪１７番地,,02,442,0391701,,,,,,,2023-01-06,1,,,,,タカヒロ,0
2824,9430001088116,新規,0,2023-01-06,2023-01-06,株式会社色彩加,,株式会社,北海道,札幌市豊平区,平岸五条７丁目５番２号,,01,105,0620935,,,,,,,2023-01-06,1,,,,,シキサイカ,0
2825,9430001088132,新規,0,2023-01-06,2023-01-06,株式会社Ｈ‐ｔｗｏ,,株式会社,北海道,札幌市北区,北二十八条西９丁目３－１０ＭＡＮＡＩＩ１０１,00128952,01,102,0010028,,,,,,,2023-01-06,1,,,,,エイチツー,0
2828,9450001013872,新規,0,2023-01-06,2023-01-06,株式会社ハマナスＣｏｗＣｌｉｎｉｃ,,株式会社,北海道,紋別郡興部町,字興部７２２番地の２０,,01,561,0981600,,,,,,,2023-01-06,1,,,,,ハマナスカウクリニック,0
2829,9460003000934,新規,0,2023-01-06,2023-01-06,合同会社ミヤケン,,合同会社,北海道,釧路市,興津５丁目２５番５号,,01,206,0850811,,,,,,,2023-01-06,1,,,,,ミヤケン,0
2830,9460303000782,新規,0,2023-01-06,2023-01-06,合同会社ＳＵＢＥＤＩ　ＢＵＳＩＮＥＳＳ　ＧＲＯＵＰ,,合同会社,北海道,紋別郡遠軽町,大通北５丁目１番１９,,01,555,0990404,,,,,,,2023-01-06,1,,,,,スベディビジネスグループ,0
2831,9470001019406,新規,0,2023-01-06,2023-01-06,株式会社Ｗｉｌｌ　Ｓｍｉｌｅ,,株式会社,香川県,丸亀市,土器町西２丁目５７１番地,,37,202,7630081,,,,,,,2023-01-06,1,,,,,ウィルスマイル,0
2832,9490003001723,新規,0,2023-01-06,2023-01-06,合同会社フォレスト高知,,合同会社,高知県,高知市,北秦泉寺７２２番地８,,39,201,7800022,,,,,,,2023-01-06,1,,,,,フォレストコウチ,0
2834,9500001024699,新規,0,2023-01-06,2023-01-06,株式会社ライトニング,,株式会社,愛媛県,松山市,春美町７番４号,,38,201,7918087,,,,,,,2023-01-06,1,,,,,ライトニング,0
2838,9500003002942,新規,0,2023-01-06,2023-01-06,阿野興発合同会社,,合同会社,愛媛県,松山市,持田町２丁目５番３０号,,38,201,7900855,,,,,,,2023-01-06,1,,,,,アノコウハツ,0
