sequenceNumber,corporateNumber,process,correct,updateDate,changeDate,name,nameImageId,kind,prefectureName,cityName,streetNumber,addressImageId,prefectureCode,cityCode,postCode,addressOutside,addressOutsideImageId,closeDate,closeCause,successorCorporateNumber,changeCause,assignmentDate,latest,enName,enPrefectureName,enCityName,enAddressOutside,furigana,hihyoji
12,1010003034670,登記記録の閉鎖等,0,2023-08-04,2023-07-25,ＬＭフィットネス＆ライフ合同会社,,合同会社,東京都,中央区,銀座１丁目２２番１１号銀座大竹ビジデンス２階,,13,102,1040061,,,2023-07-25,清算の結了等,,,2021-04-16,1,,,,,エルエムフィットネスアンドライフ,0
16,1010005025817,登記記録の閉鎖等,0,2023-08-04,2023-08-01,一般社団法人ジェイ・エス・ダブリュー,,その他の設立登記法人,東京都,新宿区,下宮比町１番４号,,13,104,1620822,,,2023-08-01,清算の結了等,,,2016-09-21,1,,,,,ジェイエスダブリュー,0
25,1010401161678,登記記録の閉鎖等,0,2023-08-04,2023-08-03,Ｐｉｃｋｓｅｎｓｅ株式会社,,株式会社,東京都,港区,赤坂２丁目１６－６－３１４,,13,103,1070052,,,2023-08-03,清算の結了等,,,2021-07-28,1,,,,,ピクセンス,0
36,1010701017084,登記記録の閉鎖等,0,2023-08-04,2023-07-31,城南損害調査株式会社,,株式会社,東京都,品川区,西大井１丁目７番２号城南コンプレックス西大井２０１,,13,109,1400015,,,2023-07-31,清算の結了等,,,2015-10-05,1,,,,,ジョウナンソンガイチョウサ,0
63,1011105007498,登記記録の閉鎖等,0,2023-08-04,2023-07-28,一般財団法人エンデバー・ジャパン,,その他の設立登記法人,東京都,千代田区,神田錦町２丁目４番地６,,13,101,1010054,,,2023-07-28,清算の結了等,,,2016-11-21,1,,,,,エンデバージャパン,0
65,1011105009791,登記記録の閉鎖等,0,2023-08-04,2023-08-01,一般社団法人ジェイ・エイチ・エフ,,その他の設立登記法人,東京都,新宿区,下宮比町１番４号,,13,104,1620822,,,2023-08-01,清算の結了等,,,2021-04-26,1,,,,,ジェイエイチエフ,0
66,1011402004495,登記記録の閉鎖等,0,2023-08-04,2023-08-02,有限会社下地隆司事務所,,有限会社,東京都,板橋区,成増４丁目１８番４号,,13,119,1750094,,,2023-08-02,清算の結了等,,,2015-10-05,1,,,,,シモジタカシジムショ,0
67,1011402007457,登記記録の閉鎖等,0,2023-08-04,2023-08-02,有限会社ビック・ベイ,,有限会社,東京都,板橋区,幸町５９番６号,,13,119,1730034,,,2023-08-02,清算の結了等,,,2015-10-05,1,,,,,,0
78,1012303001284,登記記録の閉鎖等,0,2023-08-04,2023-08-01,合同会社Ｂｅｎｅ,,合同会社,東京都,台東区,東上野２丁目１１番３号,,13,106,1100015,,,2023-08-01,清算の結了等,,,2019-06-14,1,,,,,ベネ,0
79,1012401025441,登記記録の閉鎖等,0,2023-08-04,2023-08-01,株式会社アクア齋藤,,株式会社,東京都,調布市,上石原３丁目３８番地３,,13,208,1820035,,,2023-08-01,清算の結了等,,,2015-10-05,1,,,,,アクアサイトウ,0
82,1012805000073,登記記録の閉鎖等,0,2023-08-04,2023-07-28,医療法人社団海老原歯科医院,,その他の設立登記法人,東京都,立川市,高松町２丁目２２番２号,,13,202,1900011,,,2023-07-28,清算の結了等,,,2015-10-05,1,,,,,エビハラシカイイン,0
88,1013305002147,登記記録の閉鎖等,0,2023-08-04,2023-07-28,自動車共済ＭＡ協同組合,,その他の設立登記法人,東京都,豊島区,西池袋３丁目３０番１０号,,13,116,1710021,,,2023-07-28,清算の結了等,,,2015-10-05,1,,,,,ジドウシャキョウサイエムエー,0
90,1020001085665,登記記録の閉鎖等,0,2023-08-04,2023-07-25,横浜ファスニング株式会社,,株式会社,神奈川県,横浜市金沢区,釜利谷東１丁目６０番１号,,14,108,2360042,,,2023-07-25,清算の結了等,,,2015-10-05,1,,,,,ヨコハマファスニング,0
97,1020003007790,登記記録の閉鎖等,0,2023-08-04,2023-07-24,合同会社アドバンス,,合同会社,神奈川県,横浜市神奈川区,星野町１０番地ヒストリアレジデンス海舟２０３号室,,14,102,2210035,,,2023-07-24,清算の結了等,,,2015-10-05,1,,,,,アドバンス,0
124,1040002019604,登記記録の閉鎖等,0,2023-08-04,2023-07-12,有限会社風雅,,有限会社,千葉県,習志野市,谷津７丁目７番２５－１１１号,,12,216,2750026,,,2023-07-12,清算の結了等,,,2015-10-05,1,,,,,フウガ,0
125,1040002089309,登記記録の閉鎖等,0,2023-08-04,2023-07-11,有限会社柏武道館,,有限会社,千葉県,柏市,逆井７４５番地の１１,,12,217,2770042,,,2023-07-11,清算の結了等,,,2015-10-05,1,,,,,カシワブドウカン,0
132,1050002037290,登記記録の閉鎖等,0,2023-08-04,2023-07-31,有限会社エムテック,,有限会社,茨城県,取手市,桜が丘４丁目５１番３号,,08,217,3001525,,,2023-07-31,清算の結了等,,,2015-10-05,1,,,,,エムテック,0
134,1060001015973,登記記録の閉鎖等,0,2023-08-04,2023-07-21,株式会社グリーン回収栃木,,株式会社,栃木県,小山市,大字外城９０番地４,,09,208,3230042,,,2023-07-21,清算の結了等,,,2015-10-05,1,,,,,グリーンカイシュウトチギ,0
143,1080102016910,登記記録の閉鎖等,0,2023-08-04,2023-08-02,有限会社タカラヤ,,有限会社,静岡県,富士宮市,宮町１０番５号,,22,207,4180067,,,2023-08-02,清算の結了等,,,2015-10-05,1,,,,,タカラヤ,0
144,1080105003947,登記記録の閉鎖等,0,2023-08-04,2023-08-01,特定非営利活動法人グランベルテ,,その他の設立登記法人,静岡県,熱海市,泉２３４番地の４６,,22,205,4130001,,,2023-08-01,清算の結了等,,,2015-10-05,1,,,,,グランベルテ,0
173,1120003020965,登記記録の閉鎖等,0,2023-08-04,2023-08-02,合同会社Ｙ’ｓ,,合同会社,大阪府,大阪市北区,西天満４丁目１０番３号,,27,127,5300047,,,2023-08-02,清算の結了等,,,2022-01-17,1,,,,,ワイズ,0
179,1122001018405,登記記録の閉鎖等,0,2023-08-04,2023-07-27,国際開発株式会社,,株式会社,大阪府,八尾市,志紀町１丁目１１８番地,,27,212,5810031,,,2023-07-27,合併による解散等,1122001019980,令和５年７月２７日大阪府八尾市天王寺屋二丁目６８番地富士開発株式会社（1122001019980）に合併し解散,2015-10-05,1,,,,,コクサイカイハツ,0
191,1140002030245,登記記録の閉鎖等,0,2023-08-04,2023-07-31,有限会社エヌ企画,,有限会社,兵庫県,明石市,西朝霧丘５番５８号,,28,203,6730856,,,2023-07-31,清算の結了等,,,2015-10-05,1,,,,,エヌキカク,0
192,1140002048139,登記記録の閉鎖等,0,2023-08-04,2023-07-31,有限会社カワモト・ドレス,,有限会社,兵庫県,姫路市,綿町１２５番地,,28,201,6700921,,,2023-07-31,清算の結了等,,,2015-10-05,1,,,,,カワモトドレス,0
202,1180001007208,登記記録の閉鎖等,0,2023-08-04,2023-08-01,株式会社長谷川製作所,,株式会社,愛知県,名古屋市熱田区,六野１丁目２番２１号,,23,109,4560023,,,2023-08-01,清算の結了等,,,2015-10-05,1,,,,,ハセガワセイサクショ,0
207,1180001105036,登記記録の閉鎖等,0,2023-08-04,2023-08-01,株式会社本間フーズ,,株式会社,愛知県,海部郡蟹江町,大字今字道下２９番地１,,23,425,4970032,,,2023-08-01,清算の結了等,,,2015-10-05,1,,,,,ホンマフーズ,0
246,1260002015267,登記記録の閉鎖等,0,2023-08-04,2023-07-31,有限会社カーリペア山本,,有限会社,岡山県,岡山市南区,中畦４番地５,,33,104,7010213,,,2023-07-31,清算の結了等,,,2015-10-05,1,,,,,カーリペアヤマモト,0
254,1290002049659,登記記録の閉鎖等,0,2023-08-04,2023-07-20,有限会社南部,,有限会社,福岡県,久留米市,荒木町荒木１３３２－２,,40,203,8300063,,,2023-07-20,清算の結了等,,,2015-10-05,1,,,,,ナンブ,0
262,1310001007945,登記記録の閉鎖等,0,2023-08-04,2023-07-28,株式会社古賀建設,,株式会社,長崎県,諫早市,永昌東町６番１０号,,42,204,8540071,,,2023-07-28,清算の結了等,,,2023-06-16,1,,,,,,0
268,1330002005500,登記記録の閉鎖等,0,2023-08-04,2023-07-20,有限会社純信商会,,有限会社,熊本県,熊本市中央区,水前寺３丁目８番１０号１１０４,,43,101,8620950,,,2023-07-20,清算の結了等,,,2015-10-05,1,,,,,ジュンシンショウカイ,0
273,1340002004889,登記記録の閉鎖等,0,2023-08-04,2023-08-01,有限会社下野質舗,,有限会社,鹿児島県,鹿児島市,荒田１丁目４６番７号クオリティパレス八幡１００７号,,46,201,8900054,,,2023-08-01,清算の結了等,,,2015-10-05,1,,,,,シモノシチホ,0
287,1400002007076,登記記録の閉鎖等,0,2023-08-04,2023-07-24,有限会社三徳食品岩手,,有限会社,岩手県,紫波郡紫波町,桜町字本町川原５０番地２,,03,321,0283307,,,2023-07-24,清算の結了等,,,2015-10-05,1,,,,,サントクショクヒンイワテ,0
290,1410002007018,登記記録の閉鎖等,0,2023-08-04,2023-07-26,株式会社天鷺圧送,,株式会社,秋田県,由利本荘市,岩城二古字狐森１５番地４,,05,210,0181305,,,2023-07-26,清算の結了等,,,2015-10-05,1,,,,,アマサギアッソウ,0
304,1460305001431,登記記録の閉鎖等,0,2023-08-04,2023-08-02,医療法人社団角谷こどもクリニック,,その他の設立登記法人,北海道,網走市,潮見５丁目１２０番地の５,,01,211,0930042,,,2023-08-02,清算の結了等,,,2015-10-05,1,,,,,カクヤコドモクリニック,0
311,1500002016348,登記記録の閉鎖等,0,2023-08-04,2023-08-02,有限会社ササキ保険事務所,,有限会社,愛媛県,新居浜市,高木町７番２号,,38,205,7920031,,,2023-08-02,清算の結了等,,,2015-10-05,1,,,,,ササキホケンジムショ,0
344,2010602025045,登記記録の閉鎖等,0,2023-08-04,2023-08-01,有限会社塩澤印刷,,有限会社,東京都,江東区,白河３丁目１８番９号,,13,108,1350021,,,2023-08-01,清算の結了等,,,2015-10-05,1,,,,,シオザワインサツ,0
411,2021002010578,登記記録の閉鎖等,0,2023-08-04,2023-08-02,有限会社カミムラ薬局,,有限会社,神奈川県,茅ヶ崎市,幸町２２番２９号,,14,207,2530052,,,2023-08-02,清算の結了等,,,2015-10-05,1,,,,,カミムラヤッキョク,0
422,2030002112607,登記記録の閉鎖等,0,2023-08-04,2023-07-10,有限会社相川青果店,,有限会社,埼玉県,熊谷市,別府１丁目４７番地,,11,202,3600856,,,2023-07-10,清算の結了等,,,2015-10-05,1,,,,,アイカワセイカテン,0
428,2040001093194,登記記録の閉鎖等,0,2023-08-04,2023-07-11,株式会社ミツオ,,株式会社,千葉県,長生郡一宮町,一宮９３１９番地１,,12,421,2994301,,,2023-07-11,清算の結了等,,,2015-12-11,1,,,,,ミツオ,0
450,2050002001782,登記記録の閉鎖等,0,2023-08-04,2023-08-01,有限会社助川コンタクトレンズ研究所,00022557,有限会社,茨城県,水戸市,本町３丁目１０番２６号,,08,201,3100815,,,2023-08-01,清算の結了等,,,2015-10-05,1,,,,,スケガワコンタクトレンズケンキュウショ,0
458,2070002017637,登記記録の閉鎖等,0,2023-08-04,2023-08-01,有限会社中村スプリング製作所,,有限会社,群馬県,藤岡市,藤岡１９９９番地の８,,10,209,3750024,,,2023-08-01,清算の結了等,,,2015-10-05,1,,,,,ナカムラスプリングセイサクショ,0
473,2080402005232,登記記録の閉鎖等,0,2023-08-04,2023-08-03,有限会社テクニー,,有限会社,静岡県,浜松市南区,古川町２８１番地の２,,22,134,4350032,,,2023-08-03,清算の結了等,,,2015-10-05,1,,,,,テクニー,0
481,2120001156141,登記記録の閉鎖等,0,2023-08-04,2023-07-28,大成設備株式会社,,株式会社,大阪府,守口市,南寺方東通４丁目１８番２号,,27,209,5700043,,,2023-07-28,清算の結了等,,,2015-10-05,1,,,,,,0
509,2130001004984,登記記録の閉鎖等,0,2023-08-04,2023-07-24,株式会社禅,,株式会社,京都府,京都市北区,鷹峯黒門町３６番地の５１,,26,101,6038464,,,2023-07-24,清算の結了等,,,2015-10-05,1,,,,,ゼン,0
514,2140001018562,登記記録の閉鎖等,0,2023-08-04,2023-07-31,株式会社田口建築事務所,,株式会社,兵庫県,神戸市垂水区,中道４丁目１番１５号,,28,108,6550896,,,2023-07-31,清算の結了等,,,2015-10-05,1,,,,,,0
534,2180001037105,登記記録の閉鎖等,0,2023-08-04,2023-08-01,株式会社スギモト,,株式会社,愛知県,名古屋市中区,正木４丁目１０番１５号,,23,106,4600024,,,2023-08-01,清算の結了等,,,2015-10-05,1,,,,,スギモト,0
539,2180001120819,登記記録の閉鎖等,0,2023-08-04,2023-08-01,株式会社アイビーラボ,,株式会社,愛知県,名古屋市中区,千代田３丁目１４番１９号,,23,106,4600012,,,2023-08-01,合併による解散等,8180001072996,令和５年８月１日名古屋市中区千代田三丁目１４番１９号千代田ツカサビル１Ｆ株式会社ＫＰ（8180001072996）に合併し解散,2015-11-04,1,,,,,アイビーラボ,0
543,2180002008088,登記記録の閉鎖等,0,2023-08-04,2023-08-01,有限会社三和紙器製作所,,有限会社,愛知県,名古屋市緑区,黒沢台１丁目１６０８番地,,23,114,4580003,,,2023-08-01,清算の結了等,,,2015-10-05,1,,,,,サンワシキセイサクショ,0
552,2210001007211,登記記録の閉鎖等,0,2023-08-04,2023-07-11,株式会社角惣,,株式会社,福井県,あわら市,温泉１丁目３０５番地,,18,208,9104104,,,2023-07-11,清算の結了等,,,2023-02-07,1,,,,,カドソウ,0
556,2230002002738,登記記録の閉鎖等,0,2023-08-04,2023-08-02,有限会社白馬,,有限会社,富山県,富山市,総曲輪２丁目６番１０号,,16,201,9300083,,,2023-08-02,清算の結了等,,,2015-10-05,1,,,,,ハクバ,0
568,2260002024977,登記記録の閉鎖等,0,2023-08-04,2023-08-01,有限会社グリーンクロス,,有限会社,岡山県,笠岡市,笠岡５１０２番地１４,,33,205,7140081,,,2023-08-01,合併による解散等,8260002020681,令和５年８月１日岡山県倉敷市神田二丁目３番３３号株式会社レオ・マネジメント（8260002020681）に合併し解散,2015-10-05,1,,,,,グリーンクロス,0
572,2290801013351,登記記録の閉鎖等,0,2023-08-04,2023-08-02,株式会社アイワーク正真,,株式会社,福岡県,北九州市八幡西区,陣原１丁目１番６８号,,40,109,8070821,,,2023-08-02,清算の結了等,,,2015-10-05,1,,,,,アイワークショウシン,0
579,2300001010775,登記記録の閉鎖等,0,2023-08-04,2023-08-01,株式会社日の丸商事,,株式会社,佐賀県,三養基郡上峰町,大字前牟田１５７９番地１,,41,345,8490122,,,2023-08-01,合併による解散等,6300001008849,令和５年８月１日佐賀県三養基郡上峰町大字前牟田１５７９番地１株式会社日の丸通商（6300001008849）に合併し解散,2017-04-10,1,,,,,ヒノマルショウジ,0
584,2330001016282,登記記録の閉鎖等,0,2023-08-04,2023-07-20,株式会社トラスト,,株式会社,熊本県,人吉市,中青井町３１０番地１,,43,203,8680008,,,2023-07-20,清算の結了等,,,2015-10-05,1,,,,,トラスト,0
603,2430001034919,登記記録の閉鎖等,0,2023-08-04,2023-07-14,株式会社朋建,,株式会社,北海道,札幌市清田区,北野三条５丁目１８番１２号フェニックス北野４０１号,,01,110,0040863,,,2023-07-14,清算の結了等,,,2015-10-05,1,,,,,ホウケン,0
619,2700150011501,削除,,2023-08-04,,,,,,,,,,,,,,,,,,,,,,,,,
626,3010001078866,登記記録の閉鎖等,0,2023-08-04,2023-07-20,オクト株式会社,,株式会社,東京都,中央区,日本橋浜町２丁目１３番６号,,13,102,1030007,,,2023-07-20,清算の結了等,,,2017-01-17,1,,,,,オクト,0
638,3010005030071,登記記録の閉鎖等,0,2023-08-04,2023-07-28,宇田川プロパティー特定目的会社,,その他の設立登記法人,東京都,千代田区,丸の内１丁目１１番１号,,13,101,1000005,,,2023-07-28,清算の結了等,,,2019-04-23,1,,,,,ウダガワプロパティー,0
640,3010401029064,登記記録の閉鎖等,0,2023-08-04,2023-07-24,港電気工業株式会社,,株式会社,神奈川県,川崎市多摩区,長尾４丁目１９番１３号,,14,135,2140023,,,2023-07-24,清算の結了等,,,2015-10-05,1,,,,,ミナトデンキコウギョウ,0
653,3010801000442,登記記録の閉鎖等,0,2023-08-04,2023-08-01,株式会社アシノ,,株式会社,東京都,大田区,中央４丁目１１番１０号,,13,111,1430024,,,2023-08-01,清算の結了等,,,2015-10-05,1,,,,,アシノ,0
672,3011101087071,登記記録の閉鎖等,0,2023-08-04,2023-08-01,オティアス株式会社,,株式会社,東京都,品川区,大崎２丁目９番２号,,13,109,1410032,,,2023-08-01,合併による解散等,9010701025187,令和５年８月１日東京都品川区大崎二丁目９番２号株式会社ピアチェーレ（9010701025187）に合併し解散,2019-03-08,1,,,,,オティアス,0
701,3012801001833,登記記録の閉鎖等,0,2023-08-04,2023-07-28,昭島タイヤ販売株式会社,,株式会社,東京都,立川市,錦町６丁目１２番３号,,13,202,1900022,,,2023-07-28,清算の結了等,,,2015-10-05,1,,,,,アキシマタイヤハンバイ,0
721,3021001007517,登記記録の閉鎖等,0,2023-08-04,2023-08-01,株式会社ユング,,株式会社,神奈川県,茅ヶ崎市,東海岸北５丁目１番２１号,,14,207,2530053,,,2023-08-01,清算の結了等,,,2015-10-05,1,,,,,ユング,0
733,3021003004677,登記記録の閉鎖等,0,2023-08-04,2023-07-20,合同会社スキップ,,合同会社,神奈川県,横浜市西区,高島２丁目１１－２スカイメナー横浜４２２,,14,103,2200011,,,2023-07-20,清算の結了等,,,2015-10-05,1,,,,,スキップ,0
742,3030002054484,登記記録の閉鎖等,0,2023-08-04,2023-07-13,徳松研削材有限会社,,有限会社,埼玉県,上尾市,栄町８番５号,,11,219,3620033,,,2023-07-13,清算の結了等,,,2015-10-05,1,,,,,トクマツケンサクザイ,0
760,3060003003396,登記記録の閉鎖等,0,2023-08-04,2023-07-21,こはる合同会社,,合同会社,栃木県,那須塩原市,黒磯６番地１８９,,09,213,3250017,,,2023-07-21,清算の結了等,,,2020-06-24,1,,,,,コハル,0
766,3070003002109,登記記録の閉鎖等,0,2023-08-04,2023-08-01,合同会社巴,,合同会社,群馬県,藤岡市,上大塚８８０番地,,10,209,3750054,,,2023-08-01,清算の結了等,,,2015-10-05,1,,,,,トモエ,0
779,3110002001998,登記記録の閉鎖等,0,2023-08-04,2023-07-28,有限会社工藤商店,,有限会社,新潟県,新潟市西区,赤塚２７０１番地１,,15,107,9502261,,,2023-07-28,清算の結了等,,,2015-10-05,1,,,,,クドウショウテン,0
785,3120001170323,登記記録の閉鎖等,0,2023-08-04,2023-08-01,株式会社フェノミナ,,株式会社,大阪府,大阪市北区,神山町８番２０号,,27,127,5300026,,,2023-08-01,合併による解散等,9120002055261,令和５年８月１日大阪市中央区宗右衛門町１番１２号株式会社エムケートレーディング（9120002055261）に合併し解散,2015-10-05,1,,,,,エムケートレーディング,0
828,3150002002456,登記記録の閉鎖等,0,2023-08-04,2023-08-02,有限会社こばやし商事,,有限会社,奈良県,奈良市,中山町３０番地の５,,29,201,6310012,,,2023-08-02,清算の結了等,,,2015-10-05,1,,,,,コバヤシショウジ,0
830,3160001003850,登記記録の閉鎖等,0,2023-08-04,2023-08-02,株式会社Ａｖａｉｌ,,株式会社,滋賀県,草津市,野村１丁目２６－１１パステルエイトＩＩ１０１,00124215,25,206,5250027,,,2023-08-02,清算の結了等,,,2015-10-05,1,,,,,,0
855,3190002008219,登記記録の閉鎖等,0,2023-08-04,2023-07-28,有限会社板谷鉄工所,,有限会社,三重県,伊勢市,川端町３０８番地,,24,203,5160052,,,2023-07-28,清算の結了等,,,2015-10-05,1,,,,,,0
888,3290001034882,登記記録の閉鎖等,0,2023-08-04,2023-07-21,ザ・エステティック株式会社,,株式会社,福岡県,福岡市中央区,大名２丁目１０番１号シャンボール大名Ａ棟７０７号,,40,133,8100041,,,2023-07-21,清算の結了等,,,2015-10-05,1,,,,,ザエステティック,0
890,3290001046705,登記記録の閉鎖等,0,2023-08-04,2023-07-24,株式会社ＪＢＢ経営コンサルタント,,株式会社,福岡県,福岡市東区,みどりが丘３丁目２７番４号,,40,131,8130021,,,2023-07-24,清算の結了等,,,2015-10-05,1,,,,,ジェイビービーケイエイコンサルタント,0
906,3300001012647,登記記録の閉鎖等,0,2023-08-04,2023-07-31,株式会社ＣＨＡＲＩＳ　ＦＯＯＤＳ,,株式会社,佐賀県,佐賀市,木原３丁目３番１１号,,41,201,8400015,,,2023-07-31,清算の結了等,,,2021-10-07,1,,,,,カリスフーズ,0
933,3400002000590,登記記録の閉鎖等,0,2023-08-04,2023-07-21,有限会社エフ・マート,,有限会社,岩手県,盛岡市,肴町５番９号,,03,201,0200878,,,2023-07-21,清算の結了等,,,2017-12-22,1,,,,,エフマート,0
935,3400005007732,登記記録の閉鎖等,0,2023-08-04,2023-07-14,一般社団法人菜食美人協会,,その他の設立登記法人,岩手県,花巻市,山の神５７８番地４,,03,205,0250024,,,2023-07-14,清算の結了等,,,2016-12-01,1,,,,,サイショクビジンキョウカイ,0
946,3480002012892,登記記録の閉鎖等,0,2023-08-04,2023-08-02,岸本石油有限会社,,有限会社,徳島県,阿南市,宝田町大久保２３２番地の８,,36,204,7740045,,,2023-08-02,清算の結了等,,,2015-10-05,1,,,,,キシモトセキユ,0
969,4010401115846,登記記録の閉鎖等,0,2023-08-04,2023-07-31,株式会社高い城,,株式会社,神奈川県,平塚市,松風町２番７－１０１号,,14,203,2540812,,,2023-07-31,清算の結了等,,,2015-10-05,1,,,,,タカイシロ,0
971,4010401168332,登記記録の閉鎖等,0,2023-08-04,2023-06-02,株式会社ビッコレ,,株式会社,東京都,港区,浜松町２丁目１０番１号浜松町ビル５階,,13,103,1050013,,,2023-06-02,合併による解散等,9011101076787,令和５年６月１日東京都新宿区西新宿六丁目３番１号株式会社アシロ（9011101076787）に合併し解散,2022-07-06,1,,,,,ビッコレ,0
975,4010403025151,登記記録の閉鎖等,0,2023-08-04,2023-07-11,合同会社ＳＡＰ　Ｙｏｔｓｕｇｉ１,,合同会社,東京都,港区,虎ノ門５丁目１番４号,,13,103,1050001,,,2023-07-11,清算の結了等,,,2021-04-19,1,,,,,エスエーピーヨツギワン,0
993,4011101020320,登記記録の閉鎖等,0,2023-08-04,2023-08-01,丸正不動産株式会社,,株式会社,東京都,新宿区,四谷３丁目１２番地,,13,104,1600004,,,2023-08-01,合併による解散等,9011101020316,令和５年８月１日東京都新宿区四谷三丁目１２番地丸正食品株式会社（9011101020316）に合併し解散,2015-10-05,1,,,,,マルショウフドウサン,0
996,4011101035418,登記記録の閉鎖等,0,2023-08-04,2023-08-03,株式会社オートアイディーシステム,,株式会社,東京都,新宿区,戸山１丁目６番５号,,13,104,1620052,,,2023-08-03,清算の結了等,,,2015-10-05,1,,,,,オートアイディーシステム,0
1028,4013303002708,登記記録の閉鎖等,0,2023-08-04,2023-08-01,合同会社鈴木事務所,,合同会社,東京都,板橋区,南常盤台２丁目５番６号,,13,119,1740072,,,2023-08-01,清算の結了等,,,2015-10-05,1,,,,,スズキジムショ,0
1037,4020002103349,登記記録の閉鎖等,0,2023-08-04,2023-07-18,有限会社スター,,有限会社,神奈川県,川崎市多摩区,登戸２５７８番地１登戸ハイデンス１００３号,,14,135,2140014,,,2023-07-18,清算の結了等,,,2015-10-05,1,,,,,スター,0
1044,4021001045012,登記記録の閉鎖等,0,2023-08-04,2023-08-02,株式会社ＴＫ,,株式会社,神奈川県,鎌倉市,岩瀬１５３３番地,,14,204,2470051,,,2023-08-02,清算の結了等,,,2015-10-05,1,,,,,ティーケー,0
1064,4040002096442,登記記録の閉鎖等,0,2023-08-04,2023-07-10,有限会社リカー・セイコウ,,有限会社,千葉県,柏市,かやの町２番２１号,,12,217,2770846,,,2023-07-10,清算の結了等,,,2015-10-05,1,,,,,リカーセイコウ,0
1069,4050001001963,登記記録の閉鎖等,0,2023-08-04,2023-07-31,日本投資開発株式会社,,株式会社,茨城県,水戸市,三の丸１丁目４番４８号三の丸グランキャッスルタワー３０３,,08,201,3100011,,,2023-07-31,清算の結了等,,,2015-10-05,1,,,,,ニホントウシカイハツ,0
1081,4070001024517,登記記録の閉鎖等,0,2023-08-04,2023-08-01,パワーナレッジ株式会社,,株式会社,群馬県,伊勢崎市,三和町２７３９番地２,,10,204,3720011,,,2023-08-01,合併による解散等,8070001013094,令和５年８月１日群馬県伊勢崎市日乃出町７０１番地１２イーストロジテック株式会社（8070001013094）に合併し解散,2015-10-05,1,,,,,パワーナレッジ,0
1087,4080102002404,登記記録の閉鎖等,0,2023-08-04,2023-08-01,有限会社天領,,有限会社,静岡県,沼津市,我入道秋葉町４１４番地の１,,22,203,4100823,,,2023-08-01,清算の結了等,,,2015-10-05,1,,,,,テンリョウ,0
1100,4110005005558,登記記録の閉鎖等,0,2023-08-04,2023-07-27,協同組合三条作業工具センター共同工場,,その他の設立登記法人,新潟県,三条市,金子新田丙５４９番地４,,15,204,9550814,,,2023-07-27,清算の結了等,,,2015-10-05,1,,,,,サンジョウサギョウコウグセンターキョウドウコウジョウ,0
1101,4120001022606,登記記録の閉鎖等,0,2023-08-04,2023-08-01,株式会社アイテック,,株式会社,岐阜県,中津川市,苗木９１６７番地,,21,206,5080101,,,2023-08-01,合併による解散等,5200001023272,令和５年８月１日岐阜県中津川市苗木９１６７番地株式会社エヌ・エス・ピー（5200001023272）に合併し解散,2015-10-05,1,,,,,アイテック,0
1105,4120001179883,登記記録の閉鎖等,0,2023-08-04,2023-07-24,インデュア株式会社,,株式会社,京都府,向日市,上植野町南開４３番地の２五十棲ビル２Ｆ,,26,208,6170006,,,2023-07-24,清算の結了等,,,2015-10-05,1,,,,,インデュア,0
1122,4120103001086,登記記録の閉鎖等,0,2023-08-04,2023-08-02,合同会社ＴＳ・テクノサポート,,合同会社,大阪府,藤井寺市,恵美坂１丁目１９番５号,,27,226,5830036,,,2023-08-02,清算の結了等,,,2015-10-05,1,,,,,ティーエステクノサポート,0
1137,4130005004013,登記記録の閉鎖等,0,2023-08-04,2023-07-18,医療法人三島医院,,その他の設立登記法人,京都府,京都市伏見区,桃山筒井伊賀東町８２番地,,26,109,6120072,,,2023-07-18,清算の結了等,,,2015-10-05,1,,,,,ミシマイイン,0
1145,4140002033022,登記記録の閉鎖等,0,2023-08-04,2023-07-31,有限会社湯浅商店,,有限会社,兵庫県,佐用郡佐用町,上月５７９番地の２,,28,501,6795523,,,2023-07-31,清算の結了等,,,2015-10-05,1,,,,,ユアサショウテン,0
1167,4180003011997,登記記録の閉鎖等,0,2023-08-04,2023-07-31,合資会社山二捺染工場,,合資会社,愛知県,一宮市,東五城字南大堀１３番地の１,,23,203,4940008,,,2023-07-31,清算の結了等,,,2015-10-05,1,,,,,ヤマニナセンコウジョウ,0
1169,4180301033974,登記記録の閉鎖等,0,2023-08-04,2023-07-31,株式会社クールジャパンイニシアティブ,,株式会社,愛知県,豊橋市,南栄町字空池９番地の６,,23,201,4418107,,,2023-07-31,清算の結了等,,,2020-08-12,1,,,,,クールジャパンイニシアティブ,0
1172,4190001015776,登記記録の閉鎖等,0,2023-08-04,2023-07-31,株式会社なかむら,,株式会社,三重県,四日市市,諏訪栄町１１番１号,,24,202,5100086,,,2023-07-31,清算の結了等,,,2015-10-05,1,,,,,ナカムラ,0
1173,4190001028588,登記記録の閉鎖等,0,2023-08-04,2023-07-20,株式会社吉田新聞,00123840,株式会社,三重県,津市,久居野村町８６６番地２,,24,201,5141113,,,2023-07-20,清算の結了等,,,2021-08-04,1,,,,,ヨシダシンブン,0
1174,4190002006147,登記記録の閉鎖等,0,2023-08-04,2023-07-27,有限会社カネキ中村商店,,有限会社,三重県,鈴鹿市,若松東２丁目８番１号,,24,207,5100225,,,2023-07-27,清算の結了等,,,2015-10-05,1,,,,,カネキナカムラショウテン,0
1179,4210001000593,登記記録の閉鎖等,0,2023-08-04,2023-07-31,株式会社大壁羽山堂,,株式会社,福井県,福井市,毛矢３丁目５番２１号,,18,201,9188003,,,2023-07-31,清算の結了等,,,2015-10-05,1,,,,,オオカベウザンドウ,0
1180,4210002000584,登記記録の閉鎖等,0,2023-08-04,2023-07-31,有限会社オフィス・アド,,有限会社,福井県,福井市,和田東１丁目２３０５番地,,18,201,9188237,,,2023-07-31,清算の結了等,,,2015-10-05,1,,,,,オフィスアド,0
1218,4340001012758,登記記録の閉鎖等,0,2023-08-04,2023-08-01,株式会社秀栄,,株式会社,鹿児島県,南さつま市,加世田川畑４３５８番地１,,46,220,8970003,,,2023-08-01,清算の結了等,,,2015-10-05,1,,,,,シュウエイ,0
1234,4370002016499,登記記録の閉鎖等,0,2023-08-04,2023-07-27,有限会社ハッピィリタイアメント,,有限会社,東京都,杉並区,上井草４丁目６番２４号,,13,115,1670023,,,2023-07-27,清算の結了等,,,2015-10-05,1,,,,,ハッピィリタイアメント,0
1258,4460005000409,登記記録の閉鎖等,0,2023-08-04,2023-07-12,医療法人社団影山歯科医院,,その他の設立登記法人,北海道,札幌市中央区,南十四条西１８丁目５番２７－８０２号,,01,101,0640914,,,2023-07-12,清算の結了等,,,2015-10-05,1,,,,,カゲヤマシカイイン,0
1262,4470002004205,登記記録の閉鎖等,0,2023-08-04,2023-07-31,有限会社大研,,有限会社,香川県,高松市,上林町５０２番地３,,37,201,7610302,,,2023-07-31,清算の結了等,,,2015-10-05,1,,,,,ダイケン,0
1268,4480002001589,登記記録の閉鎖等,0,2023-08-04,2023-08-02,ササカ不動産有限会社,,有限会社,大阪府,大阪市住吉区,清水丘３丁目８番１４号,,27,120,5580033,,,2023-08-02,清算の結了等,,,2015-10-05,1,,,,,ササカフドウサン,0
1309,5010801023193,登記記録の閉鎖等,0,2023-08-04,2023-08-01,株式会社ワイ・エム・ケイ,,株式会社,東京都,大田区,羽田２丁目６番７号,,13,111,1440043,,,2023-08-01,清算の結了等,,,2015-10-05,1,,,,,,0
1315,5010805001526,登記記録の閉鎖等,0,2023-08-04,2023-07-31,特定非営利活動法人社会総合研究所,,その他の設立登記法人,東京都,大田区,池上６丁目３９番１３号,,13,111,1460082,,,2023-07-31,清算の結了等,,,2015-10-05,1,,,,,シャカイソウゴウケンキュウショ,0
1320,5011001104123,登記記録の閉鎖等,0,2023-08-04,2023-07-31,ｅ－ＧｏｏｄＭａｎｎｅｒｓ　Ｊａｐａｎ株式会社,,株式会社,東京都,渋谷区,恵比寿南１丁目１－１ヒューマックス恵比寿ビル７Ｆ,,13,113,1500022,,,2023-07-31,清算の結了等,,,2015-10-05,1,,,,,,0
1349,5012401023061,登記記録の閉鎖等,0,2023-08-04,2023-07-31,株式会社清恵,,株式会社,東京都,三鷹市,井の頭３丁目３０番１０号,,13,204,1810001,,,2023-07-31,清算の結了等,,,2015-10-05,1,,,,,セイケイ,0
1379,5030002064069,登記記録の閉鎖等,0,2023-08-04,2023-07-10,有限会社加藤米穀店,,有限会社,埼玉県,和光市,新倉２丁目２９番２３号,,11,229,3510115,,,2023-07-10,清算の結了等,,,2015-10-05,1,,,,,カトウベイコクテン,0
1380,5030002098661,登記記録の閉鎖等,0,2023-08-04,2023-07-11,有限会社岩三ホーム,,有限会社,埼玉県,川口市,南鳩ヶ谷４丁目８番８号,,11,203,3340013,,,2023-07-11,清算の結了等,,,2015-10-05,1,,,,,イワサンホーム,0
1382,5040001027620,登記記録の閉鎖等,0,2023-08-04,2023-06-27,株式会社丸石ハウジング,,株式会社,千葉県,市川市,香取２丁目１２番１７号,,12,203,2720141,,,2023-06-27,清算の結了等,,,2017-09-01,1,,,,,マルイシハウジング,0
1402,5060001029210,登記記録の閉鎖等,0,2023-08-04,2023-07-19,株式会社ｄｅｒｉｖｅ,,株式会社,栃木県,宇都宮市,海道町１１０番地,,09,201,3210971,,,2023-07-19,清算の結了等,,,2017-03-24,1,,,,,ディライブ,0
1403,5060001030151,登記記録の閉鎖等,0,2023-08-04,2023-07-20,株式会社ＭＫＫＣ,,株式会社,栃木県,真岡市,東光寺２丁目８番地３,,09,209,3214309,,,2023-07-20,清算の結了等,,,2018-01-16,1,,,,,エムケーケーシー,0
1408,5060002028541,登記記録の閉鎖等,0,2023-08-04,2023-07-14,有限会社シカムラ,,有限会社,栃木県,小山市,駅南町３丁目２２番１７号,,09,208,3230822,,,2023-07-14,清算の結了等,,,2015-10-05,1,,,,,シカムラ,0
1414,5070001039126,登記記録の閉鎖等,0,2023-08-04,2023-08-01,株式会社Ｖ‐ｌｉｎｋ,,株式会社,群馬県,伊勢崎市,境下渕名２０４０番地１,,10,204,3700103,,,2023-08-01,清算の結了等,,,2022-04-06,1,,,,,ヴイリンク,0
1426,5110005005598,登記記録の閉鎖等,0,2023-08-04,2023-07-27,三条中小企業共同工場協同組合連合会,,その他の設立登記法人,新潟県,三条市,金子新田丙９０６番地１,,15,204,9550814,,,2023-07-27,清算の結了等,,,2015-10-05,1,,,,,サンジョウチュウショウキギョウキョウドウコウジョウ,0
1436,5120101036042,登記記録の閉鎖等,0,2023-08-04,2023-08-01,株式会社エフ,,株式会社,大阪府,貝塚市,加治６０番地の７アクアコート貝塚２０４号,,27,208,5970074,,,2023-08-01,清算の結了等,,,2015-10-05,1,,,,,エフ,0
1445,5122001035941,登記記録の閉鎖等,0,2023-08-04,2023-08-01,株式会社外為システムジャパン,,株式会社,大阪府,八尾市,八尾木４丁目６,,27,212,5810027,,,2023-08-01,清算の結了等,,,2022-06-10,1,,,,,ガイタメシステムジャパン,0
1450,5130001061172,登記記録の閉鎖等,0,2023-08-04,2023-07-21,ドクエン株式会社,,株式会社,京都府,京都市南区,東九条南松ノ木町１２番３,,26,107,6018023,,,2023-07-21,清算の結了等,,,2017-12-19,1,,,,,ドクエン,0
1453,5130003007363,登記記録の閉鎖等,0,2023-08-04,2023-07-18,Ａｍａｒａｎｔｈ　Ｌｉｖｅｒ　Ａｇｅｎｃｙ合同会社,,合同会社,京都府,京都市中京区,御池通東洞院東入笹屋町４３６永和御池ビル６０６号,,26,104,6048187,,,2023-07-18,清算の結了等,,,2021-07-21,1,,,,,アマランスライバーエージェンシー,0
1457,5140001118954,登記記録の閉鎖等,0,2023-08-04,2023-07-31,ベストフィールド株式会社,,株式会社,兵庫県,伊丹市,鈴原町９丁目１９９番地,,28,207,6640882,,,2023-07-31,清算の結了等,,,2020-10-08,1,,,,,ベストフィールド,0
1463,5140005004028,登記記録の閉鎖等,0,2023-08-04,2023-07-28,新神戸サンクレバー自治管理組合法人,,その他の設立登記法人,兵庫県,神戸市中央区,生田町１丁目２番２３号,,28,110,6510092,,,2023-07-28,清算の結了等,,,2015-10-05,1,,,,,シンコウベサンクレバージチ,0
1467,5160001017114,登記記録の閉鎖等,0,2023-08-04,2023-08-02,株式会社ニジプロ,,株式会社,滋賀県,草津市,野村１丁目２６－１１パステルエイトＩＩ１０１,00124214,25,206,5250027,,,2023-08-02,清算の結了等,,,2015-10-05,1,,,,,ニジプロ,0
1470,5160005006914,登記記録の閉鎖等,0,2023-08-04,2023-07-25,税理士法人さつき総合会計,,その他の設立登記法人,滋賀県,近江八幡市,上野町６４番地,,25,204,5230046,,,2023-07-25,清算の結了等,,,2015-10-05,1,,,,,サツキソウゴウカイケイ,0
1472,5170003001263,登記記録の閉鎖等,0,2023-08-04,2023-07-31,合同会社ｐｉａｔｔｏ,,合同会社,和歌山県,和歌山市,土佐町３丁目２４番地８,,30,201,6408256,,,2023-07-31,合併による解散等,2170002002380,令和５年７月３１日和歌山市西浜１６６０番地の４０１株式会社立野商店（2170002002380）に合併し解散,2018-09-05,1,,,,,ピアット,0
1495,5190002011501,登記記録の閉鎖等,0,2023-08-04,2023-07-26,有限会社大王工業,,有限会社,三重県,志摩市,大王町波切２９５２番地１,,24,215,5170603,,,2023-07-26,清算の結了等,,,2015-10-05,1,,,,,ダイオウコウギョウ,0
1509,5250002003962,登記記録の閉鎖等,0,2023-08-04,2023-07-26,有限会社タナカ興業,,有限会社,山口県,防府市,大字田島２０９６番地の１,,35,206,7470834,,,2023-07-26,清算の結了等,,,2015-10-05,1,,,,,タナカコウギョウ,0
1511,5260001026121,登記記録の閉鎖等,0,2023-08-04,2023-07-28,株式会社Ｍ．Ｍ．Ｃ．,,株式会社,岡山県,倉敷市,川西町１６番２６号,,33,202,7100821,,,2023-07-28,清算の結了等,,,2015-10-05,1,,,,,エムエムシー,0
1513,5260005011020,登記記録の閉鎖等,0,2023-08-04,2023-07-31,ＮＰＯ法人陽だまり・美作,,その他の設立登記法人,岡山県,美作市,上相４８０番地１,,33,215,7070001,,,2023-07-31,清算の結了等,,,2022-01-18,1,,,,,ヒダマリミマサカ,0
1516,5290001045093,登記記録の閉鎖等,0,2023-08-04,2023-07-31,株式会社Ｍ２,,株式会社,佐賀県,武雄市,武雄町大字富岡１２４１８番地３,,41,206,8430024,,,2023-07-31,合併による解散等,5300001004667,令和５年７月３１日佐賀県武雄市武雄町大字富岡１２４１８番地３株式会社丸新（5300001004667）に合併し解散,2015-10-05,1,,,,,エムツー,0
1524,5290002001376,登記記録の閉鎖等,0,2023-08-04,2023-07-25,有限会社石崎産業,,有限会社,福岡県,福岡市南区,大平寺１丁目３７番１６号,,40,134,8111354,,,2023-07-25,清算の結了等,,,2015-10-05,1,,,,,イシザキサンギョウ,0
1538,5290802023578,登記記録の閉鎖等,0,2023-08-04,2023-08-02,有限会社クリエイト,,有限会社,福岡県,豊前市,大字清水町１１９番地,,40,214,8280026,,,2023-08-02,清算の結了等,,,2015-10-05,1,,,,,クリエイト,0
1541,5300003001241,登記記録の閉鎖等,0,2023-08-04,2023-08-01,合同会社ＨＡＫＵ,,合同会社,佐賀県,佐賀市,本庄町大字袋４０８番地１９,,41,201,8400023,,,2023-08-01,合併による解散等,7300003000860,令和５年８月１日佐賀市本庄町大字袋４０８番地１９合同会社西木屋（7300003000860）に合併し解散,2016-12-28,1,,,,,ハク,0
1551,5340001014555,登記記録の閉鎖等,0,2023-08-04,2023-08-01,保険管理センター株式会社,,株式会社,鹿児島県,鹿屋市,旭原町３６３２番地４,,46,203,8930022,,,2023-08-01,清算の結了等,,,2015-10-05,1,,,,,ホケンカンリセンター,0
1554,5360001014413,登記記録の閉鎖等,0,2023-08-04,2023-07-31,株式会社ＷＥＳＴ　ＣＯＡＳＴ　ＬＵＭＢＥＲ,,株式会社,沖縄県,中頭郡読谷村,字座喜味４２０番地１,,47,324,9040301,,,2023-07-31,清算の結了等,,,2015-10-05,1,,,,,ウエストコーストランバー,0
1557,5360002005411,登記記録の閉鎖等,0,2023-08-04,2023-08-01,有限会社数学研究会アルファ,,有限会社,沖縄県,浦添市,字港川３１０番地３０,,47,208,9012134,,,2023-08-01,清算の結了等,,,2015-10-05,1,,,,,スウガクケンキュウカイアルファ,0
1567,5380002011944,登記記録の閉鎖等,0,2023-08-04,2023-07-31,有限会社古川肇商店,,有限会社,福島県,郡山市,中田町柳橋字町４９９番地,,07,203,9630831,,,2023-07-31,清算の結了等,,,2015-10-05,1,,,,,フルカワハジメショウテン,0
1568,5380002032965,登記記録の閉鎖等,0,2023-08-04,2023-07-31,有限会社蓋沼産業,,有限会社,福島県,大沼郡会津美里町,八木沢字伴右エ門前３４２７番地４,,07,447,9696273,,,2023-07-31,清算の結了等,,,2015-10-05,1,,,,,フタヌマサンギョウ,0
1580,5430001064368,登記記録の閉鎖等,0,2023-08-04,2023-07-14,株式会社アスカ住建,,株式会社,北海道,札幌市清田区,北野四条２丁目３番６号,,01,110,0040864,,,2023-07-14,清算の結了等,,,2015-10-05,1,,,,,ジュウケン,0
1618,6010403013328,登記記録の閉鎖等,0,2023-08-04,2023-07-31,合同会社ＤＩＰ，ＬＬＣ．,,合同会社,東京都,港区,愛宕２丁目５番１号愛宕グリーンヒルズＭＯＲＩタワー３７階,,13,103,1050002,,,2023-07-31,清算の結了等,,,2015-10-05,1,,,,,ディップエルエルシー,0
1640,6011005006496,登記記録の閉鎖等,0,2023-08-04,2023-07-28,一般社団法人家庭教育普及協会,,その他の設立登記法人,東京都,江東区,青海２丁目４番３２号,,13,108,1350064,,,2023-07-28,清算の結了等,,,2015-10-05,1,,,,,カテイキョウイクフキュウキョウカイ,0
1648,6011201011168,登記記録の閉鎖等,0,2023-08-04,2023-08-02,株式会社警察研修社,,株式会社,東京都,中野区,東中野１丁目１２番２６号,,13,114,1640003,,,2023-08-02,清算の結了等,,,2015-10-05,1,,,,,ケイサツケンシュウシャ,0
1653,6011401000813,登記記録の閉鎖等,0,2023-08-04,2023-08-03,株式会社エー・エム・ピー,,株式会社,東京都,板橋区,宮本町６３番４号,,13,119,1740054,,,2023-08-03,清算の結了等,,,2015-10-05,1,,,,,,0
1689,6020001060275,登記記録の閉鎖等,0,2023-08-04,2023-07-24,株式会社シーネットコーポレーション,,株式会社,神奈川県,横浜市中区,元浜町３丁目２１番２号ヘリオス関内ビル,,14,104,2310004,,,2023-07-24,清算の結了等,,,2015-10-05,1,,,,,シーネットコーポレーション,0
1697,6020002046050,登記記録の閉鎖等,0,2023-08-04,2023-07-31,有限会社ランドデザイン,,有限会社,神奈川県,平塚市,幸町２１番４号,,14,203,2540804,,,2023-07-31,合併による解散等,8021002057746,令和５年７月３１日神奈川県平塚市幸町２１番４号株式会社コスモデザイン（8021002057746）に合併し解散,2015-10-05,1,,,,,ランドデザイン,0
1705,6021001047717,登記記録の閉鎖等,0,2023-08-04,2023-08-02,株式会社ＹＫ,,株式会社,神奈川県,鎌倉市,岩瀬１５３３番地,,14,204,2470051,,,2023-08-02,清算の結了等,,,2015-10-05,1,,,,,ワイケー,0
1714,6030001084793,登記記録の閉鎖等,0,2023-08-04,2023-07-10,株式会社サンキ,,株式会社,埼玉県,熊谷市,見晴町３番地,,11,202,3600824,,,2023-07-10,清算の結了等,,,2015-10-05,1,,,,,サンキ,0
1726,6050001005640,登記記録の閉鎖等,0,2023-08-04,2023-08-01,株式会社クレスト,,株式会社,茨城県,那珂郡東海村,舟石川駅西１丁目４番１３号,,08,341,3191116,,,2023-08-01,清算の結了等,,,2015-10-05,1,,,,,クレスト,0
1734,6060001022651,登記記録の閉鎖等,0,2023-08-04,2023-07-20,株式会社コウテン,,株式会社,栃木県,塩谷郡高根沢町,大字栗ケ島３３６番地,,09,386,3291223,,,2023-07-20,清算の結了等,,,2015-10-05,1,,,,,コウテン,0
1735,6060001032659,登記記録の閉鎖等,0,2023-08-04,2023-07-20,株式会社エイトエナジー,,株式会社,栃木県,佐野市,君田町３０６番地,,09,204,3270043,,,2023-07-20,清算の結了等,,,2020-06-08,1,,,,,エイトエナジー,0
1736,6060002032245,登記記録の閉鎖等,0,2023-08-04,2023-07-19,有限会社田村屋食品工業,,有限会社,栃木県,栃木市,本町９番１１号,,09,203,3280034,,,2023-07-19,清算の結了等,,,2015-10-05,1,,,,,タムラヤショクヒンコウギョウ,0
1740,6070003002808,登記記録の閉鎖等,0,2023-08-04,2023-08-01,合同会社エス・クリエイト,,合同会社,群馬県,前橋市,国領町２丁目１３番７－６０６号,,10,201,3710033,,,2023-08-01,合併による解散等,7070003002922,令和５年７月３１日群馬県前橋市国領町二丁目１３番７－６０６号合同会社エス・プロダクト（7070003002922）に合併し解散,2017-01-17,1,,,,,エスクリエイト,0
1743,6080101005455,登記記録の閉鎖等,0,2023-08-04,2023-07-24,株式会社加藤土木建築工業,,株式会社,静岡県,三島市,長伏６４４番地,,22,206,4110824,,,2023-07-24,清算の結了等,,,2023-03-31,1,,,,,カトウドボクケンチクコウギョウ,0
1753,6120001109599,登記記録の閉鎖等,0,2023-08-04,2023-07-27,Ａプレゼンツ株式会社,,株式会社,大阪府,大阪市天王寺区,生玉前町３番２５号,,27,109,5430072,,,2023-07-27,清算の結了等,,,2015-10-05,1,,,,,エイプレゼンツ,0
1770,6120005022666,登記記録の閉鎖等,0,2023-08-04,2023-08-02,一般社団法人Ｙ’ｓ,,その他の設立登記法人,大阪府,大阪市北区,西天満４丁目１０番３号,,27,127,5300047,,,2023-08-02,清算の結了等,,,2021-12-21,1,,,,,ワイズ,0
1775,6122001018854,登記記録の閉鎖等,0,2023-08-04,2023-07-27,新栄商事株式会社,,株式会社,大阪府,八尾市,志紀町１丁目１１８番地,,27,212,5810031,,,2023-07-27,合併による解散等,1122001019980,令和５年７月２７日大阪府八尾市天王寺屋二丁目６８番地富士開発株式会社（1122001019980）に合併し解散,2015-10-05,1,,,,,シンエイショウジ,0
1780,6130001038970,登記記録の閉鎖等,0,2023-08-04,2023-07-18,株式会社三建工務店,,株式会社,京都府,八幡市,八幡清水井２４３番地の２,,26,210,6148062,,,2023-07-18,清算の結了等,,,2015-10-05,1,,,,,サンケンコウムテン,0
1791,6140002012676,登記記録の閉鎖等,0,2023-08-04,2023-08-01,有限会社赤塚,00040617,有限会社,兵庫県,神戸市中央区,楠町５丁目４番５号楠ハイツ６０１号,,28,110,6500017,,,2023-08-01,清算の結了等,,,2015-10-05,1,,,,,アカツカ,0
1796,6160001014614,登記記録の閉鎖等,0,2023-08-04,2023-08-03,株式会社ホテル・マーケティング研究所,,株式会社,滋賀県,栗東市,下鈎１０３５番地３,,25,208,5203026,,,2023-08-03,清算の結了等,,,2015-10-05,1,,,,,ホテルマーケティングケンキュウショ,0
1798,6160002010991,登記記録の閉鎖等,0,2023-08-04,2023-08-01,有限会社徳井養鶏場,00044704,有限会社,滋賀県,蒲生郡竜王町,大字岡屋１２３２番地,,25,384,5202541,,,2023-08-01,清算の結了等,,,2015-10-05,1,,,,,トクイヨウケイジョウ,0
1829,6220003001380,登記記録の閉鎖等,0,2023-08-04,2023-07-31,ｔｈａｎｋＵ４．ｃｏｍ合同会社,,合同会社,石川県,金沢市,三社町１１番３０号信開ドムス３０６,,17,201,9200861,,,2023-07-31,清算の結了等,,,2015-10-05,1,,,,,サンキューフォードットコム,0
1833,6250002012789,登記記録の閉鎖等,0,2023-08-04,2023-07-24,有限会社技建,,有限会社,山口県,下関市,垢田町５丁目３番５５号,,35,201,7510841,,,2023-07-24,清算の結了等,,,2015-10-05,1,,,,,ギケン,0
1838,6260001024421,登記記録の閉鎖等,0,2023-08-04,2023-08-01,株式会社大森ゑびす堂,,株式会社,岡山県,岡山市東区,西大寺浜６４８番地１,,33,103,7048126,,,2023-08-01,清算の結了等,,,2015-10-05,1,,,,,オオモリエビスドウ,0
1842,6260002029304,登記記録の閉鎖等,0,2023-08-04,2023-07-31,トーワ不動産有限会社フジモト,,有限会社,岡山県,津山市,南方中２７番地８,,33,203,7094616,,,2023-07-31,清算の結了等,,,2015-10-05,1,,,,,トーワフドウサンフジモト,0
1860,6310001012866,登記記録の閉鎖等,0,2023-08-04,2023-07-31,清松コーポレーション株式会社,,株式会社,長崎県,西彼杵郡長与町,丸田郷１１１５番地３６,,42,307,8512124,,,2023-07-31,合併による解散等,5310001014260,令和５年７月３１日長崎県西彼杵郡長与町丸田郷１１１５番地３６長崎マリンオートメーション株式会社（5310001014260）に合併し解散,2015-10-05,1,,,,,セイショウコーポレーション,0
1865,6330001018878,登記記録の閉鎖等,0,2023-08-04,2023-07-14,株式会社みなと物産,,株式会社,熊本県,八代市,葭牟田町４６３番地２,,43,202,8695161,,,2023-07-14,清算の結了等,,,2015-10-05,1,,,,,,0
1873,6350003001327,登記記録の閉鎖等,0,2023-08-04,2023-07-25,合同会社シャインテクノ,,合同会社,宮崎県,延岡市,柚の木田町４５８１番地２,,45,203,8820026,,,2023-07-25,清算の結了等,,,2015-10-05,1,,,,,シャインテクノ,0
1880,6370001022892,登記記録の閉鎖等,0,2023-08-04,2023-07-20,株式会社地球の恵,,株式会社,岩手県,遠野市,宮守町上鱒沢４地割５－２,00117050,03,208,0280302,,,2023-07-20,清算の結了等,,,2015-10-05,1,,,,,チキュウノメグミ,0
1886,6400002001165,登記記録の閉鎖等,0,2023-08-04,2023-07-21,有限会社高栄,,有限会社,岩手県,盛岡市,菜園２丁目５番３３号,,03,201,0200024,,,2023-07-21,清算の結了等,,,2015-10-05,1,,,,,タカエイ,0
1887,6400002004647,登記記録の閉鎖等,0,2023-08-04,2023-07-13,有限会社東北不動産管理サービス,,有限会社,岩手県,盛岡市,松園３丁目１８番４１,,03,201,0200107,,,2023-07-13,清算の結了等,,,2015-10-05,1,,,,,トウホクフドウサンカンリサービス,0
1932,7010403017204,登記記録の閉鎖等,0,2023-08-04,2023-07-31,合同会社ＤＩＰ，ＬＬＣ．３,,合同会社,東京都,港区,愛宕２丁目５番１号愛宕グリーンヒルズＭＯＲＩタワー３７階,,13,103,1050002,,,2023-07-31,清算の結了等,,,2017-09-06,1,,,,,ディップエルエルシースリー,0
1952,7011001099824,登記記録の閉鎖等,0,2023-08-04,2023-07-31,株式会社坂口力健康相談室,,株式会社,東京都,渋谷区,渋谷１丁目１５番１５－７１１号,,13,113,1500002,,,2023-07-31,清算の結了等,,,2015-10-05,1,,,,,サカグチチカラケンコウソウダンシツ,0
1974,7011701013794,登記記録の閉鎖等,0,2023-08-04,2023-08-03,株式会社フルドロー,,株式会社,東京都,江戸川区,北葛西１丁目２３番７号,,13,123,1340081,,,2023-08-03,清算の結了等,,,2015-10-05,1,,,,,フルドロー,0
1995,7021002060940,登記記録の閉鎖等,0,2023-08-04,2023-08-02,有限会社松田屋靴店,,有限会社,神奈川県,中郡二宮町,二宮７９８番地,,14,342,2590123,,,2023-08-02,清算の結了等,,,2015-10-05,1,,,,,マツダヤクツテン,0
2018,7050002023896,登記記録の閉鎖等,0,2023-08-04,2023-07-31,小島印刷有限会社,,有限会社,茨城県,古河市,中央町２丁目４番１６号,,08,204,3060033,,,2023-07-31,清算の結了等,,,2015-10-05,1,,,,,コジマインサツ,0
2025,7070002027895,登記記録の閉鎖等,0,2023-08-04,2023-07-31,有限会社穴久保建設,,有限会社,群馬県,太田市,新田市野倉町１６５番地１,,10,205,3700306,,,2023-07-31,清算の結了等,,,2015-10-05,1,,,,,アナクボケンセツ,0
2033,7100002022216,登記記録の閉鎖等,0,2023-08-04,2023-07-31,有限会社イコーワークス,,有限会社,長野県,松本市,梓川梓２１４７番地,,20,202,3901702,,,2023-07-31,清算の結了等,,,2015-10-05,1,,,,,イコーワークス,0
2038,7120001077721,登記記録の閉鎖等,0,2023-08-04,2023-08-02,技研設備工業株式会社,,株式会社,大阪府,大阪市中央区,内平野町１丁目１番６－２０３号,,27,128,5400037,,,2023-08-02,清算の結了等,,,2015-10-05,1,,,,,ギケンセツビコウギョウ,0
2039,7120001079503,登記記録の閉鎖等,0,2023-08-04,2023-08-02,株式会社コーネル,,株式会社,大阪府,大阪市西区,新町１丁目２４番８号－８０３号室,,27,106,5500013,,,2023-08-02,清算の結了等,,,2015-10-05,1,,,,,コーネル,0
2043,7120001215999,登記記録の閉鎖等,0,2023-08-04,2023-07-13,ＦＣＩ株式会社,,株式会社,大阪府,大阪市淀川区,西中島６丁目９番２７号新大阪メイコービル３０１号,,27,123,5320011,,,2023-07-13,合併による解散等,8120903001364,令和５年７月１日大阪市淀川区西中島六丁目９番２７号新大阪メイコービル３０１号フジアンドチェリー株式会社（8120903001364）に合併し解散,2018-09-21,1,,,,,エフシーアイ,0
2045,7120001222095,登記記録の閉鎖等,0,2023-08-04,2023-07-13,フジアンドチェリーグループ株式会社,,株式会社,大阪府,大阪市淀川区,西中島６丁目９番２７号,,27,123,5320011,,,2023-07-13,合併による解散等,8120903001364,令和５年７月１日大阪市淀川区西中島六丁目９番２７号新大阪メイコービル３０１号フジアンドチェリー株式会社（8120903001364）に合併し解散,2019-07-02,1,,,,,フジアンドチェリーグループ,0
2046,7120001224554,登記記録の閉鎖等,0,2023-08-04,2023-08-01,美藝株式会社,,株式会社,兵庫県,小野市,西本町４７１番地の２ハイツ西本町２０２号,,28,218,6751375,,,2023-08-01,清算の結了等,,,2019-10-29,1,,,,,ビゲイ,0
2072,7130002032204,登記記録の閉鎖等,0,2023-08-04,2023-07-14,有限会社中常,,有限会社,京都府,与謝郡与謝野町,字石川５５４１番地の４,,26,465,6292303,,,2023-07-14,清算の結了等,,,2015-10-05,1,,,,,,0
2094,7180001130994,登記記録の閉鎖等,0,2023-08-04,2023-08-01,ＹＫＲ　ｍｅｄｉｃａｌ　ｃｏｎｓｕｌｔ株式会社,,株式会社,愛知県,名古屋市天白区,久方３丁目８６番地,,23,116,4680034,,,2023-08-01,清算の結了等,,,2018-01-29,1,,,,,ワイケイアールメディカルコンサルト,0
2102,7180005000153,登記記録の閉鎖等,0,2023-08-04,2023-08-01,不動教,,その他の設立登記法人,愛知県,名古屋市中村区,西米野町３丁目２５番地,,23,105,4530812,,,2023-08-01,清算の結了等,,,2015-10-05,1,,,,,フドウキョウ,0
2106,7190001023108,登記記録の閉鎖等,0,2023-08-04,2023-07-28,株式会社大一工業,,株式会社,三重県,三重郡菰野町,大字下村７４９番地,,24,341,5101225,,,2023-07-28,清算の結了等,,,2015-10-05,1,,,,,ダイイチコウギョウ,0
2119,7240002044122,登記記録の閉鎖等,0,2023-08-04,2023-07-31,有限会社鞆の浦興業所,00001531,有限会社,広島県,福山市,鞆町鞆３０７番地,00001532,34,207,7200201,,,2023-07-31,清算の結了等,,,2015-10-05,1,,,,,トモノウラコウギョウ,0
2121,7250002014231,登記記録の閉鎖等,0,2023-08-04,2023-07-21,有限会社長門トップゼミ,,有限会社,山口県,長門市,東深川字石尺９１１番地３,,35,211,7594101,,,2023-07-21,清算の結了等,,,2015-10-05,1,,,,,ナガトトップゼミ,0
2133,7290005016931,登記記録の閉鎖等,0,2023-08-04,2023-07-18,九州メディカルサポート協同組合,,その他の設立登記法人,福岡県,福岡市中央区,高砂２丁目２２番５号,,40,133,8100011,,,2023-07-18,清算の結了等,,,2018-07-26,1,,,,,キュウシュウメディカルサポート,0
2151,7370001006572,登記記録の閉鎖等,0,2023-08-04,2023-07-28,宮城ポスタルサービス株式会社,,株式会社,宮城県,仙台市若林区,遠見塚東７番８号,,04,103,9840824,,,2023-07-28,清算の結了等,,,2015-10-05,1,,,,,ミヤギポスタルサービス,0
2152,7370001021217,登記記録の閉鎖等,0,2023-08-04,2023-07-27,株式会社ビジネスエージェンシー,,株式会社,宮城県,仙台市宮城野区,宮城野１丁目１２番１１号,,04,102,9830045,,,2023-07-27,清算の結了等,,,2015-10-05,1,,,,,ビジネスエージェンシー,0
2161,7380002031791,登記記録の閉鎖等,0,2023-08-04,2023-07-31,有限会社児島水道工業,,有限会社,福島県,大沼郡会津美里町,八木沢字伴右エ門前３４２７番地４,,07,447,9696273,,,2023-07-31,清算の結了等,,,2015-10-05,1,,,,,コジマスイドウコウギョウ,0
2176,7470003000638,登記記録の閉鎖等,0,2023-08-04,2023-07-26,合同会社鞆江,,合同会社,香川県,丸亀市,浜町８４番地４９サーパス丸亀駅前４０３号,,37,202,7630022,,,2023-07-26,清算の結了等,,,2015-10-05,1,,,,,トモエ,0
2183,8010001080264,登記記録の閉鎖等,0,2023-08-04,2023-08-02,株式会社ＳＧＣ,,株式会社,東京都,新宿区,早稲田鶴巻町５７８番地,,13,104,1620041,,,2023-08-02,合併による解散等,8011101020894,令和５年８月１日東京都新宿区山吹町３５０番地株式会社メイク（8011101020894）に合併し解散,2015-10-05,1,,,,,エスジーシー,0
2201,8010403017203,登記記録の閉鎖等,0,2023-08-04,2023-07-31,合同会社ＤＩＰ，ＬＬＣ．２,,合同会社,東京都,港区,愛宕２丁目５番１号愛宕グリーンヒルズＭＯＲＩタワー３７階,,13,103,1050002,,,2023-07-31,清算の結了等,,,2017-09-06,1,,,,,ディップエルエルシーツー,0
2204,8010405021153,登記記録の閉鎖等,0,2023-08-04,2023-07-11,羽村特定目的会社,,その他の設立登記法人,東京都,港区,元赤坂１丁目１番８号株式会社赤坂国際会計内,,13,103,1070051,,,2023-07-11,清算の結了等,,,2022-07-13,1,,,,,ハムラ,0
2207,8010701011270,登記記録の閉鎖等,0,2023-08-04,2023-08-01,株式会社朝日ピープル,,株式会社,東京都,品川区,東五反田４丁目１０番５号,,13,109,1410022,,,2023-08-01,清算の結了等,,,2015-10-05,1,,,,,アサヒピープル,0
2228,8011101020317,登記記録の閉鎖等,0,2023-08-04,2023-08-01,丸正商事株式会社,,株式会社,東京都,新宿区,須賀町４番地,,13,104,1600018,,,2023-08-01,合併による解散等,9011101020316,令和５年８月１日東京都新宿区四谷三丁目１２番地丸正食品株式会社（9011101020316）に合併し解散,2015-10-05,1,,,,,マルショウショウジ,0
2245,8011601007788,登記記録の閉鎖等,0,2023-08-04,2023-08-01,株式会社カワセ,,株式会社,東京都,練馬区,石神井台５丁目１５番１号,,13,120,1770045,,,2023-08-01,清算の結了等,,,2015-10-05,1,,,,,カワセ,0
2247,8011801011739,登記記録の閉鎖等,0,2023-08-04,2023-08-02,株式会社フレスコ,,株式会社,東京都,足立区,加賀２丁目２４番１９号,,13,121,1230861,,,2023-08-02,清算の結了等,,,2015-10-05,1,,,,,,0
2274,8021001009079,登記記録の閉鎖等,0,2023-08-04,2023-07-31,株式会社アティスホールディングス,,株式会社,神奈川県,鎌倉市,小袋谷１丁目３番３号,,14,204,2470055,,,2023-07-31,清算の結了等,,,2015-10-05,1,,,,,アティスホールディングス,0
2275,8021001052830,登記記録の閉鎖等,0,2023-08-04,2023-08-02,株式会社アイムス,,株式会社,神奈川県,平塚市,唐ケ原１７番地の１,,14,203,2540826,,,2023-08-02,清算の結了等,,,2015-10-05,1,,,,,アイムス,0
2295,8040003018243,登記記録の閉鎖等,0,2023-08-04,2023-07-13,リボン合同会社,,合同会社,千葉県,印西市,牧の木戸１丁目１３番地２,,12,231,2701357,,,2023-07-13,清算の結了等,,,2021-07-28,1,,,,,リボン,0
2301,8050002027021,登記記録の閉鎖等,0,2023-08-04,2023-07-31,有限会社関東シャーリング,,有限会社,茨城県,神栖市,知手中央１丁目９番１２号,,08,232,3140112,,,2023-07-31,清算の結了等,,,2015-10-05,1,,,,,カントウシャーリング,0
2311,8080002001205,登記記録の閉鎖等,0,2023-08-04,2023-08-01,株式会社オール産業,,株式会社,静岡県,静岡市葵区,安西５丁目９番地の１,,22,101,4200011,,,2023-08-01,合併による解散等,2080001004156,令和５年８月１日静岡市葵区安西五丁目９番地の１株式会社ノウ・ウェル（2080001004156）に合併し解散,2015-10-05,1,,,,,オールサンギョウ,0
2351,8130001009961,登記記録の閉鎖等,0,2023-08-04,2023-07-24,池印刷紙工株式会社,,株式会社,京都府,京都市南区,上鳥羽大物９番地,,26,107,6010000,,,2023-07-24,清算の結了等,,,2015-10-05,1,,,,,,0
2368,8160001019256,登記記録の閉鎖等,0,2023-08-04,2023-08-02,株式会社クレヤ,,株式会社,滋賀県,草津市,平井１丁目１９番４号,,25,206,5250023,,,2023-08-02,清算の結了等,,,2016-01-19,1,,,,,クレヤ,0
2369,8170001014693,登記記録の閉鎖等,0,2023-08-04,2023-08-01,株式会社柿原組,,株式会社,和歌山県,和歌山市,津秦１３９番地２４,,30,201,6408315,,,2023-08-01,清算の結了等,,,2017-04-05,1,,,,,カキハラグミ,0
2373,8180001102258,登記記録の閉鎖等,0,2023-08-04,2023-08-01,株式会社ホープアイランド,,株式会社,愛知県,名古屋市天白区,原２丁目５０７番地,,23,116,4680015,,,2023-08-01,合併による解散等,2180002022188,令和５年８月１日名古屋市天白区井口一丁目１４１０番地株式会社北星（2180002022188）に合併し解散,2015-10-05,1,,,,,ホープアイランド,0
2385,8180301011266,登記記録の閉鎖等,0,2023-08-04,2023-07-31,株式会社平野屋佛壇店,,株式会社,愛知県,蒲郡市,形原町広田６番地の１０,,23,214,4430104,,,2023-07-31,清算の結了等,,,2015-10-05,1,,,,,,0
2393,8200002008807,登記記録の閉鎖等,0,2023-08-04,2023-08-01,有限会社川硬,,有限会社,岐阜県,岐阜市,柳津町本郷３丁目２６番地,,21,201,5016104,,,2023-08-01,清算の結了等,,,2015-10-05,1,,,,,カワコウ,0
2409,8250005008386,登記記録の閉鎖等,0,2023-08-04,2023-07-21,ワールドゲート事業協同組合,,その他の設立登記法人,山口県,周南市,中央町２番３号,,35,215,7460016,,,2023-07-21,清算の結了等,,,2018-02-15,1,,,,,ワールドゲートジギョウ,0
2410,8260002018180,登記記録の閉鎖等,0,2023-08-04,2023-08-01,有限会社コニシ,,有限会社,岡山県,倉敷市,児島柳田町４５６番地の２３,,33,202,7110936,,,2023-08-01,清算の結了等,,,2015-10-05,1,,,,,コニシ,0
2412,8280002004113,登記記録の閉鎖等,0,2023-08-04,2023-07-31,株式会社さんびる不動産,,株式会社,島根県,松江市,南田町９２番地１,,32,201,6900884,,,2023-07-31,合併による解散等,6280001007424,令和５年７月３１日島根県松江市乃白町薬師前３番地３さんびるホールディングス株式会社（6280001007424）に合併し解散,2015-10-05,1,,,,,サンビルフドウサン,0
2422,8290002037203,登記記録の閉鎖等,0,2023-08-04,2023-07-24,有限会社山田工務店,,有限会社,福岡県,糟屋郡篠栗町,大字尾仲５４５番地の４,,40,342,8112413,,,2023-07-24,清算の結了等,,,2015-10-05,1,,,,,ヤマダコウムテン,0
2423,8290005018084,登記記録の閉鎖等,0,2023-08-04,2023-07-20,一般財団法人国際人材教育協会,,その他の設立登記法人,福岡県,福岡市中央区,小笹１丁目１７－１ＴＲＣ小笹４０２号,,40,133,8100033,,,2023-07-20,清算の結了等,,,2021-02-15,1,,,,,コクサイジンザイキョウイクキョウカイ,0
2426,8300001007584,登記記録の閉鎖等,0,2023-08-04,2023-08-02,相知ダイハツ販売株式会社,,株式会社,佐賀県,唐津市,相知町牟田部８７２番地,,41,202,8493231,,,2023-08-02,清算の結了等,,,2015-10-05,1,,,,,オウチダイハツハンバイ,0
2427,8310001006940,登記記録の閉鎖等,0,2023-08-04,2023-07-14,株式会社山田組,,株式会社,長崎県,南松浦郡新上五島町,青方郷１８１６番地１,,42,411,8574404,,,2023-07-14,清算の結了等,,,2018-04-23,1,,,,,ヤマダグミ,0
2495,9010002053540,登記記録の閉鎖等,0,2023-08-04,2023-08-01,有限会社やまがら商店,,有限会社,東京都,新宿区,新宿１丁目２０番３－６０７号,,13,104,1600022,,,2023-08-01,清算の結了等,,,2015-10-05,1,,,,,ヤマガラショウテン,0
2520,9010405013769,登記記録の閉鎖等,0,2023-08-04,2023-07-06,一般社団法人ヘルスケア情報協会,,その他の設立登記法人,東京都,港区,芝大門２丁目１２番９号,,13,103,1050012,,,2023-07-06,清算の結了等,,,2015-10-05,1,,,,,ヘルスケアジョウホウキョウカイ,0
2569,9011801005896,登記記録の閉鎖等,0,2023-08-04,2023-08-02,株式会社イケダコーポレーション,,株式会社,東京都,足立区,辰沼２丁目１６番１５号,,13,121,1210054,,,2023-08-02,清算の結了等,,,2015-10-05,1,,,,,,0
2580,9013301028766,登記記録の閉鎖等,0,2023-08-04,2023-07-31,株式会社イースト・マウンテン,,株式会社,東京都,豊島区,池袋２丁目５７番１０号,,13,116,1710014,,,2023-07-31,清算の結了等,,,2015-10-05,1,,,,,イーストマウンテン,0
2589,9020001145643,登記記録の閉鎖等,0,2023-08-04,2023-07-19,阿部通商株式会社,,株式会社,神奈川県,川崎市川崎区,渡田新町２丁目２番２０－２０４号ライオンズガーデン川崎,,14,131,2100844,,,2023-07-19,清算の結了等,,,2022-03-15,1,,,,,アベツウショウ,0
2597,9021001047508,登記記録の閉鎖等,0,2023-08-04,2023-07-31,株式会社五車メンテナンス,,株式会社,神奈川県,横須賀市,汐入町３丁目１番地,,14,201,2380042,,,2023-07-31,清算の結了等,,,2015-10-05,1,,,,,ゴシャメンテナンス,0
2625,9040002054783,登記記録の閉鎖等,0,2023-08-04,2023-07-11,有限会社石井木工所,,有限会社,千葉県,成田市,北部７７７番地１,,12,211,2860802,,,2023-07-11,清算の結了等,,,2015-10-05,1,,,,,イシイモッコウジョ,0
2633,9070002002748,登記記録の閉鎖等,0,2023-08-04,2023-08-01,有限会社清水建築工業,,有限会社,群馬県,前橋市,二之宮町１１８６番地１,,10,201,3792117,,,2023-08-01,清算の結了等,,,2015-10-05,1,,,,,シミズケンチクコウギョウ,0
2640,9080101016251,登記記録の閉鎖等,0,2023-08-04,2023-08-01,株式会社邦京,,株式会社,静岡県,駿東郡清水町,徳倉７９２番地,,22,341,4110917,,,2023-08-01,清算の結了等,,,2015-10-05,1,,,,,ホウキョウ,0
2656,9120001186594,登記記録の閉鎖等,0,2023-08-04,2023-07-28,株式会社クオリティーフレンズ,,株式会社,大阪府,大阪市淀川区,十三東４丁目６番１３号,,27,123,5320023,,,2023-07-28,清算の結了等,,,2015-10-05,1,,,,,,0
2669,9120102012352,登記記録の閉鎖等,0,2023-08-04,2023-08-03,有限会社新成運輸,,有限会社,大阪府,堺市美原区,阿弥２７７番地,,27,147,5870003,,,2023-08-03,清算の結了等,,,2015-10-05,1,,,,,,0
2686,9130003007921,登記記録の閉鎖等,0,2023-08-04,2023-07-19,合同会社ｗａｎｔ,,合同会社,京都府,福知山市,字大内４３６,,26,201,6200836,,,2023-07-19,清算の結了等,,,2022-05-09,1,,,,,ウォント,0
2706,9170005004203,登記記録の閉鎖等,0,2023-08-04,2023-08-02,御坊市スタンプ事業協同組合,,その他の設立登記法人,和歌山県,御坊市,薗３５０番地の２８,,30,205,6440002,,,2023-08-02,清算の結了等,,,2015-10-05,1,,,,,ゴボウシスタンプ,0
2717,9180302001315,登記記録の閉鎖等,0,2023-08-04,2023-07-27,有限会社三知建築設計同人,,有限会社,愛知県,岡崎市,戸崎町字藤狭３２番地２,,23,202,4440841,,,2023-07-27,清算の結了等,,,2015-10-05,1,,,,,サンチケンチクセッケイドウジン,0
2722,9200001039208,登記記録の閉鎖等,0,2023-08-04,2023-08-01,株式会社イマオホールディングス,,株式会社,岐阜県,関市,千疋２００２番地,,21,205,5013954,,,2023-08-01,合併による解散等,3200001018943,令和５年８月１日岐阜県関市千疋２００２番地株式会社イマオコーポレーション（3200001018943）に合併し解散,2021-10-05,1,,,,,イマオホールディングス,0
2726,9210001016338,登記記録の閉鎖等,0,2023-08-04,2023-07-31,株式会社ＩＳＴ,,株式会社,福井県,福井市,桃園２丁目５番１２号２,,18,201,9188051,,,2023-07-31,清算の結了等,,,2016-05-18,1,,,,,アイエスティ,0
2728,9220001003830,登記記録の閉鎖等,0,2023-08-04,2023-07-31,株式会社ダイカスト金沢,,株式会社,石川県,金沢市,駅西本町１丁目６番１１号,,17,201,9200025,,,2023-07-31,清算の結了等,,,2015-10-05,1,,,,,ダイカストカナザワ,0
2741,9240002030112,登記記録の閉鎖等,0,2023-08-04,2023-08-01,有限会社新川商会,,有限会社,広島県,三次市,十日市中３丁目１７番２２号,,34,209,7280012,,,2023-08-01,清算の結了等,,,2015-10-05,1,,,,,シンカワショウカイ,0
2751,9290002027145,登記記録の閉鎖等,0,2023-08-04,2023-07-21,有限会社エーディーアイ,,有限会社,福岡県,福岡市南区,柳河内２丁目３番４９号,,40,134,8150063,,,2023-07-21,清算の結了等,,,2015-10-05,1,,,,,,0
2787,9420005002420,登記記録の閉鎖等,0,2023-08-04,2023-07-25,特定非営利活動法人国際ボランティアセンター青森,,その他の設立登記法人,青森県,青森市,大字大野字若宮１５９番地２０サンシャインプラザ大野１０１号,,02,201,0300852,,,2023-07-25,清算の結了等,,,2015-10-05,1,,,,,コクサイボランティアセンターアオモリ,0
