sequenceNumber,corporateNumber,process,correct,updateDate,changeDate,name,nameImageId,kind,prefectureName,cityName,streetNumber,addressImageId,prefectureCode,cityCode,postCode,addressOutside,addressOutsideImageId,closeDate,closeCause,successorCorporateNumber,changeCause,assignmentDate,latest,enName,enPrefectureName,enCityName,enAddressOutside,furigana,hihyoji
24,1011001032856,登記記録の閉鎖等,0,2022-04-04,2022-03-31,株式会社ウルトラ・モダン・イクウイップメント,,株式会社,東京都,渋谷区,大山町１７番２５号,,13,113,1510065,,,2022-03-31,清算の結了等,,,2015-10-05,1,,,,,ウルトラモダンイクウイップメント,0
44,1012701011728,登記記録の閉鎖等,0,2022-04-04,2022-04-01,Ｋ　Ｅｎｇｉｎｅｅｒｉｎｇ株式会社,,株式会社,東京都,西東京市,栄町１丁目１番２８号,,13,229,2020006,,,2022-04-01,清算の結了等,,,2015-10-05,1,,,,,ケーエンジニアリング,0
50,1020003006405,登記記録の閉鎖等,0,2022-04-04,2022-03-31,ＫＬメディカル・エージェンシー合同会社,,合同会社,神奈川県,川崎市麻生区,高石１丁目２５番２２号ヴァンヴェール百合ヶ丘４,,14,137,2150003,,,2022-03-31,清算の結了等,,,2015-10-05,1,,,,,ケイエルメディカルエージェンシー,0
56,1021002049056,登記記録の閉鎖等,0,2022-04-04,2022-03-30,有限会社シザーズビッグバン,,有限会社,神奈川県,海老名市,さつき町１番地（８－７０３）,,14,215,2430421,,,2022-03-30,清算の結了等,,,2015-10-05,1,,,,,シザーズビッグバン,0
67,1040003017375,登記記録の閉鎖等,0,2022-04-04,2022-03-28,合同会社ＩＧＰＲ,,合同会社,千葉県,流山市,大字木５０５番地（木Ｂ６７街区１）７０５,,12,220,2700162,,,2022-03-28,清算の結了等,,,2021-04-05,1,,,,,アイジーピーアール,0
73,1060002015279,登記記録の閉鎖等,0,2022-04-04,2022-03-30,有限会社美容室マコ,,有限会社,栃木県,日光市,森友１３１８番地５,,09,206,3212335,,,2022-03-30,清算の結了等,,,2015-10-05,1,,,,,ビヨウシツマコ,0
74,1060002017498,登記記録の閉鎖等,0,2022-04-04,2022-03-29,有限会社仲野商事,,有限会社,栃木県,真岡市,並木町２丁目１７番地４,,09,209,3214361,,,2022-03-29,清算の結了等,,,2015-10-05,1,,,,,ナカノショウジ,0
126,1180001078810,登記記録の閉鎖等,0,2022-04-04,2022-03-30,壽産業株式会社,,株式会社,愛知県,瀬戸市,神川町１３番地の８,,23,204,4890933,,,2022-03-30,清算の結了等,,,2015-10-05,1,,,,,コトブキサンギョウ,0
133,1180002082555,登記記録の閉鎖等,0,2022-04-04,2022-03-30,有限会社水越ホーム,,有限会社,愛知県,岩倉市,稲荷町４３番地,,23,228,4820012,,,2022-03-30,清算の結了等,,,2015-10-05,1,,,,,ミズコシホーム,0
134,1180003015869,登記記録の閉鎖等,0,2022-04-04,2022-03-31,合同会社ＬＯＴＵＳ,,合同会社,愛知県,名古屋市中村区,栄生町１６番７号,,23,105,4530033,,,2022-03-31,清算の結了等,,,2015-10-05,1,,,,,ロータス,0
138,1180302008680,登記記録の閉鎖等,0,2022-04-04,2022-03-31,有限会社年伸工務店,,有限会社,愛知県,豊橋市,東幸町字長山３３番地の２,,23,201,4400843,,,2022-03-31,清算の結了等,,,2015-10-05,1,,,,,トシノブコウムテン,0
149,1240001040359,登記記録の閉鎖等,0,2022-04-04,2022-04-01,アーバンクリエイト株式会社,,株式会社,広島県,広島市中区,榎町１番５号,,34,101,7300851,,,2022-04-01,清算の結了等,,,2015-10-05,1,,,,,アーバンクリエイト,0
161,1290001015356,登記記録の閉鎖等,0,2022-04-04,2022-04-01,株式会社西日本新聞印刷,,株式会社,福岡県,福岡市博多区,吉塚８丁目２番１５号,,40,132,8120041,,,2022-04-01,合併による解散等,7290001092877,令和４年４月１日福岡市博多区井相田二丁目１番６０号株式会社西日本新聞プロダクツ（7290001092877）に合併し解散,2015-10-05,1,,,,,ニシニホンシンブンインサツ,0
175,1330001003224,登記記録の閉鎖等,0,2022-04-04,2022-03-30,東和ウインド株式会社,,株式会社,熊本県,熊本市中央区,本山町２８８番地１,,43,101,8600822,,,2022-03-30,清算の結了等,,,2015-10-05,1,,,,,トウワウインド,0
178,1340002003255,登記記録の閉鎖等,0,2022-04-04,2022-03-31,有限会社京屋友の会,,有限会社,鹿児島県,鹿児島市,中央町２２番地１６,,46,201,8900053,,,2022-03-31,清算の結了等,,,2015-10-05,1,,,,,キョウヤトモノカイ,0
190,1380001006115,登記記録の閉鎖等,0,2022-04-04,2022-03-31,株式会社日伸,,株式会社,福島県,郡山市,香久池１丁目６番９号,,07,203,9638833,,,2022-03-31,清算の結了等,,,2015-10-05,1,,,,,ニッシン,0
195,1380002002055,登記記録の閉鎖等,0,2022-04-04,2022-03-31,有限会社ダイニチ,,有限会社,福島県,福島市,立子山字坂ノ下９番地の１,,07,201,9601321,,,2022-03-31,清算の結了等,,,2015-10-05,1,,,,,,0
213,2010005026764,登記記録の閉鎖等,0,2022-04-04,2022-03-30,一般社団法人新生アジア,,その他の設立登記法人,東京都,中央区,日本橋蛎殻町１丁目１９番４号ＥＥビル,,13,102,1030014,,,2022-03-30,清算の結了等,,,2017-04-24,1,,,,,シンセイアジア,0
214,2010401116747,登記記録の閉鎖等,0,2022-04-04,2022-03-31,Ｊアンビション株式会社,,株式会社,東京都,品川区,南品川５丁目１０番２１号佐藤潤方,,13,109,1400004,,,2022-03-31,清算の結了等,,,2015-10-05,1,,,,,ジェイアンビション,0
238,2011002011379,登記記録の閉鎖等,0,2022-04-04,2022-03-31,有限会社ポンテベッキオ,,有限会社,東京都,渋谷区,渋谷２丁目２番１号,,13,113,1500002,,,2022-03-31,清算の結了等,,,2015-10-05,1,,,,,ポンテベッキオ,0
250,2013201012851,登記記録の閉鎖等,0,2022-04-04,2022-03-31,株式会社モコ・プロ,,株式会社,神奈川県,横浜市港北区,師岡町９８３番地４,,14,109,2220002,,,2022-03-31,清算の結了等,,,2015-10-05,1,,,,,モコプロ,0
264,2020002091034,登記記録の閉鎖等,0,2022-04-04,2022-03-30,有限会社八千代商事,,有限会社,神奈川県,川崎市高津区,下作延６丁目２番１３号,,14,134,2130033,,,2022-03-30,清算の結了等,,,2015-10-05,1,,,,,ヤチヨショウジ,0
267,2021001065103,登記記録の閉鎖等,0,2022-04-04,2022-03-25,株式会社インサイト,,株式会社,東京都,渋谷区,恵比寿２丁目２８番１０号３１６９,,13,113,1500013,,,2022-03-25,清算の結了等,,,2018-07-02,1,,,,,インサイト,0
283,2060001014339,登記記録の閉鎖等,0,2022-04-04,2022-03-30,株式会社須賀土地建物,,株式会社,栃木県,小山市,大字下初田１０１１番地,,09,208,3230068,,,2022-03-30,清算の結了等,,,2015-10-05,1,,,,,スガトチタテモノ,0
337,2180001035380,登記記録の閉鎖等,0,2022-04-04,2022-03-30,木曽駒高原宇山カントリークラブ株式会社,,株式会社,愛知県,名古屋市南区,大同町４丁目７番地,,23,112,4570811,,,2022-03-30,清算の結了等,,,2015-10-05,1,,,,,キソコマコウゲンウヤマカントリークラブ,0
338,2180001050719,登記記録の閉鎖等,0,2022-04-04,2022-03-31,ステレコン株式会社,,株式会社,愛知県,名古屋市南区,豊２丁目４１番２１号,,23,112,4570863,,,2022-03-31,清算の結了等,,,2015-10-05,1,,,,,ステレコン,0
342,2180001098997,登記記録の閉鎖等,0,2022-04-04,2022-03-29,株式会社長谷川製作所,,株式会社,愛知県,津島市,葉苅町字南町２０番地,,23,208,4960009,,,2022-03-29,清算の結了等,,,2015-10-05,1,,,,,ハセガワセイサクショ,0
348,2180002026619,登記記録の閉鎖等,0,2022-04-04,2022-03-31,有限会社水野研磨,,有限会社,愛知県,名古屋市緑区,六田１丁目３５番地,,23,114,4580036,,,2022-03-31,清算の結了等,,,2015-10-05,1,,,,,ミズノケンマ,0
349,2180002041015,登記記録の閉鎖等,0,2022-04-04,2022-03-31,有限会社竹元工業,,有限会社,愛知県,一宮市,南印田１丁目５番６号,,23,203,4910881,,,2022-03-31,清算の結了等,,,2015-10-05,1,,,,,タケモトコウギョウ,0
352,2180003014853,登記記録の閉鎖等,0,2022-04-04,2022-03-31,合同会社ティンクル,,合同会社,愛知県,名古屋市守山区,森孝１丁目１７１１番地サカイビルＦａｃｅ－Ｍ５－Ａ号,,23,113,4630035,,,2022-03-31,清算の結了等,,,2015-10-05,1,,,,,ティンクル,0
355,2200001023993,登記記録の閉鎖等,0,2022-04-04,2022-04-01,株式会社ビヨーブライト,,株式会社,岐阜県,恵那市,山岡町原１５３２番地の８,,21,210,5097605,,,2022-04-01,合併による解散等,5200001021920,令和４年４月１日岐阜県瑞浪市寺河戸町７１９番地美濃窯業株式会社（5200001021920）に合併し解散,2015-10-05,1,,,,,ビヨーブライト,0
356,2200001026831,登記記録の閉鎖等,0,2022-04-04,2022-03-31,株式会社アカツカ薬局,,株式会社,岐阜県,岐阜市,向加野２丁目１６番５号,,21,201,5013109,,,2022-03-31,清算の結了等,,,2015-10-05,1,,,,,アカツカヤッキョク,0
366,2240002009724,登記記録の閉鎖等,0,2022-04-04,2022-04-01,有限会社高橋時計店,,有限会社,広島県,広島市安佐南区,長束５丁目３３番１４号,,34,105,7310135,,,2022-04-01,清算の結了等,,,2015-10-05,1,,,,,タカハシトケイテン,0
367,2240002044416,登記記録の閉鎖等,0,2022-04-04,2022-03-31,有限会社アトレ,,有限会社,広島県,福山市,元町１５番２３号,,34,207,7200063,,,2022-03-31,清算の結了等,,,2015-10-05,1,,,,,アトレ,0
384,2290001069293,登記記録の閉鎖等,0,2022-04-04,2022-04-01,株式会社ぐらんざ,,株式会社,福岡県,福岡市中央区,天神１丁目４番１号,,40,133,8100001,,,2022-04-01,合併による解散等,7290001092877,令和４年４月１日福岡市博多区井相田二丁目１番６０号株式会社西日本新聞プロダクツ（7290001092877）に合併し解散,2015-10-05,1,,,,,グランザ,0
395,2340002021066,登記記録の閉鎖等,0,2022-04-04,2022-03-31,株式会社津畑商会,,株式会社,鹿児島県,奄美市,名瀬伊津部町２１番２７号,,46,222,8940021,,,2022-03-31,合併による解散等,8340001010650,令和４年３月３１日鹿児島県奄美市名瀬伊津部町２１番２７号株式会社津畑商事（8340001010650）に合併し解散,2015-10-05,1,,,,,ツハタショウカイ,0
410,2420001008543,登記記録の閉鎖等,0,2022-04-04,2022-03-28,株式会社脇川商事,,株式会社,青森県,西津軽郡深浦町,大字北金ケ沢字塩見形２番地１０,,02,323,0382504,,,2022-03-28,合併による解散等,3420001008542,令和４年２月２８日青森県西津軽郡深浦町大字北金ヶ沢字塩見形２番地１０号株式会社脇川建設工業所（3420001008542）に合併し解散,2015-10-05,1,,,,,ワキカワショウジ,0
458,3011001118182,登記記録の閉鎖等,0,2022-04-04,2022-03-31,株式会社ＨＳ　ｃｏｍｐａｎｙ,,株式会社,東京都,目黒区,下目黒１丁目２番２２号Ｂ１Ｆ,,13,110,1530064,,,2022-03-31,清算の結了等,,,2017-09-07,1,,,,,,0
462,3011003006311,登記記録の閉鎖等,0,2022-04-04,2022-03-24,ＬＩＦＥＳＴ合同会社,,合同会社,東京都,渋谷区,渋谷３丁目１－９ＹＡＺＡＷＡビルＵＣＦ３Ｆ,,13,113,1500002,,,2022-03-24,清算の結了等,,,2015-10-19,1,,,,,ライフェスト,0
479,3012701008631,登記記録の閉鎖等,0,2022-04-04,2022-03-31,株式会社クローバーフォー,,株式会社,東京都,西東京市,ひばりが丘１丁目１０番１５号,,13,229,2020001,,,2022-03-31,清算の結了等,,,2015-10-05,1,,,,,クローバーフォー,0
485,3013101005459,登記記録の閉鎖等,0,2022-04-04,2022-03-31,株式会社緑心,,株式会社,東京都,羽村市,羽東１丁目１１番１３号,,13,227,2050014,,,2022-03-31,清算の結了等,,,2015-10-05,1,,,,,リョクシン,0
499,3021002005610,登記記録の閉鎖等,0,2022-04-04,2022-03-30,有限会社ピリカラ亭,,有限会社,神奈川県,藤沢市,片瀬３丁目１７番２５号,,14,205,2510032,,,2022-03-30,清算の結了等,,,2015-10-05,1,,,,,ピリカラテイ,0
512,3040001083260,登記記録の閉鎖等,0,2022-04-04,2022-03-28,株式会社佐藤建築板金,,株式会社,千葉県,野田市,吉春５２９番地の３,,12,208,2780042,,,2022-03-28,清算の結了等,,,2015-10-05,1,,,,,サトウケンチクバンキン,0
552,3120101035582,登記記録の閉鎖等,0,2022-04-04,2022-03-24,株式会社リフォームの匠,,株式会社,大阪府,南河内郡千早赤阪村,大字森屋７０３番地８５,,27,383,5850044,,,2022-03-24,清算の結了等,,,2015-10-05,1,,,,,リフォームノタクミ,0
570,3180001037938,登記記録の閉鎖等,0,2022-04-04,2022-04-01,株式会社中日エージエンシー,,株式会社,愛知県,名古屋市中区,丸の内１丁目３番１０号,,23,106,4600002,,,2022-04-01,合併による解散等,7180001037942,令和４年４月１日名古屋市中区三の丸一丁目６番１号（中日新聞社内）株式会社中日アド企画（7180001037942）に合併し解散,2015-10-05,1,,,,,チュウニチエージエンシー,0
580,3180301016674,登記記録の閉鎖等,0,2022-04-04,2022-03-30,株式会社ホワード,,株式会社,愛知県,安城市,住吉町６丁目１番地２,,23,212,4460072,,,2022-03-30,清算の結了等,,,2015-10-05,1,,,,,ホワード,0
582,3200001021922,登記記録の閉鎖等,0,2022-04-04,2022-04-01,ミノセラミックス商事株式会社,,株式会社,岐阜県,瑞浪市,寺河戸町８６８番地,,21,208,5096121,,,2022-04-01,合併による解散等,5200001021920,令和４年４月１日岐阜県瑞浪市寺河戸町７１９番地美濃窯業株式会社（5200001021920）に合併し解散,2015-10-05,1,,,,,ミノセラミックスショウジ,0
589,3200002010346,登記記録の閉鎖等,0,2022-04-04,2022-04-01,有限会社アオイ薬局,,有限会社,岐阜県,羽島郡笠松町,田代字天神２５５番地１,,21,303,5016062,,,2022-04-01,合併による解散等,4200001020808,令和４年４月１日岐阜県多治見市高根町四丁目２９番地中部薬品株式会社（4200001020808）に合併し解散,2015-10-05,1,,,,,アオイヤッキョク,0
591,3220002014601,登記記録の閉鎖等,0,2022-04-04,2022-03-31,有限会社山惠,,有限会社,石川県,鹿島郡中能登町,羽坂弐部６５番地,,17,407,9291714,,,2022-03-31,清算の結了等,,,2015-10-05,1,,,,,ヤマケイ,0
601,3250005001949,登記記録の閉鎖等,0,2022-04-04,2022-03-28,潮彩市場ほうふ振興事業協同組合,,その他の設立登記法人,山口県,防府市,新築地町２番３号,,35,206,7470824,,,2022-03-28,清算の結了等,,,2015-10-05,1,,,,,シオサイイチバホウフシンコウ,0
607,3290001021716,登記記録の閉鎖等,0,2022-04-04,2022-04-01,株式会社西日本新聞トップクリエ,,株式会社,福岡県,福岡市中央区,天神１丁目４番１号,,40,133,8100001,,,2022-04-01,合併による解散等,7290001092877,令和４年４月１日福岡市博多区井相田二丁目１番６０号株式会社西日本新聞プロダクツ（7290001092877）に合併し解散,2015-10-05,1,,,,,ニシニッポンシンブントップクリエ,0
608,3290001023002,登記記録の閉鎖等,0,2022-04-04,2022-04-01,株式会社西日本新聞福岡販売,,株式会社,福岡県,福岡市中央区,天神１丁目４番１号,,40,133,8100001,,,2022-04-01,合併による解散等,7290001092877,令和４年４月１日福岡市博多区井相田二丁目１番６０号株式会社西日本新聞プロダクツ（7290001092877）に合併し解散,2015-10-05,1,,,,,ニシニッポンシンブンフクオカハンバイ,0
629,3330001017387,登記記録の閉鎖等,0,2022-04-04,2022-03-30,アイ・エム株式会社,,株式会社,熊本県,菊池市,泗水町永２６１５番地６８,,43,210,8611204,,,2022-03-30,清算の結了等,,,2015-10-05,1,,,,,アイエム,0
633,3350001008005,登記記録の閉鎖等,0,2022-04-04,2022-03-31,株式会社サンエー,,株式会社,宮崎県,都城市,南横市町８３９４番地３,,45,202,8850092,,,2022-03-31,清算の結了等,,,2015-10-05,1,,,,,サンエー,0
678,4011001052744,登記記録の閉鎖等,0,2022-04-04,2022-03-31,株式会社テス・ビー・シー,,株式会社,東京都,渋谷区,道玄坂１丁目１５番３号,,13,113,1500043,,,2022-03-31,清算の結了等,,,2015-10-05,1,,,,,テスビーシー,0
704,4013401001545,登記記録の閉鎖等,0,2022-04-04,2022-03-30,フード・トラスト株式会社,,株式会社,東京都,多摩市,永山７丁目２番地１,,13,224,2060025,,,2022-03-30,清算の結了等,,,2015-10-05,1,,,,,フードトラスト,0
706,4020001067413,登記記録の閉鎖等,0,2022-04-04,2022-03-30,岩佐電機株式会社,,株式会社,神奈川県,川崎市宮前区,馬絹２丁目２番２５号,,14,136,2160035,,,2022-03-30,清算の結了等,,,2015-10-05,1,,,,,イワサデンキ,0
710,4020002104925,登記記録の閉鎖等,0,2022-04-04,2022-03-31,有限会社ケイエスアイ,,有限会社,神奈川県,川崎市川崎区,藤崎３丁目６番２１－７０１号エンゼルブレッサ藤崎,,14,131,2100804,,,2022-03-31,清算の結了等,,,2015-10-05,1,,,,,ケイエスアイ,0
720,4030001105139,登記記録の閉鎖等,0,2022-04-04,2022-03-30,株式会社Ｍ＆Ｋ,,株式会社,埼玉県,上尾市,柏座４丁目１０番１３－３号,,11,219,3620075,,,2022-03-30,清算の結了等,,,2015-10-05,1,,,,,エムアンドケー,0
733,4040003014816,登記記録の閉鎖等,0,2022-04-04,2022-03-29,合同会社海容ジャパン,,合同会社,千葉県,千葉市花見川区,宮野木台４丁目３番４号,,12,102,2620015,,,2022-03-29,清算の結了等,,,2020-02-07,1,,,,,カイヨウジャパン,0
748,4120001033958,登記記録の閉鎖等,0,2022-04-04,2022-03-29,ゆたか商事株式会社,,株式会社,大阪府,大阪市平野区,背戸口４丁目５番１７号,,27,126,5470034,,,2022-03-29,清算の結了等,,,2015-10-05,1,,,,,ユタカショウジ,0
762,4122001019598,登記記録の閉鎖等,0,2022-04-04,2022-03-31,株式会社ジャストマテリアル,,株式会社,大阪府,八尾市,楽音寺１丁目１４番地,,27,212,5810853,,,2022-03-31,清算の結了等,,,2015-10-05,1,,,,,ジャストマテリアル,0
767,4130003000732,登記記録の閉鎖等,0,2022-04-04,2022-04-01,合資会社平島商店,,合資会社,京都府,京都市下京区,西七条北月読町８１番地,,26,106,6008886,,,2022-04-01,清算の結了等,,,2015-10-05,1,,,,,ヒラシマショウテン,0
772,4140002011845,登記記録の閉鎖等,0,2022-04-04,2022-03-31,有限会社ナイスプラン,,有限会社,兵庫県,神戸市兵庫区,福原町２番６号,,28,105,6520036,,,2022-03-31,清算の結了等,,,2015-10-05,1,,,,,ナイスプラン,0
811,4290001003184,登記記録の閉鎖等,0,2022-04-04,2022-03-31,株式会社サニツクスカンパニイ,,株式会社,福岡県,福岡市東区,筥松１丁目１番１２号,,40,131,8120061,,,2022-03-31,清算の結了等,,,2015-10-05,1,,,,,サニツクスカンパニイ,0
880,5011402017519,登記記録の閉鎖等,0,2022-04-04,2022-03-30,有限会社松風,,有限会社,東京都,板橋区,板橋１丁目４５番７号,,13,119,1730004,,,2022-03-30,清算の結了等,,,2015-10-05,1,,,,,マツカゼ,0
888,5012701003226,登記記録の閉鎖等,0,2022-04-04,2022-03-31,株式会社ユーワ,,株式会社,東京都,西東京市,ひばりが丘１丁目１０番１５号,,13,229,2020001,,,2022-03-31,清算の結了等,,,2015-10-05,1,,,,,ユーワ,0
895,5013301030354,登記記録の閉鎖等,0,2022-04-04,2022-03-28,株式会社イー・アール・エス,,株式会社,東京都,豊島区,巣鴨４丁目２２番１１号,,13,116,1700002,,,2022-03-28,清算の結了等,,,2015-10-05,1,,,,,イーアールエス,0
915,5021002060249,登記記録の閉鎖等,0,2022-04-04,2022-03-30,有限会社龍元堂,,有限会社,神奈川県,平塚市,宝町１１番３号,,14,203,2540034,,,2022-03-30,清算の結了等,,,2015-10-05,1,,,,,リュウゲンドウ,0
929,5040005017898,登記記録の閉鎖等,0,2022-04-04,2022-03-29,一般社団法人ＢＡＳＵＣＯ,,その他の設立登記法人,千葉県,千葉市緑区,あすみが丘８丁目４６番地８,,12,105,2670066,,,2022-03-29,清算の結了等,,,2015-10-05,1,,,,,バスコ,0
942,5100005009071,登記記録の閉鎖等,0,2022-04-04,2022-03-31,清音寺,,その他の設立登記法人,長野県,上伊那郡中川村,片桐４９６番地,,20,386,3993802,,,2022-03-31,清算の結了等,,,2015-10-05,1,,,,,セイオンジ,0
944,5120001051645,登記記録の閉鎖等,0,2022-04-04,2022-03-31,クレハ産業株式会社,,株式会社,大阪府,吹田市,千里山西１丁目１６番５－５０５号,,27,205,5650851,,,2022-03-31,清算の結了等,,,2015-10-05,1,,,,,クレハサンギョウ,0
1011,5250001017609,登記記録の閉鎖等,0,2022-04-04,2022-03-29,株式会社クラリス,,株式会社,山口県,防府市,戎町１丁目８番２４号,,35,206,7470036,,,2022-03-29,清算の結了等,,,2019-03-22,1,,,,,クラリス,0
1018,5290001009387,登記記録の閉鎖等,0,2022-04-04,2022-04-01,株式会社西日本新聞エス・ピーセンター,,株式会社,福岡県,福岡市中央区,天神１丁目４番１号,,40,133,8100001,,,2022-04-01,合併による解散等,7290001092877,令和４年４月１日福岡市博多区井相田二丁目１番６０号株式会社西日本新聞プロダクツ（7290001092877）に合併し解散,2015-10-05,1,,,,,ニシニホンシンブンエスピーセンター,0
1033,5350002001650,登記記録の閉鎖等,0,2022-04-04,2022-03-31,有限会社高妻修進堂,,有限会社,宮崎県,宮崎市,宮田町１０番１５号,,45,201,8800804,,,2022-03-31,清算の結了等,,,2015-10-05,1,,,,,コウヅマシュウシンドウ,0
1036,5350002015080,登記記録の閉鎖等,0,2022-04-04,2022-03-31,有限会社都城ハイレインズ,,有限会社,宮崎県,都城市,安久町５２２３番地１,,45,202,8850044,,,2022-03-31,清算の結了等,,,2015-10-05,1,,,,,ミヤコノジョウハイレインズ,0
1070,6010001036350,登記記録の閉鎖等,0,2022-04-04,2022-04-01,みずほトラスト保証株式会社,,株式会社,東京都,千代田区,神田錦町３丁目１３番地,,13,101,1010054,,,2022-04-01,合併による解散等,3010001055403,令和４年４月１日東京都千代田区神田錦町三丁目１３番地みずほ信用保証株式会社（3010001055403）に合併し解散,2015-10-05,1,,,,,ミズホトラストホショウ,0
1072,6010005006110,登記記録の閉鎖等,0,2022-04-04,2022-03-28,特定非営利活動法人フェア・レーティング,,その他の設立登記法人,東京都,港区,元赤坂１丁目５－２０ロイヤル赤坂サルーン７０９号室森田アソシエイツ内,,13,103,1070051,,,2022-03-28,清算の結了等,,,2015-10-05,1,,,,,フェアレーティング,0
1075,6010403013204,登記記録の閉鎖等,0,2022-04-04,2022-03-30,合同会社コンチェルト,,合同会社,東京都,港区,六本木５丁目１３番２８号,,13,103,1060032,,,2022-03-30,合併による解散等,3010003023374,令和４年３月２４日東京都千代田区霞が関三丁目２番５号霞が関ビルディング３１階クラレットインベストメント合同会社（3010003023374）に合併し解散,2015-10-05,1,,,,,コンチェルト,0
1088,6011101018206,登記記録の閉鎖等,0,2022-04-04,2022-03-10,株式会社ヒロアートディレクションズ,,株式会社,東京都,新宿区,高田馬場１丁目３１番８号,,13,104,1690075,,,2022-03-10,清算の結了等,,,2015-10-05,1,,,,,ヒロアートディレクションズ,0
1089,6011101057518,登記記録の閉鎖等,0,2022-04-04,2022-03-25,株式会社エヌ・シー・エス・コミュニケーションズ,,株式会社,東京都,新宿区,西新宿８丁目１１番１０号,,13,104,1600023,,,2022-03-25,清算の結了等,,,2015-10-05,1,,,,,エヌシーエスコミュニケーションズ,0
1102,6011505001798,登記記録の閉鎖等,0,2022-04-04,2022-03-28,特定非営利活動法人国際文化交流礼儀研究会,,その他の設立登記法人,東京都,北区,志茂４丁目４番５号,,13,117,1150042,,,2022-03-28,清算の結了等,,,2015-10-05,1,,,,,コクサイブンカコウリュウレイギケンキュウカイ,0
1105,6011702015477,登記記録の閉鎖等,0,2022-04-04,2022-04-01,有限会社システムアセット,,有限会社,東京都,江戸川区,東葛西１丁目２８番１７号,,13,123,1340084,,,2022-04-01,清算の結了等,,,2015-10-05,1,,,,,システムアセット,0
1124,6021002044572,登記記録の閉鎖等,0,2022-04-04,2022-03-31,有限会社池谷倉庫,,有限会社,神奈川県,海老名市,門沢橋５丁目１３番１号,,14,215,2430426,,,2022-03-31,清算の結了等,,,2015-10-05,1,,,,,イケヤソウコ,0
1135,6040002024079,登記記録の閉鎖等,0,2022-04-04,2022-03-28,有限会社トマトホーム,,有限会社,千葉県,船橋市,大穴南５丁目２３番２号,,12,204,2740067,,,2022-03-28,清算の結了等,,,2015-10-05,1,,,,,トマトホーム,0
1151,6080002009159,登記記録の閉鎖等,0,2022-04-04,2022-04-01,有限会社イシックス,,有限会社,静岡県,静岡市清水区,草薙１丁目２３番１９号,,22,103,4240886,,,2022-04-01,清算の結了等,,,2015-10-05,1,,,,,イシックス,0
1172,6120901033056,登記記録の閉鎖等,0,2022-04-04,2022-03-31,ＮＥＯ企画株式会社,,株式会社,大阪府,摂津市,鳥飼銘木町１３番１４号,,27,224,5660063,,,2022-03-31,清算の結了等,,,2015-10-05,1,,,,,ネオキカク,0
1194,6180002009116,登記記録の閉鎖等,0,2022-04-04,2022-03-31,有限会社浅野商事,,有限会社,愛知県,名古屋市瑞穂区,白砂町４丁目１３０番地,,23,108,4670056,,,2022-03-31,清算の結了等,,,2015-10-05,1,,,,,アサノショウジ,0
1195,6180002053428,登記記録の閉鎖等,0,2022-04-04,2022-03-31,シナ商事有限会社,,有限会社,愛知県,名古屋市瑞穂区,十六町２丁目１番１号,,23,108,4670015,,,2022-03-31,清算の結了等,,,2015-10-05,1,,,,,シナショウジ,0
1197,6180002090652,登記記録の閉鎖等,0,2022-04-04,2022-03-30,有限会社堀田板金工業,,有限会社,愛知県,愛西市,雀ケ森町大縄場１５６１番地の１,,23,232,4960941,,,2022-03-30,清算の結了等,,,2015-10-05,1,,,,,ホッタバンキンコウギョウ,0
1224,6290001070330,登記記録の閉鎖等,0,2022-04-04,2022-03-31,株式会社逸品百彩,,株式会社,福岡県,福岡市早良区,百道浜２丁目３番２号,,40,137,8140001,,,2022-03-31,合併による解散等,1290001005365,令和４年３月３１日福岡市早良区百道一丁目５番１号株式会社大明物産（1290001005365）に合併し解散,2015-10-05,1,,,,,イッピンヒャクサイ,0
1235,6350001009644,登記記録の閉鎖等,0,2022-04-04,2022-03-31,串間ガス住設株式会社,,株式会社,宮崎県,串間市,大字西方４０４８番地２,,45,207,8880001,,,2022-03-31,清算の結了等,,,2015-10-05,1,,,,,クシマガスジュウセツ,0
1238,6370601001049,登記記録の閉鎖等,0,2022-04-04,2022-03-30,株式会社ケア・サービス・ワタナベ,,株式会社,宮城県,多賀城市,鶴ケ谷２丁目３７番５号,,04,209,9850841,,,2022-03-30,清算の結了等,,,2015-10-05,1,,,,,ケアサービスワタナベ,0
1282,7011101075543,登記記録の閉鎖等,0,2022-04-04,2022-03-30,メトロネット株式会社,,株式会社,東京都,新宿区,高田馬場３丁目１番５号サンパティオ２１０号室,,13,104,1690075,,,2022-03-30,清算の結了等,,,2015-12-25,1,,,,,メトロネット,0
1336,7080001002337,登記記録の閉鎖等,0,2022-04-04,2022-04-01,株式会社スタッフバンク,,株式会社,静岡県,静岡市葵区,追手町１０番２０１号,,22,101,4200853,,,2022-04-01,清算の結了等,,,2015-10-05,1,,,,,スタッフバンク,0
1349,7120001102859,登記記録の閉鎖等,0,2022-04-04,2022-03-30,株式会社泰昌,,株式会社,大阪府,大阪市淀川区,西中島６丁目１０番１７号,,27,123,5320011,,,2022-03-30,清算の結了等,,,2015-10-05,1,,,,,タイショウ,0
1351,7120001209654,登記記録の閉鎖等,0,2022-04-04,2022-03-31,ＢＯＮＡＲＭＡ株式会社,,株式会社,大阪府,大阪市中央区,本町４丁目５番１５号,,27,128,5410053,,,2022-03-31,清算の結了等,,,2017-11-22,1,,,,,ボナルマ,0
1368,7130002031503,登記記録の閉鎖等,0,2022-04-04,2022-03-30,有限会社秀豊建設,,有限会社,京都府,八幡市,橋本意足８番地３,,26,210,6148331,,,2022-03-30,清算の結了等,,,2015-10-05,1,,,,,,0
1377,7140003004977,登記記録の閉鎖等,0,2022-04-04,2022-03-31,合資会社ＢＭトルース,,合資会社,兵庫県,神戸市東灘区,深江本町３丁目１番３０号,,28,101,6580021,,,2022-03-31,清算の結了等,,,2015-10-05,1,,,,,,0
1391,7180302003008,登記記録の閉鎖等,0,2022-04-04,2022-03-30,有限会社未来板金,,有限会社,愛知県,岡崎市,土井町字藤ノ木甲２８番地１３,,23,202,4440204,,,2022-03-30,清算の結了等,,,2015-10-05,1,,,,,ミキバンキン,0
1393,7190002000881,登記記録の閉鎖等,0,2022-04-04,2022-03-30,有限会社タイメックス,,有限会社,三重県,津市,雲出島貫町１０２５番地,,24,201,5140305,,,2022-03-30,清算の結了等,,,2015-10-05,1,,,,,,0
1413,7260001020023,登記記録の閉鎖等,0,2022-04-04,2022-04-01,土田興産株式会社,,株式会社,岡山県,津山市,一方３３５番地の１,,33,203,7080883,,,2022-04-01,合併による解散等,7260001019841,令和４年４月１日岡山県津山市一方３３５番地１株式会社ツチダ（7260001019841）に合併し解散,2015-10-05,1,,,,,ツチダコウサン,0
1418,7260003003059,登記記録の閉鎖等,0,2022-04-04,2022-04-01,楓合同会社,,合同会社,岡山県,瀬戸内市,邑久町山田庄３７１番地２,,33,212,7014246,,,2022-04-01,清算の結了等,,,2020-01-08,1,,,,,カエデ,0
1469,8010401110348,登記記録の閉鎖等,0,2022-04-04,2022-03-28,株式会社アクセス,,株式会社,東京都,北区,東十条３丁目５番１２号,,13,117,1140001,,,2022-03-28,合併による解散等,1011501011442,令和４年３月２７日東京都北区東十条三丁目５番１２号アクセス建設株式会社（1011501011442）に合併し解散,2015-10-05,1,,,,,アクセス,0
1470,8010401124125,登記記録の閉鎖等,0,2022-04-04,2022-03-25,株式会社Ｒ－ファンド３号,,株式会社,東京都,港区,港南２丁目１５番３号,,13,103,1080075,,,2022-03-25,清算の結了等,,,2016-04-12,1,,,,,アールファンドサンゴウ,0
1481,8010802005576,登記記録の閉鎖等,0,2022-04-04,2022-03-25,有限会社駒木精機,,有限会社,東京都,大田区,大森南２丁目５番１０号,,13,111,1430013,,,2022-03-25,清算の結了等,,,2015-10-05,1,,,,,コマキセイキ,0
1489,8011402000612,登記記録の閉鎖等,0,2022-04-04,2022-03-30,有限会社新井製作所,,有限会社,東京都,板橋区,本町１番１号,,13,119,1730001,,,2022-03-30,清算の結了等,,,2015-10-05,1,,,,,アライセイサクジョ,0
1506,8021001006191,登記記録の閉鎖等,0,2022-04-04,2022-03-29,株式会社エキサイティングテーブル,,株式会社,神奈川県,藤沢市,辻堂太平台１丁目１番７号,,14,205,2510044,,,2022-03-29,清算の結了等,,,2015-10-05,1,,,,,エキサイティングテーブル,0
1532,8080001018233,登記記録の閉鎖等,0,2022-04-04,2022-03-31,株式会社ＴＲＩＮＩＴＹ,,株式会社,静岡県,静岡市葵区,呉服町１丁目２０番１８０６号,,22,101,4200031,,,2022-03-31,清算の結了等,,,2015-10-05,1,,,,,トリニティー,0
1536,8080101012318,登記記録の閉鎖等,0,2022-04-04,2022-03-31,株式会社エフエスケー,,株式会社,静岡県,富士宮市,羽鮒２３０７番地の１,,22,207,4190316,,,2022-03-31,清算の結了等,,,2015-10-05,1,,,,,エフエスケー,0
1559,8120003019646,登記記録の閉鎖等,0,2022-04-04,2022-03-29,合同会社Ａｇｕｒａｍｉｕ,,合同会社,大阪府,大阪市中央区,本町２丁目３番４号アソルティ本町４階,,27,128,5410053,,,2022-03-29,清算の結了等,,,2021-06-17,1,,,,,アグラミウ,0
1571,8140001039883,登記記録の閉鎖等,0,2022-04-04,2022-03-30,ニッシン工業株式会社,,株式会社,兵庫県,たつの市,揖保町揖保中３２１番地１,,28,229,6794155,,,2022-03-30,合併による解散等,4040001007227,令和４年３月２２日千葉市中央区今井一丁目４番１６号三喜工業株式会社（4040001007227）に合併し解散,2015-10-05,1,,,,,ニッシンコウギョウ,0
1577,8140003000091,登記記録の閉鎖等,0,2022-04-04,2022-04-01,川喜多地所株式会社,,株式会社,兵庫県,神戸市中央区,山本通５丁目１番５号,,28,110,6500003,,,2022-04-01,合併による解散等,8140001005737,令和４年４月１日神戸市中央区山本通五丁目１番５号アイ・ケイ殖産株式会社（8140001005737）に合併し解散,2015-10-05,1,,,,,カワキタジショ,0
1591,8180302002850,登記記録の閉鎖等,0,2022-04-04,2022-03-31,有限会社丸中工業,,有限会社,愛知県,岡崎市,稲熊町字赤松１番地４１,,23,202,4440071,,,2022-03-31,清算の結了等,,,2015-10-05,1,,,,,マルナカコウギョウ,0
1595,8200002002660,登記記録の閉鎖等,0,2022-04-04,2022-03-31,有限会社ダイケイ薬局,,有限会社,岐阜県,岐阜市,向加野２丁目１６番５号,,21,201,5013109,,,2022-03-31,清算の結了等,,,2015-10-05,1,,,,,ダイケイヤッキョク,0
1619,8290001033616,登記記録の閉鎖等,0,2022-04-04,2022-04-01,株式会社ＴＥＲＡＳＯ,,株式会社,福岡県,福岡市博多区,博多駅東２丁目７番２７号,,40,132,8120013,,,2022-04-01,合併による解散等,1290001014052,令和４年４月１日福岡市博多区千代一丁目１７番１号西部ガス都市開発株式会社（1290001014052）に合併し解散,2015-10-05,1,,,,,テラソ,0
1637,8310002012401,登記記録の閉鎖等,0,2022-04-04,2022-03-30,有限会社生峰陶苑,00096033,有限会社,長崎県,東彼杵郡波佐見町,三股郷２５０番地,,42,323,8593706,,,2022-03-30,清算の結了等,,,2015-10-05,1,,,,,セイホウトウエン,0
1662,8380005009776,登記記録の閉鎖等,0,2022-04-04,2022-03-31,南会津地方土地開発公社,,その他の設立登記法人,福島県,南会津郡南会津町,田島字西上川原乙６５番地,,07,368,9670004,,,2022-03-31,清算の結了等,,,2015-10-05,1,,,,,ミナミアイヅチホウ,0
1671,8430001081682,登記記録の閉鎖等,0,2022-04-04,2022-03-31,株式会社リハート,,株式会社,東京都,練馬区,中村２丁目２５－１３,,13,120,1760024,,,2022-03-31,清算の結了等,,,2020-06-10,1,,,,,リハート,0
1672,8450001008527,登記記録の閉鎖等,0,2022-04-04,2022-03-31,株式会社協電舎,,株式会社,北海道,天塩郡幌延町,三条北１丁目１０番地,,01,520,0983203,,,2022-03-31,清算の結了等,,,2015-10-05,1,,,,,キョウデンシャ,0
1680,8500001018421,登記記録の閉鎖等,0,2022-04-04,2022-03-31,株式会社村上電機商会,,株式会社,愛媛県,今治市,伯方町叶浦甲７２９番地２,,38,202,7942302,,,2022-03-31,清算の結了等,,,2015-10-05,1,,,,,ムラカミデンキショウカイ,0
1710,9011101062804,登記記録の閉鎖等,0,2022-04-04,2022-02-25,株式会社Ｍ・Ｉ,,株式会社,東京都,新宿区,大久保１丁目１番１１号,,13,104,1690072,,,2022-02-25,合併による解散等,2011101083567,令和３年１１月１２日東京都新宿区四谷二丁目４番１号株式会社Ｄ＆ＡＣＥ（2011101083567）に合併し解散,2015-10-05,1,,,,,エムアイ,0
1715,9011301024538,登記記録の閉鎖等,0,2022-04-04,2022-03-30,リアススタジオ株式会社,,株式会社,東京都,杉並区,下井草５丁目２３番１２号,,13,115,1670022,,,2022-03-30,清算の結了等,,,2018-10-16,1,,,,,リアススタジオ,0
1722,9012701008634,登記記録の閉鎖等,0,2022-04-04,2022-03-31,株式会社クイーンズ,,株式会社,東京都,西東京市,ひばりが丘１丁目１０番１５号,,13,229,2020001,,,2022-03-31,清算の結了等,,,2015-10-05,1,,,,,クイーンズ,0
1723,9012702003849,登記記録の閉鎖等,0,2022-04-04,2022-03-31,有限会社アーモシステム販売,,有限会社,東京都,西東京市,ひばりが丘１丁目１０番１５号,,13,229,2020001,,,2022-03-31,清算の結了等,,,2015-10-05,1,,,,,アーモシステムハンバイ,0
1736,9021002056160,登記記録の閉鎖等,0,2022-04-04,2022-03-30,有限会社小沼牧場,,有限会社,神奈川県,足柄上郡中井町,松本６３番地,,14,361,2590155,,,2022-03-30,清算の結了等,,,2015-10-05,1,,,,,,0
1738,9030001128283,登記記録の閉鎖等,0,2022-04-04,2022-03-30,三一極家株式会社,,株式会社,東京都,練馬区,平和台１丁目２３番１９号１－Ｄ号室,,13,120,1790083,,,2022-03-30,清算の結了等,,,2018-11-16,1,,,,,サンイチキョクカ,0
1746,9040002019423,登記記録の閉鎖等,0,2022-04-04,2022-03-28,有限会社アートメッキ,,有限会社,千葉県,習志野市,秋津２丁目１番１－２０４号,,12,216,2750025,,,2022-03-28,清算の結了等,,,2015-10-05,1,,,,,アートメッキ,0
1764,9100002022049,登記記録の閉鎖等,0,2022-04-04,2022-03-31,有限会社ゆい建築設備設計事務所,,有限会社,長野県,松本市,寿北５丁目２８番１１号,,20,202,3990011,,,2022-03-31,清算の結了等,,,2015-10-05,1,,,,,ユイケンチクセツビセッケイジムショ,0
1803,9180001110607,登記記録の閉鎖等,0,2022-04-04,2022-04-01,株式会社ＺＩＰ　ＮＥＸＴ,,株式会社,愛知県,名古屋市中区,丸の内３丁目２０番１７号,,23,106,4600002,,,2022-04-01,合併による解散等,9180001034698,令和４年４月１日名古屋市中区丸の内三丁目２０番１７号株式会社ＺＩＰ－ＦＭ（9180001034698）に合併し解散,2015-10-05,1,,,,,ジップネクスト,0
1824,9260002016605,登記記録の閉鎖等,0,2022-04-04,2022-03-31,有限会社今城エンジニアリング,,有限会社,岡山県,倉敷市,玉島道越６５９番地の５,,33,202,7138114,,,2022-03-31,清算の結了等,,,2015-10-05,1,,,,,イマジョウエンジニアリング,0
1826,9280002005960,登記記録の閉鎖等,0,2022-04-04,2022-03-31,有限会社双葉工作所,,有限会社,島根県,出雲市,大津町２９０－２,,32,203,6930011,,,2022-03-31,清算の結了等,,,2015-10-05,1,,,,,フタバコウサクショ,0
1833,9300002001742,登記記録の閉鎖等,0,2022-04-04,2022-03-31,有限会社松栄電機,,有限会社,佐賀県,佐賀市,久保田町大字徳万２３６３番地の１,,41,201,8490201,,,2022-03-31,清算の結了等,,,2015-10-05,1,,,,,ショウエイデンキ,0
1853,9360002002900,登記記録の閉鎖等,0,2022-04-04,2022-03-29,有限会社テイ・ケイ・シ沖縄計算センター,,有限会社,沖縄県,那覇市,久米１丁目２１番１１号,,47,201,9000033,,,2022-03-29,清算の結了等,,,2015-10-05,1,,,,,,0
1858,9380001005357,登記記録の閉鎖等,0,2022-04-04,2022-03-30,株式会社サン・ホーム岡部,,株式会社,福島県,郡山市,深沢２丁目８番３号,,07,203,9638874,,,2022-03-30,清算の結了等,,,2015-10-05,1,,,,,,0
1865,9400002011780,登記記録の閉鎖等,0,2022-04-04,2022-03-31,有限会社富士印刷所,,有限会社,岩手県,釜石市,大町２丁目４０番３号,,03,211,0260024,,,2022-03-31,合併による解散等,5400001007387,令和４年３月２８日岩手県釜石市大町二丁目４０番３号株式会社東海印刷所（5400001007387）に合併し解散,2015-10-05,1,,,,,フジインサツジョ,0
