sequenceNumber,corporateNumber,process,correct,updateDate,changeDate,name,nameImageId,kind,prefectureName,cityName,streetNumber,addressImageId,prefectureCode,cityCode,postCode,addressOutside,addressOutsideImageId,closeDate,closeCause,successorCorporateNumber,changeCause,assignmentDate,latest,enName,enPrefectureName,enCityName,enAddressOutside,furigana,hihyoji
8,1010001229801,新規,0,2022-10-03,2022-10-03,株式会社麒麟児東京,,株式会社,東京都,千代田区,九段南１丁目５番６号りそな九段ビル５Ｆ、ＫＳフロア,,13,101,1020074,,,,,,,2022-10-03,1,,,,,キリンジトウキョウ,0
9,1010001229850,新規,0,2022-10-03,2022-10-03,株式会社スタイル・ナッツカンパニー,,株式会社,東京都,千代田区,神田富山町９番地神田東邦センタービル６階,,13,101,1010043,,,,,,,2022-10-03,1,,,,,スタイルナッツカンパニー,0
10,1010001229859,新規,0,2022-10-03,2022-10-03,株式会社Ｓｔｕｄｉｏ　Ｍｏｏｎ６,,株式会社,東京都,千代田区,外神田２丁目２番３号,,13,101,1010021,,,,,,,2022-10-03,1,,,,,スタジオムーンシックス,0
11,1010001229875,新規,0,2022-10-03,2022-10-03,Ｘ‐Ｃｌａｓｓ株式会社,,株式会社,東京都,中央区,入船２丁目２番４号,,13,102,1040042,,,,,,,2022-10-03,1,,,,,エクスクラス,0
13,1010003038770,新規,0,2022-10-03,2022-10-03,合同会社オレア,,合同会社,東京都,千代田区,西神田１丁目１番２－２０２号,,13,101,1010065,,,,,,,2022-10-03,1,,,,,オレア,0
14,1010003038795,新規,0,2022-10-03,2022-10-03,阪東橋プロパティー合同会社,,合同会社,東京都,千代田区,丸の内３丁目１番１号東京共同会計事務所内,,13,101,1000005,,,,,,,2022-10-03,1,,,,,バンドウバシプロパティー,0
16,1010101015341,新規,0,2022-10-03,2022-10-03,株式会社ＢＲＵＳＨ,,株式会社,東京都,八王子市,北野町５９７番地２７,,13,201,1920906,,,,,,,2022-10-03,1,,,,,ブラッシュ,0
24,1010401169977,新規,0,2022-10-03,2022-10-03,Ｑｕｉｃｋｗｏｒｋｔｅｃｈ株式会社,,株式会社,東京都,港区,新橋４丁目１番１号新虎通りＣＯＲＥ３Ｆ,,13,103,1050004,,,,,,,2022-10-03,1,,,,,クイックワークテック,0
25,1010401169993,新規,0,2022-10-03,2022-10-03,株式会社ＧＲＯＷＴＨＹ,,株式会社,東京都,港区,南青山５丁目１１－２４グレイセス２Ｆ,,13,103,1070062,,,,,,,2022-10-03,1,,,,,グローシー,0
29,1010501049427,新規,0,2022-10-03,2022-10-03,アロハスマイル株式会社,,株式会社,東京都,台東区,東上野６丁目２４番４号,,13,106,1100015,,,,,,,2022-10-03,1,,,,,アロハスマイル,0
31,1010601061918,新規,0,2022-10-03,2022-10-03,株式会社ＳＮＳ研究所,,株式会社,東京都,墨田区,横川５丁目９番３－４１３号,,13,107,1300003,,,,,,,2022-10-03,1,,,,,エスエヌエスケンキュウジョ,0
32,1010601061934,新規,0,2022-10-03,2022-10-03,Ａｒｔｉｆａｃｔ株式会社,,株式会社,東京都,墨田区,石原４丁目１４番２－２０２号４１４２ａｎｔｉｑｕｅｓ,,13,107,1300011,,,,,,,2022-10-03,1,,,,,アーティファクト,0
34,1010801033304,新規,0,2022-10-03,2022-10-03,株式会社ｓｅａｓｉｄｅ,,株式会社,東京都,大田区,蒲田５丁目８番７号,,13,111,1440052,,,,,,,2022-10-03,1,,,,,シーサイド,0
40,1010803004294,新規,0,2022-10-03,2022-10-03,合同会社サンガナイン,,合同会社,東京都,大田区,西糀谷１丁目１３番２１号サンサーラ蒲田２０５,,13,111,1440034,,,,,,,2022-10-03,1,,,,,サンガナイン,0
41,1010901051701,新規,0,2022-10-03,2022-10-03,株式会社ＡＣＨＲＯＭＡ,,株式会社,東京都,世田谷区,代沢４丁目２４－４ニド代沢２０２,,13,112,1550032,,,,,,,2022-10-03,1,,,,,エクロマ,0
50,1011001150014,新規,0,2022-10-03,2022-10-03,株式会社ＵＰ,,株式会社,東京都,目黒区,五本木１丁目２８番９号フレーズ祐天寺２Ｆ,,13,110,1530053,,,,,,,2022-10-03,1,,,,,アップ,0
51,1011001150047,新規,0,2022-10-03,2022-10-03,株式会社ＲｅＢｏｏｍ,,株式会社,東京都,渋谷区,道玄坂１丁目１０番８号渋谷道玄坂東急ビル２Ｆ－Ｃ,,13,113,1500043,,,,,,,2022-10-03,1,,,,,リブーム,0
54,1011003015454,新規,0,2022-10-03,2022-10-03,合同会社武部,,合同会社,東京都,渋谷区,幡ヶ谷１丁目２９番５号メゾン浅野１０１,,13,113,1510072,,,,,,,2022-10-03,1,,,,,ブブ,0
65,1011701025655,新規,0,2022-10-03,2022-10-03,ＬＯＯＫ株式会社,,株式会社,東京都,江戸川区,中葛西１丁目３１番３－２１０号,,13,123,1340083,,,,,,,2022-10-03,1,,,,,ルック,0
71,1011801041338,新規,0,2022-10-03,2022-10-03,株式会社Ｂｌｕｅ　Ｓｋｙ,,株式会社,東京都,足立区,本木１丁目１番１８号,,13,121,1230853,,,,,,,2022-10-03,1,,,,,ブルースカイ,0
72,1011803005290,新規,0,2022-10-03,2022-10-03,ＹＣ合同会社,,合同会社,東京都,足立区,谷在家３丁目４番１号,,13,121,1230863,,,,,,,2022-10-03,1,,,,,ワイシー,0
73,1012301013141,新規,0,2022-10-03,2022-10-03,株式会社Ｄｕｎａｍｉｓ　Ｉｓｔｏｒｉａ　Ｌｉｎｋ,,株式会社,東京都,町田市,中町３丁目６－３３,,13,209,1940021,,,,,,,2022-10-03,1,,,,,デュナミスイストリアリンク,0
76,1012401039689,新規,0,2022-10-03,2022-10-03,株式会社小酒部,,株式会社,東京都,小金井市,本町５丁目２１番１号,,13,210,1840004,,,,,,,2022-10-03,1,,,,,オサカベ,0
77,1012403005607,新規,0,2022-10-03,2022-10-03,ｅｃｌａｔ合同会社,,合同会社,東京都,調布市,多摩川１丁目８番地１西調布住宅２－８０６,,13,208,1820025,,,,,,,2022-10-03,1,,,,,エクラ,0
82,1012803002889,新規,0,2022-10-03,2022-10-03,合同会社みさりん,,合同会社,東京都,東大和市,清水６丁目１１６４番地の４１,,13,220,2070004,,,,,,,2022-10-03,1,,,,,ミサリン,0
87,1020001148348,新規,0,2022-10-03,2022-10-03,株式会社ＭＡＣＸ,,株式会社,神奈川県,横浜市磯子区,汐見台３丁目２番地２－２０８号,,14,107,2350022,,,,,,,2022-10-03,1,,,,,マクロス,0
88,1020001148356,新規,0,2022-10-03,2022-10-03,株式会社ＳＢＦ,,株式会社,神奈川県,横浜市都筑区,大丸９番１６号,,14,118,2240061,,,,,,,2022-10-03,1,,,,,エスビーエフ,0
89,1020001148364,新規,0,2022-10-03,2022-10-03,ヘイバーグジャパン株式会社,,株式会社,神奈川県,川崎市宮前区,土橋１丁目２５番地１－２０１,,14,136,2160005,,,,,,,2022-10-03,1,,,,,ヘイバーグジャパン,0
92,1021001077074,新規,0,2022-10-03,2022-10-03,株式会社相模堂,,株式会社,神奈川県,相模原市南区,東大沼１丁目２番７５号,,14,153,2520333,,,,,,,2022-10-03,1,,,,,サガミドウ,0
93,1021001077090,新規,0,2022-10-03,2022-10-03,株式会社Ｙ,,株式会社,神奈川県,茅ヶ崎市,緑が浜４番３号,,14,207,2530034,,,,,,,2022-10-03,1,,,,,ワイ,0
96,1021003012186,新規,0,2022-10-03,2022-10-03,ブライトエンタープライズ合同会社,,合同会社,神奈川県,秦野市,鶴巻南４丁目８番Ｏ－１０７号,,14,211,2570002,,,,,,,2022-10-03,1,,,,,ブライトエンタープライズ,0
97,1021005012622,新規,0,2022-10-03,2022-10-03,一般社団法人ライフ＆ワーク,,その他の設立登記法人,神奈川県,逗子市,桜山５丁目２番３号,,14,208,2490005,,,,,,,2022-10-03,1,,,,,ライフアンドワーク,0
101,1030001150303,新規,0,2022-10-03,2022-10-03,ＬＵ株式会社,,株式会社,埼玉県,草加市,谷塚１丁目１番１４号第一並木ビル２０２号,,11,221,3400028,,,,,,,2022-10-03,1,,,,,エルユー,0
102,1030001150344,新規,0,2022-10-03,2022-10-03,株式会社ＡＳＬＡＮ,,株式会社,埼玉県,入間市,小谷田１丁目１４－２７,,11,225,3580026,,,,,,,2022-10-03,1,,,,,アスラン,0
109,1040001125246,新規,0,2022-10-03,2022-10-03,株式会社ウィンドア,,株式会社,千葉県,長生郡長南町,坂本２０４５番地１,,12,427,2970122,,,,,,,2022-10-03,1,,,,,ウィンドア,0
110,1040001125254,新規,0,2022-10-03,2022-10-03,株式会社Ｍａｋａｎａ,,株式会社,千葉県,習志野市,本大久保２丁目１１番２７号,,12,216,2750012,,,,,,,2022-10-03,1,,,,,マカナ,0
112,1040003020940,新規,0,2022-10-03,2022-10-03,合同会社グッドバフ,,合同会社,千葉県,浦安市,猫実２丁目２０番２７－２０７号Ｂｏｎｃｌａｉｒ,,12,227,2790004,,,,,,,2022-10-03,1,,,,,グッドバフ,0
113,1040003020949,新規,0,2022-10-03,2022-10-03,合同会社シュエット,,合同会社,千葉県,習志野市,谷津４丁目４番１６号ペルル谷津駅前１Ｆ,,12,216,2750026,,,,,,,2022-10-03,1,,,,,シュエット,0
116,1050003006897,新規,0,2022-10-03,2022-10-03,合同会社金城工業,,合同会社,茨城県,神栖市,深芝南４丁目８番地９パレ・リヴィエールＩ２０２,00127978,08,232,3140142,,,,,,,2022-10-03,1,,,,,カナシロコウギョウ,0
124,1100003006702,新規,0,2022-10-03,2022-10-03,合同会社５７３,,合同会社,長野県,上田市,神畑１０２５－１－１０４号室,,20,203,3861103,,,,,,,2022-10-03,1,,,,,コナミ,0
152,1120001249169,新規,0,2022-10-03,2022-10-03,株式会社クリエイトホーム,,株式会社,大阪府,大阪市北区,中津７丁目１番１－６０１号,,27,127,5310071,,,,,,,2022-10-03,1,,,,,クリエイトホーム,0
153,1120001249210,新規,0,2022-10-03,2022-10-03,株式会社ｔ‐ｏｎｅ,,株式会社,大阪府,守口市,松月町５番７号,,27,209,5700026,,,,,,,2022-10-03,1,,,,,ティーワン,0
154,1120001249235,新規,0,2022-10-03,2022-10-03,長欣株式会社,,株式会社,大阪府,大阪市西区,南堀江４丁目２４番１０号堀江グリーンハイツ８１０号,,27,106,5500015,,,,,,,2022-10-03,1,,,,,チョウキン,0
165,1130001072735,新規,0,2022-10-03,2022-10-03,株式会社桃のえん,,株式会社,京都府,京都市南区,東九条西明田町７８番地,,26,107,6018045,,,,,,,2022-10-03,1,,,,,モモノエン,0
178,1140001127521,新規,0,2022-10-03,2022-10-03,株式会社ピオン,,株式会社,兵庫県,神戸市西区,伊川谷町有瀬１４１番地の５、１－７０６号,,28,111,6512113,,,,,,,2022-10-03,1,,,,,ピオン,0
183,1140003018181,新規,0,2022-10-03,2022-10-03,ＣＡＭＡＬＥＯＮＴＥ合同会社,,合同会社,兵庫県,神戸市東灘区,御影塚町２丁目２１番２号,,28,101,6580044,,,,,,,2022-10-03,1,,,,,カメレオンテ,0
185,1140005026331,新規,0,2022-10-03,2022-10-03,一般社団法人海と日本プロジェクトｉｎひょうご,,その他の設立登記法人,兵庫県,神戸市中央区,東川崎町１丁目１番１号,,28,110,6500044,,,,,,,2022-10-03,1,,,,,ウミトニッポンプロジェクトインヒョウゴ,0
190,1180001153159,新規,0,2022-10-03,2022-10-03,ＥＬＣＥＥＤ株式会社,,株式会社,愛知県,一宮市,浅井町河田字西之上４７番地,,23,203,4910142,,,,,,,2022-10-03,1,,,,,エルシード,0
191,1180001153183,新規,0,2022-10-03,2022-10-03,株式会社ｎａｎａｉｒｏ,,株式会社,愛知県,海部郡大治町,大字八ツ屋字西田面８４番地の１,,23,424,4901133,,,,,,,2022-10-03,1,,,,,ナナイロ,0
192,1180001153191,新規,0,2022-10-03,2022-10-03,株式会社Ｇｏｌｆ　Ｓｐａｃｅ　Ｅａｇｌｅ,,株式会社,愛知県,名古屋市千種区,今池５丁目３番３号－１ウインズいまいけ広小路１Ｆ,,23,101,4640850,,,,,,,2022-10-03,1,,,,,ゴルフスペースイーグル,0
193,1180001153200,新規,0,2022-10-03,2022-10-03,株式会社ｎｉｃｏ　ｌａｂｏ,,株式会社,愛知県,丹羽郡扶桑町,大字柏森字天神１９７番地,,23,362,4800103,,,,,,,2022-10-03,1,,,,,ニコラボ,0
194,1180003024317,新規,0,2022-10-03,2022-10-03,合同会社Ａｎｕｅｎｕｅ,,合同会社,愛知県,尾張旭市,北原山町大久保見２０１２番地１,,23,226,4880065,,,,,,,2022-10-03,1,,,,,アーヌエヌエ,0
195,1180003024325,新規,0,2022-10-03,2022-10-03,ＨＯＭＩＥ合同会社,,合同会社,愛知県,名古屋市中村区,並木２丁目２４８番地ｆａｉｔｈ２Ｂ,,23,105,4530856,,,,,,,2022-10-03,1,,,,,ホーミー,0
196,1180305009395,新規,0,2022-10-03,2022-10-03,一般社団法人未日来,,その他の設立登記法人,愛知県,北設楽郡設楽町,津具字上古町２８番地２,,23,561,4412601,,,,,,,2022-10-03,1,,,,,ミライビ,0
198,1190001029795,新規,0,2022-10-03,2022-10-03,株式会社ワープ,,株式会社,三重県,桑名市,駅元町８番地,,24,205,5110071,,,,,,,2022-10-03,1,,,,,ワープ,0
210,1240001060423,新規,0,2022-10-03,2022-10-03,株式会社ＴＩＶＯＬＩ　ＨＩＲＯＳＨＩＭＡ,,株式会社,広島県,広島市佐伯区,五日市中央１丁目１０番１２号,,34,108,7315128,,,,,,,2022-10-03,1,,,,,チボリヒロシマ,0
212,1240005015464,新規,0,2022-10-03,2022-10-03,一般財団法人広島生命科学研究所,,その他の設立登記法人,広島県,広島市中区,幟町２番２１－１３０１号,,34,101,7300016,,,,,,,2022-10-03,1,,,,,ヒロシマセイメイカガクケンキュウショ,0
215,1260003004046,新規,0,2022-10-03,2022-10-03,Ｅｙｅｍｏｎｏ合同会社,,合同会社,岡山県,倉敷市,玉島柏台３丁目１１番１２号,,33,202,7138124,,,,,,,2022-10-03,1,,,,,アイモノ,0
223,1290001099028,新規,0,2022-10-03,2022-10-03,ロール・アンド・カンパニー株式会社,,株式会社,福岡県,福岡市中央区,天神１丁目４番１号西日本新聞会館１６階,,40,133,8100001,,,,,,,2022-10-03,1,,,,,ロールアンドカンパニー,0
224,1290001099036,新規,0,2022-10-03,2022-10-03,株式会社リバレッジ,,株式会社,福岡県,糟屋郡新宮町,上府北２丁目１５番１１号,,40,345,8110123,,,,,,,2022-10-03,1,,,,,リバレッジ,0
225,1290001099052,新規,0,2022-10-03,2022-10-03,株式会社プロペラ,,株式会社,福岡県,福岡市早良区,田村５丁目１６番４４号,,40,137,8140175,,,,,,,2022-10-03,1,,,,,プロペラ,0
228,1300001013085,新規,0,2022-10-03,2022-10-03,株式会社Ｗ・Ｊａｐａｎ　Ｖｅｇｅｔａｂｌｅ,,株式会社,佐賀県,唐津市,鎮西町菖蒲２８２３番地,,41,202,8470314,,,,,,,2022-10-03,1,,,,,ウジャパンベジタブル,0
230,1310001018059,新規,0,2022-10-03,2022-10-03,株式会社Ｌａｙｔｅｃｈ,,株式会社,長崎県,西彼杵郡長与町,嬉里郷１５１番地２,,42,307,8512128,,,,,,,2022-10-03,1,,,,,レイテック,0
234,1350001017973,新規,0,2022-10-03,2022-10-03,ＫＳＡ株式会社,,株式会社,宮崎県,宮崎市,祗園三丁目２０７番地,,45,201,8800000,,,,,,,2022-10-03,1,,,,,ケイエスエイ,0
247,1380001033142,新規,0,2022-10-03,2022-10-03,株式会社イニテイム,,株式会社,福島県,喜多方市,塩川町遠田字新屋敷２７０４番地,,07,208,9693534,,,,,,,2022-10-03,1,,,,,イニテイム,0
255,1430001087570,新規,0,2022-10-03,2022-10-03,株式会社橘柳,,株式会社,北海道,札幌市南区,真駒内柏丘２丁目３番１３号,,01,106,0050022,,,,,,,2022-10-03,1,,,,,タチバナヤナギ,0
268,1490003001706,新規,0,2022-10-03,2022-10-03,合同会社エクスライド,,合同会社,高知県,高知市,桟橋通１丁目１０番６号アステールＫ３０６号,,39,201,7818010,,,,,,,2022-10-03,1,,,,,エクスライド,0
278,2010001229817,新規,0,2022-10-03,2022-10-03,ファルコンインベストメント株式会社,,株式会社,東京都,千代田区,永田町２丁目９番６号,,13,101,1000014,,,,,,,2022-10-03,1,,,,,ファルコンインベストメント,0
279,2010001229833,新規,0,2022-10-03,2022-10-03,株式会社Ａ２Ｃ,,株式会社,東京都,文京区,本郷４丁目３７番１７号,,13,105,1130033,,,,,,,2022-10-03,1,,,,,エィトゥシー,0
280,2010001229841,新規,0,2022-10-03,2022-10-03,株式会社黒飼,,株式会社,東京都,中央区,銀座７丁目１４番１３－１１１６号,,13,102,1040061,,,,,,,2022-10-03,1,,,,,クロカイ,0
281,2010001229858,新規,0,2022-10-03,2022-10-03,一進株式会社,,株式会社,東京都,千代田区,神田須田町１丁目２４－２１－９階,,13,101,1010041,,,,,,,2022-10-03,1,,,,,イッシン,0
282,2010001229882,新規,0,2022-10-03,2022-10-03,ティ・アル・マック株式会社,,株式会社,東京都,千代田区,岩本町２丁目１７番４号４０１号室,,13,101,1010032,,,,,,,2022-10-03,1,,,,,ティアルマック,0
285,2010003038794,新規,0,2022-10-03,2022-10-03,東長崎プロパティー合同会社,,合同会社,東京都,千代田区,丸の内３丁目１番１号東京共同会計事務所内,,13,101,1000005,,,,,,,2022-10-03,1,,,,,ヒガシナガサキプロパティー,0
288,2010101015340,新規,0,2022-10-03,2022-10-03,株式会社やーまんず,,株式会社,東京都,八王子市,叶谷町１６６８番地１３,,13,201,1930815,,,,,,,2022-10-03,1,,,,,ヤーマンズ,0
297,2010401169968,新規,0,2022-10-03,2022-10-03,株式会社リーブイットミー,,株式会社,東京都,港区,海岸１丁目９番１５－１８０２号,,13,103,1050022,,,,,,,2022-10-03,1,,,,,リーブイットミー,0
300,2010505003346,新規,0,2022-10-03,2022-10-03,一般財団法人日本華文教育基金会,,その他の設立登記法人,東京都,台東区,東上野５丁目１０番２号,,13,106,1100015,,,,,,,2022-10-03,1,,,,,ニホンカブンキョウイクキキンカイ,0
301,2010601061925,新規,0,2022-10-03,2022-10-03,ナルプロ株式会社,,株式会社,東京都,墨田区,東向島２丁目２番１１－１０３号,,13,107,1310032,,,,,,,2022-10-03,1,,,,,ナルプロ,0
309,2010901051700,新規,0,2022-10-03,2022-10-03,株式会社ＣＡＳＥ,,株式会社,東京都,世田谷区,経堂５丁目１２番７号,,13,112,1560052,,,,,,,2022-10-03,1,,,,,ケース,0
310,2010901051709,新規,0,2022-10-03,2022-10-03,ｗｏｎｄｅｒ　ｊｕｎｃｔｉｏｎ株式会社,,株式会社,東京都,世田谷区,南烏山２丁目２８番１２号,,13,112,1570062,,,,,,,2022-10-03,1,,,,,ワンダージャンクション,0
313,2011001149996,新規,0,2022-10-03,2022-10-03,ＢＩＲＡＬＯ株式会社,,株式会社,東京都,渋谷区,笹塚２丁目４０番１３号,,13,113,1510073,,,,,,,2022-10-03,1,,,,,ビラロ,0
314,2011001150005,新規,0,2022-10-03,2022-10-03,スカイワゴン株式会社,,株式会社,東京都,渋谷区,広尾４丁目１番３２－１００６号,,13,113,1500012,,,,,,,2022-10-03,1,,,,,スカイワゴン,0
315,2011001150021,新規,0,2022-10-03,2022-10-03,株式会社ＴＲＹＳＥＬＬ,,株式会社,東京都,渋谷区,神宮前６丁目１８番１３号,,13,113,1500001,,,,,,,2022-10-03,1,,,,,トライセル,0
317,2011005009750,新規,0,2022-10-03,2022-10-03,税理士法人ＩＡＩＣ,,その他の設立登記法人,東京都,渋谷区,道玄坂１丁目１９番１２号道玄坂今井ビル５階,,13,113,1500043,,,,,,,2022-10-03,1,,,,,アイエーアイーシー,0
318,2011005009775,新規,0,2022-10-03,2022-10-03,司法書士法人ＴＯＳグループ,,その他の設立登記法人,東京都,渋谷区,千駄ヶ谷３丁目１１番８号,,13,113,1510051,,,,,,,2022-10-03,1,,,,,ティーオーエスグループ,0
322,2011101100314,新規,0,2022-10-03,2022-10-03,株式会社Ｇｒｏｏｖｅ　Ｗｏｒｋｓ,,株式会社,東京都,新宿区,西落合１丁目１３－１６ＢＣＩＴＹＡＰＡＲＴＭＥＮＴＳＨＩＮＪＵＫＵ４０１,,13,104,1610031,,,,,,,2022-10-03,1,,,,,グルーヴワークス,0
323,2011101100347,新規,0,2022-10-03,2022-10-03,株式会社日本半導体マテリアルズ,,株式会社,東京都,新宿区,大久保１丁目３番１４号,,13,104,1690072,,,,,,,2022-10-03,1,,,,,ニホンハンドウタイマテリアルズ,0
326,2011103012219,新規,0,2022-10-03,2022-10-03,合同会社ＴＯＧＥＴＨＥＲ,,合同会社,東京都,新宿区,山吹町３６０－２１－７０１号,,13,104,1620801,,,,,,,2022-10-03,1,,,,,トゥゲザー,0
332,2011603003700,新規,0,2022-10-03,2022-10-03,合同会社Ｒｅｌａｔｅ,,合同会社,東京都,練馬区,上石神井１丁目１３番１３号ベルデグランデ１Ｆ,,13,120,1770044,,,,,,,2022-10-03,1,,,,,リレイト,0
334,2011801041337,新規,0,2022-10-03,2022-10-03,株式会社新田エステート,,株式会社,東京都,足立区,新田１丁目１１番１４号,,13,121,1230865,,,,,,,2022-10-03,1,,,,,シンデンエステート,0
335,2011801041345,新規,0,2022-10-03,2022-10-03,株式会社ライズ,,株式会社,東京都,葛飾区,高砂３丁目２７番２４号,,13,122,1250054,,,,,,,2022-10-03,1,,,,,ライズ,0
336,2012401039688,新規,0,2022-10-03,2022-10-03,株式会社Ｍ．ａｎｄ．Ｍ,,株式会社,東京都,三鷹市,下連雀３丁目３５番１号Ｎ・Ｅ・Ｏ・ＣＩＴＹ・ＭＩＴＡＫＡ６階,,13,204,1810013,,,,,,,2022-10-03,1,,,,,エムアンドエム,0
351,2020001148347,新規,0,2022-10-03,2022-10-03,株式会社ＯＮＯ会計システム,,株式会社,神奈川県,横浜市港北区,大曽根台９番１４号,,14,109,2220004,,,,,,,2022-10-03,1,,,,,オノカイケイシステム,0
352,2020001148355,新規,0,2022-10-03,2022-10-03,株式会社ＳＡＲ,,株式会社,神奈川県,横浜市港北区,富士塚１丁目１番３９号,,14,109,2220012,,,,,,,2022-10-03,1,,,,,エスエーアール,0
353,2020001148363,新規,0,2022-10-03,2022-10-03,株式会社ＭＴＬＩＮＥ,,株式会社,神奈川県,横浜市神奈川区,菅田町２０３番地３,,14,102,2210864,,,,,,,2022-10-03,1,,,,,エムティーライン,0
355,2020005015675,新規,0,2022-10-03,2022-10-03,一般社団法人田園都市イスラム文化センター,,その他の設立登記法人,神奈川県,横浜市青葉区,市ケ尾町１１５２番地４３フローレンス青葉１階,,14,117,2250024,,,,,,,2022-10-03,1,,,,,デンエントシイスラムブンカセンター,0
359,2021003012185,新規,0,2022-10-03,2022-10-03,トルクジャパン合同会社,,合同会社,神奈川県,平塚市,四之宮３丁目２１番１号,,14,203,2540014,,,,,,,2022-10-03,1,,,,,トルクジャパン,0
360,2021003012202,新規,0,2022-10-03,2022-10-03,合同会社ＣＴＮＯＮ,,合同会社,神奈川県,相模原市中央区,上溝４５９２番地３,,14,152,2520243,,,,,,,2022-10-03,1,,,,,コンティネイション,0
365,2030003020296,新規,0,2022-10-03,2022-10-03,合同会社ＫＴファーム,,合同会社,埼玉県,春日部市,備後東６丁目１２番１－２号,,11,214,3440032,,,,,,,2022-10-03,1,,,,,ケーティーファーム,0
370,2040001125237,新規,0,2022-10-03,2022-10-03,株式会社アルファ,,株式会社,千葉県,木更津市,上烏田９０５番地１,,12,206,2920813,,,,,,,2022-10-03,1,,,,,アルファ,0
371,2040001125245,新規,0,2022-10-03,2022-10-03,株式会社Ｂｉｊｏｕｘ,,株式会社,千葉県,成田市,南平台１１１５番地７カームビレッジ石原１０６号,,12,211,2860042,,,,,,,2022-10-03,1,,,,,ビジュー,0
372,2040001125253,新規,0,2022-10-03,2022-10-03,株式会社ファーストステップ,,株式会社,千葉県,千葉市中央区,中央２丁目７番１０号シャンボール千葉中央２０３,,12,101,2600013,,,,,,,2022-10-03,1,,,,,ファーストステップ,0
376,2040003020948,新規,0,2022-10-03,2022-10-03,新生金属合同会社,,合同会社,千葉県,千葉市若葉区,高根町１３８番地２,,12,104,2650061,,,,,,,2022-10-03,1,,,,,シンセイキンゾク,0
379,2050003006896,新規,0,2022-10-03,2022-10-03,ＭＹＥＳ合同会社,,合同会社,茨城県,水戸市,五軒町１丁目５番４８号,,08,201,3100063,,,,,,,2022-10-03,1,,,,,メイズ,0
381,2060001035302,新規,0,2022-10-03,2022-10-03,株式会社Ｌｅｏ,,株式会社,栃木県,日光市,鬼怒川温泉大原５４１番地１,,09,206,3212522,,,,,,,2022-10-03,1,,,,,レオ,0
383,2060003004255,新規,0,2022-10-03,2022-10-03,Ｒ．Ａ．Ｒ　ＴＲＡＤＩＮＧ合同会社,,合同会社,栃木県,足利市,鹿島町５９７番地１第３鹿島荘６号室,,09,202,3260844,,,,,,,2022-10-03,1,,,,,アールエーアールトレーディング,0
386,2070001039698,新規,0,2022-10-03,2022-10-03,株式会社ＴＡＫＵＭＩ,,株式会社,群馬県,太田市,下田島町１２３１番地１,,10,205,3730844,,,,,,,2022-10-03,1,,,,,タクミ,0
409,2120001249168,新規,0,2022-10-03,2022-10-03,株式会社ＧＤＬ,,株式会社,大阪府,大阪市中央区,北浜２丁目１－２１,,27,128,5410041,,,,,,,2022-10-03,1,,,,,ジーディーエル,0
410,2120001249176,新規,0,2022-10-03,2022-10-03,ｅｌａｃｔ株式会社,,株式会社,大阪府,大阪市中央区,西心斎橋１丁目１２番１１－５０４号,,27,128,5420086,,,,,,,2022-10-03,1,,,,,エラクト,0
411,2120001249184,新規,0,2022-10-03,2022-10-03,株式会社建塗工房,,株式会社,大阪府,大阪市淀川区,田川北３丁目４番２５号,,27,123,5320021,,,,,,,2022-10-03,1,,,,,ケントコウボウ,0
412,2120001249218,新規,0,2022-10-03,2022-10-03,株式会社福翔工業,,株式会社,大阪府,大阪市淀川区,西三国３丁目１１番４４号,,27,123,5320006,,,,,,,2022-10-03,1,,,,,フクショウコウギョウ,0
413,2120001249242,新規,0,2022-10-03,2022-10-03,株式会社ＴＲＹＰＯＤ,,株式会社,大阪府,大阪市西区,西本町１丁目１２番７号,,27,106,5500005,,,,,,,2022-10-03,1,,,,,トライポッド,0
416,2120003022589,新規,0,2022-10-03,2022-10-03,合同会社ＢＡＲＩ,,合同会社,大阪府,大阪市淀川区,加島４丁目４番３８号アイビーハイム加島２Ｄ,,27,123,5320031,,,,,,,2022-10-03,1,,,,,バリ,0
420,2120901046540,新規,0,2022-10-03,2022-10-03,株式会社こんちぇると,,株式会社,大阪府,豊中市,庄内栄町２丁目１９番３号,,27,203,5610834,,,,,,,2022-10-03,1,,,,,コンチェルト,0
421,2120901046549,新規,0,2022-10-03,2022-10-03,株式会社ｓ＆ｓ　ｈａｙａｓｈｉ　ｉｎｃ．,,株式会社,大阪府,高槻市,真上町３丁目１０番１２号,,27,207,5691121,,,,,,,2022-10-03,1,,,,,エスアンドエスハヤシインクドット,0
423,2120903004315,新規,0,2022-10-03,2022-10-03,合同会社ＳＦプロパティマネジメント,,合同会社,大阪府,豊中市,野田町３４番４号ケントマンション６０３号室,,27,203,5610855,,,,,,,2022-10-03,1,,,,,エスエフプロパティマネジメント,0
436,2140003018189,新規,0,2022-10-03,2022-10-03,合同会社ＫＡＮＤＹ,,合同会社,兵庫県,西宮市,松園町８番２６－３０８号,,28,204,6620053,,,,,,,2022-10-03,1,,,,,カンディ,0
438,2140005026330,新規,0,2022-10-03,2022-10-03,一般社団法人ｗｉｔｈ,,その他の設立登記法人,兵庫県,神戸市中央区,山本通３丁目３番５３号,,28,110,6500003,,,,,,,2022-10-03,1,,,,,ウィズ,0
440,2150001025847,新規,0,2022-10-03,2022-10-03,株式会社ＷＯＮＤＥＲ　ＢＥＡＴ,,株式会社,奈良県,大和郡山市,新町９０７番地１,,29,203,6391054,,,,,,,2022-10-03,1,,,,,ワンダービート,0
442,2160001024534,新規,0,2022-10-03,2022-10-03,株式会社京滋エンジニアリング,,株式会社,滋賀県,栗東市,下鈎４２０番地１２,,25,208,5203026,,,,,,,2022-10-03,1,,,,,ケイジエンジニアリング,0
447,2180001153199,新規,0,2022-10-03,2022-10-03,株式会社Ｆ．Ｐ．Ｓ　Ｆｏｏｄｓ,,株式会社,愛知県,名古屋市中村区,鳥居通２丁目３５番地,,23,105,4530044,,,,,,,2022-10-03,1,,,,,エフピーエスフーズ,0
448,2180001153208,新規,0,2022-10-03,2022-10-03,株式会社カネコ装建,,株式会社,愛知県,知多市,南巽が丘３丁目１７６番地,00127989,23,224,4780013,,,,,,,2022-10-03,1,,,,,カネコソウケン,0
449,2180001153216,新規,0,2022-10-03,2022-10-03,株式会社ビブレ,,株式会社,愛知県,名古屋市北区,大杉町２丁目３６番地,,23,103,4620836,,,,,,,2022-10-03,1,,,,,ビブレ,0
450,2180001153224,新規,0,2022-10-03,2022-10-03,株式会社ベースバード,,株式会社,愛知県,名古屋市中川区,上高畑１丁目２１７番地,,23,110,4540873,,,,,,,2022-10-03,1,,,,,ベースバード,0
451,2180001153232,新規,0,2022-10-03,2022-10-03,株式会社愛豊工業,,株式会社,愛知県,名古屋市中村区,名駅４丁目２４－１３,,23,105,4500002,,,,,,,2022-10-03,1,,,,,アイホウコウギョウ,0
452,2180001153240,新規,0,2022-10-03,2022-10-03,ソルエユニーク株式会社,,株式会社,愛知県,名古屋市西区,名駅３丁目７－９サン・名駅三丁目ビル６０１,,23,104,4510045,,,,,,,2022-10-03,1,,,,,ソルエユニーク,0
458,2190001029794,新規,0,2022-10-03,2022-10-03,株式会社天,,株式会社,三重県,四日市市,尾平町２０７９番地４,,24,202,5120921,,,,,,,2022-10-03,1,,,,,ソラ,0
462,2200001040493,新規,0,2022-10-03,2022-10-03,株式会社ＫＣ,,株式会社,岐阜県,揖斐郡池田町,段６２８番地の１,,21,404,5032408,,,,,,,2022-10-03,1,,,,,ケーシー,0
465,2220003003372,新規,0,2022-10-03,2022-10-03,合同会社種ヲ蒔ク,,合同会社,石川県,金沢市,長田本町チ２０番地１・１０１号,,17,201,9200041,,,,,,,2022-10-03,1,,,,,タネヲマク,0
471,2240001060414,新規,0,2022-10-03,2022-10-03,福山シーリング株式会社,,株式会社,広島県,福山市,伊勢丘４丁目１番２６号,,34,207,7210915,,,,,,,2022-10-03,1,,,,,フクヤマシーリング,0
472,2240001060430,新規,0,2022-10-03,2022-10-03,株式会社Ｓｕｍｉｓｈｉ,,株式会社,広島県,広島市佐伯区,屋代３丁目１７番３号,,34,108,7315146,,,,,,,2022-10-03,1,,,,,スミシ,0
478,2290001099019,新規,0,2022-10-03,2022-10-03,クローバー不動産株式会社,,株式会社,福岡県,福岡市早良区,賀茂２丁目１４番７号,,40,137,8140164,,,,,,,2022-10-03,1,,,,,クローバーフドウサン,0
479,2290001099027,新規,0,2022-10-03,2022-10-03,株式会社サンシーホーム,,株式会社,福岡県,太宰府市,青葉台１丁目８番２９号,,40,221,8180137,,,,,,,2022-10-03,1,,,,,サンシーホーム,0
480,2290001099035,新規,0,2022-10-03,2022-10-03,株式会社ヒーバックエンジニアリング,,株式会社,福岡県,福岡市中央区,那の津２丁目１０番８号オフィスパレア天神北Ａ棟１号室,,40,133,8100071,,,,,,,2022-10-03,1,,,,,ヒーバックエンジニアリング,0
484,2300001013084,新規,0,2022-10-03,2022-10-03,株式会社Ｇｌｏｖｅｒ２ｎｄ,,株式会社,佐賀県,武雄市,武雄町大字富岡１１２９９番地１,,41,206,8430024,,,,,,,2022-10-03,1,,,,,グラバーセカンド,0
487,2310001018058,新規,0,2022-10-03,2022-10-03,株式会社テクニカルクルー,,株式会社,長崎県,長崎市,滑石２丁目１６番６号,,42,201,8528061,,,,,,,2022-10-03,1,,,,,テクニカルクルー,0
490,2310005008633,新規,0,2022-10-03,2022-10-03,特定非営利活動法人ハッピーサポートプリママ,,その他の設立登記法人,長崎県,大村市,東本町２番地３Ｂ棟２０１,,42,205,8560831,,,,,,,2022-10-03,1,,,,,ハッピーサポートプリママ,0
498,2360001031015,新規,0,2022-10-03,2022-10-03,株式会社ＵｍｉＧａｍｅ,,株式会社,沖縄県,中頭郡北谷町,美浜２丁目６番地５,,47,326,9040115,,,,,,,2022-10-03,1,,,,,ユミゲーム,0
513,2500001024499,新規,0,2022-10-03,2022-10-03,淺井工業株式会社,,株式会社,愛媛県,松山市,拓川町２番３１－３号,,38,201,7900967,,,,,,,2022-10-03,1,,,,,アサイコウギョウ,0
522,3010001229816,新規,0,2022-10-03,2022-10-03,ＣｉＴ株式会社,,株式会社,東京都,中央区,湊２丁目１１番１号シティタワー銀座東４１７号室,,13,102,1040043,,,,,,,2022-10-03,1,,,,,シーアイティ,0
527,3010005035608,新規,0,2022-10-03,2022-10-03,一般社団法人日本バングラデシュＩＴ協会,,その他の設立登記法人,東京都,千代田区,二番町９－３,,13,101,1020084,,,,,,,2022-10-03,1,,,,,ニホンバングラデシュアイティキョウカイ,0
534,3010401169785,新規,0,2022-10-03,2022-10-03,株式会社Ｒｉｇｈｔ　Ｄｅｓｉｇｎ,,株式会社,東京都,港区,六本木６丁目１１番１８号,,13,103,1060032,,,,,,,2022-10-03,1,,,,,ライトデザイン,0
535,3010401169967,新規,0,2022-10-03,2022-10-03,株式会社タイムレスプロジェクト,,株式会社,東京都,港区,芝５丁目３２番１２号シャーメゾンステージ田町３Ｆ,,13,103,1080014,,,,,,,2022-10-03,1,,,,,タイムレスプロジェクト,0
536,3010401170025,新規,0,2022-10-03,2022-10-03,株式会社Ｌｉｆｅ　Ｎａｖｉｇａｔｉｏｎ,,株式会社,東京都,港区,南青山３丁目１番３６号青山丸竹ビル６階,,13,103,1070062,,,,,,,2022-10-03,1,,,,,ライフナビゲーション,0
537,3010403028568,新規,0,2022-10-03,2022-10-03,合同会社Ｐｕｏｌｉｋｕｕ,,合同会社,東京都,港区,麻布十番２丁目２１番１４―５０５号,,13,103,1060045,,,,,,,2022-10-03,1,,,,,プオリクー,0
538,3010403028592,新規,0,2022-10-03,2022-10-03,合同会社ワイドクリエイト,,合同会社,東京都,港区,南青山２丁目２番１５号,,13,103,1070062,,,,,,,2022-10-03,1,,,,,ワイドクリエイト,0
539,3010403028601,新規,0,2022-10-03,2022-10-03,Ｗｏｒｋｏｕｔ　ｃｏｍｐａｎｙ合同会社,,合同会社,東京都,港区,港南２丁目１６－７－１１０８,,13,103,1080075,,,,,,,2022-10-03,1,,,,,ワークアウトカンパニー,0
542,3010601061924,新規,0,2022-10-03,2022-10-03,株式会社匿名アシスト,,株式会社,東京都,江東区,北砂６丁目２番３号,,13,108,1360073,,,,,,,2022-10-03,1,,,,,トクメイアシスト,0
543,3010603009748,新規,0,2022-10-03,2022-10-03,合同会社ＸＯ,,合同会社,東京都,墨田区,江東橋３丁目５番８号Ｋビル３階,,13,107,1300022,,,,,,,2022-10-03,1,,,,,エックスオー,0
544,3010603009756,新規,0,2022-10-03,2022-10-03,合同会社ｎｉｔｏ,,合同会社,東京都,江東区,豊洲５丁目１番１３－７０７号,,13,108,1350061,,,,,,,2022-10-03,1,,,,,ニト,0
546,3010701043277,新規,0,2022-10-03,2022-10-03,株式会社ＦＬＹＢＲＯＡＤ,,株式会社,東京都,品川区,東品川３丁目１０－１－６０７,,13,109,1400002,,,,,,,2022-10-03,1,,,,,フライブロード,0
547,3010703006397,新規,0,2022-10-03,2022-10-03,合同会社Ｒ,,合同会社,東京都,品川区,北品川５丁目１７番２４－１０７号,,13,109,1410001,,,,,,,2022-10-03,1,,,,,アール,0
549,3010901051699,新規,0,2022-10-03,2022-10-03,株式会社ＢＩＯ　ＭＡＴＴＥＲ,,株式会社,東京都,世田谷区,弦巻４丁目９番８－１０１号,,13,112,1540016,,,,,,,2022-10-03,1,,,,,バイオマター,0
560,3011001150012,新規,0,2022-10-03,2022-10-03,株式会社ｋ　ｃｏｍｐａｎｙ,,株式会社,東京都,渋谷区,松濤２丁目１２番１３号,,13,113,1500046,,,,,,,2022-10-03,1,,,,,ケーカンパニー,0
561,3011001150037,新規,0,2022-10-03,2022-10-03,株式会社アンサー,,株式会社,東京都,渋谷区,神宮前５丁目３９番８号スカーラ神宮前２０４,,13,113,1500001,,,,,,,2022-10-03,1,,,,,アンサー,0
562,3011001150053,新規,0,2022-10-03,2022-10-03,Ｆｒｏｎｔｉｅｒ　Ｍ＆Ａ　Ｐａｒｔｎｅｒｓ株式会社,,株式会社,東京都,渋谷区,恵比寿南２丁目２３番２号,,13,113,1500022,,,,,,,2022-10-03,1,,,,,フロンティアエムアンドエーパートナーズ,0
565,3011101100370,新規,0,2022-10-03,2022-10-03,株式会社２ｎｄ　Ｌｉｆｅ,,株式会社,東京都,新宿区,新宿２丁目１２番１３号新宿アントレサロンビル２階,,13,104,1600022,,,,,,,2022-10-03,1,,,,,セカンドライフ,0
568,3011105010418,新規,0,2022-10-03,2022-10-03,一般社団法人ＰＯＩＥＳＩＳ,,その他の設立登記法人,東京都,新宿区,西新宿３丁目３番１３号西新宿水間ビル６階,,13,104,1600023,,,,,,,2022-10-03,1,,,,,ポイエイシス,0
570,3011203003918,新規,0,2022-10-03,2022-10-03,合同会社Ｕ‐ＳＥＮＳＥ,,合同会社,東京都,中野区,中野５丁目５８番９号ソシアルビル山田２０２,,13,114,1640001,,,,,,,2022-10-03,1,,,,,ユーセンス,0
574,3011501028518,新規,0,2022-10-03,2022-10-03,株式会社Ｋａｉｌａｓ　Ｒｏｂｏｔｉｃｓ,,株式会社,東京都,荒川区,西日暮里６丁目３７番１号,,13,118,1160013,,,,,,,2022-10-03,1,,,,,カイラスロボティクス,0
575,3011603003708,新規,0,2022-10-03,2022-10-03,合同会社遠東日上,,合同会社,東京都,練馬区,旭町２丁目４２番１６－３０５号,,13,120,1790071,,,,,,,2022-10-03,1,,,,,エントウニチジョウ,0
576,3011703003269,新規,0,2022-10-03,2022-10-03,合同会社壮挺,,合同会社,東京都,江戸川区,南篠崎町１丁目１５番７号デュオ南篠崎Ｙ－２０５,,13,123,1330065,,,,,,,2022-10-03,1,,,,,ソウテイ,0
578,3011801041328,新規,0,2022-10-03,2022-10-03,株式会社Ｒａｓｔｙ,,株式会社,東京都,足立区,綾瀬５丁目１４番１８号パルテノン綾瀬１０１,,13,121,1200005,,,,,,,2022-10-03,1,,,,,ラスティ,0
580,3011803005289,新規,0,2022-10-03,2022-10-03,ＭＹシステム合同会社,,合同会社,東京都,足立区,舎人５丁目１３番２３－３１１号,,13,121,1210831,,,,,,,2022-10-03,1,,,,,エムワイシステム,0
594,3020001148346,新規,0,2022-10-03,2022-10-03,株式会社Ｇｏｏｓｅｒ,,株式会社,神奈川県,横浜市港北区,綱島東６丁目２番１４－７０８号,,14,109,2230052,,,,,,,2022-10-03,1,,,,,グーサー,0
595,3020001148354,新規,0,2022-10-03,2022-10-03,株式会社８Ｃａｂｉｎ建築工房,,株式会社,神奈川県,横浜市中区,本郷町３丁目２３１番地,,14,104,2310843,,,,,,,2022-10-03,1,,,,,エイトキャビンケンチクコウボウ,0
596,3020001148362,新規,0,2022-10-03,2022-10-03,Ｕ．Ｍコンサルティング・アセットマネジメント株式会社,,株式会社,神奈川県,横浜市中区,北仲通５丁目５７番地２ザ・タワー横浜北仲１３１０号室,,14,104,2310003,,,,,,,2022-10-03,1,,,,,ユーエムコンサルティングアセットマネジメント,0
597,3020001148370,新規,0,2022-10-03,2022-10-03,株式会社Ｎ＆Ｄ,,株式会社,神奈川県,横浜市中区,本牧町１丁目１４１番地１,,14,104,2310806,,,,,,,2022-10-03,1,,,,,エヌアンドディー,0
601,3020003022482,新規,0,2022-10-03,2022-10-03,ライフネクスト合同会社,,合同会社,神奈川県,横浜市都筑区,池辺町３７２９番地ＢＨ池辺町Ｂ号室,,14,118,2240053,,,,,,,2022-10-03,1,,,,,ライフネクスト,0
603,3021001077072,新規,0,2022-10-03,2022-10-03,株式会社サブエントラストＳ＆Ｂ,,株式会社,神奈川県,鎌倉市,山崎１００５番地５７,,14,204,2470066,,,,,,,2022-10-03,1,,,,,サブエントラストエスアンドビー,0
604,3021001077080,新規,0,2022-10-03,2022-10-03,株式会社Ａｎｄ　ＨＡ,,株式会社,神奈川県,藤沢市,円行２丁目１７番地の４,,14,205,2520805,,,,,,,2022-10-03,1,,,,,アンドエイチエー,0
605,3021001077089,新規,0,2022-10-03,2022-10-03,株式会社ＣＨＡＯＳＲＵ,,株式会社,神奈川県,鎌倉市,御成町１１－２ヤノヤビル２Ｆ,,14,204,2480012,,,,,,,2022-10-03,1,,,,,カオスル,0
612,3030001150284,新規,0,2022-10-03,2022-10-03,株式会社深谷商店,,株式会社,埼玉県,深谷市,上柴町東１丁目４番地１,,11,218,3660051,,,,,,,2022-10-03,1,,,,,フカヤショウテン,0
613,3030001150292,新規,0,2022-10-03,2022-10-03,株式会社ＬＥＯ,,株式会社,埼玉県,さいたま市南区,南本町２丁目１１番１５－５０４号,,11,108,3360018,,,,,,,2022-10-03,1,,,,,レオ,0
614,3030001150326,新規,0,2022-10-03,2022-10-03,株式会社紬麦,,株式会社,埼玉県,幸手市,東２丁目３５番１９号アーバン誠１０２,,11,240,3400114,,,,,,,2022-10-03,1,,,,,ツムギ,0
615,3030001150342,新規,0,2022-10-03,2022-10-03,株式会社エクシ,,株式会社,埼玉県,朝霞市,溝沼２丁目３－３１エコヴィレッジ朝霞見晴らしの丘２０２,,11,227,3510023,,,,,,,2022-10-03,1,,,,,エクシ,0
620,3030003020304,新規,0,2022-10-03,2022-10-03,合同会社ロティール,,合同会社,埼玉県,越谷市,大字恩間６７８番地６,,11,222,3430033,,,,,,,2022-10-03,1,,,,,ロティール,0
624,3040001125236,新規,0,2022-10-03,2022-10-03,ウィッシュホーム株式会社,,株式会社,千葉県,千葉市中央区,都町２丁目２６番１０号,,12,101,2600001,,,,,,,2022-10-03,1,,,,,ウィッシュホーム,0
625,3040001125244,新規,0,2022-10-03,2022-10-03,エコ・アース環境株式会社,,株式会社,千葉県,千葉市若葉区,古泉町１２７番地１０,,12,104,2650042,,,,,,,2022-10-03,1,,,,,エコアースカンキョウ,0
626,3040001125252,新規,0,2022-10-03,2022-10-03,萬盛産業株式会社,,株式会社,千葉県,四街道市,吉岡１１６３番地,,12,228,2840032,,,,,,,2022-10-03,1,,,,,マンセイ,0
627,3040003020939,新規,0,2022-10-03,2022-10-03,合同会社ＮＥＷ　ＮＩＮＥ,,合同会社,千葉県,千葉市中央区,蘇我４丁目１３番１０号ベイサイドタウン８６街区９－３,,12,101,2600822,,,,,,,2022-10-03,1,,,,,ニューナイン,0
633,3070001039689,新規,0,2022-10-03,2022-10-03,株式会社クローバー,,株式会社,群馬県,前橋市,上大島町１５１番地１,,10,201,3792153,,,,,,,2022-10-03,1,,,,,クローバー,0
634,3070003004633,新規,0,2022-10-03,2022-10-03,合同会社ａｎｏｍｉｒａ‐あの名曲の作者が嫉妬する未来を,,合同会社,群馬県,前橋市,千代田町２丁目７番１４号,,10,201,3710022,,,,,,,2022-10-03,1,,,,,アノミラーアノメイキョクノサクシャガシットスルミライヲ,0
641,3100001035718,新規,0,2022-10-03,2022-10-03,株式会社アースボート,,株式会社,長野県,上水内郡信濃町,大字野尻３７９番地２,,20,583,3891303,,,,,,,2022-10-03,1,,,,,アースボート,0
642,3100001035734,新規,0,2022-10-03,2022-10-03,株式会社麻絲,,株式会社,長野県,長野市,三輪８丁目５１番３６－２０１号,,20,201,3800803,,,,,,,2022-10-03,1,,,,,アサイト,0
666,3120001249175,新規,0,2022-10-03,2022-10-03,株式会社ありがとう,,株式会社,大阪府,門真市,東田町７番２６号,,27,223,5710034,,,,,,,2022-10-03,1,,,,,アリガトウ,0
667,3120001249191,新規,0,2022-10-03,2022-10-03,株式会社ｆａｂｐｊ,,株式会社,大阪府,大阪市生野区,桃谷２丁目１８番９号,,27,116,5440034,,,,,,,2022-10-03,1,,,,,ファブピージェイ,0
668,3120001249209,新規,0,2022-10-03,2022-10-03,ジェニシスエージェント株式会社,,株式会社,大阪府,大阪市中央区,南船場４丁目４番１０号,,27,128,5420081,,,,,,,2022-10-03,1,,,,,ジェニシスエージェント,0
669,3120001249217,新規,0,2022-10-03,2022-10-03,株式会社ＷＥｄＧＥ,,株式会社,大阪府,大阪市中央区,南本町４丁目５番７号東亜ビル８階,,27,128,5410054,,,,,,,2022-10-03,1,,,,,ウェッジ,0
671,3120003022588,新規,0,2022-10-03,2022-10-03,Ａｎ合同会社,,合同会社,大阪府,大阪市西区,北堀江２丁目５－３－２Ｆ,,27,106,5500014,,,,,,,2022-10-03,1,,,,,アン,0
674,3120101066280,新規,0,2022-10-03,2022-10-03,株式会社ｓｅｉｄｏ,,株式会社,大阪府,和泉市,のぞみ野２丁目１番１－２１１号,,27,219,5941105,,,,,,,2022-10-03,1,,,,,セイドウ,0
677,3120903004314,新規,0,2022-10-03,2022-10-03,合同会社ゆうき企画,,合同会社,大阪府,吹田市,出口町３５番１－２０６号,,27,205,5640072,,,,,,,2022-10-03,1,,,,,ユウキキカク,0
683,3130001072717,新規,0,2022-10-03,2022-10-03,株式会社乙訓不動産,,株式会社,京都府,乙訓郡大山崎町,字円明寺小字葛原３番地,,26,303,6180091,,,,,,,2022-10-03,1,,,,,オトクニフドウサン,0
684,3130001072725,新規,0,2022-10-03,2022-10-03,株式会社ＦＡＢコーポレーション,,株式会社,京都府,京都市北区,西賀茂水垣町１０番地１,,26,101,6038827,,,,,,,2022-10-03,1,,,,,ファブコーポレーション,0
685,3130003008223,新規,0,2022-10-03,2022-10-03,合同会社京都人材紹介シナジー・ワーク,,合同会社,京都府,京都市伏見区,中島中道町１１０楽厘,,26,109,6128456,,,,,,,2022-10-03,1,,,,,キョウトジンザイショウカイシナジーワーク,0
693,3140001127503,新規,0,2022-10-03,2022-10-03,株式会社ビジョンフォース,,株式会社,兵庫県,神戸市須磨区,大池町４丁目１－８－１０２０,,28,107,6540026,,,,,,,2022-10-03,1,,,,,ビジョンフォース,0
694,3140001127528,新規,0,2022-10-03,2022-10-03,株式会社アーバンジョイント,,株式会社,兵庫県,川西市,花屋敷山手町１３番５－９号,,28,217,6660036,,,,,,,2022-10-03,1,,,,,アーバンジョイント,0
695,3140001127536,新規,0,2022-10-03,2022-10-03,株式会社なないろリサーチ,,株式会社,兵庫県,川西市,小戸２丁目１４番１２号,,28,217,6660014,,,,,,,2022-10-03,1,,,,,ナナイロリサーチ,0
697,3150001025846,新規,0,2022-10-03,2022-10-03,株式会社ＨａｓｈＴＡＧ,,株式会社,奈良県,大和郡山市,九条町８７２－４,,29,203,6391001,,,,,,,2022-10-03,1,,,,,ハッシュタグ,0
700,3180001153099,新規,0,2022-10-03,2022-10-03,Ｓホールディングス株式会社,,株式会社,愛知県,名古屋市熱田区,白鳥３丁目８番１１号,,23,109,4560035,,,,,,,2022-10-03,1,,,,,エスホールディングス,0
701,3180001153157,新規,0,2022-10-03,2022-10-03,Ｓｕｚｕｋｉ＆Ｃｏ．株式会社,,株式会社,愛知県,名古屋市緑区,鳥澄２丁目１０５番地,,23,114,4580025,,,,,,,2022-10-03,1,,,,,スズキアンドカンパニー,0
702,3180001153198,新規,0,2022-10-03,2022-10-03,株式会社ｅｓｐｏｉｒ,,株式会社,愛知県,名古屋市北区,田幡２丁目１３番１６号日興ビル２Ｆ,,23,103,4620843,,,,,,,2022-10-03,1,,,,,エスポア,0
703,3180001153207,新規,0,2022-10-03,2022-10-03,ＯＮＲＡＩＳＥ株式会社,,株式会社,愛知県,名古屋市中村区,中村中町３丁目８４番地の２,,23,105,4530831,,,,,,,2022-10-03,1,,,,,オンレイズ,0
704,3180001153223,新規,0,2022-10-03,2022-10-03,株式会社だいえん,,株式会社,愛知県,名古屋市中区,錦２丁目１６番２２号,,23,106,4600003,,,,,,,2022-10-03,1,,,,,ダイエン,0
705,3180001153231,新規,0,2022-10-03,2022-10-03,株式会社ＳＹＮＣＳＥＮＳＥ,,株式会社,愛知県,名古屋市千種区,千種２丁目２３番６号,,23,101,4640858,,,,,,,2022-10-03,1,,,,,シンクセンス,0
709,3180003024315,新規,0,2022-10-03,2022-10-03,ニシキアセットマネジメント合同会社,,合同会社,愛知県,名古屋市中区,栄１丁目６番１５号グランドメゾン御園座タワー２３０６号,,23,106,4600008,,,,,,,2022-10-03,1,,,,,ニシキアセットマネジメント,0
711,3180005019949,新規,0,2022-10-03,2022-10-03,一般社団法人健康長寿・異分野連携研究会,,その他の設立登記法人,愛知県,清須市,春日小松生１６番地,,23,233,4520961,,,,,,,2022-10-03,1,,,,,ケンコウチョウジュイブンヤレンケイケンキュウカイ,0
715,3190001029793,新規,0,2022-10-03,2022-10-03,株式会社オンシーン,,株式会社,三重県,伊勢市,曽祢１丁目９番１５号,,24,203,5160078,,,,,,,2022-10-03,1,,,,,オンシーン,0
719,3200005013395,新規,0,2022-10-03,2022-10-03,一般社団法人ゼロエミッションリーダー教育アカデミー,,その他の設立登記法人,岐阜県,岐阜市,大福町５丁目４１番地１,,21,201,5020934,,,,,,,2022-10-03,1,,,,,ゼロエミッションリーダーキョウイクアカデミー,0
723,3240001060421,新規,0,2022-10-03,2022-10-03,ＭＯＶＥ株式会社,,株式会社,広島県,安芸郡府中町,八幡４丁目２番１９号,,34,302,7350012,,,,,,,2022-10-03,1,,,,,ムーブ,0
735,3290001099034,新規,0,2022-10-03,2022-10-03,株式会社ａｎｄ　ｙｏｕ,,株式会社,福岡県,福岡市中央区,六本松４丁目８番３９号,,40,133,8100044,,,,,,,2022-10-03,1,,,,,アンドユー,0
736,3290001099042,新規,0,2022-10-03,2022-10-03,株式会社ビーステップ,,株式会社,福岡県,福岡市中央区,天神１丁目１－１アクロス福岡１Ｆｆａｂｂｉｔ,,40,133,8100001,,,,,,,2022-10-03,1,,,,,ビーステップ,0
737,3290001099059,新規,0,2022-10-03,2022-10-03,株式会社ＳＬ,,株式会社,福岡県,福岡市中央区,白金１丁目１１番１１号,,40,133,8100012,,,,,,,2022-10-03,1,,,,,エスエル,0
738,3290001099067,新規,0,2022-10-03,2022-10-03,株式会社心盛,,株式会社,福岡県,福岡市中央区,荒戸１丁目１０番７号５０１号パラージュ西公園,,40,133,8100062,,,,,,,2022-10-03,1,,,,,シンセイ,0
740,3290003012977,新規,0,2022-10-03,2022-10-03,合同会社Ｆグリッター,,合同会社,福岡県,久留米市,山川神代１丁目２番５－２２２号,,40,203,8390811,,,,,,,2022-10-03,1,,,,,エフグリッター,0
741,3290003013018,新規,0,2022-10-03,2022-10-03,林興業合同会社,,合同会社,福岡県,福岡市西区,野方２丁目１０番２０号,,40,135,8190043,,,,,,,2022-10-03,1,,,,,ハヤシコウギョウ,0
742,3290005018816,新規,0,2022-10-03,2022-10-03,一般社団法人ＨＳマインドライフ脳力覚醒アカデミー,,その他の設立登記法人,福岡県,久留米市,高良内町１１７５番地２７,,40,203,8390852,,,,,,,2022-10-03,1,,,,,エイチェスマインドライフノウリョクカクセイアカデミー,0
746,3300001013083,新規,0,2022-10-03,2022-10-03,株式会社ＹＵＫＩＮＯ,,株式会社,佐賀県,佐賀市,高木瀬町大字長瀬１８２５番地５,,41,201,8490917,,,,,,,2022-10-03,1,,,,,ユキノ,0
750,3310001018049,新規,0,2022-10-03,2022-10-03,株式会社はなと,,株式会社,長崎県,大村市,大川田町３３３番地１８,,42,205,8560804,,,,,,,2022-10-03,1,,,,,ハナト,0
754,3340001025067,新規,0,2022-10-03,2022-10-03,株式会社カーライフ清水,,株式会社,鹿児島県,大島郡知名町,大字瀬利覚１９８番地３,,46,534,8919213,,,,,,,2022-10-03,1,,,,,カーライフシミズ,0
756,3350001017971,新規,0,2022-10-03,2022-10-03,株式会社ＵＬＵ,,株式会社,宮崎県,宮崎市,橘通東４丁目１－１瀬尾ビル５階,,45,201,8800805,,,,,,,2022-10-03,1,,,,,ウル,0
767,3360003012326,新規,0,2022-10-03,2022-10-03,合同会社ｍｉｒａｉ,,合同会社,沖縄県,宮古島市,平良字荷川取２６９番地１,,47,214,9060008,,,,,,,2022-10-03,1,,,,,ミライ,0
768,3360003012334,新規,0,2022-10-03,2022-10-03,合同会社Ｈａｒｕｒｕ,,合同会社,沖縄県,那覇市,赤嶺１丁目６番地５,,47,201,9010154,,,,,,,2022-10-03,1,,,,,ハルル,0
771,3370001049096,新規,0,2022-10-03,2022-10-03,株式会社ＣＡＲＰＲＯＡＤ　ＪＡＰＡＮ,,株式会社,宮城県,仙台市泉区,泉中央４丁目２９番地の１１ＢＬＡＣＫＢＯＸ１階,,04,105,9813133,,,,,,,2022-10-03,1,,,,,カープロードジャパン,0
781,3410001013287,新規,0,2022-10-03,2022-10-03,株式会社ＫＩＴＩＺＥＮ,,株式会社,秋田県,大仙市,神宮寺字館ノ南２２番地１,,05,212,0191701,,,,,,,2022-10-03,1,,,,,キチゼン,0
784,3430001087569,新規,0,2022-10-03,2022-10-03,株式会社ヒラギシ,,株式会社,北海道,札幌市豊平区,福住二条６丁目１番４３号,,01,105,0620042,,,,,,,2022-10-03,1,,,,,ヒラギシ,0
786,3430003014315,新規,0,2022-10-03,2022-10-03,ピカピカ合同会社,,合同会社,北海道,札幌市北区,北二十四条西６丁目２－２チサンマンション札幌第３スパゲッティ９１１号,,01,102,0010024,,,,,,,2022-10-03,1,,,,,ピカピカ,0
788,3450001013804,新規,0,2022-10-03,2022-10-03,株式会社ＨＡＲＵ．,,株式会社,北海道,苫前郡初山別村,字明里８５１番地５,,01,485,0784432,,,,,,,2022-10-03,1,,,,,,0
791,3480003001878,新規,0,2022-10-03,2022-10-03,合同会社リンク,,合同会社,徳島県,板野郡松茂町,広島字南川向３５番地５８,,36,401,7710220,,,,,,,2022-10-03,1,,,,,リンク,0
793,3500001024498,新規,0,2022-10-03,2022-10-03,株式会社ＷＯＯＤ　ＧＵＩＤＥ,,株式会社,愛媛県,松山市,石風呂町５２０番地,,38,201,7918084,,,,,,,2022-10-03,1,,,,,ウッドガイド,0
809,4010001229856,新規,0,2022-10-03,2022-10-03,株式会社ＳＹＮＪＡＰＡＮ,,株式会社,東京都,千代田区,丸の内１丁目１番３号－３階,,13,101,1000005,,,,,,,2022-10-03,1,,,,,シンジャパン,0
810,4010001229880,新規,0,2022-10-03,2022-10-03,ＢＹ　ｄｏｃｔｏｒｓ株式会社,,株式会社,東京都,千代田区,飯田橋４丁目４番９号ダイアパレス飯田橋４１０号室,,13,101,1020072,,,,,,,2022-10-03,1,,,,,バイドクターズ,0
813,4010003038743,新規,0,2022-10-03,2022-10-03,フロンティアコンセプター合同会社,,合同会社,東京都,中央区,新川２丁目１５番３号グラーサ東京イースト９０５,,13,102,1040033,,,,,,,2022-10-03,1,,,,,フロンティアコンセプター,0
821,4010403028220,新規,0,2022-10-03,2022-10-03,はくなまたた合同会社,,合同会社,東京都,港区,南青山２丁目２番１５号,,13,103,1070062,,,,,,,2022-10-03,1,,,,,ハクナマタタ,0
822,4010403028591,新規,0,2022-10-03,2022-10-03,ＡＢ‐ｆｌａｔ合同会社,,合同会社,東京都,港区,浜松町２丁目２番１５号浜松町ダイヤビル２Ｆ,,13,103,1050013,,,,,,,2022-10-03,1,,,,,エービーフラット,0
826,4010601061923,新規,0,2022-10-03,2022-10-03,エーイーティー株式会社,,株式会社,東京都,江東区,亀戸７丁目６３番３－９１０号,,13,108,1360071,,,,,,,2022-10-03,1,,,,,エーイーティー,0
828,4010603009755,新規,0,2022-10-03,2022-10-03,Ｋａｋｅｉ　Ｄｅｓｉｇｎ合同会社,,合同会社,東京都,墨田区,緑３丁目１３番１１－８０３号,,13,107,1300021,,,,,,,2022-10-03,1,,,,,カケイデザイン,0
829,4010701043268,新規,0,2022-10-03,2022-10-03,株式会社ｔｗａｌ,,株式会社,東京都,品川区,南品川４丁目４番１７号品川サウスタワー,,13,109,1400004,,,,,,,2022-10-03,1,,,,,トワル,0
830,4010701043276,新規,0,2022-10-03,2022-10-03,サンライトエム株式会社,,株式会社,東京都,品川区,西五反田１丁目２６番２号五反田サンハイツ９１１,,13,109,1410031,,,,,,,2022-10-03,1,,,,,サンライトエム,0
831,4010701043284,新規,0,2022-10-03,2022-10-03,株式会社オルタ,,株式会社,東京都,品川区,大井４丁目１番３号,,13,109,1400014,,,,,,,2022-10-03,1,,,,,オルタ,0
833,4010703006396,新規,0,2022-10-03,2022-10-03,Ａｌｔｅｇａ合同会社,,合同会社,東京都,品川区,西五反田４丁目３１番２３－８０８号,,13,109,1410031,,,,,,,2022-10-03,1,,,,,アルテガ,0
840,4010901051707,新規,0,2022-10-03,2022-10-03,株式会社加納スタジオ,,株式会社,東京都,世田谷区,若林２丁目１７番１３号ＴＡＲＡ１０２,,13,112,1540023,,,,,,,2022-10-03,1,,,,,カノウスタジオ,0
841,4010903007681,新規,0,2022-10-03,2022-10-03,パインヒル合同会社,,合同会社,東京都,世田谷区,等々力３丁目２９番２０号,,13,112,1580082,,,,,,,2022-10-03,1,,,,,パインヒル,0
847,4011001150011,新規,0,2022-10-03,2022-10-03,株式会社Ｚｈｅｔｓｕ,,株式会社,東京都,渋谷区,神宮前６丁目２３番４号桑野ビル２階,,13,113,1500001,,,,,,,2022-10-03,1,,,,,ゼツ,0
848,4011001150044,新規,0,2022-10-03,2022-10-03,株式会社Ｕ‐ｌｏｔ,,株式会社,東京都,渋谷区,広尾１丁目１０番３－１１０４号,,13,113,1500012,,,,,,,2022-10-03,1,,,,,ユーロット,0
850,4011003015451,新規,0,2022-10-03,2022-10-03,オレンジ合同会社,,合同会社,東京都,渋谷区,本町５丁目１１番９号,,13,113,1510071,,,,,,,2022-10-03,1,,,,,オレンジ,0
852,4011101100345,新規,0,2022-10-03,2022-10-03,株式会社Ｎｏ．９,,株式会社,東京都,新宿区,大久保３丁目８番３－２５１２号,,13,104,1690072,,,,,,,2022-10-03,1,,,,,ナンバーナイン,0
859,4011602024720,新規,0,2022-10-03,2022-10-03,有限会社柄澤工務店,,有限会社,東京都,練馬区,関町南４丁目１３番３２号,,13,120,1770053,,,,,,,2022-10-03,1,,,,,カラサワコウムテン,0
865,4011801041335,新規,0,2022-10-03,2022-10-03,株式会社ワライフ,,株式会社,東京都,足立区,千住龍田町２５番３号,,13,121,1200042,,,,,,,2022-10-03,1,,,,,ワライフ,0
866,4011801041343,新規,0,2022-10-03,2022-10-03,株式会社Ｅｎｏｌａ,,株式会社,東京都,足立区,東保木間２丁目７番６号,,13,121,1210063,,,,,,,2022-10-03,1,,,,,エノラ,0
867,4011803005288,新規,0,2022-10-03,2022-10-03,合同会社鶴田測量設計事務所,,合同会社,東京都,葛飾区,東金町１丁目２７番１号,,13,122,1250041,,,,,,,2022-10-03,1,,,,,ツルタソクリョウセッケイジムショ,0
873,4012803002894,新規,0,2022-10-03,2022-10-03,ストーンヒル合同会社,,合同会社,東京都,武蔵村山市,残堀５丁目１５７番地の３,,13,223,2080034,,,,,,,2022-10-03,1,,,,,ストーンヒル,0
874,4013101009021,新規,0,2022-10-03,2022-10-03,株式会社ＩＰコンサルティング,,株式会社,東京都,西多摩郡瑞穂町,箱根ケ崎東松原３６番１９号,,13,303,1901222,,,,,,,2022-10-03,1,,,,,アイピーコンサルティング,0
876,4013301049742,新規,0,2022-10-03,2022-10-03,株式会社レイテントプラス,,株式会社,東京都,豊島区,東池袋２丁目４４番１号小林ビル３０２号,,13,116,1700013,,,,,,,2022-10-03,1,,,,,レイテントプラス,0
886,4020001148345,新規,0,2022-10-03,2022-10-03,Ｔプランニング株式会社,,株式会社,神奈川県,横浜市泉区,緑園２丁目１９番地１４,,14,116,2450002,,,,,,,2022-10-03,1,,,,,ティープランニング,0
887,4020001148361,新規,0,2022-10-03,2022-10-03,株式会社ＢＬＥＵ,,株式会社,神奈川県,横浜市都筑区,北山田７丁目１０番３３号キャスルヒルズ１号,,14,118,2240021,,,,,,,2022-10-03,1,,,,,ブルー,0
895,4021001077105,新規,0,2022-10-03,2022-10-03,株式会社Ｃｒｏｓｓ,,株式会社,神奈川県,相模原市南区,上鶴間６丁目１９－１０Ａｖａｎｚａｒｅ２０３,,14,153,2520302,,,,,,,2022-10-03,1,,,,,クロス,0
900,4021003012167,新規,0,2022-10-03,2022-10-03,合同会社厚木信用サービス,,合同会社,神奈川県,厚木市,泉町１３番１―４０３,,14,212,2430013,,,,,,,2022-10-03,1,,,,,アツギシンヨウサービス,0
901,4021003012183,新規,0,2022-10-03,2022-10-03,合同会社光エステート,,合同会社,神奈川県,伊勢原市,高森３丁目１２番５号,,14,214,2591114,,,,,,,2022-10-03,1,,,,,ヒカリエステート,0
902,4021003012191,新規,0,2022-10-03,2022-10-03,ハルン合同会社,,合同会社,神奈川県,相模原市中央区,田名４１６６－２５田名壱番館２０３号室,,14,152,2520244,,,,,,,2022-10-03,1,,,,,ハルン,0
904,4030001150333,新規,0,2022-10-03,2022-10-03,立野建設株式会社,,株式会社,埼玉県,さいたま市見沼区,春岡３丁目１３番地１スプリングヒル弐番館１０１,,11,104,3370008,,,,,,,2022-10-03,1,,,,,タテノケンセツ,0
908,4030003020294,新規,0,2022-10-03,2022-10-03,合同会社伸弦,,合同会社,埼玉県,川口市,東領家２丁目３４番３号ディアコート川口Ａ３０３,,11,203,3320003,,,,,,,2022-10-03,1,,,,,シンゲン,0
913,4040001125210,新規,0,2022-10-03,2022-10-03,株式会社ＳＧ,,株式会社,千葉県,船橋市,習志野台３丁目１４番２１号ジョワージファミーユ１－１０１号,,12,204,2740063,,,,,,,2022-10-03,1,,,,,エスジー,0
914,4040001125235,新規,0,2022-10-03,2022-10-03,千葉港運倉庫ＨＤ株式会社,,株式会社,千葉県,市原市,八幡海岸通８番地,,12,219,2900067,,,,,,,2022-10-03,1,,,,,チバコウウンソウコホールディングス,0
917,4040003020954,新規,0,2022-10-03,2022-10-03,トライリー合同会社,,合同会社,千葉県,船橋市,海神１丁目１１番６号Ｆｍａ－Ｉ－２号,00127990,12,204,2730021,,,,,,,2022-10-03,1,,,,,トライリー,0
918,4040005021744,新規,0,2022-10-03,2022-10-03,一般社団法人いのちのこえ,,その他の設立登記法人,千葉県,船橋市,湊町２丁目５番地１アイカワビル２Ｂ,,12,204,2730011,,,,,,,2022-10-03,1,,,,,イノチノコエ,0
921,4050001051736,新規,0,2022-10-03,2022-10-03,ＤＫ　ＭＩＴＭＯＴＯＲＳ株式会社,,株式会社,茨城県,常総市,豊岡町乙３５９１番地１,,08,211,3030041,,,,,,,2022-10-03,1,,,,,ディーケーミットモータース,0
922,4050003006894,新規,0,2022-10-03,2022-10-03,ＮＥＴＨＵ　ＣＥＹＬＯＮ合同会社,,合同会社,茨城県,つくば市,菅間３６８－３,,08,220,3001246,,,,,,,2022-10-03,1,,,,,ネトゥーセイロン,0
923,4060001035309,新規,0,2022-10-03,2022-10-03,株式会社田井中,,株式会社,栃木県,足利市,福富町４１６番地２,,09,202,3260331,,,,,,,2022-10-03,1,,,,,タイナカ,0
925,4070001039688,新規,0,2022-10-03,2022-10-03,株式会社アキュアート,,株式会社,群馬県,前橋市,箱田町５９４番地２リュミエールＡ－１１１号,,10,201,3710837,,,,,,,2022-10-03,1,,,,,アキュアート,0
933,4090003002171,新規,0,2022-10-03,2022-10-03,鴻源合同会社,,合同会社,山梨県,南巨摩郡富士川町,青柳町３３８－１,,19,368,4000501,,,,,,,2022-10-03,1,,,,,コウゲン,0
935,4100001035733,新規,0,2022-10-03,2022-10-03,株式会社ＳＳジャパン,,株式会社,長野県,小諸市,大字滋野甲３９３４番地１,,20,208,3840809,,,,,,,2022-10-03,1,,,,,エスエスジャパン,0
936,4100001035741,新規,0,2022-10-03,2022-10-03,株式会社大協塗装,,株式会社,長野県,長野市,大字大豆島２５９７－２,,20,201,3810022,,,,,,,2022-10-03,1,,,,,ダイキョウトソウ,0
937,4110001036994,新規,0,2022-10-03,2022-10-03,株式会社ここのやさい,,株式会社,新潟県,新潟市東区,上木戸３丁目１７番７号,,15,102,9500891,,,,,,,2022-10-03,1,,,,,ココノヤサイ,0
954,4120001249174,新規,0,2022-10-03,2022-10-03,株式会社Ｎｕ‐Ｂｒｉｄｇｅ,,株式会社,大阪府,大阪市西区,西本町１丁目１３番３１号３Ｆ,,27,106,5500005,,,,,,,2022-10-03,1,,,,,ニューブリッジ,0
955,4120001249190,新規,0,2022-10-03,2022-10-03,株式会社港栄タイヤサービス,,株式会社,大阪府,大阪市西区,安治川２丁目２番３０号,,27,106,5500026,,,,,,,2022-10-03,1,,,,,コウエイタイヤサービス,0
956,4120003022587,新規,0,2022-10-03,2022-10-03,合同会社プロシード,,合同会社,大阪府,門真市,下島町１４－２２,,27,223,5710075,,,,,,,2022-10-03,1,,,,,プロシード,0
960,4120005023212,新規,0,2022-10-03,2022-10-03,一般社団法人青柳レークサイド・ヴィラ管理組合,,その他の設立登記法人,大阪府,大阪市福島区,鷺洲３丁目４番１８－６０２号,,27,103,5530002,,,,,,,2022-10-03,1,,,,,アオヤギレークサイドヴィラカンリクミアイ,0
962,4120101066288,新規,0,2022-10-03,2022-10-03,株式会社阪祥,,株式会社,大阪府,岸和田市,田治米町５２１番地,,27,202,5960805,,,,,,,2022-10-03,1,,,,,ハンショウ,0
969,4120903004313,新規,0,2022-10-03,2022-10-03,合同会社リーヴェ,,合同会社,大阪府,豊中市,北桜塚３丁目１０番６－３０１号,,27,203,5600022,,,,,,,2022-10-03,1,,,,,リーヴェ,0
975,4130001072732,新規,0,2022-10-03,2022-10-03,Ｋ‐ｗｏｒｋｓ株式会社,,株式会社,京都府,京都市南区,上鳥羽南唐戸町１２２番地,,26,107,6018107,,,,,,,2022-10-03,1,,,,,ケイワークス,0
976,4130003008197,新規,0,2022-10-03,2022-10-03,Ｆｕｓｈｉｍｉ　Ｍａｒｔ合同会社,,合同会社,京都府,京都市伏見区,深草泓ノ壺町１１番９号１０３,,26,109,6128435,,,,,,,2022-10-03,1,,,,,フシミマート,0
977,4130003008214,新規,0,2022-10-03,2022-10-03,合同会社オカザキ,,合同会社,京都府,八幡市,八幡垣内山３１番地の１４,,26,210,6148011,,,,,,,2022-10-03,1,,,,,オカザキ,0
978,4130003008222,新規,0,2022-10-03,2022-10-03,Ｙ＆ＣＯＮＳＵＬＴＩＮＧ合同会社,,合同会社,京都府,長岡京市,開田４丁目２２－２２－５０７,,26,209,6170826,,,,,,,2022-10-03,1,,,,,ワイアンドコンサルティング,0
986,4140001127469,新規,0,2022-10-03,2022-10-03,株式会社刈菜Ｒｉａ,,株式会社,兵庫県,淡路市,岩屋９８３番地,,28,226,6562401,,,,,,,2022-10-03,1,,,,,カナリア,0
987,4140001127527,新規,0,2022-10-03,2022-10-03,株式会社富士建設,,株式会社,兵庫県,神戸市長田区,細田町３丁目１番１８－３号,,28,106,6530835,,,,,,,2022-10-03,1,,,,,フジケンセツ,0
990,4140003018179,新規,0,2022-10-03,2022-10-03,合同会社ＲＩＳＥ,,合同会社,兵庫県,芦屋市,陽光町８番２０－１１０８号,,28,206,6590034,,,,,,,2022-10-03,1,,,,,ライズ,0
994,4150001025845,新規,0,2022-10-03,2022-10-03,株式会社ｖａｃａ,,株式会社,奈良県,生駒市,西旭ケ丘１１番３６－１号,,29,209,6300261,,,,,,,2022-10-03,1,,,,,バカ,0
1001,4180001153164,新規,0,2022-10-03,2022-10-03,株式会社アット,,株式会社,愛知県,春日井市,林島町４丁目２番地１５,,23,206,4860854,,,,,,,2022-10-03,1,,,,,アット,0
1002,4180001153172,新規,0,2022-10-03,2022-10-03,ＳｕｂｌｉｍｅＧｏｌｆＪａｐａｎ株式会社,,株式会社,愛知県,名古屋市緑区,藤塚２丁目２０６番地,,23,114,4580813,,,,,,,2022-10-03,1,,,,,サブライムゴルフジャパン,0
1003,4180001153180,新規,0,2022-10-03,2022-10-03,ＳＫＭコンサルティング株式会社,,株式会社,愛知県,名古屋市中区,錦１丁目５番２７号いちご錦ビル４０３号室,,23,106,4600003,,,,,,,2022-10-03,1,,,,,エスケーエムコンサルティング,0
1004,4180001153197,新規,0,2022-10-03,2022-10-03,株式会社Ｗｅｌｌｎｅｓｓ　ａｎｄ　Ｒｅｃｏｖｅｒｙ　Ｐｒｏｍｏｔｉｏｎ,,株式会社,愛知県,名古屋市天白区,井口２丁目１２０８番地の１,,23,116,4680052,,,,,,,2022-10-03,1,,,,,ウェルネスアンドリカバリープロモーション,0
1005,4180001153214,新規,0,2022-10-03,2022-10-03,株式会社ＹＴＭ,,株式会社,愛知県,名古屋市昭和区,円上町２１番２５号,,23,107,4660054,,,,,,,2022-10-03,1,,,,,ワイティエム,0
1006,4180001153239,新規,0,2022-10-03,2022-10-03,株式会社ライズ,,株式会社,愛知県,名古屋市中川区,柳川町１９０３番地,,23,110,4540014,,,,,,,2022-10-03,1,,,,,ライズ,0
1007,4180003024314,新規,0,2022-10-03,2022-10-03,合同会社ＥＡＳＴ,,合同会社,愛知県,名古屋市中区,大須３丁目７番２８号エステムプラザ名古屋・栄プレミアム１１０１号,,23,106,4600011,,,,,,,2022-10-03,1,,,,,イースト,0
1011,4180005019948,新規,0,2022-10-03,2022-10-03,一般社団法人白兎,,その他の設立登記法人,愛知県,名古屋市緑区,乗鞍２丁目１６０２番地アイランドキャステル１０５号,,23,114,4580004,,,,,,,2022-10-03,1,,,,,ハクト,0
1016,4190001029792,新規,0,2022-10-03,2022-10-03,株式会社プロダクション玉屋,,株式会社,三重県,伊勢市,宮後３丁目２番１４号ラプラージュ１０１号室,,24,203,5160072,,,,,,,2022-10-03,1,,,,,プロダクションタマヤ,0
1019,4200001040491,新規,0,2022-10-03,2022-10-03,株式会社ＡＬＩＣＥ,,株式会社,岐阜県,多治見市,音羽町４丁目１０４番地－１０３号,,21,204,5070037,,,,,,,2022-10-03,1,,,,,アリス,0
1022,4200005013394,新規,0,2022-10-03,2022-10-03,一般社団法人コネクトプラス,,その他の設立登記法人,岐阜県,飛騨市,河合町角川６０６番地,,21,217,5094301,,,,,,,2022-10-03,1,,,,,コネクトプラス,0
1039,4290001099017,新規,0,2022-10-03,2022-10-03,イーグル建設株式会社,,株式会社,福岡県,朝倉市,甘木１７５４番地５,,40,228,8380068,,,,,,,2022-10-03,1,,,,,イーグルケンセツ,0
1040,4290001099033,新規,0,2022-10-03,2022-10-03,株式会社ＤＧＳ,,株式会社,福岡県,福岡市博多区,博多駅東２丁目５番１９号サンライフ第３ビル６Ｆ,,40,132,8120013,,,,,,,2022-10-03,1,,,,,ディージーエス,0
1041,4290001099041,新規,0,2022-10-03,2022-10-03,株式会社夢ｐｏｎｏ,,株式会社,福岡県,久留米市,小森野町２５２９－１－２－７０１,,40,203,8300019,,,,,,,2022-10-03,1,,,,,ユメポノ,0
1044,4290003013009,新規,0,2022-10-03,2022-10-03,合同会社Ｌｉｆｅ　ａｎｄ,,合同会社,福岡県,福岡市博多区,東那珂１丁目１５番１０－３０５号,,40,132,8120892,,,,,,,2022-10-03,1,,,,,ライフアンド,0
1047,4290805009591,新規,0,2022-10-03,2022-10-03,一般社団法人スマイルリング,,その他の設立登記法人,福岡県,北九州市小倉南区,湯川新町４丁目２６番３５－４０６号,,40,107,8000256,,,,,,,2022-10-03,1,,,,,スマイルリング,0
1048,4300001013082,新規,0,2022-10-03,2022-10-03,株式会社ＳＨＩＫＩＴＯ,,株式会社,佐賀県,小城市,小城町松尾４０８７番地１,,41,208,8450004,,,,,,,2022-10-03,1,,,,,シキト,0
1050,4310001018048,新規,0,2022-10-03,2022-10-03,株式会社ファミリー商事,,株式会社,長崎県,長崎市,三景台町１３番２０号,,42,201,8500824,,,,,,,2022-10-03,1,,,,,ファミリーショウジ,0
1055,4330001030141,新規,0,2022-10-03,2022-10-03,株式会社ＩＳＥＲＩ,,株式会社,熊本県,熊本市中央区,本荘４丁目７番９号セジュール本荘１０２,,43,101,8600811,,,,,,,2022-10-03,1,,,,,イセリ,0
1059,4340001025066,新規,0,2022-10-03,2022-10-03,株式会社ＢＬＯＯＭ,,株式会社,鹿児島県,姶良市,西餅田２０４０番地１５,,46,225,8995431,,,,,,,2022-10-03,1,,,,,ブルーム,0
1061,4350001017970,新規,0,2022-10-03,2022-10-03,株式会社トウセイグリット,,株式会社,宮崎県,西諸県郡高原町,大字後川内４７８４番地３,,45,361,8894413,,,,,,,2022-10-03,1,,,,,トウセイグリット,0
1076,4390001017034,新規,0,2022-10-03,2022-10-03,株式会社ＦＫファーム,,株式会社,山形県,東田川郡庄内町,杉浦字杉野２９番地,,06,428,9997765,,,,,,,2022-10-03,1,,,,,エフケイファーム,0
1086,4430001087584,新規,0,2022-10-03,2022-10-03,アクシアパートナーズ株式会社,,株式会社,北海道,札幌市中央区,北四条西４丁目１番地７ＭＭＳ札幌駅前ビル１階,,01,101,0600004,,,,,,,2022-10-03,1,,,,,アクシアパートナーズ,0
1096,4700150111992,新規,0,2022-10-03,2022-10-03,ＨＥＢＥＩ　ＫＵＯＹＵＥ　ＴＥＣＨＮＯＬＯＧＹ　ＣＯＲＰＯＲＡＴＩＯＮ　ＬＩＭＩＴＥＤ,,外国会社等,,,,,,,,ＨＥＢＥＩＳＨＥＮＧ　ＳＨＩＪＩＡＺＨＵＡＮＧ　ＺＯＮＧＨＥＢＡＯＳＨＵＩＱＵ　ＧＵＡＮＷＥＩＨＵＩ　ＺＯＮＧＨＥＬＯＵ　１＃１７０２,,,,,,2022-10-03,1,,,,,ホーペイクオイエーテクノロジーコーポレーシヨンリミテツド,0
1108,5010001229723,新規,0,2022-10-03,2022-10-03,セルサスジュエリー株式会社,,株式会社,東京都,千代田区,紀尾井町４番地１ニューオータニ本館アーケード階ブティックミュゲ,,13,101,1020094,,,,,,,2022-10-03,1,,,,,セルサスジュエリー,0
1109,5010001229839,新規,0,2022-10-03,2022-10-03,株式会社ＹＯＵ　ＳＴＹＬＥ,,株式会社,東京都,中央区,銀座５丁目１５番１号,,13,102,1040061,,,,,,,2022-10-03,1,,,,,ユウスタイル,0
1111,5010003038800,新規,0,2022-10-03,2022-10-03,ＰＭＵ．Ｒ合同会社,,合同会社,東京都,中央区,日本橋中洲７番７－６０６号,,13,102,1030008,,,,,,,2022-10-03,1,,,,,ピーエムユードットアール,0
1112,5010101015346,新規,0,2022-10-03,2022-10-03,Ｂｉｚ　Ｄｅｓｉｇｎ株式会社,,株式会社,東京都,八王子市,明神町４丁目１番２号,,13,201,1920046,,,,,,,2022-10-03,1,,,,,ビズデザイン,0
1119,5010401169981,新規,0,2022-10-03,2022-10-03,株式会社麻布ホーム,,株式会社,東京都,港区,南麻布２丁目３番１１－１１０５号,,13,103,1060047,,,,,,,2022-10-03,1,,,,,アザブホーム,0
1120,5010401170015,新規,0,2022-10-03,2022-10-03,株式会社ＦＲＯＮＴＬＩＮＥ,,株式会社,東京都,港区,南青山６丁目２番９号ＫＳビル２Ｆ,,13,103,1070062,,,,,,,2022-10-03,1,,,,,フロントライン,0
1121,5010403028590,新規,0,2022-10-03,2022-10-03,ｎｏ３合同会社,,合同会社,東京都,港区,赤坂６丁目１９番５４－３１１号,,13,103,1070052,,,,,,,2022-10-03,1,,,,,ナンバースリー,0
1122,5010405021453,新規,0,2022-10-03,2022-10-03,境古河ファシリティ１一般社団法人,,その他の設立登記法人,東京都,港区,六本木１丁目６番１号泉ガーデンタワー,,13,103,1060032,,,,,,,2022-10-03,1,,,,,サカイコガファシリティワン,0
1123,5010601061922,新規,0,2022-10-03,2022-10-03,名胤海外株式会社,,株式会社,東京都,墨田区,横川３丁目６番７号３－Ｍ室,,13,107,1300003,,,,,,,2022-10-03,1,,,,,メイインカイガイ,0
1127,5010603009754,新規,0,2022-10-03,2022-10-03,合同会社ｌｕｘ　ｇｏｌｄｆｉｓｈ,,合同会社,東京都,墨田区,本所４丁目３番１２－１０２号,,13,107,1300004,,,,,,,2022-10-03,1,,,,,ラックスゴールドフィッシュ,0
1128,5010701043275,新規,0,2022-10-03,2022-10-03,株式会社Ｂｉｂｉｉ,,株式会社,東京都,品川区,上大崎２丁目１５番１９号ＭＧ目黒駅前,,13,109,1410021,,,,,,,2022-10-03,1,,,,,ビビー,0
1134,5010903007672,新規,0,2022-10-03,2022-10-03,ダブリュ・アンド・カンパニー合同会社,,合同会社,東京都,世田谷区,北沢２丁目２７番９号１Ｆ,,13,112,1550031,,,,,,,2022-10-03,1,,,,,ダブリュアンドカンパニー,0
1135,5010903007680,新規,0,2022-10-03,2022-10-03,Ｚｚｚ合同会社,,合同会社,東京都,世田谷区,豪徳寺１丁目５４番２号,,13,112,1540021,,,,,,,2022-10-03,1,,,,,ズーズーズー,0
1142,5011001150002,新規,0,2022-10-03,2022-10-03,株式会社Ｃｙｇａｍｅｓ　Ｃａｐｉｔａｌ,,株式会社,東京都,渋谷区,南平台町１６番１７号,,13,113,1500036,,,,,,,2022-10-03,1,,,,,サイゲームスキャピタル,0
1143,5011001150010,新規,0,2022-10-03,2022-10-03,株式会社とまりぎ,,株式会社,東京都,渋谷区,南平台町４番８号南平台アジアマンション２０９,,13,113,1500036,,,,,,,2022-10-03,1,,,,,トマリギ,0
1144,5011001150035,新規,0,2022-10-03,2022-10-03,株式会社Ｓａｎａｒｅ,,株式会社,東京都,渋谷区,渋谷１丁目１０番３－１００１号,,13,113,1500002,,,,,,,2022-10-03,1,,,,,サナーレ,0
1145,5011001150043,新規,0,2022-10-03,2022-10-03,株式会社ｈｏｗ,,株式会社,東京都,渋谷区,神宮前１丁目４番２０号パークコート神宮前６０４,,13,113,1500001,,,,,,,2022-10-03,1,,,,,ハウ,0
1146,5011001150101,新規,0,2022-10-03,2022-10-03,株式会社ＥＮ,,株式会社,東京都,渋谷区,鉢山町１３－１３ヒルサイドウエストＢ１Ｆ,,13,113,1500035,,,,,,,2022-10-03,1,,,,,エン,0
1148,5011003015450,新規,0,2022-10-03,2022-10-03,合同会社ＬＩＳＥＬ,,合同会社,東京都,渋谷区,道玄坂１丁目１０番８号渋谷道玄坂東急ビル２Ｆ－Ｃ,,13,113,1500043,,,,,,,2022-10-03,1,,,,,リゼル,0
1149,5011003015467,新規,0,2022-10-03,2022-10-03,合同会社番頭,,合同会社,東京都,渋谷区,渋谷２丁目１９―１５宮益坂ビルディング６０９,,13,113,1500002,,,,,,,2022-10-03,1,,,,,バントウ,0
1155,5011101100344,新規,0,2022-10-03,2022-10-03,株式会社ＥＬＡＢＥＬ,,株式会社,東京都,新宿区,新宿３丁目５番６号,,13,104,1600022,,,,,,,2022-10-03,1,,,,,エラベル,0
1163,5011701025651,新規,0,2022-10-03,2022-10-03,株式会社エンビジョン,,株式会社,東京都,江戸川区,北小岩８丁目１２番１２－４１４号,,13,123,1330051,,,,,,,2022-10-03,1,,,,,エンビジョン,0
1167,5011801041334,新規,0,2022-10-03,2022-10-03,株式会社しろくろ鈴鈴,,株式会社,東京都,足立区,谷在家２丁目１番１０号Ｐｒｅｎｄｒｅ２０１,,13,121,1230863,,,,,,,2022-10-03,1,,,,,シロクロリンリン,0
1168,5011801041342,新規,0,2022-10-03,2022-10-03,株式会社ＮＩＳＨＩＺＡＫＩ,,株式会社,東京都,足立区,西綾瀬２丁目２０番１０号,,13,121,1200014,,,,,,,2022-10-03,1,,,,,ニシザキ,0
1173,5012701017275,新規,0,2022-10-03,2022-10-03,潤豊産業株式会社,,株式会社,東京都,西東京市,ひばりが丘３丁目２番５１号Ｒ－０５号,,13,229,2020001,,,,,,,2022-10-03,1,,,,,ジュンホウサンギョウ,0
1174,5012801021862,新規,0,2022-10-03,2022-10-03,ＴＰｏｗｅｒ株式会社,,株式会社,東京都,昭島市,武蔵野３丁目４番１－５０１号,,13,207,1960021,,,,,,,2022-10-03,1,,,,,ティーパワー,0
1175,5013301049741,新規,0,2022-10-03,2022-10-03,株式会社イクケイ,,株式会社,東京都,豊島区,長崎５丁目１２番４号,,13,116,1710051,,,,,,,2022-10-03,1,,,,,イクケイ,0
1189,5021001077079,新規,0,2022-10-03,2022-10-03,株式会社Ｄ‐ＡＢＩＬＩＴＹ,,株式会社,神奈川県,藤沢市,辻堂新町１丁目４番３０－１００３号,,14,205,2510042,,,,,,,2022-10-03,1,,,,,ディーアビリティ,0
1190,5021001077104,新規,0,2022-10-03,2022-10-03,Ｂｅｖｅｒｉｃｈ株式会社,,株式会社,神奈川県,藤沢市,辻堂神台２丁目２－１アイクロス湘南５Ｅ号室,,14,205,2510041,,,,,,,2022-10-03,1,,,,,ビバリッチ,0
1195,5030001150290,新規,0,2022-10-03,2022-10-03,株式会社うらわ餃子,,株式会社,埼玉県,さいたま市南区,大字大谷口７２０番地８,,11,108,3360042,,,,,,,2022-10-03,1,,,,,ウラワギョウザ,0
1196,5030001150324,新規,0,2022-10-03,2022-10-03,株式会社ディーロット,,株式会社,埼玉県,さいたま市桜区,西堀１０丁目８番１９号,,11,106,3380832,,,,,,,2022-10-03,1,,,,,ディーロット,0
1203,5030005020993,新規,0,2022-10-03,2022-10-03,特定非営利活動法人かぐや姫,,その他の設立登記法人,埼玉県,さいたま市緑区,芝原２丁目１９番１２号,,11,109,3360917,,,,,,,2022-10-03,1,,,,,カグヤヒメ,0
1205,5040001125234,新規,0,2022-10-03,2022-10-03,株式会社ＨＭＣＣ,,株式会社,千葉県,松戸市,根木内１８２番地の９－１０１,,12,207,2700011,,,,,,,2022-10-03,1,,,,,エイチエムシーシー,0
1206,5040001125242,新規,0,2022-10-03,2022-10-03,株式会社Ｆｌｏｒ,,株式会社,千葉県,市川市,市川南１丁目１番４号,,12,203,2720033,,,,,,,2022-10-03,1,,,,,フロル,0
1207,5040001125259,新規,0,2022-10-03,2022-10-03,株式会社アンドモア,,株式会社,千葉県,千葉市稲毛区,稲毛１丁目１２番２７号ラフォーレ稲毛２０２号,,12,103,2630034,,,,,,,2022-10-03,1,,,,,アンドモア,0
1208,5040001125275,新規,0,2022-10-03,2022-10-03,株式会社ＫＤケアサービス,,株式会社,千葉県,松戸市,根木内６２４番地の２,,12,207,2700011,,,,,,,2022-10-03,1,,,,,ケイディーケアサービス,0
1209,5040003020912,新規,0,2022-10-03,2022-10-03,ＳＵＭＩＣＯ　ＬＡＮＫＡ　ＭＯＴＯＲ合同会社,,合同会社,千葉県,柏市,布瀬４番地４,,12,217,2701464,,,,,,,2022-10-03,1,,,,,スミコランカモーター,0
1210,5040003020929,新規,0,2022-10-03,2022-10-03,フィンクス合同会社,,合同会社,千葉県,印旛郡酒々井町,中央台２丁目９－４,,12,322,2850922,,,,,,,2022-10-03,1,,,,,フィンクス,0
1211,5040003020937,新規,0,2022-10-03,2022-10-03,合同会社しくみＬａｂ,,合同会社,千葉県,船橋市,飯山満町２丁目３６６番地１－３０４号,,12,204,2740822,,,,,,,2022-10-03,1,,,,,シクミラボ,0
1212,5040003020945,新規,0,2022-10-03,2022-10-03,宮電合同会社,,合同会社,千葉県,習志野市,谷津２丁目１８番２８号,,12,216,2750026,,,,,,,2022-10-03,1,,,,,ミヤデン,0
1216,5050001051735,新規,0,2022-10-03,2022-10-03,株式会社ＦＵＫＵ,,株式会社,茨城県,土浦市,桜ケ丘町２９番３６号,,08,203,3000832,,,,,,,2022-10-03,1,,,,,フク,0
1222,5060003004252,新規,0,2022-10-03,2022-10-03,合同会社あおい,,合同会社,栃木県,小山市,大字高椅８７８番地２,,09,208,3230154,,,,,,,2022-10-03,1,,,,,アオイ,0
1231,5070001039687,新規,0,2022-10-03,2022-10-03,株式会社四ツ葉,,株式会社,群馬県,前橋市,上大島町１５１番地１,,10,201,3792153,,,,,,,2022-10-03,1,,,,,ヨツバ,0
1244,5100005012918,新規,0,2022-10-03,2022-10-03,一般社団法人日本弁論連盟,,その他の設立登記法人,長野県,塩尻市,大字広丘郷原７８６番地,,20,215,3990704,,,,,,,2022-10-03,1,,,,,ニッポンベンロンレンメイ,0
1259,5120001249173,新規,0,2022-10-03,2022-10-03,株式会社モンテッジ,,株式会社,大阪府,大阪市天王寺区,上本町２丁目１番２６－５０４号,,27,109,5430001,,,,,,,2022-10-03,1,,,,,モンテッジ,0
1260,5120001249198,新規,0,2022-10-03,2022-10-03,株式会社ＧＬＯＩＲＥ,,株式会社,大阪府,大阪市淀川区,西宮原１丁目８－２４新大阪第３ドイビル６Ｆ,,27,123,5320004,,,,,,,2022-10-03,1,,,,,グロワール,0
1262,5120003022586,新規,0,2022-10-03,2022-10-03,ＢａｃＹａｒｄ合同会社,,合同会社,大阪府,門真市,三ツ島３丁目６,,27,223,5710015,,,,,,,2022-10-03,1,,,,,バックヤード,0
1264,5120101066287,新規,0,2022-10-03,2022-10-03,株式会社美咲電気,,株式会社,大阪府,堺市北区,北花田町４丁９５番地２３,,27,146,5918002,,,,,,,2022-10-03,1,,,,,ミサキデンキ,0
1268,5120901046554,新規,0,2022-10-03,2022-10-03,株式会社Ｎｏ．１０,,株式会社,大阪府,豊中市,利倉３丁目９番４号,,27,203,5610845,,,,,,,2022-10-03,1,,,,,ナンバーテン,0
1275,5122003002428,新規,0,2022-10-03,2022-10-03,合同会社爽籟,,合同会社,大阪府,柏原市,今町２丁目５番１３号,,27,221,5820002,,,,,,,2022-10-03,1,,,,,ソウライ,0
1278,5130001072715,新規,0,2022-10-03,2022-10-03,株式会社竹内装飾,,株式会社,京都府,京都市伏見区,久我西出町１４番地１４０,,26,109,6128496,,,,,,,2022-10-03,1,,,,,タケウチソウショク,0
1281,5130003008213,新規,0,2022-10-03,2022-10-03,ＫＡＹＡ　Ｃｒｅａｔｉｏｎ合同会社,,合同会社,京都府,京都市左京区,岡崎入江町５０番地４,,26,103,6068322,,,,,,,2022-10-03,1,,,,,カヤクリエーション,0
1287,5140001127501,新規,0,2022-10-03,2022-10-03,株式会社ＩＫ,,株式会社,兵庫県,神戸市灘区,摩耶海岸通１丁目３番２１－７０５号,,28,102,6570855,,,,,,,2022-10-03,1,,,,,アイケイ,0
1288,5140001127550,新規,0,2022-10-03,2022-10-03,株式会社トータス,,株式会社,兵庫県,宝塚市,末成町１８番２２号,,28,214,6650044,,,,,,,2022-10-03,1,,,,,トータス,0
1291,5140005026328,新規,0,2022-10-03,2022-10-03,一般社団法人西垣ファーム,,その他の設立登記法人,兵庫県,神戸市北区,八多町附物８５５番地,,28,109,6511343,,,,,,,2022-10-03,1,,,,,ニシガキファーム,0
1292,5150001025844,新規,0,2022-10-03,2022-10-03,株式会社つづく,,株式会社,奈良県,香芝市,良福寺７８７番地１,,29,210,6390235,,,,,,,2022-10-03,1,,,,,ツヅク,0
1293,5170005006979,新規,0,2022-10-03,2022-10-03,医療法人さんさんクリニック,,その他の設立登記法人,和歌山県,和歌山市,直川５６９番地１,,30,201,6408481,,,,,,,2022-10-03,1,,,,,サンサンクリニック,0
1301,5180001153139,新規,0,2022-10-03,2022-10-03,Ｆｉｒｓｔ　Ｒｉｎｇ株式会社,,株式会社,愛知県,名古屋市中区,上前津２丁目１４番５号（ＡＳレジデンス上前津９０６号）,,23,106,4600013,,,,,,,2022-10-03,1,,,,,ファーストリング,0
1302,5180001153171,新規,0,2022-10-03,2022-10-03,株式会社サントップ,,株式会社,愛知県,小牧市,大字大草４５８１番地３,,23,219,4850802,,,,,,,2022-10-03,1,,,,,サントップ,0
1303,5180001153196,新規,0,2022-10-03,2022-10-03,株式会社小川,,株式会社,愛知県,名古屋市西区,新道１丁目１１番１１号エスポアしんみち２０２号,,23,104,4510043,,,,,,,2022-10-03,1,,,,,オガワ,0
1304,5180001153205,新規,0,2022-10-03,2022-10-03,株式会社ＧＬＡＵＸ　ＤＬ,,株式会社,愛知県,名古屋市名東区,平和が丘４丁目２０番地,,23,115,4650097,,,,,,,2022-10-03,1,,,,,グラウクスディーエル,0
1305,5180001153213,新規,0,2022-10-03,2022-10-03,株式会社ＴＴＢ,,株式会社,愛知県,名古屋市昭和区,円上町２１番２５号,,23,107,4660054,,,,,,,2022-10-03,1,,,,,ティティビィ,0
1306,5180001153238,新規,0,2022-10-03,2022-10-03,株式会社Ｔｈａｉ　Ｐｏｗｅｒ　Ｌｉｎｋｓ,,株式会社,愛知県,名古屋市東区,葵１丁目２番６号,,23,102,4610004,,,,,,,2022-10-03,1,,,,,タイパワーリンクス,0
1309,5180003024321,新規,0,2022-10-03,2022-10-03,合同会社グリーンショップ,,合同会社,愛知県,名古屋市名東区,香流３丁目５０９番地ＫＡＮＡＲＥＢＬＤ．６０３号,,23,115,4650005,,,,,,,2022-10-03,1,,,,,グリーンショップ,0
1311,5190001029783,新規,0,2022-10-03,2022-10-03,株式会社ＮＳアカウンティング,,株式会社,三重県,津市,高茶屋７丁目５番４４号,,24,201,5140819,,,,,,,2022-10-03,1,,,,,エヌエスアカウンティング,0
1325,5260001037275,新規,0,2022-10-03,2022-10-03,株式会社Ｍｉｙｕ,,株式会社,岡山県,岡山市中区,海吉１８０７‐１４栄ビル１Ｆ,,33,102,7038261,,,,,,,2022-10-03,1,,,,,ミユ,0
1334,5290001099024,新規,0,2022-10-03,2022-10-03,株式会社ｉＤＥＡＳ,,株式会社,福岡県,大野城市,牛頸２丁目３番１６号２０２号,,40,219,8160971,,,,,,,2022-10-03,1,,,,,アイディアズ,0
1335,5290001099049,新規,0,2022-10-03,2022-10-03,株式会社ＨＡＮＤＳ,,株式会社,福岡県,福岡市東区,松島１丁目３番２３－７０１号アクシオン箱崎東アクア,,40,131,8120062,,,,,,,2022-10-03,1,,,,,ハンズ,0
1339,5290801028909,新規,0,2022-10-03,2022-10-03,ＳＴ　ｓｉｇｎ株式会社,,株式会社,福岡県,北九州市小倉北区,堅林町９番２号,,40,106,8020000,,,,,,,2022-10-03,1,,,,,エスティーサイン,0
1340,5290801028925,新規,0,2022-10-03,2022-10-03,株式会社丸豊,,株式会社,福岡県,北九州市小倉北区,上到津４丁目１１番３０号,,40,106,8030845,,,,,,,2022-10-03,1,,,,,マルトヨ,0
1343,5300001013081,新規,0,2022-10-03,2022-10-03,Ｍｏｍｏ’ｓコミュニケーション株式会社,,株式会社,佐賀県,唐津市,神田３１０１番地１エコシス６－１０２号室,,41,202,8470824,,,,,,,2022-10-03,1,,,,,モモズコミュニケーション,0
1357,5370001049086,新規,0,2022-10-03,2022-10-03,株式会社フトゥーロ,,株式会社,宮城県,仙台市青葉区,大町１丁目２番１８クエストワン４０１号,,04,101,9800804,,,,,,,2022-10-03,1,,,,,フトゥーロ,0
1358,5390001017033,新規,0,2022-10-03,2022-10-03,株式会社Ｃａｒｒｙ’ｓ,,株式会社,山形県,山形市,南二番町２番２９号サンライハイツ１－Ｅ号,,06,201,9902442,,,,,,,2022-10-03,1,,,,,キャリーズ,0
1363,5430001087559,新規,0,2022-10-03,2022-10-03,株式会社日高ウイングファーム,,株式会社,北海道,沙流郡日高町,字清畠１４６番地,,01,601,0592245,,,,,,,2022-10-03,1,,,,,ヒダカウイングファーム,0
1371,5700150111991,新規,0,2022-10-03,2022-10-03,Ｓｃｈｏｌｌ’ｓ　Ｗｅｌｌｎｅｓｓ　Ｃｏｍｐａｎｙ　Ｂ．Ｖ．,,外国会社等,,,,,,,,Ｈｅｒｉｋｅｒｂｅｒｇｗｅｇ２３８，Ｌｕｎａ　ＡｒｅｎＡ，１１０１ＣＭ　Ａｍｓｔｅｒｄａｍ，Ｎｅｔｈｅｒｌａｎｄｓ,,,,,,2022-10-03,1,,,,,ショールズウェルネスカンパニービーブイ,0
1382,6010003038782,新規,0,2022-10-03,2022-10-03,合同会社オルタナ１７,,合同会社,東京都,千代田区,丸の内３丁目１番１号東京共同会計事務所内,,13,101,1000005,,,,,,,2022-10-03,1,,,,,オルタナセブンティーン,0
1393,6010401169980,新規,0,2022-10-03,2022-10-03,株式会社ｋｏｎｏｍｉ,,株式会社,東京都,港区,南青山３丁目１番３６号青山丸竹ビル６階,,13,103,1070062,,,,,,,2022-10-03,1,,,,,コノミ,0
1396,6010403028367,新規,0,2022-10-03,2022-10-03,合同会社ムラキング,,合同会社,東京都,港区,白金５丁目１１－２ラグジュアリーアパートメント白金４０２,,13,103,1080072,,,,,,,2022-10-03,1,,,,,ムラキング,0
1397,6010405021452,新規,0,2022-10-03,2022-10-03,境古河ファシリティ特定目的会社,,その他の設立登記法人,東京都,港区,六本木１丁目６番１号泉ガーデンタワー,,13,103,1060032,,,,,,,2022-10-03,1,,,,,サカイコガファシリティ,0
1402,6010601061921,新規,0,2022-10-03,2022-10-03,株式会社推しメーター,,株式会社,東京都,墨田区,文花１丁目１８－１３,,13,107,1310044,,,,,,,2022-10-03,1,,,,,オシメーター,0
1404,6010603009753,新規,0,2022-10-03,2022-10-03,合同会社パワー,,合同会社,東京都,墨田区,錦糸１丁目７番１７号コーポ岩永２０２号室,,13,107,1300013,,,,,,,2022-10-03,1,,,,,パワー,0
1406,6010701043266,新規,0,2022-10-03,2022-10-03,株式会社ＧＴ,,株式会社,東京都,品川区,豊町６丁目１８番９号,,13,109,1420042,,,,,,,2022-10-03,1,,,,,ジーティー,0
1407,6010701043274,新規,0,2022-10-03,2022-10-03,株式会社ＫＳＹ,,株式会社,東京都,品川区,大井７丁目６番３号,,13,109,1400014,,,,,,,2022-10-03,1,,,,,ケーエスワイ,0
1408,6010701043282,新規,0,2022-10-03,2022-10-03,株式会社マグモ,,株式会社,東京都,品川区,旗の台２丁目１３番９号ガーデニア旗の台ＥＡＳＴ４０１,,13,109,1420064,,,,,,,2022-10-03,1,,,,,マグモ,0
1410,6010705003431,新規,0,2022-10-03,2022-10-03,一般社団法人日本総合福祉研究機構,,その他の設立登記法人,東京都,品川区,東五反田３丁目７番１１号オープンレジデンス島津山Ｗ２０６号,,13,109,1410022,,,,,,,2022-10-03,1,,,,,ニッポンソウゴウフクシケンキュウキコウ,0
1416,6010901051696,新規,0,2022-10-03,2022-10-03,株式会社ＫＡＭＩ,,株式会社,東京都,世田谷区,上用賀１丁目６番２号,,13,112,1580098,,,,,,,2022-10-03,1,,,,,ケーエムアイ,0
1417,6010901051705,新規,0,2022-10-03,2022-10-03,Ｒｅｎｅｘ株式会社,,株式会社,東京都,世田谷区,南烏山２丁目９番６号,,13,112,1570062,,,,,,,2022-10-03,1,,,,,リネックス,0
1418,6010903007671,新規,0,2022-10-03,2022-10-03,合同会社ＺＡｉｕＮ,,合同会社,東京都,世田谷区,用賀３丁目２２番１２号,,13,112,1580097,,,,,,,2022-10-03,1,,,,,ザイウン,0
1429,6011001150018,新規,0,2022-10-03,2022-10-03,プロップ株式会社,,株式会社,東京都,渋谷区,恵比寿３丁目１５番６号,,13,113,1500013,,,,,,,2022-10-03,1,,,,,プロップ,0
1430,6011001150034,新規,0,2022-10-03,2022-10-03,株式会社ＺＯＥＴＲＯＰＥ,,株式会社,東京都,目黒区,三田２丁目１０番３５－３０３号中銀目黒マンシオン,,13,110,1530062,,,,,,,2022-10-03,1,,,,,ゾートロープ,0
1431,6011005009747,新規,0,2022-10-03,2022-10-03,ＳＴＭ協同組合,,その他の設立登記法人,東京都,渋谷区,道玄坂１丁目１５－３プリメーラ道玄坂３２５号,,13,113,1500043,,,,,,,2022-10-03,1,,,,,エスティーエム,0
1432,6011101100319,新規,0,2022-10-03,2022-10-03,株式会社ＳＴＲ,,株式会社,東京都,新宿区,百人町１丁目１８番９－５０３号,,13,104,1690073,,,,,,,2022-10-03,1,,,,,エスティーアール,0
1433,6011101100335,新規,0,2022-10-03,2022-10-03,株式会社アスクレ,,株式会社,東京都,新宿区,北新宿１丁目８番１７号ヒジカタビル２階,,13,104,1690074,,,,,,,2022-10-03,1,,,,,アスクレ,0
1434,6011101100368,新規,0,2022-10-03,2022-10-03,株式会社競馬開運堂,,株式会社,東京都,新宿区,喜久井町３７番７号,,13,104,1620044,,,,,,,2022-10-03,1,,,,,ケイバカイウンドウ,0
1436,6011103012198,新規,0,2022-10-03,2022-10-03,合同会社Ｌｉｅｂｅ,,合同会社,東京都,新宿区,高田馬場１丁目３１番８号,,13,104,1690075,,,,,,,2022-10-03,1,,,,,リーベ,0
1437,6011103012223,新規,0,2022-10-03,2022-10-03,Ａｒｔｉｓａｎ　Ｇｌｏｂａｌ合同会社,,合同会社,東京都,新宿区,富久町３７－３,,13,104,1620067,,,,,,,2022-10-03,1,,,,,アルチザングローバル,0
1441,6011603003705,新規,0,2022-10-03,2022-10-03,合同会社ＩＣＨＩＵＲＵ,,合同会社,東京都,練馬区,東大泉６丁目２６－４,,13,120,1780063,,,,,,,2022-10-03,1,,,,,イチウル,0
1444,6011801041317,新規,0,2022-10-03,2022-10-03,株式会社百通,,株式会社,東京都,葛飾区,奥戸２丁目２４番２０－２０３号,,13,122,1240022,,,,,,,2022-10-03,1,,,,,ヒャクツウ,0
1445,6011801041341,新規,0,2022-10-03,2022-10-03,ＤＨ　Ｆａｃｔｏｒｙ株式会社,,株式会社,東京都,足立区,新田１丁目１８番１１号,,13,121,1230865,,,,,,,2022-10-03,1,,,,,ディーエイチファクトリー,0
1446,6011803005294,新規,0,2022-10-03,2022-10-03,ＭＤＳ合同会社,,合同会社,東京都,葛飾区,新小岩１丁目４１番１１号,,13,122,1240024,,,,,,,2022-10-03,1,,,,,エムディーエス,0
1464,6020001148351,新規,0,2022-10-03,2022-10-03,オプティサーブ株式会社,,株式会社,神奈川県,横浜市泉区,上飯田町８７６番地４,,14,116,2450018,,,,,,,2022-10-03,1,,,,,オプティサーブ,0
1468,6021001077078,新規,0,2022-10-03,2022-10-03,株式会社ＭＴ　ＬＡＴＥＳＴ,,株式会社,神奈川県,愛甲郡愛川町,中津７２８８番地脇島ビル１０１,,14,401,2430303,,,,,,,2022-10-03,1,,,,,エムティーレイテスト,0
1469,6021001077103,新規,0,2022-10-03,2022-10-03,株式会社丸三,,株式会社,神奈川県,藤沢市,辻堂４丁目９番２３号,,14,205,2510047,,,,,,,2022-10-03,1,,,,,マルサン,0
1471,6021003012149,新規,0,2022-10-03,2022-10-03,純情惑星合同会社,,合同会社,神奈川県,小田原市,鴨宮１６１－６,,14,206,2500874,,,,,,,2022-10-03,1,,,,,スナオプラネット,0
1481,6030001150331,新規,0,2022-10-03,2022-10-03,Ｅｖｏｌｕｔｅｃ株式会社,,株式会社,埼玉県,吉川市,美南１丁目２１番地１,,11,243,3420038,,,,,,,2022-10-03,1,,,,,エヴォルテック,0
1485,6030003020268,新規,0,2022-10-03,2022-10-03,すりーる合同会社,,合同会社,埼玉県,熊谷市,新堀３４６番地３号,,11,202,3600841,,,,,,,2022-10-03,1,,,,,スリール,0
1486,6030003020301,新規,0,2022-10-03,2022-10-03,合同会社３４,,合同会社,埼玉県,さいたま市南区,大字太田窪２１１０番地１０,,11,108,3360015,,,,,,,2022-10-03,1,,,,,サーティーフォー,0
1487,6030005020992,新規,0,2022-10-03,2022-10-03,司法書士法人合格通り事務所,,その他の設立登記法人,埼玉県,川口市,並木２丁目４番５－２０２号,,11,203,3320034,,,,,,,2022-10-03,1,,,,,ゴウカクドオリジムショ,0
1489,6040001125241,新規,0,2022-10-03,2022-10-03,株式会社Ｓｏｍｅ　Ｌｉｆｅ,,株式会社,千葉県,千葉市花見川区,南花園１丁目４４番１０号南花園ビル３階,,12,102,2620022,,,,,,,2022-10-03,1,,,,,サムライフ,0
1490,6040001125266,新規,0,2022-10-03,2022-10-03,株式会社大塚農場,00127981,株式会社,千葉県,山武市,井之内１４５９番地,,12,237,2891304,,,,,,,2022-10-03,1,,,,,オオツカノウジョウ,0
1494,6040003020936,新規,0,2022-10-03,2022-10-03,合同会社ＥＸＥ　ＲＥＳＥＡＲＣＨ,,合同会社,千葉県,松戸市,新松戸３丁目２８９番地ＳＢＣ第一ビル２階,,12,207,2700034,,,,,,,2022-10-03,1,,,,,エグゼリサーチ,0
1495,6040003020944,新規,0,2022-10-03,2022-10-03,合同会社大和,,合同会社,千葉県,習志野市,屋敷１丁目８番１３号,,12,216,2750004,,,,,,,2022-10-03,1,,,,,ヤマト,0
1496,6040003020952,新規,0,2022-10-03,2022-10-03,ＷＯＲＬＤ　ＭＯＴＯＲＳ合同会社,,合同会社,千葉県,山武郡芝山町,高田１１８０番地３－Ａ,,12,409,2891623,,,,,,,2022-10-03,1,,,,,ワールドモータース,0
1506,6060001035298,新規,0,2022-10-03,2022-10-03,株式会社ＬＩＢ,,株式会社,栃木県,小山市,東城南１丁目３番地２１,,09,208,3230829,,,,,,,2022-10-03,1,,,,,エルアイビー,0
1507,6060001035307,新規,0,2022-10-03,2022-10-03,株式会社両毛ロジスティクス,,株式会社,栃木県,佐野市,関川町５８０番地,,09,204,3270811,,,,,,,2022-10-03,1,,,,,リョウモウロジスティクス,0
1520,6090001017797,新規,0,2022-10-03,2022-10-03,株式会社Ｅ．Ｍ．Ｕ,,株式会社,山梨県,甲府市,富士見１丁目１０番２２号,,19,201,4000027,,,,,,,2022-10-03,1,,,,,イーエムユー,0
1546,6120001249164,新規,0,2022-10-03,2022-10-03,株式会社マーリン,,株式会社,大阪府,大阪市西区,南堀江４丁目３１番５－１６０９号,,27,106,5500015,,,,,,,2022-10-03,1,,,,,マーリン,0
1547,6120001249172,新規,0,2022-10-03,2022-10-03,株式会社Ｒｅｂｏｒｎ,,株式会社,大阪府,大阪市東住吉区,杭全３丁目３番２０号,,27,121,5460002,,,,,,,2022-10-03,1,,,,,リボーン,0
1548,6120001249189,新規,0,2022-10-03,2022-10-03,株式会社ユニーク,,株式会社,大阪府,大阪市中央区,船場中央２丁目１番４号船場センタービル４号館１階１０８号,,27,128,5410055,,,,,,,2022-10-03,1,,,,,ユニーク,0
1549,6120001249214,新規,0,2022-10-03,2022-10-03,株式会社モノローグ,,株式会社,大阪府,大阪市福島区,福島１丁目２番３５号２Ｆ,,27,103,5530003,,,,,,,2022-10-03,1,,,,,モノローグ,0
1550,6120001249222,新規,0,2022-10-03,2022-10-03,株式会社頃安住建,,株式会社,大阪府,大阪市大正区,千島３丁目１９番２０号,,27,108,5510003,,,,,,,2022-10-03,1,,,,,コロヤスジュウケン,0
1553,6120003022585,新規,0,2022-10-03,2022-10-03,合同会社Ｔｏｐ　Ｆｏｒｍ,,合同会社,大阪府,大阪市北区,梅田１丁目２番２号大阪駅前第２ビル２階５－６号室,,27,127,5300001,,,,,,,2022-10-03,1,,,,,トップフォーム,0
1554,6120005023210,新規,0,2022-10-03,2022-10-03,一般社団法人関西リサイクル経済交流協会,,その他の設立登記法人,大阪府,大阪市中央区,平野町１丁目６番８号メロディハイム５０６号室,,27,128,5410046,,,,,,,2022-10-03,1,,,,,カンサイリサイクルケイザイコウリュウキョウカイ,0
1558,6120901046545,新規,0,2022-10-03,2022-10-03,株式会社高建設,00127988,株式会社,大阪府,摂津市,鳥飼西２丁目２８番３２号,,27,224,5660072,,,,,,,2022-10-03,1,,,,,タカケンセツ,0
1569,6130003008179,新規,0,2022-10-03,2022-10-03,合同会社ＲＰＣ,,合同会社,京都府,京都市右京区,西院春栄町４３番地１春栄ハイツ３０８号,,26,108,6150005,,,,,,,2022-10-03,1,,,,,アールピーシー,0
1570,6130003008212,新規,0,2022-10-03,2022-10-03,中信合同会社,,合同会社,京都府,亀岡市,大井町並河１丁目８番１号１０４号,,26,206,6210013,,,,,,,2022-10-03,1,,,,,チユウシン,0
1571,6130005016584,新規,0,2022-10-03,2022-10-03,一般社団法人日本美容サロン経営サポート協会,,その他の設立登記法人,京都府,京都市下京区,玉津島町２９４,,26,106,6008427,,,,,,,2022-10-03,1,,,,,ニホンビヨウサロンケイエイサポートキョウカイ,0
1588,6140001127525,新規,0,2022-10-03,2022-10-03,株式会社ＲＩＧＡＤＥＬ,,株式会社,兵庫県,神戸市中央区,東川崎町１丁目８番４号,,28,110,6500044,,,,,,,2022-10-03,1,,,,,リガデル,0
1589,6140003018185,新規,0,2022-10-03,2022-10-03,合同会社加古川タイヤカンパニー,,合同会社,兵庫県,加古川市,野口町水足１３７３番地の２,,28,210,6750019,,,,,,,2022-10-03,1,,,,,カコガワタイヤカンパニー,0
1598,6180001153138,新規,0,2022-10-03,2022-10-03,株式会社虹彩,,株式会社,愛知県,名古屋市中区,丸の内３丁目７番２６号,,23,106,4600002,,,,,,,2022-10-03,1,,,,,ニジイロ,0
1599,6180001153162,新規,0,2022-10-03,2022-10-03,株式会社ジーオーツー,,株式会社,愛知県,名古屋市中川区,尾頭橋２丁目５番２５号,,23,110,4540012,,,,,,,2022-10-03,1,,,,,ジーオーツー,0
1600,6180001153204,新規,0,2022-10-03,2022-10-03,栄グローバル株式会社,,株式会社,愛知県,名古屋市中村区,那古野１丁目４７番１号名古屋国際センター１８階　Ｋｏｒｅａ　ＧＰ　Ｃｅｎｔｅｒ,,23,105,4500001,,,,,,,2022-10-03,1,,,,,サカエグローバル,0
1601,6180001153212,新規,0,2022-10-03,2022-10-03,株式会社ＳＵＳ,,株式会社,愛知県,名古屋市東区,赤塚町９番地（ユーハウス白壁４Ｂ号）,,23,102,4610026,,,,,,,2022-10-03,1,,,,,スース,0
1602,6180001153229,新規,0,2022-10-03,2022-10-03,株式会社ユニバース,,株式会社,愛知県,名古屋市中村区,中島町１丁目１６番地,,23,105,4530022,,,,,,,2022-10-03,1,,,,,ユニバース,0
1605,6180003024304,新規,0,2022-10-03,2022-10-03,合同会社ＣＡＫＩＣＩ,,合同会社,愛知県,あま市,七宝町鯰橋８丁目１５番地１,,23,237,4970015,,,,,,,2022-10-03,1,,,,,チャクジ,0
1606,6180003024320,新規,0,2022-10-03,2022-10-03,合同会社Ｎｅｘｔ・Ｓｅｖｅｎ,,合同会社,愛知県,名古屋市西区,児玉３丁目９番１１号,,23,104,4510066,,,,,,,2022-10-03,1,,,,,ネクストセブン,0
1608,6190001029790,新規,0,2022-10-03,2022-10-03,鈴鹿グリーンエナジー株式会社,,株式会社,三重県,鈴鹿市,白子町２９２５番地の１,,24,207,5100244,,,,,,,2022-10-03,1,,,,,スズカグリーンエナジー,0
1610,6220001025051,新規,0,2022-10-03,2022-10-03,株式会社リブレリア,,株式会社,石川県,金沢市,尾山町７番３０号尾山ヒルズ・４１０号,,17,201,9200918,,,,,,,2022-10-03,1,,,,,リブレリア,0
1616,6240001060377,新規,0,2022-10-03,2022-10-03,万福貿易株式会社,,株式会社,広島県,福山市,松永町２丁目１９番１号,,34,207,7290104,,,,,,,2022-10-03,1,,,,,マンプクボウエキ,0
1617,6240001060410,新規,0,2022-10-03,2022-10-03,株式会社Ｌｏｔｕｓ,,株式会社,広島県,広島市中区,東千田町１丁目１－５５,,34,101,7300053,,,,,,,2022-10-03,1,,,,,ロータス,0
1618,6240001060419,新規,0,2022-10-03,2022-10-03,株式会社ＥＮ　ＣＡＲＧＯ,,株式会社,広島県,廿日市市,大野１２５２番地５,,34,213,7390488,,,,,,,2022-10-03,1,,,,,イーエヌカーゴ,0
1619,6240001060427,新規,0,2022-10-03,2022-10-03,株式会社ｙｏｕ．ｌｕｃｋ,,株式会社,広島県,東広島市,高屋町杵原１３７３番地５１,,34,212,7392102,,,,,,,2022-10-03,1,,,,,ユーラック,0
1620,6240003005826,新規,0,2022-10-03,2022-10-03,ＩＴＰＯＩＮＴ合同会社,,合同会社,広島県,福山市,駅家町万能倉４５２－１,,34,207,7210000,,,,,,,2022-10-03,1,,,,,アイティーポイント,0
1621,6250001019785,新規,0,2022-10-03,2022-10-03,株式会社ＢＥＮＴＥＮ,,株式会社,山口県,防府市,大字東佐波令３１５８番地の１,,35,206,7470061,,,,,,,2022-10-03,1,,,,,ベンテン,0
1623,6260001037274,新規,0,2022-10-03,2022-10-03,株式会社ゼンシン,,株式会社,岡山県,倉敷市,五日市５７３番地２,,33,202,7100041,,,,,,,2022-10-03,1,,,,,ゼンシン,0
1634,6290001099031,新規,0,2022-10-03,2022-10-03,ＳＯＲＡ株式会社,,株式会社,福岡県,福岡市東区,名島５丁目５６番３５－１０２号,,40,131,8130043,,,,,,,2022-10-03,1,,,,,ソラ,0
1635,6290001099056,新規,0,2022-10-03,2022-10-03,株式会社のばるくん,,株式会社,福岡県,福岡市中央区,天神１丁目１番１号,,40,133,8100001,,,,,,,2022-10-03,1,,,,,ノバルクン,0
1637,6290003013015,新規,0,2022-10-03,2022-10-03,合同会社ＳＯＥＲＵ,,合同会社,福岡県,福岡市西区,今津４８０１－２０３,,40,135,8190165,,,,,,,2022-10-03,1,,,,,ソエル,0
1641,6340001025048,新規,0,2022-10-03,2022-10-03,Ｍｋ２株式会社,,株式会社,鹿児島県,肝属郡肝付町,前田３７９５番地,,46,492,8931206,,,,,,,2022-10-03,1,,,,,エムケーツー,0
1650,6360001031011,新規,0,2022-10-03,2022-10-03,株式会社良宗農園,,株式会社,沖縄県,名護市,字旭川１０５２番地,,47,209,9050003,,,,,,,2022-10-03,1,,,,,ヨシムネノウエン,0
1653,6380001033146,新規,0,2022-10-03,2022-10-03,株式会社葵,,株式会社,福島県,いわき市,内郷高坂町１丁目９５番地の７,,07,204,9738408,,,,,,,2022-10-03,1,,,,,アオイ,0
1657,6380003005283,新規,0,2022-10-03,2022-10-03,合同会社ＭＯＪＩ,,合同会社,福島県,郡山市,田村町桜ケ丘２丁目３１３番地,,07,203,9630723,,,,,,,2022-10-03,1,,,,,モジ,0
1658,6380005012625,新規,0,2022-10-03,2022-10-03,一般社団法人福島ＥＮＧＥＫＩ　ＢＡＳＥ,,その他の設立登記法人,福島県,双葉郡双葉町,大字長塚字町西１番１１号双葉町駅西住宅Ｂ－１,,07,546,9791471,,,,,,,2022-10-03,1,,,,,フクシマエンゲキベース,0
1660,6390001017032,新規,0,2022-10-03,2022-10-03,株式会社エスコンサルティング,,株式会社,山形県,山形市,七日町２丁目７－４６,,06,201,9900042,,,,,,,2022-10-03,1,,,,,エスコンサルティング,0
1667,6430001087574,新規,0,2022-10-03,2022-10-03,株式会社Ｓガレージ,,株式会社,北海道,岩見沢市,東町一条６丁目１３６３番地１９,,01,210,0680013,,,,,,,2022-10-03,1,,,,,エスガレージ,0
1670,6470001019276,新規,0,2022-10-03,2022-10-03,株式会社日輪,,株式会社,香川県,仲多度郡多度津町,大字南鴨５４７－１,,37,404,7640026,,,,,,,2022-10-03,1,,,,,,0
1672,6500001024495,新規,0,2022-10-03,2022-10-03,株式会社ＲＥＳＯＬＶＥ　ＴＩＥ,,株式会社,愛媛県,伊予市,尾崎６８１番地１,,38,210,7993127,,,,,,,2022-10-03,1,,,,,リゾルブティー,0
1682,7010003038798,新規,0,2022-10-03,2022-10-03,上北台プロパティー合同会社,,合同会社,東京都,千代田区,丸の内３丁目１番１号東京共同会計事務所内,,13,101,1000005,,,,,,,2022-10-03,1,,,,,カミキタダイプロパティー,0
1687,7010101015344,新規,0,2022-10-03,2022-10-03,株式会社ｇｏ　ｗｉｔｈ,,株式会社,東京都,八王子市,暁町２丁目１８番２２号,,13,201,1920043,,,,,,,2022-10-03,1,,,,,,0
1697,7010401169798,新規,0,2022-10-03,2022-10-03,Ｓｅｖｅｎ　Ｓｅａｓ株式会社,,株式会社,東京都,港区,西麻布４丁目１－１１－８０３,,13,103,1060031,,,,,,,2022-10-03,1,,,,,セブンシーズ,0
1698,7010401169939,新規,0,2022-10-03,2022-10-03,株式会社Ｓｏｉｌ＆Ｒｏｏｔｓ,,株式会社,東京都,港区,赤坂６丁目９－１－２０２,,13,103,1070052,,,,,,,2022-10-03,1,,,,,ソイルアンドルーツ,0
1699,7010401169996,新規,0,2022-10-03,2022-10-03,株式会社ＡＬＭ,,株式会社,東京都,港区,赤坂３丁目１３番４号,,13,103,1070052,,,,,,,2022-10-03,1,,,,,エーエルエム,0
1703,7010601061920,新規,0,2022-10-03,2022-10-03,株式会社カインドループ,,株式会社,東京都,墨田区,吾妻橋２丁目４－１－７０１,,13,107,1300001,,,,,,,2022-10-03,1,,,,,カインドループ,0
1704,7010601061929,新規,0,2022-10-03,2022-10-03,株式会社フレミング,,株式会社,東京都,江東区,牡丹１丁目２番２号,,13,108,1350046,,,,,,,2022-10-03,1,,,,,フレミング,0
1705,7010603009752,新規,0,2022-10-03,2022-10-03,ブリアンアベニュー合同会社,,合同会社,東京都,江東区,大島３丁目８番７号,,13,108,1360072,,,,,,,2022-10-03,1,,,,,ブリアンアベニュー,0
1713,7010901051695,新規,0,2022-10-03,2022-10-03,株式会社すみいち,,株式会社,東京都,世田谷区,奥沢５丁目１番１１号メゾンドジョワ２０２,,13,112,1580083,,,,,,,2022-10-03,1,,,,,スミイチ,0
1714,7010903007670,新規,0,2022-10-03,2022-10-03,合同会社カイオリキカク,,合同会社,東京都,世田谷区,粕谷１丁目１７番４号,,13,112,1570063,,,,,,,2022-10-03,1,,,,,カイオリキカク,0
1717,7011001150017,新規,0,2022-10-03,2022-10-03,株式会社ｂａｎｓｈａｋｕ,,株式会社,東京都,渋谷区,宇田川町２番１号渋谷ホームズ１３０５,,13,113,1500042,,,,,,,2022-10-03,1,,,,,バンシャク,0
1718,7011001150033,新規,0,2022-10-03,2022-10-03,株式会社ＴＡＣＴホールディングス,,株式会社,東京都,目黒区,柿の木坂３丁目８番１７号,,13,110,1520022,,,,,,,2022-10-03,1,,,,,タクトホールディングス,0
1719,7011001150058,新規,0,2022-10-03,2022-10-03,株式会社プロマネ,,株式会社,東京都,渋谷区,恵比寿南３丁目７番１８号,,13,113,1500022,,,,,,,2022-10-03,1,,,,,プロマネ,0
1720,7011003015465,新規,0,2022-10-03,2022-10-03,合同会社京浜島物流,,合同会社,東京都,渋谷区,千駄ヶ谷４丁目２５番２号修養団ＳＹＤビル株式会社フジタ内,,13,113,1510051,,,,,,,2022-10-03,1,,,,,ケイヒンジマブツリュウ,0
1722,7011005009754,新規,0,2022-10-03,2022-10-03,一般社団法人Ｏｇｇｉ　ｃｌｉｎｉｃ,,その他の設立登記法人,東京都,渋谷区,宇田川町３３－８エミリアビル３階,,13,113,1500042,,,,,,,2022-10-03,1,,,,,オッジクリニック,0
1724,7011101100334,新規,0,2022-10-03,2022-10-03,株式会社Ｙａｍａ．ｃｏ,,株式会社,東京都,新宿区,新宿４丁目２番７号,,13,104,1600022,,,,,,,2022-10-03,1,,,,,ヤマコー,0
1727,7011105010430,新規,0,2022-10-03,2022-10-03,特定非営利活動法人日中青年学生友好協会,,その他の設立登記法人,東京都,新宿区,西新宿１丁目２５番１号新宿センタービル３８階,,13,104,1600023,,,,,,,2022-10-03,1,,,,,ニッチュウセイネンガクセイユウコウキョウカイ,0
1732,7011701025658,新規,0,2022-10-03,2022-10-03,森谷海株式会社,,株式会社,東京都,江戸川区,平井７丁目２０番１３－２０１,,13,123,1320035,,,,,,,2022-10-03,1,,,,,シンヤカイ,0
1734,7011801041332,新規,0,2022-10-03,2022-10-03,株式会社ＨＩＢＩＫＡ,,株式会社,東京都,足立区,梅田７丁目１７番９号３階,,13,121,1230851,,,,,,,2022-10-03,1,,,,,ヒビカ,0
1735,7011801041340,新規,0,2022-10-03,2022-10-03,株式会社宸松,,株式会社,東京都,足立区,伊興本町１丁目１１番５号,,13,121,1210807,,,,,,,2022-10-03,1,,,,,シンソウ,0
1736,7011803005293,新規,0,2022-10-03,2022-10-03,合同会社Ｌｉ‐Ｌｉ,,合同会社,東京都,足立区,西伊興２丁目３番１１号パルクレールＩＩ２０１,00127979,13,121,1210824,,,,,,,2022-10-03,1,,,,,リリ,0
1744,7013301049723,新規,0,2022-10-03,2022-10-03,株式会社Ｓｉｄｅ　Ｂ,,株式会社,東京都,豊島区,南池袋１丁目９番１８号,,13,116,1710022,,,,,,,2022-10-03,1,,,,,サイドビー,0
1746,7020001148367,新規,0,2022-10-03,2022-10-03,株式会社Ｈｉｒｏｔａｖａｌ,,株式会社,神奈川県,横浜市金沢区,高舟台２丁目３９番１５号,,14,108,2360044,,,,,,,2022-10-03,1,,,,,ヒロタバル,0
1750,7020003022470,新規,0,2022-10-03,2022-10-03,合同会社ＳＡＭ,,合同会社,神奈川県,横浜市都筑区,早渕３丁目３８番３５号,,14,118,2240025,,,,,,,2022-10-03,1,,,,,,0
1756,7030003020267,新規,0,2022-10-03,2022-10-03,星野国際合同会社,,合同会社,埼玉県,川越市,南台３丁目２番地７南大塚マンション３０６号,,11,201,3501165,,,,,,,2022-10-03,1,,,,,ホシノコクサイ,0
1758,7040001125208,新規,0,2022-10-03,2022-10-03,株式会社ＮＴＰ‐ＪＰ,,株式会社,千葉県,八街市,文違３０１番地１７３３千葉教育学院ビル１０１号,,12,230,2891104,,,,,,,2022-10-03,1,,,,,エヌティーピージェイピー,0
1759,7040001125224,新規,0,2022-10-03,2022-10-03,株式会社Ｒｕｈｅ,,株式会社,千葉県,市川市,原木２丁目５番７号,,12,203,2720004,,,,,,,2022-10-03,1,,,,,ルーエ,0
1760,7040001125232,新規,0,2022-10-03,2022-10-03,株式会社チェリッシュ,,株式会社,千葉県,木更津市,太田１丁目１５番４－１０２号,,12,206,2920044,,,,,,,2022-10-03,1,,,,,チェリッシュ,0
1761,7040001125249,新規,0,2022-10-03,2022-10-03,株式会社ＫＡＴＡＴＩ,,株式会社,千葉県,東金市,八坂台５丁目３０番地６Ａ,,12,213,2830801,,,,,,,2022-10-03,1,,,,,カタチ,0
1762,7040001125265,新規,0,2022-10-03,2022-10-03,株式会社元気＆Ｙ,,株式会社,千葉県,八千代市,村上１９４１－１４ソーシャルレジデンス成田６３０号室,,12,221,2760028,,,,,,,2022-10-03,1,,,,,ゲンキアンドワイ,0
1765,7040003020927,新規,0,2022-10-03,2022-10-03,装希合同会社,,合同会社,千葉県,館山市,香９７７番地,,12,205,2940301,,,,,,,2022-10-03,1,,,,,ソウキ,0
1766,7040003020935,新規,0,2022-10-03,2022-10-03,ＺＥＲＯ　ＤＥＮＴ合同会社,,合同会社,千葉県,船橋市,西習志野３丁目３９番１５号,,12,204,2740815,,,,,,,2022-10-03,1,,,,,ゼロデント,0
1767,7040003020943,新規,0,2022-10-03,2022-10-03,ＨＥＩＷＡ合同会社,,合同会社,千葉県,白井市,清水口２丁目１番２１棟１４０１号,,12,232,2701435,,,,,,,2022-10-03,1,,,,,ヘイワ,0
1768,7050001051733,新規,0,2022-10-03,2022-10-03,株式会社ＶＩＶ,,株式会社,茨城県,水戸市,城南３丁目１６番１０－２０３号コトヴェール城南,,08,201,3100803,,,,,,,2022-10-03,1,,,,,ヴィヴ,0
1769,7050003006891,新規,0,2022-10-03,2022-10-03,Ｔｓｕｋｕｂａ　Ｇｌｏｂａｌ　Ｂａｓｅ合同会社,,合同会社,茨城県,つくば市,上広岡８９番地１,,08,220,3050041,,,,,,,2022-10-03,1,,,,,ツクバグローバルベース,0
1772,7070001039685,新規,0,2022-10-03,2022-10-03,株式会社ＪＵＮＩＣＯ,,株式会社,群馬県,前橋市,天川原町１丁目２番地３グリーンキャピタル前橋１０２号室,,10,201,3710803,,,,,,,2022-10-03,1,,,,,ジュニコ,0
1780,7080401026068,新規,0,2022-10-03,2022-10-03,まるな株式会社,,株式会社,静岡県,浜松市中区,葵西５丁目２３－４０,,22,131,4338111,,,,,,,2022-10-03,1,,,,,マルナ,0
1781,7090003002160,新規,0,2022-10-03,2022-10-03,ボンチプロモーションズ合同会社,,合同会社,山梨県,甲斐市,竜王新町７０９－２,,19,210,4000111,,,,,,,2022-10-03,1,,,,,ボンチプロモーションズ,0
1784,7100003006705,新規,0,2022-10-03,2022-10-03,白ほたる合同会社,,合同会社,長野県,北佐久郡軽井沢町,大字発地１７１２番地,,20,321,3890113,,,,,,,2022-10-03,1,,,,,シロホタル,0
1798,7120001249171,新規,0,2022-10-03,2022-10-03,株式会社嶋忠,,株式会社,大阪府,大阪市城東区,放出西２丁目１７番１９号,,27,118,5360011,,,,,,,2022-10-03,1,,,,,シマチュウ,0
1799,7120001249188,新規,0,2022-10-03,2022-10-03,株式会社ＯＴＫペットカンパニー,,株式会社,大阪府,守口市,八雲東町２丁目４０番１３号,,27,209,5700021,,,,,,,2022-10-03,1,,,,,オーティーケーペットカンパニー,0
1800,7120001249196,新規,0,2022-10-03,2022-10-03,ＹＭ株式会社,,株式会社,大阪府,大阪市城東区,東中浜３丁目１２番１０号,,27,118,5360023,,,,,,,2022-10-03,1,,,,,ワイエム,0
1801,7120001249213,新規,0,2022-10-03,2022-10-03,礼沐株式会社,,株式会社,大阪府,大阪市住之江区,粉浜西２丁目７番１７－３０１号室,,27,125,5590007,,,,,,,2022-10-03,1,,,,,レイモク,0
1806,7120101066277,新規,0,2022-10-03,2022-10-03,Ｒ＆Ｒ株式会社,,株式会社,大阪府,岸和田市,西大路町２０３番地の５９,,27,202,5960802,,,,,,,2022-10-03,1,,,,,アールアンドアール,0
1810,7120901046552,新規,0,2022-10-03,2022-10-03,リノア・ジャパン株式会社,,株式会社,大阪府,吹田市,千里山東４丁目５番８号,,27,205,5650842,,,,,,,2022-10-03,1,,,,,リノアジャパン,0
1816,7122001036269,新規,0,2022-10-03,2022-10-03,株式会社ｆｌｅｕｖｌｅｕ,,株式会社,大阪府,東大阪市,足代１丁目１４番３号,,27,227,5770841,,,,,,,2022-10-03,1,,,,,フルーヴル,0
1817,7122001036277,新規,0,2022-10-03,2022-10-03,株式会社ＫＡＭＩＹＯＵ,,株式会社,大阪府,柏原市,本郷４丁目１２６番地の４,,27,221,5820001,,,,,,,2022-10-03,1,,,,,カミュ,0
1823,7130003008211,新規,0,2022-10-03,2022-10-03,合同会社侑伸,,合同会社,京都府,京都市伏見区,久我森の宮町２番地１６０,,26,109,6128495,,,,,,,2022-10-03,1,,,,,ユウシン,0
1833,7140001127508,新規,0,2022-10-03,2022-10-03,ビーラボ株式会社,,株式会社,兵庫県,神戸市中央区,元町通４丁目６番２０号,,28,110,6500022,,,,,,,2022-10-03,1,,,,,ビーラボ,0
1834,7140001127557,新規,0,2022-10-03,2022-10-03,株式会社マグノリア,,株式会社,兵庫県,宝塚市,南口２丁目１３－３０－Ｄ,,28,214,6650011,,,,,,,2022-10-03,1,,,,,マグノリア,0
1835,7140003018192,新規,0,2022-10-03,2022-10-03,合同会社ＳＴＬＵＣＥ,,合同会社,兵庫県,神戸市灘区,森後町２丁目１番６－２０１号,,28,102,6570028,,,,,,,2022-10-03,1,,,,,ストルーチェ,0
1836,7150001025842,新規,0,2022-10-03,2022-10-03,ならいろＨＯＭＥ株式会社,,株式会社,奈良県,奈良市,五条西２丁目７番１７号,,29,201,6308034,,,,,,,2022-10-03,1,,,,,ナライロホーム,0
1839,7170001017292,新規,0,2022-10-03,2022-10-03,株式会社みらい,,株式会社,和歌山県,和歌山市,北島３２５番地２０５,,30,201,6408403,,,,,,,2022-10-03,1,,,,,ミライ,0
1840,7170001017301,新規,0,2022-10-03,2022-10-03,株式会社Ｒｉｔａ,,株式会社,和歌山県,和歌山市,神前１４６番地１,,30,201,6408314,,,,,,,2022-10-03,1,,,,,リタ,0
1845,7180001153153,新規,0,2022-10-03,2022-10-03,ＶＯＩＣＨＡＴ株式会社,,株式会社,愛知県,名古屋市天白区,原４丁目１４０１番地,,23,116,4680015,,,,,,,2022-10-03,1,,,,,ボイチャ,0
1846,7180001153178,新規,0,2022-10-03,2022-10-03,株式会社ＲＡＩＳＥ‐Ａ,,株式会社,愛知県,丹羽郡扶桑町,大字南山名字馬場４８番地,,23,362,4800105,,,,,,,2022-10-03,1,,,,,ライズエー,0
1847,7180001153186,新規,0,2022-10-03,2022-10-03,ＬＢ株式会社,,株式会社,愛知県,名古屋市守山区,大字中志段味字下寺林６番地の１９,,23,113,4630002,,,,,,,2022-10-03,1,,,,,エルビー,0
1848,7180001153194,新規,0,2022-10-03,2022-10-03,青木サービス株式会社,,株式会社,愛知県,あま市,七宝町伊福鍛治屋前３２番地,,23,237,4970005,,,,,,,2022-10-03,1,,,,,アオキサービス,0
1849,7180001153203,新規,0,2022-10-03,2022-10-03,株式会社小西工務店,,株式会社,愛知県,江南市,鹿子島町中１３１番地,,23,217,4838008,,,,,,,2022-10-03,1,,,,,コニシコウムテン,0
1850,7180001153211,新規,0,2022-10-03,2022-10-03,株式会社ＳＭＩＬＥ２５,,株式会社,愛知県,春日井市,大留町７丁目１０番地１,,23,206,4870024,,,,,,,2022-10-03,1,,,,,スマイルニジュウゴ,0
1852,7180303005457,新規,0,2022-10-03,2022-10-03,ＯＤＯＺ合同会社,,合同会社,愛知県,豊田市,平井町８丁目３番地２,,23,211,4710011,,,,,,,2022-10-03,1,,,,,オーディーオージー,0
1854,7190002024690,新規,0,2022-10-03,2022-10-03,有限会社ヤマヤ,,有限会社,三重県,三重郡川越町,大字豊田一色２２５番地,,24,344,5108123,,,,,,,2022-10-03,1,,,,,ヤマヤ,0
1855,7190003004097,新規,0,2022-10-03,2022-10-03,合同会社ユージン,,合同会社,三重県,鈴鹿市,江島本町３７－１２,,24,207,5100234,,,,,,,2022-10-03,1,,,,,ユージン,0
1856,7200001040480,新規,0,2022-10-03,2022-10-03,株式会社ＪＹＤ,,株式会社,岐阜県,瑞穂市,別府１６６７番地１,,21,216,5010222,,,,,,,2022-10-03,1,,,,,ジェーワイディー,0
1858,7230001019539,新規,0,2022-10-03,2022-10-03,株式会社ＡｌｐａｃａＣｏｆｆｅｅ,,株式会社,富山県,富山市,婦中町下坂倉１番地２３,,16,201,9392715,,,,,,,2022-10-03,1,,,,,アルパカコーヒー,0
1863,7250001019784,新規,0,2022-10-03,2022-10-03,株式会社ｏｔｔｏ,,株式会社,山口県,柳井市,中央３丁目２番５号,,35,212,7420035,,,,,,,2022-10-03,1,,,,,オット,0
1864,7250003003150,新規,0,2022-10-03,2022-10-03,ｇｏｏｄ　ｏｌｄ合同会社,,合同会社,山口県,下関市,幡生宮の下町１７番１号,,35,201,7510829,,,,,,,2022-10-03,1,,,,,グッドオールド,0
1867,7260003004049,新規,0,2022-10-03,2022-10-03,スコットアラン出版合同会社,,合同会社,岡山県,岡山市北区,奥田本町２１番６号レジデンス奥田１０１,,33,101,7000932,,,,,,,2022-10-03,1,,,,,スコットアランシュッパン,0
1873,7290001099055,新規,0,2022-10-03,2022-10-03,株式会社ＫＳＫグローバルロジスティックス,,株式会社,福岡県,福岡市東区,箱崎ふ頭５丁目８番４号,,40,131,8120051,,,,,,,2022-10-03,1,,,,,ケーエスケーグローバルロジスティックス,0
1874,7290001099063,新規,0,2022-10-03,2022-10-03,株式会社ＣＵＬＴＢＬＡＮ,,株式会社,福岡県,糸島市,二丈深江１４５６番地１ヴィライチキＤ号室,,40,230,8191601,,,,,,,2022-10-03,1,,,,,カルトブラン,0
1875,7290003013006,新規,0,2022-10-03,2022-10-03,合同会社ルーナエレオーネ．,,合同会社,福岡県,福岡市博多区,博多駅前３丁目２７番２４号,,40,132,8120011,,,,,,,2022-10-03,1,,,,,ルーナエレオーネ,0
1876,7290003013014,新規,0,2022-10-03,2022-10-03,ＢＥＴＡ合同会社,,合同会社,福岡県,福岡市中央区,天神４丁目６－２８天神ファーストビル７階,,40,133,8100001,,,,,,,2022-10-03,1,,,,,ベータ,0
1884,7340003003918,新規,0,2022-10-03,2022-10-03,合同会社大吉,,合同会社,鹿児島県,霧島市,牧園町高千穂３８１１番地４５,,46,218,8996603,,,,,,,2022-10-03,1,,,,,ダイキチ,0
1901,7380001033145,新規,0,2022-10-03,2022-10-03,株式会社ダブル・レインボー,,株式会社,福島県,郡山市,安積町荒井字安倍５番地の１１１,,07,203,9630111,,,,,,,2022-10-03,1,,,,,ダブルレインボー,0
1909,7460101007255,新規,0,2022-10-03,2022-10-03,株式会社ＥＬＦ,,株式会社,北海道,帯広市,南の森西３丁目３番地１,,01,207,0800862,,,,,,,2022-10-03,1,,,,,エルフ,0
1910,7460103001487,新規,0,2022-10-03,2022-10-03,合同会社ＭＷＭコーポレーション,,合同会社,北海道,中川郡幕別町,札内共栄町３７番地５,,01,643,0890538,,,,,,,2022-10-03,1,,,,,エムダブリューエムコーポレーション,0
1911,7470001019275,新規,0,2022-10-03,2022-10-03,暮らしの交通株式会社,,株式会社,香川県,三豊市,仁尾町仁尾辛３５番地３,,37,208,7691406,,,,,,,2022-10-03,1,,,,,クラシノコウツウ,0
1915,7480001011867,新規,0,2022-10-03,2022-10-03,ＫＳＫインテリジェンス株式会社,,株式会社,徳島県,徳島市,南佐古六番町５番５号,,36,201,7700036,,,,,,,2022-10-03,1,,,,,ケーエスケーインテリジェンス,0
1916,7490001010298,新規,0,2022-10-03,2022-10-03,よつばライフサポート株式会社,,株式会社,高知県,高知市,大川筋２丁目３番２６号,,39,201,7800052,,,,,,,2022-10-03,1,,,,,ヨツバライフサポート,0
1936,8010001229836,新規,0,2022-10-03,2022-10-03,株式会社ネクサスソリューション,,株式会社,東京都,中央区,銀座１丁目３番３号Ｇ１ビル７階,,13,102,1040061,,,,,,,2022-10-03,1,,,,,ネクサスソリューション,0
1937,8010001229844,新規,0,2022-10-03,2022-10-03,Ｃａｎｎａｂｉｓ　Ｂａｎｋ株式会社,,株式会社,東京都,千代田区,平河町２丁目５番５号,,13,101,1020093,,,,,,,2022-10-03,1,,,,,カンナビスバンク,0
1938,8010001229852,新規,0,2022-10-03,2022-10-03,株式会社ＩＴＳｅｒｖｉｃｅ,,株式会社,東京都,千代田区,岩本町１丁目１１－２,,13,101,1010032,,,,,,,2022-10-03,1,,,,,アイティサービス,0
1941,8010003038789,新規,0,2022-10-03,2022-10-03,ＰＡＧ　Ｒｅｎｅｗａｂｌｅｓ　Ｆａｃｉｌｉｔｉｅｓ合同会社,,合同会社,東京都,千代田区,霞が関３丁目２番５号霞が関ビルディング３１階,,13,101,1000013,,,,,,,2022-10-03,1,,,,,ピーエージーリニューワブルズファシリティーズ,0
1942,8010003038797,新規,0,2022-10-03,2022-10-03,かしわ台プロパティー合同会社,,合同会社,東京都,千代田区,丸の内３丁目１番１号東京共同会計事務所内,,13,101,1000005,,,,,,,2022-10-03,1,,,,,カシワダイプロパティー,0
1943,8010101015343,新規,0,2022-10-03,2022-10-03,株式会社ＫＳＫ,,株式会社,東京都,八王子市,四谷町６１３番地５Ｂ３０１,,13,201,1930813,,,,,,,2022-10-03,1,,,,,ケーエスケー,0
1944,8010103002001,新規,0,2022-10-03,2022-10-03,合同会社Ｂｅａｎｓ,,合同会社,東京都,八王子市,別所２丁目３番地６－２０３,,13,201,1920363,,,,,,,2022-10-03,1,,,,,,0
1946,8010401169987,新規,0,2022-10-03,2022-10-03,株式会社ＡＦＫバスターズ,,株式会社,東京都,港区,高輪４丁目３番８号,,13,103,1080074,,,,,,,2022-10-03,1,,,,,エーエフケーバスターズ,0
1947,8010401169995,新規,0,2022-10-03,2022-10-03,ＡＩ　Ｐｉｃａｓｓｏ株式会社,,株式会社,東京都,港区,赤坂３丁目１３番４号,,13,103,1070052,,,,,,,2022-10-03,1,,,,,エーアイピカソ,0
1950,8010403028588,新規,0,2022-10-03,2022-10-03,ドリーム合同会社,,合同会社,東京都,港区,高輪３丁目４番１３号第二高輪偕成ビル５階,,13,103,1080074,,,,,,,2022-10-03,1,,,,,ドリーム,0
1953,8010601061928,新規,0,2022-10-03,2022-10-03,Ｇｒａｐｈｉａ株式会社,,株式会社,東京都,江東区,有明１丁目５番２－１２０８号,,13,108,1350063,,,,,,,2022-10-03,1,,,,,グラフィア,0
1961,8010801033297,新規,0,2022-10-03,2022-10-03,株式会社Ｔｅｔｏ　ｖｉｖｉｄ,,株式会社,東京都,大田区,東六郷２丁目１５番１２－３０３号,,13,111,1440046,,,,,,,2022-10-03,1,,,,,テトビビッド,0
1962,8010803004296,新規,0,2022-10-03,2022-10-03,合同会社ＨＴサポート,,合同会社,東京都,大田区,上池台２丁目３８番１５号,,13,111,1450064,,,,,,,2022-10-03,1,,,,,エイチティーサポート,0
1966,8010903007678,新規,0,2022-10-03,2022-10-03,ＣＬＡＳＳＵＮＩＱＵＥ合同会社,,合同会社,東京都,世田谷区,北沢５丁目３８番３０号,,13,112,1550031,,,,,,,2022-10-03,1,,,,,クラスニーク,0
1970,8011001150008,新規,0,2022-10-03,2022-10-03,株式会社ｒｏｓａ　ｖｉｓｔａ,,株式会社,東京都,渋谷区,恵比寿２丁目１３番１７号エムレジデンス恵比寿２０３,,13,113,1500013,,,,,,,2022-10-03,1,,,,,ローザビスタ,0
1971,8011001150024,新規,0,2022-10-03,2022-10-03,株式会社ＰＬＵＴＯ,,株式会社,東京都,渋谷区,神宮前２丁目１８番１５号,,13,113,1500001,,,,,,,2022-10-03,1,,,,,プルート,0
1973,8011101100358,新規,0,2022-10-03,2022-10-03,株式会社ニャルコスグループ,,株式会社,東京都,新宿区,新宿５丁目４番１号新宿Ｑフラットビル６１１,,13,104,1600022,,,,,,,2022-10-03,1,,,,,ニャルコスグループ,0
1977,8011601026268,新規,0,2022-10-03,2022-10-03,ネクストステージ株式会社,,株式会社,東京都,練馬区,石神井町６丁目１４－７,,13,120,1770041,,,,,,,2022-10-03,1,,,,,ネクストステージ,0
1985,8011801041331,新規,0,2022-10-03,2022-10-03,株式会社ウメモト,,株式会社,東京都,足立区,関原３丁目４２番１号,,13,121,1230852,,,,,,,2022-10-03,1,,,,,ウメモト,0
1986,8011803005292,新規,0,2022-10-03,2022-10-03,合同会社クニミツベンダー東京,,合同会社,東京都,足立区,六木３丁目２７－１４,,13,121,1210052,,,,,,,2022-10-03,1,,,,,クニミツベンダートウキョウ,0
1987,8012801021868,新規,0,2022-10-03,2022-10-03,株式会社Ａ　Ｃｏｍｐａｎｙ,,株式会社,東京都,日野市,落川４６４－Ｂ,,13,212,1910034,,,,,,,2022-10-03,1,,,,,エーカンパニー,0
1992,8013301049739,新規,0,2022-10-03,2022-10-03,株式会社ケイエスイー,,株式会社,東京都,豊島区,池袋２丁目７４番６号,,13,116,1710014,,,,,,,2022-10-03,1,,,,,ケイエスイー,0
1995,8020001148333,新規,0,2022-10-03,2022-10-03,ＭＵＳＣ株式会社,,株式会社,神奈川県,横浜市南区,白金町１丁目２２－２祥ビル５０１室,,14,105,2320005,,,,,,,2022-10-03,1,,,,,ムスク,0
1996,8020001148366,新規,0,2022-10-03,2022-10-03,唯真株式会社,,株式会社,神奈川県,横浜市保土ケ谷区,瀬戸ケ谷町６３番地１メインステージ保土ケ谷１０３号室,,14,106,2400024,,,,,,,2022-10-03,1,,,,,ユイシン,0
1997,8020001148382,新規,0,2022-10-03,2022-10-03,株式会社Ｈｕｍｉｌｉｔｙ,,株式会社,神奈川県,横浜市中区,弁天通３丁目３７番地５０３号室,,14,104,2310007,,,,,,,2022-10-03,1,,,,,ハミリティ,0
1998,8020003022478,新規,0,2022-10-03,2022-10-03,なみのり合同会社,,合同会社,神奈川県,横浜市保土ケ谷区,仏向西１８番２５号,,14,106,2400046,,,,,,,2022-10-03,1,,,,,ナミノリ,0
2000,8021001077092,新規,0,2022-10-03,2022-10-03,株式会社ｐａｒａｋｅＩＴＯ,,株式会社,神奈川県,藤沢市,片瀬３７５－６－１０３,,14,205,2510032,,,,,,,2022-10-03,1,,,,,パラケイトウ,0
2008,8030001150296,新規,0,2022-10-03,2022-10-03,株式会社ほけんのすずき,,株式会社,埼玉県,熊谷市,肥塚１１８７番地－１Ｆ,,11,202,3600015,,,,,,,2022-10-03,1,,,,,ホケンノスズキ,0
2009,8030001150321,新規,0,2022-10-03,2022-10-03,株式会社神谷コーポレーション,,株式会社,埼玉県,さいたま市大宮区,大門町３丁目１８９番地３,,11,103,3300846,,,,,,,2022-10-03,1,,,,,カミヤコーポレーション,0
2016,8040001125207,新規,0,2022-10-03,2022-10-03,株式会社マインライフ,,株式会社,千葉県,習志野市,津田沼７丁目１０番８－１０１号,,12,216,2750016,,,,,,,2022-10-03,1,,,,,マインライフ,0
2017,8040001125256,新規,0,2022-10-03,2022-10-03,サウスウインド株式会社,,株式会社,千葉県,木更津市,長須賀３５５番地１ルヴェサージュ長須賀Ｃ号,,12,206,2920054,,,,,,,2022-10-03,1,,,,,サウスウインド,0
2022,8040003020926,新規,0,2022-10-03,2022-10-03,合同会社ＦｏｕｒｉｅｒＸ,,合同会社,千葉県,市原市,八幡北町１丁目１番地１８パレ・ドール市原３０４号室,,12,219,2900069,,,,,,,2022-10-03,1,,,,,フーリエエックス,0
2026,8050001051732,新規,0,2022-10-03,2022-10-03,株式会社Ｋ’ｓカンパニー,,株式会社,茨城県,下妻市,長塚６０番地１９,,08,210,3040056,,,,,,,2022-10-03,1,,,,,ケーズカンパニー,0
2027,8050003006890,新規,0,2022-10-03,2022-10-03,合同会社アケボノエステート,,合同会社,茨城県,つくば市,高野台３丁目１８番地７サンガーデン高野台２０１号,,08,220,3050074,,,,,,,2022-10-03,1,,,,,アケボノエステート,0
2035,8080101023538,新規,0,2022-10-03,2022-10-03,株式会社ワイツーネクスト,,株式会社,静岡県,伊東市,鎌田１９０番地の１ヴィラ・フェリア伊東６０８号室,,22,208,4140054,,,,,,,2022-10-03,1,,,,,ワイツーネクスト,0
2036,8080101023546,新規,0,2022-10-03,2022-10-03,株式会社ＳＨＥＬＬ　ＬＩＮＫ,,株式会社,静岡県,伊豆の国市,立花３丁目２０６番地,,22,225,4102303,,,,,,,2022-10-03,1,,,,,シェルリンク,0
2037,8080401026067,新規,0,2022-10-03,2022-10-03,株式会社リライアンス,,株式会社,静岡県,浜松市浜北区,横須賀１１６８,,22,136,4340036,,,,,,,2022-10-03,1,,,,,リライアンス,0
2057,8120001249162,新規,0,2022-10-03,2022-10-03,株式会社グランタックＪＡＰＡＮ,,株式会社,大阪府,寝屋川市,宝町１９番７号,,27,215,5720067,,,,,,,2022-10-03,1,,,,,グランタックジャパン,0
2058,8120001249170,新規,0,2022-10-03,2022-10-03,株式会社ＡＬｆａｍｉｌｉａ,,株式会社,大阪府,大阪市中央区,鎗屋町１丁目４番２号,,27,128,5400027,,,,,,,2022-10-03,1,,,,,アルファミリア,0
2060,8120003022583,新規,0,2022-10-03,2022-10-03,合同会社レン,,合同会社,大阪府,大阪市西淀川区,佃４丁目７番１８号２Ｆ,,27,113,5550001,,,,,,,2022-10-03,1,,,,,レン,0
2061,8120003022591,新規,0,2022-10-03,2022-10-03,ＤＥＳＡＧＯＮ合同会社,,合同会社,大阪府,大阪市中央区,瓦屋町３丁目７番２０号グラシア松屋町４０７,,27,128,5420066,,,,,,,2022-10-03,1,,,,,デサゴン,0
2064,8120101066284,新規,0,2022-10-03,2022-10-03,株式会社ＫＡＩＳＨＵ,,株式会社,大阪府,堺市西区,鳳東町４丁３７２－１－３０１,,27,144,5938324,,,,,,,2022-10-03,1,,,,,カイシュウ,0
2066,8120105009628,新規,0,2022-10-03,2022-10-03,一般社団法人まつばら阪南大学スポーツクラブ,,その他の設立登記法人,大阪府,松原市,天美東５丁目４番３３号,,27,217,5800032,,,,,,,2022-10-03,1,,,,,マツバラハンナンダイガクスポーツクラブ,0
2067,8120901046543,新規,0,2022-10-03,2022-10-03,株式会社ＥＬサービス,,株式会社,大阪府,箕面市,牧落３丁目１４番３０号－５,,27,220,5620004,,,,,,,2022-10-03,1,,,,,イーエルサービス,0
2068,8120901046551,新規,0,2022-10-03,2022-10-03,株式会社ｉＳｗｅｅｔ,,株式会社,大阪府,豊中市,蛍池東町一丁目２番５号,,27,203,5600000,,,,,,,2022-10-03,1,,,,,アイスイート,0
2071,8122001036276,新規,0,2022-10-03,2022-10-03,株式会社淑成産業,,株式会社,大阪府,八尾市,大竹３丁目１７２番地５,,27,212,5810854,,,,,,,2022-10-03,1,,,,,ヨシナリサンギョウ,0
2087,8140001127523,新規,0,2022-10-03,2022-10-03,株式会社Ｗｅｓｔ　Ｒｉｃｈ,,株式会社,兵庫県,神戸市中央区,中町通２丁目２番１８号,,28,110,6500027,,,,,,,2022-10-03,1,,,,,ウエストリッチ,0
2090,8150001025841,新規,0,2022-10-03,2022-10-03,株式会社ヤマザキ会計サポート,,株式会社,奈良県,奈良市,中山町１４５番地の４,,29,201,6310012,,,,,,,2022-10-03,1,,,,,ヤマザキカイケイサポート,0
2095,8180001153169,新規,0,2022-10-03,2022-10-03,グッドライフ株式会社,,株式会社,愛知県,名古屋市港区,甚兵衛通４丁目４８番地の６,,23,111,4550822,,,,,,,2022-10-03,1,,,,,グッドライフ,0
2096,8180001153177,新規,0,2022-10-03,2022-10-03,株式会社スカイリード,,株式会社,愛知県,名古屋市熱田区,新尾頭１丁目６番１３号第１９金山フクマルビル９階,,23,109,4560018,,,,,,,2022-10-03,1,,,,,スカイリード,0
2097,8180001153185,新規,0,2022-10-03,2022-10-03,株式会社ピナクル歯研,,株式会社,愛知県,名古屋市中村区,上石川町３丁目２１番地,,23,105,4530835,,,,,,,2022-10-03,1,,,,,ピナクルシケン,0
2098,8180001153193,新規,0,2022-10-03,2022-10-03,株式会社グラコン,,株式会社,愛知県,一宮市,玉野字大西４７番地１,,23,203,4940013,,,,,,,2022-10-03,1,,,,,グラコン,0
2099,8180001153202,新規,0,2022-10-03,2022-10-03,善株式会社,,株式会社,愛知県,名古屋市東区,白壁１丁目４７番地,,23,102,4610011,,,,,,,2022-10-03,1,,,,,ゼン,0
2100,8180001153210,新規,0,2022-10-03,2022-10-03,株式会社ブルーデル,,株式会社,愛知県,名古屋市千種区,大久手町５丁目１１番地の２,,23,101,4640854,,,,,,,2022-10-03,1,,,,,ブルーデル,0
2101,8180001153219,新規,0,2022-10-03,2022-10-03,株式会社Ｈａｃｋ‐ｔｓｕ,,株式会社,愛知県,愛西市,日置町１３１０番地,,23,232,4960906,,,,,,,2022-10-03,1,,,,,ハックツ,0
2102,8180001153227,新規,0,2022-10-03,2022-10-03,株式会社ＯＭＳ,,株式会社,愛知県,名古屋市中川区,服部１丁目３０７番地,,23,110,4540976,,,,,,,2022-10-03,1,,,,,オーエムエス,0
2103,8180001153235,新規,0,2022-10-03,2022-10-03,名古屋特殊清掃サービス株式会社,,株式会社,愛知県,春日井市,花長町２丁目１６番地４,,23,206,4860951,,,,,,,2022-10-03,1,,,,,ナゴヤトクシュセイソウサービス,0
2106,8180003024319,新規,0,2022-10-03,2022-10-03,合同会社メディカルＧＯ,,合同会社,愛知県,大府市,柊山町３丁目３１５番地,,23,223,4740053,,,,,,,2022-10-03,1,,,,,メディカルゴー,0
2108,8190001029789,新規,0,2022-10-03,2022-10-03,エビステック株式会社,,株式会社,三重県,松阪市,中林町５２９番地１１,,24,204,5152111,,,,,,,2022-10-03,1,,,,,エビステック,0
2128,8260003004048,新規,0,2022-10-03,2022-10-03,合同会社３Ｋ,,合同会社,岡山県,倉敷市,亀山２３２‐２３,,33,202,7100024,,,,,,,2022-10-03,1,,,,,スリーケー,0
2131,8270001008636,新規,0,2022-10-03,2022-10-03,ふく板金株式会社,,株式会社,鳥取県,米子市,大崎１４２９番地,,31,202,6830104,,,,,,,2022-10-03,1,,,,,フクバンキン,0
2139,8290001099021,新規,0,2022-10-03,2022-10-03,ＳＥＮＳＥ株式会社,,株式会社,福岡県,福岡市東区,香椎照葉６丁目３番１２－４０５号,,40,131,8130017,,,,,,,2022-10-03,1,,,,,センス,0
2142,8290003013005,新規,0,2022-10-03,2022-10-03,合同会社ＲＥ‐ＣＯＮＮＥＣＴ,,合同会社,福岡県,福岡市南区,井尻２丁目４０番２７号,,40,134,8111302,,,,,,,2022-10-03,1,,,,,リコネクト,0
2148,8320001019355,新規,0,2022-10-03,2022-10-03,エリール株式会社,,株式会社,大分県,大分市,けやき台１丁目２３００番地の３９,,44,201,8797762,,,,,,,2022-10-03,1,,,,,エリール,0
2157,8380001033144,新規,0,2022-10-03,2022-10-03,株式会社はま福,,株式会社,福島県,双葉郡富岡町,字夜の森南１丁目１番地,,07,543,9791161,,,,,,,2022-10-03,1,,,,,ハマフク,0
2166,8420005007825,新規,0,2022-10-03,2022-10-03,一般社団法人海と大間の未来つくり隊,,その他の設立登記法人,青森県,下北郡大間町,大字大間字下手道５４番地４,,02,423,0394601,,,,,,,2022-10-03,1,,,,,ウミトオオマノミライツクリタイ,0
2169,8430001087572,新規,0,2022-10-03,2022-10-03,株式会社ＲＵＣＯ,,株式会社,北海道,札幌市中央区,北五条西２５丁目３－２ブランシャールＮＥＯ－４０３号室,,01,101,0640825,,,,,,,2022-10-03,1,,,,,ルコ,0
2170,8430005014572,新規,0,2022-10-03,2022-10-03,一般社団法人日本ミックスデザイン犬クラブ,,その他の設立登記法人,北海道,勇払郡安平町,追分緑が丘１５５番地,,01,585,0591971,,,,,,,2022-10-03,1,,,,,ニホンミックスデザインケンクラブ,0
2174,8500005008526,新規,0,2022-10-03,2022-10-03,一般社団法人捨幸運協会,,その他の設立登記法人,愛媛県,松山市,馬木町２４４７番地,,38,201,7992655,,,,,,,2022-10-03,1,,,,,シャコウウンキョウカイ,0
2188,9010001229892,新規,0,2022-10-03,2022-10-03,株式会社なが田家,,株式会社,東京都,千代田区,六番町４－１１朝日六番町マンションＢ－１０４,,13,101,1020085,,,,,,,2022-10-03,1,,,,,ナガタヤ,0
2193,9010003038763,新規,0,2022-10-03,2022-10-03,合同会社Ａｐｐｒｏｌｅ　Ｔｏｋｙｏ,,合同会社,東京都,中央区,銀座１丁目１５番７号ＭＡＣ銀座ビル３階,,13,102,1040061,,,,,,,2022-10-03,1,,,,,アプロレトウキョウ,0
2194,9010003038771,新規,0,2022-10-03,2022-10-03,合同会社イケメン百貨店,,合同会社,東京都,中央区,銀座１丁目２２番１１号銀座大竹ビジデンス２階,,13,102,1040061,,,,,,,2022-10-03,1,,,,,イケメンヒャッカテン,0
2195,9010003038796,新規,0,2022-10-03,2022-10-03,伊勢原プロパティー合同会社,,合同会社,東京都,千代田区,丸の内３丁目１番１号東京共同会計事務所内,,13,101,1000005,,,,,,,2022-10-03,1,,,,,イセハラプロパティー,0
2196,9010005035610,新規,0,2022-10-03,2022-10-03,一般社団法人琥珀プレミアム,,その他の設立登記法人,東京都,千代田区,丸の内３丁目１番１号東京共同会計事務所内,,13,101,1000005,,,,,,,2022-10-03,1,,,,,コハクプレミアム,0
2197,9010101015342,新規,0,2022-10-03,2022-10-03,株式会社ＡＬＮ,,株式会社,東京都,八王子市,楢原町１０３５番地５,,13,201,1930803,,,,,,,2022-10-03,1,,,,,アラン,0
2207,9010401169986,新規,0,2022-10-03,2022-10-03,株式会社ＳＨＥ’Ｄ,,株式会社,東京都,港区,白金台２丁目３番５号,,13,103,1080071,,,,,,,2022-10-03,1,,,,,シード,0
2208,9010401170028,新規,0,2022-10-03,2022-10-03,株式会社カチフル,,株式会社,東京都,港区,赤坂２丁目１８番１３号,,13,103,1070052,,,,,,,2022-10-03,1,,,,,カチフル,0
2209,9010403028587,新規,0,2022-10-03,2022-10-03,合同会社テゾーロ,,合同会社,東京都,港区,六本木２丁目２番６号福吉町ビル５階,,13,103,1060032,,,,,,,2022-10-03,1,,,,,テゾーロ,0
2215,9010601061927,新規,0,2022-10-03,2022-10-03,Ｉｎｆｉｎｉｖｅｒｓｅ株式会社,,株式会社,東京都,江東区,有明３丁目７番２６号有明フロンティアビルＢ棟９階,,13,108,1350063,,,,,,,2022-10-03,1,,,,,インフィニバース,0
2218,9010603009750,新規,0,2022-10-03,2022-10-03,合同会社Ｍ’ｓ　Ｄｅｓｉｇｎ,,合同会社,東京都,江東区,東雲１丁目９番４１－２６０１号,,13,108,1350062,,,,,,,2022-10-03,1,,,,,エムズデザイン,0
2220,9010703006400,新規,0,2022-10-03,2022-10-03,合同会社Ｈｅａｌｔｈ　Ｅｖａｎｇｅｌｉｓｔ,,合同会社,東京都,品川区,南大井６丁目４番６－９０７号,,13,109,1400013,,,,,,,2022-10-03,1,,,,,ヘルスエバンジェリスト,0
2227,9010903007669,新規,0,2022-10-03,2022-10-03,合同会社チャイラヴィ,,合同会社,東京都,世田谷区,弦巻２丁目３０番２０号カーサフェリシダージ３０２,,13,112,1540016,,,,,,,2022-10-03,1,,,,,チャイラヴィ,0
2232,9011001150048,新規,0,2022-10-03,2022-10-03,株式会社Ｓｈｅｅｒ,,株式会社,東京都,渋谷区,道玄坂１丁目１２番１号渋谷マークシティウエスト１１Ｆ,,13,113,1500043,,,,,,,2022-10-03,1,,,,,シアー,0
2237,9011003015455,新規,0,2022-10-03,2022-10-03,ＭＩＴＡＲＵ合同会社,,合同会社,東京都,渋谷区,富ヶ谷１丁目４９―２１,,13,113,1510063,,,,,,,2022-10-03,1,,,,,ミタル,0
2240,9011101100332,新規,0,2022-10-03,2022-10-03,関株式会社,,株式会社,東京都,新宿区,西新宿３丁目３番１３号西新宿水間ビル６階,,13,104,1600023,,,,,,,2022-10-03,1,,,,,セキ,0
2241,9011101100340,新規,0,2022-10-03,2022-10-03,株式会社ＳＴＳ,,株式会社,東京都,新宿区,西新宿８丁目３番３９号,,13,104,1600023,,,,,,,2022-10-03,1,,,,,エスティエス,0
2242,9011101100349,新規,0,2022-10-03,2022-10-03,株式会社ＶＩＬＩＦＥ,,株式会社,東京都,新宿区,舟町１２番地３５ＤＵＰＬＥＸ２１４,,13,104,1600006,,,,,,,2022-10-03,1,,,,,ヴィライフ,0
2244,9011103012212,新規,0,2022-10-03,2022-10-03,みずのえとら合同会社,,合同会社,東京都,新宿区,北山伏町１番２０号市ヶ谷北山伏町シティハウス１０２,,13,104,1620853,,,,,,,2022-10-03,1,,,,,ミズノエトラ,0
2245,9011103012220,新規,0,2022-10-03,2022-10-03,合同会社翔湖,,合同会社,東京都,新宿区,歌舞伎町１丁目４番８号歌舞伎町らんざんビル地下１階,,13,104,1600021,,,,,,,2022-10-03,1,,,,,ショウコ,0
2246,9011105010429,新規,0,2022-10-03,2022-10-03,一般社団法人ティーダホールディングス９,,その他の設立登記法人,東京都,新宿区,西新宿２丁目１番１号新宿三井ビル５０階,,13,104,1600023,,,,,,,2022-10-03,1,,,,,ティーダホールディングスキュウ,0
2252,9011703003263,新規,0,2022-10-03,2022-10-03,合同会社祭,,合同会社,東京都,江戸川区,中葛西５丁目３５－８－４０３号アパートメントけやき通り中葛西,,13,123,1340083,,,,,,,2022-10-03,1,,,,,マツリ,0
2253,9011703003271,新規,0,2022-10-03,2022-10-03,合同会社ｃｕｏｒｅ,,合同会社,東京都,江戸川区,中葛西５丁目３５番８－４０３号アパートメントけやき通り中葛西,,13,123,1340083,,,,,,,2022-10-03,1,,,,,クオーレ,0
2254,9011801041330,新規,0,2022-10-03,2022-10-03,株式会社テイク・リアル,,株式会社,東京都,足立区,千住関屋町１７番１５－１－６０４号,,13,121,1200024,,,,,,,2022-10-03,1,,,,,テイクリアル,0
2255,9011803005291,新規,0,2022-10-03,2022-10-03,ＥＴＲＣ合同会社,,合同会社,東京都,足立区,西新井４丁目３７番８号,,13,121,1230841,,,,,,,2022-10-03,1,,,,,イーティーアールシー,0
2261,9013301049738,新規,0,2022-10-03,2022-10-03,新威技術株式会社,,株式会社,東京都,豊島区,西池袋３丁目１９番１４－３０１号,,13,116,1710021,,,,,,,2022-10-03,1,,,,,シンイギジュツ,0
2268,9020001148349,新規,0,2022-10-03,2022-10-03,デバイスアンリミテッドジャパン株式会社,,株式会社,神奈川県,横浜市神奈川区,金港町７番地の３金港ビル７Ｆ,,14,102,2210056,,,,,,,2022-10-03,1,,,,,デバイスアンリミテッドジャパン,0
2269,9020001148373,新規,0,2022-10-03,2022-10-03,株式会社ｉｒｏｄｏｒｉ　ｗｏｒｋｓ,,株式会社,神奈川県,横浜市旭区,西川島町２７番地３,,14,112,2410012,,,,,,,2022-10-03,1,,,,,イロドリワークス,0
2273,9020003022477,新規,0,2022-10-03,2022-10-03,Ｌｉｇｈｔｅｎ　Ｕｐ　Ｔｏｄａｙ合同会社,,合同会社,神奈川県,横浜市南区,大橋町３丁目５４番地２ヴァンベール弘明寺２０２,,14,105,2320054,,,,,,,2022-10-03,1,,,,,ライトンアップトゥデイ,0
2275,9021001077091,新規,0,2022-10-03,2022-10-03,株式会社小泉電気,,株式会社,神奈川県,三浦市,岬陽町１８番８号,,14,210,2380222,,,,,,,2022-10-03,1,,,,,コイズミデンキ,0
2276,9021001077100,新規,0,2022-10-03,2022-10-03,株式会社３ＡＲＣ,,株式会社,神奈川県,小田原市,曽我原１７８番地の８,,14,206,2500206,,,,,,,2022-10-03,1,,,,,スリーアーク,0
2280,9030001150304,新規,0,2022-10-03,2022-10-03,株式会社Ｌｉｅｎｉｃｈｅ,,株式会社,埼玉県,坂戸市,大字戸宮２７２番地,,11,239,3500208,,,,,,,2022-10-03,1,,,,,リアネッシュ,0
2281,9030001150329,新規,0,2022-10-03,2022-10-03,走る毛呂山株式会社,,株式会社,埼玉県,入間郡毛呂山町,大字西大久保６７９－２０,,11,326,3500433,,,,,,,2022-10-03,1,,,,,ハシルモロヤマ,0
2284,9030003020281,新規,0,2022-10-03,2022-10-03,合同会社ＨＲコンサルタントカンパニー,,合同会社,埼玉県,所沢市,大字久米１６５４番地の１５,,11,208,3591131,,,,,,,2022-10-03,1,,,,,エイチアールコンサルタントカンパニー,0
2291,9040001125206,新規,0,2022-10-03,2022-10-03,金山株式会社,,株式会社,千葉県,柏市,桜台９番２５号ジュネパレス柏第３５－１０４号,,12,217,2770012,,,,,,,2022-10-03,1,,,,,カナヤマ,0
2292,9040001125255,新規,0,2022-10-03,2022-10-03,株式会社ＳＪＫ　ｃｏｍｐａｎｙ,,株式会社,千葉県,君津市,南子安５丁目１０番２５号,,12,225,2991162,,,,,,,2022-10-03,1,,,,,エスジェイケイカンパニー,0
2296,9040003020933,新規,0,2022-10-03,2022-10-03,合同会社プライマリーコーデックス,,合同会社,千葉県,松戸市,本町１７－１１芹澤ビル６Ｆ,,12,207,2710091,,,,,,,2022-10-03,1,,,,,プライマリーコーデックス,0
2297,9050001051731,新規,0,2022-10-03,2022-10-03,株式会社ＲｅＡｍ,,株式会社,茨城県,つくば市,研究学園５丁目６番地６Ｄ１２ビル４０７号室,,08,220,3050817,,,,,,,2022-10-03,1,,,,,リアム,0
2299,9060001035304,新規,0,2022-10-03,2022-10-03,株式会社Ｙ．ＬＥＥ　ＣＯＲＰＯＲＡＴＩＯＮ,,株式会社,栃木県,宇都宮市,満美穴町４８９番地１,,09,201,3213225,,,,,,,2022-10-03,1,,,,,ワイリーコーポレーション,0
2300,9070001039675,新規,0,2022-10-03,2022-10-03,株式会社Ｐｌｏｗ,,株式会社,群馬県,前橋市,千代田町１丁目１１番１６号,,10,201,3710022,,,,,,,2022-10-03,1,,,,,プロウ,0
2305,9080403004623,新規,0,2022-10-03,2022-10-03,シバタ合同会社,,合同会社,静岡県,浜松市北区,都田町８１４６番地４,,22,135,4312102,,,,,,,2022-10-03,1,,,,,シバタ,0
2307,9090001017794,新規,0,2022-10-03,2022-10-03,株式会社ＢＬＵＥ　ＮＡＴＩＯＮ,,株式会社,山梨県,甲府市,丸の内１丁目１４番１４号オリオン共同ビル１１０,,19,201,4000031,,,,,,,2022-10-03,1,,,,,,0
2327,9120001249178,新規,0,2022-10-03,2022-10-03,株式会社ミクロラセン,,株式会社,大阪府,大阪市福島区,鷺洲５丁目１番６号,,27,103,5530002,,,,,,,2022-10-03,1,,,,,ミクロラセン,0
2334,9120003022582,新規,0,2022-10-03,2022-10-03,合同会社ＭＧコネクト,,合同会社,大阪府,大阪市東住吉区,公園南矢田２丁目１１番１０号,,27,121,5460024,,,,,,,2022-10-03,1,,,,,エムジーコネクト,0
2335,9120003022590,新規,0,2022-10-03,2022-10-03,合同会社あぐみ,,合同会社,大阪府,大阪市東淀川区,瑞光１丁目６番１２号はなみずきグランドメゾン３０５号,,27,114,5330005,,,,,,,2022-10-03,1,,,,,アグミ,0
2336,9120005023216,新規,0,2022-10-03,2022-10-03,一般社団法人海と日本プロジェクトｉｎ大阪,,その他の設立登記法人,大阪府,大阪市中央区,大手前１丁目２番１８号,,27,128,5400008,,,,,,,2022-10-03,1,,,,,ウミトニッポンプロジェクトインオオサカ,0
2341,9120901046542,新規,0,2022-10-03,2022-10-03,株式会社ＷＩＬＬ　ｐｌｕｓ,,株式会社,大阪府,高槻市,宮田町２丁目１番８号,,27,207,5691142,,,,,,,2022-10-03,1,,,,,ウィルプラス,0
2344,9122001036267,新規,0,2022-10-03,2022-10-03,株式会社ｎｅｘｔ‐ｋ,,株式会社,大阪府,八尾市,東山本町８丁目６番４３号,,27,212,5810847,,,,,,,2022-10-03,1,,,,,ネクストケイ,0
2354,9130001072728,新規,0,2022-10-03,2022-10-03,株式会社ラ・トワール,,株式会社,京都府,京都市下京区,河原町通松原上る二丁目富永町３４８番地,,26,106,6000000,,,,,,,2022-10-03,1,,,,,ラトワール,0
2366,9140001127539,新規,0,2022-10-03,2022-10-03,株式会社万福,,株式会社,兵庫県,神戸市西区,玉津町今津４９３番地の７,,28,111,6512128,,,,,,,2022-10-03,1,,,,,マンプク,0
2367,9140001127547,新規,0,2022-10-03,2022-10-03,株式会社ＡＧスタイル,,株式会社,兵庫県,西脇市,上比延町２４３番地の１７５,,28,213,6770039,,,,,,,2022-10-03,1,,,,,エージースタイル,0
2372,9140003018182,新規,0,2022-10-03,2022-10-03,合同会社ウイズ,,合同会社,兵庫県,姫路市,御国野町国分寺１９８－１１,,28,201,6710234,,,,,,,2022-10-03,1,,,,,ウイズ,0
2373,9140003018190,新規,0,2022-10-03,2022-10-03,合同会社ＨＡＲＥＫＡＺＥ,,合同会社,兵庫県,尼崎市,南塚口町３丁目２７－１４,,28,202,6610012,,,,,,,2022-10-03,1,,,,,ハレカゼ,0
2376,9150001025840,新規,0,2022-10-03,2022-10-03,晴れのち笑顔株式会社,,株式会社,奈良県,磯城郡田原本町,大字千代８２２番地,,29,363,6360246,,,,,,,2022-10-03,1,,,,,ハレノチエガオ,0
2379,9170001017290,新規,0,2022-10-03,2022-10-03,株式会社ＡＫＭ,,株式会社,和歌山県,和歌山市,本町２丁目３７ＵＥＤＥビル５Ｆ,,30,201,6408033,,,,,,,2022-10-03,1,,,,,エーケーエム,0
2387,9180001153176,新規,0,2022-10-03,2022-10-03,株式会社アスベストプロ,,株式会社,愛知県,豊明市,栄町南舘２３４番地１,,23,229,4701168,,,,,,,2022-10-03,1,,,,,アスベストプロ,0
2388,9180001153218,新規,0,2022-10-03,2022-10-03,株式会社アイプレザント,,株式会社,愛知県,名古屋市北区,清水５丁目９番１２号シャトー清水１０５号,,23,103,4620844,,,,,,,2022-10-03,1,,,,,アイプレザント,0
2392,9180003024334,新規,0,2022-10-03,2022-10-03,合同会社エステミリックス,,合同会社,愛知県,名古屋市中村区,日ノ宮町１丁目５番地の２,,23,105,4530823,,,,,,,2022-10-03,1,,,,,エステミリックス,0
2393,9180005019951,新規,0,2022-10-03,2022-10-03,一般社団法人漆芸伝承の会,,その他の設立登記法人,愛知県,名古屋市守山区,大字中志段味字東荒古２５５９番地の１,,23,113,4630002,,,,,,,2022-10-03,1,,,,,シツゲイデンショウノカイ,0
2394,9180301036675,新規,0,2022-10-03,2022-10-03,株式会社後藤商店,,株式会社,愛知県,岡崎市,仁木町字郷西１７番地１,,23,202,4442148,,,,,,,2022-10-03,1,,,,,ゴトウショウテン,0
2396,9190001029788,新規,0,2022-10-03,2022-10-03,桂三弥株式会社,,株式会社,三重県,名張市,桔梗が丘５番町十街区１番地１,,24,208,5180625,,,,,,,2022-10-03,1,,,,,カツラサンヤ,0
2397,9190001029796,新規,0,2022-10-03,2022-10-03,高溶工株式会社,,株式会社,三重県,鈴鹿市,肥田町２７７番地の４,,24,207,5130819,,,,,,,2022-10-03,1,,,,,タカヨウコウ,0
2406,9240001060424,新規,0,2022-10-03,2022-10-03,株式会社Ｈプロジェクト,,株式会社,広島県,広島市中区,江波南３丁目７番３号,,34,101,7300835,,,,,,,2022-10-03,1,,,,,エイチプロジェクト,0
2410,9240005015465,新規,0,2022-10-03,2022-10-03,医療法人ＭＩＲＡＩ・ＢＯＳＨＩ,,その他の設立登記法人,広島県,広島市安佐南区,伴東５丁目２１番３５号,,34,105,7313164,,,,,,,2022-10-03,1,,,,,ミライボシ,0
2418,9290001099045,新規,0,2022-10-03,2022-10-03,ＦＵＫＵＮＡＲＩ株式会社,,株式会社,福岡県,春日市,昇町３丁目２２０番地２,,40,218,8160851,,,,,,,2022-10-03,1,,,,,フクナリ,0
2423,9290003013004,新規,0,2022-10-03,2022-10-03,合同会社Ｙ’ｓ・ワイズ・スマイルコーポレーション,,合同会社,福岡県,古賀市,今の庄２丁目９番６号,,40,223,8113117,,,,,,,2022-10-03,1,,,,,ワイズワイズスマイルコーポレーション,0
2426,9300001013078,新規,0,2022-10-03,2022-10-03,株式会社Ｍ＆Ｊ　Ｉｎｔｅｒｎａｔｉｏｎａｌ,,株式会社,佐賀県,西松浦郡有田町,赤絵町１丁目２番１１号,,41,401,8440006,,,,,,,2022-10-03,1,,,,,エムアンドジェイインターナショナル,0
2437,9350001017974,新規,0,2022-10-03,2022-10-03,株式会社レッドマインド,,株式会社,宮崎県,宮崎市,青島５丁目１０番４号,,45,201,8892162,,,,,,,2022-10-03,1,,,,,レッドマインド,0
2449,9390001017038,新規,0,2022-10-03,2022-10-03,株式会社奥山商事,,株式会社,山形県,新庄市,金沢２１４６番地の４,,06,205,9960002,,,,,,,2022-10-03,1,,,,,オクヤマショウジ,0
2450,9390005008974,新規,0,2022-10-03,2022-10-03,一般社団法人心のそら,,その他の設立登記法人,山形県,鶴岡市,東原町２５番２２号,,06,203,9970801,,,,,,,2022-10-03,1,,,,,ココロノソラ,0
2451,9400001016013,新規,0,2022-10-03,2022-10-03,株式会社が組,,株式会社,岩手県,紫波郡矢巾町,大字南矢幅第８地割２１３番地清賜知館１０３号室,,03,322,0283615,,,,,,,2022-10-03,1,,,,,ガグミ,0
2455,9430001087563,新規,0,2022-10-03,2022-10-03,株式会社ＰＲＩＭＥ・ＡＬＰＨＡ,,株式会社,北海道,札幌市北区,拓北四条４丁目４番２１号,,01,102,0028064,,,,,,,2022-10-03,1,,,,,プライムアルファ,0
2461,9460303000774,新規,0,2022-10-03,2022-10-03,合同会社ビリーブ,,合同会社,北海道,斜里郡小清水町,字中里２６３番地,,01,547,0993615,,,,,,,2022-10-03,1,,,,,,0
2463,9500001024501,新規,0,2022-10-03,2022-10-03,株式会社ひょうどう,,株式会社,愛媛県,松山市,二番町２丁目５番地９マチナカビル１階,,38,201,7900002,,,,,,,2022-10-03,1,,,,,ヒョウドウ,0
