sequenceNumber,corporateNumber,process,correct,updateDate,changeDate,name,nameImageId,kind,prefectureName,cityName,streetNumber,addressImageId,prefectureCode,cityCode,postCode,addressOutside,addressOutsideImageId,closeDate,closeCause,successorCorporateNumber,changeCause,assignmentDate,latest,enName,enPrefectureName,enCityName,enAddressOutside,furigana,hihyoji
6,1010001195746,登記記録の閉鎖等,0,2022-09-22,2022-09-14,株式会社大島希望の森,,株式会社,東京都,大島町,元町字上山１８０番,,13,361,1000101,,,2022-09-14,清算の結了等,,,2018-10-19,1,,,,,オオシマキボウノモリ,0
16,1010401035923,登記記録の閉鎖等,0,2022-09-22,2022-09-02,株式会社ジョイフルドメイン,,株式会社,東京都,港区,元麻布１丁目３番１号,,13,103,1060046,,,2022-09-02,合併による解散等,3010401036639,令和４年９月２日東京都港区元麻布一丁目３番１号株式会社ラメゾンドユミコ（3010401036639）に合併し解散,2015-10-05,1,,,,,ジョイフルドメイン,0
27,1010402019116,登記記録の閉鎖等,0,2022-09-22,2022-09-05,有限会社オフィスカーム,,有限会社,東京都,港区,西麻布３丁目１７番１１号,,13,103,1060031,,,2022-09-05,清算の結了等,,,2015-10-05,1,,,,,オフィスカーム,0
29,1010502019783,登記記録の閉鎖等,0,2022-09-22,2022-09-20,有限会社ケイ・ジー・イージャパン,,有限会社,東京都,台東区,東上野３丁目６番１号,,13,106,1100015,,,2022-09-20,清算の結了等,,,2015-10-05,1,,,,,,0
61,1012801020918,登記記録の閉鎖等,0,2022-09-22,2022-09-12,Ｅ－ＰＲＩＭＥ株式会社,,株式会社,東京都,日野市,三沢１丁目２６番地の２－１０１,,13,212,1910032,,,2022-09-12,清算の結了等,,,2021-06-24,1,,,,,イープライム,0
65,1020001111933,登記記録の閉鎖等,0,2022-09-22,2022-09-15,株式会社川戸マリンパートナーズ,,株式会社,神奈川県,横浜市金沢区,六浦東３丁目１７番５号,,14,108,2360037,,,2022-09-15,清算の結了等,,,2015-10-05,1,,,,,カワトマリンパートナーズ,0
85,1030002111782,登記記録の閉鎖等,0,2022-09-22,2022-09-08,成和経営コンサルティング有限会社,,有限会社,埼玉県,川口市,飯塚４丁目１７番１８－８０１号,,11,203,3320023,,,2022-09-08,清算の結了等,,,2015-10-05,1,,,,,セイワケイエイコンサルティング,0
87,1030005019651,登記記録の閉鎖等,0,2022-09-22,2022-09-09,医療法人クラルス,,その他の設立登記法人,埼玉県,さいたま市見沼区,大字南中丸６８０番地,,11,104,3370041,,,2022-09-09,清算の結了等,,,2019-10-24,1,,,,,クラルス,0
103,1100001007859,登記記録の閉鎖等,0,2022-09-22,2022-09-20,望月観光タクシー株式会社,,株式会社,長野県,佐久市,望月１３８番地２,,20,217,3842202,,,2022-09-20,清算の結了等,,,2015-10-05,1,,,,,モチヅキカンコウタクシー,0
107,1100002033532,登記記録の閉鎖等,0,2022-09-22,2022-09-16,有限会社グロースエンタープライズ,,有限会社,長野県,伊那市,西町５２３７番地１,,20,209,3960026,,,2022-09-16,清算の結了等,,,2015-10-05,1,,,,,グロースエンタープライズ,0
117,1120001040172,登記記録の閉鎖等,0,2022-09-22,2022-09-20,宮原工業株式会社,,株式会社,大阪府,大阪市浪速区,難波中１丁目１２番１３号小森ビル３階,,27,111,5560011,,,2022-09-20,清算の結了等,,,2015-10-05,1,,,,,ミヤハラコウギョウ,0
132,1120002006610,登記記録の閉鎖等,0,2022-09-22,2022-09-15,有限会社オーティエム,,有限会社,大阪府,大阪市東成区,深江北２丁目１番４号,,27,115,5370001,,,2022-09-15,清算の結了等,,,2015-10-05,1,,,,,オーティエム,0
141,1120901017724,登記記録の閉鎖等,0,2022-09-22,2022-09-20,株式会社エムスペース,,株式会社,大阪府,摂津市,一津屋３丁目１１番２８号,,27,224,5660043,,,2022-09-20,清算の結了等,,,2015-10-05,1,,,,,エムスペース,0
159,1150002006806,登記記録の閉鎖等,0,2022-09-22,2022-09-15,有限会社木村電気商会,,有限会社,奈良県,桜井市,大字西之宮２２８番地の２９,,29,206,6330066,,,2022-09-15,清算の結了等,,,2015-10-05,1,,,,,キムラデンキショウカイ,0
160,1160001016152,登記記録の閉鎖等,0,2022-09-22,2022-09-16,株式会社青木電気管理事務所,,株式会社,滋賀県,守山市,金森町９１７番地,,25,207,5240045,,,2022-09-16,清算の結了等,,,2015-10-05,1,,,,,アオキデンキカンリジムショ,0
174,1180002005350,登記記録の閉鎖等,0,2022-09-22,2022-09-16,有限会社ミタカ,,有限会社,愛知県,名古屋市千種区,千種３丁目２１番１２号,,23,101,4640858,,,2022-09-16,清算の結了等,,,2015-10-05,1,,,,,ミタカ,0
188,1220001003326,登記記録の閉鎖等,0,2022-09-22,2022-09-16,柴纎株式会社,,株式会社,石川県,金沢市,本町２丁目１８番２０号,,17,201,9200853,,,2022-09-16,清算の結了等,,,2015-10-05,1,,,,,シバセン,0
189,1220001011139,登記記録の閉鎖等,0,2022-09-22,2022-09-20,ＨＣメイト株式会社,,株式会社,石川県,金沢市,米丸町１５７番地,,17,201,9218004,,,2022-09-20,清算の結了等,,,2015-10-05,1,,,,,エイチシーメイト,0
203,1310005005210,登記記録の閉鎖等,0,2022-09-22,2022-09-13,特定非営利活動法人健康普及協会,,その他の設立登記法人,山口県,宇部市,大字善和２０３－１０６,,35,202,7590134,,,2022-09-13,清算の結了等,,,2015-10-05,1,,,,,ケンコウフキュウキョウカイ,0
216,1400001012829,登記記録の閉鎖等,0,2022-09-22,2022-09-06,株式会社花巻銀河パワー,,株式会社,岩手県,花巻市,大畑第９地割９２番地２４,,03,205,0250303,,,2022-09-06,合併による解散等,4021001066990,令和４年９月１日神奈川県横須賀市浦郷町五丁目２９３１番地１５株式会社横須賀アーバンウッドパワー（4021001066990）に合併し解散,2015-10-05,1,,,,,ハナマキギンガパワー,0
218,1430001034184,登記記録の閉鎖等,0,2022-09-22,2022-09-15,株式会社まつざわ,,株式会社,北海道,札幌市白石区,菊水六条２丁目７番１１号,,01,104,0030806,,,2022-09-15,清算の結了等,,,2015-10-05,1,,,,,マツザワ,0
226,1430002061335,登記記録の閉鎖等,0,2022-09-22,2022-09-06,有限会社石郷岡建設,,有限会社,北海道,日高郡新ひだか町,静内ときわ町４丁目１０番２０号,,01,610,0560023,,,2022-09-06,清算の結了等,,,2015-10-05,1,,,,,,0
231,1470001017879,登記記録の閉鎖等,0,2022-09-22,2022-09-12,スリーエムホーム香川株式会社,,株式会社,兵庫県,洲本市,納１７７番地２,,28,205,6560101,,,2022-09-12,清算の結了等,,,2020-02-05,1,,,,,スリーエムホームカガワ,0
256,2010005023588,登記記録の閉鎖等,0,2022-09-22,2022-09-20,一般社団法人日本江戸しぐさ協会,,その他の設立登記法人,東京都,千代田区,麹町４丁目８麹町高善ビル２階,,13,101,1020083,,,2022-09-20,清算の結了等,,,2015-10-05,1,,,,,ニホンエドシグサキョウカイ,0
271,2010405017132,登記記録の閉鎖等,0,2022-09-22,2022-09-05,ＤＳ　Ｋａｉｇａｎ一般社団法人,,その他の設立登記法人,東京都,港区,虎ノ門５丁目１番４号,,13,103,1050001,,,2022-09-05,清算の結了等,,,2018-10-11,1,,,,,ディーエスカイガン,0
275,2010601012449,登記記録の閉鎖等,0,2022-09-22,2022-09-14,太洋商工株式会社,,株式会社,東京都,墨田区,緑４丁目２０番１３号,,13,107,1300021,,,2022-09-14,清算の結了等,,,2015-10-05,1,,,,,タイヨウショウコウ,0
282,2011001094210,登記記録の閉鎖等,0,2022-09-22,2022-09-15,株式会社ＴＷＨ,,株式会社,東京都,新宿区,四谷坂町５－１コンフォール四谷００１,,13,104,1600002,,,2022-09-15,合併による解散等,3010401153797,令和４年８月８日東京都港区三田一丁目４番１号エイベックス・クリエイター・エージェンシー株式会社（3010401153797）に合併し解散,2015-10-05,1,,,,,ティダブリュエイチ,0
306,2012703001791,登記記録の閉鎖等,0,2022-09-22,2022-09-21,合同会社ＳＴＣ,,合同会社,東京都,清瀬市,野塩１丁目３４９番地１４,,13,221,2040004,,,2022-09-21,清算の結了等,,,2019-05-24,1,,,,,エスティシー,0
310,2020001132301,登記記録の閉鎖等,0,2022-09-22,2022-09-16,道明光学株式会社,,株式会社,神奈川県,横浜市中区,常盤町３丁目２４番地サンビル４階,,14,104,2310014,,,2022-09-16,清算の結了等,,,2019-08-05,1,,,,,ダオミンコウガク,0
315,2021001024760,登記記録の閉鎖等,0,2022-09-22,2022-09-20,株式会社サクラ,,株式会社,神奈川県,厚木市,中町２丁目８番２号,,14,212,2430018,,,2022-09-20,清算の結了等,,,2015-10-05,1,,,,,サクラ,0
326,2030002009407,登記記録の閉鎖等,0,2022-09-22,2022-09-09,有限会社東伸建設,,有限会社,埼玉県,さいたま市桜区,新開１丁目８番２７号,,11,106,3380834,,,2022-09-09,清算の結了等,,,2015-10-05,1,,,,,トウシンケンセツ,0
327,2030002064501,登記記録の閉鎖等,0,2022-09-22,2022-09-08,有限会社マル実電設,,有限会社,埼玉県,和光市,新倉１丁目２６番３８号,,11,229,3510115,,,2022-09-08,清算の結了等,,,2015-10-05,1,,,,,マルミデンセツ,0
340,2070001014635,登記記録の閉鎖等,0,2022-09-22,2022-09-15,株式会社伊勢崎地方卸売市場,,株式会社,群馬県,伊勢崎市,日乃出町７０２番地,,10,204,3720022,,,2022-09-15,清算の結了等,,,2015-10-05,1,,,,,イセサキチホウオロシウリイチバ,0
345,2080102016331,登記記録の閉鎖等,0,2022-09-22,2022-09-16,朝霧商事有限会社,,有限会社,静岡県,富士宮市,小泉１０９４番地１０,,22,207,4180022,,,2022-09-16,清算の結了等,,,2015-10-05,1,,,,,アサギリショウジ,0
361,2110001007452,登記記録の閉鎖等,0,2022-09-22,2022-09-20,株式会社きもの泉三,,株式会社,新潟県,新潟市南区,親和町１番１４号,,15,106,9501209,,,2022-09-20,清算の結了等,,,2015-10-05,1,,,,,キモノイズサン,0
364,2110002000720,登記記録の閉鎖等,0,2022-09-22,2022-09-20,有限会社石井エンジニアリング,,有限会社,新潟県,新潟市東区,藤見町２丁目２７番７号,,15,102,9500025,,,2022-09-20,清算の結了等,,,2015-10-05,1,,,,,イシイエンジニアリング,0
365,2110002032895,登記記録の閉鎖等,0,2022-09-22,2022-09-20,有限会社越産機,,有限会社,新潟県,南魚沼市,南田中字川原３４１番地,,15,226,9496362,,,2022-09-20,清算の結了等,,,2015-10-05,1,,,,,コシサンキ,0
369,2120001039255,登記記録の閉鎖等,0,2022-09-22,2022-09-16,株式会社長原ビル,,株式会社,大阪府,大阪市浪速区,難波中１丁目３番１７号,,27,111,5560011,,,2022-09-16,清算の結了等,,,2015-10-05,1,,,,,ナガハラビル,0
416,2200001023523,登記記録の閉鎖等,0,2022-09-22,2022-09-20,株式会社光建築設計事務所,,株式会社,岐阜県,中津川市,小川町２番８号,,21,206,5080023,,,2022-09-20,合併による解散等,1200001023524,令和４年９月２０日岐阜県中津川市小川町２番８号株式会社光測量コンサルタント（1200001023524）に合併し解散,2015-10-05,1,,,,,ヒカリケンチクセッケイジムショ,0
430,2260005010033,登記記録の閉鎖等,0,2022-09-22,2022-09-07,いろは社会保険労務士法人,,その他の設立登記法人,岡山県,岡山市北区,大元駅前３番５０号大元駅前ビル４階,,33,101,7000923,,,2022-09-07,合併による解散等,7010005016703,令和４年９月１日東京都中央区八丁堀四丁目１０番１１号サードプレイス社会保険労務士法人（7010005016703）に合併し解散,2016-01-21,1,,,,,イロハ,0
446,2330001013338,登記記録の閉鎖等,0,2022-09-22,2022-09-16,株式会社デルタソフトワークス,,株式会社,熊本県,宇城市,松橋町曲野７６７番地,,43,213,8690511,,,2022-09-16,清算の結了等,,,2015-10-05,1,,,,,デルタソフトワークス,0
453,2350001012676,登記記録の閉鎖等,0,2022-09-22,2022-09-16,株式会社ベースボールアディクト,,株式会社,東京都,千代田区,神田小川町３丁目４番地２ヴィクトリア本社ビル６階,,13,101,1010052,,,2022-09-16,合併による解散等,9011001124423,令和４年９月１日東京都渋谷区神南一丁目１０番６号株式会社アマダナスポーツエンタテインメント（9011001124423）に合併し解散,2015-10-05,1,,,,,,0
465,2420001004674,登記記録の閉鎖等,0,2022-09-22,2022-09-16,株式会社ヤマタネ,,株式会社,青森県,青森市,新町１丁目８番２０号,,02,201,0300801,,,2022-09-16,清算の結了等,,,2015-10-05,1,,,,,,0
474,2460002004983,登記記録の閉鎖等,0,2022-09-22,2022-09-20,有限会社丸豊小山内建設,,有限会社,北海道,川上郡標茶町,旭１丁目２番９号,,01,664,0882301,,,2022-09-20,清算の結了等,,,2015-10-05,1,,,,,マルトヨオサナイケンセツ,0
486,3010001212367,登記記録の閉鎖等,0,2022-09-22,2022-09-09,株式会社ＫＨコンサルタンシー,,株式会社,東京都,中央区,日本橋３丁目２番１４号,,13,102,1030027,,,2022-09-09,清算の結了等,,,2020-09-16,1,,,,,ケイエイチコンサルタンシー,0
499,3010102005430,登記記録の閉鎖等,0,2022-09-22,2022-09-16,有限会社バイオレット,,有限会社,東京都,八王子市,上野町１０９番地,,13,201,1920902,,,2022-09-16,清算の結了等,,,2015-10-05,1,,,,,バイオレット,0
501,3010102010447,登記記録の閉鎖等,0,2022-09-22,2022-09-16,有限会社教育総研アピール,,有限会社,東京都,八王子市,打越町１３０８番地の５３,,13,201,1920911,,,2022-09-16,清算の結了等,,,2015-10-05,1,,,,,キョウイクソウケンアピール,0
514,3010601038872,登記記録の閉鎖等,0,2022-09-22,2022-09-14,株式会社プラスアルファ,,株式会社,東京都,墨田区,緑２丁目７番２号アーバイル両国８０１,,13,107,1300021,,,2022-09-14,清算の結了等,,,2015-10-05,1,,,,,プラスアルファ,0
517,3010603008163,登記記録の閉鎖等,0,2022-09-22,2022-09-05,ＳＷＥＬＬ合同会社,,合同会社,東京都,江東区,豊洲４丁目１１番２０－１３３４号,,13,108,1350061,,,2022-09-05,清算の結了等,,,2020-01-27,1,,,,,スウェル,0
537,3011202002747,登記記録の閉鎖等,0,2022-09-22,2022-09-07,有限会社信栄サービス工事,,有限会社,東京都,中野区,鷺宮６丁目３０番２号,,13,114,1650032,,,2022-09-07,清算の結了等,,,2015-10-05,1,,,,,シンエイサービスコウジ,0
542,3011401011136,登記記録の閉鎖等,0,2022-09-22,2022-09-07,株式会社ジェービーエス,,株式会社,埼玉県,東松山市,大字新郷４８１－１,,11,212,3550071,,,2022-09-07,合併による解散等,8040001025753,令和４年９月１日埼玉県戸田市美女木五丁目１９番地８株式会社ビックロジサービス（8040001025753）に合併し解散,2015-10-05,1,,,,,ジェービーエス,0
553,3011702009705,登記記録の閉鎖等,0,2022-09-22,2022-09-16,有限会社冨士恵建設,,有限会社,東京都,江戸川区,中央２丁目３１番１３号,,13,123,1320021,,,2022-09-16,清算の結了等,,,2015-10-05,1,,,,,フジケイケンセツ,0
594,3030002104883,登記記録の閉鎖等,0,2022-09-22,2022-09-09,有限会社田村屋,,有限会社,埼玉県,川口市,上青木６丁目２番５号,,11,203,3330844,,,2022-09-09,清算の結了等,,,2015-10-05,1,,,,,タムラヤ,0
601,3040002085917,登記記録の閉鎖等,0,2022-09-22,2022-09-13,有限会社ヒロアキフーズ,,有限会社,千葉県,銚子市,川口町２丁目６５２９番地１６,,12,202,2880001,,,2022-09-13,清算の結了等,,,2015-10-05,1,,,,,ヒロアキフーズ,0
614,3080002006398,登記記録の閉鎖等,0,2022-09-22,2022-09-12,有限会社ランド・ハウス伊伝,,有限会社,静岡県,静岡市葵区,両替町１丁目１番地の７,,22,101,4200032,,,2022-09-12,合併による解散等,8080001010124,令和４年９月１日静岡市駿河区大坪町２番２号株式会社伊豆屋（8080001010124）に合併し解散,2015-10-05,1,,,,,ランドハウスイデン,0
615,3080102002231,登記記録の閉鎖等,0,2022-09-22,2022-09-21,有限会社高広工務店,00067896,有限会社,静岡県,沼津市,大岡３０７番地の１,,22,203,4100022,,,2022-09-21,清算の結了等,,,2015-10-05,1,,,,,タカヒロコウムテン,0
620,3100001010010,登記記録の閉鎖等,0,2022-09-22,2022-09-20,株式会社田中印刷,,株式会社,長野県,上田市,材木町１丁目１２番１８号,,20,203,3860014,,,2022-09-20,清算の結了等,,,2015-10-05,1,,,,,タナカインサツ,0
669,3160003000672,登記記録の閉鎖等,0,2022-09-22,2022-09-20,合同会社オフィスさとう,,合同会社,滋賀県,近江八幡市,鷹飼町北４丁目１番地１２,,25,204,5230896,,,2022-09-20,清算の結了等,,,2015-10-05,1,,,,,オフィスサトウ,0
675,3180001132945,登記記録の閉鎖等,0,2022-09-22,2022-09-15,株式会社ライフワーク,,株式会社,愛知県,名古屋市東区,豊前町２丁目７５番の４,,23,102,4610034,,,2022-09-15,清算の結了等,,,2018-07-04,1,,,,,ライフワーク,0
685,3200002003985,登記記録の閉鎖等,0,2022-09-22,2022-09-21,有限会社不二商会,,有限会社,岐阜県,岐阜市,宇佐南２丁目３番８号,,21,201,5008367,,,2022-09-21,清算の結了等,,,2015-10-05,1,,,,,フジショウカイ,0
694,3250002007767,登記記録の閉鎖等,0,2022-09-22,2022-09-14,有限会社秋芳ガスセンター,,有限会社,山口県,美祢市,秋芳町嘉万２９５４番地の１,,35,213,7540601,,,2022-09-14,清算の結了等,,,2015-10-05,1,,,,,シュウホウガスセンター,0
696,3250002020357,登記記録の閉鎖等,0,2022-09-22,2022-09-15,有限会社新定電気工務店,,有限会社,山口県,大島郡周防大島町,大字東安下庄１２５２番地の１,,35,305,7422805,,,2022-09-15,清算の結了等,,,2015-10-05,1,,,,,シンジョウデンキコウムテン,0
698,3260005002293,登記記録の閉鎖等,0,2022-09-22,2022-09-21,特定非営利活動法人岡山県理美容福祉協会,,その他の設立登記法人,岡山県,岡山市北区,新屋敷町３丁目１番１号,,33,101,7000986,,,2022-09-21,清算の結了等,,,2015-10-05,1,,,,,オカヤマケンリビヨウフクシキョウカイ,0
733,3410001000616,登記記録の閉鎖等,0,2022-09-22,2022-09-20,イカワ電子株式会社,,株式会社,秋田県,秋田市,川尻町字大川反１７０番地の２４,,05,201,0100941,,,2022-09-20,清算の結了等,,,2015-10-05,1,,,,,イカワデンシ,0
735,3410001011943,登記記録の閉鎖等,0,2022-09-22,2022-09-06,株式会社大仙こまちパワー,,株式会社,秋田県,大仙市,協和稲沢字台林１６番地の１,,05,212,0192521,,,2022-09-06,合併による解散等,4021001066990,令和４年９月１日神奈川県横須賀市浦郷町五丁目２９３１番地１５株式会社横須賀アーバンウッドパワー（4021001066990）に合併し解散,2018-08-22,1,,,,,ダイセンコマチパワー,0
746,3430002059071,登記記録の閉鎖等,0,2022-09-22,2022-09-09,有限会社タクト,,有限会社,北海道,苫小牧市,大成町２丁目３番１号,,01,213,0530806,,,2022-09-09,清算の結了等,,,2015-10-05,1,,,,,タクト,0
747,3430003012979,登記記録の閉鎖等,0,2022-09-22,2022-09-13,合同会社セレタン,,合同会社,北海道,札幌市中央区,大通西３丁目６北海道新聞本社ビル２Ｆ,,01,101,0600042,,,2022-09-13,清算の結了等,,,2021-07-21,1,,,,,セレタン,0
757,3500002013302,登記記録の閉鎖等,0,2022-09-22,2022-09-20,清家農産有限会社,,有限会社,愛媛県,八幡浜市,向灘１７０３番地,00007983,38,204,7960001,,,2022-09-20,清算の結了等,,,2015-10-05,1,,,,,セイケノウサン,0
775,4010401137436,登記記録の閉鎖等,0,2022-09-22,2022-06-30,金太陽株式会社,,株式会社,東京都,港区,浜松町２丁目２番１５号,,13,103,1050013,,,2022-06-30,清算の結了等,,,2018-03-29,1,,,,,キンタイヨウ,0
778,4010402024749,登記記録の閉鎖等,0,2022-09-22,2022-09-14,有限会社ケイネット,,有限会社,東京都,中央区,銀座７丁目１３番６号,,13,102,1040061,,,2022-09-14,清算の結了等,,,2015-10-05,1,,,,,ケイネット,0
824,4013205000314,登記記録の閉鎖等,0,2022-09-22,2022-09-06,目黒新橋協同組合,,その他の設立登記法人,東京都,目黒区,目黒１丁目２４番１９号,,13,110,1530063,,,2022-09-06,清算の結了等,,,2015-10-05,1,,,,,メグロシンバシ,0
828,4020001050947,登記記録の閉鎖等,0,2022-09-22,2022-09-15,株式会社幸保クリーンメンテナンス,,株式会社,神奈川県,横浜市港北区,樽町３丁目７番５３－３０８号,,14,109,2220001,,,2022-09-15,清算の結了等,,,2015-10-05,1,,,,,コウボクリーンメンテナンス,0
837,4030001135086,登記記録の閉鎖等,0,2022-09-22,2022-09-09,株式会社エム・アイリス,,株式会社,埼玉県,さいたま市大宮区,下町３丁目７番地１、Ｆ２４１０号,,11,103,3300844,,,2022-09-09,清算の結了等,,,2020-02-07,1,,,,,エムアイリス,0
852,4060001011648,登記記録の閉鎖等,0,2022-09-22,2022-09-12,中央コミュニティー株式会社,,株式会社,栃木県,那須郡那須町,大字高久乙字遅山３３７６番１７６５唐松平１７３号,,09,407,3250303,,,2022-09-12,清算の結了等,,,2015-10-05,1,,,,,チュウオウコミュニティー,0
853,4060002033864,登記記録の閉鎖等,0,2022-09-22,2022-09-15,有限会社平川自動車,,有限会社,栃木県,栃木市,都賀町平川５２６番地１,,09,203,3280112,,,2022-09-15,清算の結了等,,,2015-10-05,1,,,,,ヒラカワジドウシャ,0
856,4070001022355,登記記録の閉鎖等,0,2022-09-22,2022-09-08,株式会社オーシャン,,株式会社,群馬県,館林市,近藤町２番地の１６２,,10,207,3740042,,,2022-09-08,清算の結了等,,,2015-10-05,1,,,,,オーシャン,0
865,4100001008862,登記記録の閉鎖等,0,2022-09-22,2022-09-20,タリアセン株式会社,,株式会社,長野県,北佐久郡軽井沢町,大字長倉２９１番地１,,20,321,3890111,,,2022-09-20,清算の結了等,,,2015-10-05,1,,,,,タリアセン,0
875,4120001165058,登記記録の閉鎖等,0,2022-09-22,2022-09-20,株式会社ストラテジ・アンド・システムズコンサルタント,,株式会社,大阪府,箕面市,船場西３丁目１５番７－３０５号,,27,220,5620036,,,2022-09-20,清算の結了等,,,2015-10-05,1,,,,,ストラテジアンドシステムズコンサルタント,0
877,4120001184470,登記記録の閉鎖等,0,2022-09-22,2022-09-20,株式会社トータルプレイズ,,株式会社,大阪府,大阪市天王寺区,東高津町１１番５－７０１号,,27,109,5430021,,,2022-09-20,清算の結了等,,,2015-10-05,1,,,,,トータルプレイズ,0
878,4120001206654,登記記録の閉鎖等,0,2022-09-22,2022-09-20,株式会社近畿設備工事,,株式会社,大阪府,大阪市東淀川区,豊里３丁目６番２号,,27,114,5330013,,,2022-09-20,清算の結了等,,,2017-07-04,1,,,,,キンキセツビコウジ,0
904,4160001007149,登記記録の閉鎖等,0,2022-09-22,2022-09-20,株式会社横田商店,,株式会社,滋賀県,長浜市,元浜町１０番１８号,,25,203,5260059,,,2022-09-20,清算の結了等,,,2015-10-05,1,,,,,ヨコタショウテン,0
925,4200001021310,登記記録の閉鎖等,0,2022-09-22,2022-09-20,株式会社さくら工芸,,株式会社,岐阜県,多治見市,平和町４丁目４５番地,,21,204,5070827,,,2022-09-20,清算の結了等,,,2015-10-05,1,,,,,サクラコウゲイ,0
936,4280001002526,登記記録の閉鎖等,0,2022-09-22,2022-09-20,株式会社チョイス,,株式会社,島根県,松江市,東出雲町揖屋３５３９番地２,,32,201,6990101,,,2022-09-20,清算の結了等,,,2015-10-05,1,,,,,チョイス,0
961,4400005007558,登記記録の閉鎖等,0,2022-09-22,2022-09-20,一般社団法人三陸国際交流協会,,その他の設立登記法人,岩手県,大船渡市,盛町字木町１番地６,,03,203,0220003,,,2022-09-20,清算の結了等,,,2015-10-05,1,,,,,サンリクコクサイコウリュウキョウカイ,0
1017,5010403018220,登記記録の閉鎖等,0,2022-09-22,2022-09-16,アーサス合同会社,,合同会社,東京都,中央区,銀座６丁目１４番８号,,13,102,1040061,,,2022-09-16,合併による解散等,9011001136369,令和４年９月１日東京都渋谷区神宮前四丁目８番１７号株式会社Ｃｏｇｉｔｔｏ（9011001136369）に合併し解散,2018-03-06,1,,,,,,0
1018,5010403022313,登記記録の閉鎖等,0,2022-09-22,2022-07-28,合同会社クオンタムレジデンス,,合同会社,東京都,港区,港南１丁目９番３６号アレア品川１３階エキスパートオフィス品川８０１号室,,13,103,1080075,,,2022-07-28,合併による解散等,6011001096822,令和４年７月２０日東京都港区港南一丁目９番３６号アレア品川１３階エキスパートオフィス品川８０１号室ＱｕａｎｔｕｍＦｏｒｃｅＣａｐｉｔａｌ株式会社（6011001096822）に合併し解散,2020-02-12,1,,,,,クオンタムレジデンス,0
1043,5011101002706,登記記録の閉鎖等,0,2022-09-22,2022-09-05,株式会社ヒット,,株式会社,東京都,新宿区,東五軒町３番２５号,,13,104,1620813,,,2022-09-05,合併による解散等,8010601016535,令和４年９月１日東京都墨田区両国四丁目１９番２号株式会社都市整美センター（8010601016535）に合併し解散,2015-10-05,1,,,,,,0
1050,5011103009848,登記記録の閉鎖等,0,2022-09-22,2022-09-20,司ビジネス合同会社,,合同会社,東京都,新宿区,新宿３丁目１２番４号新宿Ｎタウンプラザ３０９号,,13,104,1600022,,,2022-09-20,清算の結了等,,,2020-07-14,1,,,,,ツカサビジネス,0
1062,5011802002871,登記記録の閉鎖等,0,2022-09-22,2022-09-16,有限会社コツクピツト,,有限会社,東京都,葛飾区,水元３丁目１番１号,,13,122,1250032,,,2022-09-16,清算の結了等,,,2015-10-05,1,,,,,コックピット,0
1078,5021005002041,登記記録の閉鎖等,0,2022-09-22,2022-09-06,医療法人養生院,,その他の設立登記法人,神奈川県,鎌倉市,小町２丁目１３番７号,,14,204,2480006,,,2022-09-06,合併による解散等,1120005005403,令和４年９月１日大阪市北区梅田一丁目３番１－１２００号医療法人徳洲会（1120005005403）に合併し解散,2015-10-05,1,,,,,ヨウジョウイン,0
1084,5030003011458,登記記録の閉鎖等,0,2022-09-22,2022-09-08,ラビットグラナリー合同会社,,合同会社,埼玉県,さいたま市浦和区,北浦和２丁目４番３号２０５,,11,107,3300074,,,2022-09-08,合併による解散等,9030003006132,令和４年９月１日さいたま市浦和区北浦和一丁目２０番９号エイチ・リンク合同会社（9030003006132）に合併し解散,2018-02-16,1,,,,,ラビットグラナリー,0
1085,5030003018247,登記記録の閉鎖等,0,2022-09-22,2022-09-07,合同会社ｋａｌｕｅｍ,,合同会社,埼玉県,東松山市,六軒町８番地１８,,11,212,3550024,,,2022-09-07,清算の結了等,,,2021-11-04,1,,,,,カルエム,0
1090,5040002013603,登記記録の閉鎖等,0,2022-09-22,2022-09-13,有限会社ウェーブ,,有限会社,千葉県,千葉市若葉区,都賀３丁目２３番２号エクセレント都賀駅前プラザ７０１号,,12,104,2640025,,,2022-09-13,清算の結了等,,,2015-10-05,1,,,,,ウェーブ,0
1098,5070001014789,登記記録の閉鎖等,0,2022-09-22,2022-09-16,株式会社赤城染工,,株式会社,群馬県,伊勢崎市,香林町２丁目１１２３番地,,10,204,3792206,,,2022-09-16,清算の結了等,,,2015-10-05,1,,,,,アカギセンコウ,0
1113,5120002022372,登記記録の閉鎖等,0,2022-09-22,2022-09-21,有限会社大和電業社,,有限会社,大阪府,大阪市西区,新町１丁目１９番２号,,27,106,5500013,,,2022-09-21,清算の結了等,,,2015-10-05,1,,,,,ヤマトデンギョウシャ,0
1114,5120003017594,登記記録の閉鎖等,0,2022-09-22,2022-09-15,メドナイン合同会社,,合同会社,大阪府,大阪市東淀川区,下新庄２丁目１６番２０号,,27,114,5330021,,,2022-09-15,清算の結了等,,,2020-06-12,1,,,,,メドナイン,0
1141,5170001009176,登記記録の閉鎖等,0,2022-09-22,2022-09-20,紀州梅干食品株式会社,,株式会社,和歌山県,日高郡みなべ町,埴田１７５３番地,,30,391,6450004,,,2022-09-20,清算の結了等,,,2015-10-05,1,,,,,キシュウウメボシショクヒン,0
1158,5180302012737,登記記録の閉鎖等,0,2022-09-22,2022-09-09,石黒商事有限会社,,有限会社,愛知県,豊川市,豊川元町３５番地,,23,207,4420035,,,2022-09-09,清算の結了等,,,2015-10-05,1,,,,,イシグロショウジ,0
1167,5230002013278,登記記録の閉鎖等,0,2022-09-22,2022-09-20,有限会社魚恵,,有限会社,富山県,氷見市,北大町７番３８号,,16,205,9350004,,,2022-09-20,清算の結了等,,,2015-10-05,1,,,,,ギョケイ,0
1175,5260002032564,登記記録の閉鎖等,0,2022-09-22,2022-09-21,有限会社田中薬局,,有限会社,岡山県,玉野市,宇野２丁目２７番２１号,,33,204,7060011,,,2022-09-21,清算の結了等,,,2015-10-05,1,,,,,タナカヤッキョク,0
1176,5260003001254,登記記録の閉鎖等,0,2022-09-22,2022-09-21,合同会社明成,,合同会社,岡山県,岡山市北区,田中１４９番地１０３,,33,101,7000951,,,2022-09-21,清算の結了等,,,2015-10-05,1,,,,,メイセイ,0
1190,5320001016917,登記記録の閉鎖等,0,2022-09-22,2022-09-20,颯運送株式会社,,株式会社,大分県,日田市,大字川下７２３番地７,,44,204,8770066,,,2022-09-20,清算の結了等,,,2019-03-01,1,,,,,ハヤテウンソウ,0
1192,5340002003111,登記記録の閉鎖等,0,2022-09-22,2022-09-21,有限会社銀座十字堂,,有限会社,鹿児島県,鹿児島市,千日町９番２７号,,46,201,8920843,,,2022-09-21,清算の結了等,,,2015-10-05,1,,,,,ギンザジュウジドウ,0
1202,5370101001558,登記記録の閉鎖等,0,2022-09-22,2022-09-09,株式会社ジェイエイ仙南サービス,,株式会社,宮城県,柴田郡柴田町,西船迫１丁目１０番地３,,04,323,9891622,,,2022-09-09,清算の結了等,,,2015-10-05,1,,,,,,0
1224,5500001002147,登記記録の閉鎖等,0,2022-09-22,2022-09-01,株式会社週刊ジョブ,,株式会社,愛媛県,松山市,西垣生町１３６５番地７,,38,201,7918044,,,2022-09-01,合併による解散等,5500001002659,令和４年９月１日愛媛県松山市土居田町７３９番地田中段ボール株式会社（5500001002659）に合併し解散,2015-10-05,1,,,,,シュウカンジョブ,0
1233,6010001112507,登記記録の閉鎖等,0,2022-09-22,2022-09-20,カスタム・テクノロジー株式会社,,株式会社,東京都,千代田区,平河町２丁目１２番４号,,13,101,1020093,,,2022-09-20,清算の結了等,,,2015-10-05,1,,,,,カスタムテクノロジー,0
1242,6010401015870,登記記録の閉鎖等,0,2022-09-22,2022-09-16,セントラルブレイントラスト株式会社,,株式会社,神奈川県,藤沢市,鵠沼桜が岡２丁目４番５号,00012741,14,205,2510027,,,2022-09-16,清算の結了等,,,2015-10-05,1,,,,,セントラルブレイントラスト,0
1250,6010501025836,登記記録の閉鎖等,0,2022-09-22,2022-09-20,株式会社ビッグベン,,株式会社,東京都,台東区,雷門２丁目３番１１号,,13,106,1110034,,,2022-09-20,清算の結了等,,,2015-10-05,1,,,,,ビッグベン,0
1261,6011001065513,登記記録の閉鎖等,0,2022-09-22,2022-09-06,株式会社久保田工務店,,株式会社,東京都,渋谷区,富ヶ谷２丁目２３番５号,,13,113,1510063,,,2022-09-06,清算の結了等,,,2015-10-05,1,,,,,クボタコウムテン,0
1263,6011005006926,登記記録の閉鎖等,0,2022-09-22,2022-09-08,一般社団法人きざはし,,その他の設立登記法人,東京都,目黒区,東が丘２丁目１３番６号,,13,110,1520021,,,2022-09-08,清算の結了等,,,2016-09-27,1,,,,,キザハシ,0
1276,6011701010702,登記記録の閉鎖等,0,2022-09-22,2022-09-20,株式会社坂東興産,,株式会社,東京都,江戸川区,西葛西２丁目１８番１６号,,13,123,1340088,,,2022-09-20,清算の結了等,,,2015-10-05,1,,,,,バンドウコウサン,0
1279,6011803003653,登記記録の閉鎖等,0,2022-09-22,2022-09-20,合同会社ワンズワース,,合同会社,東京都,葛飾区,高砂６丁目１６－１２,,13,122,1250054,,,2022-09-20,清算の結了等,,,2019-03-29,1,,,,,ワンズワース,0
1284,6013402001996,登記記録の閉鎖等,0,2022-09-22,2022-09-14,有限会社オフィスケイト,,有限会社,東京都,多摩市,豊ヶ丘１丁目４番地の２４,,13,224,2060031,,,2022-09-14,清算の結了等,,,2015-10-05,1,,,,,,0
1292,6030001002103,登記記録の閉鎖等,0,2022-09-22,2022-09-09,協進工業株式会社,,株式会社,埼玉県,さいたま市南区,大字太田窪字下２９３０番地１,,11,108,3360015,,,2022-09-09,清算の結了等,,,2015-10-05,1,,,,,キョウシンコウギョウ,0
1314,6050003004723,登記記録の閉鎖等,0,2022-09-22,2022-09-15,合同会社オフィスケイ,,合同会社,茨城県,筑西市,乙６９３番地,,08,227,3080041,,,2022-09-15,清算の結了等,,,2019-06-28,1,,,,,オフィスケイ,0
1317,6060002026908,登記記録の閉鎖等,0,2022-09-22,2022-09-14,有限会社オーケー観光社,,有限会社,栃木県,矢板市,境林６２６番地１,,09,211,3292143,,,2022-09-14,清算の結了等,,,2015-10-05,1,,,,,オーケーカンコウシャ,0
1322,6080402007480,登記記録の閉鎖等,0,2022-09-22,2022-09-21,有限会社松浦工業,,有限会社,静岡県,浜松市中区,西浅田２丁目５番５号,,22,131,4328045,,,2022-09-21,清算の結了等,,,2015-10-05,1,,,,,マツウラコウギョウ,0
1328,6120001128839,登記記録の閉鎖等,0,2022-09-22,2022-09-16,株式会社ソンジェジャパン,,株式会社,大阪府,大阪市中央区,本町橋２－２３第７松屋ビル１００５,,27,128,5400029,,,2022-09-16,清算の結了等,,,2015-10-05,1,,,,,ソンジェジャパン,0
1341,6120002025011,登記記録の閉鎖等,0,2022-09-22,2022-09-09,有限会社阪口建材店,,有限会社,大阪府,大阪市東淀川区,瑞光１丁目９番２号,,27,114,5330005,,,2022-09-09,清算の結了等,,,2015-10-05,1,,,,,,0
1367,6140001069742,登記記録の閉鎖等,0,2022-09-22,2022-09-13,日宇興業株式会社,,株式会社,兵庫県,西宮市,学文殿町１丁目７番２号,,28,204,6638182,,,2022-09-13,清算の結了等,,,2015-10-05,1,,,,,ニチウコウギョウ,0
1368,6140001097909,登記記録の閉鎖等,0,2022-09-22,2022-09-20,アンテ・リシェス株式会社,,株式会社,大阪府,大阪市北区,堂島２丁目２番８－３１０５号,,27,127,5300003,,,2022-09-20,清算の結了等,,,2015-10-05,1,,,,,アンテリシェス,0
1371,6140005019330,登記記録の閉鎖等,0,2022-09-22,2022-09-06,天理教天慶分教会,,その他の設立登記法人,兵庫県,洲本市,安乎町平安浦字間所１４３７番地の２,,28,205,6562121,,,2022-09-06,合併による解散等,3140005019309,令和４年９月６日兵庫県洲本市宇山三丁目１番１号天理教洲本大教会（3140005019309）に合併し解散,2015-10-05,1,,,,,,0
1380,6180001072049,登記記録の閉鎖等,0,2022-09-22,2022-09-14,株式会社湊不動産管理,,株式会社,愛知県,名古屋市名東区,小池町４６８番地７,,23,115,4650047,,,2022-09-14,合併による解散等,5180001003013,令和４年８月３１日名古屋市名東区小池町４６８番地７株式会社湊不動産（5180001003013）に合併し解散,2015-10-05,1,,,,,ミナトフドウサンカンリ,0
1385,6180001117274,登記記録の閉鎖等,0,2022-09-22,2022-09-20,株式会社グレイジング,,株式会社,愛知県,海部郡蟹江町,宝１丁目５８０番地,,23,425,4970030,,,2022-09-20,清算の結了等,,,2015-10-05,1,,,,,グレイジング,0
1389,6180301008066,登記記録の閉鎖等,0,2022-09-22,2022-09-20,愛知日東電工株式会社,,株式会社,愛知県,豊橋市,中原町字平山１８番地,,23,201,4413106,,,2022-09-20,清算の結了等,,,2015-10-05,1,,,,,アイチニットウデンコウ,0
1417,6290802025961,登記記録の閉鎖等,0,2022-09-22,2022-09-16,有限会社シード,,有限会社,福岡県,田川郡川崎町,大字池尻１４７９番地１６,,40,605,8270002,,,2022-09-16,清算の結了等,,,2015-10-05,1,,,,,シード,0
1420,6310001012271,登記記録の閉鎖等,0,2022-09-22,2022-09-01,株式会社ドゥコーポレーション,,株式会社,長崎県,南松浦郡新上五島町,青方郷２２８２番地,,42,411,8574404,,,2022-09-01,合併による解散等,3310001016597,令和４年９月１日長崎県南松浦郡新上五島町青方郷２２８２番地株式会社ドゥイングホールディングス（3310001016597）に合併し解散,2015-10-05,1,,,,,ドゥコーポレーション,0
1426,6340005006291,登記記録の閉鎖等,0,2022-09-22,2022-09-21,一般社団法人鹿児島天文館総合研究所Ｔｅｎ－Ｌａｂ,,その他の設立登記法人,鹿児島県,鹿児島市,船津町１番地１１,,46,201,8920831,,,2022-09-21,清算の結了等,,,2015-10-05,1,,,,,カゴシマテンモンカンソウゴウケンキュウショテンラボ,0
1431,6380001031018,登記記録の閉鎖等,0,2022-09-22,2022-09-06,株式会社ふくしま未来パワー,,株式会社,福島県,田村市,大越町上大越字後原１０番地６６,,07,211,9634111,,,2022-09-06,合併による解散等,4021001066990,令和４年９月１日神奈川県横須賀市浦郷町五丁目２９３１番地１５株式会社横須賀アーバンウッドパワー（4021001066990）に合併し解散,2020-06-22,1,,,,,フクシマミライパワー,0
1434,6420001014843,登記記録の閉鎖等,0,2022-09-22,2022-09-06,株式会社津軽あっぷるパワー,,株式会社,青森県,平川市,松崎西田４１番地１０,,02,210,0360164,,,2022-09-06,合併による解散等,4021001066990,令和４年９月１日神奈川県横須賀市浦郷町五丁目２９３１番地１５株式会社横須賀アーバンウッドパワー（4021001066990）に合併し解散,2015-10-05,1,,,,,ツガルアップルパワー,0
1435,6420002012004,登記記録の閉鎖等,0,2022-09-22,2022-09-16,有限会社山王運輸,,有限会社,青森県,五所川原市,相内吉野１２０番地,,02,205,0370401,,,2022-09-16,清算の結了等,,,2015-10-05,1,,,,,サンノウウンユ,0
1443,6450002006003,登記記録の閉鎖等,0,2022-09-22,2022-09-20,有限会社ヨシダ,,有限会社,北海道,旭川市,忠和四条６丁目４番２６号,,01,204,0708044,,,2022-09-20,清算の結了等,,,2015-10-05,1,,,,,ヨシダ,0
1455,7010001080050,登記記録の閉鎖等,0,2022-09-22,2022-09-12,ジェイ・ピー・ビルテクノサービス株式会社,,株式会社,東京都,千代田区,二番町５番７号,,13,101,1020084,,,2022-09-12,清算の結了等,,,2015-10-05,1,,,,,ジェイピービルテクノサービス,0
1479,7010502003286,登記記録の閉鎖等,0,2022-09-22,2022-09-20,有限会社鬼頭商店,,有限会社,東京都,台東区,松が谷２丁目２７番１０号スターボード１０１,,13,106,1110036,,,2022-09-20,清算の結了等,,,2015-10-05,1,,,,,キトウショウテン,0
1484,7010701029826,登記記録の閉鎖等,0,2022-09-22,2022-09-15,株式会社ＭＡＫＥＹ,,株式会社,東京都,渋谷区,神宮前６丁目２３番４号桑野ビル２階,,13,113,1500001,,,2022-09-15,合併による解散等,3010401153797,令和４年８月８日東京都港区三田一丁目４番１号エイベックス・クリエイター・エージェンシー株式会社（3010401153797）に合併し解散,2015-10-05,1,,,,,メイキー,0
1498,7011101090229,登記記録の閉鎖等,0,2022-09-22,2022-09-21,ビグレ株式会社,,株式会社,東京都,新宿区,西新宿７丁目１７番１４号,,13,104,1600023,,,2022-09-21,清算の結了等,,,2020-01-28,1,,,,,ビグレ,0
1500,7011103009656,登記記録の閉鎖等,0,2022-09-22,2022-09-20,ＰｒｏｕＤＣｏｍｍＵｎｉｔｙ合同会社,,合同会社,東京都,新宿区,西新宿４丁目２４番１５号,,13,104,1600023,,,2022-09-20,清算の結了等,,,2020-04-21,1,,,,,プラウドコミュニティー,0
1503,7011501026047,登記記録の閉鎖等,0,2022-09-22,2022-09-16,Ｍｉｄｄｌｅ　Ｃ　Ｓｕｐｐｌｙ株式会社,,株式会社,東京都,荒川区,南千住１丁目４５番８号,,13,118,1160003,,,2022-09-16,清算の結了等,,,2020-07-27,1,,,,,ミドウシサプライ,0
1526,7020002022067,登記記録の閉鎖等,0,2022-09-22,2022-09-15,有限会社ながや,,有限会社,神奈川県,横浜市旭区,上川井町２７３番地,,14,112,2410802,,,2022-09-15,清算の結了等,,,2015-10-05,1,,,,,ナガヤ,0
1551,7030002082705,登記記録の閉鎖等,0,2022-09-22,2022-09-07,有限会社スポーツ・ショップミヤタ,,有限会社,埼玉県,鴻巣市,本町３丁目４番１０号,,11,217,3650038,,,2022-09-07,清算の結了等,,,2015-10-05,1,,,,,スポーツショップミヤタ,0
1577,7110003003379,登記記録の閉鎖等,0,2022-09-22,2022-09-20,合同会社アルファスブライト,,合同会社,新潟県,長岡市,緑町１丁目３８番地４３１,,15,202,9402105,,,2022-09-20,清算の結了等,,,2016-10-28,1,,,,,アルファスブライト,0
1591,7120002009525,登記記録の閉鎖等,0,2022-09-22,2022-09-15,有限会社澤田米穀店,,有限会社,大阪府,大阪市生野区,桃谷２丁目２０番１５号,,27,116,5440034,,,2022-09-15,清算の結了等,,,2015-10-05,1,,,,,サワダベイコクテン,0
1605,7140001035090,登記記録の閉鎖等,0,2022-09-22,2022-09-15,株式会社竹内冷機,,株式会社,兵庫県,明石市,松が丘北町１０９９番地の２,,28,203,6730861,,,2022-09-15,清算の結了等,,,2015-10-05,1,,,,,タケウチレイキ,0
1613,7180001100345,登記記録の閉鎖等,0,2022-09-22,2022-09-06,株式会社ナイトウ,,株式会社,愛知県,春日井市,長塚町１丁目１２９番地,,23,206,4860934,,,2022-09-06,清算の結了等,,,2015-10-05,1,,,,,ナイトウ,0
1615,7180001149283,登記記録の閉鎖等,0,2022-09-22,2022-09-20,株式会社ＺＡＹＴ,,株式会社,愛知県,名古屋市中村区,則武１丁目１３番９号,,23,105,4530014,,,2022-09-20,清算の結了等,,,2021-12-27,1,,,,,ザイト,0
1623,7180002031465,登記記録の閉鎖等,0,2022-09-22,2022-09-16,有限会社セラヴィ,,有限会社,愛知県,名古屋市中区,千代田５丁目７番１５号,,23,106,4600012,,,2022-09-16,清算の結了等,,,2015-10-05,1,,,,,セラヴィ,0
1629,7200001017124,登記記録の閉鎖等,0,2022-09-22,2022-09-20,株式会社玄馬,,株式会社,岐阜県,美濃加茂市,下米田町今６２８番地の５,,21,211,5050015,,,2022-09-20,清算の結了等,,,2015-10-05,1,,,,,ゲンマ,0
1638,7240001034578,登記記録の閉鎖等,0,2022-09-22,2022-09-20,白金不動産株式会社,,株式会社,広島県,福山市,胡町１番１３号,,34,207,7200055,,,2022-09-20,清算の結了等,,,2015-10-05,1,,,,,シロガネフドウサン,0
1656,7310002018267,登記記録の閉鎖等,0,2022-09-22,2022-09-20,有限会社下田フーズ,,有限会社,長崎県,南島原市,有家町中須川２９８番地１,,42,214,8592206,,,2022-09-20,清算の結了等,,,2015-10-05,1,,,,,シモダフーズ,0
1659,7340005003478,登記記録の閉鎖等,0,2022-09-22,2022-09-20,医療法人前畠クリニック,,その他の設立登記法人,鹿児島県,薩摩川内市,樋脇町市比野２６１７番地,00100139,46,215,8951203,,,2022-09-20,清算の結了等,,,2015-10-05,1,,,,,マエハタクリニック,0
1666,7380002026164,登記記録の閉鎖等,0,2022-09-22,2022-09-15,有限会社丸白土建,,有限会社,福島県,いわき市,好間町中好間字半貫沢３４番地の７０,,07,204,9701152,,,2022-09-15,清算の結了等,,,2015-10-05,1,,,,,マルシロドケン,0
1672,7430002036208,登記記録の閉鎖等,0,2022-09-22,2022-09-12,有限会社日成企画,,有限会社,北海道,札幌市南区,簾舞二条４丁目２番１号,00089413,01,106,0612262,,,2022-09-12,清算の結了等,,,2015-10-05,1,,,,,ニッセイキカク,0
1682,8010001139556,登記記録の閉鎖等,0,2022-09-22,2022-09-20,株式会社ＫＳＦ,,株式会社,東京都,千代田区,二番町９－３,,13,101,1020084,,,2022-09-20,清算の結了等,,,2015-10-05,1,,,,,ケーエスエフ,0
1690,8010005024201,登記記録の閉鎖等,0,2022-09-22,2022-09-16,一般社団法人日本コンクリート保証機構,,その他の設立登記法人,東京都,中央区,日本橋馬喰町１丁目５番３号,,13,102,1030002,,,2022-09-16,清算の結了等,,,2015-10-05,1,,,,,,0
1748,8012402014998,登記記録の閉鎖等,0,2022-09-22,2022-09-13,有限会社エス・ティー企画,,有限会社,東京都,国分寺市,本町２丁目１４番３号,,13,214,1850012,,,2022-09-13,清算の結了等,,,2015-10-05,1,,,,,エスティーキカク,0
1755,8012801016661,登記記録の閉鎖等,0,2022-09-22,2022-09-13,株式会社５００ＲＰＭ,,株式会社,京都府,京都市下京区,下珠数屋町通東洞院東入西玉水町２８４番地－５０１号,,26,106,6008155,,,2022-09-13,清算の結了等,,,2015-10-05,1,,,,,ファイブハンドレッドアールピーエム,0
1762,8013402006283,登記記録の閉鎖等,0,2022-09-22,2022-09-16,有限会社荻ビル,,有限会社,東京都,多摩市,桜ヶ丘３丁目１４番地５,,13,224,2060013,,,2022-09-16,清算の結了等,,,2015-10-05,1,,,,,オギビル,0
1776,8021002030001,登記記録の閉鎖等,0,2022-09-22,2022-09-16,有限会社ヒラモト板金工業,,有限会社,神奈川県,相模原市緑区,青山４８５番地１５,,14,151,2520156,,,2022-09-16,清算の結了等,,,2015-10-05,1,,,,,ヒラモトバンキンコウギョウ,0
1779,8030001049027,登記記録の閉鎖等,0,2022-09-22,2022-09-05,株式会社イーアンドエムエンジニアリング,,株式会社,埼玉県,朝霞市,根岸台２丁目１番４７号,,11,227,3510005,,,2022-09-05,合併による解散等,7030001082458,令和４年９月１日埼玉県川口市並木一丁目７番４４号ネムス株式会社（7030001082458）に合併し解散,2015-10-05,1,,,,,イーアンドエムエンジニアリング,0
1783,8030001140181,登記記録の閉鎖等,0,2022-09-22,2022-09-05,株式会社ジーエムティーラボ日本,,株式会社,埼玉県,久喜市,原５６３番地,,11,232,3460026,,,2022-09-05,清算の結了等,,,2021-01-13,1,,,,,ジーエムティーラボニッポン,0
1788,8030002108351,登記記録の閉鎖等,0,2022-09-22,2022-09-08,有限会社和光塗料店,,有限会社,埼玉県,川口市,弥平１丁目１２番１７号,,11,203,3320002,,,2022-09-08,清算の結了等,,,2015-10-05,1,,,,,ワコウトリョウテン,0
1794,8060001001190,登記記録の閉鎖等,0,2022-09-22,2022-09-16,株式会社科学館ラウンジ,,株式会社,栃木県,宇都宮市,西川田本町１丁目３番２８号,,09,201,3210158,,,2022-09-16,清算の結了等,,,2015-10-05,1,,,,,カガクカンラウンジ,0
1807,8080402006175,登記記録の閉鎖等,0,2022-09-22,2022-09-20,有限会社浜松フーズサプライ,,有限会社,静岡県,浜松市中区,神田町５１８番地,,22,131,4328047,,,2022-09-20,清算の結了等,,,2015-10-05,1,,,,,ハママツフーズサプライ,0
1808,8100005011693,登記記録の閉鎖等,0,2022-09-22,2022-09-13,一般社団法人長野県地域包括医療福祉協会,,その他の設立登記法人,長野県,長野市,松岡２丁目４番２１,,20,201,3810026,,,2022-09-13,清算の結了等,,,2015-10-05,1,,,,,ナガノケンチイキホウカツイリョウフクシキョウカイ,0
1817,8120002037599,登記記録の閉鎖等,0,2022-09-22,2022-09-15,有限会社南海堂,,有限会社,大阪府,大阪市中央区,上汐２丁目５番６号,,27,128,5420064,,,2022-09-15,清算の結了等,,,2015-10-05,1,,,,,ナンカイドウ,0
1842,8170001005511,登記記録の閉鎖等,0,2022-09-22,2022-09-21,畑中化工株式会社,,株式会社,和歌山県,海南市,且来２６５番地,,30,202,6420015,,,2022-09-21,清算の結了等,,,2015-10-05,1,,,,,ハタナカカコウ,0
1851,8180001125176,登記記録の閉鎖等,0,2022-09-22,2022-09-12,株式会社ＨＫコーポレーション,,株式会社,愛知県,名古屋市東区,矢田南３丁目４番８号ラ・ヴァンスナゴヤドーム前１００２号,,23,102,4610048,,,2022-09-12,合併による解散等,9180003018559,令和４年９月５日名古屋市東区矢田南三丁目４番８号（ラ・ヴァンスナゴヤドーム前１００２号）合同会社Ｈ１エステート（9180003018559）に合併し解散,2016-10-18,1,,,,,エイチケイコーポレーション,0
1874,8250002004818,登記記録の閉鎖等,0,2022-09-22,2022-09-16,有限会社斉藤総合保険事務所,,有限会社,山口県,宇部市,笹山町１丁目１４番９号,,35,202,7550015,,,2022-09-16,清算の結了等,,,2015-10-05,1,,,,,サイトウソウゴウホケンジムショ,0
1880,8290001090120,登記記録の閉鎖等,0,2022-09-22,2022-09-13,株式会社ゴールドマスターズ,,株式会社,福岡県,福岡市東区,香椎駅前２丁目９番１５号香椎新浜ビル３Ｆ,,40,131,8130013,,,2022-09-13,清算の結了等,,,2020-09-11,1,,,,,ゴールドマスターズ,0
1886,8290801021778,登記記録の閉鎖等,0,2022-09-22,2022-09-16,株式会社メンテックトキワ,,株式会社,福岡県,北九州市小倉南区,横代北町５丁目２２番３０号,,40,107,8020821,,,2022-09-16,清算の結了等,,,2015-10-05,1,,,,,メンテックトキワ,0
1894,8330002018941,登記記録の閉鎖等,0,2022-09-22,2022-09-15,有限会社あいおい保険事務所,,有限会社,熊本県,山鹿市,鹿校通２丁目２番４号,,43,208,8610532,,,2022-09-15,清算の結了等,,,2015-10-05,1,,,,,アイオイホケンジムショ,0
1913,8430003013337,登記記録の閉鎖等,0,2022-09-22,2022-09-13,合同会社自足,,合同会社,北海道,札幌市北区,北二十七条西７丁目３－７－５,,01,102,0010027,,,2022-09-13,清算の結了等,,,2021-11-08,1,,,,,ジソク,0
1918,8490002011815,登記記録の閉鎖等,0,2022-09-22,2022-09-20,有限会社南国エクセル,,有限会社,高知県,南国市,久礼田３６４番地,,39,204,7830062,,,2022-09-20,清算の結了等,,,2015-10-05,1,,,,,ナンゴクエクセル,0
1919,8490005004106,登記記録の閉鎖等,0,2022-09-22,2022-08-31,天理教土佐志和分教会,,その他の設立登記法人,高知県,高岡郡四万十町,志和４３４番地,,39,412,7860056,,,2022-08-31,合併による解散等,5490005003903,令和４年８月３１日高知県高岡郡中土佐町矢井賀甲１９８番の２号地天理教矢井賀分教会（5490005003903）に合併し解散,2015-10-05,1,,,,,テンリキョウトサシワブンキョウカイ,0
1945,9010501017772,登記記録の閉鎖等,0,2022-09-22,2022-09-13,オーエス・ラボ株式会社,,株式会社,東京都,国分寺市,西町２丁目５番地３０,,13,214,1850035,,,2022-09-13,清算の結了等,,,2015-10-05,1,,,,,オーエスラボ,0
1984,9012401033619,登記記録の閉鎖等,0,2022-09-22,2022-09-15,株式会社３Ｋカンパニー,,株式会社,東京都,府中市,府中町１丁目５番地の５ＳＲビル３階,,13,206,1830055,,,2022-09-15,清算の結了等,,,2018-02-02,1,,,,,サンケイカンパニー,0
1988,9013102001212,登記記録の閉鎖等,0,2022-09-22,2022-09-21,有限会社シティープラザはむら,,有限会社,東京都,羽村市,羽東１丁目１１番５号,,13,227,2050014,,,2022-09-21,清算の結了等,,,2015-10-05,1,,,,,シティープラザハムラ,0
1993,9020001144447,登記記録の閉鎖等,0,2022-09-22,2022-09-14,株式会社蓬莱会計センター,00125205,株式会社,神奈川県,横浜市神奈川区,台町１１番地２０恒陽マンション７０８号,,14,102,2210834,,,2022-09-14,清算の結了等,,,2021-12-23,1,,,,,ホウライカイケイセンター,0
1999,9021001075954,登記記録の閉鎖等,0,2022-09-22,2022-09-16,株式会社ＴＫ２,,株式会社,神奈川県,横須賀市,内川１丁目６番８号,,14,201,2390836,,,2022-09-16,清算の結了等,,,2022-05-16,1,,,,,ティーケーツー,0
2002,9021005000074,登記記録の閉鎖等,0,2022-09-22,2022-09-06,医療法人山内龍馬財団,,その他の設立登記法人,神奈川県,藤沢市,南藤沢４番６号,,14,205,2510055,,,2022-09-06,合併による解散等,1120005005403,令和４年９月１日大阪市北区梅田一丁目３番１－１２００号医療法人徳洲会（1120005005403）に合併し解散,2015-10-05,1,,,,,ヤマウチリュウマザイダン,0
2006,9030002009739,登記記録の閉鎖等,0,2022-09-22,2022-09-09,東部促成有限会社,,有限会社,埼玉県,さいたま市北区,吉野町２丁目２２４番地１,,11,102,3310811,,,2022-09-09,清算の結了等,,,2015-10-05,1,,,,,,0
2027,9060002023448,登記記録の閉鎖等,0,2022-09-22,2022-09-16,株式会社那須ビッグファーム,,株式会社,栃木県,那須郡那須町,大字大島１３８９番地２,,09,407,3293223,,,2022-09-16,清算の結了等,,,2015-10-05,1,,,,,ナスビッグファーム,0
2028,9070002008662,登記記録の閉鎖等,0,2022-09-22,2022-09-15,有限会社飯玉産業,,有限会社,群馬県,高崎市,上佐野町９０５番地,,10,202,3700857,,,2022-09-15,清算の結了等,,,2015-10-05,1,,,,,イイダマサンギョウ,0
2032,9080401023303,登記記録の閉鎖等,0,2022-09-22,2022-09-20,楽桃株式会社,,株式会社,静岡県,袋井市,方丈６丁目８番地７グリーンベル１－１０２号室,,22,216,4370022,,,2022-09-20,清算の結了等,,,2018-11-28,1,,,,,ラクトウ,0
2040,9110002020241,登記記録の閉鎖等,0,2022-09-22,2022-09-20,有限会社イノツメ,,有限会社,新潟県,柏崎市,大字安田１７６０番地の２,,15,205,9451352,,,2022-09-20,清算の結了等,,,2015-10-05,1,,,,,イノツメ,0
2042,9120001089244,登記記録の閉鎖等,0,2022-09-22,2022-09-16,豊忠貿易株式会社,,株式会社,大阪府,大阪市北区,西天満５丁目１５番９号アバンセ西天満ビル,,27,127,5300047,,,2022-09-16,清算の結了等,,,2015-10-05,1,,,,,トヨチュウボウエキ,0
2081,9140005021291,登記記録の閉鎖等,0,2022-09-22,2022-09-16,特定非営利活動法人くろまめ丹波但馬障害者高齢者支援事業所,,その他の設立登記法人,兵庫県,丹波市,柏原町柏原１５２１番地,,28,223,6693309,,,2022-09-16,清算の結了等,,,2015-10-05,1,,,,,クロマメタンバタジマショウガイシャコウレイシャシエンジギョウショ,0
2125,9290801014392,登記記録の閉鎖等,0,2022-09-22,2022-09-20,株式会社カドクラスチール,,株式会社,福岡県,鞍手郡鞍手町,大字中山字重見２０５番地の１０,,40,402,8071312,,,2022-09-20,清算の結了等,,,2015-10-05,1,,,,,カドクラスチール,0
2132,9350001015912,登記記録の閉鎖等,0,2022-09-22,2022-09-20,株式会社エコセンター宮崎,,株式会社,宮崎県,宮崎市,清武町今泉甲３１３５番地９,,45,201,8891602,,,2022-09-20,清算の結了等,,,2019-07-03,1,,,,,エコセンターミヤザキ,0
2145,9430002056955,登記記録の閉鎖等,0,2022-09-22,2022-09-12,共栄運輸有限会社,,有限会社,北海道,磯谷郡蘭越町,昆布町１３４番地５７,,01,394,0481302,,,2022-09-12,清算の結了等,,,2015-10-05,1,,,,,キョウエイウンユ,0
2146,9430002058290,登記記録の閉鎖等,0,2022-09-22,2022-09-09,有限会社観光商事,,有限会社,北海道,苫小牧市,有明町１丁目９番１３号,,01,213,0530812,,,2022-09-09,清算の結了等,,,2015-10-05,1,,,,,カンコウショウジ,0
2148,9470001013111,登記記録の閉鎖等,0,2022-09-22,2022-09-16,株式会社一灯舎,,株式会社,香川県,高松市,田町９番３号,,37,201,7600053,,,2022-09-16,清算の結了等,,,2015-10-05,1,,,,,イットウシャ,0
