sequenceNumber,corporateNumber,process,correct,updateDate,changeDate,name,nameImageId,kind,prefectureName,cityName,streetNumber,addressImageId,prefectureCode,cityCode,postCode,addressOutside,addressOutsideImageId,closeDate,closeCause,successorCorporateNumber,changeCause,assignmentDate,latest,enName,enPrefectureName,enCityName,enAddressOutside,furigana,hihyoji
7,1010001221361,新規,0,2021-09-28,2021-09-28,株式会社出版文化研究所,,株式会社,東京都,千代田区,麹町１丁目８番地８,,13,101,1020083,,,,,,,2021-09-28,1,,,,,シュッパンブンカケンキュウショ,0
8,1010001221403,新規,0,2021-09-28,2021-09-28,アルファレックス株式会社,,株式会社,東京都,中央区,銀座２丁目１４－８,,13,102,1040061,,,,,,,2021-09-28,1,,,,,アルファレックス,0
13,1010003035900,新規,0,2021-09-28,2021-09-28,合同会社ＦＯＲ　ＬＩＢＥＲＴＹ,,合同会社,東京都,中央区,銀座１丁目２２番１号２Ｆ,,13,102,1040061,,,,,,,2021-09-28,1,,,,,フォーリバティ,0
15,1010005034009,新規,0,2021-09-28,2021-09-28,一般社団法人日本スポーツキャリア協会,,その他の設立登記法人,東京都,中央区,銀座１丁目２２番１１号,,13,102,1040061,,,,,,,2021-09-28,1,,,,,ニホンスポーツキャリアキョウカイ,0
22,1010401162858,新規,0,2021-09-28,2021-09-28,ＶＥＳＴＭ株式会社,,株式会社,東京都,港区,浜松町２丁目２番１５号浜松町ダイヤビル２Ｆ,,13,103,1050013,,,,,,,2021-09-28,1,,,,,ヴェスタム,0
23,1010401162882,新規,0,2021-09-28,2021-09-28,株式会社多磨バイオホールディングス,,株式会社,東京都,港区,赤坂２丁目２３番１号アークヒルズフロントタワーＲｏＰ７０３,,13,103,1070052,,,,,,,2021-09-28,1,,,,,タマバイオホールディングス,0
34,1010603009171,新規,0,2021-09-28,2021-09-28,合同会社ＡＸＩＥ,,合同会社,東京都,墨田区,本所３丁目１２番１２号,,13,107,1300004,,,,,,,2021-09-28,1,,,,,アクシー,0
38,1010703005954,新規,0,2021-09-28,2021-09-28,合同会社ＮＩＩ,,合同会社,東京都,品川区,北品川５丁目５番２７－７０３号,,13,109,1410001,,,,,,,2021-09-28,1,,,,,ニイ,0
39,1010801032347,新規,0,2021-09-28,2021-09-28,株式会社ＤＣ本舗,,株式会社,東京都,大田区,田園調布３丁目４番５号田園プラザサイトウビル３０１,,13,111,1450071,,,,,,,2021-09-28,1,,,,,ディーシーホンポ,0
43,1010901049497,新規,0,2021-09-28,2021-09-28,株式会社北斗電気,,株式会社,東京都,世田谷区,若林２丁目３６番７号１Ｆ,,13,112,1540023,,,,,,,2021-09-28,1,,,,,ホクトデンキ,0
48,1010903006827,新規,0,2021-09-28,2021-09-28,家元ハウス合同会社,,合同会社,東京都,世田谷区,砧３丁目３０番１３号,,13,112,1570073,,,,,,,2021-09-28,1,,,,,イエモトハウス,0
57,1011001143050,新規,0,2021-09-28,2021-09-28,株式会社ＳＲＢ,,株式会社,東京都,渋谷区,恵比寿南３丁目２３番１号パークリュクス恵比寿８０４号室,,13,113,1500022,,,,,,,2021-09-28,1,,,,,エスアールビー,0
59,1011003013417,新規,0,2021-09-28,2021-09-28,Ｔ合同会社,,合同会社,東京都,目黒区,駒場１丁目２５番５号,,13,110,1530041,,,,,,,2021-09-28,1,,,,,ティー,0
68,1011203003647,新規,0,2021-09-28,2021-09-28,合同会社ＣＡＲＥＦＲＥＥ,,合同会社,東京都,中野区,上高田２丁目１９－１リヴェール４０１,,13,114,1640002,,,,,,,2021-09-28,1,,,,,ケアフリー,0
74,1011503004907,新規,0,2021-09-28,2021-09-28,合同会社セレーノ,,合同会社,東京都,荒川区,東尾久３丁目３１番１５－１３０１号,,13,118,1160012,,,,,,,2021-09-28,1,,,,,セレーノ,0
75,1011603003395,新規,0,2021-09-28,2021-09-28,合同会社ｌ’ａｂｂａｙｅ,,合同会社,東京都,練馬区,南大泉３丁目３１－２０井口ビル６０１,,13,120,1780064,,,,,,,2021-09-28,1,,,,,ラベイ,0
80,1012401038261,新規,0,2021-09-28,2021-09-28,株式会社ＩＶＩＥＸ,,株式会社,東京都,三鷹市,下連雀３丁目３３番３号,,13,204,1810013,,,,,,,2021-09-28,1,,,,,アイビーズ,0
81,1012401038328,新規,0,2021-09-28,2021-09-28,株式会社裕泉堂,,株式会社,東京都,武蔵野市,御殿山２丁目２１番９号,,13,203,1800005,,,,,,,2021-09-28,1,,,,,,0
82,1012403005037,新規,0,2021-09-28,2021-09-28,合同会社アップオー,,合同会社,東京都,小金井市,前原町４丁目２番２－２１７号（ウエスト小金井）,,13,210,1840013,,,,,,,2021-09-28,1,,,,,アップオー,0
85,1012801021107,新規,0,2021-09-28,2021-09-28,株式会社ＧＡＴＯ,,株式会社,東京都,日野市,万願寺２丁目３０番３０－１０３号,,13,212,1910024,,,,,,,2021-09-28,1,,,,,ガトー,0
86,1012803002609,新規,0,2021-09-28,2021-09-28,Ｏｆｆｉｃｅ．Ｔａｋａｒａ合同会社,,合同会社,東京都,日野市,三沢４丁目５番地の２３,,13,212,1910032,,,,,,,2021-09-28,1,,,,,オフィスタカラ,0
88,1013101008736,新規,0,2021-09-28,2021-09-28,Ｄ　ｃｒｅａｔｉｏｎ株式会社,,株式会社,東京都,羽村市,緑ヶ丘１丁目８番地１４,,13,227,2050003,,,,,,,2021-09-28,1,,,,,ディークリエーション,0
90,1013301048045,新規,0,2021-09-28,2021-09-28,株式会社ｚｅｒｏ　ｏｎｅ,,株式会社,東京都,豊島区,東池袋２丁目５９番３号,,13,116,1700013,,,,,,,2021-09-28,1,,,,,ゼロワン,0
92,1020001143175,新規,0,2021-09-28,2021-09-28,コンサルティング高橋株式会社,00124340,株式会社,神奈川県,横浜市磯子区,坂下町１番３６－２号,,14,107,2350003,,,,,,,2021-09-28,1,,,,,コンサルティングタカハシ,0
93,1020001143183,新規,0,2021-09-28,2021-09-28,株式会社ラファール,,株式会社,神奈川県,川崎市幸区,戸手４丁目３番８号３３９,,14,132,2120005,,,,,,,2021-09-28,1,,,,,ラファール,0
94,1020001143191,新規,0,2021-09-28,2021-09-28,株式会社Ｄｅｎｘｙｚ,,株式会社,神奈川県,川崎市多摩区,登戸２４２８登戸ゲートビルディング３階,,14,135,2140014,,,,,,,2021-09-28,1,,,,,デンシーズ,0
101,1021001074039,新規,0,2021-09-28,2021-09-28,山の根不動産株式会社,,株式会社,神奈川県,逗子市,山の根３丁目１９番６号,,14,208,2490002,,,,,,,2021-09-28,1,,,,,ヤマノネフドウサン,0
111,1030001144486,新規,0,2021-09-28,2021-09-28,株式会社ＭｉＭｉ,,株式会社,埼玉県,川口市,末広１丁目１６番７号,,11,203,3320006,,,,,,,2021-09-28,1,,,,,ミミ,0
112,1030001144511,新規,0,2021-09-28,2021-09-28,株式会社マデックスサービス,,株式会社,埼玉県,入間市,宮寺２８０８番地１ベルハイム２０１,,11,225,3580014,,,,,,,2021-09-28,1,,,,,マデックスサービス,0
113,1030001144528,新規,0,2021-09-28,2021-09-28,広富商事株式会社,,株式会社,埼玉県,草加市,氷川町２００番地２,,11,221,3400034,,,,,,,2021-09-28,1,,,,,ヒロトミショウジ,0
125,1040001120305,新規,0,2021-09-28,2021-09-28,株式会社紅頴,,株式会社,千葉県,八千代市,大和田新田４６５番地１５７,,12,221,2760046,,,,,,,2021-09-28,1,,,,,コウエイ,0
126,1040001120313,新規,0,2021-09-28,2021-09-28,トップアジャスト株式会社,,株式会社,千葉県,千葉市花見川区,花園１丁目１０番８号,,12,102,2620025,,,,,,,2021-09-28,1,,,,,トップアジャスト,0
132,1050001049873,新規,0,2021-09-28,2021-09-28,株式会社ＬｉｆｅＨａｐｐｉｎｅｓｓ,,株式会社,茨城県,水戸市,酒門町字中台１１７３番６９,,08,201,3100841,,,,,,,2021-09-28,1,,,,,ライフハピネス,0
145,1080401025356,新規,0,2021-09-28,2021-09-28,株式会社ムコラ,,株式会社,静岡県,袋井市,豊沢４９１番地の３０,,22,216,4370032,,,,,,,2021-09-28,1,,,,,ムコラ,0
147,1100001034639,新規,0,2021-09-28,2021-09-28,株式会社安曇野小町,,株式会社,長野県,安曇野市,三郷明盛１１０１番地１,,20,220,3998101,,,,,,,2021-09-28,1,,,,,アヅミノコマチ,0
160,1120001240375,新規,0,2021-09-28,2021-09-28,慧智貿易株式会社,,株式会社,大阪府,大阪市東住吉区,公園南矢田４丁目１９－１０－２Ｆ西側号室,,27,121,5460024,,,,,,,2021-09-28,1,,,,,ケイチボウエキ,0
161,1120001240549,新規,0,2021-09-28,2021-09-28,株式会社大阪大和賛菓,,株式会社,大阪府,大阪市浪速区,日本橋３丁目１番２１号,,27,111,5560005,,,,,,,2021-09-28,1,,,,,オオサカヤマトサンカ,0
162,1120001240581,新規,0,2021-09-28,2021-09-28,小林株式会社,,株式会社,大阪府,大阪市城東区,中浜１丁目１７－１４ルネッサンスシャレード４Ｇ,,27,118,5360024,,,,,,,2021-09-28,1,,,,,コバヤシ,0
163,1120001240607,新規,0,2021-09-28,2021-09-28,株式会社シビリティ,,株式会社,大阪府,大阪市北区,芝田２丁目８－１１共栄ビル３Ｆ,,27,127,5300012,,,,,,,2021-09-28,1,,,,,シビリティ,0
164,1120001240631,新規,0,2021-09-28,2021-09-28,株式会社まるごとほけん,,株式会社,大阪府,大阪市鶴見区,茨田大宮１丁目９番４１号,,27,124,5380031,,,,,,,2021-09-28,1,,,,,マルゴトホケン,0
165,1120001240689,新規,0,2021-09-28,2021-09-28,株式会社ＲＩＣＣＡ　ＪＡＰＡＮ,,株式会社,大阪府,大阪市北区,中崎西１丁目１１番５号,,27,127,5300015,,,,,,,2021-09-28,1,,,,,リッカジャパン,0
169,1120003020313,新規,0,2021-09-28,2021-09-28,合同会社Ｆｉｒｓｔ　Ｐｌａｃｅ,,合同会社,大阪府,大阪市中央区,北浜３丁目２－２５京阪淀屋橋ビル８階,,27,128,5410041,,,,,,,2021-09-28,1,,,,,ファーストプレイス,0
178,1120901044933,新規,0,2021-09-28,2021-09-28,株式会社起峰,,株式会社,大阪府,豊中市,東泉丘４丁目５番５０－１８１２号,,27,203,5610861,,,,,,,2021-09-28,1,,,,,キボウ,0
179,1120901044941,新規,0,2021-09-28,2021-09-28,株式会社さぽちい,,株式会社,大阪府,吹田市,五月が丘南９番５号（３０１）,,27,205,5650832,,,,,,,2021-09-28,1,,,,,サポチイ,0
185,1122001035193,新規,0,2021-09-28,2021-09-28,安藤商事株式会社,,株式会社,大阪府,八尾市,楽音寺５丁目１０２番地,,27,212,5810853,,,,,,,2021-09-28,1,,,,,アンドウショウジ,0
188,1130001070160,新規,0,2021-09-28,2021-09-28,ｆｓｋ株式会社,,株式会社,京都府,京都市中京区,御池通東洞院東入笹屋町４３６永和御池ビル６０６号,,26,104,6048187,,,,,,,2021-09-28,1,,,,,エフエスケイ,0
190,1130003007499,新規,0,2021-09-28,2021-09-28,合同会社ＯＫＤ,,合同会社,京都府,京都市伏見区,向島丸町１番,,26,109,6128131,,,,,,,2021-09-28,1,,,,,オーケーディー,0
191,1130003007508,新規,0,2021-09-28,2021-09-28,合同会社Ｍａｒａｍａｒａｍａ,,合同会社,京都府,京都市伏見区,竹田藁屋町６０,,26,109,6128443,,,,,,,2021-09-28,1,,,,,マラマラマ,0
194,1140001123124,新規,0,2021-09-28,2021-09-28,株式会社Ｃｏｎｓｃｉｏｕｓ,,株式会社,兵庫県,神戸市中央区,山本通１丁目７－１５東洋ハイツ２階ＫＩＴＡＮＯＭＡＤ,,28,110,6500003,,,,,,,2021-09-28,1,,,,,コンシャス,0
195,1140001123132,新規,0,2021-09-28,2021-09-28,株式会社ＡＡＳ　Ｐｒｅｓｓ,,株式会社,兵庫県,川西市,小花１丁目６－２０,,28,217,6660015,,,,,,,2021-09-28,1,,,,,エイエイエスプレス,0
196,1140001123140,新規,0,2021-09-28,2021-09-28,ＮぷらすＫ株式会社,,株式会社,兵庫県,神戸市東灘区,向洋町中３丁目１番地の２イーストコート９番街１－２０４号,,28,101,6580032,,,,,,,2021-09-28,1,,,,,エヌプラスケー,0
197,1140001123149,新規,0,2021-09-28,2021-09-28,株式会社Ｋａｌｅｋｏｎａ,,株式会社,兵庫県,芦屋市,上宮川町１番５号,,28,206,6590061,,,,,,,2021-09-28,1,,,,,カレコナ,0
199,1140003016771,新規,0,2021-09-28,2021-09-28,合同会社Ａｋｉ１１１,,合同会社,兵庫県,姫路市,香寺町中仁野２９１番地２たかはいつ中仁野Ⅱ１０１,00124356,28,201,6792143,,,,,,,2021-09-28,1,,,,,アキイチイチイチ,0
202,1150001024949,新規,0,2021-09-28,2021-09-28,九株式会社,,株式会社,奈良県,北葛城郡王寺町,畠田３丁目２番８号,,29,425,6360021,,,,,,,2021-09-28,1,,,,,キュウ,0
203,1150003002498,新規,0,2021-09-28,2021-09-28,合同会社ＥＩＳＥＩ,,合同会社,奈良県,奈良市,二名４丁目１３６０番地の１３,,29,201,6310072,,,,,,,2021-09-28,1,,,,,エイセイ,0
212,1180001147945,新規,0,2021-09-28,2021-09-28,株式会社Ｇｒａｎｄ　Ｃｅｎｔｒａｌ,,株式会社,愛知県,名古屋市中村区,則武本通２丁目５７－７,,23,105,4530017,,,,,,,2021-09-28,1,,,,,グランドセントラル,0
213,1180001147953,新規,0,2021-09-28,2021-09-28,株式会社アクアホールディングス,,株式会社,愛知県,名古屋市中区,栄２丁目１２番１２号,,23,106,4600008,,,,,,,2021-09-28,1,,,,,アクアホールディングス,0
214,1180001147961,新規,0,2021-09-28,2021-09-28,株式会社ＣＲＥＡＦ,,株式会社,愛知県,名古屋市中区,栄２丁目１５番４１号,,23,106,4600008,,,,,,,2021-09-28,1,,,,,クリーフ,0
219,1180301035404,新規,0,2021-09-28,2021-09-28,株式会社奥,,株式会社,愛知県,新城市,作手白鳥字ナハテ１８番地１,,23,221,4411413,,,,,,,2021-09-28,1,,,,,オク,0
224,1190001028698,新規,0,2021-09-28,2021-09-28,ＡＧＥＴＥ株式会社,,株式会社,三重県,津市,八町１丁目１０番３号ＫＹレジデンス１０２号,,24,201,5140041,,,,,,,2021-09-28,1,,,,,アゲテ,0
225,1190001028707,新規,0,2021-09-28,2021-09-28,ＫＢＳ　ＪＡＰＡＮ株式会社,,株式会社,三重県,津市,高茶屋７丁目７番５１号ハイツアーバンＩ２０５,,24,201,5140819,,,,,,,2021-09-28,1,,,,,ケービーエスジャパン,0
228,1230003001731,新規,0,2021-09-28,2021-09-28,ＤＨ国際協力合同会社,,合同会社,富山県,富山市,永楽町１７番２号,,16,201,9300853,,,,,,,2021-09-28,1,,,,,ディーエイチコクサイキョウリョク,0
232,1240001058649,新規,0,2021-09-28,2021-09-28,東邦契島製錬株式会社,,株式会社,広島県,豊田郡大崎上島町,東野５５６２番地１,,34,431,7250231,,,,,,,2021-09-28,1,,,,,トウホウチギリシマセイレン,0
239,1250001019146,新規,0,2021-09-28,2021-09-28,株式会社幸栄,,株式会社,山口県,下関市,大字田倉１２２番地１３４,,35,201,7510883,,,,,,,2021-09-28,1,,,,,コウエイ,0
240,1260001035976,新規,0,2021-09-28,2021-09-28,アマテラス株式会社,,株式会社,岡山県,倉敷市,連島町鶴新田２１１０番地１０,,33,202,7128006,,,,,,,2021-09-28,1,,,,,アマテラス,0
241,1260001035992,新規,0,2021-09-28,2021-09-28,株式会社創美,,株式会社,岡山県,岡山市南区,並木町１丁目１４番１７号,,33,104,7028058,,,,,,,2021-09-28,1,,,,,ソウビ,0
245,1290001094747,新規,0,2021-09-28,2021-09-28,株式会社ＢＵＴＬＥＲ,,株式会社,福岡県,福岡市博多区,東比恵４丁目２番２９号,,40,132,8120007,,,,,,,2021-09-28,1,,,,,バトラー,0
253,1290005018363,新規,0,2021-09-28,2021-09-28,一般社団法人終活支援ネットワーク,,その他の設立登記法人,福岡県,太宰府市,五条１丁目２番１４号,,40,221,8180125,,,,,,,2021-09-28,1,,,,,シュウカツシエンネットワーク,0
256,1290801027807,新規,0,2021-09-28,2021-09-28,尾の岳風力株式会社,,株式会社,福岡県,北九州市八幡東区,中尾１丁目１３番２１号,,40,108,8050025,,,,,,,2021-09-28,1,,,,,オノタケフウリョク,0
257,1290801027831,新規,0,2021-09-28,2021-09-28,株式会社ＣＯＭＰＡＳＳ,,株式会社,福岡県,北九州市小倉南区,長尾２丁目１３番１５号,,40,107,8030274,,,,,,,2021-09-28,1,,,,,コンパス,0
258,1290803003938,新規,0,2021-09-28,2021-09-28,合同会社ＳＨＯＷ　ＴＩＭＥ,,合同会社,福岡県,北九州市八幡東区,中尾１丁目４番１８号,,40,108,8050025,,,,,,,2021-09-28,1,,,,,ショウタイム,0
265,1340001024120,新規,0,2021-09-28,2021-09-28,大隅サンド株式会社,,株式会社,鹿児島県,鹿屋市,大手町１２番地３号,,46,203,8930009,,,,,,,2021-09-28,1,,,,,オオスミサンド,0
266,1340003003568,新規,0,2021-09-28,2021-09-28,合同会社みずほ２５,,合同会社,鹿児島県,鹿児島市,上之園町１２番地１５グランドスカイ上之園２０８号,,46,201,8900052,,,,,,,2021-09-28,1,,,,,ミズホニジュウゴ,0
280,1380001032219,新規,0,2021-09-28,2021-09-28,株式会社ベントレ,,株式会社,福島県,白河市,八竜神７０番地２,,07,205,9610047,,,,,,,2021-09-28,1,,,,,ベントレ,0
284,1380005012480,新規,0,2021-09-28,2021-09-28,医療法人青鴗会,00124344,その他の設立登記法人,福島県,郡山市,八山田５丁目２３番地,,07,203,9638052,,,,,,,2021-09-28,1,,,,,セイリュウカイ,0
292,1430003013186,新規,0,2021-09-28,2021-09-28,合同会社サポートセンターアットホーム,,合同会社,北海道,札幌市南区,川沿三条５丁目１２番１号,,01,106,0050803,,,,,,,2021-09-28,1,,,,,サポートセンターアットホーム,0
304,1700150104693,新規,0,2021-09-28,2021-09-14,Ｐｒｉｍａｖｅｒａ,,その他,東京都,世田谷区,太子堂２丁目１１－１２アーバンリゾート三軒茶屋ＰａｒｔⅡＢ１Ｆ　有限会社ボデギータ内,00124058,13,112,1540004,,,,,,,2021-09-14,1,,,,,プリマベーラ,0
305,1700150104751,新規,0,2021-09-28,2021-09-15,奥入瀬サミットの会,,その他,青森県,八戸市,城下１丁目３－１２,,02,203,0310072,,,,,,,2021-09-15,1,,,,,オイラセサミツトノカイ,0
316,2010001221344,新規,0,2021-09-28,2021-09-28,Ｏ＆Ｕ株式会社,,株式会社,東京都,中央区,八重洲２丁目１０番１０号,,13,102,1040028,,,,,,,2021-09-28,1,,,,,オーアンドユー,0
317,2010001221385,新規,0,2021-09-28,2021-09-28,株式会社エスエヌケー,,株式会社,東京都,千代田区,岩本町１丁目５番１３－１４０２号,,13,101,1010032,,,,,,,2021-09-28,1,,,,,エスエヌケー,0
320,2010003035882,新規,0,2021-09-28,2021-09-28,合同会社Ｈａｐｐｙアセットマネジメント,,合同会社,東京都,文京区,小石川１丁目８番６－１００５号,,13,105,1120002,,,,,,,2021-09-28,1,,,,,ハッピーアセットマネジメント,0
328,2010401162865,新規,0,2021-09-28,2021-09-28,株式会社Ｏｎｅ　Ｗｏｒｌｄ　Ｒｅｓｏｎａｎｃｅ,,株式会社,東京都,港区,東麻布２丁目３５番１号ＫＣビル６階,,13,103,1060044,,,,,,,2021-09-28,1,,,,,ワンワールドレゾナンス,0
329,2010401162915,新規,0,2021-09-28,2021-09-28,Ｗｈｉｔｅ　Ｊａｐａｎ　Ａｃｑｕｉｓｉｔｉｏｎ株式会社,,株式会社,東京都,港区,虎ノ門２丁目１０番４号オークラプレステージタワー,,13,103,1050001,,,,,,,2021-09-28,1,,,,,ホワイトジャパンアクイジション,0
337,2010502015518,新規,0,2021-09-28,2021-09-28,あすか水産有限会社,,有限会社,東京都,台東区,浅草橋３丁目１２番４号,,13,106,1110053,,,,,,,2021-09-28,1,,,,,アスカスイサン,0
342,2010601059977,新規,0,2021-09-28,2021-09-28,株式会社ＩＴＭイノベーション＆カンパニー,,株式会社,東京都,江東区,亀戸３丁目６０番１５号,,13,108,1360071,,,,,,,2021-09-28,1,,,,,アイティエムイノベーションアンドカンパニー,0
347,2010801032346,新規,0,2021-09-28,2021-09-28,株式会社住まいるドットコム,,株式会社,東京都,大田区,東矢口３丁目２５番６号ファブリック蒲田１０１号室,,13,111,1460094,,,,,,,2021-09-28,1,,,,,スマイルドットコム,0
356,2010903006826,新規,0,2021-09-28,2021-09-28,合同会社ビッグバン,,合同会社,東京都,世田谷区,桜３丁目１８番６－９０２号,,13,112,1560053,,,,,,,2021-09-28,1,,,,,ビッグバン,0
366,2011001142951,新規,0,2021-09-28,2021-09-28,株式会社アン・ビルドトープ,,株式会社,東京都,渋谷区,渋谷１丁目１番３号アミーホール４Ｆ,,13,113,1500002,,,,,,,2021-09-28,1,,,,,アンビルドトープ,0
379,2011401023693,新規,0,2021-09-28,2021-09-28,ポケットビジネス株式会社,,株式会社,東京都,板橋区,常盤台１丁目３９番１２号,,13,119,1740071,,,,,,,2021-09-28,1,,,,,ポケットビジネス,0
382,2011501027330,新規,0,2021-09-28,2021-09-28,株式会社大沢商会,,株式会社,東京都,荒川区,西尾久２丁目３４番６号,,13,118,1160011,,,,,,,2021-09-28,1,,,,,オオサワショウカイ,0
383,2011503004906,新規,0,2021-09-28,2021-09-28,合同会社ＤＵＣ　ＬＩＥＮ,,合同会社,東京都,北区,豊島１丁目３４番１号,,13,117,1140003,,,,,,,2021-09-28,1,,,,,ドックリエン,0
391,2011805003110,新規,0,2021-09-28,2021-09-28,テクニカル設備協同組合,,その他の設立登記法人,東京都,足立区,保塚町１番２０号シュロス保塚１０１号室,,13,121,1210072,,,,,,,2021-09-28,1,,,,,テクニカルセツビ,0
392,2012301012720,新規,0,2021-09-28,2021-09-28,ｆｒｉｅｎｄｌｙ　ｉｎｔｅｒｎａｔｉｏｎａｌ株式会社,,株式会社,東京都,町田市,高ヶ坂４丁目１２番２０号ストーリア３ｒｄ,,13,209,1940014,,,,,,,2021-09-28,1,,,,,フレンドリーインターナショナル,0
393,2012403005036,新規,0,2021-09-28,2021-09-28,合同会社Ｐ４ＷＯＲＫＳ,,合同会社,東京都,三鷹市,井の頭５丁目８番２４号,,13,204,1810001,,,,,,,2021-09-28,1,,,,,ピーフォーワークス,0
395,2012801021114,新規,0,2021-09-28,2021-09-28,株式会社Ｃｏ　Ｅａｒｔｈ,,株式会社,東京都,立川市,柏町４丁目６０番地の３６上水マンション１０２,,13,202,1900004,,,,,,,2021-09-28,1,,,,,コアース,0
397,2012805003059,新規,0,2021-09-28,2021-09-28,一般社団法人フェアマインド,,その他の設立登記法人,東京都,東大和市,仲原２丁目１３番地の８,,13,220,2070016,,,,,,,2021-09-28,1,,,,,フェアマインド,0
398,2013101008735,新規,0,2021-09-28,2021-09-28,株式会社Ｒｅ’ｍａｋｅ,,株式会社,東京都,青梅市,新町４丁目２２番２号,,13,205,1980024,,,,,,,2021-09-28,1,,,,,リメイク,0
409,2020003020537,新規,0,2021-09-28,2021-09-28,合同会社９ＭＥＴＡＬＳ,,合同会社,神奈川県,横浜市中区,山下町２３番地日土地山下町ビル５階株式会社クリーンエナジージャパン内,,14,104,2310023,,,,,,,2021-09-28,1,,,,,ナインメタルズ,0
410,2020003020545,新規,0,2021-09-28,2021-09-28,合同会社Ｂｅｅ,,合同会社,神奈川県,横浜市港南区,港南台２丁目１番,,14,111,2340054,,,,,,,2021-09-28,1,,,,,ビー,0
416,2021003010916,新規,0,2021-09-28,2021-09-28,合同会社竹原屋,,合同会社,神奈川県,相模原市緑区,大島１１２１番地２９４,,14,151,2520135,,,,,,,2021-09-28,1,,,,,タケハラヤ,0
417,2021003010924,新規,0,2021-09-28,2021-09-28,合同会社ＳＫＹ,,合同会社,神奈川県,鎌倉市,由比ガ浜２丁目２３番２８－４０９号,,14,204,2480014,,,,,,,2021-09-28,1,,,,,スカイ,0
423,2030001144493,新規,0,2021-09-28,2021-09-28,株式会社ハレイワ,,株式会社,埼玉県,深谷市,上柴町東５丁目１６番地７９,,11,218,3660051,,,,,,,2021-09-28,1,,,,,ハレイワ,0
424,2030001144502,新規,0,2021-09-28,2021-09-28,イエ不動産株式会社,,株式会社,埼玉県,深谷市,仲町２番２８号サン・ピラー１階１０２号,,11,218,3660822,,,,,,,2021-09-28,1,,,,,イエフドウサン,0
433,2040001120312,新規,0,2021-09-28,2021-09-28,株式会社沖鉄,,株式会社,千葉県,船橋市,前貝塚町６３４番地１,,12,204,2730042,,,,,,,2021-09-28,1,,,,,オキテツ,0
434,2040001120320,新規,0,2021-09-28,2021-09-28,株式会社ビーエイチエイチ,,株式会社,千葉県,野田市,みずき２丁目２０番地の６０,,12,208,2780027,,,,,,,2021-09-28,1,,,,,ビーエイチエイチ,0
435,2040001120329,新規,0,2021-09-28,2021-09-28,株式会社コーセー,,株式会社,千葉県,千葉市若葉区,小倉台７丁目１２－７,,12,104,2640006,,,,,,,2021-09-28,1,,,,,コーセー,0
437,2040003018587,新規,0,2021-09-28,2021-09-28,合同会社レンショー,,合同会社,千葉県,我孫子市,湖北台９丁目５番３号ラフィナートⅠ－１０３号,00124347,12,222,2701132,,,,,,,2021-09-28,1,,,,,レンショー,0
438,2040003018595,新規,0,2021-09-28,2021-09-28,ブルームテック合同会社,,合同会社,千葉県,市川市,南行徳１丁目１０番１４－１０２号,,12,203,2720138,,,,,,,2021-09-28,1,,,,,ブルームテック,0
439,2040003018604,新規,0,2021-09-28,2021-09-28,アキナ合同会社,,合同会社,千葉県,白井市,富塚１０４９番地の４ニューサンフラワー５０５号,,12,232,2701405,,,,,,,2021-09-28,1,,,,,アキナ,0
443,2050003006095,新規,0,2021-09-28,2021-09-28,ＳＫグループ合同会社,,合同会社,茨城県,土浦市,桜町１丁目５－２桜１ビル１Ｆ,,08,203,3000037,,,,,,,2021-09-28,1,,,,,エスケーグループ,0
445,2060001008118,新規,0,2021-09-28,2021-09-28,中山産業株式会社,,株式会社,栃木県,那須烏山市,田野倉８１７番地,,09,215,3210526,,,,,,,2021-09-28,1,,,,,ナカヤマサンギョウ,0
455,2080103002421,新規,0,2021-09-28,2021-09-28,ツクヨテラス合同会社,,合同会社,静岡県,富士市,厚原１４２番地の４６,,22,210,4190201,,,,,,,2021-09-28,1,,,,,ツクヨテラス,0
471,2120001240606,新規,0,2021-09-28,2021-09-28,ＳＫ産商株式会社,,株式会社,大阪府,大阪市中央区,西心斎橋１丁目１２番２３号ローレルタワー心斎橋１６０４号室,,27,128,5420086,,,,,,,2021-09-28,1,,,,,エスケイサンショウ,0
472,2120001240622,新規,0,2021-09-28,2021-09-28,株式会社タカショー,,株式会社,大阪府,大阪市生野区,巽中１丁目１２番２４号,00124348,27,116,5440013,,,,,,,2021-09-28,1,,,,,タカショー,0
473,2120001240647,新規,0,2021-09-28,2021-09-28,株式会社Ｒｉｖｉｅｒｅ,,株式会社,大阪府,大阪市北区,梅田１丁目１１番４－１００号,,27,127,5300001,,,,,,,2021-09-28,1,,,,,リヴィエール,0
478,2120005022505,新規,0,2021-09-28,2021-09-28,一般財団法人ＢＣＪ国際奨学財団,,その他の設立登記法人,大阪府,大阪市北区,豊崎５丁目６－７,,27,127,5310072,,,,,,,2021-09-28,1,,,,,,0
481,2120101064343,新規,0,2021-09-28,2021-09-28,株式会社キツツｋｅｅｎ,,株式会社,大阪府,堺市南区,晴美台１丁１８番９号,,27,145,5900113,,,,,,,2021-09-28,1,,,,,キツツキーン,0
482,2120102029048,新規,0,2021-09-28,2021-09-28,有限会社羽倉崎駅前薬局,,有限会社,大阪府,泉佐野市,羽倉崎上町１丁目４番３４号,,27,213,5980037,,,,,,,2021-09-28,1,,,,,ハグラザキエキマエヤッキョク,0
484,2120901044932,新規,0,2021-09-28,2021-09-28,株式会社ＦｉＲＥＦＬＹ,,株式会社,大阪府,豊中市,桜の町６丁目１０番３号Ｔ’ｓビルＢ２Ｆ,,27,203,5600054,,,,,,,2021-09-28,1,,,,,ファイヤーフライ,0
488,2130001070168,新規,0,2021-09-28,2021-09-28,ＹＥＮＶＩ株式会社,,株式会社,京都府,京都市下京区,仏光寺通烏丸東入上柳町３３１番地タカノハスクエア４Ｆ,,26,106,6008099,,,,,,,2021-09-28,1,,,,,エンビー,0
496,2140003016770,新規,0,2021-09-28,2021-09-28,合同会社サマンサ１４４,,合同会社,兵庫県,姫路市,南車崎２丁目７番１１号,,28,201,6700053,,,,,,,2021-09-28,1,,,,,サマンサイチヨンヨン,0
505,2180001147936,新規,0,2021-09-28,2021-09-28,株式会社ＤＲＥＡＭ,,株式会社,愛知県,名古屋市中区,錦３丁目１３番２５号,,23,106,4600003,,,,,,,2021-09-28,1,,,,,ドリーム,0
506,2180001147944,新規,0,2021-09-28,2021-09-28,株式会社ＣＨテック,,株式会社,愛知県,名古屋市緑区,鳴海町字三王山２２番地の１８,,23,114,4580801,,,,,,,2021-09-28,1,,,,,シーエイチテック,0
507,2180001147952,新規,0,2021-09-28,2021-09-28,株式会社石野工業,,株式会社,愛知県,半田市,浜田町１丁目２１番地１,,23,205,4750805,,,,,,,2021-09-28,1,,,,,イシノコウギョウ,0
508,2180001147960,新規,0,2021-09-28,2021-09-28,市川タイル株式会社,,株式会社,愛知県,清須市,一場９７番地,,23,233,4520931,,,,,,,2021-09-28,1,,,,,イチカワタイル,0
514,2180003023004,新規,0,2021-09-28,2021-09-28,万和合同会社,,合同会社,愛知県,一宮市,浅野字青石３０番地３－３Ｆ,,23,203,4910871,,,,,,,2021-09-28,1,,,,,マンワ,0
530,2240001058648,新規,0,2021-09-28,2021-09-28,ＨＫＩ環研株式会社,,株式会社,広島県,東広島市,黒瀬楢原東３丁目１３番８号,00124349,34,212,7392628,,,,,,,2021-09-28,1,,,,,エイチケイアイカンケン,0
531,2240003005292,新規,0,2021-09-28,2021-09-28,ＷｏｏｄｓＪａｐａｎ合同会社,,合同会社,広島県,尾道市,美ノ郷町三成２３７番地４,,34,205,7220215,,,,,,,2021-09-28,1,,,,,ウッズジャパン,0
537,2280003001536,新規,0,2021-09-28,2021-09-28,合同会社てるてるオフィス,,合同会社,島根県,出雲市,斐川町上庄原１８５１番地１パラダリアＡ－２０４,,32,203,6990505,,,,,,,2021-09-28,1,,,,,,0
544,2290001094746,新規,0,2021-09-28,2021-09-28,株式会社翔夢,,株式会社,福岡県,福岡市東区,美和台１丁目１番４－１号,,40,131,8110212,,,,,,,2021-09-28,1,,,,,ハユマ,0
545,2290001094762,新規,0,2021-09-28,2021-09-28,株式会社Ｋ２,,株式会社,福岡県,福岡市博多区,吉塚５丁目２番１０号２Ａ,,40,132,8120041,,,,,,,2021-09-28,1,,,,,ケイツー,0
550,2290801027830,新規,0,2021-09-28,2021-09-28,株式会社ＴｒａｎｓｐｏｒｔＨＯＰＥ,,株式会社,福岡県,北九州市小倉南区,大字母原４６３番地７,,40,107,8030187,,,,,,,2021-09-28,1,,,,,トランスポートホープ,0
551,2290801027839,新規,0,2021-09-28,2021-09-28,Ｉｄｅａｌ　ｍｅ株式会社,,株式会社,福岡県,北九州市八幡西区,市瀬３丁目８番９号,,40,109,8060063,,,,,,,2021-09-28,1,,,,,アイディアルミー,0
553,2290803003937,新規,0,2021-09-28,2021-09-28,ＫｉｔａＱ　Ｆｉｌｍ合同会社,,合同会社,福岡県,北九州市門司区,大字大積１２７４番地１１,,40,101,8010811,,,,,,,2021-09-28,1,,,,,キタキュウフィルム,0
557,2310001017489,新規,0,2021-09-28,2021-09-28,株式会社Ｍａｄｄｅｒ　Ｒｅｄ,,株式会社,長崎県,諫早市,森山町本村２５０８番地,,42,204,8540203,,,,,,,2021-09-28,1,,,,,マダーレッド,0
567,2340003003567,新規,0,2021-09-28,2021-09-28,合同会社みずほ２６,,合同会社,鹿児島県,鹿児島市,星ヶ峯６丁目３５番地６,,46,201,8910102,,,,,,,2021-09-28,1,,,,,ミズホニジュウロク,0
576,2360001029397,新規,0,2021-09-28,2021-09-28,株式会社ＮＡＬＵ,,株式会社,沖縄県,那覇市,高良３丁目５番２２号３Ｆ,,47,201,9010145,,,,,,,2021-09-28,1,,,,,ナル,0
579,2360003011460,新規,0,2021-09-28,2021-09-28,ＷＡＬＭ合同会社,,合同会社,沖縄県,中頭郡読谷村,字座喜味１０６,,47,324,9040301,,,,,,,2021-09-28,1,,,,,ウォーム,0
596,2400005008186,新規,0,2021-09-28,2021-09-28,一般社団法人大船渡地域戦略,,その他の設立登記法人,岩手県,大船渡市,大船渡町字野々田１２－３３特定非営利活動法人おおふなと市民活動センター内,,03,203,0220002,,,,,,,2021-09-28,1,,,,,オオフナトチイキセンリャク,0
599,2420005007772,新規,0,2021-09-28,2021-09-28,協同組合あおば国際人材ネットワーク,,その他の設立登記法人,青森県,八戸市,根城５丁目１４番２４号,,02,203,0391166,,,,,,,2021-09-28,1,,,,,アオバコクサイジンザイネットワーク,0
602,2430001085029,新規,0,2021-09-28,2021-09-28,札幌南不動産株式会社,,株式会社,北海道,札幌市白石区,中央二条３丁目７番３８号,,01,104,0030012,,,,,,,2021-09-28,1,,,,,サッポロミナミフドウサン,0
621,3010001221269,新規,0,2021-09-28,2021-09-28,株式会社マスターマインド・ジャパン,,株式会社,東京都,中央区,銀座１丁目２２番１１号,,13,102,1040061,,,,,,,2021-09-28,1,,,,,マスターマインドジャパン,0
622,3010001221401,新規,0,2021-09-28,2021-09-28,プレシアスケア株式会社,,株式会社,東京都,千代田区,紀尾井町４番１号,,13,101,1020094,,,,,,,2021-09-28,1,,,,,プレシアスケア,0
627,3010103001775,新規,0,2021-09-28,2021-09-28,合同会社ＦＥＴＣＨ,,合同会社,東京都,八王子市,東中野８－５エルハイツ・フォー２０１号室,,13,201,1920351,,,,,,,2021-09-28,1,,,,,,0
633,3010403026175,新規,0,2021-09-28,2021-09-28,合同会社ＷＫ５１０,,合同会社,東京都,港区,西麻布２丁目２４番５号ウィステリア西麻布２０４,,13,103,1060031,,,,,,,2021-09-28,1,,,,,ダブリューケイゴーイチマル,0
634,3010403026191,新規,0,2021-09-28,2021-09-28,ＮＳ　Ｙｏｋｏｈａｍａ　Ｉｎｖｅｓｔｍｅｎｔ合同会社,,合同会社,東京都,港区,虎ノ門４丁目３番１号城山トラストタワー２７階ＳａｎｎｅＧｒｏｕｐＪａｐａｎ株式会社内,,13,103,1050001,,,,,,,2021-09-28,1,,,,,エヌエスヨコハマインベストメント,0
641,3010903006825,新規,0,2021-09-28,2021-09-28,合同会社ＷＳＣ　ＪＡＰＡＮ,,合同会社,東京都,世田谷区,代田３丁目５－５,,13,112,1550033,,,,,,,2021-09-28,1,,,,,ダブリューエスシージャパン,0
649,3011001142901,新規,0,2021-09-28,2021-09-28,株式会社ハピベル,,株式会社,東京都,渋谷区,恵比寿１丁目１５番９号,,13,113,1500013,,,,,,,2021-09-28,1,,,,,ハピベル,0
650,3011001142926,新規,0,2021-09-28,2021-09-28,株式会社Ｐａｔｔｅｒｎ　ｔｏ　Ｄｅｓｉｇｎ,,株式会社,東京都,渋谷区,本町６丁目２７番９号パラシオン幡ケ谷２０１号室,,13,113,1510071,,,,,,,2021-09-28,1,,,,,パターントゥデザイン,0
654,3011003013431,新規,0,2021-09-28,2021-09-28,合同会社Ｏｆｆｉｃｅ　Ｓ,,合同会社,東京都,渋谷区,神宮前６丁目２３番４号桑野ビル２階,,13,113,1500001,,,,,,,2021-09-28,1,,,,,オフィスエス,0
655,3011003013464,新規,0,2021-09-28,2021-09-28,合同会社スクラムトライ,,合同会社,東京都,渋谷区,上原３丁目１６番２号,,13,113,1510064,,,,,,,2021-09-28,1,,,,,スクラムトライ,0
664,3011201023273,新規,0,2021-09-28,2021-09-28,株式会社Ｊｏｈｎ＆Ｃｏｍｐａｎｙ,,株式会社,東京都,中野区,本町２丁目２８番１１－６０５号,,13,114,1640012,,,,,,,2021-09-28,1,,,,,ジョンアンドカンパニー,0
666,3011301027174,新規,0,2021-09-28,2021-09-28,ｋｍ５株式会社,,株式会社,東京都,杉並区,高円寺南５丁目４０番２２号,,13,115,1660003,,,,,,,2021-09-28,1,,,,,ケイエムファイブ,0
672,3012403005035,新規,0,2021-09-28,2021-09-28,合同会社ａｒａｋａｊｉｍｅ,,合同会社,東京都,小金井市,東町３丁目６番３７号,,13,210,1840011,,,,,,,2021-09-28,1,,,,,アラカジメ,0
676,3012803002607,新規,0,2021-09-28,2021-09-28,合同会社サムズアップ,,合同会社,東京都,国分寺市,本町３丁目１１番１６号ＶＰビル３Ｆ,,13,214,1850012,,,,,,,2021-09-28,1,,,,,サムズアップ,0
685,3020001143157,新規,0,2021-09-28,2021-09-28,株式会社ダイジニ,,株式会社,神奈川県,横浜市中区,本町４丁目４３番地Ａ－ＰＬＡＣＥ馬車道７Ｆ,,14,104,2310005,,,,,,,2021-09-28,1,,,,,ダイジニ,0
686,3020001143165,新規,0,2021-09-28,2021-09-28,株式会社レインボーエステート,,株式会社,神奈川県,横浜市港北区,篠原東２丁目１６番７－７０５号,,14,109,2220022,,,,,,,2021-09-28,1,,,,,レインボーエステート,0
687,3020001143173,新規,0,2021-09-28,2021-09-28,株式会社Ｃｏｎｃｏｒｄｉａ,,株式会社,神奈川県,横浜市西区,浅間町４丁目３４０番地８－１Ｆ,,14,103,2200072,,,,,,,2021-09-28,1,,,,,コンコルディア,0
689,3020003020528,新規,0,2021-09-28,2021-09-28,合同会社チャンク,,合同会社,神奈川県,横浜市鶴見区,上末吉３丁目４番２６号,,14,101,2300011,,,,,,,2021-09-28,1,,,,,チャンク,0
690,3020003020536,新規,0,2021-09-28,2021-09-28,合同会社ＴＹＷ,,合同会社,神奈川県,横浜市鶴見区,梶山２丁目９番３号,,14,101,2300072,,,,,,,2021-09-28,1,,,,,ティーワイダブリュ,0
691,3020003020544,新規,0,2021-09-28,2021-09-28,合同会社將真貴,,合同会社,神奈川県,横浜市港北区,日吉４丁目１２番１号,,14,109,2230061,,,,,,,2021-09-28,1,,,,,ショウシンキ,0
695,3021001074045,新規,0,2021-09-28,2021-09-28,株式会社ＲＩＳＥ,,株式会社,神奈川県,相模原市緑区,三ケ木１４３５－１,,14,151,2520159,,,,,,,2021-09-28,1,,,,,ライズ,0
700,3021003010915,新規,0,2021-09-28,2021-09-28,合同会社Ｋ・ＮＥＸＴ,,合同会社,神奈川県,大和市,西鶴間１丁目１１番９号,,14,213,2420005,,,,,,,2021-09-28,1,,,,,ケイネクスト,0
716,3040001120328,新規,0,2021-09-28,2021-09-28,株式会社山秀,,株式会社,千葉県,柏市,大島田１６２番地１,,12,217,2770922,,,,,,,2021-09-28,1,,,,,ヤマシュウ,0
717,3040001120336,新規,0,2021-09-28,2021-09-28,株式会社ＬＯＣＡ,,株式会社,千葉県,市川市,欠真間２丁目１７－１６,,12,203,2720142,,,,,,,2021-09-28,1,,,,,ロカ,0
734,3080401025354,新規,0,2021-09-28,2021-09-28,株式会社ｍｅｒｉｋｅｎｋｏ,,株式会社,静岡県,御前崎市,佐倉４７６０番地の１,,22,223,4371604,,,,,,,2021-09-28,1,,,,,メリケンコ,0
738,3090003001950,新規,0,2021-09-28,2021-09-28,合同会社ロックリッジ,,合同会社,山梨県,山梨市,南１３７４－１,,19,205,4050042,,,,,,,2021-09-28,1,,,,,ロックリッジ,0
764,3120001240605,新規,0,2021-09-28,2021-09-28,株式会社ケーツーＨＤ,,株式会社,大阪府,大阪市北区,天神橋６丁目６番１１号,,27,127,5300041,,,,,,,2021-09-28,1,,,,,ケーツーホールディングス,0
765,3120001240613,新規,0,2021-09-28,2021-09-28,株式会社チェッカーワン,,株式会社,大阪府,大阪市中央区,瓦町４丁目６番１５号,,27,128,5410048,,,,,,,2021-09-28,1,,,,,チェッカーワン,0
766,3120001240621,新規,0,2021-09-28,2021-09-28,株式会社Ｈｙｂｌａｄｅ,,株式会社,大阪府,大阪市北区,角田町８番４７号阪急グランドビル２０Ｆ,,27,127,5300017,,,,,,,2021-09-28,1,,,,,ハイブレード,0
767,3120001240654,新規,0,2021-09-28,2021-09-28,株式会社スタジオｏｓｈｉｍａ,,株式会社,大阪府,寝屋川市,国松町３１番１７号,,27,215,5720016,,,,,,,2021-09-28,1,,,,,スタジオオシマ,0
768,3120001240662,新規,0,2021-09-28,2021-09-28,株式会社ロイヤルエステート,,株式会社,大阪府,大阪市東成区,大今里４丁目２７番２８号,,27,115,5370012,,,,,,,2021-09-28,1,,,,,ロイヤルエステート,0
775,3120101064350,新規,0,2021-09-28,2021-09-28,株式会社るくあぷ,,株式会社,大阪府,堺市中区,深井畑山町２６２５番地４,,27,142,5998248,,,,,,,2021-09-28,1,,,,,ルクアプ,0
780,3130001070126,新規,0,2021-09-28,2021-09-28,株式会社ハナセ,,株式会社,京都府,京都市左京区,花背原地町３７５番地,,26,103,6060000,,,,,,,2021-09-28,1,,,,,ハナセ,0
781,3130001070159,新規,0,2021-09-28,2021-09-28,マイスターマーラー株式会社,,株式会社,京都府,京都市南区,久世上久世町４９６番地４１,,26,107,6018212,,,,,,,2021-09-28,1,,,,,マイスターマーラー,0
782,3130003007506,新規,0,2021-09-28,2021-09-28,合同会社オフィスＫ,,合同会社,京都府,京都市南区,吉祥院石原長田町１番地の１桂川ハイツ３号館７０３号室,,26,107,6018383,,,,,,,2021-09-28,1,,,,,オフィスケー,0
789,3140001123114,新規,0,2021-09-28,2021-09-28,Ｔｈｅ　Ｇｌｏｂａｌ　Ｉｎｓｐｅｃｔｉｏｎ　Ｓｐｅｃｉａｌｉｓｔ株式会社,,株式会社,兵庫県,神戸市中央区,八幡通４丁目２番１２号カサベラＦＲⅡビル１０階,00124350,28,110,6510085,,,,,,,2021-09-28,1,,,,,ザグローバルインスペクションスペシャリスト,0
790,3140001123155,新規,0,2021-09-28,2021-09-28,株式会社ダイゼン,,株式会社,兵庫県,加古川市,志方町志方町５３６番地の１,,28,210,6750321,,,,,,,2021-09-28,1,,,,,ダイゼン,0
795,3150001024947,新規,0,2021-09-28,2021-09-28,寺井不動産株式会社,,株式会社,奈良県,磯城郡田原本町,大字三笠２２０番地の２３,,29,363,6360342,,,,,,,2021-09-28,1,,,,,テライフドウサン,0
800,3160001023642,新規,0,2021-09-28,2021-09-28,株式会社サクセス,,株式会社,滋賀県,湖南市,岩根１６６８番地１,,25,211,5203252,,,,,,,2021-09-28,1,,,,,サクセス,0
814,3180001147951,新規,0,2021-09-28,2021-09-28,株式会社名宝コンサルタント,,株式会社,愛知県,名古屋市東区,東大曽根町３７番１号,,23,102,4610022,,,,,,,2021-09-28,1,,,,,メイホウコンサルタント,0
815,3180001147968,新規,0,2021-09-28,2021-09-28,株式会社首藤設備,,株式会社,愛知県,春日井市,美濃町１丁目１５５番地,,23,206,4860917,,,,,,,2021-09-28,1,,,,,シュトウセツビ,0
827,3190001028696,新規,0,2021-09-28,2021-09-28,株式会社Ｆ＆Ｍ,,株式会社,三重県,松阪市,豊原町３１９番地１３,,24,204,5150205,,,,,,,2021-09-28,1,,,,,エフアンドエム,0
829,3190003003771,新規,0,2021-09-28,2021-09-28,合同会社ＳｅＲａｙｚ,,合同会社,三重県,四日市市,前田町２１番地１号,,24,202,5100893,,,,,,,2021-09-28,1,,,,,セレイズ,0
836,3220001024436,新規,0,2021-09-28,2021-09-28,株式会社カローズ設計,,株式会社,石川県,加賀市,黒崎町ゆ２３０番地,,17,206,9220565,,,,,,,2021-09-28,1,,,,,カローズセッケイ,0
839,3230001018998,新規,0,2021-09-28,2021-09-28,Ｔｉｍｅ＆Ｍｅｒｇｅ株式会社,,株式会社,富山県,富山市,掛尾町４７６番地２三栄ビル３０２号,,16,201,9398212,,,,,,,2021-09-28,1,,,,,タイムアンドマージ,0
843,3240001058647,新規,0,2021-09-28,2021-09-28,エスエーエス株式会社,,株式会社,広島県,広島市南区,旭１丁目２番１３－１号,,34,103,7340036,,,,,,,2021-09-28,1,,,,,エスエーエス,0
847,3240005015280,新規,0,2021-09-28,2021-09-28,医療法人Ｕｎｉｖｅｒｓａｌ　Ｈｏｍｅ　Ｍｅｄｉｃａｌ　Ｃａｒｅ,,その他の設立登記法人,広島県,広島市南区,西霞町１３番２７号,,34,103,7340044,,,,,,,2021-09-28,1,,,,,ユニバーサルホームメディカルケア,0
849,3250001019144,新規,0,2021-09-28,2021-09-28,株式会社Ｃａｎｄｙ　Ｇａｒｄｅｎ,,株式会社,山口県,下関市,清末鞍馬２丁目５番１２号,,35,201,7501153,,,,,,,2021-09-28,1,,,,,キャンディガーデン,0
852,3260003003681,新規,0,2021-09-28,2021-09-28,合同会社やまさき不動産企画,,合同会社,岡山県,津山市,中北上１６４５番地８,,33,203,7094606,,,,,,,2021-09-28,1,,,,,ヤマサキフドウサンキカク,0
853,3260005010973,新規,0,2021-09-28,2021-09-28,一般社団法人エイトロジックアカデミー,,その他の設立登記法人,岡山県,岡山市南区,浦安本町１０１番地２７,,33,104,7028026,,,,,,,2021-09-28,1,,,,,エイトロジックアカデミー,0
858,3290001094753,新規,0,2021-09-28,2021-09-28,株式会社Ｂｒａｖｅ,,株式会社,福岡県,福岡市中央区,春吉１丁目１４番１５号,,40,133,8100003,,,,,,,2021-09-28,1,,,,,ブレイブ,0
859,3290001094761,新規,0,2021-09-28,2021-09-28,ｔｏ＆ｃｏ株式会社,,株式会社,福岡県,福岡市博多区,東光２丁目８番２６－２０２号,,40,132,8120008,,,,,,,2021-09-28,1,,,,,トゥーアンドコー,0
861,3290003011640,新規,0,2021-09-28,2021-09-28,合同会社エコファーム浪江,,合同会社,福岡県,福岡市博多区,東比恵２丁目２０番２５号,,40,132,8120007,,,,,,,2021-09-28,1,,,,,エコファームナミエ,0
862,3290801027821,新規,0,2021-09-28,2021-09-28,ＪＳコーポレーション株式会社,,株式会社,福岡県,北九州市八幡西区,茶屋の原１丁目３番１９号,,40,109,8071134,,,,,,,2021-09-28,1,,,,,ジェイエスコーポレーション,0
864,3300005007032,新規,0,2021-09-28,2021-09-28,一般社団法人ｌｅａ,,その他の設立登記法人,佐賀県,神埼市,神埼町姉川３００番地３,,41,210,8420014,,,,,,,2021-09-28,1,,,,,レア,0
869,3340001024119,新規,0,2021-09-28,2021-09-28,山林開発株式会社,,株式会社,鹿児島県,鹿屋市,大手町１２番地３号,,46,203,8930009,,,,,,,2021-09-28,1,,,,,サンリンカイハツ,0
875,3360001029396,新規,0,2021-09-28,2021-09-28,ＳＣＹ株式会社,,株式会社,沖縄県,宜野湾市,野嵩１丁目１０番１－４０５号マンション秀,,47,205,9012203,,,,,,,2021-09-28,1,,,,,エスシーワイ,0
878,3360003011468,新規,0,2021-09-28,2021-09-28,合同会社ｒｅｖｅ,,合同会社,沖縄県,沖縄市,古謝３丁目２１番１５号ＫＨＯＵＳＥ１－Ａ,,47,211,9042161,,,,,,,2021-09-28,1,,,,,レイヴ,0
882,3370001047629,新規,0,2021-09-28,2021-09-28,株式会社アンドワイズ,,株式会社,宮城県,仙台市青葉区,花京院１丁目５番１２－１１０４号,,04,101,9800013,,,,,,,2021-09-28,1,,,,,アンドワイズ,0
886,3380003005022,新規,0,2021-09-28,2021-09-28,合同会社Ｐｌａｔｆｏｒｍ１２,,合同会社,福島県,伊達市,梁川町字西塩野川６６番地１,,07,213,9600709,,,,,,,2021-09-28,1,,,,,プラットフォームトゥエルブ,0
889,3400001015607,新規,0,2021-09-28,2021-09-28,株式会社ＧＯＭＩＴ,,株式会社,岩手県,二戸市,浄法寺町長坂７０番地１,,03,213,0286825,,,,,,,2021-09-28,1,,,,,ゴミット,0
890,3430001085028,新規,0,2021-09-28,2021-09-28,株式会社ｆａｍｙ,,株式会社,北海道,恵庭市,幸町２丁目１６番１号,,01,231,0611426,,,,,,,2021-09-28,1,,,,,ファミー,0
891,3430001085036,新規,0,2021-09-28,2021-09-28,株式会社アルメリア,,株式会社,北海道,札幌市白石区,本通１７丁目南５番１０－３０２号,,01,104,0030026,,,,,,,2021-09-28,1,,,,,アルメリア,0
893,3430003013184,新規,0,2021-09-28,2021-09-28,合同会社ウェルミル,,合同会社,北海道,札幌市北区,北二十一条西１３丁目２番３号,,01,102,0010021,,,,,,,2021-09-28,1,,,,,ウェルミル,0
894,3430005014288,新規,0,2021-09-28,2021-09-28,医療法人社団清らか,,その他の設立登記法人,北海道,札幌市清田区,里塚二条４丁目１５－７,,01,110,0040802,,,,,,,2021-09-28,1,,,,,キヨラカ,0
898,3500001023698,新規,0,2021-09-28,2021-09-28,株式会社今治ファーム,,株式会社,愛媛県,今治市,小泉４丁目２－２４,,38,202,7940064,,,,,,,2021-09-28,1,,,,,イマバリファーム,0
909,4010001220872,新規,0,2021-09-28,2021-09-28,株式会社巴里屋,,株式会社,東京都,千代田区,麹町５丁目７番地１,,13,101,1020083,,,,,,,2021-09-28,1,,,,,パリヤ,0
910,4010001221301,新規,0,2021-09-28,2021-09-28,株式会社Ｖｉｓｔａｖｅｋ,,株式会社,東京都,中央区,銀座２丁目１１番８号ラウンドクロス銀座２丁目１２階,,13,102,1040061,,,,,,,2021-09-28,1,,,,,ビスタベック,0
911,4010001221350,新規,0,2021-09-28,2021-09-28,株式会社バイオメディア,,株式会社,東京都,中央区,日本橋人形町１丁目９番２号,,13,102,1030013,,,,,,,2021-09-28,1,,,,,バイオメディア,0
912,4010001221383,新規,0,2021-09-28,2021-09-28,株式会社ｂ－ｓｉｄｅ,,株式会社,東京都,中央区,銀座１丁目１８番２号辰ビル７Ｆ,,13,102,1040061,,,,,,,2021-09-28,1,,,,,ビーサイド,0
915,4010003035906,新規,0,2021-09-28,2021-09-28,合同会社松本商事,,合同会社,東京都,文京区,白山５丁目３６番５号,,13,105,1120001,,,,,,,2021-09-28,1,,,,,マツモトショウジ,0
933,4010603009169,新規,0,2021-09-28,2021-09-28,ウエストプロパティ合同会社,,合同会社,東京都,墨田区,千歳１丁目１番１－１２０３号,,13,107,1300025,,,,,,,2021-09-28,1,,,,,ウエストプロパティ,0
946,4011001142958,新規,0,2021-09-28,2021-09-28,ＡＮＤ　Ｋ株式会社,,株式会社,東京都,目黒区,下目黒２丁目２１番２０号,,13,110,1530064,,,,,,,2021-09-28,1,,,,,アンドケイ,0
947,4011001142974,新規,0,2021-09-28,2021-09-28,株式会社ファンクシー,,株式会社,東京都,目黒区,東山３丁目１６番９号サクラ東山マンション４１６号室,,13,110,1530043,,,,,,,2021-09-28,1,,,,,ファンクシー,0
948,4011001142982,新規,0,2021-09-28,2021-09-28,株式会社ｆａｎ,,株式会社,東京都,渋谷区,円山町１０番１８号マイキャッスル渋谷ＪＰ５１０,,13,113,1500044,,,,,,,2021-09-28,1,,,,,ファン,0
965,4011103011037,新規,0,2021-09-28,2021-09-28,Ｕ－ＣＬＵＥ合同会社,,合同会社,東京都,新宿区,市谷薬王寺町４６番地グランステューディオ市ヶ谷薬王寺Ⅰ４０３,00124337,13,104,1620063,,,,,,,2021-09-28,1,,,,,ユークルー,0
966,4011105009979,新規,0,2021-09-28,2021-09-28,一般社団法人日本エクソソーム医療推進機構,,その他の設立登記法人,東京都,新宿区,西新宿６丁目７番１号東京医科大学医学総合研究所分子細胞治療研究部門内,,13,104,1600023,,,,,,,2021-09-28,1,,,,,ニホンエクソソームイリョウスイシンキコウ,0
968,4011203003644,新規,0,2021-09-28,2021-09-28,合同会社ココエクレール,,合同会社,東京都,中野区,本町３丁目２６番４４号,,13,114,1640012,,,,,,,2021-09-28,1,,,,,ココエクレール,0
970,4011601025414,新規,0,2021-09-28,2021-09-28,株式会社ｕｃａ,,株式会社,東京都,練馬区,氷川台２丁目７番２７－１１４号,,13,120,1790084,,,,,,,2021-09-28,1,,,,,ウカ,0
971,4011701024729,新規,0,2021-09-28,2021-09-28,ＳＥＫＩＮＥＫＥＮＺＡＩ株式会社,,株式会社,東京都,江戸川区,東小岩１丁目２６番９－５０７号,,13,123,1330052,,,,,,,2021-09-28,1,,,,,セキネケンザイ,0
977,4011805003109,新規,0,2021-09-28,2021-09-28,弁護士法人新小岩法律事務所,,その他の設立登記法人,東京都,葛飾区,新小岩１丁目４６番９号セントレック三田ビル６階,,13,122,1240024,,,,,,,2021-09-28,1,,,,,シンコイワホウリツジムショ,0
979,4012401038333,新規,0,2021-09-28,2021-09-28,Ｋ＆Ａ株式会社,,株式会社,東京都,三鷹市,下連雀８丁目２番１１－３１２号,,13,204,1810013,,,,,,,2021-09-28,1,,,,,ケーアンドエー,0
982,4012803002606,新規,0,2021-09-28,2021-09-28,天青果合同会社,,合同会社,東京都,国立市,中２丁目２０番地の１６浅間ハイツ１０３,,13,215,1860004,,,,,,,2021-09-28,1,,,,,アマセイカ,0
989,4013301048050,新規,0,2021-09-28,2021-09-28,株式会社Ｌｉｆｅウィズ,,株式会社,東京都,豊島区,南大塚２丁目１１番１０号ミモザビル３階,,13,116,1700005,,,,,,,2021-09-28,1,,,,,ライフウィズ,0
997,4020001143164,新規,0,2021-09-28,2021-09-28,株式会社ＭＯ,,株式会社,神奈川県,横浜市青葉区,青葉台２丁目１１番地１２青葉台コーポ２０１,,14,117,2270062,,,,,,,2021-09-28,1,,,,,エムオー,0
998,4020001143172,新規,0,2021-09-28,2021-09-28,株式会社エミーコミュニケーションズ,,株式会社,神奈川県,横浜市神奈川区,栄町５番地１横浜クリエーションスクエア１４階,,14,102,2210052,,,,,,,2021-09-28,1,,,,,エミーコミュニケーションズ,0
999,4020001143180,新規,0,2021-09-28,2021-09-28,丸福株式会社,,株式会社,神奈川県,横浜市港北区,鳥山町２６１番地１０,,14,109,2220035,,,,,,,2021-09-28,1,,,,,マルフク,0
1006,4020003020543,新規,0,2021-09-28,2021-09-28,ＢＥＥ合同会社,,合同会社,神奈川県,横浜市西区,東ケ丘１１番地４第５スミトモビル３０１号,,14,103,2200033,,,,,,,2021-09-28,1,,,,,ビー,0
1007,4021001074028,新規,0,2021-09-28,2021-09-28,株式会社ＴＲＡＤ,,株式会社,神奈川県,横須賀市,大滝町２丁目３番地１１,,14,201,2380008,,,,,,,2021-09-28,1,,,,,トラッド,0
1008,4021001074044,新規,0,2021-09-28,2021-09-28,株式会社アルファ,,株式会社,神奈川県,海老名市,東柏ケ谷５丁目１８－１７アモウト２１－４０２号,,14,215,2430401,,,,,,,2021-09-28,1,,,,,アルファ,0
1009,4021001074052,新規,0,2021-09-28,2021-09-28,株式会社ＯＫＩＮＡ,,株式会社,神奈川県,平塚市,袖ケ浜１７－４７－１０４ナイスステージ湘南袖が浜,,14,203,2540813,,,,,,,2021-09-28,1,,,,,オキナ,0
1021,4030001144500,新規,0,2021-09-28,2021-09-28,株式会社ジョエン,,株式会社,埼玉県,さいたま市見沼区,大字大谷１９７４番地１、６－８０１,,11,104,3370014,,,,,,,2021-09-28,1,,,,,ジョエン,0
1022,4030001144517,新規,0,2021-09-28,2021-09-28,株式会社ｉ－Ｇｒｏｗ,,株式会社,埼玉県,所沢市,北原町８７０番地の５パークハイツ２１４,,11,208,3590004,,,,,,,2021-09-28,1,,,,,アイグロウ,0
1023,4030001144525,新規,0,2021-09-28,2021-09-28,株式会社シビルｅｎｇ,,株式会社,埼玉県,桶川市,泉１丁目４番地２０号,,11,231,3630021,,,,,,,2021-09-28,1,,,,,シビルイーエヌジー,0
1029,4030003018000,新規,0,2021-09-28,2021-09-28,合同会社ｙｏｕｍｏｒｅ,,合同会社,埼玉県,さいたま市見沼区,大字東門前２３２－８,,11,104,3370016,,,,,,,2021-09-28,1,,,,,ユーモア,0
1030,4030005020532,新規,0,2021-09-28,2021-09-28,一般社団法人むくみゼミナール,,その他の設立登記法人,埼玉県,川越市,中原町２丁目１３番地２７Ｃｏｍｐｒｅｓｓｉｏｎ－ａｎａ株式会社内,,11,201,3500042,,,,,,,2021-09-28,1,,,,,ムクミゼミナール,0
1034,4040001120310,新規,0,2021-09-28,2021-09-28,株式会社ＳＴＥＰ,,株式会社,千葉県,大網白里市,季美の森南３丁目１４番地４,,12,239,2993241,,,,,,,2021-09-28,1,,,,,ステップ,0
1035,4040001120319,新規,0,2021-09-28,2021-09-28,グローリーグラッド株式会社,,株式会社,千葉県,千葉市花見川区,花園１丁目１０番８号,,12,102,2620025,,,,,,,2021-09-28,1,,,,,グローリーグラッド,0
1036,4040001120327,新規,0,2021-09-28,2021-09-28,株式会社ＳＫコンストラクション,,株式会社,千葉県,千葉市緑区,あすみが丘東１丁目１１番地１２,,12,105,2670067,,,,,,,2021-09-28,1,,,,,エスケーコンストラクション,0
1041,4040003018593,新規,0,2021-09-28,2021-09-28,合同会社ワイドオープン,,合同会社,千葉県,船橋市,坪井西２丁目７番５６号,,12,204,2740069,,,,,,,2021-09-28,1,,,,,ワイドオープン,0
1042,4040003018602,新規,0,2021-09-28,2021-09-28,北東物産合同会社,,合同会社,千葉県,木更津市,羽鳥野４丁目１番１８,,12,206,2920819,,,,,,,2021-09-28,1,,,,,ホクトウブッサン,0
1043,4040003018610,新規,0,2021-09-28,2021-09-28,合同会社チャームポイント,,合同会社,千葉県,市原市,君塚５丁目５－２６,,12,219,2900051,,,,,,,2021-09-28,1,,,,,チャームポイント,0
1045,4050001049870,新規,0,2021-09-28,2021-09-28,株式会社龍虎,,株式会社,茨城県,笠間市,泉字中村１０９８番地４,,08,216,3190209,,,,,,,2021-09-28,1,,,,,リュウコ,0
1047,4060003003817,新規,0,2021-09-28,2021-09-28,Ｍ．Ｖ．Ｃｅｙｌｏｎ　Ｅｘｐｏｒｔ合同会社,,合同会社,栃木県,佐野市,免鳥町４４８－２サンハイツ１１号棟,,09,204,3270041,,,,,,,2021-09-28,1,,,,,,0
1062,4080401025353,新規,0,2021-09-28,2021-09-28,株式会社アースコンシャス,,株式会社,静岡県,浜松市中区,砂山町３５５番地の４ハマキョウレックス浜松駅南ビル４階,,22,131,4300926,,,,,,,2021-09-28,1,,,,,アースコンシャス,0
1085,4120001240579,新規,0,2021-09-28,2021-09-28,株式会社源苑,,株式会社,大阪府,大阪市住吉区,杉本２丁目３１－５アスカ藤２０１号室,,27,120,5580022,,,,,,,2021-09-28,1,,,,,ゲンエン,0
1086,4120001240620,新規,0,2021-09-28,2021-09-28,株式会社Ｒｅ・Ｌｉｅｎ,,株式会社,大阪府,大阪市住之江区,柴谷２丁目１番８２－８１号,,27,125,5590021,,,,,,,2021-09-28,1,,,,,リリアン,0
1087,4120001240686,新規,0,2021-09-28,2021-09-28,株式会社Ｔ－ｅｒｅｃｔ,,株式会社,大阪府,交野市,松塚２７番１号,,27,230,5760043,,,,,,,2021-09-28,1,,,,,ティエレクト,0
1089,4120003020161,新規,0,2021-09-28,2021-09-28,合同会社ナニワ,,合同会社,大阪府,大阪市淀川区,西三国２丁目１２－６８第２アスカハイツＡ－４,,27,123,5320006,,,,,,,2021-09-28,1,,,,,ナニワ,0
1090,4120003020310,新規,0,2021-09-28,2021-09-28,合同会社プレジール,,合同会社,大阪府,大阪市西区,南堀江４丁目２３－３２－１１０２,,27,106,5500015,,,,,,,2021-09-28,1,,,,,プレジール,0
1095,4120901044939,新規,0,2021-09-28,2021-09-28,株式会社昇栄警備,,株式会社,大阪府,高槻市,上土室１丁目２－１８－４,,27,207,5691044,,,,,,,2021-09-28,1,,,,,ショウエイケイビ,0
1100,4130001070158,新規,0,2021-09-28,2021-09-28,株式会社アレステック,,株式会社,京都府,京都市南区,久世中久世町３丁目７２番地３,,26,107,6018213,,,,,,,2021-09-28,1,,,,,アレステック,0
1103,4130003007505,新規,0,2021-09-28,2021-09-28,合同会社Ｙ＆Ｃ,,合同会社,京都府,京都市左京区,上高野大塚町４－１８,,26,103,6060091,,,,,,,2021-09-28,1,,,,,ワイアンドシー,0
1108,4140001123105,新規,0,2021-09-28,2021-09-28,株式会社アップスダウン,,株式会社,兵庫県,神戸市中央区,熊内町３丁目３番２４号,,28,110,6510056,,,,,,,2021-09-28,1,,,,,アップスダウン,0
1109,4140001123146,新規,0,2021-09-28,2021-09-28,株式会社ウリア,,株式会社,兵庫県,尼崎市,武庫之荘本町３丁目１０番１８号,,28,202,6610031,,,,,,,2021-09-28,1,,,,,ウリア,0
1112,4140003016769,新規,0,2021-09-28,2021-09-28,合同会社おみせやさん,,合同会社,兵庫県,姫路市,東辻井１丁目４番２号,00124345,28,201,6700084,,,,,,,2021-09-28,1,,,,,オミセヤサン,0
1129,4180001147959,新規,0,2021-09-28,2021-09-28,株式会社ｔｏｍｉｎｃｏ,,株式会社,愛知県,津島市,西柳原町２丁目７番地２,,23,208,4960047,,,,,,,2021-09-28,1,,,,,トミンコ,0
1130,4180001147967,新規,0,2021-09-28,2021-09-28,株式会社ＬＢ．,,株式会社,愛知県,名古屋市熱田区,千年２丁目８番２８号,,23,109,4560054,,,,,,,2021-09-28,1,,,,,エルビードット,0
1135,4180005019452,新規,0,2021-09-28,2021-09-28,医療法人成田歯科,,その他の設立登記法人,愛知県,名古屋市中川区,かの里１丁目６０３番地,,23,110,4540957,,,,,,,2021-09-28,1,,,,,ナリタシカ,0
1144,4220005008599,新規,0,2021-09-28,2021-09-28,一般社団法人ソーシャルデザインコキア,,その他の設立登記法人,石川県,野々市市,太平寺２丁目２３３番地１ペルシェール１０５号室,,17,212,9218845,,,,,,,2021-09-28,1,,,,,ソーシャルデザインコキア,0
1147,4230001018997,新規,0,2021-09-28,2021-09-28,株式会社有沢自動車,,株式会社,富山県,下新川郡朝日町,藤塚２７７番地,,16,343,9380168,,,,,,,2021-09-28,1,,,,,アリサワジドウシャ,0
1151,4240003005290,新規,0,2021-09-28,2021-09-28,合同会社心和,,合同会社,広島県,東広島市,西条町御薗宇７１８－２８,,34,212,7390024,,,,,,,2021-09-28,1,,,,,ココロワ,0
1157,4250003002907,新規,0,2021-09-28,2021-09-28,合同会社アンドクルー,,合同会社,山口県,防府市,大字田島３３２－６,,35,206,7470834,,,,,,,2021-09-28,1,,,,,アンドクルー,0
1162,4260003003680,新規,0,2021-09-28,2021-09-28,ＷＮＹ合同会社,,合同会社,岡山県,岡山市中区,浜６０４番地３,,33,102,7038256,,,,,,,2021-09-28,1,,,,,ウニ,0
1166,4290001094752,新規,0,2021-09-28,2021-09-28,株式会社ＳＫグループ,,株式会社,福岡県,福岡市中央区,高砂１丁目２４番２６号－３Ｆ,,40,133,8100011,,,,,,,2021-09-28,1,,,,,エスケイグループ,0
1177,4310001017487,新規,0,2021-09-28,2021-09-28,株式会社モチモチノキ,,株式会社,長崎県,佐世保市,もみじが丘町２８番地５,,42,202,8571153,,,,,,,2021-09-28,1,,,,,モチモチノキ,0
1178,4320003003617,新規,0,2021-09-28,2021-09-28,合同会社Ｌｕａｎａ・Ｈｏｕｓｅ,,合同会社,大分県,大分市,大字口戸９２番地の２,,44,201,8701162,,,,,,,2021-09-28,1,,,,,ルアナハウス,0
1182,4340001024118,新規,0,2021-09-28,2021-09-28,株式会社八光,,株式会社,鹿児島県,鹿児島市,田上８丁目１２番２３号,,46,201,8900034,,,,,,,2021-09-28,1,,,,,ハッコウ,0
1186,4340005009346,新規,0,2021-09-28,2021-09-28,医療法人百桃,,その他の設立登記法人,鹿児島県,垂水市,南松原町１０番地,,46,214,8912126,,,,,,,2021-09-28,1,,,,,モモトウ,0
1196,4360005006515,新規,0,2021-09-28,2021-09-28,一般社団法人美ら琉会,,その他の設立登記法人,沖縄県,中頭郡北谷町,字浜川１１７番地５５,,47,326,9040112,,,,,,,2021-09-28,1,,,,,チュラルカイ,0
1200,4380003005021,新規,0,2021-09-28,2021-09-28,合同会社美広,,合同会社,福島県,伊達市,保原町上保原字内山台８番地１１,,07,213,9600684,,,,,,,2021-09-28,1,,,,,ミヒロ,0
1212,4470001018726,新規,0,2021-09-28,2021-09-28,喜家建築工房株式会社,,株式会社,香川県,三豊市,高瀬町上麻２７８５番地１,,37,208,7670014,,,,,,,2021-09-28,1,,,,,キヤケンチクコウボウ,0
1213,4470003002042,新規,0,2021-09-28,2021-09-28,合同会社ルイス,,合同会社,香川県,高松市,瓦町１丁目１１番１７号クイーンズスクエアビルパート２－３階,,37,201,7600052,,,,,,,2021-09-28,1,,,,,ルイス,0
1215,4700150104906,新規,0,2021-09-28,2021-09-28,ｉＲａｃｉｎｇ．ｃｏｍ　Ｍｏｔｏｒｓｐｏｒｔ　ｓｉｍｕｌａｔｉｏｎｓ，ＬＬＣ,,外国会社等,,,,,,,,３００　Ａｐｏｌｌｏ　Ｄｒｉｖｅ，Ｃｈｅｌｍｓｆｏｒｄ，ＭＡ　０１８２４,,,,,,2021-09-28,1,,,,,アイレーシングドツトコムモータースポーツシミユレーシヨンズエルエルシー,0
1223,5010001221358,新規,0,2021-09-28,2021-09-28,株式会社Ｍｅｄｏｌｅｏ,,株式会社,東京都,千代田区,九段南３丁目８番１０号ＡＣＮ九段南ビル９階,,13,101,1020074,,,,,,,2021-09-28,1,,,,,メドレオ,0
1224,5010001221374,新規,0,2021-09-28,2021-09-28,サザンクロス・トレーディング株式会社,,株式会社,東京都,中央区,東日本橋２丁目２８番４号日本橋ＣＥＴビル２階,,13,102,1030004,,,,,,,2021-09-28,1,,,,,サザンクロストレーディング,0
1225,5010001221382,新規,0,2021-09-28,2021-09-28,株式会社ツナグ・ソリューションズ,,株式会社,東京都,千代田区,有楽町２丁目２番１号,,13,101,1000006,,,,,,,2021-09-28,1,,,,,ツナグソリューションズ,0
1226,5010001221408,新規,0,2021-09-28,2021-09-28,株式会社ＺＡＭＯＯＬ,,株式会社,東京都,中央区,銀座７丁目１３番６号サガミビル２階,,13,102,1040061,,,,,,,2021-09-28,1,,,,,ザムール,0
1229,5010003035896,新規,0,2021-09-28,2021-09-28,合同会社ＺＩＳＥＤＡＩ,,合同会社,東京都,中央区,銀座６丁目１３番１６号銀座ｗａｌｌビルＵＣＦ５階,,13,102,1040061,,,,,,,2021-09-28,1,,,,,ジセダイ,0
1232,5010401162854,新規,0,2021-09-28,2021-09-28,株式会社Ａ’ｍ　ｋｉｉｓ,,株式会社,東京都,港区,三田２丁目４番３号ＴＨＥＣＯＮＯＥ三田綱町６０７,,13,103,1080073,,,,,,,2021-09-28,1,,,,,アマキス,0
1233,5010401162862,新規,0,2021-09-28,2021-09-28,株式会社ホワイトリッジ,,株式会社,東京都,港区,海岸１丁目１番１号４３０４号,,13,103,1050022,,,,,,,2021-09-28,1,,,,,ホワイトリッジ,0
1239,5010601059974,新規,0,2021-09-28,2021-09-28,株式会社アール・ディー,,株式会社,東京都,墨田区,堤通１丁目１１番１５－７０３号,,13,107,1310034,,,,,,,2021-09-28,1,,,,,アールディー,0
1240,5010601059990,新規,0,2021-09-28,2021-09-28,株式会社Ｆａｍｏｕｒ,,株式会社,東京都,江東区,白河２丁目１０－８号,,13,108,1350021,,,,,,,2021-09-28,1,,,,,ファムール,0
1242,5010801032343,新規,0,2021-09-28,2021-09-28,株式会社隼,,株式会社,東京都,大田区,西六郷３丁目２番１４－６２６号,,13,111,1440056,,,,,,,2021-09-28,1,,,,,ハヤブサ,0
1246,5010901049485,新規,0,2021-09-28,2021-09-28,株式会社Ｓｍａｌｌ　Ｒｅｄ,,株式会社,東京都,世田谷区,上北沢３丁目１８番７号幸作ビルＢ１,,13,112,1560057,,,,,,,2021-09-28,1,,,,,スモールレッド,0
1247,5010901049502,新規,0,2021-09-28,2021-09-28,株式会社ＣＯＲＡＳＯＮ,,株式会社,東京都,世田谷区,下馬６丁目２６番４号,,13,112,1540002,,,,,,,2021-09-28,1,,,,,コラソン,0
1248,5010901049510,新規,0,2021-09-28,2021-09-28,株式会社ばやしこ,,株式会社,東京都,世田谷区,太子堂５丁目２６－１５－Ｓ１０８,,13,112,1540004,,,,,,,2021-09-28,1,,,,,バヤシコ,0
1268,5011001142957,新規,0,2021-09-28,2021-09-28,株式会社シャンロン,,株式会社,東京都,渋谷区,千駄ヶ谷５丁目２７番５号,,13,113,1510051,,,,,,,2021-09-28,1,,,,,シャンロン,0
1269,5011001142998,新規,0,2021-09-28,2021-09-28,Ｓｉｘ　Ｓｉｇｍａ　Ｔａｌｅｎｔ株式会社,,株式会社,東京都,渋谷区,猿楽町７番１号ＫＤＸ代官山レジデンス１０７,,13,113,1500033,,,,,,,2021-09-28,1,,,,,シックスシグマタレント,0
1270,5011003013462,新規,0,2021-09-28,2021-09-28,合同会社東,,合同会社,東京都,渋谷区,道玄坂１丁目６番３号道玄坂パールビル３階,,13,113,1500043,,,,,,,2021-09-28,1,,,,,トウ,0
1271,5011005009228,新規,0,2021-09-28,2021-09-28,一般社団法人浮ノ屋,,その他の設立登記法人,東京都,渋谷区,神宮前６丁目２３番４号桑野ビル２Ｆ,,13,113,1500001,,,,,,,2021-09-28,1,,,,,ウキノヤ,0
1282,5011703002946,新規,0,2021-09-28,2021-09-28,合同会社マルヤス酒場西葛西,,合同会社,東京都,江戸川区,西葛西５丁目１番１号３Ｆ,,13,123,1340088,,,,,,,2021-09-28,1,,,,,マルヤスサカバニシカサイ,0
1288,5012401038332,新規,0,2021-09-28,2021-09-28,株式会社ＡＱＵＴＹ,,株式会社,東京都,稲城市,若葉台２丁目１２番地Ｈ－６０４,,13,225,2060824,,,,,,,2021-09-28,1,,,,,アクティ,0
1298,5020001143155,新規,0,2021-09-28,2021-09-28,株式会社フロンティア,,株式会社,神奈川県,横浜市中区,伊勢佐木町３丁目１０７イイダヤビル２０１,,14,104,2310045,,,,,,,2021-09-28,1,,,,,フロンティア,0
1299,5020001143171,新規,0,2021-09-28,2021-09-28,えんがわ株式会社,,株式会社,神奈川県,横浜市神奈川区,青木町１番地７,,14,102,2210057,,,,,,,2021-09-28,1,,,,,エンガワ,0
1305,5020003020518,新規,0,2021-09-28,2021-09-28,合同会社トライズ,,合同会社,神奈川県,横浜市青葉区,若草台１０番地１,,14,117,2270045,,,,,,,2021-09-28,1,,,,,トライズ,0
1308,5021001074027,新規,0,2021-09-28,2021-09-28,株式会社クールナッツ,,株式会社,神奈川県,鎌倉市,梶原２丁目２７番３０－３１３号,,14,204,2470063,,,,,,,2021-09-28,1,,,,,クールナッツ,0
1313,5021003010921,新規,0,2021-09-28,2021-09-28,順峰合同会社,,合同会社,神奈川県,厚木市,厚木町１番２１－４０２号,,14,212,2430011,,,,,,,2021-09-28,1,,,,,ジュンポウ,0
1323,5030001144524,新規,0,2021-09-28,2021-09-28,株式会社プラスゼータ,,株式会社,埼玉県,入間市,東藤沢７丁目１７番３号,,11,225,3580012,,,,,,,2021-09-28,1,,,,,プラスゼータ,0
1333,5040001120326,新規,0,2021-09-28,2021-09-28,株式会社Ｃｏｓ’Ｓ,,株式会社,千葉県,野田市,野田６３６番地の３ロイヤルステージ野田Ⅰ７０６号室,00124357,12,208,2780037,,,,,,,2021-09-28,1,,,,,コッシーズ,0
1334,5040001120334,新規,0,2021-09-28,2021-09-28,株式会社ロア・パートナーズ,,株式会社,千葉県,市川市,国分１丁目６番１９号,,12,203,2720834,,,,,,,2021-09-28,1,,,,,ロアパートナーズ,0
1337,5040003018601,新規,0,2021-09-28,2021-09-28,Ａｌｐｈａ　Ｇｒｏｗｔｈ合同会社,,合同会社,千葉県,千葉市稲毛区,稲毛台町２０番１０号,,12,103,2630032,,,,,,,2021-09-28,1,,,,,アルファグロース,0
1338,5040003018618,新規,0,2021-09-28,2021-09-28,合同会社ＹＡＭＡＴＯ,,合同会社,千葉県,流山市,名都借７８９番７号,,12,220,2700145,,,,,,,2021-09-28,1,,,,,ヤマト,0
1340,5040005021355,新規,0,2021-09-28,2021-09-28,一般社団法人千葉県ｅスポーツ連盟,,その他の設立登記法人,千葉県,千葉市稲毛区,長沼原町７１８番地１,,12,103,2630001,,,,,,,2021-09-28,1,,,,,チバケンイースポーツレンメイ,0
1343,5060001034111,新規,0,2021-09-28,2021-09-28,株式会社ティークリーン,,株式会社,栃木県,那須塩原市,埼玉３番地６３１,,09,213,3250033,,,,,,,2021-09-28,1,,,,,ティークリーン,0
1345,5060002041148,新規,0,2021-09-28,2021-09-28,有限会社岩本商店,,有限会社,栃木県,那須塩原市,五軒町３番２４号,,09,213,3292753,,,,,,,2021-09-28,1,,,,,イワモトショウテン,0
1362,5100003006244,新規,0,2021-09-28,2021-09-28,健幸合同会社,,合同会社,長野県,東筑摩郡生坂村,８５４７番地１,,20,448,3997201,,,,,,,2021-09-28,1,,,,,タケサチ,0
1379,5120001240586,新規,0,2021-09-28,2021-09-28,セレブレイトスマーツ株式会社,,株式会社,大阪府,大阪市北区,芝田２丁目８番１１号,,27,127,5300012,,,,,,,2021-09-28,1,,,,,セレブレイトスマーツ,0
1380,5120001240603,新規,0,2021-09-28,2021-09-28,株式会社イット,,株式会社,大阪府,大阪市西区,江戸堀１丁目２３番２６号西八千代ビル４階Ｂ号室,,27,106,5500002,,,,,,,2021-09-28,1,,,,,イット,0
1381,5120001240611,新規,0,2021-09-28,2021-09-28,アフィニティー株式会社,,株式会社,大阪府,大阪市北区,梅田１丁目１－３大阪駅前第３ビル２３０７,,27,127,5300001,,,,,,,2021-09-28,1,,,,,アフィニティー,0
1382,5120001240652,新規,0,2021-09-28,2021-09-28,ミヤマエ建工株式会社,,株式会社,大阪府,大阪市平野区,平野南２丁目９番３５号,,27,126,5470031,,,,,,,2021-09-28,1,,,,,ミヤマエケンコウ,0
1383,5120001240685,新規,0,2021-09-28,2021-09-28,株式会社オサラキカク,,株式会社,大阪府,枚方市,岡本町７番１号,,27,210,5730031,,,,,,,2021-09-28,1,,,,,オサラキカク,0
1390,5120003020301,新規,0,2021-09-28,2021-09-28,ＨＥＬＬＯ合同会社,,合同会社,大阪府,大阪市阿倍野区,播磨町１丁目２０番１６号１Ｆ,,27,119,5450022,,,,,,,2021-09-28,1,,,,,ヘーロ,0
1391,5120003020318,新規,0,2021-09-28,2021-09-28,合同会社メディカルケアソース,,合同会社,大阪府,大阪市中央区,上汐１丁目４－３,,27,128,5420064,,,,,,,2021-09-28,1,,,,,メディカルケアソース,0
1405,5130001070165,新規,0,2021-09-28,2021-09-28,株式会社ジャストライフ,,株式会社,京都府,京都市上京区,千本通芦山寺上る閻魔前町４番地,,26,102,6028307,,,,,,,2021-09-28,1,,,,,ジャストライフ,0
1415,5140001123112,新規,0,2021-09-28,2021-09-28,株式会社トランス,,株式会社,兵庫県,神戸市灘区,徳井町３丁目１番７号,,28,102,6570033,,,,,,,2021-09-28,1,,,,,トランス,0
1416,5140001123120,新規,0,2021-09-28,2021-09-28,株式会社ＢＬＵＥ　ＤＯＴ,,株式会社,兵庫県,神戸市東灘区,向洋町中６丁目９,,28,101,6580032,,,,,,,2021-09-28,1,,,,,ブルードット,0
1417,5140003016768,新規,0,2021-09-28,2021-09-28,合同会社一本道,,合同会社,兵庫県,姫路市,夢前町置本５２８番地２,,28,201,6712122,,,,,,,2021-09-28,1,,,,,イッポンドウ,0
1420,5170003001635,新規,0,2021-09-28,2021-09-28,合同会社笑幸,,合同会社,和歌山県,紀の川市,藤井１９６番地８,,30,208,6496514,,,,,,,2021-09-28,1,,,,,ニコ,0
1428,5180001147966,新規,0,2021-09-28,2021-09-28,株式会社ＢＥＳＴＹ,,株式会社,愛知県,名古屋市中区,新栄２丁目２９番５号,,23,106,4600007,,,,,,,2021-09-28,1,,,,,ベスティ,0
1429,5180001147974,新規,0,2021-09-28,2021-09-28,株式会社スマイル,,株式会社,愛知県,名古屋市東区,泉１丁目１番３０号,,23,102,4610001,,,,,,,2021-09-28,1,,,,,スマイル,0
1432,5180003023001,新規,0,2021-09-28,2021-09-28,合同会社ＳＥＩＲＡＮカンパニー,,合同会社,愛知県,小牧市,応時３丁目６２番地２,,23,219,4850832,,,,,,,2021-09-28,1,,,,,セイランカンパニー,0
1433,5180005019451,新規,0,2021-09-28,2021-09-28,一般社団法人自然災害協会,,その他の設立登記法人,愛知県,名古屋市熱田区,六番３丁目１７番２号ドルフィン六番４１１,,23,109,4560058,,,,,,,2021-09-28,1,,,,,シゼンサイガイキョウカイ,0
1436,5190001028703,新規,0,2021-09-28,2021-09-28,株式会社ｎａｎｏヘルスケア,,株式会社,三重県,度会郡南伊勢町,泉３０９番地１,,24,472,5160103,,,,,,,2021-09-28,1,,,,,ナノヘルスケア,0
1439,5200001039178,新規,0,2021-09-28,2021-09-28,ＦｉｂｅｒＣｒａｚｅ株式会社,,株式会社,岐阜県,岐阜市,守口町３丁目１番地,,21,201,5020921,,,,,,,2021-09-28,1,,,,,ファイバークレーズ,0
1442,5220003003122,新規,0,2021-09-28,2021-09-28,合同会社アイ・ビー・アール,,合同会社,石川県,かほく市,内日角４丁目６３－７,,17,209,9291126,,,,,,,2021-09-28,1,,,,,アイビーアール,0
1457,5240005015279,新規,0,2021-09-28,2021-09-28,一般社団法人ＡＩ・データイノベーション教育研究推進機構,,その他の設立登記法人,広島県,広島市中区,東千田町１丁目１番８９号,,34,101,7300053,,,,,,,2021-09-28,1,,,,,エーアイデータイノベーションキョウイクケンキュウスイシンキコウ,0
1458,5250001019142,新規,0,2021-09-28,2021-09-28,株式会社ふるさと,,株式会社,山口県,山口市,秋穂東７５７６番地,,35,203,7541101,,,,,,,2021-09-28,1,,,,,フルサト,0
1464,5290001094735,新規,0,2021-09-28,2021-09-28,萬里海産株式会社,,株式会社,福岡県,福岡市中央区,港１丁目９－２９,,40,133,8100075,,,,,,,2021-09-28,1,,,,,バンリカイサン,0
1465,5290001094751,新規,0,2021-09-28,2021-09-28,ダイリュウ株式会社,,株式会社,福岡県,大川市,大字小保１０１４番地１,,40,212,8310041,,,,,,,2021-09-28,1,,,,,ダイリュウ,0
1466,5290001094768,新規,0,2021-09-28,2021-09-28,株式会社知常,,株式会社,福岡県,福岡市博多区,博多駅前３丁目３０番１５－５１２号ライオンズマンション博多,,40,132,8120011,,,,,,,2021-09-28,1,,,,,チジョウ,0
1468,5290003011639,新規,0,2021-09-28,2021-09-28,合同会社エコファーム須賀川,,合同会社,福岡県,福岡市博多区,東比恵２丁目２０番２５号,,40,132,8120007,,,,,,,2021-09-28,1,,,,,エコファームスカガワ,0
1470,5290801027836,新規,0,2021-09-28,2021-09-28,株式会社ＨＯＬＩＤＡＹ,,株式会社,福岡県,中間市,長津３丁目４番１号,,40,215,8090036,,,,,,,2021-09-28,1,,,,,ホリデー,0
1471,5290805009475,新規,0,2021-09-28,2021-09-28,ＮＰＯ法人はるかぜ,,その他の設立登記法人,福岡県,北九州市小倉北区,下到津５丁目１０番２７号,,40,106,8030846,,,,,,,2021-09-28,1,,,,,ハルカゼ,0
1476,5310003004169,新規,0,2021-09-28,2021-09-28,合同会社ＴＡＩＺＥＮ,,合同会社,長崎県,長崎市,本河内３丁目５番３８号,,42,201,8500012,,,,,,,2021-09-28,1,,,,,タイゼン,0
1483,5360001029411,新規,0,2021-09-28,2021-09-28,株式会社ケイジェイカンパニー,,株式会社,沖縄県,名護市,大北４丁目６番７号,,47,209,9050019,,,,,,,2021-09-28,1,,,,,ケイジェイカンパニー,0
1484,5360003011458,新規,0,2021-09-28,2021-09-28,合同会社サザンコーポレーション,,合同会社,沖縄県,那覇市,小禄１丁目３０番２３号,,47,201,9010152,,,,,,,2021-09-28,1,,,,,サザンコーポレーション,0
1486,5370003005401,新規,0,2021-09-28,2021-09-28,Ｋ・Ｋサービス合同会社,,合同会社,宮城県,石巻市,中里４丁目１１－２０コーポササキ２０１号,,04,202,9860815,,,,,,,2021-09-28,1,,,,,,0
1492,5380001032215,新規,0,2021-09-28,2021-09-28,株式会社ＦＫＳ,,株式会社,福島県,郡山市,安積町日出山２丁目１１番地１,,07,203,9630101,,,,,,,2021-09-28,1,,,,,エフケーエス,0
1503,5430001085034,新規,0,2021-09-28,2021-09-28,株式会社リグライフワン,,株式会社,北海道,札幌市豊平区,美園三条４丁目３番１０号日拓ビル６階,,01,105,0620003,,,,,,,2021-09-28,1,,,,,リグライフワン,0
1507,5430003013182,新規,0,2021-09-28,2021-09-28,ディヴァーナ合同会社,,合同会社,北海道,札幌市手稲区,星置二条１丁目１４番３３号,,01,109,0060852,,,,,,,2021-09-28,1,,,,,ディヴァーナ,0
1508,5430005014294,新規,0,2021-09-28,2021-09-28,医療法人社団片桐歯科,,その他の設立登記法人,北海道,小樽市,花園１丁目１番９号,,01,203,0470024,,,,,,,2021-09-28,1,,,,,カタギリシカ,0
1514,5700150104905,新規,0,2021-09-28,2021-09-28,Ｓａｒｉａｎａ　ＬＬＣ,,外国会社等,,,,,,,,７３６５　Ｍｉｓｓｉｏｎ　Ｇｏｒｇｅ　Ｒｏａｄ　Ｓｕｉｔｅ　Ｇ　Ｓａｎ　Ｄｉｅｇｏ．ＣＡ　９２１２０　Ｕ．Ｓ．Ａ．,,,,,,2021-09-28,1,,,,,サリアナエルエルシ,0
1520,6010001221340,新規,0,2021-09-28,2021-09-28,株式会社アクロテック,,株式会社,東京都,中央区,銀座１丁目１６番７号大栄銀座ビル５Ｆ,,13,102,1040061,,,,,,,2021-09-28,1,,,,,アクロテック,0
1521,6010001221365,新規,0,2021-09-28,2021-09-28,株式会社ＮＹＮ,,株式会社,東京都,中央区,日本橋堀留町１丁目８番１５号２Ｆ,,13,102,1030012,,,,,,,2021-09-28,1,,,,,エヌワイエヌ,0
1522,6010001221381,新規,0,2021-09-28,2021-09-28,Ａｑｕｉｌａ　Ｃａｐｉｔａｌ　Ｊａｐａｎ株式会社,,株式会社,東京都,千代田区,有楽町２丁目７番１号有楽町イトシア１２Ｆ,,13,101,1000006,,,,,,,2021-09-28,1,,,,,アキラキャピタルジャパン,0
1523,6010001221398,新規,0,2021-09-28,2021-09-28,丸の内委員会株式会社,,株式会社,東京都,千代田区,丸の内２丁目５番２号,,13,101,1000005,,,,,,,2021-09-28,1,,,,,マルノウチイインカイ,0
1525,6010003035887,新規,0,2021-09-28,2021-09-28,未来合同会社,,合同会社,東京都,千代田区,鍛冶町２丁目８番１０号４階,,13,101,1010044,,,,,,,2021-09-28,1,,,,,ミライ,0
1526,6010003035904,新規,0,2021-09-28,2021-09-28,ＭＩＫＯＤＡ合同会社,,合同会社,東京都,千代田区,五番町１２番地ドミール五番町１－０７６,,13,101,1020076,,,,,,,2021-09-28,1,,,,,ミコダ,0
1530,6010401162804,新規,0,2021-09-28,2021-09-28,株式会社Ａｎｙ　Ｓｙｎｃ,,株式会社,東京都,港区,北青山３丁目６番７号青山パラシオタワー１１階,,13,103,1070061,,,,,,,2021-09-28,1,,,,,エニーシンク,0
1531,6010401162878,新規,0,2021-09-28,2021-09-28,株式会社ＩＬ　ＬＵＰＩＮＯ　ＪＡＰＡＮ,,株式会社,東京都,港区,麻布十番３丁目８番１号,,13,103,1060045,,,,,,,2021-09-28,1,,,,,イルルピーノジャパン,0
1537,6010901049501,新規,0,2021-09-28,2021-09-28,株式会社山本会計,,株式会社,東京都,世田谷区,駒沢２丁目４３番９号,,13,112,1540012,,,,,,,2021-09-28,1,,,,,ヤマモトカイケイ,0
1546,6011001142873,新規,0,2021-09-28,2021-09-28,シャドーイングジム株式会社,,株式会社,東京都,渋谷区,渋谷２丁目１９－１５宮益坂ビルディング６０９,,13,113,1500002,,,,,,,2021-09-28,1,,,,,シャドーイングジム,0
1547,6011001142881,新規,0,2021-09-28,2021-09-28,株式会社ＴＲＥＳＳ,,株式会社,東京都,渋谷区,恵比寿西２丁目８－１０ＯＲＩＸ恵比寿西ビル４Ｆ,,13,113,1500021,,,,,,,2021-09-28,1,,,,,トレス,0
1548,6011001142956,新規,0,2021-09-28,2021-09-28,ＪＭＲアセットマネジメント株式会社,,株式会社,東京都,渋谷区,道玄坂１丁目２２番９号,,13,113,1500043,,,,,,,2021-09-28,1,,,,,ジェイエムアールアセットマネジメント,0
1553,6011003013437,新規,0,2021-09-28,2021-09-28,ＥＳＴＥＬ合同会社,,合同会社,東京都,渋谷区,神宮前６丁目２３番４号桑野ビル２階,,13,113,1500001,,,,,,,2021-09-28,1,,,,,エステル,0
1565,6011401023673,新規,0,2021-09-28,2021-09-28,株式会社ＫＯＯ　ＴＲＡＤＩＮＧ,,株式会社,東京都,板橋区,氷川町１９番１－１００２号,,13,119,1730013,,,,,,,2021-09-28,1,,,,,クートレーディング,0
1572,6011601025412,新規,0,2021-09-28,2021-09-28,Ｅ・ＣＲＡＦＴ株式会社,,株式会社,東京都,練馬区,春日町２丁目２６番２１号,,13,120,1790074,,,,,,,2021-09-28,1,,,,,イークラフト,0
1586,6012405004643,新規,0,2021-09-28,2021-09-28,一般社団法人ニューマチヅクリシャ,,その他の設立登記法人,東京都,多摩市,落合４丁目１６番地１－１０５,,13,224,2060033,,,,,,,2021-09-28,1,,,,,ニューマチヅクリシャ,0
1588,6012801021110,新規,0,2021-09-28,2021-09-28,株式会社ＩＱ２００,,株式会社,東京都,東大和市,桜が丘４丁目２９７番地の１７,,13,220,2070022,,,,,,,2021-09-28,1,,,,,アイキューニヒャク,0
1589,6013301048049,新規,0,2021-09-28,2021-09-28,Ａｃｅ　Ｍｅｄｉｃｓ株式会社,,株式会社,東京都,豊島区,千早４丁目２番９号,,13,116,1710044,,,,,,,2021-09-28,1,,,,,エースメディックス,0
1594,6020001143170,新規,0,2021-09-28,2021-09-28,株式会社Ｃｏｌｏｒ　Ｓｃａｌｅ,,株式会社,神奈川県,横浜市西区,高島２丁目１１番２号スカイメナー横浜５１９,,14,103,2200011,,,,,,,2021-09-28,1,,,,,カラースケール,0
1602,6020003020541,新規,0,2021-09-28,2021-09-28,合同会社ワイド,,合同会社,神奈川県,横浜市西区,みなとみらい４丁目４番２号横浜ブルーアベニュー１２階,,14,103,2200012,,,,,,,2021-09-28,1,,,,,ワイド,0
1607,6021001073977,新規,0,2021-09-28,2021-09-28,株式会社Ａ＆Ｍ,,株式会社,神奈川県,横須賀市,大滝町２丁目１０番地藤掛ビル２階,,14,201,2380008,,,,,,,2021-09-28,1,,,,,エーアンドエム,0
1615,6030001144498,新規,0,2021-09-28,2021-09-28,株式会社喜多,,株式会社,埼玉県,東松山市,大字柏崎３６５番地２,,11,212,3550034,,,,,,,2021-09-28,1,,,,,キタ,0
1616,6030001144507,新規,0,2021-09-28,2021-09-28,金澤商事株式会社,,株式会社,埼玉県,戸田市,本町１丁目５番２号１Ｆ,,11,224,3350023,,,,,,,2021-09-28,1,,,,,カナザワショウジ,0
1622,6040001120309,新規,0,2021-09-28,2021-09-28,株式会社ＴＳＪ,,株式会社,千葉県,市原市,八幡７７９番地２－３０５号室,,12,219,2900062,,,,,,,2021-09-28,1,,,,,ティーエスジェイ,0
1623,6040001120325,新規,0,2021-09-28,2021-09-28,株式会社伯楽,,株式会社,千葉県,千葉市若葉区,若松町２０６５番地２,,12,104,2640021,,,,,,,2021-09-28,1,,,,,ハクラク,0
1628,6040003018600,新規,0,2021-09-28,2021-09-28,合同会社ビギニング・ワン,,合同会社,千葉県,市川市,大野町３丁目２０６５番地３,,12,203,2720805,,,,,,,2021-09-28,1,,,,,ビギニングワン,0
1629,6040003018609,新規,0,2021-09-28,2021-09-28,合同会社ヘルメース,,合同会社,千葉県,柏市,塚崎８９５番地３ソル・レヴェンテⅡＢ－２０２号,00124358,12,217,2770923,,,,,,,2021-09-28,1,,,,,ヘルメース,0
1630,6040003018617,新規,0,2021-09-28,2021-09-28,合同会社洋野町グリーン電力,,合同会社,千葉県,長生郡長南町,報恩寺３０２番地１,,12,427,2970141,,,,,,,2021-09-28,1,,,,,ヒロノチョウグリーンデンリョク,0
1633,6070001038449,新規,0,2021-09-28,2021-09-28,ＡＰＵＳ　ＪＡＰＡＮ　ＰＥＲＵＶＩＡＮ　ＦＯＯＤＳ株式会社,,株式会社,群馬県,伊勢崎市,羽黒町３４番地,,10,204,3720844,,,,,,,2021-09-28,1,,,,,アプスジャパンペルビアンフーズ,0
1640,6080005007399,新規,0,2021-09-28,2021-09-28,医療法人社団慈誠会,,その他の設立登記法人,静岡県,静岡市清水区,押切２００２番地の１,,22,103,4240008,,,,,,,2021-09-28,1,,,,,ジセイカイ,0
1641,6080101022789,新規,0,2021-09-28,2021-09-28,株式会社Ｔｉｎｔ．,,株式会社,静岡県,御殿場市,茱萸沢６３５番地の１０,,22,215,4120041,,,,,,,2021-09-28,1,,,,,ティント,0
1649,6100001034634,新規,0,2021-09-28,2021-09-28,株式会社アーキプラン,,株式会社,長野県,上伊那郡箕輪町,大字中箕輪９９１１番地,,20,383,3994601,,,,,,,2021-09-28,1,,,,,アーキプラン,0
1664,6120001240619,新規,0,2021-09-28,2021-09-28,株式会社岩本組,,株式会社,大阪府,大阪市住之江区,御崎６丁目５番３号,,27,125,5590013,,,,,,,2021-09-28,1,,,,,イワモトグミ,0
1665,6120001240635,新規,0,2021-09-28,2021-09-28,株式会社谷川塗装,,株式会社,大阪府,大阪市浪速区,幸町１丁目２番９号ＲＥ－００５－１０２,,27,111,5560021,,,,,,,2021-09-28,1,,,,,タニガワトソウ,0
1666,6120001240651,新規,0,2021-09-28,2021-09-28,ＣＲＯＳＳＲＯＡＤ株式会社,,株式会社,大阪府,大阪市西区,新町１丁目３番１２号四ツ橋セントラルビル,,27,106,5500013,,,,,,,2021-09-28,1,,,,,クロスロード,0
1667,6120001240676,新規,0,2021-09-28,2021-09-28,株式会社菜の花,,株式会社,大阪府,枚方市,高野道２丁目２７番地１０号,,27,210,5731131,,,,,,,2021-09-28,1,,,,,ナノハナ,0
1668,6120003020283,新規,0,2021-09-28,2021-09-28,合同会社ＯＫＩＮＡＲＡ不動産,,合同会社,大阪府,大阪市住吉区,山之内２丁目９番９号,,27,120,5580023,,,,,,,2021-09-28,1,,,,,オキナラフドウサン,0
1669,6120003020309,新規,0,2021-09-28,2021-09-28,合同会社はるエステート,,合同会社,大阪府,大阪市住吉区,我孫子西２丁目１１番７号,,27,120,5580015,,,,,,,2021-09-28,1,,,,,ハルエステート,0
1672,6120101064356,新規,0,2021-09-28,2021-09-28,株式会社ＩＬＩＦＥ,,株式会社,大阪府,羽曳野市,白鳥３丁目１５番１号,,27,222,5830856,,,,,,,2021-09-28,1,,,,,アイライフ,0
1675,6120901044945,新規,0,2021-09-28,2021-09-28,株式会社カディマ,,株式会社,大阪府,豊中市,若竹町１丁目１０－１１８,,27,203,5610811,,,,,,,2021-09-28,1,,,,,カディマ,0
1680,6130001070156,新規,0,2021-09-28,2021-09-28,株式会社ケンケンホーム,,株式会社,京都府,京都市山科区,大塚北溝町３４番地２４フジワラビル２０１号室,,26,110,6078134,,,,,,,2021-09-28,1,,,,,ケンケンホーム,0
1681,6130001070172,新規,0,2021-09-28,2021-09-28,株式会社大韓商会,,株式会社,京都府,京都市左京区,田中上玄京町２４番地３サントゥール２，３０１号室,,26,103,6068215,,,,,,,2021-09-28,1,,,,,ダイカンショウカイ,0
1692,6140001123136,新規,0,2021-09-28,2021-09-28,株式会社Ｉ・プランニング,,株式会社,兵庫県,明石市,荷山町２７５９番地の１,,28,203,6730842,,,,,,,2021-09-28,1,,,,,アイプランニング,0
1694,6140003016767,新規,0,2021-09-28,2021-09-28,合同会社Ｗｅａｓｔ,,合同会社,兵庫県,神戸市垂水区,泉が丘２丁目７番２５号,,28,108,6550885,,,,,,,2021-09-28,1,,,,,ウィイスト,0
1697,6150001024944,新規,0,2021-09-28,2021-09-28,ＦＦライフコンサルタント株式会社,,株式会社,奈良県,北葛城郡広陵町,馬見南５丁目１番４－４号,,29,426,6350833,,,,,,,2021-09-28,1,,,,,エフエフライフコンサルタント,0
1700,6160003002385,新規,0,2021-09-28,2021-09-28,合同会社依知,,合同会社,滋賀県,大津市,大江７丁目２番４４号,,25,201,5202141,,,,,,,2021-09-28,1,,,,,ヨリシロ,0
1702,6170003001634,新規,0,2021-09-28,2021-09-28,ビットウー合同会社,,合同会社,和歌山県,田辺市,新庄町３７４１ー６５,,30,206,6460011,,,,,,,2021-09-28,1,,,,,ビットウー,0
1705,6180001147949,新規,0,2021-09-28,2021-09-28,株式会社ＺＡＮ,,株式会社,愛知県,江南市,小折町八反畑４１番地,,23,217,4838131,,,,,,,2021-09-28,1,,,,,ザン,0
1706,6180001147965,新規,0,2021-09-28,2021-09-28,株式会社ウプシェアサロン,,株式会社,愛知県,名古屋市中区,錦１丁目１０番１２号１,,23,106,4600003,,,,,,,2021-09-28,1,,,,,ウプシェアサロン,0
1707,6180001147973,新規,0,2021-09-28,2021-09-28,株式会社フタバ不動産,,株式会社,愛知県,稲沢市,野崎町新出７４番地３,,23,220,4928447,,,,,,,2021-09-28,1,,,,,フタバフドウサン,0
1708,6180001147981,新規,0,2021-09-28,2021-09-28,株式会社ＣＶ,,株式会社,愛知県,名古屋市名東区,よもぎ台３丁目１５０２番地,,23,115,4650091,,,,,,,2021-09-28,1,,,,,シーヴィ,0
1722,6240001058636,新規,0,2021-09-28,2021-09-28,株式会社デノフ,,株式会社,広島県,呉市,焼山南１丁目３番９号,,34,202,7370924,,,,,,,2021-09-28,1,,,,,デノフ,0
1723,6240003005289,新規,0,2021-09-28,2021-09-28,合同会社Ｙ・Ｓ,,合同会社,広島県,広島市安芸区,矢野東２丁目２４番２－７０８号,,34,107,7360083,,,,,,,2021-09-28,1,,,,,ワイエス,0
1728,6250001019141,新規,0,2021-09-28,2021-09-28,株式会社Ｍ‐ｓｉｄｅ,,株式会社,山口県,周南市,大字久米字旭ケ丘１０２０番４８,,35,215,7450801,,,,,,,2021-09-28,1,,,,,エムサイド,0
1736,6290001094750,新規,0,2021-09-28,2021-09-28,株式会社ＷＡＣテック,,株式会社,福岡県,福岡市東区,奈多団地２５番２０６号,,40,131,8110205,,,,,,,2021-09-28,1,,,,,ワックテック,0
1737,6290001094759,新規,0,2021-09-28,2021-09-28,株式会社田中土木,,株式会社,福岡県,糟屋郡新宮町,上府北１丁目２番１号,,40,345,8110123,,,,,,,2021-09-28,1,,,,,タナカドボク,0
1739,6290003011638,新規,0,2021-09-28,2021-09-28,合同会社エコファーム郡山,,合同会社,福岡県,福岡市博多区,東比恵２丁目２０番２５号,,40,132,8120007,,,,,,,2021-09-28,1,,,,,エコファームコオリヤマ,0
1742,6290005018367,新規,0,2021-09-28,2021-09-28,一般社団法人ワンライフプロジェクト,,その他の設立登記法人,福岡県,筑後市,大字西牟田３３５７番地１６,,40,211,8330053,,,,,,,2021-09-28,1,,,,,ワンライフプロジェクト,0
1743,6290005018375,新規,0,2021-09-28,2021-09-28,一般社団法人日本リカレント教育,,その他の設立登記法人,福岡県,福岡市中央区,大濠２丁目１３番３２－３０１号,,40,133,8100052,,,,,,,2021-09-28,1,,,,,ニホンリカレントキョウイク,0
1744,6290801027827,新規,0,2021-09-28,2021-09-28,株式会社ドラッグコクラ,,株式会社,福岡県,北九州市小倉北区,魚町４丁目２番２２号,,40,106,8020006,,,,,,,2021-09-28,1,,,,,ドラッグコクラ,0
1745,6290801027835,新規,0,2021-09-28,2021-09-28,株式会社ＵＮＩＴＹ,,株式会社,福岡県,田川市,大字糒２０１４－３,,40,206,8250005,,,,,,,2021-09-28,1,,,,,ユニティー,0
1751,6310003004168,新規,0,2021-09-28,2021-09-28,合同会社ＨＵＫＵ,,合同会社,長崎県,島原市,上新丁１丁目４１５８番地１,,42,203,8550067,,,,,,,2021-09-28,1,,,,,フク,0
1754,6330001029009,新規,0,2021-09-28,2021-09-28,２４サービス株式会社,,株式会社,熊本県,熊本市東区,戸島７丁目８番７号,,43,102,8618041,,,,,,,2021-09-28,1,,,,,ツーフォーサービス,0
1775,6430001085033,新規,0,2021-09-28,2021-09-28,株式会社きたかぜ,,株式会社,北海道,札幌市中央区,大通西１丁目１４番地２桂和大通ビル５０　９Ｆ,,01,101,0600042,,,,,,,2021-09-28,1,,,,,キタカゼ,0
1782,6430005014293,新規,0,2021-09-28,2021-09-28,一般社団法人Ｖｅｈｉｃｌｅ　ｆｏｒ　Ｎｕｒｓｅｓ,,その他の設立登記法人,北海道,岩見沢市,緑が丘４丁目２２１番地８７,,01,210,0680835,,,,,,,2021-09-28,1,,,,,,0
1783,6440001008950,新規,0,2021-09-28,2021-09-28,株式会社Ｈｅａｌｉｎｇ　ｏａｓｉｓ　ｃｒｅｗ,,株式会社,北海道,函館市,石川町１３４番地３９,,01,202,0410802,,,,,,,2021-09-28,1,,,,,ヒーリングオアシスクルー,0
1784,6450001013487,新規,0,2021-09-28,2021-09-28,株式会社Ｈａｌｅ,,株式会社,北海道,旭川市,豊岡十二条６丁目１番１７号Ａ１０１,,01,204,0788242,,,,,,,2021-09-28,1,,,,,ハレ,0
1802,7010001221364,新規,0,2021-09-28,2021-09-28,株式会社ＥＭＲＯ,,株式会社,東京都,中央区,銀座６丁目１３番１６号銀座ＷａｌｌビルＵＣＦ５階,,13,102,1040061,,,,,,,2021-09-28,1,,,,,エモロ,0
1806,7010003035886,新規,0,2021-09-28,2021-09-28,ＶＳＴ合同会社,,合同会社,東京都,中央区,銀座１丁目２２番１１号銀座大竹ビジデンス２階,,13,102,1040061,,,,,,,2021-09-28,1,,,,,ヴィエスティ,0
1809,7010101014874,新規,0,2021-09-28,2021-09-28,株式会社三緑堂,,株式会社,東京都,八王子市,台町４丁目３８番３号,,13,201,1930931,,,,,,,2021-09-28,1,,,,,,0
1813,7010401162852,新規,0,2021-09-28,2021-09-28,ＲｅＡｃｅＢｅａｕｔｙ株式会社,,株式会社,東京都,港区,南麻布２丁目９番６号南麻布２９６－１０１,,13,103,1060047,,,,,,,2021-09-28,1,,,,,リエースビューティー,0
1814,7010401162860,新規,0,2021-09-28,2021-09-28,株式会社活性研,,株式会社,東京都,港区,南青山２丁目２番１５号,,13,103,1070062,,,,,,,2021-09-28,1,,,,,カッセイケン,0
1815,7010401162877,新規,0,2021-09-28,2021-09-28,株式会社音鼓組,,株式会社,東京都,港区,赤坂３丁目１６番５－４０５号,,13,103,1070052,,,,,,,2021-09-28,1,,,,,オトコグミ,0
1816,7010401162902,新規,0,2021-09-28,2021-09-28,株式会社４４Ｅｓｔａｔｅ,,株式会社,東京都,港区,南青山２丁目４番１５号,,13,103,1070062,,,,,,,2021-09-28,1,,,,,ヨンヨンエステート,0
1819,7010405020230,新規,0,2021-09-28,2021-09-28,埼玉伊奈一般社団法人,,その他の設立登記法人,東京都,港区,元赤坂１丁目１番８号株式会社赤坂国際会計内,,13,103,1070051,,,,,,,2021-09-28,1,,,,,サイタマイナ,0
1825,7010601059980,新規,0,2021-09-28,2021-09-28,株式会社ＳＴＡＹ　ＧＯＬＤ,,株式会社,東京都,江東区,北砂６丁目１９番７号,,13,108,1360073,,,,,,,2021-09-28,1,,,,,ステイゴールド,0
1826,7010601059989,新規,0,2021-09-28,2021-09-28,株式会社ＶＥＳＮｉＣ,,株式会社,東京都,墨田区,石原４丁目３０－１０,,13,107,1300011,,,,,,,2021-09-28,1,,,,,ヴェスニック,0
1828,7010603009174,新規,0,2021-09-28,2021-09-28,クリーンスミダ合同会社,,合同会社,東京都,墨田区,向島３丁目１０－１０,,13,107,1310033,,,,,,,2021-09-28,1,,,,,クリーンスミダ,0
1838,7011001142988,新規,0,2021-09-28,2021-09-28,ミューサイトテクノロジー株式会社,,株式会社,東京都,目黒区,東山１丁目２番７号,,13,110,1530043,,,,,,,2021-09-28,1,,,,,ミューサイトテクノロジー,0
1839,7011001143045,新規,0,2021-09-28,2021-09-28,株式会社ＫＩＥＦＥＲ,,株式会社,東京都,渋谷区,神宮前４丁目１８番４号ペアシティ表参道３０１,,13,113,1500001,,,,,,,2021-09-28,1,,,,,キーファー,0
1840,7011001143053,新規,0,2021-09-28,2021-09-28,ｓｕｅｒｔｅ株式会社,,株式会社,東京都,渋谷区,神宮前２丁目３番１０号ＨｉｌｌＴｏｐ神宮前４Ｆ,,13,113,1500001,,,,,,,2021-09-28,1,,,,,スエルテ,0
1841,7011003013436,新規,0,2021-09-28,2021-09-28,合同会社ＫＲＭ,,合同会社,東京都,渋谷区,代々木５丁目５９番７－５０２号,,13,113,1510053,,,,,,,2021-09-28,1,,,,,ケーアールエム,0
1843,7011101096390,新規,0,2021-09-28,2021-09-28,株式会社食いしん坊製菓,,株式会社,東京都,新宿区,西新宿５丁目５番１－４１０５号,,13,104,1600023,,,,,,,2021-09-28,1,,,,,クイシンボウセイカ,0
1846,7011301027195,新規,0,2021-09-28,2021-09-28,株式会社エムロード,,株式会社,東京都,杉並区,高円寺南５丁目２６－１８－２０２,,13,115,1660003,,,,,,,2021-09-28,1,,,,,エムロード,0
1857,7012401038330,新規,0,2021-09-28,2021-09-28,株式会社ｎｏｂｏｄｙ,,株式会社,東京都,武蔵野市,吉祥寺本町１丁目５－１吉祥寺ＰＡＲＣＯ８ＦＳｋｉｉＭａ,,13,203,1800004,,,,,,,2021-09-28,1,,,,,ノーバディ,0
1860,7012803002603,新規,0,2021-09-28,2021-09-28,合同会社侑,,合同会社,東京都,東大和市,桜が丘１丁目１４４９番地の９－６１３号,,13,220,2070022,,,,,,,2021-09-28,1,,,,,ユウ,0
1861,7013103001072,新規,0,2021-09-28,2021-09-28,合同会社Ｌｅｅｄｓ,,合同会社,東京都,西多摩郡日の出町,大字大久野１６５７,,13,305,1900181,,,,,,,2021-09-28,1,,,,,リーズ,0
1873,7020001143161,新規,0,2021-09-28,2021-09-28,株式会社ＧＯＮ匠,,株式会社,神奈川県,川崎市川崎区,砂子２丁目８番地５仲見世共同ビル４０６,,14,131,2100006,,,,,,,2021-09-28,1,,,,,ジーオーエヌタクミ,0
1874,7020001143178,新規,0,2021-09-28,2021-09-28,ｍａｒｙｓｏｎｙ株式会社,,株式会社,神奈川県,横浜市青葉区,たちばな台１丁目１５番地８,,14,117,2270046,,,,,,,2021-09-28,1,,,,,マリソニー,0
1875,7020001143194,新規,0,2021-09-28,2021-09-28,株式会社ＺＥＲＯ,,株式会社,神奈川県,横浜市神奈川区,沢渡５３番地５－２０１,,14,102,2210844,,,,,,,2021-09-28,1,,,,,ゼロ,0
1883,7020003020540,新規,0,2021-09-28,2021-09-28,合同会社トーカイコム,,合同会社,神奈川県,横浜市神奈川区,浦島町３６３番地４,,14,102,2210042,,,,,,,2021-09-28,1,,,,,トーカイコム,0
1887,7021001074033,新規,0,2021-09-28,2021-09-28,株式会社誠ラボ,,株式会社,神奈川県,横須賀市,佐原１丁目９番１８号,,14,201,2390835,,,,,,,2021-09-28,1,,,,,,0
1888,7021001074041,新規,0,2021-09-28,2021-09-28,株式会社ニュー・ポート,,株式会社,神奈川県,三浦市,三崎３丁目６番１５号,,14,210,2380243,,,,,,,2021-09-28,1,,,,,ニューポート,0
1910,7030003018006,新規,0,2021-09-28,2021-09-28,合同会社シンファス,,合同会社,埼玉県,川口市,芝樋ノ爪１丁目７－２２ファーストブランチ２０３,,11,203,3330852,,,,,,,2021-09-28,1,,,,,シンファス,0
1915,7040001120299,新規,0,2021-09-28,2021-09-28,株式会社ＩＮＡＤＡ,,株式会社,千葉県,千葉市中央区,院内２丁目１４番６号金親ビル２０２号,,12,101,2600018,,,,,,,2021-09-28,1,,,,,イナダ,0
1916,7040001120308,新規,0,2021-09-28,2021-09-28,ミライノアール株式会社,,株式会社,千葉県,野田市,関宿台町１６５９番地２６,,12,208,2700202,,,,,,,2021-09-28,1,,,,,ミライノアール,0
1917,7040001120324,新規,0,2021-09-28,2021-09-28,日本鑫銀博株式会社,00124343,株式会社,千葉県,流山市,江戸川台東４丁目２９９－１－１０５,,12,220,2700111,,,,,,,2021-09-28,1,,,,,ニホンシンキンボウ,0
1919,7040003018599,新規,0,2021-09-28,2021-09-28,ＬＩＮＨ　ＳＡＮ合同会社,,合同会社,千葉県,船橋市,本中山３丁目１７番２号横山ビル１０１号室,,12,204,2730035,,,,,,,2021-09-28,1,,,,,リンサン,0
1920,7040003018608,新規,0,2021-09-28,2021-09-28,ユールコンサルティング合同会社,,合同会社,千葉県,浦安市,北栄２丁目１７－３０パルメゾンソーマ４０３,,12,227,2790002,,,,,,,2021-09-28,1,,,,,ユールコンサルティング,0
1921,7040003018616,新規,0,2021-09-28,2021-09-28,ＯＫ　Ｙｏｓｈｉ　ＬＬＣ合同会社,,合同会社,千葉県,鎌ケ谷市,南初富１丁目２２番２号,,12,224,2730123,,,,,,,2021-09-28,1,,,,,オーケーヨシエルエルシー,0
1923,7050001049876,新規,0,2021-09-28,2021-09-28,株式会社Ｔｅｍｐｏｒａｒｙ,,株式会社,茨城県,水戸市,緑町３丁目５番５７号グリーンハイツＣ棟２号,,08,201,3100034,,,,,,,2021-09-28,1,,,,,テンポラリー,0
1924,7050003006099,新規,0,2021-09-28,2021-09-28,合同会社ＡｄＬｕｃ,,合同会社,茨城県,稲敷郡美浦村,大字土屋１９７６番地２２６,,08,442,3000426,,,,,,,2021-09-28,1,,,,,アドラク,0
1926,7070001038464,新規,0,2021-09-28,2021-09-28,ジャスティス株式会社,,株式会社,群馬県,高崎市,下豊岡町６２番地４,,10,202,3700873,,,,,,,2021-09-28,1,,,,,ジャスティス,0
1933,7100001034633,新規,0,2021-09-28,2021-09-28,株式会社岩屋館,,株式会社,長野県,上田市,真田町長２８７０番地,,20,203,3862201,,,,,,,2021-09-28,1,,,,,イワヤカン,0
1937,7110001036059,新規,0,2021-09-28,2021-09-28,株式会社アマールトレードグループ,,株式会社,新潟県,上越市,大字上名柄７３１番地１,,15,222,9420252,,,,,,,2021-09-28,1,,,,,アマールトレードグループ,0
1960,7120001240469,新規,0,2021-09-28,2021-09-28,富務装矢株式会社,,株式会社,大阪府,大阪市中央区,北久宝寺町１丁目５番６－３１６号,,27,128,5410057,,,,,,,2021-09-28,1,,,,,トムソウヤ,0
1961,7120001240568,新規,0,2021-09-28,2021-09-28,株式会社ＫＯＫＯ,,株式会社,大阪府,大阪市東淀川区,相川３丁目９番１６－４０１号,,27,114,5330007,,,,,,,2021-09-28,1,,,,,ココ,0
1962,7120001240584,新規,0,2021-09-28,2021-09-28,株式会社ＭＡＫＡＮＡ　ｈｏｌｉｓｔｉｃ,,株式会社,大阪府,大阪市中央区,本町４丁目８番１号ＳＤ本町ビル７０２号,,27,128,5410053,,,,,,,2021-09-28,1,,,,,マカナホリスティック,0
1963,7120001240642,新規,0,2021-09-28,2021-09-28,株式会社ＢＯＳＳ,,株式会社,大阪府,大阪市北区,万歳町３番１２－５０１号,,27,127,5300028,,,,,,,2021-09-28,1,,,,,ボス,0
1964,7120001240675,新規,0,2021-09-28,2021-09-28,株式会社フロムディ,,株式会社,大阪府,大阪市西区,西本町１丁目１２－１,,27,106,5500005,,,,,,,2021-09-28,1,,,,,フロムディ,0
1965,7120003020290,新規,0,2021-09-28,2021-09-28,合同会社Ａｋａｎｂｏｕ,,合同会社,大阪府,大阪市西区,立売堀４丁目６番１２－７０５号,,27,106,5500012,,,,,,,2021-09-28,1,,,,,アカンボウ,0
1966,7120003020316,新規,0,2021-09-28,2021-09-28,合同会社Ｃｈａｎｇｅ　Ｔｈｅ　Ｒｕｌｅ,,合同会社,大阪府,大阪市北区,梅田２丁目６－２０パシフィックマークス西梅田４階,,27,127,5300001,,,,,,,2021-09-28,1,,,,,チェンジザルール,0
1967,7120005022517,新規,0,2021-09-28,2021-09-28,税理士法人ＭＪパートナーズ,,その他の設立登記法人,大阪府,大阪市北区,西天満６丁目７－４大阪弁護士ビル５１０号室,,27,127,5300047,,,,,,,2021-09-28,1,,,,,エムジェイパートナーズ,0
1971,7120101064347,新規,0,2021-09-28,2021-09-28,株式会社ｐｏｔａｔｏｄｒｉｖｅ,,株式会社,大阪府,堺市西区,上野芝向ヶ丘町３丁３番５０号,,27,144,5938303,,,,,,,2021-09-28,1,,,,,ポテトドライブ,0
1972,7120901044944,新規,0,2021-09-28,2021-09-28,エンジェル投資株式会社,,株式会社,大阪府,豊中市,本町３丁目６番２７号,,27,203,5600021,,,,,,,2021-09-28,1,,,,,エンジェルトウシ,0
1983,7130001070171,新規,0,2021-09-28,2021-09-28,株式会社都,,株式会社,京都府,城陽市,久世里ノ西１７６番地の１８,,26,207,6100102,,,,,,,2021-09-28,1,,,,,ミヤコ,0
1986,7130005016278,新規,0,2021-09-28,2021-09-28,医療法人土井医院,,その他の設立登記法人,京都府,長岡京市,長岡１丁目３－１７,,26,209,6170823,,,,,,,2021-09-28,1,,,,,ドイイイン,0
1992,7140003016766,新規,0,2021-09-28,2021-09-28,合同会社なごみ,,合同会社,兵庫県,尼崎市,南武庫之荘６丁目１５番８号,,28,202,6610033,,,,,,,2021-09-28,1,,,,,ナゴミ,0
1993,7140003016774,新規,0,2021-09-28,2021-09-28,合同会社プルーン,,合同会社,兵庫県,姫路市,豊富町神谷２２２５番地,,28,201,6792121,,,,,,,2021-09-28,1,,,,,プルーン,0
1995,7150001024951,新規,0,2021-09-28,2021-09-28,株式会社ルポン,,株式会社,奈良県,生駒市,辻町７８番地３シティパレス東生駒Ａ－２０３号,00124346,29,209,6300212,,,,,,,2021-09-28,1,,,,,ルポン,0
2005,7180001147948,新規,0,2021-09-28,2021-09-28,株式会社クイックエステート,,株式会社,愛知県,稲沢市,北島３丁目１１９番地２,,23,220,4928410,,,,,,,2021-09-28,1,,,,,クイックエステート,0
2009,7180301035407,新規,0,2021-09-28,2021-09-28,ＤＵＹ　ＰＨＵＯＮＧ株式会社,,株式会社,愛知県,安城市,住吉町３丁目１番地１６,,23,212,4460072,,,,,,,2021-09-28,1,,,,,ズイフォン,0
2013,7190001028701,新規,0,2021-09-28,2021-09-28,株式会社アンジェリー,,株式会社,三重県,津市,西古河町１６番１４号,,24,201,5140038,,,,,,,2021-09-28,1,,,,,アンジェリー,0
2014,7200001039184,新規,0,2021-09-28,2021-09-28,株式会社ＬＩＮＫＳ,,株式会社,岐阜県,各務原市,川島小網町２１４４番地５６,,21,213,5016023,,,,,,,2021-09-28,1,,,,,リンクス,0
2022,7240001058651,新規,0,2021-09-28,2021-09-28,株式会社Ｍｉｋｅｎｅｃｏ,,株式会社,広島県,広島市安佐南区,長束１丁目１５番１８－２０２号,,34,105,7310135,,,,,,,2021-09-28,1,,,,,ミケネコ,0
2030,7290001094758,新規,0,2021-09-28,2021-09-28,株式会社ｆｌａｇ　ｓｈｉｐ,,株式会社,福岡県,福岡市博多区,上川端町１－３－３Ｆ,,40,132,8120026,,,,,,,2021-09-28,1,,,,,フラッグシップ,0
2032,7290003011637,新規,0,2021-09-28,2021-09-28,合同会社エコファーム岩木,,合同会社,福岡県,福岡市博多区,東比恵２丁目２０番２５号,,40,132,8120007,,,,,,,2021-09-28,1,,,,,エコファームイワキ,0
2033,7290005018374,新規,0,2021-09-28,2021-09-28,一般社団法人こども水力発電所,,その他の設立登記法人,福岡県,福岡市西区,今宿１丁目２０番１６号,,40,135,8190167,,,,,,,2021-09-28,1,,,,,コドモスイリョクハツデンショ,0
2037,7310003004167,新規,0,2021-09-28,2021-09-28,合同会社あんじゅ,,合同会社,長崎県,大村市,坂口町３４６番地２,,42,205,8560028,,,,,,,2021-09-28,1,,,,,,0
2044,7340001024107,新規,0,2021-09-28,2021-09-28,株式会社ＬＵＯＤＡ,,株式会社,鹿児島県,曽於市,大隅町坂元３１７２番地乙,,46,217,8998422,,,,,,,2021-09-28,1,,,,,ルオーダ,0
2047,7340003003562,新規,0,2021-09-28,2021-09-28,合同会社ＰＯＳＴ,,合同会社,鹿児島県,鹿屋市,寿７丁目５番３号,,46,203,8930014,,,,,,,2021-09-28,1,,,,,ポスト,0
2059,7410001012970,新規,0,2021-09-28,2021-09-28,株式会社ＦＴＩ,,株式会社,秋田県,大館市,花岡町字二井山１４１番地,,05,204,0170005,,,,,,,2021-09-28,1,,,,,エフティーアイ,0
2061,7430001085032,新規,0,2021-09-28,2021-09-28,株式会社ラベンダー,,株式会社,北海道,札幌市手稲区,前田八条１１丁目１番１５号,,01,109,0060818,,,,,,,2021-09-28,1,,,,,ラベンダー,0
2063,7430003013172,新規,0,2021-09-28,2021-09-28,合同会社ＰＤＧ,,合同会社,北海道,札幌市西区,琴似一条２丁目６番１５号琴似矢車ビル２階,,01,107,0630811,,,,,,,2021-09-28,1,,,,,ピーディージー,0
2071,7700150104903,新規,0,2021-09-28,2021-09-28,日本女性法律家協会,,その他,東京都,港区,虎ノ門３丁目１８－１２ステュディオ虎ノ門８１１,,13,103,1050001,,,,,,,2021-09-28,1,,,,,ニホンジョセイホウリツカキョウカイ,0
2085,8010005034002,新規,0,2021-09-28,2021-09-28,一般社団法人都市環境改善センター,,その他の設立登記法人,東京都,中央区,日本橋本町１丁目８番１１号,,13,102,1030023,,,,,,,2021-09-28,1,,,,,トシカンキョウカイゼンセンター,0
2095,8010401162843,新規,0,2021-09-28,2021-09-28,株式会社オフィスＭＴ,,株式会社,東京都,港区,六本木４丁目１－２７三河台ハウス３Ｆ,,13,103,1060032,,,,,,,2021-09-28,1,,,,,オフィスエムティー,0
2096,8010401162868,新規,0,2021-09-28,2021-09-28,株式会社アグハズ,,株式会社,東京都,港区,三田１丁目１番１２－３０１号,,13,103,1080073,,,,,,,2021-09-28,1,,,,,アグハズ,0
2097,8010401162876,新規,0,2021-09-28,2021-09-28,株式会社ＳＩＳＯＮ’Ｓ,,株式会社,東京都,港区,南青山５丁目１５番９号フラット青山５０２,,13,103,1070062,,,,,,,2021-09-28,1,,,,,シソンズ,0
2099,8010405020254,新規,0,2021-09-28,2021-09-28,南青山プロパティー特定目的会社,,その他の設立登記法人,東京都,港区,六本木１丁目６番１号泉ガーデンタワー,,13,103,1060032,,,,,,,2021-09-28,1,,,,,ミナミアオヤマプロパティー,0
2101,8010601059988,新規,0,2021-09-28,2021-09-28,株式会社マルカ運輸,,株式会社,東京都,墨田区,緑３丁目１１番７号,,13,107,1300021,,,,,,,2021-09-28,1,,,,,マルカウンユ,0
2103,8010603009173,新規,0,2021-09-28,2021-09-28,超人パワーズ合同会社,,合同会社,東京都,江東区,亀戸５丁目１０番１号ロイヤル２０１,,13,108,1360071,,,,,,,2021-09-28,1,,,,,チョウジンパワーズ,0
2111,8010901049499,新規,0,2021-09-28,2021-09-28,株式会社Ｌｏｎｇ　Ｔｅｒｍ　Ｉｎｖｅｓｔｍｅｎｔ,,株式会社,東京都,世田谷区,鎌田２丁目１２番１３号,,13,112,1570077,,,,,,,2021-09-28,1,,,,,ロングタームインベストメント,0
2114,8010903006829,新規,0,2021-09-28,2021-09-28,Ｃｏ．ｌｉｔｙ合同会社,,合同会社,東京都,世田谷区,下馬４丁目１３－１６,,13,112,1540002,,,,,,,2021-09-28,1,,,,,コリティー,0
2120,8011001142954,新規,0,2021-09-28,2021-09-28,株式会社クライネム,,株式会社,東京都,目黒区,自由が丘１丁目１番１１号,,13,110,1520035,,,,,,,2021-09-28,1,,,,,クライネム,0
2125,8011003013427,新規,0,2021-09-28,2021-09-28,マキリ合同会社,,合同会社,東京都,渋谷区,松濤１丁目２８番２号,,13,113,1500046,,,,,,,2021-09-28,1,,,,,マキリ,0
2141,8012301012723,新規,0,2021-09-28,2021-09-28,株式会社モアチェン,,株式会社,東京都,町田市,野津田町１８５２番地３,,13,209,1950063,,,,,,,2021-09-28,1,,,,,モアチェン,0
2145,8012403005039,新規,0,2021-09-28,2021-09-28,ラフブリッジ合同会社,,合同会社,東京都,調布市,西つつじケ丘４丁目１９番地４３,,13,208,1820006,,,,,,,2021-09-28,1,,,,,ラフブリッジ,0
2148,8012803002610,新規,0,2021-09-28,2021-09-28,合同会社８０Ｈ,,合同会社,東京都,日野市,三沢３４０番地の２５,,13,212,1910032,,,,,,,2021-09-28,1,,,,,ハチマルエイチ,0
2156,8020001143111,新規,0,2021-09-28,2021-09-28,株式会社Ｌｉｆｅ　ｉｓ,,株式会社,神奈川県,横浜市戸塚区,戸塚町２８０４番地,,14,110,2440003,,,,,,,2021-09-28,1,,,,,ライフイズ,0
2157,8020001143169,新規,0,2021-09-28,2021-09-28,株式会社白鳥左官,,株式会社,神奈川県,横浜市磯子区,岡村７丁目１６番４号,,14,107,2350021,,,,,,,2021-09-28,1,,,,,シラトリサカン,0
2158,8020001143177,新規,0,2021-09-28,2021-09-28,ＮＧＯＣ　ＢＩＣＨ株式会社,,株式会社,神奈川県,横浜市中区,花咲町１丁目４番地,,14,104,2310063,,,,,,,2021-09-28,1,,,,,ゴックビック,0
2165,8020005015216,新規,0,2021-09-28,2021-09-28,ＮＰＯ法人生活を守る会,,その他の設立登記法人,神奈川県,横浜市緑区,長津田４丁目９番地６号ホドガヤマンション３０６号,,14,113,2260027,,,,,,,2021-09-28,1,,,,,セイカツヲマモルカイ,0
2169,8021001074024,新規,0,2021-09-28,2021-09-28,株式会社ＬｅＣｈａｉｍ,,株式会社,神奈川県,鎌倉市,台３丁目３番１９－６０５号,,14,204,2470061,,,,,,,2021-09-28,1,,,,,レハイム,0
2170,8021003010893,新規,0,2021-09-28,2021-09-28,オフィスＫ合同会社,,合同会社,神奈川県,藤沢市,鵠沼桜が岡２丁目１１－２１,,14,205,2510027,,,,,,,2021-09-28,1,,,,,オフィスケィ,0
2171,8021003010902,新規,0,2021-09-28,2021-09-28,合同会社グレイス,,合同会社,神奈川県,横須賀市,野比２丁目１５番５号２０１号,,14,201,2390841,,,,,,,2021-09-28,1,,,,,グレイス,0
2180,8030001144496,新規,0,2021-09-28,2021-09-28,株式会社ＭＡＲＱＵＩＳ,,株式会社,埼玉県,川口市,本町３丁目１番８号,,11,203,3320012,,,,,,,2021-09-28,1,,,,,マーキス,0
2181,8030001144505,新規,0,2021-09-28,2021-09-28,株式会社カネコグリーン,,株式会社,埼玉県,鴻巣市,下忍３９２９番地,,11,217,3690113,,,,,,,2021-09-28,1,,,,,カネコグリーン,0
2182,8030001144513,新規,0,2021-09-28,2021-09-28,株式会社おおわだ,,株式会社,埼玉県,川口市,芝下２丁目２３番２７号,,11,203,3330848,,,,,,,2021-09-28,1,,,,,オオワダ,0
2194,8040001120298,新規,0,2021-09-28,2021-09-28,株式会社Ｍ＆Ａ,,株式会社,千葉県,浦安市,北栄２丁目１５番８－５０１号ヘッドアンドテールビル,,12,227,2790002,,,,,,,2021-09-28,1,,,,,エムアンドエー,0
2195,8040001120315,新規,0,2021-09-28,2021-09-28,株式会社集山,,株式会社,千葉県,木更津市,東太田４丁目２０番６１号,,12,206,2920043,,,,,,,2021-09-28,1,,,,,シュウサン,0
2196,8040001120323,新規,0,2021-09-28,2021-09-28,株式会社ハナモモ,,株式会社,千葉県,市川市,幸１丁目１０番２０－１０６号,,12,203,2720123,,,,,,,2021-09-28,1,,,,,ハナモモ,0
2199,8040003018598,新規,0,2021-09-28,2021-09-28,合同会社ＳＴ　ｃｏｎｎｅｃｔ,,合同会社,千葉県,我孫子市,我孫子２丁目５番１０４０号シティアＢ棟,,12,222,2701166,,,,,,,2021-09-28,1,,,,,エスティーコネクト,0
2202,8050001049875,新規,0,2021-09-28,2021-09-28,株式会社ふくろう会計,,株式会社,茨城県,ひたちなか市,大字高場１４２７番地５,,08,221,3120062,,,,,,,2021-09-28,1,,,,,フクロウカイケイ,0
2203,8060001034117,新規,0,2021-09-28,2021-09-28,ＭＳＣヒューマンキャピタル株式会社,,株式会社,栃木県,宇都宮市,宮の内３丁目１８５番地,,09,201,3210131,,,,,,,2021-09-28,1,,,,,エムエスシーヒューマンキャピタル,0
2208,8070003004240,新規,0,2021-09-28,2021-09-28,合同会社ＨＡＲＵＹＡＭＡ　ＴＲＡＤＩＮＧ,,合同会社,群馬県,高崎市,吉井町吉井６３３番地１グリーンハイツ１０２号,,10,202,3702132,,,,,,,2021-09-28,1,,,,,ハルヤマトレーディング,0
2210,8080401025358,新規,0,2021-09-28,2021-09-28,リトロボ株式会社,,株式会社,静岡県,磐田市,今之浦２丁目５番地３,,22,211,4380071,,,,,,,2021-09-28,1,,,,,リトロボ,0
2212,8100001034632,新規,0,2021-09-28,2021-09-28,株式会社あいうえ不動産,,株式会社,長野県,小諸市,新町１丁目５番１１号,,20,208,3840034,,,,,,,2021-09-28,1,,,,,アイウエフドウサン,0
2213,8100003006241,新規,0,2021-09-28,2021-09-28,合同会社長雅建設,,合同会社,長野県,上伊那郡辰野町,大字小野７５９番地８,,20,382,3990601,,,,,,,2021-09-28,1,,,,,ナガマサケンセツ,0
2239,8120001240534,新規,0,2021-09-28,2021-09-28,株式会社Ｃｏｎｎｅｃｔ　Ｗｏｒｌｄ,,株式会社,大阪府,大阪市北区,中津３丁目２９番３５号オーブラン中津４０５,,27,127,5310071,,,,,,,2021-09-28,1,,,,,コネクトワールド,0
2240,8120001240600,新規,0,2021-09-28,2021-09-28,株式会社アヴニール・グラフィック,,株式会社,大阪府,大阪市淀川区,西中島５丁目８番３号,,27,123,5320011,,,,,,,2021-09-28,1,,,,,アヴニールグラフィック,0
2241,8120001240641,新規,0,2021-09-28,2021-09-28,株式会社Ｇｒｏｗ　ｗｅｌｌ,,株式会社,大阪府,大阪市福島区,福島７丁目８番６号,,27,103,5530003,,,,,,,2021-09-28,1,,,,,グロウウェル,0
2242,8120001240674,新規,0,2021-09-28,2021-09-28,株式会社メディエット,,株式会社,大阪府,大阪市北区,神山町９－５,,27,127,5300026,,,,,,,2021-09-28,1,,,,,メディエット,0
2243,8120003020307,新規,0,2021-09-28,2021-09-28,ＤＥＢＵＴ合同会社,,合同会社,大阪府,大阪市淀川区,西中島４丁目２番８号ＹＳ新大阪ビル３０３号,,27,123,5320011,,,,,,,2021-09-28,1,,,,,デビュー,0
2246,8120005022516,新規,0,2021-09-28,2021-09-28,あお社会保険労務士法人,,その他の設立登記法人,大阪府,大阪市中央区,船場中央３丁目１番７－４０５号,,27,128,5410055,,,,,,,2021-09-28,1,,,,,アオ,0
2248,8120901044935,新規,0,2021-09-28,2021-09-28,株式会社あみ,,株式会社,大阪府,吹田市,千里丘北１番２６－７０３号,,27,205,5650815,,,,,,,2021-09-28,1,,,,,アミ,0
2251,8130001070170,新規,0,2021-09-28,2021-09-28,株式会社庭七軒,,株式会社,京都府,城陽市,富野高井３３番地の２９,,26,207,6100111,,,,,,,2021-09-28,1,,,,,ニワシチケン,0
2252,8130005016277,新規,0,2021-09-28,2021-09-28,医療法人よもだ整形外科クリニック,,その他の設立登記法人,京都府,京都市下京区,七条御所ノ内本町８９番地１クリニックモール西大路２階,,26,106,6008863,,,,,,,2021-09-28,1,,,,,ヨモダセイケイゲカクリニック,0
2260,8140001123126,新規,0,2021-09-28,2021-09-28,Ｃｏｒｒｅｃｔ　Ｌａｂｅｌ株式会社,,株式会社,兵庫県,神戸市須磨区,横尾２丁目２６番８号,,28,107,6540131,,,,,,,2021-09-28,1,,,,,コレクトレーベル,0
2261,8140001123142,新規,0,2021-09-28,2021-09-28,株式会社Ｉｎｕ,,株式会社,兵庫県,神戸市中央区,磯上通８丁目１番２９号カサベラビルＣ＆Ｍ４０３号室,,28,110,6510086,,,,,,,2021-09-28,1,,,,,イヌ,0
2263,8150003002500,新規,0,2021-09-28,2021-09-28,ＳＴＡＣ合同会社,,合同会社,奈良県,奈良市,学園大和町１丁目１４４２番地の２２,,29,201,6310041,,,,,,,2021-09-28,1,,,,,スタック,0
2264,8160001023646,新規,0,2021-09-28,2021-09-28,株式会社ファミリータイズ,,株式会社,滋賀県,草津市,追分５丁目８番２５号,,25,206,5250047,,,,,,,2021-09-28,1,,,,,ファミリータイズ,0
2273,8180001147947,新規,0,2021-09-28,2021-09-28,株式会社エスクルー,,株式会社,愛知県,名古屋市北区,東味鋺１丁目５０２番地の４,,23,103,4620013,,,,,,,2021-09-28,1,,,,,エスクルー,0
2281,8180301035380,新規,0,2021-09-28,2021-09-28,株式会社マーメイド,,株式会社,愛知県,豊橋市,明海町３番地５３,,23,201,4418074,,,,,,,2021-09-28,1,,,,,マーメイド,0
2297,8230001019001,新規,0,2021-09-28,2021-09-28,株式会社ＭＡＲＣＯ,,株式会社,富山県,射水市,西高木７９５,,16,211,9390303,,,,,,,2021-09-28,1,,,,,マルコ,0
2311,8260001035986,新規,0,2021-09-28,2021-09-28,株式会社曽田工業,,株式会社,岡山県,浅口市,金光町地頭下１８番地１,,33,216,7190106,,,,,,,2021-09-28,1,,,,,ソダコウギョウ,0
2320,8290003011652,新規,0,2021-09-28,2021-09-28,ロガータ合同会社,,合同会社,福岡県,福岡市中央区,荒戸３丁目５番５１－６０４号,,40,133,8100062,,,,,,,2021-09-28,1,,,,,ロガータ,0
2321,8290005018373,新規,0,2021-09-28,2021-09-28,ＮＰＯ法人シルバー人材ライフサポートセンター,,その他の設立登記法人,福岡県,福岡市南区,横手２丁目３２番３－２０２号,,40,134,8111311,,,,,,,2021-09-28,1,,,,,シルバージンザイライフサポートセンター,0
2329,8320001018613,新規,0,2021-09-28,2021-09-28,株式会社ＰＡＬ,,株式会社,大分県,別府市,大字鶴見４５１４番地５８,,44,202,8740840,,,,,,,2021-09-28,1,,,,,パル,0
2340,8380001032220,新規,0,2021-09-28,2021-09-28,株式会社クレイン,,株式会社,福島県,岩瀬郡鏡石町,本町１番地１,,07,342,9690401,,,,,,,2021-09-28,1,,,,,クレイン,0
2346,8430001085023,新規,0,2021-09-28,2021-09-28,株式会社ｋａｚｕｋｉ,,株式会社,北海道,札幌市西区,発寒十二条４丁目２番１号光ビル１階,,01,107,0630832,,,,,,,2021-09-28,1,,,,,カズキ,0
2347,8430001085031,新規,0,2021-09-28,2021-09-28,株式会社ＬＩＦＥ,,株式会社,北海道,札幌市中央区,南六条西６丁目７番３号ＬＣ８番館３階,,01,101,0640806,,,,,,,2021-09-28,1,,,,,ライフ,0
2351,8480003001733,新規,0,2021-09-28,2021-09-28,合同会社くばる,,合同会社,徳島県,徳島市,西二軒屋町２丁目２５番地,,36,201,7708061,,,,,,,2021-09-28,1,,,,,クバル,0
2357,8700150104357,新規,0,2021-09-28,2021-08-13,新百合ヶ丘エリアマネジメントコンソーシアム,,その他,神奈川県,川崎市麻生区,万福寺１丁目１－１－６Ｆ,,14,137,2150004,,,,,,,2021-08-13,1,,,,,シンユリガオカエリアマネジメントコンソーシアム,0
2363,9010001221354,新規,0,2021-09-28,2021-09-28,ウィズワンホールディングス株式会社,,株式会社,東京都,中央区,築地３丁目１７番９号,,13,102,1040045,,,,,,,2021-09-28,1,,,,,ウィズワンホールディングス,0
2364,9010001221387,新規,0,2021-09-28,2021-09-28,Ｆｅｍｍｅ　Ｆａｔａｌｅ　Ｊａｐｏｎ株式会社,,株式会社,東京都,中央区,銀座５丁目１０番１０号,,13,102,1040061,,,,,,,2021-09-28,1,,,,,ファムファタールジャポン,0
2378,9010401162859,新規,0,2021-09-28,2021-09-28,株式会社トラスト,,株式会社,東京都,港区,麻布十番２丁目４番５号イラーレ麻布十番８階,,13,103,1060045,,,,,,,2021-09-28,1,,,,,トラスト,0
2379,9010401162891,新規,0,2021-09-28,2021-09-28,株式会社ゲート・ワン,,株式会社,東京都,港区,芝浦３丁目１番２１号,,13,103,1080023,,,,,,,2021-09-28,1,,,,,ゲートワン,0
2380,9010401162900,新規,0,2021-09-28,2021-09-28,株式会社ＫＦｉｎａｎｃｅ,,株式会社,東京都,港区,台場１丁目３－４－３２０５,,13,103,1350091,,,,,,,2021-09-28,1,,,,,ケイファイナンス,0
2385,9010403026186,新規,0,2021-09-28,2021-09-28,合同会社シティライツ,,合同会社,東京都,港区,白金５丁目１０番６号,,13,103,1080072,,,,,,,2021-09-28,1,,,,,シティライツ,0
2386,9010405020229,新規,0,2021-09-28,2021-09-28,特定非営利活動法人ＡＶＰＮ　Ｊａｐａｎ,,その他の設立登記法人,東京都,港区,浜松町２丁目２番１５号浜松町ダイヤビル２Ｆ,,13,103,1050013,,,,,,,2021-09-28,1,,,,,エーブイピーエヌジャパン,0
2387,9010405020253,新規,0,2021-09-28,2021-09-28,南青山プロパティー一般社団法人,,その他の設立登記法人,東京都,港区,六本木１丁目６番１号泉ガーデンタワー,,13,103,1060032,,,,,,,2021-09-28,1,,,,,ミナミアオヤマプロパティー,0
2394,9010601059938,新規,0,2021-09-28,2021-09-28,新宿屋貿易株式会社,,株式会社,東京都,江東区,木場５丁目１番５号メイプルハイム木場Ｂ－１１３号室,,13,108,1350042,,,,,,,2021-09-28,1,,,,,シンジュクヤボウエキ,0
2395,9010603009172,新規,0,2021-09-28,2021-09-28,合同会社生田,,合同会社,東京都,墨田区,八広１丁目２５番１３－７０２号,,13,107,1310041,,,,,,,2021-09-28,1,,,,,イクタ,0
2398,9010801032348,新規,0,2021-09-28,2021-09-28,株式会社ライブリネス,,株式会社,東京都,大田区,大森北２丁目１３番３１号,,13,111,1430016,,,,,,,2021-09-28,1,,,,,ライブリネス,0
2401,9010901049498,新規,0,2021-09-28,2021-09-28,ＳＤｉｏ株式会社,,株式会社,東京都,世田谷区,等々力７丁目５番３－１２０４号,,13,112,1580082,,,,,,,2021-09-28,1,,,,,エスディーアイオー,0
2407,9011001142945,新規,0,2021-09-28,2021-09-28,株式会社ＲＬＣ’ｓ,,株式会社,東京都,目黒区,八雲２丁目２３番１０号,,13,110,1520023,,,,,,,2021-09-28,1,,,,,アールエルシーエス,0
2408,9011001142953,新規,0,2021-09-28,2021-09-28,株式会社ネクストパートナー,,株式会社,東京都,渋谷区,宇田川町４１番２７号明邦ビル,,13,113,1500042,,,,,,,2021-09-28,1,,,,,ネクストパートナー,0
2409,9011001142961,新規,0,2021-09-28,2021-09-28,ＢＯＮＤＳ株式会社,,株式会社,東京都,渋谷区,鉢山町１３番１２号,,13,113,1500035,,,,,,,2021-09-28,1,,,,,ボンズ,0
2410,9011001143043,新規,0,2021-09-28,2021-09-28,株式会社ａｚｏｏｏｍ,,株式会社,東京都,渋谷区,神宮前６丁目１９番１５号高野第一ビル,,13,113,1500001,,,,,,,2021-09-28,1,,,,,アズーム,0
2422,9011401023695,新規,0,2021-09-28,2021-09-28,株式会社ラヴェニール,,株式会社,東京都,板橋区,大原町１３番１２－１４０６号,,13,119,1740061,,,,,,,2021-09-28,1,,,,,ラヴェニール,0
2423,9011501027332,新規,0,2021-09-28,2021-09-28,株式会社スマートディベロップメント,,株式会社,東京都,荒川区,西日暮里６丁目５３番３－２０３号,,13,118,1160013,,,,,,,2021-09-28,1,,,,,スマートディベロップメント,0
2424,9011503004908,新規,0,2021-09-28,2021-09-28,合同会社ＣＶＳＨ,,合同会社,東京都,北区,赤羽２丁目６５番１０－４０７号,,13,117,1150045,,,,,,,2021-09-28,1,,,,,シーブイエスエイチ,0
2425,9011505002422,新規,0,2021-09-28,2021-09-28,特定非営利活動法人ワールドワイドスポーツ交流連盟,,その他の設立登記法人,東京都,荒川区,東日暮里５丁目１３番５－１２０３号,,13,118,1160014,,,,,,,2021-09-28,1,,,,,ワールドワイドスポーツコウリュウレンメイ,0
2426,9011603003396,新規,0,2021-09-28,2021-09-28,合同会社ｌｉｂｅｒｔｅ,,合同会社,東京都,練馬区,石神井台３丁目３１－５リコミー４０２,,13,120,1770045,,,,,,,2021-09-28,1,,,,,リベルト,0
2430,9011701024732,新規,0,2021-09-28,2021-09-28,明月株式会社,,株式会社,東京都,江戸川区,春江町５丁目５番１３号,,13,123,1340003,,,,,,,2021-09-28,1,,,,,メイゲツ,0
2439,9012403005038,新規,0,2021-09-28,2021-09-28,合同会社エステティカ,,合同会社,東京都,府中市,緑町２丁目３３番地の２,,13,206,1830006,,,,,,,2021-09-28,1,,,,,エステティカ,0
2446,9013301048054,新規,0,2021-09-28,2021-09-28,株式会社喝采,,株式会社,東京都,豊島区,東池袋１丁目４５番２号長谷ビル２階,,13,116,1700013,,,,,,,2021-09-28,1,,,,,カッサイ,0
2470,9021003010901,新規,0,2021-09-28,2021-09-28,合同会社みらい,,合同会社,神奈川県,三浦市,岬陽町２１－２６メルベーユルーチェ３０１,,14,210,2380222,,,,,,,2021-09-28,1,,,,,ミライ,0
2484,9030001144487,新規,0,2021-09-28,2021-09-28,株式会社大埼,,株式会社,埼玉県,さいたま市南区,辻５丁目９番２３号,,11,108,3360026,,,,,,,2021-09-28,1,,,,,オオサイ,0
2485,9030001144504,新規,0,2021-09-28,2021-09-28,株式会社みらいデザイン,,株式会社,埼玉県,さいたま市緑区,東浦和６丁目２２番地１７,,11,109,3360926,,,,,,,2021-09-28,1,,,,,ミライデザイン,0
2486,9030001144512,新規,0,2021-09-28,2021-09-28,Ｍａｒｓ国際株式会社,,株式会社,埼玉県,さいたま市大宮区,三橋４丁目２３番１号大宮西パークホームズ２０６号,,11,103,3300856,,,,,,,2021-09-28,1,,,,,マルスコクサイ,0
2487,9030001144520,新規,0,2021-09-28,2021-09-28,株式会社スクエアーズ,,株式会社,埼玉県,川口市,領家２丁目２番１３号,,11,203,3320004,,,,,,,2021-09-28,1,,,,,スクエアーズ,0
2488,9030001144529,新規,0,2021-09-28,2021-09-28,ＨＡＮＡＢＵＳＡ工業株式会社,,株式会社,埼玉県,坂戸市,にっさい花みず木２丁目１－１０５,,11,239,3500269,,,,,,,2021-09-28,1,,,,,ハナブサコウギョウ,0
2492,9030003017996,新規,0,2021-09-28,2021-09-28,合同会社ｒａｄｉｃａｌ,,合同会社,埼玉県,児玉郡神川町,大字渡瀬８９５－９,,11,383,3670301,,,,,,,2021-09-28,1,,,,,ラジカル,0
2493,9030003018012,新規,0,2021-09-28,2021-09-28,ブルースカイメディカル合同会社,,合同会社,埼玉県,さいたま市緑区,美園４丁目１８番８号,,11,109,3360967,,,,,,,2021-09-28,1,,,,,ブルースカイメディカル,0
2499,9040001120248,新規,0,2021-09-28,2021-09-28,株式会社はやぶさ,,株式会社,千葉県,木更津市,金田東１丁目９番地１１ＳｅａＢｒｅｅｚｅＢ１,,12,206,2920009,,,,,,,2021-09-28,1,,,,,ハヤブサ,0
2500,9040001120297,新規,0,2021-09-28,2021-09-28,ＫＡＫＡ株式会社,,株式会社,千葉県,松戸市,稔台３丁目７－６マツダマンション１０１号,,12,207,2702231,,,,,,,2021-09-28,1,,,,,カカ,0
2501,9040001120314,新規,0,2021-09-28,2021-09-28,株式会社ラックス,,株式会社,千葉県,印西市,滝野７丁目１－７９,,12,231,2702329,,,,,,,2021-09-28,1,,,,,ラックス,0
2502,9040001120322,新規,0,2021-09-28,2021-09-28,株式会社ディーライフデザイン,,株式会社,千葉県,松戸市,上矢切２８８番地の１７,,12,207,2710094,,,,,,,2021-09-28,1,,,,,ディーライフデザイン,0
2503,9040001120330,新規,0,2021-09-28,2021-09-28,株式会社ＬＬＳパートナーズ,,株式会社,千葉県,市川市,北方１丁目１４番２号,,12,203,2720815,,,,,,,2021-09-28,1,,,,,エルエルエスパートナーズ,0
2506,9040003018597,新規,0,2021-09-28,2021-09-28,合同会社２０２２,,合同会社,千葉県,浦安市,海楽１丁目２７番２８号,,12,227,2790003,,,,,,,2021-09-28,1,,,,,ニセンニジュウニ,0
2515,9080103002423,新規,0,2021-09-28,2021-09-28,合同会社シー・ビー・ファクター,,合同会社,静岡県,伊東市,広野１丁目１番２８号スカイマンション１０１号,,22,208,4140038,,,,,,,2021-09-28,1,,,,,シービーファクター,0
2520,9100003006240,新規,0,2021-09-28,2021-09-28,合同会社助太刀,,合同会社,長野県,上伊那郡宮田村,６６２８番地３－２Ｆ,,20,388,3994301,,,,,,,2021-09-28,1,,,,,スケダチ,0
2537,9120001240599,新規,0,2021-09-28,2021-09-28,株式会社ｅａｒｔｈ６３,,株式会社,大阪府,大阪市中央区,難波４丁目１番１５号近鉄難波ビル１階,,27,128,5420076,,,,,,,2021-09-28,1,,,,,アースロクジュウサン,0
2538,9120001240632,新規,0,2021-09-28,2021-09-28,株式会社大阪キンジム,,株式会社,大阪府,大阪市中央区,内平野町１丁目３番７号ベルヴォア内平野３０２号,,27,128,5400037,,,,,,,2021-09-28,1,,,,,オオサカキンジム,0
2539,9120001240640,新規,0,2021-09-28,2021-09-28,株式会社サナダサービス,,株式会社,大阪府,大阪市阿倍野区,松崎町２丁目６－１４,,27,119,5450053,,,,,,,2021-09-28,1,,,,,サナダサービス,0
2540,9120001240657,新規,0,2021-09-28,2021-09-28,株式会社Ｓｔａｒ　Ｅｍｐｅｒｏｒ,,株式会社,大阪府,大阪市中央区,南船場１丁目５番１９号第一Ｃｒｏｓｓビル４Ｆ,,27,128,5420081,,,,,,,2021-09-28,1,,,,,スターエンペラー,0
2545,9120003020025,新規,0,2021-09-28,2021-09-28,合同会社Ｐａ　ＰＬＵＳ,,合同会社,大阪府,大阪市城東区,諏訪４丁目２４－２７,,27,118,5360021,,,,,,,2021-09-28,1,,,,,パプラス,0
2546,9120003020297,新規,0,2021-09-28,2021-09-28,Ｇｒａｎｄ　Ｃｈａｒｉｏｔ合同会社,,合同会社,大阪府,大阪市此花区,伝法６丁目２番２－７０３号,,27,104,5540002,,,,,,,2021-09-28,1,,,,,グランシャリオ,0
2547,9120005022515,新規,0,2021-09-28,2021-09-28,一般社団法人本気野球連盟,,その他の設立登記法人,大阪府,大阪市西区,西本町１丁目４番１号オリックス本町ビル１０階,,27,106,5500005,,,,,,,2021-09-28,1,,,,,ホンキヤキュウレンメイ,0
2555,9120901044934,新規,0,2021-09-28,2021-09-28,ＡＵＨＴ株式会社,,株式会社,大阪府,豊中市,大黒町３丁目１０番４－９号室,,27,203,5610827,,,,,,,2021-09-28,1,,,,,エーユーエイチティー,0
2575,9140003016772,新規,0,2021-09-28,2021-09-28,合同会社笑みため９１３,,合同会社,兵庫県,姫路市,西今宿３丁目９番６２号セーフティーコートⅡ１２号,00124359,28,201,6700061,,,,,,,2021-09-28,1,,,,,エミタメキューイチサン,0
2577,9160001023645,新規,0,2021-09-28,2021-09-28,炎株式会社,,株式会社,滋賀県,大津市,小野２９３番地の３,,25,201,5200525,,,,,,,2021-09-28,1,,,,,ホノオ,0
2579,9160005010986,新規,0,2021-09-28,2021-09-28,医療法人野玉歯科医院,,その他の設立登記法人,滋賀県,大津市,唐橋町６番８号,,25,201,5200851,,,,,,,2021-09-28,1,,,,,ノダマシカイイン,0
2584,9180001147888,新規,0,2021-09-28,2021-09-28,株式会社ＥＶＳマーケティング,,株式会社,愛知県,名古屋市中区,丸の内３丁目１７番２４号,,23,106,4600002,,,,,,,2021-09-28,1,,,,,イーブイエスマーケティング,0
2585,9180001147962,新規,0,2021-09-28,2021-09-28,ｉｎａｔｃｏ　Ｅｍｏｄｅｎ　ｎｏ株式会社,,株式会社,愛知県,名古屋市中区,大須３丁目３０番６０号大須３０１ビル６階,,23,106,4600011,,,,,,,2021-09-28,1,,,,,イナトコエモデンノ,0
2586,9180001147970,新規,0,2021-09-28,2021-09-28,株式会社ＴＰＲ,,株式会社,愛知県,知多郡南知多町,大字豊浜字月之浦１番地の２４,,23,445,4703412,,,,,,,2021-09-28,1,,,,,ティーピーアール,0
2596,9200003005323,新規,0,2021-09-28,2021-09-28,合同会社テラス,,合同会社,岐阜県,各務原市,蘇原三柿野町９５１番地７クリエイト１０２,,21,213,5040904,,,,,,,2021-09-28,1,,,,,テラス,0
2598,9220001024439,新規,0,2021-09-28,2021-09-28,株式会社プラティス,,株式会社,石川県,七尾市,万行２丁目６６番地,,17,202,9260000,,,,,,,2021-09-28,1,,,,,プラティス,0
2606,9240001058641,新規,0,2021-09-28,2021-09-28,株式会社ユアーズクリーン,,株式会社,広島県,広島市中区,舟入川口町１４番６号１Ｆ,,34,101,7300845,,,,,,,2021-09-28,1,,,,,ユアーズクリーン,0
2624,9290005018372,新規,0,2021-09-28,2021-09-28,一般社団法人がじゅまるの木,,その他の設立登記法人,福岡県,福岡市博多区,博多駅前２丁目１７番１４－５０２号,,40,132,8120011,,,,,,,2021-09-28,1,,,,,ガジュマルノキ,0
2625,9290801027832,新規,0,2021-09-28,2021-09-28,株式会社ライフリッチ,,株式会社,福岡県,北九州市八幡西区,鷹見台２丁目８番１６号,,40,109,8070853,,,,,,,2021-09-28,1,,,,,ライフリッチ,0
2627,9290803003939,新規,0,2021-09-28,2021-09-28,合同会社すべからく,,合同会社,福岡県,遠賀郡岡垣町,大字内浦１３１番地６,,40,383,8114203,,,,,,,2021-09-28,1,,,,,スベカラク,0
2631,9320001018620,新規,0,2021-09-28,2021-09-28,ＪＯＭ株式会社,,株式会社,大分県,佐伯市,鶴見大字地松浦２０４５番地,,44,205,8761202,,,,,,,2021-09-28,1,,,,,ジェイオーエム,0
2632,9330001029006,新規,0,2021-09-28,2021-09-28,株式会社インデックス・アド,,株式会社,熊本県,熊本市中央区,本山町１８９番地,,43,101,8600822,,,,,,,2021-09-28,1,,,,,インデックスアド,0
2646,9370003005406,新規,0,2021-09-28,2021-09-28,合同会社ティーアールワン,,合同会社,宮城県,宮城郡松島町,高城字愛宕一２９番地の１４,,04,401,9810215,,,,,,,2021-09-28,1,,,,,ティーアールワン,0
2647,9370005010354,新規,0,2021-09-28,2021-09-28,一般社団法人ＣＲ－ｊｉｖａ,,その他の設立登記法人,宮城県,仙台市若林区,上飯田１丁目２５番４６号みうらコーポ２０１号,,04,103,9840838,,,,,,,2021-09-28,1,,,,,シーアールジヴァ,0
2655,9380005012481,新規,0,2021-09-28,2021-09-28,医療法人北令会,,その他の設立登記法人,福島県,郡山市,田村町金屋字冬室９１番２,,07,203,9630725,,,,,,,2021-09-28,1,,,,,ホクレイカイ,0
2666,9430001085022,新規,0,2021-09-28,2021-09-28,株式会社アグリルネッサンス,,株式会社,北海道,札幌市中央区,南十六条西６丁目２－１,,01,101,0640916,,,,,,,2021-09-28,1,,,,,アグリルネッサンス,0
2669,9430003013179,新規,0,2021-09-28,2021-09-28,合同会社Ｐｅｎ　ｔｏ　Ｋａｍｉ,,合同会社,北海道,札幌市豊平区,福住一条９丁目１－２,,01,105,0620041,,,,,,,2021-09-28,1,,,,,ペントカミ,0
2670,9430003013187,新規,0,2021-09-28,2021-09-28,ＣＶ　Ｃｒｅａｔｅ合同会社,,合同会社,北海道,札幌市中央区,南一条西１丁目１５－３－３Ｆ　ＬＩＧＨＴＯＦＦＩＣＥ,,01,101,0600061,,,,,,,2021-09-28,1,,,,,シーブイクリエイト,0
2675,9480003001732,新規,0,2021-09-28,2021-09-28,合同会社勝浦,,合同会社,徳島県,徳島市,住吉４丁目２番１０号,,36,201,7700861,,,,,,,2021-09-28,1,,,,,カツウラ,0
2678,9700150104661,新規,0,2021-09-28,2021-09-10,大口町南地域自治組織,,その他,愛知県,丹羽郡大口町,秋田３丁目３９７番地,,23,361,4800132,,,,,,,2021-09-10,1,,,,,オオグチチヨウミナミチイキジチソシキ,0
