sequenceNumber,corporateNumber,process,correct,updateDate,changeDate,name,nameImageId,kind,prefectureName,cityName,streetNumber,addressImageId,prefectureCode,cityCode,postCode,addressOutside,addressOutsideImageId,closeDate,closeCause,successorCorporateNumber,changeCause,assignmentDate,latest,enName,enPrefectureName,enCityName,enAddressOutside,furigana,hihyoji
22,1010602027496,登記記録の閉鎖等,0,2024-08-08,2024-08-07,ビアメーデル東京株式会社,,株式会社,東京都,江東区,海辺２３番１５号,,13,108,1350012,,,2024-08-07,清算の結了等,,,2015-10-05,1,,,,,ビアメーデルトウキョウ,0
28,1010801011697,登記記録の閉鎖等,0,2024-08-08,2024-07-25,美嶺電材株式会社,,株式会社,東京都,大田区,池上３丁目１６番１７号,,13,111,1460082,,,2024-07-25,清算の結了等,,,2015-10-05,1,,,,,ミネデンザイ,0
32,1010902003734,登記記録の閉鎖等,0,2024-08-08,2024-08-02,有限会社オフイス・ワン,,有限会社,東京都,世田谷区,東玉川２丁目９番１５号,,13,112,1580084,,,2024-08-02,清算の結了等,,,2015-10-05,1,,,,,,0
34,1011001064916,登記記録の閉鎖等,0,2024-08-08,2024-07-18,株式会社ジオグラフィックス,,株式会社,神奈川県,横浜市中区,西之谷町９１番地３,,14,104,2310844,,,2024-07-18,清算の結了等,,,2015-10-05,1,,,,,ジオグラフィックス,0
43,1011002036625,登記記録の閉鎖等,0,2024-08-08,2024-07-19,有限会社ブレインシステム,,有限会社,東京都,渋谷区,西原２丁目３番８号,,13,113,1510066,,,2024-07-19,清算の結了等,,,2015-10-05,1,,,,,ブレインシステム,0
44,1011003011288,登記記録の閉鎖等,0,2024-08-08,2024-08-05,合同会社イーストヒル,,合同会社,東京都,目黒区,東が丘１丁目１２番５号,,13,110,1520021,,,2024-08-05,清算の結了等,,,2020-06-10,1,,,,,イーストヒル,0
62,1011802010779,登記記録の閉鎖等,0,2024-08-08,2024-08-02,有限会社大槻陽一計画室,,有限会社,東京都,足立区,谷中１丁目３２番１６－４１１号,,13,121,1200006,,,2024-08-02,清算の結了等,,,2015-10-05,1,,,,,オオツキヨウイチケイカクシツ,0
64,1012402000518,登記記録の閉鎖等,0,2024-08-08,2024-08-05,有限会社小島不動産,,有限会社,東京都,府中市,四谷１丁目１７番地の５９,,13,206,1830035,,,2024-08-05,清算の結了等,,,2015-10-05,1,,,,,コジマフドウサン,0
74,1020002083230,登記記録の閉鎖等,0,2024-08-08,2024-07-18,有限会社川崎ピーシージー,,有限会社,神奈川県,川崎市中原区,上平間１５３４－１４,,14,133,2110013,,,2024-07-18,清算の結了等,,,2015-10-05,1,,,,,カワサキピーシージー,0
88,1030001145765,登記記録の閉鎖等,0,2024-08-08,2024-08-01,株式会社ベルティング,,株式会社,埼玉県,所沢市,三ケ島１丁目１６９番地の１,,11,208,3591164,,,2024-08-01,清算の結了等,,,2021-12-10,1,,,,,ベルティング,0
92,1030002047812,登記記録の閉鎖等,0,2024-08-08,2024-08-02,有限会社星野工材,,有限会社,埼玉県,さいたま市岩槻区,大字徳力５３６番地８,,11,110,3390004,,,2024-08-02,清算の結了等,,,2015-10-05,1,,,,,ホシノコウザイ,0
94,1030003020561,登記記録の閉鎖等,0,2024-08-08,2024-08-01,合同会社Ｌｕｓｔ,,合同会社,埼玉県,さいたま市大宮区,仲町１丁目９７番地第二ヨシケンビル２階,,11,103,3300845,,,2024-08-01,清算の結了等,,,2022-11-11,1,,,,,ルスト,0
99,1040001107698,登記記録の閉鎖等,0,2024-08-08,2024-07-25,株式会社アクティブアルファー,,株式会社,千葉県,四街道市,鷹の台２丁目１０番２号,,12,228,2840033,,,2024-07-25,清算の結了等,,,2019-01-17,1,,,,,アクティブアルファー,0
102,1040002032136,登記記録の閉鎖等,0,2024-08-08,2024-07-25,有限会社アイ・ヨシザワ,,有限会社,千葉県,市川市,曽谷７丁目９番７号,,12,203,2720832,,,2024-07-25,清算の結了等,,,2015-10-05,1,,,,,アイヨシザワ,0
113,1070002023066,登記記録の閉鎖等,0,2024-08-08,2024-08-06,有限会社カナイクラフト,,有限会社,群馬県,みどり市,大間々町桐原９６９番地の２,,10,212,3760102,,,2024-08-06,清算の結了等,,,2015-10-05,1,,,,,カナイクラフト,0
116,1080001020328,登記記録の閉鎖等,0,2024-08-08,2024-08-01,株式会社Ｆｅｅｔ＆Ｓｃｉｅｎｃｅ,,株式会社,静岡県,静岡市駿河区,西脇４５９番地,,22,102,4228044,,,2024-08-01,合併による解散等,1080001003150,令和６年８月１日静岡市駿河区西脇４３５番地株式会社ダイマツ（1080001003150）に合併し解散,2015-10-05,1,,,,,フィートアンドサイエンス,0
126,1100003002684,登記記録の閉鎖等,0,2024-08-08,2024-07-23,ナリッシュ合同会社,,合同会社,長野県,諏訪市,大和３丁目７番１０号,,20,206,3920001,,,2024-07-23,清算の結了等,,,2015-10-05,1,,,,,ナリッシュ,0
139,1120001212085,登記記録の閉鎖等,0,2024-08-08,2024-08-01,Ｋａｒｌｙ　Ｓｈｏｐ　ｉｍｐｏｒｔ株式会社,,株式会社,大阪府,交野市,梅が枝４３番３３号コスモセンタービル１Ｆ,,27,230,5760042,,,2024-08-01,合併による解散等,5120001197034,令和６年８月１日大阪府交野市梅が枝４３番３３号コスモセンタービル１ＦＫａｒｌｙ　Ｓｈｏｐ株式会社（5120001197034）に合併し解散,2018-03-22,1,,,,,カーリーショップインポート,0
149,1122001036431,登記記録の閉鎖等,0,2024-08-08,2024-08-02,Ｔｈｒｅｅ　Ｆｉｅｌｄｓ株式会社,,株式会社,大阪府,東大阪市,長堂１丁目３番１４号,,27,227,5770056,,,2024-08-02,清算の結了等,,,2022-11-24,1,,,,,スリーフィールズ,0
168,1170002004056,登記記録の閉鎖等,0,2024-08-08,2024-08-07,有限会社吉野テック,00045509,有限会社,和歌山県,和歌山市,加納１８２番地の１０セジュール西川１０８号室,,30,201,6408391,,,2024-08-07,清算の結了等,,,2015-10-05,1,,,,,ヨシノテック,0
194,1180301028028,登記記録の閉鎖等,0,2024-08-08,2024-07-31,株式会社サシュウネクセル,,株式会社,愛知県,刈谷市,小垣江町古浜田１８番地３,,23,210,4480813,,,2024-07-31,清算の結了等,,,2015-10-05,1,,,,,サシュウネクセル,0
197,1190001005937,登記記録の閉鎖等,0,2024-08-08,2024-08-06,株式会社フェニックスマネジメント,,株式会社,三重県,鈴鹿市,算所町１２２６番地１,,24,207,5130805,,,2024-08-06,清算の結了等,,,2015-10-05,1,,,,,フェニックスマネジメント,0
203,1200003005108,登記記録の閉鎖等,0,2024-08-08,2024-08-05,クリプトカレンシーＧｕｊｏ合同会社,,合同会社,岐阜県,郡上市,大和町神路８３番地,,21,219,5014605,,,2024-08-05,清算の結了等,,,2021-03-04,1,,,,,,0
227,1300001005256,登記記録の閉鎖等,0,2024-08-08,2024-08-02,株式会社クリエイトヒロ,,株式会社,佐賀県,武雄市,北方町大字大崎２０５１番地９１,,41,206,8492204,,,2024-08-02,清算の結了等,,,2015-10-05,1,,,,,クリエイトヒロ,0
233,1320201000096,登記記録の閉鎖等,0,2024-08-08,2024-08-01,新大分電気工事株式会社,,株式会社,大分県,臼杵市,大字江無田１０５番地の３,,44,206,8750023,,,2024-08-01,清算の結了等,,,2015-10-05,1,,,,,シンオオイタデンキコウジ,0
234,1340001007240,登記記録の閉鎖等,0,2024-08-08,2024-08-01,株式会社国分山形屋,,株式会社,鹿児島県,霧島市,国分中央３丁目７番１７号,,46,218,8994332,,,2024-08-01,合併による解散等,7340001004414,令和６年８月１日鹿児島市金生町３番１号株式会社山形屋（7340001004414）に合併し解散,2015-10-05,1,,,,,コクブヤマカタヤ,0
245,1410001003620,登記記録の閉鎖等,0,2024-08-08,2024-08-01,株式会社伊藤土木,,株式会社,秋田県,潟上市,飯田川下虻川字儘ノ内４番地３,00086251,05,211,0181502,,,2024-08-01,清算の結了等,,,2015-10-05,1,,,,,イトウドボク,0
249,1430001007776,登記記録の閉鎖等,0,2024-08-08,2024-08-02,株式会社昇栄施設,,株式会社,北海道,札幌市東区,北十九条東１６丁目１番２７－２０５号,,01,103,0650019,,,2024-08-02,清算の結了等,,,2015-10-05,1,,,,,ショウエイシセツ,0
254,1430002065393,登記記録の閉鎖等,0,2024-08-08,2024-08-01,有限会社鈴木モーター商会,,有限会社,北海道,登別市,大和町１丁目１１番地２,,01,230,0590025,,,2024-08-01,清算の結了等,,,2015-10-05,1,,,,,スズキモーターショウカイ,0
277,2010401140086,登記記録の閉鎖等,0,2024-08-08,2024-08-02,聯発紡織株式会社,,株式会社,埼玉県,川口市,青木２丁目６番８号セントレジアス川口９０３号室,,11,203,3320031,,,2024-08-02,清算の結了等,,,2018-08-07,1,,,,,レンハツボウショク,0
281,2010403029476,登記記録の閉鎖等,0,2024-08-08,2024-07-26,ＡＩＳＵ合同会社,,合同会社,東京都,千代田区,有楽町１丁目２番２号９階,,13,101,1000006,,,2024-07-26,清算の結了等,,,2023-02-10,1,,,,,アイスウ,0
286,2010701031035,登記記録の閉鎖等,0,2024-08-08,2024-07-31,株式会社セイロン,,株式会社,東京都,品川区,上大崎２丁目２番２８号ｒｅａｒｇａｒｄｅｎ１０１,,13,109,1410021,,,2024-07-31,清算の結了等,,,2015-10-05,1,,,,,セイロン,0
287,2010901005235,登記記録の閉鎖等,0,2024-08-08,2024-08-02,株式会社ジオテックエンジニアリング,,株式会社,東京都,世田谷区,松原２丁目３４番１５号,,13,112,1560043,,,2024-08-02,清算の結了等,,,2015-10-05,1,,,,,ジオテックエンジニアリング,0
312,2011501024963,登記記録の閉鎖等,0,2024-08-08,2024-07-31,株式会社るつぼ,,株式会社,東京都,国立市,西２丁目２４番地の４１,,13,215,1860005,,,2024-07-31,清算の結了等,,,2019-07-29,1,,,,,ルツボ,0
343,2021002070589,登記記録の閉鎖等,0,2024-08-08,2024-08-05,有限会社シンケンマネージメント,,有限会社,神奈川県,横須賀市,三春町１丁目１４番地,,14,201,2380014,,,2024-08-05,清算の結了等,,,2015-10-05,1,,,,,シンケンマネージメント,0
353,2030002037738,登記記録の閉鎖等,0,2024-08-08,2024-07-30,有限会社侍架設,,有限会社,東京都,武蔵村山市,学園３丁目４番地の１２,,13,223,2080011,,,2024-07-30,清算の結了等,,,2015-10-05,1,,,,,サムライカセツ,0
394,2120001020041,登記記録の閉鎖等,0,2024-08-08,2024-07-24,共和石油ガス株式会社,,株式会社,奈良県,香芝市,白鳳台２丁目６番１１号,,29,210,6390262,,,2024-07-24,清算の結了等,,,2015-10-05,1,,,,,キョウワセキユガス,0
410,2120102026078,登記記録の閉鎖等,0,2024-08-08,2024-08-02,有限会社山崎建工,00033016,有限会社,大阪府,泉大津市,東助松町４丁目６番１１号,,27,206,5950006,,,2024-08-02,清算の結了等,,,2015-10-05,1,,,,,ヤマザキケンコウ,0
429,2180001083116,登記記録の閉鎖等,0,2024-08-08,2024-07-31,株式会社ウィーズ中部,,株式会社,愛知県,一宮市,八町通２丁目６番地１（１階）,,23,203,4910844,,,2024-07-31,合併による解散等,6030001066965,令和６年７月１日埼玉県北葛飾郡松伏町築比地７９５番地１株式会社ウィーズ（6030001066965）に合併し解散,2015-10-05,1,,,,,ウィーズチュウブ,0
430,2180001098956,登記記録の閉鎖等,0,2024-08-08,2024-07-29,株式会社Ｊ・ＷＯＯＤ,,株式会社,愛知県,あま市,篠田新割１０４－１,,23,237,4901211,,,2024-07-29,清算の結了等,,,2015-10-05,1,,,,,ジェイウッド,0
433,2180001144009,登記記録の閉鎖等,0,2024-08-08,2024-07-23,株式会社スカイリミット,,株式会社,愛知県,名古屋市名東区,扇町１丁目６番地の２,,23,115,4650076,,,2024-07-23,清算の結了等,,,2020-12-15,1,,,,,スカイリミット,0
434,2180001145857,登記記録の閉鎖等,0,2024-08-08,2024-07-29,株式会社Ｓ＆Ｈ,,株式会社,愛知県,海部郡蟹江町,本町６丁目９９番地,,23,425,4970034,,,2024-07-29,清算の結了等,,,2021-04-30,1,,,,,エスアンドエイチ,0
442,2180002027939,登記記録の閉鎖等,0,2024-08-08,2024-07-25,有限会社ジャムハウス,,有限会社,愛知県,名古屋市千種区,汁谷町１２０番地,,23,101,4640013,,,2024-07-25,清算の結了等,,,2015-10-05,1,,,,,ジャムハウス,0
444,2180005014463,登記記録の閉鎖等,0,2024-08-08,2024-07-25,一般社団法人犬山農芸,,その他の設立登記法人,愛知県,犬山市,大字善師野字清水寺洞１５番地,,23,215,4840003,,,2024-07-25,清算の結了等,,,2015-10-05,1,,,,,イヌヤマノウゲイ,0
463,2230001011780,登記記録の閉鎖等,0,2024-08-08,2024-08-01,どうだ建設株式会社,,株式会社,富山県,高岡市,六家１１１番地,,16,202,9330321,,,2024-08-01,合併による解散等,8230001011057,令和６年８月１日富山県高岡市六家１４４番地株式会社丸三国土建設（8230001011057）に合併し解散,2015-10-05,1,,,,,ドウダケンセツ,0
471,2240002043236,登記記録の閉鎖等,0,2024-08-08,2024-08-05,有限会社瑞穂建築設計,,有限会社,広島県,福山市,南蔵王町２丁目２３番２９号,,34,207,7210973,,,2024-08-05,清算の結了等,,,2015-10-05,1,,,,,ミズホケンチクセッケイ,0
495,2350002004326,登記記録の閉鎖等,0,2024-08-08,2024-08-02,有限会社まこと産業,,有限会社,宮崎県,宮崎市,中村西３丁目５番１９号,,45,201,8800905,,,2024-08-02,清算の結了等,,,2015-10-05,1,,,,,マコトサンギョウ,0
514,2430001067670,登記記録の閉鎖等,0,2024-08-08,2024-08-01,株式会社ｍ’ｓ　ｍａｒｋｅｔｉｎｇ,,株式会社,北海道,小樽市,錦町９番３号,,01,203,0470039,,,2024-08-01,合併による解散等,7430001051455,令和６年８月１日北海道小樽市錦町９番１号株式会社ＦＯＯＤ　ＣＯＬＬＥＣＴ（7430001051455）に合併し解散,2015-10-05,1,,,,,エムズマーケティング,0
518,2460005000451,登記記録の閉鎖等,0,2024-08-08,2024-08-06,釧路市共栄大通商店街振興組合,,その他の設立登記法人,北海道,釧路市,共栄大通１丁目３番４号,,01,206,0850035,,,2024-08-06,清算の結了等,,,2015-10-05,1,,,,,クシロシキョウエイオオドオリ,0
525,2490005006909,登記記録の閉鎖等,0,2024-08-08,2024-08-05,一般社団法人古民家再生協会高知,,その他の設立登記法人,高知県,高知市,塚ノ原１７２番地１６,,39,201,7800952,,,2024-08-05,清算の結了等,,,2023-10-24,1,,,,,コミンカサイセイキョウカイコウチ,0
526,2500002015464,登記記録の閉鎖等,0,2024-08-08,2024-08-02,有限会社フィールクリエイティブマツダ,,有限会社,愛媛県,西条市,明屋敷１２３番地,,38,206,7930023,,,2024-08-02,清算の結了等,,,2015-10-05,1,,,,,フィールクリエイティブマツダ,0
539,3010005021871,登記記録の閉鎖等,0,2024-08-08,2024-07-26,第６メック都市開発特定目的会社,,その他の設立登記法人,東京都,中央区,新川２丁目２７番１号,,13,102,1040033,,,2024-07-26,清算の結了等,,,2015-10-05,1,,,,,ダイロクメックトシカイハツ,0
549,3010601032479,登記記録の閉鎖等,0,2024-08-08,2024-07-22,株式会社セグレス,,株式会社,東京都,目黒区,目黒本町４丁目２番７号,,13,110,1520002,,,2024-07-22,清算の結了等,,,2015-10-05,1,,,,,セグレス,0
551,3010602014617,登記記録の閉鎖等,0,2024-08-08,2024-08-06,有限会社協栄電化,,有限会社,東京都,墨田区,本所４丁目８番１０号,,13,107,1300004,,,2024-08-06,清算の結了等,,,2015-10-05,1,,,,,キョウエイデンカ,0
565,3011202006616,登記記録の閉鎖等,0,2024-08-08,2024-08-05,有限会社ルーブル,,有限会社,東京都,中野区,東中野４丁目１番９号,,13,114,1640003,,,2024-08-05,清算の結了等,,,2015-10-05,1,,,,,ルーブル,0
567,3011301017159,登記記録の閉鎖等,0,2024-08-08,2024-08-05,株式会社ＪＣブレイン投資顧問,,株式会社,東京都,杉並区,高円寺北３丁目１番９号青田ビル４０３,,13,115,1660002,,,2024-08-05,清算の結了等,,,2015-10-05,1,,,,,ジェイシーブレイントウシコモン,0
570,3011302007159,登記記録の閉鎖等,0,2024-08-08,2024-08-02,有限会社則武,,有限会社,東京都,杉並区,高井戸西１丁目２１番１７号,,13,115,1680071,,,2024-08-02,清算の結了等,,,2015-10-05,1,,,,,ノリタケ,0
573,3011401003752,登記記録の閉鎖等,0,2024-08-08,2024-08-05,コーディアルタクシー株式会社,,株式会社,東京都,板橋区,舟渡１丁目１６番３５号,,13,119,1740041,,,2024-08-05,合併による解散等,4011501010045,令和６年６月１１日東京都北区浮間四丁目３２番２６号松竹交通株式会社（4011501010045）に合併し解散,2015-10-05,1,,,,,コーディアルタクシー,0
574,3011401006103,登記記録の閉鎖等,0,2024-08-08,2024-08-01,水口酸素株式会社,,株式会社,東京都,板橋区,前野町３丁目１７番２０号,,13,119,1740063,,,2024-08-01,清算の結了等,,,2015-10-05,1,,,,,ミズグチサンソ,0
578,3011502006530,登記記録の閉鎖等,0,2024-08-08,2024-07-29,有限会社和幸,,有限会社,東京都,北区,赤羽北３丁目３番２４号,,13,117,1150052,,,2024-07-29,清算の結了等,,,2015-10-05,1,,,,,ワコウ,0
597,3020001016949,登記記録の閉鎖等,0,2024-08-08,2024-07-16,株式会社神奈川ゴム工業所,,株式会社,神奈川県,横浜市鶴見区,駒岡１丁目２６番４３号,,14,101,2300071,,,2024-07-16,合併による解散等,1020001017008,令和６年７月１日横浜市鶴見区駒岡一丁目２６番４３号株式会社カワイ（1020001017008）に合併し解散,2015-10-05,1,,,,,カナガワゴムコウギョウショ,0
614,3030001105305,登記記録の閉鎖等,0,2024-08-08,2024-07-31,株式会社ＳＡＲＩ－ＳＡＲＩ,,株式会社,埼玉県,ふじみ野市,鶴ケ岡３丁目１番４１号,,11,245,3560045,,,2024-07-31,清算の結了等,,,2015-10-05,1,,,,,サリサリ,0
616,3030001139121,登記記録の閉鎖等,0,2024-08-08,2024-07-31,株式会社ＧＡＬＡＸＹ,,株式会社,埼玉県,ふじみ野市,鶴ケ岡３丁目１番４１号,,11,245,3560045,,,2024-07-31,清算の結了等,,,2020-11-05,1,,,,,ギャラクシー,0
617,3030001146902,登記記録の閉鎖等,0,2024-08-08,2024-08-01,株式会社レスゴ,,株式会社,埼玉県,さいたま市桜区,大字白鍬６０９－１,,11,106,3380811,,,2024-08-01,清算の結了等,,,2022-02-22,1,,,,,レスゴ,0
620,3030002117002,登記記録の閉鎖等,0,2024-08-08,2024-08-01,東邦エステート有限会社,,有限会社,埼玉県,深谷市,上柴町西２丁目１１番地１３,,11,218,3660052,,,2024-08-01,清算の結了等,,,2015-10-05,1,,,,,トウホウエステート,0
656,3110005014683,登記記録の閉鎖等,0,2024-08-08,2024-07-31,特定非営利活動法人循環の島研究室,,その他の設立登記法人,新潟県,佐渡市,安養寺１７０番３,,15,224,9521201,,,2024-07-31,清算の結了等,,,2015-10-05,1,,,,,ジュンカンノシマケンキュウシツ,0
661,3120001166164,登記記録の閉鎖等,0,2024-08-08,2024-08-01,株式会社アサヒテクノロジー,,株式会社,大阪府,大阪市中央区,谷町４丁目１０番９号,,27,128,5400012,,,2024-08-01,合併による解散等,3120001088359,令和６年８月１日大阪市中央区谷町四丁目１０番９号福浪産業株式会社（3120001088359）に合併し解散,2015-10-05,1,,,,,アサヒテクノロジー,0
671,3120101042447,登記記録の閉鎖等,0,2024-08-08,2024-08-06,大和産業株式会社,,株式会社,大阪府,泉大津市,豊中９５８番地の７,,27,206,5950000,,,2024-08-06,清算の結了等,,,2015-10-05,1,,,,,ダイワサンギョウ,0
674,3122001016365,登記記録の閉鎖等,0,2024-08-08,2024-08-01,株式会社ホクト,,株式会社,大阪府,四條畷市,大字清瀧７５番地の１,,27,229,5750063,,,2024-08-01,合併による解散等,4122001016298,令和６年８月１日大阪府四條畷市大字清瀧７５番地の１株式会社ナカオ（4122001016298）に合併し解散,2015-10-05,1,,,,,,0
675,3130001005825,登記記録の閉鎖等,0,2024-08-08,2024-08-02,株式会社あじさい社,,株式会社,京都府,京都市左京区,田中西浦町１９番地,,26,103,6068217,,,2024-08-02,清算の結了等,,,2015-10-05,1,,,,,アジサイシャ,0
679,3130001067948,登記記録の閉鎖等,0,2024-08-08,2024-08-01,株式会社ＴＯＫＯＴＯＫＯ,,株式会社,京都府,京都市下京区,東洞院通五条上る深草町５８６番地レ・ジェイド京都東洞院１０２,,26,106,6008408,,,2024-08-01,清算の結了等,,,2020-11-06,1,,,,,トコトコ,0
709,3180002086083,登記記録の閉鎖等,0,2024-08-08,2024-07-29,有限会社サンポウライフ,,有限会社,愛知県,常滑市,泉町３丁目７７番地,,23,216,4790811,,,2024-07-29,清算の結了等,,,2015-10-05,1,,,,,サンポウライフ,0
736,3320005009349,登記記録の閉鎖等,0,2024-08-08,2024-08-01,特定非営利活動法人ＨＵＧＫＵＭＵ,,その他の設立登記法人,大分県,大分市,大道町２丁目２番１２号１Ｆ,,44,201,8700822,,,2024-08-01,清算の結了等,,,2016-03-15,1,,,,,ハグクム,0
738,3340001008575,登記記録の閉鎖等,0,2024-08-08,2024-08-01,株式会社川内山形屋,,株式会社,鹿児島県,薩摩川内市,西向田町９番６号,,46,215,8950027,,,2024-08-01,合併による解散等,7340001004414,令和６年８月１日鹿児島市金生町３番１号株式会社山形屋（7340001004414）に合併し解散,2015-10-05,1,,,,,センダイヤマカタヤ,0
746,3400002003255,登記記録の閉鎖等,0,2024-08-08,2024-07-26,有限会社宮田ビル,,有限会社,岩手県,盛岡市,大通３丁目６番１２号,,03,201,0200022,,,2024-07-26,清算の結了等,,,2015-10-05,1,,,,,ミヤタビル,0
752,3430001083056,登記記録の閉鎖等,0,2024-08-08,2024-08-01,株式会社パミリア,,株式会社,北海道,小樽市,高島１丁目５番３号,,01,203,0470048,,,2024-08-01,合併による解散等,7430001051455,令和６年８月１日北海道小樽市錦町９番１号株式会社ＦＯＯＤ　ＣＯＬＬＥＣＴ（7430001051455）に合併し解散,2021-01-06,1,,,,,パミリア,0
761,4010001115379,登記記録の閉鎖等,0,2024-08-08,2024-07-26,株式会社サンロード,,株式会社,東京都,中央区,日本橋浜町１丁目５番１３号,,13,102,1030007,,,2024-07-26,清算の結了等,,,2015-10-05,1,,,,,サンロード,0
769,4010005008827,登記記録の閉鎖等,0,2024-08-08,2024-07-26,東京巻取紙工業協同組合,,その他の設立登記法人,東京都,中央区,日本橋小網町３番１４号茅場町Ｋ－１ビル２階,,13,102,1030016,,,2024-07-26,清算の結了等,,,2015-10-05,1,,,,,トウキョウマキトリガミコウギョウ,0
786,4010603007858,登記記録の閉鎖等,0,2024-08-08,2024-07-18,合同会社ジーナイン・ジャパン・シックス,,合同会社,東京都,港区,虎ノ門３丁目２２番１０－２０１号,,13,103,1050001,,,2024-07-18,清算の結了等,,,2019-06-12,1,,,,,ジーナインジャパンシックス,0
820,4020001004564,登記記録の閉鎖等,0,2024-08-08,2024-07-19,実建設株式会社,,株式会社,神奈川県,横浜市港南区,上大岡西３丁目３番１１号,,14,111,2330002,,,2024-07-19,清算の結了等,,,2015-10-05,1,,,,,ミノリケンセツ,0
827,4020002025337,登記記録の閉鎖等,0,2024-08-08,2024-07-19,有限会社アート空調工業,,有限会社,神奈川県,横浜市神奈川区,六角橋５丁目９番１２号,,14,102,2210802,,,2024-07-19,清算の結了等,,,2015-10-05,1,,,,,アートクウチョウコウギョウ,0
864,4070001019392,登記記録の閉鎖等,0,2024-08-08,2024-08-07,株式会社神榮,,株式会社,群馬県,太田市,新田大根町１３４番地の１２,,10,205,3700347,,,2024-08-07,清算の結了等,,,2015-10-05,1,,,,,シンエイ,0
865,4070002030596,登記記録の閉鎖等,0,2024-08-08,2024-08-05,有限会社ハルキ,,有限会社,群馬県,太田市,東本町１８番１４号,,10,205,3730026,,,2024-08-05,清算の結了等,,,2015-10-05,1,,,,,ハルキ,0
875,4110002018892,登記記録の閉鎖等,0,2024-08-08,2024-08-01,有限会社勝本富士松青果,,有限会社,新潟県,燕市,吉田法花堂４６７０番地,,15,213,9590214,,,2024-08-01,清算の結了等,,,2015-10-05,1,,,,,カツモトフジマツセイカ,0
881,4120001169604,登記記録の閉鎖等,0,2024-08-08,2024-08-01,株式会社海老江不動産,,株式会社,大阪府,大阪市福島区,海老江５丁目６番１８号,,27,103,5530001,,,2024-08-01,合併による解散等,3120001034882,令和６年８月１日大阪市福島区海老江五丁目６番１８号株式会社ＫＫＤ（3120001034882）に合併し解散,2015-10-05,1,,,,,エビエフドウサン,0
888,4120005006506,登記記録の閉鎖等,0,2024-08-08,2024-08-06,大阪商業協同組合,,その他の設立登記法人,大阪府,大阪市中央区,日本橋２丁目５番２号丸若ビル４階,,27,128,5420073,,,2024-08-06,清算の結了等,,,2015-10-05,1,,,,,オオサカショウギョウ,0
900,4140001097753,登記記録の閉鎖等,0,2024-08-08,2024-08-05,株式会社コジマ,,株式会社,兵庫県,朝来市,和田山町高田２３４番地,,28,225,6695243,,,2024-08-05,清算の結了等,,,2015-10-05,1,,,,,,0
906,4140002050752,登記記録の閉鎖等,0,2024-08-08,2024-08-05,有限会社べんけい商店,,有限会社,兵庫県,姫路市,飾磨区須加１２４番地,,28,201,6728063,,,2024-08-05,清算の結了等,,,2015-10-05,1,,,,,ベンケイショウテン,0
922,4180003021055,登記記録の閉鎖等,0,2024-08-08,2024-07-29,合同会社ペリカンイングリッシュスクール,,合同会社,愛知県,名古屋市緑区,鳴丘２丁目１５０２番地の３,,23,114,4580005,,,2024-07-29,清算の結了等,,,2020-04-10,1,,,,,ペリカンイングリッシュスクール,0
934,4220003002249,登記記録の閉鎖等,0,2024-08-08,2024-07-26,合同会社ファーム金丸,,合同会社,石川県,鹿島郡中能登町,金丸８０７番地,,17,407,9291621,,,2024-07-26,清算の結了等,,,2017-02-23,1,,,,,ファームカネマル,0
937,4240002004475,登記記録の閉鎖等,0,2024-08-08,2024-07-24,有限会社きさらぎ商事,,有限会社,広島県,広島市東区,光町２丁目９番２４－４０３号,,34,102,7320052,,,2024-07-24,清算の結了等,,,2015-10-05,1,,,,,キサラギショウジ,0
949,4280002003366,登記記録の閉鎖等,0,2024-08-08,2024-08-05,有限会社高島設備,00004687,有限会社,島根県,松江市,乃白町２９５番地,,32,201,6900045,,,2024-08-05,清算の結了等,,,2015-10-05,1,,,,,タカシマセツビ,0
950,4280002010412,登記記録の閉鎖等,0,2024-08-08,2024-08-05,有限会社洋菓子のヨシヤ,,有限会社,島根県,益田市,あけぼの西町１４番地１４,,32,204,6980025,,,2024-08-05,清算の結了等,,,2015-10-05,1,,,,,ヨウガシノヨシヤ,0
993,4430001046103,登記記録の閉鎖等,0,2024-08-08,2024-08-01,株式会社ＣＯＲＲＥＣＴＬＹ,,株式会社,北海道,小樽市,錦町９番３号,,01,203,0470039,,,2024-08-01,合併による解散等,7430001051455,令和６年８月１日北海道小樽市錦町９番１号株式会社ＦＯＯＤ　ＣＯＬＬＥＣＴ（7430001051455）に合併し解散,2015-10-05,1,,,,,コレクトリー,0
1001,4470001012431,登記記録の閉鎖等,0,2024-08-08,2024-08-02,株式会社エスユー,,株式会社,香川県,小豆郡土庄町,甲１１３５番地,,37,322,7614101,,,2024-08-02,清算の結了等,,,2015-10-05,1,,,,,エスユー,0
1009,4490002011488,登記記録の閉鎖等,0,2024-08-08,2024-08-05,有限会社高知新聞南国桧垣販売所,,有限会社,高知県,南国市,上末松３３３番地４,,39,204,7830026,,,2024-08-05,清算の結了等,,,2015-10-05,1,,,,,コウチシンブンナンゴクヒガキハンバイショ,0
1012,4500002017938,登記記録の閉鎖等,0,2024-08-08,2024-08-01,有限会社大宮商会,,有限会社,愛媛県,今治市,南大門町４丁目３番地１１,,38,202,7940027,,,2024-08-01,清算の結了等,,,2015-10-05,1,,,,,オオミヤショウカイ,0
1014,5010001112557,登記記録の閉鎖等,0,2024-08-08,2024-08-07,ＬＸクリエイト株式会社,,株式会社,東京都,墨田区,江東橋２丁目１１番１号,,13,107,1300022,,,2024-08-07,清算の結了等,,,2015-10-05,1,,,,,,0
1022,5010401014329,登記記録の閉鎖等,0,2024-08-08,2024-07-22,ジャパンアド株式会社,,株式会社,東京都,目黒区,洗足２丁目２５番５号,,13,110,1520012,,,2024-07-22,清算の結了等,,,2015-10-05,1,,,,,ジャパンアド,0
1023,5010401058466,登記記録の閉鎖等,0,2024-08-08,2024-07-17,エイト・スクープ・デザイン株式会社,,株式会社,東京都,港区,南青山５丁目４番２９号,,13,103,1070062,,,2024-07-17,清算の結了等,,,2015-10-05,1,,,,,,0
1033,5010501032131,登記記録の閉鎖等,0,2024-08-08,2024-07-31,ＮＴＳ株式会社,,株式会社,神奈川県,鎌倉市,今泉３丁目１５番１号,,14,204,2470052,,,2024-07-31,清算の結了等,,,2015-10-05,1,,,,,エヌティーエス,0
1035,5010601023906,登記記録の閉鎖等,0,2024-08-08,2024-08-07,共和設備株式会社,,株式会社,東京都,墨田区,錦糸３丁目７番１１－４０３号,,13,107,1300013,,,2024-08-07,清算の結了等,,,2015-10-05,1,,,,,キョウワセツビ,0
1036,5010601036412,登記記録の閉鎖等,0,2024-08-08,2024-08-07,株式会社プランクスターアソシエイツ,,株式会社,東京都,江東区,森下４丁目１７番２号,,13,108,1350004,,,2024-08-07,清算の結了等,,,2015-10-05,1,,,,,,0
1037,5010601036635,登記記録の閉鎖等,0,2024-08-08,2024-08-07,株式会社エフ・グリーンパートナー,,株式会社,東京都,墨田区,江東橋４丁目２２番１０号,,13,107,1300022,,,2024-08-07,清算の結了等,,,2015-10-05,1,,,,,エフグリーンパートナー,0
1040,5010701041972,登記記録の閉鎖等,0,2024-08-08,2024-07-31,株式会社ＧＲＯＷＩＮＧ　ＣＯＭＰＡＮＹ,,株式会社,東京都,品川区,西大井４丁目３番５号,,13,109,1400015,,,2024-07-31,清算の結了等,,,2021-12-27,1,,,,,グローイングカンパニー,0
1045,5010901025544,登記記録の閉鎖等,0,2024-08-08,2024-08-05,株式会社鎌田企画,,株式会社,東京都,荒川区,東尾久３丁目１２番１号,,13,118,1160012,,,2024-08-05,清算の結了等,,,2015-10-05,1,,,,,カマタキカク,0
1052,5011001151314,登記記録の閉鎖等,0,2024-08-08,2024-07-19,株式会社ＳＯＷＥＲＳ,,株式会社,東京都,目黒区,中根１丁目２番１７号ノア都立大７０１号,,13,110,1520031,,,2024-07-19,清算の結了等,,,2022-12-06,1,,,,,ソウワーズ,0
1056,5011003010897,登記記録の閉鎖等,0,2024-08-08,2024-07-26,Ｔｅｌｌｕｓ　Ｙｏｕ　Ｃａｒｅ合同会社,,合同会社,東京都,中央区,八丁堀４丁目４番４号３階,,13,102,1040032,,,2024-07-26,清算の結了等,,,2020-02-19,1,,,,,テラスユーケア,0
1071,5011601020447,登記記録の閉鎖等,0,2024-08-08,2024-08-02,株式会社伊豆工業,,株式会社,東京都,板橋区,大山西町５４番４号,,13,119,1730033,,,2024-08-02,清算の結了等,,,2015-10-29,1,,,,,イズコウギョウ,0
1076,5011701022541,登記記録の閉鎖等,0,2024-08-08,2024-08-02,株式会社トラウド,,株式会社,東京都,江戸川区,西葛西６丁目２２番３－１１０２号,,13,123,1340088,,,2024-08-02,清算の結了等,,,2019-03-28,1,,,,,トラウド,0
1082,5012305002021,登記記録の閉鎖等,0,2024-08-08,2024-08-01,一般社団法人ＣＯＺＩＥＳＴ,,その他の設立登記法人,東京都,町田市,図師町３３６番地７,,13,209,1940203,,,2024-08-01,清算の結了等,,,2022-08-02,1,,,,,コージエスト,0
1087,5013301049568,登記記録の閉鎖等,0,2024-08-08,2024-07-30,株式会社ＫＴＳ,,株式会社,東京都,豊島区,北大塚２丁目２４番５－８０６号,,13,116,1700004,,,2024-07-30,清算の結了等,,,2022-08-25,1,,,,,ケイティーエス,0
1089,5020001040501,登記記録の閉鎖等,0,2024-08-08,2024-07-18,株式会社ソシオリカ,,株式会社,神奈川県,横浜市青葉区,荏田西３丁目１０番地７１,,14,117,2250014,,,2024-07-18,清算の結了等,,,2015-10-05,1,,,,,ソシオリカ,0
1099,5021002036744,登記記録の閉鎖等,0,2024-08-08,2024-08-05,有限会社藤沢工業,,有限会社,神奈川県,伊勢原市,東成瀬４６番地の２－１４－６０９,,14,214,2591117,,,2024-08-05,清算の結了等,,,2015-10-05,1,,,,,フジサワコウギョウ,0
1120,5040002030441,登記記録の閉鎖等,0,2024-08-08,2024-07-25,有限会社水のマルショウ,,有限会社,千葉県,八千代市,麦丸９３２番地,,12,221,2760041,,,2024-07-25,清算の結了等,,,2015-10-05,1,,,,,ミズノマルショウ,0
1126,5050002002489,登記記録の閉鎖等,0,2024-08-08,2024-08-02,有限会社日燃商事,,有限会社,茨城県,水戸市,元石川町２６１６番地の１０,,08,201,3100843,,,2024-08-02,清算の結了等,,,2015-10-05,1,,,,,ニチネンショウジ,0
1132,5070001015861,登記記録の閉鎖等,0,2024-08-08,2024-08-06,北関東衛材株式会社,,株式会社,群馬県,桐生市,相生町３丁目５１８番地２,,10,203,3760011,,,2024-08-06,清算の結了等,,,2015-10-05,1,,,,,キタカントウエイザイ,0
1138,5080001015828,登記記録の閉鎖等,0,2024-08-08,2024-08-01,トランソニック株式会社,,株式会社,静岡県,静岡市駿河区,西脇４６０番地,,22,102,4228044,,,2024-08-01,合併による解散等,2080001001921,令和６年８月１日静岡市駿河区西脇４３５番地株式会社シードコーポレーション（2080001001921）に合併し解散,2015-10-05,1,,,,,トランソニック,0
1156,5120001228730,登記記録の閉鎖等,0,2024-08-08,2024-08-05,株式会社リリーフ,,株式会社,大阪府,寝屋川市,新家１丁目１０番１４号アントルポ寝屋川３０２,,27,215,5720812,,,2024-08-05,清算の結了等,,,2020-04-23,1,,,,,リリーフ,0
1165,5120101034509,登記記録の閉鎖等,0,2024-08-08,2024-08-02,株式会社エートス,,株式会社,大阪府,羽曳野市,西浦１４４２番地,,27,222,5830861,,,2024-08-02,清算の結了等,,,2015-10-05,1,,,,,エートス,0
1176,5130002028336,登記記録の閉鎖等,0,2024-08-08,2024-08-05,有限会社小山電気商会,,有限会社,京都府,南丹市,園部町本町１８番地,,26,213,6220013,,,2024-08-05,清算の結了等,,,2015-10-05,1,,,,,コヤマデンキショウカイ,0
1178,5130003008758,登記記録の閉鎖等,0,2024-08-08,2024-07-30,合同会社ＩＮＥＶＩＴ,,合同会社,京都府,京都市左京区,浄土寺西田町１００－１６ボンズカーサ銀閣寺道西１０２号室,,26,103,6068417,,,2024-07-30,清算の結了等,,,2023-06-02,1,,,,,イネビット,0
1191,5150002007321,登記記録の閉鎖等,0,2024-08-08,2024-08-06,えびすビル有限会社,,有限会社,奈良県,桜井市,大字外山１１６２番地,,29,206,6330007,,,2024-08-06,清算の結了等,,,2015-10-05,1,,,,,エビスビル,0
1195,5180001154442,登記記録の閉鎖等,0,2024-08-08,2024-07-29,とりこグループ株式会社,,株式会社,愛知県,日進市,赤池１丁目１１１４番地レイール赤池３１２,,23,230,4700125,,,2024-07-29,清算の結了等,,,2023-01-10,1,,,,,トリコグループ,0
1199,5180002069111,登記記録の閉鎖等,0,2024-08-08,2024-07-26,有限会社サカエ設備,,有限会社,愛知県,小牧市,田県町１７０番地,,23,219,4850004,,,2024-07-26,清算の結了等,,,2015-10-05,1,,,,,サカエセツビ,0
1207,5220001005021,登記記録の閉鎖等,0,2024-08-08,2024-07-30,日通北陸綜合メンテナンス株式会社,,株式会社,石川県,金沢市,専光寺町イ５４番地,,17,201,9200356,,,2024-07-30,清算の結了等,,,2015-10-05,1,,,,,ニッツウホクリクソウゴウメンテナンス,0
1208,5220002005821,登記記録の閉鎖等,0,2024-08-08,2024-07-29,有限会社村木建築,,有限会社,石川県,金沢市,大豆田本町ヌ２６番地,,17,201,9200047,,,2024-07-29,清算の結了等,,,2015-10-05,1,,,,,ムラキケンチク,0
1213,5240005010668,登記記録の閉鎖等,0,2024-08-08,2024-08-05,医療法人社団高橋会高橋眼科医院,,その他の設立登記法人,広島県,尾道市,土堂１丁目７番２３号,,34,205,7220035,,,2024-08-05,清算の結了等,,,2015-10-05,1,,,,,タカハシカイタカハシガンカイイン,0
1226,5320002011529,登記記録の閉鎖等,0,2024-08-08,2024-08-02,有限会社真愛企画,,有限会社,大分県,別府市,汐見町３番１７号,,44,202,8740918,,,2024-08-02,清算の結了等,,,2015-10-05,1,,,,,,0
1227,5340001004416,登記記録の閉鎖等,0,2024-08-08,2024-08-01,山形屋産業開発株式会社,,株式会社,鹿児島県,鹿児島市,中町９番８号,,46,201,8920827,,,2024-08-01,合併による解散等,4340001004417,令和６年８月１日鹿児島市卸本町５番地５山形屋商事株式会社（4340001004417）に合併し解散,2015-10-05,1,,,,,ヤマカタヤサンギョウカイハツ,0
1241,5380002011440,登記記録の閉鎖等,0,2024-08-08,2024-08-01,有限会社ハウスコーポレーション,,有限会社,福島県,郡山市,並木２丁目９番地１,,07,203,9638026,,,2024-08-01,清算の結了等,,,2015-10-05,1,,,,,ハウスコーポレーション,0
1243,5400001007552,登記記録の閉鎖等,0,2024-08-08,2024-07-26,株式会社加藤食品工業,,株式会社,岩手県,釜石市,中妻町２丁目１８番４号,,03,211,0260034,,,2024-07-26,清算の結了等,,,2015-10-05,1,,,,,,0
1244,5400001013419,登記記録の閉鎖等,0,2024-08-08,2024-07-24,株式会社梅田商店販売,,株式会社,岩手県,胆沢郡金ケ崎町,西根南羽沢７７番地の７,,03,381,0294503,,,2024-07-24,清算の結了等,,,2016-10-21,1,,,,,ウメダショウテンハンバイ,0
1246,5400501000767,登記記録の閉鎖等,0,2024-08-08,2024-07-26,株式会社むつわ商事,,株式会社,岩手県,一関市,萩荘字鍋倉２番地１,,03,209,0210902,,,2024-07-26,清算の結了等,,,2015-10-05,1,,,,,,0
1261,5500002003400,登記記録の閉鎖等,0,2024-08-08,2024-08-05,有限会社しまだ石油,,有限会社,愛媛県,松山市,南吉田町１７２５番地,,38,201,7918042,,,2024-08-05,清算の結了等,,,2015-10-05,1,,,,,シマダセキユ,0
1280,6010003035342,登記記録の閉鎖等,0,2024-08-08,2024-07-26,日光Ｐｌｕｓ１９合同会社５,,合同会社,東京都,千代田区,丸の内３丁目１番１号東京共同会計事務所内,,13,101,1000005,,,2024-07-26,清算の結了等,,,2021-07-19,1,,,,,ニッコウプラスナインティーンゴ,0
1294,6010505000777,登記記録の閉鎖等,0,2024-08-08,2024-07-29,ニューファッションジュエリー協同組合,,その他の設立登記法人,東京都,台東区,小島２丁目９番１０号,,13,106,1110056,,,2024-07-29,清算の結了等,,,2015-10-05,1,,,,,ニューファッションジュエリー,0
1297,6010605003424,登記記録の閉鎖等,0,2024-08-08,2024-07-18,ジーナイン・ジャパン・スリー特定目的会社,,その他の設立登記法人,東京都,港区,虎ノ門３丁目２２番１０－２０１号,,13,103,1050001,,,2024-07-18,清算の結了等,,,2017-07-24,1,,,,,ジーナインジャパンスリー,0
1321,6011602001156,登記記録の閉鎖等,0,2024-08-08,2024-08-01,有限会社ヴオーグ美容室,,有限会社,東京都,練馬区,石神井町３丁目２４番１１号,,13,120,1770041,,,2024-08-01,清算の結了等,,,2015-10-05,1,,,,,ヴォーグビヨウシツ,0
1327,6012401017137,登記記録の閉鎖等,0,2024-08-08,2024-08-07,株式会社ハシモト商会,,株式会社,東京都,小金井市,東町３丁目１５－４,,13,210,1840011,,,2024-08-07,清算の結了等,,,2015-10-05,1,,,,,ハシモトショウカイ,0
1328,6012701003407,登記記録の閉鎖等,0,2024-08-08,2024-07-31,貴志建設株式会社,,株式会社,東京都,東久留米市,下里１丁目１番１５号,,13,222,2030043,,,2024-07-31,清算の結了等,,,2015-10-05,1,,,,,キシケンセツ,0
1330,6012802001986,登記記録の閉鎖等,0,2024-08-08,2024-07-29,有限会社ファミリア商事,,有限会社,東京都,立川市,若葉町１丁目２４番地の３０の４３０６号,,13,202,1900001,,,2024-07-29,清算の結了等,,,2015-10-05,1,,,,,ファミリアショウジ,0
1350,6030002029228,登記記録の閉鎖等,0,2024-08-08,2024-08-02,有限会社小島電化センター,,有限会社,埼玉県,所沢市,大字下安松１番地の１,,11,208,3590024,,,2024-08-02,清算の結了等,,,2015-10-05,1,,,,,コジマデンカセンター,0
1351,6030002048698,登記記録の閉鎖等,0,2024-08-08,2024-07-31,有限会社黒田左官工業,,有限会社,埼玉県,三郷市,彦江１丁目２１５番地１,,11,237,3410058,,,2024-07-31,清算の結了等,,,2015-10-05,1,,,,,クロダサカンコウギョウ,0
1352,6030002070339,登記記録の閉鎖等,0,2024-08-08,2024-08-01,有限会社栗田材木店,00017036,有限会社,埼玉県,北葛飾郡杉戸町,倉松１丁目８番２４号,,11,464,3450034,,,2024-08-01,合併による解散等,6030001051835,令和６年８月１日埼玉県北葛飾郡杉戸町清地二丁目９番３０号株式会社共同設計社（6030001051835）に合併し解散,2015-10-05,1,,,,,クリタザイモクテン,0
1363,6080001020430,登記記録の閉鎖等,0,2024-08-08,2024-08-01,株式会社エルモ,,株式会社,静岡県,静岡市駿河区,西脇１１番地の１,,22,102,4228044,,,2024-08-01,合併による解散等,7080001019182,令和６年８月１日静岡市駿河区西脇１１番地の１株式会社ドラミカンパニー（7080001019182）に合併し解散,2015-10-05,1,,,,,エルモ,0
1370,6100002031705,登記記録の閉鎖等,0,2024-08-08,2024-08-02,有限会社ヒロ機工,,有限会社,長野県,岡谷市,長地鎮１丁目３番２３号,,20,204,3940087,,,2024-08-02,清算の結了等,,,2015-10-05,1,,,,,ヒロキコウ,0
1375,6120001199442,登記記録の閉鎖等,0,2024-08-08,2024-08-01,株式会社ユーエーブイ,,株式会社,大阪府,大阪市北区,堂島１丁目６番２０号,,27,127,5300003,,,2024-08-01,合併による解散等,1120001041154,令和６年８月１日大阪市北区堂島一丁目６番２０号株式会社アルフアー（1120001041154）に合併し解散,2016-07-08,1,,,,,ユーエーブイ,0
1396,6130001061493,登記記録の閉鎖等,0,2024-08-08,2024-08-01,株式会社トロイメライ,,株式会社,京都府,京都市西京区,桂御所町１番地１１２,,26,111,6158087,,,2024-08-01,合併による解散等,4130001060407,令和６年８月１日京都市西京区桂御所町１番地１１２株式会社アルペジオ（4130001060407）に合併し解散,2018-02-08,1,,,,,トロイメライ,0
1406,6140001101579,登記記録の閉鎖等,0,2024-08-08,2024-08-05,株式会社ワザアリコンサルティング,,株式会社,兵庫県,神戸市中央区,下山手通４丁目１２番３号,,28,110,6500011,,,2024-08-05,清算の結了等,,,2016-04-05,1,,,,,ワザアリコンサルティング,0
1423,6170001003608,登記記録の閉鎖等,0,2024-08-08,2024-08-07,株式会社和歌浦設備,,株式会社,和歌山県,和歌山市,次郎丸１３４番地の８,,30,201,6408444,,,2024-08-07,清算の結了等,,,2015-10-05,1,,,,,ワカウラセツビ,0
1426,6180001093524,登記記録の閉鎖等,0,2024-08-08,2024-08-01,株式会社オーエムエス,,株式会社,愛知県,大府市,北崎町島原５３番地の１,,23,223,4740001,,,2024-08-01,合併による解散等,8180001092425,令和６年８月１日愛知県大府市北崎町島原５３番地の１株式会社奥堀（8180001092425）に合併し解散,2015-10-05,1,,,,,オーエムエス,0
1436,6180002073954,登記記録の閉鎖等,0,2024-08-08,2024-07-29,有限会社ファーストモールド,,有限会社,愛知県,瀬戸市,共栄通５丁目７８番地,,23,204,4890809,,,2024-07-29,清算の結了等,,,2015-10-05,1,,,,,ファーストモールド,0
1445,6200001014353,登記記録の閉鎖等,0,2024-08-08,2024-08-05,明治牛乳大垣販売株式会社,,株式会社,岐阜県,大垣市,北切石町１丁目５４番地,,21,202,5030915,,,2024-08-05,清算の結了等,,,2015-10-05,1,,,,,メイジギュウニュウオオガキハンバイ,0
1450,6240001041220,登記記録の閉鎖等,0,2024-08-08,2024-08-05,株式会社アズフードジャパン,,株式会社,広島県,広島市中区,舟入幸町３番１－５０２号,,34,101,7300844,,,2024-08-05,清算の結了等,,,2015-10-05,1,,,,,アズフードジャパン,0
1473,6320003002385,登記記録の閉鎖等,0,2024-08-08,2024-08-05,合同会社オータスクン,,合同会社,大分県,大分市,大字田尻５３０番地の１６,,44,201,8701143,,,2024-08-05,清算の結了等,,,2016-03-09,1,,,,,,0
1474,6330002023159,登記記録の閉鎖等,0,2024-08-08,2024-07-31,有限会社松崎工業,00097848,有限会社,熊本県,阿蘇郡小国町,大字宮原２６３７番地８,,43,424,8692501,,,2024-07-31,清算の結了等,,,2015-10-05,1,,,,,マツザキコウギョウ,0
1476,6350001009553,登記記録の閉鎖等,0,2024-08-08,2024-08-01,株式会社日南山形屋,,株式会社,宮崎県,日南市,岩崎３丁目５番３号,,45,204,8870014,,,2024-08-01,合併による解散等,8350001001938,令和６年８月１日宮崎市橘通東三丁目４番１２号株式会社宮崎山形屋（8350001001938）に合併し解散,2015-10-05,1,,,,,ニチナンヤマカタヤ,0
1490,6430001080711,登記記録の閉鎖等,0,2024-08-08,2024-08-01,株式会社シーディング,,株式会社,北海道,小樽市,錦町９番３号,,01,203,0470039,,,2024-08-01,合併による解散等,7430001051455,令和６年８月１日北海道小樽市錦町９番１号株式会社ＦＯＯＤ　ＣＯＬＬＥＣＴ（7430001051455）に合併し解散,2020-01-21,1,,,,,シーディング,0
1491,6430001081651,登記記録の閉鎖等,0,2024-08-08,2024-08-01,株式会社Ｈ２,,株式会社,北海道,小樽市,錦町９番３号,,01,203,0470039,,,2024-08-01,合併による解散等,7430001051455,令和６年８月１日北海道小樽市錦町９番１号株式会社ＦＯＯＤ　ＣＯＬＬＥＣＴ（7430001051455）に合併し解散,2020-06-08,1,,,,,エイチツー,0
1494,6430002000387,登記記録の閉鎖等,0,2024-08-08,2024-08-05,アームテクノ有限会社,,有限会社,北海道,札幌市中央区,北一条東１１丁目２１番地,,01,101,0600031,,,2024-08-05,清算の結了等,,,2015-10-05,1,,,,,アームテクノ,0
1497,6430002055654,登記記録の閉鎖等,0,2024-08-08,2024-08-01,株式会社なると,,株式会社,北海道,小樽市,稲穂３丁目１６番１３号,,01,203,0470032,,,2024-08-01,合併による解散等,7430001051455,令和６年８月１日北海道小樽市錦町９番１号株式会社ＦＯＯＤ　ＣＯＬＬＥＣＴ（7430001051455）に合併し解散,2015-10-05,1,,,,,ナルト,0
1559,7012705000614,登記記録の閉鎖等,0,2024-08-08,2024-08-01,特定非営利活動法人たすけあいグループひまわり,,その他の設立登記法人,東京都,小平市,学園東町１丁目２番地１３ファラオ２０３,,13,211,1870043,,,2024-08-01,清算の結了等,,,2015-10-05,1,,,,,タスケアイグループヒマワリ,0
1561,7012803002082,登記記録の閉鎖等,0,2024-08-08,2024-08-01,ＴＯＨＯ合同会社,,合同会社,埼玉県,さいたま市大宮区,宮町５丁目７７番地３ＭＥＬＤＩＡ大宮北Ｂ３０５号,,11,103,3300802,,,2024-08-01,清算の結了等,,,2019-08-06,1,,,,,トウホウ,0
1563,7013302020419,登記記録の閉鎖等,0,2024-08-08,2024-07-30,有限会社イサ・コーポレーション,,有限会社,東京都,豊島区,西池袋３丁目５番６－２０４号,,13,116,1710021,,,2024-07-30,清算の結了等,,,2015-10-05,1,,,,,イサコーポレーション,0
1578,7021002029325,登記記録の閉鎖等,0,2024-08-08,2024-08-01,有限会社エーオー工油,,有限会社,神奈川県,相模原市緑区,千木良１１１番地２,,14,151,2520174,,,2024-08-01,清算の結了等,,,2015-10-05,1,,,,,エーオーコウユ,0
1589,7040001118731,登記記録の閉鎖等,0,2024-08-08,2024-07-12,株式会社ＯＰＡＬ,,株式会社,千葉県,柏市,北柏台１番地８,,12,217,2770836,,,2024-07-12,合併による解散等,4040001065712,令和６年７月１日千葉県柏市根戸北ノ内１７９７番地新柏倉庫株式会社（4040001065712）に合併し解散,2021-06-07,1,,,,,オパール,0
1599,7050002001646,登記記録の閉鎖等,0,2024-08-08,2024-08-05,有限会社清水自動車工業所,,有限会社,茨城県,水戸市,東台２丁目６番１７号,,08,201,3100818,,,2024-08-05,清算の結了等,,,2015-10-05,1,,,,,シミズジドウシャコウギョウショ,0
1602,7070002025536,登記記録の閉鎖等,0,2024-08-08,2024-08-05,有限会社ガスネット,,有限会社,群馬県,みどり市,大間々町大間々１７５７番地４,,10,212,3760101,,,2024-08-05,清算の結了等,,,2015-10-05,1,,,,,ガスネット,0
1607,7080002016550,登記記録の閉鎖等,0,2024-08-08,2024-07-25,有限会社志太青果,,有限会社,静岡県,焼津市,下江留５８５番地,,22,212,4210218,,,2024-07-25,清算の結了等,,,2015-10-05,1,,,,,シダセイカ,0
1611,7080402010566,登記記録の閉鎖等,0,2024-08-08,2024-08-02,有限会社イメージワン,,有限会社,静岡県,浜松市浜名区,新都田２丁目３２番２号,,22,139,4312103,,,2024-08-02,合併による解散等,3080401005257,令和６年８月１日静岡県浜松市浜名区新都田二丁目３２番２号株式会社ミガー（3080401005257）に合併し解散,2015-10-05,1,,,,,イメージワン,0
1612,7080402018048,登記記録の閉鎖等,0,2024-08-08,2024-07-30,杉本木材有限会社,,有限会社,静岡県,掛川市,大渕９９１８番地,,22,213,4371302,,,2024-07-30,清算の結了等,,,2015-10-05,1,,,,,スギモトモクザイ,0
1613,7080403004716,登記記録の閉鎖等,0,2024-08-08,2024-08-02,合同会社ＭＯＬＴＯ,,合同会社,静岡県,浜松市中央区,松城町２１４番地の１０,,22,138,4300947,,,2024-08-02,清算の結了等,,,2023-02-02,1,,,,,モルト,0
1618,7100003000352,登記記録の閉鎖等,0,2024-08-08,2024-07-22,合資会社ヘルス環境システム,,合資会社,長野県,長野市,皆神台９４番地,,20,201,3811223,,,2024-07-22,清算の結了等,,,2015-10-05,1,,,,,ヘルスカンキョウシステム,0
1621,7110001028865,登記記録の閉鎖等,0,2024-08-08,2024-08-01,株式会社レンタサービスベンリ,,株式会社,新潟県,南魚沼郡湯沢町,大字湯沢６７４番地１８,,15,461,9496101,,,2024-08-01,清算の結了等,,,2015-10-05,1,,,,,レンタサービスベンリ,0
1679,7240001046359,登記記録の閉鎖等,0,2024-08-08,2024-08-01,株式会社オノムラ,,株式会社,広島県,広島市安芸区,瀬野南１丁目３番２号,,34,107,7390314,,,2024-08-01,合併による解散等,8240001001998,令和６年５月３１日広島市安芸区瀬野一丁目２７番７号株式会社小野村組（8240001001998）に合併し解散,2015-10-05,1,,,,,オノムラ,0
1685,7250002009108,登記記録の閉鎖等,0,2024-08-08,2024-08-02,有限会社坂田園,,有限会社,山口県,下関市,大字永田郷２６４番地,,35,201,7596534,,,2024-08-02,清算の結了等,,,2015-10-05,1,,,,,サカタエン,0
1687,7260001035178,登記記録の閉鎖等,0,2024-08-08,2024-07-25,ＫＩＢＵＮ株式会社,,株式会社,岡山県,岡山市北区,富田１７３番地１エクセルメゾン岡山９０３号,,33,101,7000936,,,2024-07-25,清算の結了等,,,2021-02-05,1,,,,,キブン,0
1689,7260005005136,登記記録の閉鎖等,0,2024-08-08,2024-07-24,井原市商店会協同組合,,その他の設立登記法人,岡山県,井原市,七日市町１３番地,,33,207,7150014,,,2024-07-24,清算の結了等,,,2015-10-05,1,,,,,イバラシショウテンカイ,0
1698,7340001001287,登記記録の閉鎖等,0,2024-08-08,2024-08-01,金生産業株式会社,,株式会社,鹿児島県,鹿児島市,中町１０番１５号,,46,201,8920827,,,2024-08-01,合併による解散等,7340001004414,令和６年８月１日鹿児島市金生町３番１号株式会社山形屋（7340001004414）に合併し解散,2015-10-05,1,,,,,キンセイサンギョウ,0
1699,7340001004422,登記記録の閉鎖等,0,2024-08-08,2024-08-01,山形屋パーキング株式会社,,株式会社,鹿児島県,鹿児島市,中町１０番１５号,,46,201,8920827,,,2024-08-01,合併による解散等,7340001004414,令和６年８月１日鹿児島市金生町３番１号株式会社山形屋（7340001004414）に合併し解散,2015-10-05,1,,,,,ヤマカタヤパーキング,0
1700,7340001005148,登記記録の閉鎖等,0,2024-08-08,2024-08-01,株式会社ワイズ,,株式会社,鹿児島県,鹿児島市,金生町３番１号,,46,201,8920828,,,2024-08-01,合併による解散等,7340001004414,令和６年８月１日鹿児島市金生町３番１号株式会社山形屋（7340001004414）に合併し解散,2015-10-05,1,,,,,ワイズ,0
1705,7350001001939,登記記録の閉鎖等,0,2024-08-08,2024-08-01,宮崎山形屋食堂株式会社,,株式会社,宮崎県,宮崎市,橘通東３丁目４番１２号,,45,201,8800805,,,2024-08-01,合併による解散等,8350001001938,令和６年８月１日宮崎市橘通東三丁目４番１２号株式会社宮崎山形屋（8350001001938）に合併し解散,2015-10-05,1,,,,,ミヤザキヤマガタヤショクドウ,0
1733,7460102004004,登記記録の閉鎖等,0,2024-08-08,2024-08-02,有限会社富士酵素,,有限会社,北海道,帯広市,緑ケ丘８丁目１番地３５,,01,207,0800846,,,2024-08-02,清算の結了等,,,2015-10-05,1,,,,,フジコウソ,0
1738,7500003001748,登記記録の閉鎖等,0,2024-08-08,2024-08-02,ＥＬＭＯハルカンパニー合同会社,,合同会社,愛媛県,松山市,南江戸６丁目２番４－５号,,38,201,7900062,,,2024-08-02,清算の結了等,,,2016-01-06,1,,,,,エルモハルカンパニー,0
1747,8010003033047,登記記録の閉鎖等,0,2024-08-08,2024-07-25,あらた合同会社,,合同会社,東京都,中央区,東日本橋３丁目６－６パークビル６階,,13,102,1030004,,,2024-07-25,清算の結了等,,,2020-09-14,1,,,,,アラタ,0
1760,8010603007788,登記記録の閉鎖等,0,2024-08-08,2024-08-06,しがない合同会社,,合同会社,東京都,墨田区,吾妻橋１丁目１１番４－３０２号,,13,107,1300001,,,2024-08-06,清算の結了等,,,2019-05-09,1,,,,,シガナイ,0
1761,8010701019017,登記記録の閉鎖等,0,2024-08-08,2024-07-31,株式会社トリガー,,株式会社,東京都,品川区,西五反田４丁目２９番１２号,,13,109,1410031,,,2024-07-31,清算の結了等,,,2015-10-05,1,,,,,トリガー,0
1764,8010801026581,登記記録の閉鎖等,0,2024-08-08,2024-08-01,株式会社Ｔ．Ｏ．パートナーズ,,株式会社,東京都,大田区,鵜の木１丁目１２番１１－２０１号,,13,111,1460091,,,2024-08-01,清算の結了等,,,2016-04-12,1,,,,,ティーオーパートナーズ,0
1766,8010901006104,登記記録の閉鎖等,0,2024-08-08,2024-08-01,株式会社スズゼン,,株式会社,埼玉県,川口市,長蔵１丁目８－５－４０１,,11,203,3330807,,,2024-08-01,清算の結了等,,,2015-10-05,1,,,,,スズゼン,0
1782,8011301001645,登記記録の閉鎖等,0,2024-08-08,2024-08-02,勝間建設株式会社,,株式会社,東京都,杉並区,高円寺北２丁目１番１号,,13,115,1660002,,,2024-08-02,清算の結了等,,,2015-10-05,1,,,,,カツマケンセツ,0
1784,8011302002774,登記記録の閉鎖等,0,2024-08-08,2024-08-05,有限会社錦城,,有限会社,東京都,杉並区,善福寺２丁目１２番５号,,13,115,1670041,,,2024-08-05,清算の結了等,,,2015-10-05,1,,,,,,0
1790,8011601004637,登記記録の閉鎖等,0,2024-08-08,2024-07-31,東洋ローレン株式会社,,株式会社,東京都,練馬区,石神井台２丁目１６番１０号,,13,120,1770045,,,2024-07-31,清算の結了等,,,2015-10-05,1,,,,,トウヨウローレン,0
1798,8012402015344,登記記録の閉鎖等,0,2024-08-08,2024-07-31,有限会社ＩＮＳＩＤＥ,,有限会社,東京都,国分寺市,本町２丁目１０番４号,,13,214,1850012,,,2024-07-31,清算の結了等,,,2015-10-05,1,,,,,インサイド,0
1804,8012702003206,登記記録の閉鎖等,0,2024-08-08,2024-08-01,有限会社トーヨーネジ,,有限会社,東京都,東村山市,恩多町３丁目１１番地１２,,13,213,1890011,,,2024-08-01,清算の結了等,,,2015-10-05,1,,,,,トーヨーネジ,0
1817,8030001127204,登記記録の閉鎖等,0,2024-08-08,2024-07-31,株式会社世大,,株式会社,埼玉県,ふじみ野市,鶴ケ岡３丁目１番４１号,,11,245,3560045,,,2024-07-31,清算の結了等,,,2018-09-04,1,,,,,セイダイ,0
1818,8030001129398,登記記録の閉鎖等,0,2024-08-08,2024-08-01,渡辺電気株式会社,,株式会社,埼玉県,八潮市,大字大曽根６１０番地１,,11,234,3400834,,,2024-08-01,清算の結了等,,,2019-02-05,1,,,,,ワタナベデンキ,0
1824,8030005020405,登記記録の閉鎖等,0,2024-08-08,2024-08-01,特定非営利活動法人プロテクトチルドレン,,その他の設立登記法人,埼玉県,川口市,戸塚東１丁目１２番２３号－２０２,,11,203,3330802,,,2024-08-01,清算の結了等,,,2021-06-03,1,,,,,プロテクトチルドレン,0
1845,8080401024731,登記記録の閉鎖等,0,2024-08-08,2024-08-06,株式会社マック,,株式会社,静岡県,浜松市中央区,和田町３２１番地の１,,22,138,4350016,,,2024-08-06,合併による解散等,2080001012860,令和６年７月２９日静岡市清水区七ツ新屋５６３番地の１株式会社モス（2080001012860）に合併し解散,2020-12-14,1,,,,,マック,0
1850,8100001024063,登記記録の閉鎖等,0,2024-08-08,2024-07-16,株式会社Ｍ２ｔ,,株式会社,長野県,東筑摩郡筑北村,坂北１５７４番地１,,20,452,3997601,,,2024-07-16,清算の結了等,,,2015-10-05,1,,,,,エムツウティー,0
1851,8100001026910,登記記録の閉鎖等,0,2024-08-08,2024-08-02,株式会社エーコミュニケーションズ,,株式会社,長野県,松本市,大手３丁目３－９ＮＴＴ東日本大名町ビル２Ｆ,,20,202,3900874,,,2024-08-02,清算の結了等,,,2015-10-05,1,,,,,エーコミュニケーションズ,0
1852,8100001028535,登記記録の閉鎖等,0,2024-08-08,2024-08-06,株式会社北原商事,,株式会社,長野県,長野市,大字高田９０４番地１,,20,201,3810034,,,2024-08-06,清算の結了等,,,2015-10-05,1,,,,,キタハラショウジ,0
1855,8110002008361,登記記録の閉鎖等,0,2024-08-08,2024-08-01,有限会社横越マルフネ,,有限会社,新潟県,新潟市江南区,横越川根町３丁目４番２１号,,15,104,9500211,,,2024-08-01,清算の結了等,,,2015-10-05,1,,,,,ヨコゴシマルフネ,0
1856,8110002011365,登記記録の閉鎖等,0,2024-08-08,2024-08-01,有限会社大栄興業,,有限会社,新潟県,新潟市北区,川西２丁目１番５号,,15,101,9503341,,,2024-08-01,清算の結了等,,,2015-10-05,1,,,,,ダイエイコウギョウ,0
1882,8130001011959,登記記録の閉鎖等,0,2024-08-08,2024-07-22,ヤサカ交通株式会社,,株式会社,京都府,京都市南区,吉祥院這登西町４３番地,00035395,26,107,6018351,,,2024-07-22,合併による解散等,7130001019111,令和６年７月２１日京都市下京区中堂寺櫛笥町１番地彌榮自動車株式会社（7130001019111）に合併し解散,2015-10-05,1,,,,,ヤサカコウツウ,0
1883,8130001029522,登記記録の閉鎖等,0,2024-08-08,2024-08-05,株式会社新撰文具,00036106,株式会社,京都府,京都市南区,西九条森本町５５番地,,26,107,6018444,,,2024-08-05,清算の結了等,,,2015-10-05,1,,,,,シンセンブング,0
1885,8130002027327,登記記録の閉鎖等,0,2024-08-08,2024-08-02,有限会社三好鉄工所,,有限会社,京都府,久世郡久御山町,野村村東１４８番地の１,,26,322,6130023,,,2024-08-02,清算の結了等,,,2015-10-05,1,,,,,ミヨシテッコウショ,0
1893,8140003015552,登記記録の閉鎖等,0,2024-08-08,2024-08-05,合同会社ＣＯＳＭＯ　ＡＳＳＩＳＴ,,合同会社,兵庫県,姫路市,安田４丁目４２－９,,28,201,6700955,,,2024-08-05,清算の結了等,,,2020-10-27,1,,,,,コスモアシスト,0
1894,8140005004256,登記記録の閉鎖等,0,2024-08-08,2024-08-07,特定非営利活動法人こうべ生涯学習支援ネット,,その他の設立登記法人,兵庫県,神戸市中央区,吾妻通４丁目１番６号,,28,110,6510076,,,2024-08-07,清算の結了等,,,2015-10-05,1,,,,,コウベショウガイガクシュウシエンネット,0
1919,8180302020662,登記記録の閉鎖等,0,2024-08-08,2024-07-31,有限会社若林新聞店,,有限会社,愛知県,高浜市,八幡町５丁目９番地５,,23,227,4441302,,,2024-07-31,清算の結了等,,,2015-10-05,1,,,,,ワカバヤシシンブンテン,0
1922,8200001026603,登記記録の閉鎖等,0,2024-08-08,2024-08-05,はちしんビジネスサービス株式会社,,株式会社,岐阜県,郡上市,八幡町新町９６１番地,,21,219,5014226,,,2024-08-05,清算の結了等,,,2015-10-05,1,,,,,ハチシンビジネスサービス,0
1923,8200002007255,登記記録の閉鎖等,0,2024-08-08,2024-08-05,有限会社岐阜医事研究所,,有限会社,岐阜県,各務原市,鵜沼各務原町３丁目２４２番地,,21,213,5090141,,,2024-08-05,清算の結了等,,,2015-10-05,1,,,,,ギフイジケンキュウショ,0
1931,8230002011691,登記記録の閉鎖等,0,2024-08-08,2024-08-05,有限会社長浜工作所,,有限会社,富山県,高岡市,石丸７０８番地の１,,16,202,9340095,,,2024-08-05,清算の結了等,,,2015-10-05,1,,,,,ナガハマコウサクショ,0
1952,8340001002887,登記記録の閉鎖等,0,2024-08-08,2024-08-01,株式会社トウェンティ・ワン,,株式会社,鹿児島県,鹿児島市,金生町３番１号,,46,201,8920828,,,2024-08-01,合併による解散等,7340001004414,令和６年８月１日鹿児島市金生町３番１号株式会社山形屋（7340001004414）に合併し解散,2015-10-05,1,,,,,トウェンティワン,0
1958,8350002008073,登記記録の閉鎖等,0,2024-08-08,2024-08-01,有限会社ウェルフェア,,有限会社,宮崎県,宮崎市,佐土原町下田島１２３６８番地,,45,201,8800211,,,2024-08-01,合併による解散等,4350002004927,令和６年８月１日宮崎市佐土原町下田島２０１１３番地２６株式会社メディカルプログレス（4350002004927）に合併し解散,2015-10-05,1,,,,,ウェルフェア,0
1962,8350005005290,登記記録の閉鎖等,0,2024-08-08,2024-08-02,西都児湯素材生産事業協同組合,,その他の設立登記法人,宮崎県,西都市,大字下三財３３０８番地,,45,208,8810113,,,2024-08-02,清算の結了等,,,2015-10-05,1,,,,,,0
1968,8370402001948,登記記録の閉鎖等,0,2024-08-08,2024-07-22,有限会社但木建設,,有限会社,宮城県,登米市,迫町新田字品ノ浦７３番地１,,04,212,9894601,,,2024-07-22,清算の結了等,,,2015-10-05,1,,,,,,0
1971,8430001048814,登記記録の閉鎖等,0,2024-08-08,2024-08-02,株式会社コスメテック,,株式会社,北海道,芦別市,黄金町７３１番地,,01,216,0750252,,,2024-08-02,清算の結了等,,,2015-10-05,1,,,,,コスメテック,0
1972,8430001068829,登記記録の閉鎖等,0,2024-08-08,2024-08-01,株式会社ＤＯＬＣＥ　ＰＬＡＮＮＩＮＧ,,株式会社,北海道,小樽市,錦町９番３号,,01,203,0470039,,,2024-08-01,合併による解散等,7430001051455,令和６年８月１日北海道小樽市錦町９番１号株式会社ＦＯＯＤ　ＣＯＬＬＥＣＴ（7430001051455）に合併し解散,2015-10-05,1,,,,,ドルスプランニング,0
1973,8430001082796,登記記録の閉鎖等,0,2024-08-08,2024-08-01,株式会社フードジャパン,,株式会社,北海道,小樽市,錦町９番３号,,01,203,0470039,,,2024-08-01,合併による解散等,7430001051455,令和６年８月１日北海道小樽市錦町９番１号株式会社ＦＯＯＤ　ＣＯＬＬＥＣＴ（7430001051455）に合併し解散,2020-11-24,1,,,,,フードジャパン,0
1975,8430001086120,登記記録の閉鎖等,0,2024-08-08,2024-08-02,株式会社栄孝の郷,,株式会社,北海道,札幌市北区,篠路町上篠路１１０番地１１２,,01,102,0028052,,,2024-08-02,清算の結了等,,,2022-03-08,1,,,,,エイコウノサト,0
1978,8450002005432,登記記録の閉鎖等,0,2024-08-08,2024-08-05,有限会社丸辻神居シグナス,00090732,有限会社,北海道,旭川市,神居五条１４丁目２番１９号,,01,204,0708015,,,2024-08-05,清算の結了等,,,2015-10-05,1,,,,,マルツジカムイシグナス,0
2001,9010402030825,登記記録の閉鎖等,0,2024-08-08,2024-07-26,有限会社エイチケイディーエックス,,有限会社,東京都,千代田区,内幸町２丁目１番６号,,13,101,1000011,,,2024-07-26,清算の結了等,,,2015-10-05,1,,,,,エイチケイディーエックス,0
2008,9010601032845,登記記録の閉鎖等,0,2024-08-08,2024-08-07,株式会社馬場経営コンサルタント事務所,,株式会社,東京都,墨田区,東向島５丁目１３番１３号,,13,107,1310032,,,2024-08-07,清算の結了等,,,2015-10-05,1,,,,,ババケイエイコンサルタントジムショ,0
2009,9010601056844,登記記録の閉鎖等,0,2024-08-08,2024-08-07,北斎麦酒工房株式会社,,株式会社,東京都,江東区,海辺２３番１５号,,13,108,1350012,,,2024-08-07,清算の結了等,,,2020-02-05,1,,,,,ホクサイビールコウボウ,0
2016,9010901045142,登記記録の閉鎖等,0,2024-08-08,2024-08-01,Ｒ１Ｓｙｓｔｅｍｓ株式会社,,株式会社,東京都,世田谷区,新町１丁目９番２０号,,13,112,1540014,,,2024-08-01,清算の結了等,,,2019-11-06,1,,,,,アールワンシステムズ,0
2047,9012702002859,登記記録の閉鎖等,0,2024-08-08,2024-07-31,有限会社シバタ宝飾,,有限会社,東京都,東村山市,萩山町１丁目３番地１１,,13,213,1890012,,,2024-07-31,清算の結了等,,,2015-10-05,1,,,,,シバタホウショク,0
2052,9020001010905,登記記録の閉鎖等,0,2024-08-08,2024-07-19,株式会社アルブルベール,,株式会社,神奈川県,横浜市青葉区,市ケ尾町１１７１番地２,,14,117,2250024,,,2024-07-19,清算の結了等,,,2015-10-05,1,,,,,アルブルベール,0
2066,9030001145766,登記記録の閉鎖等,0,2024-08-08,2024-08-01,株式会社ホヌリード,,株式会社,埼玉県,所沢市,三ケ島１丁目１６９番地の１,,11,208,3591164,,,2024-08-01,清算の結了等,,,2021-12-10,1,,,,,ホヌリード,0
2070,9030002051063,登記記録の閉鎖等,0,2024-08-08,2024-08-01,有限会社シンエイラベル印刷,,有限会社,埼玉県,八潮市,大字浮塚８０１番地３,,11,234,3400835,,,2024-08-01,清算の結了等,,,2015-10-05,1,,,,,シンエイラベルインサツ,0
2090,9040002070178,登記記録の閉鎖等,0,2024-08-08,2024-07-26,有限会社貴森工業,,有限会社,千葉県,君津市,大和田２丁目２番地２２,,12,225,2991146,,,2024-07-26,清算の結了等,,,2015-10-05,1,,,,,,0
2093,9040003013210,登記記録の閉鎖等,0,2024-08-08,2024-07-25,合同会社Ｓｏｕｎｄ　Ｎｏｄｅ,,合同会社,千葉県,市川市,稲荷木２丁目１８番２１号（森ハイム１０１号）,,12,203,2720024,,,2024-07-25,清算の結了等,,,2019-04-10,1,,,,,サウンドノード,0
2096,9060001010471,登記記録の閉鎖等,0,2024-08-08,2024-07-25,株式会社スズキヤ,,株式会社,栃木県,鹿沼市,栃窪１１７１番地３,,09,205,3220001,,,2024-07-25,清算の結了等,,,2015-10-05,1,,,,,スズキヤ,0
2102,9080405005157,登記記録の閉鎖等,0,2024-08-08,2024-08-02,特定非営利活動法人おまえざきソフトボール・野球教室,,その他の設立登記法人,静岡県,御前崎市,池新田３１２９番地,,22,223,4371612,,,2024-08-02,清算の結了等,,,2015-10-05,1,,,,,オマエザキソフトボールヤキュウキョウシツ,0
2122,9120001251852,登記記録の閉鎖等,0,2024-08-08,2024-08-01,壹訊株式会社,,株式会社,大阪府,大阪市住之江区,西加賀屋４丁目３－２７フォンタル１－３０３号室,,27,125,5590016,,,2024-08-01,清算の結了等,,,2023-01-24,1,,,,,イチジン,0
2152,9140001094861,登記記録の閉鎖等,0,2024-08-08,2024-08-05,株式会社ＨＡＲＩＩ,,株式会社,兵庫県,芦屋市,翠ケ丘町１２番７－４１４号,,28,206,6590014,,,2024-08-05,清算の結了等,,,2015-10-05,1,,,,,,0
2154,9140001117457,登記記録の閉鎖等,0,2024-08-08,2024-08-01,ゴート・ガーデニングクルー株式会社,,株式会社,兵庫県,三木市,福井２１７８番１号,,28,215,6730433,,,2024-08-01,清算の結了等,,,2020-05-28,1,,,,,ゴートガーデニングクルー,0
2157,9140002025279,登記記録の閉鎖等,0,2024-08-08,2024-08-05,有限会社嬉野Ｒ＆Ｄサポート,,有限会社,兵庫県,神戸市須磨区,横尾２丁目３２番地の１３,,28,107,6540131,,,2024-08-05,清算の結了等,,,2015-10-05,1,,,,,ウレシノアールアンドデーサポート,0
2163,9180001097480,登記記録の閉鎖等,0,2024-08-08,2024-07-29,浅井食品株式会社,,株式会社,愛知県,愛西市,元赤目町川並２４８番地の３,,23,232,4968045,,,2024-07-29,清算の結了等,,,2015-10-05,1,,,,,アサイショクヒン,0
2179,9220003002450,登記記録の閉鎖等,0,2024-08-08,2024-07-30,Ｅ＆Ｌ合同会社,,合同会社,石川県,金沢市,窪５丁目６０９番地,,17,201,9218151,,,2024-07-30,清算の結了等,,,2018-07-04,1,,,,,イーアンドエル,0
2185,9270003000334,登記記録の閉鎖等,0,2024-08-08,2024-08-05,合同会社デイサービスめぐみ,,合同会社,鳥取県,米子市,目久美町３８番地６,,31,202,6830035,,,2024-08-05,清算の結了等,,,2015-10-05,1,,,,,デイサービスメグミ,0
2200,9320002017893,登記記録の閉鎖等,0,2024-08-08,2024-08-01,有限会社三和薬局,,有限会社,大分県,竹田市,大字会々２３２９番地,,44,208,8780011,,,2024-08-01,清算の結了等,,,2015-10-05,1,,,,,,0
