sequenceNumber,corporateNumber,process,correct,updateDate,changeDate,name,nameImageId,kind,prefectureName,cityName,streetNumber,addressImageId,prefectureCode,cityCode,postCode,addressOutside,addressOutsideImageId,closeDate,closeCause,successorCorporateNumber,changeCause,assignmentDate,latest,enName,enPrefectureName,enCityName,enAddressOutside,furigana,hihyoji
14,1010001228019,新規,0,2022-07-13,2022-07-13,株式会社２３ｐｌｕｓ,,株式会社,東京都,中央区,東日本橋２丁目２８番４号日本橋ＣＥＴビル２階,,13,102,1030004,,,,,,,2022-07-13,1,,,,,ニジュウサンプラス,0
15,1010001228035,新規,0,2022-07-13,2022-07-13,株式会社ｋａｅｒｕｂａ,,株式会社,東京都,中央区,日本橋小網町３－１８スターコート日本橋１０１号,,13,102,1030016,,,,,,,2022-07-13,1,,,,,カエルバ,0
16,1010001228068,新規,0,2022-07-13,2022-07-13,株式会社ＧＯＬＤＩＬＯＣＫＳ,,株式会社,東京都,中央区,日本橋３丁目２番１４号新槇町ビル別館第一１階,,13,102,1030027,,,,,,,2022-07-13,1,,,,,ゴルディロックス,0
22,1010003038143,新規,0,2022-07-13,2022-07-13,合同会社Ｒｅｓｉｌｉｅｎｃｅ　ＸＩ,,合同会社,東京都,中央区,銀座１丁目６番１１号土志田ビルディング３Ｆ,,13,102,1040061,,,,,,,2022-07-13,1,,,,,レジリエンスイレブン,0
29,1010101015250,新規,0,2022-07-13,2022-07-13,株式会社アメイズ,,株式会社,東京都,八王子市,中野上町２丁目１８－５,,13,201,1920041,,,,,,,2022-07-13,1,,,,,,0
30,1010103001950,新規,0,2022-07-13,2022-07-13,合同会社ＫＮＴ,,合同会社,東京都,八王子市,別所１丁目５３番地２・３－８０２,,13,201,1920363,,,,,,,2022-07-13,1,,,,,ケーエヌティー,0
40,1010401168392,新規,0,2022-07-13,2022-07-13,株式会社ＳＰＥＲＥＬＬＡ,,株式会社,東京都,港区,北青山２丁目７番２０号第二猪瀬ビル２階,,13,103,1070061,,,,,,,2022-07-13,1,,,,,スペレッラ,0
41,1010401168426,新規,0,2022-07-13,2022-07-13,株式会社アニマルライツ,,株式会社,東京都,港区,浜松町２丁目２番１５号浜松町ダイヤビル２Ｆ,,13,103,1050013,,,,,,,2022-07-13,1,,,,,アニマルライツ,0
42,1010401168517,新規,0,2022-07-13,2022-07-13,エテルナオーガニックジャパン株式会社,,株式会社,東京都,港区,虎ノ門１丁目１６番９号,,13,103,1050001,,,,,,,2022-07-13,1,,,,,エテルナオーガニックジャパン,0
45,1010601061422,新規,0,2022-07-13,2022-07-13,Ｔｈｉｓ　ｉｓ　ｉｔ株式会社,,株式会社,東京都,墨田区,業平１丁目１０－８－２０１泰華マンション２Ｆ,,13,107,1300002,,,,,,,2022-07-13,1,,,,,ディスイズイット,0
46,1010601061496,新規,0,2022-07-13,2022-07-13,株式会社ＳＯＲＯ,,株式会社,東京都,江東区,枝川３丁目９番１０号,,13,108,1350051,,,,,,,2022-07-13,1,,,,,ソロ,0
47,1010603009642,新規,0,2022-07-13,2022-07-13,リオン合同会社,,合同会社,東京都,江東区,大島３丁目８番７－２１０号,,13,108,1360072,,,,,,,2022-07-13,1,,,,,リオン,0
62,1011001148611,新規,0,2022-07-13,2022-07-13,株式会社ｈｕｒｍｔｈ　ａｉｒ,,株式会社,東京都,渋谷区,神宮前１丁目１９－１１はらじゅくアッシュ６階ｊｏｂＬａｂ原宿,,13,113,1500001,,,,,,,2022-07-13,1,,,,,ハームスエアー,0
76,1011101099498,新規,0,2022-07-13,2022-07-13,株式会社キャクショク,,株式会社,東京都,新宿区,西新宿６丁目１０番１号日土地西新宿ビル８階,,13,104,1600023,,,,,,,2022-07-13,1,,,,,キャクショク,0
81,1011201023944,新規,0,2022-07-13,2022-07-13,クラウドリンクス株式会社,,株式会社,東京都,中野区,江古田１丁目６番６号グランドメゾン哲学堂公園２０１,,13,114,1650022,,,,,,,2022-07-13,1,,,,,クラウドリンクス,0
82,1011201023952,新規,0,2022-07-13,2022-07-13,株式会社１２０,,株式会社,東京都,中野区,弥生町１丁目２番９号レジデンス相原２０１,,13,114,1640013,,,,,,,2022-07-13,1,,,,,イチニゼロ,0
83,1011301027936,新規,0,2022-07-13,2022-07-13,株式会社ピアノと銘木,,株式会社,東京都,杉並区,上高井戸１丁目２７番１３号,,13,115,1680074,,,,,,,2022-07-13,1,,,,,ピアノトメイボク,0
84,1011301027944,新規,0,2022-07-13,2022-07-13,株式会社ＳＴＵＮＮＥＲ,,株式会社,東京都,杉並区,宮前４丁目９番２６号,,13,115,1680081,,,,,,,2022-07-13,1,,,,,スタナー,0
92,1011701025457,新規,0,2022-07-13,2022-07-13,株式会社ぷろぐれす,,株式会社,東京都,江戸川区,中葛西５丁目２０番２１－２０４号,,13,123,1340083,,,,,,,2022-07-13,1,,,,,プログレス,0
97,1012301013050,新規,0,2022-07-13,2022-07-13,株式会社Ｂｉ．ｃｌｅａｎ,,株式会社,東京都,町田市,玉川学園７丁目２５番７号４０３,,13,209,1940041,,,,,,,2022-07-13,1,,,,,ビクリーン,0
107,1013301049373,新規,0,2022-07-13,2022-07-13,株式会社アクア,,株式会社,東京都,豊島区,池袋２丁目５１番１６－３０１号,,13,116,1710014,,,,,,,2022-07-13,1,,,,,アクア,0
113,1020001147358,新規,0,2022-07-13,2022-07-13,株式会社エフ・オー・フードサービス,,株式会社,神奈川県,川崎市川崎区,南町１６番地１朝日生命川崎ビル９Ｆ,,14,131,2100015,,,,,,,2022-07-13,1,,,,,エフオーフードサービス,0
114,1020001147374,新規,0,2022-07-13,2022-07-13,株式会社メディカルパートナー,,株式会社,神奈川県,横浜市鶴見区,駒岡４丁目３６－５６,,14,101,2300071,,,,,,,2022-07-13,1,,,,,メディカルパートナー,0
116,1020003022113,新規,0,2022-07-13,2022-07-13,はじめの半歩合同会社,,合同会社,神奈川県,横浜市磯子区,杉田８丁目１７－３,,14,107,2350033,,,,,,,2022-07-13,1,,,,,ハジメノハンポ,0
118,1021001076522,新規,0,2022-07-13,2022-07-13,株式会社ブルーム,,株式会社,神奈川県,三浦郡葉山町,堀内３７２番地の１,,14,301,2400112,,,,,,,2022-07-13,1,,,,,ブルーム,0
122,1021003011931,新規,0,2022-07-13,2022-07-13,合同会社Ｊｅｗｅｌｓ,,合同会社,神奈川県,厚木市,旭町１丁目２９番１３号,,14,212,2430014,,,,,,,2022-07-13,1,,,,,ジュウェルズ,0
124,1021005012564,新規,0,2022-07-13,2022-07-13,一般社団法人橋本・めぐり報,,その他の設立登記法人,神奈川県,相模原市緑区,橋本６丁目２番２－１４０５号,,14,151,2520143,,,,,,,2022-07-13,1,,,,,ハシモトメグリホウ,0
127,1030001149139,新規,0,2022-07-13,2022-07-13,株式会社ＨＫ２,,株式会社,埼玉県,所沢市,日吉町１０番１９号中村ビル中２階Ｍ２号室,,11,208,3591123,,,,,,,2022-07-13,1,,,,,エイチケーツー,0
128,1030001149221,新規,0,2022-07-13,2022-07-13,株式会社スリーエス,,株式会社,埼玉県,蓮田市,藤ノ木１丁目１５５番地,,11,238,3490105,,,,,,,2022-07-13,1,,,,,スリーエス,0
146,1040001124231,新規,0,2022-07-13,2022-07-13,栄輝株式会社,,株式会社,千葉県,市川市,大野町２丁目６２８番地５,,12,203,2720805,,,,,,,2022-07-13,1,,,,,エイキ,0
147,1040001124272,新規,0,2022-07-13,2022-07-13,株式会社ＰＲＩＭＥ　ＯＨ,,株式会社,千葉県,鎌ケ谷市,新鎌ケ谷３丁目６番５号,,12,224,2730107,,,,,,,2022-07-13,1,,,,,プライムオー,0
148,1040003020429,新規,0,2022-07-13,2022-07-13,合同会社カエルノテ,,合同会社,千葉県,柏市,東中新宿３丁目２７番１３号,,12,217,2770061,,,,,,,2022-07-13,1,,,,,カエルノテ,0
157,1060005009996,新規,0,2022-07-13,2022-07-13,一般社団法人とちぎよりそいサポート協会,,その他の設立登記法人,栃木県,栃木市,都賀町家中５９３２番地１３,,09,203,3280111,,,,,,,2022-07-13,1,,,,,トチギヨリソイサポートキョウカイ,0
159,1070001039435,新規,0,2022-07-13,2022-07-13,株式会社颯電,,株式会社,群馬県,藤岡市,立石１０３３番地３,,10,209,3750002,,,,,,,2022-07-13,1,,,,,リュウデン,0
163,1080001025087,新規,0,2022-07-13,2022-07-13,Ｍａｔｓｕｕｒａ株式会社,,株式会社,静岡県,焼津市,坂本８番地の１,,22,212,4250004,,,,,,,2022-07-13,1,,,,,マツウラ,0
183,1120001247263,新規,0,2022-07-13,2022-07-13,株式会社ＪＳ,,株式会社,大阪府,大阪市北区,本庄東１丁目２３番２号,,27,127,5310074,,,,,,,2022-07-13,1,,,,,ジェイエス,0
189,1120003022029,新規,0,2022-07-13,2022-07-13,合同会社ｉｒｏｒｉ,,合同会社,大阪府,大阪市天王寺区,国分町２―１２レジデンスハイビレッジ２０２,,27,109,5430044,,,,,,,2022-07-13,1,,,,,イロリ,0
196,1130001072149,新規,0,2022-07-13,2022-07-13,株式会社ＳＨｉＮ・ＳＨｉＮ,,株式会社,京都府,京都市左京区,下鴨宮崎町２７番地１Ｔ’ｓスクエア下鴨２０１号室,,26,103,6060802,,,,,,,2022-07-13,1,,,,,シンシン,0
197,1130003008051,新規,0,2022-07-13,2022-07-13,合同会社伊原商店,,合同会社,京都府,京都市右京区,西京極中溝町２－５２,,26,108,6150811,,,,,,,2022-07-13,1,,,,,イハラショウテン,0
198,1130003008076,新規,0,2022-07-13,2022-07-13,合同会社ＦｅｅｌＡｌｉｖｅ,,合同会社,京都府,京都市北区,大宮南林町９番地,,26,101,6038403,,,,,,,2022-07-13,1,,,,,フィールアライブ,0
206,1150001025690,新規,0,2022-07-13,2022-07-13,株式会社Ｓｈａｆｔ　ＣＯＬＯＲ,,株式会社,奈良県,橿原市,曽我町９２８番地の２,,29,205,6340831,,,,,,,2022-07-13,1,,,,,シャフトカラー,0
208,1160001024361,新規,0,2022-07-13,2022-07-13,より道ＨＯＵＳＥ株式会社,,株式会社,滋賀県,近江八幡市,仲屋町中２１番地,,25,204,5230862,,,,,,,2022-07-13,1,,,,,ヨリミチハウス,0
214,1180001152219,新規,0,2022-07-13,2022-07-13,株式会社リアル,,株式会社,愛知県,日進市,東山１丁目１９０９番地３,,23,230,4700116,,,,,,,2022-07-13,1,,,,,リアル,0
217,1180301036435,新規,0,2022-07-13,2022-07-13,萬興業株式会社,,株式会社,愛知県,岡崎市,鉢地町字ミノハ３６,,23,202,4443512,,,,,,,2022-07-13,1,,,,,マンコウギョウ,0
219,1180305009362,新規,0,2022-07-13,2022-07-13,特定非営利活動法人ベーテルの街,,その他の設立登記法人,愛知県,豊橋市,西幸町字浜池２４２番地６,,23,201,4418113,,,,,,,2022-07-13,1,,,,,ベーテルノマチ,0
221,1190001029597,新規,0,2022-07-13,2022-07-13,株式会社Ｗａｒａｕ,,株式会社,三重県,三重郡川越町,大字亀崎新田１６番地４３,,24,344,5108114,,,,,,,2022-07-13,1,,,,,ワラウ,0
222,1190001029622,新規,0,2022-07-13,2022-07-13,株式会社Ｍｉｒａｉ　Ｅｓｐｏｒｔ,,株式会社,三重県,松阪市,光町１０４９番地６,,24,204,5150051,,,,,,,2022-07-13,1,,,,,ミライエスポート,0
223,1190003004037,新規,0,2022-07-13,2022-07-13,合同会社ｈアッカ,,合同会社,三重県,名張市,希央台４番町８０番地,,24,208,5180774,,,,,,,2022-07-13,1,,,,,アッカ,0
229,1210001018993,新規,0,2022-07-13,2022-07-13,サンバイロ敦賀株式会社,,株式会社,福井県,敦賀市,櫛川３４号２２番地,,18,202,9140821,,,,,,,2022-07-13,1,,,,,サンバイロツルガ,0
230,1220003003324,新規,0,2022-07-13,2022-07-13,Ｅｒｉｎｇｏ　Ｃｒｙｐｔｏ合同会社,,合同会社,石川県,金沢市,増泉４丁目１番１０号プレミア増泉レジデンス７０１,,17,201,9218025,,,,,,,2022-07-13,1,,,,,エリンゴクリプト,0
231,1230001019445,新規,0,2022-07-13,2022-07-13,株式会社Ｋａｎｏｎ,,株式会社,富山県,富山市,中川原１９４番地１,,16,201,9398015,,,,,,,2022-07-13,1,,,,,カノン,0
232,1230003001888,新規,0,2022-07-13,2022-07-13,合同会社Ｐａｓｓｉｏｎｅ,,合同会社,富山県,砺波市,幸町８番４号,,16,208,9391386,,,,,,,2022-07-13,1,,,,,パッショーネ,0
239,1240001060068,新規,0,2022-07-13,2022-07-13,株式会社ＩＣＫ,,株式会社,広島県,広島市中区,光南１丁目１－２３,,34,101,7300825,,,,,,,2022-07-13,1,,,,,アイシーケー,0
243,1250001019658,新規,0,2022-07-13,2022-07-13,株式会社ＹＡＭＡＫＥＮ,,株式会社,山口県,玖珂郡和木町,和木１丁目４番１５号ハウスフロイデＢ１０２,,35,321,7400061,,,,,,,2022-07-13,1,,,,,ヤマケン,0
249,1260003003980,新規,0,2022-07-13,2022-07-13,合同会社クルー,,合同会社,岡山県,岡山市南区,古新田１２３３番地２,,33,104,7010203,,,,,,,2022-07-13,1,,,,,クルー,0
252,1270003001422,新規,0,2022-07-13,2022-07-13,合同会社Ｌｉｍ,,合同会社,鳥取県,米子市,上福原３丁目１７番１９号,,31,202,6830004,,,,,,,2022-07-13,1,,,,,リム,0
258,1290001097873,新規,0,2022-07-13,2022-07-13,Ｋａｎｇｅｎ株式会社,,株式会社,福岡県,福岡市東区,若宮５丁目１８番３２号アークソピア香椎南２０７号,,40,131,8130036,,,,,,,2022-07-13,1,,,,,カンゲン,0
259,1290001098194,新規,0,2022-07-13,2022-07-13,藤本・本武株式会社,,株式会社,福岡県,福岡市博多区,上川端町１０番２５５号ＬＬＯＹＤＳ’ＨＡＫＡＴＡ３０３号,,40,132,8120026,,,,,,,2022-07-13,1,,,,,フジモトモトタケ,0
260,1290001098293,新規,0,2022-07-13,2022-07-13,株式会社中野商会,,株式会社,福岡県,古賀市,舞の里５丁目３番１４号,,40,223,8113114,,,,,,,2022-07-13,1,,,,,ナカノショウカイ,0
264,1290801028722,新規,0,2022-07-13,2022-07-13,株式会社Ｄ‐Ｒ,,株式会社,福岡県,直方市,大字上新入２５７８番地グランドシャトーＩＩ－２０３号,00127191,40,204,8220033,,,,,,,2022-07-13,1,,,,,ディーアール,0
265,1300001012987,新規,0,2022-07-13,2022-07-13,株式会社藤電気,,株式会社,佐賀県,西松浦郡有田町,立部乙２６３３番地２,,41,401,8494153,,,,,,,2022-07-13,1,,,,,フジデンキ,0
266,1300001012995,新規,0,2022-07-13,2022-07-13,元村空調設備株式会社,,株式会社,佐賀県,佐賀市,東与賀町大字下古賀１１１９番地１９,,41,201,8402221,,,,,,,2022-07-13,1,,,,,モトムラクウチョウセツビ,0
267,1300001013003,新規,0,2022-07-13,2022-07-13,株式会社日本山岳倶楽部,,株式会社,佐賀県,嬉野市,嬉野町大字下宿乙１１００番地２,,41,209,8430301,,,,,,,2022-07-13,1,,,,,ニホンサンガククラブ,0
272,1310001017960,新規,0,2022-07-13,2022-07-13,株式会社ＬＰＫ　ＤＡＲＭＡ,,株式会社,長崎県,西彼杵郡時津町,日並郷２３６８番地,,42,308,8512108,,,,,,,2022-07-13,1,,,,,エルピイケイダルマ,0
273,1310003004412,新規,0,2022-07-13,2022-07-13,合同会社リンク,,合同会社,長崎県,長崎市,高浜町２５６９番地６山口アパートＡ－２,,42,201,8510503,,,,,,,2022-07-13,1,,,,,リンク,0
279,1340001024896,新規,0,2022-07-13,2022-07-13,株式会社マルヒサ,,株式会社,鹿児島県,奄美市,名瀬朝日町４番地５,,46,222,8940061,,,,,,,2022-07-13,1,,,,,マルヒサ,0
285,1370003005768,新規,0,2022-07-13,2022-07-13,合同会社ＫＯｔＥＸｙ,,合同会社,宮城県,仙台市青葉区,花京院２丁目１番６１号オークツリー仙台１階,,04,101,9800013,,,,,,,2022-07-13,1,,,,,コテクシー,0
290,1380001032978,新規,0,2022-07-13,2022-07-13,ファルコニア株式会社,,株式会社,福島県,郡山市,桜木１丁目１２番７号,,07,203,9638021,,,,,,,2022-07-13,1,,,,,ファルコニア,0
293,1390001016971,新規,0,2022-07-13,2022-07-13,株式会社ミハラシ工業,,株式会社,山形県,山形市,みはらしの丘２丁目７番地１５,,06,201,9902317,,,,,,,2022-07-13,1,,,,,ミハラシコウギョウ,0
303,1430001087001,新規,0,2022-07-13,2022-07-13,株式会社ＫＡＮＡ‐Ｌ２３,,株式会社,北海道,札幌市白石区,南郷通２丁目南７番１２号グリーンハイツ,,01,104,0030022,,,,,,,2022-07-13,1,,,,,カナエルツースリー,0
304,1430001087018,新規,0,2022-07-13,2022-07-13,株式会社ｂｏｎｄｓ,,株式会社,北海道,岩見沢市,四条西２丁目３番地フレンズビル１階,,01,210,0680024,,,,,,,2022-07-13,1,,,,,ボンズ,0
307,1430003014093,新規,0,2022-07-13,2022-07-13,合同会社ＳＴＳ北海道,,合同会社,北海道,札幌市西区,発寒八条７丁目４番１７－３号,,01,107,0630828,,,,,,,2022-07-13,1,,,,,エスティーエスホッカイドウ,0
308,1430003014102,新規,0,2022-07-13,2022-07-13,合同会社ポッケチセ,,合同会社,北海道,札幌市東区,北四十六条東２丁目１番１９号エルフロールＡ号,,01,103,0070846,,,,,,,2022-07-13,1,,,,,ポッケチセ,0
310,1470001019157,新規,0,2022-07-13,2022-07-13,株式会社ＴＥＴＳＵＳＩＮ,,株式会社,香川県,高松市,木太町３２９４番地６,,37,201,7600080,,,,,,,2022-07-13,1,,,,,テッシン,0
312,1490003001680,新規,0,2022-07-13,2022-07-13,合同会社ＭＡＫＡ　ＨＯＵ,,合同会社,高知県,高知市,桜井町２丁目９番３７号,,39,201,7800821,,,,,,,2022-07-13,1,,,,,マカホウ,0
313,1500005008508,新規,0,2022-07-13,2022-07-13,一般社団法人まなびとあそび,,その他の設立登記法人,愛媛県,南宇和郡愛南町,御荘平城２０３０番地,,38,506,7984110,,,,,,,2022-07-13,1,,,,,マナビトアソビ,0
314,1700150105626,新規,0,2022-07-13,2021-11-05,ｕｎｉｔ　Ｋ,,その他,東京都,練馬区,貫井３丁目５２－２３－３０６,,13,120,1760021,,,,,,,2021-11-05,1,,,,,ユニツトケイ,0
318,2010001228050,新規,0,2022-07-13,2022-07-13,哲プランニング株式会社,,株式会社,東京都,文京区,目白台２丁目６番１３－２０６号,,13,105,1120015,,,,,,,2022-07-13,1,,,,,テツプランニング,0
322,2010003038142,新規,0,2022-07-13,2022-07-13,合同会社Ａｂｅｏｎａ,,合同会社,東京都,中央区,銀座１丁目６番１１号土志田ビルディング３Ｆ,,13,102,1040061,,,,,,,2022-07-13,1,,,,,アベオナ,0
323,2010003038150,新規,0,2022-07-13,2022-07-13,合同会社Ｒｅｓｉｌｉｅｎｃｅ　ＸＶＩＩＩ,,合同会社,東京都,中央区,銀座１丁目６番１１号土志田ビルディング３Ｆ,,13,102,1040061,,,,,,,2022-07-13,1,,,,,レジリエンスエイティーン,0
344,2010601061479,新規,0,2022-07-13,2022-07-13,株式会社ＶＩＣＴＯＲＹ,,株式会社,東京都,江東区,東陽２丁目４番３９号新東陽ビル５１号,,13,108,1350016,,,,,,,2022-07-13,1,,,,,ヴィクトリー,0
345,2010603009625,新規,0,2022-07-13,2022-07-13,合同会社ｕｍａｎａｌ,,合同会社,東京都,江東区,牡丹１丁目５番６号,,13,108,1350046,,,,,,,2022-07-13,1,,,,,ウマナル,0
347,2010901051196,新規,0,2022-07-13,2022-07-13,株式会社Ｂｉｏ,,株式会社,東京都,世田谷区,経堂５丁目１番９号プリマヴェーラ経堂１０１,,13,112,1560052,,,,,,,2022-07-13,1,,,,,ビオ,0
348,2010901051246,新規,0,2022-07-13,2022-07-13,株式会社フルコン,,株式会社,東京都,世田谷区,太子堂１丁目１２番２７コンフォートテラス１００５号,,13,112,1540004,,,,,,,2022-07-13,1,,,,,フルコン,0
356,2011001148577,新規,0,2022-07-13,2022-07-13,株式会社クレアレーヴ,,株式会社,東京都,渋谷区,代々木５丁目５１番１号,,13,113,1510053,,,,,,,2022-07-13,1,,,,,クレアレーヴ,0
357,2011003015016,新規,0,2022-07-13,2022-07-13,合同会社ＥＫホールディングス,,合同会社,東京都,渋谷区,桜丘町２９－３５渋谷Ｄマンション６Ｗ,,13,113,1500031,,,,,,,2022-07-13,1,,,,,イーケーホールディングス,0
363,2011101099415,新規,0,2022-07-13,2022-07-13,株式会社ＢｅｅＬｉｎｅ,,株式会社,東京都,新宿区,西新宿４丁目６番１２－７０３号,,13,104,1600023,,,,,,,2022-07-13,1,,,,,ビーライン,0
364,2011101099514,新規,0,2022-07-13,2022-07-13,株式会社Ｇｒａｂ,,株式会社,東京都,新宿区,四谷１丁目１８ｂｅｌｌｅ四谷８階,,13,104,1600004,,,,,,,2022-07-13,1,,,,,,0
368,2011103011963,新規,0,2022-07-13,2022-07-13,ＮＯＡＲＴ合同会社,,合同会社,東京都,新宿区,西新宿４丁目７番１６号,,13,104,1600023,,,,,,,2022-07-13,1,,,,,ノーアート,0
373,2011301027902,新規,0,2022-07-13,2022-07-13,株式会社モンテナポレオーネ,,株式会社,東京都,杉並区,下高井戸５丁目４番９号,,13,115,1680073,,,,,,,2022-07-13,1,,,,,モンテナポレオーネ,0
374,2011301027943,新規,0,2022-07-13,2022-07-13,株式会社ｋｉｄｕｋｕ,,株式会社,東京都,杉並区,永福４丁目１９番２１－１１号,,13,115,1680064,,,,,,,2022-07-13,1,,,,,キヅク,0
375,2011303004461,新規,0,2022-07-13,2022-07-13,ＪＨ合同会社,,合同会社,東京都,杉並区,高井戸東４丁目１６番１０号,,13,115,1680072,,,,,,,2022-07-13,1,,,,,,0
377,2011401024403,新規,0,2022-07-13,2022-07-13,株式会社ライフルス,,株式会社,東京都,板橋区,板橋３丁目４番９－２０１号,,13,119,1730004,,,,,,,2022-07-13,1,,,,,ライフルス,0
380,2011403003719,新規,0,2022-07-13,2022-07-13,合同会社２６,,合同会社,東京都,板橋区,南常盤台１丁目１１－６－１０１,,13,119,1740072,,,,,,,2022-07-13,1,,,,,ニロク,0
381,2011501028254,新規,0,2022-07-13,2022-07-13,ＯＲＩ　ＪＡＰＡＮ株式会社,,株式会社,東京都,荒川区,町屋３丁目２番１号Ｂ１Ｆ,,13,118,1160001,,,,,,,2022-07-13,1,,,,,オーアールアイジャパン,0
382,2011501028262,新規,0,2022-07-13,2022-07-13,嘉和株式会社,,株式会社,東京都,荒川区,南千住１丁目４５番８－１０３号Ｆ,,13,118,1160003,,,,,,,2022-07-13,1,,,,,カムジ,0
384,2011601026100,新規,0,2022-07-13,2022-07-13,株式会社Ａｙｍｏｃｈａ,,株式会社,東京都,練馬区,田柄１丁目１７番６号,,13,120,1790073,,,,,,,2022-07-13,1,,,,,アイモカ,0
387,2011701025456,新規,0,2022-07-13,2022-07-13,株式会社ＪＸＬテクノス,,株式会社,東京都,江戸川区,宇喜田町１４３３番地１３,,13,123,1340082,,,,,,,2022-07-13,1,,,,,ジェーエクスエルテクノス,0
390,2011801040990,新規,0,2022-07-13,2022-07-13,株式会社技建,,株式会社,東京都,足立区,千住東２丁目５番１号,,13,121,1200025,,,,,,,2022-07-13,1,,,,,ギケン,0
392,2012301013066,新規,0,2022-07-13,2022-07-13,株式会社日本医療美容機器,,株式会社,東京都,町田市,原町田６丁目１７－７,,13,209,1940013,,,,,,,2022-07-13,1,,,,,,0
395,2012401039408,新規,0,2022-07-13,2022-07-13,株式会社ラックビルドアーキテクト,,株式会社,東京都,三鷹市,野崎２丁目１９番１５号天文館３０２号室,,13,204,1810014,,,,,,,2022-07-13,1,,,,,ラックビルドアーキテクト,0
397,2012801021717,新規,0,2022-07-13,2022-07-13,与えあい株式会社,,株式会社,東京都,立川市,富士見町１丁目２８番４号,,13,202,1900013,,,,,,,2022-07-13,1,,,,,アタエアイ,0
399,2013301049372,新規,0,2022-07-13,2022-07-13,株式会社ＷＥＢＡＳＥ,,株式会社,東京都,豊島区,南池袋１丁目１６番１５号ダイヤゲート池袋５階,,13,116,1710022,,,,,,,2022-07-13,1,,,,,ウィーベース,0
400,2013301049380,新規,0,2022-07-13,2022-07-13,株式会社ＴＨＥ　ＭＩＲＡＩ,,株式会社,東京都,豊島区,東池袋１丁目３４番５号いちご東池袋ビル６階,,13,116,1700013,,,,,,,2022-07-13,1,,,,,ザミライ,0
410,2020001147324,新規,0,2022-07-13,2022-07-13,株式会社隆鳶建設,,株式会社,神奈川県,横浜市鶴見区,仲通３丁目７１番地１４,,14,101,2300042,,,,,,,2022-07-13,1,,,,,タカトビケンセツ,0
411,2020001147381,新規,0,2022-07-13,2022-07-13,東神ホームサービス株式会社,,株式会社,神奈川県,横浜市都筑区,佐江戸町１３６２番地４Ｆ,,14,118,2240054,,,,,,,2022-07-13,1,,,,,トウシンホームサービス,0
422,2021003011947,新規,0,2022-07-13,2022-07-13,ジェイキャンプ合同会社,,合同会社,神奈川県,藤沢市,鵠沼橘１丁目３－１２－１２０１,,14,205,2510024,,,,,,,2022-07-13,1,,,,,ジェイキャンプ,0
424,2030001149113,新規,0,2022-07-13,2022-07-13,株式会社エグレッタ,,株式会社,埼玉県,さいたま市大宮区,三橋４丁目１２８番地,,11,103,3300856,,,,,,,2022-07-13,1,,,,,エグレッタ,0
425,2030003019768,新規,0,2022-07-13,2022-07-13,ＭＧＣＲ合同会社,,合同会社,埼玉県,入間郡三芳町,大字藤久保５２６番地１Ｄ－１１０５号,,11,324,3540041,,,,,,,2022-07-13,1,,,,,エムジーシーアール,0
426,2030003019776,新規,0,2022-07-13,2022-07-13,ＹＹＤＳ合同会社,,合同会社,埼玉県,三郷市,大広戸９１６番地１フジコーポ３０２号室,,11,237,3410022,,,,,,,2022-07-13,1,,,,,ワイワイディーエス,0
427,2030003019801,新規,0,2022-07-13,2022-07-13,合同会社ＪＨ,,合同会社,埼玉県,新座市,菅沢１丁目８番５６号,,11,230,3520017,,,,,,,2022-07-13,1,,,,,ジェイエイチ,0
433,2040001124263,新規,0,2022-07-13,2022-07-13,Ｋ’ｓファクトリー株式会社,,株式会社,千葉県,千葉市若葉区,小間子町４番地１,,12,104,2650046,,,,,,,2022-07-13,1,,,,,ケイズファクトリー,0
434,2040001124288,新規,0,2022-07-13,2022-07-13,株式会社Ｏｎｅ　ｇａｒａｇｅ,,株式会社,千葉県,船橋市,旭町１丁目４番５４号,,12,204,2730041,,,,,,,2022-07-13,1,,,,,ワンガレージ,0
437,2050001051408,新規,0,2022-07-13,2022-07-13,株式会社ＬＵＳＴＥＲ,,株式会社,茨城県,龍ケ崎市,城ノ内３丁目１３番地６,,08,208,3010847,,,,,,,2022-07-13,1,,,,,ラスター,0
444,2070001039434,新規,0,2022-07-13,2022-07-13,グロウワーク株式会社,,株式会社,群馬県,邑楽郡邑楽町,大字赤堀４０６７番地２,,10,525,3700614,,,,,,,2022-07-13,1,,,,,グロウワーク,0
448,2080001025086,新規,0,2022-07-13,2022-07-13,株式会社みろくカンパニー,,株式会社,静岡県,焼津市,飯淵９１４番地の１,,22,212,4210213,,,,,,,2022-07-13,1,,,,,ミロクカンパニー,0
455,2100003006619,新規,0,2022-07-13,2022-07-13,合同会社ＡＳＡＵＮＡＷＡ,,合同会社,長野県,南佐久郡小海町,大字小海３７５３番地１山和ハイツ１０２,,20,303,3841102,,,,,,,2022-07-13,1,,,,,アサウナワ,0
456,2110001036823,新規,0,2022-07-13,2022-07-13,創想株式会社,,株式会社,新潟県,柏崎市,幸町８－２３コーポ松原２２,,15,205,9450821,,,,,,,2022-07-13,1,,,,,ソウソウ,0
473,2120001247262,新規,0,2022-07-13,2022-07-13,語路通株式会社,,株式会社,大阪府,大阪市淀川区,田川北２丁目５－３４・Ｃ棟３０１号室,,27,123,5320021,,,,,,,2022-07-13,1,,,,,ゴロツウ,0
474,2120001247279,新規,0,2022-07-13,2022-07-13,澤華株式会社,,株式会社,大阪府,大阪市住吉区,遠里小野３丁目３－２５ロイヤル遠里小野,,27,120,5580032,,,,,,,2022-07-13,1,,,,,サワカ,0
475,2120001247345,新規,0,2022-07-13,2022-07-13,株式会社ＣＡＰＳＵＬＥ　ＣＯＲＰ．,,株式会社,大阪府,大阪市西区,九条１丁目１４番２７号,,27,106,5500027,,,,,,,2022-07-13,1,,,,,カプセルコーポレーション,0
480,2120003022052,新規,0,2022-07-13,2022-07-13,合同会社Ｈｕｍａｎ　Ｆｏｕｎｄａｔｉｏｎｓ,,合同会社,大阪府,大阪市西区,西本町１丁目２番１号ＡＸＩＳ本町ビル１０階,,27,106,5500005,,,,,,,2022-07-13,1,,,,,ヒューマンファンデーションズ,0
481,2120003022060,新規,0,2022-07-13,2022-07-13,合同会社ＨＩＬ,,合同会社,大阪府,大阪市東住吉区,駒川１丁目１９－１５,,27,121,5460043,,,,,,,2022-07-13,1,,,,,ハイル,0
485,2120105009591,新規,0,2022-07-13,2022-07-13,医療法人しょうのクリニック,,その他の設立登記法人,大阪府,堺市北区,長曽根町３０８２番地１クリニックステーションなかもず２Ｆ－Ｂ,,27,146,5918025,,,,,,,2022-07-13,1,,,,,ショウノクリニック,0
491,2122001036067,新規,0,2022-07-13,2022-07-13,株式会社ワイズシステムラボ,,株式会社,大阪府,八尾市,栄町２丁目１２番１２号,,27,212,5810074,,,,,,,2022-07-13,1,,,,,ワイズシステムラボ,0
493,2130001072123,新規,0,2022-07-13,2022-07-13,広含蔵株式会社,,株式会社,京都府,京都市南区,西九条東島町５０番地５８,,26,107,6018432,,,,,,,2022-07-13,1,,,,,コウカンゾウ,0
494,2130001072180,新規,0,2022-07-13,2022-07-13,穂含株式会社,,株式会社,京都府,京都市下京区,上錫屋町７４－２－４－２Ｆ,,26,106,6008312,,,,,,,2022-07-13,1,,,,,ホフミ,0
495,2130001072247,新規,0,2022-07-13,2022-07-13,株式会社Ｄｅｌｉｇｈｔ　Ｈｏｍｅ,,株式会社,京都府,京都市伏見区,醍醐槇ノ内町８－２,,26,109,6011337,,,,,,,2022-07-13,1,,,,,ディライトホーム,0
500,2140001126695,新規,0,2022-07-13,2022-07-13,株式会社真菰ＪＡＰＡＮ,,株式会社,兵庫県,丹波篠山市,東新町１６０番地１,,28,221,6692324,,,,,,,2022-07-13,1,,,,,マコモジャパン,0
501,2140003017892,新規,0,2022-07-13,2022-07-13,合同会社連環社,,合同会社,兵庫県,加東市,上滝野２０６６番地平森ビル１０３,,28,228,6790211,,,,,,,2022-07-13,1,,,,,レンカンシャ,0
518,2180303005395,新規,0,2022-07-13,2022-07-13,ｐｏｃｏｍａｓ合同会社,,合同会社,愛知県,豊橋市,牛川通５丁目９番地７,,23,201,4400011,,,,,,,2022-07-13,1,,,,,ポコマス,0
521,2210001019000,新規,0,2022-07-13,2022-07-13,株式会社くみこ,,株式会社,福井県,福井市,上野町第９号４４番地,,18,201,9103118,,,,,,,2022-07-13,1,,,,,クミコ,0
522,2220001024949,新規,0,2022-07-13,2022-07-13,株式会社ひとこい,,株式会社,石川県,金沢市,割出町３６０番地４,,17,201,9200062,,,,,,,2022-07-13,1,,,,,ヒトコイ,0
523,2230001019444,新規,0,2022-07-13,2022-07-13,株式会社カローレストーブ,,株式会社,富山県,富山市,山田小島７７０番地１,,16,201,9302123,,,,,,,2022-07-13,1,,,,,カローレストーブ,0
529,2250003003114,新規,0,2022-07-13,2022-07-13,合同会社ＬＨ,,合同会社,山口県,山口市,米屋町２－７ｍｉｒａｉ３６５,,35,203,7530087,,,,,,,2022-07-13,1,,,,,エルエイチ,0
534,2260005011114,新規,0,2022-07-13,2022-07-13,行政書士法人行地事務所,,その他の設立登記法人,岡山県,岡山市東区,光津１１０６番地２,,33,103,7048164,,,,,,,2022-07-13,1,,,,,ギョウジジムショ,0
542,2290001098243,新規,0,2022-07-13,2022-07-13,株式会社サンライズノア,,株式会社,福岡県,嘉麻市,岩崎１５５８番地１,,40,227,8200205,,,,,,,2022-07-13,1,,,,,サンライズノア,0
547,2290801028721,新規,0,2022-07-13,2022-07-13,株式会社ＹＡＭＡＭＯＴＯ‐ＥＮ,,株式会社,福岡県,中間市,長津２丁目３番１４号,,40,215,8090036,,,,,,,2022-07-13,1,,,,,ヤマモトエン,0
554,2320003003858,新規,0,2022-07-13,2022-07-13,合同会社ｃｏ‐ｅ　ｃｏｎｎｅｃｔ,,合同会社,大分県,大分市,大字猪野１２３９番地の１,,44,201,8700134,,,,,,,2022-07-13,1,,,,,コエコネクト,0
557,2350003004102,新規,0,2022-07-13,2022-07-13,Ｕｌｕｐｌｕｓ合同会社,,合同会社,宮崎県,宮崎市,高松町三丁目４番地カーサロータス２０２,,45,201,8800003,,,,,,,2022-07-13,1,,,,,ウルプラス,0
559,2360003012137,新規,0,2022-07-13,2022-07-13,合同会社アビューダ,,合同会社,沖縄県,中頭郡北中城村,字島袋２２７番地Ｌａｕｌｅａ１０１号室,,47,327,9012301,,,,,,,2022-07-13,1,,,,,アビューダ,0
560,2370001048784,新規,0,2022-07-13,2022-07-13,株式会社パリヴァール,,株式会社,宮城県,仙台市太白区,八本松１丁目１３番１１－１２０１号,,04,104,9820001,,,,,,,2022-07-13,1,,,,,パリヴァール,0
568,2390003001979,新規,0,2022-07-13,2022-07-13,合同会社ネクサス,,合同会社,山形県,天童市,老野森１丁目３番４号,,06,210,9940013,,,,,,,2022-07-13,1,,,,,ネクサス,0
576,2410005006478,新規,0,2022-07-13,2022-07-13,農事組合法人別所ファーム,,その他の設立登記法人,秋田県,大館市,十二所字水上４４番地,,05,204,0185601,,,,,,,2022-07-13,1,,,,,ベッショファーム,0
579,2430003014101,新規,0,2022-07-13,2022-07-13,合同会社ＦＣＮ,,合同会社,北海道,札幌市北区,北二十七条西７丁目３－７－５,,01,102,0010027,,,,,,,2022-07-13,1,,,,,エフシーエヌ,0
593,2700150109642,新規,0,2022-07-13,2022-06-14,ひころの里コンソーシアム,,その他,宮城県,本吉郡南三陸町,入谷字桜沢４４２番地,,04,606,9860782,,,,,,,2022-06-14,1,,,,,ヒコロノサトコンソーシアム,0
594,2700150109741,新規,0,2022-07-13,2022-06-15,舞踏カンパニー倚羅座,,その他,京都府,京都市南区,東九条宇賀辺町１３－１今貂子舞踏研究所,,26,107,6018021,,,,,,,2022-06-15,1,,,,,ブトウカンパニーキラザ,0
595,2700150110261,新規,0,2022-07-13,2022-06-22,神話と音楽実行委員会,,その他,神奈川県,鎌倉市,材木座１丁目４－５,,14,204,2480013,,,,,,,2022-06-22,1,,,,,シンワトオンガクジツコウイインカイ,0
602,3010003038141,新規,0,2022-07-13,2022-07-13,合同会社Ｄｉｏｎｙｓｕｓ,,合同会社,東京都,中央区,銀座１丁目６番１１号土志田ビルディング３Ｆ,,13,102,1040061,,,,,,,2022-07-13,1,,,,,ディオニソス,0
603,3010005035252,新規,0,2022-07-13,2022-07-13,一般社団法人ＷＩＩ,,その他の設立登記法人,東京都,千代田区,神田駿河台２丁目１－１９アルベルゴ御茶ノ水３２３,,13,101,1010062,,,,,,,2022-07-13,1,,,,,ウイー,0
604,3010101015249,新規,0,2022-07-13,2022-07-13,株式会社キナリ,,株式会社,東京都,八王子市,めじろ台３丁目３７番地１０めじろ台三丁目戸建て西,,13,201,1930833,,,,,,,2022-07-13,1,,,,,キナリ,0
616,3010703006315,新規,0,2022-07-13,2022-07-13,合同会社ＪＹＳブラザーズ,,合同会社,東京都,品川区,戸越５丁目１８番７号３階,,13,109,1420041,,,,,,,2022-07-13,1,,,,,ジェイワイエスブラザーズ,0
617,3010801033120,新規,0,2022-07-13,2022-07-13,８０株式会社,,株式会社,東京都,大田区,鵜の木２丁目１３番４号,,13,111,1460091,,,,,,,2022-07-13,1,,,,,エイティ,0
620,3010903007518,新規,0,2022-07-13,2022-07-13,合同会社Ｂｅｌｌａ,,合同会社,東京都,世田谷区,松原６丁目９番２３号,,13,112,1560043,,,,,,,2022-07-13,1,,,,,ベラ,0
622,3011001148592,新規,0,2022-07-13,2022-07-13,アドラック株式会社,,株式会社,東京都,渋谷区,恵比寿１丁目１５番９号日宝恵比寿ビル４０３,,13,113,1500013,,,,,,,2022-07-13,1,,,,,アドラック,0
623,3011001148642,新規,0,2022-07-13,2022-07-13,株式会社Ｂｌｕｅ　Ｍｏｍｅｎｔ,,株式会社,東京都,渋谷区,神宮前５丁目２３番４号アーバンステージ神宮前３階,,13,113,1500001,,,,,,,2022-07-13,1,,,,,ブルーモーメント,0
624,3011003015007,新規,0,2022-07-13,2022-07-13,合同会社ＷＥＢ集客の窓口,,合同会社,東京都,渋谷区,神宮前６丁目２３番４号桑野ビル２階,,13,113,1500001,,,,,,,2022-07-13,1,,,,,ウェブシュウキャクノマドグチ,0
625,3011003015015,新規,0,2022-07-13,2022-07-13,Ｈｅｒｕｋｅ合同会社,,合同会社,東京都,渋谷区,円山町１５－８ＭＩＤＩＡＳ渋谷ＷＥＳＴ４０２,,13,113,1500044,,,,,,,2022-07-13,1,,,,,ヘルケ,0
630,3011101099414,新規,0,2022-07-13,2022-07-13,株式会社ＭＡＫＥＲ　ＧＩＦＴ,,株式会社,東京都,新宿区,西新宿３丁目３番１３号西新宿水間ビル２Ｆ,,13,104,1600023,,,,,,,2022-07-13,1,,,,,メーカーギフト,0
635,3011301027934,新規,0,2022-07-13,2022-07-13,株式会社ミズノトリ,,株式会社,東京都,杉並区,久我山５丁目１１番１８号フレンズ東栄２０７,,13,115,1680082,,,,,,,2022-07-13,1,,,,,ミズノトリ,0
636,3011301027942,新規,0,2022-07-13,2022-07-13,株式会社ＳＵＮ,,株式会社,東京都,杉並区,久我山１丁目５番１７－９０９号,,13,115,1680082,,,,,,,2022-07-13,1,,,,,サン,0
642,3011403003718,新規,0,2022-07-13,2022-07-13,エフスパイラル合同会社,,合同会社,東京都,板橋区,南常盤台１丁目１１－６レフア南常盤台１０１,,13,119,1740072,,,,,,,2022-07-13,1,,,,,エフスパイラル,0
644,3011501028261,新規,0,2022-07-13,2022-07-13,万宗株式会社,,株式会社,東京都,荒川区,南千住１丁目４５番８－１０３号Ｂ,,13,118,1160003,,,,,,,2022-07-13,1,,,,,マンソウ,0
648,3011701025447,新規,0,2022-07-13,2022-07-13,タナカアセット株式会社,,株式会社,東京都,江戸川区,大杉１丁目８番５号,,13,123,1320022,,,,,,,2022-07-13,1,,,,,タナカアセット,0
649,3011701025455,新規,0,2022-07-13,2022-07-13,タカオ総建株式会社,,株式会社,東京都,江戸川区,篠崎町６丁目１９番１４号,,13,123,1330061,,,,,,,2022-07-13,1,,,,,タカオソウケン,0
652,3011805003191,新規,0,2022-07-13,2022-07-13,特定非営利活動法人Ｈａｎｄ　Ｏｖｅｒ　Ｊａｐａｎ,,その他の設立登記法人,東京都,葛飾区,亀有２丁目５５番１号,,13,122,1250061,,,,,,,2022-07-13,1,,,,,ハンドオーバージャパン,0
654,3012301013065,新規,0,2022-07-13,2022-07-13,株式会社ユウセイ,,株式会社,東京都,町田市,南大谷１１８５番地１０,,13,209,1940031,,,,,,,2022-07-13,1,,,,,,0
669,3020001147364,新規,0,2022-07-13,2022-07-13,エコセル株式会社,,株式会社,神奈川県,横浜市金沢区,瀬戸２２番２号,,14,108,2360027,,,,,,,2022-07-13,1,,,,,エコセル,0
675,3020003022111,新規,0,2022-07-13,2022-07-13,合同会社スピリチュアルリーダーシップ研究所,,合同会社,神奈川県,横浜市港北区,日吉５丁目１２番２１－４０１号,,14,109,2230061,,,,,,,2022-07-13,1,,,,,スピリチュアルリーダーシップケンキュウジョ,0
681,3021001076495,新規,0,2022-07-13,2022-07-13,株式会社Ｖａｌｕｅ　Ｃｒｅａｔｉｏｎ,,株式会社,神奈川県,小田原市,鬼柳８８８番地の３,,14,206,2500211,,,,,,,2022-07-13,1,,,,,バリュークリエーション,0
682,3021001076529,新規,0,2022-07-13,2022-07-13,株式会社遊心,,株式会社,神奈川県,小田原市,小八幡１丁目９番３４－８号,,14,206,2560815,,,,,,,2022-07-13,1,,,,,ユウシン,0
683,3021001076545,新規,0,2022-07-13,2022-07-13,株式会社誠心,,株式会社,神奈川県,相模原市南区,若松５丁目１３－１７－２,,14,153,2520334,,,,,,,2022-07-13,1,,,,,,0
686,3021003011946,新規,0,2022-07-13,2022-07-13,合同会社はっとり,,合同会社,神奈川県,相模原市中央区,上矢部５丁目１２－２１,,14,152,2520201,,,,,,,2022-07-13,1,,,,,ハットリ,0
689,3030001149129,新規,0,2022-07-13,2022-07-13,株式会社ケイ・ホビー,,株式会社,埼玉県,川越市,大字山田９２１番地１１,,11,201,3500822,,,,,,,2022-07-13,1,,,,,ケイホビー,0
690,3030001149178,新規,0,2022-07-13,2022-07-13,株式会社喜千事,,株式会社,埼玉県,川越市,通町２０番地２（プレシス本川越ルミナス６０６号室）,,11,201,3500044,,,,,,,2022-07-13,1,,,,,キチジ,0
691,3030001149186,新規,0,2022-07-13,2022-07-13,笑顔工務店株式会社,,株式会社,埼玉県,川口市,東領家３丁目２１番１５号,,11,203,3320003,,,,,,,2022-07-13,1,,,,,エガオコウムテン,0
692,3030001149194,新規,0,2022-07-13,2022-07-13,株式会社エバーラスト,,株式会社,埼玉県,坂戸市,芦山町１３番地６,,11,239,3500273,,,,,,,2022-07-13,1,,,,,エバーラスト,0
694,3030003019800,新規,0,2022-07-13,2022-07-13,合同会社ＨＯＳＨＩ設備,,合同会社,埼玉県,川口市,芝４丁目６番１６号,,11,203,3330866,,,,,,,2022-07-13,1,,,,,ホシセツビ,0
700,3040001124213,新規,0,2022-07-13,2022-07-13,株式会社Ｄｉａｌｏｇｕｅ　Ｓｐａｃｅ,,株式会社,千葉県,市川市,北方２丁目７番７号,,12,203,2720815,,,,,,,2022-07-13,1,,,,,ダイアログスペース,0
701,3040001124221,新規,0,2022-07-13,2022-07-13,株式会社グローバルファミリー,,株式会社,千葉県,松戸市,上本郷２２３４番地の３,,12,207,2710064,,,,,,,2022-07-13,1,,,,,グローバルファミリー,0
702,3040001124246,新規,0,2022-07-13,2022-07-13,株式会社ミズマールワイ,,株式会社,千葉県,八千代市,緑が丘西７丁目１１番地３,,12,221,2760040,,,,,,,2022-07-13,1,,,,,ミズマールワイ,0
703,3040001124262,新規,0,2022-07-13,2022-07-13,株式会社Ｂｉｒｔｈ,,株式会社,千葉県,松戸市,日暮４丁目１０番地の２３,,12,207,2702253,,,,,,,2022-07-13,1,,,,,バース,0
704,3040001124279,新規,0,2022-07-13,2022-07-13,株式会社ＹＫ,,株式会社,千葉県,柏市,豊四季３８８番地１２３,,12,217,2770863,,,,,,,2022-07-13,1,,,,,ワイケイ,0
713,3050001051407,新規,0,2022-07-13,2022-07-13,株式会社リクラス,,株式会社,茨城県,土浦市,田中３丁目１－３０モアリッシェル土浦タワーズ５０１号室,,08,203,3000048,,,,,,,2022-07-13,1,,,,,,0
721,3070001039433,新規,0,2022-07-13,2022-07-13,ｓｔａｒｔ‐ｄａｓｈ株式会社,,株式会社,群馬県,伊勢崎市,境百々東６番地１０－５０６号,,10,204,3700116,,,,,,,2022-07-13,1,,,,,スタートダッシュ,0
723,3070005010010,新規,0,2022-07-13,2022-07-13,一般社団法人いとのにわプラス,,その他の設立登記法人,群馬県,富岡市,妙義町諸戸９６９番地１１,,10,210,3790209,,,,,,,2022-07-13,1,,,,,イトノニワプラス,0
724,3080001025085,新規,0,2022-07-13,2022-07-13,株式会社セント・フィールドホールディングス,,株式会社,静岡県,静岡市清水区,西久保２９７番地の５,,22,103,4240038,,,,,,,2022-07-13,1,,,,,セントフィールドホールディングス,0
726,3080101023410,新規,0,2022-07-13,2022-07-13,株式会社森設備,,株式会社,静岡県,熱海市,下多賀９７３番地の８モンフレール熱海３０１,,22,205,4130102,,,,,,,2022-07-13,1,,,,,モリセツビ,0
733,3100003006618,新規,0,2022-07-13,2022-07-13,合同会社ＧＥＮ,,合同会社,長野県,北佐久郡御代田町,大字塩野１３１３番地,,20,323,3890201,,,,,,,2022-07-13,1,,,,,ゲン,0
736,3110001036822,新規,0,2022-07-13,2022-07-13,株式会社未来プランニング,,株式会社,新潟県,三条市,興野２丁目７番１９号,,15,204,9550046,,,,,,,2022-07-13,1,,,,,ミライプランニング,0
743,3120001247195,新規,0,2022-07-13,2022-07-13,ＩＫＷ株式会社,,株式会社,大阪府,大阪市中央区,南船場４丁目８番８号,,27,128,5420081,,,,,,,2022-07-13,1,,,,,アイケーダブリュー,0
744,3120001247278,新規,0,2022-07-13,2022-07-13,仝氏株式会社,,株式会社,大阪府,大阪市平野区,瓜破２丁目１－５０アビタシオン２３,,27,126,5470024,,,,,,,2022-07-13,1,,,,,ドウシ,0
745,3120001247294,新規,0,2022-07-13,2022-07-13,株式会社ＩＨＴＣ,,株式会社,大阪府,大阪市中央区,久太郎町１丁目７番１１－２９０９号,,27,128,5410056,,,,,,,2022-07-13,1,,,,,アイエイチティーシー,0
746,3120001247344,新規,0,2022-07-13,2022-07-13,株式会社ＧＶＣキャリア,,株式会社,大阪府,大阪市中央区,備後町２丁目４番６号森田ビルディング,,27,128,5410051,,,,,,,2022-07-13,1,,,,,ジーブイシーキャリア,0
747,3120001247410,新規,0,2022-07-13,2022-07-13,タクスル株式会社,,株式会社,大阪府,大阪市中央区,内本町１丁目２番１５号谷四スクエアビル５階,,27,128,5400026,,,,,,,2022-07-13,1,,,,,タクスル,0
748,3120001247443,新規,0,2022-07-13,2022-07-13,株式会社Ｃ．Ｉ．Ｇホールディングス,,株式会社,大阪府,大阪市北区,芝田１丁目１０番１０号芝田グランドビル４０７号室,,27,127,5300012,,,,,,,2022-07-13,1,,,,,シーアイジーホールディングス,0
759,3120003022051,新規,0,2022-07-13,2022-07-13,ＶＮＪ合同会社,,合同会社,大阪府,大阪市浪速区,恵美須東３丁目２番６号,,27,111,5560002,,,,,,,2022-07-13,1,,,,,ブイエヌジェイ,0
761,3120005023056,新規,0,2022-07-13,2022-07-13,医療法人聖幸会,,その他の設立登記法人,大阪府,大阪市都島区,都島南通２丁目１４番２５号,,27,102,5340023,,,,,,,2022-07-13,1,,,,,セイコウカイ,0
762,3120005023064,新規,0,2022-07-13,2022-07-13,医療法人Ｋ・Ｄ・Ｃ,,その他の設立登記法人,大阪府,大阪市平野区,平野本町２丁目１０－２０平野第一生命ビル１Ｆ,,27,126,5470044,,,,,,,2022-07-13,1,,,,,ケーディーシー,0
763,3120005023072,新規,0,2022-07-13,2022-07-13,医療法人修康会,,その他の設立登記法人,大阪府,大阪市福島区,鷺洲２丁目１２番１８号フェリーチェ福島北１階,,27,103,5530002,,,,,,,2022-07-13,1,,,,,シュウコウカイ,0
770,3120105009590,新規,0,2022-07-13,2022-07-13,税理士法人水ノ上会計,,その他の設立登記法人,大阪府,堺市西区,浜寺諏訪森町中３丁２７２番地２,,27,144,5928348,,,,,,,2022-07-13,1,,,,,ミズノウエカイケイ,0
775,3120901046234,新規,0,2022-07-13,2022-07-13,株式会社丸山不動産,,株式会社,大阪府,摂津市,鳥飼上３丁目７番１７号,,27,224,5660062,,,,,,,2022-07-13,1,,,,,マルヤマフドウサン,0
780,3130001071784,新規,0,2022-07-13,2022-07-13,フジＴＥＣ株式会社,,株式会社,京都府,京都市伏見区,淀際目町８－１ソレイユ１０１,,26,109,6130915,,,,,,,2022-07-13,1,,,,,フジテック,0
781,3130003008058,新規,0,2022-07-13,2022-07-13,合同会社ソエル,,合同会社,京都府,京都市右京区,常盤仲之町１７－１メゾン嵯峨の道１０７号,,26,108,6168222,,,,,,,2022-07-13,1,,,,,ソエル,0
783,3130005016521,新規,0,2022-07-13,2022-07-13,特定非営利活動法人乙訓の自然を守る会,,その他の設立登記法人,京都府,長岡京市,天神３丁目１４番５号,,26,209,6170824,,,,,,,2022-07-13,1,,,,,オトクニノシゼンヲマモルカイ,0
787,3140001126711,新規,0,2022-07-13,2022-07-13,株式会社ヒローズ,,株式会社,兵庫県,姫路市,兼田８５７番地４,,28,201,6728001,,,,,,,2022-07-13,1,,,,,ヒローズ,0
788,3140003017900,新規,0,2022-07-13,2022-07-13,合同会社かわさき,,合同会社,兵庫県,尼崎市,東園田町９丁目６番地の８グランディアルネ阪急園田２Ａ,,28,202,6610953,,,,,,,2022-07-13,1,,,,,カワサキ,0
791,3140005026239,新規,0,2022-07-13,2022-07-13,特定非営利活動法人和はは,,その他の設立登記法人,兵庫県,加東市,下久米２７２番地３,,28,228,6731415,,,,,,,2022-07-13,1,,,,,ワハハ,0
792,3150001025689,新規,0,2022-07-13,2022-07-13,株式会社ＭＩＮＯＲＩ　ｎｏ　ＣＯＭ,,株式会社,奈良県,北葛城郡上牧町,大字中筋出作８３番地６,,29,424,6390217,,,,,,,2022-07-13,1,,,,,ミノリノコム,0
797,3180001152200,新規,0,2022-07-13,2022-07-13,ｗｏｒｌｄ　ｃｒｅａｔｉｏｎ株式会社,,株式会社,愛知県,名古屋市緑区,桶狭間巻山１６０４番地,,23,114,4580920,,,,,,,2022-07-13,1,,,,,ワールドクリエーション,0
802,3180301036425,新規,0,2022-07-13,2022-07-13,江田塗装店株式会社,,株式会社,愛知県,豊橋市,菰口町６丁目４７番地（２０１）,,23,201,4418011,,,,,,,2022-07-13,1,,,,,エタトソウテン,0
808,3200001040286,新規,0,2022-07-13,2022-07-13,株式会社ＢＲＩＳＡ,,株式会社,岐阜県,本巣市,小柿１１８１番地（パーシモンＫＡ棟１０１号）,,21,218,5010463,,,,,,,2022-07-13,1,,,,,ブリッサ,0
811,3220001024948,新規,0,2022-07-13,2022-07-13,株式会社山川工業,,株式会社,石川県,加賀市,山代温泉南町１５番地,,17,206,9220258,,,,,,,2022-07-13,1,,,,,ヤマカワコウギョウ,0
826,3290001098259,新規,0,2022-07-13,2022-07-13,エムトラスト株式会社,,株式会社,福岡県,福岡市南区,向野１丁目１７番２８号１Ｆ,,40,134,8150035,,,,,,,2022-07-13,1,,,,,エムトラスト,0
827,3290001098283,新規,0,2022-07-13,2022-07-13,株式会社織の里,,株式会社,福岡県,大野城市,筒井４丁目４番１７号,,40,219,8160931,,,,,,,2022-07-13,1,,,,,シキノサト,0
828,3290801028729,新規,0,2022-07-13,2022-07-13,ＳＦＣ株式会社,,株式会社,福岡県,北九州市八幡西区,三ケ森１丁目３番１４号,,40,109,8070843,,,,,,,2022-07-13,1,,,,,エスエフシー,0
832,3310001017959,新規,0,2022-07-13,2022-07-13,アバス株式会社,,株式会社,長崎県,長崎市,旭町９番１７号,,42,201,8528003,,,,,,,2022-07-13,1,,,,,アバス,0
843,3350003004126,新規,0,2022-07-13,2022-07-13,フェニックス合同会社,,合同会社,宮崎県,都城市,山田町山田３１１４番地１,,45,202,8894601,,,,,,,2022-07-13,1,,,,,フェニックス,0
845,3360003012160,新規,0,2022-07-13,2022-07-13,合同会社いなまるレンタカー,,合同会社,沖縄県,宮古島市,平良字下里８４１番地２０１,,47,214,9060013,,,,,,,2022-07-13,1,,,,,イナマルレンタカー,0
847,3370001048783,新規,0,2022-07-13,2022-07-13,株式会社ナガサワ,,株式会社,宮城県,仙台市泉区,朴沢字二階８番地の４,,04,105,9813226,,,,,,,2022-07-13,1,,,,,ナガサワ,0
848,3370001048791,新規,0,2022-07-13,2022-07-13,株式会社ＯＮＥ　ＨＥＡＲＴ,,株式会社,宮城県,多賀城市,下馬３丁目２番１３号中嶋店舗南側１０２,,04,209,9850835,,,,,,,2022-07-13,1,,,,,ワンハート,0
850,3380005012603,新規,0,2022-07-13,2022-07-13,ＦＲＰ建設事業協同組合,,その他の設立登記法人,福島県,いわき市,平字堂根町４番地の１７いわき中央ビル４階,,07,204,9708026,,,,,,,2022-07-13,1,,,,,エフアールピーケンセツ,0
855,3410001013238,新規,0,2022-07-13,2022-07-13,株式会社ＳＩＧＭＡ,,株式会社,秋田県,横手市,雄物川町今宿字菅生沢７４番地,,05,203,0130205,,,,,,,2022-07-13,1,,,,,シグマ,0
856,3420001017923,新規,0,2022-07-13,2022-07-13,市岡商産株式会社,,株式会社,青森県,むつ市,大曲２丁目１４番３５号,,02,208,0350042,,,,,,,2022-07-13,1,,,,,イチオカショウサン,0
858,3420003002543,新規,0,2022-07-13,2022-07-13,合同会社リベルテ,,合同会社,青森県,十和田市,大字赤沼字向川原７６番地,,02,206,0340071,,,,,,,2022-07-13,1,,,,,リベルテ,0
859,3430003014100,新規,0,2022-07-13,2022-07-13,合同会社Ｊ‐ＣＲＡＦＴ,,合同会社,北海道,札幌市東区,北三十七条東２９丁目１２番６号,,01,103,0070837,,,,,,,2022-07-13,1,,,,,ジェイクラフト,0
862,3460101007218,新規,0,2022-07-13,2022-07-13,株式会社キングクリムゾン,,株式会社,北海道,帯広市,西四条南９丁目７番地ＴＨＥＴＯＷＥＲＯＢＩＨＩＲＯ１６０６号,,01,207,0800014,,,,,,,2022-07-13,1,,,,,キングクリムゾン,0
867,3480001011796,新規,0,2022-07-13,2022-07-13,株式会社ＧＴダイナーズ,,株式会社,徳島県,徳島市,南末広町１番７０号,,36,201,7700865,,,,,,,2022-07-13,1,,,,,ジーティーダイナーズ,0
871,3500005008506,新規,0,2022-07-13,2022-07-13,一般社団法人ｎｆｃ,,その他の設立登記法人,愛媛県,西予市,宇和町卯之町３丁目４３５番地１,,38,214,7970015,,,,,,,2022-07-13,1,,,,,エヌエフシー,0
872,3700150110450,新規,0,2022-07-13,2022-06-27,グローバル医科歯科感染管理研究会,,その他,東京都,世田谷区,深沢３丁目５－８,,13,112,1580081,,,,,,,2022-06-27,1,,,,,グローバルイカシカカンセンカンリケンキユウカイ,0
873,3700150110673,新規,0,2022-07-13,2022-07-01,草加ミュージック・フェスティバル実行委員会,,その他,埼玉県,草加市,住吉１丁目４－９,,11,221,3400014,,,,,,,2022-07-01,1,,,,,ソウカミユージツクフエステイバルジツコウイインカイ,0
881,4010003038149,新規,0,2022-07-13,2022-07-13,合同会社Ｒｅｓｉｌｉｅｎｃｅ　ＸＶＩＩ,,合同会社,東京都,中央区,銀座１丁目６番１１号土志田ビルディング３Ｆ,,13,102,1040061,,,,,,,2022-07-13,1,,,,,レジリエンスセブンティーン,0
884,4010005035243,新規,0,2022-07-13,2022-07-13,一般社団法人サードウェイ,,その他の設立登記法人,東京都,中央区,新川２丁目１３番１０号,,13,102,1040033,,,,,,,2022-07-13,1,,,,,サードウェイ,0
885,4010005035251,新規,0,2022-07-13,2022-07-13,ＲＢソーラータワーホールディングス一般社団法人,,その他の設立登記法人,東京都,中央区,八丁堀４丁目２番１０号ＡＯＪ税理士法人内,,13,102,1040032,,,,,,,2022-07-13,1,,,,,,0
887,4010101015248,新規,0,2022-07-13,2022-07-13,じゃのめホールディングス株式会社,,株式会社,東京都,八王子市,八幡町８番４号,,13,201,1920053,,,,,,,2022-07-13,1,,,,,ジャノメホールディングス,0
892,4010401168274,新規,0,2022-07-13,2022-07-13,ナイセン・エンターテインメント株式会社,,株式会社,東京都,港区,芝大門１丁目１６番５号,,13,103,1050012,,,,,,,2022-07-13,1,,,,,ナイセンエンターテインメント,0
893,4010401168514,新規,0,2022-07-13,2022-07-13,Ｄｉｇ株式会社,,株式会社,東京都,港区,西麻布３丁目２３番５号,,13,103,1060031,,,,,,,2022-07-13,1,,,,,ディグ,0
901,4010601061477,新規,0,2022-07-13,2022-07-13,米国スタートアップ投資株式会社,,株式会社,東京都,墨田区,吾妻橋１丁目２３番１号,,13,107,1300001,,,,,,,2022-07-13,1,,,,,ベイコクスタートアップトウシ,0
906,4010703006314,新規,0,2022-07-13,2022-07-13,合同会社まーやん,,合同会社,東京都,品川区,西大井６丁目１１番２号,,13,109,1400015,,,,,,,2022-07-13,1,,,,,マーヤン,0
911,4010903007517,新規,0,2022-07-13,2022-07-13,合同会社ｓａｔｏｍａｎ,,合同会社,東京都,世田谷区,上用賀３丁目７－１０,,13,112,1580098,,,,,,,2022-07-13,1,,,,,サトマン,0
912,4010903007525,新規,0,2022-07-13,2022-07-13,合同会社ａｎｄＮ　ｗｏｒｋｓ,,合同会社,東京都,世田谷区,等々力６丁目１１番１５－４０６号,,13,112,1580082,,,,,,,2022-07-13,1,,,,,アンドンワークス,0
918,4011001148625,新規,0,2022-07-13,2022-07-13,ここママ株式会社,,株式会社,東京都,目黒区,下目黒４丁目１５番１３号,,13,110,1530064,,,,,,,2022-07-13,1,,,,,ココママ,0
919,4011001148641,新規,0,2022-07-13,2022-07-13,株式会社Ｏ’ＨＡＮＡ　ＣＯＮＮＥＣＴ,,株式会社,東京都,目黒区,祐天寺１丁目２５－２パル１０２,,13,110,1530052,,,,,,,2022-07-13,1,,,,,オハナコネクト,0
924,4011101099553,新規,0,2022-07-13,2022-07-13,株式会社みなもと,,株式会社,東京都,新宿区,中落合２丁目１２番１４号,,13,104,1610032,,,,,,,2022-07-13,1,,,,,ミナモト,0
926,4011103011945,新規,0,2022-07-13,2022-07-13,ａｄａｐｔ合同会社,,合同会社,東京都,新宿区,西新宿３丁目３番１３号西新宿水間ビル６階,,13,104,1600023,,,,,,,2022-07-13,1,,,,,アダプト,0
930,4011303004468,新規,0,2022-07-13,2022-07-13,合同会社Ｂ＆Ａ,,合同会社,東京都,杉並区,荻窪２丁目３９番１５号,,13,115,1670051,,,,,,,2022-07-13,1,,,,,ビーアンドエー,0
933,4011305002833,新規,0,2022-07-13,2022-07-13,特定非営利活動法人ＦＯＳ,,その他の設立登記法人,東京都,杉並区,成田東２丁目２６番３号,,13,115,1660015,,,,,,,2022-07-13,1,,,,,フォス,0
937,4011503005225,新規,0,2022-07-13,2022-07-13,合同会社ＭＭアセット,,合同会社,東京都,荒川区,西日暮里１丁目６１－２１西日暮里フラッツ２０３,,13,118,1160013,,,,,,,2022-07-13,1,,,,,エムエムアセット,0
941,4011603003649,新規,0,2022-07-13,2022-07-13,合同会社Ｐｉｌｅ,,合同会社,東京都,練馬区,大泉学園町４丁目１０番２９号シーダークレストＣ号室,,13,120,1780061,,,,,,,2022-07-13,1,,,,,パイル,0
943,4011701025454,新規,0,2022-07-13,2022-07-13,株式会社Ｍ＆Ｋ,,株式会社,東京都,江戸川区,一之江７丁目５０番２１号,,13,123,1320024,,,,,,,2022-07-13,1,,,,,エムアンドケー,0
946,4012803002837,新規,0,2022-07-13,2022-07-13,合同会社エンジェル,,合同会社,東京都,日野市,豊田３丁目３８番地の２７,,13,212,1910053,,,,,,,2022-07-13,1,,,,,エンジェル,0
948,4013301049379,新規,0,2022-07-13,2022-07-13,株式会社オフィスＫプラス,,株式会社,東京都,豊島区,東池袋３丁目７番１１号６Ｆ,,13,116,1700013,,,,,,,2022-07-13,1,,,,,オフィスケイプラス,0
957,4020001147165,新規,0,2022-07-13,2022-07-13,株式会社笑顔のまち推進委員会,,株式会社,神奈川県,横浜市青葉区,荏田町４６５－１６,,14,117,2250013,,,,,,,2022-07-13,1,,,,,エガオノマチスイシンイインカイ,0
958,4020001147223,新規,0,2022-07-13,2022-07-13,ポラリス保険センター株式会社,,株式会社,神奈川県,横浜市港北区,新横浜３丁目１８番地９新横浜ＩＣビル５０５号室,,14,109,2220033,,,,,,,2022-07-13,1,,,,,ポラリスホケンセンター,0
959,4020001147347,新規,0,2022-07-13,2022-07-13,株式会社Ｌｉｏｏ,,株式会社,神奈川県,横浜市中区,常盤町３丁目３０番１号３階,,14,104,2310014,,,,,,,2022-07-13,1,,,,,リオ,0
960,4020001147355,新規,0,2022-07-13,2022-07-13,柳山建設株式会社,,株式会社,神奈川県,横浜市旭区,二俣川１丁目２番１号ライオンズステーションプラザ二俣川３１０,,14,112,2410821,,,,,,,2022-07-13,1,,,,,ヤナギヤマケンセツ,0
961,4020001147363,新規,0,2022-07-13,2022-07-13,小林創業株式会社,,株式会社,神奈川県,横浜市南区,中村町３丁目１９３番地２３,,14,105,2320033,,,,,,,2022-07-13,1,,,,,コバヤシソウギョウ,0
964,4020003022119,新規,0,2022-07-13,2022-07-13,グロウライン合同会社,,合同会社,神奈川県,横浜市中区,翁町２丁目８番５号関内エメラルドビル３０２,,14,104,2310028,,,,,,,2022-07-13,1,,,,,グロウライン,0
965,4020003022127,新規,0,2022-07-13,2022-07-13,合同会社ポプリ商事,,合同会社,神奈川県,横浜市瀬谷区,阿久和南２丁目１５番地９,,14,114,2460026,,,,,,,2022-07-13,1,,,,,ポプリショウジ,0
969,4021003011929,新規,0,2022-07-13,2022-07-13,合同会社Ｌｉｋｏ,,合同会社,神奈川県,鎌倉市,材木座５丁目８番１２号,,14,204,2480013,,,,,,,2022-07-13,1,,,,,リコ,0
975,4030001149144,新規,0,2022-07-13,2022-07-13,株式会社五十嵐工業,,株式会社,埼玉県,さいたま市桜区,大字大久保領家６２４番地,,11,106,3380826,,,,,,,2022-07-13,1,,,,,イガラシコウギョウ,0
976,4030001149177,新規,0,2022-07-13,2022-07-13,株式会社ベガモータース,,株式会社,埼玉県,三郷市,後谷２７５番地２,,11,237,3410014,,,,,,,2022-07-13,1,,,,,ベガモータース,0
977,4030001149193,新規,0,2022-07-13,2022-07-13,ＤｔｏＲ株式会社,,株式会社,埼玉県,川口市,大字安行慈林６６０番地の１１,,11,203,3340071,,,,,,,2022-07-13,1,,,,,ディートゥーアール,0
983,4030003019799,新規,0,2022-07-13,2022-07-13,グローバルトレーディング合同会社,,合同会社,埼玉県,草加市,遊馬町４５８－８,,11,221,3400032,,,,,,,2022-07-13,1,,,,,グローバルトレーディング,0
989,4040001124212,新規,0,2022-07-13,2022-07-13,株式会社ＨＯＵＳＴＡＹ,,株式会社,千葉県,千葉市中央区,南町１丁目４番４６号メイナンビル,,12,101,2600842,,,,,,,2022-07-13,1,,,,,ハウステイ,0
990,4040001124220,新規,0,2022-07-13,2022-07-13,ＭＡＮＡＢＯＵ株式会社,,株式会社,千葉県,印旛郡酒々井町,伊篠１５４番地４３,,12,322,2850902,,,,,,,2022-07-13,1,,,,,マナボウ,0
991,4040001124278,新規,0,2022-07-13,2022-07-13,株式会社森田設備,,株式会社,千葉県,船橋市,海神２丁目２３番４２号,,12,204,2730021,,,,,,,2022-07-13,1,,,,,モリタセツビ,0
995,4050001051389,新規,0,2022-07-13,2022-07-13,株式会社瀬尾設備,,株式会社,茨城県,つくばみらい市,伊奈東８７番地７５,,08,235,3002308,,,,,,,2022-07-13,1,,,,,セオセツビ,0
997,4060003004138,新規,0,2022-07-13,2022-07-13,合同会社わきあいあい,,合同会社,栃木県,佐野市,船越町３８番地,,09,204,3270305,,,,,,,2022-07-13,1,,,,,ワキアイアイ,0
1000,4080001025084,新規,0,2022-07-13,2022-07-13,株式会社キャンポート,,株式会社,静岡県,静岡市駿河区,西脇８９０番地リベルタ芝３０５,,22,102,4228044,,,,,,,2022-07-13,1,,,,,キャンポート,0
1010,4090003002130,新規,0,2022-07-13,2022-07-13,ＡＨＣ合同会社,,合同会社,山梨県,甲府市,和戸町１０３１番１の１,,19,201,4000812,,,,,,,2022-07-13,1,,,,,エーエイチシー,0
1011,4100001035527,新規,0,2022-07-13,2022-07-13,木工の池田株式会社,,株式会社,長野県,中野市,大字江部１１８５番地１０,,20,211,3830045,,,,,,,2022-07-13,1,,,,,モッコウノイケダ,0
1031,4120003022042,新規,0,2022-07-13,2022-07-13,合同会社優心,,合同会社,大阪府,寝屋川市,日之出町２４番５号,,27,215,5720835,,,,,,,2022-07-13,1,,,,,ユウシン,0
1032,4120003022059,新規,0,2022-07-13,2022-07-13,プランニング・エイジ合同会社,,合同会社,大阪府,大阪市旭区,新森１丁目４番２０－４１０号,,27,117,5350022,,,,,,,2022-07-13,1,,,,,プランニングエイジ,0
1036,4120101065892,新規,0,2022-07-13,2022-07-13,超拓金属株式会社,,株式会社,大阪府,阪南市,南山中７１８番地の１,,27,232,5990233,,,,,,,2022-07-13,1,,,,,キョウタクキンゾク,0
1040,4130001072162,新規,0,2022-07-13,2022-07-13,ススムホールディングス株式会社,,株式会社,京都府,京都市南区,上鳥羽馬廻シ町１４番地,,26,107,6018177,,,,,,,2022-07-13,1,,,,,ススムホールディングス,0
1041,4130003008049,新規,0,2022-07-13,2022-07-13,合同会社にのくに動物病院,,合同会社,京都府,福知山市,字前田１６１６番地,,26,201,6200867,,,,,,,2022-07-13,1,,,,,ニノクニドウブツビョウイン,0
1042,4130003008065,新規,0,2022-07-13,2022-07-13,合同会社Ｓｅｃｏｎｄｒｏｏｍ,,合同会社,京都府,京都市下京区,不明門通花屋町下る高槻町３４６番地サピエンスコート烏丸七条５０７号室,,26,106,6008174,,,,,,,2022-07-13,1,,,,,セカンドルーム,0
1052,4140001126693,新規,0,2022-07-13,2022-07-13,株式会社住成ホーム,,株式会社,兵庫県,姫路市,南町６３番地ミツワビル,,28,201,6700912,,,,,,,2022-07-13,1,,,,,スミセイホーム,0
1058,4160001024359,新規,0,2022-07-13,2022-07-13,株式会社チアミール,,株式会社,滋賀県,近江八幡市,鷹飼町５６４－１００１,,25,204,5230891,,,,,,,2022-07-13,1,,,,,チアミール,0
1059,4160001024367,新規,0,2022-07-13,2022-07-13,株式会社業務屋,,株式会社,滋賀県,大津市,萱野浦２２－２０パークショア瀬田４０６,,25,201,5202143,,,,,,,2022-07-13,1,,,,,ギョウムヤ,0
1061,4160003002619,新規,0,2022-07-13,2022-07-13,合同会社ユングフラウ,,合同会社,滋賀県,大津市,坂本３丁目３２番１－３０２号,,25,201,5200113,,,,,,,2022-07-13,1,,,,,ユングフラウ,0
1065,4180001152166,新規,0,2022-07-13,2022-07-13,株式会社Ｌｉｍ,,株式会社,愛知県,名古屋市昭和区,荒田町４丁目３番地,,23,107,4660844,,,,,,,2022-07-13,1,,,,,リム,0
1066,4180001152216,新規,0,2022-07-13,2022-07-13,株式会社ＫＢＳ,,株式会社,愛知県,名古屋市西区,牛島町５番５号カネヒサビル２Ｆ,,23,104,4510046,,,,,,,2022-07-13,1,,,,,ケービーエス,0
1069,4180301036432,新規,0,2022-07-13,2022-07-13,株式会社Ｓ．Ｆａｍｉｌｉｅ,,株式会社,愛知県,豊橋市,富士見台３丁目２６番地８０,,23,201,4418135,,,,,,,2022-07-13,1,,,,,エスファミーリエ,0
1070,4180301036440,新規,0,2022-07-13,2022-07-13,株式会社金島,,株式会社,愛知県,豊川市,御津町御馬流田１０１番地６,,23,207,4410311,,,,,,,2022-07-13,1,,,,,カネシマ,0
1071,4180303005393,新規,0,2022-07-13,2022-07-13,合同会社リアンサービス,,合同会社,愛知県,豊橋市,一色町字西内張５番地４,,23,201,4418148,,,,,,,2022-07-13,1,,,,,リアンサービス,0
1077,4210001018999,新規,0,2022-07-13,2022-07-13,株式会社舞企画,,株式会社,福井県,鯖江市,吉江町１０９番地２,,18,207,9160001,,,,,,,2022-07-13,1,,,,,マイキカク,0
1080,4220001024947,新規,0,2022-07-13,2022-07-13,株式会社シナジープロジェクト,,株式会社,石川県,小松市,大領町ね８２番地,,17,203,9230854,,,,,,,2022-07-13,1,,,,,シナジープロジェクト,0
1084,4230001019450,新規,0,2022-07-13,2022-07-13,モツフク株式会社,,株式会社,富山県,高岡市,駅南５丁目４番４０８号,,16,202,9330871,,,,,,,2022-07-13,1,,,,,モツフク,0
1088,4240005015420,新規,0,2022-07-13,2022-07-13,一般社団法人ＭＩＲＡＩＥ,,その他の設立登記法人,広島県,広島市西区,小河内町２丁目１１番１５－３０３号,,34,104,7330025,,,,,,,2022-07-13,1,,,,,ミライエ,0
1090,4260001037029,新規,0,2022-07-13,2022-07-13,株式会社アクトクリエイト,,株式会社,岡山県,津山市,小田中１４４６番地４,,33,203,7080006,,,,,,,2022-07-13,1,,,,,アクトクリエイト,0
1093,4280001008746,新規,0,2022-07-13,2022-07-13,株式会社ＫＴテクノ,,株式会社,島根県,安来市,広瀬町西谷４３４番地,,32,206,6920624,,,,,,,2022-07-13,1,,,,,ケーティーテクノ,0
1098,4290001098258,新規,0,2022-07-13,2022-07-13,株式会社アスカ,,株式会社,福岡県,那珂川市,片縄西５丁目１４番２６号,,40,231,8111202,,,,,,,2022-07-13,1,,,,,アスカ,0
1099,4290001098282,新規,0,2022-07-13,2022-07-13,株式会社ＥＧＲＥＴ,,株式会社,福岡県,福岡市東区,香椎台１丁目４番６号,,40,131,8130014,,,,,,,2022-07-13,1,,,,,イーグレット,0
1100,4290001098290,新規,0,2022-07-13,2022-07-13,株式会社ＨＩＲＯリサイクル,,株式会社,福岡県,久留米市,荒木町白口１７４５番地２,,40,203,8300062,,,,,,,2022-07-13,1,,,,,ヒロリサイクル,0
1102,4290801028728,新規,0,2022-07-13,2022-07-13,株式会社橙,,株式会社,福岡県,宮若市,宮田４９１０番地３,,40,226,8230011,,,,,,,2022-07-13,1,,,,,ダイダイ,0
1106,4310001017958,新規,0,2022-07-13,2022-07-13,株式会社Ｏｎｅ　Ｐｏｉｎｔ,,株式会社,長崎県,長崎市,大黒町１０番１０号ＫｏＫｏＲｏビル６ＦＮ,,42,201,8500057,,,,,,,2022-07-13,1,,,,,ワンポイント,0
1107,4320003003856,新規,0,2022-07-13,2022-07-13,合同会社つむぎつなぐ,,合同会社,大分県,別府市,駅前町１１番１０号,,44,202,8740935,,,,,,,2022-07-13,1,,,,,ツムギツナグ,0
1110,4330005010536,新規,0,2022-07-13,2022-07-13,税理士法人久峨パートナーズ,,その他の設立登記法人,熊本県,熊本市西区,春日７丁目２２番４３号,,43,103,8600047,,,,,,,2022-07-13,1,,,,,クガパートナーズ,0
1112,4340001024902,新規,0,2022-07-13,2022-07-13,株式会社ｏｎｅ　ｏｆｆ,,株式会社,鹿児島県,鹿児島市,山之口町８番２６号細山田ＢＬＤ．５　４０２号室,,46,201,8920844,,,,,,,2022-07-13,1,,,,,ワンオフ,0
1113,4340005009478,新規,0,2022-07-13,2022-07-13,一般社団法人心笑会,,その他の設立登記法人,鹿児島県,曽於郡大崎町,菱田３０５９番地５,,46,468,8997301,,,,,,,2022-07-13,1,,,,,ココロエカイ,0
1114,4350003004125,新規,0,2022-07-13,2022-07-13,合同会社さこま,,合同会社,宮崎県,都城市,大王町４３号１１番地３,,45,202,8850026,,,,,,,2022-07-13,1,,,,,サコマ,0
1134,4420003002542,新規,0,2022-07-13,2022-07-13,合同会社Ａｌｌｏｎｓ,,合同会社,青森県,青森市,大字新城字山田６７７番地２１９,,02,201,0380042,,,,,,,2022-07-13,1,,,,,アロン,0
1136,4430001087122,新規,0,2022-07-13,2022-07-13,株式会社セブンシーズン,,株式会社,北海道,古宇郡神恵内村,大字神恵内村９０番地１２,,01,404,0450301,,,,,,,2022-07-13,1,,,,,セブンシーズン,0
1137,4430003014090,新規,0,2022-07-13,2022-07-13,Ｕ‐テック合同会社,,合同会社,北海道,滝川市,泉町１丁目１７番１１号,,01,225,0730042,,,,,,,2022-07-13,1,,,,,ユーテック,0
1138,4430003014116,新規,0,2022-07-13,2022-07-13,合同会社ベルカンパニー,,合同会社,北海道,札幌市東区,北十条東１丁目１番３５－２０２号,,01,103,0650010,,,,,,,2022-07-13,1,,,,,ベルカンパニー,0
1146,4480003001852,新規,0,2022-07-13,2022-07-13,合同会社Ａ＆Ｗ総合研究所,,合同会社,徳島県,小松島市,南小松島町１５番５号,,36,203,7730005,,,,,,,2022-07-13,1,,,,,エーアンドダブリューソウゴウケンキュウショ,0
1150,4490001010219,新規,0,2022-07-13,2022-07-13,株式会社ＳＡＮＳＥＩ,,株式会社,高知県,高知市,薊野北町１丁目１０番３号３Ｆ１６号,,39,201,7810011,,,,,,,2022-07-13,1,,,,,サンセイ,0
1154,4700150109244,新規,0,2022-07-13,2022-06-07,歌劇団Ｋａｍｉｔｅ,,その他,東京都,立川市,一番町１丁目５７－５,,13,202,1900033,,,,,,,2022-06-07,1,,,,,カゲキダンカミテ,0
1161,5010001228031,新規,0,2022-07-13,2022-07-13,株式会社ＵＰＦ,,株式会社,東京都,中央区,日本橋小伝馬町２－４三報ビル５階,,13,102,1030001,,,,,,,2022-07-13,1,,,,,ユーピーエフ,0
1162,5010001228064,新規,0,2022-07-13,2022-07-13,株式会社海進塾,,株式会社,東京都,千代田区,九段南１丁目５番６号りそな九段ビル５ＦＫＳフロア,,13,101,1020074,,,,,,,2022-07-13,1,,,,,カイシンジュク,0
1166,5010003038148,新規,0,2022-07-13,2022-07-13,合同会社Ｒｅｓｉｌｉｅｎｃｅ　ＸＶＩ,,合同会社,東京都,中央区,銀座１丁目６番１１号土志田ビルディング３Ｆ,,13,102,1040061,,,,,,,2022-07-13,1,,,,,レジリエンスシックスティーン,0
1173,5010005035250,新規,0,2022-07-13,2022-07-13,ＲＢソーラーライトホールディングス一般社団法人,,その他の設立登記法人,東京都,中央区,八丁堀４丁目２番１０号ＡＯＪ税理士法人内,,13,102,1040032,,,,,,,2022-07-13,1,,,,,アールビーソーラーライトホールディングス,0
1174,5010101015247,新規,0,2022-07-13,2022-07-13,株式会社ｙ‐テクノ,,株式会社,東京都,八王子市,みつい台２丁目３５番８号,,13,201,1920014,,,,,,,2022-07-13,1,,,,,ワイテクノ,0
1178,5010401168331,新規,0,2022-07-13,2022-07-13,リレイズブリッジ株式会社,,株式会社,東京都,港区,東新橋２丁目１２－１ＰＭＯ東新橋２Ｆ,,13,103,1050021,,,,,,,2022-07-13,1,,,,,リレイズブリッジ,0
1179,5010401168422,新規,0,2022-07-13,2022-07-13,ＩＳＡＢＥＬ　ＭＡＲＡＮＴ　ＪＡＰＡＮ株式会社,,株式会社,東京都,港区,赤坂６丁目３番２０号Ｈ．Ａ．Ｔ．ビル９階ルフェーブル・ペルティエ・エ・アソシエ外国法事務弁護士法人内,,13,103,1070052,,,,,,,2022-07-13,1,,,,,イザベルマランジャパン,0
1180,5010401168488,新規,0,2022-07-13,2022-07-13,株式会社富士通ローンチパッド,,株式会社,東京都,港区,東新橋１丁目５番２号汐留シティセンター,,13,103,1050021,,,,,,,2022-07-13,1,,,,,フジツウローンチパッド,0
1181,5010401168521,新規,0,2022-07-13,2022-07-13,株式会社ＴＮ　ＩＮＴＥＲＮＡＴＩＯＮＡＬ,,株式会社,東京都,港区,港南２丁目１５番１号品川インターシティＡ棟２８階,,13,103,1080075,,,,,,,2022-07-13,1,,,,,ティエヌインターナショナル,0
1189,5010601061484,新規,0,2022-07-13,2022-07-13,ｍｓｆａｃｔｏｒｙ株式会社,,株式会社,東京都,江東区,千石１丁目５－４新川ビル４０１,,13,108,1350015,,,,,,,2022-07-13,1,,,,,エムエスファクトリー,0
1190,5010601061501,新規,0,2022-07-13,2022-07-13,株式会社両国製薬,,株式会社,東京都,墨田区,両国２丁目１７番１７号,,13,107,1300026,,,,,,,2022-07-13,1,,,,,リョウゴクセイヤク,0
1194,5010703006313,新規,0,2022-07-13,2022-07-13,合同会社ネクストドア,,合同会社,東京都,品川区,西五反田８丁目２番１２号アール五反田７Ａ,,13,109,1410031,,,,,,,2022-07-13,1,,,,,ネクストドア,0
1198,5010901051219,新規,0,2022-07-13,2022-07-13,株式会社カロリー,,株式会社,東京都,世田谷区,池尻３丁目３０番２号,,13,112,1540001,,,,,,,2022-07-13,1,,,,,カロリー,0
1200,5010903007524,新規,0,2022-07-13,2022-07-13,合同会社Ｂａｃｋ　ＵＰ,,合同会社,東京都,世田谷区,奥沢２丁目２３番１５号,,13,112,1580083,,,,,,,2022-07-13,1,,,,,バックアップ,0
1204,5011001148599,新規,0,2022-07-13,2022-07-13,株式会社ｏｋｉｔａ,,株式会社,東京都,渋谷区,大山町３６番１０－１０４号,,13,113,1510065,,,,,,,2022-07-13,1,,,,,オオキタ,0
1205,5011001148616,新規,0,2022-07-13,2022-07-13,株式会社グランドスケープ,,株式会社,東京都,渋谷区,神宮前６丁目２３番４号桑野ビル２階,,13,113,1500001,,,,,,,2022-07-13,1,,,,,グランドスケープ,0
1206,5011001148640,新規,0,2022-07-13,2022-07-13,株式会社ＴＲＩＰＬＥ７,,株式会社,東京都,渋谷区,東３丁目８番２４号,,13,113,1500011,,,,,,,2022-07-13,1,,,,,,0
1208,5011003015013,新規,0,2022-07-13,2022-07-13,Ｓｔｕｄｉｏ　ＭＯＯＤ　Ｔｏｋｙｏ合同会社,,合同会社,東京都,渋谷区,上原３丁目４番１号ＦＲＥＳＣＡ代々木上原ＩＩ２０８,00127197,13,113,1510064,,,,,,,2022-07-13,1,,,,,スタジオムードトーキョー,0
1214,5011103011952,新規,0,2022-07-13,2022-07-13,つるかめ商会合同会社,,合同会社,東京都,新宿区,四谷３丁目１３番地ＳＥＡＢＩＲＤビル２階,,13,104,1600004,,,,,,,2022-07-13,1,,,,,ツルカメショウカイ,0
1220,5011305002832,新規,0,2022-07-13,2022-07-13,特定非営利活動法人ちいきむすび,,その他の設立登記法人,東京都,杉並区,方南２丁目１６番６号株式会社ＥＡＴプラニング内,,13,115,1680062,,,,,,,2022-07-13,1,,,,,チイキムスビ,0
1225,5011701025453,新規,0,2022-07-13,2022-07-13,株式会社イプシロン,,株式会社,東京都,江戸川区,本一色３丁目６番１１号,,13,123,1330044,,,,,,,2022-07-13,1,,,,,イプシロン,0
1226,5011703003192,新規,0,2022-07-13,2022-07-13,麦金香合同会社,,合同会社,東京都,江戸川区,中葛西１丁目３１番５号カーサ第三宇喜田５号棟１０２号室,,13,123,1340083,,,,,,,2022-07-13,1,,,,,バッキンコウ,0
1227,5012301013063,新規,0,2022-07-13,2022-07-13,株式会社Ｒ‐ＦＡＣＴＯＲＹ,,株式会社,東京都,町田市,上小山田町１３６番地１９,,13,209,1940201,,,,,,,2022-07-13,1,,,,,アールファクトリー,0
1228,5012401039371,新規,0,2022-07-13,2022-07-13,株式会社ＴＫＤ,,株式会社,東京都,調布市,布田４丁目２０番地１,,13,208,1820024,,,,,,,2022-07-13,1,,,,,ティーケーディー,0
1240,5020001147354,新規,0,2022-07-13,2022-07-13,株式会社ＣＯＣＯＯＮ,,株式会社,神奈川県,横浜市磯子区,磯子７丁目１５－１－５１０,,14,107,2350016,,,,,,,2022-07-13,1,,,,,コクーン,0
1241,5020001147370,新規,0,2022-07-13,2022-07-13,ＤＫ株式会社,,株式会社,神奈川県,川崎市高津区,二子２丁目５－５ハイツペガサス１０１号室,,14,134,2130002,,,,,,,2022-07-13,1,,,,,ディーケー,0
1246,5021001076519,新規,0,2022-07-13,2022-07-13,ＲＩＳＥ株式会社,,株式会社,神奈川県,横須賀市,深田台５９番地１６,,14,201,2380016,,,,,,,2022-07-13,1,,,,,ライズ,0
1252,5021003011944,新規,0,2022-07-13,2022-07-13,合同会社トラウム,,合同会社,神奈川県,厚木市,旭町３丁目２０－１９,,14,212,2430014,,,,,,,2022-07-13,1,,,,,トラウム,0
1258,5030001149176,新規,0,2022-07-13,2022-07-13,株式会社エスピーシー,,株式会社,埼玉県,川口市,南前川２丁目５番２５号,,11,203,3330846,,,,,,,2022-07-13,1,,,,,エスピーシー,0
1259,5030001149192,新規,0,2022-07-13,2022-07-13,株式会社映像プロダクション,,株式会社,埼玉県,川口市,大字安行慈林６６０番地の１１,,11,203,3340071,,,,,,,2022-07-13,1,,,,,エイゾウプロダクション,0
1260,5030001149226,新規,0,2022-07-13,2022-07-13,株式会社Ｋ．Ｓ．Ｃ,,株式会社,埼玉県,川越市,仙波町１丁目１２番地３８,,11,201,3500034,,,,,,,2022-07-13,1,,,,,ケーエスシー,0
1269,5030003019765,新規,0,2022-07-13,2022-07-13,小金崎合同会社,00127204,合同会社,埼玉県,草加市,稲荷５丁目８番１９号,,11,221,3400003,,,,,,,2022-07-13,1,,,,,コガネザキ,0
1270,5030003019773,新規,0,2022-07-13,2022-07-13,ＡＩ　Ａｃｒｏｓｓ合同会社,,合同会社,埼玉県,川口市,前上町５番３１号３階,,11,203,3330843,,,,,,,2022-07-13,1,,,,,エーアイアクロス,0
1271,5030003019781,新規,0,2022-07-13,2022-07-13,合同会社Ｋｐｍａｎａｇｅｍｅｎｔ,,合同会社,埼玉県,草加市,青柳７丁目４０番９号メゾンラティアス２０７号,,11,221,3400002,,,,,,,2022-07-13,1,,,,,ケーピーマネージメント,0
1272,5030003019798,新規,0,2022-07-13,2022-07-13,彩の国未来サポート合同会社,,合同会社,埼玉県,さいたま市大宮区,桜木町２丁目３番地,,11,103,3300854,,,,,,,2022-07-13,1,,,,,サイノクニミライサポート,0
1282,5040001124203,新規,0,2022-07-13,2022-07-13,株式会社ＥＬＤＯＲＡＤＯ,,株式会社,千葉県,柏市,手賀１４２５－１,,12,217,2701465,,,,,,,2022-07-13,1,,,,,エルドラド,0
1283,5040001124244,新規,0,2022-07-13,2022-07-13,株式会社エスポワール,,株式会社,千葉県,野田市,山崎貝塚町１８番地の５,,12,208,2780023,,,,,,,2022-07-13,1,,,,,エスポワール,0
1284,5040001124277,新規,0,2022-07-13,2022-07-13,株式会社ウェルス,,株式会社,千葉県,船橋市,本中山６丁目１１番８号,,12,204,2730035,,,,,,,2022-07-13,1,,,,,ウェルス,0
1285,5040001124285,新規,0,2022-07-13,2022-07-13,亀楽株式会社,,株式会社,千葉県,鴨川市,東町１３７４番地１,,12,223,2960041,,,,,,,2022-07-13,1,,,,,キラク,0
1289,5040003020417,新規,0,2022-07-13,2022-07-13,合同会社サカノウエ洋品店,,合同会社,千葉県,印西市,原４丁目５番地８棟３０３号,,12,231,2701335,,,,,,,2022-07-13,1,,,,,サカノウエヨウヒンテン,0
1294,5050005013112,新規,0,2022-07-13,2022-07-13,一般社団法人全国乳幼児遊び研究協会,,その他の設立登記法人,茨城県,那珂市,額田北郷６９４番地１,,08,226,3110108,,,,,,,2022-07-13,1,,,,,ゼンコクニュウヨウジアソビケンキュウキョウカイ,0
1295,5060003004145,新規,0,2022-07-13,2022-07-13,合同会社舘野,,合同会社,栃木県,下都賀郡壬生町,落合２丁目３番１２号,,09,361,3210218,,,,,,,2022-07-13,1,,,,,タテノ,0
1301,5090001017666,新規,0,2022-07-13,2022-07-13,Ａ＆Ｒ株式会社,,株式会社,山梨県,富士吉田市,上吉田５３６８番地の１－７号室,,19,202,4030005,,,,,,,2022-07-13,1,,,,,エイアンドアール,0
1313,5120001247128,新規,0,2022-07-13,2022-07-13,清水工業株式会社,,株式会社,大阪府,門真市,島頭２丁目１番２８号,,27,223,5710016,,,,,,,2022-07-13,1,,,,,シミズコウギョウ,0
1314,5120001247276,新規,0,2022-07-13,2022-07-13,株式会社バインウブ,,株式会社,大阪府,大阪市旭区,高殿７丁目１番１３号グローリイ岡村ＩＩ,00127195,27,117,5350031,,,,,,,2022-07-13,1,,,,,バインウブ,0
1315,5120001247301,新規,0,2022-07-13,2022-07-13,株式会社エスケイホールディングス,,株式会社,大阪府,大阪市福島区,海老江５丁目２番２号,,27,103,5530001,,,,,,,2022-07-13,1,,,,,エスケイホールディングス,0
1316,5120001247334,新規,0,2022-07-13,2022-07-13,株式会社ＨＭＫ,,株式会社,大阪府,大阪市西区,南堀江３丁目６番５号Ａ‘ｓ南堀江２０１号,,27,106,5500015,,,,,,,2022-07-13,1,,,,,エイチエムケイ,0
1318,5120003022058,新規,0,2022-07-13,2022-07-13,合同会社ＺＥＲＯ,,合同会社,大阪府,大阪市天王寺区,国分町４番１号マツウラビル２０１号,,27,109,5430044,,,,,,,2022-07-13,1,,,,,ゼロ,0
1324,5120101065925,新規,0,2022-07-13,2022-07-13,Ｒ　ＪＡＰＡＮ株式会社,,株式会社,大阪府,和泉市,福瀬町５１１－１,,27,219,5941123,,,,,,,2022-07-13,1,,,,,アールジャパン,0
1326,5120901046249,新規,0,2022-07-13,2022-07-13,株式会社繁昌一,,株式会社,大阪府,箕面市,西小路４丁目８番７号,,27,220,5620003,,,,,,,2022-07-13,1,,,,,ハンジョウイチ,0
1331,5130001072145,新規,0,2022-07-13,2022-07-13,株式会社至誠建設,,株式会社,京都府,京都市上京区,寺町通今出川上る二丁目鶴山町５－１２,,26,102,6020000,,,,,,,2022-07-13,1,,,,,シセイケンセツ,0
1332,5130001072178,新規,0,2022-07-13,2022-07-13,株式会社Ｔ・Ｙハウジング,,株式会社,京都府,京都市伏見区,久我西出町２番地１３,,26,109,6128496,,,,,,,2022-07-13,1,,,,,ティーワイハウジング,0
1333,5130001072194,新規,0,2022-07-13,2022-07-13,株式会社親館,,株式会社,京都府,京都市北区,西賀茂北川上町５８番地２,,26,101,6038816,,,,,,,2022-07-13,1,,,,,オヤカン,0
1336,5140003017898,新規,0,2022-07-13,2022-07-13,ＮＫＳ合同会社,,合同会社,兵庫県,芦屋市,伊勢町２番１号,,28,206,6590052,,,,,,,2022-07-13,1,,,,,エヌケーエス,0
1339,5160001024358,新規,0,2022-07-13,2022-07-13,株式会社レフレールエージェント,,株式会社,滋賀県,甲賀市,甲賀町田堵野５５６,,25,209,5203426,,,,,,,2022-07-13,1,,,,,レフレールエージェント,0
1340,5160001024366,新規,0,2022-07-13,2022-07-13,株式会社ＶＥＲＴＥＣＨ,,株式会社,滋賀県,大津市,衣川１丁目３９番３－２０２号,,25,201,5200244,,,,,,,2022-07-13,1,,,,,ヴァーテック,0
1341,5160003002618,新規,0,2022-07-13,2022-07-13,合同会社ケイワイネクスト,,合同会社,滋賀県,野洲市,冨波甲１０８８番地１メゾンドスワイニー１０２号,,25,210,5202351,,,,,,,2022-07-13,1,,,,,ケイワイネクスト,0
1348,5180001152165,新規,0,2022-07-13,2022-07-13,株式会社ＫＧ,,株式会社,愛知県,一宮市,森本３丁目１７－２４－２０２,,23,203,4910831,,,,,,,2022-07-13,1,,,,,ケージー,0
1349,5180001152181,新規,0,2022-07-13,2022-07-13,株式会社ボーダレス,,株式会社,愛知県,一宮市,木曽川町玉ノ井字四ツ辻東１６番地１,,23,203,4930004,,,,,,,2022-07-13,1,,,,,ボーダレス,0
1350,5180001152207,新規,0,2022-07-13,2022-07-13,成株式会社,,株式会社,愛知県,愛知郡東郷町,大字春木字白土１番地３４,,23,302,4700162,,,,,,,2022-07-13,1,,,,,ナリ,0
1351,5180001152215,新規,0,2022-07-13,2022-07-13,株式会社櫻建設,,株式会社,愛知県,名古屋市中区,新栄２丁目８番２３号,,23,106,4600007,,,,,,,2022-07-13,1,,,,,サクラケンセツ,0
1353,5180003024032,新規,0,2022-07-13,2022-07-13,Ｍｉｉｉ合同会社,,合同会社,愛知県,名古屋市瑞穂区,初日町２丁目４番地の６プラウド瑞穂汐路２０６号,,23,108,4670028,,,,,,,2022-07-13,1,,,,,ミイ,0
1357,5180301036423,新規,0,2022-07-13,2022-07-13,株式会社Ｈａｒｕペイント,,株式会社,愛知県,刈谷市,井ケ谷町下ノ瀬５７番地３,,23,210,4480001,,,,,,,2022-07-13,1,,,,,ハルペイント,0
1359,5190003004041,新規,0,2022-07-13,2022-07-13,合同会社祈千幸,,合同会社,三重県,名張市,さつき台１番町２６４番地,,24,208,5180604,,,,,,,2022-07-13,1,,,,,イチゴ,0
1370,5240003005711,新規,0,2022-07-13,2022-07-13,福山ペットセレモ合同会社,,合同会社,広島県,福山市,蔵王町１５６８番地,,34,207,7210971,,,,,,,2022-07-13,1,,,,,フクヤマペットセレモ,0
1385,5290001098265,新規,0,2022-07-13,2022-07-13,株式会社古賀ビル,,株式会社,福岡県,大野城市,錦町１丁目３番３０号,,40,219,8160935,,,,,,,2022-07-13,1,,,,,コガビル,0
1389,5310001017957,新規,0,2022-07-13,2022-07-13,長崎東エコクリエイション株式会社,,株式会社,長崎県,長崎市,興善町２番２１号,,42,201,8500032,,,,,,,2022-07-13,1,,,,,ナガサキヒガシエコクリエイション,0
1393,5320001019201,新規,0,2022-07-13,2022-07-13,株式会社Ｅｘｓｔａｇｅ,,株式会社,大分県,大分市,明野東１丁目９番３リビオ明野中央クレア１０８号,,44,201,8700161,,,,,,,2022-07-13,1,,,,,エクステージ,0
1403,5350003004124,新規,0,2022-07-13,2022-07-13,合同会社ニチナンベース,,合同会社,宮崎県,日南市,瀬貝２丁目２番１号,,45,204,8870011,,,,,,,2022-07-13,1,,,,,ニチナンベース,0
1407,5380003005227,新規,0,2022-07-13,2022-07-13,合同会社３６９ｃｒａｆｔｅｒ’ｓ,,合同会社,福島県,本宮市,本宮字上町４６番地１,,07,214,9691134,,,,,,,2022-07-13,1,,,,,サンロクキュウクラフターズ,0
1415,5430001087039,新規,0,2022-07-13,2022-07-13,株式会社Ｂｕｉｌｄ＆Ｃｒａｓｈ,,株式会社,北海道,札幌市豊平区,福住二条１１丁目２番２５号,,01,105,0620042,,,,,,,2022-07-13,1,,,,,ビルドアンドクラッシュ,0
1416,5430001087055,新規,0,2022-07-13,2022-07-13,株式会社北令設備,,株式会社,北海道,札幌市手稲区,西宮の沢四条３丁目２番７－４０４号,,01,109,0060004,,,,,,,2022-07-13,1,,,,,ホクレイセツビ,0
1419,5460005001554,新規,0,2022-07-13,2022-07-13,税理士法人マイタックス・パートナーズ,,その他の設立登記法人,北海道,釧路市,柏木町５番６号,,01,206,0850824,,,,,,,2022-07-13,1,,,,,マイタックスパートナーズ,0
1422,5480003001851,新規,0,2022-07-13,2022-07-13,合同会社ＬａｓＣｏｌｏｒｅｓ,,合同会社,徳島県,徳島市,北山町神ノ前１４番地の２,,36,201,7708032,,,,,,,2022-07-13,1,,,,,ラスコロレス,0
1424,5490001010226,新規,0,2022-07-13,2022-07-13,株式会社山中畜産,,株式会社,高知県,高岡郡四万十町,本堂２８７番地,,39,412,7860043,,,,,,,2022-07-13,1,,,,,ヤマナカチクサン,0
1430,5500005008504,新規,0,2022-07-13,2022-07-13,久万町農業會,,その他の設立登記法人,愛媛県,上浮穴郡久万高原町,久万４８７番地の２,,38,386,7911201,,,,,,,2022-07-13,1,,,,,クマチョウノウギョウカイ,0
1436,6010001228047,新規,0,2022-07-13,2022-07-13,ＳＦ海洋発電株式会社,,株式会社,東京都,千代田区,有楽町１丁目２番２号,,13,101,1000006,,,,,,,2022-07-13,1,,,,,エスエフカイヨウハツデン,0
1437,6010001228055,新規,0,2022-07-13,2022-07-13,株式会社ＳＰＡＷＮ,,株式会社,東京都,中央区,銀座６丁目１３番１６号銀座ＷａｌｌビルＵＣＦ５０１,,13,102,1040061,,,,,,,2022-07-13,1,,,,,スポーン,0
1438,6010001228113,新規,0,2022-07-13,2022-07-13,株式会社ａｍｉｃｏ,,株式会社,東京都,文京区,千駄木３丁目２０番３号ドルチェ千駄木３０１,,13,105,1130022,,,,,,,2022-07-13,1,,,,,アミコ,0
1441,6010003038147,新規,0,2022-07-13,2022-07-13,合同会社Ｒｅｓｉｌｉｅｎｃｅ　ＸＶ,,合同会社,東京都,中央区,銀座１丁目６番１１号土志田ビルディング３Ｆ,,13,102,1040061,,,,,,,2022-07-13,1,,,,,レジリエンスフィフティーン,0
1442,6010003038171,新規,0,2022-07-13,2022-07-13,合同会社ディーエナジーインベストメント,,合同会社,東京都,千代田区,丸の内３丁目１番１号東京共同会計事務所内,,13,101,1000005,,,,,,,2022-07-13,1,,,,,ディーエナジーインベストメント,0
1449,6010401168289,新規,0,2022-07-13,2022-07-13,株式会社Ｓｕｃｃｅｓｓ　Ｈｏｌｄｅｒｓ分割準備会社,,株式会社,東京都,港区,六本木６丁目８番１０号,,13,103,1060032,,,,,,,2022-07-13,1,,,,,サクセスホルダーズブンカツジュンビガイシャ,0
1450,6010401168297,新規,0,2022-07-13,2022-07-13,株式会社Ａｇｅｎｃｙ　Ｉｓ,,株式会社,東京都,港区,赤坂１丁目１２番３２号,,13,103,1070052,,,,,,,2022-07-13,1,,,,,エージェンシーアイエス,0
1451,6010401168388,新規,0,2022-07-13,2022-07-13,株式会社ゼラフ,,株式会社,東京都,港区,高輪２丁目１７－１２,,13,103,1080074,,,,,,,2022-07-13,1,,,,,ゼラフ,0
1452,6010401168413,新規,0,2022-07-13,2022-07-13,株式会社ノームコア,,株式会社,東京都,港区,南青山２丁目２番１５号,,13,103,1070062,,,,,,,2022-07-13,1,,,,,ノームコア,0
1453,6010401168479,新規,0,2022-07-13,2022-07-13,株式会社ＧＡＲＹＵ,,株式会社,東京都,港区,東麻布２丁目３５－１ＣＫビル６Ｆ,,13,103,1060044,,,,,,,2022-07-13,1,,,,,ガリュウ,0
1454,6010401168487,新規,0,2022-07-13,2022-07-13,ＣＡＲＳＬＡＮ粧業株式会社,,株式会社,東京都,港区,浜松町２丁目２番１５号浜松町ダイヤビル２Ｆ,,13,103,1050013,,,,,,,2022-07-13,1,,,,,カーズランショウギョウ,0
1455,6010401168561,新規,0,2022-07-13,2022-07-13,エナジーＩｎｃ株式会社,,株式会社,東京都,港区,南青山４丁目８番１５号,,13,103,1070062,,,,,,,2022-07-13,1,,,,,エナジーインク,0
1459,6010405021130,新規,0,2022-07-13,2022-07-13,特定非営利活動法人Ｕｎｂｉａｓｅｄ　Ｌｅａｒｎｉｎｇ,,その他の設立登記法人,東京都,港区,北青山２丁目７番２６－８０１号,,13,103,1070061,,,,,,,2022-07-13,1,,,,,アンバイアスドラーニング,0
1460,6010405021155,新規,0,2022-07-13,2022-07-13,滋賀竜王一般社団法人,,その他の設立登記法人,東京都,港区,元赤坂１丁目１番８号株式会社赤坂国際会計内,,13,103,1070051,,,,,,,2022-07-13,1,,,,,シガリュウオウ,0
1466,6010501049117,新規,0,2022-07-13,2022-07-13,使賢株式会社,,株式会社,東京都,台東区,上野６丁目７番１６号川久保ビル４０５号室,,13,106,1100005,,,,,,,2022-07-13,1,,,,,シケン,0
1468,6010601061483,新規,0,2022-07-13,2022-07-13,Ｃｕｏ‐Ｒｒｅ株式会社,,株式会社,東京都,墨田区,横川１丁目１５番１－８１０号,,13,107,1300003,,,,,,,2022-07-13,1,,,,,クオーレ,0
1469,6010601061491,新規,0,2022-07-13,2022-07-13,株式会社ａｎｌｅｅ,,株式会社,東京都,江東区,北砂６丁目２４番２９号,,13,108,1360073,,,,,,,2022-07-13,1,,,,,アンリー,0
1470,6010601061500,新規,0,2022-07-13,2022-07-13,株式会社１９００,,株式会社,東京都,江東区,大島５丁目４１－６レジディア大島４１０,,13,108,1360072,,,,,,,2022-07-13,1,,,,,センキュウヒャク,0
1472,6010603009638,新規,0,2022-07-13,2022-07-13,合同会社アテンポスタイル,,合同会社,東京都,江東区,東雲１丁目９番１８－４１４号,,13,108,1350062,,,,,,,2022-07-13,1,,,,,アテンポスタイル,0
1473,6010605004100,新規,0,2022-07-13,2022-07-13,医療法人社団清裕会,,その他の設立登記法人,東京都,江東区,東陽２丁目４番２６号飯田ビル３階,,13,108,1350016,,,,,,,2022-07-13,1,,,,,セイユウカイ,0
1474,6010701042945,新規,0,2022-07-13,2022-07-13,福島会計事務所株式会社,,株式会社,東京都,品川区,東五反田１丁目１０－７,,13,109,1410022,,,,,,,2022-07-13,1,,,,,フクシマカイケイジムショ,0
1475,6010703006295,新規,0,2022-07-13,2022-07-13,合同会社Ｗｈｉｔｅ　Ｈｏｕｓｅ,,合同会社,東京都,品川区,大崎１丁目２－３－１４１０,,13,109,1410032,,,,,,,2022-07-13,1,,,,,ホワイトハウス,0
1477,6010801033118,新規,0,2022-07-13,2022-07-13,株式会社相馬工芸,,株式会社,東京都,大田区,田園調布本町２９番２－４０２号,,13,111,1450072,,,,,,,2022-07-13,1,,,,,ソウマコウゲイ,0
1478,6010803004232,新規,0,2022-07-13,2022-07-13,合同会社Ｌｏｓｅｒｓ　ｆｉｌｍ,,合同会社,東京都,大田区,池上５丁目９番１５号,,13,111,1460082,,,,,,,2022-07-13,1,,,,,ルーザーズフィルム,0
1484,6010901051234,新規,0,2022-07-13,2022-07-13,株式会社チエノワ,,株式会社,東京都,世田谷区,桜丘１丁目３番地１４号,,13,112,1560054,,,,,,,2022-07-13,1,,,,,チエノワ,0
1498,6011101099444,新規,0,2022-07-13,2022-07-13,株式会社Ａｍａｍｉｙａ,,株式会社,東京都,新宿区,戸山１丁目１番１０－３０２号,,13,104,1620052,,,,,,,2022-07-13,1,,,,,アマミヤ,0
1502,6011301027915,新規,0,2022-07-13,2022-07-13,株式会社西村,,株式会社,東京都,杉並区,阿佐谷北２丁目７番１４号,,13,115,1660001,,,,,,,2022-07-13,1,,,,,ニシムラ,0
1504,6011503005223,新規,0,2022-07-13,2022-07-13,ＨＡＦ　Ｊｅｗｅｌ合同会社,,合同会社,東京都,荒川区,町屋３丁目１９番１６号ブル・ガレンドゥ３０５,,13,118,1160001,,,,,,,2022-07-13,1,,,,,ハフジュエル,0
1505,6011801040995,新規,0,2022-07-13,2022-07-13,株式会社ｄｅｆｉ,,株式会社,東京都,葛飾区,西新小岩１丁目８番４－３０１号,,13,122,1240025,,,,,,,2022-07-13,1,,,,,デフィ,0
1517,6013305003363,新規,0,2022-07-13,2022-07-13,一般社団法人日本卓球協議会,,その他の設立登記法人,東京都,豊島区,目白４丁目１３番３号大和ビル２Ｆ,,13,116,1710031,,,,,,,2022-07-13,1,,,,,ニホンタッキュウキョウギカイ,0
1524,6020001147295,新規,0,2022-07-13,2022-07-13,株式会社天誠エステート,,株式会社,神奈川県,横浜市南区,共進町１丁目８－１エンゼルハイム蒔田第３・５０１号,,14,105,2320015,,,,,,,2022-07-13,1,,,,,テンセイエステート,0
1525,6020001147337,新規,0,2022-07-13,2022-07-13,株式会社ＳＥＥＲＡＹ　ＪＡＰＡＮ,,株式会社,神奈川県,横浜市中区,野毛町２丁目８９番地,,14,104,2310064,,,,,,,2022-07-13,1,,,,,シイレイジャパン,0
1526,6020001147353,新規,0,2022-07-13,2022-07-13,株式会社グレインアンドストラテジー,,株式会社,神奈川県,横浜市南区,別所４丁目９番２０号,,14,105,2320064,,,,,,,2022-07-13,1,,,,,グレインアンドストラテジー,0
1527,6020001147361,新規,0,2022-07-13,2022-07-13,株式会社エンセンス,,株式会社,神奈川県,横浜市西区,中央２丁目５０番５－５０６号,,14,103,2200051,,,,,,,2022-07-13,1,,,,,エンセンス,0
1533,6020003022100,新規,0,2022-07-13,2022-07-13,エヌランド合同会社,,合同会社,神奈川県,横浜市港南区,芹が谷１丁目１７番３２－１号,,14,111,2330006,,,,,,,2022-07-13,1,,,,,エヌランド,0
1539,6021001076501,新規,0,2022-07-13,2022-07-13,恒輝株式会社,,株式会社,神奈川県,大和市,深見３７０６番地１２,,14,213,2420011,,,,,,,2022-07-13,1,,,,,コウキ,0
1540,6021001076518,新規,0,2022-07-13,2022-07-13,ＮＡＢＡＫＩ　ＮＩＰＰＯＮ株式会社,,株式会社,神奈川県,座間市,緑ケ丘３丁目３４番１３号ベルテス緑ケ丘１０２,,14,216,2520021,,,,,,,2022-07-13,1,,,,,ナバキニッポン,0
1541,6021001076542,新規,0,2022-07-13,2022-07-13,株式会社ＡｖＣ,,株式会社,神奈川県,足柄下郡真鶴町,真鶴１８１０番地１２,,14,383,2590201,,,,,,,2022-07-13,1,,,,,エイヴィシー,0
1544,6021003011927,新規,0,2022-07-13,2022-07-13,合同会社ＳＰＥＣＴＲＥ,,合同会社,神奈川県,相模原市南区,相模大野８丁目２－４クレヴィア相模大野５０３,,14,153,2520303,,,,,,,2022-07-13,1,,,,,スペクター,0
1546,6030001149092,新規,0,2022-07-13,2022-07-13,株式会社インベストメント出版,,株式会社,埼玉県,入間市,豊岡１丁目４番３０号,,11,225,3580003,,,,,,,2022-07-13,1,,,,,インベストメントシュッパン,0
1547,6030001149175,新規,0,2022-07-13,2022-07-13,株式会社ｓｈｉ,,株式会社,埼玉県,所沢市,東町１８番１－４０３号,,11,208,3591116,,,,,,,2022-07-13,1,,,,,シ,0
1548,6030001149183,新規,0,2022-07-13,2022-07-13,株式会社トゥーコムスト,,株式会社,埼玉県,越谷市,大字西方２９７５番地１－８３７,,11,222,3430822,,,,,,,2022-07-13,1,,,,,トゥーコムスト,0
1549,6030001149191,新規,0,2022-07-13,2022-07-13,株式会社ＢｅａｒＭｅｄｉ,,株式会社,埼玉県,戸田市,南町１番１６－２０１号,,11,224,3350025,,,,,,,2022-07-13,1,,,,,ベアメディ,0
1550,6030001149217,新規,0,2022-07-13,2022-07-13,株式会社Ｘｓ　ｏｆ　Ｌｉｆｅ,,株式会社,埼玉県,比企郡小川町,大字下里１４７３番地,,11,343,3550323,,,,,,,2022-07-13,1,,,,,エックスオブライフ,0
1552,6030003019797,新規,0,2022-07-13,2022-07-13,合同会社ＵＮＩＴＩＳＴ,,合同会社,埼玉県,蓮田市,大字井沼２７０－１０,,11,238,3490135,,,,,,,2022-07-13,1,,,,,ユニティスト,0
1558,6040001124219,新規,0,2022-07-13,2022-07-13,Ｊサポート株式会社,,株式会社,千葉県,船橋市,芝山２丁目１２番２－２号,,12,204,2740816,,,,,,,2022-07-13,1,,,,,ジェイサポート,0
1559,6040001124243,新規,0,2022-07-13,2022-07-13,株式会社ｇｏｓｈｅｎ,,株式会社,千葉県,船橋市,前原西２丁目１２番８号鈴木生花ビル２階,,12,204,2740825,,,,,,,2022-07-13,1,,,,,ゴーシェン,0
1560,6040001124251,新規,0,2022-07-13,2022-07-13,株式会社ｇｉｆｔ,,株式会社,千葉県,流山市,おおたかの森西１丁目２０番地の１ルフォン流山おおたかの森３０３,,12,220,2700128,,,,,,,2022-07-13,1,,,,,ギフト,0
1561,6040001124292,新規,0,2022-07-13,2022-07-13,株式会社Ａｌｂｅｒｏ　Ｂｌｕ,,株式会社,千葉県,柏市,根戸４１４番地８７,,12,217,2770831,,,,,,,2022-07-13,1,,,,,アルベロブル,0
1563,6040003020382,新規,0,2022-07-13,2022-07-13,合同会社Ｖａｌｕｅ‐Ｅｘｐｌｏｒｉｎｇ　Ｐａｒｔｎｅｒｓ,,合同会社,千葉県,白井市,根８０－４ＳＫガレジオ１－Ｄ,,12,232,2701431,,,,,,,2022-07-13,1,,,,,ヴァリューエクスプロアリングパートナーズ,0
1568,6050001051412,新規,0,2022-07-13,2022-07-13,株式会社南風Ｍコーポレーション,,株式会社,茨城県,水戸市,石川２丁目４０４８番地の１,,08,201,3100905,,,,,,,2022-07-13,1,,,,,ミナミカゼエムコーポレーション,0
1571,6050002045850,新規,0,2022-07-13,2022-07-13,有限会社中村産業,,有限会社,茨城県,坂東市,逆井２８３３番地,,08,228,3060501,,,,,,,2022-07-13,1,,,,,ナカムラサンギョウ,0
1576,6060003004152,新規,0,2022-07-13,2022-07-13,ちょびっとＣｏｍｐａｎｙ合同会社,,合同会社,栃木県,宇都宮市,針ケ谷１丁目２３番１１号,,09,201,3210137,,,,,,,2022-07-13,1,,,,,チョビットカンパニー,0
1579,6070001039439,新規,0,2022-07-13,2022-07-13,ＶＡ株式会社,,株式会社,群馬県,太田市,東別所町５１５番地３１,,10,205,3730815,,,,,,,2022-07-13,1,,,,,ヴィーエイ,0
1581,6080001025082,新規,0,2022-07-13,2022-07-13,エル・エル・イー電気株式会社,,株式会社,静岡県,静岡市清水区,押切８６０番地の５８,,22,103,4240008,,,,,,,2022-07-13,1,,,,,エルエルイーデンキ,0
1588,6080101023416,新規,0,2022-07-13,2022-07-13,株式会社ウィンラインサービス,,株式会社,静岡県,裾野市,今里５２３番地４３,,22,220,4101104,,,,,,,2022-07-13,1,,,,,ウィンラインサービス,0
1593,6080401025954,新規,0,2022-07-13,2022-07-13,Ｗｅｗｉｌｌ　ｆｏｒｅｓｔ　ｔｒｕｓｔ株式会社,,株式会社,静岡県,浜松市中区,高林１丁目８番４３号,,22,131,4300907,,,,,,,2022-07-13,1,,,,,ウィーウィルフォレストトラスト,0
1595,6100001035525,新規,0,2022-07-13,2022-07-13,株式会社ＳｏＬｕａ,,株式会社,長野県,松本市,城東１丁目４番６号,,20,202,3900807,,,,,,,2022-07-13,1,,,,,ソルア,0
1598,6110003004816,新規,0,2022-07-13,2022-07-13,合同会社クロスエステート,,合同会社,新潟県,上越市,富岡３５２５番地２階２号室,,15,222,9430173,,,,,,,2022-07-13,1,,,,,クロスエステート,0
1609,6120001247300,新規,0,2022-07-13,2022-07-13,株式会社傾奇者,,株式会社,大阪府,守口市,大久保町２丁目３９番２７号,,27,209,5700012,,,,,,,2022-07-13,1,,,,,カブキモノ,0
1610,6120001247317,新規,0,2022-07-13,2022-07-13,株式会社ＮＥＸＴ,,株式会社,大阪府,大阪市淀川区,宮原２丁目１２番１４号,,27,123,5320003,,,,,,,2022-07-13,1,,,,,ネクスト,0
1611,6120001247366,新規,0,2022-07-13,2022-07-13,株式会社ａｆｆｅｃｔｉｏｎ,,株式会社,大阪府,大阪市西区,北堀江３丁目４番１３号,,27,106,5500014,,,,,,,2022-07-13,1,,,,,アフェクション,0
1616,6120003022049,新規,0,2022-07-13,2022-07-13,中原アリサ合同会社,,合同会社,大阪府,大阪市阿倍野区,阿倍野筋１丁目１番４３号あべのハルカス３１Ｆ,,27,119,5450052,,,,,,,2022-07-13,1,,,,,ナカハラアリサ,0
1617,6120003022057,新規,0,2022-07-13,2022-07-13,合同会社ステラセンソ,,合同会社,大阪府,大阪市阿倍野区,阪南町５丁目３番１８号小濱方,,27,119,5450021,,,,,,,2022-07-13,1,,,,,ステラセンソ,0
1627,6120903004229,新規,0,2022-07-13,2022-07-13,合同会社Ｓ＆Ｋ,,合同会社,大阪府,豊中市,東豊中町１丁目２６番２７号,,27,203,5600003,,,,,,,2022-07-13,1,,,,,エスアンドケー,0
1628,6122001036063,新規,0,2022-07-13,2022-07-13,株式会社ＮＨ　ＥＸＰＲＥＳＳ,,株式会社,大阪府,東大阪市,新庄東４－２９ルミナーレ東大阪３０２,,27,227,5780951,,,,,,,2022-07-13,1,,,,,エヌエイチエクスプレス,0
1629,6130001072177,新規,0,2022-07-13,2022-07-13,株式会社Ｍ’ｓ　ＤＩＮＩＮＧ,,株式会社,京都府,京都市右京区,西京極大門町１７－４グラン・シティオ西京極２０２号,,26,108,6150812,,,,,,,2022-07-13,1,,,,,エムズダイニング,0
1631,6130003008055,新規,0,2022-07-13,2022-07-13,八八機巧設計合同会社,,合同会社,京都府,京都市下京区,玉津島町２９４,,26,106,6008427,,,,,,,2022-07-13,1,,,,,ハチハチキコウセッケイ,0
1632,6140001126709,新規,0,2022-07-13,2022-07-13,株式会社崇仁,,株式会社,兵庫県,神戸市須磨区,南町１丁目４－１６,,28,107,6540036,,,,,,,2022-07-13,1,,,,,スウジン,0
1637,6150001025686,新規,0,2022-07-13,2022-07-13,株式会社ニジイロセプト,,株式会社,奈良県,奈良市,東木辻町３４番地,00127194,29,201,6308327,,,,,,,2022-07-13,1,,,,,ニジイロセプト,0
1638,6160001024365,新規,0,2022-07-13,2022-07-13,富田産業株式会社,,株式会社,滋賀県,大津市,湖青２丁目３番地６,,25,201,5200532,,,,,,,2022-07-13,1,,,,,トミタサンギョウ,0
1640,6170001017186,新規,0,2022-07-13,2022-07-13,株式会社ＲＥＢＯＲＮ,,株式会社,和歌山県,和歌山市,和田４６８番地９,,30,201,6410004,,,,,,,2022-07-13,1,,,,,リボーン,0
1641,6170001017194,新規,0,2022-07-13,2022-07-13,株式会社紀南デリバリー,,株式会社,和歌山県,新宮市,佐野１丁目１１番８号,,30,207,6470071,,,,,,,2022-07-13,1,,,,,キナンデリバリー,0
1647,6180001152172,新規,0,2022-07-13,2022-07-13,株式会社ＴＫロボシステム,,株式会社,愛知県,知多郡阿久比町,大字植大字西徳吉１番地４８,,23,441,4702216,,,,,,,2022-07-13,1,,,,,ティーケーロボシステム,0
1648,6180001152180,新規,0,2022-07-13,2022-07-13,株式会社インテリア野村,,株式会社,愛知県,名古屋市守山区,桔梗平２丁目３０１番地の１,,23,113,4630814,,,,,,,2022-07-13,1,,,,,インテリアノムラ,0
1653,6180301036430,新規,0,2022-07-13,2022-07-13,株式会社Ｖ．Ｉ．Ｎ,,株式会社,愛知県,知立市,八ツ田町荒子１３７番地１フォレストガーデン１０２号,,23,225,4720012,,,,,,,2022-07-13,1,,,,,ヴイアイエヌ,0
1657,6190001029626,新規,0,2022-07-13,2022-07-13,株式会社ＣＨＩＢＡＨＯＭＥ,,株式会社,三重県,津市,八町１丁目２－７岩田ビル１０１号,,24,201,5140041,,,,,,,2022-07-13,1,,,,,チバホーム,0
1662,6200003005615,新規,0,2022-07-13,2022-07-13,合同会社三河,,合同会社,岐阜県,可児市,土田字大池５１１５番地２,,21,214,5090206,,,,,,,2022-07-13,1,,,,,ミカワ,0
1666,6230001019449,新規,0,2022-07-13,2022-07-13,ハゼルコーヒー株式会社,,株式会社,富山県,富山市,古沢１１１番地２,,16,201,9300151,,,,,,,2022-07-13,1,,,,,ハゼルコーヒー,0
1672,6230005009248,新規,0,2022-07-13,2022-07-13,農事組合法人茶屋ファーム,,その他の設立登記法人,富山県,南砺市,利賀村１７８番１号,,16,210,9392507,,,,,,,2022-07-13,1,,,,,チャヤファーム,0
1676,6240001060096,新規,0,2022-07-13,2022-07-13,株式会社ＭＤサービス,,株式会社,広島県,広島市東区,戸坂大上４丁目２番４号,,34,102,7320014,,,,,,,2022-07-13,1,,,,,エムディサービス,0
1681,6280003001631,新規,0,2022-07-13,2022-07-13,合同会社誠心福祉会,,合同会社,島根県,松江市,浜乃木６丁目１５番２１号,,32,201,6900044,,,,,,,2022-07-13,1,,,,,セイシンフクシカイ,0
1686,6290001098248,新規,0,2022-07-13,2022-07-13,株式会社ＣＡＮＡＥＬ,,株式会社,福岡県,福岡市中央区,天神３丁目４番９号,,40,133,8100001,,,,,,,2022-07-13,1,,,,,カナエル,0
1687,6290001098289,新規,0,2022-07-13,2022-07-13,株式会社Ａｄｖａｎｃｅ,,株式会社,福岡県,福岡市東区,原田１丁目７番５－１０３号,,40,131,8120063,,,,,,,2022-07-13,1,,,,,アドバンス,0
1691,6290801028726,新規,0,2022-07-13,2022-07-13,株式会社優翔サポート,,株式会社,福岡県,鞍手郡鞍手町,大字新延５６２番地２,,40,402,8071305,,,,,,,2022-07-13,1,,,,,ユウショウサポート,0
1692,6300001012990,新規,0,2022-07-13,2022-07-13,ＫＵＲＯＫＩ　ＨＯＬＤＩＮＧＳ株式会社,,株式会社,佐賀県,伊万里市,松島町１００番地１,,41,205,8480045,,,,,,,2022-07-13,1,,,,,クロキホールディングス,0
1701,6330003009446,新規,0,2022-07-13,2022-07-13,合同会社ＬＬＭ,,合同会社,熊本県,合志市,幾久富１９０９番地４２,,43,216,8611112,,,,,,,2022-07-13,1,,,,,エルエルエム,0
1705,6360001030608,新規,0,2022-07-13,2022-07-13,ＧＲＡＷＩＳＨ株式会社,,株式会社,沖縄県,中頭郡北谷町,字吉原２８－１－２Ｆ,,47,326,9040105,,,,,,,2022-07-13,1,,,,,グラウィッシュ,0
1706,6360001030665,新規,0,2022-07-13,2022-07-13,株式会社具志堅造園,,株式会社,沖縄県,名護市,宇茂佐の森４丁目３番地２トーマス宇茂佐の森６１０号室,,47,209,9050009,,,,,,,2022-07-13,1,,,,,グシケンゾウエン,0
1710,6370001048780,新規,0,2022-07-13,2022-07-13,ＢＥＡＵＴＹ　ＢＥＬＬ株式会社,,株式会社,宮城県,石巻市,桃生町中津山字永田３番地１,,04,202,9860313,,,,,,,2022-07-13,1,,,,,ビューティーベル,0
1711,6370001048789,新規,0,2022-07-13,2022-07-13,伊和スタイル株式会社,,株式会社,宮城県,宮城郡利府町,中央３丁目１番地２,,04,406,9810104,,,,,,,2022-07-13,1,,,,,イワスタイル,0
1712,6370003005771,新規,0,2022-07-13,2022-07-13,合同会社ＹＳＤマネジメント,,合同会社,宮城県,仙台市宮城野区,宮千代１丁目２７番地の１７,,04,102,9830044,,,,,,,2022-07-13,1,,,,,ワイエスディマネジメント,0
1717,6420003002540,新規,0,2022-07-13,2022-07-13,合同会社Ｉｎｄｉｇｏ,,合同会社,青森県,青森市,中佃１丁目１－３８ヴィリッジリバー中佃Ｂ号室,,02,201,0300963,,,,,,,2022-07-13,1,,,,,インディゴ,0
1719,6430001086997,新規,0,2022-07-13,2022-07-13,アイピープラス株式会社,,株式会社,北海道,札幌市中央区,円山西町５丁目３番５５号,,01,101,0640944,,,,,,,2022-07-13,1,,,,,アイピープラス,0
1720,6430003014089,新規,0,2022-07-13,2022-07-13,ｐｌａｙ　ｗｉｔｈ　ｕｍｅｋｉｄｓ合同会社,,合同会社,北海道,札幌市西区,琴似三条７丁目６番７－１３０１号,,01,107,0630813,,,,,,,2022-07-13,1,,,,,プレイウィズウメキッズ,0
1722,6460101007215,新規,0,2022-07-13,2022-07-13,株式会社クロスショップタニ,,株式会社,北海道,河西郡芽室町,西四条８丁目１番地２２,,01,637,0820034,,,,,,,2022-07-13,1,,,,,クロスショップタニ,0
1723,6460103001471,新規,0,2022-07-13,2022-07-13,合同会社ＳＡＭＳＡ,,合同会社,北海道,河東郡上士幌町,字上士幌東３線２３５番地,,01,633,0801408,,,,,,,2022-07-13,1,,,,,サムサ,0
1727,6490001010233,新規,0,2022-07-13,2022-07-13,株式会社タワーブリッジ,,株式会社,高知県,高知市,上町５丁目３番１０号,,39,201,7800901,,,,,,,2022-07-13,1,,,,,タワーブリッジ,0
1730,6490005006855,新規,0,2022-07-13,2022-07-13,特定非営利活動法人地球のこども,,その他の設立登記法人,高知県,高知市,若松町１１番２４号,,39,201,7810812,,,,,,,2022-07-13,1,,,,,チキュウノコドモ,0
1732,6700150110357,新規,0,2022-07-13,2022-06-24,岡山市移住・定住支援協議会,,その他,岡山県,岡山市北区,大供１丁目１－１,,33,101,7000913,,,,,,,2022-06-24,1,,,,,オカヤマシイジユウテイジユウシエンキヨウギカイ,0
1733,6700150110381,新規,0,2022-07-13,2022-06-24,Ｗｈｅｎ　Ｔｈｅ　Ｍｏｏｎ　Ｈｉｔｓ,,その他,愛知県,岡崎市,梅園町字３丁目１２番地１６,,23,202,4440031,,,,,,,2022-06-24,1,,,,,ウエンザムーンヒツツ,0
1734,6700150110448,新規,0,2022-07-13,2022-06-27,Ｄｒｅａｍ　Ｔｏｗｎ　Ｃｉｎｅｍａ,,その他,大阪府,大阪市城東区,鴫野西３丁目１－４６,,27,118,5360014,,,,,,,2022-06-27,1,,,,,ドリームタウンシネマ,0
1747,7010001228021,新規,0,2022-07-13,2022-07-13,ＳＮＹホールディングス株式会社,,株式会社,東京都,中央区,日本橋小伝馬町１５番１０号,,13,102,1030001,,,,,,,2022-07-13,1,,,,,エスエヌワイホールディングス,0
1748,7010001228038,新規,0,2022-07-13,2022-07-13,株式会社ｉＲｏＫａｎｄｏ,,株式会社,東京都,中央区,銀座２丁目１４番１４－３０５号,,13,102,1040061,,,,,,,2022-07-13,1,,,,,イロカンド,0
1751,7010003038047,新規,0,2022-07-13,2022-07-13,ＴＧ＆Ｍａｎａｇｅｍｅｎｔ合同会社,,合同会社,東京都,中央区,勝どき６丁目３番２－５２１８号,,13,102,1040054,,,,,,,2022-07-13,1,,,,,ティージーアンドマネジメント,0
1752,7010003038055,新規,0,2022-07-13,2022-07-13,Ｎｅｘａｃｃｅｐｔ合同会社,,合同会社,東京都,中央区,銀座１丁目２２番１１号銀座大竹ビジデンス２階,,13,102,1040061,,,,,,,2022-07-13,1,,,,,ネクサセプト,0
1753,7010003038146,新規,0,2022-07-13,2022-07-13,合同会社Ｒｅｓｉｌｉｅｎｃｅ　ＸＩＶ,,合同会社,東京都,中央区,銀座１丁目６番１１号土志田ビルディング３Ｆ,,13,102,1040061,,,,,,,2022-07-13,1,,,,,レジリエンスフォーティーン,0
1755,7010005035249,新規,0,2022-07-13,2022-07-13,ＲＢソーラーボートホールディングス一般社団法人,,その他の設立登記法人,東京都,中央区,八丁堀４丁目２番１０号ＡＯＪ税理士法人内,,13,102,1040032,,,,,,,2022-07-13,1,,,,,アールビーソーラーボートホールディングス,0
1756,7010005035265,新規,0,2022-07-13,2022-07-13,一般社団法人近未来理想科学,,その他の設立登記法人,東京都,千代田区,大手町１丁目５－１大手町ファーストスクェアイーストタワー４階,,13,101,1000004,,,,,,,2022-07-13,1,,,,,キンミライリソウカガク,0
1762,7010401168461,新規,0,2022-07-13,2022-07-13,株式会社Ｔｒｕｅ　Ｃｏｌｏｒｓ,,株式会社,東京都,港区,南青山５丁目１７番２号シドニービル５０２,,13,103,1070062,,,,,,,2022-07-13,1,,,,,トゥルーカラーズ,0
1767,7010405021154,新規,0,2022-07-13,2022-07-13,滋賀竜王特定目的会社,,その他の設立登記法人,東京都,港区,元赤坂１丁目１番８号株式会社赤坂国際会計内,,13,103,1070051,,,,,,,2022-07-13,1,,,,,シガリュウオウ,0
1771,7010601061482,新規,0,2022-07-13,2022-07-13,株式会社Ｒａｎｄｙ,,株式会社,東京都,墨田区,押上３丁目３３番９号,,13,107,1310045,,,,,,,2022-07-13,1,,,,,ランディー,0
1776,7010701042944,新規,0,2022-07-13,2022-07-13,株式会社サードライフ,,株式会社,東京都,品川区,西五反田２丁目３０番４号,,13,109,1410031,,,,,,,2022-07-13,1,,,,,サードライフ,0
1781,7010901051217,新規,0,2022-07-13,2022-07-13,株式会社ルミア,,株式会社,東京都,世田谷区,用賀２丁目３７番１１号,,13,112,1580097,,,,,,,2022-07-13,1,,,,,ルミア,0
1782,7010901051233,新規,0,2022-07-13,2022-07-13,株式会社７１６,,株式会社,東京都,世田谷区,池尻４丁目１１番１－５０２号,,13,112,1540001,,,,,,,2022-07-13,1,,,,,ナナイロ,0
1789,7011001148606,新規,0,2022-07-13,2022-07-13,ｂｇｒａｓｓ株式会社,,株式会社,東京都,渋谷区,神宮前６丁目２３番４号桑野ビル２階,,13,113,1500001,,,,,,,2022-07-13,1,,,,,ビーグラス,0
1790,7011001148630,新規,0,2022-07-13,2022-07-13,株式会社アディション,,株式会社,東京都,渋谷区,神南１丁目２０番１３号３Ｆ．ａｎｄｗｏｒｋ渋谷内,,13,113,1500041,,,,,,,2022-07-13,1,,,,,アディション,0
1791,7011001148655,新規,0,2022-07-13,2022-07-13,株式会社Ｂｅａｕｔｙ　Ｎ　Ｔｏｎａｌｉｔｙ,,株式会社,東京都,渋谷区,千駄ヶ谷１丁目１１番１３－３０２号,,13,113,1510051,,,,,,,2022-07-13,1,,,,,ビューティーアンドトーナリティ,0
1792,7011003014995,新規,0,2022-07-13,2022-07-13,合同会社ＷｉｎｅＢａｎｋ　Ｐ１,,合同会社,東京都,渋谷区,神泉町７番６号,,13,113,1500045,,,,,,,2022-07-13,1,,,,,ワインバンクピーワン,0
1799,7011201023947,新規,0,2022-07-13,2022-07-13,株式会社Ｄｏｇ　Ｌａｎｄ,,株式会社,東京都,中野区,弥生町１丁目３番２－７０３号,,13,114,1640013,,,,,,,2022-07-13,1,,,,,ドッグランド,0
1800,7011201023955,新規,0,2022-07-13,2022-07-13,株式会社スタオク,,株式会社,東京都,中野区,東中野１丁目５４番９－３０３号,,13,114,1640003,,,,,,,2022-07-13,1,,,,,スタオク,0
1804,7011301027914,新規,0,2022-07-13,2022-07-13,オリジン株式会社,,株式会社,東京都,杉並区,高円寺北１丁目５番６－４０２号,,13,115,1660002,,,,,,,2022-07-13,1,,,,,オリジン,0
1805,7011301027939,新規,0,2022-07-13,2022-07-13,福樹商店株式会社,,株式会社,東京都,杉並区,和田３丁目４１番２９号,,13,115,1660012,,,,,,,2022-07-13,1,,,,,フクジュショウテン,0
1807,7011501028258,新規,0,2022-07-13,2022-07-13,株式会社フライアス,,株式会社,東京都,荒川区,東尾久５丁目８番５号３０１号室,,13,118,1160012,,,,,,,2022-07-13,1,,,,,フライアス,0
1809,7011503005214,新規,0,2022-07-13,2022-07-13,合同会社ＳＣＬ,,合同会社,東京都,北区,東十条３丁目１７番４号Ｓビル２Ｆ,,13,117,1140001,,,,,,,2022-07-13,1,,,,,エスシーエル,0
1810,7011503005222,新規,0,2022-07-13,2022-07-13,Ｆｏｒ　Ｉｎｎｏｖａｔｉｏｎ合同会社,,合同会社,東京都,荒川区,東日暮里３丁目１２－１５,,13,118,1160014,,,,,,,2022-07-13,1,,,,,フォーイノベーション,0
1814,7011701025451,新規,0,2022-07-13,2022-07-13,株式会社ＩＣＲ‐ｆａｃｔｏｒｙ,,株式会社,東京都,江戸川区,東松本１丁目６番５号栄華レジデンス１Ｆ,,13,123,1330071,,,,,,,2022-07-13,1,,,,,アイシーアールファクトリー,0
1815,7011801040978,新規,0,2022-07-13,2022-07-13,ノボル企画株式会社,,株式会社,東京都,足立区,綾瀬２丁目１４番５号ノボルビル２階,,13,121,1200005,,,,,,,2022-07-13,1,,,,,ノボルキカク,0
1821,7013301049376,新規,0,2022-07-13,2022-07-13,株式会社ＢｌｕｅＷａｖｅ,,株式会社,東京都,豊島区,上池袋１丁目２６番６－３０４号,,13,116,1700012,,,,,,,2022-07-13,1,,,,,ブルーウェーブ,0
1827,7020001147369,新規,0,2022-07-13,2022-07-13,ｔａｋａｒａｂａＣｏ株式会社,,株式会社,神奈川県,横浜市中区,桜木町１丁目１０１番地１クロスゲート７階,,14,104,2310062,,,,,,,2022-07-13,1,,,,,,0
1833,7020003022099,新規,0,2022-07-13,2022-07-13,ラーチャー合同会社,,合同会社,神奈川県,横浜市青葉区,荏田西１丁目５－１７,,14,117,2250014,,,,,,,2022-07-13,1,,,,,ラーチャー,0
1834,7020003022116,新規,0,2022-07-13,2022-07-13,ｉｋｅ　ａｔｅｌｉｅｒ合同会社,,合同会社,神奈川県,横浜市中区,住吉町３丁目２８番地,,14,104,2310013,,,,,,,2022-07-13,1,,,,,イケアトリエ,0
1840,7021001076491,新規,0,2022-07-13,2022-07-13,ＲＦＭ株式会社,,株式会社,神奈川県,中郡大磯町,高麗１丁目１４番２４号,,14,341,2550001,,,,,,,2022-07-13,1,,,,,アールエフエム,0
1841,7021001076517,新規,0,2022-07-13,2022-07-13,株式会社サブスプリング,,株式会社,神奈川県,相模原市中央区,淵野辺１丁目１番４号,,14,152,2520206,,,,,,,2022-07-13,1,,,,,サブスプリング,0
1842,7021001076525,新規,0,2022-07-13,2022-07-13,株式会社メイセーインテリアプランニング,,株式会社,神奈川県,綾瀬市,寺尾釜田１丁目３番２号,,14,218,2521135,,,,,,,2022-07-13,1,,,,,メイセーインテリアプランニング,0
1843,7021001076533,新規,0,2022-07-13,2022-07-13,株式会社Ｐａｋｅｐｕ,,株式会社,神奈川県,藤沢市,鵠沼石上２丁目５番１号カサハラビル藤沢３階Ｃ号室,,14,205,2510025,,,,,,,2022-07-13,1,,,,,パケプ,0
1844,7021001076541,新規,0,2022-07-13,2022-07-13,株式会社関本企画,,株式会社,神奈川県,横須賀市,西浦賀４丁目１１番３－９０８号,,14,201,2390824,,,,,,,2022-07-13,1,,,,,,0
1845,7021003011950,新規,0,2022-07-13,2022-07-13,合同会社ＳｔｒｉｐｅＧｒｅｅｎ,,合同会社,神奈川県,逗子市,小坪１丁目１８番３号,,14,208,2490008,,,,,,,2022-07-13,1,,,,,ストライプグリーン,0
1849,7030001149034,新規,0,2022-07-13,2022-07-13,株式会社メジロシステム,,株式会社,埼玉県,狭山市,鵜ノ木１７番２１号,,11,215,3501323,,,,,,,2022-07-13,1,,,,,メジロシステム,0
1850,7030001149216,新規,0,2022-07-13,2022-07-13,株式会社ピカピカホーム,,株式会社,埼玉県,春日部市,六軒町１３１番地９,,11,214,3440012,,,,,,,2022-07-13,1,,,,,ピカピカホーム,0
1851,7030001149232,新規,0,2022-07-13,2022-07-13,株式会社ｃｏｔｏＬｉ,,株式会社,埼玉県,川越市,中原町１丁目１０番４レックス川越４０２号室,,11,201,3500042,,,,,,,2022-07-13,1,,,,,コトリ,0
1859,7040001124218,新規,0,2022-07-13,2022-07-13,株式会社ＫＷＥＮＴＯ,,株式会社,千葉県,柏市,宿連寺３３２番地８,,12,217,2770826,,,,,,,2022-07-13,1,,,,,クエント,0
1860,7040001124250,新規,0,2022-07-13,2022-07-13,株式会社ｏｕｔｐｅｒｆｏｒｍ,,株式会社,千葉県,市川市,東大和田１丁目２２－６,,12,203,2720026,,,,,,,2022-07-13,1,,,,,アウトパフォーム,0
1863,7040005021675,新規,0,2022-07-13,2022-07-13,特定非営利活動法人創造的教育支援機構ＳＴＥＡＭ＆Ｐ,,その他の設立登記法人,千葉県,船橋市,三山２丁目３９番１３号,,12,204,2740072,,,,,,,2022-07-13,1,,,,,ソウゾウテキキョウイクシエンキコウスチームアンドピー,0
1864,7050001051403,新規,0,2022-07-13,2022-07-13,株式会社ＡＪ,,株式会社,茨城県,行方市,内宿９７６番地,,08,233,3111705,,,,,,,2022-07-13,1,,,,,エージェイ,0
1868,7050005013110,新規,0,2022-07-13,2022-07-13,一般社団法人日立ＳｕｎＮｅｘｕｓ,,その他の設立登記法人,茨城県,日立市,諏訪町３丁目３番１３号,,08,202,3160001,,,,,,,2022-07-13,1,,,,,ヒタチサンネクサス,0
1870,7060001035082,新規,0,2022-07-13,2022-07-13,株式会社Ｎｅｘｔ　Ｌｅｖｅｌ,,株式会社,栃木県,小山市,駅東通り１丁目１２番１０号ウインザマンション１０２号,,09,208,3230022,,,,,,,2022-07-13,1,,,,,ネクストレベル,0
1871,7060003004143,新規,0,2022-07-13,2022-07-13,合同会社アルバ,,合同会社,栃木県,那須塩原市,埼玉１番地２４,,09,213,3250033,,,,,,,2022-07-13,1,,,,,アルバ,0
1874,7070001039421,新規,0,2022-07-13,2022-07-13,株式会社Ｓｐｉｒｉｔ,,株式会社,群馬県,前橋市,広瀬町１丁目５番地６,,10,201,3710812,,,,,,,2022-07-13,1,,,,,スピリット,0
1875,7070001039446,新規,0,2022-07-13,2022-07-13,株式会社ＡＧＵＡ　Ｇｒｏｕｐ,,株式会社,群馬県,高崎市,通町５１番地１ハリス壱番館３Ｆ,,10,202,3700053,,,,,,,2022-07-13,1,,,,,アグアグループ,0
1889,7100001035524,新規,0,2022-07-13,2022-07-13,株式会社長野資源,,株式会社,長野県,塩尻市,大字広丘吉田１３８番地,,20,215,3990701,,,,,,,2022-07-13,1,,,,,ナガノシゲン,0
1901,7120001247118,新規,0,2022-07-13,2022-07-13,株式会社エール,,株式会社,大阪府,大阪市浪速区,敷津西１丁目１２番２１号アンビエス難波４０３号室,,27,111,5560015,,,,,,,2022-07-13,1,,,,,エール,0
1902,7120001247225,新規,0,2022-07-13,2022-07-13,株式会社ＳＧ７,,株式会社,大阪府,大阪市淀川区,宮原５丁目８番７－７０２号,,27,123,5320003,,,,,,,2022-07-13,1,,,,,エスジーセブン,0
1903,7120001247316,新規,0,2022-07-13,2022-07-13,株式会社ＯＮＥ　ＬＩＦＥ,,株式会社,大阪府,門真市,四宮２丁目１３番５号,,27,223,5710017,,,,,,,2022-07-13,1,,,,,ワンライフ,0
1904,7120001247324,新規,0,2022-07-13,2022-07-13,株式会社エル・ユニバーサル不動産,,株式会社,大阪府,大阪市北区,天神橋７丁目１番１６－２８１０号,,27,127,5310041,,,,,,,2022-07-13,1,,,,,エルユニバーサルフドウサン,0
1905,7120001247332,新規,0,2022-07-13,2022-07-13,ハレ株式会社,,株式会社,大阪府,大阪市中央区,南久宝寺町３丁目２番７号９Ｆ,,27,128,5410058,,,,,,,2022-07-13,1,,,,,ハレ,0
1914,7120005023044,新規,0,2022-07-13,2022-07-13,特定非営利活動法人あゆみらいず,,その他の設立登記法人,大阪府,大阪市阿倍野区,松虫通１丁目８－１８,,27,119,5450043,,,,,,,2022-07-13,1,,,,,アユミライズ,0
1919,7120101065923,新規,0,2022-07-13,2022-07-13,株式会社ウェルカム・ライフ,,株式会社,大阪府,松原市,柴垣２丁目４８５番地９北川ビル１Ｆ,,27,217,5800017,,,,,,,2022-07-13,1,,,,,ウェルカムドットライフ,0
1921,7120901046247,新規,0,2022-07-13,2022-07-13,リュクス株式会社,,株式会社,大阪府,吹田市,広芝町２０番１６号ブエナビスタ江坂広芝町３０３号室,,27,205,5640052,,,,,,,2022-07-13,1,,,,,リュクス,0
1922,7120903004228,新規,0,2022-07-13,2022-07-13,合同会社ＳＡＲ,,合同会社,大阪府,豊中市,東豊中町１丁目２６番２７号,,27,203,5600003,,,,,,,2022-07-13,1,,,,,エスエーアール,0
1923,7120905006354,新規,0,2022-07-13,2022-07-13,医療法人おばせ眼科クリニック,,その他の設立登記法人,大阪府,吹田市,豊津町１番３１号由武ビル４Ｆ,,27,205,5640051,,,,,,,2022-07-13,1,,,,,オバセガンカクリニック,0
1924,7122001036070,新規,0,2022-07-13,2022-07-13,株式会社ミルズインターナショナル,,株式会社,大阪府,東大阪市,長田１丁目１番７号,,27,227,5770015,,,,,,,2022-07-13,1,,,,,ミルズインターナショナル,0
1928,7130001072151,新規,0,2022-07-13,2022-07-13,株式会社メディアグース,,株式会社,京都府,京都市南区,上鳥羽南鉾立町７－３,,26,107,6018114,,,,,,,2022-07-13,1,,,,,メディアグース,0
1929,7130001072184,新規,0,2022-07-13,2022-07-13,株式会社コンパスサポート,,株式会社,京都府,京都市山科区,大宅御供田町２４８レジデンス山科５０４,,26,110,6078192,,,,,,,2022-07-13,1,,,,,コンパスサポート,0
1930,7130001072192,新規,0,2022-07-13,2022-07-13,株式会社片石造園,00127202,株式会社,京都府,京都市左京区,上高野奥小森町１３番地１,,26,103,6060077,,,,,,,2022-07-13,1,,,,,カタイシゾウエン,0
1931,7130003008054,新規,0,2022-07-13,2022-07-13,合同会社家住,,合同会社,京都府,城陽市,寺田林ノ口２２番地の１プレミール城陽６０１号,,26,207,6100121,,,,,,,2022-07-13,1,,,,,イエズミ,0
1933,7130005016526,新規,0,2022-07-13,2022-07-13,三友税理士法人,,その他の設立登記法人,京都府,京都市下京区,東洞院通仏光寺上る扇酒屋町２９８番地カジノハビル４０２号室,,26,106,6008095,,,,,,,2022-07-13,1,,,,,サンユウ,0
1937,7140001126690,新規,0,2022-07-13,2022-07-13,株式会社ビリーフ,,株式会社,兵庫県,神戸市兵庫区,西上橘通２丁目５番１７号ハイツタチバナ１０１,,28,105,6520033,,,,,,,2022-07-13,1,,,,,ビリーフ,0
1938,7140001126716,新規,0,2022-07-13,2022-07-13,松下工業株式会社,,株式会社,兵庫県,姫路市,飾磨区細江６９１番地１７,,28,201,6728064,,,,,,,2022-07-13,1,,,,,マツシタコウギョウ,0
1942,7150001025693,新規,0,2022-07-13,2022-07-13,ＪＴＴ株式会社,,株式会社,奈良県,五條市,田園４丁目３０番地の１７,,29,207,6370093,,,,,,,2022-07-13,1,,,,,ジェーティーティー,0
1945,7180001152171,新規,0,2022-07-13,2022-07-13,株式会社グリットパートナーズ,,株式会社,愛知県,名古屋市東区,泉２丁目２１番３号,,23,102,4610001,,,,,,,2022-07-13,1,,,,,グリットパートナーズ,0
1946,7180001152196,新規,0,2022-07-13,2022-07-13,株式会社ウイニング,,株式会社,愛知県,名古屋市西区,二方町１６番地の１,,23,104,4520817,,,,,,,2022-07-13,1,,,,,ウイニング,0
1947,7180303005390,新規,0,2022-07-13,2022-07-13,合同会社プロダクトマネジメントサービス,,合同会社,愛知県,刈谷市,井ケ谷町西石根１番地７５,,23,210,4480001,,,,,,,2022-07-13,1,,,,,プロダクトマネジメントサービス,0
1951,7200001040282,新規,0,2022-07-13,2022-07-13,株式会社ＡＮＡＢＥＬ,,株式会社,岐阜県,多治見市,小泉町３丁目１６０番地,,21,204,5070073,,,,,,,2022-07-13,1,,,,,アナベル,0
1954,7220001024944,新規,0,2022-07-13,2022-07-13,株式会社リクソー,,株式会社,石川県,金沢市,旭町３丁目７－３,,17,201,9200941,,,,,,,2022-07-13,1,,,,,リクソー,0
1955,7230001019448,新規,0,2022-07-13,2022-07-13,株式会社Ｌｉｔｔｌｅｂｏｘ,,株式会社,富山県,氷見市,中央町９番４７号,,16,205,9350011,,,,,,,2022-07-13,1,,,,,リトルボックス,0
1960,7240001060095,新規,0,2022-07-13,2022-07-13,株式会社ケーライン,,株式会社,広島県,広島市安佐北区,可部東２丁目２４番４４－１０４号,,34,106,7310222,,,,,,,2022-07-13,1,,,,,ケーライン,0
1964,7250001019660,新規,0,2022-07-13,2022-07-13,株式会社ミライパートナー,,株式会社,山口県,下松市,せせらぎ町２丁目１０番３号,,35,207,7440076,,,,,,,2022-07-13,1,,,,,ミライパートナー,0
1972,7290001098206,新規,0,2022-07-13,2022-07-13,株式会社センバゲート,,株式会社,福岡県,福岡市博多区,吉塚６丁目５番２５号ネストピア博多グランドステージＩＩ４０１,00127203,40,132,8120041,,,,,,,2022-07-13,1,,,,,センバゲート,0
1981,7300001012998,新規,0,2022-07-13,2022-07-13,株式会社佐賀ミートファーム,,株式会社,佐賀県,神埼郡吉野ヶ里町,大曲６０３６番地,,41,327,8420103,,,,,,,2022-07-13,1,,,,,サガミートファーム,0
1986,7320005010006,新規,0,2022-07-13,2022-07-13,ＮＰＯ法人大分県観光連絡会,,その他の設立登記法人,大分県,別府市,大字南立石２４９８番地の３,,44,202,8740000,,,,,,,2022-07-13,1,,,,,オオイタケンカンコウレンラクカイ,0
2001,7370001048788,新規,0,2022-07-13,2022-07-13,株式会社東北交通警備保障,,株式会社,宮城県,岩沼市,大手町４番３３号,,04,211,9892442,,,,,,,2022-07-13,1,,,,,トウホクコウツウケイビホショウ,0
2002,7370001048796,新規,0,2022-07-13,2022-07-13,上野化成株式会社,,株式会社,宮城県,石巻市,北上町女川字幼５３番地,,04,202,9860204,,,,,,,2022-07-13,1,,,,,ウエノカセイ,0
2005,7370003005770,新規,0,2022-07-13,2022-07-13,合同会社あさの風,,合同会社,宮城県,富谷市,日吉台３丁目１１番地２０フィリスハイム大富２０１,,04,216,9813362,,,,,,,2022-07-13,1,,,,,アサノカゼ,0
2012,7390001016966,新規,0,2022-07-13,2022-07-13,株式会社ＺＵＺＵ,,株式会社,山形県,東根市,大字若木字七窪５５５５番地の８,,06,211,9993737,,,,,,,2022-07-13,1,,,,,ズズ,0
2014,7400005008256,新規,0,2022-07-13,2022-07-13,特定非営利活動法人青少年未来プロジェクト,,その他の設立登記法人,岩手県,奥州市,江刺岩谷堂字御所橋２２２番地３江刺板金ホーム２０２号室,,03,215,0231101,,,,,,,2022-07-13,1,,,,,セイショウネンミライプロジェクト,0
2021,7430003014088,新規,0,2022-07-13,2022-07-13,合同会社ミライリンク,,合同会社,北海道,札幌市豊平区,豊平四条５丁目２番７号,,01,105,0620904,,,,,,,2022-07-13,1,,,,,ミライリンク,0
2022,7430005014499,新規,0,2022-07-13,2022-07-13,特定非営利活動法人さっぽろ犯罪被害者等援助センター,,その他の設立登記法人,北海道,札幌市中央区,北四条西１３丁目１番地９０ダイアパレス植物園ＩＩＩ９０１号,00127192,01,101,0600004,,,,,,,2022-07-13,1,,,,,サッポロハンザイヒガイシャトウエンジョセンター,0
2023,7450001013742,新規,0,2022-07-13,2022-07-13,下川たてじま林産株式会社,,株式会社,北海道,上川郡下川町,旭町２０９番地３,,01,468,0981201,,,,,,,2022-07-13,1,,,,,,0
2037,7700150046930,新規,0,2022-07-13,2015-10-09,三重県高等学校体育連盟,,その他,三重県,鈴鹿市,稲生町８２３２－１三重県立稲生高等学校内,,24,207,5100201,,,,,,,2015-10-09,1,,,,,ミエケンコウトウガツコウタイイクレンメイ,0
2038,7700150063422,新規,0,2022-07-13,2015-10-09,吉野とりめし保存会事業運営委員会,,その他,大分県,大分市,大字吉野原９０６,,44,201,8797875,,,,,,,2015-10-09,1,,,,,ヨシノトリメシホゾンカイジギヨウウンエイイインカイ,0
2047,8010001227880,新規,0,2022-07-13,2022-07-13,株式会社シャーリリー,,株式会社,東京都,千代田区,六番町１５番２号鳳翔ビル３階３１０室,,13,101,1020085,,,,,,,2022-07-13,1,,,,,シャーリリー,0
2048,8010001228037,新規,0,2022-07-13,2022-07-13,株式会社グランリュクス,,株式会社,東京都,中央区,日本橋室町１丁目６番１号,,13,102,1030022,,,,,,,2022-07-13,1,,,,,グランリュクス,0
2049,8010001228144,新規,0,2022-07-13,2022-07-13,株式会社ＶＩＣ　ＧＡＭＥ　ＳＴＵＤＩＯＳ　ＪＡＰＡＮ,,株式会社,東京都,千代田区,麹町３丁目３番８号丸増麹町ビル８階,,13,101,1020083,,,,,,,2022-07-13,1,,,,,ヴィックゲームスタジオジャパン,0
2051,8010003038145,新規,0,2022-07-13,2022-07-13,合同会社Ｒｅｓｉｌｉｅｎｃｅ　ＸＩＩＩ,,合同会社,東京都,中央区,銀座１丁目６番１１号土志田ビルディング３Ｆ,,13,102,1040061,,,,,,,2022-07-13,1,,,,,レジリエンスサーティーン,0
2055,8010005035248,新規,0,2022-07-13,2022-07-13,ＲＢソーラーゲートホールディングス一般社団法人,,その他の設立登記法人,東京都,中央区,八丁堀４丁目２番１０号ＡＯＪ税理士法人内,,13,102,1040032,,,,,,,2022-07-13,1,,,,,アールビーソーラーゲートホールディングス,0
2066,8010401168428,新規,0,2022-07-13,2022-07-13,株式会社メタ・メタル,,株式会社,東京都,港区,港南２丁目１６番２号,,13,103,1080075,,,,,,,2022-07-13,1,,,,,,0
2067,8010401168460,新規,0,2022-07-13,2022-07-13,株式会社カタフリ,,株式会社,東京都,港区,虎ノ門１丁目１７番１号,,13,103,1050001,,,,,,,2022-07-13,1,,,,,カタフリ,0
2070,8010405021129,新規,0,2022-07-13,2022-07-13,一般社団法人社会デザイン・ビジネスラボ,,その他の設立登記法人,東京都,港区,南青山１丁目２０番１５号,,13,103,1070062,,,,,,,2022-07-13,1,,,,,シャカイデザインビジネスラボ,0
2071,8010405021153,新規,0,2022-07-13,2022-07-13,羽村特定目的会社,,その他の設立登記法人,東京都,港区,元赤坂１丁目１番８号株式会社赤坂国際会計内,,13,103,1070051,,,,,,,2022-07-13,1,,,,,ハムラ,0
2074,8010605004098,新規,0,2022-07-13,2022-07-13,一般社団法人ランニングと朝食,,その他の設立登記法人,東京都,江東区,森下２丁目２８番２号,,13,108,1350004,,,,,,,2022-07-13,1,,,,,ランニングトチョウショク,0
2077,8010701042943,新規,0,2022-07-13,2022-07-13,株式会社ＳＨＵＫＡ,,株式会社,東京都,品川区,西五反田４丁目１９番５号,,13,109,1410031,,,,,,,2022-07-13,1,,,,,シュウカ,0
2078,8010701042951,新規,0,2022-07-13,2022-07-13,株式会社麻布アセットビルディング,,株式会社,東京都,品川区,西五反田３丁目１５番１０－５Ｂ号,,13,109,1410031,,,,,,,2022-07-13,1,,,,,アザブアセットビルディング,0
2088,8011001148464,新規,0,2022-07-13,2022-07-13,株式会社ＮＯＭＡＤ,,株式会社,東京都,目黒区,青葉台１丁目７番１４－４０３号,,13,110,1530042,,,,,,,2022-07-13,1,,,,,ノマド,0
2089,8011001148679,新規,0,2022-07-13,2022-07-13,株式会社Ｓｗｅｅｔ　Ｄｒｅａｍ,,株式会社,東京都,渋谷区,道玄坂１丁目１０番８号渋谷道玄坂東急ビル２Ｆ－Ｃ,,13,113,1500043,,,,,,,2022-07-13,1,,,,,スイートドリーム,0
2091,8011003015019,新規,0,2022-07-13,2022-07-13,合同会社ｂｕｙ　ｔｈｅ　ｗａｙ,,合同会社,東京都,渋谷区,道玄坂２丁目１５番１－５２２号,,13,113,1500043,,,,,,,2022-07-13,1,,,,,バイザウェイ,0
2095,8011101099491,新規,0,2022-07-13,2022-07-13,株式会社リタテキ,,株式会社,東京都,新宿区,西新宿１丁目２６－２新宿野村ビル３２階,,13,104,1600023,,,,,,,2022-07-13,1,,,,,リタテキ,0
2097,8011103011966,新規,0,2022-07-13,2022-07-13,合同会社アナリス,,合同会社,東京都,新宿区,西新宿７丁目７番１９－５１１号,,13,104,1600023,,,,,,,2022-07-13,1,,,,,アナリス,0
2104,8011301027913,新規,0,2022-07-13,2022-07-13,株式会社ムラタ制作所,,株式会社,東京都,杉並区,高円寺南２丁目３７番１４号クレシェンド高円寺１０１号室,,13,115,1660003,,,,,,,2022-07-13,1,,,,,ムラタセイサクショ,0
2105,8011301027946,新規,0,2022-07-13,2022-07-13,株式会社ハウスクリーンサポート,,株式会社,東京都,杉並区,阿佐谷南３丁目２６番１７号,,13,115,1660004,,,,,,,2022-07-13,1,,,,,ハウスクリーンサポート,0
2108,8011503005221,新規,0,2022-07-13,2022-07-13,Ｙ・Ｈ・Ｋ合同会社,,合同会社,東京都,北区,赤羽２丁目４７番８－３０７号大黒ビル,,13,117,1150045,,,,,,,2022-07-13,1,,,,,ワイエイチケイ,0
2112,8011801040993,新規,0,2022-07-13,2022-07-13,株式会社エコ・アース,,株式会社,東京都,足立区,本木東町２６番４号,,13,121,1230854,,,,,,,2022-07-13,1,,,,,エコアース,0
2113,8012301013052,新規,0,2022-07-13,2022-07-13,ビクトリア少額短期準備室株式会社,,株式会社,東京都,町田市,つくし野２丁目２５番地１６つくし野フォーラム１階,,13,209,1940001,,,,,,,2022-07-13,1,,,,,,0
2114,8012403005484,新規,0,2022-07-13,2022-07-13,合同会社須藤,,合同会社,東京都,三鷹市,新川３丁目６番１号,,13,204,1810004,,,,,,,2022-07-13,1,,,,,スドウ,0
2118,8012705002312,新規,0,2022-07-13,2022-07-13,一般社団法人日本モダンガール協會,,その他の設立登記法人,東京都,小平市,学園西町３丁目１６番３号,,13,211,1870045,,,,,,,2022-07-13,1,,,,,モダンガールキョウカイ,0
2120,8013301049375,新規,0,2022-07-13,2022-07-13,株式会社だッ兎,,株式会社,東京都,豊島区,東池袋１丁目３４番５号いちご東池袋ビル６階,,13,116,1700013,,,,,,,2022-07-13,1,,,,,ダット,0
2121,8013303006226,新規,0,2022-07-13,2022-07-13,合同会社メイキング,,合同会社,東京都,豊島区,巣鴨１丁目９－１グランド東邦ビル２１２号室,,13,116,1700002,,,,,,,2022-07-13,1,,,,,メイキング,0
2126,8020001147351,新規,0,2022-07-13,2022-07-13,株式会社ＩＣ,,株式会社,神奈川県,横浜市中区,根岸旭台２４番地,,14,104,2310854,,,,,,,2022-07-13,1,,,,,アイシー,0
2127,8020001147368,新規,0,2022-07-13,2022-07-13,株式会社カンナホーム,,株式会社,神奈川県,横浜市南区,吉野町１丁目２番地ベイサイトコート横浜１３０３,,14,105,2320014,,,,,,,2022-07-13,1,,,,,カンナホーム,0
2130,8020003022098,新規,0,2022-07-13,2022-07-13,合同会社シャルミー,,合同会社,神奈川県,横浜市西区,北幸１丁目１１番１号水信ビル７階,,14,103,2200004,,,,,,,2022-07-13,1,,,,,シャルミー,0
2131,8020003022115,新規,0,2022-07-13,2022-07-13,合同会社忠,,合同会社,神奈川県,横浜市中区,住吉町１丁目１２番地５,,14,104,2310013,,,,,,,2022-07-13,1,,,,,チュウ,0
2138,8021001076516,新規,0,2022-07-13,2022-07-13,株式会社ＳＥＥＤ,,株式会社,神奈川県,相模原市中央区,上溝１９５２番地４,,14,152,2520243,,,,,,,2022-07-13,1,,,,,シード,0
2140,8021005012566,新規,0,2022-07-13,2022-07-13,特定非営利活動法人まるまーる,,その他の設立登記法人,神奈川県,鎌倉市,長谷１丁目６番１８号,,14,204,2480016,,,,,,,2022-07-13,1,,,,,,0
2151,8030001149173,新規,0,2022-07-13,2022-07-13,株式会社フォレスト,,株式会社,埼玉県,春日部市,豊町１丁目１３番９号,,11,214,3440066,,,,,,,2022-07-13,1,,,,,フォレスト,0
2152,8030001149181,新規,0,2022-07-13,2022-07-13,株式会社ＩＸＩＭ,,株式会社,埼玉県,川口市,飯塚４丁目１７番１８－６０２号,,11,203,3320023,,,,,,,2022-07-13,1,,,,,イクシム,0
2155,8030003019754,新規,0,2022-07-13,2022-07-13,コトインデプス合同会社,,合同会社,埼玉県,草加市,神明１丁目４番９－１０２号,,11,221,3400012,,,,,,,2022-07-13,1,,,,,コトインデプス,0
2156,8030003019787,新規,0,2022-07-13,2022-07-13,柏崎興業合同会社,00127205,合同会社,埼玉県,川口市,戸塚６丁目２３番１－２０６号,,11,203,3330811,,,,,,,2022-07-13,1,,,,,カシワザキコウギョウ,0
2165,8040001124225,新規,0,2022-07-13,2022-07-13,株式会社翔絆,,株式会社,千葉県,船橋市,上山町２丁目２５７番地１１,,12,204,2730046,,,,,,,2022-07-13,1,,,,,ショウキ,0
2166,8040001124241,新規,0,2022-07-13,2022-07-13,株式会社ＰＡＬＳ　Ｂｅｌｌ,,株式会社,千葉県,富里市,七栄６５０番地２０４８,,12,233,2860221,,,,,,,2022-07-13,1,,,,,パルスベル,0
2170,8040003020414,新規,0,2022-07-13,2022-07-13,ＮＡＧＩＳＡ　Ｃｒｅａｔｉｏｎ合同会社,,合同会社,千葉県,船橋市,上山町１丁目１４６番地５,,12,204,2730046,,,,,,,2022-07-13,1,,,,,ナギサクリエイション,0
2171,8040005021674,新規,0,2022-07-13,2022-07-13,一般社団法人木更津出雲大社,,その他の設立登記法人,千葉県,君津市,戸崎１０４３番地２,,12,225,2920441,,,,,,,2022-07-13,1,,,,,キサラヅイズモタイシャ,0
2172,8050003006676,新規,0,2022-07-13,2022-07-13,合同会社Ｐ＆Ｍ,,合同会社,茨城県,稲敷市,江戸崎甲７０７番地７,,08,229,3000504,,,,,,,2022-07-13,1,,,,,ピーアンドエム,0
2173,8050003006684,新規,0,2022-07-13,2022-07-13,Ｕｎｌｉｍｉｔｅｄ　Ｅｖｏｌｕｔｉｏｎ　Ｊａｐａｎ合同会社,,合同会社,茨城県,つくば市,松代１丁目２０－１４セイバリー・パークＩＩＩ２０１,00127206,08,220,3050035,,,,,,,2022-07-13,1,,,,,アンリミテッドエボリューションジャパン,0
2180,8070003004546,新規,0,2022-07-13,2022-07-13,合同会社居安楽,,合同会社,群馬県,高崎市,並榎町２１３番地,,10,202,3700802,,,,,,,2022-07-13,1,,,,,コアラ,0
2186,8080101023422,新規,0,2022-07-13,2022-07-13,株式会社喜一,,株式会社,静岡県,富士市,今泉５丁目１１番２４号,,22,210,4170001,,,,,,,2022-07-13,1,,,,,キイチ,0
2205,8120001247216,新規,0,2022-07-13,2022-07-13,株式会社ネクストイノベーション,,株式会社,大阪府,大阪市天王寺区,国分町９番１６号フォレストメゾン初日Ａ号,,27,109,5430044,,,,,,,2022-07-13,1,,,,,ネクストイノベーション,0
2206,8120001247307,新規,0,2022-07-13,2022-07-13,長遠科技集団株式会社,,株式会社,大阪府,大阪市西成区,橘３丁目７番３号,,27,122,5570051,,,,,,,2022-07-13,1,,,,,チョウエンカギシュウダン,0
2207,8120001247323,新規,0,2022-07-13,2022-07-13,株式会社ＴＴＣサービス,,株式会社,大阪府,大阪市住吉区,上住吉２丁目７番３５号,,27,120,5580046,,,,,,,2022-07-13,1,,,,,ティティシーサービス,0
2210,8120005023051,新規,0,2022-07-13,2022-07-13,医療法人正文会,,その他の設立登記法人,大阪府,大阪市住吉区,我孫子東２丁目７番３８号クリニックステーションあびこ３階,,27,120,5580013,,,,,,,2022-07-13,1,,,,,マサフミカイ,0
2212,8120101065922,新規,0,2022-07-13,2022-07-13,株式会社アップ,,株式会社,大阪府,松原市,柴垣２丁目４８５番地９北川ビル２Ｆ,,27,217,5800017,,,,,,,2022-07-13,1,,,,,アップ,0
2227,8130001072142,新規,0,2022-07-13,2022-07-13,株式会社ＳＡＮＲＯＫＵ　ＭＥＤＩＣＡＬ,,株式会社,京都府,宇治市,神明宮北２８番地１シャーメゾン宇治神明１０１号,,26,204,6110025,,,,,,,2022-07-13,1,,,,,サンロクメディカル,0
2228,8130001072167,新規,0,2022-07-13,2022-07-13,株式会社リゼラ,,株式会社,京都府,福知山市,字厚２１５番地,,26,201,6200058,,,,,,,2022-07-13,1,,,,,リゼラ,0
2229,8140001126698,新規,0,2022-07-13,2022-07-13,株式会社ＩＳＫ,,株式会社,兵庫県,神戸市長田区,堀切町５番６号,,28,106,6530885,,,,,,,2022-07-13,1,,,,,アイエスケイ,0
2230,8140001126723,新規,0,2022-07-13,2022-07-13,株式会社ＣｙｅＰｌｕｓ,,株式会社,兵庫県,尼崎市,南塚口町２丁目１番２－２０３号,,28,202,6610012,,,,,,,2022-07-13,1,,,,,サイプラス,0
2236,8150001025692,新規,0,2022-07-13,2022-07-13,株式会社日本森林クリエイト,,株式会社,奈良県,桜井市,大字阿部５１１番地の２－２０３,,29,206,6330054,,,,,,,2022-07-13,1,,,,,ニホンシンリンクリエイト,0
2238,8150003002731,新規,0,2022-07-13,2022-07-13,合同会社北村文化財漆工,,合同会社,奈良県,奈良市,富雄元町１丁目２１番１－５０７号,,29,201,6310078,,,,,,,2022-07-13,1,,,,,キタムラブンカザイシッコウ,0
2246,8180001152170,新規,0,2022-07-13,2022-07-13,株式会社志,,株式会社,愛知県,一宮市,奥町字宮郭２８番地２２,,23,203,4910201,,,,,,,2022-07-13,1,,,,,ココロザシ,0
2251,8180301036437,新規,0,2022-07-13,2022-07-13,株式会社ＵＳＡＭＩ,,株式会社,愛知県,豊田市,浄水町伊保原１３６番地,,23,211,4700343,,,,,,,2022-07-13,1,,,,,ウサミ,0
2255,8190001029624,新規,0,2022-07-13,2022-07-13,いとう建設工業株式会社,,株式会社,三重県,桑名市,大字今島１３４４番地,,24,205,5110801,,,,,,,2022-07-13,1,,,,,イトウケンセツコウギョウ,0
2259,8200001040281,新規,0,2022-07-13,2022-07-13,株式会社ＭＳカンパニー,,株式会社,岐阜県,岐阜市,松原町２６番地,,21,201,5008347,,,,,,,2022-07-13,1,,,,,エムエスカンパニー,0
2264,8220001024951,新規,0,2022-07-13,2022-07-13,株式会社ウィリング,,株式会社,石川県,金沢市,円光寺３丁目１１番１０－５号,,17,201,9218173,,,,,,,2022-07-13,1,,,,,ウィリング,0
2274,8260001037033,新規,0,2022-07-13,2022-07-13,株式会社岡山ファーム・アンド・ライス社,,株式会社,岡山県,岡山市南区,藤田５３５番地,,33,104,7010221,,,,,,,2022-07-13,1,,,,,オカヤマファームアンドライス,0
2275,8260001037041,新規,0,2022-07-13,2022-07-13,ＨｉｇｈＴｒｅｅ工業株式会社,,株式会社,岡山県,津山市,大吉１２１５番地,,33,203,7081203,,,,,,,2022-07-13,1,,,,,ハイツリーコウギョウ,0
2285,8290001098279,新規,0,2022-07-13,2022-07-13,株式会社スコウカッテル,,株式会社,福岡県,福岡市博多区,大博町５番１号,,40,132,8120033,,,,,,,2022-07-13,1,,,,,スコウカッテル,0
2297,8330003009444,新規,0,2022-07-13,2022-07-13,合同会社創造くまもと,,合同会社,熊本県,熊本市中央区,安政町５番９号,,43,101,8600801,,,,,,,2022-07-13,1,,,,,ソウゾウクマモト,0
2302,8340003003859,新規,0,2022-07-13,2022-07-13,合同会社一Ｑクリエーション,,合同会社,鹿児島県,鹿児島市,田上８丁目８番１８号セジュールフォルテＡ棟２０１号,,46,201,8900034,,,,,,,2022-07-13,1,,,,,イッキュウクリエーション,0
2309,8370001048787,新規,0,2022-07-13,2022-07-13,株式会社イーストロック,,株式会社,宮城県,仙台市青葉区,柏木２丁目５番６号,,04,101,9810933,,,,,,,2022-07-13,1,,,,,イーストロック,0
2310,8370001048795,新規,0,2022-07-13,2022-07-13,陸奥重建株式会社,,株式会社,宮城県,塩竈市,本町１番１号壱番館ビル２階,,04,203,9850052,,,,,,,2022-07-13,1,,,,,ムツジュウケン,0
2313,8380003005232,新規,0,2022-07-13,2022-07-13,Ｌｉｌａ　Ｈｏｌｄｉｎｇｓ　Ｊａｐａｎ合同会社,,合同会社,福島県,郡山市,富田町字若木下４１番地の５,,07,203,9638041,,,,,,,2022-07-13,1,,,,,リラホールディングスジャパン,0
2336,8490001010223,新規,0,2022-07-13,2022-07-13,株式会社野村工務店,,株式会社,高知県,香南市,香我美町徳王子１８２５番地７,,39,211,7815332,,,,,,,2022-07-13,1,,,,,ノムラコウムテン,0
2339,8700150027830,新規,0,2022-07-13,2015-10-09,兵庫倶楽部,,その他,兵庫県,神戸市中央区,御幸通８丁目１－６神戸国際会館　１５階,,28,110,6510087,,,,,,,2015-10-09,1,,,,,ヒヨウゴクラブ,0
2353,9010001228036,新規,0,2022-07-13,2022-07-13,バリュー株式会社,,株式会社,東京都,中央区,新富１丁目３番１５号カスターニャ銀座６０１号,,13,102,1040041,,,,,,,2022-07-13,1,,,,,バリュー,0
2354,9010001228052,新規,0,2022-07-13,2022-07-13,株式会社萃点,,株式会社,東京都,千代田区,一番町１３番地５,,13,101,1020082,,,,,,,2022-07-13,1,,,,,スイテン,0
2356,9010003038144,新規,0,2022-07-13,2022-07-13,合同会社Ｒｅｓｉｌｉｅｎｃｅ　ＸＩＩ,,合同会社,東京都,中央区,銀座１丁目６番１１号土志田ビルディング３Ｆ,,13,102,1040061,,,,,,,2022-07-13,1,,,,,レジリエンストゥエルブ,0
2357,9010003038169,新規,0,2022-07-13,2022-07-13,ＤＨＨＦ２合同会社,,合同会社,東京都,千代田区,飯田橋４丁目７番１号結和税理士法人内,,13,101,1020072,,,,,,,2022-07-13,1,,,,,ディーエイチエイチエフツー,0
2364,9010005035247,新規,0,2022-07-13,2022-07-13,一般社団法人アイエヌシーエム支援機構,,その他の設立登記法人,東京都,千代田区,内幸町１丁目３番１号,,13,101,1000011,,,,,,,2022-07-13,1,,,,,エイエヌシーエムシエンキコウ,0
2365,9010101015251,新規,0,2022-07-13,2022-07-13,株式会社ゆうき企画,,株式会社,東京都,八王子市,犬目町９０２番地５,,13,201,1930802,,,,,,,2022-07-13,1,,,,,ユウキキカク,0
2366,9010401168179,新規,0,2022-07-13,2022-07-13,谷口＆アソシエイツ株式会社,,株式会社,東京都,港区,赤坂３丁目１－１６ＢＩビル,,13,103,1070052,,,,,,,2022-07-13,1,,,,,タニグチアンドアソシエイツ,0
2367,9010401168410,新規,0,2022-07-13,2022-07-13,株式会社ゴルフメイトプランニング,,株式会社,東京都,港区,新橋２丁目５番６号,,13,103,1050004,,,,,,,2022-07-13,1,,,,,ゴルフメイトプランニング,0
2368,9010401168427,新規,0,2022-07-13,2022-07-13,ハウスコムコミュニケーションズ株式会社,,株式会社,東京都,港区,港南２丁目１６番１号,,13,103,1080075,,,,,,,2022-07-13,1,,,,,ハウスコムコミュニケーションズ,0
2369,9010401168451,新規,0,2022-07-13,2022-07-13,株式会社Ｆｉｎｅｓ,,株式会社,東京都,港区,赤坂２丁目２２番２０－５０２号,,13,103,1070052,,,,,,,2022-07-13,1,,,,,ファインズ,0
2370,9010401168492,新規,0,2022-07-13,2022-07-13,さくら人材コンサルティング株式会社,,株式会社,東京都,港区,浜松町２丁目２番１５号ダイヤビル２階,,13,103,1050013,,,,,,,2022-07-13,1,,,,,サクラジンザイコンサルティング,0
2371,9010401168518,新規,0,2022-07-13,2022-07-13,株式会社ケツァール,,株式会社,東京都,港区,虎ノ門１丁目１６番９号,,13,103,1050001,,,,,,,2022-07-13,1,,,,,ケツァール,0
2379,9010601061480,新規,0,2022-07-13,2022-07-13,株式会社Ｊｅ　ｔｅ　ｖｅｕｘ,,株式会社,東京都,墨田区,太平４丁目１６番５－５０５号,,13,107,1300012,,,,,,,2022-07-13,1,,,,,ジュトゥヴ,0
2380,9010601061497,新規,0,2022-07-13,2022-07-13,株式会社エスジー,,株式会社,東京都,墨田区,錦糸１丁目２－１,,13,107,1300013,,,,,,,2022-07-13,1,,,,,エスジー,0
2387,9010901051215,新規,0,2022-07-13,2022-07-13,株式会社ＲＩＳＥアーキテクト,,株式会社,東京都,世田谷区,桜１丁目１０番５号,,13,112,1560053,,,,,,,2022-07-13,1,,,,,ライズアーキテクト,0
2391,9011003015018,新規,0,2022-07-13,2022-07-13,ＩＴＨ合同会社,,合同会社,東京都,渋谷区,道玄坂２丁目２９番３号,,13,113,1500043,,,,,,,2022-07-13,1,,,,,アイティーシー,0
2406,9011503005220,新規,0,2022-07-13,2022-07-13,合同会社ミロク,,合同会社,東京都,北区,赤羽北３丁目２６番１－６０７号,,13,117,1150052,,,,,,,2022-07-13,1,,,,,ミロク,0
2413,9011601026102,新規,0,2022-07-13,2022-07-13,ＭＡ空間プロダクション株式会社,,株式会社,東京都,練馬区,平和台２丁目１１－１５,,13,120,1790083,,,,,,,2022-07-13,1,,,,,エムエークウカンプロダクション,0
2416,9011801040992,新規,0,2022-07-13,2022-07-13,株式会社Ｎｅａｒ　Ｗｉｓｔｅｒｉａ,,株式会社,東京都,足立区,千住４丁目２０番１３号織畑ビル,,13,121,1200034,,,,,,,2022-07-13,1,,,,,ニアウィステリア,0
2421,9012803002840,新規,0,2022-07-13,2022-07-13,合同会社ＦＵＬＬＦＬＡＴ,,合同会社,東京都,国立市,東１丁目１５番地の１１－４４８ビル３階,,13,215,1860002,,,,,,,2022-07-13,1,,,,,フルフラット,0
2425,9020001147292,新規,0,2022-07-13,2022-07-13,株式会社ｏｎｅ　ｐｌｕｓ,,株式会社,神奈川県,横浜市神奈川区,片倉２丁目９－２６,,14,102,2210865,,,,,,,2022-07-13,1,,,,,ワンプラス,0
2426,9020001147318,新規,0,2022-07-13,2022-07-13,株式会社ｖｏｌａｎｔｅ,,株式会社,神奈川県,横浜市神奈川区,栄町６番地１ヨコハマポートサイドロア壱番館１２０５号,,14,102,2210052,,,,,,,2022-07-13,1,,,,,ボランチ,0
2427,9020001147367,新規,0,2022-07-13,2022-07-13,株式会社ＳＫメディカル,,株式会社,神奈川県,横浜市保土ケ谷区,新桜ケ丘２丁目３０番１７号,,14,106,2400036,,,,,,,2022-07-13,1,,,,,エスケーメディカル,0
2432,9020003022097,新規,0,2022-07-13,2022-07-13,合同会社Ｅｎｎ　Ｙｕｉ,,合同会社,神奈川県,横浜市中区,山下町２１６番地５清和ビル６０２,,14,104,2310023,,,,,,,2022-07-13,1,,,,,エンユイ,0
2433,9020003022114,新規,0,2022-07-13,2022-07-13,みひらぎ合同会社,,合同会社,神奈川県,横浜市都筑区,中川４丁目８番２－３０１号,,14,118,2240001,,,,,,,2022-07-13,1,,,,,ミヒラギ,0
2440,9021001076515,新規,0,2022-07-13,2022-07-13,株式会社ＢＬＯＳＳ,,株式会社,神奈川県,藤沢市,湘南台１丁目１５番地の２２ガーデンパレス湘南台２０２,,14,205,2520804,,,,,,,2022-07-13,1,,,,,ブロス,0
2447,9030001149172,新規,0,2022-07-13,2022-07-13,株式会社ｐｌａｎ　ｂｅ,,株式会社,埼玉県,吉川市,きよみ野３丁目１０番地１,,11,243,3420058,,,,,,,2022-07-13,1,,,,,プランビー,0
2448,9030001149239,新規,0,2022-07-13,2022-07-13,株式会社鈴木鋼業,,株式会社,埼玉県,八潮市,大字二丁目１０６４番地１,,11,234,3400811,,,,,,,2022-07-13,1,,,,,スズキコウギョウ,0
2455,9040001124216,新規,0,2022-07-13,2022-07-13,株式会社アダプト,,株式会社,千葉県,佐倉市,西志津７丁目１３番２号,,12,212,2850845,,,,,,,2022-07-13,1,,,,,アダプト,0
2462,9040003020413,新規,0,2022-07-13,2022-07-13,ＬＤＬａｂ合同会社,,合同会社,千葉県,松戸市,三矢小台５丁目２４番地の１３,,12,207,2710087,,,,,,,2022-07-13,1,,,,,エルディラボ,0
2463,9050001051392,新規,0,2022-07-13,2022-07-13,株式会社ＲＩＫＩ,,株式会社,茨城県,筑西市,船玉２８６番１９,,08,227,3080121,,,,,,,2022-07-13,1,,,,,リキ,0
2464,9050005013109,新規,0,2022-07-13,2022-07-13,一般財団法人一貫堂記念財団,,その他の設立登記法人,茨城県,水戸市,大町２丁目１番２６－１２０７号サーパス大町,,08,201,3100062,,,,,,,2022-07-13,1,,,,,イッカンドウキネンザイダン,0
2466,9060001035064,新規,0,2022-07-13,2022-07-13,株式会社ウッドベルファーム,,株式会社,栃木県,真岡市,鹿２７９番地,,09,209,3214504,,,,,,,2022-07-13,1,,,,,ウッドベルファーム,0
2467,9060001035089,新規,0,2022-07-13,2022-07-13,株式会社アトラス,,株式会社,栃木県,宇都宮市,竹林町２９６－５－Ｂ３０１,,09,201,3210974,,,,,,,2022-07-13,1,,,,,アトラス,0
2470,9070003004553,新規,0,2022-07-13,2022-07-13,合同会社おだやか,,合同会社,群馬県,太田市,大久保町３１９番地２０,,10,205,3792306,,,,,,,2022-07-13,1,,,,,オダヤカ,0
2471,9080001025088,新規,0,2022-07-13,2022-07-13,株式会社ＫＯＵ,,株式会社,静岡県,島田市,阪本１４４６番地の３１,,22,209,4270111,,,,,,,2022-07-13,1,,,,,コウ,0
2500,9120001247231,新規,0,2022-07-13,2022-07-13,株式会社エスライン,,株式会社,大阪府,大阪市東淀川区,菅原２丁目２番１８号,,27,114,5330022,,,,,,,2022-07-13,1,,,,,エスライン,0
2501,9120001247280,新規,0,2022-07-13,2022-07-13,株式会社ちまた,,株式会社,大阪府,大阪市西区,新町１丁目１４番２１－２３１９号,,27,106,5500013,,,,,,,2022-07-13,1,,,,,チマタ,0
2502,9120001247289,新規,0,2022-07-13,2022-07-13,京都拾美堂株式会社,,株式会社,大阪府,大阪市生野区,中川２丁目１６番１６号永福ビル,,27,116,5440005,,,,,,,2022-07-13,1,,,,,キョウトヒロミドウ,0
2503,9120001247297,新規,0,2022-07-13,2022-07-13,白馬株式会社,,株式会社,大阪府,大阪市西成区,山王２丁目５番１８－１０３号,,27,122,5570001,,,,,,,2022-07-13,1,,,,,ハクバ,0
2504,9120001247355,新規,0,2022-07-13,2022-07-13,株式会社Ｃｒｅａｔｅ,,株式会社,大阪府,大阪市中央区,島之内１丁目１５番２５－２４０３号,,27,128,5420082,,,,,,,2022-07-13,1,,,,,クリエイト,0
2523,9120901046245,新規,0,2022-07-13,2022-07-13,株式会社建築工房カワハラ,,株式会社,大阪府,吹田市,南高浜町３７番３０号,,27,205,5640025,,,,,,,2022-07-13,1,,,,,ケンチクコウボウカワハラ,0
2529,9130001072190,新規,0,2022-07-13,2022-07-13,株式会社宮本康平建築設計事務所,,株式会社,京都府,京都市上京区,河原町通丸太町上る桝屋町３５４番地２毎日新聞京都ビル１階,,26,102,6020877,,,,,,,2022-07-13,1,,,,,ミヤモトコウヘイケンチクセッケイジムショ,0
2530,9130001072249,新規,0,2022-07-13,2022-07-13,株式会社ＴＯＡＩ　Ｍａｎａｇｅｍｅｎｔ,,株式会社,京都府,京都市中京区,三条通烏丸西入御倉町８５番地１烏丸ビル５階,,26,104,6048166,,,,,,,2022-07-13,1,,,,,トウアイマネジメント,0
2531,9130003008052,新規,0,2022-07-13,2022-07-13,ＤＸ．Ｔｒａｎｓａｃｔｉｏｎ合同会社,,合同会社,京都府,京都市西京区,御陵峰ケ堂町２丁目３番地１７,,26,111,6101103,,,,,,,2022-07-13,1,,,,,ディーエックストランザクション,0
2538,9140001126689,新規,0,2022-07-13,2022-07-13,スターネクスト株式会社,,株式会社,兵庫県,尼崎市,塚口町４丁目１番地の１０,,28,202,6610002,,,,,,,2022-07-13,1,,,,,スターネクスト,0
2540,9140003017878,新規,0,2022-07-13,2022-07-13,ＦＥＲＮＡＶＡＩＬ合同会社,,合同会社,兵庫県,伊丹市,鈴原町７丁目２８－２,,28,207,6640882,,,,,,,2022-07-13,1,,,,,フェルナベイル,0
2541,9140003017894,新規,0,2022-07-13,2022-07-13,合同会社ＳＨＡＫＥ　ＨＡＮＤＳ,,合同会社,兵庫県,伊丹市,桜ケ丘５丁目４番１７号,,28,207,6640897,,,,,,,2022-07-13,1,,,,,シェイクハンズ,0
2547,9160001024370,新規,0,2022-07-13,2022-07-13,株式会社ウィルコネクト,,株式会社,滋賀県,東近江市,上二俣町１０１１番地,,25,213,5270221,,,,,,,2022-07-13,1,,,,,ウィルコネクト,0
2552,9180001152095,新規,0,2022-07-13,2022-07-13,株式会社松風日章運輸,,株式会社,愛知県,名古屋市中川区,吉津３丁目３００１番地（カルム　ジェルメＩＩ　２０２号）,00127193,23,110,4540981,,,,,,,2022-07-13,1,,,,,マツカゼニッショウウンユ,0
2553,9180001152161,新規,0,2022-07-13,2022-07-13,株式会社ＧＯＮ,,株式会社,愛知県,名古屋市千種区,井上町１０番地,,23,101,4640026,,,,,,,2022-07-13,1,,,,,ゴン,0
2557,9190001029623,新規,0,2022-07-13,2022-07-13,株式会社ビリジアン,,株式会社,三重県,四日市市,笹川２丁目９１番地,,24,202,5100944,,,,,,,2022-07-13,1,,,,,ビリジアン,0
2561,9190003004038,新規,0,2022-07-13,2022-07-13,合同会社ＷＯＯＤ　ＣＨＩＰＳ,,合同会社,三重県,四日市市,小杉町１８００番地,,24,202,5120902,,,,,,,2022-07-13,1,,,,,ウッドチップス,0
2562,9200003005620,新規,0,2022-07-13,2022-07-13,合同会社ワンリアライズ,,合同会社,岐阜県,岐阜市,旦島中１丁目１８番２４号,,21,201,5020928,,,,,,,2022-07-13,1,,,,,ワンリアライズ,0
2567,9220001024950,新規,0,2022-07-13,2022-07-13,株式会社まゆ月,,株式会社,石川県,金沢市,主計町３番１９号,,17,201,9200908,,,,,,,2022-07-13,1,,,,,マユヅキ,0
2568,9220003003325,新規,0,2022-07-13,2022-07-13,ライフアセットプランニング合同会社,,合同会社,石川県,小松市,串茶屋町甲１８番地１,,17,203,9230966,,,,,,,2022-07-13,1,,,,,ライフアセットプランニング,0
2569,9230001019446,新規,0,2022-07-13,2022-07-13,株式会社虹を,,株式会社,富山県,高岡市,木津新町１５８９番地２,,16,202,9330000,,,,,,,2022-07-13,1,,,,,ニジヲ,0
2579,9240001060077,新規,0,2022-07-13,2022-07-13,エムシーズ株式会社,,株式会社,広島県,広島市安佐南区,緑井１丁目２８番１９－５０１号,,34,105,7310103,,,,,,,2022-07-13,1,,,,,エムシーズ,0
2585,9270001008585,新規,0,2022-07-13,2022-07-13,株式会社シーナリークリエーション,,株式会社,鳥取県,米子市,東福原８丁目２５番２１号,,31,202,6830802,,,,,,,2022-07-13,1,,,,,シーナリークリエーション,0
2594,9290001098162,新規,0,2022-07-13,2022-07-13,プロポスタ株式会社,,株式会社,福岡県,福岡市博多区,中洲中島町４番２０号,,40,132,8100802,,,,,,,2022-07-13,1,,,,,プロポスタ,0
2595,9290001098253,新規,0,2022-07-13,2022-07-13,富建設株式会社,,株式会社,福岡県,朝倉市,上畑１０４番地,,40,228,8380042,,,,,,,2022-07-13,1,,,,,トミケンセツ,0
2603,9290801028723,新規,0,2022-07-13,2022-07-13,株式会社翔,,株式会社,福岡県,北九州市八幡東区,昭和２丁目１番２１－１号,,40,108,8050013,,,,,,,2022-07-13,1,,,,,ショウ,0
2604,9290803004160,新規,0,2022-07-13,2022-07-13,合同会社Ａｎｇｅｌ　Ｆａｌｌｓ,,合同会社,福岡県,北九州市小倉南区,舞ケ丘４丁目１６番１４号,,40,107,8020823,,,,,,,2022-07-13,1,,,,,エンジェルフォール,0
2605,9300001012996,新規,0,2022-07-13,2022-07-13,株式会社インデペ,,株式会社,佐賀県,佐賀市,城内１丁目５番１０号,,41,201,8400041,,,,,,,2022-07-13,1,,,,,インデペ,0
2608,9310001017961,新規,0,2022-07-13,2022-07-13,株式会社Ｌｅａｄｂｏｘ,,株式会社,長崎県,佐世保市,大塔町１７３０番地１５,,42,202,8571161,,,,,,,2022-07-13,1,,,,,リードボックス,0
2609,9310003004413,新規,0,2022-07-13,2022-07-13,合同会社おかもと太陽光発電所,,合同会社,長崎県,佐世保市,小佐々町矢岳４９１番地,,42,202,8570414,,,,,,,2022-07-13,1,,,,,オカモトタイヨウコウハツデンショ,0
2618,9360005006683,新規,0,2022-07-13,2022-07-13,沖縄県海塩事業協同組合,,その他の設立登記法人,沖縄県,石垣市,字新川１１４５番地５７,,47,207,9070024,,,,,,,2022-07-13,1,,,,,,0
2627,9370001048794,新規,0,2022-07-13,2022-07-13,株式会社Ｓ・Ｓ興業,,株式会社,宮城県,角田市,高倉字山田８５番地,,04,208,9811516,,,,,,,2022-07-13,1,,,,,エスエスコウギョウ,0
2634,9380001032979,新規,0,2022-07-13,2022-07-13,株式会社ＢＡＩＧ　ＴＲＡＤＩＮＧ,,株式会社,福島県,郡山市,大槻町字北田１９番地の１８,,07,203,9630201,,,,,,,2022-07-13,1,,,,,,0
2639,9400003002960,新規,0,2022-07-13,2022-07-13,合同会社メイク．Ｓ,,合同会社,岩手県,奥州市,衣川日向５９番地４６９,,03,215,0294421,,,,,,,2022-07-13,1,,,,,メイク,0
2641,9400005008254,新規,0,2022-07-13,2022-07-13,一般社団法人一関ネイチャーセンター,,その他の設立登記法人,岩手県,一関市,山目字十二神２７番地１,,03,209,0210036,,,,,,,2022-07-13,1,,,,,イチノセキネイチャーセンター,0
2644,9430003014103,新規,0,2022-07-13,2022-07-13,合同会社山谷ファーム,,合同会社,北海道,夕張郡長沼町,東８線南１番地,,01,428,0691458,,,,,,,2022-07-13,1,,,,,ヤマヤファーム,0
2647,9460101007220,新規,0,2022-07-13,2022-07-13,ロザリオ株式会社,,株式会社,北海道,河西郡芽室町,東芽室北１線１４番地９,,01,637,0820004,,,,,,,2022-07-13,1,,,,,ロザリオ,0
2654,9490003001681,新規,0,2022-07-13,2022-07-13,合同会社ＮＦ,,合同会社,高知県,南国市,大＿乙１７９９番地８,00127196,39,204,7830005,,,,,,,2022-07-13,1,,,,,エヌエフ,0
2659,9700150109660,新規,0,2022-07-13,2022-06-14,分離技術会,,その他,神奈川県,川崎市多摩区,三田１丁目１２－５－１３５,,14,135,2140034,,,,,,,2022-06-14,1,,,,,ブンリギジユツカイ,0
