sequenceNumber,corporateNumber,process,correct,updateDate,changeDate,name,nameImageId,kind,prefectureName,cityName,streetNumber,addressImageId,prefectureCode,cityCode,postCode,addressOutside,addressOutsideImageId,closeDate,closeCause,successorCorporateNumber,changeCause,assignmentDate,latest,enName,enPrefectureName,enCityName,enAddressOutside,furigana,hihyoji
3,1010001129737,登記記録の閉鎖等,0,2023-09-14,2023-09-07,エス・テイ株式会社,,株式会社,東京都,中央区,佃２丁目１番２－２１１１号,,13,102,1040051,,,2023-09-07,清算の結了等,,,2015-10-05,1,,,,,エステイ,0
10,1010001217211,登記記録の閉鎖等,0,2023-09-14,2023-09-07,ファーマロン・クリニカルサービス株式会社,,株式会社,東京都,中央区,銀座６丁目１０番１号,,13,102,1040061,,,2023-09-07,清算の結了等,,,2021-04-09,1,,,,,ファーマロンクリニカルサービス,0
12,1010002011299,登記記録の閉鎖等,0,2023-09-14,2023-09-08,有限会社自動車部品出版,,有限会社,東京都,千代田区,六番町１３番地５－２Ｅ,,13,101,1020085,,,2023-09-08,清算の結了等,,,2015-10-05,1,,,,,ジドウシャブヒンシュッパン,0
29,1010405017447,登記記録の閉鎖等,0,2023-09-14,2023-09-08,宇田川ホールディング１一般社団法人,,その他の設立登記法人,東京都,港区,虎ノ門３丁目２２番１０－２０１号,,13,103,1050001,,,2023-09-08,清算の結了等,,,2019-02-14,1,,,,,ウダガワホールディングワン,0
36,1010802002415,登記記録の閉鎖等,0,2023-09-14,2023-09-11,有限会社エフメック,,有限会社,東京都,大田区,北糀谷１丁目２０番９号,,13,111,1440032,,,2023-09-11,清算の結了等,,,2015-10-05,1,,,,,,0
50,1011001135997,登記記録の閉鎖等,0,2023-09-14,2023-09-11,株式会社ＣＴＫホールディング,,株式会社,東京都,渋谷区,広尾１丁目１番３９号,,13,113,1500012,,,2023-09-11,清算の結了等,,,2020-09-29,1,,,,,シーティーケーホールディング,0
69,1013201005807,登記記録の閉鎖等,0,2023-09-14,2023-09-11,株式会社メーキャップルーム,,株式会社,東京都,目黒区,東が丘１丁目１１番３号,,13,110,1520021,,,2023-09-11,清算の結了等,,,2015-10-05,1,,,,,メーキャップルーム,0
70,1013301002761,登記記録の閉鎖等,0,2023-09-14,2023-09-11,株式会社熊澤建設,,株式会社,東京都,豊島区,西池袋５丁目５番２１－１００４号,,13,116,1710021,,,2023-09-11,清算の結了等,,,2015-10-05,1,,,,,クマザワケンセツ,0
89,1030001025109,登記記録の閉鎖等,0,2023-09-14,2023-09-11,株式会社ミツマ,,株式会社,埼玉県,所沢市,北原町８６７番地２,,11,208,3590004,,,2023-09-11,合併による解散等,4010001233602,令和５年９月１日東京都千代田区紀尾井町４番１号ニューオータニガーデンコート９階株式会社ミツマ（4010001233602）に合併し解散,2015-10-05,1,,,,,ミツマ,0
95,1030001107518,登記記録の閉鎖等,0,2023-09-14,2023-09-11,株式会社ヘキサメディア,,株式会社,埼玉県,川口市,飯塚１丁目２番１１号川口テラス２０１号,,11,203,3320023,,,2023-09-11,合併による解散等,8011101088255,令和５年９月１日東京都新宿区西新宿二丁目１番１号株式会社ＪＤＲＯＮＥ（8011101088255）に合併し解散,2015-10-05,1,,,,,ヘキサメディア,0
101,1030002038704,登記記録の閉鎖等,0,2023-09-14,2023-08-21,有限会社ダイコー,,有限会社,埼玉県,白岡市,西１０丁目２番２号,,11,246,3490205,,,2023-08-21,清算の結了等,,,2015-10-05,1,,,,,ダイコー,0
118,1110001024416,登記記録の閉鎖等,0,2023-09-14,2023-09-12,株式会社ソガ金森,,株式会社,新潟県,長岡市,栃尾宮沢１２６６番地,,15,202,9400233,,,2023-09-12,合併による解散等,4230001009872,令和５年９月１日富山県高岡市昭和町一丁目４番１号金森産業株式会社（4230001009872）に合併し解散,2015-10-05,1,,,,,ソガカナモリ,0
120,1110002009754,登記記録の閉鎖等,0,2023-09-14,2023-09-11,有限会社ボディショップばん,,有限会社,新潟県,新潟市秋葉区,善道町２丁目１３番１１号,,15,105,9560865,,,2023-09-11,清算の結了等,,,2015-10-05,1,,,,,ボディショップバン,0
125,1120001150104,登記記録の閉鎖等,0,2023-09-14,2023-09-11,高橋開発ホームテック株式会社,,株式会社,大阪府,枚方市,三栗１丁目１番２４－１０３号,,27,210,5731171,,,2023-09-11,清算の結了等,,,2015-10-05,1,,,,,タカハシカイハツホームテック,0
129,1120002066852,登記記録の閉鎖等,0,2023-09-14,2023-09-11,有限会社智琳,,有限会社,奈良県,奈良市,西大寺本町１番５号,,29,201,6310816,,,2023-09-11,清算の結了等,,,2015-10-05,1,,,,,チリン,0
139,1120902019760,登記記録の閉鎖等,0,2023-09-14,2023-09-11,有限会社ほりば,,有限会社,大阪府,豊中市,東豊中町５丁目３５番７号,,27,203,5600003,,,2023-09-11,清算の結了等,,,2015-10-05,1,,,,,ホリバ,0
141,1122002005848,登記記録の閉鎖等,0,2023-09-14,2023-09-13,有限会社インテス,,有限会社,大阪府,東大阪市,菱屋東１丁目１３番８号,,27,227,5780948,,,2023-09-13,清算の結了等,,,2015-10-05,1,,,,,インテス,0
170,1170001012869,登記記録の閉鎖等,0,2023-09-14,2023-08-28,橋本ソーラー発電所株式会社,,株式会社,東京都,港区,元赤坂１丁目１番７号,,13,103,1070051,,,2023-08-28,清算の結了等,,,2015-10-05,1,,,,,ハシモトソーラーハツデンショ,0
177,1180003012271,登記記録の閉鎖等,0,2023-09-14,2023-09-11,合資会社ウエマツ,,合資会社,愛知県,稲沢市,長野１丁目１番１号,,23,220,4928142,,,2023-09-11,清算の結了等,,,2015-10-05,1,,,,,ウエマツ,0
179,1180003023483,登記記録の閉鎖等,0,2023-09-14,2023-09-11,合同会社白鯨,,合同会社,愛知県,名古屋市中区,栄１丁目６番１５号グランドメゾン御園座タワー１６０１号,,23,106,4600008,,,2023-09-11,清算の結了等,,,2022-02-17,1,,,,,ハクゲイ,0
183,1180301018854,登記記録の閉鎖等,0,2023-09-14,2023-09-04,トヨタ映像企画株式会社,,株式会社,愛知県,豊田市,神明町１丁目２９番地,,23,211,4710028,,,2023-09-04,清算の結了等,,,2015-10-05,1,,,,,トヨタエイゾウキカク,0
185,1180302024612,登記記録の閉鎖等,0,2023-09-14,2023-08-31,有限会社中西商店,,有限会社,愛知県,豊田市,有間町宇内戸２９番地,,23,211,4442827,,,2023-08-31,清算の結了等,,,2015-10-05,1,,,,,ナカニシショウテン,0
209,1360002022170,登記記録の閉鎖等,0,2023-09-14,2023-09-11,有限会社瑞宝土木,,有限会社,沖縄県,宮古島市,平良字久貝９１０番地の５,,47,214,9060015,,,2023-09-11,清算の結了等,,,2015-10-05,1,,,,,ズイホウドボク,0
233,1700150010454,登記記録の閉鎖等,0,2023-09-14,2021-02-03,日本金属プレス工業　厚生年金基金,,その他,東京都,墨田区,両国４丁目３０番７号金属プレス会館７階,,13,107,1300026,,,2021-02-03,その他の清算の結了等,,,2015-10-09,1,,,,,ニホンキンゾクプレスコウギヨウコウセイネンキンキキン,0
234,1700150080860,登記記録の閉鎖等,0,2023-09-14,2022-07-31,飛騨山脈ジオパーク推進協議会,,その他,岐阜県,高山市,奥飛騨温泉郷村上１６８９－３,,21,203,5061431,,,2022-07-31,その他の清算の結了等,,,2017-02-14,1,,,,,ヒダサンミヤクジオパークスイシンキヨウギカイ,0
235,1700150101294,登記記録の閉鎖等,0,2023-09-14,2023-05-18,ヒヤミカチ沖縄ｐｒｏｊｅｃｔ実行委員会,,その他,沖縄県,那覇市,上之屋１丁目１８番３６号沖縄映像センタービル４階,,47,201,9000011,,,2023-05-18,その他の清算の結了等,,,2020-12-08,1,,,,,ヒヤミカチオキナワプロジエクトジツコウイインカイ,0
236,1700150107589,登記記録の閉鎖等,0,2023-09-14,2022-12-31,スタジオパフォ,,その他,沖縄県,那覇市,久茂地２丁目４番１６号,,47,201,9000015,,,2022-12-31,その他の清算の結了等,,,2022-03-31,1,,,,,スタジオパフオ,0
244,2010001105274,登記記録の閉鎖等,0,2023-09-14,2023-09-06,株式会社理工出版社,,株式会社,東京都,千代田区,飯田橋３丁目１１番２２号,,13,101,1020072,,,2023-09-06,清算の結了等,,,2015-10-05,1,,,,,リコウシュッパンシャ,0
319,2020002091802,登記記録の閉鎖等,0,2023-09-14,2023-09-06,有限会社エイペックス,,有限会社,神奈川県,川崎市多摩区,東三田３丁目３番１７号,,14,135,2140033,,,2023-09-06,清算の結了等,,,2015-10-05,1,,,,,エイペックス,0
322,2020005013456,登記記録の閉鎖等,0,2023-09-14,2023-09-05,一般社団法人健康自立支援機構,,その他の設立登記法人,神奈川県,横浜市青葉区,新石川１丁目６番地２－３０２,,14,117,2250003,,,2023-09-05,清算の結了等,,,2018-01-11,1,,,,,,0
326,2021001048165,登記記録の閉鎖等,0,2023-09-14,2023-09-07,株式会社ジェーエスパワー・ジャパン,,株式会社,神奈川県,秦野市,室町８番４号,,14,211,2570033,,,2023-09-07,清算の結了等,,,2015-10-05,1,,,,,ジェーエスパワージャパン,0
328,2021001054139,登記記録の閉鎖等,0,2023-09-14,2023-09-07,株式会社ＭＡＳＴ,,株式会社,神奈川県,足柄下郡湯河原町,宮下６７９番地,,14,384,2590304,,,2023-09-07,清算の結了等,,,2015-10-05,1,,,,,マスト,0
331,2021002053346,登記記録の閉鎖等,0,2023-09-14,2023-09-07,有限会社柳下工作所,,有限会社,神奈川県,小田原市,飯泉１２７５番地,,14,206,2500863,,,2023-09-07,清算の結了等,,,2015-10-05,1,,,,,,0
344,2040001050138,登記記録の閉鎖等,0,2023-09-14,2023-08-31,株式会社福喜組,,株式会社,千葉県,八街市,榎戸２４６番地６,,12,230,2891106,,,2023-08-31,清算の結了等,,,2015-10-05,1,,,,,,0
358,2110001012444,登記記録の閉鎖等,0,2023-09-14,2023-09-08,株式会社天野印刷,,株式会社,新潟県,新発田市,富塚町３丁目２番１２号,,15,206,9570062,,,2023-09-08,清算の結了等,,,2015-10-05,1,,,,,アマノインサツ,0
359,2110002018192,登記記録の閉鎖等,0,2023-09-14,2023-09-11,有限会社江口金型設計製作所,,有限会社,新潟県,加茂市,柳町２丁目６番９号,,15,209,9591386,,,2023-09-11,清算の結了等,,,2015-10-05,1,,,,,,0
366,2120001082536,登記記録の閉鎖等,0,2023-09-14,2023-09-11,株式会社精美設計事務所,,株式会社,大阪府,大阪市中央区,釣鐘町２丁目１番４号,,27,128,5400035,,,2023-09-11,清算の結了等,,,2015-10-05,1,,,,,セイビセッケイケイジムショ,0
383,2130001056778,登記記録の閉鎖等,0,2023-09-14,2023-08-31,株式会社朝倉ゼミナール研究所,,株式会社,京都府,京都市右京区,西院高田町２３番地３－８０１,,26,108,6150031,,,2023-08-31,清算の結了等,,,2016-02-05,1,,,,,アサクラゼミナールケンキュウジョ,0
390,2140001078185,登記記録の閉鎖等,0,2023-09-14,2023-09-07,柿原電機工業株式会社,,株式会社,兵庫県,伊丹市,中央６丁目３番１５－２０１号,,28,207,6640851,,,2023-09-07,清算の結了等,,,2015-10-05,1,,,,,,0
415,2180002071846,登記記録の閉鎖等,0,2023-09-14,2023-09-08,有限会社シンポ工業,,有限会社,愛知県,瀬戸市,高根町２丁目８２番地の１,,23,204,4890931,,,2023-09-08,清算の結了等,,,2015-10-05,1,,,,,シンポコウギョウ,0
418,2180302013110,登記記録の閉鎖等,0,2023-09-14,2023-09-05,有限会社グロア,,有限会社,愛知県,豊川市,市田町大道下３４番地ボヌール大道下１０１号,,23,207,4420862,,,2023-09-05,清算の結了等,,,2015-10-05,1,,,,,グロア,0
419,2190001001605,登記記録の閉鎖等,0,2023-09-14,2023-09-07,ルモテック株式会社,,株式会社,三重県,津市,岩田２番８号,,24,201,5140838,,,2023-09-07,清算の結了等,,,2015-10-05,1,,,,,,0
427,2230003001301,登記記録の閉鎖等,0,2023-09-14,2023-09-11,青柳合同会社,,合同会社,富山県,氷見市,小杉１番地３,,16,205,9350424,,,2023-09-11,清算の結了等,,,2019-04-04,1,,,,,アオヤギ,0
433,2250001012166,登記記録の閉鎖等,0,2023-09-14,2023-09-07,株式会社Ｆｒｅｅ　Ｔｈｉｎｋｉｎｇ,,株式会社,山口県,岩国市,尾津町２丁目１４番４７号,,35,208,7400032,,,2023-09-07,清算の結了等,,,2015-10-05,1,,,,,フリーシンキング,0
444,2280002007856,登記記録の閉鎖等,0,2023-09-14,2023-09-11,有限会社渡辺左官興業,,有限会社,島根県,大田市,久手町刺鹿２５７８番地１,,32,205,6940052,,,2023-09-11,清算の結了等,,,2015-10-05,1,,,,,ワタナベサカンコウギョウ,0
449,2290003013010,登記記録の閉鎖等,0,2023-09-14,2023-09-04,Ｐｏｐｆｕｌ合同会社,,合同会社,福岡県,福岡市中央区,天神４丁目６－２８天神ファーストビル７階,,40,133,8100001,,,2023-09-04,清算の結了等,,,2022-10-11,1,,,,,ポップフル,0
459,2340003003468,登記記録の閉鎖等,0,2023-09-14,2023-09-13,合同会社Ｐ＆Ｅ　ｓｔｙｌｅ,,合同会社,鹿児島県,鹿児島市,上福元町５９２０番地１４,,46,201,8910116,,,2023-09-13,清算の結了等,,,2021-06-18,1,,,,,ピーアンドイースタイル,0
466,2370002010578,登記記録の閉鎖等,0,2023-09-14,2023-09-04,有限会社きもの彩せ,,有限会社,岩手県,盛岡市,長田町２番２４号,,03,201,0200062,,,2023-09-04,合併による解散等,4400601000107,令和５年９月１日岩手県奥州市水沢字赤土田１１番地１０株式会社きものおのでら（4400601000107）に合併し解散,2015-10-05,1,,,,,キモノアヤセ,0
478,2470005005400,登記記録の閉鎖等,0,2023-09-14,2023-09-08,特定非営利活動法人かがわ子育て親育ちの会,,その他の設立登記法人,香川県,丸亀市,今津町７４５番地２２,,37,202,7630051,,,2023-09-08,清算の結了等,,,2015-10-05,1,,,,,カガワコソダテオヤソダチノカイ,0
480,2700150061372,登記記録の閉鎖等,0,2023-09-14,2023-03-31,西海地区自家用自動車協会,,その他,長崎県,西海市,西海町川内郷１１０６番地５,,42,212,8513502,,,2023-03-31,その他の清算の結了等,,,2015-10-09,1,,,,,サイカイチクジカヨウジドウシヤキヨウカイ,0
481,2700150081346,登記記録の閉鎖等,0,2023-09-14,2023-02-20,熊本市南土地改良区,,その他,熊本県,熊本市南区,奥古閑町２０３５,,43,104,8614125,,,2023-02-20,その他の清算の結了等,,,2017-03-01,1,,,,,クマモトシミナミトチカイリヨウク,0
482,2700150091510,登記記録の閉鎖等,0,2023-09-14,2023-06-01,北３東１１周辺地区市街地再開発組合,,その他,北海道,札幌市中央区,北二条東３丁目２－２マルタビル札幌３階,,01,101,0600032,,,2023-06-01,その他の清算の結了等,,,2018-11-05,1,,,,,キタサンヒガシジユウイチシユウヘンチクシガイチサイカイハツクミアイ,0
483,2700150094125,登記記録の閉鎖等,0,2023-09-14,2023-03-31,郷原町を考える会,,その他,広島県,呉市,郷原町９０－１,,34,202,7370161,,,2023-03-31,その他の清算の結了等,,,2019-05-10,1,,,,,ゴウハラチヨウヲカンガエルカイ,0
484,2700150108099,登記記録の閉鎖等,0,2023-09-14,2023-05-31,ｃｉａｏ！ｃｉａｏ！,,その他,福岡県,福岡市博多区,下呉服町２－２－１３０２,,40,132,8120034,,,2023-05-31,その他の清算の結了等,,,2022-04-18,1,,,,,チヤオチヤオ,0
485,2700150112274,登記記録の閉鎖等,0,2023-09-14,2023-02-28,ｏｆｆｉｃｅ：Ｆｅｓｔｉｖａｌ　ＧＩＧＡ,,その他,山口県,山口市,大内御堀３１１８,,35,203,7530214,,,2023-02-28,その他の清算の結了等,,,2022-10-26,1,,,,,オフイスフエステイバルギガ,0
496,3010001207524,登記記録の閉鎖等,0,2023-09-14,2023-09-05,株式会社ＳＱＵＡＲＥＳ,,株式会社,東京都,中央区,京橋２丁目７番１４号,,13,102,1040031,,,2023-09-05,合併による解散等,8010001207866,令和５年９月１日東京都中央区京橋二丁目７番１４号株式会社Ｌ‐ＣＵＢＥ（8010001207866）に合併し解散,2020-02-14,1,,,,,スクエアーズ,0
502,3010401128048,登記記録の閉鎖等,0,2023-09-14,2023-09-11,Ｃｌｏｃｃｏ株式会社,,株式会社,東京都,港区,新橋２丁目９番１６号,,13,103,1050004,,,2023-09-11,合併による解散等,6120001126702,令和５年９月１日大阪市西区新町三丁目６番１０号ＩＮＳＯＵホールディングス株式会社（6120001126702）に合併し解散,2016-11-09,1,,,,,クロッコ,0
509,3010405017560,登記記録の閉鎖等,0,2023-09-14,2023-09-08,宇田川ホールディング２一般社団法人,,その他の設立登記法人,東京都,港区,虎ノ門３丁目２２番１０－２０１号,,13,103,1050001,,,2023-09-08,清算の結了等,,,2019-03-20,1,,,,,ウダガワホールディングツー,0
518,3010901018302,登記記録の閉鎖等,0,2023-09-14,2023-09-07,株式会社スガタ,,株式会社,東京都,世田谷区,深沢２丁目１９番２０号,,13,112,1580081,,,2023-09-07,清算の結了等,,,2015-10-05,1,,,,,スガタ,0
532,3011101062297,登記記録の閉鎖等,0,2023-09-14,2023-08-28,株式会社ＡＧＯ,,株式会社,東京都,港区,芝５丁目２７番３号ＭＢＣ－Ｂ－５８,,13,103,1080014,,,2023-08-28,清算の結了等,,,2015-10-05,1,,,,,エージーオー,0
534,3011101098705,登記記録の閉鎖等,0,2023-09-14,2023-09-07,株式会社ＡＱＵＡ　ＣＰＣ,,株式会社,東京都,世田谷区,松原３丁目４０番８号,,13,112,1560043,,,2023-09-07,清算の結了等,,,2022-05-09,1,,,,,アクアシーピーシー,0
539,3011601019409,登記記録の閉鎖等,0,2023-09-14,2023-09-08,株式会社ウィンターハルター・ジャパン・サービス,,株式会社,埼玉県,春日部市,緑町６丁目４番３号,,11,214,3440063,,,2023-09-08,合併による解散等,2040001016774,令和５年９月１日埼玉県春日部市緑町六丁目４番３号株式会社ウィンターハルター・ジャパン（2040001016774）に合併し解散,2015-10-05,1,,,,,ウィンターハルタージャパンサービス,0
546,3013301025034,登記記録の閉鎖等,0,2023-09-14,2023-09-11,ＹＯＵ－企画株式会社,,株式会社,東京都,豊島区,東池袋４丁目２番８号,,13,116,1700013,,,2023-09-11,清算の結了等,,,2015-10-05,1,,,,,ユウキカク,0
548,3020001049651,登記記録の閉鎖等,0,2023-09-14,2023-09-06,鴻山株式会社,,株式会社,神奈川県,横浜市都筑区,茅ケ崎南２丁目３番地１号,,14,118,2240037,,,2023-09-06,清算の結了等,,,2015-10-05,1,,,,,,0
564,3021001062801,登記記録の閉鎖等,0,2023-09-14,2023-09-06,株式会社東海,,株式会社,神奈川県,川崎市宮前区,菅生６丁目１２－７,,14,136,2160015,,,2023-09-06,清算の結了等,,,2017-08-15,1,,,,,トウミ,0
569,3021002043940,登記記録の閉鎖等,0,2023-09-14,2023-09-07,有限会社テクノキューブ,,有限会社,神奈川県,座間市,相模が丘５丁目２４番１０号相模ガーデンコート２０２号,,14,216,2520001,,,2023-09-07,清算の結了等,,,2015-10-05,1,,,,,テクノキューブ,0
575,3030001128124,登記記録の閉鎖等,0,2023-09-14,2023-08-24,両通商事株式会社,,株式会社,埼玉県,三郷市,栄１丁目２７７番地１０,,11,237,3410043,,,2023-08-24,清算の結了等,,,2018-11-07,1,,,,,リョウツショウジ,0
584,3050001005528,登記記録の閉鎖等,0,2023-09-14,2023-09-07,那珂ライフ株式会社,,株式会社,茨城県,那珂市,杉１０５６番地,,08,226,3110106,,,2023-09-07,清算の結了等,,,2015-10-05,1,,,,,ナカライフ,0
589,3070001011342,登記記録の閉鎖等,0,2023-09-14,2023-09-08,群馬ＬＰＧ物流株式会社,,株式会社,群馬県,高崎市,中尾町１９１番地５,,10,202,3700001,,,2023-09-08,清算の結了等,,,2015-10-05,1,,,,,グンマエルピージーブツリュウ,0
598,3120001123116,登記記録の閉鎖等,0,2023-09-14,2023-09-01,株式会社ＭＣ,,株式会社,大阪府,大阪市中央区,難波３丁目２番２７号,,27,128,5420076,,,2023-09-01,合併による解散等,7120001101084,令和５年９月１日大阪市中央区難波三丁目２番２７号株式会社クレール（7120001101084）に合併し解散,2015-10-05,1,,,,,エムシー,0
607,3120003014767,登記記録の閉鎖等,0,2023-09-14,2023-09-05,合同会社ＦＦＳ,,合同会社,大阪府,大阪市北区,梅田２丁目５番１３号,,27,127,5300001,,,2023-09-05,清算の結了等,,,2018-10-03,1,,,,,エフエフエス,0
612,3122001013560,登記記録の閉鎖等,0,2023-09-14,2023-09-07,株式会社ヤエリ,,株式会社,大阪府,東大阪市,中鴻池町２丁目５番１３号,,27,227,5780975,,,2023-09-07,清算の結了等,,,2015-10-05,1,,,,,ヤエリ,0
618,3130002007481,登記記録の閉鎖等,0,2023-09-14,2023-08-31,有限会社ツカハラ,,有限会社,京都府,京都市下京区,西七条南東野町１７５番地,,26,106,6008872,,,2023-08-31,清算の結了等,,,2015-10-05,1,,,,,ツカハラ,0
628,3150001001351,登記記録の閉鎖等,0,2023-09-14,2023-09-12,大和化成興業株式会社,,株式会社,奈良県,奈良市,横井６丁目５８０番地,,29,201,6308422,,,2023-09-12,合併による解散等,5120002001302,令和５年９月１日大阪市鶴見区徳庵一丁目２番６５号株式会社東洋炭素製造所（5120002001302）に合併し解散,2015-10-05,1,,,,,ダイワカセイコウギョウ,0
637,3180001043077,登記記録の閉鎖等,0,2023-09-14,2023-09-08,株式会社パインステート,,株式会社,愛知県,名古屋市千種区,池下１丁目１０番１５号,,23,101,4640067,,,2023-09-08,清算の結了等,,,2015-10-05,1,,,,,パインステート,0
640,3180001089533,登記記録の閉鎖等,0,2023-09-14,2023-09-11,株式会社Ｎ．Ｃ．Ｅ．設計事務所,,株式会社,愛知県,名古屋市千種区,池下１丁目１１番２１号,,23,101,4640067,,,2023-09-11,清算の結了等,,,2015-10-05,1,,,,,エヌシーイーセッケイジムショ,0
649,3180301025931,登記記録の閉鎖等,0,2023-09-14,2023-09-01,株式会社サンコーホールディングス,,株式会社,愛知県,豊橋市,神野新田町字ルノ割２４番地,,23,201,4418077,,,2023-09-01,合併による解散等,1180301005737,令和５年９月１日愛知県豊橋市神野新田町字ルノ割２４番地株式会社サンコー（1180301005737）に合併し解散,2015-10-05,1,,,,,サンコーホールディングス,0
662,3290001053247,登記記録の閉鎖等,0,2023-09-14,2023-09-01,株式会社三丸商会,,株式会社,福岡県,大川市,大字三丸１８１３番地の４,,40,212,8310026,,,2023-09-01,清算の結了等,,,2015-10-05,1,,,,,ミツマルショウカイ,0
679,3340001016909,登記記録の閉鎖等,0,2023-09-14,2023-09-12,株式会社蓮子興産,,株式会社,鹿児島県,南九州市,頴娃町別府３０８３番地１,,46,223,8910704,,,2023-09-12,清算の結了等,,,2015-10-05,1,,,,,ハツシコウサン,0
684,3360001014142,登記記録の閉鎖等,0,2023-09-14,2023-09-11,株式会社友利黒糖,,株式会社,沖縄県,宮古島市,下地字洲鎌１１５６番地１,,47,214,9060303,,,2023-09-11,清算の結了等,,,2015-10-05,1,,,,,トモリコクトウ,0
691,3420002007436,登記記録の閉鎖等,0,2023-09-14,2023-09-07,有限会社ウイングコーポレーション,,有限会社,青森県,八戸市,城下４丁目２１番１５号,,02,203,0310072,,,2023-09-07,清算の結了等,,,2015-10-05,1,,,,,ウイングコーポレーション,0
695,3440002005875,登記記録の閉鎖等,0,2023-09-14,2023-09-08,有限会社イエローハウス,,有限会社,北海道,函館市,桔梗町４３５番地の４５８,,01,202,0410801,,,2023-09-08,清算の結了等,,,2015-10-05,1,,,,,イエローハウス,0
696,3460001000941,登記記録の閉鎖等,0,2023-09-14,2023-09-11,武田商事株式会社,,株式会社,北海道,釧路市,幸町１４丁目１番地の９,,01,206,0850017,,,2023-09-11,清算の結了等,,,2015-10-05,1,,,,,タケダショウジ,0
697,3470001004834,登記記録の閉鎖等,0,2023-09-14,2023-09-08,株式会社ウイントン,,株式会社,香川県,高松市,丸亀町２番地９,,37,201,7600029,,,2023-09-08,清算の結了等,,,2015-10-05,1,,,,,ウイントン,0
707,3700150005106,登記記録の閉鎖等,0,2023-09-14,2017-07-01,日本口腔・咽頭科学会,,その他,東京都,港区,三田２丁目１４－７ローレル三田１２０５,,13,103,1080073,,,2017-07-01,その他の清算の結了等,,,2015-10-09,1,,,,,ニホンコウクウイントウカガツカイ,0
708,3700150052098,登記記録の閉鎖等,0,2023-09-14,2023-02-17,安芸高田市高宮町川根土地改良区,,その他,広島県,安芸高田市,高宮町佐々部９８３－２,,34,214,7391802,,,2023-02-17,その他の清算の結了等,,,2015-10-09,1,,,,,アキタカタシタカミヤチヨウカワネトチカイリヨウク,0
709,3700150085263,登記記録の閉鎖等,0,2023-09-14,2018-11-22,平成３０年度全国中学校体育大会　岡山県実行委員会,,その他,岡山県,岡山市北区,内山下２丁目５－７丸の内会館３階,,33,101,7000824,,,2018-11-22,その他の清算の結了等,,,2017-09-20,1,,,,,ヘイセイサンジユウネンドゼンコクチユウガツコウタイイクタイカイオカヤマケンジツコウイインカイ,0
711,3700150105005,登記記録の閉鎖等,0,2023-09-14,2023-03-31,ＴＡＭＡＯ,,その他,東京都,世田谷区,桜丘１丁目１８－２４,,13,112,1560054,,,2023-03-31,その他の清算の結了等,,,2021-10-04,1,,,,,タマオー,0
712,3700150107562,登記記録の閉鎖等,0,2023-09-14,2023-03-31,ＢＬＯＯＤ　ＳＴＡＩＮ　ＣＨＩＬＤ,,その他,大阪府,泉大津市,末広町２丁目１－１０,,27,206,5950002,,,2023-03-31,その他の清算の結了等,,,2022-03-31,1,,,,,ブラツドステインチヤイルド,0
713,3700150109798,登記記録の閉鎖等,0,2023-09-14,2022-12-31,シネマコネクション,,その他,愛知県,名古屋市千種区,千種１丁目１４－２５　３Ｆ,,23,101,4640858,,,2022-12-31,その他の清算の結了等,,,2022-06-15,1,,,,,シネマコネクシヨン,0
714,3700150111424,登記記録の閉鎖等,0,2023-09-14,2022-12-31,兎一族　Ｌａｓ☆Ｒａｂｂｉｔａｓ,,その他,東京都,八王子市,北野町２８,,13,201,1920906,,,2022-12-31,その他の清算の結了等,,,2022-08-22,1,,,,,ウサギイチゾクラスラビータス,0
715,3700150112001,登記記録の閉鎖等,0,2023-09-14,2023-03-18,雉子音舎,,その他,岩手県,盛岡市,盛岡駅西通１丁目５－１４,,03,201,0200045,,,2023-03-18,その他の清算の結了等,,,2022-10-05,1,,,,,キジネシヤ,0
728,4010401070744,登記記録の閉鎖等,0,2023-09-14,2023-08-28,株式会社ダブルアップエンタテインメント,,株式会社,東京都,港区,六本木４丁目９番２号俳優座ビル７０６,,13,103,1060032,,,2023-08-28,清算の結了等,,,2015-10-05,1,,,,,ダブルアップエンタテインメント,0
736,4010405016875,登記記録の閉鎖等,0,2023-09-14,2023-08-25,一般社団法人パートナーアソシエイツ協会,,その他の設立登記法人,東京都,港区,南青山２丁目２番１５号ウィン青山９４２,,13,103,1070062,,,2023-08-25,清算の結了等,,,2018-07-13,1,,,,,パートナーアソシエイツキョウカイ,0
749,4010802000515,登記記録の閉鎖等,0,2023-09-14,2023-09-12,有限会社葦澤木型製作所,,有限会社,東京都,大田区,仲六郷２丁目２６番１２号,,13,111,1440055,,,2023-09-12,清算の結了等,,,2015-10-05,1,,,,,アシザワキガタセイサクショ,0
750,4010803001941,登記記録の閉鎖等,0,2023-09-14,2023-09-11,ホワイトストーンコンサルティング合同会社,,合同会社,東京都,大田区,中央５丁目２２番１５号,,13,111,1430024,,,2023-09-11,清算の結了等,,,2015-10-05,1,,,,,ホワイトストーンコンサルティング,0
763,4011101100989,登記記録の閉鎖等,0,2023-09-14,2023-07-21,株式会社Ａｓｕ　Ｃｏｍｍｕｎｉｃａｔｉｏｎｓ,,株式会社,東京都,新宿区,高田馬場４丁目４０番１１号ユニゾ高田馬場看山ビル１０Ｆ,,13,104,1690075,,,2023-07-21,清算の結了等,,,2022-11-28,1,,,,,アスコミュニケーションズ,0
769,4011302001227,登記記録の閉鎖等,0,2023-09-14,2023-09-06,有限会社ウェッブ杉,,有限会社,東京都,杉並区,西荻北３丁目１７番８号,,13,115,1670042,,,2023-09-06,清算の結了等,,,2015-10-05,1,,,,,ウェッブスギ,0
775,4011602007543,登記記録の閉鎖等,0,2023-09-14,2023-09-07,有限会社ナカミツ,,有限会社,東京都,練馬区,春日町４丁目３０番１号,,13,120,1790074,,,2023-09-07,清算の結了等,,,2015-10-05,1,,,,,ナカミツ,0
785,4020001080077,登記記録の閉鎖等,0,2023-09-14,2023-09-07,株式会社ツーインワン,,株式会社,東京都,世田谷区,上用賀１丁目２５－１５－２０１,,13,112,1580098,,,2023-09-07,清算の結了等,,,2015-10-05,1,,,,,ツーインワン,0
792,4021001056884,登記記録の閉鎖等,0,2023-09-14,2023-09-07,株式会社クロハ,,株式会社,神奈川県,大和市,福田２丁目１１－３,,14,213,2420024,,,2023-09-07,清算の結了等,,,2015-10-05,1,,,,,クロハ,0
804,4040001006377,登記記録の閉鎖等,0,2023-09-14,2023-08-31,株式会社ビジュアル,,株式会社,千葉県,千葉市稲毛区,緑町１丁目１１番地９号,,12,103,2630023,,,2023-08-31,清算の結了等,,,2015-10-05,1,,,,,ビジュアル,0
827,4120001153426,登記記録の閉鎖等,0,2023-09-14,2023-09-05,株式会社篠原重量,,株式会社,大阪府,寝屋川市,太秦中町３番１５号,,27,215,5720843,,,2023-09-05,清算の結了等,,,2015-10-05,1,,,,,シノハラジュウリョウ,0
836,4120001222379,登記記録の閉鎖等,0,2023-09-14,2023-09-05,エムケイフーズ株式会社,,株式会社,大阪府,門真市,岸和田４丁目５番１６号コモド３０３号室,,27,223,5710002,,,2023-09-05,清算の結了等,,,2019-07-11,1,,,,,,0
837,4120001224284,登記記録の閉鎖等,0,2023-09-14,2023-09-04,栄和株式会社,,株式会社,大阪府,大阪市此花区,四貫島２丁目３番１号ニューセブンビル５０１室,,27,104,5540014,,,2023-09-04,清算の結了等,,,2019-10-08,1,,,,,エイワ,0
871,4180001112657,登記記録の閉鎖等,0,2023-09-14,2023-09-05,株式会社Ｎ・Ｒ・Ｋ,,株式会社,愛知県,刈谷市,今岡町東畑４６番地,,23,210,4480008,,,2023-09-05,清算の結了等,,,2015-10-05,1,,,,,エヌアールケー,0
884,4180301025022,登記記録の閉鎖等,0,2023-09-14,2023-09-01,株式会社福べ,,株式会社,愛知県,豊橋市,松葉町２丁目３５番地,,23,201,4400897,,,2023-09-01,合併による解散等,3180301004951,令和５年９月１日愛知県豊橋市柳生町４４番地株式会社あつみ（3180301004951）に合併し解散,2015-10-05,1,,,,,フクベ,0
920,4370001025526,登記記録の閉鎖等,0,2023-09-14,2023-09-06,株式会社椛澤自動車工業,,株式会社,宮城県,仙台市若林区,六丁の目中町６番２０号,,04,103,9840012,,,2023-09-06,清算の結了等,,,2015-10-05,1,,,,,,0
923,4370202004741,登記記録の閉鎖等,0,2023-09-14,2023-09-06,有限会社駒の湯,,有限会社,宮城県,栗原市,栗駒沼倉耕英東８３番地３,,04,213,9895371,,,2023-09-06,清算の結了等,,,2015-10-05,1,,,,,コマノユ,0
940,4460103001300,登記記録の閉鎖等,0,2023-09-14,2023-09-08,合同会社前田屋,,合同会社,北海道,帯広市,西七条南１６丁目１２番地２,,01,207,0800017,,,2023-09-08,清算の結了等,,,2020-07-08,1,,,,,マエダヤ,0
950,4700150005617,登記記録の閉鎖等,0,2023-09-14,2023-03-31,歌舞伎町タウン・マネージメント,,その他,東京都,新宿区,新宿５丁目１８－２１旧四谷第五小学校内,,13,104,1600022,,,2023-03-31,その他の清算の結了等,,,2015-10-09,1,,,,,カブキチヨウタウンマネージメント,0
952,4700150046289,登記記録の閉鎖等,0,2023-09-14,2018-10-16,浜松市西都土地区画整理組合,,その他,静岡県,浜松市中区,中央１丁目２番１号イーステージ浜松　オフィス棟７階,,22,131,4300929,,,2018-10-16,その他の清算の結了等,,,2015-10-09,1,,,,,ハママツシセイトトチクカクセイリクミアイ,0
953,4700150077276,登記記録の閉鎖等,0,2023-09-14,2023-03-01,古町通７番町地区市街地再開発組合,,その他,新潟県,新潟市中央区,西堀前通６番町９０５第二西堀ビル４Ｆ,,15,103,9518062,,,2023-03-01,その他の清算の結了等,,,2016-11-16,1,,,,,フルマチドオリナナバンチヨウチクシガイチサイカハツクミアイ,0
995,5011105007742,登記記録の閉鎖等,0,2023-09-14,2023-09-12,一般社団法人全日本心身健康協会,,その他の設立登記法人,東京都,新宿区,四谷１丁目１５番３号,,13,104,1600004,,,2023-09-12,清算の結了等,,,2017-04-13,1,,,,,ゼンニホンシンシンケンコウキョウカイ,0
1004,5012401010563,登記記録の閉鎖等,0,2023-09-14,2023-09-11,株式会社ソーモバイル,,株式会社,東京都,府中市,宮町１丁目４０番地,,13,206,1830023,,,2023-09-11,合併による解散等,5013301019521,令和５年９月１日東京都豊島区池袋二丁目５２番８号株式会社ラネット（5013301019521）に合併し解散,2015-10-05,1,,,,,ソーモバイル,0
1018,5020002047248,登記記録の閉鎖等,0,2023-09-14,2023-09-06,有限会社みどり書房,,有限会社,神奈川県,横浜市金沢区,能見台通１５番５号,,14,108,2360053,,,2023-09-06,清算の結了等,,,2015-10-05,1,,,,,ミドリショボウ,0
1019,5020002106805,登記記録の閉鎖等,0,2023-09-14,2023-09-07,有限会社神台,,有限会社,神奈川県,横浜市神奈川区,台町１６番地４－６０１号,,14,102,2210834,,,2023-09-07,清算の結了等,,,2015-10-05,1,,,,,ジンダイ,0
1030,5030001006773,登記記録の閉鎖等,0,2023-09-14,2023-08-04,株式会社希,,株式会社,埼玉県,さいたま市大宮区,大成町１丁目４７０番地４,,11,103,3300852,,,2023-08-04,清算の結了等,,,2015-10-05,1,,,,,ノゾミ,0
1034,5030002088324,登記記録の閉鎖等,0,2023-09-14,2023-09-01,有限会社森屋農場,,有限会社,茨城県,石岡市,三村２４５９番地の３,,08,205,3150048,,,2023-09-01,合併による解散等,5050001011375,令和５年９月１日茨城県小美玉市小岩戸字西峰１９７１番１イセファーム株式会社（5050001011375）に合併し解散,2015-10-05,1,,,,,モリヤノウジョウ,0
1036,5030005001515,登記記録の閉鎖等,0,2023-09-14,2023-08-22,特定非営利活動法人住宅建築協会,,その他の設立登記法人,埼玉県,さいたま市南区,大字太田窪２９６２番地９,,11,108,3360015,,,2023-08-22,清算の結了等,,,2015-10-05,1,,,,,ジュウタクケンチクキョウカイ,0
1037,5040001123849,登記記録の閉鎖等,0,2023-09-14,2023-08-31,ＧＨＳ株式会社,,株式会社,千葉県,船橋市,金杉７丁目２５番１４号,,12,204,2730853,,,2023-08-31,清算の結了等,,,2022-06-15,1,,,,,ジーエイチエス,0
1040,5040002080809,登記記録の閉鎖等,0,2023-09-14,2023-08-31,有限会社エイケイシステム,,有限会社,千葉県,長生郡長南町,美原台１番１８,,12,427,2970143,,,2023-08-31,清算の結了等,,,2015-10-05,1,,,,,エイケイシステム,0
1051,5050002009872,登記記録の閉鎖等,0,2023-09-14,2023-09-07,有限会社チサト企画,,有限会社,茨城県,ひたちなか市,大字稲田１１１５番地４７,,08,221,3120061,,,2023-09-07,清算の結了等,,,2015-10-05,1,,,,,チサトキカク,0
1054,5060002003718,登記記録の閉鎖等,0,2023-09-14,2023-09-04,有限会社弘文堂,,有限会社,栃木県,宇都宮市,戸祭３丁目３番１３号,,09,201,3200056,,,2023-09-04,清算の結了等,,,2015-10-05,1,,,,,コウブンドウ,0
1062,5080101010101,登記記録の閉鎖等,0,2023-09-14,2023-09-12,クニヒロ産業株式会社,,株式会社,静岡県,富士市,宇東川東町４番９号,,22,210,4170853,,,2023-09-12,清算の結了等,,,2015-10-05,1,,,,,クニヒロサンギョウ,0
1063,5080101020174,登記記録の閉鎖等,0,2023-09-14,2023-09-11,ＭＩＫＩランドリー株式会社,,株式会社,静岡県,沼津市,筒井町７番地の１８,,22,203,4100041,,,2023-09-11,清算の結了等,,,2017-11-14,1,,,,,ミキランドリー,0
1071,5110002024270,登記記録の閉鎖等,0,2023-09-14,2023-09-11,有限会社エムプランニング,,有限会社,新潟県,上越市,大字木島１８２６番地の１,,15,222,9430855,,,2023-09-11,清算の結了等,,,2015-10-05,1,,,,,エムプランニング,0
1089,5130001036298,登記記録の閉鎖等,0,2023-09-14,2023-09-13,株式会社ＦＩＥＬＤ,,株式会社,東京都,江戸川区,春江町３丁目１１－１１,,13,123,1320003,,,2023-09-13,清算の結了等,,,2015-10-05,1,,,,,フィールド,0
1090,5130001063706,登記記録の閉鎖等,0,2023-09-14,2023-08-31,株式会社北近畿空き家バンク,,株式会社,京都府,舞鶴市,字魚屋１０７番地,,26,202,6240923,,,2023-08-31,清算の結了等,,,2019-01-18,1,,,,,キタキンキアキヤバンク,0
1097,5140001081153,登記記録の閉鎖等,0,2023-09-14,2023-09-07,安倉観光株式会社,,株式会社,兵庫県,尼崎市,道意町４丁目４９番地,,28,202,6600083,,,2023-09-07,清算の結了等,,,2015-10-05,1,,,,,アクラカンコウ,0
1128,5200001012176,登記記録の閉鎖等,0,2023-09-14,2023-09-12,株式会社フードクレソン,,株式会社,岐阜県,養老郡養老町,押越１３７４番地５５,,21,341,5031316,,,2023-09-12,清算の結了等,,,2015-10-05,1,,,,,フードクレソン,0
1132,5210002000880,登記記録の閉鎖等,0,2023-09-14,2023-09-12,有限会社カズプランニング,,有限会社,福井県,福井市,勝見２丁目７番７号,,18,201,9100856,,,2023-09-12,清算の結了等,,,2015-10-05,1,,,,,カズプランニング,0
1142,5280001005197,登記記録の閉鎖等,0,2023-09-14,2023-09-13,株式会社カキノキ,,株式会社,島根県,鹿足郡吉賀町,柿木７７４番地１,,32,505,6995301,,,2023-09-13,清算の結了等,,,2015-10-05,1,,,,,カキノキ,0
1151,5290002048450,登記記録の閉鎖等,0,2023-09-14,2023-09-01,有限会社今村荘,,有限会社,福岡県,久留米市,宮ノ陣５丁目１３番１２号,,40,203,8390801,,,2023-09-01,清算の結了等,,,2015-10-05,1,,,,,イマムラソウ,0
1164,5330002014324,登記記録の閉鎖等,0,2023-09-14,2023-09-05,有限会社北商,,有限会社,熊本県,熊本市北区,龍田１丁目２０番９７号,,43,105,8618006,,,2023-09-05,清算の結了等,,,2015-10-05,1,,,,,ホクショウ,0
1177,5380002028402,登記記録の閉鎖等,0,2023-09-14,2023-09-11,有限会社さくらデザインテック,,有限会社,福島県,相馬市,中村字新町３６番地２,,07,209,9760042,,,2023-09-11,清算の結了等,,,2015-10-05,1,,,,,サクラデザインテック,0
1181,5410002005604,登記記録の閉鎖等,0,2023-09-14,2023-09-08,有限会社佐藤工務店,,有限会社,秋田県,南秋田郡五城目町,高崎字雀館下川原１０７番地の２,,05,361,0181711,,,2023-09-08,清算の結了等,,,2015-10-05,1,,,,,サトウコウムテン,0
1184,5470002007768,登記記録の閉鎖等,0,2023-09-14,2023-09-08,有限会社サンアール,,有限会社,香川県,高松市,春日町１５６５番地１,,37,201,7610101,,,2023-09-08,清算の結了等,,,2015-10-05,1,,,,,サンアール,0
1191,5500002018514,登記記録の閉鎖等,0,2023-09-14,2023-09-06,有限会社せんば,,有限会社,愛媛県,今治市,小泉４丁目５番１号,,38,202,7940064,,,2023-09-06,清算の結了等,,,2015-10-05,1,,,,,センバ,0
1192,5700150062442,登記記録の閉鎖等,0,2023-09-14,2023-02-20,石塘堰樋土地改良区,,その他,熊本県,熊本市西区,二本木１丁目３－４１,,43,103,8600051,,,2023-02-20,その他の清算の結了等,,,2015-10-09,1,,,,,イシドモセキヒトチカイリヨウク,0
1193,5700150104673,登記記録の閉鎖等,0,2023-09-14,2023-04-30,ＭＩグループ,,その他,東京都,練馬区,下石神井１丁目１５－７,,13,120,1770042,,,2023-04-30,その他の清算の結了等,,,2021-09-10,1,,,,,エムアイグループ,0
1194,5700150107387,登記記録の閉鎖等,0,2023-09-14,2023-04-10,Ｈｕｇ　Ｍｅ,,その他,東京都,足立区,竹の塚７丁目８－５,,13,121,1210813,,,2023-04-10,その他の清算の結了等,,,2022-03-14,1,,,,,ハグミ,0
1204,6010002036449,登記記録の閉鎖等,0,2023-09-14,2023-09-11,有限会社吉野,,有限会社,東京都,江東区,豊洲６丁目５番１号,,13,108,1350061,,,2023-09-11,清算の結了等,,,2015-10-05,1,,,,,ヨシノ,0
1205,6010003017497,登記記録の閉鎖等,0,2023-09-14,2023-09-07,エキノックス合同会社,,合同会社,東京都,千代田区,神田平河町１番地,,13,101,1010027,,,2023-09-07,清算の結了等,,,2015-10-05,1,,,,,エキノックス,0
1217,6010402036131,登記記録の閉鎖等,0,2023-09-14,2023-08-28,有限会社ＴＮステーション,,有限会社,東京都,港区,高輪１丁目２７番３７－４４０４号,,13,103,1080074,,,2023-08-28,清算の結了等,,,2015-10-05,1,,,,,ティーエヌステーション,0
1218,6010405020909,登記記録の閉鎖等,0,2023-09-14,2023-09-08,一般社団法人ＵＡＦ,,その他の設立登記法人,東京都,港区,虎ノ門３丁目２２番１０－２０１号,,13,103,1050001,,,2023-09-08,清算の結了等,,,2022-04-08,1,,,,,ユーエーエフ,0
1222,6010601028342,登記記録の閉鎖等,0,2023-09-14,2023-09-11,馬來不動産株式会社,,株式会社,東京都,墨田区,業平２丁目１３番１３号,,13,107,1300002,,,2023-09-11,清算の結了等,,,2015-10-05,1,,,,,マライフドウサン,0
1227,6010701000903,登記記録の閉鎖等,0,2023-09-14,2023-09-12,いすゞ特装開発株式会社,,株式会社,東京都,品川区,南大井３丁目２６番７号,,13,109,1400013,,,2023-09-12,清算の結了等,,,2015-10-05,1,,,,,イスズトクソウカイハツ,0
1246,6011102012034,登記記録の閉鎖等,0,2023-09-14,2023-09-12,有限会社松尾ビル,,有限会社,東京都,新宿区,四谷三栄町２番７号松尾ビル,,13,104,1600008,,,2023-09-12,清算の結了等,,,2015-10-05,1,,,,,マツオビル,0
1271,6020005006225,登記記録の閉鎖等,0,2023-09-14,2023-09-05,特定非営利活動法人オーガニック発毛学会,,その他の設立登記法人,神奈川県,横浜市戸塚区,前田町５１６番地４,,14,110,2440804,,,2023-09-05,清算の結了等,,,2015-10-05,1,,,,,,0
1280,6030001041935,登記記録の閉鎖等,0,2023-09-14,2023-08-18,古橋電機株式会社,,株式会社,埼玉県,上尾市,向山１丁目１８番地３,,11,219,3620045,,,2023-08-18,清算の結了等,,,2015-10-05,1,,,,,フルハシデンキ,0
1281,6030001090404,登記記録の閉鎖等,0,2023-09-14,2023-08-21,村田電気株式会社,,株式会社,埼玉県,日高市,大字高萩１１３４番地１２,,11,242,3501213,,,2023-08-21,清算の結了等,,,2015-10-05,1,,,,,ムラタデンキ,0
1289,6030003013610,登記記録の閉鎖等,0,2023-09-14,2023-08-22,学友合同会社,,合同会社,埼玉県,さいたま市大宮区,浅間町２丁目２４７番地１号浅間町ハイツ４０６号室,,11,103,3300842,,,2023-08-22,清算の結了等,,,2019-05-31,1,,,,,ガクユウ,0
1308,6110001034930,登記記録の閉鎖等,0,2023-09-14,2023-09-11,ＧＥＭＩＮＩ　ＳＯＦＴＷＡＲＥ　ＳＯＬＵＴＩＯＮＳ　ＣＯＭＰＡＮＹ　ＬＩＭＩＴＥＤ株式会社,,株式会社,新潟県,南魚沼市,浦佐１１８８番地２グローバルＩＴパーク,,15,226,9497302,,,2023-09-11,清算の結了等,,,2020-06-16,1,,,,,ジェミニソフトウエアソリューションズカンパニーリミテッド,0
1318,6120001192240,登記記録の閉鎖等,0,2023-09-14,2023-09-11,株式会社トーリコーポレーション,,株式会社,大阪府,大阪市城東区,今福西２丁目５番１０号,,27,118,5360004,,,2023-09-11,清算の結了等,,,2015-10-05,1,,,,,トーリコーポレーション,0
1344,6160001010836,登記記録の閉鎖等,0,2023-09-14,2023-09-12,株式会社長命寺タクシー,,株式会社,滋賀県,近江八幡市,島町１５５５番地,,25,204,5230804,,,2023-09-12,清算の結了等,,,2015-10-05,1,,,,,チョウメイジタクシー,0
1346,6160001018350,登記記録の閉鎖等,0,2023-09-14,2023-09-12,株式会社パワーライン虎姫,,株式会社,滋賀県,長浜市,五村１９１番地,,25,203,5290141,,,2023-09-12,清算の結了等,,,2015-10-05,1,,,,,パワーライントラヒメ,0
1347,6170001016502,登記記録の閉鎖等,0,2023-09-14,2023-09-11,株式会社くらしの意匠,,株式会社,和歌山県,和歌山市,内原８８６番地４,,30,201,6410013,,,2023-09-11,合併による解散等,1020001090780,令和５年９月１日川崎市川崎区池田一丁目１０番６号株式会社ディバージョン（1020001090780）に合併し解散,2021-04-06,1,,,,,クラシノイショウ,0
1350,6180001111541,登記記録の閉鎖等,0,2023-09-14,2023-09-07,アンサー工業株式会社,,株式会社,愛知県,名古屋市西区,木前町１１７番地,,23,104,4520834,,,2023-09-07,清算の結了等,,,2015-10-05,1,,,,,アンサーコウギョウ,0
1382,6340001011139,登記記録の閉鎖等,0,2023-09-14,2023-09-13,株式会社ソーラーハウス２１,,株式会社,鹿児島県,霧島市,国分野口東６番１１号,,46,218,8994341,,,2023-09-13,清算の結了等,,,2015-10-05,1,,,,,ソーラーハウスニジュウイチ,0
1389,6370002012694,登記記録の閉鎖等,0,2023-09-14,2023-09-07,有限会社にへいビル,,有限会社,宮城県,仙台市青葉区,国分町２丁目１２番１号,,04,101,9800803,,,2023-09-07,清算の結了等,,,2015-10-05,1,,,,,ニヘイビル,0
1401,6410002011824,登記記録の閉鎖等,0,2023-09-14,2023-09-06,有限会社ベストパートナー,,有限会社,秋田県,仙北郡美郷町,畑屋字熊野１７０番地５,,05,434,0191531,,,2023-09-06,清算の結了等,,,2015-10-05,1,,,,,ベストパートナー,0
1411,6700150062458,登記記録の閉鎖等,0,2023-09-14,2023-02-20,白川西南部土地改良区,,その他,熊本県,熊本市南区,野口２丁目１－６,,43,104,8614137,,,2023-02-20,その他の清算の結了等,,,2015-10-09,1,,,,,シラカワセイナンブトチカイリヨウク,0
1414,6700150104862,登記記録の閉鎖等,0,2023-09-14,2023-04-30,ＲＥＶＩＶＥＲ,,その他,神奈川県,横浜市青葉区,荏田町９０１－３７,,14,117,2250013,,,2023-04-30,その他の清算の結了等,,,2021-09-27,1,,,,,リバイバー,0
1415,6700150110027,登記記録の閉鎖等,0,2023-09-14,2022-12-31,ｍｕｓｉｃ　ｐｏｉｎｔ　ＳＫＹ,,その他,愛知県,名古屋市東区,東大曽根町２５－２１－１０２,,23,102,4610022,,,2022-12-31,その他の清算の結了等,,,2022-06-17,1,,,,,ミユージツクポイントスカイ,0
1418,7010001046695,登記記録の閉鎖等,0,2023-09-14,2023-08-25,ジー・エム企業株式会社,,株式会社,東京都,港区,六本木３丁目１８番１２号ゲッツビル,,13,103,1060032,,,2023-08-25,清算の結了等,,,2015-10-05,1,,,,,ジーエムキギョウ,0
1420,7010001133964,登記記録の閉鎖等,0,2023-09-14,2023-09-06,株式会社マリン・パートナー,,株式会社,東京都,中央区,勝どき２丁目８番１２号ビユック中銀３１３号,,13,102,1040054,,,2023-09-06,清算の結了等,,,2015-10-05,1,,,,,マリンパートナー,0
1445,7010603009075,登記記録の閉鎖等,0,2023-09-14,2023-09-07,ｂａｒＤ合同会社,,合同会社,秋田県,秋田市,中通１丁目３番２４号,,05,201,0100001,,,2023-09-07,清算の結了等,,,2021-08-04,1,,,,,バード,0
1447,7010901051415,登記記録の閉鎖等,0,2023-09-14,2023-09-07,北沢マリン株式会社,,株式会社,東京都,世田谷区,北沢４丁目１番１１号,,13,112,1550031,,,2023-09-07,清算の結了等,,,2022-08-16,1,,,,,キタザワマリン,0
1466,7011605002209,登記記録の閉鎖等,0,2023-09-14,2023-09-07,一般社団法人３Ｃ,,その他の設立登記法人,東京都,練馬区,豊玉上２丁目２６－７プラーナ２０１,,13,120,1760011,,,2023-09-07,清算の結了等,,,2018-11-15,1,,,,,サンシー,0
1477,7013402004767,登記記録の閉鎖等,0,2023-09-14,2023-09-06,有限会社アクティオ,,有限会社,東京都,日野市,南平１丁目１０番地の９３,,13,212,1910041,,,2023-09-06,清算の結了等,,,2015-10-05,1,,,,,アクティオ,0
1478,7020001013166,登記記録の閉鎖等,0,2023-09-14,2023-09-06,成建設株式会社,,株式会社,神奈川県,横浜市港南区,芹が谷５丁目５７番２３号,,14,111,2330006,,,2023-09-06,清算の結了等,,,2015-10-05,1,,,,,セイケンセツ,0
1486,7020002067806,登記記録の閉鎖等,0,2023-09-14,2023-09-06,有限会社アール藤,,有限会社,神奈川県,横浜市青葉区,すすき野２丁目８番地,,14,117,2250021,,,2023-09-06,清算の結了等,,,2015-10-05,1,,,,,,0
1503,7030002101266,登記記録の閉鎖等,0,2023-09-14,2023-08-18,有限会社荻島鋳工所,,有限会社,埼玉県,川口市,大字木曽呂９１０番地の３,,11,203,3330831,,,2023-08-18,清算の結了等,,,2015-10-05,1,,,,,オギシマチュウコウジョ,0
1512,7050001042344,登記記録の閉鎖等,0,2023-09-14,2023-09-01,株式会社かすみがうら農場,,株式会社,茨城県,かすみがうら市,新治１７８６番地１,,08,230,3150051,,,2023-09-01,合併による解散等,5050001011375,令和５年９月１日茨城県小美玉市小岩戸字西峰１９７１番１イセファーム株式会社（5050001011375）に合併し解散,2017-03-02,1,,,,,カスミガウラノウジョウ,0
1522,7080102021013,登記記録の閉鎖等,0,2023-09-14,2023-09-12,有限会社杉村酒店,,有限会社,静岡県,下田市,西本郷２丁目１番３号,,22,219,4150036,,,2023-09-12,清算の結了等,,,2015-10-05,1,,,,,スギムラサケテン,0
1528,7110001003983,登記記録の閉鎖等,0,2023-09-14,2023-09-08,新潟中央コピー株式会社,,株式会社,新潟県,新潟市中央区,上大川前通５番町１０４番地,,15,103,9518068,,,2023-09-08,清算の結了等,,,2015-10-05,1,,,,,ニイガタチュウオウコピー,0
1540,7120003021677,登記記録の閉鎖等,0,2023-09-14,2023-09-11,Ｂｅｂｏｐ合同会社,,合同会社,大阪府,大阪市中央区,久太郎町４丁目１番３号大阪センタービル６Ｆ－２２９,,27,128,5410056,,,2023-09-11,清算の結了等,,,2022-05-16,1,,,,,ビーボップ,0
1575,7180302003395,登記記録の閉鎖等,0,2023-09-14,2023-09-04,有限会社河口電気工事,,有限会社,愛知県,額田郡幸田町,大字坂崎字小道４番地１,,23,501,4440104,,,2023-09-04,清算の結了等,,,2015-10-05,1,,,,,カワグチデンキコウジ,0
1576,7180302013270,登記記録の閉鎖等,0,2023-09-14,2023-09-05,有限会社タカマ工業,,有限会社,愛知県,豊川市,市田町大道下３４番地ボヌール大道下１０１号,,23,207,4420862,,,2023-09-05,清算の結了等,,,2015-10-05,1,,,,,タカマコウギョウ,0
1581,7200001022108,登記記録の閉鎖等,0,2023-09-14,2023-09-12,株式会社石田商店,,株式会社,岐阜県,多治見市,高根町１丁目９７番地,,21,204,5070078,,,2023-09-12,清算の結了等,,,2015-10-05,1,,,,,,0
1584,7210002011769,登記記録の閉鎖等,0,2023-09-14,2023-09-12,有限会社タニケン,,有限会社,福井県,越前市,池ノ上町第３１号９番地の１,,18,209,9150873,,,2023-09-12,清算の結了等,,,2015-10-05,1,,,,,タニケン,0
1593,7250001009240,登記記録の閉鎖等,0,2023-09-14,2023-09-06,富司産業株式会社,,株式会社,山口県,周南市,大字須々万本郷４８１番地の８,,35,215,7450122,,,2023-09-06,清算の結了等,,,2015-10-05,1,,,,,フジサンギョウ,0
1596,7260002026886,登記記録の閉鎖等,0,2023-09-14,2023-09-08,有限会社ミヤタ,,有限会社,岡山県,高梁市,新町１１４番地,,33,209,7160012,,,2023-09-08,清算の結了等,,,2015-10-05,1,,,,,ミヤタ,0
1609,7290802000930,登記記録の閉鎖等,0,2023-09-14,2023-09-13,有限会社エステート蒲生,,有限会社,福岡県,北九州市小倉南区,横代東町４丁目４番３号,,40,107,8020822,,,2023-09-13,清算の結了等,,,2015-10-05,1,,,,,エステートガモウ,0
1614,7320001005827,登記記録の閉鎖等,0,2023-09-14,2023-09-11,株式会社ＴＳＫカンパニー,,株式会社,大分県,大分市,大字光吉４６６番地の１,,44,201,8701132,,,2023-09-11,清算の結了等,,,2015-10-05,1,,,,,,0
1627,7360005001067,登記記録の閉鎖等,0,2023-09-14,2023-09-11,医療法人和恒会,,その他の設立登記法人,沖縄県,中頭郡西原町,棚原１丁目２１番地の８,,47,329,9030126,,,2023-09-11,清算の結了等,,,2015-10-05,1,,,,,ワコウカイ,0
1639,7410002011880,登記記録の閉鎖等,0,2023-09-14,2023-09-05,有限会社メディカル大曲,,有限会社,秋田県,大仙市,大曲若葉町１番４６号,,05,212,0140045,,,2023-09-05,清算の結了等,,,2015-10-05,1,,,,,メディカルオオマガリ,0
1646,7470002010737,登記記録の閉鎖等,0,2023-09-14,2023-09-12,有限会社松原鉄工所,,有限会社,香川県,木田郡三木町,大字池戸１４６５番地１,,37,341,7610701,,,2023-09-12,清算の結了等,,,2015-10-05,1,,,,,マツバラテッコウショ,0
1650,7500001005841,登記記録の閉鎖等,0,2023-09-14,2023-09-13,株式会社西日本開発,,株式会社,愛媛県,松山市,山越４丁目３番２０号,,38,201,7918013,,,2023-09-13,清算の結了等,,,2015-10-05,1,,,,,ニシニホンカイハツ,0
1653,7500005007974,登記記録の閉鎖等,0,2023-09-14,2023-09-12,特定非営利活動法人ＨＩＭＥＬＡＢＯ－媛ラボ,,その他の設立登記法人,愛媛県,松山市,大街道３丁目６番地１岡崎第５ビル５０２号,,38,201,7900004,,,2023-09-12,清算の結了等,,,2018-06-06,1,,,,,ヒメラボーヒメラボ,0
1654,7700150040578,登記記録の閉鎖等,0,2023-09-14,2020-12-31,山形県立新庄北高等学校購買組合,,その他,山形県,新庄市,本町１－１８,,06,205,9960027,,,2020-12-31,その他の清算の結了等,,,2015-10-09,1,,,,,ヤマガタケンリツシンジヨウキタコウトウガツコウコウバイクミアイ,0
1655,7700150054017,登記記録の閉鎖等,0,2023-09-14,2015-12-31,牛窓西小学校地域教育協議会,,その他,岡山県,瀬戸内市,牛窓町鹿忍２１６６,,33,212,7014303,,,2015-12-31,その他の清算の結了等,,,2015-10-09,1,,,,,ウシマドニシシヨウガツコウチイキキヨウイクキヨウギカイ,0
1656,7700150105686,登記記録の閉鎖等,0,2023-09-14,2023-04-20,大戸まちづくり協議会,,その他,福島県,会津若松市,大戸町上三寄香塩４７９,,07,202,9695122,,,2023-04-20,その他の清算の結了等,,,2021-11-10,1,,,,,オオトマチヅクリキヨウギカイ,0
1657,7700150107154,登記記録の閉鎖等,0,2023-09-14,2023-05-31,日本木質構造用ねじ工業会,,その他,大阪府,東大阪市,森河内西１丁目６－３０若井ホールディングス株式会社内,,27,227,5770061,,,2023-05-31,その他の清算の結了等,,,2022-02-22,1,,,,,ニホンモクシツコウゾウヨウネジコウギヨウカイ,0
1680,8010403028877,登記記録の閉鎖等,0,2023-09-14,2023-08-28,Ｇｒａｃｅ　Ｃｏ‐Ｃｒｅａｔｉｖｅ合同会社,,合同会社,東京都,港区,三田１丁目３－４０－４０７Ａ号,,13,103,1080073,,,2023-08-28,清算の結了等,,,2022-11-11,1,,,,,グレイスコクリエイティブ,0
1705,8011201003667,登記記録の閉鎖等,0,2023-09-14,2023-09-12,東京糧穀運送株式会社,,株式会社,東京都,中野区,弥生町５丁目２７番４号,,13,114,1640013,,,2023-09-12,清算の結了等,,,2015-10-05,1,,,,,トウキョウリョウコクウンソウ,0
1707,8011202000548,登記記録の閉鎖等,0,2023-09-14,2023-09-13,有限会社石川屋米店,,有限会社,東京都,中野区,上高田５丁目４１番７号,,13,114,1640002,,,2023-09-13,清算の結了等,,,2015-10-05,1,,,,,イシカワヤコメテン,0
1708,8011202001315,登記記録の閉鎖等,0,2023-09-14,2023-09-13,有限会社小倉商店,,有限会社,東京都,中野区,中央４丁目１番１号,,13,114,1640011,,,2023-09-13,清算の結了等,,,2015-10-05,1,,,,,オグラショウテン,0
1710,8011205000124,登記記録の閉鎖等,0,2023-09-14,2023-09-12,荒井青果企業組合,,その他の設立登記法人,東京都,中野区,上高田３丁目４１番７号,,13,114,1640002,,,2023-09-12,清算の結了等,,,2015-10-05,1,,,,,アライセイカ,0
1718,8012402019130,登記記録の閉鎖等,0,2023-09-14,2023-09-12,有限会社大宇園緑地,,有限会社,東京都,三鷹市,井口１丁目１１番２０号,,13,204,1810011,,,2023-09-12,清算の結了等,,,2015-10-05,1,,,,,ダイウエンリョクチ,0
1745,8021002072480,登記記録の閉鎖等,0,2023-09-14,2023-09-07,有限会社カリスト,,有限会社,神奈川県,逗子市,山の根２丁目２番２１号,,14,208,2490002,,,2023-09-07,清算の結了等,,,2015-10-05,1,,,,,カリスト,0
1747,8030001025556,登記記録の閉鎖等,0,2023-09-14,2023-08-23,株式会社タイキ,,株式会社,埼玉県,所沢市,大字上山口１８５１番地の１,,11,208,3591153,,,2023-08-23,清算の結了等,,,2015-10-05,1,,,,,タイキ,0
1755,8050001041527,登記記録の閉鎖等,0,2023-09-14,2023-09-01,株式会社新ひたちファーム,,株式会社,茨城県,東茨城郡城里町,大字下青山１３１２番地,,08,310,3114304,,,2023-09-01,合併による解散等,5050001011375,令和５年９月１日茨城県小美玉市小岩戸字西峰１９７１番１イセファーム株式会社（5050001011375）に合併し解散,2016-09-02,1,,,,,シンヒタチファーム,0
1763,8070002011097,登記記録の閉鎖等,0,2023-09-14,2023-09-06,有限会社デジタルスタジオ,,有限会社,群馬県,高崎市,吉井町馬庭１６５２番地２,,10,202,3702104,,,2023-09-06,清算の結了等,,,2015-10-05,1,,,,,デジタルスタジオ,0
1765,8080002015031,登記記録の閉鎖等,0,2023-09-14,2023-09-12,有限会社ユウト工業,,有限会社,静岡県,牧之原市,白井２０７６番地の４,,22,226,4210502,,,2023-09-12,清算の結了等,,,2015-10-05,1,,,,,ユウトコウギョウ,0
1769,8080402021323,登記記録の閉鎖等,0,2023-09-14,2023-09-14,有限会社山優建設,,有限会社,静岡県,浜松市西区,神ケ谷町８７１７番地,,22,133,4328005,,,2023-09-14,清算の結了等,,,2015-10-05,1,,,,,ヤマユウケンセツ,0
1772,8110001001870,登記記録の閉鎖等,0,2023-09-14,2023-09-08,公衛設備株式会社,,株式会社,新潟県,新潟市中央区,鳥屋野南１丁目３番１７号,,15,103,9500950,,,2023-09-08,清算の結了等,,,2015-10-05,1,,,,,コウエイセツビ,0
1775,8110002018765,登記記録の閉鎖等,0,2023-09-14,2023-09-05,有限会社マック製販,,有限会社,新潟県,燕市,横田１１３０８番地の３,,15,213,9590111,,,2023-09-05,清算の結了等,,,2015-10-05,1,,,,,マックセイハン,0
1792,8120901019722,登記記録の閉鎖等,0,2023-09-14,2023-09-11,株式会社高橋工務店,,株式会社,大阪府,池田市,豊島北１丁目４番１１号,,27,204,5630036,,,2023-09-11,清算の結了等,,,2015-10-05,1,,,,,タカハシコウムテン,0
1793,8120901021455,登記記録の閉鎖等,0,2023-09-14,2023-09-11,株式会社丸澤,,株式会社,大阪府,箕面市,小野原東３丁目８番３２号,,27,220,5620031,,,2023-09-11,清算の結了等,,,2015-10-05,1,,,,,マルサワ,0
1808,8140001076431,登記記録の閉鎖等,0,2023-09-14,2023-09-07,藤部メリヤス株式会社,,株式会社,兵庫県,加西市,北条町横尾６８３番地,,28,220,6752311,,,2023-09-07,清算の結了等,,,2015-10-05,1,,,,,フジベメリヤス,0
1813,8140005022571,登記記録の閉鎖等,0,2023-09-14,2023-09-08,特定非営利活動法人うんぱんまん,,その他の設立登記法人,兵庫県,洲本市,桑間２８８番地１鳥谷ビル,,28,205,6560014,,,2023-09-08,清算の結了等,,,2015-10-05,1,,,,,,0
1822,8180001112257,登記記録の閉鎖等,0,2023-09-14,2023-09-05,株式会社ＮＡＮＡＲＩ,,株式会社,愛知県,刈谷市,今川町井田５０番地１,,23,210,4480005,,,2023-09-05,清算の結了等,,,2015-10-05,1,,,,,ナナリ,0
1835,8250001007499,登記記録の閉鎖等,0,2023-09-14,2023-09-07,株式会社輝,,株式会社,山口県,下関市,新垢田東町１丁目３番８号,,35,201,7510843,,,2023-09-07,清算の結了等,,,2015-10-05,1,,,,,カガヤキ,0
1837,8270001000634,登記記録の閉鎖等,0,2023-09-14,2023-09-12,株式会社白兎設備水道,00004229,株式会社,鳥取県,鳥取市,湖山町東３丁目７２番地,,31,201,6800942,,,2023-09-12,清算の結了等,,,2015-10-05,1,,,,,ハクトセツビスイドウ,0
1856,8310001016873,登記記録の閉鎖等,0,2023-09-14,2023-09-13,株式会社天寿,,株式会社,長崎県,長崎市,三景台町３２番１０号,,42,201,8500824,,,2023-09-13,清算の結了等,,,2020-09-17,1,,,,,テンジュ,0
1858,8320002018711,登記記録の閉鎖等,0,2023-09-14,2023-09-11,有限会社池,,有限会社,大分県,日田市,亀山町４番１５号,,44,204,8770045,,,2023-09-11,清算の結了等,,,2015-10-05,1,,,,,,0
1867,8340002021333,登記記録の閉鎖等,0,2023-09-14,2023-09-12,有限会社マルオカ青果,,有限会社,鹿児島県,奄美市,名瀬長浜町９番１８号,,46,222,8940036,,,2023-09-12,清算の結了等,,,2015-10-05,1,,,,,マルオカセイカ,0
1874,8370601003134,登記記録の閉鎖等,0,2023-09-14,2023-09-06,株式会社新日本技建,,株式会社,宮城県,仙台市泉区,南光台１丁目２１－１９ロフティアーバンＩＩ１０１,00081557,04,105,9818003,,,2023-09-06,清算の結了等,,,2015-10-05,1,,,,,,0
1875,8380002031270,登記記録の閉鎖等,0,2023-09-14,2023-09-08,有限会社魚松,,有限会社,福島県,会津若松市,大塚２丁目７番７号,,07,202,9650014,,,2023-09-08,清算の結了等,,,2015-10-05,1,,,,,ウオマツ,0
1878,8410002003935,登記記録の閉鎖等,0,2023-09-14,2023-09-07,有限会社渡辺自動車工場,,有限会社,秋田県,秋田市,泉中央２丁目２番３３号,,05,201,0100917,,,2023-09-07,清算の結了等,,,2015-10-05,1,,,,,ワタナベジドウシャコウジョウ,0
1880,8420001006112,登記記録の閉鎖等,0,2023-09-14,2023-09-07,株式会社武部商店,,株式会社,青森県,八戸市,湊高台２丁目２０番９号,,02,203,0310823,,,2023-09-07,清算の結了等,,,2015-10-05,1,,,,,タケベショウテン,0
1884,8440002006209,登記記録の閉鎖等,0,2023-09-14,2023-09-11,有限会社ダイシメ海老子商店,,有限会社,北海道,松前郡松前町,字大沢１４６番地,,01,331,0491522,,,2023-09-11,清算の結了等,,,2015-10-05,1,,,,,ダイシメエビコショウテン,0
1891,8500002017265,登記記録の閉鎖等,0,2023-09-14,2023-09-12,有限会社山下時計店,,有限会社,愛媛県,新居浜市,中須賀町２丁目２番６号,,38,205,7920012,,,2023-09-12,清算の結了等,,,2015-10-05,1,,,,,ヤマシタトケイテン,0
1892,8700150002940,登記記録の閉鎖等,0,2023-09-14,2019-06-28,全国計機厚生年金基金,,その他,東京都,千代田区,一番町１９全国農業共済会館内,,13,101,1020082,,,2019-06-28,その他の清算の結了等,,,2015-10-09,1,,,,,ゼンコクケイキコウセイネンキンキキン,0
1893,8700150005456,登記記録の閉鎖等,0,2023-09-14,2017-04-11,全国光学工業厚生年金基金,,その他,東京都,港区,西新橋１丁目１２－４,,13,103,1050003,,,2017-04-11,その他の清算の結了等,,,2015-10-09,1,,,,,ゼンコクコウガクコウギヨウコウセイネンキンキキン,0
1895,8700150016321,登記記録の閉鎖等,0,2023-09-14,2023-03-31,フレンドパーク友の会,,その他,山梨県,北杜市,武川町柳澤１５４９－１,,19,209,4080307,,,2023-03-31,その他の清算の結了等,,,2015-10-09,1,,,,,フレンドパークトモノカイ,0
1896,8700150023061,登記記録の閉鎖等,0,2023-09-14,2023-03-31,白馬山麓国民休養地運営協議会,,その他,新潟県,糸魚川市,大字小滝５２３０,,15,216,9490462,,,2023-03-31,その他の清算の結了等,,,2015-10-09,1,,,,,ハクバサンロクコクミンキユウヨウチウンエイキヨウギカイ,0
1898,8700150087032,登記記録の閉鎖等,0,2023-09-14,2023-04-27,東池袋四丁目２番街区地区市街地再開発組合,,その他,東京都,豊島区,南池袋２丁目３６番１０号,,13,116,1710022,,,2023-04-27,その他の清算の結了等,,,2018-01-17,1,,,,,ヒガシイケブクロヨンチヨウメニバンガイクチクシガイチサイカイハツクミアイ,0
1900,8700150107715,登記記録の閉鎖等,0,2023-09-14,2023-03-30,東京Ｅ－Ｄｏ　ｍｏｔｉｏｎｓ．,,その他,東京都,世田谷区,大原１丁目５０－８片岡荘２０２,,13,112,1560041,,,2023-03-30,その他の清算の結了等,,,2022-04-07,1,,,,,トウキヨウエドモーシヨンズ,0
1911,9010001214911,登記記録の閉鎖等,0,2023-09-14,2023-09-07,コスモテクノロジー株式会社,,株式会社,東京都,中央区,銀座１丁目２２番１１号銀座大竹ビジデンス２階,,13,102,1040061,,,2023-09-07,清算の結了等,,,2021-01-08,1,,,,,,0
1917,9010401150228,登記記録の閉鎖等,0,2023-09-14,2023-09-07,ＸＥｖｅｎｔ株式会社,,株式会社,東京都,中央区,八重洲１丁目５番２０号東京建物八重洲さくら通りビル３階,,13,102,1030028,,,2023-09-07,清算の結了等,,,2020-01-08,1,,,,,クロスイベント,0
1922,9010403006163,登記記録の閉鎖等,0,2023-09-14,2023-09-11,合同会社ＶＴＦＡシャンパーニュ,,合同会社,東京都,渋谷区,代官山町２０番９号,,13,113,1500034,,,2023-09-11,清算の結了等,,,2015-10-05,1,,,,,ヴイティーエフエーシャンパーニュ,0
1923,9010403025386,登記記録の閉鎖等,0,2023-09-14,2023-08-28,Ｔインフラ４号合同会社,,合同会社,東京都,港区,元赤坂１丁目１番７号,,13,103,1070051,,,2023-08-28,清算の結了等,,,2021-06-01,1,,,,,ティーインフラヨンゴウ,0
1924,9010403027424,登記記録の閉鎖等,0,2023-09-14,2023-09-08,合同会社ＵＡＦ,,合同会社,東京都,港区,虎ノ門３丁目２２番１０－２０１号,,13,103,1050001,,,2023-09-08,清算の結了等,,,2022-04-08,1,,,,,ユーエーエフ,0
1927,9010601037175,登記記録の閉鎖等,0,2023-09-14,2023-09-07,ファーストエアートランスポート株式会社,,株式会社,東京都,江東区,新木場４丁目７番１６号,,13,108,1360082,,,2023-09-07,清算の結了等,,,2015-10-05,1,,,,,ファーストエアートランスポート,0
1931,9010802012019,登記記録の閉鎖等,0,2023-09-14,2023-09-12,有限会社日野工務店,,有限会社,東京都,大田区,上池台３丁目１３番８号,,13,111,1450064,,,2023-09-12,清算の結了等,,,2015-10-05,1,,,,,ヒノコウムテン,0
1933,9010902009278,登記記録の閉鎖等,0,2023-09-14,2023-09-05,有限会社武井製作所,,有限会社,東京都,世田谷区,宇奈根２丁目２２番１４号,,13,112,1570068,,,2023-09-05,清算の結了等,,,2015-10-05,1,,,,,タケイセイサクジョ,0
1953,9011605001183,登記記録の閉鎖等,0,2023-09-14,2023-09-07,特定非営利活動法人畑の教室,,その他の設立登記法人,東京都,練馬区,大泉町１丁目５４番,,13,120,1780062,,,2023-09-07,清算の結了等,,,2015-10-05,1,,,,,ハタケノキョウシツ,0
1992,9030001148554,登記記録の閉鎖等,0,2023-09-14,2023-09-07,Ｈｙｐｅｒｓｏｎｉｃ株式会社,,株式会社,東京都,新宿区,西新宿６丁目８番１号,,13,104,1600023,,,2023-09-07,合併による解散等,7010401087406,令和５年９月１日東京都新宿区西新宿六丁目８番１号株式会社ジーニー（7010401087406）に合併し解散,2022-06-07,1,,,,,ハイパーソニック,0
1997,9030002061723,登記記録の閉鎖等,0,2023-09-14,2023-08-23,有限会社スタジオコスモス,,有限会社,埼玉県,新座市,馬場３丁目４番２９号,,11,230,3520016,,,2023-08-23,清算の結了等,,,2015-10-05,1,,,,,スタジオコスモス,0
1998,9030002078354,登記記録の閉鎖等,0,2023-09-14,2023-09-12,有限会社淵上紙工,,有限会社,静岡県,沼津市,今沢８４番地の６,,22,203,4100875,,,2023-09-12,清算の結了等,,,2015-10-05,1,,,,,フチガミシコウ,0
1999,9030003002577,登記記録の閉鎖等,0,2023-09-14,2023-08-21,合資会社コスモス,,合資会社,埼玉県,春日部市,西金野井１８６番地１３,,11,214,3440112,,,2023-08-21,清算の結了等,,,2015-10-05,1,,,,,コスモス,0
2003,9040003009290,登記記録の閉鎖等,0,2023-09-14,2023-08-31,合同会社ＡＰ２号,,合同会社,千葉県,柏市,柏４丁目５番１０号,,12,217,2770005,,,2023-08-31,清算の結了等,,,2016-11-14,1,,,,,エーピーニゴウ,0
2007,9050003005405,登記記録の閉鎖等,0,2023-09-14,2023-09-11,合同会社ＣＫ　Ｐｒｏｍｏｔｉｏｎ　Ｓｔｕｄｉｏ,,合同会社,茨城県,水戸市,杉崎町１７５３番地の１９,,08,201,3190306,,,2023-09-11,清算の結了等,,,2020-09-29,1,,,,,シーケープロモーションスタジオ,0
2012,9070001012269,登記記録の閉鎖等,0,2023-09-14,2023-09-11,株式会社ＡＵＲＯＲＡ,,株式会社,群馬県,富岡市,富岡１１０９番地,,10,210,3702316,,,2023-09-11,清算の結了等,,,2015-10-05,1,,,,,オーロラ,0
2026,9120001223661,登記記録の閉鎖等,0,2023-09-14,2023-09-11,リンクサス販売株式会社,,株式会社,大阪府,大阪市中央区,大手通１丁目３番５号,,27,128,5400021,,,2023-09-11,清算の結了等,,,2019-09-11,1,,,,,リンクサスハンバイ,0
2033,9120101036303,登記記録の閉鎖等,0,2023-09-14,2023-09-12,株式会社大阪タナック南店,,株式会社,大阪府,岸和田市,畑町１９２番地の２７,,27,202,5960831,,,2023-09-12,清算の結了等,,,2015-10-05,1,,,,,オオサカタナックミナミテン,0
2048,9130001038324,登記記録の閉鎖等,0,2023-09-14,2023-08-31,奥元工業株式会社,,株式会社,京都府,城陽市,寺田尼塚６８番地の３３８,,26,207,6100121,,,2023-08-31,清算の結了等,,,2015-10-05,1,,,,,オクモトコウギョウ,0
2054,9140001120469,登記記録の閉鎖等,0,2023-09-14,2023-09-07,株式会社未来ホームズ,,株式会社,兵庫県,神戸市東灘区,御影塚町３丁目５番１８－２０２号,,28,101,6580044,,,2023-09-07,清算の結了等,,,2021-02-18,1,,,,,ミライホームズ,0
2059,9140002015486,登記記録の閉鎖等,0,2023-09-14,2023-09-07,有限会社林刺繍,00040649,有限会社,兵庫県,神戸市中央区,北長狭通３丁目３番６号元町商工ビル,,28,110,6500012,,,2023-09-07,清算の結了等,,,2015-10-05,1,,,,,ハヤシシシュウ,0
2060,9140002061910,登記記録の閉鎖等,0,2023-09-14,2023-09-07,有限会社ななくみ,,有限会社,兵庫県,西脇市,野村町１８１６番地の６６,,28,213,6770054,,,2023-09-07,清算の結了等,,,2015-10-05,1,,,,,ナナクミ,0
2077,9180302023549,登記記録の閉鎖等,0,2023-09-14,2023-08-31,有限会社マルゼン,,有限会社,愛知県,豊田市,高上２丁目１１番地１,,23,211,4710013,,,2023-08-31,清算の結了等,,,2015-10-05,1,,,,,マルゼン,0
2081,9200001008245,登記記録の閉鎖等,0,2023-09-14,2023-09-13,株式会社エム・アンド・ケイ,,株式会社,岐阜県,岐阜市,楠町２丁目３４番地３,,21,201,5020826,,,2023-09-13,清算の結了等,,,2015-10-05,1,,,,,エムアンドケイ,0
2091,9270002002612,登記記録の閉鎖等,0,2023-09-14,2023-09-12,有限会社常セキュリティサービス,,有限会社,鳥取県,鳥取市,田島６９１番地,,31,201,6800804,,,2023-09-12,清算の結了等,,,2015-10-05,1,,,,,,0
2108,9320002005691,登記記録の閉鎖等,0,2023-09-14,2023-09-08,有限会社日吉原テック,,有限会社,大分県,大分市,里２丁目５番２１号,,44,201,8700303,,,2023-09-08,清算の結了等,,,2015-10-05,1,,,,,ヒヨシバルテック,0
2114,9360001018443,登記記録の閉鎖等,0,2023-09-14,2023-09-12,株式会社自然のおかげです,,株式会社,沖縄県,宮古島市,城辺字友利１１１４番地,,47,214,9060107,,,2023-09-12,清算の結了等,,,2015-10-05,1,,,,,シゼンノオカゲデス,0
2116,9370001011034,登記記録の閉鎖等,0,2023-09-14,2023-09-07,株式会社仙台水道センター,,株式会社,宮城県,仙台市青葉区,昭和町２番２３号,,04,101,9810913,,,2023-09-07,清算の結了等,,,2015-10-05,1,,,,,センダイスイドウセンター,0
2123,9400001015923,登記記録の閉鎖等,0,2023-09-14,2023-09-08,株式会社彩福,,株式会社,岩手県,北上市,大堤北２丁目１０番６号,,03,206,0240052,,,2023-09-08,清算の結了等,,,2022-06-23,1,,,,,アヤフク,0
2127,9460302000800,登記記録の閉鎖等,0,2023-09-14,2023-09-14,有限会社ショージ,,有限会社,北海道,北見市,とん田西町３７５番地,,01,208,0900834,,,2023-09-14,清算の結了等,,,2015-10-05,1,,,,,ショージ,0
2139,9700150100215,登記記録の閉鎖等,0,2023-09-14,2023-06-01,昭和村民俗文化交流事業実行委員会,,その他,福島県,大沼郡昭和村,大字下中津川字中島６１１,,07,446,9680103,,,2023-06-01,その他の清算の結了等,,,2020-09-02,1,,,,,シヨウワムラミンゾクブンカコウリユウジギヨウジツコウイインカイ,0
2140,9700150107796,登記記録の閉鎖等,0,2023-09-14,2022-08-21,Ａｔａｃｈｉｔａｃｈｉ,,その他,東京都,台東区,元浅草３丁目２２－１,,13,106,1110041,,,2022-08-21,その他の清算の結了等,,,2022-04-11,1,,,,,アタチタチ,0
