sequenceNumber,corporateNumber,process,correct,updateDate,changeDate,name,nameImageId,kind,prefectureName,cityName,streetNumber,addressImageId,prefectureCode,cityCode,postCode,addressOutside,addressOutsideImageId,closeDate,closeCause,successorCorporateNumber,changeCause,assignmentDate,latest,enName,enPrefectureName,enCityName,enAddressOutside,furigana,hihyoji
23,1010403020378,登記記録の閉鎖等,0,2024-05-30,2024-05-20,ビジリージャパン合同会社,,合同会社,東京都,千代田区,永田町２丁目１１番１号山王パークタワー４階,,13,101,1000014,,,2024-05-20,清算の結了等,,,2019-03-20,1,,,,,ビジリージャパン,0
31,1010702008859,登記記録の閉鎖等,0,2024-05-30,2024-05-24,有限会社アーキクルー東京,,有限会社,東京都,品川区,八潮５丁目２番６号,,13,109,1400003,,,2024-05-24,清算の結了等,,,2015-10-05,1,,,,,アーキクルートウキョウ,0
40,1011001145955,登記記録の閉鎖等,0,2024-05-30,2024-05-15,株式会社ｏｆｆｅｒ,,株式会社,東京都,渋谷区,神宮前６丁目２３番４号桑野ビル２階,,13,113,1500001,,,2024-05-15,清算の結了等,,,2022-03-01,1,,,,,オファー,0
56,1013105001159,登記記録の閉鎖等,0,2024-05-30,2024-05-23,青梅織物産地卸商業協同組合,,その他の設立登記法人,東京都,青梅市,上町３７３番地,,13,205,1980081,,,2024-05-23,清算の結了等,,,2015-10-05,1,,,,,オウメオリモノサンチオロシショウギョウ,0
79,1020001108145,登記記録の閉鎖等,0,2024-05-30,2024-05-13,株式会社フルール・ド・ＳＨＯＫＯ,,株式会社,神奈川県,横浜市青葉区,美しが丘５丁目１番地５－１０６,,14,117,2250002,,,2024-05-13,清算の結了等,,,2015-10-05,1,,,,,フルールドショウコ,0
95,1021002046045,登記記録の閉鎖等,0,2024-05-30,2024-05-27,有限会社エプロン,,有限会社,神奈川県,綾瀬市,寺尾北３丁目１６番２号,,14,218,2521131,,,2024-05-27,清算の結了等,,,2015-10-05,1,,,,,エプロン,0
98,1021005010089,登記記録の閉鎖等,0,2024-05-30,2024-05-20,行政書士法人うさねこ法務,,その他の設立登記法人,神奈川県,平塚市,老松町４番１３号,,14,203,2540033,,,2024-05-20,清算の結了等,,,2015-10-05,1,,,,,ウサネコホウム,0
117,1040001131698,登記記録の閉鎖等,0,2024-05-30,2024-05-21,株式会社ＬｉｋｅＴｒｅｅ,,株式会社,千葉県,我孫子市,本町１丁目３番２９号,,12,222,2701151,,,2024-05-21,清算の結了等,,,2024-01-12,1,,,,,ライクツリー,0
122,1040002089060,登記記録の閉鎖等,0,2024-05-30,2024-05-21,有限会社遠藤電材,,有限会社,千葉県,柏市,つくしが丘２丁目５番５号,,12,217,2770072,,,2024-05-21,清算の結了等,,,2015-10-05,1,,,,,エンドウデンザイ,0
134,1060005006705,登記記録の閉鎖等,0,2024-05-30,2024-05-15,隆興寺,,その他の設立登記法人,栃木県,足利市,月谷町４８８番地,,09,202,3260068,,,2024-05-15,合併による解散等,4060005006495,令和６年５月１５日栃木県足利市田島町１７１７番地光明寺（4060005006495）に合併し解散,2015-10-05,1,,,,,リュウコウジ,0
173,1120901048711,登記記録の閉鎖等,0,2024-05-30,2024-05-27,株式会社中下浦工務店,,株式会社,大阪府,池田市,神田２丁目７番１７号,,27,204,5630043,,,2024-05-27,清算の結了等,,,2024-02-07,1,,,,,ナカシモウラコウムテン,0
201,1180001003470,登記記録の閉鎖等,0,2024-05-30,2024-05-24,株式会社今池劇場,,株式会社,愛知県,名古屋市千種区,内山３丁目３２番２号,,23,101,4640075,,,2024-05-24,清算の結了等,,,2015-10-05,1,,,,,イマイケゲキジョウ,0
213,1190002010671,登記記録の閉鎖等,0,2024-05-30,2024-05-22,有限会社藤井電器,,有限会社,三重県,鳥羽市,船津町１９２番地の７,,24,211,5170045,,,2024-05-22,清算の結了等,,,2015-10-05,1,,,,,フジイデンキ,0
244,1370001008962,登記記録の閉鎖等,0,2024-05-30,2024-05-27,太陽観光開発株式会社,,株式会社,宮城県,仙台市青葉区,国分町２丁目８番１４号,,04,101,9800803,,,2024-05-27,清算の結了等,,,2015-10-05,1,,,,,タイヨウカンコウカイハツ,0
246,1370001048736,登記記録の閉鎖等,0,2024-05-30,2024-05-27,Ｊ２Ｐ株式会社,,株式会社,宮城県,仙台市青葉区,一番町２丁目１１番１２号プレジデント一番町５０５号,,04,101,9800811,,,2024-05-27,清算の結了等,,,2022-06-30,1,,,,,ジェイツーピー,0
254,1430001005251,登記記録の閉鎖等,0,2024-05-30,2024-05-27,株式会社クラフト防水,,株式会社,北海道,札幌市手稲区,前田八条８丁目１３番７号,,01,109,0060818,,,2024-05-27,清算の結了等,,,2015-10-05,1,,,,,クラフトボウスイ,0
260,1470002011567,登記記録の閉鎖等,0,2024-05-30,2024-05-24,有限会社協輪商事,,有限会社,香川県,丸亀市,川西町南５０７番地５,,37,202,7630092,,,2024-05-24,清算の結了等,,,2015-10-05,1,,,,,キョウワショウジ,0
276,2010401170777,登記記録の閉鎖等,0,2024-05-30,2024-05-15,ＦＩＬＬ株式会社,,株式会社,東京都,港区,南麻布４丁目１２番４号プラチナコート広尾１階,,13,103,1060047,,,2024-05-15,清算の結了等,,,2022-11-11,1,,,,,フィル,0
282,2010501009256,登記記録の閉鎖等,0,2024-05-30,2024-05-24,株式会社東京ブラザーシューズ,,株式会社,東京都,台東区,浅草６丁目４０番５号,,13,106,1110032,,,2024-05-24,清算の結了等,,,2015-10-05,1,,,,,トウキョウブラザーシューズ,0
340,2020002081679,登記記録の閉鎖等,0,2024-05-30,2024-05-23,有限会社ペットショップチコ,,有限会社,神奈川県,川崎市幸区,大宮町２０番地５マイキャッスル川崎２０１,,14,132,2120014,,,2024-05-23,清算の結了等,,,2015-10-05,1,,,,,ペットショップチコ,0
346,2021002060747,登記記録の閉鎖等,0,2024-05-30,2024-05-29,有限会社大杉屋酒店,,有限会社,神奈川県,中郡二宮町,百合が丘１丁目７番８号,,14,342,2590133,,,2024-05-29,清算の結了等,,,2015-10-05,1,,,,,オオスギヤサケテン,0
374,2080003002587,登記記録の閉鎖等,0,2024-05-30,2024-05-24,Ｐａｔｈｗａｙ　Ｊａｐａｎ合同会社,,合同会社,静岡県,静岡市葵区,鷹匠２丁目８番１０号,,22,101,4200839,,,2024-05-24,清算の結了等,,,2021-06-02,1,,,,,パスウェイジャパン,0
389,2120001038199,登記記録の閉鎖等,0,2024-05-30,2024-05-28,株式会社サカツ・ユニ,,株式会社,大阪府,大阪市浪速区,難波中３丁目６番５号,,27,111,5560011,,,2024-05-28,清算の結了等,,,2015-10-05,1,,,,,,0
397,2120103001988,登記記録の閉鎖等,0,2024-05-30,2024-05-24,合同会社るくーる,,合同会社,大阪府,堺市中区,福田１４３５番地４,,27,142,5998241,,,2024-05-24,清算の結了等,,,2015-10-05,1,,,,,ルクール,0
399,2120902005751,登記記録の閉鎖等,0,2024-05-30,2024-05-27,有限会社カトレアメディカル,,有限会社,大阪府,吹田市,桃山台５丁目４番１－６０１号,,27,205,5650854,,,2024-05-27,清算の結了等,,,2015-10-05,1,,,,,カトレアメディカル,0
407,2122001030136,登記記録の閉鎖等,0,2024-05-30,2024-05-29,株式会社ケンズレーザー,,株式会社,大阪府,八尾市,太田新町６丁目９５番地,,27,212,5810039,,,2024-05-29,清算の結了等,,,2016-11-30,1,,,,,,0
413,2140003013405,登記記録の閉鎖等,0,2024-05-30,2024-05-27,Ｎａｒｕインポルト合同会社,,合同会社,兵庫県,宝塚市,伊孑志２丁目１番２号,,28,214,6650033,,,2024-05-27,清算の結了等,,,2018-10-24,1,,,,,ナルインポルト,0
422,2180001071046,登記記録の閉鎖等,0,2024-05-30,2024-05-24,株式会社ヒライワ,,株式会社,愛知県,名古屋市名東区,神里１丁目２３番地,,23,115,4650082,,,2024-05-24,清算の結了等,,,2015-10-05,1,,,,,ヒライワ,0
424,2180001129026,登記記録の閉鎖等,0,2024-05-30,2024-05-24,ＢＯＳＡＴＳＵ株式会社,,株式会社,愛知県,名古屋市中区,錦１丁目１７番１３号名興ビル２Ｆ,,23,106,4600003,,,2024-05-24,清算の結了等,,,2017-08-14,1,,,,,ボサツ,0
429,2180002009235,登記記録の閉鎖等,0,2024-05-30,2024-05-23,有限会社岩田新聞店,,有限会社,愛知県,名古屋市瑞穂区,花目町１丁目２番地,,23,108,4670837,,,2024-05-23,清算の結了等,,,2015-10-05,1,,,,,イワタシンブンテン,0
430,2180301022871,登記記録の閉鎖等,0,2024-05-30,2024-05-24,日立株式会社,,株式会社,愛知県,西尾市,戸ケ崎１丁目２番地２,,23,213,4450075,,,2024-05-24,清算の結了等,,,2015-10-05,1,,,,,ヒタチ,0
444,2260002008674,登記記録の閉鎖等,0,2024-05-30,2024-05-29,フジイ重機有限会社,,有限会社,岡山県,岡山市南区,藤田６８６番地３,,33,104,7010221,,,2024-05-29,清算の結了等,,,2015-10-05,1,,,,,,0
447,2290001075746,登記記録の閉鎖等,0,2024-05-30,2024-05-07,株式会社ナーヴェ,,株式会社,福岡県,飯塚市,大分１４９３番地８５,,40,205,8200712,,,2024-05-07,清算の結了等,,,2016-11-08,1,,,,,ナーヴェ,0
453,2290003011360,登記記録の閉鎖等,0,2024-05-30,2024-05-07,合同会社彩雲,,合同会社,福岡県,久留米市,上津町２２０３番地１５５,,40,203,8300052,,,2024-05-07,清算の結了等,,,2021-06-30,1,,,,,サイウン,0
463,2360001013005,登記記録の閉鎖等,0,2024-05-30,2024-05-28,株式会社ハイアップ,,株式会社,沖縄県,うるま市,字川田３６７番地１,,47,213,9042232,,,2024-05-28,清算の結了等,,,2015-10-05,1,,,,,ハイアップ,0
470,2410002007875,登記記録の閉鎖等,0,2024-05-30,2024-05-20,株式会社宝来堂,,株式会社,東京都,中央区,八重洲２丁目８番７号,,13,102,1040028,,,2024-05-20,清算の結了等,,,2015-10-05,1,,,,,ホウライドウ,0
512,3010603010350,登記記録の閉鎖等,0,2024-05-30,2024-05-24,Ｇ３ＮＥＲＡＩＴ合同会社,,合同会社,東京都,江東区,千石１丁目１３番１８－１０１号,,13,108,1350015,,,2024-05-24,清算の結了等,,,2023-09-08,1,,,,,ジェネレイト,0
523,3011001004829,登記記録の閉鎖等,0,2024-05-30,2024-05-17,株式会社大西デザイン,,株式会社,東京都,渋谷区,渋谷１丁目１番６号,,13,113,1500002,,,2024-05-17,清算の結了等,,,2015-10-05,1,,,,,オオニシデザイン,0
524,3011001117993,登記記録の閉鎖等,0,2024-05-30,2024-05-16,株式会社ｏｐｐ,,株式会社,東京都,渋谷区,渋谷３丁目６番２号エクラート渋谷ビル５階,,13,113,1500002,,,2024-05-16,清算の結了等,,,2017-08-22,1,,,,,オポ,0
536,3011801034249,登記記録の閉鎖等,0,2024-05-30,2024-05-27,株式会社ニコハウス,,株式会社,東京都,足立区,六月３丁目１６番１－６０５号,,13,121,1210814,,,2024-05-27,清算の結了等,,,2018-01-11,1,,,,,ニコハウス,0
546,3020001089904,登記記録の閉鎖等,0,2024-05-30,2024-05-24,株式会社ラボラトリーセポリ,,株式会社,神奈川県,横浜市港北区,新横浜２丁目５番１４号ＷＩＳＥＮＥＸＴ新横浜３階,,14,109,2220033,,,2024-05-24,清算の結了等,,,2015-10-05,1,,,,,ラボラトリーセポリ,0
560,3030001085134,登記記録の閉鎖等,0,2024-05-30,2024-05-27,株式会社阪東印刷,,株式会社,埼玉県,熊谷市,三ヶ尻５３８０番地１,,11,202,3600843,,,2024-05-27,清算の結了等,,,2015-10-05,1,,,,,バンドウインサツ,0
584,3070001029723,登記記録の閉鎖等,0,2024-05-30,2024-05-27,株式会社風雅,,株式会社,群馬県,前橋市,粕川町室沢５７２番地,,10,201,3710202,,,2024-05-27,清算の結了等,,,2015-10-05,1,,,,,フウガ,0
592,3070005007675,登記記録の閉鎖等,0,2024-05-30,2024-05-24,梨木牧野農業協同組合,,その他の設立登記法人,群馬県,吾妻郡中之条町,大字入山３８８５番地,,10,421,3771701,,,2024-05-24,清算の結了等,,,2015-10-05,1,,,,,ナシギボクヤ,0
596,3080102022535,登記記録の閉鎖等,0,2024-05-30,2024-05-27,有限会社やまよ毛糸店,,有限会社,静岡県,伊東市,猪戸１丁目８番６号,,22,208,4140004,,,2024-05-27,清算の結了等,,,2023-11-22,1,,,,,ヤマヨケイトテン,0
637,3180001105819,登記記録の閉鎖等,0,2024-05-30,2024-05-24,株式会社リンクス,,株式会社,愛知県,名古屋市中区,栄２丁目１５番１６号,,23,106,4600008,,,2024-05-24,清算の結了等,,,2015-10-05,1,,,,,リンクス,0
658,3240005013482,登記記録の閉鎖等,0,2024-05-30,2024-05-29,特定非営利活動法人人材開発・農水支援センター,,その他の設立登記法人,広島県,広島市南区,青崎１丁目８番１５号,,34,103,7340053,,,2024-05-29,清算の結了等,,,2015-10-05,1,,,,,ジンザイカイハツノウスイシエンセンター,0
660,3260001010969,登記記録の閉鎖等,0,2024-05-30,2024-05-29,株式会社サンクアート,,株式会社,岡山県,岡山市南区,浦安本町８５番地２,,33,104,7028026,,,2024-05-29,清算の結了等,,,2015-10-05,1,,,,,,0
664,3280002002575,登記記録の閉鎖等,0,2024-05-30,2024-05-29,有限会社ワイピージー,,有限会社,島根県,松江市,大輪町４２０番地２２,,32,201,6900882,,,2024-05-29,清算の結了等,,,2015-10-05,1,,,,,ワイピージー,0
665,3280002011568,登記記録の閉鎖等,0,2024-05-30,2024-05-27,有限会社三刀屋物産,,有限会社,島根県,雲南市,三刀屋町三刀屋２７４番地１０,,32,209,6902404,,,2024-05-27,清算の結了等,,,2015-10-05,1,,,,,ミトヤブッサン,0
668,3290001067783,登記記録の閉鎖等,0,2024-05-30,2024-05-07,ＡｋｕｓＯｎｅ株式会社,,株式会社,福岡県,糸島市,泊７６５番地セトル伊都４７１号,,40,230,8191111,,,2024-05-07,清算の結了等,,,2015-10-05,1,,,,,アクスワン,0
676,3290801010819,登記記録の閉鎖等,0,2024-05-30,2024-05-22,株式会社ロイヤル企画,,株式会社,福岡県,北九州市八幡東区,中尾３丁目１４番３号,,40,108,8050025,,,2024-05-22,合併による解散等,3290801001677,令和６年３月３１日北九州市八幡東区大蔵一丁目１番２１－２０１号株式会社サン商事（3290801001677）に合併し解散,2015-10-05,1,,,,,ロイヤルキカク,0
678,3300001001022,登記記録の閉鎖等,0,2024-05-30,2024-05-29,諸富商事株式会社,,株式会社,佐賀県,佐賀市,柳町２番１０号,,41,201,8400823,,,2024-05-29,清算の結了等,,,2015-10-05,1,,,,,モロドミショウジ,0
687,3370002000594,登記記録の閉鎖等,0,2024-05-30,2024-05-27,有限会社キュウセイ商事,,有限会社,宮城県,仙台市青葉区,国分町２丁目８番１４号,,04,101,9800803,,,2024-05-27,清算の結了等,,,2015-10-05,1,,,,,キュウセイショウジ,0
688,3370003004834,登記記録の閉鎖等,0,2024-05-30,2024-05-23,合同会社コーダーズカンパニー,,合同会社,宮城県,仙台市宮城野区,小田原山本丁１００番９の９０７号,,04,102,9830817,,,2024-05-23,清算の結了等,,,2020-06-05,1,,,,,コーダーズカンパニー,0
695,3430001062869,登記記録の閉鎖等,0,2024-05-30,2024-05-17,合同会社しろくま,,合同会社,北海道,札幌市中央区,大通西２１丁目１番１２号,,01,101,0640820,,,2024-05-17,合併による解散等,8430003006051,令和６年５月１７日札幌市中央区大通西二十一丁目１番１２号合同会社ＡＴＨＥＮＡ（8430003006051）に合併し解散,2015-10-05,1,,,,,シロクマ,0
702,3450001005891,登記記録の閉鎖等,0,2024-05-30,2024-05-27,株式会社アイテック,,株式会社,北海道,上川郡東神楽町,ひじり野南三条１丁目１番１８号,,01,453,0711525,,,2024-05-27,清算の結了等,,,2015-10-05,1,,,,,アイテック,0
706,3460302004872,登記記録の閉鎖等,0,2024-05-30,2024-05-22,有限会社スダ運送,,有限会社,北海道,斜里郡斜里町,光陽町１２番地１,,01,545,0994115,,,2024-05-22,清算の結了等,,,2015-10-05,1,,,,,スダウンソウ,0
724,4010001195421,登記記録の閉鎖等,0,2024-05-30,2024-05-23,株式会社神田事業２号,,株式会社,東京都,中央区,新富１丁目８番２号,,13,102,1040041,,,2024-05-23,清算の結了等,,,2018-10-15,1,,,,,カンダジギョウニゴウ,0
734,4010401134004,登記記録の閉鎖等,0,2024-05-30,2024-05-13,ＦＸｃｏｉｎ株式会社,,株式会社,東京都,港区,六本木１丁目６番１号泉ガーデンタワー１３階,,13,103,1060032,,,2024-05-13,清算の結了等,,,2017-09-29,1,,,,,エフエックスコイン,0
737,4010401171229,登記記録の閉鎖等,0,2024-05-30,2024-05-15,株式会社モアセッツ,,株式会社,東京都,港区,三田１丁目３－４０麻布十番ＢＵＳＩＮＥＳＳＣＵＢＥ－Ｓ天翔オフィス麻布十番７階７０１号室,,13,103,1080073,,,2024-05-15,清算の結了等,,,2022-12-19,1,,,,,モアセッツ,0
748,4010903004134,登記記録の閉鎖等,0,2024-05-30,2024-05-27,合同会社アンドスペース,,合同会社,東京都,世田谷区,玉川３丁目２０番２号マノア玉川第３ビル５０１号室,,13,112,1580094,,,2024-05-27,合併による解散等,4010403019310,令和６年５月１日東京都港区芝五丁目２７番３号ＭＢＣ合同会社シバレジデンス（4010403019310）に合併し解散,2018-02-22,1,,,,,アンドスペース,0
757,4011101054863,登記記録の閉鎖等,0,2024-05-30,2024-05-27,株式会社Ｔｏ　Ｄｏ　ＩＴ,,株式会社,神奈川県,足柄下郡湯河原町,吉浜４４９番地の２,,14,384,2590312,,,2024-05-27,清算の結了等,,,2015-10-05,1,,,,,トゥドゥアイティ,0
770,4013102006744,登記記録の閉鎖等,0,2024-05-30,2024-05-27,有限会社本間編集事務所,,有限会社,東京都,立川市,錦町１丁目９番９号,,13,202,1900022,,,2024-05-27,清算の結了等,,,2015-10-05,1,,,,,ホンマヘンシュウジムショ,0
785,4021001031103,登記記録の閉鎖等,0,2024-05-30,2024-05-28,みなせホーム株式会社,,株式会社,神奈川県,秦野市,河原町１番２１号,,14,211,2570032,,,2024-05-28,清算の結了等,,,2015-10-05,1,,,,,ミナセホーム,0
799,4030002109452,登記記録の閉鎖等,0,2024-05-30,2024-05-27,有限会社金子デザイン事務所,,有限会社,埼玉県,川口市,上青木西１丁目６番７－２３１号,,11,203,3330845,,,2024-05-27,清算の結了等,,,2015-10-05,1,,,,,カネコデザインジムショ,0
806,4040003003694,登記記録の閉鎖等,0,2024-05-30,2024-05-20,合資会社松川本店,,合資会社,千葉県,香取市,佐原イ５３４番地,,12,236,2870003,,,2024-05-20,清算の結了等,,,2015-10-05,1,,,,,マツカワホンテン,0
807,4040003010939,登記記録の閉鎖等,0,2024-05-30,2024-05-21,合同会社ルアナ,,合同会社,千葉県,浦安市,今川１丁目１０番１号,,12,227,2790022,,,2024-05-21,清算の結了等,,,2017-12-05,1,,,,,ルアナ,0
811,4050002021473,登記記録の閉鎖等,0,2024-05-30,2024-05-27,有限会社スズキ塗装,,有限会社,茨城県,つくば市,大角豆２０１２番地６９１,,08,220,3050043,,,2024-05-27,清算の結了等,,,2015-10-05,1,,,,,スズキトソウ,0
814,4060002022669,登記記録の閉鎖等,0,2024-05-30,2024-05-24,株式会社フジテック,,株式会社,栃木県,那須塩原市,東小屋１４７番地４,,09,213,3293147,,,2024-05-24,清算の結了等,,,2015-10-05,1,,,,,フジテック,0
816,4070001020053,登記記録の閉鎖等,0,2024-05-30,2024-05-27,株式会社フジ,,株式会社,群馬県,邑楽郡邑楽町,大字新中野１１番地の２,,10,525,3700612,,,2024-05-27,清算の結了等,,,2015-10-05,1,,,,,フジ,0
818,4070002011175,登記記録の閉鎖等,0,2024-05-30,2024-05-27,有限会社トキ・インターナショナル,,有限会社,群馬県,高崎市,吉井町長根１８２０番地１,,10,202,3702127,,,2024-05-27,清算の結了等,,,2015-10-05,1,,,,,トキインターナショナル,0
830,4110002030344,登記記録の閉鎖等,0,2024-05-30,2024-05-27,有限会社アスプロ,,有限会社,新潟県,長岡市,西千手１丁目１番１号,,15,202,9400086,,,2024-05-27,合併による解散等,2010401171206,令和６年５月１日東京都港区元赤坂一丁目１番８号株式会社赤坂国際会計内株式会社アスプロ（2010401171206）に合併し解散,2015-10-05,1,,,,,アスプロ,0
862,4140001009064,登記記録の閉鎖等,0,2024-05-30,2024-05-28,株式会社大蓄,,株式会社,兵庫県,神戸市中央区,元町通１丁目６番１２号,,28,110,6500022,,,2024-05-28,清算の結了等,,,2015-10-05,1,,,,,ダイチク,0
864,4140001080957,登記記録の閉鎖等,0,2024-05-30,2024-05-29,サン・ライブス株式会社,,株式会社,兵庫県,川辺郡猪名川町,若葉２丁目２８番地１０,,28,301,6660251,,,2024-05-29,清算の結了等,,,2015-10-05,1,,,,,サンライブス,0
870,4150001021209,登記記録の閉鎖等,0,2024-05-30,2024-05-29,株式会社ウェル・ビーイング,,株式会社,奈良県,奈良市,紀寺町９５０番地の２ウィンズガーデン２０１号,,29,201,6308306,,,2024-05-29,清算の結了等,,,2017-01-12,1,,,,,ウェルビーイング,0
897,4290003011862,登記記録の閉鎖等,0,2024-05-30,2024-05-02,合同会社ＲＥ・ＺＥＲＯ,,合同会社,福岡県,福岡市博多区,中洲１丁目５番２１号,,40,132,8100801,,,2024-05-02,清算の結了等,,,2021-11-26,1,,,,,リゼロ,0
899,4300002009047,登記記録の閉鎖等,0,2024-05-30,2024-05-28,有限会社エムズ,,有限会社,佐賀県,鳥栖市,立石町２０５５番地１９,,41,203,8410075,,,2024-05-28,清算の結了等,,,2015-10-05,1,,,,,エムズ,0
902,4320001011811,登記記録の閉鎖等,0,2024-05-30,2024-05-24,ＤＥＮＴＡＬ　ＡＲＴ株式会社,,株式会社,大分県,佐伯市,春日町３番２号,,44,205,8760806,,,2024-05-24,清算の結了等,,,2015-10-05,1,,,,,デンタルアート,0
920,4430001075234,登記記録の閉鎖等,0,2024-05-30,2024-05-24,株式会社リーガル１１９,,株式会社,神奈川県,横浜市西区,北幸１丁目１１番１号,,14,103,2200004,,,2024-05-24,清算の結了等,,,2017-10-26,1,,,,,リーガルイチイチキュウ,0
932,5010001013045,登記記録の閉鎖等,0,2024-05-30,2024-05-27,尾張屋倉庫株式会社,,株式会社,東京都,新宿区,北山伏町２番９号,,13,104,1620853,,,2024-05-27,清算の結了等,,,2015-10-05,1,,,,,オワリヤソウコ,0
943,5010003042190,登記記録の閉鎖等,0,2024-05-30,2024-05-20,合同会社ｍｏＥｎａ’ｓ,,合同会社,東京都,千代田区,神田三崎町３丁目２番１７号小澤ビル１Ｆ,,13,101,1010061,,,2024-05-20,清算の結了等,,,2023-11-13,1,,,,,モエナズ,0
946,5010401005550,登記記録の閉鎖等,0,2024-05-30,2024-05-15,株式会社エリカ,,株式会社,東京都,港区,三田３丁目７番２７号,,13,103,1080073,,,2024-05-15,清算の結了等,,,2015-10-05,1,,,,,エリカ,0
979,5011201023684,登記記録の閉鎖等,0,2024-05-30,2024-05-21,株式会社エムズ,,株式会社,東京都,新宿区,高田馬場３丁目９－１５－Ｂ－１号,,13,104,1690075,,,2024-05-21,清算の結了等,,,2022-03-03,1,,,,,エムズ,0
988,5013201007907,登記記録の閉鎖等,0,2024-05-30,2024-05-09,株式会社アクセスロード,,株式会社,東京都,目黒区,東山３丁目１番１１号,,13,110,1530043,,,2024-05-09,清算の結了等,,,2015-10-05,1,,,,,,0
1026,5060001031125,登記記録の閉鎖等,0,2024-05-30,2024-05-27,株式会社ＤＨＳ,,株式会社,栃木県,宇都宮市,上戸祭町５５番地４－Ｂ－１０２,,09,201,3200051,,,2024-05-27,清算の結了等,,,2018-12-03,1,,,,,ディーエイチエス,0
1038,5100002009066,登記記録の閉鎖等,0,2024-05-30,2024-05-22,有限会社ヤマザキファーム,,有限会社,長野県,上高井郡小布施町,大字小布施１９０２番地,,20,541,3810201,,,2024-05-22,清算の結了等,,,2015-10-05,1,,,,,ヤマザキファーム,0
1045,5120001260808,登記記録の閉鎖等,0,2024-05-30,2024-05-28,株式会社スミテックス,,株式会社,大阪府,大阪市鶴見区,今津南４丁目８番１０号,,27,124,5380043,,,2024-05-28,清算の結了等,,,2023-12-22,1,,,,,スミテックス,0
1050,5120101020120,登記記録の閉鎖等,0,2024-05-30,2024-05-27,協和印刷株式会社,,株式会社,大阪府,堺市堺区,綾之町東１丁１番１０号Ｋ－ＰＬＡＺＡ綾１０２号室,,27,141,5900925,,,2024-05-27,清算の結了等,,,2015-10-05,1,,,,,キョウワインサツ,0
1058,5130002031703,登記記録の閉鎖等,0,2024-05-30,2024-05-27,有限会社パティスリーファシナシヨン,,有限会社,京都府,京田辺市,山手東２丁目５番地１Ａ－１３０１,,26,211,6100357,,,2024-05-27,清算の結了等,,,2015-10-05,1,,,,,パティスリーファシナシヨン,0
1074,5180001061556,登記記録の閉鎖等,0,2024-05-30,2024-05-24,株式会社ツーワン,,株式会社,愛知県,名古屋市守山区,城南町７番１９号,,23,113,4630014,,,2024-05-24,清算の結了等,,,2015-10-05,1,,,,,ツーワン,0
1077,5180001142100,登記記録の閉鎖等,0,2024-05-30,2024-05-24,株式会社サバカトレイド,,株式会社,愛知県,一宮市,三ツ井４丁目９番３号ガーデンヴィレッジＣ号,,23,203,4910827,,,2024-05-24,清算の結了等,,,2020-07-21,1,,,,,サバカトレイド,0
1081,5180002082485,登記記録の閉鎖等,0,2024-05-30,2024-05-24,有限会社東信建設,,有限会社,愛知県,岩倉市,大地町葉広４３番地,,23,228,4820026,,,2024-05-24,清算の結了等,,,2015-10-05,1,,,,,トウシンケンセツ,0
1092,5240001029794,登記記録の閉鎖等,0,2024-05-30,2024-05-29,新設計コンサルタンツ株式会社,,株式会社,広島県,福山市,西桜町１丁目１番４号,,34,207,7200818,,,2024-05-29,清算の結了等,,,2015-10-05,1,,,,,アラタセッケイコンサルタンツ,0
1104,5290801019040,登記記録の閉鎖等,0,2024-05-30,2024-05-23,株式会社ナカトウ工務店,,株式会社,福岡県,田川市,西本町６番８号,,40,206,8260024,,,2024-05-23,清算の結了等,,,2015-10-05,1,,,,,ナカトウコウムテン,0
1113,5370001008967,登記記録の閉鎖等,0,2024-05-30,2024-05-27,株式会社太陽ビルプランニング,,株式会社,宮城県,仙台市青葉区,国分町２丁目８番１４号,,04,101,9800803,,,2024-05-27,清算の結了等,,,2015-10-05,1,,,,,タイヨウビルプランニング,0
1135,5500002019017,登記記録の閉鎖等,0,2024-05-30,2024-05-24,有限会社福山ミシン工業所,,有限会社,愛媛県,今治市,衣干町１丁目１番１５号,,38,202,7940813,,,2024-05-24,清算の結了等,,,2015-10-05,1,,,,,フクヤマミシンコウギョウショ,0
1147,6010001170232,登記記録の閉鎖等,0,2024-05-30,2024-05-21,ライセンスバンク株式会社,,株式会社,東京都,千代田区,外神田４丁目９番７号,,13,101,1010021,,,2024-05-21,清算の結了等,,,2015-10-05,1,,,,,ライセンスバンク,0
1152,6010001197580,登記記録の閉鎖等,0,2024-05-30,2024-05-22,株式会社アオソン,,株式会社,東京都,文京区,西片１丁目１５番１９－５０７号,,13,105,1130024,,,2024-05-22,清算の結了等,,,2019-01-08,1,,,,,アオソン,0
1162,6010401164560,登記記録の閉鎖等,0,2024-05-30,2024-05-10,株式会社ＫＳＫ,,株式会社,東京都,港区,赤坂１丁目１１番４０－２８０２号,,13,103,1070052,,,2024-05-10,合併による解散等,9140001002849,令和６年５月１日神戸市東灘区甲南町三丁目２番１８号神戸セイコー観光株式会社（9140001002849）に合併し解散,2021-12-22,1,,,,,ケーエスケー,0
1178,6011101028312,登記記録の閉鎖等,0,2024-05-30,2024-05-22,株式会社フォーキャスト,,株式会社,東京都,調布市,入間町３丁目２２番地２０,,13,208,1820004,,,2024-05-22,清算の結了等,,,2015-10-05,1,,,,,フォーキャスト,0
1193,6020001086989,登記記録の閉鎖等,0,2024-05-30,2024-05-23,株式会社ヒューマス,,株式会社,神奈川県,横浜市港南区,大久保１丁目１６番２８号,,14,111,2330007,,,2024-05-23,清算の結了等,,,2015-10-05,1,,,,,ヒューマス,0
1205,6020002027001,登記記録の閉鎖等,0,2024-05-30,2024-05-23,有限会社タイコー製作所,,有限会社,東京都,大田区,萩中２丁目６番５号,,13,111,1440047,,,2024-05-23,清算の結了等,,,2015-10-05,1,,,,,タイコーセイサクショ,0
1211,6030001077021,登記記録の閉鎖等,0,2024-05-30,2024-05-27,株式会社藤田工業所,,株式会社,埼玉県,川口市,中青木２丁目２３番５号,,11,203,3320032,,,2024-05-27,清算の結了等,,,2015-10-05,1,,,,,フジタコウギョウショ,0
1220,6040001007563,登記記録の閉鎖等,0,2024-05-30,2024-05-21,八千代設計株式会社,,株式会社,千葉県,千葉市稲毛区,千草台１丁目１番１７棟２０７号,,12,103,2630013,,,2024-05-21,清算の結了等,,,2015-10-05,1,,,,,ヤチヨセッケイ,0
1238,6070005008992,登記記録の閉鎖等,0,2024-05-30,2024-05-24,税理士法人佐藤事務所,,その他の設立登記法人,群馬県,高崎市,九蔵町５６番地４,,10,202,3700058,,,2024-05-24,清算の結了等,,,2015-10-05,1,,,,,サトウジムショ,0
1241,6080103002731,登記記録の閉鎖等,0,2024-05-30,2024-05-27,合同会社Ａｒ‐ａｔｅ　Ｗｏｒｋｓ,,合同会社,静岡県,三島市,芝本町５番３４号ＫＡＷＡＴＡＢＬＤ．芝本町７０７,,22,206,4110857,,,2024-05-27,清算の結了等,,,2023-01-25,1,,,,,アルエイトワークス,0
1246,6090001007162,登記記録の閉鎖等,0,2024-05-30,2024-05-27,ケアプランエース株式会社,,株式会社,山梨県,笛吹市,八代町北５２１番地,,19,211,4060821,,,2024-05-27,清算の結了等,,,2015-10-05,1,,,,,ケアプランエース,0
1260,6120002012372,登記記録の閉鎖等,0,2024-05-30,2024-05-28,旭縫工有限会社,,有限会社,大阪府,大阪市天王寺区,玉造元町１４番１５号,,27,109,5430014,,,2024-05-28,清算の結了等,,,2015-10-05,1,,,,,アサヒホウコウ,0
1295,6190001004216,登記記録の閉鎖等,0,2024-05-30,2024-05-28,株式会社前岡産業,,株式会社,三重県,南牟婁郡御浜町,大字下市木４３４５番地３,,24,561,5195203,,,2024-05-28,清算の結了等,,,2015-10-05,1,,,,,マエオカサンギョウ,0
1298,6200001023156,登記記録の閉鎖等,0,2024-05-30,2024-05-02,株式会社シー・ジー・アイ,,株式会社,岐阜県,多治見市,赤坂町８丁目１６１番地,,21,204,5070057,,,2024-05-02,清算の結了等,,,2015-10-05,1,,,,,シージーアイ,0
1305,6240003004134,登記記録の閉鎖等,0,2024-05-30,2024-05-29,合同会社ウィステリアコーポレーション,,合同会社,広島県,広島市中区,基町６番２７号そごう広島店新館地下１階,,34,101,7300011,,,2024-05-29,清算の結了等,,,2019-02-01,1,,,,,ウィステリアコーポレーション,0
1331,6360002015038,登記記録の閉鎖等,0,2024-05-30,2024-05-28,有限会社東洋テック沖縄,,有限会社,沖縄県,うるま市,字川田３６７番地１　２Ｆ－Ａ,,47,213,9042232,,,2024-05-28,清算の結了等,,,2015-10-05,1,,,,,トウヨウテックオキナワ,0
1335,6380002000335,登記記録の閉鎖等,0,2024-05-30,2024-05-27,有限会社イーアイ福島,,有限会社,福島県,福島市,上野寺字稲荷２４番地の１,,07,201,9608076,,,2024-05-27,清算の結了等,,,2015-10-05,1,,,,,イーアイフクシマ,0
1363,7010001198850,登記記録の閉鎖等,0,2024-05-30,2024-05-20,美果株式会社,,株式会社,東京都,中央区,銀座６丁目１３番９号ｂｉｚｃｕｂｅ,,13,102,1040061,,,2024-05-20,清算の結了等,,,2019-03-01,1,bica inc.,,,,ビカ,0
1390,7010801031921,登記記録の閉鎖等,0,2024-05-30,2024-05-22,株式会社ＭＤＭソリューション,,株式会社,東京都,大田区,大森北１丁目３７－４スカイビル４０２,,13,111,1430016,,,2024-05-22,清算の結了等,,,2021-05-11,1,,,,,エムディーエムソリューション,0
1393,7011001120143,登記記録の閉鎖等,0,2024-05-30,2024-05-16,株式会社ｃｒｏｓｓ　ｐａｒｋ,,株式会社,東京都,渋谷区,恵比寿西２丁目１９番９号,,13,113,1500021,,,2024-05-16,清算の結了等,,,2018-01-17,1,,,,,クロスパーク,0
1406,7012401023340,登記記録の閉鎖等,0,2024-05-30,2024-05-27,株式会社キューイング,,株式会社,東京都,調布市,調布ケ丘３丁目５２番地１ファミール調布ケ丘２１４,,13,208,1820021,,,2024-05-27,清算の結了等,,,2015-10-05,1,,,,,キューイング,0
1415,7020001126042,登記記録の閉鎖等,0,2024-05-30,2024-05-23,日本メディカルサポート株式会社,,株式会社,神奈川県,横浜市神奈川区,沢渡１番地２菱興高島台第２ビル２階Ｇ号室,,14,102,2210844,,,2024-05-23,合併による解散等,6020001123239,令和６年３月３１日神奈川県横浜市旭区中希望が丘１７６番地１フォルスコート希望ヶ丘１１１号池田総合企画株式会社（6020001123239）に合併し解散,2018-04-24,1,,,,,ニホンメディカルサポート,0
1423,7020002037370,登記記録の閉鎖等,0,2024-05-30,2024-05-24,有限会社大村庵,,有限会社,神奈川県,横浜市鶴見区,下野谷町２丁目７３番地,,14,101,2300047,,,2024-05-24,清算の結了等,,,2015-10-05,1,,,,,オオムラアン,0
1424,7020002065999,登記記録の閉鎖等,0,2024-05-30,2024-05-23,有限会社イシカワ,,有限会社,神奈川県,横浜市南区,井土ケ谷上町４番１６号,,14,105,2320051,,,2024-05-23,清算の結了等,,,2015-10-05,1,,,,,イシカワ,0
1467,7120001145734,登記記録の閉鎖等,0,2024-05-30,2024-05-27,株式会社日本ライフクリエイティブ,,株式会社,大阪府,大阪市天王寺区,生玉前町１－２１－２１０,,27,109,5430072,,,2024-05-27,清算の結了等,,,2015-10-05,1,,,,,,0
1474,7120002041164,登記記録の閉鎖等,0,2024-05-30,2024-05-27,有限会社アップトーイ,,有限会社,大阪府,大阪市生野区,田島３丁目１番２１号,,27,116,5440011,,,2024-05-27,清算の結了等,,,2015-10-05,1,,,,,アップトーイ,0
1494,7190005003915,登記記録の閉鎖等,0,2024-05-30,2024-05-17,天理教長島分教会,,その他の設立登記法人,三重県,北牟婁郡紀北町,長島１６４０番地,,24,543,5193205,,,2024-05-17,合併による解散等,9190005003525,令和６年５月１７日三重県熊野市木本町３４６番地天理教南紀大教会（9190005003525）に合併し解散,2015-10-05,1,,,,,,0
1503,7240003004950,登記記録の閉鎖等,0,2024-05-30,2024-05-28,ＬＴＴＶ合同会社,,合同会社,広島県,福山市,向陽町２丁目５９番３９４,,34,207,7200081,,,2024-05-28,清算の結了等,,,2021-01-14,1,,,,,エルティーティーブイ,0
1508,7260001031953,登記記録の閉鎖等,0,2024-05-30,2024-05-29,株式会社暁,,株式会社,岡山県,岡山市北区,門前３９０番地３,,33,101,7011351,,,2024-05-29,清算の結了等,,,2018-04-20,1,,,,,アカツキ,0
1517,7290003013831,登記記録の閉鎖等,0,2024-05-30,2024-05-02,Ｇｌｏｂａｌ　Ｓｕｐｐｏｒｔ　Ｃｅｎｔｅｒ合同会社,,合同会社,福岡県,福岡市中央区,那の津４丁目２番２２号,,40,133,8100071,,,2024-05-02,清算の結了等,,,2023-04-24,1,,,,,グローバルサポートセンター,0
1523,7330001017508,登記記録の閉鎖等,0,2024-05-30,2024-05-27,株式会社倉岳交通,,株式会社,熊本県,天草市,倉岳町浦３２１６番地,,43,215,8616401,,,2024-05-27,清算の結了等,,,2015-10-05,1,,,,,クラタケコウツウ,0
1527,7350002012373,登記記録の閉鎖等,0,2024-05-30,2024-05-14,有限会社ファースト,,有限会社,宮崎県,延岡市,大貫町４丁目２５９９番地３,,45,203,8820803,,,2024-05-14,清算の結了等,,,2015-10-05,1,,,,,ファースト,0
1530,7370001009740,登記記録の閉鎖等,0,2024-05-30,2024-05-27,株式会社二十一コーポレーション,,株式会社,宮城県,仙台市青葉区,国分町２丁目８番１４号,,04,101,9800803,,,2024-05-27,清算の結了等,,,2015-10-05,1,,,,,ニジュウイチコーポレーション,0
1564,8010001164034,登記記録の閉鎖等,0,2024-05-30,2024-05-24,サービスマックスジャパン株式会社,,株式会社,東京都,新宿区,西新宿６丁目８番１号,,13,104,1600023,,,2024-05-24,清算の結了等,,,2015-10-05,1,,,,,サービスマックスジャパン,0
1588,8010403018457,登記記録の閉鎖等,0,2024-05-30,2024-05-15,スペイサイド合同会社,,合同会社,東京都,港区,赤坂２丁目１０番５号税理士法人赤坂国際会計事務所内,,13,103,1070052,,,2024-05-15,清算の結了等,,,2018-04-18,1,,,,,スペイサイド,0
1592,8010502002304,登記記録の閉鎖等,0,2024-05-30,2024-05-27,有限会社岡本商店,,有限会社,東京都,台東区,入谷１丁目１４番１号,,13,106,1100013,,,2024-05-27,清算の結了等,,,2015-10-05,1,,,,,オカモトショウテン,0
1618,8011101055916,登記記録の閉鎖等,0,2024-05-30,2024-05-24,ジーアイイー株式会社,,株式会社,東京都,新宿区,高田馬場３丁目１２－２５石田ビル３Ｆ,,13,104,1690075,,,2024-05-24,清算の結了等,,,2015-10-05,1,,,,,ジーアイイー,0
1637,8012801007033,登記記録の閉鎖等,0,2024-05-30,2024-05-17,株式会社ブレーキングニュース,,株式会社,東京都,武蔵村山市,榎３丁目１６番地の１,,13,223,2080022,,,2024-05-17,清算の結了等,,,2015-10-05,1,,,,,ブレーキングニュース,0
1660,8021003005241,登記記録の閉鎖等,0,2024-05-30,2024-05-28,秀和合同会社,,合同会社,神奈川県,綾瀬市,吉岡東１丁目１２番１４号,,14,218,2521125,,,2024-05-28,清算の結了等,,,2015-10-05,1,,,,,シュウワ,0
1663,8030001059967,登記記録の閉鎖等,0,2024-05-30,2024-05-20,エフエックストレーディング株式会社,,株式会社,埼玉県,川越市,脇田本町３１番地１,,11,201,3501123,,,2024-05-20,清算の結了等,,,2015-10-05,1,,,,,エフエックストレーディング,0
1679,8050002039900,登記記録の閉鎖等,0,2024-05-30,2024-05-27,有限会社ニューコウラク,,有限会社,茨城県,常総市,豊岡町乙１３６３番地の３,,08,211,3030041,,,2024-05-27,清算の結了等,,,2015-10-05,1,,,,,ニューコウラク,0
1698,8110001035290,登記記録の閉鎖等,0,2024-05-30,2024-05-27,株式会社サーチファン,,株式会社,新潟県,長岡市,西千手１丁目１番１号,,15,202,9400086,,,2024-05-27,合併による解散等,2010401171206,令和６年５月１日東京都港区元赤坂一丁目１番８号株式会社赤坂国際会計内株式会社アスプロ（2010401171206）に合併し解散,2020-11-16,1,,,,,サーチファン,0
1714,8120003020216,登記記録の閉鎖等,0,2024-05-30,2024-05-28,合同会社ミライ,,合同会社,大阪府,大阪市東淀川区,西淡路３丁目５番３１号,,27,114,5330031,,,2024-05-28,清算の結了等,,,2021-09-14,1,,,,,ミライ,0
1724,8120902014061,登記記録の閉鎖等,0,2024-05-30,2024-05-28,有限会社西日本フーズ,,有限会社,大阪府,吹田市,山手町３丁目１６番４号,,27,205,5640073,,,2024-05-28,清算の結了等,,,2015-10-05,1,,,,,ニシニホンフーズ,0
1735,8180001058954,登記記録の閉鎖等,0,2024-05-30,2024-05-24,株式会社櫻井材木店,,株式会社,愛知県,名古屋市中川区,八神町１丁目２９番地,,23,110,4540041,,,2024-05-24,清算の結了等,,,2015-10-05,1,,,,,サクライザイモクテン,0
1748,8180301009723,登記記録の閉鎖等,0,2024-05-30,2024-05-27,青木商事株式会社,,株式会社,愛知県,豊川市,赤坂台６４５番地,,23,207,4410204,,,2024-05-27,清算の結了等,,,2015-10-05,1,,,,,アオキショウジ,0
1761,8240003005592,登記記録の閉鎖等,0,2024-05-30,2024-05-27,羽佐竹太陽光発電所合同会社,,合同会社,広島県,広島市中区,富士見町７番１０号,,34,101,7300043,,,2024-05-27,清算の結了等,,,2022-04-22,1,,,,,ハネサタケタイヨウコウハツデンショ,0
1763,8250002008133,登記記録の閉鎖等,0,2024-05-30,2024-05-24,有限会社インテリア企業センター,,有限会社,山口県,下関市,武久町１丁目７０番１４号,,35,201,7510833,,,2024-05-24,清算の結了等,,,2015-10-05,1,,,,,インテリアキギョウセンター,0
1772,8300002001603,登記記録の閉鎖等,0,2024-05-30,2024-05-28,有限会社夕刊新佐賀新聞社,,有限会社,佐賀県,佐賀市,久保田町大字徳万３９番地,,41,201,8490201,,,2024-05-28,清算の結了等,,,2015-10-05,1,,,,,ユウカンシンサガシンブンシャ,0
1824,9010501039593,登記記録の閉鎖等,0,2024-05-30,2024-05-20,ＦＴエナジー株式会社,,株式会社,東京都,千代田区,鍛冶町１丁目６番１５号,,13,101,1010044,,,2024-05-20,清算の結了等,,,2016-05-26,1,,,,,エフティエナジー,0
1826,9010502021195,登記記録の閉鎖等,0,2024-05-30,2024-05-21,有限会社メディカルジラフ,,有限会社,東京都,台東区,池之端２丁目１番３５－２７０３号,,13,106,1100008,,,2024-05-21,合併による解散等,3010401178571,令和６年５月１日東京都港区三田二丁目１４番７－６０２号ローレル三田埼玉地域医療連携推進株式会社（3010401178571）に合併し解散,2015-10-05,1,,,,,メディカルジラフ,0
1835,9010901019658,登記記録の閉鎖等,0,2024-05-30,2024-05-27,株式会社オーケイオフィス,,株式会社,東京都,世田谷区,上用賀６丁目３番１９号,,13,112,1580098,,,2024-05-27,清算の結了等,,,2015-10-05,1,,,,,オーケイオフィス,0
1840,9011001073356,登記記録の閉鎖等,0,2024-05-30,2024-05-24,ＡＲＩＩＸ　Ｊａｐａｎ合同会社,,合同会社,東京都,新宿区,西新宿３丁目２番２号,,13,104,1600023,,,2024-05-24,清算の結了等,,,2015-10-05,1,,,,,アリックスジャパン,0
1841,9011001113442,商号の登記の抹消,0,2024-05-30,2024-05-24,株式会社東京赤坂不動産,,株式会社,東京都,港区,赤坂４丁目１番１号ＳＨＩＭＡ赤坂ビル２階,,13,103,1070052,,,,,,,2016-11-08,0,,,,,トウキョウアカサカフドウサン,0
1855,9011601002227,登記記録の閉鎖等,0,2024-05-30,2024-05-27,幸和金属株式会社,,株式会社,東京都,練馬区,大泉学園町４丁目６番２号,,13,120,1780061,,,2024-05-27,清算の結了等,,,2015-10-05,1,,,,,,0
1862,9020001049051,登記記録の閉鎖等,0,2024-05-30,2024-05-23,株式会社関東物流,,株式会社,神奈川県,横浜市旭区,白根２丁目７番１０号,,14,112,2410005,,,2024-05-23,清算の結了等,,,2024-04-11,1,,,,,カントウブツリュウ,0
1901,9040002078824,登記記録の閉鎖等,0,2024-05-30,2024-05-21,有限会社趣味のきものかん乃,,有限会社,千葉県,東金市,道庭字下谷９８７番地１３１,,12,213,2830003,,,2024-05-21,清算の結了等,,,2015-10-05,1,,,,,シュミノキモノカンノ,0
1916,9070001032259,登記記録の閉鎖等,0,2024-05-30,2024-05-27,株式会社クリエイティブサポート,,株式会社,群馬県,桐生市,川内町１丁目３２２番地３,,10,203,3760041,,,2024-05-27,清算の結了等,,,2016-06-07,1,,,,,クリエイティブサポート,0
1917,9070002000438,登記記録の閉鎖等,0,2024-05-30,2024-05-28,有限会社飯塚表具内装店,,有限会社,群馬県,前橋市,三俣町１丁目４１番地１４,,10,201,3710018,,,2024-05-28,清算の結了等,,,2015-10-05,1,,,,,イイヅカヒョウグナイソウテン,0
1919,9070003002557,登記記録の閉鎖等,0,2024-05-30,2024-05-28,合同会社マイン,,合同会社,群馬県,伊勢崎市,連取町３０３６番地２１,,10,204,3720812,,,2024-05-28,清算の結了等,,,2016-01-13,1,,,,,マイン,0
1920,9080001000603,登記記録の閉鎖等,0,2024-05-30,2024-05-27,エーススタジオ株式会社,,株式会社,静岡県,静岡市駿河区,中村町７８番地の６,,22,102,4228047,,,2024-05-27,清算の結了等,,,2015-10-05,1,,,,,エーススタジオ,0
1929,9090001018652,登記記録の閉鎖等,0,2024-05-30,2024-05-27,羽村林産株式会社,,株式会社,山梨県,甲州市,塩山上於曽１０７８番地,,19,213,4040042,,,2024-05-27,清算の結了等,,,2024-04-15,1,,,,,ハムラリンサン,0
1949,9120101044446,登記記録の閉鎖等,0,2024-05-30,2024-05-23,明幸タオル株式会社,,株式会社,大阪府,泉南市,兎田２３７番地,,27,228,5900501,,,2024-05-23,清算の結了等,,,2015-10-05,1,,,,,メイコウタオル,0
1953,9120105005980,登記記録の閉鎖等,0,2024-05-30,2024-05-16,天理教春津分教会,,その他の設立登記法人,大阪府,岸和田市,春木北浜町１番１４号,,27,202,5960037,,,2024-05-16,合併による解散等,8120105006914,令和６年５月１６日大阪府泉大津市下之町７番３４号天理教大津分教会（8120105006914）に合併し解散,2015-10-05,1,,,,,テンリキョウハルツブンキョウカイ,0
1957,9130001022071,登記記録の閉鎖等,0,2024-05-30,2024-05-29,株式会社ニューファッション,,株式会社,京都府,京都市中京区,河原町通姉小路下る恵比須町４３０番地,,26,104,6048005,,,2024-05-29,清算の結了等,,,2015-10-05,1,,,,,ニューファッション,0
1961,9140001073262,登記記録の閉鎖等,0,2024-05-30,2024-05-29,株式会社柳井商店,,株式会社,兵庫県,西宮市,南甲子園３丁目１０番１８号,,28,204,6638153,,,2024-05-29,清算の結了等,,,2016-04-11,1,,,,,ヤナイショウテン,0
2010,9320001004389,登記記録の閉鎖等,0,2024-05-30,2024-05-15,吉松タイル工業株式会社,,株式会社,大分県,大分市,西新地１丁目１番４５号,,44,201,8700901,,,2024-05-15,清算の結了等,,,2015-10-05,1,,,,,ヨシマツタイルコウギョウ,0
2023,9380002033828,登記記録の閉鎖等,0,2024-05-30,2024-05-27,有限会社葵総合保険企画,,有限会社,福島県,会津若松市,町北町大字上荒久田字鈴木２４番１,,07,202,9650053,,,2024-05-27,清算の結了等,,,2015-10-05,1,,,,,アオイソウゴウキカク,0
2037,9500005005984,登記記録の閉鎖等,0,2024-05-30,2024-05-01,国際装飾技術交流協同組合,,その他の設立登記法人,愛媛県,四国中央市,寒川町２５８７番地１,,38,213,7990431,,,2024-05-01,清算の結了等,,,2015-10-05,1,,,,,,0
