sequenceNumber,corporateNumber,process,correct,updateDate,changeDate,name,nameImageId,kind,prefectureName,cityName,streetNumber,addressImageId,prefectureCode,cityCode,postCode,addressOutside,addressOutsideImageId,closeDate,closeCause,successorCorporateNumber,changeCause,assignmentDate,latest,enName,enPrefectureName,enCityName,enAddressOutside,furigana,hihyoji
11,1010001250732,新規,0,2024-12-16,2024-12-16,株式会社ＮＣＣＤホールディングス,,株式会社,東京都,中央区,銀座６丁目６番１号銀座風月堂ビル５Ｆ,,13,102,1040061,,,,,,,2024-12-16,1,,,,,エヌシーシーディホールディングス,0
12,1010001250757,新規,0,2024-12-16,2024-12-16,フィルムテック・ウォーター・ジャパン株式会社,,株式会社,東京都,千代田区,永田町２丁目１１番１号,,13,101,1000014,,,,,,,2024-12-16,1,,,,,フィルムテックウォータージャパン,0
19,1010003045800,新規,0,2024-12-16,2024-12-16,合同会社Ｋマネジメント,,合同会社,東京都,中央区,湊１丁目１４番１９号５階,,13,102,1040043,,,,,,,2024-12-16,1,,,,,ケーマネジメント,0
20,1010005039271,新規,0,2024-12-16,2024-12-16,一般社団法人ＦＲＥＦ１,,その他の設立登記法人,東京都,千代田区,霞が関３丁目２番５号,,13,101,1000013,,,,,,,2024-12-16,1,,,,,エフアールイーエフワン,0
25,1010403034015,新規,0,2024-12-16,2024-12-16,合同会社関東同和商会,,合同会社,東京都,港区,南青山２丁目２番１５号,,13,103,1070062,,,,,,,2024-12-16,1,,,,,カントウドウワショウカイ,0
26,1010405023866,新規,0,2024-12-16,2024-12-16,行政書士法人ベリーベスト,,その他の設立登記法人,東京都,港区,六本木１丁目８番７号ＭＦＰＲ六本木麻布台ビル１１階,,13,103,1060032,,,,,,,2024-12-16,1,,,,,ベリーベスト,0
27,1010503007663,新規,0,2024-12-16,2024-12-16,合同会社サキパル,,合同会社,東京都,台東区,浅草橋２丁目２８－１０－１２０１,,13,106,1110053,,,,,,,2024-12-16,1,,,,,サキパル,0
31,1010603011268,新規,0,2024-12-16,2024-12-16,新民合同会社,,合同会社,東京都,江東区,木場５丁目１－５メイプルハイム木場Ｂ－１１５号室,,13,108,1350042,,,,,,,2024-12-16,1,,,,,,0
40,1011001166258,新規,0,2024-12-16,2024-12-16,株式会社オリオン制作,,株式会社,東京都,渋谷区,渋谷１丁目１９番１８－１７１０号,,13,113,1500002,,,,,,,2024-12-16,1,,,,,オリオンセイサク,0
41,1011001166398,新規,0,2024-12-16,2024-12-16,株式会社ＧＥＮＥＲＡＬ,,株式会社,東京都,渋谷区,神泉町１１－１１イーデンビル６階,,13,113,1500045,,,,,,,2024-12-16,1,,,,,ジェネラル,0
42,1011001166431,新規,0,2024-12-16,2024-12-16,ＥｎＴｉｓｔ株式会社,,株式会社,東京都,渋谷区,神南１丁目１１番４号５Ｆ,,13,113,1500041,,,,,,,2024-12-16,1,,,,,エンティスト,0
43,1011001166456,新規,0,2024-12-16,2024-12-16,株式会社ＹＯＣ,,株式会社,東京都,渋谷区,宇田川町１番１２号,,13,113,1500042,,,,,,,2024-12-16,1,,,,,ワイオーシー,0
49,1011101109926,新規,0,2024-12-16,2024-12-16,株式会社ＨＡＥＮ,,株式会社,東京都,新宿区,下宮比町２－２８飯田橋ハイタウン６０８,,13,104,1620822,,,,,,,2024-12-16,1,,,,,ハエン,0
53,1011501031473,新規,0,2024-12-16,2024-12-16,軽松株式会社,,株式会社,東京都,荒川区,町屋３丁目２４番２号面川ビル３０９号室,,13,118,1160001,,,,,,,2024-12-16,1,,,,,ケイショウ,0
56,1011603004550,新規,0,2024-12-16,2024-12-16,Ｋｒｉｓｈｎａ　Ｔａｋａｓａｋｉ合同会社,,合同会社,東京都,練馬区,関町北５丁目１０－３１,,13,120,1770051,,,,,,,2024-12-16,1,,,,,クリシュナタカサキ,0
57,1011801045297,新規,0,2024-12-16,2024-12-16,株式会社レジリエンス,,株式会社,東京都,足立区,六町４丁目６番１７号グランドソレーユ１０３,,13,121,1210073,,,,,,,2024-12-16,1,,,,,レジリエンス,0
63,1012403006877,新規,0,2024-12-16,2024-12-16,合同会社ＮＥＷ　ＯＣＥＡＮ’Ｓ　ＣＡＦＥ,,合同会社,東京都,三鷹市,上連雀８丁目１番５号,,13,204,1810012,,,,,,,2024-12-16,1,,,,,ニューオーシャンズカフェ,0
68,1013301053508,新規,0,2024-12-16,2024-12-16,オージーアクティブ株式会社,,株式会社,東京都,豊島区,東池袋４丁目２５番１２号,,13,116,1700013,,,,,,,2024-12-16,1,,,,,オージーアクティブ,0
69,1013301053532,新規,0,2024-12-16,2024-12-16,株式会社ＦＯＬＫＳ,,株式会社,東京都,豊島区,西池袋２丁目６番２２号,,13,116,1710021,,,,,,,2024-12-16,1,,,,,フォークス,0
79,1021001083997,新規,0,2024-12-16,2024-12-16,ＳＴｏｎｅ株式会社,,株式会社,神奈川県,相模原市緑区,二本松２丁目５０番１３号,,14,151,2520137,,,,,,,2024-12-16,1,,,,,エスティーワン,0
80,1021001084005,新規,0,2024-12-16,2024-12-16,アップシータ株式会社,,株式会社,神奈川県,藤沢市,鵠沼海岸６丁目１０番５号,,14,205,2510037,,,,,,,2024-12-16,1,,,,,アップシータ,0
81,1021001084013,新規,0,2024-12-16,2024-12-16,株式会社ＹＳＫ,,株式会社,神奈川県,横須賀市,武１丁目１５番１１号,,14,201,2380313,,,,,,,2024-12-16,1,,,,,ワイエスケー,0
84,1021005013240,新規,0,2024-12-16,2024-12-16,一般社団法人ノアの家,,その他の設立登記法人,神奈川県,相模原市緑区,三井７０１番地６,,14,151,2520151,,,,,,,2024-12-16,1,,,,,ノアノイエ,0
91,1030001163932,新規,0,2024-12-16,2024-12-16,完治邦株式会社,,株式会社,埼玉県,熊谷市,新堀１０７１番地３,,11,202,3600841,,,,,,,2024-12-16,1,,,,,カンジホウ,0
92,1030001163965,新規,0,2024-12-16,2024-12-16,株式会社Ｎｏｖｅｒａｃｔ,,株式会社,埼玉県,川越市,小仙波町１丁目２１番地４,,11,201,3500036,,,,,,,2024-12-16,1,,,,,ノベラクト,0
106,1040001136557,新規,0,2024-12-16,2024-12-16,株式会社ＪＯＹＮＩＱ,,株式会社,千葉県,松戸市,上矢切１４６２番地の１０,,12,207,2710094,,,,,,,2024-12-16,1,,,,,ジョイニック,0
111,1040003026392,新規,0,2024-12-16,2024-12-16,合同会社ＳＵＣ観光開発,,合同会社,千葉県,松戸市,五香３丁目２６番地２８,,12,207,2702213,,,,,,,2024-12-16,1,,,,,エスユーシーカンコウカイハツ,0
118,1060001037729,新規,0,2024-12-16,2024-12-16,株式会社スカイブルー,,株式会社,栃木県,足利市,山川町５２０番地５,,09,202,3260021,,,,,,,2024-12-16,1,,,,,スカイブルー,0
126,1080101025177,新規,0,2024-12-16,2024-12-16,株式会社伊豆ＭＡＳＨ　ＢＡＳＥ,,株式会社,静岡県,伊豆の国市,古奈２６２番地の１５,,22,225,4102201,,,,,,,2024-12-16,1,,,,,イズマッシュベース,0
127,1090001019047,新規,0,2024-12-16,2024-12-16,ティーハック株式会社,,株式会社,山梨県,上野原市,上野原４６２番地６,,19,212,4090112,,,,,,,2024-12-16,1,,,,,ティーハック,0
128,1090003002694,新規,0,2024-12-16,2024-12-16,ＳＫハウス合同会社,,合同会社,山梨県,甲府市,湯村３丁目４７８番地１５３,,19,201,4000073,,,,,,,2024-12-16,1,,,,,エスケイハウス,0
140,1120001270868,新規,0,2024-12-16,2024-12-16,株式会社プエルト,,株式会社,大阪府,大阪市西区,阿波座２丁目２番１８号,,27,106,5500011,,,,,,,2024-12-16,1,,,,,プエルト,0
141,1120001271057,新規,0,2024-12-16,2024-12-16,株式会社オモウをカタチに,,株式会社,大阪府,大阪市浪速区,桜川１丁目２番１８－４０７号,,27,111,5560022,,,,,,,2024-12-16,1,,,,,オモウヲカタチニ,0
142,1120001271081,新規,0,2024-12-16,2024-12-16,株式会社Ｓ＆Ｆ,,株式会社,大阪府,大阪市西成区,萩之茶屋２丁目８－３ハイツニューコンパ７０９号,,27,122,5570004,,,,,,,2024-12-16,1,,,,,エスアンドエフ,0
143,1120001271098,新規,0,2024-12-16,2024-12-16,株式会社ＲＫＭ,,株式会社,大阪府,大阪市天王寺区,味原町１番１７号プラスパーハイツ５０５号,,27,109,5430023,,,,,,,2024-12-16,1,,,,,アールケイエム,0
144,1120001271123,新規,0,2024-12-16,2024-12-16,株式会社和徳,,株式会社,大阪府,大阪市西区,京町堀３丁目２番２６－６０１号,,27,106,5500003,,,,,,,2024-12-16,1,,,,,ワトク,0
149,1120101070747,新規,0,2024-12-16,2024-12-16,株式会社ＹＫＮ,,株式会社,大阪府,泉南郡熊取町,五門東１丁目１０番１７－４号,,27,361,5900414,,,,,,,2024-12-16,1,,,,,ユウキニヤク,0
150,1120101070755,新規,0,2024-12-16,2024-12-16,株式会社楓,,株式会社,大阪府,堺市堺区,中瓦町１丁３番１４号地下１階,,27,141,5900077,,,,,,,2024-12-16,1,,,,,カエデ,0
151,1120103006195,新規,0,2024-12-16,2024-12-16,瑞箭合同会社,,合同会社,大阪府,堺市美原区,南余部２９７番地９,,27,147,5870052,,,,,,,2024-12-16,1,,,,,ズイセン,0
160,1122001038741,新規,0,2024-12-16,2024-12-16,株式会社ＳＨＩＮＥ　ＣＯＵＲＡＧＥ,,株式会社,大阪府,八尾市,木の本３丁目２２番地の７,,27,212,5810044,,,,,,,2024-12-16,1,,,,,シャインカーレッジ,0
161,1122003003066,新規,0,2024-12-16,2024-12-16,ＴＡＫＡＭＩ　Ｆａｓｈｉｏｎ合同会社,,合同会社,大阪府,八尾市,高美町４丁目２番８号,,27,212,5810017,,,,,,,2024-12-16,1,,,,,タカミファッション,0
164,1130001078600,新規,0,2024-12-16,2024-12-16,株式会社ＫＩＣＲＯＳＳ,,株式会社,京都府,京都市東山区,大和大路通四条下る２丁目亀井町３８－１,,26,105,6050803,,,,,,,2024-12-16,1,,,,,キクロス,0
168,1130003010081,新規,0,2024-12-16,2024-12-16,合同会社ＣＯＳＭＯＳ．Ｒ,,合同会社,京都府,綴喜郡宇治田原町,大字岩山小字隠谷２６番地の１３,,26,344,6100261,,,,,,,2024-12-16,1,,,,,コスモスアール,0
180,1140005027305,新規,0,2024-12-16,2024-12-16,医療法人社団合田歯科医院,,その他の設立登記法人,兵庫県,丹波市,春日町平松７１３番地１,,28,223,6694133,,,,,,,2024-12-16,1,,,,,ゴウダシカイイン,0
191,1180001164536,新規,0,2024-12-16,2024-12-16,ネクストサイバー通信株式会社,,株式会社,愛知県,尾張旭市,東大久手町１丁目７番地１２,,23,226,4880003,,,,,,,2024-12-16,1,,,,,ネクストサイバーツウシン,0
192,1180001164544,新規,0,2024-12-16,2024-12-16,Ｒｏｆ株式会社,,株式会社,愛知県,春日井市,下条町３丁目１０番地２４ラズヴェリー２０２号,,23,206,4860923,,,,,,,2024-12-16,1,,,,,ロフ,0
193,1180003027740,新規,0,2024-12-16,2024-12-16,合同会社ハッピー,,合同会社,愛知県,名古屋市瑞穂区,汐路町４丁目３パールレジデンス汐路町５０２号,,23,108,4670003,,,,,,,2024-12-16,1,,,,,ハッピー,0
199,1190001031867,新規,0,2024-12-16,2024-12-16,株式会社グラリバ７,,株式会社,三重県,津市,観音寺町１０４２番地９,,24,201,5140062,,,,,,,2024-12-16,1,,,,,グラリバセブン,0
207,1220003003910,新規,0,2024-12-16,2024-12-16,合同会社ＮＯＴＯＺＡＫＵＲＡ,,合同会社,石川県,羽咋郡志賀町,米浜ト１４－１,,17,384,9250131,,,,,,,2024-12-16,1,,,,,ノトザクラ,0
208,1230001020659,新規,0,2024-12-16,2024-12-16,グナ人材サポート株式会社,,株式会社,富山県,射水市,庄西町２丁目１４番１４号,,16,211,9340001,,,,,,,2024-12-16,1,,,,,グナジンザイサポート,0
219,1290001108283,新規,0,2024-12-16,2024-12-16,株式会社ＷＴＡ,,株式会社,福岡県,福岡市博多区,南本町１丁目２番１３－１０１号,,40,132,8120883,,,,,,,2024-12-16,1,,,,,ダブルティーエー,0
220,1290001108309,新規,0,2024-12-16,2024-12-16,株式会社ｓｈｉｎｔｅｃｈ,,株式会社,福岡県,福岡市博多区,博多駅前１丁目２３番２号ＰａｒｋＦｒｏｎｔ博多駅前１丁目５Ｆ－Ｂ,,40,132,8120011,,,,,,,2024-12-16,1,,,,,シンテック,0
221,1290001108333,新規,0,2024-12-16,2024-12-16,株式会社Ｃｒｅｅｘｅｃｕｔｉｖｅ　Ｌｉｎｋｓ,,株式会社,福岡県,福岡市中央区,薬院３丁目１６番２６号西鉄薬院ビル５Ｆ,,40,133,8100022,,,,,,,2024-12-16,1,,,,,クリゼクティブリンクス,0
223,1300003002210,新規,0,2024-12-16,2024-12-16,合同会社しん,,合同会社,佐賀県,三養基郡基山町,大字宮浦３８１番地１０,,41,341,8410204,,,,,,,2024-12-16,1,,,,,シン,0
224,1330001032735,新規,0,2024-12-16,2024-12-16,株式会社井上製茶,,株式会社,熊本県,天草市,枦宇土町１７５７,,43,215,8630045,,,,,,,2024-12-16,1,,,,,イノウエセイチャ,0
226,1330005010852,新規,0,2024-12-16,2024-12-16,一般社団法人社会保障研究機構,,その他の設立登記法人,熊本県,熊本市中央区,上林町３番４９－２０４号,,43,101,8600847,,,,,,,2024-12-16,1,,,,,シャカイホショウケンキュウキコウ,0
231,1370003006857,新規,0,2024-12-16,2024-12-16,合同会社カイエン,,合同会社,宮城県,遠田郡涌谷町,字一本柳２３２高良住宅１号,,04,501,9870136,,,,,,,2024-12-16,1,,,,,,0
235,1390001017821,新規,0,2024-12-16,2024-12-16,恵住設株式会社,,株式会社,山形県,山形市,瀬波３丁目４番２０号,,06,201,9900881,,,,,,,2024-12-16,1,,,,,ケイジュウセツ,0
242,1430001093263,新規,0,2024-12-16,2024-12-16,株式会社Ａ‐１＆ＯＧ,,株式会社,北海道,余市郡余市町,山田町６３５番地１１,,01,408,0460012,,,,,,,2024-12-16,1,,,,,エーワンアンドオージー,0
243,1430001093271,新規,0,2024-12-16,2024-12-16,佳源株式会社,,株式会社,北海道,浦河郡浦河町,荻伏町１５０番地,,01,607,0593451,,,,,,,2024-12-16,1,,,,,カゲン,0
245,1430003017071,新規,0,2024-12-16,2024-12-16,Ｈｏｋｋａｉｄｏ　Ａｄｖｅｎｔｕｒｅ　Ｒｅｎｔａｌｓ合同会社,,合同会社,北海道,虻田郡倶知安町,字瑞穂３７７番地１３,,01,400,0440067,,,,,,,2024-12-16,1,,,,,ホッカイドウアドベンチャーレンタルズ,0
246,1460001005959,新規,0,2024-12-16,2024-12-16,株式会社ビケイ・ウェルネス,,株式会社,北海道,釧路市,新富士町６丁目２番１０号,,01,206,0840904,,,,,,,2024-12-16,1,,,,,ビケイウェルネス,0
247,1460003001023,新規,0,2024-12-16,2024-12-16,Ｙｏｕｒ　Ｆｕｎ合同会社,,合同会社,北海道,阿寒郡鶴居村,字久著呂原野北二十七線東１７番地８,,01,667,0851200,,,,,,,2024-12-16,1,,,,,ユアファン,0
248,1460101007640,新規,0,2024-12-16,2024-12-16,株式会社林ホールディングス,,株式会社,北海道,帯広市,西一条南１１丁目１９番地１,,01,207,0800011,,,,,,,2024-12-16,1,,,,,ハヤシホールディングス,0
249,1460303000848,新規,0,2024-12-16,2024-12-16,プエンテンス合同会社,,合同会社,北海道,北見市,常呂町字常呂５７８番地１０,,01,208,0930210,,,,,,,2024-12-16,1,,,,,プエンテンス,0
254,1700150116978,新規,0,2024-12-16,2023-06-08,魚津市下中島地域振興会,,その他,富山県,魚津市,慶野１７２－２,,16,204,9370852,,,,,,,2023-06-08,1,,,,,ウオヅシシモナカジマチイキシンコウカイ,0
255,1700150127769,新規,0,2024-12-16,2024-12-16,Ｓｔｕｄｉｏ　Ｐｒｉｓｍ　Ｃｏ．，Ｌｔｄ．,,外国会社等,,,,,,,,８２，Ｓａｎｇａｍｓａｎ－ｒｏ，Ｍａｐｏ－ｇｕ，Ｓｅｏｕｌ，Ｒｅｐｕｂｌｉｃ　ｏｆ　Ｋｏｒｅａ,,,,,,2024-12-16,1,,,,,スタジオプリズム,0
256,1700150128263,新規,0,2024-12-16,2024-12-16,江蘇翔天国際経済技術合作有限公司,,外国会社等,岐阜県,岐阜市,加納西広江町２丁目１１－１１,,21,201,5008418,中華人民共和国江蘇省宿遷市宿城区中央国際ショッピングモール総合楼６層６０６号,,,,,,2024-12-16,1,,,,,コウソシヨウテンコクサイケイザイギジユツガツサクユウゲンコウシ,0
264,2010001250624,新規,0,2024-12-16,2024-12-16,株式会社神田會,00137340,株式会社,東京都,中央区,銀座６丁目１３番１６号銀座ＷａｌｌビルＵＣＦ５階,,13,102,1040061,,,,,,,2024-12-16,1,,,,,カンダカイ,0
265,2010001250698,新規,0,2024-12-16,2024-12-16,株式会社雪ＣＨＯ,,株式会社,東京都,中央区,銀座１丁目１２番４号Ｎ＆Ｅ・ＢＬＤ．６Ｆ,,13,102,1040061,,,,,,,2024-12-16,1,,,,,ユキチョウ,0
266,2010001250715,新規,0,2024-12-16,2024-12-16,ＥＰＳ株式会社,,株式会社,東京都,中央区,日本橋本町４丁目７番１０号エイチアールネット日本橋ビル４階,,13,102,1030023,,,,,,,2024-12-16,1,,,,,イーピーエス,0
269,2010003045774,新規,0,2024-12-16,2024-12-16,マウイＮｏ．３合同会社,,合同会社,東京都,千代田区,丸の内１丁目９番２号グラントウキョウサウスタワー１７階１７０５区,,13,101,1000005,,,,,,,2024-12-16,1,,,,,マウイナンバースリー,0
278,2010401187012,新規,0,2024-12-16,2024-12-16,ビジネスインテグレート株式会社,,株式会社,東京都,港区,北青山１丁目３番１号アールキューブ青山３階,,13,103,1070061,,,,,,,2024-12-16,1,,,,,ビジネスインテグレート,0
279,2010401187053,新規,0,2024-12-16,2024-12-16,ＳＲＳＴ株式会社,,株式会社,東京都,港区,赤坂９丁目１番７号赤坂レジデンシャルホテル３５５,,13,103,1070052,,,,,,,2024-12-16,1,,,,,エスアールエスティー,0
281,2010403034014,新規,0,2024-12-16,2024-12-16,プレスナジャパン合同会社,,合同会社,東京都,港区,南麻布５丁目１４－４ウェリス有栖川５０４号,,13,103,1060047,,,,,,,2024-12-16,1,,,,,プレスナジャパン,0
282,2010405023898,新規,0,2024-12-16,2024-12-16,ＬＪＤＣ　Ｈｏｒｉｚｏｎ一般社団法人,,その他の設立登記法人,東京都,港区,六本木１丁目６番１号泉ガーデンタワー１２階,,13,103,1060032,,,,,,,2024-12-16,1,,,,,エルジェーディーシーホライゾン,0
284,2010601066461,新規,0,2024-12-16,2024-12-16,株式会社ＨＭ,,株式会社,東京都,江東区,豊洲６丁目２番１１―１２２５号,,13,108,1350061,,,,,,,2024-12-16,1,,,,,エイチエム,0
293,2011001166257,新規,0,2024-12-16,2024-12-16,株式会社ｓｃｈｉｌｌ,,株式会社,東京都,渋谷区,神南１丁目１１番４号ＦＰＧリンクス神南５階,,13,113,1500041,,,,,,,2024-12-16,1,,,,,シル,0
294,2011001166372,新規,0,2024-12-16,2024-12-16,株式会社ラジチカ,,株式会社,東京都,目黒区,中目黒５丁目７番９号,,13,110,1530061,,,,,,,2024-12-16,1,,,,,ラジチカ,0
296,2011003020560,新規,0,2024-12-16,2024-12-16,ＮＥＸＴ合同会社,,合同会社,東京都,渋谷区,神宮前３丁目１８番６号ストーリア神宮前１０３,,13,113,1500001,,,,,,,2024-12-16,1,,,,,ネクスト,0
298,2011101109925,新規,0,2024-12-16,2024-12-16,株式会社スマイリア,,株式会社,東京都,新宿区,荒木町２２番地,,13,104,1600007,,,,,,,2024-12-16,1,,,,,スマイリア,0
304,2011501031472,新規,0,2024-12-16,2024-12-16,亜洲都市開発株式会社,,株式会社,東京都,荒川区,町屋３丁目２４番２号面川ビル３１３号室,,13,118,1160001,,,,,,,2024-12-16,1,,,,,アシュウトシカイハツ,0
307,2011801045305,新規,0,2024-12-16,2024-12-16,日建ハウス株式会社,,株式会社,東京都,葛飾区,小菅４丁目１４番７号,,13,122,1240001,,,,,,,2024-12-16,1,,,,,ニッケンハウス,0
311,2012405005067,新規,0,2024-12-16,2024-12-16,一般社団法人Ａｐｏｓｔｏｌｉｃ　Ｊａｐａｎ,,その他の設立登記法人,東京都,武蔵野市,御殿山１丁目７－１８,,13,203,1800005,,,,,,,2024-12-16,1,,,,,アポストリックジャパン,0
313,2013301053515,新規,0,2024-12-16,2024-12-16,京川株式会社,,株式会社,東京都,豊島区,駒込３丁目１番３号,,13,116,1700003,,,,,,,2024-12-16,1,,,,,キョウカワ,0
322,2020001160608,新規,0,2024-12-16,2024-12-16,ＳＡＫＵＲＡ　Ａｕｔｏ株式会社,,株式会社,神奈川県,横浜市保土ケ谷区,権太坂３丁目２１番１号,,14,106,2400026,,,,,,,2024-12-16,1,,,,,サクラオート,0
324,2020003027409,新規,0,2024-12-16,2024-12-16,合同会社Ｊ,,合同会社,神奈川県,横浜市泉区,和泉中央南３丁目２５－１６,,14,116,2450023,,,,,,,2024-12-16,1,,,,,ジェイ,0
325,2020003027441,新規,0,2024-12-16,2024-12-16,ウェルバイオ合同会社,,合同会社,神奈川県,横浜市中区,北仲通５丁目５７－２－１１１２,,14,104,2310003,,,,,,,2024-12-16,1,,,,,ウェルバイオ,0
330,2021001084012,新規,0,2024-12-16,2024-12-16,エムズ株式会社,,株式会社,神奈川県,藤沢市,善行１丁目２６番２号,,14,205,2510871,,,,,,,2024-12-16,1,,,,,エムズ,0
331,2021001084020,新規,0,2024-12-16,2024-12-16,株式会社くげぬま,,株式会社,神奈川県,藤沢市,鵠沼海岸７丁目５番９号,00137342,14,205,2510037,,,,,,,2024-12-16,1,,,,,クゲヌマ,0
333,2021003015345,新規,0,2024-12-16,2024-12-16,ぽらいとりーＬＩＦＥ合同会社,,合同会社,神奈川県,相模原市緑区,大島７９０番地４,,14,151,2520135,,,,,,,2024-12-16,1,,,,,ポライトリーライフ,0
334,2021003015353,新規,0,2024-12-16,2024-12-16,合同会社湘南あぐり＆ファーム,,合同会社,神奈川県,平塚市,根坂間８３８―２,,14,203,2540904,,,,,,,2024-12-16,1,,,,,ショウナンアグリアンドファーム,0
338,2030001163964,新規,0,2024-12-16,2024-12-16,株式会社なかよしグループ,,株式会社,埼玉県,川口市,芝塚原２丁目８番２２号,,11,203,3330856,,,,,,,2024-12-16,1,,,,,ナカヨシグループ,0
351,2040001136498,新規,0,2024-12-16,2024-12-16,株式会社さかまきフードビジネスサポート,,株式会社,千葉県,白井市,笹塚２丁目５－１－１２０４,,12,232,2701426,,,,,,,2024-12-16,1,,,,,サカマキフードビジネスサポート,0
352,2040001136564,新規,0,2024-12-16,2024-12-16,株式会社ＱＣＦ,,株式会社,千葉県,浦安市,高洲５丁目１番Ｆ－１０６号レジアスフォート新浦安,,12,227,2790023,,,,,,,2024-12-16,1,,,,,キューシーエフ,0
353,2040001136572,新規,0,2024-12-16,2024-12-16,秦大投資開発株式会社,,株式会社,千葉県,木更津市,ほたる野１丁目２１番地５エスポワールほたる野４０３,,12,206,2920038,,,,,,,2024-12-16,1,,,,,シンダイトウシカイハツ,0
356,2040003026391,新規,0,2024-12-16,2024-12-16,ＰＮリサイクル合同会社,,合同会社,千葉県,柏市,根戸４６９番地１７,,12,217,2770831,,,,,,,2024-12-16,1,,,,,ピーエヌリサイクル,0
357,2040005022579,新規,0,2024-12-16,2024-12-16,一般社団法人特別養子縁組家庭支援団体Ｏｒｉｇｉｎ,,その他の設立登記法人,千葉県,四街道市,下志津新田２５１４番地１５０（マーケリーＤ２０１号）,,12,228,2840006,,,,,,,2024-12-16,1,,,,,トクベツヨウシエングミカテイシエイダンタイオリジン,0
359,2050001055879,新規,0,2024-12-16,2024-12-16,株式会社創建企画,,株式会社,茨城県,笠間市,橋爪２５２番地１,,08,216,3091721,,,,,,,2024-12-16,1,,,,,ソウケンキカク,0
361,2060001037728,新規,0,2024-12-16,2024-12-16,株式会社エアリス,,株式会社,栃木県,真岡市,長田１丁目２番地９,,09,209,3214364,,,,,,,2024-12-16,1,,,,,エアリス,0
368,2070001042446,新規,0,2024-12-16,2024-12-16,天隆商事株式会社,,株式会社,群馬県,沼田市,横塚町１２０７番地,,10,206,3780002,,,,,,,2024-12-16,1,,,,,テンリュウショウジ,0
369,2070001042454,新規,0,2024-12-16,2024-12-16,株式会社Ｍ・Ｕコンサルティング,,株式会社,群馬県,渋川市,八木原４１５番地１,,10,208,3770003,,,,,,,2024-12-16,1,,,,,エムユーコンサルティング,0
378,2100003007914,新規,0,2024-12-16,2024-12-16,合同会社信州学生Ｕ・Ｉターンプロジェクト,,合同会社,長野県,松本市,波田９８５０－９,,20,202,3901401,,,,,,,2024-12-16,1,,,,,シンシュウガクセイユーアイターンプロジェクト,0
387,2120001271023,新規,0,2024-12-16,2024-12-16,Ｄａｒｋ　ｈｏｒｓｅ　ｐｒｉｎｃｅｓｓ株式会社,,株式会社,大阪府,大阪市中央区,松屋町９番２０号ローレルステート松屋町７０４Ｂ,,27,128,5420067,,,,,,,2024-12-16,1,,,,,ダークハウスプリンセス,0
388,2120001271048,新規,0,2024-12-16,2024-12-16,安達株式会社,,株式会社,大阪府,大阪市西成区,橘１丁目１１－２８オフィスポート橘４１２号室,,27,122,5570051,,,,,,,2024-12-16,1,,,,,アダチ,0
389,2120001271064,新規,0,2024-12-16,2024-12-16,日聯藤森医薬株式会社,,株式会社,大阪府,枚方市,津田北町２丁目３６番６－１Ｆ,,27,210,5730121,,,,,,,2024-12-16,1,,,,,ニチレンフジモリイヤク,0
390,2120001271097,新規,0,2024-12-16,2024-12-16,株式会社エンデュランストレーディング,,株式会社,大阪府,大阪市生野区,新今里２丁目８番８号ヒューマニーマンション３０１号室,,27,116,5440001,,,,,,,2024-12-16,1,,,,,エンデュランストレーディング,0
391,2120001271114,新規,0,2024-12-16,2024-12-16,安達車載電子株式会社,,株式会社,大阪府,大阪市中央区,安土町２丁目３番１３号,,27,128,5410052,,,,,,,2024-12-16,1,,,,,アダチシャサイデンシ,0
393,2120103006194,新規,0,2024-12-16,2024-12-16,合同会社レガーレ,,合同会社,大阪府,泉大津市,池浦町２丁目１１番１７号,,27,206,5950024,,,,,,,2024-12-16,1,,,,,レガーレ,0
397,2120901050170,新規,0,2024-12-16,2024-12-16,株式会社Ｃｌｅａｒ大阪,,株式会社,大阪府,豊中市,熊野町２丁目９番６４の２号,,27,203,5600014,,,,,,,2024-12-16,1,,,,,クリアオオサカ,0
411,2140001136694,新規,0,2024-12-16,2024-12-16,株式会社輝土木工業,,株式会社,兵庫県,神戸市西区,中野２丁目１３番１８号,,28,111,6512136,,,,,,,2024-12-16,1,,,,,テルドボクコウギョウ,0
412,2140001136736,新規,0,2024-12-16,2024-12-16,クロヌドゥール・レソール株式会社,,株式会社,兵庫県,神戸市中央区,磯上通３丁目１番２０号レジディア神戸磯上５１４号,,28,110,6510086,,,,,,,2024-12-16,1,,,,,クロヌドゥールレソール,0
417,2140005027295,新規,0,2024-12-16,2024-12-16,一般社団法人いちいち,,その他の設立登記法人,兵庫県,小野市,万勝寺町字南山２６８番２５８,,28,218,6751311,,,,,,,2024-12-16,1,,,,,,0
421,2160005011363,新規,0,2024-12-16,2024-12-16,一般社団法人マルチスイッチ,,その他の設立登記法人,滋賀県,長浜市,余呉町椿坂２４６番地,,25,203,5290532,,,,,,,2024-12-16,1,,,,,マルチスイッチ,0
422,2180001164527,新規,0,2024-12-16,2024-12-16,安成株式会社,,株式会社,愛知県,名古屋市瑞穂区,洲山町１丁目１５番７－４Ｄ号室,,23,108,4670066,,,,,,,2024-12-16,1,,,,,アンセイ,0
423,2180001164543,新規,0,2024-12-16,2024-12-16,株式会社東海プロダクション,,株式会社,愛知県,一宮市,今伊勢町馬寄字福塚前１１番地１グローハイム１Ｆ号,,23,203,4910051,,,,,,,2024-12-16,1,,,,,,0
424,2180001164551,新規,0,2024-12-16,2024-12-16,株式会社球恵,,株式会社,愛知県,名古屋市西区,樋の口町１番１５号ホーワビル３階‐１２号,,23,104,4510034,,,,,,,2024-12-16,1,,,,,キュウケイ,0
428,2180003027723,新規,0,2024-12-16,2024-12-16,ひまわり合同会社,,合同会社,愛知県,名古屋市中区,丸の内２丁目１６番２１号ライオンズマンション丸の内４０３号室,,23,106,4600002,,,,,,,2024-12-16,1,,,,,ヒマワリ,0
436,2230003002332,新規,0,2024-12-16,2024-12-16,ＤＹ合同会社,,合同会社,富山県,砺波市,表町１０‐１０,,16,208,9391366,,,,,,,2024-12-16,1,,,,,ディーワイ,0
441,2280001009309,新規,0,2024-12-16,2024-12-16,ＧｏＧｅｎｋｉ株式会社,,株式会社,島根県,松江市,坂本町５２８番地,,32,201,6900813,,,,,,,2024-12-16,1,,,,,ゴゲンキ,0
466,2330005010851,新規,0,2024-12-16,2024-12-16,医療法人ＭＳＡ,,その他の設立登記法人,熊本県,熊本市東区,長嶺南１丁目６番５号,,43,102,8618039,,,,,,,2024-12-16,1,,,,,エムエスエー,0
475,2370001052043,新規,0,2024-12-16,2024-12-16,針生創建株式会社,,株式会社,宮城県,黒川郡大和町,もみじケ丘２丁目１０番地の４,,04,421,9813622,,,,,,,2024-12-16,1,,,,,ハリュウソウケン,0
477,2380001034981,新規,0,2024-12-16,2024-12-16,株式会社ＡＭＳ,,株式会社,福島県,福島市,飯野町字後川１８番地の１,,07,201,9601301,,,,,,,2024-12-16,1,,,,,エイエムエス,0
491,2430001093270,新規,0,2024-12-16,2024-12-16,株式会社Ａｉｌｅ,,株式会社,北海道,札幌市中央区,南二条西５丁目３１－１ＲＭＢ１ｄ．７０１,,01,101,0600062,,,,,,,2024-12-16,1,,,,,エール,0
502,2700150127875,新規,0,2024-12-16,2024-12-16,Ａｆｆｌｕｅｎｔ　Ｗｏｎｄｅｒｓ　Ｔｒａｄｉｎｇ　Ｌｔｄ,,外国会社等,,,,,,,,Ｌｅ　Ｓａｎａｌｅｌｅ　Ｃｏｍｐｌｅｘ，Ｇｏｌｄ－ＩＮ　Ｃｈａｍｂｅｒｓ，Ｖａｅａ　Ｓｔｒｅｅｔ，Ａｐｉａ，Ｓａｍｏａ,,,,,,2024-12-16,1,,,,,アフルエントワンダーズトレーデイングリミテツド,0
503,2700150128262,新規,0,2024-12-16,2024-12-16,ＺＡＩＮＡ　ＥＮＴＥＲＰＲＩＳＥＳ,,外国会社等,神奈川県,藤沢市,葛原１４０－２７,,14,205,2520822,スリランカ民主社会主義共和国、アクラナ、ウダウェリケティヤ３９０－１,,,,,,2024-12-16,1,,,,,ザイナエンタープライズ,0
511,3010001250689,新規,0,2024-12-16,2024-12-16,伊織商事株式会社,,株式会社,東京都,中央区,日本橋室町１丁目１１番１２号水野ビル７階,,13,102,1030022,,,,,,,2024-12-16,1,,,,,イオリショウジ,0
512,3010001250697,新規,0,2024-12-16,2024-12-16,インジニックス株式会社,,株式会社,東京都,千代田区,麹町２丁目６番７号Ｓｔａｒ　Ｂｕｉｌｄｉｎｇ５階,,13,101,1020083,,,,,,,2024-12-16,1,,,,,インジニックス,0
513,3010001250722,新規,0,2024-12-16,2024-12-16,スターリンク株式会社,,株式会社,東京都,千代田区,麹町４丁目１番５号,,13,101,1020083,,,,,,,2024-12-16,1,,,,,スターリンク,0
514,3010001250739,新規,0,2024-12-16,2024-12-16,コーンウォール・ニッポン・マネジメント株式会社,,株式会社,東京都,中央区,日本橋室町２丁目３番１号,,13,102,1030022,,,,,,,2024-12-16,1,,,,,コーンウォールニッポンマネジメント,0
515,3010001250763,新規,0,2024-12-16,2024-12-16,株式会社ヘイロウ,,株式会社,東京都,千代田区,外神田３丁目２番１３号山口ビルＢ１,,13,101,1010021,,,,,,,2024-12-16,1,,,,,ヘイロウ,0
516,3010001250771,新規,0,2024-12-16,2024-12-16,アクティヴホールディングス株式会社,,株式会社,東京都,千代田区,平河町２丁目１６番９号永田町グラスゲート６階ＡＣＡ株式会社内,,13,101,1020093,,,,,,,2024-12-16,1,,,,,アクティヴホールディングス,0
527,3010003045773,新規,0,2024-12-16,2024-12-16,マウイＮｏ．２合同会社,,合同会社,東京都,千代田区,丸の内１丁目９番２号グラントウキョウサウスタワー１７階１７０５区,,13,101,1000005,,,,,,,2024-12-16,1,,,,,マウイナンバーツー,0
528,3010003045798,新規,0,2024-12-16,2024-12-16,合同会社イオ,,合同会社,東京都,中央区,湊３丁目１番３－１００７号,,13,102,1040043,,,,,,,2024-12-16,1,,,,,イオ,0
529,3010005039278,新規,0,2024-12-16,2024-12-16,一般社団法人アムテック,,その他の設立登記法人,東京都,千代田区,有楽町１丁目６番４号千代田ビル７階,,13,101,1000006,,,,,,,2024-12-16,1,,,,,アムテック,0
532,3010401186871,新規,0,2024-12-16,2024-12-16,株式会社ライディ,,株式会社,東京都,港区,海岸１丁目６番１－１５０５号,,13,103,1050022,,,,,,,2024-12-16,1,,,,,ライディ,0
533,3010401187044,新規,0,2024-12-16,2024-12-16,株式会社リンリン,,株式会社,東京都,港区,芝浦１丁目６－４１－２７２０,,13,103,1050023,,,,,,,2024-12-16,1,,,,,リンリン,0
534,3010401187060,新規,0,2024-12-16,2024-12-16,株式会社ＮＧＫＳ,,株式会社,東京都,港区,虎ノ門４丁目３番１号城山トラストタワー２７階,,13,103,1050001,,,,,,,2024-12-16,1,,,,,エヌジーケーエス,0
539,3010901056500,新規,0,2024-12-16,2024-12-16,グランドテクノロジー株式会社,,株式会社,東京都,世田谷区,深沢２丁目１８―９―２,,13,112,1580081,,,,,,,2024-12-16,1,,,,,グランドテクノロジー,0
545,3011001166280,新規,0,2024-12-16,2024-12-16,株式会社ＨｅｒＴｅｃｈ,,株式会社,東京都,渋谷区,道玄坂１丁目１０番８号渋谷道玄坂東急ビル２階Ｃ,,13,113,1500043,,,,,,,2024-12-16,1,,,,,ハーテック,0
550,3011101109916,新規,0,2024-12-16,2024-12-16,パラダイス商事株式会社,,株式会社,東京都,新宿区,歌舞伎町１丁目１７番１３号新宿ピックペックビル９階,,13,104,1600021,,,,,,,2024-12-16,1,,,,,パラダイスショウジ,0
551,3011101109965,新規,0,2024-12-16,2024-12-16,株式会社ＬＵＭＥＮＡ,,株式会社,東京都,新宿区,大久保２丁目２９番２８－３０３号,,13,104,1690072,,,,,,,2024-12-16,1,,,,,ルメナ,0
557,3011701027897,新規,0,2024-12-16,2024-12-16,株式会社エネルギーシステム,,株式会社,東京都,江戸川区,西葛西６丁目１３番１２号,,13,123,1340088,,,,,,,2024-12-16,1,,,,,エネルギーシステム,0
558,3011703004052,新規,0,2024-12-16,2024-12-16,ＭＹＪ合同会社,,合同会社,東京都,江戸川区,上一色３丁目１１－３,,13,123,1330041,,,,,,,2024-12-16,1,,,,,エムワイジェイ,0
559,3011703004060,新規,0,2024-12-16,2024-12-16,新アセットマネジメント合同会社,,合同会社,東京都,江戸川区,平井６丁目５番５－７０７号シティハウス平井ブリーズレジデンス,,13,123,1320035,,,,,,,2024-12-16,1,,,,,シンアセットマネジメント,0
561,3011803006592,新規,0,2024-12-16,2024-12-16,合同会社ＫＮ　Ｅｘｐｒｅｓｓ,,合同会社,東京都,足立区,六町４丁目７番３６－１０６号,,13,121,1210073,,,,,,,2024-12-16,1,,,,,ケイエヌエクスプレス,0
565,3012701018606,新規,0,2024-12-16,2024-12-16,株式会社大和,,株式会社,東京都,東村山市,富士見町１丁目１－５５－Ａ２０２,,13,213,1890024,,,,,,,2024-12-16,1,,,,,ダイワ,0
567,3013301053489,新規,0,2024-12-16,2024-12-16,株式会社まつ屋,,株式会社,東京都,豊島区,千早２丁目１０番２０号,,13,116,1710044,,,,,,,2024-12-16,1,,,,,マツヤ,0
568,3013301053530,新規,0,2024-12-16,2024-12-16,ＮＨパートナーズ株式会社,,株式会社,東京都,豊島区,南池袋２丁目１４－１－２０４,,13,116,1710022,,,,,,,2024-12-16,1,,,,,エヌエイチパートナーズ,0
580,3021003015352,新規,0,2024-12-16,2024-12-16,合同会社愛の樹こぶしの家,,合同会社,神奈川県,足柄上郡中井町,松本１０２６番地１７,,14,361,2590155,,,,,,,2024-12-16,1,,,,,アイノキコブシノイエ,0
587,3030001163947,新規,0,2024-12-16,2024-12-16,株式会社ルパ・デ・ルナール,,株式会社,埼玉県,さいたま市大宮区,桜木町２丁目１６１番２号大宮ＹＫビル,,11,103,3300854,,,,,,,2024-12-16,1,,,,,ルパデルナール,0
588,3030001163963,新規,0,2024-12-16,2024-12-16,株式会社Ｆｕｓｉｏｎ,,株式会社,埼玉県,川口市,前川３丁目４３番３０号エクセラハイツ１０２,,11,203,3330842,,,,,,,2024-12-16,1,,,,,フュージョン,0
594,3030003025699,新規,0,2024-12-16,2024-12-16,ＬＡＮＧＵＡＧＥ　ＢＲＩＤＧＥ合同会社,,合同会社,埼玉県,草加市,氷川町２３－１リノスタイル草加２１０号,,11,221,3400034,,,,,,,2024-12-16,1,,,,,ランゲージブリッジ,0
595,3030005021977,新規,0,2024-12-16,2024-12-16,一般社団法人現成会福祉事業推進機構,,その他の設立登記法人,埼玉県,飯能市,大字永田字久保５３８番地１,,11,209,3570062,,,,,,,2024-12-16,1,,,,,ゲンセイカイフクシジギョウスイシンキコウ,0
600,3040001136530,新規,0,2024-12-16,2024-12-16,株式会社Ｗｅｉｓｅｒ,,株式会社,千葉県,市川市,本行徳１１－６カーサＮラランジャ１０１,,12,203,2720103,,,,,,,2024-12-16,1,,,,,ヴァイザー,0
601,3040001136555,新規,0,2024-12-16,2024-12-16,ブループリント株式会社,,株式会社,千葉県,千葉市中央区,登戸１丁目２番５号,,12,101,2600032,,,,,,,2024-12-16,1,,,,,ブループリント,0
602,3040001136563,新規,0,2024-12-16,2024-12-16,みらい不動産株式会社,,株式会社,千葉県,成田市,公津の杜２丁目３７番地２,,12,211,2860048,,,,,,,2024-12-16,1,,,,,ミライフドウサン,0
608,3060001037735,新規,0,2024-12-16,2024-12-16,浩成興業株式会社,,株式会社,栃木県,宇都宮市,西刑部町２４４３番地３,,09,201,3210917,,,,,,,2024-12-16,1,,,,,コウセイコウギョウ,0
613,3070003005706,新規,0,2024-12-16,2024-12-16,合同会社Ｒａｄｉａｎｃｅ,,合同会社,群馬県,前橋市,川曲町３０８番地１０,,10,201,3710823,,,,,,,2024-12-16,1,,,,,ラディアンス,0
631,3120001271047,新規,0,2024-12-16,2024-12-16,Ｋｏｄａ幸田商事株式会社,,株式会社,大阪府,大阪市中央区,船場中央２丁目２番５号船場センタービル５号館Ｂ１２９,,27,128,5410055,,,,,,,2024-12-16,1,,,,,コウダサキダショウジ,0
632,3120001271121,新規,0,2024-12-16,2024-12-16,株式会社ｓｕｇａｒ,,株式会社,大阪府,大阪市浪速区,日本橋４丁目１５－２０おおきにオタロードビル１０２,,27,111,5560005,,,,,,,2024-12-16,1,,,,,シュガー,0
635,3120003028148,新規,0,2024-12-16,2024-12-16,合同会社ｈａｐｐｙ　ｆｌｏｗｅｒ,,合同会社,大阪府,大阪市城東区,今福東２丁目７番２６号,,27,118,5360002,,,,,,,2024-12-16,1,,,,,ハッピーフラワー,0
636,3120003028164,新規,0,2024-12-16,2024-12-16,合同会社ＣＥＳＴ,,合同会社,大阪府,大阪市旭区,大宮４丁目１９番２号,,27,117,5350002,,,,,,,2024-12-16,1,,,,,セスト,0
637,3120005024657,新規,0,2024-12-16,2024-12-16,一般社団法人グリーフケア希望‐ＡＹＡ家族支援センター,,その他の設立登記法人,大阪府,大阪市阿倍野区,昭和町５丁目１０－２４西田辺駅前ビル２０５号,,27,119,5450011,,,,,,,2024-12-16,1,,,,,グリーフケアキボウアヤカゾクシエンセンター,0
639,3120101070761,新規,0,2024-12-16,2024-12-16,株式会社ユアーズ,,株式会社,大阪府,堺市東区,南野田３８３番地１ヴィラさかぐち１０１,,27,143,5998124,,,,,,,2024-12-16,1,,,,,ユアーズ,0
647,3130001078607,新規,0,2024-12-16,2024-12-16,株式会社エイリ,,株式会社,京都府,京都市山科区,御陵池堤町４５－１,,26,110,6078433,,,,,,,2024-12-16,1,,,,,エイリ,0
659,3140001136710,新規,0,2024-12-16,2024-12-16,株式会社ソフトメディアジャパン,,株式会社,兵庫県,尼崎市,水堂町１丁目２２番３３号ソレイユ立花２０５,,28,202,6610026,,,,,,,2024-12-16,1,,,,,ソフトメディアジャパン,0
660,3140001136735,新規,0,2024-12-16,2024-12-16,株式会社ＴＫパートナーズ,,株式会社,兵庫県,姫路市,勝原区熊見１２１番地１,,28,201,6711211,,,,,,,2024-12-16,1,,,,,ティケイパートナーズ,0
665,3140005027311,新規,0,2024-12-16,2024-12-16,医療法人まんまる,,その他の設立登記法人,兵庫県,小野市,市場町９２６－４６２,,28,218,6751327,,,,,,,2024-12-16,1,,,,,マンマル,0
666,3150001027751,新規,0,2024-12-16,2024-12-16,株式会社Ｈ＆Ｆクリエイトジャパン,,株式会社,奈良県,大和高田市,幸町４番８－４０５号ユニライフ大和高田,,29,202,6350015,,,,,,,2024-12-16,1,,,,,エイチアンドエフクリエイトジャパン,0
668,3150003003453,新規,0,2024-12-16,2024-12-16,合同会社ドラコム,,合同会社,奈良県,吉野郡大淀町,大字土田５０７番地の４７５,,29,442,6380811,,,,,,,2024-12-16,1,,,,,ドラコム,0
669,3160001026414,新規,0,2024-12-16,2024-12-16,日本アールイーＮＥＴ株式会社,,株式会社,滋賀県,大津市,本堅田４丁目１１番２８号,,25,201,5200242,,,,,,,2024-12-16,1,,,,,ニホンアールイーネット,0
671,3160003003361,新規,0,2024-12-16,2024-12-16,合同会社白木,,合同会社,滋賀県,高島市,安曇川町下小川２２３１の４,,25,212,5201223,,,,,,,2024-12-16,1,,,,,シラキ,0
679,3180003027722,新規,0,2024-12-16,2024-12-16,合同会社Ｆｕｎ　Ｃｒｅａｔｉｖｅ,,合同会社,愛知県,名古屋市名東区,名東本通３丁目３サンシャイン西山口３Ｂ,,23,115,4650087,,,,,,,2024-12-16,1,,,,,ファンクリエイティブ,0
685,3230001020657,新規,0,2024-12-16,2024-12-16,株式会社となみ野アグリサポート,,株式会社,富山県,砺波市,下中９８番地,,16,208,9391347,,,,,,,2024-12-16,1,,,,,トナミノアグリサポート,0
692,3280001009308,新規,0,2024-12-16,2024-12-16,株式会社Ａ,,株式会社,島根県,益田市,中島町ロ１８８番地２太平ビル１０１号室,,32,204,6980043,,,,,,,2024-12-16,1,,,,,エイ,0
696,3290001108281,新規,0,2024-12-16,2024-12-16,株式会社ＢＮＦ　ＪＡＰＡＮ,,株式会社,福岡県,福岡市中央区,薬院２丁目１４番２１－４０５号,,40,133,8100022,,,,,,,2024-12-16,1,,,,,ビーエヌエフジャパン,0
697,3290001108315,新規,0,2024-12-16,2024-12-16,アグリピア福岡株式会社,,株式会社,福岡県,糟屋郡久山町,大字久原９５５番地,,40,348,8112501,,,,,,,2024-12-16,1,,,,,アグリピアフクオカ,0
702,3320001020862,新規,0,2024-12-16,2024-12-16,株式会社アンフィニ,,株式会社,大分県,大分市,大字玉沢６８３番地の２,,44,201,8701155,,,,,,,2024-12-16,1,,,,,アンフィニ,0
704,3330001032741,新規,0,2024-12-16,2024-12-16,こらぼ熊本株式会社,,株式会社,熊本県,熊本市北区,高平１丁目２１番５２号,,43,105,8600085,,,,,,,2024-12-16,1,,,,,コラボクマモト,0
706,3360001034537,新規,0,2024-12-16,2024-12-16,株式会社ＧＡＩＮＡ,,株式会社,沖縄県,中頭郡北谷町,伊平２丁目２－１９エミフルテラス２０３,,47,326,9040102,,,,,,,2024-12-16,1,,,,,ガイナ,0
709,3360003014529,新規,0,2024-12-16,2024-12-16,合同会社ＫＹＥ,,合同会社,沖縄県,中頭郡西原町,字小波津５９１－４,,47,329,9030118,,,,,,,2024-12-16,1,,,,,ケーワイイー,0
710,3370003006855,新規,0,2024-12-16,2024-12-16,合同会社Ｙｓコーポレーション,,合同会社,宮城県,仙台市宮城野区,福室２丁目５番６０号サンヴューズ１０１,,04,102,9830005,,,,,,,2024-12-16,1,,,,,ワイズコーポレーション,0
716,3380001034989,新規,0,2024-12-16,2024-12-16,株式会社ＳＩＡＬ　ＴＲＡＤＩＮＧ,,株式会社,福島県,郡山市,安積町日出山字神明下４４番地の２,,07,203,9630101,,,,,,,2024-12-16,1,,,,,シアルトレイディング,0
727,3430001093286,新規,0,2024-12-16,2024-12-16,株式会社イノベ,,株式会社,北海道,札幌市中央区,北十一条西２２丁目１－２６,,01,101,0600011,,,,,,,2024-12-16,1,,,,,イノベ,0
729,3460003001021,新規,0,2024-12-16,2024-12-16,合同会社北海道賃貸住宅開発,,合同会社,北海道,釧路市,桜ケ岡３丁目４番１９号,,01,206,0850805,,,,,,,2024-12-16,1,,,,,ホッカイドウチンタイジュウタクカイハツ,0
731,3480001012679,新規,0,2024-12-16,2024-12-16,株式会社海オート,,株式会社,徳島県,鳴門市,撫養町木津５６４番地７ＧＲＡＣＥＦＵＬＣ１０１号,,36,202,7720004,,,,,,,2024-12-16,1,,,,,カイオート,0
733,3700150128261,新規,0,2024-12-16,2024-12-16,Ｐ．Ｐ．Ｃｏｒａｌ　Ｒｅｓｏｒｔ　Ｃｏ．，Ｌｔｄ．,,外国会社等,東京都,江東区,南砂２丁目３６番１０号光陽ビル３階,,13,108,1360076,タイ王国バンコク都チャトゥチャック区ラートヤオ地区、ンガムウォンワン通り、ソイ・タンプーヤンパホール８８番地,,,,,,2024-12-16,1,,,,,ピピコーラルリゾートリミテツド,0
744,4010001250639,新規,0,2024-12-16,2024-12-16,アクトプレス株式会社,,株式会社,東京都,中央区,日本橋室町１丁目１１番１２号日本橋水野ビル７階,,13,102,1030022,,,,,,,2024-12-16,1,,,,,アクトプレス,0
745,4010001250770,新規,0,2024-12-16,2024-12-16,熊下工業ホールディングス株式会社,,株式会社,東京都,千代田区,平河町２丁目１６番９号永田町グラスゲート６階ＡＣＡ株式会社内,,13,101,1020093,,,,,,,2024-12-16,1,,,,,クマシタコウギョウホールディングス,0
749,4010003045772,新規,0,2024-12-16,2024-12-16,モアナＮｏ．３合同会社,,合同会社,東京都,千代田区,丸の内１丁目９番２号グラントウキョウサウスタワー１７階１７０５区,,13,101,1000005,,,,,,,2024-12-16,1,,,,,モアナナンバースリー,0
758,4010401187010,新規,0,2024-12-16,2024-12-16,株式会社ＬＵＩ,,株式会社,東京都,港区,北青山１丁目３番１号アールキューブ青山３階,,13,103,1070061,,,,,,,2024-12-16,1,,,,,ルイ,0
759,4010401187019,新規,0,2024-12-16,2024-12-16,株式会社ＣＡＰＭＡＮ,,株式会社,東京都,港区,南青山６丁目１２番１０号ユニティ２Ｆ,,13,103,1070062,,,,,,,2024-12-16,1,,,,,キャップマン,0
760,4010401187027,新規,0,2024-12-16,2024-12-16,株式会社グローバル・アクシス,,株式会社,東京都,港区,三田５丁目１１番１０号,,13,103,1080073,,,,,,,2024-12-16,1,,,,,グローバルアクシス,0
764,4010403033996,新規,0,2024-12-16,2024-12-16,ＰＳ　Ｉｎｖｅｓｔｍｅｎｔｓ合同会社,,合同会社,東京都,港区,赤坂２丁目３番５号赤坂スターゲートプラザ１３階,,13,103,1070052,,,,,,,2024-12-16,1,,,,,ピーエスインベストメンツ,0
765,4010403034012,新規,0,2024-12-16,2024-12-16,ＬＪＤＣ　Ｈｏｒｉｚｏｎ合同会社,,合同会社,東京都,港区,六本木１丁目６番１号泉ガーデンタワー１２階,,13,103,1060032,,,,,,,2024-12-16,1,,,,,エルジェーディーシーホライゾン,0
766,4010405023871,新規,0,2024-12-16,2024-12-16,弁理士法人アイル知財事務所,,その他の設立登記法人,東京都,港区,赤坂２丁目１７番５５号,,13,103,1070052,,,,,,,2024-12-16,1,,,,,アイルチザイジムショ,0
768,4010501053269,新規,0,2024-12-16,2024-12-16,日本磨鉄図書株式会社,,株式会社,東京都,台東区,浅草３丁目２１－９トーラス浅草２２０号室,,13,106,1110032,,,,,,,2024-12-16,1,,,,,ニホンマテツトショ,0
774,4010603011257,新規,0,2024-12-16,2024-12-16,ＲＥＥＴＳ合同会社,,合同会社,東京都,墨田区,押上３丁目２番１号サウンド押上７０３,,13,107,1310045,,,,,,,2024-12-16,1,,,,,リーツ,0
779,4010705003714,新規,0,2024-12-16,2024-12-16,一般社団法人公蘭会,,その他の設立登記法人,東京都,品川区,西五反田２丁目２８番１０号ＦＰ五反田ビル,,13,109,1410031,,,,,,,2024-12-16,1,,,,,クランカイ,0
782,4010903009579,新規,0,2024-12-16,2024-12-16,合同会社ビジョンファーム,,合同会社,東京都,世田谷区,給田４丁目２２番１５－２０４号,,13,112,1570064,,,,,,,2024-12-16,1,,,,,ビジョンファーム,0
785,4011001166247,新規,0,2024-12-16,2024-12-16,株式会社４４２,,株式会社,東京都,目黒区,下目黒２丁目４番４－６０３号ディームス目黒行人坂,,13,110,1530064,,,,,,,2024-12-16,1,,,,,ヨンヨンニ,0
786,4011001166263,新規,0,2024-12-16,2024-12-16,株式会社ｃｈｒｉｓｔ,,株式会社,東京都,渋谷区,広尾５丁目１４番２号,,13,113,1500012,,,,,,,2024-12-16,1,,,,,クライスト,0
787,4011001166362,新規,0,2024-12-16,2024-12-16,ＯＮ　Ａｃｃｏｕｎｔｉｎｇ株式会社,,株式会社,東京都,渋谷区,渋谷２丁目１９番１５号宮益坂ビルディング６０９,,13,113,1500002,,,,,,,2024-12-16,1,,,,,オーエヌアカウンティング,0
793,4011101109923,新規,0,2024-12-16,2024-12-16,洗乾大和株式会社,,株式会社,東京都,新宿区,高田馬場３丁目１６番２１号,,13,104,1690075,,,,,,,2024-12-16,1,,,,,センカンヤマト,0
794,4011103015302,新規,0,2024-12-16,2024-12-16,合同会社共創ラボラトリーズ,,合同会社,東京都,新宿区,高田馬場３丁目１番５号サンパティオ高田馬場３０９号室,,13,104,1690075,,,,,,,2024-12-16,1,,,,,キョウソウラボラトリーズ,0
803,4011601028276,新規,0,2024-12-16,2024-12-16,株式会社ＵＰ＆ＳＴＲＥＡＭ,,株式会社,東京都,練馬区,土支田３丁目１－１３,,13,120,1790076,,,,,,,2024-12-16,1,,,,,アップアンドストリーム,0
807,4012305002113,新規,0,2024-12-16,2024-12-16,一般社団法人いたるサポート,,その他の設立登記法人,東京都,町田市,原町田３丁目２番８号,,13,209,1940013,,,,,,,2024-12-16,1,,,,,イタルサポート,0
809,4012701018605,新規,0,2024-12-16,2024-12-16,株式会社Ｔｈｒｅｅ　Ｂｉｒｄｓ,,株式会社,東京都,小平市,小川町１丁目２４０６番地倉庫Ｂ,,13,211,1870032,,,,,,,2024-12-16,1,,,,,スリーバーズ,0
815,4013301053521,新規,0,2024-12-16,2024-12-16,明忻貿易株式会社,,株式会社,東京都,豊島区,北大塚３丁目４５番７－３０３号,,13,116,1700004,,,,,,,2024-12-16,1,,,,,メイキンボウエキ,0
818,4020001160572,新規,0,2024-12-16,2024-12-16,株式会社Ｗ．Ｌ．Ｆ,,株式会社,神奈川県,川崎市幸区,南加瀬４丁目２番６号,,14,132,2120055,,,,,,,2024-12-16,1,,,,,ウルフ,0
819,4020001160589,新規,0,2024-12-16,2024-12-16,Ｍ＆Ｍ株式会社,,株式会社,神奈川県,川崎市中原区,小杉町２丁目２２８番地１Ｗ５３１０,,14,133,2110063,,,,,,,2024-12-16,1,,,,,エムアンドエム,0
823,4020003027415,新規,0,2024-12-16,2024-12-16,ＰＨＡＴ　ＤＵＣ合同会社,,合同会社,神奈川県,川崎市川崎区,大島上町２５番２号,,14,131,2100836,,,,,,,2024-12-16,1,,,,,パットドウク,0
824,4020003027423,新規,0,2024-12-16,2024-12-16,ｖａｗｎｄｙ合同会社,,合同会社,神奈川県,横浜市南区,大岡１丁目４４番３号,,14,105,2320061,,,,,,,2024-12-16,1,,,,,ヴァウンディ,0
827,4021003015319,新規,0,2024-12-16,2024-12-16,合同会社クレリア,,合同会社,神奈川県,茅ヶ崎市,中海岸３丁目５番６０号,,14,207,2530055,,,,,,,2024-12-16,1,,,,,クレリア,0
832,4030001163921,新規,0,2024-12-16,2024-12-16,株式会社ＨＩＧＨＬＩＦＥ,,株式会社,埼玉県,志木市,中宗岡１丁目８番３４号フラッツたなか２０３号,,11,228,3530002,,,,,,,2024-12-16,1,,,,,ハイライフ,0
839,4040001136570,新規,0,2024-12-16,2024-12-16,株式会社美骨盤メイク,,株式会社,千葉県,松戸市,常盤平５丁目１１番地３７,,12,207,2702261,,,,,,,2024-12-16,1,,,,,ビコツバンメイク,0
842,4050001055885,新規,0,2024-12-16,2024-12-16,株式会社マルシン,,株式会社,茨城県,常総市,三坂町１２８４番地,,08,211,3002506,,,,,,,2024-12-16,1,,,,,マルシン,0
854,4070001042452,新規,0,2024-12-16,2024-12-16,株式会社ニシジマ,,株式会社,群馬県,富岡市,七日市６９２－１,,10,210,3702343,,,,,,,2024-12-16,1,,,,,ニシジマ,0
860,4070003005705,新規,0,2024-12-16,2024-12-16,ＮＡＫＡＺＡＴＯ　ＴＲＡＤＩＮＧ合同会社,,合同会社,群馬県,伊勢崎市,境下渕名２６８０番地７,,10,204,3700103,,,,,,,2024-12-16,1,,,,,ナカザトトレーディング,0
862,4080001026660,新規,0,2024-12-16,2024-12-16,株式会社ＧＡＲＡＧＥイーグル,,株式会社,静岡県,島田市,細島１７３５番地の４,,22,209,4270012,,,,,,,2024-12-16,1,,,,,ガレージイーグル,0
879,4120001270997,新規,0,2024-12-16,2024-12-16,ＥＭ　ａｒｔｈ株式会社,,株式会社,大阪府,大阪市淀川区,宮原１丁目６番１号,,27,123,5320003,,,,,,,2024-12-16,1,,,,,イーエムアース,0
880,4120001271087,新規,0,2024-12-16,2024-12-16,株式会社ｎｏａｈ,,株式会社,大阪府,大阪市中央区,南船場３丁目２番２２号おおきに南船場ビル２０５,,27,128,5420081,,,,,,,2024-12-16,1,,,,,ノア,0
881,4120001271104,新規,0,2024-12-16,2024-12-16,株式会社ハロー,,株式会社,大阪府,大阪市住之江区,新北島７丁目１番５５号,,27,125,5590024,,,,,,,2024-12-16,1,,,,,ハロー,0
882,4120001271112,新規,0,2024-12-16,2024-12-16,株式会社ファーストフィナンゼン,,株式会社,大阪府,大阪市福島区,海老江５丁目５番－１８－４０２,,27,103,5530001,,,,,,,2024-12-16,1,,,,,ファーストフィナンゼン,0
883,4120001271129,新規,0,2024-12-16,2024-12-16,Ｖｉｖｉｄ　Ｐａｌｅｔｔｅ株式会社,,株式会社,大阪府,大阪市北区,梅田１丁目１番３号大阪駅前第３ビル２９階１－１－１号室,,27,127,5300001,,,,,,,2024-12-16,1,,,,,ビビッドパレット,0
885,4120003028155,新規,0,2024-12-16,2024-12-16,Ｔｒｕｌｉｎｋ合同会社,,合同会社,大阪府,大阪市北区,梅田１丁目１番３号大阪駅前第３ビル２９階１－１－１号室,,27,127,5300001,,,,,,,2024-12-16,1,,,,,トリリンク,0
886,4120003028163,新規,0,2024-12-16,2024-12-16,合同会社Ｎ＆Ｅ,,合同会社,大阪府,大阪市浪速区,稲荷１丁目７番１５号,,27,111,5560023,,,,,,,2024-12-16,1,,,,,エヌアンドイー,0
889,4120101070744,新規,0,2024-12-16,2024-12-16,株式会社ＰＨＯ,,株式会社,大阪府,岸和田市,松風町１３番９号,,27,202,5960021,,,,,,,2024-12-16,1,,,,,ピーエイチオー,0
892,4120903005468,新規,0,2024-12-16,2024-12-16,ＴｒａｎｓＤａｗｎ　Ｐａｒｔｎｅｒｓ合同会社,,合同会社,大阪府,三島郡島本町,百山１４－２,,27,301,6180021,,,,,,,2024-12-16,1,,,,,トランスドーンパートナーズ,0
898,4130001078424,新規,0,2024-12-16,2024-12-16,Ｌｕｎｏａ株式会社,,株式会社,京都府,京都市中京区,新町通三条上る町頭町１１２番地菊三ビル２階,,26,104,6048206,,,,,,,2024-12-16,1,,,,,ルノア,0
910,4140001136569,新規,0,2024-12-16,2024-12-16,株式会社ＧＡＣＨＩ,,株式会社,兵庫県,姫路市,船橋町６丁目１２－３,,28,201,6700048,,,,,,,2024-12-16,1,,,,,ガチ,0
911,4140001136742,新規,0,2024-12-16,2024-12-16,株式会社天下春,,株式会社,兵庫県,神戸市中央区,磯上通８丁目１番２９号カサベラビルＣ＆Ｍ４０３号室,,28,110,6510086,,,,,,,2024-12-16,1,,,,,テンカハル,0
912,4140005027310,新規,0,2024-12-16,2024-12-16,特定非営利活動法人神戸ユネスコ協会,,その他の設立登記法人,兵庫県,神戸市中央区,栄町通２丁目９－７翔貴南京町ビル４階,,28,110,6500023,,,,,,,2024-12-16,1,,,,,コウベユネスコキョウカイ,0
913,4150003003452,新規,0,2024-12-16,2024-12-16,合同会社ＬＩＮＫＳ,,合同会社,奈良県,奈良市,菅野台８－５,,29,201,6310043,,,,,,,2024-12-16,1,,,,,リンクス,0
914,4160001026413,新規,0,2024-12-16,2024-12-16,ＡＪＩ　ＪＡＰＡＮ株式会社,,株式会社,滋賀県,守山市,今浜町２６２０番地９９－４２７,,25,207,5240101,,,,,,,2024-12-16,1,,,,,アジジャパン,0
916,4180001164442,新規,0,2024-12-16,2024-12-16,Ｙ．Ａグローバル株式会社,,株式会社,愛知県,名古屋市名東区,社台２丁目４１番地,,23,115,4650092,,,,,,,2024-12-16,1,,,,,ワイエーグローバル,0
917,4180001164500,新規,0,2024-12-16,2024-12-16,株式会社Ｉ設計,,株式会社,愛知県,稲沢市,平和町下起中２９６番地,,23,220,4901323,,,,,,,2024-12-16,1,,,,,アイセッケイ,0
921,4180003027738,新規,0,2024-12-16,2024-12-16,合同会社ＭｉｌＭｉ,,合同会社,愛知県,名古屋市中村区,名駅４丁目２４番地５号第二森ビル４０１,,23,105,4500002,,,,,,,2024-12-16,1,,,,,ミルミア,0
925,4190003004884,新規,0,2024-12-16,2024-12-16,合同会社スズカレンタル,,合同会社,三重県,鈴鹿市,平田本町２丁目２０番８号,,24,207,5130848,,,,,,,2024-12-16,1,,,,,スズカレンタル,0
927,4200003006623,新規,0,2024-12-16,2024-12-16,ＮＥＮＯ自然体験合同会社,,合同会社,岐阜県,中津川市,阿木７６１６番地の３４,,21,206,5097321,,,,,,,2024-12-16,1,,,,,ネノシゼンタイケン,0
937,4290001108306,新規,0,2024-12-16,2024-12-16,株式会社Ｇｒａｃｅ,,株式会社,福岡県,福岡市東区,香椎照葉５丁目１番１４号,,40,131,8130017,,,,,,,2024-12-16,1,,,,,グレイス,0
938,4290001108314,新規,0,2024-12-16,2024-12-16,株式会社ドゥエスジー,,株式会社,福岡県,糸島市,志摩師吉９８番地９,,40,230,8191314,,,,,,,2024-12-16,1,,,,,ドゥエスジー,0
943,4290801031129,新規,0,2024-12-16,2024-12-16,株式会社イブキ産業,,株式会社,福岡県,行橋市,行事８丁目１７番６４号,,40,213,8240001,,,,,,,2024-12-16,1,,,,,イブキサンギョウ,0
946,4350003004802,新規,0,2024-12-16,2024-12-16,合同会社宗や,,合同会社,宮崎県,宮崎市,大字本郷北方２３１４番地１３,,45,201,8800925,,,,,,,2024-12-16,1,,,,,ソウヤ,0
948,4360001034544,新規,0,2024-12-16,2024-12-16,パネフリファーム株式会社,,株式会社,沖縄県,那覇市,首里金城町１丁目４２番地８,,47,201,9030815,,,,,,,2024-12-16,1,,,,,パネフリファーム,0
949,4360003014528,新規,0,2024-12-16,2024-12-16,合同会社美ら,,合同会社,沖縄県,南城市,大里字稲嶺７７９番地２,,47,215,9011204,,,,,,,2024-12-16,1,,,,,チュラ,0
950,4360005007133,新規,0,2024-12-16,2024-12-16,川平リゾート施設事業協同組合,,その他の設立登記法人,沖縄県,石垣市,字川平１２１６番地２６６,,47,207,9070453,,,,,,,2024-12-16,1,,,,,カビラリゾートシセツ,0
959,4390003002323,新規,0,2024-12-16,2024-12-16,合同会社旭騰,,合同会社,山形県,南陽市,椚塚１８６７番地の１,,06,213,9992221,,,,,,,2024-12-16,1,,,,,キョクトウ,0
963,4420001018953,新規,0,2024-12-16,2024-12-16,株式会社裕善,,株式会社,青森県,北津軽郡板柳町,大字灰沼字岩井１８番地１,,02,381,0383672,,,,,,,2024-12-16,1,,,,,ユウゼン,0
971,4430001093252,新規,0,2024-12-16,2024-12-16,ＲＥＨＭＡＮＩ　ＴＲＡＤＩＮＧ株式会社,,株式会社,北海道,石狩郡当別町,六軒町７６番地６,,01,303,0610231,,,,,,,2024-12-16,1,,,,,レハマニトレーディング,0
972,4430001093260,新規,0,2024-12-16,2024-12-16,恒興株式会社,,株式会社,北海道,札幌市西区,八軒十条東１丁目１番８号ラセーヌ八軒２０６室,,01,107,0630870,,,,,,,2024-12-16,1,,,,,ツネオキ,0
979,4480001012678,新規,0,2024-12-16,2024-12-16,成建工業株式会社,,株式会社,徳島県,鳴門市,撫養町北浜字宮の東３２番地２,,36,202,7720015,,,,,,,2024-12-16,1,,,,,セイケンコウギョウ,0
981,4700150127989,新規,0,2024-12-16,2024-12-16,ＯｐｅｎＡＩ，ＬＬＣ,,外国会社等,,,,,,,,１４５５　３ｒｄ　Ｓｔｒｅｅｔ，Ｓａｎ　Ｆｒａｎｃｉｓｃｏ，ＣＡ９４１５８,,,,,,2024-12-16,1,,,,,オープンエーアイーエルエルシー,0
982,4700150128260,新規,0,2024-12-16,2024-12-16,ＰＲＡＳＡＮＮＡ　ＭＯＴＯＲＳ,,外国会社等,千葉県,山武市,湯坂３５番地５４,,12,237,2891328,スリランカ民主社会主義共和国、北西部洲、クルネガラ地区、バンダラコスワスタ、デバラワスタ、Ｎｏ．２８６,,,,,,2024-12-16,1,,,,,プラサンナモータース,0
993,5010001250670,新規,0,2024-12-16,2024-12-16,株式会社フィールドアップ,,株式会社,東京都,千代田区,神田須田町１丁目７番地８ＶＯＲＴ秋葉原ＩＶ２Ｆ,00137336,13,101,1010041,,,,,,,2024-12-16,1,,,,,フィールドアップ,0
994,5010001250720,新規,0,2024-12-16,2024-12-16,ボスケアーキテクツ株式会社,,株式会社,東京都,中央区,月島２丁目１７番１０－６０３号,,13,102,1040052,,,,,,,2024-12-16,1,,,,,ボスケアーキテクツ,0
995,5010001250729,新規,0,2024-12-16,2024-12-16,Ｇヘルスケア株式会社,,株式会社,東京都,千代田区,丸の内１丁目８番１号,,13,101,1000005,,,,,,,2024-12-16,1,,,,,ジーヘルスケア,0
998,5010003045771,新規,0,2024-12-16,2024-12-16,モアナＮｏ．２合同会社,,合同会社,東京都,千代田区,丸の内１丁目９番２号グラントウキョウサウスタワー１７階１７０５区,,13,101,1000005,,,,,,,2024-12-16,1,,,,,モアナナンバーツー,0
999,5010003045796,新規,0,2024-12-16,2024-12-16,セキセンカ合同会社,,合同会社,東京都,中央区,築地２丁目１１－２、５Ｆ,,13,102,1040045,,,,,,,2024-12-16,1,,,,,セキセンカ,0
1002,5010005039276,新規,0,2024-12-16,2024-12-16,一般社団法人芦ノ湖開発,,その他の設立登記法人,東京都,千代田区,霞が関３丁目２番５号,,13,101,1000013,,,,,,,2024-12-16,1,,,,,アシノコカイハツ,0
1004,5010401187026,新規,0,2024-12-16,2024-12-16,ＰＯＴＥＮＴＩＡＬ株式会社,,株式会社,東京都,港区,芝２丁目３０番６号ファインラック芝６０１,,13,103,1050014,,,,,,,2024-12-16,1,,,,,ポテンシャル,0
1005,5010401187034,新規,0,2024-12-16,2024-12-16,株式会社きごま,,株式会社,東京都,港区,北青山２丁目１２番８－６０２号,,13,103,1070061,,,,,,,2024-12-16,1,,,,,キゴマ,0
1008,5010403034003,新規,0,2024-12-16,2024-12-16,菊地合同会社,,合同会社,東京都,港区,芝３丁目１２番４－７０２号,,13,103,1050014,,,,,,,2024-12-16,1,,,,,キクチ,0
1009,5010403034011,新規,0,2024-12-16,2024-12-16,合同会社２０２１年１０月２０日,,合同会社,東京都,港区,虎ノ門３丁目１１番９号シュミット虎ノ門ビル３階,,13,103,1050001,,,,,,,2024-12-16,1,,,,,ニセンニジュウイチネンジュウガツハツカ,0
1010,5010405023862,新規,0,2024-12-16,2024-12-16,一般社団法人幸せな人と組織づくりサポート協会,,その他の設立登記法人,東京都,港区,南青山３丁目１５－９ＭＩＮＯＷＡ表参道３Ｆ－２４０株式会社エンラボ内,,13,103,1070062,,,,,,,2024-12-16,1,,,,,シアワセナヒトトソシキヅクリサポートキョウカイ,0
1021,5011001166270,新規,0,2024-12-16,2024-12-16,株式会社ＩＡＭ　ＩＡＭ,,株式会社,東京都,渋谷区,神宮前３丁目１５番１１号４Ｆ,,13,113,1500001,,,,,,,2024-12-16,1,,,,,アイアムアイアム,0
1022,5011001166436,新規,0,2024-12-16,2024-12-16,株式会社ｃｏＡ,,株式会社,東京都,目黒区,大橋２丁目４番２３号ＬａＰｅｒｌａＩｋｅｊｉｒｉ‐Ｏｈａｓｈｉ－２０３,,13,110,1530044,,,,,,,2024-12-16,1,,,,,コア,0
1023,5011001166469,新規,0,2024-12-16,2024-12-16,株式会社ＲＩＦＴＦＩＥＬＤ,,株式会社,東京都,目黒区,自由が丘１丁目８番１９号メルサＩＩ４Ｆ,00137348,13,110,1520035,,,,,,,2024-12-16,1,,,,,リフトフィールド,0
1028,5011101109930,新規,0,2024-12-16,2024-12-16,株式会社ＶＯＬＣＡＮＯ,,株式会社,東京都,新宿区,歌舞伎町２丁目２５番５号亜光ビル４階Ａ室,,13,104,1600021,,,,,,,2024-12-16,1,,,,,ボルケーノ,0
1029,5011103015235,新規,0,2024-12-16,2024-12-16,合同会社Ｊツー,,合同会社,東京都,新宿区,百人町１丁目２３－１１土田ビル２階,,13,104,1690073,,,,,,,2024-12-16,1,,,,,ジェイツー,0
1030,5011103015292,新規,0,2024-12-16,2024-12-16,合同会社ＮＳＫ,,合同会社,東京都,新宿区,西新宿３丁目３番１３号西新宿水間ビル６階,,13,104,1600023,,,,,,,2024-12-16,1,,,,,エヌエスケイ,0
1034,5011505002665,新規,0,2024-12-16,2024-12-16,特定非営利活動法人はぐくむ,,その他の設立登記法人,東京都,北区,西が丘１丁目３１番１号,,13,117,1150056,,,,,,,2024-12-16,1,,,,,ハグクム,0
1050,5020001160605,新規,0,2024-12-16,2024-12-16,リバインアセット株式会社,,株式会社,神奈川県,横浜市港南区,日野南４丁目２９番１３－４１９号,,14,111,2340055,,,,,,,2024-12-16,1,,,,,リバインアセット,0
1054,5020003027447,新規,0,2024-12-16,2024-12-16,合同会社ブリックス,,合同会社,神奈川県,横浜市中区,桜木町１丁目１０１番地１クロスゲート７階,,14,104,2310062,,,,,,,2024-12-16,1,,,,,ブリックス,0
1055,5020003027488,新規,0,2024-12-16,2024-12-16,合同会社Ｙ．Ｇ．Ｔクリエイト,,合同会社,神奈川県,横浜市西区,北幸２丁目１０番４８号むつみビル３階,,14,103,2200004,,,,,,,2024-12-16,1,,,,,ワイジーティークリエイト,0
1056,5021001083993,新規,0,2024-12-16,2024-12-16,株式会社幸導,,株式会社,神奈川県,藤沢市,菖蒲沢４７４番地１,,14,205,2520823,,,,,,,2024-12-16,1,,,,,コウドウ,0
1060,5021003015318,新規,0,2024-12-16,2024-12-16,合同会社メイク,,合同会社,神奈川県,平塚市,豊田宮下５０８番地の２,,14,203,2540085,,,,,,,2024-12-16,1,,,,,メイク,0
1069,5030001163920,新規,0,2024-12-16,2024-12-16,株式会社アオ,,株式会社,埼玉県,東松山市,箭弓町１丁目１３番２０号,00137338,11,212,3550028,,,,,,,2024-12-16,1,,,,,アオ,0
1070,5030001163945,新規,0,2024-12-16,2024-12-16,株式会社ＥＬＥＶＥＮ,,株式会社,埼玉県,川口市,大字榛松３２５番地の４,,11,203,3340062,,,,,,,2024-12-16,1,,,,,イレブン,0
1071,5030001163953,新規,0,2024-12-16,2024-12-16,株式会社リフレホーム,,株式会社,埼玉県,志木市,上宗岡２丁目２１番７号,,11,228,3530001,,,,,,,2024-12-16,1,,,,,リフレホーム,0
1073,5030003025680,新規,0,2024-12-16,2024-12-16,合同会社ｒｏｄｚｉｎａ,,合同会社,埼玉県,所沢市,三ケ島５丁目１６９４番地の１２,,11,208,3591164,,,,,,,2024-12-16,1,,,,,ロジナ,0
1074,5030003025689,新規,0,2024-12-16,2024-12-16,合同会社カントウ自動車,,合同会社,埼玉県,越谷市,南越谷１丁目１５番１号南越谷ラクーン地上４Ｆ－Ｓ３,,11,222,3430845,,,,,,,2024-12-16,1,,,,,カントウジドウシャ,0
1075,5030003025697,新規,0,2024-12-16,2024-12-16,合同会社ｉｎｋ．,,合同会社,埼玉県,蕨市,中央７丁目４７番８号,,11,223,3350004,,,,,,,2024-12-16,1,,,,,アイエヌケー,0
1078,5040001136553,新規,0,2024-12-16,2024-12-16,株式会社エーワン・テクニカ,,株式会社,千葉県,松戸市,常盤平柳町５番地の１,,12,207,2702263,,,,,,,2024-12-16,1,,,,,エーワンテクニカ,0
1079,5040001136561,新規,0,2024-12-16,2024-12-16,株式会社猫田商事,,株式会社,千葉県,船橋市,海神５丁目１番１４号,,12,204,2730021,,,,,,,2024-12-16,1,,,,,ネコタショウジ,0
1084,5040003026380,新規,0,2024-12-16,2024-12-16,合同会社おうち事務所,,合同会社,千葉県,市川市,北国分２丁目２１番５号,,12,203,2720836,,,,,,,2024-12-16,1,,,,,オウチジムショ,0
1085,5040003026389,新規,0,2024-12-16,2024-12-16,合同会社ＤＫ,,合同会社,千葉県,市原市,五井中央西１丁目１３番地１号本澤ビル２階,,12,219,2900081,,,,,,,2024-12-16,1,,,,,ディケイ,0
1086,5040005022601,新規,0,2024-12-16,2024-12-16,一般社団法人優樹会,,その他の設立登記法人,千葉県,松戸市,松戸１０６３番地１,,12,207,2710092,,,,,,,2024-12-16,1,,,,,ユウジュカイ,0
1090,5050003008881,新規,0,2024-12-16,2024-12-16,ひまわり合同会社,,合同会社,茨城県,神栖市,神栖３丁目４－１６,,08,232,3140143,,,,,,,2024-12-16,1,,,,,ヒマワリ,0
1098,5070001042435,新規,0,2024-12-16,2024-12-16,株式会社プレックス貿易,,株式会社,群馬県,高崎市,井野町２０１番地２５,,10,202,3700004,,,,,,,2024-12-16,1,,,,,プレックスボウエキ,0
1099,5070001042443,新規,0,2024-12-16,2024-12-16,ダウドモーターズ株式会社,,株式会社,群馬県,太田市,山之神町４１０番地８,,10,205,3792302,,,,,,,2024-12-16,1,,,,,ダウドモーターズ,0
1113,5100001038124,新規,0,2024-12-16,2024-12-16,株式会社イマ・ココ,,株式会社,長野県,松本市,大字岡田町７５９番地２,,20,202,3900315,,,,,,,2024-12-16,1,,,,,イマココ,0
1117,5110001038924,新規,0,2024-12-16,2024-12-16,株式会社ＬＡＭＢＤＡ・ＪＡＰＡＮ,,株式会社,新潟県,加茂市,大字天神林２３５３番地１,,15,209,9591315,,,,,,,2024-12-16,1,,,,,ラムダジャパン,0
1122,5120001271103,新規,0,2024-12-16,2024-12-16,株式会社ＰＲＩＤＥ,,株式会社,大阪府,枚方市,甲斐田町４番７号,,27,210,5731167,,,,,,,2024-12-16,1,,,,,プライド,0
1123,5120001271111,新規,0,2024-12-16,2024-12-16,名潤株式会社,,株式会社,大阪府,大阪市北区,本庄西１丁目３番２２号,,27,127,5310073,,,,,,,2024-12-16,1,,,,,メイジュン,0
1131,5120101070743,新規,0,2024-12-16,2024-12-16,啓田株式会社,,株式会社,大阪府,堺市堺区,中瓦町１丁２－９－４０２,,27,141,5900077,,,,,,,2024-12-16,1,,,,,ケイダ,0
1132,5120103006191,新規,0,2024-12-16,2024-12-16,ＭｉＫａちゃん合同会社,,合同会社,大阪府,富田林市,錦織東１丁目６番５号－１０１号室,,27,214,5840069,,,,,,,2024-12-16,1,,,,,ミカチャン,0
1134,5122001038738,新規,0,2024-12-16,2024-12-16,株式会社ＣＳＳ,,株式会社,大阪府,東大阪市,荒本新町３番２９号美津和ビル８０２,,27,227,5770022,,,,,,,2024-12-16,1,,,,,シーエスエス,0
1139,5140001136733,新規,0,2024-12-16,2024-12-16,株式会社Ｂｉｙｏｒｉ,,株式会社,兵庫県,川西市,けやき坂３丁目１９番地の１８,,28,217,6660145,,,,,,,2024-12-16,1,,,,,ビヨリ,0
1142,5150003003451,新規,0,2024-12-16,2024-12-16,合同会社ＦＩＬ,,合同会社,奈良県,橿原市,石原田町２２２番地の３ファミールＭ２０１,,29,205,6340014,,,,,,,2024-12-16,1,,,,,フィル,0
1145,5160001026404,新規,0,2024-12-16,2024-12-16,ａｌｋａｍ株式会社,,株式会社,滋賀県,大津市,伊香立上在地町８２,,25,201,5200356,,,,,,,2024-12-16,1,,,,,アルカム,0
1148,5180001164433,新規,0,2024-12-16,2024-12-16,株式会社ＳＳＲ,,株式会社,愛知県,名古屋市中川区,昭明町３丁目１７番地,,23,110,4540855,,,,,,,2024-12-16,1,,,,,エスエスアール,0
1149,5180001164532,新規,0,2024-12-16,2024-12-16,株式会社キシン,,株式会社,愛知県,名古屋市中川区,牛立町２丁目７２番地,,23,110,4540043,,,,,,,2024-12-16,1,,,,,キシン,0
1158,5190003004883,新規,0,2024-12-16,2024-12-16,合同会社Ｌｉｍ,,合同会社,三重県,桑名市,新西方５丁目３２１番地レトア新西方Ａ４棟２０２号,,24,205,5110863,,,,,,,2024-12-16,1,,,,,リム,0
1160,5200003006622,新規,0,2024-12-16,2024-12-16,Ｔｏｒｉｃｏ合同会社,,合同会社,岐阜県,不破郡垂井町,府中８５５番地の２,,21,361,5032114,,,,,,,2024-12-16,1,,,,,トリコ,0
1162,5200005013699,新規,0,2024-12-16,2024-12-16,特定非営利活動法人釜戸町まちづくり推進協議会,,その他の設立登記法人,岐阜県,瑞浪市,釜戸町２６７３番地１,,21,208,5096472,,,,,,,2024-12-16,1,,,,,カマドチョウマチヅクリスイシンキョウギカイ,0
1164,5220001026380,新規,0,2024-12-16,2024-12-16,株式会社輪島洋上風力発電サービス,,株式会社,石川県,輪島市,河井町２４部１１,,17,204,9280001,,,,,,,2024-12-16,1,,,,,ワジマヨウジョウフウリョクハツデンサービス,0
1167,5220005008912,新規,0,2024-12-16,2024-12-16,一般社団法人能登を紡ぐ,,その他の設立登記法人,石川県,鳳珠郡能登町,字七見レ字１９番甲地,,17,463,9270301,,,,,,,2024-12-16,1,,,,,ノトヲツムグ,0
1173,5270001009100,新規,0,2024-12-16,2024-12-16,株式会社ＡＯＢ,,株式会社,鳥取県,八頭郡八頭町,久能寺３１４番地,,31,329,6800451,,,,,,,2024-12-16,1,,,,,エーオービー,0
1178,5290001108313,新規,0,2024-12-16,2024-12-16,株式会社ＫＲ,,株式会社,福岡県,福岡市東区,名島５丁目３０番５号,,40,131,8130043,,,,,,,2024-12-16,1,,,,,ケイアール,0
1193,5350003004801,新規,0,2024-12-16,2024-12-16,合同会社テックワークス,,合同会社,宮崎県,小林市,真方１１００番地３１,,45,205,8860007,,,,,,,2024-12-16,1,,,,,テックワークス,0
1195,5360001034543,新規,0,2024-12-16,2024-12-16,株式会社ｉｓｏｌａｎｉ,,株式会社,沖縄県,石垣市,字登野城１１７番地４,,47,207,9070004,,,,,,,2024-12-16,1,,,,,イゾラーニ,0
1197,5360003014527,新規,0,2024-12-16,2024-12-16,合同会社志,,合同会社,沖縄県,豊見城市,字翁長５６１番地１,,47,212,9010223,,,,,,,2024-12-16,1,,,,,ココロ,0
1202,5380001034987,新規,0,2024-12-16,2024-12-16,くさの設備工業株式会社,,株式会社,福島県,郡山市,田村町金屋字上川原２４２番地コーポ金屋１０５号室,,07,203,9630725,,,,,,,2024-12-16,1,,,,,クサノセツビコウギョウ,0
1216,5430001093268,新規,0,2024-12-16,2024-12-16,株式会社北海道リサーチ＆コンサルティング,,株式会社,北海道,札幌市白石区,菊水九条１丁目２番３５号クレスト菊水１０１号室,,01,104,0030809,,,,,,,2024-12-16,1,,,,,ホッカイドウリサーチアンドコンサルティング,0
1217,5430003017068,新規,0,2024-12-16,2024-12-16,合同会社チャーリーＣＡＭＰ,,合同会社,北海道,札幌市中央区,南十三条西２３丁目１番１０－２０７号,,01,101,0640913,,,,,,,2024-12-16,1,,,,,チャーリーキャンプ,0
1218,5430003017076,新規,0,2024-12-16,2024-12-16,サステナブル合同会社,,合同会社,北海道,石狩郡当別町,若葉２２６３番地８,,01,303,0610204,,,,,,,2024-12-16,1,,,,,サステナブル,0
1219,5480001012677,新規,0,2024-12-16,2024-12-16,株式会社ＴＯＭＯＮＹ１,,株式会社,徳島県,徳島市,八万町内浜５３番地の２マリレーヴ内浜１０１,,36,201,7708076,,,,,,,2024-12-16,1,,,,,トモニワン,0
1223,5500005008751,新規,0,2024-12-16,2024-12-16,智内兄助一般財団法人,,その他の設立登記法人,愛媛県,今治市,波止浜１丁目４番６号,,38,202,7992112,,,,,,,2024-12-16,1,,,,,チナイキョウスケ,0
1230,6010001250686,新規,0,2024-12-16,2024-12-16,ＧＰＲ株式会社,,株式会社,東京都,中央区,日本橋３丁目２番１４号新槇町ビル別館第一２Ｆ,,13,102,1030027,,,,,,,2024-12-16,1,,,,,ジーピーアール,0
1231,6010001250728,新規,0,2024-12-16,2024-12-16,株式会社イデーン,,株式会社,東京都,千代田区,九段南４丁目６番１号九段シルバーパレス６０５,,13,101,1020074,,,,,,,2024-12-16,1,,,,,イデーン,0
1232,6010001250752,新規,0,2024-12-16,2024-12-16,翔和建物パートナーズ株式会社,,株式会社,東京都,千代田区,内神田２丁目１５番１１号,,13,101,1010047,,,,,,,2024-12-16,1,,,,,ショウワタテモノパートナーズ,0
1233,6010001250777,新規,0,2024-12-16,2024-12-16,株式会社大舶,,株式会社,東京都,文京区,小日向４丁目１番１号,,13,105,1120006,,,,,,,2024-12-16,1,,,,,タイハク,0
1237,6010003045787,新規,0,2024-12-16,2024-12-16,ＴＡＭＩ　ＰＨＡＲＭＡ合同会社,,合同会社,東京都,中央区,銀座１丁目１２番４号Ｎ＆Ｅ・ＢＬＤ．６Ｆ,,13,102,1040061,,,,,,,2024-12-16,1,,,,,タミファーマ,0
1238,6010003045812,新規,0,2024-12-16,2024-12-16,合同会社Ｃｒａｆｔ　Ｌｉｎｅ,,合同会社,東京都,千代田区,外神田４丁目１２番６号秋葉原アークビル９０２,,13,101,1010021,,,,,,,2024-12-16,1,,,,,クラフトライン,0
1239,6010101016450,新規,0,2024-12-16,2024-12-16,株式会社ＵＲＢＡＮ　ＧＡＲＡＧＥ,,株式会社,東京都,八王子市,丸山町３１－３４,,13,201,1920021,,,,,,,2024-12-16,1,,,,,アーバンガレージ,0
1241,6010401187041,新規,0,2024-12-16,2024-12-16,オーシャンＭ＆Ａアドバイザリー株式会社,,株式会社,東京都,港区,芝大門１丁目３番１１号ＹＳＫビル８階,,13,103,1050012,,,,,,,2024-12-16,1,,,,,オーシャンエムアンドエーアドバイザリー,0
1242,6010401187058,新規,0,2024-12-16,2024-12-16,株式会社いわなみ,,株式会社,東京都,港区,南青山１丁目１５番１９号グランメゾン乃木坂地下１階,,13,103,1070062,,,,,,,2024-12-16,1,,,,,イワナミ,0
1244,6010405023894,新規,0,2024-12-16,2024-12-16,一般社団法人ＡＡＪ　Ｉ,,その他の設立登記法人,東京都,港区,元赤坂１丁目１番７号,,13,103,1070051,,,,,,,2024-12-16,1,,,,,エーエージェイアイ,0
1247,6010603011263,新規,0,2024-12-16,2024-12-16,Ｗｅｂ‐Ｄｅｓｉｇｎ．ＬＩＮＫ合同会社,,合同会社,東京都,江東区,東砂２丁目１５番８－５１４号,,13,108,1360074,,,,,,,2024-12-16,1,,,,,ウェブデザインリンク,0
1250,6010903009577,新規,0,2024-12-16,2024-12-16,アイケア合同会社,,合同会社,東京都,世田谷区,船橋１丁目４２番６－６０９号,,13,112,1560055,,,,,,,2024-12-16,1,,,,,アイケア,0
1266,6011101109921,新規,0,2024-12-16,2024-12-16,株式会社Ｃｒａｂｇｒａｓｓ,,株式会社,東京都,新宿区,西新宿６丁目５番１号新宿アイランドタワー２階,,13,104,1600023,,,,,,,2024-12-16,1,,,,,クラブグラス,0
1267,6011103015291,新規,0,2024-12-16,2024-12-16,ＫＡ合同会社,,合同会社,東京都,新宿区,大久保２丁目６番１０号新宿第２アルプスマンション１１３号,,13,104,1690072,,,,,,,2024-12-16,1,,,,,ケイエイ,0
1271,6011501031477,新規,0,2024-12-16,2024-12-16,栄株式会社,,株式会社,東京都,荒川区,東日暮里５丁目５２番６号,,13,118,1160014,,,,,,,2024-12-16,1,,,,,サカエ,0
1277,6011801045301,新規,0,2024-12-16,2024-12-16,ＲＳ株式会社,,株式会社,東京都,足立区,六月２丁目１７－１６,,13,121,1210814,,,,,,,2024-12-16,1,,,,,アールエス,0
1282,6012701018603,新規,0,2024-12-16,2024-12-16,株式会社Ａｐｅｘ,,株式会社,東京都,東村山市,久米川町１丁目２７－３５,,13,213,1890003,,,,,,,2024-12-16,1,,,,,エイペックス,0
1283,6012801023643,新規,0,2024-12-16,2024-12-16,株式会社ＤＣＤ,,株式会社,東京都,国立市,西１丁目１６番地の９８,,13,215,1860005,,,,,,,2024-12-16,1,,,,,ディーシーディー,0
1284,6012803003569,新規,0,2024-12-16,2024-12-16,ＳＵＮＲＩＳＥ合同会社,,合同会社,東京都,昭島市,東町４丁目８番４－２階２０５号,,13,207,1960033,,,,,,,2024-12-16,1,,,,,,0
1286,6013301053528,新規,0,2024-12-16,2024-12-16,八百里物流産業株式会社,,株式会社,東京都,豊島区,高松１丁目１３－６－２０１,,13,116,1710042,,,,,,,2024-12-16,1,,,,,ヤオリブツリュウサンギョウ,0
1288,6020001160612,新規,0,2024-12-16,2024-12-16,ＳＵＮＢＲＩＤＧＥ株式会社,,株式会社,神奈川県,横浜市神奈川区,白幡東町２番３２号,,14,102,2210072,,,,,,,2024-12-16,1,,,,,サンブリッジ,0
1292,6020003027462,新規,0,2024-12-16,2024-12-16,合同会社ｃｌｏｃｈｅｔｔｅ,,合同会社,神奈川県,川崎市川崎区,追分町１３番５号フローラハイツ３０２,,14,131,2100835,,,,,,,2024-12-16,1,,,,,クロシェット,0
1293,6020003027479,新規,0,2024-12-16,2024-12-16,合同会社Ｅｑｕａｌｉｚｅ　Ｐｒｏｄｕｃｔｉｏｎ,,合同会社,神奈川県,横浜市神奈川区,台町１１―３０,,14,102,2210834,,,,,,,2024-12-16,1,,,,,イコライズプロダクション,0
1296,6021001084017,新規,0,2024-12-16,2024-12-16,株式会社シニアコネクト,,株式会社,神奈川県,座間市,南栗原４丁目１０番３４－３０２号,,14,216,2520015,,,,,,,2024-12-16,1,,,,,シニアコネクト,0
1303,6030001163944,新規,0,2024-12-16,2024-12-16,松本株式会社,,株式会社,埼玉県,北葛飾郡松伏町,大字松伏１９４０番地２,,11,465,3430111,,,,,,,2024-12-16,1,,,,,マツモト,0
1316,6040001136593,新規,0,2024-12-16,2024-12-16,株式会社阿部工務店,,株式会社,千葉県,船橋市,金堀町５１９番地１０,,12,204,2740054,,,,,,,2024-12-16,1,,,,,アベコウムテン,0
1331,6070001042450,新規,0,2024-12-16,2024-12-16,株式会社ＮｉｉＳ,,株式会社,群馬県,前橋市,大友町２丁目２９番地５,,10,201,3710847,,,,,,,2024-12-16,1,,,,,ニース,0
1333,6080005007655,新規,0,2024-12-16,2024-12-16,特定非営利活動法人驚かせないマジックショー,,その他の設立登記法人,静岡県,静岡市駿河区,曲金４丁目４番８号,,22,102,4228006,,,,,,,2024-12-16,1,,,,,オドロカセナイマジックショー,0
1336,6090003002698,新規,0,2024-12-16,2024-12-16,合同会社Ｎｅｘｔｏｎｅ,,合同会社,山梨県,甲府市,下石田２丁目２２－７ｋｏｎｏ下石田４０２,,19,201,4000046,,,,,,,2024-12-16,1,,,,,,0
1339,6100001038123,新規,0,2024-12-16,2024-12-16,株式会社進誠,,株式会社,長野県,上田市,下之条７２７番地５、２Ｆ,,20,203,3861101,,,,,,,2024-12-16,1,,,,,シンセイ,0
1343,6110001038915,新規,0,2024-12-16,2024-12-16,泰和貿易株式会社,,株式会社,新潟県,小千谷市,大字山谷１２６７番地,,15,208,9470043,,,,,,,2024-12-16,1,,,,,タイワボウエキ,0
1348,6120001271102,新規,0,2024-12-16,2024-12-16,株式会社ＬＯＵＩＳレジデンス,,株式会社,大阪府,大阪市西区,江戸堀１丁目９番６号,,27,106,5500002,,,,,,,2024-12-16,1,,,,,ルイレジデンス,0
1351,6120003028112,新規,0,2024-12-16,2024-12-16,合同会社タカハシ,,合同会社,大阪府,大阪市北区,西天満３丁目４番１４－１１０３号,,27,127,5300047,,,,,,,2024-12-16,1,,,,,タカハシ,0
1352,6120003028161,新規,0,2024-12-16,2024-12-16,合同会社ｙｕｌｕｌｕ,,合同会社,大阪府,大阪市北区,梅田１丁目２番２号大阪駅前第２ビル１２－１２,,27,127,5300001,,,,,,,2024-12-16,1,,,,,ユルル,0
1353,6120101070742,新規,0,2024-12-16,2024-12-16,株式会社希星工業,,株式会社,大阪府,和泉市,小田町１丁目１番７号,,27,219,5940074,,,,,,,2024-12-16,1,,,,,ノアコウギョウ,0
1354,6120101070750,新規,0,2024-12-16,2024-12-16,株式会社Ａ‐ｓｍｉｌｅ,,株式会社,大阪府,堺市東区,北野田１番地６サウスタワー７０２号,,27,143,5998123,,,,,,,2024-12-16,1,,,,,エースマイル,0
1355,6120101070759,新規,0,2024-12-16,2024-12-16,株式会社アンジュ,,株式会社,大阪府,堺市堺区,向陵中町１丁５番２０－１０１号,,27,141,5900024,,,,,,,2024-12-16,1,,,,,アンジュ,0
1356,6120103006190,新規,0,2024-12-16,2024-12-16,合同会社Ｋ‐ＰＬＵＳ,,合同会社,大阪府,藤井寺市,小山７丁目２２番１３号,,27,226,5830033,,,,,,,2024-12-16,1,,,,,キープラス,0
1357,6120105009943,新規,0,2024-12-16,2024-12-16,一般社団法人ジェイエスカービングサポート協会,,その他の設立登記法人,大阪府,松原市,天美西２丁目１番１８号,,27,217,5800034,,,,,,,2024-12-16,1,,,,,ジェイエスカービングサポートキョウカイ,0
1360,6120901050175,新規,0,2024-12-16,2024-12-16,株式会社ビヨンド,,株式会社,大阪府,箕面市,小野原東２丁目５番６号,,27,220,5620031,,,,,,,2024-12-16,1,,,,,ビヨンド,0
1373,6130001078604,新規,0,2024-12-16,2024-12-16,大和観光株式会社,,株式会社,京都府,京都市下京区,黒門通四条下る下り松町１６７番地,,26,106,6008381,,,,,,,2024-12-16,1,,,,,ヤマトカンコウ,0
1384,6140001136740,新規,0,2024-12-16,2024-12-16,株式会社レイシス不動産販売,,株式会社,兵庫県,神戸市中央区,海岸通６番地建隆ビルＩＩ,00137337,28,110,6500024,,,,,,,2024-12-16,1,,,,,レイシスフドウサンハンバイ,0
1386,6140003021412,新規,0,2024-12-16,2024-12-16,合同会社コバショウ,,合同会社,兵庫県,小野市,山田町１０３９,,28,218,6751321,,,,,,,2024-12-16,1,,,,,,0
1387,6140005027309,新規,0,2024-12-16,2024-12-16,特定非営利活動法人一寸法師,,その他の設立登記法人,兵庫県,神戸市中央区,栄町通２丁目９－７翔貴南京町ビル４階,,28,110,6500023,,,,,,,2024-12-16,1,,,,,イッスンボウシ,0
1389,6150001027749,新規,0,2024-12-16,2024-12-16,株式会社林石材店,,株式会社,奈良県,奈良市,南半田西町７番地,,29,201,6308282,,,,,,,2024-12-16,1,,,,,ハヤシセキザイテン,0
1399,6180001164515,新規,0,2024-12-16,2024-12-16,株式会社彩寿,,株式会社,愛知県,江南市,宮後町砂場東３３１番地１,,23,217,4838044,,,,,,,2024-12-16,1,,,,,アズ,0
1400,6180001164531,新規,0,2024-12-16,2024-12-16,株式会社ｙｙｙ’ｓ,,株式会社,愛知県,名古屋市中区,新栄１丁目１０番２０号アークピュアモリロン８０２号,,23,106,4600007,,,,,,,2024-12-16,1,,,,,ワイワイワイズ,0
1403,6180003027744,新規,0,2024-12-16,2024-12-16,合同会社イナケン,,合同会社,愛知県,名古屋市港区,小賀須４丁目９６１番地,,23,111,4550882,,,,,,,2024-12-16,1,,,,,イナケン,0
1405,6230003002345,新規,0,2024-12-16,2024-12-16,合同会社ネクストステージ,,合同会社,富山県,富山市,森住町１８番７号,,16,201,9318331,,,,,,,2024-12-16,1,,,,,ネクストステージ,0
1406,6240003006980,新規,0,2024-12-16,2024-12-16,合同会社栗谷,,合同会社,広島県,大竹市,栗谷町大栗林３２５番地２５,,34,211,7390646,,,,,,,2024-12-16,1,,,,,クリタニ,0
1407,6250001020933,新規,0,2024-12-16,2024-12-16,株式会社ＢｅｒｇａＭｏｔｔｏ,,株式会社,山口県,下関市,三河町８番３１号,,35,201,7510821,,,,,,,2024-12-16,1,,,,,ベルガモット,0
1410,6250003003614,新規,0,2024-12-16,2024-12-16,合同会社騰瑞,,合同会社,山口県,山陽小野田市,新生２丁目１－４３,,35,216,7560092,,,,,,,2024-12-16,1,,,,,トウズイ,0
1412,6260005011432,新規,0,2024-12-16,2024-12-16,一般社団法人みんなのお家ハルハウス,,その他の設立登記法人,岡山県,倉敷市,水島北春日町５番１７号,,33,202,7128024,,,,,,,2024-12-16,1,,,,,ミンナノオウチハルハウス,0
1413,6280001009313,新規,0,2024-12-16,2024-12-16,株式会社ＳｐｌｉｔＳｅａｍ,,株式会社,島根県,益田市,久城町８０２－６９,,32,204,6980001,,,,,,,2024-12-16,1,,,,,スプリットシーム,0
1425,6290001108279,新規,0,2024-12-16,2024-12-16,株式会社ＢＩＧＷＯＲＫＳＥＣＵＲＩＴＹ,,株式会社,福岡県,福岡市博多区,千代３丁目１９番１号,,40,132,8120044,,,,,,,2024-12-16,1,,,,,ビッグワークセキュリティ,0
1426,6290001108295,新規,0,2024-12-16,2024-12-16,株式会社Ｓ＆Ｂパートナーズ設計九州,,株式会社,福岡県,福岡市博多区,博多駅東１丁目１０番８号ＮＩＫＫＥＮ博多駅東ビル５階,,40,132,8120013,,,,,,,2024-12-16,1,,,,,エスアンドビーパートナーズセッケイキュウシュウ,0
1427,6290001108345,新規,0,2024-12-16,2024-12-16,Ｋ．ＰＲＯＪＥＣＴ．ＨＤ株式会社,,株式会社,福岡県,福岡市西区,野方６丁目２７番２号,,40,135,8190043,,,,,,,2024-12-16,1,,,,,ケイプロジェクトホールディングス,0
1429,6290003016174,新規,0,2024-12-16,2024-12-16,合同会社Ｂｅｌｌ　ＴＲｅｅ,,合同会社,福岡県,古賀市,花見南２丁目１６番３９－１号,,40,223,8113111,,,,,,,2024-12-16,1,,,,,ベルツリー,0
1432,6290803004923,新規,0,2024-12-16,2024-12-16,合同会社ＴＯＭＯＥ,,合同会社,福岡県,北九州市小倉南区,朽網東３丁目８番７－３号,,40,107,8000232,,,,,,,2024-12-16,1,,,,,トモエ,0
1444,6360003014526,新規,0,2024-12-16,2024-12-16,合同会社島元屋,,合同会社,沖縄県,浦添市,城間２丁目２４番地２号,,47,208,9012133,,,,,,,2024-12-16,1,,,,,シマモトヤ,0
1450,6380001034986,新規,0,2024-12-16,2024-12-16,ドゥ株式会社,,株式会社,福島県,郡山市,朝日１丁目２４番８号,,07,203,9638024,,,,,,,2024-12-16,1,,,,,ドゥ,0
1456,6420005007934,新規,0,2024-12-16,2024-12-16,セブンウット協同組合,,その他の設立登記法人,青森県,八戸市,城下３丁目１番５号,,02,203,0310072,,,,,,,2024-12-16,1,,,,,セブンウット,0
1463,6440001009536,新規,0,2024-12-16,2024-12-16,株式会社ＬＵＸ,,株式会社,北海道,函館市,亀田本町３０番１３号,,01,202,0410813,,,,,,,2024-12-16,1,,,,,ラックス,0
1464,6450001014469,新規,0,2024-12-16,2024-12-16,株式会社ｇｅｏｍａｄｅ,,株式会社,北海道,旭川市,豊岡九条１１丁目１番２号,,01,204,0788239,,,,,,,2024-12-16,1,,,,,ジオメイド,0
1467,6480001012676,新規,0,2024-12-16,2024-12-16,株式会社ＨＡＷＫＳ,,株式会社,徳島県,徳島市,大原町長尾６３番地の６,,36,201,7708012,,,,,,,2024-12-16,1,,,,,,0
1471,6500001026021,新規,0,2024-12-16,2024-12-16,株式会社Ｍｏｏｎ‐ｉ,,株式会社,愛媛県,伊予郡松前町,大字筒井５２４番地１サントノーレ松前２０６号,,38,401,7913120,,,,,,,2024-12-16,1,,,,,ムーンアイ,0
1473,6700150127987,新規,0,2024-12-16,2024-12-16,Ｇｅｎｅｔｅｃ　Ｉｎｃ．,,外国会社等,,,,,,,,２２８０　Ａｌｆｒｅｄ－Ｎｏｂｅｌ　Ｂｏｕｌｅｖａｒｄ　Ｍｏｎｔｒｅａｌ，Ｑｕｅｂｅｃ，Ｃａｎａｄａ　Ｈ４Ｓ　２Ａ４,,,,,,2024-12-16,1,,,,,ジエネテツクインク,0
1474,6700150128259,新規,0,2024-12-16,2024-12-16,ＡＫＩＴＡ　ＭＯＴＯＲＳ　ＰＶＴ　ＬＴＤ,,外国会社等,茨城県,坂東市,辺田５１６番地１,,08,228,3060632,スリランカ民主社会主義共和国、イパロガマ、ラナジャヤプラ、ＩＥＬ／１０７４,,,,,,2024-12-16,1,,,,,アキタモータースプライベートリミテツド,0
1475,6700150128267,新規,0,2024-12-16,2024-12-16,亡藤井貞郎相続財産,,その他,京都府,京都市北区,小山下初音町４１－１,,26,101,6038173,,,,,,,2024-12-16,1,,,,,ボウフジイサダオソウゾクザイサン,0
1487,7010001250669,新規,0,2024-12-16,2024-12-16,玲瓏株式会社,,株式会社,東京都,文京区,白山１丁目６番４－Ａ０２,,13,105,1130001,,,,,,,2024-12-16,1,,,,,レイロウ,0
1488,7010001250677,新規,0,2024-12-16,2024-12-16,ＳＯＲＩＡＮＯトラスト株式会社,,株式会社,東京都,千代田区,丸の内３丁目２番２号丸の内二重橋ビル２階,,13,101,1000005,,,,,,,2024-12-16,1,,,,,ソリアーノトラスト,0
1489,7010001250685,新規,0,2024-12-16,2024-12-16,株式会社確かな未来,,株式会社,東京都,文京区,小日向４丁目７番１５号茗台ハイツ４１５,,13,105,1120006,,,,,,,2024-12-16,1,,,,,,0
1490,7010003045794,新規,0,2024-12-16,2024-12-16,ＲＴ中央合同会社,,合同会社,東京都,中央区,築地６丁目２番１２号アトラス築地７０４,,13,102,1040045,,,,,,,2024-12-16,1,,,,,アールティーチュウオウ,0
1492,7010005039274,新規,0,2024-12-16,2024-12-16,一般社団法人医学生によるがん教育推進協会,,その他の設立登記法人,東京都,千代田区,永田町２丁目１７番１１－１４０３号,,13,101,1000014,,,,,,,2024-12-16,1,,,,,イガクセイニヨルガンキョウイクスイシンキョウカイ,0
1500,7010401187032,新規,0,2024-12-16,2024-12-16,株式会社Ｓ＆Ｍ,,株式会社,東京都,港区,赤坂９丁目６番３０－４１９号,,13,103,1070052,,,,,,,2024-12-16,1,,,,,エスアンドエム,0
1510,7010701046978,新規,0,2024-12-16,2024-12-16,株式会社ヴァンクール,,株式会社,東京都,品川区,北品川２丁目９番７号ルミーク北品川８０１,,13,109,1400001,,,,,,,2024-12-16,1,,,,,ヴァンクール,0
1513,7010901056496,新規,0,2024-12-16,2024-12-16,株式会社ａｎｄｍｅ,,株式会社,東京都,世田谷区,代沢５丁目１９－１２ＷＡＶＩＡＳＨＩＭＯＫＩＴＡＺＡＷＡ２Ｆ,,13,112,1550032,,,,,,,2024-12-16,1,,,,,アンドミー,0
1515,7011001166260,新規,0,2024-12-16,2024-12-16,株式会社Ｗｉｌｌ,,株式会社,東京都,目黒区,五本木３丁目２５番１１－２０２号,,13,110,1530053,,,,,,,2024-12-16,1,,,,,ウィル,0
1516,7011001166442,新規,0,2024-12-16,2024-12-16,株式会社マクシル,,株式会社,東京都,渋谷区,神泉町１０番１５号アネックス神泉３０１,,13,113,1500045,,,,,,,2024-12-16,1,,,,,マクシル,0
1517,7011001166500,新規,0,2024-12-16,2024-12-16,グローバル環境投資株式会社,,株式会社,東京都,目黒区,上目黒３丁目１４番９－４０３号,,13,110,1530051,,,,,,,2024-12-16,1,,,,,グローバルカンキョウトウシ,0
1518,7011003020556,新規,0,2024-12-16,2024-12-16,合同会社カイキ,,合同会社,東京都,渋谷区,道玄坂１丁目１６番６号二葉ビル８ｂ,,13,113,1500043,,,,,,,2024-12-16,1,,,,,カイキ,0
1527,7011103015308,新規,0,2024-12-16,2024-12-16,合同会社エムズ,,合同会社,東京都,新宿区,西新宿３丁目３番１３号西新宿水間ビル２Ｆ,,13,104,1600023,,,,,,,2024-12-16,1,,,,,エムズ,0
1534,7011601028281,新規,0,2024-12-16,2024-12-16,株式会社エムズ・アドバイザリー,,株式会社,東京都,練馬区,春日町４丁目１番２０号,,13,120,1790074,,,,,,,2024-12-16,1,,,,,エムズアドバイザリー,0
1540,7011701027902,新規,0,2024-12-16,2024-12-16,ＬＺ株式会社,,株式会社,東京都,江戸川区,北小岩５丁目４番１－１０１号,,13,123,1330051,,,,,,,2024-12-16,1,,,,,エルゼット,0
1541,7011703004057,新規,0,2024-12-16,2024-12-16,Ｌ．Ｐ．合同会社,,合同会社,東京都,江戸川区,平井５丁目２２番５－４０４号五光マンション,,13,123,1320035,,,,,,,2024-12-16,1,,,,,エルピー,0
1542,7011801045283,新規,0,2024-12-16,2024-12-16,株式会社ソットフル,,株式会社,東京都,足立区,古千谷本町２丁目５番３１号,,13,121,1210832,,,,,,,2024-12-16,1,,,,,ソットフル,0
1543,7011801045291,新規,0,2024-12-16,2024-12-16,株式会社Ｓｅｅｄ,,株式会社,東京都,足立区,柳原１丁目１１番３号ベルウッドＩＩ１０２号室,00137341,13,121,1200022,,,,,,,2024-12-16,1,,,,,シード,0
1548,7012801023634,新規,0,2024-12-16,2024-12-16,株式会社Ｃｏｓｍｉｃ,,株式会社,東京都,国立市,谷保５８５６番地の１,,13,215,1860011,,,,,,,2024-12-16,1,,,,,コスミック,0
1549,7012801023642,新規,0,2024-12-16,2024-12-16,株式会社トラストバランス,,株式会社,東京都,国分寺市,本町２丁目７番１０号エッセンビル４０１,,13,214,1850012,,,,,,,2024-12-16,1,,,,,トラストバランス,0
1561,7020001160611,新規,0,2024-12-16,2024-12-16,株式会社大伸,,株式会社,神奈川県,川崎市宮前区,白幡台１丁目１４番地１７,,14,136,2160025,,,,,,,2024-12-16,1,,,,,タイシン,0
1565,7020003027429,新規,0,2024-12-16,2024-12-16,合同会社ＦＩＲＳＴＳＵＮＲＩＳＥ,,合同会社,神奈川県,川崎市川崎区,境町１番１４－９０１号,,14,131,2100838,,,,,,,2024-12-16,1,,,,,ファーストサンライズ,0
1571,7021003015332,新規,0,2024-12-16,2024-12-16,愛光連合同会社,,合同会社,神奈川県,大和市,上草柳３丁目１４－４,,14,213,2420029,,,,,,,2024-12-16,1,,,,,アイコウレン,0
1572,7021003015340,新規,0,2024-12-16,2024-12-16,ＨＡＮＵＭＡＮ合同会社,,合同会社,神奈川県,茅ヶ崎市,堤１番地１－７－１０５号,,14,207,2530006,,,,,,,2024-12-16,1,,,,,ハヌマン,0
1573,7021003015357,新規,0,2024-12-16,2024-12-16,翔洋ＬＡＢＯ合同会社,,合同会社,神奈川県,相模原市南区,上鶴間本町５丁目３２－２チェリーハイム２０６,,14,153,2520318,,,,,,,2024-12-16,1,,,,,ショウヨウラボ,0
1587,7040001136576,新規,0,2024-12-16,2024-12-16,株式会社利匠庵,,株式会社,千葉県,松戸市,栗ケ沢７７６番地の８５,,12,207,2700022,,,,,,,2024-12-16,1,,,,,リショウアン,0
1590,7040003026379,新規,0,2024-12-16,2024-12-16,合同会社ラウンドサークル,,合同会社,千葉県,船橋市,芝山４丁目１８番１号,,12,204,2740816,,,,,,,2024-12-16,1,,,,,ラウンドサークル,0
1593,7050005013531,新規,0,2024-12-16,2024-12-16,一般社団法人るんぽこクレア,,その他の設立登記法人,茨城県,つくば市,二の宮２丁目２番３号パークサイドマンション１１５号,,08,220,3050051,,,,,,,2024-12-16,1,,,,,ルンポコクレア,0
1596,7060001037723,新規,0,2024-12-16,2024-12-16,株式会社地域こうけん,,株式会社,栃木県,栃木市,都賀町升塚５０７番地１,,09,203,3280114,,,,,,,2024-12-16,1,,,,,チイキコウケン,0
1598,7060003005364,新規,0,2024-12-16,2024-12-16,合同会社ＣＵ　ＪＡＰＡＮ,,合同会社,栃木県,那須郡那須町,大字稲沢３５９番地２,,09,407,3293447,,,,,,,2024-12-16,1,,,,,シーユージャパン,0
1600,7070003005702,新規,0,2024-12-16,2024-12-16,合同会社麺匠鳥屋,,合同会社,群馬県,高崎市,上小塙町４２５番地２,,10,202,3700077,,,,,,,2024-12-16,1,,,,,メンショウトリヤ,0
1606,7110001038922,新規,0,2024-12-16,2024-12-16,株式会社ＦＲＡＰ,,株式会社,新潟県,長岡市,台町２丁目１０番１３号,,15,202,9400048,,,,,,,2024-12-16,1,,,,,フラップ,0
1609,7110005017162,新規,0,2024-12-16,2024-12-16,アジア人財紹介協同組合,,その他の設立登記法人,新潟県,長岡市,寺泊野積２４０番地２野積の里マンションＣ２０８号,,15,202,9402501,,,,,,,2024-12-16,1,,,,,アジアジンザイショウカイ,0
1612,7120001271068,新規,0,2024-12-16,2024-12-16,弘洋国際ビューティー株式会社,,株式会社,大阪府,大阪市東成区,中本５丁目２２番１１号４０３号,,27,115,5370022,,,,,,,2024-12-16,1,,,,,コウヨウコクサイビューティー,0
1613,7120001271092,新規,0,2024-12-16,2024-12-16,微聯株式会社,,株式会社,大阪府,大阪市西淀川区,姫島２丁目４番１０号パークアベニュー２階Ａ室,,27,113,5550033,,,,,,,2024-12-16,1,,,,,ビレン,0
1614,7120001271126,新規,0,2024-12-16,2024-12-16,株式会社ＤｄＬＳ,,株式会社,大阪府,大阪市中央区,本町４丁目２－１２－８階,,27,128,5410053,,,,,,,2024-12-16,1,,,,,ディーディーエルエス,0
1618,7120003028128,新規,0,2024-12-16,2024-12-16,合同会社ＴＡＭＯ,,合同会社,大阪府,大阪市阿倍野区,播磨町１丁目２４番２０号,,27,119,5450022,,,,,,,2024-12-16,1,,,,,タモ,0
1619,7120003028185,新規,0,2024-12-16,2024-12-16,合同会社メディケア,,合同会社,大阪府,大阪市北区,梅田１丁目１‐３大阪駅前第３ビル２９階１‐１‐１号室,,27,127,5300001,,,,,,,2024-12-16,1,,,,,メディケア,0
1624,7120101070741,新規,0,2024-12-16,2024-12-16,株式会社ｇｏｌｄｅｎｓｗａｌｌｏｗ,,株式会社,大阪府,堺市南区,鴨谷台２丁３番２－３０８号,,27,145,5900138,,,,,,,2024-12-16,1,,,,,ゴールデンスワロー,0
1625,7120101070758,新規,0,2024-12-16,2024-12-16,株式会社グリークス,,株式会社,大阪府,富田林市,喜志町５丁目５番２８号,,27,214,5840005,,,,,,,2024-12-16,1,,,,,グリークス,0
1628,7120901050158,新規,0,2024-12-16,2024-12-16,株式会社Ｐｅａｃｅ　Ｔｏｗｎ,,株式会社,大阪府,高槻市,栄町４丁目１６番６号,,27,207,5690825,,,,,,,2024-12-16,1,,,,,ピースタウン,0
1635,7130001078594,新規,0,2024-12-16,2024-12-16,株式会社ｍａｎａｍｕ,,株式会社,京都府,京都市下京区,小稲荷町８５－２Ｇｒａｎｄ－Ｋ京都駅前ビル２０１,,26,106,6008208,,,,,,,2024-12-16,1,,,,,マナム,0
1639,7140001136632,新規,0,2024-12-16,2024-12-16,ビレッジリゾート株式会社,,株式会社,兵庫県,宍粟市,一宮町杉田５０５番地の２９,,28,227,6714139,,,,,,,2024-12-16,1,,,,,ビレッジリゾート,0
1640,7150001027748,新規,0,2024-12-16,2024-12-16,株式会社ドリフトオート,,株式会社,奈良県,香芝市,穴虫３１３１番地７４,,29,210,6390252,,,,,,,2024-12-16,1,,,,,ドリフトオート,0
1644,7160003003358,新規,0,2024-12-16,2024-12-16,合同会社誠‐ＥＮＧ．,,合同会社,滋賀県,甲賀市,甲南町希望ケ丘５丁目１番地７,,25,209,5203333,,,,,,,2024-12-16,1,,,,,マコトエンジ,0
1653,7180001164522,新規,0,2024-12-16,2024-12-16,ＨＥＣ株式会社,,株式会社,愛知県,名古屋市中区,栄１丁目５番１４号,,23,106,4600008,,,,,,,2024-12-16,1,,,,,エイチイーシー,0
1654,7180001164530,新規,0,2024-12-16,2024-12-16,北陽水産株式会社,,株式会社,愛知県,名古屋市中川区,上高畑２丁目１３番地,,23,110,4540873,,,,,,,2024-12-16,1,,,,,ホクヨウスイサン,0
1655,7180001164539,新規,0,2024-12-16,2024-12-16,株式会社榊工業,,株式会社,愛知県,江南市,今市場町秋津２,,23,217,4838181,,,,,,,2024-12-16,1,,,,,サカキコウギョウ,0
1656,7180001164547,新規,0,2024-12-16,2024-12-16,株式会社ＴＡＫＡＧＩ,,株式会社,愛知県,丹羽郡扶桑町,大字高雄字北羽根２２０番地,,23,362,4800102,,,,,,,2024-12-16,1,,,,,タカギ,0
1657,7180001164563,新規,0,2024-12-16,2024-12-16,株式会社アルバートコーヒーカンパニー,,株式会社,愛知県,名古屋市西区,上小田井１丁目１３４番地,,23,104,4520821,,,,,,,2024-12-16,1,,,,,アルバートコーヒーカンパニー,0
1661,7180003027727,新規,0,2024-12-16,2024-12-16,合同会社Ｒｏｍａｘ,,合同会社,愛知県,名古屋市港区,港陽１丁目３番１５号（千年住宅４０８）,,23,111,4550013,,,,,,,2024-12-16,1,,,,,ロマックス,0
1662,7180003027743,新規,0,2024-12-16,2024-12-16,合同会社ＮＥＸＵＰ,,合同会社,愛知県,名古屋市南区,東又兵ヱ町２丁目３３番地,,23,112,4570833,,,,,,,2024-12-16,1,,,,,ネクスアップ,0
1663,7180003027751,新規,0,2024-12-16,2024-12-16,エムエステック合同会社,,合同会社,愛知県,知多郡東浦町,大字緒川字上家左川１０８番地の１,,23,442,4702102,,,,,,,2024-12-16,1,,,,,エムエステック,0
1678,7250003003613,新規,0,2024-12-16,2024-12-16,合同会社燦,,合同会社,山口県,阿武郡阿武町,大字奈古２６７２,,35,502,7593622,,,,,,,2024-12-16,1,,,,,サン,0
1680,7260005011431,新規,0,2024-12-16,2024-12-16,医療法人社団おくむら大腸肛門クリニック,,その他の設立登記法人,岡山県,岡山市北区,中山下２丁目２番７４号,,33,101,7000821,,,,,,,2024-12-16,1,,,,,オクムラダイチョウコウモンクリニック,0
1692,7290001108278,新規,0,2024-12-16,2024-12-16,株式会社アシュリー,,株式会社,福岡県,福岡市中央区,天神２丁目２番１２号Ｔ＆Ｊビルディング７Ｆ,,40,133,8100001,,,,,,,2024-12-16,1,,,,,アシュリー,0
1693,7290001108294,新規,0,2024-12-16,2024-12-16,株式会社ＦＬＹＩＮＧ,,株式会社,福岡県,福岡市西区,愛宕２丁目１２番２１－４０２号ロワールシティフォレスト室見,,40,135,8190015,,,,,,,2024-12-16,1,,,,,フライング,0
1701,7290801031126,新規,0,2024-12-16,2024-12-16,ＡＩＲ　ＳＴＯＮＥ株式会社,,株式会社,福岡県,北九州市小倉北区,足立１丁目１０番３５号,,40,106,8020042,,,,,,,2024-12-16,1,,,,,エアストーン,0
1702,7300001014012,新規,0,2024-12-16,2024-12-16,株式会社かも薬局,,株式会社,佐賀県,伊万里市,立花町３４４３番地１,,41,205,8480027,,,,,,,2024-12-16,1,,,,,カモヤッキョク,0
1727,7430003017074,新規,0,2024-12-16,2024-12-16,合同会社はな日,,合同会社,北海道,札幌市中央区,南五条西１５丁目２－３リズム医大前５０３号室,,01,101,0640805,,,,,,,2024-12-16,1,,,,,ハナビ,0
1729,7460001005953,新規,0,2024-12-16,2024-12-16,株式会社釧路ハッピー食品,,株式会社,北海道,釧路市,愛国東２丁目３１番１４号,,01,206,0850058,,,,,,,2024-12-16,1,,,,,クシロハッピーショクヒン,0
1734,7700150127887,新規,0,2024-12-16,2024-12-16,Ｆｏｕｔｕｎｅａｌｌｙ　Ｉｎｖｅｓｔｍｅｎｔ　Ｃｏ．，Ｌｔｄ,,外国会社等,大阪府,大阪市浪速区,下寺３丁目１２－６,,27,111,5560001,Ｉｎｔｅｒｓｈｏｒｅ　Ｓｕｉｔｅ，Ｌｅ　Ｓａｎａｌｅｌｅ　Ｃｏｍｐｌｅｘ，Ａｐｉａ，Ｓａｍｏａ,,,,,,2024-12-16,1,,,,,フオーチユナリーインベストメント,0
1735,7700150128258,新規,0,2024-12-16,2024-12-16,ＭＡＳＨＡＡ　ＥＮＴＥＲＰＲＩＳＥＳ,,外国会社等,千葉県,旭市,長部４０２－１Ｂ,,12,215,2890502,スリランカ民主社会主義共和国、Ｎｏ．１３２／３、ワラガシンナ、アクラナ、キャンディ,,,,,,2024-12-16,1,,,,,マシヤーエンタープライズ,0
1743,8010001250494,新規,0,2024-12-16,2024-12-16,株式会社セカイアカリツナギ,,株式会社,東京都,中央区,銀座１丁目１２番４号Ｎ＆Ｅ・ＢＬＤ．７階,,13,102,1040061,,,,,,,2024-12-16,1,,,,,セカイアカリツナギ,0
1744,8010001250718,新規,0,2024-12-16,2024-12-16,ＪＰｉＸ４号株式会社,,株式会社,東京都,千代田区,丸の内１丁目９番２号グラントウキョウサウスタワー８階,,13,101,1000005,,,,,,,2024-12-16,1,,,,,ジェイピックスヨンゴウ,0
1746,8010003045777,新規,0,2024-12-16,2024-12-16,合同会社Ｌｙｋｔａ,,合同会社,東京都,千代田区,神田和泉町１番地６－１６ヤマトビル４０５,,13,101,1010024,,,,,,,2024-12-16,1,,,,,リクタ,0
1747,8010003045785,新規,0,2024-12-16,2024-12-16,セントラルレジ２合同会社,,合同会社,東京都,千代田区,丸の内１丁目４番１号東京共同会計事務所内,,13,101,1000005,,,,,,,2024-12-16,1,,,,,セントラルレジツー,0
1753,8010401186990,新規,0,2024-12-16,2024-12-16,株式会社ＵＥＣ　ＪＡＰＡＮ,,株式会社,東京都,港区,赤坂２丁目８番１４－４０７号,,13,103,1070052,,,,,,,2024-12-16,1,,,,,ユーイーシージャパン,0
1757,8010403034009,新規,0,2024-12-16,2024-12-16,Ｗｉｔｈ　Ｒｅａｃｈ　Ｊａｐａｎ合同会社,,合同会社,東京都,港区,赤坂１丁目１１番４４号赤坂インターシティ５階Ｆｏｒｖｉｓ・Ｍａｚａｒｓ・Ｊａｐａｎ株式会社内,,13,103,1070052,,,,,,,2024-12-16,1,,,,,ウィズリーチジャパン,0
1762,8010601066472,新規,0,2024-12-16,2024-12-16,株式会社Ｃｏｕｎｔｒｙ　Ｍｏｕｎｔａｉｎ,,株式会社,東京都,江東区,豊洲５丁目６番２９号１３３２号,,13,108,1350061,,,,,,,2024-12-16,1,,,,,カントリーマウンテン,0
1768,8010803005195,新規,0,2024-12-16,2024-12-16,合同会社トリガポト,,合同会社,東京都,大田区,南久が原２丁目８－４ロンシャン久が原２０３,,13,111,1460084,,,,,,,2024-12-16,1,,,,,トリガポト,0
1777,8011001166276,新規,0,2024-12-16,2024-12-16,Ｃｒｅｗｗ　Ｃａｐｉｔａｌ株式会社,,株式会社,東京都,渋谷区,道玄坂１丁目１９番９号,,13,113,1500043,,,,,,,2024-12-16,1,,,,,クルーキャピタル,0
1778,8011001166326,新規,0,2024-12-16,2024-12-16,株式会社ソアサポート,,株式会社,東京都,渋谷区,代々木１丁目５７－２ドルミ代々木１３０３,,13,113,1510053,,,,,,,2024-12-16,1,,,,,ソアサポート,0
1780,8011003020514,新規,0,2024-12-16,2024-12-16,合同会社Ｆｅｓｔａｂｌｅ,,合同会社,東京都,目黒区,柿の木坂２丁目１０番１８号,,13,110,1520022,,,,,,,2024-12-16,1,,,,,フェスタブル,0
1782,8011103015265,新規,0,2024-12-16,2024-12-16,合同会社ジョージワールド,,合同会社,東京都,新宿区,西新宿３丁目３番１３号西新宿水間ビル６階,,13,104,1600023,,,,,,,2024-12-16,1,,,,,ジョージワールド,0
1787,8011501031475,新規,0,2024-12-16,2024-12-16,羅家株式会社,,株式会社,東京都,荒川区,町屋３丁目２４番２号面川ビル２０９号室,,13,118,1160001,,,,,,,2024-12-16,1,,,,,ラケ,0
1791,8011701027901,新規,0,2024-12-16,2024-12-16,株式会社ＳＴ,,株式会社,東京都,江戸川区,大杉３丁目１９－４,,13,123,1320022,,,,,,,2024-12-16,1,,,,,エスティ,0
1796,8012401042579,新規,0,2024-12-16,2024-12-16,ａｏｉ株式会社,,株式会社,東京都,小金井市,前原町３丁目２４番６号,,13,210,1840013,,,,,,,2024-12-16,1,,,,,アオイ,0
1804,8020001160008,新規,0,2024-12-16,2024-12-16,株式会社ＤＦＣＬ,,株式会社,神奈川県,横浜市戸塚区,秋葉町１０９―９,,14,110,2450052,,,,,,,2024-12-16,1,,,,,ディーエフシーエル,0
1805,8020001160610,新規,0,2024-12-16,2024-12-16,株式会社ウエストホーム,,株式会社,神奈川県,横浜市保土ケ谷区,川島町５２９番地２７,,14,106,2400045,,,,,,,2024-12-16,1,,,,,ウエストホーム,0
1808,8020003027452,新規,0,2024-12-16,2024-12-16,ＧＡキャピタルパートナーズ合同会社,,合同会社,神奈川県,横浜市港北区,日吉本町２丁目２６番２号,,14,109,2230062,,,,,,,2024-12-16,1,,,,,ジーエーキャピタルパートナーズ,0
1812,8021001083974,新規,0,2024-12-16,2024-12-16,株式会社あすくれ,,株式会社,神奈川県,厚木市,寿町２丁目１番１８号ＢＩＺｃｏｍｆｏｒｔ本厚木１Ｆ,,14,212,2430003,,,,,,,2024-12-16,1,,,,,アスクレ,0
1822,8030001163918,新規,0,2024-12-16,2024-12-16,株式会社ＧｏｖＬｅｔ,,株式会社,埼玉県,越谷市,川柳町２丁目４０１,,11,222,3430827,,,,,,,2024-12-16,1,,,,,ゴブレット,0
1823,8030001163959,新規,0,2024-12-16,2024-12-16,株式会社エムズカーシェア,,株式会社,埼玉県,さいたま市南区,沼影１丁目１１番２号Ａ７０４,,11,108,3360027,,,,,,,2024-12-16,1,,,,,エムズカーシェア,0
1832,8030003025711,新規,0,2024-12-16,2024-12-16,ＹＧ合同会社,,合同会社,埼玉県,さいたま市南区,辻５丁目９番２６－５０５号,00137347,11,108,3360026,,,,,,,2024-12-16,1,,,,,ワイジー,0
1834,8040001136534,新規,0,2024-12-16,2024-12-16,株式会社Ｈａｐｐｙ　Ｗｏｒｋ　Ｌａｂｏｒａｔｏｒｙ,,株式会社,千葉県,印西市,牧の原６丁目６―１７４,,12,231,2701331,,,,,,,2024-12-16,1,,,,,ハッピーワークラボラトリー,0
1835,8040001136567,新規,0,2024-12-16,2024-12-16,楽和株式会社,,株式会社,千葉県,習志野市,東習志野１丁目８番９－２０３号,,12,216,2750001,,,,,,,2024-12-16,1,,,,,ラクワ,0
1842,8060001037730,新規,0,2024-12-16,2024-12-16,株式会社シルフス,,株式会社,栃木県,宇都宮市,白沢町２０１８番地２１,,09,201,3291102,,,,,,,2024-12-16,1,,,,,シルフス,0
1845,8070001042449,新規,0,2024-12-16,2024-12-16,ＮＥＤ保険Ｒ株式会社,,株式会社,群馬県,沼田市,薄根町３６６４番地１７,,10,206,3780031,,,,,,,2024-12-16,1,,,,,エヌイーディーホケンアール,0
1849,8080001026649,新規,0,2024-12-16,2024-12-16,プラクシティー株式会社,,株式会社,静岡県,牧之原市,布引原２２１番地１,,22,226,4210407,,,,,,,2024-12-16,1,,,,,プラクシティー,0
1860,8110001038913,新規,0,2024-12-16,2024-12-16,株式会社Ｓｉｍｐｌｅ,,株式会社,新潟県,長岡市,金房３丁目８番１号,,15,202,9400045,,,,,,,2024-12-16,1,,,,,シンプル,0
1866,8120001271034,新規,0,2024-12-16,2024-12-16,Ｌｅｅｄｓ　Ｊａｐａｎ株式会社,,株式会社,大阪府,大阪市中央区,平野町２丁目２番７号,,27,128,5410046,,,,,,,2024-12-16,1,,,,,リーズジャパン,0
1867,8120001271075,新規,0,2024-12-16,2024-12-16,株式会社ミーテビータ,,株式会社,大阪府,交野市,私部西２丁目２５番１３号,,27,230,5760041,,,,,,,2024-12-16,1,,,,,ミーテビータ,0
1868,8120001271117,新規,0,2024-12-16,2024-12-16,株式会社栖原,,株式会社,大阪府,大阪市大正区,鶴町３丁目１６番１７号,,27,108,5510023,,,,,,,2024-12-16,1,,,,,スハラ,0
1870,8120003028135,新規,0,2024-12-16,2024-12-16,合同会社ｅｎｔｏ,,合同会社,大阪府,大阪市淀川区,西中島５丁目１－８,,27,123,5320011,,,,,,,2024-12-16,1,,,,,エント,0
1871,8120003028151,新規,0,2024-12-16,2024-12-16,合同会社Ｆｏｒｅｖｅｒ１５７,,合同会社,大阪府,大阪市北区,曾根崎新地１丁目９番３号ニュー華ビル１Ｆ,,27,127,5300002,,,,,,,2024-12-16,1,,,,,フォーエバーイチゴウナナ,0
1872,8120101070740,新規,0,2024-12-16,2024-12-16,株式会社サンハート,,株式会社,大阪府,高石市,取石５丁目７番４号,,27,225,5920013,,,,,,,2024-12-16,1,,,,,サンハート,0
1873,8120101070773,新規,0,2024-12-16,2024-12-16,株式会社ＫＨＯ,,株式会社,大阪府,岸和田市,宮本町４１番１号ツキシロビル５Ｆ,,27,202,5960054,,,,,,,2024-12-16,1,,,,,コウ,0
1875,8120103006189,新規,0,2024-12-16,2024-12-16,合同会社ＬＩＦＥ　ａｎｄ　ＺＥＮ　ＣＯＭＰＡＮＹ,,合同会社,大阪府,堺市北区,中百舌鳥町２丁９３番地プレファシオなかもず９０１号,,27,146,5918023,,,,,,,2024-12-16,1,,,,,ライフアンドゼンカンパニー,0
1879,8120901050173,新規,0,2024-12-16,2024-12-16,株式会社ＡＤＶＡＮＣＥ．ＧＴ,,株式会社,大阪府,吹田市,千里山高塚７番９－６０９号,,27,205,5650848,,,,,,,2024-12-16,1,,,,,アドバンスジーティー,0
1886,8130005017250,新規,0,2024-12-16,2024-12-16,一般社団法人京都大学フォトニック結晶レーザー研究所,,その他の設立登記法人,京都府,京都市西京区,京都大学桂ＡクラスターＡ１棟１２８号室,,26,111,6158246,,,,,,,2024-12-16,1,,,,,キョウトダイガクフォトニックケッショウレーザーケンキュウショ,0
1894,8180001164595,新規,0,2024-12-16,2024-12-16,株式会社アクシス,,株式会社,愛知県,一宮市,萩原町中島字南方郷北切２５１５番地４,,23,203,4910364,,,,,,,2024-12-16,1,,,,,アクシス,0
1895,8180301039332,新規,0,2024-12-16,2024-12-16,株式会社輪繋,,株式会社,愛知県,豊橋市,天伯町字梅ケ丘４１番地２,,23,201,4418122,,,,,,,2024-12-16,1,,,,,リンケイ,0
1907,8220003003912,新規,0,2024-12-16,2024-12-16,合同会社Ｂａｒｏｑｕｅ　Ｗｏｒｋｓ,,合同会社,石川県,羽咋市,千路町ヘ７４,,17,207,9250012,,,,,,,2024-12-16,1,,,,,,0
1909,8240001064260,新規,0,2024-12-16,2024-12-16,日の丸王子株式会社,,株式会社,広島県,広島市東区,戸坂南２丁目１１番２５－１号,,34,102,7320013,,,,,,,2024-12-16,1,,,,,ヒノマルオウジ,0
1918,8280001009311,新規,0,2024-12-16,2024-12-16,ミライデンツー株式会社,,株式会社,島根県,出雲市,大社町中荒木１‐２,,32,203,6990741,,,,,,,2024-12-16,1,,,,,ミライデンツー,0
1919,8280005007633,新規,0,2024-12-16,2024-12-16,一般社団法人まつえ東本町へるんロード,,その他の設立登記法人,島根県,松江市,東本町３丁目１８番地（（有）藤本米穀店内）,,32,201,6900842,,,,,,,2024-12-16,1,,,,,マツエヒガシホンマチヘルンロード,0
1924,8290001108285,新規,0,2024-12-16,2024-12-16,株式会社ＥｎｔｅｒＬｉｎｋ,,株式会社,福岡県,福岡市中央区,荒戸２丁目５番６号－９０３,,40,133,8100062,,,,,,,2024-12-16,1,,,,,エンターリンク,0
1925,8290001108310,新規,0,2024-12-16,2024-12-16,ｕｋｉ建築設計株式会社,,株式会社,福岡県,福岡市南区,大楠３丁目１４番３４号,,40,134,8150082,,,,,,,2024-12-16,1,,,,,ウキケンチクセッケイ,0
1928,8290801031125,新規,0,2024-12-16,2024-12-16,株式会社九州サービス,,株式会社,福岡県,築上郡築上町,大字水原２４１番地２,,40,647,8290333,,,,,,,2024-12-16,1,,,,,キュウシュウサービス,0
1932,8320003004537,新規,0,2024-12-16,2024-12-16,合同会社ｔｏｉｒｏ,,合同会社,大分県,大分市,竹下１丁目９番５０号,,44,201,8700265,,,,,,,2024-12-16,1,,,,,トイロ,0
1935,8330001032737,新規,0,2024-12-16,2024-12-16,株式会社アート・いずみ,,株式会社,熊本県,熊本市南区,白藤１丁目３３番１４号,,43,104,8614112,,,,,,,2024-12-16,1,,,,,アートイズミ,0
1939,8360001034532,新規,0,2024-12-16,2024-12-16,株式会社崎浜不動産,,株式会社,沖縄県,浦添市,西原５丁目４３番２号２Ｆ,,47,208,9012101,,,,,,,2024-12-16,1,,,,,サキハマフドウサン,0
1942,8380001034992,新規,0,2024-12-16,2024-12-16,株式会社ＰＥＡＣＥ　ＬＡＢ,,株式会社,福島県,福島市,春日町１３番１３号春日ハイツ２０２,,07,201,9608116,,,,,,,2024-12-16,1,,,,,ピースラボ,0
1945,8380005012904,新規,0,2024-12-16,2024-12-16,一般社団法人ｆｌｏｗｅｒ,,その他の設立登記法人,福島県,福島市,渡利字中角１１番地の５,,07,201,9608141,,,,,,,2024-12-16,1,,,,,フラワー,0
1953,8430001093265,新規,0,2024-12-16,2024-12-16,株式会社Ｒｏｍａｎａｒｋ,,株式会社,北海道,札幌市中央区,南五条西１５丁目２－３リズム医大前５０３号室,,01,101,0640805,,,,,,,2024-12-16,1,,,,,ロマナーク,0
1954,8430003017073,新規,0,2024-12-16,2024-12-16,合同会社まえだ軽種馬獣医科,,合同会社,北海道,日高郡新ひだか町,静内旭町１丁目２０番２０号,,01,610,0560003,,,,,,,2024-12-16,1,,,,,マエダケイシュバジュウイカ,0
1958,8450001014467,新規,0,2024-12-16,2024-12-16,まき米穀株式会社,,株式会社,北海道,上川郡鷹栖町,１７線十五号６番地,,01,452,0711257,,,,,,,2024-12-16,1,,,,,マキベイコク,0
1963,8700150128257,新規,0,2024-12-16,2024-12-16,Ｃｕｍｕｌｏｃｉｔｙ　ＧｍｂＨ,,外国会社等,東京都,千代田区,丸の内１丁目９番２号　グラントウキョウサウスタワー,,13,101,1000005,ドイツ連邦共和国、４０２１１デュッセルドルフ、トウロウーザー・アレー２５,,,,,,2024-12-16,1,,,,,クムロシテイゲーエムベーハー,0
1964,8700150128281,新規,0,2024-12-16,2024-12-16,Ｒｏｕｎｄ　Ｏｎｅ　Ｄｅｌｉｃｉｏｕｓ　ＵＳＡ，Ｉｎｃ．,,外国会社等,大阪府,大阪市中央区,難波５丁目１番６０号,,27,128,5420076,アメリカ合衆国カリフォルニア州ブレア、サターンストリート３０５０、１０３,,,,,,2024-12-16,1,,,,,ラウンドワンデリシヤスユーエスエーインコーポレーテツド,0
1975,9010001250667,新規,0,2024-12-16,2024-12-16,株式会社イグレック,,株式会社,東京都,千代田区,外神田４丁目９番７－６０９号,,13,101,1010021,,,,,,,2024-12-16,1,,,,,イグレック,0
1976,9010001250675,新規,0,2024-12-16,2024-12-16,ＰＴＣＪ‐７ホールディングス株式会社,,株式会社,東京都,千代田区,丸の内１丁目９番１号,,13,101,1000005,,,,,,,2024-12-16,1,,,,,ピーティーシージェイセブンホールディングス,0
1977,9010001250758,新規,0,2024-12-16,2024-12-16,ＥＫＣアドバンスド・エレクトロニクス３ジャパン株式会社,,株式会社,東京都,千代田区,永田町２丁目１１番１号,,13,101,1000014,,,,,,,2024-12-16,1,,,,,イーケーシーアドバンスドエレクトロニクススリージャパン,0
1980,9010003045818,新規,0,2024-12-16,2024-12-16,合同会社音羽総合研究所,,合同会社,東京都,文京区,本郷５丁目１－１１ＫＩＩＨＯＵＳＥ２０２,,13,105,1130033,,,,,,,2024-12-16,1,,,,,オトワソウゴウケンキュウジョ,0
1982,9010401187014,新規,0,2024-12-16,2024-12-16,ＵＭＩＴＥＣＨ　ＭＡＲＩＮＥ　ＳＯＬＵＴＩＯＮＳ株式会社,,株式会社,東京都,港区,虎ノ門５丁目１３番１号虎ノ門４０ＭＴビル７階,,13,103,1050001,,,,,,,2024-12-16,1,,,,,ウミテックマリンソリューションズ,0
1985,9010403034008,新規,0,2024-12-16,2024-12-16,ＡＡＪ　Ｉ合同会社,,合同会社,東京都,港区,元赤坂１丁目１番７号,,13,103,1070051,,,,,,,2024-12-16,1,,,,,エーエージェイアイ,0
1989,9010601066463,新規,0,2024-12-16,2024-12-16,株式会社アクアデザイン,,株式会社,東京都,江東区,南砂１丁目４番２４－１０１号,,13,108,1360076,,,,,,,2024-12-16,1,,,,,アクアデザイン,0
1994,9010801035672,新規,0,2024-12-16,2024-12-16,株式会社ＵＤＮ　ＳＰＯＲＴＳ,,株式会社,東京都,大田区,南馬込２丁目２７番３号,,13,111,1430025,,,,,,,2024-12-16,1,,,,,ユーディーエヌスポーツ,0
2000,9011001166259,新規,0,2024-12-16,2024-12-16,ｓｅｎ株式会社,,株式会社,東京都,渋谷区,桜丘町７番３号ベラコート渋谷２０３,,13,113,1500031,,,,,,,2024-12-16,1,,,,,セン,0
2001,9011001166267,新規,0,2024-12-16,2024-12-16,なるほどｗｉｆｉ株式会社,,株式会社,東京都,渋谷区,恵比寿西２丁目８番４号ＥＸ恵比寿西ビル５階,,13,113,1500021,,,,,,,2024-12-16,1,,,,,ナルホドワイファイ,0
2002,9011001166507,新規,0,2024-12-16,2024-12-16,株式会社ＥＳＭＥ,,株式会社,東京都,渋谷区,富ヶ谷１丁目３７番２号代々木松久ハイツ１階,,13,113,1510063,,,,,,,2024-12-16,1,,,,,,0
2003,9011001166589,新規,0,2024-12-16,2024-12-16,株式会社Ｆｌａｍ　Ｃｒｅａｔｅ,,株式会社,東京都,渋谷区,神泉町１０番１５号アネックス神泉３０１,,13,113,1500045,,,,,,,2024-12-16,1,,,,,フラムクリエイト,0
2004,9011003020521,新規,0,2024-12-16,2024-12-16,アスファム合同会社,,合同会社,東京都,渋谷区,渋谷２丁目１９－１５宮益坂ビルディング６０９,,13,113,1500002,,,,,,,2024-12-16,1,,,,,アスファム,0
2012,9011201025999,新規,0,2024-12-16,2024-12-16,株式会社幸咲工務店,,株式会社,東京都,中野区,弥生町４丁目４番１４号アベリア中野３０１,,13,114,1640013,,,,,,,2024-12-16,1,,,,,ユキザキコウムテン,0
2013,9011301030230,新規,0,2024-12-16,2024-12-16,株式会社ＥＬＥＮＡ　ＧＲＯＵＰ,,株式会社,東京都,杉並区,西荻南３丁目７番４号ＫＳ大東ビル２Ｆ,,13,115,1670053,,,,,,,2024-12-16,1,,,,,エレナグループ,0
2016,9011501031466,新規,0,2024-12-16,2024-12-16,日中国際交流株式会社,,株式会社,東京都,荒川区,西日暮里６丁目１３番１２フジメゾン西日暮里４０３号,,13,118,1160013,,,,,,,2024-12-16,1,,,,,ニッチュウコクサイコウリュウ,0
2017,9011501031474,新規,0,2024-12-16,2024-12-16,森聖株式会社,,株式会社,東京都,荒川区,町屋３丁目２４番２号面川ビル３０７号室,,13,118,1160001,,,,,,,2024-12-16,1,,,,,シンセイ,0
2021,9011801045298,新規,0,2024-12-16,2024-12-16,株式会社ドリーム,,株式会社,東京都,足立区,西保木間４丁目１１番１号,,13,121,1210812,,,,,,,2024-12-16,1,,,,,ドリーム,0
2033,9013303007363,新規,0,2024-12-16,2024-12-16,２ｉ‐ＬＩＮＫ合同会社,,合同会社,東京都,豊島区,巣鴨５丁目１６－５－６０１,,13,116,1700002,,,,,,,2024-12-16,1,,,,,ツーアイリンク,0
2044,9020003027451,新規,0,2024-12-16,2024-12-16,合同会社Ｒｏｕｎｄ　Ｒｏｃｋ,,合同会社,神奈川県,横浜市神奈川区,旭ケ丘５番３１号,,14,102,2210814,,,,,,,2024-12-16,1,,,,,ラウンドロック,0
2045,9021001083998,新規,0,2024-12-16,2024-12-16,株式会社ＳａＳａ,,株式会社,神奈川県,茅ヶ崎市,今宿８１番地８,,14,207,2530072,,,,,,,2024-12-16,1,,,,,ササ,0
2051,9030001163941,新規,0,2024-12-16,2024-12-16,株式会社ＡＩＦ,,株式会社,埼玉県,狭山市,広瀬東３丁目２番２号,,11,215,3501320,,,,,,,2024-12-16,1,,,,,エーアイエフ,0
2058,9030003025693,新規,0,2024-12-16,2024-12-16,合同会社ａｒｃ‐ｅｎ‐ｃｉｅｌ,,合同会社,埼玉県,比企郡嵐山町,大字志賀３１６番地１６３,,11,342,3550214,,,,,,,2024-12-16,1,,,,,アークアンシェル,0
2065,9040001136558,新規,0,2024-12-16,2024-12-16,株式会社エステートピア,,株式会社,千葉県,習志野市,実籾５丁目１６番８号,,12,216,2750002,,,,,,,2024-12-16,1,,,,,エステートピア,0
2072,9080001026664,新規,0,2024-12-16,2024-12-16,株式会社りっかりっか,,株式会社,静岡県,静岡市葵区,南瀬名町１５番１２号,,22,101,4200915,,,,,,,2024-12-16,1,,,,,リッカリッカ,0
2084,9120001271074,新規,0,2024-12-16,2024-12-16,株式会社あおい,,株式会社,大阪府,大阪市平野区,喜連西４丁目４番２８号,,27,126,5470026,,,,,,,2024-12-16,1,,,,,アオイ,0
2085,9120001271108,新規,0,2024-12-16,2024-12-16,株式会社ＲＯＬ,,株式会社,大阪府,大阪市都島区,大東町３丁目１０番１１－２０２号,,27,102,5340002,,,,,,,2024-12-16,1,,,,,ロール,0
2086,9120001271124,新規,0,2024-12-16,2024-12-16,株式会社ａｌｌ,,株式会社,大阪府,大阪市西区,京町堀３丁目２番２６－６０１号,,27,106,5500003,,,,,,,2024-12-16,1,,,,,オール,0
2087,9120001271132,新規,0,2024-12-16,2024-12-16,株式会社３Ｇ,,株式会社,大阪府,大阪市浪速区,難波中２丁目４番３号－５１２号室,,27,111,5560011,,,,,,,2024-12-16,1,,,,,スリージー,0
2089,9120101070748,新規,0,2024-12-16,2024-12-16,株式会社ヒロナカ,,株式会社,大阪府,大阪狭山市,池尻自由丘３丁目８番１０号１０１号室,,27,231,5890008,,,,,,,2024-12-16,1,,,,,ヒロナカ,0
2091,9120103006196,新規,0,2024-12-16,2024-12-16,合同会社ロトス,,合同会社,大阪府,堺市西区,鳳北町８丁４４８番地１８,,27,144,5938328,,,,,,,2024-12-16,1,,,,,ロトス,0
2096,9120903005463,新規,0,2024-12-16,2024-12-16,合同会社Ｎ．,,合同会社,大阪府,豊中市,本町４丁目１１番３３－３０２号,,27,203,5600021,,,,,,,2024-12-16,1,,,,,エヌドット,0
2098,9122003003067,新規,0,2024-12-16,2024-12-16,合同会社街風,,合同会社,大阪府,東大阪市,楠根１丁目５番５号３０３号,,27,227,5770006,,,,,,,2024-12-16,1,,,,,マチカゼ,0
2102,9130001078592,新規,0,2024-12-16,2024-12-16,ＫＡＮＡＹＡ株式会社,,株式会社,京都府,京都市下京区,新町通松原下る富永町１０７－１ＧＲＯＶＩＮＧＢＡＳＥ,,26,106,6008449,,,,,,,2024-12-16,1,,,,,カナヤ,0
2103,9130001078601,新規,0,2024-12-16,2024-12-16,株式会社いっぽさき,,株式会社,京都府,京都市南区,久世殿城町２８９番地１,,26,107,6018205,,,,,,,2024-12-16,1,,,,,イッポサキ,0
2110,9140001136738,新規,0,2024-12-16,2024-12-16,株式会社ＭＡＴＳＵＳＨＩＭＡ,,株式会社,兵庫県,西宮市,殿山町３番２５－４０５号,,28,204,6620065,,,,,,,2024-12-16,1,,,,,マツシマ,0
2120,9180001164495,新規,0,2024-12-16,2024-12-16,ディードチャンプ株式会社,,株式会社,愛知県,長久手市,南原山１７番地１２アネシア藤が丘グランドテラス１００７号,,23,238,4801134,,,,,,,2024-12-16,1,,,,,ディードチャンプ,0
2121,9180001164512,新規,0,2024-12-16,2024-12-16,中日本商業設備管理株式会社,,株式会社,愛知県,名古屋市中区,栄２丁目３番１号,,23,106,4600008,,,,,,,2024-12-16,1,,,,,ナカニホンショウギョウセツビカンリ,0
2124,9200001043242,新規,0,2024-12-16,2024-12-16,コープランド株式会社,,株式会社,岐阜県,岐阜市,北一色１丁目１０番６号,,21,201,5008227,,,,,,,2024-12-16,1,,,,,コープランド,0
2129,9250001020930,新規,0,2024-12-16,2024-12-16,株式会社片岡農産,00137339,株式会社,山口県,下関市,豊田町大字萩原２３６番地１,,35,201,7500444,,,,,,,2024-12-16,1,,,,,カタオカノウサン,0
2134,9260003005004,新規,0,2024-12-16,2024-12-16,合同会社ＤＳＹ,,合同会社,岡山県,笠岡市,七番町１番地５４,,33,205,7140094,,,,,,,2024-12-16,1,,,,,ディーエスワイ,0
2142,9290001108326,新規,0,2024-12-16,2024-12-16,株式会社Ｋスタイル,,株式会社,福岡県,福岡市南区,老司３丁目１０番１２号,,40,134,8111346,,,,,,,2024-12-16,1,,,,,ケースタイル,0
2149,9290003016163,新規,0,2024-12-16,2024-12-16,合同会社ＭＯ,,合同会社,福岡県,福岡市博多区,博多駅前１丁目２３番２号ＰａｒｋＦｒｏｎｔ博多駅前１丁目５Ｆ－Ｂ,,40,132,8120011,,,,,,,2024-12-16,1,,,,,エムオー,0
2154,9300003002211,新規,0,2024-12-16,2024-12-16,合同会社Ｋ＆,,合同会社,佐賀県,佐賀市,多布施１丁目３番１８号,,41,201,8400842,,,,,,,2024-12-16,1,,,,,ケイアンド,0
2159,9360001034531,新規,0,2024-12-16,2024-12-16,理恵株式会社,,株式会社,沖縄県,那覇市,久米１丁目２３－３チャイナゲートウェイ久米ビル２Ｂ号室,,47,201,9000033,,,,,,,2024-12-16,1,,,,,リエ,0
2167,9400001016888,新規,0,2024-12-16,2024-12-16,株式会社ｅｇｎｅ,,株式会社,岩手県,紫波郡紫波町,東長岡字竹洞４３番地１,,03,321,0283324,,,,,,,2024-12-16,1,,,,,エグネ,0
2181,9480001012681,新規,0,2024-12-16,2024-12-16,株式会社Ｇｏｌｄ　Ｍｏｕｎｔａｉｎ,,株式会社,徳島県,吉野川市,川島町桑村１９７５番地４,,36,205,7793303,,,,,,,2024-12-16,1,,,,,ゴールドマウンテン,0
2182,9480003002210,新規,0,2024-12-16,2024-12-16,合同会社ハミングバード,,合同会社,徳島県,徳島市,南田宮３丁目５－３１－１０,,36,201,7700004,,,,,,,2024-12-16,1,,,,,ハミングバード,0
2188,9700150128256,新規,0,2024-12-16,2024-12-16,ＬＵＸＵＲＹ　ＣＡＲ　ＴＲＡＤＥＲＳ,,外国会社等,千葉県,旭市,長部４０２－１Ａ,,12,215,2890502,スリランカ民主社会主義共和国、Ｎｏ．２９０／７、ブルゴハテナ、アクラナ、キャンディ,,,,,,2024-12-16,1,,,,,ルクスリーカートレーダース,0
2189,9700150128264,新規,0,2024-12-16,2024-12-16,Ｅｕｒｏ　ｌａｎｋａ　ｉｎｔｅｒｎａｔｉｏｎａｌ　ｔｒａｖｅｌ　＆　ｔｏｕｒ,,外国会社等,茨城県,稲敷市,月出里８９番地８,,08,229,3000521,スリランカ民主社会主義共和国ハイヤンスーダワ，マビマ１１１／６,,,,,,2024-12-16,1,,,,,ユーロランカインターナシヨナルトラベルアンドツアー,0
