sequenceNumber,corporateNumber,process,correct,updateDate,changeDate,name,nameImageId,kind,prefectureName,cityName,streetNumber,addressImageId,prefectureCode,cityCode,postCode,addressOutside,addressOutsideImageId,closeDate,closeCause,successorCorporateNumber,changeCause,assignmentDate,latest,enName,enPrefectureName,enCityName,enAddressOutside,furigana,hihyoji
9,1010005025577,登記記録の閉鎖等,0,2021-11-22,2021-11-18,一般社団法人健康生活創造事業協同組合,,その他の設立登記法人,東京都,中央区,日本橋浜町２丁目１６番５号東味ビル２階,,13,102,1030007,,,2021-11-18,清算の結了等,,,2016-07-25,1,,,,,ケンコウセイカツソウゾウジギョウキョウドウクミアイ,0
11,1010401069145,登記記録の閉鎖等,0,2021-11-22,2021-11-11,株式会社ＳＣＵＤＥＲＩＡ－Ａ,,株式会社,東京都,港区,浜松町２丁目２番１５号,,13,103,1050013,,,2021-11-11,清算の結了等,,,2015-10-05,1,,,,,,0
15,1010401149962,登記記録の閉鎖等,0,2021-11-22,2021-11-12,株式会社ヒララ,,株式会社,東京都,港区,新橋３丁目１１番１号マルイト新橋ビル３階,,13,103,1050004,,,2021-11-12,清算の結了等,,,2019-12-19,1,,,,,ヒララ,0
17,1010401153345,登記記録の閉鎖等,0,2021-11-22,2021-11-12,株式会社グレート,,株式会社,東京都,港区,三田５丁目９番６号,,13,103,1080073,,,2021-11-12,清算の結了等,,,2020-06-16,1,,,,,グレート,0
28,1010901039390,登記記録の閉鎖等,0,2021-11-22,2021-11-15,犬塾株式会社,,株式会社,東京都,大田区,田園調布２丁目５０番１１号,,13,111,1450071,,,2021-11-15,清算の結了等,,,2017-01-13,1,,,,,イヌジュク,0
49,1011401021459,登記記録の閉鎖等,0,2021-11-22,2021-11-18,株式会社ＤＮＡ　ＮＯＷ,,株式会社,東京都,板橋区,大谷口１丁目６番１号荒川コーポ２０２,,13,119,1730035,,,2021-11-18,清算の結了等,,,2018-11-21,1,,,,,ディーエヌエーナウ,0
73,1020001079923,登記記録の閉鎖等,0,2021-11-22,2021-11-18,佐舗設備株式会社,,株式会社,神奈川県,川崎市宮前区,南野川１丁目１８番１４号,,14,136,2160042,,,2021-11-18,清算の結了等,,,2015-10-05,1,,,,,サジキセツビ,0
82,1020003008335,登記記録の閉鎖等,0,2021-11-22,2021-11-18,アキラメディカル合同会社,,合同会社,神奈川県,横浜市金沢区,大道２丁目５番１３号,,14,108,2360035,,,2021-11-18,清算の結了等,,,2015-10-05,1,,,,,アキラメディカル,0
94,1030001031164,登記記録の閉鎖等,0,2021-11-22,2021-11-17,株式会社実野里,,株式会社,埼玉県,久喜市,菖蒲町菖蒲１６２番地１,,11,232,3460106,,,2021-11-17,清算の結了等,,,2015-10-05,1,,,,,,0
112,1030002006371,登記記録の閉鎖等,0,2021-11-22,2021-11-16,有限会社シゲノ,,有限会社,埼玉県,さいたま市浦和区,東仲町１１番６号,,11,107,3300056,,,2021-11-16,清算の結了等,,,2015-10-05,1,,,,,シゲノ,0
133,1050002035872,登記記録の閉鎖等,0,2021-11-22,2021-11-17,有限会社井坂本店,,有限会社,茨城県,久慈郡大子町,大字大子６７１番地,,08,364,3193526,,,2021-11-17,清算の結了等,,,2015-10-05,1,,,,,イサカホンテン,0
134,1050003005239,登記記録の閉鎖等,0,2021-11-22,2021-11-17,ミラヴィズ合同会社,,合同会社,茨城県,高萩市,大字安良川２７０番地,,08,214,3180021,,,2021-11-17,清算の結了等,,,2020-06-26,1,,,,,ミラヴィズ,0
138,1070002023339,登記記録の閉鎖等,0,2021-11-22,2021-11-17,有限会社グランルージュ,,有限会社,群馬県,みどり市,笠懸町阿左美乙３３２４番地の３,,10,212,3792311,,,2021-11-17,清算の結了等,,,2015-10-05,1,,,,,グランルージュ,0
140,1080001009437,登記記録の閉鎖等,0,2021-11-22,2021-11-18,株式会社脇田工業所,,株式会社,静岡県,静岡市清水区,北脇新田４３０番地,,22,103,4240051,,,2021-11-18,清算の結了等,,,2015-10-05,1,,,,,ワキタコウギョウショ,0
166,1120101058577,登記記録の閉鎖等,0,2021-11-22,2021-11-15,レビックワークス株式会社,,株式会社,大阪府,堺市堺区,向陵中町３丁４番２４号,,27,141,5900024,,,2021-11-15,清算の結了等,,,2018-08-01,1,,,,,レビックワークス,0
179,1140002011088,登記記録の閉鎖等,0,2021-11-22,2021-11-16,有限会社河西商店,,有限会社,兵庫県,神戸市兵庫区,荒田町１丁目１９番８号,,28,105,6520032,,,2021-11-16,清算の結了等,,,2015-10-05,1,,,,,カワニシショウテン,0
211,1210001004795,登記記録の閉鎖等,0,2021-11-22,2021-11-17,株式会社福井ワシントンホテルサービス,,株式会社,福井県,福井市,大手３丁目１２番２０号,,18,201,9100005,,,2021-11-17,清算の結了等,,,2015-10-05,1,,,,,フクイワシントンホテルサービス,0
212,1210001016270,登記記録の閉鎖等,0,2021-11-22,2021-11-17,株式会社村外水産,,株式会社,福井県,坂井市,三国町滝谷３丁目６番３３号,,18,210,9130054,,,2021-11-17,清算の結了等,,,2016-03-17,1,,,,,,0
225,1250001008553,登記記録の閉鎖等,0,2021-11-22,2021-11-18,株式会社ＰＭＹ,,株式会社,山口県,宇部市,寿町１丁目３番１７号,,35,202,7550032,,,2021-11-18,清算の結了等,,,2015-10-05,1,,,,,ピーエムワイ,0
243,1330001003851,登記記録の閉鎖等,0,2021-11-22,2021-11-18,株式会社晴海商会,,株式会社,熊本県,熊本市北区,清水新地２丁目９番１２号,,43,105,8618075,,,2021-11-18,清算の結了等,,,2015-10-05,1,,,,,ハルミショウカイ,0
245,1330005003815,登記記録の閉鎖等,0,2021-11-22,2021-11-18,医療法人社団清賀会,,その他の設立登記法人,熊本県,上益城郡益城町,大字宮園４１１番地,,43,443,8612241,,,2021-11-18,清算の結了等,,,2015-10-05,1,,,,,セイガカイ,0
262,1390002008992,登記記録の閉鎖等,0,2021-11-22,2021-11-18,有限会社アイゲン電子,,有限会社,山形県,鶴岡市,稲生２丁目１３番３１号,,06,203,9970834,,,2021-11-18,清算の結了等,,,2015-10-05,1,,,,,アイゲンデンシ,0
272,1430002054396,登記記録の閉鎖等,0,2021-11-22,2021-11-19,有限会社佐建,,有限会社,北海道,小樽市,朝里川温泉２丁目６７３番地,,01,203,0470154,,,2021-11-19,清算の結了等,,,2015-10-05,1,,,,,サケン,0
285,2010001127855,登記記録の閉鎖等,0,2021-11-22,2021-11-18,株式会社ローズハウス,,株式会社,東京都,中央区,勝どき１丁目８番１－３９１０号,,13,102,1040054,,,2021-11-18,清算の結了等,,,2015-10-05,1,,,,,ローズハウス,0
296,2010002003188,登記記録の閉鎖等,0,2021-11-22,2021-11-19,有限会社ジャポネ,,有限会社,東京都,板橋区,板橋３丁目１５番５号アトラス板橋,,13,119,1730004,,,2021-11-19,清算の結了等,,,2015-10-05,1,,,,,ジャポネ,0
312,2010403016409,登記記録の閉鎖等,0,2021-11-22,2021-11-12,レッセフェール合同会社,,合同会社,東京都,港区,浜松町２丁目２番１５号,,13,103,1050013,,,2021-11-12,清算の結了等,,,2017-04-18,1,,,,,レッセフェール,0
352,2011801016347,登記記録の閉鎖等,0,2021-11-22,2021-11-19,株式会社ソル・ジャパン,,株式会社,東京都,足立区,千住大川町６番１号ライオンズマンション第７－１０４,,13,121,1200031,,,2021-11-19,清算の結了等,,,2015-10-05,1,,,,,ソルジャパン,0
363,2013102003652,登記記録の閉鎖等,0,2021-11-22,2021-11-18,有限会社育英社,,有限会社,東京都,羽村市,神明台３丁目３２番地１レクセルマンション羽村１０５,,13,227,2050023,,,2021-11-18,清算の結了等,,,2015-10-05,1,,,,,イクエイシャ,0
382,2020002037739,登記記録の閉鎖等,0,2021-11-22,2021-11-18,有限会社木村企画,,有限会社,神奈川県,横浜市鶴見区,下末吉１丁目２８番３号,,14,101,2300012,,,2021-11-18,清算の結了等,,,2015-10-05,1,,,,,キムラキカク,0
386,2020005012417,登記記録の閉鎖等,0,2021-11-22,2021-11-18,一般社団法人技術発想融合協会,,その他の設立登記法人,神奈川県,横浜市磯子区,磯子３丁目２番１７－５０２号,,14,107,2350016,,,2021-11-18,清算の結了等,,,2015-12-18,1,,,,,ギジュツハッソウユウゴウキョウカイ,0
390,2021002028397,登記記録の閉鎖等,0,2021-11-22,2021-11-18,有限会社藍玉,,有限会社,神奈川県,相模原市緑区,二本松３丁目１９番５号,,14,151,2520137,,,2021-11-18,清算の結了等,,,2015-10-05,1,,,,,アイダマ,0
391,2021002044774,登記記録の閉鎖等,0,2021-11-22,2021-11-17,有限会社小野寺塗裝店,,有限会社,神奈川県,海老名市,東柏ケ谷１丁目２番１８号,,14,215,2430401,,,2021-11-17,清算の結了等,,,2015-10-05,1,,,,,,0
392,2021005009808,登記記録の閉鎖等,0,2021-11-22,2021-11-16,特定非営利活動法人Ｄｏｇ＆Ｓｍｉｌｅ湘南,,その他の設立登記法人,神奈川県,鎌倉市,山崎９７３番地２エンゼルブレッサ鎌倉大船２０３号,,14,204,2470066,,,2021-11-16,清算の結了等,,,2015-10-05,1,,,,,ドッグアンドスマイルショウナン,0
398,2030001106072,登記記録の閉鎖等,0,2021-11-22,2021-11-17,株式会社ＳＷＥＬＬ,,株式会社,埼玉県,新座市,馬場２丁目２番４０号,,11,230,3520016,,,2021-11-17,清算の結了等,,,2015-10-05,1,,,,,,0
417,2050001011428,登記記録の閉鎖等,0,2021-11-22,2021-11-17,亀山建設株式会社,,株式会社,茨城県,小美玉市,山野１６５１番地の１８,,08,236,3113413,,,2021-11-17,清算の結了等,,,2015-10-05,1,,,,,カメヤマケンセツ,0
426,2060002039624,登記記録の閉鎖等,0,2021-11-22,2021-10-28,有限会社読売新聞佐野専売所,,有限会社,栃木県,佐野市,相生町２５番地２,,09,204,3270023,,,2021-10-28,清算の結了等,,,2015-10-05,1,,,,,,0
433,2080001020830,登記記録の閉鎖等,0,2021-11-22,2021-11-18,ガラ・オートモーティブ株式会社,,株式会社,静岡県,静岡市清水区,宮加三５５１番地４,,22,103,4240911,,,2021-11-18,清算の結了等,,,2016-03-28,1,,,,,ガラオートモーティブ,0
447,2110002001280,登記記録の閉鎖等,0,2021-11-22,2021-11-16,有限会社エム・スリー,,有限会社,新潟県,新潟市東区,岡山１５０番地１６,,15,102,9500821,,,2021-11-16,清算の結了等,,,2015-10-05,1,,,,,エムスリー,0
515,2210001017417,登記記録の閉鎖等,0,2021-11-22,2021-11-19,株式会社粋・Ｓｕｉ,,株式会社,福井県,三方上中郡若狭町,上吉田第１１号２０番地,,18,501,9191527,,,2021-11-19,清算の結了等,,,2019-01-29,1,,,,,スイ,0
518,2210002007945,登記記録の閉鎖等,0,2021-11-22,2021-11-17,有限会社北陸精工,,有限会社,福井県,坂井市,丸岡町南横地３号２番地,,18,210,9100375,,,2021-11-17,清算の結了等,,,2015-10-05,1,,,,,ホクリクセイコウ,0
524,2230002011598,登記記録の閉鎖等,0,2021-11-22,2021-11-17,有限会社天秤製作所,00079160,有限会社,富山県,高岡市,戸出栄町５５番地の１,,16,202,9391118,,,2021-11-17,清算の結了等,,,2015-10-05,1,,,,,テンピンセイサクショ,0
527,2250001007661,登記記録の閉鎖等,0,2021-11-22,2021-11-17,株式会社遊友,,株式会社,山口県,下関市,吉見古宿町２番１０号,,35,201,7596521,,,2021-11-17,清算の結了等,,,2015-10-05,1,,,,,ユウユウ,0
542,2300002007283,登記記録の閉鎖等,0,2021-11-22,2021-11-15,有限会社久本電器商会,,有限会社,佐賀県,杵島郡大町町,大字福母２２０２番地１,,41,423,8492102,,,2021-11-15,清算の結了等,,,2015-10-05,1,,,,,ヒサモトデンキショウカイ,0
546,2310005003923,登記記録の閉鎖等,0,2021-11-22,2021-11-18,長串生産森林組合,,その他の設立登記法人,長崎県,佐世保市,鹿町町長串１３４番地第２,,42,202,8596206,,,2021-11-18,清算の結了等,,,2015-10-05,1,,,,,ナグシ,0
599,3010402034410,登記記録の閉鎖等,0,2021-11-22,2021-11-12,有限会社日本のもの、こと研究所,,有限会社,東京都,港区,白金台３丁目１６－８クレール白金台２Ｆ－Ｆ号室,,13,103,1080071,,,2021-11-12,清算の結了等,,,2015-10-05,1,,,,,,0
614,3010702006308,登記記録の閉鎖等,0,2021-11-22,2021-11-17,有限会社根本製作所,,有限会社,東京都,品川区,二葉４丁目２番の１号,,13,109,1420043,,,2021-11-17,清算の結了等,,,2015-10-05,1,,,,,ネモトセイサクショ,0
652,3012402003799,登記記録の閉鎖等,0,2021-11-22,2021-11-18,有限会社大和工務店,,有限会社,東京都,国分寺市,並木町３丁目３番地６,,13,214,1850005,,,2021-11-18,清算の結了等,,,2015-10-05,1,,,,,ヤマトコウムテン,0
666,3020001063966,登記記録の閉鎖等,0,2021-11-22,2021-11-18,株式会社アクティ,,株式会社,神奈川県,川崎市多摩区,登戸１７６３番地,,14,135,2140014,,,2021-11-18,清算の結了等,,,2015-10-05,1,,,,,アクティ,0
690,3030002048247,登記記録の閉鎖等,0,2021-11-22,2021-11-15,有限会社浅賀紙器製作所,,有限会社,埼玉県,三郷市,高州３丁目１５１番地１,,11,237,3410037,,,2021-11-15,清算の結了等,,,2015-10-05,1,,,,,アサカシキセイサクジョ,0
705,3040002102399,登記記録の閉鎖等,0,2021-11-22,2021-11-15,丸高建材興業有限会社,,有限会社,千葉県,勝浦市,新官９２３番地の３,,12,218,2995224,,,2021-11-15,清算の結了等,,,2015-10-05,1,,,,,マルタカケンザイコウギョウ,0
706,3040003002045,登記記録の閉鎖等,0,2021-11-22,2021-11-15,合同会社ジェイト,,合同会社,長野県,北佐久郡軽井沢町,大字追分１５８８番地２６,,20,321,3890115,,,2021-11-15,清算の結了等,,,2015-10-05,1,,,,,ジェイト,0
711,3050002029641,登記記録の閉鎖等,0,2021-11-22,2021-11-16,マトバ興業有限会社,,有限会社,茨城県,鉾田市,飯島字浜屋敷６８５番地,,08,234,3112112,,,2021-11-16,清算の結了等,,,2015-10-05,1,,,,,マトバコウギョウ,0
716,3080002005937,登記記録の閉鎖等,0,2021-11-22,2021-11-18,有限会社桃園鐵工所,,有限会社,静岡県,静岡市駿河区,桃園町５番１号,,22,102,4210114,,,2021-11-18,清算の結了等,,,2015-10-05,1,,,,,モモゾノテッコウジョ,0
718,3080101004187,登記記録の閉鎖等,0,2021-11-22,2021-11-17,株式会社虎の門企画,,株式会社,静岡県,御殿場市,川島田１０６７番地の１,,22,215,4120045,,,2021-11-17,清算の結了等,,,2015-10-05,1,,,,,トラノモンキカク,0
728,3120001099744,登記記録の閉鎖等,0,2021-11-22,2021-11-16,ユニコンメディカル株式会社,,株式会社,大阪府,大阪市北区,東天満２丁目５番１６号,,27,127,5300044,,,2021-11-16,清算の結了等,,,2015-10-05,1,,,,,ユニコンメディカル,0
750,3130002017274,登記記録の閉鎖等,0,2021-11-22,2021-11-18,有限会社藤本興産,,有限会社,京都府,京都市左京区,下鴨北園町５９番地の１,,26,103,6060831,,,2021-11-18,清算の結了等,,,2015-10-05,1,,,,,フジモトコウサン,0
766,3180001122896,登記記録の閉鎖等,0,2021-11-22,2021-11-17,株式会社ＧＤＲ,,株式会社,愛知県,名古屋市天白区,梅が丘１丁目１１２番地,,23,116,4680004,,,2021-11-17,清算の結了等,,,2016-04-14,1,,,,,ジーディーアール,0
779,3230001015979,登記記録の閉鎖等,0,2021-11-22,2021-11-17,株式会社北陸地所,,株式会社,富山県,富山市,赤田２４８番地５,,16,201,9398064,,,2021-11-17,清算の結了等,,,2015-10-05,1,,,,,ホクリクジショ,0
800,3300002005633,登記記録の閉鎖等,0,2021-11-22,2021-11-17,有限会社まつばら工房,,有限会社,佐賀県,佐賀市,松原２丁目４番９号,,41,201,8400831,,,2021-11-17,清算の結了等,,,2015-10-05,1,,,,,マツバラコウボウ,0
803,3330002024663,登記記録の閉鎖等,0,2021-11-22,2021-11-18,有限会社フレンドシップツアー,,有限会社,熊本県,宇土市,新開町３０７番地,,43,211,8690403,,,2021-11-18,清算の結了等,,,2015-10-05,1,,,,,フレンドシップツアー,0
814,3370001041607,登記記録の閉鎖等,0,2021-11-22,2021-11-12,ワコー工業株式会社,,株式会社,宮城県,東松島市,大塩字尻貝２７番地２,,04,214,9810505,,,2021-11-12,清算の結了等,,,2017-06-07,1,,,,,ワコーコウギョウ,0
821,3380002017266,登記記録の閉鎖等,0,2021-11-22,2021-11-16,有限会社美さと工務店,,有限会社,福島県,本宮市,仁井田字桝形４０番地５１,,07,214,9691103,,,2021-11-16,清算の結了等,,,2015-10-05,1,,,,,ミサトコウムテン,0
825,3430002046557,登記記録の閉鎖等,0,2021-11-22,2021-11-17,有限会社若松農産,,有限会社,北海道,石狩郡新篠津村,第４１線南２３番地,,01,304,0681100,,,2021-11-17,清算の結了等,,,2015-10-05,1,,,,,ワカマツノウサン,0
828,3450005000402,登記記録の閉鎖等,0,2021-11-22,2021-11-17,医療法人社団光寿会,,その他の設立登記法人,北海道,旭川市,四条西１丁目２番７号,,01,204,0700054,,,2021-11-17,清算の結了等,,,2015-10-05,1,,,,,コウジュカイ,0
836,4010001101321,登記記録の閉鎖等,0,2021-11-22,2021-11-17,ＤＬアセットファイナンス２株式会社,,株式会社,東京都,千代田区,丸の内１丁目５番１号,,13,101,1000005,,,2021-11-17,清算の結了等,,,2015-10-05,1,,,,,ディーエルアセットファイナンスニ,0
838,4010001103334,登記記録の閉鎖等,0,2021-11-22,2021-11-17,ＤＬアセットファイナンス３株式会社,,株式会社,東京都,千代田区,丸の内１丁目５番１号,,13,101,1000005,,,2021-11-17,清算の結了等,,,2015-10-05,1,,,,,ディーエルアセットファイナンスサン,0
841,4010005003332,登記記録の閉鎖等,0,2021-11-22,2021-11-17,公益財団法人ヒューマンサイエンス振興財団,,その他の設立登記法人,東京都,千代田区,岩本町２丁目１１番１号,,13,101,1010032,,,2021-11-17,清算の結了等,,,2015-10-05,1,,,,,ヒューマンサイエンスシンコウザイダン,0
843,4010401087573,登記記録の閉鎖等,0,2021-11-22,2021-11-11,株式会社えん,,株式会社,東京都,港区,芝１丁目９番９号,,13,103,1050014,,,2021-11-11,清算の結了等,,,2015-10-05,1,,,,,,0
855,4010501024542,登記記録の閉鎖等,0,2021-11-22,2021-11-12,コードリーダー・ジャパン株式会社,,株式会社,東京都,葛飾区,奥戸６丁目１３番１５－３０５号ライオンズマンション小岩第３,,13,122,1240022,,,2021-11-12,清算の結了等,,,2015-10-05,1,,,,,コードリーダージャパン,0
856,4010502010731,登記記録の閉鎖等,0,2021-11-22,2021-11-18,有限会社豆舗梅林堂,,有限会社,東京都,台東区,浅草１丁目１８番２号,,13,106,1110032,,,2021-11-18,清算の結了等,,,2015-10-05,1,,,,,トウホバイリンドウ,0
868,4010903005850,登記記録の閉鎖等,0,2021-11-22,2021-11-18,合同会社イノバン,,合同会社,東京都,世田谷区,玉川３丁目２０番２号マノア玉川第３ビル５０１号室,,13,112,1580094,,,2021-11-18,清算の結了等,,,2020-07-22,1,,,,,イノバン,0
908,4021001017085,登記記録の閉鎖等,0,2021-11-22,2021-11-17,株式会社イーディーテクノ,,株式会社,神奈川県,相模原市中央区,中央５丁目１３－３－１０１,,14,152,2520239,,,2021-11-17,清算の結了等,,,2015-10-05,1,,,,,イーディーテクノ,0
919,4030001110873,登記記録の閉鎖等,0,2021-11-22,2021-11-16,株式会社ＹＭシステム,,株式会社,埼玉県,三郷市,番匠免１丁目６２番地３,,11,237,3410056,,,2021-11-16,清算の結了等,,,2015-10-13,1,,,,,ワイエムシステム,0
930,4040001096559,登記記録の閉鎖等,0,2021-11-22,2021-11-15,株式会社市坂商店,,株式会社,千葉県,船橋市,前貝塚町４８１番地２１ヒルハウス２０１号,,12,204,2730042,,,2021-11-15,清算の結了等,,,2016-08-17,1,,,,,イチサカショウテン,0
950,4060001015558,登記記録の閉鎖等,0,2021-11-22,2021-11-16,株式会社クロス設計,,株式会社,栃木県,下野市,下坪山１５８７番地,,09,216,3230115,,,2021-11-16,清算の結了等,,,2015-10-05,1,,,,,クロスセッケイ,0
1007,4180001087825,登記記録の閉鎖等,0,2021-11-22,2021-11-18,ラダック株式会社,,株式会社,愛知県,岩倉市,中本町古市場２６番地,,23,228,4820042,,,2021-11-18,清算の結了等,,,2015-10-05,1,,,,,ラダック,0
1021,4240005002823,登記記録の閉鎖等,0,2021-11-22,2021-11-19,特定非営利活動法人教育サポート広島,,その他の設立登記法人,広島県,広島市安芸区,瀬野西１丁目２番３号,,34,107,7390313,,,2021-11-19,清算の結了等,,,2015-10-05,1,,,,,キョウイクサポートヒロシマ,0
1024,4260002018333,登記記録の閉鎖等,0,2021-11-22,2021-11-16,有限会社三幸酒販,,有限会社,岡山県,倉敷市,連島町連島２４番地の２,,33,202,7128011,,,2021-11-16,清算の結了等,,,2015-10-05,1,,,,,サンコウシュハン,0
1056,4360001021088,登記記録の閉鎖等,0,2021-11-22,2021-11-16,株式会社嘉祥,,株式会社,沖縄県,那覇市,字天久８７７番地６０１,,47,201,9000005,,,2021-11-16,清算の結了等,,,2016-07-20,1,,,,,カショウ,0
1073,4410005003309,登記記録の閉鎖等,0,2021-11-22,2021-11-16,医療法人津谷内科,,その他の設立登記法人,秋田県,北秋田市,坊沢字屋敷３５番地,,05,213,0183333,,,2021-11-16,清算の結了等,,,2015-10-05,1,,,,,ツヤナイカ,0
1090,5010005030268,登記記録の閉鎖等,0,2021-11-22,2021-11-18,一般社団法人ＤＧＨ,,その他の設立登記法人,東京都,中央区,日本橋１丁目４番１号,,13,102,1030027,,,2021-11-18,清算の結了等,,,2019-06-04,1,,,,,ディージーエイチ,0
1101,5010403017271,登記記録の閉鎖等,0,2021-11-22,2021-11-11,白石市民ファンド合同会社,,合同会社,東京都,港区,元赤坂１丁目１番８号赤坂コミュニティビル４階,,13,103,1070051,,,2021-11-11,清算の結了等,,,2017-09-21,1,,,,,シロイシシミンファンド,0
1126,5011303004095,登記記録の閉鎖等,0,2021-11-22,2021-11-18,ＫＴＣ合同会社,,合同会社,東京都,杉並区,和田１丁目１２番４号エクセル和田４０４,,13,115,1660012,,,2021-11-18,清算の結了等,,,2021-07-12,1,,,,,ケーティーシー,0
1136,5012705000277,登記記録の閉鎖等,0,2021-11-22,2021-11-17,医療法人社団健支会,,その他の設立登記法人,東京都,東村山市,本町２丁目２０番２７号,,13,213,1890014,,,2021-11-17,清算の結了等,,,2015-10-05,1,,,,,ケンシカイ,0
1140,5020001070787,登記記録の閉鎖等,0,2021-11-22,2021-11-17,株式会社京栄社,,株式会社,神奈川県,川崎市幸区,古市場１丁目２６番地,,14,132,2120052,,,2021-11-17,清算の結了等,,,2015-10-05,1,,,,,キョウエイシャ,0
1164,5030001076453,登記記録の閉鎖等,0,2021-11-22,2021-11-18,株式会社中島商店,,株式会社,埼玉県,川口市,大字西新井宿５８７番地の１,,11,203,3330833,,,2021-11-18,清算の結了等,,,2015-10-05,1,,,,,ナカジマショウテン,0
1167,5030001106185,登記記録の閉鎖等,0,2021-11-22,2021-11-16,株式会社ブルースペース,,株式会社,埼玉県,川口市,西川口６丁目８番３３－３０２号,,11,203,3320021,,,2021-11-16,清算の結了等,,,2015-10-05,1,,,,,ブルースペース,0
1174,5030002013835,登記記録の閉鎖等,0,2021-11-22,2021-11-17,山上印刷鉛版有限会社,,有限会社,埼玉県,さいたま市西区,大字高木１３６７番地１,,11,101,3310071,,,2021-11-17,清算の結了等,,,2015-10-05,1,,,,,ヤマガミインサツエンバン,0
1192,5040002044879,登記記録の閉鎖等,0,2021-11-22,2021-11-12,有限会社岡田竹次郎酒店,,有限会社,千葉県,松戸市,金ケ作３４５番地の４,,12,207,2702251,,,2021-11-12,清算の結了等,,,2015-10-05,1,,,,,オカダタケジロウサケテン,0
1193,5050001038311,登記記録の閉鎖等,0,2021-11-22,2021-11-16,株式会社林眼科コンタクトレンズセンター,,株式会社,茨城県,水戸市,赤塚１丁目１９９７番地の１０３,,08,201,3114141,,,2021-11-16,清算の結了等,,,2015-10-05,1,,,,,ハヤシガンカコンタクトレンズセンター,0
1198,5060001010095,登記記録の閉鎖等,0,2021-11-22,2021-11-09,協和不動産株式会社,,株式会社,栃木県,真岡市,久下田１３９６番地１,,09,209,3214521,,,2021-11-09,清算の結了等,,,2015-10-05,1,,,,,キョウワフドウサン,0
1200,5060001032197,登記記録の閉鎖等,0,2021-11-22,2021-11-16,株式会社やすらぎ倶楽部,,株式会社,栃木県,足利市,永楽町９番地７,,09,202,3260055,,,2021-11-16,清算の結了等,,,2019-12-26,1,,,,,ヤスラギクラブ,0
1205,5080101018350,登記記録の閉鎖等,0,2021-11-22,2021-11-18,優愛サポート株式会社,,株式会社,静岡県,富士市,岩本３９３番地の１,,22,210,4160901,,,2021-11-18,清算の結了等,,,2015-10-05,1,,,,,ユウアイサポート,0
1207,5080401004827,登記記録の閉鎖等,0,2021-11-22,2021-11-15,株式会社ベルテック,,株式会社,静岡県,浜松市東区,大蒲町８８番地の１３,,22,132,4350014,,,2021-11-15,清算の結了等,,,2015-10-05,1,,,,,ベルテック,0
1215,5110001036044,登記記録の閉鎖等,0,2021-11-22,2021-11-16,株式会社石沢呉服店,,株式会社,新潟県,見附市,本町１丁目１番３２号,,15,211,9540053,,,2021-11-16,清算の結了等,,,2021-10-01,1,,,,,イシザワゴフクテン,0
1225,5120005021636,登記記録の閉鎖等,0,2021-11-22,2021-11-18,一般社団法人あいぼりーりぼん,,その他の設立登記法人,大阪府,大阪市福島区,福島２丁目９番１１号フォーラム福島５－３階,,27,103,5530003,,,2021-11-18,清算の結了等,,,2020-06-10,1,,,,,アイボリーリボン,0
1238,5130001066147,登記記録の閉鎖等,0,2021-11-22,2021-11-16,信徳産業株式会社,,株式会社,京都府,亀岡市,西別院町笑路頭木田一番地８,,26,206,6210125,,,2021-11-16,清算の結了等,,,2020-01-21,1,,,,,シントクサンギョウ,0
1268,5200002021820,登記記録の閉鎖等,0,2021-11-22,2021-11-17,有限会社山由製陶所,,有限会社,岐阜県,土岐市,妻木町８６１番地,,21,212,5095301,,,2021-11-17,清算の結了等,,,2015-10-05,1,,,,,ヤマヨシセイトウショ,0
1275,5240001052524,登記記録の閉鎖等,0,2021-11-22,2021-11-19,株式会社グランドーラ,,株式会社,広島県,広島市中区,西川口町２番１３号,,34,101,7300846,,,2021-11-19,清算の結了等,,,2018-03-19,1,,,,,グランドーラ,0
1298,5290801021310,登記記録の閉鎖等,0,2021-11-22,2021-11-16,株式会社ジーオーシー,,株式会社,福岡県,北九州市小倉南区,湯川１丁目５番５号,,40,107,8000257,,,2021-11-16,清算の結了等,,,2015-10-05,1,,,,,ジーオーシー,0
1312,5360002004545,登記記録の閉鎖等,0,2021-11-22,2021-11-12,有限会社ユウ・コーポレーション,,有限会社,沖縄県,那覇市,西１丁目５番１－１２０１号（ライオンズマンション西町）,,47,201,9000036,,,2021-11-12,清算の結了等,,,2015-10-05,1,,,,,ユウコーポレーション,0
1318,5380001014015,登記記録の閉鎖等,0,2021-11-22,2021-11-16,株式会社矢戸工務店,,株式会社,福島県,いわき市,小名浜下神白字筒地５１番地,,07,204,9700316,,,2021-11-16,清算の結了等,,,2015-10-05,1,,,,,ヤトコウムテン,0
1355,6010402007826,登記記録の閉鎖等,0,2021-11-22,2021-11-11,タイシン・メディカルサポート有限会社,,有限会社,東京都,港区,虎ノ門１丁目１番２５号,,13,103,1050001,,,2021-11-11,清算の結了等,,,2015-10-05,1,,,,,タイシンメディカルサポート,0
1388,6011802006434,登記記録の閉鎖等,0,2021-11-22,2021-11-18,有限会社ビックバン,,有限会社,東京都,葛飾区,青戸７丁目１０番９号,,13,122,1250062,,,2021-11-18,清算の結了等,,,2015-10-05,1,,,,,ビックバン,0
1393,6012402001833,登記記録の閉鎖等,0,2021-11-22,2021-11-16,有限会社デンタル・カンパニー,,有限会社,東京都,府中市,白糸台２丁目５７番地の２０,,13,206,1830011,,,2021-11-16,清算の結了等,,,2015-10-05,1,,,,,デンタルカンパニー,0
1403,6020002049160,登記記録の閉鎖等,0,2021-11-22,2021-11-18,有限会社フレシ商事,,有限会社,神奈川県,横浜市港北区,日吉本町５丁目４２番２７号,,14,109,2230062,,,2021-11-18,清算の結了等,,,2015-10-05,1,,,,,フレシショウジ,0
1420,6030002108584,登記記録の閉鎖等,0,2021-11-22,2021-11-17,有限会社モトヤマウェルディング,,有限会社,埼玉県,川口市,大字東本郷１５７０番地の３２,,11,203,3340063,,,2021-11-17,清算の結了等,,,2015-10-05,1,,,,,モトヤマウェルディング,0
1424,6030005000631,登記記録の閉鎖等,0,2021-11-22,2021-11-18,浦和薬業協同組合,,その他の設立登記法人,埼玉県,さいたま市浦和区,北浦和２丁目２番５号,,11,107,3300074,,,2021-11-18,清算の結了等,,,2015-10-05,1,,,,,ウラワヤクギョウ,0
1471,6120101057871,登記記録の閉鎖等,0,2021-11-22,2021-11-15,株式会社ダイテック,,株式会社,大阪府,泉北郡忠岡町,忠岡北３丁目３番３９号,,27,341,5950811,,,2021-11-15,清算の結了等,,,2018-03-07,1,,,,,ダイテック,0
1475,6120901034855,登記記録の閉鎖等,0,2021-11-22,2021-11-17,株式会社ルシエル,,株式会社,大阪府,豊中市,玉井町１丁目１番１号エトレ豊中２階,,27,203,5600026,,,2021-11-17,清算の結了等,,,2015-10-05,1,,,,,ルシエル,0
1500,6180001046250,登記記録の閉鎖等,0,2021-11-22,2021-11-18,株式会社ソフトブレイン,,株式会社,愛知県,一宮市,萩原町萩原字河原崎８５番地,,23,203,4910353,,,2021-11-18,清算の結了等,,,2015-10-05,1,,,,,ソフトブレイン,0
1503,6180001076339,登記記録の閉鎖等,0,2021-11-22,2021-11-16,株式会社長谷川,,株式会社,愛知県,小牧市,曙町２７番地,00072302,23,219,4850047,,,2021-11-16,清算の結了等,,,2015-10-05,1,,,,,ハセガワ,0
1506,6180002055779,登記記録の閉鎖等,0,2021-11-22,2021-11-18,有限会社凛,,有限会社,愛知県,名古屋市中区,丸の内１丁目８番３９号,,23,106,4600002,,,2021-11-18,清算の結了等,,,2015-10-05,1,,,,,,0
1509,6180301012737,登記記録の閉鎖等,0,2021-11-22,2021-11-17,株式会社大見組,,株式会社,愛知県,安城市,桜町１６番１３号,,23,212,4460041,,,2021-11-17,清算の結了等,,,2015-10-05,1,,,,,オオミグミ,0
1513,6200001007935,登記記録の閉鎖等,0,2021-11-22,2021-11-18,コンクエスト株式会社,,株式会社,岐阜県,岐阜市,須賀１丁目８番３号,,21,201,5008289,,,2021-11-18,清算の結了等,,,2015-10-05,1,,,,,コンクエスト,0
1537,6290001076435,登記記録の閉鎖等,0,2021-11-22,2021-11-12,クリックテル・ジャパン株式会社,,株式会社,福岡県,福岡市中央区,大名２丁目６番１１号－３１３,,40,133,8100041,,,2021-11-12,清算の結了等,,,2017-01-18,1,,,,,クリックテルジャパン,0
1561,6370502001081,登記記録の閉鎖等,0,2021-11-22,2021-11-12,有限会社山内インダストリ,,有限会社,宮城県,本吉郡南三陸町,歌津字樋の口４５番地,00082295,04,606,9880478,,,2021-11-12,清算の結了等,,,2015-10-05,1,,,,,ヤマウチインダストリ,0
1572,6430001073616,登記記録の閉鎖等,0,2021-11-22,2021-11-17,株式会社ＫＯＭＩＹＡ　ＴＨＥ　ＳＥＣＯＮＤ　ＣＨＡＬＬＥＮＧＥ,,株式会社,北海道,札幌市中央区,南七条西１６丁目２番１４号,,01,101,0640807,,,2021-11-17,合併による解散等,8011801024410,令和３年１１月１日東京都荒川区西日暮里五丁目２９番５号白澤ビル１Ｆ株式会社Ｕｌｕｒｕ（8011801024410）に合併し解散,2017-03-29,1,,,,,コミヤザセカンドチャレンジ,0
1580,6470002001935,登記記録の閉鎖等,0,2021-11-22,2021-11-18,勘定園業有限会社,,有限会社,香川県,高松市,前田西町９２２番地,,37,201,7610321,,,2021-11-18,清算の結了等,,,2015-10-05,1,,,,,カンジョウエンギョウ,0
1588,7010001103174,登記記録の閉鎖等,0,2021-11-22,2021-11-18,株式会社ニックスゴーイチゴー,,株式会社,東京都,千代田区,一番町２２番地２,,13,101,1020082,,,2021-11-18,清算の結了等,,,2015-10-05,1,,,,,,0
1590,7010001130598,登記記録の閉鎖等,0,2021-11-22,2021-11-17,ＭＵＬアセットファイナンス３株式会社,,株式会社,東京都,千代田区,丸の内１丁目５番１号,,13,101,1000005,,,2021-11-17,清算の結了等,,,2015-10-05,1,,,,,エムユーエルアセットファイナンスサン,0
1591,7010001170479,登記記録の閉鎖等,0,2021-11-22,2021-11-15,シドニアコンサルティング株式会社,,株式会社,東京都,港区,赤坂９丁目２－９カルム赤坂１０６号室,,13,103,1070052,,,2021-11-15,清算の結了等,,,2015-10-05,1,,,,,シドニアコンサルティング,0
1631,7011102002026,登記記録の閉鎖等,0,2021-11-22,2021-11-16,有限会社エヌエス,,有限会社,東京都,新宿区,西新宿４丁目２２番１号,,13,104,1600023,,,2021-11-16,清算の結了等,,,2015-10-05,1,,,,,エヌエス,0
1635,7011201013832,登記記録の閉鎖等,0,2021-11-22,2021-11-16,理研精機株式会社,,株式会社,東京都,中野区,上高田１丁目３４番８号,,13,114,1640002,,,2021-11-16,清算の結了等,,,2015-10-05,1,,,,,リケンセイキ,0
1643,7011601003862,登記記録の閉鎖等,0,2021-11-22,2021-11-18,中央産業株式会社,,株式会社,東京都,練馬区,石神井台３丁目３０番２号,,13,120,1770045,,,2021-11-18,清算の結了等,,,2015-10-05,1,,,,,チュウオウサンギョウ,0
1645,7011703000717,登記記録の閉鎖等,0,2021-11-22,2021-11-19,パイロットレーシングマネージメント合同会社,,合同会社,東京都,江戸川区,松江３丁目４番１号,,13,123,1320025,,,2021-11-19,清算の結了等,,,2015-10-05,1,,,,,パイロットレーシングマネージメント,0
1647,7011801002474,登記記録の閉鎖等,0,2021-11-22,2021-11-18,千成商事株式会社,,株式会社,東京都,足立区,足立１丁目３３番１０号,,13,121,1200015,,,2021-11-18,清算の結了等,,,2015-10-05,1,,,,,センナリショウジ,0
1663,7020002016036,登記記録の閉鎖等,0,2021-11-22,2021-11-19,有限会社あむりす,,有限会社,岩手県,滝沢市,鵜飼諸葛川２１番地３８,,03,216,0200663,,,2021-11-19,清算の結了等,,,2015-10-05,1,,,,,アムリス,0
1679,7021002056682,登記記録の閉鎖等,0,2021-11-22,2021-11-17,有限会社アルビ,,有限会社,神奈川県,平塚市,宝町５番２７号,,14,203,2540034,,,2021-11-17,清算の結了等,,,2015-10-05,1,,,,,アルビ,0
1687,7030001041364,登記記録の閉鎖等,0,2021-11-22,2021-11-10,三和建設株式会社,,株式会社,埼玉県,上尾市,春日２丁目２５番２号,,11,219,3620074,,,2021-11-10,清算の結了等,,,2015-10-05,1,,,,,サンワケンセツ,0
1690,7030001094081,登記記録の閉鎖等,0,2021-11-22,2021-11-17,株式会社ゴーソイル,,株式会社,埼玉県,幸手市,東１丁目１８番２７号,,11,240,3400114,,,2021-11-17,清算の結了等,,,2015-10-05,1,,,,,ゴーソイル,0
1700,7030005008657,登記記録の閉鎖等,0,2021-11-22,2021-11-16,特定非営利活動法人じばぁー舎,,その他の設立登記法人,埼玉県,川越市,広谷新町２９番地１３,,11,201,3500805,,,2021-11-16,清算の結了等,,,2015-10-05,1,,,,,ジバァーシャ,0
1710,7050001030274,登記記録の閉鎖等,0,2021-11-22,2021-11-15,株式会社ベストラーニング,,株式会社,茨城県,取手市,井野５６６番地６６,,08,217,3020011,,,2021-11-15,清算の結了等,,,2015-10-05,1,,,,,ベストラーニング,0
1714,7050005007137,登記記録の閉鎖等,0,2021-11-22,2021-11-17,日立鉄工協同組合,,その他の設立登記法人,茨城県,日立市,桜川町２丁目２５番３号,,08,202,3160002,,,2021-11-17,清算の結了等,,,2015-10-05,1,,,,,,0
1728,7120002011571,登記記録の閉鎖等,0,2021-11-22,2021-11-16,有限会社津本工芸社,,有限会社,大阪府,大阪市平野区,喜連７丁目６番３３号,,27,126,5470027,,,2021-11-16,清算の結了等,,,2015-10-05,1,,,,,ツモトコウゲイシャ,0
1758,7180302021620,登記記録の閉鎖等,0,2021-11-22,2021-11-17,有限会社オートギャラリーサカエ,,有限会社,愛知県,豊田市,栄町５丁目１０番地１,,23,211,4710066,,,2021-11-17,清算の結了等,,,2015-10-05,1,,,,,オートギャラリーサカエ,0
1762,7200001010104,登記記録の閉鎖等,0,2021-11-22,2021-11-19,成瀬建設株式会社,,株式会社,岐阜県,本巣市,仏生寺８２８番地の１,,21,218,5010407,,,2021-11-19,清算の結了等,,,2015-10-05,1,,,,,ナルセケンセツ,0
1808,7360001010369,登記記録の閉鎖等,0,2021-11-22,2021-11-16,株式会社オーシャンサプライ沖縄,,株式会社,沖縄県,浦添市,牧港２丁目３０番１号,,47,208,9012131,,,2021-11-16,清算の結了等,,,2015-10-05,1,,,,,,0
1826,7390002005472,登記記録の閉鎖等,0,2021-11-22,2021-11-19,有限会社サンザシ,,有限会社,山形県,天童市,鎌田１丁目１番１５号,,06,210,9940024,,,2021-11-19,清算の結了等,,,2015-10-05,1,,,,,サンザシ,0
1835,7430002054770,登記記録の閉鎖等,0,2021-11-22,2021-11-19,兆榮運輸有限会社,,有限会社,北海道,小樽市,高島１丁目２番２号,,01,203,0470048,,,2021-11-19,清算の結了等,,,2015-10-05,1,,,,,チョウエイウンユ,0
1836,7430005001976,登記記録の閉鎖等,0,2021-11-22,2021-11-17,医療法人社団古川内科医院,,その他の設立登記法人,北海道,札幌市中央区,大通西１丁目１４番地２,,01,101,0600042,,,2021-11-17,清算の結了等,,,2015-10-05,1,,,,,フルカワナイカイイン,0
1846,8010001106226,登記記録の閉鎖等,0,2021-11-22,2021-11-17,株式会社マトリカ,,株式会社,東京都,世田谷区,野沢４丁目２－１０野沢ビル２Ｆ１－１,,13,112,1540003,,,2021-11-17,清算の結了等,,,2015-10-05,1,,,,,マトリカ,0
1853,8010002012547,登記記録の閉鎖等,0,2021-11-22,2021-11-16,有限会社デジット・プロ,,有限会社,東京都,千代田区,九段南４丁目６番１号,,13,101,1020074,,,2021-11-16,清算の結了等,,,2015-10-05,1,,,,,デジットプロ,0
1877,8010501033060,登記記録の閉鎖等,0,2021-11-22,2021-11-18,株式会社小高,,株式会社,東京都,台東区,今戸１丁目１０番１号,,13,106,1110024,,,2021-11-18,清算の結了等,,,2015-10-05,1,,,,,オダカ,0
1896,8011101095185,登記記録の閉鎖等,0,2021-11-22,2021-11-17,パルク株式会社,,株式会社,東京都,新宿区,西新宿３丁目２番９号新宿ワシントンホテルビル本館２Ｆ,,13,104,1600023,,,2021-11-17,清算の結了等,,,2021-05-27,1,,,,,パルク,0
1900,8011202002858,登記記録の閉鎖等,0,2021-11-22,2021-11-16,有限会社システムティアンドティ,,有限会社,東京都,中野区,大和町１丁目６番５号,,13,114,1650034,,,2021-11-16,清算の結了等,,,2015-10-05,1,,,,,システムティアンドティ,0
1919,8013202001765,登記記録の閉鎖等,0,2021-11-22,2021-11-16,有限会社葛西商事,00049917,有限会社,東京都,千代田区,富士見２丁目１０番３号,,13,101,1020071,,,2021-11-16,清算の結了等,,,2015-10-05,1,,,,,カサイショウジ,0
1923,8013402003041,登記記録の閉鎖等,0,2021-11-22,2021-11-08,有限会社本吉設備,,有限会社,東京都,多摩市,連光寺１丁目１６番地の６９,,13,224,2060021,,,2021-11-08,清算の結了等,,,2015-10-05,1,,,,,モトヨシセツビ,0
1934,8020002092489,登記記録の閉鎖等,0,2021-11-22,2021-11-18,有限会社大成通信機,,有限会社,神奈川県,川崎市多摩区,布田１０番６号,,14,135,2140011,,,2021-11-18,清算の結了等,,,2015-10-05,1,,,,,タイセイツウシンキ,0
1940,8021002042054,登記記録の閉鎖等,0,2021-11-22,2021-11-16,有限会社服部工務店,,有限会社,神奈川県,大和市,上草柳７丁目１０番２８－１０４号,,14,213,2420029,,,2021-11-16,清算の結了等,,,2015-10-05,1,,,,,ハットリコウムテン,0
1943,8030001027271,登記記録の閉鎖等,0,2021-11-22,2021-11-15,株式会社弁天寿司,,株式会社,埼玉県,入間市,宮寺２９２５番地１８,,11,225,3580014,,,2021-11-15,清算の結了等,,,2015-10-05,1,,,,,ベンテンスシ,0
1951,8030002006596,登記記録の閉鎖等,0,2021-11-22,2021-11-17,有限会社十全堂,,有限会社,埼玉県,さいたま市浦和区,北浦和１丁目１５番５号,,11,107,3300074,,,2021-11-17,清算の結了等,,,2015-10-05,1,,,,,ジュウゼンドウ,0
1954,8030002023600,登記記録の閉鎖等,0,2021-11-22,2021-11-16,有限会社安達水道,,有限会社,埼玉県,戸田市,氷川町１丁目５番７号,,11,224,3350027,,,2021-11-16,清算の結了等,,,2015-10-05,1,,,,,アダチスイドウ,0
1957,8030002047013,登記記録の閉鎖等,0,2021-11-22,2021-11-17,有限会社栄紙工,,有限会社,埼玉県,八潮市,大字大曽根１２５５番地３,,11,234,3400834,,,2021-11-17,清算の結了等,,,2015-10-05,1,,,,,,0
1959,8030002099302,登記記録の閉鎖等,0,2021-11-22,2021-11-17,有限会社ハト薬局,,有限会社,埼玉県,川口市,西川口５丁目１３番２７号新井ビル１階,,11,203,3320021,,,2021-11-17,清算の結了等,,,2015-10-05,1,,,,,,0
1964,8040001055189,登記記録の閉鎖等,0,2021-11-22,2021-11-16,君塚建設株式会社,,株式会社,千葉県,市原市,菊間１３７４番地５,,12,219,2900007,,,2021-11-16,清算の結了等,,,2021-07-09,1,,,,,キミヅカケンセツ,0
1975,8060001015810,登記記録の閉鎖等,0,2021-11-22,2021-11-16,株式会社ボイジャープランニング,,株式会社,栃木県,下都賀郡野木町,大字友沼５１１１番地１２,,09,364,3290101,,,2021-11-16,清算の結了等,,,2015-10-05,1,,,,,ボイジャープランニング,0
1977,8060001020612,登記記録の閉鎖等,0,2021-11-22,2021-11-15,株式会社普賢,,株式会社,栃木県,佐野市,本町２８９３番地,,09,204,3270013,,,2021-11-15,清算の結了等,,,2015-10-05,1,,,,,,0
1985,8080001016402,登記記録の閉鎖等,0,2021-11-22,2021-11-18,弘和産業株式会社,,株式会社,静岡県,藤枝市,大洲５丁目２番地の１１,,22,214,4260051,,,2021-11-18,清算の結了等,,,2015-10-05,1,,,,,コウワサンギョウ,0
1990,8080102002953,登記記録の閉鎖等,0,2021-11-22,2021-11-17,有限会社原田工務店,,有限会社,静岡県,沼津市,西浦木負２７番地の１,,22,203,4100231,,,2021-11-17,清算の結了等,,,2015-10-05,1,,,,,,0
2036,8130002032938,登記記録の閉鎖等,0,2021-11-22,2021-11-18,有限会社リカーショップうえむら,,有限会社,京都府,福知山市,字長田２１２２番地の１,,26,201,6200000,,,2021-11-18,清算の結了等,,,2015-10-05,1,,,,,リカーショップウエムラ,0
2043,8140003014843,登記記録の閉鎖等,0,2021-11-22,2021-11-18,合同会社Ｇｌｏｂａｌ　Ｅｎｇｌｉｓｈ　Ｓｏｕｒｃｅ,,合同会社,兵庫県,芦屋市,東芦屋町１７番２３号ゾンネンハイム芦屋１０８号,00119355,28,206,6590095,,,2021-11-18,清算の結了等,,,2020-03-31,1,,,,,グローバルイングリッシュソース,0
2054,8180001135480,登記記録の閉鎖等,0,2021-11-22,2021-11-16,株式会社日野春商事,,株式会社,愛知県,名古屋市千種区,新池町２丁目８番地エスポア東山５０４,,23,101,4640027,,,2021-11-16,清算の結了等,,,2019-02-14,1,,,,,ヒノハルショウジ,0
2059,8180302007222,登記記録の閉鎖等,0,2021-11-22,2021-11-18,キング石鹸工業有限会社,00074919,有限会社,愛知県,豊橋市,大岩町字東郷内１９８番地,,23,201,4413142,,,2021-11-18,清算の結了等,,,2015-10-05,1,,,,,キングセッケンコウギョウ,0
2064,8200001005128,登記記録の閉鎖等,0,2021-11-22,2021-11-18,株式会社丸秀服部,,株式会社,岐阜県,岐阜市,高砂町５丁目６番地,,21,201,5008407,,,2021-11-18,清算の結了等,,,2015-10-05,1,,,,,マルヒデハットリ,0
2068,8200005012327,登記記録の閉鎖等,0,2021-11-22,2021-11-17,特定非営利活動法人いちゃりば経大,,その他の設立登記法人,岐阜県,大垣市,北方町５丁目５０番地,,21,202,5030019,,,2021-11-17,清算の結了等,,,2015-10-05,1,,,,,,0
2072,8220002005629,登記記録の閉鎖等,0,2021-11-22,2021-11-18,ミカサ商事有限会社,,有限会社,石川県,金沢市,長町３丁目１１番１９号,,17,201,9200865,,,2021-11-18,清算の結了等,,,2015-10-05,1,,,,,ミカサショウジ,0
2097,8320002002946,登記記録の閉鎖等,0,2021-11-22,2021-11-18,有限会社櫻井商会,,有限会社,大分県,大分市,上宗方南３丁目５番２号,,44,201,8701167,,,2021-11-18,清算の結了等,,,2015-10-05,1,,,,,サクライショウカイ,0
2098,8320002007029,登記記録の閉鎖等,0,2021-11-22,2021-11-19,有限会社山本機材,,有限会社,大分県,大分市,萩原３丁目３番１０号,,44,201,8700921,,,2021-11-19,清算の結了等,,,2015-10-05,1,,,,,,0
2111,8380002025388,登記記録の閉鎖等,0,2021-11-22,2021-11-16,有限会社ノジマ測量設計事務所,,有限会社,福島県,いわき市,好間町下好間字向山１２５番地の２,,07,204,9701151,,,2021-11-16,清算の結了等,,,2015-10-05,1,,,,,ノジマソクリョウセッケイジムショ,0
2114,8400001013077,登記記録の閉鎖等,0,2021-11-22,2021-11-19,レンカヘルスケア株式会社,,株式会社,岩手県,盛岡市,向中野７丁目３番１１号Ｄ１タウンハウスＳＡＩＫＡＷＡ,,03,201,0200851,,,2021-11-19,清算の結了等,,,2016-02-24,1,,,,,レンカヘルスケア,0
2117,8410002009057,登記記録の閉鎖等,0,2021-11-22,2021-11-16,有限会社エーエムエフ,,有限会社,秋田県,大館市,清水４丁目１番６８－１号,,05,204,0170046,,,2021-11-16,清算の結了等,,,2015-10-05,1,,,,,エーエムエフ,0
2138,9010002022149,登記記録の閉鎖等,0,2021-11-22,2021-11-17,ＭＵＬアセットファイナンス７有限会社,,有限会社,東京都,千代田区,丸の内１丁目５番１号,,13,101,1000005,,,2021-11-17,清算の結了等,,,2015-10-05,1,,,,,エムユーエルアセットファイナンスナナ,0
2141,9010005031114,登記記録の閉鎖等,0,2021-11-22,2021-11-18,一般社団法人ＤＧＨ２,,その他の設立登記法人,東京都,中央区,日本橋１丁目４番１号,,13,102,1030027,,,2021-11-18,清算の結了等,,,2019-11-27,1,,,,,ディージーエイチツー,0
2147,9010401117821,登記記録の閉鎖等,0,2021-11-22,2021-11-11,株式会社ＷＨＩＴＥ,,株式会社,東京都,港区,六本木１丁目４番５号,,13,103,1060032,,,2021-11-11,清算の結了等,,,2015-10-05,1,,,,,ホワイト,0
2160,9010601057017,登記記録の閉鎖等,0,2021-11-22,2021-11-18,株式会社Ｈｏｎｅｙ　Ａｔ,,株式会社,東京都,渋谷区,恵比寿４丁目２０－４,,13,113,1500013,,,2021-11-18,合併による解散等,2010401118883,令和３年１１月１日東京都品川区西五反田３－１２－１４西五反田プレイス１階テテマーチ株式会社（2010401118883）に合併し解散,2020-03-09,1,,,,,ハニーアット,0
2169,9010701026111,登記記録の閉鎖等,0,2021-11-22,2021-11-18,ａｍｓジャパン株式会社,,株式会社,東京都,港区,港南２丁目１２番３２号,,13,103,1080075,,,2021-11-18,合併による解散等,1020001122872,令和３年１０月１日横浜市神奈川区金港町１番地７オスラムオプトセミコンダクターズジャパン株式会社（1020001122872）に合併し解散,2015-10-05,1,,,,,エーエムエスジャパン,0
2175,9010802016473,登記記録の閉鎖等,0,2021-11-22,2021-11-12,日本ビジネスプランニング有限会社,,有限会社,東京都,大田区,西嶺町２９番１４号,,13,111,1450075,,,2021-11-12,合併による解散等,2010801003933,令和３年１１月１２日東京都大田区西嶺町２９番１４号五基地所株式会社（2010801003933）に合併し解散,2015-10-05,1,,,,,ニホンビジネスプランニング,0
2187,9011001055478,登記記録の閉鎖等,0,2021-11-22,2021-11-02,株式会社バーズ・アソシエーション,,株式会社,東京都,渋谷区,千駄ヶ谷３丁目２６番８号ＢＩＲＺビル,,13,113,1510051,,,2021-11-02,清算の結了等,,,2015-10-05,1,,,,,バーズアソシエーション,0
2223,9021001055840,登記記録の閉鎖等,0,2021-11-22,2021-11-17,株式会社なまえめがね,,株式会社,神奈川県,鎌倉市,二階堂５８番地３５,,14,204,2480002,,,2021-11-17,清算の結了等,,,2015-10-05,1,,,,,ナマエメガネ,0
2225,9021002051780,登記記録の閉鎖等,0,2021-11-22,2021-11-12,有限会社小林良助商店,,有限会社,神奈川県,小田原市,中里３９７番地,,14,206,2500872,,,2021-11-12,清算の結了等,,,2015-10-05,1,,,,,コバヤシリョウスケショウテン,0
2249,9040002079137,登記記録の閉鎖等,0,2021-11-22,2021-11-08,有限会社先崎建工,,有限会社,千葉県,東金市,日吉台７丁目１２番地６１,,12,213,2830803,,,2021-11-08,清算の結了等,,,2015-10-05,1,,,,,マッサキケンコウ,0
2254,9070003000404,登記記録の閉鎖等,0,2021-11-22,2021-11-18,ビーウェイコンサルティング合名会社,,合名会社,群馬県,前橋市,住吉町２丁目９番１２号,,10,201,3710021,,,2021-11-18,清算の結了等,,,2015-10-05,1,,,,,ビーウェイコンサルティング,0
2267,9110003003195,登記記録の閉鎖等,0,2021-11-22,2021-11-16,合同会社ＨＡＹＡＴＡＫＡ,,合同会社,新潟県,新発田市,上館２０６番地４,,15,206,9592452,,,2021-11-16,清算の結了等,,,2015-10-19,1,,,,,ハヤタカ,0
2278,9120005015535,登記記録の閉鎖等,0,2021-11-22,2021-11-18,特定非営利活動法人ＪＰＲＯ,,その他の設立登記法人,大阪府,大阪市浪速区,日本橋東１丁目３番８号,,27,111,5560006,,,2021-11-18,清算の結了等,,,2015-10-05,1,,,,,ジェイプロ,0
2280,9120101047977,登記記録の閉鎖等,0,2021-11-22,2021-11-18,株式会社大成工務店,,株式会社,大阪府,松原市,天美我堂７丁目５３７番２,,27,217,5800026,,,2021-11-18,清算の結了等,,,2015-10-05,1,,,,,,0
2282,9120901042995,登記記録の閉鎖等,0,2021-11-22,2021-11-12,株式会社崗,,株式会社,大阪府,吹田市,山田西２丁目８番Ａ４－２０３,,27,205,5650824,,,2021-11-12,清算の結了等,,,2020-07-17,1,,,,,オカ,0
2295,9140003016582,登記記録の閉鎖等,0,2021-11-22,2021-11-05,合同会社みもざ,,合同会社,兵庫県,尼崎市,西立花町３丁目７番１号,,28,202,6600054,,,2021-11-05,清算の結了等,,,2021-08-04,1,,,,,ミモザ,0
2309,9210001014028,登記記録の閉鎖等,0,2021-11-22,2021-11-19,株式会社ブライダルサカモト,,株式会社,福井県,小浜市,南川町１５番２１号,,18,204,9170075,,,2021-11-19,清算の結了等,,,2015-10-05,1,,,,,,0
2314,9240002053261,登記記録の閉鎖等,0,2021-11-22,2021-11-18,有限会社シマダ調剤薬局,,有限会社,広島県,三原市,本町３丁目１５番１３号,,34,204,7230062,,,2021-11-18,清算の結了等,,,2015-10-05,1,,,,,シマダチョウザイヤッキョク,0
2345,9370601002580,登記記録の閉鎖等,0,2021-11-22,2021-11-08,Ｋ．Ｍサービス株式会社,,株式会社,宮城県,宮城郡松島町,磯崎字長田８０番地の２０１,,04,401,9810212,,,2021-11-08,清算の結了等,,,2015-10-05,1,,,,,ケイエムサービス,0
2347,9370801001531,登記記録の閉鎖等,0,2021-11-22,2021-11-12,株式会社ロジスチール,,株式会社,宮城県,岩沼市,下野郷字新南長沼３０番地の６,,04,211,9892421,,,2021-11-12,清算の結了等,,,2015-10-05,1,,,,,ロジスチール,0
2348,9370801001572,登記記録の閉鎖等,0,2021-11-22,2021-11-15,株式会社千馬工業,,株式会社,宮城県,名取市,増田字柳田６８８,,04,207,9811224,,,2021-11-15,清算の結了等,,,2015-10-05,1,,,,,センマコウギョウ,0
2351,9390001002270,登記記録の閉鎖等,0,2021-11-22,2021-11-18,株式会社結設計,,株式会社,山形県,山形市,緑町３丁目５番１７号,,06,201,9900041,,,2021-11-18,清算の結了等,,,2015-10-05,1,,,,,ユイセッケイ,0
