sequenceNumber,corporateNumber,process,correct,updateDate,changeDate,name,nameImageId,kind,prefectureName,cityName,streetNumber,addressImageId,prefectureCode,cityCode,postCode,addressOutside,addressOutsideImageId,closeDate,closeCause,successorCorporateNumber,changeCause,assignmentDate,latest,enName,enPrefectureName,enCityName,enAddressOutside,furigana,hihyoji
10,1010003031965,登記記録の閉鎖等,0,2021-08-23,2021-08-16,合同会社恵比寿リアルエステート,,合同会社,東京都,千代田区,丸の内３丁目１番１号,,13,101,1000005,,,2021-08-16,清算の結了等,,,2020-03-25,1,,,,,エビスリアルエステート,0
37,1011001094731,登記記録の閉鎖等,0,2021-08-23,2021-08-02,株式会社ケイテック,,株式会社,東京都,目黒区,柿の木坂１丁目１６番２０号,,13,110,1520022,,,2021-08-02,清算の結了等,,,2015-10-05,1,,,,,ケイテック,0
86,1040001026642,登記記録の閉鎖等,0,2021-08-23,2021-08-02,株式会社全商,,株式会社,千葉県,市川市,鬼高４丁目１３番２１号,,12,203,2720015,,,2021-08-02,清算の結了等,,,2021-06-02,1,,,,,,0
113,1120001032748,登記記録の閉鎖等,0,2021-08-23,2021-08-10,株式会社サンクスエンタープライズ,,株式会社,大阪府,大阪市住吉区,山之内２丁目４番２０号,,27,120,5580023,,,2021-08-10,清算の結了等,,,2015-10-05,1,,,,,サンクスエンタープライズ,0
181,1220002011039,登記記録の閉鎖等,0,2021-08-23,2021-08-12,有限会社白山観光,,有限会社,石川県,小松市,原町２０４番地１,,17,203,9230075,,,2021-08-12,清算の結了等,,,2015-10-05,1,,,,,ハクサンカンコウ,0
183,1230001014074,登記記録の閉鎖等,0,2021-08-23,2021-08-02,株式会社宮英興産,,株式会社,富山県,富山市,上飯野３９番地１,,16,201,9300827,,,2021-08-02,合併による解散等,2230001015740,令和３年８月１日富山市金泉寺２５７番地１株式会社Ｔ・Ｍ（2230001015740）に合併し解散,2015-10-05,1,,,,,ミヤヒデコウサン,0
188,1240001040292,登記記録の閉鎖等,0,2021-08-23,2021-08-02,三原中央農園株式会社,,株式会社,広島県,三原市,沼田西町小原２００番地８２,,34,204,7290473,,,2021-08-02,清算の結了等,,,2015-10-05,1,,,,,ミハラチュウオウノウエン,0
191,1240001044698,登記記録の閉鎖等,0,2021-08-23,2021-08-02,株式会社ビジョンクリエイト,,株式会社,広島県,広島市西区,観音本町２丁目８番２２号,,34,104,7330033,,,2021-08-02,合併による解散等,4240001010458,令和３年８月１日広島市西区横川町一丁目１０番１５号株式会社ＳＨ東雲堂（4240001010458）に合併し解散,2015-10-05,1,,,,,ビジョンクリエイト,0
203,1260001025985,登記記録の閉鎖等,0,2021-08-23,2021-08-23,株式会社明昇,,株式会社,岡山県,倉敷市,五日市２２２番地,,33,202,7100041,,,2021-08-23,清算の結了等,,,2015-10-05,1,,,,,メイショウ,0
205,1260002023831,登記記録の閉鎖等,0,2021-08-23,2021-08-20,有限会社丸武塗装,,有限会社,岡山県,総社市,地頭片山５３番地の３５,,33,208,7191163,,,2021-08-20,清算の結了等,,,2015-10-05,1,,,,,,0
216,1290003002583,登記記録の閉鎖等,0,2021-08-23,2021-07-30,福岡福祉合同会社,,合同会社,福岡県,福岡市中央区,大名２丁目９番５号,,40,133,8100041,,,2021-07-30,清算の結了等,,,2015-10-05,1,,,,,フクオカフクシ,0
223,1320001009247,登記記録の閉鎖等,0,2021-08-23,2021-08-20,株式会社トミタカ,,株式会社,大分県,佐伯市,蒲江大字畑野浦２５２７番地,,44,205,8762201,,,2021-08-20,清算の結了等,,,2015-10-05,1,,,,,,0
228,1330001023073,登記記録の閉鎖等,0,2021-08-23,2021-08-18,株式会社アイ・ネット,,株式会社,熊本県,八代市,古閑浜町２７５２番地１,,43,202,8660891,,,2021-08-18,清算の結了等,,,2016-08-08,1,,,,,アイネット,0
254,1500001007835,登記記録の閉鎖等,0,2021-08-23,2021-08-20,明智汽船株式会社,,株式会社,愛媛県,大洲市,長浜町沖浦甲１４９番地の２,,38,207,7993404,,,2021-08-20,清算の結了等,,,2015-10-05,1,,,,,アケチキセン,0
266,2010001205363,登記記録の閉鎖等,0,2021-08-23,2021-08-18,東洋ＨＲ株式会社,,株式会社,東京都,中央区,日本橋３丁目１番４号,,13,102,1030027,,,2021-08-18,清算の結了等,,,2019-11-15,1,,,,,トウヨウエイチアール,0
268,2010002011050,登記記録の閉鎖等,0,2021-08-23,2021-08-17,有限会社ディー・エス・エムインベストメンツラムダ,,有限会社,東京都,千代田区,丸の内１丁目９番１号,,13,101,1000005,,,2021-08-17,清算の結了等,,,2015-10-05,1,,,,,ディーエスエムインベストメンツラムダ,0
272,2010101012866,登記記録の閉鎖等,0,2021-08-23,2021-08-18,井上測量設計株式会社,,株式会社,東京都,八王子市,明神町３丁目２５番３号,,13,201,1920046,,,2021-08-18,清算の結了等,,,2017-05-26,1,,,,,イノウエソクリョウセッケイ,0
304,2011002032458,登記記録の閉鎖等,0,2021-08-23,2021-08-04,有限会社つじみフーズ,,有限会社,東京都,渋谷区,富ヶ谷２丁目１２番１４号,,13,113,1510063,,,2021-08-04,清算の結了等,,,2015-10-05,1,,,,,ツジミフーズ,0
350,2030001002924,登記記録の閉鎖等,0,2021-08-23,2021-08-10,株式会社コバヤシ,,株式会社,埼玉県,さいたま市北区,宮原町３丁目１６５番地,,11,102,3310812,,,2021-08-10,清算の結了等,,,2015-10-05,1,,,,,コバヤシ,0
351,2030001092890,登記記録の閉鎖等,0,2021-08-23,2021-08-12,株式会社リトルベア,,株式会社,埼玉県,さいたま市見沼区,大和田町２丁目１４９１番地３,,11,104,3370053,,,2021-08-12,清算の結了等,,,2015-10-05,1,,,,,リトルベア,0
371,2060002033544,登記記録の閉鎖等,0,2021-08-23,2021-08-18,有限会社環境保全センター,,有限会社,栃木県,栃木市,藤岡町藤岡１２７６番地６,,09,203,3231104,,,2021-08-18,清算の結了等,,,2015-10-05,1,,,,,カンキョウホゼンセンター,0
373,2070001002045,登記記録の閉鎖等,0,2021-08-23,2021-08-18,太刀川産業株式会社,,株式会社,群馬県,前橋市,六供町１丁目１３番地の４,,10,201,3710804,,,2021-08-18,清算の結了等,,,2015-10-05,1,,,,,タチカワサンギョウ,0
377,2080001002498,登記記録の閉鎖等,0,2021-08-23,2021-08-20,静友サービス株式会社,,株式会社,静岡県,静岡市葵区,古庄３丁目２９番１９号,,22,101,4200812,,,2021-08-20,清算の結了等,,,2015-10-05,1,,,,,セイユウサービス,0
389,2120003011096,登記記録の閉鎖等,0,2021-08-23,2021-08-13,合同会社Ｋシステムプランニング,,合同会社,大阪府,大阪市住吉区,杉本１丁目５番２２号ニューラージあびこ４０１号,,27,120,5580022,,,2021-08-13,清算の結了等,,,2015-10-27,1,,,,,ケーシステムプランニング,0
396,2120102025286,登記記録の閉鎖等,0,2021-08-23,2021-08-19,有限会社新成機設,,有限会社,大阪府,和泉市,伯太町１３２５番地の１,,27,219,5940023,,,2021-08-19,清算の結了等,,,2015-10-05,1,,,,,シンセイキセツ,0
424,2160001016721,登記記録の閉鎖等,0,2021-08-23,2021-08-20,株式会社山本商店,,株式会社,滋賀県,大津市,大石中６丁目５番５０号,,25,201,5202263,,,2021-08-20,清算の結了等,,,2015-10-05,1,,,,,ヤマモトショウテン,0
450,2190001016248,登記記録の閉鎖等,0,2021-08-23,2021-08-20,マスターズプラン株式会社,,株式会社,三重県,四日市市,尾平町１５８０番地の１,,24,202,5120921,,,2021-08-20,清算の結了等,,,2015-10-05,1,,,,,マスターズプラン,0
461,2240005015158,登記記録の閉鎖等,0,2021-08-23,2021-08-05,一般社団法人安佐北みらい開発実行委員会,,その他の設立登記法人,広島県,広島市安佐北区,安佐町大字久地２１００番地１,,34,106,7313362,,,2021-08-05,清算の結了等,,,2021-02-03,1,,,,,アサキタミライカイハツジッコウイインカイ,0
469,2290001000365,登記記録の閉鎖等,0,2021-08-23,2021-07-30,株式会社橘組,,株式会社,福岡県,福岡市西区,小戸１丁目４４番９号,,40,135,8190001,,,2021-07-30,清算の結了等,,,2015-10-05,1,,,,,,0
527,2460101004819,登記記録の閉鎖等,0,2021-08-23,2021-08-18,十勝オーベルジュ株式会社,,株式会社,北海道,河西郡中札内村,南常盤東４線２８５番地３３,,01,638,0891368,,,2021-08-18,合併による解散等,2460101006765,令和３年８月１８日北海道帯広市西二条南八丁目１４番地３株式会社そら（2460101006765）に合併し解散,2015-10-05,1,,,,,トカチオーベルジュ,0
535,2470002018347,登記記録の閉鎖等,0,2021-08-23,2021-08-18,鏡急配有限会社,,有限会社,香川県,東かがわ市,伊座５６０番地２,,37,207,7692703,,,2021-08-18,清算の結了等,,,2015-10-05,1,,,,,,0
557,3010003029371,登記記録の閉鎖等,0,2021-08-23,2021-08-13,合同会社Ｔ＆Ｃ,,合同会社,東京都,中央区,日本橋１丁目４番１号日本橋一丁目ビルディング,,13,102,1030027,,,2021-08-13,清算の結了等,,,2019-02-27,1,,,,,ティーアンドシー,0
558,3010003032136,登記記録の閉鎖等,0,2021-08-23,2021-08-16,合同会社八丁堀インベストメント,,合同会社,東京都,千代田区,丸の内３丁目１番１号,,13,101,1000005,,,2021-08-16,清算の結了等,,,2020-04-24,1,,,,,ハッチョウボリインベストメント,0
580,3010701025705,登記記録の閉鎖等,0,2021-08-23,2021-08-18,ディーエイチ・ジャパン・インベストメンツ株式会社,,株式会社,東京都,江東区,有明３丁目５番７号ＴＯＣ有明ウエストタワー,,13,108,1350063,,,2021-08-18,合併による解散等,8080101006253,令和３年８月１３日静岡県駿東郡長泉町東野４５４番地の３２ベックマン・コールター・三島株式会社（8080101006253）に合併し解散,2015-10-05,1,,,,,ディーエイチジャパンインベストメンツ,0
609,3011505002089,登記記録の閉鎖等,0,2021-08-23,2021-08-19,一般社団法人中日武術太極拳交流協会,,その他の設立登記法人,東京都,北区,赤羽北１丁目１８番１－１１０４号ディアハイム赤羽,,13,117,1150052,,,2021-08-19,清算の結了等,,,2017-07-24,1,,,,,チュウニチブジュツタイキョクケンコウリュウキョウカイ,0
615,3013102001333,登記記録の閉鎖等,0,2021-08-23,2021-08-18,有限会社東広社,,有限会社,東京都,羽村市,双葉町２丁目１２番４８号,,13,227,2050022,,,2021-08-18,清算の結了等,,,2015-10-05,1,,,,,トウコウシャ,0
643,3030001095166,登記記録の閉鎖等,0,2021-08-23,2021-08-02,株式会社Ｐｉｎｏｒｋｓ,,株式会社,東京都,大田区,上池台２丁目３９番８号,,13,111,1450064,,,2021-08-02,清算の結了等,,,2015-10-05,1,,,,,ピノークス,0
650,3030002045203,登記記録の閉鎖等,0,2021-08-23,2021-08-10,有限会社中野ソフトウエアサービス,,有限会社,埼玉県,草加市,谷塚町７３４番地１グリーンアベニュー谷塚１１号棟３０４号室,,11,221,3400023,,,2021-08-10,清算の結了等,,,2015-10-05,1,,,,,ナカノソフトウエアサービス,0
656,3040002007697,登記記録の閉鎖等,0,2021-08-23,2021-08-11,有限会社千葉レフサービス,,有限会社,千葉県,千葉市稲毛区,稲毛東４丁目５番１号ウェリス稲毛４５７号,,12,103,2630031,,,2021-08-11,清算の結了等,,,2015-10-05,1,,,,,チバレフサービス,0
673,3070002028757,登記記録の閉鎖等,0,2021-08-23,2021-08-18,有限会社川崎屋,,有限会社,群馬県,邑楽郡千代田町,大字新福寺５４５番地の２,,10,523,3700505,,,2021-08-18,清算の結了等,,,2015-10-05,1,,,,,カワサキヤ,0
681,3080101004773,登記記録の閉鎖等,0,2021-08-23,2021-08-20,ＮＡＧＡＯＫＡ管理株式会社,,株式会社,静岡県,伊豆の国市,長岡１０６８番地,,22,225,4102211,,,2021-08-20,清算の結了等,,,2015-10-05,1,,,,,ナガオカカンリ,0
697,3110005008207,登記記録の閉鎖等,0,2021-08-23,2021-08-18,高田たばこ販売協同組合,,その他の設立登記法人,新潟県,上越市,本町５丁目３番２９号,,15,222,9430832,,,2021-08-18,清算の結了等,,,2015-10-05,1,,,,,タカダタバコハンバイ,0
698,3120001010099,登記記録の閉鎖等,0,2021-08-23,2021-08-12,株式会社すずや,,株式会社,大阪府,大阪市東住吉区,駒川４丁目４番１９号,,27,121,5460043,,,2021-08-12,清算の結了等,,,2015-10-05,1,,,,,スズヤ,0
728,3122001024517,登記記録の閉鎖等,0,2021-08-23,2021-08-19,株式会社カネト,,株式会社,大阪府,八尾市,安中町７丁目５番２５号,,27,212,5810085,,,2021-08-19,清算の結了等,,,2015-10-05,1,,,,,カネト,0
735,3140001077764,登記記録の閉鎖等,0,2021-08-23,2021-08-12,Ｂ＆Ｂライフケアサービス株式会社,,株式会社,兵庫県,神戸市垂水区,城が山１丁目１３番１５号,,28,108,6550884,,,2021-08-12,清算の結了等,,,2015-10-05,1,,,,,ビーアンドビーライフケアサービス,0
758,3180001001547,登記記録の閉鎖等,0,2021-08-23,2021-08-19,株式会社アンテクノエンジニアリング,,株式会社,愛知県,名古屋市名東区,明が丘９１番地,,23,115,4650033,,,2021-08-19,清算の結了等,,,2015-10-05,1,,,,,アンテクノエンジニアリング,0
759,3180001047499,登記記録の閉鎖等,0,2021-08-23,2021-08-13,中京マイクロダクト工業株式会社,,株式会社,愛知県,名古屋市東区,泉１丁目１１番２９号,,23,102,4610001,,,2021-08-13,合併による解散等,9180301005317,令和３年８月１２日愛知県豊橋市花田町字中ノ坪７８番地音羽電機株式会社（9180301005317）に合併し解散,2015-10-05,1,,,,,チュウキョウマイクロダクトコウギョウ,0
760,3180001080905,登記記録の閉鎖等,0,2021-08-23,2021-08-18,保善メッキ工業株式会社,,株式会社,愛知県,犬山市,大字橋爪字論出３５番地,,23,215,4840076,,,2021-08-18,清算の結了等,,,2015-10-05,1,,,,,ホゼンメッキコウギョウ,0
772,3180302028116,登記記録の閉鎖等,0,2021-08-23,2021-08-19,有限会社エイチ・アイ・エフ,,有限会社,愛知県,新城市,牛倉字宮川２８番２９番合併地,,23,221,4411303,,,2021-08-19,清算の結了等,,,2015-10-05,1,,,,,エイチアイエフ,0
786,3240001016935,登記記録の閉鎖等,0,2021-08-23,2021-08-02,株式会社ＭＭ東雲堂,,株式会社,広島県,広島市西区,横川町１丁目１０番１５号,,34,104,7330011,,,2021-08-02,合併による解散等,4240001010458,令和３年８月１日広島市西区横川町一丁目１０番１５号株式会社ＳＨ東雲堂（4240001010458）に合併し解散,2015-10-05,1,,,,,エムエムシノノメドウ,0
789,3240002000863,登記記録の閉鎖等,0,2021-08-23,2021-08-02,有限会社アミューズランド広島,,有限会社,広島県,広島市西区,観音本町２丁目８番２２号,,34,104,7330033,,,2021-08-02,合併による解散等,4240001010458,令和３年８月１日広島市西区横川町一丁目１０番１５号株式会社ＳＨ東雲堂（4240001010458）に合併し解散,2015-10-05,1,,,,,アミューズランドヒロシマ,0
807,3290003009536,登記記録の閉鎖等,0,2021-08-23,2021-08-02,合同会社カルモ,,合同会社,福岡県,福岡市早良区,野芥３丁目２４番１２号,,40,137,8140171,,,2021-08-02,清算の結了等,,,2019-11-25,1,,,,,カルモ,0
812,3290801023028,登記記録の閉鎖等,0,2021-08-23,2021-08-16,株式会社ポケカル九州,,株式会社,福岡県,北九州市小倉北区,浅野２丁目１４番２号,,40,106,8020001,,,2021-08-16,合併による解散等,9010001098999,令和３年７月１日東京都千代田区大手町二丁目６番１号朝日生命大手町ビルＡｐａｍａｎ　Ｎｅｔｗｏｒｋ株式会社（9010001098999）に合併し解散,2016-11-11,1,,,,,ポケカルキュウシュウ,0
826,3340002006768,登記記録の閉鎖等,0,2021-08-23,2021-08-18,有限会社鳥丸商会,,有限会社,鹿児島県,鹿児島市,玉里団地３丁目２９番１２号,,46,201,8920811,,,2021-08-18,清算の結了等,,,2015-10-05,1,,,,,トリマルショウカイ,0
832,3370002002194,登記記録の閉鎖等,0,2021-08-23,2021-08-10,朝日実業有限会社,,有限会社,宮城県,仙台市太白区,向山１丁目１９番２１号,,04,104,9820841,,,2021-08-10,清算の結了等,,,2015-10-05,1,,,,,アサヒジツギョウ,0
870,4010402014361,登記記録の閉鎖等,0,2021-08-23,2021-08-06,有限会社エポックプレート,,有限会社,東京都,港区,新橋５丁目３１番８号新光ビル１階,,13,103,1050004,,,2021-08-06,清算の結了等,,,2015-10-05,1,,,,,エポックプレート,0
872,4010403021480,登記記録の閉鎖等,0,2021-08-23,2021-08-18,合同会社ＴＨＲＥＥ－Ｈ,,合同会社,東京都,港区,南青山２丁目２番１５号ウィン青山９４２,,13,103,1070062,,,2021-08-18,清算の結了等,,,2019-09-25,1,,,,,スリーエイチ,0
874,4010501029434,登記記録の閉鎖等,0,2021-08-23,2021-08-13,株式会社フォーラム,,株式会社,東京都,台東区,上野４丁目５番１２号,,13,106,1100005,,,2021-08-13,清算の結了等,,,2015-10-05,1,,,,,フォーラム,0
877,4010502004980,登記記録の閉鎖等,0,2021-08-23,2021-08-13,有限会社三喜製帽所,,有限会社,東京都,台東区,小島２丁目２番１１号,,13,106,1110056,,,2021-08-13,清算の結了等,,,2015-10-05,1,,,,,ミヨシセイボウショ,0
878,4010601040621,登記記録の閉鎖等,0,2021-08-23,2021-08-03,株式会社学際,,株式会社,東京都,江東区,三好１丁目２番６号,,13,108,1350022,,,2021-08-03,清算の結了等,,,2015-10-05,1,,,,,ガクサイ,0
879,4010601043269,登記記録の閉鎖等,0,2021-08-23,2021-08-10,ミラト地所株式会社,,株式会社,東京都,港区,芝２丁目２６番２号,,13,103,1050014,,,2021-08-10,清算の結了等,,,2015-10-05,1,,,,,ミラトジショ,0
886,4010701037435,登記記録の閉鎖等,0,2021-08-23,2021-08-19,株式会社ＪＯＯＡＩ　ＪＡＰＡＮ,,株式会社,東京都,品川区,大崎４丁目１３番８号,,13,109,1410032,,,2021-08-19,清算の結了等,,,2019-04-23,1,"JOOAI JAPAN Co.,Ltd.",Tokyo,"4-13-8,Ohsaki, Shinagawa ku",,ジューアイジャパン,0
889,4010803001363,登記記録の閉鎖等,0,2021-08-23,2021-08-11,クレオ事務所合同会社,,合同会社,東京都,大田区,南千束１丁目１３番１７号,,13,111,1450063,,,2021-08-11,清算の結了等,,,2015-10-05,1,,,,,,0
893,4011001041540,登記記録の閉鎖等,0,2021-08-23,2021-08-17,株式会社エイアンドティー．ティ,,株式会社,東京都,渋谷区,桜丘町１６番７号鈴木ビル２階,,13,113,1500031,,,2021-08-17,清算の結了等,,,2015-10-05,1,,,,,エイアンドティーティ,0
914,4011202010897,登記記録の閉鎖等,0,2021-08-23,2021-08-16,有限会社エィ・アール・ティ・プランニング,,有限会社,東京都,中野区,東中野４丁目２番２号,,13,114,1640003,,,2021-08-16,清算の結了等,,,2015-10-05,1,,,,,エィアールティプランニング,0
934,4013301033283,登記記録の閉鎖等,0,2021-08-23,2021-08-16,株式会社ＧＬＯＲＩＡ,,株式会社,東京都,豊島区,東池袋２丁目６２番８号ＢＩＧオフィスプラザ池袋１１Ｆ－１１０２号,,13,116,1700013,,,2021-08-16,清算の結了等,,,2015-10-05,1,,,,,グロリア,0
947,4020002029379,登記記録の閉鎖等,0,2021-08-23,2021-08-17,有限会社大竹運輸,,有限会社,神奈川県,横浜市南区,宿町１丁目１６番地,,14,105,2320017,,,2021-08-17,清算の結了等,,,2015-10-05,1,,,,,オオタケウンユ,0
950,4020002101583,登記記録の閉鎖等,0,2021-08-23,2021-08-03,有限会社ブレントウッド,,有限会社,東京都,渋谷区,広尾１丁目１－３９,,13,113,1500012,,,2021-08-03,清算の結了等,,,2015-10-05,1,,,,,ブレントウッド,0
969,4040002014180,登記記録の閉鎖等,0,2021-08-23,2021-08-11,有限会社ディ・アーティ,,有限会社,千葉県,千葉市中央区,出洲港７番３７号サンクタス千葉シーサイドアベニュー１００５号,,12,101,2600023,,,2021-08-11,清算の結了等,,,2015-10-05,1,,,,,ディアーティ,0
982,4070001003033,登記記録の閉鎖等,0,2021-08-23,2021-08-20,株式会社増田築炉,,株式会社,群馬県,前橋市,三俣町３丁目２８番地の７,,10,201,3710018,,,2021-08-20,清算の結了等,,,2015-10-05,1,,,,,マスダチクロ,0
991,4100005008462,登記記録の閉鎖等,0,2021-08-23,2021-07-26,特定非営利活動法人腹話術友の会,,その他の設立登記法人,長野県,岡谷市,川岸東５丁目２番地５号,,20,204,3940045,,,2021-07-26,清算の結了等,,,2015-10-05,1,,,,,フクワジュツトモノカイ,0
995,4120001077815,登記記録の閉鎖等,0,2021-08-23,2021-08-12,北野株式会社,,株式会社,大阪府,大阪市中央区,本町橋２番１６号,,27,128,5400029,,,2021-08-12,清算の結了等,,,2015-10-05,1,,,,,キタノ,0
1022,4140001056734,登記記録の閉鎖等,0,2021-08-23,2021-08-18,株式会社ナカダイ,,株式会社,兵庫県,美方郡新温泉町,丹土５５７番地,,28,586,6696813,,,2021-08-18,清算の結了等,,,2015-10-05,1,,,,,ナカダイ,0
1024,4140001101639,登記記録の閉鎖等,0,2021-08-23,2021-08-18,株式会社岡本鉄工所,,株式会社,兵庫県,美方郡新温泉町,諸寄３２３７番地の２,,28,586,6696753,,,2021-08-18,清算の結了等,,,2016-04-12,1,,,,,オカモトテッコウショ,0
1035,4180001080904,登記記録の閉鎖等,0,2021-08-23,2021-08-18,保浦工業株式会社,,株式会社,愛知県,犬山市,大字橋爪字論出３２番地の１,,23,215,4840076,,,2021-08-18,清算の結了等,,,2015-10-05,1,,,,,ホボコウギョウ,0
1056,4220001004890,登記記録の閉鎖等,0,2021-08-23,2021-08-16,株式会社西井美容室,,株式会社,石川県,金沢市,香林坊２丁目１２番３６号森ビル内,,17,201,9200961,,,2021-08-16,清算の結了等,,,2015-10-05,1,,,,,ニシイビヨウシツ,0
1057,4220001014659,登記記録の閉鎖等,0,2021-08-23,2021-08-19,株式会社インパクト,,株式会社,石川県,金沢市,本江町９番１４号,,17,201,9218012,,,2021-08-19,合併による解散等,4230001002497,令和３年８月１日富山市天正寺３８４番地２株式会社ハイメック（4230001002497）に合併し解散,2015-10-05,1,,,,,インパクト,0
1077,4290001027910,登記記録の閉鎖等,0,2021-08-23,2021-07-30,株式会社ＨＡＳ,,株式会社,福岡県,福岡市東区,下原４丁目１９番１７号エトワール２１　６０５号,,40,131,8130002,,,2021-07-30,清算の結了等,,,2015-10-05,1,,,,,,0
1111,4380001006228,登記記録の閉鎖等,0,2021-08-23,2021-08-17,株式会社半澤産業,,株式会社,福島県,郡山市,富久山町久保田字大久保４０番地,,07,203,9638071,,,2021-08-17,清算の結了等,,,2015-10-05,1,,,,,ハンザワサンギョウ,0
1122,4430003010305,登記記録の閉鎖等,0,2021-08-23,2021-08-10,合同会社オネスト,,合同会社,北海道,札幌市中央区,南五条西７丁目２番地,,01,101,0640805,,,2021-08-10,清算の結了等,,,2019-04-05,1,,,,,オネスト,0
1138,5010401019229,登記記録の閉鎖等,0,2021-08-23,2021-08-10,株式会社東伸装備,,株式会社,東京都,港区,芝浦２丁目１番１１号,,13,103,1080023,,,2021-08-10,清算の結了等,,,2015-10-05,1,,,,,トウシンソウビ,0
1151,5010502018195,登記記録の閉鎖等,0,2021-08-23,2021-08-13,有限会社メビウス和田,,有限会社,東京都,台東区,清川１丁目１２番６号,,13,106,1110022,,,2021-08-13,清算の結了等,,,2015-10-05,1,,,,,,0
1166,5010905003232,登記記録の閉鎖等,0,2021-08-23,2021-08-16,一般社団法人ＭＩ協議会,,その他の設立登記法人,東京都,世田谷区,千歳台１丁目３８番５号ルミネンス千歳台３０１,,13,112,1570071,,,2021-08-16,清算の結了等,,,2016-06-13,1,,,,,,0
1179,5011405000240,登記記録の閉鎖等,0,2021-08-23,2021-08-20,西武丸協青果協同組合,,その他の設立登記法人,東京都,板橋区,高島平６丁目１番５号,,13,119,1750082,,,2021-08-20,清算の結了等,,,2015-10-05,1,,,,,,0
1197,5012405004025,登記記録の閉鎖等,0,2021-08-23,2021-08-16,一般社団法人第一次世界大戦博物館,,その他の設立登記法人,東京都,三鷹市,井の頭５丁目６番７号,,13,204,1810001,,,2021-08-16,清算の結了等,,,2017-03-29,1,,,,,ダイイチジセカイタイセンハクブツカン,0
1207,5020001059450,登記記録の閉鎖等,0,2021-08-23,2021-08-18,シーメンス・ガメサ・リニューアブル・エナジー・ジャパン株式会社,,株式会社,東京都,千代田区,大手町１丁目５番地１号大手町ファーストスクエアウエストタワー２Ｆ,,13,101,1000004,,,2021-08-18,清算の結了等,,,2015-10-05,1,,,,,シーメンスガメサリニューアブルエナジージャパン,0
1215,5020002036977,登記記録の閉鎖等,0,2021-08-23,2021-08-16,有限会社石塚工業,,有限会社,神奈川県,横浜市鶴見区,下末吉３丁目９番３９号,,14,101,2300012,,,2021-08-16,清算の結了等,,,2015-10-05,1,,,,,,0
1224,5021002002531,登記記録の閉鎖等,0,2021-08-23,2021-08-18,有限会社システム開発湘南,,有限会社,神奈川県,藤沢市,辻堂西海岸２丁目１番１６－５０４号,,14,205,2510046,,,2021-08-18,清算の結了等,,,2015-10-05,1,,,,,システムカイハツショウナン,0
1230,5030001034634,登記記録の閉鎖等,0,2021-08-23,2021-08-06,株式会社旭製作所,,株式会社,埼玉県,草加市,青柳３丁目２０番９号,,11,221,3400002,,,2021-08-06,清算の結了等,,,2015-10-05,1,,,,,アサヒセイサクショ,0
1234,5030002068821,登記記録の閉鎖等,0,2021-08-23,2021-08-10,有限会社秩父屋商店,,有限会社,埼玉県,春日部市,備後東１丁目２８番１８号,,11,214,3440032,,,2021-08-10,清算の結了等,,,2015-10-05,1,,,,,,0
1238,5030003001244,登記記録の閉鎖等,0,2021-08-23,2021-08-10,合資会社岡安商店,,合資会社,埼玉県,所沢市,松葉町１１番地７,,11,208,3590044,,,2021-08-10,清算の結了等,,,2015-10-05,1,,,,,オカヤスショウテン,0
1239,5030003013644,登記記録の閉鎖等,0,2021-08-23,2021-08-06,Ｔ企画合同会社,,合同会社,埼玉県,さいたま市見沼区,春岡３丁目３１番地３,,11,104,3370008,,,2021-08-06,清算の結了等,,,2019-06-10,1,,,,,ティーキカク,0
1252,5040002071980,登記記録の閉鎖等,0,2021-08-23,2021-08-10,有限会社あお設計,,有限会社,千葉県,市原市,古市場６３５番地９,,12,219,2900008,,,2021-08-10,清算の結了等,,,2015-10-05,1,,,,,アオセッケイ,0
1257,5060001016621,登記記録の閉鎖等,0,2021-08-23,2021-08-13,株式会社牧野有造商店,,株式会社,栃木県,栃木市,嘉右衛門町４番８号,,09,203,3280072,,,2021-08-13,清算の結了等,,,2015-10-05,1,,,,,マキノユウゾウショウテン,0
1263,5080002015694,登記記録の閉鎖等,0,2021-08-23,2021-08-20,有限会社カネトク服部商店,,有限会社,静岡県,焼津市,小川新町３丁目３番３７号,,22,212,4250031,,,2021-08-20,清算の結了等,,,2015-10-05,1,,,,,カネトクハットリショウテン,0
1267,5080402009809,登記記録の閉鎖等,0,2021-08-23,2021-08-20,有限会社清明電機,,有限会社,静岡県,浜松市西区,雄踏町山崎３９０６番地の２,,22,133,4310101,,,2021-08-20,清算の結了等,,,2015-10-05,1,,,,,セイメイデンキ,0
1281,5120001156782,登記記録の閉鎖等,0,2021-08-23,2021-08-02,株式会社ミヨシ,,株式会社,大阪府,守口市,寺方本通２丁目６番４号,,27,209,5700048,,,2021-08-02,清算の結了等,,,2015-10-05,1,,,,,ミヨシ,0
1284,5120001194543,登記記録の閉鎖等,0,2021-08-23,2021-08-12,ＤＭＣ宝ツアー株式会社,,株式会社,大阪府,大阪市中央区,南船場２丁目１０－２８－７０１,,27,128,5420081,,,2021-08-12,清算の結了等,,,2015-11-19,1,,,,,ディーエムシータカラツアー,0
1315,5140001075287,登記記録の閉鎖等,0,2021-08-23,2021-08-19,石塚建設工業株式会社,,株式会社,兵庫県,多可郡多可町,加美区山野部４９４番地１,,28,365,6791213,,,2021-08-19,清算の結了等,,,2015-10-05,1,,,,,イシヅカケンセツコウギョウ,0
1321,5140005004218,登記記録の閉鎖等,0,2021-08-23,2021-08-13,特定非営利活動法人美蹴館,,その他の設立登記法人,兵庫県,神戸市須磨区,須磨浦通３丁目３番２３号,,28,107,6540055,,,2021-08-13,清算の結了等,,,2015-10-05,1,,,,,ビシュウカン,0
1339,5180002021419,登記記録の閉鎖等,0,2021-08-23,2021-08-19,有限会社近藤プレス,,有限会社,愛知県,名古屋市天白区,中坪町２１番地,,23,116,4680048,,,2021-08-19,清算の結了等,,,2015-10-05,1,,,,,コンドウプレス,0
1340,5180002033760,登記記録の閉鎖等,0,2021-08-23,2021-08-18,有限会社新興建設,,有限会社,愛知県,名古屋市南区,鳴浜町３丁目１２番地,,23,112,4570806,,,2021-08-18,清算の結了等,,,2015-10-05,1,,,,,シンコウケンセツ,0
1351,5190001011626,登記記録の閉鎖等,0,2021-08-23,2021-08-19,株式会社Ｐｌｕｓ　Ａｓｉａ，Ｊａｐａｎ,,株式会社,三重県,松阪市,大黒田町３７０番地９センタービル３階,,24,204,5150063,,,2021-08-19,清算の結了等,,,2015-10-05,1,,,,,プラスアジアジャパン,0
1362,5240001045172,登記記録の閉鎖等,0,2021-08-23,2021-08-06,株式会社Ｊａｐａｎ　Ａｇｒｉ,,株式会社,広島県,呉市,倉橋町９６９４番地７,,34,202,7371377,,,2021-08-06,清算の結了等,,,2015-10-05,1,,,,,ジャパンアグリ,0
1378,5290002009535,登記記録の閉鎖等,0,2021-08-23,2021-08-02,有限会社アルモニ,,有限会社,福岡県,福岡市中央区,小笹３丁目１４番３０号,,40,133,8100033,,,2021-08-02,清算の結了等,,,2015-10-05,1,,,,,アルモニ,0
1391,5330002010001,登記記録の閉鎖等,0,2021-08-23,2021-08-18,有限会社マルサカ青果,,有限会社,熊本県,熊本市西区,田崎町４８４番地,,43,103,8600058,,,2021-08-18,清算の結了等,,,2015-10-05,1,,,,,マルサカセイカ,0
1398,5380002021150,登記記録の閉鎖等,0,2021-08-23,2021-08-06,有限会社大東インダストリー,,有限会社,福島県,石川郡玉川村,大字南須釜字横内１４９番地の４,,07,502,9636302,,,2021-08-06,清算の結了等,,,2015-10-05,1,,,,,ダイトウインダストリー,0
1400,5410003000158,登記記録の閉鎖等,0,2021-08-23,2021-08-20,伊藤与合資会社,,合資会社,秋田県,秋田市,寺内鵜ノ木１番１５号,,05,201,0110938,,,2021-08-20,清算の結了等,,,2015-10-05,1,,,,,イトウヨ,0
1421,6010001146190,登記記録の閉鎖等,0,2021-08-23,2021-08-12,株式会社ＳＫ商事,,株式会社,東京都,中央区,日本橋３丁目６番１３号アベビル２階株式会社ウィルマネジメント内,,13,102,1030027,,,2021-08-12,清算の結了等,,,2015-10-05,1,,,,,エスケーショウジ,0
1433,6010102007746,登記記録の閉鎖等,0,2021-08-23,2021-08-18,有限会社石武電工,,有限会社,東京都,八王子市,天神町１０番地,,13,201,1920074,,,2021-08-18,清算の結了等,,,2015-10-05,1,,,,,,0
1449,6010502018789,登記記録の閉鎖等,0,2021-08-23,2021-08-13,有限会社イーシス,,有限会社,東京都,台東区,浅草橋２丁目１６番４号,,13,106,1110053,,,2021-08-13,清算の結了等,,,2015-10-05,1,,,,,イーシス,0
1451,6010602011999,登記記録の閉鎖等,0,2021-08-23,2021-08-04,有限会社庄田工業所,,有限会社,東京都,墨田区,文花１丁目３３番６号,,13,107,1310044,,,2021-08-04,清算の結了等,,,2015-10-05,1,,,,,ショウダコウギョウショ,0
1455,6010705000676,登記記録の閉鎖等,0,2021-08-23,2021-08-19,日産プリンス東京販売労働組合,,その他の設立登記法人,東京都,品川区,東大井１丁目９番３５号,,13,109,1400011,,,2021-08-19,清算の結了等,,,2015-10-05,1,,,,,ニッサンプリンストウキョウハンバイ,0
1457,6010801030016,登記記録の閉鎖等,0,2021-08-23,2021-08-11,Ｔｈｉｎｋ　Ｅｘｐｅｒｉｅｎｃｅ株式会社,,株式会社,東京都,大田区,田園調布２丁目５５番１５号,,13,111,1450071,,,2021-08-11,清算の結了等,,,2019-07-09,1,,,,,,0
1481,6011401022411,登記記録の閉鎖等,0,2021-08-23,2021-08-19,株式会社なごみ物産,,株式会社,東京都,板橋区,南常盤台２丁目９番８号,,13,119,1740072,,,2021-08-19,清算の結了等,,,2020-02-20,1,,,,,ナゴミブッサン,0
1491,6013102000745,登記記録の閉鎖等,0,2021-08-23,2021-08-19,有限会社みなもと,,有限会社,東京都,福生市,大字福生５６３番地３２,,13,218,1970011,,,2021-08-19,清算の結了等,,,2015-10-05,1,,,,,ミナモト,0
1496,6020002024064,登記記録の閉鎖等,0,2021-08-23,2021-08-16,有限会社生研工業,,有限会社,神奈川県,横浜市保土ケ谷区,常盤台４８番１４号,,14,106,2400067,,,2021-08-16,清算の結了等,,,2015-10-05,1,,,,,,0
1529,6060002016272,登記記録の閉鎖等,0,2021-08-23,2021-08-13,有限会社足尾石油,,有限会社,栃木県,日光市,足尾町４４４０番地２,,09,206,3211511,,,2021-08-13,清算の結了等,,,2015-10-05,1,,,,,アシオセキユ,0
1535,6060005004753,登記記録の閉鎖等,0,2021-08-23,2021-08-03,須賀川村川上牧野管理農業協同組合,,その他の設立登記法人,栃木県,大田原市,川上１８２番地,,09,210,3240214,,,2021-08-03,清算の結了等,,,2015-10-05,1,,,,,スカガワムラカワカミボクヤカンリ,0
1536,6070001008773,登記記録の閉鎖等,0,2021-08-23,2021-08-18,株式会社リース・タカハシ,,株式会社,群馬県,高崎市,岩鼻町２６３番地,,10,202,3701208,,,2021-08-18,清算の結了等,,,2015-10-05,1,,,,,リースタカハシ,0
1587,6130002001498,登記記録の閉鎖等,0,2021-08-23,2021-08-20,有限会社インシュアランス京都,,有限会社,京都府,京都市伏見区,向島善阿弥町５５番地６,,26,109,6128121,,,2021-08-20,清算の結了等,,,2015-10-05,1,,,,,インシュアランスキョウト,0
1605,6150005006699,登記記録の閉鎖等,0,2021-08-23,2021-08-18,特定非営利活動法人地域創造政策研究センター,,その他の設立登記法人,奈良県,北葛城郡王寺町,太子１丁目８番１９号,,29,425,6360023,,,2021-08-18,清算の結了等,,,2015-10-05,1,,,,,チイキソウゾウセイサクケンキュウセンター,0
1615,6180002007598,登記記録の閉鎖等,0,2021-08-23,2021-08-18,有限会社石川橋,,有限会社,愛知県,名古屋市昭和区,汐見町１３５番地,,23,107,4660837,,,2021-08-18,清算の結了等,,,2015-10-05,1,,,,,イシカワバシ,0
1619,6180003018009,登記記録の閉鎖等,0,2021-08-23,2021-08-18,合同会社アートグロリア,,合同会社,愛知県,犬山市,大字橋爪字論出３２番地１,,23,215,4840076,,,2021-08-18,清算の結了等,,,2017-06-07,1,,,,,アートグロリア,0
1623,6190002011145,登記記録の閉鎖等,0,2021-08-23,2021-08-20,有限会社上田土地開発,,有限会社,三重県,伊勢市,常磐町２６番地,,24,203,5160047,,,2021-08-20,清算の結了等,,,2015-10-05,1,,,,,ウエダトチカイハツ,0
1628,6230001017163,登記記録の閉鎖等,0,2021-08-23,2021-08-17,株式会社吉祥,,株式会社,富山県,富山市,堀川町３８７番地６Ｄ－ＢＯＸ堀川町Ａ－５,,16,201,9398072,,,2021-08-17,清算の結了等,,,2017-10-12,1,,,,,キッショウ,0
1652,6340005006044,登記記録の閉鎖等,0,2021-08-23,2021-08-10,勝念寺,,その他の設立登記法人,鹿児島県,南九州市,川辺町上山田４０３番地,,46,223,8970131,,,2021-08-10,清算の結了等,,,2015-10-05,1,,,,,,0
1661,6370001039193,登記記録の閉鎖等,0,2021-08-23,2021-08-11,株式会社Ｉｎｄｉｇｏ　Ｓｔａｇｅ,,株式会社,宮城県,仙台市青葉区,八幡４丁目３－２５,,04,101,9800871,,,2021-08-11,清算の結了等,,,2016-02-15,1,,,,,,0
1663,6370005003286,登記記録の閉鎖等,0,2021-08-23,2021-08-06,特定非営利活動法人地・ＬＯＨＡＳ推進会議,,その他の設立登記法人,宮城県,仙台市若林区,南材木町６７番,,04,103,9840805,,,2021-08-06,清算の結了等,,,2015-10-05,1,,,,,ジロハススイシンカイギ,0
1679,6430001002888,登記記録の閉鎖等,0,2021-08-23,2021-08-11,株式会社おおくぼ建築デザイング,,株式会社,北海道,札幌市白石区,菊水元町二条４丁目４番１０号,,01,104,0030822,,,2021-08-11,清算の結了等,,,2021-04-21,1,,,,,オオクボケンチクデザイング,0
1687,6490002008326,登記記録の閉鎖等,0,2021-08-23,2021-08-19,有限会社弘成産業,,有限会社,高知県,四万十市,下田３９７２番地２,,39,210,7870155,,,2021-08-19,清算の結了等,,,2015-10-05,1,,,,,ヒロナリサンギョウ,0
1703,7010401014649,登記記録の閉鎖等,0,2021-08-23,2021-08-10,株式会社新日本日＿,00050614,株式会社,東京都,港区,東新橋２丁目１０番１０号新橋朝日ビル,,13,103,1050021,,,2021-08-10,清算の結了等,,,2015-10-05,1,,,,,シンニホンニッコウ,0
1712,7010601011990,登記記録の閉鎖等,0,2021-08-23,2021-08-02,株式会社サーキュラー,,株式会社,東京都,墨田区,業平４丁目３番１５号,,13,107,1300002,,,2021-08-02,合併による解散等,5010601016521,令和３年８月１日東京都墨田区業平四丁目３番１５号株式会社トコヨダ（5010601016521）に合併し解散,2015-10-05,1,,,,,サーキュラー,0
1723,7011001003240,登記記録の閉鎖等,0,2021-08-23,2021-08-17,エイアンドティー株式会社,,株式会社,東京都,渋谷区,桜丘町１６番７号,,13,113,1500031,,,2021-08-17,清算の結了等,,,2015-10-05,1,,,,,エイアンドティー,0
1735,7011101064422,登記記録の閉鎖等,0,2021-08-23,2021-08-17,アイメイド株式会社,,株式会社,東京都,新宿区,西新宿２丁目４番１号,,13,104,1600023,,,2021-08-17,合併による解散等,4010001076142,令和３年８月１日東京都千代田区岩本町二丁目４番１号ピットクルー株式会社（4010001076142）に合併し解散,2015-10-05,1,,,,,アイメイド,0
1751,7013301044105,登記記録の閉鎖等,0,2021-08-23,2021-08-16,株式会社令和国際医療機器,,株式会社,東京都,豊島区,東池袋３丁目２３番１０号,,13,116,1700013,,,2021-08-16,清算の結了等,,,2019-06-26,1,,,,,レイワコクサイイリョウキキ,0
1764,7020002094627,登記記録の閉鎖等,0,2021-08-23,2021-08-16,有限会社竹内商事,,有限会社,神奈川県,川崎市麻生区,高石４丁目１５番１８号,,14,137,2150003,,,2021-08-16,清算の結了等,,,2015-10-05,1,,,,,タケウチショウジ,0
1766,7021001000658,登記記録の閉鎖等,0,2021-08-23,2021-08-18,株式会社コーケン産業,,株式会社,神奈川県,藤沢市,打戻１７０６番地,,14,205,2520824,,,2021-08-18,清算の結了等,,,2015-10-05,1,,,,,コーケンサンギョウ,0
1774,7030001030862,登記記録の閉鎖等,0,2021-08-23,2021-08-10,株式会社野口電設,,株式会社,埼玉県,久喜市,下清久６７４番地の１,,11,232,3460033,,,2021-08-10,清算の結了等,,,2015-10-05,1,,,,,ノグチデンセツ,0
1786,7040001031471,登記記録の閉鎖等,0,2021-08-23,2021-08-10,株式会社エヌエスエンジニアリング,,株式会社,千葉県,市川市,菅野１丁目６番１２号,,12,203,2720824,,,2021-08-10,清算の結了等,,,2015-10-05,1,,,,,エヌエスエンジニアリング,0
1787,7040001085583,登記記録の閉鎖等,0,2021-08-23,2021-08-10,株式会社ＮｅｘｔＭｅｄｉｘ,,株式会社,千葉県,市川市,塩焼２丁目１番１号,,12,203,2720114,,,2021-08-10,清算の結了等,,,2015-10-05,1,,,,,ネクストメディックス,0
1795,7050001048135,登記記録の閉鎖等,0,2021-08-23,2021-08-19,株式会社ワイズケア,,株式会社,茨城県,日立市,水木町１丁目１４番１６号,,08,202,3160024,,,2021-08-19,清算の結了等,,,2020-10-06,1,,,,,ワイズケア,0
1796,7050002021974,登記記録の閉鎖等,0,2021-08-23,2021-08-16,有限会社ハーモニー,,有限会社,茨城県,つくば市,松代２丁目１３番地１,,08,220,3050035,,,2021-08-16,清算の結了等,,,2015-10-05,1,,,,,,0
1809,7070002005042,登記記録の閉鎖等,0,2021-08-23,2021-08-18,有限会社松本工務店,,有限会社,群馬県,前橋市,六供町１８７番地,,10,201,3710804,,,2021-08-18,清算の結了等,,,2015-10-05,1,,,,,マツモトコウムテン,0
1811,7080002017945,登記記録の閉鎖等,0,2021-08-23,2021-08-18,有限会社ふじえだメガネ,,有限会社,静岡県,藤枝市,前島３丁目１５番３６号,,22,214,4260067,,,2021-08-18,清算の結了等,,,2015-10-05,1,,,,,フジエダメガネ,0
1813,7080101018571,登記記録の閉鎖等,0,2021-08-23,2021-08-18,株式会社フラット,,株式会社,静岡県,富士市,広見本町２番５１号,,22,210,4170864,,,2021-08-18,清算の結了等,,,2015-10-05,1,,,,,フラット,0
1818,7110001018255,登記記録の閉鎖等,0,2021-08-23,2021-08-20,株式会社三津和自動車工業所,,株式会社,新潟県,村上市,松喜和字砂山１５０４番地,,15,212,9593428,,,2021-08-20,清算の結了等,,,2015-10-05,1,,,,,,0
1819,7110001019666,登記記録の閉鎖等,0,2021-08-23,2021-08-19,五城地建株式会社,,株式会社,新潟県,上越市,浦川原区中猪子田２００６番地１,,15,222,9420304,,,2021-08-19,清算の結了等,,,2015-10-05,1,,,,,ゴジョウチケン,0
1822,7110003004006,登記記録の閉鎖等,0,2021-08-23,2021-08-18,合同会社ローカル出版,,合同会社,新潟県,新潟市中央区,女池７丁目５番１２号,,15,103,9500941,,,2021-08-18,清算の結了等,,,2019-09-24,1,,,,,ローカルシュッパン,0
1882,7180002089173,登記記録の閉鎖等,0,2021-08-23,2021-08-18,有限会社小沢商店,,有限会社,愛知県,津島市,宮川町１丁目６８番地,,23,208,4960853,,,2021-08-18,清算の結了等,,,2015-10-05,1,,,,,オザワショウテン,0
1888,7200002006613,登記記録の閉鎖等,0,2021-08-23,2021-08-20,有限会社美山石材,,有限会社,岐阜県,山県市,岩佐８７９番地の６,,21,215,5012259,,,2021-08-20,清算の結了等,,,2015-10-05,1,,,,,,0
1893,7230002003558,登記記録の閉鎖等,0,2021-08-23,2021-08-02,有限会社みやじま,,有限会社,富山県,富山市,上飯野１１番地,,16,201,9300827,,,2021-08-02,合併による解散等,2230001015740,令和３年８月１日富山市金泉寺２５７番地１株式会社Ｔ・Ｍ（2230001015740）に合併し解散,2015-10-05,1,,,,,ミヤジマ,0
1894,7240001016469,登記記録の閉鎖等,0,2021-08-23,2021-08-02,株式会社マーケティングシステム,,株式会社,広島県,広島市西区,観音本町２丁目８番２２号,,34,104,7330033,,,2021-08-02,合併による解散等,4240001010458,令和３年８月１日広島市西区横川町一丁目１０番１５号株式会社ＳＨ東雲堂（4240001010458）に合併し解散,2015-10-05,1,,,,,マーケティングシステム,0
1897,7240002011824,登記記録の閉鎖等,0,2021-08-23,2021-08-02,有限会社中広ソフトピア,,有限会社,広島県,広島市西区,観音本町２丁目８番２２号株式会社フタバ図書内,,34,104,7330033,,,2021-08-02,合併による解散等,4240001010458,令和３年８月１日広島市西区横川町一丁目１０番１５号株式会社ＳＨ東雲堂（4240001010458）に合併し解散,2015-10-05,1,,,,,ナカヒロソフトピア,0
1905,7290001058655,登記記録の閉鎖等,0,2021-08-23,2021-08-02,株式会社福紘恒産,,株式会社,福岡県,大野城市,御笠川１丁目１３番３号,,40,219,8160912,,,2021-08-02,清算の結了等,,,2015-10-05,1,,,,,フッコウコウサン,0
1912,7290002022676,登記記録の閉鎖等,0,2021-08-23,2021-07-30,有限会社ミタカ産業,,有限会社,福岡県,那珂川市,大字上梶原３３０番地,,40,231,8111223,,,2021-07-30,清算の結了等,,,2015-10-05,1,,,,,ミタカサンギョウ,0
1913,7290005000646,登記記録の閉鎖等,0,2021-08-23,2021-08-04,御嶽教神照教会,,その他の設立登記法人,福岡県,福岡市中央区,六本松３丁目１番５７号,,40,133,8100044,,,2021-08-04,清算の結了等,,,2015-10-05,1,,,,,オンタケキョウシンショウキョウカイ,0
1916,7310001009234,登記記録の閉鎖等,0,2021-08-23,2021-08-17,株式会社諫早福祉会,,株式会社,長崎県,諫早市,福田町３０番３６号,,42,204,8540001,,,2021-08-17,清算の結了等,,,2015-10-05,1,,,,,イサハヤフクシカイ,0
1927,7350003002514,登記記録の閉鎖等,0,2021-08-23,2021-08-18,合同会社竹林オート,,合同会社,宮崎県,延岡市,上伊形町１４３番地１,,45,203,8890502,,,2021-08-18,清算の結了等,,,2015-10-05,1,,,,,タケバヤシオート,0
1942,7450001005698,登記記録の閉鎖等,0,2021-08-23,2021-08-20,株式会社北海道味菜館,,株式会社,北海道,旭川市,忠和五条８丁目２番９号,,01,204,0708045,,,2021-08-20,清算の結了等,,,2015-10-05,1,,,,,ホッカイドウアジサイカン,0
1955,8010001157995,登記記録の閉鎖等,0,2021-08-23,2021-08-06,株式会社ディッチャ,,株式会社,東京都,千代田区,飯田橋４丁目１－２プレイスイン１Ｆ,,13,101,1020072,,,2021-08-06,清算の結了等,,,2015-10-05,1,,,,,ディッチャ,0
1964,8010002025276,登記記録の閉鎖等,0,2021-08-23,2021-08-03,有限会社マツヒロエリア,,有限会社,東京都,渋谷区,代々木２丁目３７番１５号,,13,113,1510053,,,2021-08-03,清算の結了等,,,2015-10-05,1,,,,,マツヒロエリア,0
1967,8010003031777,登記記録の閉鎖等,0,2021-08-23,2021-08-16,合同会社人形町インベストメント,,合同会社,東京都,千代田区,丸の内３丁目１番１号,,13,101,1000005,,,2021-08-16,清算の結了等,,,2020-03-04,1,,,,,ニンギョウチョウインベストメント,0
1976,8010401131765,登記記録の閉鎖等,0,2021-08-23,2021-08-02,株式会社ケイズホールディング,,株式会社,東京都,渋谷区,神宮前４丁目２６番２８号２階,,13,113,1500001,,,2021-08-02,合併による解散等,8010501040998,令和３年８月１日東京都渋谷区神宮前四丁目２６番２８号２階株式会社ケイエスネットワーク（8010501040998）に合併し解散,2017-05-31,1,,,,,ケイズホールディング,0
2021,8011401013689,登記記録の閉鎖等,0,2021-08-23,2021-08-13,株式会社パティバラ,,株式会社,東京都,板橋区,大山東町５９番２０号,,13,119,1730014,,,2021-08-13,清算の結了等,,,2015-10-05,1,,,,,パティバラ,0
2034,8011802003297,登記記録の閉鎖等,0,2021-08-23,2021-08-20,有限会社ササキコンサルティング,,有限会社,東京都,葛飾区,亀有５丁目７番３号,,13,122,1250061,,,2021-08-20,清算の結了等,,,2015-10-05,1,,,,,,0
2035,8011805002643,登記記録の閉鎖等,0,2021-08-23,2021-08-19,ＮＰＯ法人カブキモノ,,その他の設立登記法人,東京都,足立区,花畑７丁目７番４号,,13,121,1210061,,,2021-08-19,清算の結了等,,,2017-01-18,1,,,,,カブキモノ,0
2054,8020001116884,登記記録の閉鎖等,0,2021-08-23,2021-08-10,ＩＴスタジオ株式会社,,株式会社,神奈川県,横浜市中区,山元町１丁目１６番地３３,,14,104,2310851,,,2021-08-10,清算の結了等,,,2016-07-07,1,,,,,アイティースダジオ,0
2058,8020002009765,登記記録の閉鎖等,0,2021-08-23,2021-08-17,有限会社宏洋工業,,有限会社,神奈川県,横浜市磯子区,岡村３丁目４番１０号,,14,107,2350021,,,2021-08-17,清算の結了等,,,2015-10-05,1,,,,,コウヨウコウギョウ,0
2073,8030002095672,登記記録の閉鎖等,0,2021-08-23,2021-08-10,有限会社おおさわ家,,有限会社,埼玉県,東松山市,和泉町７番３号,,11,212,3550026,,,2021-08-10,清算の結了等,,,2015-10-05,1,,,,,オオサワヤ,0
2091,8070002018605,登記記録の閉鎖等,0,2021-08-23,2021-08-19,有限会社岡芹,,有限会社,群馬県,伊勢崎市,富塚町２７３番地８,,10,204,3720833,,,2021-08-19,清算の結了等,,,2015-10-05,1,,,,,オカゼリ,0
2101,8080405004110,登記記録の閉鎖等,0,2021-08-23,2021-08-18,学校法人天竜厚生会,,その他の設立登記法人,静岡県,浜松市天竜区,渡ケ島２１７番地の３,,22,137,4313423,,,2021-08-18,清算の結了等,,,2015-10-05,1,,,,,テンリュウコウセイカイ,0
2110,8120001173973,登記記録の閉鎖等,0,2021-08-23,2021-08-12,浜松鰻販売株式会社,,株式会社,大阪府,大阪市中央区,谷町５丁目６番７号中川ビル３階Ａ号,,27,128,5400012,,,2021-08-12,清算の結了等,,,2015-10-05,1,,,,,ハママツウナギハンバイ,0
2114,8120001205611,登記記録の閉鎖等,0,2021-08-23,2021-08-19,ヴァスキュリード株式会社,,株式会社,大阪府,吹田市,山田丘２番８号,,27,205,5650871,,,2021-08-19,清算の結了等,,,2017-05-17,1,,,,,ヴァスキュリード,0
2134,8120901013824,登記記録の閉鎖等,0,2021-08-23,2021-08-20,株式会社タイアップ,,株式会社,大阪府,吹田市,江坂町１丁目１２番４号第２江坂ソリトンビル２階,,27,205,5640063,,,2021-08-20,清算の結了等,,,2015-10-05,1,,,,,,0
2144,8130001039620,登記記録の閉鎖等,0,2021-08-23,2021-08-17,株式会社ジェーピーマップ,,株式会社,京都府,城陽市,寺田北山田２７番地の７,,26,207,6100121,,,2021-08-17,清算の結了等,,,2015-10-05,1,,,,,ジェーピーマップ,0
2158,8160001006147,登記記録の閉鎖等,0,2021-08-23,2021-08-20,株式会社ショフル,,株式会社,滋賀県,甲賀市,水口町虫生野中央１８９番地の１,,25,209,5280042,,,2021-08-20,清算の結了等,,,2015-10-05,1,,,,,ショフル,0
2178,8180002092944,登記記録の閉鎖等,0,2021-08-23,2021-08-18,有限会社アイ・ケイ・エス興業,,有限会社,愛知県,海部郡飛島村,元起４丁目９２番地,,23,427,4901437,,,2021-08-18,清算の結了等,,,2015-10-05,1,,,,,アイケイエスコウギョウ,0
2191,8220003000661,登記記録の閉鎖等,0,2021-08-23,2021-08-16,合資会社メディアサンゴハチ,,合資会社,石川県,金沢市,鈴見台５丁目１０番２１号,,17,201,9201161,,,2021-08-16,清算の結了等,,,2015-10-05,1,,,,,メディアサンゴハチ,0
2205,8280002004757,登記記録の閉鎖等,0,2021-08-23,2021-08-20,有限会社フルヤマ,,有限会社,島根県,安来市,広瀬町広瀬１８１８番地,,32,206,6920404,,,2021-08-20,清算の結了等,,,2015-10-05,1,,,,,フルヤマ,0
2222,8300002006981,登記記録の閉鎖等,0,2021-08-23,2021-08-11,有限会社松利園製茶,,有限会社,佐賀県,嬉野市,塩田町大字大草野丙２２０番地１３,,41,209,8491415,,,2021-08-11,清算の結了等,,,2015-10-05,1,,,,,ショウリエンセイチャ,0
2234,8370001007990,登記記録の閉鎖等,0,2021-08-23,2021-08-11,株式会社行人社,,株式会社,宮城県,仙台市青葉区,二日町１３番２６－８０２号,,04,101,9800802,,,2021-08-11,清算の結了等,,,2015-10-05,1,,,,,コウジンシャ,0
2248,8470002016873,登記記録の閉鎖等,0,2021-08-23,2021-08-18,有限会社ヘルスケミカル,,有限会社,香川県,三豊市,仁尾町仁尾乙１８６９番地５,,37,208,7691404,,,2021-08-18,清算の結了等,,,2015-10-05,1,,,,,ヘルスケミカル,0
2255,9010001027792,登記記録の閉鎖等,0,2021-08-23,2021-08-06,藤井金属株式会社,,株式会社,東京都,中央区,日本橋本町４丁目１３番８号,,13,102,1030023,,,2021-08-06,清算の結了等,,,2015-10-05,1,,,,,フジイキンゾク,0
2256,9010001030598,登記記録の閉鎖等,0,2021-08-23,2021-08-12,株式会社明興社,,株式会社,東京都,千代田区,富士見２丁目３番１号,,13,101,1020071,,,2021-08-12,清算の結了等,,,2015-10-05,1,,,,,メイコウシャ,0
2277,9010401115528,登記記録の閉鎖等,0,2021-08-23,2021-08-12,ダイシス株式会社,,株式会社,東京都,中央区,日本橋箱崎町３番１２号,,13,102,1030015,,,2021-08-12,清算の結了等,,,2015-10-05,1,,,,,ダイシス,0
2292,9011001134579,登記記録の閉鎖等,0,2021-08-23,2021-08-18,株式会社Ｃｈｅｅｒ,,株式会社,東京都,新宿区,西新宿１丁目１番６号ミヤコ新宿ビル９０８,,13,104,1600023,,,2021-08-18,合併による解散等,2011001105066,令和３年８月１日さいたま市北区宮原町二丁目４０番地２島村ハイツ２０３号室株式会社Ｃｈｅｅｒ（2011001105066）に合併し解散,2020-07-07,1,,,,,チア,0
2308,9011602000857,登記記録の閉鎖等,0,2021-08-23,2021-08-17,有限会社井汲米店,00056182,有限会社,東京都,練馬区,豊玉中３丁目１７番１２号,,13,120,1760013,,,2021-08-17,清算の結了等,,,2015-10-05,1,,,,,イクミコメテン,0
2341,9021002028928,登記記録の閉鎖等,0,2021-08-23,2021-08-16,有限会社佐藤組,,有限会社,神奈川県,相模原市緑区,青根２０３０番地,,14,151,2520162,,,2021-08-16,清算の結了等,,,2015-10-05,1,,,,,サトウグミ,0
2352,9040001006414,登記記録の閉鎖等,0,2021-08-23,2021-08-10,株式会社標準教材,,株式会社,千葉県,千葉市中央区,大巌寺町１６１番地,,12,101,2600812,,,2021-08-10,清算の結了等,,,2015-10-05,1,,,,,ヒョウジュンキョウザイ,0
2369,9080405004828,登記記録の閉鎖等,0,2021-08-23,2021-08-19,特定非営利活動法人ぷらいどサポートセンター,,その他の設立登記法人,静岡県,掛川市,細谷８８０番地の２,,22,213,4360112,,,2021-08-19,清算の結了等,,,2015-10-05,1,,,,,プライドサポートセンター,0
2378,9120001126105,登記記録の閉鎖等,0,2021-08-23,2021-08-05,株式会社Ｈ．Ｉ,,株式会社,大阪府,大阪市天王寺区,逢阪１丁目１番３号,00029050,27,109,5430062,,,2021-08-05,清算の結了等,,,2015-10-05,1,,,,,,0
2391,9122002005485,登記記録の閉鎖等,0,2021-08-23,2021-08-20,有限会社ル・モンド,,有限会社,大阪府,東大阪市,小阪本町１丁目３番１５号,,27,227,5770802,,,2021-08-20,清算の結了等,,,2015-10-05,1,,,,,ルモンド,0
2410,9150001023175,登記記録の閉鎖等,0,2021-08-23,2021-08-18,株式会社ＳＡＴＯ,,株式会社,奈良県,橿原市,田中町２０９,,29,205,6340032,,,2021-08-18,清算の結了等,,,2019-08-01,1,,,,,サト,0
2420,9180001097547,登記記録の閉鎖等,0,2021-08-23,2021-08-18,株式会社大谷葬具店,,株式会社,愛知県,弥富市,桴場３丁目３番地,,23,235,4901404,,,2021-08-18,清算の結了等,,,2015-10-05,1,,,,,オオタニソウグテン,0
2425,9180001138020,登記記録の閉鎖等,0,2021-08-23,2021-08-19,ライブスケイプ株式会社,,株式会社,愛知県,春日井市,高蔵寺町３丁目２番地１１,,23,206,4870013,,,2021-08-19,清算の結了等,,,2019-09-06,1,,,,,,0
2434,9180302013748,登記記録の閉鎖等,0,2021-08-23,2021-08-19,有限会社西山商店,,有限会社,愛知県,豊川市,新豊町２丁目１３番地,,23,207,4420012,,,2021-08-19,清算の結了等,,,2015-10-05,1,,,,,ニシヤマショウテン,0
2443,9240001043098,登記記録の閉鎖等,0,2021-08-23,2021-08-06,株式会社ＤＥＫＩアグリ,,株式会社,広島県,東広島市,黒瀬町南方字下条１５８０番地１,,34,212,7392503,,,2021-08-06,清算の結了等,,,2015-10-05,1,,,,,デキアグリ,0
2445,9240002032281,登記記録の閉鎖等,0,2021-08-23,2021-08-02,有限会社エコロジア,,有限会社,広島県,呉市,広中町１番９号,,34,202,7370131,,,2021-08-02,合併による解散等,4240001010458,令和３年８月１日広島市西区横川町一丁目１０番１５号株式会社ＳＨ東雲堂（4240001010458）に合併し解散,2015-10-05,1,,,,,エコロジア,0
2446,9240002040631,登記記録の閉鎖等,0,2021-08-23,2021-08-05,有限会社小林自動車,,有限会社,広島県,福山市,今津町７丁目１０番１８号,,34,207,7290111,,,2021-08-05,清算の結了等,,,2015-10-05,1,,,,,コバヤシジドウシャ,0
2450,9240005002546,登記記録の閉鎖等,0,2021-08-23,2021-08-10,特定非営利活動法人ひろしま点灯虫の会,,その他の設立登記法人,広島県,広島市西区,己斐上５丁目３１番１５号,,34,104,7330815,,,2021-08-10,清算の結了等,,,2015-10-05,1,,,,,ヒロシマテントウムシノカイ,0
2456,9250002019022,登記記録の閉鎖等,0,2021-08-23,2021-08-17,有限会社エムエスケイ,,有限会社,山口県,岩国市,由宇町千鳥ヶ丘１丁目１４番８号,,35,208,7401441,,,2021-08-17,清算の結了等,,,2015-10-05,1,,,,,エムエスケイ,0
2464,9290001004822,登記記録の閉鎖等,0,2021-08-23,2021-08-02,福武建設株式会社,,株式会社,福岡県,福岡市城南区,荒江１丁目１７番８号,,40,136,8140101,,,2021-08-02,清算の結了等,,,2021-05-17,1,,,,,フクタケケンセツ,0
2492,9410002007365,登記記録の閉鎖等,0,2021-08-23,2021-08-19,有限会社結城畜産,,有限会社,秋田県,にかほ市,象潟町字上狐森１７０番地,,05,214,0180103,,,2021-08-19,清算の結了等,,,2015-10-05,1,,,,,ユウキチクサン,0
2498,9470002015998,登記記録の閉鎖等,0,2021-08-23,2021-08-19,有限会社七宝亭,,有限会社,香川県,観音寺市,吉岡町１２番地１,,37,205,7680021,,,2021-08-19,清算の結了等,,,2015-10-05,1,,,,,,0
