sequenceNumber,corporateNumber,process,correct,updateDate,changeDate,name,nameImageId,kind,prefectureName,cityName,streetNumber,addressImageId,prefectureCode,cityCode,postCode,addressOutside,addressOutsideImageId,closeDate,closeCause,successorCorporateNumber,changeCause,assignmentDate,latest,enName,enPrefectureName,enCityName,enAddressOutside,furigana,hihyoji
11,1010001228885,新規,0,2022-08-25,2022-08-25,Ｎｏｔｈｉｎｇ　Ｔｅｃｈｎｏｌｏｇｙ　Ｊａｐａｎ株式会社,,株式会社,東京都,中央区,入船１丁目９－８ピエノアーク入船,,13,102,1040042,,,,,,,2022-08-25,1,,,,,ナッシングテクノロジージャパン,0
16,1010003038481,新規,0,2022-08-25,2022-08-25,ｎｅｋｏｎｅｋｏ合同会社,,合同会社,東京都,千代田区,外神田２丁目８番１４号株式会社さくら内,,13,101,1010021,,,,,,,2022-08-25,1,,,,,ネコネコ,0
17,1010003038498,新規,0,2022-08-25,2022-08-25,サードプレイス合同会社,,合同会社,東京都,千代田区,丸の内２丁目２－１岸本ビルヂング６Ｆ,,13,101,1000005,,,,,,,2022-08-25,1,,,,,サードプレイス,0
19,1010005035460,新規,0,2022-08-25,2022-08-25,白浜特定目的会社,,その他の設立登記法人,東京都,千代田区,丸の内３丁目１番１号東京共同会計事務所内,,13,101,1000005,,,,,,,2022-08-25,1,,,,,シラハマ,0
28,1010401169201,新規,0,2022-08-25,2022-08-25,株式会社ｔｈｅ　ｅｄｇｅ,,株式会社,東京都,港区,白金台３丁目１番１１号マンション白金台７０４号室,,13,103,1080071,,,,,,,2022-08-25,1,,,,,ザエッジ,0
29,1010405021317,新規,0,2022-08-25,2022-08-25,ＪＮ特定目的会社,,その他の設立登記法人,東京都,港区,六本木１丁目９番１０号アークヒルズ仙石山森タワー４０階,,13,103,1060032,,,,,,,2022-08-25,1,,,,,ジェイエヌ,0
30,1010501049286,新規,0,2022-08-25,2022-08-25,株式会社Ｐｉｎｏｉｚｏｌａ,,株式会社,東京都,台東区,西浅草２丁目２５番１５号ブランシール浅草１０２号室,,13,106,1110035,,,,,,,2022-08-25,1,,,,,ピノイゾラ,0
31,1010601061744,新規,0,2022-08-25,2022-08-25,ＩＧトレーディング株式会社,,株式会社,東京都,江東区,越中島１丁目２－７－２０４,,13,108,1350044,,,,,,,2022-08-25,1,,,,,アイジートレーディング,0
35,1010701043114,新規,0,2022-08-25,2022-08-25,株式会社ｍｕｒｍｕｒ,,株式会社,東京都,品川区,小山３丁目２７番５号武蔵小山創業支援センター,,13,109,1420062,,,,,,,2022-08-25,1,,,,,マーマー,0
39,1010801033221,新規,0,2022-08-25,2022-08-25,株式会社ＳＨＩＮＹＡ,,株式会社,東京都,大田区,羽田４丁目４番２６号,,13,111,1440043,,,,,,,2022-08-25,1,,,,,シンヤ,0
43,1010901051494,新規,0,2022-08-25,2022-08-25,株式会社ＣＲＯＳＳ　ＧＯＬＤ,,株式会社,東京都,世田谷区,経堂１丁目１９番６号清水ビル３階,,13,112,1560052,,,,,,,2022-08-25,1,,,,,クロスゴールド,0
47,1011003015272,新規,0,2022-08-25,2022-08-25,プロダクションオリエンタ合同会社,,合同会社,東京都,渋谷区,円山町５－４－３０２,,13,113,1500044,,,,,,,2022-08-25,1,,,,,プロダクションオリエンタ,0
59,1012401039565,新規,0,2022-08-25,2022-08-25,３ＧＳＮ株式会社,,株式会社,東京都,三鷹市,上連雀３丁目１２番２号,,13,204,1810012,,,,,,,2022-08-25,1,,,,,スリージーエスエヌ,0
60,1012403005557,新規,0,2022-08-25,2022-08-25,合同会社ソアレ,,合同会社,東京都,調布市,調布ケ丘２丁目１５番１号,,13,208,1820021,,,,,,,2022-08-25,1,,,,,ソアレ,0
61,1012801021800,新規,0,2022-08-25,2022-08-25,株式会社ＧＲＥＥＮ　ＢＲＵＳＨ,,株式会社,東京都,国分寺市,南町３丁目２５番１０号セント・ヒルズ６０１,,13,214,1850021,,,,,,,2022-08-25,1,,,,,グリーンブラッシュ,0
63,1012805003142,新規,0,2022-08-25,2022-08-25,一般社団法人全国ドローン災害対策連絡会,,その他の設立登記法人,東京都,国分寺市,南町３丁目２８番１号第３サイトウビル１Ｆ,,13,214,1850021,,,,,,,2022-08-25,1,,,,,ゼンコクドローンサイガイタイサクレンラクカイ,0
84,1020003022286,新規,0,2022-08-25,2022-08-25,ＬＩＳ合同会社,,合同会社,神奈川県,川崎市中原区,小杉町３丁目６００－５１３号室,,14,133,2110063,,,,,,,2022-08-25,1,,,,,,0
85,1020003022294,新規,0,2022-08-25,2022-08-25,合同会社エムナビコンフォート,,合同会社,神奈川県,川崎市麻生区,上麻生３丁目２２番６－７０７号,,14,137,2150021,,,,,,,2022-08-25,1,,,,,エムナビコンフォート,0
87,1021003012062,新規,0,2022-08-25,2022-08-25,合同会社アンドエス,,合同会社,神奈川県,茅ヶ崎市,中海岸２丁目１番１号－１０２,,14,207,2530055,,,,,,,2022-08-25,1,,,,,アンドエス,0
92,1030001149790,新規,0,2022-08-25,2022-08-25,株式会社モアファン,,株式会社,埼玉県,川口市,金山町１３番３０－５０５号,,11,203,3320014,,,,,,,2022-08-25,1,,,,,モアファン,0
95,1030003020066,新規,0,2022-08-25,2022-08-25,合同会社ＰＨＡＮ　ＣＲ,,合同会社,埼玉県,越谷市,南越谷４丁目２２番地７富士コーポ１０３,,11,222,3430845,,,,,,,2022-08-25,1,,,,,ファンシーアール,0
96,1030003020082,新規,0,2022-08-25,2022-08-25,ＨＹパートナーズ合同会社,,合同会社,埼玉県,さいたま市浦和区,大東２丁目２２番１７号,,11,107,3300043,,,,,,,2022-08-25,1,,,,,エイチワイパートナーズ,0
97,1040001124784,新規,0,2022-08-25,2022-08-25,株式会社ＳＩＸＭＡＴＥ,,株式会社,千葉県,袖ケ浦市,福王台２丁目２０番地２,,12,229,2990261,,,,,,,2022-08-25,1,,,,,シックスメイト,0
98,1040001124801,新規,0,2022-08-25,2022-08-25,株式会社豊和装業,,株式会社,千葉県,市原市,畑木３０２番地３,,12,219,2990112,,,,,,,2022-08-25,1,,,,,ホウワソウギョウ,0
101,1040005021714,新規,0,2022-08-25,2022-08-25,一般社団法人日本ホースボール協会,,その他の設立登記法人,千葉県,富里市,中沢１８１０番地１,,12,233,2860222,,,,,,,2022-08-25,1,,,,,ニホンホースボールキョウカイ,0
105,1060003004198,新規,0,2022-08-25,2022-08-25,ＲＯＯＦＴＯＰ合同会社,,合同会社,栃木県,佐野市,相生町２８４６番地３,,09,204,3270023,,,,,,,2022-08-25,1,,,,,ルーフトップ,0
111,1080001025145,新規,0,2022-08-25,2022-08-25,株式会社マル金農園研究所,,株式会社,静岡県,藤枝市,瀬戸ノ谷７５３７番地の２,,22,214,4260131,,,,,,,2022-08-25,1,,,,,マルキンノウエンケンキュウジョ,0
112,1080101023494,新規,0,2022-08-25,2022-08-25,株式会社エクセルホールディングス,,株式会社,静岡県,沼津市,双葉町９番１２－２号,,22,203,4100005,,,,,,,2022-08-25,1,,,,,エクセルホールディングス,0
114,1080401026016,新規,0,2022-08-25,2022-08-25,キューピッドキューブ株式会社,,株式会社,静岡県,浜松市東区,半田山４丁目６番８号,,22,132,4313125,,,,,,,2022-08-25,1,,,,,キューピッドキューブ,0
117,1090001017744,新規,0,2022-08-25,2022-08-25,株式会社ＨＯＮＵＡ‐ＭＥＡ,,株式会社,山梨県,富士吉田市,ときわ台２丁目２－２４,,19,202,4030015,,,,,,,2022-08-25,1,,,,,,0
120,1100001035637,新規,0,2022-08-25,2022-08-25,株式会社Ｒｏｏｔｓ,,株式会社,長野県,飯山市,大字瑞穂３１８７番地,,20,213,3892322,,,,,,,2022-08-25,1,,,,,ルーツ,0
128,1110001036907,新規,0,2022-08-25,2022-08-25,株式会社ＴＹコーポレーション,,株式会社,新潟県,新潟市中央区,東大通１丁目１１番１２号パルコミニオンビル７階,,15,103,9500087,,,,,,,2022-08-25,1,,,,,ティーワイコーポレーション,0
140,1120001248393,新規,0,2022-08-25,2022-08-25,荷亞海運株式会社,,株式会社,大阪府,大阪市中央区,南久宝寺町３丁目４番１５号,,27,128,5410058,,,,,,,2022-08-25,1,,,,,ニアカイウン,0
141,1120001248410,新規,0,2022-08-25,2022-08-25,株式会社ラフノート,,株式会社,大阪府,大阪市西区,江戸堀１丁目２１番４号ＭＲＫ江戸堀,,27,106,5500002,,,,,,,2022-08-25,1,,,,,ラフノート,0
142,1120001248427,新規,0,2022-08-25,2022-08-25,ＮＫマリンユナイテッド株式会社,,株式会社,大阪府,大阪市阿倍野区,阿倍野筋１丁目１－４３あべのハルカス３１階,,27,119,5450052,,,,,,,2022-08-25,1,,,,,エヌケーマリンユナイテッド,0
143,1120001248443,新規,0,2022-08-25,2022-08-25,永溢株式会社,,株式会社,大阪府,大阪市西成区,天下茶屋１丁目１番１６号,,27,122,5570014,,,,,,,2022-08-25,1,,,,,エイイツ,0
148,1120003022334,新規,0,2022-08-25,2022-08-25,リリノワール合同会社,,合同会社,大阪府,大阪市西区,京町堀２丁目６番２０号,,27,106,5500003,,,,,,,2022-08-25,1,,,,,リリノワール,0
149,1120003022342,新規,0,2022-08-25,2022-08-25,大阪あがるくらぶ合同会社,,合同会社,大阪府,大阪市中央区,安土町２丁目５番５号本町明大ビル,,27,128,5410052,,,,,,,2022-08-25,1,,,,,オオサカアガルクラブ,0
151,1120101066134,新規,0,2022-08-25,2022-08-25,株式会社スマイルホーム,,株式会社,大阪府,羽曳野市,郡戸３３４番地７０スマイルホーム,,27,222,5830874,,,,,,,2022-08-25,1,,,,,スマイルホーム,0
158,1122001036191,新規,0,2022-08-25,2022-08-25,株式会社Ｄｏｎｕｔ　Ｓｏｌｕｔｉｏｎ,,株式会社,大阪府,八尾市,大竹７丁目１６９番地,,27,212,5810854,,,,,,,2022-08-25,1,,,,,ドーナツソリューション,0
159,1122001036200,新規,0,2022-08-25,2022-08-25,株式会社リーベクライス,,株式会社,大阪府,東大阪市,今米１丁目５番３５号美杜里ハイムＩＩ３０３,00127612,27,227,5780903,,,,,,,2022-08-25,1,,,,,リーベクライス,0
167,1130001072446,新規,0,2022-08-25,2022-08-25,株式会社エスエヌティ京都,,株式会社,京都府,亀岡市,保津町荒金３番地２,,26,206,6210005,,,,,,,2022-08-25,1,,,,,エスエヌティキョウト,0
181,1150001025781,新規,0,2022-08-25,2022-08-25,株式会社メモリーホームＡｔｅｌｉｅｒ,,株式会社,奈良県,天理市,川原城町８９７番地メモリーホームアトリエ第１２号館,,29,204,6320016,,,,,,,2022-08-25,1,,,,,メモリーホームアトリエ,0
182,1170001017249,新規,0,2022-08-25,2022-08-25,株式会社ヒラノ商会,,株式会社,和歌山県,東牟婁郡那智勝浦町,大字北浜２丁目４番地,,30,421,6495333,,,,,,,2022-08-25,1,,,,,ヒラノショウカイ,0
186,1180001152730,新規,0,2022-08-25,2022-08-25,株式会社万寿屋,,株式会社,愛知県,名古屋市中区,富士見町１７番３２号,,23,106,4600014,,,,,,,2022-08-25,1,,,,,マンジュヤ,0
187,1180001152747,新規,0,2022-08-25,2022-08-25,株式会社長縄工務店運輸,,株式会社,愛知県,春日井市,六軒屋町４丁目６３番地,,23,206,4860842,,,,,,,2022-08-25,1,,,,,ナガナワコウムテンウンユ,0
193,1190001029713,新規,0,2022-08-25,2022-08-25,株式会社たすける,,株式会社,三重県,四日市市,阿倉川町１０番２６号,,24,202,5100803,,,,,,,2022-08-25,1,,,,,タスケル,0
199,1240001023173,新規,0,2022-08-25,2022-08-25,中国地所株式会社,,株式会社,広島県,東広島市,西条町上三永１４１７番地の８,,34,212,7390022,,,,,,,2022-08-25,1,,,,,,0
203,1240001060266,新規,0,2022-08-25,2022-08-25,株式会社ＭＯＡＮＡ,,株式会社,広島県,広島市中区,国泰寺町２丁目２番２５－９０１号,,34,101,7300042,,,,,,,2022-08-25,1,,,,,モアナ,0
222,1290001098608,新規,0,2022-08-25,2022-08-25,ＭＩＲＡＩ株式会社,,株式会社,福岡県,福岡市中央区,天神２丁目３番１０号天神パインクレスト７１９号,,40,133,8100001,,,,,,,2022-08-25,1,,,,,ミライ,0
223,1290001098698,新規,0,2022-08-25,2022-08-25,株式会社Ｊｅｅｋａａ,,株式会社,福岡県,福津市,日蒔野１丁目１番地の２－１２０８号,,40,224,8113209,,,,,,,2022-08-25,1,,,,,ジーカー,0
226,1290003012871,新規,0,2022-08-25,2022-08-25,合同会社アクステージ,,合同会社,福岡県,福岡市中央区,桜坂２丁目３番３１号,,40,133,8100024,,,,,,,2022-08-25,1,,,,,アクステージ,0
228,1290005018784,新規,0,2022-08-25,2022-08-25,一般社団法人ＭＡＫＥＩＮＵ．,,その他の設立登記法人,福岡県,福岡市南区,若久１丁目１９番１－３１０号グリーンヒルズ,,40,134,8150042,,,,,,,2022-08-25,1,,,,,マケイヌ,0
231,1290801028838,新規,0,2022-08-25,2022-08-25,株式会社中村建設工業,,株式会社,福岡県,田川郡福智町,金田１０５３番地４,,40,610,8221201,,,,,,,2022-08-25,1,,,,,ナカムラケンセツコウギョウ,0
232,1290803004184,新規,0,2022-08-25,2022-08-25,合同会社ＴＥＮＳＯ,,合同会社,福岡県,北九州市戸畑区,千防２丁目１７番１０号３Ｆ,,40,105,8040081,,,,,,,2022-08-25,1,,,,,テンソ,0
237,1310001018001,新規,0,2022-08-25,2022-08-25,遊和工房株式会社,,株式会社,長崎県,大村市,沖田町１２４番地１,,42,205,8560809,,,,,,,2022-08-25,1,,,,,ユウワコウボウ,0
243,1340001024987,新規,0,2022-08-25,2022-08-25,芍薬堂株式会社,,株式会社,鹿児島県,鹿児島市,下荒田１丁目５番６号,,46,201,8900056,,,,,,,2022-08-25,1,,,,,シャクヤクドウ,0
251,1370001048983,新規,0,2022-08-25,2022-08-25,株式会社ＧＡＭＢＥＲＥＴＴＯ,,株式会社,宮城県,仙台市太白区,向山３丁目２０番１６号,,04,104,9820841,,,,,,,2022-08-25,1,,,,,ガンバレット,0
260,1410001013264,新規,0,2022-08-25,2022-08-25,ＡＭＡＫｏｏ株式会社,,株式会社,秋田県,秋田市,飯島字坂道端１９番地４,,05,201,0110911,,,,,,,2022-08-25,1,,,,,アマコー,0
266,1430001087356,新規,0,2022-08-25,2022-08-25,株式会社ＲＹＯ,,株式会社,北海道,札幌市中央区,北四条東１丁目３番地１パシフィックタワー札幌２９０１号,,01,101,0600034,,,,,,,2022-08-25,1,,,,,アールワイオー,0
267,1430001087372,新規,0,2022-08-25,2022-08-25,株式会社道和,,株式会社,北海道,北広島市,輪厚中央３丁目１番地２０,,01,234,0611268,,,,,,,2022-08-25,1,,,,,ドウワ,0
273,1490003001697,新規,0,2022-08-25,2022-08-25,Ｎテック合同会社,,合同会社,高知県,高知市,仁井田１６４８番地１８,,39,201,7810112,,,,,,,2022-08-25,1,,,,,エヌテック,0
276,1500001024418,新規,0,2022-08-25,2022-08-25,きらめきコンサル株式会社,,株式会社,愛媛県,松山市,道後樋又１番２２号ラルステージ道後樋又１２０３号,,38,201,7900825,,,,,,,2022-08-25,1,,,,,キラメキコンサル,0
278,1500005008516,新規,0,2022-08-25,2022-08-25,社会福祉法人今人倶楽部,,その他の設立登記法人,愛媛県,四国中央市,三島宮川２丁目２番６号,,38,213,7990404,,,,,,,2022-08-25,1,,,,,イマジンクラブ,0
279,1700150010586,新規,0,2022-08-25,2015-10-09,東京都個人タクシー協同組合葛飾第二支部,,その他,東京都,葛飾区,亀有４丁目４－１６日神パレステージ亀有２階,,13,122,1250061,,,,,,,2015-10-09,1,,,,,トウキヨウトコジンタクシーキヨウドウクミアイカツシカダイニシブ,0
280,1700150111509,新規,0,2022-08-25,2022-08-25,オリエンタル・サン・グローバル・リミテッド,,外国会社等,東京都,港区,白金６丁目２５ー１６１２号,,13,103,1080072,英領バージン諸島、トルトラ、ロード・タウン、ウィッカムズ・キー２、ヴィストラ・コーポレート・サービシズ・センター,,,,,,2022-08-25,1,,,,,オリエンタルサングローバルリミテツド,0
285,2010001229049,新規,0,2022-08-25,2022-08-25,株式会社ラ・ルーチェ,,株式会社,東京都,中央区,銀座４丁目１３番１４号４階,,13,102,1040061,,,,,,,2022-08-25,1,,,,,ラルーチェ,0
287,2010003038472,新規,0,2022-08-25,2022-08-25,合同会社バウハウス,,合同会社,東京都,中央区,銀座７丁目１３－２１,,13,102,1040061,,,,,,,2022-08-25,1,,,,,バウハウス,0
288,2010003038497,新規,0,2022-08-25,2022-08-25,ＶＥＲＥＤ４合同会社,,合同会社,東京都,中央区,八丁堀４丁目２番１０号ＡＯＪ税理士法人内,,13,102,1040032,,,,,,,2022-08-25,1,,,,,ヴェレッドフォー,0
297,2010401169316,新規,0,2022-08-25,2022-08-25,株式会社ガーディアランス,,株式会社,東京都,港区,高輪３丁目１１番８号,,13,103,1080074,,,,,,,2022-08-25,1,,,,,ガーディアランス,0
300,2010405021290,新規,0,2022-08-25,2022-08-25,錦野一般社団法人,,その他の設立登記法人,東京都,港区,愛宕２丁目５番１号,,13,103,1050002,,,,,,,2022-08-25,1,,,,,ニシキノ,0
306,2010601061743,新規,0,2022-08-25,2022-08-25,株式会社ＧｏｖＯｃｈ,,株式会社,東京都,墨田区,錦糸１丁目２－１,,13,107,1300013,,,,,,,2022-08-25,1,,,,,ガブオック,0
310,2010703006365,新規,0,2022-08-25,2022-08-25,Ｎパートナーズ合同会社,,合同会社,東京都,品川区,大崎２丁目９番２―２１０２号,,13,109,1410032,,,,,,,2022-08-25,1,,,,,エヌパートナーズ,0
313,2010801033220,新規,0,2022-08-25,2022-08-25,ＰｅｒＰｅｔＨｕｂ株式会社,,株式会社,東京都,大田区,上池台１丁目３２－７,,13,111,1450064,,,,,,,2022-08-25,1,,,,,パーペットハブ,0
319,2011001149336,新規,0,2022-08-25,2022-08-25,Ｔ２ＡＲＲＯＷＳ株式会社,,株式会社,東京都,渋谷区,円山町５－５Ｎａｖｉ渋谷Ｖ３階,,13,113,1500044,,,,,,,2022-08-25,1,,,,,ティーツーアロウズ,0
320,2011003015271,新規,0,2022-08-25,2022-08-25,ＵＭリサーチ＆コンサルティング合同会社,,合同会社,東京都,目黒区,目黒１丁目４－１６目黒Ｇビル７Ｆ,,13,110,1530063,,,,,,,2022-08-25,1,,,,,ユーエムリサーチアンドコンサルティング,0
326,2011101099943,新規,0,2022-08-25,2022-08-25,ＨＹ‐ＣＯＳＭＥ株式会社,,株式会社,東京都,新宿区,西新宿６丁目１０番１号新宿オークシティ日土地西新宿ビル８階,,13,104,1600023,,,,,,,2022-08-25,1,,,,,エイチワイコスメ,0
327,2011101099968,新規,0,2022-08-25,2022-08-25,株式会社おいぷろ,,株式会社,東京都,新宿区,中落合１丁目１２番１０号武田ビル６０１,,13,104,1610032,,,,,,,2022-08-25,1,,,,,オイプロ,0
330,2011103012103,新規,0,2022-08-25,2022-08-25,合同会社太田商会,,合同会社,東京都,新宿区,百人町２丁目２６番９ＮＣスクエア新宿ビル３Ｆ,,13,104,1690073,,,,,,,2022-08-25,1,,,,,オオタショウカイ,0
333,2011201024066,新規,0,2022-08-25,2022-08-25,株式会社Ｒｅ１６,,株式会社,東京都,中野区,本町３丁目６番１３号,,13,114,1640012,,,,,,,2022-08-25,1,,,,,アールイーシックスティーン,0
343,2011801041188,新規,0,2022-08-25,2022-08-25,株式会社ＴＳ,,株式会社,東京都,葛飾区,高砂２丁目３７番１第一正陽ビル４０４号室,,13,122,1250054,,,,,,,2022-08-25,1,,,,,ティーエス,0
344,2011805003201,新規,0,2022-08-25,2022-08-25,一般社団法人ＤＡＲＵＬ　ＵＬＯＯＭ　ＴＯＫＹＯ　Ｍａｄｒａｓａ＆Ｍａｓｊｉｄ,,その他の設立登記法人,東京都,葛飾区,青戸４丁目２１番２８号３階,,13,122,1250062,,,,,,,2022-08-25,1,,,,,ダールルウルームトウキョウマドラサアンドマスジド,0
345,2012403005556,新規,0,2022-08-25,2022-08-25,清掃業衛生ユニオン光国クリーン合同会社,,合同会社,東京都,府中市,本町１丁目１２－２オウズ御殿山３０２号,,13,206,1830027,,,,,,,2022-08-25,1,,,,,セイソウギョウエイセイユニオンコウコククリーン,0
346,2012803002863,新規,0,2022-08-25,2022-08-25,ＥＶＥＲＥＳＴ　ＣＯＲＰＯＲＡＴＩＯＮ合同会社,,合同会社,東京都,昭島市,松原町２丁目８－２６マリオ齋藤１０３,,13,207,1960003,,,,,,,2022-08-25,1,,,,,,0
347,2013301049554,新規,0,2022-08-25,2022-08-25,騰錦東京株式会社,,株式会社,東京都,豊島区,上池袋３丁目３５番１２－１２０１号,,13,116,1700012,,,,,,,2022-08-25,1,,,,,トウキントウキョウ,0
349,2013303006272,新規,0,2022-08-25,2022-08-25,合同会社ＩＮＡＺＵＭＡ　ＧＡＭＥＳ,,合同会社,東京都,豊島区,南池袋１丁目１６番１５号ダイヤゲート池袋５階,,13,116,1710022,,,,,,,2022-08-25,1,,,,,イナズマゲームス,0
356,2020003022269,新規,0,2022-08-25,2022-08-25,ＰＡＵＤＥＬ　ＩＮＴＥＲＮＡＴＩＯＮＡＬ　ＦＯＯＤ合同会社,,合同会社,神奈川県,川崎市中原区,新城１丁目１２－７,,14,133,2110044,,,,,,,2022-08-25,1,,,,,パウデルインターナショナルフード,0
359,2021001076835,新規,0,2022-08-25,2022-08-25,ヒカルミライ株式会社,,株式会社,神奈川県,相模原市南区,上鶴間６丁目１０番７号,,14,153,2520302,,,,,,,2022-08-25,1,,,,,ヒカルミライ,0
360,2021001076851,新規,0,2022-08-25,2022-08-25,株式会社フラクタル,,株式会社,神奈川県,小田原市,城山２丁目１６番３１号,,14,206,2500045,,,,,,,2022-08-25,1,,,,,フラクタル,0
361,2021003012061,新規,0,2022-08-25,2022-08-25,合同会社ｓｏｌｅｉｌ　ｌｉｆｅ,,合同会社,神奈川県,茅ヶ崎市,萩園２０２８番地４７,,14,207,2530071,,,,,,,2022-08-25,1,,,,,ソレイルライフ,0
365,2030001149798,新規,0,2022-08-25,2022-08-25,株式会社Ｓ‐ｓｔｙｌｅ,,株式会社,埼玉県,さいたま市緑区,大字三室４１６番地６,,11,109,3360911,,,,,,,2022-08-25,1,,,,,エススタイル,0
368,2030003020040,新規,0,2022-08-25,2022-08-25,合同会社栗ちゃんサービス,,合同会社,埼玉県,さいたま市緑区,山崎１丁目２番１号,,11,109,3360903,,,,,,,2022-08-25,1,,,,,クリチャンサービス,0
369,2030003020065,新規,0,2022-08-25,2022-08-25,臨風合同会社,,合同会社,埼玉県,さいたま市南区,曲本５丁目１番２号,,11,108,3360033,,,,,,,2022-08-25,1,,,,,リンフウ,0
371,2040001124775,新規,0,2022-08-25,2022-08-25,株式会社煌励,,株式会社,千葉県,市原市,辰巳台東２丁目１０番地６,,12,219,2900003,,,,,,,2022-08-25,1,,,,,コウレイ,0
372,2040001124783,新規,0,2022-08-25,2022-08-25,株式会社村田商事,,株式会社,千葉県,鎌ケ谷市,東中沢２丁目２２番３８号,,12,224,2730112,,,,,,,2022-08-25,1,,,,,ムラタショウジ,0
373,2040001124800,新規,0,2022-08-25,2022-08-25,株式会社ＫＯＯ,,株式会社,千葉県,市原市,青葉台３丁目１４番地１０,,12,219,2990117,,,,,,,2022-08-25,1,,,,,クー,0
374,2040001124809,新規,0,2022-08-25,2022-08-25,株式会社ＴＯＭＯ,,株式会社,千葉県,市川市,大野町４丁目２７７１番地の１１,,12,203,2720805,,,,,,,2022-08-25,1,,,,,トモ,0
375,2040001124817,新規,0,2022-08-25,2022-08-25,株式会社ゼーベック,,株式会社,千葉県,船橋市,前原東５丁目１５－３０ボナールタカシ２－２０３,,12,204,2740824,,,,,,,2022-08-25,1,,,,,ゼーベック,0
378,2040003020700,新規,0,2022-08-25,2022-08-25,Ｔ’ＡＣＫ合同会社,,合同会社,千葉県,東金市,田間２丁目４４－９,,12,213,2830005,,,,,,,2022-08-25,1,,,,,タクト,0
380,2050001051580,新規,0,2022-08-25,2022-08-25,株式会社秀亜,,株式会社,茨城県,守谷市,松前台７丁目２３番地９,,08,224,3020102,,,,,,,2022-08-25,1,,,,,シュウア,0
383,2050003006772,新規,0,2022-08-25,2022-08-25,Ｓａｍｕｒａｉ　Ｆｉｒｓｔ　Ｔｒａｄｉｎｇ合同会社,,合同会社,茨城県,守谷市,松前台５丁目１８番地１９,,08,224,3020102,,,,,,,2022-08-25,1,,,,,サムライファーストトレーディング,0
385,2060001035211,新規,0,2022-08-25,2022-08-25,株式会社ルーフ宮下,,株式会社,栃木県,栃木市,大宮町２０５７番地２０,,09,203,3280011,,,,,,,2022-08-25,1,,,,,ルーフミヤシタ,0
393,2080401026015,新規,0,2022-08-25,2022-08-25,株式会社鈴一建設,,株式会社,静岡県,浜松市中区,泉３丁目１番４３号Ｍビル３Ｆ,,22,131,4338124,,,,,,,2022-08-25,1,,,,,スズイチケンセツ,0
394,2090001017751,新規,0,2022-08-25,2022-08-25,リンクフューチャー株式会社,,株式会社,山梨県,北杜市,長坂町長坂上条２２２８番地５,,19,209,4080021,,,,,,,2022-08-25,1,,,,,リンクフューチャー,0
395,2100001035636,新規,0,2022-08-25,2022-08-25,株式会社野沢温泉企画,,株式会社,長野県,下高井郡野沢温泉村,大字豊郷９２５４番地,,20,563,3892502,,,,,,,2022-08-25,1,,,,,ノザワオンセンキカク,0
413,2120001248368,新規,0,2022-08-25,2022-08-25,株式会社家族の手,,株式会社,大阪府,大阪市住吉区,住吉２丁目５番２４号グルパ住吉１号館３０３号,,27,120,5580045,,,,,,,2022-08-25,1,,,,,カゾクノテ,0
414,2120001248392,新規,0,2022-08-25,2022-08-25,株式会社南豊商事,,株式会社,大阪府,大阪市北区,天神橋３丁目１－４３,,27,127,5300041,,,,,,,2022-08-25,1,,,,,ミナミトヨショウジ,0
415,2120001248426,新規,0,2022-08-25,2022-08-25,株式会社Ｏｎｅ　Ｓｔｅｐ,,株式会社,大阪府,大阪市東成区,東中本３丁目１９番２３号７Ｆ,,27,115,5370021,,,,,,,2022-08-25,1,,,,,ワンステップ,0
420,2120003022333,新規,0,2022-08-25,2022-08-25,きゅきゅ合同会社,,合同会社,大阪府,大阪市中央区,瓦屋町１丁目４番１７－５０３号,,27,128,5420066,,,,,,,2022-08-25,1,,,,,キュキュ,0
422,2120101066125,新規,0,2022-08-25,2022-08-25,株式会社南海ワークス,,株式会社,大阪府,岸和田市,春木大小路町１１番１２号,,27,202,5960031,,,,,,,2022-08-25,1,,,,,ナンカイワークス,0
438,2140003018057,新規,0,2022-08-25,2022-08-25,合同会社Ｂｅ　Ｂｒｉｄｇｅ,,合同会社,兵庫県,川西市,萩原台西３丁目２０３番地,,28,217,6660006,,,,,,,2022-08-25,1,,,,,ビーブリッジ,0
448,2180001152341,新規,0,2022-08-25,2022-08-25,株式会社エアライド,,株式会社,愛知県,一宮市,大和町戸塚字連田２０番地２９,,23,203,4910927,,,,,,,2022-08-25,1,,,,,エアライド,0
449,2180001152738,新規,0,2022-08-25,2022-08-25,Ｒｅａｌｉｄａｄ株式会社,,株式会社,愛知県,名古屋市千種区,見附町２丁目３２－１２０１,,23,101,4640817,,,,,,,2022-08-25,1,,,,,レアリダ,0
450,2180001152746,新規,0,2022-08-25,2022-08-25,リタスタイル株式会社,,株式会社,愛知県,名古屋市西区,則武新町３丁目１－６３ラドーニ則武１３０３,,23,104,4510051,,,,,,,2022-08-25,1,,,,,リタスタイル,0
451,2180001152787,新規,0,2022-08-25,2022-08-25,ＩＢＡＳＨＯ株式会社,,株式会社,愛知県,名古屋市昭和区,福江２丁目９－３３,,23,107,4660059,,,,,,,2022-08-25,1,,,,,イバショ,0
457,2180301036558,新規,0,2022-08-25,2022-08-25,株式会社ピーアールディ,,株式会社,愛知県,豊橋市,牟呂大西町２９番地の２２,,23,201,4418089,,,,,,,2022-08-25,1,,,,,ピーアールディ,0
458,2190001029712,新規,0,2022-08-25,2022-08-25,株式会社ＡＭＡＮＥＱ,,株式会社,三重県,四日市市,西伊倉町３番３号,,24,202,5100831,,,,,,,2022-08-25,1,,,,,アマネク,0
459,2200001040394,新規,0,2022-08-25,2022-08-25,株式会社オデオン,,株式会社,岐阜県,岐阜市,三番町２０フロムイーストビル１階,,21,201,5008189,,,,,,,2022-08-25,1,,,,,オデオン,0
462,2220003003348,新規,0,2022-08-25,2022-08-25,合同会社一歩,,合同会社,石川県,河北郡内灘町,白帆台１丁目４０２番地,,17,365,9200269,,,,,,,2022-08-25,1,,,,,イッポ,0
469,2240003005763,新規,0,2022-08-25,2022-08-25,合同会社ＣＩＥ　Ｊａｐａｎ,,合同会社,広島県,広島市中区,幟町２－１０－３０１,,34,101,7300016,,,,,,,2022-08-25,1,,,,,シーアイイージャパン,0
479,2280005007498,新規,0,2022-08-25,2022-08-25,特定非営利活動法人日本ＮＰＯサクセス,,その他の設立登記法人,島根県,浜田市,日脚町１８５番地１２（３）,,32,202,6971322,,,,,,,2022-08-25,1,,,,,ニホンエヌピーオーサクセス,0
485,2290801028837,新規,0,2022-08-25,2022-08-25,鍋時株式会社,,株式会社,福岡県,北九州市八幡西区,元城町２－２０,,40,109,8060015,,,,,,,2022-08-25,1,,,,,ナベトキ,0
489,2330001030044,新規,0,2022-08-25,2022-08-25,オーシャン株式会社,,株式会社,熊本県,熊本市東区,健軍１丁目１５番２３号,,43,102,8620911,,,,,,,2022-08-25,1,,,,,オーシャン,0
491,2330003009490,新規,0,2022-08-25,2022-08-25,合同会社みなみ,,合同会社,熊本県,阿蘇郡南小国町,大字赤馬場１８９６－７,,43,423,8692401,,,,,,,2022-08-25,1,,,,,ミナミ,0
499,2370001048966,新規,0,2022-08-25,2022-08-25,株式会社えび屋,,株式会社,宮城県,石巻市,わかば１丁目７番地８,,04,202,9860867,,,,,,,2022-08-25,1,,,,,エビヤ,0
500,2370001048982,新規,0,2022-08-25,2022-08-25,株式会社ＭＳインターナショナルスクール,,株式会社,宮城県,塩竈市,本町１３番５号,,04,203,9850052,,,,,,,2022-08-25,1,,,,,エムエスインターナショナルスクール,0
503,2370003005809,新規,0,2022-08-25,2022-08-25,合同会社ヤスダ安心企画,,合同会社,宮城県,角田市,神次郎字遠見１２２番地,,04,208,9811526,,,,,,,2022-08-25,1,,,,,ヤスダアンシンキカク,0
511,2410001013263,新規,0,2022-08-25,2022-08-25,株式会社オンキョウヤ,,株式会社,秋田県,由利本荘市,大鍬町２７番地７,,05,210,0150864,,,,,,,2022-08-25,1,,,,,オンキョウヤ,0
516,2430001087347,新規,0,2022-08-25,2022-08-25,ＫＳＢ　ＪＡＰＡＮ株式会社,,株式会社,北海道,札幌市中央区,南八条西１丁目１３番地１３９,,01,101,0640808,,,,,,,2022-08-25,1,,,,,ケイエスビージャパン,0
517,2430001087355,新規,0,2022-08-25,2022-08-25,株式会社ＴＹＳコーポレーション,,株式会社,北海道,札幌市南区,真駒内泉町３丁目４番１０号,,01,106,0050015,,,,,,,2022-08-25,1,,,,,,0
524,2470003002234,新規,0,2022-08-25,2022-08-25,合同会社三豊寝具販売,,合同会社,香川県,観音寺市,昭和町１丁目１番４１－６０２号,,37,205,7680066,,,,,,,2022-08-25,1,,,,,ミトヨシングハンバイ,0
526,2700150032563,新規,0,2022-08-25,2015-10-09,札幌市北白石地区センタ－運営委員会,,その他,北海道,札幌市白石区,北郷三条７丁目９－２０,,01,104,0030833,,,,,,,2015-10-09,1,,,,,サツポロシキタシロイシチクセンターウンエイイインカイ,0
527,2700150106532,新規,0,2022-08-25,2022-01-06,スイートハートプロジェクト実行委員会,,その他,東京都,中央区,入船３丁目２番７号,,13,102,1040042,,,,,,,2022-01-06,1,,,,,スイートハートプロジエクトジツコウイインカイ,0
528,2700150111508,新規,0,2022-08-25,2022-08-25,ＳＨＥＮＺＨＥＮ　ＸＩＮＧＦＡＮＧＤＡ　ＫＥＪＩＹＯＵＸＩＡＮＧＯＮＧＳＩ,,外国会社等,,,,,,,,Ｔｏｎｇｓｈｅｎｇｓｈｅｑｕ　Ｌａｉｗｕｓｈａｎｄｏｎｇｑｕ　７６　ｈａｏ　３１１，Ｌｏｎｇｈｕａｑｕ，Ｓｈｅｎｚｈｅｎｓｈｉ，Ｇｕａｎｇｄｏｎｇｓｈ,,,,,,2022-08-25,1,,,,,シンセンシンフアンダケジユウシイアンゴンスー,0
544,3010003038496,新規,0,2022-08-25,2022-08-25,ＶＥＲＥＤ３合同会社,,合同会社,東京都,中央区,八丁堀４丁目２番１０号ＡＯＪ税理士法人内,,13,102,1040032,,,,,,,2022-08-25,1,,,,,ヴェレッドスリー,0
545,3010003038505,新規,0,2022-08-25,2022-08-25,ヴァース合同会社,,合同会社,東京都,中央区,銀座１丁目１２番４号Ｎ＆ＥＢＬＤ．６Ｆ,,13,102,1040061,,,,,,,2022-08-25,1,,,,,ヴァース,0
551,3010403028304,新規,0,2022-08-25,2022-08-25,Ｃｌａｒｋ合同会社,,合同会社,東京都,港区,南麻布２丁目９番２６号,,13,103,1060047,,,,,,,2022-08-25,1,,,,,クラーク,0
554,3010603009707,新規,0,2022-08-25,2022-08-25,合同会社Ｅｎｅｒｇｅｏ,,合同会社,東京都,墨田区,横川２丁目４番８号,,13,107,1300003,,,,,,,2022-08-25,1,,,,,エネジオ,0
561,3011001149392,新規,0,2022-08-25,2022-08-25,大通貿易株式会社,,株式会社,東京都,渋谷区,代々木２丁目２９番１２号,,13,113,1510053,,,,,,,2022-08-25,1,,,,,ダイツウボウエキ,0
562,3011001149401,新規,0,2022-08-25,2022-08-25,株式会社フェアキャッチ,,株式会社,東京都,渋谷区,鶯谷町３番７号,,13,113,1500032,,,,,,,2022-08-25,1,,,,,フェアキャッチ,0
563,3011001149426,新規,0,2022-08-25,2022-08-25,株式会社ＹＡＳＵＤＡ,,株式会社,東京都,目黒区,祐天寺２丁目８－３Ｓ・Ｎビル１０１,,13,110,1530052,,,,,,,2022-08-25,1,,,,,ヤスダ,0
564,3011003015262,新規,0,2022-08-25,2022-08-25,合同会社ｂｅｅ,,合同会社,東京都,目黒区,碑文谷４丁目１５番１－３０１号,,13,110,1520003,,,,,,,2022-08-25,1,,,,,ビー,0
585,3011601026198,新規,0,2022-08-25,2022-08-25,星元株式会社,,株式会社,東京都,練馬区,桜台１丁目７番７－４１８号,,13,120,1760002,,,,,,,2022-08-25,1,,,,,ホシモト,0
591,3012301013107,新規,0,2022-08-25,2022-08-25,株式会社ＲｉｔＡ,,株式会社,東京都,町田市,玉川学園７丁目１４番２号１３,,13,209,1940041,,,,,,,2022-08-25,1,,,,,リタ,0
607,3020001147876,新規,0,2022-08-25,2022-08-25,エグゼクティブワン株式会社,,株式会社,神奈川県,川崎市川崎区,宮本町六丁目１２番,,14,131,2100004,,,,,,,2022-08-25,1,,,,,エグゼクティブワン,0
608,3020001147926,新規,0,2022-08-25,2022-08-25,ＧＥＮＫＩ創造株式会社,,株式会社,神奈川県,川崎市中原区,新丸子東３丁目１１００番地１５－Ｓ２４０３,,14,133,2110004,,,,,,,2022-08-25,1,,,,,ゲンキソウゾウ,0
627,3030001149789,新規,0,2022-08-25,2022-08-25,株式会社リアージュ,,株式会社,埼玉県,加須市,東栄１丁目９番１号,,11,210,3470064,,,,,,,2022-08-25,1,,,,,リアージュ,0
629,3030002026368,新規,0,2022-08-25,2022-08-25,有限会社ミノル紙工,,有限会社,埼玉県,蕨市,錦町１丁目１１番３７号,,11,223,3350005,,,,,,,2022-08-25,1,,,,,ミノルシコウ,0
631,3030003020064,新規,0,2022-08-25,2022-08-25,Ｋａｏｒｉ　Ｃｏｎｓｕｌｔｉｎｇ合同会社,,合同会社,埼玉県,久喜市,菖蒲町下栢間２７３２番地１,,11,232,3460113,,,,,,,2022-08-25,1,,,,,カオリコンサルティング,0
633,3040001124782,新規,0,2022-08-25,2022-08-25,ＩＧＵＡＺＵ株式会社,,株式会社,千葉県,船橋市,夏見６丁目２４番２０－２０２号,,12,204,2730865,,,,,,,2022-08-25,1,,,,,イグアス,0
634,3040001124824,新規,0,2022-08-25,2022-08-25,株式会社ａｔｌａｓ,,株式会社,千葉県,木更津市,千束台２丁目７番地１４,,12,206,2920808,,,,,,,2022-08-25,1,,,,,アトラス,0
638,3040003020699,新規,0,2022-08-25,2022-08-25,ＨＲＴ合同会社,,合同会社,千葉県,市川市,菅野５丁目９番１２号（１０１）,,12,203,2720824,,,,,,,2022-08-25,1,,,,,エイチアールティ,0
641,3050005013130,新規,0,2022-08-25,2022-08-25,一般社団法人ＵＬＵＲＡ,,その他の設立登記法人,茨城県,つくば市,天王台１丁目１番１号筑波大学体育系澤江研究室内,,08,220,3050006,,,,,,,2022-08-25,1,,,,,ウルラ,0
642,3060001035210,新規,0,2022-08-25,2022-08-25,株式会社零ＣＲＥＡＴＥ,,株式会社,栃木県,足利市,上渋垂町１１９番地,,09,202,3260335,,,,,,,2022-08-25,1,,,,,ゼロクリエイト,0
649,3080105006279,新規,0,2022-08-25,2022-08-25,一般社団法人ＯＲＤＥＲＭＡＤＥ子育て,,その他の設立登記法人,静岡県,富士宮市,淀師１８１６番地の２８,,22,207,4180051,,,,,,,2022-08-25,1,,,,,オーダーメイドコソダテ,0
650,3080401026014,新規,0,2022-08-25,2022-08-25,ＳＫＨＤ株式会社,,株式会社,静岡県,掛川市,宮脇２丁目１３番地の４,,22,213,4360086,,,,,,,2022-08-25,1,,,,,エスケーエイチディー,0
661,3120001248367,新規,0,2022-08-25,2022-08-25,株式会社ライフスタートブリッジ,,株式会社,大阪府,大阪市鶴見区,今津北５丁目１７番３号,,27,124,5380041,,,,,,,2022-08-25,1,,,,,ライフスタートブリッジ,0
662,3120001248409,新規,0,2022-08-25,2022-08-25,株式会社ＬＯＯＰ,,株式会社,大阪府,大阪市西区,西本町１丁目１４番２５号豊幸ビル１Ｆ,,27,106,5500005,,,,,,,2022-08-25,1,,,,,ループ,0
663,3120001248425,新規,0,2022-08-25,2022-08-25,株式会社Ｎｅｏ,,株式会社,大阪府,大阪市浪速区,難波中２丁目６－１７,,27,111,5560011,,,,,,,2022-08-25,1,,,,,ネオ,0
664,3120001248433,新規,0,2022-08-25,2022-08-25,株式会社壬戌,,株式会社,大阪府,大阪市中央区,安土町２丁目４番１１－３４１５号,,27,128,5410052,,,,,,,2022-08-25,1,,,,,アオイヌ,0
665,3120001248441,新規,0,2022-08-25,2022-08-25,株式会社ピーススマイル,,株式会社,大阪府,大阪市都島区,毛馬町５丁目３番２５号,,27,102,5340001,,,,,,,2022-08-25,1,,,,,ピーススマイル,0
670,3120101066132,新規,0,2022-08-25,2022-08-25,株式会社ＦＳＡ,,株式会社,大阪府,堺市南区,竹城台２丁１１番１７号,,27,145,5900105,,,,,,,2022-08-25,1,,,,,エフエスエー,0
672,3120901046390,新規,0,2022-08-25,2022-08-25,神穂土地建物株式会社,,株式会社,大阪府,豊中市,緑丘４丁目７番２号,,27,203,5600002,,,,,,,2022-08-25,1,,,,,カミホトチタテモノ,0
689,3140001127189,新規,0,2022-08-25,2022-08-25,株式会社ＳＰ,,株式会社,兵庫県,洲本市,中川原町市原５２８番地,,28,205,6560005,,,,,,,2022-08-25,1,,,,,エスピー,0
701,3180001152737,新規,0,2022-08-25,2022-08-25,株式会社平中ホールディングス,,株式会社,愛知県,名古屋市中村区,則武１丁目３１番２２号,,23,105,4530014,,,,,,,2022-08-25,1,,,,,ヒラナカホールディングス,0
702,3180001152761,新規,0,2022-08-25,2022-08-25,株式会社セブンオーシャン・ジャパン,,株式会社,愛知県,一宮市,木曽川町門間字南島海２７番地,,23,203,4930002,,,,,,,2022-08-25,1,,,,,セブンオーシャンジャパン,0
705,3180003024158,新規,0,2022-08-25,2022-08-25,ファンダンゴ合同会社,,合同会社,愛知県,名古屋市中区,大須３丁目１３―９アンドール大須ビル１Ｂ,,23,106,4600011,,,,,,,2022-08-25,1,,,,,ファンダンゴ,0
706,3180003024182,新規,0,2022-08-25,2022-08-25,ＢＨ　Ｕｎｉｖｅｒｓａｌ　Ｔｒａｄｉｎｇ合同会社,,合同会社,愛知県,名古屋市中区,錦１丁目１７番１３号,,23,106,4600003,,,,,,,2022-08-25,1,,,,,ビーエイチユニバーサルトレーディング,0
707,3180003024190,新規,0,2022-08-25,2022-08-25,ｌａ　ｑｕａＬａｂ合同会社,,合同会社,愛知県,春日井市,岩成台１０丁目１３番地５,,23,206,4870033,,,,,,,2022-08-25,1,,,,,ラクアラボ,0
718,3240001060248,新規,0,2022-08-25,2022-08-25,株式会社セキュリティーワーク,,株式会社,広島県,広島市西区,西観音町１番１０－３０２号,,34,104,7330037,,,,,,,2022-08-25,1,,,,,セキュリティーワーク,0
720,3250005008770,新規,0,2022-08-25,2022-08-25,一般社団法人レベルフリー,,その他の設立登記法人,山口県,山口市,水の上町６番５号,,35,203,7530082,,,,,,,2022-08-25,1,,,,,レベルフリー,0
725,3290001098705,新規,0,2022-08-25,2022-08-25,Ｓｏｌｖｅ株式会社,,株式会社,福岡県,福岡市城南区,梅林１丁目１１番２８号,,40,136,8140144,,,,,,,2022-08-25,1,,,,,ソルブ,0
729,3290801028836,新規,0,2022-08-25,2022-08-25,株式会社ＭＩＳＡＴＯ,,株式会社,福岡県,北九州市八幡西区,京良城町３－１６,,40,109,8060061,,,,,,,2022-08-25,1,,,,,ミサト,0
731,3330001030051,新規,0,2022-08-25,2022-08-25,株式会社ＵＮＩＴＥＯＮ,,株式会社,熊本県,上益城郡山都町,大平２７８番地１,,43,447,8613811,,,,,,,2022-08-25,1,,,,,ユナイトン,0
737,3360001030882,新規,0,2022-08-25,2022-08-25,株式会社福祉支援そよかぜ,,株式会社,沖縄県,宜野湾市,真志喜２丁目５番２０－４０３号メゾン・ド・アムール,,47,205,9012224,,,,,,,2022-08-25,1,,,,,フクシシエンソヨカゼ,0
740,3380001033058,新規,0,2022-08-25,2022-08-25,株式会社ペグ,,株式会社,福島県,耶麻郡磐梯町,大字磐梯字七ツ森７０８４番地１５,,07,407,9693301,,,,,,,2022-08-25,1,,,,,ペグ,0
741,3410003003699,新規,0,2022-08-25,2022-08-25,合同会社にじいろのカルテ,,合同会社,秋田県,秋田市,御所野湯本３丁目１番８号株式会社松紀秋田南青果センター内２階,,05,201,0101415,,,,,,,2022-08-25,1,,,,,ニジイロノカルテ,0
743,3450001000059,新規,0,2022-08-25,2022-08-25,株式会社りゅうじゅ,,株式会社,北海道,上川郡上川町,旭町５３番地,,01,457,0781761,,,,,,,2022-08-25,1,,,,,,0
744,3460301005095,新規,0,2022-08-25,2022-08-25,株式会社カネサ相田,,株式会社,北海道,北見市,常呂町字常呂３２番地４,,01,208,0930210,,,,,,,2022-08-25,1,,,,,カネサアイタ,0
746,3500001024416,新規,0,2022-08-25,2022-08-25,株式会社モータースミニ,,株式会社,愛媛県,宇和島市,高串１番耕地１４３３番地１,,38,203,7980020,,,,,,,2022-08-25,1,,,,,モータースミニ,0
747,3500001024424,新規,0,2022-08-25,2022-08-25,株式会社ＴＳ‐ＫｉＢＯ,,株式会社,愛媛県,新居浜市,清水町９番４８号,,38,205,7920861,,,,,,,2022-08-25,1,,,,,ティーエスキボウ,0
749,3700150027851,新規,0,2022-08-25,2015-10-09,兵庫商工納税貯蓄組合連合会,,その他,兵庫県,神戸市中央区,下山手通２丁目４－３,,28,110,6500011,,,,,,,2015-10-09,1,,,,,ヒヨウゴシヨウコウノウゼイチヨチククミアイレンゴウカイ,0
750,3700150111507,新規,0,2022-08-25,2022-08-25,Ｍｏｖａｂｌｅ　Ｔｙｐｅ，Ｉｎｃ．,,外国会社等,東京都,千代田区,神田神保町３丁目１７－１５ヨシダＦＧビル５階,,13,101,1010051,２８８０　Ｚａｎｋｅｒ　Ｒｏａｄ，Ｓｕｉｔｅ　２０３，Ｓａｎ　Ｊｏｓｅ，ＣＡ，９５１３４，ＵＳＡ,,,,,,2022-08-25,1,,,,,ムーバブルタイプインク,0
756,4010001229006,新規,0,2022-08-25,2022-08-25,株式会社東京トレカ取引所,,株式会社,東京都,中央区,日本橋２丁目１番３号アーバンネット日本橋二丁目ビル１０階,,13,102,1030027,,,,,,,2022-08-25,1,,,,,トウキョウトレカトリヒキジョ,0
758,4010005035417,新規,0,2022-08-25,2022-08-25,一般社団法人感情マネージメント協会,,その他の設立登記法人,東京都,中央区,銀座１丁目１２番４号Ｎ＆ＥＢＬＤ．６Ｆ,,13,102,1040061,,,,,,,2022-08-25,1,,,,,カンジョウマネージメントキョウカイ,0
763,4010401169314,新規,0,2022-08-25,2022-08-25,１ＮＣＥ株式会社,,株式会社,東京都,港区,六本木３丁目６番９号,,13,103,1060032,,,,,,,2022-08-25,1,,,,,ワンス,0
764,4010401169339,新規,0,2022-08-25,2022-08-25,株式会社ＨｉＭＥ,,株式会社,東京都,港区,元赤坂１丁目１番１７－１００１号,,13,103,1070051,,,,,,,2022-08-25,1,,,,,ハイミー,0
769,4010403028311,新規,0,2022-08-25,2022-08-25,Ｃｈｏｐｉａ合同会社,,合同会社,東京都,港区,浜松町２丁目２番１５号浜松町ダイヤビル２Ｆ,,13,103,1050013,,,,,,,2022-08-25,1,,,,,ショピア,0
774,4010503006695,新規,0,2022-08-25,2022-08-25,合同会社ミラボン,,合同会社,東京都,台東区,浅草１丁目５－９－８０２,,13,106,1110032,,,,,,,2022-08-25,1,,,,,ミラボン,0
776,4010603009706,新規,0,2022-08-25,2022-08-25,合同会社Ｈａｌｕ　Ｈａｌｕ,,合同会社,東京都,江東区,北砂５丁目７番１５号,,13,108,1360073,,,,,,,2022-08-25,1,,,,,ハルハル,0
779,4010901051491,新規,0,2022-08-25,2022-08-25,株式会社ＭＡＳＡＮＡ工務店,,株式会社,東京都,世田谷区,羽根木１丁目１９番６号シャトルＨＩＥＩ・２Ａ,,13,112,1560042,,,,,,,2022-08-25,1,,,,,マサナコウムテン,0
786,4011001149400,新規,0,2022-08-25,2022-08-25,株式会社ＮＦＩＧＵＲＥ,,株式会社,東京都,渋谷区,神宮前６丁目２３番４号桑野ビル２階,,13,113,1500001,,,,,,,2022-08-25,1,,,,,エヌフィギュア,0
787,4011001149409,新規,0,2022-08-25,2022-08-25,株式会社ＡＴ＆Ｎ,,株式会社,東京都,渋谷区,千駄ヶ谷５丁目２３－９－４Ｆ,,13,113,1510051,,,,,,,2022-08-25,1,,,,,エーティーアンドエヌ,0
788,4011003015278,新規,0,2022-08-25,2022-08-25,Ｗｉｌｉｚｅ合同会社,,合同会社,東京都,渋谷区,神宮前６丁目２３番４号桑野ビル２階,,13,113,1500001,,,,,,,2022-08-25,1,,,,,,0
796,4011405002213,新規,0,2022-08-25,2022-08-25,一般社団法人前田憲男音楽記念協会,,その他の設立登記法人,東京都,板橋区,小茂根２丁目１１－４,,13,119,1730037,,,,,,,2022-08-25,1,,,,,マエダノリオオンガクキネンキョウカイ,0
801,4013301049536,新規,0,2022-08-25,2022-08-25,観舎株式会社,,株式会社,東京都,豊島区,池袋４丁目２９番１１号トウセン池袋ビル５０７号,,13,116,1710014,,,,,,,2022-08-25,1,,,,,カンシャ,0
807,4020001147883,新規,0,2022-08-25,2022-08-25,株式会社ＣＬＵＴＣＨ,,株式会社,神奈川県,川崎市高津区,末長４丁目６番８号,,14,134,2130013,,,,,,,2022-08-25,1,,,,,クラッチ,0
808,4020001147933,新規,0,2022-08-25,2022-08-25,株式会社ＧＬＴ,,株式会社,神奈川県,川崎市高津区,千年新町１０番地１－１０１,,14,134,2130021,,,,,,,2022-08-25,1,,,,,ジーエルティー,0
810,4020005015640,新規,0,2022-08-25,2022-08-25,一般社団法人英,,その他の設立登記法人,神奈川県,横浜市南区,唐沢１８－２,,14,105,2320034,,,,,,,2022-08-25,1,,,,,ハナ,0
812,4021001076833,新規,0,2022-08-25,2022-08-25,株式会社Ｋ‐ＬＩＮＥ,,株式会社,神奈川県,横須賀市,ハイランド４丁目２２番２号,,14,201,2390833,,,,,,,2022-08-25,1,,,,,ケーライン,0
813,4021001076841,新規,0,2022-08-25,2022-08-25,株式会社ａ．ｏ,,株式会社,神奈川県,藤沢市,藤沢１００６－１パークホームズブロードマーク１０３,,14,205,2510052,,,,,,,2022-08-25,1,,,,,アオ,0
816,4021003012068,新規,0,2022-08-25,2022-08-25,合同会社Ｄａｙｎｅｅｄｓ,,合同会社,神奈川県,鎌倉市,大船３丁目６番２７号カサハラビル大船ＩＶＡ棟１０１,00127616,14,204,2470056,,,,,,,2022-08-25,1,,,,,デイニーズ,0
817,4021005012594,新規,0,2022-08-25,2022-08-25,一般社団法人豊清心,,その他の設立登記法人,神奈川県,海老名市,中新田５丁目２４番１号,,14,215,2430422,,,,,,,2022-08-25,1,,,,,ホウセイシン,0
822,4030001149706,新規,0,2022-08-25,2022-08-25,株式会社ＡＬ‐ＢＵＲＡＱ　ＩＮＴＥＲＮＡＴＩＯＮＡＬ,,株式会社,埼玉県,朝霞市,北原１丁目２番１８号プレジデント朝霞台ＩＩ１０２,00127615,11,227,3510036,,,,,,,2022-08-25,1,,,,,アルブラクインターナショナル,0
824,4030003020063,新規,0,2022-08-25,2022-08-25,合同会社ベネレット,,合同会社,埼玉県,さいたま市南区,鹿手袋４丁目２９番１０－８０２号,,11,108,3360031,,,,,,,2022-08-25,1,,,,,ベネレット,0
825,4030003020071,新規,0,2022-08-25,2022-08-25,合同会社なんくるシステムズ,,合同会社,埼玉県,川越市,新宿町５丁目１０番地３６,,11,201,3501124,,,,,,,2022-08-25,1,,,,,ナンクルシステムズ,0
828,4040001124823,新規,0,2022-08-25,2022-08-25,株式会社Ｋ‐ＣＲＡＦＴ,,株式会社,千葉県,白井市,冨士２５３番地の６６,,12,232,2701432,,,,,,,2022-08-25,1,,,,,ケイクラフト,0
836,4040003020698,新規,0,2022-08-25,2022-08-25,合同会社エコライフ,,合同会社,千葉県,流山市,松ケ丘１丁目４７５番地の３４サンサンプラザ１－１０５,,12,220,2700141,,,,,,,2022-08-25,1,,,,,エコライフ,0
847,4080401026013,新規,0,2022-08-25,2022-08-25,株式会社エムケイプラン,,株式会社,静岡県,浜松市中区,高丘北２丁目２６番１４号ジュビロタウンＡ棟Ａ１０３,,22,131,4338119,,,,,,,2022-08-25,1,,,,,エムケイプラン,0
852,4100001035642,新規,0,2022-08-25,2022-08-25,ユースティティア株式会社,,株式会社,長野県,上水内郡飯綱町,大字芋川１０４１番地,,20,590,3891201,,,,,,,2022-08-25,1,,,,,ユースティティア,0
857,4110001036912,新規,0,2022-08-25,2022-08-25,株式会社ｃｏｅｕｒ　ａｍｏｕｒ５２,,株式会社,新潟県,長岡市,住吉３丁目８番２５号,,15,202,9400044,,,,,,,2022-08-25,1,,,,,クールアムールゴジュウニ,0
860,4110003004850,新規,0,2022-08-25,2022-08-25,合同会社ＭＡＲＵ,,合同会社,新潟県,新潟市中央区,東堀前通５番町４１７番地１トーカンマンション東堀９０５号,,15,103,9518066,,,,,,,2022-08-25,1,,,,,マル,0
865,4120001248358,新規,0,2022-08-25,2022-08-25,恒峰株式会社,,株式会社,大阪府,大阪市阿倍野区,阪南町５丁目４番２８号ファイブコート阪南町０４,,27,119,5450021,,,,,,,2022-08-25,1,,,,,コウホウ,0
866,4120001248382,新規,0,2022-08-25,2022-08-25,株式会社ｉａｌ,,株式会社,大阪府,大阪市北区,大淀南２丁目２番４３－３７０６号,,27,127,5310075,,,,,,,2022-08-25,1,,,,,アイエーエル,0
867,4120001248390,新規,0,2022-08-25,2022-08-25,株式会社プロパティーユナイテッド,,株式会社,大阪府,大阪市東淀川区,淡路５丁目５－２０－１０２号室,,27,114,5330032,,,,,,,2022-08-25,1,,,,,プロパティーユナイテッド,0
872,4120101066131,新規,0,2022-08-25,2022-08-25,ギコウ株式会社,,株式会社,大阪府,堺市堺区,向陵東町２丁１２番２７号,,27,141,5900025,,,,,,,2022-08-25,1,,,,,ギコウ,0
877,4122001036197,新規,0,2022-08-25,2022-08-25,株式会社Ｉｒａ,,株式会社,大阪府,東大阪市,日下町４丁目３－４４,,27,227,5798003,,,,,,,2022-08-25,1,,,,,アイラ,0
893,4130005016553,新規,0,2022-08-25,2022-08-25,一般社団法人きょうと福祉キャリアサポート,,その他の設立登記法人,京都府,城陽市,富野狼谷２番地１,,26,207,6100111,,,,,,,2022-08-25,1,,,,,キョウトフクシキャリアサポート,0
894,4130005016561,新規,0,2022-08-25,2022-08-25,一般社団法人ＴＬＧライフエスコート,,その他の設立登記法人,京都府,京都市下京区,塩小路通烏丸西入東塩小路町６１４番地新京都センタービル５階,,26,106,6008216,,,,,,,2022-08-25,1,,,,,ティーエルジーライフエスコート,0
906,4150001025779,新規,0,2022-08-25,2022-08-25,株式会社日本リライフ,,株式会社,奈良県,奈良市,東登美ヶ丘１丁目１番３号,,29,201,6310002,,,,,,,2022-08-25,1,,,,,ニッポンリライフ,0
911,4180001152678,新規,0,2022-08-25,2022-08-25,アクシリウム株式会社,,株式会社,愛知県,名古屋市中村区,名駅南１丁目１１－１２,,23,105,4500003,,,,,,,2022-08-25,1,,,,,アクシリウム,0
917,4180003024198,新規,0,2022-08-25,2022-08-25,合同会社Ｐｏｎｏｌａ,,合同会社,愛知県,一宮市,木曽川町黒田字西針口南ノ切３８番地１,,23,203,4930001,,,,,,,2022-08-25,1,,,,,ポノラ,0
922,4230001019500,新規,0,2022-08-25,2022-08-25,ａｔｈａ株式会社,,株式会社,富山県,富山市,磯部町１丁目７番２２号,,16,201,9300077,,,,,,,2022-08-25,1,,,,,アタ,0
924,4240001060263,新規,0,2022-08-25,2022-08-25,ＦＯＭＩＬ株式会社,,株式会社,広島県,福山市,曙町２丁目５番６号,00127617,34,207,7210952,,,,,,,2022-08-25,1,,,,,フォーミル,0
927,4240003005753,新規,0,2022-08-25,2022-08-25,合同会社ココロの森,,合同会社,広島県,広島市中区,大手町１丁目１番２６号大手町一番ビル３０５,,34,101,7300051,,,,,,,2022-08-25,1,,,,,ココロノモリ,0
928,4260001037177,新規,0,2022-08-25,2022-08-25,政林商事株式会社,,株式会社,岡山県,倉敷市,昭和１丁目１番３８号チサンマンション倉敷２０５号室,,33,202,7100057,,,,,,,2022-08-25,1,,,,,セイリンショウジ,0
934,4290001098695,新規,0,2022-08-25,2022-08-25,株式会社ＬＩＰ,,株式会社,福岡県,福岡市早良区,荒江２丁目６番３７号第２渡辺ビル１Ｆ１０１号,,40,137,8140021,,,,,,,2022-08-25,1,,,,,リップ,0
939,4290801028835,新規,0,2022-08-25,2022-08-25,株式会社八州設計,,株式会社,福岡県,北九州市八幡西区,藤田２丁目１番１－２０５号,,40,109,8060022,,,,,,,2022-08-25,1,,,,,ヤシマセッケイ,0
945,4320001019292,新規,0,2022-08-25,2022-08-25,株式会社Ｌｕｎｅｌｉｒｅ,,株式会社,大分県,国東市,国見町伊美７番地,,44,214,8721401,,,,,,,2022-08-25,1,,,,,ルーンリール,0
951,4360001030865,新規,0,2022-08-25,2022-08-25,株式会社ライフテック,,株式会社,沖縄県,中頭郡西原町,字翁長１７番地の４,,47,329,9030117,,,,,,,2022-08-25,1,,,,,ライフテック,0
952,4360001030881,新規,0,2022-08-25,2022-08-25,株式会社美島産業,,株式会社,沖縄県,宜野湾市,大謝名４丁目１３－２９－２０１,,47,205,9012225,,,,,,,2022-08-25,1,,,,,ミシマサンギョウ,0
954,4370001048980,新規,0,2022-08-25,2022-08-25,株式会社ＣＥＲＣＩＴ,,株式会社,宮城県,仙台市青葉区,広瀬町３番３４号,,04,101,9800873,,,,,,,2022-08-25,1,,,,,サーキット,0
959,4390005008970,新規,0,2022-08-25,2022-08-25,保證責任尾花澤町午房野負債整理組合,,その他の設立登記法人,山形県,尾花沢市,大字午房野,,06,212,9994200,,,,,,,2022-08-25,1,,,,,ホショウセキニンオバナザワマチゴボウノ,0
961,4410003003698,新規,0,2022-08-25,2022-08-25,ＹＯＫＯＫＡＮＡ合同会社,,合同会社,秋田県,秋田市,濁川字三升作１－１３０,,05,201,0100821,,,,,,,2022-08-25,1,,,,,ヨコカナ,0
966,4430003014207,新規,0,2022-08-25,2022-08-25,合同会社Ｔｉｇｅｒ,,合同会社,北海道,札幌市中央区,南九条西３丁目１番２８号,,01,101,0640809,,,,,,,2022-08-25,1,,,,,タイガー,0
968,4470001019229,新規,0,2022-08-25,2022-08-25,株式会社ＳＨＩＵＮエステート,,株式会社,香川県,高松市,番町４丁目７番９号,,37,201,7600017,,,,,,,2022-08-25,1,,,,,シウンエステート,0
982,5010003038437,新規,0,2022-08-25,2022-08-25,カルトワインズ合同会社,,合同会社,東京都,千代田区,神田神保町１丁目４６番地２アーバネックス神保町３０３,,13,101,1010051,,,,,,,2022-08-25,1,,,,,カルトワインズ,0
983,5010005035457,新規,0,2022-08-25,2022-08-25,メック都市開発１４号一般社団法人,,その他の設立登記法人,東京都,中央区,日本橋１丁目４番１号日本橋一丁目ビルディング,,13,102,1030027,,,,,,,2022-08-25,1,,,,,メックトシカイハツジュウヨンゴウ,0
992,5010601061740,新規,0,2022-08-25,2022-08-25,株式会社Ａｅｒ,,株式会社,東京都,江東区,越中島１丁目２－７－４０４号室,,13,108,1350044,,,,,,,2022-08-25,1,,,,,アエル,0
998,5010801033226,新規,0,2022-08-25,2022-08-25,株式会社リーショー,,株式会社,東京都,大田区,南六郷３丁目１４番１１号１Ｆ,,13,111,1440045,,,,,,,2022-08-25,1,,,,,リーショー,0
1002,5010901051482,新規,0,2022-08-25,2022-08-25,日本養蜂園株式会社,,株式会社,東京都,世田谷区,用賀４丁目５番地２２号,,13,112,1580097,,,,,,,2022-08-25,1,,,,,,0
1003,5010901051490,新規,0,2022-08-25,2022-08-25,株式会社ｒｅｃｓ,,株式会社,東京都,世田谷区,上馬４丁目９番１１号,,13,112,1540011,,,,,,,2022-08-25,1,,,,,レクス,0
1014,5011001149374,新規,0,2022-08-25,2022-08-25,ＦＩＲＥ株式会社,,株式会社,東京都,渋谷区,恵比寿２丁目２番１１号,,13,113,1500013,,,,,,,2022-08-25,1,,,,,ファイア,0
1015,5011001149399,新規,0,2022-08-25,2022-08-25,株式会社ＭＩＵ,,株式会社,東京都,渋谷区,神宮前６丁目２３番４号桑野ビル２階,,13,113,1500001,,,,,,,2022-08-25,1,,,,,ミユウ,0
1016,5011003015277,新規,0,2022-08-25,2022-08-25,合同会社ウェブ集客サポート,,合同会社,東京都,目黒区,碑文谷５丁目２－５Ｔ＆Ａビル５Ｆ,,13,110,1520003,,,,,,,2022-08-25,1,,,,,ウェブシュウキャクサポート,0
1017,5011101099965,新規,0,2022-08-25,2022-08-25,株式会社時雨,,株式会社,東京都,新宿区,高田馬場１丁目２７番３号ニュー竹宝ビル５０６号室,,13,104,1690075,,,,,,,2022-08-25,1,,,,,シグレ,0
1018,5011101099973,新規,0,2022-08-25,2022-08-25,株式会社ＭＳｐｒｏｔｏ,,株式会社,東京都,新宿区,荒木町３番地１４ＹＤマンション２０５,,13,104,1600007,,,,,,,2022-08-25,1,,,,,エムエスプロト,0
1026,5011503005265,新規,0,2022-08-25,2022-08-25,ＳＵＢＡＲＡＳＨＩＩ合同会社,,合同会社,東京都,荒川区,荒川３丁目４番４号荒川食飯ビル３０２号,,13,118,1160002,,,,,,,2022-08-25,1,,,,,スバラシイ,0
1029,5011701025560,新規,0,2022-08-25,2022-08-25,ＯＩＳＨＩエンジニアリング株式会社,,株式会社,東京都,江戸川区,東小岩３丁目１９番１７号,,13,123,1330052,,,,,,,2022-08-25,1,,,,,オイシイエンジニアリング,0
1035,5011801041193,新規,0,2022-08-25,2022-08-25,株式会社末広企画,,株式会社,東京都,足立区,東和３丁目１６番５号,,13,121,1200003,,,,,,,2022-08-25,1,,,,,スエヒロキカク,0
1036,5012401039561,新規,0,2022-08-25,2022-08-25,株式会社エマライズ,,株式会社,東京都,多摩市,貝取１４７４番地の１－３０５,,13,224,2060012,,,,,,,2022-08-25,1,,,,,エマライズ,0
1038,5012701017218,新規,0,2022-08-25,2022-08-25,株式会社桜梅桃李エッセンス,,株式会社,東京都,東村山市,富士見町１丁目１２番地２ヴィラージュ・ヴェール三番館６０５,,13,213,1890024,,,,,,,2022-08-25,1,,,,,オウバイトウリエッセンス,0
1040,5013301049543,新規,0,2022-08-25,2022-08-25,＿電株式会社,00127614,株式会社,東京都,豊島区,南大塚２丁目３７－１０吉岡ビル１０１号,,13,116,1700005,,,,,,,2022-08-25,1,,,,,イクデン,0
1041,5013301049568,新規,0,2022-08-25,2022-08-25,株式会社ＫＴＳ,,株式会社,東京都,豊島区,北大塚１丁目１４番１４号アーバン三恵６０２号室,,13,116,1700004,,,,,,,2022-08-25,1,,,,,ケイティーエス,0
1045,5020003022225,新規,0,2022-08-25,2022-08-25,ＮＪＫ合同会社,,合同会社,神奈川県,川崎市中原区,苅宿１４番３９号,,14,133,2110022,,,,,,,2022-08-25,1,,,,,エヌジェーケー,0
1046,5020003022258,新規,0,2022-08-25,2022-08-25,レラティブ合同会社,,合同会社,神奈川県,横浜市旭区,南本宿町８９番地４７,,14,112,2410833,,,,,,,2022-08-25,1,,,,,レラティブ,0
1047,5020003022299,新規,0,2022-08-25,2022-08-25,合同会社フィクスト・スター,,合同会社,神奈川県,横浜市神奈川区,大口通３４番地２ラ・グラース横濱ｏｇｕｃｈｉ５０３号,,14,102,2210002,,,,,,,2022-08-25,1,,,,,フィクストスター,0
1051,5021005012593,新規,0,2022-08-25,2022-08-25,一般社団法人心緑海,,その他の設立登記法人,神奈川県,海老名市,中新田５丁目２４番１号,,14,215,2430422,,,,,,,2022-08-25,1,,,,,シンリョクカイ,0
1054,5030001149779,新規,0,2022-08-25,2022-08-25,エスケーグループホールディングス株式会社,,株式会社,埼玉県,草加市,谷塚上町３２４番地１,,11,221,3400024,,,,,,,2022-08-25,1,,,,,エスケーグループホールディングス,0
1061,5030003020013,新規,0,2022-08-25,2022-08-25,合同会社ホヌアンドアソシエイツ,,合同会社,埼玉県,さいたま市中央区,新中里３丁目３番１０号,,11,105,3380011,,,,,,,2022-08-25,1,,,,,ホヌアンドアソシエイツ,0
1062,5030003020070,新規,0,2022-08-25,2022-08-25,福幸商事合同会社,,合同会社,埼玉県,川口市,幸町２丁目１５番６号,,11,203,3320016,,,,,,,2022-08-25,1,,,,,フクコウショウジ,0
1063,5040001124789,新規,0,2022-08-25,2022-08-25,株式会社ＡＮＲＥ,,株式会社,千葉県,八街市,砂７５７番地１６,,12,230,2891121,,,,,,,2022-08-25,1,,,,,アンレ,0
1064,5040001124814,新規,0,2022-08-25,2022-08-25,株式会社メイプルトップ,,株式会社,千葉県,茂原市,茂原８７０番地６ヒカリハイツ１０２,,12,210,2970026,,,,,,,2022-08-25,1,,,,,メイプルトップ,0
1065,5040003020648,新規,0,2022-08-25,2022-08-25,合同会社船員労働科学研究所,,合同会社,千葉県,千葉市緑区,誉田町２丁目２４番地４４２,,12,105,2660005,,,,,,,2022-08-25,1,,,,,センインロウドウカガクケンキュウジョ,0
1066,5040003020664,新規,0,2022-08-25,2022-08-25,合同会社ＲＥＸ,,合同会社,千葉県,柏市,高柳４７２番地１３飯島ビルＢ棟２０１,,12,217,2770941,,,,,,,2022-08-25,1,,,,,レックス,0
1067,5040003020697,新規,0,2022-08-25,2022-08-25,合同会社サラサ,,合同会社,千葉県,船橋市,本町５丁目１５番１―３０３号,,12,204,2730005,,,,,,,2022-08-25,1,,,,,サラサ,0
1069,5050001051553,新規,0,2022-08-25,2022-08-25,株式会社ＳＴＫ,,株式会社,茨城県,つくば市,みどりの南９３番地３,,08,220,3050884,,,,,,,2022-08-25,1,,,,,エスティーケー,0
1070,5050001051578,新規,0,2022-08-25,2022-08-25,株式会社Ｗ　Ｃｏｒａｌ,,株式会社,茨城県,日立市,田尻町３丁目４３番１５号,,08,202,3191416,,,,,,,2022-08-25,1,,,,,ダブルコーラル,0
1071,5050001051594,新規,0,2022-08-25,2022-08-25,株式会社Ｓｐａｒｋｌｅ,,株式会社,茨城県,牛久市,ひたち野西３丁目１２番地２,,08,219,3001206,,,,,,,2022-08-25,1,,,,,スパークル,0
1082,5110001036911,新規,0,2022-08-25,2022-08-25,Ｆｕｓｉｏｎ　Ｊａｐａｎ株式会社,,株式会社,新潟県,長岡市,西宮内２丁目５５番地チェスナットヒルＢ２０２,,15,202,9401162,,,,,,,2022-08-25,1,,,,,フュージョンジャパン,0
1091,5120001248225,新規,0,2022-08-25,2022-08-25,株式会社Ｎｏ．１８,,株式会社,大阪府,大阪市北区,曾根崎１丁目７番１５号曾根崎ムーンビル５階,,27,127,5300057,,,,,,,2022-08-25,1,,,,,オハコ,0
1092,5120001248357,新規,0,2022-08-25,2022-08-25,佳徳株式会社,00127613,株式会社,大阪府,大阪市東成区,深江北３丁目４番２１号エクラ深江橋６１０Ｂ,,27,115,5370001,,,,,,,2022-08-25,1,,,,,カトク,0
1093,5120001248381,新規,0,2022-08-25,2022-08-25,株式会社Ａｎ，ｃｒｅａｔｉｏｎ,,株式会社,大阪府,枚方市,杉山手１丁目６番２４号,,27,210,5730118,,,,,,,2022-08-25,1,,,,,アンクリエイション,0
1094,5120001248415,新規,0,2022-08-25,2022-08-25,株式会社Ｃｏｎｎｅｃｔｉｏｎ　Ｃａｒｅ,,株式会社,大阪府,大阪市城東区,放出西３丁目７番２号,,27,118,5360011,,,,,,,2022-08-25,1,,,,,コネクションケア,0
1095,5120001248431,新規,0,2022-08-25,2022-08-25,株式会社カタリテ,,株式会社,大阪府,大阪市北区,梅田１丁目１番３大阪駅前第３ビル２９階１－１－１号室,,27,127,5300001,,,,,,,2022-08-25,1,,,,,カタリテ,0
1101,5120101066122,新規,0,2022-08-25,2022-08-25,株式会社樹々ケア,,株式会社,大阪府,堺市東区,高松４００番地１３,,27,143,5998121,,,,,,,2022-08-25,1,,,,,ジュジュケア,0
1102,5120101066130,新規,0,2022-08-25,2022-08-25,エヌケープロジェクト株式会社,,株式会社,大阪府,堺市西区,浜寺石津町中３丁６番１号,,27,144,5928334,,,,,,,2022-08-25,1,,,,,エヌケープロジェクト,0
1103,5120903004279,新規,0,2022-08-25,2022-08-25,合同会社Ｅｍｍａ,,合同会社,大阪府,豊中市,豊南町西３丁目２０番２０号伊丹マンション３１号室,,27,203,5610816,,,,,,,2022-08-25,1,,,,,エマ,0
1104,5122001036188,新規,0,2022-08-25,2022-08-25,株式会社モヒート,,株式会社,大阪府,八尾市,高砂町５丁目５５番地の２６,,27,212,5810822,,,,,,,2022-08-25,1,,,,,モヒート,0
1112,5140001127162,新規,0,2022-08-25,2022-08-25,株式会社えがおの陽,,株式会社,兵庫県,西宮市,北六甲台２丁目１５番１５号,,28,204,6511413,,,,,,,2022-08-25,1,,,,,エガオノヒ,0
1122,5180001152735,新規,0,2022-08-25,2022-08-25,株式会社ユウワ工業,,株式会社,愛知県,海部郡大治町,大字西條字南井口１０番地の４,,23,424,4901144,,,,,,,2022-08-25,1,,,,,ユウワコウギョウ,0
1123,5180001152743,新規,0,2022-08-25,2022-08-25,株式会社ＰＢＪ,,株式会社,愛知県,名古屋市瑞穂区,太田町３丁目１９番地の１ＶｉｅｗＴｅｒｒａｃｅ１０２号,,23,108,4670874,,,,,,,2022-08-25,1,,,,,ピービージェイ,0
1126,5180005019906,新規,0,2022-08-25,2022-08-25,一般社団法人名古屋歯科健診センター,,その他の設立登記法人,愛知県,名古屋市中村区,烏森町２丁目１２番地,,23,105,4530855,,,,,,,2022-08-25,1,,,,,ナゴヤシカケンシンセンター,0
1133,5210001019055,新規,0,2022-08-25,2022-08-25,株式会社オルマブルズ,,株式会社,福井県,福井市,二の宮３丁目１０番２０号,,18,201,9100015,,,,,,,2022-08-25,1,,,,,オルマブルズ,0
1135,5240001060246,新規,0,2022-08-25,2022-08-25,株式会社三栄塗装,,株式会社,広島県,三次市,向江田町３０５番地７,,34,209,7296202,,,,,,,2022-08-25,1,,,,,サンエイトソウ,0
1138,5240003005760,新規,0,2022-08-25,2022-08-25,合同会社Ｓ‐ＳＴＲＥＥＴ,,合同会社,広島県,広島市東区,牛田旭１丁目２番８－６０２号,,34,102,7320067,,,,,,,2022-08-25,1,,,,,エスストリート,0
1154,5300001013049,新規,0,2022-08-25,2022-08-25,株式会社北原工務店,,株式会社,佐賀県,佐賀市,川副町大字南里１４４５番地１,,41,201,8402205,,,,,,,2022-08-25,1,,,,,キタハラコウムテン,0
1168,5360003012225,新規,0,2022-08-25,2022-08-25,合同会社ｌｅ　ｌｉｅｎ,,合同会社,沖縄県,宮古島市,平良字西里３２９エビスビル１０１,,47,214,9060012,,,,,,,2022-08-25,1,,,,,ルリアン,0
1191,5430003014206,新規,0,2022-08-25,2022-08-25,リレーションシップ合同会社,,合同会社,北海道,札幌市厚別区,厚別南４丁目１０番１０号,,01,108,0040022,,,,,,,2022-08-25,1,,,,,リレーションシップ,0
1192,5430003014222,新規,0,2022-08-25,2022-08-25,ＡＮ　Ｉｎｆｏ．合同会社,,合同会社,北海道,札幌市中央区,南一条西１３丁目４番地第４１ビッグプラザビルＩ３階,00127611,01,101,0600061,,,,,,,2022-08-25,1,,,,,エイエヌインフォ,0
1198,5500001024422,新規,0,2022-08-25,2022-08-25,龍越商事株式会社,,株式会社,愛媛県,四国中央市,土居町上野甲３７９番地３,,38,213,7990721,,,,,,,2022-08-25,1,,,,,リュウエツショウジ,0
1202,6010001229004,新規,0,2022-08-25,2022-08-25,ＰＲＥＶＥＮＴＥＣ株式会社,,株式会社,東京都,文京区,湯島４丁目６－１１－４０２,,13,105,1130034,,,,,,,2022-08-25,1,,,,,プレベンテック,0
1203,6010001229020,新規,0,2022-08-25,2022-08-25,Ｍｅｅｃｅ株式会社,,株式会社,東京都,千代田区,丸の内１丁目８－３丸の内トラストタワー本館２０階,,13,101,1000005,,,,,,,2022-08-25,1,,,,,ミース,0
1206,6010003038510,新規,0,2022-08-25,2022-08-25,合同会社カンバヤシ,,合同会社,東京都,中央区,日本橋３丁目２番１４号新槇町ビル別館第一２階,,13,102,1030027,,,,,,,2022-08-25,1,,,,,カンバヤシ,0
1218,6010405021246,新規,0,2022-08-25,2022-08-25,一般社団法人ＥＯ　Ｔｏｋｙｏ　Ｗｅｓｔ,,その他の設立登記法人,東京都,港区,芝浦３丁目７番１２号シグマビル６階,,13,103,1080023,,,,,,,2022-08-25,1,,,,,イーオートウキョウウエスト,0
1222,6010801033225,新規,0,2022-08-25,2022-08-25,株式会社すずよう,,株式会社,東京都,大田区,大森北３丁目１番４号斎藤ビル１０２,,13,111,1430016,,,,,,,2022-08-25,1,,,,,スズヨウ,0
1232,6011001149407,新規,0,2022-08-25,2022-08-25,株式会社ａｕｂｅＢｉｚ,,株式会社,東京都,渋谷区,円山町５番５号Ｎａｖｉ渋谷Ｖ３階,,13,113,1500044,,,,,,,2022-08-25,1,,,,,オーブビズ,0
1233,6011003015268,新規,0,2022-08-25,2022-08-25,合同会社コンパクト,,合同会社,東京都,渋谷区,神泉町１０番１５号,,13,113,1500045,,,,,,,2022-08-25,1,,,,,コンパクト,0
1235,6011005009697,新規,0,2022-08-25,2022-08-25,弁護士法人ＩＴＯ総合法律事務所,,その他の設立登記法人,東京都,渋谷区,千駄ヶ谷１丁目２２番３号,,13,113,1510051,,,,,,,2022-08-25,1,,,,,アイティーオーソウゴウホウリツジムショ,0
1237,6011101099956,新規,0,2022-08-25,2022-08-25,株式会社バービ,,株式会社,東京都,新宿区,戸山１丁目１５番１３－５０５号,,13,104,1620052,,,,,,,2022-08-25,1,,,,,バービ,0
1238,6011101099964,新規,0,2022-08-25,2022-08-25,株式会社ゴールデン映像,,株式会社,東京都,新宿区,西新宿３丁目３番１３号西新宿水間ビル６階,,13,104,1600023,,,,,,,2022-08-25,1,,,,,ゴールデンエイゾウ,0
1239,6011101099980,新規,0,2022-08-25,2022-08-25,エスエスコンサルティング株式会社,,株式会社,東京都,新宿区,新宿１丁目２０番１４号サンモール第８マンション２０３号室,,13,104,1600022,,,,,,,2022-08-25,1,,,,,エスエスコンサルティング,0
1242,6011201024054,新規,0,2022-08-25,2022-08-25,株式会社Ｐｒｏｄｕｃｔ　Ｓａｌｅｓ,,株式会社,東京都,中野区,野方１丁目６番９号,,13,114,1650027,,,,,,,2022-08-25,1,,,,,プロダクトセールス,0
1245,6011601026195,新規,0,2022-08-25,2022-08-25,株式会社雄プロダクション,,株式会社,東京都,練馬区,練馬１丁目２０番８号日建練馬ビル２Ｆ,,13,120,1760001,,,,,,,2022-08-25,1,,,,,ユウプロダクション,0
1252,6012401039569,新規,0,2022-08-25,2022-08-25,株式会社ＪＰ　Ｃｏｌｌｅｃｔｉｂｌｅｓ,,株式会社,東京都,府中市,是政１丁目５２－２,,13,206,1830014,,,,,,,2022-08-25,1,,,,,ジェーピーコレクタブルズ,0
1253,6012403005552,新規,0,2022-08-25,2022-08-25,良宅計画合同会社,,合同会社,東京都,武蔵野市,仲町一丁目２７番１２号ＨｏｕｓｅＭａｒｉｍｏ３０３号,,13,203,1800000,,,,,,,2022-08-25,1,,,,,リョウタクケイカク,0
1255,6012801021795,新規,0,2022-08-25,2022-08-25,株式会社ＹＣＯ,,株式会社,東京都,立川市,砂川町１丁目８番地の２９,,13,202,1900031,,,,,,,2022-08-25,1,,,,,ワイシーオー,0
1259,6013301049559,新規,0,2022-08-25,2022-08-25,株式会社昇住物産,,株式会社,東京都,豊島区,南大塚３丁目１番１２－９０２号,,13,116,1700005,,,,,,,2022-08-25,1,,,,,ショウジュウブッサン,0
1263,6020001147915,新規,0,2022-08-25,2022-08-25,株式会社ＣＥＳ‐Ａｌｐｈａ,,株式会社,神奈川県,横浜市港北区,新横浜３丁目２４番５号新横浜ユニオンビルＡＮＮＥＸ７階,,14,109,2220033,,,,,,,2022-08-25,1,,,,,シーイーエスアルファ,0
1264,6020001147931,新規,0,2022-08-25,2022-08-25,大成住宅株式会社,,株式会社,神奈川県,横浜市中区,長者町８丁目１３４番地長者町ビル９階,,14,104,2310033,,,,,,,2022-08-25,1,,,,,タイセイジュウタク,0
1266,6020005015630,新規,0,2022-08-25,2022-08-25,一般社団法人グローバルゲート,,その他の設立登記法人,神奈川県,横浜市西区,久保町２１－２１ＫＢＴビル３階,,14,103,2200061,,,,,,,2022-08-25,1,,,,,グローバルゲート,0
1269,6021001076848,新規,0,2022-08-25,2022-08-25,三浦下水道コンセッション株式会社,,株式会社,神奈川県,三浦市,初声町下宮田２３２０番地２１２,,14,210,2380111,,,,,,,2022-08-25,1,,,,,ミウラゲスイドウコンセッション,0
1271,6021003012066,新規,0,2022-08-25,2022-08-25,合同会社ＧＭ　ＴＲＩＢＥ,,合同会社,神奈川県,相模原市南区,上鶴間本町９丁目３５番２６－２号,,14,153,2520318,,,,,,,2022-08-25,1,,,,,ジーエムトライブ,0
1281,6040001124788,新規,0,2022-08-25,2022-08-25,Ａｐａｍａｎ　Ｉｎｔｅｒｎａｔｉｏｎａｌ株式会社,,株式会社,千葉県,千葉市稲毛区,小仲台１丁目５番１２－７１４号,,12,103,2630043,,,,,,,2022-08-25,1,,,,,アパマンインターナショナル,0
1282,6040001124805,新規,0,2022-08-25,2022-08-25,ちばＦＰコンサルティング株式会社,,株式会社,千葉県,市原市,山木１２３１番地２,,12,219,2900005,,,,,,,2022-08-25,1,,,,,チバエフピーコンサルティング,0
1283,6040001124813,新規,0,2022-08-25,2022-08-25,株式会社セカンドウィンド,,株式会社,千葉県,鴨川市,江見東真門２９－２,,12,223,2992844,,,,,,,2022-08-25,1,,,,,セカンドウィンド,0
1287,6040003020696,新規,0,2022-08-25,2022-08-25,合同会社まい・すたいる,,合同会社,千葉県,印西市,原山３丁目９番地３棟１０２号,,12,231,2701341,,,,,,,2022-08-25,1,,,,,マイスタイル,0
1292,6060001035208,新規,0,2022-08-25,2022-08-25,新もてぎ電力株式会社,,株式会社,栃木県,芳賀郡茂木町,大字茂木１０９０番地１,,09,343,3213531,,,,,,,2022-08-25,1,,,,,シンモテギデンリョク,0
1293,6060001035216,新規,0,2022-08-25,2022-08-25,株式会社雅堂,,株式会社,栃木県,宇都宮市,戸祭１丁目１１番１０号,,09,201,3200056,,,,,,,2022-08-25,1,,,,,ガドウ,0
1296,6070005010032,新規,0,2022-08-25,2022-08-25,一般社団法人きらめきの郷,,その他の設立登記法人,群馬県,前橋市,三夜沢町５９０番地５６,,10,201,3710247,,,,,,,2022-08-25,1,,,,,キラメキノサト,0
1302,6080401026011,新規,0,2022-08-25,2022-08-25,茶酒和庭株式会社,,株式会社,静岡県,浜松市中区,千歳町７５龍門堂ビル２Ｆ,,22,131,4300934,,,,,,,2022-08-25,1,,,,,チャシュワテイ,0
1320,6120001248331,新規,0,2022-08-25,2022-08-25,美博惠贏株式会社,00127610,株式会社,大阪府,大阪市東成区,深江北３丁目４番２１号エクラ深江橋４１０Ａ,,27,115,5370001,,,,,,,2022-08-25,1,,,,,ビハクケイエイ,0
1321,6120001248372,新規,0,2022-08-25,2022-08-25,株式会社Ｓｏｌｏｗ　ｎｅｔ,,株式会社,大阪府,枚方市,氷室台１丁目６番１８号,,27,210,5730115,,,,,,,2022-08-25,1,,,,,ソロウネット,0
1322,6120001248422,新規,0,2022-08-25,2022-08-25,株式会社３イルソーレ,,株式会社,大阪府,大阪市天王寺区,上本町６丁目２番３５－７０２号,,27,109,5430001,,,,,,,2022-08-25,1,,,,,スリーイルソーレ,0
1323,6120001248430,新規,0,2022-08-25,2022-08-25,株式会社ｐｒｉｍａｌ,,株式会社,大阪府,大阪市中央区,北久宝寺町２丁目６番１号５階,,27,128,5410057,,,,,,,2022-08-25,1,,,,,プライマル,0
1325,6120101066138,新規,0,2022-08-25,2022-08-25,春和春木株式会社,,株式会社,大阪府,岸和田市,上松町２丁目１番１６号下松ビジネスセンター１０３号,,27,202,5960827,,,,,,,2022-08-25,1,,,,,ハルワハルキ,0
1344,6140001127186,新規,0,2022-08-25,2022-08-25,株式会社ＡＲＣＨＥ,,株式会社,兵庫県,神戸市長田区,若松町２丁目１番３号,,28,106,6530038,,,,,,,2022-08-25,1,,,,,アルシェ,0
1354,6180001152701,新規,0,2022-08-25,2022-08-25,株式会社ＥＸＣＬＵＺ,,株式会社,愛知県,常滑市,金山字石田１５０番地の３,,23,216,4790003,,,,,,,2022-08-25,1,,,,,エクスクルーズ,0
1355,6180001152734,新規,0,2022-08-25,2022-08-25,株式会社Ｐａｕｌ,,株式会社,愛知県,名古屋市中区,大須１丁目３５番１８号,,23,106,4600011,,,,,,,2022-08-25,1,,,,,ポール,0
1356,6180001152759,新規,0,2022-08-25,2022-08-25,サロン・ド・アフロディーテ株式会社,,株式会社,愛知県,名古屋市東区,葵１丁目１８番３２号早瀬ビル５０３号,,23,102,4610004,,,,,,,2022-08-25,1,,,,,サロンドアフロディーテ,0
1357,6180001152775,新規,0,2022-08-25,2022-08-25,株式会社ＢＬＯＯＭ,,株式会社,愛知県,名古屋市中区,栄５丁目２６番３９号ＧＳ栄ビル３階,,23,106,4600008,,,,,,,2022-08-25,1,,,,,ブルーム,0
1364,6180005019905,新規,0,2022-08-25,2022-08-25,医療法人明俊会,,その他の設立登記法人,愛知県,稲沢市,日下部北町５丁目５０番地,,23,220,4928181,,,,,,,2022-08-25,1,,,,,メイシュンカイ,0
1369,6220001025002,新規,0,2022-08-25,2022-08-25,株式会社中島総業,,株式会社,石川県,金沢市,元町１丁目１５番１９号,,17,201,9200842,,,,,,,2022-08-25,1,,,,,ナカシマソウギョウ,0
1387,6290001098702,新規,0,2022-08-25,2022-08-25,株式会社Ｆｌｏｕｒｉｓｈ,,株式会社,福岡県,糟屋郡志免町,南里１丁目８番２８号マル伸ビル１Ｆ,,40,343,8112207,,,,,,,2022-08-25,1,,,,,フローリッシュ,0
1391,6300001013048,新規,0,2022-08-25,2022-08-25,株式会社Ｌ．Ｌ．Ｓｔａｔｉｏｎ,,株式会社,佐賀県,唐津市,北波多田中８００番地１９,,41,202,8471202,,,,,,,2022-08-25,1,,,,,エルエルステーション,0
1400,6330003009495,新規,0,2022-08-25,2022-08-25,合同会社ＨＦＭ,,合同会社,熊本県,山鹿市,山鹿１７９３番地５,,43,208,8610501,,,,,,,2022-08-25,1,,,,,エイチエフエム,0
1408,6370001048979,新規,0,2022-08-25,2022-08-25,株式会社ｃｕｅ,,株式会社,宮城県,仙台市青葉区,国分町１丁目８番１４号仙台協立第２ビル,,04,101,9800803,,,,,,,2022-08-25,1,,,,,キュー,0
1423,6430001087351,新規,0,2022-08-25,2022-08-25,株式会社ｕｌｕ,,株式会社,北海道,室蘭市,宮の森町４丁目５番１２号,,01,205,0500073,,,,,,,2022-08-25,1,,,,,ウル,0
1424,6430001087368,新規,0,2022-08-25,2022-08-25,株式会社ベント,,株式会社,北海道,札幌市清田区,美しが丘三条５丁目８番３－３０５号,,01,110,0040813,,,,,,,2022-08-25,1,,,,,ベント,0
1425,6430003014205,新規,0,2022-08-25,2022-08-25,合同会社結,,合同会社,北海道,苫小牧市,矢代町１丁目９番１２号,,01,213,0530803,,,,,,,2022-08-25,1,,,,,ユイ,0
1449,7010001229003,新規,0,2022-08-25,2022-08-25,株式会社コンベンションプラス,,株式会社,東京都,文京区,本郷３丁目３５－３本郷ＵＣビル７階,,13,105,1130033,,,,,,,2022-08-25,1,,,,,コンベンションプラス,0
1450,7010001229011,新規,0,2022-08-25,2022-08-25,日本地球山株式会社,,株式会社,東京都,千代田区,一番町４番地５ニューライフ一番町１００３号,,13,101,1020082,,,,,,,2022-08-25,1,,,,,ニホンチキュウヤマ,0
1451,7010001229036,新規,0,2022-08-25,2022-08-25,株式会社ｎｉｃｏ,,株式会社,東京都,中央区,勝どき２丁目１２番１０号,,13,102,1040054,,,,,,,2022-08-25,1,,,,,ニコ,0
1456,7010003038393,新規,0,2022-08-25,2022-08-25,合同会社ａｍｉｔｉｅ,,合同会社,東京都,中央区,日本橋富沢町５－１０月村マンション７０３,,13,102,1030006,,,,,,,2022-08-25,1,,,,,,0
1457,7010003038476,新規,0,2022-08-25,2022-08-25,合同会社あおいとり,,合同会社,東京都,文京区,本郷３丁目３５－３本郷ＵＣビル７階,,13,105,1130033,,,,,,,2022-08-25,1,,,,,アオイトリ,0
1458,7010003038484,新規,0,2022-08-25,2022-08-25,合同会社ＧＳプランニング,,合同会社,東京都,中央区,東日本橋３丁目６－１６グランスイート日本橋エイペックス１００３,,13,102,1030004,,,,,,,2022-08-25,1,,,,,ジーエスプランニング,0
1464,7010401169195,新規,0,2022-08-25,2022-08-25,株式会社原田商事,,株式会社,東京都,港区,南青山５丁目４番３５号たつむら青山マンション１０１０号室,,13,103,1070062,,,,,,,2022-08-25,1,,,,,ハラダショウジ,0
1471,7010605004116,新規,0,2022-08-25,2022-08-25,一般社団法人子供たちの健康と未来を護る会,,その他の設立登記法人,東京都,江東区,新木場３丁目６番７号,,13,108,1360082,,,,,,,2022-08-25,1,,,,,コドモタチノケンコウトミライヲマモルカイ,0
1476,7010701043117,新規,0,2022-08-25,2022-08-25,株式会社ｍｉｉｆｕｚ,,株式会社,東京都,品川区,上大崎３丁目２－１目黒センタービル８階,,13,109,1410021,,,,,,,2022-08-25,1,,,,,ミーフューズ,0
1482,7010901051489,新規,0,2022-08-25,2022-08-25,ゴーダカフェ株式会社,,株式会社,東京都,世田谷区,若林４丁目３０番９号,,13,112,1540023,,,,,,,2022-08-25,1,,,,,ゴーダカフェ,0
1490,7011001149397,新規,0,2022-08-25,2022-08-25,株式会社ＡＱ,,株式会社,東京都,渋谷区,道玄坂１丁目１６番６号,,13,113,1500043,,,,,,,2022-08-25,1,,,,,エーキュー,0
1491,7011001149406,新規,0,2022-08-25,2022-08-25,ベスト・イベント株式会社,,株式会社,東京都,渋谷区,神南１丁目３番１号,,13,113,1500041,,,,,,,2022-08-25,1,,,,,ベストイベント,0
1492,7011001149414,新規,0,2022-08-25,2022-08-25,株式会社ＬＵＸＩＳ,,株式会社,東京都,渋谷区,松濤１丁目２８番２号,,13,113,1500046,,,,,,,2022-08-25,1,,,,,ラグシス,0
1493,7011003015218,新規,0,2022-08-25,2022-08-25,合同会社Ｐｒｏｏｖ,,合同会社,東京都,渋谷区,渋谷２丁目１９―１５宮益坂ビルディング６０９,,13,113,1500002,,,,,,,2022-08-25,1,,,,,プルーブ,0
1494,7011003015275,新規,0,2022-08-25,2022-08-25,合同会社Ｍｅｔａ　Ｔｅｃｈ,,合同会社,東京都,渋谷区,神南１丁目１３番１５号,,13,113,1500041,,,,,,,2022-08-25,1,,,,,メタテック,0
1495,7011101099963,新規,0,2022-08-25,2022-08-25,株式会社ＳＫＪ,,株式会社,東京都,新宿区,早稲田鶴巻町１１１番地フォレスト・インワセダ３０４号,,13,104,1620041,,,,,,,2022-08-25,1,,,,,エスケイジェイ,0
1496,7011201024053,新規,0,2022-08-25,2022-08-25,株式会社Ｇａｒｄｅｎｉａ,,株式会社,東京都,中野区,鷺宮１丁目５番７号オリエンタルビジネスセンター１０９号,,13,114,1650032,,,,,,,2022-08-25,1,,,,,ガーデニア,0
1500,7011403003755,新規,0,2022-08-25,2022-08-25,合同会社エンジェルランプ,,合同会社,東京都,板橋区,前野町４丁目６２番９号,,13,119,1740063,,,,,,,2022-08-25,1,,,,,エンジェルランプ,0
1507,7011703003240,新規,0,2022-08-25,2022-08-25,合同会社ＰＥＬ,,合同会社,東京都,江戸川区,一之江１丁目６番２２号メゾン・まろうど２０５,,13,123,1320024,,,,,,,2022-08-25,1,,,,,ペル,0
1509,7011801041191,新規,0,2022-08-25,2022-08-25,株式会社Ｐｒｏｆｅｓｓｉｏｎａｌｓ,,株式会社,東京都,葛飾区,新小岩１丁目３３番１０号Ｗｉｓｅｎｏｔｅ２０１,,13,122,1240024,,,,,,,2022-08-25,1,,,,,プロフェッショナルズ,0
1510,7011801041200,新規,0,2022-08-25,2022-08-25,株式会社Ｌｉｖｉｎｇ　Ｐｒｏｏｆ,,株式会社,東京都,足立区,保木間４丁目４９番８号,,13,121,1210064,,,,,,,2022-08-25,1,,,,,リビングプルーフ,0
1515,7012701017216,新規,0,2022-08-25,2022-08-25,Ｋｒｅｉｓ　ｍａｎａｇｅｍｅｎｔ株式会社,,株式会社,東京都,東久留米市,金山町２丁目１番１８号,,13,222,2030003,,,,,,,2022-08-25,1,,,,,クライスマネジメント,0
1521,7013301049558,新規,0,2022-08-25,2022-08-25,ＫＩＳＡＣＨＩ．株式会社,,株式会社,東京都,豊島区,東池袋１丁目３４番５号いちご東池袋ビル６階,,13,116,1700013,,,,,,,2022-08-25,1,,,,,キサチ,0
1527,7020001147914,新規,0,2022-08-25,2022-08-25,株式会社ブラックホーク・マネジメント,,株式会社,神奈川県,横浜市港北区,日吉本町２丁目５－６,,14,109,2230062,,,,,,,2022-08-25,1,,,,,ブラックホークマネジメント,0
1528,7020001147930,新規,0,2022-08-25,2022-08-25,みなとみらい総合建設株式会社,,株式会社,神奈川県,横浜市中区,長者町８丁目１３４番地長者町ビル９階,,14,104,2310033,,,,,,,2022-08-25,1,,,,,ミナトミライソウゴウケンセツ,0
1533,7021001076839,新規,0,2022-08-25,2022-08-25,株式会社ＳＥＡＭＳ,,株式会社,神奈川県,茅ヶ崎市,浜竹１丁目１１番５２号,,14,207,2530021,,,,,,,2022-08-25,1,,,,,シームス,0
1534,7021001076847,新規,0,2022-08-25,2022-08-25,紡絹株式会社,,株式会社,神奈川県,茅ヶ崎市,東海岸北４丁目２番２８号,,14,207,2530053,,,,,,,2022-08-25,1,,,,,ツムグキヌ,0
1537,7021003011793,新規,0,2022-08-25,2022-08-25,森家合同会社,,合同会社,神奈川県,藤沢市,鵠沼桜が岡４丁目１番１４号,,14,205,2510027,,,,,,,2022-08-25,1,,,,,モリケ,0
1541,7030003019838,新規,0,2022-08-25,2022-08-25,合同会社バンシル,,合同会社,埼玉県,さいたま市見沼区,大字蓮沼１５３８番１号グランモア・ゼファー２０３,,11,104,3370015,,,,,,,2022-08-25,1,,,,,バンシル,0
1542,7030003020060,新規,0,2022-08-25,2022-08-25,ＳＡＲＩＴＡ合同会社,,合同会社,埼玉県,蕨市,塚越２丁目１９番１０号コーポ吉野１０２号,,11,223,3350002,,,,,,,2022-08-25,1,,,,,サリタ,0
1551,7040001124812,新規,0,2022-08-25,2022-08-25,株式会社ＫＡＴＡＯＫＡ,,株式会社,千葉県,いすみ市,岬町中滝９５５番地１２,,12,238,2994623,,,,,,,2022-08-25,1,,,,,カタオカ,0
1554,7050001051576,新規,0,2022-08-25,2022-08-25,株式会社Ａｕｔｏ　Ｋｒｕｚｅ　Ｔｒａｄｉｎｇ,,株式会社,茨城県,古河市,大山１６９４番地２フジハイツ２０２,,08,204,3060052,,,,,,,2022-08-25,1,,,,,オートクルゼトレーディング,0
1555,7050001051592,新規,0,2022-08-25,2022-08-25,株式会社Ｌｉｎｋ　Ｗｏｒｋｅｒｓ,,株式会社,茨城県,つくば市,大曽根４３６番地１４号パティオ・シャルム２０１,,08,220,3003253,,,,,,,2022-08-25,1,,,,,リンクワーカーズ,0
1573,7110003004848,新規,0,2022-08-25,2022-08-25,合同会社ライフカレント,,合同会社,新潟県,上越市,大和１丁目５番１７号,,15,222,9430861,,,,,,,2022-08-25,1,,,,,ライフカレント,0
1589,7120003022329,新規,0,2022-08-25,2022-08-25,合同会社ヒロ,,合同会社,大阪府,大阪市西淀川区,歌島１丁目１３番１０号１０１号室,,27,113,5550021,,,,,,,2022-08-25,1,,,,,ヒロ,0
1592,7120101066129,新規,0,2022-08-25,2022-08-25,株式会社さち,,株式会社,大阪府,堺市西区,浜寺石津町中４丁１０番１０号,,27,144,5928334,,,,,,,2022-08-25,1,,,,,サチ,0
1593,7120101066137,新規,0,2022-08-25,2022-08-25,株式会社エスアンドワイ,,株式会社,大阪府,泉大津市,若宮町５番１９号プレイズ泉大津１１０６号,,27,206,5950065,,,,,,,2022-08-25,1,,,,,,0
1594,7120901046395,新規,0,2022-08-25,2022-08-25,株式会社サランガジン,,株式会社,大阪府,箕面市,小野原西６丁目４番９号,,27,220,5620032,,,,,,,2022-08-25,1,,,,,サランガジン,0
1610,7140001127169,新規,0,2022-08-25,2022-08-25,株式会社ＡＨラボ,,株式会社,兵庫県,明石市,魚住町錦が丘３丁目９番地の１０第二ＮＳビル,,28,203,6740081,,,,,,,2022-08-25,1,,,,,エーエイチラボ,0
1612,7160001024471,新規,0,2022-08-25,2022-08-25,株式会社柔鍼,,株式会社,滋賀県,大津市,あかね町１８番１４号,,25,201,5200003,,,,,,,2022-08-25,1,,,,,ジュウシン,0
1622,7180003024187,新規,0,2022-08-25,2022-08-25,ｐｅｇｇ合同会社,,合同会社,愛知県,名古屋市西区,赤城町１８番地の２,,23,104,4520813,,,,,,,2022-08-25,1,,,,,ペグ,0
1623,7180005019904,新規,0,2022-08-25,2022-08-25,医療法人恵伸会,,その他の設立登記法人,愛知県,名古屋市北区,浪打町２丁目９２番地１,,23,103,4620041,,,,,,,2022-08-25,1,,,,,ケイシンカイ,0
1626,7190003004072,新規,0,2022-08-25,2022-08-25,アリーザ合同会社,,合同会社,三重県,鈴鹿市,野村町４４０番地の２,,24,207,5100203,,,,,,,2022-08-25,1,,,,,アリーザ,0
1627,7210001019053,新規,0,2022-08-25,2022-08-25,株式会社マサキ塗装店,,株式会社,福井県,鯖江市,西大井町第４２号４番地２０,,18,207,9160078,,,,,,,2022-08-25,1,,,,,マサキトソウテン,0
1628,7220001025001,新規,0,2022-08-25,2022-08-25,株式会社ギンレイバイオ,,株式会社,石川県,金沢市,京町２５番２０号,,17,201,9200848,,,,,,,2022-08-25,1,,,,,ギンレイバイオ,0
1630,7220005008695,新規,0,2022-08-25,2022-08-25,一般社団法人第３職員室,,その他の設立登記法人,石川県,金沢市,平和町３丁目１１番地２４‐１０２号,,17,201,9218105,,,,,,,2022-08-25,1,,,,,ダイサンショクインシツ,0
1631,7230005009255,新規,0,2022-08-25,2022-08-25,一般社団法人アシスト,,その他の設立登記法人,富山県,射水市,作道２８２番地１,,16,211,9340042,,,,,,,2022-08-25,1,,,,,アシスト,0
1650,7300001013047,新規,0,2022-08-25,2022-08-25,株式会社ＤＫＳ,,株式会社,佐賀県,佐賀市,高木瀬西６丁目１１番４号,,41,201,8490921,,,,,,,2022-08-25,1,,,,,ディーケーエス,0
1660,7360001030870,新規,0,2022-08-25,2022-08-25,ＴＲ株式会社,,株式会社,沖縄県,糸満市,西崎６丁目７番１０号玉城アパート１０２,,47,210,9010305,,,,,,,2022-08-25,1,,,,,ティーアール,0
1671,7430001087359,新規,0,2022-08-25,2022-08-25,株式会社ＯＤＤサービス,,株式会社,北海道,札幌市東区,北十一条東１３丁目２番８－１０５号,,01,103,0650011,,,,,,,2022-08-25,1,,,,,オッドサービス,0
1676,7500001024420,新規,0,2022-08-25,2022-08-25,龍翔金属株式会社,,株式会社,愛媛県,今治市,高市字頓田甲７８８番地６,,38,202,7991512,,,,,,,2022-08-25,1,,,,,リュウショウキンゾク,0
1680,7700150111271,新規,0,2022-08-25,2022-08-16,Ａｄｏ　Ｓｔｒｉｎｇｓ,,その他,東京都,杉並区,阿佐谷北５丁目１９－２,,13,115,1660001,,,,,,,2022-08-16,1,,,,,アドストリングス,0
1697,8010001229002,新規,0,2022-08-25,2022-08-25,株式会社Ｇｅｌｄ,,株式会社,東京都,文京区,白山２丁目２０－５－３０６,,13,105,1120001,,,,,,,2022-08-25,1,,,,,ゲルト,0
1719,8010901051496,新規,0,2022-08-25,2022-08-25,Ｓａｍｕｒａｉ　Ｇｌｏｂａｌ　Ａｒｍｉｅｓ　ＴＯＫＹＯ株式会社,,株式会社,東京都,世田谷区,給田４丁目９番２６号エスポワール３０２,,13,112,1570064,,,,,,,2022-08-25,1,,,,,サムライグローバルアーミーズトーキョー,0
1729,8011001149413,新規,0,2022-08-25,2022-08-25,株式会社Ｂｉｚｌａｂ,,株式会社,東京都,目黒区,駒場１丁目３４番９号,,13,110,1530041,,,,,,,2022-08-25,1,,,,,ビズラボ,0
1730,8011003015209,新規,0,2022-08-25,2022-08-25,Ｂｌａｎｃａ合同会社,,合同会社,東京都,渋谷区,神宮前６丁目２３－４桑野ビル２階,,13,113,1500001,,,,,,,2022-08-25,1,,,,,,0
1736,8011101099946,新規,0,2022-08-25,2022-08-25,株式会社高酸素グッドケアアンドグッドヘルス,,株式会社,東京都,新宿区,新宿２丁目１４番６号,,13,104,1600022,,,,,,,2022-08-25,1,,,,,コウサンソグッドケアアンドグッドヘルス,0
1738,8011301028060,新規,0,2022-08-25,2022-08-25,ＧＶ株式会社,,株式会社,東京都,杉並区,和田２丁目２６番３－１０１号,,13,115,1660012,,,,,,,2022-08-25,1,,,,,ジーブイ,0
1740,8011501028414,新規,0,2022-08-25,2022-08-25,株式会社ＩＭＧ,,株式会社,東京都,北区,王子５丁目２番２－１１７号,,13,117,1140002,,,,,,,2022-08-25,1,,,,,アイエムジー,0
1742,8011701025558,新規,0,2022-08-25,2022-08-25,ＭＥＴＨＯＤ株式会社,,株式会社,東京都,江戸川区,西葛西５丁目６番２号第２８山秀ビル６Ｆ－６０１,,13,123,1340088,,,,,,,2022-08-25,1,,,,,メソッド,0
1745,8011801041190,新規,0,2022-08-25,2022-08-25,株式会社誠掃,,株式会社,東京都,葛飾区,新小岩２丁目３６番地２号久保田荘１０１号室,,13,122,1240024,,,,,,,2022-08-25,1,,,,,セイソウ,0
1751,8012401039567,新規,0,2022-08-25,2022-08-25,株式会社ＭＣＤ,,株式会社,東京都,多摩市,関戸５丁目１７番地の１５グランツ聖蹟４０２,,13,224,2060011,,,,,,,2022-08-25,1,,,,,エムシーディー,0
1756,8020001147896,新規,0,2022-08-25,2022-08-25,株式会社回,,株式会社,神奈川県,横浜市中区,相生町２丁目５２番地泰生ポーチ３０１,,14,104,2310012,,,,,,,2022-08-25,1,,,,,カイ,0
1757,8020001147905,新規,0,2022-08-25,2022-08-25,株式会社竹取屋,,株式会社,神奈川県,横浜市青葉区,市ケ尾町１０６２番地１ローゼ市ヶ尾１０８号,,14,117,2250024,,,,,,,2022-08-25,1,,,,,タケトリヤ,0
1758,8020001147954,新規,0,2022-08-25,2022-08-25,Ｇｓｐｒｉｎｇ株式会社,,株式会社,神奈川県,横浜市西区,高島２丁目１１番２号スカイメナー横浜５１９,,14,103,2200011,,,,,,,2022-08-25,1,,,,,ジースプリング,0
1766,8030003020076,新規,0,2022-08-25,2022-08-25,合同会社ＬＩＮＫＴＨマネジメント,,合同会社,埼玉県,さいたま市大宮区,桜木町２丁目２－１０松木ビル２Ｆ,,11,103,3300854,,,,,,,2022-08-25,1,,,,,,0
1771,8040001124803,新規,0,2022-08-25,2022-08-25,株式会社アートザグループ,,株式会社,千葉県,君津市,杢師２丁目１２番３号,,12,225,2991163,,,,,,,2022-08-25,1,,,,,アートザグループ,0
1783,8060001035206,新規,0,2022-08-25,2022-08-25,Ｖｉｎｃｕｌｕｍｃｏｒ株式会社,,株式会社,栃木県,宇都宮市,岩曽町１３９１番地１２,,09,201,3210973,,,,,,,2022-08-25,1,,,,,ウィンクルムコーラ,0
1784,8060001035214,新規,0,2022-08-25,2022-08-25,株式会社ウィングスプラン,,株式会社,栃木県,宇都宮市,瑞穂２丁目２０番地５,,09,201,3210921,,,,,,,2022-08-25,1,,,,,ウィングスプラン,0
1798,8110003004847,新規,0,2022-08-25,2022-08-25,合同会社旭商店,,合同会社,新潟県,上越市,大島区田麦１１５２番地,,15,222,9421102,,,,,,,2022-08-25,1,,,,,アサヒショウテン,0
1809,8120001248362,新規,0,2022-08-25,2022-08-25,カカイ株式会社,,株式会社,大阪府,大阪市東成区,深江北３丁目４番２１号エクラ深江橋３１３Ａ,,27,115,5370001,,,,,,,2022-08-25,1,,,,,カカイ,0
1810,8120001248370,新規,0,2022-08-25,2022-08-25,株式会社アロッタ,,株式会社,大阪府,大阪市浪速区,桜川２丁目９番４号,,27,111,5560022,,,,,,,2022-08-25,1,,,,,アロッタ,0
1811,8120001248387,新規,0,2022-08-25,2022-08-25,株式会社ＷＩＴＨ　ＳＵＮＲＩＳＥ,,株式会社,大阪府,大阪市阿倍野区,昭和町１丁目５番２６号ＥＢＩＳＵビル,,27,119,5450011,,,,,,,2022-08-25,1,,,,,ウィズサンライズ,0
1812,8120001248412,新規,0,2022-08-25,2022-08-25,株式会社スリール,,株式会社,大阪府,大阪市港区,波除２丁目１０番３号,,27,107,5520001,,,,,,,2022-08-25,1,,,,,スリール,0
1813,8120001248429,新規,0,2022-08-25,2022-08-25,株式会社ＣＡＳＭホールディングス,,株式会社,大阪府,大阪市北区,豊崎３丁目２０番１２号,,27,127,5310072,,,,,,,2022-08-25,1,,,,,キャズムホールディングス,0
1814,8120001248445,新規,0,2022-08-25,2022-08-25,株式会社Ｙａｎｓｅ,,株式会社,大阪府,大阪市中央区,西心斎橋２丁目１２番２２号朝日プラザ心斎橋５２２号室,,27,128,5420086,,,,,,,2022-08-25,1,,,,,イアンセ,0
1829,8130001072489,新規,0,2022-08-25,2022-08-25,株式会社ＫＯＫＩＮ,,株式会社,京都府,舞鶴市,字南田辺１２６番地５,,26,202,6240853,,,,,,,2022-08-25,1,,,,,コキン,0
1832,8130005016558,新規,0,2022-08-25,2022-08-25,一般社団法人ＣＧ　ＫＹＯＴＯ,,その他の設立登記法人,京都府,京都市下京区,仏光寺通烏丸東入上柳町３３１番地タカノハスクエア４Ｆ,,26,106,6008099,,,,,,,2022-08-25,1,,,,,シージーキョウト,0
1833,8140001127201,新規,0,2022-08-25,2022-08-25,株式会社Ｙ’ｓエンジニアリング,,株式会社,兵庫県,神戸市須磨区,小寺町２丁目２－１２－２０２,,28,107,6540042,,,,,,,2022-08-25,1,,,,,ワイズエンジニアリング,0
1835,8150001025783,新規,0,2022-08-25,2022-08-25,株式会社電王,,株式会社,奈良県,奈良市,北之庄町５３－２－１０３,,29,201,6308451,,,,,,,2022-08-25,1,,,,,デンオウ,0
1837,8150003002764,新規,0,2022-08-25,2022-08-25,合同会社楠,,合同会社,奈良県,橿原市,小綱町４番２１号,,29,205,6340811,,,,,,,2022-08-25,1,,,,,クスノキ,0
1838,8160001024470,新規,0,2022-08-25,2022-08-25,株式会社ＳＯＦＩＸ,,株式会社,滋賀県,草津市,野路東１丁目１番１号立命館大学ＢＫＣインキュベータ,,25,206,5250058,,,,,,,2022-08-25,1,,,,,ソフィックス,0
1839,8170001017250,新規,0,2022-08-25,2022-08-25,株式会社ＭＳＡ,,株式会社,和歌山県,橋本市,小峰台１丁目２７番地の７,,30,203,6480005,,,,,,,2022-08-25,1,,,,,エムエスエー,0
1850,8180003024186,新規,0,2022-08-25,2022-08-25,ＡＮＮＹ合同会社,,合同会社,愛知県,瀬戸市,中水野町１丁目１２４（サンクレストみずのＡ－２０１）,,23,204,4890005,,,,,,,2022-08-25,1,,,,,アニー,0
1855,8190001029715,新規,0,2022-08-25,2022-08-25,松永商事株式会社,,株式会社,三重県,松阪市,嬉野算所町字北浦８９０番１,,24,204,5152335,,,,,,,2022-08-25,1,,,,,マツナガショウジ,0
1858,8200001040389,新規,0,2022-08-25,2022-08-25,今井産業株式会社,,株式会社,岐阜県,加茂郡白川町,赤河８３１番地２,,21,506,5091112,,,,,,,2022-08-25,1,,,,,イマイサンギョウ,0
1862,8210003001553,新規,0,2022-08-25,2022-08-25,リバイバルレザー合同会社,,合同会社,福井県,福井市,舟橋黒竜２丁目６１９番地,,18,201,9100069,,,,,,,2022-08-25,1,,,,,リバイバルレザー,0
1863,8220005008694,新規,0,2022-08-25,2022-08-25,特定非営利活動法人ほんわかのタネまき,,その他の設立登記法人,石川県,金沢市,北袋町ヲ４８番地１（西村様方）,,17,201,9201135,,,,,,,2022-08-25,1,,,,,ホンワカノタネマキ,0
1873,8260003004015,新規,0,2022-08-25,2022-08-25,合同会社ＫＯＮＯＫＯＮＯ,,合同会社,岡山県,倉敷市,東富井９７０－５６,,33,202,7100847,,,,,,,2022-08-25,1,,,,,コノコノ,0
1879,8290001098691,新規,0,2022-08-25,2022-08-25,株式会社レミエーション,,株式会社,福岡県,春日市,春日８丁目３６番地２,,40,218,8160814,,,,,,,2022-08-25,1,,,,,レミエーション,0
1884,8310001018003,新規,0,2022-08-25,2022-08-25,株式会社ＷｅｌＣｒｏｐ,,株式会社,長崎県,雲仙市,瑞穂町古部甲１８１９番地,,42,213,8591215,,,,,,,2022-08-25,1,,,,,ウェルクロップ,0
1885,8320001019289,新規,0,2022-08-25,2022-08-25,宮永不動産株式会社,,株式会社,大分県,宇佐市,大字閤２４３番地の４,,44,211,8790455,,,,,,,2022-08-25,1,,,,,ミヤナガフドウサン,0
1895,8350001017918,新規,0,2022-08-25,2022-08-25,株式会社ｃｌａｒｕｓ,,株式会社,宮崎県,日向市,北町２丁目１７番地６,,45,206,8830041,,,,,,,2022-08-25,1,,,,,クラルス,0
1898,8360003012263,新規,0,2022-08-25,2022-08-25,令和農産合同会社,,合同会社,沖縄県,宮古島市,伊良部字仲地１１番地,,47,214,9060504,,,,,,,2022-08-25,1,,,,,レイワノウサン,0
1899,8370001048977,新規,0,2022-08-25,2022-08-25,株式会社ロイジービブ,,株式会社,宮城県,仙台市青葉区,北根１丁目３番１号,,04,101,9810902,,,,,,,2022-08-25,1,,,,,ロイジービブ,0
1907,8430001087358,新規,0,2022-08-25,2022-08-25,スリー・バリュー不動産株式会社,,株式会社,北海道,札幌市北区,屯田二条１丁目１番７号,,01,102,0020852,,,,,,,2022-08-25,1,,,,,スリーバリューフドウサン,0
1908,8430001087366,新規,0,2022-08-25,2022-08-25,ｐｅａｃｈ＆Ｃｏ株式会社,,株式会社,北海道,札幌市中央区,南四条西１丁目１３－２Ｎｏ５ミカエルビル２０２,,01,101,0640804,,,,,,,2022-08-25,1,,,,,ピーチアンドコー,0
1911,8490001010256,新規,0,2022-08-25,2022-08-25,株式会社Ｐｌｕｍ　Ｐｌｕｓ．,,株式会社,高知県,高知市,高須２丁目２番２２号,,39,201,7818104,,,,,,,2022-08-25,1,,,,,プラムプラス,0
1912,8490001010264,新規,0,2022-08-25,2022-08-25,株式会社アッシェエンターテインメント,,株式会社,高知県,高知市,土佐山高川３３４番地３,,39,201,7813211,,,,,,,2022-08-25,1,,,,,アッシュエンターテインメント,0
1916,8700150109620,新規,0,2022-08-25,2022-06-14,ＨＯＲＩＳＨＩＲＯ,,その他,東京都,杉並区,天沼３丁目６－１２,,13,115,1670032,,,,,,,2022-06-14,1,,,,,ホリシロ,0
1917,8700150111510,新規,0,2022-08-25,2022-08-25,Ｃｌａｒｉｏｎ　Ｄｅｆｅｎｃｅ　（ＵＫ）　Ｌｉｍｉｔｅｄ,,外国会社等,,,,,,,,Ｂｅｄｆｏｒｄ　Ｈｏｕｓｅ，６９－７９　Ｆｕｌｈａｍ　Ｈｉｇｈ　Ｓｔｒｅｅｔ，Ｌｏｎｄｏｎ，ＳＷ６　３ＪＷ,,,,,,2022-08-25,1,,,,,クラリオンデイフエンスユーケーリミテツド,0
1927,9010001229042,新規,0,2022-08-25,2022-08-25,Ｍｅｔａｓｅｃ．ｊｐ株式会社,,株式会社,東京都,中央区,銀座７丁目１４番１３号,,13,102,1040061,,,,,,,2022-08-25,1,,,,,メタセックジェイピー,0
1948,9010405021318,新規,0,2022-08-25,2022-08-25,エスティーエヌ一般社団法人,,その他の設立登記法人,東京都,港区,西新橋１丁目２番９号メンターキャピタル税理士法人内,,13,103,1050003,,,,,,,2022-08-25,1,,,,,エスティーエヌ,0
1952,9010601061737,新規,0,2022-08-25,2022-08-25,株式会社プロメロ・エム,,株式会社,東京都,江東区,北砂６丁目１３番４号志村ビル１Ｆ,,13,108,1360073,,,,,,,2022-08-25,1,,,,,プロメロエム,0
1953,9010601061745,新規,0,2022-08-25,2022-08-25,Ｔｅａｍ　Ｃｏ株式会社,,株式会社,東京都,墨田区,石原１丁目３５－８,,13,107,1300011,,,,,,,2022-08-25,1,,,,,チームコー,0
1954,9010701043107,新規,0,2022-08-25,2022-08-25,智信国際物流株式会社,,株式会社,東京都,品川区,西五反田３丁目６番２３－１９０２号,,13,109,1410031,,,,,,,2022-08-25,1,,,,,トモノブコクサイブツリュウ,0
1958,9011001149073,新規,0,2022-08-25,2022-08-25,ＹＭＳ株式会社,,株式会社,東京都,渋谷区,宇田川町１６番８号渋谷センタービル３Ｆ,,13,113,1500042,,,,,,,2022-08-25,1,,,,,ワイエムエス,0
1959,9011003015273,新規,0,2022-08-25,2022-08-25,リブート合同会社,,合同会社,東京都,渋谷区,渋谷２丁目１９番１５号宮益坂ビルディング６０９,,13,113,1500002,,,,,,,2022-08-25,1,,,,,リブート,0
1977,9012401039566,新規,0,2022-08-25,2022-08-25,株式会社Ｋａｗａｓａｋｉ　Ｗｏｒｋｓ,,株式会社,東京都,三鷹市,大沢３丁目３番２３号,,13,204,1810015,,,,,,,2022-08-25,1,,,,,カワサキワークス,0
1994,9030003020042,新規,0,2022-08-25,2022-08-25,Ｔ＆Ｐ合同会社,,合同会社,埼玉県,越谷市,北越谷２丁目２１番２号,,11,222,3430026,,,,,,,2022-08-25,1,,,,,ティーアンドピー,0
1995,9040001124793,新規,0,2022-08-25,2022-08-25,朝陽株式会社,,株式会社,千葉県,松戸市,八ケ崎６丁目３９番地の２２,,12,207,2700023,,,,,,,2022-08-25,1,,,,,チョウヨウ,0
1996,9040001124810,新規,0,2022-08-25,2022-08-25,株式会社マーキュリー,,株式会社,千葉県,千葉市美浜区,幕張西４丁目１－１４－１０２,,12,106,2610026,,,,,,,2022-08-25,1,,,,,マーキュリー,0
1998,9060001035205,新規,0,2022-08-25,2022-08-25,株式会社ウェミアス,,株式会社,栃木県,宇都宮市,上戸祭町２９８９番地１０５,,09,201,3200051,,,,,,,2022-08-25,1,,,,,ウェミアス,0
2001,9060003004199,新規,0,2022-08-25,2022-08-25,カフカ合同会社,,合同会社,栃木県,真岡市,高勢町２丁目２９６番地,,09,209,3214341,,,,,,,2022-08-25,1,,,,,カフカ,0
2014,9110001036908,新規,0,2022-08-25,2022-08-25,Ｍａｙ　Ｃｏｒｐｏｒａｔｉｏｎ株式会社,,株式会社,新潟県,燕市,粟生津２７２番地１号,,15,213,9590227,,,,,,,2022-08-25,1,,,,,メイコーポレーション,0
2015,9110003004846,新規,0,2022-08-25,2022-08-25,慶幸屋台湾合同会社,,合同会社,新潟県,佐渡市,豊田７４４号,,15,224,9520317,,,,,,,2022-08-25,1,,,,,キョウサチヤタイワン,0
2020,9120001248262,新規,0,2022-08-25,2022-08-25,Ｊｉｍａ‐ｋｅ株式会社,,株式会社,大阪府,大阪市北区,太融寺町２－２１ニュープラザビル６０９号,,27,127,5300051,,,,,,,2022-08-25,1,,,,,ジマケ,0
2022,9120001248378,新規,0,2022-08-25,2022-08-25,株式会社正輝商事,,株式会社,大阪府,大阪市大正区,三軒家西３丁目１０番１７,,27,108,5510001,,,,,,,2022-08-25,1,,,,,マサキショウジ,0
2023,9120001248403,新規,0,2022-08-25,2022-08-25,株式会社ワタシ,,株式会社,大阪府,大阪市中央区,高麗橋２丁目３番１５号ＲＥ北浜ビルディング６Ｆ,,27,128,5410043,,,,,,,2022-08-25,1,,,,,ワタシ,0
2041,9140001127183,新規,0,2022-08-25,2022-08-25,株式会社嘉門芦屋コリアン亭,,株式会社,兵庫県,芦屋市,川西町４番２号ＶＩＶＯ芦屋,,28,206,6590072,,,,,,,2022-08-25,1,,,,,アシヤカモンコリアンテイ,0
2045,9150001025782,新規,0,2022-08-25,2022-08-25,株式会社パレットテクノロジーズ,,株式会社,奈良県,奈良市,橋本町３－１,,29,201,6308217,,,,,,,2022-08-25,1,,,,,パレットテクノロジーズ,0
2047,9170003001763,新規,0,2022-08-25,2022-08-25,合同会社梅乃基,,合同会社,和歌山県,田辺市,磯間２４番２号,,30,206,6460037,,,,,,,2022-08-25,1,,,,,ウメノモト,0
2051,9180001152731,新規,0,2022-08-25,2022-08-25,株式会社光希,,株式会社,愛知県,あま市,森８丁目１２番地２７,,23,237,4901107,,,,,,,2022-08-25,1,,,,,コウキ,0
2052,9180001152780,新規,0,2022-08-25,2022-08-25,ＭＳＣプロダクツ株式会社,,株式会社,愛知県,清須市,西枇杷島町南大和１６５番地,,23,233,4520013,,,,,,,2022-08-25,1,,,,,エムエスシープロダクツ,0
2055,9180301036568,新規,0,2022-08-25,2022-08-25,ｕｓａｇｉ　ｄｏｕｇｈｎｕｔｓ株式会社,,株式会社,愛知県,安城市,花ノ木町８－６,,23,212,4460039,,,,,,,2022-08-25,1,,,,,ウサギドーナツ,0
2058,9200001040388,新規,0,2022-08-25,2022-08-25,株式会社松建,,株式会社,岐阜県,可児市,緑ケ丘５丁目１４２番地,,21,214,5090231,,,,,,,2022-08-25,1,,,,,マツケン,0
2062,9210003001552,新規,0,2022-08-25,2022-08-25,吉峯梅庵合同会社,,合同会社,福井県,吉田郡永平寺町,北島第７号２２番地,,18,322,9101325,,,,,,,2022-08-25,1,,,,,キッポウバイアン,0
2066,9230001019495,新規,0,2022-08-25,2022-08-25,株式会社Ｉｍｉｚｕｔｔｏ,,株式会社,富山県,射水市,片口久々江６７４番地２,,16,211,9340037,,,,,,,2022-08-25,1,,,,,イミズット,0
2068,9230003001906,新規,0,2022-08-25,2022-08-25,合同会社安寧,,合同会社,富山県,中新川郡立山町,利田１０６７番地１６,,16,323,9300275,,,,,,,2022-08-25,1,,,,,アンネイ,0
2078,9290001098699,新規,0,2022-08-25,2022-08-25,株式会社ＤＡＮＣＥ　ＥＬＥＧＡＮＣＥ,,株式会社,福岡県,福岡市中央区,薬院１丁目６番９号福岡ニッセイビル４階,,40,133,8100022,,,,,,,2022-08-25,1,,,,,ダンスエレガンス,0
2080,9290801028839,新規,0,2022-08-25,2022-08-25,株式会社三建設,,株式会社,福岡県,北九州市八幡西区,折尾５丁目８番４４号,,40,109,8070825,,,,,,,2022-08-25,1,,,,,サンケンセツ,0
2082,9320001019288,新規,0,2022-08-25,2022-08-25,株式会社ＳＵＮ　ＣＲＡＦＴ,,株式会社,大分県,大分市,大字三芳９３３番地の３９,,44,201,8700030,,,,,,,2022-08-25,1,,,,,サンクラフト,0
2084,9320003003884,新規,0,2022-08-25,2022-08-25,合同会社トラスト,,合同会社,大分県,別府市,石垣東１０丁目６番８号３階Ｂ,,44,202,8740919,,,,,,,2022-08-25,1,,,,,トラスト,0
2086,9330005010548,新規,0,2022-08-25,2022-08-25,医療法人全健会,,その他の設立登記法人,熊本県,合志市,竹迫２２４９番地２,,43,216,8611114,,,,,,,2022-08-25,1,,,,,ゼンケンカイ,0
2088,9340001024988,新規,0,2022-08-25,2022-08-25,株式会社てぃだ,,株式会社,鹿児島県,霧島市,国分広瀬４丁目２８番３４号,,46,218,8994321,,,,,,,2022-08-25,1,,,,,ティダ,0
2090,9340003003890,新規,0,2022-08-25,2022-08-25,合同会社那組開発,00127609,合同会社,鹿児島県,鹿屋市,寿５丁目１７番１１号,,46,203,8930014,,,,,,,2022-08-25,1,,,,,ナグミカイハツ,0
2091,9360001030877,新規,0,2022-08-25,2022-08-25,株式会社ＢＬＡＣＫ　ＫＩＮＧ　ＧＲＯＵＰ,,株式会社,沖縄県,那覇市,泉崎１丁目１３番８号ハーモニー泉崎ビル３階,,47,201,9000021,,,,,,,2022-08-25,1,,,,,ブラックキンググループ,0
2093,9370001048984,新規,0,2022-08-25,2022-08-25,株式会社Ｌｉｌｙ’ｓ　ｔｅａ,,株式会社,宮城県,仙台市青葉区,昭和町二丁目２３ノーヴスアーバンビル６０１号室,,04,101,9810913,,,,,,,2022-08-25,1,,,,,リリーズティー,0
2103,9440001009137,新規,0,2022-08-25,2022-08-25,株式会社原口産業,,株式会社,北海道,亀田郡七飯町,字中島１４０番地２,,01,337,0411133,,,,,,,2022-08-25,1,,,,,ハラグチサンギョウ,0
2109,9700150015818,新規,0,2022-08-25,2015-10-09,船橋競馬場厩務員親睦会,,その他,千葉県,船橋市,若松１丁目１２－１,,12,204,2730013,,,,,,,2015-10-09,1,,,,,フナバシケイバジヨウキユウムインシンボクカイ,0
2110,9700150111179,新規,0,2022-08-25,2022-08-12,熊本ハワイフェス実行委員会,,その他,熊本県,阿蘇郡南阿蘇村,大字久石４４１１－９,,43,433,8691412,,,,,,,2022-08-12,1,,,,,クマモトハワイフエスジツコウイインカイ,0
