sequenceNumber,corporateNumber,process,correct,updateDate,changeDate,name,nameImageId,kind,prefectureName,cityName,streetNumber,addressImageId,prefectureCode,cityCode,postCode,addressOutside,addressOutsideImageId,closeDate,closeCause,successorCorporateNumber,changeCause,assignmentDate,latest,enName,enPrefectureName,enCityName,enAddressOutside,furigana,hihyoji
3,1010001241244,新規,0,2024-01-09,2024-01-09,ＢＲＳ株式会社,,株式会社,東京都,千代田区,紀尾井町４番１号,,13,101,1020094,,,,,,,2024-01-09,1,,,,,ビーアールエス,0
4,1010001241327,新規,0,2024-01-09,2024-01-09,株式会社ＪＡＰＡＮ　ＳＴＯＲＹ,,株式会社,東京都,中央区,日本橋人形町３丁目３番５号天翔日本橋人形町ビル４０６号室,,13,102,1030013,,,,,,,2024-01-09,1,,,,,ジャパンストーリー,0
5,1010001241343,新規,0,2024-01-09,2024-01-09,株式会社ＩＣＭＧ　Ｎｅｘｔ,,株式会社,東京都,千代田区,丸の内２丁目１番１号,,13,101,1000005,,,,,,,2024-01-09,1,,,,,アイシーエムジーネクスト,0
14,1010401179522,新規,0,2024-01-09,2024-01-09,株式会社ＯＦＦＩＣＥ　Ｍ,,株式会社,東京都,港区,芝浦４丁目１０番１－４４１７号,,13,103,1080023,,,,,,,2024-01-09,1,,,,,オフィスエム,0
15,1010401179530,新規,0,2024-01-09,2024-01-09,株式会社Ｏｎｅ　Ｆａｍｉｌｙ,,株式会社,東京都,港区,六本木６丁目１０番１号六本木ヒルズ森タワー３７階,,13,103,1060032,,,,,,,2024-01-09,1,,,,,ワンファミリー,0
16,1010401179547,新規,0,2024-01-09,2024-01-09,ジェーエフアセットマネジメント株式会社,,株式会社,東京都,港区,三田５丁目４－４・１Ａ,,13,103,1080073,,,,,,,2024-01-09,1,,,,,ジェーエフアセットマネジメント,0
17,1010401179571,新規,0,2024-01-09,2024-01-09,Ａｕｘｉｌｉａｒｙ　Ｐａｒｔｎｅｒｓ株式会社,,株式会社,東京都,港区,南青山４丁目８番１９－４０５号,,13,103,1070062,,,,,,,2024-01-09,1,,,,,オージィリアリーパートナーズ,0
26,1010405022819,新規,0,2024-01-09,2024-01-09,一般社団法人租税訴訟学会,,その他の設立登記法人,東京都,港区,六本木１丁目６番３号泉ガーデンウイング６階,,13,103,1060032,,,,,,,2024-01-09,1,,,,,ソゼイソショウガッカイ,0
28,1010501051589,新規,0,2024-01-09,2024-01-09,株式会社シックスセンス,,株式会社,東京都,台東区,浅草７丁目１－７宇賀神ビル１０２,,13,106,1110032,,,,,,,2024-01-09,1,,,,,シックスセンス,0
31,1010601064433,新規,0,2024-01-09,2024-01-09,ＵＰ’ｓトータルサービス株式会社,,株式会社,東京都,江東区,潮見２丁目１－８－３０２号,,13,108,1350052,,,,,,,2024-01-09,1,,,,,アップストータルサービス,0
33,1010603010559,新規,0,2024-01-09,2024-01-09,合同会社イーエムシーツー,,合同会社,東京都,江東区,青海２丁目７番４号ｔｈｅＳＯＨＯ９２８,,13,108,1350064,,,,,,,2024-01-09,1,,,,,イーエムシーツー,0
34,1010603010567,新規,0,2024-01-09,2024-01-09,合同会社ｓｅｔａ,,合同会社,東京都,江東区,亀戸６丁目３１番１－６３１号,,13,108,1360071,,,,,,,2024-01-09,1,,,,,セタ,0
37,1010701045333,新規,0,2024-01-09,2024-01-09,日本ＵＩ動物医療リゾート株式会社,,株式会社,東京都,品川区,西五反田１丁目２７－６市原ビル４Ｆ,,13,109,1410031,,,,,,,2024-01-09,1,,,,,ニホンユウアイドウブツイリョウリゾート,0
38,1010703007001,新規,0,2024-01-09,2024-01-09,合同会社Ｄｏｗｎ　Ｔｈｅ　Ｌｉｎｅ,,合同会社,東京都,品川区,西五反田６丁目１６番１９号,,13,109,1410031,,,,,,,2024-01-09,1,,,,,ダウンザライン,0
39,1010803004807,新規,0,2024-01-09,2024-01-09,合同会社ヨクナル会計事務所,,合同会社,東京都,大田区,北千束１丁目９番１８号,,13,111,1450062,,,,,,,2024-01-09,1,,,,,ヨクナルカイケイジムショ,0
42,1010901054456,新規,0,2024-01-09,2024-01-09,株式会社ｆａｖｏｕｒｓｏｍｅ,,株式会社,東京都,世田谷区,池尻３丁目３０番２号,,13,112,1540001,,,,,,,2024-01-09,1,,,,,フェイバーサム,0
53,1011001159146,新規,0,2024-01-09,2024-01-09,株式会社ノリーズカンパニー,,株式会社,東京都,渋谷区,円山町１０番１９－１２０２号,,13,113,1500044,,,,,,,2024-01-09,1,,,,,ノリーズカンパニー,0
54,1011001159212,新規,0,2024-01-09,2024-01-09,株式会社ｐＰ,,株式会社,東京都,渋谷区,猿楽町３０番３号,,13,113,1500033,,,,,,,2024-01-09,1,,,,,ピーピー,0
55,1011001159278,新規,0,2024-01-09,2024-01-09,ペアズセオリー株式会社,,株式会社,東京都,渋谷区,恵比寿西２丁目４番８号ウィンド恵比寿ビル８階,,13,113,1500021,,,,,,,2024-01-09,1,,,,,ペアズセオリー,0
67,1011101105719,新規,0,2024-01-09,2024-01-09,＿豊株式会社,00133244,株式会社,東京都,新宿区,西新宿４丁目１６－３－２０５Ｆ,,13,104,1600023,,,,,,,2024-01-09,1,,,,,イクトヨ,0
71,1011301029296,新規,0,2024-01-09,2024-01-09,ｐｏｍｍ株式会社,,株式会社,東京都,杉並区,下高井戸４丁目６番４号コンフォリア桜上水８０３,,13,115,1680073,,,,,,,2024-01-09,1,,,,,ポム,0
81,1011603004187,新規,0,2024-01-09,2024-01-09,合同会社レジェンド寅男,,合同会社,東京都,練馬区,東大泉１丁目３５番６号永楽ビル１Ｆ,,13,120,1780063,,,,,,,2024-01-09,1,,,,,レジェンドトラオ,0
84,1012401041380,新規,0,2024-01-09,2024-01-09,株式会社ＡＩＣＡ,,株式会社,東京都,多摩市,貝取１丁目１番地１１の２０４号室,,13,224,2060012,,,,,,,2024-01-09,1,,,,,アイカ,0
85,1012403006349,新規,0,2024-01-09,2024-01-09,合同会社アジア総合食品タイストア,,合同会社,東京都,府中市,住吉町２丁目１７‐２中河原ビル１０３,,13,206,1830034,,,,,,,2024-01-09,1,,,,,アジアソウゴウショクヒンタイストア,0
86,1012801022880,新規,0,2024-01-09,2024-01-09,株式会社Ｍ’ｓ　Ｃｏｍｐａｎｙ,,株式会社,東京都,立川市,幸町２丁目１５番地の２０,,13,202,1900002,,,,,,,2024-01-09,1,,,,,エムズカンパニー,0
96,1020001155195,新規,0,2024-01-09,2024-01-09,株式会社クレドファーマシージャパン,,株式会社,神奈川県,川崎市高津区,溝口２丁目１７番１４,,14,134,2130001,,,,,,,2024-01-09,1,,,,,クレドファーマシージャパン,0
97,1020001155212,新規,0,2024-01-09,2024-01-09,株式会社まるいち,,株式会社,神奈川県,横浜市旭区,中希望が丘１３１番地４,,14,112,2410825,,,,,,,2024-01-09,1,,,,,マルイチ,0
99,1020003025289,新規,0,2024-01-09,2024-01-09,合同会社ＳＨＵＫＡＮ,,合同会社,神奈川県,川崎市麻生区,高石６丁目２１－１,,14,137,2150003,,,,,,,2024-01-09,1,,,,,シュカン,0
112,1040001131558,新規,0,2024-01-09,2024-01-09,ＩＳＹマネジメント株式会社,,株式会社,千葉県,習志野市,鷺沼台２丁目１６番７５号,,12,216,2750015,,,,,,,2024-01-09,1,,,,,アイエスワイマネジメント,0
113,1040001131632,新規,0,2024-01-09,2024-01-09,株式会社暮住ホーム,,株式会社,千葉県,千葉市中央区,都町４丁目２３番５号,,12,101,2600001,,,,,,,2024-01-09,1,,,,,クラスホーム,0
114,1040001131649,新規,0,2024-01-09,2024-01-09,株式会社昆陽ファーム,,株式会社,千葉県,大網白里市,柿餅２７２番地２５,,12,239,2993264,,,,,,,2024-01-09,1,,,,,コンヨウファーム,0
115,1040001131657,新規,0,2024-01-09,2024-01-09,株式会社オイスターシェル,,株式会社,千葉県,流山市,南流山６丁目２０－１４－Ａ,,12,220,2700163,,,,,,,2024-01-09,1,,,,,オイスターシェル,0
116,1040001131681,新規,0,2024-01-09,2024-01-09,株式会社お祭りカンパニー,,株式会社,千葉県,浦安市,高洲６丁目２番１－２２６号ザ・パークハウス新浦安マリンヴィラ,,12,227,2790023,,,,,,,2024-01-09,1,,,,,オマツリカンパニー,0
118,1040003024058,新規,0,2024-01-09,2024-01-09,合同会社ちあきのいちご園,,合同会社,千葉県,大網白里市,南横川３４９０番地,,12,239,2993223,,,,,,,2024-01-09,1,,,,,チアキノイチゴエン,0
119,1040003024066,新規,0,2024-01-09,2024-01-09,ＮＯＩ　Ｔｅｃｈｎｏｌｏｇｉｅｓ合同会社,,合同会社,千葉県,船橋市,本町６丁目１９番９－５０１号,,12,204,2730005,,,,,,,2024-01-09,1,,,,,ノイテクノロジーズ,0
125,1070001041242,新規,0,2024-01-09,2024-01-09,吉井ホールディングス株式会社,,株式会社,群馬県,高崎市,飯塚町１６４９番地,,10,202,3700069,,,,,,,2024-01-09,1,,,,,ヨシイホールディングス,0
129,1070003005212,新規,0,2024-01-09,2024-01-09,合同会社ハイアット,,合同会社,群馬県,前橋市,東片貝町４２５番地７,,10,201,3710012,,,,,,,2024-01-09,1,,,,,ハイアット,0
133,1080101024451,新規,0,2024-01-09,2024-01-09,ＡＴＡＭＩ　ＮＥＸＴ　ＨＯＵＳＥ株式会社,,株式会社,静岡県,熱海市,下多賀２７９－６９,,22,205,4130102,,,,,,,2024-01-09,1,,,,,アタミネクストハウス,0
258,1110001038085,新規,0,2024-01-09,2024-01-09,株式会社Ｆｕ,,株式会社,新潟県,新潟市中央区,寄居町６９７番地２１コープシティ寄居１３０１号,,15,103,9518113,,,,,,,2024-01-09,1,,,,,エフユー,0
274,1120001261082,新規,0,2024-01-09,2024-01-09,株式会社家守屋,,株式会社,大阪府,大阪市城東区,鴫野西５丁目１８番６号,,27,118,5360014,,,,,,,2024-01-09,1,,,,,ヤモリヤ,0
275,1120001261108,新規,0,2024-01-09,2024-01-09,ＤＡＶＩ丹薇株式会社,,株式会社,大阪府,大阪市生野区,巽北１丁目１番１号３Ｆ－Ｃ,00133253,27,116,5440004,,,,,,,2024-01-09,1,,,,,ダヴィタンビ,0
276,1120001261124,新規,0,2024-01-09,2024-01-09,株式会社ブライトゾーン,,株式会社,大阪府,大阪市北区,本庄西３丁目６番２号ハイムリバーサイド５Ｄ,,27,127,5310073,,,,,,,2024-01-09,1,,,,,ブライトゾーン,0
277,1120001261181,新規,0,2024-01-09,2024-01-09,プラスワン株式会社,,株式会社,大阪府,大阪市生野区,田島５丁目１８番９号,,27,116,5440011,,,,,,,2024-01-09,1,,,,,プラスワン,0
280,1120005024072,新規,0,2024-01-09,2024-01-09,社会保険労務士法人なみはや事務所,,その他の設立登記法人,大阪府,大阪市西区,京町堀１丁目４番１６号,,27,106,5500003,,,,,,,2024-01-09,1,,,,,ナミハヤジムショ,0
281,1120101068824,新規,0,2024-01-09,2024-01-09,さかい検査サービス株式会社,,株式会社,大阪府,堺市南区,檜尾３０４４番地２,,27,145,5900142,,,,,,,2024-01-09,1,,,,,サカイケンササービス,0
282,1120101068832,新規,0,2024-01-09,2024-01-09,株式会社くりともなか,,株式会社,大阪府,和泉市,黒鳥町２丁目８番３６号,,27,219,5940022,,,,,,,2024-01-09,1,,,,,クリトモナカ,0
288,1120105009799,新規,0,2024-01-09,2024-01-09,南海ウイングバス労働組合,,その他の設立登記法人,大阪府,泉佐野市,日根野５６１９－２,,27,213,5980021,,,,,,,2024-01-09,1,,,,,ナンカイウイングバス,0
290,1120901048604,新規,0,2024-01-09,2024-01-09,株式会社アールテクノ,,株式会社,大阪府,茨木市,井口台１４番３号,,27,211,5670076,,,,,,,2024-01-09,1,,,,,アールテクノ,0
291,1120903004992,新規,0,2024-01-09,2024-01-09,ＳＷＩＴＣＨ　ＭＯＶＥ合同会社,,合同会社,大阪府,吹田市,江の木町１２－２２,,27,205,5640053,,,,,,,2024-01-09,1,,,,,スイッチムーブ,0
301,1130005016969,新規,0,2024-01-09,2024-01-09,特定非営利活動法人ティー企画,,その他の設立登記法人,京都府,京都市右京区,太秦多藪町１４番地２４,,26,108,6168167,,,,,,,2024-01-09,1,,,,,ティーキカク,0
302,1140001132918,新規,0,2024-01-09,2024-01-09,株式会社ミライツナグ,,株式会社,兵庫県,神戸市北区,上津台５丁目６－２８,,28,109,6511515,,,,,,,2024-01-09,1,,,,,ミライツナグ,0
304,1140003020006,新規,0,2024-01-09,2024-01-09,ＫＬ　Ｔｅｃｈｎｏｌｏｇｉｅｓ合同会社,,合同会社,兵庫県,芦屋市,親王塚町６番１３号,,28,206,6590016,,,,,,,2024-01-09,1,,,,,ケイエルテクノロジーズ,0
306,1150001026978,新規,0,2024-01-09,2024-01-09,富士フイルムＢＩ奈良株式会社,,株式会社,奈良県,奈良市,大宮町１丁目１番１５号,,29,201,6308115,,,,,,,2024-01-09,1,,,,,フジフイルムビーアイナラ,0
307,1160003003082,新規,0,2024-01-09,2024-01-09,合同会社サンワワークス,,合同会社,滋賀県,守山市,水保町１５４１番地,,25,207,5240102,,,,,,,2024-01-09,1,,,,,サンワワークス,0
310,1180001159610,新規,0,2024-01-09,2024-01-09,うちだ・Ｄ株式会社,,株式会社,愛知県,名古屋市中区,栄４丁目７番２４号栄デザインビル４階,,23,106,4600008,,,,,,,2024-01-09,1,,,,,ウチダディー,0
314,1180003026180,新規,0,2024-01-09,2024-01-09,合同会社ＫＳ＆Ｙインベストメント,,合同会社,愛知県,瀬戸市,菱野町２０３番地,,23,204,4890934,,,,,,,2024-01-09,1,,,,,ケーエスアンドワイインベストメント,0
318,1180301038183,新規,0,2024-01-09,2024-01-09,株式会社Ｒｉｃｃａ,,株式会社,愛知県,豊田市,陣中町１丁目１番地５エルミ梅坪１０１,,23,211,4710079,,,,,,,2024-01-09,1,,,,,リッカ,0
319,1180301038191,新規,0,2024-01-09,2024-01-09,株式会社ｔｒａｖｉｓ,,株式会社,愛知県,豊田市,平戸橋町馬場瀬３９番地２０８,,23,211,4700331,,,,,,,2024-01-09,1,,,,,トラヴィス,0
320,1180301038209,新規,0,2024-01-09,2024-01-09,株式会社ＴＳＬ,,株式会社,愛知県,安城市,住吉町荒曽根２８番地２２,,23,212,4460072,,,,,,,2024-01-09,1,,,,,ティーエスエル,0
321,1180303005966,新規,0,2024-01-09,2024-01-09,豊橋植田ＥＤＵ合同会社,,合同会社,愛知県,豊橋市,植田町字清水山５２番地の１,,23,201,4418134,,,,,,,2024-01-09,1,,,,,トヨハシウエタエデュ,0
322,1200001042045,新規,0,2024-01-09,2024-01-09,株式会社ＨＡＮＤ．ｃｏ,,株式会社,岐阜県,多治見市,太平町６丁目１０８番地１ヤマカコンフィデンス１０２,,21,204,5070041,,,,,,,2024-01-09,1,,,,,ハンド,0
326,1220003003654,新規,0,2024-01-09,2024-01-09,合同会社エイチオーワーク,,合同会社,石川県,河北郡津幡町,字能瀬ワ６１番地１３号,,17,361,9290319,,,,,,,2024-01-09,1,,,,,エイチオーワーク,0
327,1230003002127,新規,0,2024-01-09,2024-01-09,合同会社Ｇｒｅｎｚｅ,,合同会社,富山県,高岡市,羽広１３４番地８,,16,202,9330844,,,,,,,2024-01-09,1,,,,,グレンツェ,0
330,1240001062634,新規,0,2024-01-09,2024-01-09,カズミ株式会社,,株式会社,広島県,広島市中区,上幟町１０番２４号上幟町ビル１０２,,34,101,7300014,,,,,,,2024-01-09,1,,,,,カズミ,0
331,1240003006481,新規,0,2024-01-09,2024-01-09,宮島ゲストハウス三國屋合同会社,,合同会社,広島県,廿日市市,宮島町３２７番地,,34,213,7390588,,,,,,,2024-01-09,1,,,,,ミヤジマゲストハウスミクニヤ,0
338,1290001104266,新規,0,2024-01-09,2024-01-09,山水株式会社,,株式会社,福岡県,福岡市中央区,六本松２丁目１２番８－８０５号,,40,133,8100044,,,,,,,2024-01-09,1,,,,,,0
339,1290001104299,新規,0,2024-01-09,2024-01-09,株式会社Ｇａｒｄｅｎｉａ,,株式会社,福岡県,福岡市中央区,舞鶴１丁目８－３５Ｖｏｇｕｅ舞鶴２－７０１,,40,133,8100073,,,,,,,2024-01-09,1,,,,,ガーデニア,0
340,1290001104332,新規,0,2024-01-09,2024-01-09,株式会社とうせい,,株式会社,福岡県,福岡市博多区,千代２丁目５番８号,,40,132,8120044,,,,,,,2024-01-09,1,,,,,トウセイ,0
341,1290003014819,新規,0,2024-01-09,2024-01-09,合同会社チェルシー,,合同会社,福岡県,福岡市博多区,博多駅前１丁目２３番２号ＰａｒｋＦｒｏｎｔ博多駅前１丁目５Ｆ－Ｂ,,40,132,8120011,,,,,,,2024-01-09,1,,,,,チェルシー,0
342,1290003014827,新規,0,2024-01-09,2024-01-09,合同会社Ｕｎｉｖｅｒｓａｌ　Ｄｅｓｉｇｎ,,合同会社,福岡県,那珂川市,大字安徳６９１番地６,,40,231,8111224,,,,,,,2024-01-09,1,,,,,ユニバーサルデザイン,0
343,1290005019246,新規,0,2024-01-09,2024-01-09,医療法人ＭＮＪ,,その他の設立登記法人,福岡県,小郡市,美鈴の杜１丁目１番１号,,40,216,8380108,,,,,,,2024-01-09,1,,,,,エムエヌジェイ,0
348,1310001018777,新規,0,2024-01-09,2024-01-09,株式会社ＲＭ,,株式会社,長崎県,東彼杵郡川棚町,新谷郷１２５８番地２２コーポ清明Ｄ,,42,322,8593619,,,,,,,2024-01-09,1,,,,,アールエム,0
355,1340003004343,新規,0,2024-01-09,2024-01-09,合同会社垣内ブロイラー,,合同会社,鹿児島県,出水市,黄金町２１７番地,,46,208,8990125,,,,,,,2024-01-09,1,,,,,カキウチブロイラー,0
356,1350001018740,新規,0,2024-01-09,2024-01-09,株式会社Ｐａｓｓｉｏｎｅ,,株式会社,宮崎県,児湯郡川南町,大字川南７０６４番地２,,45,405,8891301,,,,,,,2024-01-09,1,,,,,パッショーネ,0
357,1360001033045,新規,0,2024-01-09,2024-01-09,株式会社大竹ＰＬＡＮＮＩＮＧ,,株式会社,沖縄県,那覇市,真嘉比３丁目３番１６号ネクスコート若夏１０１,,47,201,9020068,,,,,,,2024-01-09,1,,,,,オオタケプランニング,0
358,1360005006971,新規,0,2024-01-09,2024-01-09,司法書士法人あさと事務所,,その他の設立登記法人,沖縄県,中頭郡北谷町,桑江１丁目７番１５号,,47,326,9040103,,,,,,,2024-01-09,1,,,,,アサトジムショ,0
363,1380001034231,新規,0,2024-01-09,2024-01-09,株式会社野崎防災,,株式会社,福島県,会津若松市,門田町大字日吉字丑渕５８番地の９,,07,202,9650841,,,,,,,2024-01-09,1,,,,,ノザキボウサイ,0
366,1390001017466,新規,0,2024-01-09,2024-01-09,相澤建設株式会社,,株式会社,山形県,鶴岡市,三光町５番３５号,,06,203,9970821,,,,,,,2024-01-09,1,,,,,アイサワケンセツ,0
367,1400003003198,新規,0,2024-01-09,2024-01-09,ＦＫ工業合同会社,,合同会社,岩手県,遠野市,青笹町青笹４地割１２８番地１２,,03,208,0280503,,,,,,,2024-01-09,1,,,,,エフケーコウギョウ,0
377,1450001014192,新規,0,2024-01-09,2024-01-09,株式会社若園工務店,,株式会社,北海道,上川郡下川町,南町３６１番地,,01,468,0981204,,,,,,,2024-01-09,1,,,,,ワカゾノコウムテン,0
378,1450003002427,新規,0,2024-01-09,2024-01-09,合同会社横石牧場,,合同会社,北海道,紋別郡雄武町,字南雄武９０１番地の３０,,01,563,0981705,,,,,,,2024-01-09,1,,,,,ヨコイシボクジョウ,0
380,1460303000807,新規,0,2024-01-09,2024-01-09,ロイヤルワールドマジック合同会社,,合同会社,北海道,北見市,大通東５丁目５番地１,,01,208,0900020,,,,,,,2024-01-09,1,,,,,ロイヤルワールドマジック,0
384,1470001019966,新規,0,2024-01-09,2024-01-09,スリーアドバンス株式会社,,株式会社,香川県,高松市,西町７番１４号,,37,201,7600003,,,,,,,2024-01-09,1,,,,,スリーアドバンス,0
385,1470003002549,新規,0,2024-01-09,2024-01-09,合同会社くりっぷ,,合同会社,香川県,善通寺市,金蔵寺町１０５１番地１,,37,204,7650031,,,,,,,2024-01-09,1,,,,,クリップ,0
389,1480001012342,新規,0,2024-01-09,2024-01-09,株式会社ＴＡＭＡＴＥＢＯＸ,,株式会社,徳島県,三好市,池田町ウヱノ３１５６番地１,,36,208,7780001,,,,,,,2024-01-09,1,,,,,タマテボックス,0
410,2010001240971,新規,0,2024-01-09,2024-01-09,株式会社ＢｌｏｏｍＳｋｙ,,株式会社,東京都,中央区,銀座１丁目１２－４Ｎ＆ＥＢＬＤ．７階,,13,102,1040061,,,,,,,2024-01-09,1,,,,,ブルームスカイ,0
411,2010001241326,新規,0,2024-01-09,2024-01-09,イーバックジャパン株式会社,,株式会社,東京都,中央区,日本橋兜町５番１号兜町第１平和ビル３階,,13,102,1030026,,,,,,,2024-01-09,1,,,,,イーバックジャパン,0
424,2010401179587,新規,0,2024-01-09,2024-01-09,株式会社ＧＲＡＶＩＴＹ,,株式会社,東京都,港区,芝浦４丁目１０番１号８１２号室,,13,103,1080023,,,,,,,2024-01-09,1,,,,,グラビティ,0
430,2010503007290,新規,0,2024-01-09,2024-01-09,柳恵キングハイツ合同会社,,合同会社,東京都,台東区,駒形１丁目７番６号,,13,106,1110043,,,,,,,2024-01-09,1,,,,,リュウケイキングハイツ,0
431,2010601064432,新規,0,2024-01-09,2024-01-09,株式会社Ｒａｉｚｅ,,株式会社,東京都,墨田区,石原４丁目１６－５ジェノヴィア錦糸町スカイガーデン２－２０７号,,13,107,1300011,,,,,,,2024-01-09,1,,,,,レイズ,0
432,2010603010566,新規,0,2024-01-09,2024-01-09,合同会社Ａ　ＳＴＡＧＥ,,合同会社,東京都,江東区,東陽３丁目２７番２５－４０４号,,13,108,1350016,,,,,,,2024-01-09,1,,,,,エーステージ,0
433,2010701045349,新規,0,2024-01-09,2024-01-09,ＭＡＳＡＮＩ株式会社,,株式会社,東京都,品川区,東五反田１丁目２５番１９－３１１号,,13,109,1410022,,,,,,,2024-01-09,1,,,,,マサニ,0
434,2010801034664,新規,0,2024-01-09,2024-01-09,株式会社ＧＲＯＷ　ＵＰ,,株式会社,東京都,大田区,南六郷３丁目１８番１号アミティ南六郷６０８,,13,111,1440045,,,,,,,2024-01-09,1,,,,,グローアップ,0
440,2010903008681,新規,0,2024-01-09,2024-01-09,合同会社ラクダス,,合同会社,東京都,世田谷区,代沢４丁目２－３,,13,112,1550032,,,,,,,2024-01-09,1,,,,,ラクダス,0
441,2010903008707,新規,0,2024-01-09,2024-01-09,合同会社ＭＫＮ,,合同会社,東京都,世田谷区,東玉川１丁目２４番２号,,13,112,1580084,,,,,,,2024-01-09,1,,,,,エムケーエム,0
445,2011001159112,新規,0,2024-01-09,2024-01-09,秋霜堂株式会社,,株式会社,東京都,渋谷区,渋谷２丁目１９－１５宮益坂ビルディング６０９,,13,113,1500002,,,,,,,2024-01-09,1,,,,,シュウソウドウ,0
446,2011001159129,新規,0,2024-01-09,2024-01-09,株式会社ＳｕｎＮｉｎｅ,,株式会社,東京都,渋谷区,道玄坂１丁目１０番８号渋谷道玄坂東急ビル２Ｆ－Ｃ,,13,113,1500043,,,,,,,2024-01-09,1,,,,,サンナイン,0
447,2011001159194,新規,0,2024-01-09,2024-01-09,Ａ．Ｙ．ＡＪＡＰＡＮ株式会社,,株式会社,東京都,渋谷区,広尾１丁目７番１７－４０１号,,13,113,1500012,,,,,,,2024-01-09,1,,,,,エイワイエイジャパン,0
448,2011001159211,新規,0,2024-01-09,2024-01-09,株式会社ＤＧコマース,,株式会社,東京都,渋谷区,恵比寿南３丁目５番７号,,13,113,1500022,,,,,,,2024-01-09,1,,,,,ディージーコマース,0
449,2011001159252,新規,0,2024-01-09,2024-01-09,ＡＭＰＨＩＣＯ　ＪＡＰＡＮ株式会社,,株式会社,東京都,渋谷区,道玄坂１丁目１０番８号渋谷道玄坂東急ビル２Ｆ－Ｃ,,13,113,1500043,,,,,,,2024-01-09,1,,,,,アンフィコジャパン,0
450,2011001159269,新規,0,2024-01-09,2024-01-09,株式会社うぇぶぱーく,,株式会社,東京都,渋谷区,神宮前６丁目２３番４号,,13,113,1500001,,,,,,,2024-01-09,1,,,,,ウェブパーク,0
451,2011003018225,新規,0,2024-01-09,2024-01-09,Ｆｉｎａｌ　Ｃｏｎｃｅｐｔ合同会社,,合同会社,東京都,渋谷区,恵比寿南３丁目１番１号,,13,113,1500022,,,,,,,2024-01-09,1,,,,,ファイナルコンセプト,0
458,2011201025139,新規,0,2024-01-09,2024-01-09,Ｒｂｉｚ株式会社,,株式会社,東京都,中野区,中央５丁目３４番２号Ｌｅｍａｎ．Ｎ１０２,,13,114,1640011,,,,,,,2024-01-09,1,,,,,リビズ,0
467,2011601027429,新規,0,2024-01-09,2024-01-09,株式会社ＭＡＲＲＯＮ　ＭＯＵＮＴＡＩＮ,,株式会社,東京都,練馬区,田柄４丁目４２番５号シエルズガーデンＡ－３,,13,120,1790073,,,,,,,2024-01-09,1,,,,,マロンマウンテン,0
468,2011601027437,新規,0,2024-01-09,2024-01-09,株式会社ＳＩＧＬＡ,,株式会社,東京都,練馬区,貫井３丁目２６番１０号,,13,120,1760021,,,,,,,2024-01-09,1,,,,,シグラ,0
471,2012801022888,新規,0,2024-01-09,2024-01-09,株式会社Ｚ　ＪＡＰＡＮ,,株式会社,東京都,東大和市,清水１丁目７６２番地の１４,,13,220,2070004,,,,,,,2024-01-09,1,,,,,ゼットジャパン,0
473,2012803003275,新規,0,2024-01-09,2024-01-09,ＤＥＬＩＧＨＴ合同会社,,合同会社,東京都,立川市,西砂町１丁目４５番地の２パールハウス１０６号,,13,202,1900034,,,,,,,2024-01-09,1,,,,,ディライト,0
479,2020001155178,新規,0,2024-01-09,2024-01-09,株式会社明宅,,株式会社,神奈川県,横浜市栄区,笠間３丁目４５番Ｋ－７０７号,,14,115,2470006,,,,,,,2024-01-09,1,,,,,メイタク,0
480,2020001155186,新規,0,2024-01-09,2024-01-09,株式会社正しさより楽しさ,,株式会社,神奈川県,横浜市西区,桜木町６丁目３２番地フェルモ横浜桜木町５０２号,,14,103,2200021,,,,,,,2024-01-09,1,,,,,タダシサヨリタノシサ,0
483,2021001081125,新規,0,2024-01-09,2024-01-09,アセットトラスト株式会社,,株式会社,神奈川県,相模原市中央区,千代田４丁目１２番４号,,14,152,2520237,,,,,,,2024-01-09,1,,,,,アセットトラスト,0
493,2030001157999,新規,0,2024-01-09,2024-01-09,株式会社Ｊｕｎｏｓ　Ｈｏｐｅ,,株式会社,埼玉県,秩父市,黒谷４５１－６,,11,207,3680001,,,,,,,2024-01-09,1,,,,,ジュノスホープ,0
494,2030001158023,新規,0,2024-01-09,2024-01-09,株式会社翔運,,株式会社,埼玉県,川口市,上青木１丁目１９番６－３０２号,,11,203,3330844,,,,,,,2024-01-09,1,,,,,,0
497,2030003023332,新規,0,2024-01-09,2024-01-09,合同会社山装,,合同会社,埼玉県,富士見市,山室２丁目７番２４号,,11,235,3540022,,,,,,,2024-01-09,1,,,,,ヤマソウ,0
498,2030003023349,新規,0,2024-01-09,2024-01-09,合同会社ＲＣＭ,,合同会社,埼玉県,越谷市,大字大里３９８‐１ミオカステーロ北越谷５１１,,11,222,3430031,,,,,,,2024-01-09,1,,,,,アールシーエム,0
499,2030003023357,新規,0,2024-01-09,2024-01-09,興潤商事合同会社,,合同会社,埼玉県,蕨市,錦町２丁目８番２４号,,11,223,3350005,,,,,,,2024-01-09,1,,,,,コウジュンショウジ,0
506,2040001131573,新規,0,2024-01-09,2024-01-09,株式会社ルレーヴ,,株式会社,千葉県,浦安市,今川１丁目１１番５６号,,12,227,2790022,,,,,,,2024-01-09,1,,,,,ルレーヴ,0
507,2040001131680,新規,0,2024-01-09,2024-01-09,株式会社アキテック,,株式会社,千葉県,市川市,北国分３丁目１８番１０号,,12,203,2720836,,,,,,,2024-01-09,1,,,,,アキテック,0
511,2040003023983,新規,0,2024-01-09,2024-01-09,合同会社イロドリ,,合同会社,千葉県,浦安市,弁天２丁目１－１ライオンズガーデン新浦安８０１,,12,227,2790026,,,,,,,2024-01-09,1,,,,,イロドリ,0
512,2040003024040,新規,0,2024-01-09,2024-01-09,壹帆合同会社,,合同会社,千葉県,富里市,十倉１１８番地３３,,12,233,2860212,,,,,,,2024-01-09,1,,,,,イーハン,0
520,2060001036705,新規,0,2024-01-09,2024-01-09,株式会社マルサン,,株式会社,栃木県,宇都宮市,下岡本町１９４８番地１８,,09,201,3291104,,,,,,,2024-01-09,1,,,,,マルサン,0
522,2080101024442,新規,0,2024-01-09,2024-01-09,株式会社Ｍｉｎｅｒｖａ　Ｊａｐａｎ,,株式会社,静岡県,富士市,中里２４７番地２７号,,22,210,4170826,,,,,,,2024-01-09,1,,,,,ミネルヴァジャパン,0
644,2090003002462,新規,0,2024-01-09,2024-01-09,合同会社Ｙクラフト,,合同会社,山梨県,南アルプス市,鏡中條４００番地９,,19,208,4000332,,,,,,,2024-01-09,1,,,,,ワイクラフト,0
661,2120001260793,新規,0,2024-01-09,2024-01-09,ＭＡＧＮＥＫＯ株式会社,,株式会社,大阪府,大阪市都島区,片町２丁目５番６－３０６号,,27,102,5340025,,,,,,,2024-01-09,1,,,,,マグネコ,0
662,2120001261107,新規,0,2024-01-09,2024-01-09,元哲株式会社,,株式会社,大阪府,大阪市東住吉区,湯里５丁目１６番地５号３Ｆ－Ｇ,,27,121,5460013,,,,,,,2024-01-09,1,,,,,ゲンテツ,0
663,2120001261131,新規,0,2024-01-09,2024-01-09,株式会社トリトン,,株式会社,大阪府,大阪市中央区,南船場４丁目１０番５号南船場ＳＯＨＯビル７０２,,27,128,5420081,,,,,,,2024-01-09,1,,,,,トリトン,0
664,2120001261164,新規,0,2024-01-09,2024-01-09,株式会社Ｋ．Ｐ．Ｃ,,株式会社,大阪府,交野市,郡津４丁目３９番１０号,,27,230,5760053,,,,,,,2024-01-09,1,,,,,ケイピーシー,0
665,2120001261180,新規,0,2024-01-09,2024-01-09,株式会社ウォームフォレスト,,株式会社,大阪府,枚方市,松丘町４５－２１,,27,210,5730012,,,,,,,2024-01-09,1,,,,,ウォームフォレスト,0
670,2120101068823,新規,0,2024-01-09,2024-01-09,株式会社福本通信工業,,株式会社,大阪府,富田林市,寿町３丁目２番１４号（１０５）,,27,214,5840031,,,,,,,2024-01-09,1,,,,,フクモトツウシンコウギョウ,0
671,2120101068831,新規,0,2024-01-09,2024-01-09,株式会社ＳＡＳ,,株式会社,大阪府,堺市堺区,翁橋町１丁８番６号アークスリー１３０３,,27,141,5900061,,,,,,,2024-01-09,1,,,,,エスエーエス,0
677,2130001076074,新規,0,2024-01-09,2024-01-09,株式会社アイアード,,株式会社,京都府,京都市中京区,丸太町油小路西入丸太町２０番３,,26,104,6040077,,,,,,,2024-01-09,1,,,,,アイアード,0
687,2140001132909,新規,0,2024-01-09,2024-01-09,株式会社泉田保険事務所,,株式会社,兵庫県,高砂市,荒井町日之出町２番１０号,,28,216,6760014,,,,,,,2024-01-09,1,,,,,イズミダホケンジムショ,0
688,2140001132917,新規,0,2024-01-09,2024-01-09,株式会社エスタドーレ,,株式会社,兵庫県,西宮市,川東町３番２３号１０１号室,,28,204,6620945,,,,,,,2024-01-09,1,,,,,エスタドーレ,0
692,2140003020005,新規,0,2024-01-09,2024-01-09,合同会社コトブキ,,合同会社,兵庫県,神戸市垂水区,舞多聞東２丁目５番５号,,28,108,6550052,,,,,,,2024-01-09,1,,,,,コトブキ,0
693,2140003020013,新規,0,2024-01-09,2024-01-09,Ｙ．Ｓ．ロジスティクス合同会社,,合同会社,兵庫県,加古川市,別府町西脇３丁目７９,,28,210,6750125,,,,,,,2024-01-09,1,,,,,ワイエスロジステイクス,0
695,2150001026977,新規,0,2024-01-09,2024-01-09,株式会社ベンチャーオートＷＩＮＧ,,株式会社,奈良県,天理市,庵治町３５６番地１,,29,204,6320086,,,,,,,2024-01-09,1,,,,,ベンチャーオートウイング,0
699,2160001025615,新規,0,2024-01-09,2024-01-09,株式会社ゲインテクノロジー,,株式会社,滋賀県,長浜市,西上坂町１７４番地,,25,203,5260803,,,,,,,2024-01-09,1,,,,,ゲインテクノロジー,0
705,2180001159543,新規,0,2024-01-09,2024-01-09,フリージア株式会社,,株式会社,愛知県,名古屋市守山区,桜坂２丁目１５１６番地,,23,113,4630018,,,,,,,2024-01-09,1,,,,,フリージア,0
706,2180001159634,新規,0,2024-01-09,2024-01-09,ＫＭＪ株式会社,,株式会社,愛知県,名古屋市中区,錦２丁目７番７号,,23,106,4600003,,,,,,,2024-01-09,1,,,,,ケイエムジェイ,0
710,2180003026205,新規,0,2024-01-09,2024-01-09,ＪｕｍｐＩｎ合同会社,,合同会社,愛知県,名古屋市名東区,貴船２丁目３１２,,23,115,4650058,,,,,,,2024-01-09,1,,,,,ジャンピン,0
711,2180301038190,新規,0,2024-01-09,2024-01-09,エヌスタイルズ株式会社,,株式会社,愛知県,安城市,桜井町西町上２９番地,,23,212,4441154,,,,,,,2024-01-09,1,,,,,エヌスタイルズ,0
713,2200001042028,新規,0,2024-01-09,2024-01-09,株式会社スターグローリー,,株式会社,岐阜県,岐阜市,茜部菱野２丁目５４番地ライオンズガーデン岐阜茜部１１０３,,21,201,5008268,,,,,,,2024-01-09,1,,,,,スターグローリー,0
723,2240001062617,新規,0,2024-01-09,2024-01-09,株式会社カワシマ住建,,株式会社,広島県,呉市,焼山北３丁目３０番５８号,,34,202,7370911,,,,,,,2024-01-09,1,,,,,カワシマジュウケン,0
724,2240003006480,新規,0,2024-01-09,2024-01-09,合同会社Ｂａｍｂｉ,,合同会社,広島県,東広島市,高屋高美が丘１丁目１６番２号,,34,212,7392115,,,,,,,2024-01-09,1,,,,,バンビ,0
726,2250001020458,新規,0,2024-01-09,2024-01-09,下関紙加工株式会社,,株式会社,山口県,下関市,小月南町１番１３号,,35,201,7501137,,,,,,,2024-01-09,1,,,,,シモノセキカミカコウ,0
727,2250001020466,新規,0,2024-01-09,2024-01-09,株式会社ＮＩＣＡ,,株式会社,山口県,下関市,長府紺屋町５番２４－３０５号,,35,201,7520968,,,,,,,2024-01-09,1,,,,,ニカ,0
741,2290001104240,新規,0,2024-01-09,2024-01-09,株式会社ＢＵＤＤＹ,,株式会社,福岡県,久留米市,高良内町２７６９番地１５,,40,203,8390852,,,,,,,2024-01-09,1,,,,,バディ,0
742,2290001104273,新規,0,2024-01-09,2024-01-09,株式会社パルス設備企画,,株式会社,福岡県,福岡市博多区,那珂３丁目２７番２７号,,40,132,8120893,,,,,,,2024-01-09,1,,,,,パルスセツビキカク,0
744,2300001013588,新規,0,2024-01-09,2024-01-09,株式会社百崎工作所,,株式会社,佐賀県,杵島郡江北町,大字惣領分３６６４番地２,,41,424,8490503,,,,,,,2024-01-09,1,,,,,モモサキコウサクショ,0
745,2310001018784,新規,0,2024-01-09,2024-01-09,株式会社ＰＲｉＤＥＣＴ,,株式会社,長崎県,長崎市,川原町２０１番地４,,42,201,8510407,,,,,,,2024-01-09,1,,,,,プライディクト,0
747,2310003004709,新規,0,2024-01-09,2024-01-09,ＡＳＩＣＫ　ＣＲＥＡＴＥ合同会社,,合同会社,長崎県,長崎市,布巻町１２３番地６,,42,201,8510403,,,,,,,2024-01-09,1,,,,,アシッククリエイト,0
752,2330001031620,新規,0,2024-01-09,2024-01-09,ＴＯＫＯエイブルエナジー株式会社,,株式会社,熊本県,熊本市中央区,本荘５丁目１４番１８号,,43,101,8600811,,,,,,,2024-01-09,1,,,,,トウコウエイブルエナジー,0
755,2340001026198,新規,0,2024-01-09,2024-01-09,株式会社鳶島組,,株式会社,鹿児島県,奄美市,名瀬大熊町３４番地２４,,46,222,8940009,,,,,,,2024-01-09,1,,,,,トビシマグミ,0
756,2360001033036,新規,0,2024-01-09,2024-01-09,Ｕｋａ株式会社,,株式会社,沖縄県,沖縄市,園田３丁目１２－１８,,47,211,9040022,,,,,,,2024-01-09,1,,,,,ウカ,0
758,2360003013589,新規,0,2024-01-09,2024-01-09,カーツコーポレーション合同会社,,合同会社,沖縄県,名護市,字我部９６番地,,47,209,9051633,,,,,,,2024-01-09,1,,,,,カーツコーポレーション,0
759,2380001034222,新規,0,2024-01-09,2024-01-09,株式会社福島スクールランチ,,株式会社,福島県,福島市,大町７番２５号,,07,201,9608041,,,,,,,2024-01-09,1,,,,,フクシマスクールランチ,0
760,2380001034230,新規,0,2024-01-09,2024-01-09,株式会社Ｎｅｏ,,株式会社,福島県,会津若松市,河東町広田字広田１１７番地１,,07,202,9693471,,,,,,,2024-01-09,1,,,,,ネオ,0
762,2390001017465,新規,0,2024-01-09,2024-01-09,株式会社ＡＦＹ,,株式会社,山形県,米沢市,大字上新田４５４番地の１,,06,202,9920118,,,,,,,2024-01-09,1,,,,,エイエフワイ,0
763,2390001017473,新規,0,2024-01-09,2024-01-09,株式会社ダイヤ塗装,,株式会社,山形県,山形市,瀬波１丁目４番２２－１０２号,,06,201,9900881,,,,,,,2024-01-09,1,,,,,ダイヤトソウ,0
764,2400003003197,新規,0,2024-01-09,2024-01-09,合同会社サンプラス,,合同会社,岩手県,盛岡市,上堂３丁目９番１２号,,03,201,0200125,,,,,,,2024-01-09,1,,,,,サンプラス,0
788,3010001241127,新規,0,2024-01-09,2024-01-09,アージング・マテリアル株式会社,,株式会社,東京都,中央区,日本橋堀留町２丁目８番４号,,13,102,1030012,,,,,,,2024-01-09,1,,,,,アージングマテリアル,0
789,3010001241218,新規,0,2024-01-09,2024-01-09,ＨＡＫＯＰＯＮ株式会社,,株式会社,東京都,千代田区,神田松永町２２番地たか庄ビル１階,,13,101,1010023,,,,,,,2024-01-09,1,,,,,ハコポン,0
790,3010001241250,新規,0,2024-01-09,2024-01-09,株式会社双和通商,,株式会社,東京都,文京区,向丘１丁目１７番５号,,13,105,1130023,,,,,,,2024-01-09,1,,,,,ソウワツウショウ,0
791,3010001241267,新規,0,2024-01-09,2024-01-09,株式会社リタ,,株式会社,東京都,中央区,日本橋室町１丁目１１番１２号日本橋水野ビル７階,,13,102,1030022,,,,,,,2024-01-09,1,,,,,リタ,0
792,3010001241283,新規,0,2024-01-09,2024-01-09,テックマインド株式会社,,株式会社,東京都,千代田区,神田岩本町１５－１ＣＹＫ神田岩本町Ｂ１Ｆ－Ｃ－１１,,13,101,1010033,,,,,,,2024-01-09,1,,,,,テックマインド,0
793,3010001241309,新規,0,2024-01-09,2024-01-09,株式会社ビナクルマネジメント,,株式会社,東京都,中央区,湊２丁目１１番１－３１０号,,13,102,1040043,,,,,,,2024-01-09,1,,,,,ビナクルマネジメント,0
794,3010001241317,新規,0,2024-01-09,2024-01-09,アクローブ３号株式会社,,株式会社,東京都,千代田区,麹町６丁目６番地２,,13,101,1020083,,,,,,,2024-01-09,1,,,,,アクローブサンゴウ,0
795,3010001241325,新規,0,2024-01-09,2024-01-09,ＮＸエンジニアリング株式会社,,株式会社,東京都,千代田区,神田和泉町２番地,,13,101,1010024,,,,,,,2024-01-09,1,,,,,エヌエックスエンジニアリング,0
798,3010003042614,新規,0,2024-01-09,2024-01-09,合同会社鮨竹,,合同会社,東京都,中央区,銀座７丁目６－５石井紀州屋ビル４Ｆ,,13,102,1040061,,,,,,,2024-01-09,1,,,,,スシタケ,0
809,3010401179520,新規,0,2024-01-09,2024-01-09,株式会社インフィールド,,株式会社,東京都,港区,南青山７丁目１－５＆ＣＬＭ－ＢＤ－０２,,13,103,1070062,,,,,,,2024-01-09,1,,,,,インフィールド,0
810,3010401179537,新規,0,2024-01-09,2024-01-09,マーマレード株式会社,,株式会社,東京都,港区,元赤坂１丁目１番７－８０７号,,13,103,1070051,,,,,,,2024-01-09,1,,,,,マーマレード,0
813,3010403031679,新規,0,2024-01-09,2024-01-09,合同会社Ｓａｋｕｒａ　Ｇｌｏｂａｌ,,合同会社,東京都,港区,三田１丁目６番３－３３０１号,,13,103,1080073,,,,,,,2024-01-09,1,,,,,サクラグローバル,0
814,3010405022800,新規,0,2024-01-09,2024-01-09,一般社団法人ＳＨＥ,,その他の設立登記法人,東京都,港区,西麻布４丁目５番１０－３１１号,,13,103,1060031,,,,,,,2024-01-09,1,,,,,シィ,0
815,3010405022817,新規,0,2024-01-09,2024-01-09,特定非営利活動法人ＰＥＡＣＥ　ＤＡＹ,,その他の設立登記法人,東京都,港区,港南４丁目６番１－３９０１号,,13,103,1080075,,,,,,,2024-01-09,1,,,,,ピースデイ,0
816,3010501051587,新規,0,2024-01-09,2024-01-09,株式会社ＲＯＬＹ‐ＰＯＬＹ,,株式会社,東京都,台東区,蔵前１丁目１番１－４０４号,,13,106,1110051,,,,,,,2024-01-09,1,,,,,ローリーポーリー,0
817,3010501051595,新規,0,2024-01-09,2024-01-09,株式会社Ａ．Ｄ．Ｄ．Ｉ．Ｃ．Ｔ,,株式会社,東京都,台東区,北上野１丁目９番３号クサノビル１Ｆ,,13,106,1100014,,,,,,,2024-01-09,1,,,,,アディクト,0
820,3010701045356,新規,0,2024-01-09,2024-01-09,ＭＨパートナーズ株式会社,,株式会社,東京都,品川区,荏原２丁目１６－２８,,13,109,1420063,,,,,,,2024-01-09,1,,,,,エムエイチパートナーズ,0
821,3010703007008,新規,0,2024-01-09,2024-01-09,マチュアライフキャリア合同会社,,合同会社,東京都,品川区,勝島１丁目３番７－１８１９号,,13,109,1400012,,,,,,,2024-01-09,1,,,,,マチュアライフキャリア,0
830,3011001159227,新規,0,2024-01-09,2024-01-09,株式会社２Ｓｍｙ,,株式会社,東京都,渋谷区,道玄坂１丁目１０番８号渋谷道玄坂東急ビル２Ｆ－Ｃ,,13,113,1500043,,,,,,,2024-01-09,1,,,,,トゥーエスミー,0
831,3011001159235,新規,0,2024-01-09,2024-01-09,株式会社ウッドランド,,株式会社,東京都,渋谷区,恵比寿南２丁目１９番７号ＶＯＲＴ恵比寿Ｄｕａｌ’ｓ２０９号,,13,113,1500022,,,,,,,2024-01-09,1,,,,,ウッドランド,0
832,3011001159243,新規,0,2024-01-09,2024-01-09,株式会社北斗会,,株式会社,東京都,目黒区,目黒１丁目２４番９－５０８号,,13,110,1530063,,,,,,,2024-01-09,1,,,,,ホクトカイ,0
833,3011001159251,新規,0,2024-01-09,2024-01-09,株式会社ＯＮＥ’ｓ　ＳＥＣＯＮＤ,,株式会社,東京都,渋谷区,代々木３丁目３３－１０、３０３,,13,113,1510053,,,,,,,2024-01-09,1,,,,,,0
836,3011003018240,新規,0,2024-01-09,2024-01-09,合同会社三陽,,合同会社,東京都,目黒区,柿の木坂１丁目２０番１７号クレードルパレス柿の木坂２０４号,,13,110,1520022,,,,,,,2024-01-09,1,,,,,サンヨー,0
837,3011005010328,新規,0,2024-01-09,2024-01-09,一般社団法人バスケットボールスキルコーチングアカデミー,,その他の設立登記法人,東京都,渋谷区,幡ヶ谷３丁目６９－２,,13,113,1510072,,,,,,,2024-01-09,1,,,,,バスケットボールスキルコーチングアカデミー,0
841,3011301029294,新規,0,2024-01-09,2024-01-09,株式会社ＲＵＩ,,株式会社,東京都,杉並区,下井草５丁目９－９,,13,115,1670022,,,,,,,2024-01-09,1,,,,,ルイ,0
849,3011701026899,新規,0,2024-01-09,2024-01-09,株式会社伊雅,,株式会社,東京都,江戸川区,平井３丁目１２－７,,13,123,1320035,,,,,,,2024-01-09,1,,,,,イガ,0
855,3013301051872,新規,0,2024-01-09,2024-01-09,正基産業開発株式会社,,株式会社,東京都,豊島区,長崎２丁目２９番９号,,13,116,1710051,,,,,,,2024-01-09,1,,,,,セイキサンギョウカイハツ,0
858,3020001155177,新規,0,2024-01-09,2024-01-09,株式会社大有,,株式会社,神奈川県,横浜市神奈川区,子安通３丁目３６０番地１サンマリーナ新子安８０９号,,14,102,2210021,,,,,,,2024-01-09,1,,,,,ダイユウ,0
859,3020001155193,新規,0,2024-01-09,2024-01-09,株式会社Ｓｍｉｌｅ　Ｍｅｄｉｃａｌ　Ｅｄｕｃａｔｉｏｎ,,株式会社,神奈川県,川崎市幸区,中幸町３丁目２６番地２４クレッセント川崎２７０６,,14,132,2120012,,,,,,,2024-01-09,1,,,,,スマイルメディカルエデュケーション,0
869,3021001081157,新規,0,2024-01-09,2024-01-09,株式会社Ｓ・Ｔ自動車,,株式会社,神奈川県,海老名市,本郷４０１４番地１,,14,215,2430417,,,,,,,2024-01-09,1,,,,,エスティージドウシャ,0
870,3021005012983,新規,0,2024-01-09,2024-01-09,社会保険労務士法人ファリス,,その他の設立登記法人,神奈川県,茅ヶ崎市,茅ヶ崎２丁目１番８号古谷ビル３階,,14,207,2530041,,,,,,,2024-01-09,1,,,,,ファリス,0
874,3030001157998,新規,0,2024-01-09,2024-01-09,株式会社ＧＯＬＤ　ＵＰ,,株式会社,埼玉県,川越市,大字小堤８５２番地,,11,201,3500811,,,,,,,2024-01-09,1,,,,,ゴールドアップ,0
875,3030001158006,新規,0,2024-01-09,2024-01-09,株式会社小山組,,株式会社,埼玉県,行田市,大字小敷田３７番地２,,11,206,3610065,,,,,,,2024-01-09,1,,,,,コヤマグミ,0
876,3030001158030,新規,0,2024-01-09,2024-01-09,株式会社ＨｉｇｈＴｏｗｅｒ　Ｓｙｓｔｅｍｓ,,株式会社,埼玉県,さいたま市浦和区,針ヶ谷２丁目１６番２２－３号,,11,107,3300075,,,,,,,2024-01-09,1,,,,,ハイタワーシステムズ,0
881,3040001131639,新規,0,2024-01-09,2024-01-09,ＤＯＵＢＬＥ　ＴＥＥ株式会社,,株式会社,千葉県,松戸市,新松戸６丁目２１０番地の１ウスイコーポ１０２号,,12,207,2700034,,,,,,,2024-01-09,1,,,,,ダブルティ,0
882,3040001131647,新規,0,2024-01-09,2024-01-09,ＬＩＦＥ　Ａｓｓｉｓｔ株式会社,,株式会社,千葉県,松戸市,五香南１丁目２０－１１,,12,207,2702212,,,,,,,2024-01-09,1,,,,,ライフアシスト,0
883,3040001131688,新規,0,2024-01-09,2024-01-09,Ｍ＆Ｓ株式会社,,株式会社,千葉県,船橋市,本町６丁目３－１４第三セイコービル３０２,,12,204,2730005,,,,,,,2024-01-09,1,,,,,エムアンドエス,0
887,3040003024072,新規,0,2024-01-09,2024-01-09,ＲｅＭｙｕ合同会社,,合同会社,千葉県,市川市,八幡２丁目９－１５ブラッサムフォーラム市川,,12,203,2720021,,,,,,,2024-01-09,1,,,,,レミュウ,0
894,3080001026067,新規,0,2024-01-09,2024-01-09,株式会社ＰＡＣ　ＬＡＹＥＲ,,株式会社,静岡県,静岡市葵区,瀬名５丁目６番５６号,,22,101,4200911,,,,,,,2024-01-09,1,,,,,パックレイヤー,0
970,3080403004934,新規,0,2024-01-09,2024-01-09,合同会社Ｎｏｏｄｌｅ　Ｌａｂｏｒａｔｏｒｙ,,合同会社,静岡県,菊川市,加茂５７６１番地の１,,22,224,4390031,,,,,,,2024-01-09,1,,,,,ヌードルラボラトリー,0
1011,3100001037103,新規,0,2024-01-09,2024-01-09,アール・イー・マネジメント株式会社,,株式会社,長野県,上伊那郡南箕輪村,２１２１番地,,20,385,3994511,,,,,,,2024-01-09,1,,,,,アールイーマネジメント,0
1013,3100005013109,新規,0,2024-01-09,2024-01-09,税理士法人長野東会計事務所,,その他の設立登記法人,長野県,長野市,若穂綿内字町８７７０番地１,,20,201,3810101,,,,,,,2024-01-09,1,,,,,ナガノヒガシカイケイジムショ,0
1027,3120001261089,新規,0,2024-01-09,2024-01-09,株式会社アフェール,,株式会社,大阪府,大阪市中央区,谷町３丁目２番８号,,27,128,5400012,,,,,,,2024-01-09,1,,,,,アフェール,0
1028,3120001261097,新規,0,2024-01-09,2024-01-09,錦河ロジテック株式会社,,株式会社,大阪府,大阪市北区,堂山町１番５号三共梅田ビル６階センターオフィス内,,27,127,5300027,,,,,,,2024-01-09,1,,,,,キンカワロジテック,0
1029,3120001261106,新規,0,2024-01-09,2024-01-09,ＨｉＦｒｅｅｓ株式会社,,株式会社,大阪府,大阪市東住吉区,鷹合４丁目２１番１６号３Ｆ－Ａ,,27,121,5460014,,,,,,,2024-01-09,1,,,,,ハイフリーズ,0
1030,3120001261139,新規,0,2024-01-09,2024-01-09,株式会社Ｑｍａｒｕ　ｆｏｏｄ　ｓｅｒｖｉｃｅ,,株式会社,大阪府,大阪市中央区,島之内２丁目５番１５号,,27,128,5420082,,,,,,,2024-01-09,1,,,,,キューマルフードサービス,0
1031,3120001261155,新規,0,2024-01-09,2024-01-09,株式会社ＳＬＣ,,株式会社,大阪府,大阪市鶴見区,放出東３丁目３３番３２号,,27,124,5380044,,,,,,,2024-01-09,1,,,,,エスエルシー,0
1039,3120101068822,新規,0,2024-01-09,2024-01-09,株式会社ＷａＡａＺ,,株式会社,大阪府,泉大津市,高津町１３番２８号,,27,206,5950042,,,,,,,2024-01-09,1,,,,,ワーズ,0
1040,3120101068830,新規,0,2024-01-09,2024-01-09,株式会社森板金工業,,株式会社,大阪府,松原市,西野々１丁目８－１１,,27,217,5800004,,,,,,,2024-01-09,1,,,,,モリバンキンコウギョウ,0
1041,3120101068839,新規,0,2024-01-09,2024-01-09,株式会社ＳＵＧＲＡＩ,,株式会社,大阪府,泉北郡忠岡町,高月北２丁目１１番２６号アルトルーナ２０１,,27,341,5950801,,,,,,,2024-01-09,1,,,,,サグライ,0
1044,3120103005609,新規,0,2024-01-09,2024-01-09,合同会社カブラナ,,合同会社,大阪府,高石市,取石４丁目１８番１９－２０１号,,27,225,5920013,,,,,,,2024-01-09,1,,,,,カブラナ,0
1045,3120901048593,新規,0,2024-01-09,2024-01-09,株式会社ＯＵＲ　ＶＯＹＡＧＥ　ＪＡＰＡＮ,,株式会社,大阪府,豊中市,浜１丁目６番３－３０１号,,27,203,5610817,,,,,,,2024-01-09,1,,,,,アワボヤージュジャパン,0
1046,3120901048602,新規,0,2024-01-09,2024-01-09,株式会社アート・ワン,,株式会社,大阪府,吹田市,岸部南３丁目２０番３号,,27,205,5640011,,,,,,,2024-01-09,1,,,,,アートワン,0
1047,3120901048610,新規,0,2024-01-09,2024-01-09,株式会社フルスタンバイ,,株式会社,大阪府,高槻市,大畑町２０番６－３０１号,,27,207,5691144,,,,,,,2024-01-09,1,,,,,フルスタンバイ,0
1060,3140001132908,新規,0,2024-01-09,2024-01-09,株式会社千代工業,,株式会社,兵庫県,姫路市,勝原区宮田５４５番地１３,,28,201,6711213,,,,,,,2024-01-09,1,,,,,センダイコウギョウ,0
1061,3140001132916,新規,0,2024-01-09,2024-01-09,株式会社ＫＡＲＩＮ,,株式会社,兵庫県,神戸市北区,山田町西下字才谷２番地,,28,109,6511263,,,,,,,2024-01-09,1,,,,,カリン,0
1064,3140003020012,新規,0,2024-01-09,2024-01-09,ＭＥＤ合同会社,,合同会社,兵庫県,揖保郡太子町,東保５２０番地４３,,28,464,6711524,,,,,,,2024-01-09,1,,,,,エムイーディ,0
1068,3140005026882,新規,0,2024-01-09,2024-01-09,医療法人優生会,,その他の設立登記法人,兵庫県,姫路市,十二所前町５０番地,,28,201,6700911,,,,,,,2024-01-09,1,,,,,ユウセイカイ,0
1069,3140005026890,新規,0,2024-01-09,2024-01-09,税理士法人プラスワイ,,その他の設立登記法人,兵庫県,神戸市中央区,磯上通６丁目１番１４号,,28,110,6510086,,,,,,,2024-01-09,1,,,,,プラスワイ,0
1070,3150001026984,新規,0,2024-01-09,2024-01-09,株式会社ソア,,株式会社,奈良県,御所市,大字櫛羅２１４８－６,,29,208,6392312,,,,,,,2024-01-09,1,,,,,ソア,0
1072,3160001025622,新規,0,2024-01-09,2024-01-09,ＹＵＫＡＷＡ株式会社,,株式会社,滋賀県,大津市,真野大野１丁目２３－５,,25,201,5200235,,,,,,,2024-01-09,1,,,,,ユカワ,0
1073,3170001017957,新規,0,2024-01-09,2024-01-09,株式会社ｋｉｍａｒｕ,,株式会社,和歌山県,西牟婁郡上富田町,市ノ瀬６４１番地の３,,30,404,6492107,,,,,,,2024-01-09,1,,,,,キマル,0
1086,3200001042035,新規,0,2024-01-09,2024-01-09,株式会社マツムラ建機,,株式会社,岐阜県,多治見市,大原町４丁目４４番地の１,,21,204,5070074,,,,,,,2024-01-09,1,,,,,マツムラケンキ,0
1098,3220005008798,新規,0,2024-01-09,2024-01-09,一般社団法人ＭＥＴＴ,,その他の設立登記法人,石川県,金沢市,専光寺町せ２０番地２,,17,201,9200356,,,,,,,2024-01-09,1,,,,,メット,0
1101,3230005009358,新規,0,2024-01-09,2024-01-09,農事組合法人ファーム小杉白石,,その他の設立登記法人,富山県,射水市,小杉白石４１８番地１,,16,211,9390304,,,,,,,2024-01-09,1,,,,,ファームコスギシライシ,0
1103,3240001062624,新規,0,2024-01-09,2024-01-09,株式会社グロリア,,株式会社,広島県,広島市中区,鶴見町５番２０号ＢＥＡＮＳＢＬＤ５０５,,34,101,7300045,,,,,,,2024-01-09,1,,,,,グロリア,0
1104,3240001062632,新規,0,2024-01-09,2024-01-09,株式会社ケーデン,,株式会社,広島県,尾道市,向東町３３９６番地１,,34,205,7220062,,,,,,,2024-01-09,1,,,,,ケーデン,0
1111,3260001038622,新規,0,2024-01-09,2024-01-09,株式会社ＥＬＤＩＡ,,株式会社,岡山県,倉敷市,玉島乙島６４２３番地エクセレント中野２０２号,,33,202,7138103,,,,,,,2024-01-09,1,,,,,エルディア,0
1112,3260001038630,新規,0,2024-01-09,2024-01-09,オーエムホールディングス株式会社,,株式会社,岡山県,総社市,赤浜５００番地,,33,208,7191121,,,,,,,2024-01-09,1,,,,,オーエムホールディングス,0
1119,3280001009092,新規,0,2024-01-09,2024-01-09,株式会社アクア,,株式会社,島根県,益田市,久々茂町イ６４８番地２,,32,204,6980013,,,,,,,2024-01-09,1,,,,,アクア,0
1126,3290003014825,新規,0,2024-01-09,2024-01-09,合同会社松尾通信,,合同会社,福岡県,福岡市南区,鶴田２丁目２８番１７号,,40,134,8111352,,,,,,,2024-01-09,1,,,,,マツオツウシン,0
1127,3290801030180,新規,0,2024-01-09,2024-01-09,株式会社宮本計装,,株式会社,福岡県,北九州市小倉南区,東水町４番３０号,,40,107,8020813,,,,,,,2024-01-09,1,,,,,ミヤモトケイソウ,0
1129,3310001018791,新規,0,2024-01-09,2024-01-09,株式会社カントリーファーム絆園タナカ,,株式会社,長崎県,島原市,長貫町丙２０８３番地,,42,203,8550022,,,,,,,2024-01-09,1,,,,,カントリーファームキズナエンタナカ,0
1132,3330001031636,新規,0,2024-01-09,2024-01-09,株式会社ＫＳエナジー,,株式会社,熊本県,熊本市中央区,紺屋町１丁目１３番地５,,43,101,8600025,,,,,,,2024-01-09,1,,,,,ケーエスエナジー,0
1134,3330003010150,新規,0,2024-01-09,2024-01-09,合同会社ビアンサデンタル,,合同会社,熊本県,八代市,千丁町新牟田１４７２番地,,43,202,8694703,,,,,,,2024-01-09,1,,,,,ビアンサデンタル,0
1136,3340001026189,新規,0,2024-01-09,2024-01-09,株式会社ａｄｄ‐ｏｎ,,株式会社,鹿児島県,霧島市,隼人町松永６９６番３,,46,218,8995112,,,,,,,2024-01-09,1,,,,,アドオン,0
1138,3360001033035,新規,0,2024-01-09,2024-01-09,株式会社ＡＣＴ,,株式会社,沖縄県,那覇市,字識名１１９３番地４コーポアラカキ３０３,,47,201,9020078,,,,,,,2024-01-09,1,,,,,アクト,0
1139,3360001033043,新規,0,2024-01-09,2024-01-09,株式会社沖縄住宅リフォーム,,株式会社,沖縄県,島尻郡南風原町,字与那覇８８番地,,47,350,9011103,,,,,,,2024-01-09,1,,,,,オキナワジュウタクリフォーム,0
1143,3390001017464,新規,0,2024-01-09,2024-01-09,ＹＦＣ株式会社,,株式会社,山形県,山形市,香澄町１丁目４番５号マルイビル地下１階,,06,201,9900039,,,,,,,2024-01-09,1,,,,,ワイエフシー,0
1144,3390001017472,新規,0,2024-01-09,2024-01-09,株式会社有路精機,,株式会社,山形県,尾花沢市,上町４丁目６番３９号,,06,212,9994228,,,,,,,2024-01-09,1,,,,,アリジセイキ,0
1145,3400003003196,新規,0,2024-01-09,2024-01-09,合同会社ＭＯＲＩＯＫＡ　ＨＯＫＥＮ　ＳＥＲＶＩＣＥ,,合同会社,岩手県,盛岡市,山岸６丁目１８番１号,,03,201,0200004,,,,,,,2024-01-09,1,,,,,モリオカホケンサービス,0
1148,3420001018541,新規,0,2024-01-09,2024-01-09,グローカルリンク株式会社,,株式会社,青森県,青森市,浪岡大字浪岡字浅井１１７番地３,,02,201,0381311,,,,,,,2024-01-09,1,,,,,グローカルリンク,0
1150,3430001090795,新規,0,2024-01-09,2024-01-09,株式会社つむぎ,,株式会社,北海道,札幌市北区,北二十四条西３丁目１－１Ｅ－ＣＯＵＲＴ２４　２階,,01,102,0010024,,,,,,,2024-01-09,1,,,,,ツムギ,0
1153,3440001009373,新規,0,2024-01-09,2024-01-09,株式会社さくらや,,株式会社,北海道,北斗市,久根別５丁目１２番２１号,,01,236,0490121,,,,,,,2024-01-09,1,,,,,サクラヤ,0
1157,3480001012349,新規,0,2024-01-09,2024-01-09,株式会社ＳＴＡＧ,,株式会社,徳島県,徳島市,北沖洲４丁目２番２９－１号,,36,201,7700872,,,,,,,2024-01-09,1,,,,,スタッグ,0
1167,3480003002067,新規,0,2024-01-09,2024-01-09,合同会社志賀屋,,合同会社,徳島県,徳島市,南内町３丁目１７番地,,36,201,7700846,,,,,,,2024-01-09,1,,,,,シガヤ,0
1179,4010001241258,新規,0,2024-01-09,2024-01-09,株式会社ピアレス,,株式会社,東京都,千代田区,永田町２丁目１２番４号,,13,101,1000014,,,,,,,2024-01-09,1,,,,,ピアレス,0
1180,4010001241266,新規,0,2024-01-09,2024-01-09,株式会社ランド,,株式会社,東京都,中央区,日本橋室町１丁目１１番１２号日本橋水野ビル７階,,13,102,1030022,,,,,,,2024-01-09,1,,,,,ランド,0
1181,4010001241308,新規,0,2024-01-09,2024-01-09,株式会社ｂａｂｙｋｅｒａ　Ｐｒｏ,,株式会社,東京都,千代田区,外神田２丁目１番３号－１Ｆ,,13,101,1010021,,,,,,,2024-01-09,1,,,,,ベビケラプロ,0
1182,4010001241316,新規,0,2024-01-09,2024-01-09,アクローブ２号株式会社,,株式会社,東京都,千代田区,麹町６丁目６番地２,,13,101,1020083,,,,,,,2024-01-09,1,,,,,アクローブニゴウ,0
1186,4010005037710,新規,0,2024-01-09,2024-01-09,一般社団法人壮有会,,その他の設立登記法人,東京都,文京区,小石川５丁目１７番５－１０５号,,13,105,1120002,,,,,,,2024-01-09,1,,,,,ソウユウカイ,0
1194,4010401179511,新規,0,2024-01-09,2024-01-09,Ｏｎｅ　Ｎｅｓｔ株式会社,,株式会社,東京都,港区,北青山３丁目５番１７－９０１号,,13,103,1070061,,,,,,,2024-01-09,1,,,,,ワンネスト,0
1195,4010401179528,新規,0,2024-01-09,2024-01-09,株式会社テックハブ,,株式会社,東京都,港区,南青山２丁目２番１５号,,13,103,1070062,,,,,,,2024-01-09,1,,,,,テックハブ,0
1196,4010401179552,新規,0,2024-01-09,2024-01-09,株式会社ｔｏｉｒｏ,,株式会社,東京都,港区,南青山５丁目１６番３号メゾン青南３０１,,13,103,1070062,,,,,,,2024-01-09,1,,,,,トイロ,0
1197,4010401179585,新規,0,2024-01-09,2024-01-09,ＬＧエナジーソリューションジャパン株式会社,,株式会社,東京都,港区,虎ノ門５丁目１１番２号オランダヒルズ森タワー１７階,,13,103,1050001,,,,,,,2024-01-09,1,,,,,エルジーエナジーソリューションジャパン,0
1202,4010403031678,新規,0,2024-01-09,2024-01-09,合同会社ラプラス,,合同会社,東京都,港区,北青山１丁目３番１号,,13,103,1070061,,,,,,,2024-01-09,1,,,,,ラプラス,0
1205,4010501051578,新規,0,2024-01-09,2024-01-09,株式会社新日本ＰＲ,,株式会社,東京都,台東区,浅草橋３丁目３３番２号筑波ビル,,13,106,1110053,,,,,,,2024-01-09,1,,,,,シンニッポンピーアール,0
1212,4010601064422,新規,0,2024-01-09,2024-01-09,株式会社ＧＲＥＥＤ,,株式会社,東京都,江東区,亀戸６丁目３１番１号,,13,108,1360071,,,,,,,2024-01-09,1,,,,,グリード,0
1213,4010701045355,新規,0,2024-01-09,2024-01-09,株式会社かね将,,株式会社,東京都,品川区,西五反田５丁目６番２０号,,13,109,1410031,,,,,,,2024-01-09,1,,,,,カネショウ,0
1214,4010701045363,新規,0,2024-01-09,2024-01-09,株式会社仏蘭西堂,,株式会社,東京都,品川区,中延５丁目１４番２５号,,13,109,1420053,,,,,,,2024-01-09,1,,,,,フランスドウ,0
1234,4011001159192,新規,0,2024-01-09,2024-01-09,セブンスターオーシャン株式会社,,株式会社,東京都,渋谷区,恵比寿西２丁目８番４号ＥＸ恵比寿西ビル５階,,13,113,1500021,,,,,,,2024-01-09,1,,,,,セブンスターオーシャン,0
1235,4011001159242,新規,0,2024-01-09,2024-01-09,スイス商事株式会社,,株式会社,東京都,目黒区,中町１丁目３９番５号,,13,110,1530065,,,,,,,2024-01-09,1,,,,,スイスショウジ,0
1236,4011005010327,新規,0,2024-01-09,2024-01-09,一般社団法人Ｆｌｙ‐Ｈｉｇｈ,,その他の設立登記法人,東京都,渋谷区,神山町９番５－４０１号,,13,113,1500047,,,,,,,2024-01-09,1,,,,,フライハイ,0
1243,4011103013925,新規,0,2024-01-09,2024-01-09,ＷＩＳＥ合同会社,,合同会社,東京都,新宿区,西新宿３丁目３番１３号西新宿水間ビル２Ｆ,,13,104,1600023,,,,,,,2024-01-09,1,,,,,ワイズ,0
1245,4011201025145,新規,0,2024-01-09,2024-01-09,株式会社ＮＡＧＯＭＩ,,株式会社,東京都,中野区,東中野１丁目１１番７号,,13,114,1640003,,,,,,,2024-01-09,1,,,,,ナゴミ,0
1249,4011501030167,新規,0,2024-01-09,2024-01-09,萬生株式会社,,株式会社,東京都,荒川区,南千住３丁目２－１４ジュリアス南千住５０１,,13,118,1160003,,,,,,,2024-01-09,1,,,,,マンセイ,0
1258,4011703003706,新規,0,2024-01-09,2024-01-09,潤林合同会社,,合同会社,東京都,江戸川区,松江２丁目１－１３－２０３号室,,13,123,1320025,,,,,,,2024-01-09,1,,,,,ジュンリン,0
1262,4012801022886,新規,0,2024-01-09,2024-01-09,株式会社東誠ハウス,,株式会社,東京都,国分寺市,南町３丁目２７番７号白馬ビル５Ｆ,,13,214,1850021,,,,,,,2024-01-09,1,,,,,トウセイハウス,0
1265,4013301051871,新規,0,2024-01-09,2024-01-09,株式会社プライムリサーチ,,株式会社,東京都,豊島区,南大塚１丁目６０番２０号,,13,116,1700005,,,,,,,2024-01-09,1,,,,,プライムリサーチ,0
1269,4020001155192,新規,0,2024-01-09,2024-01-09,株式会社Ｒｅｎｏｖａｔｉｏｎ,,株式会社,神奈川県,横浜市中区,日ノ出町２丁目１１２,,14,104,2310066,,,,,,,2024-01-09,1,,,,,リノベーション,0
1272,4020003025303,新規,0,2024-01-09,2024-01-09,ミタケ合同会社,,合同会社,神奈川県,川崎市幸区,新塚越１番地２サウザンドシティ１－７０４,,14,132,2120027,,,,,,,2024-01-09,1,,,,,ミタケ,0
1277,4030001157997,新規,0,2024-01-09,2024-01-09,株式会社ウェーブオン,,株式会社,埼玉県,さいたま市緑区,大字大門８６７番地グリーンメゾン１０１号室,,11,109,3360963,,,,,,,2024-01-09,1,,,,,ウェーブオン,0
1278,4030001158005,新規,0,2024-01-09,2024-01-09,株式会社クリーンファシリティーズ,,株式会社,埼玉県,蓮田市,椿山１丁目９番１号,,11,238,3490144,,,,,,,2024-01-09,1,,,,,クリーンファシリティーズ,0
1279,4030001158070,新規,0,2024-01-09,2024-01-09,株式会社プライムオプション,,株式会社,埼玉県,さいたま市浦和区,常盤５丁目１７番２号ファーストビル浦和６０１,,11,107,3300061,,,,,,,2024-01-09,1,,,,,プライムオプション,0
1280,4030001158079,新規,0,2024-01-09,2024-01-09,株式会社テルキッジ,,株式会社,埼玉県,久喜市,緑１丁目１２番４号,,11,232,3491106,,,,,,,2024-01-09,1,,,,,テルキッジ,0
1287,4030005021514,新規,0,2024-01-09,2024-01-09,木村山田社会保険労務士法人,,その他の設立登記法人,埼玉県,熊谷市,筑波３丁目３７番地,,11,202,3600037,,,,,,,2024-01-09,1,,,,,キムラヤマダ,0
1294,4040001131621,新規,0,2024-01-09,2024-01-09,株式会社ＴＯ　ＮＥＸＴ,,株式会社,千葉県,袖ケ浦市,神納５０２５番地１,,12,229,2990257,,,,,,,2024-01-09,1,,,,,トゥーネクスト,0
1295,4040001131646,新規,0,2024-01-09,2024-01-09,株式会社Ｓａｉｓｅｉ　Ｉｎｖｅｓｔｍｅｎｔ,,株式会社,千葉県,市川市,北方１丁目１９番３号,,12,203,2720815,,,,,,,2024-01-09,1,,,,,サイセイインベストメント,0
1299,4040003024022,新規,0,2024-01-09,2024-01-09,合同会社センケン工業,,合同会社,千葉県,茂原市,国府関１２７３番地２,,12,210,2970067,,,,,,,2024-01-09,1,,,,,センケンコウギョウ,0
1300,4040003024039,新規,0,2024-01-09,2024-01-09,梓宸合同会社,,合同会社,千葉県,船橋市,前原西４丁目３４番１－４０１号,,12,204,2740825,,,,,,,2024-01-09,1,,,,,シシン,0
1301,4040003024047,新規,0,2024-01-09,2024-01-09,合同会社ｔａｔｓｍｉ,,合同会社,千葉県,千葉市緑区,辺田町６０２番地１０,,12,105,2660007,,,,,,,2024-01-09,1,,,,,,0
1308,4080001026066,新規,0,2024-01-09,2024-01-09,株式会社トラスト,,株式会社,静岡県,静岡市葵区,北安東３丁目１８番５号,,22,101,4200881,,,,,,,2024-01-09,1,,,,,トラスト,0
1312,4080101024440,新規,0,2024-01-09,2024-01-09,Ｂ．Ｋ．Ｓ．Ｉｎｔｅｒｎａｔｉｏｎａｌ株式会社,,株式会社,静岡県,富士市,本市場２３０番地の１千寿ビル１Ｆ,,22,210,4160906,,,,,,,2024-01-09,1,,,,,ビーケーエスインターナショナル,0
1415,4100005013108,新規,0,2024-01-09,2024-01-09,司法書士法人木下事務所,,その他の設立登記法人,長野県,飯田市,大瀬木４０５６番地１,,20,205,3950157,,,,,,,2024-01-09,1,,,,,キノシタジムショ,0
1417,4110001038090,新規,0,2024-01-09,2024-01-09,株式会社ＬＩＦＥ　ＪＯＹ　ＤＥＳＩＧＮ,,株式会社,新潟県,新潟市北区,太田２８０４番地１,,15,101,9503313,,,,,,,2024-01-09,1,,,,,ライフジョイデザイン,0
1427,4120001261063,新規,0,2024-01-09,2024-01-09,株式会社ｖｏｙａｇｅ,,株式会社,大阪府,大阪市中央区,南船場４丁目１４番１号南船場ブリック３０２,,27,128,5420081,,,,,,,2024-01-09,1,,,,,ヴォヤージュ,0
1428,4120001261088,新規,0,2024-01-09,2024-01-09,株式会社Ｌｏｃｏ,,株式会社,大阪府,大阪市中央区,南船場３丁目９番６号日宝心斎橋ビル４０３,,27,128,5420081,,,,,,,2024-01-09,1,,,,,ロコ,0
1429,4120001261113,新規,0,2024-01-09,2024-01-09,伊洋物語株式会社,,株式会社,大阪府,大阪市住吉区,遠里小野６丁目１７－１８－４０５号室,,27,120,5580032,,,,,,,2024-01-09,1,,,,,イヨウモノガタリ,0
1430,4120001261146,新規,0,2024-01-09,2024-01-09,山上株式会社,,株式会社,大阪府,大阪市西区,南堀江１丁目１８－１１－４０５,,27,106,5500015,,,,,,,2024-01-09,1,,,,,ヤマガミ,0
1434,4120005024078,新規,0,2024-01-09,2024-01-09,弁護士法人ジャスティス中川法律事務所,,その他の設立登記法人,大阪府,大阪市北区,西天満２丁目２番３ユニシオ西天満二丁目Ａ０２号,,27,127,5300047,,,,,,,2024-01-09,1,,,,,ジャスティスナカガワホウリツジムショ,0
1437,4120101068821,新規,0,2024-01-09,2024-01-09,株式会社アストロボーイ,,株式会社,大阪府,堺市南区,檜尾７７５番地１,,27,145,5900142,,,,,,,2024-01-09,1,,,,,アストロボーイ,0
1441,4120103005608,新規,0,2024-01-09,2024-01-09,合同会社ＦＬＡＴ,,合同会社,大阪府,泉南郡岬町,淡輪３６４－１,,27,366,5990301,,,,,,,2024-01-09,1,,,,,フラット,0
1442,4120103005616,新規,0,2024-01-09,2024-01-09,ドラゴンインベスト合同会社,,合同会社,大阪府,堺市西区,津久野町２丁１６番１６号,,27,144,5938322,,,,,,,2024-01-09,1,,,,,ドラゴンインベスト,0
1444,4122001037708,新規,0,2024-01-09,2024-01-09,株式会社ヒロセ塗装工業,,株式会社,大阪府,東大阪市,楠根２丁目８番４号,,27,227,5770006,,,,,,,2024-01-09,1,,,,,ヒロセトソウコウギョウ,0
1445,4122001037716,新規,0,2024-01-09,2024-01-09,株式会社ＭＩＴＳＵＢＡＣＨＩ,,株式会社,大阪府,東大阪市,中新開１丁目４番８号,,27,227,5780911,,,,,,,2024-01-09,1,,,,,ミツバチ,0
1447,4130001076097,新規,0,2024-01-09,2024-01-09,株式会社ＷＥＬＬＵＰ,,株式会社,京都府,京都市北区,小山下総町５３－９,,26,101,6038151,,,,,,,2024-01-09,1,,,,,ウエルアップ,0
1448,4130005016974,新規,0,2024-01-09,2024-01-09,医療法人丸吉会,,その他の設立登記法人,京都府,京都市北区,大宮東小野堀町１番地エスカローナ玉田１階１０５号室,,26,101,6038406,,,,,,,2024-01-09,1,,,,,マルヨシカイ,0
1453,4140001132881,新規,0,2024-01-09,2024-01-09,株式会社ＮＯＴ,,株式会社,兵庫県,宝塚市,高司３丁目１番２８号,,28,214,6650051,,,,,,,2024-01-09,1,,,,,エヌオーティー,0
1454,4140001132898,新規,0,2024-01-09,2024-01-09,株式会社実建設,,株式会社,兵庫県,姫路市,御国野町西御着５９６番地２,,28,201,6710233,,,,,,,2024-01-09,1,,,,,ミノルケンセツ,0
1455,4140001132907,新規,0,2024-01-09,2024-01-09,株式会社Ｙ’ｚ,,株式会社,兵庫県,宝塚市,今里町１８番１８号,,28,214,6650862,,,,,,,2024-01-09,1,,,,,ワイズ,0
1456,4140001132915,新規,0,2024-01-09,2024-01-09,株式会社Ｅｎｒｉｃｈ,,株式会社,兵庫県,西宮市,上大市３丁目５番９－２０５号,,28,204,6638003,,,,,,,2024-01-09,1,,,,,エンリッチ,0
1459,4140003020011,新規,0,2024-01-09,2024-01-09,合同会社ＴＥＲＡＣＯ家,,合同会社,兵庫県,神戸市垂水区,神田町３－２４－１階西,,28,108,6550027,,,,,,,2024-01-09,1,,,,,テラコヤ,0
1461,4140005026898,新規,0,2024-01-09,2024-01-09,税理士法人Ｌｉｇｈｔ　ＵＰ,,その他の設立登記法人,兵庫県,尼崎市,御園町２４番地尼崎第一ビル４０２号,,28,202,6600861,,,,,,,2024-01-09,1,,,,,ライトアップ,0
1462,4150001026983,新規,0,2024-01-09,2024-01-09,株式会社コネクトエッジ,,株式会社,奈良県,奈良市,神功４丁目２５番地の２３,,29,201,6310804,,,,,,,2024-01-09,1,,,,,コネクトエッジ,0
1464,4160001025613,新規,0,2024-01-09,2024-01-09,株式会社ＹＧ‐ＴＥＣＨ,,株式会社,滋賀県,草津市,矢橋町７９６番地７,,25,206,5250066,,,,,,,2024-01-09,1,,,,,ワイジーテック,0
1465,4170001017956,新規,0,2024-01-09,2024-01-09,株式会社矢野工作所,,株式会社,和歌山県,和歌山市,吹上３丁目１番６１号,,30,201,6408137,,,,,,,2024-01-09,1,,,,,ヤノコウサクショ,0
1466,4170003001966,新規,0,2024-01-09,2024-01-09,セイコー技研合同会社,,合同会社,和歌山県,和歌山市,直川１１８４番地１３,,30,201,6408481,,,,,,,2024-01-09,1,,,,,セイコーギケン,0
1470,4180001159632,新規,0,2024-01-09,2024-01-09,株式会社ウィステリア,,株式会社,愛知県,豊明市,栄町西大根３０番地５４９,,23,229,4701167,,,,,,,2024-01-09,1,,,,,ウィステリア,0
1475,4180003026161,新規,0,2024-01-09,2024-01-09,合同会社Ａｍｉｃｏ,,合同会社,愛知県,名古屋市中村区,中島町４丁目２６－２０１,,23,105,4530022,,,,,,,2024-01-09,1,,,,,アミーコ,0
1476,4180301038189,新規,0,2024-01-09,2024-01-09,株式会社ＤＡＩＳＨＩＮ,,株式会社,愛知県,豊川市,当古町東本郷５２番地,,23,207,4420821,,,,,,,2024-01-09,1,,,,,ダイシン,0
1477,4180301038197,新規,0,2024-01-09,2024-01-09,株式会社ＡＭＯＲ　ＭＩＳＳＳＩＯＮ,,株式会社,愛知県,安城市,三河安城南町１丁目１５番地８,,23,212,4460058,,,,,,,2024-01-09,1,,,,,アモールミッション,0
1478,4180303005963,新規,0,2024-01-09,2024-01-09,合同会社ＴＥＮ　ＤＯＧ　ＨＯＵＳＥ,,合同会社,愛知県,新城市,日吉字浜井場６９番地２,,23,221,4411322,,,,,,,2024-01-09,1,,,,,テンドッグハウス,0
1479,4190001030998,新規,0,2024-01-09,2024-01-09,株式会社ＪＴ三重,,株式会社,三重県,津市,高茶屋小森町２８７２番地１,,24,201,5140817,,,,,,,2024-01-09,1,,,,,ジェイティーミエ,0
1480,4190001031006,新規,0,2024-01-09,2024-01-09,株式会社ＴＲＡＮＱＵＩＲＯ,,株式会社,三重県,津市,広明町３６６番地,,24,201,5140006,,,,,,,2024-01-09,1,,,,,トランキロ,0
1481,4200001042034,新規,0,2024-01-09,2024-01-09,株式会社Ｌｉｎ,,株式会社,岐阜県,多治見市,宝町１２丁目６０番地の１,,21,204,5070054,,,,,,,2024-01-09,1,,,,,リン,0
1482,4200001042042,新規,0,2024-01-09,2024-01-09,株式会社哲総,,株式会社,岐阜県,各務原市,入会町３丁目１４０番地１,,21,213,5040833,,,,,,,2024-01-09,1,,,,,テッソウ,0
1489,4230005009357,新規,0,2024-01-09,2024-01-09,農事組合法人舘営農,,その他の設立登記法人,富山県,南砺市,舘３８０番地,,16,210,9391676,,,,,,,2024-01-09,1,,,,,タチエイノウ,0
1490,4240001062623,新規,0,2024-01-09,2024-01-09,登開工業株式会社,,株式会社,広島県,尾道市,向東町９２２１番地２８,,34,205,7220062,,,,,,,2024-01-09,1,,,,,トウカイコウギョウ,0
1491,4240001062631,新規,0,2024-01-09,2024-01-09,株式会社エクシード,,株式会社,広島県,広島市安佐北区,落合南９丁目１番１９－５号,,34,106,7391732,,,,,,,2024-01-09,1,,,,,エクシード,0
1496,4260001038638,新規,0,2024-01-09,2024-01-09,株式会社黒達磨,,株式会社,岡山県,岡山市東区,古都宿２８２－２－２Ｆ,,33,103,7038212,,,,,,,2024-01-09,1,,,,,クロダルマ,0
1500,4270001008904,新規,0,2024-01-09,2024-01-09,株式会社村上運送,,株式会社,鳥取県,西伯郡大山町,赤坂３４０番地１,,31,386,6893111,,,,,,,2024-01-09,1,,,,,ムラカミウンソウ,0
1504,4290001104255,新規,0,2024-01-09,2024-01-09,株式会社ＡＰＯＲＯＮ,,株式会社,福岡県,福岡市中央区,天神２丁目２番１２号Ｔ＆Ｊビルディング７Ｆ,,40,133,8100001,,,,,,,2024-01-09,1,,,,,アポロン,0
1506,4290003014840,新規,0,2024-01-09,2024-01-09,合同会社夢怜,,合同会社,福岡県,福岡市中央区,天神１丁目１０番２０号天神ビジネスセンター地下２階ローソン方,,40,133,8100001,,,,,,,2024-01-09,1,,,,,ユメレイ,0
1508,4310001018790,新規,0,2024-01-09,2024-01-09,株式会社松尾,,株式会社,長崎県,西彼杵郡長与町,本川内郷９６２番地５,,42,307,8512122,,,,,,,2024-01-09,1,,,,,マツオ,0
1512,4320003004268,新規,0,2024-01-09,2024-01-09,合同会社郷豆腐店,,合同会社,大分県,竹田市,直入町大字長湯６８５９番地,,44,208,8780402,,,,,,,2024-01-09,1,,,,,ゴウトウフテン,0
1516,4360001033034,新規,0,2024-01-09,2024-01-09,沖縄ビルテック株式会社,,株式会社,沖縄県,沖縄市,宮里２丁目２３－２４オアシス東２０１,,47,211,9042165,,,,,,,2024-01-09,1,,,,,オキナワビルテック,0
1522,4390001017463,新規,0,2024-01-09,2024-01-09,株式会社小林ファーム,,株式会社,山形県,最上郡最上町,大字向町１３０１番地,,06,362,9996101,,,,,,,2024-01-09,1,,,,,コバヤシファーム,0
1524,4400001016513,新規,0,2024-01-09,2024-01-09,ワッショイファーム株式会社,,株式会社,岩手県,八幡平市,帷子第１６地割１２８番地,,03,214,0287402,,,,,,,2024-01-09,1,,,,,ワッショイファーム,0
1532,4430001090794,新規,0,2024-01-09,2024-01-09,株式会社札幌かに源,,株式会社,北海道,札幌市中央区,南六条西４丁目１－３,,01,101,0640806,,,,,,,2024-01-09,1,,,,,サッポロカニゲン,0
1544,4480001012348,新規,0,2024-01-09,2024-01-09,Ｂｏｄｙ　Ｓｈｏｐ　Ｈａｙａｍｉ株式会社,,株式会社,徳島県,吉野川市,鴨島町西麻植字大東５１番地２,,36,205,7760020,,,,,,,2024-01-09,1,,,,,ボディショップハヤミ,0
1552,4480003002066,新規,0,2024-01-09,2024-01-09,合同会社ＹＯＲｉＳＯＷ　Ｃａｒｅ,,合同会社,徳島県,徳島市,南昭和町４丁目９２番地の５１,,36,201,7700944,,,,,,,2024-01-09,1,,,,,ヨリソウケア,0
1561,5010001241141,新規,0,2024-01-09,2024-01-09,株式会社どこでもアド,,株式会社,東京都,文京区,向丘１丁目７－１５－２０１,,13,105,1130023,,,,,,,2024-01-09,1,,,,,ドコデモアド,0
1562,5010001241249,新規,0,2024-01-09,2024-01-09,株式会社エーアイ・フードサービス,,株式会社,東京都,千代田区,麹町３丁目１２番３号,,13,101,1020083,,,,,,,2024-01-09,1,,,,,エーアイフードサービス,0
1563,5010001241281,新規,0,2024-01-09,2024-01-09,株式会社エンドゥライト,,株式会社,東京都,文京区,小石川２丁目１９番２号サンクレスト小石川２０２号,,13,105,1120002,,,,,,,2024-01-09,1,,,,,エンドゥライト,0
1564,5010001241298,新規,0,2024-01-09,2024-01-09,株式会社ジーグループ,,株式会社,東京都,中央区,銀座７丁目１３番２１号銀座ｓｉｎｒｏｋｕｓｙｕビルＵＣＦ２階,,13,102,1040061,,,,,,,2024-01-09,1,,,,,ジーグループ,0
1565,5010001241307,新規,0,2024-01-09,2024-01-09,株式会社ＴＳＥＭ,,株式会社,東京都,千代田区,東神田１丁目２番２号ＰＲＩＭＥＯＦＦＩＣＥ東神田４０３,,13,101,1010031,,,,,,,2024-01-09,1,,,,,ティーエスイーエム,0
1566,5010001241315,新規,0,2024-01-09,2024-01-09,アクローブ１号株式会社,,株式会社,東京都,千代田区,麹町６丁目６番地２,,13,101,1020083,,,,,,,2024-01-09,1,,,,,アクローブイチゴウ,0
1569,5010003042595,新規,0,2024-01-09,2024-01-09,ＺＩＴＩ合同会社,,合同会社,東京都,千代田区,神田和泉町１番地６－１６ヤマトビル４０５,,13,101,1010024,,,,,,,2024-01-09,1,,,,,ズィーティ,0
1579,5010401179535,新規,0,2024-01-09,2024-01-09,株式会社うるおい,,株式会社,東京都,港区,六本木２丁目２番２号,,13,103,1060032,,,,,,,2024-01-09,1,,,,,ウルオイ,0
1580,5010401179543,新規,0,2024-01-09,2024-01-09,株式会社スタンプ制作所,,株式会社,東京都,港区,北青山１丁目３番１号アールキューブ青山３階,,13,103,1070061,,,,,,,2024-01-09,1,,,,,スタンプセイサクジョ,0
1581,5010403031677,新規,0,2024-01-09,2024-01-09,合同会社ＮＥＷＭＯＲＥ,,合同会社,東京都,港区,麻布十番２丁目１８番５－８０７号,,13,103,1060045,,,,,,,2024-01-09,1,,,,,ニュウモア,0
1582,5010403031710,新規,0,2024-01-09,2024-01-09,合同会社Ｚワールド,,合同会社,東京都,港区,南麻布１丁目１１－５－５０１,,13,103,1060047,,,,,,,2024-01-09,1,,,,,ゼットワールド,0
1594,5010603010563,新規,0,2024-01-09,2024-01-09,ＭＣＴ合同会社,,合同会社,東京都,江東区,豊洲３丁目５番３－１３１０号,,13,108,1350061,,,,,,,2024-01-09,1,,,,,エムシーティー,0
1595,5010701045346,新規,0,2024-01-09,2024-01-09,株式会社クラフトフィールド,,株式会社,東京都,品川区,上大崎２丁目１８番２５－１０７号,,13,109,1410021,,,,,,,2024-01-09,1,,,,,クラフトフィールド,0
1596,5010701045354,新規,0,2024-01-09,2024-01-09,株式会社ＷＶ,,株式会社,東京都,品川区,上大崎１丁目５番３２－４０３号,,13,109,1410021,,,,,,,2024-01-09,1,,,,,ダブリューブイ,0
1597,5010701045362,新規,0,2024-01-09,2024-01-09,株式会社Ｓ’ｓ　ＨＯＭＥ,,株式会社,東京都,品川区,東品川３丁目４－１９・３１６号室,,13,109,1400002,,,,,,,2024-01-09,1,,,,,エスズホーム,0
1601,5010901054452,新規,0,2024-01-09,2024-01-09,株式会社ｆｉｌ　ａｎｄ．,,株式会社,東京都,世田谷区,若林２丁目３４番８号,,13,112,1540023,,,,,,,2024-01-09,1,,,,,フィルアンド,0
1603,5010903008712,新規,0,2024-01-09,2024-01-09,合同会社ジルサンズ,,合同会社,東京都,世田谷区,野沢３丁目３１番３―３０４号,,13,112,1540003,,,,,,,2024-01-09,1,,,,,ジルサンズ,0
1623,5011001159225,新規,0,2024-01-09,2024-01-09,ギコム株式会社,,株式会社,東京都,渋谷区,代々木１丁目２５番５号,,13,113,1510053,,,,,,,2024-01-09,1,,,,,ギコム,0
1624,5011001159241,新規,0,2024-01-09,2024-01-09,株式会社オフィスたまる,,株式会社,東京都,渋谷区,恵比寿２丁目３３番８号,,13,113,1500013,,,,,,,2024-01-09,1,,,,,オフィスタマル,0
1626,5011003018214,新規,0,2024-01-09,2024-01-09,合同会社Ｌｅｄｇｅｒ　ｔｈａｔ,,合同会社,東京都,渋谷区,渋谷２丁目１９番１５号宮益坂ビルディング６０９,,13,113,1500002,,,,,,,2024-01-09,1,,,,,レジャーザット,0
1627,5011003018239,新規,0,2024-01-09,2024-01-09,ＬＥＸＩＣＯＮ　ＬＩＮＫ合同会社,,合同会社,東京都,渋谷区,恵比寿西２丁目４番８号ウィンド恵比寿ビル８階,,13,113,1500021,,,,,,,2024-01-09,1,,,,,レキシコンリンク,0
1633,5011103013924,新規,0,2024-01-09,2024-01-09,ＨａｐｐｙＢｅｌｌ合同会社,,合同会社,東京都,新宿区,西新宿３丁目３－１３西新宿水間ビル６階,,13,104,1600023,,,,,,,2024-01-09,1,,,,,ハッピーベル,0
1636,5011201025152,新規,0,2024-01-09,2024-01-09,ＳＲＡＣＥ株式会社,,株式会社,東京都,中野区,中央５丁目４２番１１号みどりハイツ２１６号室,,13,114,1640011,,,,,,,2024-01-09,1,,,,,エスレス,0
1637,5011601027434,新規,0,2024-01-09,2024-01-09,ＮＩＳＯＮ　ＴＥＣＨＮＯＬＯＧＹ　ＪＡＰＡＮ株式会社,,株式会社,東京都,練馬区,貫井５丁目１番１５－３０２号,,13,120,1760021,,,,,,,2024-01-09,1,,,,,ニソンテクノロジージャパン,0
1641,5011701026906,新規,0,2024-01-09,2024-01-09,川町株式会社,,株式会社,東京都,江戸川区,松江２丁目１－１３－１０６号室,,13,123,1320025,,,,,,,2024-01-09,1,,,,,カワマチ,0
1642,5011703003705,新規,0,2024-01-09,2024-01-09,合同会社ＳＨＩＫＡＮＯ,,合同会社,東京都,江戸川区,春江町２丁目６番２－３０２号,,13,123,1320003,,,,,,,2024-01-09,1,,,,,シカノ,0
1645,5012301013708,新規,0,2024-01-09,2024-01-09,株式会社ブラストアップ,,株式会社,東京都,町田市,相原町３３０６番地３,,13,209,1940211,,,,,,,2024-01-09,1,,,,,ブラストアップ,0
1646,5012403006353,新規,0,2024-01-09,2024-01-09,合同会社ＭＯＲＳＡ,,合同会社,東京都,府中市,四谷６丁目３０番地の２５,,13,206,1830035,,,,,,,2024-01-09,1,,,,,モルサ,0
1648,5013101009326,新規,0,2024-01-09,2024-01-09,株式会社Ｎｅｏ　Ｒｅｎｏｖａｔｉｏｎ,,株式会社,東京都,羽村市,羽西１丁目１８番地２７号,,13,227,2050017,,,,,,,2024-01-09,1,,,,,,0
1652,5020001155142,新規,0,2024-01-09,2024-01-09,株式会社Ｉｎｎｏｖａｔｉｏｎ　ｖａｌｕｅ,,株式会社,神奈川県,横浜市戸塚区,深谷町１３０２アークプラザ戸塚１２０,,14,110,2450067,,,,,,,2024-01-09,1,,,,,イノベーションバリュー,0
1653,5020001155183,新規,0,2024-01-09,2024-01-09,株式会社ｕｍｉｇｏｎ,,株式会社,神奈川県,横浜市西区,平沼１丁目２番８－１２０８号,,14,103,2200023,,,,,,,2024-01-09,1,,,,,ウミゴン,0
1654,5020001155191,新規,0,2024-01-09,2024-01-09,株式会社一見,,株式会社,神奈川県,横浜市港南区,上大岡東２丁目３１－１９,,14,111,2330001,,,,,,,2024-01-09,1,,,,,イッケン,0
1659,5020003025310,新規,0,2024-01-09,2024-01-09,ＡａａＳ合同会社,,合同会社,神奈川県,横浜市都筑区,見花山３番１５号,,14,118,2240066,,,,,,,2024-01-09,1,,,,,アース,0
1660,5020005016241,新規,0,2024-01-09,2024-01-09,一般社団法人ＴｒｉｐｌｅＳ,,その他の設立登記法人,神奈川県,横浜市西区,西平沼町１番１４‐５０３号ライオンズマンション,,14,103,2200024,,,,,,,2024-01-09,1,,,,,トリプルエス,0
1675,5030001157955,新規,0,2024-01-09,2024-01-09,株式会社ＣｏｒｅＳｈｉｆｔ,,株式会社,埼玉県,和光市,新倉１丁目１１番２９号,,11,229,3510115,,,,,,,2024-01-09,1,,,,,コアシフト,0
1676,5030001157988,新規,0,2024-01-09,2024-01-09,株式会社Ｋエステート,,株式会社,埼玉県,所沢市,東町１２番１０－２８０３号,,11,208,3591116,,,,,,,2024-01-09,1,,,,,ケイエステート,0
1683,5040001131521,新規,0,2024-01-09,2024-01-09,栗城興業株式会社,,株式会社,千葉県,松戸市,竹ケ花西町３０３番地の３１,,12,207,2710071,,,,,,,2024-01-09,1,,,,,クリキコウギョウ,0
1684,5040001131612,新規,0,2024-01-09,2024-01-09,株式会社ＣＲＯＳＳ,,株式会社,千葉県,松戸市,上本郷８９５番地２,,12,207,2710064,,,,,,,2024-01-09,1,,,,,クロス,0
1685,5040001131686,新規,0,2024-01-09,2024-01-09,株式会社ワイラボ,,株式会社,千葉県,市川市,宮久保３丁目１９番１７－２０６号（Ｅｍｉｎｅｎｃｅ・ＭＩＹＡ）,,12,203,2720822,,,,,,,2024-01-09,1,,,,,ワイラボ,0
1700,5080001026065,新規,0,2024-01-09,2024-01-09,Ｔｉｐ　Ｈｏｐｓ株式会社,,株式会社,静岡県,焼津市,焼津１丁目１０番３６号－２,,22,212,4250026,,,,,,,2024-01-09,1,,,,,ティップホップス,0
1703,5080101024448,新規,0,2024-01-09,2024-01-09,株式会社健裕,,株式会社,静岡県,三島市,日の出町６番４９号,,22,206,4110851,,,,,,,2024-01-09,1,,,,,ケンユウ,0
1737,5080401026929,新規,0,2024-01-09,2024-01-09,ココロオドル株式会社,,株式会社,静岡県,袋井市,高尾町１２番地の６,,22,216,4370027,,,,,,,2024-01-09,1,,,,,ココロオドル,0
1738,5080401026937,新規,0,2024-01-09,2024-01-09,株式会社布橋みやひろ,,株式会社,静岡県,浜松市中央区,布橋２丁目１６番２７号,,22,138,4328012,,,,,,,2024-01-09,1,,,,,ヌノハシミヤヒロ,0
1813,5110005017032,新規,0,2024-01-09,2024-01-09,特定非営利活動法人ウェルビーイング・アンド・ナッジ研究所,,その他の設立登記法人,新潟県,南蒲原郡田上町,大字羽生田丙５３３番地,,15,361,9591512,,,,,,,2024-01-09,1,,,,,ウェルビーイングアンドナッジケンキュウジョ,0
1823,5120001260972,新規,0,2024-01-09,2024-01-09,中日明珠文化交流株式会社,,株式会社,大阪府,大阪市生野区,生野西１丁目１５番２号－３０３,,27,116,5440024,,,,,,,2024-01-09,1,,,,,チュウニチメイジュブンカコウリュウ,0
1824,5120001261038,新規,0,2024-01-09,2024-01-09,株式会社シェアリング,,株式会社,大阪府,大阪市生野区,新今里３丁目１２番３号,,27,116,5440001,,,,,,,2024-01-09,1,,,,,シェアリング,0
1825,5120001261079,新規,0,2024-01-09,2024-01-09,上清株式会社,,株式会社,大阪府,大阪市住之江区,安立２丁目１０番１４号三坂ビル３０６号室,,27,125,5590003,,,,,,,2024-01-09,1,,,,,ジョウセイ,0
1826,5120001261087,新規,0,2024-01-09,2024-01-09,株式会社Ｊａｍｍｙ,,株式会社,大阪府,大阪市城東区,野江２丁目１３番１６号メゾンキコー野江１０１,,27,118,5360006,,,,,,,2024-01-09,1,,,,,ジャミー,0
1827,5120001261129,新規,0,2024-01-09,2024-01-09,株式会社Ａｋｅｏ,,株式会社,大阪府,大阪市東成区,大今里西３丁目２番２９号,,27,115,5370014,,,,,,,2024-01-09,1,,,,,アケオ,0
1828,5120001261186,新規,0,2024-01-09,2024-01-09,株式会社なかじま電気,,株式会社,大阪府,大阪市平野区,加美北５丁目６番８－４０７号,,27,126,5470001,,,,,,,2024-01-09,1,,,,,ナカジマデンキ,0
1829,5120001261211,新規,0,2024-01-09,2024-01-09,株式会社Ｓ　ｃｏｎｓｕｌｔｉｎｇ,,株式会社,大阪府,大阪市北区,西天満４丁目３番４号御影ビル２階,,27,127,5300047,,,,,,,2024-01-09,1,,,,,エスコンサルティング,0
1832,5120101068829,新規,0,2024-01-09,2024-01-09,株式会社辻崎自動車,00133247,株式会社,大阪府,大阪狭山市,山本東４３５番地,,27,231,5890036,,,,,,,2024-01-09,1,,,,,ツジサキジドウシャ,0
1834,5120103005607,新規,0,2024-01-09,2024-01-09,合同会社ＳＲ,,合同会社,大阪府,堺市西区,上６７０番地１ファミールハイツ鳳ＩＩＩ番館１５０１号,00133246,27,144,5938311,,,,,,,2024-01-09,1,,,,,エスアール,0
1835,5120105009804,新規,0,2024-01-09,2024-01-09,税理士法人木戸＆パートナーズ,,その他の設立登記法人,大阪府,岸和田市,下松町５０７９番地,,27,202,5960823,,,,,,,2024-01-09,1,,,,,キドアンドパートナーズ,0
1836,5120901048609,新規,0,2024-01-09,2024-01-09,株式会社テールマーケット,,株式会社,大阪府,豊中市,本町８丁目５番３６号,,27,203,5600021,,,,,,,2024-01-09,1,,,,,テールマーケット,0
1839,5122001037715,新規,0,2024-01-09,2024-01-09,株式会社リストゥール,,株式会社,大阪府,四條畷市,雁屋南町４番２０号,,27,229,5750036,,,,,,,2024-01-09,1,,,,,リストゥール,0
1842,5122003002766,新規,0,2024-01-09,2024-01-09,ＰＨＵＯＮＧ　ＢＥＥ　ＴＲＡＤＩＮＧ合同会社,,合同会社,大阪府,東大阪市,柏田東町１０番２５号,,27,227,5770833,,,,,,,2024-01-09,1,,,,,フォンビートレーディング,0
1844,5130001076063,新規,0,2024-01-09,2024-01-09,株式会社ブレイズ,,株式会社,京都府,京都市伏見区,羽束師鴨川町３４６番地２２,,26,109,6128484,,,,,,,2024-01-09,1,,,,,ブレイズ,0
1851,5140001132906,新規,0,2024-01-09,2024-01-09,株式会社Ｌｏｔｔａ,,株式会社,兵庫県,宝塚市,南ひばりガ丘１丁目１６番２０号,,28,214,6650811,,,,,,,2024-01-09,1,,,,,ロッタ,0
1855,5140003020010,新規,0,2024-01-09,2024-01-09,合同会社縁し,,合同会社,兵庫県,芦屋市,打出小槌町１５番３－４０７号,00133254,28,206,6590028,,,,,,,2024-01-09,1,,,,,エニシ,0
1856,5140005026897,新規,0,2024-01-09,2024-01-09,一般社団法人彩葉,,その他の設立登記法人,兵庫県,神戸市長田区,水笠通１丁目４番２－１号,,28,106,6530842,,,,,,,2024-01-09,1,,,,,イロハ,0
1858,5150005009546,新規,0,2024-01-09,2024-01-09,医療法人杏樹,,その他の設立登記法人,奈良県,生駒市,真弓１丁目２－８,,29,209,6300122,,,,,,,2024-01-09,1,,,,,アンジュ,0
1861,5170001017955,新規,0,2024-01-09,2024-01-09,株式会社ありもとファーム,,株式会社,和歌山県,日高郡みなべ町,東岩代１７０８番地１,,30,391,6450013,,,,,,,2024-01-09,1,,,,,アリモトファーム,0
1864,5180001159623,新規,0,2024-01-09,2024-01-09,株式会社サンスペース,,株式会社,愛知県,春日井市,高山町２丁目１１番地３,,23,206,4860912,,,,,,,2024-01-09,1,,,,,サンスペース,0
1865,5180001159631,新規,0,2024-01-09,2024-01-09,エナジーソリューションズ株式会社,,株式会社,愛知県,名古屋市中区,丸の内２丁目１６番３号丸の内Ａ・Ｔビル９階,,23,106,4600002,,,,,,,2024-01-09,1,,,,,エナジーソリューションズ,0
1866,5180003026202,新規,0,2024-01-09,2024-01-09,Ｃｏｄｅｘ合同会社,,合同会社,愛知県,名古屋市緑区,相原郷２丁目１２０１番地サンマンションアトレ４０３号,,23,114,4580033,,,,,,,2024-01-09,1,,,,,コデックス,0
1872,5180005020483,新規,0,2024-01-09,2024-01-09,一般社団法人想創,,その他の設立登記法人,愛知県,犬山市,上坂町２丁目２０８番地,,23,215,4840059,,,,,,,2024-01-09,1,,,,,ソウソウ,0
1875,5190001030997,新規,0,2024-01-09,2024-01-09,株式会社ＳＴＬ,,株式会社,三重県,津市,豊が丘３丁目１０番２号,,24,201,5142222,,,,,,,2024-01-09,1,,,,,エスティーエル,0
1881,5200001042041,新規,0,2024-01-09,2024-01-09,株式会社ナカモト,,株式会社,岐阜県,可児市,光陽台７丁目７７番地,,21,214,5090255,,,,,,,2024-01-09,1,,,,,ナカモト,0
1882,5200003006201,新規,0,2024-01-09,2024-01-09,合同会社なかきりん,,合同会社,岐阜県,岐阜市,上茶屋町１４番地,,21,201,5008021,,,,,,,2024-01-09,1,,,,,ナカキリン,0
1888,5240001062622,新規,0,2024-01-09,2024-01-09,株式会社Ａｌｌ　Ｒｉｇｈｔ,,株式会社,広島県,広島市南区,宇品海岸１丁目１２番２８－３０７号,,34,103,7340011,,,,,,,2024-01-09,1,,,,,オールライト,0
1889,5240001062630,新規,0,2024-01-09,2024-01-09,株式会社村上タイル,,株式会社,広島県,呉市,川尻町東３丁目１２番６号,,34,202,7372607,,,,,,,2024-01-09,1,,,,,ムラカミタイル,0
1890,5240001062639,新規,0,2024-01-09,2024-01-09,岡設備株式会社,,株式会社,広島県,広島市佐伯区,海老園４丁目７番１－１０１号Ｃ棟,,34,108,7315135,,,,,,,2024-01-09,1,,,,,オカセツビ,0
1895,5260001038620,新規,0,2024-01-09,2024-01-09,ＳＡＮＹＯ　ＨＤ株式会社,,株式会社,岡山県,岡山市北区,下伊福上町８番２０号,,33,101,7000051,,,,,,,2024-01-09,1,,,,,サンヨーホールディングス,0
1896,5260001038629,新規,0,2024-01-09,2024-01-09,株式会社タンケンファーム,,株式会社,岡山県,勝田郡奈義町,行方４０３番地３,,33,623,7081305,,,,,,,2024-01-09,1,,,,,タンケンファーム,0
1902,5290001104196,新規,0,2024-01-09,2024-01-09,ｔｏｇｏ株式会社,,株式会社,福岡県,福岡市西区,姪の浜２丁目９番２４－２０９号,,40,135,8190002,,,,,,,2024-01-09,1,,,,,トゴ,0
1904,5290005019250,新規,0,2024-01-09,2024-01-09,医療法人真正会,,その他の設立登記法人,福岡県,福岡市早良区,西新４丁目３－２０－３０４,,40,137,8140002,,,,,,,2024-01-09,1,,,,,シンセイカイ,0
1905,5310001018773,新規,0,2024-01-09,2024-01-09,株式会社されそら,,株式会社,長崎県,佐世保市,江迎町田ノ元１２９３番地４,,42,202,8596134,,,,,,,2024-01-09,1,,,,,サレソラ,0
1912,5350001018745,新規,0,2024-01-09,2024-01-09,株式会社Ｈテック,,株式会社,宮崎県,小林市,須木内山５３２５番地４３４,,45,205,8860115,,,,,,,2024-01-09,1,,,,,エイチテック,0
1913,5350005006201,新規,0,2024-01-09,2024-01-09,弁護士法人パラソル,,その他の設立登記法人,宮崎県,宮崎市,広島１丁目４番６号,,45,201,8800806,,,,,,,2024-01-09,1,,,,,パラソル,0
1926,5360003013603,新規,0,2024-01-09,2024-01-09,合同会社分解マン沖繩,,合同会社,沖縄県,中頭郡中城村,字伊集１５１－４（２Ｆ）,,47,328,9012417,,,,,,,2024-01-09,1,,,,,ブンカイマンオキナワ,0
1927,5370001050795,新規,0,2024-01-09,2024-01-09,ケー・システム株式会社,,株式会社,宮城県,仙台市青葉区,栗生１丁目１５番地の２９,,04,101,9893122,,,,,,,2024-01-09,1,,,,,ケーシステム,0
1931,5380001034228,新規,0,2024-01-09,2024-01-09,株式会社碧リフォーム,,株式会社,福島県,福島市,笹谷字寺町２０‐１,,07,201,9600241,,,,,,,2024-01-09,1,,,,,アオイリフォーム,0
1936,5420003002863,新規,0,2024-01-09,2024-01-09,合同会社ｎｅｏｎ,,合同会社,青森県,五所川原市,中央１丁目１６１,,02,205,0370036,,,,,,,2024-01-09,1,,,,,ネオン,0
1941,5430001090752,新規,0,2024-01-09,2024-01-09,株式会社Ｍａｒｅ　Ｂｌｕ,,株式会社,北海道,余市郡余市町,黒川町４丁目１０６番地,,01,408,0460003,,,,,,,2024-01-09,1,,,,,マーレブルー,0
1943,5430003015823,新規,0,2024-01-09,2024-01-09,合同会社エムアンドエフ,,合同会社,北海道,札幌市中央区,南十六条西９丁目１－２３,,01,101,0640916,,,,,,,2024-01-09,1,,,,,エムアンドエフ,0
1944,5440001009371,新規,0,2024-01-09,2024-01-09,グリーンピア大沼株式会社,,株式会社,北海道,茅部郡森町,字赤井川２２９番地,,01,345,0492142,,,,,,,2024-01-09,1,,,,,グリーンピアオオヌマ,0
1945,5450003002423,新規,0,2024-01-09,2024-01-09,合同会社清水,,合同会社,北海道,勇払郡占冠村,字上トマム,,01,463,0792205,,,,,,,2024-01-09,1,,,,,キヨミズ,0
1974,6010001241264,新規,0,2024-01-09,2024-01-09,株式会社フローラル,,株式会社,東京都,文京区,本駒込２丁目２８番１号,,13,105,1130021,,,,,,,2024-01-09,1,,,,,フローラル,0
1975,6010003042611,新規,0,2024-01-09,2024-01-09,日印道路合同会社,,合同会社,東京都,千代田区,内幸町２丁目２番３号,,13,101,1000011,,,,,,,2024-01-09,1,,,,,ニチインドウロ,0
1976,6010003042628,新規,0,2024-01-09,2024-01-09,合同会社セキュリティスキャンプロ,,合同会社,東京都,中央区,銀座１丁目１２－４Ｎ＆ＥＢＬＤ．７階,,13,102,1040061,,,,,,,2024-01-09,1,,,,,セキュリティスキャンプロ,0
1986,6010401179550,新規,0,2024-01-09,2024-01-09,株式会社ブルーシーリング,,株式会社,東京都,港区,台場１丁目５番４－１２１１号,,13,103,1350091,,,,,,,2024-01-09,1,,,,,ブルーシーリング,0
1987,6010401179559,新規,0,2024-01-09,2024-01-09,株式会社季節巡ル,,株式会社,東京都,港区,白金台２丁目２０番３号ピエールリヴィエール白金台ＩＩ１０３,00133245,13,103,1080071,,,,,,,2024-01-09,1,,,,,キセツメグル,0
1989,6010405022814,新規,0,2024-01-09,2024-01-09,一般社団法人ＡｗａｋＡｐｐ,,その他の設立登記法人,東京都,港区,新橋１丁目１２番９号新橋プレイススペシャリスト・ドクターズ株式会社内,,13,103,1050004,,,,,,,2024-01-09,1,,,,,アウェイクアップ,0
1995,6010501051584,新規,0,2024-01-09,2024-01-09,株式会社建東,,株式会社,東京都,台東区,東上野１丁目１０－８旭光ビル５Ｆ,,13,106,1100015,,,,,,,2024-01-09,1,,,,,ケントウ,0
1998,6010503007287,新規,0,2024-01-09,2024-01-09,ＭＹＬ合同会社,,合同会社,東京都,台東区,小島２丁目１４－６ダイアパレス御徒町第２，３０１－Ａ,,13,106,1110056,,,,,,,2024-01-09,1,,,,,エムワイエル,0
1999,6010701045353,新規,0,2024-01-09,2024-01-09,Ｈｉｇｈｉｈｉ株式会社,,株式会社,東京都,品川区,南大井３丁目２７番１４号,,13,109,1400013,,,,,,,2024-01-09,1,,,,,ハイハイハイ,0
2000,6010701045361,新規,0,2024-01-09,2024-01-09,株式会社幸心,,株式会社,東京都,品川区,東五反田２丁目３－２ＩＭ五反田ビル２Ｆ,,13,109,1410022,,,,,,,2024-01-09,1,,,,,コウシン,0
2001,6010703007013,新規,0,2024-01-09,2024-01-09,合同会社アイジー企画,,合同会社,東京都,品川区,西中延１丁目９－１８ホワイトアビタシオン４０３,,13,109,1420054,,,,,,,2024-01-09,1,,,,,アイジーキカク,0
2004,6010803004793,新規,0,2024-01-09,2024-01-09,合同会社オフィスりょう,,合同会社,東京都,大田区,大森南３丁目９番９号ＣＡＮＡＬＥ大森南５０７,,13,111,1430013,,,,,,,2024-01-09,1,,,,,オフィスリョウ,0
2005,6010803004802,新規,0,2024-01-09,2024-01-09,恵比寿キャピタル投資合同会社,,合同会社,東京都,大田区,西六郷１丁目１３番－１ライオンズステージ蒲田４１４号,,13,111,1440056,,,,,,,2024-01-09,1,,,,,エビスキャピタルトウシ,0
2006,6010901054484,新規,0,2024-01-09,2024-01-09,ドットスタン株式会社,,株式会社,東京都,世田谷区,若林２丁目８番２号エムズ３０２,,13,112,1540023,,,,,,,2024-01-09,1,,,,,ドットスタン,0
2011,6011001159199,新規,0,2024-01-09,2024-01-09,株式会社Ｐｉ０ｎｅｅｒ,,株式会社,東京都,渋谷区,恵比寿西２丁目４番８号ウィンド恵比寿ビル８Ｆ,,13,113,1500021,,,,,,,2024-01-09,1,,,,,パイオニア,0
2012,6011001159216,新規,0,2024-01-09,2024-01-09,株式会社ＴＭＧ,,株式会社,東京都,目黒区,青葉台３丁目３番４号３Ｆ,,13,110,1530042,,,,,,,2024-01-09,1,,,,,ティーエムジー,0
2013,6011001159224,新規,0,2024-01-09,2024-01-09,株式会社ＹＯＡＫＥ　ｅｎｔｅｒｔａｉｎｍｅｎｔ,,株式会社,東京都,渋谷区,神宮前５丁目４６番１号,,13,113,1500001,,,,,,,2024-01-09,1,,,,,ヨアケエンターテインメント,0
2014,6011001159240,新規,0,2024-01-09,2024-01-09,株式会社リスと葡萄,,株式会社,東京都,渋谷区,神宮前１丁目１４番１３号,,13,113,1500001,,,,,,,2024-01-09,1,,,,,リストブドウ,0
2015,6011001159249,新規,0,2024-01-09,2024-01-09,株式会社ＬｉｆｅＭａｇａｚｉｎｅ,,株式会社,東京都,渋谷区,円山町２３番９－３１４号渋谷藤和コープ,,13,113,1500044,,,,,,,2024-01-09,1,,,,,ライフマガジン,0
2016,6011001159273,新規,0,2024-01-09,2024-01-09,株式会社記録と記憶,,株式会社,東京都,渋谷区,代々木２丁目３６番４号代々木プリンスマンション３０３,,13,113,1510053,,,,,,,2024-01-09,1,,,,,キロクトキオク,0
2018,6011003018238,新規,0,2024-01-09,2024-01-09,ムラカミックス合同会社,,合同会社,東京都,渋谷区,神泉町１２番７号,,13,113,1500045,,,,,,,2024-01-09,1,,,,,ムラカミックス,0
2029,6011201025151,新規,0,2024-01-09,2024-01-09,株式会社ＫＹＦホールディングス,,株式会社,東京都,中野区,野方４丁目１８番１５号,,13,114,1650027,,,,,,,2024-01-09,1,,,,,ケーワイエフホールディングス,0
2032,6011501030165,新規,0,2024-01-09,2024-01-09,株式会社白澤,,株式会社,東京都,荒川区,東日暮里５丁目５２番６号,,13,118,1160014,,,,,,,2024-01-09,1,,,,,シロザワ,0
2036,6011601027433,新規,0,2024-01-09,2024-01-09,株式会社アルエス,,株式会社,東京都,練馬区,石神井町２丁目７－１４メゾンフローラル２０２号,,13,120,1770041,,,,,,,2024-01-09,1,,,,,アルエス,0
2037,6011701026905,新規,0,2024-01-09,2024-01-09,飛魚科技株式会社,,株式会社,東京都,江戸川区,松江２丁目１－１３－１０９号室,,13,123,1320025,,,,,,,2024-01-09,1,,,,,ヒギョカギ,0
2039,6012801022884,新規,0,2024-01-09,2024-01-09,株式会社ＡＲＣ,,株式会社,東京都,国分寺市,北町１丁目１２番地４５,,13,214,1850001,,,,,,,2024-01-09,1,,,,,アーク,0
2045,6020001155059,新規,0,2024-01-09,2024-01-09,株式会社日向産業,,株式会社,神奈川県,川崎市川崎区,京町３丁目２９番７号,,14,131,2100848,,,,,,,2024-01-09,1,,,,,ヒナタサンギョウ,0
2046,6020001155208,新規,0,2024-01-09,2024-01-09,株式会社オルチャン,,株式会社,神奈川県,横浜市中区,野毛町２丁目７４番地,,14,104,2310064,,,,,,,2024-01-09,1,,,,,オルチャン,0
2047,6020001155240,新規,0,2024-01-09,2024-01-09,ＳＭＧインターナショナル株式会社,,株式会社,神奈川県,横浜市中区,本牧和田６－１１,,14,104,2310827,,,,,,,2024-01-09,1,,,,,エスエムジーインターナショナル,0
2050,6020003025301,新規,0,2024-01-09,2024-01-09,トップインサイト合同会社,,合同会社,神奈川県,川崎市宮前区,鷺沼３丁目１２番地５パークホームズ鷺沼三丁目ヒルテラス５０６,,14,136,2160004,,,,,,,2024-01-09,1,,,,,トップインサイト,0
2060,6030001157913,新規,0,2024-01-09,2024-01-09,株式会社ｌｉｂｅｒｔａｄ,,株式会社,埼玉県,川越市,川鶴３丁目１８番地９,,11,201,3501176,,,,,,,2024-01-09,1,,,,,リベルター,0
2061,6030001157995,新規,0,2024-01-09,2024-01-09,福龍通商株式会社,,株式会社,埼玉県,草加市,草加４丁目２番１５－３０２号,,11,221,3400043,,,,,,,2024-01-09,1,,,,,フクリュウツウショウ,0
2062,6030001158011,新規,0,2024-01-09,2024-01-09,株式会社プラスアート,,株式会社,埼玉県,所沢市,小手指町５丁目８番地の１１－２０５号,,11,208,3591141,,,,,,,2024-01-09,1,,,,,プラスアート,0
2063,6030001158077,新規,0,2024-01-09,2024-01-09,株式会社フライヤーズ広告,,株式会社,埼玉県,川口市,大字芝２７９０番地の１エクセリア２０３号,,11,203,3330866,,,,,,,2024-01-09,1,,,,,フライヤーズコウコク,0
2064,6030003023329,新規,0,2024-01-09,2024-01-09,エネクル・シグナス小水力合同会社,,合同会社,埼玉県,草加市,住吉１丁目１３番１０号,,11,221,3400014,,,,,,,2024-01-09,1,,,,,エネクルシグナスショウスイリョク,0
2065,6030003023345,新規,0,2024-01-09,2024-01-09,合同会社フクロウの森,,合同会社,埼玉県,熊谷市,妻沼東２丁目３番地１,,11,202,3600202,,,,,,,2024-01-09,1,,,,,フクロウノモリ,0
2067,6040001131660,新規,0,2024-01-09,2024-01-09,株式会社荒井インテリア,,株式会社,千葉県,野田市,東金野井１０１２番地,,12,208,2700236,,,,,,,2024-01-09,1,,,,,アライインテリア,0
2068,6040001131685,新規,0,2024-01-09,2024-01-09,株式会社リバラクト,,株式会社,千葉県,柏市,増尾５丁目１０－１７,,12,217,2770033,,,,,,,2024-01-09,1,,,,,リバラクト,0
2076,6060001036701,新規,0,2024-01-09,2024-01-09,株式会社Ｄｉｃｅ,,株式会社,栃木県,宇都宮市,越戸１丁目６番１１号,,09,201,3210951,,,,,,,2024-01-09,1,,,,,ダイス,0
2079,6080001026064,新規,0,2024-01-09,2024-01-09,株式会社つなぐ,,株式会社,静岡県,焼津市,中新田４８１番地の１１,,22,212,4250068,,,,,,,2024-01-09,1,,,,,ツナグ,0
2080,6080101024447,新規,0,2024-01-09,2024-01-09,株式会社佐藤工業,,株式会社,静岡県,富士市,伝法１７３１番地の４１,,22,210,4170061,,,,,,,2024-01-09,1,,,,,サトウコウギョウ,0
2106,6080401026936,新規,0,2024-01-09,2024-01-09,株式会社Ｋ．Ｍ．Ｄ,,株式会社,静岡県,浜松市中央区,有玉南町３３８番地の９,,22,138,4313122,,,,,,,2024-01-09,1,,,,,ケーエムディー,0
2186,6110003005252,新規,0,2024-01-09,2024-01-09,合同会社スマートライフ,,合同会社,新潟県,長岡市,与板町蔦都６０６番地,,15,202,9402411,,,,,,,2024-01-09,1,,,,,スマートライフ,0
2193,6120001261053,新規,0,2024-01-09,2024-01-09,株式会社ボランタス,,株式会社,大阪府,交野市,私部西１丁目６番１６－６０４号,,27,230,5760041,,,,,,,2024-01-09,1,,,,,ボランタス,0
2194,6120001261094,新規,0,2024-01-09,2024-01-09,株式会社Ｋ５８,,株式会社,大阪府,大阪市北区,梅田１丁目２番２号大阪駅前第２ビル１２－１２,,27,127,5300001,,,,,,,2024-01-09,1,,,,,ケイゴジュウハチ,0
2195,6120001261111,新規,0,2024-01-09,2024-01-09,静諾株式会社,,株式会社,大阪府,大阪市西成区,橘３丁目７番３号西天マンション１階,,27,122,5570051,,,,,,,2024-01-09,1,,,,,セイダク,0
2196,6120001261193,新規,0,2024-01-09,2024-01-09,株式会社Ｈｕｍｏｕｒ,,株式会社,大阪府,大阪市西成区,旭１丁目４番２３号,,27,122,5570032,,,,,,,2024-01-09,1,,,,,ユーモア,0
2197,6120001261210,新規,0,2024-01-09,2024-01-09,株式会社Ａｉ．Ｔ　Ｐｒｏｐｅｒｔｙ,,株式会社,大阪府,大阪市淀川区,西中島６丁目１１番２５号第１０新大阪ビル２階,,27,123,5320011,,,,,,,2024-01-09,1,,,,,アイティープロパティ,0
2204,6120101068828,新規,0,2024-01-09,2024-01-09,至誠商事株式会社,,株式会社,大阪府,松原市,南新町１丁目３番８号,,27,217,5800023,,,,,,,2024-01-09,1,,,,,シセイショウジ,0
2205,6120901048590,新規,0,2024-01-09,2024-01-09,株式会社ふるめいつ,,株式会社,大阪府,高槻市,紺屋町３番１号,,27,207,5690804,,,,,,,2024-01-09,1,,,,,フルメイツ,0
2209,6122001037714,新規,0,2024-01-09,2024-01-09,ジャパンサポート株式会社,,株式会社,大阪府,東大阪市,荒本新町６番４０号,,27,227,5770022,,,,,,,2024-01-09,1,,,,,ジャパンサポート,0
2210,6130001076070,新規,0,2024-01-09,2024-01-09,ＥＸＴＡＧＥ　ＣＯＮＳＵＬＴＩＮＧ株式会社,,株式会社,京都府,京都市中京区,二条通西洞院東入ル正行寺町６５９番地,,26,104,6040000,,,,,,,2024-01-09,1,,,,,エクステージコンサルティング,0
2216,6140001132830,新規,0,2024-01-09,2024-01-09,株式会社皇雅,,株式会社,兵庫県,川西市,多田桜木２丁目６番１８号,,28,217,6660124,,,,,,,2024-01-09,1,,,,,コウガ,0
2217,6140001132896,新規,0,2024-01-09,2024-01-09,株式会社ＣＰＳ　ＨＯＬＤＩＮＧＳ,,株式会社,兵庫県,三田市,乙原２３９５番地４８,,28,219,6691503,,,,,,,2024-01-09,1,,,,,シーピーエスホールディングス,0
2218,6140001132905,新規,0,2024-01-09,2024-01-09,株式会社メンテック関西,,株式会社,兵庫県,宝塚市,福井町３２番３９号,,28,214,6650046,,,,,,,2024-01-09,1,,,,,メンテックカンサイ,0
2220,6140003020001,新規,0,2024-01-09,2024-01-09,合同会社ＳＡＴＯ　ＷＯＲＫＳ,,合同会社,兵庫県,神戸市灘区,桜ヶ丘町１６番１２号,,28,102,6570021,,,,,,,2024-01-09,1,,,,,サトーワークス,0
2221,6140003020018,新規,0,2024-01-09,2024-01-09,合同会社グランツ,,合同会社,兵庫県,神戸市兵庫区,西上橘通１丁目２番７－３０２号,,28,105,6520033,,,,,,,2024-01-09,1,,,,,グランツ,0
2223,6140005026896,新規,0,2024-01-09,2024-01-09,医療法人社団やまの泌尿器科,,その他の設立登記法人,兵庫県,神戸市兵庫区,羽坂通４丁目１番１号兵庫駅前ビル１０１,,28,105,6520805,,,,,,,2024-01-09,1,,,,,ヤマノヒニョウキカ,0
2224,6150005009545,新規,0,2024-01-09,2024-01-09,一般社団法人かぎしっぽ,,その他の設立登記法人,奈良県,生駒市,中菜畑２丁目１１５１番地１８,,29,209,6300263,,,,,,,2024-01-09,1,,,,,カギシッポ,0
2238,6180001159630,新規,0,2024-01-09,2024-01-09,リーガルエクスロー株式会社,,株式会社,愛知県,名古屋市中区,丸の内１丁目１７番１９号キリックス丸の内ビル７Ｆ,,23,106,4600002,,,,,,,2024-01-09,1,,,,,リーガルエクスロー,0
2239,6180001159639,新規,0,2024-01-09,2024-01-09,株式会社まーさん,,株式会社,愛知県,北名古屋市,熊之庄石原６８番地,,23,234,4810006,,,,,,,2024-01-09,1,,,,,マーサン,0
2240,6180001159647,新規,0,2024-01-09,2024-01-09,株式会社ＢｏｎＢｌｏｏｍ,,株式会社,愛知県,東海市,富木島町伏見２丁目３番地の３０,,23,222,4760012,,,,,,,2024-01-09,1,,,,,ボンブルーム,0
2244,6180301038187,新規,0,2024-01-09,2024-01-09,株式会社Ａｄｖａｎｃｅ,,株式会社,愛知県,豊橋市,西幸町字浜池３３３－９豊橋サイエンスコア１０９,,23,201,4418113,,,,,,,2024-01-09,1,,,,,アドバンス,0
2245,6180301038204,新規,0,2024-01-09,2024-01-09,松本総建株式会社,,株式会社,愛知県,高浜市,屋敷町１丁目３番地２０,,23,227,4441331,,,,,,,2024-01-09,1,,,,,マツモトソウケン,0
2249,6200001042040,新規,0,2024-01-09,2024-01-09,株式会社アグラオネマラボラトリー,,株式会社,岐阜県,郡上市,八幡町初音３６７４番地１,,21,219,5014232,,,,,,,2024-01-09,1,,,,,アグラオネマラボラトリー,0
2251,6210001019590,新規,0,2024-01-09,2024-01-09,株式会社葵工業,,株式会社,福井県,小浜市,駅前町４番８号,,18,204,9170077,,,,,,,2024-01-09,1,,,,,アオイコウギョウ,0
2258,6240001062605,新規,0,2024-01-09,2024-01-09,株式会社ｂｌｕｅｓｔｅｐ,,株式会社,広島県,呉市,阿賀北８丁目６番１６号,,34,202,7370001,,,,,,,2024-01-09,1,,,,,ブルーステップ,0
2259,6240003006477,新規,0,2024-01-09,2024-01-09,ベルメゾン合同会社,,合同会社,広島県,広島市西区,井口鈴が台１丁目８番１３号,,34,104,7330843,,,,,,,2024-01-09,1,,,,,ベルメゾン,0
2261,6250001020462,新規,0,2024-01-09,2024-01-09,株式会社Ｒｅａｌｉｄｅ,,株式会社,山口県,光市,室積東ノ庄１４番６号,,35,210,7430005,,,,,,,2024-01-09,1,,,,,リアライド,0
2262,6250005008891,新規,0,2024-01-09,2024-01-09,特定非営利活動法人山口大学臨床外科共同研究会,,その他の設立登記法人,山口県,宇部市,南小串１丁目１番１号山口大学大学院医学系研究科消化器・腫瘍外科学講座内,,35,202,7550046,,,,,,,2024-01-09,1,,,,,ヤマグチダイガクリンショウゲカキョウドウケンキュウカイ,0
2263,6260001038628,新規,0,2024-01-09,2024-01-09,株式会社ＨＯＬＯＩ,,株式会社,岡山県,岡山市中区,祇園４２２－１１,00133243,33,102,7038207,,,,,,,2024-01-09,1,,,,,ホロイ,0
2270,6290001104237,新規,0,2024-01-09,2024-01-09,株式会社初魚,,株式会社,福岡県,福岡市中央区,長浜３丁目１４番１号鮮魚市場立体駐車場棟３階,,40,133,8100072,,,,,,,2024-01-09,1,,,,,ハツギョ,0
2273,6290005019241,新規,0,2024-01-09,2024-01-09,特定非営利活動法人てろん,,その他の設立登記法人,福岡県,八女市,吉田１１５１番地６,,40,210,8340006,,,,,,,2024-01-09,1,,,,,テロン,0
2275,6310001018780,新規,0,2024-01-09,2024-01-09,ハウス工房ふくだ株式会社,,株式会社,長崎県,諫早市,福田町４番８号,,42,204,8540001,,,,,,,2024-01-09,1,,,,,ハウスコウボウフクダ,0
2276,6310001018789,新規,0,2024-01-09,2024-01-09,株式会社ＲＩＮ,,株式会社,長崎県,長崎市,銅座町８番１２号,,42,201,8500841,,,,,,,2024-01-09,1,,,,,リン,0
2288,6360001033040,新規,0,2024-01-09,2024-01-09,株式会社大洸冷熱,,株式会社,沖縄県,浦添市,牧港３丁目１７番６号,,47,208,9012131,,,,,,,2024-01-09,1,,,,,ダイコウレイネツ,0
2291,6360003013593,新規,0,2024-01-09,2024-01-09,合同会社オキ再生砂販売,,合同会社,沖縄県,国頭郡金武町,字金武５３２番地,,47,314,9041201,,,,,,,2024-01-09,1,,,,,オキサイセイスナハンバイ,0
2292,6360003013602,新規,0,2024-01-09,2024-01-09,合同会社ｋｉｋｉ,,合同会社,沖縄県,那覇市,おもろまち３丁目４番６ー５０１号ＣｈｕｌａＶｉｓｔａおもろテラス,,47,201,9000006,,,,,,,2024-01-09,1,,,,,キキ,0
2294,6360005006967,新規,0,2024-01-09,2024-01-09,一般社団法人ＵＲＵＦＵＬＬ,,その他の設立登記法人,沖縄県,うるま市,字田場１９７１－５,,47,213,9042213,,,,,,,2024-01-09,1,,,,,ウルフル,0
2295,6370001050786,新規,0,2024-01-09,2024-01-09,ステンホールディングス株式会社,,株式会社,宮城県,仙台市青葉区,一番町２丁目５番２２号ＧＣ青葉通りプラザ９Ｆ,,04,101,9800811,,,,,,,2024-01-09,1,,,,,ステンホールディングス,0
2296,6370001050803,新規,0,2024-01-09,2024-01-09,株式会社ＴＥＲＲＡＳ,,株式会社,宮城県,仙台市泉区,将監３丁目５番６－２号,,04,105,9813132,,,,,,,2024-01-09,1,,,,,テラス,0
2302,6380003005655,新規,0,2024-01-09,2024-01-09,合同会社チャンドラ,,合同会社,福島県,いわき市,泉町１丁目１番地の５,,07,204,9718185,,,,,,,2024-01-09,1,,,,,チャンドラ,0
2304,6390003002189,新規,0,2024-01-09,2024-01-09,合同会社アスラク,,合同会社,山形県,最上郡金山町,大字金山１６７番地１０,,06,361,9995402,,,,,,,2024-01-09,1,,,,,アスラク,0
2310,6430001090792,新規,0,2024-01-09,2024-01-09,株式会社たけこし企画,,株式会社,北海道,苫小牧市,字勇払１５７－１４,,01,213,0591372,,,,,,,2024-01-09,1,,,,,タケコシキカク,0
2332,7010001241214,新規,0,2024-01-09,2024-01-09,株式会社ＨＫＫ,,株式会社,東京都,中央区,日本橋２丁目９番４号,,13,102,1030027,,,,,,,2024-01-09,1,,,,,エイチケーケー,0
2333,7010001241271,新規,0,2024-01-09,2024-01-09,株式会社クリエディア,,株式会社,東京都,千代田区,九段南１丁目５番６号りそな九段ビル５Ｆ,,13,101,1020074,,,,,,,2024-01-09,1,,,,,クリエディア,0
2337,7010003042511,新規,0,2024-01-09,2024-01-09,ＳＹＮＥＲＧＹ合同会社,,合同会社,東京都,千代田区,岩本町３丁目１０番４号寿ビルディング９Ｆ,,13,101,1010032,,,,,,,2024-01-09,1,,,,,シナジー,0
2338,7010003042593,新規,0,2024-01-09,2024-01-09,合同会社経営研究所,,合同会社,東京都,文京区,小日向２丁目１９番１６－１０１号,,13,105,1120006,,,,,,,2024-01-09,1,,,,,ケイエイケンキュウショ,0
2349,7010401179500,新規,0,2024-01-09,2024-01-09,株式会社Ｉｎｆｉｂｉｌｉｔｉｓ,,株式会社,東京都,港区,芝４丁目７－６芝ビルディング７０１,,13,103,1080014,,,,,,,2024-01-09,1,,,,,インフィビリティス,0
2350,7010401179574,新規,0,2024-01-09,2024-01-09,株式会社こもれび,,株式会社,東京都,港区,南青山２丁目２番１５号ウィン青山９４２,,13,103,1070062,,,,,,,2024-01-09,1,,,,,コモレビ,0
2353,7010403031667,新規,0,2024-01-09,2024-01-09,合同会社福祉人事,,合同会社,東京都,港区,南青山２丁目２番１５号,,13,103,1070062,,,,,,,2024-01-09,1,,,,,フクシジンジ,0
2354,7010405022813,新規,0,2024-01-09,2024-01-09,一般社団法人ウィズリッチアソシエーション,,その他の設立登記法人,東京都,港区,麻布十番２丁目１７番５－２０３号,,13,103,1060045,,,,,,,2024-01-09,1,,,,,ウィズリッチアソシエーション,0
2355,7010503007286,新規,0,2024-01-09,2024-01-09,心陽合同会社,,合同会社,東京都,台東区,竜泉３丁目８番４号ハンエイビル３０１,,13,106,1100012,,,,,,,2024-01-09,1,,,,,シンヨウ,0
2357,7010601064403,新規,0,2024-01-09,2024-01-09,Ｆａｉｒ　Ｓｈａｒｅ株式会社,,株式会社,東京都,江東区,亀戸２丁目６番９－４１６号,,13,108,1360071,,,,,,,2024-01-09,1,,,,,フェアシェア,0
2358,7010601064444,新規,0,2024-01-09,2024-01-09,淺沼土地建物株式会社,,株式会社,東京都,墨田区,江東橋２丁目６番１４号エスカイア錦糸町プラザ９０３,,13,107,1300022,,,,,,,2024-01-09,1,,,,,アサヌマトチタテモノ,0
2363,7010701045352,新規,0,2024-01-09,2024-01-09,株式会社さくらＦｕｔｕｒｅ　Ｖｉｓｉｏｎ,,株式会社,東京都,品川区,中延４丁目４番１１号三和ハイツ３０１,,13,109,1420053,,,,,,,2024-01-09,1,,,,,サクラフューチャービジョン,0
2364,7010701045360,新規,0,2024-01-09,2024-01-09,株式会社ＫＯＺＵＣＨＩ,,株式会社,東京都,品川区,西五反田１丁目２６番２－９１１号,,13,109,1410031,,,,,,,2024-01-09,1,,,,,コズチ,0
2370,7010901054483,新規,0,2024-01-09,2024-01-09,株式会社ＳＴＯＣＫ,,株式会社,東京都,世田谷区,等々力７丁目１４番２－２０３号,,13,112,1580082,,,,,,,2024-01-09,1,,,,,ストック,0
2381,7011001159140,新規,0,2024-01-09,2024-01-09,株式会社７８ｔｏｋｙｏ,,株式会社,東京都,目黒区,上目黒４丁目１３－７,,13,110,1530051,,,,,,,2024-01-09,1,,,,,セブンエイトトウキョウ,0
2382,7011001159231,新規,0,2024-01-09,2024-01-09,株式会社ＮＥＸＴ,,株式会社,東京都,渋谷区,恵比寿西１丁目１０番８号本間ビル地下１階,,13,113,1500021,,,,,,,2024-01-09,1,,,,,ネクスト,0
2388,7011201025150,新規,0,2024-01-09,2024-01-09,長澤商事株式会社,,株式会社,東京都,中野区,弥生町６丁目１２番３号,,13,114,1640013,,,,,,,2024-01-09,1,,,,,ナガサワショウジ,0
2390,7011403004225,新規,0,2024-01-09,2024-01-09,デイジーデザイン合同会社,,合同会社,東京都,板橋区,高島平３丁目１０番１９－４０１号,,13,119,1750082,,,,,,,2024-01-09,1,,,,,デイジーデザイン,0
2392,7011601027432,新規,0,2024-01-09,2024-01-09,株式会社Ｗｉｌｉｃｕｓ,,株式会社,東京都,練馬区,小竹町１丁目５５番１号武田ビル２階,,13,120,1760004,,,,,,,2024-01-09,1,,,,,ウィリクス,0
2412,7020001155165,新規,0,2024-01-09,2024-01-09,アジアジャパンパス株式会社,,株式会社,神奈川県,横浜市西区,高島２丁目１１番２号スカイメナー横浜５１９号,,14,103,2200011,,,,,,,2024-01-09,1,,,,,アジアジャパンパス,0
2414,7020005016248,新規,0,2024-01-09,2024-01-09,一般社団法人ＷＡＹＰＯＳＴ,,その他の設立登記法人,神奈川県,横浜市南区,中島町１丁目４番地２,,14,105,2320055,,,,,,,2024-01-09,1,,,,,ウェイポスト,0
2423,7021001081137,新規,0,2024-01-09,2024-01-09,株式会社ＶｉｓｔａＵｓ,,株式会社,神奈川県,大和市,大和南１丁目７番１４号,,14,213,2420016,,,,,,,2024-01-09,1,,,,,ヴィスタス,0
2430,7030001157994,新規,0,2024-01-09,2024-01-09,株式会社ＦｕｔｕｒｅＨｏｍｅ,,株式会社,埼玉県,所沢市,大字松郷２１３番地３,,11,208,3590027,,,,,,,2024-01-09,1,,,,,フューチャーホーム,0
2431,7030001158068,新規,0,2024-01-09,2024-01-09,株式会社Ｌｉｂｅｒｔｙ　ｏｆ,,株式会社,埼玉県,さいたま市岩槻区,大字飯塚６２５番地１,,11,110,3390031,,,,,,,2024-01-09,1,,,,,リバティアヴ,0
2432,7030001158076,新規,0,2024-01-09,2024-01-09,株式会社ひつじデント,,株式会社,埼玉県,朝霞市,溝沼２丁目８番４５－２０４号,00133252,11,227,3510023,,,,,,,2024-01-09,1,,,,,ヒツジデント,0
2433,7030001158084,新規,0,2024-01-09,2024-01-09,株式会社ＬＩＮＫ　ＹＯＵ,,株式会社,埼玉県,行田市,棚田町１丁目１番地２１,,11,206,3610041,,,,,,,2024-01-09,1,,,,,リンクユー,0
2434,7030003023336,新規,0,2024-01-09,2024-01-09,合同会社ＰＡＲＥＲ,,合同会社,埼玉県,越谷市,北越谷２丁目１７番２１号,,11,222,3430026,,,,,,,2024-01-09,1,,,,,パレ,0
2435,7030003023344,新規,0,2024-01-09,2024-01-09,合同会社コモカン,,合同会社,埼玉県,草加市,高砂２丁目１８番２１‐４０２号,,11,221,3400015,,,,,,,2024-01-09,1,,,,,コモカン,0
2441,7040001131651,新規,0,2024-01-09,2024-01-09,株式会社ＡＪ．Ａｓｈ,,株式会社,千葉県,成田市,公津の杜６丁目１０番地３９,,12,211,2860048,,,,,,,2024-01-09,1,,,,,エージェーアッシュ,0
2446,7040003024044,新規,0,2024-01-09,2024-01-09,合同会社ＢＢＫ,,合同会社,千葉県,八千代市,勝田台北１丁目２番地１１山万勝田台ビル２階,,12,221,2760020,,,,,,,2024-01-09,1,,,,,ビービーケー,0
2447,7040003024060,新規,0,2024-01-09,2024-01-09,まごころ合同会社,,合同会社,千葉県,市原市,五井東１丁目３番地７アヴァンルーチェ１０１,,12,219,2900055,,,,,,,2024-01-09,1,,,,,マゴコロ,0
2451,7050001054083,新規,0,2024-01-09,2024-01-09,株式会社相沢製作所,,株式会社,茨城県,結城市,大字結城１３４６,,08,207,3070001,,,,,,,2024-01-09,1,,,,,アイザワセイサクショ,0
2452,7060001036709,新規,0,2024-01-09,2024-01-09,株式会社オーエム商事,,株式会社,栃木県,宇都宮市,上田原町７９３番地,,09,201,3291112,,,,,,,2024-01-09,1,,,,,オーエムショウジ,0
2458,7070003005223,新規,0,2024-01-09,2024-01-09,合同会社くまち,,合同会社,群馬県,高崎市,本郷町２２３番地５,,10,202,3703334,,,,,,,2024-01-09,1,,,,,,0
2459,7080001026063,新規,0,2024-01-09,2024-01-09,株式会社おさと,,株式会社,静岡県,静岡市葵区,上伝馬２５番３１－５号,,22,101,4200943,,,,,,,2024-01-09,1,,,,,オサト,0
2461,7080101024446,新規,0,2024-01-09,2024-01-09,株式会社中西工業,,株式会社,静岡県,富士市,伝法１７３１番地の４１,,22,210,4170061,,,,,,,2024-01-09,1,,,,,ナカニシコウギョウ,0
2564,7100003007331,新規,0,2024-01-09,2024-01-09,Ｓａｎｓｏ　Ｏｎ　Ｓｎｏｗ合同会社,,合同会社,長野県,長野市,戸隠３６８２番地２５,,20,201,3814101,,,,,,,2024-01-09,1,,,,,サンソオンスノー,0
2566,7110001038088,新規,0,2024-01-09,2024-01-09,エレベーターサポート株式会社,,株式会社,新潟県,妙高市,月岡２丁目１５番１８号,,15,217,9440003,,,,,,,2024-01-09,1,,,,,エレベーターサポート,0
2581,7120001260962,新規,0,2024-01-09,2024-01-09,旭日株式会社,,株式会社,大阪府,大阪市住吉区,杉本２丁目３１番５号アスカ藤２０１号室,,27,120,5580022,,,,,,,2024-01-09,1,,,,,キョクジツ,0
2582,7120001261135,新規,0,2024-01-09,2024-01-09,ディスィ株式会社,,株式会社,大阪府,大阪市住之江区,南港中５丁目６番２１－６２１号,,27,125,5590033,,,,,,,2024-01-09,1,,,,,ディスィ,0
2585,7120005024075,新規,0,2024-01-09,2024-01-09,一般社団法人美容フリーランス協会,,その他の設立登記法人,大阪府,大阪市北区,菅原町９－１６第３ワールドビル４０１,,27,127,5300046,,,,,,,2024-01-09,1,,,,,ビヨウフリーランスキョウカイ,0
2586,7120101068835,新規,0,2024-01-09,2024-01-09,Ｄｏｌａ　Ｔｅｃｈｎｏｌｏｇｙ株式会社,,株式会社,大阪府,堺市中区,大野芝町２３２番地２２,,27,142,5998233,,,,,,,2024-01-09,1,,,,,ドーラテクノロジー,0
2590,7120901048581,新規,0,2024-01-09,2024-01-09,株式会社ＶＣ,,株式会社,大阪府,豊中市,上野東２丁目１１番９の５号,,27,203,5600013,,,,,,,2024-01-09,1,,,,,ブイシー,0
2592,7122001037713,新規,0,2024-01-09,2024-01-09,株式会社アイシック,,株式会社,大阪府,東大阪市,新家１丁目７番４号,,27,227,5770025,,,,,,,2024-01-09,1,,,,,アイシック,0
2593,7122003002764,新規,0,2024-01-09,2024-01-09,合同会社灰猫,,合同会社,大阪府,東大阪市,小阪２丁目４－１８－７０５,,27,227,5770801,,,,,,,2024-01-09,1,,,,,ハイネ,0
2594,7122005003728,新規,0,2024-01-09,2024-01-09,一般社団法人日比国際友好協会,,その他の設立登記法人,大阪府,東大阪市,上石切町１丁目４番３６号,,27,227,5798012,,,,,,,2024-01-09,1,,,,,ニッピコクサイユウコウキョウカイ,0
2610,7140001132870,新規,0,2024-01-09,2024-01-09,株式会社ＴＳＰ,,株式会社,兵庫県,宝塚市,すみれガ丘３丁目２番１－４１７号,,28,214,6650847,,,,,,,2024-01-09,1,,,,,ティーエスピー,0
2611,7140001132895,新規,0,2024-01-09,2024-01-09,株式会社ｎａｒａｖｅｒｕ,,株式会社,兵庫県,神戸市東灘区,御影石町４丁目６番２２号メゾンリルオート御影１０１号,,28,101,6580045,,,,,,,2024-01-09,1,,,,,ナラヴェル,0
2612,7140001132904,新規,0,2024-01-09,2024-01-09,株式会社ユーキホーム,,株式会社,兵庫県,西宮市,城ケ堀町２番２１－１０１号,,28,204,6620856,,,,,,,2024-01-09,1,,,,,ユーキホーム,0
2613,7140001132912,新規,0,2024-01-09,2024-01-09,株式会社Ｋ‐ａｃｔ,,株式会社,兵庫県,神戸市灘区,岸地通４丁目１－４サンロイヤル王子３０２号,,28,102,6570832,,,,,,,2024-01-09,1,,,,,ケーアクト,0
2614,7140001132920,新規,0,2024-01-09,2024-01-09,株式会社読売センター鈴蘭台,,株式会社,兵庫県,神戸市北区,鈴蘭台西町１丁目２－１２,,28,109,6511114,,,,,,,2024-01-09,1,,,,,ヨミウリセンタースズランダイ,0
2616,7140003020009,新規,0,2024-01-09,2024-01-09,合同会社エールユー,,合同会社,兵庫県,神戸市中央区,中山手通１丁目１５－７,,28,110,6500004,,,,,,,2024-01-09,1,,,,,エールユー,0
2617,7140003020017,新規,0,2024-01-09,2024-01-09,合同会社トラクション,,合同会社,兵庫県,西宮市,今津曙町３番３１号フェリーチェ今津２０２号,,28,204,6638214,,,,,,,2024-01-09,1,,,,,トラクション,0
2620,7150001026989,新規,0,2024-01-09,2024-01-09,株式会社ラプソディ・ピンク,,株式会社,奈良県,北葛城郡広陵町,大字的場１５３番地１０,,29,426,6350802,,,,,,,2024-01-09,1,,,,,ラプソディピンク,0
2624,7160001025610,新規,0,2024-01-09,2024-01-09,株式会社ＳＥＡ,,株式会社,滋賀県,草津市,渋川１丁目２番２６－２０５号ザ・草津タワー,,25,206,5250026,,,,,,,2024-01-09,1,,,,,シー,0
2625,7160001025619,新規,0,2024-01-09,2024-01-09,株式会社ＦＹＢ,,株式会社,滋賀県,守山市,石田町２番地１,,25,207,5240014,,,,,,,2024-01-09,1,,,,,エフワイビー,0
2628,7180001159547,新規,0,2024-01-09,2024-01-09,株式会社裕禾,,株式会社,愛知県,名古屋市東区,東桜２丁目３番７号,,23,102,4610005,,,,,,,2024-01-09,1,,,,,ユウカ,0
2629,7180001159638,新規,0,2024-01-09,2024-01-09,株式会社メイプル,,株式会社,愛知県,名古屋市中区,栄２丁目７番１３号,,23,106,4600008,,,,,,,2024-01-09,1,,,,,メイプル,0
2630,7180001159670,新規,0,2024-01-09,2024-01-09,株式会社ＨｓＨ,,株式会社,愛知県,名古屋市東区,東桜１丁目１０番３５号,,23,102,4610005,,,,,,,2024-01-09,1,,,,,エイチエスエイチ,0
2633,7180301038203,新規,0,2024-01-09,2024-01-09,Ｈ＆Ｈ　Ｈｏｍｅ株式会社,,株式会社,愛知県,碧南市,平七町３丁目４０番地－１０２号,,23,209,4470884,,,,,,,2024-01-09,1,,,,,エイチアンドエイチホーム,0
2634,7190001030995,新規,0,2024-01-09,2024-01-09,株式会社雅空調サービス,,株式会社,三重県,桑名市,赤尾台４丁目１１番地７,,24,205,5110935,,,,,,,2024-01-09,1,,,,,ミヤビクウチョウサービス,0
2635,7190001031011,新規,0,2024-01-09,2024-01-09,株式会社伸生,,株式会社,三重県,津市,東丸之内２５番１１号,,24,201,5140028,,,,,,,2024-01-09,1,,,,,シンセイ,0
2636,7200001042048,新規,0,2024-01-09,2024-01-09,株式会社流新,,株式会社,岐阜県,多治見市,東栄町１丁目１番地の３３,,21,204,5070013,,,,,,,2024-01-09,1,,,,,ルシン,0
2638,7210003001736,新規,0,2024-01-09,2024-01-09,合同会社ヴィラート,,合同会社,福井県,鯖江市,深江町４番１９号,,18,207,9160052,,,,,,,2024-01-09,1,,,,,ヴィラート,0
2641,7230001020158,新規,0,2024-01-09,2024-01-09,株式会社Ａｕｔｏ　Ｒｅｎａｉｓｓａｎｃｅ,,株式会社,富山県,射水市,本江利波１６９番地,,16,211,9330245,,,,,,,2024-01-09,1,,,,,オートルネッサンス,0
2642,7230001020166,新規,0,2024-01-09,2024-01-09,株式会社ＢＡＳＥ　ＣＡＭＰ,,株式会社,富山県,射水市,荒町３０番地３,,16,211,9390412,,,,,,,2024-01-09,1,,,,,ベースキャンプ,0
2645,7240001062620,新規,0,2024-01-09,2024-01-09,株式会社ＥＬＧ,,株式会社,広島県,福山市,曙町５丁目１５番１１－１０５号,,34,207,7210952,,,,,,,2024-01-09,1,,,,,イーエルジー,0
2646,7240001062629,新規,0,2024-01-09,2024-01-09,大森運送ホールディングス株式会社,,株式会社,広島県,呉市,三条３丁目３番１号,,34,202,7370821,,,,,,,2024-01-09,1,,,,,オオモリウンソウホールディングス,0
2648,7240003006476,新規,0,2024-01-09,2024-01-09,合同会社あずまさ,,合同会社,広島県,広島市西区,天満町１６－９平馬ビル３０５号室,,34,104,7330022,,,,,,,2024-01-09,1,,,,,アズマサ,0
2649,7250001020461,新規,0,2024-01-09,2024-01-09,株式会社Ｙ’ｓ,,株式会社,山口県,下関市,武久西原台１０番５ー１０２号,,35,201,7510819,,,,,,,2024-01-09,1,,,,,ワイズ,0
2650,7250005008890,新規,0,2024-01-09,2024-01-09,医療法人このはな歯科医院,,その他の設立登記法人,山口県,山口市,大内長野６７５番地１,,35,203,7530211,,,,,,,2024-01-09,1,,,,,コノハナシカイイン,0
2653,7270001008901,新規,0,2024-01-09,2024-01-09,株式会社ネクストステージ,,株式会社,鳥取県,境港市,外江町２２４７番地１,,31,204,6840071,,,,,,,2024-01-09,1,,,,,ネクストステージ,0
2661,7290001104252,新規,0,2024-01-09,2024-01-09,株式会社ＳＧ　ＣＲＥＡＴＥ,,株式会社,福岡県,糟屋郡粕屋町,花ヶ浦４丁目５番１０号,,40,349,8112310,,,,,,,2024-01-09,1,,,,,エスジークリエイト,0
2662,7290001104277,新規,0,2024-01-09,2024-01-09,渡辺重工株式会社,,株式会社,福岡県,福岡市中央区,赤坂３丁目６番６－３０９号,,40,133,8100042,,,,,,,2024-01-09,1,,,,,ワタナベジュウコウ,0
2663,7290001104285,新規,0,2024-01-09,2024-01-09,株式会社ＭＩ‐ＮＡ,,株式会社,福岡県,福岡市中央区,天神２丁目３番１０号天神パインクレスト７１９号,,40,133,8100001,,,,,,,2024-01-09,1,,,,,ミナ,0
2673,7290005019249,新規,0,2024-01-09,2024-01-09,医療法人みあけ皮ふ科,,その他の設立登記法人,福岡県,福岡市南区,清水２丁目８番１８号,,40,134,8150031,,,,,,,2024-01-09,1,,,,,ミアケヒフカ,0
2675,7310001018771,新規,0,2024-01-09,2024-01-09,株式会社Ｂｒｉｇｈｔ　Ｌｉｆｅ,,株式会社,長崎県,長崎市,油屋町２番１５－５０３号,,42,201,8500832,,,,,,,2024-01-09,1,,,,,ブライトライフ,0
2677,7330001031640,新規,0,2024-01-09,2024-01-09,株式会社ＪＵＮ,,株式会社,熊本県,熊本市中央区,国府本町１１番６号,,43,101,8620948,,,,,,,2024-01-09,1,,,,,ジュン,0
2681,7360003013592,新規,0,2024-01-09,2024-01-09,オフィスヒート合同会社,,合同会社,沖縄県,浦添市,仲間２丁目２１番１５－１０１号,,47,208,9012103,,,,,,,2024-01-09,1,,,,,オフィスヒート,0
2684,7390001017469,新規,0,2024-01-09,2024-01-09,株式会社ＳＨＯＫＡＮ,,株式会社,山形県,鶴岡市,茅原町２９番２３号,,06,203,9970018,,,,,,,2024-01-09,1,,,,,ショウカン,0
2691,7430003015821,新規,0,2024-01-09,2024-01-09,合同会社ＫＭＧ,,合同会社,北海道,札幌市中央区,南四条東３丁目９番１号,,01,101,0600054,,,,,,,2024-01-09,1,,,,,ケーエムジー,0
2696,7460301005190,新規,0,2024-01-09,2024-01-09,株式会社椛山建設,,株式会社,北海道,紋別郡遠軽町,西町３丁目５番地１６１,,01,555,0990428,,,,,,,2024-01-09,1,,,,,カバヤマケンセツ,0
2709,7500001025393,新規,0,2024-01-09,2024-01-09,株式会社古家,,株式会社,愛媛県,新居浜市,庄内町４丁目２番１４号,,38,205,7920811,,,,,,,2024-01-09,1,,,,,コヤ,0
2717,8010003042592,新規,0,2024-01-09,2024-01-09,Ｓｏｃｉａｌ　Ｉｎｎｏｖａｔｏｒｓ合同会社,,合同会社,東京都,中央区,日本橋室町１丁目１１番１２号日本橋水野ビル７階,,13,102,1030022,,,,,,,2024-01-09,1,,,,,ソーシャルイノベーターズ,0
2718,8010003042601,新規,0,2024-01-09,2024-01-09,合同会社製本工房リーブル,,合同会社,東京都,文京区,本郷１丁目４番７号協和ビル３階,,13,105,1130033,,,,,,,2024-01-09,1,,,,,セイホンコウボウリーブル,0
2728,8010401179490,新規,0,2024-01-09,2024-01-09,シップハブ株式会社,,株式会社,東京都,港区,海岸１丁目２番３号汐留芝離宮ビルディング２１階,,13,103,1050022,,,,,,,2024-01-09,1,,,,,シップハブ,0
2729,8010401179540,新規,0,2024-01-09,2024-01-09,株式会社ＭＡＴＳＵＲＩ,,株式会社,東京都,港区,浜松町１丁目３番２－３６０３号,,13,103,1050013,,,,,,,2024-01-09,1,,,,,マツリ,0
2730,8010401179565,新規,0,2024-01-09,2024-01-09,株式会社ゼロアクション,,株式会社,東京都,港区,高輪３丁目１０番２号グラスプラス高輪,,13,103,1080074,,,,,,,2024-01-09,1,,,,,ゼロアクション,0
2734,8010403031674,新規,0,2024-01-09,2024-01-09,Ｓｏｋｕ合同会社,,合同会社,東京都,港区,東麻布３丁目１４－１４－３０４号室,,13,103,1060044,,,,,,,2024-01-09,1,,,,,ソク,0
2739,8010501051566,新規,0,2024-01-09,2024-01-09,株式会社Ｐａｎｙａｔｔ,,株式会社,東京都,台東区,東浅草２丁目１７番１１号,,13,106,1110025,,,,,,,2024-01-09,1,,,,,パニャット,0
2740,8010501051574,新規,0,2024-01-09,2024-01-09,株式会社ＭＮＯ,,株式会社,東京都,台東区,台東３丁目２２－１０－２０１,,13,106,1100016,,,,,,,2024-01-09,1,,,,,エムエヌオー,0
2741,8010601064435,新規,0,2024-01-09,2024-01-09,株式会社ＤＹＮ,,株式会社,東京都,江東区,森下３丁目１９番１９号,,13,108,1350004,,,,,,,2024-01-09,1,,,,,ディーワイエヌ,0
2755,8011001159197,新規,0,2024-01-09,2024-01-09,ＯｐｅｎＣＩ株式会社,,株式会社,東京都,渋谷区,道玄坂１丁目１０番８号渋谷道玄坂東急ビル２Ｆ－Ｃ,,13,113,1500043,,,,,,,2024-01-09,1,,,,,オープンシーアイ,0
2756,8011001159247,新規,0,2024-01-09,2024-01-09,株式会社ＫＳＫ,,株式会社,東京都,渋谷区,富ヶ谷１丁目３５番２０号,,13,113,1510063,,,,,,,2024-01-09,1,,,,,ケイエスケイ,0
2757,8011005010331,新規,0,2024-01-09,2024-01-09,社会保険労務士法人ＮＥＸＰＥＲＴ,,その他の設立登記法人,東京都,渋谷区,神宮前６丁目２３番１７号,,13,113,1500001,,,,,,,2024-01-09,1,,,,,ネクスパート,0
2765,8011103013921,新規,0,2024-01-09,2024-01-09,ぴこーんぴこーん合同会社,,合同会社,東京都,新宿区,西新宿３丁目３番１３号西新宿水間ビル２Ｆ,,13,104,1600023,,,,,,,2024-01-09,1,,,,,ピコーンピコーン,0
2767,8011203004275,新規,0,2024-01-09,2024-01-09,森夏日和合同会社,,合同会社,東京都,中野区,中野５丁目５１番２－２２０４号,,13,114,1640001,,,,,,,2024-01-09,1,,,,,モリナツビヨリ,0
2772,8011501030163,新規,0,2024-01-09,2024-01-09,智博株式会社,,株式会社,東京都,北区,西ケ原１丁目２７番３－１０１号,,13,117,1140024,,,,,,,2024-01-09,1,,,,,チハク,0
2773,8011501030171,新規,0,2024-01-09,2024-01-09,株式会社ジェイエスビー,,株式会社,東京都,北区,豊島４丁目１８番７－１５０５号プレミスト東京王子,,13,117,1140003,,,,,,,2024-01-09,1,,,,,ジェイエスビー,0
2775,8011801043617,新規,0,2024-01-09,2024-01-09,ＨＴＬジャパン株式会社,,株式会社,東京都,足立区,鹿浜３丁目２番１６号,,13,121,1230864,,,,,,,2024-01-09,1,,,,,エイチティーエルジャパン,0
2783,8012301013713,新規,0,2024-01-09,2024-01-09,振洋天行株式会社,,株式会社,東京都,町田市,高ヶ坂２丁目２０番６レオパレスローンガーデン１０３,,13,209,1940014,,,,,,,2024-01-09,1,,,,,シンヨウテンコウ,0
2784,8012301013721,新規,0,2024-01-09,2024-01-09,結城建設株式会社,,株式会社,東京都,町田市,野津田町３７２２番地３,,13,209,1950063,,,,,,,2024-01-09,1,,,,,ユウキケンセツ,0
2789,8012801022874,新規,0,2024-01-09,2024-01-09,株式会社真絆,,株式会社,東京都,日野市,高幡１番地１５、２階,,13,212,1910031,,,,,,,2024-01-09,1,,,,,マキ,0
2802,8021001081144,新規,0,2024-01-09,2024-01-09,株式会社ＲＧ＆Ｃｏ,,株式会社,神奈川県,藤沢市,片瀬海岸３丁目１４番２５号,,14,205,2510035,,,,,,,2024-01-09,1,,,,,アールジーアンドコー,0
2803,8021001081160,新規,0,2024-01-09,2024-01-09,ＩＺＭ株式会社,,株式会社,神奈川県,横須賀市,武３丁目１番２０号,,14,201,2380313,,,,,,,2024-01-09,1,,,,,イズム,0
2804,8021003013970,新規,0,2024-01-09,2024-01-09,湘南ＭＭＳ警備合同会社,,合同会社,神奈川県,平塚市,豊田本郷１８０６番地の１,,14,203,2540087,,,,,,,2024-01-09,1,,,,,ショウナンエムエムエスケイビ,0
2807,8030001157688,新規,0,2024-01-09,2024-01-09,Ｆａｓｔ　Ｂａｓｅ株式会社,,株式会社,埼玉県,さいたま市緑区,太田窪１丁目２－１１－２,,11,109,3360936,,,,,,,2024-01-09,1,,,,,ファストベース,0
2808,8030001158001,新規,0,2024-01-09,2024-01-09,株式会社おか,,株式会社,埼玉県,さいたま市緑区,大字三室２４５９番地６５,,11,109,3360911,,,,,,,2024-01-09,1,,,,,オカ,0
2809,8030001158034,新規,0,2024-01-09,2024-01-09,株式会社Ｓ・Ｙエステート,,株式会社,埼玉県,川口市,中青木５丁目７番１８号,,11,203,3320032,,,,,,,2024-01-09,1,,,,,エスワイエステート,0
2810,8030001158067,新規,0,2024-01-09,2024-01-09,株式会社ＴＯＷＮ＆ＰＥＯＰＬＥ,,株式会社,埼玉県,所沢市,東所沢２丁目５８番地の１－６－４,,11,208,3590021,,,,,,,2024-01-09,1,,,,,タウンアンドピープル,0
2812,8030003023335,新規,0,2024-01-09,2024-01-09,合同会社ＰｌａｎＢ,,合同会社,埼玉県,東松山市,大字神戸９１５番地５,,11,212,3550066,,,,,,,2024-01-09,1,,,,,プランビー,0
2813,8030003023343,新規,0,2024-01-09,2024-01-09,合同会社みしょーれ,,合同会社,埼玉県,新座市,野火止５丁目１５番３２号コーポ高橋２０３号室,,11,230,3520011,,,,,,,2024-01-09,1,,,,,ミショーレ,0
2817,8040001131634,新規,0,2024-01-09,2024-01-09,Ｌｕｍｉｅｒｅ株式会社,,株式会社,千葉県,成田市,囲護台１丁目４－４フィールドホーム第３ビル２Ｆ,,12,211,2860035,,,,,,,2024-01-09,1,,,,,ルミエール,0
2820,8040003024027,新規,0,2024-01-09,2024-01-09,Ｔ＆Ｘ合同会社,,合同会社,千葉県,船橋市,金杉台１丁目２番２号金杉台住宅第１－２－２号棟５０１号室,,12,204,2730852,,,,,,,2024-01-09,1,,,,,ティーアンドエクス,0
2821,8050001054074,新規,0,2024-01-09,2024-01-09,株式会社ライフサポート・ソラシード,,株式会社,茨城県,ひたちなか市,春日町８番４,,08,221,3120048,,,,,,,2024-01-09,1,,,,,ライフサポートソラシード,0
2827,8070001041252,新規,0,2024-01-09,2024-01-09,株式会社ＹＴ,,株式会社,群馬県,前橋市,昭和町２丁目１３番１５号,,10,201,3710034,,,,,,,2024-01-09,1,,,,,ワイティー,0
2832,8080001026070,新規,0,2024-01-09,2024-01-09,ＯＮＦＬＥＥＸ　ＪＡＰＡＮ株式会社,,株式会社,静岡県,静岡市葵区,伝馬町１－２－３Ｆ,,22,101,4200858,,,,,,,2024-01-09,1,,,,,オンフリークスジャパン,0
2833,8080101024445,新規,0,2024-01-09,2024-01-09,株式会社鈴富電業,,株式会社,静岡県,富士市,三ツ沢５４４番地の１８,,22,210,4170855,,,,,,,2024-01-09,1,,,,,スズトミデンギョウ,0
2853,8080401026926,新規,0,2024-01-09,2024-01-09,株式会社Ｓｏｌａｒｅ,,株式会社,静岡県,浜松市中央区,向宿２丁目１３番３号,,22,138,4300851,,,,,,,2024-01-09,1,,,,,ソラーレ,0
2890,8080403004938,新規,0,2024-01-09,2024-01-09,合同会社ＵＲ企画,,合同会社,静岡県,浜松市中央区,三方原町１６４１番地の１７,,22,138,4338105,,,,,,,2024-01-09,1,,,,,ユーアールキカク,0
2938,8110001038087,新規,0,2024-01-09,2024-01-09,株式会社高岡左官工業,,株式会社,新潟県,五泉市,青橋６９４番地７,,15,218,9591755,,,,,,,2024-01-09,1,,,,,タカオカサカンコウギョウ,0
2941,8110003005250,新規,0,2024-01-09,2024-01-09,スカンジナビアエッセンス合同会社,,合同会社,新潟県,西蒲原郡弥彦村,美山５９２２番地３,,15,342,9590310,,,,,,,2024-01-09,1,,,,,スカンジナビアエッセンス,0
2950,8120001261076,新規,0,2024-01-09,2024-01-09,株式会社Ｌｕｃｋｙ　Ｆｉｅｌｄ,,株式会社,大阪府,大阪市北区,浪花町４番２６－１５０１号,,27,127,5300022,,,,,,,2024-01-09,1,,,,,ラッキーフィールド,0
2951,8120001261101,新規,0,2024-01-09,2024-01-09,麗景株式会社,,株式会社,大阪府,大阪市大正区,三軒家西３丁目４番１６号中山ビル１０１Ａ,,27,108,5510001,,,,,,,2024-01-09,1,,,,,レイケイ,0
2952,8120001261118,新規,0,2024-01-09,2024-01-09,冠珀株式会社,,株式会社,大阪府,大阪市北区,梅田１丁目３番１号大阪駅前第一ビル５階ＲＯＹＡＬＯＦＦＩＣＥ内,,27,127,5300001,,,,,,,2024-01-09,1,,,,,カンパク,0
2953,8120001261134,新規,0,2024-01-09,2024-01-09,萬茂産業株式会社,,株式会社,大阪府,大阪市浪速区,恵美須西１丁目２番５－５０１号,,27,111,5560003,,,,,,,2024-01-09,1,,,,,マンモサンギョウ,0
2954,8120001261142,新規,0,2024-01-09,2024-01-09,株式会社ダイバーシティ,,株式会社,大阪府,大阪市中央区,上汐１丁目４番１０号Ｍ’ｓ上汐ビル,,27,128,5420064,,,,,,,2024-01-09,1,,,,,ダイバーシティ,0
2955,8120001261175,新規,0,2024-01-09,2024-01-09,渓兮株式会社,,株式会社,大阪府,大阪市住之江区,北加賀屋１丁目９－２コーポ吉野屋３０１号室,,27,125,5590011,,,,,,,2024-01-09,1,,,,,ケイケイ,0
2956,8120001261209,新規,0,2024-01-09,2024-01-09,株式会社成沢商社,,株式会社,大阪府,大阪市住之江区,浜口西１丁目１３番１５－２０１号,,27,125,5590006,,,,,,,2024-01-09,1,,,,,ナリサワショウシャ,0
2965,8120005024082,新規,0,2024-01-09,2024-01-09,岡嶋・田中税理士法人,,その他の設立登記法人,大阪府,寝屋川市,萱島本町１４番２号ロイヤル萱島本町２０１号,,27,215,5720827,,,,,,,2024-01-09,1,,,,,オカジマタナカ,0
2966,8120101068834,新規,0,2024-01-09,2024-01-09,株式会社カヤ工建,,株式会社,大阪府,富田林市,かがり台９番８号,,27,214,5840040,,,,,,,2024-01-09,1,,,,,,0
2968,8120103005612,新規,0,2024-01-09,2024-01-09,合同会社バディライフ,,合同会社,大阪府,堺市北区,百舌鳥梅北町４丁１６７番地３４,,27,146,5918031,,,,,,,2024-01-09,1,,,,,バディライフ,0
2972,8122001037712,新規,0,2024-01-09,2024-01-09,株式会社Ａｉｒ　ｈｉｇｈ　ｔｅｃｈ,,株式会社,大阪府,東大阪市,長栄寺１４番６号フジパレス長栄寺２番館２０３号室,,27,227,5770055,,,,,,,2024-01-09,1,,,,,エアーハイテック,0
2973,8122005003727,新規,0,2024-01-09,2024-01-09,土地家屋調査士法人リーガルクリニック,,その他の設立登記法人,大阪府,東大阪市,長堂１丁目５番６号,,27,227,5770056,,,,,,,2024-01-09,1,,,,,リーガルクリニック,0
2977,8140001132911,新規,0,2024-01-09,2024-01-09,株式会社ＭＣＡ,,株式会社,兵庫県,西宮市,和上町５番９号西宮ビル,,28,204,6620971,,,,,,,2024-01-09,1,,,,,エムシーエー,0
2980,8140003020008,新規,0,2024-01-09,2024-01-09,合同会社輪舞,,合同会社,兵庫県,明石市,二見町東二見１３６７－２９,,28,203,6740092,,,,,,,2024-01-09,1,,,,,ロンド,0
2981,8140003020016,新規,0,2024-01-09,2024-01-09,ｉＮＶＥＳＴＯＲ　ｉ合同会社,,合同会社,兵庫県,加古郡稲美町,中村１０３９番地,,28,381,6751122,,,,,,,2024-01-09,1,,,,,インベスターアイ,0
2983,8160001025618,新規,0,2024-01-09,2024-01-09,株式会社攀桂堂,,株式会社,滋賀県,高島市,安曇川町上小川９０番地６,,25,212,5201224,,,,,,,2024-01-09,1,,,,,ハンケイドウ,0
2994,8180001159637,新規,0,2024-01-09,2024-01-09,一嘉株式会社,,株式会社,愛知県,名古屋市南区,要町２丁目２番地の９２,,23,112,4570802,,,,,,,2024-01-09,1,,,,,カズヨシ,0
2995,8180001159645,新規,0,2024-01-09,2024-01-09,株式会社中部新生不動産,,株式会社,愛知県,名古屋市千種区,若水３丁目３番１２号,,23,101,4640071,,,,,,,2024-01-09,1,,,,,チュウブシンセイフドウサン,0
2998,8180301038202,新規,0,2024-01-09,2024-01-09,株式会社かわでん,,株式会社,愛知県,岡崎市,筒針町字池田２６９番地６,,23,202,4440932,,,,,,,2024-01-09,1,,,,,カワデン,0
3002,8200001042047,新規,0,2024-01-09,2024-01-09,株式会社山田電工,,株式会社,岐阜県,関市,武芸川町小知野８１番地１の２,,21,205,5012602,,,,,,,2024-01-09,1,,,,,ヤマダデンコウ,0
3006,8230001020157,新規,0,2024-01-09,2024-01-09,サクアイ株式会社,,株式会社,富山県,滑川市,上小泉２０２１番地１,,16,206,9360053,,,,,,,2024-01-09,1,,,,,サクアイ,0
3007,8230001020165,新規,0,2024-01-09,2024-01-09,株式会社ｃｌｏｖｅｒ　ｆａｒｍ,,株式会社,富山県,高岡市,佐加野東１９０番地,,16,202,9330962,,,,,,,2024-01-09,1,,,,,クローバーファーム,0
3010,8240003006483,新規,0,2024-01-09,2024-01-09,合同会社ＨＡＣＨＩ,,合同会社,広島県,尾道市,御調町大蔵１６３番地,,34,205,7220323,,,,,,,2024-01-09,1,,,,,ハチ,0
3017,8270003001589,新規,0,2024-01-09,2024-01-09,合同会社薄竹事務所,,合同会社,鳥取県,鳥取市,丸山町１３３番地３,,31,201,6800006,,,,,,,2024-01-09,1,,,,,ウスタケジムショ,0
3018,8280003001803,新規,0,2024-01-09,2024-01-09,合同会社金時,,合同会社,島根県,浜田市,松原町２４４番地１３,,32,202,6970021,,,,,,,2024-01-09,1,,,,,キントキ,0
3025,8290005019223,新規,0,2024-01-09,2024-01-09,一般社団法人にゃんこ基金,,その他の設立登記法人,福岡県,筑後市,大字尾島１１８番地２７号室,,40,211,8330014,,,,,,,2024-01-09,1,,,,,ニャンコキキン,0
3026,8290801030192,新規,0,2024-01-09,2024-01-09,株式会社カレーのボントン,,株式会社,福岡県,北九州市小倉北区,熊本１丁目７番２７号,,40,106,8020044,,,,,,,2024-01-09,1,,,,,カレーノボントン,0
3033,8310001018779,新規,0,2024-01-09,2024-01-09,株式会社サカイ建設,,株式会社,長崎県,雲仙市,国見町土黒甲１０１番地,,42,213,8591311,,,,,,,2024-01-09,1,,,,,サカイケンセツ,0
3039,8350001018742,新規,0,2024-01-09,2024-01-09,株式会社ＫＩＴ,,株式会社,宮崎県,宮崎市,大字島之内７２８６番地６,,45,201,8800121,,,,,,,2024-01-09,1,,,,,キット,0
3041,8360003013600,新規,0,2024-01-09,2024-01-09,合同会社ＷＯＯＤＳＴＵＤＩＯ,,合同会社,沖縄県,宮古島市,平良字荷川取２７７番地７,,47,214,9060008,,,,,,,2024-01-09,1,,,,,ウッドスタジオ,0
3042,8370001050801,新規,0,2024-01-09,2024-01-09,株式会社ＡＤＢＡＬＡＮＣＥ,,株式会社,宮城県,仙台市青葉区,国分町３丁目６番１１号アーク仙台ビル５０３,,04,101,9800803,,,,,,,2024-01-09,1,,,,,アドバランス,0
3045,8390001017468,新規,0,2024-01-09,2024-01-09,株式会社ｃｏｌｏｒｆｕｌ,,株式会社,山形県,東根市,神町営団中通り７９号,,06,211,9993732,,,,,,,2024-01-09,1,,,,,カラフル,0
3047,8420001018545,新規,0,2024-01-09,2024-01-09,株式会社ＨＡＭＡＤＡ,,株式会社,青森県,青森市,大字浜田字豊田１０番地４,,02,201,0300843,,,,,,,2024-01-09,1,,,,,ハマダ,0
3048,8430001090782,新規,0,2024-01-09,2024-01-09,株式会社Ｄｏ　ｆｏｒ　ＳＭＩＬＥ,,株式会社,北海道,札幌市清田区,里塚緑ケ丘５丁目２番１６号,,01,110,0040805,,,,,,,2024-01-09,1,,,,,ドゥフォースマイル,0
3049,8430001090790,新規,0,2024-01-09,2024-01-09,株式会社Ａｂｅ　Ｈｏｌｄｉｎｇｓ,,株式会社,北海道,石狩郡新篠津村,第３７線南１番地,,01,304,0681100,,,,,,,2024-01-09,1,,,,,アベホールディングス,0
3050,8430001090799,新規,0,2024-01-09,2024-01-09,株式会社ＪＡＹＵ,,株式会社,北海道,札幌市中央区,南三条西１２丁目３２６番地２ダイアパレス大通公園南２０６号,,01,101,0600063,,,,,,,2024-01-09,1,,,,,ジャユ,0
3051,8430003015820,新規,0,2024-01-09,2024-01-09,合同会社ｆｉｋａ‐ｈｏｍｅ,,合同会社,北海道,札幌市豊平区,西岡一条７丁目４番８号,,01,105,0620031,,,,,,,2024-01-09,1,,,,,フィーカホーム,0
3052,8450001014194,新規,0,2024-01-09,2024-01-09,株式会社いしぜん,,株式会社,北海道,上川郡東川町,西町９丁目２番４号,,01,458,0711425,,,,,,,2024-01-09,1,,,,,イシゼン,0
3061,8500001025392,新規,0,2024-01-09,2024-01-09,株式会社ＬＩＴＨＩＵＭ,,株式会社,愛媛県,新居浜市,船木甲４４０９番地の７,,38,205,7920856,,,,,,,2024-01-09,1,,,,,リチウム,0
3071,9010001241261,新規,0,2024-01-09,2024-01-09,Ｌ’Ｏｆｆｉｃｉｅｌ　Ｊａｐａｎ株式会社,,株式会社,東京都,千代田区,四番町４番地９新東京国際リーガル内,,13,101,1020081,,,,,,,2024-01-09,1,,,,,ロフィシエルジャパン,0
3072,9010001241278,新規,0,2024-01-09,2024-01-09,アップツ・ドット・ジェイピー株式会社,,株式会社,東京都,千代田区,永田町２丁目１１番１号山王パークタワー３階,,13,101,1000014,,,,,,,2024-01-09,1,,,,,アップツドットジェイピー,0
3085,9010401179531,新規,0,2024-01-09,2024-01-09,ｅｌ株式会社,,株式会社,東京都,港区,南青山２丁目２－１５－９２９,,13,103,1070062,,,,,,,2024-01-09,1,,,,,エル,0
3086,9010401179548,新規,0,2024-01-09,2024-01-09,株式会社ＷＥＸＥ,,株式会社,東京都,港区,三田３丁目２番９－１２０２号,,13,103,1080073,,,,,,,2024-01-09,1,,,,,ウエクス,0
3087,9010401179556,新規,0,2024-01-09,2024-01-09,ｆｉｒｅｆｌｙ株式会社,,株式会社,東京都,港区,北青山１丁目２番３号青山ビル１２階,,13,103,1070061,,,,,,,2024-01-09,1,,,,,ファイアーフライ,0
3088,9010401179564,新規,0,2024-01-09,2024-01-09,ＴＲＩＮＩＴＹ株式会社,,株式会社,東京都,港区,西麻布３丁目３番３号,,13,103,1060031,,,,,,,2024-01-09,1,,,,,トリニティ,0
3096,9010501051581,新規,0,2024-01-09,2024-01-09,ＭＩＹＡＢＩ株式会社,,株式会社,東京都,台東区,台東１丁目２４番９号ブライト秋葉原Ｂ１Ｆ,,13,106,1100016,,,,,,,2024-01-09,1,,,,,ミヤビ,0
3098,9010601064442,新規,0,2024-01-09,2024-01-09,株式会社リテジーリンク,,株式会社,東京都,墨田区,東向島２丁目４２番１号,,13,107,1310032,,,,,,,2024-01-09,1,,,,,リテジーリンク,0
3100,9010605004279,新規,0,2024-01-09,2024-01-09,一般社団法人日本認定脱毛安全協会,,その他の設立登記法人,東京都,江東区,東陽町二丁目４－１８ＵＵＲ東陽町ビル３Ｆ・４Ｆ,,13,108,1350000,,,,,,,2024-01-09,1,,,,,ニホンニンテイダツモウアンゼンキョウカイ,0
3103,9010701045359,新規,0,2024-01-09,2024-01-09,ＣＭＤ株式会社,,株式会社,東京都,品川区,南大井５丁目１５番１,,13,109,1400013,,,,,,,2024-01-09,1,,,,,シーエムディー,0
3107,9010903008709,新規,0,2024-01-09,2024-01-09,合同会社パンクリエイト,,合同会社,東京都,世田谷区,宮坂３丁目３３番１５号１０１,,13,112,1560051,,,,,,,2024-01-09,1,,,,,パンクリエイト,0
3117,9011001159163,新規,0,2024-01-09,2024-01-09,株式会社Ｍａｄｈａｐｐｙ　Ｊａｐａｎ,,株式会社,東京都,渋谷区,千駄ヶ谷２丁目１１番１号,,13,113,1510051,,,,,,,2024-01-09,1,,,,,マッドハッピージャパン,0
3119,9011003018227,新規,0,2024-01-09,2024-01-09,合同会社ｋｏｔ,,合同会社,東京都,目黒区,青葉台１丁目２７番２号,,13,110,1530042,,,,,,,2024-01-09,1,,,,,コット,0
3120,9011003018235,新規,0,2024-01-09,2024-01-09,合同会社紋寿司,,合同会社,東京都,渋谷区,幡ヶ谷２丁目１２番１７号,,13,113,1510072,,,,,,,2024-01-09,1,,,,,モンズシ,0
3126,9011203004274,新規,0,2024-01-09,2024-01-09,合同会社リラスコーゲン,,合同会社,東京都,中野区,江古田４丁目２０番１４号,,13,114,1650022,,,,,,,2024-01-09,1,,,,,リラスコーゲン,0
3127,9011301029297,新規,0,2024-01-09,2024-01-09,株式会社ＡＬＴＭｉｒａｉ,,株式会社,東京都,杉並区,宮前１丁目４番６号ＬＩＶＥＬ高井戸３０５,,13,115,1680081,,,,,,,2024-01-09,1,,,,,,0
3131,9011601027439,新規,0,2024-01-09,2024-01-09,株式会社ｑｕａｔｒｅ,,株式会社,東京都,練馬区,桜台１丁目２３番４号レイリス桜台ＡＺ１０２,,13,120,1760002,,,,,,,2024-01-09,1,,,,,キャトル,0
3144,9013303006943,新規,0,2024-01-09,2024-01-09,合同会社グレートデーン,,合同会社,東京都,豊島区,東池袋２丁目５５－３横谷ビル４０１,,13,116,1700013,,,,,,,2024-01-09,1,,,,,グレートデーン,0
3156,9030001158009,新規,0,2024-01-09,2024-01-09,株式会社グラティ,,株式会社,埼玉県,さいたま市南区,大谷場２丁目１１番１３－３０５号,,11,108,3360016,,,,,,,2024-01-09,1,,,,,グラティ,0
3157,9030001158017,新規,0,2024-01-09,2024-01-09,Ｋｅｎｎｙ’ｓ　Ｓｅｌｅｃｔ　Ｍｏｔｏｒｃｙｃｌｅｓ株式会社,,株式会社,埼玉県,春日部市,増富１９０番地２７,,11,214,3440041,,,,,,,2024-01-09,1,,,,,ケニーズセレクトモーターサイクルズ,0
3158,9030001158033,新規,0,2024-01-09,2024-01-09,株式会社Ｊ‐ＷＯＲＬＤ,,株式会社,埼玉県,新座市,東北２丁目３７番１０号高野ビル３０２号,,11,230,3520001,,,,,,,2024-01-09,1,,,,,ジェーワールド,0
3159,9030001158066,新規,0,2024-01-09,2024-01-09,レイデック株式会社,,株式会社,埼玉県,越谷市,南越谷２丁目２番１２号コアーズビル４０３,,11,222,3430845,,,,,,,2024-01-09,1,,,,,レイデック,0
3161,9030003023334,新規,0,2024-01-09,2024-01-09,合同会社アクロスプラザ,,合同会社,埼玉県,さいたま市大宮区,大成町３丁目５８８番地,,11,103,3300852,,,,,,,2024-01-09,1,,,,,アクロスプラザ,0
3165,9040001131591,新規,0,2024-01-09,2024-01-09,株式会社ＡＬＧ,,株式会社,千葉県,市原市,加茂１丁目１番地１４,,12,219,2900025,,,,,,,2024-01-09,1,,,,,エイエルジー,0
3166,9040001131666,新規,0,2024-01-09,2024-01-09,大塚生薬株式会社,,株式会社,千葉県,千葉市中央区,寒川町３丁目５９番地１,,12,101,2600832,,,,,,,2024-01-09,1,,,,,オオツカショウヤク,0
3167,9040003024042,新規,0,2024-01-09,2024-01-09,合同会社ＭＴ企画,,合同会社,千葉県,千葉市緑区,あすみが丘２丁目３１番地３,,12,105,2670066,,,,,,,2024-01-09,1,,,,,エムティキカク,0
3168,9040003024059,新規,0,2024-01-09,2024-01-09,ＣＡＭＩＮＯ合同会社,,合同会社,千葉県,佐倉市,王子台５丁目６番地２１,,12,212,2850837,,,,,,,2024-01-09,1,,,,,カミーノ,0
3169,9040005022234,新規,0,2024-01-09,2024-01-09,特定非営利活動法人ＴＳＵＧＡプロ,,その他の設立登記法人,千葉県,千葉市若葉区,西都賀４丁目１番１０号,,12,104,2640026,,,,,,,2024-01-09,1,,,,,ツガプロ,0
3173,9050003008044,新規,0,2024-01-09,2024-01-09,合同会社スマイル,,合同会社,茨城県,水戸市,内原町８３０番地の１,,08,201,3190315,,,,,,,2024-01-09,1,,,,,スマイル,0
3174,9060001036707,新規,0,2024-01-09,2024-01-09,ヤマゼン株式会社,,株式会社,栃木県,鹿沼市,南上野町２２９番地,,09,205,3220531,,,,,,,2024-01-09,1,,,,,ヤマゼン,0
3182,9080005007586,新規,0,2024-01-09,2024-01-09,一般社団法人日本小鳥・小動物協会,,その他の設立登記法人,静岡県,静岡市清水区,北脇２００番地,,22,103,4240052,,,,,,,2024-01-09,1,,,,,ニホンコトリショウドウブツキョウカイ,0
3183,9080101024444,新規,0,2024-01-09,2024-01-09,ＴＥＲＭＩＮＡＬ株式会社,,株式会社,静岡県,富士市,南松野４５５番地の４,,22,210,4213303,,,,,,,2024-01-09,1,,,,,ターミナル,0
3209,9080401026933,新規,0,2024-01-09,2024-01-09,株式会社前田企画,,株式会社,静岡県,掛川市,千浜５１２３番地の１,,22,213,4371412,,,,,,,2024-01-09,1,,,,,マエダキカク,0
3249,9080403004937,新規,0,2024-01-09,2024-01-09,合同会社ｆｉｅｌｄｓ　ｄｅｓｉｇｎ,,合同会社,静岡県,浜松市中央区,村櫛町４８３３－１,,22,138,4311207,,,,,,,2024-01-09,1,,,,,フィールズデザイン,0
3277,9090001018487,新規,0,2024-01-09,2024-01-09,株式会社空庭,,株式会社,山梨県,南都留郡鳴沢村,３９２９番地１,,19,429,4010320,,,,,,,2024-01-09,1,,,,,カラニワ,0
3281,9100001037106,新規,0,2024-01-09,2024-01-09,株式会社フォリッジツリー,,株式会社,長野県,北佐久郡軽井沢町,大字発地１１３番地,,20,321,3890113,,,,,,,2024-01-09,1,,,,,フォリッジツリー,0
3285,9110001038078,新規,0,2024-01-09,2024-01-09,株式会社橋元養蜂園,,株式会社,新潟県,新潟市秋葉区,覚路津８７番地,,15,105,9560001,,,,,,,2024-01-09,1,,,,,ハシモトヨウホウエン,0
3286,9110001038086,新規,0,2024-01-09,2024-01-09,グレイスフィールド株式会社,,株式会社,新潟県,上越市,春日野１丁目１０番１号,,15,222,9430803,,,,,,,2024-01-09,1,,,,,グレイスフィールド,0
3289,9110005017037,新規,0,2024-01-09,2024-01-09,社会保険労務士法人澤野オフィス,,その他の設立登記法人,新潟県,十日町市,四日町新田６９番地２３,,15,210,9480007,,,,,,,2024-01-09,1,,,,,サワノオフィス,0
3299,9120001261034,新規,0,2024-01-09,2024-01-09,ＭＮＧ株式会社,,株式会社,大阪府,大阪市浪速区,恵美須西１丁目２番５－５０８号,,27,111,5560003,,,,,,,2024-01-09,1,,,,,エムエヌジー,0
3300,9120001261067,新規,0,2024-01-09,2024-01-09,株式会社ｓｕｎ　ａｎｄ　ｍｏｏｎ,,株式会社,大阪府,大阪市淀川区,三津屋北２丁目１５番４５－６０１号,,27,123,5320032,,,,,,,2024-01-09,1,,,,,サンアンドムーン,0
3301,9120001261075,新規,0,2024-01-09,2024-01-09,株式会社Ｓ・Ｔ・Ｆ,,株式会社,大阪府,大阪市中央区,瓦町２丁目５番８号瓦町スクエアビル８階,,27,128,5410048,,,,,,,2024-01-09,1,,,,,エスティーエフ,0
3302,9120001261091,新規,0,2024-01-09,2024-01-09,株式会社ＬＥＧＥＮＤＯＲＥ,,株式会社,大阪府,大阪市港区,築港４丁目３番１０号,,27,107,5520021,,,,,,,2024-01-09,1,,,,,レジェンドーレ,0
3303,9120001261109,新規,0,2024-01-09,2024-01-09,融易株式会社,,株式会社,大阪府,大阪市生野区,生野東２丁目７－１６,,27,116,5440025,,,,,,,2024-01-09,1,,,,,ユウエキ,0
3304,9120001261125,新規,0,2024-01-09,2024-01-09,石頭株式会社,,株式会社,大阪府,大阪市城東区,中浜１丁目１７番１４号６Ｆ,,27,118,5360024,,,,,,,2024-01-09,1,,,,,セキトウ,0
3305,9120001261133,新規,0,2024-01-09,2024-01-09,ｔｒｏｐｉｃａｌ　ｚｅｎ株式会社,,株式会社,大阪府,大阪市淀川区,新北野１丁目１２番１０号レバンガ十三アパートメント,,27,123,5320025,,,,,,,2024-01-09,1,,,,,トロピカルセン,0
3308,9120003025610,新規,0,2024-01-09,2024-01-09,大阪ウェブヂカラ合同会社,,合同会社,大阪府,大阪市中央区,南船場１丁目１６番２７－３０７号,,27,128,5420081,,,,,,,2024-01-09,1,,,,,オオサカウェブヂカラ,0
3311,9120101068825,新規,0,2024-01-09,2024-01-09,株式会社セカンドスター,,株式会社,大阪府,堺市西区,鳳東町７丁７４６番地１,,27,144,5938324,,,,,,,2024-01-09,1,,,,,セカンドスター,0
3312,9120101068833,新規,0,2024-01-09,2024-01-09,株式会社ＮＯＲＵＣＡ,,株式会社,大阪府,堺市美原区,北余部４９番地１,,27,147,5870051,,,,,,,2024-01-09,1,,,,,ノルカ,0
3313,9120103005611,新規,0,2024-01-09,2024-01-09,合同会社ケセラセラ,,合同会社,大阪府,松原市,柴垣２丁目５１５番地の７,,27,217,5800017,,,,,,,2024-01-09,1,,,,,ケセラセラ,0
3314,9120901048596,新規,0,2024-01-09,2024-01-09,株式会社宝美産業,,株式会社,大阪府,茨木市,藤の里１丁目８番９１０号,,27,211,5670054,,,,,,,2024-01-09,1,,,,,ホウミサンギョウ,0
3318,9130001076084,新規,0,2024-01-09,2024-01-09,株式会社オプティマス,,株式会社,京都府,京都市上京区,衣棚通出水上る御霊町６６番地,,26,102,6028018,,,,,,,2024-01-09,1,,,,,オプティマス,0
3319,9130001076092,新規,0,2024-01-09,2024-01-09,エーレ株式会社,,株式会社,京都府,京都市上京区,宮垣町９１－１０２,,26,102,6020853,,,,,,,2024-01-09,1,,,,,エーレ,0
3324,9140001132885,新規,0,2024-01-09,2024-01-09,株式会社Ｏｆｆｉｃｅ　Ｓａｔｏｃｏ,,株式会社,兵庫県,姫路市,北条２５２番地１３グラジオ姫路南インペリアル４０７号,,28,201,6700947,,,,,,,2024-01-09,1,,,,,オフィスサトコ,0
3325,9140001132910,新規,0,2024-01-09,2024-01-09,株式会社Ｇｒｅｅｎ　Ｈｅａｌｔｈ　Ｌａｂ,,株式会社,兵庫県,神戸市中央区,御幸通８丁目１番６号神戸国際会館２２階,,28,110,6510087,,,,,,,2024-01-09,1,,,,,グリーンヘルスラボ,0
3327,9150001026970,新規,0,2024-01-09,2024-01-09,神息酒造奈良蒸留所株式会社,,株式会社,奈良県,宇陀郡曽爾村,大字山粕１６３６,,29,385,6331216,,,,,,,2024-01-09,1,,,,,カミキシュゾウナラジョウリュウジョ,0
3328,9160003003083,新規,0,2024-01-09,2024-01-09,合同会社ＴｒｉＭａｇｉａ,,合同会社,滋賀県,大津市,皇子が丘２丁目６番１４号ベルヴィ大津京１階,,25,201,5200025,,,,,,,2024-01-09,1,,,,,トライマギア,0
3343,9180301038184,新規,0,2024-01-09,2024-01-09,株式会社ＡＴＭ　ＩＮＴＥＲＮＡＴＩＯＮＡＬ,,株式会社,愛知県,田原市,田原町二ノ丸６番地,,23,231,4413421,,,,,,,2024-01-09,1,,,,,エーティーエムインターナショナル,0
3344,9180301038192,新規,0,2024-01-09,2024-01-09,株式会社せづつ電工,,株式会社,愛知県,岡崎市,矢作町字桜海道３４番地３,,23,202,4440943,,,,,,,2024-01-09,1,,,,,セヅツデンコウ,0
3347,9180303005967,新規,0,2024-01-09,2024-01-09,合同会社ＫＯＴＳ,,合同会社,愛知県,岡崎市,梅園町字３丁目５番地４長坂ビル１階,,23,202,4440031,,,,,,,2024-01-09,1,,,,,コッツ,0
3349,9200001042038,新規,0,2024-01-09,2024-01-09,株式会社ＮＥＸＴＷ,,株式会社,岐阜県,各務原市,鵜沼三ツ池町１丁目１９番地１第三日置ビル１階Ｃ,,21,213,5090146,,,,,,,2024-01-09,1,,,,,ネクストタブル,0
3350,9200001042046,新規,0,2024-01-09,2024-01-09,株式会社ＲＵＳＨ,,株式会社,岐阜県,大垣市,割田２丁目１００番地１,,21,202,5030953,,,,,,,2024-01-09,1,,,,,ラッシュ,0
3351,9200003006197,新規,0,2024-01-09,2024-01-09,合同会社ＳＯラボ,,合同会社,岐阜県,岐阜市,日野北５丁目２１番２０号,,21,201,5008207,,,,,,,2024-01-09,1,,,,,エスオーラボ,0
3356,9240001062627,新規,0,2024-01-09,2024-01-09,ピクシス株式会社,,株式会社,広島県,尾道市,向東町８９１８番地２１,,34,205,7220062,,,,,,,2024-01-09,1,,,,,ピクシス,0
3357,9240001062635,新規,0,2024-01-09,2024-01-09,株式会社ＴＡＫＡＹＡＭＡ,,株式会社,広島県,広島市中区,基町１９番１－７２４号,,34,101,7300011,,,,,,,2024-01-09,1,,,,,タカヤマ,0
3358,9240001062643,新規,0,2024-01-09,2024-01-09,株式会社ＣＡＬＤＡＳ,,株式会社,広島県,三原市,幸崎能地７丁目３番３２号,,34,204,7292252,,,,,,,2024-01-09,1,,,,,カルダス,0
3360,9240003006482,新規,0,2024-01-09,2024-01-09,合同会社Ｓ＆Ｔ,,合同会社,広島県,広島市佐伯区,楽々園２丁目１番３４号しらさぎビル１Ｆ,,34,108,7315136,,,,,,,2024-01-09,1,,,,,エスアンドティー,0
3365,9280003001802,新規,0,2024-01-09,2024-01-09,合同会社浜守,,合同会社,島根県,浜田市,瀬戸見町３７番地６,,32,202,6970057,,,,,,,2024-01-09,1,,,,,ハマモリ,0
3368,9290001104291,新規,0,2024-01-09,2024-01-09,奥条メンテナンス株式会社,,株式会社,福岡県,糸島市,波多江駅北３丁目１２－１－３０６,,40,230,8191107,,,,,,,2024-01-09,1,,,,,オクジョウメンテナンス,0
3370,9290801030191,新規,0,2024-01-09,2024-01-09,ファイブアール東九株式会社,,株式会社,福岡県,北九州市小倉南区,曽根北町７番６０号,,40,107,8000229,,,,,,,2024-01-09,1,,,,,ファイブアールトウキュウ,0
3372,9310001018778,新規,0,2024-01-09,2024-01-09,株式会社ｖｉｄｒｏ,,株式会社,長崎県,諫早市,多良見町木床１６１３番地,,42,204,8590406,,,,,,,2024-01-09,1,,,,,ヴィドロ,0
3373,9310001018794,新規,0,2024-01-09,2024-01-09,株式会社野中果樹園,,株式会社,長崎県,長崎市,琴海形上町１５６９番地１,,42,201,8513213,,,,,,,2024-01-09,1,,,,,ノナカカジュエン,0
3380,9330003010145,新規,0,2024-01-09,2024-01-09,合同会社ＡＫプランニング,,合同会社,熊本県,熊本市東区,長嶺東８丁目６番５５号,,43,102,8618038,,,,,,,2024-01-09,1,,,,,エーケープランニング,0
3381,9340003004344,新規,0,2024-01-09,2024-01-09,合同会社マツヤマ,,合同会社,鹿児島県,薩摩郡さつま町,船木１１６７番地６,,46,392,8951804,,,,,,,2024-01-09,1,,,,,マツヤマ,0
3383,9360001033038,新規,0,2024-01-09,2024-01-09,クロスジャパン株式会社,,株式会社,沖縄県,浦添市,勢理客２丁目１８番９号全光第一ビル２０２,,47,208,9012122,,,,,,,2024-01-09,1,,,,,クロスジャパン,0
3384,9360003013582,新規,0,2024-01-09,2024-01-09,合同会社Ｖｏｉｃｅ,,合同会社,沖縄県,国頭郡金武町,字金武６２３番地３,,47,314,9041201,,,,,,,2024-01-09,1,,,,,ボイス,0
3389,9370001050809,新規,0,2024-01-09,2024-01-09,株式会社相輪,,株式会社,宮城県,仙台市青葉区,愛子中央２丁目１番１５,,04,101,9893128,,,,,,,2024-01-09,1,,,,,ソウリン,0
3391,9390003002186,新規,0,2024-01-09,2024-01-09,合同会社土田慎,,合同会社,山形県,山形市,白山１丁目４番７号,,06,201,9902446,,,,,,,2024-01-09,1,,,,,ツチダマコト,0
3396,9430001090716,新規,0,2024-01-09,2024-01-09,株式会社ホウスイ,,株式会社,北海道,札幌市中央区,南七条西９丁目１０２４番地５,,01,101,0640807,,,,,,,2024-01-09,1,,,,,ホウスイ,0
3397,9450001014193,新規,0,2024-01-09,2024-01-09,株式会社Ｒｉｍ,,株式会社,北海道,名寄市,西四条南６丁目４番地,,01,221,0960014,,,,,,,2024-01-09,1,,,,,リム,0
3408,9480001012343,新規,0,2024-01-09,2024-01-09,株式会社仲野建築設計事務所,,株式会社,徳島県,吉野川市,鴨島町牛島２６４５番地３３,,36,205,7760001,,,,,,,2024-01-09,1,,,,,ナカノケンチクセッケイジムショ,0
