sequenceNumber,corporateNumber,process,correct,updateDate,changeDate,name,nameImageId,kind,prefectureName,cityName,streetNumber,addressImageId,prefectureCode,cityCode,postCode,addressOutside,addressOutsideImageId,closeDate,closeCause,successorCorporateNumber,changeCause,assignmentDate,latest,enName,enPrefectureName,enCityName,enAddressOutside,furigana,hihyoji
13,1010003021371,登記記録の閉鎖等,0,2024-02-27,2024-02-22,合同会社ＨＥＡＶＥＮ－ＯＦＦＩＣＥ,,合同会社,東京都,中央区,銀座６丁目１３番１６号銀座ＷａｌｌビルＵＣＦ５階,,13,102,1040061,,,2024-02-22,清算の結了等,,,2015-10-05,1,,,,,ヘブンオフィス,0
26,1010502007061,登記記録の閉鎖等,0,2024-02-27,2024-02-20,有限会社タカハシ・ビソー,,有限会社,東京都,台東区,三ノ輪１丁目１４番９号,,13,106,1100011,,,2024-02-20,清算の結了等,,,2015-10-05,1,,,,,タカハシビソー,0
28,1010602032141,登記記録の閉鎖等,0,2024-02-27,2024-02-21,有限会社Ｔ・Ｇ・Ｋ・リアルティ,,有限会社,東京都,墨田区,江東橋２丁目１４番７号錦糸町サンライズビル１０階,,13,107,1300022,,,2024-02-21,清算の結了等,,,2015-10-05,1,,,,,,0
30,1010701001253,登記記録の閉鎖等,0,2024-02-27,2024-02-15,エーヴァムテクノロジー株式会社,,株式会社,東京都,品川区,南品川３丁目５番１４号,,13,109,1400004,,,2024-02-15,清算の結了等,,,2015-10-05,1,,,,,エーバムテクノロジー,0
36,1010901036859,登記記録の閉鎖等,0,2024-02-27,2024-02-22,株式会社ＰＥＲＭ,,株式会社,東京都,世田谷区,代沢２丁目４４番１５号,,13,112,1550032,,,2024-02-22,清算の結了等,,,2015-10-05,1,,,,,,0
40,1011001040149,登記記録の閉鎖等,0,2024-02-27,2024-02-21,株式会社ディー・ナイン,,株式会社,東京都,世田谷区,給田３丁目１３番１７号,,13,112,1570064,,,2024-02-21,清算の結了等,,,2015-10-05,1,,,,,ディーナイン,0
45,1011001135428,登記記録の閉鎖等,0,2024-02-27,2024-02-26,株式会社ｓｏｙｏｇｕ．,,株式会社,東京都,渋谷区,幡ヶ谷２丁目１４番９号ＨＡＲＡＤＡ・Ｂｌｄ．８（７階）,,13,113,1510072,,,2024-02-26,清算の結了等,,,2020-08-24,1,,,,,ソヨグ,0
59,1011105002433,登記記録の閉鎖等,0,2024-02-27,2024-02-21,特定非営利活動法人まち・いえづくり支援の集,,その他の設立登記法人,東京都,新宿区,四谷三栄町１２番５号ライラック三栄３階,,13,104,1600008,,,2024-02-21,清算の結了等,,,2015-10-05,1,,,,,マチイエヅクリシエンノシュウ,0
63,1011303000247,登記記録の閉鎖等,0,2024-02-27,2024-02-15,合名会社カリノ,,合名会社,東京都,杉並区,梅里２丁目２４番１２号,,13,115,1660011,,,2024-02-15,清算の結了等,,,2015-10-05,1,,,,,,0
67,1011703000846,登記記録の閉鎖等,0,2024-02-27,2024-02-22,やわらぎ介護合同会社,,合同会社,東京都,江戸川区,西小岩４丁目６番６号,,13,123,1330057,,,2024-02-22,清算の結了等,,,2015-10-05,1,,,,,ヤワラギカイゴ,0
75,1012801017170,登記記録の閉鎖等,0,2024-02-27,2024-02-21,プリントジャパン株式会社,,株式会社,東京都,日野市,落川１８４番地の６,,13,212,1910034,,,2024-02-21,清算の結了等,,,2016-04-08,1,,,,,プリントジャパン,0
80,1013305003450,登記記録の閉鎖等,0,2024-02-27,2024-02-22,一般社団法人中小企業ＤＣ推進会,,その他の設立登記法人,東京都,豊島区,南池袋２丁目４７番６号パレス南池袋３０７,,13,116,1710022,,,2024-02-22,清算の結了等,,,2023-03-23,1,,,,,チュウショウキギョウディーシースイシンカイ,0
97,1030001020662,登記記録の閉鎖等,0,2024-02-27,2024-02-20,株式会社平和建設,,株式会社,埼玉県,戸田市,大字新曽２１８６番地１,,11,224,3350021,,,2024-02-20,清算の結了等,,,2015-10-05,1,,,,,ヘイワケンセツ,0
115,1040002004738,登記記録の閉鎖等,0,2024-02-27,2024-02-20,有限会社サングリーン,,有限会社,千葉県,千葉市花見川区,検見川町１丁目１２番地,,12,102,2620023,,,2024-02-20,清算の結了等,,,2015-10-05,1,,,,,サングリーン,0
117,1040002101601,登記記録の閉鎖等,0,2024-02-27,2024-02-21,有限会社ＷＡＶＥ,,有限会社,千葉県,山武郡九十九里町,不動堂３４７番３,,12,403,2830113,,,2024-02-21,清算の結了等,,,2015-10-05,1,,,,,ウェーブ,0
127,1060002014925,登記記録の閉鎖等,0,2024-02-27,2024-02-20,有限会社小林商店,,有限会社,栃木県,日光市,大渡３９２番地,,09,206,3212402,,,2024-02-20,清算の結了等,,,2015-10-05,1,,,,,コバヤシショウテン,0
132,1080001013769,登記記録の閉鎖等,0,2024-02-27,2024-02-21,株式会社泉地商店,,株式会社,静岡県,牧之原市,勝間８４３番地の１,,22,226,4210402,,,2024-02-21,清算の結了等,,,2015-10-05,1,,,,,イズミチショウテン,0
133,1080001018116,登記記録の閉鎖等,0,2024-02-27,2024-02-21,株式会社レプロ,,株式会社,静岡県,静岡市清水区,堂林２丁目１３番２４号,,22,103,4240851,,,2024-02-21,清算の結了等,,,2015-10-05,1,,,,,レプロ,0
137,1100002007701,登記記録の閉鎖等,0,2024-02-27,2024-02-19,有限会社ヌーベルエンタープライズ,,有限会社,長野県,長野市,青木島町綱島６４９番地２,,20,201,3812206,,,2024-02-19,清算の結了等,,,2015-10-05,1,,,,,ヌーベルエンタープライズ,0
140,1100002021306,登記記録の閉鎖等,0,2024-02-27,2024-02-19,有限会社文旭堂印刷所,,有限会社,長野県,松本市,女鳥羽１丁目９番６号,,20,202,3900806,,,2024-02-19,清算の結了等,,,2015-10-05,1,,,,,ブンキョクドウインサツショ,0
141,1100002033235,登記記録の閉鎖等,0,2024-02-27,2024-02-20,有限会社フェアウェイ,,有限会社,長野県,伊那市,西春近８０３６番地,,20,209,3994431,,,2024-02-20,清算の結了等,,,2015-10-05,1,,,,,フェアウェイ,0
143,1100005011873,登記記録の閉鎖等,0,2024-02-27,2024-02-19,特定非営利活動法人散走が楽しい地域を拓く会,,その他の設立登記法人,長野県,長野市,三輪１０丁目１１番１－１号,,20,201,3800803,,,2024-02-19,清算の結了等,,,2016-06-02,1,,,,,サンソウガタノシイチイキヲヒラクカイ,0
147,1120001013343,登記記録の閉鎖等,0,2024-02-27,2024-02-21,株式会社八新,,株式会社,大阪府,大阪市生野区,鶴橋２丁目４番３号,,27,116,5440031,,,2024-02-21,清算の結了等,,,2015-10-05,1,,,,,,0
149,1120001112145,登記記録の閉鎖等,0,2024-02-27,2024-02-21,株式会社レイン,,株式会社,大阪府,大阪市生野区,田島２丁目３番地９号,,27,116,5440011,,,2024-02-21,清算の結了等,,,2015-10-05,1,,,,,レイン,0
151,1120001129718,登記記録の閉鎖等,0,2024-02-27,2024-02-22,株式会社Ｈ．Ｋ．Ｋアセットホールディングス,,株式会社,大阪府,大阪市福島区,福島２丁目９番１号,,27,103,5530003,,,2024-02-22,清算の結了等,,,2015-10-05,1,,,,,エイチケーケーアセットホールディングス,0
153,1120001171686,登記記録の閉鎖等,0,2024-02-27,2024-02-26,株式会社ディーワイコーポレーション,,株式会社,奈良県,北葛城郡上牧町,服部台５丁目３番１号,,29,424,6390212,,,2024-02-26,清算の結了等,,,2015-10-05,1,,,,,ディーワイコーポレーション,0
171,1120103001700,登記記録の閉鎖等,0,2024-02-27,2024-02-22,合同会社ｒｅｃｈｅ,,合同会社,大阪府,和泉市,弥生町４丁目３番２号,,27,219,5940061,,,2024-02-22,清算の結了等,,,2015-10-05,1,,,,,リシェ,0
192,1140001086536,登記記録の閉鎖等,0,2024-02-27,2024-02-20,株式会社ＫＩＺＵＮＡ,,株式会社,兵庫県,神戸市中央区,八幡通３丁目１番１４号サンシポートビル２Ｆ,,28,110,6510085,,,2024-02-20,清算の結了等,,,2015-10-05,1,,,,,キズナ,0
202,1160002014205,登記記録の閉鎖等,0,2024-02-27,2024-02-22,有限会社イデアリサーチ,,有限会社,滋賀県,野洲市,北桜字山田８６８番地,,25,210,5202305,,,2024-02-22,清算の結了等,,,2015-10-05,1,,,,,イデアリサーチ,0
206,1180001019475,登記記録の閉鎖等,0,2024-02-27,2024-02-20,株式会社サンエンジニアリング,,株式会社,愛知県,名古屋市中村区,野田町字柳下２０番地６,,23,105,4530858,,,2024-02-20,清算の結了等,,,2015-10-05,1,,,,,サンエンジニアリンング,0
207,1180001082985,登記記録の閉鎖等,0,2024-02-27,2024-02-21,株式会社大明貿易,,株式会社,愛知県,一宮市,本町１丁目６番１０号,,23,203,4910859,,,2024-02-21,清算の結了等,,,2015-10-05,1,,,,,ダイメイボウエキ,0
216,1200001013921,登記記録の閉鎖等,0,2024-02-27,2024-02-26,株式会社高橋タイル,,株式会社,岐阜県,大垣市,坂下町５２番地,,21,202,5030009,,,2024-02-26,清算の結了等,,,2015-10-05,1,,,,,タカハシタイル,0
225,1220001000455,登記記録の閉鎖等,0,2024-02-27,2024-02-22,野々市商事株式会社,,株式会社,石川県,野々市市,本町６丁目１０番３５号,,17,212,9218815,,,2024-02-22,清算の結了等,,,2015-10-05,1,,,,,ノノイチショウジ,0
235,1260002024771,登記記録の閉鎖等,0,2024-02-27,2024-02-22,有限会社佐藤紙文具店,,有限会社,岡山県,笠岡市,四番町４番地の１９,,33,205,7140085,,,2024-02-22,清算の結了等,,,2015-10-05,1,,,,,サトウカミブングテン,0
260,1360003003442,登記記録の閉鎖等,0,2024-02-27,2024-02-26,合資会社かりゆし物産,,合資会社,沖縄県,宜野湾市,嘉数２丁目３番７号,,47,205,9012226,,,2024-02-26,清算の結了等,,,2015-10-05,1,,,,,カリユシブッサン,0
261,1360005002120,登記記録の閉鎖等,0,2024-02-27,2024-02-20,特定非営利活動法人沖縄ハイサイネット,,その他の設立登記法人,沖縄県,沖縄市,中央２丁目２８番１号,,47,211,9040004,,,2024-02-20,清算の結了等,,,2015-10-05,1,,,,,オキナワハイサイネット,0
272,1460301004157,登記記録の閉鎖等,0,2024-02-27,2024-02-21,株式会社仁和産業,,株式会社,北海道,紋別郡遠軽町,丸瀬布水谷町６８番地１２,,01,555,0990206,,,2024-02-21,清算の結了等,,,2015-10-05,1,,,,,ジンワサンギョウ,0
300,2010401117480,登記記録の閉鎖等,0,2024-02-27,2024-02-21,株式会社上野,,株式会社,東京都,新宿区,住吉町８番１６号,,13,104,1620065,,,2024-02-21,清算の結了等,,,2015-10-05,1,,,,,ウエノ,0
304,2010401149722,登記記録の閉鎖等,0,2024-02-27,2024-02-21,株式会社ＬＩＸＡＭ,,株式会社,東京都,港区,浜松町２丁目２番１５号浜松町ダイヤビル２Ｆ,,13,103,1050013,,,2024-02-21,清算の結了等,,,2019-12-06,1,,,,,リクサム,0
307,2010401172732,登記記録の閉鎖等,0,2024-02-27,2024-02-20,株式会社ｌｅａｓｈ,,株式会社,東京都,港区,六本木７丁目２１番２４号ｔｈｅｍｏｄｕｌｅｒｏｐｐｏｎｇｉ４０５,,13,103,1060032,,,2024-02-20,清算の結了等,,,2023-03-02,1,,,,,リーシュ,0
322,2010901040918,登記記録の閉鎖等,0,2024-02-27,2024-02-26,Ｄ２Ｃ株式会社,,株式会社,東京都,世田谷区,上用賀３丁目１番１７号用賀Ａフラット６０６号室,,13,112,1580098,,,2024-02-26,清算の結了等,,,2017-10-10,1,,,,,デーツーシー,0
324,2010903002858,登記記録の閉鎖等,0,2024-02-27,2024-02-26,株式会社オフィスあざみ,,株式会社,東京都,世田谷区,深沢１丁目１４番１６号,,13,112,1580081,,,2024-02-26,清算の結了等,,,2015-10-05,1,,,,,オフィスアザミ,0
348,2011202007870,登記記録の閉鎖等,0,2024-02-27,2024-02-21,有限会社シー・アイ・エス,,有限会社,東京都,中野区,中央１丁目３４番１－１０５号,,13,114,1640011,,,2024-02-21,清算の結了等,,,2015-10-05,1,,,,,シーアイエス,0
358,2011702015885,登記記録の閉鎖等,0,2024-02-27,2024-02-20,有限会社ツバサ交通,,有限会社,東京都,江戸川区,中葛西２丁目２７番７号,,13,123,1340083,,,2024-02-20,清算の結了等,,,2015-10-05,1,,,,,ツバサコウツウ,0
384,2030002041335,登記記録の閉鎖等,0,2024-02-27,2024-02-22,有限会社西河酒店,,有限会社,埼玉県,加須市,中央１丁目１１番４４号,,11,210,3470055,,,2024-02-22,清算の結了等,,,2015-10-05,1,,,,,ニシカワサケテン,0
427,2120101029817,登記記録の閉鎖等,0,2024-02-27,2024-02-22,雅株式会社,,株式会社,大阪府,高石市,取石６丁目１８番３号,,27,225,5920013,,,2024-02-22,清算の結了等,,,2015-10-05,1,,,,,ミヤビ,0
428,2120101030279,登記記録の閉鎖等,0,2024-02-27,2024-02-26,パイル工業株式会社,,株式会社,大阪府,松原市,天美西３丁目３番４５号,,27,217,5800034,,,2024-02-26,清算の結了等,,,2015-10-05,1,,,,,,0
443,2140001123643,登記記録の閉鎖等,0,2024-02-27,2024-02-21,株式会社Ｐｌａｃｅ　ｏｆ　Ｏｒｉｇｉｎ,,株式会社,兵庫県,尼崎市,大庄西町１丁目３３番３６－３０７号,,28,202,6600077,,,2024-02-21,清算の結了等,,,2021-11-01,1,,,,,プレイスオブオリジン,0
457,2180003006818,登記記録の閉鎖等,0,2024-02-27,2024-02-20,合名会社伊藤幹三商店,,合名会社,愛知県,名古屋市東区,徳川１丁目９０１サンエース徳川３階,,23,102,4610025,,,2024-02-20,合併による解散等,5180001016097,令和６年２月１５日名古屋市東区徳川一丁目９０１サンエース徳川３階伊藤幹三株式会社（5180001016097）に合併し解散,2015-10-05,1,,,,,イトウカンゾウショウテン,0
463,2190002015249,登記記録の閉鎖等,0,2024-02-27,2024-02-22,有限会社アールシーピーアプレッツ,,有限会社,三重県,松阪市,新町８２５番地,,24,204,5150075,,,2024-02-22,清算の結了等,,,2015-10-05,1,,,,,アールシーピーアプレッツ,0
465,2200001034636,登記記録の閉鎖等,0,2024-02-27,2024-02-22,３ｔｏ３ｋｉｔｃｈｅｎ株式会社,,株式会社,岐阜県,多治見市,虎渓町１丁目４番地,,21,204,5070026,,,2024-02-22,清算の結了等,,,2017-11-22,1,,,,,サトミキッチン,0
488,2290002051226,登記記録の閉鎖等,0,2024-02-27,2024-02-16,有限会社久留米システムコンサルティング,,有限会社,福岡県,久留米市,諏訪野町２７８１番地１０,,40,203,8300037,,,2024-02-16,清算の結了等,,,2015-10-05,1,,,,,クルメシステムコンサルティング,0
491,2290801018029,登記記録の閉鎖等,0,2024-02-27,2024-02-26,株式会社ＳＣＡＲＥＣＲＯＷ,,株式会社,福岡県,北九州市小倉北区,片野新町１丁目１０－２３キューブビル２Ｆ,,40,106,8020062,,,2024-02-26,清算の結了等,,,2015-10-05,1,,,,,,0
495,2310001010444,登記記録の閉鎖等,0,2024-02-27,2024-02-26,平戸興産株式会社,,株式会社,長崎県,平戸市,山中町１３８８番地,,42,207,8595141,,,2024-02-26,清算の結了等,,,2015-10-05,1,,,,,ヒラドコウサン,0
496,2320003002199,登記記録の閉鎖等,0,2024-02-27,2024-02-22,合同会社カドヤビル,,合同会社,大分県,大分市,生石２丁目２番１６号角屋ビル３０１,,44,201,8700003,,,2024-02-22,清算の結了等,,,2015-10-05,1,,,,,カドヤビル,0
514,2400502000091,登記記録の閉鎖等,0,2024-02-27,2024-02-20,有限会社岩手日報山目専売所,,有限会社,岩手県,一関市,山目字中野５１番地４,,03,209,0210053,,,2024-02-20,清算の結了等,,,2015-10-05,1,,,,,イワテニッポウヤマノメセンバイショ,0
523,2470002002945,登記記録の閉鎖等,0,2024-02-27,2024-02-21,有限会社サン・イシカワ,,有限会社,香川県,高松市,西の丸町１３番１０号,,37,201,7600021,,,2024-02-21,清算の結了等,,,2015-10-05,1,,,,,サンイシカワ,0
534,3010001239609,登記記録の閉鎖等,0,2024-02-27,2024-02-21,ダイヤ住宅株式会社,,株式会社,東京都,千代田区,丸の内２丁目１番１号,,13,101,1000005,,,2024-02-21,清算の結了等,,,2023-11-01,1,,,,,ダイヤジュウタク,0
535,3010001240129,登記記録の閉鎖等,0,2024-02-27,2024-02-19,地銀開発株式会社,,株式会社,東京都,中央区,銀座５丁目９番１１号銀座緑ビル,,13,102,1040061,,,2024-02-19,清算の結了等,,,2023-11-22,1,,,,,チギンカイハツ,0
544,3010003016626,登記記録の閉鎖等,0,2024-02-27,2024-02-16,エヌビービーアイアンブリッジリース合同会社,,合同会社,東京都,中央区,日本橋浜町３丁目３番２号,,13,102,1030007,,,2024-02-16,清算の結了等,,,2015-10-05,1,,,,,エヌビービーアイアンブリッジリース,0
549,3010401112183,登記記録の閉鎖等,0,2024-02-27,2024-02-19,株式会社モッテコ,,株式会社,東京都,墨田区,錦糸１丁目２番１号,,13,107,1300013,,,2024-02-19,清算の結了等,,,2015-10-05,1,,,,,モッテコ,0
561,3010901029209,登記記録の閉鎖等,0,2024-02-27,2024-02-22,株式会社マトリックス,,株式会社,東京都,世田谷区,太子堂１丁目１５番１８号,,13,112,1540004,,,2024-02-22,清算の結了等,,,2015-10-05,1,,,,,マトリックス,0
577,3011101060375,登記記録の閉鎖等,0,2024-02-27,2024-02-22,株式会社ＴＳＷ,,株式会社,東京都,新宿区,内藤町１番地,,13,104,1600014,,,2024-02-22,清算の結了等,,,2015-10-05,1,,,,,ティーエスダブリュー,0
592,3011602001423,登記記録の閉鎖等,0,2024-02-27,2024-02-21,有限会社栄実,,有限会社,東京都,練馬区,東大泉４丁目２５番１８号,,13,120,1780063,,,2024-02-21,清算の結了等,,,2015-10-05,1,,,,,エイミ,0
594,3011803003631,登記記録の閉鎖等,0,2024-02-27,2024-02-26,合同会社ゆい,,合同会社,東京都,足立区,千住１丁目３４番１０号,,13,121,1200034,,,2024-02-26,清算の結了等,,,2019-03-14,1,,,,,ユイ,0
620,3030002084622,登記記録の閉鎖等,0,2024-02-27,2024-02-16,有限会社エクセレンス,,有限会社,埼玉県,朝霞市,本町３丁目４番８号,,11,227,3510011,,,2024-02-16,清算の結了等,,,2015-10-05,1,,,,,エクセレンス,0
621,3030003008282,登記記録の閉鎖等,0,2024-02-27,2024-02-19,合同会社オオツカ,,合同会社,埼玉県,所沢市,大字上安松７６０番地の１２,,11,208,3590025,,,2024-02-19,清算の結了等,,,2016-01-07,1,,,,,オオツカ,0
628,3040002097862,登記記録の閉鎖等,0,2024-02-27,2024-02-20,有限会社壮栄,,有限会社,千葉県,野田市,東宝珠花３２９番地２,,12,208,2700226,,,2024-02-20,清算の結了等,,,2015-10-05,1,,,,,ソウエイ,0
646,3120001248490,登記記録の閉鎖等,0,2024-02-27,2024-02-21,株式会社水道設備一式,,株式会社,大阪府,大阪市住之江区,西住之江２丁目５番８号,,27,125,5590005,,,2024-02-21,清算の結了等,,,2022-08-30,1,,,,,スイドウセツビイッシキ,0
653,3120902020262,登記記録の閉鎖等,0,2024-02-27,2024-02-21,有限会社ロフトトータルプランニング,,有限会社,兵庫県,尼崎市,東難波町３丁目２１番１０号,,28,202,6600892,,,2024-02-21,清算の結了等,,,2015-10-05,1,,,,,ロフトトータルプランニング,0
661,3130005007025,登記記録の閉鎖等,0,2024-02-27,2024-02-20,医療法人和松会,,その他の設立登記法人,京都府,宇治市,六地蔵奈良町９番地,,26,204,6110001,,,2024-02-20,清算の結了等,,,2015-10-05,1,,,,,ワショウカイ,0
683,3180005007508,登記記録の閉鎖等,0,2024-02-27,2024-02-16,特定非営利活動法人しっぽ・いっぽの会,,その他の設立登記法人,愛知県,長久手市,長配２丁目６２２番地,,23,238,4801114,,,2024-02-16,清算の結了等,,,2015-10-05,1,,,,,シッポイッポノカイ,0
694,3250001013923,登記記録の閉鎖等,0,2024-02-27,2024-02-26,株式会社エムシノ,,株式会社,山口県,下関市,楠乃５丁目６番２２号,,35,201,7510804,,,2024-02-26,清算の結了等,,,2015-10-05,1,,,,,エムシノ,0
700,3270001000242,登記記録の閉鎖等,0,2024-02-27,2024-02-22,山陰電気工業株式会社,,株式会社,鳥取県,鳥取市,職人町３３番地,,31,201,6800056,,,2024-02-22,清算の結了等,,,2015-10-05,1,,,,,サンインデンキコウギョウ,0
701,3280002011675,登記記録の閉鎖等,0,2024-02-27,2024-02-22,有限会社長谷川鉄工所,,有限会社,島根県,仁多郡奥出雲町,三成１４１４番地５２,,32,343,6991511,,,2024-02-22,清算の結了等,,,2015-10-05,1,,,,,ハセガワテッコウショ,0
706,3290801004309,登記記録の閉鎖等,0,2024-02-27,2024-02-26,株式会社ナカミチ,,株式会社,福岡県,北九州市小倉南区,津田１丁目２番２２号,,40,107,8000242,,,2024-02-26,清算の結了等,,,2015-10-05,1,,,,,ナカミチ,0
725,3370002001114,登記記録の閉鎖等,0,2024-02-27,2024-02-26,有限会社セント・テルミニ,,有限会社,宮城県,仙台市泉区,高森７丁目３４番地の２,,04,105,9813203,,,2024-02-26,清算の結了等,,,2015-10-05,1,,,,,,0
759,4010003016617,登記記録の閉鎖等,0,2024-02-27,2024-02-16,エヌビービーグレートノット合同会社,,合同会社,東京都,中央区,日本橋浜町３丁目３番２号,,13,102,1030007,,,2024-02-16,清算の結了等,,,2015-10-05,1,,,,,エヌビービーグレートノット,0
760,4010003027713,登記記録の閉鎖等,0,2024-02-27,2024-02-20,合同会社ハローストレージプレミアム,,合同会社,東京都,千代田区,平河町１丁目６番１５号シルスフィア会計事務所内,,13,101,1020093,,,2024-02-20,清算の結了等,,,2018-06-12,1,,,,,ハローストレージプレミアム,0
778,4011001017532,登記記録の閉鎖等,0,2024-02-27,2024-02-21,日本高層管財株式会社,,株式会社,東京都,新宿区,西新宿３丁目９番１２号西新宿ダイヤモンドビル,,13,104,1600023,,,2024-02-21,合併による解散等,1011101006859,令和６年２月２１日東京都新宿区西新宿三丁目９番１２号国土管理株式会社（1011101006859）に合併し解散,2015-10-05,1,,,,,ニホンコウソウカンザイ,0
804,4011801006271,登記記録の閉鎖等,0,2024-02-27,2024-02-22,株式会社エイセン・アドバタイジング,,株式会社,東京都,足立区,千住３丁目７番地栄宣ビル内,,13,121,1200034,,,2024-02-22,清算の結了等,,,2015-10-05,1,,,,,エイセンアドバタイジング,0
805,4011801041062,登記記録の閉鎖等,0,2024-02-27,2024-02-26,株式会社新東申,,株式会社,東京都,中野区,野方１丁目４２－１２－２Ｃ,,13,114,1650027,,,2024-02-26,清算の結了等,,,2022-07-27,1,,,,,シントーシン,0
806,4011801042060,登記記録の閉鎖等,0,2024-02-27,2024-02-21,政治家女子４８株式会社,,株式会社,東京都,葛飾区,東新小岩１丁目１番１号,,13,122,1240023,,,2024-02-21,清算の結了等,,,2023-03-13,1,,,,,セイジカジョシフォーティーエイト,0
843,4040002047627,登記記録の閉鎖等,0,2024-02-27,2024-02-16,有限会社中川システム鑑定,,有限会社,千葉県,松戸市,吉井町４番地１０,,12,207,2710066,,,2024-02-16,清算の結了等,,,2015-10-05,1,,,,,ナカガワシステムカンテイ,0
854,4080401022557,登記記録の閉鎖等,0,2024-02-27,2024-02-16,株式会社ＡＢＡＣＯ,,株式会社,静岡県,掛川市,南２丁目１番１６号,,22,213,4360029,,,2024-02-16,清算の結了等,,,2017-11-20,1,,,,,アバコ,0
858,4100001019091,登記記録の閉鎖等,0,2024-02-27,2024-02-20,株式会社蓼科温泉ホテル,,株式会社,長野県,茅野市,北山４０３６番地,,20,214,3910301,,,2024-02-20,清算の結了等,,,2015-10-05,1,,,,,タテシナオンセンホテル,0
877,4120002080256,登記記録の閉鎖等,0,2024-02-27,2024-02-22,有限会社マドカ工業所,,有限会社,大阪府,門真市,ひえ島町２１番４５号,,27,223,5710037,,,2024-02-22,清算の結了等,,,2015-10-05,1,,,,,マドカコウギョウショ,0
883,4120901010346,登記記録の閉鎖等,0,2024-02-27,2024-02-22,アラタ電器株式会社,,株式会社,大阪府,高槻市,芝生町１丁目１２番７号,,27,207,5690823,,,2024-02-22,清算の結了等,,,2015-10-05,1,,,,,アラタデンキ,0
890,4140001086467,登記記録の閉鎖等,0,2024-02-27,2024-02-22,株式会社マルシン,,株式会社,兵庫県,神戸市西区,伊川谷町前開１２７６番地の１,,28,111,6512108,,,2024-02-22,清算の結了等,,,2015-10-05,1,,,,,マルシン,0
894,4150001017784,登記記録の閉鎖等,0,2024-02-27,2024-02-26,株式会社Ｈａｌｅ－Ｐｉｃｎｉｃ,,株式会社,奈良県,北葛城郡王寺町,王寺２丁目１３番１２－３０３号,,29,425,6360002,,,2024-02-26,清算の結了等,,,2015-10-05,1,,,,,ハレピクニック,0
898,4160001022230,登記記録の閉鎖等,0,2024-02-27,2024-02-26,株式会社近江電,,株式会社,滋賀県,蒲生郡竜王町,大字山之上２６２０番地６,,25,384,5202531,,,2024-02-26,清算の結了等,,,2020-01-15,1,,,,,オウミデン,0
906,4180303004965,登記記録の閉鎖等,0,2024-02-27,2024-02-21,合同会社Ａｆｆｉｎｉｔｙ,,合同会社,愛知県,蒲郡市,拾石町前田７２番地,,23,214,4430038,,,2024-02-21,清算の結了等,,,2021-04-26,1,,,,,アフィニティ,0
909,4190003001799,登記記録の閉鎖等,0,2024-02-27,2024-02-26,平澤設計合同会社,,合同会社,三重県,四日市市,城西町１０番９号,,24,202,5100829,,,2024-02-26,清算の結了等,,,2015-10-05,1,,,,,,0
910,4200001015873,登記記録の閉鎖等,0,2024-02-27,2024-02-22,株式会社Ｂ＆Ｗ,,株式会社,岐阜県,大垣市,新田町２丁目９１番地１,,21,202,5030856,,,2024-02-22,清算の結了等,,,2015-10-05,1,,,,,,0
953,4400001001374,登記記録の閉鎖等,0,2024-02-27,2024-02-21,株式会社冨士屋,,株式会社,岩手県,盛岡市,上田１丁目２番２５号,,03,201,0200066,,,2024-02-21,清算の結了等,,,2015-10-05,1,,,,,フジヤ,0
974,5010001058354,登記記録の閉鎖等,0,2024-02-27,2024-02-21,ミズホ生化学株式会社,,株式会社,東京都,中央区,銀座４丁目１０番７号早川ビル,,13,102,1040061,,,2024-02-21,清算の結了等,,,2015-10-05,1,,,,,ミズホセイカガク,0
992,5010401057674,登記記録の閉鎖等,0,2024-02-27,2024-02-13,ＢＴＳ株式会社,,株式会社,東京都,港区,南青山１丁目２６番１６号,,13,103,1070062,,,2024-02-13,清算の結了等,,,2015-10-05,1,,,,,,0
997,5010403018848,登記記録の閉鎖等,0,2024-02-27,2024-02-20,ＭＩＬＳＰＲＡＹ合同会社,,合同会社,東京都,港区,赤坂１丁目１４番５号アークヒルズエグゼクティブタワー５０１号室,,13,103,1070052,,,2024-02-20,清算の結了等,,,2018-06-26,1,,,,,ミルスプレイ,0
998,5010403029770,登記記録の閉鎖等,0,2024-02-27,2024-02-20,ネクスト合同会社,,合同会社,東京都,港区,南青山５丁目１７番２号,,13,103,1070062,,,2024-02-20,清算の結了等,,,2023-03-22,1,,,,,ネクスト,0
1013,5011002005568,登記記録の閉鎖等,0,2024-02-27,2024-02-22,有限会社篠原光器製作所,,有限会社,東京都,渋谷区,本町４丁目７番２号,,13,113,1510071,,,2024-02-22,清算の結了等,,,2015-10-05,1,,,,,シノハラコウキセイサクショ,0
1014,5011101050515,登記記録の閉鎖等,0,2024-02-27,2024-02-22,株式会社エンジェルワールド,,株式会社,東京都,新宿区,新宿３丁目１１番１２号,,13,104,1600022,,,2024-02-22,清算の結了等,,,2015-10-05,1,,,,,エンジェルワールド,0
1029,5011601016271,登記記録の閉鎖等,0,2024-02-27,2024-02-16,株式会社ヒロ企画,,株式会社,東京都,練馬区,春日町４丁目３５番２９号,,13,120,1790074,,,2024-02-16,清算の結了等,,,2015-10-05,1,,,,,ヒロキカク,0
1050,5020002075901,登記記録の閉鎖等,0,2024-02-27,2024-02-21,有限会社ＳＴＮ,,有限会社,神奈川県,横浜市戸塚区,上倉田町８８４番地１戸塚ハイライズ７２６号,,14,110,2440816,,,2024-02-21,清算の結了等,,,2015-10-05,1,,,,,エスティエヌ,0
1083,5050003004030,登記記録の閉鎖等,0,2024-02-27,2024-02-21,惣野代合同会社,,合同会社,茨城県,石岡市,東石岡４丁目７番２３号ベルフェリシア１０１,,08,205,3150037,,,2024-02-21,清算の結了等,,,2017-12-21,1,,,,,ソウノダイ,0
1088,5080405006828,登記記録の閉鎖等,0,2024-02-27,2024-02-22,一般社団法人リンクライン,,その他の設立登記法人,静岡県,浜松市中央区,神田町１６６番地の１,,22,138,4328047,,,2024-02-22,清算の結了等,,,2016-01-22,1,,,,,リンクライン,0
1090,5100002015592,登記記録の閉鎖等,0,2024-02-27,2024-02-19,有限会社コスモロック,,有限会社,長野県,上田市,中央２丁目９番２号,,20,203,3860012,,,2024-02-19,清算の結了等,,,2015-10-05,1,,,,,コスモロック,0
1091,5100002031425,登記記録の閉鎖等,0,2024-02-27,2024-02-19,有限会社宗工機,,有限会社,長野県,岡谷市,堀ノ内１丁目１２番１５号,,20,204,3940024,,,2024-02-19,清算の結了等,,,2015-10-05,1,,,,,ムネコウキ,0
1140,5160005009289,登記記録の閉鎖等,0,2024-02-27,2024-02-26,特定非営利活動法人音楽療法の会さざなみ,,その他の設立登記法人,滋賀県,野洲市,久野部１番地の５４,,25,210,5202353,,,2024-02-26,清算の結了等,,,2015-10-05,1,,,,,オンガクリョウホウノカイサザナミ,0
1149,5180302021275,登記記録の閉鎖等,0,2024-02-27,2024-02-19,有限会社アドバンス,,有限会社,愛知県,豊田市,美里２丁目２番地９,,23,211,4710805,,,2024-02-19,清算の結了等,,,2015-10-05,1,,,,,アドバンス,0
1166,5250001012700,登記記録の閉鎖等,0,2024-02-27,2024-02-22,コウチ鐵工株式会社,,株式会社,山口県,熊毛郡田布施町,大字麻郷１８１１番地,,35,343,7421513,,,2024-02-22,清算の結了等,,,2015-10-05,1,,,,,コウチテッコウ,0
1169,5260002028034,登記記録の閉鎖等,0,2024-02-27,2024-02-21,有限会社割烹酔虎,,有限会社,岡山県,津山市,戸川町４０番地の５,,33,203,7080037,,,2024-02-21,清算の結了等,,,2015-10-05,1,,,,,カッポウスイコ,0
1182,5310003004400,登記記録の閉鎖等,0,2024-02-27,2024-02-22,合同会社しま,,合同会社,長崎県,大村市,竹松本町８１４番地６,,42,205,8560805,,,2024-02-22,清算の結了等,,,2022-06-24,1,,,,,シマ,0
1234,6010401150222,登記記録の閉鎖等,0,2024-02-27,2024-02-21,ファイア・Ｅ株式会社,,株式会社,東京都,港区,西新橋３丁目４番８号,,13,103,1050003,,,2024-02-21,清算の結了等,,,2020-01-08,1,,,,,ファイアイー,0
1237,6010403019572,登記記録の閉鎖等,0,2024-02-27,2024-02-21,Ｎａｚｕｎａ　Ｋｙｏｔｏ　Ｈａｎａｍａｃｈｉ合同会社,,合同会社,東京都,港区,虎ノ門５丁目１番４号,,13,103,1050001,,,2024-02-21,清算の結了等,,,2018-10-29,1,,,,,ナズナキョウトハナマチ,0
1244,6010602002560,登記記録の閉鎖等,0,2024-02-27,2024-02-21,有限会社進明堂,,有限会社,東京都,江東区,新大橋３丁目１２番４号,,13,108,1350007,,,2024-02-21,清算の結了等,,,2015-10-05,1,,,,,,0
1245,6010701006132,登記記録の閉鎖等,0,2024-02-27,2024-02-22,株式会社ティ・アイ・ピー,,株式会社,東京都,品川区,東品川１丁目２２番８号,,13,109,1400002,,,2024-02-22,清算の結了等,,,2015-10-05,1,,,,,ティアイピー,0
1249,6010905002209,登記記録の閉鎖等,0,2024-02-27,2024-02-20,特定非営利活動法人日本文化塾,,その他の設立登記法人,東京都,世田谷区,奥沢８丁目２９番１４号,,13,112,1580083,,,2024-02-20,清算の結了等,,,2015-10-05,1,,,,,ニホンブンカジュク,0
1268,6011501024332,登記記録の閉鎖等,0,2024-02-27,2024-02-09,株式会社ラファール,,株式会社,東京都,北区,昭和町３丁目６番１０－３０１号ＴＫビル,,13,117,1140011,,,2024-02-09,清算の結了等,,,2018-12-18,1,,,,,ラファール,0
1272,6011701000397,登記記録の閉鎖等,0,2024-02-27,2024-02-22,株式会社アリス,,株式会社,東京都,江戸川区,東瑞江１丁目２番４号２０１,,13,123,1320014,,,2024-02-22,清算の結了等,,,2015-10-05,1,,,,,アリス,0
1276,6011802009593,登記記録の閉鎖等,0,2024-02-27,2024-02-26,石川マネジメント有限会社,,有限会社,東京都,足立区,足立２丁目７番１１号,,13,121,1200015,,,2024-02-26,清算の結了等,,,2015-10-05,1,,,,,イシカワマネジメント,0
1287,6020001124690,登記記録の閉鎖等,0,2024-02-27,2024-02-22,Ｓｔｙｌｉｎｇ　Ｈｏｍｅ株式会社,,株式会社,神奈川県,横浜市旭区,上白根町１０５９番地１,,14,112,2410001,,,2024-02-22,清算の結了等,,,2018-01-19,1,,,,,,0
1288,6020001126828,登記記録の閉鎖等,0,2024-02-27,2024-02-20,株式会社Ｖ・Ａ・Ｙ総合研究所,,株式会社,神奈川県,横浜市栄区,本郷台５丁目１０番１０号,,14,115,2470008,,,2024-02-20,清算の結了等,,,2018-06-19,1,,,,,ブイエイワイソウゴウケンキュウショ,0
1295,6020002050325,登記記録の閉鎖等,0,2024-02-27,2024-02-22,有限会社南信設計,,有限会社,神奈川県,横浜市瀬谷区,阿久和東４丁目２９番地１０,,14,114,2460023,,,2024-02-22,清算の結了等,,,2015-10-05,1,,,,,ナンシンセッケイ,0
1297,6020002094644,登記記録の閉鎖等,0,2024-02-27,2024-02-20,有限会社第二電工,,有限会社,神奈川県,川崎市麻生区,下麻生１丁目６番２３－２０２号,,14,137,2150022,,,2024-02-20,清算の結了等,,,2015-10-05,1,,,,,ダイニデンコウ,0
1313,6030002009634,登記記録の閉鎖等,0,2024-02-27,2024-02-22,有限会社東鍼堂,,有限会社,埼玉県,さいたま市中央区,下落合３丁目１７番６号,,11,105,3380002,,,2024-02-22,清算の結了等,,,2015-10-05,1,,,,,トウシンドウ,0
1347,6120001037131,登記記録の閉鎖等,0,2024-02-27,2024-02-21,株式会社旭物産,,株式会社,大阪府,大阪市浪速区,敷津西１丁目１番１６号,,27,111,5560015,,,2024-02-21,清算の結了等,,,2015-10-05,1,,,,,アサヒブッサン,0
1350,6120001130456,登記記録の閉鎖等,0,2024-02-27,2024-02-26,株式会社タクタイル,,株式会社,大阪府,岸和田市,沼町７番９号,,27,202,5960053,,,2024-02-26,清算の結了等,,,2015-10-05,1,,,,,タクタイル,0
1352,6120001166038,登記記録の閉鎖等,0,2024-02-27,2024-02-22,アミカル株式会社,,株式会社,大阪府,大阪市都島区,都島本通３丁目１６番２０号,,27,102,5340021,,,2024-02-22,清算の結了等,,,2015-10-05,1,,,,,アミカル,0
1404,6240001040882,登記記録の閉鎖等,0,2024-02-27,2024-02-14,株式会社ＴＳＵＭＡＫＩ,,株式会社,広島県,広島市東区,牛田早稲田１丁目５番１１号１Ｆ,,34,102,7320062,,,2024-02-14,清算の結了等,,,2015-10-05,1,,,,,ツマキ,0
1424,6300002011075,登記記録の閉鎖等,0,2024-02-27,2024-02-21,有限会社新屋,,有限会社,佐賀県,唐津市,呼子町殿ノ浦１６３０番地第１イ,,41,202,8470304,,,2024-02-21,清算の結了等,,,2022-03-01,1,,,,,,0
1439,6360001030252,登記記録の閉鎖等,0,2024-02-27,2024-02-20,株式会社久高商事,,株式会社,沖縄県,那覇市,三原２丁目２７番２７号ライオンズマンション５０６,,47,201,9020063,,,2024-02-20,清算の結了等,,,2022-04-18,1,,,,,クダカショウジ,0
1443,6370005009110,登記記録の閉鎖等,0,2024-02-27,2024-02-26,一般社団法人企業データ解析ラボ,,その他の設立登記法人,宮城県,仙台市太白区,茂庭台４丁目３番８－８０７,,04,104,9820252,,,2024-02-26,清算の結了等,,,2016-11-22,1,,,,,キギョウデータカイセキラボ,0
1447,6390002008765,登記記録の閉鎖等,0,2024-02-27,2024-02-22,有限会社エース保険事務所,,有限会社,山形県,酒田市,広野字上通９１番地,,06,204,9980125,,,2024-02-22,清算の結了等,,,2015-10-05,1,,,,,エースホケンジムショ,0
1455,6450002001425,登記記録の閉鎖等,0,2024-02-27,2024-02-26,有限会社加助,,有限会社,北海道,旭川市,大雪通６丁目５００番地,,01,204,0700010,,,2024-02-26,清算の結了等,,,2015-10-05,1,,,,,カスケ,0
1475,7010001206308,登記記録の閉鎖等,0,2024-02-27,2024-02-21,シーエス・サービシズ・ジャパン株式会社,,株式会社,東京都,中央区,京橋１丁目１番５号セントラルビル２階,,13,102,1040031,,,2024-02-21,清算の結了等,,,2019-12-24,1,,,,,シーエスサービシズジャパン,0
1479,7010002002375,登記記録の閉鎖等,0,2024-02-27,2024-02-19,有限会社小能商事,,有限会社,東京都,文京区,湯島３丁目３３番９号,,13,105,1130034,,,2024-02-19,清算の結了等,,,2015-10-05,1,,,,,コノウショウジ,0
1481,7010003016622,登記記録の閉鎖等,0,2024-02-27,2024-02-16,エヌビービーハウフィンチ合同会社,,合同会社,東京都,中央区,日本橋浜町３丁目３番２号,,13,102,1030007,,,2024-02-16,清算の結了等,,,2015-10-05,1,,,,,エヌビービーハウフィンチ,0
1494,7010401145188,登記記録の閉鎖等,0,2024-02-27,2024-02-26,株式会社プレミアムコスメ,,株式会社,東京都,港区,赤坂４丁目１５番１号,,13,103,1070052,,,2024-02-26,清算の結了等,,,2019-04-25,1,,,,,プレミアムコスメ,0
1498,7010403012881,登記記録の閉鎖等,0,2024-02-27,2024-02-22,合同会社Ｇｒｏｗｔｈ,,合同会社,東京都,港区,浜松町２丁目２番１５号浜松町ダイヤビル２Ｆ,,13,103,1050013,,,2024-02-22,清算の結了等,,,2015-10-05,1,,,,,グロウス,0
1501,7010601057596,登記記録の閉鎖等,0,2024-02-27,2024-02-22,株式会社Ｏ２　ＬＩＦＥ,,株式会社,東京都,新宿区,北新宿２丁目１０－３三和マンション２０３,,13,104,1690074,,,2024-02-22,清算の結了等,,,2020-07-02,1,,,,,オーツーライフ,0
1512,7011001027594,登記記録の閉鎖等,0,2024-02-27,2024-02-26,株式会社ガウディ,,株式会社,東京都,渋谷区,神宮前４丁目２８番１８号－２階,,13,113,1500001,,,2024-02-26,清算の結了等,,,2015-10-05,1,,,,,ガウディ,0
1526,7011103012825,登記記録の閉鎖等,0,2024-02-27,2024-02-26,合同会社カリウド,,合同会社,東京都,新宿区,新宿１丁目３６－２新宿第七葉山ビル３Ｆ,,13,104,1600022,,,2024-02-26,清算の結了等,,,2023-03-22,1,,,,,カリウド,0
1533,7011702007341,登記記録の閉鎖等,0,2024-02-27,2024-02-22,有限会社谷工業所,,有限会社,東京都,江戸川区,松江７丁目１番１７号,,13,123,1320025,,,2024-02-22,清算の結了等,,,2015-10-05,1,,,,,タニコウギョウショ,0
1538,7012401017433,登記記録の閉鎖等,0,2024-02-27,2024-02-20,アソシエイトリース株式会社,,株式会社,東京都,府中市,晴見町２丁目２４番１,,13,206,1830057,,,2024-02-20,清算の結了等,,,2015-10-05,1,,,,,アソシエイトリース,0
1562,7030001115242,登記記録の閉鎖等,0,2024-02-27,2024-02-21,株式会社ｋｉｓａｒａ,,株式会社,埼玉県,川口市,西青木２丁目２番２８号ブルーコート５０３号,,11,203,3320035,,,2024-02-21,清算の結了等,,,2016-07-06,1,,,,,,0
1569,7030005021387,登記記録の閉鎖等,0,2024-02-27,2024-02-22,財団法人行田市開発協会,,その他の設立登記法人,埼玉県,行田市,本丸２番５号,,11,206,3610052,,,2024-02-22,登記官による閉鎖,,,2023-09-25,1,,,,,,0
1571,7040001023535,登記記録の閉鎖等,0,2024-02-27,2024-02-21,株式会社のうすい,,株式会社,千葉県,船橋市,夏見台３丁目１２番２５号,,12,204,2730866,,,2024-02-21,清算の結了等,,,2015-10-05,1,,,,,ノウスイ,0
1607,7120003006208,登記記録の閉鎖等,0,2024-02-27,2024-02-22,合同会社Ｈ．Ｋ．Ｋ１,,合同会社,大阪府,大阪市福島区,福島２丁目９番１号,,27,103,5530003,,,2024-02-22,清算の結了等,,,2015-10-05,1,,,,,エイチケーケーワン,0
1609,7120101064999,登記記録の閉鎖等,0,2024-02-27,2024-02-26,株式会社アント,,株式会社,大阪府,堺市西区,浜寺石津町西４丁２７番１３号,,27,144,5928333,,,2024-02-26,清算の結了等,,,2022-01-26,1,,,,,アント,0
1621,7140001000276,登記記録の閉鎖等,0,2024-02-27,2024-02-22,菊屋株式会社,,株式会社,兵庫県,西宮市,神楽町９番７号,,28,204,6620977,,,2024-02-22,清算の結了等,,,2015-10-05,1,,,,,キクヤ,0
1626,7140001121592,登記記録の閉鎖等,0,2024-02-27,2024-02-20,株式会社ガチカンパニー,,株式会社,兵庫県,神戸市中央区,北長狭通６丁目２番１５号,,28,110,6500012,,,2024-02-20,清算の結了等,,,2021-05-19,1,,,,,ガチカンパニー,0
1648,7200001007661,登記記録の閉鎖等,0,2024-02-27,2024-02-22,和田屋株式会社,,株式会社,岐阜県,各務原市,三井北町１丁目３４０番地,,21,213,5040956,,,2024-02-22,清算の結了等,,,2015-10-05,1,,,,,ワダヤ,0
1659,7240002038339,登記記録の閉鎖等,0,2024-02-27,2024-02-22,有限会社デベロプメントサービス,,有限会社,広島県,廿日市市,木材港北１２番１７号,,34,213,7380021,,,2024-02-22,清算の結了等,,,2015-10-05,1,,,,,デベロプメントサービス,0
1665,7260002034154,登記記録の閉鎖等,0,2024-02-27,2024-02-22,有限会社つむら薬局,,有限会社,岡山県,真庭市,下呰部４５１番地１,,33,214,7161433,,,2024-02-22,清算の結了等,,,2015-10-05,1,,,,,ツムラヤッキョク,0
1699,7460302001164,登記記録の閉鎖等,0,2024-02-27,2024-02-26,有限会社ぱぐ,,有限会社,北海道,北見市,高栄東町３丁目２５番１７号,,01,208,0900051,,,2024-02-26,清算の結了等,,,2015-10-05,1,,,,,パグ,0
1703,8010001012754,登記記録の閉鎖等,0,2024-02-27,2024-02-21,株式会社エル・エム・エス,,株式会社,東京都,文京区,本郷３丁目６番７号,,13,105,1130033,,,2024-02-21,清算の結了等,,,2015-10-05,1,,,,,エルエムエス,0
1709,8010001207437,登記記録の閉鎖等,0,2024-02-27,2024-02-20,ＪＩＮＣＯ　ＮＩＰＰＯＮ株式会社,,株式会社,東京都,中央区,銀座６丁目６番１号,,13,102,1040061,,,2024-02-20,清算の結了等,,,2020-02-13,1,,,,,ジンコニッポン,0
1716,8010003016621,登記記録の閉鎖等,0,2024-02-27,2024-02-16,エヌビービータイジィチュエンリース合同会社,,合同会社,東京都,中央区,日本橋浜町３丁目３番２号,,13,102,1030007,,,2024-02-16,清算の結了等,,,2015-10-05,1,,,,,エヌビービータイジィチュエンリース,0
1725,8010501010654,登記記録の閉鎖等,0,2024-02-27,2024-02-22,原田電機株式会社,,株式会社,東京都,練馬区,大泉学園町６丁目２６番８号,,13,120,1780061,,,2024-02-22,清算の結了等,,,2015-10-05,1,,,,,ハラダデンキ,0
1729,8010601041681,登記記録の閉鎖等,0,2024-02-27,2024-02-22,株式会社エムズコネクト,,株式会社,神奈川県,横浜市磯子区,峰町２２７－２,,14,107,2350044,,,2024-02-22,清算の結了等,,,2015-10-05,1,,,,,エムズコネクト,0
1745,8011005003302,登記記録の閉鎖等,0,2024-02-27,2024-02-15,特定非営利活動法人ｅ－ｍｙｏｋｏ,,その他の設立登記法人,東京都,渋谷区,東１丁目２６番２０号新東産業（株）内,00128562,13,113,1500011,,,2024-02-15,清算の結了等,,,2015-10-05,1,,,,,イーミョーコー,0
1751,8011102010184,登記記録の閉鎖等,0,2024-02-27,2024-02-20,有限会社間設計工房,,有限会社,東京都,杉並区,天沼３丁目１６番８号,,13,115,1670032,,,2024-02-20,清算の結了等,,,2015-10-05,1,,,,,カンセッケイコウボウ,0
1758,8011502003127,登記記録の閉鎖等,0,2024-02-27,2024-02-15,有限会社菅原商亊,,有限会社,東京都,北区,滝野川６丁目８４番８号,,13,117,1140023,,,2024-02-15,清算の結了等,,,2015-10-05,1,,,,,スガワラショウジ,0
1765,8013201016582,登記記録の閉鎖等,0,2024-02-27,2024-02-15,株式会社ＢＬＡＶＡＳ,,株式会社,東京都,目黒区,上目黒２丁目１９番２７号,,13,110,1530051,,,2024-02-15,清算の結了等,,,2015-10-05,1,,,,,ブラバス,0
1767,8020001087845,登記記録の閉鎖等,0,2024-02-27,2024-02-21,株式会社壹貴,,株式会社,神奈川県,横浜市青葉区,榎が丘１３番地３アグリヒル青葉台４０５,,14,117,2270063,,,2024-02-21,清算の結了等,,,2015-10-05,1,,,,,,0
1779,8020002053714,登記記録の閉鎖等,0,2024-02-27,2024-02-22,有限会社ゆうぜん,,有限会社,神奈川県,横浜市西区,北幸２丁目１１番４７－１００６号,,14,103,2200004,,,2024-02-22,清算の結了等,,,2015-10-05,1,,,,,ユウゼン,0
1783,8020005015488,登記記録の閉鎖等,0,2024-02-27,2024-02-26,弁理士法人シンシア・レター,,その他の設立登記法人,神奈川県,横浜市西区,北幸１丁目１１番１号,,14,103,2200004,,,2024-02-26,清算の結了等,,,2022-04-15,1,,,,,シンシアレター,0
1801,8050005009801,登記記録の閉鎖等,0,2024-02-27,2024-02-19,特定非営利活動法人　明日のみずき野を考える会,,その他の設立登記法人,茨城県,守谷市,みずき野１丁目１３番地５,,08,224,3020121,,,2024-02-19,清算の結了等,,,2015-10-05,1,,,,,アスノミズキノヲカンガエルカイ,0
1831,8130002033102,登記記録の閉鎖等,0,2024-02-27,2024-02-22,有限会社福知山フレッシュフーズ,,有限会社,京都府,福知山市,問屋町６３番地の１,,26,201,6200057,,,2024-02-22,清算の結了等,,,2015-10-05,1,,,,,フクチヤマフレッシュフーズ,0
1832,8140001016668,登記記録の閉鎖等,0,2024-02-27,2024-02-20,株式会社畑中電気商会,,株式会社,兵庫県,神戸市長田区,庄山町２丁目２番１２号,,28,106,6530853,,,2024-02-20,清算の結了等,,,2015-10-05,1,,,,,ハタナカデンキショウカイ,0
1854,8180302018046,登記記録の閉鎖等,0,2024-02-27,2024-02-19,有限会社太田建商,,有限会社,愛知県,刈谷市,小垣江町本郷下１７番地２,,23,210,4480813,,,2024-02-19,清算の結了等,,,2015-10-05,1,,,,,オオタケンショウ,0
1856,8200002005589,登記記録の閉鎖等,0,2024-02-27,2024-02-26,有限会社縫製工場たんぽぽ,,有限会社,岐阜県,岐阜市,又丸町畑３３番地７,,21,201,5011153,,,2024-02-26,清算の結了等,,,2015-10-05,1,,,,,ホウセイコウジョウタンポポ,0
1860,8200005012566,登記記録の閉鎖等,0,2024-02-27,2024-01-31,一般社団法人マーケティングラポート協会,,その他の設立登記法人,岐阜県,岐阜市,加納菱野町２４番地,,21,201,5008479,,,2024-01-31,清算の結了等,,,2016-11-28,1,,,,,マーケティングラポートキョウカイ,0
1861,8220001001249,登記記録の閉鎖等,0,2024-02-27,2024-02-22,株式会社ウイングゆき山,,株式会社,東京都,新宿区,新宿５丁目１番１号ローヤルマンションビル２０３,,13,104,1600022,,,2024-02-22,清算の結了等,,,2015-10-05,1,,,,,ウイングユキヤマ,0
1872,8260001034781,登記記録の閉鎖等,0,2024-02-27,2024-02-21,株式会社スターシリウス,,株式会社,岡山県,津山市,高野山西２１１５番地１３,,33,203,7081124,,,2024-02-21,清算の結了等,,,2020-10-07,1,,,,,スターシリウス,0
1873,8260002028147,登記記録の閉鎖等,0,2024-02-27,2024-02-22,有限会社共榮薬品,,有限会社,岡山県,津山市,山北６２２番地の３,,33,203,7080004,,,2024-02-22,清算の結了等,,,2015-10-05,1,,,,,キョウエイヤクヒン,0
1878,8290002052598,登記記録の閉鎖等,0,2024-02-27,2024-02-26,有限会社オフィス・ドゥ,,有限会社,福岡県,久留米市,北野町中２６０７番地２０,,40,203,8301113,,,2024-02-26,清算の結了等,,,2015-10-05,1,,,,,オフィスドゥ,0
1900,8460003000051,登記記録の閉鎖等,0,2024-02-27,2024-02-22,ＰＪＤ９４６合資会社,,合資会社,北海道,釧路市,桜ケ岡６丁目９番１６号,,01,206,0850805,,,2024-02-22,清算の結了等,,,2015-10-05,1,,,,,ピージェイディークシロ,0
1903,8500001013001,登記記録の閉鎖等,0,2024-02-27,2024-02-26,澤田青果株式会社,,株式会社,愛媛県,越智郡上島町,岩城３７９５番地,,38,356,7942410,,,2024-02-26,清算の結了等,,,2015-10-05,1,,,,,サワダセイカ,0
1917,9010003016612,登記記録の閉鎖等,0,2024-02-27,2024-02-16,エヌビービーチャンチュエンリース合同会社,,合同会社,東京都,中央区,日本橋浜町３丁目３番２号,,13,102,1030007,,,2024-02-16,清算の結了等,,,2015-10-05,1,,,,,エヌビービーチャンチュエンリース,0
1918,9010003016620,登記記録の閉鎖等,0,2024-02-27,2024-02-16,エヌビービーナンチュエンリース合同会社,,合同会社,東京都,中央区,日本橋浜町３丁目３番２号,,13,102,1030007,,,2024-02-16,清算の結了等,,,2015-10-05,1,,,,,エヌビービーナンチュエンリース,0
1927,9010502005223,登記記録の閉鎖等,0,2024-02-27,2024-02-21,有限会社白樺,,有限会社,東京都,台東区,上野２丁目６番５号,,13,106,1100005,,,2024-02-21,清算の結了等,,,2015-10-05,1,,,,,シラカバ,0
1930,9010701035616,登記記録の閉鎖等,0,2024-02-27,2024-02-22,株式会社ファインディックスソリューション,,株式会社,東京都,品川区,東五反田３丁目１番６号,,13,109,1410022,,,2024-02-22,清算の結了等,,,2018-04-06,1,,,,,ファインディックスソリューション,0
1932,9010703006326,登記記録の閉鎖等,0,2024-02-27,2024-02-20,青葉ホールディングス合同会社,,合同会社,東京都,文京区,本駒込２丁目８番１０号,,13,105,1130021,,,2024-02-20,清算の結了等,,,2022-07-19,1,,,,,アオバホールディングス,0
1948,9011003011306,登記記録の閉鎖等,0,2024-02-27,2024-02-21,デベロップキャピタル合同会社,,合同会社,東京都,豊島区,池袋２丁目７５番１号,,13,116,1710014,,,2024-02-21,清算の結了等,,,2020-06-17,1,,,,,デベロップキャピタル,0
1980,9012703001521,登記記録の閉鎖等,0,2024-02-27,2024-02-15,合同会社斑鳩堂,,合同会社,東京都,西東京市,北町１丁目６番２０号,,13,229,2020003,,,2024-02-15,清算の結了等,,,2017-10-13,1,,,,,ハンキュウドウ,0
2031,9080002014511,登記記録の閉鎖等,0,2024-02-27,2024-02-21,有限会社アオイリース,,有限会社,静岡県,榛原郡吉田町,川尻６０３番地の１,,22,424,4210302,,,2024-02-21,清算の結了等,,,2015-10-05,1,,,,,アオイリース,0
2046,9120001218380,登記記録の閉鎖等,0,2024-02-27,2024-02-21,株式会社リセオ,,株式会社,大阪府,大阪市東住吉区,南田辺１丁目９番２３号,,27,121,5460033,,,2024-02-21,清算の結了等,,,2019-01-17,1,,,,,リセオ,0
2064,9122001031202,登記記録の閉鎖等,0,2024-02-27,2024-02-26,株式会社龍華建工,,株式会社,大阪府,八尾市,龍華町１丁目４番１－２８１５号,,27,212,5810069,,,2024-02-26,清算の結了等,,,2017-12-19,1,,,,,リュウゲケンコウ,0
2073,9140001046945,登記記録の閉鎖等,0,2024-02-27,2024-02-20,株式会社昭和工務店,,株式会社,兵庫県,朝来市,新井７１２番地の７,,28,225,6793431,,,2024-02-20,清算の結了等,,,2015-10-05,1,,,,,ショウワコウムテン,0
2086,9150001003004,登記記録の閉鎖等,0,2024-02-27,2024-02-26,光写真製版株式会社,,株式会社,奈良県,奈良市,鳥見町３丁目２０番地の１４,,29,201,6310065,,,2024-02-26,清算の結了等,,,2015-10-05,1,,,,,,0
2104,9200002019101,登記記録の閉鎖等,0,2024-02-27,2024-02-22,有限会社プリンスガレージ,,有限会社,岐阜県,美濃市,２４８５番地の１,,21,207,5013701,,,2024-02-22,清算の結了等,,,2015-10-05,1,,,,,プリンスガレージ,0
2116,9250001010543,登記記録の閉鎖等,0,2024-02-27,2024-02-22,株式会社サンクス・アイ,,株式会社,山口県,下松市,大字切山２３３番地５,,35,207,7440042,,,2024-02-22,清算の結了等,,,2015-10-05,1,,,,,サンクスアイ,0
2117,9250002004973,登記記録の閉鎖等,0,2024-02-27,2024-02-26,有限会社すみれ産業・ひら岡手芸,,有限会社,山口県,宇部市,文京町７番４０－１号,,35,202,7550056,,,2024-02-26,清算の結了等,,,2015-10-05,1,,,,,スミレサンギョウヒラオカシュゲイ,0
2120,9260002018527,登記記録の閉鎖等,0,2024-02-27,2024-02-20,三友運送有限会社,,有限会社,岡山県,倉敷市,菰池３丁目５番５８号,,33,202,7110932,,,2024-02-20,清算の結了等,,,2015-10-05,1,,,,,サンユウウンソウ,0
2134,9330002020673,登記記録の閉鎖等,0,2024-02-27,2024-02-22,有限会社平成建設,,有限会社,熊本県,上益城郡山都町,馬見原８２０番地の１２,,43,447,8613901,,,2024-02-22,清算の結了等,,,2015-10-05,1,,,,,ヘイセイケンセツ,0
2153,9400001004554,登記記録の閉鎖等,0,2024-02-27,2024-02-22,株式会社大樹,,株式会社,岩手県,盛岡市,南大通１丁目１６番１６号,,03,201,0200874,,,2024-02-22,清算の結了等,,,2015-10-05,1,,,,,タイキ,0
