sequenceNumber,corporateNumber,process,correct,updateDate,changeDate,name,nameImageId,kind,prefectureName,cityName,streetNumber,addressImageId,prefectureCode,cityCode,postCode,addressOutside,addressOutsideImageId,closeDate,closeCause,successorCorporateNumber,changeCause,assignmentDate,latest,enName,enPrefectureName,enCityName,enAddressOutside,furigana,hihyoji
2,1010001118839,登記記録の閉鎖等,0,2022-04-18,2022-04-12,株式会社ティーズインターナショナル,,株式会社,東京都,世田谷区,赤堤１丁目１２番１２号,,13,112,1560044,,,2022-04-12,清算の結了等,,,2015-10-05,1,,,,,ティーズインターナショナル,0
9,1010003030835,登記記録の閉鎖等,0,2022-04-18,2022-04-05,合同会社エス・ケー・ビー宮崎台,,合同会社,東京都,中央区,日本橋１丁目４番１号,,13,102,1030027,,,2022-04-05,清算の結了等,,,2019-10-08,1,,,,,エスケービーミヤザキダイ,0
11,1010005006734,登記記録の閉鎖等,0,2022-04-18,2022-04-12,特定非営利活動法人コミュニティ支援センター,,その他の設立登記法人,東京都,中央区,日本橋本町４丁目４番１６号,,13,102,1030023,,,2022-04-12,清算の結了等,,,2015-10-05,1,,,,,コミュニティシエンセンター,0
21,1010401133867,登記記録の閉鎖等,0,2022-04-18,2022-04-04,株式会社フェリーチェコンサルティング,,株式会社,東京都,港区,芝浦４丁目１９番１－２４１３号,,13,103,1080023,,,2022-04-04,清算の結了等,,,2017-09-27,1,,,,,フェリーチェコンサルティング,0
44,1010901024855,登記記録の閉鎖等,0,2022-04-18,2022-04-12,株式会社トヌ・コアヘアークリエーション,,株式会社,東京都,世田谷区,北沢２丁目１２番１０号１Ｆ,,13,112,1550031,,,2022-04-12,清算の結了等,,,2015-10-05,1,,,,,トヌコアヘアークリエーション,0
91,1020005010000,登記記録の閉鎖等,0,2022-04-18,2022-04-05,一般財団法人日本そうじ協会,,その他の設立登記法人,神奈川県,横浜市泉区,弥生台５１番地９ＮＫビル２階,,14,116,2450008,,,2022-04-05,清算の結了等,,,2015-10-05,1,,,,,ニホンソウジキョウカイ,0
105,1030002028548,登記記録の閉鎖等,0,2022-04-18,2022-04-12,有限会社オーエムエス,,有限会社,埼玉県,所沢市,けやき台１丁目３２番地の１３,,11,208,3591118,,,2022-04-12,清算の結了等,,,2015-10-05,1,,,,,オーエムエス,0
123,1040001122219,登記記録の閉鎖等,0,2022-04-18,2022-04-07,株式会社片岡,,株式会社,千葉県,長生郡一宮町,一宮２５１８番地,,12,421,2994301,,,2022-04-07,合併による解散等,1040001082454,令和４年３月２４日千葉県長生郡一宮町一宮２５１８番地ＫＫホールディングス株式会社（1040001082454）に合併し解散,2022-02-15,1,,,,,カタオカ,0
127,1040002033051,登記記録の閉鎖等,0,2022-04-18,2022-04-06,有限会社及川プラスチツク,,有限会社,千葉県,市川市,広尾１丁目９番８号,,12,203,2720146,,,2022-04-06,清算の結了等,,,2015-10-05,1,,,,,,0
143,1050002003417,登記記録の閉鎖等,0,2022-04-18,2022-04-12,有限会社ゆぴてる,,有限会社,茨城県,水戸市,見和２丁目２５１番地の２,,08,201,3100911,,,2022-04-12,清算の結了等,,,2015-10-05,1,,,,,ユピテル,0
144,1050005007126,登記記録の閉鎖等,0,2022-04-18,2022-04-08,日立銀座中央商店街振興組合,,その他の設立登記法人,茨城県,日立市,弁天町１丁目１０番２号,,08,202,3170072,,,2022-04-08,清算の結了等,,,2015-10-05,1,,,,,ヒタチギンザチュウオウショウテンガイ,0
157,1080105002767,登記記録の閉鎖等,0,2022-04-18,2022-04-01,富士市農業協同組合,,その他の設立登記法人,静岡県,富士市,青島２００番地の１,,22,210,4170046,,,2022-04-01,合併による解散等,5080105000008,令和４年４月１日静岡県沼津市下香貫字上障子４１５番地の１富士伊豆農業協同組合（5080105000008）に合併し解散,2015-10-05,1,,,,,フジシ,0
163,1090001000832,登記記録の閉鎖等,0,2022-04-18,2022-04-06,株式会社ＭＦＰ古守,,株式会社,山梨県,甲府市,落合町８１７番地,,19,201,4000834,,,2022-04-06,合併による解散等,7010801013366,令和４年４月１日山梨県甲府市落合町８１７番地株式会社エム・エフ・ピー（7010801013366）に合併し解散,2015-10-05,1,,,,,エムエフピーコモリ,0
164,1090002009617,登記記録の閉鎖等,0,2022-04-18,2022-04-13,有限会社梶原工業,,有限会社,山梨県,上野原市,鶴島１２６６番地,,19,212,4090114,,,2022-04-13,清算の結了等,,,2015-10-05,1,,,,,カジワラコウギョウ,0
165,1100002026189,登記記録の閉鎖等,0,2022-04-18,2022-04-01,有限会社西和,,有限会社,長野県,北安曇郡白馬村,大字神城１７３０７番地１,,20,485,3999211,,,2022-04-01,合併による解散等,3100001017690,令和４年４月１日長野県大町市大町４４２６番地株式会社カサマ（3100001017690）に合併し解散,2015-10-05,1,,,,,セイワ,0
166,1110001012569,登記記録の閉鎖等,0,2022-04-18,2022-04-01,株式会社グリーンエースシバタ,,株式会社,新潟県,新発田市,中曽根７７０番地,,15,206,9570000,,,2022-04-01,合併による解散等,6110001003976,令和４年４月１日新潟市江南区茗荷谷７１１番地新潟中央青果株式会社（6110001003976）に合併し解散,2015-10-05,1,,,,,グリーンエースシバタ,0
172,1120001156869,登記記録の閉鎖等,0,2022-04-18,2022-04-07,株式会社八雲鋼材,,株式会社,大阪府,守口市,佐太中町２丁目５番８号,,27,209,5700002,,,2022-04-07,清算の結了等,,,2015-10-05,1,,,,,ヤグモコウザイ,0
192,1130001048520,登記記録の閉鎖等,0,2022-04-18,2022-04-11,株式会社プロジェクト・ケイ,,株式会社,京都府,京都市南区,上鳥羽高畠町２５番地－７０８号,,26,107,6018101,,,2022-04-11,清算の結了等,,,2015-10-05,1,,,,,プロジェクトケイ,0
198,1140001067734,登記記録の閉鎖等,0,2022-04-18,2022-04-15,ベストプラント株式会社,,株式会社,兵庫県,神戸市中央区,多聞通２丁目１番７号法友会館,,28,110,6500015,,,2022-04-15,清算の結了等,,,2015-10-05,1,,,,,ベストプラント,0
203,1140002001130,登記記録の閉鎖等,0,2022-04-18,2022-04-08,有限会社イプス,,有限会社,兵庫県,神戸市中央区,山本通４丁目２２番６－３０３号,,28,110,6500003,,,2022-04-08,清算の結了等,,,2015-10-05,1,,,,,イプス,0
207,1140002061182,登記記録の閉鎖等,0,2022-04-18,2022-04-11,有限会社田尻アルミ装備,,有限会社,兵庫県,加東市,森６８４番地の３,,28,228,6731322,,,2022-04-11,清算の結了等,,,2015-10-05,1,,,,,タジリアルミソウビ,0
213,1150005002174,登記記録の閉鎖等,0,2022-04-18,2022-04-04,国立大学法人奈良教育大学,,その他の設立登記法人,奈良県,奈良市,高畑町,,29,201,6308301,,,2022-04-04,清算の結了等,,,2015-10-05,1,,,,,,0
219,1170005005373,登記記録の閉鎖等,0,2022-04-18,2022-03-30,天理教紀誠分教会,,その他の設立登記法人,和歌山県,東牟婁郡北山村,大字大沼１５５番地,,30,427,6471603,,,2022-03-30,合併による解散等,6170005005518,令和４年３月３０日和歌山県東牟婁郡那智勝浦町大字勝浦８７２番地の８、８７２番地の１５天理教紀東分教会（6170005005518）に合併し解散,2015-10-05,1,,,,,テンリキョウキセイブンキョウカイ,0
220,1180001022495,登記記録の閉鎖等,0,2022-04-18,2022-04-01,名古屋トヨペット株式会社,,株式会社,愛知県,名古屋市熱田区,尾頭町２番２２号,,23,109,4560017,,,2022-04-01,合併による解散等,6180001090513,令和４年４月１日名古屋市熱田区尾頭町２番２２号ＮＴＰホールディングス株式会社（6180001090513）に合併し解散,2015-10-05,1,,,,,ナゴヤトヨペット,0
229,1180002076482,登記記録の閉鎖等,0,2022-04-18,2022-04-07,有限会社さわいナレッジラボラトリ,,有限会社,愛知県,一宮市,文京２丁目８番２０号,,23,203,4910041,,,2022-04-07,清算の結了等,,,2015-10-05,1,,,,,サワイナレッジラボラトリ,0
240,1200001026378,登記記録の閉鎖等,0,2022-04-18,2022-04-15,株式会社郡八電気通信,,株式会社,岐阜県,郡上市,八幡町稲成９７番地の２,,21,219,5014223,,,2022-04-15,清算の結了等,,,2015-10-05,1,,,,,,0
260,1250002015689,登記記録の閉鎖等,0,2022-04-18,2022-04-11,有限会社コウセイ,,有限会社,山口県,下松市,大字東豊井１１７９番地３４,,35,207,7440002,,,2022-04-11,清算の結了等,,,2015-10-05,1,,,,,コウセイ,0
266,1290001029422,登記記録の閉鎖等,0,2022-04-18,2022-04-07,エムイーシステム株式会社,,株式会社,福岡県,福岡市東区,多の津１丁目１１番８号,,40,131,8130034,,,2022-04-07,清算の結了等,,,2015-10-05,1,,,,,エムイーシステム,0
281,1320001015344,登記記録の閉鎖等,0,2022-04-18,2022-04-11,株式会社ＨＫＴソリューション,,株式会社,大分県,大分市,東鶴崎３丁目１番１号,,44,201,8700103,,,2022-04-11,清算の結了等,,,2016-12-16,1,,,,,エイチケイティーソリューション,0
296,1380001019034,登記記録の閉鎖等,0,2022-04-18,2022-04-13,東鳳マネジメント株式会社,,株式会社,福島県,会津若松市,東山町大字石山字院内７０６番地,,07,202,9650813,,,2022-04-13,合併による解散等,5010401037412,令和４年４月１日東京都港区浜松町二丁目３番１号オリックス不動産株式会社（5010401037412）に合併し解散,2015-10-05,1,,,,,トウホウマネジメント,0
300,1380005000832,登記記録の閉鎖等,0,2022-04-18,2022-03-16,天理教南福島分教会,,その他の設立登記法人,福島県,福島市,黒岩字遠沖１０番地の２１,,07,201,9608153,,,2022-03-16,合併による解散等,8380005004141,令和４年３月１６日福島県二本松市若宮一丁目８６番地天理教安達分教会（8380005004141）に合併し解散,2015-10-05,1,,,,,テンリキョウミナミフクシマブンキョウカイ,0
303,1420002007512,登記記録の閉鎖等,0,2022-04-18,2022-04-14,有限会社世界鷹,,有限会社,青森県,八戸市,根城７丁目１３番１１号,,02,203,0391166,,,2022-04-14,清算の結了等,,,2015-10-05,1,,,,,セカイタカ,0
311,1430005001973,登記記録の閉鎖等,0,2022-04-18,2022-04-06,医療法人社団日吉会そねざき内科小児科医院,,その他の設立登記法人,北海道,札幌市白石区,北郷三条７丁目１番１５号,,01,104,0030833,,,2022-04-06,清算の結了等,,,2015-10-05,1,,,,,ヒヨシカイソネザキナイカショウニカイイン,0
312,1450001002800,登記記録の閉鎖等,0,2022-04-18,2022-04-15,本間繊維株式会社,,株式会社,北海道,旭川市,豊岡五条３丁目１０番４号,,01,204,0788235,,,2022-04-15,清算の結了等,,,2015-10-05,1,,,,,ホンマセンイ,0
328,2010001104012,登記記録の閉鎖等,0,2022-04-18,2022-04-04,株式会社ユニバーサルビュー,,株式会社,東京都,文京区,本郷２丁目４０番７号,,13,105,1130033,,,2022-04-04,合併による解散等,7010001003408,令和４年３月３１日東京都文京区本郷二丁目４０番２号株式会社シード（7010001003408）に合併し解散,2015-10-05,1,,,,,ユニバーサルビュー,0
344,2010003030966,登記記録の閉鎖等,0,2022-04-18,2022-04-05,合同会社エス・ケー・ビーももち,,合同会社,東京都,中央区,日本橋１丁目４番１号,,13,102,1030027,,,2022-04-05,清算の結了等,,,2019-11-01,1,,,,,エスケービーモモチ,0
345,2010003033804,登記記録の閉鎖等,0,2022-04-18,2022-04-01,ＡＣＡエナジー３号合同会社,,合同会社,東京都,千代田区,永田町１丁目１１番３０号サウスヒル永田町５階,,13,101,1000014,,,2022-04-01,清算の結了等,,,2020-12-22,1,,,,,エーシーエーエナジーサンゴウ,0
357,2010403025756,登記記録の閉鎖等,0,2022-04-18,2022-03-29,ＳＳ光３０合同会社,,合同会社,東京都,港区,芝公園１丁目３番１号留園ビル６階,,13,103,1050011,,,2022-03-29,合併による解散等,3010403025755,令和４年３月２９日東京都港区芝公園一丁目３番１号留園ビル６階ＳＳ光２９合同会社（3010403025755）に合併し解散,2021-07-19,1,,,,,エスエスヒカリサーティ,0
360,2010405018394,登記記録の閉鎖等,0,2022-04-18,2022-04-04,一般社団法人音響通信協会,,その他の設立登記法人,東京都,港区,高輪２丁目１７番１１号,,13,103,1080074,,,2022-04-04,清算の結了等,,,2020-01-15,1,,,,,オンキョウツウシンキョウカイ,0
363,2010601032892,登記記録の閉鎖等,0,2022-04-18,2022-04-05,株式会社光美,,株式会社,東京都,江東区,東砂３丁目３番７号,,13,108,1360074,,,2022-04-05,清算の結了等,,,2015-10-05,1,,,,,ミツヨシ,0
367,2010901011316,登記記録の閉鎖等,0,2022-04-18,2022-04-13,株式会社マツオ,,株式会社,東京都,世田谷区,玉川３丁目１７番１号,,13,112,1580094,,,2022-04-13,清算の結了等,,,2015-10-05,1,,,,,マツオ,0
372,2010902008848,登記記録の閉鎖等,0,2022-04-18,2022-04-12,有限会社ソピア,,有限会社,東京都,世田谷区,宮坂１丁目２９番１９－１０３号,,13,112,1560051,,,2022-04-12,清算の結了等,,,2015-10-05,1,,,,,ソピア,0
375,2011001071069,登記記録の閉鎖等,0,2022-04-18,2022-04-08,株式会社鳥名子,,株式会社,東京都,渋谷区,恵比寿３丁目７番３号大倉ビル１Ｆ,,13,113,1500013,,,2022-04-08,合併による解散等,3130002032736,令和４年４月１日京都府福知山市字中ノ５番地４株式会社鳥名子（3130002032736）に合併し解散,2015-10-05,1,,,,,トリナゴ,0
379,2011001133001,登記記録の閉鎖等,0,2022-04-18,2022-04-05,株式会社吉田洋行,,株式会社,東京都,渋谷区,渋谷１丁目８番５号,,13,113,1500002,,,2022-04-05,清算の結了等,,,2020-03-24,1,,,,,ヨシダヨウコウ,0
392,2011601004304,登記記録の閉鎖等,0,2022-04-18,2022-04-14,株式会社つくも商会,,株式会社,東京都,練馬区,石神井台６丁目３番２３号,,13,120,1770045,,,2022-04-14,合併による解散等,6010001019743,令和４年４月１日東京都千代田区神田三崎町三丁目９番３号シティオートリース株式会社（6010001019743）に合併し解散,2015-10-05,1,,,,,ツクモショウカイ,0
408,2013301002356,登記記録の閉鎖等,0,2022-04-18,2022-04-04,株式会社小川商店,,株式会社,東京都,豊島区,池袋本町１丁目２５番３号,,13,116,1700011,,,2022-04-04,清算の結了等,,,2015-10-05,1,,,,,オガワショウテン,0
437,2030001105693,登記記録の閉鎖等,0,2022-04-18,2022-04-14,株式会社ＭＩＹＡＢＩ,,株式会社,埼玉県,戸田市,上戸田２丁目３３番９号,,11,224,3350022,,,2022-04-14,清算の結了等,,,2015-10-05,1,,,,,ミヤビ,0
481,2050001031203,登記記録の閉鎖等,0,2022-04-18,2022-04-12,株式会社ユーホーニイタカ,,株式会社,茨城県,常総市,大生郷町６１３６番地７,,08,211,3002521,,,2022-04-12,合併による解散等,3120001038611,令和４年４月１日大阪市浪速区元町一丁目１１番２１号ミッケル化学株式会社（3120001038611）に合併し解散,2015-10-05,1,,,,,ユーホーニイタカ,0
485,2050002036655,登記記録の閉鎖等,0,2022-04-18,2022-04-11,有限会社フジタカプラン,,有限会社,茨城県,取手市,取手２丁目３番５号,,08,217,3020004,,,2022-04-11,清算の結了等,,,2015-10-05,1,,,,,フジタカプラン,0
492,2080002006556,登記記録の閉鎖等,0,2022-04-18,2022-04-13,有限会社ジョイアレス静岡,,有限会社,静岡県,静岡市清水区,北脇新田４２８番地,,22,103,4240051,,,2022-04-13,清算の結了等,,,2015-10-05,1,,,,,ジョイアレスシズオカ,0
493,2080101006275,登記記録の閉鎖等,0,2022-04-18,2022-04-15,三島土木建築株式会社,,株式会社,静岡県,三島市,南町１３番１号,,22,206,4110842,,,2022-04-15,清算の結了等,,,2015-10-05,1,,,,,ミシマドボクケンチク,0
496,2080102002595,登記記録の閉鎖等,0,2022-04-18,2022-04-15,有限会社トミナガ商事,,有限会社,静岡県,沼津市,大岡２８２４番地の２,,22,203,4100022,,,2022-04-15,清算の結了等,,,2015-10-05,1,,,,,トミナガショウジ,0
498,2080105004011,登記記録の閉鎖等,0,2022-04-18,2022-04-01,あいら伊豆農業協同組合,,その他の設立登記法人,静岡県,伊東市,宇佐美１８０８番地の１,,22,208,4140001,,,2022-04-01,合併による解散等,5080105000008,令和４年４月１日静岡県沼津市下香貫字上障子４１５番地の１富士伊豆農業協同組合（5080105000008）に合併し解散,2015-10-05,1,,,,,アイライズ,0
502,2080403004010,登記記録の閉鎖等,0,2022-04-18,2022-04-11,合同会社送迎エイド,,合同会社,静岡県,浜松市西区,志都呂町１４２２番地の１,,22,133,4328066,,,2022-04-11,清算の結了等,,,2020-03-24,1,,,,,ソウゲイエイド,0
511,2120001078294,登記記録の閉鎖等,0,2022-04-18,2022-04-12,近畿総合リース株式会社,,株式会社,大阪府,大阪市北区,中之島２丁目３番３３号,,27,127,5300005,,,2022-04-12,合併による解散等,8010701022466,令和４年４月１日東京都中央区銀座八丁目１３番１号ＪＡ三井リース株式会社（8010701022466）に合併し解散,2015-10-05,1,,,,,,0
512,2120001083294,登記記録の閉鎖等,0,2022-04-18,2022-04-11,大栄ゴム株式会社,,株式会社,兵庫県,尼崎市,元浜町１丁目４５番地,,28,202,6600085,,,2022-04-11,合併による解散等,7140001047994,令和４年４月１日兵庫県尼崎市元浜町一丁目４５番地タイガース工販株式会社（7140001047994）に合併し解散,2015-10-05,1,,,,,ダイエイゴム,0
513,2120001105718,登記記録の閉鎖等,0,2022-04-18,2022-04-01,Ｆレンタカー大阪株式会社,,株式会社,大阪府,大阪市北区,中津６丁目５番８号,,27,127,5310071,,,2022-04-01,合併による解散等,6120001165246,令和４年４月１日大阪市浪速区桜川二丁目１１番１０号Ｆレンタカー株式会社（6120001165246）に合併し解散,2015-10-05,1,,,,,エフレンタカーオオサカ,0
518,2120001205889,登記記録の閉鎖等,0,2022-04-18,2022-04-08,株式会社ＷＨＯＬＥ　ＳＡＬＥ,,株式会社,千葉県,流山市,加２丁目８－１１,,12,220,2700176,,,2022-04-08,清算の結了等,,,2017-05-23,1,,,,,ホールセール,0
528,2122001007142,登記記録の閉鎖等,0,2022-04-18,2022-04-11,コイズミ照明デバイス株式会社,,株式会社,大阪府,大阪市中央区,備後町３丁目３番７号,,27,128,5410051,,,2022-04-11,合併による解散等,2120001112664,令和４年４月１日大阪市中央区備後町三丁目３番７号コイズミ照明株式会社（2120001112664）に合併し解散,2015-10-05,1,,,,,コイズミショウメイデバイス,0
554,2140005017148,登記記録の閉鎖等,0,2022-04-18,2022-03-22,天理教多釜原分教会,,その他の設立登記法人,兵庫県,多可郡多可町,加美区轟２７９番地の１,,28,365,6791324,,,2022-03-22,合併による解散等,1140005016761,令和４年３月２２日兵庫県加東市河高２５７８番地９３天理教青野原分教会（1140005016761）に合併し解散,2015-10-05,1,,,,,テンリキョウタカマハラブンキョウカイ,0
569,2180001140503,登記記録の閉鎖等,0,2022-04-18,2022-04-08,株式会社マリエ,,株式会社,愛知県,名古屋市千種区,今池５丁目３番２号,,23,101,4640850,,,2022-04-08,清算の結了等,,,2020-03-18,1,,,,,マリエ,0
576,2180003023499,登記記録の閉鎖等,0,2022-04-18,2022-04-06,合同会社クレマチス,,合同会社,愛知県,名古屋市中区,錦１丁目２０番１９号名神ビル（エイディシーテクノロジー株式会社内）,,23,106,4600003,,,2022-04-06,合併による解散等,8180002071337,令和４年３月２７日愛知県春日井市妙慶町三丁目７０番地の２株式会社足立事務所（8180002071337）に合併し解散,2022-02-18,1,,,,,クレマチス,0
584,2190002008938,登記記録の閉鎖等,0,2022-04-18,2022-04-06,杉村石油有限会社,,有限会社,三重県,伊勢市,大湊町９５８番地,,24,203,5160001,,,2022-04-06,清算の結了等,,,2015-10-05,1,,,,,スギムラセキユ,0
594,2240001056271,登記記録の閉鎖等,0,2022-04-18,2022-02-22,ラックス学院株式会社,,株式会社,広島県,福山市,入船町２丁目１番１０号,,34,207,7200801,,,2022-02-22,合併による解散等,7240001032549,令和４年２月２２日広島県福山市曙町四丁目３番１８号ラックス建設株式会社（7240001032549）に合併し解散,2020-06-17,1,,,,,ラックスガクイン,0
603,2260002033631,登記記録の閉鎖等,0,2022-04-18,2022-04-13,有限会社大住商店,,有限会社,岡山県,真庭市,久世２４９９番地の７,,33,214,7193201,,,2022-04-13,清算の結了等,,,2015-10-05,1,,,,,オオスミショウテン,0
608,2290001059063,登記記録の閉鎖等,0,2022-04-18,2022-04-11,株式会社Ｋ’ｓトレーディング,,株式会社,福岡県,みやま市,高田町江浦町２６３番地１,,40,229,8390212,,,2022-04-11,清算の結了等,,,2015-10-05,1,,,,,ケーズトレーディング,0
630,2340005007681,登記記録の閉鎖等,0,2022-04-18,2022-04-08,特定非営利活動法人ＭＡＧＡＤＩＳ国際文化交流協会,,その他の設立登記法人,鹿児島県,伊佐市,大口小川内５７３－９９番地,,46,224,8952634,,,2022-04-08,清算の結了等,,,2015-10-05,1,,,,,マガディスコクサイブンカコウリュウキョウカイ,0
648,2420001013675,登記記録の閉鎖等,0,2022-04-18,2022-04-14,株式会社Ｑｕａｔｔｒｏ,,株式会社,青森県,青森市,大字浅虫字内野５５番地１２,,02,201,0393501,,,2022-04-14,清算の結了等,,,2015-10-05,1,,,,,,0
667,3010001168345,登記記録の閉鎖等,0,2022-04-18,2022-04-04,株式会社ＡＤエンジニアリング,,株式会社,東京都,千代田区,丸の内１丁目８番３号,,13,101,1000005,,,2022-04-04,清算の結了等,,,2015-10-05,1,,,,,エーディーエンジニアリング,0
668,3010001175135,登記記録の閉鎖等,0,2022-04-18,2022-03-31,株式会社ビーンズ,,株式会社,東京都,中央区,日本橋浜町３丁目１０番９号,,13,102,1030007,,,2022-03-31,合併による解散等,4010001168006,令和４年３月３１日東京都中央区日本橋浜町三丁目１０番９号株式会社ウォーレン（4010001168006）に合併し解散,2016-04-26,1,,,,,ビーンズ,0
717,3011602012107,登記記録の閉鎖等,0,2022-04-18,2022-04-07,有限会社ガルニ,,有限会社,東京都,練馬区,光が丘３丁目８番２－１３０６号,,13,120,1790072,,,2022-04-07,清算の結了等,,,2015-10-05,1,,,,,ガルニ,0
725,3011802025024,登記記録の閉鎖等,0,2022-04-18,2022-04-07,有限会社秀栄技研,,有限会社,東京都,葛飾区,柴又７丁目７番２６－５０２号,,13,122,1250052,,,2022-04-07,清算の結了等,,,2015-10-05,1,,,,,シュウエイギケン,0
733,3013301011389,登記記録の閉鎖等,0,2022-04-18,2022-04-12,株式会社三星,,株式会社,東京都,豊島区,西池袋３丁目１７番６号,,13,116,1710021,,,2022-04-12,清算の結了等,,,2015-10-05,1,,,,,ミツボシ,0
735,3013305002368,登記記録の閉鎖等,0,2022-04-18,2022-04-04,一般社団法人日本氣アラインメント協会,,その他の設立登記法人,東京都,港区,南青山２丁目２番１５号ウィン青山９４２,,13,103,1070062,,,2022-04-04,清算の結了等,,,2015-10-05,1,,,,,ニホンキアラインメントキョウカイ,0
742,3021001041458,登記記録の閉鎖等,0,2022-04-18,2022-04-08,株式会社エム・アイ・インターナショナル,,株式会社,神奈川県,逗子市,久木８丁目１７番１号,,14,208,2490001,,,2022-04-08,清算の結了等,,,2015-10-05,1,,,,,エムアイインターナショナル,0
756,3030002027911,登記記録の閉鎖等,0,2022-04-18,2022-04-08,有限会社クリティカルステージ,,有限会社,埼玉県,さいたま市大宮区,大成町１丁目１７２番地１ライオンズマンション大宮第２－２０６,,11,103,3300852,,,2022-04-08,清算の結了等,,,2015-10-05,1,,,,,クリティカルステージ,0
767,3040001093598,登記記録の閉鎖等,0,2022-04-18,2022-04-08,プロアクトコンサルティング株式会社,,株式会社,千葉県,野田市,野田５３４番地の６,,12,208,2780037,,,2022-04-08,清算の結了等,,,2016-01-14,1,,,,,プロアクトコンサルティング,0
778,3040002043924,登記記録の閉鎖等,0,2022-04-18,2022-04-07,有限会社アート・エム,,有限会社,千葉県,松戸市,本町１２番地の５石井ビル２階,,12,207,2710091,,,2022-04-07,清算の結了等,,,2015-10-05,1,,,,,アートエム,0
787,3060002004503,登記記録の閉鎖等,0,2022-04-18,2022-04-11,有限会社ジェイティワイ,,有限会社,栃木県,宇都宮市,越戸２丁目１４番１６号,,09,201,3210951,,,2022-04-11,清算の結了等,,,2015-10-05,1,,,,,ジェイティワイ,0
795,3080002009715,登記記録の閉鎖等,0,2022-04-18,2022-04-14,有限会社キッカワ工研,,有限会社,静岡県,静岡市清水区,清地４６０番地,,22,103,4240402,,,2022-04-14,清算の結了等,,,2015-10-05,1,,,,,キッカワコウケン,0
797,3080105001148,登記記録の閉鎖等,0,2022-04-18,2022-04-01,御殿場農業協同組合,,その他の設立登記法人,静岡県,御殿場市,茱萸沢５番地,,22,215,4120041,,,2022-04-01,合併による解散等,5080105000008,令和４年４月１日静岡県沼津市下香貫字上障子４１５番地の１富士伊豆農業協同組合（5080105000008）に合併し解散,2015-10-05,1,,,,,ゴテンバ,0
798,3080105003631,登記記録の閉鎖等,0,2022-04-18,2022-04-01,富士宮農業協同組合,,その他の設立登記法人,静岡県,富士宮市,外神東町１１７番地,,22,207,4180007,,,2022-04-01,合併による解散等,5080105000008,令和４年４月１日静岡県沼津市下香貫字上障子４１５番地の１富士伊豆農業協同組合（5080105000008）に合併し解散,2015-10-05,1,,,,,フジノミヤ,0
810,3110002009769,登記記録の閉鎖等,0,2022-04-18,2022-04-11,有限会社マルイチ商会,,有限会社,新潟県,新潟市秋葉区,滝谷町２６２番地３,,15,105,9560854,,,2022-04-11,清算の結了等,,,2015-10-05,1,,,,,マルイチショウカイ,0
828,3120902013472,登記記録の閉鎖等,0,2022-04-18,2022-04-13,有限会社励投,,有限会社,大阪府,高槻市,奥天神町３丁目４番１８号,,27,207,5691118,,,2022-04-13,清算の結了等,,,2015-10-05,1,,,,,,0
832,3130001008844,登記記録の閉鎖等,0,2022-04-18,2022-04-12,洛西ケーブルビジョン株式会社,,株式会社,京都府,京都市西京区,大原野東境谷町２丁目５番地の７,,26,111,6101143,,,2022-04-12,合併による解散等,8190001000667,令和４年４月１日三重県津市あのつ台四丁目７番地１株式会社ＺＴＶ（8190001000667）に合併し解散,2015-10-05,1,,,,,ラクサイケーブルビジョン,0
841,3130005003701,登記記録の閉鎖等,0,2022-04-18,2022-04-07,京都府家畜商業協同組合連合会,,その他の設立登記法人,京都府,京都市下京区,西七条掛越町６５番地京都獣医畜産会館内,,26,106,6008881,,,2022-04-07,清算の結了等,,,2015-10-05,1,,,,,キョウトフカチクショウギョウ,0
847,3140001098364,登記記録の閉鎖等,0,2022-04-18,2022-04-14,株式会社ＴＡＧ,,株式会社,兵庫県,姫路市,飾磨区細江２５４０番地,,28,201,6728064,,,2022-04-14,清算の結了等,,,2015-10-05,1,,,,,ティーエージー,0
857,3140002056825,登記記録の閉鎖等,0,2022-04-18,2022-04-12,有限会社シャトー美容室,,有限会社,兵庫県,西宮市,南昭和町１０番８号,,28,204,6620834,,,2022-04-12,清算の結了等,,,2015-10-05,1,,,,,シャトービヨウシツ,0
864,3170005004308,登記記録の閉鎖等,0,2022-04-18,2022-04-12,松原通商店街振興組合,,その他の設立登記法人,和歌山県,御坊市,薗５１０番地,,30,205,6440002,,,2022-04-12,清算の結了等,,,2015-10-05,1,,,,,マツバラドオリ,0
868,3180001020919,登記記録の閉鎖等,0,2022-04-18,2022-04-01,丸建商事株式会社,,株式会社,愛知県,名古屋市中川区,太平通７丁目１４番地,,23,110,4540838,,,2022-04-01,合併による解散等,9180001020921,令和４年４月１日名古屋市中川区太平通七丁目１４番地株式会社丸建サービス（9180001020921）に合併し解散,2015-10-05,1,,,,,マルケンショウジ,0
875,3180001109175,登記記録の閉鎖等,0,2022-04-18,2022-04-07,株式会社夢働楽,,株式会社,愛知県,名古屋市東区,白壁３丁目５番１号,,23,102,4610011,,,2022-04-07,清算の結了等,,,2015-10-05,1,,,,,ユメドウラク,0
876,3180001144420,登記記録の閉鎖等,0,2022-04-18,2022-04-08,株式会社ＳＧホールディングス,,株式会社,愛知県,名古屋市北区,辻本通１丁目５３番地,00121951,23,103,4620861,,,2022-04-08,清算の結了等,,,2021-01-20,1,,,,,エスジーホールディングス,0
891,3200001032795,登記記録の閉鎖等,0,2022-04-18,2022-04-15,ラテン株式会社,,株式会社,岐阜県,岐阜市,正木南１丁目３番２号,,21,201,5020866,,,2022-04-15,清算の結了等,,,2016-04-28,1,,,,,ラテン,0
916,3280001007906,登記記録の閉鎖等,0,2022-04-18,2022-04-14,株式会社ＮａＣｌメディカル,,株式会社,島根県,松江市,学園南２丁目１２番５号,,32,201,6900826,,,2022-04-14,清算の結了等,,,2019-02-20,1,,,,,エヌエーシーエルメディカル,0
926,3290002027588,登記記録の閉鎖等,0,2022-04-18,2022-04-08,有限会社坂口内装店,,有限会社,福岡県,福岡市博多区,諸岡２丁目８番１０号,,40,132,8120894,,,2022-04-08,清算の結了等,,,2015-10-05,1,,,,,サカグチナイソウテン,0
927,3290002038759,登記記録の閉鎖等,0,2022-04-18,2022-04-11,有限会社エイ・ビー・シー,,有限会社,福岡県,福岡市中央区,谷１丁目１番２０－１１０３号,,40,133,8100031,,,2022-04-11,清算の結了等,,,2015-10-05,1,,,,,エイビーシー,0
928,3290005001350,登記記録の閉鎖等,0,2022-04-18,2022-04-01,社会福祉法人誠和会,,その他の設立登記法人,福岡県,福岡市東区,馬出６丁目７番２９号,,40,131,8120054,,,2022-04-01,合併による解散等,2290005012943,令和４年４月１日福岡市博多区大井二丁目７番１２号社会福祉法人大井会（2290005012943）に合併し解散,2015-10-05,1,,,,,セイワカイ,0
932,3300001010782,登記記録の閉鎖等,0,2022-04-18,2022-04-08,株式会社ＮＳコーポレーション,,株式会社,佐賀県,佐賀市,中央本町７－１９タカラヤビル１階南,,41,201,8400825,,,2022-04-08,清算の結了等,,,2017-04-20,1,,,,,エヌエスコーポレーション,0
941,3330001001738,登記記録の閉鎖等,0,2022-04-18,2022-04-08,株式会社シスニック,,株式会社,熊本県,熊本市中央区,萩原町１４番４５号,,43,101,8600832,,,2022-04-08,合併による解散等,3330001004641,令和４年４月１日熊本市中央区萩原町１４番４５号株式会社ＳＹＳＫＥＮテクノ（3330001004641）に合併し解散,2015-10-05,1,,,,,シスニック,0
947,3350005004413,登記記録の閉鎖等,0,2022-04-18,2022-04-13,特定非営利活動法人元気になろう会,,その他の設立登記法人,宮崎県,串間市,大字西方７１６番地,,45,207,8880001,,,2022-04-13,清算の結了等,,,2015-10-05,1,,,,,ゲンキニナロウカイ,0
949,3360001011230,登記記録の閉鎖等,0,2022-04-18,2022-04-01,株式会社Ｍ１コーポレーション,,株式会社,沖縄県,浦添市,城間４丁目３２番５号,,47,208,9012133,,,2022-04-01,合併による解散等,8360001020631,令和４年４月１日沖縄県宜野湾市大山二丁目１３番６号株式会社Ｄ’ＢＡＬＬ（8360001020631）に合併し解散,2015-10-05,1,,,,,エムワンコーポレーション,0
959,3380002005312,登記記録の閉鎖等,0,2022-04-18,2022-04-12,有限会社石川製材所,,有限会社,福島県,伊達郡国見町,大字藤田字堤下１４番地,,07,303,9691761,,,2022-04-12,清算の結了等,,,2015-10-05,1,,,,,イシカワセイザイショ,0
977,3470005002215,登記記録の閉鎖等,0,2022-04-18,2022-03-22,天理教菩提分教会,,その他の設立登記法人,香川県,木田郡三木町,大字朝倉１３８５番地の１,,37,341,7610614,,,2022-03-22,合併による解散等,2470005002216,令和４年３月２２日香川県木田郡三木町大字氷上３４７７番地１天理教日香美分教会（2470005002216）に合併し解散,2015-10-05,1,,,,,テンリキョウボタイブンキョウカイ,0
991,4010401146164,登記記録の閉鎖等,0,2022-04-18,2022-04-04,Ｖｏｌｔｅｒｒａ　Ｅｄｇｅ　Ｓｅｒｖｉｃｅｓ株式会社,,株式会社,東京都,港区,赤坂２丁目２３番１号アークヒルズ・フロントタワーＩｎＣｏｎｔｒｏｌ内,,13,103,1070052,,,2022-04-04,清算の結了等,,,2019-06-14,1,,,,,ヴォルテラエッジサービシーズ,0
994,4010402005146,登記記録の閉鎖等,0,2022-04-18,2022-04-04,有限会社コバヤシ宝飾,,有限会社,東京都,港区,高輪４丁目１４番７－４０４号,,13,103,1080074,,,2022-04-04,清算の結了等,,,2015-10-05,1,,,,,コバヤシホウショク,0
1001,4010802009498,登記記録の閉鎖等,0,2022-04-18,2022-04-11,有限会社鶴の湯,,有限会社,東京都,大田区,上池台５丁目７番１２号,,13,111,1450064,,,2022-04-11,清算の結了等,,,2015-10-05,1,,,,,,0
1015,4011001058163,登記記録の閉鎖等,0,2022-04-18,2022-04-04,株式会社萬歳ダイニング,,株式会社,東京都,渋谷区,神宮前１丁目１４番１３号,,13,113,1500001,,,2022-04-04,合併による解散等,4011001039320,令和４年４月１日東京都渋谷区神宮前一丁目１４番１３号株式会社リズメディア（4011001039320）に合併し解散,2015-10-05,1,,,,,バンザイダイニング,0
1018,4011001131168,登記記録の閉鎖等,0,2022-04-18,2022-04-01,株式会社ＳＤＥ,,株式会社,東京都,渋谷区,恵比寿西１丁目１２番１４号,,13,113,1500021,,,2022-04-01,合併による解散等,7011001011788,令和４年４月１日東京都渋谷区恵比寿南一丁目１５番１号株式会社ＳＤＲ（7011001011788）に合併し解散,2019-12-02,1,,,,,エスディーイー,0
1022,4011001139756,登記記録の閉鎖等,0,2022-04-18,2022-04-05,株式会社エル,,株式会社,東京都,渋谷区,神宮前６丁目２３番４号桑野ビル２階,,13,113,1500001,,,2022-04-05,清算の結了等,,,2021-04-15,1,,,,,エル,0
1026,4011005006291,登記記録の閉鎖等,0,2022-04-18,2022-04-06,一般社団法人Ｉｎｔｅｒｎａｔｉｏｎａｌ　Ｂｒｉｄａｌ　Ｃｕｌｔｕｒｅ　Ａｓｓｏｃｉａｔｉｏｎ,,その他の設立登記法人,東京都,渋谷区,恵比寿３丁目２８番１２号ＡＴＹビル６Ｆ,,13,113,1500013,,,2022-04-06,清算の結了等,,,2015-10-05,1,,,,,インターナショナルブライダルカルチャーアソシエーション,0
1028,4011101005585,登記記録の閉鎖等,0,2022-04-18,2022-04-12,株式会社群青,,株式会社,東京都,新宿区,信濃町３２番地４,,13,104,1600016,,,2022-04-12,清算の結了等,,,2015-10-05,1,,,,,グンジョウ,0
1039,4011701000936,登記記録の閉鎖等,0,2022-04-18,2022-04-13,株式会社イワキン,,株式会社,東京都,江戸川区,平井６丁目６１番８号,,13,123,1320035,,,2022-04-13,清算の結了等,,,2015-10-05,1,,,,,イワキン,0
1048,4013302014992,登記記録の閉鎖等,0,2022-04-18,2022-04-11,有限会社池田書店,,有限会社,東京都,日野市,豊田４丁目１９番地の３８,,13,212,1910053,,,2022-04-11,清算の結了等,,,2015-10-05,1,,,,,イケダショテン,0
1049,4020001009927,登記記録の閉鎖等,0,2022-04-18,2022-04-14,三光興産株式会社,,株式会社,神奈川県,横浜市保土ケ谷区,常盤台６１番３９号,,14,106,2400067,,,2022-04-14,合併による解散等,9010001001764,令和４年４月１日東京都文京区大塚三丁目１９番７号環境装備株式会社（9010001001764）に合併し解散,2015-10-05,1,,,,,サンコウコウサン,0
1060,4020003005552,登記記録の閉鎖等,0,2022-04-18,2022-04-11,合資会社渡邊商店,,合資会社,神奈川県,川崎市幸区,南幸町３丁目３１番２号,,14,132,2120016,,,2022-04-11,清算の結了等,,,2015-10-05,1,,,,,,0
1062,4020005001005,登記記録の閉鎖等,0,2022-04-18,2022-03-30,宗教法人天理教本晶分教会,,その他の設立登記法人,神奈川県,横浜市旭区,今宿南町１４０番地の１３,,14,112,2410034,,,2022-03-30,合併による解散等,5020005001045,令和４年３月３０日横浜市港南区芹が谷五丁目５０番２６号宗教法人天理教本神分教会（5020005001045）に合併し解散,2015-10-05,1,,,,,,0
1063,4020005013504,登記記録の閉鎖等,0,2022-04-18,2022-04-08,一般社団法人歩子の会,,その他の設立登記法人,神奈川県,横浜市港北区,大豆戸町６３１番地８,,14,109,2220032,,,2022-04-08,清算の結了等,,,2018-02-21,1,,,,,アルコノカイ,0
1064,4021001023133,登記記録の閉鎖等,0,2022-04-18,2022-04-08,株式会社谷口技建,,株式会社,神奈川県,厚木市,三田２７０２番地９,,14,212,2430211,,,2022-04-08,清算の結了等,,,2015-10-05,1,,,,,,0
1068,4021001032547,登記記録の閉鎖等,0,2022-04-18,2022-04-04,交泉土木株式会社,,株式会社,神奈川県,小田原市,久野２５８番地の１,,14,206,2500055,,,2022-04-04,清算の結了等,,,2015-10-05,1,,,,,,0
1072,4021002055448,登記記録の閉鎖等,0,2022-04-18,2022-04-11,有限会社田部鉄筋工業,,有限会社,神奈川県,足柄上郡大井町,金子４９７番地１４,,14,362,2580019,,,2022-04-11,清算の結了等,,,2015-10-05,1,,,,,タベテッキンコウギョウ,0
1090,4030005019095,登記記録の閉鎖等,0,2022-04-18,2022-03-30,特定非営利活動法人東京ラオス会,,その他の設立登記法人,埼玉県,越谷市,西方１丁目３４４０番地１シテイハウス４－１０５,,11,222,3430822,,,2022-03-30,清算の結了等,,,2018-07-30,1,,,,,トウキョウラオスカイ,0
1104,4040005018583,登記記録の閉鎖等,0,2022-04-18,2022-04-06,特定非営利活動法人吉鴨会,,その他の設立登記法人,千葉県,鴨川市,上２５１番地,,12,223,2992858,,,2022-04-06,清算の結了等,,,2015-10-05,1,,,,,ヨシカモカイ,0
1106,4050001023132,登記記録の閉鎖等,0,2022-04-18,2022-04-11,株式会社グランバーズ,,株式会社,茨城県,日立市,大みか町１丁目６番７号,,08,202,3191221,,,2022-04-11,清算の結了等,,,2015-10-05,1,,,,,グランバーズ,0
1110,4050002013231,登記記録の閉鎖等,0,2022-04-18,2022-04-07,有限会社中島冷熱,,有限会社,茨城県,稲敷郡美浦村,大字舟子６００番地,,08,442,3000428,,,2022-04-07,清算の結了等,,,2015-10-05,1,,,,,ナカジマレイネツ,0
1111,4050003004849,登記記録の閉鎖等,0,2022-04-18,2022-04-08,ＫＡＮＡＧＡＷＡ合同会社,,合同会社,茨城県,神栖市,柳川１２５０番地,,08,232,3140252,,,2022-04-08,清算の結了等,,,2019-09-24,1,,,,,カナガワ,0
1117,4070005004812,登記記録の閉鎖等,0,2022-04-18,2022-03-30,天理教境野分教会,,その他の設立登記法人,群馬県,桐生市,境野町６丁目１６４３番地１０,,10,203,3760002,,,2022-03-30,合併による解散等,7060005006583,令和４年３月２２日栃木県足利市小俣町１５０５番地１天理教両野分教会（7060005006583）に合併し解散,2015-10-05,1,,,,,,0
1124,4080102019654,登記記録の閉鎖等,0,2022-04-18,2022-04-14,有限会社金指建設,,有限会社,静岡県,伊東市,大原３丁目１５番６号,,22,208,4140046,,,2022-04-14,清算の結了等,,,2015-10-05,1,,,,,カナザシケンセツ,0
1125,4080105002351,登記記録の閉鎖等,0,2022-04-18,2022-04-01,三島函南農業協同組合,,その他の設立登記法人,静岡県,三島市,谷田字城の内１４１番地の１,,22,206,4110801,,,2022-04-01,合併による解散等,5080105000008,令和４年４月１日静岡県沼津市下香貫字上障子４１５番地の１富士伊豆農業協同組合（5080105000008）に合併し解散,2015-10-05,1,,,,,ミシマカンナミ,0
1132,4110002022762,登記記録の閉鎖等,0,2022-04-18,2022-04-11,有限会社サンクラフト設計,,有限会社,新潟県,上越市,木田１丁目１６番３号,,15,222,9430805,,,2022-04-11,清算の結了等,,,2015-10-05,1,,,,,サンクラフトセッケイ,0
1140,4120001206844,登記記録の閉鎖等,0,2022-04-18,2022-04-08,株式会社八木総合研究所,,株式会社,大阪府,大阪市港区,築港３丁目３番２－５１０号,,27,107,5520021,,,2022-04-08,清算の結了等,,,2017-07-14,1,,,,,ヤギソウゴウケンキュウショ,0
1149,4120103003545,登記記録の閉鎖等,0,2022-04-18,2022-04-11,合同会社隆昌,,合同会社,大阪府,堺市西区,上野芝町８丁９番９号,,27,144,5938301,,,2022-04-11,清算の結了等,,,2019-12-24,1,,,,,リュウショウ,0
1158,4140001056305,登記記録の閉鎖等,0,2022-04-18,2022-04-11,北洋紙器工業株式会社,,株式会社,兵庫県,豊岡市,日高町鶴岡３８１番地,,28,209,6695313,,,2022-04-11,合併による解散等,8140001077157,令和４年４月１日兵庫県加西市北条町北条１８０番地兵庫王子段ボール株式会社（8140001077157）に合併し解散,2015-10-05,1,,,,,ホクヨウシキコウギョウ,0
1161,4140001116158,登記記録の閉鎖等,0,2022-04-18,2022-04-11,北はりま田園空間株式会社,,株式会社,兵庫県,西脇市,寺内５１７番地の１,,28,213,6770022,,,2022-04-11,清算の結了等,,,2020-01-14,1,,,,,キタハリマデンエンクウカン,0
1166,4140002005979,登記記録の閉鎖等,0,2022-04-18,2022-04-12,さかた商事有限会社,,有限会社,兵庫県,神戸市垂水区,舞子坂３丁目２番１３,,28,108,6550044,,,2022-04-12,清算の結了等,,,2015-10-05,1,,,,,サカタショウジ,0
1172,4140005005290,登記記録の閉鎖等,0,2022-04-18,2022-04-12,公益財団法人日本和紙ちぎり絵協会,,その他の設立登記法人,兵庫県,神戸市中央区,雲井通７丁目１番１号ミント神戸１６Ｆ,,28,110,6510096,,,2022-04-12,清算の結了等,,,2015-10-05,1,,,,,ニホンワシチギリエキョウカイ,0
1178,4160002001150,登記記録の閉鎖等,0,2022-04-18,2022-04-15,有限会社タナカ,,有限会社,滋賀県,大津市,錦織１丁目７番１５号,,25,201,5200027,,,2022-04-15,清算の結了等,,,2015-10-05,1,,,,,タナカ,0
1181,4170005004075,登記記録の閉鎖等,0,2022-04-18,2022-03-30,天理教三萩分教会,,その他の設立登記法人,和歌山県,田辺市,本宮町伏拝１０５９番地の２,,30,206,6471743,,,2022-03-30,合併による解散等,8170005005367,令和４年３月３０日和歌山県新宮市池田一丁目１番２６号天理教南海大教会（8170005005367）に合併し解散,2015-10-05,1,,,,,テンリキョウミハギブンキョウカイ,0
1183,4180001067975,登記記録の閉鎖等,0,2022-04-18,2022-04-07,株式会社アジア産業開発,,株式会社,愛知県,名古屋市緑区,ほら貝３丁目２７７番地,,23,114,4580013,,,2022-04-07,清算の結了等,,,2015-10-05,1,,,,,アジアサンギョウカイハツ,0
1194,4180002006858,登記記録の閉鎖等,0,2022-04-18,2022-04-08,有限会社日東ヒビノ,,有限会社,愛知県,名古屋市港区,丸池町２丁目２４番地の５,,23,111,4550078,,,2022-04-08,清算の結了等,,,2015-10-05,1,,,,,ニットウヒビノ,0
1204,4180302012969,登記記録の閉鎖等,0,2022-04-18,2022-04-05,有限会社クレディトラスト,,有限会社,愛知県,豊川市,二見町１０３番地,,23,207,4420044,,,2022-04-05,清算の結了等,,,2015-10-05,1,,,,,クレディトラスト,0
1228,4250002017526,登記記録の閉鎖等,0,2022-04-18,2022-04-11,有限会社アレンジ,,有限会社,山口県,周南市,糀町１丁目１番地フロム０８３４　２階,,35,215,7450027,,,2022-04-11,清算の結了等,,,2015-10-05,1,,,,,アレンジ,0
1229,4250005003325,登記記録の閉鎖等,0,2022-04-18,2022-04-12,下関再生資源協同組合,,その他の設立登記法人,山口県,下関市,東大和町２丁目１番３号,,35,201,7500066,,,2022-04-12,清算の結了等,,,2015-10-05,1,,,,,シモノセキサイセイシゲン,0
1240,4290001020469,登記記録の閉鎖等,0,2022-04-18,2022-04-08,株式会社エム・ワイ・ユウ管理,,株式会社,福岡県,福岡市中央区,天神１丁目１番１号,,40,133,8100001,,,2022-04-08,合併による解散等,3290001034057,令和４年４月１日福岡市中央区天神一丁目１番１号株式会社シノケンファシリティーズ（3290001034057）に合併し解散,2015-10-05,1,,,,,エムワイユウカンリ,0
1253,4310005003748,登記記録の閉鎖等,0,2022-04-18,2022-03-14,奥浦神社,,その他の設立登記法人,長崎県,南松浦郡新上五島町,阿瀬津郷５６０番地,,42,411,8533322,,,2022-03-14,合併による解散等,5310005003755,令和４年３月１４日長崎県南松浦郡新上五島町阿瀬津郷７９２番地熊野神社（5310005003755）に合併し解散,2015-10-05,1,,,,,オクウラジンジャ,0
1266,4370001017291,登記記録の閉鎖等,0,2022-04-18,2022-04-11,株式会社田沼酸素商会,,株式会社,宮城県,仙台市宮城野区,中野字神明１３０番地,,04,102,9830013,,,2022-04-11,合併による解散等,9030001003544,令和４年４月１日埼玉県さいたま市大宮区桜木町一丁目１１番地５株式会社サイサン（9030001003544）に合併し解散,2015-10-05,1,,,,,タヌマサンソショウカイ,0
1302,5010001012204,登記記録の閉鎖等,0,2022-04-18,2022-04-01,株式会社エディターセンター,,株式会社,東京都,中央区,銀座５丁目１５番８号,,13,102,1040061,,,2022-04-01,合併による解散等,7010001018703,令和３年４月１日東京都中央区銀座五丁目１５番８号株式会社時事通信社（7010001018703）に合併し解散,2015-10-05,1,,,,,エディターセンター,0
1312,5010005017554,登記記録の閉鎖等,0,2022-04-18,2022-04-07,一般社団法人民事信託推進センター,,その他の設立登記法人,東京都,中央区,日本橋２丁目１６番１３号ランディック日本橋ビル３階,,13,102,1030027,,,2022-04-07,合併による解散等,1010005022392,令和４年４月１日東京都中央区日本橋二丁目１６番１３号ランディック日本橋ビル３階一般社団法人民事信託士協会（1010005022392）に合併し解散,2015-10-05,1,,,,,ミンジシンタクスイシンセンター,0
1314,5010005024121,登記記録の閉鎖等,0,2022-04-18,2022-04-11,一般社団法人福岡桂川,,その他の設立登記法人,東京都,千代田区,一番町９番地８ノザワビルディング６階税理士法人シリウス内,,13,101,1020082,,,2022-04-11,清算の結了等,,,2015-10-05,1,,,,,フクオカケイセン,0
1315,5010005024220,登記記録の閉鎖等,0,2022-04-18,2022-04-11,一般社団法人福岡桂川２,,その他の設立登記法人,東京都,千代田区,一番町９番地８ノザワビルディング６階税理士法人シリウス内,,13,101,1020082,,,2022-04-11,清算の結了等,,,2015-10-05,1,,,,,フクオカケイセンニ,0
1317,5010102006773,登記記録の閉鎖等,0,2022-04-18,2022-04-13,有限会社宮本工務店,,有限会社,東京都,八王子市,横川町８８５番地の１０,,13,201,1930823,,,2022-04-13,清算の結了等,,,2015-10-05,1,,,,,ミヤモトコウムテン,0
1319,5010401039169,登記記録の閉鎖等,0,2022-04-18,2022-04-13,マザープラン株式会社,,株式会社,東京都,杉並区,西荻北３丁目２４番４号,,13,115,1670042,,,2022-04-13,清算の結了等,,,2015-10-05,1,,,,,マザープラン,0
1326,5010401105813,登記記録の閉鎖等,0,2022-04-18,2022-04-04,クロスカルチャー・パートナーズ株式会社,,株式会社,東京都,千代田区,霞が関３丁目７番１号,,13,101,1000013,,,2022-04-04,清算の結了等,,,2015-10-05,1,,,,,クロスカルチャーパートナーズ,0
1349,5010901006643,登記記録の閉鎖等,0,2022-04-18,2022-04-14,株式会社祖師谷自動車修理工場,,株式会社,東京都,世田谷区,上祖師谷６丁目３番１２号,,13,112,1570065,,,2022-04-14,清算の結了等,,,2015-10-05,1,,,,,ソシガヤジドウシャシュウリコウジョウ,0
1379,5013201013269,登記記録の閉鎖等,0,2022-04-18,2022-04-08,株式会社ヴェルファシール,,株式会社,東京都,目黒区,上目黒５丁目１８番４号,,13,110,1530051,,,2022-04-08,合併による解散等,1140002023356,令和４年４月１日神戸市中央区北長狭通六丁目２番１５号株式会社アンジェリカフレスカ（1140002023356）に合併し解散,2015-10-05,1,,,,,ベルファシール,0
1380,5013202001124,登記記録の閉鎖等,0,2022-04-18,2022-04-05,有限会社エス・アイ・カンパニー,,有限会社,東京都,目黒区,目黒３丁目１４番３号,,13,110,1530063,,,2022-04-05,清算の結了等,,,2015-10-05,1,,,,,エスアイカンパニー,0
1386,5013401001387,登記記録の閉鎖等,0,2022-04-18,2022-04-11,東京総合リース株式会社,,株式会社,東京都,町田市,金井ヶ丘４丁目２７番３１号,,13,209,1950076,,,2022-04-11,清算の結了等,,,2015-10-05,1,,,,,トウキョウソウゴウリース,0
1393,5020002040319,登記記録の閉鎖等,0,2022-04-18,2022-04-11,有限会社丸岡製作所,,有限会社,神奈川県,横浜市鶴見区,矢向５丁目２番３号,,14,101,2300001,,,2022-04-11,清算の結了等,,,2015-10-05,1,,,,,マルオカセイサクショ,0
1402,5021002053310,登記記録の閉鎖等,0,2022-04-18,2022-04-08,森永牛乳西湘販売有限会社,,有限会社,神奈川県,小田原市,鴨宮７６９番地,,14,206,2500874,,,2022-04-08,清算の結了等,,,2015-10-05,1,,,,,モリナガギュウニュウセイショウハンバイ,0
1417,5030003002036,登記記録の閉鎖等,0,2022-04-18,2022-04-08,合同会社アトランティス,,合同会社,千葉県,習志野市,谷津５丁目３６番１８－２０２号,,12,216,2750026,,,2022-04-08,清算の結了等,,,2015-10-05,1,,,,,アトランティス,0
1436,5040002032883,登記記録の閉鎖等,0,2022-04-18,2022-04-08,有限会社エステー・コーポレーション,,有限会社,千葉県,市川市,新浜１丁目９番２５－４０４号,,12,203,2720136,,,2022-04-08,清算の結了等,,,2015-10-05,1,,,,,エステーコーポレーション,0
1443,5050002032370,登記記録の閉鎖等,0,2022-04-18,2022-04-07,有限会社北原電氣商会,,有限会社,茨城県,北茨城市,磯原町上相田１０９９番地,,08,215,3191544,,,2022-04-07,清算の結了等,,,2015-10-05,1,,,,,キタハラデンキショウカイ,0
1461,5080105001864,登記記録の閉鎖等,0,2022-04-18,2022-04-01,伊豆の国農業協同組合,,その他の設立登記法人,静岡県,伊豆の国市,南條８００番地,,22,225,4102114,,,2022-04-01,合併による解散等,5080105000008,令和４年４月１日静岡県沼津市下香貫字上障子４１５番地の１富士伊豆農業協同組合（5080105000008）に合併し解散,2015-10-05,1,,,,,イズノクニ,0
1462,5080105004322,登記記録の閉鎖等,0,2022-04-18,2022-04-01,伊豆太陽農業協同組合,,その他の設立登記法人,静岡県,下田市,東本郷１丁目１２番８号,,22,219,4150035,,,2022-04-01,合併による解散等,5080105000008,令和４年４月１日静岡県沼津市下香貫字上障子４１５番地の１富士伊豆農業協同組合（5080105000008）に合併し解散,2015-10-05,1,,,,,イズタイヨウ,0
1497,5130001059290,登記記録の閉鎖等,0,2022-04-18,2022-04-08,株式会社シェアチケット,,株式会社,京都府,京都市伏見区,深草六反田町１番地１,,26,109,6120008,,,2022-04-08,合併による解散等,1010403008233,令和４年３月３０日東京都渋谷区渋谷二丁目２１番１号渋谷ヒカリエ８階ＣｒｅａｔｉｖｅＬｏｕｎｇｅＭＯＶ東京シェアハウス合同会社（1010403008233）に合併し解散,2017-02-27,1,,,,,シェアチケット,0
1517,5180001022418,登記記録の閉鎖等,0,2022-04-18,2022-04-01,ネッツトヨタ中京株式会社,,株式会社,愛知県,名古屋市熱田区,大宝１丁目１３番２０号,,23,109,4560062,,,2022-04-01,合併による解散等,6180001090513,令和４年４月１日名古屋市熱田区尾頭町２番２２号ＮＴＰホールディングス株式会社（6180001090513）に合併し解散,2015-10-05,1,,,,,ネッツトヨタチュウキョウ,0
1526,5180001116450,登記記録の閉鎖等,0,2022-04-18,2022-04-12,新日本法規データ株式会社,,株式会社,愛知県,名古屋市中区,栄１丁目２３番２０号,,23,106,4600008,,,2022-04-12,合併による解散等,5180001036822,令和４年４月１日名古屋市中区栄一丁目２３番２０号新日本法規出版株式会社（5180001036822）に合併し解散,2015-10-05,1,,,,,シンニッポンホウキデータ,0
1542,5180301012936,登記記録の閉鎖等,0,2022-04-18,2022-04-06,新英マテリアル株式会社,,株式会社,愛知県,岡崎市,大平町字堤下７８番地１,,23,202,4440007,,,2022-04-06,合併による解散等,9180301012965,令和４年４月１日愛知県安城市住吉町三丁目１２番１号新英金属株式会社（9180301012965）に合併し解散,2015-10-05,1,,,,,シンエイマテリアル,0
1545,5190005004337,登記記録の閉鎖等,0,2022-04-18,2022-03-17,本多神社,,その他の設立登記法人,三重県,鈴鹿市,神戸本多町７７２番地,,24,207,5130801,,,2022-03-17,合併による解散等,4190005004189,令和４年３月１７日三重県鈴鹿市神戸二丁目１８番２８号神舘飯野高市本多神社（4190005004189）に合併し解散,2015-10-05,1,,,,,ホンダジンジャ,0
1550,5230001005334,登記記録の閉鎖等,0,2022-04-18,2022-04-08,株式会社富山富士通,,株式会社,富山県,富山市,八尾町保内２丁目２番１,,16,201,9392366,,,2022-04-08,合併による解散等,1020001071491,令和４年４月１日川崎市中原区上小田中四丁目１番１号富士通株式会社（1020001071491）に合併し解散,2015-10-05,1,,,,,,0
1559,5260002006477,登記記録の閉鎖等,0,2022-04-18,2022-04-13,辻内木工有限会社,,有限会社,岡山県,岡山市南区,万倍１１３番地の１３,,33,104,7000955,,,2022-04-13,清算の結了等,,,2015-10-05,1,,,,,ツジウチモッコウ,0
1563,5270005003314,登記記録の閉鎖等,0,2022-04-18,2022-03-29,日吉津村土地開発公社,,その他の設立登記法人,鳥取県,西伯郡日吉津村,大字日吉津８７２番地１５,,31,384,6893553,,,2022-03-29,清算の結了等,,,2015-10-05,1,,,,,ヒエヅソン,0
1567,5290001052949,登記記録の閉鎖等,0,2022-04-18,2022-04-08,株式会社清美堂,,株式会社,福岡県,久留米市,城島町青木島５９４番地２５,,40,203,8300222,,,2022-04-08,清算の結了等,,,2015-10-05,1,,,,,セイビドウ,0
1589,5330001013260,登記記録の閉鎖等,0,2022-04-18,2022-04-12,株式会社アーレスティダイモールド熊本,,株式会社,熊本県,宇城市,松橋町浦川内１２番地,,43,213,8690521,,,2022-04-12,合併による解散等,3080401003806,令和４年４月１日浜松市西区桜台五丁目３番１０号株式会社アーレスティダイモールド浜松（3080401003806）に合併し解散,2015-10-05,1,,,,,アーレスティダイモールドクマモト,0
1615,5380002002316,登記記録の閉鎖等,0,2022-04-18,2022-04-11,有限会社デザインボックス,,有限会社,福島県,福島市,野田町４丁目１０番１４号,,07,201,9608055,,,2022-04-11,清算の結了等,,,2015-10-05,1,,,,,デザインボックス,0
1619,5380005003559,登記記録の閉鎖等,0,2022-04-18,2022-03-16,天理教常葉町分教会,,その他の設立登記法人,福島県,田村市,常葉町常葉字早稲川舘１６番地の３,,07,211,9634602,,,2022-03-16,合併による解散等,2380005003603,令和４年３月１６日福島県田村郡三春町字新町１９１番地天理教三春分教会（2380005003603）に合併し解散,2015-10-05,1,,,,,テンリキョウトキワマチブンキョウカイ,0
1622,5400001002207,登記記録の閉鎖等,0,2022-04-18,2022-04-15,株式会社匠システム,,株式会社,岩手県,盛岡市,湯沢南２丁目４番７号,,03,201,0200845,,,2022-04-15,清算の結了等,,,2015-10-05,1,,,,,タクミシステム,0
1628,5420002012459,登記記録の閉鎖等,0,2022-04-18,2022-04-14,有限会社トーセイ工業,,有限会社,青森県,つがる市,木造赤根１３番地３４,,02,209,0383142,,,2022-04-14,清算の結了等,,,2015-10-05,1,,,,,,0
1631,5430001039031,登記記録の閉鎖等,0,2022-04-18,2022-04-07,株式会社旺煌,,株式会社,北海道,札幌市白石区,菊水上町一条１丁目１００番地２５タイムプラザ２Ｆ,,01,104,0030811,,,2022-04-07,合併による解散等,6430001058699,令和４年４月１日札幌市白石区菊水上町一条一丁目１００番地２５タイムプラザ２Ｆ株式会社北海道霊芝（6430001058699）に合併し解散,2015-10-05,1,,,,,オウコウ,0
1651,6010001174349,登記記録の閉鎖等,0,2022-04-18,2022-04-05,株式会社ビーユーネットワーク,,株式会社,東京都,千代田区,平河町２丁目１２番１５号,,13,101,1020093,,,2022-04-05,清算の結了等,,,2016-03-22,1,,,,,ビーユーネットワーク,0
1665,6010501021348,登記記録の閉鎖等,0,2022-04-18,2022-04-15,株式会社トッパンマインドウェルネス,,株式会社,東京都,台東区,台東１丁目５番１号,,13,106,1100016,,,2022-04-15,合併による解散等,7010501016231,令和４年４月１日東京都台東区台東一丁目５番１号凸版印刷株式会社（7010501016231）に合併し解散,2015-10-05,1,,,,,トッパンマインドウェルネス,0
1672,6010802005438,登記記録の閉鎖等,0,2022-04-18,2022-04-11,有限会社近藤製作所,,有限会社,東京都,大田区,西糀谷２丁目１番５号,,13,111,1440034,,,2022-04-11,清算の結了等,,,2015-10-05,1,,,,,コンドウセイサクジョ,0
1697,6011101061098,登記記録の閉鎖等,0,2022-04-18,2022-04-08,リグナ株式会社,,株式会社,東京都,中央区,新川１丁目９－３リグナテラス東京,,13,102,1040033,,,2022-04-08,合併による解散等,9080001016723,令和４年４月１日静岡県藤枝市志太五丁目３番３４号リグナ株式会社（9080001016723）に合併し解散,2015-10-05,1,,,,,リグナ,0
1723,6012402019124,登記記録の閉鎖等,0,2022-04-18,2022-04-12,有限会社ソフトハウス大野,,有限会社,東京都,三鷹市,井口１丁目１３番４８号,,13,204,1810011,,,2022-04-12,清算の結了等,,,2015-10-05,1,,,,,ソフトハウスオオノ,0
1729,6013301030122,登記記録の閉鎖等,0,2022-04-18,2022-04-13,株式会社アネックスリアルター,,株式会社,埼玉県,深谷市,南阿賀野２４番地３,,11,218,3660007,,,2022-04-13,合併による解散等,3010903006288,令和４年４月１日東京都渋谷区宇田川町１番１２号Ｆｕｔｕｒｅ　ｄｅｓｉｇｎ　Ｃａｐｉｔａｌ合同会社（3010903006288）に合併し解散,2015-10-05,1,,,,,アネックスリアルター,0
1741,6020001125730,登記記録の閉鎖等,0,2022-04-18,2022-04-06,東芝デジタル＆コンサルティング株式会社,,株式会社,神奈川県,川崎市幸区,堀川町７２番地３４,,14,132,2120013,,,2022-04-06,合併による解散等,7010401052137,令和４年４月１日川崎市幸区堀川町７２番地３４東芝デジタルソリューションズ株式会社（7010401052137）に合併し解散,2018-04-04,1,,,,,トウシバデジタルアンドコンサルティング,0
1752,6021002006498,登記記録の閉鎖等,0,2022-04-18,2022-04-11,有限会社サンパティック,,有限会社,神奈川県,藤沢市,鵠沼橘２丁目１４番２２号,,14,205,2510024,,,2022-04-11,清算の結了等,,,2015-10-05,1,,,,,サンパティック,0
1756,6021002035885,登記記録の閉鎖等,0,2022-04-18,2022-04-11,有限会社ハラシステムサービス,,有限会社,神奈川県,厚木市,妻田東１丁目５番９－３０４号,,14,212,2430813,,,2022-04-11,清算の結了等,,,2015-10-05,1,,,,,ハラシステムサービス,0
1758,6030001005188,登記記録の閉鎖等,0,2022-04-18,2022-04-11,株式会社大扇給食センター,,株式会社,埼玉県,さいたま市西区,大字指扇１７５２番地７,,11,101,3310047,,,2022-04-11,清算の結了等,,,2015-10-05,1,,,,,ダイセンキュウショクセンター,0
1764,6030001126224,登記記録の閉鎖等,0,2022-04-18,2022-04-11,株式会社リアライズ,,株式会社,埼玉県,八潮市,大字伊勢野２３６番地,,11,234,3400821,,,2022-04-11,清算の結了等,,,2018-06-20,1,,,,,リアライズ,0
1769,6030002041216,登記記録の閉鎖等,0,2022-04-18,2022-04-11,有限会社関根建設,,有限会社,埼玉県,加須市,北小浜８９５番地,,11,210,3470011,,,2022-04-11,清算の結了等,,,2015-10-05,1,,,,,,0
1770,6030002052568,登記記録の閉鎖等,0,2022-04-18,2022-04-06,有限会社フレックス,,有限会社,埼玉県,八潮市,八潮６丁目１６番４号,,11,234,3400815,,,2022-04-06,清算の結了等,,,2015-10-05,1,,,,,フレックス,0
1774,6030005002826,登記記録の閉鎖等,0,2022-04-18,2022-04-01,学校法人恵済学園,,その他の設立登記法人,埼玉県,さいたま市岩槻区,大字飯塚５０番地,,11,110,3390031,,,2022-04-01,合併による解散等,8030005000902,令和４年４月１日埼玉県さいたま市緑区大字代山１７２番地学校法人明星学園（8030005000902）に合併し解散,2015-10-05,1,,,,,ケイザイガクエン,0
1776,6040001006251,登記記録の閉鎖等,0,2022-04-18,2022-04-14,桜木管理株式会社,,株式会社,千葉県,千葉市若葉区,桜木６丁目１９番７５号,,12,104,2640028,,,2022-04-14,清算の結了等,,,2015-10-05,1,,,,,サクラギカンリ,0
1780,6040001045803,登記記録の閉鎖等,0,2022-04-18,2022-04-05,アテナ株式会社,,株式会社,千葉県,成田市,本城４２番地７５,,12,211,2860114,,,2022-04-05,清算の結了等,,,2015-10-05,1,,,,,アテナ,0
1789,6040002031579,登記記録の閉鎖等,0,2022-04-18,2022-04-08,有限会社参設計,,有限会社,千葉県,八千代市,八千代台東６丁目２番１２号,,12,221,2760032,,,2022-04-08,清算の結了等,,,2015-10-05,1,,,,,サンセッケイ,0
1794,6040003014236,登記記録の閉鎖等,0,2022-04-18,2022-04-04,合同会社アース,,合同会社,千葉県,柏市,豊四季１３番地１,,12,217,2770863,,,2022-04-04,清算の結了等,,,2019-10-21,1,,,,,アース,0
1795,6040005020843,登記記録の閉鎖等,0,2022-04-18,2022-04-08,ＮＰＯ法人ドマーニ,,その他の設立登記法人,千葉県,木更津市,朝日２丁目１番２９号,,12,206,2920055,,,2022-04-08,清算の結了等,,,2020-06-12,1,,,,,ドマーニ,0
1807,6060001000335,登記記録の閉鎖等,0,2022-04-18,2022-04-11,株式会社アズサエステイトプランニング,,株式会社,栃木県,宇都宮市,西２丁目１番２号リバティオーク９０１号室,,09,201,3200861,,,2022-04-11,清算の結了等,,,2015-10-05,1,,,,,アズサエステイトプランニング,0
1810,6060002009103,登記記録の閉鎖等,0,2022-04-18,2022-04-11,有限会社ヤシロ総合建設,,有限会社,栃木県,宇都宮市,城南１丁目２番２０号,,09,201,3210117,,,2022-04-11,清算の結了等,,,2015-10-05,1,,,,,ヤシロソウゴウケンセツ,0
1816,6080102014629,登記記録の閉鎖等,0,2022-04-18,2022-04-15,有限会社西家土建,,有限会社,静岡県,富士市,船津５３０番地,,22,210,4170813,,,2022-04-15,清算の結了等,,,2015-10-05,1,,,,,ニシイエドケン,0
1818,6080402019666,登記記録の閉鎖等,0,2022-04-18,2022-04-11,有限会社杉市建設,,有限会社,静岡県,磐田市,和口２３１番地,,22,211,4380034,,,2022-04-11,清算の結了等,,,2015-10-05,1,,,,,スギイチケンセツ,0
1819,6080402019757,登記記録の閉鎖等,0,2022-04-18,2022-04-08,有限会社テラダ産機,,有限会社,静岡県,磐田市,福田２６７１番地の１,,22,211,4371203,,,2022-04-08,清算の結了等,,,2015-10-05,1,,,,,テラダサンキ,0
1831,6120001147285,登記記録の閉鎖等,0,2022-04-18,2022-04-14,暁金属株式会社,,株式会社,大阪府,寝屋川市,点野５丁目２番２０号,,27,215,5720077,,,2022-04-14,合併による解散等,1120901021890,令和４年４月１日大阪府箕面市船場東一丁目８番１６号日章アステック株式会社（1120901021890）に合併し解散,2015-10-05,1,,,,,,0
1835,6120001227186,登記記録の閉鎖等,0,2022-04-18,2022-04-08,株式会社ＩＫＡＷＡ＆ＴＯＹＯＴＯＭＩ,,株式会社,大阪府,大阪市浪速区,大国１丁目３番８号,,27,111,5560014,,,2022-04-08,清算の結了等,,,2020-02-18,1,,,,,イカワアンドトヨトミ,0
1841,6120002047286,登記記録の閉鎖等,0,2022-04-18,2022-04-08,有限会社ハイアップ,,有限会社,大阪府,大阪市住之江区,新北島３丁目２番４８号,,27,125,5590024,,,2022-04-08,清算の結了等,,,2015-10-05,1,,,,,ハイアップ,0
1847,6120101002811,登記記録の閉鎖等,0,2022-04-18,2022-04-11,株式会社グリーンコープ,,株式会社,大阪府,堺市堺区,向陵中町４丁７番２５号,,27,141,5900024,,,2022-04-11,清算の結了等,,,2015-10-05,1,,,,,グリーンコープ,0
1855,6122002003087,登記記録の閉鎖等,0,2022-04-18,2022-04-08,有限会社チャイミー,,有限会社,大阪府,東大阪市,下小阪１丁目９番５号,,27,227,5770803,,,2022-04-08,清算の結了等,,,2015-10-05,1,,,,,チャイミー,0
1856,6130001016365,登記記録の閉鎖等,0,2022-04-18,2022-04-12,株式会社アクト関西,,株式会社,京都府,京都市下京区,烏丸通綾小路下る二帖半敷町６４６番地,,26,106,6008412,,,2022-04-12,合併による解散等,6120001095170,令和４年４月１日大阪市北区梅田一丁目２番２－１２００号株式会社アクト関西（6120001095170）に合併し解散,2015-10-05,1,,,,,,0
1859,6130002017164,登記記録の閉鎖等,0,2022-04-18,2022-04-06,有限会社ビーテック,,有限会社,京都府,京都市中京区,聚楽廻中町４４番地の７,,26,104,6048403,,,2022-04-06,清算の結了等,,,2015-10-05,1,,,,,,0
1860,6140001067457,登記記録の閉鎖等,0,2022-04-18,2022-04-14,株式会社マティエール,,株式会社,兵庫県,神戸市中央区,生田町１丁目１番２２号,,28,110,6510092,,,2022-04-14,清算の結了等,,,2015-10-05,1,,,,,マティエール,0
1882,6180001021006,登記記録の閉鎖等,0,2022-04-18,2022-04-05,株式会社光正,,株式会社,愛知県,名古屋市中川区,万場１丁目１１０番地,,23,110,4540997,,,2022-04-05,清算の結了等,,,2015-10-05,1,,,,,コウセイ,0
1883,6180001080968,登記記録の閉鎖等,0,2022-04-18,2022-04-08,株式会社ウメダ珈琲卸商,,株式会社,愛知県,丹羽郡大口町,城屋敷１丁目７７番地,,23,361,4800143,,,2022-04-08,清算の結了等,,,2015-10-05,1,,,,,ウメダコーヒーオロシショウ,0
1894,6180003023529,登記記録の閉鎖等,0,2022-04-18,2022-04-06,合同会社ガーベラ,,合同会社,愛知県,名古屋市中区,錦１丁目２０番１９号名神ビル（エイディシーテクノロジー株式会社内）,,23,106,4600003,,,2022-04-06,合併による解散等,8180002071337,令和４年３月２７日愛知県春日井市妙慶町三丁目７０番地の２株式会社足立事務所（8180002071337）に合併し解散,2022-02-28,1,,,,,ガーベラ,0
1917,6260005010104,登記記録の閉鎖等,0,2022-04-18,2022-04-15,一般社団法人岡山県フロン漏えい管理センター,,その他の設立登記法人,岡山県,岡山市北区,大供１丁目２番２７号三電ビル１階,,33,101,7000913,,,2022-04-15,清算の結了等,,,2016-06-07,1,,,,,オカヤマケンフロンロウエイカンリセンター,0
1918,6280002011805,登記記録の閉鎖等,0,2022-04-18,2022-04-15,有限会社落部商店,,有限会社,島根県,雲南市,掛合町掛合２１７７番地１,,32,209,6902701,,,2022-04-15,清算の結了等,,,2015-10-05,1,,,,,,0
1931,6290002048433,登記記録の閉鎖等,0,2022-04-18,2022-04-08,出雲タクシー有限会社,,有限会社,福岡県,久留米市,大石町４０５番地の４,,40,203,8300049,,,2022-04-08,清算の結了等,,,2015-10-05,1,,,,,イズモタクシー,0
1958,6380002027485,登記記録の閉鎖等,0,2022-04-18,2022-04-11,有限会社いわきみなみ運輸,,有限会社,福島県,いわき市,錦町安良町１０４番地,,07,204,9748232,,,2022-04-11,清算の結了等,,,2015-10-05,1,,,,,イワキミナミウンユ,0
1968,6410001001207,登記記録の閉鎖等,0,2022-04-18,2022-04-06,株式会社カーネット,,株式会社,秋田県,秋田市,川尻上野町１番５６号,,05,201,0100947,,,2022-04-06,清算の結了等,,,2015-10-05,1,,,,,,0
1969,6410001012071,登記記録の閉鎖等,0,2022-04-18,2022-04-01,株式会社秋田スパ・アンド・ドライブイン・サービス,,株式会社,秋田県,秋田市,中通２丁目１番３６号,,05,201,0100001,,,2022-04-01,合併による解散等,5370001011293,令和４年４月１日秋田市中通二丁目２番３２号株式会社秋田東北ダイケン（5370001011293）に合併し解散,2019-01-23,1,,,,,アキタスパアンドドライブインサービス,0
1988,6500005002877,登記記録の閉鎖等,0,2022-04-18,2022-03-22,天理教大瀬分教会,00008464,その他の設立登記法人,愛媛県,喜多郡内子町,大瀬中央４４５０番地,,38,422,7913361,,,2022-03-22,合併による解散等,7500005002876,令和４年３月２２日愛媛県喜多郡内子町内子１０３０番地天理教内子分教会（7500005002876）に合併し解散,2015-10-05,1,,,,,テンリキョウオオセブンキョウカイ,0
1997,7010001080744,登記記録の閉鎖等,0,2022-04-18,2022-04-11,センチュリーファイナンス株式会社,,株式会社,福島県,福島市,東中央３丁目２５番地の１ネオハイツ東中央７０３号,,07,201,9608071,,,2022-04-11,清算の結了等,,,2015-10-05,1,,,,,センチュリーファイナンス,0
2007,7010005016835,登記記録の閉鎖等,0,2022-04-18,2022-04-12,山佐ＣＥＳ一般社団法人,,その他の設立登記法人,東京都,千代田区,丸の内３丁目１番１号東京共同会計事務所内,,13,101,1000005,,,2022-04-12,清算の結了等,,,2015-10-05,1,,,,,ヤマサシーイーエス,0
2044,7010902016458,登記記録の閉鎖等,0,2022-04-18,2022-04-13,有限会社リュウダイ,,有限会社,東京都,世田谷区,赤堤２丁目５０番８号,,13,112,1560044,,,2022-04-13,清算の結了等,,,2015-10-05,1,,,,,リュウダイ,0
2049,7011001111984,登記記録の閉鎖等,0,2022-04-18,2022-03-22,株式会社ｗｗｗａａｐ,,株式会社,東京都,渋谷区,東１丁目２６番地３０号宝ビル７階,,13,113,1500011,,,2022-03-22,合併による解散等,8011001070296,令和４年１月４日東京都新宿区下落合四丁目２１番１９号株式会社クオン（8011001070296）に合併し解散,2016-07-22,1,,,,,ワープ,0
2079,7011701011922,登記記録の閉鎖等,0,2022-04-18,2022-04-13,株式会社好成社,,株式会社,東京都,江戸川区,江戸川１丁目４４番地,,13,123,1320013,,,2022-04-13,清算の結了等,,,2015-10-05,1,,,,,コウセイシャ,0
2086,7012801009030,登記記録の閉鎖等,0,2022-04-18,2022-04-11,エイコーフードサービス株式会社,,株式会社,東京都,武蔵村山市,学園１丁目１００番地,,13,223,2080011,,,2022-04-11,清算の結了等,,,2015-10-05,1,,,,,,0
2113,7030001018263,登記記録の閉鎖等,0,2022-04-18,2022-04-08,森田産業株式会社,,株式会社,埼玉県,さいたま市岩槻区,大字南下新井５６４番地の４,,11,110,3390032,,,2022-04-08,清算の結了等,,,2015-10-05,1,,,,,モリタサンギョウ,0
2114,7030001019897,登記記録の閉鎖等,0,2022-04-18,2022-04-13,板橋化学株式会社,,株式会社,埼玉県,さいたま市桜区,新開１丁目２５番８号,,11,106,3380834,,,2022-04-13,合併による解散等,4010001039917,令和４年４月１日東京都中央区日本橋本町三丁目９番２号川口薬品株式会社（4010001039917）に合併し解散,2015-10-05,1,,,,,イタバシカガク,0
2118,7030001040151,登記記録の閉鎖等,0,2022-04-18,2022-04-11,アタック株式会社,,株式会社,埼玉県,三郷市,半田４１８番地,,11,237,3410012,,,2022-04-11,清算の結了等,,,2015-10-05,1,,,,,アタック,0
2127,7040001019252,登記記録の閉鎖等,0,2022-04-18,2022-04-11,株式会社京葉縫製,,株式会社,千葉県,船橋市,南三咲３丁目５番５１号,,12,204,2740813,,,2022-04-11,清算の結了等,,,2015-10-05,1,,,,,,0
2129,7040001081756,登記記録の閉鎖等,0,2022-04-18,2022-04-12,ＢＲエステート株式会社,,株式会社,千葉県,柏市,南柏中央３番地６,,12,217,2770075,,,2022-04-12,合併による解散等,3030001060211,令和４年４月１日埼玉県本庄市西富田７６２番地１ケイアイスター不動産株式会社（3030001060211）に合併し解散,2015-10-05,1,,,,,ビーアールエステート,0
2152,7050001042732,登記記録の閉鎖等,0,2022-04-18,2022-04-01,株式会社田口興業,,株式会社,茨城県,鉾田市,当間１７５５番地１９,,08,234,3111528,,,2022-04-01,清算の結了等,,,2017-05-11,1,,,,,タグチコウギョウ,0
2156,7050002039372,登記記録の閉鎖等,0,2022-04-18,2022-04-04,有限会社トム,,有限会社,茨城県,つくばみらい市,絹の台２丁目９番地４,,08,235,3002436,,,2022-04-04,清算の結了等,,,2015-10-05,1,,,,,トム,0
2158,7060001021413,登記記録の閉鎖等,0,2022-04-18,2022-04-06,株式会社オーエムエンジ,,株式会社,栃木県,佐野市,葛生西１丁目３番３４号,,09,204,3270507,,,2022-04-06,合併による解散等,5060001020978,令和４年４月１日栃木県佐野市葛生西一丁目３番３４号株式会社オオガノ（5060001020978）に合併し解散,2015-10-05,1,,,,,オーエムエンジ,0
2169,7080402020730,登記記録の閉鎖等,0,2022-04-18,2022-04-08,有限会社伊藤製作所,,有限会社,静岡県,磐田市,掛塚１３４６番地,,22,211,4380234,,,2022-04-08,清算の結了等,,,2015-10-05,1,,,,,イトウセイサクショ,0
2176,7110002031447,登記記録の閉鎖等,0,2022-04-18,2022-04-11,有限会社会卯メリヤス,,有限会社,新潟県,見附市,本町３丁目６番１８号,,15,211,9540053,,,2022-04-11,清算の結了等,,,2015-10-05,1,,,,,アイウメリヤス,0
2182,7120001227185,登記記録の閉鎖等,0,2022-04-18,2022-04-08,株式会社ＴＯＹＯＴＯＭＩ＆ＩＫＡＷＡ,,株式会社,大阪府,大阪市浪速区,戎本町１丁目９番２１号,,27,111,5560013,,,2022-04-08,清算の結了等,,,2020-02-17,1,,,,,トヨトミアンドイカワ,0
2196,7120102004632,登記記録の閉鎖等,0,2022-04-18,2022-04-12,有限会社ミット配ぜん人紹介所,,有限会社,大阪府,堺市西区,鳳北町９丁５２０番地の１（１３０５号）,,27,144,5938328,,,2022-04-12,清算の結了等,,,2015-10-05,1,,,,,ミットハイゼンニンショウカイショ,0
2197,7120105005990,登記記録の閉鎖等,0,2022-04-18,2022-03-24,天理教名泉分教会,,その他の設立登記法人,大阪府,岸和田市,南上町１丁目３２番３０号,,27,202,5960078,,,2022-03-24,合併による解散等,2170005000646,令和４年３月２３日和歌山市吹上二丁目４番３３号天理教名草分教会（2170005000646）に合併し解散,2015-10-05,1,,,,,,0
2209,7140001041436,登記記録の閉鎖等,0,2022-04-18,2022-04-01,大寿コンクリート株式会社,,株式会社,兵庫県,丹波市,山南町谷川２１７１番地の１,,28,223,6693131,,,2022-04-01,合併による解散等,4140001041414,令和４年４月１日兵庫県丹波市山南町草部４４８番地１関西ポラコン株式会社（4140001041414）に合併し解散,2015-10-05,1,,,,,ダイジュコンクリート,0
2220,7180001026433,登記記録の閉鎖等,0,2022-04-18,2022-04-01,ネッツトヨタ名古屋株式会社,,株式会社,愛知県,名古屋市西区,笹塚町２丁目９０番地,00080474,23,104,4510077,,,2022-04-01,合併による解散等,6180001090513,令和４年４月１日名古屋市熱田区尾頭町２番２２号ＮＴＰホールディングス株式会社（6180001090513）に合併し解散,2015-10-05,1,,,,,ネッツトヨタナゴヤ,0
2239,7180301019013,登記記録の閉鎖等,0,2022-04-18,2022-04-11,株式会社ネオックスラボ,,株式会社,愛知県,豊田市,陣中町２丁目１９番地６,,23,211,4710079,,,2022-04-11,清算の結了等,,,2015-10-05,1,,,,,ネオックスラボ,0
2264,7270003000848,登記記録の閉鎖等,0,2022-04-18,2022-04-04,合同会社ティエム,,合同会社,鳥取県,米子市,淀江町今津１２８番地１３,,31,202,6893401,,,2022-04-04,清算の結了等,,,2015-10-05,1,,,,,ティエム,0
2267,7290001095161,登記記録の閉鎖等,0,2022-04-18,2022-04-08,株式会社Ｃ‐ＢＥＳ,,株式会社,福岡県,久留米市,東町３５番地３,,40,203,8300032,,,2022-04-08,合併による解散等,2290001048735,令和４年３月３１日福岡県久留米市百年公園１番１号久留米・鳥栖広域情報株式会社（2290001048735）に合併し解散,2021-11-01,1,,,,,シーベス,0
2279,7320001015586,登記記録の閉鎖等,0,2022-04-18,2022-04-11,株式会社ハウジングライフ,,株式会社,大分県,大分市,坂ノ市中央１丁目７番３３号,,44,201,8700307,,,2022-04-11,清算の結了等,,,2017-04-17,1,,,,,ハウジングライフ,0
2290,7370001006275,登記記録の閉鎖等,0,2022-04-18,2022-04-12,エア・ウォーター食品物流株式会社,,株式会社,宮城県,仙台市宮城野区,扇町５丁目９番８号,,04,102,9830034,,,2022-04-12,合併による解散等,4020001055806,令和４年４月１日横浜市港北区新横浜二丁目１１番地５川浅ビル東日本エア・ウォーター物流株式会社（4020001055806）に合併し解散,2015-10-05,1,,,,,,0
2293,7370005002213,登記記録の閉鎖等,0,2022-04-18,2022-04-06,特定非営利活動法人スモリ,,その他の設立登記法人,宮城県,仙台市宮城野区,福室字明神西５９番地１,,04,102,9830005,,,2022-04-06,清算の結了等,,,2015-10-05,1,,,,,スモリ,0
2297,7380003004301,登記記録の閉鎖等,0,2022-04-18,2022-04-12,株式会社ＡＲＭＯＵＲ,,株式会社,東京都,新宿区,早稲田鶴巻町３０８番地ＶＩＴＡＶＩＶＡＣＥ４０１,,13,104,1620041,,,2022-04-12,清算の結了等,,,2018-08-03,1,,,,,アーマー,0
2313,7490001006577,登記記録の閉鎖等,0,2022-04-18,2022-04-07,株式会社弥生ファーム,,株式会社,高知県,香美市,香北町韮生野４３４番地,,39,212,7814211,,,2022-04-07,清算の結了等,,,2015-10-05,1,,,,,ヤヨイファーム,0
2317,7500005000368,登記記録の閉鎖等,0,2022-04-18,2022-03-22,天理教愛孝生分教会,,その他の設立登記法人,愛媛県,松山市,高岡町６７８番地,,38,201,7918036,,,2022-03-22,合併による解散等,7500005002876,令和４年３月２２日愛媛県喜多郡内子町内子１０３０番地天理教内子分教会（7500005002876）に合併し解散,2015-10-05,1,,,,,テンリキョウアイコウブンキョウカイ,0
2349,8010905001365,登記記録の閉鎖等,0,2022-04-18,2022-04-13,特定非営利活動法人ＴＵＡ東京審判協会,,その他の設立登記法人,東京都,世田谷区,玉堤１丁目１９番２５号,,13,112,1580087,,,2022-04-13,清算の結了等,,,2015-10-05,1,,,,,テイユウエトウキョウシンパンキョウカイ,0
2354,8011001121900,登記記録の閉鎖等,0,2022-04-18,2022-04-05,株式会社ＮＥＸＴ,,株式会社,東京都,渋谷区,渋谷１丁目８番５号,,13,113,1500002,,,2022-04-05,清算の結了等,,,2018-04-26,1,,,,,ネクスト,0
2364,8011101022767,登記記録の閉鎖等,0,2022-04-18,2022-04-11,綾和産業株式会社,,株式会社,東京都,町田市,金井ヶ丘４丁目２７番３１号,,13,209,1950076,,,2022-04-11,清算の結了等,,,2015-10-05,1,,,,,リョウワサンギョウ,0
2375,8011802009451,登記記録の閉鎖等,0,2022-04-18,2022-04-08,有限会社イイジマプランニング,,有限会社,東京都,足立区,島根４丁目９番５号,,13,121,1210815,,,2022-04-08,清算の結了等,,,2015-10-05,1,,,,,イイジマプランニング,0
2386,8020001025953,登記記録の閉鎖等,0,2022-04-18,2022-04-08,神奈川自動車株式会社,,株式会社,神奈川県,横浜市中区,千歳町１番１１,,14,104,2310035,,,2022-04-08,清算の結了等,,,2015-10-05,1,,,,,カナガワジドウシャ,0
2406,8030001062228,登記記録の閉鎖等,0,2022-04-18,2022-04-06,バンビ工業株式会社,,株式会社,埼玉県,鴻巣市,箕田１７８０番地５,,11,217,3650062,,,2022-04-06,合併による解散等,9030001062227,令和４年４月１日埼玉県鴻巣市箕田１７８０番地５バンビマニュファクチャリング株式会社（9030001062227）に合併し解散,2015-10-05,1,,,,,バンビコウギョウ,0
2425,8030002094154,登記記録の閉鎖等,0,2022-04-18,2022-04-08,有限会社中榮設備工業所,,有限会社,埼玉県,入間郡毛呂山町,大字前久保８６８番地の２,,11,326,3500442,,,2022-04-08,清算の結了等,,,2015-10-05,1,,,,,チュウエイセツビコウギョウショ,0
2433,8040001001250,登記記録の閉鎖等,0,2022-04-18,2022-04-13,株式会社をざわ,,株式会社,東京都,板橋区,成増３丁目３１番６号２階,,13,119,1750094,,,2022-04-13,清算の結了等,,,2015-10-05,1,,,,,ヲザワ,0
2439,8040001108500,登記記録の閉鎖等,0,2022-04-18,2022-04-05,株式会社アース,,株式会社,千葉県,柏市,明原４丁目７番６－１０７号,,12,217,2770843,,,2022-04-05,清算の結了等,,,2019-03-27,1,,,,,アース,0
2451,8050001035660,登記記録の閉鎖等,0,2022-04-18,2022-04-08,株式会社なごみ,,株式会社,茨城県,筑西市,舟生１０７３番地２２２,,08,227,3080111,,,2022-04-08,清算の結了等,,,2015-10-05,1,,,,,ナゴミ,0
2455,8050002043555,登記記録の閉鎖等,0,2022-04-18,2022-04-06,有限会社石仁,,有限会社,茨城県,筑西市,成井３８４番地の１,,08,227,3004533,,,2022-04-06,清算の結了等,,,2015-10-05,1,,,,,,0
2467,8080102019428,登記記録の閉鎖等,0,2022-04-18,2022-04-14,有限会社今井木工場,,有限会社,静岡県,伊東市,和田２丁目２番２号,,22,208,4140024,,,2022-04-14,清算の結了等,,,2015-10-05,1,,,,,イマイモッコウジョ,0
2488,8120001156359,登記記録の閉鎖等,0,2022-04-18,2022-04-05,ＵＴパベック株式会社,,株式会社,東京都,品川区,東五反田１丁目１１番１５号,,13,109,1410022,,,2022-04-05,合併による解散等,1010701019700,令和４年４月１日東京都品川区東五反田一丁目１１番１５号ＵＴエイム株式会社（1010701019700）に合併し解散,2015-10-05,1,,,,,ユーティーパベック,0
2493,8120002047235,登記記録の閉鎖等,0,2022-04-18,2022-04-11,有限会社レイズ,,有限会社,大阪府,大阪市住之江区,東加賀屋３丁目１６番２５号,,27,125,5590012,,,2022-04-11,清算の結了等,,,2015-10-05,1,,,,,レイズ,0
2508,8130002002825,登記記録の閉鎖等,0,2022-04-18,2022-04-11,有限会社久喜,,有限会社,京都府,京都市上京区,桝形通寺町東入三栄町５６番地,,26,102,6020826,,,2022-04-11,清算の結了等,,,2015-10-05,1,,,,,ヒサキ,0
2525,8160002001428,登記記録の閉鎖等,0,2022-04-18,2022-04-13,有限会社服部商事,,有限会社,滋賀県,大津市,山上町２番４３号,,25,201,5200038,,,2022-04-13,清算の結了等,,,2015-10-05,1,,,,,ハットリショウジ,0
2535,8180001111440,登記記録の閉鎖等,0,2022-04-18,2022-04-05,株式会社レインズ北海道,,株式会社,神奈川県,横浜市西区,みなとみらい２丁目２番１号ランドマークタワー１２階,,14,103,2200012,,,2022-04-05,合併による解散等,5010401071849,令和４年３月３１日横浜市西区みなとみらい二丁目２番１号ランドマークタワー１２階株式会社レインズインターナショナル（5010401071849）に合併し解散,2015-10-05,1,,,,,レインズホッカイドウ,0
2589,8290802013592,登記記録の閉鎖等,0,2022-04-18,2022-04-08,有限会社大貝写真館,,有限会社,福岡県,北九州市八幡西区,熊手１丁目１番７号,,40,109,8060028,,,2022-04-08,清算の結了等,,,2015-10-05,1,,,,,,0
2592,8310001004894,登記記録の閉鎖等,0,2022-04-18,2022-04-14,九州イーグル株式会社,,株式会社,長崎県,長崎市,五島町３番２５号,,42,201,8500036,,,2022-04-14,清算の結了等,,,2015-10-05,1,,,,,キュウシュウイーグル,0
2599,8330002028783,登記記録の閉鎖等,0,2022-04-18,2022-04-06,有限会社天祐堂天草医科器械,,有限会社,熊本県,天草市,亀場町食場９５９番地,,43,215,8630046,,,2022-04-06,清算の結了等,,,2015-10-05,1,,,,,テンユウドウアマクサイカキカイ,0
2610,8370001013510,登記記録の閉鎖等,0,2022-04-18,2022-04-12,東北ニッソーサービス株式会社,,株式会社,宮城県,仙台市宮城野区,宮城野１丁目５番２７号,,04,102,9830045,,,2022-04-12,合併による解散等,9011001017676,令和４年４月１日東京都渋谷区神宮前二丁目２１番９号ヒトトヒト株式会社（9011001017676）に合併し解散,2015-10-05,1,,,,,,0
2634,9010001102637,登記記録の閉鎖等,0,2022-04-18,2022-04-11,株式会社シグマ２８,,株式会社,東京都,多摩市,鶴牧１丁目１番１６号,,13,224,2060034,,,2022-04-11,清算の結了等,,,2015-10-05,1,,,,,シグマニジュウハチ,0
2646,9010005024084,登記記録の閉鎖等,0,2022-04-18,2022-04-11,一般社団法人新潟新発田,,その他の設立登記法人,東京都,千代田区,一番町９番地８ノザワビルディング６階税理士法人シリウス内,,13,101,1020082,,,2022-04-11,清算の結了等,,,2015-10-05,1,,,,,ニイガタシバタ,0
2647,9010005025586,登記記録の閉鎖等,0,2022-04-18,2022-04-12,一般社団法人錦一丁目開発,,その他の設立登記法人,東京都,千代田区,丸の内３丁目１番１号東京共同会計事務所内,,13,101,1000005,,,2022-04-12,清算の結了等,,,2016-07-26,1,,,,,ニシキイッチョウメカイハツ,0
2672,9010901047287,登記記録の閉鎖等,0,2022-04-18,2022-04-12,株式会社パウリスタ,,株式会社,東京都,世田谷区,北沢２丁目１２番２号,,13,112,1550031,,,2022-04-12,清算の結了等,,,2020-10-26,1,,,,,パウリスタ,0
2673,9010902019038,登記記録の閉鎖等,0,2022-04-18,2022-04-14,有限会社明和商事,,有限会社,東京都,練馬区,石神井台１丁目１０番８号,,13,120,1770045,,,2022-04-14,清算の結了等,,,2015-10-05,1,,,,,メイワショウジ,0
2679,9011101020885,登記記録の閉鎖等,0,2022-04-18,2022-04-12,室町不動産株式会社,,株式会社,東京都,新宿区,新宿１丁目８番５号,,13,104,1600022,,,2022-04-12,合併による解散等,2011101020883,令和４年４月１日東京都新宿区新宿一丁目８番５号室町不動産クリエイト株式会社（2011101020883）に合併し解散,2015-10-05,1,,,,,ムロマチフドウサン,0
2722,9030001015993,登記記録の閉鎖等,0,2022-04-18,2022-04-07,株式会社Ｉ　Ｋ　Ｕ　Ｏ,,株式会社,埼玉県,さいたま市見沼区,春野３丁目１４番７号,,11,104,3370002,,,2022-04-07,清算の結了等,,,2015-10-05,1,,,,,イクオ,0
2759,9040002080391,登記記録の閉鎖等,0,2022-04-18,2022-04-11,有限会社ゼフィルス,,有限会社,千葉県,長生郡白子町,古所字葭野３２５０番地８１３,,12,424,2994212,,,2022-04-11,清算の結了等,,,2015-10-05,1,,,,,ゼフィルス,0
2760,9040003000596,登記記録の閉鎖等,0,2022-04-18,2022-04-11,合同会社ソルミオ,,合同会社,千葉県,習志野市,津田沼５丁目１３番４－６０３号,,12,216,2750016,,,2022-04-11,清算の結了等,,,2015-10-05,1,,,,,ソルミオ,0
2762,9040003010595,登記記録の閉鎖等,0,2022-04-18,2022-04-07,アイ・アンド・アイ合同会社,,合同会社,千葉県,浦安市,明海５丁目２番Ａ－１００１号パークシティ新浦安,,12,227,2790014,,,2022-04-07,清算の結了等,,,2017-09-12,1,,,,,アイアンドアイ,0
2767,9050002018630,登記記録の閉鎖等,0,2022-04-18,2022-04-11,有限会社福田物流倉庫,,有限会社,茨城県,猿島郡境町,大字蛇池８０５番地の９,,08,546,3060403,,,2022-04-11,清算の結了等,,,2015-10-05,1,,,,,フクダブツリュウソウコ,0
2772,9060005002226,登記記録の閉鎖等,0,2022-04-18,2022-04-07,特定非営利活動法人那珂川流域悠遊会,,その他の設立登記法人,栃木県,那須烏山市,中央２丁目６番８号,,09,215,3210621,,,2022-04-07,清算の結了等,,,2015-10-05,1,,,,,ナカガワリュウイキユウユウカイ,0
2783,9090002013586,登記記録の閉鎖等,0,2022-04-18,2022-04-12,有限会社峡北調剤薬局,,有限会社,山梨県,韮崎市,本町３丁目４番４０号,,19,207,4070024,,,2022-04-12,合併による解散等,9010401095530,令和４年４月１日東京都千代田区丸の内一丁目９番２号株式会社ストレチア（9010401095530）に合併し解散,2015-10-05,1,,,,,キョウホクチョウザイヤッキョク,0
2791,9120001185638,登記記録の閉鎖等,0,2022-04-18,2022-04-08,株式会社ヘルシー,,株式会社,大阪府,大阪市生野区,田島２丁目９番２０号,,27,116,5440011,,,2022-04-08,清算の結了等,,,2015-10-05,1,,,,,ヘルシー,0
2817,9120903001454,登記記録の閉鎖等,0,2022-04-18,2022-04-14,合同会社吉田アセットマネジメント,,合同会社,大阪府,箕面市,桜ケ丘３丁目１４番７号,,27,220,5620046,,,2022-04-14,清算の結了等,,,2015-10-05,1,,,,,ヨシダアセットマネジメント,0
2835,9140001095190,登記記録の閉鎖等,0,2022-04-18,2022-04-01,株式会社Ａｄｖａｎｃｅ,,株式会社,兵庫県,神戸市北区,星和台６丁目１６番地の５,,28,109,6511121,,,2022-04-01,清算の結了等,,,2015-10-05,1,,,,,アドヴァンス,0
2843,9170005004070,登記記録の閉鎖等,0,2022-04-18,2022-03-30,天理教請川分教会,,その他の設立登記法人,和歌山県,田辺市,本宮町請川４２１番地,,30,206,6471703,,,2022-03-30,合併による解散等,6170005005518,令和４年３月３０日和歌山県東牟婁郡那智勝浦町大字勝浦８７２番地の８、８７２番地の１５天理教紀東分教会（6170005005518）に合併し解散,2015-10-05,1,,,,,テンリキョウウケガワブンキョウカイ,0
2845,9170005005523,登記記録の閉鎖等,0,2022-04-18,2022-03-30,天理教那智分教会,,その他の設立登記法人,和歌山県,東牟婁郡那智勝浦町,大字二河１３５３番地の１,,30,421,6495338,,,2022-03-30,合併による解散等,3170005005520,令和４年３月３０日和歌山県東牟婁郡那智勝浦町大字中の川５９６番地天理教太田分教会（3170005005520）に合併し解散,2015-10-05,1,,,,,テンリキョウナチブンキョウカイ,0
2848,9180001067038,登記記録の閉鎖等,0,2022-04-18,2022-04-05,株式会社セントルージュ,,株式会社,愛知県,岡崎市,井ノ口新町２番地１０アルテ岡崎北１Ｆ,,23,202,4442132,,,2022-04-05,清算の結了等,,,2015-10-05,1,,,,,セントルージュ,0
2849,9180001073688,登記記録の閉鎖等,0,2022-04-18,2022-04-08,石黒株式会社,,株式会社,愛知県,春日井市,春日井上ノ町字割畑１番地,,23,206,4860961,,,2022-04-08,清算の結了等,,,2015-10-05,1,,,,,イシグロ,0
2868,9180302026667,登記記録の閉鎖等,0,2022-04-18,2022-04-06,有限会社岩瀬,,有限会社,愛知県,西尾市,吉良町上横須賀蔵屋敷７３番地３,,23,213,4440521,,,2022-04-06,清算の結了等,,,2015-10-05,1,,,,,イワセ,0
2870,9190001004089,登記記録の閉鎖等,0,2022-04-18,2022-04-06,株式会社おがわ,,株式会社,三重県,津市,緑が丘２丁目１０番地８,,24,201,5140825,,,2022-04-06,清算の結了等,,,2015-10-05,1,,,,,オガワ,0
2880,9210002010109,登記記録の閉鎖等,0,2022-04-18,2022-04-05,有限会社上山電気工事,,有限会社,福井県,敦賀市,中央町２丁目６番１８号,,18,202,9140811,,,2022-04-05,清算の結了等,,,2015-10-05,1,,,,,ウエヤマデンキコウジ,0
2891,9260005000093,登記記録の閉鎖等,0,2022-04-18,2022-04-14,一般社団法人岡山県森林協会,,その他の設立登記法人,岡山県,岡山市中区,高屋２２５番地１,,33,102,7038233,,,2022-04-14,合併による解散等,3260005006633,令和４年４月１日岡山県津山市二宮１８４９番地２公益社団法人おかやまの森整備公社（3260005006633）に合併し解散,2015-10-05,1,,,,,オカヤマケンシンリンキョウカイ,0
2892,9260005001488,登記記録の閉鎖等,0,2022-04-18,2022-04-18,医療法人遠藤医院,,その他の設立登記法人,岡山県,岡山市東区,神崎町１９１３番地の８,,33,103,7048138,,,2022-04-18,清算の結了等,,,2015-10-05,1,,,,,エンドウイイン,0
2894,9290001035859,登記記録の閉鎖等,0,2022-04-18,2022-04-11,株式会社エイチアンドエス,,株式会社,福岡県,福岡市東区,香椎照葉３丁目２－４－８１５,,40,131,8130017,,,2022-04-11,清算の結了等,,,2015-10-05,1,,,,,エイチアンドエス,0
2902,9290003001116,登記記録の閉鎖等,0,2022-04-18,2022-04-08,合同会社ＧＣＢ,,合同会社,福岡県,福岡市博多区,住吉２丁目２番１号,,40,132,8120018,,,2022-04-08,清算の結了等,,,2015-10-05,1,,,,,ジーシービー,0
2904,9290802004673,登記記録の閉鎖等,0,2022-04-18,2022-04-11,有限会社中野工務所,,有限会社,福岡県,北九州市戸畑区,中原東３丁目７番２７号,,40,105,8040012,,,2022-04-11,清算の結了等,,,2015-10-05,1,,,,,,0
2918,9380001020091,登記記録の閉鎖等,0,2022-04-18,2022-04-12,株式会社シャンドール,,株式会社,福島県,双葉郡大熊町,大字夫沢字中央台４４０番地,,07,545,9791301,,,2022-04-12,清算の結了等,,,2015-10-05,1,,,,,シャンドール,0
2936,9440005001718,登記記録の閉鎖等,0,2022-04-18,2022-03-18,天理教北丹羽分教会,,その他の設立登記法人,北海道,久遠郡せたな町,北檜山区丹羽１１番地,,01,371,0494433,,,2022-03-18,合併による解散等,7440005001645,令和４年３月１８日北海道山越郡長万部町字長万部１５番地天理教瀬棚分教会（7440005001645）に合併し解散,2015-10-05,1,,,,,テンリキョウキタニワブンキョウカイ,0
2938,9500002017842,登記記録の閉鎖等,0,2022-04-18,2022-04-12,有限会社エイワ,,有限会社,愛媛県,今治市,玉川町中村甲７２０番地３,,38,202,7940111,,,2022-04-12,清算の結了等,,,2015-10-05,1,,,,,エイワ,0
