sequenceNumber,corporateNumber,process,correct,updateDate,changeDate,name,nameImageId,kind,prefectureName,cityName,streetNumber,addressImageId,prefectureCode,cityCode,postCode,addressOutside,addressOutsideImageId,closeDate,closeCause,successorCorporateNumber,changeCause,assignmentDate,latest,enName,enPrefectureName,enCityName,enAddressOutside,furigana,hihyoji
7,1010001234108,新規,0,2023-04-04,2023-04-04,株式会社ソリッドマテリアルトレーディング,,株式会社,東京都,中央区,日本橋茅場町３丁目２番２号ＥＫＫビル,,13,102,1030025,,,,,,,2023-04-04,1,,,,,ソリッドマテリアルトレーディング,0
8,1010003040207,新規,0,2023-04-04,2023-04-04,合同会社クラインジャパン,,合同会社,東京都,千代田区,大手町１丁目７番２号東京サンケイビル２７階,,13,101,1000004,,,,,,,2023-04-04,1,,,,,クラインジャパン,0
10,1010401173401,新規,0,2023-04-04,2023-04-04,株式会社ブロンディカレッジ,,株式会社,東京都,港区,浜松町２丁目２－１５浜松ダイヤビル２Ｆ,,13,103,1050013,,,,,,,2023-04-04,1,,,,,ブロンディカレッジ,0
11,1010401173483,新規,0,2023-04-04,2023-04-04,株式会社文化区,,株式会社,東京都,港区,赤坂３丁目４番３号,,13,103,1070052,,,,,,,2023-04-04,1,,,,,ブンカク,0
16,1010601062841,新規,0,2023-04-04,2023-04-04,松田株式会社,,株式会社,東京都,墨田区,江東橋２丁目９番５号パークタワー錦糸町２４０４号,,13,107,1300022,,,,,,,2023-04-04,1,,,,,マツダ,0
26,1011103012896,新規,0,2023-04-04,2023-04-04,合同会社ＣＬＥＥＫ,,合同会社,東京都,新宿区,新宿２丁目３番１１号,,13,104,1600022,,,,,,,2023-04-04,1,,,,,クリーク,0
31,1011703003428,新規,0,2023-04-04,2023-04-04,ＶＨＢＢｒｏｔｈｅｒｓ合同会社,,合同会社,東京都,江戸川区,平井５丁目２０番１３－９０４号欣志ビル,,13,123,1320035,,,,,,,2023-04-04,1,,,,,ブイエイチビーブラザーズ,0
32,1011705001776,新規,0,2023-04-04,2023-04-04,一般社団法人集合住宅自治支援協会,,その他の設立登記法人,東京都,江戸川区,臨海町５丁目１番,,13,123,1340086,,,,,,,2023-04-04,1,,,,,シュウゴウジュウタクジチシエンキョウカイ,0
35,1012401040341,新規,0,2023-04-04,2023-04-04,株式会社アリ造園土木,,株式会社,東京都,府中市,是政３丁目６３－３６,,13,206,1830014,,,,,,,2023-04-04,1,,,,,アリゾウエンドボク,0
41,1020003023631,新規,0,2023-04-04,2023-04-04,オールホワイト合同会社,,合同会社,神奈川県,横浜市鶴見区,栄町通４丁目４９‐９‐３０２,,14,101,2300038,,,,,,,2023-04-04,1,,,,,オールホワイト,0
46,1021001078584,新規,0,2023-04-04,2023-04-04,株式会社Ｍｏｄｅ・Ｐｏｐ,,株式会社,神奈川県,海老名市,下今泉１丁目８番３２号,,14,215,2430435,,,,,,,2023-04-04,1,,,,,モードポップ,0
59,1030001153165,新規,0,2023-04-04,2023-04-04,５Ａマネジメント株式会社,,株式会社,埼玉県,川越市,野田町１丁目１２番地４２,,11,201,3501115,,,,,,,2023-04-04,1,,,,,ファイブエーマネジメント,0
61,1030005021186,新規,0,2023-04-04,2023-04-04,医療法人とも歯科矯正歯科クリニック,,その他の設立登記法人,埼玉県,上尾市,大字今泉１６番地２,,11,219,3620047,,,,,,,2023-04-04,1,,,,,トモシカキョウセイシカクリニック,0
63,1040001127754,新規,0,2023-04-04,2023-04-04,株式会社ピークラウンジ,,株式会社,千葉県,市川市,妙典４丁目５番２５－２０２号,,12,203,2720111,,,,,,,2023-04-04,1,,,,,ピークラウンジ,0
70,1050003007375,新規,0,2023-04-04,2023-04-04,合同会社寿ハウジング,,合同会社,茨城県,水戸市,姫子１丁目８０５番地の１フローラル姫子Ｉ－２０５,,08,201,3114151,,,,,,,2023-04-04,1,,,,,コトブキハウジング,0
71,1060001035848,新規,0,2023-04-04,2023-04-04,株式会社あらい工業,,株式会社,栃木県,宇都宮市,鶴田町２１５０番地１０コーポあらえ２０２号室,,09,201,3200851,,,,,,,2023-04-04,1,,,,,アライコウギョウ,0
73,1070001040269,新規,0,2023-04-04,2023-04-04,株式会社ＥＣＯ’Ｓ,,株式会社,群馬県,佐波郡玉村町,大字福島１２８８番地５ルシア１０４,,10,464,3701105,,,,,,,2023-04-04,1,,,,,エコス,0
76,1070003004882,新規,0,2023-04-04,2023-04-04,合同会社ＴＭＷ,,合同会社,群馬県,前橋市,荻窪町８２５番地１,,10,201,3710001,,,,,,,2023-04-04,1,,,,,ティーエムダブリュー,0
89,1120001253617,新規,0,2023-04-04,2023-04-04,ネクストシステム株式会社,,株式会社,大阪府,大阪市西成区,北津守２丁目２番１３号,,27,122,5570061,,,,,,,2023-04-04,1,,,,,ネクストシステム,0
90,1120001253674,新規,0,2023-04-04,2023-04-04,株式会社ブルースカイ,,株式会社,大阪府,大阪市北区,梅田１丁目１－３大阪駅前第３ビル９１１号,,27,127,5300001,,,,,,,2023-04-04,1,,,,,ブルースカイ,0
94,1120103005148,新規,0,2023-04-04,2023-04-04,合同会社エヌズワークス,,合同会社,大阪府,藤井寺市,林２丁目３－２９林テラス,,27,226,5830007,,,,,,,2023-04-04,1,,,,,エヌズワークス,0
97,1120901047358,新規,0,2023-04-04,2023-04-04,株式会社ちひろ興業,,株式会社,大阪府,吹田市,岸部北５丁目４４番５号スカイ第３ビル２階,,27,205,5640001,,,,,,,2023-04-04,1,,,,,チヒロコウギョウ,0
102,1122001036844,新規,0,2023-04-04,2023-04-04,株式会社中上工務店,,株式会社,大阪府,八尾市,志紀町南２丁目４９番地の３,,27,212,5810033,,,,,,,2023-04-04,1,,,,,ナカガミコウムテン,0
104,1130001074013,新規,0,2023-04-04,2023-04-04,常楽不動産株式会社,,株式会社,京都府,京都市北区,小山西花池町２８番地,,26,101,6038148,,,,,,,2023-04-04,1,,,,,ジョウラクフドウサン,0
108,1140001129591,新規,0,2023-04-04,2023-04-04,株式会社Ｓ‐ｃｏｎｎｅｃｔ,,株式会社,兵庫県,西宮市,中殿町３番２８号,,28,204,6620852,,,,,,,2023-04-04,1,,,,,エスコネクト,0
109,1140001129617,新規,0,2023-04-04,2023-04-04,株式会社玉子公園,,株式会社,兵庫県,神戸市灘区,水道筋６丁目１番３号,,28,102,6570831,,,,,,,2023-04-04,1,,,,,タマゴコウエン,0
110,1140001129625,新規,0,2023-04-04,2023-04-04,株式会社ラタンハウス,,株式会社,兵庫県,川西市,石道字下ノ山２番地,,28,217,6660156,,,,,,,2023-04-04,1,,,,,ラタンハウス,0
113,1140003018909,新規,0,2023-04-04,2023-04-04,合同会社Ｇ‐ｄｏｇ,,合同会社,兵庫県,加古川市,野口町北野７３１番地の１,,28,210,6750011,,,,,,,2023-04-04,1,,,,,ジードッグ,0
115,1140005026546,新規,0,2023-04-04,2023-04-04,医療法人社団むさし歯科医院,,その他の設立登記法人,兵庫県,神戸市灘区,岩屋中町４丁目３番１５号,,28,102,6570845,,,,,,,2023-04-04,1,,,,,ムサシシカイイン,0
117,1150005009467,新規,0,2023-04-04,2023-04-04,一般社団法人ロマントピア月ヶ瀬,,その他の設立登記法人,奈良県,奈良市,月ヶ瀬長引７１１番地の１,,29,201,6302303,,,,,,,2023-04-04,1,,,,,ロマントピアツキガセ,0
121,1160003002836,新規,0,2023-04-04,2023-04-04,合同会社一燈ＦＰ事務所,,合同会社,滋賀県,大津市,日吉台１丁目６－１１,,25,201,5200112,,,,,,,2023-04-04,1,,,,,イットウエフピージムショ,0
130,1180001155675,新規,0,2023-04-04,2023-04-04,株式会社宗野電設,,株式会社,愛知県,豊明市,阿野町稲葉７４番地５４,,23,229,4701144,,,,,,,2023-04-04,1,,,,,ムネノデンセツ,0
136,1190001030282,新規,0,2023-04-04,2023-04-04,株式会社田中製作所,,株式会社,三重県,いなべ市,員弁町畑新田５１０番地,,24,214,5110203,,,,,,,2023-04-04,1,,,,,タナカセイサクジョ,0
138,1200003005909,新規,0,2023-04-04,2023-04-04,合同会社ＴＯＰ　ＡＮＧＬＥ,,合同会社,岐阜県,瑞穂市,野田新田４１２８番地２,,21,216,5010232,,,,,,,2023-04-04,1,,,,,トップアングル,0
142,1220003003489,新規,0,2023-04-04,2023-04-04,ＫＭＳ合同会社,,合同会社,石川県,金沢市,窪４丁目２０３番地,,17,201,9218151,,,,,,,2023-04-04,1,,,,,ケイエムエス,0
143,1240001061280,新規,0,2023-04-04,2023-04-04,株式会社ユナイテッド,,株式会社,広島県,世羅郡世羅町,大字本郷４２番地１,,34,462,7221112,,,,,,,2023-04-04,1,,,,,ユナイテッド,0
147,1260001037799,新規,0,2023-04-04,2023-04-04,株式会社ＬＯＣＫ　ＵＰ,,株式会社,岡山県,倉敷市,加須山１６２番地１,,33,202,7100026,,,,,,,2023-04-04,1,,,,,ロックアップ,0
151,1290001101073,新規,0,2023-04-04,2023-04-04,株式会社武石ＡＨ,,株式会社,福岡県,福岡市中央区,平尾３丁目６番８号,,40,133,8100014,,,,,,,2023-04-04,1,,,,,タケイシエーエイチ,0
154,1290801029415,新規,0,2023-04-04,2023-04-04,北盛株式会社,,株式会社,福岡県,北九州市小倉南区,北方２丁目２０番４０号,,40,107,8020841,,,,,,,2023-04-04,1,,,,,キタモリ,0
155,1290801029423,新規,0,2023-04-04,2023-04-04,株式会社ジェイズクリエイト,,株式会社,福岡県,北九州市小倉南区,下城野２丁目６番１０号Ｃ棟２階２号,,40,107,8020804,,,,,,,2023-04-04,1,,,,,ジェイズクリエイト,0
171,1380003005429,新規,0,2023-04-04,2023-04-04,合同会社謙重機,,合同会社,福島県,喜多方市,熱塩加納町山田字赤崎甲２８２番地２,,07,208,9660102,,,,,,,2023-04-04,1,,,,,ケンジュウキ,0
172,1390001017202,新規,0,2023-04-04,2023-04-04,ＣＫＤ株式会社,,株式会社,山形県,山形市,蔵王温泉９４０－１,,06,201,9902301,,,,,,,2023-04-04,1,,,,,シーケーディ,0
173,1390001017210,新規,0,2023-04-04,2023-04-04,エス板金工業株式会社,,株式会社,山形県,東根市,中央東１丁目１番４３号シティーライツ‐１１２,,06,211,9993729,,,,,,,2023-04-04,1,,,,,エスバンキンコウギョウ,0
180,1450001013938,新規,0,2023-04-04,2023-04-04,株式会社福島組,,株式会社,北海道,旭川市,末広二条５丁目２番１３号,,01,204,0718132,,,,,,,2023-04-04,1,,,,,フクシマグミ,0
181,1450001013946,新規,0,2023-04-04,2023-04-04,株式会社アールテック,,株式会社,北海道,旭川市,末広東三条５丁目３番３号,,01,204,0718123,,,,,,,2023-04-04,1,,,,,アールテック,0
182,1480001012053,新規,0,2023-04-04,2023-04-04,株式会社清水建築,,株式会社,徳島県,板野郡板野町,吹田字間谷１５７番地３,,36,404,7790104,,,,,,,2023-04-04,1,,,,,シミズケンチク,0
185,1500001024839,新規,0,2023-04-04,2023-04-04,株式会社スカイパートナーズ,,株式会社,愛媛県,松山市,西垣生町１３９０番地１３,,38,201,7918044,,,,,,,2023-04-04,1,,,,,スカイパートナーズ,0
186,1500001024847,新規,0,2023-04-04,2023-04-04,株式会社栗原建装,,株式会社,愛媛県,松山市,西野町甲２９３番地３,,38,201,7911135,,,,,,,2023-04-04,1,,,,,クリハラケンソウ,0
187,1500003003007,新規,0,2023-04-04,2023-04-04,合同会社旅するジビエちゃん,,合同会社,愛媛県,西宇和郡伊方町,中浦甲４４番地,,38,442,7960311,,,,,,,2023-04-04,1,,,,,タビスルジビエチャン,0
190,1700150115138,新規,0,2023-04-04,2023-04-04,ｓｈｅｎｚｈｅｎｓｈｉ　ｘｕａｎｎｕｏ　ｗａｎｇｌｕｏｋｅｊｉｙｏｕｘｉａｎｇｏｎｇｓｉ,,外国会社等,,,,,,,,ｓｈｅｎｚｈｅｎｓｈｉ，ｎａｎｓｈａｎｑｕ，ｎａｎｔｏｕｊｉｅｄａｏ，ｍａｊｉａｌｏｎｇｓｈｅｑｕ，ｎａｎｓｈａｎｄａｄａｏ３１８６ｈａｏ，ｌｉａｎｈｕａｇｕａｎｇｃｈａｎｇＢｄｏｎｇ１２０９,,,,,,2023-04-04,1,,,,,シンセンシゲンダクモウラクカギユウゲンコウシ,0
191,1700150115146,新規,0,2023-04-04,2023-04-04,ｓｈｅｎｚｈｅｎ　ｓｈｉ　ｍｉｎｇｙｉ　ｊｉａｏｔｏｎｇ　ｋｅｊｉ　ｙｏｕｘｉａｎ　ｇｏｎｇｓｉ,,外国会社等,,,,,,,,Ｌｏｎｇｈｕａｑｕ　ｄａｌａｎｇｊｉｅｄａｏ　ｌａｎｇｋｏｕｓｈｅｑｕ　ｌａｎｇｋｏｕｇｏｎｇｙｅｙｕａｎ　６２ｈａｏ６ｃｅｎｇ　Ｓｈｅｎｚｈｅｎ　Ｇｕａｎｇｄｏｎｇ,,,,,,2023-04-04,1,,,,,シンセンシメイユウコウツウカギユウゲンコウシ,0
200,2010001234164,新規,0,2023-04-04,2023-04-04,株式会社Ｇａｔｅ,,株式会社,東京都,中央区,銀座１丁目２２番１１号銀座大竹ビジデンス２Ｆ,,13,102,1040061,,,,,,,2023-04-04,1,,,,,ゲート,0
203,2010401172872,新規,0,2023-04-04,2023-04-04,ｊｕｎｃａ　Ｇｌｏｂａｌ　Ｐａｒｔｎｅｒ株式会社,,株式会社,東京都,港区,東麻布１丁目９番１０号,,13,103,1060044,,,,,,,2023-04-04,1,,,,,ジュンカグローバルパートナー,0
204,2010401173458,新規,0,2023-04-04,2023-04-04,明治モータース株式会社,,株式会社,東京都,港区,赤坂１丁目１番１２号,,13,103,1070052,,,,,,,2023-04-04,1,,,,,メイジモータース,0
205,2010401173482,新規,0,2023-04-04,2023-04-04,株式会社田辺の会社,,株式会社,東京都,港区,赤坂３丁目４番３号,,13,103,1070052,,,,,,,2023-04-04,1,,,,,タナベノカイシャ,0
207,2010601062790,新規,0,2023-04-04,2023-04-04,栄邦株式会社,,株式会社,東京都,江東区,北砂３丁目２８－１不動コーポ１０８号室,,13,108,1360073,,,,,,,2023-04-04,1,,,,,エイホウ,0
208,2010703006646,新規,0,2023-04-04,2023-04-04,合同会社ラニアケア,,合同会社,東京都,品川区,中延２丁目１０番２号Ｄｏｌｃｅ．Ｎ２０１,,13,109,1420053,,,,,,,2023-04-04,1,,,,,ラニアケア,0
209,2010803004491,新規,0,2023-04-04,2023-04-04,万島合同会社,,合同会社,東京都,大田区,矢口１丁目１６－１９コスモビルＩＩ３０１,00129940,13,111,1460093,,,,,,,2023-04-04,1,,,,,マントウ,0
213,2010901052806,新規,0,2023-04-04,2023-04-04,株式会社ｍｍｋ,,株式会社,東京都,世田谷区,太子堂３丁目３１番６号,,13,112,1540004,,,,,,,2023-04-04,1,,,,,エムエムケー,0
216,2011001153461,新規,0,2023-04-04,2023-04-04,株式会社Ｈａｃｈｉ,,株式会社,東京都,目黒区,上目黒３丁目２７－１７,,13,110,1530051,,,,,,,2023-04-04,1,,,,,ハチ,0
217,2011001153511,新規,0,2023-04-04,2023-04-04,株式会社ＨＥＡＤＳ　ＵＰ,,株式会社,東京都,渋谷区,神宮前４丁目２６番２８号２階,,13,113,1500001,,,,,,,2023-04-04,1,,,,,ヘッズアップ,0
218,2011001153528,新規,0,2023-04-04,2023-04-04,株式会社アリス,,株式会社,東京都,渋谷区,神宮前６丁目２９番４号原宿ｋｏｍｉｙａビル６階,,13,113,1500001,,,,,,,2023-04-04,1,,,,,アリス,0
219,2011003016559,新規,0,2023-04-04,2023-04-04,ＭＯＲＩ合同会社,,合同会社,東京都,渋谷区,代々木１丁目５３番１号,,13,113,1510053,,,,,,,2023-04-04,1,,,,,モリ,0
220,2011003016567,新規,0,2023-04-04,2023-04-04,タックタック合同会社,,合同会社,東京都,渋谷区,南平台町１５－１－１０１,,13,113,1500036,,,,,,,2023-04-04,1,,,,,タックタック,0
224,2011101102376,新規,0,2023-04-04,2023-04-04,株式会社Ｔｒｅａｓｕｒｅ　Ｇｒｏｕｐ,,株式会社,東京都,新宿区,歌舞伎町２丁目１７番１０号新宿小沼ビル６０３,,13,104,1600021,,,,,,,2023-04-04,1,,,,,トレジャーグループ,0
225,2011101102384,新規,0,2023-04-04,2023-04-04,株式会社ライベックス,,株式会社,東京都,新宿区,新宿２丁目１９－１，７Ｆ,,13,104,1600022,,,,,,,2023-04-04,1,,,,,ライベックス,0
226,2011101102401,新規,0,2023-04-04,2023-04-04,株式会社ＥｘｐｒｅＴｅｃｈ,,株式会社,東京都,新宿区,西新宿３丁目３番１３号西新宿水間ビル６階,,13,104,1600023,,,,,,,2023-04-04,1,,,,,エクスプレテック,0
234,2011805003259,新規,0,2023-04-04,2023-04-04,土地家屋調査士法人室屋事務所,,その他の設立登記法人,東京都,足立区,綾瀬２丁目１番５号,,13,121,1200005,,,,,,,2023-04-04,1,,,,,ムロヤジムショ,0
237,2012401040308,新規,0,2023-04-04,2023-04-04,Ａｓｉａ　Ｂｒｉｄｇｅ　Ｊａｐａｎ株式会社,,株式会社,東京都,武蔵野市,吉祥寺本町３丁目８番２０号,,13,203,1800004,,,,,,,2023-04-04,1,,,,,アジアブリッジジャパン,0
238,2012401040357,新規,0,2023-04-04,2023-04-04,株式会社ＫＳ設備,,株式会社,東京都,府中市,住吉町３丁目４８番地の４７,,13,206,1830034,,,,,,,2023-04-04,1,,,,,ケーエスセツビ,0
240,2012701017567,新規,0,2023-04-04,2023-04-04,株式会社無人ステーション,,株式会社,東京都,東村山市,久米川町１丁目１３番３０号,,13,213,1890003,,,,,,,2023-04-04,1,,,,,ムジンステーション,0
249,2020001150906,新規,0,2023-04-04,2023-04-04,株式会社ＳＥＮＤＩＴ,,株式会社,神奈川県,横浜市金沢区,六浦２丁目１１番１６号,,14,108,2360031,,,,,,,2023-04-04,1,,,,,センディット,0
250,2020001150914,新規,0,2023-04-04,2023-04-04,Ｄ　ｓｈａｒｅ株式会社,,株式会社,神奈川県,横浜市都筑区,川向町７８４－１,,14,118,2240044,,,,,,,2023-04-04,1,,,,,ディーシェア,0
256,2021001078600,新規,0,2023-04-04,2023-04-04,株式会社宮下,,株式会社,神奈川県,藤沢市,鵠沼海岸５丁目８番２３～３０６号,00129943,14,205,2510037,,,,,,,2023-04-04,1,,,,,ミヤシタ,0
265,2030001153131,新規,0,2023-04-04,2023-04-04,建晟株式会社,,株式会社,埼玉県,蕨市,塚越７丁目１７番７号新蕨ハイツ５０１号,,11,223,3350002,,,,,,,2023-04-04,1,,,,,コンセイ,0
266,2030001153148,新規,0,2023-04-04,2023-04-04,株式会社ＬＩＢ,,株式会社,埼玉県,さいたま市大宮区,天沼町２丁目１８Ｔ．Ｍ大宮ビル２階,,11,103,3300834,,,,,,,2023-04-04,1,,,,,リブ,0
267,2030001153164,新規,0,2023-04-04,2023-04-04,株式会社アークライン,,株式会社,埼玉県,和光市,新倉２丁目２３番１０号ＷＪ・Ｗ－１５（２０３）,,11,229,3510115,,,,,,,2023-04-04,1,,,,,アークライン,0
268,2030001153189,新規,0,2023-04-04,2023-04-04,株式会社石田工務店,,株式会社,埼玉県,飯能市,大字飯能１２５６番地１,,11,209,3570063,,,,,,,2023-04-04,1,,,,,イシダコウムテン,0
270,2040003022309,新規,0,2023-04-04,2023-04-04,合同会社アサヒ企画,,合同会社,千葉県,千葉市花見川区,朝日ケ丘４丁目３８番１３号,,12,102,2620019,,,,,,,2023-04-04,1,,,,,アサヒキカク,0
271,2050001052604,新規,0,2023-04-04,2023-04-04,横川総建株式会社,,株式会社,茨城県,日立市,東大沼町１丁目１８番６－２０３号,,08,202,3160023,,,,,,,2023-04-04,1,,,,,ヨコカワソウケン,0
273,2050003007382,新規,0,2023-04-04,2023-04-04,水戸解体センター合同会社,,合同会社,茨城県,水戸市,白梅２丁目８－１１アクアビル３階,,08,201,3100804,,,,,,,2023-04-04,1,,,,,ミトカイタイセンター,0
275,2060003004494,新規,0,2023-04-04,2023-04-04,合同会社ＮＡＳ　ＴＲＡＤＩＮＧ,,合同会社,栃木県,足利市,小俣町２４０番地１,,09,202,3260141,,,,,,,2023-04-04,1,,,,,ナストレーディング,0
281,2080001025549,新規,0,2023-04-04,2023-04-04,Ｈｉｇｈｅｒ　Ｇｒｏｕｎｄ　Ｍｏｔｏｒｓ株式会社,,株式会社,静岡県,牧之原市,静波２２６１番地２９,,22,226,4210422,,,,,,,2023-04-04,1,,,,,ハイアーグランドモータース,0
287,2080401026394,新規,0,2023-04-04,2023-04-04,株式会社まぐろの熊田,,株式会社,静岡県,浜松市東区,将監町３０番地の１４,,22,132,4300802,,,,,,,2023-04-04,1,,,,,マグロノクマダ,0
288,2080401026403,新規,0,2023-04-04,2023-04-04,株式会社ＮＩＫＫＯ,,株式会社,静岡県,浜松市中区,高丘西３丁目４７番７号,,22,131,4338118,,,,,,,2023-04-04,1,,,,,ニッコウ,0
289,2080401026411,新規,0,2023-04-04,2023-04-04,株式会社浜菜フィールド,,株式会社,静岡県,浜松市西区,湖東町８７５番地の１,,22,133,4311103,,,,,,,2023-04-04,1,,,,,ハマナフィールド,0
297,2120001253649,新規,0,2023-04-04,2023-04-04,株式会社三合,,株式会社,大阪府,大阪市北区,中崎西４丁目３番３２号,,27,127,5300015,,,,,,,2023-04-04,1,,,,,サンアイ,0
301,2120003023760,新規,0,2023-04-04,2023-04-04,合同会社ｓａｉｓａｉ,,合同会社,大阪府,大阪市中央区,島之内１丁目１５番２５－２８０２号,,27,128,5420082,,,,,,,2023-04-04,1,,,,,サイサイ,0
302,2120101067239,新規,0,2023-04-04,2023-04-04,株式会社中川打刃物,,株式会社,大阪府,堺市西区,平岡町３７９番地１,,27,144,5938307,,,,,,,2023-04-04,1,,,,,ナカガワウチハモノ,0
303,2120101067247,新規,0,2023-04-04,2023-04-04,株式会社アラタ,,株式会社,大阪府,泉北郡忠岡町,馬瀬３丁目１０番３７号,,27,341,5950804,,,,,,,2023-04-04,1,,,,,アラタ,0
304,2120101067271,新規,0,2023-04-04,2023-04-04,株式会社道向商店,,株式会社,大阪府,堺市堺区,香ヶ丘町５丁５番５号,,27,141,5900011,,,,,,,2023-04-04,1,,,,,ミチムコウショウテン,0
306,2122003002554,新規,0,2023-04-04,2023-04-04,合同会社ＤＦＧ,,合同会社,大阪府,東大阪市,俊徳町２丁目３－７,,27,227,5770831,,,,,,,2023-04-04,1,,,,,ディエフジー,0
307,2130001073971,新規,0,2023-04-04,2023-04-04,株式会社ＲＫＩ,,株式会社,京都府,京都市下京区,中堂寺粟田町９３番地ＫＲＰ４号館３階ＫＲＰ・ＢＩＺ・ＮＥＸＴ,,26,106,6008815,,,,,,,2023-04-04,1,,,,,アールケイアイ,0
309,2140001129640,新規,0,2023-04-04,2023-04-04,株式会社ＫＡ,,株式会社,兵庫県,神戸市北区,鹿の子台南町６丁目３２番２号,,28,109,6511514,,,,,,,2023-04-04,1,,,,,ケーエー,0
311,2150001026275,新規,0,2023-04-04,2023-04-04,株式会社ディアーズスタジオ,,株式会社,奈良県,生駒市,鹿ノ台北１丁目１４番地１２,,29,209,6300111,,,,,,,2023-04-04,1,,,,,,0
312,2150003002919,新規,0,2023-04-04,2023-04-04,ＧＥＣＫＯ合同会社,,合同会社,奈良県,生駒郡三郷町,立野南２丁目１５番３３－２０８号,,29,343,6360822,,,,,,,2023-04-04,1,,,,,ゲッコー,0
320,2180001155641,新規,0,2023-04-04,2023-04-04,ＬＯＣＯ　ＣＯＲＰＯＲＡＴＩＯＮ株式会社,,株式会社,愛知県,名古屋市中区,新栄２丁目８番２３号,,23,106,4600007,,,,,,,2023-04-04,1,,,,,ロココーポレーション,0
321,2180001155666,新規,0,2023-04-04,2023-04-04,アドバンス株式会社,,株式会社,愛知県,名古屋市緑区,梅里１丁目２４番地の１,,23,114,4580001,,,,,,,2023-04-04,1,,,,,アドバンス,0
322,2180001155674,新規,0,2023-04-04,2023-04-04,株式会社ＨＡＣＣＨＩ,,株式会社,愛知県,名古屋市名東区,猪子石３丁目６１９番地,,23,115,4650021,,,,,,,2023-04-04,1,,,,,ハッチ,0
333,2190001030298,新規,0,2023-04-04,2023-04-04,株式会社林田,,株式会社,三重県,鈴鹿市,広瀬町９７９番地１,,24,207,5130001,,,,,,,2023-04-04,1,,,,,リンデン,0
334,2190003004275,新規,0,2023-04-04,2023-04-04,ベルディアー合同会社,,合同会社,三重県,鈴鹿市,上箕田１丁目２２番１２号,,24,207,5130056,,,,,,,2023-04-04,1,,,,,ベルディアー,0
335,2200001041137,新規,0,2023-04-04,2023-04-04,ゴトウメインテナンス株式会社,,株式会社,岐阜県,岐阜市,岩井３８０番地の８３,,21,201,5013101,,,,,,,2023-04-04,1,,,,,ゴトウメインテナンス,0
336,2200001041145,新規,0,2023-04-04,2023-04-04,株式会社ピクトラム,,株式会社,岐阜県,恵那市,大井町２０９２番地４サンライズＡ１０１,,21,210,5097201,,,,,,,2023-04-04,1,,,,,ピクトラム,0
339,2260001037798,新規,0,2023-04-04,2023-04-04,株式会社ちゅうぎんエナジー,,株式会社,岡山県,岡山市北区,丸の内１丁目１５番２０号ちゅうぎん本店ビル９階,,33,101,7000823,,,,,,,2023-04-04,1,,,,,チュウギンエナジー,0
344,2290801029414,新規,0,2023-04-04,2023-04-04,株式会社田底鉄工,,株式会社,福岡県,直方市,大字永満寺字道光２８１９番地２,,40,204,8220005,,,,,,,2023-04-04,1,,,,,タゾコテッコウ,0
345,2290801029422,新規,0,2023-04-04,2023-04-04,株式会社ごえんや,,株式会社,福岡県,北九州市八幡西区,八枝３丁目９番１号,,40,109,8070856,,,,,,,2023-04-04,1,,,,,ゴエンヤ,0
356,2330001030713,新規,0,2023-04-04,2023-04-04,エル・アイ・ジェー株式会社,,株式会社,熊本県,阿蘇郡南小国町,大字中原２４３６－３,,43,423,8692403,,,,,,,2023-04-04,1,,,,,エルアイジェー,0
362,2340001025456,新規,0,2023-04-04,2023-04-04,株式会社薩昇,,株式会社,鹿児島県,鹿児島市,五ヶ別府町１２６３番地３,,46,201,8910101,,,,,,,2023-04-04,1,,,,,サッショウ,0
371,2380003005428,新規,0,2023-04-04,2023-04-04,合同会社明日飛,,合同会社,福島県,東白川郡鮫川村,大字赤坂東野字葉貫１３番地２,,07,484,9638403,,,,,,,2023-04-04,1,,,,,アスビ,0
373,2410003003774,新規,0,2023-04-04,2023-04-04,合同会社石岡,,合同会社,秋田県,秋田市,御野場２丁目１３番４号,,05,201,0101424,,,,,,,2023-04-04,1,,,,,イシオカ,0
375,2430001088758,新規,0,2023-04-04,2023-04-04,株式会社Ｃｏｃｏ,,株式会社,北海道,札幌市中央区,南二条東２丁目１２番地２アルティプラノ３０２号,,01,101,0600052,,,,,,,2023-04-04,1,,,,,ココ,0
383,2450001013937,新規,0,2023-04-04,2023-04-04,株式会社オークラ商事,,株式会社,北海道,旭川市,北門町１４丁目２１４４番地の１３０,,01,204,0700825,,,,,,,2023-04-04,1,,,,,オークラショウジ,0
388,2470001019536,新規,0,2023-04-04,2023-04-04,株式会社２ＮＡＧＵ,,株式会社,香川県,高松市,川部町１６２９番地６,,37,201,7618046,,,,,,,2023-04-04,1,,,,,ツナグ,0
389,2470003002382,新規,0,2023-04-04,2023-04-04,フセイン合同会社,,合同会社,香川県,坂出市,西庄町１６９７番地５,,37,203,7620021,,,,,,,2023-04-04,1,,,,,フセイン,0
399,2500001024846,新規,0,2023-04-04,2023-04-04,スイートバジル株式会社,,株式会社,愛媛県,伊予郡砥部町,総津１１７番地,,38,402,7912205,,,,,,,2023-04-04,1,,,,,スイートバジル,0
400,2700150115129,新規,0,2023-04-04,2023-04-04,ＳｈｅｎＺｈｅｎ　Ｓｈｉｔａｉ　Ｔｅｃｈｎｏｌｏｇｙ　ＣＯ．，Ｌｔｄ,,外国会社等,,,,,,,,６０２，１　Ｂｕｉｌｄｉｎｇ，Ｊｉ　Ｈｕａ　Ｒｄ　Ｈｕｂｅｉ　Ｂａｏｆｅｎｇ　Ｉｎｄｕｓｔｒｉａｌ　Ａｒｅａ　Ｓｈｅｎｚｈｅｎ　Ｇｕａｎｇｄｏｎｇ,,,,,,2023-04-04,1,,,,,シンセンシタイケジユウゲンコウシ,0
401,2700150115137,新規,0,2023-04-04,2023-04-04,ｓｈｅｎｚｈｅｎｓｈｉｌｉｌａｔｕｄｉａｎｚｉｙｏｕｘｉａｎｇｏｎｇｓｉ,,外国会社等,,,,,,,,ｏｎｇｈｕａｑｕｍｉｎｚｈｉｊｉｅｄａｏｍｉｎｚｈｉｓｈｅｑｕｘｉｎｙｕａｎｅｒｑｉ８ｄｏｎｇ２ｄａｎｙｕａｎ１１０８，ｓｈｅｎｚｈｅｎ，ｇｕａｎｇｄｏｎｇ，５１８１１０　ＣＮ,,,,,,2023-04-04,1,,,,,シンセンシリラトデンシユウゲンコウシ,0
402,2700150115145,新規,0,2023-04-04,2023-04-04,ｓｈａｎｇｙｕ　ｂｅｓｔ　ａｐｐａｒｅｌ　＆　ａｃｃｅｓｓｏｒｉｅｓ　ｃｏ．，ｌｔｄ,,外国会社等,,,,,,,,ＣＮ，３１２３６１，Ｚｈｅｊｉａｎｇ，Ｓｈａｏｘｉｎｇ，Ｓｈａｎｇｙｕ，Ｎｏ．８８　Ｗｅｎｃｈａｎｇｇｅ　Ｒｏａｄ　Ｌｉａｎｇｈｕ　ｉｎｄｕｓｔｒｉａｌ　Ｚｏｎｅ,,,,,,2023-04-04,1,,,,,ジヨウグベストシンシキフクシヨクユウゲンコウシ,0
408,3010001234080,新規,0,2023-04-04,2023-04-04,おもてアグリ株式会社,,株式会社,東京都,千代田区,神田神保町２丁目１７番地,,13,101,1010051,,,,,,,2023-04-04,1,,,,,オモテアグリ,0
412,3010005036432,新規,0,2023-04-04,2023-04-04,一般社団法人オルタナ２３,,その他の設立登記法人,東京都,千代田区,丸の内３丁目１番１号東京共同会計事務所内,,13,101,1000005,,,,,,,2023-04-04,1,,,,,オルタナトゥウェンティスリー,0
419,3010401173473,新規,0,2023-04-04,2023-04-04,株式会社コネクトスター,,株式会社,東京都,港区,麻布十番２丁目８番１６号ＩＳＩビル５階,,13,103,1060045,,,,,,,2023-04-04,1,,,,,コネクトスター,0
421,3010403029822,新規,0,2023-04-04,2023-04-04,合同会社スパイラル,,合同会社,東京都,港区,白金台３丁目１６番２ー１３０７号,,13,103,1080071,,,,,,,2023-04-04,1,,,,,スパイラル,0
425,3010501050234,新規,0,2023-04-04,2023-04-04,株式会社といしや,,株式会社,東京都,台東区,西浅草１丁目８番１４号,,13,106,1110035,,,,,,,2023-04-04,1,,,,,トイシヤ,0
426,3010501050242,新規,0,2023-04-04,2023-04-04,株式会社ダイハン,,株式会社,東京都,台東区,元浅草１丁目３番地８号アトラス新御徒町２０１号,,13,106,1110041,,,,,,,2023-04-04,1,,,,,ダイハン,0
431,3010605004185,新規,0,2023-04-04,2023-04-04,一般社団法人フードバンクＰＬＵＳ,,その他の設立登記法人,東京都,江東区,清澄２丁目８番５号,,13,108,1350024,,,,,,,2023-04-04,1,,,,,フードバンクプラス,0
442,3011003016558,新規,0,2023-04-04,2023-04-04,合同会社ザファースト,,合同会社,東京都,渋谷区,円山町５番５号Ｎａｖｉ渋谷Ｖ３階,,13,113,1500044,,,,,,,2023-04-04,1,,,,,ザファースト,0
443,3011003016566,新規,0,2023-04-04,2023-04-04,合同会社エアレウフ,,合同会社,東京都,渋谷区,神泉町１０番１５号,,13,113,1500045,,,,,,,2023-04-04,1,,,,,エアレウフ,0
450,3011101102375,新規,0,2023-04-04,2023-04-04,ＹＳ株式会社,,株式会社,東京都,新宿区,西新宿８丁目１番２－３１５号,,13,104,1600023,,,,,,,2023-04-04,1,,,,,ワイズ,0
451,3011101102417,新規,0,2023-04-04,2023-04-04,株式会社ＦＪネクストレジデンシャル,,株式会社,東京都,新宿区,西新宿６丁目５番１号,,13,104,1600023,,,,,,,2023-04-04,1,,,,,エフジェーネクストレジデンシャル,0
456,3011801042169,新規,0,2023-04-04,2023-04-04,株式会社ＳｅａＬ,,株式会社,東京都,葛飾区,堀切４丁目８番１２号,,13,122,1240006,,,,,,,2023-04-04,1,,,,,シール,0
458,3012401040356,新規,0,2023-04-04,2023-04-04,株式会社ｕｎ　Ｇｒａｎｄ　Ｍｅｒｃｉ,,株式会社,東京都,多摩市,唐木田１丁目５４番地１８,,13,224,2060035,,,,,,,2023-04-04,1,,,,,アングランメルシー,0
459,3012701017566,新規,0,2023-04-04,2023-04-04,株式会社一気,,株式会社,東京都,東村山市,久米川町１丁目１３番３０号,,13,213,1890003,,,,,,,2023-04-04,1,,,,,イッキ,0
462,3020003023638,新規,0,2023-04-04,2023-04-04,効目組合同会社,,合同会社,神奈川県,川崎市幸区,新塚越２０１ルリエ新川崎７０１,,14,132,2120027,,,,,,,2023-04-04,1,,,,,キキメグミ,0
468,3021005012769,新規,0,2023-04-04,2023-04-04,医療法人社団遼聡会,,その他の設立登記法人,神奈川県,藤沢市,湘南台３丁目７番地１２湘南台クリニックビル１階１０２号室,,14,205,2520804,,,,,,,2023-04-04,1,,,,,リョウソウカイ,0
474,3040001127752,新規,0,2023-04-04,2023-04-04,株式会社Ｆａｃｔ　Ｖｉｓｉｏｎ,,株式会社,千葉県,千葉市若葉区,小倉台３丁目２０番６号,,12,104,2640006,,,,,,,2023-04-04,1,,,,,ファクトビジョン,0
500,3120001253607,新規,0,2023-04-04,2023-04-04,株式会社萬野屋Ｌ＆Ｐ,,株式会社,大阪府,大阪市天王寺区,国分町２１番４０号,,27,109,5430044,,,,,,,2023-04-04,1,,,,,マンノヤエルアンドピー,0
501,3120001253648,新規,0,2023-04-04,2023-04-04,株式会社ガチモー,,株式会社,大阪府,大阪市北区,梅田１丁目２番２号大阪駅前第２ビル１２－１２,,27,127,5300001,,,,,,,2023-04-04,1,,,,,ガチモー,0
502,3120001253689,新規,0,2023-04-04,2023-04-04,株式会社日本電工ＨＤ,,株式会社,大阪府,枚方市,長尾元町５丁目１番８号,,27,210,5730163,,,,,,,2023-04-04,1,,,,,ニホンデンコウホールディングス,0
505,3120005023543,新規,0,2023-04-04,2023-04-04,一般社団法人Ｅ’ＧＡ,,その他の設立登記法人,大阪府,大阪市中央区,南本町１丁目３番９号サンコービル２０３,,27,128,5410054,,,,,,,2023-04-04,1,,,,,イーガ,0
506,3120101067254,新規,0,2023-04-04,2023-04-04,株式会社渡邊彩装,,株式会社,大阪府,堺市南区,稲葉３丁３２５番地２８,,27,145,5900156,,,,,,,2023-04-04,1,,,,,ワタナベサイソウ,0
507,3120101067270,新規,0,2023-04-04,2023-04-04,株式会社みずき,,株式会社,大阪府,堺市中区,伏尾２９４６－Ｃ,,27,142,5998254,,,,,,,2023-04-04,1,,,,,ミズキ,0
511,3122001036850,新規,0,2023-04-04,2023-04-04,株式会社テクノス,,株式会社,大阪府,東大阪市,善根寺町１丁目２番１７号,,27,227,5798001,,,,,,,2023-04-04,1,,,,,テクノス,0
514,3130001073970,新規,0,2023-04-04,2023-04-04,デザイン株式会社,,株式会社,京都府,京都市山科区,西野大手先町１１番地４,,26,110,6078344,,,,,,,2023-04-04,1,,,,,デザイン,0
519,3140005026503,新規,0,2023-04-04,2023-04-04,西宮市管理職員等職員組合,,その他の設立登記法人,兵庫県,西宮市,六湛寺町１０番２１号西宮市職員会館内,,28,204,6620918,,,,,,,2023-04-04,1,,,,,ニシノミヤシカンリショクイントウショクインクミアイ,0
521,3150003002918,新規,0,2023-04-04,2023-04-04,合同会社韓国文化教育学院ＭＩＪＨＩＮ,,合同会社,奈良県,橿原市,内膳町５丁目２番３８号フクダ不動産大和ビル６０５号,,29,205,6340804,,,,,,,2023-04-04,1,,,,,カンコクブンカキョウイクガクインミジン,0
522,3160003002834,新規,0,2023-04-04,2023-04-04,合同会社Ｉｎｔｅｒｆｅｒｉｎｇ,,合同会社,滋賀県,草津市,東矢倉２丁目５－３６わんぱくビル２階,,25,206,5250054,,,,,,,2023-04-04,1,,,,,インターフィーリング,0
535,3180005020155,新規,0,2023-04-04,2023-04-04,一般財団法人地域医療推進センター尾張,,その他の設立登記法人,愛知県,一宮市,奥町字蘇東５５番地,,23,203,4910201,,,,,,,2023-04-04,1,,,,,チイキイリョウスイシンセンターオワリ,0
536,3190001030297,新規,0,2023-04-04,2023-04-04,大沢工業株式会社,,株式会社,三重県,津市,雲出伊倉津町１２１４番地１,,24,201,5140302,,,,,,,2023-04-04,1,,,,,オオサワコウギョウ,0
539,3210003001624,新規,0,2023-04-04,2023-04-04,合同会社ｃｈａｔ　ｄｏｒ’ｅ,,合同会社,福井県,敦賀市,呉竹町１丁目１番３１号,,18,202,9140802,,,,,,,2023-04-04,1,,,,,シャドレ,0
540,3230001019765,新規,0,2023-04-04,2023-04-04,株式会社Ｋメタル,,株式会社,富山県,魚津市,吉島３８２０番地９０,,16,204,9370041,,,,,,,2023-04-04,1,,,,,ケーメタル,0
543,3230003001993,新規,0,2023-04-04,2023-04-04,合同会社ＲＳ　ｓｅｒｖｉｃｅ,,合同会社,富山県,富山市,草島２４番地５,,16,201,9302201,,,,,,,2023-04-04,1,,,,,アールエスサービス,0
547,3240003006083,新規,0,2023-04-04,2023-04-04,合同会社Ｂ．ｆ．,,合同会社,広島県,広島市東区,牛田新町１丁目７番２３－３０１号,,34,102,7320068,,,,,,,2023-04-04,1,,,,,ビーエフ,0
550,3260002034554,新規,0,2023-04-04,2023-04-04,有限会社山本電気商会,,有限会社,岡山県,岡山市北区,大供１丁目７番１５号,,33,101,7000913,,,,,,,2023-04-04,1,,,,,ヤマモトデンキショウカイ,0
551,3260003004267,新規,0,2023-04-04,2023-04-04,合同会社ｆｅｌｌｏｗ　ｆａｃｔｏｒｙ,,合同会社,岡山県,岡山市北区,三門西町６番２４－６号,,33,101,7000044,,,,,,,2023-04-04,1,,,,,フェローファクトリー,0
558,3290001101063,新規,0,2023-04-04,2023-04-04,株式会社ＬＡＮＵＩ　ｃｏｒｐ．,,株式会社,福岡県,糟屋郡篠栗町,大字高田４９９番地１ベンタナヒルズ篠栗１６－６０２号,,40,342,8112401,,,,,,,2023-04-04,1,,,,,ラヌイコーポレーション,0
559,3290003013728,新規,0,2023-04-04,2023-04-04,合同会社オフィスマツモト,,合同会社,福岡県,筑紫野市,二日市北１丁目２１番１２－５０１号,,40,217,8180056,,,,,,,2023-04-04,1,,,,,オフィスマツモト,0
561,3290801029413,新規,0,2023-04-04,2023-04-04,株式会社北九コールドサービス,,株式会社,福岡県,北九州市門司区,稲積１丁目８番１５－４０５号,,40,101,8000048,,,,,,,2023-04-04,1,,,,,キタキュウコールドサービス,0
562,3290801029421,新規,0,2023-04-04,2023-04-04,株式会社Ｉｓｏ,,株式会社,福岡県,北九州市八幡西区,木屋瀬２丁目５－４－１０１,,40,109,8071261,,,,,,,2023-04-04,1,,,,,イソウ,0
563,3290803004380,新規,0,2023-04-04,2023-04-04,ＫＯＧＵ合同会社,,合同会社,福岡県,北九州市門司区,栄町７―５,,40,101,8010863,,,,,,,2023-04-04,1,,,,,コグ,0
564,3290805009642,新規,0,2023-04-04,2023-04-04,学校法人明治学園,,その他の設立登記法人,福岡県,北九州市戸畑区,仙水町５番１号,,40,105,8040015,,,,,,,2023-04-04,1,,,,,メイジガクエン,0
567,3330001030720,新規,0,2023-04-04,2023-04-04,株式会社たま喜,,株式会社,熊本県,熊本市中央区,大江６丁目２６番２６号,,43,101,8620971,,,,,,,2023-04-04,1,,,,,タマキ,0
571,3340003004093,新規,0,2023-04-04,2023-04-04,合同会社ＨＩＣカンパニー,,合同会社,鹿児島県,姶良市,平松１８７２－２,,46,225,8995652,,,,,,,2023-04-04,1,,,,,エイチアイシーカンパニー,0
574,3360001031781,新規,0,2023-04-04,2023-04-04,株式会社Ａｊｉｗａｚａ,,株式会社,沖縄県,中頭郡西原町,字翁長１６９番地の４,,47,329,9030117,,,,,,,2023-04-04,1,,,,,アジワザ,0
575,3360003012838,新規,0,2023-04-04,2023-04-04,合同会社石電工業,,合同会社,沖縄県,石垣市,八島町２丁目１２番地３、１階,,47,207,9070011,,,,,,,2023-04-04,1,,,,,イシデンコウギョウ,0
578,3370001049781,新規,0,2023-04-04,2023-04-04,株式会社ＤｏＤｏ興産,,株式会社,宮城県,仙台市若林区,中倉３丁目１６番２８号,,04,103,9840821,,,,,,,2023-04-04,1,,,,,ドゥードゥーコウサン,0
582,3380001033586,新規,0,2023-04-04,2023-04-04,株式会社ＰＳサポーテッド,,株式会社,福島県,福島市,森合字小松原１５番地の８－２階,,07,201,9608003,,,,,,,2023-04-04,1,,,,,ピーエスサポーテッド,0
587,3410003003773,新規,0,2023-04-04,2023-04-04,合同会社放課後児童園青い鳥,,合同会社,秋田県,秋田市,土崎港北４丁目１０番４６号,,05,201,0110941,,,,,,,2023-04-04,1,,,,,ホウカゴジドウエンアオイトリ,0
594,3430001088757,新規,0,2023-04-04,2023-04-04,株式会社コルタントデジタルビズ,,株式会社,北海道,苫小牧市,幸町１丁目２－１２　２０３,,01,213,0530026,,,,,,,2023-04-04,1,,,,,コルタントデジタルビズ,0
601,3450001013936,新規,0,2023-04-04,2023-04-04,株式会社東光建設,,株式会社,北海道,旭川市,永山五条９丁目１番２号,,01,204,0798415,,,,,,,2023-04-04,1,,,,,トウコウケンセツ,0
603,3480003001960,新規,0,2023-04-04,2023-04-04,合同会社ディバイド,,合同会社,徳島県,海部郡海陽町,吉野字十王堂１番地１,,36,388,7750205,,,,,,,2023-04-04,1,,,,,ディバイド,0
604,3500001024837,新規,0,2023-04-04,2023-04-04,株式会社大宮,,株式会社,愛媛県,新居浜市,中須賀町２丁目３番２２号,,38,205,7920012,,,,,,,2023-04-04,1,,,,,オオミヤ,0
605,3500001024845,新規,0,2023-04-04,2023-04-04,株式会社マドモア,,株式会社,愛媛県,松山市,南白水２丁目９番地７,,38,201,7910114,,,,,,,2023-04-04,1,,,,,マドモア,0
606,3500003003005,新規,0,2023-04-04,2023-04-04,合同会社ＫＴファーム,,合同会社,愛媛県,松山市,勝岡町１９７番地３,,38,201,7992661,,,,,,,2023-04-04,1,,,,,ケーティーファーム,0
608,3700150115128,新規,0,2023-04-04,2023-04-04,Ｓｈｅｎｚｈｅｎ　Ｙｉｔｕｏｌｉａｎ　Ｔｅｃｈｎｏｌｏｇｙ　Ｃｏ．，Ｌｔｄ,,外国会社等,,,,,,,,Ｔｉａｎ　Ｇｏｎｇ　Ａｎ　Ｆａｎｇ　Ｓｑｕａｒｅ，ＵＣｈｕａｎｇＧｕ，Ｆｌｏｏｒ　８ｔｈ　Ａ８０６ｍｉｎｚｈｉ　Ｓｔｒｅｅｔ，ｌｏｎｇｈｕａ　ｎｅｗ　Ｄｉｓｔｒｉｃｔ－ＳｈｅｎＺｈｅｎ，ＳｈｅｎＺｈｅｎ，ＧｕａｎｇＤｏｎｇ，ｃｈｉｎａ,,,,,,2023-04-04,1,,,,,シンセンユートリアンテクノロジーカンパニーリミテッド,0
609,3700150115136,新規,0,2023-04-04,2023-04-04,ＳｈｅｎＺｈｅｎ　Ｏｕｆｕｓｉ　Ｔｅｃｈｎｏｌｏｇｙ　Ｃｏ．，ＬＴＤ,,外国会社等,,,,,,,,Ｇｕａｎｔｉａｎ　Ｃｏｍｍｕｎｉｔｙ，Ｚｈｏｎｇｘｉｎｇ　Ｒｏａｄ，Ｎｏ．５－４，１００３，Ｓｈｉｙａｎ　Ｓｔｒｅｅｔ，Ｂａｏａｎ　Ｄｉｓｔｒｉｃｔ　Ｓｈｅｎｚｈｅｎ，Ｇｕａｎｇｄｏｎｇ,,,,,,2023-04-04,1,,,,,シンセンシオウフツシカギユウゲンコウシ,0
610,3700150115144,新規,0,2023-04-04,2023-04-04,Ｓｈｅｎｚｈｅｎ　Ｙｉｈｏｎｇｔｏｎｇ　Ｔｅｃｈｎｏｌｏｇｙ　Ｃｏ．，Ｌｔｄ,,外国会社等,,,,,,,,ｌｏｎｇｇａｎｇｑｕｌｏｎｇｃｈｅｎｇｊｉｅｄａｏｓｈｅｎｇｐｉｎｇｓｈｅｑｕｌｏｎｇｃｈｅｎｇｄａｄａｏ１３０ｈａｏ　ｙｕｌｏｎｇｔｉｎｇＧｄｏｎｇ５０２　ｓｈｅｎｚｈｅｎｓｈｉ　ｇｕａｎｇｄｏｎｇｓｈｅｎｇ,,,,,,2023-04-04,1,,,,,シンセンシヨクコウツウカギユウゲンコウシ,0
614,4010001234047,新規,0,2023-04-04,2023-04-04,株式会社１９２５,,株式会社,東京都,千代田区,麹町１丁目３番地の２３号麹町１丁目３番地ビル２Ｆ,,13,101,1020083,,,,,,,2023-04-04,1,,,,,イチキュウニーゴー,0
615,4010001234162,新規,0,2023-04-04,2023-04-04,株式会社バテックジャパン,,株式会社,東京都,千代田区,神田須田町２丁目２５番ＧＹＢ秋葉原５階,,13,101,1010041,,,,,,,2023-04-04,1,,,,,バテックジャパン,0
620,4010103002112,新規,0,2023-04-04,2023-04-04,合同会社ＩＲＯＤＯＲＩ,,合同会社,東京都,八王子市,南町２番５号,,13,201,1920072,,,,,,,2023-04-04,1,,,,,イロドリ,0
625,4010401173489,新規,0,2023-04-04,2023-04-04,株式会社ＴＫＣ,,株式会社,東京都,港区,浜松町２丁目２番１５号浜松町ダイヤビル２Ｆ,,13,103,1050013,,,,,,,2023-04-04,1,,,,,ティーケーシー,0
627,4010403029821,新規,0,2023-04-04,2023-04-04,合同会社ＡＮＹＦＯＲＣＥ,,合同会社,東京都,港区,南青山３丁目１‐３６青山丸竹ビル６Ｆ,,13,103,1070062,,,,,,,2023-04-04,1,,,,,エニーフォース,0
629,4010503006935,新規,0,2023-04-04,2023-04-04,マイエグゼクティブサーチ合同会社,,合同会社,東京都,台東区,西浅草３丁目２２番３－１９０７号浅草タワー,,13,106,1110035,,,,,,,2023-04-04,1,,,,,マイエグゼクティブサーチ,0
630,4010601062789,新規,0,2023-04-04,2023-04-04,Ｘ＆Ｙ株式会社,,株式会社,東京都,江東区,北砂３丁目２８－１不動コーポ２０８号室,,13,108,1360073,,,,,,,2023-04-04,1,,,,,エックスアンドワイ,0
631,4010601062847,新規,0,2023-04-04,2023-04-04,東宝株式会社,,株式会社,東京都,江東区,東砂７丁目１０番３－４１２,,13,108,1360074,,,,,,,2023-04-04,1,,,,,トウホウ,0
633,4010901052779,新規,0,2023-04-04,2023-04-04,株式会社ＲＰＤ　Ｘ　ＥＴ,,株式会社,東京都,世田谷区,梅丘１丁目１３番１２号,,13,112,1540022,,,,,,,2023-04-04,1,,,,,アールピーディークロスイーティー,0
637,4011003016524,新規,0,2023-04-04,2023-04-04,合同会社ラーニングスケープ,,合同会社,東京都,渋谷区,渋谷２丁目１９－１５宮益坂ビルディング６０９,,13,113,1500002,,,,,,,2023-04-04,1,,,,,ラーニングスケープ,0
639,4011005010013,新規,0,2023-04-04,2023-04-04,一般社団法人越境ラボ,,その他の設立登記法人,東京都,渋谷区,道玄坂１丁目１０番８号渋谷道玄坂東急ビル１Ｆ,,13,113,1500043,,,,,,,2023-04-04,1,,,,,エッキョウラボ,0
643,4011101102408,新規,0,2023-04-04,2023-04-04,ＳＴＥＬＬＡＴＲＥＳ株式会社,,株式会社,東京都,新宿区,西新宿３丁目３番１３号西新宿水間ビル６階,,13,104,1600023,,,,,,,2023-04-04,1,,,,,ステラトレス,0
651,4011703003433,新規,0,2023-04-04,2023-04-04,合同会社住設の若旅,,合同会社,東京都,江戸川区,中葛西１丁目３４番１０－２０１号,,13,123,1340083,,,,,,,2023-04-04,1,,,,,ジュウセツノワカタビ,0
656,4011801042168,新規,0,2023-04-04,2023-04-04,株式会社パティスリー・エルナ,,株式会社,東京都,足立区,千住関屋町５－２２,,13,121,1200024,,,,,,,2023-04-04,1,,,,,パティスリーエルナ,0
661,4012303001802,新規,0,2023-04-04,2023-04-04,合同会社ＳＫコーポレーション,,合同会社,東京都,町田市,南大谷１８番地２３,,13,209,1940031,,,,,,,2023-04-04,1,,,,,エスケーコーポレーション,0
663,4012401040347,新規,0,2023-04-04,2023-04-04,株式会社ＬＥＮ,,株式会社,東京都,三鷹市,大沢４丁目１６番３８－１０２号,,13,204,1810015,,,,,,,2023-04-04,1,,,,,レン,0
664,4012403005918,新規,0,2023-04-04,2023-04-04,合同会社ＳＴＵＤＩＯ　ＳＨＯＷＢＯＡＴ,,合同会社,東京都,多摩市,落合１丁目４６番地１ココリア多摩センター７階,,13,224,2060033,,,,,,,2023-04-04,1,,,,,スタジオショーボート,0
665,4012701017565,新規,0,2023-04-04,2023-04-04,アラキランド株式会社,,株式会社,東京都,小平市,津田町３丁目３０番３０号,,13,211,1870025,,,,,,,2023-04-04,1,,,,,アラキランド,0
670,4020003023653,新規,0,2023-04-04,2023-04-04,合同会社ディア,,合同会社,神奈川県,横浜市港北区,新吉田東６丁目４０番７号,,14,109,2230058,,,,,,,2023-04-04,1,,,,,ディア,0
671,4021001078581,新規,0,2023-04-04,2023-04-04,株式会社ＴＭＲＳ,,株式会社,神奈川県,相模原市南区,新磯野１０２番地,,14,153,2520325,,,,,,,2023-04-04,1,,,,,ティーエムアールエス,0
673,4021005012768,新規,0,2023-04-04,2023-04-04,医療法人山口耳鼻咽喉科,,その他の設立登記法人,神奈川県,小田原市,浜町３丁目１２番１号１階,,14,206,2500004,,,,,,,2023-04-04,1,,,,,ヤマグチジビインコウカ,0
681,4030001153146,新規,0,2023-04-04,2023-04-04,株式会社翔武,,株式会社,埼玉県,川口市,大字石神６０６－１６ＷｉｌｌＴｏｗｎ１０２号,,11,203,3330823,,,,,,,2023-04-04,1,,,,,ショウブ,0
682,4030001153170,新規,0,2023-04-04,2023-04-04,株式会社山田農園,,株式会社,埼玉県,羽生市,大字下村君１７４９番地,,11,216,3480006,,,,,,,2023-04-04,1,,,,,ヤマダノウエン,0
687,4030003021441,新規,0,2023-04-04,2023-04-04,合同会社オフィス檀,,合同会社,埼玉県,越谷市,登戸町１９－２２,,11,222,3430846,,,,,,,2023-04-04,1,,,,,オフィスダン,0
694,4080001025539,新規,0,2023-04-04,2023-04-04,株式会社サンキョー,,株式会社,静岡県,焼津市,栄町６丁目４番５号,,22,212,4250027,,,,,,,2023-04-04,1,,,,,サンキョー,0
698,4080401026401,新規,0,2023-04-04,2023-04-04,イシハラ企画株式会社,,株式会社,静岡県,菊川市,半済１４２６番地,,22,224,4390019,,,,,,,2023-04-04,1,,,,,イシハラキカク,0
705,4120001253647,新規,0,2023-04-04,2023-04-04,株式会社ＰＯＲＴＥＲＡＮ,,株式会社,大阪府,大阪市西成区,聖天下２丁目１０番１２－２０３号,,27,122,5570012,,,,,,,2023-04-04,1,,,,,ポルテラン,0
706,4120001253663,新規,0,2023-04-04,2023-04-04,ｅ‐ｐｌａｃｅ株式会社,,株式会社,大阪府,大阪市鶴見区,鶴見４丁目４番１０－３０３号,,27,124,5380053,,,,,,,2023-04-04,1,,,,,イープレイス,0
707,4120001253688,新規,0,2023-04-04,2023-04-04,トレンドマーケティング株式会社,,株式会社,大阪府,大阪市北区,曾根崎新地１丁目７番３２号鍵屋ビル４階,,27,127,5300002,,,,,,,2023-04-04,1,,,,,トレンドマーケティング,0
708,4120001253705,新規,0,2023-04-04,2023-04-04,ヤンマー保険サービス株式会社,,株式会社,大阪府,大阪市北区,茶屋町１番３２号,,27,127,5300013,,,,,,,2023-04-04,1,,,,,ヤンマーホケンサービス,0
713,4120101067237,新規,0,2023-04-04,2023-04-04,株式会社ボーダー,,株式会社,大阪府,堺市堺区,少林寺町西１丁１番５号,,27,141,5900960,,,,,,,2023-04-04,1,,,,,ボーダー,0
716,4120903004569,新規,0,2023-04-04,2023-04-04,合同会社ＵＲＵ,,合同会社,大阪府,豊中市,豊南町東２丁目１１－１,,27,203,5610814,,,,,,,2023-04-04,1,,,,,ウル,0
722,4130001073978,新規,0,2023-04-04,2023-04-04,株式会社Ｎｅｒｏ　Ａｕｔｏ,,株式会社,京都府,京都市伏見区,横大路菅本２番地２２,,26,109,6128251,,,,,,,2023-04-04,1,,,,,ネロオート,0
724,4130003008627,新規,0,2023-04-04,2023-04-04,合同会社トリップネスト,,合同会社,京都府,京都市右京区,梅津堤上町１０番地,,26,108,6150904,,,,,,,2023-04-04,1,,,,,トリップネスト,0
728,4140005026551,新規,0,2023-04-04,2023-04-04,医療法人社団ｗｋｗｋ,,その他の設立登記法人,兵庫県,神戸市西区,小山１丁目１番５号．６号,,28,111,6512144,,,,,,,2023-04-04,1,,,,,ワクワク,0
731,4150001026281,新規,0,2023-04-04,2023-04-04,株式会社ＢＴ　ＣＬＡＳＳ,,株式会社,奈良県,北葛城郡上牧町,大字上牧３４２３番地１クリエイトプラザ２－１－２Ｆ,,29,424,6390214,,,,,,,2023-04-04,1,,,,,ビイティークラス,0
740,4180001155648,新規,0,2023-04-04,2023-04-04,ブロックシステム株式会社,,株式会社,愛知県,名古屋市中村区,名駅４丁目２４番５号第２森ビル４０１,,23,105,4500002,,,,,,,2023-04-04,1,,,,,ブロックシステム,0
746,4190001030263,新規,0,2023-04-04,2023-04-04,株式会社加藤総業,,株式会社,三重県,松阪市,中林町５２番地１クラージュＤ棟２０３,,24,204,5152111,,,,,,,2023-04-04,1,,,,,カトウソウギョウ,0
747,4190001030296,新規,0,2023-04-04,2023-04-04,大成プラント設計株式会社,,株式会社,三重県,鈴鹿市,桜島町４丁目１０番１,,24,207,5130817,,,,,,,2023-04-04,1,,,,,タイセイプラントセッケイ,0
750,4200001041135,新規,0,2023-04-04,2023-04-04,明新機工株式会社,,株式会社,岐阜県,羽島郡笠松町,北及１８０７番地の２,,21,303,5016064,,,,,,,2023-04-04,1,,,,,メイシンキコウ,0
760,4240001061286,新規,0,2023-04-04,2023-04-04,大西工業株式会社,,株式会社,広島県,安芸郡府中町,石井城２丁目１１番１８号,,34,302,7350007,,,,,,,2023-04-04,1,,,,,オオニシコウギョウ,0
762,4250001020035,新規,0,2023-04-04,2023-04-04,株式会社グローバルインフォソリューションズ,,株式会社,山口県,宇部市,大字中山３６０番地１メゾンリリーライト１０５号,,35,202,7550058,,,,,,,2023-04-04,1,,,,,グローバルインフォソリューションズ,0
763,4260001037788,新規,0,2023-04-04,2023-04-04,ｄｏｇ．ｔｉｍｅｓｔｏｒｙ株式会社,,株式会社,岡山県,倉敷市,黒崎７０番地１サニーサイドテラス１０３,,33,202,7100014,,,,,,,2023-04-04,1,,,,,ドッグタイムストーリー,0
764,4260001037821,新規,0,2023-04-04,2023-04-04,イデアワークス株式会社,,株式会社,岡山県,岡山市南区,福島３丁目９番１４号,,33,104,7028044,,,,,,,2023-04-04,1,,,,,イデアワークス,0
776,4290801029412,新規,0,2023-04-04,2023-04-04,株式会社益田電工,,株式会社,福岡県,北九州市八幡西区,御開１丁目４番２１号,,40,109,8070806,,,,,,,2023-04-04,1,,,,,マスダマスダデンコウ,0
778,4310001018345,新規,0,2023-04-04,2023-04-04,株式会社さいかい企画,,株式会社,長崎県,西海市,大島町１８９４番地９,,42,212,8572427,,,,,,,2023-04-04,1,,,,,サイカイキカク,0
781,4340001025470,新規,0,2023-04-04,2023-04-04,株式会社絆愛工業,,株式会社,鹿児島県,霧島市,隼人町松永１丁目１１３番地,,46,218,8995112,,,,,,,2023-04-04,1,,,,,キズナコウギョウ,0
783,4350001018267,新規,0,2023-04-04,2023-04-04,株式会社正和エステート,,株式会社,宮崎県,宮崎市,丸山２丁目２６１番地ウェルネスマンション神宮２０１号,,45,201,8800052,,,,,,,2023-04-04,1,,,,,ショウワエステート,0
787,4360003012829,新規,0,2023-04-04,2023-04-04,合同会社ＪＡＭＢＡＲＡ,,合同会社,沖縄県,名護市,大西３丁目６番２０号,,47,209,9050018,,,,,,,2023-04-04,1,,,,,ジャンバラ,0
788,4370001049780,新規,0,2023-04-04,2023-04-04,株式会社ＤＲＥＡＭコーポレーション,,株式会社,宮城県,栗原市,築館字照越字永平４１番２,,04,213,9872200,,,,,,,2023-04-04,1,,,,,ドリームコーポレーション,0
794,4410001013443,新規,0,2023-04-04,2023-04-04,株式会社ｍｋワーク,,株式会社,秋田県,秋田市,濁川字蟹子沢６０番地,,05,201,0100821,,,,,,,2023-04-04,1,,,,,エムケーワーク,0
807,4500001024844,新規,0,2023-04-04,2023-04-04,株式会社ティーエム設計,,株式会社,愛媛県,新居浜市,萩生６１９番地の１,,38,205,7920050,,,,,,,2023-04-04,1,,,,,,0
808,4500001024852,新規,0,2023-04-04,2023-04-04,株式会社ＨＡＬＯ　Ｃｏｎｎｅｃｔ,,株式会社,愛媛県,松山市,堀江町甲８６５番地７,,38,201,7992651,,,,,,,2023-04-04,1,,,,,,0
809,4700150020822,新規,0,2023-04-04,2015-10-09,長野県職員労働組合,,その他,長野県,長野市,大字南長野字幅下６９２－２,,20,201,3800837,,,,,,,2015-10-09,1,,,,,ナガノケンシヨクインロウドウクミアイ,0
810,4700150114640,新規,0,2023-04-04,2023-04-04,Ｚａｎｏｕｂｉａ　Ｌｉｍｉｔｅｄ,,外国会社等,,,,,,,,Ｔｅｍｐｌａｒ　Ｈｏｕｓｅ　Ｄｏｎ　Ｒｏａｄ，Ｓｔ　Ｈｅｌｉｅｒ，Ｊｅｒｓｅｙ　ＪＥ４　８ＷＨ,,,,,,2023-04-04,1,,,,,ザヌービアリミテツド,0
811,4700150115127,新規,0,2023-04-04,2023-04-04,古野電気健康保険組合,,その他,兵庫県,西宮市,芦原町９番５２号,,28,204,6620842,,,,,,,2023-04-04,1,,,,,フルノデンキケンコウホケンクミアイ,0
812,4700150115135,新規,0,2023-04-04,2023-04-04,ＳＨＡＮＧＨＡＩ　ＢＬＥＳＳ　ＩＮＤＵＳＴＲＹ　ＣＯ．，　ＬＴＤ,,外国会社等,,,,,,,,ｑｉｎｇｐｕｑｕ，ｂａｉｈｅｚｈｅｎ，ｚｈｕｐｕｃｕｎ，ｊｉａｎｇｐｕ３９ｈａｏｄｉ２ｚｈｕａｎｇ,,,,,,2023-04-04,1,,,,,シヤンハイホウユウジジツギヨウユウゲンコウシ,0
819,5010003040203,新規,0,2023-04-04,2023-04-04,合同会社スプリング２,,合同会社,東京都,千代田区,丸の内３丁目１番１号東京共同会計事務所内,,13,101,1000005,,,,,,,2023-04-04,1,,,,,スプリングツー,0
820,5010103002111,新規,0,2023-04-04,2023-04-04,合同会社船水空調,,合同会社,東京都,八王子市,長房町１０４‐３,,13,201,1930824,,,,,,,2023-04-04,1,,,,,フナミズクウチョウ,0
821,5010401173463,新規,0,2023-04-04,2023-04-04,株式会社ユニキャリア,,株式会社,東京都,港区,虎ノ門３丁目８番８号ＮＴＴ虎ノ門ビル６階,,13,103,1050001,,,,,,,2023-04-04,1,,,,,ユニキャリア,0
822,5010403029845,新規,0,2023-04-04,2023-04-04,合同会社ｗｏｎｄｅｒ　ｗｏｒｋｅｒ,,合同会社,東京都,港区,赤坂７丁目１０番１‐４０１号,,13,103,1070052,,,,,,,2023-04-04,1,,,,,ワンダーワーカー,0
825,5010601062838,新規,0,2023-04-04,2023-04-04,柔川株式会社,,株式会社,東京都,江東区,豊洲６丁目２－３１－４０２３号,,13,108,1350061,,,,,,,2023-04-04,1,,,,,ジュウセン,0
826,5010605004183,新規,0,2023-04-04,2023-04-04,一般社団法人ＫＯＭＡＣＨＩ,,その他の設立登記法人,東京都,江東区,常盤２丁目１３－９アーバンフォレスト森下２０２,,13,108,1350006,,,,,,,2023-04-04,1,,,,,コマチ,0
836,5011001153475,新規,0,2023-04-04,2023-04-04,ＦｉｅｒＺ株式会社,,株式会社,東京都,渋谷区,代官山町８－９竜王ビル５階,,13,113,1500034,,,,,,,2023-04-04,1,,,,,フィアーズ,0
837,5011003016548,新規,0,2023-04-04,2023-04-04,Ｃｈａｍｄｅ合同会社,,合同会社,東京都,渋谷区,道玄坂１丁目１０番８号渋谷道玄坂東急ビル２Ｆ－Ｃ,,13,113,1500043,,,,,,,2023-04-04,1,,,,,シャンデ,0
838,5011003016556,新規,0,2023-04-04,2023-04-04,合同会社ＳＩＥＮＡ,,合同会社,東京都,渋谷区,初台２丁目２９番９号アーバンハイム初台５０４,,13,113,1510061,,,,,,,2023-04-04,1,,,,,シエナ,0
846,5011101102332,新規,0,2023-04-04,2023-04-04,ＥＰＩＰＨＡＮＹ株式会社,,株式会社,東京都,新宿区,西新宿３丁目３番１３号西新宿水間ビル２Ｆ,,13,104,1600023,,,,,,,2023-04-04,1,,,,,エピファニィ,0
847,5011101102365,新規,0,2023-04-04,2023-04-04,株式会社ＴＲｉＡＤ,,株式会社,東京都,新宿区,西新宿３丁目３番１３号西新宿水間ビル６階,,13,104,1600023,,,,,,,2023-04-04,1,,,,,トライアド,0
854,5011503005554,新規,0,2023-04-04,2023-04-04,Ｔｒａｖｅｒｓｏ合同会社,,合同会社,東京都,北区,東十条６丁目５－３,,13,117,1140001,,,,,,,2023-04-04,1,,,,,トラヴェルソ,0
862,5013301050542,新規,0,2023-04-04,2023-04-04,株式会社ｅｃｒｉｎ,,株式会社,東京都,豊島区,南池袋１丁目９番１８号,,13,116,1710022,,,,,,,2023-04-04,1,,,,,エクラン,0
864,5013303006567,新規,0,2023-04-04,2023-04-04,合同会社ＤＰ　Ｗｏｒｋｓ,,合同会社,東京都,豊島区,千早４丁目１６番２号ソリッド・コーヴ３０２号,,13,116,1710044,,,,,,,2023-04-04,1,,,,,ディーピーワークス,0
870,5020001150903,新規,0,2023-04-04,2023-04-04,株式会社ＥＴＫアソシエ,,株式会社,神奈川県,横浜市港北区,日吉４丁目１９番３－１０４号,,14,109,2230061,,,,,,,2023-04-04,1,,,,,イーティーケーアソシエ,0
873,5021001078572,新規,0,2023-04-04,2023-04-04,株式会社アニージャ湘南,,株式会社,神奈川県,茅ヶ崎市,共恵１丁目１番５号ＢＬＤＮａｇａｓｈｉｍａ３階,,14,207,2530056,,,,,,,2023-04-04,1,,,,,アニージャショウナン,0
881,5030001153137,新規,0,2023-04-04,2023-04-04,ハッピーベル株式会社,,株式会社,埼玉県,本庄市,千代田３丁目１番３号,,11,211,3670054,,,,,,,2023-04-04,1,,,,,ハッピーベル,0
885,5030003021457,新規,0,2023-04-04,2023-04-04,合同会社ＵＮＩ,,合同会社,埼玉県,さいたま市岩槻区,南平野１丁目１１‐２６,,11,110,3390051,,,,,,,2023-04-04,1,,,,,ウニ,0
887,5040001127750,新規,0,2023-04-04,2023-04-04,株式会社エイチ・ティー・エム,,株式会社,千葉県,夷隅郡御宿町,御宿台２０２番地４,,12,443,2995112,,,,,,,2023-04-04,1,,,,,エイチティーエム,0
888,5040003022223,新規,0,2023-04-04,2023-04-04,合同会社ラズリ,,合同会社,千葉県,木更津市,清見台南５丁目８－１８,,12,206,2920042,,,,,,,2023-04-04,1,,,,,ラズリ,0
899,5080401026409,新規,0,2023-04-04,2023-04-04,株式会社クローバー,,株式会社,静岡県,浜松市浜北区,東美薗２０３番地の１みなとビル３階,,22,136,4340026,,,,,,,2023-04-04,1,,,,,クローバー,0
901,5110001037397,新規,0,2023-04-04,2023-04-04,株式会社ＲｅＦｌｏ,,株式会社,新潟県,新潟市中央区,南笹口１丁目１－３８コープオリンピア８０８,,15,103,9500912,,,,,,,2023-04-04,1,,,,,リフロ,0
906,5120001253670,新規,0,2023-04-04,2023-04-04,聚盈ＳＹＵＥＩ株式会社,,株式会社,大阪府,大阪市東住吉区,照ケ丘矢田１丁目２２－１３,,27,121,5460021,,,,,,,2023-04-04,1,,,,,シュウエイ,0
907,5120001253687,新規,0,2023-04-04,2023-04-04,株式会社ファーストコミュニティ,,株式会社,大阪府,大阪市西区,北堀江１丁目１２番６号正隆大阪ビル６階,,27,106,5500014,,,,,,,2023-04-04,1,,,,,ファーストコミュニティ,0
908,5120001253745,新規,0,2023-04-04,2023-04-04,松下金属株式会社,,株式会社,大阪府,大阪市北区,中津３丁目２４番３－７０５号,,27,127,5310071,,,,,,,2023-04-04,1,,,,,マツシタキンゾク,0
910,5120003023766,新規,0,2023-04-04,2023-04-04,Ｅ‐Ｆｌｏｗ合同会社,,合同会社,大阪府,大阪市中央区,高麗橋３丁目１番６号,,27,128,5410043,,,,,,,2023-04-04,1,,,,,イーフロー,0
912,5120005023541,新規,0,2023-04-04,2023-04-04,一般社団法人権利擁護センターきずな,,その他の設立登記法人,大阪府,大阪市城東区,永田４丁目１６番９号,,27,118,5360022,,,,,,,2023-04-04,1,,,,,ケンリヨウゴセンターキズナ,0
915,5120901047338,新規,0,2023-04-04,2023-04-04,株式会社ｔ．Ｔｏｋｉ,,株式会社,大阪府,豊中市,向丘３丁目１１番４５号ローザ向丘３０１号室,,27,203,5600053,,,,,,,2023-04-04,1,,,,,ティードットティーオーケイアイ,0
916,5120901047354,新規,0,2023-04-04,2023-04-04,株式会社川口至誠堂,,株式会社,大阪府,吹田市,千里山西４丁目４番６号,,27,205,5650851,,,,,,,2023-04-04,1,,,,,カワグチシセイドウ,0
919,5122003002551,新規,0,2023-04-04,2023-04-04,合同会社中小企業サポートオフィス,,合同会社,大阪府,大東市,三箇２丁目１番１４号,,27,218,5740077,,,,,,,2023-04-04,1,,,,,チュウショウキギョウサポートオフィス,0
923,5130001073985,新規,0,2023-04-04,2023-04-04,株式会社ことほぎ,,株式会社,京都府,宇治市,小倉町山際２０－５１,,26,204,6110042,,,,,,,2023-04-04,1,,,,,コトホギ,0
924,5130001074018,新規,0,2023-04-04,2023-04-04,株式会社エイテック,,株式会社,京都府,長岡京市,友岡２丁目８番１－１０４号コージースクエア長岡京１０４,,26,209,6170843,,,,,,,2023-04-04,1,,,,,エイテック,0
930,5150001026280,新規,0,2023-04-04,2023-04-04,株式会社Ｎｅｘｔ　Ｓｔａｇｅ,,株式会社,奈良県,橿原市,木原町２２８番地の１－３０１,,29,205,6340004,,,,,,,2023-04-04,1,,,,,ネクストステージ,0
931,5160001024944,新規,0,2023-04-04,2023-04-04,古川工業株式会社,,株式会社,滋賀県,栗東市,荒張２５７,,25,208,5203003,,,,,,,2023-04-04,1,,,,,フルカワコウギョウ,0
945,5190001030287,新規,0,2023-04-04,2023-04-04,株式会社明和,,株式会社,三重県,多気郡明和町,大字馬之上８８７番地１６,,24,442,5150332,,,,,,,2023-04-04,1,,,,,メイワ,0
946,5190001030295,新規,0,2023-04-04,2023-04-04,丸一重機株式会社,,株式会社,三重県,津市,大里睦合町２３８０番地,,24,201,5140126,,,,,,,2023-04-04,1,,,,,マルイチジュウキ,0
949,5200001041126,新規,0,2023-04-04,2023-04-04,Ｔｏｕｔ　ｃａ株式会社,,株式会社,岐阜県,岐阜市,長良１８７番地７,,21,201,5020071,,,,,,,2023-04-04,1,,,,,トゥーサ,0
950,5200001041134,新規,0,2023-04-04,2023-04-04,ＳＯＫＥＮ．ＫＷＴ株式会社,,株式会社,岐阜県,美濃市,横越３６５番地１,,21,207,5013761,,,,,,,2023-04-04,1,,,,,ソウケンケイダブリュティー,0
953,5210003001622,新規,0,2023-04-04,2023-04-04,合同会社Ｎｏｌｏ,,合同会社,福井県,福井市,若杉４丁目２５１８,,18,201,9188055,,,,,,,2023-04-04,1,,,,,ノロ,0
958,5240001061285,新規,0,2023-04-04,2023-04-04,株式会社Ｒ＆Ｔ,,株式会社,広島県,広島市南区,宇品東１丁目７番５－１０２号,,34,103,7340003,,,,,,,2023-04-04,1,,,,,アールアンドティー,0
962,5260001037820,新規,0,2023-04-04,2023-04-04,仙煉株式会社,,株式会社,岡山県,倉敷市,中島１５１５－１サンビレッジチェリオＡ棟１０２,,33,202,7100803,,,,,,,2023-04-04,1,,,,,センレン,0
964,5260003004265,新規,0,2023-04-04,2023-04-04,合同会社清板Ｈａｎｄ’ｚ,,合同会社,岡山県,倉敷市,児島唐琴３丁目２番４４号,,33,202,7110904,,,,,,,2023-04-04,1,,,,,セイタハンズ,0
966,5280003001715,新規,0,2023-04-04,2023-04-04,合同会社ｎａｕｔｔｉａ,,合同会社,島根県,鹿足郡津和野町,内美３５番地,,32,501,6995621,,,,,,,2023-04-04,1,,,,,ナウッティア,0
980,5290801029428,新規,0,2023-04-04,2023-04-04,株式会社ネクストカーズ,,株式会社,福岡県,京都郡苅田町,神田町２丁目１６番地３１,,40,621,8000361,,,,,,,2023-04-04,1,,,,,ネクストカーズ,0
983,5310001018352,新規,0,2023-04-04,2023-04-04,株式会社ｆｏｕｒｓ,,株式会社,長崎県,長崎市,大黒町１０－１０ＫｏＫｏＲｏビル６１１５号室,,42,201,8500057,,,,,,,2023-04-04,1,,,,,フォーズ,0
990,5330001030719,新規,0,2023-04-04,2023-04-04,株式会社あゆみ企画,,株式会社,熊本県,上益城郡御船町,大字高木２０９１番地１,,43,441,8613203,,,,,,,2023-04-04,1,,,,,アユミキカク,0
992,5330003009785,新規,0,2023-04-04,2023-04-04,合同会社ＩＫＭ,,合同会社,熊本県,八代市,千丁町吉王丸１９６番地,,43,202,8694702,,,,,,,2023-04-04,1,,,,,アイケーエム,0
999,5350001018258,新規,0,2023-04-04,2023-04-04,株式会社ＮＥＸＴ　Ｏｎｅ,,株式会社,宮崎県,宮崎市,恒久５丁目１９番地９,,45,201,8800913,,,,,,,2023-04-04,1,,,,,ネクストワン,0
1001,5360001031755,新規,0,2023-04-04,2023-04-04,株式会社ＲＡＳＨＩＫＵ,,株式会社,沖縄県,那覇市,西２丁目７－１４ｌｅ　ｓｏｌｅｉｌ西町６０２,,47,201,9000036,,,,,,,2023-04-04,1,,,,,ラシク,0
1002,5360001031763,新規,0,2023-04-04,2023-04-04,株式会社心電社,,株式会社,沖縄県,宜野湾市,野嵩４丁目１３番１６号,,47,205,9012203,,,,,,,2023-04-04,1,,,,,シンデンシャ,0
1006,5360003012836,新規,0,2023-04-04,2023-04-04,合同会社Ｗｅｓｔ・Ｏｎｅ,,合同会社,沖縄県,中頭郡北谷町,字上勢頭８１４番地５,,47,326,9040101,,,,,,,2023-04-04,1,,,,,ウエストワン,0
1007,5360003012844,新規,0,2023-04-04,2023-04-04,ＲＤＳ合同会社,,合同会社,沖縄県,中頭郡読谷村,字宇座１８６１,,47,324,9040328,,,,,,,2023-04-04,1,,,,,アールディーエス,0
1011,5380001033576,新規,0,2023-04-04,2023-04-04,株式会社くちきサービス,,株式会社,福島県,いわき市,小島町２丁目９番地の１５,,07,204,9738411,,,,,,,2023-04-04,1,,,,,クチキサービス,0
1013,5410001013434,新規,0,2023-04-04,2023-04-04,株式会社造形舎,,株式会社,秋田県,秋田市,八橋本町４丁目１０番１５号,,05,201,0100973,,,,,,,2023-04-04,1,,,,,,0
1014,5410003003771,新規,0,2023-04-04,2023-04-04,合同会社柏農研,,合同会社,秋田県,大仙市,豊岡字向エ１番地,,05,212,0140712,,,,,,,2023-04-04,1,,,,,カシワノウケン,0
1024,5430003014882,新規,0,2023-04-04,2023-04-04,ワイシーエス合同会社,,合同会社,北海道,札幌市白石区,南郷通１９丁目北２番１－１５０４号,,01,104,0030023,,,,,,,2023-04-04,1,,,,,ワイシーエス,0
1031,5500001024851,新規,0,2023-04-04,2023-04-04,株式会社いよぎんデジタルソリューションズ,,株式会社,愛媛県,松山市,南堀端町１番地,,38,201,7900006,,,,,,,2023-04-04,1,,,,,イヨギンデジタルソリューションズ,0
1033,5700150115150,新規,0,2023-04-04,2023-04-04,Ｘｉａｍｅｎｓｈｉ　ｓｉｐｕｔｅｌａｎｇ　Ｔｒａｄｅ　Ｃｏ．，Ｌｔｄ,,外国会社等,,,,,,,,Ｒｏｏｍ　２０５，１５５　Ｎｏｒｔｈ　Ｓｈｉｔａｎｇ　Ｖｉｌｌａｇｅ，Ｈａｉｃａｎｇ　Ｄｉｓｔｒｉｃｔ　ｘｉａｍｅｎ　ｆｕｊｉａｎ　３６１０２６　ＣＮ,,,,,,2023-04-04,1,,,,,アモイシスブトクロウボウエキユウゲンコウシ,0
1035,6010001234152,新規,0,2023-04-04,2023-04-04,白鳳新薬株式会社,,株式会社,東京都,中央区,日本橋２丁目２番３号ＲＩＳＨＥビルＵＣＦ４階,,13,102,1030027,,,,,,,2023-04-04,1,,,,,ハクホウシンヤク,0
1037,6010005036454,新規,0,2023-04-04,2023-04-04,ＲＢソーラーソレルホールディングス一般社団法人,,その他の設立登記法人,東京都,千代田区,麹町２丁目８番地ＭＬＣ麹町ビル４階フィンポート税理士法人内,,13,101,1020083,,,,,,,2023-04-04,1,,,,,アールビーソーラーソレルホールディングス,0
1042,6010401173363,新規,0,2023-04-04,2023-04-04,株式会社メディフェリスイノベーション,,株式会社,東京都,港区,南青山２丁目２番１５号ウィン青山９４２,,13,103,1070062,,,,,,,2023-04-04,1,,,,,メディフェリスイノベーション,0
1043,6010401173438,新規,0,2023-04-04,2023-04-04,株式会社ＸＤ,,株式会社,東京都,港区,浜松町１丁目１２番４号第２長谷川ビル３Ｆ,,13,103,1050013,,,,,,,2023-04-04,1,,,,,エックスディー,0
1044,6010401173462,新規,0,2023-04-04,2023-04-04,株式会社Ｇｏｋｕ‐Ｌａｂｏ,,株式会社,東京都,港区,高輪４丁目２３番６号ハイホーム高輪７０８,,13,103,1080074,,,,,,,2023-04-04,1,,,,,ゴクウラボ,0
1051,6010903008075,新規,0,2023-04-04,2023-04-04,合同会社おもう,,合同会社,東京都,世田谷区,上祖師谷４丁目４番３８号,,13,112,1570065,,,,,,,2023-04-04,1,,,,,オモウ,0
1057,6011001153334,新規,0,2023-04-04,2023-04-04,株式会社ＢＥＡＵＣＥ　ＬＡＢＯ,,株式会社,東京都,渋谷区,道玄坂１丁目１７番６号,,13,113,1500043,,,,,,,2023-04-04,1,,,,,ビュースラボ,0
1058,6011001153359,新規,0,2023-04-04,2023-04-04,株式会社ナレソメ,,株式会社,東京都,目黒区,東が丘２丁目１４－１２コテージ東が丘３０１,,13,110,1520021,,,,,,,2023-04-04,1,,,,,ナレソメ,0
1059,6011001153482,新規,0,2023-04-04,2023-04-04,株式会社Ｓｅｌｅｎａ,,株式会社,東京都,渋谷区,道玄坂１丁目１０番８号渋谷道玄坂東急ビル２Ｆ－Ｃ,,13,113,1500043,,,,,,,2023-04-04,1,,,,,セレナ,0
1062,6011003016563,新規,0,2023-04-04,2023-04-04,Ａｗｅｓｏｍｅ　ＬｉｎＱ合同会社,,合同会社,東京都,渋谷区,渋谷２丁目１９－１５宮益坂ビルディング６０９,,13,113,1500002,,,,,,,2023-04-04,1,,,,,オーサムリンク,0
1063,6011003016571,新規,0,2023-04-04,2023-04-04,合同会社オオタニ,,合同会社,東京都,渋谷区,本町６丁目１－１６,,13,113,1510071,,,,,,,2023-04-04,1,,,,,オオタニ,0
1069,6011101102281,新規,0,2023-04-04,2023-04-04,株式会社ｆａｍ,,株式会社,東京都,新宿区,西新宿７丁目４番７号第一太田ビル３階,,13,104,1600023,,,,,,,2023-04-04,1,,,,,ファム,0
1070,6011101102389,新規,0,2023-04-04,2023-04-04,トップレフト・リスクコンサルティング株式会社,,株式会社,東京都,新宿区,西新宿３丁目２番９号,,13,104,1600023,,,,,,,2023-04-04,1,,,,,トップレフトリスクコンサルティング,0
1071,6011103012875,新規,0,2023-04-04,2023-04-04,合同会社ラフォーレキャピタル,,合同会社,東京都,新宿区,北新宿２丁目２０番２－７０３号,,13,104,1690074,,,,,,,2023-04-04,1,,,,,ラフォーレキャピタル,0
1074,6011205002543,新規,0,2023-04-04,2023-04-04,一般社団法人Ａｓｓｏｃｉａｔｉｏｎ　ｆｏｒ　Ｗｏｒｌｄ　Ｖｅｇｅｔａｔｉｏｎ　Ｓｔｕｄｉｅｓ,,その他の設立登記法人,東京都,中野区,東中野１丁目５６番４号第一ビル２０３,,13,114,1640003,,,,,,,2023-04-04,1,,,,,アソシエーションフォアワールドベジェテーションスタディーズ,0
1076,6012401040353,新規,0,2023-04-04,2023-04-04,株式会社ビギントータルサービス,,株式会社,東京都,多摩市,愛宕２丁目６番地、１－４０１,,13,224,2060041,,,,,,,2023-04-04,1,,,,,ビギントータルサービス,0
1078,6012403005916,新規,0,2023-04-04,2023-04-04,合同会社電設ユニオン,,合同会社,東京都,調布市,入間町２丁目７番地７シャルマン成城２０３,,13,208,1820004,,,,,,,2023-04-04,1,,,,,デンセツユニオン,0
1080,6012701017563,新規,0,2023-04-04,2023-04-04,株式会社ＫＩＲＡＫＵＳ,,株式会社,東京都,小平市,天神町２丁目１７番６－２０３号,,13,211,1870004,,,,,,,2023-04-04,1,,,,,キラクス,0
1082,6013303006566,新規,0,2023-04-04,2023-04-04,合同会社Ｇｅｒｕｓｅｅ,,合同会社,東京都,豊島区,東池袋１丁目１７番１１－１１０５号パークハイツ池袋,,13,116,1700013,,,,,,,2023-04-04,1,,,,,ゲルシー,0
1083,6013303006574,新規,0,2023-04-04,2023-04-04,Ｓｅｅｋｅｒｓ　Ｊａｐａｎ合同会社,,合同会社,東京都,豊島区,上池袋２丁目３５番２１号,,13,116,1700012,,,,,,,2023-04-04,1,,,,,シーカーズジャパン,0
1085,6020001150893,新規,0,2023-04-04,2023-04-04,ＭＥＫＯＮＧ株式会社,,株式会社,神奈川県,横浜市港北区,小机町１５３８－２－１１０,,14,109,2220036,,,,,,,2023-04-04,1,,,,,メコン,0
1086,6020001150902,新規,0,2023-04-04,2023-04-04,株式会社Ｓａｖｏｉｒ,,株式会社,神奈川県,横浜市中区,山手町１２０番地３５,,14,104,2310862,,,,,,,2023-04-04,1,,,,,サヴォワール,0
1087,6020001150927,新規,0,2023-04-04,2023-04-04,アイ・エンジ株式会社,,株式会社,神奈川県,横浜市神奈川区,西神奈川２丁目９番地１東白楽パーク・ホームズ２０５号,,14,102,2210822,,,,,,,2023-04-04,1,,,,,アイエンジ,0
1096,6030001153136,新規,0,2023-04-04,2023-04-04,スチールドラフト株式会社,,株式会社,埼玉県,日高市,大字原宿１２２番地１６,,11,242,3501205,,,,,,,2023-04-04,1,,,,,スチールドラフト,0
1104,6040003022230,新規,0,2023-04-04,2023-04-04,ＡＳＡＰ合同会社,,合同会社,千葉県,八千代市,八千代台北９丁目１０番３号,,12,221,2760031,,,,,,,2023-04-04,1,,,,,エイサップ,0
1112,6080003002955,新規,0,2023-04-04,2023-04-04,合同会社エス不動産企画,,合同会社,静岡県,静岡市清水区,平川地２３番９号ジュエ狐ケ崎マンション１３,,22,103,4240872,,,,,,,2023-04-04,1,,,,,エスフドウサンキカク,0
1119,6110003005013,新規,0,2023-04-04,2023-04-04,ＮＫＶ合同会社,,合同会社,新潟県,新潟市西区,寺尾上５丁目１２－１８,,15,107,9502055,,,,,,,2023-04-04,1,,,,,エヌケイブイ,0
1122,6120001253686,新規,0,2023-04-04,2023-04-04,株式会社ＳＥＰＤ,,株式会社,大阪府,門真市,松生町二丁目２,,27,223,5710044,,,,,,,2023-04-04,1,,,,,セプド,0
1125,6120101067243,新規,0,2023-04-04,2023-04-04,株式会社ＣＳＢ　ＲＩＤＥ,,株式会社,大阪府,和泉市,池田下町２３２番地の１,,27,219,5940032,,,,,,,2023-04-04,1,,,,,シーエスビーライド,0
1130,6130001073976,新規,0,2023-04-04,2023-04-04,株式会社メディカルビレッジ,,株式会社,京都府,京田辺市,三山木西ノ河原８番地６３,,26,211,6100313,,,,,,,2023-04-04,1,,,,,メディカルビレッジ,0
1142,6160001024943,新規,0,2023-04-04,2023-04-04,株式会社ｂｇｒ,,株式会社,滋賀県,守山市,今宿２丁目６番３３号,,25,207,5240046,,,,,,,2023-04-04,1,,,,,ビージーアール,0
1148,6180001155646,新規,0,2023-04-04,2023-04-04,株式会社ブロックス,,株式会社,愛知県,名古屋市緑区,四本木６０７番地の１（Ｓｈａｒｉｏ１０１号）,,23,114,4580039,,,,,,,2023-04-04,1,,,,,ブロックス,0
1155,6180301037239,新規,0,2023-04-04,2023-04-04,株式会社華閃會,,株式会社,愛知県,豊川市,篠束町西宮２７番地２３,,23,207,4410102,,,,,,,2023-04-04,1,,,,,カセンカイ,0
1156,6190001030286,新規,0,2023-04-04,2023-04-04,株式会社ハミングバード,,株式会社,三重県,松阪市,黒田町１０番地,,24,204,5150061,,,,,,,2023-04-04,1,,,,,ハミングバード,0
1159,6210001019269,新規,0,2023-04-04,2023-04-04,株式会社ドローンゆずりは,,株式会社,福井県,越前市,黒川町第５５号４７番地の２,,18,209,9151202,,,,,,,2023-04-04,1,,,,,ドローンユズリハ,0
1162,6220001025332,新規,0,2023-04-04,2023-04-04,株式会社Ｋ‐ＬＩＮＥ,,株式会社,石川県,金沢市,諸江町下丁１１５番地２,,17,201,9200017,,,,,,,2023-04-04,1,,,,,ケーライン,0
1163,6230001019762,新規,0,2023-04-04,2023-04-04,ＧＲＮベンチャーズ株式会社,,株式会社,富山県,高岡市,内島３５５０番地,,16,202,9330328,,,,,,,2023-04-04,1,,,,,ジーアールエヌベンチャーズ,0
1166,6240001061276,新規,0,2023-04-04,2023-04-04,株式会社ジョーシン,,株式会社,広島県,福山市,南手城町１丁目１０番４号,,34,207,7210963,,,,,,,2023-04-04,1,,,,,,0
1167,6240001061284,新規,0,2023-04-04,2023-04-04,ＡＩＮＴＭＡＸ株式会社,,株式会社,広島県,広島市西区,己斐上２丁目４４－２８,,34,104,7330815,,,,,,,2023-04-04,1,,,,,エイントマックス,0
1170,6250003003242,新規,0,2023-04-04,2023-04-04,合同会社ＣＯＲＡ商会,,合同会社,山口県,山口市,宮野下３０８６－９,,35,203,7530011,,,,,,,2023-04-04,1,,,,,,0
1171,6260001037794,新規,0,2023-04-04,2023-04-04,さん株式会社,,株式会社,岡山県,倉敷市,老松町５丁目１番３０号,,33,202,7100826,,,,,,,2023-04-04,1,,,,,サン,0
1176,6290001101077,新規,0,2023-04-04,2023-04-04,株式会社雄成,,株式会社,福岡県,福岡市東区,多の津４丁目７番２３号,,40,131,8130034,,,,,,,2023-04-04,1,,,,,,0
1187,6370001049779,新規,0,2023-04-04,2023-04-04,ＡＭＵ株式会社,,株式会社,宮城県,仙台市青葉区,本町１丁目５番２８号カーニープレイス仙台駅前通６０３,,04,101,9800014,,,,,,,2023-04-04,1,,,,,アム,0
1188,6370001049787,新規,0,2023-04-04,2023-04-04,株式会社エスエー未来開発,,株式会社,宮城県,石巻市,立町２丁目４番３２号,,04,202,9860824,,,,,,,2023-04-04,1,,,,,エスエーミライカイハツ,0
1195,6390003002073,新規,0,2023-04-04,2023-04-04,合同会社ｌｉｎｋ,,合同会社,山形県,米沢市,城西３丁目５－９,,06,202,9920054,,,,,,,2023-04-04,1,,,,,リンク,0
1196,6410001013441,新規,0,2023-04-04,2023-04-04,株式会社測建技巧,,株式会社,秋田県,秋田市,金足追分字海老穴２７１番地１２,,05,201,0100126,,,,,,,2023-04-04,1,,,,,ソッケンギコウ,0
1198,6420001018209,新規,0,2023-04-04,2023-04-04,株式会社ライトカフェＵ．,,株式会社,青森県,八戸市,大字十三日町１番地,,02,203,0310042,,,,,,,2023-04-04,1,,,,,,0
1203,6430001088746,新規,0,2023-04-04,2023-04-04,株式会社ＰＨＡＲＭＡ　ＰＯＲＴ,,株式会社,北海道,札幌市手稲区,稲穂二条７丁目４番１号,,01,109,0060032,,,,,,,2023-04-04,1,,,,,ファーマポート,0
1207,6450003002315,新規,0,2023-04-04,2023-04-04,合同会社総合建設ＭＡＳＡ,,合同会社,北海道,旭川市,十条通９丁目９７５番地の８２ダイアナ常盤ヒルズ８０１号室,,01,204,0700040,,,,,,,2023-04-04,1,,,,,ソウゴウケンセツマサ,0
1208,6462501000947,新規,0,2023-04-04,2023-04-04,株式会社角川商店,,株式会社,北海道,野付郡別海町,西春別駅前錦町４５番地,,01,691,0882563,,,,,,,2023-04-04,1,,,,,,0
1213,6500001024842,新規,0,2023-04-04,2023-04-04,株式会社ＵＮＡ,,株式会社,愛媛県,松山市,南吉田町２８４２番地２,,38,201,7918042,,,,,,,2023-04-04,1,,,,,ユーエヌエー,0
1217,6700150114639,新規,0,2023-04-04,2023-04-04,Ａ．Ｄｅｂｓ　＆　Ｃｏ．，Ｌｔｄ,,外国会社等,,,,,,,,Ｔｅｍｐｌａｒ　Ｈｏｕｓｅ　Ｄｏｎ　Ｒｏａｄ，Ｓｔ　Ｈｅｌｉｅｒ，Ｊｅｒｓｅｙ　ＪＥ４　８ＷＨ,,,,,,2023-04-04,1,,,,,エデビスアンドカンパニーリミテツド,0
1218,6700150115141,新規,0,2023-04-04,2023-04-04,ａｎｊｉｍｉｎｇａｏｈａｉｍｉａｎｃｈａｎｇ,,外国会社等,,,,,,,,ａｎｊｉｘｉａｎｔｉａｎｈｕａｎｇｐｉｎｇｚｈｅｎｗｕｈｅｃｕｎｑｉｎｇｌｉｚｉｒａｎｃｕｎ０１６ｈａｏ，ｈｕｚｈｏｕｓｈｉ，ｚｈｅｊｉａｎｇｓｈｅｎｇ　３１３０００　ＣＮ,,,,,,2023-04-04,1,,,,,アンキツメイオウカイメンジヨウ,0
1224,7010003040218,新規,0,2023-04-04,2023-04-04,カタリスト戦略投資５号合同会社,,合同会社,東京都,千代田区,永田町２丁目１１番１号,,13,101,1000014,,,,,,,2023-04-04,1,,,,,カタリストセンリャクトウシゴゴウ,0
1226,7010005036379,新規,0,2023-04-04,2023-04-04,医療法人社団ＥＯＳ,,その他の設立登記法人,東京都,中央区,銀座２丁目７番１０号銀座マロニエテラス９階,,13,102,1040061,,,,,,,2023-04-04,1,,,,,イオス,0
1227,7010005036437,新規,0,2023-04-04,2023-04-04,特定非営利活動法人ＦＴＪ,,その他の設立登記法人,東京都,文京区,本郷３丁目４３番１４号グランドメゾン本郷参丁目５０１号室,,13,105,1130033,,,,,,,2023-04-04,1,,,,,エフティジェイ,0
1231,7010401173503,新規,0,2023-04-04,2023-04-04,ｉｄｅａＮＦＴ株式会社,,株式会社,東京都,港区,六本木７丁目６－１５,,13,103,1060032,,,,,,,2023-04-04,1,,,,,アイデアエヌエフティ,0
1233,7010403029827,新規,0,2023-04-04,2023-04-04,合同会社アールズ,,合同会社,東京都,港区,西麻布１丁目３番２３号,,13,103,1060031,,,,,,,2023-04-04,1,,,,,アールズ,0
1234,7010501050239,新規,0,2023-04-04,2023-04-04,株式会社東京塔婆流通センター,,株式会社,東京都,台東区,北上野２丁目３１番８号ツバタビル４階,,13,106,1100014,,,,,,,2023-04-04,1,,,,,トウキョウトウバリュウツウセンター,0
1237,7010901052801,新規,0,2023-04-04,2023-04-04,株式会社Ｈｏｍｅ‐Ｅｃｏ,,株式会社,東京都,世田谷区,中町５丁目２９番１１－５０１号,,13,112,1580091,,,,,,,2023-04-04,1,,,,,ホームエコ,0
1269,7011801042165,新規,0,2023-04-04,2023-04-04,株式会社ＳＨＩＮ’Ｓ　ＭＵＳＩＣ,,株式会社,東京都,葛飾区,立石３丁目１５番４号,,13,122,1240012,,,,,,,2023-04-04,1,,,,,シンズミュージック,0
1277,7013305003453,新規,0,2023-04-04,2023-04-04,一般社団法人高野之夫の想いをつなぐ会,,その他の設立登記法人,東京都,豊島区,南長崎５丁目１番１０号ラ・カーサ南長崎５０１,,13,116,1710052,,,,,,,2023-04-04,1,,,,,タカノユキオノオモイヲツナグカイ,0
1282,7020001150901,新規,0,2023-04-04,2023-04-04,サイバーセル株式会社,,株式会社,神奈川県,川崎市幸区,戸手４丁目７番１－５０５号,,14,132,2120005,,,,,,,2023-04-04,1,,,,,サイバーセル,0
1283,7020001150918,新規,0,2023-04-04,2023-04-04,株式会社豊田不動産,,株式会社,神奈川県,川崎市中原区,上平間４３６番地１,,14,133,2110013,,,,,,,2023-04-04,1,,,,,トヨタフドウサン,0
1294,7021003012908,新規,0,2023-04-04,2023-04-04,合同会社ＬＩＦＥ＆ＭＡＲＲＩＡＧＥ,,合同会社,神奈川県,逗子市,桜山５丁目２－３,,14,208,2490005,,,,,,,2023-04-04,1,,,,,ライフアンドマリッジ,0
1297,7030001153127,新規,0,2023-04-04,2023-04-04,株式会社ミニマルホーム,,株式会社,埼玉県,新座市,堀ノ内２丁目１０番３９号,,11,230,3520023,,,,,,,2023-04-04,1,,,,,ミニマルホーム,0
1298,7030001153143,新規,0,2023-04-04,2023-04-04,株式会社Ｃｈａｉｎｅｒ,,株式会社,埼玉県,さいたま市大宮区,仲町１丁目９０仲町光ビル３Ｆ,,11,103,3300845,,,,,,,2023-04-04,1,,,,,チェイナー,0
1300,7030003021488,新規,0,2023-04-04,2023-04-04,ＥＭＩデザイン合同会社,,合同会社,埼玉県,川口市,大字安行慈林５５８番地の５,,11,203,3340071,,,,,,,2023-04-04,1,,,,,エミデザイン,0
1303,7050001052608,新規,0,2023-04-04,2023-04-04,株式会社ＡＩＳＴ　Ｓｏｌｕｔｉｏｎｓ,,株式会社,茨城県,つくば市,梅園１丁目１番地１,,08,220,3050045,,,,,,,2023-04-04,1,,,,,アイストソリューションズ,0
1304,7070001006834,新規,0,2023-04-04,2023-04-04,株式会社ケンセイハウス,,株式会社,群馬県,高崎市,高浜町１２２４番地５,,10,202,3703333,,,,,,,2023-04-04,1,,,,,ケンセイハウス,0
1308,7070001040271,新規,0,2023-04-04,2023-04-04,株式会社パグ式会社,,株式会社,群馬県,利根郡片品村,大字東小川１３５２番地,,10,443,3780414,,,,,,,2023-04-04,1,,,,,パグシキガイシャ,0
1316,7080001025552,新規,0,2023-04-04,2023-04-04,株式会社エーケーワン,,株式会社,静岡県,静岡市駿河区,下島２５１番地の３,,22,102,4228037,,,,,,,2023-04-04,1,,,,,エーケーワン,0
1327,7100001036266,新規,0,2023-04-04,2023-04-04,株式会社Ｓｕｃｒｅ,,株式会社,長野県,千曲市,大字八幡３９２１－３６,,20,218,3870023,,,,,,,2023-04-04,1,,,,,シュクル,0
1334,7120001253652,新規,0,2023-04-04,2023-04-04,株式会社ＲＥＶＩＳＩＯＮ,,株式会社,大阪府,寝屋川市,楠根南町１３番５号,,27,215,5720811,,,,,,,2023-04-04,1,,,,,リビジョン,0
1335,7120001253669,新規,0,2023-04-04,2023-04-04,株式会社Ｔｅｔｒａｂｏｘ,,株式会社,大阪府,大阪市北区,鶴野町４－１１朝日プラザ梅田ビル２Ｆ－２３,,27,127,5300014,,,,,,,2023-04-04,1,,,,,テトラボックス,0
1336,7120001253685,新規,0,2023-04-04,2023-04-04,株式会社Ａｍｉｇｏ,,株式会社,大阪府,大阪市中央区,東心斎橋２丁目５番２１号,,27,128,5420083,,,,,,,2023-04-04,1,,,,,アミーゴ,0
1337,7120001253702,新規,0,2023-04-04,2023-04-04,アーデントメッド株式会社,,株式会社,大阪府,大阪市阿倍野区,阪南町３丁目６番１７号,,27,119,5450021,,,,,,,2023-04-04,1,,,,,アーデントメッド,0
1340,7120101067250,新規,0,2023-04-04,2023-04-04,株式会社ハートフル,,株式会社,大阪府,堺市西区,鶴田町１８番１５号,,27,144,5938323,,,,,,,2023-04-04,1,,,,,ハートフル,0
1343,7120901047336,新規,0,2023-04-04,2023-04-04,株式会社アイトク,,株式会社,大阪府,吹田市,江坂町１丁目１０番５－３０３号,,27,205,5640063,,,,,,,2023-04-04,1,,,,,アイトク,0
1345,7122001036847,新規,0,2023-04-04,2023-04-04,株式会社Ｙ＆Ｙａｓｕｄａ,,株式会社,大阪府,東大阪市,小阪本町１丁目４番２０号,,27,227,5770802,,,,,,,2023-04-04,1,,,,,ワイアンドヤスダ,0
1346,7122001036855,新規,0,2023-04-04,2023-04-04,株式会社ＭＢネクスト,,株式会社,大阪府,八尾市,高安町一丁目１４４番地,,27,212,5810000,,,,,,,2023-04-04,1,,,,,エムビーネクスト,0
1350,7130001073975,新規,0,2023-04-04,2023-04-04,株式会社梅田工務店,,株式会社,京都府,京都市伏見区,石田森東町１４番地１,,26,109,6011439,,,,,,,2023-04-04,1,,,,,ウメダコウムテン,0
1351,7130003008624,新規,0,2023-04-04,2023-04-04,ＯＲＴＥＣＨ　ＪＡＰＡＮ合同会社,,合同会社,京都府,京都市北区,紫野花ノ坊町９番地２０,,26,101,6038302,,,,,,,2023-04-04,1,,,,,オーテックジャパン,0
1356,7150001026279,新規,0,2023-04-04,2023-04-04,株式会社ＤＣＩ,,株式会社,奈良県,北葛城郡広陵町,大字南郷９８６番地１,,29,426,6350814,,,,,,,2023-04-04,1,,,,,ディーシーアイ,0
1357,7150003002914,新規,0,2023-04-04,2023-04-04,合同会社美来,,合同会社,奈良県,生駒市,西松ケ丘２５番２３号,,29,209,6300246,,,,,,,2023-04-04,1,,,,,ミライ,0
1365,7180001155620,新規,0,2023-04-04,2023-04-04,株式会社ちりとまと,,株式会社,愛知県,名古屋市緑区,万場山１丁目２０８番地,,23,114,4580043,,,,,,,2023-04-04,1,,,,,チリトマト,0
1366,7180001155629,新規,0,2023-04-04,2023-04-04,株式会社西むら,,株式会社,愛知県,名古屋市南区,堤起町１丁目４６番地の１２,,23,112,4570825,,,,,,,2023-04-04,1,,,,,ニシムラ,0
1367,7180001155645,新規,0,2023-04-04,2023-04-04,イーウエストレンタリース株式会社,,株式会社,愛知県,名古屋市西区,栄生２丁目１１番６号,,23,104,4510052,,,,,,,2023-04-04,1,,,,,イーウエストレンタリースカイシャ,0
1368,7180001155661,新規,0,2023-04-04,2023-04-04,株式会社ワイ・エム・イー,,株式会社,愛知県,名古屋市中川区,富永２丁目９７番地,,23,110,4540964,,,,,,,2023-04-04,1,,,,,ワイエムイー,0
1382,7210001019268,新規,0,2023-04-04,2023-04-04,イーグル不動産株式会社,,株式会社,福井県,鯖江市,熊田町第２０号３番地１,,18,207,9160062,,,,,,,2023-04-04,1,,,,,イーグルフドウサン,0
1391,7230001019761,新規,0,2023-04-04,2023-04-04,株式会社フォーティーフォー,,株式会社,富山県,高岡市,能町１６２３番地９４,,16,202,9330003,,,,,,,2023-04-04,1,,,,,フォーティーフォー,0
1393,7240001061275,新規,0,2023-04-04,2023-04-04,株式会社ひろい,,株式会社,広島県,三原市,皆実１丁目１１番２１号,,34,204,7230052,,,,,,,2023-04-04,1,,,,,ヒロイ,0
1398,7260003004263,新規,0,2023-04-04,2023-04-04,合同会社超強運アカデミー,,合同会社,岡山県,倉敷市,連島町西之浦９０５番地,,33,202,7128001,,,,,,,2023-04-04,1,,,,,チョウキョウウンアカデミー,0
1401,7290001101076,新規,0,2023-04-04,2023-04-04,ＴｙｐｅＬｉｆｅ株式会社,,株式会社,福岡県,福岡市中央区,天神４丁目６－２８天神ファーストビル７階,,40,133,8100001,,,,,,,2023-04-04,1,,,,,タイプライフ,0
1407,7290801029418,新規,0,2023-04-04,2023-04-04,株式会社ラマツィーニ,,株式会社,福岡県,北九州市八幡西区,藤原３丁目８番１３号,,40,109,8070873,,,,,,,2023-04-04,1,,,,,ラマツィーニ,0
1408,7290801029426,新規,0,2023-04-04,2023-04-04,株式会社Ｅｎｓｏｌｅｉｌｌｅｒ,,株式会社,福岡県,北九州市小倉北区,高峰町１７番３号,,40,106,8030826,,,,,,,2023-04-04,1,,,,,アンソレイユ,0
1410,7310001018334,新規,0,2023-04-04,2023-04-04,株式会社オートショップマツモト,,株式会社,長崎県,長崎市,光町１１番３号,,42,201,8528001,,,,,,,2023-04-04,1,,,,,,0
1412,7330001030725,新規,0,2023-04-04,2023-04-04,株式会社花華フードサービス,,株式会社,熊本県,熊本市東区,榎町２２番１号,,43,102,8620917,,,,,,,2023-04-04,1,,,,,ハナハナフードサービス,0
1420,7360001031778,新規,0,2023-04-04,2023-04-04,アニマート・グループ浦添宜野湾株式会社,,株式会社,沖縄県,宜野湾市,真志喜２丁目１４番１８号,,47,205,9012224,,,,,,,2023-04-04,1,,,,,アニマートグループウラソエギノワン,0
1422,7370001049786,新規,0,2023-04-04,2023-04-04,プロ・フィット株式会社,,株式会社,宮城県,仙台市若林区,清水小路５番地６エステート五ツ橋８０２号室,,04,103,9840075,,,,,,,2023-04-04,1,,,,,プロフィット,0
1429,7390003002072,新規,0,2023-04-04,2023-04-04,もがみ地産地消エネルギー合同会社,,合同会社,山形県,最上郡最上町,大字富澤２３４４番地１１,,06,362,9996105,,,,,,,2023-04-04,1,,,,,モガミチサンチショウエネルギー,0
1430,7410001013440,新規,0,2023-04-04,2023-04-04,株式会社ＡＫＡＲＣ,,株式会社,秋田県,秋田市,豊岩石田坂字九十田９３番地９,,05,201,0101651,,,,,,,2023-04-04,1,,,,,エーケーアーク,0
1432,7430001088811,新規,0,2023-04-04,2023-04-04,株式会社ＺＥＮＳＨＩＮ　ＣＯＮＮＥＣＴ,,株式会社,北海道,札幌市豊平区,西岡四条５丁目８番１号,,01,105,0620034,,,,,,,2023-04-04,1,,,,,ゼンシンコネクト,0
1436,7430005014680,新規,0,2023-04-04,2023-04-04,一般社団法人丘珠わんぱくクラブ,,その他の設立登記法人,北海道,札幌市東区,北丘珠一条２丁目５８９－２７,,01,103,0070881,,,,,,,2023-04-04,1,,,,,オカダマワンパククラブ,0
1437,7450001013940,新規,0,2023-04-04,2023-04-04,株式会社飛建,,株式会社,北海道,旭川市,東旭川北一条１丁目８番９号,,01,204,0788251,,,,,,,2023-04-04,1,,,,,トビケン,0
1439,7480001012056,新規,0,2023-04-04,2023-04-04,株式会社ＡＳＡＨＩ,,株式会社,徳島県,板野郡藍住町,勝瑞字西勝地１４６番地６,,36,403,7711270,,,,,,,2023-04-04,1,,,,,アサヒ,0
1444,7700150006232,新規,0,2023-04-04,2015-10-09,水産物・水産加工品輸出拡大協議会,,その他,東京都,千代田区,内幸町１丁目２－１,,13,101,1000011,,,,,,,2015-10-09,1,,,,,スイサンブツスイサンカコウヒンユシユツカクダイキヨウギカイ,0
1447,7700150114828,新規,0,2023-04-04,2023-03-16,世田谷区たまがわ花火大会実行委員会,,その他,東京都,世田谷区,成城６丁目２－１,,13,112,1570066,,,,,,,2023-03-16,1,,,,,セタガヤクタマガワハナビタイカイジツコウイインカイ,0
1448,7700150115132,新規,0,2023-04-04,2023-04-04,Ｃｈａｎｇｓｈａ　Ｈｅｉｚｅｄｉａｎｚｉ　Ｓｈａｎｇｗｕ　Ｙｏｕｘｉａｎｇｏｎｇｓｉ,,外国会社等,,,,,,,,Ｃｈａｎｇｓｈａ　Ａｒｅａ　ｏｆ　Ｃｈｉｎａ（Ｈｕｎａｎ）Ｐｉｌｏｔ　Ｆｒｅｅ　Ｔｒａｄｅ　Ｚｏｎｅ　Ｒｏｏｍ　２２９，Ｆｌｏｏｒ　２，Ｃｏｍｐｌｅｘ　Ｂｕｉｌｄｉｎｇ，Ｈｅｘｉａｎｇ　Ｓｃｉｅｎｃｅ　Ｐａｒｋ，Ｎｏ．９８，Ｌｉｘｉａｎｇ　Ｒｏａｄ　Ｃｈａｎｇｓｈａ　Ｅｃｏｎｏｍｉｃ　Ｄｅｖｅｌｏｐｍｅｎｔ　Ｚｏｎｅ，Ｈｕｎａｎ　Ｐｒｏｖｉｎｃｅ，Ｃｈａｎｇｓｈａ　Ｃｉｔｙ,,,,,,2023-04-04,1,,,,,チャンサァヘイゼディンジシャンウユウゲンコウシ,0
1449,7700150115140,新規,0,2023-04-04,2023-04-04,ｓｈｅｎｚｈｅｎｓｈｉｘｉａｏｌａｉｄｉａｎｚｉｓｈａｎｇｗｕｙｏｕｘｉａｎｇｏｎｇｓｉ,,外国会社等,,,,,,,,Ｌｏｎｇｇａｎｇｑｕｂａｎｔｉａｎｊｉｅｄａｏｎａｎｋｅｎｓｈｅｑｕ　ｓｈｕｉｋｕｌｕ２ｈａｏ　６ｄｏｎｇ　６ｌｏｕ　６０９ｈａｏ　Ｓｈｅｎｚｈｅｎ　Ｇｕａｎｇｄｏｎｇ,,,,,,2023-04-04,1,,,,,シンセンシコライデンシシヨウムユウゲンコウシ,0
1450,7700150115149,新規,0,2023-04-04,2023-04-04,ｓｈｅｎｚｈｅｎｓｈｉａｉｌｅｙｉｋｅｊｉｙｏｕｘｉａｎｇｏｎｇｓｉ,,外国会社等,,,,,,,,ｓｈｅｎｚｈｅｎｓｈｉ，ｌｏｎｇｈｕａｘｉｎｑｕ，ｌｏｎｇｈｕａｊｉｅｄａｏ，ｒｅｎｍｉｎｂｅｉｌｕｙｕｊｉａｎｄａｌｕｊｉａｏｈｕｉｃｈｕ，ｌｏｎｇｑｕａｎｈｕａｙｕａｎ２８２０２,,,,,,2023-04-04,1,,,,,シンセンシアイラクイチカギユウゲンコウシ,0
1452,8010001234150,新規,0,2023-04-04,2023-04-04,株式会社ｒｈｉｚｏｍｅ,,株式会社,東京都,中央区,銀座４丁目１３番８号ソフィアスクエア銀座７０１,,13,102,1040061,,,,,,,2023-04-04,1,,,,,リゾーム,0
1456,8010003040217,新規,0,2023-04-04,2023-04-04,カタリスト戦略投資４号合同会社,,合同会社,東京都,千代田区,永田町２丁目１１番１号,,13,101,1000014,,,,,,,2023-04-04,1,,,,,カタリストセンリャクトウシヨンゴウ,0
1463,8010401173444,新規,0,2023-04-04,2023-04-04,株式会社コミュニティーメッシュ,,株式会社,東京都,港区,西麻布３丁目１５番２２号,,13,103,1060031,,,,,,,2023-04-04,1,,,,,コミュニティーメッシュ,0
1464,8010403029842,新規,0,2023-04-04,2023-04-04,友誼合同会社,,合同会社,東京都,港区,新橋２丁目１６番１号,,13,103,1050004,,,,,,,2023-04-04,1,,,,,ユウギ,0
1466,8010701044048,新規,0,2023-04-04,2023-04-04,株式会社カスミコンサルティング,,株式会社,東京都,品川区,西五反田２丁目１８－３グレイス五反田２１５,,13,109,1410031,,,,,,,2023-04-04,1,,,,,カスミコンサルティング,0
1473,8011001153456,新規,0,2023-04-04,2023-04-04,株式会社ＳＥＩＺＥ,,株式会社,東京都,渋谷区,神宮前６丁目２３番４号桑野ビル２階,,13,113,1500001,,,,,,,2023-04-04,1,,,,,セーズ,0
1474,8011001153464,新規,0,2023-04-04,2023-04-04,株式会社ステムセルテック,,株式会社,東京都,渋谷区,恵比寿南１丁目１番１号ＨｕｍａｘＥｂｉｓｕ７１１,,13,113,1500022,,,,,,,2023-04-04,1,,,,,ステムセルテック,0
1475,8011001153497,新規,0,2023-04-04,2023-04-04,株式会社リノバンク,,株式会社,東京都,渋谷区,神宮前６丁目２３番４号桑野ビル２階,,13,113,1500001,,,,,,,2023-04-04,1,,,,,リノバンク,0
1476,8011001153514,新規,0,2023-04-04,2023-04-04,株式会社テイラー,,株式会社,東京都,目黒区,東が丘２丁目１１－４,,13,110,1520021,,,,,,,2023-04-04,1,,,,,テイラー,0
1477,8011001153522,新規,0,2023-04-04,2023-04-04,株式会社ＮＩＷＡＲｉ,,株式会社,東京都,渋谷区,神宮前６丁目２９番４号,,13,113,1500001,,,,,,,2023-04-04,1,,,,,ニワリ,0
1482,8011101102370,新規,0,2023-04-04,2023-04-04,舜達株式会社,,株式会社,東京都,新宿区,新宿６丁目２７番２９号コンフォリア新宿イーストサイドタワー２６０８,,13,104,1600022,,,,,,,2023-04-04,1,,,,,シュンタツ,0
1483,8011101102387,新規,0,2023-04-04,2023-04-04,株式会社ＯＤＤ　ＩＮＮ,,株式会社,東京都,新宿区,百人町１丁目２３番２６号みなみビル１Ｆ－Ａ号室,,13,104,1690073,,,,,,,2023-04-04,1,,,,,オッドイン,0
1484,8011201024531,新規,0,2023-04-04,2023-04-04,株式会社ＡＮＩＫＩ　ＣＯＭＰＡＮＹ,,株式会社,東京都,中野区,鷺宮５丁目６番２０号アージョ鷺ノ宮３０１号,,13,114,1650032,,,,,,,2023-04-04,1,,,,,アニキカンパニー,0
1488,8011801042148,新規,0,2023-04-04,2023-04-04,Ｗ＆Ｎ株式会社,,株式会社,東京都,足立区,千住桜木１丁目１０番１６－５１５号,,13,121,1200045,,,,,,,2023-04-04,1,,,,,ダブリューアンドエヌ,0
1489,8012401040343,新規,0,2023-04-04,2023-04-04,株式会社Ｒｅｎｅｗｅｒ,,株式会社,東京都,調布市,下石原２丁目３番地２９,,13,208,1820034,,,,,,,2023-04-04,1,,,,,リニューワー,0
1490,8012401040351,新規,0,2023-04-04,2023-04-04,株式会社ＤＥＮ　ＰＲＯ,,株式会社,東京都,調布市,上石原３丁目６－３２,,13,208,1820035,,,,,,,2023-04-04,1,,,,,デンプロ,0
1494,8013301050548,新規,0,2023-04-04,2023-04-04,株式会社ＪＩＢコーポレーション,,株式会社,東京都,豊島区,東池袋１丁目３１番１０号１１１０号室,,13,116,1700013,,,,,,,2023-04-04,1,,,,,ジェイアイビーコーポレーション,0
1498,8020001150909,新規,0,2023-04-04,2023-04-04,アースグリーン株式会社,,株式会社,神奈川県,横浜市戸塚区,俣野町１２２４番地,,14,110,2450066,,,,,,,2023-04-04,1,,,,,アースグリーン,0
1499,8020001150925,新規,0,2023-04-04,2023-04-04,株式会社ＭＡＳＳＹ,,株式会社,神奈川県,横浜市磯子区,丸山２丁目２６番５号,,14,107,2350011,,,,,,,2023-04-04,1,,,,,マッシー,0
1503,8020003023625,新規,0,2023-04-04,2023-04-04,合同会社Ｈ＆Ｅ,,合同会社,神奈川県,川崎市幸区,小倉１番地１Ｅ‐７１０,,14,132,2120054,,,,,,,2023-04-04,1,,,,,エイチアンドイー,0
1504,8020005015918,新規,0,2023-04-04,2023-04-04,一般社団法人復職支援コンサルティング協会,,その他の設立登記法人,神奈川県,横浜市西区,みなとみらい４丁目４番２号横浜ブルーアベニュー１２階,,14,103,2200012,,,,,,,2023-04-04,1,,,,,,0
1506,8021001078586,新規,0,2023-04-04,2023-04-04,株式会社ＳＫＳＧ,,株式会社,神奈川県,相模原市中央区,上溝３７８番地１０,,14,152,2520243,,,,,,,2023-04-04,1,,,,,エスケーエスジー,0
1512,8030001153084,新規,0,2023-04-04,2023-04-04,株式会社ＴＳＷＯＲＫＳ,,株式会社,埼玉県,鴻巣市,東２丁目２番１０号,,11,217,3650039,,,,,,,2023-04-04,1,,,,,ティーエスワークス,0
1513,8030001153142,新規,0,2023-04-04,2023-04-04,株式会社クオーレ,,株式会社,埼玉県,鶴ヶ島市,大字下新田４４９番２,,11,241,3502222,,,,,,,2023-04-04,1,,,,,クオーレ,0
1514,8030001153159,新規,0,2023-04-04,2023-04-04,大橋建工株式会社,,株式会社,埼玉県,さいたま市岩槻区,大字尾ヶ崎新田１１０番地２,,11,110,3390026,,,,,,,2023-04-04,1,,,,,オオハシケンコウ,0
1515,8030001153167,新規,0,2023-04-04,2023-04-04,アクアＦＡＭ警備保障株式会社,,株式会社,埼玉県,さいたま市北区,日進町１丁目８５番地１マンハイム大宮６０２,,11,102,3310823,,,,,,,2023-04-04,1,,,,,アクアファムケイビホショウ,0
1519,8030003021495,新規,0,2023-04-04,2023-04-04,合同会社はねきゅう,,合同会社,埼玉県,東松山市,大字上野本２６４番地９,,11,212,3550073,,,,,,,2023-04-04,1,,,,,ハネキュウ,0
1532,8080401026397,新規,0,2023-04-04,2023-04-04,星空建設株式会社,,株式会社,静岡県,浜松市南区,鶴見町１２１０番地の９６,,22,134,4350022,,,,,,,2023-04-04,1,,,,,ホシゾラケンセツ,0
1533,8080401026406,新規,0,2023-04-04,2023-04-04,株式会社ｍａｋｅ,,株式会社,静岡県,浜松市南区,中田島町１６６９番地の１,,22,134,4300845,,,,,,,2023-04-04,1,,,,,メイク,0
1537,8110001037386,新規,0,2023-04-04,2023-04-04,株式会社クリプトヴィレッジ,,株式会社,新潟県,長岡市,山古志虫亀３３２７,,15,202,9470205,,,,,,,2023-04-04,1,,,,,クリプトヴィレッジ,0
1546,8120001253701,新規,0,2023-04-04,2023-04-04,株式会社Ｆａｃｔｅｒｒａ,,株式会社,大阪府,大阪市中央区,南船場４丁目１０番５号南船場ＳＯＨＯビル７０２,,27,128,5420081,,,,,,,2023-04-04,1,,,,,ファクテラ,0
1548,8120003023755,新規,0,2023-04-04,2023-04-04,合同会社Ｈａｐｐｙ,,合同会社,大阪府,大阪市平野区,平野西６丁目３番９－２０８号,,27,126,5470033,,,,,,,2023-04-04,1,,,,,ハッピー,0
1549,8120101067233,新規,0,2023-04-04,2023-04-04,株式会社片岡電気,,株式会社,大阪府,河内長野市,木戸１丁目７番１４－３０３号,,27,216,5860001,,,,,,,2023-04-04,1,,,,,カタオカデンキ,0
1551,8120901047327,新規,0,2023-04-04,2023-04-04,サイエステート株式会社,,株式会社,大阪府,吹田市,千里丘中５０番４号,,27,205,5650812,,,,,,,2023-04-04,1,,,,,サイエステート,0
1556,8122001036846,新規,0,2023-04-04,2023-04-04,株式会社Ｙ＆Ｔｅｒａｋａｍｉ,,株式会社,大阪府,東大阪市,長堂１丁目３番１５号,,27,227,5770056,,,,,,,2023-04-04,1,,,,,ワイアンドテラカミ,0
1560,8130001073974,新規,0,2023-04-04,2023-04-04,株式会社京都電将,,株式会社,京都府,宇治市,菟道籔里９番地の３１,00129944,26,204,6110000,,,,,,,2023-04-04,1,,,,,キョウトデンショウ,0
1561,8130001073990,新規,0,2023-04-04,2023-04-04,株式会社Ｐｉｃｃｏｌａ　Ｄｉｔｔａ京都,,株式会社,京都府,京都市北区,大宮南椿原町１１番地,,26,101,6038402,,,,,,,2023-04-04,1,,,,,ピッコラディッタキョウト,0
1562,8130001074015,新規,0,2023-04-04,2023-04-04,株式会社友萌,,株式会社,京都府,京都市伏見区,久我森の宮町１５－３５,,26,109,6128495,,,,,,,2023-04-04,1,,,,,トモエ,0
1566,8140001129593,新規,0,2023-04-04,2023-04-04,株式会社Ｍ‐Ｓｔｙｌｅ,,株式会社,兵庫県,尼崎市,西難波町４丁目１番１２号,,28,202,6600893,,,,,,,2023-04-04,1,,,,,エムスタイル,0
1569,8140005026548,新規,0,2023-04-04,2023-04-04,特定非営利活動法人ＳＭＫマーケティング,,その他の設立登記法人,兵庫県,神戸市須磨区,菅の台４丁目５番地市営菅の台住宅２０２１号,,28,107,6540143,,,,,,,2023-04-04,1,,,,,エスエムケーマーケティング,0
1571,8150001026278,新規,0,2023-04-04,2023-04-04,株式会社徳田住建,,株式会社,奈良県,桜井市,大字外山１０３４番地の１,,29,206,6330007,,,,,,,2023-04-04,1,,,,,トクダジュウケン,0
1574,8160003002838,新規,0,2023-04-04,2023-04-04,合同会社ファシリティーズ滋賀,,合同会社,滋賀県,湖南市,三雲１２５０番地６,,25,211,5203221,,,,,,,2023-04-04,1,,,,,ファシリティーズシガ,0
1580,8180001155660,新規,0,2023-04-04,2023-04-04,ｓｐａｃｅ株式会社,,株式会社,愛知県,名古屋市中村区,名駅４丁目２４番５号,,23,105,4500002,,,,,,,2023-04-04,1,,,,,スペース,0
1598,8240001061282,新規,0,2023-04-04,2023-04-04,アップス株式会社,,株式会社,広島県,廿日市市,宮園９丁目６番地１５,,34,213,7380035,,,,,,,2023-04-04,1,,,,,アップス,0
1605,8260001037792,新規,0,2023-04-04,2023-04-04,ライス株式会社,,株式会社,岡山県,岡山市中区,西川原５０番地７シャレードＮ１０１,,33,102,7038258,,,,,,,2023-04-04,1,,,,,ライス,0
1606,8260001037818,新規,0,2023-04-04,2023-04-04,株式会社エレキングジャパン,,株式会社,岡山県,倉敷市,中島４１９番地５,,33,202,7100803,,,,,,,2023-04-04,1,,,,,エレキングジャパン,0
1608,8260003004262,新規,0,2023-04-04,2023-04-04,合同会社歩実,,合同会社,岡山県,岡山市南区,築港ひかり町１２番７号,,33,104,7028054,,,,,,,2023-04-04,1,,,,,アユミ,0
1609,8260005011208,新規,0,2023-04-04,2023-04-04,医療法人社団ランバート矯正歯科,,その他の設立登記法人,岡山県,倉敷市,松島９７６番地４,,33,202,7010114,,,,,,,2023-04-04,1,,,,,ランバートキョウセイシカ,0
1615,8290001101059,新規,0,2023-04-04,2023-04-04,株式会社ｂｒａｖｅ,,株式会社,福岡県,福岡市中央区,警固１丁目９番２－９０１号,,40,133,8100023,,,,,,,2023-04-04,1,,,,,ブラーヴ,0
1621,8290801029417,新規,0,2023-04-04,2023-04-04,樫尾組株式会社,,株式会社,福岡県,北九州市八幡東区,枝光４丁目５番２号,,40,108,8050002,,,,,,,2023-04-04,1,,,,,カシオグミ,0
1622,8290801029425,新規,0,2023-04-04,2023-04-04,株式会社碧真電設,,株式会社,福岡県,北九州市小倉南区,東貫２丁目１１番１０号,,40,107,8000224,,,,,,,2023-04-04,1,,,,,アオマデンセツ,0
1625,8310001018333,新規,0,2023-04-04,2023-04-04,株式会社野内製麺,,株式会社,長崎県,南島原市,有家町山川４５４番地,,42,214,8592202,,,,,,,2023-04-04,1,,,,,,0
1628,8320005010062,新規,0,2023-04-04,2023-04-04,一般社団法人ＲＥＮＴＡＲＯ室内オーケストラ九州,,その他の設立登記法人,大分県,竹田市,大字竹田町５０２,,44,208,8780012,,,,,,,2023-04-04,1,,,,,レンタロウシツナイオーケストラキュウシュウ,0
1633,8360001031777,新規,0,2023-04-04,2023-04-04,デジマコム株式会社,,株式会社,沖縄県,宜野湾市,宇地泊２丁目３８番２号,,47,205,9012227,,,,,,,2023-04-04,1,,,,,デジマコム,0
1639,8360003012841,新規,0,2023-04-04,2023-04-04,Ｋｅｓｔｙ合同会社,,合同会社,沖縄県,那覇市,おもろまち４丁目１１番１－６１０号おもろシティーコートＧＩＮＯＺＡ,,47,201,9000006,,,,,,,2023-04-04,1,,,,,ケスティ,0
1644,8380001033581,新規,0,2023-04-04,2023-04-04,こころから株式会社,,株式会社,福島県,喜多方市,豊川町高堂太字村中２７１７番地１,,07,208,9660911,,,,,,,2023-04-04,1,,,,,ココロカラ,0
1646,8380003005422,新規,0,2023-04-04,2023-04-04,合同会社さとうさんち,,合同会社,福島県,相馬市,新沼字大森１３８番地の２,,07,209,9760011,,,,,,,2023-04-04,1,,,,,サトウサンチ,0
1652,8420001018207,新規,0,2023-04-04,2023-04-04,株式会社ベスト,,株式会社,青森県,青森市,本町２丁目６番４号フェニックスビル１０２号室,,02,201,0300802,,,,,,,2023-04-04,1,,,,,,0
1656,8430001088752,新規,0,2023-04-04,2023-04-04,株式会社タカハシ工業,,株式会社,北海道,札幌市白石区,中央三条３丁目１番１号,,01,104,0030013,,,,,,,2023-04-04,1,,,,,タカハシコウギョウ,0
1657,8430001088760,新規,0,2023-04-04,2023-04-04,株式会社Ａｆｌｏａｃｈ,,株式会社,北海道,札幌市中央区,南四条西４丁目１６恵愛ビル８Ｆ,,01,101,0640804,,,,,,,2023-04-04,1,,,,,アフローチ,0
1659,8430003014888,新規,0,2023-04-04,2023-04-04,合同会社Ａｐｒｉｋｅｔ,,合同会社,北海道,札幌市中央区,南一条西１６丁目１番地３２３春野ビル３Ｆ,,01,101,0600061,,,,,,,2023-04-04,1,,,,,アプリケット,0
1660,8460101007361,新規,0,2023-04-04,2023-04-04,ナカヨコネクト株式会社,,株式会社,北海道,帯広市,西二十一条南２丁目４７－９,,01,207,0802471,,,,,,,2023-04-04,1,,,,,ナカヨコネクト,0
1666,8500001024840,新規,0,2023-04-04,2023-04-04,株式会社プラスワン,,株式会社,愛媛県,新居浜市,船木甲３９０２番地の１,,38,205,7920856,,,,,,,2023-04-04,1,,,,,プラスワン,0
1667,8500001024849,新規,0,2023-04-04,2023-04-04,株式会社マコトフーズ,,株式会社,愛媛県,松山市,北条辻１４７４番地,00129942,38,201,7992430,,,,,,,2023-04-04,1,,,,,マコトフーズ,0
1669,8700150115131,新規,0,2023-04-04,2023-04-04,ＦｕＺｈｏｕＱｉＣｈｅｎ　ｇｏｎｇｙｉｎｇｌｉａｎｇｕａｎｌｉｙｏｕｘｉａｎｇｏｎｇｓｉ,,外国会社等,,,,,,,,Ｆｕｊｉａｎｓｈｅｎｇ　ｆｕｚｈｏｕ　ｓｈｉ　ｆｕｑｉｎｇ　ｓｈｉ　ｈｏｎｇｌｕ　ｊｉｅｄａｏ　ｑｉｎｇｃｈａｎｇ　ｄａｄａｏ　ｈｕａｒｕｎ　ｚｈｏｎｇｙａｎｇ　ｇｏｎｇｙｕａｎ７ｈａｏ　ｌｏｕ３２０１,,,,,,2023-04-04,1,,,,,フクシュウキチェンゴンインリアングァンリユウゲンコウシ,0
1672,9010001234158,新規,0,2023-04-04,2023-04-04,株式会社ジャパンアクティブプラス,,株式会社,東京都,文京区,千駄木３丁目２２番１１号,,13,105,1130022,,,,,,,2023-04-04,1,,,,,ジャパンアクティブプラス,0
1673,9010003040216,新規,0,2023-04-04,2023-04-04,合同会社ＡＣＴ,,合同会社,東京都,中央区,銀座６丁目１３番１６号銀座ＷａｌｌビルＵＣＦ５０１,,13,102,1040061,,,,,,,2023-04-04,1,,,,,アクト,0
1681,9010405021978,新規,0,2023-04-04,2023-04-04,一般社団法人かがやき,,その他の設立登記法人,東京都,港区,西新橋１丁目２番９号メンターキャピタル税理士法人内,,13,103,1050003,,,,,,,2023-04-04,1,,,,,カガヤキ,0
1683,9010501050229,新規,0,2023-04-04,2023-04-04,株式会社ＴＮ,,株式会社,東京都,台東区,根岸５丁目１０番１０ー３０４号レジディア根岸,,13,106,1100003,,,,,,,2023-04-04,1,,,,,ティーエヌ,0
1684,9010503006939,新規,0,2023-04-04,2023-04-04,合同会社ＳＡＸＳＩＡ,,合同会社,東京都,台東区,根岸１丁目１０番１２号,,13,106,1100003,,,,,,,2023-04-04,1,,,,,サクシア,0
1686,9010701044063,新規,0,2023-04-04,2023-04-04,株式会社Ｇａｆａｎｈｏｔｏ,,株式会社,東京都,品川区,西五反田１丁目２６番２号五反田サンハイツ９１１,,13,109,1410031,,,,,,,2023-04-04,1,,,,,ガンフォート,0
1687,9010903008072,新規,0,2023-04-04,2023-04-04,合同会社オヌキ・インターナショナル,,合同会社,東京都,世田谷区,北烏山４丁目３８番１１号,,13,112,1570061,,,,,,,2023-04-04,1,,,,,オヌキインターナショナル,0
1695,9011101102386,新規,0,2023-04-04,2023-04-04,株式会社ＴＯＣＨＩ‐ＴＥＲＲＡＣＥ,,株式会社,東京都,新宿区,西新宿３丁目３番１３号西新宿水間ビル６階,,13,104,1600023,,,,,,,2023-04-04,1,,,,,トチテラス,0
1705,9011801042171,新規,0,2023-04-04,2023-04-04,株式会社ＦＨＷＧ,,株式会社,東京都,葛飾区,東水元５丁目４４番１９－１０７号レクセルガーデン水元公園,,13,122,1250033,,,,,,,2023-04-04,1,,,,,エフエイチダブリュウジー,0
1710,9012403005905,新規,0,2023-04-04,2023-04-04,合同会社ミライラボ,,合同会社,東京都,多摩市,貝取１丁目４５番１０９号,,13,224,2060012,,,,,,,2023-04-04,1,,,,,ミライラボ,0
1711,9012403005913,新規,0,2023-04-04,2023-04-04,グランジェッテ合同会社,,合同会社,東京都,三鷹市,井の頭３丁目２８番１号,,13,204,1810001,,,,,,,2023-04-04,1,,,,,グランジェッテ,0
1714,9012801022238,新規,0,2023-04-04,2023-04-04,ＮＩＳＨＡＮ株式会社,,株式会社,東京都,昭島市,美堀町５丁目１９－４第２角柳マンション１０３,,13,207,1960001,,,,,,,2023-04-04,1,,,,,ニサン,0
1720,9020001150908,新規,0,2023-04-04,2023-04-04,株式会社カルフ,,株式会社,神奈川県,横浜市鶴見区,生麦４丁目１４番７－１１０３号,,14,101,2300052,,,,,,,2023-04-04,1,,,,,カルフ,0
1724,9020003023657,新規,0,2023-04-04,2023-04-04,マスタング合同会社,,合同会社,神奈川県,川崎市中原区,木月３丁目５９番１号１階,,14,133,2110025,,,,,,,2023-04-04,1,,,,,マスタング,0
1732,9040001127739,新規,0,2023-04-04,2023-04-04,金子電機株式会社,,株式会社,千葉県,君津市,大和田５丁目４－１９,,12,225,2991146,,,,,,,2023-04-04,1,,,,,カネコデンキ,0
1734,9040003022319,新規,0,2023-04-04,2023-04-04,合同会社Ｍａｘｉａ,,合同会社,千葉県,千葉市中央区,栄町２６番８号ロイヤルハイム千葉６０３号,,12,101,2600016,,,,,,,2023-04-04,1,,,,,マクシア,0
1739,9080101023891,新規,0,2023-04-04,2023-04-04,株式会社ほけんの母,,株式会社,静岡県,田方郡函南町,仁田４６６番地の３,,22,325,4190114,,,,,,,2023-04-04,1,,,,,ホケンノハハ,0
1741,9080401026405,新規,0,2023-04-04,2023-04-04,株式会社ヤナギ,,株式会社,静岡県,浜松市南区,高塚町４８３５番地の１エアリス４０１号室,,22,134,4328065,,,,,,,2023-04-04,1,,,,,ヤナギ,0
1743,9100001036256,新規,0,2023-04-04,2023-04-04,株式会社ソフトマーケティングリサーチ,,株式会社,長野県,長野市,大字三輪１３４０番地９シティパル田町１階,,20,201,3800803,,,,,,,2023-04-04,1,,,,,ソフトマーケティングリサーチ,0
1750,9110001037393,新規,0,2023-04-04,2023-04-04,株式会社川上ダイス工業,,株式会社,新潟県,妙高市,大字関山３０７８番地１,,15,217,9492235,,,,,,,2023-04-04,1,,,,,カワカミダイスコウギョウ,0
1754,9120001253601,新規,0,2023-04-04,2023-04-04,株式会社元旨貿易,,株式会社,大阪府,大阪市東成区,深江北３丁目４番２１号エクラ深江橋２０２Ａ,,27,115,5370001,,,,,,,2023-04-04,1,,,,,ゲンシボウエキ,0
1755,9120001253733,新規,0,2023-04-04,2023-04-04,株式会社れいめいインターナショナル,,株式会社,大阪府,大阪市東住吉区,桑津２丁目１５番２０号,,27,121,5460041,,,,,,,2023-04-04,1,,,,,レイメイインターナショナル,0
1759,9120005023538,新規,0,2023-04-04,2023-04-04,一般社団法人日本亜細亜教育研究会,,その他の設立登記法人,大阪府,大阪市中央区,常盤町１丁目４番１－５０４号,,27,128,5400028,,,,,,,2023-04-04,1,,,,,ニホンアジアキョウイクケンキュウカイ,0
1760,9120101067240,新規,0,2023-04-04,2023-04-04,株式会社太郎建装,,株式会社,大阪府,阪南市,さつき台１丁目９番１２号,,27,232,5990215,,,,,,,2023-04-04,1,,,,,タロウケンソウ,0
1764,9130001074014,新規,0,2023-04-04,2023-04-04,株式会社ＲＧ,,株式会社,京都府,京都市山科区,東野八反畑町５７番地３,,26,110,6078145,,,,,,,2023-04-04,1,,,,,リグ,0
1766,9130005016722,新規,0,2023-04-04,2023-04-04,一般社団法人日本呼吸器外科学会,,その他の設立登記法人,京都府,京都市中京区,御池通高倉西入高宮町２００千代田生命京都御池ビル３Ｆ,,26,104,6040835,,,,,,,2023-04-04,1,,,,,ニホンコキュウキゲカガッカイ,0
1771,9140001129576,新規,0,2023-04-04,2023-04-04,北山測量株式会社,,株式会社,兵庫県,丹波篠山市,宇土３０５番１作道ビル２Ｆ,,28,221,6692455,,,,,,,2023-04-04,1,,,,,キタヤマソクリョウ,0
1772,9140001129618,新規,0,2023-04-04,2023-04-04,きたすずランド株式会社,,株式会社,兵庫県,神戸市北区,甲栄台１丁目３番１０号,,28,109,6511142,,,,,,,2023-04-04,1,,,,,キタスズランド,0
1775,9150001026277,新規,0,2023-04-04,2023-04-04,株式会社ＦＡＲ,,株式会社,奈良県,大和郡山市,矢田町５３０８番地１,,29,203,6391058,,,,,,,2023-04-04,1,,,,,ファー,0
1776,9160001024940,新規,0,2023-04-04,2023-04-04,株式会社エヌビス,,株式会社,滋賀県,大津市,仰木の里東７丁目１６番１号,,25,201,5200248,,,,,,,2023-04-04,1,,,,,エヌビス,0
1778,9160003002837,新規,0,2023-04-04,2023-04-04,合同会社ＶｉｓｉｏｎｊａｍＰｒｏｊｅｃｔ,,合同会社,滋賀県,大津市,粟津町４番７号石山駅前近江鉄道ビル５階ｂｉｌｌａｇｅＯＴＳＵ１０１号,,25,201,5200832,,,,,,,2023-04-04,1,,,,,ビジョンジャムプロジェクト,0
1801,9210001019266,新規,0,2023-04-04,2023-04-04,大栄電設工業株式会社,,株式会社,福井県,福井市,篠尾町第９６号１４０番地,,18,201,9102148,,,,,,,2023-04-04,1,,,,,ダイエイデンセツコウギョウ,0
1806,9240001061281,新規,0,2023-04-04,2023-04-04,株式会社ＩＵ,,株式会社,広島県,世羅郡世羅町,大字本郷４２番地１,,34,462,7221112,,,,,,,2023-04-04,1,,,,,アイユー,0
1807,9240003006078,新規,0,2023-04-04,2023-04-04,合同会社Ｈｏｐｅ＆Ｓｍｉｌｅ,,合同会社,広島県,広島市南区,段原南１丁目９‐１４‐５０１,,34,103,7320814,,,,,,,2023-04-04,1,,,,,ホープアンドスマイル,0
1811,9260001037791,新規,0,2023-04-04,2023-04-04,株式会社プロデュース３４,,株式会社,岡山県,岡山市北区,津倉町１丁目４番１号岩田ビル第３－１０２号室,,33,101,7000014,,,,,,,2023-04-04,1,,,,,プロデュースサンジュウヨン,0
1813,9280001008907,新規,0,2023-04-04,2023-04-04,ＨＯＫＵＹＯ．ＨＤ株式会社,,株式会社,島根県,益田市,遠田町１９１６番地４,,32,204,6993676,,,,,,,2023-04-04,1,,,,,ホクヨウホールディングス,0
1823,9290003013730,新規,0,2023-04-04,2023-04-04,ＵＮＩＴＹ　ＭＩＮＤ合同会社,,合同会社,福岡県,福岡市中央区,清川２丁目１－２６－７０６号丸源３９,,40,133,8100005,,,,,,,2023-04-04,1,,,,,ユニティマインド,0
1826,9290801029408,新規,0,2023-04-04,2023-04-04,東辰貿易株式会社,,株式会社,福岡県,豊前市,大字四郎丸１２５５－１,,40,214,8280011,,,,,,,2023-04-04,1,,,,,トウシンボウエキ,0
1827,9290801029416,新規,0,2023-04-04,2023-04-04,株式会社熊谷自動車,,株式会社,福岡県,北九州市小倉南区,徳力６丁目１０番１－２０３号,,40,107,8020974,,,,,,,2023-04-04,1,,,,,クマガイジドウシャ,0
1832,9330001030715,新規,0,2023-04-04,2023-04-04,彩龍国際産業株式会社,,株式会社,熊本県,熊本市西区,野中３丁目５番６号,,43,103,8600059,,,,,,,2023-04-04,1,,,,,サイリュウコクサイサンギョウ,0
1834,9340001025466,新規,0,2023-04-04,2023-04-04,株式会社なんぎんキャピタル,,株式会社,鹿児島県,鹿児島市,山下町１番１号,,46,201,8920816,,,,,,,2023-04-04,1,,,,,ナンギンキャピタル,0
1836,9340003004088,新規,0,2023-04-04,2023-04-04,ＳＴＹモータース合同会社,,合同会社,鹿児島県,出水市,福ノ江町７１９,,46,208,8990133,,,,,,,2023-04-04,1,,,,,エスティワイモータース,0
1841,9390001017203,新規,0,2023-04-04,2023-04-04,株式会社ナカガワ,,株式会社,山形県,山形市,穂積１２０番地の８,,06,201,9900001,,,,,,,2023-04-04,1,,,,,ナカガワ,0
1846,9430001088743,新規,0,2023-04-04,2023-04-04,ＨＡＫＫＯ　ＧＩＮＧＥＲ株式会社,,株式会社,北海道,虻田郡倶知安町,字岩尾別４４番地５５,,01,400,0440082,,,,,,,2023-04-04,1,,,,,ハッコウジンジャー,0
1847,9430001088751,新規,0,2023-04-04,2023-04-04,株式会社ＲＥ．ｓｅｎｓｅ,,株式会社,北海道,札幌市西区,平和二条７丁目１０番９号,,01,107,0630022,,,,,,,2023-04-04,1,,,,,リセンス,0
1848,9430005014679,新規,0,2023-04-04,2023-04-04,医療法人社団Ｓｔｅｌｌａ,,その他の設立登記法人,北海道,札幌市中央区,北九条西２４丁目１番２６号,,01,101,0600009,,,,,,,2023-04-04,1,,,,,ステラ,0
1851,9450001013939,新規,0,2023-04-04,2023-04-04,株式会社緑の森ガーデン,,株式会社,北海道,旭川市,末広八条８丁目５２９４番２,,01,204,0718138,,,,,,,2023-04-04,1,,,,,ミドリノモリガーデン,0
1854,9460005001567,新規,0,2023-04-04,2023-04-04,公立大学法人釧路公立大学,,その他の設立登記法人,北海道,釧路市,芦野４丁目１番１号,00129939,01,206,0850061,,,,,,,2023-04-04,1,,,,,クシロコウリツダイガク,0
1864,9500001024848,新規,0,2023-04-04,2023-04-04,株式会社福住水道工業,,株式会社,愛媛県,松山市,恵原町甲１３２６番地２,,38,201,7911134,,,,,,,2023-04-04,1,,,,,フクズミスイドウコウギョウ,0
1865,9500003003008,新規,0,2023-04-04,2023-04-04,合同会社Ａ１５１,,合同会社,愛媛県,大洲市,中村３２４番地１,,38,207,7950054,,,,,,,2023-04-04,1,,,,,エーイチゴーイチ,0
1868,9700150115130,新規,0,2023-04-04,2023-04-04,ｓｈｅｎｚｈｅｎ　ｙｏｕｌｉａｎｋｅｊｉ　ｙｏｕｘｉａｎｇｏｎｇｓｉ,,外国会社等,,,,,,,,ｌｏｎｇ　ｈｕａ　ｑｕ，ｇｕａｎ　ｌａｎ　ｊｉｅ　ｄａｏ　ｄａ　ｆｕ　ｓｈｅ　ｑｕ　ｄａ　ｆｕ　ｇｏｎｇ　ｙｅ　ｑｕ　ｇｕｉ　ｇｕ　ｄｏｎｇ　ｌｉ　ｓｈｕ　ｍａ　ｃｈａｎ　ｙｅ　ｙｕａｎ　Ａ５　ｄｏｎｇ　４０１　ｓｈｅｎ　ｚｈｅｎ　ｇｕａｎｇ　ｄｏｎｇ,,,,,,2023-04-04,1,,,,,シンセンユウレンケジユウゲンコウシ,0
1869,9700150115139,新規,0,2023-04-04,2023-04-04,ｓｈｅｎｚｈｅｎｓｈｉ　ｍｕｃｈｅｎ　ｗａｎｇｌｕｏｋｅｊｉｙｏｕｘｉａｎｇｏｎｇｓｉ,,外国会社等,,,,,,,,Ｒｏｏｍ　３０５，Ｎｏ．８，Ｓｉｆａｎｇ，Ｙｉｘｕｅ　Ｓｔｒｅｅｔ，Ｌｉａｎｃｈｅｎｇ　Ｃｏｍｍｕｎｉｔｙ，Ｎａｎｔｏｕ　Ｓｔｒｅｅｔ，Ｎａｎｓｈａｎ　Ｄｉｓｔｒｉｃｔ，ＳｈｅｎｚｈｅｎＣｈｉｎａ,,,,,,2023-04-04,1,,,,,シンセンシモクシンモウラクカギユウゲンコウシ,0
