sequenceNumber,corporateNumber,process,correct,updateDate,changeDate,name,nameImageId,kind,prefectureName,cityName,streetNumber,addressImageId,prefectureCode,cityCode,postCode,addressOutside,addressOutsideImageId,closeDate,closeCause,successorCorporateNumber,changeCause,assignmentDate,latest,enName,enPrefectureName,enCityName,enAddressOutside,furigana,hihyoji
8,1010003050222,新規,0,2026-02-09,2026-02-09,ノヴァリニューワブル・エナジー１合同会社,,合同会社,東京都,千代田区,内神田１丁目３番７号４０１あすな会計事務所内,,13,101,1010047,,,,,,,2026-02-09,1,,,,,ノヴァリニューワブルエナジーワン,0
9,1010003050296,新規,0,2026-02-09,2026-02-09,合同会社マハーラクシュミー・ジャパン,,合同会社,東京都,中央区,銀座６丁目７番１６号,,13,102,1040061,,,,,,,2026-02-09,1,,,,,マハーラクシュミージャパン,0
10,1010003050313,新規,0,2026-02-09,2026-02-09,合同会社ぱぱら,,合同会社,東京都,中央区,銀座１丁目１２－４Ｎ＆ＥＢＬＤ．７階,,13,102,1040061,,,,,,,2026-02-09,1,,,,,パパラ,0
13,1010101017081,新規,0,2026-02-09,2026-02-09,エムイーラボ株式会社,,株式会社,東京都,八王子市,川口町１１９４番地１,,13,201,1930801,,,,,,,2026-02-09,1,,,,,エムイーラボ,0
20,1010403037042,新規,0,2026-02-09,2026-02-09,合同会社ままとなでしこ,,合同会社,東京都,港区,南青山３丁目１番３６号青山丸竹ビル６Ｆ,,13,103,1070062,,,,,,,2026-02-09,1,,,,,ママトナデシコ,0
21,1010403037249,新規,0,2026-02-09,2026-02-09,合同会社Ｎ．ＰＲＯ１号,,合同会社,東京都,港区,芝浦１丁目１番１号,,13,103,1050023,,,,,,,2026-02-09,1,,,,,エヌプロイチゴウ,0
22,1010403037265,新規,0,2026-02-09,2026-02-09,ＧＡＲＮＥＴ白金台合同会社,,合同会社,東京都,港区,六本木１丁目６番１号泉ガーデンタワー１２階,,13,103,1060032,,,,,,,2026-02-09,1,,,,,ガーネットシロカネダイ,0
23,1010405025334,新規,0,2026-02-09,2026-02-09,大阪・ＪＤ・ホテル・インベストメンツ一般社団法人,,その他の設立登記法人,東京都,港区,虎ノ門３丁目２２番１０－２０１号,,13,103,1050001,,,,,,,2026-02-09,1,,,,,オオサカジェイディーホテルインベストメンツ,0
25,1010601068698,新規,0,2026-02-09,2026-02-09,株式会社ＬｉｎＣ．,,株式会社,東京都,墨田区,東向島６丁目９－１３ＭＴビル１Ｆ,,13,107,1310032,,,,,,,2026-02-09,1,,,,,リンク,0
26,1010601068707,新規,0,2026-02-09,2026-02-09,株式会社アセットＯＮ,,株式会社,東京都,江東区,豊洲６丁目２番２９－９０４号,,13,108,1350061,,,,,,,2026-02-09,1,,,,,アセットオン,0
33,1011001175556,新規,0,2026-02-09,2026-02-09,株式会社Ｐｌｅｎｕｍ,,株式会社,東京都,渋谷区,富ヶ谷２丁目２０番８－２１５号プラウドフラット渋谷富ヶ谷,,13,113,1510063,,,,,,,2026-02-09,1,,,,,プレナム,0
42,1011401027786,新規,0,2026-02-09,2026-02-09,株式会社天然社,,株式会社,東京都,板橋区,前野町６丁目２６番２号,,13,119,1740063,,,,,,,2026-02-09,1,,,,,テンネンシャ,0
57,1012703003467,新規,0,2026-02-09,2026-02-09,合同会社ＴＯＤまちづくり総研,,合同会社,東京都,西東京市,保谷町４丁目３番３号,,13,229,2020015,,,,,,,2026-02-09,1,,,,,ティーオーディーマチヅクリソウケン,0
65,1020001167034,新規,0,2026-02-09,2026-02-09,株式会社内田技建,,株式会社,神奈川県,横浜市鶴見区,下末吉２丁目７番２１－４号,,14,101,2300012,,,,,,,2026-02-09,1,,,,,ウチダギケン,0
66,1020001167050,新規,0,2026-02-09,2026-02-09,株式会社狼煙,,株式会社,神奈川県,横浜市南区,大岡３丁目３４番３６－７０１号,,14,105,2320061,,,,,,,2026-02-09,1,,,,,ノロシ,0
71,1021003017086,新規,0,2026-02-09,2026-02-09,合同会社ブルースカイ,,合同会社,神奈川県,相模原市中央区,高根２丁目４番１７号一福ハイム２０３,,14,152,2520221,,,,,,,2026-02-09,1,,,,,ブルースカイ,0
75,1030001170920,新規,0,2026-02-09,2026-02-09,和高不動産株式会社,00142516,株式会社,埼玉県,日高市,大字原宿８７番地２１,,11,242,3501205,,,,,,,2026-02-09,1,,,,,ワコウフドウサン,0
81,1030003028605,新規,0,2026-02-09,2026-02-09,合同会社チャーリーズ,,合同会社,埼玉県,さいたま市南区,別所６丁目４－３Ｃｌａｉｒ武蔵浦和１０２,,11,108,3360021,,,,,,,2026-02-09,1,,,,,チャーリーズ,0
82,1030003028613,新規,0,2026-02-09,2026-02-09,合同会社Ｍｅｄｅｃｉｎ,,合同会社,埼玉県,大里郡寄居町,大字富田１７２６－１,,11,408,3691216,,,,,,,2026-02-09,1,,,,,メドゥサン,0
83,1030005022408,新規,0,2026-02-09,2026-02-09,一般社団法人ねことも・トムとアルと癒し,,その他の設立登記法人,埼玉県,蕨市,中央５丁目５番２１号,,11,223,3350004,,,,,,,2026-02-09,1,,,,,ネコトモトムトアルトイヤシ,0
87,1040001142373,新規,0,2026-02-09,2026-02-09,株式会社システム・アイ,,株式会社,千葉県,富里市,七栄３４０番地,,12,233,2860221,,,,,,,2026-02-09,1,,,,,システムアイ,0
88,1040001142423,新規,0,2026-02-09,2026-02-09,インベスティング＆アートマネジメント株式会社,,株式会社,千葉県,浦安市,舞浜２丁目２０番１５号,,12,227,2790031,,,,,,,2026-02-09,1,,,,,インベスティングアンドアートマネジメント,0
92,1040003029395,新規,0,2026-02-09,2026-02-09,フィールド合同会社,,合同会社,千葉県,千葉市花見川区,宮野木台１丁目７－２ルネ稲毛３０２,,12,102,2620015,,,,,,,2026-02-09,1,,,,,フィールド,0
93,1050001057959,新規,0,2026-02-09,2026-02-09,株式会社サン,,株式会社,茨城県,土浦市,文京町４‐８,,08,203,3000045,,,,,,,2026-02-09,1,,,,,サン,0
94,1050001057967,新規,0,2026-02-09,2026-02-09,株式会社田見商事,,株式会社,茨城県,水戸市,千波町１８９８番地の１,,08,201,3100851,,,,,,,2026-02-09,1,,,,,タミショウジ,0
97,1060003005956,新規,0,2026-02-09,2026-02-09,合同会社ＨＭサポート,,合同会社,栃木県,宇都宮市,長岡町１２５８―１３９,,09,201,3200004,,,,,,,2026-02-09,1,,,,,エイチエムサポート,0
99,1080101026076,新規,0,2026-02-09,2026-02-09,株式会社遥姫,,株式会社,静岡県,裾野市,御宿７４５番地の１３,,22,220,4101107,,,,,,,2026-02-09,1,,,,,ハルヒ,0
103,1090001019724,新規,0,2026-02-09,2026-02-09,株式会社パインバレー,,株式会社,山梨県,甲斐市,西八幡６１３－８,,19,210,4000117,,,,,,,2026-02-09,1,,,,,パインバレー,0
105,1100005013440,新規,0,2026-02-09,2026-02-09,一般社団法人Ｔｉｎｙ　Ｔａｉｌｓ,,その他の設立登記法人,長野県,長野市,三輪８丁目１０番１５号,,20,201,3800803,,,,,,,2026-02-09,1,,,,,タイニーテイルズ,0
109,1110001039884,新規,0,2026-02-09,2026-02-09,ＭＤＫプランニング株式会社,,株式会社,新潟県,燕市,井土巻４丁目２１９番地,,15,213,9591232,,,,,,,2026-02-09,1,,,,,エムディーケイプランニング,0
122,1120001283746,新規,0,2026-02-09,2026-02-09,株式会社ＮｏｎＧａｐ,,株式会社,大阪府,大阪市北区,梅田１丁目１番３号大阪駅前第３ビル１１階２号室,,27,127,5300001,,,,,,,2026-02-09,1,,,,,ノンギャップ,0
123,1120001283952,新規,0,2026-02-09,2026-02-09,株式会社Ｗｉｔｈ　Ｈａｐｐｉｎｅｓｓ,,株式会社,大阪府,大阪市平野区,加美南３丁目６番３２－７０５号,,27,126,5470003,,,,,,,2026-02-09,1,,,,,ウィズハピネス,0
124,1120001283960,新規,0,2026-02-09,2026-02-09,こぐま産業保健株式会社,,株式会社,大阪府,大阪市中央区,南船場３丁目２番２２号おおきに南船場ビル２０５,,27,128,5420081,,,,,,,2026-02-09,1,,,,,コグマサンギョウホケン,0
125,1120001283977,新規,0,2026-02-09,2026-02-09,株式会社ホットスタッフ門真,,株式会社,大阪府,門真市,常称寺町１７番５号ＭＫビル６階,,27,223,5710063,,,,,,,2026-02-09,1,,,,,ホットスタッフカドマ,0
126,1120001283993,新規,0,2026-02-09,2026-02-09,株式会社ラークネクスト,,株式会社,大阪府,寝屋川市,東香里園町２１－１８,,27,215,5720081,,,,,,,2026-02-09,1,,,,,ラークネクスト,0
127,1120001284001,新規,0,2026-02-09,2026-02-09,株式会社ＴｈｒｅｅＦｅｌｌｏｗ,,株式会社,大阪府,大阪市中央区,瓦町４丁目３番１４号４０３号,,27,128,5410048,,,,,,,2026-02-09,1,,,,,スリーフェロー,0
128,1120001284109,新規,0,2026-02-09,2026-02-09,株式会社大金産業,,株式会社,大阪府,大阪市浪速区,塩草２丁目４番１７号,,27,111,5560024,,,,,,,2026-02-09,1,,,,,ダイキンサンギョウ,0
131,1120003031847,新規,0,2026-02-09,2026-02-09,合同会社ＤＥＥＰ　ＢＲＩＤＧＥ,,合同会社,大阪府,大阪市東成区,深江北１丁目１２－２６トーエー第５深江ビル５０１１,,27,115,5370001,,,,,,,2026-02-09,1,,,,,ディープブリッジ,0
132,1120003031855,新規,0,2026-02-09,2026-02-09,ヤンマーセーブザファームズ滋賀合同会社,,合同会社,大阪府,大阪市北区,茶屋町１番３２号,,27,127,5300013,,,,,,,2026-02-09,1,,,,,ヤンマーセーブザファームズシガ,0
140,1120901052226,新規,0,2026-02-09,2026-02-09,株式会社ＢｅＬＹＮＸＸ,,株式会社,大阪府,高槻市,古曽部町２丁目１０－１０高槻スカイハイツ６１６号,,27,207,5691115,,,,,,,2026-02-09,1,,,,,ビーリンクス,0
142,1122001040160,新規,0,2026-02-09,2026-02-09,株式会社ＩＫＲ　ＯＮＥ,,株式会社,大阪府,東大阪市,横小路町６丁目１番２４号,,27,227,5798063,,,,,,,2026-02-09,1,,,,,アイケイアールワン,0
143,1122001040169,新規,0,2026-02-09,2026-02-09,クローバー株式会社,,株式会社,大阪府,東大阪市,吉田６丁目２番１８号,,27,227,5780924,,,,,,,2026-02-09,1,,,,,クローバー,0
149,1130001081554,新規,0,2026-02-09,2026-02-09,株式会社Ｗａｂｉｓａｖｖｙ,,株式会社,京都府,京都市中京区,夷川通車屋町東入東九軒町３３０番地,,26,104,6040852,,,,,,,2026-02-09,1,,,,,ワビサヴィ,0
158,1140001141563,新規,0,2026-02-09,2026-02-09,城光国際株式会社,,株式会社,兵庫県,神戸市中央区,下山手通５丁目７－７－３１３号,,28,110,6500011,,,,,,,2026-02-09,1,,,,,ジョウコウコクサイ,0
159,1140001141679,新規,0,2026-02-09,2026-02-09,株式会社心禄,,株式会社,兵庫県,多可郡多可町,加美区熊野部１０００番地１５,,28,365,6791202,,,,,,,2026-02-09,1,,,,,ミロク,0
160,1140001141712,新規,0,2026-02-09,2026-02-09,株式会社アルトロフーズ,,株式会社,兵庫県,姫路市,白浜町丙１４１番地３－２０５,,28,201,6728023,,,,,,,2026-02-09,1,,,,,アルトロフーズ,0
163,1140003023181,新規,0,2026-02-09,2026-02-09,合同会社ニューホライズン,,合同会社,兵庫県,明石市,二見町東二見１０２３番地の１,,28,203,6740092,,,,,,,2026-02-09,1,,,,,ニューホライズン,0
169,1170001018973,新規,0,2026-02-09,2026-02-09,Ｊ＆Ｇ　ＢＥＮＣＨＭＡＲＫ株式会社,,株式会社,和歌山県,西牟婁郡白浜町,堅田２５００番地の６８,,30,401,6492201,,,,,,,2026-02-09,1,,,,,ジェイアンドジーベンチマーク,0
180,1180001170526,新規,0,2026-02-09,2026-02-09,ＥＸＩＭ　ＪＡＰＡＮ株式会社,,株式会社,愛知県,名古屋市千種区,仲田２丁目１番５号,,23,101,4640074,,,,,,,2026-02-09,1,,,,,エクシムジャパン,0
181,1180001170591,新規,0,2026-02-09,2026-02-09,ＧＡＲＯＥ株式会社,,株式会社,愛知県,名古屋市中村区,名駅３丁目４－１０アルティメイト名駅１ｓｔ２階,,23,105,4500002,,,,,,,2026-02-09,1,,,,,ガロエ,0
183,1180003029720,新規,0,2026-02-09,2026-02-09,合同会社サンライト,,合同会社,愛知県,名古屋市緑区,鳴海町字光正寺４１番地の２エトワールみどり３Ａ,,23,114,4580801,,,,,,,2026-02-09,1,,,,,サンライト,0
187,1180305009767,新規,0,2026-02-09,2026-02-09,医療法人共成会,,その他の設立登記法人,愛知県,岡崎市,筒針町字池田１０４－１,,23,202,4440932,,,,,,,2026-02-09,1,,,,,キョウセイカイ,0
197,1280001009581,新規,0,2026-02-09,2026-02-09,株式会社Ｍａａ,,株式会社,島根県,松江市,東朝日町６６番地７,,32,201,6900001,,,,,,,2026-02-09,1,,,,,マー,0
206,1300003002417,新規,0,2026-02-09,2026-02-09,愛和工房合同会社,,合同会社,佐賀県,鹿島市,大字音成戊１９４１番地,,41,207,8491323,,,,,,,2026-02-09,1,,,,,アイワコウボウ,0
216,1330003011423,新規,0,2026-02-09,2026-02-09,ＴＩＰＳ‐ＪＡＰＡＮ合同会社,,合同会社,熊本県,熊本市西区,二本木１丁目３番８－６０４号,,43,103,8600051,,,,,,,2026-02-09,1,,,,,ティップスジャパン,0
219,1340001027965,新規,0,2026-02-09,2026-02-09,株式会社コアラス,,株式会社,鹿児島県,鹿児島市,武１丁目４３番１５号,,46,201,8900045,,,,,,,2026-02-09,1,,,,,コアラス,0
225,1380001035857,新規,0,2026-02-09,2026-02-09,株式会社ソアン,,株式会社,福島県,いわき市,平谷川瀬２丁目１２番地の３,,07,204,9708036,,,,,,,2026-02-09,1,,,,,ソアン,0
235,1430001096175,新規,0,2026-02-09,2026-02-09,株式会社ＴＥＡＭ３０,,株式会社,北海道,札幌市中央区,南七条西７丁目３番１号第８８松井ビル４０７号室,,01,101,0640807,,,,,,,2026-02-09,1,,,,,チームサーティー,0
237,1430003018565,新規,0,2026-02-09,2026-02-09,合同会社ルミナス,,合同会社,北海道,虻田郡倶知安町,北四条東３丁目２番地２０エンジェルコーポＡ号室,,01,400,0440004,,,,,,,2026-02-09,1,,,,,ルミナス,0
242,1480001013084,新規,0,2026-02-09,2026-02-09,パワーエナジーランテック株式会社,,株式会社,徳島県,徳島市,問屋町１４５番地,,36,201,7708056,,,,,,,2026-02-09,1,,,,,パワーエナジーランテック,0
244,1500001026769,新規,0,2026-02-09,2026-02-09,幸洋マリン株式会社,,株式会社,愛媛県,今治市,別宮町８丁目２－３５,,38,202,7940026,,,,,,,2026-02-09,1,,,,,コウヨウマリン,0
246,1500003003667,新規,0,2026-02-09,2026-02-09,ＴＳＬ．ｍｅｕｅ．ＬＬＣ合同会社,,合同会社,愛媛県,松山市,湊町４丁目１１－４・３Ｆ,,38,201,7900012,,,,,,,2026-02-09,1,,,,,ティーエスエルエムイーユーイーエルエルシー,0
247,1700150134336,新規,0,2026-02-09,2026-02-09,垂井町府中清水土地区画整理組合,,その他,岐阜県,岐阜市,薮田南５丁目１４番１２号,,21,201,5008384,,,,,,,2026-02-09,1,,,,,タルイチヨウフチユウシミズトチクカクセイリクミアイ,0
254,2010001262553,新規,0,2026-02-09,2026-02-09,株式会社ニチレイビズネクスト,,株式会社,東京都,中央区,築地６丁目１９番２０号,,13,102,1040045,,,,,,,2026-02-09,1,,,,,ニチレイビズネクスト,0
255,2010001262669,新規,0,2026-02-09,2026-02-09,株式会社ＳＹホールディングス,,株式会社,東京都,千代田区,神田神保町２丁目３８番１１号,,13,101,1010051,,,,,,,2026-02-09,1,,,,,エスワイホールディングス,0
258,2010003050221,新規,0,2026-02-09,2026-02-09,ノヴァリニューワブル・エナジー３合同会社,,合同会社,東京都,千代田区,内神田１丁目３番７号４０１あすな会計事務所内,,13,101,1010047,,,,,,,2026-02-09,1,,,,,ノヴァリニューワブルエナジースリー,0
259,2010003050270,新規,0,2026-02-09,2026-02-09,ＫＮＩＴ２合同会社,,合同会社,東京都,中央区,日本橋１丁目４番１号日本橋一丁目ビルディング,,13,102,1030027,,,,,,,2026-02-09,1,,,,,ニットツー,0
260,2010101017080,新規,0,2026-02-09,2026-02-09,株式会社１６０３,,株式会社,東京都,八王子市,明神町４丁目３番１８号,,13,201,1920046,,,,,,,2026-02-09,1,,,,,イチロクゼロサン,0
263,2010401196293,新規,0,2026-02-09,2026-02-09,株式会社アフィリ堂,,株式会社,東京都,港区,虎ノ門３丁目１８番６号朝日虎ノ門マンション６１４号室,,13,103,1050001,,,,,,,2026-02-09,1,,,,,アフィリドウ,0
264,2010401196459,新規,0,2026-02-09,2026-02-09,ボイスリー株式会社,,株式会社,東京都,港区,赤坂８丁目４番１４号青山タワープレイス８Ｆ,,13,103,1070052,,,,,,,2026-02-09,1,,,,,ボイスリー,0
265,2010403037132,新規,0,2026-02-09,2026-02-09,合同会社ＯＳコンサル,,合同会社,東京都,港区,芝１丁目１２－８－６０３,,13,103,1050014,,,,,,,2026-02-09,1,,,,,オーエスコンサル,0
266,2010403037264,新規,0,2026-02-09,2026-02-09,ＧＡＲＮＥＴ守谷合同会社,,合同会社,東京都,港区,六本木１丁目６番１号泉ガーデンタワー１２階,,13,103,1060032,,,,,,,2026-02-09,1,,,,,ガーネットモリヤ,0
268,2010601068706,新規,0,2026-02-09,2026-02-09,リーガルマネジメント株式会社,,株式会社,東京都,江東区,東雲１丁目９番３２号,,13,108,1350062,,,,,,,2026-02-09,1,,,,,リーガルマネジメント,0
275,2010901058951,新規,0,2026-02-09,2026-02-09,株式会社三浦地所,,株式会社,東京都,世田谷区,砧２丁目１７―５,,13,112,1570073,,,,,,,2026-02-09,1,,,,,ミウラジショ,0
281,2011001174945,新規,0,2026-02-09,2026-02-09,株式会社ＢｒｉｄｇｅＲｏｏｔｚ,,株式会社,東京都,渋谷区,円山町５番３号ＭＩＥＵＸ渋谷ビル８階,,13,113,1500044,,,,,,,2026-02-09,1,,,,,ブリッジルーツ,0
282,2011001175506,新規,0,2026-02-09,2026-02-09,株式会社ＣａｒｅｅｒＸパートナーズ,,株式会社,東京都,目黒区,上目黒１丁目２６番９号中目黒オークラビル３階,,13,110,1530051,,,,,,,2026-02-09,1,,,,,キャリアエックスパートナーズ,0
284,2011003023571,新規,0,2026-02-09,2026-02-09,Ｓｐｅｌｌ　Ｔｈｅ　Ｓｐａｃｅ合同会社,,合同会社,東京都,渋谷区,道玄坂１丁目１０番８号渋谷道玄坂東急ビル２Ｆ‐Ｃ,,13,113,1500043,,,,,,,2026-02-09,1,,,,,スペルザスペース,0
291,2011401027793,新規,0,2026-02-09,2026-02-09,ＡＬＢＡマネジメント株式会社,,株式会社,東京都,板橋区,大原町１３番７－１００４号,,13,119,1740061,,,,,,,2026-02-09,1,,,,,アルバマネジメント,0
293,2011601029350,新規,0,2026-02-09,2026-02-09,株式会社シシドオフィス,,株式会社,東京都,練馬区,練馬２丁目２８番１５号,,13,120,1760001,,,,,,,2026-02-09,1,,,,,シシドオフィス,0
295,2011701029135,新規,0,2026-02-09,2026-02-09,ベンチャード・キャピタル株式会社,,株式会社,東京都,江戸川区,新堀２丁目２番１８号ＲＩＶＡＡＲＵＮ２０１,,13,123,1320001,,,,,,,2026-02-09,1,,,,,ベンチャードキャピタル,0
296,2012301014709,新規,0,2026-02-09,2026-02-09,株式会社Ｔｍｉｆｆ,,株式会社,東京都,町田市,小山ヶ丘３丁目２２番９号,,13,209,1940215,,,,,,,2026-02-09,1,,,,,ティーミッフ,0
299,2012701019308,新規,0,2026-02-09,2026-02-09,株式会社ＥＬＤＹ,,株式会社,東京都,西東京市,富士町３丁目４番９号,,13,229,2020014,,,,,,,2026-02-09,1,,,,,エルディ,0
301,2013301055718,新規,0,2026-02-09,2026-02-09,株式会社ｕ,,株式会社,東京都,豊島区,東池袋４丁目３－１５－２０５号,,13,116,1700013,,,,,,,2026-02-09,1,,,,,ユー,0
308,2020001166992,新規,0,2026-02-09,2026-02-09,株式会社葵,,株式会社,神奈川県,横浜市中区,根岸町２丁目８５番地５ハートビートベース横濱根岸３３２号室,,14,104,2310836,,,,,,,2026-02-09,1,,,,,アオイ,0
312,2021001087510,新規,0,2026-02-09,2026-02-09,株式会社湘南ｓｕｍｍｉｔ,,株式会社,神奈川県,藤沢市,打戻１８７１―１清田貸家西中,,14,205,2520824,,,,,,,2026-02-09,1,,,,,ショウナンサミット,0
318,2030001170894,新規,0,2026-02-09,2026-02-09,株式会社ＡＱＵＡアセンド,,株式会社,埼玉県,和光市,南１丁目２１番２５号,,11,229,3510104,,,,,,,2026-02-09,1,,,,,アクアアセンド,0
319,2030001170903,新規,0,2026-02-09,2026-02-09,株式会社ＧＩＦＴ,,株式会社,埼玉県,朝霞市,膝折町４丁目２２番７０号,,11,227,3510014,,,,,,,2026-02-09,1,,,,,ギフト,0
326,2040001142406,新規,0,2026-02-09,2026-02-09,株式会社Ｔ‐Ｔｒａｄｅ,,株式会社,千葉県,印旛郡栄町,安食３５９１番地の１,,12,329,2701516,,,,,,,2026-02-09,1,,,,,ティートレード,0
327,2040001142414,新規,0,2026-02-09,2026-02-09,外房高速運輸株式会社,,株式会社,千葉県,長生郡長柄町,山根１８４３番地,,12,426,2970206,,,,,,,2026-02-09,1,,,,,ソトボウコウソクウンユ,0
332,2050001057917,新規,0,2026-02-09,2026-02-09,株式会社ＥＸ．ＹＡＳＵ,,株式会社,茨城県,坂東市,長谷８７９番地４,,08,228,3060642,,,,,,,2026-02-09,1,,,,,イーエックスヤス,0
334,2050003009932,新規,0,2026-02-09,2026-02-09,合同会社布石,,合同会社,茨城県,つくば市,松代２丁目１０－３中山ビル３０１,,08,220,3050035,,,,,,,2026-02-09,1,,,,,フセキ,0
335,2060001038998,新規,0,2026-02-09,2026-02-09,ＢＬＩＳＳＦＵＬ株式会社,,株式会社,栃木県,宇都宮市,桜２丁目２番３５号,,09,201,3200043,,,,,,,2026-02-09,1,,,,,ブリスフル,0
336,2060003005955,新規,0,2026-02-09,2026-02-09,ＢＴＲ合同会社,,合同会社,栃木県,那須塩原市,西幸町６番１０号,,09,213,3292724,,,,,,,2026-02-09,1,,,,,ビーティーアール,0
352,2100001039331,新規,0,2026-02-09,2026-02-09,笹福総合研究所株式会社,,株式会社,長野県,長野市,徳間１丁目８番２号,,20,201,3810041,,,,,,,2026-02-09,1,,,,,ササフクソウゴウケンキュウジョ,0
362,2120001283852,新規,0,2026-02-09,2026-02-09,ＥｃｈｏＤｅｅｐ　Ｉｎｃ株式会社,,株式会社,大阪府,大阪市東住吉区,照ケ丘矢田２丁目７－２淘金ビル,,27,121,5460021,,,,,,,2026-02-09,1,,,,,エコーディープ,0
363,2120001283869,新規,0,2026-02-09,2026-02-09,株式会社フィナールエステート,,株式会社,大阪府,大阪市東住吉区,湯里６丁目５番８号湯里アーバンライフ１Ｆ,,27,121,5460013,,,,,,,2026-02-09,1,,,,,フィナールエステート,0
364,2120001283935,新規,0,2026-02-09,2026-02-09,クロバーセル株式会社,,株式会社,大阪府,大阪市都島区,大東町１丁目５番８号,,27,102,5340002,,,,,,,2026-02-09,1,,,,,クロバーセル,0
365,2120001283968,新規,0,2026-02-09,2026-02-09,株式会社ＮｅｘＬｅａｄ,,株式会社,大阪府,大阪市中央区,南船場１丁目１２－３ＡＲＣＡ心斎橋ビル７Ｆ,,27,128,5420081,,,,,,,2026-02-09,1,,,,,ネクストリード,0
366,2120001283984,新規,0,2026-02-09,2026-02-09,株式会社八ノ音,,株式会社,大阪府,大阪市北区,梅田１丁目２番２号大阪駅前第２ビル１２－１２,,27,127,5300001,,,,,,,2026-02-09,1,,,,,ハチノネ,0
367,2120001283992,新規,0,2026-02-09,2026-02-09,株式会社ニュースマート,,株式会社,大阪府,大阪市北区,中崎西２丁目１番２－７０３号,,27,127,5300015,,,,,,,2026-02-09,1,,,,,ニュースマート,0
368,2120001284000,新規,0,2026-02-09,2026-02-09,株式会社黒門小雀弥西中島,,株式会社,大阪府,大阪市淀川区,木川東４丁目１４番１０号,,27,123,5320012,,,,,,,2026-02-09,1,,,,,クロモンコガラヤニシナカジマ,0
370,2120003031838,新規,0,2026-02-09,2026-02-09,合同会社潤,,合同会社,大阪府,枚方市,香里ケ丘１１丁目２３－５,,27,210,5730084,,,,,,,2026-02-09,1,,,,,ジュン,0
371,2120003031846,新規,0,2026-02-09,2026-02-09,合同会社アーク,,合同会社,大阪府,大阪市生野区,勝山南４丁目８番４号,,27,116,5440021,,,,,,,2026-02-09,1,,,,,アーク,0
372,2120003031854,新規,0,2026-02-09,2026-02-09,ヤンマーセーブザファームズ岡山合同会社,,合同会社,大阪府,大阪市北区,茶屋町１番３２号,,27,127,5300013,,,,,,,2026-02-09,1,,,,,ヤンマーセーブザファームズオカヤマ,0
374,2120103006979,新規,0,2026-02-09,2026-02-09,合同会社ＤｒａｇｏｎＬａｄｙ,,合同会社,大阪府,堺市堺区,南瓦町１番１９－３０７号,,27,141,5900078,,,,,,,2026-02-09,1,,,,,ドラゴンレディー,0
375,2120901052183,新規,0,2026-02-09,2026-02-09,Ｐｒｏｐｒａ株式会社,,株式会社,大阪府,豊中市,刀根山３丁目１番３０号４０３号室,,27,203,5600045,,,,,,,2026-02-09,1,,,,,プロプラ,0
379,2130003011112,新規,0,2026-02-09,2026-02-09,合同会社やまもとさん,,合同会社,京都府,京都市中京区,新町通御池上る中之町４６番地イーグルコート京都御池創苑９０３号,,26,104,6040032,,,,,,,2026-02-09,1,,,,,ヤマモトサン,0
384,2140001141620,新規,0,2026-02-09,2026-02-09,株式会社Ｔｒｕｆｅｒａ,,株式会社,兵庫県,姫路市,砥堀１１６番地４,,28,201,6700802,,,,,,,2026-02-09,1,,,,,トルフェラ,0
385,2140001141678,新規,0,2026-02-09,2026-02-09,ＯＰＥＮ　ＦＩＥＬＤ株式会社,,株式会社,兵庫県,川西市,南野坂１丁目２番地の１１４,,28,217,6660136,,,,,,,2026-02-09,1,,,,,オープンフィールド,0
386,2140001141711,新規,0,2026-02-09,2026-02-09,株式会社ＹｕｉＲｉｎｏ　Ｈｏｍｅ,,株式会社,兵庫県,西宮市,馬場町６番２０－２０１号,,28,204,6620915,,,,,,,2026-02-09,1,,,,,ユイリノホーム,0
389,2140003023180,新規,0,2026-02-09,2026-02-09,合同会社ＪＩＮＴＡ,,合同会社,兵庫県,神戸市東灘区,魚崎南町６丁目２番１６－２号,,28,101,6580025,,,,,,,2026-02-09,1,,,,,ジンタ,0
393,2150005009763,新規,0,2026-02-09,2026-02-09,一般社団法人奈良アスリート会,,その他の設立登記法人,奈良県,桜井市,大字池之内１２６０番地の２,,29,206,6330046,,,,,,,2026-02-09,1,,,,,ナラアスリートカイ,0
398,2180001170640,新規,0,2026-02-09,2026-02-09,ＡＳＥＬ　ＡＵＴＯ株式会社,,株式会社,愛知県,稲沢市,北麻績町麻畑２６,,23,220,4928448,,,,,,,2026-02-09,1,,,,,アセルオート,0
402,2180003029728,新規,0,2026-02-09,2026-02-09,インヨウフロンティア合同会社,,合同会社,愛知県,名古屋市中村区,名駅４丁目２４番５号第２森ビル４０１,,23,105,4500002,,,,,,,2026-02-09,1,,,,,インヨウフロンティア,0
407,2180305009766,新規,0,2026-02-09,2026-02-09,一般社団法人みらもり,,その他の設立登記法人,愛知県,豊橋市,多米西町３丁目１２番地２０,,23,201,4400026,,,,,,,2026-02-09,1,,,,,ミラモリ,0
411,2200001044692,新規,0,2026-02-09,2026-02-09,株式会社リフア,,株式会社,岐阜県,岐阜市,粟野西５丁目６０２番地,,21,201,5020006,,,,,,,2026-02-09,1,,,,,リフア,0
413,2200005013842,新規,0,2026-02-09,2026-02-09,一般社団法人ＪＰＣ,,その他の設立登記法人,岐阜県,養老郡養老町,釜段８００番地,,21,341,5031276,,,,,,,2026-02-09,1,,,,,ジェーピーシー,0
415,2220003004222,新規,0,2026-02-09,2026-02-09,合同会社ＨＫミクス,,合同会社,石川県,小松市,野田町乙１０４番地１,,17,203,9230033,,,,,,,2026-02-09,1,,,,,エイチケイミクス,0
421,2240003007594,新規,0,2026-02-09,2026-02-09,合同会社備後寝台サポート,,合同会社,広島県,府中市,中須町１４０４－３－Ｅ１０１,,34,208,7260012,,,,,,,2026-02-09,1,,,,,ビンゴシンダイサポート,0
445,2300003002416,新規,0,2026-02-09,2026-02-09,合同会社Ｆｌｅｕｒｉｒ,,合同会社,佐賀県,佐賀市,久保田町徳万１７５４－２０,,41,201,8490000,,,,,,,2026-02-09,1,,,,,フルリール,0
454,2360001036352,新規,0,2026-02-09,2026-02-09,株式会社金平産業,,株式会社,沖縄県,名護市,東江３丁目２１番３号,,47,209,9050021,,,,,,,2026-02-09,1,,,,,カネヒラサンギョウ,0
455,2360001036360,新規,0,2026-02-09,2026-02-09,株式会社石垣島かりゆし,,株式会社,沖縄県,石垣市,字新川２２５２番地６、２Ｆ,,47,207,9070024,,,,,,,2026-02-09,1,,,,,イシガキジマカリユシ,0
460,2380001035864,新規,0,2026-02-09,2026-02-09,株式会社青嵐社,,株式会社,福島県,郡山市,八山田５丁目３２８番地,,07,203,9638052,,,,,,,2026-02-09,1,,,,,セイランシャ,0
461,2380005013065,新規,0,2026-02-09,2026-02-09,一般社団法人會津キネマ倶楽部,,その他の設立登記法人,福島県,会津若松市,金川町５－５４,,07,202,9650056,,,,,,,2026-02-09,1,,,,,アイヅキネマクラブ,0
462,2390001018257,新規,0,2026-02-09,2026-02-09,株式会社Ｓコネクション,,株式会社,山形県,山形市,山家本町２丁目６番１４号,,06,201,9900006,,,,,,,2026-02-09,1,,,,,エスコネクション,0
471,2430001096190,新規,0,2026-02-09,2026-02-09,株式会社ＦＲＡＮ,,株式会社,北海道,札幌市北区,北三十三条西２丁目１番７号ＬＩＧＨＴ　ＯＦＦＩＣＥ,,01,102,0010033,,,,,,,2026-02-09,1,,,,,フラン,0
473,2440001009754,新規,0,2026-02-09,2026-02-09,ＤＯＤＯ株式会社,,株式会社,北海道,二海郡八雲町,出雲町１４番地７,,01,346,0493115,,,,,,,2026-02-09,1,,,,,ドードー,0
475,2470001021087,新規,0,2026-02-09,2026-02-09,株式会社ＭＨＣ,,株式会社,香川県,木田郡三木町,大字田中４１７３番地,,37,341,7610611,,,,,,,2026-02-09,1,,,,,,0
479,2500001026768,新規,0,2026-02-09,2026-02-09,株式会社Ｉｎｔｅｌｉｃｅｎｔ,,株式会社,愛媛県,松山市,南持田町５３－１－５０３,,38,201,7900874,,,,,,,2026-02-09,1,,,,,インテリセント,0
480,2500001026776,新規,0,2026-02-09,2026-02-09,株式会社村上興業,,株式会社,愛媛県,四国中央市,金生町下分１２７１番地２,,38,213,7990111,,,,,,,2026-02-09,1,,,,,ムラカミコウギョウ,0
486,2700150134285,新規,0,2026-02-09,2026-02-05,上田いさむ政経懇話会,,その他,静岡県,浜松市中央区,常盤町１３９－１８,,22,138,4300917,,,,,,,2026-02-05,1,,,,,ウエダイサムセイケイコンワカイ,0
491,3010001262429,新規,0,2026-02-09,2026-02-09,ゼロリンク運輸株式会社,,株式会社,東京都,中央区,銀座１丁目２２番１１号銀座大竹ビジデンス２Ｆ,,13,102,1040061,,,,,,,2026-02-09,1,,,,,ゼロリンクウンユ,0
492,3010001262437,新規,0,2026-02-09,2026-02-09,株式会社トモキャリ,,株式会社,東京都,中央区,築地３丁目７番１１号ＣＵＢＥＴＳＵＫＩＪＩ３階,,13,102,1040045,,,,,,,2026-02-09,1,,,,,トモキャリ,0
493,3010001262602,新規,0,2026-02-09,2026-02-09,株式会社日本ヴィンテージランド,,株式会社,東京都,中央区,晴海５丁目５－７－２００６,,13,102,1040053,,,,,,,2026-02-09,1,,,,,ニホンヴィンテージランド,0
501,3010005041358,新規,0,2026-02-09,2026-02-09,司法書士法人そよかぜ,,その他の設立登記法人,東京都,中央区,日本橋小伝馬町１７番１６号ユースメディアビル３階,,13,102,1030001,,,,,,,2026-02-09,1,,,,,ソヨカゼ,0
510,3010401196359,新規,0,2026-02-09,2026-02-09,大阪・ＪＤ・ホテル・オペレーションズ株式会社,,株式会社,東京都,港区,愛宕２丁目５番１号,,13,103,1050002,,,,,,,2026-02-09,1,,,,,オオサカジェイディーホテルオペレーションズ,0
513,3010501055398,新規,0,2026-02-09,2026-02-09,株式会社ＳＨ,,株式会社,東京都,台東区,浅草７丁目６番３号,,13,106,1110032,,,,,,,2026-02-09,1,,,,,エスエイチ,0
514,3010601068696,新規,0,2026-02-09,2026-02-09,株式会社ルータス,,株式会社,東京都,墨田区,亀沢４丁目１１番８－５０１号,,13,107,1300014,,,,,,,2026-02-09,1,,,,,ルータス,0
515,3010601068705,新規,0,2026-02-09,2026-02-09,株式会社ＳＴＥＡＤＹ＆ＹＯＮＤＥＲ,,株式会社,東京都,墨田区,石原３丁目１９－８ＴＣＲＥ両国１階,,13,107,1300011,,,,,,,2026-02-09,1,,,,,ステディーアンドヨンダー,0
516,3010601068713,新規,0,2026-02-09,2026-02-09,株式会社ＦｒｅｅＳｔｙｌｅ,,株式会社,東京都,江東区,新大橋２丁目８番７号,,13,108,1350007,,,,,,,2026-02-09,1,,,,,フリースタイル,0
524,3010901058918,新規,0,2026-02-09,2026-02-09,株式会社ＩＷＡＭＡＳＡ,,株式会社,東京都,世田谷区,用賀１丁目４番８号,,13,112,1580097,,,,,,,2026-02-09,1,,,,,イワマサ,0
526,3010903010612,新規,0,2026-02-09,2026-02-09,ｆｕｎｔｒａｐ合同会社,,合同会社,東京都,世田谷区,玉川田園調布１丁目８番１６号,,13,112,1580085,,,,,,,2026-02-09,1,,,,,ファントラップ,0
531,3011001175538,新規,0,2026-02-09,2026-02-09,株式会社ＫＴ,,株式会社,東京都,渋谷区,神宮前６丁目８番４号,,13,113,1500001,,,,,,,2026-02-09,1,,,,,ケーティー,0
538,3011101114651,新規,0,2026-02-09,2026-02-09,株式会社マーケティングギア,,株式会社,東京都,新宿区,西新宿３丁目３番１３号西新宿水間ビル２Ｆ,,13,104,1600023,,,,,,,2026-02-09,1,,,,,マーケティングギア,0
545,3011603005002,新規,0,2026-02-09,2026-02-09,ＷＡＳＡＢＩ．合同会社,,合同会社,東京都,練馬区,練馬２丁目１３番１７号グレース１０２,,13,120,1760001,,,,,,,2026-02-09,1,,,,,ワサビドット,0
548,3011701029159,新規,0,2026-02-09,2026-02-09,株式会社ＷＨＩＴＥ　ＳＭＩＬＥＡ,,株式会社,東京都,江戸川区,平井４丁目１１番９号三井ビル,,13,123,1320035,,,,,,,2026-02-09,1,,,,,ホワイトスマイリア,0
550,3011705001931,新規,0,2026-02-09,2026-02-09,一般社団法人夢ロマン経営サポート機構,,その他の設立登記法人,東京都,江戸川区,平井２丁目２０番１５号,,13,123,1320035,,,,,,,2026-02-09,1,,,,,ユメロマンケイエイサポートキコウ,0
552,3011801047424,新規,0,2026-02-09,2026-02-09,星野ガーデン株式会社,,株式会社,東京都,足立区,伊興２丁目２番３号,,13,121,1210823,,,,,,,2026-02-09,1,,,,,ホシノガーデン,0
557,3011803007319,新規,0,2026-02-09,2026-02-09,地域安心サポートサービス合同会社,,合同会社,東京都,葛飾区,水元５丁目５番２号スプリングガーデン１０５号室,,13,122,1250032,,,,,,,2026-02-09,1,,,,,チイキアンシンサポートサービス,0
559,3012803003992,新規,0,2026-02-09,2026-02-09,ＦＵＭＡ合同会社,,合同会社,東京都,国立市,谷保７７８－２,,13,215,1860011,,,,,,,2026-02-09,1,,,,,エフユーエムエー,0
569,3020003030304,新規,0,2026-02-09,2026-02-09,ＷｈｉｔｅＨｏｌｅ合同会社,,合同会社,神奈川県,横浜市青葉区,青葉台２丁目６－１６ユニテ青葉台１Ｆ,,14,117,2270062,,,,,,,2026-02-09,1,,,,,ホワイトホール,0
570,3020005017134,新規,0,2026-02-09,2026-02-09,特定非営利活動法人日本がん闘病ＳＮＳ支援協会,,その他の設立登記法人,神奈川県,横浜市港南区,日限山４丁目４５番１２号,,14,111,2330015,,,,,,,2026-02-09,1,,,,,ニホンガントウビョウエスエヌエスシエンキョウカイ,0
572,3021001087427,新規,0,2026-02-09,2026-02-09,株式会社よつな,,株式会社,神奈川県,相模原市南区,下溝３０４番８,,14,153,2520335,,,,,,,2026-02-09,1,,,,,ヨツナ,0
577,3030001170919,新規,0,2026-02-09,2026-02-09,株式会社ＣＨＥＲＩＡ,,株式会社,埼玉県,鶴ヶ島市,富士見１丁目８－１０ドルミ若葉２０３,,11,241,3502201,,,,,,,2026-02-09,1,,,,,シェリア,0
578,3030001170927,新規,0,2026-02-09,2026-02-09,株式会社ココロネットワーク,,株式会社,埼玉県,富士見市,東みずほ台２丁目１８－１１,,11,235,3540015,,,,,,,2026-02-09,1,,,,,ココロネットワーク,0
591,3040003029402,新規,0,2026-02-09,2026-02-09,合同会社Ｏｔｔｉｍｏ,,合同会社,千葉県,我孫子市,柴崎８５５－２,,12,222,2701177,,,,,,,2026-02-09,1,,,,,オッティモ,0
594,3050001057957,新規,0,2026-02-09,2026-02-09,株式会社はなまる防災,,株式会社,茨城県,笠間市,上加賀田１８２２番地２,,08,216,3091623,,,,,,,2026-02-09,1,,,,,ハナマルボウサイ,0
595,3050001057965,新規,0,2026-02-09,2026-02-09,水戸セキレイグループ株式会社,,株式会社,茨城県,水戸市,見川４丁目６８１番地の５,,08,201,3100912,,,,,,,2026-02-09,1,,,,,ミトセキレイグループ,0
605,3080001027420,新規,0,2026-02-09,2026-02-09,株式会社ナグラデザイン,,株式会社,静岡県,島田市,阿知ケ谷３６６番地の１２,,22,209,4270006,,,,,,,2026-02-09,1,,,,,ナグラデザイン,0
607,3080101026074,新規,0,2026-02-09,2026-02-09,勝礼工業株式会社,,株式会社,静岡県,富士市,厚原９９６番地の２７,,22,210,4190201,,,,,,,2026-02-09,1,,,,,ショウレイコウギョウ,0
608,3080105006568,新規,0,2026-02-09,2026-02-09,富士山麓シェア暮らし協同組合,,その他の設立登記法人,静岡県,富士宮市,大宮町３１番地澤田ビル,,22,207,4180066,,,,,,,2026-02-09,1,,,,,フジサンロクシェアグラシ,0
609,3080401028431,新規,0,2026-02-09,2026-02-09,株式会社ＴＡＩＥＩ,,株式会社,静岡県,浜松市中央区,笠井上町７２番地の１,,22,138,4313106,,,,,,,2026-02-09,1,,,,,タイエイ,0
620,3120001282795,新規,0,2026-02-09,2026-02-09,株式会社さくや,,株式会社,大阪府,大阪市中央区,高津３丁目１４番１１号シエリアタワーなんば２００４号室,,27,128,5420072,,,,,,,2026-02-09,1,,,,,サクヤ,0
621,3120001283959,新規,0,2026-02-09,2026-02-09,株式会社ライトエイド,,株式会社,大阪府,交野市,私部２丁目３１－５,,27,230,5760052,,,,,,,2026-02-09,1,,,,,ライトエイド,0
622,3120001283967,新規,0,2026-02-09,2026-02-09,株式会社彩流,,株式会社,大阪府,大阪市西区,新町１丁目２番１３号,,27,106,5500013,,,,,,,2026-02-09,1,,,,,サイリュウ,0
626,3120101073161,新規,0,2026-02-09,2026-02-09,はじめ株式会社,,株式会社,大阪府,羽曳野市,島泉９丁目１番１号,,27,222,5830881,,,,,,,2026-02-09,1,,,,,ハジメ,0
629,3120901052190,新規,0,2026-02-09,2026-02-09,株式会社サクラウマ,,株式会社,大阪府,茨木市,上野町２６番９号の４,,27,211,5670064,,,,,,,2026-02-09,1,,,,,サクラウマ,0
630,3120901052216,新規,0,2026-02-09,2026-02-09,株式会社ＯＮＥ‐ＵＰ,,株式会社,大阪府,豊中市,本町５丁目７番５号,,27,203,5600021,,,,,,,2026-02-09,1,,,,,ワンナップ,0
631,3120903006070,新規,0,2026-02-09,2026-02-09,合同会社アリアプロパティ,,合同会社,大阪府,豊中市,緑丘４丁目１３番６号,,27,203,5600002,,,,,,,2026-02-09,1,,,,,アリアプロパティ,0
640,3140001141677,新規,0,2026-02-09,2026-02-09,株式会社ｓｏｌｅｉｌ,,株式会社,兵庫県,神戸市中央区,浜辺通６丁目１番１号,,28,110,6510083,,,,,,,2026-02-09,1,,,,,ソレイル,0
641,3140001141693,新規,0,2026-02-09,2026-02-09,株式会社Ｐｒｉｎｃｉｐｌｅ　Ｂａｓｅ,,株式会社,兵庫県,西宮市,北昭和町１４番２３－２０２号,,28,204,6620833,,,,,,,2026-02-09,1,,,,,プリンシプルベース,0
642,3140001141710,新規,0,2026-02-09,2026-02-09,株式会社ＫＯＴＯＭＡ,,株式会社,兵庫県,神戸市中央区,中山手通３丁目５－７－１００２,,28,110,6500004,,,,,,,2026-02-09,1,,,,,コトマ,0
648,3140003023188,新規,0,2026-02-09,2026-02-09,レインディアＴＣＮ合同会社,,合同会社,兵庫県,神戸市西区,美賀多台２丁目２０番地の３,,28,111,6512277,,,,,,,2026-02-09,1,,,,,レインディアティーシーエヌ,0
656,3160001027404,新規,0,2026-02-09,2026-02-09,株式会社すまいる,,株式会社,滋賀県,大津市,錦織２丁目３番６７号,,25,201,5200027,,,,,,,2026-02-09,1,,,,,スマイル,0
660,3170001018971,新規,0,2026-02-09,2026-02-09,株式会社ＡＯ,,株式会社,和歌山県,田辺市,中万呂３４番地の９,,30,206,6460003,,,,,,,2026-02-09,1,,,,,アオ,0
680,3230001021283,新規,0,2026-02-09,2026-02-09,株式会社Ｓｋｉａｍ,,株式会社,富山県,富山市,北代新２８９番地１,,16,201,9300104,,,,,,,2026-02-09,1,,,,,エスケイアイエーエム,0
688,3240003007593,新規,0,2026-02-09,2026-02-09,合同会社わくわくれ,,合同会社,広島県,呉市,焼山政畝２丁目１４番７号,,34,202,7370934,,,,,,,2026-02-09,1,,,,,ワクワクレ,0
691,3250001021538,新規,0,2026-02-09,2026-02-09,ＴＯＳＨＩ　ＣＲＥＡＴＩＯＮ株式会社,,株式会社,山口県,萩市,大字椿東３１７５番地４,,35,204,7580011,,,,,,,2026-02-09,1,,,,,トシクリエーション,0
694,3260003005505,新規,0,2026-02-09,2026-02-09,合同会社ＬＵＸＥ,,合同会社,岡山県,岡山市北区,御津北野５８５番地,,33,101,7092115,,,,,,,2026-02-09,1,,,,,リュクス,0
705,3310001019955,新規,0,2026-02-09,2026-02-09,株式会社ｓｏｗａ,,株式会社,長崎県,北松浦郡佐々町,須崎免１１番地４,,42,391,8570351,,,,,,,2026-02-09,1,,,,,ソワ,0
708,3330002031651,新規,0,2026-02-09,2026-02-09,有限会社山鹿コンクリート工業所,,有限会社,熊本県,山鹿市,大字山鹿２７２番地,,43,208,8610500,,,,,,,2026-02-09,1,,,,,ヤマガコンリートコウギョウショ,0
709,3330003011421,新規,0,2026-02-09,2026-02-09,合同会社ノウカコウ,,合同会社,熊本県,阿蘇市,一の宮町坂梨字北駄原２９５４番９,,43,214,8692611,,,,,,,2026-02-09,1,,,,,ノウカコウ,0
711,3340001027963,新規,0,2026-02-09,2026-02-09,株式会社クラケン,,株式会社,鹿児島県,鹿児島市,山田町７４９番地１６,,46,201,8910104,,,,,,,2026-02-09,1,,,,,クラケン,0
719,3360001036351,新規,0,2026-02-09,2026-02-09,株式会社ＫＫＢ　ＨＯＰＥＳ,,株式会社,沖縄県,うるま市,字平良川３４０番地,,47,213,9042221,,,,,,,2026-02-09,1,,,,,ケイケイビーホープス,0
721,3360005007365,新規,0,2026-02-09,2026-02-09,一般社団法人東村サービス,,その他の設立登記法人,沖縄県,国頭郡東村,字有銘１０３８番地１,,47,303,9051206,,,,,,,2026-02-09,1,,,,,ヒガシソンサービス,0
725,3380001035855,新規,0,2026-02-09,2026-02-09,株式会社大槻工業,,株式会社,福島県,郡山市,字五百渕西１番地の７６,,07,203,9638865,,,,,,,2026-02-09,1,,,,,オオツキコウギョウ,0
728,3380003006243,新規,0,2026-02-09,2026-02-09,合同会社サスティア,,合同会社,福島県,いわき市,内郷御厩町２丁目１３２番地,,07,204,9738402,,,,,,,2026-02-09,1,,,,,サスティア,0
729,3380005013064,新規,0,2026-02-09,2026-02-09,弁護士法人葵綜合法律事務所,,その他の設立登記法人,福島県,会津若松市,山鹿町５番２２号タウンホーム・ヤマガ１０１号室,,07,202,9650876,,,,,,,2026-02-09,1,,,,,アオイソウゴウホウリツジムショ,0
730,3390001018256,新規,0,2026-02-09,2026-02-09,株式会社リバーベル,,株式会社,山形県,東根市,神町西５丁目３番６７－６号,,06,211,9993766,,,,,,,2026-02-09,1,,,,,リバーベル,0
742,3420001019416,新規,0,2026-02-09,2026-02-09,株式会社ディアワークス電設,,株式会社,青森県,弘前市,大字稲田１丁目４番地３,,02,202,0368097,,,,,,,2026-02-09,1,,,,,ディアワークスデンセツ,0
746,3430001096215,新規,0,2026-02-09,2026-02-09,株式会社カリス,,株式会社,北海道,札幌市中央区,南一条西５丁目１６番地プレジデント松井ビル１００　８０４ＡＢ,,01,101,0600061,,,,,,,2026-02-09,1,,,,,カリス,0
756,3700150134334,新規,0,2026-02-09,2026-02-09,ＨＩＧＨＬＩＧＨＴ　ＩＭＰＯＲＴＳ,,外国会社等,神奈川県,藤沢市,葛原１９０５番地,,14,205,2520822,スリランカ民主社会主義共和国ガムポラ、アタバゲ、デルピティヤ１３１番地,,,,,,2026-02-09,1,,,,,ハイライトインポーツ,0
765,4010001262618,新規,0,2026-02-09,2026-02-09,エンハンスリアルエステイト株式会社,,株式会社,東京都,中央区,日本橋浜町２丁目１８番４号,,13,102,1030007,,,,,,,2026-02-09,1,,,,,エンハンスリアルエステイト,0
770,4010003050260,新規,0,2026-02-09,2026-02-09,ふたりたび合同会社,,合同会社,東京都,中央区,銀座１丁目１２番４号Ｎ＆ＥＢＬＤ．６Ｆ,,13,102,1040061,,,,,,,2026-02-09,1,,,,,フタリタビ,0
771,4010003050302,新規,0,2026-02-09,2026-02-09,由布蓄電所合同会社,,合同会社,東京都,千代田区,丸の内１丁目４番１号東京共同会計事務所内,,13,101,1000005,,,,,,,2026-02-09,1,,,,,ユフチクデンショ,0
772,4010003050335,新規,0,2026-02-09,2026-02-09,合同会社オルタナ３１,,合同会社,東京都,千代田区,丸の内１丁目４番１号東京共同会計事務所内,,13,101,1000005,,,,,,,2026-02-09,1,,,,,オルタナサンジュウイチ,0
774,4010005041357,新規,0,2026-02-09,2026-02-09,Ｅｖｅｒｇｒｅｅｎ　Ｖａｌｕｅ　Ｉ一般社団法人,,その他の設立登記法人,東京都,千代田区,平河町１丁目６番１５号シルスフィア会計事務所内,,13,101,1020093,,,,,,,2026-02-09,1,,,,,エバーグリーンバリューワン,0
777,4010401196390,新規,0,2026-02-09,2026-02-09,ＯＣＴＡ株式会社,,株式会社,東京都,港区,麻布十番２丁目２０番７号,,13,103,1060045,,,,,,,2026-02-09,1,,,,,オクタ,0
779,4010403037246,新規,0,2026-02-09,2026-02-09,合同会社Ａｓｉａ　Ｃｏｎｎｅｃｔ,,合同会社,東京都,港区,六本木３丁目１６番１２号六本木ＫＳビル５Ｆ,,13,103,1060032,,,,,,,2026-02-09,1,,,,,アジアコネクト,0
783,4010601068704,新規,0,2026-02-09,2026-02-09,株式会社サンプロジェクト,,株式会社,東京都,墨田区,墨田１丁目１４番２０－６０８号,,13,107,1310031,,,,,,,2026-02-09,1,,,,,サンプロジェクト,0
784,4010601068712,新規,0,2026-02-09,2026-02-09,株式会社ＳＵＶＡＮＡ,,株式会社,東京都,江東区,有明３丁目７番２６号有明フロンティアビルＢ棟９階,,13,108,1350063,,,,,,,2026-02-09,1,,,,,スバナ,0
785,4010603012057,新規,0,2026-02-09,2026-02-09,合同会社ＫＭ,,合同会社,東京都,墨田区,江東橋２丁目６－６ＳＩＤＥＰＬＡＣＥＫＩＮＳＨＩＣＹＯ２０１,,13,107,1300022,,,,,,,2026-02-09,1,,,,,ケイエム,0
791,4010901058917,新規,0,2026-02-09,2026-02-09,株式会社ｍｉｎｓａｋ,,株式会社,東京都,世田谷区,中町５丁目９番１－１０７号,,13,112,1580091,,,,,,,2026-02-09,1,,,,,ミンサック,0
798,4011101114725,新規,0,2026-02-09,2026-02-09,Ｒ．ｖ株式会社,,株式会社,東京都,新宿区,西新宿１丁目２６番２号新宿野村ビル３２階,,13,104,1600023,,,,,,,2026-02-09,1,,,,,アールブイ,0
812,4012701019306,新規,0,2026-02-09,2026-02-09,株式会社Ａｒｘｉｄｕｃ　Ｃｉｔａｄｅｌ,,株式会社,東京都,西東京市,泉町４丁目４番６号,,13,229,2020011,,,,,,,2026-02-09,1,,,,,アーチドゥークシタデル,0
816,4020001167031,新規,0,2026-02-09,2026-02-09,ワールド電気株式会社,,株式会社,神奈川県,横浜市南区,六ツ川３丁目１２４番地１９,,14,105,2320066,,,,,,,2026-02-09,1,,,,,ワールドデンキ,0
822,4020003030352,新規,0,2026-02-09,2026-02-09,ＫＳマネジメント合同会社,,合同会社,神奈川県,横浜市神奈川区,栄町６番地１ヨコハマポートサイドロア弐番館２０３号,,14,102,2210052,,,,,,,2026-02-09,1,,,,,ケイエスマネジメント,0
823,4021001087426,新規,0,2026-02-09,2026-02-09,ｔａｋｏｓｈｉＬａｂｏ株式会社,,株式会社,神奈川県,平塚市,田村６丁目１０番１３号,,14,203,2540013,,,,,,,2026-02-09,1,,,,,タコシラボ,0
824,4021001087450,新規,0,2026-02-09,2026-02-09,株式会社Ｎａｍｉｏｔｏ,,株式会社,神奈川県,茅ヶ崎市,新栄町７－５ＣｈｉｇａｓａｋｉＢｉｚ－ｎａｚ３Ｆ,,14,207,2530044,,,,,,,2026-02-09,1,,,,,ナミオト,0
825,4021001087500,新規,0,2026-02-09,2026-02-09,株式会社ＳＨＩＮＹＵＵ相模原,,株式会社,神奈川県,大和市,深見西３丁目２番２７号,,14,213,2420018,,,,,,,2026-02-09,1,,,,,シンユウサガミハラ,0
827,4021003017100,新規,0,2026-02-09,2026-02-09,Ｌｏｔｕｓ　Ｃｙｃｌｅ　Ｊａｐａｎ合同会社,,合同会社,神奈川県,三浦郡葉山町,下山口９９０－１,,14,301,2400116,,,,,,,2026-02-09,1,,,,,ロータスサイクルジャパン,0
833,4030001170892,新規,0,2026-02-09,2026-02-09,株式会社グリーン企画,,株式会社,埼玉県,さいたま市岩槻区,東岩槻２丁目５番１５号,,11,110,3390005,,,,,,,2026-02-09,1,,,,,グリーンキカク,0
834,4030001170918,新規,0,2026-02-09,2026-02-09,ＳＯＤＥＡ株式会社,,株式会社,埼玉県,北本市,深井４丁目７２－１Ｂ,,11,233,3640001,,,,,,,2026-02-09,1,,,,,ソデア,0
845,4040001142412,新規,0,2026-02-09,2026-02-09,株式会社ＦｕｎＢｕｉｌｄホールディングス,,株式会社,千葉県,船橋市,前原西６丁目６番６２号,,12,204,2740825,,,,,,,2026-02-09,1,,,,,ファンビルドホールディングス,0
847,4040003029418,新規,0,2026-02-09,2026-02-09,合同会社ＣＬＡＳＡＭ,,合同会社,千葉県,千葉市花見川区,み春野２丁目１０番１８号,,12,102,2620007,,,,,,,2026-02-09,1,,,,,クラサム,0
848,4040003029426,新規,0,2026-02-09,2026-02-09,エノモト地所合同会社,,合同会社,千葉県,君津市,中野８５８番地,,12,225,2991151,,,,,,,2026-02-09,1,,,,,エノモトジショ,0
850,4050001057964,新規,0,2026-02-09,2026-02-09,株式会社ロコモーションワークス,,株式会社,茨城県,水戸市,酒門町４２８７番地の１,,08,201,3100841,,,,,,,2026-02-09,1,,,,,ロコモーションワークス,0
852,4050003009930,新規,0,2026-02-09,2026-02-09,ＳｏＣｘＤｅｓｉｇｎ合同会社,,合同会社,茨城県,水戸市,酒門町４５７０番地の５（ドリームボックス１０２号室）,,08,201,3100841,,,,,,,2026-02-09,1,,,,,ソックスデザイン,0
854,4070001043806,新規,0,2026-02-09,2026-02-09,株式会社群馬エステート,,株式会社,群馬県,高崎市,下里見町７５３番地１０,,10,202,3703343,,,,,,,2026-02-09,1,,,,,グンマエステート,0
857,4080101026073,新規,0,2026-02-09,2026-02-09,株式会社翠,,株式会社,静岡県,駿東郡小山町,棚頭８８６番地,,22,344,4101327,,,,,,,2026-02-09,1,,,,,ミドリ,0
875,4120001283768,新規,0,2026-02-09,2026-02-09,株式会社コトワレル,,株式会社,大阪府,大阪市西区,北堀江１丁目１番２４号四ツ橋近商ビル,,27,106,5500014,,,,,,,2026-02-09,1,,,,,コトワレル,0
876,4120001283909,新規,0,2026-02-09,2026-02-09,株式会社りゅうげん堂,,株式会社,大阪府,大阪市中央区,西心斎橋２丁目１８－１５－８０３,,27,128,5420086,,,,,,,2026-02-09,1,,,,,リュウゲンドウ,0
877,4120001283941,新規,0,2026-02-09,2026-02-09,株式会社ミグリー,,株式会社,大阪府,大阪市淀川区,西宮原１丁目８番２４号新大阪第３ドイビル６Ｆ,,27,123,5320004,,,,,,,2026-02-09,1,,,,,ミグリー,0
878,4120001283966,新規,0,2026-02-09,2026-02-09,株式会社ナニワコネクト,,株式会社,大阪府,大阪市北区,菅原町１１番１０号,,27,127,5300046,,,,,,,2026-02-09,1,,,,,ナニワコネクト,0
887,4120901052207,新規,0,2026-02-09,2026-02-09,株式会社ヒカリ,,株式会社,大阪府,豊中市,曽根東町１丁目６番６号,,27,203,5610802,,,,,,,2026-02-09,1,,,,,ヒカリ,0
898,4130003011143,新規,0,2026-02-09,2026-02-09,ｓｏｌｖｅ合同会社,,合同会社,京都府,京都市下京区,七条通油小路東入大黒町２２７番地第２キョートビル４０２,,26,106,6008223,,,,,,,2026-02-09,1,,,,,ソルブ,0
906,4140001141668,新規,0,2026-02-09,2026-02-09,ギャランツ株式会社,,株式会社,兵庫県,西宮市,大畑町１０番２２号２０１号,,28,204,6620836,,,,,,,2026-02-09,1,,,,,ギャランツ,0
907,4140001141676,新規,0,2026-02-09,2026-02-09,株式会社エスケープランニング,,株式会社,兵庫県,姫路市,川西１７７番地１２,,28,201,6712212,,,,,,,2026-02-09,1,,,,,エスケープランニング,0
909,4140003023179,新規,0,2026-02-09,2026-02-09,合同会社ＮＡＫＡ,,合同会社,兵庫県,神戸市中央区,栄町通３丁目１番１２号,,28,110,6500023,,,,,,,2026-02-09,1,,,,,ナカ,0
910,4140003023187,新規,0,2026-02-09,2026-02-09,Ｏ‐ＬＩＶＥ合同会社,,合同会社,兵庫県,宝塚市,中州１丁目１０番２０号,,28,214,6650021,,,,,,,2026-02-09,1,,,,,オーライブ,0
911,4140003023195,新規,0,2026-02-09,2026-02-09,Ｗｈｉｔｅ　Ｂｅａｃｈ合同会社,,合同会社,兵庫県,尼崎市,大庄中通３丁目２８番地の４,,28,202,6600075,,,,,,,2026-02-09,1,,,,,ホワイトビーチ,0
913,4150001028716,新規,0,2026-02-09,2026-02-09,株式会社山貴,,株式会社,奈良県,五條市,須恵３丁目２番２１号,,29,207,6370005,,,,,,,2026-02-09,1,,,,,ヤマキ,0
922,4180001170564,新規,0,2026-02-09,2026-02-09,株式会社シンコネクト,,株式会社,愛知県,名古屋市北区,清水２丁目４番１７号,,23,103,4620844,,,,,,,2026-02-09,1,,,,,シンコネクト,0
923,4180001170572,新規,0,2026-02-09,2026-02-09,株式会社ＩＭコーポレーション,,株式会社,愛知県,名古屋市中村区,名駅４丁目２４番５号第２森ビル４０１,,23,105,4500002,,,,,,,2026-02-09,1,,,,,アイエムコーポレーション,0
924,4180001170580,新規,0,2026-02-09,2026-02-09,株式会社シバタ,,株式会社,愛知県,一宮市,大和町南高井字五反田２２番地３,,23,203,4910925,,,,,,,2026-02-09,1,,,,,シバタ,0
926,4180003029692,新規,0,2026-02-09,2026-02-09,合同会社ＥＬＲＡＮ,,合同会社,愛知県,海部郡大治町,大字砂子字桜木５１３－３,,23,424,4901143,,,,,,,2026-02-09,1,,,,,エルラン,0
927,4180003029701,新規,0,2026-02-09,2026-02-09,合同会社ＬＥＢＥＬ　ＵＰ,,合同会社,愛知県,名古屋市千種区,振甫町３丁目３６－１アルバックス覚王山ブランシェ７１１号,,23,101,4640072,,,,,,,2026-02-09,1,,,,,レベルアップ,0
930,4180301040673,新規,0,2026-02-09,2026-02-09,ＯＲＩＧＩＮ　Ｈｏｌｄｉｎｇｓ株式会社,,株式会社,愛知県,安城市,小川町大帳４６番地２,,23,212,4441162,,,,,,,2026-02-09,1,,,,,オリジンホールディングス,0
936,4210001020492,新規,0,2026-02-09,2026-02-09,株式会社一進わかさ,,株式会社,福井県,小浜市,東市場第４３号５番地,,18,204,9170232,,,,,,,2026-02-09,1,,,,,イッシンワカサ,0
937,4220001027165,新規,0,2026-02-09,2026-02-09,マツダプラス株式会社,,株式会社,石川県,金沢市,浅野本町ニ１２０番地１,,17,201,9200841,,,,,,,2026-02-09,1,,,,,マツダプラス,0
939,4220003004220,新規,0,2026-02-09,2026-02-09,合同会社七浦未来工房,,合同会社,石川県,輪島市,門前町皆月ソの１５１番地,,17,204,9272271,,,,,,,2026-02-09,1,,,,,シツラミライコウボウ,0
941,4240001066120,新規,0,2026-02-09,2026-02-09,株式会社ＴＲ企画,,株式会社,広島県,三原市,久井町羽倉２８４４番地,,34,204,7221413,,,,,,,2026-02-09,1,,,,,ティーアールキカク,0
942,4240001066153,新規,0,2026-02-09,2026-02-09,みわ株式会社,,株式会社,広島県,呉市,西中央３丁目７‐３７‐２Ｆ,,34,202,7370811,,,,,,,2026-02-09,1,,,,,ミワミワ,0
947,4240003007592,新規,0,2026-02-09,2026-02-09,えんの環合同会社,,合同会社,広島県,広島市佐伯区,美鈴が丘西５丁目１４番９号,,34,108,7315114,,,,,,,2026-02-09,1,,,,,エンノワ,0
950,4260001040973,新規,0,2026-02-09,2026-02-09,株式会社かなえるリサイクル,,株式会社,岡山県,総社市,南溝手字新町東鼻３９２番地３,,33,208,7191113,,,,,,,2026-02-09,1,,,,,,0
951,4260001040981,新規,0,2026-02-09,2026-02-09,株式会社ＤＥＡＬ‐ＵＰ,,株式会社,岡山県,岡山市南区,泉田２丁目５番６号,,33,104,7000944,,,,,,,2026-02-09,1,,,,,ディールアップ,0
968,4290803005270,新規,0,2026-02-09,2026-02-09,合同会社ハイカラダイブ,,合同会社,福岡県,北九州市小倉北区,浅野１丁目１－１ビエラ小倉１Ｆ－ＤＩＳＣＯＶＥＲＹ－１７６号,,40,106,8020001,,,,,,,2026-02-09,1,,,,,ハイカラダイブ,0
974,4330003011429,新規,0,2026-02-09,2026-02-09,合同会社松下商店,,合同会社,熊本県,玉名市,六田７番地３メゾンドソレイユ玉名駅南Ｆ号,,43,206,8650058,,,,,,,2026-02-09,1,,,,,マツシタショウテン,0
978,4340003005058,新規,0,2026-02-09,2026-02-09,合同会社レインボーチャイルド,,合同会社,鹿児島県,奄美市,名瀬矢之脇町２０－３,,46,222,8940033,,,,,,,2026-02-09,1,,,,,レインボーチャイルド,0
984,4360001036350,新規,0,2026-02-09,2026-02-09,株式会社一隼,,株式会社,沖縄県,八重山郡竹富町,字上原１０番地の７２０,,47,381,9071541,,,,,,,2026-02-09,1,,,,,イチタカ,0
985,4360001036359,新規,0,2026-02-09,2026-02-09,株式会社イーラ沖縄,,株式会社,沖縄県,那覇市,安里２丁目８－７,,47,201,9020067,,,,,,,2026-02-09,1,,,,,イーラオキナワ,0
990,4360003015609,新規,0,2026-02-09,2026-02-09,Ｔｒａｃｃ　Ｆｒｅｅ合同会社,,合同会社,沖縄県,那覇市,若狭２丁目４－１０アクティ・プレイス２－Ｂ,,47,201,9000031,,,,,,,2026-02-09,1,,,,,トラックフリー,0
992,4370001053460,新規,0,2026-02-09,2026-02-09,Ｍ‐ＴＥＣ株式会社,,株式会社,宮城県,仙台市太白区,西中田４丁目１５番２０号メゾンフローラル３０３,,04,104,9811105,,,,,,,2026-02-09,1,,,,,エムテック,0
996,4390001018255,新規,0,2026-02-09,2026-02-09,株式会社さがえ畜産,,株式会社,山形県,東置賜郡川西町,大字堀金１８３５番地,,06,382,9990142,,,,,,,2026-02-09,1,,,,,サガエチクサン,0
1005,4430003018570,新規,0,2026-02-09,2026-02-09,合同会社ロムン,,合同会社,北海道,札幌市南区,澄川二条４丁目１０番２４号ブルーパレス２・４－４０２号,,01,106,0050002,,,,,,,2026-02-09,1,,,,,ロムン,0
1009,4480001013081,新規,0,2026-02-09,2026-02-09,株式会社紬,,株式会社,徳島県,鳴門市,大麻町桧字尾山谷４３番地５,,36,202,7790225,,,,,,,2026-02-09,1,,,,,ツムギ,0
1010,4490001011274,新規,0,2026-02-09,2026-02-09,四国情報管理センターホールディングス株式会社,,株式会社,高知県,高知市,一ツ橋町１丁目３６番地,,39,201,7800981,,,,,,,2026-02-09,1,,,,,シコクジョウホウカンリセンターホールディングス,0
1013,4500001026774,新規,0,2026-02-09,2026-02-09,株式会社ラ．サン,,株式会社,愛媛県,松山市,束本２丁目１２－８,,38,201,7900916,,,,,,,2026-02-09,1,,,,,ラサン,0
1014,4700150028972,新規,0,2026-02-09,2015-10-09,北播磨食品衛生協会,,その他,兵庫県,加東市,社字西柿１０７５－２（加東健康福祉事務所　食品薬務衛生課内）,,28,228,6731431,,,,,,,2015-10-09,1,,,,,キタハリマシヨクヒンエイセイキヨウカイ,0
1016,4700150134333,新規,0,2026-02-09,2026-02-09,Ｍ－ＲＩＣＨ　ＭＡＲＫＥＴＩＮＧ　ＰＲＩＶＡＴＥ　ＬＩＭＩＴＥＤ,,外国会社等,神奈川県,秦野市,鶴巻南２丁目４４－３０シティ１１－２０１,,14,211,2570002,スリランカ民主社会主義共和国、アヴィッサウェラ、ナパウェラ、ダイガラロード１５２番,,,,,,2026-02-09,1,,,,,エムリツチマーケテイングプライベートリミテツド,0
1039,5010001262427,新規,0,2026-02-09,2026-02-09,株式会社ピノン,,株式会社,東京都,千代田区,神田須田町１丁目７番８号ＶＯＲＴ秋葉原ＩＶ２Ｆ,00142504,13,101,1010041,,,,,,,2026-02-09,1,,,,,ピノン,0
1040,5010001262534,新規,0,2026-02-09,2026-02-09,株式会社ビヨンドコーパス,,株式会社,東京都,千代田区,五番町４番地４,,13,101,1020076,,,,,,,2026-02-09,1,,,,,ビヨンドコーパス,0
1043,5010003050219,新規,0,2026-02-09,2026-02-09,合同会社ｌｉｎｅａ,,合同会社,東京都,中央区,銀座１丁目２２番１１号銀座大竹ビジデンス２Ｆ,,13,102,1040061,,,,,,,2026-02-09,1,,,,,リネア,0
1044,5010003050301,新規,0,2026-02-09,2026-02-09,米沢蓄電所合同会社,,合同会社,東京都,千代田区,丸の内１丁目４番１号東京共同会計事務所内,,13,101,1000005,,,,,,,2026-02-09,1,,,,,ヨネザワチクデンショ,0
1045,5010003050326,新規,0,2026-02-09,2026-02-09,ＳＯＷＺＯＵ合同会社,,合同会社,東京都,中央区,佃２丁目９番５－７０３号,,13,102,1040051,,,,,,,2026-02-09,1,,,,,ソウゾウ,0
1046,5010003050334,新規,0,2026-02-09,2026-02-09,合同会社ＴＫＧ,,合同会社,東京都,千代田区,丸の内１丁目４番１号東京共同会計事務所内,,13,101,1000005,,,,,,,2026-02-09,1,,,,,ティーケージー,0
1048,5010103002755,新規,0,2026-02-09,2026-02-09,等高線５９９合同会社,,合同会社,東京都,八王子市,三崎町４－１１トーネンビル５Ｆ,,13,201,1920084,,,,,,,2026-02-09,1,,,,,トウコウセンファイブナインナイン,0
1053,5010403037253,新規,0,2026-02-09,2026-02-09,麻布東町商事合同会社,,合同会社,東京都,港区,南麻布１丁目５番１４－４０８号,,13,103,1060047,,,,,,,2026-02-09,1,,,,,アザブヒガシマチショウジ,0
1054,5010405025256,新規,0,2026-02-09,2026-02-09,一般社団法人ヒトに関する研究機構,,その他の設立登記法人,東京都,港区,南麻布４丁目５番４８号４Ｆ,,13,103,1060047,,,,,,,2026-02-09,1,,,,,ヒトニカンスルケンキュウキコウ,0
1057,5010601068678,新規,0,2026-02-09,2026-02-09,株式会社ロード,,株式会社,東京都,江東区,白河２丁目１６番２号,,13,108,1350021,,,,,,,2026-02-09,1,,,,,ロード,0
1058,5010601068703,新規,0,2026-02-09,2026-02-09,株式会社つきまる,,株式会社,東京都,江東区,有明１丁目６－３０有明ミッドクロス５０４,,13,108,1350063,,,,,,,2026-02-09,1,,,,,ツキマル,0
1066,5010901014068,新規,0,2026-02-09,2026-02-09,高正金属株式会社,,株式会社,東京都,世田谷区,赤堤２丁目２７番１６号,,13,112,1560044,,,,,,,2026-02-09,1,,,,,タカマサキンゾク,0
1082,5011701029157,新規,0,2026-02-09,2026-02-09,株式会社グリベジスパイシー,,株式会社,東京都,江戸川区,船堀３丁目７番１３号,,13,123,1340091,,,,,,,2026-02-09,1,,,,,グリベジスパイシー,0
1090,5012801024519,新規,0,2026-02-09,2026-02-09,株式会社ＢＡＱＵＹＡ　ＰＲＯＤＵＣＴＩＯＮ,,株式会社,東京都,立川市,錦町１丁目４番４号サニービル２Ｆ・ＣＳ－２５９,,13,202,1900022,,,,,,,2026-02-09,1,,,,,バクヤプロダクション,0
1093,5013301055715,新規,0,2026-02-09,2026-02-09,株式会社ＮＥＷ　ＥＤＩＴＩＯＮ,,株式会社,東京都,豊島区,南池袋１丁目１６－４ＮＫビル２０１,,13,116,1710022,,,,,,,2026-02-09,1,,,,,ニューエディション,0
1098,5020001167030,新規,0,2026-02-09,2026-02-09,株式会社ＫＯｍＡ,,株式会社,神奈川県,横浜市南区,清水ケ丘１５７番地５４,,14,105,2320007,,,,,,,2026-02-09,1,,,,,コマ,0
1099,5020001167047,新規,0,2026-02-09,2026-02-09,株式会社ＡＹＭＳ,,株式会社,神奈川県,川崎市宮前区,宮前平２丁目１５番地４２,,14,136,2160006,,,,,,,2026-02-09,1,,,,,エイムス,0
1100,5021001087425,新規,0,2026-02-09,2026-02-09,株式会社ｄｏｈ．,,株式会社,神奈川県,鎌倉市,山ノ内１２５５番地１,,14,204,2470062,,,,,,,2026-02-09,1,,,,,ドウ,0
1101,5021001087466,新規,0,2026-02-09,2026-02-09,ＩＣＶ　ｎｅｘｔ　ｉｎｎｏｖａｔｉｏｎ株式会社,,株式会社,神奈川県,三浦市,南下浦町上宮田３４９４番地８号,,14,210,2380101,,,,,,,2026-02-09,1,,,,,アイシーブイネクストイノベーション,0
1102,5021002008207,新規,0,2026-02-09,2026-02-09,有限会社オートペッカー,,有限会社,神奈川県,藤沢市,亀井野３２６４－６,,14,205,2520813,,,,,,,2026-02-09,1,,,,,,0
1105,5030001170859,新規,0,2026-02-09,2026-02-09,株式会社彩叶,,株式会社,埼玉県,春日部市,粕壁東１丁目２０番３０号コープかすかべテラス２階,,11,214,3440062,,,,,,,2026-02-09,1,,,,,アヤト,0
1106,5030001170891,新規,0,2026-02-09,2026-02-09,株式会社スダアセットマネージメント,,株式会社,埼玉県,さいたま市中央区,上落合６丁目４番１９号,,11,105,3380001,,,,,,,2026-02-09,1,,,,,スダアセットマネージメント,0
1107,5030001170909,新規,0,2026-02-09,2026-02-09,株式会社梅丸,,株式会社,埼玉県,川口市,差間１丁目１７番４３号,,11,203,3330816,,,,,,,2026-02-09,1,,,,,ウメマル,0
1111,5040001142403,新規,0,2026-02-09,2026-02-09,株式会社Ｂｒｉｄｇｅ,,株式会社,千葉県,四街道市,鷹の台２丁目１５番３号,,12,228,2840033,,,,,,,2026-02-09,1,,,,,ブリッジ,0
1115,5040003029400,新規,0,2026-02-09,2026-02-09,合同会社ＦＩＲＳＴ　ＳＴＥＰ,,合同会社,千葉県,柏市,旭町４丁目１１番３１号,,12,217,2770852,,,,,,,2026-02-09,1,,,,,ファーストステップ,0
1130,5080001027419,新規,0,2026-02-09,2026-02-09,株式会社ＥＲＦＯＬＧ　ＷＯＲＫＳ,,株式会社,静岡県,静岡市駿河区,中島３５番地,,22,102,4228046,,,,,,,2026-02-09,1,,,,,エアフォルクワークス,0
1133,5080101026064,新規,0,2026-02-09,2026-02-09,株式会社ＨＩＫＡＲＩベンディング,,株式会社,静岡県,伊東市,玖須美元和田７２７番地の５８３,,22,208,4140045,,,,,,,2026-02-09,1,,,,,ヒカリベンディング,0
1136,5090001019712,新規,0,2026-02-09,2026-02-09,大泉産業株式会社,,株式会社,山梨県,北杜市,大泉町西井出７６０番地,,19,209,4091501,,,,,,,2026-02-09,1,,,,,オオイズミサンギョウ,0
1157,5120001283924,新規,0,2026-02-09,2026-02-09,ＨＹＫキャピタルパートナーズ株式会社,,株式会社,大阪府,大阪市住吉区,帝塚山西２丁目５番１４号,,27,120,5580052,,,,,,,2026-02-09,1,,,,,エイチワイケイキャピタルパートナーズ,0
1158,5120001283965,新規,0,2026-02-09,2026-02-09,株式会社ＮＪＳ,,株式会社,大阪府,大阪市北区,菅原町１１番１０号,,27,127,5300046,,,,,,,2026-02-09,1,,,,,エヌジェイエス,0
1164,5120005025406,新規,0,2026-02-09,2026-02-09,医療法人愛信望会,,その他の設立登記法人,大阪府,大阪市北区,本庄西１丁目１３番１５号ナオミビル,,27,127,5310073,,,,,,,2026-02-09,1,,,,,アイシンボウカイ,0
1174,5140001141659,新規,0,2026-02-09,2026-02-09,株式会社京阪神設備不動産,,株式会社,兵庫県,神戸市長田区,西丸山町２丁目５番２１号１０２号室,,28,106,6530874,,,,,,,2026-02-09,1,,,,,ケイハンシンセツビフドウサン,0
1175,5140001141691,新規,0,2026-02-09,2026-02-09,株式会社ｆｌｏｕ,,株式会社,兵庫県,明石市,中朝霧丘４－１８,,28,203,6730855,,,,,,,2026-02-09,1,,,,,フルー,0
1176,5140001141709,新規,0,2026-02-09,2026-02-09,株式会社Ｍ．Ｏ．Ａ．,,株式会社,兵庫県,尼崎市,塚口町１丁目１番地の３－３０１,,28,202,6610002,,,,,,,2026-02-09,1,,,,,エムオーエー,0
1206,5210001020491,新規,0,2026-02-09,2026-02-09,Ｎ‐ＢＡＳＥ　ＡＧＲＩ株式会社,,株式会社,福井県,南条郡南越前町,八飯第４０号２１番地の１,,18,404,9190124,,,,,,,2026-02-09,1,,,,,エヌベースアグリ,0
1208,5220001027164,新規,0,2026-02-09,2026-02-09,株式会社ヨバレ,,株式会社,石川県,輪島市,門前町大釜８の３６番地,,17,204,9272341,,,,,,,2026-02-09,1,,,,,ヨバレ,0
1210,5230001021281,新規,0,2026-02-09,2026-02-09,株式会社そしじ,,株式会社,富山県,富山市,小杉１０４－４シェルブランシェ２０１号室,,16,201,9398063,,,,,,,2026-02-09,1,,,,,ソシジ,0
1215,5240003007583,新規,0,2026-02-09,2026-02-09,合同会社Ａ・Ｋ屋,,合同会社,広島県,三原市,沼田東町末広３１５番地３６６,,34,204,7230144,,,,,,,2026-02-09,1,,,,,エーケーヤ,0
1216,5240003007591,新規,0,2026-02-09,2026-02-09,合同会社小市,,合同会社,広島県,東広島市,西条土与丸５丁目５番１５号,,34,212,7390007,,,,,,,2026-02-09,1,,,,,コイチ,0
1222,5260001040980,新規,0,2026-02-09,2026-02-09,株式会社街の便利屋和,,株式会社,岡山県,倉敷市,児島下の町４丁目２２番１号,,33,202,7110906,,,,,,,2026-02-09,1,,,,,マチノベンリヤナゴミ,0
1223,5260005011573,新規,0,2026-02-09,2026-02-09,一般社団法人ＩＢＯ,,その他の設立登記法人,岡山県,赤磐市,上市１６９番地,,33,213,7090817,,,,,,,2026-02-09,1,,,,,アイビーオー,0
1226,5280005007685,新規,0,2026-02-09,2026-02-09,司法書士法人兎,,その他の設立登記法人,島根県,松江市,西津田３丁目５番２６‐２０２号,,32,201,6900017,,,,,,,2026-02-09,1,,,,,ウサギ,0
1241,5360001036366,新規,0,2026-02-09,2026-02-09,株式会社ひみつらんど,,株式会社,沖縄県,宜野湾市,大山４丁目１番１号,,47,205,9012223,,,,,,,2026-02-09,1,,,,,ヒミツランド,0
1249,5380001035861,新規,0,2026-02-09,2026-02-09,株式会社エスプラ,,株式会社,福島県,郡山市,喜久田町堀之内字畑田１番地の３カーサルーチェ１０２,,07,203,9630541,,,,,,,2026-02-09,1,,,,,,0
1251,5390001018254,新規,0,2026-02-09,2026-02-09,株式会社さくらコンタクト,,株式会社,山形県,米沢市,城北１丁目２番１３号,,06,202,9920051,,,,,,,2026-02-09,1,,,,,サクラコンタクト,0
1257,5400001017312,新規,0,2026-02-09,2026-02-09,株式会社タカラ商事,,株式会社,岩手県,久慈市,宇部町第７地割９９番地１,,03,207,0288111,,,,,,,2026-02-09,1,,,,,タカラショウジ,0
1263,5430001096188,新規,0,2026-02-09,2026-02-09,株式会社下関,,株式会社,北海道,虻田郡倶知安町,北七条東７丁目１番地３６,,01,400,0440007,,,,,,,2026-02-09,1,,,,,シモノセキ,0
1264,5430001096213,新規,0,2026-02-09,2026-02-09,株式会社グローデイワークス,,株式会社,北海道,札幌市白石区,南郷通１２丁目北１番１５号,,01,104,0030023,,,,,,,2026-02-09,1,,,,,グローデイワークス,0
1274,5500001026773,新規,0,2026-02-09,2026-02-09,株式会社小笠原梅子,,株式会社,愛媛県,松山市,東石井５丁目１３－１１富士見ビル２０２,,38,201,7900932,,,,,,,2026-02-09,1,,,,,オガサワラウメコ,0
1279,6010001262632,新規,0,2026-02-09,2026-02-09,株式会社ＹＵＺＵＲＩＨＡ　Ｒｅｃｏｒｄｓ,,株式会社,東京都,中央区,銀座１丁目１２番４号Ｎ＆Ｅ・ＢＬＤ．６Ｆ,,13,102,1040061,,,,,,,2026-02-09,1,,,,,ユズリハレコーズ,0
1294,6010401195762,新規,0,2026-02-09,2026-02-09,株式会社ＦＵＷＡ,,株式会社,東京都,港区,北青山１丁目３－３三橋ビル３階,,13,103,1070061,,,,,,,2026-02-09,1,,,,,フウワ,0
1295,6010401196430,新規,0,2026-02-09,2026-02-09,株式会社ＤＯＧＥＣＩＴＹジャパン,,株式会社,東京都,港区,台場１丁目５番１号,,13,103,1350091,,,,,,,2026-02-09,1,,,,,ドージシティジャパン,0
1296,6010401196447,新規,0,2026-02-09,2026-02-09,竹芝準備７号株式会社,,株式会社,東京都,港区,海岸１丁目７番１号,,13,103,1050022,,,,,,,2026-02-09,1,,,,,タケシバジュンビナナゴウ,0
1301,6010501055429,新規,0,2026-02-09,2026-02-09,株式会社ＫＯＳＥＲＵ,,株式会社,東京都,台東区,上野１丁目１７番６号広小路ビル８Ｆ－Ｂ,,13,106,1100005,,,,,,,2026-02-09,1,,,,,コセル,0
1304,6010601068693,新規,0,2026-02-09,2026-02-09,Ｆｕｋｕｏ＆Ａｓｓｏｃｉａｔｅｓ株式会社,,株式会社,東京都,墨田区,太平４丁目１－１,,13,107,1300012,,,,,,,2026-02-09,1,,,,,フクオアンドアソシエーツ,0
1306,6010805003240,新規,0,2026-02-09,2026-02-09,特定非営利活動法人ふるーつらんど,,その他の設立登記法人,東京都,大田区,蒲田４丁目４２番１号ＫＦ蒲田第１ビル４階,,13,111,1440052,,,,,,,2026-02-09,1,,,,,フルーツランド,0
1307,6010901058907,新規,0,2026-02-09,2026-02-09,株式会社アグリエ,,株式会社,東京都,世田谷区,瀬田３丁目１番２１号,,13,112,1580095,,,,,,,2026-02-09,1,,,,,アグリエ,0
1310,6010903010618,新規,0,2026-02-09,2026-02-09,合同会社ＢＩコーポレーション,,合同会社,東京都,世田谷区,駒沢２丁目２７番３号,,13,112,1540012,,,,,,,2026-02-09,1,,,,,ビーアイコーポレーション,0
1312,6011001175353,新規,0,2026-02-09,2026-02-09,株式会社ＣＡＳＡＮＥ,,株式会社,東京都,渋谷区,道玄坂１丁目１０番８号渋谷道玄坂東急ビル２Ｆ－Ｃ,,13,113,1500043,,,,,,,2026-02-09,1,,,,,カサネ,0
1313,6011001175460,新規,0,2026-02-09,2026-02-09,ボヌールギルド株式会社,,株式会社,東京都,渋谷区,神南１丁目１１‐４ＦＰＧリンクス神南５階,,13,113,1500041,,,,,,,2026-02-09,1,,,,,ボヌールギルド,0
1319,6011101114649,新規,0,2026-02-09,2026-02-09,株式会社ＨＳＢＲＩＤＧＥ,,株式会社,東京都,新宿区,百人町２丁目８－１０サンコウハイム３０２,,13,104,1690073,,,,,,,2026-02-09,1,,,,,エイチエスブリッジ,0
1324,6011701029164,新規,0,2026-02-09,2026-02-09,株式会社エコネクスト,,株式会社,東京都,江戸川区,東葛西１丁目３９番１５号,,13,123,1340084,,,,,,,2026-02-09,1,,,,,エコネクスト,0
1342,6020001166972,新規,0,2026-02-09,2026-02-09,ＮＴサポート株式会社,,株式会社,神奈川県,横浜市西区,浅間町４丁目３４０番地９ベルジェンド横濱７０１,,14,103,2200072,,,,,,,2026-02-09,1,,,,,エヌティーサポート,0
1344,6020003030318,新規,0,2026-02-09,2026-02-09,合同会社石井映像,,合同会社,神奈川県,横浜市鶴見区,江ケ崎町３番４３－９０１号,,14,101,2300002,,,,,,,2026-02-09,1,,,,,イシイエイゾウ,0
1347,6021001087457,新規,0,2026-02-09,2026-02-09,株式会社ケイワークコーポレーション,,株式会社,神奈川県,相模原市南区,下溝１９９４番地９,,14,153,2520335,,,,,,,2026-02-09,1,,,,,ケイワークコーポレーション,0
1348,6021001087465,新規,0,2026-02-09,2026-02-09,株式会社Ｉｃｏｎ　Ｇｌｏｂａｌ　Ｇａｔｅ,,株式会社,神奈川県,平塚市,中堂１３番２１号相湘第７ビル４０２,,14,203,2540026,,,,,,,2026-02-09,1,,,,,アイコングローバルゲート,0
1349,6021003017098,新規,0,2026-02-09,2026-02-09,ＮＳＺ合同会社,,合同会社,神奈川県,大和市,中央林間６丁目２番１号ヴェルデ中央林間１０２号,,14,213,2420007,,,,,,,2026-02-09,1,,,,,エヌエスゼット,0
1350,6021003017123,新規,0,2026-02-09,2026-02-09,ＳＹＭ　ＰＬＡＮＮＩＮＧ合同会社,,合同会社,神奈川県,茅ヶ崎市,浜竹４丁目９―１３,,14,207,2530021,,,,,,,2026-02-09,1,,,,,シムプランニング,0
1358,6030001170858,新規,0,2026-02-09,2026-02-09,株式会社Ｅ‐Ｆｉｅｌｄ,,株式会社,埼玉県,さいたま市南区,別所７丁目２１番１号プラウドタワー武蔵浦和マークス１０８,,11,108,3360021,,,,,,,2026-02-09,1,,,,,イーフィールド,0
1359,6030001170899,新規,0,2026-02-09,2026-02-09,株式会社Ｎｅｘｔ,,株式会社,埼玉県,ふじみ野市,うれし野１丁目１１番８号,,11,245,3560056,,,,,,,2026-02-09,1,,,,,ネクスト,0
1360,6030001170924,新規,0,2026-02-09,2026-02-09,東昇株式会社,,株式会社,埼玉県,比企郡吉見町,大字長谷１１８１番地４,,11,347,3550156,,,,,,,2026-02-09,1,,,,,トウショウ,0
1366,6030003028609,新規,0,2026-02-09,2026-02-09,合同会社シズクホーム,,合同会社,埼玉県,富士見市,水谷東３丁目２１番１７号,,11,235,3540013,,,,,,,2026-02-09,1,,,,,シズクホーム,0
1373,6040001142344,新規,0,2026-02-09,2026-02-09,株式会社Ｌｉｎｋｓ,,株式会社,千葉県,八千代市,島田台１３０２－７,,12,221,2760004,,,,,,,2026-02-09,1,,,,,リンクス,0
1374,6040001142393,新規,0,2026-02-09,2026-02-09,株式会社針貝設備,,株式会社,千葉県,成田市,並木町２２１番地７７,,12,211,2860045,,,,,,,2026-02-09,1,,,,,ハリガイセツビ,0
1375,6040001142419,新規,0,2026-02-09,2026-02-09,株式会社ライツスフィア,,株式会社,千葉県,習志野市,香澄３丁目９番１０号,,12,216,2750022,,,,,,,2026-02-09,1,,,,,ライツスフィア,0
1380,6040003029408,新規,0,2026-02-09,2026-02-09,リバーウェーブ合同会社,,合同会社,千葉県,習志野市,鷺沼４丁目３番１２号,,12,216,2750014,,,,,,,2026-02-09,1,,,,,リバーウェーブ,0
1391,6070001043804,新規,0,2026-02-09,2026-02-09,株式会社富嘉,,株式会社,群馬県,前橋市,石倉町２丁目７番地８,,10,201,3710841,,,,,,,2026-02-09,1,,,,,トミヨシ,0
1395,6080401028429,新規,0,2026-02-09,2026-02-09,株式会社はてしない,,株式会社,静岡県,御前崎市,池新田１８３６番地の２,,22,223,4371612,,,,,,,2026-02-09,1,,,,,ハテシナイ,0
1417,6120001283799,新規,0,2026-02-09,2026-02-09,株式会社ＹＯＨＡＫＵ,,株式会社,大阪府,大阪市中央区,久太郎町３丁目１番６号伊藤佑ビル大阪本町８Ｆ,,27,128,5410056,,,,,,,2026-02-09,1,,,,,ヨハク,0
1418,6120001283964,新規,0,2026-02-09,2026-02-09,株式会社オーキッド,,株式会社,大阪府,大阪市北区,菅原町１１番１０号,,27,127,5300046,,,,,,,2026-02-09,1,,,,,オーキッド,0
1419,6120001283980,新規,0,2026-02-09,2026-02-09,株式会社Ｃａｔ’ｓ　Ｃｏｒｎｅｒ,,株式会社,大阪府,大阪市北区,神山町１４番５号,,27,127,5300026,,,,,,,2026-02-09,1,,,,,キャッツコーナー,0
1422,6120003031909,新規,0,2026-02-09,2026-02-09,合同会社ＭＯＲＮＩＳＴＡＲ,,合同会社,大阪府,大阪市北区,梅田１丁目１番３号大阪駅前第３ビル１１階２号室,,27,127,5300001,,,,,,,2026-02-09,1,,,,,モニスタ,0
1425,6120901052171,新規,0,2026-02-09,2026-02-09,株式会社Ｇハウスエステート,,株式会社,大阪府,豊中市,服部本町１丁目２番８号,,27,203,5610852,,,,,,,2026-02-09,1,,,,,ジーハウスエステート,0
1426,6120901052188,新規,0,2026-02-09,2026-02-09,アストレイル株式会社,,株式会社,大阪府,吹田市,円山町５３番４５号,,27,205,5640061,,,,,,,2026-02-09,1,,,,,アストレイル,0
1427,6120901052196,新規,0,2026-02-09,2026-02-09,株式会社ＰＵＲＵ,,株式会社,大阪府,吹田市,南正雀４丁目１３番９号,,27,205,5640012,,,,,,,2026-02-09,1,,,,,プル,0
1428,6120901052221,新規,0,2026-02-09,2026-02-09,株式会社ＴｈｉｒＴｙ,,株式会社,大阪府,吹田市,円山町３９―２５,,27,205,5640061,,,,,,,2026-02-09,1,,,,,サーティー,0
1429,6122001040164,新規,0,2026-02-09,2026-02-09,ミナミホールディングス株式会社,,株式会社,大阪府,東大阪市,長堂１丁目３番１４号,,27,227,5770056,,,,,,,2026-02-09,1,,,,,ミナミホールディングス,0
1439,6140001141617,新規,0,2026-02-09,2026-02-09,ＮａｎｏＲｅｓｏｎａｎｃｅ株式会社,,株式会社,兵庫県,神戸市灘区,六甲台町１－１,,28,102,6570013,,,,,,,2026-02-09,1,,,,,ナノレゾナンス,0
1440,6140001141682,新規,0,2026-02-09,2026-02-09,株式会社さくら猫,,株式会社,兵庫県,尼崎市,常吉１丁目２２番１０号,,28,202,6610042,,,,,,,2026-02-09,1,,,,,サクラネコ,0
1444,6140003023136,新規,0,2026-02-09,2026-02-09,合同会社ｉｎａｈｏ,,合同会社,兵庫県,淡路市,中田１９８－１０,,28,226,6562163,,,,,,,2026-02-09,1,,,,,イナホ,0
1445,6140003023185,新規,0,2026-02-09,2026-02-09,合同会社ＲＥＢＯＲＮ,,合同会社,兵庫県,宍粟市,山崎町高下１１９０番地５,,28,227,6712565,,,,,,,2026-02-09,1,,,,,,0
1446,6140005027795,新規,0,2026-02-09,2026-02-09,一般社団法人ｔｏｂｅｌｌ,,その他の設立登記法人,兵庫県,神戸市北区,唐櫃台１丁目３４番６号１１号棟１０１,,28,109,6511332,,,,,,,2026-02-09,1,,,,,トベル,0
1458,6180001170579,新規,0,2026-02-09,2026-02-09,株式会社アライブ,,株式会社,愛知県,海部郡大治町,大字鎌須賀字川畔１２８番地の３,,23,424,4901135,,,,,,,2026-02-09,1,,,,,アライブ,0
1462,6180003029749,新規,0,2026-02-09,2026-02-09,合同会社明鳳,,合同会社,愛知県,知多郡東浦町,大字緒川字唐治屋敷１３－１,,23,442,4702102,,,,,,,2026-02-09,1,,,,,メイホウ,0
1463,6180005021415,新規,0,2026-02-09,2026-02-09,一般社団法人もぐりひと,,その他の設立登記法人,愛知県,名古屋市名東区,牧の原３丁目１２０３番地２,,23,115,4650072,,,,,,,2026-02-09,1,,,,,モグリヒト,0
1470,6190003005352,新規,0,2026-02-09,2026-02-09,合同会社Ａｌｉｇｈｔ　Ｈｕｂ,,合同会社,三重県,津市,阿漕町津興２４６４番地,,24,201,5140811,,,,,,,2026-02-09,1,,,,,アライトハブ,0
1471,6200001044689,新規,0,2026-02-09,2026-02-09,ｉｍｐｅｒｉａｌ　ｐｅｒｌ株式会社,,株式会社,岐阜県,高山市,清見町牧ケ洞１３８３番地１,,21,203,5060101,,,,,,,2026-02-09,1,,,,,インペリアルパール,0
1472,6200001044697,新規,0,2026-02-09,2026-02-09,清流エナジー株式会社,,株式会社,岐阜県,下呂市,萩原町萩原１５００番地,,21,220,5092517,,,,,,,2026-02-09,1,,,,,セイリュウエナジー,0
1497,6290001113139,新規,0,2026-02-09,2026-02-09,株式会社ｃａｎｍｉｎ,,株式会社,福岡県,福岡市中央区,天神４丁目１番１８号サンビル４０３号,,40,133,8100001,,,,,,,2026-02-09,1,,,,,カンミン,0
1507,6290801032240,新規,0,2026-02-09,2026-02-09,株式会社キャピタルツリー,,株式会社,福岡県,北九州市小倉北区,京町３丁目７番１－１３０８号,,40,106,8020002,,,,,,,2026-02-09,1,,,,,キャピタルツリー,0
1514,6310001019952,新規,0,2026-02-09,2026-02-09,株式会社ＴＯＰ　ＰＲＯＧＲＥＳＳ,,株式会社,長崎県,諫早市,高来町峰５６番地３,,42,204,8590117,,,,,,,2026-02-09,1,,,,,トッププログレス,0
1523,6360001036357,新規,0,2026-02-09,2026-02-09,株式会社ぼぶりグループ,,株式会社,沖縄県,宮古島市,平良字久貝７２１番地７・１階,,47,214,9060015,,,,,,,2026-02-09,1,,,,,ボブリグループ,0
1528,6390001018253,新規,0,2026-02-09,2026-02-09,ＭｅｔａＰＲＯホールディングス株式会社,,株式会社,山形県,最上郡真室川町,大字平岡４３２,,06,364,9995311,,,,,,,2026-02-09,1,,,,,メタプロホールディングス,0
1532,6420003003241,新規,0,2026-02-09,2026-02-09,合同会社カワサキ,,合同会社,青森県,三戸郡五戸町,大字切谷内字元年沢１７４番地２,,02,442,0391502,,,,,,,2026-02-09,1,,,,,カワサキ,0
1536,6430001096212,新規,0,2026-02-09,2026-02-09,株式会社Ｑｕａｄｒｉｉｉｉｇａ,,株式会社,北海道,札幌市西区,発寒十五条１丁目２番３３－２号,,01,107,0630835,,,,,,,2026-02-09,1,,,,,クアドリーガ,0
1542,6462501001061,新規,0,2026-02-09,2026-02-09,株式会社龍神漁業,,株式会社,北海道,目梨郡羅臼町,船見町５８番地３,,01,694,0861832,,,,,,,2026-02-09,1,,,,,リュウジンギョギョウ,0
1544,6470001021091,新規,0,2026-02-09,2026-02-09,株式会社ＰＡＷ　ＴＡＢＬＥ,,株式会社,香川県,高松市,浜ノ町４９番２０号,,37,201,7600011,,,,,,,2026-02-09,1,,,,,パウテーブル,0
1546,6500001026772,新規,0,2026-02-09,2026-02-09,オオトリ管工株式会社,,株式会社,愛媛県,松山市,竹原３丁目１７番２５号ラブリハイツ松山１０５号,,38,201,7900053,,,,,,,2026-02-09,1,,,,,オオトリカンコウ,0
1556,7010001262598,新規,0,2026-02-09,2026-02-09,株式会社ユービックスプロ,,株式会社,東京都,中央区,日本橋中洲５番８号リバーシティ日本橋１０１,,13,102,1030008,,,,,,,2026-02-09,1,,,,,ユービックスプロ,0
1557,7010001262771,新規,0,2026-02-09,2026-02-09,株式会社タイヨーサプライ,,株式会社,東京都,千代田区,神田和泉町１番地６－１６ヤマトビル４０５,,13,101,1010024,,,,,,,2026-02-09,1,,,,,タイヨーサプライ,0
1565,7010403037276,新規,0,2026-02-09,2026-02-09,合同会社ＮＡＩＬＩＱＵＥ,,合同会社,東京都,港区,南青山３丁目１番３６号青山丸竹ビル６Ｆ,,13,103,1070062,,,,,,,2026-02-09,1,,,,,ネイリーク,0
1568,7010601068701,新規,0,2026-02-09,2026-02-09,株式会社アクトブーン,,株式会社,東京都,墨田区,菊川３丁目７－１菊川会館ビル２Ｆ,,13,107,1300024,,,,,,,2026-02-09,1,,,,,アクトブーン,0
1598,7011701029155,新規,0,2026-02-09,2026-02-09,農研ネイチャー・ポニックス株式会社,,株式会社,東京都,江戸川区,東葛西５丁目１２番６号カワマンビル３０３,,13,123,1340084,,,,,,,2026-02-09,1,,,,,ノウケンネイチャーポニックス,0
1603,7012301014712,新規,0,2026-02-09,2026-02-09,株式会社Ｌｕｍｉｎｏｕｓ　Ｌｉｆｅ　Ｃｒｅａｔｉｏｎ,,株式会社,東京都,町田市,本町田１７６９番地１８,,13,209,1940032,,,,,,,2026-02-09,1,,,,,ルミナスライフクリエーション,0
1608,7012701019311,新規,0,2026-02-09,2026-02-09,ＫＴ　Ｅｏｒｉｋａ　Ｐａｒｔｎｅｒｓ株式会社,,株式会社,東京都,東村山市,萩山町３丁目２８番地１・１０１４,,13,213,1890012,,,,,,,2026-02-09,1,,,,,ケイティエオリカパートナーズ,0
1613,7013301055606,新規,0,2026-02-09,2026-02-09,天耀マネジメント株式会社,,株式会社,東京都,豊島区,西池袋５丁目５－２１ザ・タワーグランディア２８０７室,,13,116,1710021,,,,,,,2026-02-09,1,,,,,テンヨウマネジメント,0
1614,7013303008033,新規,0,2026-02-09,2026-02-09,合同会社ＲＵＮＥ,,合同会社,東京都,豊島区,東池袋２丁目６２番８号ＢＩＧオフィスプラザ池袋１２０６,,13,116,1700013,,,,,,,2026-02-09,1,,,,,ルーン,0
1618,7020001167061,新規,0,2026-02-09,2026-02-09,株式会社パトラ,,株式会社,神奈川県,横浜市西区,浅間町１丁目４番３号ウィザードビル４０２,,14,103,2200072,,,,,,,2026-02-09,1,,,,,パトラ,0
1619,7020001167086,新規,0,2026-02-09,2026-02-09,株式会社ピントコア,,株式会社,神奈川県,横浜市西区,北幸２丁目１０番４８号　むつみビル３階,,14,103,2200004,,,,,,,2026-02-09,1,,,,,ピントコア,0
1626,7020003030317,新規,0,2026-02-09,2026-02-09,合同会社ｓｏｕｒｉｒｅ,,合同会社,神奈川県,横浜市神奈川区,栗田谷２９番６２号,,14,102,2210804,,,,,,,2026-02-09,1,,,,,スゥリール,0
1627,7021001087423,新規,0,2026-02-09,2026-02-09,日翔株式会社,,株式会社,神奈川県,横須賀市,追浜東町２丁目３３－６ルネ追浜ＩＩ－１１２,00142507,14,201,2370063,,,,,,,2026-02-09,1,,,,,ニッショウ,0
1628,7021001087431,新規,0,2026-02-09,2026-02-09,株式会社フラットリンク,,株式会社,神奈川県,大和市,上和田１１６４番地１６,,14,213,2420014,,,,,,,2026-02-09,1,,,,,フラットリンク,0
1629,7021001087464,新規,0,2026-02-09,2026-02-09,株式会社アーバンキャピタルデザイン,,株式会社,神奈川県,平塚市,龍城ケ丘８－３２－１,,14,203,2540814,,,,,,,2026-02-09,1,,,,,アーバンキャピタルデザイン,0
1630,7021003016941,新規,0,2026-02-09,2026-02-09,合同会社ランナウェイ,,合同会社,神奈川県,藤沢市,亀井野８３３番地の７,,14,205,2520813,,,,,,,2026-02-09,1,,,,,ランナウェイ,0
1631,7021003017122,新規,0,2026-02-09,2026-02-09,ファミーユ・オフィス合同会社,,合同会社,神奈川県,海老名市,浜田町２０番４号,,14,215,2430412,,,,,,,2026-02-09,1,,,,,ファミーユオフィス,0
1636,7030001170915,新規,0,2026-02-09,2026-02-09,アソビプロジェクト株式会社,,株式会社,埼玉県,熊谷市,中曽根１０６－１,,11,202,3600133,,,,,,,2026-02-09,1,,,,,アソビプロジェクト,0
1652,7040001142343,新規,0,2026-02-09,2026-02-09,株式会社Ｂ‐ＨＥＰ,,株式会社,千葉県,松戸市,稔台７丁目１７－２メゾンブローニュ１０２,,12,207,2702231,,,,,,,2026-02-09,1,,,,,ビーヘップ,0
1653,7040001142384,新規,0,2026-02-09,2026-02-09,株式会社さよしで,,株式会社,千葉県,松戸市,大金平５丁目４５４－７,,12,207,2700006,,,,,,,2026-02-09,1,,,,,サヨシデ,0
1654,7040001142426,新規,0,2026-02-09,2026-02-09,株式会社ＩＭＩ,,株式会社,千葉県,柏市,戸張１２０２番地１５,,12,217,2770008,,,,,,,2026-02-09,1,,,,,アイエムアイ,0
1655,7040001142450,新規,0,2026-02-09,2026-02-09,株式会社ＨＡＲＵ,,株式会社,千葉県,茂原市,早野２４番地１２,,12,210,2970037,,,,,,,2026-02-09,1,,,,,ハル,0
1662,7070001043794,新規,0,2026-02-09,2026-02-09,株式会社長岡マイコーチセンター,,株式会社,群馬県,伊勢崎市,国定町１丁目１２３７番地の２,,10,204,3792221,,,,,,,2026-02-09,1,,,,,,0
1675,7120001283963,新規,0,2026-02-09,2026-02-09,株式会社ＮＯＳ,,株式会社,大阪府,大阪市北区,菅原町１１番１０号,,27,127,5300046,,,,,,,2026-02-09,1,,,,,エヌオーエス,0
1676,7120001283988,新規,0,2026-02-09,2026-02-09,株式会社Ｓｅｒｅｌｉａ,,株式会社,大阪府,大阪市中央区,平野町４丁目７番８号２０３,,27,128,5410046,,,,,,,2026-02-09,1,,,,,セレリア,0
1677,7120001284053,新規,0,2026-02-09,2026-02-09,エレコ株式会社,,株式会社,大阪府,大阪市浪速区,幸町３丁目７番１５号,,27,111,5560021,,,,,,,2026-02-09,1,,,,,エレコ,0
1679,7120003031800,新規,0,2026-02-09,2026-02-09,合同会社風工房,,合同会社,大阪府,大阪市城東区,今福東２丁目１番２２号,,27,118,5360002,,,,,,,2026-02-09,1,,,,,カゼコウボウ,0
1680,7120003031833,新規,0,2026-02-09,2026-02-09,合同会社さざなみ,,合同会社,大阪府,大阪市東成区,東中本３丁目１－３０ＣＩＴＹｏｆＬＩＶＥＲＰＯＯＬ５０２号,,27,115,5370021,,,,,,,2026-02-09,1,,,,,サザナミ,0
1685,7120101073166,新規,0,2026-02-09,2026-02-09,株式会社アイオライト,,株式会社,大阪府,堺市東区,菩提町３丁１９４番地５３,,27,143,5998103,,,,,,,2026-02-09,1,,,,,アイオライト,0
1688,7122001040147,新規,0,2026-02-09,2026-02-09,ＺＳジャパン株式会社,,株式会社,大阪府,八尾市,南亀井町２丁目４番１６号４Ｆ号室,,27,212,5810054,,,,,,,2026-02-09,1,,,,,ゼットエスジャパン,0
1690,7130001081581,新規,0,2026-02-09,2026-02-09,株式会社温故創新,,株式会社,京都府,京都市左京区,岩倉中町３９５番地,,26,103,6060025,,,,,,,2026-02-09,1,,,,,オンコソウシン,0
1691,7130001081615,新規,0,2026-02-09,2026-02-09,株式会社Ｒ＆Ｇ,,株式会社,京都府,京都市右京区,太秦一ノ井町３２－４,,26,108,6168107,,,,,,,2026-02-09,1,,,,,アールアンドジー,0
1694,7140001141640,新規,0,2026-02-09,2026-02-09,令和トラスト株式会社,,株式会社,兵庫県,宝塚市,安倉中２丁目６－２２－１０３号,,28,214,6650822,,,,,,,2026-02-09,1,,,,,レイワトラスト,0
1695,7140001141707,新規,0,2026-02-09,2026-02-09,株式会社ＮＥＸＩＡ,,株式会社,兵庫県,西脇市,和田町６３４番地の２５８,,28,213,6770052,,,,,,,2026-02-09,1,,,,,ネクシア,0
1696,7140001141715,新規,0,2026-02-09,2026-02-09,株式会社ａｉｍ,,株式会社,兵庫県,神戸市東灘区,森南町３丁目２－２３モアレ森南３０１,,28,101,6580011,,,,,,,2026-02-09,1,,,,,エイム,0
1699,7140005027794,新規,0,2026-02-09,2026-02-09,一般社団法人Ｋ５ｓａｆａｒｉ,,その他の設立登記法人,兵庫県,芦屋市,公光町４番２８号Ｄ５,,28,206,6590065,,,,,,,2026-02-09,1,,,,,ケイファイブサファリ,0
1704,7170001018976,新規,0,2026-02-09,2026-02-09,株式会社ＲＯＳＥ,,株式会社,和歌山県,和歌山市,和歌川町５番３３号,,30,201,6410055,,,,,,,2026-02-09,1,,,,,ローズ,0
1712,7180001170438,新規,0,2026-02-09,2026-02-09,株式会社ＡＴ＆ｉホールディングス,,株式会社,愛知県,名古屋市中村区,名駅３丁目４－１０アルティメイト名駅１ｓｔ２階,,23,105,4500002,,,,,,,2026-02-09,1,,,,,エーティーアンドアイホールディングス,0
1713,7180001170545,新規,0,2026-02-09,2026-02-09,ＡＤＴＡＮＫ東海株式会社,,株式会社,愛知県,名古屋市中区,金山３丁目１番３号,,23,106,4600022,,,,,,,2026-02-09,1,,,,,アドタンクトウカイ,0
1717,7180005021422,新規,0,2026-02-09,2026-02-09,一般社団法人日進市ふるさと創生ビュロー,,その他の設立登記法人,愛知県,日進市,浅田平子２丁目２４５番地,,23,230,4700128,,,,,,,2026-02-09,1,,,,,ニッシンシフルサトソウセイビュロー,0
1719,7180301040670,新規,0,2026-02-09,2026-02-09,株式会社８１商舗,,株式会社,愛知県,豊田市,若宮町１丁目５７番地１,,23,211,4710026,,,,,,,2026-02-09,1,,,,,ハチイチショウホ,0
1720,7180301040679,新規,0,2026-02-09,2026-02-09,株式会社Ｒｅ．Ｒｏｏｆ,,株式会社,愛知県,安城市,池浦町池西７０番地１,,23,212,4460066,,,,,,,2026-02-09,1,,,,,リルーフ,0
1721,7190001032876,新規,0,2026-02-09,2026-02-09,株式会社ＢＵＬＬＴＥＴ,,株式会社,三重県,四日市市,新正４丁目１番１号Ａｎｔｉｎａ３階,,24,202,5100064,,,,,,,2026-02-09,1,,,,,ブルテット,0
1728,7230001021271,新規,0,2026-02-09,2026-02-09,株式会社コーエイ,,株式会社,富山県,滑川市,上小泉２８１６番地１,,16,206,9360053,,,,,,,2026-02-09,1,,,,,コーエイ,0
1731,7240001066159,新規,0,2026-02-09,2026-02-09,株式会社ブルームシー,,株式会社,広島県,広島市西区,己斐本町３丁目８番１０号,,34,104,7330812,,,,,,,2026-02-09,1,,,,,ブルームシー,0
1733,7260001040979,新規,0,2026-02-09,2026-02-09,株式会社彩り工房,,株式会社,岡山県,岡山市南区,内尾４２１,,33,104,7010212,,,,,,,2026-02-09,1,,,,,イロドリコウボウ,0
1750,7290003018038,新規,0,2026-02-09,2026-02-09,合同会社冬輝,,合同会社,福岡県,福岡市博多区,奈良屋町１４番１２号,,40,132,8120023,,,,,,,2026-02-09,1,,,,,トウキ,0
1753,7300001014508,新規,0,2026-02-09,2026-02-09,株式会社真工業,,株式会社,佐賀県,小城市,三日月町久米１８５４番地１,,41,208,8450022,,,,,,,2026-02-09,1,,,,,シンコウギョウ,0
1759,7320001021568,新規,0,2026-02-09,2026-02-09,株式会社ＳＴＲＵＣＴＡ,,株式会社,大分県,大分市,三佐３丁目８番２４号海原クリエイトビル２０７,,44,201,8700108,,,,,,,2026-02-09,1,,,,,ストラクタ,0
1762,7330001033983,新規,0,2026-02-09,2026-02-09,株式会社Ａ・サポート,,株式会社,熊本県,熊本市東区,戸島町９２０番地３,,43,102,8618031,,,,,,,2026-02-09,1,,,,,エーサポート,0
1763,7330003011426,新規,0,2026-02-09,2026-02-09,合同会社ルテッド,,合同会社,熊本県,熊本市北区,植木町色出２４６番地２の２,,43,105,8610116,,,,,,,2026-02-09,1,,,,,ルテッド,0
1769,7360001036356,新規,0,2026-02-09,2026-02-09,株式会社新膳興業,,株式会社,沖縄県,うるま市,勝連平安名３５７Ａ,,47,213,9042312,,,,,,,2026-02-09,1,,,,,シンゼンコウギョウ,0
1781,7430001096203,新規,0,2026-02-09,2026-02-09,株式会社村岡ファーム,,株式会社,北海道,滝川市,北滝の川１９８番地,,01,225,0730001,,,,,,,2026-02-09,1,,,,,ムラオカファーム,0
1783,7440005002817,新規,0,2026-02-09,2026-02-09,一般社団法人函館空き家再生機構,,その他の設立登記法人,北海道,函館市,大町５番１４号,,01,202,0400052,,,,,,,2026-02-09,1,,,,,ハコダテアキヤサイセイキコウ,0
1786,7460001006068,新規,0,2026-02-09,2026-02-09,ブルーフロントホールディングス株式会社,,株式会社,北海道,釧路市,芦野４丁目１番３号,00142515,01,206,0850061,,,,,,,2026-02-09,1,,,,,ブルーフロントホールディングス,0
1793,7470001021090,新規,0,2026-02-09,2026-02-09,ＨＡＫＵ．ｔｏ建築設計株式会社,,株式会社,香川県,高松市,新田町甲２３８３番地７,,37,201,7610102,,,,,,,2026-02-09,1,,,,,ハクトケンチクセッケイ,0
1795,7480001013079,新規,0,2026-02-09,2026-02-09,株式会社イーライフ,,株式会社,徳島県,徳島市,津田町１丁目１３番３号,,36,201,7708002,,,,,,,2026-02-09,1,,,,,イーライフ,0
1804,8010001262416,新規,0,2026-02-09,2026-02-09,株式会社ＰＥＡＫ　ＯＲＩＧＩＮ,,株式会社,東京都,中央区,勝どき４丁目６番２－３８１６号,,13,102,1040054,,,,,,,2026-02-09,1,,,,,ピークオリジン,0
1805,8010001262424,新規,0,2026-02-09,2026-02-09,株式会社クリエイト,,株式会社,東京都,千代田区,神田練塀町３,,13,101,1010022,,,,,,,2026-02-09,1,,,,,クリエイト,0
1808,8010003050117,新規,0,2026-02-09,2026-02-09,ハレジルシ合同会社,,合同会社,東京都,中央区,銀座１丁目１２番４号Ｎ＆ＥＢＬＤ．６Ｆ,,13,102,1040061,,,,,,,2026-02-09,1,,,,,ハレジルシ,0
1809,8010003050315,新規,0,2026-02-09,2026-02-09,Ｉｎｓｐｉｒｅｒｓ　Ｃｏｎｓｕｌｔｉｎｇ合同会社,,合同会社,東京都,中央区,日本橋本町３丁目３－６ワカ末ビル７階,,13,102,1030023,,,,,,,2026-02-09,1,,,,,インスパイラーズコンサルティング,0
1810,8010005041353,新規,0,2026-02-09,2026-02-09,Ｎｅｘｃｅｌ税理士法人,,その他の設立登記法人,東京都,千代田区,平河町２丁目１３番１号,,13,101,1020093,,,,,,,2026-02-09,1,,,,,ネクセル,0
1817,8010401196338,新規,0,2026-02-09,2026-02-09,株式会社サステナビリティ総合研究所,,株式会社,東京都,港区,南青山３丁目１番３６号青山丸竹ビル６Ｆ,,13,103,1070062,,,,,,,2026-02-09,1,,,,,サステナビリティソウゴウケンキュウジョ,0
1825,8010601068700,新規,0,2026-02-09,2026-02-09,株式会社アーバンクリーン,,株式会社,東京都,墨田区,墨田４丁目１４－１２－２階,,13,107,1310031,,,,,,,2026-02-09,1,,,,,アーバンクリーン,0
1826,8010601068725,新規,0,2026-02-09,2026-02-09,株式会社ｂｏｔａｎｉｅｎｃｅ,,株式会社,東京都,江東区,東砂６丁目１０番１５号,,13,108,1360074,,,,,,,2026-02-09,1,,,,,ボタニエンス,0
1831,8010705003850,新規,0,2026-02-09,2026-02-09,脇坂税理士法人,,その他の設立登記法人,東京都,品川区,西五反田８丁目１番１０号６階,,13,109,1410031,,,,,,,2026-02-09,1,,,,,ワキザカ,0
1833,8010801037034,新規,0,2026-02-09,2026-02-09,株式会社アトリエＰｒｅｓｅｎｔ,,株式会社,東京都,大田区,西馬込２丁目１８番１７号シンコウビル１－１,,13,111,1430026,,,,,,,2026-02-09,1,,,,,アトリエプレゼント,0
1838,8011001175608,新規,0,2026-02-09,2026-02-09,ＩＳＧＭ株式会社,,株式会社,東京都,目黒区,下目黒１丁目１番１４号コノトラビル７Ｆ,,13,110,1530064,,,,,,,2026-02-09,1,,,,,アイエスジーエム,0
1840,8011003023558,新規,0,2026-02-09,2026-02-09,Ｇｏｏｄ　Ｎｅｉｇｈｂｏｒ　Ｗｏｒｋｓ合同会社,,合同会社,東京都,渋谷区,道玄坂１丁目１０番８号渋谷道玄坂東急ビル２Ｆ―Ｃ,,13,113,1500043,,,,,,,2026-02-09,1,,,,,グッドネイバーワークス,0
1851,8011201026949,新規,0,2026-02-09,2026-02-09,ＪＹＹパートナーズ株式会社,,株式会社,東京都,中野区,中野１丁目５６番４号,,13,114,1640001,,,,,,,2026-02-09,1,,,,,ジェイワイワイパートナーズ,0
1853,8011305003092,新規,0,2026-02-09,2026-02-09,特定非営利活動法人天道流保存会,,その他の設立登記法人,東京都,杉並区,南荻窪１丁目３６番３号,,13,115,1670052,,,,,,,2026-02-09,1,,,,,テンドウリュウホゾンカイ,0
1855,8011403005024,新規,0,2026-02-09,2026-02-09,合同会社ＫＡＫＵＤＯ　ＬＡＢ,,合同会社,東京都,板橋区,上板橋２丁目６番６－５０４号,,13,119,1740076,,,,,,,2026-02-09,1,,,,,カクドラボ,0
1862,8012703003469,新規,0,2026-02-09,2026-02-09,合同会社ＯＡＫ　ＥＳＴＡＴＥ,,合同会社,東京都,東村山市,野口町３丁目２１番地１アイリスハウスＡ,,13,213,1890022,,,,,,,2026-02-09,1,,,,,オークエステート,0
1864,8012801024524,新規,0,2026-02-09,2026-02-09,Ｇ‐ＮＥＸＩＳ　Ｈｏｌｄｉｎｇｓ株式会社,,株式会社,東京都,昭島市,宮沢町１丁目１番５号カトービルＩＩ,00142505,13,207,1960024,,,,,,,2026-02-09,1,,,,,ジーネクシスホールディングス,0
1865,8012805003391,新規,0,2026-02-09,2026-02-09,一般社団法人頭の形ケア協会,,その他の設立登記法人,東京都,国立市,東１丁目６番地の２４新プリンスビル６階,,13,215,1860002,,,,,,,2026-02-09,1,,,,,アタマノカタチケアキョウカイ,0
1878,8020003030290,新規,0,2026-02-09,2026-02-09,ＩＮＩＴＩＡ　Ｌａｂ合同会社,,合同会社,神奈川県,横浜市神奈川区,金港町５－１４クアドリフォリオ８階,,14,102,2210056,,,,,,,2026-02-09,1,,,,,イニシアラボ,0
1879,8020005017138,新規,0,2026-02-09,2026-02-09,一般社団法人ＨＵＭＡＮ　ＩＮＦＩＮＩＴＹ　ＡＣＡＤＥＭＹ,,その他の設立登記法人,神奈川県,横浜市西区,浅間町１丁目４番地３ウィザードビル４０２,,14,103,2200072,,,,,,,2026-02-09,1,,,,,ヒューマンインフィニティアカデミー,0
1880,8021001087422,新規,0,2026-02-09,2026-02-09,株式会社ツボライ,,株式会社,神奈川県,相模原市南区,相模台２丁目２－２ガーデンビルＩＩ３フェルゴ内,00142503,14,153,2520321,,,,,,,2026-02-09,1,,,,,ツボライ,0
1881,8021001087496,新規,0,2026-02-09,2026-02-09,勝栄工業株式会社,,株式会社,神奈川県,横須賀市,湘南鷹取５丁目４５番Ｑ－１０２号,,14,201,2370066,,,,,,,2026-02-09,1,,,,,ショウエイコウギョウ,0
1892,8040001142383,新規,0,2026-02-09,2026-02-09,株式会社ＣＡＴＥＲＡ,,株式会社,千葉県,山武郡芝山町,新井田４４５番地１１７,,12,409,2891625,,,,,,,2026-02-09,1,,,,,キャテラ,0
1893,8040001142409,新規,0,2026-02-09,2026-02-09,株式会社東鉄管,,株式会社,千葉県,市原市,姉崎９５９番地４,,12,219,2990111,,,,,,,2026-02-09,1,,,,,トウテッカン,0
1895,8040003029414,新規,0,2026-02-09,2026-02-09,新業仁合同会社,,合同会社,千葉県,浦安市,日の出２丁目２番２号,,12,227,2790013,,,,,,,2026-02-09,1,,,,,シンギョウジン,0
1901,8080005007760,新規,0,2026-02-09,2026-02-09,一般社団法人ユニバーサルスポーツしずおか,,その他の設立登記法人,静岡県,静岡市葵区,松富４丁目１４番１号静岡市北部体育館２階,,22,101,4200941,,,,,,,2026-02-09,1,,,,,ユニバーサルスポーツシズオカ,0
1904,8100001039334,新規,0,2026-02-09,2026-02-09,株式会社モノリエ,,株式会社,長野県,上伊那郡箕輪町,大字中箕輪１３２７５番地１,,20,383,3994601,,,,,,,2026-02-09,1,,,,,モノリエ,0
1907,8110001039886,新規,0,2026-02-09,2026-02-09,Ｋ＆Ｓカンパニー株式会社,,株式会社,新潟県,上越市,大豆１丁目１２番５号,,15,222,9430802,,,,,,,2026-02-09,1,,,,,ケーアンドエスカンパニー,0
1916,8120001283905,新規,0,2026-02-09,2026-02-09,株式会社新日本電力,,株式会社,大阪府,大阪市中央区,南船場１丁目１６番２号,,27,128,5420081,,,,,,,2026-02-09,1,,,,,シンニホンデンリョク,0
1917,8120001283987,新規,0,2026-02-09,2026-02-09,ナカグ株式会社,,株式会社,大阪府,大阪市天王寺区,悲田院町１番３８－１５１３号,,27,109,5430055,,,,,,,2026-02-09,1,,,,,ナカグ,0
1918,8120001284060,新規,0,2026-02-09,2026-02-09,龍騰国際株式会社,,株式会社,大阪府,大阪市中央区,南船場１丁目１６番１２－６０７号,,27,128,5420081,,,,,,,2026-02-09,1,,,,,リュウトウコクサイ,0
1920,8120003031840,新規,0,2026-02-09,2026-02-09,合同会社星の森,,合同会社,大阪府,大阪市西区,立売堀３丁目６番２１－９０２号,,27,106,5500012,,,,,,,2026-02-09,1,,,,,ホシノモリ,0
1927,8120901052194,新規,0,2026-02-09,2026-02-09,Ａ＆Ｅ　Ｆａｍｉｌｉａ株式会社,,株式会社,大阪府,吹田市,山田西３丁目５７番１６－４０１号,,27,205,5650824,,,,,,,2026-02-09,1,,,,,エーアンドイーファミリア,0
1928,8120903006066,新規,0,2026-02-09,2026-02-09,ＫＡＮＳＡＩ　Ａ．Ｋ．合同会社,,合同会社,大阪府,豊中市,新千里南町３丁目７番Ｄ３－１０５号,,27,203,5600084,,,,,,,2026-02-09,1,,,,,カンサイエーケー,0
1931,8130001081572,新規,0,2026-02-09,2026-02-09,ＩＢＯＨＤ株式会社,,株式会社,京都府,京都市上京区,河原町通荒神口上る宮垣町８０番地ラ・ヴァリエ４０３,,26,102,6020853,,,,,,,2026-02-09,1,,,,,アイビーオーエイチディー,0
1938,8140001141631,新規,0,2026-02-09,2026-02-09,アメニティア株式会社,,株式会社,兵庫県,神戸市東灘区,青木２丁目１６番１９号１０１号室,,28,101,6580027,,,,,,,2026-02-09,1,,,,,アメニティア,0
1939,8140001141656,新規,0,2026-02-09,2026-02-09,エムワイ化工株式会社,,株式会社,兵庫県,尼崎市,東難波町５丁目２４－７,,28,202,6600892,,,,,,,2026-02-09,1,,,,,エムワイカコウ,0
1940,8140001141680,新規,0,2026-02-09,2026-02-09,株式会社ＳＯＬ,,株式会社,兵庫県,神戸市西区,伊川谷町有瀬１４０２番地の１ラフィーネ有瀬２０１号,,28,111,6512113,,,,,,,2026-02-09,1,,,,,ソル,0
1948,8180001170528,新規,0,2026-02-09,2026-02-09,株式会社Ｊ‐ＣＯＲＥ,,株式会社,愛知県,名古屋市中川区,前並町４４－４,,23,110,4540025,,,,,,,2026-02-09,1,,,,,ジェイコア,0
1949,8180001170585,新規,0,2026-02-09,2026-02-09,株式会社ＥＣＨＯ,,株式会社,愛知県,名古屋市北区,中切町２丁目６２番地の２,,23,103,4620051,,,,,,,2026-02-09,1,,,,,エコー,0
1958,8190001032891,新規,0,2026-02-09,2026-02-09,株式会社青木電気,,株式会社,三重県,鈴鹿市,南江島町２番１０号,,24,207,5100235,,,,,,,2026-02-09,1,,,,,アオキデンキ,0
1959,8200003007213,新規,0,2026-02-09,2026-02-09,ＥＬＬＹ　ＡＵＴＨＥＮＴＩＣ　ＪＡＰＡＮ合同会社,,合同会社,岐阜県,岐阜市,六条９０－１,,21,201,5008352,,,,,,,2026-02-09,1,,,,,エリーアゥセンティックジャパン,0
1961,8220001027161,新規,0,2026-02-09,2026-02-09,株式会社ワンズエステート,,株式会社,石川県,野々市市,住吉町１２番４５号,,17,212,9218813,,,,,,,2026-02-09,1,,,,,ワンズエステート,0
1971,8250003003901,新規,0,2026-02-09,2026-02-09,合同会社トミテック,,合同会社,山口県,山口市,佐山２８１８番地１クエスト佐山Ａ２０２,,35,203,7540894,,,,,,,2026-02-09,1,,,,,トミテック,0
1973,8260003005500,新規,0,2026-02-09,2026-02-09,合同会社ＯｏｎｏＳｌｅｅｐＷｏｒｋｓ,,合同会社,岡山県,倉敷市,林１８７３－２,,33,202,7100142,,,,,,,2026-02-09,1,,,,,オオノスリープワークス,0
1990,8290801032230,新規,0,2026-02-09,2026-02-09,株式会社ＰＬＡＳＴＯＮＥ,,株式会社,福岡県,北九州市戸畑区,沢見１丁目３番５６号,,40,105,8040093,,,,,,,2026-02-09,1,,,,,プラストーン,0
1991,8300001014507,新規,0,2026-02-09,2026-02-09,山弘工業株式会社,,株式会社,佐賀県,唐津市,北波多稗田１９５７番地４,,41,202,8471214,,,,,,,2026-02-09,1,,,,,ヤマヒロコウギョウ,0
1996,8340001027959,新規,0,2026-02-09,2026-02-09,ユタカホーム株式会社,,株式会社,鹿児島県,大島郡徳之島町,亀津９５６番地７,,46,530,8917101,,,,,,,2026-02-09,1,,,,,ユタカホーム,0
2003,8360003015605,新規,0,2026-02-09,2026-02-09,合同会社ＲＵＭＩＴＡ,,合同会社,沖縄県,那覇市,前島２丁目９番１０号,,47,201,9000016,,,,,,,2026-02-09,1,,,,,ルミタ,0
2007,8380001035859,新規,0,2026-02-09,2026-02-09,株式会社慶,,株式会社,福島県,喜多方市,塩川町吉沖字亀ケ台１９５０番地,,07,208,9693539,,,,,,,2026-02-09,1,,,,,ケイ,0
2023,8460303000899,新規,0,2026-02-09,2026-02-09,ステイル合同会社,,合同会社,北海道,網走市,つくしケ丘６丁目２番１３号,,01,211,0930034,,,,,,,2026-02-09,1,,,,,ステイル,0
2029,8500003003669,新規,0,2026-02-09,2026-02-09,合同会社トランスポートＡＢＹ,,合同会社,愛媛県,松山市,森松町６２７番地５,,38,201,7911113,,,,,,,2026-02-09,1,,,,,トランスポートアビイ,0
2033,9010001262670,新規,0,2026-02-09,2026-02-09,Ｂｅｌｌｅ　ｈｏｌｄｉｎｇｓ株式会社,,株式会社,東京都,千代田区,神田神保町２丁目３８番１１号,,13,101,1010051,,,,,,,2026-02-09,1,,,,,ベルホールディングス,0
2035,9010003050223,新規,0,2026-02-09,2026-02-09,ノヴァリニューワブル・エナジー２合同会社,,合同会社,東京都,千代田区,内神田１丁目３番７号４０１あすな会計事務所内,,13,101,1010047,,,,,,,2026-02-09,1,,,,,ノヴァリニューワブルエナジーツー,0
2036,9010005041352,新規,0,2026-02-09,2026-02-09,ＣＯＦ１一般社団法人,,その他の設立登記法人,東京都,千代田区,霞が関３丁目２番５号,,13,101,1000013,,,,,,,2026-02-09,1,,,,,シーオーエフワン,0
2037,9010101017082,新規,0,2026-02-09,2026-02-09,オーハイム株式会社,,株式会社,東京都,八王子市,上川町３１５５番地６,,13,201,1920151,,,,,,,2026-02-09,1,,,,,オーハイム,0
2045,9010401196337,新規,0,2026-02-09,2026-02-09,株式会社ＴＷＥＬＶＥ　ＣＯＲＥ,,株式会社,東京都,港区,芝３丁目２番１８号ＩＣＯＮＰＬＡＣＥＳＨＩＢＡＫＯＥＮ１Ｆ－１４,,13,103,1050014,,,,,,,2026-02-09,1,,,,,トゥエルヴコア,0
2046,9010401196493,新規,0,2026-02-09,2026-02-09,株式会社Ｇｉｆｔ　Ｂｌｏｓｓｏｍ,,株式会社,東京都,港区,北青山１丁目３－３三橋ビル３階,,13,103,1070061,,,,,,,2026-02-09,1,,,,,ギフトブロッサム,0
2061,9010601068708,新規,0,2026-02-09,2026-02-09,株式会社ＳＴＫ,,株式会社,東京都,墨田区,両国１丁目１７番１０号,,13,107,1300026,,,,,,,2026-02-09,1,,,,,エスティーケー,0
2062,9010601068716,新規,0,2026-02-09,2026-02-09,京葉フード株式会社,,株式会社,東京都,江東区,枝川２丁目１８番１９号,,13,108,1350051,,,,,,,2026-02-09,1,,,,,ケイヨウフード,0
2063,9010603012060,新規,0,2026-02-09,2026-02-09,ＴＨＫコーポレーション合同会社,,合同会社,東京都,江東区,豊洲４丁目１１番２０－９０１号,,13,108,1350061,,,,,,,2026-02-09,1,,,,,ティーエイチケイコーポレーション,0
2067,9010901058945,新規,0,2026-02-09,2026-02-09,株式会社ペタ,,株式会社,東京都,世田谷区,千歳台２丁目１１番２号―１０２号室,,13,112,1570071,,,,,,,2026-02-09,1,,,,,ペタ,0
2076,9011101114670,新規,0,2026-02-09,2026-02-09,株式会社澄舎,,株式会社,東京都,新宿区,西新宿８丁目１２番１号サンパレス新宿４０３,,13,104,1600023,,,,,,,2026-02-09,1,,,,,チョウシャ,0
2082,9011701029161,新規,0,2026-02-09,2026-02-09,ＲＥＫ株式会社,,株式会社,東京都,江戸川区,北小岩１丁目３番１－５０３号,,13,123,1330051,,,,,,,2026-02-09,1,,,,,レック,0
2088,9012703003468,新規,0,2026-02-09,2026-02-09,合同会社はなぶさ,,合同会社,東京都,小平市,津田町３丁目３２－２７,,13,211,1870025,,,,,,,2026-02-09,1,,,,,ハナブサ,0
2089,9012801024523,新規,0,2026-02-09,2026-02-09,株式会社テイクオン,,株式会社,東京都,日野市,三沢１丁目１４番地の１５伊藤ビル３０７号,,13,212,1910032,,,,,,,2026-02-09,1,,,,,テイクオン,0
2099,9020001167035,新規,0,2026-02-09,2026-02-09,広尽トラスト株式会社,,株式会社,神奈川県,横浜市戸塚区,汲沢２丁目１番５－Ａ－１０５号,,14,110,2450061,,,,,,,2026-02-09,1,,,,,コウジントラスト,0
2101,9020003030364,新規,0,2026-02-09,2026-02-09,ヤマグチ合同会社,,合同会社,神奈川県,川崎市麻生区,片平３丁目１１番１－５号,,14,137,2150023,,,,,,,2026-02-09,1,,,,,ヤマグチ,0
2102,9021003017079,新規,0,2026-02-09,2026-02-09,合同会社オフベースよこすか,,合同会社,神奈川県,横須賀市,小川町１９－５富士ビル３階,,14,201,2380004,,,,,,,2026-02-09,1,,,,,オフベースヨコスカ,0
2103,9021003017087,新規,0,2026-02-09,2026-02-09,合同会社うみねこ不動産,,合同会社,神奈川県,藤沢市,鵠沼海岸２丁目１７－１６マイキャッスル鵠沼海岸３０４,00142506,14,205,2510037,,,,,,,2026-02-09,1,,,,,ウミネコフドウサン,0
2104,9021003017137,新規,0,2026-02-09,2026-02-09,合同会社Ｎ．ｌｕｃｋ,,合同会社,神奈川県,茅ヶ崎市,東海岸北２丁目２番２３号リッシュ湘南３０１,,14,207,2530053,,,,,,,2026-02-09,1,,,,,エヌラック,0
2115,9040001142374,新規,0,2026-02-09,2026-02-09,きよはる空調サービス株式会社,,株式会社,千葉県,市原市,八幡北町２丁目６番地の１４,,12,219,2900069,,,,,,,2026-02-09,1,,,,,キヨハルクウチョウサービス,0
2116,9040001142382,新規,0,2026-02-09,2026-02-09,株式会社Ｌａｆｉｃ,,株式会社,千葉県,市川市,大和田２丁目６番１７号,,12,203,2720025,,,,,,,2026-02-09,1,,,,,ラフィック,0
2117,9040001142390,新規,0,2026-02-09,2026-02-09,株式会社ワールドプラス,,株式会社,千葉県,千葉市中央区,稲荷町３丁目５番１２号,,12,101,2600833,,,,,,,2026-02-09,1,,,,,ワールドプラス,0
2118,9040001142408,新規,0,2026-02-09,2026-02-09,株式会社Ｓｉｎｃｅｒｅ　Ａｒｔｗｏｒｋ,,株式会社,千葉県,我孫子市,根戸３４９番地の１６,,12,222,2701168,,,,,,,2026-02-09,1,,,,,シンシアアートワーク,0
2138,9100003008600,新規,0,2026-02-09,2026-02-09,合同会社エムスターズ,,合同会社,長野県,伊那市,美篶８９７６－６,,20,209,3960111,,,,,,,2026-02-09,1,,,,,エムスターズ,0
2153,9120001283887,新規,0,2026-02-09,2026-02-09,Ｉｂｅｘ　Ｊａｐａｎ株式会社,,株式会社,大阪府,大阪市北区,角田町８番４７号阪急グランドビル２６階,,27,127,5300017,,,,,,,2026-02-09,1,,,,,アイベックスジャパン,0
2154,9120001283945,新規,0,2026-02-09,2026-02-09,株式会社アーリークロス,,株式会社,大阪府,守口市,菊水通１丁目６番３号,,27,209,5700032,,,,,,,2026-02-09,1,,,,,アーリークロス,0
2155,9120001283986,新規,0,2026-02-09,2026-02-09,ＭＹＳＴＥＲ　ｅｎｔｅｒｔａｉｎｍｅｎｔ株式会社,,株式会社,大阪府,枚方市,三栗１丁目１番１３号,,27,210,5731171,,,,,,,2026-02-09,1,,,,,マイスターエンターテイメント,0
2159,9120003031831,新規,0,2026-02-09,2026-02-09,ＩＤＢ　ＪＡＰＡＮ合同会社,,合同会社,大阪府,大阪市北区,本庄西２丁目１２－３－２Ｅ,,27,127,5310073,,,,,,,2026-02-09,1,,,,,アイデービージャパン,0
2160,9120003031856,新規,0,2026-02-09,2026-02-09,合同会社ＷｅＦＡＮ　ＧＯＬＤ,,合同会社,大阪府,大阪市北区,梅田３丁目２番１２３号,,27,127,5300001,,,,,,,2026-02-09,1,,,,,ウィファンゴールド,0
2165,9120103006980,新規,0,2026-02-09,2026-02-09,合同会社ＭＩＲＩＳＥ,,合同会社,大阪府,松原市,一津屋５丁目１６番５号,,27,217,5800003,,,,,,,2026-02-09,1,,,,,ミライズ,0
2170,9122001040161,新規,0,2026-02-09,2026-02-09,株式会社ＲＩＯＲＡＺ,,株式会社,大阪府,東大阪市,立花町８番２０号,,27,227,5798023,,,,,,,2026-02-09,1,,,,,リオラズ,0
2176,9140001141655,新規,0,2026-02-09,2026-02-09,株式会社信時力,,株式会社,兵庫県,尼崎市,田能３丁目７番１２号,,28,202,6610951,,,,,,,2026-02-09,1,,,,,シンジリキ,0
2178,9140003023199,新規,0,2026-02-09,2026-02-09,合同会社川本経営技術研究所,,合同会社,兵庫県,神戸市東灘区,岡本５丁目８番１１,,28,101,6580072,,,,,,,2026-02-09,1,,,,,カワモトケイエイギジュツケンキュウジョ,0
2183,9170005007189,新規,0,2026-02-09,2026-02-09,医療法人美生会,,その他の設立登記法人,和歌山県,橋本市,東家１丁目２番２５号サンライズビル１階,,30,203,6480072,,,,,,,2026-02-09,1,,,,,ビセイカイ,0
2191,9180001170568,新規,0,2026-02-09,2026-02-09,株式会社トラバース・プロパティーズ,,株式会社,愛知県,名古屋市瑞穂区,中山町３丁目１番地の２ライオンズ桜山プレミアムテラス１０５号,,23,108,4670803,,,,,,,2026-02-09,1,,,,,トラバースプロパティーズ,0
2192,9180001170642,新規,0,2026-02-09,2026-02-09,株式会社アルトナ,,株式会社,愛知県,名古屋市東区,泉１丁目２１番６号泉シティハウス３０１号,,23,102,4610001,,,,,,,2026-02-09,1,,,,,アルトナ,0
2197,9180003029746,新規,0,2026-02-09,2026-02-09,ｅａｔａｌｋｔｈ合同会社,,合同会社,愛知県,名古屋市中村区,名駅３丁目４番１０号アルティメイト名駅１ｓｔ２階,,23,105,4500002,,,,,,,2026-02-09,1,,,,,イートークス,0
2202,9180303006890,新規,0,2026-02-09,2026-02-09,合同会社ＳＯＲＡ,,合同会社,愛知県,岡崎市,針崎町字春咲１番地９４,,23,202,4440827,,,,,,,2026-02-09,1,,,,,ソラ,0
2205,9230001021286,新規,0,2026-02-09,2026-02-09,株式会社ツナギ,,株式会社,富山県,高岡市,内免３丁目２番１０号２Ｆ,,16,202,9330941,,,,,,,2026-02-09,1,,,,,ツナギ,0
2209,9240003007588,新規,0,2026-02-09,2026-02-09,合同会社Ｇｒａｔｏ,,合同会社,広島県,広島市西区,横川町３丁目２番６－１号,,34,104,7330011,,,,,,,2026-02-09,1,,,,,グラート,0
2210,9240005016042,新規,0,2026-02-09,2026-02-09,一般財団法人丹下大未来創造育英財団,,その他の設立登記法人,広島県,神石郡神石高原町,阿下４３０番地,,34,545,7201521,,,,,,,2026-02-09,1,,,,,タンゲマサルミライソウゾウイクエイザイダン,0
2213,9260001040977,新規,0,2026-02-09,2026-02-09,株式会社Ｍ‐Ｒｉｓｉｎｇ,,株式会社,岡山県,岡山市北区,表町２丁目６番２４号フェニックス５０１,,33,101,7000822,,,,,,,2026-02-09,1,,,,,エムライジング,0
2231,9330005011026,新規,0,2026-02-09,2026-02-09,一般社団法人パールラインまちづくり協議会,,その他の設立登記法人,熊本県,上天草市,大矢野町維和５０８番地２,,43,212,8693604,,,,,,,2026-02-09,1,,,,,パールラインマチヅクリキョウギカイ,0
2238,9380003006254,新規,0,2026-02-09,2026-02-09,合同会社ＴＯＫＩＪＩ,,合同会社,福島県,南相馬市,小高区飯崎字南原１０１番地の８,,07,212,9792162,,,,,,,2026-02-09,1,,,,,トキジ,0
2239,9380005013059,新規,0,2026-02-09,2026-02-09,特定非営利活動法人けやき地域ネットワーク,,その他の設立登記法人,福島県,いわき市,小名浜住吉字搦町２１番地,,07,204,9718124,,,,,,,2026-02-09,1,,,,,,0
2242,9410001014387,新規,0,2026-02-09,2026-02-09,株式会社ふじいファーム,,株式会社,秋田県,仙北郡美郷町,六郷東根字下関田３７番地５,,05,434,0191403,,,,,,,2026-02-09,1,,,,,フジイファーム,0
2243,9420003003239,新規,0,2026-02-09,2026-02-09,合同会社ＡＳＵ,,合同会社,青森県,十和田市,大字米田字北野５番地,,02,206,0340212,,,,,,,2026-02-09,1,,,,,アス,0
2249,9430001096226,新規,0,2026-02-09,2026-02-09,株式会社Ｒｅｖｉ,,株式会社,北海道,苫小牧市,三光町１丁目５番４６号,,01,213,0530042,,,,,,,2026-02-09,1,,,,,レヴィ,0
2250,9430003018574,新規,0,2026-02-09,2026-02-09,合同会社青紅,,合同会社,北海道,札幌市北区,屯田六条４丁目５番２３号,,01,102,0020856,,,,,,,2026-02-09,1,,,,,セイコウ,0
2251,9450001014854,新規,0,2026-02-09,2026-02-09,株式会社原ファーム,,株式会社,北海道,雨竜郡妹背牛町,字妹背牛３８９番地の７３,,01,433,0790500,,,,,,,2026-02-09,1,,,,,ハラファーム,0
2253,9470001021089,新規,0,2026-02-09,2026-02-09,株式会社マルカク,,株式会社,香川県,高松市,香南町西庄２０５４番地２,,37,201,7611406,,,,,,,2026-02-09,1,,,,,マルカク,0
2254,9480001013077,新規,0,2026-02-09,2026-02-09,株式会社立希ホールディングス,,株式会社,徳島県,徳島市,国府町南岩延字堤外５６１番地の１,,36,201,7793120,,,,,,,2026-02-09,1,,,,,リツキホールディングス,0
