sequenceNumber,corporateNumber,process,correct,updateDate,changeDate,name,nameImageId,kind,prefectureName,cityName,streetNumber,addressImageId,prefectureCode,cityCode,postCode,addressOutside,addressOutsideImageId,closeDate,closeCause,successorCorporateNumber,changeCause,assignmentDate,latest,enName,enPrefectureName,enCityName,enAddressOutside,furigana,hihyoji
10,1010001225395,新規,0,2022-03-25,2022-03-25,エムズアップ株式会社,,株式会社,東京都,千代田区,飯田橋２丁目１１番１０号総合経営ビル６階,,13,101,1020072,,,,,,,2022-03-25,1,,,,,エムズアップ,0
11,1010001225404,新規,0,2022-03-25,2022-03-25,株式会社グリーンフッド,,株式会社,東京都,文京区,本郷３丁目１９番６号,,13,105,1130033,,,,,,,2022-03-25,1,,,,,グリーンフッド,0
12,1010001225420,新規,0,2022-03-25,2022-03-25,新技術工営株式会社,,株式会社,東京都,中央区,東日本橋２丁目２８番３号,,13,102,1030004,,,,,,,2022-03-25,1,,,,,シンギジュツコウエイ,0
13,1010001225461,新規,0,2022-03-25,2022-03-25,Ｅｄｏｖｅｒｓｅ株式会社,,株式会社,東京都,中央区,銀座７丁目４番１２号,,13,102,1040061,,,,,,,2022-03-25,1,,,,,エドバース,0
20,1010003037327,新規,0,2022-03-25,2022-03-25,合同会社いちたろう商店,,合同会社,東京都,中央区,銀座１丁目２２番１１号銀座大竹ビジデンス２階,,13,102,1040061,,,,,,,2022-03-25,1,,,,,イチタロウショウテン,0
21,1010003037335,新規,0,2022-03-25,2022-03-25,ＦＡＬ　Ａｕｓｔｒａｌｉａ　ＧＫ合同会社,,合同会社,東京都,千代田区,丸の内２丁目３番２号郵船ビルアルタードムス・ジャパン株式会社内,,13,101,1000005,,,,,,,2022-03-25,1,,,,,エフエーエルオーストラリアジーケー,0
22,1010005034727,新規,0,2022-03-25,2022-03-25,一般社団法人ラピーヌ協同労働組合設立準備委員会,,その他の設立登記法人,東京都,千代田区,神田東松下町１７番地,,13,101,1010042,,,,,,,2022-03-25,1,,,,,ラピーヌキョウドウロウドウクミアイセツリツジュンビイインカイ,0
23,1010005034768,新規,0,2022-03-25,2022-03-25,ラム特定目的会社,,その他の設立登記法人,東京都,中央区,日本橋１丁目４番１号日本橋一丁目ビルディング,,13,102,1030027,,,,,,,2022-03-25,1,,,,,ラム,0
29,1010401166339,新規,0,2022-03-25,2022-03-25,株式会社えいとまん,,株式会社,東京都,港区,赤坂３丁目６－１７,,13,103,1070052,,,,,,,2022-03-25,1,,,,,エイトマン,0
31,1010501048619,新規,0,2022-03-25,2022-03-25,株式会社パルム,,株式会社,東京都,台東区,上野桜木１丁目１０番１９－４０９号ルネ・上野桜木,,13,106,1100002,,,,,,,2022-03-25,1,,,,,パルム,0
33,1010503006541,新規,0,2022-03-25,2022-03-25,Ｗｅｌｌｓｔｏｎｅ　Ｐａｒｔｎｅｒｓ合同会社,,合同会社,東京都,台東区,浅草６丁目２２番１４－９０１号アプレ浅草フォレスト,,13,106,1110032,,,,,,,2022-03-25,1,,,,,ウェルストーンパートナーズ,0
36,1010901050562,新規,0,2022-03-25,2022-03-25,株式会社Ｐｉｅｎａ　ｄｉ　ｖｉｔａ,,株式会社,東京都,世田谷区,三軒茶屋１丁目３５番１７号ルーエプラッツ三軒茶屋３０１,,13,112,1540024,,,,,,,2022-03-25,1,,,,,ピエナディビータ,0
46,1011001146350,新規,0,2022-03-25,2022-03-25,株式会社クラッチーノ,,株式会社,東京都,渋谷区,恵比寿西２丁目１９番９号,,13,113,1500021,,,,,,,2022-03-25,1,,,,,クラッチーノ,0
47,1011001146516,新規,0,2022-03-25,2022-03-25,株式会社匠設計エステート,,株式会社,東京都,渋谷区,代々木２丁目２７番１６号ハイシティ代々木４０４号,,13,113,1510053,,,,,,,2022-03-25,1,,,,,タクミセッケイエステート,0
48,1011001146524,新規,0,2022-03-25,2022-03-25,株式会社ＷＥ　ＴＲＵＣＫ,,株式会社,東京都,渋谷区,富ヶ谷１丁目４５番１３号スプリングビル２Ｆ,,13,113,1510063,,,,,,,2022-03-25,1,,,,,ウィートラック,0
49,1011003014415,新規,0,2022-03-25,2022-03-25,合同会社ＵＭＡ,,合同会社,東京都,渋谷区,渋谷２丁目１９－１５宮益坂ビルディング６０９,,13,113,1500002,,,,,,,2022-03-25,1,,,,,ユーエムエー,0
51,1011101098244,新規,0,2022-03-25,2022-03-25,株式会社コフレ,,株式会社,東京都,新宿区,新宿４丁目４－７,,13,104,1600022,,,,,,,2022-03-25,1,,,,,コフレ,0
53,1011301027663,新規,0,2022-03-25,2022-03-25,株式会社ＣＩＳ,,株式会社,東京都,杉並区,高円寺北２丁目１番１３号,,13,115,1660002,,,,,,,2022-03-25,1,,,,,シーアイエス,0
65,1011801040488,新規,0,2022-03-25,2022-03-25,株式会社ＴＸＳ,,株式会社,東京都,足立区,栗原４丁目２－１２,,13,121,1230842,,,,,,,2022-03-25,1,,,,,ティエクス,0
80,1020001145691,新規,0,2022-03-25,2022-03-25,株式会社Ｋ　ｇｒａｔｉａ,,株式会社,神奈川県,横浜市金沢区,堀口７番Ｂ－１０６号,,14,108,2360054,,,,,,,2022-03-25,1,,,,,ケイグラティア,0
81,1020001145799,新規,0,2022-03-25,2022-03-25,株式会社Ｌｉｖｅｌｙ　Ｕｐ,,株式会社,神奈川県,横浜市神奈川区,台町１１－２０恒陽マンション５０６,,14,102,2210834,,,,,,,2022-03-25,1,,,,,ライブリーアップ,0
84,1020005015429,新規,0,2022-03-25,2022-03-25,一般社団法人ボウノットデザイン,,その他の設立登記法人,神奈川県,川崎市中原区,下小田中３丁目２８番３３号,,14,133,2110041,,,,,,,2022-03-25,1,,,,,ボウノットデザイン,0
99,1030001146937,新規,0,2022-03-25,2022-03-25,株式会社飛翔烈,,株式会社,埼玉県,越谷市,東越谷７丁目４１－１,,11,222,3430023,,,,,,,2022-03-25,1,,,,,ヒショウレツ,0
100,1030001147340,新規,0,2022-03-25,2022-03-25,株式会社キューティクルラボ,,株式会社,埼玉県,春日部市,粕壁東１丁目２１番３８号レジデンス美峰３０２号,,11,214,3440062,,,,,,,2022-03-25,1,,,,,キューティクルラボ,0
101,1030001147423,新規,0,2022-03-25,2022-03-25,株式会社ｍｙ　ｏｕｔｃｏｍｅ,,株式会社,埼玉県,朝霞市,本町３丁目２番６３号,,11,227,3510011,,,,,,,2022-03-25,1,,,,,マイアウトカム,0
106,1030003019091,新規,0,2022-03-25,2022-03-25,ＣＲＡＦＴ‐ＳＲ合同会社,,合同会社,埼玉県,さいたま市西区,大字指扇２５５４番地２,,11,101,3310047,,,,,,,2022-03-25,1,,,,,クラフトエスアール,0
107,1030005020766,新規,0,2022-03-25,2022-03-25,一般社団法人寄巻薬師如来保存会,,その他の設立登記法人,埼玉県,三郷市,鷹野５丁目６０５番地１,,11,237,3410035,,,,,,,2022-03-25,1,,,,,ヨマキヤクシニョライホゾンカイ,0
108,1030005020774,新規,0,2022-03-25,2022-03-25,医療法人社団陽宏会,,その他の設立登記法人,埼玉県,八潮市,大瀬６丁目１番６号ＢｉＶｉ八潮１階Ｃ,,11,234,3400822,,,,,,,2022-03-25,1,,,,,ヨウコウカイ,0
117,1040003019743,新規,0,2022-03-25,2022-03-25,合同会社ＪＴ,,合同会社,千葉県,柏市,豊四季台２丁目１番１－１１４号,,12,217,2770845,,,,,,,2022-03-25,1,,,,,ジェイティー,0
118,1040003019751,新規,0,2022-03-25,2022-03-25,合同会社ポモドーロ,,合同会社,千葉県,市川市,市川１丁目２番３－３０３号石川ビル,,12,203,2720034,,,,,,,2022-03-25,1,,,,,ポモドーロ,0
122,1050003006443,新規,0,2022-03-25,2022-03-25,合同会社望工業,,合同会社,茨城県,日立市,大沼町３丁目３２番２６－２０１号,,08,202,3160022,,,,,,,2022-03-25,1,,,,,ノゾミコウギョウ,0
129,1080001024824,新規,0,2022-03-25,2022-03-25,ジェノヴァインテリジェンスラボ株式会社,,株式会社,静岡県,静岡市駿河区,馬渕４丁目１２－１４－２,,22,102,4228063,,,,,,,2022-03-25,1,,,,,ジェノヴァインテリジェンスラボ,0
145,1120001244624,新規,0,2022-03-25,2022-03-25,株式会社ＫＣＳ,,株式会社,大阪府,大阪市住之江区,西加賀屋３丁目６番５－５０１号,,27,125,5590016,,,,,,,2022-03-25,1,,,,,ケーシーエス,0
148,1120003021344,新規,0,2022-03-25,2022-03-25,合同会社ＹＭＳ,,合同会社,大阪府,大阪市生野区,林寺５丁目３番２４号,,27,116,5440023,,,,,,,2022-03-25,1,,,,,ワイエムエス,0
149,1120003021352,新規,0,2022-03-25,2022-03-25,ＳＮＫ合同会社,,合同会社,大阪府,大阪市浪速区,下寺２丁目４番１２号５Ｆ,,27,111,5560001,,,,,,,2022-03-25,1,,,,,エスエヌケー,0
151,1120101065284,新規,0,2022-03-25,2022-03-25,ＪＦＦホールディングス株式会社,,株式会社,大阪府,堺市堺区,中之町西１丁１番３０号,,27,141,5900957,,,,,,,2022-03-25,1,,,,,ジェイエフエフホールディングス,0
169,1140003017489,新規,0,2022-03-25,2022-03-25,合同会社ＡＦＣ,,合同会社,兵庫県,西宮市,鷲林寺南町１４番１６号,,28,204,6620002,,,,,,,2022-03-25,1,,,,,エイエフシー,0
173,1140005026091,新規,0,2022-03-25,2022-03-25,医療法人上田医院,,その他の設立登記法人,兵庫県,三田市,駅前町４番３１号,,28,219,6691528,,,,,,,2022-03-25,1,,,,,ウエダイイン,0
187,1180003023640,新規,0,2022-03-25,2022-03-25,るるるーぷ合同会社,,合同会社,愛知県,名古屋市中区,丸の内１丁目１０番２５号,,23,106,4600002,,,,,,,2022-03-25,1,,,,,ルルループ,0
189,1180303005289,新規,0,2022-03-25,2022-03-25,合同会社陽葵,,合同会社,愛知県,岡崎市,牧御堂町字花辺１１番地８,,23,202,4440205,,,,,,,2022-03-25,1,,,,,ヒマリ,0
193,1200001039883,新規,0,2022-03-25,2022-03-25,金文産業株式会社,,株式会社,岐阜県,海津市,南濃町上野河戸１０７６番地１,,21,221,5030414,,,,,,,2022-03-25,1,,,,,キンブンサンギョウ,0
198,1260001036669,新規,0,2022-03-25,2022-03-25,ワシントンホールディングス株式会社,,株式会社,岡山県,岡山市北区,平野１０９５番地,,33,101,7010151,,,,,,,2022-03-25,1,,,,,ワシントンホールディングス,0
203,1290001096891,新規,0,2022-03-25,2022-03-25,ＡＧＡＲＵ株式会社,,株式会社,福岡県,福岡市南区,野間２丁目７番１８号,,40,134,8150041,,,,,,,2022-03-25,1,,,,,アガル,0
204,1290001096925,新規,0,2022-03-25,2022-03-25,株式会社ｌｉｆｅｔｉｍｅカンパニー,,株式会社,福岡県,糸島市,本１２８４番地２,,40,230,8191151,,,,,,,2022-03-25,1,,,,,ライフタイムカンパニー,0
205,1290001096933,新規,0,2022-03-25,2022-03-25,株式会社イトヨリ設計,,株式会社,福岡県,福岡市中央区,天神４丁目１番１７号博多天神ビル３階Ｍ号室,,40,133,8100001,,,,,,,2022-03-25,1,,,,,イトヨリセッケイ,0
206,1290001096941,新規,0,2022-03-25,2022-03-25,株式会社ＯＮＮ,,株式会社,福岡県,福岡市中央区,草香江２丁目２番３号,,40,133,8100045,,,,,,,2022-03-25,1,,,,,オーエヌエヌ,0
207,1290003012319,新規,0,2022-03-25,2022-03-25,合同会社ＳＨＩＦＴ,,合同会社,福岡県,福岡市東区,原田１丁目２番７－２０１号アソウリリーフビル,,40,131,8120063,,,,,,,2022-03-25,1,,,,,シフト,0
214,1310003004313,新規,0,2022-03-25,2022-03-25,合同会社Ｂｌｏｏｍ,,合同会社,長崎県,佐世保市,大塔町６３２番地５８,,42,202,8571161,,,,,,,2022-03-25,1,,,,,ブルーム,0
226,1360001030174,新規,0,2022-03-25,2022-03-25,株式会社Ｈプランニング,,株式会社,沖縄県,那覇市,山下町１８番２６－１０１７号山下市街地分譲住宅,,47,201,9000027,,,,,,,2022-03-25,1,,,,,エイチプランニング,0
227,1360003011890,新規,0,2022-03-25,2022-03-25,ＣＥＳ　ＨＶ合同会社,,合同会社,沖縄県,那覇市,松尾１丁目１０番２４号ホークシティ那覇ビル１階,,47,201,9000014,,,,,,,2022-03-25,1,,,,,シーイーエスエイチヴィ,0
230,1370001048348,新規,0,2022-03-25,2022-03-25,株式会社ディンプリィー,,株式会社,宮城県,仙台市泉区,七北田字町３８番地,,04,105,9813131,,,,,,,2022-03-25,1,,,,,ディンプリィー,0
248,1470001019009,新規,0,2022-03-25,2022-03-25,株式会社上里,,株式会社,香川県,高松市,太田下町２１１５番地２,,37,201,7618073,,,,,,,2022-03-25,1,,,,,コウザト,0
252,1500001024079,新規,0,2022-03-25,2022-03-25,株式会社ＨＡＩＮＥ,,株式会社,愛媛県,松山市,久万ノ台乙２４１番地２１,,38,201,7918016,,,,,,,2022-03-25,1,,,,,ハイネ,0
262,2010001225444,新規,0,2022-03-25,2022-03-25,株式会社マンリン,,株式会社,東京都,中央区,日本橋馬喰町１丁目１２番１１－３０２号,,13,102,1030002,,,,,,,2022-03-25,1,,,,,マンリン,0
265,2010003037334,新規,0,2022-03-25,2022-03-25,ＭＥＤｉＳＴＲＡＶＡ　Ｊａｐａｎ合同会社,,合同会社,東京都,千代田区,霞が関３丁目２番６号東京倶楽部ビルディング１１階,,13,101,1000013,,,,,,,2022-03-25,1,,,,,メディストラーヴァジャパン,0
270,2010005034742,新規,0,2022-03-25,2022-03-25,一般財団法人デジタル資産管理機構,,その他の設立登記法人,東京都,千代田区,二番町１－２番町ハイム７１３号,,13,101,1020084,,,,,,,2022-03-25,1,,,,,デジタルシサンカンリキコウ,0
271,2010005034775,新規,0,2022-03-25,2022-03-25,医療法人社団双葵会,,その他の設立登記法人,東京都,中央区,新川２丁目２８番２号メディカルプライム新川６階,,13,102,1040033,,,,,,,2022-03-25,1,,,,,ソウキカイ,0
279,2010401166296,新規,0,2022-03-25,2022-03-25,株式会社ＳＡＬＴＬＡＫＥ,,株式会社,東京都,港区,南青山２丁目２番１５号ＷｉｎＡｏｙａｍａビルＵＣＦ６階,,13,103,1070062,,,,,,,2022-03-25,1,,,,,ソルトレイク,0
280,2010401166338,新規,0,2022-03-25,2022-03-25,株式会社ジョイティブ,,株式会社,東京都,港区,北青山３丁目１２－７カプリース青山６０６,,13,103,1070061,,,,,,,2022-03-25,1,,,,,ジョイティブ,0
288,2010501048618,新規,0,2022-03-25,2022-03-25,株式会社イーグルＨＲＢｉｚ,,株式会社,東京都,台東区,上野１丁目１番１２号,,13,106,1100005,,,,,,,2022-03-25,1,,,,,イーグルエイチアールビズ,0
291,2010601060852,新規,0,2022-03-25,2022-03-25,森博株式会社,,株式会社,東京都,墨田区,文花１丁目３４番１１－１０７号,,13,107,1310044,,,,,,,2022-03-25,1,,,,,シンハク,0
301,2011001146399,新規,0,2022-03-25,2022-03-25,ＷＦＷ株式会社,,株式会社,東京都,渋谷区,宇田川町３番７号ヒューリック渋谷公園通りビル５階－３１ラビレッジ渋谷,,13,113,1500042,,,,,,,2022-03-25,1,,,,,ワフ,0
302,2011001146408,新規,0,2022-03-25,2022-03-25,株式会社ＡＩＭＯ　ＰＨＡＲＭＡ,,株式会社,東京都,渋谷区,道玄坂１丁目１０番８号渋谷道玄坂東急ビル２Ｆ－Ｃ,,13,113,1500043,,,,,,,2022-03-25,1,,,,,アイモファルマ,0
303,2011001146457,新規,0,2022-03-25,2022-03-25,プルーフオブサーチ株式会社,,株式会社,東京都,渋谷区,代々木３丁目１３番６号,,13,113,1510053,,,,,,,2022-03-25,1,,,,,プルーフオブサーチ,0
304,2011001146481,新規,0,2022-03-25,2022-03-25,株式会社ＫＳアーキテクツ,,株式会社,東京都,目黒区,下目黒２丁目２１番２０－Ｎ６１０号,,13,110,1530064,,,,,,,2022-03-25,1,,,,,ケイエスアーキテクツ,0
305,2011001146523,新規,0,2022-03-25,2022-03-25,株式会社Ｎａｓｔｙ　Ｄｏｇ,,株式会社,東京都,渋谷区,東１丁目２６番２０号,,13,113,1500011,,,,,,,2022-03-25,1,,,,,ナスティードック,0
306,2011003014406,新規,0,2022-03-25,2022-03-25,合同会社ＬＭＴＫ,,合同会社,東京都,目黒区,目黒２丁目１０番９号足立方２Ｆ,,13,110,1530063,,,,,,,2022-03-25,1,,,,,エルエムティーケー,0
312,2011101098268,新規,0,2022-03-25,2022-03-25,ＮＯＢＥＬ　ＭＹＡＮＭＡＲ株式会社,,株式会社,東京都,新宿区,高田馬場２丁目１９番７号タックイレブン高田馬場８０９,,13,104,1690075,,,,,,,2022-03-25,1,,,,,ノベルミャンマー,0
320,2011201023729,新規,0,2022-03-25,2022-03-25,株式会社Ｖｏｉｌ,,株式会社,東京都,中野区,中央１丁目１３－８大橋セントラルビル６階,,13,114,1640011,,,,,,,2022-03-25,1,,,,,ヴォイル,0
321,2011203003778,新規,0,2022-03-25,2022-03-25,合同会社ふじいろ,,合同会社,東京都,中野区,上高田３丁目１３番８号,,13,114,1640002,,,,,,,2022-03-25,1,,,,,フジイロ,0
323,2011401024114,新規,0,2022-03-25,2022-03-25,Ｂｕｒ株式会社,,株式会社,東京都,板橋区,蓮根２丁目２７番１２号,,13,119,1740046,,,,,,,2022-03-25,1,,,,,バー,0
334,2012401039003,新規,0,2022-03-25,2022-03-25,礼和実業株式会社,,株式会社,東京都,武蔵野市,境４丁目４－５,,13,203,1800022,,,,,,,2022-03-25,1,,,,,レイワジツギョウ,0
336,2013101008875,新規,0,2022-03-25,2022-03-25,株式会社Ｇｅｎ’Ｚ,,株式会社,東京都,あきる野市,二宮１０９７番地,,13,228,1970814,,,,,,,2022-03-25,1,,,,,ジェンズ,0
341,2013301048861,新規,0,2022-03-25,2022-03-25,楽昌エスベント株式会社,,株式会社,東京都,豊島区,巣鴨４丁目３７番７号,,13,116,1700002,,,,,,,2022-03-25,1,,,,,ラクショウエスベント,0
352,2020003021493,新規,0,2022-03-25,2022-03-25,合同会社ヴァルド,,合同会社,神奈川県,横浜市港北区,大倉山４丁目１１番１－１号,,14,109,2220037,,,,,,,2022-03-25,1,,,,,ヴァルド,0
353,2020005015428,新規,0,2022-03-25,2022-03-25,医療法人社団ＳＵＩ,,その他の設立登記法人,神奈川県,横浜市神奈川区,新子安１丁目３３番１５号グリシーヌ横浜２０１,,14,102,2210013,,,,,,,2022-03-25,1,,,,,スイ,0
354,2021001075515,新規,0,2022-03-25,2022-03-25,株式会社ネクストフィールド,,株式会社,神奈川県,横須賀市,夏島町３番地,,14,201,2370061,,,,,,,2022-03-25,1,,,,,ネクストフィールド,0
363,2030003019082,新規,0,2022-03-25,2022-03-25,合同会社ＮＥＷ　ＳＨＡＮＴＨＡ　ＳＴＯＲＥＳ,,合同会社,埼玉県,新座市,栗原６丁目１４－２中山ハウス１Ａ,,11,230,3520035,,,,,,,2022-03-25,1,,,,,ニューシャンタストア,0
368,2040003019701,新規,0,2022-03-25,2022-03-25,ＡＵＲＡ　ＥＸＰＯＲＴ合同会社,,合同会社,千葉県,成田市,並木町１６５番地１８ノースビレッジＢ－２０１,,12,211,2860045,,,,,,,2022-03-25,1,,,,,アウラエクスポート,0
369,2040003019718,新規,0,2022-03-25,2022-03-25,合同会社カイトネットワークス・アセットマネジメント,,合同会社,千葉県,柏市,手賀の杜４丁目２６番地７,,12,217,2701447,,,,,,,2022-03-25,1,,,,,カイトネットワークスアセットマネジメント,0
370,2040003019742,新規,0,2022-03-25,2022-03-25,ＲＩＪＡＬＩＮＴＥＲＮＡＴＩＯＮＡＬ合同会社,,合同会社,千葉県,松戸市,上本郷２３５１番地の３花台ハイツ２０３号,,12,207,2710064,,,,,,,2022-03-25,1,,,,,リザルインターナショナル,0
379,2070003004428,新規,0,2022-03-25,2022-03-25,合同会社ＣＲＯＳＳＲＯＡＤＳ,,合同会社,群馬県,高崎市,箕郷町上芝３００番地３,,10,202,3703104,,,,,,,2022-03-25,1,,,,,クロスローズ,0
380,2080001024823,新規,0,2022-03-25,2022-03-25,株式会社かえる不動産建築工房,,株式会社,静岡県,静岡市駿河区,下川原南１７－２０ＳＴＩビル２階Ｂ号室,,22,102,4210117,,,,,,,2022-03-25,1,,,,,カエルフドウサンケンチクコウボウ,0
386,2090003002066,新規,0,2022-03-25,2022-03-25,合同会社テイク,,合同会社,山梨県,甲府市,東光寺３丁目１２番２５号,,19,201,4000807,,,,,,,2022-03-25,1,,,,,テイク,0
405,2120003021343,新規,0,2022-03-25,2022-03-25,合同会社つむぐ,,合同会社,大阪府,大阪市北区,中崎西４丁目３番３２号,,27,127,5300015,,,,,,,2022-03-25,1,,,,,ツムグ,0
407,2120101065259,新規,0,2022-03-25,2022-03-25,Ｒ＆Ｄ・ロジスティクス株式会社,,株式会社,大阪府,貝塚市,二色２丁目６番１－３１１号,,27,208,5970091,,,,,,,2022-03-25,1,,,,,アールアンドディロジスティクス,0
408,2120101065283,新規,0,2022-03-25,2022-03-25,日本友和商業管理株式会社,,株式会社,大阪府,阪南市,箱作２８７４番地の８６,,27,232,5990232,,,,,,,2022-03-25,1,,,,,ニホンユウワショウギョウカンリ,0
417,2130001071414,新規,0,2022-03-25,2022-03-25,株式会社Ｆｒｅａｒｅ,,株式会社,京都府,京都市左京区,岩倉花園町４７３番地６,,26,103,6060024,,,,,,,2022-03-25,1,,,,,フレア,0
430,2170001017025,新規,0,2022-03-25,2022-03-25,株式会社ソレイユ,,株式会社,和歌山県,橋本市,上田４８１番１,,30,203,6480024,,,,,,,2022-03-25,1,,,,,ソレイユ,0
442,2180303005288,新規,0,2022-03-25,2022-03-25,合同会社ＢＲＩＤＡＬ　ＣＯＮＣＩＥＲＧＥ　ＹＵ,,合同会社,愛知県,岡崎市,八帖南町２丁目２番地１４,,23,202,4440922,,,,,,,2022-03-25,1,,,,,ブライダルコンシェルジュユー,0
447,2210001003904,新規,0,2022-03-25,2022-03-25,株式会社松本商店,,株式会社,福井県,福井市,浜別所町第１２号６番地,,18,201,9103134,,,,,,,2022-03-25,1,,,,,マツモトショウテン,0
448,2210003001484,新規,0,2022-03-25,2022-03-25,ＰＨＡＭ　ＧＩＡ合同会社,,合同会社,福井県,越前市,国高３丁目第１４号６番地の１,,18,209,9150082,,,,,,,2022-03-25,1,,,,,ファムジャ,0
452,2220001024759,新規,0,2022-03-25,2022-03-25,株式会社カサマセールスプロモーション,,株式会社,石川県,白山市,笠間新１丁目２番地,,17,210,9240062,,,,,,,2022-03-25,1,,,,,カサマセールスプロモーション,0
453,2220003003249,新規,0,2022-03-25,2022-03-25,合同会社ウィクトル,,合同会社,石川県,金沢市,寺地２丁目８番１２号,,17,201,9218178,,,,,,,2022-03-25,1,,,,,ウィクトル,0
468,2250001019467,新規,0,2022-03-25,2022-03-25,株式会社周南開発工業,,株式会社,山口県,周南市,野上町２丁目１６番地,,35,215,7450042,,,,,,,2022-03-25,1,,,,,シュウナンカイハツコウギョウ,0
482,2290001096916,新規,0,2022-03-25,2022-03-25,ウケる株式会社,,株式会社,福岡県,福岡市早良区,百道浜３丁目９番３３－１１０１号,,40,137,8140001,,,,,,,2022-03-25,1,,,,,ウケル,0
483,2290001096924,新規,0,2022-03-25,2022-03-25,株式会社ＬＥＲＩＲＯ,,株式会社,福岡県,うきは市,吉井町１８番地１０,,40,225,8391321,,,,,,,2022-03-25,1,,,,,ルリーロ,0
484,2290001096940,新規,0,2022-03-25,2022-03-25,株式会社タナカカナタ,,株式会社,福岡県,大川市,大字上白垣１１２番地２,,40,212,8310012,,,,,,,2022-03-25,1,,,,,タナカカナタ,0
488,2290805009536,新規,0,2022-03-25,2022-03-25,一般社団法人個人事業主躍進協会,,その他の設立登記法人,福岡県,行橋市,泉中央７丁目８番２８号,,40,213,8240034,,,,,,,2022-03-25,1,,,,,コジンジギョウヌシヤクシンキョウカイ,0
491,2310001017778,新規,0,2022-03-25,2022-03-25,株式会社ハーモニー,,株式会社,長崎県,長崎市,岩屋町２９番３号,,42,201,8528052,,,,,,,2022-03-25,1,,,,,ハーモニー,0
492,2310003004312,新規,0,2022-03-25,2022-03-25,合同会社ＮＡＮＡ,,合同会社,長崎県,大村市,古賀島町４１番地８,,42,205,8560817,,,,,,,2022-03-25,1,,,,,ナナ,0
493,2320001018981,新規,0,2022-03-25,2022-03-25,株式会社Ｄ‐Ｐｏｌｉｃｙ,,株式会社,大分県,大分市,大字横尾３８３７－１サンフローラローズ棟Ｂ１０１号室,,44,201,8700126,,,,,,,2022-03-25,1,,,,,ディーポリシー,0
495,2340001024598,新規,0,2022-03-25,2022-03-25,アンオー株式会社,,株式会社,鹿児島県,鹿児島市,下荒田２丁目１６番１６号,,46,201,8900056,,,,,,,2022-03-25,1,,,,,アンオー,0
496,2340003003740,新規,0,2022-03-25,2022-03-25,合同会社デゼレット興業,,合同会社,鹿児島県,鹿児島市,吉野町７４２番地１２号,,46,201,8920871,,,,,,,2022-03-25,1,,,,,デゼレットコウギョウ,0
498,2360001030149,新規,0,2022-03-25,2022-03-25,農業生産法人株式会社自給自足創造村ちむてぃーち,,株式会社,沖縄県,国頭郡大宜味村,字大保３２６番地２２８,,47,302,9051315,,,,,,,2022-03-25,1,,,,,,0
499,2360001030173,新規,0,2022-03-25,2022-03-25,具志頭工務店株式会社,,株式会社,沖縄県,名護市,字田井等７９７番地,,47,209,9051147,,,,,,,2022-03-25,1,,,,,グシチャンコウムテン,0
500,2370001048339,新規,0,2022-03-25,2022-03-25,株式会社ＯＴＹ,,株式会社,宮城県,仙台市青葉区,小田原５丁目１番５３号第一光洋ビル１０１,,04,101,9800003,,,,,,,2022-03-25,1,,,,,オーティーワイ,0
503,2380001032671,新規,0,2022-03-25,2022-03-25,株式会社アップランドリバイバル,,株式会社,福島県,相馬郡飯舘村,深谷字原２８番地２,,07,564,9601802,,,,,,,2022-03-25,1,,,,,アップランドリバイバル,0
510,2400001015830,新規,0,2022-03-25,2022-03-25,株式会社ぶんぶく,,株式会社,岩手県,紫波郡矢巾町,大字南矢幅第１４地割３５番地１６,,03,322,0283615,,,,,,,2022-03-25,1,,,,,ブンブク,0
512,2410001013123,新規,0,2022-03-25,2022-03-25,株式会社八九六農場,,株式会社,秋田県,鹿角郡小坂町,小坂字岩ノ下１０１番地５,,05,303,0170201,,,,,,,2022-03-25,1,,,,,,0
518,2430001086274,新規,0,2022-03-25,2022-03-25,株式会社ＣＳＣ,,株式会社,北海道,札幌市中央区,南二十二条西９丁目２番２５－１０２号,,01,101,0640922,,,,,,,2022-03-25,1,,,,,シーエスシー,0
525,2430002066911,新規,0,2022-03-25,2022-03-25,有限会社遠藤機械商会,,有限会社,北海道,勇払郡安平町,早来大町７２番地,,01,585,0591501,,,,,,,2022-03-25,1,,,,,エンドウキカイショウカイ,0
533,2500001024078,新規,0,2022-03-25,2022-03-25,株式会社山本工務店,,株式会社,愛媛県,四国中央市,下柏町５４９番地３,,38,213,7990411,,,,,,,2022-03-25,1,,,,,ヤマモトコウムテン,0
535,2700150107497,新規,0,2022-03-25,2022-03-25,Ｒｉｉｉｄ　Ｉｎｃ．,,外国会社等,東京都,中央区,銀座６丁目１０－１ＧｉｎｚａＳｉｘ１３階,,13,102,1040061,大韓民国ソウル特別市江南区テヘラン路５２１、１０階（三城洞、パルナスタワー）,,,,,,2022-03-25,1,,,,,リドインク,0
554,3010001225385,新規,0,2022-03-25,2022-03-25,株式会社Ｋｉｎｏｕ　Ｂｅｔｔｅｒ,,株式会社,東京都,中央区,佃３丁目６－１８－１００１,,13,102,1040051,,,,,,,2022-03-25,1,,,,,キノウベター,0
555,3010001225410,新規,0,2022-03-25,2022-03-25,株式会社キノネ,,株式会社,東京都,千代田区,有楽町１丁目２－２東宝日比谷ビル９Ｆ,,13,101,1000006,,,,,,,2022-03-25,1,,,,,キノネ,0
556,3010001225427,新規,0,2022-03-25,2022-03-25,株式会社笑顔と感謝,,株式会社,東京都,中央区,湊３丁目１２番５号,,13,102,1040043,,,,,,,2022-03-25,1,,,,,エガオトカンシャ,0
557,3010001225443,新規,0,2022-03-25,2022-03-25,ＴＳＭＴ株式会社,,株式会社,東京都,中央区,勝どき２丁目１０番９号,,13,102,1040054,,,,,,,2022-03-25,1,,,,,ティーエスエムティー,0
559,3010003037317,新規,0,2022-03-25,2022-03-25,合同会社オリーブ,,合同会社,東京都,千代田区,霞が関３丁目２番５号,,13,101,1000013,,,,,,,2022-03-25,1,,,,,オリーブ,0
560,3010003037333,新規,0,2022-03-25,2022-03-25,合同会社ヘルスケアアセット・ベータ,,合同会社,東京都,千代田区,平河町２丁目４番５号,,13,101,1020093,,,,,,,2022-03-25,1,,,,,ヘルスケアアセットベータ,0
574,3010401166254,新規,0,2022-03-25,2022-03-25,ｓｙｎｓｃｈｉｓｍｏ株式会社,,株式会社,東京都,港区,六本木４丁目２番４５号高會堂ビル２階,00126065,13,103,1060032,,,,,,,2022-03-25,1,,,,,シンシズモ,0
575,3010401166337,新規,0,2022-03-25,2022-03-25,株式会社ＥＹコンサルタンツ,,株式会社,東京都,港区,南青山６丁目１０番３－１０３号,,13,103,1070062,,,,,,,2022-03-25,1,,,,,イーワイコンサルタンツ,0
577,3010405020845,新規,0,2022-03-25,2022-03-25,医療法人社団喜拓会,,その他の設立登記法人,東京都,港区,三田２丁目７番１２号徳文堂ビル１階,,13,103,1080073,,,,,,,2022-03-25,1,,,,,キヒラカイ,0
581,3010603009459,新規,0,2022-03-25,2022-03-25,合同会社ＮＥＷ・ＷＯＲＬＤ,,合同会社,東京都,江東区,亀戸２丁目６－４－８１２,,13,108,1360071,,,,,,,2022-03-25,1,,,,,ニューワールド,0
584,3010901050569,新規,0,2022-03-25,2022-03-25,株式会社ｚａｋ,,株式会社,東京都,世田谷区,上馬４丁目２５番５－５０１号,,13,112,1540011,,,,,,,2022-03-25,1,,,,,ザック,0
591,3011001146497,新規,0,2022-03-25,2022-03-25,リードグライディング・セミコンダクター株式会社,,株式会社,東京都,渋谷区,恵比寿南３丁目１番１号,,13,113,1500022,,,,,,,2022-03-25,1,,,,,リードグライディングセミコンダクター,0
592,3011001146506,新規,0,2022-03-25,2022-03-25,Ｓｔｅｌｌａ　Ｐａｒｔｎｅｒｓ株式会社,,株式会社,東京都,目黒区,駒場３丁目１番２号,,13,110,1530041,,,,,,,2022-03-25,1,,,,,ステラパートナーズ,0
595,3011003014388,新規,0,2022-03-25,2022-03-25,チームメイク合同会社,,合同会社,東京都,渋谷区,道玄坂１丁目１０番８号渋谷道玄坂東急ビル２Ｆ－Ｃ,,13,113,1500043,,,,,,,2022-03-25,1,,,,,チームメイク,0
596,3011003014413,新規,0,2022-03-25,2022-03-25,ＢＴ＆Ｐ　Ｊａｐａｎ合同会社,,合同会社,東京都,渋谷区,道玄坂１丁目１０番８号渋谷道玄坂東急ビル２Ｆ－Ｃ,,13,113,1500043,,,,,,,2022-03-25,1,,,,,ビーティーアンドピージャパン,0
598,3011101098234,新規,0,2022-03-25,2022-03-25,株式会社ドリームマンパワープロジェクト,,株式会社,東京都,新宿区,信濃町１２－１信濃町ＳＡＮＭＯビル４階,,13,104,1600016,,,,,,,2022-03-25,1,,,,,ドリームマンパワープロジェクト,0
599,3011101098250,新規,0,2022-03-25,2022-03-25,日本直販株式会社,,株式会社,東京都,新宿区,高田馬場１丁目３３番１３号,,13,104,1690075,,,,,,,2022-03-25,1,,,,,ニホンチョクハン,0
600,3011101098267,新規,0,2022-03-25,2022-03-25,株式会社ＣＦソリューションズ,,株式会社,東京都,新宿区,西新宿７丁目４番７号イマス浜田ビル５階,,13,104,1600023,,,,,,,2022-03-25,1,,,,,シーエフソリューションズ,0
610,3011801040494,新規,0,2022-03-25,2022-03-25,リベルテ・マネジメント・インターナショナル株式会社,,株式会社,東京都,葛飾区,青戸４丁目１番１９－１００５号,,13,122,1250062,,,,,,,2022-03-25,1,,,,,リベルテマネジメントインターナショナル,0
611,3012301012926,新規,0,2022-03-25,2022-03-25,信成株式会社,,株式会社,東京都,町田市,南大谷１５５６番地８,,13,209,1940031,,,,,,,2022-03-25,1,,,,,シンセイ,0
617,3013303006098,新規,0,2022-03-25,2022-03-25,合同会社縁,,合同会社,東京都,豊島区,北大塚３丁目３３－４ルーブル大塚伍番館７０４,,13,116,1700004,,,,,,,2022-03-25,1,,,,,エニシ,0
623,3020001145789,新規,0,2022-03-25,2022-03-25,スタートライン株式会社,,株式会社,神奈川県,横浜市神奈川区,神大寺３丁目２２番１５号,,14,102,2210801,,,,,,,2022-03-25,1,,,,,スタートライン,0
624,3020001145797,新規,0,2022-03-25,2022-03-25,株式会社ＮｅｗＣｏｌｏｒ,,株式会社,神奈川県,川崎市多摩区,南生田３丁目７－１１サンハイツ弐番館１０３,,14,135,2140036,,,,,,,2022-03-25,1,,,,,ニューカラー,0
629,3021001075506,新規,0,2022-03-25,2022-03-25,株式会社ワイ・エイチ,,株式会社,神奈川県,横須賀市,長浦町３丁目１１番地,,14,201,2370072,,,,,,,2022-03-25,1,,,,,ワイエイチ,0
641,3030001147396,新規,0,2022-03-25,2022-03-25,阪田株式会社,,株式会社,埼玉県,朝霞市,根岸台３丁目１９番５－６２２号,,11,227,3510005,,,,,,,2022-03-25,1,,,,,サカタ,0
643,3030003019081,新規,0,2022-03-25,2022-03-25,イーストサンド合同会社,,合同会社,埼玉県,桶川市,寿１丁目１５番２５号,,11,231,3630016,,,,,,,2022-03-25,1,,,,,イーストサンド,0
644,3030003019098,新規,0,2022-03-25,2022-03-25,ＩＫＫＹＯ合同会社,,合同会社,埼玉県,朝霞市,本町３丁目７番５２号,,11,227,3510011,,,,,,,2022-03-25,1,,,,,イッキョウ,0
658,3050001050838,新規,0,2022-03-25,2022-03-25,株式会社ショウケン建設,,株式会社,茨城県,神栖市,大野原１丁目４番２２号ガーデン・アイリスＢＯＸ２３,,08,232,3140144,,,,,,,2022-03-25,1,,,,,ショウケンケンセツ,0
659,3050001050846,新規,0,2022-03-25,2022-03-25,株式会社ＭＳＣ,,株式会社,茨城県,守谷市,松並青葉１丁目２－１０,,08,224,3020132,,,,,,,2022-03-25,1,,,,,エムエスシー,0
663,3060005009961,新規,0,2022-03-25,2022-03-25,医療法人恵実会,,その他の設立登記法人,栃木県,宇都宮市,錦１丁目５６５番地１,,09,201,3210967,,,,,,,2022-03-25,1,,,,,ケイジツカイ,0
677,3080401025701,新規,0,2022-03-25,2022-03-25,株式会社Ｆ．Ｄ．Ｍ,,株式会社,静岡県,浜松市浜北区,東美薗２０３番地の１みなとビル２階,,22,136,4340026,,,,,,,2022-03-25,1,,,,,エフディーエム,0
682,3080403004496,新規,0,2022-03-25,2022-03-25,合同会社Ｍ＆Ｍ,,合同会社,静岡県,磐田市,蛭池２４１番地５,,22,211,4371207,,,,,,,2022-03-25,1,,,,,エムアンドエム,0
686,3100001035189,新規,0,2022-03-25,2022-03-25,丸山設備株式会社,,株式会社,長野県,長野市,川中島町四ツ屋１０８５番地７,,20,201,3812231,,,,,,,2022-03-25,1,,,,,マルヤマセツビ,0
699,3120001244597,新規,0,2022-03-25,2022-03-25,生和株式会社,,株式会社,大阪府,大阪市都島区,都島本通４丁目８番２７－１３０２号,,27,102,5340021,,,,,,,2022-03-25,1,,,,,セイワ,0
700,3120001244630,新規,0,2022-03-25,2022-03-25,株式会社へいわじゃぱん,,株式会社,大阪府,大阪市淀川区,西宮原２丁目５番４６,,27,123,5320004,,,,,,,2022-03-25,1,,,,,ヘイワジャパン,0
701,3120001244647,新規,0,2022-03-25,2022-03-25,株式会社ビッグウェーブインターナショナル,,株式会社,大阪府,大阪市北区,西天満４丁目１５番１８－１０１２号,,27,127,5300047,,,,,,,2022-03-25,1,,,,,ビッグウェーブインターナショナル,0
702,3120003021326,新規,0,2022-03-25,2022-03-25,合同会社ＨＩＲＯ,,合同会社,大阪府,大阪市中央区,南久宝寺町３丁目３番１４号,,27,128,5410058,,,,,,,2022-03-25,1,,,,,ヒロ,0
703,3120101065282,新規,0,2022-03-25,2022-03-25,株式会社介護センターゆき,,株式会社,大阪府,岸和田市,大手町８番１８号ＳｔａｇｅＯｈｔｅ１０１号室,,27,202,5960063,,,,,,,2022-03-25,1,,,,,カイゴセンターユキ,0
704,3120901045764,新規,0,2022-03-25,2022-03-25,株式会社Ｕ＆Ｈ,,株式会社,大阪府,茨木市,島２丁目６番４５号,,27,211,5670854,,,,,,,2022-03-25,1,,,,,ユーアンドエイチ,0
706,3122001035704,新規,0,2022-03-25,2022-03-25,株式会社Ｑｕｉｃｋ　Ｏｒｄｅｒ,,株式会社,大阪府,東大阪市,大蓮南５丁目６番１号,,27,227,5770825,,,,,,,2022-03-25,1,,,,,クイックオーダー,0
716,3140001125325,新規,0,2022-03-25,2022-03-25,株式会社Ｊｏｕｒｎｅｙ,,株式会社,兵庫県,尼崎市,東塚口町一丁目７番１－３０８号,00126037,28,202,6600000,,,,,,,2022-03-25,1,,,,,ジャーニー,0
717,3140001125382,新規,0,2022-03-25,2022-03-25,株式会社ＡＺＣ,,株式会社,兵庫県,姫路市,飾磨区今在家２丁目４７番地１Ｆ,,28,201,6728079,,,,,,,2022-03-25,1,,,,,エーゼットシー,0
722,3140003017479,新規,0,2022-03-25,2022-03-25,合同会社ｆｉｌｅｒ,,合同会社,兵庫県,丹波篠山市,黒岡６０番地２,,28,221,6692321,,,,,,,2022-03-25,1,,,,,フィレール,0
738,3200003005502,新規,0,2022-03-25,2022-03-25,Ｄ＆Ｒエンタープライズ合同会社,,合同会社,岐阜県,岐阜市,岩崎１１５１番地１ドゥナーレ長良ＩＩＩ５０５号室,00126059,21,201,5020005,,,,,,,2022-03-25,1,,,,,ディアンドアールエンタープライズ,0
739,3200003005510,新規,0,2022-03-25,2022-03-25,合同会社アイズ,,合同会社,岐阜県,中津川市,千旦林１４１５番地の１０,,21,206,5099131,,,,,,,2022-03-25,1,,,,,アイズ,0
744,3230001019286,新規,0,2022-03-25,2022-03-25,株式会社Ｇ＆Ｇパズルワークス,,株式会社,富山県,富山市,堀川町３００番地セ・モンテビル２０７号,,16,201,9398072,,,,,,,2022-03-25,1,,,,,ジーアンドジーパズルワークス,0
751,3240001059496,新規,0,2022-03-25,2022-03-25,株式会社リンクス,,株式会社,広島県,広島市安佐南区,高取北３丁目１４番８０－１０１号,,34,105,7310144,,,,,,,2022-03-25,1,,,,,リンクス,0
755,3260001036667,新規,0,2022-03-25,2022-03-25,株式会社アイセンス,,株式会社,岡山県,岡山市北区,天瀬南町７番１号,,33,101,7000834,,,,,,,2022-03-25,1,,,,,アイセンス,0
756,3260003003855,新規,0,2022-03-25,2022-03-25,合同会社コントレイル,,合同会社,岡山県,岡山市北区,東古松５丁目１番３２号サーパス大元公園レジデンス７０５号,,33,101,7000921,,,,,,,2022-03-25,1,,,,,,0
757,3260005011055,新規,0,2022-03-25,2022-03-25,一般社団法人Ｔｈｉｎｋｒｏ　ｇｏｌｆジュニアアカデミー,,その他の設立登記法人,岡山県,倉敷市,児島下の町３丁目１４番８２号,,33,202,7110906,,,,,,,2022-03-25,1,,,,,ティンクロゴルフジュニアアカデミー,0
763,3290001096923,新規,0,2022-03-25,2022-03-25,株式会社デンソーテクニカ,,株式会社,福岡県,福岡市東区,社領２丁目１番１号,,40,131,8120068,,,,,,,2022-03-25,1,,,,,デンソーテクニカ,0
769,3290003012309,新規,0,2022-03-25,2022-03-25,合同会社ワールドライフ,,合同会社,福岡県,久留米市,宮ノ陣２丁目１番２７号,,40,203,8390801,,,,,,,2022-03-25,1,,,,,ワールドライフ,0
773,3300001012853,新規,0,2022-03-25,2022-03-25,永池ＩＣＴ‐ＬＡＢ株式会社,,株式会社,佐賀県,佐賀市,高木瀬町大字東高木２６２番地１,,41,201,8490916,,,,,,,2022-03-25,1,,,,,ナガイケアイシーティーラボ,0
776,3320001018980,新規,0,2022-03-25,2022-03-25,株式会社松下コーポレーション,,株式会社,大分県,大分市,大字横尾字北一ノ谷１６１１番地の３,,44,201,8700126,,,,,,,2022-03-25,1,,,,,マツシタコーポレーション,0
778,3360003011889,新規,0,2022-03-25,2022-03-25,ＣＥＳ大分太陽光発電所合同会社,,合同会社,沖縄県,那覇市,松尾１丁目１０番２４号ホークシティ那覇ビル１階,,47,201,9000014,,,,,,,2022-03-25,1,,,,,シーイーエスオオイタタイヨウコウハツデンショ,0
782,3370005010459,新規,0,2022-03-25,2022-03-25,特定非営利活動法人あいのて協働社,,その他の設立登記法人,宮城県,仙台市太白区,柳生字稲荷４３番地の１２,,04,104,9811106,,,,,,,2022-03-25,1,,,,,アイノテキョウドウシャ,0
790,3390003001937,新規,0,2022-03-25,2022-03-25,合同会社ＫＩＴ,,合同会社,山形県,山形市,久保田１丁目１番２８号,,06,201,9902482,,,,,,,2022-03-25,1,,,,,ケーアイティー,0
794,3420003002485,新規,0,2022-03-25,2022-03-25,石戸ビジネスサービス合同会社,,合同会社,青森県,青森市,沖館５丁目１２番４７号,,02,201,0380002,,,,,,,2022-03-25,1,,,,,イシトビジネスサービス,0
795,3430003013738,新規,0,2022-03-25,2022-03-25,合同会社Ａ＆Ｅ,,合同会社,北海道,札幌市北区,東茨戸一条１丁目８番１２号,,01,102,0028041,,,,,,,2022-03-25,1,,,,,エイアンドイー,0
800,3460101007168,新規,0,2022-03-25,2022-03-25,株式会社Ｎｅｗ　Ｐａｎ　Ｈｏｋｋａｉｄｏ,,株式会社,北海道,帯広市,西十八条南５丁目４７番地５,,01,207,0800028,,,,,,,2022-03-25,1,,,,,ニューパンホッカイドウ,0
803,3460401001242,新規,0,2022-03-25,2022-03-25,株式会社スミショー,,株式会社,北海道,根室市,西浜町９丁目３２番地,,01,223,0870025,,,,,,,2022-03-25,1,,,,,スミショー,0
804,3700150107513,新規,0,2022-03-25,2022-03-25,辻堂新町町内会,,その他,神奈川県,藤沢市,辻堂新町１丁目３番１０号,,14,205,2510042,,,,,,,2022-03-25,1,,,,,ツジドウシンマチチョウナイカイ,0
812,4010001225459,新規,0,2022-03-25,2022-03-25,株式会社ＴＨＥ　ＦＵＮＧＵ,,株式会社,東京都,中央区,銀座１丁目２２番１１号銀座大竹ビジデンス２階,,13,102,1040061,,,,,,,2022-03-25,1,,,,,ザファング,0
817,4010003037316,新規,0,2022-03-25,2022-03-25,Ｃｙｖａｔｅ合同会社,,合同会社,東京都,中央区,銀座１丁目２２番１１号銀座大竹ビジデンス２Ｆ,,13,102,1040061,,,,,,,2022-03-25,1,,,,,サイベイト,0
818,4010003037332,新規,0,2022-03-25,2022-03-25,フォーストーンズ合同会社,,合同会社,東京都,中央区,日本橋浜町３丁目３４番６―１０２号,,13,102,1030007,,,,,,,2022-03-25,1,,,,,フォーストーンズ,0
828,4010403027115,新規,0,2022-03-25,2022-03-25,ＳＨＩＮＡＴＯＳ合同会社,,合同会社,東京都,港区,南青山２丁目２番１５号,,13,103,1070062,,,,,,,2022-03-25,1,,,,,シナトス,0
830,4010405020836,新規,0,2022-03-25,2022-03-25,一般社団法人日本パラフェンシング協会,,その他の設立登記法人,東京都,港区,赤坂１丁目２－２日本財団ビル４階,,13,103,1070052,,,,,,,2022-03-25,1,,,,,ニホンパラフェンシングキョウカイ,0
831,4010405020844,新規,0,2022-03-25,2022-03-25,ジャパンインフラホールディングス２０号一般社団法人,,その他の設立登記法人,東京都,港区,元赤坂１丁目１番７号,,13,103,1070051,,,,,,,2022-03-25,1,,,,,ジャパンインフラホールディングスニジュウゴウ,0
850,4011001146455,新規,0,2022-03-25,2022-03-25,株式会社中西屋企画,,株式会社,東京都,渋谷区,恵比寿１丁目２１番１４号,,13,113,1500013,,,,,,,2022-03-25,1,,,,,ナカニシヤキカク,0
851,4011001146488,新規,0,2022-03-25,2022-03-25,好生堂株式会社,,株式会社,東京都,渋谷区,広尾１丁目１６ー３ルモン広尾４０６,,13,113,1500012,,,,,,,2022-03-25,1,,,,,コウセイドウ,0
854,4011101098233,新規,0,2022-03-25,2022-03-25,株式会社ＭＵ,,株式会社,東京都,新宿区,上落合１丁目１５番７号－２１０,,13,104,1610034,,,,,,,2022-03-25,1,,,,,エムユ,0
855,4011101098258,新規,0,2022-03-25,2022-03-25,株式会社ＬＡＮＤＳ,,株式会社,東京都,新宿区,新宿４丁目２番７号Ｃｉｅｌ新宿２階－Ｅ室,,13,104,1600022,,,,,,,2022-03-25,1,,,,,ランズ,0
856,4011101098266,新規,0,2022-03-25,2022-03-25,株式会社洋林商事,,株式会社,東京都,新宿区,高田馬場２丁目６－１０高田馬場アドレス４０１室,,13,104,1690075,,,,,,,2022-03-25,1,,,,,ヨウリンショウジ,0
857,4011103011607,新規,0,2022-03-25,2022-03-25,合同会社にゃー,,合同会社,東京都,新宿区,四谷坂町１１番５－２０５号,,13,104,1600002,,,,,,,2022-03-25,1,,,,,ニャー,0
863,4011301027660,新規,0,2022-03-25,2022-03-25,株式会社Ａｃｔｉｖｅ　Ａｎｇｅｌｓ,,株式会社,東京都,杉並区,今川４丁目２０番１１号パフィオヒルズ柿の木台４０１,,13,115,1670035,,,,,,,2022-03-25,1,,,,,アクティブエンジェル,0
866,4011501027873,新規,0,2022-03-25,2022-03-25,ＫＡＵＮＧ　ＳＯＮＧ株式会社,,株式会社,東京都,荒川区,西日暮里５丁目１８番１１号パーク２ビル３Ｆ,,13,118,1160013,,,,,,,2022-03-25,1,,,,,カウンソン,0
873,4012301012933,新規,0,2022-03-25,2022-03-25,株式会社Ｙｏｕ　Ｔｉｍｅ,,株式会社,東京都,町田市,西成瀬１丁目４１番４号,,13,209,1940046,,,,,,,2022-03-25,1,,,,,ユータイム,0
875,4012803002738,新規,0,2022-03-25,2022-03-25,合同会社日高,00126061,合同会社,東京都,昭島市,中神町１２８２番地都営中神第２アパート２棟２０４号,,13,207,1960022,,,,,,,2022-03-25,1,,,,,ヒダカ,0
879,4013303006097,新規,0,2022-03-25,2022-03-25,珠望合同会社,,合同会社,東京都,豊島区,巣鴨３丁目４番９号,,13,116,1700002,,,,,,,2022-03-25,1,,,,,ジュボウ,0
900,4030001147379,新規,0,2022-03-25,2022-03-25,Ｅ‐ｄｒｅａｍ株式会社,,株式会社,埼玉県,川口市,東領家１丁目２１番４号,,11,203,3320003,,,,,,,2022-03-25,1,,,,,イードリーム,0
901,4030001147387,新規,0,2022-03-25,2022-03-25,株式会社ＡＲＳＬＡＮトレーディング,,株式会社,埼玉県,川越市,大字中福９０３番地２,,11,201,3501156,,,,,,,2022-03-25,1,,,,,アルスラーントレーディング,0
908,4030003019080,新規,0,2022-03-25,2022-03-25,ＺＡＲＡ合同会社,,合同会社,埼玉県,越谷市,蒲生茜町４０番地１,,11,222,3430843,,,,,,,2022-03-25,1,,,,,ザラ,0
909,4030003019089,新規,0,2022-03-25,2022-03-25,合同会社坂西,,合同会社,埼玉県,川口市,大字里９５８番地の１コンフォール西鳩ケ谷２－５０６号,,11,203,3340005,,,,,,,2022-03-25,1,,,,,バンザイ,0
910,4040001122711,新規,0,2022-03-25,2022-03-25,株式会社今村石材店,,株式会社,千葉県,松戸市,河原塚４００番地の７,,12,207,2702254,,,,,,,2022-03-25,1,,,,,イマムラセキザイテン,0
913,4040003019724,新規,0,2022-03-25,2022-03-25,合同会社スカイタウンＲ,,合同会社,千葉県,柏市,十余二３３７番地４１７スカイタウンＲ２－１０１号,,12,217,2770872,,,,,,,2022-03-25,1,,,,,スカイタウンアール,0
920,4050001050845,新規,0,2022-03-25,2022-03-25,株式会社ＢＲＯＴＨＥＲＳ　ＴＲＡＤＩＮＧ,,株式会社,茨城県,筑西市,玉戸１３０９番地５５大吉亭１０７,,08,227,3080847,,,,,,,2022-03-25,1,,,,,ブラザーズトレーディング,0
921,4050003006449,新規,0,2022-03-25,2022-03-25,合同会社一清,,合同会社,茨城県,神栖市,深芝南５丁目６番地８,,08,232,3140142,,,,,,,2022-03-25,1,,,,,イッセイ,0
930,4080403004495,新規,0,2022-03-25,2022-03-25,合同会社ＩＫＣ,,合同会社,静岡県,浜松市中区,中島４丁目３番２２号,,22,131,4300856,,,,,,,2022-03-25,1,,,,,アイケーシー,0
932,4100003006468,新規,0,2022-03-25,2022-03-25,合同会社ｓｕｃｋ＆ｓｐｉｔ,,合同会社,長野県,長野市,大字南長野北石堂町１１８４－２,,20,201,3800826,,,,,,,2022-03-25,1,,,,,サックアンドスピット,0
947,4120001244605,新規,0,2022-03-25,2022-03-25,パーソナル不動産株式会社,,株式会社,大阪府,大阪市北区,天神橋３丁目８番９号新末広ビル８０１,,27,127,5300041,,,,,,,2022-03-25,1,,,,,パーソナルフドウサン,0
948,4120001244646,新規,0,2022-03-25,2022-03-25,株式会社Ｎｅｏ　ｆｒｏｎｔｉｅｒ,,株式会社,大阪府,大阪市旭区,生江１丁目２番２０号３階,,27,117,5350004,,,,,,,2022-03-25,1,,,,,ネオフロンティア,0
949,4120001244654,新規,0,2022-03-25,2022-03-25,株式会社ＧＥＮＳ　ＰＡＲＥＳＳＥＵＸ,,株式会社,大阪府,大阪市此花区,春日出北１丁目３番７号,,27,104,5540021,,,,,,,2022-03-25,1,,,,,ジェンズパレンス,0
950,4120001244670,新規,0,2022-03-25,2022-03-25,株式会社ｆｉｎａｌｌｙ,,株式会社,大阪府,大阪市平野区,平野上町１丁目６番５－１０１号,,27,126,5470045,,,,,,,2022-03-25,1,,,,,ファイナリー,0
951,4120001244687,新規,0,2022-03-25,2022-03-25,株式会社アールズ,,株式会社,大阪府,大阪市城東区,関目１丁目１９番１８－６０７号,,27,118,5360008,,,,,,,2022-03-25,1,,,,,アールズ,0
956,4120003021325,新規,0,2022-03-25,2022-03-25,合同会社ＰＡＲＴＮＥＲＳ,,合同会社,大阪府,大阪市中央区,島之内２丁目６番３５号,,27,128,5420082,,,,,,,2022-03-25,1,,,,,パートナーズ,0
957,4120003021333,新規,0,2022-03-25,2022-03-25,合同会社２９５１,,合同会社,大阪府,大阪市港区,夕凪２丁目１７番５号３０５号室,,27,107,5520004,,,,,,,2022-03-25,1,,,,,ニーキューゴーイチ,0
973,4130001071404,新規,0,2022-03-25,2022-03-25,ＦＬＯＲＡＣＩＯＮ　ＢＡＥＫ株式会社,,株式会社,京都府,京都市下京区,五条通り油小路東入る金東横町２３９番地,,26,106,6000000,,,,,,,2022-03-25,1,,,,,フロラシオンベック,0
984,4140001125365,新規,0,2022-03-25,2022-03-25,株式会社久遠,,株式会社,兵庫県,宍粟市,千種町西河内１５８２番地１６,,28,227,6713233,,,,,,,2022-03-25,1,,,,,クオン,0
986,4140005026089,新規,0,2022-03-25,2022-03-25,一般社団法人ＹＭ脳機能研究所,,その他の設立登記法人,兵庫県,西宮市,高松町４番８号プレラにしのみや３Ｆ,,28,204,6638204,,,,,,,2022-03-25,1,,,,,ワイエムノウキノウケンキュウジョ,0
992,4170001017023,新規,0,2022-03-25,2022-03-25,株式会社未来太田農園,,株式会社,和歌山県,和歌山市,杉ノ馬場２丁目５１番地,,30,201,6408212,,,,,,,2022-03-25,1,,,,,ミライオオタノウエン,0
1000,4180001150500,新規,0,2022-03-25,2022-03-25,株式会社中川組,,株式会社,愛知県,瀬戸市,上之山町２丁目１７１番地の２９２,,23,204,4890964,,,,,,,2022-03-25,1,,,,,ナカガワグミ,0
1001,4180001150509,新規,0,2022-03-25,2022-03-25,株式会社ジョブクエスト,,株式会社,愛知県,一宮市,文京１丁目４番１４号ハイツかえで１０２号,,23,203,4910041,,,,,,,2022-03-25,1,,,,,ジョブクエスト,0
1007,4180003023646,新規,0,2022-03-25,2022-03-25,合同会社アールエス,,合同会社,愛知県,名古屋市瑞穂区,内方町２丁目５５番地－２,,23,108,4670068,,,,,,,2022-03-25,1,,,,,アールエス,0
1009,4180301036044,新規,0,2022-03-25,2022-03-25,株式会社中央冷熱,,株式会社,愛知県,刈谷市,寿町４丁目１０３番地,,23,210,4480856,,,,,,,2022-03-25,1,,,,,チュウオウレイネツ,0
1022,4260003003854,新規,0,2022-03-25,2022-03-25,ＦＯＯＤ２．０合同会社,,合同会社,岡山県,倉敷市,真備町尾崎１３８７－２,,33,202,7101304,,,,,,,2022-03-25,1,,,,,,0
1023,4260005011054,新規,0,2022-03-25,2022-03-25,一般社団法人ハンセンボランティアゆいの会,,その他の設立登記法人,岡山県,岡山市北区,弓之町１番１７号五藤ビル４階,,33,101,7000817,,,,,,,2022-03-25,1,,,,,ハンセンボランティアユイノカイ,0
1032,4290001096914,新規,0,2022-03-25,2022-03-25,ＳＨＪ　ＦＯＯＤ株式会社,,株式会社,福岡県,福岡市中央区,薬院４丁目８番３号,,40,133,8100022,,,,,,,2022-03-25,1,,,,,エスエイチジェイフード,0
1033,4290001096939,新規,0,2022-03-25,2022-03-25,株式会社Ｒｓｔｙｌｅ,,株式会社,福岡県,福岡市中央区,警固２丁目１６番３０－７０１号パークホームズ警固本通り,,40,133,8100023,,,,,,,2022-03-25,1,,,,,アールスタイル,0
1050,4360001030163,新規,0,2022-03-25,2022-03-25,株式会社ジャパンリーグ,,株式会社,沖縄県,那覇市,樋川２丁目３－１,,47,201,9000022,,,,,,,2022-03-25,1,,,,,ジャパンリーグ,0
1051,4360001030171,新規,0,2022-03-25,2022-03-25,株式会社ＢＵＤＤＹ,,株式会社,沖縄県,うるま市,字赤道６８９番地１０,,47,213,9042245,,,,,,,2022-03-25,1,,,,,バディー,0
1052,4360003011896,新規,0,2022-03-25,2022-03-25,合同会社未来,,合同会社,沖縄県,那覇市,古波蔵２丁目１５番１号古波蔵アパート１０２,,47,201,9000024,,,,,,,2022-03-25,1,,,,,ミライ,0
1056,4370001048353,新規,0,2022-03-25,2022-03-25,株式会社Ｍ企画,,株式会社,宮城県,仙台市泉区,館１丁目３５番地の６,,04,105,9813214,,,,,,,2022-03-25,1,,,,,エムキカク,0
1069,4420001017773,新規,0,2022-03-25,2022-03-25,株式会社ＫＴファイナンス,,株式会社,青森県,八戸市,青葉３丁目２３番２０号,,02,203,0310804,,,,,,,2022-03-25,1,,,,,ケイティファイナンス,0
1071,4430001086272,新規,0,2022-03-25,2022-03-25,農業法人株式会社百ＳＨＯＷ‐ＹＡ,,株式会社,北海道,札幌市北区,北四十条西５丁目５番２０号石橋ビル,,01,102,0010040,,,,,,,2022-03-25,1,,,,,ノウギョウホウジンヒャクショウヤ,0
1080,4500003002798,新規,0,2022-03-25,2022-03-25,合同会社ｙｄｍｏ,,合同会社,愛媛県,松山市,千舟町５丁目３番１７号,,38,201,7900011,,,,,,,2022-03-25,1,,,,,ワイディーエムオー,0
1081,5010001004580,新規,0,2022-03-25,2022-03-25,株式会社太平社印刷所,,株式会社,東京都,文京区,湯島３丁目３３番４号,,13,105,1130034,,,,,,,2022-03-25,1,,,,,タイヘイシャインサツジョ,0
1099,5010003037281,新規,0,2022-03-25,2022-03-25,ＳＡＲＩＫＡ合同会社,,合同会社,東京都,文京区,本郷２丁目１７番５ツイン壱岐坂４０８,,13,105,1130033,,,,,,,2022-03-25,1,,,,,サリカ,0
1110,5010401166335,新規,0,2022-03-25,2022-03-25,ＴＭＩヘルスケアコンサルティング株式会社,,株式会社,東京都,港区,六本木６丁目１０番１号六本木ヒルズ森タワー２３階,,13,103,1060032,,,,,,,2022-03-25,1,,,,,ティーエムアイヘルスケアコンサルティング,0
1112,5010501048615,新規,0,2022-03-25,2022-03-25,株式会社ゆき庵,,株式会社,東京都,台東区,上野５丁目２４番２号奥村ビルＢ１Ｆ,,13,106,1100005,,,,,,,2022-03-25,1,,,,,ユキアン,0
1118,5010601060874,新規,0,2022-03-25,2022-03-25,株式会社潮先ゲーミング,,株式会社,東京都,墨田区,文花１丁目３４番１１－４１０号,,13,107,1310044,,,,,,,2022-03-25,1,,,,,シオサキゲーミング,0
1122,5010703006172,新規,0,2022-03-25,2022-03-25,合同会社ＷＷＢソーラー０３,,合同会社,東京都,品川区,東品川２丁目２番４号天王洲ファーストタワー５階,,13,109,1400002,,,,,,,2022-03-25,1,,,,,ダブルダブルビーソーラーゼロスリー,0
1130,5010905004288,新規,0,2022-03-25,2022-03-25,特定非営利活動法人月面脱兎社,,その他の設立登記法人,東京都,世田谷区,下馬６丁目３０番１４号,,13,112,1540002,,,,,,,2022-03-25,1,,,,,ゲツメンダットシャ,0
1139,5011001146487,新規,0,2022-03-25,2022-03-25,株式会社Ｐｅｎｅｔｒａｔｅ,,株式会社,東京都,渋谷区,千駄ヶ谷３丁目３番５号５５スカイビル１階,,13,113,1510051,,,,,,,2022-03-25,1,,,,,ペネトレイト,0
1140,5011001146495,新規,0,2022-03-25,2022-03-25,株式会社サニーブレイブアップ,,株式会社,東京都,渋谷区,渋谷３丁目２６番１６号第五叶ビル５階,,13,113,1500002,,,,,,,2022-03-25,1,,,,,サニーブレイブアップ,0
1141,5011001146512,新規,0,2022-03-25,2022-03-25,ＭＫシティー株式会社,,株式会社,東京都,目黒区,自由が丘１丁目１２番３号第二元太ビル３Ｆ,,13,110,1520035,,,,,,,2022-03-25,1,,,,,エムケイシティー,0
1142,5011003014378,新規,0,2022-03-25,2022-03-25,ＫＲＡＦＴＳ＆Ｃｏ．合同会社,,合同会社,東京都,渋谷区,道玄坂１丁目１０番８号渋谷道玄坂東急ビル２Ｆ－Ｃ,,13,113,1500043,,,,,,,2022-03-25,1,,,,,クラフツアンドコー,0
1143,5011003014411,新規,0,2022-03-25,2022-03-25,ＬＥＦＦ合同会社,,合同会社,東京都,渋谷区,恵比寿３丁目７番３号大倉ビル１Ｆ,,13,113,1500013,,,,,,,2022-03-25,1,,,,,レフ,0
1147,5011101098216,新規,0,2022-03-25,2022-03-25,株式会社ＯＦＦＩＣＥ球根,,株式会社,東京都,新宿区,横寺町３６神楽坂富士ハイム１０３,,13,104,1620831,,,,,,,2022-03-25,1,,,,,オフィスキュウコン,0
1148,5011101098249,新規,0,2022-03-25,2022-03-25,株式会社ｎ．ＣＨ　Ｅｎｔｅｒｔａｉｎｍｅｎｔ　Ｊａｐａｎ,,株式会社,東京都,新宿区,歌舞伎町２丁目４番１０号ＫＤＸ東新宿ビル８階,,13,104,1600021,,,,,,,2022-03-25,1,,,,,エヌシーエッチエンターテイメントジャパン,0
1149,5011101098265,新規,0,2022-03-25,2022-03-25,ＴＮＰ株式会社,,株式会社,東京都,新宿区,西新宿８丁目２番２０号,,13,104,1600023,,,,,,,2022-03-25,1,,,,,ティーエヌピー,0
1151,5011103011597,新規,0,2022-03-25,2022-03-25,合同会社ＥＲＩＴ,,合同会社,東京都,新宿区,下落合３丁目８番１３号コアプラス目白３２,,13,104,1610033,,,,,,,2022-03-25,1,,,,,エリット,0
1161,5011801040492,新規,0,2022-03-25,2022-03-25,株式会社キャリコ,,株式会社,東京都,足立区,伊興４丁目１－３２アルシオン竹ノ塚２０４号,,13,121,1210823,,,,,,,2022-03-25,1,,,,,キャリコ,0
1162,5011803005023,新規,0,2022-03-25,2022-03-25,合同会社ハマウズ,,合同会社,東京都,足立区,扇３丁目２－１６－Ｂ１０２,,13,121,1230873,,,,,,,2022-03-25,1,,,,,ハマウズ,0
1163,5012301012916,新規,0,2022-03-25,2022-03-25,株式会社ＭＯＫＡ３,,株式会社,東京都,町田市,図師町５７５番地１５,,13,209,1940203,,,,,,,2022-03-25,1,,,,,モカサン,0
1164,5012301012932,新規,0,2022-03-25,2022-03-25,株式会社一個人出版,,株式会社,東京都,町田市,中町３丁目４番１７号,,13,209,1940021,,,,,,,2022-03-25,1,,,,,イッコジンシュッパン,0
1165,5012403005297,新規,0,2022-03-25,2022-03-25,合同会社Ｍｅｍｅ,,合同会社,東京都,調布市,菊野台２丁目５７番地１９,,13,208,1820007,,,,,,,2022-03-25,1,,,,,ミーム,0
1172,5013301048826,新規,0,2022-03-25,2022-03-25,株式会社Ｅａｔｂｙｈａｎｄ,,株式会社,東京都,豊島区,東池袋１丁目１７－１１パークハイツ池袋１１０５,,13,116,1700013,,,,,,,2022-03-25,1,,,,,イートバイハンド,0
1173,5013301048834,新規,0,2022-03-25,2022-03-25,株式会社Ａｌｐｈａ　Ｓｉｇｎａｌ,,株式会社,東京都,豊島区,東池袋４丁目２１番１－２７０２号,,13,116,1700013,,,,,,,2022-03-25,1,,,,,アルファシグナル,0
1174,5013303006096,新規,0,2022-03-25,2022-03-25,合同会社ライベリー,,合同会社,東京都,豊島区,東池袋１丁目３４番５号いちご東池袋ビル６階,,13,116,1700013,,,,,,,2022-03-25,1,,,,,ライベリー,0
1180,5020001145746,新規,0,2022-03-25,2022-03-25,株式会社パイプドクター,,株式会社,神奈川県,横浜市港北区,大豆戸町９６４番地１フェンテ大倉山１０４,,14,109,2220032,,,,,,,2022-03-25,1,,,,,パイプドクター,0
1181,5020001145804,新規,0,2022-03-25,2022-03-25,日本ワイセキュアテクノロジーズ株式会社,,株式会社,神奈川県,横浜市港北区,新横浜３丁目１７番１２号,,14,109,2220033,,,,,,,2022-03-25,1,,,,,ニホンワイセキュアテクノロジーズ,0
1189,5021001075495,新規,0,2022-03-25,2022-03-25,Ｗｉｎｔｈｒｅｅ　Ｉｎｖｅｓｔｍｅｎｔ株式会社,,株式会社,神奈川県,相模原市南区,相模大野２丁目１２－１２パレステージ相模大野テラス５０４号,,14,153,2520303,,,,,,,2022-03-25,1,,,,,ウィンスリーインベストメント,0
1190,5021001075504,新規,0,2022-03-25,2022-03-25,株式会社Ｌｉｖｉｎｇ＆ｃｏ．,,株式会社,神奈川県,平塚市,南原１丁目３番２９号,,14,203,2540065,,,,,,,2022-03-25,1,,,,,リビングアンドコ,0
1192,5021005012461,新規,0,2022-03-25,2022-03-25,医療法人しおのいり内科,,その他の設立登記法人,神奈川県,鎌倉市,大船３丁目１番３号セイショウナンビル４階,,14,204,2470056,,,,,,,2022-03-25,1,,,,,シオノイリナイカ,0
1200,5030001147394,新規,0,2022-03-25,2022-03-25,株式会社ＡＳＫＡ,,株式会社,埼玉県,さいたま市岩槻区,東町２丁目１番８号,,11,110,3390055,,,,,,,2022-03-25,1,,,,,アスカ,0
1201,5030001147403,新規,0,2022-03-25,2022-03-25,ＳＭＴシステムズ株式会社,,株式会社,埼玉県,久喜市,南栗橋５丁目１９－１２,,11,232,3491117,,,,,,,2022-03-25,1,,,,,エスエムティーシステムズ,0
1202,5030003019055,新規,0,2022-03-25,2022-03-25,ＡＪ　ＣＯＲＰＯＲＡＴＩＯＮ合同会社,,合同会社,埼玉県,南埼玉郡宮代町,中央２丁目９－１４,,11,442,3450821,,,,,,,2022-03-25,1,,,,,エージェイコーポレーション,0
1203,5030003019088,新規,0,2022-03-25,2022-03-25,合同会社神尾未来塾,,合同会社,埼玉県,川口市,朝日６丁目１７番１－１０５号エンゼルハイム,,11,203,3320001,,,,,,,2022-03-25,1,,,,,カミオミライジュク,0
1205,5030005020770,新規,0,2022-03-25,2022-03-25,クロスブリッジ協同組合,,その他の設立登記法人,埼玉県,さいたま市南区,大字太田窪２８５９番地,,11,108,3360015,,,,,,,2022-03-25,1,,,,,クロスブリッジ,0
1214,5050001050844,新規,0,2022-03-25,2022-03-25,株式会社Ｂ．Ｎ　ＪＡＰＡＮ,,株式会社,茨城県,筑西市,玉戸１３０９番地５５大吉亭１０６,,08,227,3080847,,,,,,,2022-03-25,1,,,,,ビーエヌジャパン,0
1218,5070001039076,新規,0,2022-03-25,2022-03-25,株式会社加藤電装,,株式会社,群馬県,前橋市,箱田町１５１５番地３,,10,201,3710837,,,,,,,2022-03-25,1,,,,,カトウデンソウ,0
1221,5070005009967,新規,0,2022-03-25,2022-03-25,一般社団法人湯原共有温泉組合,,その他の設立登記法人,群馬県,利根郡みなかみ町,湯原７９５番地,,10,449,3791617,,,,,,,2022-03-25,1,,,,,ユバラキョウユウオンセンクミアイ,0
1226,5080403004494,新規,0,2022-03-25,2022-03-25,合同会社ＢＷＴ,,合同会社,静岡県,浜松市西区,大人見町１２－３２４パリタＩＤ,00126056,22,133,4311112,,,,,,,2022-03-25,1,,,,,ビーダブルティー,0
1227,5100001035162,新規,0,2022-03-25,2022-03-25,株式会社環美商事,,株式会社,長野県,長野市,川中島町御厨１９４２番地１１,,20,201,3812221,,,,,,,2022-03-25,1,,,,,カンビョウショウジ,0
1244,5120001244595,新規,0,2022-03-25,2022-03-25,株式会社Ｖｅｌｏｄａｓｈ　Ｊａｐａｎ,,株式会社,大阪府,大阪市北区,角田町１－１２阪急ファイブアネックスビルＧＶＨ♯５,,27,127,5300017,,,,,,,2022-03-25,1,,,,,ベロダッシュジャパン,0
1245,5120001244629,新規,0,2022-03-25,2022-03-25,株式会社ＲＥＮＯＴＥＣＨ,,株式会社,大阪府,大阪市淀川区,西宮原１丁目８番地２４号新大阪第三ドイビル６階,,27,123,5320004,,,,,,,2022-03-25,1,,,,,リノテック,0
1266,5140001125323,新規,0,2022-03-25,2022-03-25,株式会社アイホーム,,株式会社,兵庫県,明石市,別所町１８番１８号,,28,203,6730038,,,,,,,2022-03-25,1,,,,,アイホーム,0
1267,5140001125364,新規,0,2022-03-25,2022-03-25,株式会社河野工業,,株式会社,兵庫県,尼崎市,塚口町４丁目２７番地の２、２０７号,,28,202,6610002,,,,,,,2022-03-25,1,,,,,コウノコウギョウ,0
1268,5150003002651,新規,0,2022-03-25,2022-03-25,Ｔ＆Ｍ　Ｆａｒｍｅｒｓ合同会社,,合同会社,奈良県,生駒郡斑鳩町,神南５丁目１２番１４号,,29,344,6360143,,,,,,,2022-03-25,1,,,,,ティーアンドエムファーマーズ,0
1279,5180001150524,新規,0,2022-03-25,2022-03-25,株式会社ＷＡＶＥ,,株式会社,愛知県,あま市,七宝町秋竹廻場３２７番地７５,,23,237,4970003,,,,,,,2022-03-25,1,,,,,ウェイブ,0
1280,5180001150532,新規,0,2022-03-25,2022-03-25,株式会社雅,,株式会社,愛知県,知多市,岡田美里町１９９番地（テンハロンベット１０２）,,23,224,4780062,,,,,,,2022-03-25,1,,,,,マサ,0
1293,5240001059503,新規,0,2022-03-25,2022-03-25,株式会社瀬戸内ライフシェアリング,,株式会社,広島県,豊田郡大崎上島町,中野１８６８番地４,,34,431,7250301,,,,,,,2022-03-25,1,,,,,セトウチライフシェアリング,0
1294,5240003005562,新規,0,2022-03-25,2022-03-25,合同会社スマイルプランニング,,合同会社,広島県,廿日市市,福面２丁目７番２０号,,34,213,7390401,,,,,,,2022-03-25,1,,,,,スマイルプランニング,0
1298,5260003003853,新規,0,2022-03-25,2022-03-25,合同会社デュオサン,,合同会社,岡山県,岡山市東区,瀬戸町沖３８０番地,,33,103,7090855,,,,,,,2022-03-25,1,,,,,デュオサン,0
1300,5270001008481,新規,0,2022-03-25,2022-03-25,株式会社翔栄建設,,株式会社,鳥取県,米子市,上福原６丁目５番８号,,31,202,6830004,,,,,,,2022-03-25,1,,,,,ショウエイケンセツ,0
1303,5290001096938,新規,0,2022-03-25,2022-03-25,株式会社重線,,株式会社,福岡県,福岡市西区,姪浜駅南１丁目５－２３姪浜駅前Ａビル２Ｆ,,40,135,8190006,,,,,,,2022-03-25,1,,,,,ジュウセン,0
1304,5290001096946,新規,0,2022-03-25,2022-03-25,株式会社Ｈｉｂａｎａ,,株式会社,福岡県,糸島市,高田４丁目２６番５－６０１号,,40,230,8191102,,,,,,,2022-03-25,1,,,,,ヒバナ,0
1308,5320001018979,新規,0,2022-03-25,2022-03-25,株式会社千笑万来,,株式会社,大分県,大分市,大字光吉１７８５番地の２２,,44,201,8701132,,,,,,,2022-03-25,1,,,,,センショウバンライ,0
1316,5330005010485,新規,0,2022-03-25,2022-03-25,一般社団法人リバティ,,その他の設立登記法人,熊本県,山鹿市,鹿本町中富８７番地１,,43,208,8610313,,,,,,,2022-03-25,1,,,,,リバティ,0
1318,5340001024595,新規,0,2022-03-25,2022-03-25,株式会社いおり,,株式会社,鹿児島県,鹿児島市,上福元町６０５１番地５,,46,201,8910116,,,,,,,2022-03-25,1,,,,,イオリ,0
1320,5360001030154,新規,0,2022-03-25,2022-03-25,株式会社マルジン商店,,株式会社,沖縄県,石垣市,字石垣７番地３,,47,207,9070023,,,,,,,2022-03-25,1,,,,,マルジンショウテン,0
1321,5360001030170,新規,0,2022-03-25,2022-03-25,株式会社ペンギンコミュニケーション,,株式会社,沖縄県,那覇市,赤嶺２丁目１１番地９エンゼルハイム小禄赤嶺第３、５０３,,47,201,9010154,,,,,,,2022-03-25,1,,,,,,0
1322,5360003011895,新規,0,2022-03-25,2022-03-25,合同会社丸慶ハウジング,,合同会社,沖縄県,糸満市,字糸満１３４２番地８,,47,210,9010361,,,,,,,2022-03-25,1,,,,,マルケイハウジング,0
1332,5390001016836,新規,0,2022-03-25,2022-03-25,株式会社シェアードジャパン,,株式会社,山形県,東根市,大林１丁目４番３３号,,06,211,9993714,,,,,,,2022-03-25,1,,,,,シェアードジャパン,0
1333,5410003003631,新規,0,2022-03-25,2022-03-25,合同会社トライアングルアグリ,,合同会社,秋田県,秋田市,泉釜ノ町２６番２０号,,05,201,0100811,,,,,,,2022-03-25,1,,,,,トライアングルアグリ,0
1341,5470001019005,新規,0,2022-03-25,2022-03-25,株式会社ＤＡＩＳＨＩＮ　ＨＯＬＤＩＮＧＳ,,株式会社,香川県,さぬき市,志度５００６番地１６６,,37,206,7692101,,,,,,,2022-03-25,1,,,,,ダイシンホールディングス,0
1343,5470003002157,新規,0,2022-03-25,2022-03-25,合同会社ＳＬリフォーム,,合同会社,香川県,観音寺市,大野原町丸井２７６－２,,37,205,7691615,,,,,,,2022-03-25,1,,,,,エスエルリフォーム,0
1345,5490001010143,新規,0,2022-03-25,2022-03-25,株式会社ＩＮＳＩＧＨＴ‐ＣＯＮＳＵＬＴＩＮＧ,,株式会社,高知県,香南市,野市町下井５４１番地２ヴィラ・トリニティ５０２号,,39,211,7815235,,,,,,,2022-03-25,1,,,,,インサイトコンサルティング,0
1359,6010001225399,新規,0,2022-03-25,2022-03-25,株式会社バランコ,,株式会社,東京都,千代田区,九段北１丁目１４番１６号,,13,101,1020073,,,,,,,2022-03-25,1,,,,,バランコ,0
1360,6010001225465,新規,0,2022-03-25,2022-03-25,株式会社日清商事,,株式会社,東京都,千代田区,九段南１丁目５番６号りそな九段ビル５階ＫＳフロア,,13,101,1020074,,,,,,,2022-03-25,1,,,,,ニッシンショウジ,0
1363,6010003037314,新規,0,2022-03-25,2022-03-25,ＮＩＣ合同会社,,合同会社,東京都,中央区,日本橋２丁目８番６号,,13,102,1030027,,,,,,,2022-03-25,1,,,,,ニック,0
1364,6010003037322,新規,0,2022-03-25,2022-03-25,合同会社ｅｎｉｓｈｉ,,合同会社,東京都,中央区,銀座７丁目４番６号ＡＣＮ銀座ビル５階,,13,102,1040061,,,,,,,2022-03-25,1,,,,,エニシ,0
1365,6010003037339,新規,0,2022-03-25,2022-03-25,合同会社ＩＩＬ,,合同会社,東京都,中央区,八丁堀３丁目２５－８－５Ｂ,,13,102,1040032,,,,,,,2022-03-25,1,,,,,アイアイエルジムショ,0
1369,6010005034771,新規,0,2022-03-25,2022-03-25,一般社団法人ＪＰ‐ＭＩＲＡＩサービス,,その他の設立登記法人,東京都,千代田区,二番町５番地２麹町駅プラザ９０１,,13,101,1020084,,,,,,,2022-03-25,1,,,,,ジェイピーミライサービス,0
1382,6010601060873,新規,0,2022-03-25,2022-03-25,株式会社ボタンヤ,,株式会社,東京都,江東区,牡丹１丁目３番５号,,13,108,1350046,,,,,,,2022-03-25,1,,,,,ボタンヤ,0
1384,6010603009456,新規,0,2022-03-25,2022-03-25,ＳＡＮＪＡＹＡ合同会社,,合同会社,東京都,墨田区,押上２丁目３８番４号ハイツ押上４階３号室,,13,107,1310045,,,,,,,2022-03-25,1,,,,,サンジャヤ,0
1392,6011001146370,新規,0,2022-03-25,2022-03-25,株式会社Ｈｏｚｙ’ｓ,,株式会社,東京都,目黒区,青葉台３丁目４番１－９０１号タワーテラス目黒青葉台,,13,110,1530042,,,,,,,2022-03-25,1,,,,,ホジーズ,0
1393,6011001146404,新規,0,2022-03-25,2022-03-25,株式会社オッドナンバー,,株式会社,東京都,渋谷区,恵比寿１丁目１９番１９号,,13,113,1500013,,,,,,,2022-03-25,1,,,,,オッドナンバー,0
1394,6011001146478,新規,0,2022-03-25,2022-03-25,ピーチボーイ商店株式会社,,株式会社,東京都,渋谷区,神宮前５丁目２７番５号,,13,113,1500001,,,,,,,2022-03-25,1,,,,,ピーチボーイショウテン,0
1395,6011001146494,新規,0,2022-03-25,2022-03-25,株式会社ＧＲＡＶ,,株式会社,東京都,渋谷区,渋谷２丁目２番１７号トランスワークス青山ビル３階,,13,113,1500002,,,,,,,2022-03-25,1,,,,,グラブ,0
1396,6011001146511,新規,0,2022-03-25,2022-03-25,株式会社ＳＨＡＡＡ,,株式会社,東京都,渋谷区,広尾１丁目８番２号７階,,13,113,1500012,,,,,,,2022-03-25,1,,,,,シャー,0
1397,6011003014369,新規,0,2022-03-25,2022-03-25,Ｇｏｄ　Ｈａｒｂｏｕｒ合同会社,,合同会社,東京都,渋谷区,広尾５丁目４－１６,,13,113,1500012,,,,,,,2022-03-25,1,,,,,ゴッドハーバー,0
1400,6011101098248,新規,0,2022-03-25,2022-03-25,無敵株式会社,,株式会社,東京都,新宿区,西新宿１丁目１番６号ミヤコ新宿ビル５０２,,13,104,1600023,,,,,,,2022-03-25,1,,,,,ムテキ,0
1401,6011101098280,新規,0,2022-03-25,2022-03-25,株式会社群像,,株式会社,東京都,新宿区,弁天町１５７番地,,13,104,1620851,,,,,,,2022-03-25,1,,,,,グンゾウ,0
1414,6011301027659,新規,0,2022-03-25,2022-03-25,株式会社ミノヤ,,株式会社,東京都,杉並区,浜田山１丁目１６番１１号,,13,115,1680065,,,,,,,2022-03-25,1,,,,,ミノヤ,0
1418,6011501027863,新規,0,2022-03-25,2022-03-25,双翔マーケティング株式会社,,株式会社,東京都,北区,赤羽北１丁目２４番３号,,13,117,1150052,,,,,,,2022-03-25,1,,,,,ソウショウマーケティング,0
1424,6012301012931,新規,0,2022-03-25,2022-03-25,株式会社Ｍ’ｓコーポレーション,,株式会社,東京都,町田市,金井ヶ丘４丁目２２番９号,,13,209,1950076,,,,,,,2022-03-25,1,,,,,エムズコーポレーション,0
1428,6012403005288,新規,0,2022-03-25,2022-03-25,合同会社ＫＯＭＩＫＩ,,合同会社,東京都,武蔵野市,西久保３丁目１６―１２,,13,203,1800013,,,,,,,2022-03-25,1,,,,,コミキ,0
1432,6013301048858,新規,0,2022-03-25,2022-03-25,株式会社悟空トラベル,,株式会社,東京都,豊島区,東池袋２丁目１０番１２号リトルポンド１０１,,13,116,1700013,,,,,,,2022-03-25,1,,,,,ゴクウトラベル,0
1433,6013303006095,新規,0,2022-03-25,2022-03-25,合同会社ピースリアルティ,,合同会社,東京都,豊島区,池袋２丁目３６番１号,,13,116,1710014,,,,,,,2022-03-25,1,,,,,ピースリアルティ,0
1434,6013305003330,新規,0,2022-03-25,2022-03-25,医療法人社団スリープヘルスリサーチ,,その他の設立登記法人,東京都,豊島区,池袋２丁目４２番７号マキタビル３階,,13,116,1710014,,,,,,,2022-03-25,1,,,,,スリープヘルスリサーチ,0
1446,6021001075478,新規,0,2022-03-25,2022-03-25,ＥＮＧＩＸ株式会社,,株式会社,神奈川県,相模原市中央区,横山１丁目３番１７号,,14,152,2520242,,,,,,,2022-03-25,1,,,,,エンギックス,0
1447,6021001075511,新規,0,2022-03-25,2022-03-25,株式会社テクノホーム相模,,株式会社,神奈川県,座間市,広野台１丁目３５番６号,,14,216,2520012,,,,,,,2022-03-25,1,,,,,テクノホームサガミ,0
1448,6021003011480,新規,0,2022-03-25,2022-03-25,Ｗａｒｍ　ｈｅａｌｉｎｇ合同会社,,合同会社,神奈川県,横須賀市,衣笠栄町１丁目５７番地,,14,201,2380031,,,,,,,2022-03-25,1,,,,,ウォームヒーリング,0
1449,6021003011514,新規,0,2022-03-25,2022-03-25,合同会社ＪＡＰＡＮ　ＶＩＳＡ　ＳＵＰＰＯＲＴ,,合同会社,神奈川県,相模原市中央区,共和４丁目２２番１２－２０３号,,14,152,2520234,,,,,,,2022-03-25,1,,,,,ジャパンビザサポート,0
1460,6030003019079,新規,0,2022-03-25,2022-03-25,合同会社エヌ・ケー・ソリューション,,合同会社,埼玉県,新座市,中野２丁目１３－２７,,11,230,3520005,,,,,,,2022-03-25,1,,,,,エヌケーソリューション,0
1461,6030003019087,新規,0,2022-03-25,2022-03-25,合同会社Ｎｅｗ　Ｓｔｅｐ,,合同会社,埼玉県,草加市,西町９２３戸塚ハイツＢ２０１号室,,11,221,3400035,,,,,,,2022-03-25,1,,,,,ニューステップ,0
1468,6040001122718,新規,0,2022-03-25,2022-03-25,株式会社ＲＩＥＮＥ,,株式会社,千葉県,船橋市,本中山６丁目１１番２－１０４号,,12,204,2730035,,,,,,,2022-03-25,1,,,,,リエネ,0
1469,6040001122742,新規,0,2022-03-25,2022-03-25,株式会社東日本Ｇ・Ｓ,,株式会社,千葉県,千葉市緑区,あすみが丘６丁目６４番地１３,,12,105,2670066,,,,,,,2022-03-25,1,,,,,ヒガシニホンジーエス,0
1470,6040001122750,新規,0,2022-03-25,2022-03-25,株式会社Ｐｌａｎｔ’ｓ　Ｓｉｌｖｅｒ,,株式会社,千葉県,船橋市,旭町２丁目２２番１６号,,12,204,2730041,,,,,,,2022-03-25,1,,,,,プランツシルバー,0
1478,6040003019739,新規,0,2022-03-25,2022-03-25,合同会社Ｒｏｓｓｏ,,合同会社,千葉県,柏市,豊四季台２丁目１番１－１０８号デュオヒルズ柏,,12,217,2770845,,,,,,,2022-03-25,1,,,,,ロッソ,0
1479,6040003019755,新規,0,2022-03-25,2022-03-25,エレファント・ブレイン合同会社,,合同会社,千葉県,浦安市,高洲１丁目１９－８アンクレージュ高洲,,12,227,2790023,,,,,,,2022-03-25,1,,,,,エレファントブレイン,0
1480,6040005021552,新規,0,2022-03-25,2022-03-25,一般社団法人鴨川市農林業体験交流協会,,その他の設立登記法人,千葉県,鴨川市,江見太夫崎２２番地,,12,223,2992865,,,,,,,2022-03-25,1,,,,,カモガワシノウリンギョウタイケンコウリュウキョウカイ,0
1481,6050001050827,新規,0,2022-03-25,2022-03-25,株式会社ひたちのくに,,株式会社,茨城県,かすみがうら市,新治５４５番地１,,08,230,3150051,,,,,,,2022-03-25,1,,,,,ヒタチノクニ,0
1490,6070003004432,新規,0,2022-03-25,2022-03-25,恵樹商事合同会社,,合同会社,群馬県,邑楽郡大泉町,大字古氷７２３番地の１８ベアトリーチェ１０２号,,10,524,3700536,,,,,,,2022-03-25,1,,,,,ケイジュショウジ,0
1502,6110005016768,新規,0,2022-03-25,2022-03-25,特定非営利活動法人ふぁみりり,,その他の設立登記法人,新潟県,上越市,大和２丁目１２番３９号,,15,222,9430861,,,,,,,2022-03-25,1,,,,,ファミリリ,0
1506,6120001244594,新規,0,2022-03-25,2022-03-25,株式会社Ｇ‐ｇｒｏｕｐ,,株式会社,大阪府,大阪市淀川区,宮原２丁目１４番２７号新大阪クリエイトビル１０１号,,27,123,5320003,,,,,,,2022-03-25,1,,,,,ジーグループ,0
1523,6140005026095,新規,0,2022-03-25,2022-03-25,医療法人社団順真会橋本歯科医院,,その他の設立登記法人,兵庫県,養父市,上箇１６７番地１６,,28,222,6670115,,,,,,,2022-03-25,1,,,,,ジュンシンカイハシモトシカイイン,0
1526,6180001150523,新規,0,2022-03-25,2022-03-25,株式会社ジェムストーン,,株式会社,愛知県,名古屋市緑区,黒沢台２丁目２０１番地の１プラムコート黒沢台１０１号,,23,114,4580003,,,,,,,2022-03-25,1,,,,,ジェムストーン,0
1527,6180001150548,新規,0,2022-03-25,2022-03-25,ＲＨ株式会社,,株式会社,愛知県,半田市,白山町５丁目２１７番地の８,,23,205,4750912,,,,,,,2022-03-25,1,,,,,アールエイチ,0
1539,6200003005508,新規,0,2022-03-25,2022-03-25,ＯＣＥＳＵＮ合同会社,,合同会社,岐阜県,大垣市,郭町１丁目１０８番地馬渕ビル３０２号室,,21,202,5030887,,,,,,,2022-03-25,1,,,,,オセスン,0
1550,6240001059502,新規,0,2022-03-25,2022-03-25,株式会社メディカルメイト,,株式会社,広島県,広島市安芸区,中野６丁目３番２－１１７号,,34,107,7390321,,,,,,,2022-03-25,1,,,,,メディカルメイト,0
1554,6260001036664,新規,0,2022-03-25,2022-03-25,株式会社ＷＯＷＯＮ,,株式会社,岡山県,岡山市北区,南方３丁目３－２５－３０１,,33,101,7000807,,,,,,,2022-03-25,1,,,,,ワヲン,0
1556,6270001008480,新規,0,2022-03-25,2022-03-25,ＦＯＬ株式会社,,株式会社,鳥取県,米子市,上福原３丁目７番４３号,,31,202,6830004,,,,,,,2022-03-25,1,,,,,エフオーエル,0
1560,6290001096920,新規,0,2022-03-25,2022-03-25,三木商会株式会社,,株式会社,福岡県,福岡市中央区,福浜２丁目５番３号３１３号室,,40,133,8100066,,,,,,,2022-03-25,1,,,,,ミキショウカイ,0
1567,6290003012322,新規,0,2022-03-25,2022-03-25,小児科プラス合同会社,,合同会社,福岡県,飯塚市,飯塚１９番１１号,,40,205,8200041,,,,,,,2022-03-25,1,,,,,ショウニカプラス,0
1569,6320001018978,新規,0,2022-03-25,2022-03-25,株式会社颯真建装,,株式会社,大分県,大分市,下郡北３丁目２６番２１号エスペランスひらのＩＩ２０１,00126058,44,201,8700952,,,,,,,2022-03-25,1,,,,,ソウマケンソウ,0
1576,6340001024594,新規,0,2022-03-25,2022-03-25,株式会社Ｌｕｓｔ,,株式会社,鹿児島県,薩摩川内市,隈之城町３２５番地３,,46,215,8950041,,,,,,,2022-03-25,1,,,,,ラスト,0
1579,6360001030161,新規,0,2022-03-25,2022-03-25,株式会社ＢＳキャリア,,株式会社,沖縄県,名護市,宮里１丁目２８番８号南西ビル２階,,47,209,9050011,,,,,,,2022-03-25,1,,,,,ビーエスキャリア,0
1594,6400001015827,新規,0,2022-03-25,2022-03-25,株式会社雄建築,,株式会社,岩手県,盛岡市,上堂３丁目１１番８号,,03,201,0200125,,,,,,,2022-03-25,1,,,,,ユウケンチク,0
1605,6460003000887,新規,0,2022-03-25,2022-03-25,合同会社伊藤土木工業,,合同会社,北海道,厚岸郡厚岸町,若竹２丁目５５番地,,01,662,0881118,,,,,,,2022-03-25,1,,,,,イトウドボクコウギョウ,0
1608,6470001019012,新規,0,2022-03-25,2022-03-25,株式会社Ｈａｎｄｒｅｄ．,,株式会社,香川県,高松市,屋島西町２４５３番地２０ＲＥＮＯＷＡ－ＹＡＳＨＩＭＡ１０２,,37,201,7610113,,,,,,,2022-03-25,1,,,,,ハンドレッド,0
1609,6470003002156,新規,0,2022-03-25,2022-03-25,合同会社榮翔丸水産,,合同会社,香川県,高松市,林町９７７番地１ラクマクリスティ１０２,,37,201,7610301,,,,,,,2022-03-25,1,,,,,エイショウマルスイサン,0
1626,7010001225489,新規,0,2022-03-25,2022-03-25,Ｒａｉｓｅｏｎｅ株式会社,,株式会社,東京都,千代田区,神田佐久間町１丁目８番４号アルテール秋葉原７０８,,13,101,1010025,,,,,,,2022-03-25,1,,,,,レイズワン,0
1629,7010003037346,新規,0,2022-03-25,2022-03-25,合同会社よろずＩＣＴサポート,,合同会社,東京都,中央区,銀座１丁目１２番４号Ｎ＆Ｅビル７階,,13,102,1040061,,,,,,,2022-03-25,1,,,,,ヨロズアイシーティーサポート,0
1643,7010401166309,新規,0,2022-03-25,2022-03-25,株式会社ネゴロク,,株式会社,東京都,港区,白金台５丁目１７番９号,,13,103,1080071,,,,,,,2022-03-25,1,,,,,ネゴロク,0
1644,7010401166317,新規,0,2022-03-25,2022-03-25,ＡＫアセット株式会社,,株式会社,東京都,港区,浜松町２丁目２番１５号,,13,103,1050013,,,,,,,2022-03-25,1,,,,,エーケーアセット,0
1651,7010405020841,新規,0,2022-03-25,2022-03-25,一般社団法人港区トライアスロン連合,,その他の設立登記法人,東京都,港区,六本木２丁目２－７クレール六本木６０１,,13,103,1060032,,,,,,,2022-03-25,1,,,,,ミナトクトライアスロンレンゴウ,0
1653,7010601060880,新規,0,2022-03-25,2022-03-25,株式会社クレアーレ,,株式会社,東京都,江東区,有明１丁目４番２０－３３１１号,,13,108,1350063,,,,,,,2022-03-25,1,,,,,クレアーレ,0
1654,7010701042416,新規,0,2022-03-25,2022-03-25,株式会社ｔａｋｕｚｙ,,株式会社,東京都,品川区,荏原１丁目１１番６号,,13,109,1420063,,,,,,,2022-03-25,1,,,,,タクジー,0
1667,7011001146403,新規,0,2022-03-25,2022-03-25,リライフ株式会社,,株式会社,東京都,渋谷区,東３丁目２５番３号,,13,113,1500011,,,,,,,2022-03-25,1,,,,,リライフ,0
1668,7011001146411,新規,0,2022-03-25,2022-03-25,株式会社スタディトゥゴー,,株式会社,東京都,渋谷区,代々木３丁目１番３号代々木木村ビル２階,,13,113,1510053,,,,,,,2022-03-25,1,,,,,スタディトゥゴー,0
1669,7011001146510,新規,0,2022-03-25,2022-03-25,株式会社ＦＵ‐ＲＩＣＨ,,株式会社,東京都,目黒区,自由が丘１丁目２４番６号,,13,110,1520035,,,,,,,2022-03-25,1,,,,,フーリッチ,0
1671,7011003014392,新規,0,2022-03-25,2022-03-25,Ａｓｋ合同会社,,合同会社,東京都,渋谷区,道玄坂１丁目１０番８号,,13,113,1500043,,,,,,,2022-03-25,1,,,,,アスカ,0
1672,7011003014401,新規,0,2022-03-25,2022-03-25,ｅｂｕｃｉｒｉ合同会社,,合同会社,東京都,渋谷区,恵比寿西１丁目１０番１４号ランドコム恵比寿代官山４０５号,,13,113,1500021,,,,,,,2022-03-25,1,,,,,エブチリ,0
1675,7011101098247,新規,0,2022-03-25,2022-03-25,Ｔｅｚｒｏ株式会社,,株式会社,東京都,新宿区,百人町２丁目１－４５赤煉瓦２１７,,13,104,1690073,,,,,,,2022-03-25,1,,,,,テゼロ,0
1676,7011101098263,新規,0,2022-03-25,2022-03-25,ＫＺＭ　Ｃｏｍｐａｎｙ株式会社,,株式会社,東京都,新宿区,新小川町３番２５号３０９,,13,104,1620814,,,,,,,2022-03-25,1,,,,,ケーゼットエムカンパニー,0
1678,7011103011579,新規,0,2022-03-25,2022-03-25,合同会社ＤｏＣｏｓｍｅ,,合同会社,東京都,新宿区,中落合１丁目１７番地９号２階,,13,104,1610032,,,,,,,2022-03-25,1,,,,,ドゥコスメ,0
1688,7012401038999,新規,0,2022-03-25,2022-03-25,株式会社福島フソー企画,,株式会社,東京都,調布市,柴崎１丁目５２番地９,,13,208,1820014,,,,,,,2022-03-25,1,,,,,フクシマフソーキカク,0
1690,7012403005287,新規,0,2022-03-25,2022-03-25,合同会社ＰＳＴＪ,,合同会社,東京都,調布市,下石原１丁目３２－５,,13,208,1820034,,,,,,,2022-03-25,1,,,,,ピーエスティジャパン,0
1699,7020001145777,新規,0,2022-03-25,2022-03-25,友和商事株式会社,,株式会社,神奈川県,横浜市都筑区,すみれが丘４１番地９,,14,118,2240013,,,,,,,2022-03-25,1,,,,,ユウワショウジ,0
1704,7021001075477,新規,0,2022-03-25,2022-03-25,株式会社ｉＢＮＣｔ,,株式会社,神奈川県,足柄上郡山北町,岸３８１６番地１,,14,364,2580112,,,,,,,2022-03-25,1,,,,,アイビーエヌシーティー,0
1705,7021001075502,新規,0,2022-03-25,2022-03-25,株式会社カナタカラ,,株式会社,神奈川県,鎌倉市,由比ガ浜３丁目１１番４２－２０２号,,14,204,2480014,,,,,,,2022-03-25,1,,,,,カナタカラ,0
1706,7021001075510,新規,0,2022-03-25,2022-03-25,株式会社Ｇ‐Ｂｌｏｓｓｏｍ,,株式会社,神奈川県,海老名市,大谷南２丁目１６番１５号,,14,215,2430418,,,,,,,2022-03-25,1,,,,,ジーブロッサム,0
1709,7021003011513,新規,0,2022-03-25,2022-03-25,合同会社しろくま,,合同会社,神奈川県,藤沢市,柄沢２丁目３６－１３,,14,205,2510003,,,,,,,2022-03-25,1,,,,,シロクマ,0
1710,7021003011521,新規,0,2022-03-25,2022-03-25,ヨリドコロ合同会社,,合同会社,神奈川県,藤沢市,鵠沼海岸３丁目６番２９,,14,205,2510037,,,,,,,2022-03-25,1,,,,,ヨリドコロ,0
1718,7030001147434,新規,0,2022-03-25,2022-03-25,株式会社ＳｕｎＲｏｋｕ,,株式会社,埼玉県,東松山市,大字松山１８０４－１７９,,11,212,3550005,,,,,,,2022-03-25,1,,,,,サンロク,0
1724,7030003019086,新規,0,2022-03-25,2022-03-25,合同会社ＭＡＲＥＭＩ,,合同会社,埼玉県,川口市,本町４丁目３ー１４小峰第一ビル,,11,203,3320012,,,,,,,2022-03-25,1,,,,,マレミ,0
1725,7030003019094,新規,0,2022-03-25,2022-03-25,みさとオフィスプラス合同会社,,合同会社,埼玉県,三郷市,早稲田１丁目１番地１ＫＴＴビル４Ｆ,,11,237,3410018,,,,,,,2022-03-25,1,,,,,ミサトオフィスプラス,0
1732,7040001122650,新規,0,2022-03-25,2022-03-25,株式会社Ｃｏｎｔｅｎｔ　Ｂａｓｅ,,株式会社,千葉県,船橋市,習志野台６丁目３番－７１５号,,12,204,2740063,,,,,,,2022-03-25,1,,,,,コンテントベース,0
1733,7040001122709,新規,0,2022-03-25,2022-03-25,株式会社ｅ‐ｃｒａｆｔ,,株式会社,千葉県,千葉市稲毛区,宮野木町１６５５番地１安田宮野木ガーデンハイツ２０７号,,12,103,2630054,,,,,,,2022-03-25,1,,,,,イークラフト,0
1734,7040001122741,新規,0,2022-03-25,2022-03-25,株式会社Ｏｖｅｒテイク,,株式会社,千葉県,市川市,相之川４丁目１１－２２シャトーリッチ高橋１階Ｂ号室,00126062,12,203,2720143,,,,,,,2022-03-25,1,,,,,オーバーテイク,0
1744,7070001039074,新規,0,2022-03-25,2022-03-25,株式会社アクシス,,株式会社,群馬県,前橋市,柏倉町１６４５番地,,10,201,3710246,,,,,,,2022-03-25,1,,,,,アクシス,0
1746,7080103002557,新規,0,2022-03-25,2022-03-25,伊豆の花合同会社,,合同会社,静岡県,沼津市,戸田１３０７番地の５,,22,203,4103402,,,,,,,2022-03-25,1,,,,,イズノハナ,0
1750,7100005012841,新規,0,2022-03-25,2022-03-25,一般社団法人感環自然村,,その他の設立登記法人,長野県,飯田市,伊豆木５４４４番地１,,20,205,3992434,,,,,,,2022-03-25,1,,,,,カンカンシゼンムラ,0
1760,7120001244593,新規,0,2022-03-25,2022-03-25,株式会社イシダ工務店,,株式会社,大阪府,大阪市住吉区,長居西１丁目９番１２号,,27,120,5580002,,,,,,,2022-03-25,1,,,,,イシダコウムテン,0
1761,7120001244643,新規,0,2022-03-25,2022-03-25,株式会社ＳＯＬＯ,,株式会社,大阪府,大阪市東淀川区,下新庄５丁目１７番３４号,,27,114,5330021,,,,,,,2022-03-25,1,,,,,ソロ,0
1762,7120001244676,新規,0,2022-03-25,2022-03-25,株式会社Ｅｔｈｅｒ,,株式会社,大阪府,大阪市浪速区,幸町２丁目２番４７号メゾン難波６０５,,27,111,5560021,,,,,,,2022-03-25,1,,,,,イーサー,0
1766,7120103004623,新規,0,2022-03-25,2022-03-25,合同会社Ｋ＆Ｈ,,合同会社,大阪府,岸和田市,岡山町１１５６番地の１リーベ岡山１０１号室,,27,202,5960814,,,,,,,2022-03-25,1,,,,,ケィアンドエイチ,0
1776,7140001125362,新規,0,2022-03-25,2022-03-25,株式会社オネスト,,株式会社,兵庫県,尼崎市,南武庫之荘４丁目１８番３３号,,28,202,6610033,,,,,,,2022-03-25,1,,,,,オネスト,0
1778,7140003017500,新規,0,2022-03-25,2022-03-25,合同会社ＳＨＵ,,合同会社,兵庫県,神戸市中央区,熊内町５丁目６番８－２,,28,110,6510056,,,,,,,2022-03-25,1,,,,,シュウ,0
1781,7150005009379,新規,0,2022-03-25,2022-03-25,一般社団法人希綾会,,その他の設立登記法人,奈良県,磯城郡川西町,大字結崎１１９５番地,,29,361,6360202,,,,,,,2022-03-25,1,,,,,キリンカイ,0
1798,7180003023635,新規,0,2022-03-25,2022-03-25,合同会社ＮＰＮＧ,,合同会社,愛知県,名古屋市東区,筒井町４丁目３９番地の５睦ハイツ２棟２１５号,,23,102,4610003,,,,,,,2022-03-25,1,,,,,エヌピーエヌジー,0
1803,7190001029253,新規,0,2022-03-25,2022-03-25,株式会社ＡＩＤＣＡＲＥ,,株式会社,三重県,員弁郡東員町,大字六把野新田４６番地１,,24,324,5110242,,,,,,,2022-03-25,1,,,,,エイドケア,0
1807,7200001039886,新規,0,2022-03-25,2022-03-25,３Ｗ株式会社,,株式会社,岐阜県,瑞穂市,別府７９３番地８,,21,216,5010222,,,,,,,2022-03-25,1,,,,,スリーダブル,0
1808,7210001018856,新規,0,2022-03-25,2022-03-25,株式会社美創,,株式会社,福井県,福井市,灯明寺４丁目８０５番地,,18,201,9100063,,,,,,,2022-03-25,1,,,,,ビソウ,0
1822,7260001036663,新規,0,2022-03-25,2022-03-25,株式会社北昇,,株式会社,岡山県,岡山市北区,牟佐２９４５番地３２,,33,101,7012141,,,,,,,2022-03-25,1,,,,,ホクショウ,0
1823,7260005011051,新規,0,2022-03-25,2022-03-25,税理士法人ＣＯＮＦＩＡＮＣＥ,,その他の設立登記法人,岡山県,浅口市,鴨方町六条院中４１７４番地２,,33,216,7190252,,,,,,,2022-03-25,1,,,,,コンフィアンス,0
1830,7290001096936,新規,0,2022-03-25,2022-03-25,株式会社Ｌｏｏｐ　Ｈｏｌｄｉｎｇｓ,,株式会社,福岡県,糟屋郡篠栗町,大字乙犬９７５番地４,,40,342,8112412,,,,,,,2022-03-25,1,,,,,ループホールディングス,0
1831,7290001096944,新規,0,2022-03-25,2022-03-25,株式会社グロウステップ,,株式会社,福岡県,糟屋郡新宮町,中央駅前１丁目６番１－２０５号,,40,345,8110120,,,,,,,2022-03-25,1,,,,,グロウステップ,0
1836,7310001017781,新規,0,2022-03-25,2022-03-25,株式会社ＶＩＬＥＭ,,株式会社,長崎県,諫早市,貝津町６０１番地１３,,42,204,8540063,,,,,,,2022-03-25,1,,,,,ヴィレム,0
1837,7320001018977,新規,0,2022-03-25,2022-03-25,株式会社モグモグカンパニー,,株式会社,大分県,大分市,東浜２丁目１１番２２号,,44,201,8700932,,,,,,,2022-03-25,1,,,,,モグモグカンパニー,0
1840,7340002028668,新規,0,2022-03-25,2022-03-25,有限会社美香園,,有限会社,鹿児島県,南九州市,頴娃町牧之内１４７２６番地,,46,223,8910702,,,,,,,2022-03-25,1,,,,,ビコウエン,0
1845,7360001030160,新規,0,2022-03-25,2022-03-25,株式会社千百投信,,株式会社,沖縄県,浦添市,字経塚４８７番地８,,47,208,9012111,,,,,,,2022-03-25,1,,,,,チモモトウシン,0
1848,7370001048350,新規,0,2022-03-25,2022-03-25,株式会社リンクフォース,,株式会社,宮城県,仙台市青葉区,五橋１丁目１番５０－２０１号,,04,101,9800022,,,,,,,2022-03-25,1,,,,,リンクフォース,0
1885,8010001225397,新規,0,2022-03-25,2022-03-25,株式会社フェアベンチャーサポート,,株式会社,東京都,中央区,築地１丁目１２番２２号,,13,102,1040045,,,,,,,2022-03-25,1,,,,,フェアベンチャーサポート,0
1886,8010001225439,新規,0,2022-03-25,2022-03-25,１０ｘ　Ｇｅｎｏｍｉｃｓ　Ｊａｐａｎ株式会社,,株式会社,東京都,千代田区,丸の内２丁目１番１号明治生命館７階ディーエルエイ・パイパー東京パートナーシップ外国法共同事業法律事務所内,,13,101,1000005,,,,,,,2022-03-25,1,,,,,テンエックスゲノミックスジャパン,0
1887,8010001225463,新規,0,2022-03-25,2022-03-25,富士メディカル株式会社,,株式会社,東京都,中央区,東日本橋２丁目２８番５号５０８,,13,102,1030004,,,,,,,2022-03-25,1,,,,,フジメディカル,0
1891,8010003037238,新規,0,2022-03-25,2022-03-25,合同会社Ａ．ｄｏ,,合同会社,東京都,千代田区,平河町１丁目６－１５ＵＳビル８Ｆ,,13,101,1020093,,,,,,,2022-03-25,1,,,,,アド,0
1915,8010603009454,新規,0,2022-03-25,2022-03-25,合同会社８ｆｌｏｗ,,合同会社,東京都,江東区,有明３丁目７番２６号有明フロンティアビルＢ棟９階,,13,108,1350063,,,,,,,2022-03-25,1,,,,,エイトフロー,0
1919,8010901050572,新規,0,2022-03-25,2022-03-25,株式会社北野,,株式会社,東京都,世田谷区,南烏山１丁目２１－３,,13,112,1570062,,,,,,,2022-03-25,1,,,,,キタノ,0
1922,8011001146443,新規,0,2022-03-25,2022-03-25,ポイントワン株式会社,,株式会社,東京都,渋谷区,恵比寿西２丁目１４番７号パークアクシス代官山８０３,,13,113,1500021,,,,,,,2022-03-25,1,,,,,ポイントワン,0
1923,8011001146484,新規,0,2022-03-25,2022-03-25,株式会社マルユウ,,株式会社,東京都,渋谷区,千駄ヶ谷５丁目２１番６号プラザＦ１ビル８０２,,13,113,1510051,,,,,,,2022-03-25,1,,,,,マルユウ,0
1924,8011001146559,新規,0,2022-03-25,2022-03-25,株式会社ＣＡ　ＧａｍｅＦｉ,,株式会社,東京都,渋谷区,宇田川町４０番１号,,13,113,1500042,,,,,,,2022-03-25,1,,,,,シーエーゲームファイ,0
1931,8011101098246,新規,0,2022-03-25,2022-03-25,Ｍ＆Ｏ株式会社,,株式会社,東京都,新宿区,新宿２丁目８番８号アイ・アンド・イー新宿ビル,,13,104,1600022,,,,,,,2022-03-25,1,,,,,エムアンドオー,0
1932,8011103011594,新規,0,2022-03-25,2022-03-25,合同会社筐．ｄｐｉ,,合同会社,東京都,新宿区,西新宿３丁目３番１３号西新宿水間ビル６階,,13,104,1600023,,,,,,,2022-03-25,1,,,,,キョウドットディーピーアイ,0
1933,8011201023723,新規,0,2022-03-25,2022-03-25,株式会社ヒキワライ,,株式会社,東京都,中野区,本町５丁目３８番８号サンライズ吉原１０１,,13,114,1640012,,,,,,,2022-03-25,1,,,,,ヒキワライ,0
1934,8011203003780,新規,0,2022-03-25,2022-03-25,合同会社ＭＯＭＯ,,合同会社,東京都,中野区,東中野４丁目５番１０－１６０３号,,13,114,1640003,,,,,,,2022-03-25,1,,,,,モモ,0
1935,8011205002483,新規,0,2022-03-25,2022-03-25,一般社団法人中野権利擁護センターアクセプト,,その他の設立登記法人,東京都,中野区,中野２丁目２８番１号プロスペアー中野３０４,,13,114,1640001,,,,,,,2022-03-25,1,,,,,ナカノケンリヨウゴセンターアクセプト,0
1939,8011303004357,新規,0,2022-03-25,2022-03-25,合同会社書斎ジュディス,,合同会社,東京都,杉並区,阿佐谷北２丁目９番２号ヴァイセスハウス１０１,,13,115,1660001,,,,,,,2022-03-25,1,,,,,ショサイジュディス,0
1945,8012403005294,新規,0,2022-03-25,2022-03-25,ＷＥＬＭＡＴＯＫ　ＪＡＰＡＮ合同会社,,合同会社,東京都,三鷹市,野崎２丁目１２番９号,,13,204,1810014,,,,,,,2022-03-25,1,,,,,ウェルマトックジャパン,0
1960,8020001145784,新規,0,2022-03-25,2022-03-25,株式会社ロックポート,,株式会社,神奈川県,横浜市神奈川区,鶴屋町２丁目１７番地相鉄岩崎学園ビル岩崎学園秘書課,,14,102,2210835,,,,,,,2022-03-25,1,,,,,ロックポート,0
1964,8020005015430,新規,0,2022-03-25,2022-03-25,医療法人睦会,,その他の設立登記法人,神奈川県,横浜市戸塚区,舞岡町３３番地,,14,110,2440813,,,,,,,2022-03-25,1,,,,,ムツミカイ,0
1970,8021003011512,新規,0,2022-03-25,2022-03-25,グッドウッド合同会社,,合同会社,神奈川県,鎌倉市,小町２丁目２１番２２号,,14,204,2480006,,,,,,,2022-03-25,1,,,,,グッドウッド,0
1971,8021003011520,新規,0,2022-03-25,2022-03-25,Ｔｊアセット合同会社,,合同会社,神奈川県,茅ヶ崎市,赤羽根３０８１番地９,,14,207,2530001,,,,,,,2022-03-25,1,,,,,ティージェイアセット,0
1979,8030001147391,新規,0,2022-03-25,2022-03-25,株式会社飛翔工業,,株式会社,埼玉県,さいたま市西区,大字指扇６３１番地グリーンパレス指扇Ｂ３０３,,11,101,3310047,,,,,,,2022-03-25,1,,,,,ヒショウコウギョウ,0
1980,8030001147400,新規,0,2022-03-25,2022-03-25,株式会社テックス,,株式会社,埼玉県,所沢市,大字北秋津４２番地の１,,11,208,3590038,,,,,,,2022-03-25,1,,,,,テックス,0
1981,8030001147425,新規,0,2022-03-25,2022-03-25,株式会社ＲＯＮＩ,,株式会社,埼玉県,川口市,大字安行吉蔵３７１番地ガーデンヒルズＮＡＫＡＹＡＭＡ壱番館１０３号,,11,203,3340053,,,,,,,2022-03-25,1,,,,,ロニ,0
1985,8030003019102,新規,0,2022-03-25,2022-03-25,ナビコムテック合同会社,,合同会社,埼玉県,熊谷市,上之８３９番地１,,11,202,3600012,,,,,,,2022-03-25,1,,,,,ナビコムテック,0
1992,8040001122740,新規,0,2022-03-25,2022-03-25,ＴＹＤ株式会社,,株式会社,千葉県,流山市,鰭ケ崎１３７１－７,,12,220,2700161,,,,,,,2022-03-25,1,,,,,ティワイディ,0
1995,8040003019753,新規,0,2022-03-25,2022-03-25,旭日内装合同会社,,合同会社,千葉県,松戸市,馬橋２４９０－１馬橋１０９号室,,12,207,2710051,,,,,,,2022-03-25,1,,,,,アサヒナイソウ,0
1999,8050001050833,新規,0,2022-03-25,2022-03-25,龍ケ崎商事株式会社,,株式会社,茨城県,龍ケ崎市,川原代町字知手３９９８－１,,08,208,3010005,,,,,,,2022-03-25,1,,,,,リュウガサキショウジ,0
2000,8050003006445,新規,0,2022-03-25,2022-03-25,合同会社農業法人多喜,,合同会社,茨城県,鉾田市,上釜４６７番地,,08,234,3111403,,,,,,,2022-03-25,1,,,,,ノウギョウホウジンタキ,0
2001,8060001034678,新規,0,2022-03-25,2022-03-25,株式会社Ｎ＆Ｎ’ｓ,,株式会社,栃木県,宇都宮市,吉野２丁目２番５号,,09,201,3200838,,,,,,,2022-03-25,1,,,,,エヌアンドエヌズ,0
2002,8060001034686,新規,0,2022-03-25,2022-03-25,ヒカリ貿易株式会社,,株式会社,栃木県,小山市,東城南１丁目２６番地７エイジハイツ１０３号室,,09,208,3230829,,,,,,,2022-03-25,1,,,,,ヒカリボウエキ,0
2007,8070001039073,新規,0,2022-03-25,2022-03-25,株式会社Ｌｉｂｅｌｕｌａ,,株式会社,群馬県,安中市,中宿５１番地１,,10,211,3790115,,,,,,,2022-03-25,1,,,,,リベルラ,0
2020,8100001035184,新規,0,2022-03-25,2022-03-25,株式会社ｅａｒｔｈ　ｃｏｌｏｒ,,株式会社,長野県,松本市,野溝西１丁目６－４,,20,202,3990006,,,,,,,2022-03-25,1,,,,,アースカラー,0
2037,8120001244683,新規,0,2022-03-25,2022-03-25,クリアシステムコーディネート株式会社,,株式会社,大阪府,大阪市北区,梅田１丁目１１番４号大阪駅前第４ビル９階９２３－１６３２号,,27,127,5300001,,,,,,,2022-03-25,1,,,,,クリアシステムコーディネート,0
2045,8120005022854,新規,0,2022-03-25,2022-03-25,特定非営利活動法人いなほ,,その他の設立登記法人,大阪府,大阪市西成区,長橋１丁目１３番９号,,27,122,5570025,,,,,,,2022-03-25,1,,,,,イナホ,0
2057,8130001071417,新規,0,2022-03-25,2022-03-25,株式会社クロテック,,株式会社,京都府,京都市南区,久世中久世町２丁目１３１サンリット４１８,,26,107,6018213,,,,,,,2022-03-25,1,,,,,クロテック,0
2065,8140001125345,新規,0,2022-03-25,2022-03-25,ＴＲＵＥ　ＲＡＲＥ株式会社,,株式会社,兵庫県,西宮市,苦楽園一番町７番１４号,,28,204,6620083,,,,,,,2022-03-25,1,,,,,トゥルーレア,0
2066,8140001125353,新規,0,2022-03-25,2022-03-25,株式会社ＭＣＳカンパニー,,株式会社,兵庫県,西宮市,松ケ丘町１０番２８号,,28,204,6620061,,,,,,,2022-03-25,1,,,,,エムシーエスカンパニー,0
2067,8140003017490,新規,0,2022-03-25,2022-03-25,合同会社ｆｅｒｍ　ｆａｒｍ,,合同会社,兵庫県,三田市,井ノ草１０３４,,28,219,6691356,,,,,,,2022-03-25,1,,,,,ファームファーム,0
2068,8140005026093,新規,0,2022-03-25,2022-03-25,医療法人社団はなだこどもクリニック,,その他の設立登記法人,兵庫県,神戸市垂水区,五色山２丁目５番１８号１Ｆ,,28,108,6550035,,,,,,,2022-03-25,1,,,,,ハナダコドモクリニック,0
2069,8150001025420,新規,0,2022-03-25,2022-03-25,株式会社竹中電工,,株式会社,奈良県,奈良市,針町２５９７番地の２１,,29,201,6320251,,,,,,,2022-03-25,1,,,,,タケナカデンコウ,0
2070,8150003002649,新規,0,2022-03-25,2022-03-25,合同会社ラピス,,合同会社,奈良県,橿原市,五井町７１－５グリーンハイツＡ２０１,,29,205,6340832,,,,,,,2022-03-25,1,,,,,ラピス,0
2077,8180001150521,新規,0,2022-03-25,2022-03-25,ウェルイー株式会社,,株式会社,愛知県,名古屋市緑区,浦里５丁目３６７番地の３,,23,114,4580847,,,,,,,2022-03-25,1,,,,,ウェルイー,0
2078,8180001150554,新規,0,2022-03-25,2022-03-25,ＦｏｒｔｅＲｅｂｏｏｔ株式会社,,株式会社,愛知県,名古屋市中区,千代田４丁目１－４ＧＲＡＮＤＵＫＥ上前津５０２,,23,106,4600012,,,,,,,2022-03-25,1,,,,,フォルテリブート,0
2090,8180301036049,新規,0,2022-03-25,2022-03-25,株式会社アセットプランニングパートナー,,株式会社,愛知県,安城市,大山町１丁目９番地３,,23,212,4460042,,,,,,,2022-03-25,1,,,,,アセットプランニングパートナー,0
2091,8180303005290,新規,0,2022-03-25,2022-03-25,ロータス合同会社,,合同会社,愛知県,豊田市,喜多町１丁目１４０番地ギャザ豊田シティハイツ７０３号,,23,211,4710027,,,,,,,2022-03-25,1,,,,,ロータス,0
2093,8190003003932,新規,0,2022-03-25,2022-03-25,合同会社鈴鹿ホーム,,合同会社,三重県,鈴鹿市,池田町１３４０番地１３,,24,207,5130032,,,,,,,2022-03-25,1,,,,,スズカホーム,0
2097,8200001039877,新規,0,2022-03-25,2022-03-25,株式会社フロントフィールド,,株式会社,岐阜県,岐阜市,大黒町４丁目８番地１サンイーストアオキ１０３号室,,21,201,5008151,,,,,,,2022-03-25,1,,,,,フロントフィールド,0
2098,8200001039885,新規,0,2022-03-25,2022-03-25,株式会社ライフインモーション,,株式会社,岐阜県,岐阜市,野一色６丁目１０番１２号,,21,201,5008226,,,,,,,2022-03-25,1,,,,,ライフインモーション,0
2105,8260001036670,新規,0,2022-03-25,2022-03-25,株式会社Ｃａｎｏｋｏｔｏ,,株式会社,岡山県,岡山市北区,番町１丁目１０番２２－２号,,33,101,7000811,,,,,,,2022-03-25,1,,,,,カノコト,0
2107,8260003003842,新規,0,2022-03-25,2022-03-25,合同会社アメージングファーム,,合同会社,岡山県,井原市,西江原町８３０－４,,33,207,7150006,,,,,,,2022-03-25,1,,,,,アメージングファーム,0
2115,8290001096902,新規,0,2022-03-25,2022-03-25,インフラックス株式会社,,株式会社,福岡県,福岡市博多区,博多駅前２丁目１９－１７,,40,132,8120011,,,,,,,2022-03-25,1,,,,,インフラックス,0
2116,8290001096919,新規,0,2022-03-25,2022-03-25,株式会社ミスミ商会,,株式会社,福岡県,福岡市東区,和白３丁目２７番８４号,,40,131,8110202,,,,,,,2022-03-25,1,,,,,ミスミショウカイ,0
2117,8290001096927,新規,0,2022-03-25,2022-03-25,株式会社Ｉ＆Ｌ,,株式会社,福岡県,糸島市,志摩稲留１８番地１,,40,230,8191313,,,,,,,2022-03-25,1,,,,,アイアンドエル,0
2118,8290001096943,新規,0,2022-03-25,2022-03-25,株式会社Ｏｎｅ　Ｇｌｏｗ,,株式会社,福岡県,福岡市早良区,田村６丁目１２－２８ビューテラス田村３０５号,,40,137,8140175,,,,,,,2022-03-25,1,,,,,ワングロー,0
2141,8360003011884,新規,0,2022-03-25,2022-03-25,合同会社あゆむ産業,,合同会社,沖縄県,南城市,玉城字堀川４９９番地３,,47,215,9010615,,,,,,,2022-03-25,1,,,,,アユムサンギョウ,0
2159,8430001086244,新規,0,2022-03-25,2022-03-25,エシカル・スカイジャパン株式会社,,株式会社,北海道,札幌市白石区,本郷通５丁目北１－８　３０５,,01,104,0030025,,,,,,,2022-03-25,1,,,,,エシカルスカイジャパン,0
2160,8430001086260,新規,0,2022-03-25,2022-03-25,株式会社川端興機,,株式会社,北海道,札幌市中央区,北五条西２０丁目２番３号,,01,101,0600005,,,,,,,2022-03-25,1,,,,,カワバタコウキ,0
2164,8450003002189,新規,0,2022-03-25,2022-03-25,合同会社弘栄水産,,合同会社,北海道,稚内市,声問４丁目８番６号,,01,214,0986642,,,,,,,2022-03-25,1,,,,,コウエイスイサン,0
2171,8500001024080,新規,0,2022-03-25,2022-03-25,株式会社Ａ１,,株式会社,愛媛県,西宇和郡伊方町,大浜４３０番地,,38,442,7960308,,,,,,,2022-03-25,1,,,,,エーワン,0
2186,9010001225355,新規,0,2022-03-25,2022-03-25,株式会社アンバサダデベロップメントアンドマネジメント,,株式会社,東京都,千代田区,麹町２丁目２番地３１麹町サンライズビル８階,,13,101,1020083,,,,,,,2022-03-25,1,,,,,アンバサダデベロップメントアンドマネジメント,0
2187,9010001225421,新規,0,2022-03-25,2022-03-25,ＫＡＳＳＯ　ＪＡＰＡＮ株式会社,,株式会社,東京都,千代田区,富士見１丁目３番１１号,,13,101,1020071,,,,,,,2022-03-25,1,,,,,カッソージャパン,0
2188,9010001225462,新規,0,2022-03-25,2022-03-25,株式会社ｙｏｋｏｇａｏ,,株式会社,東京都,中央区,銀座１丁目２２番１１号銀座大竹ビジデンス２階,,13,102,1040061,,,,,,,2022-03-25,1,,,,,ヨコガオ,0
2193,9010005034769,新規,0,2022-03-25,2022-03-25,エイグ特定目的会社,,その他の設立登記法人,東京都,中央区,日本橋１丁目４番１号日本橋一丁目ビルディング,,13,102,1030027,,,,,,,2022-03-25,1,,,,,エイグ,0
2207,9010601060887,新規,0,2022-03-25,2022-03-25,株式会社サンリッチ,,株式会社,東京都,墨田区,緑４丁目３９番７号ルミリオ錦糸町２階,,13,107,1300021,,,,,,,2022-03-25,1,,,,,サンリッチ,0
2212,9010901050555,新規,0,2022-03-25,2022-03-25,株式会社ＦＬＡＶ,,株式会社,東京都,世田谷区,瀬田３丁目２番６号,,13,112,1580095,,,,,,,2022-03-25,1,,,,,フレイブ,0
2219,9011001146500,新規,0,2022-03-25,2022-03-25,株式会社ＢＥｒｒｙ,,株式会社,東京都,渋谷区,松濤２丁目１２番６号リッツクリスタル松濤３０３,,13,113,1500046,,,,,,,2022-03-25,1,,,,,ベリー,0
2220,9011001146509,新規,0,2022-03-25,2022-03-25,株式会社アトエル,,株式会社,東京都,渋谷区,恵比寿１丁目１５番９号日宝恵比寿ビル４０３,,13,113,1500013,,,,,,,2022-03-25,1,,,,,アトエル,0
2225,9011003014374,新規,0,2022-03-25,2022-03-25,合同会社笑福,,合同会社,東京都,渋谷区,神宮前６丁目２３番４号桑野ビル２階,,13,113,1500001,,,,,,,2022-03-25,1,,,,,ショウフク,0
2226,9011003014390,新規,0,2022-03-25,2022-03-25,Ｎｏａｈ　Ｔｒｕｓｔ合同会社,,合同会社,東京都,目黒区,東山３丁目１番１９号３０８号室,,13,110,1530043,,,,,,,2022-03-25,1,,,,,ノアトラスト,0
2227,9011003014416,新規,0,2022-03-25,2022-03-25,Ｅｃｃｅｎｔｒｉｃ　Ｓｔａｒ合同会社,,合同会社,東京都,目黒区,上目黒３丁目４４番２６号パークホームズ中目黒２１１号室,,13,110,1530051,,,,,,,2022-03-25,1,,,,,エキセントリックスター,0
2230,9011101098237,新規,0,2022-03-25,2022-03-25,株式会社慶應メディカルサポート,,株式会社,東京都,新宿区,信濃町３５番地,,13,104,1600016,,,,,,,2022-03-25,1,,,,,ケイオウメディカルサポート,0
2233,9011303004356,新規,0,2022-03-25,2022-03-25,トーブアンドコー合同会社,,合同会社,東京都,杉並区,和田２丁目３７番７号,,13,115,1660012,,,,,,,2022-03-25,1,,,,,トーブアンドコー,0
2242,9011503005113,新規,0,2022-03-25,2022-03-25,合同会社Ｇｏｓｓａ,,合同会社,東京都,北区,赤羽２丁目１５－６,,13,117,1150045,,,,,,,2022-03-25,1,,,,,ゴッサ,0
2248,9011701025152,新規,0,2022-03-25,2022-03-25,玉城株式会社,,株式会社,東京都,江戸川区,平井３丁目１３番１４－１０１号,,13,123,1320035,,,,,,,2022-03-25,1,,,,,タマシロ,0
2251,9011801040472,新規,0,2022-03-25,2022-03-25,アイシンホーム株式会社,,株式会社,東京都,葛飾区,堀切１丁目１７番１１－１０５号,,13,122,1240006,,,,,,,2022-03-25,1,,,,,アイシンホーム,0
2252,9011801040489,新規,0,2022-03-25,2022-03-25,日本ＳＣＭ株式会社,,株式会社,東京都,葛飾区,細田５丁目２４番１１号秋山ビル１Ｆ,,13,122,1240021,,,,,,,2022-03-25,1,,,,,ニホンエスシーエム,0
2253,9011801040497,新規,0,2022-03-25,2022-03-25,リンクス・エナジー株式会社,,株式会社,東京都,足立区,青井２丁目２２－１７,,13,121,1200012,,,,,,,2022-03-25,1,,,,,リンクスエナジー,0
2260,9012301012929,新規,0,2022-03-25,2022-03-25,株式会社佐竹Ｓ＆Ｈ,,株式会社,東京都,町田市,成瀬が丘１丁目３０番地１,,13,209,1940011,,,,,,,2022-03-25,1,,,,,サタケエスアンドエイチ,0
2274,9020001145800,新規,0,2022-03-25,2022-03-25,ＷＣＲ　ＪＡＰＡＮ株式会社,,株式会社,神奈川県,横浜市旭区,白根５丁目１６番１号,,14,112,2410005,,,,,,,2022-03-25,1,,,,,ダブリューシーアールジャパン,0
2278,9020003021504,新規,0,2022-03-25,2022-03-25,合同会社ＬｉｆｅＥｃｏ,,合同会社,神奈川県,横浜市神奈川区,神奈川２丁目１７番地１５第３松田ビル２－Ｂ,,14,102,2210045,,,,,,,2022-03-25,1,,,,,ライフエコ,0
2279,9020005015421,新規,0,2022-03-25,2022-03-25,一般社団法人ロイヤルキルティーズ,,その他の設立登記法人,神奈川県,横浜市磯子区,中原２丁目１４番１２号,,14,107,2350036,,,,,,,2022-03-25,1,,,,,ロイヤルキルティーズ,0
2280,9021001075491,新規,0,2022-03-25,2022-03-25,株式会社海風庵,,株式会社,神奈川県,藤沢市,片瀬４丁目９番４１号,,14,205,2510032,,,,,,,2022-03-25,1,,,,,カイフウアン,0
2281,9021001075517,新規,0,2022-03-25,2022-03-25,株式会社ＡｓｔｒｏＴ．,,株式会社,神奈川県,逗子市,桜山１丁目７番８号,,14,208,2490005,,,,,,,2022-03-25,1,,,,,アストロティー,0
2282,9021001075525,新規,0,2022-03-25,2022-03-25,株式会社ＦＲＥＥＤＯＭ,,株式会社,神奈川県,伊勢原市,伊勢原１丁目３番２６号,,14,214,2591131,,,,,,,2022-03-25,1,,,,,フリーダム,0
2284,9021003011494,新規,0,2022-03-25,2022-03-25,６７００合同会社,,合同会社,神奈川県,足柄上郡大井町,金子１８１７,,14,362,2580019,,,,,,,2022-03-25,1,,,,,ロクナナゼロゼロ,0
2285,9021003011511,新規,0,2022-03-25,2022-03-25,合同会社ａｔ　ｔｈｅ　ＣＯＲＥ,,合同会社,神奈川県,藤沢市,鵠沼海岸２丁目１７番１６－１０４号,00126057,14,205,2510037,,,,,,,2022-03-25,1,,,,,アットザコア,0
2286,9030001147424,新規,0,2022-03-25,2022-03-25,株式会社慶乃,,株式会社,埼玉県,川越市,大字中福２８番地３６,,11,201,3501156,,,,,,,2022-03-25,1,,,,,ヨシノ,0
2290,9030003019092,新規,0,2022-03-25,2022-03-25,ＫＡＮＴＯ合同会社,,合同会社,埼玉県,さいたま市浦和区,領家２丁目４番２号,,11,107,3300072,,,,,,,2022-03-25,1,,,,,カント,0
2291,9030005020750,新規,0,2022-03-25,2022-03-25,一般社団法人ＳＹ２,,その他の設立登記法人,埼玉県,久喜市,久喜東５丁目１４番２６号１Ｆ,,11,232,3460016,,,,,,,2022-03-25,1,,,,,エスワイツー,0
2303,9040002037887,新規,0,2022-03-25,2022-03-25,有限会社齋藤ビニール,,有限会社,千葉県,鎌ケ谷市,くぬぎ山１丁目６番３９号,,12,224,2730128,,,,,,,2022-03-25,1,,,,,,0
2306,9040003019744,新規,0,2022-03-25,2022-03-25,ＤＮ投資＆発展合同会社,,合同会社,千葉県,八千代市,八千代台西１丁目６番地２,,12,221,2760034,,,,,,,2022-03-25,1,,,,,ディーエヌトウシアンドハッテン,0
2307,9040003019752,新規,0,2022-03-25,2022-03-25,アキュラ自動車合同会社,,合同会社,千葉県,長生郡白子町,牛込十一軒９４３番６,,12,424,2994202,,,,,,,2022-03-25,1,,,,,アキュラジドウシャ,0
2310,9050001050840,新規,0,2022-03-25,2022-03-25,株式会社坪和企画,,株式会社,茨城県,北茨城市,磯原町豊田１２２６番地３,,08,215,3191543,,,,,,,2022-03-25,1,,,,,ツボワキカク,0
2313,9050003006444,新規,0,2022-03-25,2022-03-25,合同会社ＮＳＨｏｓｐｉｔａｌｉｔｙ,,合同会社,茨城県,牛久市,ひたち野西３丁目３７番地５（コンフィールひたち野うしく７１２）,,08,219,3001206,,,,,,,2022-03-25,1,,,,,エヌエスホスピタリティ,0
2315,9060001034677,新規,0,2022-03-25,2022-03-25,株式会社ドリーム,,株式会社,栃木県,宇都宮市,松原１丁目１番１０号,,09,201,3200041,,,,,,,2022-03-25,1,,,,,ドリーム,0
2317,9060003003993,新規,0,2022-03-25,2022-03-25,合同会社ケアコネクト,,合同会社,栃木県,大田原市,山の手２丁目１１―８,,09,210,3240051,,,,,,,2022-03-25,1,,,,,ケアコネクト,0
2320,9070001039072,新規,0,2022-03-25,2022-03-25,株式会社サードプレイス,,株式会社,群馬県,前橋市,箱田町１１４２番地１,,10,201,3710837,,,,,,,2022-03-25,1,,,,,サードプレイス,0
2328,9090001017489,新規,0,2022-03-25,2022-03-25,株式会社タキ・ホールディングス,,株式会社,山梨県,富士吉田市,上暮地６丁目４番１０号,,19,202,4030001,,,,,,,2022-03-25,1,,,,,タキホールディングス,0
2330,9090003002068,新規,0,2022-03-25,2022-03-25,合同会社みらい,,合同会社,山梨県,中巨摩郡昭和町,河西１３４８番地スプリングハイツ１－１０３,,19,384,4093851,,,,,,,2022-03-25,1,,,,,ミライ,0
2335,9120001244609,新規,0,2022-03-25,2022-03-25,株式会社伸徳,,株式会社,大阪府,大阪市西区,九条南４丁目１４番１号,,27,106,5500025,,,,,,,2022-03-25,1,,,,,シントク,0
2336,9120001244666,新規,0,2022-03-25,2022-03-25,株式会社ＰＤＤｄｅＤ,,株式会社,大阪府,門真市,本町２５番２４号前川ハイツ３０１号室,,27,223,5710046,,,,,,,2022-03-25,1,,,,,ピーディー,0
2343,9120003021337,新規,0,2022-03-25,2022-03-25,合同会社クローバー,,合同会社,大阪府,枚方市,養父西町４番５号,,27,210,5731141,,,,,,,2022-03-25,1,,,,,クローバー,0
2348,9120101065285,新規,0,2022-03-25,2022-03-25,株式会社ＯＭＯＩＹＡＲＩ,,株式会社,大阪府,和泉市,観音寺町６５６番地,,27,219,5940065,,,,,,,2022-03-25,1,,,,,オモイヤリ,0
2363,9140005026092,新規,0,2022-03-25,2022-03-25,医療法人社団真正会,,その他の設立登記法人,兵庫県,姫路市,飾磨区清水１８１番地さくらビル１階,,28,201,6728051,,,,,,,2022-03-25,1,,,,,シンセイカイ,0
2365,9160001024057,新規,0,2022-03-25,2022-03-25,熊谷絹綿株式会社,,株式会社,滋賀県,米原市,顔戸１７９６番地,,25,214,5210072,,,,,,,2022-03-25,1,,,,,クマガイケンメン,0
2373,9180001150495,新規,0,2022-03-25,2022-03-25,株式会社Ｖｉｏｌａ,,株式会社,愛知県,名古屋市南区,元桜田町１丁目３１番地の２,,23,112,4570032,,,,,,,2022-03-25,1,,,,,ビオラ,0
2374,9180001150553,新規,0,2022-03-25,2022-03-25,株式会社ユナイト,,株式会社,愛知県,名古屋市中区,正木４丁目２番９号,,23,106,4600024,,,,,,,2022-03-25,1,,,,,ユナイト,0
2381,9180003023641,新規,0,2022-03-25,2022-03-25,合同会社エルアイビイ,,合同会社,愛知県,名古屋市東区,泉１丁目１１番６号ミソカビル２Ｆ,,23,102,4610001,,,,,,,2022-03-25,1,,,,,エルアイビイ,0
2382,9180005019687,新規,0,2022-03-25,2022-03-25,特定非営利活動法人グリーンアドバイザーあいち,,その他の設立登記法人,愛知県,長久手市,岩作中島５１番地１,,23,238,4801103,,,,,,,2022-03-25,1,,,,,グリーンアドバイザーアイチ,0
2392,9230005009212,新規,0,2022-03-25,2022-03-25,一般社団法人ｗｉｔｈ　ｐｌｕｓ,,その他の設立登記法人,富山県,富山市,月岡西緑町３３９番地,,16,201,9398142,,,,,,,2022-03-25,1,,,,,ウィズプラス,0
2396,9260003003841,新規,0,2022-03-25,2022-03-25,合同会社アメージングプロダクツ,,合同会社,岡山県,井原市,西江原町８３０－４,,33,207,7150006,,,,,,,2022-03-25,1,,,,,アメージングプロダクツ,0
2402,9290001096934,新規,0,2022-03-25,2022-03-25,株式会社寿企画,,株式会社,福岡県,福岡市中央区,天神２丁目３番１０号天神パインクレスト７１９号,,40,133,8100001,,,,,,,2022-03-25,1,,,,,コトブキキカク,0
2439,9420001017777,新規,0,2022-03-25,2022-03-25,ヤマモト設備株式会社,,株式会社,青森県,青森市,大字宮田字玉水２９３番地３,,02,201,0393505,,,,,,,2022-03-25,1,,,,,ヤマモトセツビ,0
2453,9700150107490,新規,0,2022-03-25,2022-03-25,現代エレクトリック＆エネルギーシステム株式会社,,外国会社等,大阪府,大阪市中央区,南船場２丁目４－８長堀プラザビル５階１号室,,27,128,5420081,大韓民国ソウル特別市鐘路区ユルゴク路７５（桂洞）,,,,,,2022-03-25,1,,,,,ゲンダイエレクトリックアンドエネルギーシステムカブシキガイシャ,0
