sequenceNumber,corporateNumber,process,correct,updateDate,changeDate,name,nameImageId,kind,prefectureName,cityName,streetNumber,addressImageId,prefectureCode,cityCode,postCode,addressOutside,addressOutsideImageId,closeDate,closeCause,successorCorporateNumber,changeCause,assignmentDate,latest,enName,enPrefectureName,enCityName,enAddressOutside,furigana,hihyoji
25,1010403024123,登記記録の閉鎖等,0,2023-02-08,2023-01-26,合同会社比婆企画,,合同会社,東京都,港区,高輪４丁目２３番６号ハイホーム高輪７０８,,13,103,1080074,,,2023-01-26,清算の結了等,,,2020-11-18,1,,,,,ヒバキカク,0
35,1010502021418,登記記録の閉鎖等,0,2023-02-08,2023-02-06,Ｗａｔｔｉｅ’ｓ　Ｊａｐａｎ有限会社,,有限会社,東京都,台東区,台東１丁目３２番３号,,13,106,1100016,,,2023-02-06,清算の結了等,,,2015-10-05,1,,,,,ワティーズジャパン,0
36,1010503006681,登記記録の閉鎖等,0,2023-02-08,2023-02-07,日易合同会社,,合同会社,東京都,台東区,上野６丁目７番１６号川久保ビル４Ｆ,,13,106,1100005,,,2023-02-07,清算の結了等,,,2022-08-10,1,,,,,ヒイ,0
43,1010603008529,登記記録の閉鎖等,0,2023-02-08,2023-02-03,合同会社あした,,合同会社,東京都,江東区,豊洲４丁目１１番２０－７１３号,,13,108,1350061,,,2023-02-03,清算の結了等,,,2020-09-03,1,,,,,アシタ,0
49,1010901045001,登記記録の閉鎖等,0,2023-02-08,2023-02-03,株式会社ＯＮＥ,,株式会社,埼玉県,ふじみ野市,霞ケ丘１丁目２番１２－２００９号,,11,245,3560006,,,2023-02-03,清算の結了等,,,2019-10-11,1,,,,,ワン,0
67,1011103005306,登記記録の閉鎖等,0,2023-02-08,2023-02-06,ティーダ・パワー８７合同会社,,合同会社,福島県,福島市,御山字稲荷田２１番地５,,07,201,9608252,,,2023-02-06,清算の結了等,,,2015-10-05,1,,,,,ティーダパワーハチナナ,0
72,1011305002547,登記記録の閉鎖等,0,2023-02-08,2023-02-01,一般社団法人Ｍエイル,,その他の設立登記法人,東京都,中野区,野方２丁目６４番６号,,13,114,1650027,,,2023-02-01,清算の結了等,,,2019-04-04,1,,,,,エムエイル,0
79,1012402004238,登記記録の閉鎖等,0,2023-02-08,2023-02-02,有限会社マイン企画,,有限会社,東京都,国分寺市,新町２丁目５番地５,,13,214,1850004,,,2023-02-02,清算の結了等,,,2015-10-05,1,,,,,,0
82,1013301044317,登記記録の閉鎖等,0,2023-02-08,2023-02-01,株式会社フロンティア,,株式会社,東京都,豊島区,東池袋１丁目３４番５号いちご東池袋ビル６階,,13,116,1700013,,,2023-02-01,合併による解散等,4013301030628,令和５年２月１日東京都豊島区東池袋一丁目３４番５号いちご東池袋ビル６階株式会社アクガレージ（4013301030628）に合併し解散,2019-08-06,1,,,,,フロンティア,0
96,1021001013616,登記記録の閉鎖等,0,2023-02-08,2023-02-06,パール計装株式会社,,株式会社,神奈川県,相模原市中央区,淵野辺本町５丁目２５番９号,,14,152,2520202,,,2023-02-06,清算の結了等,,,2015-10-05,1,,,,,パールケイソウ,0
109,1030002066242,登記記録の閉鎖等,0,2023-02-08,2023-02-06,有限会社ケントシール,,有限会社,埼玉県,新座市,本多１丁目８番３号,,11,230,3520022,,,2023-02-06,清算の結了等,,,2015-10-05,1,,,,,ケントシール,0
111,1030002083056,登記記録の閉鎖等,0,2023-02-08,2023-02-02,有限会社東プレス,,有限会社,埼玉県,北本市,宮内５丁目１１６番地,,11,233,3640002,,,2023-02-02,清算の結了等,,,2015-10-05,1,,,,,アズマプレス,0
115,1040001092255,登記記録の閉鎖等,0,2023-02-08,2023-02-03,株式会社ＬＷＢ,,株式会社,東京都,練馬区,大泉学園町３丁目１７番３６号エスポワール大泉１０３,,13,120,1780061,,,2023-02-03,清算の結了等,,,2015-10-05,1,,,,,ロブ,0
120,1050001029363,登記記録の閉鎖等,0,2023-02-08,2023-02-02,株式会社オギツ物流センター,,株式会社,茨城県,常総市,川崎町乙６０９番地,,08,211,3002503,,,2023-02-02,合併による解散等,9010501004036,令和５年１月１日東京都中央区新川一丁目１７番２５号恒和総業株式会社（9010501004036）に合併し解散,2015-10-05,1,,,,,オギツブツリュウセンター,0
125,1080402004078,登記記録の閉鎖等,0,2023-02-08,2023-02-07,有限会社鈴富鉄工所,,有限会社,静岡県,浜松市中区,泉４丁目１９番２１号,,22,131,4338124,,,2023-02-07,清算の結了等,,,2015-10-05,1,,,,,スズトミテッコウショ,0
158,1122002010138,登記記録の閉鎖等,0,2023-02-08,2023-02-07,株式会社ナイン,,株式会社,大阪府,東大阪市,横枕南５番１５号,,27,227,5780955,,,2023-02-07,清算の結了等,,,2015-10-05,1,,,,,ナイン,0
165,1130005012241,登記記録の閉鎖等,0,2023-02-08,2023-02-01,一般社団法人蛍光管リサイクル協会,,その他の設立登記法人,京都府,京都市中京区,烏丸通二条下る秋野々町５２９番地,,26,104,6040847,,,2023-02-01,清算の結了等,,,2015-10-05,1,,,,,ケイコウカンリサイクルキョウカイ,0
183,1180002082076,登記記録の閉鎖等,0,2023-02-08,2023-02-03,有限会社ドラッグ勝山,,有限会社,愛知県,江南市,木賀東町新宮２９番地,,23,217,4838163,,,2023-02-03,清算の結了等,,,2015-10-05,1,,,,,ドラッグカツヤマ,0
185,1180301007915,登記記録の閉鎖等,0,2023-02-08,2023-02-02,株式会社山銀材木店,,株式会社,愛知県,田原市,福江町仲田３５番地の１,,23,231,4413617,,,2023-02-02,清算の結了等,,,2015-10-05,1,,,,,ヤマギンザイモクテン,0
189,1190002004582,登記記録の閉鎖等,0,2023-02-08,2023-02-02,有限会社おおしま,,有限会社,三重県,四日市市,鵜の森２丁目１３番１８－２０１号,,24,202,5100074,,,2023-02-02,清算の結了等,,,2015-10-05,1,,,,,オオシマ,0
193,1240001027133,登記記録の閉鎖等,0,2023-02-08,2023-02-06,株式会社ヤマサキ,,株式会社,広島県,江田島市,江田島町秋月３丁目１番６号,,34,215,7372131,,,2023-02-06,清算の結了等,,,2015-10-05,1,,,,,ヤマサキ,0
225,1330003007941,登記記録の閉鎖等,0,2023-02-08,2023-02-06,合同会社光の森自由カンパニー,,合同会社,熊本県,熊本市北区,龍田１丁目１８番２０号,,43,105,8618006,,,2023-02-06,清算の結了等,,,2019-05-31,1,,,,,ヒカリノモリジユウカンパニー,0
227,1340002006844,登記記録の閉鎖等,0,2023-02-08,2023-02-06,有限会社中園工務店,,有限会社,鹿児島県,鹿児島市,西陵２丁目３番２１号,,46,201,8900032,,,2023-02-06,清算の結了等,,,2015-10-05,1,,,,,ナカゾノコウムテン,0
236,1390001011923,登記記録の閉鎖等,0,2023-02-08,2023-02-06,株式会社丸七ニット,,株式会社,山形県,寒河江市,大字八鍬５６４番地,,06,206,9900523,,,2023-02-06,清算の結了等,,,2015-10-05,1,,,,,マルシチニット,0
247,1450002011932,登記記録の閉鎖等,0,2023-02-08,2023-02-06,有限会社八丸阿部商事,,有限会社,北海道,留萌市,本町２丁目２２番地,,01,212,0770045,,,2023-02-06,清算の結了等,,,2015-10-05,1,,,,,ハチマルアベショウジ,0
264,2010001151491,登記記録の閉鎖等,0,2023-02-08,2023-02-01,クラフトグループ本社株式会社,,株式会社,東京都,千代田区,丸の内１丁目１番１号,,13,101,1000005,,,2023-02-01,合併による解散等,8010001129202,令和５年１月３１日東京都千代田区丸の内一丁目１番１号クラフト株式会社（8010001129202）に合併し解散,2015-10-05,1,,,,,クラフトグループホンシャ,0
309,2011001098285,登記記録の閉鎖等,0,2023-02-08,2023-02-06,スマートレスキュー株式会社,,株式会社,大阪府,大阪市西区,西本町１丁目８番２号,,27,106,5500005,,,2023-02-06,合併による解散等,3011001125518,令和５年２月１日東京都新宿区新宿二丁目１６番６号株式会社ＨＵＭＡＮ　ＬＩＦＥ（3011001125518）に合併し解散,2015-10-05,1,,,,,スマートレスキュー,0
330,2020001068735,登記記録の閉鎖等,0,2023-02-08,2023-02-01,株式会社阿部機械彫刻所,,株式会社,神奈川県,川崎市中原区,上平間１２２１番地,,14,133,2110013,,,2023-02-01,清算の結了等,,,2015-10-05,1,,,,,アベキカイチョウコクショ,0
344,2030001128109,登記記録の閉鎖等,0,2023-02-08,2023-02-02,株式会社カルテットソリューションズ,,株式会社,埼玉県,上尾市,宮本町１０番２号サンロイヤル３０１,,11,219,3620036,,,2023-02-02,清算の結了等,,,2018-11-06,1,,,,,カルテットソリューションズ,0
349,2030002039404,登記記録の閉鎖等,0,2023-02-08,2023-02-03,有限会社セキ薬局,,有限会社,埼玉県,久喜市,栗橋中央２丁目３番１号,,11,232,3491102,,,2023-02-03,清算の結了等,,,2015-10-05,1,,,,,セキヤッキョク,0
370,2080002004741,登記記録の閉鎖等,0,2023-02-08,2023-02-06,有限会社原電気,,有限会社,静岡県,静岡市葵区,伝馬町１５番地の８,,22,101,4200858,,,2023-02-06,清算の結了等,,,2015-10-05,1,,,,,ハラデンキ,0
371,2080101017735,登記記録の閉鎖等,0,2023-02-08,2023-02-07,株式会社キャリア開発,,株式会社,静岡県,伊豆市,冷川１５２４番地１３９４,,22,222,4102507,,,2023-02-07,清算の結了等,,,2015-10-05,1,,,,,キャリアカイハツ,0
378,2110002019348,登記記録の閉鎖等,0,2023-02-08,2023-02-06,有限会社桜井プレス,,有限会社,新潟県,燕市,小高５８９０番地１,,15,213,9591241,,,2023-02-06,清算の結了等,,,2015-10-05,1,,,,,サクライプレス,0
394,2120003021459,登記記録の閉鎖等,0,2023-02-08,2023-02-03,ソソグ合同会社,,合同会社,大阪府,大阪市北区,梅田１丁目１番３号大阪駅前第３ビル２９階１－１－１号室,,27,127,5300001,,,2023-02-03,清算の結了等,,,2022-04-26,1,,,,,ソソグ,0
426,2180001015762,登記記録の閉鎖等,0,2023-02-08,2023-02-03,株式会社山口製作所,,株式会社,愛知県,名古屋市南区,岩戸町７番４号,,23,112,4570015,,,2023-02-03,清算の結了等,,,2015-10-05,1,,,,,ヤマグチセイサクショ,0
438,2180003015892,登記記録の閉鎖等,0,2023-02-08,2023-02-01,エーウィン合資会社,,合資会社,愛知県,名古屋市西区,上橋町２５８番地,,23,104,4520844,,,2023-02-01,清算の結了等,,,2015-10-05,1,,,,,エーウィン,0
440,2180301018085,登記記録の閉鎖等,0,2023-02-08,2023-02-06,加茂水産株式会社,,株式会社,愛知県,豊田市,高崎町兼近７０番地,,23,211,4710048,,,2023-02-06,清算の結了等,,,2015-10-05,1,,,,,カモスイサン,0
444,2190001017452,登記記録の閉鎖等,0,2023-02-08,2023-02-02,トータスエンジニアリング株式会社,,株式会社,三重県,三重郡菰野町,大字大強原２５００番地の１,,24,341,5101222,,,2023-02-02,合併による解散等,2500001009665,令和５年２月１日愛媛県新居浜市西原町二丁目４番３４号日泉化学株式会社（2500001009665）に合併し解散,2015-10-05,1,,,,,トータスエンジニアリング,0
449,2200002008333,登記記録の閉鎖等,0,2023-02-08,2023-02-06,有限会社マルヰ,,有限会社,岐阜県,各務原市,蘇原古市場町４丁目７０番地,,21,213,5040852,,,2023-02-06,清算の結了等,,,2015-10-05,1,,,,,マルイ,0
466,2310001006962,登記記録の閉鎖等,0,2023-02-08,2023-02-07,三建重機株式会社,,株式会社,長崎県,佐世保市,江迎町赤坂２２７番地５,,42,202,8596131,,,2023-02-07,清算の結了等,,,2015-10-05,1,,,,,,0
468,2330001006746,登記記録の閉鎖等,0,2023-02-08,2023-02-06,株式会社藤木コンタクト,,株式会社,熊本県,熊本市東区,戸島西３丁目２番４５号,,43,102,8618043,,,2023-02-06,清算の結了等,,,2015-10-05,1,,,,,フジキコンタクト,0
469,2330001026926,登記記録の閉鎖等,0,2023-02-08,2023-02-07,株式会社朝,,株式会社,熊本県,熊本市北区,太郎迫町３５４番地５,,43,105,8615532,,,2023-02-07,清算の結了等,,,2019-11-08,1,,,,,アサ,0
488,2420002005795,登記記録の閉鎖等,0,2023-02-08,2023-02-03,有限会社アド・プラン,,有限会社,青森県,青森市,けやき１丁目２１番１６号,,02,201,0300918,,,2023-02-03,清算の結了等,,,2015-10-05,1,,,,,アドプラン,0
497,2460302000872,登記記録の閉鎖等,0,2023-02-08,2023-02-06,有限会社関商店,,有限会社,北海道,北見市,春光町２丁目１３８番地１７,,01,208,0900801,,,2023-02-06,清算の結了等,,,2015-10-05,1,,,,,セキショウテン,0
507,3010001081903,登記記録の閉鎖等,0,2023-02-08,2023-02-02,株式会社アサヒメディケア,,株式会社,東京都,千代田区,神田小川町２丁目１０番地,,13,101,1010052,,,2023-02-02,合併による解散等,1100001002430,令和５年２月１日長野市篠ノ井塩崎２３０４番地１長野テクトロン株式会社（1100001002430）に合併し解散,2015-10-05,1,,,,,,0
508,3010001121683,登記記録の閉鎖等,0,2023-02-08,2023-02-06,株式会社プロフィット,,株式会社,東京都,新宿区,上落合２丁目３番５号,,13,104,1610034,,,2023-02-06,清算の結了等,,,2015-10-05,1,,,,,プロフィット,0
511,3010001194300,登記記録の閉鎖等,0,2023-02-08,2023-02-01,ＡｓｋａＱＲ株式会社,,株式会社,東京都,千代田区,神田佐久間町１丁目８番４号アルテール秋葉原７０８,,13,101,1010025,,,2023-02-01,清算の結了等,,,2018-08-21,1,,,,,アスカキューアール,0
531,3010701009229,登記記録の閉鎖等,0,2023-02-08,2023-02-03,マックスナーエレクトロニクス株式会社,,株式会社,東京都,品川区,大井１丁目１１番６号寺崎ビル,,13,109,1400014,,,2023-02-03,合併による解散等,3190001013145,令和５年２月１日三重県桑名市大字額田２９３番地エスエスシー株式会社（3190001013145）に合併し解散,2015-10-05,1,,,,,マックスナーエレクトロニクス,0
535,3010901028714,登記記録の閉鎖等,0,2023-02-08,2023-02-06,株式会社エイチ・エスカンパニー,,株式会社,東京都,世田谷区,上用賀３丁目１番２４－２０２号,,13,112,1580098,,,2023-02-06,清算の結了等,,,2015-10-05,1,,,,,エイチエスカンパニー,0
545,3011301024015,登記記録の閉鎖等,0,2023-02-08,2023-02-03,株式会社光学設計研究所,,株式会社,東京都,杉並区,和田２丁目３番３号,,13,115,1660012,,,2023-02-03,清算の結了等,,,2018-04-06,1,,,,,コウガクセッケイケンキュウジョ,0
561,3012702006832,登記記録の閉鎖等,0,2023-02-08,2023-02-03,有限会社誠和技建,,有限会社,東京都,東久留米市,滝山６丁目２番１０～２１３,,13,222,2030033,,,2023-02-03,清算の結了等,,,2015-10-05,1,,,,,セイワギケン,0
591,3021002056133,登記記録の閉鎖等,0,2023-02-08,2023-02-02,有限会社アイ住建,,有限会社,神奈川県,足柄上郡中井町,岩倉３０７番地の４,,14,361,2590154,,,2023-02-02,清算の結了等,,,2015-10-05,1,,,,,アイジュウケン,0
605,3030002101600,登記記録の閉鎖等,0,2023-02-08,2023-02-03,有限会社春日エンタープライズ,,有限会社,埼玉県,川口市,中青木５丁目１０番１１号,,11,203,3320032,,,2023-02-03,清算の結了等,,,2015-10-05,1,,,,,カスガエンタープライズ,0
606,3030002109643,登記記録の閉鎖等,0,2023-02-08,2023-02-02,有限会社松田空調,,有限会社,埼玉県,川口市,大字神戸５０２番地の５,,11,203,3330832,,,2023-02-02,清算の結了等,,,2015-10-05,1,,,,,マツダクウチョウ,0
654,3120001216299,登記記録の閉鎖等,0,2023-02-08,2023-02-06,株式会社ＭＡＲＵ,,株式会社,大阪府,大阪市北区,梅田２丁目５番６号,,27,127,5300001,,,2023-02-06,清算の結了等,,,2018-10-03,1,,,,,マル,0
664,3120005021571,登記記録の閉鎖等,0,2023-02-08,2023-02-07,ＮＰＯ法人地域交遊会,,その他の設立登記法人,大阪府,大阪市中央区,南船場４丁目１０番５号南船場ＳＯＨＯビル７０２,,27,128,5420081,,,2023-02-07,清算の結了等,,,2020-05-08,1,,,,,チイキコウユウカイ,0
681,3130001028859,登記記録の閉鎖等,0,2023-02-08,2023-02-06,株式会社洛東物流,,株式会社,京都府,京都市山科区,勧修寺西北出町１番地１,,26,110,6078225,,,2023-02-06,清算の結了等,,,2015-10-05,1,,,,,ラクトウブツリュウ,0
685,3140001053666,登記記録の閉鎖等,0,2023-02-08,2023-02-02,株式会社悦,,株式会社,兵庫県,尼崎市,七松町２丁目６番１号,,28,202,6600052,,,2023-02-02,清算の結了等,,,2015-10-05,1,,,,,エツ,0
709,3180302001824,登記記録の閉鎖等,0,2023-02-08,2023-01-31,有限会社タツキ,,有限会社,愛知県,岡崎市,中町字大門通２１番地９,,23,202,4440015,,,2023-01-31,清算の結了等,,,2015-10-05,1,,,,,タツキ,0
715,3200001035113,登記記録の閉鎖等,0,2023-02-08,2023-02-06,株式会社Ｌａｚｏ　ｐｌａｎｎｉｎｇ,,株式会社,岐阜県,岐阜市,北島１丁目５番７号,,21,201,5020911,,,2023-02-06,清算の結了等,,,2018-04-26,1,,,,,ラゾプランニング,0
718,3200002007516,登記記録の閉鎖等,0,2023-02-08,2023-02-07,有限会社ロードサイン,,有限会社,岐阜県,各務原市,鵜沼台８丁目７７番地,,21,213,5090121,,,2023-02-07,清算の結了等,,,2015-10-05,1,,,,,ロードサイン,0
720,3210001018843,登記記録の閉鎖等,0,2023-02-08,2023-02-07,株式会社ＰＯＯＬ,,株式会社,福井県,福井市,若杉２丁目１２１０番地,,18,201,9188055,,,2023-02-07,清算の結了等,,,2022-03-10,1,,,,,プール,0
743,3300005000152,登記記録の閉鎖等,0,2023-02-08,2023-02-06,一般財団法人佐賀県ピーティーエー会館,,その他の設立登記法人,佐賀県,佐賀市,南佐賀３丁目１１番１５号,,41,201,8400016,,,2023-02-06,清算の結了等,,,2015-10-05,1,,,,,サガケンピーティーエーカイカン,0
754,3330005001940,登記記録の閉鎖等,0,2023-02-08,2023-02-06,特定非営利活動法人熊本技術士の会,,その他の設立登記法人,熊本県,熊本市中央区,帯山４丁目１４－１３－３,,43,101,8620924,,,2023-02-06,清算の結了等,,,2015-10-05,1,,,,,クマモトギジュツシノカイ,0
758,3340002001488,登記記録の閉鎖等,0,2023-02-08,2023-02-07,有限会社岩川建設工業,,有限会社,鹿児島県,鹿児島市,武岡４丁目４番１７号,,46,201,8900031,,,2023-02-07,清算の結了等,,,2015-10-05,1,,,,,イワカワケンセツコウギョウ,0
767,3380001025823,登記記録の閉鎖等,0,2023-02-08,2023-02-02,株式会社福島商工サービス,,株式会社,福島県,福島市,三河南町１番２０号コラッセふくしま９Ｆ,,07,201,9608053,,,2023-02-02,清算の結了等,,,2015-10-05,1,,,,,フクシマショウコウサービス,0
770,3390003000872,登記記録の閉鎖等,0,2023-02-08,2023-02-03,合資会社ワタベ,,合資会社,山形県,長井市,今泉５５２番地,,06,209,9930033,,,2023-02-03,清算の結了等,,,2015-10-05,1,,,,,ワタベ,0
777,3400001015185,登記記録の閉鎖等,0,2023-02-08,2023-02-03,株式会社ウェルソック岩手,,株式会社,岩手県,紫波郡矢巾町,大字室岡第１２地割４１番地４,,03,322,0283625,,,2023-02-03,合併による解散等,6380001033138,令和５年１月３１日福島県会津若松市一箕町松長一丁目１７番地７株式会社ウェルソック東北（6380001033138）に合併し解散,2020-10-14,1,,,,,,0
788,3470002005567,登記記録の閉鎖等,0,2023-02-08,2023-02-07,有限会社原敬産業,,有限会社,香川県,高松市,松島町３丁目１４番２２号,,37,201,7600068,,,2023-02-07,清算の結了等,,,2015-10-05,1,,,,,ハラタカシサンギョウ,0
796,3500001011471,登記記録の閉鎖等,0,2023-02-08,2023-02-06,株式会社協和,,株式会社,愛媛県,今治市,東門町１丁目１番地１,,38,202,7940033,,,2023-02-06,合併による解散等,3490001004312,令和５年２月１日高知市萩町一丁目７番２１号株式会社ブルケン四国（3490001004312）に合併し解散,2015-10-05,1,,,,,キョウワ,0
797,3500005001444,登記記録の閉鎖等,0,2023-02-08,2023-02-07,一般財団法人愛媛県廃棄物処理センター,,その他の設立登記法人,愛媛県,松山市,一番町４丁目４番地２,,38,201,7900001,,,2023-02-07,清算の結了等,,,2015-10-05,1,,,,,エヒメケンハイキブツショリセンター,0
809,4010001113762,登記記録の閉鎖等,0,2023-02-08,2023-02-01,クラフトホールディングス株式会社,,株式会社,東京都,千代田区,丸の内１丁目１番１号,,13,101,1000005,,,2023-02-01,合併による解散等,8010001129202,令和５年１月３１日東京都千代田区丸の内一丁目１番１号クラフト株式会社（8010001129202）に合併し解散,2015-10-05,1,,,,,クラフトホールディングス,0
810,4010001116344,登記記録の閉鎖等,0,2023-02-08,2023-01-26,ブリージャパン株式会社,,株式会社,東京都,港区,東麻布３丁目７番３号東麻布久永ビル４階,,13,103,1060044,,,2023-01-26,合併による解散等,8011001068035,令和４年１２月３０日東京都港区東麻布三丁目７番３号東麻布久永ビル４階株式会社エンデバー・エス・ビー・シー（8011001068035）に合併し解散,2015-10-05,1,,,,,,0
827,4010401104907,登記記録の閉鎖等,0,2023-02-08,2023-01-20,調達情報センター株式会社,,株式会社,東京都,港区,新橋６丁目１６番１２号,,13,103,1050004,,,2023-01-20,清算の結了等,,,2015-10-05,1,,,,,チョウタツジョウホウセンター,0
835,4010402033725,登記記録の閉鎖等,0,2023-02-08,2023-02-01,サンモアジャパン株式会社,,株式会社,東京都,狛江市,東和泉３丁目３－３，３０４,,13,219,2010014,,,2023-02-01,清算の結了等,,,2015-10-05,1,,,,,サンモアジャパン,0
843,4011001017490,登記記録の閉鎖等,0,2023-02-08,2023-02-06,日本オフイススタッフ株式会社,,株式会社,東京都,渋谷区,代々木１丁目１５番７号,,13,113,1510053,,,2023-02-06,清算の結了等,,,2015-10-05,1,,,,,,0
895,4021001021260,登記記録の閉鎖等,0,2023-02-08,2023-02-02,株式会社富国ホーム,,株式会社,神奈川県,伊勢原市,東大竹６２７番地,,14,214,2591133,,,2023-02-02,清算の結了等,,,2023-01-04,1,,,,,フコクホーム,0
906,4030002012202,登記記録の閉鎖等,0,2023-02-08,2023-02-06,有限会社星河電気,,有限会社,埼玉県,さいたま市緑区,大字間宮１７６番地１,,11,109,3360965,,,2023-02-06,清算の結了等,,,2015-10-05,1,,,,,ホシカワデンキ,0
907,4030002031598,登記記録の閉鎖等,0,2023-02-08,2023-02-03,有限会社山本解体興業,,有限会社,埼玉県,所沢市,林２丁目１３２番１０号,,11,208,3591167,,,2023-02-03,清算の結了等,,,2015-10-05,1,,,,,ヤマモトカイタイコウギョウ,0
920,4040003014510,登記記録の閉鎖等,0,2023-02-08,2023-01-31,合同会社ゴウジン,,合同会社,千葉県,千葉市花見川区,幕張本郷４丁目９番４１号,,12,102,2620033,,,2023-01-31,合併による解散等,8040003013847,令和５年１月３１日千葉県市川市東菅野一丁目２２番１４号合同会社アベンタインソーラー（8040003013847）に合併し解散,2019-12-12,1,,,,,ゴウジン,0
961,4120002000123,登記記録の閉鎖等,0,2023-02-08,2023-02-06,有限会社エー・シー設計事務所,,有限会社,大阪府,大阪市城東区,今福西２丁目１７番３６－１０３号,,27,118,5360004,,,2023-02-06,清算の結了等,,,2015-10-05,1,,,,,エーシーセッケイジムショ,0
976,4140001064365,登記記録の閉鎖等,0,2023-02-08,2023-02-01,株式会社ノブタ開発地所,,株式会社,兵庫県,姫路市,北今宿２丁目４－４１,,28,201,6700057,,,2023-02-01,清算の結了等,,,2015-10-05,1,,,,,ノブタカイハツジショ,0
982,4140002052071,登記記録の閉鎖等,0,2023-02-08,2023-02-03,有限会社マエコー,,有限会社,兵庫県,姫路市,勝原区山戸２９番地,,28,201,6711214,,,2023-02-03,清算の結了等,,,2015-10-05,1,,,,,マエコー,0
1008,4200002018396,登記記録の閉鎖等,0,2023-02-08,2023-02-08,有限会社足立化成,,有限会社,岐阜県,関市,大杉６３３番地の１,,21,205,5013922,,,2023-02-08,清算の結了等,,,2015-10-05,1,,,,,アダチカセイ,0
1026,4290805006374,登記記録の閉鎖等,0,2023-02-08,2023-02-06,医療法人小林歯科医院,,その他の設立登記法人,福岡県,行橋市,大橋３丁目９番３号,,40,213,8240003,,,2023-02-06,清算の結了等,,,2015-10-05,1,,,,,コバヤシシカイイン,0
1041,4390002000055,登記記録の閉鎖等,0,2023-02-08,2023-02-03,有限会社阿部友治商店,,有限会社,山形県,山形市,緑町１丁目１番２７号,,06,201,9900041,,,2023-02-03,清算の結了等,,,2015-10-05,1,,,,,アベトモジショウテン,0
1044,4400005004530,登記記録の閉鎖等,0,2023-02-08,2023-02-03,浪板生産森林組合,,その他の設立登記法人,岩手県,上閉伊郡大槌町,吉里々々１１地割４３番地１０,,03,461,0281101,,,2023-02-03,清算の結了等,,,2015-10-05,1,,,,,ナミイタ,0
1052,4430002003953,登記記録の閉鎖等,0,2023-02-08,2023-02-06,有限会社お々ば,,有限会社,北海道,札幌市中央区,大通西６丁目５番地４,,01,101,0600042,,,2023-02-06,清算の結了等,,,2015-10-05,1,,,,,オオバ,0
1061,4460103000995,登記記録の閉鎖等,0,2023-02-08,2023-02-06,丸広企画合同会社,,合同会社,北海道,中川郡幕別町,札内あかしや町４３番地の７９,,01,643,0890552,,,2023-02-06,清算の結了等,,,2016-07-06,1,,,,,マルヒロキカク,0
1068,4470002000996,登記記録の閉鎖等,0,2023-02-08,2023-02-03,有限会社アイ・アール保険サポート,,有限会社,香川県,高松市,鬼無町鬼無１３０番地２,,37,201,7618026,,,2023-02-03,清算の結了等,,,2015-10-05,1,,,,,アイアールホケンサポート,0
1079,5010001135310,登記記録の閉鎖等,0,2023-02-08,2023-02-01,株式会社はやぶさトラスト,,株式会社,東京都,千代田区,内幸町１丁目５番２号,,13,101,1000011,,,2023-02-01,合併による解散等,5013301032004,令和５年２月１日東京都千代田区内幸町一丁目５番２号株式会社アトリウム（5013301032004）に合併し解散,2015-10-05,1,,,,,ハヤブサトラスト,0
1094,5010003027530,登記記録の閉鎖等,0,2023-02-08,2023-02-02,サファリＭＬ合同会社,,合同会社,東京都,千代田区,丸の内３丁目１番１号東京共同会計事務所内,,13,101,1000005,,,2023-02-02,清算の結了等,,,2018-05-17,1,,,,,サファリエムエル,0
1108,5010401144605,登記記録の閉鎖等,0,2023-02-08,2023-02-06,株式会社ＧＦＩホールディングス,,株式会社,東京都,中央区,日本橋人形町１丁目１８番１２号,,13,102,1030013,,,2023-02-06,合併による解散等,8110001007018,令和５年２月１日新潟県新潟市東区平和町３番地１１株式会社ＩＰＭ（8110001007018）に合併し解散,2019-03-26,1,,,,,ジーエフアイホールディングス,0
1127,5010701009838,登記記録の閉鎖等,0,2023-02-08,2023-02-06,山電産業株式会社,,株式会社,東京都,品川区,東五反田２丁目９番７号,,13,109,1410022,,,2023-02-06,清算の結了等,,,2015-10-05,1,,,,,,0
1141,5011003008041,登記記録の閉鎖等,0,2023-02-08,2023-02-06,ＳＥＨＲ　ＦＲＯＨ合同会社,,合同会社,岡山県,岡山市北区,撫川８０番地１１,,33,101,7010164,,,2023-02-06,清算の結了等,,,2017-09-20,1,,,,,ゼアフロー,0
1150,5011202001920,登記記録の閉鎖等,0,2023-02-08,2023-02-06,有限会社クリーニングキャロット,,有限会社,東京都,中野区,鷺宮４丁目４４番１０号,,13,114,1650032,,,2023-02-06,清算の結了等,,,2015-10-05,1,,,,,クリーニングキャロット,0
1172,5020001117514,登記記録の閉鎖等,0,2023-02-08,2023-02-06,株式会社ＢＲＨ,,株式会社,東京都,渋谷区,富ヶ谷２丁目２０番８号,,13,113,1510063,,,2023-02-06,清算の結了等,,,2016-08-17,1,,,,,ビーアールエイチ,0
1190,5040001068458,登記記録の閉鎖等,0,2023-02-08,2023-02-01,建テク株式会社,,株式会社,千葉県,我孫子市,天王台４丁目２０番２０号,,12,222,2701143,,,2023-02-01,清算の結了等,,,2015-10-05,1,,,,,ケンテク,0
1196,5050001014394,登記記録の閉鎖等,0,2023-02-08,2023-02-02,株式会社かしわ家,,株式会社,茨城県,坂東市,岩井４６１７番地,,08,228,3060631,,,2023-02-02,清算の結了等,,,2015-10-05,1,,,,,カシワヤ,0
1202,5060001017900,登記記録の閉鎖等,0,2023-02-08,2023-02-07,株式会社栃木精密,,株式会社,栃木県,栃木市,新井町１０３６番地２,,09,203,3280061,,,2023-02-07,清算の結了等,,,2015-10-05,1,,,,,トチギセイミツ,0
1204,5060002035629,登記記録の閉鎖等,0,2023-02-08,2023-02-06,有限会社大澤板金工業,,有限会社,栃木県,足利市,福富町９０番地１,,09,202,3260331,,,2023-02-06,清算の結了等,,,2015-10-05,1,,,,,オオサワバンキンコウギョウ,0
1220,5110002011780,登記記録の閉鎖等,0,2023-02-08,2023-02-01,有限会社バズ・スタッフ歯科補綴研究所,,有限会社,新潟県,新潟市西蒲区,巻甲４３６９番地３,,15,108,9530041,,,2023-02-01,清算の結了等,,,2015-10-05,1,,,,,バズスタッフシカホテツケンキュウショ,0
1221,5110005002868,登記記録の閉鎖等,0,2023-02-08,2023-02-06,医療法人社団さくらいクリニック,,その他の設立登記法人,新潟県,新潟市秋葉区,あおば通１丁目７番１号,,15,105,9560017,,,2023-02-06,清算の結了等,,,2015-10-05,1,,,,,サクライクリニック,0
1237,5120001222361,登記記録の閉鎖等,0,2023-02-08,2023-02-06,三宅工業株式会社,,株式会社,大阪府,大阪市平野区,瓜破３丁目２番２２号１０５,,27,126,5470024,,,2023-02-06,清算の結了等,,,2019-07-12,1,,,,,,0
1277,5180002058213,登記記録の閉鎖等,0,2023-02-08,2023-02-06,有限会社大岡エクステリア,,有限会社,愛知県,名古屋市中川区,北江町２丁目２３番地２,,23,110,4540851,,,2023-02-06,清算の結了等,,,2015-10-05,1,,,,,オオオカエクステリア,0
1280,5180003014669,登記記録の閉鎖等,0,2023-02-08,2023-02-03,合同会社アマリリス愛花,,合同会社,愛知県,知多市,佐布里字棟守４０番地,,23,224,4780015,,,2023-02-03,清算の結了等,,,2015-10-05,1,,,,,アマリリスアイカ,0
1321,5360001026680,登記記録の閉鎖等,0,2023-02-08,2023-02-01,株式会社ディーケーワークス,,株式会社,沖縄県,那覇市,西２丁目２０番地１７号,,47,201,9000036,,,2023-02-01,清算の結了等,,,2020-01-14,1,,,,,ディーケーワークス,0
1329,5370205001272,登記記録の閉鎖等,0,2023-02-08,2023-02-06,加美郡土地開発公社,,その他の設立登記法人,宮城県,加美郡加美町,字西田三番５番地,,04,445,9814252,,,2023-02-06,清算の結了等,,,2015-10-05,1,,,,,カミグン,0
1330,5380001021192,登記記録の閉鎖等,0,2023-02-08,2023-01-30,株式会社サンセラ,,株式会社,福島県,郡山市,喜久田町卸１丁目１１７番地１,,07,203,9630547,,,2023-01-30,清算の結了等,,,2015-10-05,1,,,,,サンセラ,0
1335,5420002016591,登記記録の閉鎖等,0,2023-02-08,2023-02-03,有限会社河野スポーツ,,有限会社,青森県,十和田市,東三番町２番２１号,,02,206,0340031,,,2023-02-03,清算の結了等,,,2015-10-05,1,,,,,コウノスポーツ,0
1351,5470002014260,登記記録の閉鎖等,0,2023-02-08,2023-02-03,有限会社二葉設計,,有限会社,香川県,丸亀市,飯山町西坂元５１４番地１０,,37,202,7620087,,,2023-02-03,清算の結了等,,,2015-10-05,1,,,,,フタバセッケイ,0
1354,5490002009465,登記記録の閉鎖等,0,2023-02-08,2023-02-02,有限会社近藤電気工事,,有限会社,高知県,吾川郡いの町,枝川７７７番地,,39,386,7812120,,,2023-02-02,清算の結了等,,,2015-10-05,1,,,,,コンドウデンキコウジ,0
1368,6010001116202,登記記録の閉鎖等,0,2023-02-08,2023-02-01,ＴＲＣ首都圏株式会社,,株式会社,東京都,文京区,大塚３丁目１番１号,,13,105,1120012,,,2023-02-01,合併による解散等,3010001005556,令和５年２月１日東京都文京区大塚三丁目１番１号株式会社図書館流通センター（3010001005556）に合併し解散,2015-10-05,1,,,,,ティーアールシーシュトケン,0
1381,6010101006708,登記記録の閉鎖等,0,2023-02-08,2023-02-01,ＴＲＣ多摩・山梨株式会社,,株式会社,東京都,文京区,大塚３丁目１番１号,,13,105,1120012,,,2023-02-01,合併による解散等,3010001005556,令和５年２月１日東京都文京区大塚三丁目１番１号株式会社図書館流通センター（3010001005556）に合併し解散,2015-10-05,1,,,,,ティーアールシータマヤマナシ,0
1395,6010403010878,登記記録の閉鎖等,0,2023-02-08,2023-02-01,合同会社西日本メガソーラー５,,合同会社,東京都,千代田区,六番町６番２０号,,13,101,1020085,,,2023-02-01,合併による解散等,9010401102550,令和５年２月１日東京都千代田区六番町６番２０号株式会社デネブ再生可能エネルギー（9010401102550）に合併し解散,2015-10-05,1,,,,,ニシニホンメガソーラーゴ,0
1412,6011101078373,登記記録の閉鎖等,0,2023-02-08,2023-02-03,ふくのしま電力株式会社,,株式会社,福島県,郡山市,島２丁目４３番１２号,,07,203,9638034,,,2023-02-03,合併による解散等,7011101044746,令和５年１月３１日東京都新宿区新宿一丁目２８番１１号株式会社メディオテック（7011101044746）に合併し解散,2016-10-12,1,,,,,,0
1421,6011701001263,登記記録の閉鎖等,0,2023-02-08,2023-02-06,株式会社江上,,株式会社,東京都,江戸川区,北小岩３丁目２１番１６号,,13,123,1330051,,,2023-02-06,清算の結了等,,,2015-10-05,1,,,,,エガミ,0
1432,6013201011783,登記記録の閉鎖等,0,2023-02-08,2023-02-01,株式会社銀河劇場,,株式会社,東京都,千代田区,神田三崎町１丁目３番９号,,13,101,1010061,,,2023-02-01,合併による解散等,6010001174737,令和５年２月１日東京都千代田区神田三崎町一丁目３番９号株式会社代々木アニメーション学院（6010001174737）に合併し解散,2015-10-05,1,,,,,ギンガゲキジョウ,0
1433,6020001030344,登記記録の閉鎖等,0,2023-02-08,2023-02-03,よこしんシステムサービス株式会社,,株式会社,神奈川県,横浜市港北区,北新横浜１丁目５番地７,,14,109,2230059,,,2023-02-03,清算の結了等,,,2015-10-05,1,,,,,ヨコシンシステムサービス,0
1434,6020001084893,登記記録の閉鎖等,0,2023-02-08,2023-02-01,株式会社ＯＲＳ,,株式会社,神奈川県,川崎市川崎区,塩浜３丁目２９番３号,,14,131,2100826,,,2023-02-01,清算の結了等,,,2015-10-05,1,,,,,オーアールエス,0
1449,6030001075520,登記記録の閉鎖等,0,2023-02-08,2023-02-03,伸和関東株式会社,,株式会社,埼玉県,川口市,大字安行領根岸８番地の１０,,11,203,3330834,,,2023-02-03,清算の結了等,,,2015-10-05,1,,,,,シンワカントウ,0
1472,6080101020603,登記記録の閉鎖等,0,2023-02-08,2023-02-03,株式会社スリース,,株式会社,静岡県,富士市,松岡８３１番地の７,,22,210,4160909,,,2023-02-03,清算の結了等,,,2018-07-20,1,,,,,スリース,0
1495,6120001223268,登記記録の閉鎖等,0,2023-02-08,2023-02-06,株式会社ターゲットウォッチ,,株式会社,大阪府,大阪市中央区,心斎橋筋１丁目４番１号,,27,128,5420085,,,2023-02-06,清算の結了等,,,2019-08-22,1,,,,,,0
1512,6122005003282,登記記録の閉鎖等,0,2023-02-08,2023-02-07,一般社団法人池島スマイルクラブ,,その他の設立登記法人,大阪府,東大阪市,池島町３丁目６番３０号池島小学校内,,27,227,5798064,,,2023-02-07,清算の結了等,,,2017-10-17,1,,,,,イケシマスマイルクラブ,0
1516,6130002019458,登記記録の閉鎖等,0,2023-02-08,2023-02-06,有限会社アーキス,,有限会社,京都府,京都市左京区,修学院中林町８０番地４,,26,103,6068085,,,2023-02-06,清算の結了等,,,2015-10-05,1,,,,,アーキス,0
1545,6220001023419,登記記録の閉鎖等,0,2023-02-08,2023-02-06,株式会社マイライフタウン金沢,,株式会社,石川県,金沢市,米泉町１０丁目１番地４５,,17,201,9218044,,,2023-02-06,清算の結了等,,,2020-03-09,1,,,,,マイライフタウンカナザワ,0
1570,6370605000336,登記記録の閉鎖等,0,2023-02-08,2023-02-07,特定非営利活動法人浦戸フェリー,,その他の設立登記法人,宮城県,塩竈市,港町１丁目４番１号,,04,203,9850016,,,2023-02-07,清算の結了等,,,2015-10-05,1,,,,,ウラトフェリー,0
1571,6380001022826,登記記録の閉鎖等,0,2023-02-08,2023-01-30,株式会社かがやき,,株式会社,福島県,郡山市,喜久田町卸１丁目１１７番地１,,07,203,9630547,,,2023-01-30,清算の結了等,,,2015-10-05,1,,,,,カガヤキ,0
1578,6400002009811,登記記録の閉鎖等,0,2023-02-08,2023-02-06,有限会社レディスファッションミスズ,,有限会社,岩手県,奥州市,水沢東大通り３丁目３番１４号,,03,215,0230828,,,2023-02-06,清算の結了等,,,2015-10-05,1,,,,,レディスファッションミスズ,0
1582,6410001001990,登記記録の閉鎖等,0,2023-02-08,2023-02-02,株式会社七尾商店,,株式会社,秋田県,秋田市,仁井田新田１丁目５番１０号,,05,201,0101427,,,2023-02-02,清算の結了等,,,2015-10-05,1,,,,,ナナオショウウテン,0
1593,6470001006704,登記記録の閉鎖等,0,2023-02-08,2023-02-03,積和建設四国株式会社,,株式会社,香川県,綾歌郡綾川町,滝宮２１４番地１,,37,387,7612305,,,2023-02-03,合併による解散等,9240001005494,令和５年２月１日広島市安佐南区伴南一丁目４番３１号積水ハウス建設中国四国株式会社（9240001005494）に合併し解散,2015-10-05,1,,,,,セキワケンセツシコク,0
1599,6490001006545,登記記録の閉鎖等,0,2023-02-08,2023-02-06,株式会社コーナン,,株式会社,高知県,香南市,野市町上岡２６５０番地,,39,211,7815234,,,2023-02-06,清算の結了等,,,2015-10-05,1,,,,,コーナン,0
1610,7010001186608,登記記録の閉鎖等,0,2023-02-08,2023-02-02,人工知能システム株式会社,,株式会社,東京都,墨田区,石原４丁目３番４号３Ｆ,,13,107,1300011,,,2023-02-02,清算の結了等,,,2017-10-04,1,,,,,ジンコウチノウシステム,0
1612,7010002018529,登記記録の閉鎖等,0,2023-02-08,2023-02-01,有限会社海宝水産,,有限会社,東京都,中央区,築地４丁目９番１４号,,13,102,1040045,,,2023-02-01,清算の結了等,,,2015-10-05,1,,,,,カイホウスイサン,0
1613,7010003025879,登記記録の閉鎖等,0,2023-02-08,2023-02-01,秋田由利本荘洋上風力合同会社,,合同会社,東京都,中央区,京橋２丁目２番１号,,13,102,1040031,,,2023-02-01,清算の結了等,,,2017-08-16,1,,,,,アキタユリホンジョウヨウジョウフウリョク,0
1637,7010502017749,登記記録の閉鎖等,0,2023-02-08,2023-02-07,有限会社サンウッド企画,,有限会社,東京都,台東区,橋場１丁目２１番２号,,13,106,1110023,,,2023-02-07,清算の結了等,,,2015-10-05,1,,,,,サンウッドキカク,0
1639,7010602030577,登記記録の閉鎖等,0,2023-02-08,2023-02-03,有限会社ジョートー,,有限会社,東京都,江東区,北砂４丁目４０番１９号,,13,108,1360073,,,2023-02-03,清算の結了等,,,2015-10-05,1,,,,,,0
1643,7010903007043,登記記録の閉鎖等,0,2023-02-08,2023-02-03,合同会社ジーク,,合同会社,東京都,世田谷区,深沢２丁目１番５－５０３号,,13,112,1580081,,,2023-02-03,清算の結了等,,,2022-01-06,1,,,,,ジーク,0
1653,7011101061667,登記記録の閉鎖等,0,2023-02-08,2023-02-06,株式会社野中ビジネスコンサルティング,,株式会社,東京都,新宿区,大久保３丁目８番１－１２１２号,,13,104,1690072,,,2023-02-06,清算の結了等,,,2015-10-05,1,,,,,ノナカビジネスコンサルティング,0
1654,7011101083331,登記記録の閉鎖等,0,2023-02-08,2023-02-01,アシスト株式会社,,株式会社,東京都,豊島区,東池袋１丁目３４番５号,,13,116,1700013,,,2023-02-01,合併による解散等,4013301030628,令和５年２月１日東京都豊島区東池袋一丁目３４番５号いちご東池袋ビル６階株式会社アクガレージ（4013301030628）に合併し解散,2018-02-27,1,,,,,アシスト,0
1659,7011202006356,登記記録の閉鎖等,0,2023-02-08,2023-02-07,有限会社ワイエムエス設計,,有限会社,東京都,中野区,鷺宮５丁目２番８号,,13,114,1650032,,,2023-02-07,清算の結了等,,,2015-10-05,1,,,,,,0
1664,7011302009465,登記記録の閉鎖等,0,2023-02-08,2023-02-01,有限会社やぶライフプランニング,,有限会社,東京都,杉並区,高円寺南２丁目４０番３８号,,13,115,1660003,,,2023-02-01,合併による解散等,3011301001501,令和５年２月１日東京都杉並区天沼三丁目２番６号株式会社大藪保険コンサルタント（3011301001501）に合併し解散,2015-10-05,1,,,,,ヤブライフプランニング,0
1674,7011801021573,登記記録の閉鎖等,0,2023-02-08,2023-02-01,デルソル株式会社,,株式会社,東京都,豊島区,東池袋１丁目３４番５号いちご東池袋ビル６階,,13,116,1700013,,,2023-02-01,合併による解散等,4013301030628,令和５年２月１日東京都豊島区東池袋一丁目３４番５号いちご東池袋ビル６階株式会社アクガレージ（4013301030628）に合併し解散,2015-10-05,1,,,,,デルソル,0
1730,7080101020049,登記記録の閉鎖等,0,2023-02-08,2023-02-07,株式会社ムショウラク,,株式会社,静岡県,富士市,松富町９７番地,,22,210,4160919,,,2023-02-07,清算の結了等,,,2017-09-08,1,,,,,ムショウラク,0
1731,7080102012490,登記記録の閉鎖等,0,2023-02-08,2023-02-02,有限会社ウェル・プランニング,,有限会社,静岡県,三島市,光ケ丘４６４２番地の２６,,22,206,4110029,,,2023-02-02,清算の結了等,,,2015-10-05,1,,,,,ウェルプランニング,0
1735,7110002005376,登記記録の閉鎖等,0,2023-02-08,2023-02-03,有限会社パレット,,有限会社,新潟県,新潟市東区,もえぎ野２丁目１３番２８号,,15,102,9500842,,,2023-02-03,清算の結了等,,,2015-10-05,1,,,,,パレット,0
1737,7110005013913,登記記録の閉鎖等,0,2023-02-08,2023-02-06,特定非営利活動法人ふれあいパーク久賀美,,その他の設立登記法人,新潟県,燕市,国上５８６６番地１,,15,213,9590136,,,2023-02-06,清算の結了等,,,2015-10-05,1,,,,,フレアイパーククガミ,0
1768,7120002056740,登記記録の閉鎖等,0,2023-02-08,2023-02-06,有限会社ノイエス,,有限会社,大阪府,大阪市此花区,四貫島２丁目３番５号角市ビル,,27,104,5540014,,,2023-02-06,清算の結了等,,,2015-10-05,1,,,,,ノイエス,0
1769,7120005002089,登記記録の閉鎖等,0,2023-02-08,2023-02-07,大神教水王小教会,00046770,その他の設立登記法人,大阪府,大阪市住吉区,住吉町１６５番地,,27,120,5580000,,,2023-02-07,清算の結了等,,,2015-10-05,1,,,,,ダイシンキョウスイオウショウキョウカイ,1
1780,7130001006605,登記記録の閉鎖等,0,2023-02-08,2023-02-06,株式会社上文堂,,株式会社,京都府,京都市左京区,下鴨西林町６番地,,26,103,6060817,,,2023-02-06,清算の結了等,,,2015-10-05,1,,,,,ジョウブンドウ,0
1791,7140001087982,登記記録の閉鎖等,0,2023-02-08,2023-02-02,株式会社大運舎,,株式会社,兵庫県,神戸市中央区,御幸通８丁目１番６号,,28,110,6510087,,,2023-02-02,清算の結了等,,,2015-10-05,1,,,,,ダイウンシャ,0
1808,7180302019045,登記記録の閉鎖等,0,2023-02-08,2023-02-03,有限会社メガネのサカイ,,有限会社,愛知県,知立市,谷田町本林３丁目１番地１,,23,225,4720015,,,2023-02-03,清算の結了等,,,2015-10-05,1,,,,,メガネノサカイ,0
1811,7190002007241,登記記録の閉鎖等,0,2023-02-08,2023-02-06,ヤマトマリーナ有限会社,,有限会社,三重県,鈴鹿市,東江島町３番８号,,24,207,5100233,,,2023-02-06,清算の結了等,,,2015-10-05,1,,,,,ヤマトマリーナ,0
1815,7210002002248,登記記録の閉鎖等,0,2023-02-08,2023-02-03,有限会社谷藤建設,,有限会社,福井県,福井市,高木中央２丁目３００１番地の１,,18,201,9100804,,,2023-02-03,清算の結了等,,,2015-10-05,1,,,,,タニフジケンセツ,0
1832,7290001047996,登記記録の閉鎖等,0,2023-02-08,2023-02-06,株式会社のぶ観光,,株式会社,福岡県,八女市,龍ケ原６０番地２,,40,210,8340067,,,2023-02-06,清算の結了等,,,2015-10-05,1,,,,,ノブカンコウ,0
1836,7290002041024,登記記録の閉鎖等,0,2023-02-08,2023-02-02,有限会社日本電子医学研究所,,有限会社,福岡県,福岡市城南区,長尾２丁目２２－３－３０６,,40,136,8140123,,,2023-02-02,清算の結了等,,,2015-10-05,1,,,,,ニホンデンシイガクケンキュウショ,0
1858,7390002001372,登記記録の閉鎖等,0,2023-02-08,2023-02-06,有限会社春香苑,,有限会社,山形県,山形市,南一番町２番７号,,06,201,9902441,,,2023-02-06,清算の結了等,,,2015-10-05,1,,,,,シュンコウエン,0
1872,7480001007097,登記記録の閉鎖等,0,2023-02-08,2023-02-06,阿南保険サービス株式会社,,株式会社,徳島県,阿南市,宝田町平岡８９８番地,,36,204,7740045,,,2023-02-06,清算の結了等,,,2015-10-05,1,,,,,アナンホケンサービス,0
1883,8010001098505,登記記録の閉鎖等,0,2023-02-08,2023-02-01,株式会社ＴＲＣ東北,,株式会社,東京都,文京区,大塚３丁目１番１号,,13,105,1120012,,,2023-02-01,合併による解散等,3010001005556,令和５年２月１日東京都文京区大塚三丁目１番１号株式会社図書館流通センター（3010001005556）に合併し解散,2015-10-05,1,,,,,ティーアールシートウホク,0
1884,8010001118576,登記記録の閉鎖等,0,2023-02-08,2023-02-01,株式会社インプレスＲ＆Ｄ,,株式会社,東京都,千代田区,神田神保町１丁目１０５番地,,13,101,1010051,,,2023-02-01,合併による解散等,7010001089959,令和５年２月１日東京都千代田区神田神保町一丁目１０５番地株式会社インプレス（7010001089959）に合併し解散,2015-10-05,1,,,,,インプレスアールアンドディ,0
1902,8010601056597,登記記録の閉鎖等,0,2023-02-08,2023-02-03,ＢＭ　ｐｒｏｄｕｃｔｓ株式会社,,株式会社,東京都,墨田区,京島１丁目８番８号,,13,107,1310046,,,2023-02-03,清算の結了等,,,2019-12-24,1,,,,,ビーエムプロダクツ,0
1908,8011001038351,登記記録の閉鎖等,0,2023-02-08,2023-02-01,ピーシーチップス・ジャパン株式会社,,株式会社,東京都,渋谷区,千駄ヶ谷５丁目２９番７号,,13,113,1510051,,,2023-02-01,清算の結了等,,,2015-10-05,1,,,,,ピーシーチップスジャパン,0
1914,8011003011884,登記記録の閉鎖等,0,2023-02-08,2023-02-07,合同会社コンサル事務所ファーイースト,,合同会社,東京都,新宿区,百人町１丁目５－４東都ビル２０３号室,,13,104,1690073,,,2023-02-07,清算の結了等,,,2020-11-17,1,,,,,コンサルジムショファーイースト,0
1923,8011201000037,登記記録の閉鎖等,0,2023-02-08,2023-02-07,株式会社アーキドリーム,,株式会社,東京都,中野区,鷺宮６丁目２２番５号,,13,114,1650032,,,2023-02-07,清算の結了等,,,2015-10-05,1,,,,,アーキドリーム,0
1934,8012802010408,登記記録の閉鎖等,0,2023-02-08,2023-02-03,有限会社ファーストライン,,有限会社,東京都,昭島市,玉川町３丁目２６番８号,,13,207,1960034,,,2023-02-03,清算の結了等,,,2015-10-05,1,,,,,ファーストライン,0
1950,8021002058661,登記記録の閉鎖等,0,2023-02-08,2023-02-03,有限会社高橋商店,,有限会社,神奈川県,平塚市,山下１丁目２８番３号,,14,203,2540911,,,2023-02-03,清算の結了等,,,2015-10-05,1,,,,,タカハシショウテン,0
1960,8030002056666,登記記録の閉鎖等,0,2023-02-08,2023-02-03,有限会社小川組,,有限会社,埼玉県,北足立郡伊奈町,大字小室４７８９番地６,,11,301,3620806,,,2023-02-03,清算の結了等,,,2015-10-05,1,,,,,オガワグミ,0
1964,8030002091515,登記記録の閉鎖等,0,2023-02-08,2023-02-06,有限会社ふーろチームサポート,,有限会社,埼玉県,北葛飾郡松伏町,ゆめみ野５丁目９番地１８,,11,465,3430113,,,2023-02-06,清算の結了等,,,2015-10-05,1,,,,,,0
1967,8030002118086,登記記録の閉鎖等,0,2023-02-08,2023-01-31,有限会社博品堂洋品店,,有限会社,埼玉県,行田市,行田２１番１９号,,11,206,3610073,,,2023-01-31,清算の結了等,,,2015-10-05,1,,,,,ハクヒンドウヨウヒンテン,0
1982,8060002015891,登記記録の閉鎖等,0,2023-02-08,2023-02-06,有限会社皆川商事,,有限会社,栃木県,日光市,所野１４５３番地５,,09,206,3211421,,,2023-02-06,清算の結了等,,,2015-10-05,1,,,,,ミナカワショウジ,0
1985,8070001005744,登記記録の閉鎖等,0,2023-02-08,2023-02-03,ガイアコーポレーション株式会社,,株式会社,群馬県,前橋市,昭和町１丁目２０番８号,,10,201,3710034,,,2023-02-03,清算の結了等,,,2015-10-05,1,,,,,ガイアコーポレーション,0
2002,8120001013857,登記記録の閉鎖等,0,2023-02-08,2023-02-06,矢田化学工業株式会社,,株式会社,大阪府,大阪市東成区,神路４丁目７番１号,,27,115,5370003,,,2023-02-06,清算の結了等,,,2015-10-05,1,,,,,,0
2014,8120002061145,登記記録の閉鎖等,0,2023-02-08,2023-02-07,有限会社メデックス,,有限会社,大阪府,大阪市西区,靱本町１丁目６番６号,,27,106,5500004,,,2023-02-07,清算の結了等,,,2015-10-05,1,,,,,メデックス,0
2018,8120102023846,登記記録の閉鎖等,0,2023-02-08,2023-02-06,有限会社ニシモト,,有限会社,大阪府,泉佐野市,日根野３０７４番地の１,,27,213,5980021,,,2023-02-06,清算の結了等,,,2015-10-05,1,,,,,ニシモト,0
2024,8122001034420,登記記録の閉鎖等,0,2023-02-08,2023-02-06,株式会社ネクスプラ,,株式会社,大阪府,東大阪市,菱江２丁目１７番１４号,,27,227,5780984,,,2023-02-06,合併による解散等,5210001003208,令和５年２月１日福井市南居町第８１号１番地４０株式会社プラスティックス（5210001003208）に合併し解散,2021-01-22,1,,,,,ネクスプラ,0
2025,8122002002995,登記記録の閉鎖等,0,2023-02-08,2023-02-06,有限会社田原製作所,,有限会社,大阪府,東大阪市,長栄寺４番８号,,27,227,5770055,,,2023-02-06,清算の結了等,,,2015-10-05,1,,,,,タハラセイサクショ,0
2029,8130001066573,登記記録の閉鎖等,0,2023-02-08,2023-01-13,株式会社Ｂｏｎｏｍ,,株式会社,京都府,京都市上京区,七本松通今出川下る毘沙門町４７７メゾンモナムール４０６,,26,102,6028325,,,2023-01-13,清算の結了等,,,2020-03-25,1,,,,,ボノム,0
2037,8140002050187,登記記録の閉鎖等,0,2023-02-08,2023-02-03,有限会社花井商事,,有限会社,兵庫県,姫路市,飾磨区構１丁目１０５番地,,28,201,6728071,,,2023-02-03,清算の結了等,,,2015-10-05,1,,,,,ハナイショウジ,0
2039,8140005018999,登記記録の閉鎖等,0,2023-02-08,2023-02-07,特定非営利活動法人生活情報支援ネットワーク,,その他の設立登記法人,兵庫県,宝塚市,青葉台１丁目２０番８号,,28,214,6650014,,,2023-02-07,清算の結了等,,,2015-10-05,1,,,,,セイカツジョウホウシエンネットワーク,0
2047,8180001025079,登記記録の閉鎖等,0,2023-02-08,2023-02-06,株式会社菊井衣料,,株式会社,愛知県,稲沢市,長束町観音寺田９３番地,,23,220,4928167,,,2023-02-06,清算の結了等,,,2015-10-05,1,,,,,キクイイリョウ,0
2051,8180001139011,登記記録の閉鎖等,0,2023-02-08,2023-02-01,株式会社ダイトエンジ,,株式会社,愛知県,名古屋市瑞穂区,白砂町２丁目５０番地の３,,23,108,4670056,,,2023-02-01,合併による解散等,8180002045233,令和５年２月１日名古屋市瑞穂区白砂町二丁目５０番地の３株式会社光陽テクノ（8180002045233）に合併し解散,2019-11-28,1,,,,,ダイトエンジ,0
2061,8190001006870,登記記録の閉鎖等,0,2023-02-08,2023-02-01,西川建設株式会社,,株式会社,三重県,伊勢市,粟野町７２２番地,,24,203,5160054,,,2023-02-01,清算の結了等,,,2015-10-05,1,,,,,ニシカワケンセツ,0
2071,8210001012445,登記記録の閉鎖等,0,2023-02-08,2023-02-06,株式会社かさしま,,株式会社,福井県,越前市,あおば町１番３号,,18,209,9150064,,,2023-02-06,清算の結了等,,,2015-10-05,1,,,,,カサシマ,0
2091,8270003001143,登記記録の閉鎖等,0,2023-02-08,2023-01-17,合同会社ＡＩＲＩＮ,,合同会社,鳥取県,境港市,渡町１５０７番地１９,,31,204,6840072,,,2023-01-17,清算の結了等,,,2019-05-22,1,,,,,アイリン,0
2098,8290002023376,登記記録の閉鎖等,0,2023-02-08,2023-02-06,有限会社岡田工務店,,有限会社,福岡県,福岡市中央区,白金１丁目３番２５－３０６号,,40,133,8100012,,,2023-02-06,清算の結了等,,,2015-10-05,1,,,,,オカダコウムテン,0
2116,8370002007263,登記記録の閉鎖等,0,2023-02-08,2023-02-06,有限会社クリーンマスターミヤギ,,有限会社,宮城県,仙台市宮城野区,宮千代３丁目８番２３号,,04,102,9830044,,,2023-02-06,清算の結了等,,,2015-10-05,1,,,,,クリーンマスターミヤギ,0
2123,8410002005915,登記記録の閉鎖等,0,2023-02-08,2023-02-02,有限会社目黒工務店,,有限会社,秋田県,潟上市,天王字上北野１４８番地２,,05,211,0100101,,,2023-02-02,清算の結了等,,,2015-10-05,1,,,,,メグロコウムテン,0
2131,8460001004244,登記記録の閉鎖等,0,2023-02-08,2023-02-06,株式会社カーサポート・イワブチ,,株式会社,北海道,釧路郡釧路町,光和５丁目１０番地,,01,661,0880623,,,2023-02-06,清算の結了等,,,2015-10-05,1,,,,,カーサポートイワブチ,0
2141,9010001002597,登記記録の閉鎖等,0,2023-02-08,2023-02-01,株式会社講談社ビジネスパートナーズ,,株式会社,東京都,文京区,音羽１丁目１７番１４号,,13,105,1120013,,,2023-02-01,合併による解散等,5010001223239,令和５年２月１日東京都文京区目白台三丁目２９番１８号株式会社ＫＰＳホールディングス（5010001223239）に合併し解散,2015-10-05,1,,,,,コウダンシャビジネスパートナーズ,0
2142,9010001030053,登記記録の閉鎖等,0,2023-02-08,2023-02-01,株式会社三崎設計事務所,,株式会社,東京都,千代田区,飯田橋３丁目１番８号,,13,101,1020072,,,2023-02-01,清算の結了等,,,2015-10-05,1,,,,,ミサキセッケイジムショ,0
2147,9010001175352,登記記録の閉鎖等,0,2023-02-08,2023-02-06,浙江出版集団東京株式会社,,株式会社,東京都,台東区,根岸１丁目５－１６ライオンズマンション鶯谷第３ビル４０５号,,13,106,1100003,,,2023-02-06,清算の結了等,,,2016-05-02,1,,,,,セッコウシュッパンシュウダントウキョウ,0
2154,9010003024391,登記記録の閉鎖等,0,2023-02-08,2023-02-06,大樟樹出版社合同会社,,合同会社,東京都,台東区,根岸１丁目５－１６ライオンズマンション鶯谷第３ビル４０５号,,13,106,1100003,,,2023-02-06,清算の結了等,,,2016-11-22,1,,,,,ダイショウジュシュッパンシャ,0
2189,9010803001524,登記記録の閉鎖等,0,2023-02-08,2023-01-31,王康合同会社,,合同会社,東京都,大田区,山王２丁目１番２号,,13,111,1430023,,,2023-01-31,清算の結了等,,,2015-10-05,1,,,,,オウカン,0
2190,9010901026381,登記記録の閉鎖等,0,2023-02-08,2023-02-02,株式会社シーク・インターナショナル,,株式会社,東京都,世田谷区,経堂２丁目２６番３号,,13,112,1560052,,,2023-02-02,清算の結了等,,,2015-10-05,1,,,,,シークインターナショナル,0
2200,9011101054719,登記記録の閉鎖等,0,2023-02-08,2023-02-06,株式会社ＯＮネット,,株式会社,東京都,新宿区,高田馬場３丁目１０番１３号,,13,104,1690075,,,2023-02-06,清算の結了等,,,2015-10-05,1,,,,,オーエヌネット,0
2215,9011601011285,登記記録の閉鎖等,0,2023-02-08,2023-02-02,株式会社東京トラスト,,株式会社,東京都,練馬区,下石神井２丁目３３番２６号,,13,120,1770042,,,2023-02-02,清算の結了等,,,2015-10-05,1,,,,,トウキョウトラスト,0
2221,9012301008398,登記記録の閉鎖等,0,2023-02-08,2023-02-02,ムニコ株式会社,,株式会社,東京都,町田市,大蔵町３１０１番地１０,,13,209,1950062,,,2023-02-02,清算の結了等,,,2015-10-05,1,,,,,ムニコ,0
2235,9020001090699,登記記録の閉鎖等,0,2023-02-08,2023-02-06,株式会社トラストリリーフ,,株式会社,神奈川県,川崎市川崎区,池田１丁目１１番３号,,14,131,2100022,,,2023-02-06,清算の結了等,,,2015-10-05,1,,,,,トラストリリーフ,0
2243,9020002093668,登記記録の閉鎖等,0,2023-02-08,2023-02-03,有限会社ランド企画,,有限会社,神奈川県,川崎市多摩区,西生田２丁目１３番２０号,,14,135,2140037,,,2023-02-03,清算の結了等,,,2015-10-05,1,,,,,ランドキカク,0
2244,9020002099574,登記記録の閉鎖等,0,2023-02-08,2023-02-03,有限会社山本特機サービス,,有限会社,神奈川県,川崎市川崎区,小田４丁目４番１０号,,14,131,2100846,,,2023-02-03,清算の結了等,,,2015-10-05,1,,,,,ヤマモトトッキサービス,0
2245,9020002105456,登記記録の閉鎖等,0,2023-02-08,2023-02-01,有限会社黒瀬楢原,00011722,有限会社,神奈川県,川崎市川崎区,塩浜３丁目２９番３号,,14,131,2100826,,,2023-02-01,清算の結了等,,,2015-10-05,1,,,,,クロセナラハラ,0
2264,9030003010778,登記記録の閉鎖等,0,2023-02-08,2023-02-02,合同会社ＫＩＴＡＫＡＺＥ,,合同会社,埼玉県,飯能市,大字川崎１８番地３,,11,209,3570011,,,2023-02-02,清算の結了等,,,2017-09-12,1,,,,,キタカゼ,0
2275,9060001018779,登記記録の閉鎖等,0,2023-02-08,2023-02-06,株式会社関口会計,,株式会社,栃木県,足利市,本城３丁目２０２１番地,,09,202,3260808,,,2023-02-06,清算の結了等,,,2015-10-05,1,,,,,セキグチカイケイ,0
2280,9070001019529,登記記録の閉鎖等,0,2023-02-08,2023-02-02,誠研工業株式会社,,株式会社,群馬県,太田市,東金井町１０１番地,,10,205,3730022,,,2023-02-02,清算の結了等,,,2015-10-05,1,,,,,セイケンコウギョウ,0
2303,9120005003886,登記記録の閉鎖等,0,2023-02-08,2023-02-06,公益財団法人大阪公衆衛生協会,,その他の設立登記法人,大阪府,大阪市中央区,谷町１丁目３番１号,,27,128,5400012,,,2023-02-06,清算の結了等,,,2015-10-05,1,,,,,オオサカコウシュウエイセイキョウカイ,0
2305,9120901010341,登記記録の閉鎖等,0,2023-02-08,2023-02-02,株式会社アドバンス,,株式会社,大阪府,高槻市,城南町２丁目１５番１８号,,27,207,5690056,,,2023-02-02,清算の結了等,,,2015-10-05,1,,,,,アドバンス,0
2321,9160001011534,登記記録の閉鎖等,0,2023-02-08,2023-02-06,株式会社レインボー近江,,株式会社,大阪府,大阪市西区,新町２丁目５番１－３８０５号,,27,106,5500013,,,2023-02-06,清算の結了等,,,2015-10-05,1,,,,,レインボーオウミ,0
2324,9180001084289,登記記録の閉鎖等,0,2023-02-08,2023-02-03,株式会社タシロ,,株式会社,愛知県,一宮市,明地字江口１９番地,,23,203,4940012,,,2023-02-03,清算の結了等,,,2015-10-05,1,,,,,タシロ,0
2351,9260002012471,登記記録の閉鎖等,0,2023-02-08,2023-02-07,有限会社オフィス丸本,,有限会社,岡山県,岡山市北区,野田屋町２丁目５番１５号,,33,101,7000815,,,2023-02-07,清算の結了等,,,2015-10-05,1,,,,,オフィスマルモト,0
2375,9350001012050,登記記録の閉鎖等,0,2023-02-08,2023-02-01,株式会社えびのびより,,株式会社,宮崎県,えびの市,大字湯田９２番地１,,45,209,8894242,,,2023-02-01,清算の結了等,,,2015-10-05,1,,,,,エビノビヨリ,0
2393,9430001082382,登記記録の閉鎖等,0,2023-02-08,2023-02-02,トランクマン株式会社,,株式会社,北海道,札幌市北区,北十七条西３丁目２１番地プロスＴＪビル,,01,102,0010017,,,2023-02-02,清算の結了等,,,2020-09-18,1,,,,,トランクマン,0
2399,9430002043078,登記記録の閉鎖等,0,2023-02-08,2023-02-06,有限会社東海商事,,有限会社,北海道,札幌市東区,北十三条東５丁目３番５号,,01,103,0650013,,,2023-02-06,清算の結了等,,,2015-10-05,1,,,,,トウカイショウジ,0
2409,9470002006114,登記記録の閉鎖等,0,2023-02-08,2023-01-31,有限会社ベルベル美容室,,有限会社,香川県,高松市,桜町２丁目６番１号,,37,201,7600074,,,2023-01-31,清算の結了等,,,2015-10-05,1,,,,,ベルベルビヨウシツ,0
2411,9480002007326,登記記録の閉鎖等,0,2023-02-08,2023-02-06,国府オカダ住建有限会社,,有限会社,徳島県,徳島市,国府町和田字表２８番地６,,36,201,7793121,,,2023-02-06,清算の結了等,,,2015-10-05,1,,,,,,0
