sequenceNumber,corporateNumber,process,correct,updateDate,changeDate,name,nameImageId,kind,prefectureName,cityName,streetNumber,addressImageId,prefectureCode,cityCode,postCode,addressOutside,addressOutsideImageId,closeDate,closeCause,successorCorporateNumber,changeCause,assignmentDate,latest,enName,enPrefectureName,enCityName,enAddressOutside,furigana,hihyoji
20,1010001226732,新規,0,2022-05-23,2022-05-23,エンフィニティ・ジャパン株式会社,,株式会社,東京都,千代田区,麹町４丁目５番２１紀尾井町ＰＲＥＸ１３階,,13,101,1020083,,,,,,,2022-05-23,1,,,,,エンフィニティジャパン,0
35,1010401167444,新規,0,2022-05-23,2022-05-23,株式会社Ｔ３,,株式会社,東京都,港区,麻布十番２丁目１０番８号ロジェ麻布２０３,,13,103,1060045,,,,,,,2022-05-23,1,,,,,ティースリー,0
36,1010401167452,新規,0,2022-05-23,2022-05-23,ＳＨパートナーズ株式会社,,株式会社,東京都,港区,芝４丁目１６番１－２３０５号,,13,103,1080014,,,,,,,2022-05-23,1,,,,,エスエイチパートナーズ,0
38,1010403027646,新規,0,2022-05-23,2022-05-23,スマートホリック合同会社,,合同会社,東京都,港区,南青山２丁目２番１５号,,13,103,1070062,,,,,,,2022-05-23,1,,,,,スマートホリック,0
39,1010403027695,新規,0,2022-05-23,2022-05-23,合同会社ＧＧＵファンド１,,合同会社,東京都,港区,虎ノ門３丁目２２番１０－２０１号,,13,103,1050001,,,,,,,2022-05-23,1,,,,,ジージーユーファンドワン,0
41,1010405021003,新規,0,2022-05-23,2022-05-23,一般社団法人まもりびと,,その他の設立登記法人,東京都,港区,三田２丁目１２番５号,,13,103,1080073,,,,,,,2022-05-23,1,,,,,マモリビト,0
45,1010601061190,新規,0,2022-05-23,2022-05-23,株式会社おもちゃのイルカ,,株式会社,東京都,墨田区,本所１丁目２５番７号,,13,107,1300004,,,,,,,2022-05-23,1,,,,,オモチャノイルカ,0
48,1010701042685,新規,0,2022-05-23,2022-05-23,株式会社マリラーレ,,株式会社,東京都,品川区,北品川３丁目１１番１３－１００６号,,13,109,1400001,,,,,,,2022-05-23,1,,,,,マリラーレ,0
57,1011001147563,新規,0,2022-05-23,2022-05-23,株式会社Ｇａｍｃｈｅｗ,,株式会社,東京都,目黒区,三田２丁目６－１７－５１７,,13,110,1530062,,,,,,,2022-05-23,1,,,,,ガムチュー,0
60,1011303004413,新規,0,2022-05-23,2022-05-23,合同会社成生事務所,,合同会社,東京都,杉並区,松ノ木２丁目４１番７－３０１号,,13,115,1660014,,,,,,,2022-05-23,1,,,,,ナルオジムショ,0
77,1020001146574,新規,0,2022-05-23,2022-05-23,株式会社新日本建設,,株式会社,神奈川県,横浜市港北区,新横浜１丁目２９番地１５,,14,109,2220033,,,,,,,2022-05-23,1,,,,,シンニホンケンセツ,0
80,1020003021791,新規,0,2022-05-23,2022-05-23,合同会社Ｃｏｍｆｏｒｔ　Ｐｌｕｓ,,合同会社,神奈川県,川崎市中原区,新丸子町７４２番地９,,14,133,2110005,,,,,,,2022-05-23,1,,,,,コンフォートプラス,0
90,1030001148264,新規,0,2022-05-23,2022-05-23,株式会社パックテック,,株式会社,埼玉県,入間郡越生町,大字上野２６３４番地１,,11,327,3500415,,,,,,,2022-05-23,1,,,,,パックテック,0
91,1030001148297,新規,0,2022-05-23,2022-05-23,株式会社住賢,,株式会社,埼玉県,三郷市,上彦名３３３番地２,,11,237,3410004,,,,,,,2022-05-23,1,,,,,ジュウケン,0
92,1030001148322,新規,0,2022-05-23,2022-05-23,株式会社まずやる,,株式会社,埼玉県,児玉郡上里町,大字金久保３１１番地１,,11,385,3690301,,,,,,,2022-05-23,1,,,,,マズヤル,0
111,1040005021623,新規,0,2022-05-23,2022-05-23,医療法人社団博寿会,,その他の設立登記法人,千葉県,松戸市,常盤平５丁目１３番地の１３林ビル１階,,12,207,2702261,,,,,,,2022-05-23,1,,,,,ハクジュカイ,0
115,1050003006567,新規,0,2022-05-23,2022-05-23,ａｎｎ　ｓｔｙｌｅ合同会社,,合同会社,茨城県,ひたちなか市,大字津田２５５１番地１９,,08,221,3120032,,,,,,,2022-05-23,1,,,,,アンスタイル,0
119,1090001017579,新規,0,2022-05-23,2022-05-23,株式会社ゲートグリッド,,株式会社,山梨県,甲斐市,玉川１５５９－１,,19,210,4000116,,,,,,,2022-05-23,1,,,,,ゲートグリッド,0
144,1120001246067,新規,0,2022-05-23,2022-05-23,株式会社Ｈ＆Ｙ,,株式会社,大阪府,大阪市港区,八幡屋２丁目１４番１１号,,27,107,5520014,,,,,,,2022-05-23,1,,,,,エッチアンドワイ,0
146,1120003021690,新規,0,2022-05-23,2022-05-23,Ｓｏｕｎｄ＆Ｆｕｔｕｒｅ合同会社,,合同会社,大阪府,大阪市中央区,高麗橋４丁目５番１２号,,27,128,5410043,,,,,,,2022-05-23,1,,,,,サウンドアンドフューチャー,0
147,1120003021716,新規,0,2022-05-23,2022-05-23,待雪合同会社,,合同会社,大阪府,大阪市淀川区,宮原２丁目７番２９号朝日プラザ新大阪アネックス５０８号室,,27,123,5320003,,,,,,,2022-05-23,1,,,,,マツユキ,0
148,1120003021724,新規,0,2022-05-23,2022-05-23,合同会社イレブン,,合同会社,大阪府,大阪市中央区,谷町２丁目３－１第２ターネンビルディング５階,,27,128,5400012,,,,,,,2022-05-23,1,,,,,イレブン,0
160,1140001126077,新規,0,2022-05-23,2022-05-23,ＪＩＬＹ株式会社,,株式会社,兵庫県,神戸市中央区,元町通４丁目２番２２－２号,,28,110,6500022,,,,,,,2022-05-23,1,,,,,ジリー,0
161,1140001126093,新規,0,2022-05-23,2022-05-23,株式会社こどもＣａｎｄｙ,,株式会社,兵庫県,神戸市中央区,浜辺通６丁目１－２３,,28,110,6510083,,,,,,,2022-05-23,1,,,,,コドモキャンディ,0
163,1160001024221,新規,0,2022-05-23,2022-05-23,株式会社一歩,,株式会社,滋賀県,大津市,真野５丁目２２番７３号,,25,201,5200232,,,,,,,2022-05-23,1,,,,,カズホ,0
164,1160003002571,新規,0,2022-05-23,2022-05-23,Ｂａｃｋｙａｒｄ合同会社,,合同会社,滋賀県,栗東市,井上４９６番地１,,25,208,5203006,,,,,,,2022-05-23,1,,,,,バックヤード,0
174,1180001151385,新規,0,2022-05-23,2022-05-23,仏事愛知株式会社,,株式会社,愛知県,名古屋市中村区,名楽町１丁目１番地の４,,23,105,4530024,,,,,,,2022-05-23,1,,,,,ブツジアイチ,0
178,1180003023847,新規,0,2022-05-23,2022-05-23,合同会社高橋工務店,00126613,合同会社,愛知県,春日井市,下市場町１丁目８番地１０,,23,206,4860852,,,,,,,2022-05-23,1,,,,,タカハシコウムテン,0
179,1180005019769,新規,0,2022-05-23,2022-05-23,一般社団法人住宅解体業者推薦協会,,その他の設立登記法人,愛知県,名古屋市南区,宝生町１丁目７番地ＳＡ・ＬＡビル１階,,23,112,4570828,,,,,,,2022-05-23,1,,,,,ジュウタクカイタイギョウシャスイセンキョウカイ,0
186,1240001059795,新規,0,2022-05-23,2022-05-23,株式会社ｈａ‐ｄｏｗ,,株式会社,広島県,東広島市,西条町寺家６７０４－５フローレンス西条寺西グランドアーク３０４,,34,212,7390041,,,,,,,2022-05-23,1,,,,,ハドウ,0
203,1290001097618,新規,0,2022-05-23,2022-05-23,裕株式会社,,株式会社,福岡県,福岡市東区,香椎駅前３丁目１６－３３１１０４,,40,131,8130013,,,,,,,2022-05-23,1,,,,,ユタカ,0
207,1320001019080,新規,0,2022-05-23,2022-05-23,ぱんだ不動産株式会社,,株式会社,大分県,大分市,大字鴛野５４７番地の１,,44,201,8701121,,,,,,,2022-05-23,1,,,,,パンダフドウサン,0
209,1340003003799,新規,0,2022-05-23,2022-05-23,合同会社竹原,00126621,合同会社,鹿児島県,薩摩川内市,東郷町斧渕７１１６番地３,,46,215,8951106,,,,,,,2022-05-23,1,,,,,タケハラ,0
210,1350001017759,新規,0,2022-05-23,2022-05-23,株式会社ＳＳ企画,,株式会社,宮崎県,宮崎市,神宮東１丁目８番１９号,,45,201,8800056,,,,,,,2022-05-23,1,,,,,エスエスキカク,0
211,1360001030447,新規,0,2022-05-23,2022-05-23,株式会社アクト金城キク保険事務所,,株式会社,沖縄県,那覇市,識名３丁目１１番３号,,47,201,9020078,,,,,,,2022-05-23,1,,,,,アクトキンジョウキクホケンジムショ,0
212,1370001048579,新規,0,2022-05-23,2022-05-23,株式会社Ｈｏｌｄ,,株式会社,宮城県,仙台市泉区,住吉台西１丁目１４番地の１０,,04,105,9813223,,,,,,,2022-05-23,1,,,,,ホールド,0
216,1400001015889,新規,0,2022-05-23,2022-05-23,株式会社テスタ,,株式会社,岩手県,北上市,芳町７番７号,,03,206,0240095,,,,,,,2022-05-23,1,,,,,テスタ,0
218,1400003002935,新規,0,2022-05-23,2022-05-23,古里ＦＩＣエネルギー合同会社,,合同会社,岩手県,盛岡市,東見前６地割３７番地１,,03,201,0200832,,,,,,,2022-05-23,1,,,,,フルサトエフアイシーエネルギー,0
229,1430001086688,新規,0,2022-05-23,2022-05-23,株式会社Ｔ‐ＲＯＯＭ,,株式会社,北海道,札幌市北区,太平九条６丁目３番３号,,01,102,0028009,,,,,,,2022-05-23,1,,,,,ティールーム,0
230,1430003013905,新規,0,2022-05-23,2022-05-23,合同会社オレンジさぽーと,,合同会社,北海道,札幌市北区,篠路町上篠路６番地１１０,,01,102,0028052,,,,,,,2022-05-23,1,,,,,オレンジサポート,0
231,1430003013938,新規,0,2022-05-23,2022-05-23,合同会社ｍｉｎｏｒｉ,,合同会社,北海道,札幌市中央区,北六条西１５丁目３番地,,01,101,0600006,,,,,,,2022-05-23,1,,,,,ミノリ,0
238,1500001024228,新規,0,2022-05-23,2022-05-23,株式会社ＤＥＦＯＶＡ,,株式会社,愛媛県,西条市,福武甲１７３３番地１,,38,206,7930035,,,,,,,2022-05-23,1,,,,,,0
257,2010001226789,新規,0,2022-05-23,2022-05-23,株式会社グッドロータス,,株式会社,東京都,千代田区,九段北１丁目１３番９号,,13,101,1020073,,,,,,,2022-05-23,1,,,,,グッドロータス,0
258,2010001226797,新規,0,2022-05-23,2022-05-23,株式会社ＭＥＥＬＬ,,株式会社,東京都,中央区,銀座６丁目１０－１６ＧＩＮＺＡＳＩＸ１３Ｆ,,13,102,1040061,,,,,,,2022-05-23,1,,,,,ミール,0
259,2010001226814,新規,0,2022-05-23,2022-05-23,株式会社ＭＹＮロジテック,,株式会社,東京都,中央区,八丁堀１丁目１０番７号,,13,102,1040032,,,,,,,2022-05-23,1,,,,,エムワイエヌロジテック,0
265,2010003037730,新規,0,2022-05-23,2022-05-23,合同会社ベック,,合同会社,東京都,中央区,銀座１丁目１２番４号Ｎ＆ＥＢＬＤ．７階,,13,102,1040061,,,,,,,2022-05-23,1,,,,,,0
266,2010103001917,新規,0,2022-05-23,2022-05-23,合同会社ひじ林,,合同会社,東京都,八王子市,堀之内１３４３番地,,13,201,1920355,,,,,,,2022-05-23,1,,,,,ヒジリン,0
276,2010401167393,新規,0,2022-05-23,2022-05-23,株式会社アケビア,,株式会社,東京都,港区,南青山４丁目１７番３３号グランカーサ南青山２階,,13,103,1070062,,,,,,,2022-05-23,1,,,,,アケビア,0
281,2010403027686,新規,0,2022-05-23,2022-05-23,合同会社ＳＨＬ,,合同会社,東京都,港区,芝４丁目１８番１コンフォリア三田ＥＡＳＴ１３０７,,13,103,1080014,,,,,,,2022-05-23,1,,,,,エスエイチエル,0
282,2010403027694,新規,0,2022-05-23,2022-05-23,Ｋａｋｅ　Ｇｌｏｂａｌ合同会社,,合同会社,東京都,港区,高輪４丁目２３番６号ハイホーム高輪７０８,,13,103,1080074,,,,,,,2022-05-23,1,,,,,カケグローバル,0
283,2010405021035,新規,0,2022-05-23,2022-05-23,一般社団法人ＧＧＵファンド１,,その他の設立登記法人,東京都,港区,虎ノ門３丁目２２番１０－２０１号,,13,103,1050001,,,,,,,2022-05-23,1,,,,,ジージーユーファンドワン,0
314,2011001147653,新規,0,2022-05-23,2022-05-23,Ｔｈｉｒｄｐｌａｃｅ株式会社,,株式会社,東京都,渋谷区,神宮前６丁目２３番４号桑野ビル２階,,13,113,1500001,,,,,,,2022-05-23,1,,,,,,0
320,2011103011781,新規,0,2022-05-23,2022-05-23,合同会社ＭＦトラスト,,合同会社,東京都,新宿区,四谷４丁目３番地２２シティ四谷６０１,,13,104,1600004,,,,,,,2022-05-23,1,,,,,エムエフトラスト,0
321,2011201023836,新規,0,2022-05-23,2022-05-23,株式会社スティルアライヴ,,株式会社,東京都,中野区,野方１丁目４２番１９号１Ｆ,,13,114,1650027,,,,,,,2022-05-23,1,,,,,スティルアライヴ,0
324,2011301027786,新規,0,2022-05-23,2022-05-23,株式会社プランタン,,株式会社,東京都,杉並区,桃井３丁目６番１－４２３号サウステラス・シーズンテラス,,13,115,1670034,,,,,,,2022-05-23,1,,,,,プランタン,0
325,2011301027794,新規,0,2022-05-23,2022-05-23,株式会社エトーレ企画,,株式会社,東京都,杉並区,松ノ木３丁目７番３号,,13,115,1660014,,,,,,,2022-05-23,1,,,,,エトーレキカク,0
327,2011501028056,新規,0,2022-05-23,2022-05-23,株式会社フロンティア,,株式会社,東京都,北区,赤羽１丁目７番９号赤羽第一葉山ビル４階,,13,117,1150045,,,,,,,2022-05-23,1,,,,,フロンティア,0
329,2011701025332,新規,0,2022-05-23,2022-05-23,株式会社ＴＯＰＩＰＥ,,株式会社,東京都,江戸川区,本一色３丁目９番１１号,,13,123,1330044,,,,,,,2022-05-23,1,,,,,トピペ,0
332,2011803005100,新規,0,2022-05-23,2022-05-23,合同会社ＧＬＧ　ｃｏｒｐｏｒａｔｉｏｎｓ,,合同会社,東京都,葛飾区,東水元２丁目３６－１６,,13,122,1250033,,,,,,,2022-05-23,1,,,,,ジーエルジーコーポレーションズ,0
335,2012403005382,新規,0,2022-05-23,2022-05-23,合同会社Ａｓａｎｔｅ　Ｓａｆｅｔｙ,,合同会社,東京都,多摩市,桜ヶ丘１丁目３６番地の１,,13,224,2060013,,,,,,,2022-05-23,1,,,,,アサンテセーフティ,0
338,2013101008925,新規,0,2022-05-23,2022-05-23,株式会社楽,,株式会社,東京都,あきる野市,山田７７９番地３,,13,228,1900144,,,,,,,2022-05-23,1,,,,,,0
347,2020001146549,新規,0,2022-05-23,2022-05-23,株式会社ＷＩＴＨＪＡＭ,,株式会社,神奈川県,横浜市中区,桜木町１丁目１０１－１クロスゲート７階桜木町アントレサロン内,,14,104,2310062,,,,,,,2022-05-23,1,,,,,ウィズジャム,0
348,2020001146581,新規,0,2022-05-23,2022-05-23,株式会社ネクストゲート,,株式会社,神奈川県,横浜市保土ケ谷区,法泉２丁目６番２４－１号,,14,106,2400032,,,,,,,2022-05-23,1,,,,,ネクストゲート,0
349,2020001146598,新規,0,2022-05-23,2022-05-23,ＮＫホールディングス株式会社,,株式会社,神奈川県,横浜市神奈川区,金港町６番地３横浜金港町ビル３階・ＳＵパートナーズ税理士法人内,,14,102,2210056,,,,,,,2022-05-23,1,,,,,エヌケイホールディングス,0
353,2020003021808,新規,0,2022-05-23,2022-05-23,合同会社アルファ・クリエイション,,合同会社,神奈川県,川崎市中原区,新丸子東３丁目１１００番地１５・Ｓ１３１２,,14,133,2110004,,,,,,,2022-05-23,1,,,,,アルファクリエイション,0
354,2020005015535,新規,0,2022-05-23,2022-05-23,一般社団法人ＧＲＡＦ,,その他の設立登記法人,神奈川県,横浜市都筑区,中川中央１丁目２番９－８０４号,,14,118,2240003,,,,,,,2022-05-23,1,,,,,グラーフ,0
356,2021001075977,新規,0,2022-05-23,2022-05-23,株式会社ＣＬＯＶＥ,,株式会社,神奈川県,横須賀市,池上７丁目３６番９号,,14,201,2380035,,,,,,,2022-05-23,1,,,,,クローブ,0
357,2021001076026,新規,0,2022-05-23,2022-05-23,株式会社ｐｉｃｏｎ,,株式会社,神奈川県,鎌倉市,御成町３番９号鎌万水産ビル３Ａ,,14,204,2480012,,,,,,,2022-05-23,1,,,,,ピコン,0
362,2021003011732,新規,0,2022-05-23,2022-05-23,ＡＮＵＰＡＭ合同会社,,合同会社,神奈川県,小田原市,中里２６９番地斉藤ハイツＳ１０３,,14,206,2500872,,,,,,,2022-05-23,1,,,,,アヌパム,0
363,2021005012530,新規,0,2022-05-23,2022-05-23,一般社団法人アスリートメンタルサポート,,その他の設立登記法人,神奈川県,三浦郡葉山町,下山口５８７番地の２,,14,301,2400116,,,,,,,2022-05-23,1,,,,,アスリートメンタルサポート,0
368,2030005020864,新規,0,2022-05-23,2022-05-23,特定非営利活動法人ウィズ・ザ・スモール,,その他の設立登記法人,埼玉県,比企郡小川町,大字角山５８０番地８,,11,343,3550316,,,,,,,2022-05-23,1,,,,,ウィズザスモール,0
376,2040001123430,新規,0,2022-05-23,2022-05-23,株式会社アーパステクノ,,株式会社,千葉県,千葉市若葉区,川井町７６１番地１８,,12,104,2650062,,,,,,,2022-05-23,1,,,,,アーパステクノ,0
379,2040005021622,新規,0,2022-05-23,2022-05-23,特定非営利活動法人いちえん会,,その他の設立登記法人,千葉県,千葉市中央区,中央４丁目１０番８号光建ボイス,,12,101,2600013,,,,,,,2022-05-23,1,,,,,イチエンカイ,0
385,2080001024947,新規,0,2022-05-23,2022-05-23,株式会社ＨＡＲＵＴＡＴＳＵ,,株式会社,静岡県,静岡市葵区,羽鳥５丁目２６番３０号,,22,101,4211215,,,,,,,2022-05-23,1,,,,,ハルタツ,0
390,2080401025818,新規,0,2022-05-23,2022-05-23,株式会社ロングディール,,株式会社,静岡県,浜松市中区,八幡町２９番地の１ル・シェモア浜松中央北５０１号,,22,131,4300918,,,,,,,2022-05-23,1,,,,,ロングディール,0
394,2100003006552,新規,0,2022-05-23,2022-05-23,合同会社ＮＡＧＡＮＩＣ,,合同会社,長野県,安曇野市,豊科５９１５－２ヴィラ滝沢豊科１０６,,20,220,3998205,,,,,,,2022-05-23,1,,,,,ナガニック,0
396,2100005012879,新規,0,2022-05-23,2022-05-23,一般社団法人ワナワーク,,その他の設立登記法人,長野県,上水内郡信濃町,大字野尻２９５５,,20,583,3891303,,,,,,,2022-05-23,1,,,,,ワナワーク,0
410,2120001246074,新規,0,2022-05-23,2022-05-23,ＳＴ　Ｇｌｏｂａｌ株式会社,,株式会社,大阪府,大阪市中央区,日本橋１丁目２１番２０号,,27,128,5420073,,,,,,,2022-05-23,1,,,,,エスティーグローバル,0
412,2120003021715,新規,0,2022-05-23,2022-05-23,Ｎｅｔｗｏｒｋ　Ｅｄｕｃａｔｉｏｎｓ合同会社,,合同会社,大阪府,守口市,佐太中町２丁目７－２７－９１０,,27,209,5700002,,,,,,,2022-05-23,1,,,,,ネットワークエディケーションズ,0
413,2120003021723,新規,0,2022-05-23,2022-05-23,合同会社韓国語翻訳オフィス,,合同会社,大阪府,大阪市天王寺区,舟橋町１５番３９号シャトルハイツ舟橋２０３号,,27,109,5430024,,,,,,,2022-05-23,1,,,,,カンコクゴホンヤクオフィス,0
414,2120101065622,新規,0,2022-05-23,2022-05-23,株式会社ｕｎｉｔｅ,,株式会社,大阪府,堺市美原区,太井１番４,,27,147,5870062,,,,,,,2022-05-23,1,,,,,ユナイト,0
417,2120905006326,新規,0,2022-05-23,2022-05-23,特定非営利活動法人ｔｅｔｏｔｅ,,その他の設立登記法人,大阪府,豊中市,北条町３丁目１１番４号,,27,203,5610812,,,,,,,2022-05-23,1,,,,,テトテ,0
419,2130001071810,新規,0,2022-05-23,2022-05-23,株式会社ＴＳＩＮＫ,,株式会社,京都府,京都市中京区,六角通室町西入玉蔵町１３２番地ｉ・レジデンス六角３０２,,26,104,6048211,,,,,,,2022-05-23,1,,,,,ティーエスインク,0
424,2130003007944,新規,0,2022-05-23,2022-05-23,合同会社一叶,,合同会社,京都府,京都市山科区,厨子奥尾上町１番地２８,,26,110,6078453,,,,,,,2022-05-23,1,,,,,イット,0
434,2140001126084,新規,0,2022-05-23,2022-05-23,Ａ＆Ｙアセットマネジメント株式会社,,株式会社,兵庫県,神戸市中央区,二宮町４丁目１番１号,,28,110,6510093,,,,,,,2022-05-23,1,,,,,エーアンドワイアセットマネジメント,0
445,2180001151376,新規,0,2022-05-23,2022-05-23,ＡＸＹＳ株式会社,,株式会社,愛知県,北名古屋市,高田寺砂場６２番地ロフティ高田寺７０１号,,23,234,4810011,,,,,,,2022-05-23,1,,,,,アクシズ,0
446,2180001151392,新規,0,2022-05-23,2022-05-23,株式会社アソシエイト,,株式会社,愛知県,名古屋市千種区,高見１丁目２４番１４号,,23,101,4640073,,,,,,,2022-05-23,1,,,,,アソシエイト,0
457,2180003023854,新規,0,2022-05-23,2022-05-23,合同会社Ｔ．Ｈ．Ａナガトミタイヤ,,合同会社,愛知県,名古屋市千種区,内山１丁目８番７号－２,,23,101,4640075,,,,,,,2022-05-23,1,,,,,ティーエイチエイナガトミタイヤ,0
465,2240001059794,新規,0,2022-05-23,2022-05-23,株式会社ＡＭＭｅ,,株式会社,広島県,広島市中区,幟町１３番１５号,,34,101,7300016,,,,,,,2022-05-23,1,,,,,アム,0
466,2240003005631,新規,0,2022-05-23,2022-05-23,オッタントット合同会社,,合同会社,広島県,広島市中区,榎町２番１４号,,34,101,7300851,,,,,,,2022-05-23,1,,,,,オッタントット,0
471,2260005011089,新規,0,2022-05-23,2022-05-23,一般社団法人有機水耕栽培推進協会,,その他の設立登記法人,岡山県,倉敷市,新田２４０３番地１,,33,202,7100038,,,,,,,2022-05-23,1,,,,,ユウキスイコウサイバイスイシンキョウカイ,0
478,2290003012532,新規,0,2022-05-23,2022-05-23,合同会社ＹＡＭＡＴＯ,,合同会社,福岡県,糸島市,前原駅南１丁目２２番２８号,,40,230,8191138,,,,,,,2022-05-23,1,,,,,ヤマト,0
494,2340003003798,新規,0,2022-05-23,2022-05-23,合同会社つむぐ助産院,,合同会社,鹿児島県,鹿児島市,伊敷台７丁目１２番３号,,46,201,8900007,,,,,,,2022-05-23,1,,,,,ツムグジョサンイン,0
501,2360001030405,新規,0,2022-05-23,2022-05-23,株式会社Ｃｏｒｃｅｒｅ,,株式会社,沖縄県,石垣市,字登野城９―４―５Ｆ,,47,207,9070004,,,,,,,2022-05-23,1,,,,,コルセア,0
502,2360003012005,新規,0,2022-05-23,2022-05-23,合同会社ＢｉｇＶｏｉｃｅ,,合同会社,沖縄県,沖縄市,泡瀬１丁目１５－６０シーサイドアワセ１０１,,47,211,9042172,,,,,,,2022-05-23,1,,,,,ビッグボイス,0
515,2430001086695,新規,0,2022-05-23,2022-05-23,マッチボックス株式会社,,株式会社,北海道,札幌市中央区,北一条西７丁目３番２号北一条大和田ビル２階,,01,101,0600001,,,,,,,2022-05-23,1,,,,,マッチボックス,0
521,2430003013929,新規,0,2022-05-23,2022-05-23,Ａｓｏｂｉｂａ合同会社,,合同会社,北海道,札幌市中央区,南二条東２丁目１６番地堀尾ビル,,01,101,0600052,,,,,,,2022-05-23,1,,,,,アソビバ,0
522,2430003013937,新規,0,2022-05-23,2022-05-23,假屋崎会計合同会社,,合同会社,北海道,札幌市中央区,西五丁目１－１５ＳＡＫＵＲＡ－Ｓ９,,01,101,0600000,,,,,,,2022-05-23,1,,,,,カリヤザキカイケイ,0
527,2700150108925,新規,0,2022-05-23,2022-05-23,ジャズアンドフリーダム実行委員会,,その他,宮城県,栗原市,志波姫堀口館輪１３９,,04,213,9895625,,,,,,,2022-05-23,1,,,,,ジャズアンドフリーダムジッコウイインカイ,0
543,3010001226730,新規,0,2022-05-23,2022-05-23,シモーネリーバ株式会社,,株式会社,東京都,中央区,銀座７丁目１３番２１号銀座新六洲ビル２階,,13,102,1040061,,,,,,,2022-05-23,1,,,,,シモーネリーバ,0
544,3010001226747,新規,0,2022-05-23,2022-05-23,株式会社ＫＵＲＯＪＩＫＡ,,株式会社,東京都,千代田区,九段南１丁目５－６りそな九段ビル,,13,101,1020074,,,,,,,2022-05-23,1,,,,,クロジカ,0
545,3010001226805,新規,0,2022-05-23,2022-05-23,株式会社アバックグループ,,株式会社,東京都,中央区,銀座６丁目１０番１号ＧＩＮＺＡＳＩＸ８階,,13,102,1040061,,,,,,,2022-05-23,1,,,,,,0
551,3010003037713,新規,0,2022-05-23,2022-05-23,合同会社ｓｎｏｗｄｏｍｅ,,合同会社,東京都,中央区,佃２丁目２１－５－８０５,,13,102,1040051,,,,,,,2022-05-23,1,,,,,スノードーム,0
556,3010401167434,新規,0,2022-05-23,2022-05-23,株式会社イージス,,株式会社,東京都,港区,赤坂３丁目１３番３号赤坂セントラルビル３Ｆ,,13,103,1070052,,,,,,,2022-05-23,1,,,,,イージス,0
559,3010403027702,新規,0,2022-05-23,2022-05-23,Ｍ＆Ｈコーポレーション合同会社,,合同会社,東京都,港区,高輪４丁目２４番５５－４１２号,,13,103,1080074,,,,,,,2022-05-23,1,,,,,エムアンドエイチコーポレーション,0
565,3010701042683,新規,0,2022-05-23,2022-05-23,株式会社Ａ‐Ｚｏｎｅ,,株式会社,東京都,品川区,東五反田１丁目５番１号,,13,109,1410022,,,,,,,2022-05-23,1,,,,,エーゾーン,0
566,3010703006249,新規,0,2022-05-23,2022-05-23,合同会社ＰｏＬＵＣＡ,,合同会社,東京都,品川区,大崎３丁目５番３号,,13,109,1410032,,,,,,,2022-05-23,1,,,,,ポルカ,0
575,3011001147487,新規,0,2022-05-23,2022-05-23,株式会社ＥｖｅｒＬｉｖｅ,,株式会社,東京都,渋谷区,恵比寿３丁目３４番２０号レオネクストマグノリア１０１,,13,113,1500013,,,,,,,2022-05-23,1,,,,,エバーライブ,0
581,3011101098928,新規,0,2022-05-23,2022-05-23,長楽国際貿易株式会社,,株式会社,東京都,新宿区,歌舞伎町１丁目１８番７号－４Ｆ室,,13,104,1600021,,,,,,,2022-05-23,1,,,,,チョウラクコクサイボウエキ,0
584,3011303004411,新規,0,2022-05-23,2022-05-23,合同会社ＴＥＡＭ　ＫＡＭＵＩ,,合同会社,東京都,杉並区,下高井戸１丁目２０番５号,,13,115,1680073,,,,,,,2022-05-23,1,,,,,チームカムイ,0
591,3011701025323,新規,0,2022-05-23,2022-05-23,城東環境保全株式会社,,株式会社,東京都,江戸川区,新堀１丁目２６番９号,,13,123,1320001,,,,,,,2022-05-23,1,,,,,ジョウトウカンキョウホゼン,0
594,3011801040742,新規,0,2022-05-23,2022-05-23,株式会社Ｔｏｋｙｏ　Ｓｍｉｌｅｓ,,株式会社,東京都,葛飾区,西新小岩３丁目１３番６号,,13,122,1240025,,,,,,,2022-05-23,1,,,,,トウキョウスマイルズ,0
595,3012303001679,新規,0,2022-05-23,2022-05-23,合同会社エアクオート,,合同会社,東京都,町田市,成瀬１丁目７番１４号,,13,209,1940044,,,,,,,2022-05-23,1,,,,,エアクオート,0
598,3012403005381,新規,0,2022-05-23,2022-05-23,合同会社マルコシアス,,合同会社,東京都,武蔵野市,吉祥寺北町１丁目３０番２１号,,13,203,1800001,,,,,,,2022-05-23,1,,,,,マルコシアス,0
599,3012701017062,新規,0,2022-05-23,2022-05-23,株式会社さくら組,,株式会社,東京都,西東京市,芝久保町１丁目１２番３４－３号,,13,229,1880014,,,,,,,2022-05-23,1,,,,,サクラグミ,0
600,3012703002459,新規,0,2022-05-23,2022-05-23,栄和国際合同会社,,合同会社,東京都,小平市,小川町１丁目８４４－１３,,13,211,1870032,,,,,,,2022-05-23,1,,,,,エイワグローバル,0
608,3020001146580,新規,0,2022-05-23,2022-05-23,株式会社ＭＭＢ,,株式会社,神奈川県,川崎市高津区,溝口２丁目２６番８号,,14,134,2130001,,,,,,,2022-05-23,1,,,,,エムエムビー,0
615,3020003021807,新規,0,2022-05-23,2022-05-23,合同会社わんすてっぷ,,合同会社,神奈川県,川崎市川崎区,東門前２丁目４番１１号,,14,131,2100812,,,,,,,2022-05-23,1,,,,,ワンステップ,0
623,3021001075976,新規,0,2022-05-23,2022-05-23,株式会社ｓｅｔｏｙａｍａ,,株式会社,神奈川県,足柄下郡箱根町,木賀１０１３番地４ｓｐａｘ箱根宮ノ下Ｂ４０２,,14,382,2500402,,,,,,,2022-05-23,1,,,,,セトヤマ,0
624,3021001076025,新規,0,2022-05-23,2022-05-23,株式会社トータルファイナンシャルコンサルティング,,株式会社,神奈川県,海老名市,中新田１丁目５番２５－５１０号,,14,215,2430422,,,,,,,2022-05-23,1,,,,,トータルファイナンシャルコンサルティング,0
625,3021001076033,新規,0,2022-05-23,2022-05-23,株式会社アットワーク,,株式会社,神奈川県,相模原市緑区,西橋本２丁目１１－１１ベルヴィー橋本２０１,,14,151,2520131,,,,,,,2022-05-23,1,,,,,アットワーク,0
627,3021003011731,新規,0,2022-05-23,2022-05-23,合同会社北斗七星,,合同会社,神奈川県,相模原市南区,豊町１７番１１－３０５号,,14,153,2520305,,,,,,,2022-05-23,1,,,,,ホクトシチセイ,0
637,3030001148155,新規,0,2022-05-23,2022-05-23,株式会社増田企画,,株式会社,埼玉県,比企郡吉見町,大字一ツ木３５４番地,,11,347,3550101,,,,,,,2022-05-23,1,,,,,マスダキカク,0
638,3030001148295,新規,0,2022-05-23,2022-05-23,ＩＰＭジャパン株式会社,,株式会社,埼玉県,熊谷市,大字新堀字八平前１２３０番地１４,,11,202,3600000,,,,,,,2022-05-23,1,,,,,アイピーエムジャパン,0
639,3030001148304,新規,0,2022-05-23,2022-05-23,株式会社亀浦塾,,株式会社,埼玉県,草加市,高砂１丁目１０番３－１号,,11,221,3400015,,,,,,,2022-05-23,1,,,,,,0
640,3030001148312,新規,0,2022-05-23,2022-05-23,Ｓｈａｋｏｌ株式会社,,株式会社,埼玉県,川口市,並木３丁目１３番４号－７１１号室,,11,203,3320034,,,,,,,2022-05-23,1,,,,,シャコル,0
650,3040001123504,新規,0,2022-05-23,2022-05-23,輝株式会社,,株式会社,千葉県,山武市,松尾町八田７８番地２２,,12,237,2891512,,,,,,,2022-05-23,1,,,,,カガヤキ,0
654,3040003020071,新規,0,2022-05-23,2022-05-23,スマートワーク合同会社,,合同会社,千葉県,千葉市中央区,富士見１丁目１４－１３千葉大栄ビル８階,,12,101,2600015,,,,,,,2022-05-23,1,,,,,スマートワーク,0
655,3040005021621,新規,0,2022-05-23,2022-05-23,医療法人社団白歯会,,その他の設立登記法人,千葉県,白井市,根１９７０番地４,,12,232,2701431,,,,,,,2022-05-23,1,,,,,ハクシカイ,0
662,3080001024946,新規,0,2022-05-23,2022-05-23,株式会社平塚工業,,株式会社,静岡県,焼津市,下小田６５５番地の３,,22,212,4250057,,,,,,,2022-05-23,1,,,,,ヒラツカコウギョウ,0
667,3080401025817,新規,0,2022-05-23,2022-05-23,ＴＫＫ株式会社,,株式会社,静岡県,浜松市中区,砂山町３５７番地の５砂山ビル,,22,131,4300926,,,,,,,2022-05-23,1,,,,,ティーケイケイ,0
670,3100001035362,新規,0,2022-05-23,2022-05-23,株式会社おとなり,,株式会社,長野県,長野市,大字稲葉１８６５番地、小林ビル３階,,20,201,3800911,,,,,,,2022-05-23,1,,,,,オトナリ,0
698,3120001246073,新規,0,2022-05-23,2022-05-23,未来ジング株式会社,,株式会社,大阪府,大阪市北区,天神橋２丁目北２番２５号,,27,127,5300041,,,,,,,2022-05-23,1,,,,,ミライジング,0
702,3120003021730,新規,0,2022-05-23,2022-05-23,合同会社ＩＰＰＯ,,合同会社,大阪府,大阪市北区,堂山町７番２５号,,27,127,5300027,,,,,,,2022-05-23,1,,,,,アイピーピーオー,0
704,3120101065621,新規,0,2022-05-23,2022-05-23,株式会社ＨＡＲＵＭＩ,,株式会社,大阪府,岸和田市,箕土路町１丁目７番２３号,,27,202,5960801,,,,,,,2022-05-23,1,,,,,ハルミ,0
705,3120901046003,新規,0,2022-05-23,2022-05-23,ライク株式会社,,株式会社,大阪府,吹田市,原町４丁目１１番８号,,27,205,5640004,,,,,,,2022-05-23,1,,,,,ライク,0
727,3180001151383,新規,0,2022-05-23,2022-05-23,ＤＡＤＩＲＲＩ株式会社,,株式会社,愛知県,名古屋市中区,錦３丁目６－１５先名古屋テレビ塔３階,,23,106,4600003,,,,,,,2022-05-23,1,,,,,ダディリ,0
733,3180003023845,新規,0,2022-05-23,2022-05-23,合同会社ｃｈａｎｃｅ,,合同会社,愛知県,稲沢市,山口町１５番地,,23,220,4928347,,,,,,,2022-05-23,1,,,,,チャンス,0
734,3180003023853,新規,0,2022-05-23,2022-05-23,合同会社ＴＯコンサルティング,,合同会社,愛知県,名古屋市北区,上飯田北町１丁目４９番地,,23,103,4620802,,,,,,,2022-05-23,1,,,,,ティーオーコンサルティング,0
735,3180301036243,新規,0,2022-05-23,2022-05-23,株式会社スカイメット,,株式会社,愛知県,豊橋市,錦町１４９番地１（６０４）,,23,201,4418027,,,,,,,2022-05-23,1,,,,,スカイメット,0
737,3220001024857,新規,0,2022-05-23,2022-05-23,株式会社オアシス,,株式会社,石川県,金沢市,増泉３丁目１３番７号,,17,201,9218025,,,,,,,2022-05-23,1,,,,,オアシス,0
740,3240001059793,新規,0,2022-05-23,2022-05-23,Ｂｅ　ｓｉｄｅ株式会社,,株式会社,広島県,廿日市市,四季が丘１０丁目４番地１３,,34,213,7380036,,,,,,,2022-05-23,1,,,,,ビーサイド,0
741,3240003005630,新規,0,2022-05-23,2022-05-23,合同会社玖珠発電所,,合同会社,広島県,広島市中区,八丁堀１４番４号ＪＥＩ広島八丁堀ビル６階,,34,101,7300013,,,,,,,2022-05-23,1,,,,,クスハツデンショ,0
744,3260001036865,新規,0,2022-05-23,2022-05-23,株式会社ＳＵＮＴＥＣ,,株式会社,岡山県,倉敷市,福田町古新田６６７番地１０,,33,202,7128046,,,,,,,2022-05-23,1,,,,,サンテック,0
747,3290001097608,新規,0,2022-05-23,2022-05-23,株式会社淺木工業,,株式会社,福岡県,筑後市,大字蔵数１０１３番地１,,40,211,8330054,,,,,,,2022-05-23,1,,,,,アサキコウギョウ,0
748,3290001097616,新規,0,2022-05-23,2022-05-23,アイテック株式会社,,株式会社,福岡県,福岡市東区,松崎４丁目８番１６号,,40,131,8130035,,,,,,,2022-05-23,1,,,,,アイテック,0
750,3290801028555,新規,0,2022-05-23,2022-05-23,株式会社エステート・アート・システム,,株式会社,福岡県,中間市,中央３丁目５番１号,,40,215,8090030,,,,,,,2022-05-23,1,,,,,エステートアートシステム,0
754,3310001017868,新規,0,2022-05-23,2022-05-23,株式会社ＴＥＣＳ,,株式会社,長崎県,南島原市,布津町丙１１８１番地１,,42,214,8592113,,,,,,,2022-05-23,1,,,,,テックス,0
756,3310003004369,新規,0,2022-05-23,2022-05-23,合同会社豚足かっこちゃん,,合同会社,長崎県,諫早市,多良見町シーサイド１番地１７１,,42,204,8590407,,,,,,,2022-05-23,1,,,,,トンソクカッコチャン,0
763,3340001024738,新規,0,2022-05-23,2022-05-23,株式会社Ｔｏｓａｍａ,,株式会社,鹿児島県,鹿屋市,名貫町９８５番地２,,46,203,8930034,,,,,,,2022-05-23,1,,,,,トサマ,0
766,3340003003797,新規,0,2022-05-23,2022-05-23,合同会社前畑商店,,合同会社,鹿児島県,鹿児島市,武３丁目３２番１－８０３号,,46,201,8900045,,,,,,,2022-05-23,1,,,,,マエハタショウテン,0
778,3370003005700,新規,0,2022-05-23,2022-05-23,合同会社むすび,,合同会社,宮城県,仙台市泉区,八乙女中央３丁目１０番１３号１０１,,04,105,9813135,,,,,,,2022-05-23,1,,,,,ムスビ,0
781,3380001032836,新規,0,2022-05-23,2022-05-23,鈴木聰建株式会社,,株式会社,福島県,田村市,船引町船引字源次郎１２０番地２ポポロＶ２０２号,,07,211,9634312,,,,,,,2022-05-23,1,,,,,スズキソウケン,0
792,3430001086546,新規,0,2022-05-23,2022-05-23,株式会社美国園芸,,株式会社,北海道,積丹郡積丹町,大字美国町字船澗１９１１番地１,,01,405,0460201,,,,,,,2022-05-23,1,,,,,ビクニエンゲイ,0
793,3430001086694,新規,0,2022-05-23,2022-05-23,株式会社Ｎ’ｓ　Ｃｏｍｅ　ａｌｉｖｅ,,株式会社,北海道,札幌市中央区,南五条東３丁目７番地１ルピナス７０３号,,01,101,0600055,,,,,,,2022-05-23,1,,,,,エヌズカムアライブ,0
796,3430003013928,新規,0,2022-05-23,2022-05-23,シマエナガ合同会社,,合同会社,北海道,札幌市中央区,大通西１８丁目１番地２４ネオアージュ大通西７０２号,,01,101,0600042,,,,,,,2022-05-23,1,,,,,シマエナガ,0
797,3430003013944,新規,0,2022-05-23,2022-05-23,合同会社ＥＧＦａｒｍ,,合同会社,北海道,滝川市,江部乙町２４１３－４,,01,225,0790461,,,,,,,2022-05-23,1,,,,,イージーファーム,0
819,4010001226762,新規,0,2022-05-23,2022-05-23,ＸＳＸＳ株式会社,,株式会社,東京都,中央区,銀座８丁目１５番２号,,13,102,1040061,,,,,,,2022-05-23,1,,,,,クスクス,0
826,4010003037720,新規,0,2022-05-23,2022-05-23,合同会社Ｌｉｂｅｒａｔｏ,,合同会社,東京都,中央区,日本橋兜町１７－２兜町第６葉山ビル４階,,13,102,1030026,,,,,,,2022-05-23,1,,,,,リベラート,0
829,4010005035029,新規,0,2022-05-23,2022-05-23,一般社団法人電力データ管理協会,,その他の設立登記法人,東京都,千代田区,一番町１３番１号,,13,101,1020082,,,,,,,2022-05-23,1,,,,,デンリョクデータカンリキョウカイ,0
836,4010403027692,新規,0,2022-05-23,2022-05-23,ｃｕｌｖｅｒｔ合同会社,,合同会社,東京都,港区,南青山２丁目２番１５号,,13,103,1070062,,,,,,,2022-05-23,1,,,,,カルバート,0
840,4010705003359,新規,0,2022-05-23,2022-05-23,一般社団法人日本再生と活性推進機構,,その他の設立登記法人,東京都,品川区,東五反田２丁目８番３号,,13,109,1410022,,,,,,,2022-05-23,1,,,,,ニホンサイセイトカッセイスイシンキコウ,0
856,4011001147651,新規,0,2022-05-23,2022-05-23,株式会社スマートファースト,,株式会社,東京都,渋谷区,広尾２丁目１３－６ＡＲＣ１０１号室,,13,113,1500012,,,,,,,2022-05-23,1,,,,,,0
862,4011101098910,新規,0,2022-05-23,2022-05-23,株式会社センテナリア,,株式会社,東京都,新宿区,西新宿１丁目２６番２号新宿野村ビル３２階,,13,104,1600023,,,,,,,2022-05-23,1,,,,,センテナリア,0
863,4011203003818,新規,0,2022-05-23,2022-05-23,東陽合同会社,,合同会社,東京都,中野区,本町４丁目４５番９号,,13,114,1640012,,,,,,,2022-05-23,1,,,,,トウヨウ,0
864,4011301027792,新規,0,2022-05-23,2022-05-23,株式会社ＳＴＡＲ　ＩＧＮＩＴＩＯＮ,,株式会社,東京都,杉並区,永福１丁目１番１－６０６号,,13,115,1680064,,,,,,,2022-05-23,1,,,,,スターイグニッション,0
869,4012403005380,新規,0,2022-05-23,2022-05-23,合同会社ＬＯＳ,,合同会社,東京都,府中市,清水が丘２丁目４５番地の２サンコート清水ヶ丘２０３,,13,206,1830015,,,,,,,2022-05-23,1,,,,,エルオーエス,0
872,4012701017061,新規,0,2022-05-23,2022-05-23,株式会社ＺＥＲＯＳ,,株式会社,東京都,東久留米市,下里２丁目１５番３７号１Ｆ,,13,222,2030043,,,,,,,2022-05-23,1,,,,,ゼロス,0
873,4012801021590,新規,0,2022-05-23,2022-05-23,株式会社ｄａｂ,,株式会社,東京都,日野市,多摩平２丁目５番地の１ＰｌａｎＴ,,13,212,1910062,,,,,,,2022-05-23,1,,,,,ダブ,0
887,4020003021797,新規,0,2022-05-23,2022-05-23,合同会社Ｋａｍａｌ,,合同会社,神奈川県,横浜市泉区,緑園４丁目３番地１サンステージ緑園都市東の街４番館５０７号,,14,116,2450002,,,,,,,2022-05-23,1,,,,,カマル,0
890,4021001076032,新規,0,2022-05-23,2022-05-23,株式会社ティーズディー,,株式会社,神奈川県,横須賀市,岩戸１丁目１番１２号,,14,201,2390844,,,,,,,2022-05-23,1,,,,,ティーズディー,0
892,4021003011689,新規,0,2022-05-23,2022-05-23,合同会社Ｂｅａｃｈ　Ｂｏｘ,,合同会社,神奈川県,足柄下郡真鶴町,真鶴５２１番地１,,14,383,2590201,,,,,,,2022-05-23,1,,,,,ビーチボックス,0
893,4021003011714,新規,0,2022-05-23,2022-05-23,Ｎｏｒｔｈ　Ｐｏｌｅ合同会社,,合同会社,神奈川県,海老名市,柏ケ谷２３８番地の２７,,14,215,2430402,,,,,,,2022-05-23,1,,,,,,0
898,4030001148303,新規,0,2022-05-23,2022-05-23,盟約冷熱システム株式会社,,株式会社,埼玉県,三郷市,岩野木１８０番地２０２号,,11,237,3410031,,,,,,,2022-05-23,1,,,,,メイヤクレイネツシステム,0
899,4030001148352,新規,0,2022-05-23,2022-05-23,株式会社蔭島広報事務所,,株式会社,埼玉県,朝霞市,本町１丁目１５番４号,,11,227,3510011,,,,,,,2022-05-23,1,,,,,カゲシマコウホウジムショ,0
907,4040003020062,新規,0,2022-05-23,2022-05-23,ＬｅａＬｅａ合同会社,,合同会社,千葉県,四街道市,四街道１５２２－６８アーバンライフ津の守３０１号,,12,228,2840005,,,,,,,2022-05-23,1,,,,,レアレア,0
908,4040003020079,新規,0,2022-05-23,2022-05-23,合同会社Ｏｎｌｙ　Ｏｎｅ　Ｌｉｆｅ,,合同会社,千葉県,八千代市,大和田新田９１１番地１サンクタス八千代緑が丘Ｂ－１０９号,,12,221,2760046,,,,,,,2022-05-23,1,,,,,オンリーワンライフ,0
916,4050001051109,新規,0,2022-05-23,2022-05-23,株式会社アウル工業,,株式会社,茨城県,東茨城郡茨城町,大字長岡３５２４番地２４６,,08,302,3113116,,,,,,,2022-05-23,1,,,,,アウルコウギョウ,0
920,4080001024953,新規,0,2022-05-23,2022-05-23,株式会社ＥＭＩ,,株式会社,静岡県,静岡市清水区,江尻東３丁目９番２２号,,22,103,4240815,,,,,,,2022-05-23,1,,,,,イーエムアイ,0
923,4080401025816,新規,0,2022-05-23,2022-05-23,株式会社ＬＭ,,株式会社,静岡県,磐田市,池田９６１番地４,,22,211,4380805,,,,,,,2022-05-23,1,,,,,エルエム,0
927,4100001035361,新規,0,2022-05-23,2022-05-23,株式会社Ｍ　ｔｏ　Ｅｄｉｔ,,株式会社,長野県,諏訪郡下諏訪町,４６９５番地８,,20,361,3930000,,,,,,,2022-05-23,1,,,,,エムトゥーエディット,0
935,4120001246080,新規,0,2022-05-23,2022-05-23,株式会社ＨＮバックオフィスサポート,,株式会社,大阪府,大阪市北区,小松原町３－３ＯＳビル１４Ｆ,,27,127,5300018,,,,,,,2022-05-23,1,,,,,エイチエヌバックオフィスサポート,0
937,4120003021696,新規,0,2022-05-23,2022-05-23,Ｇｕｅｒｎｉｃａ合同会社,,合同会社,大阪府,大阪市北区,梅田１丁目１－３大阪駅前第三ビル２９階１－１－１号室,,27,127,5300001,,,,,,,2022-05-23,1,,,,,ゲルニカ,0
939,4122001035892,新規,0,2022-05-23,2022-05-23,株式会社ヒラヤマ,,株式会社,大阪府,東大阪市,中新開２丁目２番３２号,,27,227,5780911,,,,,,,2022-05-23,1,,,,,ヒラヤマ,0
941,4130003007934,新規,0,2022-05-23,2022-05-23,合同会社ＣＲＥＥＫ,,合同会社,京都府,京都市下京区,塩小路通烏丸西入東塩小路町６１４番地新京都センタービル５階,,26,106,6008216,,,,,,,2022-05-23,1,,,,,クリーク,0
942,4130003007942,新規,0,2022-05-23,2022-05-23,あみまゆ合同会社,,合同会社,京都府,木津川市,城山台１０丁目２６番地２０,,26,214,6190218,,,,,,,2022-05-23,1,,,,,アミマユ,0
949,4160001024219,新規,0,2022-05-23,2022-05-23,ＮｅｗＴｙｐｅ５２０株式会社,,株式会社,滋賀県,大津市,秋葉台３６番３６号,,25,201,5200822,,,,,,,2022-05-23,1,,,,,ニュータイプファイブツーオー,0
968,4180003023712,新規,0,2022-05-23,2022-05-23,アキラ合同会社,,合同会社,愛知県,名古屋市西区,那古野２丁目１４番１号なごのキャンパス３‐９,,23,104,4510042,,,,,,,2022-05-23,1,,,,,アキラ,0
969,4180003023844,新規,0,2022-05-23,2022-05-23,合同会社ＡＫＷＬ,,合同会社,愛知県,名古屋市中区,大須１丁目７－１４パークＩＭビル２Ｆ,,23,106,4600011,,,,,,,2022-05-23,1,,,,,アクゥール,0
970,4180003023852,新規,0,2022-05-23,2022-05-23,合同会社テン・サウザンド,,合同会社,愛知県,丹羽郡大口町,城屋敷２丁目４５番地１,,23,361,4800143,,,,,,,2022-05-23,1,,,,,テンサウザンド,0
974,4190003003993,新規,0,2022-05-23,2022-05-23,合同会社リバース,,合同会社,三重県,津市,雲出長常町１２９４番地,,24,201,5140303,,,,,,,2022-05-23,1,,,,,リバース,0
978,4210001018941,新規,0,2022-05-23,2022-05-23,株式会社佐々木電機,,株式会社,福井県,吉田郡永平寺町,松岡春日１丁目１０番地,,18,322,9101133,,,,,,,2022-05-23,1,,,,,ササキデンキ,0
983,4220001024856,新規,0,2022-05-23,2022-05-23,トーカク株式会社,,株式会社,石川県,能美市,大長野町ニ８９番地２０,,17,211,9231115,,,,,,,2022-05-23,1,,,,,トーカク,0
990,4260001036864,新規,0,2022-05-23,2022-05-23,株式会社楽戊,,株式会社,岡山県,倉敷市,児島田の口４丁目１３番６号,,33,202,7110903,,,,,,,2022-05-23,1,,,,,ラボ,0
992,4270001008524,新規,0,2022-05-23,2022-05-23,株式会社ＹＯＨＡＫＵ,,株式会社,鳥取県,米子市,錦海町３丁目７－２,,31,202,6830825,,,,,,,2022-05-23,1,,,,,ヨハク,0
993,4280001008696,新規,0,2022-05-23,2022-05-23,株式会社Ｌｉｖｅｒｅｓｔ,,株式会社,島根県,出雲市,多伎町多岐７６２番５,,32,203,6990902,,,,,,,2022-05-23,1,,,,,,0
999,4290002053063,新規,0,2022-05-23,2022-05-23,有限会社遠藤建具店,,有限会社,福岡県,大川市,大字榎津３８２番地,,40,212,8310004,,,,,,,2022-05-23,1,,,,,エンドウタテグテン,0
1001,4310003004368,新規,0,2022-05-23,2022-05-23,合同会社現,,合同会社,長崎県,長崎市,葉山１丁目３２番１０－３０４号,,42,201,8528053,,,,,,,2022-05-23,1,,,,,ウツツ,0
1006,4340003003796,新規,0,2022-05-23,2022-05-23,ＴＯＰ合同会社,,合同会社,鹿児島県,鹿児島市,高麗町２４番５号,,46,201,8900051,,,,,,,2022-05-23,1,,,,,トップ,0
1009,4360003012028,新規,0,2022-05-23,2022-05-23,合同会社ＢｒｉｎｇｏｕｔＤｅｓｉｇｎ,,合同会社,沖縄県,那覇市,安里２丁目８－１７ライオンズタワー安里８０７,,47,201,9020067,,,,,,,2022-05-23,1,,,,,ブリングアウトデザイン,0
1015,4370001048576,新規,0,2022-05-23,2022-05-23,株式会社仙台ロードサービス,,株式会社,宮城県,仙台市泉区,七北田字大沢中才２２番,,04,105,9813131,,,,,,,2022-05-23,1,,,,,センダイロードサービス,0
1024,4430001086693,新規,0,2022-05-23,2022-05-23,株式会社エヌサポート,,株式会社,北海道,札幌市中央区,南十五条西１５丁目１番１５－３０２号,,01,101,0640915,,,,,,,2022-05-23,1,,,,,エヌサポート,0
1029,4450001013704,新規,0,2022-05-23,2022-05-23,株式会社大和建設,,株式会社,北海道,旭川市,豊岡十一条１１丁目１番３０号,,01,204,0788241,,,,,,,2022-05-23,1,,,,,ヤマトケンセツ,0
1056,5010001226596,新規,0,2022-05-23,2022-05-23,株式会社ガイナーＪＡＰＡＮ,,株式会社,東京都,千代田区,神田小川町１丁目１０番２号３０２号室,,13,101,1010052,,,,,,,2022-05-23,1,,,,,ガイナージャパン,0
1057,5010001226745,新規,0,2022-05-23,2022-05-23,株式会社Ｌｉｆａｃｔｉｏｎｓ,,株式会社,東京都,千代田区,平河町１丁目３－６ＢＩＺＭＡＲＫＳ麹町５Ｆ,,13,101,1020093,,,,,,,2022-05-23,1,,,,,リファクションズ,0
1058,5010001226794,新規,0,2022-05-23,2022-05-23,デジタルインフラ・ラボ株式会社,,株式会社,東京都,中央区,京橋１丁目１９番４号,,13,102,1040031,,,,,,,2022-05-23,1,,,,,デジタルインフララボ,0
1063,5010003037711,新規,0,2022-05-23,2022-05-23,合同会社ＨＯＭＥＢＯＵＮＤ,,合同会社,東京都,中央区,銀座７丁目１３－６サガミビル２Ｆ,,13,102,1040061,,,,,,,2022-05-23,1,,,,,ホームバウンド,0
1075,5010401167473,新規,0,2022-05-23,2022-05-23,株式会社テクノワ,,株式会社,東京都,港区,麻布十番２丁目１７番５号プライムアーバン麻布十番２－００１,,13,103,1060045,,,,,,,2022-05-23,1,,,,,テクノワ,0
1099,5011101098950,新規,0,2022-05-23,2022-05-23,株式会社ＪＩＮ,,株式会社,東京都,新宿区,大久保１丁目１０番６号１階,,13,104,1690072,,,,,,,2022-05-23,1,,,,,ジン,0
1100,5011103011779,新規,0,2022-05-23,2022-05-23,ＣＳｃａｐｉｔａｌ合同会社,,合同会社,東京都,新宿区,榎町３４－３榎町ビル５階,,13,104,1620806,,,,,,,2022-05-23,1,,,,,,0
1101,5011105010259,新規,0,2022-05-23,2022-05-23,一般社団法人エポキシ樹脂技術協会,,その他の設立登記法人,東京都,新宿区,市谷砂土原町１丁目２番地,,13,104,1620842,,,,,,,2022-05-23,1,,,,,エポキシジュシギジュツキョウカイ,0
1108,5011501028053,新規,0,2022-05-23,2022-05-23,株式会社クボタパートナーズ,,株式会社,東京都,北区,浮間３丁目２７番３号,,13,117,1150051,,,,,,,2022-05-23,1,,,,,クボタパートナーズ,0
1114,5011701025305,新規,0,2022-05-23,2022-05-23,ＭｏｎｏＣｏｌｏ株式会社,,株式会社,東京都,江戸川区,西篠崎１丁目１１番１２号コーポ芳賀２Ｆ,,13,123,1330055,,,,,,,2022-05-23,1,,,,,モノコロ,0
1115,5011801040732,新規,0,2022-05-23,2022-05-23,株式会社ＫｉＫｉ,,株式会社,東京都,足立区,千住東１丁目１６－２,,13,121,1200025,,,,,,,2022-05-23,1,,,,,キキ,0
1123,5012701017060,新規,0,2022-05-23,2022-05-23,浅見総業株式会社,,株式会社,東京都,西東京市,南町５丁目３－５サウスタウン１０１号室,,13,229,1880012,,,,,,,2022-05-23,1,,,,,アサミソウギョウ,0
1126,5012801021540,新規,0,2022-05-23,2022-05-23,Ｍｏｒｇａｎ＆Ｃｏ．株式会社,,株式会社,東京都,国立市,東１丁目１５－１１、４４８ビル３Ｆ,,13,215,1860002,,,,,,,2022-05-23,1,,,,,モーガンアンドコー,0
1127,5013101008922,新規,0,2022-05-23,2022-05-23,ＡＢＩＳＫＡＲ株式会社,,株式会社,東京都,あきる野市,秋川２丁目７番地１第２神田秋川駅前ビル２階,,13,228,1970804,,,,,,,2022-05-23,1,,,,,アビスカール,0
1175,5080001024952,新規,0,2022-05-23,2022-05-23,株式会社大石板金,,株式会社,静岡県,焼津市,石津１１２５番地の４,,22,212,4250041,,,,,,,2022-05-23,1,,,,,オオイシバンキン,0
1176,5080101023301,新規,0,2022-05-23,2022-05-23,株式会社ティーアンドシー,,株式会社,静岡県,沼津市,松長１５１番地,,22,203,4100874,,,,,,,2022-05-23,1,,,,,ティーアンドシー,0
1179,5080403004536,新規,0,2022-05-23,2022-05-23,合同会社Ｆ‐Ｃｌｏｖｅｒ,,合同会社,静岡県,浜松市西区,舞阪町長十新田３３４番地の３５,,22,133,4310212,,,,,,,2022-05-23,1,,,,,エフクローバー,0
1184,5100003006558,新規,0,2022-05-23,2022-05-23,合同会社ＭＣＣコンサルタント,,合同会社,長野県,上水内郡飯綱町,大字東柏原８２番地,,20,590,3891202,,,,,,,2022-05-23,1,,,,,エムシーシーコンサルタント,0
1206,5120001245932,新規,0,2022-05-23,2022-05-23,株式会社ＢＵＮＫＡＣ,,株式会社,大阪府,大阪市西区,江戸堀１丁目２２番１５－４０１号,,27,106,5500002,,,,,,,2022-05-23,1,,,,,ブンカック,0
1207,5120001246047,新規,0,2022-05-23,2022-05-23,ＨＯＳＨＩＮＡ株式会社,,株式会社,大阪府,大阪市東住吉区,駒川１丁目１５番４－３０２号,,27,121,5460043,,,,,,,2022-05-23,1,,,,,ホシナ,0
1208,5120001246063,新規,0,2022-05-23,2022-05-23,株式会社ＤＯＴＥ,,株式会社,大阪府,大阪市北区,西天満５丁目１０番３号,,27,127,5300047,,,,,,,2022-05-23,1,,,,,ドテ,0
1216,5120901045993,新規,0,2022-05-23,2022-05-23,株式会社Ｔラウレア,,株式会社,大阪府,吹田市,豊津町１１番１２－７００号,,27,205,5640051,,,,,,,2022-05-23,1,,,,,ティーラウレア,0
1233,5140003017709,新規,0,2022-05-23,2022-05-23,合同会社ｉｃｈｉｋａ,,合同会社,兵庫県,神戸市長田区,丸山町４丁目２番１４号,,28,106,6530875,,,,,,,2022-05-23,1,,,,,イチカ,0
1241,5180001151373,新規,0,2022-05-23,2022-05-23,Ｋ　Ｇａｒａｇｅ株式会社,,株式会社,愛知県,名古屋市西区,数寄屋町２－３,,23,104,4510032,,,,,,,2022-05-23,1,,,,,ケイガレージ,0
1242,5180001151381,新規,0,2022-05-23,2022-05-23,株式会社ＣＲＥ,,株式会社,愛知県,名古屋市熱田区,八番２丁目１１番２６号,,23,109,4560059,,,,,,,2022-05-23,1,,,,,シーアールイー,0
1250,5190003003992,新規,0,2022-05-23,2022-05-23,合同会社紀州,,合同会社,三重県,熊野市,木本町２６４番地１６,,24,212,5194323,,,,,,,2022-05-23,1,,,,,キシュウ,0
1252,5210003001515,新規,0,2022-05-23,2022-05-23,合同会社Ｉ．Ａ．ＧＡＴＥ,,合同会社,福井県,福井市,四ツ井２丁目１０番５号,,18,201,9100846,,,,,,,2022-05-23,1,,,,,アイエーゲート,0
1258,5240001059800,新規,0,2022-05-23,2022-05-23,株式会社ＳＣＫＴ,,株式会社,広島県,広島市安佐南区,伴南５丁目７番２７号,,34,105,7313168,,,,,,,2022-05-23,1,,,,,ソケット,0
1261,5240003005620,新規,0,2022-05-23,2022-05-23,合同会社ＮＹ３３,,合同会社,広島県,尾道市,因島土生町１０６９－５,,34,205,7222323,,,,,,,2022-05-23,1,,,,,エヌワイサーティースリー,0
1262,5240003005629,新規,0,2022-05-23,2022-05-23,合同会社Ｍ＆Ｙコーポレーション,,合同会社,広島県,広島市西区,楠木町４丁目１９番７号,,34,104,7330002,,,,,,,2022-05-23,1,,,,,エムアンドワイコーポレーション,0
1265,5260001036863,新規,0,2022-05-23,2022-05-23,川西自動車株式会社,,株式会社,岡山県,岡山市東区,東平島１３６５番地１,,33,103,7090631,,,,,,,2022-05-23,1,,,,,カワニシジドウシャ,0
1283,5320003003814,新規,0,2022-05-23,2022-05-23,ＨＩＭＩ１９６７合同会社,,合同会社,大分県,大分市,判田台北４丁目９番１１号,,44,201,8701126,,,,,,,2022-05-23,1,,,,,ヒミイチキューロクナナ,0
1285,5330003009372,新規,0,2022-05-23,2022-05-23,合同会社ＭＡＳＨ,,合同会社,熊本県,天草市,志柿町５３８９－３,,43,215,8630041,,,,,,,2022-05-23,1,,,,,マッシュ,0
1295,5370001048583,新規,0,2022-05-23,2022-05-23,ＭＦＪテクニカ株式会社,,株式会社,宮城県,仙台市若林区,六丁の目中町１４番２６号,,04,103,9840012,,,,,,,2022-05-23,1,,,,,エムエフジェイテクニカ,0
1302,5390001016902,新規,0,2022-05-23,2022-05-23,株式会社ハイム,,株式会社,山形県,酒田市,こあら３丁目１番地の５,,06,204,9980878,,,,,,,2022-05-23,1,,,,,ハイム,0
1307,5430001086692,新規,0,2022-05-23,2022-05-23,株式会社ＧＲＡＢ,,株式会社,北海道,札幌市中央区,南四条西６丁目８番地３,,01,101,0640804,,,,,,,2022-05-23,1,,,,,グラブ,0
1310,5450001013703,新規,0,2022-05-23,2022-05-23,令和土木株式会社,,株式会社,北海道,旭川市,豊岡十二条１丁目４番７号,,01,204,0788242,,,,,,,2022-05-23,1,,,,,レイワドボク,0
1312,5460101007199,新規,0,2022-05-23,2022-05-23,株式会社ＣＥＬＴＳ,,株式会社,北海道,中川郡幕別町,札内中央町３１９番地の４８,,01,643,0890543,,,,,,,2022-05-23,1,,,,,セルツ,0
1315,5460301005069,新規,0,2022-05-23,2022-05-23,株式会社まゐらす,,株式会社,北海道,網走郡大空町,女満別東陽３丁目３－８,,01,564,0992305,,,,,,,2022-05-23,1,,,,,マイラス,0
1317,5490001010184,新規,0,2022-05-23,2022-05-23,株式会社ＩＮＴＥＸＤＡＴＡ,,株式会社,高知県,高知市,新本町２丁目４番２９号ウエタサウスビル２０２号室,,39,201,7800062,,,,,,,2022-05-23,1,,,,,インテックスデータ,0
1345,6010401167415,新規,0,2022-05-23,2022-05-23,株式会社ＲｅｔｈＲｅｄ,,株式会社,東京都,港区,麻布十番１丁目５番１２－５０４号,,13,103,1060045,,,,,,,2022-05-23,1,,,,,レスレッド,0
1346,6010401167431,新規,0,2022-05-23,2022-05-23,株式会社グローバルビバレッジ,,株式会社,東京都,港区,南青山２丁目２番８号,,13,103,1070062,,,,,,,2022-05-23,1,,,,,グローバルビバレッジ,0
1348,6010403027682,新規,0,2022-05-23,2022-05-23,Ｋａｉｈｏｕｎｄ　Ｓｔｕｄｉｏｓ合同会社,,合同会社,東京都,港区,元麻布３丁目１番６号,,13,103,1060046,,,,,,,2022-05-23,1,,,,,カイハウンドスタジオス,0
1349,6010403027690,新規,0,2022-05-23,2022-05-23,合同会社サポート,,合同会社,東京都,港区,南青山２丁目２番１５号,,13,103,1070062,,,,,,,2022-05-23,1,,,,,サポート,0
1350,6010503006594,新規,0,2022-05-23,2022-05-23,合同会社ＪＢ　ＧＡＭＥＳ,,合同会社,東京都,台東区,上野１丁目１６番５号,,13,106,1100005,,,,,,,2022-05-23,1,,,,,ジェービーゲームズ,0
1360,6010901050905,新規,0,2022-05-23,2022-05-23,ストロベリーハウス株式会社,,株式会社,東京都,世田谷区,赤堤４丁目１６番１８号,,13,112,1560044,,,,,,,2022-05-23,1,,,,,ストロベリーハウス,0
1361,6010903007390,新規,0,2022-05-23,2022-05-23,合同会社Ｂｌａｃｋｂｉｒｄ,,合同会社,東京都,世田谷区,太子堂２丁目２３番４号サロン４０１号室,,13,112,1540004,,,,,,,2022-05-23,1,,,,,ブラックバード,0
1367,6011001147666,新規,0,2022-05-23,2022-05-23,株式会社麹町三丁目プロジェクト,,株式会社,東京都,渋谷区,恵比寿４丁目１３番６号,,13,113,1500013,,,,,,,2022-05-23,1,,,,,コウジマチサンチョウメプロジェクト,0
1369,6011003014716,新規,0,2022-05-23,2022-05-23,合同会社ＯＲＩＧＩＮ　ＯＮＥ,,合同会社,東京都,渋谷区,神宮前６丁目２３－４桑野ビル２階,,13,113,1500001,,,,,,,2022-05-23,1,,,,,,0
1379,6011701025312,新規,0,2022-05-23,2022-05-23,ＲＢ株式会社,,株式会社,東京都,江戸川区,谷河内１丁目１０番７号,,13,123,1320002,,,,,,,2022-05-23,1,,,,,アールビー,0
1380,6011701025329,新規,0,2022-05-23,2022-05-23,株式会社ブリノア,,株式会社,東京都,江戸川区,平井６丁目６０番１６号,,13,123,1320035,,,,,,,2022-05-23,1,,,,,ブリノア,0
1397,6020001146553,新規,0,2022-05-23,2022-05-23,株式会社Ｄｅｎ　Ｄｅｎ,,株式会社,神奈川県,川崎市高津区,下作延２丁目７番６３号ベルフォンテ溝の口１０１,,14,134,2130033,,,,,,,2022-05-23,1,,,,,デンデン,0
1398,6020001146578,新規,0,2022-05-23,2022-05-23,シザーズ株式会社,,株式会社,神奈川県,横浜市中区,元町１丁目１３番地１２元町マリンマンション８０６,,14,104,2310861,,,,,,,2022-05-23,1,,,,,シザーズ,0
1407,6020003021705,新規,0,2022-05-23,2022-05-23,Ｒｙｕｐｅａｃｅ合同会社,,合同会社,神奈川県,横浜市旭区,白根４丁目２２－２２,,14,112,2410005,,,,,,,2022-05-23,1,,,,,リューピース,0
1408,6020003021812,新規,0,2022-05-23,2022-05-23,合同会社八千代テック,,合同会社,神奈川県,横浜市金沢区,六浦３丁目１３番９号,,14,108,2360031,,,,,,,2022-05-23,1,,,,,ヤチヨテック,0
1417,6030001148318,新規,0,2022-05-23,2022-05-23,株式会社ＡＫＡＴＳＵＫＩ,,株式会社,埼玉県,さいたま市南区,大字広ヶ谷戸２０１番地１（３０８）,,11,108,3360041,,,,,,,2022-05-23,1,,,,,アカツキ,0
1420,6030003019442,新規,0,2022-05-23,2022-05-23,Ｈ＆Ａリヴ合同会社,,合同会社,埼玉県,新座市,栗原５丁目１５番３３号,,11,230,3520035,,,,,,,2022-05-23,1,,,,,エイチアンドエーリヴ,0
1427,6040001123443,新規,0,2022-05-23,2022-05-23,株式会社ＨＫ電子,,株式会社,千葉県,習志野市,鷺沼３丁目５－２０エステートヒロ１０１,,12,216,2750014,,,,,,,2022-05-23,1,,,,,エイチケーデンシ,0
1430,6040003020052,新規,0,2022-05-23,2022-05-23,ＧＯ　ＣＯＭＰＡＮＹ合同会社,,合同会社,千葉県,松戸市,稔台３丁目４５番地の９,,12,207,2702231,,,,,,,2022-05-23,1,,,,,ゴーカンパニー,0
1431,6040003020060,新規,0,2022-05-23,2022-05-23,コネスポ合同会社,,合同会社,千葉県,柏市,新柏１丁目１２番地２サンパセオ新柏Ｄ－８０１号,,12,217,2770084,,,,,,,2022-05-23,1,,,,,コネスポ,0
1432,6040003020085,新規,0,2022-05-23,2022-05-23,合同会社ＭＡＵＤＯ,,合同会社,千葉県,八千代市,勝田８３１－２１,,12,221,2760024,,,,,,,2022-05-23,1,,,,,マウド,0
1438,6060001034894,新規,0,2022-05-23,2022-05-23,株式会社リッチフォレスト,,株式会社,栃木県,塩谷郡高根沢町,大字花岡１０６０番地１,,09,386,3291207,,,,,,,2022-05-23,1,,,,,,0
1439,6080001024951,新規,0,2022-05-23,2022-05-23,株式会社ＤＴＳ,,株式会社,静岡県,静岡市葵区,田町５丁目１０番地の１,,22,101,4200068,,,,,,,2022-05-23,1,,,,,ディーティーエス,0
1443,6080103002590,新規,0,2022-05-23,2022-05-23,アイサス合同会社,,合同会社,静岡県,富士宮市,朝日町６‐３３‐Ｂ‐２０１,,22,207,4180057,,,,,,,2022-05-23,1,,,,,アイサス,0
1444,6080401025814,新規,0,2022-05-23,2022-05-23,株式会社ＫＨＡＮＳＡ　ＴＲＡＤＩＮＧ,,株式会社,静岡県,浜松市南区,中田島町３４９番地の１,,22,134,4300845,,,,,,,2022-05-23,1,,,,,カンサトレーディング,0
1449,6100003006557,新規,0,2022-05-23,2022-05-23,合同会社Ｌｉｇｈｔｎｉｎｇ　Ｓｐｉｒｉｔ,,合同会社,長野県,上田市,古里８３９番地１コンフォルターブル清水Ｂ１０２号室,,20,203,3860005,,,,,,,2022-05-23,1,,,,,ライトニングスピリット,0
1456,6120001246046,新規,0,2022-05-23,2022-05-23,株式会社グロー・パートナーズ,,株式会社,大阪府,大阪市城東区,今福西６丁目２番１－１３２０号,,27,118,5360004,,,,,,,2022-05-23,1,,,,,グローパートナーズ,0
1462,6120901045992,新規,0,2022-05-23,2022-05-23,株式会社ＹＯＳＨＩコンサルティング,,株式会社,大阪府,吹田市,垂水町１丁目２０番１１－７０１号,,27,205,5640062,,,,,,,2022-05-23,1,,,,,ヨシコンサルティング,0
1466,6122001035890,新規,0,2022-05-23,2022-05-23,株式会社合田薬局,,株式会社,大阪府,東大阪市,荒川２丁目２６番１４号,,27,227,5770843,,,,,,,2022-05-23,1,,,,,ゴウダヤッキョク,0
1469,6130001071798,新規,0,2022-05-23,2022-05-23,株式会社アヴェスタ,,株式会社,京都府,京都市上京区,西芦山寺町１０８番地１,,26,102,6028301,,,,,,,2022-05-23,1,,,,,アヴェスタ,0
1476,6140001126080,新規,0,2022-05-23,2022-05-23,ラディアントオーシャン株式会社,,株式会社,兵庫県,神戸市中央区,加納町２丁目６番９号幸和マンション３０７,,28,110,6500001,,,,,,,2022-05-23,1,,,,,ラディアントオーシャン,0
1488,6180001151380,新規,0,2022-05-23,2022-05-23,株式会社善王,,株式会社,愛知県,半田市,有楽町５丁目３７番地－３０５号,,23,205,4750837,,,,,,,2022-05-23,1,,,,,ゼンオウ,0
1489,6180001151389,新規,0,2022-05-23,2022-05-23,株式会社ＦＩＤＡ,,株式会社,愛知県,名古屋市中川区,西日置１丁目１番３号木全ビル２階西,,23,110,4540004,,,,,,,2022-05-23,1,,,,,フィーダ,0
1494,6180003023850,新規,0,2022-05-23,2022-05-23,合同会社憲次郎商事,,合同会社,愛知県,名古屋市緑区,作の山町１８０番地,,23,114,4580038,,,,,,,2022-05-23,1,,,,,ケンジロウショウジ,0
1495,6180303005334,新規,0,2022-05-23,2022-05-23,合同会社ドライブエージェント,,合同会社,愛知県,豊川市,牛久保町大手３７－２－１０２,,23,207,4420826,,,,,,,2022-05-23,1,,,,,ドライブエージェント,0
1499,6200001040085,新規,0,2022-05-23,2022-05-23,株式会社ＩＱ,,株式会社,岐阜県,揖斐郡大野町,大字稲富２３６９,,21,403,5010501,,,,,,,2022-05-23,1,,,,,アイキュー,0
1504,6210003001514,新規,0,2022-05-23,2022-05-23,Ｔ‐Ｍａｎａｇｅｍｅｎｔ合同会社,,合同会社,福井県,福井市,文京６丁目１０番６号,,18,201,9100017,,,,,,,2022-05-23,1,,,,,ティマネジメント,0
1505,6220001024854,新規,0,2022-05-23,2022-05-23,株式会社ＴＡＳＡＫＵ,,株式会社,石川県,金沢市,河原市町ハ９４番地,,17,201,9200172,,,,,,,2022-05-23,1,,,,,タサク,0
1506,6220001024862,新規,0,2022-05-23,2022-05-23,株式会社加賀ふるさとでんき,,株式会社,石川県,加賀市,大聖寺八間道６５番地かが交流プラザさくら２階,,17,206,9220057,,,,,,,2022-05-23,1,,,,,カガフルサトデンキ,0
1517,6260003003902,新規,0,2022-05-23,2022-05-23,合同会社ナズナ,,合同会社,岡山県,岡山市中区,原尾島８６６‐４ラ・パルテール百間川七番館２０２,,33,102,7038235,,,,,,,2022-05-23,1,,,,,ナズナ,0
1529,6290001097613,新規,0,2022-05-23,2022-05-23,株式会社フォーユニティ,,株式会社,福岡県,福岡市城南区,別府５丁目１３番２３－６０２号,,40,136,8140104,,,,,,,2022-05-23,1,,,,,フォーユニティ,0
1530,6290001097638,新規,0,2022-05-23,2022-05-23,株式会社ウラセ工業,,株式会社,福岡県,福岡市早良区,星の原団地５５番４０６号,,40,137,8140162,,,,,,,2022-05-23,1,,,,,ウラセコウギョウ,0
1569,6430003013933,新規,0,2022-05-23,2022-05-23,合同会社トライフェクタ,,合同会社,北海道,札幌市中央区,南八条西１丁目１３番パレスマンション４０２号室,,01,101,0640808,,,,,,,2022-05-23,1,,,,,トライフェクタ,0
1570,6490005006847,新規,0,2022-05-23,2022-05-23,特定非営利活動法人Ｓｕｃｃｅｓｓ　Ｓｔｅｒ,,その他の設立登記法人,高知県,高知市,長浜蒔絵台１丁目２０番地１２,,39,201,7810245,,,,,,,2022-05-23,1,,,,,サクセススター,0
1571,6500001024223,新規,0,2022-05-23,2022-05-23,株式会社みろく愛媛,,株式会社,愛媛県,松山市,末町３３０番地２,,38,201,7910122,,,,,,,2022-05-23,1,,,,,,0
1591,7010001226727,新規,0,2022-05-23,2022-05-23,株式会社フロントライン,,株式会社,東京都,千代田区,平河町１丁目６番４号,,13,101,1020093,,,,,,,2022-05-23,1,,,,,フロントライン,0
1596,7010003037486,新規,0,2022-05-23,2022-05-23,合同会社丸三銀杏,,合同会社,東京都,中央区,銀座２丁目１４－８ＭＬ３６９６３,,13,102,1040061,,,,,,,2022-05-23,1,,,,,マルサンイチョウ,0
1597,7010003037718,新規,0,2022-05-23,2022-05-23,ＶＥＲＥＤ２合同会社,,合同会社,東京都,中央区,八丁堀４丁目２番１０号ＡＯＪ税理士法人内,,13,102,1040032,,,,,,,2022-05-23,1,,,,,ヴェレッドツー,0
1605,7010401167422,新規,0,2022-05-23,2022-05-23,株式会社エックス・エデュテイメント,,株式会社,東京都,港区,南青山２丁目２番１５号,,13,103,1070062,,,,,,,2022-05-23,1,,,,,エックスエデュテイメント,0
1606,7010401167447,新規,0,2022-05-23,2022-05-23,リージェンツ・アソシエイツ株式会社,,株式会社,東京都,港区,赤坂２丁目１７番４４号福吉坂ビル１階,,13,103,1070052,,,,,,,2022-05-23,1,,,,,リージェンツアソシエイツ,0
1609,7010403027681,新規,0,2022-05-23,2022-05-23,シネマランド合同会社,,合同会社,東京都,港区,南青山２丁目２番１５号ウィン青山５３５,,13,103,1070062,,,,,,,2022-05-23,1,,,,,シネマランド,0
1615,7010501048860,新規,0,2022-05-23,2022-05-23,光希株式会社,,株式会社,東京都,台東区,鳥越１丁目２番３－７０５号,,13,106,1110054,,,,,,,2022-05-23,1,,,,,ミツキ,0
1620,7010701042688,新規,0,2022-05-23,2022-05-23,Ｎｅｗ　Ｃｏｍｍｅｒｃｅ　Ｖｅｎｔｕｒｅｓ株式会社,,株式会社,東京都,品川区,西五反田６丁目２０番６号,,13,109,1410031,,,,,,,2022-05-23,1,,,,,ニューコマースベンチャーズ,0
1635,7011101098940,新規,0,2022-05-23,2022-05-23,株式会社Ｍｙｌｅｓｔｏｎｅｓ,,株式会社,東京都,新宿区,西新宿１丁目２５番１号新宿センタービル４９階,,13,104,1600023,,,,,,,2022-05-23,1,,,,,マイルストーン,0
1644,7011501028051,新規,0,2022-05-23,2022-05-23,日本森田皮膚研究院株式会社,,株式会社,東京都,北区,浮間１丁目７－２３兆豊浮間ビル５０３号室,,13,117,1150051,,,,,,,2022-05-23,1,,,,,ニホンモリタヒフケンキュウイン,0
1654,7012801021596,新規,0,2022-05-23,2022-05-23,株式会社ロングタイム,,株式会社,東京都,立川市,錦町５丁目１５番９号,,13,202,1900022,,,,,,,2022-05-23,1,,,,,ロングタイム,0
1664,7020003021794,新規,0,2022-05-23,2022-05-23,人言洞合同会社,,合同会社,神奈川県,横浜市港南区,笹下６丁目５番３号,,14,111,2340052,,,,,,,2022-05-23,1,,,,,ニンゲンドウ,0
1674,7040001123483,新規,0,2022-05-23,2022-05-23,創食屋株式会社,,株式会社,千葉県,成田市,新駒井野７６番地１,,12,211,2860123,,,,,,,2022-05-23,1,,,,,ソウショクヤ,0
1689,7080001024950,新規,0,2022-05-23,2022-05-23,株式会社Ｆ．Ｓ．Ｃ．,,株式会社,静岡県,静岡市葵区,鷹匠１丁目１０番２号,,22,101,4200839,,,,,,,2022-05-23,1,,,,,ファミリーセレクトカンパニー,0
1690,7080005007456,新規,0,2022-05-23,2022-05-23,特定非営利活動法人創造の集いなずな,,その他の設立登記法人,静岡県,静岡市駿河区,丸子７１０７番地の４２５,,22,102,4210103,,,,,,,2022-05-23,1,,,,,ソウゾウノツドイナズナ,0
1715,7120003021727,新規,0,2022-05-23,2022-05-23,合同会社まるＱ,,合同会社,大阪府,大阪市中央区,南船場１丁目３－２２大西ビル２０１号,,27,128,5420081,,,,,,,2022-05-23,1,,,,,マルキュー,0
1719,7120901045991,新規,0,2022-05-23,2022-05-23,株式会社明楽,,株式会社,大阪府,摂津市,庄屋１丁目１３番１３－５号,,27,224,5660012,,,,,,,2022-05-23,1,,,,,メイラク,0
1724,7130005016484,新規,0,2022-05-23,2022-05-23,一般社団法人ワイヤレス電力伝送実用化コンソーシアム,,その他の設立登記法人,京都府,宇治市,五ケ庄京都大学生存圏研究所篠原研究室内,,26,204,6110011,,,,,,,2022-05-23,1,,,,,ワイヤレスデンリョクデンソウジツヨウカコンソーシアム,0
1731,7140001126063,新規,0,2022-05-23,2022-05-23,株式会社柳商店,,株式会社,兵庫県,加西市,北条町古坂２丁目１番地,,28,220,6752303,,,,,,,2022-05-23,1,,,,,ヤナギショウテン,0
1732,7140001126096,新規,0,2022-05-23,2022-05-23,株式会社大栄エステート,,株式会社,兵庫県,西宮市,苦楽園三番町４番１４号,,28,204,6620081,,,,,,,2022-05-23,1,,,,,ダイエイエステート,0
1737,7160005011086,新規,0,2022-05-23,2022-05-23,一般社団法人日本福祉支援協議会,,その他の設立登記法人,滋賀県,高島市,新旭町針江４４１－１,,25,212,5201502,,,,,,,2022-05-23,1,,,,,ニホンフクシシエンキョウギカイ,0
1739,7170003001724,新規,0,2022-05-23,2022-05-23,合同会社Ｎ　ｄｅｓｉｇｎ　ｓｔｕｄｉｏ,,合同会社,和歌山県,紀の川市,貴志川町長山２７７番地３９９,,30,208,6400416,,,,,,,2022-05-23,1,,,,,エヌデザインスタジオ,0
1744,7180001151355,新規,0,2022-05-23,2022-05-23,株式会社杜の研究所,,株式会社,愛知県,名古屋市中村区,名駅４丁目２４－８いちご名古屋ビル７Ｆ,,23,105,4500002,,,,,,,2022-05-23,1,,,,,モリノケンキュウジョ,0
1745,7180001151388,新規,0,2022-05-23,2022-05-23,マネー株式会社,,株式会社,愛知県,北名古屋市,高田寺後明４９番地ステージＹ１０３号,,23,234,4810011,,,,,,,2022-05-23,1,,,,,マネー,0
1761,7210005010033,新規,0,2022-05-23,2022-05-23,一般社団法人ＳＤＧｓ全国推進協議会連合会,,その他の設立登記法人,福井県,あわら市,北潟第２０９号７６番地４,,18,208,9104272,,,,,,,2022-05-23,1,,,,,エスディージーズゼンコクスイシンキョウギカイレンゴウカイ,0
1765,7220001024861,新規,0,2022-05-23,2022-05-23,株式会社千徳内装,,株式会社,石川県,白山市,千代野東２丁目１番地１０,,17,210,9240073,,,,,,,2022-05-23,1,,,,,セントクナイソウ,0
1767,7240001059798,新規,0,2022-05-23,2022-05-23,株式会社Ｋｉｒａｒｉ,,株式会社,広島県,大竹市,新町３丁目３番７号,,34,211,7390611,,,,,,,2022-05-23,1,,,,,キラリ,0
1784,7290001097595,新規,0,2022-05-23,2022-05-23,株式会社マンシャフト,,株式会社,福岡県,福岡市博多区,千代１丁目２１番７－８３０号,,40,132,8120044,,,,,,,2022-05-23,1,,,,,マンシャフト,0
1785,7290001097629,新規,0,2022-05-23,2022-05-23,株式会社カンポグランデ,,株式会社,福岡県,福岡市城南区,鳥飼７丁目１８番１４号,,40,136,8140103,,,,,,,2022-05-23,1,,,,,カンポグランデ,0
1791,7290801028551,新規,0,2022-05-23,2022-05-23,株式会社ＮＩＣＥ　ＣＵＢＥ,,株式会社,福岡県,直方市,大字感田１３８９番地１,,40,204,8220001,,,,,,,2022-05-23,1,,,,,ナイスキューブ,0
1795,7320001019083,新規,0,2022-05-23,2022-05-23,株式会社矢野アパート,,株式会社,大分県,玖珠郡九重町,大字引治４１３番地の１,,44,461,8794722,,,,,,,2022-05-23,1,,,,,ヤノアパート,0
1812,7380001032808,新規,0,2022-05-23,2022-05-23,株式会社ｈｉ,,株式会社,福島県,相馬市,石上字南白髭３２５番地の２,,07,209,9760006,,,,,,,2022-05-23,1,,,,,エイチアイ,0
1814,7390003001958,新規,0,2022-05-23,2022-05-23,合同会社Ｍａｔｅｒｎａｌ,,合同会社,山形県,鶴岡市,鳥居町７番２２号,,06,203,9970023,,,,,,,2022-05-23,1,,,,,マターナル,0
1815,7410003003662,新規,0,2022-05-23,2022-05-23,ｂｅａｎｓ　ＬＬＣ合同会社,,合同会社,秋田県,秋田市,手形字才ノ浜３１番地１１,,05,201,0100851,,,,,,,2022-05-23,1,,,,,ビーンズエルエルシー,0
1820,7430001086690,新規,0,2022-05-23,2022-05-23,クレストキュー株式会社,,株式会社,北海道,札幌市中央区,南二十三条西９丁目１番１－４０３号,,01,101,0640923,,,,,,,2022-05-23,1,,,,,クレストキュー,0
1822,7430003013899,新規,0,2022-05-23,2022-05-23,合同会社白夜,,合同会社,北海道,札幌市豊平区,平岸二条６丁目１番５号,,01,105,0620932,,,,,,,2022-05-23,1,,,,,ビャクヤ,0
1823,7430005014474,新規,0,2022-05-23,2022-05-23,一般社団法人北海道短期業務委託配達協会,,その他の設立登記法人,北海道,札幌市清田区,清田六条３丁目９番１６号,,01,110,0040846,,,,,,,2022-05-23,1,,,,,ホッカイドウタンキギョウムイタクハイタツキョウカイ,0
1824,7460101007197,新規,0,2022-05-23,2022-05-23,株式会社ハピネス・デリカ,,株式会社,北海道,帯広市,西二十二条北１丁目１３番地,,01,207,0802462,,,,,,,2022-05-23,1,,,,,ハピネスデリカ,0
1836,8010001226759,新規,0,2022-05-23,2022-05-23,日本鶴仁堂株式会社,,株式会社,東京都,中央区,日本橋蛎殻町１丁目３番５号共同ビル２階２３号,,13,102,1030014,,,,,,,2022-05-23,1,,,,,ニホンカクニンドウ,0
1837,8010001226800,新規,0,2022-05-23,2022-05-23,グローバル美ジネス株式会社,,株式会社,東京都,中央区,晴海２丁目２番４２号,,13,102,1040053,,,,,,,2022-05-23,1,,,,,グローバルビジネス,0
1847,8010401167438,新規,0,2022-05-23,2022-05-23,株式会社ＴＲＵＸｉＡ,,株式会社,東京都,港区,赤坂７丁目２番１７号赤坂中央マンション１０１号,,13,103,1070052,,,,,,,2022-05-23,1,,,,,トラクシア,0
1848,8010401167446,新規,0,2022-05-23,2022-05-23,株式会社スキール,,株式会社,東京都,港区,赤坂３丁目１１番１５号,,13,103,1070052,,,,,,,2022-05-23,1,,,,,スキール,0
1850,8010403027532,新規,0,2022-05-23,2022-05-23,合同会社ＥＮＪＩ,,合同会社,東京都,港区,三田５丁目１２番７号プラウドフラット白金高輪１２０４号室,,13,103,1080073,,,,,,,2022-05-23,1,,,,,エンジ,0
1862,8011001147656,新規,0,2022-05-23,2022-05-23,株式会社Ｐｕｒｐｏｍ　Ｍｅｄｉａ　Ｌａｂ,,株式会社,東京都,渋谷区,神宮前６丁目２３番４号桑野ビル２階,,13,113,1500001,,,,,,,2022-05-23,1,,,,,,0
1864,8011003014706,新規,0,2022-05-23,2022-05-23,合同会社Ａｖｅｎｕｅ,,合同会社,東京都,渋谷区,渋谷２丁目１９－１５宮益坂ビルディング６０９,,13,113,1500002,,,,,,,2022-05-23,1,,,,,アベニュー,0
1866,8011101098931,新規,0,2022-05-23,2022-05-23,株式会社ＫＷＦ,,株式会社,東京都,新宿区,西新宿１丁目２２番２号新宿サンエービル９階,,13,104,1600023,,,,,,,2022-05-23,1,,,,,ケーダブリュエフ,0
1868,8011103011776,新規,0,2022-05-23,2022-05-23,ＧＯＬＤＩＬＯＣＫＳ　ＰＬＡＹＲＯＯＭ合同会社,,合同会社,東京都,新宿区,高田馬場３丁目３６番７号イッシンジャパンビル３Ｆ,,13,104,1690075,,,,,,,2022-05-23,1,,,,,ゴルディロックスプレイルーム,0
1878,8012301012995,新規,0,2022-05-23,2022-05-23,株式会社レベン総業,,株式会社,東京都,町田市,旭町１丁目２１番地８号ハイツ興林２０５,,13,209,1940023,,,,,,,2022-05-23,1,,,,,レベンソウギョウ,0
1879,8012403005360,新規,0,2022-05-23,2022-05-23,合同会社Ｔｏｐｏｌｏｇｙ,,合同会社,東京都,調布市,深大寺東町５丁目８－２パークヒル五丁山３０４,,13,208,1820012,,,,,,,2022-05-23,1,,,,,トポロジー,0
1880,8012803002783,新規,0,2022-05-23,2022-05-23,合同会社Ｐａｄｏｏｄｏｏ,,合同会社,東京都,国分寺市,光町１丁目４１番地５ソフトタウン武蔵野５０５,,13,214,1850034,,,,,,,2022-05-23,1,,,,,パドゥドゥ,0
1889,8020001146568,新規,0,2022-05-23,2022-05-23,株式会社敬友,,株式会社,神奈川県,横浜市中区,翁町２丁目８－５関内エメラルドビル３０２,,14,104,2310028,,,,,,,2022-05-23,1,,,,,ケイユウ,0
1890,8020001146576,新規,0,2022-05-23,2022-05-23,株式会社Ｇ建築設備,,株式会社,神奈川県,横浜市保土ケ谷区,西谷３丁目２２番２２号,,14,106,2400054,,,,,,,2022-05-23,1,,,,,ジイケンチクセツビ,0
1897,8021001076020,新規,0,2022-05-23,2022-05-23,株式会社湘栄住建,,株式会社,神奈川県,藤沢市,遠藤３２２３番地１,,14,205,2520816,,,,,,,2022-05-23,1,,,,,ショウエイジュウケン,0
1905,8030001148282,新規,0,2022-05-23,2022-05-23,株式会社ジャズワークス,,株式会社,埼玉県,桶川市,泉１丁目１６番８号,,11,231,3630021,,,,,,,2022-05-23,1,,,,,ジャズワークス,0
1927,8050001051113,新規,0,2022-05-23,2022-05-23,株式会社ＳＣＳ,,株式会社,茨城県,石岡市,正上内５番２４号,,08,205,3150011,,,,,,,2022-05-23,1,,,,,エスシーエス,0
1937,8100001035366,新規,0,2022-05-23,2022-05-23,株式会社ヒト・ラボ,,株式会社,長野県,長野市,新諏訪１丁目２０番２６－１０６号コーポサンライズ,,20,201,3800873,,,,,,,2022-05-23,1,,,,,ヒトラボ,0
1940,8100003006555,新規,0,2022-05-23,2022-05-23,合同会社ハバネロ,,合同会社,長野県,佐久市,長土呂１１４６番地１,,20,217,3850021,,,,,,,2022-05-23,1,,,,,ハバネロ,0
1949,8120001246003,新規,0,2022-05-23,2022-05-23,株式会社ＺＹ,,株式会社,大阪府,枚方市,長尾元町５丁目８番１号ＮＳビル２Ｆ,,27,210,5730163,,,,,,,2022-05-23,1,,,,,ゼットワイ,0
1950,8120001246052,新規,0,2022-05-23,2022-05-23,株式会社Ｍｕｔ,,株式会社,大阪府,大阪市平野区,加美正覚寺４丁目２番１３号,,27,126,5470006,,,,,,,2022-05-23,1,,,,,ムート,0
1951,8120001246069,新規,0,2022-05-23,2022-05-23,株式会社バーチャルソリューション,,株式会社,大阪府,大阪市中央区,内平野町１丁目３番１号,,27,128,5400037,,,,,,,2022-05-23,1,,,,,バーチャルソリューション,0
1957,8120101065609,新規,0,2022-05-23,2022-05-23,株式会社田仲不動産,,株式会社,大阪府,泉佐野市,羽倉崎３丁目１番１４－２号,,27,213,5980046,,,,,,,2022-05-23,1,,,,,タナカフドウサン,0
1958,8120101065617,新規,0,2022-05-23,2022-05-23,株式会社勝琉,,株式会社,大阪府,堺市東区,日置荘西町３丁５番７号,,27,143,5998114,,,,,,,2022-05-23,1,,,,,カツリュウ,0
1965,8122001035889,新規,0,2022-05-23,2022-05-23,株式会社Ｔａｎａｋａ‐ｏｚ,,株式会社,大阪府,東大阪市,善根寺町５丁目１番３０号,,27,227,5798001,,,,,,,2022-05-23,1,,,,,タナカオンス,0
1978,8140001126038,新規,0,2022-05-23,2022-05-23,斯諾株式会社,,株式会社,兵庫県,神戸市中央区,元町通５丁目３番３号,,28,110,6500022,,,,,,,2022-05-23,1,,,,,シダク,0
1979,8140001126070,新規,0,2022-05-23,2022-05-23,株式会社エイジュ,,株式会社,兵庫県,宝塚市,すみれガ丘２丁目１番１－７１１号,,28,214,6650847,,,,,,,2022-05-23,1,,,,,エイジュ,0
1980,8140001126095,新規,0,2022-05-23,2022-05-23,株式会社第一歩,,株式会社,兵庫県,神戸市東灘区,森南町１丁目６番２０号森南グリーンマンション２０１号,,28,101,6580011,,,,,,,2022-05-23,1,,,,,ダイイッポ,0
1986,8150001025560,新規,0,2022-05-23,2022-05-23,株式会社八木酒造,,株式会社,奈良県,奈良市,高畑町９１５番地,,29,201,6308301,,,,,,,2022-05-23,1,,,,,ヤギシュゾウ,0
1988,8160001024223,新規,0,2022-05-23,2022-05-23,株式会社Ｓ．Ｋ,,株式会社,滋賀県,大津市,馬場２丁目９番１２号,,25,201,5200802,,,,,,,2022-05-23,1,,,,,エスケー,0
1998,8180001151379,新規,0,2022-05-23,2022-05-23,株式会社ＦＵＲＡＢＯＮ,,株式会社,愛知県,名古屋市千種区,御棚町１丁目２１番地,00126614,23,101,4640835,,,,,,,2022-05-23,1,,,,,フラボン,0
2001,8180003023849,新規,0,2022-05-23,2022-05-23,合同会社アメノシラハ,,合同会社,愛知県,名古屋市天白区,平針１丁目６０１平針西住宅２－１１０,,23,116,4680011,,,,,,,2022-05-23,1,,,,,アメノシラハ,0
2004,8180005019770,新規,0,2022-05-23,2022-05-23,一般社団法人クロスオーバ・コンサルティング,,その他の設立登記法人,愛知県,名古屋市中川区,富船町３丁目１番地の１ソーラスフロント富船４０６号,,23,110,4540823,,,,,,,2022-05-23,1,,,,,クロスオーバコンサルティング,0
2007,8200003005571,新規,0,2022-05-23,2022-05-23,合同会社土地のすみ,,合同会社,岐阜県,岐阜市,岩井３丁目１７番３０号,,21,201,5013101,,,,,,,2022-05-23,1,,,,,トチノスミ,0
2015,8240005015400,新規,0,2022-05-23,2022-05-23,一般社団法人しまなみ総研,,その他の設立登記法人,広島県,尾道市,栗原西２丁目２番２５－１０２号神泉ビル,,34,205,7220026,,,,,,,2022-05-23,1,,,,,シマナミソウケン,0
2021,8260001036860,新規,0,2022-05-23,2022-05-23,株式会社ガリンペイロ,,株式会社,岡山県,岡山市中区,原尾島１丁目１５番９－１５号,,33,102,7038235,,,,,,,2022-05-23,1,,,,,ガリンペイロ,0
2023,8260003003917,新規,0,2022-05-23,2022-05-23,合同会社たまご倶楽部岡山,,合同会社,岡山県,浅口市,金光町八重３番地３,,33,216,7190103,,,,,,,2022-05-23,1,,,,,タマゴクラブオカヤマ,0
2031,8290001097594,新規,0,2022-05-23,2022-05-23,株式会社Ｍ’ｓ,,株式会社,福岡県,糟屋郡新宮町,下府１丁目８番２１号,,40,345,8110112,,,,,,,2022-05-23,1,,,,,エムズ,0
2032,8290001097636,新規,0,2022-05-23,2022-05-23,株式会社ネクサスコア,,株式会社,福岡県,福岡市中央区,西中洲６－２７　５Ｆ,,40,133,8100002,,,,,,,2022-05-23,1,,,,,ネクサスコア,0
2036,8290801028550,新規,0,2022-05-23,2022-05-23,株式会社スタートビジョンシステムズ,,株式会社,福岡県,北九州市小倉北区,香春口２丁目１０番８－２０４号,,40,106,8020084,,,,,,,2022-05-23,1,,,,,スタートビジョンシステムズ,0
2042,8320001019082,新規,0,2022-05-23,2022-05-23,株式会社Ｒｅ．ｌｉｆｅ,,株式会社,大分県,大分市,大字八幡１５番地の５,,44,201,8700100,,,,,,,2022-05-23,1,,,,,リライフ,0
2044,8330001029758,新規,0,2022-05-23,2022-05-23,瀬口企業株式会社,,株式会社,熊本県,玉名市,横島町横島１７５３番地１,,43,206,8650072,,,,,,,2022-05-23,1,,,,,セグチキギョウ,0
2058,8370001048580,新規,0,2022-05-23,2022-05-23,株式会社恒優,,株式会社,宮城県,仙台市宮城野区,福室４丁目１８番１８号,,04,102,9830005,,,,,,,2022-05-23,1,,,,,コウユウ,0
2061,8390001016899,新規,0,2022-05-23,2022-05-23,三合堂株式会社,,株式会社,山形県,寒河江市,栄町９番３０号,,06,206,9910034,,,,,,,2022-05-23,1,,,,,ミアイドウ,0
2063,8390003001957,新規,0,2022-05-23,2022-05-23,ユナイテッドエージェント合同会社,,合同会社,山形県,山形市,幸町７番５０号ＬＥＢＥＮ２１　２０８号,,06,201,9900038,,,,,,,2022-05-23,1,,,,,ユナイテッドエージェント,0
2066,8410003003661,新規,0,2022-05-23,2022-05-23,合同会社イロドリライフ,,合同会社,秋田県,秋田市,広面字板橋添１０番地３,,05,201,0100041,,,,,,,2022-05-23,1,,,,,イロドリライフ,0
2067,8420003002522,新規,0,2022-05-23,2022-05-23,合同会社青森中央駅,,合同会社,青森県,青森市,港町３丁目４番５８号,,02,201,0300901,,,,,,,2022-05-23,1,,,,,アオモリチュウオウエキ,0
2071,8430001086673,新規,0,2022-05-23,2022-05-23,株式会社笑顔の神様,,株式会社,北海道,札幌市中央区,南一条西４丁目２０番地１ビッグタワー札幌大通公園,,01,101,0600061,,,,,,,2022-05-23,1,,,,,エガオノカミサマ,0
2072,8430001086681,新規,0,2022-05-23,2022-05-23,北海道食品流通株式会社,,株式会社,北海道,札幌市中央区,南七条西１丁目１３番地第２弘安ビル４階,,01,101,0640807,,,,,,,2022-05-23,1,,,,,ホッカイドウショクヒンリュウツウ,0
2073,8430001086698,新規,0,2022-05-23,2022-05-23,株式会社北海道ＮＡＳＩＯ,,株式会社,北海道,室蘭市,中央町１丁目２番２４号,,01,205,0510011,,,,,,,2022-05-23,1,,,,,ホッカイドウナシオ,0
2078,8460001005696,新規,0,2022-05-23,2022-05-23,株式会社ＡＬＸ,,株式会社,北海道,川上郡弟子屈町,泉２丁目９番１号,,01,665,0883212,,,,,,,2022-05-23,1,,,,,エーエルエックス,0
2080,8480001011742,新規,0,2022-05-23,2022-05-23,株式会社河久,,株式会社,徳島県,徳島市,富田町２丁目１５番地,,36,201,7700915,,,,,,,2022-05-23,1,,,,,カワキュウ,0
2084,8500001024221,新規,0,2022-05-23,2022-05-23,株式会社ＭＩＫＩ,,株式会社,愛媛県,新居浜市,喜光地町１丁目６番１２号,,38,205,7920826,,,,,,,2022-05-23,1,,,,,ミキ,0
2086,8700150108928,新規,0,2022-05-23,2022-05-23,日本ウインドアンサンブル《桃太郎バンド》,,その他,埼玉県,新座市,新堀３丁目７－９　２０５,,11,230,3520032,,,,,,,2022-05-23,1,,,,,ニホンウインドアンサンブルモモタロウバンド,0
2104,9010001226725,新規,0,2022-05-23,2022-05-23,株式会社ＮＦアセットマネジメント,,株式会社,東京都,千代田区,神田司町２丁目１０番８号,,13,101,1010048,,,,,,,2022-05-23,1,,,,,エヌエフアセットマネジメント,0
2115,9010401167296,新規,0,2022-05-23,2022-05-23,株式会社ＹＯＨＡＫＵ,,株式会社,東京都,港区,高輪３丁目５－６カスタリア高輪台ツー１０５,,13,103,1080074,,,,,,,2022-05-23,1,,,,,ヨハク,0
2116,9010401167453,新規,0,2022-05-23,2022-05-23,三田１号株式会社,,株式会社,東京都,港区,浜松町２丁目２番１５号浜松町ダイヤビル２階,,13,103,1050013,,,,,,,2022-05-23,1,,,,,ミタイチゴウ,0
2120,9010403027647,新規,0,2022-05-23,2022-05-23,Ｓｈｏｇｕｎ　Ｃｉｔｙ　Ｓｔａｒｓ合同会社,,合同会社,東京都,港区,虎ノ門４丁目１番２８号虎ノ門タワーズオフィス１９Ｆ,,13,103,1050001,,,,,,,2022-05-23,1,,,,,ショーグンシティスターズ,0
2121,9010403027688,新規,0,2022-05-23,2022-05-23,秋谷アセットマネージメント合同会社,,合同会社,東京都,港区,南麻布５丁目３番２３－３０２号,,13,103,1060047,,,,,,,2022-05-23,1,,,,,アキヤアセットマネージメント,0
2122,9010403027696,新規,0,2022-05-23,2022-05-23,ＮＥＷ　ＳＨＡＫＥ合同会社,,合同会社,東京都,港区,南青山２丁目２－１５,,13,103,1070062,,,,,,,2022-05-23,1,,,,,ニューシェイク,0
2151,9011001147465,新規,0,2022-05-23,2022-05-23,株式会社Ｐｌａｔａｎｕｓ,,株式会社,東京都,目黒区,目黒本町１丁目３－３,,13,110,1520002,,,,,,,2022-05-23,1,,,,,プラタナス,0
2152,9011001147473,新規,0,2022-05-23,2022-05-23,ＣＬＳＰアルツ株式会社,,株式会社,東京都,目黒区,碑文谷２丁目１３－１３グランシャトレ碑文谷４０２,,13,110,1520003,,,,,,,2022-05-23,1,,,,,シーエルエスピーアルツ,0
2157,9011101098897,新規,0,2022-05-23,2022-05-23,株式会社ニカ,,株式会社,東京都,新宿区,西新宿１丁目２６番２号新宿野村ビル３２Ｆ,,13,104,1600023,,,,,,,2022-05-23,1,,,,,ニカ,0
2158,9011101098930,新規,0,2022-05-23,2022-05-23,株式会社大発産業,,株式会社,東京都,新宿区,高田馬場１丁目３１－８高田馬場ダイカンプラザ１１２０号室,,13,104,1690075,,,,,,,2022-05-23,1,,,,,ダイハツサンギョウ,0
2163,9011301027796,新規,0,2022-05-23,2022-05-23,Ｔ＆Ｙ　Ｐａｒｔｎｅｒｓ株式会社,,株式会社,東京都,杉並区,大宮２丁目１０番１６号,,13,115,1680061,,,,,,,2022-05-23,1,,,,,ティーアンドワイパートナーズ,0
2165,9011401024231,新規,0,2022-05-23,2022-05-23,株式会社ＮＥＣＯ,,株式会社,東京都,板橋区,蓮根１丁目２８番２１－３０２号井本コーポ,,13,119,1740046,,,,,,,2022-05-23,1,,,,,エヌイーシーオー,0
2175,9012301012994,新規,0,2022-05-23,2022-05-23,株式会社トリオデベロップメント,,株式会社,東京都,町田市,金森１７３６番地１９,,13,209,1940012,,,,,,,2022-05-23,1,,,,,トリオデベロップメント,0
2186,9020003021743,新規,0,2022-05-23,2022-05-23,合同会社Ａ＆Ｍ,,合同会社,神奈川県,横浜市青葉区,美しが丘１丁目１３番地１０吉村ビル１０７号,,14,117,2250002,,,,,,,2022-05-23,1,,,,,エーアンドエム,0
2187,9020003021784,新規,0,2022-05-23,2022-05-23,合同会社リペップ,,合同会社,神奈川県,川崎市川崎区,駅前本町１１番地２川崎フロンティアビル４階,,14,131,2100007,,,,,,,2022-05-23,1,,,,,リペップ,0
2192,9021001076028,新規,0,2022-05-23,2022-05-23,株式会社ミライ,,株式会社,神奈川県,秦野市,北矢名３７７－１０,,14,211,2570006,,,,,,,2022-05-23,1,,,,,ミライ,0
2195,9030001148298,新規,0,2022-05-23,2022-05-23,新日本グループ株式会社,,株式会社,埼玉県,本庄市,児玉町下浅見６９０番地２,,11,211,3670202,,,,,,,2022-05-23,1,,,,,シンニホングループ,0
2196,9030001148323,新規,0,2022-05-23,2022-05-23,株式会社ひばり,,株式会社,埼玉県,さいたま市南区,太田窪２丁目２番２０－５０６号,,11,108,3360015,,,,,,,2022-05-23,1,,,,,ヒバリ,0
2206,9030003019456,新規,0,2022-05-23,2022-05-23,合同会社和華,,合同会社,埼玉県,桶川市,若宮１丁目８番７－５０１号,,11,231,3630022,,,,,,,2022-05-23,1,,,,,ワカ,0
2214,9040001123531,新規,0,2022-05-23,2022-05-23,栗山農産株式会社,,株式会社,千葉県,香取市,笄島４１７６番地,,12,236,2870823,,,,,,,2022-05-23,1,,,,,クリヤマノウサン,0
2222,9050003006568,新規,0,2022-05-23,2022-05-23,合同会社レフィール,,合同会社,茨城県,筑西市,関本中１２４番地,,08,227,3080126,,,,,,,2022-05-23,1,,,,,レフィール,0
2232,9100001035365,新規,0,2022-05-23,2022-05-23,株式会社ランタン,,株式会社,長野県,安曇野市,堀金三田２２３７番地１,,20,220,3998212,,,,,,,2022-05-23,1,,,,,ランタン,0
2251,9120001246019,新規,0,2022-05-23,2022-05-23,株式会社スズキ,,株式会社,大阪府,大阪市北区,梅田１丁目１－３大阪駅前第３ビル２９階１－１－１号室,,27,127,5300001,,,,,,,2022-05-23,1,,,,,スズキ,0
2256,9120101065616,新規,0,2022-05-23,2022-05-23,株式会社勝希代,,株式会社,大阪府,堺市東区,日置荘西町３丁５番６号,,27,143,5998114,,,,,,,2022-05-23,1,,,,,カツキヨ,0
2258,9120103004704,新規,0,2022-05-23,2022-05-23,合同会社クリプトン,,合同会社,大阪府,松原市,別所３丁目１０番１４号,,27,217,5800005,,,,,,,2022-05-23,1,,,,,クリプトン,0
2263,9120905006328,新規,0,2022-05-23,2022-05-23,一般社団法人ネオサポート,,その他の設立登記法人,大阪府,高槻市,城南町３丁目１３番２号,,27,207,5690056,,,,,,,2022-05-23,1,,,,,ネオサポート,0
2267,9130001071804,新規,0,2022-05-23,2022-05-23,株式会社タクラボ,,株式会社,京都府,舞鶴市,字上福井５８８番地１,,26,202,6240951,,,,,,,2022-05-23,1,,,,,タクラボ,0
2268,9130001071812,新規,0,2022-05-23,2022-05-23,株式会社ＧＬＣ,,株式会社,京都府,京都市伏見区,深草関屋敷町２８番地２,,26,109,6120037,,,,,,,2022-05-23,1,,,,,ジーエルシー,0
2279,9140003017663,新規,0,2022-05-23,2022-05-23,合同会社３８５塗装,,合同会社,兵庫県,姫路市,夢前町寺３５４番地４７,,28,201,6712116,,,,,,,2022-05-23,1,,,,,ミヤコトソウ,0
2280,9140005026183,新規,0,2022-05-23,2022-05-23,特定非営利活動法人レインボーサークル虹,,その他の設立登記法人,兵庫県,加東市,西垂水３３５番地,,28,228,6731455,,,,,,,2022-05-23,1,,,,,レインボーサークルニジ,0
2282,9160001024222,新規,0,2022-05-23,2022-05-23,株式会社ＫａｋｕＫａｋｕ,,株式会社,滋賀県,大津市,打出浜２－１－４１３－Ｄ４,,25,201,5200806,,,,,,,2022-05-23,1,,,,,カクカク,0
2289,9180001151378,新規,0,2022-05-23,2022-05-23,株式会社現場,,株式会社,愛知県,名古屋市西区,天塚町４丁目６４番地グランステイツ庄内通５０２号,,23,104,4510021,,,,,,,2022-05-23,1,,,,,ゲンバ,0
2290,9180001151386,新規,0,2022-05-23,2022-05-23,ＹＡＭＡＺＡＫＵＲＡ株式会社,,株式会社,愛知県,名古屋市天白区,表山２丁目３３５番地,,23,116,4680069,,,,,,,2022-05-23,1,,,,,ヤマザクラ,0
2306,9260003003916,新規,0,2022-05-23,2022-05-23,ＳＨＩＮ合同会社,,合同会社,岡山県,倉敷市,福田町古新田１２２５番地８,,33,202,7128046,,,,,,,2022-05-23,1,,,,,シン,0
2307,9290001097602,新規,0,2022-05-23,2022-05-23,株式会社ＹＡＬＬ,,株式会社,福岡県,福岡市中央区,谷１丁目１６－２８－１１０２,,40,133,8100031,,,,,,,2022-05-23,1,,,,,ヨール,0
2308,9290001097643,新規,0,2022-05-23,2022-05-23,株式会社ワンダフルリア,,株式会社,福岡県,うきは市,吉井町新治５７４,,40,225,8391306,,,,,,,2022-05-23,1,,,,,ワンダフルリア,0
2320,9330001029757,新規,0,2022-05-23,2022-05-23,株式会社北磨,,株式会社,熊本県,熊本市中央区,北千反畑町１番７号,,43,101,8600855,,,,,,,2022-05-23,1,,,,,ホクマ,0
2322,9330003009377,新規,0,2022-05-23,2022-05-23,合同会社アスエート,,合同会社,熊本県,山鹿市,鹿本町中川２０９７番地１,,43,208,8610314,,,,,,,2022-05-23,1,,,,,アスエート,0
2324,9340003003800,新規,0,2022-05-23,2022-05-23,合同会社クラヴィーア・ジャパン,,合同会社,鹿児島県,鹿児島市,樋之口町７番３８号,00126622,46,201,8920845,,,,,,,2022-05-23,1,,,,,,0
2338,9410001013190,新規,0,2022-05-23,2022-05-23,株式会社齊藤,,株式会社,秋田県,秋田市,仁井田本町３丁目６番４１号,,05,201,0101421,,,,,,,2022-05-23,1,,,,,サイトウ,0
2343,9430001086689,新規,0,2022-05-23,2022-05-23,Ｔｒｅａｓｕｒｅ　Ｂｏｘ株式会社,,株式会社,北海道,虻田郡倶知安町,南四条西１丁目４番地３,,01,400,0440034,,,,,,,2022-05-23,1,,,,,トレジャーボックス,0
2344,9430003013939,新規,0,2022-05-23,2022-05-23,合同会社ゆずまる,,合同会社,北海道,札幌市中央区,南五条西３丁目８番地,,01,101,0640805,,,,,,,2022-05-23,1,,,,,ユズマル,0
2348,9500003002835,新規,0,2022-05-23,2022-05-23,かず貿易合同会社,,合同会社,愛媛県,松山市,山西町９２７番地１５リアン山西１０１号,,38,201,7918026,,,,,,,2022-05-23,1,,,,,,0
