sequenceNumber,corporateNumber,process,correct,updateDate,changeDate,name,nameImageId,kind,prefectureName,cityName,streetNumber,addressImageId,prefectureCode,cityCode,postCode,addressOutside,addressOutsideImageId,closeDate,closeCause,successorCorporateNumber,changeCause,assignmentDate,latest,enName,enPrefectureName,enCityName,enAddressOutside,furigana,hihyoji
13,1010001256184,新規,0,2025-06-26,2025-06-26,株式会社ｈｏｎｋｏｍａ,,株式会社,東京都,文京区,本駒込１丁目２０－１６モンテベルデ本駒込１０２,,13,105,1130021,,,,,,,2025-06-26,1,,,,,ホンコマ,0
14,1010001256192,新規,0,2025-06-26,2025-06-26,ウールー株式会社,,株式会社,東京都,中央区,日本橋人形町２丁目２６番１２ー８０３号,,13,102,1030013,,,,,,,2025-06-26,1,,,,,ウールー,0
17,1010005040246,新規,0,2025-06-26,2025-06-26,一般社団法人ＦＭＳグローバルサポート,,その他の設立登記法人,東京都,中央区,日本橋大伝馬町６番７号,,13,102,1030011,,,,,,,2025-06-26,1,,,,,エフエムエスグローバルサポート,0
28,1010401191147,新規,0,2025-06-26,2025-06-26,株式会社ＮＯＶＡＰＲＯ,,株式会社,東京都,港区,六本木１丁目５番３号泉ガーデンレジデンス９０７,,13,103,1060032,,,,,,,2025-06-26,1,,,,,ノヴァプロ,0
29,1010401191287,新規,0,2025-06-26,2025-06-26,Ｐ＆Ｊ株式会社,,株式会社,東京都,港区,海岸１丁目２スカイグランデ汐留９０８,,13,103,1050022,,,,,,,2025-06-26,1,,,,,ピーアンドジェイ,0
31,1010403035450,新規,0,2025-06-26,2025-06-26,ＬＡＩＭＵ合同会社,,合同会社,東京都,港区,六本木３丁目１６番１２号六本木ＫＳビル５Ｆ,,13,103,1060032,,,,,,,2025-06-26,1,,,,,ライム,0
49,1011001170771,新規,0,2025-06-26,2025-06-26,株式会社ｎｏｎｏ,,株式会社,東京都,渋谷区,本町３丁目１０－９－６０１,,13,113,1510071,,,,,,,2025-06-26,1,,,,,ノノ,0
51,1011101112194,新規,0,2025-06-26,2025-06-26,株式会社ＮＥＯＮＭＵＳＥ,,株式会社,東京都,新宿区,新宿１丁目２４番７号ルネ御苑プラザ５１０,,13,104,1600022,,,,,,,2025-06-26,1,,,,,ネオンミューズ,0
52,1011101112211,新規,0,2025-06-26,2025-06-26,林岳株式会社,,株式会社,東京都,新宿区,榎町３４－３榎町ビル５階－１０室,,13,104,1620806,,,,,,,2025-06-26,1,,,,,リンガク,0
54,1011401027209,新規,0,2025-06-26,2025-06-26,株式会社ｗｈｅａｔ,,株式会社,東京都,板橋区,舟渡２丁目３－９,,13,119,1740041,,,,,,,2025-06-26,1,,,,,ウィート,0
57,1011501032240,新規,0,2025-06-26,2025-06-26,ＴｏｋｉＴｅｃｈ株式会社,,株式会社,東京都,荒川区,西日暮里６丁目８番８－４０４号,,13,118,1160013,,,,,,,2025-06-26,1,,,,,トキテック,0
63,1011801046361,新規,0,2025-06-26,2025-06-26,アップサイクル株式会社,,株式会社,東京都,足立区,西新井栄町１丁目１８番３３－７０７号,,13,121,1230843,,,,,,,2025-06-26,1,,,,,アップサイクル,0
67,1012801024051,新規,0,2025-06-26,2025-06-26,ＰＩＯホールディングス株式会社,,株式会社,東京都,東大和市,立野３丁目１２３５番地の３,,13,220,2070021,,,,,,,2025-06-26,1,,,,,ピーアイオーホールディングス,0
71,1020001163545,新規,0,2025-06-26,2025-06-26,株式会社スリーグッド,,株式会社,神奈川県,川崎市川崎区,小川町１３番地２１セコロ・Ｔ・ステージ５０１,,14,131,2100023,,,,,,,2025-06-26,1,,,,,スリーグッド,0
72,1020003028787,新規,0,2025-06-26,2025-06-26,合同会社友和,,合同会社,神奈川県,横浜市戸塚区,平戸町５３３番地,,14,110,2440803,,,,,,,2025-06-26,1,,,,,ユウワ,0
73,1020003028804,新規,0,2025-06-26,2025-06-26,合同会社Ａｌｆｏｓ,,合同会社,神奈川県,横浜市西区,北幸２丁目１０番４８号むつみビル３階,,14,103,2200004,,,,,,,2025-06-26,1,,,,,オルフォス,0
74,1020005016914,新規,0,2025-06-26,2025-06-26,一般社団法人スマイルリング,,その他の設立登記法人,神奈川県,川崎市多摩区,枡形５丁目２２番１７号,,14,135,2140032,,,,,,,2025-06-26,1,,,,,スマイルリング,0
80,1030001167256,新規,0,2025-06-26,2025-06-26,株式会社ＴＲＵＳＴ　ＨＯＭＥ,,株式会社,埼玉県,川口市,大字源左衛門新田２４４番地の５,,11,203,3330822,,,,,,,2025-06-26,1,,,,,トラストホーム,0
81,1030001167264,新規,0,2025-06-26,2025-06-26,株式会社宝の山,,株式会社,埼玉県,秩父郡長瀞町,大字長瀞１７９６番地,,11,363,3691305,,,,,,,2025-06-26,1,,,,,タカラノヤマ,0
82,1030001167272,新規,0,2025-06-26,2025-06-26,Ｏｈａｎａ株式会社,,株式会社,埼玉県,蓮田市,関山３丁目１３番５号,,11,238,3490121,,,,,,,2025-06-26,1,,,,,オハナ,0
95,1040001139411,新規,0,2025-06-26,2025-06-26,うららか不動産株式会社,,株式会社,千葉県,印西市,木下１３８６番地印西ビジネスセンター３－５,,12,231,2701326,,,,,,,2025-06-26,1,,,,,ウララカフドウサン,0
101,1040003027928,新規,0,2025-06-26,2025-06-26,合同会社ハルネ,,合同会社,千葉県,船橋市,三咲２丁目１０－６－３０６,,12,204,2740812,,,,,,,2025-06-26,1,,,,,ハルネ,0
108,1070003005971,新規,0,2025-06-26,2025-06-26,合同会社りっすん,,合同会社,群馬県,高崎市,上並榎町１７９番地５,,10,202,3700801,,,,,,,2025-06-26,1,,,,,リッスン,0
116,1110005017242,新規,0,2025-06-26,2025-06-26,一般社団法人栗野江Ｆａｍｅｒｓ　Ａｓｓｏｃｉａｔｉｏｎ,,その他の設立登記法人,新潟県,佐渡市,栗野江３２７番地１,,15,224,9520202,,,,,,,2025-06-26,1,,,,,クリノエファーマーズアソシエーション,0
119,1120001277194,新規,0,2025-06-26,2025-06-26,永富裕株式会社,,株式会社,大阪府,大阪市中央区,高津１丁目１０番２２号,,27,128,5420072,,,,,,,2025-06-26,1,,,,,エイフユウ,0
120,1120001277228,新規,0,2025-06-26,2025-06-26,株式会社栄光,,株式会社,大阪府,大阪市西区,南堀江３丁目１６番２１－３７０８号,,27,106,5500015,,,,,,,2025-06-26,1,,,,,エイコウ,0
122,1120003029833,新規,0,2025-06-26,2025-06-26,合同会社ＡＩＦＹＳ,,合同会社,大阪府,大阪市北区,梅田１丁目２番２号大阪駅前第２ビル１２－１２,,27,127,5300001,,,,,,,2025-06-26,1,,,,,エイフィス,0
126,1130001079961,新規,0,2025-06-26,2025-06-26,株式会社ＳＵＮ　ＰＡＩＮＴ,,株式会社,京都府,宇治市,明星町２丁目１０番地の１８,,26,204,6110014,,,,,,,2025-06-26,1,,,,,サンペイント,0
127,1130001079978,新規,0,2025-06-26,2025-06-26,ホームコンサルタント株式会社,,株式会社,京都府,京都市中京区,西ノ京下合町３０番地,,26,104,6048436,,,,,,,2025-06-26,1,,,,,ホームコンサルタント,0
128,1130001079986,新規,0,2025-06-26,2025-06-26,株式会社高橋設備工業,,株式会社,京都府,京都市伏見区,横大路東裏町２１番地１,,26,109,6128481,,,,,,,2025-06-26,1,,,,,タカハシセツビコウギョウ,0
141,1170003002232,新規,0,2025-06-26,2025-06-26,合同会社ＨＡＧＬＯＯＭ,,合同会社,和歌山県,和歌山市,築港２丁目８番地２,,30,201,6408287,,,,,,,2025-06-26,1,,,,,ハグルーム,0
148,1180001167423,新規,0,2025-06-26,2025-06-26,株式会社Ｎ・Ｓ・Ｒ,,株式会社,愛知県,一宮市,千秋町佐野字本郷３１７１番地５,,23,203,4910804,,,,,,,2025-06-26,1,,,,,エヌエスアール,0
149,1180001167431,新規,0,2025-06-26,2025-06-26,株式会社ＩＳＢサービス,,株式会社,愛知県,海部郡大治町,大字北間島字大道４番地の３,,23,424,4901132,,,,,,,2025-06-26,1,,,,,アイエスビーサービス,0
152,1180003028664,新規,0,2025-06-26,2025-06-26,合同会社ＲＯＤＥＣ,,合同会社,愛知県,名古屋市中村区,新富町３丁目５番１４号,,23,105,4530031,,,,,,,2025-06-26,1,,,,,ロデック,0
158,1200001043935,新規,0,2025-06-26,2025-06-26,ＮＡＲＡＮ株式会社,,株式会社,岐阜県,瑞穂市,稲里１１７番地２,,21,216,5010224,,,,,,,2025-06-26,1,,,,,ナラン,0
175,1260003005234,新規,0,2025-06-26,2025-06-26,合同会社田淵マネジメント会計,,合同会社,岡山県,岡山市北区,富田町２丁目１０番７号,,33,101,7000816,,,,,,,2025-06-26,1,,,,,タブチマネジメントカイケイ,0
176,1260005011494,新規,0,2025-06-26,2025-06-26,一般社団法人ＧＥＮＫＩ人材教育研究所,,その他の設立登記法人,岡山県,岡山市中区,清水２丁目５３４番２,,33,102,7038243,,,,,,,2025-06-26,1,,,,,ゲンキジンザイキョウイクケンキュウジョ,0
185,1290003017029,新規,0,2025-06-26,2025-06-26,合同会社二隆食堂,,合同会社,福岡県,福岡市博多区,祇園町６番２２号ｍｉｚｕｋａ・Ｂｕｓｉｎｅｓｓキャナルシティ博多前２階,,40,132,8120038,,,,,,,2025-06-26,1,,,,,ニタカショクドウ,0
189,1320001021177,新規,0,2025-06-26,2025-06-26,株式会社アルファトライアド,,株式会社,大分県,大分市,乙津港町２丁目８番５号,,44,201,8700146,,,,,,,2025-06-26,1,,,,,アルファトライアド,0
194,1340001027437,新規,0,2025-06-26,2025-06-26,株式会社ｋ‐ｂｒｉｄｇｅ,,株式会社,鹿児島県,鹿児島市,下荒田４丁目４８番１８－６０３号,,46,201,8900056,,,,,,,2025-06-26,1,,,,,ケイブリッジ,0
199,1360003015041,新規,0,2025-06-26,2025-06-26,合同会社農業生産法人石垣島にじいろファーム,,合同会社,沖縄県,石垣市,字真栄里２１０番地９,,47,207,9070002,,,,,,,2025-06-26,1,,,,,ノウギョウセイサンホウジンイシガキジマニジイロファーム,0
202,1370001052746,新規,0,2025-06-26,2025-06-26,株式会社ＬＩＮＫＶＥＲＳ,,株式会社,宮城県,仙台市青葉区,本町１丁目１２－１２ＧＭビルディング３階,,04,101,9800014,,,,,,,2025-06-26,1,,,,,リンクバース,0
204,1380001035411,新規,0,2025-06-26,2025-06-26,株式会社ＰｌｕｓＯｎｅ,,株式会社,福島県,いわき市,常磐関船町３丁目５番地の５,,07,204,9728318,,,,,,,2025-06-26,1,,,,,プラスワン,0
208,1460103001724,新規,0,2025-06-26,2025-06-26,合同会社アップフロントシーズ,,合同会社,北海道,広尾郡広尾町,並木通西１丁目１番地２,,01,642,0892623,,,,,,,2025-06-26,1,,,,,アップフロントシーズ,0
209,1470003002912,新規,0,2025-06-26,2025-06-26,クレイノ合同会社,,合同会社,香川県,高松市,栗林町３丁目３番７－７０２号アルファガーデン栗林公園,,37,201,7600073,,,,,,,2025-06-26,1,,,,,,0
210,1470005006630,新規,0,2025-06-26,2025-06-26,一般社団法人生理の保健室協会,,その他の設立登記法人,香川県,高松市,多肥下町１５７０番地１,,37,201,7618075,,,,,,,2025-06-26,1,,,,,セイリノホケンシツキョウカイ,0
213,1700150131275,新規,0,2025-06-26,2025-06-26,Ｓ　Ｍ　Ｍ　ＭＯＴＯＲＳ＆ＳＰＡＲＥ　ＰＡＲＴＳ,,外国会社等,神奈川県,座間市,新田宿１５４－２－１０２,,14,216,2520026,スリランカ民主社会主義共和国、アクラナ、マタレ・ロード３６８／１番地,,,,,,2025-06-26,1,,,,,エスエムエムモータースアンドスペアパーツ,0
218,2010005040237,新規,0,2025-06-26,2025-06-26,一般社団法人全国配管洗浄技術協会,,その他の設立登記法人,東京都,千代田区,丸の内１丁目８番３号丸の内トラストタワー本館２０階,,13,101,1000005,,,,,,,2025-06-26,1,,,,,ゼンコクハイカンセンジョウギジュツキョウカイ,0
225,2010401191071,新規,0,2025-06-26,2025-06-26,株式会社Ｒｅｉｓｅｎｄｅｒ,,株式会社,東京都,港区,北青山１丁目３番３号三橋ビル３階,,13,103,1070061,,,,,,,2025-06-26,1,,,,,ライセンダー,0
226,2010401191212,新規,0,2025-06-26,2025-06-26,ＲＴ株式会社,,株式会社,東京都,港区,赤坂９丁目４番１号パークコート赤坂檜町ザタワー２００４,,13,103,1070052,,,,,,,2025-06-26,1,,,,,アールティー,0
236,2010801036306,新規,0,2025-06-26,2025-06-26,株式会社ＧＡＭＯＵＮＯ,,株式会社,東京都,大田区,東雪谷２丁目１２番１３号,,13,111,1450065,,,,,,,2025-06-26,1,,,,,ガモーノ,0
239,2010901057648,新規,0,2025-06-26,2025-06-26,株式会社ＴＳＹｎ,,株式会社,東京都,世田谷区,粕谷４丁目２０番１８－１０７号,,13,112,1570063,,,,,,,2025-06-26,1,,,,,ティーエスワイエヌ,0
242,2011001170358,新規,0,2025-06-26,2025-06-26,株式会社ＧＯＯＳＥＫＥＴ,,株式会社,東京都,渋谷区,道玄坂１丁目１０番８号渋谷道玄坂東急ビル２Ｆ－Ｃ,,13,113,1500043,,,,,,,2025-06-26,1,,,,,グスケット,0
243,2011001170408,新規,0,2025-06-26,2025-06-26,株式会社Ｓｔｒｉｋｅｒ,,株式会社,東京都,渋谷区,円山町５番３号ＭＩＥＵＸ渋谷ビル８階,,13,113,1500044,,,,,,,2025-06-26,1,,,,,ストライカー,0
244,2011001170779,新規,0,2025-06-26,2025-06-26,フリュー・ピクチャーズ株式会社,,株式会社,東京都,渋谷区,桜丘町９番１号ビアンクォードビル３階,,13,113,1500031,,,,,,,2025-06-26,1,,,,,フリューピクチャーズ,0
245,2011003021807,新規,0,2025-06-26,2025-06-26,合同会社Ｐｅａｒｌｉｓｈ,,合同会社,東京都,渋谷区,渋谷２丁目１９－１９ワコー宮益坂ビル５階,,13,113,1500002,,,,,,,2025-06-26,1,,,,,パーリッシュ,0
246,2011003021831,新規,0,2025-06-26,2025-06-26,合同会社Ｔｕｎｅｓ,,合同会社,東京都,渋谷区,道玄坂１丁目１６－６二葉ビル８ｂ,,13,113,1500043,,,,,,,2025-06-26,1,,,,,チューンズ,0
247,2011003021856,新規,0,2025-06-26,2025-06-26,合同会社Ｖｉｂｒａｎｔ　Ｓｑｕａｒｅ,,合同会社,東京都,渋谷区,神南１丁目１１番４号ＦＰＧリンクス神南５階,,13,113,1500041,,,,,,,2025-06-26,1,,,,,,0
252,2011405002396,新規,0,2025-06-26,2025-06-26,一般社団法人パロム,,その他の設立登記法人,東京都,板橋区,東新町２丁目１９番１４－１０１号,,13,119,1740074,,,,,,,2025-06-26,1,,,,,パロム,0
255,2011603004748,新規,0,2025-06-26,2025-06-26,汐通合同会社,,合同会社,東京都,練馬区,春日町６丁目１６番１１号フォーチュン光が丘２２６号,,13,120,1790074,,,,,,,2025-06-26,1,,,,,セキトオル,0
257,2011701028467,新規,0,2025-06-26,2025-06-26,ＡＩＭＡＸ株式会社,,株式会社,東京都,江戸川区,北葛西２丁目１番１３号,,13,123,1340081,,,,,,,2025-06-26,1,,,,,アイマックス,0
258,2011803006932,新規,0,2025-06-26,2025-06-26,合同会社Ｎｉｎａ,,合同会社,東京都,足立区,千住曙町４０番１－１８０１号,00139699,13,121,1200023,,,,,,,2025-06-26,1,,,,,ニーナ,0
270,2020003028778,新規,0,2025-06-26,2025-06-26,合同会社Ｆライドパートナーズ,,合同会社,神奈川県,横浜市神奈川区,三ツ沢下町２０－１１,,14,102,2210852,,,,,,,2025-06-26,1,,,,,エフライドパートナーズ,0
274,2020005016913,新規,0,2025-06-26,2025-06-26,特定非営利活動法人横浜市レジャー・レクリエーション連合,,その他の設立登記法人,神奈川県,横浜市磯子区,森５丁目１３－５山本方,,14,107,2350023,,,,,,,2025-06-26,1,,,,,ヨコハマシレジャーレクリエーションレンゴウ,0
282,2030001167255,新規,0,2025-06-26,2025-06-26,株式会社相続コンサルティング,,株式会社,埼玉県,春日部市,浜川戸２丁目５番地６ワイズタウン,,11,214,3440054,,,,,,,2025-06-26,1,,,,,ソウゾクコンサルティング,0
283,2030001167263,新規,0,2025-06-26,2025-06-26,Ａｓｔｅｎｃａｌ　Ｃａｐｉｔａｌ株式会社,,株式会社,埼玉県,新座市,東北１丁目６番４－５０２号,,11,230,3520001,,,,,,,2025-06-26,1,,,,,アステンカルキャピタル,0
284,2030001167288,新規,0,2025-06-26,2025-06-26,株式会社ＨＳアドバンス,,株式会社,埼玉県,加須市,北大桑６６番地１,,11,210,3491147,,,,,,,2025-06-26,1,,,,,エイチエスアドバンス,0
288,2040001139344,新規,0,2025-06-26,2025-06-26,ＬＥＥテックスホールディングス株式会社,,株式会社,千葉県,木更津市,新宿２番１号,,12,206,2920066,,,,,,,2025-06-26,1,,,,,リーテックスホールディングス,0
289,2040001139393,新規,0,2025-06-26,2025-06-26,株式会社タクミイノベーション,,株式会社,千葉県,流山市,木３丁目５番地の１,,12,220,2700162,,,,,,,2025-06-26,1,,,,,タクミイノベーション,0
290,2040001139451,新規,0,2025-06-26,2025-06-26,株式会社ＣＯＭＲＡＤＥ,,株式会社,千葉県,千葉市中央区,中央２丁目５－１千葉中央ツインビル２号館７階,,12,101,2600013,,,,,,,2025-06-26,1,,,,,コムレッド,0
293,2040003027893,新規,0,2025-06-26,2025-06-26,ＨＡＳＵ合同会社,,合同会社,千葉県,野田市,岡田７３８番地１,,12,208,2700223,,,,,,,2025-06-26,1,,,,,ハス,0
294,2040003027943,新規,0,2025-06-26,2025-06-26,ＵＩＵＣアセット合同会社,,合同会社,千葉県,松戸市,五香南１丁目１８番１号,,12,207,2702212,,,,,,,2025-06-26,1,,,,,ユーアイユーシーアセット,0
298,2050003009379,新規,0,2025-06-26,2025-06-26,合同会社ｍｏｏｎ,,合同会社,茨城県,水戸市,笠原町８番地の４６,,08,201,3100852,,,,,,,2025-06-26,1,,,,,ムーン,0
304,2080401027995,新規,0,2025-06-26,2025-06-26,株式会社Ｂｕｉｌｄ,,株式会社,静岡県,掛川市,和光３丁目１番地の２７,,22,213,4360338,,,,,,,2025-06-26,1,,,,,ビルド,0
316,2120001277136,新規,0,2025-06-26,2025-06-26,ココラボ株式会社,,株式会社,大阪府,大阪市天王寺区,玉造元町１８番１６号ラムココ真田山１０５号,,27,109,5430014,,,,,,,2025-06-26,1,,,,,ココラボ,0
317,2120001277144,新規,0,2025-06-26,2025-06-26,株式会社Ａｐｐｒｅｖｉａ,,株式会社,大阪府,大阪市阿倍野区,天王寺町北２丁目８番１３号,,27,119,5450001,,,,,,,2025-06-26,1,,,,,アプレヴィア,0
318,2120001277169,新規,0,2025-06-26,2025-06-26,株式会社大翔,,株式会社,大阪府,大阪市旭区,赤川２丁目１番１４－４０２号,,27,117,5350005,,,,,,,2025-06-26,1,,,,,ダイショウ,0
319,2120001277202,新規,0,2025-06-26,2025-06-26,ＮＥＳＴ　ＥＳＴＡＴＥ株式会社,,株式会社,大阪府,大阪市中央区,北久宝寺町２丁目５番１５号,,27,128,5410057,,,,,,,2025-06-26,1,,,,,ネストエステート,0
323,2120101071950,新規,0,2025-06-26,2025-06-26,株式会社森川商店,,株式会社,大阪府,和泉市,阪本町４９１番地の２,,27,219,5940052,,,,,,,2025-06-26,1,,,,,モリカワショウテン,0
324,2120101071959,新規,0,2025-06-26,2025-06-26,株式会社すまいる,,株式会社,大阪府,阪南市,箱の浦２６０４番地の４０８,,27,232,5990235,,,,,,,2025-06-26,1,,,,,スマイル,0
326,2130001079985,新規,0,2025-06-26,2025-06-26,株式会社ＯＭＥＧＡＢＯＤＹ,,株式会社,京都府,京都市右京区,西京極中沢町１番地の１３サンシティ西京極１番館４０７号,,26,108,6150815,,,,,,,2025-06-26,1,,,,,オメガボディ,0
327,2130003010568,新規,0,2025-06-26,2025-06-26,合同会社あいのまち,,合同会社,京都府,京都市左京区,下鴨貴船町９２番地４,,26,103,6060813,,,,,,,2025-06-26,1,,,,,アイノマチ,0
328,2130005017388,新規,0,2025-06-26,2025-06-26,特定非営利活動法人京丹波イノベーションラボ,,その他の設立登記法人,京都府,船井郡京丹波町,院内市庭２５番地,,26,407,6220236,,,,,,,2025-06-26,1,,,,,キョウタンバイノベーションラボ,0
335,2140001139012,新規,0,2025-06-26,2025-06-26,株式会社ひゃくはち,,株式会社,兵庫県,明石市,日富美町１０番２１号,,28,203,6730896,,,,,,,2025-06-26,1,,,,,ヒャクハチ,0
336,2140001139061,新規,0,2025-06-26,2025-06-26,株式会社ミライ,,株式会社,兵庫県,明石市,大久保町谷八木１１２３番地の１,,28,203,6740062,,,,,,,2025-06-26,1,,,,,ミライ,0
346,2180001167372,新規,0,2025-06-26,2025-06-26,仟葉堂株式会社,,株式会社,愛知県,名古屋市名東区,藤巻町３丁目２－４０３,,23,115,4650075,,,,,,,2025-06-26,1,,,,,センヨウドウ,0
347,2180001167414,新規,0,2025-06-26,2025-06-26,株式会社翔栄,,株式会社,愛知県,名古屋市瑞穂区,彌富町字茨山２４番地,,23,108,4670039,,,,,,,2025-06-26,1,,,,,ショウエイ,0
348,2180001167447,新規,0,2025-06-26,2025-06-26,株式会社Ｌｅ　Ｔｉｓｓｅｒａ,,株式会社,愛知県,春日井市,牛山町１９８８番地１９,,23,206,4860901,,,,,,,2025-06-26,1,,,,,ルティセラ,0
352,2180301039940,新規,0,2025-06-26,2025-06-26,株式会社ガーデングループ,,株式会社,愛知県,豊橋市,神野新田町字水神下６４番地,,23,201,4418077,,,,,,,2025-06-26,1,,,,,ガーデングループ,0
355,2190001032344,新規,0,2025-06-26,2025-06-26,Ｇｒｏｗｖｉａ株式会社,,株式会社,三重県,名張市,桔梗が丘５番町２－１永尾ビル３０１,,24,208,5180625,,,,,,,2025-06-26,1,,,,,グロウヴィア,0
356,2190003005091,新規,0,2025-06-26,2025-06-26,合同会社ヒデオフクヤマ・レーシング・プロジェクト,,合同会社,三重県,鈴鹿市,南江島町１５番５号エクセル江島４０１,,24,207,5100235,,,,,,,2025-06-26,1,,,,,ヒデオフクヤマレーシングプロジェクト,0
382,2290801031642,新規,0,2025-06-26,2025-06-26,株式会社トラストエッジパートナーズ,,株式会社,福岡県,京都郡苅田町,新浜町１番地３４,,40,621,8000321,,,,,,,2025-06-26,1,,,,,トラストエッジパートナーズ,0
384,2330001033328,新規,0,2025-06-26,2025-06-26,株式会社ＨＩＮＡＴＡ,,株式会社,熊本県,宇土市,戸口町８８３番地１,,43,211,8693174,,,,,,,2025-06-26,1,,,,,ヒナタ,0
395,2420003003146,新規,0,2025-06-26,2025-06-26,合同会社アーバンリンク,,合同会社,青森県,青森市,大字浦町字奥野３５２番地９Ａ棟,,02,201,0300842,,,,,,,2025-06-26,1,,,,,アーバンリンク,0
401,2430001094731,新規,0,2025-06-26,2025-06-26,株式会社ＡＣＴ,,株式会社,北海道,札幌市北区,北七条西４丁目１番地１トーカン札幌第一キャステール６０７,,01,102,0600807,,,,,,,2025-06-26,1,,,,,アクト,0
403,2430003017806,新規,0,2025-06-26,2025-06-26,合同会社Ｊｉｎ,,合同会社,北海道,札幌市手稲区,新発寒五条２丁目１番１８－１０３号,,01,109,0060805,,,,,,,2025-06-26,1,,,,,ジン,0
404,2440001009630,新規,0,2025-06-26,2025-06-26,函館空き家再生賃貸株式会社,,株式会社,北海道,函館市,元町１４番１号,,01,202,0400054,,,,,,,2025-06-26,1,,,,,ハコダテアキヤサイセイチンタイ,0
410,2470003002911,新規,0,2025-06-26,2025-06-26,合同会社トキノネ,,合同会社,香川県,高松市,多肥下町８８－１－Ｂ１０２,,37,201,7618075,,,,,,,2025-06-26,1,,,,,トキノネ,0
415,2700150131274,新規,0,2025-06-26,2025-06-26,ＴＯＰ　ＫＮＯＴＣＨ　ＡＵＴＯ　ＳＡＬＥＳ,,外国会社等,千葉県,山武郡九十九里町,西野８４７番地１Ｄ,,12,403,2830116,スリランカ民主社会主義共和国、ウェリマダ、ランデガマ、ネドゥンガムワ、Ｎｏ．１２８／２,,,,,,2025-06-26,1,,,,,トツプノツチオートセールス,0
423,3010001255399,新規,0,2025-06-26,2025-06-26,株式会社和紡縁ＷａＢｏｕＥｎ,,株式会社,東京都,中央区,銀座８丁目４番２５号もりくま１１ビルＢ１,,13,102,1040061,,,,,,,2025-06-26,1,,,,,ワボウエンワボウエン,0
424,3010001255993,新規,0,2025-06-26,2025-06-26,ＡＯＧＵ株式会社,,株式会社,東京都,千代田区,内神田１丁目９番５号,,13,101,1010047,,,,,,,2025-06-26,1,,,,,,0
425,3010001256174,新規,0,2025-06-26,2025-06-26,久次米ラボコンサルティング株式会社,,株式会社,東京都,中央区,日本橋３丁目２番１４号新槇町ビル別館第一２階,,13,102,1030027,,,,,,,2025-06-26,1,,,,,クジメラボコンサルティング,0
427,3010005040236,新規,0,2025-06-26,2025-06-26,一般社団法人企業型確定拠出年金普及協会,,その他の設立登記法人,東京都,中央区,銀座８丁目１７番５号,,13,102,1040061,,,,,,,2025-06-26,1,,,,,キギョウガタカクテイキョシュツネンキンフキュウキョウカイ,0
435,3010401191228,新規,0,2025-06-26,2025-06-26,東京未来都市建設株式会社,,株式会社,東京都,港区,南青山３丁目１番３６号青山丸竹ビル６Ｆ,,13,103,1070062,,,,,,,2025-06-26,1,,,,,トウキョウミライトシケンセツ,0
436,3010401191293,新規,0,2025-06-26,2025-06-26,株式会社伊藤開発,,株式会社,東京都,港区,六本木３丁目１６番１９－３０２号,,13,103,1060032,,,,,,,2025-06-26,1,,,,,イトウカイハツ,0
438,3010403035424,新規,0,2025-06-26,2025-06-26,ノクシアパートナーズ合同会社,,合同会社,東京都,港区,北青山１丁目３番１号アールキューブ青山３階,,13,103,1070061,,,,,,,2025-06-26,1,,,,,ノクシアパートナーズ,0
439,3010403035432,新規,0,2025-06-26,2025-06-26,ＡＬＥＴＨＥＩＡ合同会社,,合同会社,東京都,港区,虎ノ門１丁目１６番６号虎ノ門ＲＡＰＯ－ＴＯビルＵＣＦ７階,,13,103,1050001,,,,,,,2025-06-26,1,,,,,アレーシア,0
440,3010403035457,新規,0,2025-06-26,2025-06-26,合同会社Ｃａｔｃｈ　ｏｎ,,合同会社,東京都,港区,北青山１丁目３‐３三橋ビル３階,,13,103,1070061,,,,,,,2025-06-26,1,,,,,キャッチオン,0
441,3010405024508,新規,0,2025-06-26,2025-06-26,一般社団法人日本プロフェッショナルテック協会,,その他の設立登記法人,東京都,港区,六本木４丁目１番４号,,13,103,1060032,,,,,,,2025-06-26,1,,,,,ニホンプロフェッショナルテックキョウカイ,0
450,3010801036305,新規,0,2025-06-26,2025-06-26,株式会社タムッチ,,株式会社,東京都,大田区,南千束２丁目６－１６－２０５,,13,111,1450063,,,,,,,2025-06-26,1,,,,,タムッチ,0
462,3011101112176,新規,0,2025-06-26,2025-06-26,ヒートフラックス株式会社,,株式会社,東京都,新宿区,富久町８番２７号,,13,104,1620067,,,,,,,2025-06-26,1,,,,,ヒートフラックス,0
463,3011101112184,新規,0,2025-06-26,2025-06-26,富士の株式会社,,株式会社,東京都,新宿区,西早稲田１丁目４－１９スリーベルマンションＩＩＩ１Ｂ,00139702,13,104,1690051,,,,,,,2025-06-26,1,,,,,フジノ,0
470,3011601028756,新規,0,2025-06-26,2025-06-26,株式会社ＡＩコーポレーション,,株式会社,東京都,練馬区,春日町３丁目３４番８号,,13,120,1790074,,,,,,,2025-06-26,1,,,,,アイコーポレーション,0
473,3011701028466,新規,0,2025-06-26,2025-06-26,株式会社一心防,,株式会社,東京都,江戸川区,東葛西５丁目５３－８－１Ｆ,,13,123,1340084,,,,,,,2025-06-26,1,,,,,イッシンボウ,0
480,3013301054529,新規,0,2025-06-26,2025-06-26,チルテラス株式会社,,株式会社,東京都,豊島区,東池袋１丁目３１番１０－８０９号,,13,116,1700013,,,,,,,2025-06-26,1,,,,,チルテラス,0
483,3020001163543,新規,0,2025-06-26,2025-06-26,株式会社カカズ,,株式会社,神奈川県,横浜市港北区,小机町２５００番地１,,14,109,2220036,,,,,,,2025-06-26,1,,,,,カカズ,0
484,3020001163551,新規,0,2025-06-26,2025-06-26,Ａｂａｎｙ　Ａｃａｄｅｍｙ株式会社,,株式会社,神奈川県,横浜市西区,北幸２丁目１０番４８号むつみビル３階,,14,103,2200004,,,,,,,2025-06-26,1,,,,,アバニーアカデミー,0
485,3020001163568,新規,0,2025-06-26,2025-06-26,ＸＹ株式会社,,株式会社,神奈川県,川崎市幸区,戸手４丁目９番２－１３０２号,,14,132,2120005,,,,,,,2025-06-26,1,,,,,エックスワイ,0
492,3021003016202,新規,0,2025-06-26,2025-06-26,合同会社大栄商事,,合同会社,神奈川県,平塚市,広川７２１－４メゾン白鳥２０３,,14,203,2591219,,,,,,,2025-06-26,1,,,,,ダイエイショウジ,0
493,3021005013387,新規,0,2025-06-26,2025-06-26,一般社団法人ヒヤクＬＡＢＯ,,その他の設立登記法人,神奈川県,相模原市南区,西大沼１丁目５番３１号,,14,153,2520332,,,,,,,2025-06-26,1,,,,,ヒヤクラボ,0
495,3030001167254,新規,0,2025-06-26,2025-06-26,株式会社Ｄｅｃｏ　Ｌｉｆｅ,,株式会社,埼玉県,八潮市,大字伊勢野２３０番地１ＢＥＬＩＳＴＡ八潮１１０４号,,11,234,3400821,,,,,,,2025-06-26,1,,,,,デコライフ,0
497,3030003027084,新規,0,2025-06-26,2025-06-26,合同会社ＡＮＯ,,合同会社,埼玉県,川口市,青木３丁目２２番２７号,,11,203,3320031,,,,,,,2025-06-26,1,,,,,アノ,0
499,3040001139384,新規,0,2025-06-26,2025-06-26,ＴＦＲ株式会社,,株式会社,千葉県,流山市,南流山９丁目２番地の９,,12,220,2700163,,,,,,,2025-06-26,1,,,,,ティーエフアール,0
501,3040003027892,新規,0,2025-06-26,2025-06-26,合同会社マックスミライ,,合同会社,千葉県,白井市,中８０番地１千葉セキサン株式会社内,,12,232,2701406,,,,,,,2025-06-26,1,,,,,マックスミライ,0
502,3040003027934,新規,0,2025-06-26,2025-06-26,ＳＵＮＤＡＹＺ合同会社,,合同会社,千葉県,市川市,富浜１丁目４－２２－１０２,,12,203,2720115,,,,,,,2025-06-26,1,,,,,サンデイズ,0
507,3050001056843,新規,0,2025-06-26,2025-06-26,株式会社ＴＫＭ,,株式会社,茨城県,土浦市,中央１丁目７番１４号,,08,203,3000043,,,,,,,2025-06-26,1,,,,,ティーケーエム,0
508,3060001038312,新規,0,2025-06-26,2025-06-26,株式会社マチクル,,株式会社,栃木県,矢板市,片岡２０９５番地５０,,09,211,3291571,,,,,,,2025-06-26,1,,,,,マチクル,0
511,3070001043063,新規,0,2025-06-26,2025-06-26,株式会社Ｍｉｒｉｅｌｌｅ,,株式会社,群馬県,高崎市,日高町２６５番地３,,10,202,3700002,,,,,,,2025-06-26,1,,,,,ミリエル,0
512,3070003005978,新規,0,2025-06-26,2025-06-26,合同会社ＴＥＮＥＴ,,合同会社,群馬県,前橋市,南町３丁目５０番地２プラザアン・２階Ｄ－５５,,10,201,3710805,,,,,,,2025-06-26,1,,,,,テネット,0
529,3120001277093,新規,0,2025-06-26,2025-06-26,ＭＩＫＩ株式会社,,株式会社,大阪府,大阪市城東区,放出西１丁目２番５９号－Ａ棟１１０７,,27,118,5360011,,,,,,,2025-06-26,1,,,,,ミキ,0
530,3120001277275,新規,0,2025-06-26,2025-06-26,Ｋ．Ｗａｔａｎａｂｅ　ＩＴ　Ｃｏｎｓｕｌｔａｎｃｙ株式会社,,株式会社,大阪府,大阪市中央区,大手前１丁目５番６号２０３,,27,128,5400008,,,,,,,2025-06-26,1,,,,,ケイワタナベアイティーコンサルタンシー,0
532,3120003029823,新規,0,2025-06-26,2025-06-26,日本江和国際合同会社,,合同会社,大阪府,大阪市都島区,片町２丁目５番６－４０６号,,27,102,5340025,,,,,,,2025-06-26,1,,,,,ニホンコウワコクサイ,0
533,3120003029856,新規,0,2025-06-26,2025-06-26,合同会社Ｐｏｌｙｍｅｒｎａｉ　Ｊａｐａｎ,,合同会社,大阪府,大阪市淀川区,宮原１丁目１７番３３号北沢産業ビル３階ＨｉｖｅＳｐａｃｅ新大阪３１７号室,,27,123,5320003,,,,,,,2025-06-26,1,,,,,ポリマーナイジャパン,0
535,3120101071958,新規,0,2025-06-26,2025-06-26,株式会社エムズ,,株式会社,大阪府,堺市西区,草部１６３０番地,,27,144,5938312,,,,,,,2025-06-26,1,,,,,エムズ,0
536,3120901051110,新規,0,2025-06-26,2025-06-26,株式会社Ｐｌｉｅ,,株式会社,大阪府,吹田市,片山町２丁目１５－３２プラウド吹田３０４,,27,205,5640082,,,,,,,2025-06-26,1,,,,,プリエ,0
542,3140001139085,新規,0,2025-06-26,2025-06-26,ステラクレードル株式会社,,株式会社,兵庫県,神戸市兵庫区,駅前通５丁目３番１１号,,28,105,6520898,,,,,,,2025-06-26,1,,,,,ステラクレードル,0
555,3180001167289,新規,0,2025-06-26,2025-06-26,宏大株式会社,,株式会社,愛知県,名古屋市昭和区,鶴舞３丁目２０番２３号－８,,23,107,4660064,,,,,,,2025-06-26,1,,,,,コウダイ,0
556,3180001167371,新規,0,2025-06-26,2025-06-26,株式会社Ｏ‐Ｒｉｋｋ,,株式会社,愛知県,名古屋市名東区,藤里町３０番地３,,23,115,4650036,,,,,,,2025-06-26,1,,,,,オーリック,0
557,3180001167388,新規,0,2025-06-26,2025-06-26,株式会社中京測量コンサルタント,,株式会社,愛知県,名古屋市緑区,鶴が沢１丁目１３０６番地,,23,114,4580814,,,,,,,2025-06-26,1,,,,,チュウキョウソクリョウコンサルタント,0
558,3180001167446,新規,0,2025-06-26,2025-06-26,愛菜株式会社,,株式会社,愛知県,江南市,小杁町長者毛西１３３番地３,,23,217,4838409,,,,,,,2025-06-26,1,,,,,アイサイ,0
563,3200003006896,新規,0,2025-06-26,2025-06-26,合同会社Ｃ　Ａｓｓｅｔ　Ｍａｎａｇｅｍｅｎｔ,,合同会社,岐阜県,多治見市,滝呂町１７丁目７番地の７,,21,204,5070813,,,,,,,2025-06-26,1,,,,,シーアセットマネジメント,0
567,3230001020970,新規,0,2025-06-26,2025-06-26,株式会社オギハラオートサービス,,株式会社,富山県,富山市,黒瀬１９４番地の１２,,16,201,9398213,,,,,,,2025-06-26,1,,,,,オギハラオートサービス,0
576,3260001040306,新規,0,2025-06-26,2025-06-26,株式会社ＲＩＴＯＫＡ,,株式会社,岡山県,倉敷市,沖新町３７番地２６,,33,202,7100837,,,,,,,2025-06-26,1,,,,,リトカ,0
578,3270001009226,新規,0,2025-06-26,2025-06-26,株式会社トラスト,,株式会社,鳥取県,鳥取市,宮長１２５番地１３,,31,201,6800872,,,,,,,2025-06-26,1,,,,,トラスト,0
583,3290003017027,新規,0,2025-06-26,2025-06-26,Ｎｉｋｋｌｏ合同会社,,合同会社,福岡県,福岡市東区,箱崎４丁目３８番２３号,,40,131,8120053,,,,,,,2025-06-26,1,,,,,ナイクロ,0
585,3330001033310,新規,0,2025-06-26,2025-06-26,ＫＭＴネクステージ株式会社,,株式会社,熊本県,熊本市中央区,草葉町２－２８－５１１,,43,101,8600843,,,,,,,2025-06-26,1,,,,,ケーエムティネクステージ,0
586,3330001033335,新規,0,2025-06-26,2025-06-26,緒續農業経営株式会社,,株式会社,熊本県,熊本市北区,植木町轟１０７７番地,,43,105,8610155,,,,,,,2025-06-26,1,,,,,オツヅキノウギョウケイエイ,0
592,3360003015048,新規,0,2025-06-26,2025-06-26,Ｒｏｏｔｅｄ　Ｗｅｌｌｎｅｓｓ合同会社,,合同会社,沖縄県,那覇市,久茂地３丁目２６番３２号ＹＳＣビル２０２,,47,201,9000015,,,,,,,2025-06-26,1,,,,,ルーティドウェルネス,0
605,3470001020773,新規,0,2025-06-26,2025-06-26,株式会社凪守,,株式会社,香川県,高松市,高松町２４１２番地１０,,37,201,7610104,,,,,,,2025-06-26,1,,,,,ナギモリ,0
607,3700150131273,新規,0,2025-06-26,2025-06-26,Ｖ．Ｐ．ＴＲＡＤＩＮＧ,,外国会社等,千葉県,東金市,二又３３６番地２オフィス４Ａ,,12,213,2830004,スリランカ民主社会主義共和国、キャンディ、クドゥガラ、マタレロード、Ｎｏ．８９,,,,,,2025-06-26,1,,,,,ブイピートレーデイング,0
608,3700150131281,新規,0,2025-06-26,2025-06-26,ＫＶＨ　Ｉｎｄｕｓｔｒｉｅｓ，Ｉｎｃ．,,外国会社等,東京都,港区,西新橋１丁目２０番９号ＴＳＲビル,,13,103,1050003,アメリカ合衆国ロード・アイランド州ミドルタウンエンタープライズ・センター７５,,,,,,2025-06-26,1,,,,,ケイブイエイチインダストリーズインク,0
615,4010001256322,新規,0,2025-06-26,2025-06-26,テラノス・アドバイザーズ株式会社,,株式会社,東京都,中央区,銀座１丁目１２―４Ｎ＆ＥＢＬＤ．７階,,13,102,1040061,,,,,,,2025-06-26,1,,,,,テラノスアドバイザーズ,0
620,4010005040243,新規,0,2025-06-26,2025-06-26,一般社団法人ＥＸ　Ｇｒａｖｉｔｙ,,その他の設立登記法人,東京都,中央区,築地５丁目３番３号,,13,102,1040045,,,,,,,2025-06-26,1,,,,,エックスグラビティ,0
628,4010401190930,新規,0,2025-06-26,2025-06-26,株式会社おなすの休日,,株式会社,東京都,港区,赤坂７丁目５番１５号フロムファースト赤坂１０６,,13,103,1070052,,,,,,,2025-06-26,1,,,,,オナスノキュウジツ,0
629,4010401191202,新規,0,2025-06-26,2025-06-26,株式会社ＡＴＥＬＩＥＲ　ＢＥＮＯＩＴ,,株式会社,東京都,港区,六本木３丁目１７番１２－１０３号,,13,103,1060032,,,,,,,2025-06-26,1,,,,,アトリエブノワ,0
630,4010401191284,新規,0,2025-06-26,2025-06-26,株式会社テクノブレス,,株式会社,東京都,港区,新橋２丁目４番５号不二ビルディング新橋３階,,13,103,1050004,,,,,,,2025-06-26,1,,,,,テクノブレス,0
632,4010403035456,新規,0,2025-06-26,2025-06-26,合同会社ｂｅａｔｌｅ,,合同会社,東京都,港区,芝１丁目１０－１２トーシンフェニックス芝アストラ―レ１４０５,,13,103,1050014,,,,,,,2025-06-26,1,,,,,ビートル,0
635,4010601067516,新規,0,2025-06-26,2025-06-26,飛月株式会社,,株式会社,東京都,江東区,亀戸７丁目３３－１４－Ｂ,,13,108,1360071,,,,,,,2025-06-26,1,,,,,ヒツキ,0
640,4010901057638,新規,0,2025-06-26,2025-06-26,東邦インサイトソリューションズ株式会社,,株式会社,東京都,世田谷区,千歳台１丁目１８番３号,,13,112,1570071,,,,,,,2025-06-26,1,,,,,トウホウインサイトソリューションズ,0
641,4010901057646,新規,0,2025-06-26,2025-06-26,株式会社ＪＳＹアミューズメント,,株式会社,東京都,世田谷区,下馬１丁目４７番１６号ボナールハイム１０２,,13,112,1540002,,,,,,,2025-06-26,1,,,,,ジェイエスワイアミューズメント,0
652,4011001170389,新規,0,2025-06-26,2025-06-26,株式会社エッフェ,,株式会社,東京都,目黒区,目黒本町２丁目２６番１９号,,13,110,1520002,,,,,,,2025-06-26,1,,,,,エッフェ,0
653,4011001170546,新規,0,2025-06-26,2025-06-26,株式会社Ｍｅｄｉｏｒｉｓ,,株式会社,東京都,渋谷区,神南１丁目１１－４ＦＰＧリンクス神南５階,,13,113,1500041,,,,,,,2025-06-26,1,,,,,メディオリス,0
657,4011101112159,新規,0,2025-06-26,2025-06-26,株式会社Ａｐｅｒｔｉｃａ,,株式会社,東京都,新宿区,西新宿３丁目３番１３号西新宿水間ビル６階,,13,104,1600023,,,,,,,2025-06-26,1,,,,,アペルティカ,0
658,4011101112191,新規,0,2025-06-26,2025-06-26,株式会社Ｃｏｓｍｏｐｏｌｉｔａｎ,,株式会社,東京都,新宿区,新宿７丁目２７－９－１４０７,,13,104,1600022,,,,,,,2025-06-26,1,,,,,コスモポリタン,0
659,4011103016036,新規,0,2025-06-26,2025-06-26,合同会社Ｆｏｒｃｅ　ｆｏｒ　Ｇｏｏｄ,,合同会社,東京都,新宿区,新宿５丁目９番１３－１００３号,,13,104,1600022,,,,,,,2025-06-26,1,,,,,フォースフォーグッド,0
663,4011401027189,新規,0,2025-06-26,2025-06-26,Ｓ．Ｍ．Ｓ株式会社,,株式会社,東京都,板橋区,大和町６番１２号板橋本町ビル６０１号室,,13,119,1730012,,,,,,,2025-06-26,1,,,,,エスエムエス,0
665,4011601028755,新規,0,2025-06-26,2025-06-26,株式会社ＡＩＷＡ　Ｍｉｃｒｏ　Ｐｈａｎｔｏｍ　Ｐｒｏｄｕｃｔｓ,,株式会社,東京都,練馬区,栄町１９番４号,,13,120,1760006,,,,,,,2025-06-26,1,,,,,アイワマイクロファントムプロダクツ,0
666,4011603004746,新規,0,2025-06-26,2025-06-26,秋比合同会社,,合同会社,東京都,練馬区,春日町６丁目１６番１１号フォーチュン光が丘２２５号,,13,120,1790074,,,,,,,2025-06-26,1,,,,,シュウヒ,0
673,4012801024057,新規,0,2025-06-26,2025-06-26,株式会社ＢＥＹＯＮＤ,,株式会社,東京都,立川市,曙町２丁目１５番１７号,,13,202,1900012,,,,,,,2025-06-26,1,,,,,ビヨンド,0
678,4013303007632,新規,0,2025-06-26,2025-06-26,合同会社Ｌｉｓｓｏ,,合同会社,東京都,豊島区,西巣鴨１丁目１番７号リエータ大塚５０１号,,13,116,1700001,,,,,,,2025-06-26,1,,,,,リッソ,0
684,4020001163484,新規,0,2025-06-26,2025-06-26,株式会社ｍａｚｅｃｃｏ,,株式会社,神奈川県,横浜市神奈川区,金港町５－１４クアドリフォリオ８階,,14,102,2210056,,,,,,,2025-06-26,1,,,,,マゼッコ,0
686,4020003028784,新規,0,2025-06-26,2025-06-26,合同会社アペックスヒル,,合同会社,神奈川県,横浜市港北区,下田町２丁目１３番２号,,14,109,2230064,,,,,,,2025-06-26,1,,,,,アペックスヒル,0
690,4021001085611,新規,0,2025-06-26,2025-06-26,ａｏ株式会社,,株式会社,神奈川県,大和市,中央林間３丁目２８番１０号,,14,213,2420007,,,,,,,2025-06-26,1,,,,,アオ,0
692,4030001010090,新規,0,2025-06-26,2025-06-26,株式会社大成ホーム,,株式会社,埼玉県,さいたま市大宮区,大成町２丁目２７３番地１,,11,103,3300852,,,,,,,2025-06-26,1,,,,,タイセイホーム,0
697,4030001167261,新規,0,2025-06-26,2025-06-26,ＭＴＭ株式会社,,株式会社,埼玉県,所沢市,小手指元町３丁目２８番地の６３,,11,208,3591147,,,,,,,2025-06-26,1,,,,,エムティエム,0
698,4030001167311,新規,0,2025-06-26,2025-06-26,Ｔａｂｕｌａ　Ｒａｓａ株式会社,,株式会社,埼玉県,本庄市,寿２丁目１１番３８号,,11,211,3670023,,,,,,,2025-06-26,1,,,,,タブララサ,0
706,4040005022783,新規,0,2025-06-26,2025-06-26,特定非営利活動法人日本ミソフォニア協会,,その他の設立登記法人,千葉県,我孫子市,天王台４丁目１８番１号,,12,222,2701143,,,,,,,2025-06-26,1,,,,,ニホンミソフォニアキョウカイ,0
708,4050003009369,新規,0,2025-06-26,2025-06-26,合同会社月のみち,,合同会社,茨城県,東茨城郡大洗町,磯浜町６２７番地,,08,309,3111301,,,,,,,2025-06-26,1,,,,,ツキノミチ,0
711,4070001043062,新規,0,2025-06-26,2025-06-26,株式会社六花,,株式会社,群馬県,館林市,本町２丁目１０番７号,,10,207,3740024,,,,,,,2025-06-26,1,,,,,,0
712,4070001043070,新規,0,2025-06-26,2025-06-26,外山電設株式会社,,株式会社,群馬県,伊勢崎市,西久保町２丁目１４７３番地２,,10,204,3792204,,,,,,,2025-06-26,1,,,,,トヤマデンセツ,0
725,4120001277150,新規,0,2025-06-26,2025-06-26,株式会社Ｌ’Ｅｑｕｉｐｅ,,株式会社,大阪府,大阪市東住吉区,今川８丁目１２番２２号,,27,121,5460003,,,,,,,2025-06-26,1,,,,,レキップ,0
726,4120001277159,新規,0,2025-06-26,2025-06-26,株式会社ＣＯＲＲＥＤ,,株式会社,大阪府,大阪市中央区,船場中央１丁目３番２号１０１大阪デザインセンター内,,27,128,5410055,,,,,,,2025-06-26,1,,,,,コレッド,0
727,4120001277175,新規,0,2025-06-26,2025-06-26,ＪＡＬＯＸインベストメントアンドホールディングス株式会社,,株式会社,大阪府,大阪市中央区,本町２丁目５番７号メットライフ本町スクエア３階,,27,128,5410053,,,,,,,2025-06-26,1,,,,,ジャパンロジスティックスインベストメントアンドホールディングス,0
728,4120001277225,新規,0,2025-06-26,2025-06-26,株式会社ＮＥＸＡＭＩ,,株式会社,大阪府,大阪市浪速区,敷津西２丁目１３番２号,,27,111,5560015,,,,,,,2025-06-26,1,,,,,ネクサミ,0
729,4120001277233,新規,0,2025-06-26,2025-06-26,株式会社おかげさん,,株式会社,大阪府,大阪市中央区,南新町２丁目２番１号,,27,128,5400024,,,,,,,2025-06-26,1,,,,,オカゲサン,0
731,4120003029847,新規,0,2025-06-26,2025-06-26,青＿合同会社,00139696,合同会社,大阪府,大阪市東淀川区,大桐３丁目１０番１８号Ｌｉｖｅｓｐａｃｅ大桐１０３号室,,27,114,5330011,,,,,,,2025-06-26,1,,,,,セイギョク,0
732,4120003029855,新規,0,2025-06-26,2025-06-26,合同会社Ｋ．Ｋ．Ｋ,,合同会社,大阪府,大阪市天王寺区,生玉町８番１０号天高ビル３０２号室,,27,109,5430071,,,,,,,2025-06-26,1,,,,,ケイケイケイ,0
734,4120903005732,新規,0,2025-06-26,2025-06-26,Ｎｉｈｏｎ　Ｉｎｓｉｇｈｔｓ合同会社,,合同会社,大阪府,高槻市,芥川町３丁目３番８号ヴェリッシモフォルテ２０２,,27,207,5691123,,,,,,,2025-06-26,1,,,,,ニホンインサイト,0
744,4140001138945,新規,0,2025-06-26,2025-06-26,株式会社ヤエノエステート,,株式会社,兵庫県,西宮市,甲子園口２丁目１－６,,28,204,6638113,,,,,,,2025-06-26,1,,,,,,0
747,4140003022247,新規,0,2025-06-26,2025-06-26,Ｅｓ‐ｍａｎａｇｅｍｅｎｔ　Ｉｎｃ合同会社,,合同会社,兵庫県,神戸市東灘区,渦森台２丁目１０番２０９号,,28,101,6580066,,,,,,,2025-06-26,1,,,,,エスマネジメントインク,0
757,4180001167437,新規,0,2025-06-26,2025-06-26,株式会社ＧＲＡＮＲＥＳ,,株式会社,愛知県,日進市,岩崎台４丁目４１２番地ＡＴＴＥ岩崎台３Ｆ,,23,230,4700135,,,,,,,2025-06-26,1,,,,,グランレス,0
760,4180003028661,新規,0,2025-06-26,2025-06-26,ＡＢＴｅｃｈＳｏｌｕｔｉｏｎ合同会社,,合同会社,愛知県,名古屋市中川区,西伏屋３丁目５０６番地の２,,23,110,4540982,,,,,,,2025-06-26,1,,,,,アブテックソリューション,0
766,4180303006631,新規,0,2025-06-26,2025-06-26,合同会社グランビズデザイン,,合同会社,愛知県,蒲郡市,水竹町東脇島１２番，１３番，１４番合併地,,23,214,4430005,,,,,,,2025-06-26,1,,,,,グランビズデザイン,0
770,4190001032342,新規,0,2025-06-26,2025-06-26,株式会社伊勢リキュール・ワークス,,株式会社,三重県,松阪市,嬉野権現前町３９０番地１３,,24,204,5152323,,,,,,,2025-06-26,1,,,,,イセリキュールワークス,0
774,4210001020212,新規,0,2025-06-26,2025-06-26,株式会社アサヒウィリングウェイ・ジャパン,,株式会社,福井県,福井市,松本４丁目１４番８号,,18,201,9100003,,,,,,,2025-06-26,1,,,,,アサヒウィリングウェイジャパン,0
777,4220001026753,新規,0,2025-06-26,2025-06-26,株式会社ＳｅｌｅＡｃｔ,,株式会社,石川県,金沢市,高尾台３丁目７５番地,,17,201,9218155,,,,,,,2025-06-26,1,,,,,セレアクト,0
789,4270001009225,新規,0,2025-06-26,2025-06-26,株式会社仲田地所,,株式会社,鳥取県,米子市,観音寺５２２番地,,31,202,6830007,,,,,,,2025-06-26,1,,,,,ナカダジショ,0
803,4320002001852,新規,0,2025-06-26,2025-06-26,有限会社神崎板金,00139655,有限会社,大分県,大分市,大字片島４７６番地の１,,44,201,8700943,,,,,,,2025-06-26,1,,,,,,0
807,4330001033326,新規,0,2025-06-26,2025-06-26,株式会社エステート御船,,株式会社,熊本県,上益城郡御船町,大字木倉１５８８番地,,43,441,8613204,,,,,,,2025-06-26,1,,,,,エステートミフネ,0
808,4330001033334,新規,0,2025-06-26,2025-06-26,尾崎企画株式会社,00139712,株式会社,熊本県,八代市,郡築一番町２６１番地６,,43,202,8660024,,,,,,,2025-06-26,1,,,,,オザキキカク,0
809,4330003011073,新規,0,2025-06-26,2025-06-26,合同会社Ａｓｍｉｒａｉ,,合同会社,熊本県,熊本市中央区,水道町８－１７,,43,101,8600844,,,,,,,2025-06-26,1,,,,,アスミライ,0
811,4360001035393,新規,0,2025-06-26,2025-06-26,株式会社メディカアライアンス,,株式会社,沖縄県,那覇市,楚辺２丁目１９番２７号,,47,201,9000023,,,,,,,2025-06-26,1,,,,,メディカアライアンス,0
814,4380001035400,新規,0,2025-06-26,2025-06-26,未有工業株式会社,,株式会社,福島県,いわき市,平沼ノ内字諏訪原一丁目１１番地の１,,07,204,9700222,,,,,,,2025-06-26,1,,,,,ミユウコウギョウ,0
815,4390003002414,新規,0,2025-06-26,2025-06-26,合同会社なぎのわ,,合同会社,山形県,山形市,長苗代５４番地３,,06,201,9902477,,,,,,,2025-06-26,1,,,,,,0
823,4460101007720,新規,0,2025-06-26,2025-06-26,株式会社ＣＳＳ,,株式会社,北海道,広尾郡大樹町,字日方１５０番地３,,01,641,0892124,,,,,,,2025-06-26,1,,,,,シーエスエス,0
834,4700150131272,新規,0,2025-06-26,2025-06-26,Ｎ．Ｒ．Ｒ．ＭＯＴＯＲＳ,,外国会社等,千葉県,山武市,木原１４００番地オフィス７Ａ,,12,237,2891212,スリランカ民主社会主義共和国、キャンディ、アラワトゥゴダ、マワトゥポラ、Ｎｏ．１１０／３,,,,,,2025-06-26,1,,,,,エヌアールアールモータース,0
835,4700150131280,新規,0,2025-06-26,2025-06-26,ＡＵＴＯＭＯＴＩＶＥ　ＭＯＴＯＲＳ　ＧＲＯＵＰ　ＴＲＡＤＩＮＧ　ＰＲＩＶＡＴＥ　ＬＩＭＩＴＥＤ,,外国会社等,大阪府,大東市,中垣内２丁目１２番１１号エステートよしみ２０５号,,27,218,5740013,スリランカ民主社会主義共和国、チラウ、マダンペ、オールドタウン、カッカワッタ、Ｎｏ．０１,,,,,,2025-06-26,1,,,,,オートモーテイブモータースグループトレーデイングプライベートリミテツド,0
841,5010001256189,新規,0,2025-06-26,2025-06-26,２ｍｉｌｅ株式会社,,株式会社,東京都,中央区,日本橋室町１丁目１１番１２号日本橋水野ビル７階,,13,102,1030022,,,,,,,2025-06-26,1,,,,,ニマイル,0
842,5010001256247,新規,0,2025-06-26,2025-06-26,株式会社心喜,,株式会社,東京都,中央区,晴海３丁目１３番１－７１４号,,13,102,1040053,,,,,,,2025-06-26,1,,,,,シンキ,0
843,5010001256313,新規,0,2025-06-26,2025-06-26,Ｊａｐａｎ　Ｃａｐｉｔａｌ４号株式会社,,株式会社,東京都,千代田区,丸の内１丁目８番１号丸の内トラストタワーＮ館,,13,101,1000005,,,,,,,2025-06-26,1,,,,,ジャパンキャピタルヨンゴウ,0
846,5010003047768,新規,0,2025-06-26,2025-06-26,合同会社ＺＡＳ０２,,合同会社,東京都,千代田区,霞が関３丁目２番５号,,13,101,1000013,,,,,,,2025-06-26,1,,,,,ザスゼロニ,0
848,5010005040234,新規,0,2025-06-26,2025-06-26,町田施設開発特定目的会社,,その他の設立登記法人,東京都,千代田区,飯田橋４丁目７番１号結和税理士法人内,,13,101,1020072,,,,,,,2025-06-26,1,,,,,マチダシセツカイハツ,0
849,5010101016740,新規,0,2025-06-26,2025-06-26,株式会社木林杉,,株式会社,東京都,八王子市,東中野６４１番地２,,13,201,1920351,,,,,,,2025-06-26,1,,,,,モクリンサン,0
858,5010401191218,新規,0,2025-06-26,2025-06-26,Ｏｎ　Ｂｏａｒｄｉｎｇ株式会社,,株式会社,東京都,港区,港南３丁目９番３３－１５０９号,,13,103,1080075,,,,,,,2025-06-26,1,,,,,オンボーディング,0
859,5010401191291,新規,0,2025-06-26,2025-06-26,株式会社ＳＨＩＮＥ　ＰＬＵＳ,,株式会社,東京都,港区,六本木３丁目１６番１２号六本木ＫＳビル５Ｆ,,13,103,1060032,,,,,,,2025-06-26,1,,,,,シャインプラス,0
860,5010401191300,新規,0,2025-06-26,2025-06-26,ＥＸＴＯＯＬ株式会社,,株式会社,東京都,港区,高輪２丁目－１３－１ＢＩＺｃｉｒｃｌｅ品川泉岳寺,,13,103,1080074,,,,,,,2025-06-26,1,,,,,エクスツール,0
861,5010401191333,新規,0,2025-06-26,2025-06-26,ｓａｎ　ｈｕ　ｃｏｌｏｒ　ｊａｐａｎ株式会社,,株式会社,東京都,港区,芝浦４丁目１５－１－２２１１,,13,103,1080023,,,,,,,2025-06-26,1,,,,,サンフカラージャパン,0
862,5010403035447,新規,0,2025-06-26,2025-06-26,Ｏｎｅｂｒｉｅｆ　Ｊａｐａｎ合同会社,,合同会社,東京都,港区,六本木１丁目９番１０号アークヒルズ仙石山森タワー２８階ベーカー＆マッケンジー法律事務所（外国法共同事業）内,,13,103,1060032,,,,,,,2025-06-26,1,,,,,ワンブリーフジャパン,0
866,5010603011644,新規,0,2025-06-26,2025-06-26,合同会社タケノコ,,合同会社,東京都,江東区,木場３丁目１６－１１－２０３,,13,108,1350042,,,,,,,2025-06-26,1,,,,,タケノコ,0
871,5010803005446,新規,0,2025-06-26,2025-06-26,金泉合同会社,,合同会社,東京都,大田区,大森本町２丁目３０番２－３０２号,,13,111,1430011,,,,,,,2025-06-26,1,,,,,キンセン,0
874,5010901057637,新規,0,2025-06-26,2025-06-26,株式会社ＳｗｅｅｔｓＣｒｅａｔｏｒ,,株式会社,東京都,世田谷区,赤堤４丁目１３番７号,,13,112,1560044,,,,,,,2025-06-26,1,,,,,スイーツクリエイター,0
875,5010903010032,新規,0,2025-06-26,2025-06-26,Ｅｆｆｉｘｉｓ合同会社,,合同会社,東京都,世田谷区,等々力７丁目２２－５ルレザンＢ１０１,,13,112,1580082,,,,,,,2025-06-26,1,,,,,エフィクシス,0
878,5011001170157,新規,0,2025-06-26,2025-06-26,株式会社Ｕｌｕｍｕａ,,株式会社,東京都,渋谷区,代々木２丁目５番１号羽田ビル５０６,,13,113,1510053,,,,,,,2025-06-26,1,,,,,ウルムア,0
879,5011001170818,新規,0,2025-06-26,2025-06-26,株式会社ＦＴ　ＵＮＬＩＭＩＴ,,株式会社,東京都,渋谷区,恵比寿西１丁目３３番１４号,,13,113,1500021,,,,,,,2025-06-26,1,,,,,エフティーアンリミット,0
881,5011003021820,新規,0,2025-06-26,2025-06-26,合同会社Ｐ．Ｉ．Ｃｏｒｐｏｒａｔｉｏｎ,,合同会社,東京都,渋谷区,道玄坂１丁目１９－６－２Ｆ,,13,113,1500043,,,,,,,2025-06-26,1,,,,,ピーアイコーポレーション,0
882,5011003021928,新規,0,2025-06-26,2025-06-26,合同会社ＥＶＥＲＧＲＥＥＮ,,合同会社,東京都,渋谷区,初台１丁目２３番６号,,13,113,1510061,,,,,,,2025-06-26,1,,,,,エバーグリーン,0
896,5011301030671,新規,0,2025-06-26,2025-06-26,株式会社イートリット,,株式会社,東京都,杉並区,南荻窪１丁目３２番７号,,13,115,1670052,,,,,,,2025-06-26,1,,,,,イートリット,0
897,5011303005606,新規,0,2025-06-26,2025-06-26,ＤＲＥＳＳ合同会社,,合同会社,東京都,杉並区,下高井戸３丁目１２番１５号グランエッグス桜上水２０５,,13,115,1680073,,,,,,,2025-06-26,1,,,,,,0
899,5011401027205,新規,0,2025-06-26,2025-06-26,ＣＯＬＤＣＯＲＥ株式会社,,株式会社,東京都,板橋区,板橋２丁目６５番８号ＭＳビル５階,,13,119,1730004,,,,,,,2025-06-26,1,,,,,コールドコア,0
901,5011403004739,新規,0,2025-06-26,2025-06-26,合同会社康御,,合同会社,東京都,板橋区,氷川町６－１１サンクレイドル板橋区役所前１２０５号,,13,119,1730013,,,,,,,2025-06-26,1,,,,,コウギョク,0
904,5011501032253,新規,0,2025-06-26,2025-06-26,フィオン・スカイ株式会社,,株式会社,東京都,北区,滝野川７丁目６番１０－３０６号ダイアパレスグランデージ板橋,,13,117,1140023,,,,,,,2025-06-26,1,,,,,フィオンスカイ,0
908,5011801046358,新規,0,2025-06-26,2025-06-26,株式会社Ｌｉｅｎｅｔ,,株式会社,東京都,足立区,舎人３丁目１１番１５号,,13,121,1210831,,,,,,,2025-06-26,1,,,,,リアネット,0
910,5012401043274,新規,0,2025-06-26,2025-06-26,ユーエムブリッジ株式会社,,株式会社,東京都,府中市,宮西町２丁目８番地２松原ビル,,13,206,1830022,,,,,,,2025-06-26,1,,,,,ユーエムブリッジ,0
913,5012803003776,新規,0,2025-06-26,2025-06-26,合同会社ＨＡＰＰＹ,,合同会社,東京都,昭島市,玉川町５丁目１５番３２号,,13,207,1960034,,,,,,,2025-06-26,1,,,,,ハッピー,0
925,5013301054510,新規,0,2025-06-26,2025-06-26,Ｆｕｎｆａｒｍ株式会社,,株式会社,東京都,豊島区,雑司が谷２丁目２６番１号,,13,116,1710032,,,,,,,2025-06-26,1,,,,,ファンファーム,0
926,5013301054519,新規,0,2025-06-26,2025-06-26,株式会社メトニミー,,株式会社,東京都,豊島区,西池袋５丁目８番９号,,13,116,1710021,,,,,,,2025-06-26,1,,,,,メトニミー,0
927,5013301054527,新規,0,2025-06-26,2025-06-26,吟株式会社,,株式会社,東京都,豊島区,西巣鴨１丁目２番２２号ＷＡＮＤＡビル２階,,13,116,1700001,,,,,,,2025-06-26,1,,,,,ギン,0
933,5021001085610,新規,0,2025-06-26,2025-06-26,株式会社ＵＭＥ,,株式会社,神奈川県,大和市,中央林間３丁目２８番１０号,,14,213,2420007,,,,,,,2025-06-26,1,,,,,ユメ,0
936,5021003016183,新規,0,2025-06-26,2025-06-26,合同会社ＴＨＲＥＥＡＲＣ,,合同会社,神奈川県,鎌倉市,大船１丁目１２番１０号湘南第５ビル４Ｆ,,14,204,2470056,,,,,,,2025-06-26,1,,,,,スゥリーアーク,0
937,5021003016209,新規,0,2025-06-26,2025-06-26,合同会社はたの,,合同会社,神奈川県,逗子市,桜山５丁目３０番２４号,,14,208,2490005,,,,,,,2025-06-26,1,,,,,ハタノ,0
941,5030001167260,新規,0,2025-06-26,2025-06-26,マリオＮＥＴ株式会社,,株式会社,埼玉県,狭山市,大字北入曽７５５番地の１、１－１１１８,,11,215,3501315,,,,,,,2025-06-26,1,,,,,マリオネット,0
942,5030001167293,新規,0,2025-06-26,2025-06-26,株式会社ＡＵＴＯＣＬＡＮ,,株式会社,埼玉県,本庄市,西富田４９７番地１,,11,211,3670035,,,,,,,2025-06-26,1,,,,,オートクラン,0
953,5040003027932,新規,0,2025-06-26,2025-06-26,合同会社ＨｅａｌｔｈｙＰｌｕｓ,,合同会社,千葉県,鎌ケ谷市,南鎌ケ谷４丁目４番１１－９号,,12,224,2730106,,,,,,,2025-06-26,1,,,,,ヘルシープラス,0
954,5040003027949,新規,0,2025-06-26,2025-06-26,合同会社ワークシェルフ,,合同会社,千葉県,流山市,おおたかの森北２丁目２－１－２０６,,12,220,2700119,,,,,,,2025-06-26,1,,,,,ワークシェルフ,0
964,5090001019349,新規,0,2025-06-26,2025-06-26,株式会社山梨仮設,,株式会社,山梨県,中央市,一町畑字西之神９６番地１,,19,214,4093813,,,,,,,2025-06-26,1,,,,,ヤマナシカセツ,0
966,5100001038719,新規,0,2025-06-26,2025-06-26,株式会社ＳＡＣ,,株式会社,長野県,松本市,大字神林４３３２番地６,,20,202,3901243,,,,,,,2025-06-26,1,,,,,エスエーシー,0
967,5100003008249,新規,0,2025-06-26,2025-06-26,合同会社さとう内装,,合同会社,長野県,上伊那郡箕輪町,大字中箕輪９７４１番地５,,20,383,3994601,,,,,,,2025-06-26,1,,,,,サトウナイソウ,0
975,5120001276705,新規,0,2025-06-26,2025-06-26,株式会社視える化,,株式会社,大阪府,大阪市中央区,谷町７丁目２番２０号,,27,128,5420012,,,,,,,2025-06-26,1,,,,,ミエルカ,0
976,5120001277174,新規,0,2025-06-26,2025-06-26,株式会社八進企画,,株式会社,大阪府,大阪市北区,兎我野町２番１２号,,27,127,5300056,,,,,,,2025-06-26,1,,,,,ハッシンキカク,0
977,5120001277240,新規,0,2025-06-26,2025-06-26,ＩｃｅＦｉｒｅ株式会社,,株式会社,大阪府,寝屋川市,寿町４７－２－８０１,,27,215,5720029,,,,,,,2025-06-26,1,,,,,アイスファイア,0
980,5120003029763,新規,0,2025-06-26,2025-06-26,合同会社ＭＡＩ,,合同会社,大阪府,大阪市東成区,大今里西３丁目１０－９－１００１,,27,115,5370014,,,,,,,2025-06-26,1,,,,,マイ,0
981,5120003029854,新規,0,2025-06-26,2025-06-26,Ｍｅｔａｗｏｒｋｓ合同会社,,合同会社,大阪府,門真市,本町１１‐１４,,27,223,5710046,,,,,,,2025-06-26,1,,,,,メタワークス,0
983,5120101071948,新規,0,2025-06-26,2025-06-26,株式会社リエート,,株式会社,大阪府,堺市堺区,緑ヶ丘中町１丁３番５号,,27,141,5900805,,,,,,,2025-06-26,1,,,,,リエート,0
990,5130001079974,新規,0,2025-06-26,2025-06-26,株式会社ＳＡＫＡＫＩ,,株式会社,京都府,京丹後市,峰山町荒山２８４番地の２,,26,212,6270004,,,,,,,2025-06-26,1,,,,,サカキ,0
997,5140001139026,新規,0,2025-06-26,2025-06-26,株式会社エタン,,株式会社,兵庫県,尼崎市,南武庫之荘１丁目１４番８号リーストラクチャー南武庫之荘３０１,,28,202,6610033,,,,,,,2025-06-26,1,,,,,エタン,0
1001,5140003022196,新規,0,2025-06-26,2025-06-26,合同会社ｗｅｃｅｎｔｅ,,合同会社,兵庫県,西宮市,与古道町２－３４－４０１,,28,204,6620917,,,,,,,2025-06-26,1,,,,,ウィセンテ,0
1010,5180001167460,新規,0,2025-06-26,2025-06-26,株式会社ＰｕｌｓｅＵｐ,,株式会社,愛知県,名古屋市中村区,名駅３丁目４－１０アルティメイト名駅１ｓｔ２階,,23,105,4500002,,,,,,,2025-06-26,1,,,,,パルスアップ,0
1011,5180003028660,新規,0,2025-06-26,2025-06-26,合同会社ＭＦＣ,,合同会社,愛知県,名古屋市中村区,草薙町２丁目８０番地,,23,105,4530064,,,,,,,2025-06-26,1,,,,,エムエフシー,0
1012,5180003028677,新規,0,2025-06-26,2025-06-26,合同会社ｍａｒｕ‐ｉｒｏ,,合同会社,愛知県,知多市,清水が丘１丁目１４０７番地,,23,224,4780053,,,,,,,2025-06-26,1,,,,,マルイロ,0
1020,5180301039938,新規,0,2025-06-26,2025-06-26,株式会社ミスコンシャスホールディングス,,株式会社,愛知県,蒲郡市,大塚町丸山１２７－２,,23,214,4430013,,,,,,,2025-06-26,1,,,,,ミスコンシャスホールディングス,0
1021,5180303006630,新規,0,2025-06-26,2025-06-26,合同会社ジキュウダイレクト,,合同会社,愛知県,岡崎市,鴨田町字山畔１番地１７９,,23,202,4442121,,,,,,,2025-06-26,1,,,,,ジキュウダイレクト,0
1024,5190001032341,新規,0,2025-06-26,2025-06-26,株式会社Ｒ．Ｅ　Ｐｌａｎｎｉｎｇ,,株式会社,三重県,津市,北丸之内１３１番地,,24,201,5140031,,,,,,,2025-06-26,1,,,,,アールイープランニング,0
1025,5190003005080,新規,0,2025-06-26,2025-06-26,合同会社ＦＩＹＡ　ＷＨＥＥＬＳ,,合同会社,三重県,鈴鹿市,桜島町６丁目１４番６サンハウス吉澤１０５,,24,207,5130817,,,,,,,2025-06-26,1,,,,,フィヤウエルス,0
1034,5240001065105,新規,0,2025-06-26,2025-06-26,株式会社ＴＳＵＢＡＳＡ,,株式会社,広島県,広島市安佐北区,口田南１丁目１７番９－９号,,34,106,7391733,,,,,,,2025-06-26,1,,,,,ツバサ,0
1035,5240001065113,新規,0,2025-06-26,2025-06-26,ぐるぐるまっぷ株式会社,,株式会社,広島県,広島市安佐南区,八木８丁目１８番４号迫本ビル１Ｆ,,34,105,7310101,,,,,,,2025-06-26,1,,,,,グルグルマップ,0
1037,5260001040295,新規,0,2025-06-26,2025-06-26,ＳＩＮ株式会社,,株式会社,岡山県,岡山市北区,京町１２番１５号ソレイユ京町２０２,,33,101,7000838,,,,,,,2025-06-26,1,,,,,エスアイエヌ,0
1038,5260001040304,新規,0,2025-06-26,2025-06-26,株式会社コエル家賃保証,,株式会社,岡山県,岡山市北区,大元上町１３番５号,,33,101,7000925,,,,,,,2025-06-26,1,,,,,コエルヤチンホショウ,0
1047,5310001019664,新規,0,2025-06-26,2025-06-26,株式会社ＴＲＹアルファ,,株式会社,長崎県,諫早市,幸町７９番６３号,,42,204,8540022,,,,,,,2025-06-26,1,,,,,トライアルファ,0
1048,5330001033325,新規,0,2025-06-26,2025-06-26,株式会社西川重機,,株式会社,熊本県,球磨郡あさぎり町,免田西３００５－１１,,43,514,8680415,,,,,,,2025-06-26,1,,,,,ニシカワジュウキ,0
1049,5330003011072,新規,0,2025-06-26,2025-06-26,合同会社家入林業,,合同会社,熊本県,菊池郡大津町,大字高尾野８０１番地,,43,403,8691232,,,,,,,2025-06-26,1,,,,,イエイリリンギョウ,0
1052,5360003015038,新規,0,2025-06-26,2025-06-26,合同会社ステップ,,合同会社,沖縄県,那覇市,久米１丁目１４－１６,,47,201,9000033,,,,,,,2025-06-26,1,,,,,ステップ,0
1055,5380001035399,新規,0,2025-06-26,2025-06-26,株式会社ｕｕｃ,,株式会社,福島県,郡山市,土瓜１丁目２０３番地,,07,203,9630204,,,,,,,2025-06-26,1,,,,,ユーユーシー,0
1056,5380001035408,新規,0,2025-06-26,2025-06-26,株式会社ＡＰＳ,,株式会社,福島県,いわき市,内郷宮町宮沢６２番地の２,,07,204,9738407,,,,,,,2025-06-26,1,,,,,エーピーエス,0
1071,5700150131271,新規,0,2025-06-26,2025-06-26,Ｒａｎｅ　Ｓｔｅｅｒｉｎｇ　Ｓｙｓｔｅｍｓ　Ｐｒｉｖａｔｅ　Ｌｉｍｉｔｅｄ,,外国会社等,東京都,新宿区,新宿２丁目２－１０　サニープラザ新宿御苑６０５,,13,104,1600022,インド国チェンナイ市カテドラルロード１３２マイトリ,,,,,,2025-06-26,1,,,,,ラネステアリングシステムズプライベートリミテツド,0
1083,6010001255891,新規,0,2025-06-26,2025-06-26,株式会社ビジョンクリエイト,,株式会社,東京都,中央区,銀座１丁目１２番４号,,13,102,1040061,,,,,,,2025-06-26,1,,,,,ビジョンクリエイト,0
1084,6010001256139,新規,0,2025-06-26,2025-06-26,８Ｍ　Ｌａｂｓ株式会社,,株式会社,東京都,中央区,銀座２丁目１５－２ＫＲＧｉｎｚａＩＩ４Ｆ,00139709,13,102,1040061,,,,,,,2025-06-26,1,,,,,ハチエムラボズ,0
1085,6010001256188,新規,0,2025-06-26,2025-06-26,山下有松日本貿易株式会社,,株式会社,東京都,千代田区,霞が関３丁目２番６号東京倶楽部ビルディング１１階,,13,101,1000013,,,,,,,2025-06-26,1,,,,,ヤマシタアリマツニホンボウエキ,0
1086,6010001256205,新規,0,2025-06-26,2025-06-26,株式会社ＴＥＮＴＯＵ,,株式会社,東京都,中央区,日本橋室町１丁目１１番１２号日本橋水野ビル７階,,13,102,1030022,,,,,,,2025-06-26,1,,,,,テントウ,0
1087,6010001256312,新規,0,2025-06-26,2025-06-26,Ｊａｐａｎ　Ｃａｐｉｔａｌ３号株式会社,,株式会社,東京都,千代田区,丸の内１丁目８番１号丸の内トラストタワーＮ館,,13,101,1000005,,,,,,,2025-06-26,1,,,,,ジャパンキャピタルサンゴウ,0
1097,6010401191308,新規,0,2025-06-26,2025-06-26,株式会社Ｂｉｉｂｏｘ　ｍａｎａｇｅｍｅｎｔ,,株式会社,東京都,港区,六本木７丁目１５－１３－８１２,,13,103,1060032,,,,,,,2025-06-26,1,,,,,ビーボックスマネジメント,0
1101,6010403035421,新規,0,2025-06-26,2025-06-26,合同会社平行世界,,合同会社,東京都,港区,芝２丁目５－１９ＩＴＯビル５Ｆ,,13,103,1050014,,,,,,,2025-06-26,1,,,,,ヘイコウセカイ,0
1102,6010403035446,新規,0,2025-06-26,2025-06-26,合同会社ＯＲＹＳＡ,,合同会社,東京都,港区,三田２丁目１８－５,,13,103,1080073,,,,,,,2025-06-26,1,,,,,オリーザ,0
1103,6010405024471,新規,0,2025-06-26,2025-06-26,ジー・エイ・ワン・レジデンス・フォーティーン特定目的会社,,その他の設立登記法人,東京都,港区,虎ノ門５丁目１番４号,,13,103,1050001,,,,,,,2025-06-26,1,,,,,ジーエイワンレジデンスフォーティーン,0
1110,6010603011643,新規,0,2025-06-26,2025-06-26,Ｐｒｉｍｅ＆Ｃｏ．合同会社,,合同会社,東京都,江東区,南砂４丁目５番２４号４０３,,13,108,1360076,,,,,,,2025-06-26,1,,,,,プライムアンドカンパニー,0
1116,6010801036252,新規,0,2025-06-26,2025-06-26,株式会社ＰＥＡＣＥ　ＦＩＬＭ,,株式会社,東京都,大田区,上池台４丁目１７番１３号,,13,111,1450064,,,,,,,2025-06-26,1,,,,,ピースフィルム,0
1119,6010903009998,新規,0,2025-06-26,2025-06-26,合同会社ＬＩＧＢＥＥ,,合同会社,東京都,世田谷区,上野毛２丁目１番２号上野毛サンハイツ３０２,,13,112,1580093,,,,,,,2025-06-26,1,,,,,リグビー,0
1120,6010903010031,新規,0,2025-06-26,2025-06-26,合同会社涼悠,,合同会社,東京都,世田谷区,桜上水２丁目２０番２０号,,13,112,1560045,,,,,,,2025-06-26,1,,,,,リョウユウ,0
1126,6011001170362,新規,0,2025-06-26,2025-06-26,Ａｍｕｌｅ株式会社,,株式会社,東京都,渋谷区,道玄坂１丁目１０番８号渋谷道玄坂東急ビル２Ｆ－Ｃ,,13,113,1500043,,,,,,,2025-06-26,1,,,,,アミュール,0
1127,6011001170718,新規,0,2025-06-26,2025-06-26,株式会社Ｆｕｌｌ　Ｂｏｄｙ　Ｈｅａｌｔｈ,,株式会社,東京都,渋谷区,渋谷１丁目８番５号,,13,113,1500002,,,,,,,2025-06-26,1,,,,,フルボディヘルス,0
1131,6011101112181,新規,0,2025-06-26,2025-06-26,株式会社ＰＭＧＭＡＰａｒｔｎｅｒｓ,,株式会社,東京都,新宿区,西新宿２丁目４番１号新宿ＮＳビル２５Ｆ,,13,104,1600023,,,,,,,2025-06-26,1,,,,,ピーエムジーエムエーパートナーズ,0
1136,6011301030670,新規,0,2025-06-26,2025-06-26,森活株式会社,,株式会社,東京都,杉並区,梅里１丁目２２－２６－２０５号室,,13,115,1660011,,,,,,,2025-06-26,1,,,,,モリカツ,0
1137,6011401027204,新規,0,2025-06-26,2025-06-26,パイオニア企画株式会社,,株式会社,東京都,板橋区,常盤台４丁目６番８号１Ｆ,,13,119,1740071,,,,,,,2025-06-26,1,,,,,パイオニアキカク,0
1138,6011503006592,新規,0,2025-06-26,2025-06-26,湘粲匯合同会社,,合同会社,東京都,北区,浮間１丁目７－２３兆豊浮間ビル５０３号室,,13,117,1150051,,,,,,,2025-06-26,1,,,,,ショウサンカイ,0
1139,6011601028753,新規,0,2025-06-26,2025-06-26,株式会社フローラヒルズ,,株式会社,東京都,練馬区,豊玉北１丁目１３番２１号,,13,120,1760012,,,,,,,2025-06-26,1,,,,,フローラヒルズ,0
1143,6011801046365,新規,0,2025-06-26,2025-06-26,株式会社仲平食健,,株式会社,東京都,足立区,大谷田３丁目１番１５号亀有ダイヤモンドマンション１１２号室,,13,121,1200001,,,,,,,2025-06-26,1,,,,,ナカヒラショクケン,0
1145,6011803006937,新規,0,2025-06-26,2025-06-26,スズケン自動車合同会社,,合同会社,東京都,足立区,南花畑２丁目８番１６号,,13,121,1210062,,,,,,,2025-06-26,1,,,,,スズケンジドウシャ,0
1146,6011805003461,新規,0,2025-06-26,2025-06-26,敬愛行政書士法人,,その他の設立登記法人,東京都,葛飾区,新小岩２丁目１番９－２０２号シティテラス新小岩,,13,122,1240024,,,,,,,2025-06-26,1,,,,,ケイアイ,0
1152,6013301054518,新規,0,2025-06-26,2025-06-26,株式会社オムニビス,,株式会社,東京都,豊島区,西池袋２丁目３６－１０ＡＣＮ池袋ビル５Ｆ－７,,13,116,1710021,,,,,,,2025-06-26,1,,,,,オムニビス,0
1157,6020001163540,新規,0,2025-06-26,2025-06-26,住友パートナーズ株式会社,,株式会社,神奈川県,川崎市幸区,鹿島田１丁目１番５－７１３号,,14,132,2120058,,,,,,,2025-06-26,1,,,,,スミトモパートナーズ,0
1161,6020003028790,新規,0,2025-06-26,2025-06-26,合同会社ＦｌｏｗＭｅａｄｏｗｓ,,合同会社,神奈川県,横浜市緑区,上山３丁目４０番１－Ａ１１０号,,14,113,2260012,,,,,,,2025-06-26,1,,,,,フロウメドウズ,0
1166,6021003016182,新規,0,2025-06-26,2025-06-26,Ｈｏｕｓｉｎｇ　Ｐｒｏｐｏｓａｌ　Ｋ合同会社,,合同会社,神奈川県,中郡二宮町,二宮７５－２,,14,342,2590123,,,,,,,2025-06-26,1,,,,,ハウジングプロポーザルケイ,0
1170,6030001167276,新規,0,2025-06-26,2025-06-26,株式会社ＬＩＮＫＥＲＢＥＡＵＴＹ,,株式会社,埼玉県,和光市,白子３丁目２０番１１－５０７号,,11,229,3510101,,,,,,,2025-06-26,1,,,,,リンカービューティー,0
1171,6030001167301,新規,0,2025-06-26,2025-06-26,株式会社東日本建設,,株式会社,埼玉県,草加市,氷川町２１５２番地２クレドール草加７０１号,,11,221,3400034,,,,,,,2025-06-26,1,,,,,ヒガシニホンケンセツ,0
1180,6040001139423,新規,0,2025-06-26,2025-06-26,墨曜合筑株式会社,,株式会社,千葉県,千葉市中央区,矢作町３２８－１３アインス矢作２０２号,,12,101,2600851,,,,,,,2025-06-26,1,,,,,ボクヨウゴウチク,0
1185,6040003027832,新規,0,2025-06-26,2025-06-26,合同会社Ｔｕｌｉｐａｎ,,合同会社,千葉県,市川市,行徳駅前１丁目１１－１１,,12,203,2720133,,,,,,,2025-06-26,1,,,,,トゥリパン,0
1186,6040003027923,新規,0,2025-06-26,2025-06-26,エーサム合同会社,,合同会社,千葉県,木更津市,十日市場３３２－１,,12,206,2920025,,,,,,,2025-06-26,1,,,,,エーサム,0
1189,6050001056849,新規,0,2025-06-26,2025-06-26,ＮＡＭＯＯＲＡ株式会社,,株式会社,茨城県,つくば市,茎崎１８１５番地５０コーポ茎崎１０１号室,,08,220,3001272,,,,,,,2025-06-26,1,,,,,ナムーラ,0
1192,6060001038326,新規,0,2025-06-26,2025-06-26,三星商事株式会社,,株式会社,栃木県,小山市,城東３丁目８番１７号,,09,208,3230807,,,,,,,2025-06-26,1,,,,,サンセイショウジ,0
1194,6070001043069,新規,0,2025-06-26,2025-06-26,株式会社高橋家,,株式会社,群馬県,太田市,只上町１８２番地１,,10,205,3730011,,,,,,,2025-06-26,1,,,,,タカハシヤ,0
1203,6100001038718,新規,0,2025-06-26,2025-06-26,株式会社タキオン,,株式会社,長野県,北佐久郡軽井沢町,大字長倉９００番地３,,20,321,3890111,,,,,,,2025-06-26,1,,,,,タキオン,0
1204,6100001038726,新規,0,2025-06-26,2025-06-26,ＳＯＢＡ株式会社,,株式会社,長野県,長野市,大字鶴賀問御所町１２７１－３ＴＯｉＧＯＷＥＳＴ１階,,20,201,3800834,,,,,,,2025-06-26,1,,,,,ソバ,0
1208,6100003008248,新規,0,2025-06-26,2025-06-26,ミヤカワライン合同会社,,合同会社,長野県,茅野市,宮川５４４６－３８,,20,214,3910013,,,,,,,2025-06-26,1,,,,,ミヤカワライン,0
1216,6120001277140,新規,0,2025-06-26,2025-06-26,株式会社スマート,,株式会社,大阪府,大阪市浪速区,湊町２丁目２番１０－３７０４号,,27,111,5560017,,,,,,,2025-06-26,1,,,,,スマート,0
1217,6120001277207,新規,0,2025-06-26,2025-06-26,株式会社荒木工業,,株式会社,大阪府,大阪市生野区,小路東６丁目３番４号,,27,116,5440003,,,,,,,2025-06-26,1,,,,,アラキコウギョウ,0
1218,6120001277223,新規,0,2025-06-26,2025-06-26,株式会社Ｃｏｚｙリアルエステート,,株式会社,大阪府,大阪市浪速区,元町３丁目１番４号,,27,111,5560016,,,,,,,2025-06-26,1,,,,,コージーリアルエステート,0
1219,6120001277256,新規,0,2025-06-26,2025-06-26,株式会社ＡＩインターナショナル,,株式会社,大阪府,大阪市北区,梅田１丁目２番２号大阪駅前第２ビル１２－１２,,27,127,5300001,,,,,,,2025-06-26,1,,,,,アイインターナショナル,0
1221,6120003029861,新規,0,2025-06-26,2025-06-26,合同会社ＡＲＧ大阪,,合同会社,大阪府,大阪市中央区,本町橋８－７フジタビル１Ｆ,,27,128,5400029,,,,,,,2025-06-26,1,,,,,エーアールジーオオサカ,0
1233,6140003022237,新規,0,2025-06-26,2025-06-26,ＮＥＯ　ＥＬＥＭＥＮＴＳ合同会社,,合同会社,兵庫県,高砂市,美保里１－９,,28,216,6760804,,,,,,,2025-06-26,1,,,,,ネオエレメンツ,0
1248,6180301039945,新規,0,2025-06-26,2025-06-26,株式会社モンサン・セリテ,,株式会社,愛知県,岡崎市,日名本町１０番地５,,23,202,4440916,,,,,,,2025-06-26,1,,,,,モンサンセリテ,0
1258,6230003002452,新規,0,2025-06-26,2025-06-26,合同会社あっとプラス,,合同会社,富山県,富山市,粟島町３丁目１６‐３３,,16,201,9318314,,,,,,,2025-06-26,1,,,,,アットプラス,0
1262,6240001065120,新規,0,2025-06-26,2025-06-26,株式会社ＫＳＫ,,株式会社,広島県,広島市佐伯区,五日市町大字石内５０３７番地１（２０２号）,,34,108,7315102,,,,,,,2025-06-26,1,,,,,ケーエスケー,0
1266,6260001040303,新規,0,2025-06-26,2025-06-26,株式会社コエルトラベル,,株式会社,岡山県,岡山市北区,大元上町１３番５号,,33,101,7000925,,,,,,,2025-06-26,1,,,,,コエルトラベル,0
1274,6320001021180,新規,0,2025-06-26,2025-06-26,株式会社三林,,株式会社,大分県,日田市,大字東有田２１３７番地４,,44,204,8770000,,,,,,,2025-06-26,1,,,,,サンリン,0
1280,6360001035375,新規,0,2025-06-26,2025-06-26,カネヒデリゾート株式会社,,株式会社,沖縄県,島尻郡与那原町,字東浜５番７号,,47,348,9011304,,,,,,,2025-06-26,1,,,,,カネヒデリゾート,0
1281,6360001035391,新規,0,2025-06-26,2025-06-26,株式会社ＢＯＸＩＡ,,株式会社,沖縄県,那覇市,首里石嶺町２丁目３６番地１パークサイド首里２号棟３１０号室,,47,201,9030804,,,,,,,2025-06-26,1,,,,,ボクシア,0
1298,6470003002908,新規,0,2025-06-26,2025-06-26,合同会社Ｗ．Ｔ．Ｓコネクト,,合同会社,香川県,高松市,牟礼町牟礼２０番地１,,37,201,7610121,,,,,,,2025-06-26,1,,,,,,0
1301,6500003003539,新規,0,2025-06-26,2025-06-26,合同会社秋桜会,,合同会社,愛媛県,東温市,西岡５４７番地４,,38,215,7910205,,,,,,,2025-06-26,1,,,,,コスモスカイ,0
1302,6700150131270,新規,0,2025-06-26,2025-06-26,Ｇｒｅｅｎ　Ｍａｎ　Ｇａｍｉｎｇ　Ｌｉｍｉｔｅｄ,,外国会社等,,,,,,,,１２４　Ｆｉｎｃｈｌｅｙ　Ｒｏａｄ，Ｌｏｎｄｏｎ，Ｅｎｇｌａｎｄ，ＮＷ３　５ＪＳ,,,,,,2025-06-26,1,,,,,グリーンマンゲーミングリミテツド,0
1310,7010001255750,新規,0,2025-06-26,2025-06-26,Ｊａｐａｎ　Ｔｅｃｈ　Ｂｒｉｄｇｅ株式会社,,株式会社,東京都,千代田区,神田神保町２丁目１６番地宮田ビル,,13,101,1010051,,,,,,,2025-06-26,1,,,,,ジャパンテックブリッジ,0
1311,7010001256229,新規,0,2025-06-26,2025-06-26,日本川渝会館株式会社,,株式会社,東京都,千代田区,神田淡路町２丁目１０５ワテラスアネックス６階,,13,101,1010063,,,,,,,2025-06-26,1,,,,,ニホンセンユカイカン,0
1312,7010001256286,新規,0,2025-06-26,2025-06-26,株式会社Ｆｌａｓｈａｒｋ,,株式会社,東京都,文京区,千石２丁目６－２－３０４,,13,105,1120011,,,,,,,2025-06-26,1,,,,,フラッシュアーク,0
1313,7010001256311,新規,0,2025-06-26,2025-06-26,Ｊａｐａｎ　Ｃａｐｉｔａｌ２号株式会社,,株式会社,東京都,千代田区,丸の内１丁目８番１号丸の内トラストタワーＮ館,,13,101,1000005,,,,,,,2025-06-26,1,,,,,ジャパンキャピタルニゴウ,0
1314,7010003047824,新規,0,2025-06-26,2025-06-26,ＳＨＩＺＥＮ　ＨＯＭＥ合同会社,,合同会社,東京都,中央区,築地６丁目１９番２１号,,13,102,1040045,,,,,,,2025-06-26,1,,,,,,0
1324,7010405024470,新規,0,2025-06-26,2025-06-26,ジー・エイ・ワン・レジデンス・サーティーン特定目的会社,,その他の設立登記法人,東京都,港区,虎ノ門５丁目１番４号,,13,103,1050001,,,,,,,2025-06-26,1,,,,,ジーエイワンレジデンスサーティーン,0
1329,7010603011642,新規,0,2025-06-26,2025-06-26,合同会社Ｍ’ｓ,,合同会社,東京都,墨田区,錦糸２丁目１０－８古川ビル１Ｆ,,13,107,1300013,,,,,,,2025-06-26,1,,,,,エムズ,0
1331,7010705003769,新規,0,2025-06-26,2025-06-26,マルナゲカンリ税理士法人,,その他の設立登記法人,東京都,品川区,西五反田８丁目１番－１３,,13,109,1410031,,,,,,,2025-06-26,1,,,,,マルナゲカンリ,0
1336,7010901057643,新規,0,2025-06-26,2025-06-26,株式会社Ｐｅｔｒｉ　Ｈｅｉｌ,,株式会社,東京都,世田谷区,桜新町１丁目１６番１４号,,13,112,1540015,,,,,,,2025-06-26,1,,,,,ペトリハイル,0
1345,7011001170353,新規,0,2025-06-26,2025-06-26,矢田ロック株式会社,,株式会社,東京都,渋谷区,桜丘町１３番３号サンヤマモトビル３階,,13,113,1500031,,,,,,,2025-06-26,1,,,,,ヤタロック,0
1346,7011001170411,新規,0,2025-06-26,2025-06-26,株式会社東京プロモーション,,株式会社,東京都,渋谷区,千駄ヶ谷５丁目２７番３号新宿大和ビルディング,,13,113,1510051,,,,,,,2025-06-26,1,,,,,トウキョウプロモーション,0
1347,7011001170477,新規,0,2025-06-26,2025-06-26,株式会社Ｔ‐Ｌａｂ,,株式会社,東京都,渋谷区,神宮前６丁目２３番４号桑野ビル２階,,13,113,1500001,,,,,,,2025-06-26,1,,,,,ティーラボ,0
1348,7011001170618,新規,0,2025-06-26,2025-06-26,株式会社Ｃｏｍｐｉｎｇ　Ｇｒｏｗｔｈ,,株式会社,東京都,渋谷区,恵比寿西２丁目４番８号ウィンド恵比寿ビル８Ｆ,,13,113,1500021,,,,,,,2025-06-26,1,,,,,コンピンググロース,0
1352,7011101112164,新規,0,2025-06-26,2025-06-26,マグナスローカス株式会社,,株式会社,東京都,新宿区,市谷山伏町２番５－１２０３号,,13,104,1620857,,,,,,,2025-06-26,1,,,,,マグナスローカス,0
1353,7011101112172,新規,0,2025-06-26,2025-06-26,株式会社ＦＡＣＴ　ＦＯＲＣＥ,,株式会社,東京都,新宿区,新宿１丁目３６－２,,13,104,1600022,,,,,,,2025-06-26,1,,,,,ファクトフォース,0
1354,7011101112180,新規,0,2025-06-26,2025-06-26,極途株式会社,,株式会社,東京都,新宿区,西新宿３丁目３番１３号西新宿水間ビル６階,,13,104,1600023,,,,,,,2025-06-26,1,,,,,キョクト,0
1355,7011103016074,新規,0,2025-06-26,2025-06-26,合同会社ＤｕａｌＬｉｎｋ,,合同会社,東京都,新宿区,西新宿６丁目５番１号,,13,104,1600023,,,,,,,2025-06-26,1,,,,,デュアルリンク,0
1359,7011303005604,新規,0,2025-06-26,2025-06-26,合同会社ＩＴＯＩ,,合同会社,東京都,杉並区,成田東５丁目２５番１４号,,13,115,1660015,,,,,,,2025-06-26,1,,,,,イトイ,0
1360,7011401027203,新規,0,2025-06-26,2025-06-26,株式会社Ｊｉｎ‐Ｍｉｔ,,株式会社,東京都,板橋区,仲宿３９番４号,,13,119,1730005,,,,,,,2025-06-26,1,,,,,ジンミット,0
1367,7011603004751,新規,0,2025-06-26,2025-06-26,合同会社ＫＯＵＳＥＮ,,合同会社,東京都,練馬区,下石神井１丁目４番１０号,,13,120,1770042,,,,,,,2025-06-26,1,,,,,コウセン,0
1368,7011605002654,新規,0,2025-06-26,2025-06-26,社会保険労務士法人ミライノキ,,その他の設立登記法人,東京都,練馬区,練馬１丁目２０番８号日建練馬ビル２階,,13,120,1760001,,,,,,,2025-06-26,1,,,,,ミライノキ,0
1377,7012701018940,新規,0,2025-06-26,2025-06-26,株式会社ＭＩＴＳＵＢＯＳＨＩ　Ｊ‐Ｍ,,株式会社,東京都,西東京市,東伏見５丁目４番５号クラウディスプーン４０３号室,,13,229,2020021,,,,,,,2025-06-26,1,,,,,ミツボシジェイエム,0
1379,7012801024054,新規,0,2025-06-26,2025-06-26,ヘルシーフードホールディングス株式会社,,株式会社,東京都,日野市,大字日野７５６番地,,13,212,1910012,,,,,,,2025-06-26,1,,,,,ヘルシーフードホールディングス,0
1380,7012801024062,新規,0,2025-06-26,2025-06-26,株式会社ＤＪＣ,,株式会社,東京都,立川市,砂川町５丁目４２番地の５－Ａ１０５,,13,202,1900031,,,,,,,2025-06-26,1,,,,,ディージェイシー,0
1381,7013301054509,新規,0,2025-06-26,2025-06-26,株式会社スリーフォワード,,株式会社,東京都,豊島区,高田１丁目１０番２１号,,13,116,1710033,,,,,,,2025-06-26,1,,,,,スリーフォワード,0
1385,7020001163515,新規,0,2025-06-26,2025-06-26,株式会社ＡＣＴＩＶＡ,,株式会社,神奈川県,川崎市宮前区,菅生３丁目４２番９号,,14,136,2160015,,,,,,,2025-06-26,1,,,,,,0
1393,7021001085617,新規,0,2025-06-26,2025-06-26,株式会社ＦＯＵＲ　ＡＲＥ,,株式会社,神奈川県,大和市,渋谷５丁目３７番地９ｅ・ｋｉ・ｎｉ・ａ１０３,,14,213,2420023,,,,,,,2025-06-26,1,,,,,フォーアール,0
1402,7030001167275,新規,0,2025-06-26,2025-06-26,越谷麦酒株式会社,,株式会社,埼玉県,越谷市,東越谷４丁目２８番地２２,,11,222,3430023,,,,,,,2025-06-26,1,,,,,コシガヤビール,0
1403,7030001167309,新規,0,2025-06-26,2025-06-26,株式会社Ｒｅ・ｂａｓｅ,,株式会社,埼玉県,さいたま市南区,四谷３丁目１番１号四谷三丁目ビル２０４,,11,108,3360032,,,,,,,2025-06-26,1,,,,,リベース,0
1409,7040001139356,新規,0,2025-06-26,2025-06-26,グローバルテックリンク株式会社,,株式会社,千葉県,柏市,亀甲台町２丁目６番９号,,12,217,2770031,,,,,,,2025-06-26,1,,,,,グローバルテックリンク,0
1410,7040001139430,新規,0,2025-06-26,2025-06-26,株式会社ＷＥＳＴ＆ＲＯＬＬ,,株式会社,千葉県,千葉市美浜区,磯辺７丁目２８番１号,,12,106,2610012,,,,,,,2025-06-26,1,,,,,ウエストアンドロール,0
1417,7040003027897,新規,0,2025-06-26,2025-06-26,きさらづ経営労務サービス合同会社,,合同会社,千葉県,木更津市,港南台２丁目１６番地１１,,12,206,2920827,,,,,,,2025-06-26,1,,,,,キサラヅケイエイロウムサービス,0
1422,7050001056831,新規,0,2025-06-26,2025-06-26,株式会社さくら住宅サービス,,株式会社,茨城県,つくば市,松栄９８３番地１４,,08,220,3050014,,,,,,,2025-06-26,1,,,,,サクラジュウタクサービス,0
1423,7050001056856,新規,0,2025-06-26,2025-06-26,株式会社あおぞら,,株式会社,茨城県,那珂市,竹ノ内２丁目３－２－１０５,,08,226,3110110,,,,,,,2025-06-26,1,,,,,アオゾラ,0
1424,7060001038325,新規,0,2025-06-26,2025-06-26,株式会社ココハレテ,,株式会社,栃木県,さくら市,きぬの里１丁目３番地５,,09,214,3291317,,,,,,,2025-06-26,1,,,,,ココハレテ,0
1426,7060003005620,新規,0,2025-06-26,2025-06-26,合同会社Ｒ＆Ｓ,,合同会社,栃木県,那須烏山市,神長７８０－１,,09,215,3210632,,,,,,,2025-06-26,1,,,,,アールアンドエス,0
1427,7070001043068,新規,0,2025-06-26,2025-06-26,株式会社弘栄総業,,株式会社,群馬県,藤岡市,三ツ木４１３番地２,,10,209,3750056,,,,,,,2025-06-26,1,,,,,コウエイソウギョウ,0
1429,7070003005974,新規,0,2025-06-26,2025-06-26,群馬環境技研合同会社,,合同会社,群馬県,前橋市,川原町２丁目３６－１０,,10,201,3710046,,,,,,,2025-06-26,1,,,,,,0
1436,7100003008247,新規,0,2025-06-26,2025-06-26,合同会社ピア不動産,,合同会社,長野県,松本市,寿北８丁目２２番１１－１号,,20,202,3990011,,,,,,,2025-06-26,1,,,,,ピアフドウサン,0
1447,7120001277057,新規,0,2025-06-26,2025-06-26,Ｇｕｎｇｎｉｒ株式会社,,株式会社,大阪府,大阪市中央区,船場中央３丁目１番７号船場センタービル７号館,,27,128,5410055,,,,,,,2025-06-26,1,,,,,ガングニール,0
1448,7120001277131,新規,0,2025-06-26,2025-06-26,株式会社淡工業,,株式会社,大阪府,大阪市東住吉区,住道矢田１丁目１６番１７号,,27,121,5460022,,,,,,,2025-06-26,1,,,,,ダンコウギョウ,0
1449,7120001277156,新規,0,2025-06-26,2025-06-26,サンコー機販株式会社,,株式会社,大阪府,大阪市中央区,瓦町１丁目７番３号フジカワビル４階,,27,128,5410048,,,,,,,2025-06-26,1,,,,,サンコーキハン,0
1450,7120001277230,新規,0,2025-06-26,2025-06-26,Ｍｅｄｆａｉｔｈ株式会社,,株式会社,大阪府,大阪市淀川区,宮原１丁目１７－１２－２０４号,,27,123,5320003,,,,,,,2025-06-26,1,,,,,メディフェイス,0
1451,7120001277239,新規,0,2025-06-26,2025-06-26,株式会社ＳＴ　ＬＩＦＥ,,株式会社,大阪府,大阪市平野区,長吉出戸３丁目２番４５－７０９号,,27,126,5470011,,,,,,,2025-06-26,1,,,,,エスティーライフ,0
1454,7120003029852,新規,0,2025-06-26,2025-06-26,合同会社住輝,,合同会社,大阪府,大阪市北区,天満２丁目２番１５号フロンティア天満４０２号,,27,127,5300043,,,,,,,2025-06-26,1,,,,,スミテル,0
1455,7120003029860,新規,0,2025-06-26,2025-06-26,ＳＡＫＵＲＡ桜悦合同会社,,合同会社,大阪府,大阪市東住吉区,杭全８丁目７番２７号,,27,121,5460002,,,,,,,2025-06-26,1,,,,,サクラオオエツ,0
1457,7120101071938,新規,0,2025-06-26,2025-06-26,株式会社Ｋ．Ｔ,,株式会社,大阪府,和泉市,室堂町２８８－６－２０３号,,27,219,5941101,,,,,,,2025-06-26,1,,,,,ケイティ,0
1458,7120101071970,新規,0,2025-06-26,2025-06-26,株式会社ジャパントップオート,,株式会社,大阪府,堺市中区,福田１１２３番地７,,27,142,5998241,,,,,,,2025-06-26,1,,,,,ジャパントップオート,0
1460,7120103006537,新規,0,2025-06-26,2025-06-26,合同会社Ｍａｎｈａｔｔａｎ,,合同会社,大阪府,堺市美原区,北余部４０２番地,,27,147,5870051,,,,,,,2025-06-26,1,,,,,マンハッタン,0
1466,7130003010539,新規,0,2025-06-26,2025-06-26,合同会社ｋａｎａｔａ,,合同会社,京都府,京都市山科区,御陵大谷町１１番地２２,,26,110,6078404,,,,,,,2025-06-26,1,,,,,カナタ,0
1481,7180001167426,新規,0,2025-06-26,2025-06-26,株式会社ＲＩＮＧ,,株式会社,愛知県,名古屋市緑区,万場山２丁目２０６番地の１パークホームズ滝の水スカイアリーナ３０２,,23,114,4580043,,,,,,,2025-06-26,1,,,,,リング,0
1484,7180003028626,新規,0,2025-06-26,2025-06-26,ＣＯＯＫＩＥＳ　ＪＡＰＡＮ合同会社,,合同会社,愛知県,名古屋市中村区,名駅４丁目２４番５号第２森ビル４０１,,23,105,4500002,,,,,,,2025-06-26,1,,,,,クッキーズジャパン,0
1485,7180003028650,新規,0,2025-06-26,2025-06-26,合同会社アスモインターナショナル,,合同会社,愛知県,名古屋市緑区,桶狭間２１０６グリーンコーポＩＩＩ１０３,00139711,23,114,4580925,,,,,,,2025-06-26,1,,,,,アスモインターナショナル,0
1491,7180301039944,新規,0,2025-06-26,2025-06-26,ハタトレ株式会社,,株式会社,愛知県,刈谷市,熊野町４丁目７５番地１,,23,210,4480831,,,,,,,2025-06-26,1,,,,,ハタトレ,0
1494,7200001043938,新規,0,2025-06-26,2025-06-26,Ｄ‐Ａｓｓｉｓｔ株式会社,,株式会社,岐阜県,岐阜市,若福町３番１７号,,21,201,5020811,,,,,,,2025-06-26,1,,,,,ディーアシスト,0
1496,7210005010215,新規,0,2025-06-26,2025-06-26,一般財団法人三村学術福祉財団,,その他の設立登記法人,福井県,越前市,家久町第５９号１番地の１,,18,209,9150801,,,,,,,2025-06-26,1,,,,,ミムラガクジュツフクシザイダン,0
1510,7290003016982,新規,0,2025-06-26,2025-06-26,合同会社アドバンスワークス,,合同会社,福岡県,福岡市博多区,店屋町３－３２－３Ｆ,,40,132,8120025,,,,,,,2025-06-26,1,,,,,アドバンスワークス,0
1521,7340001027431,新規,0,2025-06-26,2025-06-26,株式会社ディープコンパクト,,株式会社,鹿児島県,鹿児島市,中央町１９－４０ザパークハウス鹿児島中央タワー１３１３,,46,201,8900053,,,,,,,2025-06-26,1,,,,,ディープコンパクト,0
1524,7360001035390,新規,0,2025-06-26,2025-06-26,株式会社Ｃｏｍｆｙ　Ｃａｒ　Ｒｅｎｔａｌ,,株式会社,沖縄県,島尻郡与那原町,字東浜３番地１レーヴグランディ東浜Ｓｅａ＆Ｐａｒｋ４０１,,47,348,9011304,,,,,,,2025-06-26,1,,,,,コンフィーカーレンタル,0
1525,7360003015044,新規,0,2025-06-26,2025-06-26,合同会社優,,合同会社,沖縄県,宜野湾市,新城１丁目３６番１号１階,,47,205,9012201,,,,,,,2025-06-26,1,,,,,ユウ,0
1533,7450003002685,新規,0,2025-06-26,2025-06-26,踏雪山巓旅行合同会社,,合同会社,北海道,旭川市,宮下通７丁目３８９７　１階２８,,01,204,0700030,,,,,,,2025-06-26,1,,,,,トウセツサンテンリョコウ,0
1551,8010001256228,新規,0,2025-06-26,2025-06-26,株式会社エステートプロジェクト,,株式会社,東京都,中央区,新川２丁目１１番１号,,13,102,1040033,,,,,,,2025-06-26,1,,,,,エステートプロジェクト,0
1552,8010001256236,新規,0,2025-06-26,2025-06-26,ＲＯＩ．Ｓ株式会社,,株式会社,東京都,中央区,新川２丁目１５番３－１３０１号,,13,102,1040033,,,,,,,2025-06-26,1,,,,,ロイドットエス,0
1553,8010001256244,新規,0,2025-06-26,2025-06-26,株式会社オフィス伊東加恵,,株式会社,東京都,中央区,新富１丁目１９番５号,,13,102,1040041,,,,,,,2025-06-26,1,,,,,オフィスイトウカエ,0
1554,8010001256310,新規,0,2025-06-26,2025-06-26,Ｊａｐａｎ　Ｃａｐｉｔａｌ１号株式会社,,株式会社,東京都,千代田区,丸の内１丁目８番１号丸の内トラストタワーＮ館,,13,101,1000005,,,,,,,2025-06-26,1,,,,,ジャパンキャピタルイチゴウ,0
1565,8010401191223,新規,0,2025-06-26,2025-06-26,ＰＬＡＹＳＯＨＫＯ株式会社,,株式会社,東京都,港区,芝浦１丁目１３番１０号,,13,103,1050023,,,,,,,2025-06-26,1,,,,,プレイーソーコ,0
1566,8010401191264,新規,0,2025-06-26,2025-06-26,ＰＲＡＣＡＲＥＥＲ株式会社,,株式会社,東京都,港区,港南２丁目１７番１号,,13,103,1080075,,,,,,,2025-06-26,1,,,,,プラキャリア,0
1567,8010401191339,新規,0,2025-06-26,2025-06-26,株式会社ＫＴＮ,,株式会社,東京都,港区,赤坂４丁目１０番２１号丹後町スタジオＡ－１,,13,103,1070052,,,,,,,2025-06-26,1,,,,,ケイティーエヌ,0
1570,8010403035444,新規,0,2025-06-26,2025-06-26,合同会社Ｓｅｖｅｎ,,合同会社,東京都,港区,六本木４丁目１２番１２号三江ビル２Ｆ,,13,103,1060032,,,,,,,2025-06-26,1,,,,,セブン,0
1571,8010405024461,新規,0,2025-06-26,2025-06-26,一般社団法人アンチエイジング歯磨き協会,,その他の設立登記法人,東京都,港区,南青山３丁目１番３６号青山丸竹ビル６階,,13,103,1070062,,,,,,,2025-06-26,1,,,,,,0
1578,8010901057642,新規,0,2025-06-26,2025-06-26,株式会社リオエステート,,株式会社,東京都,世田谷区,北沢３丁目２７－１０ハウス下北沢２０４,,13,112,1550031,,,,,,,2025-06-26,1,,,,,リオエステート,0
1584,8011001170344,新規,0,2025-06-26,2025-06-26,株式会社雷Ｅｎｔｅｒｐｒｉｓｅ,,株式会社,東京都,目黒区,五本木１丁目６－１５レオナール祐天寺１０８,,13,110,1530053,,,,,,,2025-06-26,1,,,,,カミナリエンタープライズ,0
1585,8011001170781,新規,0,2025-06-26,2025-06-26,株式会社ｅａｓｔ　ａｎｄ,,株式会社,東京都,渋谷区,道玄坂１丁目１０番８号渋谷道玄坂東急ビル２Ｆ－Ｃ,,13,113,1500043,,,,,,,2025-06-26,1,,,,,イーストアンド,0
1587,8011003021834,新規,0,2025-06-26,2025-06-26,２５２合同会社,,合同会社,東京都,渋谷区,恵比寿西２丁目８番４号ＥＸ恵比寿西ビル５階,,13,113,1500021,,,,,,,2025-06-26,1,,,,,ニゴニ,0
1588,8011101112188,新規,0,2025-06-26,2025-06-26,株式会社Ｌｉｎｓｉｇｈｔ,,株式会社,東京都,新宿区,西新宿３丁目３番１３号西新宿水間ビル６階,,13,104,1600023,,,,,,,2025-06-26,1,,,,,リンサイト,0
1590,8011103016032,新規,0,2025-06-26,2025-06-26,合同会社ＬＵＦＴ　ＷＡＴＥＲ,,合同会社,東京都,新宿区,西新宿３丁目３番１３号西新宿水間ビル６階,,13,104,1600023,,,,,,,2025-06-26,1,,,,,ルフトウォーター,0
1595,8011401027202,新規,0,2025-06-26,2025-06-26,ＭＡＮ株式会社,,株式会社,東京都,板橋区,徳丸３丁目１２番１号,,13,119,1750083,,,,,,,2025-06-26,1,,,,,マン,0
1596,8011403004736,新規,0,2025-06-26,2025-06-26,合同会社中山工業,,合同会社,東京都,板橋区,泉町３番８－２０３号,,13,119,1740055,,,,,,,2025-06-26,1,,,,,ナカヤマコウギョウ,0
1597,8011501032242,新規,0,2025-06-26,2025-06-26,株式会社ノイタビ,,株式会社,東京都,荒川区,東尾久６丁目４－４,,13,118,1160012,,,,,,,2025-06-26,1,,,,,ノイタビ,0
1598,8011601028751,新規,0,2025-06-26,2025-06-26,株式会社ＢＡＫＥＮＥＫＯ,,株式会社,東京都,練馬区,田柄３丁目１７番３５号種音Ｂ棟０６,,13,120,1790073,,,,,,,2025-06-26,1,,,,,バケネコ,0
1599,8011603004742,新規,0,2025-06-26,2025-06-26,合同会社東京水道設備,,合同会社,東京都,練馬区,石神井台７丁目２７番１０号メゾンドゥミシェＩＩ１０１,00139701,13,120,1770045,,,,,,,2025-06-26,1,,,,,トウキョウスイドウセツビ,0
1600,8011801046347,新規,0,2025-06-26,2025-06-26,ＨＡＲＵＴＯ　ＪＡＰＡＮ株式会社,,株式会社,東京都,足立区,梅島１丁目５番３号メゾンドール梅島３０３,,13,121,1210816,,,,,,,2025-06-26,1,,,,,ハルトジャパン,0
1608,8013301054508,新規,0,2025-06-26,2025-06-26,無一物株式会社,,株式会社,東京都,豊島区,西巣鴨１丁目６番５号ジュウエル大塚６０４号,,13,116,1700001,,,,,,,2025-06-26,1,,,,,ムイチブツ,0
1609,8020001029252,新規,0,2025-06-26,2025-06-26,山本工業株式会社,,株式会社,神奈川県,横浜市中区,万代町２丁目４番地の５,,14,104,2310031,,,,,,,2025-06-26,1,,,,,ヤマモトコウギョウ,0
1613,8020001163563,新規,0,2025-06-26,2025-06-26,株式会社インセクトファミリー,,株式会社,神奈川県,横浜市緑区,台村町２０２番地３,,14,113,2260014,,,,,,,2025-06-26,1,,,,,インセクトファミリー,0
1618,8021003016197,新規,0,2025-06-26,2025-06-26,ＡＹＳＨＡ　Ｉｎｔｅｒｎａｔｉｏｎａｌ合同会社,,合同会社,神奈川県,相模原市中央区,上溝３７０番地３９,,14,152,2520243,,,,,,,2025-06-26,1,,,,,アイシャインターナショナル,0
1619,8021003016206,新規,0,2025-06-26,2025-06-26,合同会社ＮＯ　Ｌｉｍｉｔｅ,,合同会社,神奈川県,相模原市南区,下溝１９８５番地４,,14,153,2520335,,,,,,,2025-06-26,1,,,,,ノーリミット,0
1620,8021005013390,新規,0,2025-06-26,2025-06-26,一般社団法人十次会,,その他の設立登記法人,神奈川県,足柄下郡湯河原町,中央１丁目６－１４,,14,384,2590301,,,,,,,2025-06-26,1,,,,,ジュウジカイ,0
1627,8030003027071,新規,0,2025-06-26,2025-06-26,合同会社ＺＥＮ,,合同会社,埼玉県,さいたま市南区,文蔵４丁目１５－２,,11,108,3360025,,,,,,,2025-06-26,1,,,,,ゼン,0
1639,8040003027913,新規,0,2025-06-26,2025-06-26,合同会社ＦＬＥＸ,,合同会社,千葉県,野田市,大殿井５７５番地の２１,,12,208,2780017,,,,,,,2025-06-26,1,,,,,フレックス,0
1640,8040003027938,新規,0,2025-06-26,2025-06-26,レバーサスティナブル合同会社,,合同会社,千葉県,柏市,豊四季３８１－６８,,12,217,2770863,,,,,,,2025-06-26,1,,,,,レバーサスティナブル,0
1641,8040003027946,新規,0,2025-06-26,2025-06-26,ＪＩＤＨＯＳＨＡ　ＥＸＰＯＲＴ合同会社,,合同会社,千葉県,八街市,朝日３７０番地１コーポ朝日Ｉ２０２号,00139698,12,230,2891101,,,,,,,2025-06-26,1,,,,,ジドーシャエクスポート,0
1642,8050001056847,新規,0,2025-06-26,2025-06-26,株式会社エビス,,株式会社,茨城県,ひたちなか市,大字津田２１５３番地１６１,,08,221,3120032,,,,,,,2025-06-26,1,,,,,エビス,0
1645,8060001038332,新規,0,2025-06-26,2025-06-26,株式会社旭,,株式会社,栃木県,那須塩原市,黒磯５０５県営黒磯住宅３２３号,,09,213,3250017,,,,,,,2025-06-26,1,,,,,アサヒ,0
1652,8100001038716,新規,0,2025-06-26,2025-06-26,株式会社さすけね,,株式会社,長野県,小諸市,大字柏木４７２番地１８,,20,208,3840055,,,,,,,2025-06-26,1,,,,,サスケネ,0
1653,8100001038724,新規,0,2025-06-26,2025-06-26,Ｍ‐ｏｎｅ株式会社,,株式会社,長野県,松本市,沢村２丁目１３番３６号,,20,202,3900877,,,,,,,2025-06-26,1,,,,,エムワン,0
1654,8100003008246,新規,0,2025-06-26,2025-06-26,合同会社Ｋａｒｙｕｄｏ　ＧＥＮ,,合同会社,長野県,北佐久郡軽井沢町,大字長倉２１３９番地２２４５,,20,321,3890111,,,,,,,2025-06-26,1,,,,,カリュウドゲン,0
1655,8110001039366,新規,0,2025-06-26,2025-06-26,株式会社オリエンス・ナビ,,株式会社,新潟県,南魚沼郡湯沢町,大字神立２７９―２―３０１号,,15,461,9496102,,,,,,,2025-06-26,1,,,,,オリエンスナビ,0
1662,8120001276925,新規,0,2025-06-26,2025-06-26,Ｇｏｌｄｅｎ　Ｐａｔｈ株式会社,,株式会社,大阪府,大阪市中央区,南本町４丁目５番７号東亜ビル５階,,27,128,5410054,,,,,,,2025-06-26,1,,,,,ゴールデンパス,0
1666,8120101071945,新規,0,2025-06-26,2025-06-26,三新工業株式会社,,株式会社,大阪府,大阪狭山市,茱萸木３丁目２０３番地の１４,,27,231,5890013,,,,,,,2025-06-26,1,,,,,サンシンコウギョウ,0
1667,8120101071953,新規,0,2025-06-26,2025-06-26,株式会社ｉ‐ＴＥＣ,,株式会社,大阪府,堺市西区,菱木２丁２１２４番地１４,,27,144,5938315,,,,,,,2025-06-26,1,,,,,アイテック,0
1668,8120103006536,新規,0,2025-06-26,2025-06-26,合同会社Ｌｉｅｂｅ,,合同会社,大阪府,堺市中区,深井中町２００５－３,,27,142,5998272,,,,,,,2025-06-26,1,,,,,リーベ,0
1674,8130003010570,新規,0,2025-06-26,2025-06-26,ＧＯＬＤ　ＦＯＸ合同会社,,合同会社,京都府,京都市南区,吉祥院西ノ庄淵ノ西町９番地ジェンティール・アドニス２０８号,,26,107,6018302,,,,,,,2025-06-26,1,,,,,ゴールドフォックス,0
1684,8180001167367,新規,0,2025-06-26,2025-06-26,翔和工業株式会社,,株式会社,愛知県,半田市,白山町５丁目２０３番地５,,23,205,4750912,,,,,,,2025-06-26,1,,,,,ショウワコウギョウ,0
1685,8180001167425,新規,0,2025-06-26,2025-06-26,株式会社アイテックネオ,,株式会社,愛知県,名古屋市中川区,富田町大字前田字丸池２番地の１１,,23,110,4540942,,,,,,,2025-06-26,1,,,,,アイテックネオ,0
1686,8180001167458,新規,0,2025-06-26,2025-06-26,株式会社ライトニングソリューションズ,,株式会社,愛知県,春日井市,高蔵寺町６丁目８番地１,,23,206,4870013,,,,,,,2025-06-26,1,,,,,ライトニングソリューションズ,0
1691,8180301039935,新規,0,2025-06-26,2025-06-26,幸建株式会社,,株式会社,愛知県,安城市,三河安城南町１丁目１５番８号サンテラス三河安城６階,,23,212,4460058,,,,,,,2025-06-26,1,,,,,コウケン,0
1693,8190001032339,新規,0,2025-06-26,2025-06-26,株式会社イシザキ,,株式会社,三重県,桑名市,大字上野９５９番地１,,24,205,5110825,,,,,,,2025-06-26,1,,,,,イシザキ,0
1696,8200003006891,新規,0,2025-06-26,2025-06-26,合同会社Ｃｏｅｎｏｗａ,,合同会社,岐阜県,岐阜市,茜部新所３丁目８５番地１,,21,201,5008263,,,,,,,2025-06-26,1,,,,,コエノワ,0
1704,8240001065119,新規,0,2025-06-26,2025-06-26,株式会社シルバーリリー,,株式会社,広島県,広島市佐伯区,美鈴が丘東２丁目９番１号,,34,108,7315111,,,,,,,2025-06-26,1,,,,,シルバーリリー,0
1707,8240003007275,新規,0,2025-06-26,2025-06-26,合同会社ＦＡＴ,,合同会社,広島県,広島市中区,大手町１丁目１－２０相生橋ビル７階Ａ号室,,34,101,7300051,,,,,,,2025-06-26,1,,,,,ファット,0
1714,8260001040301,新規,0,2025-06-26,2025-06-26,株式会社井上総合警備コンサルティング,,株式会社,岡山県,岡山市北区,御津高津１７７３番地３,,33,101,7092124,,,,,,,2025-06-26,1,,,,,イノウエソウゴウケイビコンサルティング,0
1715,8260003005228,新規,0,2025-06-26,2025-06-26,合同会社ライチェ,,合同会社,岡山県,岡山市北区,表町１丁目１番８号ライオンズタワー岡山表町８０４,,33,101,7000822,,,,,,,2025-06-26,1,,,,,ライチェ,0
1723,8290003017039,新規,0,2025-06-26,2025-06-26,合同会社Ｒａｃｃｏｏｎ,,合同会社,福岡県,福岡市中央区,清川１丁目２番２１－９０３号ラ・ペール・モリ,,40,133,8100005,,,,,,,2025-06-26,1,,,,,ラクーン,0
1727,8310003005032,新規,0,2025-06-26,2025-06-26,合同会社想創舎,,合同会社,長崎県,南島原市,口之津町丁５３８３,,42,214,8592503,,,,,,,2025-06-26,1,,,,,ソウソウシャ,0
1728,8320001021179,新規,0,2025-06-26,2025-06-26,株式会社ＫＡＺＵ企画,,株式会社,大分県,日田市,田島２丁目１１番５０号サングリーン大原１０１,,44,204,8770025,,,,,,,2025-06-26,1,,,,,カズキカク,0
1733,8340001027463,新規,0,2025-06-26,2025-06-26,未来建設株式会社,,株式会社,鹿児島県,日置市,東市来町湯田２１６９－２,,46,216,8992201,,,,,,,2025-06-26,1,,,,,ミライケンセツ,0
1740,8370003007155,新規,0,2025-06-26,2025-06-26,合同会社生きがい工房,,合同会社,宮城県,仙台市太白区,八木山香澄町３－１１八木山ヒルズ１０１号,,04,104,9820831,,,,,,,2025-06-26,1,,,,,イキガイコウボウ,0
1749,8700150131269,新規,0,2025-06-26,2025-06-26,Ｇｒｅａｔ　Ｐａｒｔｎｅｒｓ　Ｌｉｍｉｔｅｄ,,外国会社等,,,,,,,,ＵＮＩＴ　１６０６，１６／Ｆ　ＣＩＴＩＣＯＲＰ　ＣＴＲ，ＮＯ　１８　ＷＨＩＴＦＩＥＬＤ　ＲＤ，ＣＡＵＳＥＷＡＹ　ＢＡＹ，ＨＯＮＧ　ＫＯＮＧ,,,,,,2025-06-26,1,,,,,グレイトパートナーズ,0
1750,8700150131277,新規,0,2025-06-26,2025-06-26,ＷＡＺＺＡＮ　ＭＯＴＯＲＳ,,外国会社等,千葉県,東金市,上布田５３８－１－Ｊ,,12,213,2830834,スリランカ民主社会主義共和国、ＮＯ．５２１、ガラハロード、ゲタンベ,,,,,,2025-06-26,1,,,,,ワツザンモータース,0
1767,9010005040247,新規,0,2025-06-26,2025-06-26,一般社団法人ＳＴＡＹ８,,その他の設立登記法人,東京都,中央区,京橋２丁目１２番６号ＡＯＪ税理士法人内,,13,102,1040031,,,,,,,2025-06-26,1,,,,,ステイエイト,0
1768,9010005040255,新規,0,2025-06-26,2025-06-26,アゼーリア一般社団法人,,その他の設立登記法人,東京都,中央区,日本橋１丁目４番１号日本橋一丁目ビルディング,,13,102,1030027,,,,,,,2025-06-26,1,,,,,アゼーリア,0
1774,9010401191288,新規,0,2025-06-26,2025-06-26,株式会社Ｌｙｃｈｅｅ,,株式会社,東京都,港区,六本木３丁目１６番１２号六本木ＫＳビル５Ｆ,,13,103,1060032,,,,,,,2025-06-26,1,,,,,ライチ,0
1775,9010401191296,新規,0,2025-06-26,2025-06-26,株式会社Ａｎｍｏｒｅ,,株式会社,東京都,港区,新橋６丁目１３番９号１階,,13,103,1050004,,,,,,,2025-06-26,1,,,,,アンモア,0
1776,9010405024469,新規,0,2025-06-26,2025-06-26,ジー・エイ・ワン・レジデンス・トゥエルブ特定目的会社,,その他の設立登記法人,東京都,港区,虎ノ門５丁目１番４号,,13,103,1050001,,,,,,,2025-06-26,1,,,,,ジーエイワンレジデンストゥエルブ,0
1783,9010705003767,新規,0,2025-06-26,2025-06-26,一般社団法人昭和医科大学薬学部同窓会,,その他の設立登記法人,東京都,品川区,旗の台２丁目２番１５号,,13,109,1420064,,,,,,,2025-06-26,1,,,,,ショウワイカダイガクヤクガクブドウソウカイ,0
1785,9010801036258,新規,0,2025-06-26,2025-06-26,エスエムピー株式会社,,株式会社,東京都,大田区,仲池上１丁目２４番地２２号４１０号室,,13,111,1460081,,,,,,,2025-06-26,1,,,,,エスエムピー,0
1786,9010801036282,新規,0,2025-06-26,2025-06-26,株式会社オービットデザイン,,株式会社,東京都,大田区,南馬込４丁目３番４号,,13,111,1430025,,,,,,,2025-06-26,1,,,,,オービットデザイン,0
1790,9010901057625,新規,0,2025-06-26,2025-06-26,株式会社ＣＫプランニング,,株式会社,東京都,世田谷区,桜新町１丁目１０番８号,,13,112,1540015,,,,,,,2025-06-26,1,,,,,シーケープランニング,0
1791,9010903010037,新規,0,2025-06-26,2025-06-26,合同会社ＧＵＩＤＥＰＯＳＴ,,合同会社,東京都,世田谷区,豪徳寺１丁目５１番１７号,,13,112,1540021,,,,,,,2025-06-26,1,,,,,ガイドポスト,0
1798,9011001170467,新規,0,2025-06-26,2025-06-26,株式会社ブッパ,,株式会社,東京都,目黒区,祐天寺１丁目１－１,,13,110,1530052,,,,,,,2025-06-26,1,,,,,ブッパ,0
1802,9011101112187,新規,0,2025-06-26,2025-06-26,株式会社マルシェデコール,,株式会社,東京都,新宿区,岩戸町１７番地文英堂ビル９０２号,,13,104,1620832,,,,,,,2025-06-26,1,,,,,マルシェデコール,0
1804,9011103016031,新規,0,2025-06-26,2025-06-26,合同会社正直スタジオ,,合同会社,東京都,新宿区,西新宿７丁目２１－９,,13,104,1600023,,,,,,,2025-06-26,1,,,,,ショウジキスタジオ,0
1807,9011401027201,新規,0,2025-06-26,2025-06-26,株式会社熹禾,,株式会社,東京都,板橋区,大山町３４番９号,,13,119,1730023,,,,,,,2025-06-26,1,,,,,キカ,0
1812,9011601028759,新規,0,2025-06-26,2025-06-26,株式会社カイログループ,,株式会社,東京都,練馬区,春日町６丁目１６番１１号フォーチュン光が丘２６６号室,,13,120,1790074,,,,,,,2025-06-26,1,,,,,カイログループ,0
1824,9012701018930,新規,0,2025-06-26,2025-06-26,株式会社ｋｒａｍ,,株式会社,東京都,東村山市,萩山町２丁目２３番地１,,13,213,1890012,,,,,,,2025-06-26,1,,,,,クラム,0
1827,9013301005229,新規,0,2025-06-26,2025-06-26,株式会社システムアップ,,株式会社,東京都,豊島区,南大塚３丁目５０番１号南大塚ビル,,13,116,1700005,,,,,,,2025-06-26,1,,,,,システムアップ,0
1830,9020001163546,新規,0,2025-06-26,2025-06-26,ノーブルコア株式会社,,株式会社,神奈川県,横浜市鶴見区,矢向３丁目３６番１５－１号,,14,101,2300001,,,,,,,2025-06-26,1,,,,,ノーブルコア,0
1833,9020005016915,新規,0,2025-06-26,2025-06-26,一般社団法人山王森,,その他の設立登記法人,神奈川県,横浜市神奈川区,西神奈川２丁目５番１号東白楽山王森ビル１階,,14,102,2210822,,,,,,,2025-06-26,1,,,,,サンノウモリ,0
1836,9021001085607,新規,0,2025-06-26,2025-06-26,株式会社桜送業,,株式会社,神奈川県,愛甲郡愛川町,中津１１８０番地の２２,,14,401,2430303,,,,,,,2025-06-26,1,,,,,サクラソウギョウ,0
1837,9021001085631,新規,0,2025-06-26,2025-06-26,株式会社青島建築,,株式会社,神奈川県,伊勢原市,白根３２７番地の４,,14,214,2591147,,,,,,,2025-06-26,1,,,,,アオシマケンチク,0
1842,9030001167257,新規,0,2025-06-26,2025-06-26,株式会社ＵＮＯ,,株式会社,埼玉県,越谷市,新越谷１丁目５３番地１０,,11,222,3430857,,,,,,,2025-06-26,1,,,,,ウノ,0
1843,9030001167265,新規,0,2025-06-26,2025-06-26,株式会社Ｂｕｓｙ,,株式会社,埼玉県,春日部市,備後東２丁目１９番１３号,,11,214,3440032,,,,,,,2025-06-26,1,,,,,ビジー,0
1844,9030001167298,新規,0,2025-06-26,2025-06-26,株式会社さどやま設備,,株式会社,埼玉県,狭山市,大字北入曽１２６番地１５,,11,215,3501315,,,,,,,2025-06-26,1,,,,,サドヤマセツビ,0
1845,9030001167315,新規,0,2025-06-26,2025-06-26,株式会社Ｌｉｅｎ　Ｃｌａｉｒ,,株式会社,埼玉県,さいたま市大宮区,大門町３丁目１９８番地１９,,11,103,3300846,,,,,,,2025-06-26,1,,,,,リアンクレール,0
1853,9040003027912,新規,0,2025-06-26,2025-06-26,フジイ合同会社,,合同会社,千葉県,松戸市,上矢切１１５８番地の５,,12,207,2710094,,,,,,,2025-06-26,1,,,,,フジイ,0
1854,9040003027929,新規,0,2025-06-26,2025-06-26,ＱＨ６８合同会社,,合同会社,千葉県,茂原市,茂原字東出口５９１番地６－１階,,12,210,2970026,,,,,,,2025-06-26,1,,,,,キューエイチロクハチ,0
1855,9040003027961,新規,0,2025-06-26,2025-06-26,合同会社プレジールセラヴィー,,合同会社,千葉県,市原市,五井中央西１丁目２－４第６東洋ビル３階,,12,219,2900081,,,,,,,2025-06-26,1,,,,,プレジールセラヴィー,0
1867,9070001043058,新規,0,2025-06-26,2025-06-26,株式会社リワークス,,株式会社,群馬県,太田市,脇屋町７１０番１,,10,205,3730031,,,,,,,2025-06-26,1,,,,,リワークス,0
1875,9100003008245,新規,0,2025-06-26,2025-06-26,合同会社スリーステップアップ,,合同会社,長野県,安曇野市,堀金烏川３２９８－１,,20,220,3998211,,,,,,,2025-06-26,1,,,,,スリーステップアップ,0
1887,9120001277096,新規,0,2025-06-26,2025-06-26,東友株式会社,,株式会社,大阪府,大阪市浪速区,恵比須西二丁目６番９号５Ｆ,,27,111,5560000,,,,,,,2025-06-26,1,,,,,トウユウ,0
1888,9120001277138,新規,0,2025-06-26,2025-06-26,新和株式会社,,株式会社,大阪府,大阪市東淀川区,北江口２丁目１５番３１号２階,,27,114,5330002,,,,,,,2025-06-26,1,,,,,シンワ,0
1889,9120001277170,新規,0,2025-06-26,2025-06-26,株式会社ＲＵＫＵＭＩ,,株式会社,大阪府,大阪市淀川区,十八条１丁目６番１５－１２０３号,,27,123,5320001,,,,,,,2025-06-26,1,,,,,ルクミ,0
1890,9120001277187,新規,0,2025-06-26,2025-06-26,マリンハート株式会社,,株式会社,大阪府,大阪市中央区,谷町５丁目５番２－２１４号,,27,128,5400012,,,,,,,2025-06-26,1,,,,,マリンハート,0
1891,9120001277286,新規,0,2025-06-26,2025-06-26,株式会社Ｉｎｎｅｒ　Ｌａｂ,,株式会社,大阪府,大阪市中央区,南船場３丁目２番２２号おおきに南船場ビル２０５,,27,128,5420081,,,,,,,2025-06-26,1,,,,,インナーラボ,0
1892,9120003029859,新規,0,2025-06-26,2025-06-26,合同会社Ａｔ　Ｄｅｅｐ,,合同会社,大阪府,大阪市北区,梅田１丁目１－３大阪駅前第３ビル２９階１－１－１号室,,27,127,5300001,,,,,,,2025-06-26,1,,,,,アットディープ,0
1893,9122001039402,新規,0,2025-06-26,2025-06-26,株式会社ＭＵＳＵＢＩ,,株式会社,大阪府,東大阪市,大蓮北３丁目１番２５号ボンサンテ１階,,27,227,5770826,,,,,,,2025-06-26,1,,,,,ムスビ,0
1896,9130001079921,新規,0,2025-06-26,2025-06-26,株式会社ＳＩＧ,,株式会社,京都府,京都市下京区,大黒町２２７番地第２キョートビル４０２,,26,106,6008043,,,,,,,2025-06-26,1,,,,,エスアイジー,0
1897,9130001079979,新規,0,2025-06-26,2025-06-26,株式会社創工舎,,株式会社,京都府,京都市中京区,壬生西檜町１６番地１,,26,104,6048846,,,,,,,2025-06-26,1,,,,,ソウコウシャ,0
1898,9130003010561,新規,0,2025-06-26,2025-06-26,ＫｙｏＦｌｏｗ合同会社,,合同会社,京都府,京都市南区,東九条中御霊町５３ＪｏｈｎｓｏｎビルＡ５,,26,107,6018027,,,,,,,2025-06-26,1,,,,,キョウフロー,0
1902,9140001139063,新規,0,2025-06-26,2025-06-26,株式会社ＳＯＵ　ｌｉｆｅ,,株式会社,兵庫県,神戸市東灘区,西岡本３丁目２番１－４０１号,,28,101,6580073,,,,,,,2025-06-26,1,,,,,ソウライフ,0
1913,9180001167440,新規,0,2025-06-26,2025-06-26,株式会社中部サービス,,株式会社,愛知県,津島市,柳原町２丁目５０番地１,,23,208,4960046,,,,,,,2025-06-26,1,,,,,チュウブサービス,0
1914,9180001167457,新規,0,2025-06-26,2025-06-26,株式会社ｔｏｍｏｎｉ,,株式会社,愛知県,名古屋市守山区,西川原町８６番地の４,,23,113,4630089,,,,,,,2025-06-26,1,,,,,トモニ,0
1918,9180003028657,新規,0,2025-06-26,2025-06-26,合同会社Ｃｏ‐ｏｐｅｒａｔｉｏｎ,,合同会社,愛知県,名古屋市中区,丸の内２丁目１６番３号丸の内Ａ・Ｔビル４階,,23,106,4600002,,,,,,,2025-06-26,1,,,,,コーオペレーション,0
1939,9260001040300,新規,0,2025-06-26,2025-06-26,株式会社Ｌｉｅ,,株式会社,岡山県,倉敷市,西坂１０９４番地,,33,202,7100004,,,,,,,2025-06-26,1,,,,,リー,0
1945,9290001110513,新規,0,2025-06-26,2025-06-26,株式会社ＳＨクリエイト,,株式会社,福岡県,福岡市南区,高宮３丁目１９番２２号,,40,134,8150083,,,,,,,2025-06-26,1,,,,,エスエイチクリエイト,0
1949,9300001014241,新規,0,2025-06-26,2025-06-26,株式会社ボレロ,,株式会社,佐賀県,唐津市,菜畑４０６２番地１,,41,202,8470844,,,,,,,2025-06-26,1,,,,,ボレロ,0
1958,9360003015050,新規,0,2025-06-26,2025-06-26,合同会社Ｔａｃｋｗｏｒｔｈ,,合同会社,沖縄県,うるま市,字喜屋武７８ＵＲＵＭＡテラス７０１号室,,47,213,9042225,,,,,,,2025-06-26,1,,,,,タックワース,0
1960,9370001052747,新規,0,2025-06-26,2025-06-26,株式会社晴天,,株式会社,宮城県,登米市,迫町佐沼字梅ノ木１丁目４番地２１,,04,212,9870511,,,,,,,2025-06-26,1,,,,,セイテン,0
1961,9380001035404,新規,0,2025-06-26,2025-06-26,株式会社Ｎｅｘｔ　Ｉｎｎｏｖａｔｉｏｎ,,株式会社,福島県,郡山市,駅前２丁目３－７エリート３０ビル２Ｆ／３Ｆ,,07,203,9638002,,,,,,,2025-06-26,1,,,,,ネクストイノベーション,0
1962,9380001035412,新規,0,2025-06-26,2025-06-26,株式会社ＳＴＫ,,株式会社,福島県,双葉郡大熊町,大字小入野字西大和久４１８番地１メゾンウエストＫ棟,,07,545,9791302,,,,,,,2025-06-26,1,,,,,エスティーケー,0
1964,9400003003488,新規,0,2025-06-26,2025-06-26,合同会社ＡＬＢＡＴＲＵＳ,,合同会社,岩手県,遠野市,早瀬町３丁目１５番３４号,,03,208,0280542,,,,,,,2025-06-26,1,,,,,アルバトラス,0
1971,9430003017808,新規,0,2025-06-26,2025-06-26,合同会社ＳＡＳＵＫＥ　ＦＵＴＵＲＥ,,合同会社,北海道,岩見沢市,幌向南一条１丁目１３番地１,,01,210,0690371,,,,,,,2025-06-26,1,,,,,サスケフューチャー,0
1979,9700150131276,新規,0,2025-06-26,2025-06-26,ＭＡＡＳ　ＭＯＴＯＲＳ　ＥＮＴＥＲＰＲＩＳＥＳ,,外国会社等,神奈川県,厚木市,関口１０１３－１コーポ一心１－１０６,,14,212,2430804,スリランカ民主社会主義共和国，アクラナ、デュヌヴィラロード、１マイルポストＮＯ．７２,,,,,,2025-06-26,1,,,,,マーズモータースエンタープライズ,0
