sequenceNumber,corporateNumber,process,correct,updateDate,changeDate,name,nameImageId,kind,prefectureName,cityName,streetNumber,addressImageId,prefectureCode,cityCode,postCode,addressOutside,addressOutsideImageId,closeDate,closeCause,successorCorporateNumber,changeCause,assignmentDate,latest,enName,enPrefectureName,enCityName,enAddressOutside,furigana,hihyoji
10,1010001238174,新規,0,2023-09-06,2023-09-06,株式会社ななぼし,,株式会社,東京都,中央区,新川２丁目２８番４号ＡＲＲＯＷＳＡＬＳＨＩＮＫＡＷＡ３０２,,13,102,1040033,,,,,,,2023-09-06,1,,,,,ナナボシ,0
11,1010001238190,新規,0,2023-09-06,2023-09-06,株式会社ＣＫＳ,,株式会社,東京都,中央区,銀座１丁目１２番４号Ｎ＆ＥＢＬＤ．７階,,13,102,1040061,,,,,,,2023-09-06,1,,,,,シーケーエス,0
12,1010001238199,新規,0,2023-09-06,2023-09-06,ＣＥＦ　Ｈ２株式会社,,株式会社,東京都,千代田区,平河町１丁目７番１６号,,13,101,1020093,,,,,,,2023-09-06,1,,,,,シーイーエフエイチツー,0
13,1010001238208,新規,0,2023-09-06,2023-09-06,ＫＣＭ株式会社,,株式会社,東京都,千代田区,霞が関３丁目２番１号,,13,101,1000013,,,,,,,2023-09-06,1,,,,,ケーシーエム,0
14,1010001238240,新規,0,2023-09-06,2023-09-06,株式会社虎幸,,株式会社,東京都,中央区,銀座７丁目１３番６号サガミビル２階,,13,102,1040061,,,,,,,2023-09-06,1,,,,,コユキ,0
15,1010003041568,新規,0,2023-09-06,2023-09-06,シェルパグループ合同会社,,合同会社,東京都,千代田区,丸の内３丁目２番２号丸の内二重橋ビル２階,,13,101,1000005,,,,,,,2023-09-06,1,,,,,シェルパグループ,0
16,1010003041584,新規,0,2023-09-06,2023-09-06,合同会社パールハウス１,,合同会社,東京都,千代田区,丸の内３丁目１番１号東京共同会計事務所内,,13,101,1000005,,,,,,,2023-09-06,1,,,,,パールハウスワン,0
19,1010401176866,新規,0,2023-09-06,2023-09-06,Ｈｏｗｄｅｎ　Ｇｒｏｕｐ　Ｊａｐａｎ　Ｈｏｌｄｉｎｇｓ株式会社,,株式会社,東京都,港区,六本木７丁目２１－２４,,13,103,1060032,,,,,,,2023-09-06,1,,,,,ハウデングループジャパンホールディングス,0
20,1010401176940,新規,0,2023-09-06,2023-09-06,株式会社ＪＯＢＶＲ,,株式会社,東京都,港区,西麻布２丁目１３番１９号,,13,103,1060031,,,,,,,2023-09-06,1,,,,,ジョブブイアール,0
21,1010401176949,新規,0,2023-09-06,2023-09-06,株式会社新日本住開発,,株式会社,東京都,港区,六本木４丁目３番１１号,,13,103,1060032,,,,,,,2023-09-06,1,,,,,シンニホンジュウカイハツ,0
24,1010403030864,新規,0,2023-09-06,2023-09-06,合同会社ピクセルワン,,合同会社,東京都,港区,北青山１丁目３番１号アールキューブ青山３階,,13,103,1070061,,,,,,,2023-09-06,1,,,,,ピクセルワン,0
25,1010501050995,新規,0,2023-09-06,2023-09-06,日本翔晴株式会社,,株式会社,東京都,台東区,元浅草１丁目２０番９号ＥｓｔａｔｅＯｎｅＢＬＤ．４０２,,13,106,1110041,,,,,,,2023-09-06,1,,,,,ニホンショウセイ,0
26,1010501051011,新規,0,2023-09-06,2023-09-06,株式会社アムス,,株式会社,東京都,台東区,清川１丁目２８－４ぱんだハウス南千住３０６号室,,13,106,1110022,,,,,,,2023-09-06,1,,,,,アムス,0
28,1010503007151,新規,0,2023-09-06,2023-09-06,Ｔｅｋｋｅｒｓ合同会社,,合同会社,東京都,台東区,三筋１丁目１７番１１―７０２号ルフォンプログレ蔵前ナチュール,,13,106,1110055,,,,,,,2023-09-06,1,,,,,テッカーズ,0
34,1010701044789,新規,0,2023-09-06,2023-09-06,株式会社Ｆｒａｎｋｅｌ,,株式会社,東京都,品川区,東五反田１丁目７番１１号ＡＩＯＳ五反田アネックス３０３,,13,109,1410022,,,,,,,2023-09-06,1,,,,,フランケル,0
35,1010701044797,新規,0,2023-09-06,2023-09-06,株式会社食の人,,株式会社,東京都,品川区,東大井１丁目１３番５－５０３号,,13,109,1400011,,,,,,,2023-09-06,1,,,,,ショクノヒト,0
36,1010701044814,新規,0,2023-09-06,2023-09-06,株式会社Ｇａｌａｘｙ　ＳＴＡＲ,,株式会社,東京都,品川区,南大井３丁目１８番７号ＨＡＭＯＮＥ５０１,,13,109,1400013,,,,,,,2023-09-06,1,,,,,ギャラクシースター,0
37,1010703006853,新規,0,2023-09-06,2023-09-06,オガワ合同会社,,合同会社,東京都,品川区,荏原４丁目１番１８号ユニックスウチダ３０１,,13,109,1420063,,,,,,,2023-09-06,1,,,,,オガワ,0
39,1010805003055,新規,0,2023-09-06,2023-09-06,医療法人社団綾仁会,,その他の設立登記法人,東京都,大田区,中央１丁目１７番４号ＣＡＳＡＤＥＬＳＵＲ１階,,13,111,1430024,,,,,,,2023-09-06,1,,,,,リョウジンカイ,0
44,1010901053763,新規,0,2023-09-06,2023-09-06,株式会社Ａｎｉｖｅｒｓｅ,,株式会社,東京都,世田谷区,船橋５丁目９－２桜月ハウス１Ｆ,,13,112,1560055,,,,,,,2023-09-06,1,,,,,アニバース,0
52,1011001156580,新規,0,2023-09-06,2023-09-06,ＰＢＡ　Ｓｙｓｔｅｍｓ　Ｊａｐａｎ株式会社,,株式会社,東京都,渋谷区,神宮前６丁目２３番４号桑野ビル２階,,13,113,1500001,,,,,,,2023-09-06,1,,,,,ピービーエーシステムズジャパン,0
53,1011001156746,新規,0,2023-09-06,2023-09-06,株式会社クレムリン,,株式会社,東京都,渋谷区,円山町６番１５号,,13,113,1500044,,,,,,,2023-09-06,1,,,,,クレムリン,0
54,1011001156779,新規,0,2023-09-06,2023-09-06,株式会社小渕喜幸写真事務所,,株式会社,東京都,目黒区,東山１丁目３０番６号Ｍ．ＭＡＮＯＲ２０５,,13,110,1530043,,,,,,,2023-09-06,1,,,,,オブチヨシユキシャシンジムショ,0
57,1011003017319,新規,0,2023-09-06,2023-09-06,合同会社Ｂａｎｉｇｏ,,合同会社,東京都,目黒区,緑が丘１丁目２１－２２,,13,110,1520034,,,,,,,2023-09-06,1,,,,,バニゴ,0
70,1011101104225,新規,0,2023-09-06,2023-09-06,株式会社ｄｉｇｓｙ,,株式会社,東京都,新宿区,西新宿１丁目２２番２号,,13,104,1600023,,,,,,,2023-09-06,1,,,,,ディグシー,0
71,1011101104233,新規,0,2023-09-06,2023-09-06,株式会社フィールドウォーター,,株式会社,東京都,新宿区,四谷３丁目７番四谷三丁目ビル１階,,13,104,1600004,,,,,,,2023-09-06,1,,,,,フィールドウォーター,0
72,1011101104241,新規,0,2023-09-06,2023-09-06,株式会社百重,,株式会社,東京都,新宿区,神楽坂３丁目２番８号神楽坂三丁目ビル２Ｆ,,13,104,1620825,,,,,,,2023-09-06,1,,,,,ヒャクジュウ,0
73,1011103013440,新規,0,2023-09-06,2023-09-06,フューチャーコミュニティ合同会社,,合同会社,東京都,新宿区,北新宿３丁目２２番１０－１１４号,,13,104,1690074,,,,,,,2023-09-06,1,,,,,フューチャーコミュニティ,0
74,1011105010766,新規,0,2023-09-06,2023-09-06,医療法人社団ＦＯＲ　ＤＡＹＳ,,その他の設立登記法人,東京都,新宿区,新宿４丁目４番１号第１スカイビル３０１号室,,13,104,1600022,,,,,,,2023-09-06,1,,,,,フォーデイズ,0
76,1011401025419,新規,0,2023-09-06,2023-09-06,Ｓｕｎ　Ｆｅｔｃｈ株式会社,,株式会社,東京都,板橋区,蓮根２丁目２０番１７号トップ蓮根２０４号,,13,119,1740046,,,,,,,2023-09-06,1,,,,,サンフェッチ,0
82,1011601027099,新規,0,2023-09-06,2023-09-06,ぷに株式会社,,株式会社,東京都,練馬区,氷川台２丁目３番１－１０３号,,13,120,1790084,,,,,,,2023-09-06,1,,,,,プニ,0
90,1011801042996,新規,0,2023-09-06,2023-09-06,株式会社大八建設工業,,株式会社,東京都,葛飾区,細田４丁目３６番１１号,,13,122,1240021,,,,,,,2023-09-06,1,,,,,ダイハチケンセツコウギョウ,0
93,1012301013579,新規,0,2023-09-06,2023-09-06,株式会社ｇｒｏｗｗ,,株式会社,東京都,町田市,金井ヶ丘１丁目２８番８号,,13,209,1950076,,,,,,,2023-09-06,1,,,,,,0
94,1012303001870,新規,0,2023-09-06,2023-09-06,合同会社ユウユウラボ,,合同会社,東京都,町田市,南成瀬４丁目１２番地２グランドテラス南成瀬２０４,,13,209,1940045,,,,,,,2023-09-06,1,,,,,ユウユウラボ,0
98,1012403006150,新規,0,2023-09-06,2023-09-06,フィーユ・メディア合同会社,,合同会社,東京都,調布市,仙川町２丁目１８番地３浜島ハイツ２０５,,13,208,1820002,,,,,,,2023-09-06,1,,,,,フィーユメディア,0
99,1012403006159,新規,0,2023-09-06,2023-09-06,合同会社マクタ,,合同会社,東京都,三鷹市,牟礼４丁目１３番７号,,13,204,1810002,,,,,,,2023-09-06,1,,,,,マクタ,0
100,1012405004895,新規,0,2023-09-06,2023-09-06,一般社団法人Ｔａｍａ‐Ｃｉｔｙ　Ｂａｓｋｅｔｂａｌｌ　Ｃｌｕｂ,,その他の設立登記法人,東京都,多摩市,貝取１丁目５０番地の２,,13,224,2060012,,,,,,,2023-09-06,1,,,,,タマシティバスケットボールクラブ,0
101,1012701017824,新規,0,2023-09-06,2023-09-06,株式会社Ａｃｅ,,株式会社,東京都,東村山市,久米川町３丁目６番地３６,,13,213,1890003,,,,,,,2023-09-06,1,,,,,エース,0
104,1012801022609,新規,0,2023-09-06,2023-09-06,株式会社ＲＯＳＳＯ,,株式会社,東京都,立川市,一番町６丁目１３番地の４０ＭＫビル３階,,13,202,1900033,,,,,,,2023-09-06,1,,,,,ロッソ,0
105,1013101009239,新規,0,2023-09-06,2023-09-06,株式会社ＣＹＡＮ,,株式会社,東京都,西多摩郡奥多摩町,氷川１４１５番地,,13,308,1980212,,,,,,,2023-09-06,1,,,,,,0
106,1013301051296,新規,0,2023-09-06,2023-09-06,株式会社悠喜,,株式会社,東京都,豊島区,巣鴨２丁目１番２号太平味のビル４階,,13,116,1700002,,,,,,,2023-09-06,1,,,,,ユウキ,0
111,1020001153315,新規,0,2023-09-06,2023-09-06,株式会社ｈａｎａ,,株式会社,神奈川県,横浜市西区,みなとみらい４丁目７番１－６１３号,,14,103,2200012,,,,,,,2023-09-06,1,,,,,ハナ,0
112,1020001153331,新規,0,2023-09-06,2023-09-06,株式会社吉田管工,,株式会社,神奈川県,川崎市高津区,千年新町４５番地千年新町住宅２号棟２０６,,14,134,2130021,,,,,,,2023-09-06,1,,,,,ヨシダカンコウ,0
113,1020001153372,新規,0,2023-09-06,2023-09-06,株式会社スタジオ・トライ,,株式会社,神奈川県,川崎市宮前区,小台１丁目２番地１０－１０７,,14,136,2160007,,,,,,,2023-09-06,1,,,,,スタジオトライ,0
114,1020001153380,新規,0,2023-09-06,2023-09-06,株式会社明峻工業,,株式会社,神奈川県,川崎市川崎区,大師本町１１番９号,,14,131,2100817,,,,,,,2023-09-06,1,,,,,メイシュンコウギョウ,0
115,1020001153389,新規,0,2023-09-06,2023-09-06,遠藤ラボ株式会社,,株式会社,神奈川県,横浜市泉区,緑園２丁目３３番地の１,,14,116,2450002,,,,,,,2023-09-06,1,,,,,エンドウラボ,0
119,1020003024539,新規,0,2023-09-06,2023-09-06,合同会社ＹＯＤ,,合同会社,神奈川県,横浜市戸塚区,川上町１６７番地１サバービアＢ－１Ｄ,,14,110,2440805,,,,,,,2023-09-06,1,,,,,ワイオウディ,0
133,1030001155608,新規,0,2023-09-06,2023-09-06,オフィスソリューション株式会社,,株式会社,埼玉県,三郷市,三郷３丁目２０番地２－１１０８号,,11,237,3410024,,,,,,,2023-09-06,1,,,,,オフィスソリューション,0
138,1030003022401,新規,0,2023-09-06,2023-09-06,合同会社Ｃｈｉｇｉｒｉ,,合同会社,埼玉県,川越市,大字笠幡３２５２番地２６,,11,201,3501175,,,,,,,2023-09-06,1,,,,,チギリ,0
139,1040001028358,新規,0,2023-09-06,2023-09-06,明電設備株式会社,,株式会社,千葉県,鎌ケ谷市,北中沢３丁目４番４３号,,12,224,2730111,,,,,,,2023-09-06,1,,,,,メイデンセツビ,0
148,1040001129668,新規,0,2023-09-06,2023-09-06,株式会社ＭＡＳＨ‐ＵＰ,,株式会社,千葉県,木更津市,太田２丁目１４番１７号,,12,206,2920044,,,,,,,2023-09-06,1,,,,,マッシュアップ,0
149,1040001129940,新規,0,2023-09-06,2023-09-06,株式会社ＳＵｉＳＵｉ,,株式会社,千葉県,柏市,手賀の杜２丁目６番地２,,12,217,2701447,,,,,,,2023-09-06,1,,,,,スイスイ,0
150,1040001129949,新規,0,2023-09-06,2023-09-06,株式会社ＷＡＮｔｏＯＮＥ,,株式会社,千葉県,八千代市,村上３５５５番地１９,,12,221,2760028,,,,,,,2023-09-06,1,,,,,ワントゥワン,0
151,1040001129957,新規,0,2023-09-06,2023-09-06,株式会社フジ化工サービス,,株式会社,千葉県,市川市,曽谷４丁目１０－４,,12,203,2720832,,,,,,,2023-09-06,1,,,,,フジカコウサービス,0
152,1040001129965,新規,0,2023-09-06,2023-09-06,株式会社齋藤七,,株式会社,千葉県,習志野市,実籾３丁目２６番２号,,12,216,2750002,,,,,,,2023-09-06,1,,,,,サイトウシチ,0
153,1040001129973,新規,0,2023-09-06,2023-09-06,株式会社ＮＥＸＳＩＡ,,株式会社,千葉県,柏市,弥生町５番７号,,12,217,2770015,,,,,,,2023-09-06,1,,,,,ネクシア,0
154,1040001129981,新規,0,2023-09-06,2023-09-06,株式会社五条建設,,株式会社,千葉県,木更津市,久津間９８０番地,,12,206,2920004,,,,,,,2023-09-06,1,,,,,ゴジョウケンセツ,0
157,1040003023241,新規,0,2023-09-06,2023-09-06,合同会社ハピゴラ,,合同会社,千葉県,印西市,原２丁目５番地Ｈ棟２０３号,,12,231,2701335,,,,,,,2023-09-06,1,,,,,ハピゴラ,0
158,1040003023258,新規,0,2023-09-06,2023-09-06,合同会社ＢＢＤ,,合同会社,千葉県,長生郡長生村,一松丁３５７０番地１,,12,423,2994324,,,,,,,2023-09-06,1,,,,,ビービーディー,0
159,1040003023266,新規,0,2023-09-06,2023-09-06,ＴＳアセット合同会社,,合同会社,千葉県,船橋市,宮本２丁目１番２４号,,12,204,2730003,,,,,,,2023-09-06,1,,,,,ティエスアセット,0
164,1050001053388,新規,0,2023-09-06,2023-09-06,ＴＳＳ株式会社,,株式会社,茨城県,東茨城郡茨城町,大字海老沢１１９２番地,,08,302,3113135,,,,,,,2023-09-06,1,,,,,ティーエスエス,0
168,1060001036301,新規,0,2023-09-06,2023-09-06,株式会社アルクマネジメント,,株式会社,栃木県,宇都宮市,本町１３番１４号丸井物産ビル４Ｆ,,09,201,3200033,,,,,,,2023-09-06,1,,,,,アルクマネジメント,0
169,1060001036326,新規,0,2023-09-06,2023-09-06,株式会社Ｃｏｃｏｋａｒａ,,株式会社,栃木県,宇都宮市,睦町６番１１号,,09,201,3200865,,,,,,,2023-09-06,1,,,,,ココカラ,0
176,1080101024195,新規,0,2023-09-06,2023-09-06,株式会社ほり多,,株式会社,静岡県,熱海市,西山町５番１３号,,22,205,4130034,,,,,,,2023-09-06,1,,,,,ホリタ,0
184,1110001037814,新規,0,2023-09-06,2023-09-06,株式会社ＭＰサービス,,株式会社,新潟県,糸魚川市,大字西川原２７２番地,,15,216,9410073,,,,,,,2023-09-06,1,,,,,エムピーサービス,0
190,1120001257667,新規,0,2023-09-06,2023-09-06,ＳＲ　Ｇｏｌｄｅｎ株式会社,,株式会社,大阪府,大阪市中央区,南船場２丁目１１番４－２０３号,,27,128,5420081,,,,,,,2023-09-06,1,,,,,エスアールゴールデン,0
191,1120001257873,新規,0,2023-09-06,2023-09-06,アーバンリグ株式会社,,株式会社,大阪府,大阪市生野区,田島６丁目１番７号,,27,116,5440011,,,,,,,2023-09-06,1,,,,,アーバンリグ,0
192,1120001257956,新規,0,2023-09-06,2023-09-06,株式会社アトリエコンマ,,株式会社,大阪府,大阪市西区,靱本町１丁目１３番１号日宝信濃橋ビル４０３,,27,106,5500004,,,,,,,2023-09-06,1,,,,,アトリエコンマ,0
193,1120001257964,新規,0,2023-09-06,2023-09-06,和城株式会社,,株式会社,大阪府,大阪市中央区,島之内２丁目１２－１５,,27,128,5420082,,,,,,,2023-09-06,1,,,,,ワセイ,0
200,1120003024842,新規,0,2023-09-06,2023-09-06,ＴＨトータルサービス合同会社,,合同会社,大阪府,大阪市北区,梅田１丁目２番２号大阪駅前第２ビル１２－１２,,27,127,5300001,,,,,,,2023-09-06,1,,,,,ティーエイチトータルサービス,0
201,1120005023850,新規,0,2023-09-06,2023-09-06,一般社団法人落語知育振興協会,,その他の設立登記法人,大阪府,大阪市浪速区,湊町２丁目２番２２－１１０６号,,27,111,5560017,,,,,,,2023-09-06,1,,,,,ラクゴチイクシンコウキョウカイ,0
202,1120005023859,新規,0,2023-09-06,2023-09-06,社会保険労務士法人ハセガワ事務所,,その他の設立登記法人,大阪府,枚方市,楠葉花園町３番１３－２０１号,,27,210,5731121,,,,,,,2023-09-06,1,,,,,ハセガワジムショ,0
205,1120101068130,新規,0,2023-09-06,2023-09-06,株式会社Ｈｕｎｇｒｙ　Ｄｏｇ,,株式会社,大阪府,貝塚市,石才９６番地６２,,27,208,5970082,,,,,,,2023-09-06,1,,,,,ハングリードッグ,0
206,1120101068139,新規,0,2023-09-06,2023-09-06,株式会社ニコテイル,,株式会社,大阪府,高石市,東羽衣３丁目４番２９－６０７号,,27,225,5920003,,,,,,,2023-09-06,1,,,,,ニコテイル,0
207,1120101068147,新規,0,2023-09-06,2023-09-06,株式会社ＳＨＩＮＥ,,株式会社,大阪府,松原市,新堂２丁目３２３番地の５,,27,217,5800015,,,,,,,2023-09-06,1,,,,,シャイン,0
208,1120101068163,新規,0,2023-09-06,2023-09-06,ｗｏｒｋ　ｌａｂ株式会社,,株式会社,大阪府,藤井寺市,野中１丁目９７番地の１第３セイワビル２－２Ｃ,,27,226,5830014,,,,,,,2023-09-06,1,,,,,ワークラボ,0
209,1120101068171,新規,0,2023-09-06,2023-09-06,株式会社ＢＡＢＹ　ＭＩＴＴＥＮ,,株式会社,大阪府,堺市東区,野尻町１３６番地３,,27,143,5998116,,,,,,,2023-09-06,1,,,,,ベイビーミトン,0
210,1120103005404,新規,0,2023-09-06,2023-09-06,Ｔ＆Ｍ合同会社,,合同会社,大阪府,泉南郡熊取町,久保２丁目１１２１番地の３,,27,361,5900441,,,,,,,2023-09-06,1,,,,,ティーアンドエム,0
211,1120103005412,新規,0,2023-09-06,2023-09-06,エイトストリーム合同会社,,合同会社,大阪府,和泉市,府中町４丁目５番１６号,,27,219,5940071,,,,,,,2023-09-06,1,,,,,エイトストリーム,0
214,1122001037347,新規,0,2023-09-06,2023-09-06,株式会社Ｍ,,株式会社,大阪府,東大阪市,玉串元町１丁目４－３０,,27,227,5780933,,,,,,,2023-09-06,1,,,,,エム,0
223,1130001075011,新規,0,2023-09-06,2023-09-06,株式会社ごみの学校,,株式会社,京都府,亀岡市,篠町見晴５丁目１８－７,,26,206,6210824,,,,,,,2023-09-06,1,,,,,ゴミノガッコウ,0
224,1130001075143,新規,0,2023-09-06,2023-09-06,株式会社ＷＯＮＤＥＲ　ＨＯＵＳＥ,,株式会社,京都府,京都市南区,唐橋経田町２５番地グローアップ１階,,26,107,6018454,,,,,,,2023-09-06,1,,,,,ワンダーハウス,0
225,1130001075192,新規,0,2023-09-06,2023-09-06,株式会社Ｌｉｅｎ,,株式会社,京都府,京都市西京区,桂上野西町２３１番地,,26,111,6158006,,,,,,,2023-09-06,1,,,,,リアン,0
229,1140005026736,新規,0,2023-09-06,2023-09-06,姫路駅前社会保険労務士法人,,その他の設立登記法人,兵庫県,姫路市,東延末１丁目４番地東亜ビル８Ｆ,,28,201,6700965,,,,,,,2023-09-06,1,,,,,ヒメジエキマエ,0
232,1160001025327,新規,0,2023-09-06,2023-09-06,ＮＫ株式会社,,株式会社,滋賀県,大津市,大萱１丁目１６番２９－１０２号,,25,201,5202144,,,,,,,2023-09-06,1,,,,,エヌケー,0
243,1180001157845,新規,0,2023-09-06,2023-09-06,株式会社さくら,,株式会社,愛知県,名古屋市中区,錦３丁目２０番１２号第８錦ビル本館４階－１,,23,106,4600003,,,,,,,2023-09-06,1,,,,,サクラ,0
244,1180001157853,新規,0,2023-09-06,2023-09-06,株式会社育心,,株式会社,愛知県,あま市,花長川内６６番地１,,23,237,4901204,,,,,,,2023-09-06,1,,,,,イクシン,0
245,1180001157886,新規,0,2023-09-06,2023-09-06,株式会社名古屋一獲千金,,株式会社,愛知県,名古屋市中区,上前津２丁目４番１１号ローレルアイ上前津１３０１号,,23,106,4600013,,,,,,,2023-09-06,1,,,,,ナゴヤイッカクセンキン,0
246,1180001157944,新規,0,2023-09-06,2023-09-06,Ｙｏｋａｉ　Ｄｉｓｃ株式会社,,株式会社,愛知県,春日井市,高蔵寺町４丁目７－２ＭＳビル２階２０２号室,,23,206,4870013,,,,,,,2023-09-06,1,,,,,ヨウカイディスク,0
249,1180003025694,新規,0,2023-09-06,2023-09-06,合同会社エニープロモーション,,合同会社,愛知県,名古屋市港区,七番町５丁目４番地９,,23,111,4550001,,,,,,,2023-09-06,1,,,,,エニープロモーション,0
250,1180005020339,新規,0,2023-09-06,2023-09-06,特定非営利活動法人しあわせ届け隊,,その他の設立登記法人,愛知県,名古屋市西区,比良４丁目９２番地１,,23,104,4520802,,,,,,,2023-09-06,1,,,,,シアワセトドケタイ,0
251,1190001030704,新規,0,2023-09-06,2023-09-06,株式会社カルティベイト,,株式会社,三重県,松阪市,嬉野下之庄町１６８８番地５,,24,204,5152354,,,,,,,2023-09-06,1,,,,,カルティベイト,0
254,1200003006072,新規,0,2023-09-06,2023-09-06,合同会社ｆｌｕａ,,合同会社,岐阜県,高山市,下岡本町３１８５番地２２,,21,203,5060052,,,,,,,2023-09-06,1,,,,,フルア,0
257,1230001019998,新規,0,2023-09-06,2023-09-06,円満株式会社,,株式会社,富山県,富山市,湊入船町３番３０号,,16,201,9300805,,,,,,,2023-09-06,1,,,,,エンマン,0
262,1240001062072,新規,0,2023-09-06,2023-09-06,株式会社ナベタ,,株式会社,広島県,広島市安芸区,船越５丁目２１番１４号,,34,107,7360081,,,,,,,2023-09-06,1,,,,,ナベタ,0
267,1260001038277,新規,0,2023-09-06,2023-09-06,株式会社ＴＩＥ,,株式会社,岡山県,倉敷市,庄新町９番１－１０号,,33,202,7010102,,,,,,,2023-09-06,1,,,,,タイ,0
273,1290001102880,新規,0,2023-09-06,2023-09-06,蒼翔工業株式会社,,株式会社,福岡県,大牟田市,天神町３番地１３,,40,202,8360015,,,,,,,2023-09-06,1,,,,,ソウショウコウギョウ,0
274,1290001102889,新規,0,2023-09-06,2023-09-06,株式会社Ｔｈｒｅｅ　Ａｒｒｏｗｓ,,株式会社,福岡県,福岡市西区,周船寺１丁目４番８号,,40,135,8190373,,,,,,,2023-09-06,1,,,,,スリーアローズ,0
275,1290001102955,新規,0,2023-09-06,2023-09-06,株式会社アーバンリサーチインベストメント,,株式会社,福岡県,福岡市早良区,西新２丁目２４番１７－６０１号,,40,137,8140002,,,,,,,2023-09-06,1,,,,,アーバンリサーチインベストメント,0
280,1290003014323,新規,0,2023-09-06,2023-09-06,合同会社Ｎｏａ,,合同会社,福岡県,大野城市,白木原２丁目３－３５北原ビル２０１号室,,40,219,8160943,,,,,,,2023-09-06,1,,,,,ノア,0
287,1320001019980,新規,0,2023-09-06,2023-09-06,株式会社ＮＥＣＳＴ,,株式会社,大分県,大分市,弁天２丁目５番３８号,,44,201,8700017,,,,,,,2023-09-06,1,,,,,ネクスト,0
291,1330001031217,新規,0,2023-09-06,2023-09-06,株式会社岡本建装,,株式会社,熊本県,熊本市北区,弓削１丁目２番６４号,,43,105,8618002,,,,,,,2023-09-06,1,,,,,オカモトケンソウ,0
292,1330001031225,新規,0,2023-09-06,2023-09-06,株式会社ＤｏｎＧｏ,,株式会社,熊本県,熊本市中央区,花畑町１番１４－３０１号,,43,101,8600806,,,,,,,2023-09-06,1,,,,,ダンゴ,0
294,1330005010695,新規,0,2023-09-06,2023-09-06,医療法人社団誠寛会,,その他の設立登記法人,熊本県,熊本市東区,三郎２丁目１番１７号,,43,102,8620922,,,,,,,2023-09-06,1,,,,,セイカンカイ,0
295,1340001025878,新規,0,2023-09-06,2023-09-06,株式会社ｍｏｒｉｓｈｏｋｕ,,株式会社,鹿児島県,指宿市,東方１６７６番地,,46,210,8910404,,,,,,,2023-09-06,1,,,,,モリショク,0
297,1340003004236,新規,0,2023-09-06,2023-09-06,合同会社のびやか育自の輪,,合同会社,鹿児島県,鹿児島市,坂之上６丁目１５番１１号,,46,201,8910150,,,,,,,2023-09-06,1,,,,,ノビヤカイクジノワ,0
300,1360003013268,新規,0,2023-09-06,2023-09-06,合同会社さくら清掃,,合同会社,沖縄県,名護市,字辺野古８１６番地１,,47,209,9052171,,,,,,,2023-09-06,1,,,,,サクラセイソウ,0
305,1370005010683,新規,0,2023-09-06,2023-09-06,協同組合第２編集部,,その他の設立登記法人,宮城県,仙台市青葉区,本町３丁目５番２２号宮城県管工事会館７階,,04,101,9800014,,,,,,,2023-09-06,1,,,,,ダイニヘンシュウブ,0
309,1380003005560,新規,0,2023-09-06,2023-09-06,Ａｃｅ合同会社,,合同会社,福島県,郡山市,日和田町高倉字鶴番２番地の２５３,,07,203,9630531,,,,,,,2023-09-06,1,,,,,エース,0
313,1400001016367,新規,0,2023-09-06,2023-09-06,株式会社Ｏｎｅ,,株式会社,岩手県,紫波郡紫波町,南日詰字箱清水５７番地１０,,03,321,0283317,,,,,,,2023-09-06,1,,,,,ワン,0
314,1400003003140,新規,0,2023-09-06,2023-09-06,合同会社米こやマルシェ,,合同会社,岩手県,奥州市,江刺田原字稲荷８９番地３,,03,215,0230171,,,,,,,2023-09-06,1,,,,,コメコヤマルシェ,0
315,1410001013586,新規,0,2023-09-06,2023-09-06,株式会社やなぎ薬局,,株式会社,秋田県,能代市,景林町９番２３号,,05,202,0160892,,,,,,,2023-09-06,1,,,,,ヤナギヤッキョク,0
317,1420001018394,新規,0,2023-09-06,2023-09-06,株式会社Ｎ・ダンケー,,株式会社,青森県,八戸市,大字中居林字狐森３番地２５,,02,203,0310002,,,,,,,2023-09-06,1,,,,,エヌダンケー,0
319,1420003002792,新規,0,2023-09-06,2023-09-06,合同会社マルミ電器,,合同会社,青森県,むつ市,大畑町本町３７番地１,,02,208,0394401,,,,,,,2023-09-06,1,,,,,マルミデンキ,0
320,1420005007864,新規,0,2023-09-06,2023-09-06,協同組合ウェルネスワークはちのへ協会,,その他の設立登記法人,青森県,八戸市,湊高台５丁目５番４号,,02,203,0310823,,,,,,,2023-09-06,1,,,,,ウェルネスワークハチノヘキョウカイ,0
322,1430003015406,新規,0,2023-09-06,2023-09-06,合同会社ネクスト,,合同会社,北海道,札幌市豊平区,福住一条７丁目２－１７－Ａ２０１号,,01,105,0620041,,,,,,,2023-09-06,1,,,,,ネクスト,0
323,1430003015414,新規,0,2023-09-06,2023-09-06,合同会社メタローグ,,合同会社,北海道,札幌市中央区,北一条西２３丁目２番１１－２０６号,,01,101,0640821,,,,,,,2023-09-06,1,,,,,メタローグ,0
327,1470003002482,新規,0,2023-09-06,2023-09-06,合同会社Ｔｉｅｒ２,,合同会社,香川県,三豊市,豊中町本山乙２８１番地１,,37,208,7691505,,,,,,,2023-09-06,1,,,,,ティアツー,0
330,1480001012202,新規,0,2023-09-06,2023-09-06,ストリームライン・スタジオ・ジャパン株式会社,,株式会社,徳島県,美馬市,脇町大字猪尻字西分９番地,,36,207,7793602,,,,,,,2023-09-06,1,,,,,ストリームラインスタジオジャパン,0
334,1490001010576,新規,0,2023-09-06,2023-09-06,株式会社フェリキア,,株式会社,高知県,高知市,朝倉丙１４９５番地１０,,39,201,7808063,,,,,,,2023-09-06,1,,,,,フェリキア,0
335,1490001010584,新規,0,2023-09-06,2023-09-06,株式会社Ｏｕｒｓ　ｂａｋｅｒｙ＆ｃｏ,,株式会社,高知県,高知市,南久万２０７番地６,,39,201,7800985,,,,,,,2023-09-06,1,,,,,ウルスベーカリーアンドコー,0
344,1700150114833,新規,0,2023-09-06,2023-09-06,ＳＨＥＮ　ＺＨＥＮ　ＳＨＩ　ＭＡＮ　ＷＡＮ　ＫＥ　ＪＩ　ＹＯＵ　ＸＩＡＮ　ＧＯＮＧ　ＳＩ,,外国会社等,,,,,,,,Ａｎｈｕａ　Ｃｏｍｍｕｎｉｔｙ，Ｎｏ．１８　Ｔａｉｒａｎ　８ｔｈ　Ｒｏａｄ，Ｒｍ６０７，Ｆｌｏｏｒ　６ｔｈ，Ｂｕｉｌｄｉｎｇ　６，Ｓｈｅｎｚｈｅｎ，Ｇｕａｎｇｄｏｎｇ，５１８０００　ＣＮ,,,,,,2023-09-06,1,,,,,シンセンシマンワンケージヨウシエンゴンス,0
345,1700150119824,新規,0,2023-09-06,2023-09-06,ｎｉｎｇｄｅｓｈｉ　ｔａｎｇｚｈｏｎｇｓｈａｎｇｍａｏ　ｙｏｕｘｉａｎｇｏｎｇｓｉ,,外国会社等,,,,,,,,ｊｉａｏｃｈｅｎｇｑｕｊｉａｏｃｈｅｎｇｎａｎｌｕ　ｂｏｊｉｎｈａｎ１＃７０３ｓｈｉ　ｎｉｎｇｄｅ　ｆｕｊｉａｎ　ＣＮ,,,,,,2023-09-06,1,,,,,ニンデェイシタンゾンシャンウユウゲンコウシ,0
346,1700150119832,新規,0,2023-09-06,2023-09-06,ＳＨＥＮＺＨＥＮＳＨＩ　ＲＵＮＫＡＩＣＨＵＡＮＧＸＩＮＫＥＪＩ　ＹＯＵＸＩＡＮＧＯＮＧＳＩ,,外国会社等,,,,,,,,ＢＡＮＴＩＡＮＪＩＥＤＡＯＺＨＯＮＧＸＩＮＬＵ１１ＨＡＯ　ＣＨＥＮＧＳＨＩＳＨＡＮＨＡＩＺＨＯＮＧＸＩＮＣＤＯＮＧ４ＬＯＵ４１８　ＬＯＮＧＧＡＮＧＱＵ　ＳＨＥＮＺＨＥＮＳＨＩ　５１８０００　ＣＮ,,,,,,2023-09-06,1,,,,,シンセンシルンカイツゥアンシンカギヨウシェンゴンスー,0
347,1700150119840,新規,0,2023-09-06,2023-09-06,ｓｈｅｎｚｈｅｎｓｈｉ　ｇａｎｘｉｎｇｑｕｋｅｊｉ　ｙｏｕｘｉａｎｇｏｎｇｓｉ,,外国会社等,,,,,,,,ｓｈｅｎｚｈｅｎｓｈｉｎａｎｓｈａｎｑｕｙｕｅｈａｉｊｉｅｄａｏｌｏｎｇｃｈｅｎｇｓｈｅｑｕｌｏｎｇｃｈｅｎｇｌｕ５ｈａｏｈｏｕｈａｉｈｕａｙｕａｎ６ｄｏｎｇ２０５　５１８０００　ＣＮ,,,,,,2023-09-06,1,,,,,シンセンシガンシンクカギヨウシェンゴンスー,0
348,1700150119849,新規,0,2023-09-06,2023-09-06,ＧＵＡＮＧＺＨＯＵ　ＷＥＩＴＡＯＷＡＮＧＬＵＯＸＩＮＸＩ　ＹＯＵＸＩＡＮＧＯＮＧＳＩ,,外国会社等,,,,,,,,Ｒｏｏｍ　１３０８，Ｎｏ．４　Ｈｕａｎｇｃｕｎ　Ｒｏａｄ　Ｔｉａｎｈｅ　Ｄｉｓｔｒｉｃｔ　Ｇｕａｎｇｚｈｏｕ,,,,,,2023-09-06,1,,,,,コウシュウウェイタオワンロシンシユウゲンコウシ,0
349,1700150119857,新規,0,2023-09-06,2023-09-06,ｓｈｅｎｚｈｅｎｓｈｉ　ｘｉｎｒｏｎｇｄｉａｎｚｉｓｈａｎｇｍａｏ　ｙｏｕｘｉａｎｇｏｎｇｓｉ,,外国会社等,,,,,,,,Ｓｈｅｎｚｈｅｎｓｈｉ　ｂａｏａｎｑｕ　Ｘｉｎ’ａｎｊｉｅｄａｏ　ｗｅｎｈｕｉｓｈｅｑｕ　ｑｉａｎｊｉｎｙｉｌｕ２６９ｈａｏ　ｇｕａｎｌｉｄａｄａｓｈａ１ｄｏｎｇ３０１－３３,,,,,,2023-09-06,1,,,,,シンセンシシンヨンデンシシャンマオユウゲンコウシ,0
350,1700150119865,新規,0,2023-09-06,2023-09-06,Ｏｒｔｕｒ　Ｔｅｃｈｎｏｌｏｇｙ　Ｈｏｎｇ　Ｋｏｎｇ　Ｌｉｍｉｔｅｄ,,外国会社等,,,,,,,,３９８　ＫＷＵＮ　ＴＯＮＧ　ＲＯＡＤ，ＫＷＵＮ　ＴＯＮＧ，ＵＮＩＴ　１５０７Ｃ，１５／Ｆ．，ＥＡＳＴＣＯＲＥ，ＫＯＷＬＯＯＮ　ＨＯＮＧ　ＫＯＮＧ　９９９０７７　ＨＫ,,,,,,2023-09-06,1,,,,,オルトウールテクノロジーホンコンリミテツド,0
360,2010001238157,新規,0,2023-09-06,2023-09-06,株式会社そらフル,,株式会社,東京都,中央区,東日本橋３丁目６番１２号,,13,102,1030004,,,,,,,2023-09-06,1,,,,,ソラフル,0
361,2010001238181,新規,0,2023-09-06,2023-09-06,株式会社ＤＲＫコンサルティング,,株式会社,東京都,中央区,日本橋浜町３丁目３番１－１５０８号,,13,102,1030007,,,,,,,2023-09-06,1,,,,,ディアールケーコンサルティング,0
362,2010001238207,新規,0,2023-09-06,2023-09-06,株式会社ｉｓ,,株式会社,東京都,中央区,湊３丁目８番１－１２０４号,,13,102,1040043,,,,,,,2023-09-06,1,,,,,アイエス,0
363,2010001238231,新規,0,2023-09-06,2023-09-06,株式会社ＦＬＡＰ,,株式会社,東京都,中央区,銀座１丁目１２番４号Ｎ＆Ｅ・ＢＬＤ．７階,,13,102,1040061,,,,,,,2023-09-06,1,,,,,フラップ,0
364,2010001238256,新規,0,2023-09-06,2023-09-06,株式会社ＳＡＫＵＲＡ　ＨＯＬＤＩＮＧＳ,,株式会社,東京都,中央区,日本橋茅場町２丁目８番１号ＢＲＩＣＫＧＡＴＥ茅場町３階０８号室,,13,102,1030025,,,,,,,2023-09-06,1,,,,,サクラホールディングス,0
365,2010001238264,新規,0,2023-09-06,2023-09-06,株式会社ｄｂ,,株式会社,東京都,中央区,銀座１丁目１２番４号Ｎ＆Ｅ・ＢＬＤ．６Ｆ,,13,102,1040061,,,,,,,2023-09-06,1,,,,,ディービー,0
369,2010003041550,新規,0,2023-09-06,2023-09-06,合同会社ＶＸＩＩ　Ｐｒｏｄｕｃｔｉｏｎ,,合同会社,東京都,文京区,向丘１丁目１８番３号,,13,105,1130023,,,,,,,2023-09-06,1,,,,,ヴィートゥエルブプロダクション,0
370,2010003041591,新規,0,2023-09-06,2023-09-06,ＡＭＴキャピタル合同会社,,合同会社,東京都,文京区,白山２丁目２３番７号,,13,105,1120001,,,,,,,2023-09-06,1,,,,,エーエムティーキャピタル,0
379,2010401176741,新規,0,2023-09-06,2023-09-06,株式会社ＵＵ,,株式会社,東京都,港区,高輪２丁目１番９号,,13,103,1080074,,,,,,,2023-09-06,1,,,,,ウー,0
380,2010401176948,新規,0,2023-09-06,2023-09-06,株式会社ＥｄｕＳｐｏ,,株式会社,東京都,港区,南青山２丁目１４番１４号南青山ＫＦＫビル２階,,13,103,1070062,,,,,,,2023-09-06,1,,,,,エデュスポ,0
381,2010401176964,新規,0,2023-09-06,2023-09-06,株式会社ＣＲＯＳ,,株式会社,東京都,港区,南青山３丁目１番３６号青山丸竹ビル６Ｆ,,13,103,1070062,,,,,,,2023-09-06,1,,,,,クロス,0
382,2010403030847,新規,0,2023-09-06,2023-09-06,エンターマックスプロモーション合同会社,,合同会社,東京都,港区,南青山２丁目２番１５号,,13,103,1070062,,,,,,,2023-09-06,1,,,,,エンターマックスプロモーション,0
383,2010403030863,新規,0,2023-09-06,2023-09-06,合同会社テーマ,,合同会社,東京都,港区,南青山２丁目２番１５号,,13,103,1070062,,,,,,,2023-09-06,1,,,,,テーマ,0
384,2010501050945,新規,0,2023-09-06,2023-09-06,株式会社アルゴンケミカルジャパン,,株式会社,東京都,台東区,東上野３丁目１５－１４丸山ビル,,13,106,1100015,,,,,,,2023-09-06,1,,,,,アルゴンケミカルジャパン,0
385,2010503007142,新規,0,2023-09-06,2023-09-06,合同会社ぴーあーる,,合同会社,東京都,台東区,根岸１丁目１番３０号ツバセス鶯谷２０２号室,,13,106,1100003,,,,,,,2023-09-06,1,,,,,ピーアール,0
386,2010505003445,新規,0,2023-09-06,2023-09-06,一般社団法人ライトハイク協会,,その他の設立登記法人,東京都,台東区,元浅草４丁目４番５号,,13,106,1110041,,,,,,,2023-09-06,1,,,,,ライトハイクキョウカイ,0
388,2010601063731,新規,0,2023-09-06,2023-09-06,株式会社Ｆ,,株式会社,東京都,江東区,亀戸７丁目１０番１８－１７１０号,,13,108,1360071,,,,,,,2023-09-06,1,,,,,エフ,0
391,2010701044788,新規,0,2023-09-06,2023-09-06,株式会社Ｉ．Ｇ．,,株式会社,東京都,品川区,北品川３丁目５番２０号ガーデン御殿山３０４,,13,109,1400001,,,,,,,2023-09-06,1,,,,,アイジー,0
392,2010701044813,新規,0,2023-09-06,2023-09-06,株式会社ベントエマーレ,,株式会社,東京都,品川区,西五反田５丁目２６－１０－１Ｆ,,13,109,1410031,,,,,,,2023-09-06,1,,,,,ベントエマーレ,0
393,2010705003534,新規,0,2023-09-06,2023-09-06,医療法人社団彩心会,,その他の設立登記法人,東京都,品川区,東五反田５丁目２７番３号第二野村ビル４階,,13,109,1410022,,,,,,,2023-09-06,1,,,,,サイシンカイ,0
396,2010805003054,新規,0,2023-09-06,2023-09-06,医療法人社団つぼたクリニック,,その他の設立登記法人,東京都,大田区,仲六郷２丁目４４番１５号,,13,111,1440055,,,,,,,2023-09-06,1,,,,,ツボタクリニック,0
400,2010901053746,新規,0,2023-09-06,2023-09-06,株式会社ＦＩＮＯＢＬＥ,,株式会社,東京都,世田谷区,池尻３丁目１４番７号アウアリー池尻３０１,,13,112,1540001,,,,,,,2023-09-06,1,,,,,フィノーブル,0
401,2010901053779,新規,0,2023-09-06,2023-09-06,株式会社Ｔｈｅ　Ｒｅｉｔｈ‐Ｂｌｅｎｄ,,株式会社,東京都,世田谷区,船橋１丁目４４番８－２０１号,,13,112,1560055,,,,,,,2023-09-06,1,,,,,ザレイスブレンド,0
403,2010903008426,新規,0,2023-09-06,2023-09-06,合同会社ｐａｔｉｅｎｔ,,合同会社,東京都,世田谷区,桜新町２丁目１７番１５号Ｋ－３１,,13,112,1540015,,,,,,,2023-09-06,1,,,,,ペイシェント,0
410,2011001156753,新規,0,2023-09-06,2023-09-06,株式会社２０５０,,株式会社,東京都,渋谷区,代官山町８番９号竜王ビル５階,,13,113,1500034,,,,,,,2023-09-06,1,,,,,ニセンゴジュウ,0
413,2011005010205,新規,0,2023-09-06,2023-09-06,一般社団法人ＳＴＥＡＭ＆スポーツ推進機構,,その他の設立登記法人,東京都,渋谷区,初台２丁目１３番１２号,,13,113,1510061,,,,,,,2023-09-06,1,,,,,スティームアンドスポーツスイシンキコウ,0
418,2011101104216,新規,0,2023-09-06,2023-09-06,Ｅｘｐｅｒｔ　Ｍａｔｅｒｉａｌ　Ｌａｂｏｒａｔｏｒｉｅｓ株式会社,,株式会社,東京都,新宿区,西新宿１丁目２６番２号新宿野村ビル３２階,,13,104,1600023,,,,,,,2023-09-06,1,,,,,エキスパートマテリアルラボラトリーズ,0
419,2011101104232,新規,0,2023-09-06,2023-09-06,株式会社ＪＦエンターテイメント,,株式会社,東京都,新宿区,百人町２丁目２４番６号石見ビル３Ｆ,,13,104,1690073,,,,,,,2023-09-06,1,,,,,ジェイエフエンターテイメント,0
420,2011105010765,新規,0,2023-09-06,2023-09-06,一般社団法人プラスワン・ルネ国際研究所,,その他の設立登記法人,東京都,新宿区,新宿２丁目２番１０－４０７号,,13,104,1600022,,,,,,,2023-09-06,1,,,,,プラスワンルネコクサイケンキュウショ,0
422,2011401025426,新規,0,2023-09-06,2023-09-06,Ａｎｏ　Ｃｌｅａｎ株式会社,,株式会社,東京都,板橋区,常盤台２丁目５番４号ＶａｌｉａｎｔビルＢ１Ｆ,,13,119,1740071,,,,,,,2023-09-06,1,,,,,アノクリーン,0
424,2011403004106,新規,0,2023-09-06,2023-09-06,田中園合同会社,,合同会社,東京都,板橋区,徳丸５丁目３３番３号,,13,119,1750083,,,,,,,2023-09-06,1,,,,,タナカエン,0
426,2011601027098,新規,0,2023-09-06,2023-09-06,Ｈｉ‐Ｂｓｓ株式会社,,株式会社,東京都,練馬区,田柄５丁目１３－１９,,13,120,1790073,,,,,,,2023-09-06,1,,,,,ハイビス,0
429,2011801043003,新規,0,2023-09-06,2023-09-06,株式会社シックスペンス,,株式会社,東京都,足立区,扇２丁目２０番１２号,,13,121,1230873,,,,,,,2023-09-06,1,,,,,シックスペンス,0
431,2011803005810,新規,0,2023-09-06,2023-09-06,ＲＩＳＥ合同会社,,合同会社,東京都,葛飾区,小菅１丁目２３番１４号,,13,122,1240001,,,,,,,2023-09-06,1,,,,,ライズ,0
433,2012401040902,新規,0,2023-09-06,2023-09-06,Ｎｏｍａｄ　ｅｘｐｏｒｔｓ株式会社,,株式会社,東京都,多摩市,鶴牧３丁目１３番地５－５０１,,13,224,2060034,,,,,,,2023-09-06,1,,,,,ノマドエクスポート,0
434,2012401040951,新規,0,2023-09-06,2023-09-06,株式会社蛇の目,,株式会社,東京都,三鷹市,新川１丁目４番２３号グリーンハイツ２０１,,13,204,1810004,,,,,,,2023-09-06,1,,,,,ジャノメ,0
435,2012701017823,新規,0,2023-09-06,2023-09-06,株式会社大同開発,,株式会社,東京都,清瀬市,下清戸３丁目１３番地２,,13,221,2040011,,,,,,,2023-09-06,1,,,,,ダイドウカイハツ,0
436,2012801022608,新規,0,2023-09-06,2023-09-06,株式会社Ｆｏｒｔｕｎａ,,株式会社,東京都,国分寺市,日吉町１丁目４０番地５４,,13,214,1850032,,,,,,,2023-09-06,1,,,,,フォルトゥーナ,0
437,2012801022616,新規,0,2023-09-06,2023-09-06,株式会社ノーブル,,株式会社,東京都,立川市,上砂町３丁目４８番地の５エスポワールノーブル２０２,,13,202,1900032,,,,,,,2023-09-06,1,,,,,ノーブル,0
440,2013301051295,新規,0,2023-09-06,2023-09-06,株式会社ｍａｔｏｍｏ,,株式会社,東京都,豊島区,南池袋１丁目２３番２号,,13,116,1710022,,,,,,,2023-09-06,1,,,,,マトモ,0
445,2020001153314,新規,0,2023-09-06,2023-09-06,株式会社トリリオン,,株式会社,神奈川県,横浜市西区,北幸２丁目１３番５号北幸ぐうはうすＡ棟１０３,,14,103,2200004,,,,,,,2023-09-06,1,,,,,トリリオン,0
446,2020001153322,新規,0,2023-09-06,2023-09-06,株式会社浅間モーターサービス,,株式会社,神奈川県,横浜市西区,浅間町２丁目１０６番地１,,14,103,2200072,,,,,,,2023-09-06,1,,,,,センゲンモーターサービス,0
447,2020001153339,新規,0,2023-09-06,2023-09-06,株式会社ＧＲＡＮＰＩＥ,,株式会社,神奈川県,横浜市磯子区,中原４丁目２６番３０号,,14,107,2350036,,,,,,,2023-09-06,1,,,,,グランピエ,0
448,2020001153347,新規,0,2023-09-06,2023-09-06,イズミインダストリー株式会社,,株式会社,神奈川県,横浜市南区,宿町４丁目７０番地１,,14,105,2320017,,,,,,,2023-09-06,1,,,,,イズミインダストリー,0
449,2020001153371,新規,0,2023-09-06,2023-09-06,杉原ビル株式会社,,株式会社,神奈川県,横浜市南区,中里２丁目２番５号,,14,105,2320063,,,,,,,2023-09-06,1,,,,,スギハラビル,0
450,2020001153396,新規,0,2023-09-06,2023-09-06,株式会社Ａ‐ＺＡＮ,,株式会社,神奈川県,横浜市中区,仲尾台７９番地ヒルトップテラス１０１号室,,14,104,2310839,,,,,,,2023-09-06,1,,,,,エイザン,0
456,2021001080077,新規,0,2023-09-06,2023-09-06,株式会社コネクトプラス,,株式会社,神奈川県,横須賀市,岩戸１丁目８番１号,,14,201,2390844,,,,,,,2023-09-06,1,,,,,コネクトプラス,0
464,2030001155747,新規,0,2023-09-06,2023-09-06,ＥＮＩＸＩＡ株式会社,,株式会社,埼玉県,新座市,東北２丁目２４番１４号,,11,230,3520001,,,,,,,2023-09-06,1,,,,,エニシア,0
465,2030001155755,新規,0,2023-09-06,2023-09-06,ＮＩＳＨＩＫＡＷＡ　ＪＡＰＡＮ株式会社,,株式会社,埼玉県,川越市,連雀町４番地４（ダイアパレス川越連雀町９０１号室）,,11,201,3500066,,,,,,,2023-09-06,1,,,,,ニシカワジャパン,0
471,2030003022400,新規,0,2023-09-06,2023-09-06,ワールドＦＰ合同会社,,合同会社,埼玉県,さいたま市大宮区,寿能町２丁目６７番２０３号,,11,103,3300805,,,,,,,2023-09-06,1,,,,,ワールドエフピー,0
472,2030003022425,新規,0,2023-09-06,2023-09-06,ＪＳＤＡ合同会社,,合同会社,埼玉県,川越市,広栄町６番地２８－２０１号室,,11,201,3501117,,,,,,,2023-09-06,1,,,,,ジェイエスディーエー,0
486,2040001129915,新規,0,2023-09-06,2023-09-06,株式会社ＩＸＭＩＬＥ,,株式会社,千葉県,千葉市美浜区,幕張西４丁目２番１－１２０１号,,12,106,2610026,,,,,,,2023-09-06,1,,,,,イクスマイル,0
487,2040001129972,新規,0,2023-09-06,2023-09-06,Ｏｓｅｗａ　Ａｓｉａｎ　Ｍａｒｔ株式会社,,株式会社,千葉県,千葉市中央区,栄町３２番１２号,,12,101,2600016,,,,,,,2023-09-06,1,,,,,オセワアジアンマート,0
491,2040003023265,新規,0,2023-09-06,2023-09-06,ライフライバー合同会社,,合同会社,千葉県,市川市,欠真間１丁目７番４号,,12,203,2720142,,,,,,,2023-09-06,1,,,,,ライフライバー,0
494,2060001036317,新規,0,2023-09-06,2023-09-06,半田ホールディングス株式会社,,株式会社,栃木県,足利市,堀込町１７０１番地,,09,202,3260831,,,,,,,2023-09-06,1,,,,,ハンダホールディングス,0
501,2080001025846,新規,0,2023-09-06,2023-09-06,株式会社どんぐり農園,,株式会社,静岡県,焼津市,栄町１丁目６番１３号,,22,212,4250027,,,,,,,2023-09-06,1,,,,,ドングリノウエン,0
503,2080101024194,新規,0,2023-09-06,2023-09-06,株式会社ワタナベ電気,,株式会社,静岡県,沼津市,我入道南条寺８０番地の７,,22,203,4100823,,,,,,,2023-09-06,1,,,,,ワタナベデンキ,0
504,2080103002883,新規,0,2023-09-06,2023-09-06,合同会社Ｒｕｎ‐ｕｐ,,合同会社,静岡県,沼津市,大岡１７７７番地の１０,,22,203,4100022,,,,,,,2023-09-06,1,,,,,ランナップ,0
508,2110001037813,新規,0,2023-09-06,2023-09-06,株式会社中澤塗装,,株式会社,新潟県,南魚沼市,穴地２２７番地,,15,226,9497245,,,,,,,2023-09-06,1,,,,,ナカザワトソウ,0
509,2110003005149,新規,0,2023-09-06,2023-09-06,合同会社ｃｏｎｎｅｃｔ,,合同会社,新潟県,長岡市,表町４丁目４番地３,,15,202,9400071,,,,,,,2023-09-06,1,,,,,コネクト,0
514,2120001257831,新規,0,2023-09-06,2023-09-06,ＵＴテック株式会社,,株式会社,大阪府,大阪市西成区,鶴見橋３丁目３番１３号,,27,122,5570031,,,,,,,2023-09-06,1,,,,,ユーティーテック,0
515,2120001257856,新規,0,2023-09-06,2023-09-06,株式会社ＬＡＵＧＨｔｅｒ,,株式会社,大阪府,大阪市北区,梅田２丁目２－２ヒルトンプラザウエストオフィスタワー１９階,,27,127,5300001,,,,,,,2023-09-06,1,,,,,ラフター,0
516,2120001257880,新規,0,2023-09-06,2023-09-06,アイエスエスマシナリーサービス株式会社,,株式会社,大阪府,大阪市中央区,北浜２丁目６番１８号淀屋橋スクエア,,27,128,5410041,,,,,,,2023-09-06,1,,,,,アイエスエスマシナリーサービス,0
517,2120001257897,新規,0,2023-09-06,2023-09-06,株式会社がらくた屋,,株式会社,大阪府,大阪市平野区,瓜破西１丁目８－８２,,27,126,5470025,,,,,,,2023-09-06,1,,,,,ガラクタヤ,0
518,2120001257906,新規,0,2023-09-06,2023-09-06,株式会社ＡｑｕａＦｏｌｉａ,,株式会社,大阪府,枚方市,東香里２丁目２６番１５号,,27,210,5730075,,,,,,,2023-09-06,1,,,,,アクアフォリア,0
519,2120001257914,新規,0,2023-09-06,2023-09-06,株式会社カロンジ,,株式会社,大阪府,大阪市旭区,新森１丁目７番２４－１０１１号,,27,117,5350022,,,,,,,2023-09-06,1,,,,,カロンジ,0
531,2120101068146,新規,0,2023-09-06,2023-09-06,株式会社ｌａｚｏ,,株式会社,大阪府,松原市,三宅西２丁目６番１５号,,27,217,5800045,,,,,,,2023-09-06,1,,,,,ラソ,0
532,2120101068162,新規,0,2023-09-06,2023-09-06,株式会社フィットネスウェブ,,株式会社,大阪府,富田林市,津々山台３丁目１３番１７号,,27,214,5840086,,,,,,,2023-09-06,1,,,,,フィットネスウェブ,0
534,2120105009757,新規,0,2023-09-06,2023-09-06,一般社団法人シルバーサポートこうきた,,その他の設立登記法人,大阪府,和泉市,光明台１丁目３７番６５号,,27,219,5941111,,,,,,,2023-09-06,1,,,,,シルバーサポートコウキタ,0
536,2120901048009,新規,0,2023-09-06,2023-09-06,株式会社コパンダデザイン,,株式会社,大阪府,茨木市,下穂積１丁目３番９０５号,,27,211,5670041,,,,,,,2023-09-06,1,,,,,コパンダデザイン,0
537,2120901048017,新規,0,2023-09-06,2023-09-06,株式会社Ｄｅｖｅ,,株式会社,大阪府,豊中市,少路２丁目３番２５－２０６号,,27,203,5600004,,,,,,,2023-09-06,1,,,,,デベ,0
538,2120901048025,新規,0,2023-09-06,2023-09-06,株式会社宿,,株式会社,大阪府,茨木市,新中条町１番３０号ターミナルズ茨木６２４,,27,211,5670872,,,,,,,2023-09-06,1,,,,,ヤド,0
539,2120903004819,新規,0,2023-09-06,2023-09-06,合同会社リブテクト,,合同会社,大阪府,高槻市,萩之庄５丁目２番１号,,27,207,5690093,,,,,,,2023-09-06,1,,,,,リブテクト,0
543,2122001037338,新規,0,2023-09-06,2023-09-06,株式会社木田弥,,株式会社,大阪府,東大阪市,近江堂１丁目１１番７号,,27,227,5770817,,,,,,,2023-09-06,1,,,,,キダヤ,0
544,2122003002661,新規,0,2023-09-06,2023-09-06,合同会社マコサン,,合同会社,大阪府,東大阪市,菱屋東１丁目２－８,,27,227,5780948,,,,,,,2023-09-06,1,,,,,マコサン,0
556,2130003008975,新規,0,2023-09-06,2023-09-06,ＴＮＴＮ合同会社,,合同会社,京都府,京都市下京区,朱雀宝蔵町４４番地協栄ビル２階京都朱雀スタジオＷ－１０９,,26,106,6008846,,,,,,,2023-09-06,1,,,,,ティーエヌティーエヌ,0
557,2130005016877,新規,0,2023-09-06,2023-09-06,特定非営利活動法人Ａｃｔｉｎｇ　Ｃｏａｃｈ　Ｇｕｉｌｄ　Ｏｆ　Ｊａｐａｎ,,その他の設立登記法人,京都府,京都市左京区,高野泉町１７番地３５,,26,103,6068111,,,,,,,2023-09-06,1,,,,,アクティングコーチギルドオブジャパン,0
559,2140005026735,新規,0,2023-09-06,2023-09-06,一般社団法人かみごおり観光協会,,その他の設立登記法人,兵庫県,赤穂郡上郡町,駅前１２０番地,,28,481,6781234,,,,,,,2023-09-06,1,,,,,カミゴオリカンコウキョウカイ,0
568,2180001157828,新規,0,2023-09-06,2023-09-06,株式会社ＮＡ,,株式会社,愛知県,名古屋市中区,栄３丁目１１番１６号,,23,106,4600008,,,,,,,2023-09-06,1,,,,,エヌエー,0
569,2180001157844,新規,0,2023-09-06,2023-09-06,株式会社山本塗装,,株式会社,愛知県,半田市,新池町１丁目２０３番地の１１,,23,205,4750078,,,,,,,2023-09-06,1,,,,,ヤマモトトソウ,0
570,2180001157852,新規,0,2023-09-06,2023-09-06,株式会社ｔｒｉｐ,,株式会社,愛知県,北名古屋市,弥勒寺東４丁目１５８番地ラフレＳＫＹ１０２号,,23,234,4810031,,,,,,,2023-09-06,1,,,,,トリップ,0
571,2180001157860,新規,0,2023-09-06,2023-09-06,株式会社Ｄ‐ＴＶ２,,株式会社,愛知県,名古屋市東区,大幸１丁目５番８号,,23,102,4610043,,,,,,,2023-09-06,1,,,,,ディーティーヴィセカンド,0
572,2180001157902,新規,0,2023-09-06,2023-09-06,株式会社Ｓｔｅｐ,,株式会社,愛知県,名古屋市西区,児玉３丁目１番３号大野マンション１０１,,23,104,4510066,,,,,,,2023-09-06,1,,,,,ステップ,0
573,2180001157919,新規,0,2023-09-06,2023-09-06,株式会社スタートアップラボ,,株式会社,愛知県,名古屋市中区,千代田２丁目１９番２０号トーカンマンション鶴舞３０７号,,23,106,4600012,,,,,,,2023-09-06,1,,,,,スタートアップラボ,0
575,2180003025702,新規,0,2023-09-06,2023-09-06,合同会社岩野アグリ,,合同会社,愛知県,知多郡東浦町,大字緒川字東仙台１番地の８７,,23,442,4702102,,,,,,,2023-09-06,1,,,,,イワノアグリ,0
576,2180005020338,新規,0,2023-09-06,2023-09-06,一般社団法人いむら浄心基金,,その他の設立登記法人,愛知県,名古屋市西区,浄心１丁目８番２５号,,23,104,4510061,,,,,,,2023-09-06,1,,,,,イムラジョウシンキキン,0
578,2190001030703,新規,0,2023-09-06,2023-09-06,株式会社しあわせ商事,,株式会社,三重県,伊勢市,小俣町湯田１０８３番地５,,24,203,5190506,,,,,,,2023-09-06,1,,,,,シアワセショウジ,0
582,2200001041681,新規,0,2023-09-06,2023-09-06,株式会社スペースワイドスタジオ,,株式会社,岐阜県,岐阜市,茜部新所４丁目７４番地１,,21,201,5008263,,,,,,,2023-09-06,1,,,,,スペースワイドスタジオ,0
587,2230001019997,新規,0,2023-09-06,2023-09-06,株式会社大間,,株式会社,富山県,富山市,天正寺４５７番地９,,16,201,9300955,,,,,,,2023-09-06,1,,,,,オオマ,0
590,2240001062063,新規,0,2023-09-06,2023-09-06,株式会社８‐ｍｉｓｓｉｏｎ,,株式会社,広島県,東広島市,黒瀬楢原北３丁目１３－１９,00131793,34,212,7392627,,,,,,,2023-09-06,1,,,,,エイトミッション,0
591,2240001062071,新規,0,2023-09-06,2023-09-06,藤栄建設株式会社,,株式会社,広島県,福山市,駅家町大字中島６８０番地６,,34,207,7201134,,,,,,,2023-09-06,1,,,,,トウエイケンセツ,0
597,2240003006282,新規,0,2023-09-06,2023-09-06,合同会社カルム,,合同会社,広島県,東広島市,高屋町杵原１１１１番地１,,34,212,7392102,,,,,,,2023-09-06,1,,,,,カルム,0
598,2240003006299,新規,0,2023-09-06,2023-09-06,森造合同会社,,合同会社,広島県,呉市,川尻町小仁方１丁目７４番地１２,,34,202,7372604,,,,,,,2023-09-06,1,,,,,モリゾウ,0
601,2260001038276,新規,0,2023-09-06,2023-09-06,株式会社翔建設,,株式会社,岡山県,倉敷市,真備町妹４１３７番地,,33,202,7101303,,,,,,,2023-09-06,1,,,,,ショウケンセツ,0
602,2260003004409,新規,0,2023-09-06,2023-09-06,合同会社マルニチ,,合同会社,岡山県,笠岡市,笠岡５９５１番地１ベイフロント３０２,,33,205,7140081,,,,,,,2023-09-06,1,,,,,マルニチ,0
603,2260003004417,新規,0,2023-09-06,2023-09-06,合同会社セレーノエムエス,,合同会社,岡山県,岡山市北区,奉還町３丁目１６番１１－１４０４号,,33,101,7000026,,,,,,,2023-09-06,1,,,,,セレーノエムエス,0
605,2290001102847,新規,0,2023-09-06,2023-09-06,辰澤株式会社,,株式会社,福岡県,福岡市中央区,港２丁目１番９号,,40,133,8100075,,,,,,,2023-09-06,1,,,,,タツザワ,0
606,2290001102938,新規,0,2023-09-06,2023-09-06,株式会社ａｌｇｏｎｏｔｅ,,株式会社,福岡県,春日市,須玖北８丁目９３番地,,40,218,8160864,,,,,,,2023-09-06,1,,,,,アルゴノート,0
608,2290003014306,新規,0,2023-09-06,2023-09-06,合同会社みらい,,合同会社,福岡県,柳川市,佃町２７３－１４サンコーポラス柳川Ｉ－５０１,00131795,40,207,8320051,,,,,,,2023-09-06,1,,,,,ミライ,0
611,2300001013448,新規,0,2023-09-06,2023-09-06,株式会社ＴＲＵＳＴ　ＯＮＥ,,株式会社,佐賀県,伊万里市,南波多町井手野２１９７番地２,,41,205,8480007,,,,,,,2023-09-06,1,,,,,トラストワン,0
619,2330001031216,新規,0,2023-09-06,2023-09-06,株式会社インテリジェンス,,株式会社,熊本県,熊本市中央区,花畑町１番１４号Ａ＆Ｍ　ＨＡＮＡＢＡＴＡ３０１号,,43,101,8600806,,,,,,,2023-09-06,1,,,,,インテリジェンス,0
620,2330001031224,新規,0,2023-09-06,2023-09-06,株式会社彩巧塗装,,株式会社,熊本県,山鹿市,久原３２７０番地５,,43,208,8610522,,,,,,,2023-09-06,1,,,,,サイコウトソウ,0
621,2330005010694,新規,0,2023-09-06,2023-09-06,一般社団法人ｈｉｇｏｃｏｌｏｒ,,その他の設立登記法人,熊本県,玉名市,天水町小天１１３２番地,,43,206,8615401,,,,,,,2023-09-06,1,,,,,,0
625,2340001025869,新規,0,2023-09-06,2023-09-06,ＫＦＯ株式会社,,株式会社,鹿児島県,鹿児島市,日之出町１６番１２号,,46,201,8900086,,,,,,,2023-09-06,1,,,,,ケーエフオー,0
626,2340001025877,新規,0,2023-09-06,2023-09-06,株式会社ふくどめファーム,,株式会社,鹿児島県,南九州市,頴娃町別府１４６８番地,,46,223,8910704,,,,,,,2023-09-06,1,,,,,フクドメファーム,0
632,2350001018541,新規,0,2023-09-06,2023-09-06,清羽株式会社,,株式会社,宮崎県,宮崎市,宮崎駅東３丁目９番地４サンフォルトゥーナ宮崎駅東１０１号室,,45,201,8800879,,,,,,,2023-09-06,1,,,,,セイウ,0
635,2360001032509,新規,0,2023-09-06,2023-09-06,株式会社Ａｓｓｏｃｉａ　Ｄ＆Ｉ,,株式会社,沖縄県,中頭郡北谷町,字上勢頭６６９番地１,,47,326,9040101,,,,,,,2023-09-06,1,,,,,アソシアディーアンドアイ,0
638,2370001050352,新規,0,2023-09-06,2023-09-06,株式会社Ｓ‐ＣＬＡＳＳ,,株式会社,宮城県,仙台市泉区,八乙女中央３丁目２番３０－４０４号,,04,105,9813135,,,,,,,2023-09-06,1,,,,,エスクラス,0
642,2380001033967,新規,0,2023-09-06,2023-09-06,株式会社ムサシ,,株式会社,福島県,白河市,関川窪１３６番地３,,07,205,9610802,,,,,,,2023-09-06,1,,,,,ムサシ,0
649,2400001016366,新規,0,2023-09-06,2023-09-06,株式会社アルゴ,,株式会社,岩手県,奥州市,江刺八日町１丁目９番３７号,,03,215,0231102,,,,,,,2023-09-06,1,,,,,アルゴ,0
651,2410001013585,新規,0,2023-09-06,2023-09-06,株式会社アケガラスフーズ,,株式会社,秋田県,秋田市,寺内油田２丁目５番１７号,,05,201,0110903,,,,,,,2023-09-06,1,,,,,アケガラスフーズ,0
652,2420001018393,新規,0,2023-09-06,2023-09-06,コーティングエンジニアリング株式会社,,株式会社,青森県,八戸市,新井田西１丁目１３番１２号,,02,203,0310816,,,,,,,2023-09-06,1,,,,,コーティングエンジニアリング,0
653,2420003002791,新規,0,2023-09-06,2023-09-06,Ｐｏｈ＆Ｓａｌｌｙ合同会社,,合同会社,青森県,十和田市,大字三本木字下平１４４番地２,,02,206,0340001,,,,,,,2023-09-06,1,,,,,ポーアンドサリー,0
655,2430001089954,新規,0,2023-09-06,2023-09-06,株式会社ＳＨＩＲＯＩＳＨＩ．Ａ．ＢＡＳＥ,,株式会社,北海道,札幌市白石区,平和通６丁目北１番１１号,,01,104,0030029,,,,,,,2023-09-06,1,,,,,シロイシエーベース,0
658,2440005001757,新規,0,2023-09-06,2023-09-06,法性寺,,その他の設立登記法人,北海道,久遠郡せたな町,瀬棚区南川１５８番地,,01,371,0494828,,,,,,,2023-09-06,1,,,,,ホウショウジ,0
659,2460101007433,新規,0,2023-09-06,2023-09-06,株式会社唐草牡丹,,株式会社,北海道,中川郡幕別町,札内あかしや町５６番地３１,,01,643,0890552,,,,,,,2023-09-06,1,,,,,カラクサボタン,0
661,2490001010575,新規,0,2023-09-06,2023-09-06,エフホールディングス株式会社,,株式会社,高知県,高知市,薊野西町３丁目２７番３号,,39,201,7810015,,,,,,,2023-09-06,1,,,,,エフホールディングス,0
662,2490001010583,新規,0,2023-09-06,2023-09-06,ＯＮ　ｉｎｎｏｖａｔｉｏｎ株式会社,,株式会社,高知県,高知市,弘化台１５－１６,,39,201,7810811,,,,,,,2023-09-06,1,,,,,オーエヌイノベーション,0
668,2700150116713,新規,0,2023-09-06,2023-09-06,ｓｈｅｎｚｈｅｎｓｈｉ　ｚｈｉｔｉａｎｊｉａｏｘｉｎｘｉｊｉｓｈｕ　ｙｏｕｘｉａｎｇｏｎｇｓｉ,,外国会社等,,,,,,,,ｑｉａｎｈａｉｓｈｅｎｇａｎｇ　ｈｅｚｕｏｑｕｑｉａｎｗａｎｙｉｌｕ１ｈａｏ　Ａｄｏｎｇ　２０１ｓｈｉ　ｂａｏａｎｚｈｏｎｇｘｉｎｑｕ　ｊｉｎｃｈｅｎｇｓｈｉｄａｉｊｉａｙｕａｎ　２ｄｏｎｇ１ｚｕｏ９Ｄ　ｓｈｅｎｚｈｅｎ　ｇｕａｎｇｄｏｎｇ,,,,,,2023-09-06,1,,,,,シンセンシジテェンジィアオシンシジスユウゲンコウシ,0
669,2700150119823,新規,0,2023-09-06,2023-09-06,ＢＡＬＡＢＨＡＤＲＡ　ＡＮＤ　ＳＯＮＳ　ＳＵＰＰＬＩＥＲＳ　ＰＶＴ．ＬＴＤ．,,外国会社等,群馬県,前橋市,古市町２０４－１,,10,201,3710844,ネパール連邦民主共和国バグマティ州カトマンズ郡カゲソリマノハラ８区アダルサマルガ,,,,,,2023-09-06,1,,,,,バラバドラアンドサンズサプライヤーズプライベートリミテツド,0
670,2700150119831,新規,0,2023-09-06,2023-09-06,ＤＡＹＵＸＩＡＮ　ＹＩＤＡＯ　ＤＩＡＮＺＩ　ＳＨＡＮＧＷＵ　ＣＯ　ＬＴＤ,,外国会社等,,,,,,,,Ｇａｎｚｈｏｕ　Ｋａｂａｍａｎ　Ｅ－ｃｏｍｍｅｒｃｅ　Ｃｏ．，Ｌｔｄ．ｏｎ　ｔｈｅ　ｅａｓｔ　ｓｉｄｅ　ｏｆ　ｔｈｅ　ｍｉｄｄｌｅ　ｓｅｃｔｉｏｎ　ｏｆ　Ｍｅｉｇｕａｎ　Ａｖｅｎｕｅ，Ｄａｙｕ　Ｃｏｕｎｔｙ，Ｇａｎｚｈｏｕ　Ｃｉｔｙ，Ｊｉａｎｇｘｉ　Ｐｒｏｖｉｎｃｅ　Ｃｈｉｎａ,,,,,,2023-09-06,1,,,,,ダユシャンイダオデンシショウムカンパニーリミテッド,0
671,2700150119848,新規,0,2023-09-06,2023-09-06,Ｓｈｅｎｚｈｅｎ　Ｓｐａｒｋ　Ｃｏ．，Ｌｔｄ．,,外国会社等,,,,,,,,２７ｔｈ　Ｆｌｏｏｒ，Ｔｏｗｅｒ　Ａ，Ｓｈｅｎｚｈｅｎ　Ｉｎｔｅｒｎａｔｉｏｎａｌ　Ｉｎｎｏｖａｔｉｏｎ　Ｃｅｎｔｅｒ　１００６　Ｓｈｅｎｎａｎ　Ｒｄ．Ｓｈｅｎｚｈｅｎ　Ｇｕａｎｇｄｏｎｇ　５１８０００　ＣＮ,,,,,,2023-09-06,1,,,,,シェンジェンシスーパイカグァンディエンカージヨウシェンゴンスー,0
672,2700150119856,新規,0,2023-09-06,2023-09-06,ｓｈｅｎｚｈｅｎｓｈｉ　ｓｈｅｎｈｅｎｇｊｉｅｓｈｉｙｅ　ｙｏｕｘｉａｎｇｏｎｇｓｉ,,外国会社等,,,,,,,,ｓｈｅｎ　ｚｈｅｎ　ｓｈｉ　ｌｏｎｇ　ｇａｎｇ　ｑｕ　ｂａｏ　ｌｏｎｇ　ｊｉｅ　ｄａｏ　ｂａｏ　ｌｏｎｇ　ｓｈｅ　ｑｕ　ｚｈｅｎ　ｙｅ　ｌｕａｎ　ｓｈａｎ　ｇｕ　ｈｕａ　ｙｕａｎ　ｅｒｑｉ　９　ｄｏｎｇ　ｙｉ　ｄａｎ　ｙｕａｎ　２２Ｂ,,,,,,2023-09-06,1,,,,,シンセンシセンヘンジエシイェユウゲンコウシ,0
673,2700150119864,新規,0,2023-09-06,2023-09-06,広州天曠電子株式会社,,外国会社等,,,,,,,,広州市白云区黄石街江夏東二路４番４２８室広州市白云区黄石街江夏村広東省５１０４００　ＣＮ,,,,,,2023-09-06,1,,,,,コウシユウテンコウデンシカブシキガイシヤ,0
674,2700150119889,新規,0,2023-09-06,2023-09-06,ＧＡＹＡＮ　ＴＲＡＤＥＲＳ,,外国会社等,千葉県,柏市,逆井藤ノ台２９番２グリーンハイツＢ－１０１号,,12,217,2770041,スリランカ民主社会主義共和国ケラニヤ、ワナワサラ、サルマルガーデン、５７３／３,,,,,,2023-09-06,1,,,,,ガヤントレーダース,0
682,3010001237471,新規,0,2023-09-06,2023-09-06,Ｐｕｒｅｇｉａｎｔｅ株式会社,,株式会社,東京都,中央区,湊１丁目１４番１７－１００２号室,,13,102,1040043,,,,,,,2023-09-06,1,,,,,ピュレジアンテ,0
683,3010001238172,新規,0,2023-09-06,2023-09-06,株式会社ＭＡＲＫＥＴＣＲＥＷ,,株式会社,東京都,中央区,東日本橋２丁目１番５号,,13,102,1030004,,,,,,,2023-09-06,1,,,,,マーケットクルー,0
684,3010001238180,新規,0,2023-09-06,2023-09-06,Ｈ．Ｒ．Ｄ　ＨＯＬＤＩＮＧＳ株式会社,,株式会社,東京都,中央区,日本橋２丁目５番１号日本橋高島屋三井ビルディング１１階,00131792,13,102,1030027,,,,,,,2023-09-06,1,,,,,エイチアールディーホールディングス,0
685,3010001238189,新規,0,2023-09-06,2023-09-06,ＪＰ　ＭＡＣＨＩＮＥ株式会社,,株式会社,東京都,中央区,八丁堀２丁目２０番１号５階,,13,102,1040032,,,,,,,2023-09-06,1,,,,,ジェーピーマシン,0
686,3010001238214,新規,0,2023-09-06,2023-09-06,国礼皇芸株式会社,,株式会社,東京都,千代田区,丸の内１丁目１１－１－１３Ｆ,,13,101,1000005,,,,,,,2023-09-06,1,,,,,コクレイコウゲイ,0
687,3010001238230,新規,0,2023-09-06,2023-09-06,株式会社エイトホールディングス,,株式会社,東京都,千代田区,神田神保町３丁目２－４田村ビル５階,,13,101,1010051,,,,,,,2023-09-06,1,,,,,エイトホールディングス,0
688,3010001238239,新規,0,2023-09-06,2023-09-06,株式会社ヘルスラボ,,株式会社,東京都,中央区,銀座８丁目１８番３号銀座加藤ビル２階,,13,102,1040061,,,,,,,2023-09-06,1,,,,,ヘルスラボ,0
689,3010001238263,新規,0,2023-09-06,2023-09-06,株式会社エアー・ドガ,,株式会社,東京都,千代田区,丸の内１丁目１番１号,,13,101,1000005,,,,,,,2023-09-06,1,,,,,エアードガ,0
690,3010003041574,新規,0,2023-09-06,2023-09-06,合同会社Ｐｕｓｈ　Ｒｏｄ,,合同会社,東京都,千代田区,神田鍛冶町３丁目５第五古川ビル１０７,,13,101,1010045,,,,,,,2023-09-06,1,,,,,プッシュロッド,0
691,3010401176930,新規,0,2023-09-06,2023-09-06,株式会社ＩＰ　Ｉｎｔｅｌｌｉｇｅｎｃｅ　Ｃｏｎｓｕｌｔｉｎｇ,,株式会社,東京都,港区,六本木３丁目１３－３第５ヴィレッジビル４階Ａ号,,13,103,1060032,,,,,,,2023-09-06,1,,,,,アイピーインテリジェンスコンサルティング,0
692,3010401176939,新規,0,2023-09-06,2023-09-06,株式会社スクエアワン,,株式会社,東京都,港区,南麻布３丁目４番５－１０１号,,13,103,1060047,,,,,,,2023-09-06,1,,,,,スクエアワン,0
693,3010401177029,新規,0,2023-09-06,2023-09-06,株式会社シンクネットワークソリューションズ,,株式会社,東京都,港区,新橋５丁目３１番８号,,13,103,1050004,,,,,,,2023-09-06,1,,,,,シンクネットワークソリューションズ,0
694,3010403030838,新規,0,2023-09-06,2023-09-06,合同会社ファーストクライ,,合同会社,東京都,港区,北青山１丁目３－１アールキューブ青山３階,,13,103,1070061,,,,,,,2023-09-06,1,,,,,ファーストクライ,0
695,3010501050985,新規,0,2023-09-06,2023-09-06,株式会社Ｍａｋｉｎｇ　Ｂ,,株式会社,東京都,台東区,東上野６丁目２０番２号１階,,13,106,1100015,,,,,,,2023-09-06,1,,,,,メイキングビー,0
696,3010501050993,新規,0,2023-09-06,2023-09-06,ゴールドエクスペリエンスレクイエム株式会社,,株式会社,東京都,台東区,浅草橋２丁目２５番４号ＡＣМビル６Ｆ,,13,106,1110053,,,,,,,2023-09-06,1,,,,,ゴールドエクスペリエンスレクイエム,0
699,3010601063722,新規,0,2023-09-06,2023-09-06,株式会社Ｃｌｏｕｄ　Ｈａｎｄｓ,,株式会社,東京都,江東区,東陽５丁目２９番１６－３０５号,,13,108,1350016,,,,,,,2023-09-06,1,,,,,クラウドハンズ,0
704,3010701044820,新規,0,2023-09-06,2023-09-06,株式会社ｓｐｒｉｎｔ,,株式会社,東京都,品川区,上大崎３丁目６番６号１００３号室,,13,109,1410021,,,,,,,2023-09-06,1,,,,,スプリント,0
706,3010801034309,新規,0,2023-09-06,2023-09-06,株式会社クリエイションラボ,,株式会社,東京都,大田区,山王２丁目５番６号ＳＡＮＮＯ・ＢＲＩＤＧＥ,,13,111,1430023,,,,,,,2023-09-06,1,,,,,クリエイションラボ,0
709,3010901053761,新規,0,2023-09-06,2023-09-06,株式会社Ｌａｎｉ,,株式会社,東京都,世田谷区,太子堂２丁目３５番１－４０４号,,13,112,1540004,,,,,,,2023-09-06,1,,,,,ラニ,0
710,3010903008425,新規,0,2023-09-06,2023-09-06,ＣＬＥＭＥＮＴＩＮＥ合同会社,,合同会社,東京都,世田谷区,奥沢３丁目３５番１３号,,13,112,1580083,,,,,,,2023-09-06,1,,,,,クレモンティーヌ,0
714,3011001156760,新規,0,2023-09-06,2023-09-06,株式会社Ｇｒｏｗｔｈ　Ｏｎｅ,,株式会社,東京都,渋谷区,渋谷２丁目２２－３渋谷東口ビル６Ｆ,,13,113,1500002,,,,,,,2023-09-06,1,,,,,グロースワン,0
715,3011001156769,新規,0,2023-09-06,2023-09-06,株式会社Ｌｉｎｃｌｏｕｄ,,株式会社,東京都,渋谷区,道玄坂１丁目１０番８号渋谷道玄坂東急ビル,,13,113,1500043,,,,,,,2023-09-06,1,,,,,リンクラウド,0
719,3011101104256,新規,0,2023-09-06,2023-09-06,株式会社Ｆｒａｍａｇａｎｇ,,株式会社,東京都,新宿区,若松町３１番５－７０４号,,13,104,1620056,,,,,,,2023-09-06,1,,,,,フラムゴン,0
722,3011103013430,新規,0,2023-09-06,2023-09-06,合同会社フォーアローズ,,合同会社,東京都,新宿区,西新宿３丁目３－１３西新宿水間ビル６階,,13,104,1600023,,,,,,,2023-09-06,1,,,,,フォーアローズ,0
726,3011303004898,新規,0,2023-09-06,2023-09-06,Ｒｕｎｌｉｍｉｔｅｄ合同会社,,合同会社,東京都,杉並区,堀ノ内１丁目８番２２－１０２号,,13,115,1660013,,,,,,,2023-09-06,1,,,,,ランリミテッド,0
727,3011401025417,新規,0,2023-09-06,2023-09-06,株式会社開成工業,,株式会社,東京都,板橋区,徳丸１丁目４４－１ヒルクレスト・メイワ３０３号室,,13,119,1750083,,,,,,,2023-09-06,1,,,,,カイセイコウギョウ,0
728,3011403004105,新規,0,2023-09-06,2023-09-06,合同会社ＫＯＴＯ,,合同会社,東京都,板橋区,富士見町４番２５－５０１号,,13,119,1740062,,,,,,,2023-09-06,1,,,,,コト,0
733,3011601027106,新規,0,2023-09-06,2023-09-06,株式会社Ｋ‐ｐｌｕｓ,,株式会社,東京都,練馬区,東大泉１丁目２０番３５号２フクビル１０２号,,13,120,1780063,,,,,,,2023-09-06,1,,,,,ケープラス,0
734,3011603004045,新規,0,2023-09-06,2023-09-06,合同会社ゴットフリード,,合同会社,東京都,練馬区,大泉学園町３丁目６－４３,,13,120,1780061,,,,,,,2023-09-06,1,,,,,ゴットフリード,0
742,3011801043002,新規,0,2023-09-06,2023-09-06,株式会社ドリーム,,株式会社,東京都,足立区,大谷田４丁目２番１４－７０９号,,13,121,1200001,,,,,,,2023-09-06,1,,,,,ドリーム,0
744,3012301013577,新規,0,2023-09-06,2023-09-06,株式会社ＢＡＫＵＣＨＯ,,株式会社,東京都,町田市,原町田１丁目１３番１号町田ハイツ壱番館１０８号室,,13,209,1940013,,,,,,,2023-09-06,1,,,,,バクチョウ,0
748,3012701017822,新規,0,2023-09-06,2023-09-06,株式会社Ｇｅｒｉａｎ　Ｈｅａｒｔｓ,,株式会社,東京都,清瀬市,元町１丁目６番１０－１００２号,,13,221,2040021,,,,,,,2023-09-06,1,,,,,ジェリアンハーツ,0
751,3013101009237,新規,0,2023-09-06,2023-09-06,株式会社Ａｒｃｓ,,株式会社,東京都,西多摩郡瑞穂町,大字箱根ケ崎２１０５番地１,,13,303,1901221,,,,,,,2023-09-06,1,,,,,アークス,0
753,3013301051286,新規,0,2023-09-06,2023-09-06,株式会社すずらんサービス,,株式会社,東京都,豊島区,目白１丁目３番１７号目白ガーデンヒルズＣ棟９０９号,,13,116,1710031,,,,,,,2023-09-06,1,,,,,スズランサービス,0
758,3020001153313,新規,0,2023-09-06,2023-09-06,株式会社ＹＡＢＥ,,株式会社,神奈川県,川崎市川崎区,大島上町１番１３号,,14,131,2100836,,,,,,,2023-09-06,1,,,,,ヤベ,0
759,3020001153338,新規,0,2023-09-06,2023-09-06,株式会社ＯＣＥＡＮＳ,,株式会社,神奈川県,横浜市西区,浅間町１丁目４番地３ウィザードビル４０２,,14,103,2200072,,,,,,,2023-09-06,1,,,,,オーシャンズ,0
760,3020001153362,新規,0,2023-09-06,2023-09-06,株式会社ＫＢ,,株式会社,神奈川県,川崎市高津区,溝口１丁目１２番８－４０５号,,14,134,2130001,,,,,,,2023-09-06,1,,,,,ケービー,0
761,3020001153387,新規,0,2023-09-06,2023-09-06,株式会社ＥｃｏＬｏｏｏｐｅｒｓ,,株式会社,神奈川県,横浜市西区,北幸２丁目１０番地２８むつみビル３Ｆ,,14,103,2200004,,,,,,,2023-09-06,1,,,,,エコルーパーズ,0
764,3020003024545,新規,0,2023-09-06,2023-09-06,みなとくらす合同会社,,合同会社,神奈川県,横浜市南区,六ツ川２丁目３番地４５９,,14,105,2320066,,,,,,,2023-09-06,1,,,,,ミナトクラス,0
771,3030001155647,新規,0,2023-09-06,2023-09-06,株式会社トウマ,,株式会社,埼玉県,さいたま市緑区,原山３丁目３番２３号,,11,109,3360931,,,,,,,2023-09-06,1,,,,,トウマ,0
772,3030001155754,新規,0,2023-09-06,2023-09-06,株式会社ソルトバレービレッジ,,株式会社,埼玉県,児玉郡上里町,大字七本木３５０１番地２９,,11,385,3690306,,,,,,,2023-09-06,1,,,,,,0
786,3040001129906,新規,0,2023-09-06,2023-09-06,株式会社アールエス・デザイン,,株式会社,千葉県,千葉市緑区,鎌取町２８１２番地の２０,,12,105,2660011,,,,,,,2023-09-06,1,,,,,アールエスデザイン,0
787,3040001129947,新規,0,2023-09-06,2023-09-06,株式会社ＩＳＬＡＮＤ　ＫＩＴＣＨＥＮ,,株式会社,千葉県,千葉市花見川区,花園町３６番地５,,12,102,2620021,,,,,,,2023-09-06,1,,,,,アイランドキッチン,0
793,3040003023289,新規,0,2023-09-06,2023-09-06,Ｌｕｃｅｎｔｅ合同会社,,合同会社,千葉県,船橋市,飯山満町２丁目４０４番地１２,,12,204,2740822,,,,,,,2023-09-06,1,,,,,ルシェンテ,0
798,3050001053386,新規,0,2023-09-06,2023-09-06,庭プラスＯｎｅ株式会社,,株式会社,茨城県,石岡市,北府中２丁目１番４号,,08,205,3150012,,,,,,,2023-09-06,1,,,,,ニワプラスワン,0
802,3060001036308,新規,0,2023-09-06,2023-09-06,株式会社ホロデザイン,,株式会社,栃木県,宇都宮市,陽東７丁目１番２号宇都宮大学オプティクス教育研究センター内,,09,201,3210904,,,,,,,2023-09-06,1,,,,,ホロデザイン,0
803,3060001036316,新規,0,2023-09-06,2023-09-06,株式会社ヨシザワエンジニアリング,,株式会社,栃木県,鹿沼市,栃窪８１０番地１,,09,205,3220001,,,,,,,2023-09-06,1,,,,,ヨシザワエンジニアリング,0
811,3080101024202,新規,0,2023-09-06,2023-09-06,株式会社ｃｏｃｏ,,株式会社,静岡県,沼津市,大岡８５５番地の３１ｇａｒａｇｅｈｏｕｓｅＮ－ＩＩＩ,00131779,22,203,4100022,,,,,,,2023-09-06,1,,,,,ココ,0
812,3080103002882,新規,0,2023-09-06,2023-09-06,合同会社ヤマダ,,合同会社,静岡県,三島市,富士見台４３番地の１,,22,206,4110021,,,,,,,2023-09-06,1,,,,,ヤマダ,0
817,3110001037812,新規,0,2023-09-06,2023-09-06,株式会社中島製作所,,株式会社,新潟県,南魚沼市,大崎１７７８番地８,,15,226,9497251,,,,,,,2023-09-06,1,,,,,ナカジマセイサクジョ,0
824,3120001257839,新規,0,2023-09-06,2023-09-06,株式会社ＳＭＩＬＥ,,株式会社,大阪府,枚方市,東田宮１丁目３番２１号藤本ビル１階,,27,210,5730023,,,,,,,2023-09-06,1,,,,,スマイル,0
825,3120001257888,新規,0,2023-09-06,2023-09-06,株式会社ＫＥＩ‐ｐｌａｎ,,株式会社,大阪府,大阪市西成区,南津守７丁目１１番９号,,27,122,5570063,,,,,,,2023-09-06,1,,,,,ケイプラン,0
826,3120001257913,新規,0,2023-09-06,2023-09-06,株式会社Ｍｅｔａ　Ｏｓａｋａ,,株式会社,大阪府,大阪市中央区,平野町１丁目７番３号,,27,128,5410046,,,,,,,2023-09-06,1,,,,,メタオオサカ,0
827,3120001257921,新規,0,2023-09-06,2023-09-06,株式会社ハイテイ,,株式会社,大阪府,大阪市淀川区,田川２丁目５－１５,,27,123,5320027,,,,,,,2023-09-06,1,,,,,ハイテイ,0
828,3120001257938,新規,0,2023-09-06,2023-09-06,株式会社Ｙ’ｓ　ＳＨＥＥＴ　ＭＥＴＡＬ,,株式会社,大阪府,大阪市大正区,鶴町５丁目３番２５号,,27,108,5510023,,,,,,,2023-09-06,1,,,,,ワイズシートメタル,0
830,3120005023849,新規,0,2023-09-06,2023-09-06,一般社団法人階段普及推進協会,,その他の設立登記法人,大阪府,寝屋川市,三井南町１６番２－１３号,,27,215,5720019,,,,,,,2023-09-06,1,,,,,カイダンフキュウスイシンキョウカイ,0
831,3120005023865,新規,0,2023-09-06,2023-09-06,一般社団法人Ｃｌａｓｓ　Ｕｐ,,その他の設立登記法人,大阪府,大阪市中央区,南本町４丁目５－７東亜ビル９Ｆ,,27,128,5410054,,,,,,,2023-09-06,1,,,,,クラスアップ,0
833,3120101068145,新規,0,2023-09-06,2023-09-06,えんまる株式会社,,株式会社,大阪府,堺市堺区,甲斐町西２丁２番７－１３０４号,,27,141,5900950,,,,,,,2023-09-06,1,,,,,エンマル,0
834,3120101068153,新規,0,2023-09-06,2023-09-06,株式会社アシガ,,株式会社,大阪府,富田林市,須賀１丁目１番９号,,27,214,5840062,,,,,,,2023-09-06,1,,,,,アシガ,0
835,3120101068161,新規,0,2023-09-06,2023-09-06,株式会社ＳＯＵＥＩ塗装,,株式会社,大阪府,和泉市,鶴山台４丁目１２番１５－１８号,,27,219,5940013,,,,,,,2023-09-06,1,,,,,ソウエイトソウ,0
836,3120103005410,新規,0,2023-09-06,2023-09-06,合同会社ＫＲＡ毛髪研究所,,合同会社,大阪府,堺市北区,百舌鳥梅北町４丁２３２－４テールもず１Ｆ,,27,146,5918031,,,,,,,2023-09-06,1,,,,,ケーアールエーモウハツケンキュウショ,0
837,3120901048008,新規,0,2023-09-06,2023-09-06,株式会社優翔園,,株式会社,大阪府,池田市,神田３丁目４番１号,,27,204,5630043,,,,,,,2023-09-06,1,,,,,ユウショウエン,0
838,3120901048024,新規,0,2023-09-06,2023-09-06,株式会社ｆｅｒｍａｔａ,,株式会社,大阪府,箕面市,箕面５丁目１３番４７号,,27,220,5620001,,,,,,,2023-09-06,1,,,,,フェルマータ,0
840,3120903004818,新規,0,2023-09-06,2023-09-06,合同会社セイシン,,合同会社,大阪府,茨木市,五十鈴町４番３号,,27,211,5670842,,,,,,,2023-09-06,1,,,,,セイシン,0
851,3130003008933,新規,0,2023-09-06,2023-09-06,合同会社フェーリヌム,,合同会社,京都府,京都市下京区,七条通油小路東入大黒町２２７第２キョートビル４０２,,26,106,6008223,,,,,,,2023-09-06,1,,,,,フェーリヌム,0
852,3130003008974,新規,0,2023-09-06,2023-09-06,合同会社ＡＲＭＳ,,合同会社,京都府,京都市中京区,西ノ京西中合町５４－１,,26,104,6048441,,,,,,,2023-09-06,1,,,,,アームズ,0
853,3140001131538,新規,0,2023-09-06,2023-09-06,株式会社レオ・フィールド,,株式会社,兵庫県,神戸市西区,池上２丁目２０－１,,28,111,6512111,,,,,,,2023-09-06,1,,,,,レオフィールド,0
854,3140003019459,新規,0,2023-09-06,2023-09-06,合同会社ヌーノ,,合同会社,兵庫県,加古郡稲美町,国岡１６番地の２８,,28,381,6751115,,,,,,,2023-09-06,1,,,,,ヌーノ,0
855,3140003019517,新規,0,2023-09-06,2023-09-06,合同会社Ｇｏｏｄ　Ｖｉｂｅｓ,,合同会社,兵庫県,尼崎市,武庫の里１丁目１４－３,,28,202,6610041,,,,,,,2023-09-06,1,,,,,グッドバイブス,0
869,3180001157835,新規,0,2023-09-06,2023-09-06,株式会社勝志,,株式会社,愛知県,名古屋市名東区,上社１丁目１８０５番地,,23,115,4650025,,,,,,,2023-09-06,1,,,,,ショウジ,0
870,3180001157868,新規,0,2023-09-06,2023-09-06,株式会社ヒメ,,株式会社,愛知県,清須市,西枇杷島町城並１丁目８番地１９Ｃ,,23,233,4520011,,,,,,,2023-09-06,1,,,,,ヒメ,0
871,3180001157884,新規,0,2023-09-06,2023-09-06,株式会社ＴＳＵＮＡＧＵ,,株式会社,愛知県,名古屋市熱田区,木之免町４１６番地の２,,23,109,4560046,,,,,,,2023-09-06,1,,,,,ツナグ,0
872,3180001157892,新規,0,2023-09-06,2023-09-06,株式会社なゆたキャピタル,,株式会社,愛知県,半田市,平井町６丁目３３番地,,23,205,4750964,,,,,,,2023-09-06,1,,,,,ナユタキャピタル,0
873,3180001157901,新規,0,2023-09-06,2023-09-06,株式会社土宮,,株式会社,愛知県,名古屋市熱田区,新尾頭３丁目４番８号,,23,109,4560018,,,,,,,2023-09-06,1,,,,,ツチノミヤ,0
874,3180001157918,新規,0,2023-09-06,2023-09-06,ＳＯＬＡＭＩＬＵ株式会社,,株式会社,愛知県,名古屋市中村区,名駅１丁目１番１号ＪＰタワー名古屋２１階,,23,105,4500002,,,,,,,2023-09-06,1,,,,,ソラミル,0
875,3180001157926,新規,0,2023-09-06,2023-09-06,ＵＤトラックス中部株式会社,,株式会社,愛知県,名古屋市緑区,鳴海町字下汐田１５番地,,23,114,4580801,,,,,,,2023-09-06,1,,,,,ユーディートラックスチュウブ,0
876,3180001157942,新規,0,2023-09-06,2023-09-06,株式会社ＨＡＲＵｌａｚｕｌｉ,,株式会社,愛知県,名古屋市守山区,森孝１丁目９０１番地,,23,113,4630035,,,,,,,2023-09-06,1,,,,,ハルラズリ,0
878,3180003025692,新規,0,2023-09-06,2023-09-06,ｈｕｉｔ合同会社,,合同会社,愛知県,春日井市,高蔵寺町２丁目２８番地１グランフォーリア高蔵寺９０２号,,23,206,4870013,,,,,,,2023-09-06,1,,,,,ユイット,0
879,3180003025701,新規,0,2023-09-06,2023-09-06,合同会社村田商事,,合同会社,愛知県,名古屋市中村区,日比津町２丁目１５番３号,,23,105,4530061,,,,,,,2023-09-06,1,,,,,ムラタショウジ,0
885,3200001041656,新規,0,2023-09-06,2023-09-06,北良ホールディングス株式会社,,株式会社,岐阜県,本巣郡北方町,高屋白木３丁目１０９番地の２,,21,421,5010454,,,,,,,2023-09-06,1,,,,,ホクリョウホールディングス,0
886,3220001025582,新規,0,2023-09-06,2023-09-06,クレアルセンイ株式会社,,株式会社,石川県,小松市,白山町１４０番地７信開グランドハイツ．ヴァンベール２１１３号室,,17,203,9230951,,,,,,,2023-09-06,1,,,,,クレアルセンイ,0
887,3220005008781,新規,0,2023-09-06,2023-09-06,一般社団法人なないろネットワーク,,その他の設立登記法人,石川県,金沢市,横山町８番５号,,17,201,9200922,,,,,,,2023-09-06,1,,,,,ナナイロネットワーク,0
891,3230001019996,新規,0,2023-09-06,2023-09-06,株式会社ｃａｓａ　ｈｉｒｕ　ｇａｒｄｅｎ,,株式会社,富山県,富山市,山室３６番地１ＩＢビル１Ｆ,,16,201,9398006,,,,,,,2023-09-06,1,,,,,カーサヒルガーデン,0
899,3240001062095,新規,0,2023-09-06,2023-09-06,株式会社部矢産業,,株式会社,広島県,広島市東区,馬木２丁目５６３番地,,34,102,7320031,,,,,,,2023-09-06,1,,,,,ヘヤサンギョウ,0
913,3290001102912,新規,0,2023-09-06,2023-09-06,株式会社ＣＡ,,株式会社,福岡県,久留米市,東町４０番地２０－４Ｆ,,40,203,8300032,,,,,,,2023-09-06,1,,,,,シーエー,0
914,3290001102937,新規,0,2023-09-06,2023-09-06,あおぞら工業株式会社,,株式会社,福岡県,久留米市,江戸屋敷１丁目８番６３号サンライズ江藤２０４,,40,203,8300059,,,,,,,2023-09-06,1,,,,,アオゾラコウギョウ,0
915,3290001102945,新規,0,2023-09-06,2023-09-06,株式会社うるう伊都國,,株式会社,福岡県,糸島市,志摩新町２２番地１７,,40,230,8191333,,,,,,,2023-09-06,1,,,,,ウルウイトコク,0
916,3290001102953,新規,0,2023-09-06,2023-09-06,クリーンエース株式会社,,株式会社,福岡県,糟屋郡須惠町,大字須恵５７７番地９,,40,344,8112100,,,,,,,2023-09-06,1,,,,,クリーンエース,0
918,3290003014321,新規,0,2023-09-06,2023-09-06,合同会社ＬｉｆｅＢｏａｒｄコンサルティング,,合同会社,福岡県,福岡市博多区,住吉１丁目１－９－１１０４,,40,132,8120018,,,,,,,2023-09-06,1,,,,,ライフボードコンサルティング,0
925,3330001031215,新規,0,2023-09-06,2023-09-06,株式会社ｙａｍａ,,株式会社,熊本県,熊本市中央区,新屋敷３丁目１５番１１－１５０１号,,43,101,8620975,,,,,,,2023-09-06,1,,,,,ヤマ,0
926,3340001025884,新規,0,2023-09-06,2023-09-06,株式会社七ツ島商事,,株式会社,鹿児島県,鹿児島市,花野光ヶ丘２丁目１６番７号,,46,201,8911204,,,,,,,2023-09-06,1,,,,,ナナツジマショウジ,0
931,3360001032499,新規,0,2023-09-06,2023-09-06,株式会社ａｂｌａｔ,,株式会社,沖縄県,沖縄市,与儀１丁目３０番２０号ザ・プレースライカムプラチナムテラス２０４号室,,47,211,9042174,,,,,,,2023-09-06,1,,,,,エブラット,0
936,3380001033958,新規,0,2023-09-06,2023-09-06,株式会社ＵＮｉ,,株式会社,福島県,郡山市,田村町徳定字下河原３７番地,,07,203,9631165,,,,,,,2023-09-06,1,,,,,ユニ,0
937,3380001033966,新規,0,2023-09-06,2023-09-06,吉田防災通信株式会社,,株式会社,福島県,いわき市,小名浜中町境６番地の６バルモアール１０５,,07,204,9718163,,,,,,,2023-09-06,1,,,,,ヨシダボウサイツウシン,0
939,3380005012743,新規,0,2023-09-06,2023-09-06,特定非営利活動法人ｐｒｏＹＥＬＬ,,その他の設立登記法人,福島県,会津若松市,大町１丁目４番４０号,,07,202,9650042,,,,,,,2023-09-06,1,,,,,プロエール,0
944,3400001016357,新規,0,2023-09-06,2023-09-06,グランデザイン株式会社,,株式会社,岩手県,盛岡市,南大通１丁目２番１２号ＭＥＩＷＡＢＬＤＧ３Ｆ,,03,201,0200874,,,,,,,2023-09-06,1,,,,,グランデザイン,0
945,3400001016373,新規,0,2023-09-06,2023-09-06,株式会社シーバス,,株式会社,岩手県,盛岡市,中ノ橋通２丁目３番３－２０２号,,03,201,0200871,,,,,,,2023-09-06,1,,,,,シーバス,0
946,3400003003139,新規,0,2023-09-06,2023-09-06,合同会社昆事務所,,合同会社,岩手県,下閉伊郡山田町,織笠第１２地割３番地８５,,03,482,0281361,,,,,,,2023-09-06,1,,,,,コンジムショ,0
947,3410001013592,新規,0,2023-09-06,2023-09-06,地域おこし隊株式会社,,株式会社,秋田県,大仙市,大曲栄町１２番９号レオパレススクエア１０３,,05,212,0140061,,,,,,,2023-09-06,1,,,,,チイキオコシタイ,0
948,3420001018401,新規,0,2023-09-06,2023-09-06,株式会社ゆうなぎファーム,,株式会社,青森県,五所川原市,金木町川倉宇田野１６２番地１,,02,205,0370201,,,,,,,2023-09-06,1,,,,,ユウナギファーム,0
949,3420003002790,新規,0,2023-09-06,2023-09-06,Ｏｎｄｏ合同会社,,合同会社,青森県,上北郡おいらせ町,洋光台６丁目４番地１５,,02,412,0392236,,,,,,,2023-09-06,1,,,,,オンド,0
955,3430001089929,新規,0,2023-09-06,2023-09-06,株式会社稲垣工務店,,株式会社,北海道,札幌市清田区,平岡一条４丁目２番１１－３号,,01,110,0040871,,,,,,,2023-09-06,1,,,,,イナガキコウムテン,0
956,3430001089953,新規,0,2023-09-06,2023-09-06,ｗｉｚ株式会社,,株式会社,北海道,札幌市中央区,南九条西７丁目２番７－１０１号,,01,101,0640809,,,,,,,2023-09-06,1,,,,,ウィズ,0
959,3430005014767,新規,0,2023-09-06,2023-09-06,一般社団法人ｈａｃｏｎｉｗａ,,その他の設立登記法人,北海道,札幌市中央区,南一条西２７丁目１番４５－４１０号,,01,101,0640801,,,,,,,2023-09-06,1,,,,,ハコニワ,0
961,3470001019799,新規,0,2023-09-06,2023-09-06,株式会社エスエナジー,,株式会社,香川県,高松市,鍛冶屋町３番地,,37,201,7600028,,,,,,,2023-09-06,1,,,,,エスエナジー,0
964,3490001010582,新規,0,2023-09-06,2023-09-06,株式会社べっちゃく,,株式会社,高知県,香南市,香我美町山北２２１０番地,,39,211,7815453,,,,,,,2023-09-06,1,,,,,ベッチャク,0
969,3700150114831,新規,0,2023-09-06,2023-09-06,ＳＨＥＮＺＨＥＮＳＨＩ　ＳＥＮＨＵＩ　ＳＨＵＭＡＫＥＪＩ　ＹＯＵＸＩＡＮＧＯＮＧＳＩ,,外国会社等,,,,,,,,Ｍｉｎｚｈｉｊｉｅｄａｏ　Ｘｉｎｎｉｕｓｈｅｑｕ　Ｍｉｎｚｈｉｄａｄａｏ　ＮｉｕｌａｎｑｉａｎｄａｓｈａＢ５０８－１１　Ｌｏｎｇｈｕａｑｕ　Ｓｈｅｎｚｈｅｎｓｈｉ　Ｇｕａｎｇｄｏｎｇｓｈｅｎｇ　５１８０００　ＣＮ,,,,,,2023-09-06,1,,,,,シェンジェンシセンホイシュウマカージヨウシンゴーンス,0
970,3700150116126,新規,0,2023-09-06,2023-09-06,Ｓｈｅｎｚｈｅｎ　Ｓｈｉ　Ｈａｎ　Ｓｏｎｇ　Ｋｅ　Ｊｉ　Ｙｏｕ　Ｘｉａｎ　Ｇｏｎｇ　Ｓｉ,,外国会社等,,,,,,,,Ｓｈｅｎｚｈｅｎ　Ｓｈｉ　Ｌｏｎｇ　Ｈｕａ　Ｑｕ　Ｌｏｎｇ　Ｈｕａ　Ｊｉｅ　Ｄａｏ　Ｑｉｎｇ　Ｘｉａｎｇ　Ｌｕ　ＱｉｎｇＨｕ　Ｋｅ　Ｊｉ　Ｙｕａｎ　Ｃ　Ｄｏｎｇ　１１　Ｌｏｕ　１１６０,,,,,,2023-09-06,1,,,,,シェンジェンシハンソンカージヨウシエンゴンス,0
971,3700150119830,新規,0,2023-09-06,2023-09-06,Ｓｈｅｎｚｈｅｎ　Ｎａｎｙｉ　Ｔｅｃｈｎｏｌｏｇｙ　Ｃｏ．，Ｌｔｄ．,,外国会社等,,,,,,,,ｈｕａｆｅｎｇｇｕｏｊｉｓｈａｎｗｕｄａｓａ６ｌｏｕ　ｂａｏａｎｄａｄａｏ４０１８ｈａｏ　Ｘｉｘｉａｎｇ　Ｓｔｒｅｅｔ　Ｓｈｅｎｚｈｅｎ　５１８０００　ＣＮ,,,,,,2023-09-06,1,,,,,シェンジェンナンイーコージーヨウシエンゴンスー,0
972,3700150119839,新規,0,2023-09-06,2023-09-06,ｓｈｅｎｚｈｅｎｓｈｉｌｅｌｅｇｕｏｋｅｊｉ　ｙｏｕｘｉａｎｇｏｎｇｓｉ,,外国会社等,,,,,,,,Ｓｈｅｎｚｈｅｎｓｈｉｌｏｎｇｈｕａｑｕｆｕｃｈｅｎｇｊｉｅｄａｏｚｈａｎｇｇｅｓｈｅｑｕｚｈａｎｇｇｅｌａｏｃｕｎｄｏｎｇｑｕ１０８ｈａｏｈｏｎｇｔａｉｄａｓｈａ７０３　５１８１１０　ＣＮ,,,,,,2023-09-06,1,,,,,シンセンシレレグオカギヨウシェンゴンスー,0
973,3700150119847,新規,0,2023-09-06,2023-09-06,Ｓｈｅｎｚｈｅｎ　Ｈｅｓｈｕ　Ｔｅｃｈｎｏｌｏｇｙ　Ｃｏ．，Ｌｔｄ．,,外国会社等,,,,,,,,６１２，Ｎｏ．５５，Ａｉｎａｎ　Ｒｏａｄ，Ｌｏｎｇｄｏｎｇ　Ｃｏｍｍｕｎｉｔｙ，Ｂａｏｌｏｎｇ　Ｓｔｒｅｅｔ，Ｌｏｎｇｇａｎｇ　Ｄｉｓｔｒｉｃｔ．Ｓｈｅｎｚｈｅｎ,,,,,,2023-09-06,1,,,,,シンセンヘシュテクノロジーカンパニーリミテッド,0
974,3700150119855,新規,0,2023-09-06,2023-09-06,Ｗｕｈａｎ　ＪｉａＹｏｕＤａＣｈｕａｎ　Ｃｕｌｔｕｒｅ　Ｍｅｄｉａ　Ｃｏ．，Ｌｔｄ．,,外国会社等,,,,,,,,Ｎｏ．８－１７　Ｆｌｏｏｒ，Ｎｏ．１　Ａｐａｒｔｍｅｎｔ，Ｎｏ．１　Ｂｕｉｌｄｉｎｇ，Ｎｏ．５９－ＨｏｕＸｉａｎｇＨｅＢｅｉ　Ｒｏａｄ，Ｊｉａｎｇｈａｎ　Ｄｉｓｔｒｉｃｔ，Ｗｕｈａｎ　Ｃｉｔｙ,,,,,,2023-09-06,1,,,,,ブカンジャヨダツゥアンカルチャアカンパニーリミテッド,0
975,3700150119863,新規,0,2023-09-06,2023-09-06,Ｓｈｅｎｚｈｅｎ　Ｈｕｉｙｏｕｓｈｅｎｇ　Ｔｒａｄｉｎｇ　Ｃｏ．，Ｌｔｄ,,外国会社等,,,,,,,,４０８，Ｂｌｏｃｋ　Ｃ，Ｈｕａｆｅｎｇ　Ｃｒｅａｔｉｖｅ　Ｗｏｒｌｄ，Ｈａｎｇｃｈｅｎｇ　Ｉｎｄｕｓｔｒｉａｌ　Ｚｏｎｅ，Ｔａｏｙｕａｎ　Ｃｏｍｍｕｎｉｔｙ，Ｘｉｘｉａｎｇ　Ｓｔｒｅｅｔ，Ｂａｏ’ａｎ　Ｄｉｓｔｒｉｃｔ，Ｓｈｅｎｚｈｅｎ,,,,,,2023-09-06,1,,,,,シンセンホイヨウシエントレーデイングカンパニーリミテツド,0
990,4010001238155,新規,0,2023-09-06,2023-09-06,株式会社アンチキャンサーテクノロジズ,,株式会社,東京都,千代田区,一番町２２番地３,,13,101,1020082,,,,,,,2023-09-06,1,,,,,アンチキャンサーテクノロジズ,0
991,4010001238196,新規,0,2023-09-06,2023-09-06,株式会社オハナブルーム,,株式会社,東京都,中央区,銀座１丁目１２番４号Ｎ＆ＥＢＬＤ．７階,,13,102,1040061,,,,,,,2023-09-06,1,,,,,オハナブルーム,0
992,4010001238205,新規,0,2023-09-06,2023-09-06,株式会社誇高,,株式会社,東京都,中央区,銀座７丁目１３番２１号,,13,102,1040061,,,,,,,2023-09-06,1,,,,,ココウ,0
993,4010001238254,新規,0,2023-09-06,2023-09-06,株式会社ＪＦＴ　ＪＡＰＡＮ,,株式会社,東京都,千代田区,外神田６丁目１４番９号７階,,13,101,1010021,,,,,,,2023-09-06,1,,,,,ジェイエフティージャパン,0
994,4010001238262,新規,0,2023-09-06,2023-09-06,株式会社ＬＧ　Ｈｏｌｄｉｎｇｓ,,株式会社,東京都,中央区,日本橋兜町３番３号,,13,102,1030026,,,,,,,2023-09-06,1,,,,,エルジーホールディングス,0
995,4010001238287,新規,0,2023-09-06,2023-09-06,株式会社ティロワール,,株式会社,東京都,文京区,大塚４丁目１４番７－４０２号,,13,105,1120012,,,,,,,2023-09-06,1,,,,,ティロワール,0
998,4010003041581,新規,0,2023-09-06,2023-09-06,クレジット・ギャランティ８号合同会社,,合同会社,東京都,千代田区,内神田２丁目２番６号５階あすな会計事務所内,,13,101,1010047,,,,,,,2023-09-06,1,,,,,クレジットギャランティハチゴウ,0
999,4010005037231,新規,0,2023-09-06,2023-09-06,一般社団法人ＰＦ車両リース,,その他の設立登記法人,東京都,千代田区,平河町１丁目６番１５号シルスフィア会計事務所内,,13,101,1020093,,,,,,,2023-09-06,1,,,,,ピーエフシャリョウリース,0
1008,4010401176871,新規,0,2023-09-06,2023-09-06,株式会社ＫＳＧコンサルティング,,株式会社,東京都,港区,新橋３丁目８番８号,,13,103,1050004,,,,,,,2023-09-06,1,,,,,ケイエスジーコンサルティング,0
1009,4010401176913,新規,0,2023-09-06,2023-09-06,ＪＮ株式会社,,株式会社,東京都,港区,赤坂２丁目８番１４－５０４号,,13,103,1070052,,,,,,,2023-09-06,1,,,,,ジェン,0
1010,4010401176962,新規,0,2023-09-06,2023-09-06,株式会社デジタルコンテンツ研究所,,株式会社,東京都,港区,新橋２丁目１２番１７号,,13,103,1050004,,,,,,,2023-09-06,1,,,,,デジタルコンテンツケンキュウジョ,0
1011,4010401176970,新規,0,2023-09-06,2023-09-06,株式会社ＶＩＶＩＤＯ,,株式会社,東京都,港区,赤坂４丁目４番１６号クレスト赤坂２０１号室,,13,103,1070052,,,,,,,2023-09-06,1,,,,,ヴィヴィド,0
1012,4010401177003,新規,0,2023-09-06,2023-09-06,株式会社Ａｎｔｉｑｕｅ　Ｌｏｖｅｒｓ,,株式会社,東京都,港区,高輪３丁目２５番２３号京急第２ビル５Ｆ,,13,103,1080074,,,,,,,2023-09-06,1,,,,,アンティークラバー,0
1013,4010401177011,新規,0,2023-09-06,2023-09-06,ＥＤＥＮＡＩ株式会社,,株式会社,東京都,港区,六本木６丁目８番２９号六本木シローマンション３０３号,,13,103,1060032,,,,,,,2023-09-06,1,,,,,エデンエーアイ,0
1017,4010501050992,新規,0,2023-09-06,2023-09-06,株式会社ＦＵＵＵ,,株式会社,東京都,台東区,上野２丁目１２番１８号２Ｆ,,13,106,1100005,,,,,,,2023-09-06,1,,,,,フー,0
1019,4010505003443,新規,0,2023-09-06,2023-09-06,一般社団法人ＣＯＬ,,その他の設立登記法人,東京都,台東区,寿３丁目２０－７－１０１,,13,106,1110042,,,,,,,2023-09-06,1,,,,,シーオーエル,0
1023,4010805003052,新規,0,2023-09-06,2023-09-06,医療法人社団真道会,,その他の設立登記法人,東京都,大田区,上池台１丁目４５番１１号,,13,111,1450064,,,,,,,2023-09-06,1,,,,,シンドウカイ,0
1026,4010901053769,新規,0,2023-09-06,2023-09-06,株式会社竹本造園,,株式会社,東京都,世田谷区,船橋５丁目２９番３号,,13,112,1560055,,,,,,,2023-09-06,1,,,,,タケモトゾウエン,0
1031,4011001156768,新規,0,2023-09-06,2023-09-06,株式会社ＭＪ　ＫＩＴＣＨＥＮ,,株式会社,東京都,渋谷区,元代々木町９番４号山口ビル１Ｆ,,13,113,1510062,,,,,,,2023-09-06,1,,,,,エムジェーキッチン,0
1034,4011003017480,新規,0,2023-09-06,2023-09-06,合同会社オスカー,,合同会社,東京都,渋谷区,神宮前６丁目２３番４号桑野ビル２階,,13,113,1500001,,,,,,,2023-09-06,1,,,,,オスカー,0
1042,4011401025416,新規,0,2023-09-06,2023-09-06,ＭＥＭジャパン株式会社,,株式会社,東京都,板橋区,西台４丁目３番２８号,,13,119,1750045,,,,,,,2023-09-06,1,,,,,エムイーエムジャパン,0
1048,4011601027096,新規,0,2023-09-06,2023-09-06,颯和株式会社,,株式会社,東京都,練馬区,小竹町２丁目２７番６号,,13,120,1760004,,,,,,,2023-09-06,1,,,,,ソウワ,0
1049,4011601027105,新規,0,2023-09-06,2023-09-06,株式会社Ｌｅｉ,,株式会社,東京都,練馬区,富士見台４丁目１番４号ココガーデンＩ－１０１,00131781,13,120,1770034,,,,,,,2023-09-06,1,,,,,エルイーアイ,0
1050,4011603004044,新規,0,2023-09-06,2023-09-06,ｓｍｏｏｔｈ　ｌｉｆｅ　ｄｅｓｉｇｎ合同会社,,合同会社,東京都,練馬区,小竹町１丁目６６番２号,,13,120,1760004,,,,,,,2023-09-06,1,,,,,スムースライフデザイン,0
1052,4011801042985,新規,0,2023-09-06,2023-09-06,ピースリノベーション株式会社,,株式会社,東京都,葛飾区,東四つ木４丁目３２番４号,,13,122,1240014,,,,,,,2023-09-06,1,,,,,ピースリノベーション,0
1053,4011801043001,新規,0,2023-09-06,2023-09-06,株式会社Ｂ‐Ｆｏｌｓｈ,,株式会社,東京都,足立区,興野２丁目３１番１６号ルミエール高野３０７,,13,121,1230844,,,,,,,2023-09-06,1,,,,,ビーフォルシュ,0
1055,4011803005817,新規,0,2023-09-06,2023-09-06,サンライズ合同会社,,合同会社,東京都,足立区,伊興３丁目１番１３号,,13,121,1210823,,,,,,,2023-09-06,1,,,,,サンライズ,0
1058,4012703002788,新規,0,2023-09-06,2023-09-06,ＳＹＭＰＡＮＹ合同会社,,合同会社,東京都,西東京市,谷戸町２丁目１番７５－３４４,,13,229,1880001,,,,,,,2023-09-06,1,,,,,シンパニー,0
1059,4012803003174,新規,0,2023-09-06,2023-09-06,合同会社アームズ,,合同会社,東京都,立川市,上砂町１丁目１３番１号１０－６０１,,13,202,1900032,,,,,,,2023-09-06,1,,,,,アームズ,0
1060,4012805003222,新規,0,2023-09-06,2023-09-06,医療法人社団友尊会,,その他の設立登記法人,東京都,国分寺市,泉町２丁目９番３号泉ビル３階,,13,214,1850024,,,,,,,2023-09-06,1,,,,,ユタカカイ,0
1066,4020001153262,新規,0,2023-09-06,2023-09-06,株式会社ＥＮｐｏｏｌ,,株式会社,神奈川県,横浜市中区,弁天通２丁目２９カツヤビルＮｏ．１００６,,14,104,2310007,,,,,,,2023-09-06,1,,,,,エンプール,0
1067,4020001153312,新規,0,2023-09-06,2023-09-06,株式会社グレンデール,,株式会社,神奈川県,川崎市多摩区,西生田２丁目６番３号メリス西生田２Ｆ,,14,135,2140037,,,,,,,2023-09-06,1,,,,,グレンデール,0
1068,4020001153320,新規,0,2023-09-06,2023-09-06,株式会社ＨＡＴ,,株式会社,神奈川県,横浜市青葉区,新石川４丁目４番地１１－１０２号,,14,117,2250003,,,,,,,2023-09-06,1,,,,,エイチエイティ,0
1069,4020001153329,新規,0,2023-09-06,2023-09-06,日凛株式会社,,株式会社,神奈川県,横浜市中区,滝之上１０５番地３,,14,104,2310837,,,,,,,2023-09-06,1,,,,,ニチリン,0
1070,4020001153337,新規,0,2023-09-06,2023-09-06,株式会社Ｖｉｔａ　ｄｅｓｉｇｎ,,株式会社,神奈川県,横浜市港南区,港南中央通３番３－７０３号,,14,111,2330004,,,,,,,2023-09-06,1,,,,,ヴィータデザイン,0
1071,4020001153353,新規,0,2023-09-06,2023-09-06,株式会社０Ｘプラス,,株式会社,神奈川県,川崎市宮前区,南野川２丁目８番１３号,,14,136,2160042,,,,,,,2023-09-06,1,,,,,ゼロエックスプラス,0
1072,4020001153378,新規,0,2023-09-06,2023-09-06,株式会社笠木ラボ,,株式会社,神奈川県,横浜市中区,本牧大里町９番２３－１０１号,,14,104,2310823,,,,,,,2023-09-06,1,,,,,カサギラボ,0
1073,4020001153403,新規,0,2023-09-06,2023-09-06,花円喜株式会社,,株式会社,神奈川県,横浜市青葉区,荏子田１丁目１１番地４３,,14,117,2250005,,,,,,,2023-09-06,1,,,,,ハナマルキ,0
1075,4020003024528,新規,0,2023-09-06,2023-09-06,合同会社Ｔｉａ,,合同会社,神奈川県,横浜市南区,六ツ川１丁目３１１番地２,,14,105,2320066,,,,,,,2023-09-06,1,,,,,ティア,0
1076,4020003024536,新規,0,2023-09-06,2023-09-06,Ｏｎｌｉｖｅｓ合同会社,,合同会社,神奈川県,横浜市神奈川区,神大寺１丁目１２番１２号ＫＨＴテラス１０２号,,14,102,2210801,,,,,,,2023-09-06,1,,,,,オンリーヴス,0
1086,4030001155679,新規,0,2023-09-06,2023-09-06,株式会社ＤＹＮ,,株式会社,埼玉県,越谷市,千間台東４丁目６番地１,,11,222,3430042,,,,,,,2023-09-06,1,,,,,ダイン,0
1089,4030005021381,新規,0,2023-09-06,2023-09-06,行政書士法人ココカラザウルス,,その他の設立登記法人,埼玉県,坂戸市,千代田３丁目７番１０号上村マンションＡ棟２１０号室,,11,239,3500214,,,,,,,2023-09-06,1,,,,,ココカラザウルス,0
1093,4040001129905,新規,0,2023-09-06,2023-09-06,株式会社渡邉建装,,株式会社,千葉県,船橋市,二和西３丁目９番８号,,12,204,2740806,,,,,,,2023-09-06,1,,,,,ワタナベケンソウ,0
1094,4040001129913,新規,0,2023-09-06,2023-09-06,そよかぜグリーン株式会社,,株式会社,千葉県,野田市,瀬戸１０７４番地,,12,208,2780012,,,,,,,2023-09-06,1,,,,,ソヨカゼグリーン,0
1095,4040001129921,新規,0,2023-09-06,2023-09-06,株式会社千葉輸送サービス,,株式会社,千葉県,市原市,馬立７２４番地７,,12,219,2900221,,,,,,,2023-09-06,1,,,,,チバユソウサービス,0
1096,4040001129938,新規,0,2023-09-06,2023-09-06,株式会社める,,株式会社,千葉県,千葉市稲毛区,長沼町１６７番地１０１,,12,103,2630005,,,,,,,2023-09-06,1,,,,,メル,0
1097,4040001129946,新規,0,2023-09-06,2023-09-06,株式会社ちばでん,,株式会社,千葉県,千葉市中央区,浜野町９８６番地２,,12,101,2600824,,,,,,,2023-09-06,1,,,,,チバデン,0
1098,4040001129954,新規,0,2023-09-06,2023-09-06,株式会社Ｌｉｆｅ,,株式会社,千葉県,船橋市,本町６丁目２番１０－９１０号,,12,204,2730005,,,,,,,2023-09-06,1,,,,,ライフ,0
1099,4040001129970,新規,0,2023-09-06,2023-09-06,株式会社ＹＥＳ　Ｉｍｐｏｒｔ＆Ｅｘｐｏｒｔ　Ｊａｐａｎ,,株式会社,千葉県,成田市,美郷台３丁目１１番地１４カメリアハイツＢ２０３,,12,211,2860013,,,,,,,2023-09-06,1,,,,,イェスインポートアンドエクスポートジャパン,0
1100,4040001129979,新規,0,2023-09-06,2023-09-06,若葉住設株式会社,,株式会社,千葉県,野田市,木野崎１８５１番地の２,,12,208,2780002,,,,,,,2023-09-06,1,,,,,ワカバジュウセツ,0
1101,4040001129987,新規,0,2023-09-06,2023-09-06,ＩＮＣＲＡＦＴ株式会社,,株式会社,千葉県,千葉市稲毛区,山王町１３７番地４クラースＢ棟２０１号,,12,103,2630002,,,,,,,2023-09-06,1,,,,,インクラフト,0
1107,4050001053393,新規,0,2023-09-06,2023-09-06,株式会社芝壱,00131798,株式会社,茨城県,つくば市,作谷２６３３番地３,,08,220,3004204,,,,,,,2023-09-06,1,,,,,シバイチ,0
1108,4050001053402,新規,0,2023-09-06,2023-09-06,株式会社ＧｒｉＦ,,株式会社,茨城県,つくば市,上ノ室１７５５番地１,,08,220,3050023,,,,,,,2023-09-06,1,,,,,グリフ,0
1109,4050001053410,新規,0,2023-09-06,2023-09-06,大成企画ＬＡＢＯ株式会社,,株式会社,茨城県,水戸市,堀町２０８２番地の９,,08,201,3100903,,,,,,,2023-09-06,1,,,,,タイセイキカクラボ,0
1110,4050001053435,新規,0,2023-09-06,2023-09-06,株式会社ネオユナイト,,株式会社,茨城県,取手市,台宿２丁目１９－１３－２,,08,217,3020013,,,,,,,2023-09-06,1,,,,,ネオユナイト,0
1114,4050003007752,新規,0,2023-09-06,2023-09-06,合同会社ＳＯＡＲＥ,,合同会社,茨城県,鉾田市,梶山２２５３番地,,08,234,3112104,,,,,,,2023-09-06,1,,,,,ソアレ,0
1115,4050003007777,新規,0,2023-09-06,2023-09-06,合同会社ＫＭＡ,,合同会社,茨城県,土浦市,摩利山新田３２３番地３,,08,203,3000838,,,,,,,2023-09-06,1,,,,,ケーエムエー,0
1116,4060001036307,新規,0,2023-09-06,2023-09-06,株式会社Ｗ・Ｒ・ワーク,,株式会社,栃木県,さくら市,喜連川４３６３番地２,,09,214,3291412,,,,,,,2023-09-06,1,,,,,ダブリューアールワーク,0
1117,4060003004708,新規,0,2023-09-06,2023-09-06,合同会社ＳＡＮＲＡＩ,,合同会社,栃木県,宇都宮市,東宿郷３丁目２番５号コーポルベーレＩ　２階Ｓ－５号室,00131783,09,201,3210953,,,,,,,2023-09-06,1,,,,,サンライ,0
1125,4080101024201,新規,0,2023-09-06,2023-09-06,株式会社Ｍａｋｅｓ,,株式会社,静岡県,富士市,永田６７番地の２０美鳳堂ビル１Ｆ,,22,210,4170054,,,,,,,2023-09-06,1,,,,,メイクス,0
1132,4110003005155,新規,0,2023-09-06,2023-09-06,あやたけ合同会社,,合同会社,新潟県,新潟市東区,紫竹３丁目１０番１３号,,15,102,9500864,,,,,,,2023-09-06,1,,,,,アヤタケ,0
1138,4120003024831,新規,0,2023-09-06,2023-09-06,合同会社ポンクラフト,,合同会社,大阪府,大阪市城東区,蒲生１丁目１２－１０－４０３,,27,118,5360016,,,,,,,2023-09-06,1,,,,,ポンクラフト,0
1139,4120005023848,新規,0,2023-09-06,2023-09-06,一般社団法人日本ＤＸコミュニティ,,その他の設立登記法人,大阪府,大阪市北区,梅田１丁目２番２号大阪駅前第２ビル１２－１２,,27,127,5300001,,,,,,,2023-09-06,1,,,,,ニホンディーエックスコミュニティ,0
1140,4120005023864,新規,0,2023-09-06,2023-09-06,一般社団法人日本台湾茶協会,,その他の設立登記法人,大阪府,大阪市天王寺区,六万体町５－１５中野ビル１Ｆ,,27,109,5430074,,,,,,,2023-09-06,1,,,,,ニホンタイワンチャキョウカイ,0
1141,4120101068152,新規,0,2023-09-06,2023-09-06,株式会社ＫＳ‐ＴＥＣ,,株式会社,大阪府,泉佐野市,日根野５９８０番地の２,,27,213,5980021,,,,,,,2023-09-06,1,,,,,ケイエステック,0
1142,4120101068160,新規,0,2023-09-06,2023-09-06,株式会社Ｒａｐｐｏｒｔ,,株式会社,大阪府,泉大津市,西港町７番２６号,,27,206,5950052,,,,,,,2023-09-06,1,,,,,ラポール,0
1145,4120901048007,新規,0,2023-09-06,2023-09-06,株式会社ＨＲＴグランドレジデンス,,株式会社,大阪府,豊中市,末広町２丁目３番２５号,,27,203,5600024,,,,,,,2023-09-06,1,,,,,エイチアールティーグランドレジデンス,0
1155,4130001075140,新規,0,2023-09-06,2023-09-06,株式会社丸芳,,株式会社,京都府,京都市上京区,今出川通堀川西入西船橋町３３５番地メゾンゼフィール１０１,,26,102,6028434,,,,,,,2023-09-06,1,,,,,マルヨシ,0
1162,4140001131446,新規,0,2023-09-06,2023-09-06,ｇｒｏｗ不動産販売株式会社,,株式会社,兵庫県,神戸市西区,伊川谷町有瀬３６番地の１２ラ・ペジブル２０２号,,28,111,6512113,,,,,,,2023-09-06,1,,,,,グロウフドウサンハンバイ,0
1164,4150001026694,新規,0,2023-09-06,2023-09-06,ａｎｄ　Ｓ株式会社,,株式会社,奈良県,香芝市,旭ケ丘５丁目３５－２,,29,210,6390266,,,,,,,2023-09-06,1,,,,,アンドエス,0
1166,4160001025316,新規,0,2023-09-06,2023-09-06,株式会社ＫＡＭＡＳＡＴＯ,,株式会社,滋賀県,栗東市,下鈎１２８１番地２,,25,208,5203026,,,,,,,2023-09-06,1,,,,,カマサト,0
1167,4160001025324,新規,0,2023-09-06,2023-09-06,株式会社エーワン電機,,株式会社,滋賀県,高島市,新旭町太田２７７２番地７,,25,212,5201512,,,,,,,2023-09-06,1,,,,,エーワンデンキ,0
1177,4180001157859,新規,0,2023-09-06,2023-09-06,株式会社ｃｈａｌｅｕｒ,,株式会社,愛知県,春日井市,鳥居松町６丁目４６番地２,,23,206,4860844,,,,,,,2023-09-06,1,,,,,シャルール,0
1178,4180001157867,新規,0,2023-09-06,2023-09-06,株式会社ＬＩＮＫ,,株式会社,愛知県,名古屋市中区,錦２丁目５番５号八木兵伝馬町ビル３階,,23,106,4600003,,,,,,,2023-09-06,1,,,,,リンク,0
1179,4180001157875,新規,0,2023-09-06,2023-09-06,株式会社ＡＤＹＲＥＣ．,,株式会社,愛知県,名古屋市中村区,名駅４丁目２４番５号第２森ビル４０１,,23,105,4500002,,,,,,,2023-09-06,1,,,,,アディレック,0
1180,4180001157891,新規,0,2023-09-06,2023-09-06,株式会社Ｍ’ｓコーポレーション,,株式会社,愛知県,名古屋市千種区,清住町１丁目９４番地,,23,101,4640034,,,,,,,2023-09-06,1,,,,,エムズコーポレーション,0
1181,4180001157900,新規,0,2023-09-06,2023-09-06,ハヤトシステム株式会社,,株式会社,愛知県,名古屋市守山区,小幡北１３０６番地,,23,113,4630008,,,,,,,2023-09-06,1,,,,,ハヤトシステム,0
1182,4180001157909,新規,0,2023-09-06,2023-09-06,株式会社三輪電工,,株式会社,愛知県,あま市,本郷郷中２５番地ラフィネＥ１０３号,,23,237,4901116,,,,,,,2023-09-06,1,,,,,ミワデンコウ,0
1183,4180001157933,新規,0,2023-09-06,2023-09-06,Ｐａｒｔｓ　ＢＹＯ株式会社,,株式会社,愛知県,名古屋市中区,錦１丁目５番１１号伊藤忠ビル４階,,23,106,4600003,,,,,,,2023-09-06,1,,,,,パーツビーワイオー,0
1189,4180003025709,新規,0,2023-09-06,2023-09-06,合同会社インビテーション,,合同会社,愛知県,名古屋市天白区,表山２丁目１５０５番地,,23,116,4680069,,,,,,,2023-09-06,1,,,,,インビテーション,0
1190,4180005020336,新規,0,2023-09-06,2023-09-06,プライムスタッフ協同組合,,その他の設立登記法人,愛知県,名古屋市熱田区,三本松町２０番９号,,23,109,4560032,,,,,,,2023-09-06,1,,,,,プライムスタッフ,0
1191,4180005020344,新規,0,2023-09-06,2023-09-06,一般社団法人ぽんて,,その他の設立登記法人,愛知県,名古屋市中川区,宮脇町２丁目７１番地の３,,23,110,4540842,,,,,,,2023-09-06,1,,,,,ポンテ,0
1193,4180301037785,新規,0,2023-09-06,2023-09-06,株式会社コネクト,,株式会社,愛知県,豊田市,保見ケ丘３丁目５０番地,,23,211,4700353,,,,,,,2023-09-06,1,,,,,コネクト,0
1195,4190001030718,新規,0,2023-09-06,2023-09-06,株式会社ハウスアート,,株式会社,三重県,津市,雲出本郷町１５２３－３９,,24,201,5140304,,,,,,,2023-09-06,1,,,,,ハウスアート,0
1197,4190003004430,新規,0,2023-09-06,2023-09-06,合同会社松田設備,,合同会社,三重県,鈴鹿市,長太新町４丁目２番２０号,,24,207,5130041,,,,,,,2023-09-06,1,,,,,マツダセツビ,0
1199,4200001041647,新規,0,2023-09-06,2023-09-06,株式会社和久,,株式会社,岐阜県,高山市,桐生町４丁目４８１番地,,21,203,5060004,,,,,,,2023-09-06,1,,,,,ワク,0
1200,4200001041671,新規,0,2023-09-06,2023-09-06,株式会社Ｓｕｎ,,株式会社,岐阜県,大垣市,郭町２丁目２５番地,,21,202,5030887,,,,,,,2023-09-06,1,,,,,サン,0
1201,4200001041688,新規,0,2023-09-06,2023-09-06,Ｍ．Ｐｒｏｄｕｃｔ株式会社,,株式会社,岐阜県,関市,上之保１６０１２番地１,,21,205,5013601,,,,,,,2023-09-06,1,,,,,エムプロダクト,0
1203,4210001019452,新規,0,2023-09-06,2023-09-06,株式会社ＭＯＳＴ　ＢＵＲＹＡＮ,,株式会社,福井県,吉田郡永平寺町,法寺岡第９号１９番地,,18,322,9101211,,,,,,,2023-09-06,1,,,,,モストブリヤン,0
1208,4230001019995,新規,0,2023-09-06,2023-09-06,株式会社富悠,,株式会社,富山県,富山市,鵯島２１００番地６コーポウィンズＣ棟１２０,,16,201,9300885,,,,,,,2023-09-06,1,,,,,トミユウ,0
1210,4230005009332,新規,0,2023-09-06,2023-09-06,一般社団法人シェアリングケア,,その他の設立登記法人,富山県,富山市,流杉２２１番地５,,16,201,9398032,,,,,,,2023-09-06,1,,,,,シェアリングケア,0
1211,4240001062053,新規,0,2023-09-06,2023-09-06,株式会社さえＭＯＤＥ,,株式会社,広島県,福山市,神辺町大字湯野５０４番地７,,34,207,7210000,,,,,,,2023-09-06,1,,,,,サエモード,0
1212,4240001062061,新規,0,2023-09-06,2023-09-06,株式会社泰昌,,株式会社,広島県,広島市安芸区,矢野南５丁目１１番２－１０２号,,34,107,7360086,,,,,,,2023-09-06,1,,,,,タイショウ,0
1213,4240001062094,新規,0,2023-09-06,2023-09-06,株式会社Ｔｒｕｓｔ　Ｓｅｒｖｉｃｅ,,株式会社,広島県,広島市西区,観音新町１丁目６番２８－７０６号,,34,104,7330036,,,,,,,2023-09-06,1,,,,,トラストサービス,0
1214,4240003006280,新規,0,2023-09-06,2023-09-06,ＨＩＭＡＲＡＹＡ　ＳＡＫＵＲＡ合同会社,,合同会社,広島県,福山市,東川口町３丁目１４番８号,,34,207,7200821,,,,,,,2023-09-06,1,,,,,ヒマラヤサクラ,0
1215,4260001038282,新規,0,2023-09-06,2023-09-06,株式会社Ｃ＆Ｃｏ．,,株式会社,岡山県,玉野市,迫間２１３７番地８,,33,204,7060142,,,,,,,2023-09-06,1,,,,,シーアンドコー,0
1221,4290001102911,新規,0,2023-09-06,2023-09-06,株式会社Ｒｏｕｔｉｎｅ,,株式会社,福岡県,福岡市中央区,清川２丁目１３－３４プレミアージュ天神南９０１,,40,133,8100005,,,,,,,2023-09-06,1,,,,,ルーティーン,0
1223,4290003014320,新規,0,2023-09-06,2023-09-06,栗子合同会社,,合同会社,福岡県,福岡市東区,箱崎２丁目４０番１９－１０３,,40,131,8120053,,,,,,,2023-09-06,1,,,,,クリコ,0
1225,4290803004495,新規,0,2023-09-06,2023-09-06,合同会社ナチュラ,,合同会社,福岡県,田川市,丸山町１１番２３号,,40,206,8260033,,,,,,,2023-09-06,1,,,,,ナチュラ,0
1226,4300001013454,新規,0,2023-09-06,2023-09-06,ＤＯＴＬＡＭＰ株式会社,,株式会社,佐賀県,唐津市,浜玉町渕上４７２番地４,,41,202,8495104,,,,,,,2023-09-06,1,,,,,ドットランプ,0
1230,4310001018584,新規,0,2023-09-06,2023-09-06,Ｇｒｅｅｎ　Ｅｎｔｔｏ株式会社,,株式会社,長崎県,諫早市,森山町杉谷１７９番地２２,,42,204,8540205,,,,,,,2023-09-06,1,,,,,グリーンエント,0
1231,4310001018592,新規,0,2023-09-06,2023-09-06,株式会社ＳＡＳＨＩＭＩ,,株式会社,長崎県,平戸市,小田町２９番地,,42,207,8595534,,,,,,,2023-09-06,1,,,,,サシミ,0
1234,4320001019986,新規,0,2023-09-06,2023-09-06,濱一工業株式会社,00131790,株式会社,大分県,大分市,つるさき陽光台１９－８,,44,201,8700100,,,,,,,2023-09-06,1,,,,,ハマイチコウギョウ,0
1235,4330001031222,新規,0,2023-09-06,2023-09-06,株式会社ミナトＣｏ．,,株式会社,熊本県,合志市,幾久富１９０９番地１１５０,,43,216,8611112,,,,,,,2023-09-06,1,,,,,ミナトコ,0
1242,4360001032507,新規,0,2023-09-06,2023-09-06,宮古島リゾートウェディング株式会社,,株式会社,沖縄県,宮古島市,平良字西里３９０番地１Ｆ,,47,214,9060012,,,,,,,2023-09-06,1,,,,,ミヤコジマリゾートウェディング,0
1245,4370001050367,新規,0,2023-09-06,2023-09-06,栄基礎株式会社,,株式会社,宮城県,多賀城市,桜木１丁目４番８号,,04,209,9850842,,,,,,,2023-09-06,1,,,,,サカエキソ,0
1246,4370003006276,新規,0,2023-09-06,2023-09-06,合同会社ＩＮＤＩＧＯ,,合同会社,宮城県,黒川郡大和町,吉岡字西原８６―５,,04,421,9813621,,,,,,,2023-09-06,1,,,,,インディゴ,0
1250,4380001033965,新規,0,2023-09-06,2023-09-06,株式会社Ｌａｂｏナチュ・リ,,株式会社,福島県,須賀川市,袋田字石坦８６番地６,,07,207,9620057,,,,,,,2023-09-06,1,,,,,ラボナチュリ,0
1261,4400001016364,新規,0,2023-09-06,2023-09-06,株式会社マルカノ,,株式会社,岩手県,一関市,東山町長坂字町４３１番地２,,03,209,0290302,,,,,,,2023-09-06,1,,,,,マルカノ,0
1262,4400003003138,新規,0,2023-09-06,2023-09-06,合同会社Ｌｉｖｅ．ＲｅＦａ,,合同会社,岩手県,九戸郡洋野町,種市第２８地割２１６番地７,,03,507,0287912,,,,,,,2023-09-06,1,,,,,ライブリファ,0
1263,4420001018391,新規,0,2023-09-06,2023-09-06,株式会社野上板金工業所,,株式会社,青森県,北津軽郡中泊町,大字高根字小金石５９０番地２,,02,387,0370303,,,,,,,2023-09-06,1,,,,,ノガミバンキンコウギョウショ,0
1273,4440001009315,新規,0,2023-09-06,2023-09-06,株式会社ａｎｄ　Ｃｏ．,,株式会社,北海道,函館市,赤川町２１０番地１１,,01,202,0410804,,,,,,,2023-09-06,1,,,,,アンドコードット,0
1277,4470001019798,新規,0,2023-09-06,2023-09-06,株式会社Ｇｏｏｄ　Ｖｉｎｔａｇｅ,,株式会社,香川県,高松市,元山町５９６番地８,,37,201,7610311,,,,,,,2023-09-06,1,,,,,グッドビンテージ,0
1286,4700150113015,新規,0,2023-09-06,2023-09-06,ＨＡＮＧＺＨＯＵ　ＺＨＵＯＰＵ　ＸＩＮ　ＣＡＩＬＩＡＯ　ＫＥＪＩ　ＹＯＵＸＩＡＮＧＯＮＧＳＩ,,外国会社等,,,,,,,,Ｎｏ．８８　Ｆｅｉｃｕｉ　Ｒｏａｄ，Ｙａｎｇｄａｉ　Ｖｉｌｌａｇｅ，Ｊｉｎｎａｎ　Ｓｔｒｅｅｔ，Ｌｉｎ’ａｎ　Ｄｉｓｔｒｉｃｔ，Ｈａｎｇｚｈｏｕ　Ｚｈｅｊｉａｎｇ　Ｃｈｉｎａ，３１１３００,,,,,,2023-09-06,1,,,,,ハンチョウツオプーシンカイリャオクーチーヨウシエンゴンス,0
1287,4700150113717,新規,0,2023-09-06,2023-09-06,ＹｏｎｇＫａｎｇ　Ｌｅｍｍｙ　Ｍａｎｕｆａｃｔｕｒｉｎｇ　Ｃｏ．，Ｌｔｄ,,外国会社等,,,,,,,,Ｚａｏ　Ｔａｎｇ　Ｉｎｄｕｓｔｒｉａｌ　Ａｒｅａ　Ｘｉ　Ｃｈｅｎｇ　Ｓｔｒｅｅｔ　ＺｈｅＪｉａｎｇ　３２１３００　ＣＮ,,,,,,2023-09-06,1,,,,,ヨンカンレミーマニュファクチュアリングカンパニー,0
1288,4700150114582,新規,0,2023-09-06,2023-09-06,Ｓｈｅｎｚｈｅｎｓｈｉｚｈｉｈｕｉｘｉａｎｇｄｉａｎｚｉｓｈａｎｇｗｕｙｏｕｘｉａｎｇｏｎｇｓｉ,,外国会社等,,,,,,,,ｍｉｎｚｈｉｊｉｅｄａｏｍｉｎｚｈｉｓｈｅｑｕｍｉｎｚｈｉｄａｄａｏ２２２　ｄｏｎｇｂｉａｎｓｈａｎｇｙｅｄａｓｈａ４ｄｏｎｇｚｈｅｎｇｃｅｎｇ４０２７ｓｈｉ　ｓｈｅｎｚｈｅｎｓｈｉ　ｌｏｎｇｈｕａｑｕ　ｇｕａｎｇｄｏｎｇｓｈｅｎｇ　５１８１３１　ＣＮ,,,,,,2023-09-06,1,,,,,シンセンシジーホイシャンディエンズーシャーンヨウシエンゴンス,0
1289,4700150114830,新規,0,2023-09-06,2023-09-06,ｓｈｅｎｚｈｅｎｌａｉｋｅｓｉｋｅｊｉｙｏｕｘｉａｎｇｏｎｇｓｉ,,外国会社等,,,,,,,,１１０８，Ｂｌｏｃｋ　Ｂ，Ｃｏｌｏｒｆｕｌ　Ｓｃｉｅｎｃｅ　ａｎｄ　ＴｅｃｈｎｏｌｏｇｙＰａｒｋ，Ｎｏ．５　Ｇｕａｎｌｅ　Ｒｏａｄ，　Ｌｕｈｕ　Ｃｏｍｍｕｎｉｔｙ，Ｇｕａｎｈｕ　Ｓｔｒｅｅｔ，Ｌｏｎｇｈｕａ　Ｄｉｓｔｒｉｃｔ，Ｓｈｅｎｚｈｅｎ,,,,,,2023-09-06,1,,,,,シェンジェンシライコースケージヨウシエンゴンス,0
1290,4700150116125,新規,0,2023-09-06,2023-09-06,ｓｈｅｎｚｈｅｎｓｈｉ　ｙｕｎｇｕｃｈｕａｎｇｋｅ　ｋｅｊｉ　ｙｏｕｘｉａｎ　ｇｏｎｇｓｉ,,外国会社等,,,,,,,,ｎａｎｓｈａｎｑｕ　ｙｕｅｈａｉｊｉｅｄａｏ　ｈｏｕｈａｉ，ｌａｎｙｕｅｗａｎｐａｎ　１ｄｏｎｇ　６０４　Ｓｈｅｎｚｈｅｎ　Ｇｕａｎｇｄｏｎｇ　５１８０５４　ＣＮ,,,,,,2023-09-06,1,,,,,シェンジェンシユングーチャンカカージヨウシェンゴンス,0
1291,4700150116694,新規,0,2023-09-06,2023-09-06,ＣＴ　Ｇｌｏｂａｌ（ＵＫ）ＬＴＤ,,外国会社等,,,,,,,,ＴＯＷＥＲ　ＨＯＵＳＥ　ＬＡＮＥ　Ｅａｓｔ　Ｒｉｄｉｎｇ　ｏｆ　Ｙｏｒｋｓｈｉｒｅ　ＨＵＬＬ　Ｕｎｉｔｅｄ　Ｋｉｎｇｄｏｍ　ＨＵ１２　８ＥＥ,,,,,,2023-09-06,1,,,,,シーティーグローバルユーケーリミテッド,0
1292,4700150117387,新規,0,2023-09-06,2023-09-06,ＨＯＮＧＫＯＮＧ　ＡＯＹＡ　ＴＲＡＤＩＮＧ　ＬＩＭＩＴＥＤ,,外国会社等,,,,,,,,ＵＮＩＴ　１１０１Ｂ，１１／Ｆ．，ＬＩＰＰＯ　ＳＵＮ　ＰＬＡＺＡ，２８　ＣＡＮＴＯＮ　ＲＯＡＤ，ＴＳＩＭ　ＳＨＡ　ＴＳＵＩ，ＫＯＷＬＯＯＮ，ＨＯＮＧ　ＫＯＮＧ,,,,,,2023-09-06,1,,,,,ホンコンアオヤボウエキユウゲンカイシャ,0
1293,4700150119292,新規,0,2023-09-06,2023-08-25,大林学区地域運営委員会,,その他,広島県,広島市安佐北区,大林１丁目４－５,,34,106,7310201,,,,,,,2023-08-25,1,,,,,オオバヤシガツクチイキウンエイイインカイ,0
1294,4700150119838,新規,0,2023-09-06,2023-09-06,Ｓｈｅｎｚｈｅｎｓｈｉ　Ｃｈａｏｘｉｎｇ　Ｋｅｊｉ　Ｙｏｕｘｉａｎｇｏｎｇｓｉ,,外国会社等,,,,,,,,ｌｏｎｇｇａｎｇｑｕｂｕｊｉｊｉｅｄａｏｊｉｎｄａｏｔｉａｎｌｕ１２２８ｈａｏ　ｌｉｘｉａｎｇｘｉｎｃｈｅｎｇ８ｄｏｎｇＡｄａｎｙｕａｎ３０１　ｓｈｅｎｚｈｅｎｓｈｉ　５１８０００　ＣＮ,,,,,,2023-09-06,1,,,,,シンセンシチャオシンカギヨウシェンゴンスー,0
1295,4700150119846,新規,0,2023-09-06,2023-09-06,Ｘｉｎｙａｎｇ　Ｚｈｅｎｙｅ　Ｅｌｅｃｔｒｏｎｉｃ　Ｔｅｃｈｎｏｌｏｇｙ　Ｃｏ．，Ｌｔｄ,,外国会社等,,,,,,,,Ｅａｓｔ　ｏｆ　Ｌｏｎｇｊｉａｎｇ　Ａｖｅｎｕｅ　Ｎｏ．５　Ｂｕｉｌｄｉｎｇ，Ｂｕｎｋａ　Ｋｏ－ｋｕ，１　Ｕｎｉｔ，３０２　ｒｏｏｍｓ　Ｐｉｎｇｑｉａｏ　Ｄｉｓｔｒｉｃｔ　Ｘｉｎｙａｎｇ　Ｃｉｔｙ　Ｈｅｎａｎ　Ｐｒｏｖｉｎｃｅ,,,,,,2023-09-06,1,,,,,シンヤンゼンイェイレクトゥロニックテクノロジーカンパニーリミテッド,0
1296,4700150119854,新規,0,2023-09-06,2023-09-06,ｈｅｎａｎｙｕａｎｈａｏｄｉａｎｚｉｓｈａｎｇｍａｏｙｏｕｘｉａｎｇｏｎｇｓｉ,,外国会社等,,,,,,,,Ｅａｓｔ　ｏｆ　Ｂａｉｃｈｕａｎ　Ｒｏａｄ，Ｆａｎｃｈｅｎｇ　Ｓｕｂ－ｄｉｓｔｒｉｃｔ　Ｏｆｆｉｃｅ２０　ｍｅｔｅｒｓ　ｎｏｒｔｈ　ｏｆ　Ｘｉａｎｇｚｈａｎｇｙｕａｎ　Ｐｈａｓｅ　ＩＩＸｉｎｙａｎｇ　ＣｉｔｙＧｕｓｈｉ　ＣｏｕｎｔｙＨｅｎａｎ　Ｐｒｏｖｉｎｃｅ　４６５２４３　ＣＮ,00131728,,,,,2023-09-06,1,,,,,ホーナンユェンハオディエンズーシャンマオヨウシェンゴンスー,0
1297,4700150119862,新規,0,2023-09-06,2023-09-06,ＷＯＮＤＥＲＬＡＢＳ，ＩＮＣ,,外国会社等,,,,,,,,１２２４　ＮＯＲＴＨ　ＫＩＮＧ　ＳＴ．＃２４６　ＷＩＬＭＩＮＧＴＯＮ，ＤＥ　１９８０１　ＵＳ,,,,,,2023-09-06,1,,,,,ワンデレブスホウジンソシキ,0
1298,4700150119870,新規,0,2023-09-06,2023-09-06,Ｋｏｂｅ　Ｌａｎｋａ　Ｍｏｔｏｒｓ,,外国会社等,千葉県,茂原市,弓渡１１９８番地１００,,12,210,2994105,スリランカ民主社会主義共和国、パンウィラ、バンバレラロード、１７,,,,,,2023-09-06,1,,,,,コウベランカモータース,0
1310,5010001238162,新規,0,2023-09-06,2023-09-06,株式会社オフィスティエス,,株式会社,東京都,中央区,新川２丁目２１番１３－７０３号,,13,102,1040033,,,,,,,2023-09-06,1,,,,,オフィスティエス,0
1311,5010001238179,新規,0,2023-09-06,2023-09-06,株式会社エディプロ,,株式会社,東京都,中央区,銀座１丁目２２番１１号銀座大竹ビジデンス２Ｆ,,13,102,1040061,,,,,,,2023-09-06,1,,,,,エディプロ,0
1312,5010001238187,新規,0,2023-09-06,2023-09-06,ＴＪＳＫ　Ｃｏｍｐａｎｙ株式会社,,株式会社,東京都,中央区,日本橋堀留町１丁目１０番１号カクタビル２Ｆ,,13,102,1030012,,,,,,,2023-09-06,1,,,,,ティージェーエスケーカンパニー,0
1313,5010001238195,新規,0,2023-09-06,2023-09-06,Ｃｈａｉｎ　Ｃｏｎｓｕｌｔｉｎｇ株式会社,,株式会社,東京都,千代田区,神田紺屋町１５番地,,13,101,1010035,,,,,,,2023-09-06,1,,,,,チェインコンサルティング,0
1314,5010001238204,新規,0,2023-09-06,2023-09-06,株式会社カズレイ,,株式会社,東京都,千代田区,九段南３丁目８番１３号,,13,101,1020074,,,,,,,2023-09-06,1,,,,,カズレイ,0
1315,5010001238212,新規,0,2023-09-06,2023-09-06,ＳＯＲＡファイナンス株式会社,,株式会社,東京都,千代田区,鍛冶町２丁目４番１号,,13,101,1010044,,,,,,,2023-09-06,1,,,,,ソラファイナンス,0
1316,5010001238229,新規,0,2023-09-06,2023-09-06,株式会社ＨＫインベストメント,,株式会社,東京都,千代田区,六番町１３番地１ハイツ六番町５０１,,13,101,1020085,,,,,,,2023-09-06,1,,,,,エイチケイインベストメント,0
1317,5010001238253,新規,0,2023-09-06,2023-09-06,株式会社ヴィンテージ・クリエーション,,株式会社,東京都,千代田区,飯田橋１丁目７番１０号山京ビル本館４０６号,,13,101,1020072,,,,,,,2023-09-06,1,,,,,ヴィンテージクリエーション,0
1318,5010001238261,新規,0,2023-09-06,2023-09-06,株式会社リアン,,株式会社,東京都,中央区,日本橋室町１丁目１１番１２号日本橋水野ビル７階,,13,102,1030022,,,,,,,2023-09-06,1,,,,,リアン,0
1320,5010003041572,新規,0,2023-09-06,2023-09-06,送配電システムズ合同会社,,合同会社,東京都,千代田区,大手町１丁目３番２号,,13,101,1000004,,,,,,,2023-09-06,1,,,,,ソウハイデンシステムズ,0
1321,5010003041597,新規,0,2023-09-06,2023-09-06,メミル合同会社,,合同会社,東京都,千代田区,神田三崎町２丁目１０－１１Ｐｅｇビル３Ａ－５,,13,101,1010061,,,,,,,2023-09-06,1,,,,,メミル,0
1325,5010401176895,新規,0,2023-09-06,2023-09-06,株式会社Ｌｅ　Ｆｕｒｏ　Ｈｏｍｅ　Ｓｐａ,,株式会社,東京都,港区,六本木６丁目６番１５号,,13,103,1060032,,,,,,,2023-09-06,1,,,,,ルフロホームスパ,0
1326,5010401176945,新規,0,2023-09-06,2023-09-06,株式会社ＯＧＵ未来館,,株式会社,東京都,港区,港南２丁目１６番１号品川イーストワンタワー４階,,13,103,1080075,,,,,,,2023-09-06,1,,,,,オージーユーミライカン,0
1327,5010401177019,新規,0,2023-09-06,2023-09-06,株式会社アール,,株式会社,東京都,港区,六本木３丁目８－１２イーストビル２Ｆ,,13,103,1060032,,,,,,,2023-09-06,1,,,,,アール,0
1330,5010403030860,新規,0,2023-09-06,2023-09-06,Ｐｒｏｊｅｃｔ　Ｓｎｏｗ　Ｌｉｍｉｔｅｄ合同会社,,合同会社,東京都,港区,元麻布３丁目１番６号,,13,103,1060046,,,,,,,2023-09-06,1,,,,,プロジェクトスノーリミテッド,0
1331,5010403030869,新規,0,2023-09-06,2023-09-06,合同会社あさひ,,合同会社,東京都,港区,芝４丁目１６番１号カテリーナ三田タワースイートウエスト１７１２,,13,103,1080014,,,,,,,2023-09-06,1,,,,,アサヒ,0
1332,5010403030885,新規,0,2023-09-06,2023-09-06,Ｕｃｈｒ　Ｔｅｃｈｎｏｌｏｇｙ合同会社,,合同会社,東京都,港区,南青山３丁目１番３６号青山丸竹ビル６Ｆ,,13,103,1070062,,,,,,,2023-09-06,1,,,,,ユーカーテクノロジー,0
1337,5010701044802,新規,0,2023-09-06,2023-09-06,株式会社エアーアクション,,株式会社,東京都,品川区,西品川１丁目１番１号住友不動産大崎ガーデンタワー９階ＴＵＮＮＥＬＴＯＫＹＯ,,13,109,1410033,,,,,,,2023-09-06,1,,,,,エアーアクション,0
1339,5010801034307,新規,0,2023-09-06,2023-09-06,株式会社ｎｋｓ,,株式会社,東京都,大田区,大森北４丁目１４番１３号杉ビル２０２号室,,13,111,1430016,,,,,,,2023-09-06,1,,,,,エヌケーエス,0
1340,5010805003051,新規,0,2023-09-06,2023-09-06,Ｋ＆Ｓ税理士法人,,その他の設立登記法人,東京都,大田区,蒲田５丁目１９番７号,,13,111,1440052,,,,,,,2023-09-06,1,,,,,ケーアンドエス,0
1343,5010901053751,新規,0,2023-09-06,2023-09-06,株式会社白,,株式会社,東京都,世田谷区,玉川田園調布２丁目８番１号ケヤキ・ガーデン２０１,,13,112,1580085,,,,,,,2023-09-06,1,,,,,シロ,0
1344,5010901053768,新規,0,2023-09-06,2023-09-06,株式会社ルルディ,,株式会社,東京都,世田谷区,下馬６丁目４番４号,,13,112,1540002,,,,,,,2023-09-06,1,,,,,ルルディ,0
1345,5010901053776,新規,0,2023-09-06,2023-09-06,ミゲッド株式会社,,株式会社,東京都,世田谷区,代田１丁目４番１０号,,13,112,1550033,,,,,,,2023-09-06,1,,,,,ミゲッド,0
1351,5011001156742,新規,0,2023-09-06,2023-09-06,株式会社３ＳＬ,,株式会社,東京都,目黒区,上目黒２丁目４８番１０号２階,,13,110,1530051,,,,,,,2023-09-06,1,,,,,スリーエスエル,0
1352,5011001156759,新規,0,2023-09-06,2023-09-06,株式会社Ｂｒａｎｄｉｎｇ　Ｃａｒｅｅｒ,,株式会社,東京都,渋谷区,渋谷２丁目２２－３渋谷東口ビル６Ｆ,,13,113,1500002,,,,,,,2023-09-06,1,,,,,ブランディングキャリア,0
1357,5011005010202,新規,0,2023-09-06,2023-09-06,一般社団法人ＦＡＳＨＩＯＮ　ＢＡＮＫ,,その他の設立登記法人,東京都,渋谷区,代官山町２番７号シャトレ代官山５０３,,13,113,1500034,,,,,,,2023-09-06,1,,,,,ファッションバンク,0
1360,5011101104246,新規,0,2023-09-06,2023-09-06,株式会社朝日エンジニアリングスタッフ,,株式会社,東京都,新宿区,下宮比町２番１号,,13,104,1620822,,,,,,,2023-09-06,1,,,,,アサヒエンジニアリングスタッフ,0
1362,5011105010770,新規,0,2023-09-06,2023-09-06,医療法人社団永友会,,その他の設立登記法人,東京都,新宿区,河田町３－１０河田町安田ビル３階,,13,104,1620054,,,,,,,2023-09-06,1,,,,,エイユウカイ,0
1364,5011201024897,新規,0,2023-09-06,2023-09-06,株式会社ミレニアム,,株式会社,東京都,中野区,野方１丁目４２番１２号,,13,114,1650027,,,,,,,2023-09-06,1,,,,,ミレニアム,0
1366,5011401025423,新規,0,2023-09-06,2023-09-06,株式会社宇羽野,,株式会社,東京都,板橋区,常盤台１丁目６８番２号,,13,119,1740071,,,,,,,2023-09-06,1,,,,,ウバノ,0
1368,5011403004103,新規,0,2023-09-06,2023-09-06,合同会社むつのはな,,合同会社,東京都,板橋区,大山東町１４番１－９０７号,,13,119,1730014,,,,,,,2023-09-06,1,,,,,ムツノハナ,0
1369,5011603004043,新規,0,2023-09-06,2023-09-06,合同会社勘助会計,,合同会社,東京都,練馬区,谷原３丁目２５番１２－１１２号,,13,120,1770032,,,,,,,2023-09-06,1,,,,,カンスケカイケイ,0
1371,5011701026567,新規,0,2023-09-06,2023-09-06,株式会社ＫＥメディカルサポート,,株式会社,東京都,江戸川区,北葛西４丁目１－２２エクセル西葛西１階,,13,123,1340081,,,,,,,2023-09-06,1,,,,,ケーイーメディカルサポート,0
1374,5011801042984,新規,0,2023-09-06,2023-09-06,株式会社Ｒ・Ｂ・Ｓ,,株式会社,東京都,足立区,加賀１丁目１２番１３号,,13,121,1230861,,,,,,,2023-09-06,1,,,,,アールビーエス,0
1375,5011801042992,新規,0,2023-09-06,2023-09-06,株式会社かんの塗装工業,,株式会社,東京都,足立区,東伊興３丁目２２番１８号,,13,121,1210801,,,,,,,2023-09-06,1,,,,,カンノトソウコウギョウ,0
1376,5011801043000,新規,0,2023-09-06,2023-09-06,株式会社Ｇｒａｎｄ　Ｆｉｔ,,株式会社,東京都,足立区,綾瀬３丁目１９番１６号松代ビル２０２,,13,121,1200005,,,,,,,2023-09-06,1,,,,,グランドフィット,0
1378,5011805003297,新規,0,2023-09-06,2023-09-06,医療法人社団雪榮会,,その他の設立登記法人,東京都,足立区,保木間１丁目２７番２号,,13,121,1210064,,,,,,,2023-09-06,1,,,,,セツエイカイ,0
1380,5012303001867,新規,0,2023-09-06,2023-09-06,ｅ‐Ｃｏｍｐａｓｓ合同会社,,合同会社,東京都,町田市,成瀬１丁目７番地１０,,13,209,1940044,,,,,,,2023-09-06,1,,,,,イーコンパス,0
1385,5012401040949,新規,0,2023-09-06,2023-09-06,株式会社ｈａｌｖｅｓ８１,,株式会社,東京都,府中市,宮町２丁目１５番地の１３第１５ミツ木ビル３階,,13,206,1830023,,,,,,,2023-09-06,1,,,,,ハーブスハチジュウイチ,0
1388,5012701017820,新規,0,2023-09-06,2023-09-06,株式会社ｒｅｔｒｅａｔ,,株式会社,東京都,西東京市,西原町５丁目２番２１号,,13,229,1880004,,,,,,,2023-09-06,1,,,,,リトリート,0
1390,5012703002787,新規,0,2023-09-06,2023-09-06,合同会社イノーバ,,合同会社,東京都,西東京市,柳沢１丁目１２番２３号,,13,229,2020022,,,,,,,2023-09-06,1,,,,,イノーバ,0
1391,5012801022605,新規,0,2023-09-06,2023-09-06,株式会社ＧＳエンタープライズ,,株式会社,東京都,立川市,錦町１丁目１３番１２号,,13,202,1900022,,,,,,,2023-09-06,1,,,,,ジーエスエンタープライズ,0
1392,5012803003173,新規,0,2023-09-06,2023-09-06,合同会社なずな,,合同会社,東京都,国分寺市,本多５丁目１５番５号,,13,214,1850011,,,,,,,2023-09-06,1,,,,,ナズナ,0
1401,5020001153303,新規,0,2023-09-06,2023-09-06,株式会社新日東住建,,株式会社,神奈川県,横浜市南区,井土ケ谷下町４１番地１０－３０２号,,14,105,2320053,,,,,,,2023-09-06,1,,,,,シンニットウジュウケン,0
1402,5020001153311,新規,0,2023-09-06,2023-09-06,ジャパンライフサービス株式会社,,株式会社,神奈川県,横浜市中区,桜木町１丁目１番地７ヒューリックみなとみらい１０階,,14,104,2310062,,,,,,,2023-09-06,1,,,,,ジャパンライフサービス,0
1403,5020001153344,新規,0,2023-09-06,2023-09-06,株式会社東澤産業,,株式会社,神奈川県,横浜市西区,宮ケ谷２５番地１パークスクエア三ツ沢公園Ｂ３０１号,,14,103,2200006,,,,,,,2023-09-06,1,,,,,トウザワサンギョウ,0
1404,5020001153360,新規,0,2023-09-06,2023-09-06,株式会社オフィスニセン,,株式会社,神奈川県,川崎市川崎区,出来野６番３号,,14,131,2100825,,,,,,,2023-09-06,1,,,,,オフィスニセン,0
1405,5020001153369,新規,0,2023-09-06,2023-09-06,株式会社ＳｉｍｐＬＥ研,,株式会社,神奈川県,横浜市都筑区,中川４丁目９番５号,,14,118,2240001,,,,,,,2023-09-06,1,,,,,シンプルケン,0
1406,5020001153377,新規,0,2023-09-06,2023-09-06,株式会社砂辺塗装,,株式会社,神奈川県,横浜市港南区,日野５丁目１３番８号,,14,111,2340051,,,,,,,2023-09-06,1,,,,,スナベトソウ,0
1407,5020001153385,新規,0,2023-09-06,2023-09-06,株式会社ＯＨＳ,,株式会社,神奈川県,横浜市保土ケ谷区,釜台町十一丁目２１号ハイツＫ６－２０３号室,,14,106,2400066,,,,,,,2023-09-06,1,,,,,オーエイチエス,0
1410,5020003024543,新規,0,2023-09-06,2023-09-06,セイルアクロス合同会社,,合同会社,神奈川県,横浜市磯子区,杉田２丁目１１番１２号,,14,107,2350033,,,,,,,2023-09-06,1,,,,,セイルアクロス,0
1420,5021003013536,新規,0,2023-09-06,2023-09-06,グロース合同会社,,合同会社,神奈川県,小田原市,北ノ窪３４２番地の１サイドヒル北ノ窪１－３０８,,14,206,2500051,,,,,,,2023-09-06,1,,,,,グロース,0
1428,5030001155612,新規,0,2023-09-06,2023-09-06,株式会社ＴＥＮ,,株式会社,埼玉県,富士見市,関沢２丁目２５番５－１００４号,,11,235,3540025,,,,,,,2023-09-06,1,,,,,テン,0
1429,5030001155645,新規,0,2023-09-06,2023-09-06,株式会社尚美,,株式会社,埼玉県,川越市,大字吉田８１番地１,,11,201,3500807,,,,,,,2023-09-06,1,,,,,ショウビ,0
1430,5030001155760,新規,0,2023-09-06,2023-09-06,株式会社海赤豆,,株式会社,埼玉県,八潮市,大字大原４６９－１,,11,234,3400825,,,,,,,2023-09-06,1,,,,,カイコウズ,0
1432,5030003022414,新規,0,2023-09-06,2023-09-06,ＴＵＡＮ　ＭＡＩ合同会社,,合同会社,埼玉県,川口市,芝樋ノ爪１丁目１５番２１号ハイパレス参番館２０５号室,,11,203,3330852,,,,,,,2023-09-06,1,,,,,トゥンマイ,0
1439,5040001129846,新規,0,2023-09-06,2023-09-06,株式会社嘉久屋,,株式会社,千葉県,我孫子市,湖北台９丁目９番７号,,12,222,2701132,,,,,,,2023-09-06,1,,,,,カクヤ,0
1440,5040001129895,新規,0,2023-09-06,2023-09-06,株式会社三和,,株式会社,千葉県,船橋市,本郷町６７７－１西船プレジオ１０６,,12,204,2730033,,,,,,,2023-09-06,1,,,,,サンワ,0
1441,5040001129904,新規,0,2023-09-06,2023-09-06,株式会社Ｓｔｏｒｙ,,株式会社,千葉県,千葉市若葉区,貝塚町４２２番地４,,12,104,2640023,,,,,,,2023-09-06,1,,,,,ストーリー,0
1442,5040001129912,新規,0,2023-09-06,2023-09-06,株式会社ＳＩＭＢＡ,,株式会社,千葉県,柏市,中央２丁目１番３号柏中央ビル１Ｆ,,12,217,2770023,,,,,,,2023-09-06,1,,,,,シンバ,0
1443,5040001129920,新規,0,2023-09-06,2023-09-06,株式会社石橋興業,,株式会社,千葉県,市原市,ちはら台東１丁目２６番地１０,,12,219,2900141,,,,,,,2023-09-06,1,,,,,イシバシコウギョウ,0
1444,5040001129929,新規,0,2023-09-06,2023-09-06,株式会社イトー,,株式会社,千葉県,千葉市緑区,椎名崎町２０番地１,,12,105,2660016,,,,,,,2023-09-06,1,,,,,イトー,0
1445,5040001129945,新規,0,2023-09-06,2023-09-06,プライオス株式会社,,株式会社,千葉県,千葉市美浜区,中瀬１丁目３番地幕張テクノガーデンＣＢ棟３階ＭＢＰ,,12,106,2610023,,,,,,,2023-09-06,1,,,,,プライオス,0
1446,5040001129953,新規,0,2023-09-06,2023-09-06,株式会社ＫＴＫ,,株式会社,千葉県,佐倉市,吉見２５１番地１０,,12,212,2850834,,,,,,,2023-09-06,1,,,,,ケーティーケー,0
1447,5040001129978,新規,0,2023-09-06,2023-09-06,ＤＫｓｈａ株式会社,,株式会社,千葉県,木更津市,大久保２丁目１３番６号,,12,206,2920815,,,,,,,2023-09-06,1,,,,,ディーケーシャ,0
1450,5040003023270,新規,0,2023-09-06,2023-09-06,合同会社タイソレーパートナー,,合同会社,千葉県,市川市,北国分２丁目２７―４,,12,203,2720836,,,,,,,2023-09-06,1,,,,,タイソレーパートナー,0
1451,5050001053434,新規,0,2023-09-06,2023-09-06,株式会社クロニクル,,株式会社,茨城県,つくば市,上ノ室６８０番地７,,08,220,3050023,,,,,,,2023-09-06,1,,,,,クロニクル,0
1454,5060001036306,新規,0,2023-09-06,2023-09-06,株式会社小川電気,,株式会社,栃木県,さくら市,上河戸３６６番地,,09,214,3291401,,,,,,,2023-09-06,1,,,,,オガワデンキ,0
1455,5060001036322,新規,0,2023-09-06,2023-09-06,株式会社佐藤建材,,株式会社,栃木県,日光市,倉ケ崎７４０番地２９,,09,206,3212412,,,,,,,2023-09-06,1,,,,,サトウケンザイ,0
1466,5080101024191,新規,0,2023-09-06,2023-09-06,株式会社大静,,株式会社,静岡県,富士市,中柏原新田２０８番地,,22,210,4170832,,,,,,,2023-09-06,1,,,,,ダイセイ,0
1468,5080401026697,新規,0,2023-09-06,2023-09-06,株式会社愛の食宅,,株式会社,静岡県,浜松市中区,葵東２丁目２５番８号,,22,131,4338114,,,,,,,2023-09-06,1,,,,,アイノショクタク,0
1472,5110005016991,新規,0,2023-09-06,2023-09-06,一般社団法人新潟国際食養薬膳協会,,その他の設立登記法人,新潟県,新潟市西区,小針が丘３番２２号,,15,107,9502013,,,,,,,2023-09-06,1,,,,,ニイガタコクサイショクヨウヤクゼンキョウカイ,0
1477,5120001257804,新規,0,2023-09-06,2023-09-06,株式会社Ｇｌａｎｚ,,株式会社,大阪府,大阪市中央区,平野町２丁目５番８号,,27,128,5410046,,,,,,,2023-09-06,1,,,,,グランツ,0
1478,5120001257837,新規,0,2023-09-06,2023-09-06,株式会社山口建設,,株式会社,大阪府,守口市,八雲北町３丁目１１番１５－６２６号,,27,209,5700008,,,,,,,2023-09-06,1,,,,,ヤマグチケンセツ,0
1479,5120001257903,新規,0,2023-09-06,2023-09-06,大枝活版室株式会社,,株式会社,大阪府,守口市,大枝西町１７番１３号,,27,209,5700054,,,,,,,2023-09-06,1,,,,,オオエダカッパンシツ,0
1480,5120001257952,新規,0,2023-09-06,2023-09-06,株式会社ラウンドワンデリシャス,,株式会社,大阪府,大阪市中央区,難波５丁目１番６０号,,27,128,5420076,,,,,,,2023-09-06,1,,,,,ラウンドワンデリシャス,0
1482,5120005023855,新規,0,2023-09-06,2023-09-06,一般社団法人国際茶花研究会,,その他の設立登記法人,大阪府,大阪市中央区,東心斎橋１丁目１３番１１号４階,,27,128,5420083,,,,,,,2023-09-06,1,,,,,コクサイチャカケンキュウカイ,0
1483,5120101068135,新規,0,2023-09-06,2023-09-06,株式会社リメンバーワン,,株式会社,大阪府,和泉市,肥子町２丁目６番４７－６０５号,,27,219,5940076,,,,,,,2023-09-06,1,,,,,リメンバーワン,0
1485,5120901047998,新規,0,2023-09-06,2023-09-06,株式会社ケーエヌコーポレーション,,株式会社,大阪府,吹田市,岸部中１丁目７番１７号,,27,205,5640002,,,,,,,2023-09-06,1,,,,,ケーエヌコーポレーション,0
1486,5120901048006,新規,0,2023-09-06,2023-09-06,株式会社ＯＮＥＴＩＭＥ,,株式会社,大阪府,豊中市,中桜塚５丁目１番１－６０８号,,27,203,5610881,,,,,,,2023-09-06,1,,,,,ワンタイム,0
1487,5120901048022,新規,0,2023-09-06,2023-09-06,ひだまりホールディングス株式会社,,株式会社,大阪府,高槻市,浦堂本町５番１１号,,27,207,5691028,,,,,,,2023-09-06,1,,,,,ヒダマリホールディングス,0
1493,5130001075131,新規,0,2023-09-06,2023-09-06,鳥居株式会社,,株式会社,京都府,京都市伏見区,深草小久保町２３９番地,,26,109,6128437,,,,,,,2023-09-06,1,,,,,トリイ,0
1495,5130003008948,新規,0,2023-09-06,2023-09-06,合同会社エムズ・カポティ,,合同会社,京都府,京都市下京区,朱雀宝蔵町４４番地協栄ビル２階京都朱雀スタジオ,,26,106,6008846,,,,,,,2023-09-06,1,,,,,エムズカポティ,0
1500,5140001131404,新規,0,2023-09-06,2023-09-06,株式会社ＢＲＩＳＫ　ＳＴＡＮＤ,,株式会社,兵庫県,神戸市中央区,元町通５丁目４－８三木ビル１階,,28,110,6500022,,,,,,,2023-09-06,1,,,,,ブリスクスタンド,0
1508,5170003001916,新規,0,2023-09-06,2023-09-06,合同会社Ｏｆｆｉｃｅ　Ｋｉｔａ,,合同会社,和歌山県,伊都郡かつらぎ町,大字東渋田２４６番地の１,,30,341,6497151,,,,,,,2023-09-06,1,,,,,オフィスキタ,0
1514,5180001157841,新規,0,2023-09-06,2023-09-06,株式会社ファーストラック,,株式会社,愛知県,名古屋市緑区,鳴海町字宿地１４８番地の４,,23,114,4580801,,,,,,,2023-09-06,1,,,,,ファーストラック,0
1515,5180001157866,新規,0,2023-09-06,2023-09-06,株式会社Ｍｅｒｒｙ,,株式会社,愛知県,春日井市,高山町２丁目２３番地２３,,23,206,4860912,,,,,,,2023-09-06,1,,,,,メリー,0
1516,5180001157882,新規,0,2023-09-06,2023-09-06,株式会社ロイヤル商事,,株式会社,愛知県,あま市,七宝町川部四反田３５番地,,23,237,4970013,,,,,,,2023-09-06,1,,,,,ロイヤルショウジ,0
1517,5180001157924,新規,0,2023-09-06,2023-09-06,株式会社ＩＭＡＩ　ＫＯＧＹＯ,,株式会社,愛知県,名古屋市守山区,大牧町３番８号,,23,113,4630085,,,,,,,2023-09-06,1,,,,,イマイコウギョウ,0
1518,5180001157949,新規,0,2023-09-06,2023-09-06,株式会社ファーストクラス,,株式会社,愛知県,名古屋市中村区,名駅南１丁目１２番２号,,23,105,4500003,,,,,,,2023-09-06,1,,,,,ファーストクラス,0
1519,5180001157957,新規,0,2023-09-06,2023-09-06,株式会社はるまついぶき,,株式会社,愛知県,名古屋市中区,大須２丁目２０番３６号,,23,106,4600011,,,,,,,2023-09-06,1,,,,,ハルマツイブキ,0
1525,5180003025690,新規,0,2023-09-06,2023-09-06,合同会社Ｕｎｉｔｅｄ　ｓｃｈｅｍｅ,,合同会社,愛知県,名古屋市中村区,名駅４丁目２４番５号第２森ビル４０１,,23,105,4500002,,,,,,,2023-09-06,1,,,,,ユナイテッドスキーム,0
1526,5180003025699,新規,0,2023-09-06,2023-09-06,合同会社ＲＡＮＤＳコーポレーション,,合同会社,愛知県,常滑市,市場町２丁目６９番地メゾン・ド・ポテリＢ棟２０１号,,23,216,4790828,,,,,,,2023-09-06,1,,,,,ランズコーポレーション,0
1527,5180003025708,新規,0,2023-09-06,2023-09-06,合同会社Ｎ．Ｋ,,合同会社,愛知県,名古屋市天白区,井の森町１３６番地の１サンクレーア野並ウエストコート３０２号,,23,116,4680047,,,,,,,2023-09-06,1,,,,,エヌケー,0
1528,5180005020343,新規,0,2023-09-06,2023-09-06,一般社団法人瀬戸ツクルスクール,,その他の設立登記法人,愛知県,瀬戸市,松原町２丁目８番地,,23,204,4890985,,,,,,,2023-09-06,1,,,,,セトツクルスクール,0
1531,5200001041646,新規,0,2023-09-06,2023-09-06,株式会社ウェルハピ,,株式会社,岐阜県,多治見市,西坂町２丁目６５番地,,21,204,5070051,,,,,,,2023-09-06,1,,,,,ウェルハピ,0
1535,5200003006069,新規,0,2023-09-06,2023-09-06,合同会社グローバルスマイル,,合同会社,岐阜県,岐阜市,光町２丁目３３番地２ルーチェ１階,,21,201,5020901,,,,,,,2023-09-06,1,,,,,グローバルスマイル,0
1537,5210001019443,新規,0,2023-09-06,2023-09-06,株式会社ＩＤＯ建板社,,株式会社,福井県,福井市,東森田３丁目２０１番地,,18,201,9100138,,,,,,,2023-09-06,1,,,,,アイドゥケンバンシャ,0
1538,5210001019451,新規,0,2023-09-06,2023-09-06,株式会社輝真商店,,株式会社,福井県,福井市,大島町前浜４０３番１号米岡ビル２階,,18,201,9188018,,,,,,,2023-09-06,1,,,,,テルマショウテン,0
1540,5220001025589,新規,0,2023-09-06,2023-09-06,株式会社スタディオプラム,,株式会社,石川県,金沢市,玉鉾１丁目１６８番地松本ビル２０２号室,,17,201,9218002,,,,,,,2023-09-06,1,,,,,スタディオプラム,0
1545,5230001019994,新規,0,2023-09-06,2023-09-06,株式会社たけまさ亭,,株式会社,富山県,砺波市,五郎丸２１７番地１,,16,208,9391327,,,,,,,2023-09-06,1,,,,,タケマサテイ,0
1546,5230001020003,新規,0,2023-09-06,2023-09-06,ＭＧ株式会社,,株式会社,富山県,富山市,西町９番２号,,16,201,9300062,,,,,,,2023-09-06,1,,,,,エムジー,0
1549,5240001062060,新規,0,2023-09-06,2023-09-06,株式会社ＴＳＵＢＯＳＡＮ　ＨＤ,,株式会社,広島県,呉市,仁方桟橋通１５１１番地,,34,202,7370154,,,,,,,2023-09-06,1,,,,,ツボサンホールディングス,0
1550,5240001062077,新規,0,2023-09-06,2023-09-06,ＦＣホールディングス株式会社,,株式会社,広島県,福山市,箕沖町９９番地１２,,34,207,7210956,,,,,,,2023-09-06,1,,,,,エフシーホールディングス,0
1551,5240001062085,新規,0,2023-09-06,2023-09-06,株式会社東桜産業,,株式会社,広島県,広島市西区,庚午南２丁目３７番２３号,,34,104,7330823,,,,,,,2023-09-06,1,,,,,トウオウサンギョウ,0
1552,5250001020273,新規,0,2023-09-06,2023-09-06,ケイズ株式会社,,株式会社,山口県,下関市,椋野上町５番２号,,35,201,7510812,,,,,,,2023-09-06,1,,,,,ケイズ,0
1555,5260003004414,新規,0,2023-09-06,2023-09-06,合同会社Ｆｉｎｓｂｕｒｙ　Ｐａｒｋ,,合同会社,岡山県,岡山市北区,東古松５丁目１番３２号サーパス大元公園レジデンス８０１号,,33,101,7000921,,,,,,,2023-09-06,1,,,,,フィンズベリーパーク,0
1556,5280001009033,新規,0,2023-09-06,2023-09-06,株式会社のがわや旅館,,株式会社,島根県,大田市,温泉津町温泉津ロ３０番地,,32,205,6992501,,,,,,,2023-09-06,1,,,,,ノガワヤリョカン,0
1561,5290001102860,新規,0,2023-09-06,2023-09-06,ＪＡＰＡＮ　ＢＵＩＬＤＩＮＧ株式会社,,株式会社,福岡県,久留米市,東櫛原町４８７番地,00131791,40,203,8300003,,,,,,,2023-09-06,1,,,,,ジャパンビルディング,0
1562,5290001102869,新規,0,2023-09-06,2023-09-06,株式会社ＮＥＷ　ＥＩＧＨＴ,,株式会社,福岡県,久留米市,田主丸町益生田２２５６番地４,,40,203,8391213,,,,,,,2023-09-06,1,,,,,ニューエイト,0
1563,5290001102885,新規,0,2023-09-06,2023-09-06,西新不動産株式会社,,株式会社,福岡県,福岡市早良区,祖原１６番２号,,40,137,8140005,,,,,,,2023-09-06,1,,,,,ニシジンフドウサン,0
1564,5290001102902,新規,0,2023-09-06,2023-09-06,株式会社福栄電工社,,株式会社,福岡県,福岡市早良区,小田部２丁目７番３号ハートホームＩＡ－３,00131787,40,137,8140032,,,,,,,2023-09-06,1,,,,,フクエイデンコウシャ,0
1565,5290001102910,新規,0,2023-09-06,2023-09-06,株式会社五稜縁,,株式会社,福岡県,久留米市,北野町赤司１６４１番地１,,40,203,8301127,,,,,,,2023-09-06,1,,,,,ゴリョウエン,0
1566,5290001102943,新規,0,2023-09-06,2023-09-06,株式会社Ｒ‐ＮＥＸＴ,,株式会社,福岡県,福岡市博多区,博多駅前１丁目２３番２号ＰａｒｋＦｒｏｎｔ博多駅前一丁目５Ｆ－Ｂ,,40,132,8120011,,,,,,,2023-09-06,1,,,,,アールネクスト,0
1567,5290003014311,新規,0,2023-09-06,2023-09-06,合同会社ＮａｎａＬｉｎｏ,,合同会社,福岡県,福岡市西区,野方５丁目４７番８号,,40,135,8190043,,,,,,,2023-09-06,1,,,,,ナナリノ,0
1569,5300001013445,新規,0,2023-09-06,2023-09-06,株式会社中西食品,,株式会社,佐賀県,鹿島市,大字森１３２３番地,,41,207,8491303,,,,,,,2023-09-06,1,,,,,ナカニシショクヒン,0
1572,5330001031221,新規,0,2023-09-06,2023-09-06,株式会社ｃｌｏｔｈ　ｒｏａｄ,,株式会社,熊本県,熊本市東区,画図町大字重富９５６番地３,,43,102,8620947,,,,,,,2023-09-06,1,,,,,クロスロード,0
1580,5360001032522,新規,0,2023-09-06,2023-09-06,株式会社ジュリナハ,,株式会社,沖縄県,浦添市,伊祖１丁目２９番１号太田ビル１０１,,47,208,9012132,,,,,,,2023-09-06,1,,,,,ジュリナハ,0
1584,5360003013272,新規,0,2023-09-06,2023-09-06,琉球ＲＥＤＳ合同会社,,合同会社,沖縄県,那覇市,泊２丁目５番地１４,,47,201,9000012,,,,,,,2023-09-06,1,,,,,リュウキュウレッズ,0
1585,5370001050358,新規,0,2023-09-06,2023-09-06,株式会社ｃｏｌｏｒｓ,,株式会社,宮城県,名取市,高舘吉田字野来４８番地の１６,,04,207,9811242,,,,,,,2023-09-06,1,,,,,カラーズ,0
1586,5370001050366,新規,0,2023-09-06,2023-09-06,株式会社ｆｅｌｌｏｗ‐ｋｏｈｋ,,株式会社,宮城県,亘理郡亘理町,長瀞字稲荷前２５番地,00131786,04,361,9892341,,,,,,,2023-09-06,1,,,,,フェローコーク,0
1595,5380001033964,新規,0,2023-09-06,2023-09-06,株式会社海老名建築,,株式会社,福島県,喜多方市,松山町大飯坂字下川端２５４５番地３,,07,208,9660903,,,,,,,2023-09-06,1,,,,,エビナケンチク,0
1596,5380001033972,新規,0,2023-09-06,2023-09-06,株式会社スパイシーハンドレッド,,株式会社,福島県,福島市,野田町１丁目１３番２１号,,07,201,9608055,,,,,,,2023-09-06,1,,,,,スパイシーハンドレッド,0
1598,5380003005557,新規,0,2023-09-06,2023-09-06,福島蓄電池事業２合同会社,,合同会社,福島県,西白河郡西郷村,大字羽太字赤柴２番地１８,,07,461,9618001,,,,,,,2023-09-06,1,,,,,フクシマチクデンチジギョウニ,0
1599,5400001016363,新規,0,2023-09-06,2023-09-06,株式会社大志測量,,株式会社,岩手県,奥州市,江刺岩谷堂字向山３番地２９５,,03,215,0231101,,,,,,,2023-09-06,1,,,,,ダイシソクリョウ,0
1604,5420001018390,新規,0,2023-09-06,2023-09-06,春日電工株式会社,,株式会社,青森県,八戸市,大字是川字坊ア坂４番地７８,,02,203,0310023,,,,,,,2023-09-06,1,,,,,カスガデンコウ,0
1605,5420001018399,新規,0,2023-09-06,2023-09-06,高松恒産株式会社,,株式会社,青森県,十和田市,大字三本木字里ノ沢１番地６２,,02,206,0340001,,,,,,,2023-09-06,1,,,,,タカマツコウサン,0
1607,5420003002789,新規,0,2023-09-06,2023-09-06,鈴新合同会社,,合同会社,青森県,上北郡六戸町,大字犬落瀬字上淋代９３番地２,,02,405,0330071,,,,,,,2023-09-06,1,,,,,スズシン,0
1609,5440001009314,新規,0,2023-09-06,2023-09-06,株式会社エンモーション,,株式会社,北海道,函館市,本町１８－１５アリエーテ本町１０５,,01,202,0400011,,,,,,,2023-09-06,1,,,,,,0
1610,5440003001541,新規,0,2023-09-06,2023-09-06,合同会社ラグジュアリー・トレード北海道,,合同会社,北海道,函館市,富岡町２丁目４番２１号,,01,202,0410811,,,,,,,2023-09-06,1,,,,,ラグジュアリートレードホッカイドウ,0
1612,5470001019789,新規,0,2023-09-06,2023-09-06,ＢＵＤＤＩＣＡ・ＤＩＲＥＣＴ株式会社,,株式会社,香川県,高松市,西山崎町８８７番地３,,37,201,7618045,,,,,,,2023-09-06,1,,,,,バディカダイレクト,0
1613,5470003002479,新規,0,2023-09-06,2023-09-06,合同会社キングスヤード,,合同会社,香川県,高松市,常磐町１丁目２番地２キングスヤードビル,,37,201,7600054,,,,,,,2023-09-06,1,,,,,キングスヤード,0
1617,5480005006980,新規,0,2023-09-06,2023-09-06,特定非営利活動法人徳島シニアサポートパートナー,,その他の設立登記法人,徳島県,阿波市,市場町尾開字八坂４３７番地,,36,206,7711621,,,,,,,2023-09-06,1,,,,,トクシマシニアサポートパートナー,0
1619,5490001010580,新規,0,2023-09-06,2023-09-06,株式会社みきグループ,,株式会社,高知県,安芸郡安田町,大字安田１７１６番地６,,39,304,7816421,,,,,,,2023-09-06,1,,,,,ミキグループ,0
1626,5700150114581,新規,0,2023-09-06,2023-09-06,Ｓｈｅｎｚｈｅｎｓｈｉ　Ｘｉｎｇｑｉｓａｎ　Ｄｉａｎｚｉ　Ｓｈａｎｇｗｕ　Ｙｏｕｘｉａｎｇｏｎｇｓｉ,,外国会社等,,,,,,,,ＦｕｔｉａｎｑｕｌｉａｎｈｕａｊｉｅｄａｏＭｅｉｌｉｎｇｓｈｅｑｕＸｉｎｗｅｎｌｕ５９ｈａｏ　Ｓｈｅｎｍａｏｓｈａｎｇｙｅｚｈｏｎｇｘｉｎ１０Ａ－Ｔ１９　Ｓｈｅｎｚｈｅｎｓｈｉ　Ｇｕａｎｇｄｏｎｇｓｈｅｎｇ　５１８０００　ＣＮ,,,,,,2023-09-06,1,,,,,シンセンシシンチーサンディエンツーシャンウーヨウシエンゴンス,0
1627,5700150119829,新規,0,2023-09-06,2023-09-06,Ｌｉａｎｙｕｎｇａｎｇｍａｎｋａｎｇ　ｉｎｔｅｌｌｉｇｅｎｔ　ｔｅｃｈｎｏｌｏｇｙ　ｃｏ．，ｌｔｄ,,外国会社等,,,,,,,,Ｒｏｏｍ　５１５，Ｂｕｉｌｄｉｎｇ　３，Ｓｃｉｅｎｃｅ　ａｎｄ　Ｔｅｃｈｎｏｌｏｇｙ　Ｉｎｎｏｖａｔｉｏｎ　Ｃｉｔｙ，Ｎｏ．１７，Ｈｕａｇｕｏｓｈａｎ　Ａｖｅｎｕｅ，Ｈａｉｚｈｏｕ　Ｄｉｓｔｒｉｃｔ，Ｌｉａｎｙｕｎｇａｎｇ　Ｃｉｔｙ，Ｊｉａｎｇｓｕ　Ｐｒｏｖｉｎｃｅ　２２２０００　ＣＮ,,,,,,2023-09-06,1,,,,,リェンユンガンマンカンインテリジェントテクノロジーカンパニーリミテッド,0
1628,5700150119837,新規,0,2023-09-06,2023-09-06,ｘｉｎｊｉａｎｇｚｈｉ（ｇｕａｎｇｚｈｏｕ）ｇｕｏｊｉｍａｏｙｉ　ｙｏｕｘｉａｎｇｏｎｇｓｉ,,外国会社等,,,,,,,,Ｎｏ．１　Ｉｎｄｕｓｔｒｉａｌ　Ａｖｅｎｕｅ，Ｈｉｇｈ－Ｔｅｃｈ　Ｉｎｄｕｓｔｒｉａｌ　Ｐａｒｋ，Ｇｕａｎｇｄｏｎｇ　Ｅｃｏｎｏｍｉｃ　Ｄｅｖｅｌｏｐｍｅｎｔ　Ｚｏｎｅ，Ｃｈｉｎａ　Ｒｏｏｍ　７２１　Ｇｕａｎｇｚｈｏｕ　Ｃｉｔｙ　Ｇｕａｎｇｄｏｎｇ　Ｐｒｏｖｉｎｃｅ　Ｃｏｎｇｈｕａ　Ｄｉｓｔｒｉｃｔ　５１０９９０　ＣＮ,,,,,,2023-09-06,1,,,,,シンジャンジコウシュウゴオジマオイヨウシェンゴンスー,0
1629,5700150119845,新規,0,2023-09-06,2023-09-06,ｗｕｈａｎｓｈｉｍｅｉｌｉｔａｉｋｅｊｉｙｏｕｘｉａｎｇｏｎｇｓｉ,,外国会社等,,,,,,,,Ｎｏ．１８　Ｈｕａｓｈｉｙｕａｎ　Ｎｏｒｔｈ　Ｒｏａｄ，Ｅａｓｔ　Ｌａｋｅ　Ｎｅｗ　Ｔｅｃｈｎｏｌｏｇｙ　Ｄｅｖｅｌｏｐｍｅｎｔ　Ｚｏｎｅ　０１－０２，４ｔｈ　Ｆｌｏｏｒ，Ｂｕｉｌｄｉｎｇ　１１，Ｐｈａｓｅ　Ｉ，Ｂｏｈａｎ　Ｔｅｃｈｎｏｌｏｇｙ　Ｏｐｔｏｅｌｅｃｔｒｏｎｉｃ　Ｉｎｆｏｒｍａｔｉｏｎ　Ｉｎｄｕｓｔｒｙ　Ｂａｓｅ　Ｗｕｈａｎ　Ｈｕｂｅｉ　Ｐｒｏｖｉｎｃｅ　４３００００　ＣＮ,,,,,,2023-09-06,1,,,,,ウーハンシメイリータイカージヨウシェンゴンスー,0
1630,5700150119853,新規,0,2023-09-06,2023-09-06,Ｓｈｅｎｚｈｅｎ　Ｓｅｎｃｅ　Ｔｒａｄｉｎｇ　Ｃｏ．，Ｌｔｄ,,外国会社等,,,,,,,,１０２，Ｎｏ．１８，Ｌａｎｅ　２，Ｃｏｍｍｅｒｃｉａｌ　ａｎｄ　Ｒｅｓｉｄｅｎｔｉａｌ　Ｂｕｉｌｄｉｎｇ，Ｍｉｎｚｈｕ　Ｃｏｍｍｕｎｉｔｙ，Ｓｈａｊｉｎｇ　Ｓｔｒｅｅｔ，Ｂａｏａｎ　Ｄｉｓｔｒｉｃｔ，Ｓｈｅｎｚｈｅｎ,,,,,,2023-09-06,1,,,,,シンセンセンストレーディングカンパニーリミテッド,0
1631,5700150119861,新規,0,2023-09-06,2023-09-06,川崎市立野川中学校ＰＴＡ,,その他,神奈川県,川崎市宮前区,西野川２丁目２－１,,14,136,2160044,,,,,,,2023-09-06,1,,,,,カワサキシリツノガワチュウガッコウピーティーエー,0
1639,6010001238054,新規,0,2023-09-06,2023-09-06,のしげさうんど株式会社,,株式会社,東京都,千代田区,九段北４丁目１－１４九段北ＴＬビル３Ｆ,,13,101,1020073,,,,,,,2023-09-06,1,,,,,ノシゲサウンド,0
1640,6010001238153,新規,0,2023-09-06,2023-09-06,ＥＧＧＯＲ　ＨＯＬＤＩＮＧＳ株式会社,,株式会社,東京都,中央区,銀座２丁目１３番５号,,13,102,1040061,,,,,,,2023-09-06,1,,,,,エガーホールディングス,0
1641,6010001238161,新規,0,2023-09-06,2023-09-06,ハッピーレボリューション株式会社,,株式会社,東京都,中央区,日本橋久松町１１番６号,,13,102,1030005,,,,,,,2023-09-06,1,,,,,ハッピーレボリューション,0
1642,6010001238178,新規,0,2023-09-06,2023-09-06,株式会社カチアリ,,株式会社,東京都,千代田区,神田三崎町３丁目５－９天翔水道橋ビル４０３号室,,13,101,1010061,,,,,,,2023-09-06,1,,,,,カチアリ,0
1643,6010001238186,新規,0,2023-09-06,2023-09-06,株式会社ｒｅｖｉｔａ,,株式会社,東京都,中央区,湊３丁目６番１号,,13,102,1040043,,,,,,,2023-09-06,1,,,,,レヴィータ,0
1644,6010001238203,新規,0,2023-09-06,2023-09-06,ネクスト・ステップ株式会社,,株式会社,東京都,千代田区,麹町３丁目５番地２,,13,101,1020083,,,,,,,2023-09-06,1,,,,,ネクストステップ,0
1645,6010001238211,新規,0,2023-09-06,2023-09-06,株式会社ストレイト,,株式会社,東京都,文京区,春日２丁目２０番１２号秀和春日レジデンス２１２号,,13,105,1120003,,,,,,,2023-09-06,1,,,,,ストレイト,0
1646,6010001238236,新規,0,2023-09-06,2023-09-06,三井化学ＩＣＴマテリア株式会社,,株式会社,東京都,中央区,八重洲２丁目２番１号,,13,102,1040028,,,,,,,2023-09-06,1,,,,,ミツイカガクアイシーティーマテリア,0
1647,6010001238277,新規,0,2023-09-06,2023-09-06,ＲＥＮＴ　ＩＮ　ＪＡＰＡＮ株式会社,,株式会社,東京都,千代田区,神田佐久間町３丁目２８星野ビル５０７,,13,101,1010025,,,,,,,2023-09-06,1,,,,,レントインジャパン,0
1655,6010401176911,新規,0,2023-09-06,2023-09-06,Ａｃｃｅｎｔｕｒｅ　Ａｌｐｈａ　Ａｕｔｏｍａｔｉｏｎ株式会社,,株式会社,東京都,港区,三田１丁目４番１号,,13,103,1080073,,,,,,,2023-09-06,1,,,,,アクセンチュアアルファオートメーション,0
1656,6010401176928,新規,0,2023-09-06,2023-09-06,株式会社Ｉｍｐｅｒｉｕｍ,,株式会社,東京都,港区,六本木６丁目１２番３－１４０３号,,13,103,1060032,,,,,,,2023-09-06,1,,,,,インペリアム,0
1657,6010401176952,新規,0,2023-09-06,2023-09-06,宝一株式会社,,株式会社,東京都,港区,芝２丁目２８番１１－３０２号室,,13,103,1050014,,,,,,,2023-09-06,1,,,,,ホウイチ,0
1658,6010401176960,新規,0,2023-09-06,2023-09-06,ＣＨＡＲＧＥ　ＪＡＰＡＮ株式会社,,株式会社,東京都,港区,海岸３丁目１８番２号ピアシティ芝浦ハイツ１３０６,,13,103,1080022,,,,,,,2023-09-06,1,,,,,チャージジャパン,0
1659,6010401176977,新規,0,2023-09-06,2023-09-06,株式会社Ｓｋｙ　Ｗｏｒｋｓ,,株式会社,東京都,港区,港南２丁目１６番１号,,13,103,1080075,,,,,,,2023-09-06,1,,,,,スカイワークス,0
1661,6010501050982,新規,0,2023-09-06,2023-09-06,株式会社Ｔｅｎ,,株式会社,東京都,台東区,上野７丁目４番３号上野ビル３０３,,13,106,1100005,,,,,,,2023-09-06,1,,,,,テン,0
1662,6010503007147,新規,0,2023-09-06,2023-09-06,あずさ税務会計コンサルティング合同会社,,合同会社,東京都,台東区,上野３丁目１６－２天翔上野末広町ビル２０８号,,13,106,1100005,,,,,,,2023-09-06,1,,,,,アズサゼイムカイケイコンサルティング,0
1664,6010601063736,新規,0,2023-09-06,2023-09-06,Ｏｎｄｅｓ　Ｎｅｔｗｏｒｋｓ株式会社,,株式会社,東京都,墨田区,八広１丁目７番５－８０５号,,13,107,1310041,,,,,,,2023-09-06,1,,,,,オンドスネットワークス,0
1665,6010603010348,新規,0,2023-09-06,2023-09-06,ＣｈａｉｎｏＲｉａｎ合同会社,,合同会社,東京都,江東区,大島５丁目３６番７号,,13,108,1360072,,,,,,,2023-09-06,1,,,,,シェノリアン,0
1666,6010605004240,新規,0,2023-09-06,2023-09-06,一般社団法人ポラリス,,その他の設立登記法人,東京都,江東区,常盤１丁目１番１号,,13,108,1350006,,,,,,,2023-09-06,1,,,,,ポラリス,0
1667,6010701044792,新規,0,2023-09-06,2023-09-06,ソーシャルデザイン株式会社,,株式会社,東京都,品川区,北品川２丁目６番９号,,13,109,1400001,,,,,,,2023-09-06,1,,,,,ソーシャルデザイン,0
1668,6010801034297,新規,0,2023-09-06,2023-09-06,株式会社ＰＲＯＴＯ,,株式会社,東京都,大田区,大森西１丁目９番１９－２１５号,,13,111,1430015,,,,,,,2023-09-06,1,,,,,プロト,0
1669,6010801034306,新規,0,2023-09-06,2023-09-06,ｍａｕｎａ株式会社,,株式会社,東京都,大田区,田園調布１丁目１０番３号,,13,111,1450071,,,,,,,2023-09-06,1,,,,,マウナ,0
1670,6010901053767,新規,0,2023-09-06,2023-09-06,株式会社スミレ,,株式会社,東京都,世田谷区,代田２丁目１４番１３号,,13,112,1550033,,,,,,,2023-09-06,1,,,,,スミレ,0
1671,6010903008430,新規,0,2023-09-06,2023-09-06,合同会社さかえやパートナーズ,,合同会社,東京都,世田谷区,上用賀３丁目１３番６号,,13,112,1580098,,,,,,,2023-09-06,1,,,,,サカエヤパートナーズ,0
1680,6011001156667,新規,0,2023-09-06,2023-09-06,ＳＴＡＲＳ’株式会社,,株式会社,東京都,渋谷区,道玄坂１丁目１０番８号渋谷道玄坂東急ビル２Ｆ－Ｃ,,13,113,1500043,,,,,,,2023-09-06,1,,,,,スターズ,0
1683,6011005010201,新規,0,2023-09-06,2023-09-06,一般社団法人金継ぎ検定協会,,その他の設立登記法人,東京都,渋谷区,恵比寿２丁目２１番２号ａｋｉｋｉｔｏ・ａｐｔ．１階,,13,113,1500013,,,,,,,2023-09-06,1,,,,,キンツギケンテイキョウカイ,0
1687,6011101104204,新規,0,2023-09-06,2023-09-06,株式会社ＭＳＣ,,株式会社,東京都,新宿区,神楽坂５丁目２０番地５－１３０５号,,13,104,1620825,,,,,,,2023-09-06,1,,,,,エムエスシー,0
1688,6011101104229,新規,0,2023-09-06,2023-09-06,株式会社エミアブルトラベル,,株式会社,東京都,新宿区,歌舞伎町２丁目２番２０号グランドメゾン歌舞伎町４０１号室,,13,104,1600021,,,,,,,2023-09-06,1,,,,,エミアブルトラベル,0
1689,6011103013444,新規,0,2023-09-06,2023-09-06,合同会社ＳＡＮ,,合同会社,東京都,新宿区,西新宿３丁目３番１３号西新宿水間ビル６階,,13,104,1600023,,,,,,,2023-09-06,1,,,,,エスエーエヌ,0
1690,6011105010761,新規,0,2023-09-06,2023-09-06,医療法人社団燈心会,,その他の設立登記法人,東京都,新宿区,西早稲田３丁目２０番３号レガリアタワーレジデンス地下１階,,13,104,1690051,,,,,,,2023-09-06,1,,,,,トウシンカイ,0
1691,6011601027094,新規,0,2023-09-06,2023-09-06,株式会社大坂道路,,株式会社,東京都,練馬区,高松５丁目２番１１号,,13,120,1790075,,,,,,,2023-09-06,1,,,,,オオサカドウロ,0
1692,6011603004042,新規,0,2023-09-06,2023-09-06,合同会社ハーベストバレー,,合同会社,東京都,練馬区,土支田３丁目１番２５号テラスハウスＫ－１,,13,120,1790076,,,,,,,2023-09-06,1,,,,,ハーベストバレー,0
1693,6011701026566,新規,0,2023-09-06,2023-09-06,ルックウィズ株式会社,,株式会社,東京都,江戸川区,船堀３丁目７番２２号,,13,123,1340091,,,,,,,2023-09-06,1,,,,,ルックウィズ,0
1696,6011801042983,新規,0,2023-09-06,2023-09-06,株式会社グッディ,,株式会社,東京都,足立区,江北４丁目１２番１１号,,13,121,1230872,,,,,,,2023-09-06,1,,,,,グッディ,0
1697,6011805003296,新規,0,2023-09-06,2023-09-06,医療法人社団山一ビル内科クリニック,,その他の設立登記法人,東京都,足立区,島根３丁目８番１号山一ビル島根ＩＩ１階,00131782,13,121,1210815,,,,,,,2023-09-06,1,,,,,ヤマイチビルナイカクリニック,0
1698,6012301013582,新規,0,2023-09-06,2023-09-06,株式会社Ａｎｔｈｅａ,,株式会社,東京都,町田市,中町１丁目５－９Ｍ’ｓＳＱＵＡＲＥ中町２階,,13,209,1940021,,,,,,,2023-09-06,1,,,,,アンテアー,0
1699,6012403006154,新規,0,2023-09-06,2023-09-06,田近商事合同会社,,合同会社,東京都,小金井市,梶野町２丁目１４番７号,,13,210,1840002,,,,,,,2023-09-06,1,,,,,タジカショウジ,0
1701,6013301051300,新規,0,2023-09-06,2023-09-06,株式会社バンブーフォレスト,,株式会社,東京都,豊島区,南長崎５丁目２１番２号,,13,116,1710052,,,,,,,2023-09-06,1,,,,,バンブーフォレスト,0
1707,6020001153293,新規,0,2023-09-06,2023-09-06,ＮＡＭプロジェクト株式会社,,株式会社,神奈川県,横浜市鶴見区,上の宮１丁目３０番３－１０４号,,14,101,2300075,,,,,,,2023-09-06,1,,,,,ナムプロジェクト,0
1708,6020001153319,新規,0,2023-09-06,2023-09-06,株式会社ＧＮＫ,,株式会社,神奈川県,横浜市旭区,さちが丘３番地２松下店舗Ａ,,14,112,2410822,,,,,,,2023-09-06,1,,,,,ジーエヌケー,0
1709,6020001153327,新規,0,2023-09-06,2023-09-06,ＭＭ‐ＰＲＯＰＥＲＴＹ株式会社,,株式会社,神奈川県,横浜市西区,みなとみらい２丁目３番３号クイーンズタワーＣ１２階,,14,103,2200012,,,,,,,2023-09-06,1,,,,,エムエムプロパティ,0
1710,6020001153335,新規,0,2023-09-06,2023-09-06,株式会社専門家マーケティング,,株式会社,神奈川県,横浜市中区,日本大通７合人社日本大通７ビル４階,,14,104,2310021,,,,,,,2023-09-06,1,,,,,センモンカマーケティング,0
1711,6020001153343,新規,0,2023-09-06,2023-09-06,株式会社叶建装,,株式会社,神奈川県,横浜市瀬谷区,南瀬谷１丁目９番地５,,14,114,2460034,,,,,,,2023-09-06,1,,,,,カナタケンソウ,0
1712,6020001153351,新規,0,2023-09-06,2023-09-06,株式会社ポライトコーポレーション,,株式会社,神奈川県,横浜市港南区,芹が谷１丁目１１番２－５０７号,,14,111,2330006,,,,,,,2023-09-06,1,,,,,ポライトコーポレーション,0
1713,6020001153368,新規,0,2023-09-06,2023-09-06,ＣＰＴＯＫＹＯ株式会社,,株式会社,神奈川県,川崎市中原区,市ノ坪１２８番地１－７０１,,14,133,2110016,,,,,,,2023-09-06,1,,,,,シーピートウキョウ,0
1714,6020001153376,新規,0,2023-09-06,2023-09-06,株式会社くぼ田,,株式会社,神奈川県,横浜市旭区,中希望が丘１０７番地１６,,14,112,2410825,,,,,,,2023-09-06,1,,,,,クボタ,0
1715,6020001153384,新規,0,2023-09-06,2023-09-06,株式会社ＣＳＩ　ＪＡＰＡＮ,,株式会社,神奈川県,横浜市中区,千代崎町２丁目５２番地２,,14,104,2310864,,,,,,,2023-09-06,1,,,,,シーエスアイジャパン,0
1717,6020003024534,新規,0,2023-09-06,2023-09-06,合同会社ＡＮＯＳＨ,,合同会社,神奈川県,横浜市中区,初音町３丁目６１－２ネオステージ初音町２０１,,14,104,2310053,,,,,,,2023-09-06,1,,,,,アノシュ,0
1721,6021001080115,新規,0,2023-09-06,2023-09-06,株式会社ｇｌｏｗ,,株式会社,神奈川県,平塚市,札場町１０番２０号,,14,203,2540802,,,,,,,2023-09-06,1,,,,,グロウ,0
1722,6021001080123,新規,0,2023-09-06,2023-09-06,株式会社ＴＲＩＳＨ,,株式会社,神奈川県,鎌倉市,由比ガ浜３丁目３番２２号,,14,204,2480014,,,,,,,2023-09-06,1,,,,,トリッシュ,0
1727,6030001155578,新規,0,2023-09-06,2023-09-06,Ｓｉｍｐｌｉｚｅ株式会社,,株式会社,埼玉県,さいたま市南区,沼影２丁目１２番１－６０８号,,11,108,3360027,,,,,,,2023-09-06,1,,,,,シンプライズ,0
1728,6030001155727,新規,0,2023-09-06,2023-09-06,株式会社ＣＯＶＡ．Ｌａｂｏ,,株式会社,埼玉県,川口市,本蓮１丁目５番１９号,00131788,11,203,3340076,,,,,,,2023-09-06,1,,,,,コバラボ,0
1732,6030003022479,新規,0,2023-09-06,2023-09-06,合同会社ＬＡＴＴＥ,,合同会社,埼玉県,戸田市,笹目１丁目３４番地の２７,,11,224,3350034,,,,,,,2023-09-06,1,,,,,ラテ,0
1738,6040001129911,新規,0,2023-09-06,2023-09-06,ＭＩＫホールディングス株式会社,,株式会社,千葉県,市原市,能満１５６０番地,,12,219,2900011,,,,,,,2023-09-06,1,,,,,エムアイケーホールディングス,0
1739,6040001129928,新規,0,2023-09-06,2023-09-06,株式会社関棟建業,,株式会社,千葉県,市原市,八幡２１０１番地５３,,12,219,2900062,,,,,,,2023-09-06,1,,,,,カントウケンギョウ,0
1740,6040001129977,新規,0,2023-09-06,2023-09-06,株式会社ｄｅｓｅｒｔ,,株式会社,千葉県,船橋市,本町６丁目１８番１９第３山中ビル４０１号室,,12,204,2730005,,,,,,,2023-09-06,1,,,,,デザート,0
1741,6040001129985,新規,0,2023-09-06,2023-09-06,株式会社平賀創美企画,,株式会社,千葉県,千葉市若葉区,都賀５丁目１９番１８号,,12,104,2640025,,,,,,,2023-09-06,1,,,,,ヒラガソウビキカク,0
1746,6050001053400,新規,0,2023-09-06,2023-09-06,ファーストホールディングス株式会社,,株式会社,茨城県,下妻市,江１７００番地３５,,08,210,3040002,,,,,,,2023-09-06,1,,,,,ファーストホールディングス,0
1747,6050001053409,新規,0,2023-09-06,2023-09-06,株式会社Ｓｆｉｄａｓｓ,,株式会社,茨城県,ひたちなか市,大字東石川３１５４番地１７,,08,221,3120052,,,,,,,2023-09-06,1,,,,,スフィーダス,0
1759,6080101024199,新規,0,2023-09-06,2023-09-06,ＦＯＭＩＴ株式会社,,株式会社,静岡県,沼津市,下香貫藤井原１６４５番地の１,,22,203,4100822,,,,,,,2023-09-06,1,,,,,フォミット,0
1761,6080405007569,新規,0,2023-09-06,2023-09-06,一般社団法人菊川しらす鰻組合,,その他の設立登記法人,静岡県,掛川市,国安１１７５番地の１,,22,213,4371413,,,,,,,2023-09-06,1,,,,,キクガワシラスウナギクミアイ,0
1762,6090001018317,新規,0,2023-09-06,2023-09-06,株式会社Ａｎｔ　Ｗｏｒｋ,,株式会社,山梨県,甲府市,湯田２丁目５番１３号,,19,201,4000864,,,,,,,2023-09-06,1,,,,,アントワーク,0
1764,6100003007175,新規,0,2023-09-06,2023-09-06,合同会社労テク,,合同会社,長野県,北佐久郡軽井沢町,大字長倉５６２７番地８,,20,321,3890111,,,,,,,2023-09-06,1,,,,,ロウテク,0
1765,6110001037818,新規,0,2023-09-06,2023-09-06,小池研磨株式会社,,株式会社,新潟県,燕市,八王寺１２６３番地,,15,213,9591264,,,,,,,2023-09-06,1,,,,,コイケケンマ,0
1767,6110003005153,新規,0,2023-09-06,2023-09-06,ＩＣＳＮコンサル合同会社,,合同会社,新潟県,新発田市,西園町３丁目１３番２１号,,15,206,9570058,,,,,,,2023-09-06,1,,,,,アイシーエスエヌコンサル,0
1768,6110005016990,新規,0,2023-09-06,2023-09-06,税理士法人ＺＥＮ,,その他の設立登記法人,新潟県,新潟市中央区,米山２丁目６番地７ＷｏｒｋＷｉｔｈ米山４Ｆ,,15,103,9500916,,,,,,,2023-09-06,1,,,,,ゼン,0
1778,6120001257712,新規,0,2023-09-06,2023-09-06,株式会社ＭｅＤｉＣＵ,,株式会社,大阪府,大阪市東成区,東中本１丁目１５－２３,,27,115,5370021,,,,,,,2023-09-06,1,,,,,メディキュー,0
1779,6120001257778,新規,0,2023-09-06,2023-09-06,株式会社橋本メディカルサービス,,株式会社,大阪府,守口市,金下町１丁目２番９－３０５号,,27,209,5700079,,,,,,,2023-09-06,1,,,,,ハシモトメディカルサービス,0
1780,6120001257803,新規,0,2023-09-06,2023-09-06,株式会社永田塗装工業,,株式会社,大阪府,大阪市大正区,泉尾４丁目１６番１３号,,27,108,5510031,,,,,,,2023-09-06,1,,,,,ナガタトソウコウギョウ,0
1781,6120001257836,新規,0,2023-09-06,2023-09-06,一民興業株式会社,,株式会社,大阪府,大阪市東住吉区,杭全１丁目１７－１７－６０１号室,,27,121,5460002,,,,,,,2023-09-06,1,,,,,イチミンコウギョウ,0
1782,6120001257910,新規,0,2023-09-06,2023-09-06,株式会社ｅｇａｋｕｍｏ,,株式会社,大阪府,大阪市北区,梅田２丁目２番２号ヒルトンプラザウエストオフィスタワー１９階,,27,127,5300001,,,,,,,2023-09-06,1,,,,,エガクモ,0
1783,6120005023854,新規,0,2023-09-06,2023-09-06,一般社団法人国際蓮花研究会,,その他の設立登記法人,大阪府,大阪市中央区,東心斎橋１丁目１３番１１号４階,,27,128,5420083,,,,,,,2023-09-06,1,,,,,コクサイレンカケンキュウカイ,0
1784,6120005023862,新規,0,2023-09-06,2023-09-06,一般社団法人三国本町タクシー組合,,その他の設立登記法人,大阪府,大阪市淀川区,西三国４丁目１番４４号,,27,123,5320006,,,,,,,2023-09-06,1,,,,,ミクニホンマチタクシークミアイ,0
1787,6120101068126,新規,0,2023-09-06,2023-09-06,ＢＲ．ｒｅｌａｔｉｏｎ株式会社,,株式会社,大阪府,堺市南区,鴨谷台２丁６番１－１００１号,,27,145,5900138,,,,,,,2023-09-06,1,,,,,ビーアールリレーション,0
1788,6120101068134,新規,0,2023-09-06,2023-09-06,株式会社エフエル,,株式会社,大阪府,羽曳野市,羽曳が丘９丁目３１番２４号,,27,222,5830864,,,,,,,2023-09-06,1,,,,,エフエル,0
1789,6120101068167,新規,0,2023-09-06,2023-09-06,トレンドエージェンシー株式会社,,株式会社,大阪府,河内長野市,小塩町４０７番地の４,,27,216,5860035,,,,,,,2023-09-06,1,,,,,トレンドエージェンシー,0
1790,6120103005408,新規,0,2023-09-06,2023-09-06,合同会社佐々木荷役,,合同会社,大阪府,羽曳野市,南恵我之荘４丁目１０番２号,,27,222,5830885,,,,,,,2023-09-06,1,,,,,ササキニヤク,0
1791,6120103005416,新規,0,2023-09-06,2023-09-06,合同会社光青,,合同会社,大阪府,富田林市,清水町１番２０号,,27,214,5840034,,,,,,,2023-09-06,1,,,,,コウセイ,0
1796,6120901048005,新規,0,2023-09-06,2023-09-06,株式会社ゼノコード,,株式会社,大阪府,吹田市,広芝町１０番８号江坂董友ビル２Ｆ,,27,205,5640052,,,,,,,2023-09-06,1,,,,,ゼノコード,0
1800,6130001075155,新規,0,2023-09-06,2023-09-06,丹桜株式会社,,株式会社,京都府,京都市西京区,大枝中山町２番地２９,,26,111,6101104,,,,,,,2023-09-06,1,,,,,タンオウ,0
1801,6130001075163,新規,0,2023-09-06,2023-09-06,株式会社元結,,株式会社,京都府,京都市下京区,玉津島町２９４番地コモンルーム四条烏丸Ｂ１１２,,26,106,6008427,,,,,,,2023-09-06,1,,,,,モトユイ,0
1807,6140005026731,新規,0,2023-09-06,2023-09-06,一般社団法人ブランディング芦屋,,その他の設立登記法人,兵庫県,芦屋市,公光町４番２８号（芦屋市商工会内）,,28,206,6590065,,,,,,,2023-09-06,1,,,,,ブランディングアシヤ,0
1810,6150003003054,新規,0,2023-09-06,2023-09-06,合同会社南下商会,,合同会社,奈良県,生駒市,あすか野南２丁目１０番３４号,,29,209,6300133,,,,,,,2023-09-06,1,,,,,ナンカショウカイ,0
1811,6160001025314,新規,0,2023-09-06,2023-09-06,ソブホールディングス株式会社,,株式会社,滋賀県,草津市,矢倉２丁目５番５５号,,25,206,5250053,,,,,,,2023-09-06,1,,,,,ソブホールディングス,0
1823,6180001157840,新規,0,2023-09-06,2023-09-06,ＧＭソリューション株式会社,,株式会社,愛知県,名古屋市中村区,中村町７丁目３番地の２,,23,105,4530053,,,,,,,2023-09-06,1,,,,,ジーエムソリューション,0
1824,6180001157865,新規,0,2023-09-06,2023-09-06,株式会社アイ・ジオワークス,,株式会社,愛知県,一宮市,北方町北方字森道８８番地,,23,203,4938001,,,,,,,2023-09-06,1,,,,,アイジオワークス,0
1825,6180001157881,新規,0,2023-09-06,2023-09-06,ライフキャリア株式会社,,株式会社,愛知県,名古屋市西区,那古野２丁目１２番５号,,23,104,4510042,,,,,,,2023-09-06,1,,,,,ライフキャリア,0
1826,6180001157907,新規,0,2023-09-06,2023-09-06,株式会社ルピナスクリエーション,,株式会社,愛知県,名古屋市中区,金山１丁目２番５号レインボー第２金山４０２号室,,23,106,4600022,,,,,,,2023-09-06,1,,,,,ルピナスクリエーション,0
1827,6180001157931,新規,0,2023-09-06,2023-09-06,株式会社うえでん,,株式会社,愛知県,名古屋市西区,則武新町３丁目７番５号岩下ビル３Ｆ－１,,23,104,4510051,,,,,,,2023-09-06,1,,,,,ウエデン,0
1834,6180003025698,新規,0,2023-09-06,2023-09-06,合同会社リバティ,,合同会社,愛知県,名古屋市中川区,四女子町２丁目２１番地の１,,23,110,4540822,,,,,,,2023-09-06,1,,,,,リバティ,0
1835,6180003025707,新規,0,2023-09-06,2023-09-06,合同会社ＨＰＢ,,合同会社,愛知県,春日井市,中切町１丁目４番地２,,23,206,4860925,,,,,,,2023-09-06,1,,,,,エイチピービー,0
1836,6180005020342,新規,0,2023-09-06,2023-09-06,弁理士法人Ｃｉｔａ‐Ｃｉｔａ特許事務所,,その他の設立登記法人,愛知県,知多郡東浦町,大字生路字東午新田９５番地,,23,442,4702104,,,,,,,2023-09-06,1,,,,,チタチタトッキョジムショ,0
1837,6180301037783,新規,0,2023-09-06,2023-09-06,丸山土建株式会社,,株式会社,愛知県,西尾市,一色町生田真野新田６３番１,,23,213,4440412,,,,,,,2023-09-06,1,,,,,マルヤマドケン,0
1838,6190001030699,新規,0,2023-09-06,2023-09-06,株式会社ミライエ,,株式会社,三重県,四日市市,東垂坂町１３３番地１,,24,202,5108035,,,,,,,2023-09-06,1,,,,,ミライエ,0
1839,6190001030716,新規,0,2023-09-06,2023-09-06,Ｉ＆Ｈ東海ホールディング株式会社,,株式会社,三重県,鈴鹿市,南江島町１４番１号,,24,207,5100235,,,,,,,2023-09-06,1,,,,,アイアンドエイチトウカイホールディング,0
1841,6190003004429,新規,0,2023-09-06,2023-09-06,ＥＸサプライ合同会社,,合同会社,三重県,津市,栄町２丁目４１０山内ビル３階,,24,201,5140004,,,,,,,2023-09-06,1,,,,,イーエックスサプライ,0
1843,6200003006068,新規,0,2023-09-06,2023-09-06,合同会社大志,,合同会社,岐阜県,大垣市,本今４丁目８０番地２,,21,202,5030931,,,,,,,2023-09-06,1,,,,,ダイシ,0
1844,6200003006076,新規,0,2023-09-06,2023-09-06,翔栄工業合同会社,,合同会社,岐阜県,岐阜市,日置江２丁目７０番地１１,,21,201,5016133,,,,,,,2023-09-06,1,,,,,ショウエイコウギョウ,0
1847,6210001019450,新規,0,2023-09-06,2023-09-06,株式会社Ｍａｒｔｈａ,,株式会社,福井県,福井市,木田１丁目３４１３番地シダーテラスＣ－２,,18,201,9188105,,,,,,,2023-09-06,1,,,,,マルタ,0
1848,6210003001695,新規,0,2023-09-06,2023-09-06,合同会社コンテンツラボ,,合同会社,福井県,越前市,蓬莱町２－１６賀川テナント１Ｆ,,18,209,9150074,,,,,,,2023-09-06,1,,,,,コンテンツラボ,0
1852,6220001025588,新規,0,2023-09-06,2023-09-06,株式会社諏訪会館,,株式会社,石川県,小松市,浜田町イ１番地１,,17,203,9230907,,,,,,,2023-09-06,1,,,,,スワカイカン,0
1855,6230005009330,新規,0,2023-09-06,2023-09-06,一般社団法人富山県病院薬剤師会,,その他の設立登記法人,富山県,富山市,堀２７番地２,,16,201,9398057,,,,,,,2023-09-06,1,,,,,トヤマケンビョウインヤクザイシカイ,0
1859,6240001062068,新規,0,2023-09-06,2023-09-06,株式会社日進庄原,,株式会社,広島県,庄原市,市町１２８３番地３,,34,210,7270025,,,,,,,2023-09-06,1,,,,,ニッシンショウバラ,0
1861,6240003006279,新規,0,2023-09-06,2023-09-06,合同会社かけるＬａｂｏ．,,合同会社,広島県,大竹市,新町１丁目２番３号,,34,211,7390611,,,,,,,2023-09-06,1,,,,,カケルラボ,0
1862,6250001020272,新規,0,2023-09-06,2023-09-06,ＡＬＬ　ＢＩＺ株式会社,,株式会社,山口県,下関市,秋根南町２丁目７番１０号,,35,201,7510872,,,,,,,2023-09-06,1,,,,,オールビズ,0
1863,6250003003341,新規,0,2023-09-06,2023-09-06,合同会社勉強堂,,合同会社,山口県,山口市,泉町９番３８号ハイツ堀本１０４,,35,203,7530066,,,,,,,2023-09-06,1,,,,,ベンキョウドウ,0
1866,6260001038272,新規,0,2023-09-06,2023-09-06,株式会社セイワ,,株式会社,岡山県,倉敷市,新田２８１９番地１,,33,202,7100038,,,,,,,2023-09-06,1,,,,,セイワ,0
1869,6280001009032,新規,0,2023-09-06,2023-09-06,ＮＡ‐ＴＥＣＨ株式会社,,株式会社,島根県,隠岐郡隠岐の島町,北方１１８３番地８,,32,528,6850301,,,,,,,2023-09-06,1,,,,,エヌエーテック,0
1874,6290001102901,新規,0,2023-09-06,2023-09-06,株式会社ＹＥＬＬ,,株式会社,福岡県,福岡市博多区,石城町７番９号,,40,132,8120032,,,,,,,2023-09-06,1,,,,,エール,0
1875,6290001102942,新規,0,2023-09-06,2023-09-06,株式会社３Ａｗｏｒｋｓ,,株式会社,福岡県,福岡市中央区,渡辺通１丁目１番１号,,40,133,8100004,,,,,,,2023-09-06,1,,,,,スリーエーワークス,0
1879,6290801029831,新規,0,2023-09-06,2023-09-06,九州コイケ株式会社,,株式会社,福岡県,北九州市小倉北区,清水３丁目４番１３号,,40,106,8030841,,,,,,,2023-09-06,1,,,,,キュウシュウコイケ,0
1881,6300001013444,新規,0,2023-09-06,2023-09-06,株式会社セトヤ,,株式会社,佐賀県,唐津市,浜玉町横田上１１４５番地１１,,41,202,8495121,,,,,,,2023-09-06,1,,,,,セトヤ,0
1882,6300001013460,新規,0,2023-09-06,2023-09-06,株式会社福澤コンテナ,,株式会社,佐賀県,鳥栖市,下野町２４６４番地１,,41,203,8410063,,,,,,,2023-09-06,1,,,,,フクザワコンテナ,0
1888,6320001019992,新規,0,2023-09-06,2023-09-06,株式会社ＧＲ　ＨＯＬＤＩＮＧＳ,,株式会社,大分県,大分市,西新地２丁目６番１１号,,44,201,8700901,,,,,,,2023-09-06,1,,,,,ジーアールホールディングス,0
1890,6330001031229,新規,0,2023-09-06,2023-09-06,株式会社エタニティ,,株式会社,熊本県,熊本市中央区,上通町３ー１９ロフティ長安寺２０２,,43,101,8600845,,,,,,,2023-09-06,1,,,,,エタニティ,0
1892,6340001025865,新規,0,2023-09-06,2023-09-06,株式会社Ｎｄａｓｈ,,株式会社,鹿児島県,薩摩川内市,百次町９２４番地１２ハウスフランボワーズ１号棟,,46,215,8950007,,,,,,,2023-09-06,1,,,,,エヌダッシュ,0
1893,6340001025873,新規,0,2023-09-06,2023-09-06,株式会社久永組,,株式会社,鹿児島県,奄美市,名瀬春日町４番３号,,46,222,8940013,,,,,,,2023-09-06,1,,,,,ヒサナガグミ,0
1895,6360001032488,新規,0,2023-09-06,2023-09-06,株式会社ノースサウス,,株式会社,沖縄県,那覇市,久米２丁目４番１４号,,47,201,9000033,,,,,,,2023-09-06,1,,,,,ノースサウス,0
1898,6360003013255,新規,0,2023-09-06,2023-09-06,合同会社上原組,,合同会社,沖縄県,浦添市,前田１丁目４３番１２号,,47,208,9012102,,,,,,,2023-09-06,1,,,,,ウエハラグミ,0
1899,6360003013271,新規,0,2023-09-06,2023-09-06,合同会社ＲｙｕｋｙｕＢａｓｅ,,合同会社,沖縄県,豊見城市,字豊崎１番地３７０,,47,212,9010225,,,,,,,2023-09-06,1,,,,,リュウキュウベース,0
1901,6370001050373,新規,0,2023-09-06,2023-09-06,株式会社櫻技建,,株式会社,宮城県,仙台市宮城野区,燕沢２丁目８番１７号,,04,102,9830823,,,,,,,2023-09-06,1,,,,,サクラギケン,0
1905,6370005010679,新規,0,2023-09-06,2023-09-06,一般社団法人１パーセント,,その他の設立登記法人,宮城県,仙台市宮城野区,新田１丁目１１番３０号,,04,102,9830038,,,,,,,2023-09-06,1,,,,,ワンパーセント,0
1910,6380003005556,新規,0,2023-09-06,2023-09-06,福島蓄電池事業１合同会社,,合同会社,福島県,西白河郡西郷村,大字羽太字赤柴２番地１８,,07,461,9618001,,,,,,,2023-09-06,1,,,,,フクシマチクデンチジギョウイチ,0
1916,6400001016362,新規,0,2023-09-06,2023-09-06,株式会社あず工房,,株式会社,岩手県,奥州市,江刺岩谷堂字五位塚３３８番地３,,03,215,0231101,,,,,,,2023-09-06,1,,,,,アズコウボウ,0
1920,6420001018398,新規,0,2023-09-06,2023-09-06,株式会社国土計画,,株式会社,青森県,青森市,大字大野字前田７２番地２,,02,201,0300852,,,,,,,2023-09-06,1,,,,,コクドケイカク,0
1922,6430001089876,新規,0,2023-09-06,2023-09-06,株式会社リノベクラス,,株式会社,北海道,札幌市豊平区,豊平二条１１丁目１番１４号,,01,105,0620902,,,,,,,2023-09-06,1,,,,,リノベクラス,0
1924,6430005014772,新規,0,2023-09-06,2023-09-06,一般社団法人特殊消臭調査士認定協会,,その他の設立登記法人,北海道,札幌市手稲区,前田十二条１０丁目３番１０号,,01,109,0060822,,,,,,,2023-09-06,1,,,,,トクシュショウシュウチョウサシニンテイキョウカイ,0
1926,6470001019788,新規,0,2023-09-06,2023-09-06,株式会社Ｒｉｂｅｔｔａ,,株式会社,香川県,高松市,伏石町２００１番地３・１Ｆ,,37,201,7618071,,,,,,,2023-09-06,1,,,,,リベッタ,0
1930,6500001025171,新規,0,2023-09-06,2023-09-06,株式会社白石タタミ店,,株式会社,愛媛県,四国中央市,寒川町３８０８番地,,38,213,7990431,,,,,,,2023-09-06,1,,,,,シライシタタミテン,0
1932,6700150114580,新規,0,2023-09-06,2023-09-06,Ｓｈｅｎｚｈｅｎｓｈｉ　Ｘｉｎｇｑｉｓｉ　Ｄｉａｎｚｉ　Ｓｈａｎｇｗｕ　Ｙｏｕｘｉａｎｇｏｎｇｓｉ,,外国会社等,,,,,,,,ｌｉａｎｈｕａｊｉｅｄａｏｍｅｉｌｉｎｇｓｈｅｑｕｘｉｎｗｅｎｌｕ５９ｈａｏ　ｓｈｅｎｍａｏｓｈａｎｇｙｅｚｈｏｎｇｘｉｎ　１０Ａ－Ｓ２４　ｓｈｅｎｚｈｅｎｓｈｉ　ｆｕｔｉａｎｑｕ　ｇｕａｎｇｄｏｎｇｓｈｅｎｇ　５１８０００　ＣＮ,,,,,,2023-09-06,1,,,,,シンセンシシンチースーディエンズーヨウシエンゴンス,0
1933,6700150115034,新規,0,2023-09-06,2023-09-06,Ｄｏｎｇｇｕａｎ　Ｂｅｆｏｓｈｉｎｎ　Ｔｅｃｈｎｏｌｏｇｙ　Ｃｏ．，Ｌｔｄ．,,外国会社等,,,,,,,,Ｒｏｏｍ　１０２，ＮＯ．１２，９　Ｌａｎｅ，Ｚｅｎｇｄｏｎｇ　Ｒｏａｄ，Ｃｈａｎｇ’ａｎ　Ｔｏｗｎ，Ｄｏｎｇｇｕａｎ，Ｇｕａｎｇｄｏｎｇ，５２３８４６ＣＮ,,,,,,2023-09-06,1,,,,,ドングアンシビーフゥシュエンテクノロジーカンパニーリミテッド,0
1934,6700150116123,新規,0,2023-09-06,2023-09-06,ＢＥＩＪＩＮＧＳＨＵＭＯＳＨＩＤＡＩＫＥＪＩＹＯＵＸＩＡＮＧＯＮＧＳＩ,,外国会社等,,,,,,,,Ｃｈａｏｙａｎｇ　ｑｕ　ｊｉｎｆａｎｇｌｕ　１ｈａｏｙｕａｎ　７ｈａｏｌｏｕ　４ｃｅｎｇ４０４　ＢＥＩＪＩＮＧ　１０００８３　ＣＮ,,,,,,2023-09-06,1,,,,,ベイジンシュウモシーダイカージヨウシエンゴンス,0
1935,6700150116692,新規,0,2023-09-06,2023-09-06,ＫＴＲＩＯ　ＤＥＳＩＧＮ　ＬＩＭＩＴＥＤ,,外国会社等,,,,,,,,ＲＯＯＭ　１５Ｏ２，ＥＡＳＥＹ　ＣＯＭＭＥＲＣＩＡＬ　ＢＵＩＬＤＩＮＧ，２５３－２６１　ＨＥＮＮＥＳＳＹ　ＲＯＡＤ，ＷＡＮＣＨＡＩ，ＨＯＮＧＫＯＮＧ,,,,,,2023-09-06,1,,,,,クトリオデザインリミテッド,0
1936,6700150117377,新規,0,2023-09-06,2023-09-06,ｓｈｅｎｚｈｅｎｓｈｉｈｕａｎｇｙｕａｎｘｉｎｍａｏｙｉｙｏｕｘｉａｎｇｏｎｇｓｉ,,外国会社等,,,,,,,,ｓｈｅｎｚｈｅｎｓｈｉｌｏｎｇｇａｎｇｑｕｂｕｊｉｊｉｅｄａｏｗｅｎｊｉｎｇｓｈｅｑｕｇｕａｎｇｃｈａｎｇｌｕｚｈｏｎｇａｎｄａｓｈａ１０３,,,,,,2023-09-06,1,,,,,シンセンシコウエンシンボウエキユウゲンカイシャ,0
1937,6700150119828,新規,0,2023-09-06,2023-09-06,ＳｈｅｎＺｈｅｎＳｈｉ　ＰａＴｕｏＸｕｎＳｈｉＹｅＫｅＪｉ　ＹｏｕＸｉａｎＧｏｎｇＳｉ,,外国会社等,,,,,,,,ＬｏｎｇＧａｎｇＱｕＰｉｎｇＨｕＪｉｅＤａｏＳｈａｎｇＭｕＧｕＳｈｅＱｕＸｉｎＨｅＬｕ４９ＨａｏＣｈａｎｇＦａｎｇＱｉａｎＴｉｅＰｉＦａｎｇ１０１　ＳｈｅｎＺｈｅｎＳｈｉ　５１８１１１　ＣＮ,,,,,,2023-09-06,1,,,,,シンセンシパトオシュンシイェカギヨウシェンゴンスー,0
1938,6700150119836,新規,0,2023-09-06,2023-09-06,ｆｏｓｈａｎ　ｍａｎｋｅｄａｊｉｎｃｈｕｋｏｕ　ｙｏｕｘｉａｎｇｏｎｇｓｉ,,外国会社等,,,,,,,,ｆｏｓｈａｎｓｈｉｎａｎｈａｉｑｕｇｕｉｃｈｅｎｇｊｉｅｄａｏｇｕｉｌａｎｇｂｅｉｌｕ２８ｈａｏｎａｎｈａｉｗａｎｄａｇｕａｎｇｃｈａｎｇｎａｎ６ｄｏｎｇ１３０６ｓｈｉｚｈｉｂａ（ｚｈｕｓｕｏｓｈｅｎｂａｏ）　５２８２００　ＣＮ,,,,,,2023-09-06,1,,,,,フォーシャンマンケダジンツコオヨウシェンゴンスー,0
1939,6700150119844,新規,0,2023-09-06,2023-09-06,ｙｉｗｕｓｈｉ　ｊｉｎｇａｎｇｋｅｍａｏｙｉ　ｙｏｕｘｉａｎｇｏｎｇｓｉ,,外国会社等,,,,,,,,Ｒｏｏｍ　４０４，Ｕｎｉｔ　２，Ｂｕｉｌｄｉｎｇ　１０，Ｄｉｓｔｒｉｃｔ　３，Ｌｏｕｘｉａ　Ｖｉｌｌａｇｅ，Ｃｈｏｕｊｉａｎｇ　Ｓｔｒｅｅｔ，Ｙｉｗｕ　Ｃｉｔｙ，Ｚｈｅｊｉａｎｇ　Ｐｒｏｖｉｎｃｅ（ｓｅｌｆ－ｄｅｃｌａｒａｔｉｏｎ）,,,,,,2023-09-06,1,,,,,イウシジンガンケマオイユウゲンコウシ,0
1940,6700150119852,新規,0,2023-09-06,2023-09-06,Ｑｉｎｇｄａｏ　Ｃｈａｏｓｈａｎｇ　Ｔｒａｄｉｎｇ　Ｃｏ．，Ｌｔｄ,,外国会社等,,,,,,,,３００５，Ｕｎｉｔ　３，Ｂｕｉｌｄｉｎｇ　５０，Ｖｉｃｔｏｒｉａ　Ｂａｙ，Ｘｕｅｊｉａｄａｏ　Ｓｔｒｅｅｔ，ＨＱｉｎｇｄａｏ　Ｓｈａｎｄｏｎｇ　３１５０００　ＣＮ,,,,,,2023-09-06,1,,,,,チンダオチャオシャンシャンマオヨウシェンズァレンゴンスー,0
1941,6700150119860,新規,0,2023-09-06,2023-09-06,泉区会,,その他,新潟県,佐渡市,泉丙１２６番地,,15,224,9521212,,,,,,,2023-09-06,1,,,,,イズミクカイ,0
1942,6700150119893,新規,0,2023-09-06,2023-09-06,ＳｈｅｎｚｈｅｎＯｓａｉｆａＴｅｃｈｎｏｌｏｇｙＣｏ．，Ｌｔｄ,,外国会社等,,,,,,,,Ｎｏ．１，Ｌａｎｅ３，Ｓｈｅｎｚｈｕ　Ｃｏｍｍｕｎｉｔｙ，Ｓｈｅｎｋｅｎｇ　Ｖｉｌｌａｇｅ，Ｈｅｎｇｇａｎｇ　Ｓｔｒｅｅｔ，Ｌｏｎｇｇａｎｇ　Ｄｉｓｔｒｉｃｔ，Ｓｈｅｎｚｈｅｎ,,,,,,2023-09-06,1,,,,,シンセンオサイフアテクノロジーカンパニリミテツド,0
1952,7010001238152,新規,0,2023-09-06,2023-09-06,株式会社ＬＩＦＴｍａｒｋｅｔｉｎｇ,,株式会社,東京都,文京区,本郷１丁目２５番９号斉藤ビル１Ｆ,,13,105,1130033,,,,,,,2023-09-06,1,,,,,リフトマーケティング,0
1953,7010001238160,新規,0,2023-09-06,2023-09-06,株式会社日々,,株式会社,東京都,中央区,銀座１丁目１２番４号Ｎ＆ＥＢＬＤ．７階,,13,102,1040061,,,,,,,2023-09-06,1,,,,,ヒビ,0
1954,7010001238185,新規,0,2023-09-06,2023-09-06,株式会社新都市住研,,株式会社,東京都,中央区,銀座７丁目１５番８号,,13,102,1040061,,,,,,,2023-09-06,1,,,,,シントシジュウケン,0
1955,7010001238193,新規,0,2023-09-06,2023-09-06,株式会社Ｋｅ．ｉｎｎ,,株式会社,東京都,中央区,銀座１丁目２２番１１号銀座大竹ビジデンス２Ｆ,,13,102,1040061,,,,,,,2023-09-06,1,,,,,キーイン,0
1956,7010001238202,新規,0,2023-09-06,2023-09-06,リファイン・アンド・カンパニー株式会社,,株式会社,東京都,中央区,銀座８丁目１７番５号ＴＨＥＨＵＢ銀座ＯＣＴ１階,,13,102,1040061,,,,,,,2023-09-06,1,,,,,リファインアンドカンパニー,0
1957,7010001238210,新規,0,2023-09-06,2023-09-06,株式会社ユープラス,,株式会社,東京都,千代田区,岩本町２丁目１番１９号８Ａ,,13,101,1010032,,,,,,,2023-09-06,1,,,,,ユープラス,0
1958,7010001238219,新規,0,2023-09-06,2023-09-06,緑屋商会株式会社,,株式会社,東京都,中央区,日本橋室町１丁目２番６号,,13,102,1030022,,,,,,,2023-09-06,1,,,,,ミドリヤショウカイ,0
1959,7010001238227,新規,0,2023-09-06,2023-09-06,株式会社ＢＵＢＢＬＳ,,株式会社,東京都,中央区,晴海３丁目１３番１－４５２４号,,13,102,1040053,,,,,,,2023-09-06,1,,,,,バブルス,0
1960,7010001238235,新規,0,2023-09-06,2023-09-06,株式会社ＫＳＴ７,,株式会社,東京都,千代田区,内幸町２丁目１番６号,,13,101,1000011,,,,,,,2023-09-06,1,,,,,ケイエスティーセブン,0
1961,7010001238251,新規,0,2023-09-06,2023-09-06,真亜コーポレーション株式会社,,株式会社,東京都,中央区,銀座８丁目２番１３号Ｊビル６階,,13,102,1040061,,,,,,,2023-09-06,1,,,,,マアコーポレーション,0
1962,7010001238268,新規,0,2023-09-06,2023-09-06,ヴルーヴホールディングス株式会社,,株式会社,東京都,千代田区,丸の内３丁目２番２号丸の内二重橋ビル２階,,13,101,1000005,,,,,,,2023-09-06,1,,,,,ヴルーヴホールディングス,0
1965,7010003041562,新規,0,2023-09-06,2023-09-06,合同会社メガバイト,,合同会社,東京都,中央区,八丁堀４丁目２番１０号ＡＯＪ税理士法人内,,13,102,1040032,,,,,,,2023-09-06,1,,,,,メガバイト,0
1966,7010003041579,新規,0,2023-09-06,2023-09-06,ＡＴ合同会社,,合同会社,東京都,中央区,日本橋３丁目２番１４,,13,102,1030027,,,,,,,2023-09-06,1,,,,,アット,0
1967,7010003041587,新規,0,2023-09-06,2023-09-06,ＳｏｌａｒＰａｙ　Ｔｏｋｙｏ合同会社,,合同会社,東京都,中央区,日本橋兜町１３番１号,,13,102,1030026,,,,,,,2023-09-06,1,,,,,ソーラーペイトウキョウ,0
1968,7010003041604,新規,0,2023-09-06,2023-09-06,合同会社トリアットシステムズ,,合同会社,東京都,中央区,銀座１丁目２２番１１号銀座大竹ビジデンス２Ｆ,,13,102,1040061,,,,,,,2023-09-06,1,,,,,トリアットシステムズ,0
1969,7010003041612,新規,0,2023-09-06,2023-09-06,合同会社Ｔａｌｋｉｎ,,合同会社,東京都,千代田区,外神田３丁目１６－１４ダイサンビル２０２,,13,101,1010021,,,,,,,2023-09-06,1,,,,,トーキン,0
1975,7010401176943,新規,0,2023-09-06,2023-09-06,株式会社想経営コンサルティング,,株式会社,東京都,港区,南青山２丁目６番６号,,13,103,1070062,,,,,,,2023-09-06,1,,,,,ソウケイエイコンサルティング,0
1979,7010501051006,新規,0,2023-09-06,2023-09-06,泰岳株式会社,,株式会社,東京都,台東区,三ノ輪２丁目３番８－３０５号,,13,106,1100011,,,,,,,2023-09-06,1,,,,,ヤスタケ,0
1982,7010503007146,新規,0,2023-09-06,2023-09-06,合同会社アサダ,,合同会社,東京都,台東区,寿１丁目１２番５－２０２号ルフォンリブレ浅草寿,,13,106,1110042,,,,,,,2023-09-06,1,,,,,アサダ,0
1984,7010601063719,新規,0,2023-09-06,2023-09-06,株式会社Ｃｈａｍｐ,,株式会社,東京都,墨田区,東墨田３丁目１８番１０号,,13,107,1310042,,,,,,,2023-09-06,1,,,,,チャンプ,0
1985,7010601063735,新規,0,2023-09-06,2023-09-06,株式会社Ｓｕｎ　Ｉｒｉｓ,,株式会社,東京都,江東区,有明１丁目１番１７号,,13,108,1350063,,,,,,,2023-09-06,1,,,,,サンイーリス,0
1987,7010701044800,新規,0,2023-09-06,2023-09-06,株式会社プラスユー,,株式会社,東京都,品川区,小山７丁目５番９号,,13,109,1420062,,,,,,,2023-09-06,1,,,,,プラスユー,0
1988,7010701044809,新規,0,2023-09-06,2023-09-06,株式会社アイスリーメディカル,,株式会社,東京都,品川区,西五反田７丁目２２番１７号,,13,109,1410031,,,,,,,2023-09-06,1,,,,,アイスリーメディカル,0
1989,7010801034305,新規,0,2023-09-06,2023-09-06,株式会社福山ホールディング,00131797,株式会社,東京都,大田区,田園調布４丁目２６番１号,,13,111,1450071,,,,,,,2023-09-06,1,,,,,フクヤマホールディング,0
1990,7010901053766,新規,0,2023-09-06,2023-09-06,株式会社ＭＧＢクオーツ,,株式会社,東京都,世田谷区,奥沢４丁目４番７－４０２号,,13,112,1580083,,,,,,,2023-09-06,1,,,,,エムジービークオーツ,0
1991,7010901053774,新規,0,2023-09-06,2023-09-06,株式会社大谷山,,株式会社,東京都,世田谷区,桜２丁目１１番３４号,,13,112,1560053,,,,,,,2023-09-06,1,,,,,オオタニサン,0
2003,7011001156773,新規,0,2023-09-06,2023-09-06,株式会社パシフィックインターナショナル,,株式会社,東京都,目黒区,自由が丘２丁目１８番１３号,,13,110,1520035,,,,,,,2023-09-06,1,,,,,パシフィックインターナショナル,0
2008,7011003017494,新規,0,2023-09-06,2023-09-06,合同会社Ｏｆｆｉｃｅ　ＭＩＣＯＴＯ雅采,,合同会社,東京都,渋谷区,神宮前４丁目１９番１６号,,13,113,1500001,,,,,,,2023-09-06,1,,,,,オフィスミコトミコト,0
2010,7011101104211,新規,0,2023-09-06,2023-09-06,株式会社８ｂａｌｌ,,株式会社,東京都,新宿区,原町１丁目５７番地４アクシア牛込柳町５０１号,,13,104,1620053,,,,,,,2023-09-06,1,,,,,エイトボール,0
2011,7011101104244,新規,0,2023-09-06,2023-09-06,株式会社Ｓｔｕｄｉｏ　Ｎｏｉｒ,,株式会社,東京都,新宿区,西新宿３丁目３番１３号西新宿水間ビル２Ｆ,,13,104,1600023,,,,,,,2023-09-06,1,,,,,スタジオノワール,0
2012,7011101104260,新規,0,2023-09-06,2023-09-06,株式会社Ｋ’ｓプランニング,,株式会社,東京都,新宿区,西新宿７丁目５－５Ｐｌａｚａ西新宿ＵＣＦ４階,,13,104,1600023,,,,,,,2023-09-06,1,,,,,ケーズプランニング,0
2018,7011601027102,新規,0,2023-09-06,2023-09-06,株式会社メディカルエンジニアリング,,株式会社,東京都,練馬区,西大泉５丁目６番１２号,,13,120,1780065,,,,,,,2023-09-06,1,,,,,メディカルエンジニアリング,0
2019,7011701026565,新規,0,2023-09-06,2023-09-06,株式会社ティーラ,,株式会社,東京都,江戸川区,中葛西５丁目１１番２５－４０７号中葛西スカイハイツ,,13,123,1340083,,,,,,,2023-09-06,1,,,,,ティーラ,0
2020,7011703003579,新規,0,2023-09-06,2023-09-06,合同会社香栄社,,合同会社,東京都,江戸川区,北葛西４丁目１番１５号藤和シティホームズ西葛西４０７,,13,123,1340081,,,,,,,2023-09-06,1,,,,,コウエイシャ,0
2021,7011705001795,新規,0,2023-09-06,2023-09-06,医療法人社団哲龍会,,その他の設立登記法人,東京都,江戸川区,中葛西８丁目１８番１２号アジュール１０１号室,,13,123,1340083,,,,,,,2023-09-06,1,,,,,テツリュウカイ,0
2022,7011801042990,新規,0,2023-09-06,2023-09-06,株式会社まるわし,,株式会社,東京都,葛飾区,東新小岩１丁目９番１１号,,13,122,1240023,,,,,,,2023-09-06,1,,,,,マルワシ,0
2023,7011801043007,新規,0,2023-09-06,2023-09-06,株式会社Ｊｎｉｎｅ,,株式会社,東京都,足立区,舎人２丁目１４番２号１Ｆ,,13,121,1210831,,,,,,,2023-09-06,1,,,,,ジェイナイン,0
2025,7011803005814,新規,0,2023-09-06,2023-09-06,合同会社ＹＫ,,合同会社,東京都,足立区,江北７丁目２０番１号,,13,121,1230872,,,,,,,2023-09-06,1,,,,,ワイケー,0
2029,7012403006161,新規,0,2023-09-06,2023-09-06,合同会社ロックリバー商会,,合同会社,東京都,多摩市,山王下１丁目１２－１２－３０１,,13,224,2060042,,,,,,,2023-09-06,1,,,,,ロックリバーショウカイ,0
2030,7012701017819,新規,0,2023-09-06,2023-09-06,株式会社うぐいす工房,,株式会社,東京都,西東京市,谷戸町３丁目１３番２３号,,13,229,1880001,,,,,,,2023-09-06,1,,,,,ウグイスコウボウ,0
2031,7012703002785,新規,0,2023-09-06,2023-09-06,合同会社くくる介護ステーション,,合同会社,東京都,小平市,仲町３６３番地９,,13,211,1870042,,,,,,,2023-09-06,1,,,,,ククルカイゴステーション,0
2034,7013103001262,新規,0,2023-09-06,2023-09-06,ＨＯＢＯＣＯＭ合同会社,,合同会社,東京都,青梅市,大門１丁目４８９番地,,13,205,1980014,,,,,,,2023-09-06,1,,,,,,0
2036,7013301051299,新規,0,2023-09-06,2023-09-06,シン・メディコム株式会社,,株式会社,東京都,豊島区,雑司が谷２丁目２番２－２０２号たかのビル,,13,116,1710032,,,,,,,2023-09-06,1,,,,,シンメディコム,0
2043,7020001153292,新規,0,2023-09-06,2023-09-06,株式会社みけ,,株式会社,神奈川県,川崎市中原区,上丸子天神町３６３番地１０ヴァンガーズ新丸子１０３,,14,133,2110007,,,,,,,2023-09-06,1,,,,,ミケ,0
2044,7020001153318,新規,0,2023-09-06,2023-09-06,松葉興産株式会社,,株式会社,神奈川県,横浜市都筑区,勝田町１２６７番地,,14,118,2240034,,,,,,,2023-09-06,1,,,,,マツバコウサン,0
2045,7020001153326,新規,0,2023-09-06,2023-09-06,株式会社Ｋ．Ｋ　Ｆａｒｍｓ,,株式会社,神奈川県,川崎市中原区,井田三舞町１３番６号,,14,133,2110037,,,,,,,2023-09-06,1,,,,,ケーケーファームズ,0
2046,7020001153334,新規,0,2023-09-06,2023-09-06,株式会社ＨＩＧＨ,,株式会社,神奈川県,横浜市西区,平沼２丁目３番１６－４０９号,,14,103,2200023,,,,,,,2023-09-06,1,,,,,ハイ,0
2047,7020001153342,新規,0,2023-09-06,2023-09-06,株式会社横一工業,,株式会社,神奈川県,川崎市麻生区,東百合丘１丁目８番６１号,,14,137,2150012,,,,,,,2023-09-06,1,,,,,ヨコイチコウギョウ,0
2048,7020001153400,新規,0,2023-09-06,2023-09-06,ＢＯＣ株式会社,,株式会社,神奈川県,横浜市西区,北幸１丁目１１番１号水信ビル７階,,14,103,2200004,,,,,,,2023-09-06,1,,,,,ビーオーシー,0
2051,7020003024541,新規,0,2023-09-06,2023-09-06,ＹＵＮＩＤＩ　ＩＮＴＥＲＮＡＴＩＯＮＡＬ合同会社,,合同会社,神奈川県,川崎市中原区,新丸子東２丁目９０７番地コーポ四季２０５,,14,133,2110004,,,,,,,2023-09-06,1,,,,,ユニディインターナショナル,0
2059,7021005012889,新規,0,2023-09-06,2023-09-06,一般社団法人ＦＴＫ管理,,その他の設立登記法人,神奈川県,鎌倉市,由比ガ浜１丁目３番１号,,14,204,2480014,,,,,,,2023-09-06,1,,,,,エフティーケーカンリ,0
2065,7030001155569,新規,0,2023-09-06,2023-09-06,株式会社ＡＲＡＯＪＩ,,株式会社,埼玉県,北葛飾郡杉戸町,高野台東１丁目１－２ウィンザーハイム高野台１０６号,,11,464,3450047,,,,,,,2023-09-06,1,,,,,アラオジ,0
2066,7030001155750,新規,0,2023-09-06,2023-09-06,株式会社Ａｒｔｅｓａｎｏ,,株式会社,埼玉県,川口市,西青木３丁目６番３号,,11,203,3320035,,,,,,,2023-09-06,1,,,,,アルテサーノ,0
2067,7030001155759,新規,0,2023-09-06,2023-09-06,株式会社戸島内装,,株式会社,埼玉県,さいたま市桜区,大字白鍬６２５番地１５,,11,106,3380811,,,,,,,2023-09-06,1,,,,,トシマナイソウ,0
2070,7030003022346,新規,0,2023-09-06,2023-09-06,ＨＢＣＪＡＰＡＮ合同会社,,合同会社,埼玉県,川口市,東領家２丁目３７－１３,,11,203,3320003,,,,,,,2023-09-06,1,,,,,エイチビーシージャパン,0
2076,7040001129919,新規,0,2023-09-06,2023-09-06,株式会社村島塗装,,株式会社,千葉県,千葉市若葉区,御成台２丁目３番地２,,12,104,2650077,,,,,,,2023-09-06,1,,,,,ムラシマトソウ,0
2077,7040001129943,新規,0,2023-09-06,2023-09-06,株式会社オーシャンズ,,株式会社,千葉県,松戸市,南花島３丁目４８番地の２０,,12,207,2710065,,,,,,,2023-09-06,1,,,,,オーシャンズ,0
2078,7040001129976,新規,0,2023-09-06,2023-09-06,株式会社エムケートレーディング,,株式会社,千葉県,山武市,横田１０７０－６７,,12,237,2891226,,,,,,,2023-09-06,1,,,,,エムケートレーディング,0
2079,7040001129984,新規,0,2023-09-06,2023-09-06,株式会社奉仕や,,株式会社,千葉県,富里市,日吉倉１０番１０号,,12,233,2860202,,,,,,,2023-09-06,1,,,,,ホウシヤ,0
2082,7040003023252,新規,0,2023-09-06,2023-09-06,合同会社ＧＯＯＤ　ＪＯＢ,,合同会社,千葉県,香取市,阿玉川３１番地１,,12,236,2890321,,,,,,,2023-09-06,1,,,,,グッドジョブ,0
2083,7040003023260,新規,0,2023-09-06,2023-09-06,合同会社ＺＥＲＯ,,合同会社,千葉県,市原市,松崎７７番地１,,12,219,2900217,,,,,,,2023-09-06,1,,,,,ゼロ,0
2084,7050001053408,新規,0,2023-09-06,2023-09-06,株式会社ＱＬｉｆｅ,,株式会社,茨城県,水戸市,赤塚１丁目２０６７番地３コーキビル２Ｆ,,08,201,3114141,,,,,,,2023-09-06,1,,,,,キューライフ,0
2085,7050001053432,新規,0,2023-09-06,2023-09-06,株式会社４ｃｌｏｖｅｒ,,株式会社,茨城県,取手市,下高井２３８６－１１,,08,217,3020038,,,,,,,2023-09-06,1,,,,,フォークローバー,0
2089,7060001036320,新規,0,2023-09-06,2023-09-06,ミツコウ株式会社,,株式会社,栃木県,足利市,大月町４３番地１,,09,202,3260005,,,,,,,2023-09-06,1,,,,,ミツコウ,0
2093,7070001040825,新規,0,2023-09-06,2023-09-06,株式会社ｍ　ｔｅｃｈ　ｌａｂ,,株式会社,群馬県,前橋市,上大島町２番地１,,10,201,3792153,,,,,,,2023-09-06,1,,,,,エムテックラボ,0
2096,7080101024198,新規,0,2023-09-06,2023-09-06,株式会社ぽらりす,,株式会社,静岡県,裾野市,茶畑２６７番地の４,,22,220,4101121,,,,,,,2023-09-06,1,,,,,ポラリス,0
2104,7110001037825,新規,0,2023-09-06,2023-09-06,株式会社カイト,,株式会社,新潟県,西蒲原郡弥彦村,大字村山１９０２番地,,15,342,9590316,,,,,,,2023-09-06,1,,,,,カイト,0
2114,7120001257744,新規,0,2023-09-06,2023-09-06,Ｑｕａｎｔｕｍ‐Ｐｏｗｅｒ株式会社,,株式会社,大阪府,大阪市中央区,松屋町９番２０号ローレルステート松屋町５０５Ａ,,27,128,5420067,,,,,,,2023-09-06,1,,,,,クオンタムパワー,0
2115,7120001257827,新規,0,2023-09-06,2023-09-06,豊禾株式会社,,株式会社,大阪府,大阪市西成区,出城１丁目８番１９号３Ｆ－Ｄ,,27,122,5570024,,,,,,,2023-09-06,1,,,,,ホウカ,0
2116,7120001257901,新規,0,2023-09-06,2023-09-06,株式会社Ｍａｙｕｋｏ　Ｓｏｇａ　Ｄｅｓｉｇｎ,,株式会社,大阪府,大阪市北区,梅田１丁目２番２号大阪駅前第２ビル１２－１２,,27,127,5300001,,,,,,,2023-09-06,1,,,,,マユコソガデザイン,0
2120,7120003024804,新規,0,2023-09-06,2023-09-06,合同会社ＥｐｉＴＡＰ,,合同会社,大阪府,大阪市東成区,東中本１丁目１５－２３,,27,115,5370021,,,,,,,2023-09-06,1,,,,,エピタップ,0
2122,7120005023861,新規,0,2023-09-06,2023-09-06,一般財団法人ワキタ奨学財団,,その他の設立登記法人,大阪府,大阪市西区,江戸堀１丁目３番２０号,,27,106,5500002,,,,,,,2023-09-06,1,,,,,ワキタショウガクザイダン,0
2138,7130001075113,新規,0,2023-09-06,2023-09-06,漆星商事株式会社,00131785,株式会社,京都府,京都市右京区,西院南寿町１４－２３小林マンション３０１,,26,108,6150048,,,,,,,2023-09-06,1,,,,,シツセイショウジ,0
2139,7130001075179,新規,0,2023-09-06,2023-09-06,株式会社Ｂ．Ｗ．ＢＬＡＮＫ,,株式会社,京都府,京都市北区,上賀茂桜井町１００番地ブリリア北山３０１,,26,101,6038054,,,,,,,2023-09-06,1,,,,,ビーダブリューブランク,0
2143,7140001131443,新規,0,2023-09-06,2023-09-06,株式会社ヒーロー・インタヴュー,,株式会社,兵庫県,三田市,三田町１９番５号,,28,219,6691533,,,,,,,2023-09-06,1,,,,,ヒーローインタヴュー,0
2146,7150001026691,新規,0,2023-09-06,2023-09-06,株式会社あさひホールディングス,,株式会社,奈良県,生駒市,山崎町１番１３号,,29,209,6300252,,,,,,,2023-09-06,1,,,,,アサヒホールディングス,0
2147,7150005009503,新規,0,2023-09-06,2023-09-06,一般社団法人温泉旅行サービス,,その他の設立登記法人,奈良県,橿原市,内膳町４丁目３番１７号,,29,205,6340804,,,,,,,2023-09-06,1,,,,,オンセンリョコウサービス,0
2148,7160001025313,新規,0,2023-09-06,2023-09-06,株式会社福永事業団,,株式会社,滋賀県,草津市,南草津２丁目２番地４－１５０９,,25,206,5250050,,,,,,,2023-09-06,1,,,,,フクナガジギョウダン,0
2159,7180001157856,新規,0,2023-09-06,2023-09-06,株式会社Ｓｉｎｃｅｒｉｔｙ,,株式会社,愛知県,名古屋市南区,中江２丁目１２番８号,,23,112,4570004,,,,,,,2023-09-06,1,,,,,シンセリティー,0
2160,7180001157872,新規,0,2023-09-06,2023-09-06,株式会社永易商會,,株式会社,愛知県,海部郡蟹江町,南２丁目１５９番地,,23,425,4970041,,,,,,,2023-09-06,1,,,,,ナガヤスショウカイ,0
2161,7180001157880,新規,0,2023-09-06,2023-09-06,キョーワグループ株式会社,,株式会社,愛知県,名古屋市東区,泉２丁目２６番２号,,23,102,4610001,,,,,,,2023-09-06,1,,,,,キョーワグループ,0
2162,7180001157897,新規,0,2023-09-06,2023-09-06,美希株式会社,,株式会社,愛知県,あま市,篠田南組７３番地４,,23,237,4901211,,,,,,,2023-09-06,1,,,,,ミキ,0
2163,7180001157914,新規,0,2023-09-06,2023-09-06,株式会社ワンラブホールディングス,,株式会社,愛知県,名古屋市東区,徳川町１４０２番地ワンラブ徳川ビル２階,,23,102,4610023,,,,,,,2023-09-06,1,,,,,ワンラブホールディングス,0
2164,7180001157939,新規,0,2023-09-06,2023-09-06,株式会社フジシン東海,,株式会社,愛知県,名古屋市北区,西味鋺１丁目４０８番地４,,23,103,4620016,,,,,,,2023-09-06,1,,,,,フジシントウカイ,0
2165,7180001157963,新規,0,2023-09-06,2023-09-06,株式会社Ｔａｋａｇｉ,,株式会社,愛知県,名古屋市千種区,池園町２丁目２０番地,,23,101,4640818,,,,,,,2023-09-06,1,,,,,タカギ,0
2169,7180003025697,新規,0,2023-09-06,2023-09-06,合同会社ＡＲＣ,,合同会社,愛知県,名古屋市南区,岩戸町１９番１６号金しゃちホーム１Ｆ,,23,112,4570015,,,,,,,2023-09-06,1,,,,,エーアールシー,0
2171,7190001030698,新規,0,2023-09-06,2023-09-06,株式会社命洗,,株式会社,三重県,いなべ市,大安町石榑東２５１４番地６,,24,214,5110264,,,,,,,2023-09-06,1,,,,,メイセン,0
2173,7200001041685,新規,0,2023-09-06,2023-09-06,岸野養蜂園株式会社,,株式会社,岐阜県,安八郡安八町,牧字附砂３１３３番地１,,21,383,5030125,,,,,,,2023-09-06,1,,,,,キシノヨウホウエン,0
2174,7200001041693,新規,0,2023-09-06,2023-09-06,Ｎｅｗ　Ｆｕｒｕｓａｔｏ株式会社,,株式会社,岐阜県,本巣郡北方町,高屋１３番地の１,,21,421,5010458,,,,,,,2023-09-06,1,,,,,ニューフルサト,0
2177,7200003006067,新規,0,2023-09-06,2023-09-06,合同会社村井電装,,合同会社,岐阜県,美濃加茂市,蜂屋町中蜂屋４３７８番地２,,21,211,5050005,,,,,,,2023-09-06,1,,,,,ムライデンソウ,0
2180,7210003001694,新規,0,2023-09-06,2023-09-06,合同会社トヨシン,,合同会社,福井県,坂井市,三国町緑ケ丘４丁目３１－１１,,18,210,9130048,,,,,,,2023-09-06,1,,,,,トヨシン,0
2182,7220003003582,新規,0,2023-09-06,2023-09-06,合同会社ＳＵＮＳＥＴ　ＣＯＭＰＡＮＹ,,合同会社,石川県,河北郡内灘町,白帆台２丁目４７１番地,,17,365,9200269,,,,,,,2023-09-06,1,,,,,サンセットカンパニー,0
2186,7240001062075,新規,0,2023-09-06,2023-09-06,ＹＮＳ株式会社,,株式会社,広島県,尾道市,美ノ郷町三成１８０６番地４,,34,205,7220215,,,,,,,2023-09-06,1,,,,,ワイエヌエス,0
2189,7240003006286,新規,0,2023-09-06,2023-09-06,グリーン水素・アンモニア合同会社,,合同会社,広島県,東広島市,入野中山台４丁目６番１１号,,34,212,7392209,,,,,,,2023-09-06,1,,,,,グリーンスイソアンモニア,0
2190,7250001020271,新規,0,2023-09-06,2023-09-06,株式会社ＩＳＧ,,株式会社,山口県,山口市,大内御堀３０９８番地１,,35,203,7530214,,,,,,,2023-09-06,1,,,,,アイエスジー,0
2191,7260001038271,新規,0,2023-09-06,2023-09-06,株式会社新倉敷リアルティ,,株式会社,岡山県,倉敷市,新倉敷駅前２丁目１１０番地,,33,202,7100253,,,,,,,2023-09-06,1,,,,,シンクラシキリアルティ,0
2196,7290001102867,新規,0,2023-09-06,2023-09-06,株式会社野口農園,,株式会社,福岡県,朝倉市,大庭５０３番地１,,40,228,8381316,,,,,,,2023-09-06,1,,,,,ノグチノウエン,0
2197,7290001102875,新規,0,2023-09-06,2023-09-06,株式会社平山工業,,株式会社,福岡県,福岡市東区,箱崎２丁目２１番１０号,,40,131,8120053,,,,,,,2023-09-06,1,,,,,ヒラヤマコウギョウ,0
2198,7290001102883,新規,0,2023-09-06,2023-09-06,株式会社高吉,,株式会社,福岡県,福岡市中央区,六本松４丁目５番１号,,40,133,8100044,,,,,,,2023-09-06,1,,,,,タカキチ,0
2199,7290001102909,新規,0,2023-09-06,2023-09-06,株式会社ＴＯＭＩＲＵ,,株式会社,福岡県,福岡市東区,雁の巣２丁目１４－１７,,40,131,8110206,,,,,,,2023-09-06,1,,,,,トミル,0
2208,7290801029855,新規,0,2023-09-06,2023-09-06,新和テクノ株式会社,,株式会社,福岡県,北九州市八幡西区,小嶺台３丁目６番４０号,,40,109,8070082,,,,,,,2023-09-06,1,,,,,シンワテクノ,0
2209,7300001013443,新規,0,2023-09-06,2023-09-06,株式会社西九州ローリー,,株式会社,佐賀県,伊万里市,山代町久原字下場２８７２番地１４,,41,205,8494256,,,,,,,2023-09-06,1,,,,,ニシキュウシュウローリー,0
2210,7300001013451,新規,0,2023-09-06,2023-09-06,株式会社サンエツ空調,,株式会社,佐賀県,小城市,牛津町上砥川１５８１番地１７,,41,208,8490305,,,,,,,2023-09-06,1,,,,,サンエツクウチョウ,0
2211,7320001019983,新規,0,2023-09-06,2023-09-06,友進機工株式会社,,株式会社,大分県,杵築市,大字杵築６６５番地５６３グレイスフル服部４０３,,44,210,8730001,,,,,,,2023-09-06,1,,,,,ユウシンキコウ,0
2215,7340001025864,新規,0,2023-09-06,2023-09-06,株式会社新王ノ山,,株式会社,鹿児島県,姶良市,船津２５７番地,,46,225,8995655,,,,,,,2023-09-06,1,,,,,シンオウノヤマ,0
2216,7340001025872,新規,0,2023-09-06,2023-09-06,株式会社レフト,,株式会社,鹿児島県,出水市,西出水町５１５番地,,46,208,8990213,,,,,,,2023-09-06,1,,,,,レフト,0
2217,7340001025880,新規,0,2023-09-06,2023-09-06,なんさつ会計センター株式会社,,株式会社,鹿児島県,南九州市,知覧町郡１６９８０番地３,,46,223,8970302,,,,,,,2023-09-06,1,,,,,ナンサツカイケイセンター,0
2220,7340003004230,新規,0,2023-09-06,2023-09-06,合同会社奄美良研,,合同会社,鹿児島県,奄美市,名瀬小浜町２番２１―１０５,,46,222,8940006,,,,,,,2023-09-06,1,,,,,アマミリョウケン,0
2222,7350001018545,新規,0,2023-09-06,2023-09-06,株式会社ツロクホーム,,株式会社,宮崎県,東諸県郡国富町,大字岩知野１２１０番地１,,45,382,8801111,,,,,,,2023-09-06,1,,,,,ツロクホーム,0
2225,7360001032504,新規,0,2023-09-06,2023-09-06,株式会社ＫＯＨＡＴＳＵ　ＰＲＯＪＥＣＴ,,株式会社,沖縄県,中頭郡読谷村,字喜名３１８番地２,,47,324,9040302,,,,,,,2023-09-06,1,,,,,コハツプロジェクト,0
2226,7360003013254,新規,0,2023-09-06,2023-09-06,合同会社ライトブリング,,合同会社,沖縄県,沖縄市,高原３丁目１４番１４号,,47,211,9042171,,,,,,,2023-09-06,1,,,,,ライトブリング,0
2227,7360003013270,新規,0,2023-09-06,2023-09-06,合同会社ｐｌａｉｓｉｒ,,合同会社,沖縄県,中頭郡読谷村,字高志保１８９番地４,,47,324,9040323,,,,,,,2023-09-06,1,,,,,プレジア,0
2230,7370001050364,新規,0,2023-09-06,2023-09-06,株式会社ＯＭＯＴＯ建設,,株式会社,宮城県,仙台市青葉区,東勝山３丁目１０番８号,,04,101,9810923,,,,,,,2023-09-06,1,,,,,オモトケンセツ,0
2236,7400001016361,新規,0,2023-09-06,2023-09-06,優雅株式会社,,株式会社,岩手県,二戸市,金田一字小林３８番地,,03,213,0285711,,,,,,,2023-09-06,1,,,,,ユウガ,0
2240,7420001018389,新規,0,2023-09-06,2023-09-06,株式会社Ｓｑｕａｒｅ　Ｔｒｙ,,株式会社,青森県,八戸市,高州１丁目３番１５－１０１号,,02,203,0391163,,,,,,,2023-09-06,1,,,,,スクエアトライ,0
2242,7420003002795,新規,0,2023-09-06,2023-09-06,合同会社ディーパルプランニング,,合同会社,青森県,五所川原市,中央４丁目９９番地,,02,205,0370036,,,,,,,2023-09-06,1,,,,,ディーパルプランニング,0
2246,7430001089917,新規,0,2023-09-06,2023-09-06,株式会社ＡＣ,,株式会社,北海道,札幌市中央区,南二条西８丁目１１番地１クルーザーバレータワーＳ２　２００５号,,01,101,0600062,,,,,,,2023-09-06,1,,,,,エーシー,0
2247,7430001089933,新規,0,2023-09-06,2023-09-06,Ｄｏ株式会社,,株式会社,北海道,札幌市南区,澄川四条２丁目１０番８号,,01,106,0050004,,,,,,,2023-09-06,1,,,,,ドゥ,0
2249,7470001019795,新規,0,2023-09-06,2023-09-06,株式会社刺身屋紬,,株式会社,香川県,さぬき市,志度５３８４番地６,,37,206,7692101,,,,,,,2023-09-06,1,,,,,サシミヤツムギ,0
2250,7470003002477,新規,0,2023-09-06,2023-09-06,合同会社丸正,,合同会社,香川県,善通寺市,善通寺町８８２番地１７,,37,204,7650004,,,,,,,2023-09-06,1,,,,,マルショウ,0
2252,7490001010579,新規,0,2023-09-06,2023-09-06,ＲｅｖｅＦｉ株式会社,,株式会社,高知県,高知市,朝倉横町２７番２号,,39,201,7808074,,,,,,,2023-09-06,1,,,,,リヴェフィ,0
2260,7700150114836,新規,0,2023-09-06,2023-09-06,ｄｏｎｇｇｕａｎｓｈｉｈｅｎｇｈｕｉｄｉａｎｚｉｋｅｊｉｙｏｕｘｉａｎｇｏｎｇｓｉ,,外国会社等,,,,,,,,Ｆｅｎｇｇａｎｇｚｈｅｎ　Ｚｈｕｔａｎｇｓｈａｎｇｘｉａｗｅｉ　Ｇｏｎｇｙｅｌｕ２ｈａｏ　１ｈａｏｌｏｕ４０１ｓｈｉ　Ｄｏｎｇｇｕａｎ　Ｇｕａｎｇｄｏｎｇ　５２３６９０　ＣＮ,,,,,,2023-09-06,1,,,,,ドーングワンシホンホイディエンズーカージーヨウシエンゴンス,0
2261,7700150115446,新規,0,2023-09-06,2023-09-06,Ｚｈｕｈａｉ　Ｈｅｎｇｑｉｎ　Ｒｏｎｇｈｕａ　Ｓｈｉｙｅ　Ｙｏｕｘｉａｎｇｏｎｇｓｉ,,外国会社等,,,,,,,,Ｈｅｎｇｑｉｎｘｉｎｑｕ　Ｂａｏｚｈｏｎｇｌｕ　３ｈａｏ　４００４ｓｈｉ－６７２Ｚｈｕｈａｉ　Ｇｕａｎｇｄｏｎｇ　５１９０３１　ＣＮ,,,,,,2023-09-06,1,,,,,ジュウハイホンチンロンホアシーイエヨウシェンゴンス,0
2262,7700150118713,新規,0,2023-09-06,2023-08-01,関西中央労務協会,,その他,京都府,京都市下京区,大宮通五条下ル東側南門前町４９０ＬＤ－Ｓｔｕｄｉｏ,,26,106,6000000,,,,,,,2023-08-01,1,,,,,カンサイチユウオウロウムキヨウカイ,0
2263,7700150119827,新規,0,2023-09-06,2023-09-06,ＧＯＬＤ　ＳＴＡＲ　ＬＩＮＥ　ＬＩＭＩＴＥＤ,,外国会社等,,,,,,,,Ｕｎｉｔ　７０２，Ｌｅｖｅｌ　７，Ｍａｎｕｌｉｆｅ　Ｐｌａｃｅ，３４８　Ｋｗｕｎ　Ｔｏｎｇ　Ｒｏａｄ，Ｋｗｕｎ　Ｔｏｎｇ，Ｋｏｗｌｏｏｎ，Ｈｏｎｇ　Ｋｏｎｇ,,,,,,2023-09-06,1,,,,,ゴールドスターラインリミテッド,0
2264,7700150119835,新規,0,2023-09-06,2023-09-06,ｓｈｅｎｚｈｅｎｓｈｉ　ｘｉｎｇｗａｎｇｃａｉｄｉａｎｚｉｓｈａｎｇｗｕ　ｙｏｕｘｉａｎｇｏｎｇｓｉ,,外国会社等,,,,,,,,ｌｏｎｇｈｕａｊｉｅｄａｏｙｏｕｓｏｎｇｓｈｅｑｕｓｈｕｉｄｏｕｌａｏｗｅｉｃｕｎ　ｘｉｎｊｉａｎｌｏｕＣｄｏｎｇｍｏｆａｎｇｇｏｎｇｙｕ２１７　Ｌｏｎｇｈｕａｑｕ　Ｓｈｅｎｚｈｅｎｓｈｉ　５１８０００　ＣＮ,,,,,,2023-09-06,1,,,,,シンセンシシンワンツアイデンシショウムヨウシェンゴンスー,0
2265,7700150119843,新規,0,2023-09-06,2023-09-06,ｘｉｎｈｕａｘｉａｎ　ｓｈｅｎｊｉｎｄｉａｎｚｉｓｈａｎｇｗｕ　ｙｏｕｘｉａｎｇｏｎｇｓｉ,,外国会社等,,,,,,,,ｌｕｇｕａｎｚｈｅｎｈｅｙｅｃｕｎ６ｚｕ　ｌｏｕｄｉｓｈｉｘｉｎｈｕａｘｉａｎ　Ｈｕｎａｎｓｈｅｎｇ,,,,,,2023-09-06,1,,,,,シンフアシャンシェンジンデンシショウムユウゲンコウシ,0
2266,7700150119851,新規,0,2023-09-06,2023-09-06,ｓｈｅｎｚｈｅｎｓｈｉ　ｓｉｂａｏｌａｉｋｅｊｉ　ｙｏｕｘｉａｎｇｏｎｇｓｉ,,外国会社等,,,,,,,,ｌｏｎｇｈｕａｘｉｎｑｕｍｉｎｚｈｉｊｉｅｄａｏｍｉｎｋａｎｇｌｕ　ｌａｎｋｕｎｄａｓｈａ１７０３　ｓｈｅｎｚｈｅｎｓｈｉ,,,,,,2023-09-06,1,,,,,シンセンシスバオライカギユウゲンコウシ,0
2267,7700150119892,新規,0,2023-09-06,2023-09-06,ＸｉａＭｅｎＴｕｏＳｏｕＫｅＪｉＹｏｕＸｉａｎＧｏｎｇＳｉ,,外国会社等,,,,,,,,Ｘｉｎｇｌｏｎｇ　Ｌｕ　８８　Ｈａｏ，Ａ　Ｑｕ　６０３　Ｄａｎｙｕａｎ　Ｈｕｌｉ　Ｑｕ　Ｆｕｊｉａｎ　Ｓｈｅｎｇ，Ｘｉａｍｅｎ　Ｓｈｉ,,,,,,2023-09-06,1,,,,,アモイトウオソウテクノロジーカンパニリミテツド,0
2274,8010001238184,新規,0,2023-09-06,2023-09-06,株式会社Ｒａｆｆｌｅｓｉａ,,株式会社,東京都,千代田区,神田和泉町１番地６－１６ヤマトビル４０５,,13,101,1010024,,,,,,,2023-09-06,1,,,,,ラフレシア,0
2275,8010001238201,新規,0,2023-09-06,2023-09-06,株式会社ワールド・ヒルズ・インベストメント,,株式会社,東京都,千代田区,有楽町１丁目１番２号東京ミッドタウン日比谷３２階,,13,101,1000006,,,,,,,2023-09-06,1,,,,,ワールドヒルズインベストメント,0
2276,8010001238218,新規,0,2023-09-06,2023-09-06,ＮｅｗＦｕｔｕｒｅｓ株式会社,,株式会社,東京都,中央区,日本橋堀留町１丁目６番９号１階,,13,102,1030012,,,,,,,2023-09-06,1,,,,,ニューフューチャーズ,0
2277,8010001238234,新規,0,2023-09-06,2023-09-06,株式会社有友テック,,株式会社,東京都,中央区,日本橋浜町１丁目１０番３－６０２号,,13,102,1030007,,,,,,,2023-09-06,1,,,,,アリトモテック,0
2278,8010001238259,新規,0,2023-09-06,2023-09-06,株式会社設立準備法人第２号,,株式会社,東京都,千代田区,九段南１丁目６番５号九段会館テラス,,13,101,1020074,,,,,,,2023-09-06,1,,,,,セツリツジュンビホウジンダイニゴウ,0
2279,8010001238267,新規,0,2023-09-06,2023-09-06,株式会社グラスルーツ,,株式会社,東京都,中央区,日本橋兜町９番１１－５０３号,,13,102,1030026,,,,,,,2023-09-06,1,,,,,グラスルーツ,0
2281,8010003041586,新規,0,2023-09-06,2023-09-06,合同会社レイスインベストメント,,合同会社,東京都,千代田区,岩本町２丁目８番５－１００２号,,13,101,1010032,,,,,,,2023-09-06,1,,,,,レイスインベストメント,0
2282,8010003041594,新規,0,2023-09-06,2023-09-06,合同会社ＢＳＰＶ４号,,合同会社,東京都,千代田区,九段南１丁目６番５号九段会館テラス,,13,101,1020074,,,,,,,2023-09-06,1,,,,,ビーエスピーブイヨンゴウ,0
2288,8010401176843,新規,0,2023-09-06,2023-09-06,株式会社ＲＥＶＩＦ,,株式会社,東京都,港区,芝３丁目２番１１号,,13,103,1050014,,,,,,,2023-09-06,1,,,,,ルビフ,0
2289,8010401176901,新規,0,2023-09-06,2023-09-06,株式会社Ｏ‐ＫＩ,,株式会社,東京都,港区,新橋６丁目２番８号９０４号室,,13,103,1050004,,,,,,,2023-09-06,1,,,,,オーキ,0
2293,8010403030866,新規,0,2023-09-06,2023-09-06,合同会社ナイスイン通商,,合同会社,東京都,港区,赤坂３丁目１２－２赤坂慶和ビル３階,,13,103,1070052,,,,,,,2023-09-06,1,,,,,ナイスインツウショウ,0
2294,8010501050989,新規,0,2023-09-06,2023-09-06,株式会社リビルド,,株式会社,東京都,台東区,台東１丁目２３番４号五十川ビル２０２,,13,106,1100016,,,,,,,2023-09-06,1,,,,,リビルド,0
2295,8010501051005,新規,0,2023-09-06,2023-09-06,ＵＵＰ株式会社,,株式会社,東京都,台東区,上野３丁目１１番５号,,13,106,1100005,,,,,,,2023-09-06,1,,,,,ユユピ,0
2297,8010601063726,新規,0,2023-09-06,2023-09-06,ＵＤトラックス関東株式会社,,株式会社,東京都,江東区,東雲２丁目１２番４３号,,13,108,1350062,,,,,,,2023-09-06,1,,,,,ユーディートラックスカントウ,0
2298,8010603010338,新規,0,2023-09-06,2023-09-06,ｈＳｅｎｉｄ合同会社,,合同会社,東京都,江東区,豊洲６丁目２番３１－１９１７号,,13,108,1350061,,,,,,,2023-09-06,1,,,,,セニード,0
2299,8010603010346,新規,0,2023-09-06,2023-09-06,ＢｉｔＰｌｕｓｅ合同会社,,合同会社,東京都,江東区,千石１丁目１３番６－５０２号,,13,108,1350015,,,,,,,2023-09-06,1,,,,,ビットパルス,0
2302,8010701044790,新規,0,2023-09-06,2023-09-06,株式会社ハロープロジェクトオフィシャルショップ,,株式会社,東京都,品川区,北品川５丁目１番１８号,,13,109,1410001,,,,,,,2023-09-06,1,,,,,ハロープロジェクトオフィシャルショップ,0
2303,8010701044808,新規,0,2023-09-06,2023-09-06,株式会社ＰＡＤＤＬＥ,,株式会社,東京都,品川区,北品川５丁目９－４３セザール御殿山３０３,,13,109,1410001,,,,,,,2023-09-06,1,,,,,パドル,0
2304,8010701044816,新規,0,2023-09-06,2023-09-06,株式会社ＴＹ　Ｍａｎａｇｅｍｅｎｔ,,株式会社,東京都,品川区,上大崎２丁目２４番１１－５０５号,,13,109,1410021,,,,,,,2023-09-06,1,,,,,ティーワイマネジメント,0
2306,8010703006839,新規,0,2023-09-06,2023-09-06,ｂｏｎｈｅｕｒ合同会社,,合同会社,東京都,品川区,大崎１丁目２－３－２２１０,,13,109,1410032,,,,,,,2023-09-06,1,,,,,ボヌール,0
2307,8010801034304,新規,0,2023-09-06,2023-09-06,橙陽株式会社,,株式会社,東京都,大田区,西糀谷３丁目２６番７号,,13,111,1440034,,,,,,,2023-09-06,1,,,,,トウヨウ,0
2310,8010901053749,新規,0,2023-09-06,2023-09-06,株式会社ワールドエイト,,株式会社,東京都,世田谷区,経堂４丁目３４－１コーシャハイム経堂フォレスト３１１,,13,112,1560052,,,,,,,2023-09-06,1,,,,,ワールドエイト,0
2319,8011001156764,新規,0,2023-09-06,2023-09-06,株式会社ＨＩＧＨＷＡＹ　ＳＴＡＲ　Ａｕｄｉｏ,,株式会社,東京都,渋谷区,広尾１丁目３番１４号,,13,113,1500012,,,,,,,2023-09-06,1,,,,,ハイウェイスターオーディオ,0
2320,8011001156772,新規,0,2023-09-06,2023-09-06,株式会社Ｎｕｍｅｒｏ　Ｎｅｕｆ,,株式会社,東京都,目黒区,上目黒２丁目１２番１２号ジェイパーク中目黒５０５,,13,110,1530051,,,,,,,2023-09-06,1,,,,,ヌメロヌフ,0
2321,8011001156780,新規,0,2023-09-06,2023-09-06,株式会社ｅｎｓｏ,,株式会社,東京都,渋谷区,東２丁目２９－５,,13,113,1500011,,,,,,,2023-09-06,1,,,,,エンソウ,0
2322,8011001156839,新規,0,2023-09-06,2023-09-06,株式会社Ｄｉｓｄｏ,,株式会社,東京都,渋谷区,道玄坂１丁目１０番８号渋谷道玄坂東急ビル２Ｆ－Ｃ,,13,113,1500043,,,,,,,2023-09-06,1,,,,,ディスド,0
2326,8011101104243,新規,0,2023-09-06,2023-09-06,株式会社ヒカリノ商事,,株式会社,東京都,新宿区,上落合１丁目２２番１２号,,13,104,1610034,,,,,,,2023-09-06,1,,,,,ヒカリノショウジ,0
2327,8011101104251,新規,0,2023-09-06,2023-09-06,株式会社エクス・ケーエム,,株式会社,東京都,新宿区,新小川町９番２５号中田ビル１Ｆ,,13,104,1620814,,,,,,,2023-09-06,1,,,,,エクスケーエム,0
2330,8011103013442,新規,0,2023-09-06,2023-09-06,合同会社ＮＭＳＬａｂ,,合同会社,東京都,新宿区,新宿２丁目１２番１３号新宿アントレサロンビル２階,,13,104,1600022,,,,,,,2023-09-06,1,,,,,エヌエムエスラブ,0
2331,8011105010768,新規,0,2023-09-06,2023-09-06,医療法人社団新誠会,,その他の設立登記法人,東京都,新宿区,北新宿２丁目２１番１－３０１号,,13,104,1690074,,,,,,,2023-09-06,1,,,,,シンセイカイ,0
2333,8011201024886,新規,0,2023-09-06,2023-09-06,株式会社享匠,,株式会社,東京都,中野区,東中野５丁目１４番２号,,13,114,1640003,,,,,,,2023-09-06,1,,,,,キョウショウ,0
2334,8011401025429,新規,0,2023-09-06,2023-09-06,株式会社フラット,,株式会社,東京都,板橋区,板橋１丁目１２番８－３０２号,,13,119,1730004,,,,,,,2023-09-06,1,,,,,フラット,0
2340,8011601027092,新規,0,2023-09-06,2023-09-06,株式会社西岡,,株式会社,東京都,練馬区,石神井町２丁目２７番８号シティハウス１０３号室,,13,120,1770041,,,,,,,2023-09-06,1,,,,,ニシオカ,0
2342,8011701026564,新規,0,2023-09-06,2023-09-06,日本ｉＲ国際株式会社,,株式会社,東京都,江戸川区,平井５丁目４５番５号渡辺ハイツ１０１,,13,123,1320035,,,,,,,2023-09-06,1,,,,,ニホンアイアールコクサイ,0
2349,8012403006160,新規,0,2023-09-06,2023-09-06,Ｓｐｉｃａ合同会社,,合同会社,東京都,調布市,深大寺北町５丁目１８－３１,,13,208,1820011,,,,,,,2023-09-06,1,,,,,スピカ,0
2350,8012701017818,新規,0,2023-09-06,2023-09-06,株式会社ラ・ボーテ,,株式会社,東京都,西東京市,柳沢２丁目２番７号,,13,229,2020022,,,,,,,2023-09-06,1,,,,,ラボーテ,0
2351,8012801022602,新規,0,2023-09-06,2023-09-06,株式会社入谷事務所,,株式会社,東京都,昭島市,松原町２丁目８番８－３０２号,,13,207,1960003,,,,,,,2023-09-06,1,,,,,イリヤジムショ,0
2360,8020001153309,新規,0,2023-09-06,2023-09-06,株式会社ｆｕｒｅｍｏ,,株式会社,神奈川県,横浜市西区,みなとみらい２丁目２番１号横浜ランドマークタワー４１階,,14,103,2200012,,,,,,,2023-09-06,1,,,,,フレモ,0
2361,8020001153317,新規,0,2023-09-06,2023-09-06,メッチャエステート株式会社,,株式会社,神奈川県,横浜市神奈川区,鶴屋町２丁目１２番地１－２Ｆ,,14,102,2210835,,,,,,,2023-09-06,1,,,,,メッチャエステート,0
2362,8020001153333,新規,0,2023-09-06,2023-09-06,株式会社セーフティーワン,,株式会社,神奈川県,横浜市栄区,鍛冶ケ谷２丁目５４番,,14,115,2470009,,,,,,,2023-09-06,1,,,,,セーフティーワン,0
2363,8020001153358,新規,0,2023-09-06,2023-09-06,株式会社工藤工房,,株式会社,神奈川県,横浜市戸塚区,深谷町１３０７番地１９,,14,110,2450067,,,,,,,2023-09-06,1,,,,,クドウコウボウ,0
2364,8020001153366,新規,0,2023-09-06,2023-09-06,株式会社レーヴシステム,,株式会社,神奈川県,横浜市中区,桜木町１丁目１０１－１クロスゲート７階,,14,104,2310062,,,,,,,2023-09-06,1,,,,,レーヴシステム,0
2365,8020001153374,新規,0,2023-09-06,2023-09-06,ねこコンサルティング株式会社,,株式会社,神奈川県,川崎市多摩区,東生田１丁目２６番３号,,14,135,2140031,,,,,,,2023-09-06,1,,,,,ネココンサルティング,0
2368,8020003024540,新規,0,2023-09-06,2023-09-06,合同会社ビアンサ,,合同会社,神奈川県,横浜市神奈川区,六角橋１丁目４－９レジデンスピアＩＩＩ１０２号,00131796,14,102,2210802,,,,,,,2023-09-06,1,,,,,ビアンサ,0
2369,8020003024557,新規,0,2023-09-06,2023-09-06,ＳＹパートナーズ合同会社,,合同会社,神奈川県,横浜市都筑区,仲町台５丁目７番５‐７０４号,,14,118,2240041,,,,,,,2023-09-06,1,,,,,エスワイパートナーズ,0
2377,8021003013533,新規,0,2023-09-06,2023-09-06,ｔｒｕｓｋａｎ合同会社,,合同会社,神奈川県,茅ヶ崎市,中海岸３丁目２番３２号,,14,207,2530055,,,,,,,2023-09-06,1,,,,,トラスカン,0
2382,8030001155642,新規,0,2023-09-06,2023-09-06,株式会社エム・ケイエス,,株式会社,埼玉県,北葛飾郡杉戸町,大字才羽２１０３番地１５,,11,464,3450014,,,,,,,2023-09-06,1,,,,,エムケイエス,0
2383,8030001155758,新規,0,2023-09-06,2023-09-06,株式会社匠,,株式会社,埼玉県,川口市,大字安行領根岸９０５番地２０３号,,11,203,3330834,,,,,,,2023-09-06,1,,,,,タクミ,0
2387,8030003022403,新規,0,2023-09-06,2023-09-06,合同会社美作,,合同会社,埼玉県,熊谷市,銀座６丁目５番１９号,,11,202,3600032,,,,,,,2023-09-06,1,,,,,ミーサ,0
2388,8030003022411,新規,0,2023-09-06,2023-09-06,青龍合同会社,,合同会社,埼玉県,さいたま市南区,別所３丁目２１番１２号別所パールハイツ１０２号,,11,108,3360021,,,,,,,2023-09-06,1,,,,,セイリュウ,0
2394,8040001129868,新規,0,2023-09-06,2023-09-06,ＴＤ興業株式会社,,株式会社,千葉県,君津市,山滝野１６２１番地１,,12,225,2920501,,,,,,,2023-09-06,1,,,,,ティーディーコウギョウ,0
2395,8040001129876,新規,0,2023-09-06,2023-09-06,ＤＷＳ株式会社,,株式会社,千葉県,富里市,七栄５３３番地７２,,12,233,2860221,,,,,,,2023-09-06,1,,,,,ディーダブルューエス,0
2396,8040001129901,新規,0,2023-09-06,2023-09-06,ＳＦ　ＴＲＡＤＩＮＧ株式会社,,株式会社,千葉県,四街道市,大日１６５３番地１,,12,228,2840001,,,,,,,2023-09-06,1,,,,,エスエフトレーディング,0
2397,8040001129975,新規,0,2023-09-06,2023-09-06,株式会社吉田電設,,株式会社,千葉県,香取市,府馬３２９８番地２,,12,236,2890411,,,,,,,2023-09-06,1,,,,,ヨシダデンセツ,0
2403,8040003023227,新規,0,2023-09-06,2023-09-06,合同会社Ｇｏｙａ,,合同会社,千葉県,鎌ケ谷市,くぬぎ山２丁目８番４４－３０２号,,12,224,2730128,,,,,,,2023-09-06,1,,,,,ゴーヤ,0
2404,8040003023235,新規,0,2023-09-06,2023-09-06,ノーザンフォレスト合同会社,,合同会社,千葉県,千葉市美浜区,若葉３丁目１番１８号幕張ベイパーク，クロスレジデンスＳ２－１,,12,106,2610014,,,,,,,2023-09-06,1,,,,,ノーザンフォレスト,0
2405,8040003023251,新規,0,2023-09-06,2023-09-06,合同会社ＦｅｌｉｘＦａｕｒｅ,,合同会社,千葉県,千葉市緑区,高津戸町２番地１５２,,12,105,2670053,,,,,,,2023-09-06,1,,,,,フェリックスフォール,0
2406,8040003023268,新規,0,2023-09-06,2023-09-06,合同会社トラスト４０１,,合同会社,千葉県,船橋市,薬円台５丁目２３番１０－４０８号,,12,204,2740077,,,,,,,2023-09-06,1,,,,,トラストヨンマルイチ,0
2407,8050001053365,新規,0,2023-09-06,2023-09-06,株式会社三立,,株式会社,茨城県,つくば市,天久保４丁目８番地１３号ダイヤハイツ２０３号室,,08,220,3050005,,,,,,,2023-09-06,1,,,,,サンリツ,0
2408,8050001053398,新規,0,2023-09-06,2023-09-06,株式会社とかげや,,株式会社,茨城県,ひたちなか市,大字馬渡１２６０番地,,08,221,3120012,,,,,,,2023-09-06,1,,,,,トカゲヤ,0
2409,8050001053415,新規,0,2023-09-06,2023-09-06,ヒロコハーブス株式会社,,株式会社,茨城県,古河市,大山１２００番地２,,08,204,3060052,,,,,,,2023-09-06,1,,,,,ヒロコハーブス,0
2410,8050001053431,新規,0,2023-09-06,2023-09-06,株式会社ａ‐ｔｏ,,株式会社,茨城県,鹿嶋市,大字下津２２２番地１０,,08,222,3140004,,,,,,,2023-09-06,1,,,,,アート,0
2411,8050003007773,新規,0,2023-09-06,2023-09-06,合同会社ディーワイ,,合同会社,茨城県,小美玉市,堅倉７番地２,,08,236,3190106,,,,,,,2023-09-06,1,,,,,ディーワイ,0
2413,8060001036303,新規,0,2023-09-06,2023-09-06,株式会社ＴＭＴ,,株式会社,栃木県,宇都宮市,下栗町８０８番地４,,09,201,3210923,,,,,,,2023-09-06,1,,,,,ティーエムティー,0
2424,8080101024189,新規,0,2023-09-06,2023-09-06,株式会社叶,,株式会社,静岡県,御殿場市,御殿場３２５番地の２,,22,215,4120028,,,,,,,2023-09-06,1,,,,,カノウ,0
2425,8080101024197,新規,0,2023-09-06,2023-09-06,株式会社ｇｒｅｅｎオアシス,,株式会社,静岡県,駿東郡長泉町,下長窪７３１番地の３,,22,342,4110934,,,,,,,2023-09-06,1,,,,,グリンオアシス,0
2428,8080401026711,新規,0,2023-09-06,2023-09-06,株式会社ＭＩＲＩＺ,,株式会社,静岡県,浜松市中区,佐鳴台３丁目５３番２６号,,22,131,4328021,,,,,,,2023-09-06,1,,,,,ミライズ,0
2430,8080403004863,新規,0,2023-09-06,2023-09-06,ＧＬＯＢＡＬ　ＬＩＮＫ合同会社,,合同会社,静岡県,浜松市中区,高丘東４丁目１７番７号スカイヒルズ開成弐番館４０２,,22,131,4338117,,,,,,,2023-09-06,1,,,,,グローバルリンク,0
2432,8100001036736,新規,0,2023-09-06,2023-09-06,株式会社ｃｏ‐ｃｒｅａｔｉｏｎ　ｉｉｄａ,,株式会社,長野県,飯田市,嶋３１０番地１,,20,205,3992566,,,,,,,2023-09-06,1,,,,,コークリエイションイイダ,0
2434,8110001037816,新規,0,2023-09-06,2023-09-06,株式会社西沢電設,,株式会社,新潟県,長岡市,錦３丁目６番１６号,,15,202,9400835,,,,,,,2023-09-06,1,,,,,ニシザワデンセツ,0
2435,8110001037824,新規,0,2023-09-06,2023-09-06,株式会社ＤＡＩＲＡｓ,,株式会社,新潟県,長岡市,大手通２丁目２‐６,,15,202,9400062,,,,,,,2023-09-06,1,,,,,ダイラス,0
2449,8120005023852,新規,0,2023-09-06,2023-09-06,一般社団法人未来に輝く企業づくり研究会,,その他の設立登記法人,大阪府,大阪市中央区,大手通３丁目１番２号エスリードビル大手通１０Ｆ,,27,128,5400021,,,,,,,2023-09-06,1,,,,,ミライニカガヤクキギョウヅクリケンキュウカイ,0
2451,8120101068132,新規,0,2023-09-06,2023-09-06,株式会社レグルス,,株式会社,大阪府,堺市堺区,百舌鳥夕雲町１丁７３番地（１－１０６号）,,27,141,5900802,,,,,,,2023-09-06,1,,,,,レグルス,0
2452,8120101068140,新規,0,2023-09-06,2023-09-06,株式会社ＤａｎＫ,,株式会社,大阪府,泉南市,信達市場３７番地６７,,27,228,5900504,,,,,,,2023-09-06,1,,,,,ダンク,0
2453,8120101068157,新規,0,2023-09-06,2023-09-06,株式会社時專,,株式会社,大阪府,羽曳野市,高鷲１０丁目８番１８号,,27,222,5830882,,,,,,,2023-09-06,1,,,,,ジダン,0
2454,8120103005406,新規,0,2023-09-06,2023-09-06,合同会社ゆずるは,,合同会社,大阪府,南河内郡河南町,大宝４丁目３２番１号,,27,382,5850005,,,,,,,2023-09-06,1,,,,,ユズルハ,0
2455,8120103005414,新規,0,2023-09-06,2023-09-06,合同会社ＳＡＫＵＭＯ,,合同会社,大阪府,和泉市,山荘町３丁目７番２３号,,27,219,5940021,,,,,,,2023-09-06,1,,,,,サクモ,0
2457,8120901047995,新規,0,2023-09-06,2023-09-06,株式会社Ｃ．Ｂ．Ｆ　ｃｏｒｐ．,,株式会社,大阪府,豊中市,庄内宝町１丁目５番１０－４０６号,,27,203,5610836,,,,,,,2023-09-06,1,,,,,シービーエフコーポレーション,0
2458,8120901048003,新規,0,2023-09-06,2023-09-06,ＳＰＣ０２株式会社,,株式会社,大阪府,豊中市,東豊中町３丁目６番２１号,,27,203,5600003,,,,,,,2023-09-06,1,,,,,エスピーシーゼロツー,0
2459,8120901048011,新規,0,2023-09-06,2023-09-06,株式会社サンライト,,株式会社,大阪府,吹田市,江坂町５丁目１７番６号,,27,205,5640063,,,,,,,2023-09-06,1,,,,,サンライト,0
2464,8122001037332,新規,0,2023-09-06,2023-09-06,株式会社十四,,株式会社,大阪府,東大阪市,小阪１丁目５番１０号シャーメゾンベルフラワー２０２号,,27,227,5770801,,,,,,,2023-09-06,1,,,,,ジュウヨン,0
2465,8122003002656,新規,0,2023-09-06,2023-09-06,合同会社朋,,合同会社,大阪府,四條畷市,清滝中町２７番１３号,,27,229,5750061,,,,,,,2023-09-06,1,,,,,トモ,0
2472,8130001075112,新規,0,2023-09-06,2023-09-06,湃石株式会社,,株式会社,京都府,京都市南区,上鳥羽南唐戸町７番地Ｋビル７０６室,,26,107,6018107,,,,,,,2023-09-06,1,,,,,ハイセキ,0
2475,8140001131442,新規,0,2023-09-06,2023-09-06,ＺＥＲＯＧＲＯＵＰ株式会社,,株式会社,兵庫県,尼崎市,西難波町４丁目６番２６号,,28,202,6600893,,,,,,,2023-09-06,1,,,,,ゼログループ,0
2476,8140001131459,新規,0,2023-09-06,2023-09-06,株式会社フツテック,,株式会社,兵庫県,神戸市東灘区,本山北町５丁目１０－２８－１,,28,101,6580003,,,,,,,2023-09-06,1,,,,,フツテック,0
2477,8140001131533,新規,0,2023-09-06,2023-09-06,コムニカチヲ株式会社,,株式会社,兵庫県,宝塚市,宝梅２丁目６番８９宝梅アーバンライフ６１６号,,28,214,6650013,,,,,,,2023-09-06,1,,,,,コムニカチヲ,0
2478,8140003019495,新規,0,2023-09-06,2023-09-06,合同会社ｉｐｏｍｏｅａ　ｎｉｌ,,合同会社,兵庫県,尼崎市,戸ノ内町２丁目１０番１４－２号,,28,202,6610961,,,,,,,2023-09-06,1,,,,,イポメアニル,0
2482,8160003002978,新規,0,2023-09-06,2023-09-06,合同会社ふとんステーション,,合同会社,滋賀県,彦根市,平田町１１６番地１３,,25,202,5220041,,,,,,,2023-09-06,1,,,,,フトンステーション,0
2487,8180001157839,新規,0,2023-09-06,2023-09-06,あいおらいと株式会社,,株式会社,愛知県,日進市,米野木台３丁目１２１０番地,,23,230,4700118,,,,,,,2023-09-06,1,,,,,アイオライト,0
2488,8180001157896,新規,0,2023-09-06,2023-09-06,Ｓｋｙ　Ｓｉｒｉｕｓ株式会社,,株式会社,愛知県,名古屋市中村区,黄金通１丁目７番地,,23,105,4530804,,,,,,,2023-09-06,1,,,,,スカイシリウス,0
2489,8180001157905,新規,0,2023-09-06,2023-09-06,Ｙ・ＳＰＩＲＩＴＳ株式会社,,株式会社,愛知県,大府市,桃山町１丁目１３２番地の１,,23,223,4740026,,,,,,,2023-09-06,1,,,,,ワイスピリッツ,0
2490,8180001157913,新規,0,2023-09-06,2023-09-06,瑞生株式会社,,株式会社,愛知県,名古屋市昭和区,福江３丁目９番２１号,,23,107,4660059,,,,,,,2023-09-06,1,,,,,ミズショウ,0
2491,8180001157946,新規,0,2023-09-06,2023-09-06,ユキ商事株式会社,,株式会社,愛知県,名古屋市中村区,名駅３丁目４番１０号アルティメイト名駅１ｓｔ２階,,23,105,4500002,,,,,,,2023-09-06,1,,,,,ユキショウジ,0
2492,8180001157962,新規,0,2023-09-06,2023-09-06,株式会社ＫＲ,,株式会社,愛知県,西春日井郡豊山町,大字豊場字諏訪１９８番地,,23,342,4800202,,,,,,,2023-09-06,1,,,,,ケーアール,0
2495,8180003025696,新規,0,2023-09-06,2023-09-06,リサーチパレット合同会社,,合同会社,愛知県,名古屋市中村区,名駅３丁目４―１０アルティメイト名駅１ｓｔ２階,,23,105,4500002,,,,,,,2023-09-06,1,,,,,リサーチパレット,0
2496,8180005020340,新規,0,2023-09-06,2023-09-06,一般社団法人はんだのたね,,その他の設立登記法人,愛知県,半田市,広小路町１５５番地の３,,23,205,4750857,,,,,,,2023-09-06,1,,,,,ハンダノタネ,0
2497,8180301037773,新規,0,2023-09-06,2023-09-06,株式会社タカオート,,株式会社,愛知県,碧南市,雨池町３丁目３４番地４,,23,209,4470813,,,,,,,2023-09-06,1,,,,,タカオート,0
2498,8190001030697,新規,0,2023-09-06,2023-09-06,株式会社ＣＡＬＭ,,株式会社,三重県,鈴鹿市,南玉垣町５５２０番地の１９,,24,207,5130816,,,,,,,2023-09-06,1,,,,,カルム,0
2499,8190001030706,新規,0,2023-09-06,2023-09-06,株式会社ＳＳ,,株式会社,三重県,四日市市,川島新町５４番地,,24,202,5120935,,,,,,,2023-09-06,1,,,,,エスエス,0
2500,8190001030714,新規,0,2023-09-06,2023-09-06,清水工業株式会社,,株式会社,三重県,四日市市,鹿間町１２７番地,,24,202,5121113,,,,,,,2023-09-06,1,,,,,シミズコウギョウ,0
2501,8190003004427,新規,0,2023-09-06,2023-09-06,倉田計装合同会社,,合同会社,三重県,四日市市,楠町北五味塚１７００番地９,,24,202,5100103,,,,,,,2023-09-06,1,,,,,クラタケイソウ,0
2502,8190003004435,新規,0,2023-09-06,2023-09-06,合同会社畑から食卓へ,,合同会社,三重県,四日市市,羽津町１１－１７,,24,202,5100017,,,,,,,2023-09-06,1,,,,,ハタケカラショクタクヘ,0
2511,8230001019991,新規,0,2023-09-06,2023-09-06,金澤国際貿易株式会社,,株式会社,富山県,富山市,古志町１丁目４９番地,,16,201,9318417,,,,,,,2023-09-06,1,,,,,カナザワコクサイボウエキ,0
2512,8230001020000,新規,0,2023-09-06,2023-09-06,株式会社ＦＩＫＡ,,株式会社,富山県,富山市,黒瀬北町２丁目９－２２フォーラムダイオービル１階,,16,201,9398216,,,,,,,2023-09-06,1,,,,,フィーカ,0
2514,8240001062066,新規,0,2023-09-06,2023-09-06,日プレマシナリー株式会社,,株式会社,広島県,福山市,箕沖町８６番地,,34,207,7210956,,,,,,,2023-09-06,1,,,,,ニップレマシナリー,0
2515,8240001062074,新規,0,2023-09-06,2023-09-06,株式会社壱,,株式会社,広島県,東広島市,八本松飯田８丁目８番３４－４１号,,34,212,7390146,,,,,,,2023-09-06,1,,,,,イチ,0
2518,8260003004411,新規,0,2023-09-06,2023-09-06,合同会社ＯＮＥ,,合同会社,岡山県,岡山市東区,広谷６４９番地１２,,33,103,7048182,,,,,,,2023-09-06,1,,,,,ワン,0
2529,8290001102874,新規,0,2023-09-06,2023-09-06,株式会社ラフネス,,株式会社,福岡県,春日市,岡本１丁目５番－３０６号室,,40,218,8160861,,,,,,,2023-09-06,1,,,,,ラフネス,0
2530,8290001102932,新規,0,2023-09-06,2023-09-06,エスクエア株式会社,,株式会社,福岡県,糸島市,高田４丁目２４番１３号,,40,230,8191102,,,,,,,2023-09-06,1,,,,,エスクエア,0
2531,8290001102940,新規,0,2023-09-06,2023-09-06,朝倉丸善倉庫株式会社,,株式会社,福岡県,朝倉市,堤８２４番地１,,40,228,8380062,,,,,,,2023-09-06,1,,,,,アサクラマルゼンソウコ,0
2534,8290003014317,新規,0,2023-09-06,2023-09-06,合同会社Ｌｉｎｏ,,合同会社,福岡県,福津市,中央６丁目２１番２４号,,40,224,8113217,,,,,,,2023-09-06,1,,,,,リノ,0
2537,8300001013442,新規,0,2023-09-06,2023-09-06,株式会社ファイブパーセント,,株式会社,佐賀県,佐賀市,大和町大字尼寺２００８番地３,,41,201,8400201,,,,,,,2023-09-06,1,,,,,ファイブパーセント,0
2539,8310001018580,新規,0,2023-09-06,2023-09-06,株式会社Ｔ＆Ｃ　Ｌａｂｏ,,株式会社,長崎県,大村市,竹松本町８４０番地９,,42,205,8560805,,,,,,,2023-09-06,1,,,,,ティーアンドシーラボ,0
2546,8340005009648,新規,0,2023-09-06,2023-09-06,一般社団法人南種子結農社,,その他の設立登記法人,鹿児島県,熊毛郡南種子町,中之上２７９３番地１,,46,502,8913701,,,,,,,2023-09-06,1,,,,,ミナミタネユイノウシャ,0
2551,8350003004435,新規,0,2023-09-06,2023-09-06,ＲＥＰＵＢＬＩＣ　ＨＯＬＤＩＮＧＳ合同会社,,合同会社,宮崎県,宮崎市,松橋１丁目２番１６号１００２,,45,201,8800013,,,,,,,2023-09-06,1,,,,,リパブリックホールディングス,0
2552,8360001032494,新規,0,2023-09-06,2023-09-06,株式会社クレージュ,,株式会社,沖縄県,那覇市,樋川２丁目１０－１４ル・サンク那覇開南７０６,,47,201,9000022,,,,,,,2023-09-06,1,,,,,クレージュ,0
2553,8360001032503,新規,0,2023-09-06,2023-09-06,株式会社エフティーエス企画,,株式会社,沖縄県,那覇市,前島２丁目２番７号上原ビル３Ｆ,,47,201,9000016,,,,,,,2023-09-06,1,,,,,エフティーエスキカク,0
2555,8360003013245,新規,0,2023-09-06,2023-09-06,合同会社ＤＥＦＩ,,合同会社,沖縄県,豊見城市,字豊崎１－１１６３コーポハイビスカス２０３,,47,212,9010225,,,,,,,2023-09-06,1,,,,,デフィ,0
2556,8360003013261,新規,0,2023-09-06,2023-09-06,合同会社Ｃａｎｖａｓ,,合同会社,沖縄県,沖縄市,安慶田５丁目１番２０号２階,,47,211,9040012,,,,,,,2023-09-06,1,,,,,キャンバス,0
2558,8370001050363,新規,0,2023-09-06,2023-09-06,株式会社丸勝重機工業,,株式会社,宮城県,富谷市,成田４丁目１９番地４メゾン・ド・モカ成田Ｂ１０５,,04,216,9813341,,,,,,,2023-09-06,1,,,,,マルカツジュウキコウギョウ,0
2563,8380003005562,新規,0,2023-09-06,2023-09-06,合同会社忠,,合同会社,福島県,いわき市,常磐湯本町下浅貝９４番地の２,,07,204,9728321,,,,,,,2023-09-06,1,,,,,マゴコロ,0
2568,8410005006539,新規,0,2023-09-06,2023-09-06,税理士法人カペラ,,その他の設立登記法人,秋田県,秋田市,保戸野中町１番３９号,,05,201,0100905,,,,,,,2023-09-06,1,,,,,カペラ,0
2571,8420001018388,新規,0,2023-09-06,2023-09-06,株式会社ｂ．,,株式会社,青森県,八戸市,類家２丁目５－５－１,,02,203,0310001,,,,,,,2023-09-06,1,,,,,ビードット,0
2575,8430001089916,新規,0,2023-09-06,2023-09-06,株式会社インファニ,,株式会社,北海道,札幌市北区,新琴似三条１３丁目１番３号,,01,102,0010903,,,,,,,2023-09-06,1,,,,,インファニ,0
2576,8430001089932,新規,0,2023-09-06,2023-09-06,株式会社人と木ｓｏｌｖｅ,,株式会社,北海道,札幌市厚別区,大谷地西５丁目１番１０－１０１号,,01,108,0040042,,,,,,,2023-09-06,1,,,,,ヒトトキソルブ,0
2581,8450001014087,新規,0,2023-09-06,2023-09-06,株式会社ＴＲＹＦＥ,,株式会社,北海道,苫前郡羽幌町,幸町３２番地の１,,01,484,0784121,,,,,,,2023-09-06,1,,,,,トライフ,0
2585,8460303000800,新規,0,2023-09-06,2023-09-06,合同会社本田菓子舗,,合同会社,北海道,網走市,北五条西１丁目１番地の５,,01,211,0930075,,,,,,,2023-09-06,1,,,,,ホンダカシホ,0
2591,8490003001815,新規,0,2023-09-06,2023-09-06,合同会社るぽ,,合同会社,高知県,高知市,春野町平和４８１番地,,39,201,7810312,,,,,,,2023-09-06,1,,,,,ルポ,0
2599,8700150119826,新規,0,2023-09-06,2023-09-06,Ｈａｉ　Ｎａｎ　Ｗｅｉ　Ｙｉｎ　Ｄｉａｎ　Ｚｉ　Ｋｅ　Ｊｉ　Ｙｏｕ　Ｘｉａｎ　Ｇｏｎｇ　Ｓｉ,,外国会社等,,,,,,,,ｈａｉ　ｎａｎ　ｓｈｅｎｇ，ｑｉｏｎｇ　ｈａｉ　ｓｈｉ，ｊｉａ　Ｊｉ　ｚｈｅｎ　ｙｉｎ　ｈａｉ　ｌｕ（ｚｈｏｎｇ　ｓｈｉ．ｗａｎ　ｑｕａｎ　ｗａｎ）１ｈａｏ－１９０４,,,,,,2023-09-06,1,,,,,カイナンユイインデンシカギユウゲンコウシ,0
2600,8700150119834,新規,0,2023-09-06,2023-09-06,ＳＨＥＮＺＨＥＮ　ＣＯＮＧＪＩＡＮＤＩＡＮＺＩＳＨＡＮＧＷＵ　ＹＯＵＸＩＡＮＧＯＮＧＳＩ,,外国会社等,,,,,,,,ＳＨＥＮＺＨＥＮＳＨＩ　ＮＡＮＳＨＡＮＱＵ　ＮＡＮＳＨＡＮＪＩＥＤＡＯＬＩＷＡＮＳＨＥＱＵＹＡＮＨＵＬＵ３６ＨＡＯＢＩＲＯＮＧＷＡＮＥＤＯＮＧ６０５　５１８０００　ＣＮ,,,,,,2023-09-06,1,,,,,シンセンツォンジェンデンシショウムヨウシェンゴンスー,0
2601,8700150119842,新規,0,2023-09-06,2023-09-06,ＤｏｎｇＧｕａｎ　ＫａｉＭｉｎｇ　Ｅｌｅｃｔｒｏｎｉｃ　Ｃｏｍｍｅｒｃｅ　Ｃｏ．，Ｌｔｄ．,,外国会社等,,,,,,,,ｓｏｎｇｓｈａｎｈｕｙｕａｎｑｕ　ｇｏｎｇｙｅｂｅｉｓｉｌｕ　５ｈａｏ　１ｄｏｎｇ　２２０ｓｈｉ　ｄｏｎｇｇｕａｎｓｈｉ　ｇｕａｎｇｄｏｎｇｓｈｅｎｇ　５２３８０８　ＣＮ,,,,,,2023-09-06,1,,,,,トンガンカイミンイレクトゥロニックコマースカンパニーリミテッド,0
2602,8700150119850,新規,0,2023-09-06,2023-09-06,ｄｏｎｇｇｕａｎｓｈｉｓｉｂｏａｓｉｔｉｙｕｙｏｎｇｐｉｎｋｅｊｉｙｏｕｘｉａｎｇｏｎｇｓｉ,,外国会社等,,,,,,,,ＨｕｍｅｎｚｈｅｎＣｈｉｇａｎｇｆｕｍａｙｉｌｕ　Ｄｏｎｇｇｕａｎ　Ｇｕａｎｇｄｏｎｇ　５２３９２１　ＣＮ,,,,,,2023-09-06,1,,,,,ドンワンシスーボーアースーティーユィヨンピンカージヨウシェンゴンスー,0
2603,8700150119859,新規,0,2023-09-06,2023-09-06,ｈｅｊｉｎｓｈｉ　ｓｈａｎｇｌｉｎｇｄｉａｎｚｉｓｈａｎｇｗｕ　ｙｏｕｘｉａｎｇｏｎｇｓｉ,,外国会社等,,,,,,,,ｄａｏｎａｎｌｕｘｉｎｙｕｅｇｏｎｇｙｕ１０２ｈａｏ　ｙｕｎｃｈｅｎｇｓｈｉ　ｈｅｊｉｎｓｈｉ　ｓｈａｎｘｉｓｈｅｎｇ,,,,,,2023-09-06,1,,,,,カシンシサンリンデンシショウムユウゲンコウシ,0
2604,8700150119867,新規,0,2023-09-06,2023-09-06,ｓｈｅｎｚｈｅｎｓｈｉｌｉｎｇｘｉａｎｇａｎｆａｎｇｊｉｓｈｕｙｏｕｘｉａｎｇｏｎｇｓｉ,,外国会社等,,,,,,,,ｌｏｎｇｈｕａｑｕｄａｌａｎｇｊｉｅｄａｏｇａｏｆｅｎｇｓｈｅｑｕｚｈｏｎｘｉｎｇｘｉａｏｑｕ２７ｈａｏ９１０　ｓｈｅｎｚｈｅｎｓｈｉ　ｇｕａｎｇｄｏｎｇｓｈｅｎｇ,,,,,,2023-09-06,1,,,,,シンセンシレイシヨウセキユリテイテクノロジーユウゲンコウシ,0
2609,9010001237796,新規,0,2023-09-06,2023-09-06,株式会社パラベラム,,株式会社,東京都,千代田区,丸の内２丁目３番２号郵船ビルディング１階,,13,101,1000005,,,,,,,2023-09-06,1,,,,,パラベラム,0
2610,9010001238150,新規,0,2023-09-06,2023-09-06,ＣＢＩ　ＨＯＬＤＩＮＧＳ株式会社,,株式会社,東京都,千代田区,神田小川町２丁目１０番地,,13,101,1010052,,,,,,,2023-09-06,1,,,,,シービーアイホールディングス,0
2611,9010001238159,新規,0,2023-09-06,2023-09-06,ＣＲＯＳＳＣＯＯＰ株式会社,,株式会社,東京都,中央区,日本橋３丁目９番１号,,13,102,1030027,,,,,,,2023-09-06,1,,,,,クロスコープ,0
2612,9010001238175,新規,0,2023-09-06,2023-09-06,Ａｌｌ　Ｂｒｉｄｇｅ株式会社,,株式会社,東京都,中央区,豊海町１１番６号第２豊海３１４号,,13,102,1040055,,,,,,,2023-09-06,1,,,,,オールブリッジ,0
2613,9010001238183,新規,0,2023-09-06,2023-09-06,株式会社ＩＮＮＯＹＡＴ　Ｃ＆Ｓ,,株式会社,東京都,中央区,京橋３丁目１－１東京スクエアガーデン１４Ｆ（ＷｅＷｏｒｋ）,,13,102,1040031,,,,,,,2023-09-06,1,,,,,イノヤットシーアンドエス,0
2614,9010001238200,新規,0,2023-09-06,2023-09-06,株式会社Ｂａｌｌｅｌｉｔｅ,,株式会社,東京都,千代田区,麹町５丁目７番地１,,13,101,1020083,,,,,,,2023-09-06,1,,,,,バレリット,0
2615,9010001238209,新規,0,2023-09-06,2023-09-06,株式会社Ｂ‐ｂｅｔ,,株式会社,東京都,中央区,月島３丁目１０番１０－９０２号,,13,102,1040052,,,,,,,2023-09-06,1,,,,,ビーベット,0
2616,9010001238225,新規,0,2023-09-06,2023-09-06,株式会社ＤＲＥＡＭＳ,,株式会社,東京都,中央区,銀座６丁目１０番１号ＧＩＮＺＡＳＩＸ１３Ｆ,,13,102,1040061,,,,,,,2023-09-06,1,,,,,ドリームス,0
2617,9010001238258,新規,0,2023-09-06,2023-09-06,株式会社ＨＩＴＯＴＥＭＡ,,株式会社,東京都,中央区,銀座１丁目１２番４号Ｎ＆ＥＢＬＤ．６階,,13,102,1040061,,,,,,,2023-09-06,1,,,,,ヒトテマ,0
2618,9010001238266,新規,0,2023-09-06,2023-09-06,株式会社フィールドトリップ,,株式会社,東京都,中央区,日本橋本石町３丁目３－５三友常盤橋ビル,,13,102,1030021,,,,,,,2023-09-06,1,,,,,フィールドトリップ,0
2619,9010001238274,新規,0,2023-09-06,2023-09-06,株式会社ｅｑｕａｌ,,株式会社,東京都,中央区,銀座１丁目４番３号銀座ＳＦビル６Ｆ,,13,102,1040061,,,,,,,2023-09-06,1,,,,,イコール,0
2621,9010003041552,新規,0,2023-09-06,2023-09-06,国成合同会社,,合同会社,東京都,中央区,日本橋富沢町５番５号エクセルシオール日本橋３０３,,13,102,1030006,,,,,,,2023-09-06,1,,,,,コクセイ,0
2622,9010003041602,新規,0,2023-09-06,2023-09-06,合同会社ＲＩワークス,,合同会社,東京都,中央区,晴海２丁目３番２－４０１８号,,13,102,1040053,,,,,,,2023-09-06,1,,,,,アールアイワークス,0
2629,9010401176768,新規,0,2023-09-06,2023-09-06,株式会社バラエナテック,,株式会社,東京都,港区,南青山２丁目２番１５号,,13,103,1070062,,,,,,,2023-09-06,1,,,,,バラエナテック,0
2630,9010401176909,新規,0,2023-09-06,2023-09-06,株式会社ＥＸ,,株式会社,東京都,港区,虎ノ門３丁目２０番５号,,13,103,1050001,,,,,,,2023-09-06,1,,,,,イーエックス,0
2631,9010401176941,新規,0,2023-09-06,2023-09-06,株式会社ムーブ,,株式会社,東京都,港区,虎ノ門５丁目１１－１２－４Ｆ,,13,103,1050001,,,,,,,2023-09-06,1,,,,,ムーブ,0
2632,9010401176974,新規,0,2023-09-06,2023-09-06,ＳＢＩ　ＡＬＡファーマ株式会社,,株式会社,東京都,港区,六本木１丁目６番１号,,13,103,1060032,,,,,,,2023-09-06,1,,,,,エスビーアイアラファーマ,0
2633,9010401176990,新規,0,2023-09-06,2023-09-06,アーネストムーヴ株式会社,,株式会社,東京都,港区,南青山２丁目９番５号,,13,103,1070062,,,,,,,2023-09-06,1,,,,,アーネストムーヴ,0
2634,9010501050955,新規,0,2023-09-06,2023-09-06,若羽臣株式会社,,株式会社,東京都,台東区,上野１丁目２番９号,,13,106,1100005,,,,,,,2023-09-06,1,,,,,ジャクウシン,0
2635,9010501050996,新規,0,2023-09-06,2023-09-06,ノックアウトマネジメント株式会社,,株式会社,東京都,台東区,台東４丁目３０番１０号,,13,106,1100016,,,,,,,2023-09-06,1,,,,,ノックアウトマネジメント,0
2636,9010505003447,新規,0,2023-09-06,2023-09-06,一般社団法人固体バイオ燃料標準化協議会,,その他の設立登記法人,東京都,台東区,台東３丁目１２番５号,,13,106,1100016,,,,,,,2023-09-06,1,,,,,コタイバイオネンリョウヒョウジュンカキョウギカイ,0
2637,9010601063733,新規,0,2023-09-06,2023-09-06,ＲｉＣｏｎｓｕｌｔｉｎｇ株式会社,,株式会社,東京都,江東区,豊洲５丁目１番１３－３７２３号,,13,108,1350061,,,,,,,2023-09-06,1,,,,,リコンサルティング,0
2643,9010701044807,新規,0,2023-09-06,2023-09-06,ドーラ株式会社,,株式会社,東京都,品川区,大井１丁目１１番１号,,13,109,1400014,,,,,,,2023-09-06,1,,,,,ドーラ,0
2644,9010701044815,新規,0,2023-09-06,2023-09-06,株式会社Ｖｉｅｗ　Ａｓｓｅｔ,,株式会社,東京都,品川区,上大崎２丁目２４番１１－５０５号,,13,109,1410021,,,,,,,2023-09-06,1,,,,,ビューアセット,0
2645,9010703006854,新規,0,2023-09-06,2023-09-06,Ｃｉｒｃｕｌａｒ　Ｅｃｏｎｏｍｙ　Ｔｈｉｎｋｉｎｇ合同会社,,合同会社,東京都,品川区,東五反田５丁目２２番３７号,,13,109,1410022,,,,,,,2023-09-06,1,,,,,サーキュラーエコノミーシンキング,0
2648,9010803004667,新規,0,2023-09-06,2023-09-06,ミロナリオ合同会社,,合同会社,東京都,大田区,池上６丁目１番１号大西ビル５０５号,,13,111,1460082,,,,,,,2023-09-06,1,,,,,ミロナリオ,0
2649,9010805003056,新規,0,2023-09-06,2023-09-06,医療法人社団裕誠会,,その他の設立登記法人,東京都,大田区,蒲田５丁目２８番７号,,13,111,1440052,,,,,,,2023-09-06,1,,,,,ユウセイカイ,0
2652,9010903008428,新規,0,2023-09-06,2023-09-06,合同会社ウェアネット,,合同会社,東京都,世田谷区,船橋７丁目７－１,,13,112,1560055,,,,,,,2023-09-06,1,,,,,ウェアネット,0
2657,9011001156755,新規,0,2023-09-06,2023-09-06,Ｔｏｎｉｅｚ株式会社,,株式会社,東京都,渋谷区,桜丘町２３番１７号,,13,113,1500031,,,,,,,2023-09-06,1,,,,,トニーズ,0
2658,9011001156763,新規,0,2023-09-06,2023-09-06,株式会社ＨＩＧＨＷＡＹ　ＳＴＡＲ,,株式会社,東京都,渋谷区,広尾１丁目３番１４号,,13,113,1500012,,,,,,,2023-09-06,1,,,,,ハイウェイスター,0
2665,9011101104218,新規,0,2023-09-06,2023-09-06,株式会社ＤＬＮ,,株式会社,東京都,新宿区,西新宿３丁目３番１３号西新宿水間ビル２Ｆ,,13,104,1600023,,,,,,,2023-09-06,1,,,,,ディーエルエヌ,0
2666,9011101104234,新規,0,2023-09-06,2023-09-06,Ｌｏｖｉｎｇ　Ｐａｗｓ株式会社,,株式会社,東京都,新宿区,新宿２丁目１２番１３号新宿アントレサロンビル２Ｆ,,13,104,1600022,,,,,,,2023-09-06,1,,,,,ラビングパウズ,0
2667,9011101104242,新規,0,2023-09-06,2023-09-06,株式会社Ｃｙｂｅｒ　Ｔｅｒａｓ,,株式会社,東京都,新宿区,新宿１丁目３６番２号新宿第七葉山ビル３Ｆ,,13,104,1600022,,,,,,,2023-09-06,1,,,,,サイバーテラス,0
2671,9011301028976,新規,0,2023-09-06,2023-09-06,株式会社東凱森商事,,株式会社,東京都,杉並区,井草２丁目２７番８号レジデンス森田３０４,,13,115,1670021,,,,,,,2023-09-06,1,,,,,トウガイモリショウジ,0
2674,9011601027100,新規,0,2023-09-06,2023-09-06,株式会社Ｎ‐ｗｏｒｋｓ,,株式会社,東京都,練馬区,豊玉北４丁目５番１６－２０４号,,13,120,1760012,,,,,,,2023-09-06,1,,,,,エヌワークス,0
2675,9011701026571,新規,0,2023-09-06,2023-09-06,株式会社まつり倶楽部,,株式会社,東京都,江戸川区,鹿骨５丁目２６番８号,,13,123,1330073,,,,,,,2023-09-06,1,,,,,マツリクラブ,0
2677,9011703003577,新規,0,2023-09-06,2023-09-06,合同会社ＡＣＳ,,合同会社,東京都,江戸川区,北小岩８丁目１４番２号,,13,123,1330051,,,,,,,2023-09-06,1,,,,,エーシーエス,0
2679,9011801042980,新規,0,2023-09-06,2023-09-06,株式会社越川ホールディングス,,株式会社,東京都,足立区,南花畑４丁目１３－３,,13,121,1210062,,,,,,,2023-09-06,1,,,,,コシカワホールディングス,0
2680,9011801042989,新規,0,2023-09-06,2023-09-06,株式会社ユニ・シード,,株式会社,東京都,足立区,花畑４丁目３９番２１号,,13,121,1210061,,,,,,,2023-09-06,1,,,,,ユニシード,0
2681,9011801042997,新規,0,2023-09-06,2023-09-06,株式会社ＹＯＵＯＮＥ,,株式会社,東京都,葛飾区,堀切１丁目２８番９号,,13,122,1240006,,,,,,,2023-09-06,1,,,,,ユーワン,0
2682,9012303001871,新規,0,2023-09-06,2023-09-06,サルム合同会社,,合同会社,東京都,町田市,成瀬５丁目２０－４０－１０１,,13,209,1940044,,,,,,,2023-09-06,1,,,,,サルム,0
2683,9012405004896,新規,0,2023-09-06,2023-09-06,医療法人社団ＣＤＣ,,その他の設立登記法人,東京都,武蔵野市,中町２丁目６番２号ルミエール武蔵野１０１,,13,203,1800006,,,,,,,2023-09-06,1,,,,,シーディーシー,0
2687,9012801022618,新規,0,2023-09-06,2023-09-06,Ｒｕｉｃｈｉｐｓ　Ｊａｐａｎ株式会社,,株式会社,東京都,国分寺市,本町４丁目３番１０号プラウド国分寺本町１０４号室,,13,214,1850012,,,,,,,2023-09-06,1,,,,,ルイチップスジャパン,0
2689,9013301051297,新規,0,2023-09-06,2023-09-06,株式会社おしどりエステート,,株式会社,東京都,豊島区,高田３丁目５番１３号シャトー瑠璃管理室,,13,116,1710033,,,,,,,2023-09-06,1,,,,,オシドリエステート,0
2695,9020001153308,新規,0,2023-09-06,2023-09-06,ＮＥＰテクノロジー株式会社,,株式会社,神奈川県,横浜市港北区,大倉山７丁目３３番１５号,,14,109,2220037,,,,,,,2023-09-06,1,,,,,エヌイーピーテクノロジー,0
2696,9020001153316,新規,0,2023-09-06,2023-09-06,株式会社ＬＩＮＥＳＳ,,株式会社,神奈川県,川崎市高津区,末長３丁目２６番２８－１号,,14,134,2130013,,,,,,,2023-09-06,1,,,,,リネス,0
2697,9020001153324,新規,0,2023-09-06,2023-09-06,株式会社ＶｉｎＳｅｎｓｅ,,株式会社,神奈川県,横浜市西区,岡野１丁目１１番１３号シーテラス横浜３階,,14,103,2200073,,,,,,,2023-09-06,1,,,,,ヴィンセンス,0
2698,9020001153332,新規,0,2023-09-06,2023-09-06,株式会社ボンテック,,株式会社,神奈川県,横浜市中区,山元町４丁目１６７番地,,14,104,2310851,,,,,,,2023-09-06,1,,,,,ボンテック,0
2699,9020001153349,新規,0,2023-09-06,2023-09-06,株式会社ＴＹメタル,,株式会社,神奈川県,川崎市中原区,木月住吉町７番１号,,14,133,2110021,,,,,,,2023-09-06,1,,,,,テイワイメタル,0
2700,9020001153357,新規,0,2023-09-06,2023-09-06,株式会社ＭＹＢ,,株式会社,神奈川県,川崎市宮前区,鷺沼１丁目６番地６シャトー植村６０１,,14,136,2160004,,,,,,,2023-09-06,1,,,,,ミヤビ,0
2701,9020001153373,新規,0,2023-09-06,2023-09-06,株式会社ＥＩＧＨＴ,,株式会社,神奈川県,横浜市港北区,菊名６丁目１９番１５号齋藤荘２－１０５,,14,109,2220011,,,,,,,2023-09-06,1,,,,,エイト,0
2702,9020001153381,新規,0,2023-09-06,2023-09-06,株式会社ＳＵＮＤＡＹ　ＢＡＣＫ９,,株式会社,神奈川県,横浜市都筑区,桜並木１２－４０－１Ｆ,,14,118,2240046,,,,,,,2023-09-06,1,,,,,サンデイバックナイン,0
2703,9020001153398,新規,0,2023-09-06,2023-09-06,碧海諸音株式会社,,株式会社,神奈川県,横浜市西区,浅間町１丁目４番３号ウィザードビル４０２,,14,103,2200072,,,,,,,2023-09-06,1,,,,,アミュリオン,0
2707,9020003024556,新規,0,2023-09-06,2023-09-06,合同会社はっきんぐパパ,,合同会社,神奈川県,川崎市川崎区,中島３丁目９番１１号,,14,131,2100806,,,,,,,2023-09-06,1,,,,,ハッキングパパ,0
2721,9030001155600,新規,0,2023-09-06,2023-09-06,株式会社ｆｕｎｎｙ,,株式会社,埼玉県,深谷市,武蔵野２４２９番地５,,11,218,3691241,,,,,,,2023-09-06,1,,,,,ファニー,0
2722,9030001155732,新規,0,2023-09-06,2023-09-06,株式会社住幸ファミリー,,株式会社,埼玉県,蓮田市,大字黒浜４８８６番地５,,11,238,3490101,,,,,,,2023-09-06,1,,,,,ジュウコウファミリー,0
2723,9030001155740,新規,0,2023-09-06,2023-09-06,株式会社ＫＥＮＳＨＯ,,株式会社,埼玉県,草加市,稲荷５丁目３５番３９号,,11,221,3400003,,,,,,,2023-09-06,1,,,,,ケンショウ,0
2728,9040001129891,新規,0,2023-09-06,2023-09-06,株式会社ＷＥＬＬ‐ＦＩＴ,,株式会社,千葉県,八千代市,八千代台西１丁目１－６石井ビル３階,,12,221,2760034,,,,,,,2023-09-06,1,,,,,ウエルフィット,0
2729,9040001129909,新規,0,2023-09-06,2023-09-06,新垣興業株式会社,,株式会社,千葉県,千葉市若葉区,若松町４２５番地４９,,12,104,2640021,,,,,,,2023-09-06,1,,,,,アラガキコウギョウ,0
2730,9040001129941,新規,0,2023-09-06,2023-09-06,株式会社ムスビズ,,株式会社,千葉県,千葉市美浜区,稲毛海岸２丁目１０番２号,,12,106,2610005,,,,,,,2023-09-06,1,,,,,ムスビズ,0
2735,9040003023234,新規,0,2023-09-06,2023-09-06,ワイズデータエクイティ合同会社,,合同会社,千葉県,柏市,十余二３７０番地８２中央２１２街区２２,,12,217,2770872,,,,,,,2023-09-06,1,,,,,ワイズデータエクイティ,0
2736,9040003023259,新規,0,2023-09-06,2023-09-06,合同会社みのり,,合同会社,千葉県,市川市,国府台６丁目９番８号,,12,203,2720827,,,,,,,2023-09-06,1,,,,,ミノリ,0
2737,9050001053389,新規,0,2023-09-06,2023-09-06,株式会社菅の,,株式会社,茨城県,稲敷市,高田８４番地５,,08,229,3000511,,,,,,,2023-09-06,1,,,,,カンノ,0
2739,9060001036319,新規,0,2023-09-06,2023-09-06,株式会社インター商事,,株式会社,栃木県,栃木市,大森町７４番地４サンハイツケヅカＥ－２０２,,09,203,3280133,,,,,,,2023-09-06,1,,,,,インターショウジ,0
2746,9080101024196,新規,0,2023-09-06,2023-09-06,粋然株式会社,,株式会社,静岡県,沼津市,新宿町１５番地の１,,22,203,4100048,,,,,,,2023-09-06,1,,,,,スイゼン,0
2758,9110003005150,新規,0,2023-09-06,2023-09-06,合同会社ＣＬＡＮ,,合同会社,新潟県,南蒲原郡田上町,大字湯川１９５９番地２,,15,361,9591501,,,,,,,2023-09-06,1,,,,,クラン,0
2764,9120003024777,新規,0,2023-09-06,2023-09-06,合同会社森興業,,合同会社,大阪府,大阪市天王寺区,上本町３丁目３‐１４,,27,109,5430001,,,,,,,2023-09-06,1,,,,,モリコウギョウ,0
2765,9120003024827,新規,0,2023-09-06,2023-09-06,合同会社リーミー,,合同会社,大阪府,大阪市西区,江之子島２丁目１番３７－２１０６号,,27,106,5500006,,,,,,,2023-09-06,1,,,,,リーミー,0
2767,9120005023851,新規,0,2023-09-06,2023-09-06,社会保険労務士法人ココフル,,その他の設立登記法人,大阪府,大阪市中央区,大手通３丁目１番２号エスリードビル大手通１０Ｆ,,27,128,5400021,,,,,,,2023-09-06,1,,,,,ココフル,0
2770,9120101068148,新規,0,2023-09-06,2023-09-06,株式会社フライハイト,,株式会社,大阪府,大阪狭山市,池尻北２丁目８番７号,,27,231,5890009,,,,,,,2023-09-06,1,,,,,フライハイト,0
2771,9120101068156,新規,0,2023-09-06,2023-09-06,新野ＥＮＧ株式会社,,株式会社,大阪府,堺市中区,八田寺町２９１番地１４３,,27,142,5998267,,,,,,,2023-09-06,1,,,,,ニイノイーエヌジー,0
2772,9120101068164,新規,0,2023-09-06,2023-09-06,株式会社ＪＪ,,株式会社,大阪府,堺市堺区,今池町６丁５番３３－１０５号,,27,141,5900018,,,,,,,2023-09-06,1,,,,,ジェイジェイ,0
2775,9120103005405,新規,0,2023-09-06,2023-09-06,スタジオホクレア合同会社,,合同会社,大阪府,泉佐野市,羽倉崎上町１丁目４番２０号,,27,213,5980037,,,,,,,2023-09-06,1,,,,,スタジオホクレア,0
2777,9120901048027,新規,0,2023-09-06,2023-09-06,株式会社ＭＩＬＡＤＡ,,株式会社,大阪府,茨木市,耳原２丁目１番５号,,27,211,5670006,,,,,,,2023-09-06,1,,,,,ミラダ,0
2790,9130001075111,新規,0,2023-09-06,2023-09-06,七芒星商事株式会社,,株式会社,京都府,京都市南区,西九条大国町８番地１レジデンスタキザワ３０５,,26,107,6018449,,,,,,,2023-09-06,1,,,,,シチボウホシショウジ,0
2792,9130003008960,新規,0,2023-09-06,2023-09-06,合同会社ＧＯＡＴ,,合同会社,京都府,京都市左京区,下鴨北園町９４番地４,,26,103,6060831,,,,,,,2023-09-06,1,,,,,ゴート,0
2793,9130005016862,新規,0,2023-09-06,2023-09-06,一般社団法人馬路町農地管理センター,,その他の設立登記法人,京都府,亀岡市,馬路町流川２番地１,,26,206,6210008,,,,,,,2023-09-06,1,,,,,ウマジチョウノウチカンリセンター,0
2796,9140001131540,新規,0,2023-09-06,2023-09-06,株式会社ＢＲＣ,,株式会社,兵庫県,芦屋市,打出町３－３０－４０７,,28,206,6590022,,,,,,,2023-09-06,1,,,,,ビーアールシー,0
2797,9140005026737,新規,0,2023-09-06,2023-09-06,一般社団法人ごいっしょに集会所,,その他の設立登記法人,兵庫県,宝塚市,湯本町４番４号,,28,214,6650003,,,,,,,2023-09-06,1,,,,,ゴイッショニシュウカイジョ,0
2803,9160001025311,新規,0,2023-09-06,2023-09-06,株式会社泰湖,,株式会社,滋賀県,彦根市,川瀬馬場町１１４２番地１,,25,202,5220223,,,,,,,2023-09-06,1,,,,,タイコ,0
2813,9180001157854,新規,0,2023-09-06,2023-09-06,株式会社リモスタ,,株式会社,愛知県,日進市,岩崎町大廻間２４番地,,23,230,4700131,,,,,,,2023-09-06,1,,,,,リモスタ,0
2814,9180001157870,新規,0,2023-09-06,2023-09-06,株式会社ＲｅＦｉｘ,,株式会社,愛知県,丹羽郡扶桑町,大字山那７１１番地６,,23,362,4800101,,,,,,,2023-09-06,1,,,,,リフィックス,0
2815,9180001157879,新規,0,2023-09-06,2023-09-06,株式会社ミヤビクラフト,,株式会社,愛知県,瀬戸市,西長根町２４番地の８６,,23,204,4890929,,,,,,,2023-09-06,1,,,,,ミヤビクラフト,0
2816,9180001157887,新規,0,2023-09-06,2023-09-06,株式会社ＣＬＣＣＯＭＰＡＮＹ,,株式会社,愛知県,あま市,富塚東間曽２番地２,,23,237,4901202,,,,,,,2023-09-06,1,,,,,シーエルシーカンパニー,0
2817,9180001157904,新規,0,2023-09-06,2023-09-06,ＨＯＵＫＯＫＵ　ＨＤ株式会社,,株式会社,愛知県,名古屋市南区,星崎１丁目２８５番地,,23,112,4570064,,,,,,,2023-09-06,1,,,,,ホウコクホールディングス,0
2818,9180001157929,新規,0,2023-09-06,2023-09-06,株式会社Ｈｏｎｅｙ　ＡＲＯＭＡ,,株式会社,愛知県,小牧市,小針１丁目３０６番地,,23,219,4850037,,,,,,,2023-09-06,1,,,,,ハニーアロマ,0
2819,9180001157945,新規,0,2023-09-06,2023-09-06,株式会社ＩＮ３Ｇｒｏｕｐ,,株式会社,愛知県,名古屋市中村区,名駅３丁目４番１０号アルティメイト名駅１ｓｔ２階,,23,105,4500002,,,,,,,2023-09-06,1,,,,,アイエヌスリーグループ,0
2820,9180001157953,新規,0,2023-09-06,2023-09-06,株式会社ターコイズラフ,,株式会社,愛知県,名古屋市緑区,鳴海町字上汐田１０６番地の１４－２０３号,,23,114,4580835,,,,,,,2023-09-06,1,,,,,ターコイズラフ,0
2821,9180001157961,新規,0,2023-09-06,2023-09-06,株式会社ＥＧｐａｒｔｙ,,株式会社,愛知県,名古屋市守山区,鳥神町１１０番地,,23,113,4630088,,,,,,,2023-09-06,1,,,,,イージーパーティー,0
2823,9180003025695,新規,0,2023-09-06,2023-09-06,合同会社メディグロ,,合同会社,愛知県,一宮市,本町４丁目９番２０号,,23,203,4910859,,,,,,,2023-09-06,1,,,,,メディグロ,0
2828,9200001041650,新規,0,2023-09-06,2023-09-06,株式会社おはなもあな,,株式会社,岐阜県,高山市,上岡本町２丁目６６番地３,,21,203,5060055,,,,,,,2023-09-06,1,,,,,オハナモアナ,0
2833,9230001019999,新規,0,2023-09-06,2023-09-06,セカンドエンジニアリング株式会社,,株式会社,富山県,魚津市,吉島６１６番地５,,16,204,9370041,,,,,,,2023-09-06,1,,,,,セカンドエンジニアリング,0
2839,9240001062065,新規,0,2023-09-06,2023-09-06,株式会社Ｍ’ｓ,,株式会社,広島県,福山市,神辺町大字川南４５３番地４,,34,207,7202124,,,,,,,2023-09-06,1,,,,,エムズ,0
2844,9240003006284,新規,0,2023-09-06,2023-09-06,沖野畜産合同会社,,合同会社,広島県,庄原市,東城町帝釈始終５０６４番地,,34,210,7295243,,,,,,,2023-09-06,1,,,,,オキノチクサン,0
2845,9240003006292,新規,0,2023-09-06,2023-09-06,ＣＤＫ合同会社,,合同会社,広島県,福山市,坪生町１８２２番地,,34,207,7210903,,,,,,,2023-09-06,1,,,,,シィディケィ,0
2854,9260003004410,新規,0,2023-09-06,2023-09-06,ＫＩＺＵＮＡ　ＷＯＲＬＤ合同会社,,合同会社,岡山県,倉敷市,西田７５１番地５,,33,202,7100027,,,,,,,2023-09-06,1,,,,,キズナワールド,0
2855,9260003004419,新規,0,2023-09-06,2023-09-06,合同会社ライフワンステップ,,合同会社,岡山県,倉敷市,日吉町４８１番地１７,,33,202,7100815,,,,,,,2023-09-06,1,,,,,ライフワンステップ,0
2856,9260005011272,新規,0,2023-09-06,2023-09-06,一般財団法人シップヘルスケア古川教育財団,,その他の設立登記法人,岡山県,新見市,長屋７４９番地,,33,210,7180014,,,,,,,2023-09-06,1,,,,,シップヘルスケアフルカワキョウイクザイダン,0
2858,9280003001760,新規,0,2023-09-06,2023-09-06,合同会社Ｒａｉｎｂｏｗ　Ｆｏｏｄ,,合同会社,島根県,松江市,南田町１１－１４,,32,201,6900884,,,,,,,2023-09-06,1,,,,,レインボーフード,0
2862,9290001102849,新規,0,2023-09-06,2023-09-06,株式会社ｋａｎｏａ,,株式会社,福岡県,福岡市早良区,百道浜３丁目９番３３号グランドメゾン百道浜オーシャン＆フォレスト１４０３号,,40,137,8140001,,,,,,,2023-09-06,1,,,,,カノア,0
2863,9290001102865,新規,0,2023-09-06,2023-09-06,株式会社ＤＲＥ,,株式会社,福岡県,大牟田市,新栄町１６番地１,,40,202,8360041,,,,,,,2023-09-06,1,,,,,ドレー,0
2864,9290001102907,新規,0,2023-09-06,2023-09-06,株式会社九州バイオラボ,,株式会社,福岡県,福岡市博多区,築港本町６番１号福岡印刷会館４Ｆ,,40,132,8120021,,,,,,,2023-09-06,1,,,,,キュウシュウバイオラボ,0
2865,9290001102915,新規,0,2023-09-06,2023-09-06,株式会社ＥｔｏＷ,,株式会社,福岡県,古賀市,天神６丁目２２－４メゾンドフラン２０４号室,,40,223,8113101,,,,,,,2023-09-06,1,,,,,イートゥダブリュー,0
2866,9290001102948,新規,0,2023-09-06,2023-09-06,株式会社青森トライアル,,株式会社,福岡県,福岡市東区,多の津１丁目１２番２号,,40,131,8130034,,,,,,,2023-09-06,1,,,,,アオモリトライアル,0
2870,9300003002021,新規,0,2023-09-06,2023-09-06,合同会社ＩＲＩＥ,,合同会社,佐賀県,唐津市,原３１３番地６,,41,202,8470031,,,,,,,2023-09-06,1,,,,,アイリー,0
2876,9330003009963,新規,0,2023-09-06,2023-09-06,合同会社ＭＫ企画,,合同会社,熊本県,上益城郡嘉島町,大字上島１９６０番地２,,43,442,8613106,,,,,,,2023-09-06,1,,,,,エムケーキカク,0
2878,9330005010696,新規,0,2023-09-06,2023-09-06,医療法人まえかわ整形外科,,その他の設立登記法人,熊本県,天草市,東町７番４３号,,43,215,8630033,,,,,,,2023-09-06,1,,,,,マエカワセイケイゲカ,0
2881,9340001025854,新規,0,2023-09-06,2023-09-06,株式会社徳丸,00131794,株式会社,鹿児島県,鹿児島市,草牟田２丁目１６－１２,,46,201,8900014,,,,,,,2023-09-06,1,,,,,トクマル,0
2885,9350001018551,新規,0,2023-09-06,2023-09-06,株式会社日高商会,00131780,株式会社,宮崎県,児湯郡都農町,大字川北４７８０番地,,45,406,8891201,,,,,,,2023-09-06,1,,,,,ヒダカショウカイ,0
2886,9350003004434,新規,0,2023-09-06,2023-09-06,合同会社南辰興業,,合同会社,宮崎県,延岡市,北川町川内名８１６６番地１,,45,203,8890101,,,,,,,2023-09-06,1,,,,,ナンシンコウギョウ,0
2888,9360003013260,新規,0,2023-09-06,2023-09-06,合同会社ファンクショナルサポートＨｉｋａｒｉ,,合同会社,沖縄県,名護市,字三原２３９番地２,,47,209,9052264,,,,,,,2023-09-06,1,,,,,ファンクショナルサポートヒカリ,0
2890,9370001050379,新規,0,2023-09-06,2023-09-06,株式会社Ｔｒｕｓｔ,,株式会社,宮城県,仙台市宮城野区,小鶴１丁目８番５－２０２号,,04,102,9830031,,,,,,,2023-09-06,1,,,,,トラスト,0
2902,9380003005561,新規,0,2023-09-06,2023-09-06,ていく合同会社,,合同会社,福島県,福島市,飯坂町字十綱下１２の４昭和マンション飯坂７０６号,,07,201,9600201,,,,,,,2023-09-06,1,,,,,テイク,0
2905,9400001016368,新規,0,2023-09-06,2023-09-06,株式会社ＲＡＹ,,株式会社,岩手県,一関市,大東町摺沢字但馬崎４番地６,00131784,03,209,0290523,,,,,,,2023-09-06,1,,,,,レイ,0
2907,9410001013587,新規,0,2023-09-06,2023-09-06,株式会社ＴＨＩＲＤ,,株式会社,秋田県,由利本荘市,二番堰８８番地１,,05,210,0150855,,,,,,,2023-09-06,1,,,,,サード,0
2911,9420003002793,新規,0,2023-09-06,2023-09-06,合同会社ＡＬＤＥＲ,,合同会社,青森県,青森市,大字後萢字久堅１９番地,,02,201,0300932,,,,,,,2023-09-06,1,,,,,アルダー,0
2914,9430001089915,新規,0,2023-09-06,2023-09-06,北海道バケーションレンタルズ株式会社,,株式会社,北海道,札幌市白石区,菊水二条１丁目５番２０号,,01,104,0030802,,,,,,,2023-09-06,1,,,,,ホッカイドウバケーションレンタルズ,0
2922,9470001019785,新規,0,2023-09-06,2023-09-06,株式会社ＳＫパートナーズ,,株式会社,香川県,高松市,瓦町２丁目２番地５サランズビル３０１号室,,37,201,7600052,,,,,,,2023-09-06,1,,,,,エスケーパートナーズ,0
2924,9470003002483,新規,0,2023-09-06,2023-09-06,合同会社丸亀市漁業会,,合同会社,香川県,丸亀市,富士見町２丁目１０番１６号,,37,202,7630011,,,,,,,2023-09-06,1,,,,,マルガメシギョギョウカイ,0
2927,9490001010577,新規,0,2023-09-06,2023-09-06,株式会社高知ＩｏＰプラス,,株式会社,高知県,南国市,物部乙２００番地,,39,204,7830093,,,,,,,2023-09-06,1,,,,,コウチアイオーピープラス,0
2928,9490001010585,新規,0,2023-09-06,2023-09-06,株式会社みなみコンサルタント,,株式会社,高知県,高知市,瀬戸１丁目６番３５号,,39,201,7810250,,,,,,,2023-09-06,1,,,,,ミナミコンサルタント,0
2930,9500001025169,新規,0,2023-09-06,2023-09-06,アオイ商工株式会社,,株式会社,愛媛県,四国中央市,三島宮川３丁目２０番１６号,,38,213,7990404,,,,,,,2023-09-06,1,,,,,アオイショウコウ,0
2931,9700150029009,新規,0,2023-09-06,2015-10-09,天神郷共有山林管理団体,,その他,兵庫県,多可郡多可町,中区茂利２２８,,28,365,6791134,,,,,,,2015-10-09,1,,,,,テンジンゴウキヨウユウサンリンカンリダンタイ,0
2933,9700150118579,新規,0,2023-09-06,2023-09-06,ＳＨＥＮＺＨＥＮＳＨＩ　ＱＩＪＩＡ　ＤＩＡＮＺＩＳＨＡＮＧＷＵ　ＹＯＵＸＩＡＮＧＯＮＧＳＩ,,外国会社等,,,,,,,,Ｏｒｉｅｎｔａｌ　Ｘｉｎｔｉａｎｄｉ　Ｐｌａｚａ　Ｃ１８０８Ｂ２，１００３　Ｓｈｅｎｎａｎ　Ａｖｅｎｕｅ，Ｇａｎｇｘｉａ　Ｃｏｍｍｕｎｉｔｙ，Ｆｕｔｉａｎ　Ｓｔｒｅｅｔ，Ｆｕｔｉａｎ　Ｄｉｓｔｒｉｃｔ，Ｐｒｏｖｉｎｃｅ　Ｇｕａｎｇｄｏｎｇ，Ｓｈｅｎｚｈｅｎ，Ｃｈｉｎａ,,,,,,2023-09-06,1,,,,,シンセンシキジャディアンツィシャングユーシャンゴンシ,0
2934,9700150119825,新規,0,2023-09-06,2023-09-06,ｃｈｅｎｇｄｕ　ｌｅｉｅｒｚｈｅｎｙｉｎｄｉａｎｚｉｓｈａｎｇｗｕ　ｙｏｕｘｉａｎｇｏｎｇｓｉ,,外国会社等,,,,,,,,ｈｕｉｑｕａｎｎａｎｌｕ１８３ｈａｏｆｕ６２５ｈａｏ　ｃｈｅｎｇｄｕｓｈｉ　ｊｉｎｊｉａｎｇｑｕ　ｓｉｃｈｕａｎｓｈｅｎｇ,,,,,,2023-09-06,1,,,,,チェンドウレイエゼンインデンシシャンウユウゲンコウシ,0
2935,9700150119833,新規,0,2023-09-06,2023-09-06,ｓｈｅｎｚｈｅｎ　ｎａｈｕｊｉｓｈｕ　ｙｏｕｘｉａｎｇｏｎｇｓｉ,,外国会社等,,,,,,,,ｓｈｅｎｚｈｅｎｓｈｉｂａｏａｎｑｕｘｉｘｉａｎｇｊｉｅｄａｏｈｅｄｏｎｇｓｈｅｑｕｌｉｕｔａｎｇｌｕｔａｉｈｕａｍｉｎｇｚｈｕ１ｄｏｎｇ．２ｄｏｎｇ１ｄｏｎｇ２５Ｅ　５１８０００　ＣＮ,,,,,,2023-09-06,1,,,,,シンセンナフジスヨウシェンゴンスー,0
2936,9700150119841,新規,0,2023-09-06,2023-09-06,Ｇｕａｎｇｚｈｏｕ　Ｌｉ　Ｃｈｅｎｇｂｅｉ　Ｂａｔｔｅｒｙ　Ｔｅｃｈｎｏｌｏｇｙ　Ｃｏ．，Ｌｔｄ,,外国会社等,,,,,,,,Ｒｏｏｍ　３２３－１８９，Ｂｕｉｌｄｉｎｇ　１，Ｎｏ．１９６３，Ｈｕａｇｕａｎ　Ｒｏａｄ　Ｇｕａｎｇｚｈｏｕ　Ｔｉａｎｈｅ　Ｄｉｓｔｒｉｃｔ,,,,,,2023-09-06,1,,,,,コウシュウリチェンベイバッテリーテクノロジーカンパニーリミテッド,0
2937,9700150119858,新規,0,2023-09-06,2023-09-06,ｓｈｅｎ　ｚｈｅｎ　ｒｕｉ　ｑｉ　ｅ－ｃｏｍｍｅｒｃｅ　ｃｏ．，ｌｔｄ,,外国会社等,,,,,,,,ｌｏｎｇｇａｎｇｑｕｂａｎｔｉａｎｊｉｅｄａｏ　ｈｅｂｅｉｘｉｎｃｕｎｙｉｘｉａｎｇｂａｈａｏＢ６０３　ｓｈｅｎｚｈｅｎｓｈｉ,,,,,,2023-09-06,1,,,,,シンセンルイチイーコマースカンパニーリミテッド,0
2938,9700150119866,新規,0,2023-09-06,2023-09-06,Ｄｏｎｇｇｕａｎｂａｉｓｈｉｗａｎｇｌｕｏｋｅｊｉｙｏｕｘｉａｎｇｏｎｇｓｉ,,外国会社等,,,,,,,,Ｓｏｎｇｓｈａｎｈｕｇａｏｘｉｎｊｉｓｈｕｃｈａｎｙｅｋａｉｆａｑｕｚｏｎｇｂｕ　２ｌｕ２ｈａｏ　ｇｕａｎｇｄａｗｅｇｕ　Ａ３ｄｏｎｇ　４０５ｓｈｉ　Ｄｏｎｇｇｕａｎ　Ｇｕａｎｇｄｏｎｇ,,,,,,2023-09-06,1,,,,,トウカンバイシネツトワーツクテクノロジーカンパニーリミテツド,0
