sequenceNumber,corporateNumber,process,correct,updateDate,changeDate,name,nameImageId,kind,prefectureName,cityName,streetNumber,addressImageId,prefectureCode,cityCode,postCode,addressOutside,addressOutsideImageId,closeDate,closeCause,successorCorporateNumber,changeCause,assignmentDate,latest,enName,enPrefectureName,enCityName,enAddressOutside,furigana,hihyoji
6,1010001256119,新規,0,2025-06-24,2025-06-24,株式会社ヘテヘテ,,株式会社,東京都,文京区,水道２丁目１５－７－７１２,,13,105,1120005,,,,,,,2025-06-24,1,,,,,ヘテヘテ,0
9,1010003047771,新規,0,2025-06-24,2025-06-24,合同会社真白,,合同会社,東京都,中央区,日本橋室町１丁目１１番１２号日本橋水野ビル７階,,13,102,1030022,,,,,,,2025-06-24,1,,,,,マシロ,0
10,1010003047796,新規,0,2025-06-24,2025-06-24,シリウス合同会社,,合同会社,東京都,中央区,銀座２丁目１０番８号マニエラ銀座ビル４階,,13,102,1040061,,,,,,,2025-06-24,1,,,,,シリウス,0
13,1010005040238,新規,0,2025-06-24,2025-06-24,一般社団法人ＬＶＣ３９号,,その他の設立登記法人,東京都,千代田区,紀尾井町３－８第２紀尾井町ビル９０１アクシス綜合会計事務所内,,13,101,1020094,,,,,,,2025-06-24,1,,,,,エルブイシーサンジュウキュウゴウ,0
14,1010101016744,新規,0,2025-06-24,2025-06-24,株式会社小利久,,株式会社,東京都,八王子市,堀之内１８０番地３,,13,201,1920355,,,,,,,2025-06-24,1,,,,,コリク,0
22,1010401191163,新規,0,2025-06-24,2025-06-24,株式会社ＮＯＳＵＫＥ兄弟社,,株式会社,東京都,港区,新橋５丁目６番４号,,13,103,1050004,,,,,,,2025-06-24,1,,,,,ノスケキョウダイシャ,0
23,1010401191205,新規,0,2025-06-24,2025-06-24,スクラム・コンサルティング株式会社,,株式会社,東京都,港区,芝公園１丁目８番１３号,,13,103,1050011,,,,,,,2025-06-24,1,,,,,スクラムコンサルティング,0
24,1010401191295,新規,0,2025-06-24,2025-06-24,株式会社アイファンズ,,株式会社,東京都,港区,六本木３丁目１６番１２号六本木ＫＳビル５Ｆ,,13,103,1060032,,,,,,,2025-06-24,1,,,,,アイファンズ,0
30,1010701047908,新規,0,2025-06-24,2025-06-24,株式会社ＳＴＩＲ　ＩＮＴＥＲＮＡＴＩＯＮＡＬ,,株式会社,東京都,品川区,大崎２丁目７番４号メゾン三綱１階,,13,109,1410032,,,,,,,2025-06-24,1,,,,,スターインターナショナル,0
31,1010703007777,新規,0,2025-06-24,2025-06-24,Ｆａｃｔｕｒｅ合同会社,,合同会社,東京都,品川区,西五反田７丁目２２番１７号ＴＯＣビル１０階５８室,,13,109,1410031,,,,,,,2025-06-24,1,,,,,ファクチャー,0
33,1010801036265,新規,0,2025-06-24,2025-06-24,株式会社えみち相続サポート,,株式会社,東京都,大田区,上池台１丁目３１番１号,,13,111,1450064,,,,,,,2025-06-24,1,,,,,エミチソウゾクサポート,0
38,1010901057590,新規,0,2025-06-24,2025-06-24,源総合開発株式会社,,株式会社,東京都,世田谷区,東玉川１丁目４０番１２号日興パレセゾン田園調布１０４号室,,13,112,1580084,,,,,,,2025-06-24,1,,,,,ミナモトソウゴウカイハツ,0
39,1010901057632,新規,0,2025-06-24,2025-06-24,株式会社ＣＨＩＢＲＯ,,株式会社,東京都,世田谷区,深沢８丁目１１番１０号,,13,112,1580081,,,,,,,2025-06-24,1,,,,,チブロ,0
43,1011001170367,新規,0,2025-06-24,2025-06-24,株式会社ＢＬＵＥ　ＦＬＡＭＥ,,株式会社,東京都,渋谷区,桜丘町１８－４二宮ビル１Ｆ－８０,,13,113,1500031,,,,,,,2025-06-24,1,,,,,ブルーフレーム,0
44,1011001170375,新規,0,2025-06-24,2025-06-24,株式会社イチロクマルメディア,,株式会社,東京都,渋谷区,渋谷２丁目１４番５号渋谷クリエ１階,,13,113,1500002,,,,,,,2025-06-24,1,,,,,イチロクマルメディア,0
45,1011001170524,新規,0,2025-06-24,2025-06-24,ＤＫＴＫ株式会社,,株式会社,東京都,渋谷区,神宮前５丁目６番１３号,,13,113,1500001,,,,,,,2025-06-24,1,,,,,ディーケーティーケー,0
46,1011003021849,新規,0,2025-06-24,2025-06-24,ＢＬＡＣＫＨＥＡＤ合同会社,,合同会社,東京都,渋谷区,道玄坂１丁目１０番８号渋谷道玄坂東急ビル２Ｆ－Ｃ,,13,113,1500043,,,,,,,2025-06-24,1,,,,,ブラックヘッド,0
47,1011003021980,新規,0,2025-06-24,2025-06-24,合同会社Ｏｄｄ　Ｅｙｅ,,合同会社,東京都,渋谷区,道玄坂１丁目１０番８号渋谷道玄坂東急ビル２Ｆ‐Ｃ,,13,113,1500043,,,,,,,2025-06-24,1,,,,,オッドアイ,0
54,1011501032232,新規,0,2025-06-24,2025-06-24,隆利株式会社,,株式会社,東京都,荒川区,西日暮里１丁目５９番３号－１０１室,,13,118,1160013,,,,,,,2025-06-24,1,,,,,リュウリ,0
57,1011603004740,新規,0,2025-06-24,2025-06-24,合同会社ＢＬＵＥ,,合同会社,東京都,練馬区,豊玉北５丁目１３番１１号,,13,120,1760012,,,,,,,2025-06-24,1,,,,,ブルー,0
59,1011803006941,新規,0,2025-06-24,2025-06-24,内田兼業合同会社,,合同会社,東京都,足立区,西保木間４丁目１２番１－１０１５号,,13,121,1210812,,,,,,,2025-06-24,1,,,,,ウチダケンギョウ,0
70,1013101009734,新規,0,2025-06-24,2025-06-24,株式会社東亜緑工,,株式会社,東京都,青梅市,大門３丁目１１番地４５,,13,205,1980014,,,,,,,2025-06-24,1,,,,,トウアリョクコウ,0
73,1013301054480,新規,0,2025-06-24,2025-06-24,Ｏｒｉｎｏｖａ株式会社,,株式会社,東京都,豊島区,長崎３丁目８番５号,,13,116,1710051,,,,,,,2025-06-24,1,,,,,オリノヴァ,0
74,1013301054497,新規,0,2025-06-24,2025-06-24,株式会社ｎｉｃｏｔｏｍｏ,,株式会社,東京都,豊島区,池袋２丁目３６－１ＩＮＦＩＮＩＴＹＩＫＥＢＵＫＵＲＯ６階,,13,116,1710014,,,,,,,2025-06-24,1,,,,,ニコトモ,0
75,1013303007734,新規,0,2025-06-24,2025-06-24,理律日本合同会社,,合同会社,東京都,豊島区,東池袋２丁目３７－１７,,13,116,1700013,,,,,,,2025-06-24,1,,,,,リリツニホン,0
76,1013305003723,新規,0,2025-06-24,2025-06-24,一般社団法人Ｅｔａ　Ｃａｒｉｎａｅ,,その他の設立登記法人,東京都,豊島区,東池袋２丁目６２番８号ＢＩＧオフィスプラザ池袋１２０６,,13,116,1700013,,,,,,,2025-06-24,1,,,,,イータカリーナ,0
92,1021001085481,新規,0,2025-06-24,2025-06-24,株式会社てぃんがーら,,株式会社,神奈川県,相模原市中央区,中央２丁目７番９中央歯科ビル３階,,14,152,2520239,,,,,,,2025-06-24,1,,,,,ティンガーラ,0
93,1021003016195,新規,0,2025-06-24,2025-06-24,ｃｌｏｖｅｒ合同会社,,合同会社,神奈川県,綾瀬市,深谷上６丁目４３番目２５号,,14,218,2521108,,,,,,,2025-06-24,1,,,,,クローバー,0
97,1030001167297,新規,0,2025-06-24,2025-06-24,関東建材株式会社,,株式会社,埼玉県,深谷市,岡１１５１－１,,11,218,3690201,,,,,,,2025-06-24,1,,,,,カントウケンザイ,0
103,1030003027045,新規,0,2025-06-24,2025-06-24,Ｓａｒａｒａ合同会社,,合同会社,埼玉県,川口市,中青木５丁目９－１５カトレア荘１０１号,,11,203,3320032,,,,,,,2025-06-24,1,,,,,サララ,0
104,1030003027053,新規,0,2025-06-24,2025-06-24,クラーヴィア合同会社,,合同会社,埼玉県,行田市,栄町１２番１０号,,11,206,3610071,,,,,,,2025-06-24,1,,,,,クラーヴィア,0
105,1030003027061,新規,0,2025-06-24,2025-06-24,合同会社スリーワイ,,合同会社,埼玉県,三郷市,彦成１丁目２７０番地,,11,237,3410003,,,,,,,2025-06-24,1,,,,,スリーワイ,0
117,1040003027886,新規,0,2025-06-24,2025-06-24,合同会社香取マルチサービス,,合同会社,千葉県,香取市,野田２２９番地の２,,12,236,2890314,,,,,,,2025-06-24,1,,,,,カトリマルチサービス,0
127,1070001043065,新規,0,2025-06-24,2025-06-24,株式会社Ｓｅｖｅｎ‐ａｘｉｓ,,株式会社,群馬県,太田市,山之神町５４２番地１,,10,205,3792302,,,,,,,2025-06-24,1,,,,,セブンアクシス,0
130,1100001038714,新規,0,2025-06-24,2025-06-24,株式会社ＳＥＬＦＯＬＯＧＹ　ＬＡＢ,,株式会社,長野県,北佐久郡軽井沢町,大字長倉２１３９番地２３７５,,20,321,3890111,,,,,,,2025-06-24,1,,,,,セルフォロジーラボ,0
152,1120001276898,新規,0,2025-06-24,2025-06-24,株式会社ウルフ商店,,株式会社,大阪府,大阪市阿倍野区,西田辺町２丁目６番２１号,,27,119,5450014,,,,,,,2025-06-24,1,,,,,ウルフショウテン,0
153,1120001277021,新規,0,2025-06-24,2025-06-24,株式会社Ｃｏｃｏｗａ　Ｌａｂ,,株式会社,大阪府,大阪市中央区,南船場２丁目２‐２３．３Ｆ,,27,128,5420081,,,,,,,2025-06-24,1,,,,,ココワラボ,0
154,1120001277137,新規,0,2025-06-24,2025-06-24,株式会社ユーエクスプレス,,株式会社,大阪府,守口市,南寺方中通３丁目１４番１０号,,27,209,5700045,,,,,,,2025-06-24,1,,,,,ユーエクスプレス,0
163,1130001079945,新規,0,2025-06-24,2025-06-24,株式会社ＩＳＡＩＤＯ,,株式会社,京都府,京都市中京区,御幸町通蛸薬師下る船屋町３６７番地ロイヤルプラザ御幸町１０４,,26,104,6048051,,,,,,,2025-06-24,1,,,,,イサイドウ,0
175,1150001028215,新規,0,2025-06-24,2025-06-24,株式会社おもちのきもち,,株式会社,奈良県,大和高田市,大字市場７７４番地３,,29,202,6350074,,,,,,,2025-06-24,1,,,,,オモチノキモチ,0
176,1170001018684,新規,0,2025-06-24,2025-06-24,株式会社ＤＲハウス,,株式会社,和歌山県,和歌山市,津秦１１６番地１４,,30,201,6408315,,,,,,,2025-06-24,1,,,,,ディーアールハウス,0
184,1180001167349,新規,0,2025-06-24,2025-06-24,株式会社印宮,,株式会社,愛知県,一宮市,北今字十八丁三ノ切１６番地１,,23,203,4940004,,,,,,,2025-06-24,1,,,,,イングウ,0
185,1180001167398,新規,0,2025-06-24,2025-06-24,株式会社あきもと電気,,株式会社,愛知県,知多郡南知多町,大字豊浜字西之浦１９番地,,23,445,4703412,,,,,,,2025-06-24,1,,,,,アキモトデンキ,0
186,1180001167415,新規,0,2025-06-24,2025-06-24,株式会社ワンライト,,株式会社,愛知県,名古屋市瑞穂区,豊岡通３丁目１３番地,,23,108,4670012,,,,,,,2025-06-24,1,,,,,ワンライト,0
187,1180001167448,新規,0,2025-06-24,2025-06-24,Ｈａｒｖｅｓｔ株式会社,,株式会社,愛知県,名古屋市中村区,名駅４丁目２４番５号第２森ビル４０１,,23,105,4500002,,,,,,,2025-06-24,1,,,,,ハーヴェスト,0
190,1180003028648,新規,0,2025-06-24,2025-06-24,ＮＳ合同会社,,合同会社,愛知県,名古屋市西区,栄生１丁目１８番２０号ベルメゾン本田,,23,104,4510052,,,,,,,2025-06-24,1,,,,,エヌエス,0
191,1180003028656,新規,0,2025-06-24,2025-06-24,ＭＡＮＨ　ＣＵＯＮＧ合同会社,,合同会社,愛知県,名古屋市港区,名港１丁目４番２０号橋元ビル２１３号室,,23,111,4550037,,,,,,,2025-06-24,1,,,,,マインクォン,0
194,1180301039941,新規,0,2025-06-24,2025-06-24,株式会社後藤,,株式会社,愛知県,豊橋市,大岩町字反茂４番地の１５,,23,201,4413147,,,,,,,2025-06-24,1,,,,,ゴトウ,0
196,1180303006626,新規,0,2025-06-24,2025-06-24,合同会社アンドライフ,,合同会社,愛知県,刈谷市,築地町３丁目２２番地４,,23,210,4480011,,,,,,,2025-06-24,1,,,,,アンドライフ,0
203,1200001043919,新規,0,2025-06-24,2025-06-24,株式会社かいとうファーム,,株式会社,岐阜県,高山市,丹生川町桐山６２１番地１,,21,203,5062134,,,,,,,2025-06-24,1,,,,,カイトウファーム,0
204,1200001043927,新規,0,2025-06-24,2025-06-24,株式会社ＫＦａｒｍ,,株式会社,岐阜県,加茂郡坂祝町,勝山２９７番地,,21,501,5050076,,,,,,,2025-06-24,1,,,,,ケーファーム,0
209,1220001026756,新規,0,2025-06-24,2025-06-24,株式会社シカノ,,株式会社,石川県,金沢市,無量寺町子４５番地,,17,201,9200332,,,,,,,2025-06-24,1,,,,,シカノ,0
212,1240001065109,新規,0,2025-06-24,2025-06-24,株式会社Ｌｉｆｅ　Ｌｉｎｋ,,株式会社,広島県,福山市,三吉町１丁目３番４号,,34,207,7200031,,,,,,,2025-06-24,1,,,,,ライフリンク,0
221,1290001110529,新規,0,2025-06-24,2025-06-24,株式会社ＯｎｅＳｅｅｄ,,株式会社,福岡県,福岡市中央区,天神２丁目２番１２号Ｔ＆Ｊビルディング７Ｆ,,40,133,8100001,,,,,,,2025-06-24,1,,,,,ワンシード,0
222,1290001110537,新規,0,2025-06-24,2025-06-24,株式会社ＣＬＩＮＫ,,株式会社,福岡県,福岡市博多区,祇園町８番１３号,,40,132,8120038,,,,,,,2025-06-24,1,,,,,クリンク,0
231,1340001027445,新規,0,2025-06-24,2025-06-24,株式会社農乃美,,株式会社,鹿児島県,肝属郡東串良町,池之原１４番地１６,,46,482,8931612,,,,,,,2025-06-24,1,,,,,ノノミ,0
232,1340001027453,新規,0,2025-06-24,2025-06-24,株式会社お茶の翠宝園,,株式会社,鹿児島県,霧島市,牧園町三体堂１４２９番地６２,,46,218,8996502,,,,,,,2025-06-24,1,,,,,オチャノスイホウエン,0
234,1360001035371,新規,0,2025-06-24,2025-06-24,Ｋ‐ＳＰＯＲＴＳ株式会社,,株式会社,沖縄県,国頭郡恩納村,字前兼久７－１,,47,311,9040414,,,,,,,2025-06-24,1,,,,,ケイスポーツ,0
235,1360003015033,新規,0,2025-06-24,2025-06-24,合同会社百名１０７,,合同会社,沖縄県,南城市,玉城字百名５３９番地２９,,47,215,9010603,,,,,,,2025-06-24,1,,,,,ヒャクナイチマルナナ,0
238,1390001018027,新規,0,2025-06-24,2025-06-24,株式会社企画日本,,株式会社,山形県,山形市,下条町１丁目１－１７,,06,201,9900823,,,,,,,2025-06-24,1,,,,,キカクニホン,0
241,1430005015255,新規,0,2025-06-24,2025-06-24,特定非営利活動法人桜を守り育てる会,,その他の設立登記法人,北海道,北広島市,大曲緑ヶ丘５丁目１２番地１,,01,234,0611276,,,,,,,2025-06-24,1,,,,,サクラヲマモリソダテルカイ,0
242,1450001014655,新規,0,2025-06-24,2025-06-24,ＬＥＯＮ　ＦＡＲＭ　ＢＩＥＩ株式会社,,株式会社,北海道,上川郡美瑛町,字美沢共生,,01,459,0710236,,,,,,,2025-06-24,1,,,,,レオンファームビエイ,0
245,1470001020775,新規,0,2025-06-24,2025-06-24,山野建設株式会社,,株式会社,香川県,坂出市,宮下町２番９号,,37,203,7620057,,,,,,,2025-06-24,1,,,,,ヤマノケンセツ,0
246,1480001012870,新規,0,2025-06-24,2025-06-24,三和食品株式会社,,株式会社,徳島県,吉野川市,川島町学字辻１７２番地,00139672,36,205,7793306,,,,,,,2025-06-24,1,,,,,サンワショクヒン,0
247,1500001026356,新規,0,2025-06-24,2025-06-24,株式会社ＳＨＩＲＡＩＳＨＩ,,株式会社,愛媛県,今治市,伯方町木浦甲３５９２番地,,38,202,7942305,,,,,,,2025-06-24,1,,,,,シライシ,0
256,2010001256134,新規,0,2025-06-24,2025-06-24,Ｍｅｔａｍｏｒ　Ｐａｒｔｎｅｒｓ株式会社,,株式会社,東京都,千代田区,丸の内２丁目２番１号岸本ビルヂング６Ｆ,,13,101,1000005,,,,,,,2025-06-24,1,,,,,メタモルパートナーズ,0
258,2010003047721,新規,0,2025-06-24,2025-06-24,ウォカシジャパン合同会社,,合同会社,東京都,中央区,月島３丁目４番５－８０２号,,13,102,1040052,,,,,,,2025-06-24,1,,,,,ウォカシジャパン,0
259,2010003047787,新規,0,2025-06-24,2025-06-24,心輝合同会社,,合同会社,東京都,中央区,日本橋２丁目２番３号ＲＩＳＨＥビルＵＣＦ４階,,13,102,1030027,,,,,,,2025-06-24,1,,,,,シンキ,0
262,2010101016743,新規,0,2025-06-24,2025-06-24,株式会社ななくに,,株式会社,東京都,八王子市,七国３丁目４番８号,,13,201,1920919,,,,,,,2025-06-24,1,,,,,ナナクニ,0
263,2010103002601,新規,0,2025-06-24,2025-06-24,合同会社ＭａｒｋｅＳｅｎｓｅ,,合同会社,東京都,八王子市,片倉町４７８番地９,,13,201,1920914,,,,,,,2025-06-24,1,,,,,マーケセンス,0
273,2010401191253,新規,0,2025-06-24,2025-06-24,株式会社ＲＥＣＨＡＲＧＥ　ＯＦ　ＮＥＸＵＳ,,株式会社,東京都,港区,海岸１丁目１１番１号,,13,103,1050022,,,,,,,2025-06-24,1,,,,,リチャージオブネクサス,0
275,2010403035417,新規,0,2025-06-24,2025-06-24,合同会社コロッコ工房,,合同会社,東京都,港区,西新橋１丁目２番９号日比谷セントラルビル１４階,,13,103,1050003,,,,,,,2025-06-24,1,,,,,コロッココウボウ,0
276,2010403035433,新規,0,2025-06-24,2025-06-24,Ｅｘｐｌｏｒｅ　Ｓｔｕｄｉｏｓ合同会社,,合同会社,東京都,港区,赤坂３丁目１１番１５号ＶＯＲＴ赤坂見附４Ｆ,,13,103,1070052,,,,,,,2025-06-24,1,,,,,エクスプロアスタジオズ,0
277,2010403035441,新規,0,2025-06-24,2025-06-24,合同会社Ｏｒｇａｎｉｃ　Ｓｉｎｇｕｌａｒｉｔｙ,,合同会社,東京都,港区,南青山６丁目６番２２号ルナロッサ南青山７階,,13,103,1070062,,,,,,,2025-06-24,1,,,,,オーガニックシンギュラリティー,0
278,2010405024517,新規,0,2025-06-24,2025-06-24,一般社団法人ゼリア,,その他の設立登記法人,東京都,港区,六本木１丁目９番１０号アークヒルズ仙石山森タワー４０階,,13,103,1060032,,,,,,,2025-06-24,1,,,,,ゼリア,0
286,2010703007776,新規,0,2025-06-24,2025-06-24,合同会社スクイットストーム,,合同会社,東京都,品川区,西五反田２丁目１８番３－６０１号,,13,109,1410031,,,,,,,2025-06-24,1,,,,,スクイットストーム,0
297,2011001170366,新規,0,2025-06-24,2025-06-24,エンネ株式会社,,株式会社,東京都,渋谷区,千駄ヶ谷２丁目３９番３号千駄ヶ谷ホリタン２１５号室,,13,113,1510051,,,,,,,2025-06-24,1,,,,,エンネ,0
298,2011003021848,新規,0,2025-06-24,2025-06-24,合同会社えん,,合同会社,東京都,目黒区,大岡山１丁目２３番８号,,13,110,1520033,,,,,,,2025-06-24,1,,,,,エン,0
301,2011005011038,新規,0,2025-06-24,2025-06-24,一般社団法人ヴォイドアーツプロジェクト,,その他の設立登記法人,東京都,目黒区,下目黒６丁目２０番６－４０３号ニューガイアリルーム目黒Ｎｏ．３０,,13,110,1530064,,,,,,,2025-06-24,1,,,,,ヴォイドアーツプロジェクト,0
308,2011201026426,新規,0,2025-06-24,2025-06-24,ＣＬＥＡＮＸ９株式会社,,株式会社,東京都,中野区,弥生町２丁目２５番１０号弥生町二丁目ビル,,13,114,1640013,,,,,,,2025-06-24,1,,,,,クリンクスナイン,0
309,2011201026459,新規,0,2025-06-24,2025-06-24,株式会社四谷坂町ビル,,株式会社,東京都,中野区,中央１丁目４０番４号,,13,114,1640011,,,,,,,2025-06-24,1,,,,,ヨツヤサカマチビル,0
314,2011401027199,新規,0,2025-06-24,2025-06-24,王晟合株式会社,,株式会社,東京都,板橋区,熊野町１２－２メゾン熊野町５０１号,,13,119,1730025,,,,,,,2025-06-24,1,,,,,オウセイゴウ,0
316,2011501032231,新規,0,2025-06-24,2025-06-24,日本挙燭株式会社,,株式会社,東京都,荒川区,西日暮里１丁目５９番３号－１０２室,,13,118,1160013,,,,,,,2025-06-24,1,,,,,ニホンキョショク,0
320,2011703004292,新規,0,2025-06-24,2025-06-24,合同会社Ｍ＆Ｙ,,合同会社,東京都,江戸川区,南小岩６丁目３１番１０－２２０６号プラウドタワー小岩ファースト,,13,123,1330056,,,,,,,2025-06-24,1,,,,,エムアンドワイ,0
323,2012701018929,新規,0,2025-06-24,2025-06-24,株式会社いちももケア,,株式会社,東京都,西東京市,新町４丁目１２―３６,,13,229,2020023,,,,,,,2025-06-24,1,,,,,イチモモケア,0
327,2012803003779,新規,0,2025-06-24,2025-06-24,合同会社ＫＮＮ,,合同会社,東京都,昭島市,中神町２丁目１０番１０号,,13,207,1960022,,,,,,,2025-06-24,1,,,,,ケイエヌエヌ,0
333,2013301054488,新規,0,2025-06-24,2025-06-24,株式会社アール・エフ・メンテナンス,,株式会社,東京都,豊島区,東池袋１丁目３４番２号ＳＷＥＬＬ池袋６Ｆ,,13,116,1700013,,,,,,,2025-06-24,1,,,,,アールエフメンテナンス,0
351,2030001167214,新規,0,2025-06-24,2025-06-24,株式会社ＬＯＯＰ,,株式会社,埼玉県,川口市,芝西２丁目９番１７号ＯＮＫビル１Ｆ,,11,203,3330855,,,,,,,2025-06-24,1,,,,,ループ,0
352,2030001167222,新規,0,2025-06-24,2025-06-24,株式会社カラフルライフデザイン,,株式会社,埼玉県,入間市,大字野田１９７５番地４,,11,225,3580054,,,,,,,2025-06-24,1,,,,,カラフルライフデザイン,0
353,2030001167296,新規,0,2025-06-24,2025-06-24,株式会社ａｒｔｉｓａｎａｌ,,株式会社,埼玉県,志木市,中宗岡４丁目１２番８号１階,,11,228,3530002,,,,,,,2025-06-24,1,,,,,アルチザナル,0
354,2030003027060,新規,0,2025-06-24,2025-06-24,合同会社Ｔｉｎｙ　Ｔａｉｌ,,合同会社,埼玉県,さいたま市浦和区,本太３丁目２９番１号ヒルズ浦和７０４,,11,107,3300052,,,,,,,2025-06-24,1,,,,,タイニーテイル,0
355,2030003027069,新規,0,2025-06-24,2025-06-24,Ｂｌｕｅ　Ｈｅａｌｔｈ合同会社,,合同会社,埼玉県,所沢市,西所沢２丁目１－１３・３０５,,11,208,3591144,,,,,,,2025-06-24,1,,,,,ブルーヘルス,0
372,2070003005970,新規,0,2025-06-24,2025-06-24,ＨＰ合同会社,,合同会社,群馬県,太田市,藤阿久町５９６－１－１０２号,,10,205,3730034,,,,,,,2025-06-24,1,,,,,エイチピー,0
375,2100001038705,新規,0,2025-06-24,2025-06-24,株式会社グラビティ,,株式会社,長野県,松本市,蟻ケ崎３丁目７番９号,,20,202,3900861,,,,,,,2025-06-24,1,,,,,グラビティ,0
388,2120001277078,新規,0,2025-06-24,2025-06-24,Ｈ．Ｔ．Ｐｌａｎｎｉｎｇ株式会社,,株式会社,大阪府,大阪市天王寺区,清水谷１８－８,,27,109,5430000,,,,,,,2025-06-24,1,,,,,エイチティプランニング,0
389,2120001277094,新規,0,2025-06-24,2025-06-24,ＦｕｋｕｒｏｕＲ＆Ｐ株式会社,,株式会社,大阪府,大阪市東成区,玉津１丁目３番２１号玉造イーストビル３０２号,,27,115,5370023,,,,,,,2025-06-24,1,,,,,フクロウアールアンドピー,0
390,2120001277128,新規,0,2025-06-24,2025-06-24,株式会社Ｋｙｏｚｎｉｔ,,株式会社,大阪府,大阪市中央区,船場中央３丁目３番９号地下１階,,27,128,5410055,,,,,,,2025-06-24,1,,,,,キョーズニット,0
391,2120001277152,新規,0,2025-06-24,2025-06-24,株式会社ＬＵＣＲＩＸ,,株式会社,大阪府,大阪市中央区,平野町２丁目５‐１４ＦＵＫＵ・ＢＬＤ三休橋,,27,128,5410046,,,,,,,2025-06-24,1,,,,,ルークリクス,0
393,2120003029849,新規,0,2025-06-24,2025-06-24,合同会社全日本ダーマリペアセラピー協会,,合同会社,大阪府,大阪市中央区,神崎町２番９号,,27,128,5400016,,,,,,,2025-06-24,1,,,,,ニホンダーマリペアセラピーキョウカイ,0
395,2120101071934,新規,0,2025-06-24,2025-06-24,株式会社ブレイク,,株式会社,大阪府,富田林市,昭和町２丁目１番２５号,,27,214,5840092,,,,,,,2025-06-24,1,,,,,ブレイク,0
407,2130001079993,新規,0,2025-06-24,2025-06-24,株式会社Ｄｒｏｉｔ,,株式会社,京都府,京都市上京区,寺町通荒神口上る東桜町４９番地１Ｄｒｏｉｔ,,26,102,6020858,,,,,,,2025-06-24,1,,,,,ドロワ,0
417,2140003022224,新規,0,2025-06-24,2025-06-24,エンフィ合同会社,,合同会社,兵庫県,川西市,笹部１丁目７番８号,,28,217,6660104,,,,,,,2025-06-24,1,,,,,エンフィ,0
422,2180001167356,新規,0,2025-06-24,2025-06-24,株式会社ＧＦＣ,,株式会社,愛知県,名古屋市天白区,八事山３３９番地ヤゴトハウス２階,,23,116,4680077,,,,,,,2025-06-24,1,,,,,ジーエフシー,0
423,2180001167439,新規,0,2025-06-24,2025-06-24,株式会社美杏,,株式会社,愛知県,あま市,篠田中分４番地１,,23,237,4901211,,,,,,,2025-06-24,1,,,,,ビアン,0
424,2180003028663,新規,0,2025-06-24,2025-06-24,合同会社ｂｌａｎｃａ,,合同会社,愛知県,名古屋市中村区,日吉町１４番地の１ロイジェント日吉ＩＩ８０１号,00139673,23,105,4530029,,,,,,,2025-06-24,1,,,,,ブランカ,0
425,2180003028671,新規,0,2025-06-24,2025-06-24,合同会社ＬＵＭＩＮＥＬＬ,,合同会社,愛知県,名古屋市中区,栄４丁目１５番２３号ライオンズマンション久屋公園５１３号,,23,106,4600008,,,,,,,2025-06-24,1,,,,,ルミネル,0
428,2180303006625,新規,0,2025-06-24,2025-06-24,合同会社ＧＬ総研,,合同会社,愛知県,刈谷市,下重原町１丁目１２３,,23,210,4480024,,,,,,,2025-06-24,1,,,,,ジーエルソウケン,0
433,2200001043934,新規,0,2025-06-24,2025-06-24,株式会社ＪＴＨ,,株式会社,岐阜県,岐阜市,徹明通５丁目１２番地１０,,21,201,5008879,,,,,,,2025-06-24,1,,,,,ジェーティーエイチ,0
436,2220001026755,新規,0,2025-06-24,2025-06-24,株式会社ルート,,株式会社,石川県,加賀市,熊坂町ホの８番地,,17,206,9220842,,,,,,,2025-06-24,1,,,,,ルート,0
438,2230001020971,新規,0,2025-06-24,2025-06-24,カツワーク株式会社,,株式会社,富山県,富山市,中市２丁目３番３１号ファーストオフィス中市Ｄ,,16,201,9398005,,,,,,,2025-06-24,1,,,,,カツワーク,0
444,2250001021209,新規,0,2025-06-24,2025-06-24,新アロー印刷株式会社,,株式会社,山口県,下関市,卸新町１０番地３,,35,201,7510818,,,,,,,2025-06-24,1,,,,,シンアローインサツ,0
445,2250003003758,新規,0,2025-06-24,2025-06-24,合同会社ＯＴＯコーポレーション,,合同会社,山口県,下関市,汐入町２０番５－２０２号,,35,201,7500059,,,,,,,2025-06-24,1,,,,,オトコーポレーション,0
448,2260005011493,新規,0,2025-06-24,2025-06-24,一般社団法人岡山ソサイチ７,,その他の設立登記法人,岡山県,岡山市南区,浦安南町２３９番地１４,,33,104,7028024,,,,,,,2025-06-24,1,,,,,オカヤマソサイチセブン,0
453,2290001110494,新規,0,2025-06-24,2025-06-24,株式会社ＣＡＬＩＣＯ　ＢＡＳＥ,,株式会社,福岡県,福岡市博多区,博多駅前１丁目２３番２号ＰａｒｋＦｒｏｎｔ博多駅前１丁目５Ｆ－Ｂ,,40,132,8120011,,,,,,,2025-06-24,1,,,,,キャリコベース,0
454,2290803005090,新規,0,2025-06-24,2025-06-24,合同会社ＰｕａＮａｉｌ,,合同会社,福岡県,田川郡福智町,伊方４７５０番地４,,40,610,8221211,,,,,,,2025-06-24,1,,,,,プアネイル,0
464,2330005010926,新規,0,2025-06-24,2025-06-24,一般社団法人さしより,,その他の設立登記法人,熊本県,球磨郡あさぎり町,上北１９７２番地１,,43,514,8680422,,,,,,,2025-06-24,1,,,,,サシヨリ,0
466,2340001027452,新規,0,2025-06-24,2025-06-24,株式会社エナジーテクニカル,,株式会社,鹿児島県,曽於市,末吉町二之方２３９１番地３,,46,217,8998605,,,,,,,2025-06-24,1,,,,,エナジーテクニカル,0
467,2340003004879,新規,0,2025-06-24,2025-06-24,合同会社キズナビジョン,,合同会社,鹿児島県,鹿児島市,西千石町６番２１号オプションビル１階ＢｕｚｕｌＣ＆Ｃ内,,46,201,8920847,,,,,,,2025-06-24,1,,,,,キズナビジョン,0
472,2360001035346,新規,0,2025-06-24,2025-06-24,本白株式会社,,株式会社,沖縄県,中頭郡中城村,字南上原１０４０－１４サンステージ５０７号室,,47,328,9012424,,,,,,,2025-06-24,1,,,,,ホンハク,0
473,2360001035387,新規,0,2025-06-24,2025-06-24,株式会社ＶｉＶｉＴ,,株式会社,沖縄県,中頭郡北谷町,北谷２丁目５番地２ワイズスカイヴィラアラハ１１０３,,47,326,9040116,,,,,,,2025-06-24,1,,,,,ビビット,0
476,2370001052729,新規,0,2025-06-24,2025-06-24,株式会社ＫＵＫＵＮＡ,,株式会社,宮城県,仙台市若林区,沖野５丁目９番３２,,04,103,9840831,,,,,,,2025-06-24,1,,,,,ククナ,0
477,2370001052745,新規,0,2025-06-24,2025-06-24,サクタファクトリー株式会社,,株式会社,宮城県,亘理郡亘理町,吉田字作田１１番地２,,04,361,9892331,,,,,,,2025-06-24,1,,,,,サクタファクトリー,0
480,2380003006070,新規,0,2025-06-24,2025-06-24,合同会社無人店舗屋,,合同会社,福島県,会津若松市,千石町３番５号レオパレスＳＹＯＫＡＫＵ１１０,,07,202,9650817,,,,,,,2025-06-24,1,,,,,ムジンテンポヤ,0
489,2430001094715,新規,0,2025-06-24,2025-06-24,株式会社アールリンク,,株式会社,北海道,札幌市東区,北十一条東１丁目１番４０号ＳＡＫＵＲＡ－Ｎ１１・Ｃ２室,,01,103,0650011,,,,,,,2025-06-24,1,,,,,アールリンク,0
492,2430003017789,新規,0,2025-06-24,2025-06-24,合同会社ソライロ,,合同会社,北海道,恵庭市,黄金中央３丁目２番地１１ドリームＩ２０３号,00139665,01,231,0611449,,,,,,,2025-06-24,1,,,,,ソライロ,0
494,2460101007722,新規,0,2025-06-24,2025-06-24,株式会社北明運輸,,株式会社,北海道,河西郡芽室町,北明西９線１番地,,01,637,0820002,,,,,,,2025-06-24,1,,,,,ホクメイウンユ,0
508,3010003047778,新規,0,2025-06-24,2025-06-24,オスマンサス・ユナイテッド合同会社,,合同会社,東京都,中央区,日本橋室町１丁目１１番１２号日本橋水野ビル７階,,13,102,1030022,,,,,,,2025-06-24,1,,,,,オスマンサスユナイテッド,0
509,3010003047786,新規,0,2025-06-24,2025-06-24,合同会社ＪＵＪＵ＆Ｂｌｏｏｍ,,合同会社,東京都,千代田区,麹町３丁目５番地４麹町インテリジェントビルＢ－１,,13,101,1020083,,,,,,,2025-06-24,1,,,,,ジュジュアンドブルーム,0
510,3010101016742,新規,0,2025-06-24,2025-06-24,株式会社ａｓｔｅｐ,,株式会社,東京都,八王子市,犬目町５１１番地１０,,13,201,1930802,,,,,,,2025-06-24,1,,,,,アステップ,0
511,3010401191186,新規,0,2025-06-24,2025-06-24,株式会社ＬＴＨ,,株式会社,東京都,港区,南青山５丁目１０番５号青山ハイツ９０４号,,13,103,1070062,,,,,,,2025-06-24,1,,,,,エルティーエイチ,0
512,3010401191277,新規,0,2025-06-24,2025-06-24,株式会社陸王,,株式会社,東京都,港区,新橋６丁目１９番１号シティハウス東京新橋２０１,,13,103,1050004,,,,,,,2025-06-24,1,,,,,リクオウ,0
514,3010403035440,新規,0,2025-06-24,2025-06-24,合同会社リルートコレクティブ,,合同会社,東京都,港区,赤坂２丁目１４番４号森崎ビル３Ｆ,,13,103,1070052,,,,,,,2025-06-24,1,,,,,リルートコレクティブ,0
520,3010501054243,新規,0,2025-06-24,2025-06-24,日本秘色堂株式会社,,株式会社,東京都,台東区,上野１丁目１０－８アジア商事上野ビル６Ｆ―Ｃ室,,13,106,1100005,,,,,,,2025-06-24,1,,,,,ニホンヒショクドウ,0
521,3010501054301,新規,0,2025-06-24,2025-06-24,ＭＩＹＡＢＩ株式会社,,株式会社,東京都,台東区,三筋１丁目１０番６－１１０１号スカイコート蔵前ＩＩ,00139670,13,106,1110055,,,,,,,2025-06-24,1,,,,,ミヤビ,0
527,3010701047889,新規,0,2025-06-24,2025-06-24,天九株式会社,,株式会社,東京都,品川区,上大崎２丁目１５番１９号エムジー目黒駅前３０２室,,13,109,1410021,,,,,,,2025-06-24,1,,,,,テンキュウ,0
528,3010701047897,新規,0,2025-06-24,2025-06-24,品川産業医株式会社,,株式会社,東京都,品川区,中延２丁目８番１２号,,13,109,1420053,,,,,,,2025-06-24,1,,,,,シナガワサンギョウイ,0
530,3010703007775,新規,0,2025-06-24,2025-06-24,合同会社ＰｒｏＬａｂｏ,,合同会社,東京都,品川区,勝島１丁目３－２７メゾネット立会川,,13,109,1400012,,,,,,,2025-06-24,1,,,,,プロラボ,0
538,3010901057630,新規,0,2025-06-24,2025-06-24,株式会社ａＡ,,株式会社,東京都,世田谷区,若林４丁目１４番２３－４０１号,,13,112,1540023,,,,,,,2025-06-24,1,,,,,アア,0
544,3011001170778,新規,0,2025-06-24,2025-06-24,シンクレラ株式会社,,株式会社,東京都,目黒区,三田１丁目４番３－７０６号恵比寿ガーデンテラス壱番館,,13,110,1530062,,,,,,,2025-06-24,1,,,,,シンクレラ,0
545,3011003021839,新規,0,2025-06-24,2025-06-24,合同会社こども教室,,合同会社,東京都,渋谷区,道玄坂１丁目１０番８号渋谷道玄坂東急ビル２Ｆ－Ｃ,,13,113,1500043,,,,,,,2025-06-24,1,,,,,,0
546,3011005011045,新規,0,2025-06-24,2025-06-24,一般社団法人起業支援プロフェッショナル協会,,その他の設立登記法人,東京都,渋谷区,道玄坂１丁目１０番８号渋谷道玄坂東急ビル２Ｆ－Ｃ,,13,113,1500043,,,,,,,2025-06-24,1,,,,,キギョウシエンプロフェッショナルキョウカイ,0
554,3011101112259,新規,0,2025-06-24,2025-06-24,株式会社スミエ,,株式会社,東京都,新宿区,富久町１６－１０ニューライフ新宿参番館３０７,,13,104,1620067,,,,,,,2025-06-24,1,,,,,スミエ,0
555,3011101112275,新規,0,2025-06-24,2025-06-24,株式会社ヘイムリー,,株式会社,東京都,新宿区,新宿５丁目８番５号,,13,104,1600022,,,,,,,2025-06-24,1,,,,,ヘイムリー,0
561,3011301030665,新規,0,2025-06-24,2025-06-24,株式会社Ｋｏｔｏｂａ,,株式会社,東京都,杉並区,和泉４丁目２７番５号フォンタナガーデン２０１,,13,115,1680063,,,,,,,2025-06-24,1,,,,,コトバ,0
567,3011501032230,新規,0,2025-06-24,2025-06-24,株式会社ＷＩＵ,,株式会社,東京都,荒川区,南千住７丁目１０番１３号,,13,118,1160003,,,,,,,2025-06-24,1,,,,,ウォウ,0
571,3011703004291,新規,0,2025-06-24,2025-06-24,合同会社ｅｍｕ,,合同会社,東京都,江戸川区,篠崎町４丁目１７番２６号,,13,123,1330061,,,,,,,2025-06-24,1,,,,,エミュ,0
575,3012403007196,新規,0,2025-06-24,2025-06-24,合同会社ＭＡＭＩＥＬ,,合同会社,東京都,武蔵野市,吉祥寺本町１丁目２０番１号吉祥寺永谷シティプラザ１００２,,13,203,1800004,,,,,,,2025-06-24,1,,,,,マミエル,0
591,3021001085579,新規,0,2025-06-24,2025-06-24,株式会社ＡＪ　ＪＡＰＡＮ,,株式会社,神奈川県,茅ヶ崎市,芹沢３８５４番地Ｃ,,14,207,2530008,,,,,,,2025-06-24,1,,,,,エージェージャパン,0
592,3021001085604,新規,0,2025-06-24,2025-06-24,株式会社ＮＥＶＥＲＬＡＮＤ,,株式会社,神奈川県,鎌倉市,城廻７６３－６,,14,204,2470074,,,,,,,2025-06-24,1,,,,,ネバーランド,0
598,3030001167262,新規,0,2025-06-24,2025-06-24,ジョブモア株式会社,,株式会社,埼玉県,久喜市,南栗橋５丁目１９－１２,,11,232,3491117,,,,,,,2025-06-24,1,,,,,ジョブモア,0
599,3030001167295,新規,0,2025-06-24,2025-06-24,株式会社ＹＵＩＱ,,株式会社,埼玉県,志木市,柏町１丁目１４番２６－２０９号,,11,228,3530007,,,,,,,2025-06-24,1,,,,,,0
603,3030003027068,新規,0,2025-06-24,2025-06-24,合同会社ＳＴ　Ａｌｌｉａｎｃｅ,,合同会社,埼玉県,さいたま市大宮区,桜木町２丁目３番地大宮マルイ７階,,11,103,3300854,,,,,,,2025-06-24,1,,,,,,0
610,3040001139392,新規,0,2025-06-24,2025-06-24,庭松株式会社,,株式会社,千葉県,市川市,曽谷１丁目３４番１２号,,12,203,2720832,,,,,,,2025-06-24,1,,,,,ニワマツ,0
613,3040003027918,新規,0,2025-06-24,2025-06-24,ＩＮＮＯ合同会社,,合同会社,千葉県,市川市,南行徳１丁目３番２６－１０３号（第二ミングルヤジマ）,,12,203,2720138,,,,,,,2025-06-24,1,,,,,イノ,0
621,3060003005616,新規,0,2025-06-24,2025-06-24,合同会社おれんじの会,,合同会社,栃木県,小山市,大字中久喜１１６９－２６,,09,208,3230806,,,,,,,2025-06-24,1,,,,,オレンジノカイ,0
627,3070001043039,新規,0,2025-06-24,2025-06-24,株式会社ｆｅｌｔ　ｓｅｎｓｅ,,株式会社,群馬県,伊勢崎市,太田町１２０５番地２１ロイヤルコート１０４,,10,204,3720006,,,,,,,2025-06-24,1,,,,,フェルトセンス,0
630,3080401027994,新規,0,2025-06-24,2025-06-24,社会福祉事業株式会社,,株式会社,静岡県,浜松市中央区,板屋町１１１番地の２アクトタワー１８階,,22,138,4300928,,,,,,,2025-06-24,1,,,,,シャカイフクシジギョウ,0
636,3100001038720,新規,0,2025-06-24,2025-06-24,フジサービス株式会社,,株式会社,長野県,須坂市,大字須坂１４４６番地２３,,20,207,3820911,,,,,,,2025-06-24,1,,,,,フジサービス,0
637,3110001039370,新規,0,2025-06-24,2025-06-24,株式会社庭生山際,,株式会社,新潟県,新潟市江南区,俵柳５１０番地,,15,104,9501143,,,,,,,2025-06-24,1,,,,,ニワショウヤマギワ,0
646,3120001277077,新規,0,2025-06-24,2025-06-24,株式会社Ｌｏｏｐｅｎｄ　Ｂａｓｅ,,株式会社,大阪府,大阪市平野区,平野東３丁目４番５号,,27,126,5470043,,,,,,,2025-06-24,1,,,,,ループエンドベース,0
647,3120001277184,新規,0,2025-06-24,2025-06-24,本恩株式会社,,株式会社,大阪府,大阪市都島区,都島本通３丁目２４番６－２１０号,,27,102,5340021,,,,,,,2025-06-24,1,,,,,ホンオン,0
651,3120003029781,新規,0,2025-06-24,2025-06-24,合同会社ＥａｇｅｒＢｅａｖｅｒ,,合同会社,大阪府,大阪市中央区,東心斎橋２丁目２番１１号日宝セブンセンタービル２０６ＢＡＲＷｈｏ’ｓ,,27,128,5420083,,,,,,,2025-06-24,1,,,,,イーガービーバー,0
663,3130001079976,新規,0,2025-06-24,2025-06-24,銀河ＡＩ株式会社,,株式会社,京都府,京都市右京区,西院乾町３番地４,,26,108,6150061,,,,,,,2025-06-24,1,,,,,ギンガエーアイ,0
664,3130003010567,新規,0,2025-06-24,2025-06-24,アマスヴィラ合同会社,,合同会社,京都府,京丹後市,大宮町三坂５０３番地,,26,212,6292523,,,,,,,2025-06-24,1,,,,,アマスヴィラ,0
672,3140001139060,新規,0,2025-06-24,2025-06-24,株式会社ＬｉＦｔａ,,株式会社,兵庫県,西宮市,里中町１丁目１－１サンクローバー里中２Ｆ,,28,204,6638183,,,,,,,2025-06-24,1,,,,,リフタ,0
677,3150003003635,新規,0,2025-06-24,2025-06-24,合同会社ゆうおん,,合同会社,奈良県,大和高田市,大字西坊城２９５番地１３,,29,202,6350058,,,,,,,2025-06-24,1,,,,,ユウオン,0
681,3160005011420,新規,0,2025-06-24,2025-06-24,乘船寺,,その他の設立登記法人,滋賀県,愛知郡愛荘町,愛知川１５５８番地,,25,425,5291331,,,,,,,2025-06-24,1,,,,,,0
682,3170001018682,新規,0,2025-06-24,2025-06-24,株式会社寒川建設,,株式会社,和歌山県,西牟婁郡白浜町,安居８４９番地,,30,401,6492532,,,,,,,2025-06-24,1,,,,,ソウガワケンセツ,0
685,3180001167347,新規,0,2025-06-24,2025-06-24,株式会社ＭａｍＭａｍ,,株式会社,愛知県,名古屋市中区,大須４丁目２‐２１グリーンハイツ南久屋４０２,,23,106,4600011,,,,,,,2025-06-24,1,,,,,マムマム,0
686,3180001167355,新規,0,2025-06-24,2025-06-24,株式会社和楽,,株式会社,愛知県,名古屋市千種区,今池２丁目１８番１５号（Ａ棟）,,23,101,4640850,,,,,,,2025-06-24,1,,,,,ワラク,0
687,3180001167363,新規,0,2025-06-24,2025-06-24,株式会社ウィズフレア,,株式会社,愛知県,半田市,新宮町３丁目２２６,,23,205,4750931,,,,,,,2025-06-24,1,,,,,ウィズフレア,0
688,3180001167405,新規,0,2025-06-24,2025-06-24,株式会社齋藤組,,株式会社,愛知県,愛西市,佐屋町道東７６番地１５,,23,232,4960901,,,,,,,2025-06-24,1,,,,,サイトウグミ,0
689,3180003028654,新規,0,2025-06-24,2025-06-24,ｏｒｅｇｉｎ合同会社,,合同会社,愛知県,名古屋市中村区,名駅４丁目２４番５号第２森ビル４０１,,23,105,4500002,,,,,,,2025-06-24,1,,,,,オリジン,0
692,3190001032335,新規,0,2025-06-24,2025-06-24,株式会社こめ中,,株式会社,三重県,鈴鹿市,国府町２２００番地の１３１,,24,207,5130836,,,,,,,2025-06-24,1,,,,,コメナカ,0
693,3200001043933,新規,0,2025-06-24,2025-06-24,株式会社ヨンパチ,,株式会社,岐阜県,可児市,土田３４９２番地１,,21,214,5090206,,,,,,,2025-06-24,1,,,,,ヨンパチ,0
694,3200003006888,新規,0,2025-06-24,2025-06-24,合同会社Ｏｋａ　Ｃｏｒｐ,,合同会社,岐阜県,美濃加茂市,本郷町９丁目１８－３７,,21,211,5050027,,,,,,,2025-06-24,1,,,,,オカコーポレーション,0
696,3210001020213,新規,0,2025-06-24,2025-06-24,株式会社ＲＥＮＩ,,株式会社,福井県,福井市,高木中央３丁目６０５番地,,18,201,9100804,,,,,,,2025-06-24,1,,,,,レニ,0
703,3220003004064,新規,0,2025-06-24,2025-06-24,合同会社ＨＩＲＡＫＵＹＡ,,合同会社,石川県,河北郡津幡町,字上河合ハ６６番地,,17,361,9290304,,,,,,,2025-06-24,1,,,,,ヒラクヤ,0
708,3240001065107,新規,0,2025-06-24,2025-06-24,株式会社ＲＭ,,株式会社,広島県,広島市南区,宇品東１丁目４番１３号,,34,103,7340003,,,,,,,2025-06-24,1,,,,,リム,0
711,3260003005232,新規,0,2025-06-24,2025-06-24,合同会社名草,,合同会社,岡山県,岡山市北区,中山下１丁目１１番１５号新田第１ビル４０２,,33,101,7000821,,,,,,,2025-06-24,1,,,,,ナグサ,0
715,3290001110469,新規,0,2025-06-24,2025-06-24,株式会社ＳＨＵＫＲＡ,,株式会社,福岡県,久留米市,津福本町９３６番地１５,,40,203,8300047,,,,,,,2025-06-24,1,,,,,シュクラ,0
716,3290001110502,新規,0,2025-06-24,2025-06-24,株式会社ＣＯＣＯｃｒｉｅ,,株式会社,福岡県,福岡市博多区,博多駅前１丁目２３番２号ＰａｒｋＦｒｏｎｔ博多駅前１丁目５Ｆ－Ｂ,,40,132,8120011,,,,,,,2025-06-24,1,,,,,ココクリエ,0
718,3290003017035,新規,0,2025-06-24,2025-06-24,合同会社ＫＡＴＡＮＡ,,合同会社,福岡県,福岡市早良区,西新３丁目１５番５号,,40,137,8140002,,,,,,,2025-06-24,1,,,,,カタナ,0
720,3300001014239,新規,0,2025-06-24,2025-06-24,Ｓｋｙ　Ｒａｂｂｉｔ　Ｈｏｌｄｉｎｇｓ株式会社,,株式会社,佐賀県,佐賀市,本庄町大字本庄１１３８番地４宮の杜Ａ２０３,,41,201,8400027,,,,,,,2025-06-24,1,,,,,スカイラビットホールディングス,0
724,3340001027451,新規,0,2025-06-24,2025-06-24,株式会社Ｓｅｉｃｏマネジメント,,株式会社,鹿児島県,鹿児島市,下荒田２丁目１番１号２Ｆ－Ｆ,,46,201,8900056,,,,,,,2025-06-24,1,,,,,セイコーマネジメント,0
725,3350001019605,新規,0,2025-06-24,2025-06-24,株式会社宮崎住設,,株式会社,宮崎県,宮崎市,大字瓜生野６４０５番地１３,,45,201,8800044,,,,,,,2025-06-24,1,,,,,ミヤザキジュウセツ,0
727,3360001035378,新規,0,2025-06-24,2025-06-24,株式会社Ｊａｐａｎ　Ｖｉｌｌａｇｅ　Ｂｕｉｌｄ,,株式会社,沖縄県,石垣市,字伊原間３４３番地,,47,207,9070332,,,,,,,2025-06-24,1,,,,,ジャパンビレッジビルド,0
731,3370001052703,新規,0,2025-06-24,2025-06-24,おおさき総合企画株式会社,,株式会社,宮城県,大崎市,古川川端３番１９号,,04,215,9896167,,,,,,,2025-06-24,1,,,,,オオサキソウゴウキカク,0
738,3430001094706,新規,0,2025-06-24,2025-06-24,株式会社ＧＩＮＴ　ＪＡＰＡＮ,,株式会社,北海道,札幌市中央区,南一条西１１丁目１番地８階,,01,101,0600061,,,,,,,2025-06-24,1,,,,,ギントジャパン,0
739,3430001094722,新規,0,2025-06-24,2025-06-24,株式会社Ｎｉｅｔｚｓｃｈｅ,,株式会社,北海道,札幌市中央区,南六条東１丁目９番地３ビッグパレス南６条５０４号,,01,101,0600056,,,,,,,2025-06-24,1,,,,,ニーチェ,0
742,3460101007721,新規,0,2025-06-24,2025-06-24,株式会社Ｇｏｌｄ　Ｆｏｒｔ,,株式会社,北海道,帯広市,西四条南１８丁目２番地１,,01,207,0800014,,,,,,,2025-06-24,1,,,,,ゴールドフォート,0
743,3460103001722,新規,0,2025-06-24,2025-06-24,合同会社ｐｅｃｈｋａ,,合同会社,北海道,中川郡幕別町,札内あかしや町５６番地の６７,,01,643,0890552,,,,,,,2025-06-24,1,,,,,ペチカ,0
756,4010003047744,新規,0,2025-06-24,2025-06-24,博通商事合同会社,,合同会社,東京都,千代田区,外神田５丁目５番地７号パンセ秋葉原ビル４Ｆ,,13,101,1010021,,,,,,,2025-06-24,1,,,,,ハクツウショウジ,0
757,4010003047769,新規,0,2025-06-24,2025-06-24,合同会社博多ホテルアセット,,合同会社,東京都,中央区,日本橋１丁目４番１号,,13,102,1030027,,,,,,,2025-06-24,1,,,,,ハカタホテルアセット,0
758,4010003047785,新規,0,2025-06-24,2025-06-24,ＬＶＣファンド４３号合同会社,,合同会社,東京都,千代田区,紀尾井町３－８第２紀尾井町ビル９０１アクシス綜合会計事務所内,,13,101,1020094,,,,,,,2025-06-24,1,,,,,エルブイシーファンドヨンジュウサンゴウ,0
763,4010401191169,新規,0,2025-06-24,2025-06-24,株式会社リノア,,株式会社,東京都,港区,南青山３丁目１番３６号青山丸竹ビル６Ｆ,,13,103,1070062,,,,,,,2025-06-24,1,,,,,リノア,0
764,4010401191210,新規,0,2025-06-24,2025-06-24,Ａｒｉａ株式会社,,株式会社,東京都,港区,虎ノ門５丁目３番２１号ＡＵＢＥ虎ノ門１０３号室,,13,103,1050001,,,,,,,2025-06-24,1,,,,,アリア,0
765,4010401191227,新規,0,2025-06-24,2025-06-24,株式会社ＶＡＬＭＯＲＥ,,株式会社,東京都,港区,西麻布４丁目１６－３，９０６,,13,103,1060031,,,,,,,2025-06-24,1,,,,,ヴァルモア,0
766,4010401191243,新規,0,2025-06-24,2025-06-24,株式会社Ｕ．Ｋ．Ｔ．Ｊａｐａｎ,,株式会社,東京都,港区,赤坂２丁目８番１４－４０７号,,13,103,1070052,,,,,,,2025-06-24,1,,,,,ユーケーティージャパン,0
767,4010401191251,新規,0,2025-06-24,2025-06-24,株式会社フラレント,,株式会社,東京都,港区,麻布十番１丁目８番地１０ＴＨＥＶ－ＣＩＴＹ麻布十番ＣＥＮＴＲＥ９階,,13,103,1060045,,,,,,,2025-06-24,1,,,,,フラレント,0
768,4010401191268,新規,0,2025-06-24,2025-06-24,株式会社ＷＩＮＤコーポレーション,,株式会社,東京都,港区,西麻布３丁目２－４０麻布タウンハウス４０１,,13,103,1060031,,,,,,,2025-06-24,1,,,,,ウィンドコーポレーション,0
769,4010401191276,新規,0,2025-06-24,2025-06-24,ティーエスグローバルロジスティクス株式会社,,株式会社,東京都,港区,高輪３丁目１９番２２－１８０２号,,13,103,1080074,,,,,,,2025-06-24,1,,,,,ティーエスグローバルロジスティクス,0
770,4010403035423,新規,0,2025-06-24,2025-06-24,合同会社ＹＳ企画,,合同会社,東京都,港区,赤坂９丁目７番２号,,13,103,1070052,,,,,,,2025-06-24,1,,,,,ワイエスキカク,0
773,4010501054110,新規,0,2025-06-24,2025-06-24,Ｂｌｕｅ　Ｓｔａｒ株式会社,,株式会社,東京都,台東区,浅草５丁目３番１号１０１号室,,13,106,1110032,,,,,,,2025-06-24,1,,,,,ブルースター,0
774,4010501054291,新規,0,2025-06-24,2025-06-24,ネイビースタイル株式会社,,株式会社,東京都,台東区,池之端１丁目１番１号,,13,106,1100008,,,,,,,2025-06-24,1,,,,,ネイビースタイル,0
775,4010501054300,新規,0,2025-06-24,2025-06-24,株式会社成和商事,,株式会社,東京都,台東区,小島２丁目１４番４号８階,,13,106,1110056,,,,,,,2025-06-24,1,,,,,セイワショウジ,0
781,4010701047888,新規,0,2025-06-24,2025-06-24,株式会社マスターブライト,,株式会社,東京都,品川区,北品川５丁目３番１－３３１７号,,13,109,1410001,,,,,,,2025-06-24,1,,,,,マスターブライト,0
782,4010701047896,新規,0,2025-06-24,2025-06-24,エネクシス株式会社,,株式会社,東京都,品川区,小山５丁目６番３号,,13,109,1420062,,,,,,,2025-06-24,1,,,,,エネクシス,0
783,4010703007774,新規,0,2025-06-24,2025-06-24,合同会社ラメス,,合同会社,東京都,品川区,東大井２丁目２４番１１号織戸方４階,,13,109,1400011,,,,,,,2025-06-24,1,,,,,ラメス,0
784,4010703007782,新規,0,2025-06-24,2025-06-24,合同会社ストレッチア,,合同会社,東京都,品川区,戸越６丁目１番４号ストレッチアハウス１Ｆ,,13,109,1420041,,,,,,,2025-06-24,1,,,,,ストレッチア,0
793,4010801036270,新規,0,2025-06-24,2025-06-24,株式会社アルピニスト,,株式会社,東京都,大田区,大森中３丁目２５―１２,,13,111,1430014,,,,,,,2025-06-24,1,,,,,アルピニスト,0
799,4011001170364,新規,0,2025-06-24,2025-06-24,株式会社フロンティア,,株式会社,東京都,渋谷区,代々木４丁目５６番１０号ＧｒａｎＤｕｏ代々木２－２０５号室,,13,113,1510053,,,,,,,2025-06-24,1,,,,,フロンティア,0
800,4011001170562,新規,0,2025-06-24,2025-06-24,株式会社ＫＲＹＮＫＳ,,株式会社,東京都,目黒区,目黒１丁目５番１６号経研第１ビル６階,,13,110,1530063,,,,,,,2025-06-24,1,,,,,ケーリンクス,0
807,4011003021771,新規,0,2025-06-24,2025-06-24,Ｋ　Ｓｏｌｕｔｉｏｎ　Ｊａｐａｎ合同会社,,合同会社,東京都,目黒区,下目黒１丁目１番１４号コノトラビル７Ｆ,,13,110,1530064,,,,,,,2025-06-24,1,,,,,ケイソリューションジャパン,0
808,4011005011036,新規,0,2025-06-24,2025-06-24,佐藤・木村・巽社会保険労務士法人,,その他の設立登記法人,東京都,渋谷区,神宮前６丁目８番４号アイズビル３０２,,13,113,1500001,,,,,,,2025-06-24,1,,,,,,0
822,4011701028465,新規,0,2025-06-24,2025-06-24,株式会社縁屋,,株式会社,東京都,江戸川区,大杉５丁目４番２７号,,13,123,1320022,,,,,,,2025-06-24,1,,,,,エンヤ,0
829,4013103001463,新規,0,2025-06-24,2025-06-24,合同会社ＴＯＴ,,合同会社,東京都,羽村市,川崎４丁目５－２６,,13,227,2050021,,,,,,,2025-06-24,1,,,,,ティーオーティー,0
848,4030001167278,新規,0,2025-06-24,2025-06-24,ピュアライズ株式会社,,株式会社,埼玉県,川口市,金山町１２番１号Ｍｉｏ川口,,11,203,3320014,,,,,,,2025-06-24,1,,,,,ピュアライズ,0
849,4030001167303,新規,0,2025-06-24,2025-06-24,株式会社キャリア・コンサルティング,,株式会社,埼玉県,朝霞市,北原２丁目２番２８号,,11,227,3510036,,,,,,,2025-06-24,1,,,,,キャリアコンサルティング,0
861,4040003027917,新規,0,2025-06-24,2025-06-24,合同会社ＥＲＳ,,合同会社,千葉県,八千代市,高津１１９６番地７グリーンハイツ石井Ｂ－４０３,,12,221,2760036,,,,,,,2025-06-24,1,,,,,イーアールエス,0
866,4060001038328,新規,0,2025-06-24,2025-06-24,株式会社ミアネス,,株式会社,栃木県,鹿沼市,千渡１９６８番地,,09,205,3220002,,,,,,,2025-06-24,1,,,,,ミアネス,0
869,4060003005615,新規,0,2025-06-24,2025-06-24,合同会社シライシ,,合同会社,栃木県,鹿沼市,下粕尾７１７番地１,,09,205,3220421,,,,,,,2025-06-24,1,,,,,シライシ,0
874,4070003005969,新規,0,2025-06-24,2025-06-24,＿龍合同会社,00139663,合同会社,群馬県,高崎市,南新波町５２番地,,10,202,3700083,,,,,,,2025-06-24,1,,,,,シンリュウ,0
877,4080101025579,新規,0,2025-06-24,2025-06-24,株式会社ＣＯＮＮＥＣＴ,,株式会社,静岡県,富士市,青島町２０２番地、２階,,22,210,4170047,,,,,,,2025-06-24,1,,,,,コネクト,0
882,4100003008217,新規,0,2025-06-24,2025-06-24,ＹｕｋｉＴａｂｉ合同会社,,合同会社,長野県,北安曇郡小谷村,大字千国乙５０８番地,,20,486,3999422,,,,,,,2025-06-24,1,,,,,ユキタビ,0
909,4140001139019,新規,0,2025-06-24,2025-06-24,株式会社ＥＭＥＲＡＬＤ　ＧＲＯＵＰ,,株式会社,兵庫県,神戸市灘区,水道筋２丁目２３番地－３,,28,102,6570831,,,,,,,2025-06-24,1,,,,,エメラルドグループ,0
911,4150001028212,新規,0,2025-06-24,2025-06-24,株式会社ナッズ,,株式会社,奈良県,橿原市,膳夫町５９８番地の１,,29,205,6340012,,,,,,,2025-06-24,1,,,,,ナッズ,0
912,4150003003634,新規,0,2025-06-24,2025-06-24,合同会社ｆｉｎｄｅｒ,,合同会社,奈良県,奈良市,鳥見町２丁目１７番地の２,,29,201,6310065,,,,,,,2025-06-24,1,,,,,フィンダー,0
913,4160001026850,新規,0,2025-06-24,2025-06-24,株式会社ＮＫＪ,,株式会社,滋賀県,長浜市,分木町６番４５号,,25,203,5260025,,,,,,,2025-06-24,1,,,,,エヌケイジェイ,0
915,4170001018681,新規,0,2025-06-24,2025-06-24,株式会社ｔｅｔｏｔｅ,,株式会社,和歌山県,有田郡有田川町,大字上中島７８５－１－２０１号,,30,366,6430855,,,,,,,2025-06-24,1,,,,,テトテ,0
918,4180001167453,新規,0,2025-06-24,2025-06-24,株式会社ｃｈｏｕ　ｃｈｏｕ,,株式会社,愛知県,名古屋市中川区,十番町１丁目２８７番地の１,,23,110,4540055,,,,,,,2025-06-24,1,,,,,シュシュ,0
921,4180301039939,新規,0,2025-06-24,2025-06-24,みふねや株式会社,,株式会社,愛知県,豊田市,西町２丁目３７番地１,,23,211,4710025,,,,,,,2025-06-24,1,,,,,ミフネヤ,0
924,4190001032334,新規,0,2025-06-24,2025-06-24,株式会社請負人,,株式会社,三重県,名張市,東田原２６２１－３５,,24,208,5180602,,,,,,,2025-06-24,1,,,,,ウケオイニン,0
928,4200001043932,新規,0,2025-06-24,2025-06-24,株式会社岐大総健,,株式会社,岐阜県,大垣市,三津屋町１丁目１９番地３,,21,202,5030012,,,,,,,2025-06-24,1,,,,,ギダイソウケン,0
943,4250001021207,新規,0,2025-06-24,2025-06-24,株式会社ＴＨＩＥＮ,,株式会社,山口県,周南市,大字呼坂８５０番地の１５４,,35,215,7450612,,,,,,,2025-06-24,1,,,,,ティエン,0
952,4290001110534,新規,0,2025-06-24,2025-06-24,株式会社ウィズクラフト,,株式会社,福岡県,飯塚市,吉原町８―４４―８０５,,40,205,8200040,,,,,,,2025-06-24,1,,,,,ウィズクラフト,0
953,4290003017034,新規,0,2025-06-24,2025-06-24,合同会社エスクラス,,合同会社,福岡県,大川市,大字三丸３９５番地４,,40,212,8310026,,,,,,,2025-06-24,1,,,,,エスクラス,0
955,4290803005089,新規,0,2025-06-24,2025-06-24,合同会社サザンクロスリンク,,合同会社,福岡県,北九州市八幡西区,日吉台２丁目２８番１３号,,40,109,8070866,,,,,,,2025-06-24,1,,,,,サザンクロスリンク,0
956,4300001014238,新規,0,2025-06-24,2025-06-24,株式会社Ｊ‐企画,,株式会社,佐賀県,武雄市,山内町大字宮野３５０番地,,41,206,8492305,,,,,,,2025-06-24,1,,,,,ジェイキカク,0
959,4300003002307,新規,0,2025-06-24,2025-06-24,合同会社シマダタカシ,,合同会社,佐賀県,佐賀市,大財１丁目５番５５号,,41,201,8400811,,,,,,,2025-06-24,1,,,,,シマダタカシ,0
960,4310001019657,新規,0,2025-06-24,2025-06-24,株式会社東海ホテルズ,,株式会社,長崎県,西彼杵郡時津町,左底郷１１４５番地２１,,42,308,8512106,,,,,,,2025-06-24,1,,,,,トウカイホテルズ,0
971,4360005007249,新規,0,2025-06-24,2025-06-24,農事組合法人ゆいまーるしちゃばる,,その他の設立登記法人,沖縄県,うるま市,字前原１９８番８号,,47,213,9042235,,,,,,,2025-06-24,1,,,,,ユイマールシチャバル,0
979,4430001094721,新規,0,2025-06-24,2025-06-24,株式会社ＶＲＭ,,株式会社,北海道,札幌市中央区,北五条西１１丁目１５番４号,,01,101,0600005,,,,,,,2025-06-24,1,,,,,ブイアールエム,0
987,4470001020772,新規,0,2025-06-24,2025-06-24,株式会社Ｍａｔｔｓ,,株式会社,香川県,坂出市,林田町１１０５番地,,37,203,7620012,,,,,,,2025-06-24,1,,,,,マッツ,0
990,4490001011092,新規,0,2025-06-24,2025-06-24,株式会社ＮｉｙｏｄｏＢｌｕｅＴｒｉｐ,,株式会社,高知県,吾川郡仁淀川町,森山５２４番地５,,39,387,7811755,,,,,,,2025-06-24,1,,,,,ニヨドブルートリップ,0
996,5010001256073,新規,0,2025-06-24,2025-06-24,Ｚｃａｍｐ星艦株式会社,,株式会社,東京都,中央区,日本橋兜町１７番１の３０２室,,13,102,1030026,,,,,,,2025-06-24,1,,,,,ゼットキャンプセイカン,0
997,5010001256222,新規,0,2025-06-24,2025-06-24,なかぞの商店株式会社,,株式会社,東京都,中央区,日本橋小舟町１５番１７号,,13,102,1030024,,,,,,,2025-06-24,1,,,,,ナカゾノショウテン,0
998,5010003047735,新規,0,2025-06-24,2025-06-24,合同会社バルタン,,合同会社,東京都,中央区,銀座７丁目１３番６号サガミビル２階,,13,102,1040061,,,,,,,2025-06-24,1,,,,,バルタン,0
999,5010003047784,新規,0,2025-06-24,2025-06-24,ＬＶＣファンド４２号合同会社,,合同会社,東京都,千代田区,紀尾井町３－８第２紀尾井町ビル９０１アクシス綜合会計事務所内,,13,101,1020094,,,,,,,2025-06-24,1,,,,,エルブイシーファンドヨンジュウニゴウ,0
1000,5010005040242,新規,0,2025-06-24,2025-06-24,一般社団法人ＬＶＣ４３号,,その他の設立登記法人,東京都,千代田区,紀尾井町３－８第２紀尾井町ビル９０１アクシス綜合会計事務所内,,13,101,1020094,,,,,,,2025-06-24,1,,,,,エルブイシーヨンジュウサンゴウ,0
1006,5010401191135,新規,0,2025-06-24,2025-06-24,株式会社ＡＩＲＢＥＡＵ,,株式会社,東京都,港区,南青山１丁目２４－３ＷｅＷｏｒｋ乃木坂１Ｆ,,13,103,1070062,,,,,,,2025-06-24,1,,,,,エアビュー,0
1007,5010401191226,新規,0,2025-06-24,2025-06-24,株式会社ココヨリ,,株式会社,東京都,港区,南青山３丁目１番３６号青山丸竹ビル６Ｆ,,13,103,1070062,,,,,,,2025-06-24,1,,,,,ココヨリ,0
1008,5010401191275,新規,0,2025-06-24,2025-06-24,ＮＡＭリアルティ株式会社,,株式会社,東京都,港区,赤坂８丁目１３番１９－４１０号,,13,103,1070052,,,,,,,2025-06-24,1,,,,,ナムリアルティ,0
1012,5010403035422,新規,0,2025-06-24,2025-06-24,合同会社国際看護助産研究所,,合同会社,東京都,港区,北青山１丁目３番３号三橋ビル３階,,13,103,1070061,,,,,,,2025-06-24,1,,,,,コクサイカンゴジョサンケンキュウジョ,0
1013,5010403035430,新規,0,2025-06-24,2025-06-24,合同会社気仙沼エナジー,,合同会社,東京都,港区,六本木７丁目１２番１１号,,13,103,1060032,,,,,,,2025-06-24,1,,,,,ケセンヌマエナジー,0
1014,5010405024506,新規,0,2025-06-24,2025-06-24,特定目的会社ＤｉｇｉｔａｌＬａｎｄ　ＩＶ　Ｊａｐａｎ,,その他の設立登記法人,東京都,港区,虎ノ門３丁目２２番１０－２０１号,,13,103,1050001,,,,,,,2025-06-24,1,,,,,デジタルランドフォージャパン,0
1016,5010501054308,新規,0,2025-06-24,2025-06-24,ＡＩ　Ｇｌｏｂａｌ株式会社,,株式会社,東京都,台東区,根岸４丁目１８番１２－８０２号プリムローズ根岸ビーフォート,,13,106,1100003,,,,,,,2025-06-24,1,,,,,エアイグローバル,0
1018,5010701047895,新規,0,2025-06-24,2025-06-24,株式会社セレナム,,株式会社,東京都,品川区,荏原７丁目１９番１０号,,13,109,1420063,,,,,,,2025-06-24,1,,,,,セレナム,0
1019,5010701047904,新規,0,2025-06-24,2025-06-24,株式会社ＲａｙＮｏ,,株式会社,東京都,品川区,大井３丁目１８番１号クラシアム大井町４０５,,13,109,1400014,,,,,,,2025-06-24,1,,,,,レイノ,0
1020,5010703007773,新規,0,2025-06-24,2025-06-24,合同会社はたけ,,合同会社,東京都,品川区,豊町１丁目１番７－１０７号,,13,109,1420042,,,,,,,2025-06-24,1,,,,,ハタケ,0
1029,5011001170355,新規,0,2025-06-24,2025-06-24,株式会社Ｌｕｒｅｓｔ,,株式会社,東京都,渋谷区,円山町５番３号ＭＩＥＵＸ渋谷ビル８階,,13,113,1500044,,,,,,,2025-06-24,1,,,,,ルレスト,0
1030,5011001170561,新規,0,2025-06-24,2025-06-24,株式会社Ｓｅｎ,,株式会社,東京都,渋谷区,神南１丁目１１番４号ＦＰＧリンクス神南５階,,13,113,1500041,,,,,,,2025-06-24,1,,,,,セン,0
1035,5011201026456,新規,0,2025-06-24,2025-06-24,株式会社リョウコンサルティング,,株式会社,東京都,中野区,本町１丁目１９番５号,,13,114,1640012,,,,,,,2025-06-24,1,,,,,リョウコンサルティング,0
1041,5012401043266,新規,0,2025-06-24,2025-06-24,株式会社ＭＲ,,株式会社,東京都,小金井市,本町５丁目１８番５号太平ビル１０３,,13,210,1840004,,,,,,,2025-06-24,1,,,,,エムアール,0
1044,5012701018934,新規,0,2025-06-24,2025-06-24,株式会社チップス,,株式会社,東京都,東久留米市,南沢５丁目１９番８－７０５号,,13,222,2030023,,,,,,,2025-06-24,1,,,,,チップス,0
1050,5013103001462,新規,0,2025-06-24,2025-06-24,合同会社Ｋｏｍａｃｈｉ,,合同会社,東京都,羽村市,緑ヶ丘５丁目５番地８レオパレス羽邑２０２,,13,227,2050003,,,,,,,2025-06-24,1,,,,,,0
1052,5013301054493,新規,0,2025-06-24,2025-06-24,瑞翔物流株式会社,,株式会社,東京都,豊島区,東池袋１丁目１７番１１号パークハイツ池袋１１０５号,,13,116,1700013,,,,,,,2025-06-24,1,,,,,ズイショウブツリュウ,0
1059,5020001163335,新規,0,2025-06-24,2025-06-24,株式会社さくらメディカルホールディングス,,株式会社,神奈川県,横浜市都筑区,中川中央１丁目２１－１－３Ｆ,,14,118,2240003,,,,,,,2025-06-24,1,,,,,サクラメディカルホールディングス,0
1073,5030001167236,新規,0,2025-06-24,2025-06-24,河野株式会社,,株式会社,埼玉県,入間市,東藤沢３丁目２番１３号ＫＩＶ商会館入間Ｌ号室,,11,225,3580012,,,,,,,2025-06-24,1,,,,,カワノ,0
1076,5030003026984,新規,0,2025-06-24,2025-06-24,ＨＭオート合同会社,,合同会社,埼玉県,狭山市,入間川１４５５番１５,,11,215,3501305,,,,,,,2025-06-24,1,,,,,エイチエムオート,0
1079,5040003027890,新規,0,2025-06-24,2025-06-24,合同会社ＧＯ,,合同会社,千葉県,千葉市中央区,本千葉町３番７号メゾン・ド・ヴィレ千葉中央１１０３号室,,12,101,2600014,,,,,,,2025-06-24,1,,,,,ゴー,0
1099,5120001276861,新規,0,2025-06-24,2025-06-24,株式会社Ｂｌｏｏｍ,,株式会社,大阪府,大阪市西淀川区,佃５丁目１２番４－８０７号,,27,113,5550001,,,,,,,2025-06-24,1,,,,,ブルーム,0
1100,5120001277141,新規,0,2025-06-24,2025-06-24,株式会社やすらぎ,,株式会社,大阪府,大阪市北区,梅田１丁目２番２号大阪駅前第２ビル２階５－６号室,,27,127,5300001,,,,,,,2025-06-24,1,,,,,ヤスラギ,0
1101,5120001277158,新規,0,2025-06-24,2025-06-24,ＺＥＮ＆Ｓｅｃｕｒｉｔｙ株式会社,,株式会社,大阪府,大阪市北区,梅田１丁目２番２号大阪駅前第２ビル１２－１２,,27,127,5300001,,,,,,,2025-06-24,1,,,,,ゼンアンドセキュリティ,0
1103,5120003029805,新規,0,2025-06-24,2025-06-24,合同会社ナイン,,合同会社,大阪府,大阪市天王寺区,細工谷１丁目４－１８シャーメゾン上本町２０２,,27,109,5430032,,,,,,,2025-06-24,1,,,,,ナイン,0
1104,5120003029813,新規,0,2025-06-24,2025-06-24,Ｃａｐｔｏｗｎ合同会社,,合同会社,大阪府,大阪市生野区,巽北３丁目３番１２号,,27,116,5440004,,,,,,,2025-06-24,1,,,,,キャップタウン,0
1112,5120901051125,新規,0,2025-06-24,2025-06-24,株式会社ＤＩＧＮＩＶＡ,,株式会社,大阪府,吹田市,千里山高塚１８－１３,,27,205,5650848,,,,,,,2025-06-24,1,,,,,ディグニヴァ,0
1125,5150001028211,新規,0,2025-06-24,2025-06-24,株式会社ミナト屋,,株式会社,奈良県,大和郡山市,城北町７番２１号,,29,203,6391004,,,,,,,2025-06-24,1,,,,,ミナトヤ,0
1132,5170001018680,新規,0,2025-06-24,2025-06-24,株式会社モリマサ,,株式会社,和歌山県,和歌山市,有家２１１番地１,,30,201,6408316,,,,,,,2025-06-24,1,,,,,モリマサ,0
1136,5180001167394,新規,0,2025-06-24,2025-06-24,アスマートアイランド株式会社,,株式会社,愛知県,日進市,栄４丁目８０１番地セルシオスクエア日進Ａ棟４０５,,23,230,4700113,,,,,,,2025-06-24,1,,,,,アスマートアイランド,0
1137,5180001167411,新規,0,2025-06-24,2025-06-24,株式会社こめの木不動産,,株式会社,愛知県,日進市,米野木町上五反田６５－５,,23,230,4700111,,,,,,,2025-06-24,1,,,,,コメノキフドウサン,0
1138,5180001167444,新規,0,2025-06-24,2025-06-24,Ｃ＆Ｄ　Ｗｏｒｋｓ株式会社,,株式会社,愛知県,春日井市,坂下町７丁目７６０番地１２５０,,23,206,4800305,,,,,,,2025-06-24,1,,,,,シーアンドディーワークス,0
1139,5180003028644,新規,0,2025-06-24,2025-06-24,合同会社うららメディカルサービス,,合同会社,愛知県,名古屋市緑区,定納山１丁目７０６番地,,23,114,4598011,,,,,,,2025-06-24,1,,,,,ウララメディカルサービス,0
1140,5180301039921,新規,0,2025-06-24,2025-06-24,株式会社Ｒｉｎ,,株式会社,愛知県,蒲郡市,八百富町１丁目１４４番地,,23,214,4430055,,,,,,,2025-06-24,1,,,,,リン,0
1144,5190001032325,新規,0,2025-06-24,2025-06-24,奏明建設株式会社,,株式会社,三重県,伊賀市,千歳１２４４番地,,24,216,5180002,,,,,,,2025-06-24,1,,,,,ソウメイケンセツ,0
1145,5200001043923,新規,0,2025-06-24,2025-06-24,株式会社エネファントホールディングス,,株式会社,岐阜県,多治見市,下沢町３丁目３５番地の１,,21,204,5070812,,,,,,,2025-06-24,1,,,,,エネファントホールディングス,0
1146,5200001043931,新規,0,2025-06-24,2025-06-24,株式会社長岡建装,,株式会社,岐阜県,岐阜市,黒野３６０番地１３,,21,201,5011131,,,,,,,2025-06-24,1,,,,,ナガオカケンソウ,0
1148,5200003006894,新規,0,2025-06-24,2025-06-24,合同会社Ｉｇｎｉｖｏ,,合同会社,岐阜県,岐阜市,中鶉６丁目１０２番地２,,21,201,5008288,,,,,,,2025-06-24,1,,,,,イグニヴォ,0
1150,5230001020969,新規,0,2025-06-24,2025-06-24,ユイナール株式会社,,株式会社,富山県,富山市,星井町３丁目４番５‐１号,,16,201,9300065,,,,,,,2025-06-24,1,,,,,ユイナール,0
1151,5240003007261,新規,0,2025-06-24,2025-06-24,合同会社ＭＡＳＡ,,合同会社,広島県,広島市中区,白島中町１６番１３－２０２号,,34,101,7300002,,,,,,,2025-06-24,1,,,,,マサ,0
1153,5250001021206,新規,0,2025-06-24,2025-06-24,関西砿油ホールディングス株式会社,,株式会社,山口県,宇部市,小松原町２丁目７番２６号,,35,202,7550066,,,,,,,2025-06-24,1,,,,,カンサイコウユホールディングス,0
1155,5250003003755,新規,0,2025-06-24,2025-06-24,合同会社チョウフデンキ,,合同会社,山口県,下関市,長府中浜町７番３号,,35,201,7520975,,,,,,,2025-06-24,1,,,,,チョウフデンキ,0
1157,5260001040287,新規,0,2025-06-24,2025-06-24,農業法人三保ファーム株式会社,,株式会社,岡山県,久米郡美咲町,錦織２２２０番地３,,33,666,7093701,,,,,,,2025-06-24,1,,,,,ノウギョウホウジンミホファーム,0
1161,5270001009224,新規,0,2025-06-24,2025-06-24,株式会社Ｎｅｓｔｌｅ　Ｓｃｒｕｍ,,株式会社,鳥取県,米子市,中島１丁目１２番７号,,31,202,6830005,,,,,,,2025-06-24,1,,,,,ネスルスクラム,0
1168,5290001110450,新規,0,2025-06-24,2025-06-24,一徳株式会社,00139662,株式会社,福岡県,福岡市中央区,天神３丁目６－２４スコーレ第二天神２０１,,40,133,8100001,,,,,,,2025-06-24,1,,,,,イットク,0
1169,5290001110517,新規,0,2025-06-24,2025-06-24,Ｗｒｉｇｈｔ　Ｈｏｕｓｅ株式会社,,株式会社,福岡県,福岡市中央区,舞鶴３丁目６番１－３０２号,,40,133,8100073,,,,,,,2025-06-24,1,,,,,ライトハウス,0
1170,5290003016951,新規,0,2025-06-24,2025-06-24,合同会社レイリンク,,合同会社,福岡県,福岡市城南区,梅林５丁目１４－１２－１０７,,40,136,8140144,,,,,,,2025-06-24,1,,,,,レイリンク,0
1171,5290003017000,新規,0,2025-06-24,2025-06-24,ＳＯＮ　ＶＵＯＮＧ合同会社,,合同会社,福岡県,糟屋郡粕屋町,若宮２丁目２２番６号パレ・ド・中ノ原２０２号,,40,349,8112314,,,,,,,2025-06-24,1,,,,,ソンヴォン,0
1172,5290003017025,新規,0,2025-06-24,2025-06-24,Ｖ．Ａ．Ｐ．合同会社,,合同会社,福岡県,福岡市南区,高宮４丁目２３番２６号,,40,134,8150083,,,,,,,2025-06-24,1,,,,,ブイエーピー,0
1173,5290801031648,新規,0,2025-06-24,2025-06-24,株式会社Ａｒｍｉｔｈ,,株式会社,福岡県,北九州市八幡西区,馬場山西１１番４２号,,40,109,8071132,,,,,,,2025-06-24,1,,,,,アーミス,0
1176,5290803005088,新規,0,2025-06-24,2025-06-24,合同会社ＳＴＢ,,合同会社,福岡県,北九州市小倉南区,徳力６丁目１５番１０号,,40,107,8020974,,,,,,,2025-06-24,1,,,,,エスティービー,0
1177,5300001014237,新規,0,2025-06-24,2025-06-24,株式会社江口機電サービス,,株式会社,佐賀県,佐賀市,大和町大字久池井１０５６番地１３,,41,201,8400202,,,,,,,2025-06-24,1,,,,,エグチキデンサービス,0
1196,5350003004958,新規,0,2025-06-24,2025-06-24,合同会社Ｎｉｎｅ,,合同会社,宮崎県,宮崎市,吉村町引土甲６２９番地１６,,45,201,8800841,,,,,,,2025-06-24,1,,,,,ナイン,0
1198,5360001035376,新規,0,2025-06-24,2025-06-24,株式会社ｄｏｏ,,株式会社,沖縄県,国頭郡本部町,字辺名地５８２番地,,47,308,9050224,,,,,,,2025-06-24,1,,,,,ドゥ,0
1207,5390003002413,新規,0,2025-06-24,2025-06-24,合同会社ミズキ,,合同会社,山形県,東根市,神町東３丁目５－８３－１１４,,06,211,9993764,,,,,,,2025-06-24,1,,,,,ミズキ,0
1208,5410003004118,新規,0,2025-06-24,2025-06-24,合同会社ＬＳＭＣ　Ｊａｐａｎ,,合同会社,秋田県,横手市,黒川字寺村３５番地,,05,203,0130826,,,,,,,2025-06-24,1,,,,,エルエスエムシージャパン,0
1214,5430001094729,新規,0,2025-06-24,2025-06-24,ｎｕｌｌ株式会社,,株式会社,北海道,札幌市白石区,本通６丁目北３番１１号,,01,104,0030027,,,,,,,2025-06-24,1,,,,,ナル,0
1219,6010001256196,新規,0,2025-06-24,2025-06-24,株式会社ＩＴＧ‐１６,,株式会社,東京都,千代田区,丸の内１丁目９番２号,,13,101,1000005,,,,,,,2025-06-24,1,,,,,アイティージーイチロク,0
1221,6010003047734,新規,0,2025-06-24,2025-06-24,ＣＯＭＥ　ＯＮ合同会社,,合同会社,東京都,中央区,銀座７丁目１３番２０号銀座ＴＨビル９階,,13,102,1040061,,,,,,,2025-06-24,1,,,,,カムオン,0
1222,6010003047775,新規,0,2025-06-24,2025-06-24,ＢＥＲＩＮ合同会社,,合同会社,東京都,千代田区,三番町３０番地,,13,101,1020075,,,,,,,2025-06-24,1,,,,,ビリン,0
1223,6010003047783,新規,0,2025-06-24,2025-06-24,ＬＶＣファンド４１号合同会社,,合同会社,東京都,千代田区,紀尾井町３－８第２紀尾井町ビル９０１アクシス綜合会計事務所内,,13,101,1020094,,,,,,,2025-06-24,1,,,,,エルブイシーファンドヨンジュウイチゴウ,0
1224,6010005040241,新規,0,2025-06-24,2025-06-24,一般社団法人ＬＶＣ４２号,,その他の設立登記法人,東京都,千代田区,紀尾井町３－８第２紀尾井町ビル９０１アクシス綜合会計事務所内,,13,101,1020094,,,,,,,2025-06-24,1,,,,,エルブイシーヨンジュウニゴウ,0
1230,6010401191217,新規,0,2025-06-24,2025-06-24,ｓａｄｉ株式会社,,株式会社,東京都,港区,西新橋３丁目１４番５号エラスムス虎ノ門３階,,13,103,1050003,,,,,,,2025-06-24,1,,,,,サディ,0
1231,6010401191225,新規,0,2025-06-24,2025-06-24,ＤＩＧコンサルティング株式会社,,株式会社,東京都,港区,芝大門１丁目１０番１１号,,13,103,1050012,,,,,,,2025-06-24,1,,,,,ディグコンサルティング,0
1236,6010501054273,新規,0,2025-06-24,2025-06-24,株式会社ラストライン,,株式会社,東京都,台東区,元浅草３丁目１８番１０号,,13,106,1110041,,,,,,,2025-06-24,1,,,,,ラストライン,0
1240,6010703007772,新規,0,2025-06-24,2025-06-24,Ｂｒｕｎｓｗｉｃｋ合同会社,,合同会社,東京都,品川区,上大崎１丁目２１番地１号パークアクシス白金台南２０４号,,13,109,1410021,,,,,,,2025-06-24,1,,,,,ブランズウィック,0
1243,6010801036293,新規,0,2025-06-24,2025-06-24,株式会社ヴォルテナ,,株式会社,東京都,大田区,山王２丁目５番６号,,13,111,1430023,,,,,,,2025-06-24,1,,,,,ヴォルテナ,0
1252,6011001170536,新規,0,2025-06-24,2025-06-24,株式会社バリューアセットパートナーズ,,株式会社,東京都,渋谷区,恵比寿西２丁目８番４号ＥＸ恵比寿西ビル５階,,13,113,1500021,,,,,,,2025-06-24,1,,,,,バリューアセットパートナーズ,0
1253,6011001170643,新規,0,2025-06-24,2025-06-24,株式会社Ｌｕｄｉｃａ,,株式会社,東京都,渋谷区,道玄坂１丁目１０番８号渋谷道玄坂東急ビル２Ｆ－Ｃ,,13,113,1500043,,,,,,,2025-06-24,1,,,,,ルーディカ,0
1261,6011301030662,新規,0,2025-06-24,2025-06-24,会計事務所アストライブ株式会社,,株式会社,東京都,杉並区,荻窪５丁目３０番６号福村産業荻窪ビル３階,,13,115,1670051,,,,,,,2025-06-24,1,,,,,カイケイジムショアストライブ,0
1264,6011701028447,新規,0,2025-06-24,2025-06-24,クラウドシンクロ株式会社,,株式会社,東京都,江戸川区,上一色３丁目８番６号平井ビル１Ｆ,,13,123,1330041,,,,,,,2025-06-24,1,,,,,クラウドシンクロ,0
1266,6012401043265,新規,0,2025-06-24,2025-06-24,株式会社こうら工業,,株式会社,東京都,調布市,深大寺北町１丁目９番地５,,13,208,1820011,,,,,,,2025-06-24,1,,,,,コウラコウギョウ,0
1270,6012701018933,新規,0,2025-06-24,2025-06-24,株式会社ＢｅｅｅＬｉｎｋ,,株式会社,東京都,東村山市,青葉町２丁目４０－６サンライズマンション青葉町２－３０３,,13,213,1890002,,,,,,,2025-06-24,1,,,,,ビーリンク,0
1275,6013103001461,新規,0,2025-06-24,2025-06-24,合同会社ｖａｒｉｏｕｓ　ｎｅｔ　ｗｏｒｋｓ,,合同会社,東京都,あきる野市,二宮１１３３番地７４,,13,228,1970814,,,,,,,2025-06-24,1,,,,,ヴァリオスネットワークス,0
1300,6030001167202,新規,0,2025-06-24,2025-06-24,株式会社エンバノン,,株式会社,埼玉県,川口市,大字藤兵衛新田１９番地の３,,11,203,3330803,,,,,,,2025-06-24,1,,,,,エンバノン,0
1303,6030003027057,新規,0,2025-06-24,2025-06-24,合同会社３ＲＡＩＮ　ＪＡＰＡＮ,,合同会社,埼玉県,川口市,幸町２丁目７番２６号,,11,203,3320016,,,,,,,2025-06-24,1,,,,,スリーレインジャパン,0
1314,6050003009375,新規,0,2025-06-24,2025-06-24,ＷＩＳＥ　ＡＵＴＯ合同会社,,合同会社,茨城県,下妻市,五箇２２１－２２７,,08,210,3040823,,,,,,,2025-06-24,1,,,,,ワイスオート,0
1324,6070001043060,新規,0,2025-06-24,2025-06-24,株式会社オートＪＰドリームズ,,株式会社,群馬県,渋川市,赤城町勝保沢７０５－１,,10,208,3791122,,,,,,,2025-06-24,1,,,,,オートジェイピードリームズ,0
1329,6080103003358,新規,0,2025-06-24,2025-06-24,合同会社あおい,,合同会社,静岡県,三島市,壱町田５番地の１９,,22,206,4110025,,,,,,,2025-06-24,1,,,,,アオイ,0
1330,6080401027991,新規,0,2025-06-24,2025-06-24,株式会社うっちぃカンパニー,,株式会社,静岡県,浜松市中央区,大平台３丁目２５番１７号,,22,138,4328068,,,,,,,2025-06-24,1,,,,,ウッチィカンパニー,0
1334,6110001039368,新規,0,2025-06-24,2025-06-24,株式会社ジュン,,株式会社,新潟県,新潟市中央区,笹口３番１３号アークハイム新潟６０２号,,15,103,9500911,,,,,,,2025-06-24,1,,,,,ジュン,0
1344,6120001277033,新規,0,2025-06-24,2025-06-24,株式会社Ｃｏ‐Ｐｌｕｓ‐Ｌａｂｏ,,株式会社,大阪府,大阪市中央区,備後町３丁目６番２号大雅ビル１０Ｆ,,27,128,5410051,,,,,,,2025-06-24,1,,,,,コープラスラボ,0
1345,6120001277157,新規,0,2025-06-24,2025-06-24,株式会社ひなた,,株式会社,大阪府,大阪市中央区,北浜３丁目１番２２号,,27,128,5410041,,,,,,,2025-06-24,1,,,,,ヒナタ,0
1346,6120001277181,新規,0,2025-06-24,2025-06-24,縁和株式会社,,株式会社,大阪府,大阪市浪速区,恵美須西３丁目１４番３８三輪荘,,27,111,5560003,,,,,,,2025-06-24,1,,,,,エンワ,0
1352,6120003029837,新規,0,2025-06-24,2025-06-24,クリーンアップサポート合同会社,,合同会社,大阪府,大阪市中央区,南船場３丁目２番２２号おおきに南船場ビル２０５,,27,128,5420081,,,,,,,2025-06-24,1,,,,,クリーンアップサポート,0
1360,6130001079965,新規,0,2025-06-24,2025-06-24,ＯＺＥＮ株式会社,,株式会社,京都府,京都市上京区,寺町通今出川上る２丁目鶴山町１１－７,,26,102,6020802,,,,,,,2025-06-24,1,,,,,オゼン,0
1361,6130003010556,新規,0,2025-06-24,2025-06-24,新万億合同会社,,合同会社,京都府,京都市中京区,烏丸通三条東入ル梅忠町２４三条ＣＯＨＪＵビル４Ｆ・５Ｆ,,26,104,6040000,,,,,,,2025-06-24,1,,,,,シンマンオク,0
1371,6140001139000,新規,0,2025-06-24,2025-06-24,株式会社慶,,株式会社,兵庫県,神戸市東灘区,御影１丁目１３番２７－６０２号,,28,101,6580047,,,,,,,2025-06-24,1,,,,,ケイ,0
1372,6140001139041,新規,0,2025-06-24,2025-06-24,株式会社ウェルスト工業,,株式会社,兵庫県,神戸市北区,鈴蘭台西町６丁目１８番１６号,,28,109,6511114,,,,,,,2025-06-24,1,,,,,ウェルストコウギョウ,0
1384,6160005011418,新規,0,2025-06-24,2025-06-24,労働者協同組合共同助産所お産子の家,,その他の設立登記法人,滋賀県,東近江市,八日市緑町１７番５号,,25,213,5270023,,,,,,,2025-06-24,1,,,,,キョウドウジョサンショオサンコノイエ,0
1385,6170002000653,新規,0,2025-06-24,2025-06-24,有限会社小上石油店,,有限会社,和歌山県,和歌山市,手平１丁目６番２１号,,30,201,6408319,,,,,,,2025-06-24,1,,,,,オガミセキユテン,0
1387,6180001167360,新規,0,2025-06-24,2025-06-24,株式会社ナンカ,,株式会社,愛知県,日進市,東山５丁目２０３番地,,23,230,4700116,,,,,,,2025-06-24,1,,,,,ナンカ,0
1388,6180001167377,新規,0,2025-06-24,2025-06-24,ＡＧＧホールディングス株式会社,,株式会社,愛知県,北名古屋市,徳重小崎１４番地フレストシティ徳重４０３号室,,23,234,4810038,,,,,,,2025-06-24,1,,,,,エージージーホールディングス,0
1389,6180001167402,新規,0,2025-06-24,2025-06-24,株式会社トラスト,,株式会社,愛知県,名古屋市名東区,引山２丁目１１１４番地の５,,23,115,4650002,,,,,,,2025-06-24,1,,,,,トラスト,0
1396,6180301039937,新規,0,2025-06-24,2025-06-24,株式会社陸王,,株式会社,愛知県,岡崎市,竜美南３丁目８番地１３,,23,202,4440874,,,,,,,2025-06-24,1,,,,,リクオウ,0
1399,6190003005088,新規,0,2025-06-24,2025-06-24,合同会社ミライユ,,合同会社,三重県,松阪市,大黒田町７９４番地１ＭＯ－ＶＩＩ１０１号,00139657,24,204,5150063,,,,,,,2025-06-24,1,,,,,ミライユ,0
1400,6200001043930,新規,0,2025-06-24,2025-06-24,株式会社ＴＵＪＩＹＡホールディングス,,株式会社,岐阜県,関市,本町５丁目２番地８,,21,205,5013886,,,,,,,2025-06-24,1,,,,,ツジヤホールディングス,0
1401,6200003006893,新規,0,2025-06-24,2025-06-24,合同会社シティ,,合同会社,岐阜県,可児市,徳野南２丁目８５番地,,21,214,5090205,,,,,,,2025-06-24,1,,,,,シティ,0
1403,6220001026751,新規,0,2025-06-24,2025-06-24,株式会社ＩＣＨＩ建築舎,,株式会社,石川県,小松市,古城町６０番地,,17,203,9230902,,,,,,,2025-06-24,1,,,,,イチケンチクシャ,0
1404,6230001020968,新規,0,2025-06-24,2025-06-24,アイリーン株式会社,,株式会社,富山県,富山市,星井町３丁目４番５‐１号,,16,201,9300065,,,,,,,2025-06-24,1,,,,,アイリーン,0
1408,6240001065104,新規,0,2025-06-24,2025-06-24,株式会社ＴＯＲＩＣＯ,,株式会社,広島県,広島市中区,薬研堀１番１５号１Ｆ,,34,101,7300027,,,,,,,2025-06-24,1,,,,,トリコ,0
1414,6240003007277,新規,0,2025-06-24,2025-06-24,合同会社サマサマ,,合同会社,広島県,東広島市,西条町西条東１２９９番地３（１２０３号）,,34,212,7390042,,,,,,,2025-06-24,1,,,,,サマサマ,0
1416,6260001040294,新規,0,2025-06-24,2025-06-24,株式会社ＶａｌＢｉｏ,,株式会社,岡山県,和気郡和気町,衣笠８９３番地,,33,346,7090441,,,,,,,2025-06-24,1,,,,,バルビオ,0
1417,6270001009223,新規,0,2025-06-24,2025-06-24,ネクスチャー株式会社,,株式会社,鳥取県,境港市,外江町１７３３番地１,,31,204,6840071,,,,,,,2025-06-24,1,,,,,ネクスチャー,0
1418,6290001110499,新規,0,2025-06-24,2025-06-24,Ｂ‐Ｌｉｆｅ株式会社,,株式会社,福岡県,久留米市,篠山町１２番地３－１Ｆ,,40,203,8300021,,,,,,,2025-06-24,1,,,,,ビーライフ,0
1423,6300001014244,新規,0,2025-06-24,2025-06-24,株式会社Ｍ‐ＲＥＭ,,株式会社,佐賀県,佐賀市,松原４丁目２番６号,,41,201,8400831,,,,,,,2025-06-24,1,,,,,エムレム,0
1428,6330003011071,新規,0,2025-06-24,2025-06-24,合同会社ａｌｉｖｉｏ,,合同会社,熊本県,合志市,須屋１６２４番地６,,43,216,8611102,,,,,,,2025-06-24,1,,,,,アリヴィオ,0
1430,6340001027449,新規,0,2025-06-24,2025-06-24,株式会社ＭＩＴＥＲＩ,,株式会社,鹿児島県,薩摩川内市,平佐町２７４３番地,,46,215,8950012,,,,,,,2025-06-24,1,,,,,ミテリ,0
1433,6360003015029,新規,0,2025-06-24,2025-06-24,ＧＡＫＵ合同会社,,合同会社,沖縄県,那覇市,古波蔵３丁目２－１－４０３,,47,201,9000024,,,,,,,2025-06-24,1,,,,,ガク,0
1437,6380003006075,新規,0,2025-06-24,2025-06-24,新世代不動産合同会社,,合同会社,福島県,いわき市,内郷御台境町鬼越１７１番地の１,,07,204,9738409,,,,,,,2025-06-24,1,,,,,シンセダイフドウサン,0
1445,6490001011090,新規,0,2025-06-24,2025-06-24,岡田建装社株式会社,,株式会社,高知県,高知市,北川添１８番２５号,,39,201,7810081,,,,,,,2025-06-24,1,,,,,オカダケンソウシャ,0
1450,6700150131238,新規,0,2025-06-24,2025-06-24,猟師塩浜自治会,,その他,三重県,松阪市,猟師町３４５－５４,,24,204,5150802,,,,,,,2025-06-24,1,,,,,リヨウシシオハマジチカイ,0
1461,7010001256047,新規,0,2025-06-24,2025-06-24,株式会社政治マーケティング研究所,,株式会社,東京都,千代田区,一番町１０番８号,,13,101,1020082,,,,,,,2025-06-24,1,,,,,セイジマーケティングケンキュウジョ,0
1462,7010001256138,新規,0,2025-06-24,2025-06-24,株式会社ニュークロップオーダー,,株式会社,東京都,千代田区,神田須田町１丁目７番８号ＶＯＲＴ秋葉原４－２Ｆ,,13,101,1010041,,,,,,,2025-06-24,1,,,,,ニュークロップオーダー,0
1463,7010001256179,新規,0,2025-06-24,2025-06-24,株式会社ｉｒｏｄｏｒｉ,,株式会社,東京都,中央区,日本橋３丁目２番１４号新槇町ビル別館第一２階,,13,102,1030027,,,,,,,2025-06-24,1,,,,,イロドリ,0
1464,7010001256195,新規,0,2025-06-24,2025-06-24,株式会社ＩＴＧ‐０２,,株式会社,東京都,千代田区,丸の内１丁目９番２号,,13,101,1000005,,,,,,,2025-06-24,1,,,,,アイティージーゼロニ,0
1465,7010001256237,新規,0,2025-06-24,2025-06-24,Ｌｅｍｏｏｌｉ株式会社,,株式会社,東京都,千代田区,神田佐久間町２丁目２２番地,,13,101,1010025,,,,,,,2025-06-24,1,,,,,レモンリ,0
1467,7010003047758,新規,0,2025-06-24,2025-06-24,合同会社ＯＭ名駅,,合同会社,東京都,中央区,日本橋１丁目４番１号日本橋一丁目ビルディング,,13,102,1030027,,,,,,,2025-06-24,1,,,,,オーエムメイエキ,0
1468,7010005040240,新規,0,2025-06-24,2025-06-24,一般社団法人ＬＶＣ４１号,,その他の設立登記法人,東京都,千代田区,紀尾井町３－８第２紀尾井町ビル９０１アクシス綜合会計事務所内,,13,101,1020094,,,,,,,2025-06-24,1,,,,,エルブイシーヨンジュウイチゴウ,0
1470,7010101016722,新規,0,2025-06-24,2025-06-24,Ｓａｐｐｈｉｒｅ株式会社,,株式会社,東京都,八王子市,大塚６２１－１１,,13,201,1920352,,,,,,,2025-06-24,1,,,,,サファイア,0
1474,7010401191174,新規,0,2025-06-24,2025-06-24,株式会社ＡＵＬＩ　ＨＯＬＤＩＮＧＳ,,株式会社,東京都,港区,麻布十番２丁目３番７号グリーンコート麻布十番３０３,,13,103,1060045,,,,,,,2025-06-24,1,,,,,アウリホールディングス,0
1475,7010403035420,新規,0,2025-06-24,2025-06-24,スティーム１９６０東京合同会社,,合同会社,東京都,港区,浜松町２丁目４番１号世界貿易センタービルディング南館１７階,,13,103,1050013,,,,,,,2025-06-24,1,,,,,スティームセンキュウヒャクロクジュウトウキョウ,0
1481,7010701047902,新規,0,2025-06-24,2025-06-24,ＣＨＮＯＰ　ＬＩＦＥ株式会社,,株式会社,東京都,品川区,上大崎１丁目１１番１７号,,13,109,1410021,,,,,,,2025-06-24,1,,,,,シノップライフ,0
1492,7011001170774,新規,0,2025-06-24,2025-06-24,ｉａｉ株式会社,,株式会社,東京都,渋谷区,道玄坂１丁目１０番８号渋谷道玄坂東急ビル２Ｆ－Ｃ,,13,113,1500043,,,,,,,2025-06-24,1,,,,,イアイ,0
1493,7011001170816,新規,0,2025-06-24,2025-06-24,株式会社聖都不動産,,株式会社,東京都,目黒区,三田２丁目１５番２号目黒ローヤルコーポ３０１,,13,110,1530062,,,,,,,2025-06-24,1,,,,,セイトフドウサン,0
1503,7011201026462,新規,0,2025-06-24,2025-06-24,株式会社サジェスト,,株式会社,東京都,中野区,江古田４丁目３６番１７号,,13,114,1650022,,,,,,,2025-06-24,1,,,,,サジェスト,0
1504,7011203004739,新規,0,2025-06-24,2025-06-24,Ｆｏｃｕｓ　Ｏｎｅ合同会社,,合同会社,東京都,中野区,江古田４丁目３６－１１グリーンスポット１０１,,13,114,1650022,,,,,,,2025-06-24,1,,,,,フォーカスワン,0
1507,7011403004737,新規,0,2025-06-24,2025-06-24,Ｔａｉｋｉ商事合同会社,,合同会社,東京都,板橋区,大山金井町５４番１５－１１０３号,,13,119,1730024,,,,,,,2025-06-24,1,,,,,タイキショウジ,0
1510,7011501032235,新規,0,2025-06-24,2025-06-24,Ｏｃｅａｎ　Ｓｔａｒ株式会社,,株式会社,東京都,荒川区,東日暮里３丁目２－１４ガーデンヒルズ東日暮里１０１－Ｆ,,13,118,1160014,,,,,,,2025-06-24,1,,,,,オシーンスター,0
1512,7011703004296,新規,0,2025-06-24,2025-06-24,Ｒ‐Ｔｈｒｅｅ合同会社,,合同会社,東京都,江戸川区,上篠崎３丁目８―２１,,13,123,1330054,,,,,,,2025-06-24,1,,,,,アールスリー,0
1521,7012403007201,新規,0,2025-06-24,2025-06-24,岡癶創処合同会社,,合同会社,東京都,調布市,入間町２丁目１番１５号パティオ仙川１０４,,13,208,1820004,,,,,,,2025-06-24,1,,,,,オカハッソウドコロ,0
1526,7012701018932,新規,0,2025-06-24,2025-06-24,株式会社Ｐｅｅｒ　Ｗｏｒｋ,,株式会社,東京都,清瀬市,下宿２丁目５０８番地７,,13,221,2040001,,,,,,,2025-06-24,1,,,,,ピアワーク,0
1527,7012801024038,新規,0,2025-06-24,2025-06-24,株式会社Ｇ‐ＺＥＲＯ,,株式会社,東京都,日野市,万願寺４丁目３０番地の２－５０１,,13,212,1910024,,,,,,,2025-06-24,1,,,,,ジーゼロ,0
1548,7030001167242,新規,0,2025-06-24,2025-06-24,株式会社ＱＮＹＡ,,株式会社,埼玉県,八潮市,大字伊勢野５６３番地１スターカレントＩ１０１,00139660,11,234,3400821,,,,,,,2025-06-24,1,,,,,クニャ,0
1549,7030001167291,新規,0,2025-06-24,2025-06-24,株式会社セブンドワーフ,,株式会社,埼玉県,上尾市,西宮下３丁目６１番地１,,11,219,3620043,,,,,,,2025-06-24,1,,,,,セブンドワーフ,0
1550,7030003027072,新規,0,2025-06-24,2025-06-24,ＡＱＵＡ　ＳＵＮ　ＴＥＡＭ合同会社,,合同会社,埼玉県,川口市,差間２丁目３８番２０号,,11,203,3330816,,,,,,,2025-06-24,1,,,,,アクアサンチーム,0
1559,7040003027831,新規,0,2025-06-24,2025-06-24,ＬＩＧＥＲ　ＷＯＲＬＤ合同会社,,合同会社,千葉県,柏市,高柳１５１０番地,,12,217,2770941,,,,,,,2025-06-24,1,,,,,ライガーワールド,0
1565,7060005010354,新規,0,2025-06-24,2025-06-24,農事組合法人宮ファーム,,その他の設立登記法人,栃木県,宇都宮市,竹林町４３３番地１ル・ボヌール２０２,,09,201,3210974,,,,,,,2025-06-24,1,,,,,ミヤファーム,0
1566,7070003005966,新規,0,2025-06-24,2025-06-24,ＳＨＡＮ　ＪＡＰＡＮ合同会社,,合同会社,群馬県,伊勢崎市,柴町３８６番地５,,10,204,3720824,,,,,,,2025-06-24,1,,,,,シャンジャパン,0
1567,7070005010403,新規,0,2025-06-24,2025-06-24,一般社団法人群馬県スケート連盟,,その他の設立登記法人,群馬県,前橋市,青柳町４７４番地２９,,10,201,3710056,,,,,,,2025-06-24,1,,,,,グンマケンスケートレンメイ,0
1569,7080101025576,新規,0,2025-06-24,2025-06-24,株式会社Ｚａ　Ｙｅｓ,,株式会社,静岡県,三島市,広小路町１番３９号,,22,206,4110856,,,,,,,2025-06-24,1,,,,,ザイエス,0
1570,7080401027990,新規,0,2025-06-24,2025-06-24,株式会社ＫＯＹＡＳＨＩ,,株式会社,静岡県,袋井市,山科２８８６番地の２,,22,216,4370066,,,,,,,2025-06-24,1,,,,,コヤシ,0
1574,7090001019347,新規,0,2025-06-24,2025-06-24,ＳＹＡ株式会社,,株式会社,山梨県,南都留郡富士河口湖町,小立１５４９番地,,19,430,4010302,,,,,,,2025-06-24,1,,,,,エスワイエー,0
1577,7100001038717,新規,0,2025-06-24,2025-06-24,株式会社日新,,株式会社,長野県,北安曇郡白馬村,大字北城１４９２０番地７９,,20,485,3999301,,,,,,,2025-06-24,1,,,,,ニッシン,0
1578,7100003008239,新規,0,2025-06-24,2025-06-24,合同会社ＶＡＸＩＳ,,合同会社,長野県,松本市,沢村２丁目２番３２－１号,,20,202,3900877,,,,,,,2025-06-24,1,,,,,ヴィアクシス,0
1580,7110003005796,新規,0,2025-06-24,2025-06-24,合同会社ＡＲＥＳＴＡ,,合同会社,新潟県,新潟市中央区,鐙西２丁目２５番９号,,15,103,9500915,,,,,,,2025-06-24,1,,,,,アレスタ,0
1591,7120001277081,新規,0,2025-06-24,2025-06-24,株式会社結成弄,,株式会社,大阪府,大阪市中央区,南船場３丁目２番２２号おおきに南船場ビル２０５,,27,128,5420081,,,,,,,2025-06-24,1,,,,,ユイナイラ,0
1594,7120003029811,新規,0,2025-06-24,2025-06-24,合同会社関西オートレンタル,,合同会社,大阪府,門真市,末広町３４番２９－３０６号,,27,223,5710030,,,,,,,2025-06-24,1,,,,,カンサイオートレンタル,0
1595,7120003029844,新規,0,2025-06-24,2025-06-24,合同会社ＴＤＳクリエイトラボ,,合同会社,大阪府,大阪市北区,梅田１丁目２番２号大阪駅前第２ビル１２－１２,,27,127,5300001,,,,,,,2025-06-24,1,,,,,ティーディーエスクリエイトラボ,0
1612,7130001079948,新規,0,2025-06-24,2025-06-24,株式会社ｋｏｎｇ,,株式会社,京都府,京都市右京区,西院北矢掛町３６番地１５・１階,,26,108,6150026,,,,,,,2025-06-24,1,,,,,コング,0
1613,7130001079956,新規,0,2025-06-24,2025-06-24,株式会社葉隠堂,,株式会社,京都府,京都市左京区,岩倉中河原町１４４番地,,26,103,6060018,,,,,,,2025-06-24,1,,,,,ハガクレドウ,0
1616,7130005017391,新規,0,2025-06-24,2025-06-24,一般社団法人京縁信興会,,その他の設立登記法人,京都府,京都市伏見区,深草柴田屋敷町６３番地,,26,109,6128432,,,,,,,2025-06-24,1,,,,,キョウエンシンコウカイ,0
1620,7140003022236,新規,0,2025-06-24,2025-06-24,合同会社サブスクテニス同好会,,合同会社,兵庫県,芦屋市,公光町４－２８芦屋市商工会館１Ｆ,00139659,28,206,6590065,,,,,,,2025-06-24,1,,,,,サブスクテニスドウコウカイ,0
1621,7140005027547,新規,0,2025-06-24,2025-06-24,一般社団法人北はりまデジタルキャンパス,,その他の設立登記法人,兵庫県,加東市,河高４００４番地,,28,228,6790221,,,,,,,2025-06-24,1,,,,,キタハリマデジタルキャンパス,0
1623,7180001167351,新規,0,2025-06-24,2025-06-24,株式会社トライデント,,株式会社,愛知県,春日井市,下屋敷町１丁目３番地１３メゾンウィング２０５号,,23,206,4860906,,,,,,,2025-06-24,1,,,,,トライデント,0
1624,7180001167401,新規,0,2025-06-24,2025-06-24,株式会社マヒロト,,株式会社,愛知県,名古屋市北区,桐畑町１５６番地,,23,103,4620003,,,,,,,2025-06-24,1,,,,,マヒロト,0
1625,7180001167418,新規,0,2025-06-24,2025-06-24,株式会社永遠ＴＴＯＷＡ,,株式会社,愛知県,名古屋市中区,丸の内３丁目４番２２号,,23,106,4600002,,,,,,,2025-06-24,1,,,,,エイエントワ,0
1632,7200001043905,新規,0,2025-06-24,2025-06-24,株式会社桐組,,株式会社,岐阜県,大垣市,綾野１丁目１４０番地１,,21,202,5030984,,,,,,,2025-06-24,1,,,,,,0
1637,7230001020967,新規,0,2025-06-24,2025-06-24,株式会社ピクセルフォージ,,株式会社,富山県,富山市,経堂新町２番地９２,,16,201,9300956,,,,,,,2025-06-24,1,,,,,ピクセルフォージ,0
1640,7240001065103,新規,0,2025-06-24,2025-06-24,ＭＳＴ株式会社,,株式会社,広島県,東広島市,西条岡町１番１７－１００２号,,34,212,7390016,,,,,,,2025-06-24,1,,,,,エムエスティー,0
1642,7250001021204,新規,0,2025-06-24,2025-06-24,株式会社ＳｐａｔｉａｌＴｅｃｈ,,株式会社,山口県,宇部市,大字西岐波区宇部臨空頭脳パーク１番,,35,202,7550151,,,,,,,2025-06-24,1,,,,,スペーシャルテック,0
1648,7280001009444,新規,0,2025-06-24,2025-06-24,Ｐｅｒｅｎｎ株式会社,,株式会社,島根県,益田市,幸町１番３８号,,32,204,6980021,,,,,,,2025-06-24,1,,,,,ペレン,0
1654,7290001110498,新規,0,2025-06-24,2025-06-24,株式会社ＴＥＣＴＲＡ,,株式会社,福岡県,福岡市中央区,荒戸１丁目１番８－４０１号,,40,133,8100062,,,,,,,2025-06-24,1,,,,,テクトラ,0
1655,7290001110507,新規,0,2025-06-24,2025-06-24,リージョンエイド株式会社,,株式会社,福岡県,福岡市博多区,博多駅前１丁目１５番２０号ＮＭＦ博多駅前ビル２階,,40,132,8120011,,,,,,,2025-06-24,1,,,,,リージョンエイド,0
1656,7290001110515,新規,0,2025-06-24,2025-06-24,株式会社ＡＩＷＡ　Ｄｉｇｉｔａｌ　Ｌａｂｓ,,株式会社,福岡県,福岡市博多区,綱場町１番１号Ｄ－ＬＩＦＥＰＬＡＣＥ呉服町５階,,40,132,8120024,,,,,,,2025-06-24,1,,,,,アイワデジタルラボ,0
1660,7300001014235,新規,0,2025-06-24,2025-06-24,株式会社フタガミ,,株式会社,佐賀県,伊万里市,伊万里町甲４１０番地１,,41,205,8480047,,,,,,,2025-06-24,1,,,,,フタガミ,0
1663,7330001033323,新規,0,2025-06-24,2025-06-24,株式会社マルヤマ,,株式会社,熊本県,菊池市,野間口３０９番地１,,43,210,8611324,,,,,,,2025-06-24,1,,,,,マルヤマ,0
1667,7340001027448,新規,0,2025-06-24,2025-06-24,株式会社叶心工業,,株式会社,鹿児島県,鹿児島市,桜島横山町１７２２番地１市営袴腰住宅７０１号,,46,201,8911419,,,,,,,2025-06-24,1,,,,,キョウシンコウギョウ,0
1668,7340001027456,新規,0,2025-06-24,2025-06-24,株式会社可能性アカデミー鹿児島,,株式会社,鹿児島県,鹿児島市,東谷山１丁目４３番１０号フルール園田１０３号,,46,201,8910113,,,,,,,2025-06-24,1,,,,,カノウセイアカデミーカゴシマ,0
1673,7360001035374,新規,0,2025-06-24,2025-06-24,株式会社ＨＩＫＡＲＩ,,株式会社,沖縄県,うるま市,与那城平安座９３番地,,47,213,9042426,,,,,,,2025-06-24,1,,,,,ヒカリ,0
1684,7420003003141,新規,0,2025-06-24,2025-06-24,合同会社Ｓｔｅｌｌａ,,合同会社,青森県,青森市,古川２丁目２０－２２,,02,201,0300862,,,,,,,2025-06-24,1,,,,,ステラ,0
1686,7430001094710,新規,0,2025-06-24,2025-06-24,株式会社北勇,,株式会社,北海道,札幌市北区,あいの里一条３丁目３－２２,,01,102,0028071,,,,,,,2025-06-24,1,,,,,ホクユウ,0
1687,7430001094719,新規,0,2025-06-24,2025-06-24,株式会社ＥＩコーポレーション,,株式会社,北海道,札幌市中央区,大通西１５丁目２番地１ラスコム１５ビル,,01,101,0600042,,,,,,,2025-06-24,1,,,,,イーアイコーポレーション,0
1692,7500001026359,新規,0,2025-06-24,2025-06-24,株式会社Ｆｒｅｊｕｎｏ,,株式会社,愛媛県,松山市,井門町５５１番地５,,38,201,7911114,,,,,,,2025-06-24,1,,,,,フレジュノ,0
1696,8010001256104,新規,0,2025-06-24,2025-06-24,Ｍ＆Ａソーシングパートナーズ株式会社,,株式会社,東京都,中央区,銀座１丁目１２番４号Ｎ＆ＥＢＬＤ．６階,,13,102,1040061,,,,,,,2025-06-24,1,,,,,エムアンドエーソーシングパートナーズ,0
1697,8010001256112,新規,0,2025-06-24,2025-06-24,立里株式会社,,株式会社,東京都,中央区,日本橋３丁目１３番６号－５階,,13,102,1030027,,,,,,,2025-06-24,1,,,,,リツリ,0
1698,8010001256120,新規,0,2025-06-24,2025-06-24,チェアマンオフィスジャパン株式会社,,株式会社,東京都,中央区,日本橋兜町１７番１の７０６号室,,13,102,1030026,,,,,,,2025-06-24,1,,,,,チェアマンオフィスジャパン,0
1700,8010003047798,新規,0,2025-06-24,2025-06-24,クレビー合同会社,,合同会社,東京都,中央区,銀座２丁目１０番８号マニエラ銀座ビル４階,,13,102,1040061,,,,,,,2025-06-24,1,,,,,クレビー,0
1701,8010005040231,新規,0,2025-06-24,2025-06-24,一般社団法人ＺＡＳ０２,,その他の設立登記法人,東京都,千代田区,霞が関３丁目２番５号,,13,101,1000013,,,,,,,2025-06-24,1,,,,,ザスゼロニ,0
1713,8010401191248,新規,0,2025-06-24,2025-06-24,株式会社ＬＵＰＲＯ,,株式会社,東京都,港区,北青山１丁目３－３三橋ビル３階,,13,103,1070061,,,,,,,2025-06-24,1,,,,,ルプロ,0
1721,8010701047918,新規,0,2025-06-24,2025-06-24,株式会社ヤマキン,,株式会社,東京都,品川区,八潮３丁目２番２２号日本運輸倉庫４Ｆ,,13,109,1400003,,,,,,,2025-06-24,1,,,,,ヤマキン,0
1724,8010801036267,新規,0,2025-06-24,2025-06-24,株式会社ＵＲＢＡＮ,,株式会社,東京都,大田区,大森東４丁目２９番９号,,13,111,1430012,,,,,,,2025-06-24,1,,,,,アーバン,0
1734,8011001170303,新規,0,2025-06-24,2025-06-24,ハドロン株式会社,,株式会社,東京都,渋谷区,道玄坂１丁目１０番８号渋谷道玄坂東急ビル２Ｆ－Ｃ,,13,113,1500043,,,,,,,2025-06-24,1,,,,,ハドロン,0
1735,8011001170352,新規,0,2025-06-24,2025-06-24,株式会社Ｃｏｅｘｉｓｔ,,株式会社,東京都,目黒区,祐天寺１丁目２３－２４,,13,110,1530052,,,,,,,2025-06-24,1,,,,,コエジグスト,0
1736,8011001170360,新規,0,2025-06-24,2025-06-24,株式会社Ｋ＆Ｍ建築設計室,,株式会社,東京都,渋谷区,初台１丁目４３－１３Ｃｏｎｔｅｌ初台ＩＩ１０１,00139658,13,113,1510061,,,,,,,2025-06-24,1,,,,,ケーアンドエムケンセツセッケイシツ,0
1737,8011001170732,新規,0,2025-06-24,2025-06-24,株式会社ビジネスソリューションズ,,株式会社,東京都,渋谷区,代々木２丁目２３－１,,13,113,1510053,,,,,,,2025-06-24,1,,,,,ビジネスソリューションズ,0
1738,8011003021982,新規,0,2025-06-24,2025-06-24,合同会社ＯＭ,,合同会社,東京都,目黒区,目黒１丁目９番４－１１３号オーベル目黒,,13,110,1530063,,,,,,,2025-06-24,1,,,,,オーエム,0
1748,8011201026461,新規,0,2025-06-24,2025-06-24,株式会社ＭＡＴＣＨＡ　ＴＩＭＥＳ,,株式会社,東京都,中野区,本町２丁目４番１１号,,13,114,1640012,,,,,,,2025-06-24,1,,,,,マッチャタイムス,0
1751,8011401027185,新規,0,2025-06-24,2025-06-24,錦途株式会社,,株式会社,東京都,板橋区,大谷口２丁目４９番７号３０３号室,,13,119,1730035,,,,,,,2025-06-24,1,,,,,ニシキミチ,0
1755,8011703004287,新規,0,2025-06-24,2025-06-24,合同会社ＫＵＢＯＳ,,合同会社,東京都,江戸川区,一之江７丁目５番５号,,13,123,1320024,,,,,,,2025-06-24,1,,,,,クボス,0
1756,8012401043255,新規,0,2025-06-24,2025-06-24,株式会社ＡＲＣＨＩ　ＣＡＰＴＵＲＥ,,株式会社,東京都,府中市,寿町１丁目７番地の２０－３０３,,13,206,1830056,,,,,,,2025-06-24,1,,,,,アーキキャプチャ,0
1757,8012401043263,新規,0,2025-06-24,2025-06-24,寶林株式会社,,株式会社,東京都,府中市,幸町１丁目２－１４－３０６室,,13,206,1830054,,,,,,,2025-06-24,1,,,,,ホウリン,0
1758,8012701018931,新規,0,2025-06-24,2025-06-24,株式会社山叶,,株式会社,東京都,西東京市,田無町２丁目１９番３号,,13,229,1880011,,,,,,,2025-06-24,1,,,,,ヤマカ,0
1761,8012801024053,新規,0,2025-06-24,2025-06-24,株式会社グリーンランド,,株式会社,東京都,日野市,多摩平５丁目５番６号,,13,212,1910062,,,,,,,2025-06-24,1,,,,,グリーンランド,0
1788,8030001167299,新規,0,2025-06-24,2025-06-24,株式会社一歩輝,,株式会社,埼玉県,熊谷市,広瀬４４０番地７,,11,202,3600833,,,,,,,2025-06-24,1,,,,,イブキ,0
1792,8030003027055,新規,0,2025-06-24,2025-06-24,合同会社みるみるの木,,合同会社,埼玉県,蓮田市,関山２丁目５番６号,,11,238,3490121,,,,,,,2025-06-24,1,,,,,ミルミルノキ,0
1794,8040001139330,新規,0,2025-06-24,2025-06-24,ＮＳ　ＴＲＡＤＩＮＧ株式会社,,株式会社,千葉県,野田市,上花輪新町３８番地の３２,,12,208,2780034,,,,,,,2025-06-24,1,,,,,エヌエストレーディング,0
1801,8050001056839,新規,0,2025-06-24,2025-06-24,株式会社グリーンノーツ,,株式会社,茨城県,笠間市,笠間２６１１番地,,08,216,3091611,,,,,,,2025-06-24,1,,,,,グリーンノーツ,0
1803,8050003009373,新規,0,2025-06-24,2025-06-24,合同会社ＢＡＳＨＩＲ　ＡＵＴＯ　ＴＲＡＤＩＮＧ,,合同会社,茨城県,坂東市,庄右衛門新田６０８番地３,,08,228,3060614,,,,,,,2025-06-24,1,,,,,バシルオートトレイディング,0
1810,8080005007703,新規,0,2025-06-24,2025-06-24,ＮＰＯ法人ＰＴＡ＆Ｃｏぴったんこ,,その他の設立登記法人,静岡県,静岡市清水区,船越６４８番地の７,,22,103,4240866,,,,,,,2025-06-24,1,,,,,ピーティーエーアンドシーオーピッタンコ,0
1818,8110003005795,新規,0,2025-06-24,2025-06-24,合同会社ヒライ電装サービス,,合同会社,新潟県,新潟市東区,臨港１丁目６番８号８,,15,102,9500043,,,,,,,2025-06-24,1,,,,,ヒライデンソウサービス,0
1837,8120001277097,新規,0,2025-06-24,2025-06-24,株式会社ブライトアップ,,株式会社,大阪府,大阪市淀川区,西宮原１丁目８番３３号,,27,123,5320004,,,,,,,2025-06-24,1,,,,,ブライトアップ,0
1838,8120001277114,新規,0,2025-06-24,2025-06-24,艾佳株式会社,,株式会社,大阪府,大阪市中央区,難波１丁目９番１１号７Ｆ,,27,128,5420076,,,,,,,2025-06-24,1,,,,,アイカ,0
1839,8120001277139,新規,0,2025-06-24,2025-06-24,Ｈｅｎｏｎ株式会社,,株式会社,大阪府,大阪市中央区,南船場３丁目２番２２号おおきに南船場ビル２０５,,27,128,5420081,,,,,,,2025-06-24,1,,,,,エノン,0
1840,8120001277155,新規,0,2025-06-24,2025-06-24,株式会社ニュードリーム,,株式会社,大阪府,大阪市北区,大深町３番４０－２８０５号,,27,127,5300011,,,,,,,2025-06-24,1,,,,,ニュードリーム,0
1841,8120001277163,新規,0,2025-06-24,2025-06-24,株式会社ベリクリーンエア,,株式会社,大阪府,大阪市住之江区,御崎２丁目７番６号,,27,125,5590013,,,,,,,2025-06-24,1,,,,,ベリクリーンエア,0
1846,8120103006528,新規,0,2025-06-24,2025-06-24,合同会社牛一途,,合同会社,大阪府,羽曳野市,野々上４丁目１番地９号,,27,222,5830871,,,,,,,2025-06-24,1,,,,,ウシイチズ,0
1852,8130001079955,新規,0,2025-06-24,2025-06-24,イデアリース＆コンサルティング株式会社,,株式会社,京都府,京都市上京区,河原町通今出川上る青龍町２５２番地,,26,102,6020822,,,,,,,2025-06-24,1,,,,,イデアリースアンドコンサルティング,0
1864,8160003003497,新規,0,2025-06-24,2025-06-24,合同会社ハウスソー,,合同会社,滋賀県,彦根市,平田町１０５－１５,,25,202,5220041,,,,,,,2025-06-24,1,,,,,ハウスソー,0
1871,8180001167334,新規,0,2025-06-24,2025-06-24,リナーリ株式会社,,株式会社,愛知県,名古屋市中区,栄２丁目２番１号,,23,106,4600008,,,,,,,2025-06-24,1,,,,,リナーリ,0
1872,8180001167350,新規,0,2025-06-24,2025-06-24,コネクトトーカイ株式会社,,株式会社,愛知県,あま市,下萱津蓮池４４番地１シーズンコート甚目寺４０８,,23,237,4901114,,,,,,,2025-06-24,1,,,,,コネクトトーカイ,0
1873,8180001167391,新規,0,2025-06-24,2025-06-24,株式会社Ｋ‐ｃｒａｆｔ,,株式会社,愛知県,春日井市,四ツ家町字四ツ家１２６番地３,,23,206,4860909,,,,,,,2025-06-24,1,,,,,ケークラフト,0
1874,8180001167400,新規,0,2025-06-24,2025-06-24,株式会社ＹＫ　ＩＮＴＥＲＮＡＴＩＯＮＡＬ,,株式会社,愛知県,名古屋市中村区,名駅４丁目２４番１６号,,23,105,4500002,,,,,,,2025-06-24,1,,,,,ワイケイインターナショナル,0
1875,8180001167417,新規,0,2025-06-24,2025-06-24,和ごころ株式会社,,株式会社,愛知県,名古屋市昭和区,陶生町２丁目２１番地の２,,23,107,4660026,,,,,,,2025-06-24,1,,,,,ワゴコロ,0
1881,8190003005086,新規,0,2025-06-24,2025-06-24,合同会社ぽかぽか,,合同会社,三重県,四日市市,小古曽６丁目１５番１号,,24,202,5100958,,,,,,,2025-06-24,1,,,,,ポカポカ,0
1884,8200001043929,新規,0,2025-06-24,2025-06-24,株式会社松葉工務店,,株式会社,岐阜県,各務原市,蘇原月丘町２丁目４４番地,,21,213,5040903,,,,,,,2025-06-24,1,,,,,マツバコウムテン,0
1885,8200001043937,新規,0,2025-06-24,2025-06-24,株式会社ティースリー,,株式会社,岐阜県,揖斐郡揖斐川町,谷汲大洞８０９番地１,00139669,21,401,5011312,,,,,,,2025-06-24,1,,,,,ティースリー,0
1893,8290001110497,新規,0,2025-06-24,2025-06-24,株式会社ワイエフホーム,,株式会社,福岡県,福岡市西区,今宿上ノ原２１７番地３,,40,135,8190163,,,,,,,2025-06-24,1,,,,,ワイエフホーム,0
1894,8290001110506,新規,0,2025-06-24,2025-06-24,Ｙ３インフィニス株式会社,,株式会社,福岡県,糟屋郡粕屋町,内橋西２丁目１６番７号,,40,349,8112321,,,,,,,2025-06-24,1,,,,,ワイスリーインフィニス,0
1895,8290001110522,新規,0,2025-06-24,2025-06-24,株式会社ＣＯＰＡＳ,,株式会社,福岡県,福岡市南区,野間１丁目１７番１７号ソリーナマンション野間１０２,,40,134,8150041,,,,,,,2025-06-24,1,,,,,コパス,0
1898,8290801031645,新規,0,2025-06-24,2025-06-24,株式会社セントラル,,株式会社,福岡県,北九州市門司区,大里戸ノ上１丁目４番２７号,,40,101,8000024,,,,,,,2025-06-24,1,,,,,セントラル,0
1900,8300001014242,新規,0,2025-06-24,2025-06-24,株式会社Ｒｅ　Ｒａｎｋ,,株式会社,佐賀県,三養基郡みやき町,大字原古賀７４７番地５,,41,346,8490101,,,,,,,2025-06-24,1,,,,,リランク,0
1915,8370001052723,新規,0,2025-06-24,2025-06-24,株式会社ＲｉＧｒｏ,,株式会社,宮城県,仙台市青葉区,一番町４丁目２番１３号エビスヤビル３Ｆ,,04,101,9800811,,,,,,,2025-06-24,1,,,,,リグロ,0
1921,8390005009123,新規,0,2025-06-24,2025-06-24,一般社団法人メグリバ,,その他の設立登記法人,山形県,西置賜郡小国町,大字西２３番地,,06,401,9991355,,,,,,,2025-06-24,1,,,,,メグリバ,0
1928,8470003002906,新規,0,2025-06-24,2025-06-24,合同会社ＫＡＰＩ,,合同会社,香川県,仲多度郡琴平町,榎井７９８番地４,,37,403,7660004,,,,,,,2025-06-24,1,,,,,ケーエーピーアイ,0
1931,8700150131120,新規,0,2025-06-24,2025-06-19,松江スポーツコミッション,,その他,島根県,松江市,末次町８６,,32,201,6900846,,,,,,,2025-06-19,1,,,,,マツエスポーツコミツシヨン,0
1940,9010001256045,新規,0,2025-06-24,2025-06-24,元嘉株式会社,,株式会社,東京都,中央区,日本橋２丁目２－２０リムビル２階,,13,102,1030027,,,,,,,2025-06-24,1,,,,,モトカ,0
1941,9010001256103,新規,0,2025-06-24,2025-06-24,株式会社ＺｅｎＳｅａｒｃｈ,,株式会社,東京都,中央区,銀座１丁目１２番４号Ｎ＆ＥＢＬＤ．６Ｆ,,13,102,1040061,,,,,,,2025-06-24,1,,,,,ゼンサーチ,0
1942,9010001256152,新規,0,2025-06-24,2025-06-24,株式会社ライアン,,株式会社,東京都,中央区,銀座３丁目１１番２号,,13,102,1040061,,,,,,,2025-06-24,1,,,,,ライアン,0
1943,9010003047797,新規,0,2025-06-24,2025-06-24,アディック合同会社,,合同会社,東京都,中央区,銀座２丁目１０番８号マニエラ銀座ビル４階,,13,102,1040061,,,,,,,2025-06-24,1,,,,,アディック,0
1945,9010005040239,新規,0,2025-06-24,2025-06-24,一般社団法人ＬＶＣ４０号,,その他の設立登記法人,東京都,千代田区,紀尾井町３－８第２紀尾井町ビル９０１アクシス綜合会計事務所内,,13,101,1020094,,,,,,,2025-06-24,1,,,,,エルブイシーヨンジュウゴウ,0
1949,9010403035419,新規,0,2025-06-24,2025-06-24,Ｇａｍｍａ　Ｔｅｃｈｎｏｌｏｇｉｅｓ合同会社,,合同会社,東京都,港区,赤坂２丁目２３番１号アークヒルズ・フロントタワーＲｏＰ８０６号,,13,103,1070052,,,,,,,2025-06-24,1,,,,,ガンマテクノロジーズ,0
1950,9010403035435,新規,0,2025-06-24,2025-06-24,ゼリア合同会社,,合同会社,東京都,港区,六本木１丁目９番１０号アークヒルズ仙石山森タワー４０階,,13,103,1060032,,,,,,,2025-06-24,1,,,,,ゼリア,0
1951,9010501054287,新規,0,2025-06-24,2025-06-24,浩岳通覧株式会社,,株式会社,東京都,台東区,三ノ輪１丁目１番１－９０３号クレヴィスタ三ノ輪,,13,106,1100011,,,,,,,2025-06-24,1,,,,,コウガクツウラン,0
1960,9010701047842,新規,0,2025-06-24,2025-06-24,株式会社ＧＲＥＸ,,株式会社,東京都,品川区,二葉４丁目１番２０号ＭＣ中延ビル３階,,13,109,1420043,,,,,,,2025-06-24,1,,,,,ジーレックス,0
1961,9010701047867,新規,0,2025-06-24,2025-06-24,ＡｃｎｉＸ株式会社,,株式会社,東京都,品川区,東五反田４丁目１０－９シャトレー五反田ビル２Ｆ－Ｄ,,13,109,1410022,,,,,,,2025-06-24,1,,,,,アクニックス,0
1962,9010701047891,新規,0,2025-06-24,2025-06-24,株式会社ＮＯＢＬＥ,,株式会社,東京都,品川区,上大崎２丁目２４番１－７０２号,,13,109,1410021,,,,,,,2025-06-24,1,,,,,ノーブル,0
1963,9010701047900,新規,0,2025-06-24,2025-06-24,株式会社Ｄｅａｒ,,株式会社,東京都,品川区,上大崎３丁目５番２号ＲＥＩＤ－Ｃ目黒イーストビル,,13,109,1410021,,,,,,,2025-06-24,1,,,,,ディアー,0
1966,9010801036290,新規,0,2025-06-24,2025-06-24,株式会社ＫＯＵＷＡＢＵＳＳＡＮ,,株式会社,東京都,大田区,山王２丁目２５番９号,,13,111,1430023,,,,,,,2025-06-24,1,,,,,コウワブッサン,0
1977,9011001170558,新規,0,2025-06-24,2025-06-24,株式会社ザ・シナリオアート,,株式会社,東京都,渋谷区,道玄坂１丁目１０番８号渋谷道玄坂東急ビル２Ｆ－Ｃ,,13,113,1500043,,,,,,,2025-06-24,1,,,,,ザシナリオアート,0
1978,9011001170748,新規,0,2025-06-24,2025-06-24,株式会社エアロステージ,,株式会社,東京都,渋谷区,神南１丁目１１―４ＦＰＧリンクス神南５階,,13,113,1500041,,,,,,,2025-06-24,1,,,,,エアロステージ,0
1982,9011003021981,新規,0,2025-06-24,2025-06-24,合同会社Ｐｌｅｉａｄｅｓ　Ｃｏｎｓｕｌｔｉｎｇ,,合同会社,東京都,渋谷区,恵比寿西２丁目８番４号ＥＸ恵比寿西ビル５階,,13,113,1500021,,,,,,,2025-06-24,1,,,,,プレアデスコンサルティング,0
1985,9011103016056,新規,0,2025-06-24,2025-06-24,合同会社ＯＮＥ　ｓｅｎｓｅ,,合同会社,東京都,新宿区,新宿２丁目１４番１３号筒井ビル３０１,,13,104,1600022,,,,,,,2025-06-24,1,,,,,ワンセンス,0
1986,9011201026460,新規,0,2025-06-24,2025-06-24,株式会社ＩＰＡ,,株式会社,東京都,中野区,新井４丁目２６番２－３０２号,,13,114,1650026,,,,,,,2025-06-24,1,,,,,アイピーエー,0
1987,9011301030668,新規,0,2025-06-24,2025-06-24,株式会社ＳＮＯＫ２,,株式会社,東京都,杉並区,荻窪１丁目２２番６号,,13,115,1670051,,,,,,,2025-06-24,1,,,,,スノックツー,0
1991,9011701028444,新規,0,2025-06-24,2025-06-24,株式会社Ｒｅｉ,,株式会社,東京都,江戸川区,江戸川６丁目１７－１１Ａｍａｎｅｃｅｒ２０６,,13,123,1340013,,,,,,,2025-06-24,1,,,,,レイ,0
1993,9011801046354,新規,0,2025-06-24,2025-06-24,株式会社ゴールドスミス,,株式会社,東京都,足立区,千住５丁目３番３号,,13,121,1200034,,,,,,,2025-06-24,1,,,,,ゴールドスミス,0
1997,9012405005127,新規,0,2025-06-24,2025-06-24,一般社団法人インターナショナルオリジナルポスター協会,,その他の設立登記法人,東京都,武蔵野市,吉祥寺北町３丁目１５番２１号,,13,203,1800001,,,,,,,2025-06-24,1,,,,,インターナショナルオリジナルポスターキョウカイ,0
1999,9012703003303,新規,0,2025-06-24,2025-06-24,笑百屋合同会社,,合同会社,東京都,東村山市,萩山町３丁目２２－２０－２０５,,13,213,1890012,,,,,,,2025-06-24,1,,,,,エモヤ,0
2007,9013303007735,新規,0,2025-06-24,2025-06-24,合同会社ＲＰＣ,,合同会社,東京都,豊島区,高松２丁目４５番１４号,,13,116,1710042,,,,,,,2025-06-24,1,,,,,アールピーシー,0
2028,9030001167208,新規,0,2025-06-24,2025-06-24,株式会社ＡＬＬ１‐ｃｉｒｃｌｅ,,株式会社,埼玉県,狭山市,大字青柳水窪６９１－１,,11,215,3501301,,,,,,,2025-06-24,1,,,,,オールイチサークル,0
2042,9050001056838,新規,0,2025-06-24,2025-06-24,株式会社ジェイアイ,,株式会社,茨城県,日立市,田尻町６丁目９番１号,,08,202,3191416,,,,,,,2025-06-24,1,,,,,ジェイアイ,0
2071,9120001277088,新規,0,2025-06-24,2025-06-24,富安株式会社,,株式会社,大阪府,大阪市港区,波除４丁目１番１４－１２０９号,,27,107,5520001,,,,,,,2025-06-24,1,,,,,トミヤス,0
2072,9120001277105,新規,0,2025-06-24,2025-06-24,株式会社ＮｅｋｏＦｌｅｘ,,株式会社,大阪府,大阪市城東区,東中浜１丁目１番１１号,,27,118,5360023,,,,,,,2025-06-24,1,,,,,ネコフレクス,0
2075,9120003029834,新規,0,2025-06-24,2025-06-24,合同会社ＩＮＢ,,合同会社,大阪府,大阪市西区,本田２丁目５番２４－１１１１号,,27,106,5500022,,,,,,,2025-06-24,1,,,,,イナバ,0
2076,9120003029842,新規,0,2025-06-24,2025-06-24,合同会社ｍａｍａｔｏ,,合同会社,大阪府,大阪市北区,紅梅町１－２２－８０１,,27,127,5300038,,,,,,,2025-06-24,1,,,,,ママト,0
2077,9120005024998,新規,0,2025-06-24,2025-06-24,一般財団法人ＧＯＤＳＥＡＬ財団,,その他の設立登記法人,大阪府,大阪市北区,長柄東２丁目１番２２－１１０３号,,27,127,5310063,,,,,,,2025-06-24,1,,,,,ゴッドシールザイダン,0
2084,9120901051096,新規,0,2025-06-24,2025-06-24,Ｍｏｇｕ　Ｌｉｎｋ　Ｊａｐａｎ株式会社,,株式会社,大阪府,茨木市,駅前１丁目９番２１号,,27,211,5670888,,,,,,,2025-06-24,1,,,,,モグリンクジャパン,0
2086,9130001079954,新規,0,2025-06-24,2025-06-24,なのは株式会社,,株式会社,京都府,京都市南区,上鳥羽苗代町１－２メゾンブランシュＢ４０３,,26,107,6018111,,,,,,,2025-06-24,1,,,,,ナノハ,0
2087,9130001079970,新規,0,2025-06-24,2025-06-24,株式会社ＧＥＥＹＡ,,株式会社,京都府,京都市上京区,一番町１０７－２１－１０１京都北野レジデンス３０３,,26,102,6028345,,,,,,,2025-06-24,1,,,,,ジーヤ,0
2098,9140001139006,新規,0,2025-06-24,2025-06-24,株式会社Ｃｈｅｖａｌ　Ａｉｌｅ,,株式会社,兵庫県,神戸市中央区,中山手通４丁目３－５ＯＴＯＷＡ神戸元町１３０６号室,,28,110,6500004,,,,,,,2025-06-24,1,,,,,シュヴァルエレ,0
2105,9160001026854,新規,0,2025-06-24,2025-06-24,株式会社ＹＮ‐ａｆｒｏ,,株式会社,滋賀県,野洲市,西河原２９２番地１,,25,210,5202423,,,,,,,2025-06-24,1,,,,,ワイエヌアフロ,0
2106,9170005007156,新規,0,2025-06-24,2025-06-24,一般社団法人色川自然エネルギー,,その他の設立登記法人,和歌山県,東牟婁郡那智勝浦町,大字口色川２１７０番地１,,30,421,6495451,,,,,,,2025-06-24,1,,,,,イロカワシゼンエネルギー,0
2108,9180001167341,新規,0,2025-06-24,2025-06-24,株式会社ＳＯＵ,,株式会社,愛知県,名古屋市中村区,名駅４丁目２４番５号第２森ビル４０１,,23,105,4500002,,,,,,,2025-06-24,1,,,,,ソウ,0
2109,9180001167390,新規,0,2025-06-24,2025-06-24,ブリリアントヒルズ株式会社,,株式会社,愛知県,日進市,栄４丁目８０１番地セルシオスクエア日進Ａ棟４０５,,23,230,4700113,,,,,,,2025-06-24,1,,,,,ブリリアントヒルズ,0
2110,9180001167424,新規,0,2025-06-24,2025-06-24,株式会社リ・ペイン,,株式会社,愛知県,大府市,森岡町５丁目２９３番地,,23,223,4740038,,,,,,,2025-06-24,1,,,,,リペイン,0
2115,9180003028649,新規,0,2025-06-24,2025-06-24,Ｙａｎｏｍａｍｉ　Ｊａｐａｎ合同会社,,合同会社,愛知県,稲沢市,千代６丁目２４,,23,220,4928403,,,,,,,2025-06-24,1,,,,,ヤノマミジャパン,0
2117,9180301039918,新規,0,2025-06-24,2025-06-24,株式会社創新,,株式会社,愛知県,豊川市,篠束町東宮１１５番地１,,23,207,4410102,,,,,,,2025-06-24,1,,,,,ソウシン,0
2118,9180301039942,新規,0,2025-06-24,2025-06-24,株式会社スマイルクリエイティブ,,株式会社,愛知県,豊川市,御油町古御堂５,,23,207,4410211,,,,,,,2025-06-24,1,,,,,スマイルクリエイティブ,0
2119,9180303006627,新規,0,2025-06-24,2025-06-24,合同会社ドライブマスター,,合同会社,愛知県,安城市,安城町若宮４６－１－１０６,,23,212,4460026,,,,,,,2025-06-24,1,,,,,,0
2120,9190001032338,新規,0,2025-06-24,2025-06-24,株式会社アールステージ,,株式会社,三重県,津市,白塚町３９番地１,,24,201,5140101,,,,,,,2025-06-24,1,,,,,アールステージ,0
2122,9190003005085,新規,0,2025-06-24,2025-06-24,合同会社ＬＣＳ,,合同会社,三重県,桑名市,多度町香取４００番地２グランツ１０２,,24,205,5110102,,,,,,,2025-06-24,1,,,,,エルシーエス,0
2123,9200001043928,新規,0,2025-06-24,2025-06-24,株式会社千石,,株式会社,岐阜県,岐阜市,伊奈波通２丁目１１番地,,21,201,5008043,,,,,,,2025-06-24,1,,,,,センゴク,0
2126,9220001026757,新規,0,2025-06-24,2025-06-24,株式会社千建商店,,株式会社,石川県,小松市,新鍛冶町乙２３３,,17,203,9230914,,,,,,,2025-06-24,1,,,,,センケンショウテン,0
2128,9230001020965,新規,0,2025-06-24,2025-06-24,草野不動産株式会社,,株式会社,富山県,射水市,太閤山１丁目９１‐２ホワイト石坂１Ｆ１０１,,16,211,9390362,,,,,,,2025-06-24,1,,,,,クサノフドウサン,0
2130,9240001065101,新規,0,2025-06-24,2025-06-24,株式会社ＡＳＷ,,株式会社,広島県,廿日市市,桜尾１丁目１０ＨｏｂｂｙＨｏｕｓｅ桜尾Ｃ－０２号,,34,213,7380004,,,,,,,2025-06-24,1,,,,,エーエスダブル,0
2144,9290003016964,新規,0,2025-06-24,2025-06-24,合同会社Ｔｌａｂ,,合同会社,福岡県,大牟田市,一浦町２－１,,40,202,8360863,,,,,,,2025-06-24,1,,,,,ティーラボ,0
2149,9290801031644,新規,0,2025-06-24,2025-06-24,株式会社ショウユウ建房,,株式会社,福岡県,北九州市小倉南区,上吉田６丁目８番２１号,,40,107,8000201,,,,,,,2025-06-24,1,,,,,ショウユウケンボウ,0
2150,9300001014233,新規,0,2025-06-24,2025-06-24,栗ファーム株式会社,,株式会社,佐賀県,唐津市,肥前町瓜ケ坂４２４番地,,41,202,8471516,,,,,,,2025-06-24,1,,,,,クリファーム,0
2156,9330003011069,新規,0,2025-06-24,2025-06-24,合同会社ＣａｐｅＳｔｒｅｅｔ,,合同会社,熊本県,熊本市東区,戸島西１丁目７番８５号,,43,102,8618043,,,,,,,2025-06-24,1,,,,,ケープストリート,0
2161,9350001019608,新規,0,2025-06-24,2025-06-24,株式会社ＤｅｖｅｌｏＸ,,株式会社,宮崎県,東臼杵郡椎葉村,大字下福良１２２番地２下水流公営団地２０２,,45,430,8831601,,,,,,,2025-06-24,1,,,,,デベロックス,0
2165,9370001052730,新規,0,2025-06-24,2025-06-24,株式会社Ｃｏ８,,株式会社,宮城県,仙台市青葉区,中央２丁目１１番１９号仙南ビル４Ｆ－Ａ,,04,101,9800021,,,,,,,2025-06-24,1,,,,,シーオーエイト,0
2166,9370003007162,新規,0,2025-06-24,2025-06-24,合同会社Ｐｏｒｑｕｅ,,合同会社,宮城県,仙台市青葉区,中央２丁目１１―１９仙南ビル４階―Ａ,,04,101,9800021,,,,,,,2025-06-24,1,,,,,ポルケ,0
2168,9390001018028,新規,0,2025-06-24,2025-06-24,株式会社高橋工業,00139671,株式会社,山形県,山形市,成沢西４丁目１０番１４号,,06,201,9902339,,,,,,,2025-06-24,1,,,,,タカハシコウギョウ,0
2175,9430001094717,新規,0,2025-06-24,2025-06-24,株式会社ＳＳＰＢ,,株式会社,北海道,札幌市中央区,南五条西１５丁目２番３－５０３号,,01,101,0640805,,,,,,,2025-06-24,1,,,,,サスピービー,0
2176,9430003017799,新規,0,2025-06-24,2025-06-24,合同会社Ｂｕｚｚ　ＲｅｖｏｎＧ,,合同会社,北海道,札幌市西区,発寒十三条４丁目２番２０号,,01,107,0630833,,,,,,,2025-06-24,1,,,,,バズレヴォン,0
2180,9490003002028,新規,0,2025-06-24,2025-06-24,合同会社ｉｃｈｉ　ｆａｍ,,合同会社,高知県,高知市,瀬戸西町１丁目１０７番地,,39,201,7810251,,,,,,,2025-06-24,1,,,,,,0
