sequenceNumber,corporateNumber,process,correct,updateDate,changeDate,name,nameImageId,kind,prefectureName,cityName,streetNumber,addressImageId,prefectureCode,cityCode,postCode,addressOutside,addressOutsideImageId,closeDate,closeCause,successorCorporateNumber,changeCause,assignmentDate,latest,enName,enPrefectureName,enCityName,enAddressOutside,furigana,hihyoji
12,1010001261250,新規,0,2025-12-18,2025-12-18,株式会社ベスコン,,株式会社,東京都,中央区,日本橋室町２丁目５番８号,,13,102,1030022,,,,,,,2025-12-18,1,,,,,ベスコン,0
13,1010001261275,新規,0,2025-12-18,2025-12-18,株式会社サカグチ,,株式会社,東京都,千代田区,内神田３丁目１９番７号神田北口駅前ビル１Ｆ,,13,101,1010047,,,,,,,2025-12-18,1,,,,,サカグチ,0
14,1010001261291,新規,0,2025-12-18,2025-12-18,Ｔｏ‐Ｓｍｉｌｅ株式会社,,株式会社,東京都,千代田区,有楽町１丁目２番２号,,13,101,1000006,,,,,,,2025-12-18,1,,,,,トゥースマイル,0
16,1010003049768,新規,0,2025-12-18,2025-12-18,八方飯店合同会社,,合同会社,東京都,千代田区,神田西福田町２,,13,101,1010037,,,,,,,2025-12-18,1,,,,,ハッポウハンテン,0
26,1010403036837,新規,0,2025-12-18,2025-12-18,恵比寿レジデンスマネジメント合同会社,,合同会社,東京都,港区,白金６丁目１６番２０ー４０８号,,13,103,1080072,,,,,,,2025-12-18,1,,,,,エビスレジデンスマネジメント,0
41,1010901058671,新規,0,2025-12-18,2025-12-18,株式会社オフィス岸本,,株式会社,東京都,世田谷区,太子堂４丁目１８番１５号マガザン三軒茶屋２－３Ｆ－３,,13,112,1540004,,,,,,,2025-12-18,1,,,,,オフィスキシモト,0
42,1010901058688,新規,0,2025-12-18,2025-12-18,フィフティーフォース株式会社,,株式会社,東京都,世田谷区,上馬１丁目９番１０号,,13,112,1540011,,,,,,,2025-12-18,1,,,,,フィフティーフォース,0
44,1010903010481,新規,0,2025-12-18,2025-12-18,ＮＴ合同会社,,合同会社,東京都,世田谷区,岡本３丁目２３番２３号グレース岡本３０３,,13,112,1570076,,,,,,,2025-12-18,1,,,,,エヌティー,0
45,1010903010507,新規,0,2025-12-18,2025-12-18,合同会社ラピス,,合同会社,東京都,世田谷区,松原５丁目３０番３号コーポ松原１０１,,13,112,1560043,,,,,,,2025-12-18,1,,,,,ラピス,0
52,1011001174310,新規,0,2025-12-18,2025-12-18,株式会社ソリム,,株式会社,東京都,渋谷区,渋谷３丁目３番１０－１３０４号プラウドタワー渋谷,,13,113,1500002,,,,,,,2025-12-18,1,,,,,ソリム,0
53,1011001174459,新規,0,2025-12-18,2025-12-18,株式会社ｍｙｆａｎｓ,,株式会社,東京都,渋谷区,広尾１丁目６番１０号Ｇｉｒａｆｆａ１１階,,13,113,1500012,,,,,,,2025-12-18,1,,,,,マイファンズ,0
54,1011001174525,新規,0,2025-12-18,2025-12-18,株式会社ＱＵＡＬＩＮＡ　ＨＥＡＬＴＨ,,株式会社,東京都,渋谷区,恵比寿西２丁目４番８号８階,,13,113,1500021,,,,,,,2025-12-18,1,,,,,クオリーナヘルス,0
55,1011003023201,新規,0,2025-12-18,2025-12-18,Ｅａｓｔ　Ｇａｔｅ　Ｉｎｖｅｓｔｍｅｎｔ　Ｖ合同会社,,合同会社,東京都,渋谷区,神宮前５丁目３３番１号クレアホームズ神宮前４０２,,13,113,1500001,,,,,,,2025-12-18,1,,,,,イーストゲートインベストメントファイブ,0
63,1011301031129,新規,0,2025-12-18,2025-12-18,株式会社ＺＯＣＡＬＯ　ＪＡＰＡＮ,,株式会社,東京都,杉並区,高円寺南４丁目８番２号,,13,115,1660003,,,,,,,2025-12-18,1,,,,,ゾカロジャパン,0
72,1012301014643,新規,0,2025-12-18,2025-12-18,株式会社あなたなら大丈夫,,株式会社,東京都,町田市,金森４丁目４１番１５号,,13,209,1940012,,,,,,,2025-12-18,1,,,,,アナタナラダイジョウブ,0
80,1013301055470,新規,0,2025-12-18,2025-12-18,株式会社埼玉車系小宮商店,,株式会社,東京都,豊島区,東池袋２丁目６２番８号ＢＩＧオフィスプラザ池袋１２０６,,13,116,1700013,,,,,,,2025-12-18,1,,,,,サイタマクルマケイコミヤショウテン,0
92,1020001166275,新規,0,2025-12-18,2025-12-18,株式会社Ｗｅｓｔｇａｔｅ,,株式会社,神奈川県,横浜市港北区,大倉山７丁目１６番７号,,14,109,2220037,,,,,,,2025-12-18,1,,,,,ウエストゲイト,0
93,1020001166317,新規,0,2025-12-18,2025-12-18,株式会社ｓｍａｒｔ,,株式会社,神奈川県,横浜市西区,北幸２丁目１０－４８むつみビル３階,,14,103,2200004,,,,,,,2025-12-18,1,,,,,スマート,0
94,1020001166341,新規,0,2025-12-18,2025-12-18,Ｒｅｖｅｒｓｅ株式会社,,株式会社,神奈川県,横浜市中区,相生町１丁目２１番地Ｂｒｅｅｚｅ横浜公園９０２,,14,104,2310012,,,,,,,2025-12-18,1,,,,,リバース,0
100,1020005017086,新規,0,2025-12-18,2025-12-18,医療法人Ｗｅｌｌｂｅ,,その他の設立登記法人,神奈川県,横浜市戸塚区,上矢部町１６７５番地１上矢部クリニックモール２階,,14,110,2450053,,,,,,,2025-12-18,1,,,,,ウェルビー,0
101,1020005017094,新規,0,2025-12-18,2025-12-18,医療法人社団翠桜会,,その他の設立登記法人,神奈川県,横浜市都筑区,中川中央２丁目２番１号ルララこうほく１階,,14,118,2240003,,,,,,,2025-12-18,1,,,,,スイオウカイ,0
119,1030001170202,新規,0,2025-12-18,2025-12-18,ＫＯＡＬＡ株式会社,,株式会社,埼玉県,志木市,館２丁目８番２号,,11,228,3530006,,,,,,,2025-12-18,1,,,,,コアラ,0
120,1030001170210,新規,0,2025-12-18,2025-12-18,株式会社ＹＳＲ,,株式会社,埼玉県,さいたま市西区,西大宮３丁目３６番地１０６,,11,101,3310078,,,,,,,2025-12-18,1,,,,,ワイエスアール,0
129,1030003028299,新規,0,2025-12-18,2025-12-18,合同会社真心,,合同会社,埼玉県,戸田市,大字新曽２００２－１プルメリア北戸田３１１号室,,11,224,3350021,,,,,,,2025-12-18,1,,,,,マゴコロ,0
130,1030003028316,新規,0,2025-12-18,2025-12-18,合同会社ＬＩＧＨＴ　ＷＡＹＳ,,合同会社,埼玉県,ふじみ野市,上ノ原２丁目５番地５４－１０５号,,11,245,3560021,,,,,,,2025-12-18,1,,,,,ライトウェイズ,0
136,1040001141846,新規,0,2025-12-18,2025-12-18,翼株式会社,,株式会社,千葉県,柏市,旭町１丁目１１番７－４０１号,,12,217,2770852,,,,,,,2025-12-18,1,,,,,ツバサ,0
157,1100001039200,新規,0,2025-12-18,2025-12-18,株式会社ＥＡ．Ｃｏｍｍｕｎｉｃａｔｉｏｎｓ,,株式会社,長野県,飯田市,大瀬木４２１７番地２,,20,205,3950157,,,,,,,2025-12-18,1,,,,,イーエーコミュニケーションズ,0
158,1100001039209,新規,0,2025-12-18,2025-12-18,株式会社ビーチプランナー,,株式会社,長野県,長野市,大字高田４２０番地,,20,201,3810034,,,,,,,2025-12-18,1,,,,,ビーチプランナー,0
159,1100003008517,新規,0,2025-12-18,2025-12-18,合同会社協和,,合同会社,長野県,北佐久郡御代田町,大字塩野１２５４番地１,,20,323,3890201,,,,,,,2025-12-18,1,,,,,キョウワ,0
171,1120001282780,新規,0,2025-12-18,2025-12-18,株式会社Ｆｒｅｓｔａ,,株式会社,大阪府,大阪市福島区,福島６丁目１８番１８号Ｗ．Ｏ．Ｂ．ＮＩＳＨＩＵＭＥＤＡ１２０４号,,27,103,5530003,,,,,,,2025-12-18,1,,,,,フレスタ,0
172,1120001282797,新規,0,2025-12-18,2025-12-18,株式会社Ｈ＆ｍｅ,,株式会社,大阪府,大阪市福島区,吉野１丁目１９番１８－７０１号,,27,103,5530006,,,,,,,2025-12-18,1,,,,,エイチアンドミー,0
173,1120001282814,新規,0,2025-12-18,2025-12-18,クラスチェンジ株式会社,,株式会社,大阪府,大阪市中央区,南本町４丁目５番７号東亜ビル５階,,27,128,5410054,,,,,,,2025-12-18,1,,,,,クラスチェンジ,0
174,1120001282830,新規,0,2025-12-18,2025-12-18,株式会社幸順,,株式会社,大阪府,大阪市都島区,友渕町１丁目４番２号,,27,102,5340016,,,,,,,2025-12-18,1,,,,,コウジュン,0
175,1120001282847,新規,0,2025-12-18,2025-12-18,ＭＥＬＬＯＷ　ＣＲＥＷ株式会社,,株式会社,大阪府,大阪市西区,北堀江２丁目４番２０号,,27,106,5500014,,,,,,,2025-12-18,1,,,,,メロウクルー,0
176,1120001282871,新規,0,2025-12-18,2025-12-18,Ｆｒｅｅｋ株式会社,,株式会社,大阪府,大阪市北区,中津３丁目９番２０号,,27,127,5310071,,,,,,,2025-12-18,1,,,,,フリーク,0
178,1120003031491,新規,0,2025-12-18,2025-12-18,Ｚｅｎ　Ｓｔａｙ　Ｅｓｔａｔｅ合同会社,,合同会社,大阪府,大阪市旭区,中宮２丁目１３番４号,,27,117,5350003,,,,,,,2025-12-18,1,,,,,ゼンステイエステート,0
179,1120003031509,新規,0,2025-12-18,2025-12-18,合同会社きりんか,,合同会社,大阪府,大阪市城東区,永田２丁目２番１８号,,27,118,5360022,,,,,,,2025-12-18,1,,,,,キリンカ,0
181,1120101072974,新規,0,2025-12-18,2025-12-18,レインボーハート株式会社,,株式会社,大阪府,高石市,西取石５丁目８番２７号,,27,225,5920012,,,,,,,2025-12-18,1,,,,,レインボーハート,0
182,1120103006906,新規,0,2025-12-18,2025-12-18,合同会社Ｇａｒｄｅｌ,,合同会社,大阪府,堺市北区,金岡町３０１３番地５,,27,146,5918022,,,,,,,2025-12-18,1,,,,,ガーデル,0
186,1122001040012,新規,0,2025-12-18,2025-12-18,株式会社土岐商事,,株式会社,大阪府,東大阪市,旭町２番５号ー２１３号,,27,227,5798048,,,,,,,2025-12-18,1,,,,,トキショウジ,0
187,1122003003421,新規,0,2025-12-18,2025-12-18,合同会社ＳＴＥＬＬＡ　ＮＯＶＡ,,合同会社,大阪府,八尾市,堤町１丁目４８番地の９,,27,212,5810832,,,,,,,2025-12-18,1,,,,,ステラノヴァ,0
193,1130001081249,新規,0,2025-12-18,2025-12-18,島田機械株式会社,,株式会社,京都府,京都市中京区,錦小路通室町西入天神山町２８０石勘ビル４階,,26,104,6048221,,,,,,,2025-12-18,1,,,,,シマダキカイ,0
194,1130005017538,新規,0,2025-12-18,2025-12-18,一般社団法人コールド・スプリング・ハーバー・アジア日本法人,,その他の設立登記法人,京都府,京都市左京区,吉田近衛町,,26,103,6068315,,,,,,,2025-12-18,1,,,,,コールドスプリングハーバーアジアニホンホウジン,0
197,1140001141134,新規,0,2025-12-18,2025-12-18,株式会社ＩＲＯ,,株式会社,兵庫県,神戸市須磨区,須磨寺町１丁目１番１２号,,28,107,6540071,,,,,,,2025-12-18,1,,,,,アイアールオー,0
198,1140001141142,新規,0,2025-12-18,2025-12-18,椿家ライフデザイン株式会社,,株式会社,兵庫県,西宮市,羽衣町２－１１－２０２,,28,204,6620051,,,,,,,2025-12-18,1,,,,,ツバキヤライフデザイン,0
199,1140001141150,新規,0,2025-12-18,2025-12-18,株式会社スマイルライフ,,株式会社,兵庫県,姫路市,安田４丁目４９番１１－２０３号,,28,201,6700955,,,,,,,2025-12-18,1,,,,,スマイルライフ,0
203,1140003022968,新規,0,2025-12-18,2025-12-18,合同会社デイリークリーン,,合同会社,兵庫県,三田市,十倉２４８番地,,28,219,6691404,,,,,,,2025-12-18,1,,,,,デイリークリーン,0
205,1140005027734,新規,0,2025-12-18,2025-12-18,医療法人社団前田ＨＣ,,その他の設立登記法人,兵庫県,川西市,花屋敷１丁目５番１８号インペリアル花屋敷１０６,,28,217,6660035,,,,,,,2025-12-18,1,,,,,マエダエイチシー,0
218,1180003029514,新規,0,2025-12-18,2025-12-18,ｎｏｎｎｏ合同会社,,合同会社,愛知県,名古屋市中区,千代田１丁目１－２４稲垣ビル１Ｆ,,23,106,4600012,,,,,,,2025-12-18,1,,,,,ノンノ,0
224,1200001044545,新規,0,2025-12-18,2025-12-18,ＭＹコンサルタント株式会社,,株式会社,岐阜県,多治見市,高根町２丁目５２番地の３,,21,204,5070078,,,,,,,2025-12-18,1,,,,,エムワイコンサルタント,0
233,1240001065942,新規,0,2025-12-18,2025-12-18,株式会社ぽらりす,,株式会社,広島県,広島市安佐南区,長楽寺１丁目３番３－４０１号,,34,105,7310143,,,,,,,2025-12-18,1,,,,,ポラリス,0
239,1260001040828,新規,0,2025-12-18,2025-12-18,株式会社ＹＵＢＡＲＡ　ＬＯＯＰ,,株式会社,岡山県,真庭市,湯原温泉１２４番地,,33,214,7170402,,,,,,,2025-12-18,1,,,,,ユバラループ,0
247,1290001112525,新規,0,2025-12-18,2025-12-18,株式会社ＵＲＩ,,株式会社,福岡県,福岡市早良区,賀茂１丁目４７番１３号,,40,137,8140164,,,,,,,2025-12-18,1,,,,,ユーアールアイ,0
249,1290005019915,新規,0,2025-12-18,2025-12-18,医療法人大腸カメラクリニック,,その他の設立登記法人,福岡県,福岡市中央区,薬院４丁目６番９号浄水メディカルビル２Ｆ,,40,133,8100022,,,,,,,2025-12-18,1,,,,,ダイチョウカメラクリニック,0
250,1290803005224,新規,0,2025-12-18,2025-12-18,合同会社ＳＫＩＬＬＺ,,合同会社,福岡県,行橋市,大橋２丁目１４番３１号,,40,213,8240003,,,,,,,2025-12-18,1,,,,,スキルズ,0
252,1330001033840,新規,0,2025-12-18,2025-12-18,株式会社ＴｗｏＢｅ,,株式会社,熊本県,天草市,五和町手野１丁目２８２９番地１,,43,215,8632424,,,,,,,2025-12-18,1,,,,,トゥービー,0
253,1330001033849,新規,0,2025-12-18,2025-12-18,株式会社ナガミズ,,株式会社,熊本県,八代市,永碇町１００６番地２,,43,202,8660885,,,,,,,2025-12-18,1,,,,,ナガミズ,0
256,1330003011357,新規,0,2025-12-18,2025-12-18,合同会社リバティ,,合同会社,熊本県,熊本市中央区,中央街８番２５号,,43,101,8600802,,,,,,,2025-12-18,1,,,,,リバティ,0
263,1350001019862,新規,0,2025-12-18,2025-12-18,株式会社ＡＨＡ＆ｃｏ．,,株式会社,宮崎県,宮崎市,大字塩路２５０５番地６,,45,201,8800122,,,,,,,2025-12-18,1,,,,,アハアンドコー,0
264,1360001036080,新規,0,2025-12-18,2025-12-18,農業生産法人夢有民牧場株式会社,,株式会社,沖縄県,国頭郡今帰仁村,字謝名１３３１番地,,47,306,9050414,,,,,,,2025-12-18,1,,,,,ムウミンボクジョウ,0
274,1400001017258,新規,0,2025-12-18,2025-12-18,株式会社Ｒ＆Ｍネクスト,,株式会社,岩手県,盛岡市,大通３丁目７番５号,,03,201,0200022,,,,,,,2025-12-18,1,,,,,アールアンドエムネクスト,0
276,1410005006669,新規,0,2025-12-18,2025-12-18,一般財団法人みらい教育交流財団,,その他の設立登記法人,秋田県,仙北郡美郷町,上深井字中谷地６７番地１,,05,434,0191236,,,,,,,2025-12-18,1,,,,,ミライキョウイクコウリュウザイダン,0
282,1430003018433,新規,0,2025-12-18,2025-12-18,合同会社ＮＡ,,合同会社,北海道,札幌市白石区,本通１７丁目北１３番３０号,,01,104,0030027,,,,,,,2025-12-18,1,,,,,エヌエー,0
284,1450005004470,新規,0,2025-12-18,2025-12-18,一般社団法人宮串管財,,その他の設立登記法人,北海道,旭川市,神楽岡九条６丁目１番２０号,,01,204,0788319,,,,,,,2025-12-18,1,,,,,ミヤクシカンザイ,0
288,1700150133593,新規,0,2025-12-18,2025-12-18,日本原燃健康保険組合,,その他,青森県,上北郡六ヶ所村,大字尾駮字沖付４－１０８,,02,411,0393212,,,,,,,2025-12-18,1,,,,,ニホンゲンネンケンコウホケンクミアイ,0
289,1700150133602,新規,0,2025-12-18,2025-12-18,直江津電子健康保険組合,,その他,新潟県,上越市,頸城区城野腰５９６番地２,,15,222,9420157,,,,,,,2025-12-18,1,,,,,ナオエツデンシケンコウホケンクミアイ,0
290,1700150133610,新規,0,2025-12-18,2025-12-18,大真空健康保険組合,,その他,兵庫県,加古川市,平岡町新在家１１９２－８,,28,210,6750101,,,,,,,2025-12-18,1,,,,,ダイシンクウケンコウホケンクミアイ,0
303,2010001260920,新規,0,2025-12-18,2025-12-18,株式会社テクニス・ソリューション,,株式会社,東京都,千代田区,九段南２丁目３番１号,,13,101,1020074,,,,,,,2025-12-18,1,,,,,テクニスソリューション,0
304,2010001261274,新規,0,2025-12-18,2025-12-18,株式会社オフィス・センダ,,株式会社,東京都,千代田区,丸の内３丁目２番２号丸の内二重橋ビル２階,,13,101,1000005,,,,,,,2025-12-18,1,,,,,オフィスセンダ,0
305,2010003049759,新規,0,2025-12-18,2025-12-18,リヴァ合同会社,,合同会社,東京都,中央区,銀座１丁目１２番４号Ｎ＆ＥＢＬＤ．６Ｆ,,13,102,1040061,,,,,,,2025-12-18,1,,,,,リヴァ,0
327,2010603011977,新規,0,2025-12-18,2025-12-18,合同会社そらきち,,合同会社,東京都,墨田区,向島１丁目７番２号酒井ビル３階,,13,107,1310033,,,,,,,2025-12-18,1,,,,,ソラキチ,0
331,2010901058687,新規,0,2025-12-18,2025-12-18,株式会社Ｆ　ＤＥＳＩＧＮ　ＷＯＲＫＳ,,株式会社,東京都,世田谷区,駒沢３丁目１４番４－９０３号,,13,112,1540012,,,,,,,2025-12-18,1,,,,,エフデザインワークス,0
334,2010903010514,新規,0,2025-12-18,2025-12-18,Ａｌｃｏｒ合同会社,,合同会社,東京都,世田谷区,経堂４丁目８番２１号,,13,112,1560052,,,,,,,2025-12-18,1,,,,,アルコル,0
344,2011001174094,新規,0,2025-12-18,2025-12-18,株式会社ＮＥＣＯ　ＥＮＴＥＲＴＡＩＮＭＥＮＴ,,株式会社,東京都,渋谷区,道玄坂１丁目１０番８号渋谷道玄坂東急ビル２Ｆ－Ｃ,,13,113,1500043,,,,,,,2025-12-18,1,,,,,ネコエンターテイメント,0
345,2011001174301,新規,0,2025-12-18,2025-12-18,株式会社Ｄｒｅａｍｉｆｙ,,株式会社,東京都,渋谷区,千駄ヶ谷５丁目１－３千駄ヶ谷パークマンション２０１号室,,13,113,1510051,,,,,,,2025-12-18,1,,,,,ドリミファイ,0
346,2011001174409,新規,0,2025-12-18,2025-12-18,株式会社ＷＯＯＬＲＩＣＨ,,株式会社,東京都,渋谷区,神宮前６丁目１４番１２号,,13,113,1500001,,,,,,,2025-12-18,1,,,,,ウールリッチ,0
347,2011001174441,新規,0,2025-12-18,2025-12-18,株式会社Ｕｎ‐Ｂｏｕｎｄ,,株式会社,東京都,目黒区,碑文谷２丁目１１番６号,,13,110,1520003,,,,,,,2025-12-18,1,,,,,アンバウンド,0
348,2011001174466,新規,0,2025-12-18,2025-12-18,株式会社ＳＫＹ　ＬＩＧＨＴ,,株式会社,東京都,渋谷区,道玄坂１丁目１０番８号渋谷道玄坂東急ビル２Ｆ―Ｃ,,13,113,1500043,,,,,,,2025-12-18,1,,,,,スカイライト,0
349,2011001174540,新規,0,2025-12-18,2025-12-18,株式会社Ｂｉｇ　Ｌｅａｇｕｅ　Ｄｒｅａｍｅｒｓ　Ｊａｐａｎ,,株式会社,東京都,渋谷区,円山町５番５号Ｎａｖｉ渋谷Ｖ３階,,13,113,1500044,,,,,,,2025-12-18,1,,,,,ビッグリーグドリーマーズジャパン,0
367,2011601029251,新規,0,2025-12-18,2025-12-18,ＴＹＳ株式会社,,株式会社,東京都,練馬区,関町北３丁目２４番４号,,13,120,1770051,,,,,,,2025-12-18,1,,,,,ティーワイエス,0
383,2020001166316,新規,0,2025-12-18,2025-12-18,Ｐｉｎ　Ｐｏｗｅｒ　Ｊａｐａｎ株式会社,,株式会社,神奈川県,横浜市西区,みなとみらい３丁目６－１みなとみらいセンタービル１９階,,14,103,2200012,,,,,,,2025-12-18,1,,,,,ピンパワージャパン,0
384,2020001166324,新規,0,2025-12-18,2025-12-18,株式会社ｖｉｍｏ,,株式会社,神奈川県,川崎市中原区,小杉町１丁目５２１番地３,,14,133,2110063,,,,,,,2025-12-18,1,,,,,ヴィーモ,0
385,2020001166340,新規,0,2025-12-18,2025-12-18,株式会社Ｒｅ‐Ｌｉｆｅ,,株式会社,神奈川県,横浜市青葉区,青葉台１丁目５－４,,14,117,2270062,,,,,,,2025-12-18,1,,,,,リライフ,0
386,2020001166357,新規,0,2025-12-18,2025-12-18,株式会社エムキューブド,,株式会社,神奈川県,横浜市栄区,若竹町４２番１１号,,14,115,2470012,,,,,,,2025-12-18,1,,,,,エムキューブド,0
391,2020003029859,新規,0,2025-12-18,2025-12-18,ＡＩＵ合同会社,,合同会社,神奈川県,川崎市川崎区,宮本町８番地１１号,,14,131,2100004,,,,,,,2025-12-18,1,,,,,アイウ,0
392,2020003029974,新規,0,2025-12-18,2025-12-18,合同会社川田組,,合同会社,神奈川県,横浜市神奈川区,松本町１丁目１番地５アルプスビル３Ａ,,14,102,2210841,,,,,,,2025-12-18,1,,,,,カワダグミ,0
397,2021003016847,新規,0,2025-12-18,2025-12-18,合同会社晴れるや,,合同会社,神奈川県,茅ヶ崎市,堤１番地１－１０－１０３号,,14,207,2530006,,,,,,,2025-12-18,1,,,,,ハレルヤ,0
408,2030001170192,新規,0,2025-12-18,2025-12-18,株式会社和佳ホールディングス,,株式会社,埼玉県,所沢市,狭山ケ丘２丁目６４２番地の５８,,11,208,3591161,,,,,,,2025-12-18,1,,,,,ワカホールディングス,0
409,2030001170201,新規,0,2025-12-18,2025-12-18,株式会社Ｔｅｓｔｎａｔｉｏｎ,,株式会社,埼玉県,川口市,幸町２丁目７番２６号シミズビル,,11,203,3320016,,,,,,,2025-12-18,1,,,,,テストネーション,0
419,2040001141787,新規,0,2025-12-18,2025-12-18,株式会社ＴｒｉＮｏｖａ,,株式会社,千葉県,千葉市中央区,要町２－１,,12,101,2600017,,,,,,,2025-12-18,1,,,,,トライノヴァ,0
420,2040005022991,新規,0,2025-12-18,2025-12-18,一般社団法人戸田イスラームセンター,,その他の設立登記法人,千葉県,山武市,戸田１５８８番地１,,12,237,2891204,,,,,,,2025-12-18,1,,,,,トダイスラームセンター,0
430,2060001038874,新規,0,2025-12-18,2025-12-18,株式会社ＲＯＢＩＮ　ａｎｄ　ＹＡＲＮ,,株式会社,栃木県,足利市,田中町９０７番地５足利リッツタワー８階,,09,202,3260822,,,,,,,2025-12-18,1,,,,,ロビンアンドヤーン,0
434,2080101025969,新規,0,2025-12-18,2025-12-18,株式会社ＦＵＮＮＹ　ＨＡＵＳ,,株式会社,静岡県,沼津市,五月町２番１８号メゾンアズマ１Ｆ,,22,203,4100044,,,,,,,2025-12-18,1,,,,,ファニーハウス,0
440,2100003008516,新規,0,2025-12-18,2025-12-18,合同会社ＧｎＳ,,合同会社,長野県,大町市,大町６８７４番地１１,,20,212,3980002,,,,,,,2025-12-18,1,,,,,ジーエヌエス,0
448,2120001282730,新規,0,2025-12-18,2025-12-18,株式会社レイドバック,,株式会社,大阪府,大阪市西成区,南津守３丁目１番５４号,,27,122,5570063,,,,,,,2025-12-18,1,,,,,レイドバック,0
449,2120001282821,新規,0,2025-12-18,2025-12-18,株式会社Ｋ‐Ｗｏｒｋｓ,,株式会社,大阪府,大阪市淀川区,東三国４丁目４番１６号第２東渓ビル４階,,27,123,5320002,,,,,,,2025-12-18,1,,,,,ケーワークス,0
450,2120001282846,新規,0,2025-12-18,2025-12-18,株式会社Ｋ２‐ＢａｔＯＭ,,株式会社,大阪府,大阪市北区,本庄東２丁目３番１２号,,27,127,5310074,,,,,,,2025-12-18,1,,,,,ケイツーバトン,0
451,2120001282854,新規,0,2025-12-18,2025-12-18,株式会社フリージア,,株式会社,大阪府,大阪市東住吉区,北田辺６丁目２４番３０号,,27,121,5460044,,,,,,,2025-12-18,1,,,,,フリージア,0
452,2120001282870,新規,0,2025-12-18,2025-12-18,株式会社基石ケア,,株式会社,大阪府,大阪市平野区,平野元町３番５号２階Ｂ室,,27,126,5470047,,,,,,,2025-12-18,1,,,,,キセキケア,0
453,2120001282879,新規,0,2025-12-18,2025-12-18,株式会社エイチケーコーポレーション,,株式会社,大阪府,大阪市西淀川区,歌島２丁目９番１２号,,27,113,5550021,,,,,,,2025-12-18,1,,,,,エイチケーコーポレーション,0
459,2120003031490,新規,0,2025-12-18,2025-12-18,ＫＥＩ　Ｓｔａｙ　Ｏｎｅ合同会社,,合同会社,大阪府,大阪市中央区,本町橋２－１５三恵ビル,,27,128,5400029,,,,,,,2025-12-18,1,,,,,ケイステイワン,0
462,2120101072949,新規,0,2025-12-18,2025-12-18,株式会社Ｓｕｍｍｉｔ　Ｓｐａｒｋ　Ｃａｐｉｔａｌ,,株式会社,大阪府,堺市堺区,榎元町５丁１０番１５－２号,,27,141,5900027,,,,,,,2025-12-18,1,,,,,サミットスパークキャピタル,0
463,2120101072973,新規,0,2025-12-18,2025-12-18,株式会社ＡＰＥＸ,,株式会社,大阪府,堺市中区,東山４０８番地１２,,27,142,5998247,,,,,,,2025-12-18,1,,,,,エイペックス,0
464,2120103006905,新規,0,2025-12-18,2025-12-18,合同会社Ｑｒｅｅｔｅ,,合同会社,大阪府,泉佐野市,南中安松１２７５番地の１３,,27,213,5980033,,,,,,,2025-12-18,1,,,,,クリート,0
469,2122001040003,新規,0,2025-12-18,2025-12-18,株式会社ジェワイ商事,,株式会社,大阪府,八尾市,都塚北１丁目１７０,00141937,27,212,5810010,,,,,,,2025-12-18,1,,,,,ジェワイショウジ,0
474,2130003010931,新規,0,2025-12-18,2025-12-18,合同会社Ｄｒｏｐｓ,,合同会社,京都府,宇治市,木幡平尾２７－５０２,,26,204,6110002,,,,,,,2025-12-18,1,,,,,ドロップス,0
479,2140001141075,新規,0,2025-12-18,2025-12-18,株式会社グルマンファクトリー,,株式会社,兵庫県,神戸市北区,筑紫が丘６丁目６番地の１３,,28,109,6511212,,,,,,,2025-12-18,1,,,,,グルマンファクトリー,0
480,2140001141125,新規,0,2025-12-18,2025-12-18,オーシャントラスト株式会社,,株式会社,兵庫県,神戸市灘区,岸地通４丁目４－１７－２０４,,28,102,6570832,,,,,,,2025-12-18,1,,,,,オーシャントラスト,0
481,2140001141158,新規,0,2025-12-18,2025-12-18,株式会社ゴルフサポート２,,株式会社,兵庫県,神戸市北区,道場町日下部１６１５番地の２,,28,109,6511505,,,,,,,2025-12-18,1,,,,,ゴルフサポートツー,0
484,2140003022983,新規,0,2025-12-18,2025-12-18,合同会社ＯＷＬ,,合同会社,兵庫県,尼崎市,立花町３丁目１８番１１号,,28,202,6610025,,,,,,,2025-12-18,1,,,,,アウル,0
488,2150001028602,新規,0,2025-12-18,2025-12-18,株式会社コンフォート,,株式会社,奈良県,橿原市,内膳町１丁目２番１９号,,29,205,6340804,,,,,,,2025-12-18,1,,,,,コンフォート,0
489,2150001028610,新規,0,2025-12-18,2025-12-18,株式会社ざっそう,,株式会社,奈良県,大和郡山市,中城町２番地２,,29,203,6391118,,,,,,,2025-12-18,1,,,,,ザッソウ,0
502,2180001169889,新規,0,2025-12-18,2025-12-18,株式会社三栄ホールディングス,,株式会社,愛知県,名古屋市北区,大曽根３丁目１７番２７号アクロスキューブ大曽根３階,,23,103,4620825,,,,,,,2025-12-18,1,,,,,サンエイホールディングス,0
506,2180003029496,新規,0,2025-12-18,2025-12-18,合同会社ＡＬＯ,,合同会社,愛知県,名古屋市中村区,名駅４丁目２４番５号第２森ビル４０１,,23,105,4500002,,,,,,,2025-12-18,1,,,,,アロ,0
509,2190005012103,新規,0,2025-12-18,2025-12-18,ＡＮＤＡ事業協同組合,,その他の設立登記法人,三重県,亀山市,南崎町７６１番地１,,24,210,5190154,,,,,,,2025-12-18,1,,,,,アンダ,0
521,2240003007529,新規,0,2025-12-18,2025-12-18,合同会社Ｌｕｍｅｎ　Ｓｉｌｖａ,,合同会社,広島県,広島市中区,幟町３番５５号２０１,,34,101,7300016,,,,,,,2025-12-18,1,,,,,ルーメンシルヴァ,0
523,2260001040819,新規,0,2025-12-18,2025-12-18,サニーイノベーション株式会社,,株式会社,岡山県,津山市,小田中１３８７番地７,,33,203,7080006,,,,,,,2025-12-18,1,,,,,サニーイノベーション,0
530,2290801032120,新規,0,2025-12-18,2025-12-18,まつした商会株式会社,,株式会社,福岡県,北九州市八幡西区,星ケ丘３丁目１番９号,,40,109,8071264,,,,,,,2025-12-18,1,,,,,マツシタショウカイ,0
536,2330001033831,新規,0,2025-12-18,2025-12-18,株式会社ＯＲＵＧＡＮＴＯ,,株式会社,熊本県,水俣市,栄町１丁目６－１プロスパビル１Ｆ,,43,205,8670059,,,,,,,2025-12-18,1,,,,,オルガント,0
538,2330003011356,新規,0,2025-12-18,2025-12-18,合同会社ＷＨＩＴＥ　ＨＥＡＲＴＳ,,合同会社,熊本県,熊本市中央区,中央街８番２４号,,43,101,8600802,,,,,,,2025-12-18,1,,,,,ホワイトハーツ,0
542,2340001027840,新規,0,2025-12-18,2025-12-18,株式会社Ｓ‐ＲＡＮパーキング,,株式会社,鹿児島県,鹿児島市,新屋敷町１６番公社ビルＣ－１１５号,,46,201,8920838,,,,,,,2025-12-18,1,,,,,エスランパーキング,0
543,2340003005043,新規,0,2025-12-18,2025-12-18,合同会社Ｔｗｉｎｋｌｅ　ｓｔａｒｓ,,合同会社,鹿児島県,鹿屋市,吾平町上名２１１６番地５,,46,203,8931101,,,,,,,2025-12-18,1,,,,,ツインクルスターズ,0
547,2370001053322,新規,0,2025-12-18,2025-12-18,株式会社Ｍ‐ＲＩＳＥ,,株式会社,宮城県,柴田郡村田町,大字薄木字宮下１１４番地２,,04,322,9891303,,,,,,,2025-12-18,1,,,,,エムライズ,0
548,2370003007425,新規,0,2025-12-18,2025-12-18,てるひファーム合同会社,,合同会社,宮城県,東松島市,赤井字星場３１７番地,,04,214,9810501,,,,,,,2025-12-18,1,,,,,テルヒファーム,0
549,2390001018190,新規,0,2025-12-18,2025-12-18,阿部設備株式会社,,株式会社,山形県,酒田市,砂越緑町２丁目４番地,,06,204,9996702,,,,,,,2025-12-18,1,,,,,アベセツビ,0
554,2430001095878,新規,0,2025-12-18,2025-12-18,ワイエス株式会社,,株式会社,北海道,札幌市東区,北二十条東１８丁目１番２４－２号,,01,103,0650020,,,,,,,2025-12-18,1,,,,,ワイエス,0
561,2490001011243,新規,0,2025-12-18,2025-12-18,株式会社タニグチ,,株式会社,高知県,南国市,東崎７２１番地１９,,39,204,7830024,,,,,,,2025-12-18,1,,,,,タニグチ,0
562,2700150133601,新規,0,2025-12-18,2025-12-18,三菱製鋼健康保険組合,,その他,東京都,中央区,新富１丁目１５番４号,,13,102,1040041,,,,,,,2025-12-18,1,,,,,ミツビシセイコウケンコウホケンクミアイ,0
568,3010003049782,新規,0,2025-12-18,2025-12-18,合同会社ＭｅＳ　ｗｏｒｋｓ,,合同会社,東京都,千代田区,神田和泉町一丁目６－１６ヤマトビル４０５,,13,101,1010024,,,,,,,2025-12-18,1,,,,,エムイーエスワークス,0
573,3010103002716,新規,0,2025-12-18,2025-12-18,コッペルテクノロジーズ合同会社,,合同会社,東京都,八王子市,長沼町１０４番３２０号,,13,201,1920907,,,,,,,2025-12-18,1,,,,,コッペルテクノロジーズ,0
588,3010401195154,新規,0,2025-12-18,2025-12-18,ＪＷタングステン株式会社,,株式会社,東京都,港区,三田１丁目２番１８号ＴＴＤビル,,13,103,1080073,,,,,,,2025-12-18,1,,,,,ジェイダブリュタングステン,0
606,3010903010505,新規,0,2025-12-18,2025-12-18,合同会社オフィスＫ‐Ｏｎｅ,,合同会社,東京都,世田谷区,上馬４丁目１８番９号コートデコ上馬１０５,,13,112,1540011,,,,,,,2025-12-18,1,,,,,オフィスケーワン,0
613,3011003023091,新規,0,2025-12-18,2025-12-18,ＫＡＭＰＡＮＹ合同会社,,合同会社,東京都,渋谷区,円山町５番３号ＭＩＥＵＸ渋谷ビル８階,,13,113,1500044,,,,,,,2025-12-18,1,,,,,カモパニー,0
616,3011101114445,新規,0,2025-12-18,2025-12-18,株式会社ＹＫ　Ｌｅ　ｌｉｅｎ,,株式会社,東京都,新宿区,西新宿３丁目３番１３号西新宿水間ビル６階,,13,104,1600023,,,,,,,2025-12-18,1,,,,,ワイケールリアン,0
617,3011301031135,新規,0,2025-12-18,2025-12-18,株式会社ライブマックス,,株式会社,東京都,杉並区,久我山３丁目５番２３号インペリアル久我山１０１号室,,13,115,1680082,,,,,,,2025-12-18,1,,,,,ライブマックス,0
624,3011603004961,新規,0,2025-12-18,2025-12-18,タケヤカラット合同会社,,合同会社,東京都,練馬区,栄町９番６号,,13,120,1760006,,,,,,,2025-12-18,1,,,,,タケヤカラット,0
631,3011801047201,新規,0,2025-12-18,2025-12-18,株式会社絆,,株式会社,東京都,足立区,西新井栄町１丁目１８番３３－４２４号,,13,121,1230843,,,,,,,2025-12-18,1,,,,,キズナ,0
636,3012401043945,新規,0,2025-12-18,2025-12-18,株式会社Ｗａｎｏｂａ,,株式会社,東京都,小金井市,梶野町１丁目２番３６号Ｓ－０４,,13,210,1840002,,,,,,,2025-12-18,1,,,,,ワノバ,0
637,3012402006414,新規,0,2025-12-18,2025-12-18,有限会社東プレ企画,,有限会社,東京都,国立市,西１丁目１６番地の４１,,13,215,1860005,,,,,,,2025-12-18,1,,,,,,0
639,3012403007519,新規,0,2025-12-18,2025-12-18,合同会社アースアンドフューチャー,,合同会社,東京都,狛江市,駒井町２丁目１８番２号,,13,219,2010016,,,,,,,2025-12-18,1,,,,,アースアンドフューチャー,0
652,3020001166315,新規,0,2025-12-18,2025-12-18,インサイトネクサスパートナーズ株式会社,,株式会社,神奈川県,横浜市中区,尾上町４丁目５７横浜尾上町ビルディング８階,,14,104,2310015,,,,,,,2025-12-18,1,,,,,インサイトネクサスパートナーズ,0
653,3020001166323,新規,0,2025-12-18,2025-12-18,株式会社ＹＹＰＧ,,株式会社,神奈川県,横浜市保土ケ谷区,宮田町１丁目４－３第３瀬戸ビル４０１,,14,106,2400002,,,,,,,2025-12-18,1,,,,,ワイワイピージー,0
654,3020001166372,新規,0,2025-12-18,2025-12-18,株式会社グリーンフィット,,株式会社,神奈川県,川崎市幸区,小倉４丁目２３番１５号,,14,132,2120054,,,,,,,2025-12-18,1,,,,,グリーンフィット,0
657,3020003029973,新規,0,2025-12-18,2025-12-18,Ｒｅｎｃｕｒａ合同会社,,合同会社,神奈川県,横浜市神奈川区,栗田谷２７番地１号パークハウス三ツ沢５０１,,14,102,2210804,,,,,,,2025-12-18,1,,,,,,0
658,3020003030015,新規,0,2025-12-18,2025-12-18,Ｂｅ‐ｉｎｇ合同会社,,合同会社,神奈川県,横浜市鶴見区,生麦４丁目１０番２２号,,14,101,2300052,,,,,,,2025-12-18,1,,,,,ビーイング,0
659,3020003030023,新規,0,2025-12-18,2025-12-18,合同会社ＬＭ,,合同会社,神奈川県,横浜市鶴見区,岸谷４丁目２５番２５－３０２号,,14,101,2300078,,,,,,,2025-12-18,1,,,,,エルエム,0
668,3030001170191,新規,0,2025-12-18,2025-12-18,株式会社長瀬組,,株式会社,埼玉県,さいたま市西区,大字三条町１３番地２,,11,101,3310056,,,,,,,2025-12-18,1,,,,,ナガセグミ,0
669,3030001170209,新規,0,2025-12-18,2025-12-18,株式会社ＧＮＩＳＥ　ＪＡＰＡＮ,,株式会社,埼玉県,草加市,谷塚町９７４－２,,11,221,3400023,,,,,,,2025-12-18,1,,,,,ジーナイスジャパン,0
670,3030001170217,新規,0,2025-12-18,2025-12-18,ａｎｄＫＡＲＵ株式会社,,株式会社,埼玉県,川口市,飯塚２丁目３番１５号ＮＯＢＨＯＵＳＥ３０２号,,11,203,3320023,,,,,,,2025-12-18,1,,,,,アンドカル,0
673,3030003028289,新規,0,2025-12-18,2025-12-18,合同会社Ｒｅ．Ｓｔａ,,合同会社,埼玉県,所沢市,上新井５丁目４９番地６イデアル１０６,,11,208,3591142,,,,,,,2025-12-18,1,,,,,リスタ,0
674,3030003028314,新規,0,2025-12-18,2025-12-18,ＴＡＫＥＮＯＫＯ　Ｓｔｙｌｅ合同会社,,合同会社,埼玉県,鴻巣市,人形３丁目１番６３号,,11,217,3650037,,,,,,,2025-12-18,1,,,,,タケノコスタイル,0
680,3040001141679,新規,0,2025-12-18,2025-12-18,株式会社９６５,,株式会社,千葉県,船橋市,滝台町１０７番地３４佐藤店舗１０１,,12,204,2740075,,,,,,,2025-12-18,1,,,,,クロコ,0
681,3040001141836,新規,0,2025-12-18,2025-12-18,株式会社葵,,株式会社,千葉県,千葉市花見川区,犢橋町４８４番地４,,12,102,2620013,,,,,,,2025-12-18,1,,,,,アオイ,0
685,3040003029113,新規,0,2025-12-18,2025-12-18,れんアセットマネジメント合同会社,,合同会社,千葉県,東金市,東金７２０番地,,12,213,2830802,,,,,,,2025-12-18,1,,,,,レンアセットマネジメント,0
692,3060001038865,新規,0,2025-12-18,2025-12-18,株式会社ｓａｆｅ　ａｎｄ　ｓｅｃｕｒｅ,,株式会社,栃木県,宇都宮市,川俣町８４番地２,,09,201,3210977,,,,,,,2025-12-18,1,,,,,セーフアンドセキュア,0
695,3070003006225,新規,0,2025-12-18,2025-12-18,合同会社すみれマネジメント,,合同会社,群馬県,太田市,飯塚町１００４番地４,,10,205,3730817,,,,,,,2025-12-18,1,,,,,スミレマネジメント,0
699,3080101025968,新規,0,2025-12-18,2025-12-18,株式会社ＮＯＷ　ＣＲＥＡＴＩＯＮ,,株式会社,静岡県,御殿場市,中畑１７６８番地の１,,22,215,4120006,,,,,,,2025-12-18,1,,,,,ナウクリエイション,0
701,3090001019664,新規,0,2025-12-18,2025-12-18,ＴＳＵＮＡＧＵ　Ｎｅｘｕｓ株式会社,,株式会社,山梨県,甲府市,下石田２丁目２９番１４号,,19,201,4000046,,,,,,,2025-12-18,1,,,,,ツナグネクサス,0
702,3100001039198,新規,0,2025-12-18,2025-12-18,株式会社ＥＸサポート,,株式会社,長野県,北安曇郡白馬村,大字神城７３６１番地８,,20,485,3999211,,,,,,,2025-12-18,1,,,,,イーエックスサポート,0
703,3100003008523,新規,0,2025-12-18,2025-12-18,合同会社こはる,,合同会社,長野県,安曇野市,穂高柏原１４６５番地３０,,20,220,3998304,,,,,,,2025-12-18,1,,,,,コハル,0
716,3120001282812,新規,0,2025-12-18,2025-12-18,株式会社美佳,,株式会社,大阪府,大阪市天王寺区,悲田院町１番３８－１５１３号,,27,109,5430055,,,,,,,2025-12-18,1,,,,,ミカ,0
717,3120001282829,新規,0,2025-12-18,2025-12-18,株式会社共翔,,株式会社,大阪府,大阪市東淀川区,上新庄３丁目１９番６７－２０３号,,27,114,5330006,,,,,,,2025-12-18,1,,,,,キョウショウ,0
718,3120001282853,新規,0,2025-12-18,2025-12-18,株式会社ＰＸＰｒｏｊｅｃｔ,,株式会社,大阪府,寝屋川市,打上元町１５番２０－２Ａ,,27,215,5720858,,,,,,,2025-12-18,1,,,,,ピーエックスプロジェクト,0
725,3120101072972,新規,0,2025-12-18,2025-12-18,株式会社ＷＧＢＣ,,株式会社,大阪府,泉佐野市,市場南１丁目６番３０号,,27,213,5980004,,,,,,,2025-12-18,1,,,,,ダブルジービーシー,0
727,3120103006904,新規,0,2025-12-18,2025-12-18,合同会社フジタファーム,,合同会社,大阪府,岸和田市,土生町２２９番地の１,,27,202,5960825,,,,,,,2025-12-18,1,,,,,フジタファーム,0
731,3120901051985,新規,0,2025-12-18,2025-12-18,ＢＬＵＥ　ＢＯＮＤ株式会社,,株式会社,大阪府,吹田市,豊津町９番１５号,,27,205,5640051,,,,,,,2025-12-18,1,,,,,ブルーボンド,0
736,3130001081239,新規,0,2025-12-18,2025-12-18,株式会社綾邑建設,,株式会社,京都府,木津川市,木津南後背５２番地５,,26,214,6190214,,,,,,,2025-12-18,1,,,,,ヤムラケンセツ,0
742,3140001141108,新規,0,2025-12-18,2025-12-18,Ｒａｋｕｃｏ株式会社,,株式会社,兵庫県,尼崎市,武庫川町４丁目１８－５ＬＣ武庫川１０１,,28,202,6600084,,,,,,,2025-12-18,1,,,,,ラクコ,0
743,3140001141124,新規,0,2025-12-18,2025-12-18,巴波重工業株式会社,,株式会社,兵庫県,神戸市中央区,旗塚通５丁目１番２０号青木文化１０６,00141935,28,110,6510068,,,,,,,2025-12-18,1,,,,,ウズマジュウコウギョウ,0
744,3140001141140,新規,0,2025-12-18,2025-12-18,株式会社ＡＫＺ,,株式会社,兵庫県,神戸市西区,井吹台北町１丁目１８番地６２４号,,28,111,6512244,,,,,,,2025-12-18,1,,,,,エイケイズィー,0
745,3140001141173,新規,0,2025-12-18,2025-12-18,株式会社ｉｎｕｔｏ．,,株式会社,兵庫県,加古川市,平荘町里１１３７－２２,,28,210,6751232,,,,,,,2025-12-18,1,,,,,イヌト,0
747,3140003022982,新規,0,2025-12-18,2025-12-18,フットゼロ合同会社,,合同会社,兵庫県,伊丹市,伊丹３丁目３－９,,28,207,6640846,,,,,,,2025-12-18,1,,,,,フットゼロ,0
750,3150003003783,新規,0,2025-12-18,2025-12-18,Ｖｅａｎａｓ合同会社,,合同会社,奈良県,大和郡山市,筒井町９４０－１,,29,203,6391123,,,,,,,2025-12-18,1,,,,,ビーナス,0
757,3170003002354,新規,0,2025-12-18,2025-12-18,合同会社ＫＣｏｎｅｔ,,合同会社,和歌山県,和歌山市,府中２８１番地１シャイニング・ベルＩＩ１０１号,00141938,30,201,6496338,,,,,,,2025-12-18,1,,,,,ケーコネット,0
776,3200001044543,新規,0,2025-12-18,2025-12-18,株式会社きこりん,,株式会社,岐阜県,高山市,新宮町８３０番地５２,,21,203,5060035,,,,,,,2025-12-18,1,,,,,キコリン,0
779,3210005010243,新規,0,2025-12-18,2025-12-18,一般社団法人福井県地区葬祭関連業者会,,その他の設立登記法人,福井県,福井市,問屋町１丁目１５３番地,,18,201,9188231,,,,,,,2025-12-18,1,,,,,フクイケンチクソウサイカンレンギョウシャカイ,0
783,3240005016015,新規,0,2025-12-18,2025-12-18,一般社団法人尾道フィルムラボ,,その他の設立登記法人,広島県,尾道市,三軒家町３番２６号三軒家アパートメント東館１階「古物屋」内,,34,205,7220031,,,,,,,2025-12-18,1,,,,,オノミチフィルムラボ,0
786,3260001040818,新規,0,2025-12-18,2025-12-18,株式会社スターオリバー,,株式会社,岡山県,岡山市中区,兼基２７４－４,,33,102,7038227,,,,,,,2025-12-18,1,,,,,スターオリバー,0
792,3290001112556,新規,0,2025-12-18,2025-12-18,株式会社ミスターロジ,,株式会社,福岡県,福岡市博多区,吉塚１丁目３番１２号Ａ,,40,132,8120041,,,,,,,2025-12-18,1,,,,,ミスターロジ,0
793,3290001112572,新規,0,2025-12-18,2025-12-18,トライ・シー株式会社,,株式会社,福岡県,福岡市博多区,博多駅東２丁目１３番３４号,,40,132,8120013,,,,,,,2025-12-18,1,,,,,トライシー,0
795,3290003017844,新規,0,2025-12-18,2025-12-18,合同会社キャッツアイ,,合同会社,福岡県,福岡市中央区,天神２丁目２番１２号Ｔ＆Ｊビルディング７Ｆ,,40,133,8100001,,,,,,,2025-12-18,1,,,,,キャッツアイ,0
802,3330001033855,新規,0,2025-12-18,2025-12-18,株式会社北川左官工業,,株式会社,熊本県,熊本市南区,城南町舞原２０８番地３,,43,104,8614214,,,,,,,2025-12-18,1,,,,,キタガワサカンコウギョウ,0
805,3340003005042,新規,0,2025-12-18,2025-12-18,合同会社ｅｂｉｂａｉ,,合同会社,鹿児島県,大島郡和泊町,大字畦布１０８９－７,,46,533,8919114,,,,,,,2025-12-18,1,,,,,エビバイ,0
810,3380001035748,新規,0,2025-12-18,2025-12-18,株式会社レヴェランスクリエイト,,株式会社,福島県,いわき市,平赤井字深田２７番地の４－１階,,07,204,9793131,,,,,,,2025-12-18,1,,,,,レヴェランスクリエイト,0
821,3430001095885,新規,0,2025-12-18,2025-12-18,株式会社ＡＰＩ　Ｃｏｎｎｅｃｔ,,株式会社,北海道,札幌市中央区,北四条西１８丁目７番１２－４０６号,,01,101,0600004,,,,,,,2025-12-18,1,,,,,エーピーアイコネクト,0
822,3430003018431,新規,0,2025-12-18,2025-12-18,合同会社Ｔ．Ｃ．Ｓ,,合同会社,北海道,石狩郡当別町,六軒町１７番地１,,01,303,0610231,,,,,,,2025-12-18,1,,,,,ティーシーエス,0
831,3700150133600,新規,0,2025-12-18,2025-12-18,ブリヂストン健康保険組合,,その他,東京都,港区,南麻布５丁目１－７,,13,103,1060047,,,,,,,2025-12-18,1,,,,,ブリヂストンケンコウホケンクミアイ,0
832,3700150133609,新規,0,2025-12-18,2025-12-18,新東工業健康保険組合,,その他,愛知県,豊川市,穂ノ原３丁目１番,,23,207,4420061,,,,,,,2025-12-18,1,,,,,シントウコウギョウケンコウホケンクミアイ,0
845,4010001261280,新規,0,2025-12-18,2025-12-18,株式会社学秀,,株式会社,東京都,中央区,佃１丁目３番１０号,,13,102,1040051,,,,,,,2025-12-18,1,,,,,ガクシュウ,0
846,4010001261330,新規,0,2025-12-18,2025-12-18,株式会社ニュービジネスアクティビティ,,株式会社,東京都,中央区,日本橋兜町５番１号,,13,102,1030026,,,,,,,2025-12-18,1,,,,,ニュービジネスアクティビティ,0
847,4010003049757,新規,0,2025-12-18,2025-12-18,合同会社ｙｕｋｉａｍｅ,,合同会社,東京都,千代田区,神田神保町３丁目１１番６号神保町ビル１０階,,13,101,1010051,,,,,,,2025-12-18,1,,,,,ユキアメ,0
848,4010003049781,新規,0,2025-12-18,2025-12-18,合同会社リンハル,,合同会社,東京都,文京区,水道２丁目１５番７－４０３号,,13,105,1120005,,,,,,,2025-12-18,1,,,,,リンハル,0
860,4010401195203,新規,0,2025-12-18,2025-12-18,株式会社ジャパン最高,,株式会社,東京都,港区,新橋３丁目１９番４号新共ビル６階,,13,103,1050004,,,,,,,2025-12-18,1,,,,,ジャパンサイコウ,0
861,4010401195228,新規,0,2025-12-18,2025-12-18,若且唯若株式会社,,株式会社,東京都,港区,南青山４丁目５番８号１階,,13,103,1070062,,,,,,,2025-12-18,1,,,,,ジャクシャユイジャク,0
865,4010405025158,新規,0,2025-12-18,2025-12-18,ＡＹＨＤ一般社団法人,,その他の設立登記法人,東京都,港区,虎ノ門５丁目１番４号,,13,103,1050001,,,,,,,2025-12-18,1,,,,,エーワイエイチディー,0
870,4010503008114,新規,0,2025-12-18,2025-12-18,合同会社Ｈｕｍａｎｉｔｙ３．０,,合同会社,東京都,台東区,雷門２丁目３番４－７０４号オークスクエア雷門,,13,106,1110034,,,,,,,2025-12-18,1,,,,,ヒューマニティサンテンゼロ,0
873,4010601068448,新規,0,2025-12-18,2025-12-18,アルシス株式会社,,株式会社,東京都,江東区,東陽２丁目２番１４－５３３号,,13,108,1350016,,,,,,,2025-12-18,1,,,,,アルシス,0
875,4010703008046,新規,0,2025-12-18,2025-12-18,合同会社ＫＴステイ企画,,合同会社,東京都,品川区,北品川１丁目２３番２１号,,13,109,1400001,,,,,,,2025-12-18,1,,,,,ケーティーステイキカク,0
876,4010901058660,新規,0,2025-12-18,2025-12-18,株式会社Ｂｉｓｓ,,株式会社,東京都,世田谷区,喜多見４丁目１５番１３号,,13,112,1570067,,,,,,,2025-12-18,1,,,,,ビス,0
877,4010901058669,新規,0,2025-12-18,2025-12-18,Ｆｌａｔ　Ｗｏｒｌｄ株式会社,,株式会社,東京都,世田谷区,千歳台３丁目１１番３号,,13,112,1570071,,,,,,,2025-12-18,1,,,,,フラットワールド,0
878,4010903010495,新規,0,2025-12-18,2025-12-18,サイトウグローバルブリッジ合同会社,,合同会社,東京都,世田谷区,深沢５丁目１番１５号,,13,112,1580081,,,,,,,2025-12-18,1,,,,,サイトウグローバルブリッジ,0
879,4010903010504,新規,0,2025-12-18,2025-12-18,バターナッツゴールデンズ合同会社,,合同会社,東京都,世田谷区,岡本３丁目２９番１７号,,13,112,1570076,,,,,,,2025-12-18,1,,,,,バターナッツゴールデンズ,0
880,4010903010512,新規,0,2025-12-18,2025-12-18,ワイルドボア合同会社,,合同会社,東京都,世田谷区,代田３丁目７－２６－２０１,,13,112,1550033,,,,,,,2025-12-18,1,,,,,ワイルドボア,0
883,4011001174167,新規,0,2025-12-18,2025-12-18,ＣｕｅＢａｓｅ株式会社,,株式会社,東京都,渋谷区,広尾１丁目２番１号ヒカリビル４階,,13,113,1500012,,,,,,,2025-12-18,1,,,,,キューベース,0
884,4011001174456,新規,0,2025-12-18,2025-12-18,株式会社ＳＵ,,株式会社,東京都,渋谷区,恵比寿西１丁目３０番８号代官山桜の丘１０３,,13,113,1500021,,,,,,,2025-12-18,1,,,,,エスユー,0
885,4011001174472,新規,0,2025-12-18,2025-12-18,ＴＨＹＭＥ株式会社,,株式会社,東京都,目黒区,下目黒２丁目１６番３号１０１,,13,110,1530064,,,,,,,2025-12-18,1,,,,,タイム,0
886,4011001174530,新規,0,2025-12-18,2025-12-18,株式会社ＡＬＬＯＶＥＲ,,株式会社,東京都,渋谷区,神宮前６丁目１９番２１号井門神宮前六丁目ビル４階,,13,113,1500001,,,,,,,2025-12-18,1,,,,,オールオーバー,0
889,4011101114262,新規,0,2025-12-18,2025-12-18,株式会社ＳＴＲ,,株式会社,東京都,新宿区,新宿５丁目７－８ランザン５ビル,,13,104,1600022,,,,,,,2025-12-18,1,,,,,エスティーアール,0
896,4011603004960,新規,0,2025-12-18,2025-12-18,合同会社脱知性,,合同会社,東京都,練馬区,桜台１丁目４番７号桜台サンビル２階,,13,120,1760002,,,,,,,2025-12-18,1,,,,,ダツチセイ,0
907,4012401043936,新規,0,2025-12-18,2025-12-18,株式会社ＡＳＳＥＭＢＬＥ,,株式会社,東京都,武蔵野市,吉祥寺本町２丁目１７番５号シロッコ吉祥寺テラス２０１,,13,203,1800004,,,,,,,2025-12-18,1,,,,,アッセンブル,0
915,4020001166330,新規,0,2025-12-18,2025-12-18,８株式会社,,株式会社,神奈川県,川崎市高津区,溝口２丁目１１番１２号,,14,134,2130001,,,,,,,2025-12-18,1,,,,,ユイット,0
919,4020003029997,新規,0,2025-12-18,2025-12-18,合同会社ｓｗｏｎｋ,,合同会社,神奈川県,横浜市港北区,大倉山４丁目１番１－３０４号,,14,109,2220037,,,,,,,2025-12-18,1,,,,,スウォンク,0
930,4030001170199,新規,0,2025-12-18,2025-12-18,株式会社コンフィード,,株式会社,埼玉県,秩父郡長瀞町,大字矢那瀬１４８３番地１,,11,363,3691301,,,,,,,2025-12-18,1,,,,,コンフィード,0
932,4030003028296,新規,0,2025-12-18,2025-12-18,合同会社リラシア,,合同会社,埼玉県,越谷市,大字平方２３１３－１,,11,222,3430002,,,,,,,2025-12-18,1,,,,,リラシア,0
933,4030003028305,新規,0,2025-12-18,2025-12-18,合同会社モミケンソラボ,,合同会社,埼玉県,入間郡三芳町,大字北永井８６５番地３６,,11,324,3540044,,,,,,,2025-12-18,1,,,,,モミケンソラボ,0
934,4030003028321,新規,0,2025-12-18,2025-12-18,ナイスバード合同会社,,合同会社,埼玉県,飯能市,大字笠縫１０９番地１ＡｍｅｎｉｔｙＡＯＫＩ１０２号室,,11,209,3570045,,,,,,,2025-12-18,1,,,,,ナイスバード,0
938,4040001141694,新規,0,2025-12-18,2025-12-18,株式会社Ｐｉｇｅｏｎ,,株式会社,千葉県,船橋市,西習志野３丁目３４番６号,,12,204,2740815,,,,,,,2025-12-18,1,,,,,ピジョン,0
941,4040003029178,新規,0,2025-12-18,2025-12-18,合同会社福渡邸,,合同会社,千葉県,成田市,津富浦８４０番地１,,12,211,2870236,,,,,,,2025-12-18,1,,,,,フクワタリテイ,0
945,4060001038872,新規,0,2025-12-18,2025-12-18,株式会社Ａｍｂｉｅｎｔ　ｃｌｅａｎ　ｅａｓｅＥＣＯ,,株式会社,栃木県,河内郡上三川町,大字多功１８９６番地１,,09,301,3290524,,,,,,,2025-12-18,1,,,,,アンビエントクリーンイーズエコ,0
947,4070001043657,新規,0,2025-12-18,2025-12-18,株式会社アクシオン,,株式会社,群馬県,富岡市,七日市１６７番地１,,10,210,3702343,,,,,,,2025-12-18,1,,,,,アクシオン,0
950,4080001027312,新規,0,2025-12-18,2025-12-18,株式会社丸和モータース,,株式会社,静岡県,牧之原市,東萩間２７１１番地１,,22,226,4210501,,,,,,,2025-12-18,1,,,,,マルワモータース,0
951,4080001027337,新規,0,2025-12-18,2025-12-18,株式会社ＡＬＬＷＥＬＣＯＭＥ,,株式会社,静岡県,静岡市清水区,興津清見寺町５０番地,,22,103,4240206,,,,,,,2025-12-18,1,,,,,オールウェルカム,0
952,4080005007748,新規,0,2025-12-18,2025-12-18,一般社団法人静岡犯罪被害者支援センター,,その他の設立登記法人,静岡県,静岡市葵区,両替町１丁目４番地１５,,22,101,4200032,,,,,,,2025-12-18,1,,,,,シズオカハンザイヒガイシャシエンセンター,0
955,4090001019663,新規,0,2025-12-18,2025-12-18,帝国不動産小淵沢株式会社,,株式会社,山梨県,北杜市,白州町横手３９２３番地７１,,19,209,4080313,,,,,,,2025-12-18,1,,,,,テイコクフドウサンオブチザワ,0
969,4120001282646,新規,0,2025-12-18,2025-12-18,青林未来テクノロジー株式会社,,株式会社,大阪府,大阪市浪速区,大国３丁目７番７号ナオシス大国町５０３,,27,111,5560014,,,,,,,2025-12-18,1,,,,,セイリンミライテクノロジー,0
970,4120001282803,新規,0,2025-12-18,2025-12-18,株式会社みなくる,,株式会社,大阪府,大阪市生野区,中川４丁目１１番１５号,,27,116,5440005,,,,,,,2025-12-18,1,,,,,ミナクル,0
971,4120001282844,新規,0,2025-12-18,2025-12-18,株式会社ＥＶＥ電工,,株式会社,大阪府,大阪市西淀川区,大和田５丁目１番１０号,,27,113,5550032,,,,,,,2025-12-18,1,,,,,イーヴイイーデンコウ,0
972,4120001282860,新規,0,2025-12-18,2025-12-18,株式会社ＤｅＦｅｎｄ,,株式会社,大阪府,大阪市生野区,中川３丁目２番１４号,,27,116,5440005,,,,,,,2025-12-18,1,,,,,ディフェンド,0
973,4120001282877,新規,0,2025-12-18,2025-12-18,株式会社ＷＡＫＯ．ＬＩＮＫＳ,,株式会社,大阪府,大阪市東淀川区,下新庄５丁目６番３３号１階,,27,114,5330021,,,,,,,2025-12-18,1,,,,,ワコーリンクス,0
976,4120003031448,新規,0,2025-12-18,2025-12-18,合同会社ビジュアルビークル,,合同会社,大阪府,大阪市西成区,太子１丁目３－２６,,27,122,5570002,,,,,,,2025-12-18,1,,,,,ビジュアルビークル,0
977,4120003031489,新規,0,2025-12-18,2025-12-18,南庭資産合同会社,,合同会社,大阪府,大阪市中央区,本町橋２－１５三恵ビル,,27,128,5400029,,,,,,,2025-12-18,1,,,,,ナンテイシサン,0
978,4120005025274,新規,0,2025-12-18,2025-12-18,一般社団法人新しい歌福音協会,,その他の設立登記法人,大阪府,大阪市城東区,鴫野西２丁目２－１２（１１０７）,,27,118,5360014,,,,,,,2025-12-18,1,,,,,アタラシイウタフクインキョウカイ,0
979,4120101072963,新規,0,2025-12-18,2025-12-18,株式会社憲秀会,,株式会社,大阪府,堺市南区,庭代台４丁２６番１９号,,27,145,5900133,,,,,,,2025-12-18,1,,,,,ケンシュウカイ,0
980,4120101072971,新規,0,2025-12-18,2025-12-18,株式会社Ｍａｚｉ,,株式会社,大阪府,堺市北区,百舌鳥西之町３丁５２８,,27,146,5918033,,,,,,,2025-12-18,1,,,,,マジィ,0
981,4120103006903,新規,0,2025-12-18,2025-12-18,合同会社うなぎ倶楽部,,合同会社,大阪府,岸和田市,小松里町２５１２番地,,27,202,5960821,,,,,,,2025-12-18,1,,,,,ウナギクラブ,0
983,4130001081254,新規,0,2025-12-18,2025-12-18,こてっぱん株式会社,,株式会社,京都府,京都市東山区,花見小路通古門前上る巽町４２４番地６棟５０２号室,,26,105,6050018,,,,,,,2025-12-18,1,,,,,コテッパン,0
995,4140001141131,新規,0,2025-12-18,2025-12-18,株式会社Ｆｌａｔ　Ｓｐａｃｅ,,株式会社,兵庫県,姫路市,野里３２８番地１,,28,201,6700811,,,,,,,2025-12-18,1,,,,,フラットスペース,0
996,4140001141148,新規,0,2025-12-18,2025-12-18,株式会社光建走,,株式会社,兵庫県,尼崎市,武庫之荘４丁目２４番１３号２０４号,,28,202,6610035,,,,,,,2025-12-18,1,,,,,ヒカリケンソウ,0
997,4140001141156,新規,0,2025-12-18,2025-12-18,株式会社Ｏｒｄｅｒ,,株式会社,兵庫県,神戸市須磨区,白川台６丁目４番地の８（３０３号）,,28,107,6540103,,,,,,,2025-12-18,1,,,,,オーダー,0
999,4140003022973,新規,0,2025-12-18,2025-12-18,合同会社ティーエムシステムズ,,合同会社,兵庫県,加古川市,野口町水足１９８４番地の１５８,,28,210,6750019,,,,,,,2025-12-18,1,,,,,ティーエムシステムズ,0
1000,4160001027295,新規,0,2025-12-18,2025-12-18,株式会社リプレイスメントワーク・シマッチ,,株式会社,滋賀県,守山市,吉身３丁目１４番４３－３０５号,,25,207,5240021,,,,,,,2025-12-18,1,,,,,リプレイスメントワークシマッチ,0
1013,4190001032763,新規,0,2025-12-18,2025-12-18,株式会社ＢＨＥＬ,,株式会社,三重県,桑名市,大字江場１３２１番地６,,24,205,5110836,,,,,,,2025-12-18,1,,,,,ベル,0
1019,4200001044534,新規,0,2025-12-18,2025-12-18,株式会社ソレイユ,,株式会社,岐阜県,岐阜市,六条江東３丁目２番１９号,,21,201,5008356,,,,,,,2025-12-18,1,,,,,ソレイユ,0
1024,4210001020419,新規,0,2025-12-18,2025-12-18,株式会社ｍａｇｏｚａｅｍｏｎ,,株式会社,福井県,越前市,塚原町第１０号５番地の５,00141928,18,209,9150875,,,,,,,2025-12-18,1,,,,,マゴザエモン,0
1037,4260001040825,新規,0,2025-12-18,2025-12-18,株式会社Ｍｅｔａｌ　Ｃｒｅａｔｅ,,株式会社,岡山県,倉敷市,児島味野城１丁目７番３４号,,33,202,7110914,,,,,,,2025-12-18,1,,,,,メタルクリエイト,0
1038,4260001040833,新規,0,2025-12-18,2025-12-18,株式会社Ｏ’ｖｅｒｒｉｄｅ,,株式会社,岡山県,岡山市北区,中仙道５７番地１０３三宅ビル２Ｆ１号室,,33,101,7000964,,,,,,,2025-12-18,1,,,,,オーバーライド,0
1057,4330001033854,新規,0,2025-12-18,2025-12-18,株式会社深水商事,,株式会社,熊本県,熊本市中央区,神水１丁目３４番１７号ニューフレックス神水一番館,,43,101,8620954,,,,,,,2025-12-18,1,,,,,フカミショウジ,0
1059,4330003011362,新規,0,2025-12-18,2025-12-18,合同会社海ゆかば,,合同会社,熊本県,熊本市東区,長嶺南８丁目４－２１,,43,102,8618039,,,,,,,2025-12-18,1,,,,,ウミユカバ,0
1060,4340001013871,新規,0,2025-12-18,2025-12-18,九州興産株式会社,,株式会社,鹿児島県,鹿屋市,打馬１丁目１９番２４号,,46,203,8930011,,,,,,,2025-12-18,1,,,,,キュウシュウコウサン,0
1061,4340001027839,新規,0,2025-12-18,2025-12-18,株式会社ワンダーパーキング,,株式会社,鹿児島県,鹿児島市,新屋敷町１６番公社ビルＣ－１１５号,,46,201,8920838,,,,,,,2025-12-18,1,,,,,ワンダーパーキング,0
1062,4340001027847,新規,0,2025-12-18,2025-12-18,株式会社抜迫製茶,,株式会社,鹿児島県,志布志市,有明町野神３７５４番地３,,46,221,8997512,,,,,,,2025-12-18,1,,,,,ヌキザコセイチャ,0
1063,4350003005098,新規,0,2025-12-18,2025-12-18,農業生産法人合同会社山内農園,,合同会社,宮崎県,都城市,姫城町２５街区７５号,,45,202,8850073,,,,,,,2025-12-18,1,,,,,ノウギョウセイサンホウジンヤマウチノウエン,0
1075,4420001019373,新規,0,2025-12-18,2025-12-18,株式会社ＪＡＮ　ＹＡＮ,,株式会社,青森県,青森市,桂木３丁目２番地１７,,02,201,0300844,,,,,,,2025-12-18,1,,,,,ヤンヤン,0
1078,4430003018430,新規,0,2025-12-18,2025-12-18,合同会社きぼう,,合同会社,北海道,岩見沢市,志文町１５９番地３１,,01,210,0680833,,,,,,,2025-12-18,1,,,,,キボウ,0
1079,4460103001770,新規,0,2025-12-18,2025-12-18,合同会社Ｎトラスト,,合同会社,北海道,帯広市,大通南８丁目１番地大通南８マンション７０２,,01,207,0800010,,,,,,,2025-12-18,1,,,,,エヌトラスト,0
1083,4490001011241,新規,0,2025-12-18,2025-12-18,株式会社Ｓｍｉｌｅ　ｉｎｎｏｖａｔｉｏｎ,,株式会社,高知県,高知市,はりまや町３丁目１１番１０号オフィスはりまやビル２Ｆ,,39,201,7800822,,,,,,,2025-12-18,1,,,,,スマイルイノベーション,0
1086,4700150133599,新規,0,2025-12-18,2025-12-18,ダイセル健康保険組合,,その他,大阪府,大阪市北区,大深町３－１　グランフロント大阪　タワーＢ３０階,,27,127,5300011,,,,,,,2025-12-18,1,,,,,ダイセルケンコウホケンクミアイ,0
1087,4700150133608,新規,0,2025-12-18,2025-12-18,椿本チエイン健康保険組合,,その他,京都府,京田辺市,甘南備台１丁目１－３,,26,211,6100333,,,,,,,2025-12-18,1,,,,,ツバキモトチエインケンコウホケンクミアイ,0
1102,5010001261362,新規,0,2025-12-18,2025-12-18,株式会社ａｕｂｅ,,株式会社,東京都,中央区,銀座１丁目１２－４Ｎ＆ＥＢＬＤ．７階,,13,102,1040061,,,,,,,2025-12-18,1,,,,,オーヴ,0
1107,5010005041083,新規,0,2025-12-18,2025-12-18,弁護士法人スパークル法律事務所,,その他の設立登記法人,東京都,千代田区,丸の内２丁目２番１号岸本ビルヂング,,13,101,1000005,,,,,,,2025-12-18,1,,,,,,0
1120,5010401195169,新規,0,2025-12-18,2025-12-18,株式会社量子空間アーキテクト,,株式会社,東京都,港区,虎ノ門１丁目１番２１号,,13,103,1050001,,,,,,,2025-12-18,1,,,,,リョウシクウカンアーキテクト,0
1121,5010401195227,新規,0,2025-12-18,2025-12-18,ＲＩＳＯ‐ＳＷ株式会社,,株式会社,東京都,港区,六本木６丁目２番３１号六本木ヒルズノースタワー,,13,103,1060032,,,,,,,2025-12-18,1,,,,,リソウエスダブリュー,0
1131,5010601068447,新規,0,2025-12-18,2025-12-18,アントレード株式会社,,株式会社,東京都,江東区,東陽３丁目６番１１号－２階,,13,108,1350016,,,,,,,2025-12-18,1,,,,,アントレード,0
1133,5010703008045,新規,0,2025-12-18,2025-12-18,ＧＦＬ合同会社,,合同会社,東京都,品川区,東中延２丁目６番１６号,,13,109,1420052,,,,,,,2025-12-18,1,,,,,ジーエフエル,0
1135,5010903010503,新規,0,2025-12-18,2025-12-18,ＡＮＩＭＡＬＳ合同会社,,合同会社,東京都,世田谷区,南烏山１丁目１６番２２－５０７号,,13,112,1570062,,,,,,,2025-12-18,1,,,,,アニマルズ,0
1143,5011001174397,新規,0,2025-12-18,2025-12-18,株式会社みなみ,,株式会社,東京都,渋谷区,道玄坂１丁目１０番８号渋谷道玄坂東急ビル２Ｆ－Ｃ,,13,113,1500043,,,,,,,2025-12-18,1,,,,,ミナミ,0
1145,5011003023065,新規,0,2025-12-18,2025-12-18,合同会社Ｂｌｏｏｍｉｎ’ｌｕｍｉｎ,,合同会社,東京都,渋谷区,神宮前６丁目２３－４桑野ビル２階,,13,113,1500001,,,,,,,2025-12-18,1,,,,,ブルーミンルーミン,0
1146,5011003023123,新規,0,2025-12-18,2025-12-18,３ＢＸ合同会社,,合同会社,東京都,渋谷区,道玄坂１丁目１０番８号渋谷道玄坂東急ビル２Ｆ－Ｃ,,13,113,1500043,,,,,,,2025-12-18,1,,,,,サンビーエクス,0
1147,5011003023214,新規,0,2025-12-18,2025-12-18,合同会社Ｈｏｓｈｉｋａｒｕ,,合同会社,東京都,渋谷区,道玄坂１丁目１０番８号渋谷道玄坂東急ビル２Ｆ－Ｃ,,13,113,1500043,,,,,,,2025-12-18,1,,,,,ホシカル,0
1150,5011101114385,新規,0,2025-12-18,2025-12-18,Ｌｕｘｅ　Ｒｅｐｒｉｓｅ株式会社,,株式会社,東京都,新宿区,新宿１丁目１６番１０号５階,,13,104,1600022,,,,,,,2025-12-18,1,,,,,リュクスリプライズ,0
1154,5011401027667,新規,0,2025-12-18,2025-12-18,ラフアップ株式会社,,株式会社,東京都,板橋区,成増３丁目４８番１８号,,13,119,1750094,,,,,,,2025-12-18,1,,,,,ラフアップ,0
1155,5011401027675,新規,0,2025-12-18,2025-12-18,株式会社インデックス,,株式会社,東京都,板橋区,成増１丁目６番１７号,,13,119,1750094,,,,,,,2025-12-18,1,,,,,インデックス,0
1163,5012401043885,新規,0,2025-12-18,2025-12-18,ＢｏｏＷｏｒｋｓ　Ｌａｂ株式会社,,株式会社,東京都,府中市,宮西町２丁目８番地の２,,13,206,1830022,,,,,,,2025-12-18,1,,,,,ブーワークスラボ,0
1165,5012403007467,新規,0,2025-12-18,2025-12-18,ブライトスケール合同会社,,合同会社,東京都,三鷹市,野崎１丁目７‐２２,,13,204,1810014,,,,,,,2025-12-18,1,,,,,ブライトスケール,0
1178,5020001166379,新規,0,2025-12-18,2025-12-18,神奈川昭和製薬株式会社,,株式会社,神奈川県,横浜市西区,みなとみらい２丁目２番１号横浜ランドマークタワー２０Ｆ,,14,103,2200012,,,,,,,2025-12-18,1,,,,,カナガワショウワセイヤク,0
1181,5020003030013,新規,0,2025-12-18,2025-12-18,ＢＩＯ　ＩＴ　ＳＥＲＶＩＣＥ合同会社,,合同会社,神奈川県,川崎市川崎区,駅前本町１１番地２川崎フロンティアビル４階,,14,131,2100007,,,,,,,2025-12-18,1,,,,,バイオアイティーサービス,0
1188,5030001170198,新規,0,2025-12-18,2025-12-18,株式会社ＯＳＤ,,株式会社,埼玉県,新座市,池田４丁目１番９号,,11,230,3520015,,,,,,,2025-12-18,1,,,,,オーエスディー,0
1193,5030003028304,新規,0,2025-12-18,2025-12-18,合同会社ＯＫ　ＧＲＡＰＨＩＣＳ,,合同会社,埼玉県,草加市,弁天１丁目２４番３９号,,11,221,3400004,,,,,,,2025-12-18,1,,,,,オーケーグラフィックス,0
1199,5040003029177,新規,0,2025-12-18,2025-12-18,合同会社福渡ハイヤー,,合同会社,千葉県,成田市,津富浦８４０番地１,,12,211,2870236,,,,,,,2025-12-18,1,,,,,フクワタリハイヤー,0
1204,5070003006223,新規,0,2025-12-18,2025-12-18,合同会社敷島企画,,合同会社,群馬県,前橋市,敷島町２４７番地１４,,10,201,3710036,,,,,,,2025-12-18,1,,,,,,0
1205,5080001027328,新規,0,2025-12-18,2025-12-18,カデンシア株式会社,,株式会社,静岡県,焼津市,越後島４７０番地,,22,212,4250092,,,,,,,2025-12-18,1,,,,,カデンシア,0
1206,5080001027336,新規,0,2025-12-18,2025-12-18,株式会社岩崎スポーツ,,株式会社,静岡県,静岡市葵区,東町６６番地,,22,101,4200836,,,,,,,2025-12-18,1,,,,,イワザキスポーツ,0
1208,5080101025966,新規,0,2025-12-18,2025-12-18,ファーマーズ株式会社,,株式会社,静岡県,富士市,五貫島１６８番地の１,,22,210,4160946,,,,,,,2025-12-18,1,,,,,ファーマーズ,0
1209,5090001019654,新規,0,2025-12-18,2025-12-18,株式会社サンウエル不動産,,株式会社,山梨県,甲斐市,西八幡１６４９番地,,19,210,4000117,,,,,,,2025-12-18,1,,,,,サンウエルフドウサン,0
1214,5120003031463,新規,0,2025-12-18,2025-12-18,合同会社エン・ファン,,合同会社,大阪府,大阪市北区,天神橋５丁目８番６号,,27,127,5300041,,,,,,,2025-12-18,1,,,,,エンファン,0
1215,5120003031488,新規,0,2025-12-18,2025-12-18,ＢＣ　Ｎｅｘｕｓ合同会社,,合同会社,大阪府,大阪市中央区,本町橋２－１５三恵ビル,,27,128,5400029,,,,,,,2025-12-18,1,,,,,ビーシーネクサス,0
1216,5120003031496,新規,0,2025-12-18,2025-12-18,中村劇場合同会社,,合同会社,大阪府,大阪市港区,磯路２丁目２２－３,,27,107,5520003,,,,,,,2025-12-18,1,,,,,ナカムラゲキジョウ,0
1217,5120003031505,新規,0,2025-12-18,2025-12-18,合同会社ｃｏｕ　ｃｏｕ,,合同会社,大阪府,大阪市天王寺区,勝山１丁目１番１１－６０１号,,27,109,5430043,,,,,,,2025-12-18,1,,,,,クク,0
1218,5120005025307,新規,0,2025-12-18,2025-12-18,一般財団法人心まにまに,,その他の設立登記法人,大阪府,大阪市東住吉区,中野４丁目５番２６号,,27,121,5460012,,,,,,,2025-12-18,1,,,,,ココロマニマニ,0
1220,5120101072962,新規,0,2025-12-18,2025-12-18,株式会社エトア建築一級建築士事務所,,株式会社,大阪府,岸和田市,東ケ丘町８０８－８７９,,27,202,5960807,,,,,,,2025-12-18,1,,,,,エトアケンチクイッキュウケンチクシジムショ,0
1221,5120101072970,新規,0,2025-12-18,2025-12-18,株式会社Ｍａｎａ,,株式会社,大阪府,堺市西区,上野芝町３丁１０番５号,,27,144,5938301,,,,,,,2025-12-18,1,,,,,マナ,0
1230,5130001081253,新規,0,2025-12-18,2025-12-18,株式会社ＬｉｆｅＢｒｉｄｇｅ,,株式会社,京都府,京都市山科区,勧修寺閑林寺９６番地９,,26,110,6078217,,,,,,,2025-12-18,1,,,,,ライフブリッジ,0
1238,5140001141122,新規,0,2025-12-18,2025-12-18,株式会社ＡＮＧＥＲＯ　ＴＲＥ,,株式会社,兵庫県,芦屋市,業平町７番１４号,,28,206,6590068,,,,,,,2025-12-18,1,,,,,アンジェロトゥレ,0
1239,5140001141139,新規,0,2025-12-18,2025-12-18,株式会社しろ丸ハウジング,,株式会社,兵庫県,西宮市,甲子園七番町１８番１２号,,28,204,6638177,,,,,,,2025-12-18,1,,,,,シロマルハウジング,0
1241,5140003022972,新規,0,2025-12-18,2025-12-18,合同会社ＨＹＣ,,合同会社,兵庫県,明石市,魚住町錦が丘１丁目９－３０,,28,203,6740081,,,,,,,2025-12-18,1,,,,,エッチワイシー,0
1245,5160003003681,新規,0,2025-12-18,2025-12-18,京都メディカル合同会社,,合同会社,滋賀県,大津市,大江８丁目１３２番地の８,,25,201,5202141,,,,,,,2025-12-18,1,,,,,キョウトメディカル,0
1262,5190001032762,新規,0,2025-12-18,2025-12-18,株式会社Ｍｅｒ　Ｂｌａｎｃｈｅ,,株式会社,三重県,四日市市,新正１丁目３番１－１号,,24,202,5100064,,,,,,,2025-12-18,1,,,,,メルブランシュ,0
1265,5190003005304,新規,0,2025-12-18,2025-12-18,合同会社トータル介護ＪＵＮ,,合同会社,三重県,北牟婁郡紀北町,東長島２１４８番地１,,24,543,5193204,,,,,,,2025-12-18,1,,,,,トータルカイゴジュン,0
1266,5200001044533,新規,0,2025-12-18,2025-12-18,株式会社マネジメントパートナー・エン,,株式会社,岐阜県,瑞浪市,西小田町１丁目７６番地,,21,208,5096114,,,,,,,2025-12-18,1,,,,,マネジメントパートナーエン,0
1278,5260003005453,新規,0,2025-12-18,2025-12-18,にくきゅう合同会社,,合同会社,岡山県,倉敷市,玉島１丁目９－１音叶ビル２０２,,33,202,7138102,,,,,,,2025-12-18,1,,,,,ニクキュウ,0
1279,5270001009356,新規,0,2025-12-18,2025-12-18,株式会社スペックデザインオフィス,,株式会社,鳥取県,東伯郡三朝町,大字牧２１６番地,,31,364,6820178,,,,,,,2025-12-18,1,,,,,,0
1292,5290805009888,新規,0,2025-12-18,2025-12-18,医療法人あしたも,,その他の設立登記法人,福岡県,直方市,大字下新入６６８番地４,,40,204,8220032,,,,,,,2025-12-18,1,,,,,アシタモ,0
1295,5310003005150,新規,0,2025-12-18,2025-12-18,合同会社クローバー,,合同会社,長崎県,長崎市,西山２丁目１３番９号,,42,201,8500001,,,,,,,2025-12-18,1,,,,,クローバー,0
1296,5320003004861,新規,0,2025-12-18,2025-12-18,合同会社ひとひら．ｃ,,合同会社,大分県,別府市,西野口町２番４４－３０３号,,44,202,8740931,,,,,,,2025-12-18,1,,,,,ヒトヒラドットシー,0
1300,5330003011361,新規,0,2025-12-18,2025-12-18,合同会社ＦＫＭフード,,合同会社,熊本県,熊本市東区,秋津２丁目１７８３番地１,,43,102,8612104,,,,,,,2025-12-18,1,,,,,エフケイエムフード,0
1303,5350001019859,新規,0,2025-12-18,2025-12-18,株式会社ＩＭＰＲＯＶＥ,,株式会社,宮崎県,日南市,吾田東１０丁目８番１２号,,45,204,8892541,,,,,,,2025-12-18,1,,,,,インプルーブ,0
1307,5370005011050,新規,0,2025-12-18,2025-12-18,医療法人社団クリニック・ネオ,,その他の設立登記法人,宮城県,仙台市青葉区,一番町４丁目１０－１９ａｓｓｅｓｓ仙台一番町ビル３０１,,04,101,9800811,,,,,,,2025-12-18,1,,,,,クリニックネオ,0
1314,5380003006209,新規,0,2025-12-18,2025-12-18,ＡＫＳ合同会社,,合同会社,福島県,耶麻郡北塩原村,大字桧原字曽原山１０９５番地の４４,,07,402,9692701,,,,,,,2025-12-18,1,,,,,エーケーエス,0
1316,5410001014333,新規,0,2025-12-18,2025-12-18,株式会社ＢｌｕｅＢｅｅ,,株式会社,秋田県,秋田市,大町１丁目６番３０号,,05,201,0100921,,,,,,,2025-12-18,1,,,,,ブルービー,0
1323,5430001095883,新規,0,2025-12-18,2025-12-18,Ｄｏ野幌株式会社,,株式会社,北海道,江別市,東野幌本町３番地の１０陶管ビル,,01,217,0690824,,,,,,,2025-12-18,1,,,,,ドゥノッポロ,0
1324,5430005015375,新規,0,2025-12-18,2025-12-18,ＮＰＯ法人うつくしま,,その他の設立登記法人,北海道,札幌市厚別区,厚別西四条２丁目６番８－２号,,01,108,0040064,,,,,,,2025-12-18,1,,,,,ウツクシマ,0
1327,5700150133598,新規,0,2025-12-18,2025-12-18,オリジン健康保険組合,,その他,埼玉県,さいたま市桜区,栄和３丁目３－２７,,11,106,3380823,,,,,,,2025-12-18,1,,,,,オリジンケンコウホケンクミアイ,0
1328,5700150133607,新規,0,2025-12-18,2025-12-18,フジパングループ健康保険組合,,その他,愛知県,名古屋市瑞穂区,松園町２丁目３２番地１,,23,108,4670065,,,,,,,2025-12-18,1,,,,,フジパングループケンコウホケンクミアイ,0
1340,6010001261221,新規,0,2025-12-18,2025-12-18,シャモア株式会社,,株式会社,東京都,文京区,本郷５丁目１－１１ＫＩＩＨＯＵＳＥ（キーハウス）２０２,,13,105,1130033,,,,,,,2025-12-18,1,,,,,シャモア,0
1341,6010001261262,新規,0,2025-12-18,2025-12-18,Ｑｕａｎｔｓ　Ｂａｎｋ株式会社,,株式会社,東京都,中央区,銀座７丁目１５番８号タウンハイツ銀座４０６,,13,102,1040061,,,,,,,2025-12-18,1,,,,,クオンツバンク,0
1342,6010001261279,新規,0,2025-12-18,2025-12-18,Ｓｙｎｌａｉ株式会社,,株式会社,東京都,中央区,銀座８丁目１７番５号,,13,102,1040061,,,,,,,2025-12-18,1,,,,,シンライ,0
1343,6010001261329,新規,0,2025-12-18,2025-12-18,株式会社ｓｌｏｊｄ,,株式会社,東京都,中央区,日本橋浜町１丁目１２番４号リバーサイド浜町１Ｆ,,13,102,1030007,,,,,,,2025-12-18,1,,,,,スロイド,0
1346,6010003049763,新規,0,2025-12-18,2025-12-18,福井野村の森合同会社,,合同会社,東京都,千代田区,大手町２丁目２番２号アーバンネット大手町ビル,,13,101,1000004,,,,,,,2025-12-18,1,,,,,フクイノムラノモリ,0
1354,6010501055197,新規,0,2025-12-18,2025-12-18,株式会社トキワ,,株式会社,東京都,台東区,鳥越１丁目４番３号鳥越ミハマビル７Ｆ,,13,106,1110054,,,,,,,2025-12-18,1,,,,,トキワ,0
1355,6010503008120,新規,0,2025-12-18,2025-12-18,合同会社きゃってぃんぐ,,合同会社,東京都,台東区,元浅草１丁目６番１２号８２０号室,,13,106,1110041,,,,,,,2025-12-18,1,,,,,キャッティング,0
1366,6010601068446,新規,0,2025-12-18,2025-12-18,ＭＥＤＩＣＡＬ　ＰＡＲＴＮＥＲＳ株式会社,,株式会社,東京都,江東区,青海２丁目７番４号ＴＨＥ・ＳＯＨＯビル７１０,,13,108,1350064,,,,,,,2025-12-18,1,,,,,メディカルパートナーズ,0
1367,6010603011973,新規,0,2025-12-18,2025-12-18,合同会社ＮＩＣ,,合同会社,東京都,江東区,亀戸１丁目３２番３－６０１号,,13,108,1360071,,,,,,,2025-12-18,1,,,,,ニック,0
1368,6010701048785,新規,0,2025-12-18,2025-12-18,ジェネトラ株式会社,,株式会社,東京都,品川区,西五反田１丁目２６番２号五反田サンハイツ９１１,,13,109,1410031,,,,,,,2025-12-18,1,,,,,ジェネトラ,0
1375,6011001173670,新規,0,2025-12-18,2025-12-18,株式会社Ｅｇｕｉｎｏ,,株式会社,東京都,渋谷区,道玄坂１丁目１０番８号渋谷道玄坂東急ビル２Ｆ－Ｃ,,13,113,1500043,,,,,,,2025-12-18,1,,,,,エグイノ,0
1376,6011001174000,新規,0,2025-12-18,2025-12-18,ＲＯＹ　ＬＥＥ　ＪＡＰＡＮ株式会社,,株式会社,東京都,渋谷区,神宮前１丁目６－８神宮前タワービルディング１４階,,13,113,1500001,,,,,,,2025-12-18,1,,,,,ロイリージャパン,0
1377,6011001174272,新規,0,2025-12-18,2025-12-18,Ｐｌａｙｌｏｇｉｃ株式会社,,株式会社,東京都,目黒区,中目黒３丁目３番３アルス中目黒ヴィルトレーテ２１４,,13,110,1530061,,,,,,,2025-12-18,1,,,,,プレイロジック,0
1378,6011001174529,新規,0,2025-12-18,2025-12-18,Ｍｏｂｉｌｙｔｉｘ株式会社,,株式会社,東京都,目黒区,上目黒１丁目８番２８号,,13,110,1530051,,,,,,,2025-12-18,1,,,,,モビリティクス,0
1379,6011003023205,新規,0,2025-12-18,2025-12-18,アクアＰＲ＆コンサルティング合同会社,,合同会社,東京都,渋谷区,南平台町８番１４号イースタンホームズ南平台２０３,,13,113,1500036,,,,,,,2025-12-18,1,,,,,アクアピーアールアンドコンサルティング,0
1381,6011203004913,新規,0,2025-12-18,2025-12-18,合同会社３ｇ．ｌｕｖ,,合同会社,東京都,中野区,本町４丁目８番８号,,13,114,1640012,,,,,,,2025-12-18,1,,,,,スリージーラブ,0
1382,6011301031132,新規,0,2025-12-18,2025-12-18,株式会社おひさま組,,株式会社,東京都,杉並区,阿佐谷南１丁目２５番２３号第一丸伊荘Ｄ号室,,13,115,1660004,,,,,,,2025-12-18,1,,,,,オヒサマグミ,0
1383,6011303005803,新規,0,2025-12-18,2025-12-18,合同会社ａｃｈｓｅ　ｐｌｕｓ,,合同会社,東京都,杉並区,桃井１丁目３６番９－５０３号,,13,115,1670034,,,,,,,2025-12-18,1,,,,,アクスプラス,0
1385,6011601029248,新規,0,2025-12-18,2025-12-18,ＮＹＤ株式会社,,株式会社,東京都,練馬区,氷川台４丁目４７番２３号,,13,120,1790084,,,,,,,2025-12-18,1,,,,,エヌワイディー,0
1390,6012401043926,新規,0,2025-12-18,2025-12-18,株式会社ＴＨＸ,,株式会社,東京都,小金井市,梶野町１丁目５番５１号ルイージ１０３,,13,210,1840002,,,,,,,2025-12-18,1,,,,,ティーエイチエックス,0
1406,6020001166329,新規,0,2025-12-18,2025-12-18,ＧＯＡＴ　Ｃｏｎｓｕｌｔｉｎｇ株式会社,,株式会社,神奈川県,横浜市青葉区,青葉台１丁目５－４青葉台サンクスビル３Ｆ３３,,14,117,2270062,,,,,,,2025-12-18,1,,,,,ゴートコンサルティング,0
1407,6020001166378,新規,0,2025-12-18,2025-12-18,株式会社エムズ人財開発研究所,,株式会社,神奈川県,横浜市西区,北幸１丁目１１番１号水信ビル７階,,14,103,2200004,,,,,,,2025-12-18,1,,,,,エムズジンザイカイハツケンキュウショ,0
1408,6020003030004,新規,0,2025-12-18,2025-12-18,Ｂｕｂａｔｓｃｈ合同会社,,合同会社,神奈川県,横浜市中区,大和町２丁目４０－３１１,,14,104,2310846,,,,,,,2025-12-18,1,,,,,ブーバッチ,0
1419,6030001170197,新規,0,2025-12-18,2025-12-18,株式会社Ｓｐｉｃａ,,株式会社,埼玉県,行田市,壱里山町１番地３１柳澤ビル１階,00141930,11,206,3610046,,,,,,,2025-12-18,1,,,,,スピカ,0
1420,6030001170206,新規,0,2025-12-18,2025-12-18,株式会社ＧｏｌｄＣａｓｔｌｅ,,株式会社,埼玉県,さいたま市岩槻区,西原台２丁目１番１１号,,11,110,3390082,,,,,,,2025-12-18,1,,,,,ゴールドキャッスル,0
1422,6030003028294,新規,0,2025-12-18,2025-12-18,ＶＥＧＥ　ＧＡＴＥ合同会社,,合同会社,埼玉県,八潮市,伊草１丁目２８番地２,,11,234,3400806,,,,,,,2025-12-18,1,,,,,ベジゲート,0
1430,6040001141833,新規,0,2025-12-18,2025-12-18,株式会社Ｖｉｔａ　ｒｉｃｃａ,,株式会社,千葉県,船橋市,金杉９丁目１４－１０,,12,204,2730853,,,,,,,2025-12-18,1,,,,,ヴィータリッカ,0
1431,6040001141841,新規,0,2025-12-18,2025-12-18,株式会社サンライズ警備保障,,株式会社,千葉県,松戸市,六実３丁目９番地の２サンハイツ六実６０１号,,12,207,2702204,,,,,,,2025-12-18,1,,,,,サンライズケイビホショウ,0
1432,6040003029119,新規,0,2025-12-18,2025-12-18,Ｒ‐ＯＮＥ合同会社,,合同会社,千葉県,船橋市,夏見４丁目１番１１号,,12,204,2730865,,,,,,,2025-12-18,1,,,,,アールワン,0
1433,6040003029143,新規,0,2025-12-18,2025-12-18,合同会社ＬＳＡ,,合同会社,千葉県,木更津市,畑沢南４丁目１３番１号,,12,206,2920826,,,,,,,2025-12-18,1,,,,,エルエスエー,0
1436,6050001057772,新規,0,2025-12-18,2025-12-18,株式会社シンプラス,,株式会社,茨城県,土浦市,港町２丁目２番３２レグザ土浦アクアガーデン４０４号,,08,203,3000034,,,,,,,2025-12-18,1,,,,,シンプラス,0
1441,6060003005893,新規,0,2025-12-18,2025-12-18,合同会社アーチー,,合同会社,栃木県,那須塩原市,下永田３丁目１１５９番地７,,09,213,3292712,,,,,,,2025-12-18,1,,,,,アーチー,0
1442,6060005010396,新規,0,2025-12-18,2025-12-18,一般社団法人ラベンダーの灯り,,その他の設立登記法人,栃木県,那須塩原市,四区町７２８番地１２２,,09,213,3292746,,,,,,,2025-12-18,1,,,,,ラベンダーノアカリ,0
1445,6070001043655,新規,0,2025-12-18,2025-12-18,株式会社つむぐ,,株式会社,群馬県,みどり市,笠懸町鹿４７１２番地１１,,10,212,3792313,,,,,,,2025-12-18,1,,,,,ツムグ,0
1446,6080005007746,新規,0,2025-12-18,2025-12-18,一般社団法人ファンファーレ,,その他の設立登記法人,静岡県,静岡市駿河区,下川原１丁目４番１１号,,22,102,4210113,,,,,,,2025-12-18,1,,,,,ファンファーレ,0
1449,6080101025965,新規,0,2025-12-18,2025-12-18,株式会社Ｆｌｅｄｇｅ　Ｊａｐａｎ,,株式会社,静岡県,富士市,加島町８番２５－２号,,22,210,4160912,,,,,,,2025-12-18,1,,,,,フレッジジャパン,0
1453,6090001019661,新規,0,2025-12-18,2025-12-18,株式会社Ｓ＆Ｎ,,株式会社,山梨県,甲斐市,西八幡４２１５－８,,19,210,4000117,,,,,,,2025-12-18,1,,,,,エスアンドエヌ,0
1462,6120001282735,新規,0,2025-12-18,2025-12-18,株式会社Ｍａｃｈｉ,,株式会社,大阪府,大阪市住之江区,浜口西２丁目６番１号,,27,125,5590006,,,,,,,2025-12-18,1,,,,,マチ,0
1463,6120001282859,新規,0,2025-12-18,2025-12-18,株式会社ＴＭＣ,,株式会社,大阪府,大阪市福島区,海老江１丁目５番３０－１３１２号,,27,103,5530001,,,,,,,2025-12-18,1,,,,,ティーエムシー,0
1470,6120901051990,新規,0,2025-12-18,2025-12-18,中外建商ＨＤ株式会社,,株式会社,大阪府,池田市,八王寺１丁目４番１５号,,27,204,5630037,,,,,,,2025-12-18,1,,,,,チュウガイケンショウホールディングス,0
1475,6130001081260,新規,0,2025-12-18,2025-12-18,株式会社ＫＡＴＳＵコーポレーション,,株式会社,京都府,京都市伏見区,向島藤ノ木町３８番地２,,26,109,6128132,,,,,,,2025-12-18,1,,,,,カツコーポレーション,0
1485,6140001140899,新規,0,2025-12-18,2025-12-18,夏木株式会社,,株式会社,兵庫県,神戸市兵庫区,金平町１丁目１６－９山川ビル１０１,,28,105,6520873,,,,,,,2025-12-18,1,,,,,ナツキ,0
1486,6140001141154,新規,0,2025-12-18,2025-12-18,株式会社ノア,,株式会社,兵庫県,神戸市垂水区,塩屋町１丁目３番１９号リアライズ塩屋１階,,28,108,6550872,,,,,,,2025-12-18,1,,,,,ノア,0
1487,6140001141170,新規,0,2025-12-18,2025-12-18,株式会社ハニーハウス,,株式会社,兵庫県,西宮市,樋之池町６－１７,,28,204,6620084,,,,,,,2025-12-18,1,,,,,ハニーハウス,0
1503,6180001169910,新規,0,2025-12-18,2025-12-18,株式会社ＳＫＹ,,株式会社,愛知県,春日井市,桃山三丁目２２１－５,,23,206,4860000,,,,,,,2025-12-18,1,,,,,スカイ,0
1504,6180001169992,新規,0,2025-12-18,2025-12-18,株式会社ＤＥＥＰ,,株式会社,愛知県,稲沢市,山口本町２１番地,,23,220,4928346,,,,,,,2025-12-18,1,,,,,ディープ,0
1506,6180003029501,新規,0,2025-12-18,2025-12-18,ＤＳ　Ｎｉｐｐｏｎ　Ｌａｎｋａ合同会社,,合同会社,愛知県,春日井市,八事町１丁目１７２番地４,,23,206,4860836,,,,,,,2025-12-18,1,,,,,ディーエスニッポンランカ,0
1511,6200003007173,新規,0,2025-12-18,2025-12-18,合同会社ＳＰＡＲＫ,,合同会社,岐阜県,瑞穂市,古橋１４６２番地１０,,21,216,5010322,,,,,,,2025-12-18,1,,,,,スパーク,0
1516,6220003004193,新規,0,2025-12-18,2025-12-18,合同会社ＦＡＳＴ,,合同会社,石川県,金沢市,広岡２丁目３番２９号人人マンション・４０２号,,17,201,9200031,,,,,,,2025-12-18,1,,,,,ファスト,0
1528,6260003005452,新規,0,2025-12-18,2025-12-18,合同会社佳智,,合同会社,岡山県,倉敷市,児島小川１丁目１番６４号,,33,202,7110911,,,,,,,2025-12-18,1,,,,,ヨシノリ,0
1535,6290003017858,新規,0,2025-12-18,2025-12-18,合同会社ｈｉｐａｈｉｐａ,,合同会社,福岡県,福岡市中央区,平尾２丁目３番２４号ビバーン平尾５０１号,,40,133,8100014,,,,,,,2025-12-18,1,,,,,ヒパヒパ,0
1536,6290801032109,新規,0,2025-12-18,2025-12-18,ＥＮＬＹ株式会社,,株式会社,福岡県,北九州市小倉北区,片野３丁目６番１０号,,40,106,8020064,,,,,,,2025-12-18,1,,,,,エンリー,0
1537,6290805009887,新規,0,2025-12-18,2025-12-18,医療法人漕心会,,その他の設立登記法人,福岡県,北九州市八幡西区,別当町２６番２８号,,40,109,8060062,,,,,,,2025-12-18,1,,,,,ソウシンカイ,0
1538,6300001014442,新規,0,2025-12-18,2025-12-18,株式会社エヌ・ティー・パーソナル,,株式会社,佐賀県,鳥栖市,曽根崎町１２２３番地８,,41,203,8410025,,,,,,,2025-12-18,1,,,,,エヌティーパーソナル,0
1550,6330005011004,新規,0,2025-12-18,2025-12-18,医療法人心晴会,,その他の設立登記法人,熊本県,合志市,豊岡２０００番１０７,,43,216,8611115,,,,,,,2025-12-18,1,,,,,シンセイカイ,0
1552,6340001027853,新規,0,2025-12-18,2025-12-18,ロジクセルパートナーズ株式会社,,株式会社,鹿児島県,鹿児島市,東千石町５－１２ＣＵＢＥ　ＢＬＤＧ５Ｆ,,46,201,8920842,,,,,,,2025-12-18,1,,,,,ロジクセルパートナーズ,0
1553,6340003005048,新規,0,2025-12-18,2025-12-18,合同会社ポスティングッド,,合同会社,鹿児島県,鹿屋市,西大手町６－１,,46,203,8930008,,,,,,,2025-12-18,1,,,,,ポスティングッド,0
1554,6350001019858,新規,0,2025-12-18,2025-12-18,株式会社ＴＯＭＭＹ,,株式会社,宮崎県,延岡市,稲葉崎町２丁目２３９１－イ,,45,203,8820003,,,,,,,2025-12-18,1,,,,,トミー,0
1557,6360005007338,新規,0,2025-12-18,2025-12-18,沖縄県食肉事業協同組合,,その他の設立登記法人,沖縄県,南城市,大里字大城１９２７番地２階,,47,215,9011203,,,,,,,2025-12-18,1,,,,,オキナワケンショクニク,0
1564,6380003006208,新規,0,2025-12-18,2025-12-18,合同会社フォーチュン・パートナー・めぐみ,,合同会社,福島県,西白河郡矢吹町,新町１２１番地１,,07,466,9690202,,,,,,,2025-12-18,1,,,,,フォーチュンパートナーメグミ,0
1565,6390003002478,新規,0,2025-12-18,2025-12-18,ＱＢ　Ｔｒａｄｉｎｇ合同会社,,合同会社,山形県,鶴岡市,大荒字荒沢前２６５－５,,06,203,9997547,,,,,,,2025-12-18,1,,,,,,0
1575,6430001095890,新規,0,2025-12-18,2025-12-18,株式会社ＡＤＷＥＬ,,株式会社,北海道,札幌市手稲区,手稲前田６１２番地１１１,,01,109,0060829,,,,,,,2025-12-18,1,,,,,アドウェル,0
1580,6450001014808,新規,0,2025-12-18,2025-12-18,株式会社渡辺農場,,株式会社,北海道,雨竜郡北竜町,字碧水１０２番地１,,01,437,0782503,,,,,,,2025-12-18,1,,,,,ワタナベノウジョウ,0
1582,6470001021026,新規,0,2025-12-18,2025-12-18,株式会社瀬戸ホールディングス,,株式会社,香川県,三豊市,詫間町松崎２８１７番地１７,,37,208,7691102,,,,,,,2025-12-18,1,,,,,セトホールディングス,0
1583,6470005006667,新規,0,2025-12-18,2025-12-18,一般社団法人香川ウエルネスプロジェクト,,その他の設立登記法人,香川県,高松市,丸の内８番１５号,,37,201,7600033,,,,,,,2025-12-18,1,,,,,カガワウエルネスプロジェクト,0
1585,6700150133597,新規,0,2025-12-18,2025-12-18,愛知電機健康保険組合,,その他,愛知県,春日井市,愛知町１番地,,23,206,4860933,,,,,,,2025-12-18,1,,,,,アイチデンキケンコウホケンクミアイ,0
1586,6700150133606,新規,0,2025-12-18,2025-12-18,ヘンミ大倉健康保険組合,,その他,東京都,千代田区,神田駿河台４丁目４番地,,13,101,1010062,,,,,,,2025-12-18,1,,,,,ヘンミオオクラケンコウホケンクミアイ,0
1601,7010001261278,新規,0,2025-12-18,2025-12-18,株式会社Ｂｌｏｏｍｌｉｎｋ,,株式会社,東京都,中央区,銀座１丁目１２番４号Ｎ＆ＥＢＬＤ．７階,,13,102,1040061,,,,,,,2025-12-18,1,,,,,ブルームリンク,0
1602,7010001261294,新規,0,2025-12-18,2025-12-18,株式会社ＫＡＳＡＮＥ,,株式会社,東京都,文京区,大塚５丁目９番２号４階ＳＯＢＳ－Ｄ－１４号,,13,105,1120012,,,,,,,2025-12-18,1,,,,,カサネ,0
1607,7010005041098,新規,0,2025-12-18,2025-12-18,一般社団法人プラススリー,,その他の設立登記法人,東京都,千代田区,丸の内１丁目４番１号東京共同会計事務所内,,13,101,1000005,,,,,,,2025-12-18,1,,,,,プラススリー,0
1629,7010401195209,新規,0,2025-12-18,2025-12-18,株式会社アクアモ,,株式会社,東京都,港区,西新橋３丁目１４番５号,,13,103,1050003,,,,,,,2025-12-18,1,,,,,アクアモ,0
1633,7010501055196,新規,0,2025-12-18,2025-12-18,アジア銘爵国際貿易株式会社,,株式会社,東京都,台東区,台東４丁目１８番４号ＲＡＩＤ上野御徒町２階,,13,106,1100016,,,,,,,2025-12-18,1,,,,,アジアメイシャクコクサイボウエキ,0
1649,7010701048792,新規,0,2025-12-18,2025-12-18,ＭａｎｇａＸＸ株式会社,,株式会社,東京都,品川区,西五反田１丁目２６番２号五反田サンハイツ９１１,,13,109,1410031,,,,,,,2025-12-18,1,,,,,マンガックス,0
1652,7010901058625,新規,0,2025-12-18,2025-12-18,株式会社ＧａｔｅＲｉｓｅ,,株式会社,東京都,世田谷区,豪徳寺１丁目４１－３ライオンズマンション豪徳寺第三５０５号,,13,112,1540021,,,,,,,2025-12-18,1,,,,,ゲートライズ,0
1653,7010901058674,新規,0,2025-12-18,2025-12-18,株式会社ＭＡＹＡ,,株式会社,東京都,世田谷区,三宿２丁目１２番３－１０３号,,13,112,1540005,,,,,,,2025-12-18,1,,,,,マヤ,0
1657,7011001174222,新規,0,2025-12-18,2025-12-18,ＳＶＣ株式会社,,株式会社,東京都,渋谷区,桜丘町１６－１３桜丘フロントＩＩ,00141927,13,113,1500031,,,,,,,2025-12-18,1,,,,,エスブイシー,0
1658,7011001174288,新規,0,2025-12-18,2025-12-18,株式会社フィリア,,株式会社,東京都,渋谷区,神宮前２丁目５番６－４０２号,,13,113,1500001,,,,,,,2025-12-18,1,,,,,フィリア,0
1659,7011001174528,新規,0,2025-12-18,2025-12-18,株式会社ｚｕｕｕ,,株式会社,東京都,目黒区,青葉台１丁目１４番１７号ＳＹＴＢｌｄｇ２Ｆ,,13,110,1530042,,,,,,,2025-12-18,1,,,,,ズー,0
1662,7011003023121,新規,0,2025-12-18,2025-12-18,合同会社Ｓｅｍｅｇｏ＆Ｃｏｍｐａｎｙ,,合同会社,東京都,目黒区,中目黒２丁目７番１４－５０６号ＮＩＣハイム中目黒,,13,110,1530061,,,,,,,2025-12-18,1,,,,,セメーゴアンドカンパニー,0
1663,7011003023179,新規,0,2025-12-18,2025-12-18,マネーラボ合同会社,,合同会社,東京都,渋谷区,恵比寿南２丁目１２－４－２０７,,13,113,1500022,,,,,,,2025-12-18,1,,,,,マネーラボ,0
1669,7011101114391,新規,0,2025-12-18,2025-12-18,ＶａｎＲｏｏｍ株式会社,,株式会社,東京都,新宿区,西新宿３丁目３番１３号西新宿水間ビル２Ｆ,,13,104,1600023,,,,,,,2025-12-18,1,,,,,バンルーム,0
1673,7011201026859,新規,0,2025-12-18,2025-12-18,三鈴ホールディングス株式会社,,株式会社,東京都,中野区,中央１丁目１４番１号,,13,114,1640011,,,,,,,2025-12-18,1,,,,,ミスズホールディングス,0
1676,7011301031131,新規,0,2025-12-18,2025-12-18,株式会社Ｎｏ．７,,株式会社,東京都,杉並区,高円寺南４丁目８番７号ルミエールマンション４０２,,13,115,1660003,,,,,,,2025-12-18,1,,,,,ナンバーセブン,0
1678,7011701029048,新規,0,2025-12-18,2025-12-18,ｅｉｗａアセット株式会社,,株式会社,東京都,江戸川区,宇喜田町１０２５番地５,,13,123,1340082,,,,,,,2025-12-18,1,,,,,エイワアセット,0
1679,7011801047172,新規,0,2025-12-18,2025-12-18,株式会社ｎｏｔ　ｂｌｕｅ,,株式会社,東京都,葛飾区,奥戸４丁目１５番２５号,,13,122,1240022,,,,,,,2025-12-18,1,,,,,ノットブルー,0
1681,7012401043933,新規,0,2025-12-18,2025-12-18,株式会社ぺぺろんちーの,,株式会社,東京都,武蔵野市,吉祥寺南町３丁目５‐１‐１Ｆ,,13,203,1800003,,,,,,,2025-12-18,1,,,,,ペペロンチーノ,0
1682,7012403007523,新規,0,2025-12-18,2025-12-18,合同会社ワークネスト,,合同会社,東京都,府中市,幸町１丁目３番地の２６,,13,206,1830054,,,,,,,2025-12-18,1,,,,,ワークネスト,0
1684,7012803003948,新規,0,2025-12-18,2025-12-18,合同会社ＭＴＩＮ,,合同会社,東京都,武蔵村山市,残堀５丁目８０番地の１７,,13,223,2080034,,,,,,,2025-12-18,1,,,,,エムティーアイエヌ,0
1690,7013303008000,新規,0,2025-12-18,2025-12-18,合同会社ＭＵＡＹＫＨＡＯ,,合同会社,東京都,豊島区,南長崎５丁目２８番１０号２階ＹＫジム内,,13,116,1710052,,,,,,,2025-12-18,1,,,,,ムエカオ,0
1702,7030001170171,新規,0,2025-12-18,2025-12-18,株式会社Ｔ２Ｍ,,株式会社,埼玉県,熊谷市,柿沼８３１番地１第一総和ハイツ１０３号,,11,202,3600803,,,,,,,2025-12-18,1,,,,,ティーツーエム,0
1703,7030001170221,新規,0,2025-12-18,2025-12-18,ＳＭＫ　ＪＡＰＡＮ株式会社,,株式会社,埼玉県,さいたま市中央区,本町西４丁目７番１６号,,11,105,3380004,,,,,,,2025-12-18,1,,,,,エスエムケイジャパン,0
1705,7030003028244,新規,0,2025-12-18,2025-12-18,合同会社エコネットサービス,,合同会社,埼玉県,吉川市,栄町１４８９番地１７,,11,243,3420050,,,,,,,2025-12-18,1,,,,,エコネットサービス,0
1710,7040001141849,新規,0,2025-12-18,2025-12-18,株式会社Ｇｏｏｌ,,株式会社,千葉県,流山市,おおたかの森南１丁目２５－２パークリーフ６１７,,12,220,2700139,,,,,,,2025-12-18,1,,,,,グール,0
1712,7040003029167,新規,0,2025-12-18,2025-12-18,合同会社ＭＭＷ,,合同会社,千葉県,柏市,豊四季６９８番地７９,,12,217,2770863,,,,,,,2025-12-18,1,,,,,エムエムダブリュ,0
1721,7060001038861,新規,0,2025-12-18,2025-12-18,３ＰＡＣ株式会社,,株式会社,栃木県,足利市,栄町２丁目１０１番地,,09,202,3260815,,,,,,,2025-12-18,1,,,,,スリーパック,0
1724,7070001043654,新規,0,2025-12-18,2025-12-18,株式会社インゼクト,,株式会社,群馬県,高崎市,下小鳥町３０番地９ｕｌｔｌａｓｅｐｔ１０１,,10,202,3700074,,,,,,,2025-12-18,1,,,,,インゼクト,0
1725,7070001043662,新規,0,2025-12-18,2025-12-18,住まい創造パートナーズ株式会社,,株式会社,群馬県,高崎市,中豊岡町８２４番地１,,10,202,3700874,,,,,,,2025-12-18,1,,,,,スマイソウゾウパートナーズ,0
1730,7080103003489,新規,0,2025-12-18,2025-12-18,合同会社Ｓ・Ｐｅａｋ,,合同会社,静岡県,富士市,今泉５丁目１２－３０,,22,210,4170001,,,,,,,2025-12-18,1,,,,,エスピーク,0
1740,7120001282882,新規,0,2025-12-18,2025-12-18,ＩＧグランド株式会社,,株式会社,大阪府,枚方市,菊丘町１０番１３号,,27,210,5730091,,,,,,,2025-12-18,1,,,,,アイジーグランド,0
1744,7120003031305,新規,0,2025-12-18,2025-12-18,合同会社Ｖａｒｋ,,合同会社,大阪府,大阪市福島区,福島５丁目９番１５号ハイツ正和３１１号,,27,103,5530003,,,,,,,2025-12-18,1,,,,,ヴァーク,0
1745,7120003031494,新規,0,2025-12-18,2025-12-18,合同会社ｏｆｆｉｃｅやまもと,,合同会社,大阪府,大阪市東住吉区,田辺２丁目９番８号,,27,121,5460031,,,,,,,2025-12-18,1,,,,,オフィスヤマモト,0
1746,7120003031503,新規,0,2025-12-18,2025-12-18,合同会社ゆず,,合同会社,大阪府,門真市,御堂町２番２５号,,27,223,5710064,,,,,,,2025-12-18,1,,,,,ユズ,0
1747,7120101072960,新規,0,2025-12-18,2025-12-18,ＨＡＭＡ　ＢＡＳＥ株式会社,,株式会社,大阪府,高石市,羽衣２丁目２番５２号,,27,225,5920002,,,,,,,2025-12-18,1,,,,,ハマベース,0
1748,7120101072969,新規,0,2025-12-18,2025-12-18,河南コーポレーション株式会社,,株式会社,大阪府,富田林市,喜志町５丁目３番３３－７号,,27,214,5840005,,,,,,,2025-12-18,1,,,,,カナンコーポレーション,0
1749,7120103006900,新規,0,2025-12-18,2025-12-18,合同会社やまのて,,合同会社,大阪府,阪南市,下出７４番地の２１,,27,232,5990202,,,,,,,2025-12-18,1,,,,,ヤマノテ,0
1753,7120901052006,新規,0,2025-12-18,2025-12-18,株式会社ＭＩＺ,,株式会社,大阪府,豊中市,緑丘１丁目３２番１８号グリーンロータス２１１号,,27,203,5600002,,,,,,,2025-12-18,1,,,,,ミズ,0
1754,7120903005985,新規,0,2025-12-18,2025-12-18,ＴＡＧＡＭＩＮ合同会社,,合同会社,大阪府,茨木市,北春日丘４丁目１２番１５号エスポワール・アイ北春日丘ＩＩ３０２号,00141936,27,211,5670048,,,,,,,2025-12-18,1,,,,,タガミン,0
1756,7130001081243,新規,0,2025-12-18,2025-12-18,株式会社アオ心,,株式会社,京都府,京都市中京区,壬生御所ノ内町２４番地１坂田マンション３,,26,104,6048872,,,,,,,2025-12-18,1,,,,,アオゴコロ,0
1768,7140001141153,新規,0,2025-12-18,2025-12-18,株式会社ＶｉＶｉｆｙ,,株式会社,兵庫県,姫路市,辻井４丁目６番１２号－１０３,00141929,28,201,6700083,,,,,,,2025-12-18,1,,,,,ヴィヴィフィー,0
1772,7140003022979,新規,0,2025-12-18,2025-12-18,合同会社ＳＦＲ,,合同会社,兵庫県,神戸市灘区,灘南通４丁目１－２２－２０２,,28,102,6570841,,,,,,,2025-12-18,1,,,,,エスエフアール,0
1773,7140005027729,新規,0,2025-12-18,2025-12-18,特定非営利活動法人伊丹ジュニアＴ＆Ｆクラブ,,その他の設立登記法人,兵庫県,伊丹市,昆陽北１丁目１－１,,28,207,6640016,,,,,,,2025-12-18,1,,,,,イタミジュニアトラックアンドフィールドクラブ,0
1776,7160001027292,新規,0,2025-12-18,2025-12-18,株式会社Ｒａｐｐｏｒｔ,,株式会社,滋賀県,大津市,際川２丁目２３番１０号,,25,201,5200002,,,,,,,2025-12-18,1,,,,,ラポール,0
1780,7180001169918,新規,0,2025-12-18,2025-12-18,ＭＥＩＷＡ　ＷＥＡＶＥ　ＨＯＬＤＩＮＧＳ株式会社,,株式会社,愛知県,弥富市,楠３丁目１３番地３,,23,235,4980066,,,,,,,2025-12-18,1,,,,,メイワウィーブホールディングス,0
1781,7180001169934,新規,0,2025-12-18,2025-12-18,Ｂｌｕｅ　Ｒｏｓｅ株式会社,,株式会社,愛知県,名古屋市北区,六が池町１４５番地,,23,103,4620002,,,,,,,2025-12-18,1,,,,,ブルーローズ,0
1791,7210001020424,新規,0,2025-12-18,2025-12-18,株式会社ＳＨＩＥＬＤＳ,,株式会社,福井県,福井市,茱崎町第１３号１１番地３,,18,201,9103552,,,,,,,2025-12-18,1,,,,,シールズ,0
1803,7260001040822,新規,0,2025-12-18,2025-12-18,一杯の株式会社,,株式会社,岡山県,井原市,井原町１２１番地５,,33,207,7150019,,,,,,,2025-12-18,1,,,,,イッパイノ,0
1804,7260001040830,新規,0,2025-12-18,2025-12-18,株式会社Ｔｏｎａｒｉ,,株式会社,岡山県,総社市,久代５００２番地３１６,,33,208,7101201,,,,,,,2025-12-18,1,,,,,トナリ,0
1808,7290001112552,新規,0,2025-12-18,2025-12-18,株式会社ヒマツブシ,,株式会社,福岡県,久留米市,東町２５－２５マルシェビル２Ｆ,,40,203,8300032,,,,,,,2025-12-18,1,,,,,ヒマツブシ,0
1812,7290005019918,新規,0,2025-12-18,2025-12-18,医療法人和光会,,その他の設立登記法人,福岡県,大野城市,錦町２丁目３番１２ラ・フルール春日原２階Ｂ号室,,40,219,8160935,,,,,,,2025-12-18,1,,,,,ワコウカイ,0
1819,7310003005149,新規,0,2025-12-18,2025-12-18,合同会社一島建設,,合同会社,長崎県,長崎市,矢の平４丁目８番１３号,,42,201,8500811,,,,,,,2025-12-18,1,,,,,イチシマケンセツ,0
1821,7320001021502,新規,0,2025-12-18,2025-12-18,株式会社ＩＧＮＩＳ,,株式会社,大分県,豊後大野市,三重町赤嶺１１８３番地１４ひまわり荘１０２,,44,212,8797111,,,,,,,2025-12-18,1,,,,,イグニス,0
1823,7330001033843,新規,0,2025-12-18,2025-12-18,株式会社シェルスター,,株式会社,熊本県,熊本市東区,八反田２丁目７番５１号,,43,102,8618034,,,,,,,2025-12-18,1,,,,,シェルスター,0
1824,7330001033851,新規,0,2025-12-18,2025-12-18,株式会社Ｓ．Ｋ．ＷＯＲＫＳ,,株式会社,熊本県,熊本市北区,山室１丁目５番１４号,,43,105,8600084,,,,,,,2025-12-18,1,,,,,エスケーワークス,0
1830,7350001019857,新規,0,2025-12-18,2025-12-18,株式会社Ｓｇｒｏｕｐ,,株式会社,宮崎県,宮崎市,大島町立野１４９９番地１グランバリエフィールドＣ棟１０２号,,45,201,8800824,,,,,,,2025-12-18,1,,,,,エスグループ,0
1836,7430001095873,新規,0,2025-12-18,2025-12-18,日鉄興和不動産農業株式会社,,株式会社,北海道,室蘭市,中島本町１丁目４番４号,,01,205,0500075,,,,,,,2025-12-18,1,,,,,ニッテツコウワフドウサンノウギョウ,0
1839,7470005006666,新規,0,2025-12-18,2025-12-18,一般社団法人国際文化振興協会,,その他の設立登記法人,香川県,高松市,中野町１５番１号,,37,201,7600008,,,,,,,2025-12-18,1,,,,,コクサイブンカシンコウキョウカイ,0
1844,7500001026680,新規,0,2025-12-18,2025-12-18,株式会社ＴｒｕＳｔ　ａｎｄ,,株式会社,愛媛県,宇和島市,本町追手１丁目３番２４号光ビル１Ｆ,,38,203,7980041,,,,,,,2025-12-18,1,,,,,トラストアンド,0
1845,7700150122046,新規,0,2025-12-18,2025-12-18,Ｒｕｎ－Ｔｉｇｅｒ　ｄ．ｏ．ｏ．,,外国会社等,,,,,,,,Ｐｏｄｓｋｒａｊｎｉｋ　２５，１３８０　Ｃｅｒｋｎｉｃａ，Ｓｌｏｖｅｎｉａ,,,,,,2025-12-18,1,,,,,ランタイガーディーオーオー,0
1846,7700150133596,新規,0,2025-12-18,2025-12-18,ＭＲ．ＡＵＴＯＭＯＴＩＶＥ　ＰＶＴ　ＬＴＤ,,外国会社等,神奈川県,愛甲郡清川村,煤ヶ谷１０６６番地３,,14,402,2430112,スリランカ民主社会主義共和国、キャンディ、アクラナ、ドダンゴラ、Ｎｏ．２３３,,,,,,2025-12-18,1,,,,,エムアールオートモテイブプライベートリミテツド,0
1847,7700150133605,新規,0,2025-12-18,2025-12-18,三機工業健康保険組合,,その他,東京都,中央区,明石町８番１号,,13,102,1040044,,,,,,,2025-12-18,1,,,,,サンキコウギョウケンコウホケンクミアイ,0
1848,7700150133613,新規,0,2025-12-18,2025-12-18,ＳＢＩ新生銀行健康保険組合,,その他,東京都,中央区,日本橋室町２丁目４番３号,,13,102,1030022,,,,,,,2025-12-18,1,,,,,エスビーアイシンセイギンコウケンコウホケンクミアイ,0
1857,8010001261228,新規,0,2025-12-18,2025-12-18,Ｓｐａｒｋｆｏｒｍ株式会社,,株式会社,東京都,中央区,銀座１丁目１２番４号７階,,13,102,1040061,,,,,,,2025-12-18,1,,,,,スパークフォーム,0
1858,8010001261244,新規,0,2025-12-18,2025-12-18,ワンライフ株式会社,,株式会社,東京都,千代田区,神田須田町１丁目７番８号ＶＯＲＴ秋葉原ＩＶ２Ｆ,00141934,13,101,1010041,,,,,,,2025-12-18,1,,,,,,0
1859,8010001261260,新規,0,2025-12-18,2025-12-18,メドックスラボ株式会社,,株式会社,東京都,中央区,銀座３丁目１１番１６号ＶＯＲＴ銀座イースト１０Ｆ,,13,102,1040061,,,,,,,2025-12-18,1,,,,,メドラックスラボ,0
1862,8010003049761,新規,0,2025-12-18,2025-12-18,ＬＮ水道橋合同会社,,合同会社,東京都,中央区,京橋２丁目１２番６号ＡＯＪ税理士法人内,,13,102,1040031,,,,,,,2025-12-18,1,,,,,エルエヌスイドウバシ,0
1863,8010003049794,新規,0,2025-12-18,2025-12-18,合同会社ＥＳ３,,合同会社,東京都,千代田区,丸の内１丁目４番１号東京共同会計事務所内,,13,101,1000005,,,,,,,2025-12-18,1,,,,,イーエススリー,0
1865,8010005041097,新規,0,2025-12-18,2025-12-18,一般社団法人プラスワン,,その他の設立登記法人,東京都,千代田区,丸の内１丁目４番１号東京共同会計事務所内,,13,101,1000005,,,,,,,2025-12-18,1,,,,,プラスワン,0
1881,8010401195224,新規,0,2025-12-18,2025-12-18,株式会社ＭＡＩＳＯＮ　ＣＨＥＦ,,株式会社,東京都,港区,北青山１丁目３番１号アールキューブ青山３階,,13,103,1070061,,,,,,,2025-12-18,1,,,,,メゾンシェフ,0
1883,8010403036814,新規,0,2025-12-18,2025-12-18,合同会社プラム,,合同会社,東京都,港区,白金台４丁目１８番４号,,13,103,1080071,,,,,,,2025-12-18,1,,,,,プラム,0
1885,8010501055195,新規,0,2025-12-18,2025-12-18,Ｊａｐａｎ　Ｓｋｙ　Ｇｅｍｓ株式会社,,株式会社,東京都,台東区,元浅草３丁目１３番８号２Ｆ,,13,106,1110041,,,,,,,2025-12-18,1,,,,,ジャパンスカイジェムズ,0
1888,8010603011971,新規,0,2025-12-18,2025-12-18,海汐商事合同会社,,合同会社,東京都,江東区,大島４丁目１２番２号,,13,108,1360072,,,,,,,2025-12-18,1,,,,,カイセキショウジ,0
1889,8010703008034,新規,0,2025-12-18,2025-12-18,Ｓｕｓｔａｉｎａ　Ｃａｐｉｔａｌ合同会社,,合同会社,東京都,品川区,小山７丁目８番１５号,,13,109,1420062,,,,,,,2025-12-18,1,,,,,サステナキャピタル,0
1890,8010703008042,新規,0,2025-12-18,2025-12-18,合同会社鍛冶,,合同会社,東京都,品川区,大崎４丁目１１－５グランドール大崎２０６,,13,109,1410032,,,,,,,2025-12-18,1,,,,,カジ,0
1896,8011001174444,新規,0,2025-12-18,2025-12-18,フロレゾン株式会社,,株式会社,東京都,目黒区,青葉台３丁目１５番１７号ＦＡＲＯ中目黒１階,,13,110,1530042,,,,,,,2025-12-18,1,,,,,フロレゾン,0
1897,8011001174460,新規,0,2025-12-18,2025-12-18,株式会社アドバンス,,株式会社,東京都,渋谷区,東２丁目１４番１９号,,13,113,1500011,,,,,,,2025-12-18,1,,,,,アドバンス,0
1898,8011001174527,新規,0,2025-12-18,2025-12-18,株式会社ＴＥＴＯＲＡ,,株式会社,東京都,目黒区,大橋２丁目１７番９号,,13,110,1530044,,,,,,,2025-12-18,1,,,,,テトラ,0
1899,8011003023095,新規,0,2025-12-18,2025-12-18,合同会社ドアフェザー,,合同会社,東京都,渋谷区,道玄坂１丁目１６番６号二葉ビル８ｂ,,13,113,1500043,,,,,,,2025-12-18,1,,,,,ドアフェザー,0
1904,8011203004911,新規,0,2025-12-18,2025-12-18,合同会社Ｓｕｃｃｅｅｄ,,合同会社,東京都,中野区,鷺宮６丁目５番４号,,13,114,1650032,,,,,,,2025-12-18,1,,,,,サクシード,0
1906,8011301031139,新規,0,2025-12-18,2025-12-18,株式会社マックス,,株式会社,東京都,杉並区,南荻窪４丁目３番１９号,,13,115,1670052,,,,,,,2025-12-18,1,,,,,マックス,0
1912,8011801047188,新規,0,2025-12-18,2025-12-18,株式会社アークシンク,,株式会社,東京都,足立区,保木間５丁目１番１号,,13,121,1210064,,,,,,,2025-12-18,1,,,,,アークシンク,0
1913,8011801047196,新規,0,2025-12-18,2025-12-18,株式会社イクザス,,株式会社,東京都,足立区,新田２丁目７番１９号,,13,121,1230865,,,,,,,2025-12-18,1,,,,,イクザス,0
1914,8012401043924,新規,0,2025-12-18,2025-12-18,Ｔｓｕｋｉｎｏｗａ　Ｃｏｎｎｅｃｔ株式会社,,株式会社,東京都,調布市,多摩川３丁目２２番地３,,13,208,1820025,,,,,,,2025-12-18,1,,,,,ツキノワコネクト,0
1915,8012401043932,新規,0,2025-12-18,2025-12-18,株式会社三雲,,株式会社,東京都,武蔵野市,中町２丁目７番１６号ラクセリア武蔵野中町２０１,,13,203,1800006,,,,,,,2025-12-18,1,,,,,ミクモ,0
1918,8012403007480,新規,0,2025-12-18,2025-12-18,ｉｒｏｈａ＆ｏｕ合同会社,,合同会社,東京都,調布市,多摩川１丁目２９―１エルディア２１０,,13,208,1820025,,,,,,,2025-12-18,1,,,,,イロハアンドオウ,0
1919,8012403007522,新規,0,2025-12-18,2025-12-18,合同会社Ｋａｍｅｇｕｍｉ,,合同会社,東京都,三鷹市,下連雀３丁目３５－１Ｎ・Ｅ・Ｏ・ＣＩＴＹ・ＭＩＴＡＫＡ６Ｆ,,13,204,1810013,,,,,,,2025-12-18,1,,,,,カメグミ,0
1924,8012803003947,新規,0,2025-12-18,2025-12-18,合同会社エール,,合同会社,東京都,立川市,若葉町１丁目２４－７９,,13,202,1900001,,,,,,,2025-12-18,1,,,,,エール,0
1928,8020001166392,新規,0,2025-12-18,2025-12-18,ＮＪＧホールディングス株式会社,,株式会社,神奈川県,川崎市中原区,新丸子東２丁目９２４番１６－３０２,,14,133,2110004,,,,,,,2025-12-18,1,,,,,エヌジェイジーホールディングス,0
1929,8020003029944,新規,0,2025-12-18,2025-12-18,合同会社松屋工業,,合同会社,神奈川県,横浜市保土ケ谷区,和田２丁目１７－９横浜和田町パークホームズ３０５,,14,106,2400065,,,,,,,2025-12-18,1,,,,,マツヤコウギョウ,0
1930,8020005017088,新規,0,2025-12-18,2025-12-18,一般社団法人日本転倒科学共創機構,,その他の設立登記法人,神奈川県,横浜市保土ケ谷区,常盤台７９番７号,,14,106,2400067,,,,,,,2025-12-18,1,,,,,ニホンテントウカガクキョウソウキコウ,0
1938,8030001170187,新規,0,2025-12-18,2025-12-18,株式会社塗研屋,,株式会社,埼玉県,さいたま市中央区,鈴谷７丁目６番３－５０６号,,11,105,3380013,,,,,,,2025-12-18,1,,,,,トケンヤ,0
1939,8030001170220,新規,0,2025-12-18,2025-12-18,株式会社ＯＥＦ,,株式会社,埼玉県,越谷市,蒲生寿町５番１１号アンバースクエア,,11,222,3430836,,,,,,,2025-12-18,1,,,,,オーイーエフ,0
1947,8040001141848,新規,0,2025-12-18,2025-12-18,安運運輸株式会社,,株式会社,千葉県,印西市,草深１１１０番地３３,,12,231,2701337,,,,,,,2025-12-18,1,,,,,アンウンウンユ,0
1949,8040005022961,新規,0,2025-12-18,2025-12-18,一般社団法人意識学研究所,,その他の設立登記法人,千葉県,夷隅郡御宿町,新町８１６番地５アーバンコンフォート１３１３,,12,443,2995103,,,,,,,2025-12-18,1,,,,,,0
1962,8070001043653,新規,0,2025-12-18,2025-12-18,株式会社省人,,株式会社,群馬県,伊勢崎市,美茂呂町３９９１番地１,,10,204,3720037,,,,,,,2025-12-18,1,,,,,ショウジン,0
1967,8080101025963,新規,0,2025-12-18,2025-12-18,株式会社ＷＡＬＬ＆ＲＯＯＦ,,株式会社,静岡県,富士市,吉原３丁目５番１４号,,22,210,4170051,,,,,,,2025-12-18,1,,,,,ウォールアンドルーフ,0
1971,8110001039795,新規,0,2025-12-18,2025-12-18,いえみらいサポート株式会社,,株式会社,新潟県,上越市,大和２丁目９番１５号,,15,222,9430861,,,,,,,2025-12-18,1,,,,,イエミライサポート,0
1985,8120001282799,新規,0,2025-12-18,2025-12-18,株式会社イレブンセキュリティ,,株式会社,大阪府,大阪市城東区,永田４丁目３番２３号,,27,118,5360022,,,,,,,2025-12-18,1,,,,,イレブンセキュリティ,0
1986,8120001282840,新規,0,2025-12-18,2025-12-18,株式会社池永ラボ,,株式会社,大阪府,大阪市西淀川区,野里１丁目１２番２８号,,27,113,5550024,,,,,,,2025-12-18,1,,,,,イケナガラボ,0
1987,8120001282873,新規,0,2025-12-18,2025-12-18,株式会社ＨＯＲＩＺＯＮ,,株式会社,大阪府,大阪市平野区,平野西５丁目６番２４号,,27,126,5470033,,,,,,,2025-12-18,1,,,,,ホライズン,0
1988,8120001282881,新規,0,2025-12-18,2025-12-18,株式会社ＲａｗＡｃｔｉｖｅ,,株式会社,大阪府,寝屋川市,高柳４丁目１０－１６,,27,215,5720051,,,,,,,2025-12-18,1,,,,,ロウアクティブ,0
1989,8120003031378,新規,0,2025-12-18,2025-12-18,合同会社水素吸うてみて,,合同会社,大阪府,大阪市港区,磯路３丁目１５番１６号,,27,107,5520003,,,,,,,2025-12-18,1,,,,,スイソスウテミテ,0
1990,8120003031502,新規,0,2025-12-18,2025-12-18,ＳＩアセット合同会社,,合同会社,大阪府,大阪市東淀川区,東中島２丁目１－９ＪＳＴ羽柴２号館５Ｆ,,27,114,5330033,,,,,,,2025-12-18,1,,,,,エスアイアセット,0
1991,8120103006899,新規,0,2025-12-18,2025-12-18,あうん合同会社,,合同会社,大阪府,堺市東区,菩提町４丁８７番地２３,,27,143,5998103,,,,,,,2025-12-18,1,,,,,アウン,0
1994,8120901051989,新規,0,2025-12-18,2025-12-18,株式会社Ｌｉｍｂ,,株式会社,大阪府,豊中市,東豊中町５丁目２番１４１－３０１号,,27,203,5600003,,,,,,,2025-12-18,1,,,,,リム,0
1996,8122001040006,新規,0,2025-12-18,2025-12-18,株式会社ＲＥＶＥコンシェル,,株式会社,大阪府,東大阪市,小阪１丁目４番２４－１０２号,,27,227,5770801,,,,,,,2025-12-18,1,,,,,,0
1997,8122003003423,新規,0,2025-12-18,2025-12-18,ＡＲＩＳ　ｄｅｌｉｖｅｒｙ合同会社,,合同会社,大阪府,四條畷市,田原台２丁目３２番３号,,27,229,5750013,,,,,,,2025-12-18,1,,,,,アリスデリバリー,0
1999,8130001081218,新規,0,2025-12-18,2025-12-18,ＴＯＨＡ株式会社,,株式会社,京都府,京都市上京区,上長者町通浄福寺東入高台院町５４０番地,,26,102,6028271,,,,,,,2025-12-18,1,,,,,トハ,0
2008,8140001141160,新規,0,2025-12-18,2025-12-18,ＢＲＩＧＨＴｐｌｕｓ株式会社,,株式会社,兵庫県,神戸市中央区,伊藤町１１０番地２、７階７号,,28,110,6500032,,,,,,,2025-12-18,1,,,,,ブライトプラス,0
2009,8140001141169,新規,0,2025-12-18,2025-12-18,株式会社じぶんデザイン,,株式会社,兵庫県,川西市,火打１丁目１４－８アネックス川西４１２号室,,28,217,6660017,,,,,,,2025-12-18,1,,,,,ジブンデザイン,0
2020,8150001028596,新規,0,2025-12-18,2025-12-18,株式会社Ｈｏｋｏｒｕ,,株式会社,奈良県,山辺郡山添村,大字北野１２８５,,29,322,6302211,,,,,,,2025-12-18,1,,,,,ホコル,0
2021,8150001028605,新規,0,2025-12-18,2025-12-18,スリーライクビューティー株式会社,,株式会社,奈良県,生駒市,本町１０－１生駒ビル３０２号,,29,209,6300256,,,,,,,2025-12-18,1,,,,,スリーライクビューティー,0
2032,8180001169933,新規,0,2025-12-18,2025-12-18,株式会社ＭＵＳＵＢＩ,,株式会社,愛知県,名古屋市中区,大須１丁目１８０４番１号,,23,106,4600011,,,,,,,2025-12-18,1,,,,,ムスビ,0
2036,8200001044530,新規,0,2025-12-18,2025-12-18,株式会社シセイエンジニアリング,,株式会社,岐阜県,各務原市,蘇原中央町３丁目２番地３,,21,213,5040813,,,,,,,2025-12-18,1,,,,,シセイエンジニアリング,0
2037,8200001044547,新規,0,2025-12-18,2025-12-18,Ｓ＆Ｓ株式会社,,株式会社,岐阜県,多治見市,平井町２丁目３５番地,,21,204,5070058,,,,,,,2025-12-18,1,,,,,エスアンドエス,0
2041,8240001065952,新規,0,2025-12-18,2025-12-18,Ｔｒｉｎｏｖａｔｅ　Ｈｏｌｄｉｎｇｓ株式会社,,株式会社,広島県,広島市安芸区,船越南４丁目１０番３号,,34,107,7360082,,,,,,,2025-12-18,1,,,,,トリノベートホールディングス,0
2048,8250003003868,新規,0,2025-12-18,2025-12-18,合同会社あかつき,,合同会社,山口県,周南市,上遠石町６番４１号,,35,215,7450817,,,,,,,2025-12-18,1,,,,,アカツキ,0
2062,8290005019917,新規,0,2025-12-18,2025-12-18,特定非営利活動法人安全・安心まちづくり福岡,,その他の設立登記法人,福岡県,福岡市中央区,今泉２丁目３番４１－３０８号,,40,133,8100021,,,,,,,2025-12-18,1,,,,,アンゼンアンシンマチヅクリフクオカ,0
2064,8290801032115,新規,0,2025-12-18,2025-12-18,株式会社ＳＡＭＵＲＡＩ,,株式会社,福岡県,田川郡福智町,金田７８６番地４,,40,610,8221201,,,,,,,2025-12-18,1,,,,,サムライ,0
2069,8310003005148,新規,0,2025-12-18,2025-12-18,合同会社ＨＮＺＴＦ．Ｊ,,合同会社,長崎県,諫早市,多良見町化屋１３７８番地４５,,42,204,8590401,,,,,,,2025-12-18,1,,,,,ハンズタフジェイ,0
2072,8320001021501,新規,0,2025-12-18,2025-12-18,株式会社Ｓ＆Ｓ,,株式会社,大分県,大分市,大字中判田２２８－１,,44,201,8701113,,,,,,,2025-12-18,1,,,,,エスアンドエス,0
2073,8320005010277,新規,0,2025-12-18,2025-12-18,一般社団法人知財教育デザイン協議会,,その他の設立登記法人,大分県,大分市,上野丘東１番１１号大分県立芸術文化短期大学,,44,201,8700833,,,,,,,2025-12-18,1,,,,,チザイキョウイクデザインキョウギカイ,0
2074,8330001033850,新規,0,2025-12-18,2025-12-18,株式会社高田ファーム,00141926,株式会社,熊本県,熊本市北区,植木町山本１７６９番地,,43,105,8610101,,,,,,,2025-12-18,1,,,,,タカタファーム,0
2077,8330003011350,新規,0,2025-12-18,2025-12-18,合同会社Ｒｅｇｅｎｅ,,合同会社,熊本県,熊本市東区,江津１丁目１７－３９,,43,102,8620942,,,,,,,2025-12-18,1,,,,,リジェネ,0
2079,8340001027835,新規,0,2025-12-18,2025-12-18,株式会社ＢＩＧＷＡＹ,,株式会社,鹿児島県,姶良市,加治木町港町１１６番地,,46,225,8995221,,,,,,,2025-12-18,1,,,,,ビッグウェイ,0
2080,8340003005046,新規,0,2025-12-18,2025-12-18,合同会社ＲＩＫＯ,,合同会社,鹿児島県,鹿児島市,西伊敷３丁目１－４,,46,201,8900002,,,,,,,2025-12-18,1,,,,,リコ,0
2088,8380001035751,新規,0,2025-12-18,2025-12-18,株式会社野村コンサルタント事務所,,株式会社,福島県,いわき市,中央台高久１丁目２４－７,,07,204,9708047,,,,,,,2025-12-18,1,,,,,ノムラコンサルタントジムショ,0
2091,8380003006206,新規,0,2025-12-18,2025-12-18,合同会社想花,,合同会社,福島県,東白川郡棚倉町,大字棚倉字町裏５３番地７,,07,481,9636131,,,,,,,2025-12-18,1,,,,,ソウハ,0
2097,8420003003215,新規,0,2025-12-18,2025-12-18,合同会社ＧＵＡＲＤＩＡＮＴＲＥＥ,,合同会社,青森県,つがる市,柏鷺坂清見８４番地１,,02,209,0383101,,,,,,,2025-12-18,1,,,,,ガーディアンツリー,0
2101,8430001095880,新規,0,2025-12-18,2025-12-18,株式会社ＬＧパートナー,,株式会社,北海道,札幌市西区,宮の沢一条４丁目１番１７号,,01,107,0630051,,,,,,,2025-12-18,1,,,,,エルジーパートナー,0
2102,8430003018435,新規,0,2025-12-18,2025-12-18,合同会社イトーカンパニー,,合同会社,北海道,札幌市中央区,南六条西１５丁目２－２０－６０４,,01,101,0640806,,,,,,,2025-12-18,1,,,,,イトーカンパニー,0
2107,8700150133595,新規,0,2025-12-18,2025-12-18,ＡＹＳ　ＥＮＴＥＲＰＲＩＳＥＳ,,外国会社等,神奈川県,厚木市,下川入８３６－７　オリエンタルハイツ－２０１,,14,212,2430206,スリランカ民主社会主義共和国，ＮＯ５７／Ｂ、メインストリート、ムルタラーワ、キャンディ,,,,,,2025-12-18,1,,,,,エーワイエスエンタープライセス,0
2108,8700150133604,新規,0,2025-12-18,2025-12-18,廣貫堂健康保険組合,,その他,富山県,富山市,梅沢町２丁目９番１号,,16,201,9300055,,,,,,,2025-12-18,1,,,,,コウカンドウケンコウホケンクミアイ,0
2109,8700150133612,新規,0,2025-12-18,2025-12-18,ＨｏｍｅＣｏｒｅ　Ｃｏｍｍｅｒｃｅ　Ｃｏ．，Ｌｉｍｉｔｅｄ,,外国会社等,,,,,,,,ＮＯ．２　ＬＥＩ　ＹＵＥ　ＭＵＮ　ＲＯＡＤ　ＲＯＯＭ　Ｉ２７，ＵＮＩＴ　１７，ＦＬＯＯＲ　１２，ＮＥＷ　ＣＩＴＹ　ＣＥＮＴＲＥ　Ｋｗｕｎ　Ｔｏｎｇ　Ｈｏｎｇ　Ｋｏｎｇ,,,,,,2025-12-18,1,,,,,ホーンコーァディエンズーシャーンウーシアーンガーンヨウシエンゴーンスー,0
2115,9010001261318,新規,0,2025-12-18,2025-12-18,ＳＥＬＥＣＴＩＯＮ株式会社,,株式会社,東京都,中央区,日本橋堀留町１丁目９番２号こだま建物１階,,13,102,1030012,,,,,,,2025-12-18,1,,,,,セレクション,0
2117,9010003049760,新規,0,2025-12-18,2025-12-18,合同会社うるしや,,合同会社,東京都,千代田区,神田神保町３丁目１１番６号神保町ビル１０階,,13,101,1010051,,,,,,,2025-12-18,1,,,,,ウルシヤ,0
2118,9010003049793,新規,0,2025-12-18,2025-12-18,合同会社ＴＨ１,,合同会社,東京都,千代田区,丸の内１丁目４番１号東京共同会計事務所内,,13,101,1000005,,,,,,,2025-12-18,1,,,,,ティーエイチワン,0
2119,9010005041071,新規,0,2025-12-18,2025-12-18,弁護士法人創英設樂法律事務所,,その他の設立登記法人,東京都,千代田区,丸の内２丁目１番１号明治安田生命ビル９階,,13,101,1000005,,,,,,,2025-12-18,1,,,,,ソウエイシタラホウリツジムショ,0
2120,9010005041096,新規,0,2025-12-18,2025-12-18,一般社団法人三郷名取,,その他の設立登記法人,東京都,千代田区,丸の内１丁目４番１号東京共同会計事務所内,,13,101,1000005,,,,,,,2025-12-18,1,,,,,ミサトナトリ,0
2121,9010101017017,新規,0,2025-12-18,2025-12-18,株式会社輪っか屋,,株式会社,東京都,八王子市,川町７３８番地３,,13,201,1930821,,,,,,,2025-12-18,1,,,,,ワッカヤ,0
2139,9010501055194,新規,0,2025-12-18,2025-12-18,杏株式会社,,株式会社,東京都,台東区,上野２丁目１１－８ウィステリア９１ビル４階６号,,13,106,1100005,,,,,,,2025-12-18,1,,,,,アンズ,0
2141,9010601068443,新規,0,2025-12-18,2025-12-18,株式会社Ｒ‐Ｓｃｏｐｅ,,株式会社,東京都,江東区,白河４丁目９－１５プラザ元加賀ＥＦ棟８０９号,,13,108,1350021,,,,,,,2025-12-18,1,,,,,アールスコープ,0
2143,9010701048782,新規,0,2025-12-18,2025-12-18,株式会社２ｎｄｌｕｍｅ,,株式会社,東京都,品川区,小山６丁目４－８,,13,109,1420062,,,,,,,2025-12-18,1,,,,,セカンドルーム,0
2144,9010701048790,新規,0,2025-12-18,2025-12-18,株式会社海味,,株式会社,東京都,品川区,荏原３丁目４番１３号,,13,109,1420063,,,,,,,2025-12-18,1,,,,,ウミ,0
2145,9010901058648,新規,0,2025-12-18,2025-12-18,株式会社ＡＲＫ,,株式会社,東京都,世田谷区,瀬田４丁目２９番１４号,,13,112,1580095,,,,,,,2025-12-18,1,,,,,アーク,0
2146,9010901058680,新規,0,2025-12-18,2025-12-18,株式会社Ｍ．Ｐａｔａｔｅ,,株式会社,東京都,世田谷区,桜上水２丁目２３番９号,,13,112,1560045,,,,,,,2025-12-18,1,,,,,ムッシュパタート,0
2147,9010903010516,新規,0,2025-12-18,2025-12-18,合同会社ナクイ,,合同会社,東京都,世田谷区,用賀４丁目２６番１４号,,13,112,1580097,,,,,,,2025-12-18,1,,,,,ナクイ,0
2150,9011001174303,新規,0,2025-12-18,2025-12-18,アルテシア株式会社,,株式会社,東京都,渋谷区,神南１丁目１１－４ＦＰＧリンクス神南５階,,13,113,1500041,,,,,,,2025-12-18,1,,,,,アルテシア,0
2151,9011001174311,新規,0,2025-12-18,2025-12-18,株式会社Ａｌｌｉｅｖｅ,,株式会社,東京都,渋谷区,渋谷３丁目６番２号,,13,113,1500002,,,,,,,2025-12-18,1,,,,,アリーヴ,0
2152,9011001174419,新規,0,2025-12-18,2025-12-18,株式会社青,,株式会社,東京都,渋谷区,恵比寿１丁目８番１４―４１４号,,13,113,1500013,,,,,,,2025-12-18,1,,,,,アオ,0
2153,9011001174468,新規,0,2025-12-18,2025-12-18,株式会社Ｔｏ　Ｃｈａｒｌｏｔｔｅ,,株式会社,東京都,渋谷区,桜丘町１７番１２号渋谷ジョンソンビル４０１,,13,113,1500031,,,,,,,2025-12-18,1,,,,,トゥーシャーロット,0
2166,9011601029253,新規,0,2025-12-18,2025-12-18,Ｆ＆Ｂ株式会社,,株式会社,東京都,練馬区,桜台１丁目１６番１８号フラット１０１号,,13,120,1760002,,,,,,,2025-12-18,1,,,,,エフアンドビー,0
2169,9012705002492,新規,0,2025-12-18,2025-12-18,一般社団法人武士の会,,その他の設立登記法人,東京都,小平市,小川町２丁目１１５９番地,,13,211,1870032,,,,,,,2025-12-18,1,,,,,ブシノカイ,0
2171,9013303007999,新規,0,2025-12-18,2025-12-18,合同会社コネクト,,合同会社,東京都,豊島区,南長崎１丁目２番４号第２メゾン北原２０５号室,,13,116,1710052,,,,,,,2025-12-18,1,,,,,コネクト,0
2181,9020001166375,新規,0,2025-12-18,2025-12-18,株式会社ｃｏｕｒａｇｅ,,株式会社,神奈川県,横浜市西区,みなとみらい３丁目７－１オーシャンゲートみなとみらい８Ｆ,,14,103,2200012,,,,,,,2025-12-18,1,,,,,クラージュ,0
2196,9030001170161,新規,0,2025-12-18,2025-12-18,株式会社健英舎,,株式会社,埼玉県,さいたま市見沼区,大和田町２丁目８９７ＴＫ大和田ビル１階,,11,104,3370053,,,,,,,2025-12-18,1,,,,,ケンエイシャ,0
2197,9030001170194,新規,0,2025-12-18,2025-12-18,株式会社南洲ホールディングス,,株式会社,埼玉県,入間郡毛呂山町,前久保南１丁目５番地１０,,11,326,3500463,,,,,,,2025-12-18,1,,,,,ナンシュウホールディングス,0
2198,9030001170211,新規,0,2025-12-18,2025-12-18,株式会社彩加理,,株式会社,埼玉県,川越市,新宿町２丁目４番地１５,,11,201,3501124,,,,,,,2025-12-18,1,,,,,アカリ,0
2199,9030001170244,新規,0,2025-12-18,2025-12-18,株式会社Ｈｉｙｏｌｅｅ,,株式会社,埼玉県,川口市,川口１丁目１番３号,,11,203,3320015,,,,,,,2025-12-18,1,,,,,ヒヨリー,0
2201,9030003028300,新規,0,2025-12-18,2025-12-18,合同会社プレマ,,合同会社,埼玉県,越谷市,赤山町１丁目１４７番地マリフラット３,,11,222,3430807,,,,,,,2025-12-18,1,,,,,プレマ,0
2205,9040001141847,新規,0,2025-12-18,2025-12-18,ＶＩＮＰＡＣＴ株式会社,,株式会社,千葉県,市川市,妙典５丁目１３番３３号Ａ＆Ｙビル３Ｆ,,12,203,2720111,,,,,,,2025-12-18,1,,,,,ヴィンパクト,0
2206,9040003029165,新規,0,2025-12-18,2025-12-18,合同会社ＶｉＶｉ,,合同会社,千葉県,松戸市,松戸１３０７－１松戸ビル１３Ｆ,,12,207,2710092,,,,,,,2025-12-18,1,,,,,,0
2207,9040003029173,新規,0,2025-12-18,2025-12-18,合同会社トーラス,,合同会社,千葉県,野田市,なみき３丁目２８番地７,,12,208,2700229,,,,,,,2025-12-18,1,,,,,トーラス,0
2212,9060001038868,新規,0,2025-12-18,2025-12-18,株式会社白石,,株式会社,栃木県,矢板市,長井２０４６番地,,09,211,3292514,,,,,,,2025-12-18,1,,,,,シライシ,0
2215,9070001043660,新規,0,2025-12-18,2025-12-18,ＹＯＳＨＩＵＲＡ　ＤＥＮＴ　ＲＥＰＡＩＲ株式会社,,株式会社,群馬県,太田市,新島町６６７番地,,10,205,3730819,,,,,,,2025-12-18,1,,,,,ヨシウラデントリペア,0
2217,9080101025970,新規,0,2025-12-18,2025-12-18,株式会社わたなべうどん,,株式会社,静岡県,富士宮市,星山２３７番地の１３４,,22,207,4180035,,,,,,,2025-12-18,1,,,,,ワタナベウドン,0
2223,9100001039201,新規,0,2025-12-18,2025-12-18,株式会社ＦＰサポート・プロ,,株式会社,長野県,長野市,大字西長野２７９－１２,,20,201,3800871,,,,,,,2025-12-18,1,,,,,エフピーサポートプロ,0
2224,9100003008518,新規,0,2025-12-18,2025-12-18,合同会社侑和,,合同会社,長野県,松本市,梓川倭２７８２番地アリコ・ヴェールＡ１０２号室,,20,202,3901701,,,,,,,2025-12-18,1,,,,,ユウワ,0
2229,9110001039794,新規,0,2025-12-18,2025-12-18,株式会社縁,,株式会社,新潟県,長岡市,谷内２丁目１番３０号,,15,202,9400227,,,,,,,2025-12-18,1,,,,,エニシ,0
2238,9120001282798,新規,0,2025-12-18,2025-12-18,利亜国際株式会社,,株式会社,大阪府,大阪市港区,田中１丁目１２番６号,,27,107,5520005,,,,,,,2025-12-18,1,,,,,リアコクサイ,0
2239,9120001282807,新規,0,2025-12-18,2025-12-18,日和株式会社,,株式会社,大阪府,大阪市阿倍野区,丸山通１丁目５番２号ＨａｐｐｙＨｏｍｅＯｆｆｉｃｅＡｂｅｎｏ５０５室,,27,119,5450042,,,,,,,2025-12-18,1,,,,,ニチワ,0
2240,9120001282848,新規,0,2025-12-18,2025-12-18,株式会社しゃかぼう,,株式会社,大阪府,大阪市阿倍野区,松虫通１丁目７番９号,,27,119,5450043,,,,,,,2025-12-18,1,,,,,シャカボウ,0
2241,9120001282864,新規,0,2025-12-18,2025-12-18,株式会社南野ビルディング,,株式会社,大阪府,大阪市阿倍野区,昭和町１丁目１７番９号,,27,119,5450011,,,,,,,2025-12-18,1,,,,,ミナミノビルディング,0
2242,9120001282880,新規,0,2025-12-18,2025-12-18,株式会社ＳＡＬＡ　ＡＲＣ,,株式会社,大阪府,大阪市北区,大淀南２丁目２番９－８１２号,,27,127,5310075,,,,,,,2025-12-18,1,,,,,サラアーク,0
2243,9120001282914,新規,0,2025-12-18,2025-12-18,株式会社Ａｃｔｉｖｅ,,株式会社,大阪府,大阪市旭区,千林２丁目１１番４号,,27,117,5350012,,,,,,,2025-12-18,1,,,,,アクティブ,0
2250,9120101072975,新規,0,2025-12-18,2025-12-18,株式会社ＷＯＲＬＤ　Ｙ’ｓ　ＡＵＴＯ,,株式会社,大阪府,堺市中区,福田１２５３番２,,27,142,5998241,,,,,,,2025-12-18,1,,,,,ワールドワイズオート,0
2251,9120103006907,新規,0,2025-12-18,2025-12-18,合同会社ＩＴＯ,,合同会社,大阪府,大阪狭山市,東池尻２丁目１２７４番地の４,,27,231,5890004,,,,,,,2025-12-18,1,,,,,イトウ,0
2257,9130001081241,新規,0,2025-12-18,2025-12-18,株式会社コンプレッサー・サービス,,株式会社,京都府,宇治市,神明石塚７７番地の５８,,26,204,6110025,,,,,,,2025-12-18,1,,,,,コンプレッサーサービス,0
2260,9140001141127,新規,0,2025-12-18,2025-12-18,株式会社吉盛設備設計,,株式会社,兵庫県,姫路市,西中島２６８－１,,28,201,6700805,,,,,,,2025-12-18,1,,,,,ヨシモリセツビセッケイ,0
2261,9140001141143,新規,0,2025-12-18,2025-12-18,株式会社ワンダー・Ｓ・カンパニー,,株式会社,兵庫県,尼崎市,金楽寺町２丁目１０番１２号,,28,202,6600806,,,,,,,2025-12-18,1,,,,,ワンダーエスカンパニー,0
2262,9140001141151,新規,0,2025-12-18,2025-12-18,株式会社青山商事,,株式会社,兵庫県,尼崎市,東難波町５丁目２１番７－３０１号,,28,202,6600892,,,,,,,2025-12-18,1,,,,,アオヤマショウジ,0
2269,9160001027299,新規,0,2025-12-18,2025-12-18,株式会社オルビタ産業保健機構,,株式会社,滋賀県,高島市,朽木市場８７５番地１,,25,212,5201401,,,,,,,2025-12-18,1,,,,,オルビタサンギョウホケンキコウ,0
2271,9170003002357,新規,0,2025-12-18,2025-12-18,合同会社アルトネクスト,,合同会社,和歌山県,岩出市,曽屋１５１番地の１,,30,209,6496236,,,,,,,2025-12-18,1,,,,,アルトネクスト,0
2281,9180001169908,新規,0,2025-12-18,2025-12-18,ジャパンホールディングス株式会社,,株式会社,愛知県,名古屋市中区,新栄１丁目２９番２３号アーバンドエル新栄３Ｆ,,23,106,4600007,,,,,,,2025-12-18,1,,,,,ジャパンホールディングス,0
2282,9180001169965,新規,0,2025-12-18,2025-12-18,株式会社Ｍａｎｏｒ　Ｈｏｕｓｅ,,株式会社,愛知県,春日井市,牛山町１８００番地,,23,206,4860901,,,,,,,2025-12-18,1,,,,,マナーハウス,0
2285,9180302028548,新規,0,2025-12-18,2025-12-18,有限会社梅園,,有限会社,愛知県,岡崎市,梅園町字２丁目８番地２５,,23,202,4440031,,,,,,,2025-12-18,1,,,,,ウメゾノ,0
2287,9200001044546,新規,0,2025-12-18,2025-12-18,株式会社ＭＥＩＳＨＡＮ,,株式会社,岐阜県,山県市,富永１０１９－１２,,21,215,5012257,,,,,,,2025-12-18,1,,,,,メイシャン,0
2300,9260001040820,新規,0,2025-12-18,2025-12-18,広和産業株式会社,,株式会社,岡山県,倉敷市,真備町箭田２２９８番地,,33,202,7101301,,,,,,,2025-12-18,1,,,,,コウワサンギョウ,0
2301,9260001040829,新規,0,2025-12-18,2025-12-18,株式会社Ｖｙｒａ,,株式会社,岡山県,岡山市中区,清水１丁目６番１５号コンフォートマンション１０３,,33,102,7038243,,,,,,,2025-12-18,1,,,,,ヴァイラ,0
2306,9290005019924,新規,0,2025-12-18,2025-12-18,医療法人合屋歯科,,その他の設立登記法人,福岡県,糟屋郡須惠町,大字須恵８００－１,,40,344,8112100,,,,,,,2025-12-18,1,,,,,ゴウヤシカ,0
2318,9370005011047,新規,0,2025-12-18,2025-12-18,医療法人裕雅会,,その他の設立登記法人,宮城県,仙台市若林区,河原町２丁目１５番２号グランドール河原町１階,,04,103,9840816,,,,,,,2025-12-18,1,,,,,ユウガカイ,0
2320,9380003006213,新規,0,2025-12-18,2025-12-18,合同会社ひなた,,合同会社,福島県,伊達市,保原町大泉字大地内１４３番地１,,07,213,9600634,,,,,,,2025-12-18,1,,,,,ヒナタ,0
2322,9400003003579,新規,0,2025-12-18,2025-12-18,合同会社菊亭,,合同会社,岩手県,奥州市,水沢字川端４３番地７,,03,215,0230863,,,,,,,2025-12-18,1,,,,,キクテイ,0
2324,9420005007989,新規,0,2025-12-18,2025-12-18,医療法人よしの整形外科,,その他の設立登記法人,青森県,八戸市,南類家２丁目１７番２５号,,02,203,0310004,,,,,,,2025-12-18,1,,,,,ヨシノセイケイゲカ,0
2327,9430001095855,新規,0,2025-12-18,2025-12-18,三五ホールディングス株式会社,,株式会社,北海道,札幌市北区,北三十四条西１０丁目６番２１号田中ビル,,01,102,0010034,,,,,,,2025-12-18,1,,,,,サンゴホールディングス,0
2328,9430001095888,新規,0,2025-12-18,2025-12-18,ブラックフラミンゴエデュケーション株式会社,,株式会社,北海道,札幌市厚別区,青葉町９丁目１４－２２,,01,108,0040021,,,,,,,2025-12-18,1,,,,,ブラックフラミンゴエデュケーション,0
2334,9450001014805,新規,0,2025-12-18,2025-12-18,株式会社穣,,株式会社,北海道,増毛郡増毛町,信砂５８１番地,,01,481,0770133,,,,,,,2025-12-18,1,,,,,ユズル,0
2335,9450001014813,新規,0,2025-12-18,2025-12-18,株式会社ウラカタオフィス,,株式会社,北海道,旭川市,緑が丘東一条３丁目１番６号旭川リサーチセンター,,01,204,0788801,,,,,,,2025-12-18,1,,,,,ウラカタオフィス,0
2339,9470001021023,新規,0,2025-12-18,2025-12-18,トレソーレ株式会社,,株式会社,香川県,坂出市,福江町２丁目４番９号,,37,203,7620034,,,,,,,2025-12-18,1,,,,,トレソーレ,0
2342,9490001011245,新規,0,2025-12-18,2025-12-18,土佐ライン株式会社,,株式会社,高知県,高知市,大津乙１１０４番地１４,,39,201,7815103,,,,,,,2025-12-18,1,,,,,トサライン,0
2344,9700150133594,新規,0,2025-12-18,2025-12-18,ＺＥＥ　ＣＡＲＺ　ＰＶＴ　ＬＴＤ,,外国会社等,神奈川県,愛甲郡愛川町,中津１２０５－１８－Ｂ,,14,401,2430303,スリランカ民主社会主義共和国，ＮＯ４７／４Ｂ、クマーラダーサプレース、ウェッラムピティヤ,,,,,,2025-12-18,1,,,,,ジーカーズプライベートリミテツド,0
2345,9700150133603,新規,0,2025-12-18,2025-12-18,尼崎中央病院健康保険組合,,その他,兵庫県,尼崎市,潮江１丁目１２番１号　社会医療法人中央会　尼崎中央病院内,,28,202,6610976,,,,,,,2025-12-18,1,,,,,アマガサキチュウオウビョウインケンコウホケンクミアイ,0
2346,9700150133611,新規,0,2025-12-18,2025-12-18,ＲＵＩ　ＡＮ　ＳＨＩ　ＢＩ　ＨＵＡ　ＭＡＯ　ＹＩ　ＹＯＵ　ＸＩＡＮ　ＧＯＮＧ　ＳＩ,,外国会社等,,,,,,,,Ｎｏ．５０１，ｂｌｏｃｋ　１，Ｎｏ，８８８　ｆｕｍｉｎｇｂｅｉ　ｒｏａｄ，ｘｉｎｃｈｅｎｇ　ｒｏａｄ，ｒｕｉａｎ，ｗｅｎｚｈｏｕ，ｚｈｅｊｉａｎｇ，Ｃｈｉｎａ．,,,,,,2025-12-18,1,,,,,ズイアンシビカボウエキユウゲンコウシ,0
