sequenceNumber,corporateNumber,process,correct,updateDate,changeDate,name,nameImageId,kind,prefectureName,cityName,streetNumber,addressImageId,prefectureCode,cityCode,postCode,addressOutside,addressOutsideImageId,closeDate,closeCause,successorCorporateNumber,changeCause,assignmentDate,latest,enName,enPrefectureName,enCityName,enAddressOutside,furigana,hihyoji
5,1010003041816,新規,0,2023-10-02,2023-10-02,パワーアセット合同会社,,合同会社,東京都,文京区,本郷６丁目１０番１号,,13,105,1130033,,,,,,,2023-10-02,1,,,,,パワーアセット,0
19,1010401177410,新規,0,2023-10-02,2023-10-02,株式会社レベニール,,株式会社,東京都,港区,港南２丁目１５－１品川インターシティＡ棟２８階,,13,103,1080075,,,,,,,2023-10-02,1,,,,,レベニール,0
20,1010401177435,新規,0,2023-10-02,2023-10-02,株式会社ＨＲＤ,,株式会社,東京都,港区,高輪３丁目１１番１－７０３号,,13,103,1080074,,,,,,,2023-10-02,1,,,,,エイチアールディー,0
21,1010401177492,新規,0,2023-10-02,2023-10-02,株式会社プロテクトグローリー,,株式会社,東京都,港区,赤坂３丁目１０番９号,,13,103,1070052,,,,,,,2023-10-02,1,,,,,プロテクトグローリー,0
29,1010403031045,新規,0,2023-10-02,2023-10-02,合同会社ＲＪファイン,,合同会社,東京都,港区,虎ノ門１丁目２番８号リニューアブル・ジャパン株式会社内,,13,103,1050001,,,,,,,2023-10-02,1,,,,,アールジェイファイン,0
32,1010405022455,新規,0,2023-10-02,2023-10-02,一般社団法人ＤＤ企画,,その他の設立登記法人,東京都,港区,白金１丁目１７番２号,,13,103,1080072,,,,,,,2023-10-02,1,,,,,ディーディーキカク,0
33,1010405022554,新規,0,2023-10-02,2023-10-02,一般社団法人ＪＦＲブリッジ,,その他の設立登記法人,東京都,港区,元赤坂１丁目１番８号赤坂コミュニティビル４階,,13,103,1070051,,,,,,,2023-10-02,1,,,,,ジェイエフアールブリッジ,0
36,1010603010360,新規,0,2023-10-02,2023-10-02,合同会社ラケシス,,合同会社,東京都,墨田区,向島５丁目２０番２号,,13,107,1310033,,,,,,,2023-10-02,1,,,,,ラケシス,0
37,1010603010393,新規,0,2023-10-02,2023-10-02,晴和産業合同会社,,合同会社,東京都,江東区,東砂８丁目９番６号,,13,108,1360074,,,,,,,2023-10-02,1,,,,,セイワサンギョウ,0
38,1010703006886,新規,0,2023-10-02,2023-10-02,合同会社Ｍｉｒａｓｏｌ,,合同会社,東京都,品川区,豊町４丁目１０番９号,,13,109,1420042,,,,,,,2023-10-02,1,,,,,ミラソル,0
39,1010801034384,新規,0,2023-10-02,2023-10-02,株式会社Ｂａｏｂｏ　Ｔｅｃｈｎｏｌｏｇｙ,,株式会社,東京都,大田区,大森西５丁目２８番９号エンゼルイン大森８０３,,13,111,1430015,,,,,,,2023-10-02,1,,,,,バオボテクノロジー,0
42,1011001157216,新規,0,2023-10-02,2023-10-02,株式会社プランニングギアボックス,,株式会社,東京都,渋谷区,渋谷２丁目２－１７トランスワークス青山３階,,13,113,1500002,,,,,,,2023-10-02,1,,,,,プランニングギアボックス,0
53,1011401025492,新規,0,2023-10-02,2023-10-02,株式会社ＯＯＲＴ　ＳＴＡＲ,,株式会社,東京都,板橋区,小豆沢２丁目１３番１号,,13,119,1740051,,,,,,,2023-10-02,1,,,,,オールトスター,0
57,1011701026629,新規,0,2023-10-02,2023-10-02,株式会社キャラクター,,株式会社,東京都,江戸川区,瑞江１丁目１番５号,,13,123,1320011,,,,,,,2023-10-02,1,,,,,キャラクター,0
64,1020001153694,新規,0,2023-10-02,2023-10-02,株式会社トップ,,株式会社,神奈川県,横浜市西区,みなとみらい５丁目３番３号２５０４号,,14,103,2200012,,,,,,,2023-10-02,1,,,,,トップ,0
65,1020001153703,新規,0,2023-10-02,2023-10-02,株式会社ＳＯＡＲ,,株式会社,神奈川県,横浜市港北区,日吉本町４丁目１０番９－９０５号,,14,109,2230062,,,,,,,2023-10-02,1,,,,,ソア,0
75,1030001156143,新規,0,2023-10-02,2023-10-02,株式会社Ｌｅｘｉｃｅ,,株式会社,埼玉県,さいたま市浦和区,常盤６丁目２番１号井原屋ビル３階,,11,107,3300061,,,,,,,2023-10-02,1,,,,,レクシス,0
76,1030001156176,新規,0,2023-10-02,2023-10-02,株式会社Ｙ‐ＴＥＣＨ,,株式会社,埼玉県,北足立郡伊奈町,内宿台５丁目１４０番地１,,11,301,3620812,,,,,,,2023-10-02,1,,,,,ワイテック,0
77,1030001156184,新規,0,2023-10-02,2023-10-02,株式会社ペガサス,,株式会社,埼玉県,所沢市,小手指町３丁目２２番地の１グレイス小手指３０６,,11,208,3591141,,,,,,,2023-10-02,1,,,,,ペガサス,0
78,1030001156201,新規,0,2023-10-02,2023-10-02,株式会社勇総業,,株式会社,埼玉県,草加市,西町５０４サンハイツタカモリ２０２,,11,221,3400035,,,,,,,2023-10-02,1,,,,,イサムソウギョウ,0
79,1030001156226,新規,0,2023-10-02,2023-10-02,株式会社丹心,,株式会社,埼玉県,蕨市,北町１丁目２６番４号ルネ蕨ガーデンシティ８０３号,,11,223,3350001,,,,,,,2023-10-02,1,,,,,タンシン,0
85,1030003022582,新規,0,2023-10-02,2023-10-02,合同会社Ｔ．Ｄ．Ｔ,,合同会社,埼玉県,川越市,大字的場２２２９－１１メゾン大内１０３,,11,201,3501101,,,,,,,2023-10-02,1,,,,,ティーディーティー,0
86,1030003022599,新規,0,2023-10-02,2023-10-02,合同会社ハシバ,,合同会社,埼玉県,所沢市,大字本郷６００－５,,11,208,3590022,,,,,,,2023-10-02,1,,,,,ハシバ,0
87,1030003022608,新規,0,2023-10-02,2023-10-02,合同会社ｃｈｉｌｌａｘ,,合同会社,埼玉県,川越市,三光町３２番地５三光町マンション１１０号室,,11,201,3500067,,,,,,,2023-10-02,1,,,,,チラックス,0
93,1040001130287,新規,0,2023-10-02,2023-10-02,株式会社Ｌｉｂｒａ,,株式会社,千葉県,柏市,豊四季３２８番地の１０,,12,217,2770863,,,,,,,2023-10-02,1,,,,,リブラ,0
94,1040001130312,新規,0,2023-10-02,2023-10-02,ＢＥＹＯＮＤ株式会社,,株式会社,千葉県,千葉市緑区,あすみが丘３丁目５０番地１４,,12,105,2670066,,,,,,,2023-10-02,1,,,,,ビヨンド,0
96,1040003023431,新規,0,2023-10-02,2023-10-02,ＶＥＮＧ合同会社,,合同会社,千葉県,市川市,大和田２丁目２０番２号,,12,203,2720025,,,,,,,2023-10-02,1,,,,,ヴエング,0
100,1050001053561,新規,0,2023-10-02,2023-10-02,株式会社鴨安,,株式会社,茨城県,神栖市,波崎９４４４番地１,,08,232,3140408,,,,,,,2023-10-02,1,,,,,カモヤス,0
103,1060003004735,新規,0,2023-10-02,2023-10-02,合同会社リキタイ,,合同会社,栃木県,那須塩原市,井口７９６番地２,,09,213,3292763,,,,,,,2023-10-02,1,,,,,リキタイ,0
108,1080103002892,新規,0,2023-10-02,2023-10-02,合同会社トート・ジャニタ,,合同会社,静岡県,伊東市,富戸２２６番地,,22,208,4130231,,,,,,,2023-10-02,1,,,,,トートジャニタ,0
117,1120001258418,新規,0,2023-10-02,2023-10-02,そらもん屋株式会社,,株式会社,大阪府,大阪市此花区,西九条１丁目１番３号,,27,104,5540012,,,,,,,2023-10-02,1,,,,,ソラモンヤ,0
120,1120003024990,新規,0,2023-10-02,2023-10-02,合同会社ＮａＮａｃｏｓ,,合同会社,大阪府,枚方市,東香里３丁目３９番６０号,,27,210,5730075,,,,,,,2023-10-02,1,,,,,ナナコス,0
122,1120101068295,新規,0,2023-10-02,2023-10-02,株式会社バンザイＦａｃｔｏｒｙ,,株式会社,大阪府,羽曳野市,駒ケ谷１３０４番地,,27,222,5830841,,,,,,,2023-10-02,1,,,,,バンザイファクトリー,0
124,1122001037421,新規,0,2023-10-02,2023-10-02,株式会社ＧａｔｈｅｒＨｏｍｅ,,株式会社,大阪府,東大阪市,瓜生堂１丁目１－１１,,27,227,5780946,,,,,,,2023-10-02,1,,,,,ギャザーホーム,0
125,1122003002679,新規,0,2023-10-02,2023-10-02,華茂合同会社,,合同会社,大阪府,東大阪市,日下町８丁目１番３号石切ｗｏｒｋｓｐａｃｅ２０１号室,,27,227,5798003,,,,,,,2023-10-02,1,,,,,ハナシゲ,0
131,1130001075325,新規,0,2023-10-02,2023-10-02,株式会社ＳＨＩＲＯ,,株式会社,京都府,京都市下京区,七条通油小路東入大黒町２２７番地第２キョートビル４０２,,26,106,6008223,,,,,,,2023-10-02,1,,,,,シロ,0
135,1140001131779,新規,0,2023-10-02,2023-10-02,株式会社ＹＡ‐ＮＩＮＪＵ,,株式会社,兵庫県,三田市,駅前町６番５号,,28,219,6691528,,,,,,,2023-10-02,1,,,,,ヤーニンジュ,0
139,1160001025368,新規,0,2023-10-02,2023-10-02,株式会社アイエーディー,,株式会社,滋賀県,湖南市,石部西２丁目６番３０号,,25,211,5203105,,,,,,,2023-10-02,1,,,,,アイエーディー,0
141,1170001017802,新規,0,2023-10-02,2023-10-02,ＫＯＭＯＮ株式会社,,株式会社,和歌山県,和歌山市,西浜１０３８番地１０５,,30,201,6410036,,,,,,,2023-10-02,1,,,,,コモン,0
151,1180001158249,新規,0,2023-10-02,2023-10-02,株式会社ＥｐｉｃＧｒｅｅｎ,,株式会社,愛知県,名古屋市中村区,名駅３丁目４番１０号アルティメイト名駅１ｓｔ２階,,23,105,4500002,,,,,,,2023-10-02,1,,,,,エピックグリーン,0
159,1180303005850,新規,0,2023-10-02,2023-10-02,合同会社ＭＴＡＣジャパン,,合同会社,愛知県,豊橋市,花田二番町１３８番地,,23,201,4418014,,,,,,,2023-10-02,1,,,,,エムタックジャパン,0
170,1240001062188,新規,0,2023-10-02,2023-10-02,アズグループ株式会社,,株式会社,広島県,広島市中区,本川町２丁目１番１２号,,34,101,7300802,,,,,,,2023-10-02,1,,,,,アズグループ,0
189,1290005019163,新規,0,2023-10-02,2023-10-02,一般社団法人糸島市空き家予防推進協議会,,その他の設立登記法人,福岡県,糸島市,高田２丁目２番１０－１０４号,,40,230,8191102,,,,,,,2023-10-02,1,,,,,イトシマシアキヤヨボウスイシンキョウギカイ,0
191,1290801029910,新規,0,2023-10-02,2023-10-02,株式会社大創工業,,株式会社,福岡県,北九州市若松区,西園町１番７号（Ａ－２）,,40,103,8080031,,,,,,,2023-10-02,1,,,,,ダイソウコウギョウ,0
196,1340001025936,新規,0,2023-10-02,2023-10-02,株式会社ＫＡＭＵＩ,,株式会社,鹿児島県,鹿児島市,宇宿５丁目２５番５号,,46,201,8900073,,,,,,,2023-10-02,1,,,,,カムイ,0
200,1360001032600,新規,0,2023-10-02,2023-10-02,株式会社空の杜,,株式会社,沖縄県,名護市,字為又８４５番地１コーポＹＡＫＡびいまた２０４号室,,47,209,9050005,,,,,,,2023-10-02,1,,,,,ソラノモリ,0
201,1360001032617,新規,0,2023-10-02,2023-10-02,株式会社ＫＡＺＵＤＯＣ,,株式会社,沖縄県,中頭郡西原町,字小那覇２６６番地の１（２Ｆ）,,47,329,9030103,,,,,,,2023-10-02,1,,,,,カズドック,0
202,1360003013318,新規,0,2023-10-02,2023-10-02,合同会社プラスでんき,,合同会社,沖縄県,中頭郡嘉手納町,字嘉手納３０４－４Ｂ,,47,325,9040203,,,,,,,2023-10-02,1,,,,,プラスデンキ,0
205,1380001034017,新規,0,2023-10-02,2023-10-02,株式会社ＭＪＴ,,株式会社,福島県,いわき市,平字田町１８番地の１サンスマイルビル１Ｆ,,07,204,9708026,,,,,,,2023-10-02,1,,,,,エムジェイティ,0
210,1400003003149,新規,0,2023-10-02,2023-10-02,合同会社みらいハピネス,,合同会社,岩手県,紫波郡矢巾町,大字広宮沢第８地割９３番地２,,03,322,0283621,,,,,,,2023-10-02,1,,,,,ミライハピネス,0
214,1430003015488,新規,0,2023-10-02,2023-10-02,合同会社ＫＥＮＬＩＮＫ,,合同会社,北海道,札幌市西区,発寒九条１０丁目１番２８－８０１号,,01,107,0630829,,,,,,,2023-10-02,1,,,,,ケンリンク,0
219,1500001025218,新規,0,2023-10-02,2023-10-02,株式会社ＴＫ工業,,株式会社,愛媛県,松山市,土居町７３７番地１,,38,201,7911115,,,,,,,2023-10-02,1,,,,,ティケイコウギョウ,0
221,1700150001362,新規,0,2023-10-02,2015-10-09,日本林道協会,,その他,東京都,千代田区,永田町２丁目４－３,,13,101,1000014,,,,,,,2015-10-09,1,,,,,ニホンリンドウキヨウカイ,0
222,1700150120030,新規,0,2023-10-02,2023-09-08,ダンスワークス,,その他,神奈川県,横浜市都筑区,中川１丁目１０－２中川センタービル２Ｆ,,14,118,2240001,,,,,,,2023-09-08,1,,,,,ダンスワークス,0
223,1700150120864,新規,0,2023-10-02,2023-10-02,ＨＡＮＧＺＨＯＵＭＵＱＩＵＳＨＩＹＵＤＩＡＮＳＨＡＮＧＫＥＪＩ　ＹＯＵＸＩＡＮＧＯＮＧＳＩ,,外国会社等,,,,,,,,ＨＥＺＨＵＡＮＧＪＩＥＤＡＯＪＩＡＮＧＤＯＮＧＣＵＮＱＩＡＯＫＥＸＩＡＯＺＨＥＮＣＨＵＡＮＧＫＥＬＵ６ＨＡＯＬＯＵ１０１－６６ＨＡＮＧＺＨＯＵＳＨＩＱＩＡＮＴＡＮＧＱＵ　ＺＨＥＪＩＡＮＧＳＨＥＮＧ,,,,,,2023-10-02,1,,,,,コウシュウムチュシユデンシャンカギユウゲンコウシ,0
224,1700150120872,新規,0,2023-10-02,2023-10-02,ｐｕｊｉａｎｇｘｉａｎｌｉｕｓｈｉｃｕｉｄｉａｎｚｉｓｈａｎｇｗｕｙｏｕｘｉａｎｇｏｎｇｓｉ,,外国会社等,,,,,,,,ＣＮ，３２２２００，ｚｈｅｊｉａｎｇｓｈｅｎｇ，ｐｕｊｉａｎｇｘｉａｎ，ｂａｉｍａｚｈｅｎ，ｌｉｆｅｎｇｃｕｎ，ｔｅｎｇｆｅｉｌｕ１ｈａｏ,,,,,,2023-10-02,1,,,,,プージャンシエンリューシーツイディエンズーシャンウーヨウシエンゴンスー,0
225,1700150120880,新規,0,2023-10-02,2023-10-02,ｎｉｎｇｂｏｂｏｙａｎｇｊｉａｊｕｋｅｊｉｙｏｕｘｉａｎｇｏｎｇｓｉ,,外国会社等,,,,,,,,Ｊｉａｎｇｂｅｉ　Ｄｉｓｔｒｉｃｔ　Ｗａｎｇｓｈａｎ　Ｒｏａｄ　２１８Ｎｏｎｇ　Ｎｏ．２６　１２－１－８，Ｎｉｎｇｂｏ，ＺｈｅＪｉａｎｇ,,,,,,2023-10-02,1,,,,,ニンボーボーヤンジャージーコージーヨウシエンゴンスー,0
226,1700150120889,新規,0,2023-10-02,2023-10-02,ＰＥＴＳＮＯＷＹ,,外国会社等,,,,,,,,６４　ＣＲＡＴＥＲ　ＩＲＶＩＮＥ　Ｃａｌｉｆｏｒｎｉａ９２６１８　ＵｎｉｔｅｄＳｔａｔｅｓｏｆＡｍｅｒｉｃａ,,,,,,2023-10-02,1,,,,,ペットスノウイー,0
227,1700150120897,新規,0,2023-10-02,2023-10-02,ｓｈｅｎｚｈｅｎｓｈｉａｉｙｉｃａｉｋｅｊｉ　ｙｏｕｘｉａｎｇｏｎｇｓｉ,,外国会社等,,,,,,,,ｌｏｎｇｃｈｅｎｇｊｉｅｄａｏｊｉｘｉａｎｇｓｈｅｑｕｗｅｉｓｈｉｘｉａｎｇ８ｈａｏ６０１　ｌｏｎｇｇａｎｇｑｕ　ｓｈｅｎｚｈｅｎｓｈｉ,,,,,,2023-10-02,1,,,,,シンセンシアイチャイカギユウゲンコウシ,0
228,1700150120906,新規,0,2023-10-02,2023-10-02,ｓｈｅｎｚｈｅｎｓｈｉ　ｘｉｙａｏ　ｋｅｊｉ　ｙｏｕｘｉａｎｇｏｎｇｓｉ,,外国会社等,,,,,,,,ｌｏｎｇｇａｎｇｑｕ　ｂａｎｔｉａｎｊｉｅｄａｏ　ｂａｎｔｉａｎｓｈｅｑｕ　ｇｕａｎｄｅｋｕａｎ　ｃｈｕａｎｇｋｅｙｕａｎ　Ｅ　ｄｏｎｇ　ｓｉ　ｌｏｕ　４０２　ｓｈｅｎｚｈｅｎｓｈｉ　ｇｕａｎｇｄｏｎｇｓｈｅｎｇ　５１８０００　ＣＮ,,,,,,2023-10-02,1,,,,,シェンジェンシシーヤオカージヨウシェンゴンスー,0
229,1700150120914,新規,0,2023-10-02,2023-10-02,Ｓｈｅｎｚｈｅｎ　Ｅｘｐｌｏｔｅｒ　Ｅｌｅｃｔｒｏｎｉｃｓ　Ｃｏ．，Ｌｔｄ．,,外国会社等,,,,,,,,Ｄｉｓｔｒｉｃｔ４２　ＡｎｌｅＣｏｍｍｕｎｉｔｙ　Ｘｉｎ’ａｎＳｔｒｅｅｔ　Ｂａｏ’ａｎＤｉｓｔｒｉｃｔ　Ｄ３０１　ＢｕｉｌｄｉｎｇＤ　ＨｕａｃｈｕａｎｇｄａＣｅｎｔｅｒＢｕｓｉｎｅｓｓＭａｎｓｉｏｎ　Ｂａｏａｎｄａｄａｏｂｉａｎ　ＳｈｅｎｚｈｅｎＣｉｔｙ　５１８０００　ＣＮ,,,,,,2023-10-02,1,,,,,シンセンイクスプローターイレクトゥロニクスカンパニーリミテッド,0
230,1700150120922,新規,0,2023-10-02,2023-10-02,ｄｏｎｇｇｕａｎｓｈｉｘｉｎｙｉｎｇｔｏｎｇｘｕｎｓｈｅｂｅｉｙｏｕｘｉａｎｇｏｎｇｓｉ,,外国会社等,,,,,,,,ｆｅｎｇｇａｎｇｚｈｅｎｚｈｏｎｇａｏｌｕｄａｈｏｎｇｋｅｊｉｙｕａｎＣｄｏｎｇ５ｌｏｕ，Ｄｏｎｇｇｕａｎ　Ｇｕａｎｇｄｏｎｇ,,,,,,2023-10-02,1,,,,,トウカンシシンエイツウジンセツビユウゲンコウシ,0
231,1700150120939,新規,0,2023-10-02,2023-10-02,三河安城駅南土地区画整理組合,,その他,愛知県,安城市,箕輪町本屋敷５３番地１,,23,212,4460051,,,,,,,2023-10-02,1,,,,,ミカワアンジヨウエキミナミトチクカクセイリクミアイ,0
237,2010001238818,新規,0,2023-10-02,2023-10-02,株式会社アプリデキヨシ,,株式会社,東京都,千代田区,外神田４丁目９番２号千住ビル９階,,13,101,1010021,,,,,,,2023-10-02,1,,,,,アプリデキヨシ,0
251,2010401177450,新規,0,2023-10-02,2023-10-02,株式会社Ｓ．Ｉ．Ｍ　ＪＡＰＡＮ,,株式会社,東京都,港区,虎ノ門４丁目１番１号,,13,103,1050001,,,,,,,2023-10-02,1,,,,,エスアイエムジャパン,0
252,2010401177467,新規,0,2023-10-02,2023-10-02,株式会社ＯＸＹ,,株式会社,東京都,港区,麻布十番２丁目１２番１１－１３０２号,,13,103,1060045,,,,,,,2023-10-02,1,,,,,オーエクスワイ,0
253,2010401177475,新規,0,2023-10-02,2023-10-02,株式会社ＳＫＹＰＲＯＪＥＣＴ,,株式会社,東京都,港区,芝公園２丁目６番３号,,13,103,1050011,,,,,,,2023-10-02,1,,,,,スカイプロジェクト,0
254,2010401177491,新規,0,2023-10-02,2023-10-02,株式会社Ａ’ａｌｄａ　Ａｎｉｍａｌ　Ｈｏｓｐｉｔａｌ　ＳＰＣ２号,,株式会社,東京都,港区,新橋６丁目１１番８号ＰＯＲＴＯＮＥＳＨＩＭＢＡＳＨＩ３Ｆ,,13,103,1050004,,,,,,,2023-10-02,1,,,,,アルダアニマルホスピタルエスピーシーニゴウ,0
256,2010403031036,新規,0,2023-10-02,2023-10-02,明和合同会社,,合同会社,東京都,港区,芝２丁目２８－１１,,13,103,1050014,,,,,,,2023-10-02,1,,,,,メイワ,0
260,2010603010392,新規,0,2023-10-02,2023-10-02,合同会社中山翔,,合同会社,東京都,江東区,豊洲３丁目６番８－３４２０号,,13,108,1350061,,,,,,,2023-10-02,1,,,,,ナカヤマショウ,0
267,2010901053928,新規,0,2023-10-02,2023-10-02,ｔｅｎｔａｉｌｓ株式会社,,株式会社,東京都,世田谷区,桜上水５丁目５番２５号,,13,112,1560045,,,,,,,2023-10-02,1,,,,,テンテイルズ,0
273,2011001157165,新規,0,2023-10-02,2023-10-02,株式会社Ｍ＆Ｍ,,株式会社,東京都,渋谷区,千駄ヶ谷４丁目６番８－５２０号パークコート神宮北参道ザタワー,,13,113,1510051,,,,,,,2023-10-02,1,,,,,エムアンドエム,0
274,2011001157181,新規,0,2023-10-02,2023-10-02,株式会社ママケア,,株式会社,東京都,渋谷区,渋谷２丁目２４番１２号渋谷スクランブルスクエア,,13,113,1500002,,,,,,,2023-10-02,1,,,,,ママケア,0
275,2011001157264,新規,0,2023-10-02,2023-10-02,株式会社ａｃｑｕａ　ｖｅｒｄｅ,,株式会社,東京都,渋谷区,本町６丁目２８番１１号,,13,113,1510071,,,,,,,2023-10-02,1,,,,,アクアヴェルデ,0
276,2011003017631,新規,0,2023-10-02,2023-10-02,合同会社ｒｅｊｏｙｃｅ,,合同会社,東京都,渋谷区,神泉町１０番１５号アネックス神泉３０１,,13,113,1500045,,,,,,,2023-10-02,1,,,,,リジョイス,0
294,2012301013611,新規,0,2023-10-02,2023-10-02,プラスシー・プロダクツ株式会社,,株式会社,東京都,町田市,三輪町３１９－８ケイハイツ右,,13,209,1950054,,,,,,,2023-10-02,1,,,,,プラスシープロダクツ,0
299,2012403006208,新規,0,2023-10-02,2023-10-02,合同会社ＡＭＴ,,合同会社,東京都,多摩市,永山６丁目５番地の１０－２Ｆ,,13,224,2060025,,,,,,,2023-10-02,1,,,,,エイエムティ,0
302,2012703002798,新規,0,2023-10-02,2023-10-02,Ｍ‐ＣＯＭＰＡＮＹ合同会社,,合同会社,東京都,西東京市,東伏見２丁目１５番２－１０３号,,13,229,2020021,,,,,,,2023-10-02,1,,,,,エムカンパニー,0
303,2012703002807,新規,0,2023-10-02,2023-10-02,ベアベール合同会社,,合同会社,東京都,西東京市,芝久保町４丁目１２番２７号,,13,229,1880014,,,,,,,2023-10-02,1,,,,,ベアベール,0
310,2020001153677,新規,0,2023-10-02,2023-10-02,株式会社Ｔ’ｓ　Ｈｏｍｅ,,株式会社,神奈川県,横浜市中区,長者町１丁目３番１３号,,14,104,2310033,,,,,,,2023-10-02,1,,,,,ティーズホーム,0
311,2020001153685,新規,0,2023-10-02,2023-10-02,ＭＤＢ　ＣＡＵＳＳＹ株式会社,,株式会社,神奈川県,横浜市戸塚区,小雀町８５５番地１,,14,110,2440004,,,,,,,2023-10-02,1,,,,,エムデイビーコシー,0
312,2020001153693,新規,0,2023-10-02,2023-10-02,株式会社オーシャン・ブルー,,株式会社,神奈川県,川崎市宮前区,鷺沼１丁目２５番地１－２０５,,14,136,2160004,,,,,,,2023-10-02,1,,,,,オーシャンブルー,0
313,2020001153710,新規,0,2023-10-02,2023-10-02,株式会社佐藤工務店,,株式会社,神奈川県,横浜市旭区,白根６丁目５１番１６号,,14,112,2410005,,,,,,,2023-10-02,1,,,,,,0
321,2021001080267,新規,0,2023-10-02,2023-10-02,株式会社ＭＴＥ,,株式会社,神奈川県,相模原市緑区,西橋本５丁目４番３０号さがみはら産業創造センター（ＳＩＣ－２）４０５号,,14,151,2520131,,,,,,,2023-10-02,1,,,,,エムティーイー,0
322,2021001080309,新規,0,2023-10-02,2023-10-02,株式会社Ｋ　ＰＬＵＳ,,株式会社,神奈川県,鎌倉市,台４丁目１４番１０－２号,,14,204,2470061,,,,,,,2023-10-02,1,,,,,ケープラス,0
323,2021001080317,新規,0,2023-10-02,2023-10-02,株式会社高橋興業,,株式会社,神奈川県,海老名市,国分北２丁目２１番４１号,,14,215,2430406,,,,,,,2023-10-02,1,,,,,タカハシコウギョウ,0
330,2030001156316,新規,0,2023-10-02,2023-10-02,ＴＡＫＡＨＡＳＨＩサービス株式会社,,株式会社,埼玉県,坂戸市,関間４丁目２番３２号ひまわりビル４階,,11,239,3500215,,,,,,,2023-10-02,1,,,,,タカハシサービス,0
331,2030001156340,新規,0,2023-10-02,2023-10-02,株式会社モデリス,,株式会社,埼玉県,入間郡毛呂山町,大字長瀬３７３番地,,11,326,3500443,,,,,,,2023-10-02,1,,,,,モデリス,0
339,2030003022615,新規,0,2023-10-02,2023-10-02,合同会社ありあまる,,合同会社,埼玉県,さいたま市緑区,美園６丁目１２番３,,11,109,3360967,,,,,,,2023-10-02,1,,,,,アリアマル,0
340,2030003022631,新規,0,2023-10-02,2023-10-02,合同会社Ｔｏｕｒｉｓｔ,,合同会社,埼玉県,越谷市,宮本町１丁目１２１番地エスポワール１号館１０６号室,,11,222,3430806,,,,,,,2023-10-02,1,,,,,ツーリスト,0
345,2040001130311,新規,0,2023-10-02,2023-10-02,株式会社フロンティア,,株式会社,千葉県,市川市,幸２丁目３番４－２０１号,,12,203,2720123,,,,,,,2023-10-02,1,,,,,フロンティア,0
350,2050001053569,新規,0,2023-10-02,2023-10-02,ＡＺＥＥＭ　ＴＲＡＤＥＲＳ株式会社,,株式会社,茨城県,筑西市,藤ケ谷２０９１番地ロマ１０５号,,08,227,3080112,,,,,,,2023-10-02,1,,,,,アジームトレダーズ,0
354,2050003007829,新規,0,2023-10-02,2023-10-02,Ｖ．Ｋ．ＭＯＴＯＲＳ合同会社,,合同会社,茨城県,坂東市,駒跿８５３番地６,,08,228,3060653,,,,,,,2023-10-02,1,,,,,ブイケーモータース,0
355,2060001036382,新規,0,2023-10-02,2023-10-02,東興通商株式会社,,株式会社,栃木県,佐野市,田島町４０８－１,,09,204,3270031,,,,,,,2023-10-02,1,,,,,トウコウツウショウ,0
356,2060001036390,新規,0,2023-10-02,2023-10-02,ＺＩＲ　ＧＲＯＵＰ　ＯＦ　ＣＯＭＰＡＮＩＥＳ株式会社,,株式会社,栃木県,栃木市,岩舟町新里１３０４番地－４５号室,,09,203,3294316,,,,,,,2023-10-02,1,,,,,ジルグループオブカンパニーズ,0
361,2070001040912,新規,0,2023-10-02,2023-10-02,コモンズ・エステイト株式会社,,株式会社,群馬県,高崎市,問屋町西２丁目５番地６－３０１,,10,202,3700007,,,,,,,2023-10-02,1,,,,,コモンズエステイト,0
366,2080005007568,新規,0,2023-10-02,2023-10-02,行政書士法人あやめ事務所,,その他の設立登記法人,静岡県,榛原郡吉田町,住吉５３９番地の１,,22,424,4210301,,,,,,,2023-10-02,1,,,,,アヤメジムショ,0
368,2080101024244,新規,0,2023-10-02,2023-10-02,株式会社ＵＰ　ＴＯ,,株式会社,静岡県,沼津市,宮本９７番地の２１,,22,203,4100301,,,,,,,2023-10-02,1,,,,,アップトゥ,0
389,2120001258367,新規,0,2023-10-02,2023-10-02,株式会社ＩＢ　ＢＲＥＷＩＮＧ　ＫＡＮＳＡＩ,,株式会社,大阪府,大阪市住吉区,長峡町６－９,,27,120,5580044,,,,,,,2023-10-02,1,,,,,アイビーブリューイングカンサイ,0
390,2120001258409,新規,0,2023-10-02,2023-10-02,北山漢方製薬株式会社,,株式会社,大阪府,大阪市西成区,玉出西２丁目１２番１１号チェリーハイツ２０１号室,,27,122,5570045,,,,,,,2023-10-02,1,,,,,キタヤマカンポウセイヤク,0
391,2120001258474,新規,0,2023-10-02,2023-10-02,株式会社西田塗創,,株式会社,大阪府,大阪市平野区,長吉六反２丁目６番４５号,,27,126,5470012,,,,,,,2023-10-02,1,,,,,ニシダトソウ,0
392,2120001258508,新規,0,2023-10-02,2023-10-02,株式会社リエシア,,株式会社,大阪府,大阪市福島区,鷺洲３丁目１０番５号ビバーチェ鷺洲７０５,,27,103,5530002,,,,,,,2023-10-02,1,,,,,リエシア,0
395,2120101068294,新規,0,2023-10-02,2023-10-02,株式会社雅,,株式会社,大阪府,泉南郡熊取町,久保２丁目１３９１番地の１（Ｉ－２０１）,00132093,27,361,5900441,,,,,,,2023-10-02,1,,,,,ミヤビ,0
400,2130001075167,新規,0,2023-10-02,2023-10-02,株式会社Ｏ．ｆｉｒｓｔ,,株式会社,京都府,京都市東山区,広道通松原上る辰巳町１００番地,,26,105,6050000,,,,,,,2023-10-02,1,,,,,オーファースト,0
403,2130005016885,新規,0,2023-10-02,2023-10-02,一般社団法人ＡＲＴＲＡＤ　ＫＹＯＴＯ,,その他の設立登記法人,京都府,京都市中京区,二条通柳馬場西入観音町８８番地１デトムワン烏丸二条６０５号室,,26,104,6040821,,,,,,,2023-10-02,1,,,,,アートラッドキョウト,0
412,2140001131778,新規,0,2023-10-02,2023-10-02,福田株式会社,,株式会社,兵庫県,尼崎市,東難波町４丁目１８番３２－４１２号,,28,202,6600892,,,,,,,2023-10-02,1,,,,,フクダ,0
413,2140001131794,新規,0,2023-10-02,2023-10-02,山口設備株式会社,,株式会社,兵庫県,姫路市,緑台１丁目４－７,,28,201,6712247,,,,,,,2023-10-02,1,,,,,ヤマグチセツビ,0
414,2140001131803,新規,0,2023-10-02,2023-10-02,株式会社スモールビジネスサポート,,株式会社,兵庫県,伊丹市,安堂寺町３丁目３番５号,,28,207,6640864,,,,,,,2023-10-02,1,,,,,スモールビジネスサポート,0
417,2140003019609,新規,0,2023-10-02,2023-10-02,合同会社オフィス佐伯,,合同会社,兵庫県,神戸市灘区,城内通４丁目４－２－４０７,,28,102,6570836,,,,,,,2023-10-02,1,,,,,オフィスサエキ,0
420,2160001025375,新規,0,2023-10-02,2023-10-02,株式会社光美,,株式会社,滋賀県,大津市,大江５丁目１２－１０,,25,201,5202141,,,,,,,2023-10-02,1,,,,,ミツビ,0
422,2160005011231,新規,0,2023-10-02,2023-10-02,一般社団法人滋優,,その他の設立登記法人,滋賀県,大津市,秋葉台２６番１７号,,25,201,5200822,,,,,,,2023-10-02,1,,,,,ジユウ,0
423,2170001017801,新規,0,2023-10-02,2023-10-02,一番隊株式会社,,株式会社,和歌山県,海南市,野上中３５番地１さつきマンション６号棟２１１号,,30,202,6401171,,,,,,,2023-10-02,1,,,,,イチバンタイ,0
433,2180003025818,新規,0,2023-10-02,2023-10-02,合同会社Ｃｙｃｌｅ,,合同会社,愛知県,名古屋市中村区,名駅南１丁目５番１９号プレサンス名古屋駅前アクシス９０２号,,23,105,4500003,,,,,,,2023-10-02,1,,,,,サイクル,0
434,2180005020370,新規,0,2023-10-02,2023-10-02,一般社団法人循環式オープンブラスト工法協会,,その他の設立登記法人,愛知県,名古屋市名東区,一社３丁目１２１番地の１,,23,115,4650093,,,,,,,2023-10-02,1,,,,,ジュンカンシキオープンブラストコウホウキョウカイ,0
439,2190001030760,新規,0,2023-10-02,2023-10-02,三島ＨＤ株式会社,,株式会社,三重県,南牟婁郡紀宝町,井内１３５番地,,24,562,5195834,,,,,,,2023-10-02,1,,,,,ミシマホールディングス,0
447,2200001041748,新規,0,2023-10-02,2023-10-02,株式会社ＴＹ経営コンサルティング,,株式会社,岐阜県,岐阜市,宇佐南４丁目１９番３号,,21,201,5008367,,,,,,,2023-10-02,1,,,,,ティワイケイエイコンサルティング,0
449,2220003003595,新規,0,2023-10-02,2023-10-02,合同会社ＹＯＮＥＺＡＷＡ　ｓｅｒｖｉｃｅ,,合同会社,石川県,白山市,河内町きりの里４５番地,,17,210,9202304,,,,,,,2023-10-02,1,,,,,ヨネザワサービス,0
455,2260001038350,新規,0,2023-10-02,2023-10-02,株式会社はなまる,,株式会社,岡山県,岡山市北区,牟佐２３０番地１,,33,101,7012141,,,,,,,2023-10-02,1,,,,,ハナマル,0
459,2280001009044,新規,0,2023-10-02,2023-10-02,株式会社ワキザシ,,株式会社,島根県,松江市,古志原３丁目１１－４０,,32,201,6900012,,,,,,,2023-10-02,1,,,,,ワキザシ,0
472,2310003004650,新規,0,2023-10-02,2023-10-02,ａｉｌｅｓ合同会社,,合同会社,長崎県,佐世保市,花高３丁目６０番地３３,,42,202,8593212,,,,,,,2023-10-02,1,,,,,エール,0
476,2340001025935,新規,0,2023-10-02,2023-10-02,株式会社ネクスト,,株式会社,鹿児島県,薩摩川内市,白和町７番２号サンパーク川内駅テラス７０５,,46,215,8950022,,,,,,,2023-10-02,1,,,,,ネクスト,0
477,2360001032599,新規,0,2023-10-02,2023-10-02,株式会社格悠建設,,株式会社,沖縄県,国頭郡本部町,字瀬底２２６８番地,,47,308,9050227,,,,,,,2023-10-02,1,,,,,カクユウケンセツ,0
484,2380001034016,新規,0,2023-10-02,2023-10-02,株式会社折笠建装,,株式会社,福島県,会津若松市,天神町１７番１５号,,07,202,9650832,,,,,,,2023-10-02,1,,,,,オリカサケンソウ,0
486,2380005012752,新規,0,2023-10-02,2023-10-02,一般社団法人土湯温泉伝統と文化振興会,,その他の設立登記法人,福島県,福島市,土湯温泉町字油畑５５番地,,07,201,9602157,,,,,,,2023-10-02,1,,,,,ツチユオンセンデントウトブンカシンコウカイ,0
494,2430003015487,新規,0,2023-10-02,2023-10-02,合同会社ビジネス環境サポート,,合同会社,北海道,札幌市豊平区,平岸二条１３丁目３番５－２０２号,,01,105,0620932,,,,,,,2023-10-02,1,,,,,ビジネスカンキョウサポート,0
496,2450001014101,新規,0,2023-10-02,2023-10-02,株式会社生活プロデュースマネージメント,,株式会社,北海道,旭川市,宮下通７丁目３８９７番地１,,01,204,0700030,,,,,,,2023-10-02,1,,,,,セイカツプロデュースマネージメント,0
502,2500003003113,新規,0,2023-10-02,2023-10-02,たけがひら産業合同会社,,合同会社,愛媛県,松山市,宮田町１６６ロージュ宮田Ｄ－１２０４号,,38,201,7900066,,,,,,,2023-10-02,1,,,,,タケガヒラサンギョウ,0
508,2700150119708,新規,0,2023-10-02,2023-09-01,新庄地区車庫証明センター,,その他,山形県,新庄市,本町５番３号,,06,205,9960027,,,,,,,2023-09-01,1,,,,,シンジヨウチクシヤコシヨウメイセンター,0
509,2700150120871,新規,0,2023-10-02,2023-10-02,Ｓｈｅｎｚｈｅｎ　ｉＫＯＯＬＣＯＲＥ　Ｔｅｃｈｎｏｌｏｇｙ　Ｃｏ．，Ｌｔｄ．,,外国会社等,,,,,,,,３１８－Ａ８Ｆｌｏｏｒ３ＢｕｉｌｄｉｎｇＣＹｏｕｄｉｎｇＥｎｔｅｒｐｒｉｓｅＩｎｎｏｖａｔｉｏｎＰａｒｋ　Ｎｏ．６２ＨｅｐｉｎｇＲｏａｄＴｓｉｎｇｈｕａＣｏｍｍｕｎｉｔｙＬｏｎｇｈｕａＳｔｒｅｅｔ　ＬｏｎｇｈｕａＤｉｓｔｒｉｃｔ　ＳｈｅｎｚｈｅｎＣｉｔｙ,,,,,,2023-10-02,1,,,,,シンセンアイクールコアテクノロジーカンパニーリミテッド,0
510,2700150120888,新規,0,2023-10-02,2023-10-02,ＳｈｅｎｚｈｅｎｓｈｉＨａｏｌｉｘｉｎｗｅｎｈｕａＫｅｊｉ　ｙｏｕｘｉａｎｇｏｎｇｓｉ,,外国会社等,,,,,,,,ＳｈｅｎｚｈｅｎｓｈｉＬｏｎｇｇａｎｇｑｕＢｕｊｉｊｉｅｄａｏＤｏｎｇｆａｎｇｂａｎｄａｏｓｈｅｑｕＪｉｎｇｆｅｎｌｕ５ｈａｏＭａｎｃｈｅｎｇ２６ｄｏｎｇＢｄａｎｙｕａｎ３０２,,,,,,2023-10-02,1,,,,,シンセンシハオリシンブンカカギユウゲンコウシ,0
511,2700150120896,新規,0,2023-10-02,2023-10-02,Ｓｈｅｎｚｈｅｎｓｈｉｌｏｎｇｘｉｎｇｆａｄｉａｎｚｉ　ｙｏｕｘｉａｎｇｏｎｇｓｉ,,外国会社等,,,,,,,,ＬｏｎｇｇａｎｇｑｕＮａｎｗａｎｊｉｅｄａｏＤａｎｚｈｕｔｏｕｓｈｅｑｕＢａｏｄａｎｌｕＸｉａｎｔａｏｙｕａｎｇｏｎｇｙｅｑｕ２ｃｈａｎｇｆａｎｇ２ｌｏｕ２０３Ｓｈｅｎｚｈｅｎ,,,,,,2023-10-02,1,,,,,シンセンシロンシンファデンシユウゲンコウシ,0
512,2700150120905,新規,0,2023-10-02,2023-10-02,ＨＯＮＧＫＯＮＧ　ＳＨＵＹＥ　ＩＮＮＯＶＡＴＩＯＮ　ＴＥＣＨＮＯＬＯＧＹ　ＣＯ．，ＬＩＭＩＴＥＤ,,外国会社等,,,,,,,,１９Ｈ　ＭＡＸＧＲＡＮＤ　ＰＬＡＺＡ　ＮＯ　３　ＴＡＩ　ＹＡＵ　ＳＴ　ＳＡＮ　ＰＯ　ＫＯＮＧ　ＫＬＮ　９９９０７７　ＨＫ,,,,,,2023-10-02,1,,,,,シァンガンシュウイエチュァンシンカージヨウシェンゴンスー,0
513,2700150120913,新規,0,2023-10-02,2023-10-02,Ｓｈｅｎｚｈｅｎ　Ｙｕｎｔｕ　Ａｄｖｅｒｔｉｓｉｎｇ　Ｍｅｄｉａ　Ｃｏ．，Ｌｔｄ．,,外国会社等,,,,,,,,ＳｅｃｏｎｄＬａｎｅＮｏ．５　３０２　ＢａｎｔｉａｎＳｔｒｅｅｔ　ＷｕｈｅＣｏｍｍｕｎｉｔｙ　ＨｅｋａｎＶｉｌｌａｇｅ　ｓｈｅｎｚｈｅｎ　ｌｏｎｇｇａｎｇ　５１８１２９　ＣＮ,,,,,,2023-10-02,1,,,,,シンセンユンツアドバタイジングメディアカンパニーリミテッド,0
514,2700150120921,新規,0,2023-10-02,2023-10-02,ｓｈａｎｇｈａｉ　ｗｏｅｒｘｉｈｕｗａｉｙｏｎｇｐｉｎ　ｙｏｕｘｉａｎｇｏｎｇｓｉ,,外国会社等,,,,,,,,１－Ｊ，Ｎｏ．２２２２，Ｈｕａｎｃｈｅｎｇ　Ｒｏａｄ，Ｊｉａｄｉｎｇ　Ｄｉｓｔｒｉｃｔ，Ｓｈａｎｇｈａｉ　２０１８００　ＣＮ,,,,,,2023-10-02,1,,,,,シャンハイヲエルシフワイヨンピンヨウシェンゴンスー,0
524,3010001238890,新規,0,2023-10-02,2023-10-02,株式会社エンセント・パートナーズ,,株式会社,東京都,千代田区,六番町６番地１パレロワイヤル六番町６０９,,13,101,1020085,,,,,,,2023-10-02,1,,,,,エンセントパートナーズ,0
537,3010401177409,新規,0,2023-10-02,2023-10-02,Ｌｅ　Ｒｅｖｅ　Ｂｒｉｌｌａｎｔ　Ｊａｐａｎ株式会社,,株式会社,東京都,港区,赤坂２丁目１３番８号赤坂田町ビル８階,,13,103,1070052,,,,,,,2023-10-02,1,,,,,ルレーヴブリヤンジャパン,0
540,3010403031035,新規,0,2023-10-02,2023-10-02,ハンファエアロスペースジャパン合同会社,,合同会社,東京都,港区,芝４丁目１０番１号,,13,103,1080014,,,,,,,2023-10-02,1,,,,,ハンファエアロスペースジャパン,0
541,3010403031043,新規,0,2023-10-02,2023-10-02,Ａｓｓｅｍｂｌｅ合同会社,,合同会社,東京都,港区,三田４丁目１番４号,,13,103,1080073,,,,,,,2023-10-02,1,,,,,アッセンブル,0
543,3010501051141,新規,0,2023-10-02,2023-10-02,ＺＵＯ株式会社,,株式会社,東京都,台東区,台東１丁目２４番９号ブライト秋葉原Ｂ１Ｆ,,13,106,1100016,,,,,,,2023-10-02,1,,,,,ズオ,0
550,3010801034382,新規,0,2023-10-02,2023-10-02,株式会社Ｋｏｈａｎａ,,株式会社,東京都,大田区,田園調布５丁目１１－８,,13,111,1450071,,,,,,,2023-10-02,1,,,,,コハナ,0
553,3010901053927,新規,0,2023-10-02,2023-10-02,株式会社ｉコンサル,,株式会社,東京都,世田谷区,大原１丁目６２番５号シティハイツむらさき７０１,,13,112,1560041,,,,,,,2023-10-02,1,,,,,アイコンサル,0
560,3011001157189,新規,0,2023-10-02,2023-10-02,株式会社Ｎｉｎｅ,,株式会社,東京都,渋谷区,宇田川町１番１２号パークコート渋谷ザタワー７０５,,13,113,1500042,,,,,,,2023-10-02,1,,,,,,0
561,3011001157222,新規,0,2023-10-02,2023-10-02,東月株式会社,,株式会社,東京都,渋谷区,本町１丁目７番１６－１３０６号,,13,113,1510071,,,,,,,2023-10-02,1,,,,,トウゲツ,0
562,3011001157263,新規,0,2023-10-02,2023-10-02,株式会社スマイルプラス,,株式会社,東京都,目黒区,八雲２丁目１番２５号,,13,110,1520023,,,,,,,2023-10-02,1,,,,,スマイルプラス,0
564,3011003017630,新規,0,2023-10-02,2023-10-02,カスタム合同会社,,合同会社,東京都,渋谷区,道玄坂１丁目１０番８号渋谷道玄坂東急ビル２Ｆ－Ｃ,,13,113,1500043,,,,,,,2023-10-02,1,,,,,カスタム,0
569,3011105010797,新規,0,2023-10-02,2023-10-02,一般社団法人深＿大学日本校友会,00132102,その他の設立登記法人,東京都,新宿区,四谷１丁目２２番地５ＷＥＳＴＡＬＬ四谷ビル３階,,13,104,1600004,,,,,,,2023-10-02,1,,,,,シンセンダイガクニホンコウユウカイ,0
573,3011303004915,新規,0,2023-10-02,2023-10-02,アットライフ合同会社,,合同会社,東京都,杉並区,高円寺北３丁目５番１号ベルゾーネ高円寺１０１,,13,115,1660002,,,,,,,2023-10-02,1,,,,,アットライフ,0
579,3011401025482,新規,0,2023-10-02,2023-10-02,極点顧問株式会社,,株式会社,東京都,板橋区,大山東町１１－１スパシエベレーザ大山４０２号室,,13,119,1730014,,,,,,,2023-10-02,1,,,,,キョクテンコモン,0
584,3011703003608,新規,0,2023-10-02,2023-10-02,合同会社フロンティア,,合同会社,東京都,江戸川区,東葛西６丁目２番７号新店ビル５階,,13,123,1340084,,,,,,,2023-10-02,1,,,,,フロンティア,0
596,3020001153701,新規,0,2023-10-02,2023-10-02,株式会社アイスリボン,,株式会社,神奈川県,横浜市中区,尾上町１丁目６番ＩＣＯＮ関内３階,,14,104,2310015,,,,,,,2023-10-02,1,,,,,アイスリボン,0
604,3021002074135,新規,0,2023-10-02,2023-10-02,有限会社三喜,,有限会社,神奈川県,藤沢市,高倉４５２番地の６,,14,205,2520802,,,,,,,2023-10-02,1,,,,,ミキ,0
610,3030001156174,新規,0,2023-10-02,2023-10-02,株式会社Ｍ．Ｙフォース,,株式会社,埼玉県,比企郡吉見町,大字中新井１０７２番地１,,11,347,3550119,,,,,,,2023-10-02,1,,,,,エムワイフォース,0
611,3030001156190,新規,0,2023-10-02,2023-10-02,株式会社ＢＴＳ,,株式会社,埼玉県,川口市,西川口１丁目２０番１号吉岡ビル３０２,,11,203,3320021,,,,,,,2023-10-02,1,,,,,ビーティーエス,0
612,3030001156232,新規,0,2023-10-02,2023-10-02,株式会社ｓｐｉｒｉｔ,,株式会社,埼玉県,川口市,戸塚東３丁目１７番１１号,,11,203,3330802,,,,,,,2023-10-02,1,,,,,スピリット,0
615,3030003022597,新規,0,2023-10-02,2023-10-02,合同会社Ｔｑ’ｒｉｓｅ,,合同会社,埼玉県,春日部市,緑町２丁目９番３７－１号,,11,214,3440063,,,,,,,2023-10-02,1,,,,,タークライズ,0
617,3040001130285,新規,0,2023-10-02,2023-10-02,株式会社ｎｅｒｕｒｉ,,株式会社,千葉県,市川市,南大野１丁目４７番５６－４１０号,,12,203,2720804,,,,,,,2023-10-02,1,,,,,メルリ,0
618,3040001130310,新規,0,2023-10-02,2023-10-02,益榮金属株式会社,,株式会社,千葉県,長生郡長生村,薮塚１０２６番地１,,12,423,2994334,,,,,,,2023-10-02,1,,,,,マスエイキンゾク,0
620,3040003023297,新規,0,2023-10-02,2023-10-02,合同会社スタジオアール,,合同会社,千葉県,習志野市,谷津４丁目７番２４号,,12,216,2750026,,,,,,,2023-10-02,1,,,,,スタジオアール,0
621,3040003023438,新規,0,2023-10-02,2023-10-02,合同会社グランウッド,,合同会社,千葉県,成田市,赤荻１０３７番地,,12,211,2860832,,,,,,,2023-10-02,1,,,,,グランウッド,0
626,3050001053568,新規,0,2023-10-02,2023-10-02,ＴＲＡＤ設計株式会社,,株式会社,茨城県,筑西市,関本上４９３番地１,,08,227,3080122,,,,,,,2023-10-02,1,,,,,トラッドセッケイ,0
632,3070003005111,新規,0,2023-10-02,2023-10-02,合同会社ジムリーフ,,合同会社,群馬県,甘楽郡下仁田町,大字東野牧２７７４番地１,,10,382,3702624,,,,,,,2023-10-02,1,,,,,ジムリーフ,0
634,3080101024235,新規,0,2023-10-02,2023-10-02,株式会社ファーストヴィラ,,株式会社,静岡県,伊東市,東松原町１３番１６号前田ビル３Ｆ,,22,208,4140022,,,,,,,2023-10-02,1,,,,,ファーストヴィラ,0
635,3090001018352,新規,0,2023-10-02,2023-10-02,株式会社熙和,,株式会社,山梨県,甲府市,桜井町１５０番地７,,19,201,4000803,,,,,,,2023-10-02,1,,,,,キワ,0
636,3090003002395,新規,0,2023-10-02,2023-10-02,合同会社ＨＡＫＯＢＵＮＥ,,合同会社,山梨県,甲府市,善光寺３丁目１６番１５号,,19,201,4000806,,,,,,,2023-10-02,1,,,,,ハコブネ,0
640,3100003007203,新規,0,2023-10-02,2023-10-02,合同会社ＪＵＮＯ,,合同会社,長野県,松本市,宮渕３丁目２番３０号,,20,202,3900862,,,,,,,2023-10-02,1,,,,,ジュノー,0
652,3120001258457,新規,0,2023-10-02,2023-10-02,株式会社ＭＩ　Ｐｌａｎｎｉｎｇ,,株式会社,大阪府,大阪市中央区,安土町１丁目４番５号Ａ＆Ｋ本町ビル１０６,,27,128,5410052,,,,,,,2023-10-02,1,,,,,エムアイプランニング,0
658,3120101068293,新規,0,2023-10-02,2023-10-02,株式会社ＡＭＡ　ＥＳＴＡＴＥ,,株式会社,大阪府,和泉市,箕形町３丁目６番４０－３０１号,,27,219,5940042,,,,,,,2023-10-02,1,,,,,アマエステート,0
660,3120901048107,新規,0,2023-10-02,2023-10-02,株式会社Ｔｏｃｋｅｅ,,株式会社,大阪府,摂津市,別府３丁目７番４号ＨＢＧＡＲＡＧＥ０１号室,,27,224,5660046,,,,,,,2023-10-02,1,,,,,トッキー,0
670,3130003009015,新規,0,2023-10-02,2023-10-02,合資会社ＲＳ３,,合資会社,京都府,京都市左京区,岩倉南平岡町２５番地５,,26,103,6060032,,,,,,,2023-10-02,1,,,,,アールエススリー,0
673,3140001131785,新規,0,2023-10-02,2023-10-02,エスケイ会計事務所株式会社,,株式会社,兵庫県,姫路市,飾磨区恵美酒３１０番地,,28,201,6728057,,,,,,,2023-10-02,1,,,,,エスケイカイケイジムショ,0
676,3160001025366,新規,0,2023-10-02,2023-10-02,株式会社北晨,,株式会社,滋賀県,大津市,萱野浦２５番２４－２０１号,,25,201,5202143,,,,,,,2023-10-02,1,,,,,ホクシン,0
677,3160001025374,新規,0,2023-10-02,2023-10-02,株式会社こばやし工房,,株式会社,滋賀県,大津市,南小松４４５番地の３,,25,201,5200502,,,,,,,2023-10-02,1,,,,,コバヤシコウボウ,0
678,3160005011230,新規,0,2023-10-02,2023-10-02,一般財団法人甲賀市スポーツ協会,,その他の設立登記法人,滋賀県,甲賀市,甲南町野田８１０番地,,25,209,5203308,,,,,,,2023-10-02,1,,,,,コウカシスポーツキョウカイ,0
680,3170001017800,新規,0,2023-10-02,2023-10-02,Ｌｏｃａｌ　Ｓｔａｒ株式会社,,株式会社,和歌山県,和歌山市,吉田３８６番地和歌山プラザビル４０３号,,30,201,6408343,,,,,,,2023-10-02,1,,,,,ローカルスター,0
690,3180003025809,新規,0,2023-10-02,2023-10-02,合同会社Ｏｍｅｃｈａｃｙ,,合同会社,愛知県,名古屋市名東区,平和が丘４丁目１４３－６０２,,23,115,4650097,,,,,,,2023-10-02,1,,,,,オメカシ,0
697,3200001041763,新規,0,2023-10-02,2023-10-02,ウナデン株式会社,,株式会社,岐阜県,可児市,土田５７００番地ＫＹＢ（株）さくらくらぶＣ－３０１,,21,214,5090206,,,,,,,2023-10-02,1,,,,,ウナデン,0
706,3240001062186,新規,0,2023-10-02,2023-10-02,ＪＱＳ広島株式会社,,株式会社,広島県,広島市西区,庚午中４丁目４番２６号,,34,104,7330822,,,,,,,2023-10-02,1,,,,,ジェイキューエス,0
713,3290001103200,新規,0,2023-10-02,2023-10-02,株式会社Ｌ＆Ｐ　ＣＯＭＰＡＮＹ,,株式会社,福岡県,福岡市博多区,神屋町５番９号ルネッサンス２１博多１４０２,,40,132,8120022,,,,,,,2023-10-02,1,,,,,エルアンドピーカンパニー,0
718,3290801029909,新規,0,2023-10-02,2023-10-02,株式会社ＭＣ２ホールディングス,,株式会社,福岡県,北九州市小倉北区,真鶴１丁目２番１７－２０７号,,40,106,8030844,,,,,,,2023-10-02,1,,,,,エムシーツーホールディングス,0
721,3330001031297,新規,0,2023-10-02,2023-10-02,ｉ‐Ｌｉｇｈｔｉｎｇ　Ｓｙｓｔｅｍｓ株式会社,,株式会社,熊本県,熊本市東区,健軍４丁目６番３７号,,43,102,8620911,,,,,,,2023-10-02,1,,,,,アイライティングシステムズ,0
723,3360001032581,新規,0,2023-10-02,2023-10-02,株式会社ＰｅｃｏＡＩ,,株式会社,沖縄県,那覇市,牧志２丁目１７－２７,,47,201,9000013,,,,,,,2023-10-02,1,,,,,ペコエーアイ,0
724,3360001032607,新規,0,2023-10-02,2023-10-02,株式会社リコウ企画,,株式会社,沖縄県,石垣市,字登野城６７７番地１,,47,207,9070004,,,,,,,2023-10-02,1,,,,,リコウキカク,0
728,3360003013340,新規,0,2023-10-02,2023-10-02,ニライ合同会社,,合同会社,沖縄県,那覇市,字小禄６６１番地７ライオンズ小禄オアシスコート３０４,,47,201,9010152,,,,,,,2023-10-02,1,,,,,ニライ,0
742,3430001090077,新規,0,2023-10-02,2023-10-02,スタジオビライト株式会社,,株式会社,北海道,札幌市中央区,北十四条西１５丁目２番２号プランドール桑園２１０,,01,101,0600014,,,,,,,2023-10-02,1,,,,,スタジオビライト,0
743,3430003015478,新規,0,2023-10-02,2023-10-02,プライバシー・コンサルティング合同会社,,合同会社,北海道,札幌市中央区,大通西１５丁目３番地５ニューライフ大通弐番館５０６号,,01,101,0600042,,,,,,,2023-10-02,1,,,,,プライバシーコンサルティング,0
752,3480003002026,新規,0,2023-10-02,2023-10-02,合同会社イモウール,,合同会社,徳島県,鳴門市,鳴門町土佐泊浦字大毛８２番地２９,,36,202,7720053,,,,,,,2023-10-02,1,,,,,イモウール,0
753,3500001025216,新規,0,2023-10-02,2023-10-02,株式会社ニシモリデンキ,,株式会社,愛媛県,松山市,土居田町２７１番地１５,,38,201,7900056,,,,,,,2023-10-02,1,,,,,ニシモリデンキ,0
756,3700150100542,新規,0,2023-10-02,2020-10-02,多文化間精神医学会,,その他,東京都,新宿区,山吹町３５８－５アカデミーセンター,,13,104,1620801,,,,,,,2020-10-02,1,,,,,タブンカカンセイシンイガツカイ,0
759,3700150116670,新規,0,2023-10-02,2023-08-15,北大島くらし・しごとサポートセンター,,その他,鹿児島県,奄美市,名瀬長浜町５番６号,,46,222,8940036,,,,,,,2023-08-15,1,,,,,キタオオシマクラシシゴトサポートセンター,0
760,3700150119145,新規,0,2023-10-02,2023-08-22,女川食品青果,,その他,宮城県,牡鹿郡女川町,鷲神１丁目３番地６鷲神住宅１２号,,04,581,9862247,,,,,,,2023-08-22,1,,,,,オナガワシヨクヒンセイカ,0
761,3700150120219,新規,0,2023-10-02,2023-09-13,恵那市ＳＤＧｓ推進協議会,,その他,岐阜県,恵那市,長島町正家１丁目１番地１,,21,210,5097203,,,,,,,2023-09-13,1,,,,,エナシエスデイージーズスイシンキヨウギカイ,0
762,3700150120508,新規,0,2023-10-02,2023-09-20,新栄町町内会,,その他,鹿児島県,鹿屋市,新栄町８番１８－１号,,46,203,8930063,,,,,,,2023-09-20,1,,,,,シンエイチヨウチヨウナイカイ,0
763,3700150120870,新規,0,2023-10-02,2023-10-02,Ｈａｎｇｚｈｏｕｓｈｅｎｇｂｏ　ｃｌｅａｎｉｎｇ　ｐｒｏｄｕｃｔ　ｃｏ．，ｌｔｄ,,外国会社等,,,,,,,,Ｎｏ．１２８ＱｉａｎｔｏｎｇＨｅｎｇｊｉｅＶｉｌｌａｇｅＪｉｎｃｈｅｎｇＳｔｒｅｅｔ　ＬｉｎａｎＤｉｓｔｒｉｃｔ　ＨａｎｇｚｈｏｕＣｉｔｙ　ＺｈｅｊｉａｎｇＰｒｏｖｉｎｃｅ,,,,,,2023-10-02,1,,,,,コウシュウセンボクリーニングプロダクトカンパニーリミテッド,0
764,3700150120879,新規,0,2023-10-02,2023-10-02,ＳＨＥＮＺＨＥＮＸＩＮＺＨＥＮＨＵＩ　ＴＥＣＨＮＯＬＯＧＹ　ＣＯ．，ＬＩＭＩＴＥＤ,,外国会社等,,,,,,,,ＲｏｏｍＢ２　９ｔｈＦｌｏｏｒＢａｏｈｏｎｇｌｉｎＢｕｉｌｄｉｎｇ８４ＤｉｓｔｒｉｃｔｏｆＢａｏｃｈｅｎｇＨａｉｗａｎｇＣｏｍｍｕｎｉｔｙＸｉｎａｎＳｔｒｅｅｔ　Ｂａｏａｎ　Ｓｈｅｎｚｈｅｎ,,,,,,2023-10-02,1,,,,,シンセンシンゼンホイテクノロジーカンパニーリミテッド,0
765,3700150120887,新規,0,2023-10-02,2023-10-02,ＺＨＥＪＩＡＮＧ　ＷＩＮＣＨＯＩＣＥ　ＩＭＰ／ＥＸＰ　ＣＯ．，ＬＴＤ．,,外国会社等,,,,,,,,７６ｔｈ　Ｇｕ　Ｃｕｉ　Ｒｏａｄ　Ｒｏｏｍ　１１０９，Ｈａｎｇｚｈｏｕ,,,,,,2023-10-02,1,,,,,ジョージャンヨンチャンジンチューコウヨウシエンゴンスー,0
766,3700150120895,新規,0,2023-10-02,2023-10-02,ｚｈｏｎｇｓｈａｎｓｈｉｌｖｘｉｎｇｌｉｎｇｇａｎｋｅｊｉ　ｙｏｕｘｉａｎｇｏｎｇｓｉ,,外国会社等,,,,,,,,Ｃ３０６－Ｃｃａｒｄ３ｒｄｆｌｏｏｒＺｏｎｅＣＮｏ．５６ＱｉｗａｎＮｏｒｔｈＲｏａｄ　ＥａｓｔｅｒｎＤｉｓｔｒｉｃｔＺｈｏｎｇｓｈａｎＣｉｔｙ,,,,,,2023-10-02,1,,,,,チュウザンシリョコウリンカンカギユウゲンコウシ,0
767,3700150120904,新規,0,2023-10-02,2023-10-02,ｔｏｎｇ　ｌｉｎｇ　ｙｕ　ｈｕａｎ　ｍａｏ　ｙｉ　ｙｏｕ　ｘｉａｎ　ｇｏｎｇ　ｓｉ,,外国会社等,,,,,,,,ｔｏｎｇ　ｇｕａｎ　ｑｕ　ｙａｎｇ　ｊｉａ　ｓｈａｎ　ｄｏｎｇ　ｃｕｎ　５３　ｄｏｎｇ　１ｃｅｎｇ　ｔｏｎｇ　ｌｉｎｇ　ａｎ　ｈｕｉ　２４４０００　ＣＮ,,,,,,2023-10-02,1,,,,,トンリンユィホァンマオイーヨウシェンゴンスー,0
768,3700150120912,新規,0,2023-10-02,2023-10-02,ｃｈａｎｇｓｈａｓｈｉｐｉｎｇｇａｏｙｉｄｉａｎｚｉｓｈａｎｇｗｕ　ｙｏｕｘｉａｎｇｏｎｇｓｉ,,外国会社等,,,,,,,,ｃｈａｎｇｓｈａｓｈｉｙｕｅｌｕｑｕｗａｎｇｃｈｅｎｇｐｏｊｉｅｄａｏｙｕｌａｎｌｕ５７７ｈａｏｄａｍｅｉｙｕａｎ４ｄｏｎｇｑｕｎｌｏｕ２５５７ｈａｏ　Ｈｕｎａｎ　４１００００　ＣＮ,,,,,,2023-10-02,1,,,,,チャンサシピンガオイデンシショウムヨウシェンゴンスー,0
769,3700150120920,新規,0,2023-10-02,2023-10-02,Ｓｈｅｎｚｈｅｎｓｈｉ　ｃｈｅｎｇｘｉａｄｉａｎｚｉｓｈａｎｇｗｕ　ｙｏｕｘｉａｎｇｏｎｇｓｉ,,外国会社等,,,,,,,,ｑｉｎｇｓｈｕｉｈｅｊｉｅｄａｏ　ｑｉｎｇｓｈｕｉｈｅｓｈｅｑｕ　ｎｉｇａｎｇｄｏｎｇｌｕ１１２６ｈａｏ　ｌｕｌｉｎｇｄａｓｈａＣ９０１　ｌｕｏｈｕｑｕ　ｓｈｅｎｚｈｅｎｓｈｉ　５１８０００　ＣＮ,,,,,,2023-10-02,1,,,,,シンセンシチェンシャデンシショウムヨウシェンゴンスー,0
770,3700150120929,新規,0,2023-10-02,2023-10-02,Ｄｏｎｇｇｕａｎｇｓｈｉｊｉｕｃｉｆａｎｇｊｉｎｇｄｉａｎｄａｉｚｈｉｐｉｎｇｙｏｕｘｉａｎｇｏｎｇ,,外国会社等,,,,,,,,ｇｕａｎｇｄｏｎｇｓｈｅｎｇｄｏｎｇｇｕａｎｓｈｉｄａｌａｎｇｚｈｅｎｘｉａｎｇｈｅｙｉｌｕ２ｈａｏｄｉ８ｄｏｎｇ２０１ｓｈｉ,,,,,,2023-10-02,1,,,,,ドングワンシージューツーファンジンディエンダイジーピンヨウシエンゴンスー,0
771,3700150120937,新規,0,2023-10-02,2023-10-02,神田小川町三丁目西部南地区市街地再開発組合,,その他,東京都,千代田区,神田神保町１丁目４番,,13,101,1010051,,,,,,,2023-10-02,1,,,,,カンダオガワマチサンチヨウメセイブミナミチクシガイチサイカイハツクミアイ,0
772,3700150120945,新規,0,2023-10-02,2023-10-02,岐阜駅北中央東地区市街地再開発組合,,その他,岐阜県,岐阜市,吉野町５丁目１２番地,,21,201,5008844,,,,,,,2023-10-02,1,,,,,ギフエキキタチユウオウヒガシチクシガイチサイカイハツクミアイ,0
784,4010005037322,新規,0,2023-10-02,2023-10-02,一般社団法人ＬＩＮＫＥＤ　ＣＩＴＹコンソーシアム,,その他の設立登記法人,東京都,中央区,京橋３丁目３番１１号,,13,102,1040031,,,,,,,2023-10-02,1,,,,,リンクドシティコンソーシアム,0
806,4010403031026,新規,0,2023-10-02,2023-10-02,合同会社大和パートナーズ,,合同会社,東京都,港区,新橋５丁目１２番－１１－４０６,,13,103,1050004,,,,,,,2023-10-02,1,,,,,ダイワパートナーズ,0
807,4010403031042,新規,0,2023-10-02,2023-10-02,合同会社ＪＴＯＷＥＲ　Ｉｎｆｒａｓｔｒｕｃｔｕｒｅ３,,合同会社,東京都,港区,南青山２丁目２番３号,,13,103,1070062,,,,,,,2023-10-02,1,,,,,ジェイタワーインフラストラクチャースリー,0
808,4010405022551,新規,0,2023-10-02,2023-10-02,ＰＪＭＦ　Ｓｔｅｌｌａｒ一般社団法人,,その他の設立登記法人,東京都,港区,元赤坂１丁目１番７－８０７号,,13,103,1070051,,,,,,,2023-10-02,1,,,,,ピージェイエムエフステラ,0
814,4010603010374,新規,0,2023-10-02,2023-10-02,ＬｉｇｈｔｉｎｇＥＴＨＮＯＳ合同会社,,合同会社,東京都,江東区,北砂６丁目２０番１９号,,13,108,1360073,,,,,,,2023-10-02,1,,,,,ライティングエトノス,0
815,4010801034381,新規,0,2023-10-02,2023-10-02,株式会社ＯＰＵＳＩＡ,,株式会社,東京都,大田区,中央３丁目１７番１０号,,13,111,1430024,,,,,,,2023-10-02,1,,,,,オプシア,0
818,4010901053785,新規,0,2023-10-02,2023-10-02,株式会社日記屋月日,,株式会社,東京都,世田谷区,代田２丁目３６番１２号,,13,112,1550033,,,,,,,2023-10-02,1,,,,,ニッキヤツキヒ,0
821,4011001157147,新規,0,2023-10-02,2023-10-02,株式会社Ｎｅｓｔｇｅｎ,,株式会社,東京都,渋谷区,道玄坂１丁目１０番８号渋谷道玄坂東急ビル２Ｆ－Ｃ,,13,113,1500043,,,,,,,2023-10-02,1,,,,,ネストジェン,0
822,4011001157238,新規,0,2023-10-02,2023-10-02,株式会社ＭＯＭＥＮＴ,,株式会社,東京都,目黒区,目黒本町６丁目１６－１８,,13,110,1520002,,,,,,,2023-10-02,1,,,,,モーメント,0
823,4011001157246,新規,0,2023-10-02,2023-10-02,株式会社ＲＩＣＫＳ,,株式会社,東京都,渋谷区,笹塚２丁目４４番４号ハマヤビル２階,,13,113,1510073,,,,,,,2023-10-02,1,,,,,リックス,0
824,4011001157279,新規,0,2023-10-02,2023-10-02,株式会社ＡＭＡＮＳ,,株式会社,東京都,渋谷区,道玄坂２丁目１７番２,,13,113,1500043,,,,,,,2023-10-02,1,,,,,アマンズ,0
827,4011105010796,新規,0,2023-10-02,2023-10-02,一般財団法人パルシステム若者応援基金,,その他の設立登記法人,東京都,新宿区,大久保２丁目２番６号,,13,104,1690072,,,,,,,2023-10-02,1,,,,,パルシステムワカモノオウエンキキン,0
828,4011105010805,新規,0,2023-10-02,2023-10-02,一般社団法人日本産後ケア施設連絡協議会,,その他の設立登記法人,東京都,新宿区,矢来町７５番地,,13,104,1620805,,,,,,,2023-10-02,1,,,,,ニホンサンゴケアシセツレンラクキョウギカイ,0
832,4011405002262,新規,0,2023-10-02,2023-10-02,一般社団法人一隅会,,その他の設立登記法人,東京都,板橋区,仲宿５９番１４号メゾンドルフ小松屋１Ｆ,,13,119,1730005,,,,,,,2023-10-02,1,,,,,イチグウカイ,0
836,4011501029820,新規,0,2023-10-02,2023-10-02,株式会社Ｓｏｔｔｅ,,株式会社,東京都,北区,西ケ原１丁目１番５－８０１号メインステージ駒込ラ・ヴェール,,13,117,1140024,,,,,,,2023-10-02,1,,,,,ソッテ,0
842,4012401041056,新規,0,2023-10-02,2023-10-02,株式会社ＳＡＭＥ　ＡＲＲＯＷ‐ＤＥ,,株式会社,東京都,調布市,染地２丁目８番地２１９号パークホームズ調布桜堤通り６２６,,13,208,1820023,,,,,,,2023-10-02,1,,,,,セイムアロウデ,0
847,4012801022655,新規,0,2023-10-02,2023-10-02,株式会社Ｅｎｔａｃ,,株式会社,東京都,立川市,西砂町１丁目２６番地の６８,,13,202,1900034,,,,,,,2023-10-02,1,,,,,エンタック,0
855,4020001153675,新規,0,2023-10-02,2023-10-02,株式会社ノーエンド,,株式会社,神奈川県,川崎市高津区,梶ケ谷２丁目１番地２,,14,134,2130015,,,,,,,2023-10-02,1,,,,,ノーエンド,0
856,4020001153691,新規,0,2023-10-02,2023-10-02,株式会社Ｃｒｅｓｃｅｎｔｅ,,株式会社,神奈川県,川崎市川崎区,駅前本町１１番地２川崎フロンティアビル４階,,14,131,2100007,,,,,,,2023-10-02,1,,,,,クレッシェンテ,0
857,4020001153700,新規,0,2023-10-02,2023-10-02,株式会社リフロス,,株式会社,神奈川県,横浜市都筑区,東山田町８４番地,,14,118,2240024,,,,,,,2023-10-02,1,,,,,リフロス,0
858,4020001153709,新規,0,2023-10-02,2023-10-02,株式会社菊,,株式会社,神奈川県,横浜市南区,真金町２丁目１８番地３２,,14,105,2320021,,,,,,,2023-10-02,1,,,,,,0
859,4020003024668,新規,0,2023-10-02,2023-10-02,合同会社鹿島工業,,合同会社,神奈川県,横浜市磯子区,中原２丁目１４－１６鹿島コーポ１０５,,14,107,2350036,,,,,,,2023-10-02,1,,,,,カシマコウギョウ,0
865,4030001156124,新規,0,2023-10-02,2023-10-02,昇龍建工株式会社,,株式会社,埼玉県,上尾市,春日２丁目２２－４３,,11,219,3620074,,,,,,,2023-10-02,1,,,,,ショウリュウケンコウ,0
866,4030001156149,新規,0,2023-10-02,2023-10-02,株式会社ラクイチ,,株式会社,埼玉県,鶴ヶ島市,大字上広谷１８番地９モンヴェール鶴ヶ島５０２号,,11,241,3502203,,,,,,,2023-10-02,1,,,,,ラクイチ,0
867,4030001156272,新規,0,2023-10-02,2023-10-02,株式会社古尚,,株式会社,埼玉県,北葛飾郡杉戸町,高野台西１丁目１７番地６,,11,464,3450045,,,,,,,2023-10-02,1,,,,,フルショウ,0
868,4030001156339,新規,0,2023-10-02,2023-10-02,株式会社ＰｅＧｅ,,株式会社,埼玉県,所沢市,中新井１丁目８４０番地の３,,11,208,3590041,,,,,,,2023-10-02,1,,,,,ページ,0
872,4030003022613,新規,0,2023-10-02,2023-10-02,まめたん合同会社,,合同会社,埼玉県,さいたま市南区,文蔵３丁目１８番地３号４０７,,11,108,3360025,,,,,,,2023-10-02,1,,,,,マメタン,0
877,4040001130301,新規,0,2023-10-02,2023-10-02,株式会社日和,,株式会社,千葉県,船橋市,北本町２丁目６４番１棟１０８号,,12,204,2730864,,,,,,,2023-10-02,1,,,,,ヒヨリ,0
882,4050001053567,新規,0,2023-10-02,2023-10-02,株式会社レア,,株式会社,茨城県,土浦市,桜町４丁目２番５号桜町四丁目テナント,,08,203,3000037,,,,,,,2023-10-02,1,,,,,レア,0
883,4050001053575,新規,0,2023-10-02,2023-10-02,ジーアイ株式会社,,株式会社,茨城県,つくば市,研究学園４丁目１３番地１６,,08,220,3050817,,,,,,,2023-10-02,1,,,,,ジーアイ,0
884,4050003007827,新規,0,2023-10-02,2023-10-02,合同会社セブンツーエンタープライズ,,合同会社,茨城県,土浦市,中村南２丁目２番３－２号叶Ｂ棟１０２,,08,203,3000843,,,,,,,2023-10-02,1,,,,,セブンツーエンタープライズ,0
888,4060001036380,新規,0,2023-10-02,2023-10-02,ＫＣＬＵＢ　ＭＡＲＫＥＴＩＮＧ株式会社,,株式会社,栃木県,宇都宮市,戸祭町２６３８－１２,,09,201,3200053,,,,,,,2023-10-02,1,,,,,ケイクラブマーケティング,0
889,4060001036389,新規,0,2023-10-02,2023-10-02,株式会社ゆうあいファーム,,株式会社,栃木県,那須塩原市,戸田４３番地,,09,213,3250114,,,,,,,2023-10-02,1,,,,,ユウアイファーム,0
892,4080001025877,新規,0,2023-10-02,2023-10-02,株式会社Ｙ・Ｍマリン,,株式会社,静岡県,榛原郡吉田町,川尻３１３８番地の６９,,22,424,4210302,,,,,,,2023-10-02,1,,,,,ワイエムマリン,0
893,4080101024242,新規,0,2023-10-02,2023-10-02,株式会社Ｆｉｎｄｅｒ,,株式会社,静岡県,沼津市,宮本９７番地の２１,,22,203,4100301,,,,,,,2023-10-02,1,,,,,ファインダー,0
895,4090001018351,新規,0,2023-10-02,2023-10-02,株式会社ｋｏｎｏｈａ,,株式会社,山梨県,甲府市,貢川２丁目１番１１号１Ａ,,19,201,4000065,,,,,,,2023-10-02,1,,,,,コノハ,0
919,4120101068268,新規,0,2023-10-02,2023-10-02,株式会社章月商流会,,株式会社,大阪府,藤井寺市,北岡１丁目５番１０号,,27,226,5830035,,,,,,,2023-10-02,1,,,,,ショウゲツショウリュウカイ,0
920,4120101068284,新規,0,2023-10-02,2023-10-02,株式会社いけばん,,株式会社,大阪府,貝塚市,橋本３０２番地１,,27,208,5970043,,,,,,,2023-10-02,1,,,,,イケバン,0
921,4120103005467,新規,0,2023-10-02,2023-10-02,合同会社光明,,合同会社,大阪府,和泉市,浦田町２３４番地の１－２０４,,27,219,5941103,,,,,,,2023-10-02,1,,,,,コウミョウ,0
925,4120901048106,新規,0,2023-10-02,2023-10-02,Ｄ．ｓｋｙ株式会社,,株式会社,大阪府,箕面市,粟生間谷西４丁目２番箕面粟生第二住宅１２棟２０６,,27,220,5620023,,,,,,,2023-10-02,1,,,,,ディースカイ,0
926,4120905006522,新規,0,2023-10-02,2023-10-02,一般社団法人川本教育研究所,,その他の設立登記法人,大阪府,豊中市,緑丘３丁目１番６号,,27,203,5600002,,,,,,,2023-10-02,1,,,,,カワモトキョウイクケンキュウジョ,0
928,4130001075322,新規,0,2023-10-02,2023-10-02,株式会社トゥナ,,株式会社,京都府,京都市伏見区,横大路下三栖東ノ口１番地２レ・ジェイド伏見中書島６０８号,,26,109,6128235,,,,,,,2023-10-02,1,,,,,トゥナ,0
929,4130001075330,新規,0,2023-10-02,2023-10-02,株式会社伊吹建設,,株式会社,京都府,宇治市,広野町中島６１番地の１グランドール広野２０６号,,26,204,6110031,,,,,,,2023-10-02,1,,,,,イブキケンセツ,0
932,4140001131801,新規,0,2023-10-02,2023-10-02,株式会社ＴＭＬ,,株式会社,兵庫県,神戸市西区,伊川谷町潤和６番地の６９,,28,111,6512124,,,,,,,2023-10-02,1,,,,,ティーエムエル,0
943,4200001041762,新規,0,2023-10-02,2023-10-02,株式会社ラインスター,,株式会社,岐阜県,岐阜市,東鶉３丁目６９番地５,,21,201,5008281,,,,,,,2023-10-02,1,,,,,ラインスター,0
946,4240001062185,新規,0,2023-10-02,2023-10-02,株式会社ＭａｒｕｔｏＬｅｂｅｎ,,株式会社,広島県,広島市安佐南区,緑井７丁目２番３４号,,34,105,7310103,,,,,,,2023-10-02,1,,,,,マルトレーベン,0
947,4250001020299,新規,0,2023-10-02,2023-10-02,株式会社ＭＡＧＩＣ,,株式会社,山口県,下関市,彦島福浦町２丁目１５番２号,,35,201,7500087,,,,,,,2023-10-02,1,,,,,マジック,0
950,4260001038349,新規,0,2023-10-02,2023-10-02,株式会社なごみコンサルティング,,株式会社,岡山県,岡山市北区,野田３丁目１９番７号野田ビル２階,,33,101,7000971,,,,,,,2023-10-02,1,,,,,ナゴミコンサルティング,0
959,4290001103190,新規,0,2023-10-02,2023-10-02,株式会社ＮＥＸＵＳ,,株式会社,福岡県,福岡市博多区,博多駅東２丁目５番１９号サンライフ第３ビル６階,,40,132,8120013,,,,,,,2023-10-02,1,,,,,ネクサス,0
963,4290801029908,新規,0,2023-10-02,2023-10-02,リコ工器株式会社,,株式会社,福岡県,北九州市八幡西区,陣原２丁目１番１８－１０２号,,40,109,8070821,,,,,,,2023-10-02,1,,,,,リココウキ,0
968,4330001031296,新規,0,2023-10-02,2023-10-02,株式会社Ｐｌａｔａｎｕｓ,,株式会社,熊本県,熊本市中央区,帯山４丁目５５番５０号,,43,101,8620924,,,,,,,2023-10-02,1,,,,,プラタナス,0
969,4330001031313,新規,0,2023-10-02,2023-10-02,株式会社アグリテックレイメイ,,株式会社,熊本県,合志市,御代志１６６１番地１,,43,216,8611104,,,,,,,2023-10-02,1,,,,,アグリテックレイメイ,0
970,4330005010701,新規,0,2023-10-02,2023-10-02,一般社団法人ラスカーラ・オペラ振興会,,その他の設立登記法人,熊本県,熊本市南区,川口町２６６６番地５,,43,104,8614123,,,,,,,2023-10-02,1,,,,,,0
976,4360003013315,新規,0,2023-10-02,2023-10-02,合同会社Ｄｅｌｓｕｒ,,合同会社,沖縄県,名護市,城２丁目８番地１９岸本第一ビル２０１号室,,47,209,9050013,,,,,,,2023-10-02,1,,,,,デルスール,0
977,4360003013331,新規,0,2023-10-02,2023-10-02,合同会社大城産業,,合同会社,沖縄県,中頭郡読谷村,字古堅８７２－３,,47,324,9040314,,,,,,,2023-10-02,1,,,,,オオシロサンギョウ,0
981,4370005010697,新規,0,2023-10-02,2023-10-02,Ｋインターナショナル協同組合,,その他の設立登記法人,宮城県,仙台市青葉区,小田原４丁目４番３号,,04,101,9800003,,,,,,,2023-10-02,1,,,,,ケーインターナショナル,0
987,4380001034014,新規,0,2023-10-02,2023-10-02,株式会社夢翔,,株式会社,福島県,白河市,みさか１丁目２番地３,,07,205,9610836,,,,,,,2023-10-02,1,,,,,ユメショウ,0
988,4400001016397,新規,0,2023-10-02,2023-10-02,株式会社かどやＸホールディングス,,株式会社,岩手県,盛岡市,渋民字泉田３１０番地１,,03,201,0284132,,,,,,,2023-10-02,1,,,,,カドヤエックスホールディングス,0
991,4400003003154,新規,0,2023-10-02,2023-10-02,合同会社Ｙｕｗａ,,合同会社,岩手県,盛岡市,大新町４－１,,03,201,0200135,,,,,,,2023-10-02,1,,,,,ユウワ,0
996,4430001090084,新規,0,2023-10-02,2023-10-02,株式会社ＭＯＯＩ,,株式会社,北海道,札幌市中央区,南十三条西１３丁目１－３３コローレ伏見２０５,,01,101,0640913,,,,,,,2023-10-02,1,,,,,ムーイ,0
999,4440001009331,新規,0,2023-10-02,2023-10-02,Ｈ・Ｏ・Ｄ株式会社,,株式会社,北海道,函館市,本通２丁目５５番１９号,,01,202,0410851,,,,,,,2023-10-02,1,,,,,エイチオーディー,0
1003,4700150119887,新規,0,2023-10-02,2023-09-06,仙台ふるさとの杜再生プロジェクト連絡会議,,その他,宮城県,仙台市青葉区,国分町３丁目７－１仙台市建設局百年の杜推進課内,,04,101,9800803,,,,,,,2023-09-06,1,,,,,センダイフルサトノモリサイセイプロジエクトレンラクカイギ,0
1004,4700150120878,新規,0,2023-10-02,2023-10-02,ＹｏｎｇＡｎ　ＷｅｉＬａｉ　ＭａｏＹｉＹｏｕＸｉａｎＧｏｎｇＳｉ,,外国会社等,,,,,,,,ＸｉｎｇＤａＳｈａｎｇＭａｏＣｈｅｎｇ３ｄｏｎｇ８０３　ＳａｎＭｉｎｇＳｈｉＹｏｎｇＡｎＳｈｉＸｉａｏＴａｏＺｈｅｎ　ＦｕＪｉａｎ,,,,,,2023-10-02,1,,,,,ヨンアンウェイライマオイーヨウシエンゴンスー,0
1005,4700150120886,新規,0,2023-10-02,2023-10-02,ａｎｔｕｇｕｏｊｉｍａｏｙｉｓｈｅｎｚｈｅｎｙｏｕｘｉａｎｇｏｎｇｓｉ,,外国会社等,,,,,,,,ｌｏｎｇｈｕａｑｕｄａｌａｎｇｊｉｅｄａｏｇａｏｆｅｎｇｓｈｅｑｕｃｈｉｌｉｎｇｔｏｕｙａｎｇｔａｉｘｉｎｃｕｎ　７２ｈａｏ１００１　ｓｈｅｎｚｈｅｎｓｈｉ　Ｇｕａｎｇｄｏｎｇ　５１８０００　ＣＮ,,,,,,2023-10-02,1,,,,,アントゥーグオジーマオイーシェンジェンヨウシエンゴンスー,0
1006,4700150120894,新規,0,2023-10-02,2023-10-02,ｓｈｅｎｚｈｅｎｌａｎｙａｎｇｍａｏｙｉ　ｙｏｕｘｉａｎｇｏｎｇｓｉ,,外国会社等,,,,,,,,ｓｈｅｎｚｈｅｎｓｈｉ　ｌｏｎｇｈｕａｑｕ　ｍｉｎｚｈｉｊｉｅｄａｏｍｉｎｌｅｓｈｅｑｕｍｉｎｌｅｇｏｎｇｙｅｑｕ２ｄｏｎｇ５０２,,,,,,2023-10-02,1,,,,,シンセンランヤンマオイユウゲンコウシ,0
1007,4700150120903,新規,0,2023-10-02,2023-10-02,ｄｏｎｇｇｕａｎｓｈｉｘｉｙｕｅｊｉａｊｕｙｏｕｘｉａｎｇｏｎｇｓｉ,,外国会社等,,,,,,,,Ｎｏ．２９　Ｙａｎｈｅ　Ｗｅｓｔ　Ｒｏａｄ，Ｍｉａｏｂｉａｎ　Ｖｉｌｌａｇｅ　Ｌｉａｏｂｕ　Ｔｏｗｎ　Ｄｏｎｇｇｕａｎ，Ｇｕａｎｇｄｏｎｇ　５２３４００　ＣＮ,,,,,,2023-10-02,1,,,,,ドンワンシシーユエジャアジュイヨウシェンゴンスー,0
1008,4700150120911,新規,0,2023-10-02,2023-10-02,Ｓｈｅｎｚｈｅｎ　Ｌｅｉｄｕ　Ｔｅｃｈｎｏｌｏｇｙ　Ｃｏ．，Ｌｔｄ,,外国会社等,,,,,,,,Ａ１３０６　Ｍｉｎｇｓｈｉｇｅ　Ｎｏ．４０６８　ＪｉｅｆａｎｇＲｏａｄ　ＧｕｉｙｕａｎＳｕｂ－Ｄｉｓｔｒｉｃｔ　ＬｕｏｈｕＤｉｓｔｒｉｃｔ　Ｓｈｅｎｚｈｅｎ　５１８０００　ＣＮ,,,,,,2023-10-02,1,,,,,シンセンレイドウテクノロジーカンパニーリミテッド,0
1009,4700150120928,新規,0,2023-10-02,2023-10-02,Ｗｅｎｔｗｏｒｔｈ　＆　Ｍａｉｎ　Ｂｏｔｉｑｕｅ　Ｉｎｃ．,,外国会社等,,,,,,,,６５　Ｅａｓｔ　Ｌｉｂｅｒｔｙ　Ｓｔ，Ｓｕｉｔｅ９１４，Ｔｏｒｏｎｔｏ，Ｏｎｔａｒｉｏ，Ｃａｎａｄａ，Ｍ６Ｋ　３Ｒ２,,,,,,2023-10-02,1,,,,,ウエントワースアンドメインブテイツクインク,0
1025,5010003041812,新規,0,2023-10-02,2023-10-02,合同会社ジャストコンサルティング,,合同会社,東京都,千代田区,神田佐久間町２丁目１８番地１秋葉原ＳＴＮフロント１０階,,13,101,1010025,,,,,,,2023-10-02,1,,,,,ジャストコンサルティング,0
1027,5010005037321,新規,0,2023-10-02,2023-10-02,一般社団法人Ｓｔａｎｄａｒｄ　Ｉｎｆｅｃｔｉｏｎ　Ｃｏｎｔｒｏｌ　Ａｃａｄｅｍｙ,,その他の設立登記法人,東京都,中央区,築地３丁目７番１号ＴＳＵＫＩＪＩＧＲＡＮＤＥ４階,,13,102,1040045,,,,,,,2023-10-02,1,,,,,スタンダードインフェクションコントロールアカデミー,0
1037,5010401177456,新規,0,2023-10-02,2023-10-02,ＳｔｏｒｙＳｐａｒｋ株式会社,,株式会社,東京都,港区,南青山２丁目２２－１４フォンテ青山５１０,,13,103,1070062,,,,,,,2023-10-02,1,,,,,ストーリースパーク,0
1038,5010401177472,新規,0,2023-10-02,2023-10-02,Ｉ＆Ｉパートナーズ株式会社,,株式会社,東京都,港区,赤坂１丁目１２番３２号アーク森ビル２３階,,13,103,1070052,,,,,,,2023-10-02,1,,,,,アイアンドアイパートナーズ,0
1041,5010403031017,新規,0,2023-10-02,2023-10-02,ジャパン・インベストメント合同会社,,合同会社,東京都,港区,芝浦２丁目１４番１９－２０４号,,13,103,1080023,,,,,,,2023-10-02,1,,,,,ジャパンインベストメント,0
1042,5010403031041,新規,0,2023-10-02,2023-10-02,Ｆａｎメズ・ワン合同会社,,合同会社,東京都,港区,西新橋１丁目１８番６号,,13,103,1050003,,,,,,,2023-10-02,1,,,,,ファンメズワン,0
1043,5010403031074,新規,0,2023-10-02,2023-10-02,オペネル合同会社,,合同会社,東京都,港区,北青山１丁目３番１号アールキューブ青山３階,,13,103,1070061,,,,,,,2023-10-02,1,,,,,オペネル,0
1047,5010601063885,新規,0,2023-10-02,2023-10-02,株式会社ＡＲＣ,,株式会社,東京都,江東区,豊洲６丁目２番３１－４１０３号,,13,108,1350061,,,,,,,2023-10-02,1,,,,,エーアールシー,0
1050,5010901053925,新規,0,2023-10-02,2023-10-02,株式会社三和フーズ,,株式会社,東京都,世田谷区,三軒茶屋２丁目９－１５ＴＣＫビル３階,,13,112,1540024,,,,,,,2023-10-02,1,,,,,サンワフーズ,0
1078,5011501029803,新規,0,2023-10-02,2023-10-02,Ｒｉａｇｏ　Ｊａｐａｎ株式会社,,株式会社,東京都,荒川区,南千住７丁目２３番５号,,13,118,1160003,,,,,,,2023-10-02,1,,,,,リィアゴジャパン,0
1082,5011601027153,新規,0,2023-10-02,2023-10-02,株式会社エコーズクリエイティブメディア,,株式会社,東京都,練馬区,豊玉中２丁目４番３－３０３号,,13,120,1760013,,,,,,,2023-10-02,1,,,,,エコーズクリエイティブメディア,0
1096,5013301051409,新規,0,2023-10-02,2023-10-02,株式会社４１２,,株式会社,東京都,豊島区,上池袋２丁目３８番１２号,,13,116,1700012,,,,,,,2023-10-02,1,,,,,ヨンイチニ,0
1103,5020001153690,新規,0,2023-10-02,2023-10-02,プラスハイテック株式会社,,株式会社,神奈川県,横浜市西区,北幸１丁目１１番１号水信ビル７階,,14,103,2200004,,,,,,,2023-10-02,1,,,,,プラスハイテック,0
1104,5020001153708,新規,0,2023-10-02,2023-10-02,株式会社ハマスピ,,株式会社,神奈川県,横浜市戸塚区,汲沢６丁目２２－３７,,14,110,2450061,,,,,,,2023-10-02,1,,,,,ハマスピ,0
1109,5020003024675,新規,0,2023-10-02,2023-10-02,アップリフト合同会社,,合同会社,神奈川県,横浜市鶴見区,矢向５丁目１２番４号,,14,101,2300001,,,,,,,2023-10-02,1,,,,,アップリフト,0
1114,5021001080289,新規,0,2023-10-02,2023-10-02,株式会社足場マンｓ,,株式会社,神奈川県,茅ヶ崎市,下町屋３丁目１１番１７号,,14,207,2530087,,,,,,,2023-10-02,1,,,,,アシバマンズ,0
1116,5021003013610,新規,0,2023-10-02,2023-10-02,合同会社小倉建設,,合同会社,神奈川県,小田原市,飯泉１４２６番地の８,,14,206,2500863,,,,,,,2023-10-02,1,,,,,オグラケンセツ,0
1126,5030001156115,新規,0,2023-10-02,2023-10-02,ＣＫ株式会社,,株式会社,埼玉県,川口市,芝中田１丁目３６番１１号,,11,203,3330847,,,,,,,2023-10-02,1,,,,,シーケー,0
1127,5030001156148,新規,0,2023-10-02,2023-10-02,株式会社ＡｉｒＢＥＡＴ‐Ｗｏｒｋｓ,,株式会社,埼玉県,川口市,領家２丁目１５番１２号,,11,203,3320004,,,,,,,2023-10-02,1,,,,,エアビートワークス,0
1128,5030001156197,新規,0,2023-10-02,2023-10-02,株式会社ＳＨＡＹＥＲＡ,,株式会社,埼玉県,川越市,清水町１１－４７並木貸店舗兼住宅２Ｆ,,11,201,3501145,,,,,,,2023-10-02,1,,,,,サエラ,0
1129,5030001156346,新規,0,2023-10-02,2023-10-02,ミナモト興産株式会社,,株式会社,埼玉県,さいたま市岩槻区,大字釣上新田字道下３１８番,,11,110,3390025,,,,,,,2023-10-02,1,,,,,ミナモトコウサン,0
1133,5030003022587,新規,0,2023-10-02,2023-10-02,ＳＲ　Ｏｆｆｉｃｅ合同会社,,合同会社,埼玉県,所沢市,東町１５－２２ザ・パークハウス所沢プレイス６０１,,11,208,3591116,,,,,,,2023-10-02,1,,,,,エスアールオフィス,0
1134,5030003022612,新規,0,2023-10-02,2023-10-02,合同会社榎本運輸,,合同会社,埼玉県,春日部市,新宿新田２２８番地１７０フルール・ド・スリジェ１０２,,11,214,3440113,,,,,,,2023-10-02,1,,,,,エノモトウンユ,0
1135,5030003022629,新規,0,2023-10-02,2023-10-02,梁内装合同会社,,合同会社,埼玉県,熊谷市,銀座６丁目７番３号県営銀座住宅２－２０１,,11,202,3600032,,,,,,,2023-10-02,1,,,,,リョウナイソウ,0
1137,5040001130300,新規,0,2023-10-02,2023-10-02,株式会社アッシュイグレック,,株式会社,千葉県,松戸市,秋山１丁目１６番地の２,,12,207,2702223,,,,,,,2023-10-02,1,,,,,アッシュイグレック,0
1138,5040001130309,新規,0,2023-10-02,2023-10-02,株式会社ＩｎｆｏＨａｖｅｎ,,株式会社,千葉県,流山市,前ケ崎６０番１０１室,,12,220,2700144,,,,,,,2023-10-02,1,,,,,インフォヘイブン,0
1147,5050001053566,新規,0,2023-10-02,2023-10-02,株式会社ＧＯＯＤ　ＷＯＲＫ,,株式会社,茨城県,つくば市,明石５１１番地６,,08,220,3004203,,,,,,,2023-10-02,1,,,,,グッドワーク,0
1151,5060001036388,新規,0,2023-10-02,2023-10-02,株式会社三光グリーンエナジー,,株式会社,栃木県,足利市,八幡町１丁目９番地１ソワビルディング１０１,,09,202,3260824,,,,,,,2023-10-02,1,,,,,サンコウグリーンエナジー,0
1155,5100001036821,新規,0,2023-10-02,2023-10-02,大義建設株式会社,,株式会社,長野県,佐久市,中込２９５７番地３,,20,217,3850051,,,,,,,2023-10-02,1,,,,,ダイギケンセツ,0
1166,5120001258389,新規,0,2023-10-02,2023-10-02,藝行天下株式会社,,株式会社,大阪府,大阪市此花区,酉島６丁目３番３号,,27,104,5540051,,,,,,,2023-10-02,1,,,,,イコウテンカ,0
1167,5120001258447,新規,0,2023-10-02,2023-10-02,七宝株式会社,,株式会社,大阪府,大阪市大正区,千島１丁目１０番１０号エスポワール４３,,27,108,5510003,,,,,,,2023-10-02,1,,,,,シッポウ,0
1174,5120903004840,新規,0,2023-10-02,2023-10-02,アロハ合同会社,,合同会社,大阪府,豊中市,庄内宝町３丁目７番４号,,27,203,5610836,,,,,,,2023-10-02,1,,,,,アロハ,0
1180,5130001075321,新規,0,2023-10-02,2023-10-02,株式会社Ｔ．ＴＯ,,株式会社,京都府,京都市上京区,浄福寺通上立売上る大黒町７２１番地,,26,102,6028482,,,,,,,2023-10-02,1,,,,,ティートゥー,0
1181,5130001075346,新規,0,2023-10-02,2023-10-02,株式会社横雲堂,,株式会社,京都府,京都市左京区,銀閣寺前町４６番地３,,26,103,6068407,,,,,,,2023-10-02,1,,,,,コウウンドウ,0
1188,5140001131800,新規,0,2023-10-02,2023-10-02,株式会社ｋａｎａｕエンタープライズ,,株式会社,兵庫県,明石市,二見町西二見７５７－３、３Ｆ,,28,203,6740094,,,,,,,2023-10-02,1,,,,,カナウエンタープライズ,0
1189,5150001026751,新規,0,2023-10-02,2023-10-02,株式会社日亜ライセンス,,株式会社,奈良県,大和郡山市,美濃庄町２９７番地の１９,,29,203,6391103,,,,,,,2023-10-02,1,,,,,ニチアライセンス,0
1190,5170001017798,新規,0,2023-10-02,2023-10-02,株式会社川一級建築事務所,,株式会社,和歌山県,和歌山市,鳴神１０４６番地５,,30,201,6408303,,,,,,,2023-10-02,1,,,,,カワイッキュウケンチクジムショ,0
1196,5180001158220,新規,0,2023-10-02,2023-10-02,ドリエス・コンサルティング株式会社,,株式会社,愛知県,名古屋市中村区,名駅３丁目４番１０号アルティメイト名駅１ｓｔ２階,,23,105,4500002,,,,,,,2023-10-02,1,,,,,ドリエスコンサルティング,0
1198,5180003025815,新規,0,2023-10-02,2023-10-02,合同会社ＢＵＩＬＤ,,合同会社,愛知県,名古屋市中区,錦２丁目１０－８袋町繊維会館,,23,106,4600003,,,,,,,2023-10-02,1,,,,,ビルド,0
1200,5190001030758,新規,0,2023-10-02,2023-10-02,株式会社ＪｏｙＬａｂｏＣｏ．,,株式会社,三重県,松阪市,末広町１丁目２２５番地１,,24,204,5150016,,,,,,,2023-10-02,1,,,,,ジョイラボコ,0
1204,5240003006313,新規,0,2023-10-02,2023-10-02,Ｍｙ　Ｈｏｍｅ　Ｄｏｃｔｏｒ合同会社,,合同会社,広島県,尾道市,平原３丁目１２番２５号,,34,205,7220018,,,,,,,2023-10-02,1,,,,,マイホームドクター,0
1205,5240003006338,新規,0,2023-10-02,2023-10-02,合同会社Ｔｈｉｒｄ　ＩＭＰ,,合同会社,広島県,広島市佐伯区,五日市７丁目３－１１－１０１,,34,108,7315127,,,,,,,2023-10-02,1,,,,,サードインプレッション,0
1212,5280003001772,新規,0,2023-10-02,2023-10-02,合同会社ｍｉｉｍｏ,,合同会社,島根県,松江市,西忌部町５６０－２,,32,201,6900037,,,,,,,2023-10-02,1,,,,,ミーモ,0
1218,5310001018625,新規,0,2023-10-02,2023-10-02,株式会社Ｒｅｗｉｎｄ,,株式会社,長崎県,長崎市,城栄町２４番８号,,42,201,8528034,,,,,,,2023-10-02,1,,,,,リワインド,0
1219,5310005008713,新規,0,2023-10-02,2023-10-02,医療法人ＭＯＭＯクリニック,,その他の設立登記法人,長崎県,長崎市,勝山町１０番地１プライムＭ勝山ビル,,42,201,8500028,,,,,,,2023-10-02,1,,,,,モモクリニック,0
1224,5330001031304,新規,0,2023-10-02,2023-10-02,株式会社精密編集,,株式会社,熊本県,熊本市北区,高平３丁目１３番３１号ピュア５高平３０３号室,,43,105,8600085,,,,,,,2023-10-02,1,,,,,セイミツヘンシュウ,0
1232,5360001032613,新規,0,2023-10-02,2023-10-02,株式会社凛工業,,株式会社,沖縄県,豊見城市,字高嶺６１０番地１１０南分譲Ｋ－５３,,47,212,9010213,,,,,,,2023-10-02,1,,,,,リンコウギョウ,0
1235,5360003013339,新規,0,2023-10-02,2023-10-02,合同会社ＣＡＲＡＳＴＡ,,合同会社,沖縄県,石垣市,新栄町７５番地２、５０６,,47,207,9070014,,,,,,,2023-10-02,1,,,,,カラスタ,0
1238,5370001050457,新規,0,2023-10-02,2023-10-02,株式会社ＷＩＳＥ,,株式会社,宮城県,仙台市宮城野区,原町１丁目１番２５－２号,,04,102,9830841,,,,,,,2023-10-02,1,,,,,ワイズ,0
1242,5380001034021,新規,0,2023-10-02,2023-10-02,株式会社石田創業,,株式会社,福島県,福島市,丸子字石名田２５番地の２１サニーハートＩ－２０１,00132101,07,201,9600111,,,,,,,2023-10-02,1,,,,,イシダソウギョウ,0
1250,5430001090067,新規,0,2023-10-02,2023-10-02,株式会社ディライトケア,,株式会社,北海道,札幌市中央区,南十八条西１２丁目４－３５,,01,101,0640918,,,,,,,2023-10-02,1,,,,,ディライトケア,0
1251,5430001090091,新規,0,2023-10-02,2023-10-02,株式会社Ｎａｕｇｈｔｙ,,株式会社,北海道,札幌市中央区,南五条西１丁目１番８シティテラス５０２,,01,101,0640805,,,,,,,2023-10-02,1,,,,,ノーティー,0
1258,5700150120869,新規,0,2023-10-02,2023-10-02,ｈｅｎａｎｙｏｕｍｅｉｓｈｉｇｕａｎｇｘｕｅｋｅｊｉ　ｙｏｕｘｉａｎｇｏｎｇｓｉ,,外国会社等,,,,,,,,Ｈｅｎａｎｓｈｅｎｇ　Ｚｈｅｎｇｚｈｏｕｓｈｉ　Ｇｕａｎｃｈｅｎｇｈｕｉｚｕｑｕ　Ｚｈｅｎｇｂｉａｎｌｕ７６ｈａｏ２ｄａｎｙｕａｎ１０ｃｅｎｇ１００４ｈａｏ,,,,,,2023-10-02,1,,,,,カナンヨウメイシコウガクカギユウゲンコウシ,0
1259,5700150120877,新規,0,2023-10-02,2023-10-02,ＳｈｉＪｉａＺｈｕａｎｇＫｕｎＷｅｉＷａｎｇＬｕｏＫｅＪｉ　ＹｏｕＸｉａｎＧｏｎｇＳｉ,,外国会社等,,,,,,,,ＨｅＢｅｉＳｈｅｎｇＳｈｉＪｉａＺｈｕａｎｇＳｈｉＹｕＨｕａＱｕＪｉａｎＳｈｅＮａｎＤａＪｉｅ２６９ＨａｏＨｅＢｅｉＳｈｉＤａＫｅＪｉＹｕａｎＣＺｕｏＳａｎＬｏｕＡ１１１３－１,,,,,,2023-10-02,1,,,,,セキカソウクンウェイワンルオカギユウゲンコウシ,0
1260,5700150120885,新規,0,2023-10-02,2023-10-02,ｓｈｅｎｚｈｅｎｈｕｏｃｈａｉｋｕａｊｉｎｇｋｅｊｉｙｏｕｘｉａｎｇｏｎｇｓｉ,,外国会社等,,,,,,,,ｓｈｅｎｚｈｅｎｓｈｉｌｏｎｇｇａｎｇｑｕｈｅｎｇｇａｎｇｊｉｅｄａｏ　ｈｅｎｇｇａｎｇｓｈｅｑｕｆｕｋａｎｇｌｕ１０１ｈａｏＤｄｏｎｇ３１１　ｓｈｅｎｚｈｅｎｓｈｉ　ｇｕａｎｇｄｏｎｇｓｈｅｎｇ　５１８１１５　ＣＮ,,,,,,2023-10-02,1,,,,,シェンジェンフオチャイクワージンコージーヨウシエンゴンスー,0
1261,5700150120893,新規,0,2023-10-02,2023-10-02,ＡｂｏｖｅＴＥＫ　Ｉｎｃ,,外国会社等,,,,,,,,３１－００　４７ＴＨ　ＡＶＥ　３ＲＤＦＬＯＯＲ　Ｕｎｉｔ３０３　ＬｏｎｇＩｓｌａｎｄＣｉｔｙ　ＮＹ１１１０１,,,,,,2023-10-02,1,,,,,アバブティーイーケーインコーポレイテッド,0
1262,5700150120902,新規,0,2023-10-02,2023-10-02,Ｓｈｅｎｚｈｅｎ　Ｚｉｊｉｎ　Ｒｅｓｏｕｒｃｅｓ　Ｍａｎａｇｅｍｅｎｔ　Ｃｏ．，Ｌｔｄ．,,外国会社等,,,,,,,,２０８－２１０，２／Ｆ，Ｂｕｉｌｄｉｎｇ　Ｙ４，Ｃｒｅａｔｉｖｅ　Ｐａｒｋ，Ｎｏ．５，Ｙａｙｕａｎ　Ｒｏａｄ，Ｎａｎｋｅｎｇ　Ｃｏｍｍｕｎｉｔｙ，Ｂａｎｔｉａｎ　Ｓｔｒｅｅｔ，Ｂａｎｔｉａｎ，Ｌｏｎｇｇａｎｇ　Ｄｉｓｔｒｉｃｔ，Ｓｈｅｎｚｈｅｎ，Ｇｕａｎｇｄｏｎｇ　Ｐｒｏｖｉｎｃｅ　５１８１２９　ＣＮ,,,,,,2023-10-02,1,,,,,シェンジェンシズージンズーユェングァンリーヨウシェンゴンスー,0
1263,5700150120910,新規,0,2023-10-02,2023-10-02,Ｈｕｉｚｈｏｕｓｈｉｘｉｎｇｗｕｙｏｕｋｅｊｉ　ｙｏｕｘｉａｎｇｏｎｇｓｉ,,外国会社等,,,,,,,,Ｈｕｉｚｈｏｕ　ｚｈｏｎｇｋａｉｇａｏｘｉｎｑｕ　ｈｅｃｈａｎｇｑｉｌｕｘｉ４０ｈａｏｊｕｎｔａｏｈｕａｆｕ５２ｄａｎｙｕａｎ２ｃｅｎｇ０４ｈａｏｆａｎｇ　５１６００６　ＣＮ,,,,,,2023-10-02,1,,,,,ホイゾォウシシンウヨウカギヨウシェンゴンスー,0
1264,5700150120919,新規,0,2023-10-02,2023-10-02,Ｓｈｅｎｚｈｅｎ　Ｙｕｍｉｎｇ　Ｔｅｃｈｎｏｌｏｇｙ　Ｃｏ．，Ｌｔｄ．,,外国会社等,,,,,,,,ＳｈｅｎｚｈｅｎＳｈｉ，ＬｏｎｇＧａｎｇｑｖ，ＰｉｎｇＨｕｊｉｅｄａｏ，ＳｈａｎｇＭｕＧｕｓｈｅｑｖ，ＸｉｎＨｅｌｕ２ｈａｏ，ＰｉｎｇＪｉＳｈａｎｇＹｕａｎｅｒｑｉＤｚｕｏｆｕｓｈｉ０５ｈａｏ２０１　５１８０００　ＣＮ,,,,,,2023-10-02,1,,,,,シンセンユミンテクノロジーカンパニーリミテッド,0
1288,6010401177463,新規,0,2023-10-02,2023-10-02,株式会社厚胤塾,,株式会社,東京都,港区,六本木７丁目７番７号Ｔｒｉ－ＳｅｖｅｎＲｏｐｐｏｎｇｉ８階,,13,103,1060032,,,,,,,2023-10-02,1,,,,,コウシンジュク,0
1289,6010401177488,新規,0,2023-10-02,2023-10-02,ＤＲＡＧＯＮ　ＢＯＡＴ　ＩＮＤＵＳＴＲＹ　ＪＡＰＡＮ株式会社,,株式会社,東京都,港区,新橋６丁目５番４号ＤＩＫマンション５２３号室,,13,103,1050004,,,,,,,2023-10-02,1,,,,,ドラゴンボートインダァストゥリィジャパン,0
1290,6010403030991,新規,0,2023-10-02,2023-10-02,合同会社マイヒストリー,,合同会社,東京都,港区,北青山１丁目３番１号アールキューブ青山３階,,13,103,1070061,,,,,,,2023-10-02,1,,,,,マイヒストリー,0
1291,6010403031016,新規,0,2023-10-02,2023-10-02,合同会社アストロスタッフジャパン,,合同会社,東京都,港区,西麻布１丁目１０－１６－５０１,,13,103,1060031,,,,,,,2023-10-02,1,,,,,アストロスタッフジャパン,0
1292,6010403031040,新規,0,2023-10-02,2023-10-02,合同会社Ｅｌｉｔｅ　Ｂｏｄｙ,,合同会社,東京都,港区,北青山２丁目７番１３号プラセオ青山３Ｆ,,13,103,1070061,,,,,,,2023-10-02,1,,,,,エリートボディ,0
1293,6010403031073,新規,0,2023-10-02,2023-10-02,合同会社ドローンボーナス,,合同会社,東京都,港区,南青山２丁目１４番２１号,,13,103,1070062,,,,,,,2023-10-02,1,,,,,ドローンボーナス,0
1296,6010501051139,新規,0,2023-10-02,2023-10-02,推しペイ株式会社,,株式会社,東京都,台東区,東上野６丁目１番４号,,13,106,1100015,,,,,,,2023-10-02,1,,,,,オシペイ,0
1297,6010505003458,新規,0,2023-10-02,2023-10-02,一般社団法人輝翔会,,その他の設立登記法人,東京都,台東区,千束３丁目９番９号,,13,106,1110031,,,,,,,2023-10-02,1,,,,,キショウカイ,0
1302,6010601063884,新規,0,2023-10-02,2023-10-02,株式会社ＧＳＬ　ＢＩＯ　ＪＡＰＡＮ,,株式会社,東京都,江東区,亀戸６丁目８番３号,,13,108,1360071,,,,,,,2023-10-02,1,,,,,ジーエスエルバイオジャパン,0
1303,6010603010389,新規,0,2023-10-02,2023-10-02,合同会社ＴＭＩ,,合同会社,東京都,江東区,深川１丁目１番２号協和ビル２階３０号室,,13,108,1350033,,,,,,,2023-10-02,1,,,,,ティーエムアイ,0
1304,6010701044917,新規,0,2023-10-02,2023-10-02,株式会社プラデミック,,株式会社,東京都,品川区,上大崎２丁目１５－１９ＭＧ目黒駅前ビル,,13,109,1410021,,,,,,,2023-10-02,1,,,,,プラデミック,0
1306,6010801034371,新規,0,2023-10-02,2023-10-02,アプリプラネット株式会社,,株式会社,東京都,大田区,東海３丁目７番３号,,13,111,1430001,,,,,,,2023-10-02,1,,,,,アプリプラネット,0
1321,6011301029044,新規,0,2023-10-02,2023-10-02,プラネットロック株式会社,,株式会社,東京都,杉並区,高円寺南２丁目４０番２６号,,13,115,1660003,,,,,,,2023-10-02,1,,,,,プラネットロック,0
1323,6011601027152,新規,0,2023-10-02,2023-10-02,ＬＥＩ株式会社,,株式会社,東京都,練馬区,上石神井３丁目５－３－１０１,,13,120,1770044,,,,,,,2023-10-02,1,,,,,レイ,0
1331,6012401041054,新規,0,2023-10-02,2023-10-02,株式会社ＳＵＮＨＥＡＤプロダクション,,株式会社,東京都,小金井市,東町５丁目１４番２３号,,13,210,1840011,,,,,,,2023-10-02,1,,,,,サンヘッドプロダクション,0
1334,6012701017860,新規,0,2023-10-02,2023-10-02,株式会社ＴＡＩＫＨＡＲ　ＭＯＴＯＲＳ,,株式会社,東京都,西東京市,中町５丁目２番２５－１１０号,,13,229,2020013,,,,,,,2023-10-02,1,,,,,タイハルモータース,0
1346,6021003013626,新規,0,2023-10-02,2023-10-02,ＭＥＤＵＡ合同会社,,合同会社,神奈川県,茅ヶ崎市,緑が浜１２番１０－１１０１号ルネス湘南茅ヶ崎,,14,207,2530034,,,,,,,2023-10-02,1,,,,,メデュア,0
1347,6021003013634,新規,0,2023-10-02,2023-10-02,合同会社未来の郷,,合同会社,神奈川県,横須賀市,鴨居２丁目５９－２０,,14,201,2390813,,,,,,,2023-10-02,1,,,,,ミライノサト,0
1355,6030001156130,新規,0,2023-10-02,2023-10-02,東莱株式会社,,株式会社,埼玉県,北葛飾郡松伏町,大字松伏２３８０,,11,465,3430111,,,,,,,2023-10-02,1,,,,,トウライ,0
1356,6030003022586,新規,0,2023-10-02,2023-10-02,ＰＫＬ合同会社,,合同会社,埼玉県,春日部市,南１丁目１２番８号,,11,214,3440064,,,,,,,2023-10-02,1,,,,,ピーケーエル,0
1357,6030003022603,新規,0,2023-10-02,2023-10-02,合同会社ジャパンソリューションズ,,合同会社,埼玉県,蕨市,南町２丁目２－４,,11,223,3350003,,,,,,,2023-10-02,1,,,,,ジャパンソリューションズ,0
1358,6030003022611,新規,0,2023-10-02,2023-10-02,合同会社ｉｆ,,合同会社,埼玉県,八潮市,大字大曽根３３４－１ニューエンドレス１０５,,11,234,3400834,,,,,,,2023-10-02,1,,,,,アイエフ,0
1363,6040001130308,新規,0,2023-10-02,2023-10-02,ＡＣＥ株式会社,,株式会社,千葉県,千葉市中央区,祐光４丁目１１番５号ビハーラひぐらし１０３号,,12,101,2600007,,,,,,,2023-10-02,1,,,,,エース,0
1364,6040001130324,新規,0,2023-10-02,2023-10-02,ＦＩＲＳＴ　ＬＩＮＥ株式会社,,株式会社,千葉県,佐倉市,六崎１０２７－３－１０１,,12,212,2850812,,,,,,,2023-10-02,1,,,,,ファーストライン,0
1368,6040003023435,新規,0,2023-10-02,2023-10-02,合同会社ＮＩＳＨＩＲＯ,,合同会社,千葉県,印西市,牧の原６丁目６番地１６８,,12,231,2701331,,,,,,,2023-10-02,1,,,,,ニシロ,0
1371,6050001053565,新規,0,2023-10-02,2023-10-02,株式会社ＳＯＳＵ,,株式会社,茨城県,日立市,若葉町３丁目３番５号,,08,202,3170063,,,,,,,2023-10-02,1,,,,,ソスウ,0
1372,6050001053573,新規,0,2023-10-02,2023-10-02,株式会社ＰＬＥＮＩＴＡＳ,,株式会社,茨城県,つくば市,島名３６０６番地１,,08,220,3002655,,,,,,,2023-10-02,1,,,,,プレニタス,0
1405,6130001075320,新規,0,2023-10-02,2023-10-02,株式会社０１,,株式会社,京都府,京都市左京区,松ケ崎雲路町１７番地１,,26,103,6060955,,,,,,,2023-10-02,1,,,,,ゼロワン,0
1413,6140003019605,新規,0,2023-10-02,2023-10-02,合同会社青葉経営サポート,,合同会社,兵庫県,姫路市,坂田町７２番地,,28,201,6700931,,,,,,,2023-10-02,1,,,,,アオバケイエイサポート,0
1426,6180001158228,新規,0,2023-10-02,2023-10-02,株式会社ＤＳＴｐｌａｎｎｉｎｇ,,株式会社,愛知県,名古屋市東区,泉１丁目１０番２６号赤堀ビル３０３,,23,102,4610001,,,,,,,2023-10-02,1,,,,,ディーエスティープランニング,0
1450,6240003006329,新規,0,2023-10-02,2023-10-02,Ａｍｂｉｅｎｃｅ合同会社,,合同会社,広島県,福山市,日吉台２丁目３２番１－９０５号,,34,207,7210972,,,,,,,2023-10-02,1,,,,,アンビエンス,0
1465,6290003014418,新規,0,2023-10-02,2023-10-02,合同会社実国,,合同会社,福岡県,福岡市南区,曰佐４丁目３８番１０号,,40,134,8111313,,,,,,,2023-10-02,1,,,,,ミクニ,0
1471,6350005006183,新規,0,2023-10-02,2023-10-02,一般社団法人Ｊ’ｓＲｏｏｍ,,その他の設立登記法人,宮崎県,宮崎市,新別府町江田原７４番地４,,45,201,8800834,,,,,,,2023-10-02,1,,,,,ジェイズルーム,0
1473,6370102002414,新規,0,2023-10-02,2023-10-02,有限会社白石デザインセンター,,有限会社,宮城県,白石市,郡山字花見平６番地の１０,,04,206,9890203,,,,,,,2023-10-02,1,,,,,シロイシデザインセンター,0
1479,6400001016395,新規,0,2023-10-02,2023-10-02,株式会社手作り工房きくぱん,,株式会社,岩手県,紫波郡紫波町,江柄字清水屋敷９０－２,,03,321,0283321,,,,,,,2023-10-02,1,,,,,テヅクリコウボウキクパン,0
1487,6700150003577,新規,0,2023-10-02,2015-10-09,医薬品企業法務研究会,,その他,東京都,中央区,日本橋室町１丁目１２－１３,,13,102,1030022,,,,,,,2015-10-09,1,,,,,イヤクヒンキギヨウホウムケンキユウカイ,0
1491,6700150120868,新規,0,2023-10-02,2023-10-02,Ｎａｎ’ａｎ　Ｘｉｆｕ　Ｓａｎｉｔａｒｙ　Ｗａｒｅ　Ｃｏ．，Ｌｔｄ．,,外国会社等,,,,,,,,Ｎｏ．９１ＸｉｆｕＳｈｉｐｉｎｇＶｉｌｌａｇｅＬｉｕｃｈｅｎｇＮａｎ’ａｎＣｉｔｙＱｕａｎｚｈｏｕＣｉｔｙ　ＦｕｊｉａｎＰｒｏｖｉｎｃｅ,,,,,,2023-10-02,1,,,,,ナンアンシフサニタリーウェアカンパニーリミテッド,0
1492,6700150120876,新規,0,2023-10-02,2023-10-02,Ｓｈｅｎ　Ｚｈｅｎ　Ｄｉｎｇ　Ｊｉａｎｇ　Ｋｅ　Ｊｉ　Ｙｏｕ　Ｘｉａｎ　Ｇｏｎｇ　Ｓｉ,,外国会社等,,,,,,,,ＨｕａＦｅｎｇＢａｏＡｎＺｈｉＧｕＫｅＪｉＣｈｕａｎｇＸｉｎＹｕａｎＧＺｕｏ７０１　ＹｉｎＴｉａｎＬｕ４Ｈａｏ，Ｘｉ　Ｘｉａｎｇ　Ｊｉｅ　Ｄａｏ，Ｂａｏ　Ａｎ　Ｑｕ　Ｓｈｅｎ　Ｚｈｅｎ　Ｇｕａｎｇ　Ｄｏｎｇ　５１８１０２　ＣＮ,,,,,,2023-10-02,1,,,,,シェンジェンディンジャンコージーヨウシエンゴンスー,0
1493,6700150120884,新規,0,2023-10-02,2023-10-02,ＳｈｅｎｚｈｅｎＺｈｉｄｅｈｕｉ　Ｔｅｃｈｎｏｌｏｇｙ　Ｃｏ　Ｌｔｄ,,外国会社等,,,,,,,,ＬｏｎｇｇａｎｇｑｕＢａｏｌｏｎｇｊｉｅｄａｏＬｏｎｇｄｏｎｇｓｈｅｑｕＡｉｎａｎｌｕ７８ｈａｏＬｉｈａｏｇｏｎｇｙｅｙｕａｎＥｄｏｎｇ５０１Ｓｈｅｎｚｈｅｎｓｈｉ,,,,,,2023-10-02,1,,,,,シンセンジデホイテクノロジーカンパニーリミテッド,0
1494,6700150120892,新規,0,2023-10-02,2023-10-02,ｓｈｅｎｚｈｅｎｓｈｉｈｏｎｇｘｉｎｔｏｎｇｊｉｎｃｈｕｋｏｕｍａｏｙｉ　ｙｏｕｘｉａｎｇｏｎｇｓｉ,,外国会社等,,,,,,,,ｓｈｅｎｚｈｅｎｓｈｉ　ｂａｏａｎｑｕ　ｆｕｈａｉｊｉｅｄａｏｘｉｎｈｅｓｈｅｑｕｆｕｈａｉｘｉｎｘｉｇａｎｇＡ４ｄｏｎｇ３１１,,,,,,2023-10-02,1,,,,,シンセンシホンシントンジンツウコウマオイユウゲンコウシ,0
1495,6700150120901,新規,0,2023-10-02,2023-10-02,ＳｈｅｎｚｈｅｎｓｈｉＹｉｎｔｅｌａｉｓｈｅｎｋｅｊｉ　ｙｏｕｘｉａｎｇｏｎｇｓｉ,,外国会社等,,,,,,,,７０６　７ｔｈＦｌｏｏｒＸｉｊｕｎＭａｎｓｉｏｎＮｏ．４ＳｈａｎｇｘｕｅＲｏａｄＸｉｎｘｕｅＣｏｍｍｕｎｉｔｙＢａｎｔｉａｎＳｔｒｅｅｔ　ＬｏｎｇｇａｎｇＤｉｓｔｒｉｃｔ　Ｓｈｅｎｚｈｅｎ,,,,,,2023-10-02,1,,,,,シンセンシインテライセンカギユウゲンコウシ,0
1496,6700150120918,新規,0,2023-10-02,2023-10-02,ＮａｎＴｏｎｇ　ＦｕＳｈｉＭｅｉ　ＭａｏＹｅ　Ｃｏ．，Ｌｔｄ．,,外国会社等,,,,,,,,ＧａｎｇＺｈａ　Ｄｉｓｔｒｉｃｔ　ＱｉｎＺａｏ　Ｔｏｗｎ　ＦｕＭｅｉ　Ｒｏａｄ　１８Ｈａｏ　ＮａｎＴｏｎｇ　ＪｉａｎｇＳｕ　２２６０００　ＣＮ,,,,,,2023-10-02,1,,,,,ナンツウフシメイマオイェカンパニーリミテッド,0
1497,6700150120926,新規,0,2023-10-02,2023-10-02,ｙｕａｎｐｉｎｇｘｉｙｅｍａｏｙｉｙｏｕｘｉａｎｇｏｎｇｓｉ,,外国会社等,,,,,,,,ｙｕａｎｐｉｎｇｓｈｉｂｅｉｃｈｅｎｇｊｉｅｄａｏ，ｙｏｎｇｋａｎｇｂｅｉｌｕｐｉｎｇａｎｙｉｍｉｎｘｉａｏｑｕ８ｈａｏｌｏｕ６０２，ｘｉｎｚｈｏｕｓｈｉ，ｓｈａｎｘｉｓｈｅｎｇ,,,,,,2023-10-02,1,,,,,ゲンヘイキヨウボウエキユウゲンコウシ,0
1498,6700150120942,新規,0,2023-10-02,2023-10-02,岐阜駅北中央西地区市街地再開発組合,,その他,岐阜県,岐阜市,吉野町６丁目２番地,,21,201,5008844,,,,,,,2023-10-02,1,,,,,ギフエキキタチユウオウニシチクシガイチサイカイハツクミアイ,0
1499,6700150120950,新規,0,2023-10-02,2023-10-02,Ｓｈｅｎｚｈｅｎｓｈｉ　ｘｉｎｆｅｉｍｅｉｄａｋｅｊｉ　ｙｏｕｘｉａｎｇｏｎｇｓｉ,,外国会社等,,,,,,,,ｓｈａｎｇｔａｎｇｃｕｎ　ｓｈａｎｇｔａｎｇｚｏｎｇｈｅｌｏｕ　ＮＯ．８　ｌｏｎｇｈｕａｘｉｎｑｕ　ｌｏｎｇｈｕａｊｉｅｄａｏ　ｓｈｅｎｚｈｅｎｓｈｉ　５１８１３１　ＣＮ,,,,,,2023-10-02,1,,,,,シンセンシシンフェイメイダカギヨウシェンゴンスー,0
1526,7010401177215,新規,0,2023-10-02,2023-10-02,株式会社ネクサス,,株式会社,東京都,港区,新橋２丁目１６番１号ニュー新橋ビル５０９号,,13,103,1050004,,,,,,,2023-10-02,1,,,,,ネクサス,0
1527,7010401177388,新規,0,2023-10-02,2023-10-02,４Ｃ’ｓパートナーズ株式会社,,株式会社,東京都,港区,新橋５丁目１３番７号,,13,103,1050004,,,,,,,2023-10-02,1,,,,,フォーシーズパートナーズ,0
1528,7010401177462,新規,0,2023-10-02,2023-10-02,株式会社ＥＳＧＹＳ,,株式会社,東京都,港区,六本木７丁目１４番７号六本木トリニティビル６階,,13,103,1060032,,,,,,,2023-10-02,1,,,,,エスジーズ,0
1529,7010403031031,新規,0,2023-10-02,2023-10-02,Ｋｕｍａ　Ｂａｓｅ合同会社,,合同会社,東京都,港区,南青山２丁目２番１５号,,13,103,1070062,,,,,,,2023-10-02,1,,,,,クマベース,0
1543,7010801034379,新規,0,2023-10-02,2023-10-02,ＧＭ株式会社,,株式会社,東京都,大田区,田園調布３丁目１８番１１号,,13,111,1450071,,,,,,,2023-10-02,1,,,,,ジーエム,0
1544,7010801034387,新規,0,2023-10-02,2023-10-02,株式会社三福,,株式会社,東京都,大田区,矢口１丁目１３番５号レックス多摩川レジデンス３０５,,13,111,1460093,,,,,,,2023-10-02,1,,,,,サンフク,0
1546,7010803004702,新規,0,2023-10-02,2023-10-02,Ｂｅ‐Ｐｏｓｉｔｉｏｎ美合同会社,,合同会社,東京都,大田区,南馬込６丁目３５番９号,,13,111,1430025,,,,,,,2023-10-02,1,,,,,ビーポジション,0
1555,7011001157219,新規,0,2023-10-02,2023-10-02,株式会社ＩＴＯベストソリューションズ,,株式会社,東京都,渋谷区,神宮前６丁目２３番４号桑野ビル２階,,13,113,1500001,,,,,,,2023-10-02,1,,,,,アイティーオーベストソリューションズ,0
1556,7011001157227,新規,0,2023-10-02,2023-10-02,ミミフー株式会社,,株式会社,東京都,目黒区,東山１丁目６－２ＴＰＲ中目黒ビル５階,,13,110,1530043,,,,,,,2023-10-02,1,,,,,ミミフー,0
1557,7011001157235,新規,0,2023-10-02,2023-10-02,株式会社長澤不動産,,株式会社,東京都,目黒区,東山１丁目２１－１－１０１,,13,110,1530043,,,,,,,2023-10-02,1,,,,,ナガサワフドウサン,0
1565,7011301028978,新規,0,2023-10-02,2023-10-02,株式会社ＤＩＭ　ＤＡＭ　ＤＯＭ,,株式会社,東京都,杉並区,井草４丁目２－１０ヤマハハイム２０２号室,,13,115,1670021,,,,,,,2023-10-02,1,,,,,ディムダムドム,0
1568,7011601027151,新規,0,2023-10-02,2023-10-02,株式会社アールテック,,株式会社,東京都,練馬区,西大泉１丁目１４番１５号,,13,120,1780065,,,,,,,2023-10-02,1,,,,,アールテック,0
1571,7012403006203,新規,0,2023-10-02,2023-10-02,合同会社ＳＧ,,合同会社,東京都,多摩市,鶴牧３丁目１３番地８－５０４,,13,224,2060034,,,,,,,2023-10-02,1,,,,,エスジー,0
1574,7013303006813,新規,0,2023-10-02,2023-10-02,合同会社サンク,,合同会社,東京都,豊島区,東池袋１丁目３４番５号いちご東池袋ビル６階,,13,116,1700013,,,,,,,2023-10-02,1,,,,,サンク,0
1579,7020001153680,新規,0,2023-10-02,2023-10-02,株式会社ルーチェ,,株式会社,神奈川県,横浜市神奈川区,鶴屋町２丁目９－２２－５０５,,14,102,2210835,,,,,,,2023-10-02,1,,,,,ルーチェ,0
1580,7020001153697,新規,0,2023-10-02,2023-10-02,株式会社成林,,株式会社,神奈川県,川崎市中原区,木月２丁目２番３４号鈴木ビル３階,,14,133,2110025,,,,,,,2023-10-02,1,,,,,ナルバヤシ,0
1581,7020001153714,新規,0,2023-10-02,2023-10-02,株式会社守谷物産,,株式会社,神奈川県,横浜市中区,本牧三之谷２番１６号アテナビル北側１階,,14,104,2310824,,,,,,,2023-10-02,1,,,,,モリヤブッサン,0
1591,7021001080295,新規,0,2023-10-02,2023-10-02,株式会社ひかり,,株式会社,神奈川県,相模原市中央区,相模原５丁目２番１６－３０４号,,14,152,2520231,,,,,,,2023-10-02,1,,,,,ヒカリ,0
1599,7030001156195,新規,0,2023-10-02,2023-10-02,株式会社ＥＮＩＸ,,株式会社,埼玉県,越谷市,蒲生旭町２番４０号アサヒハイム１０２,,11,222,3430842,,,,,,,2023-10-02,1,,,,,エニクス,0
1600,7030001156229,新規,0,2023-10-02,2023-10-02,株式会社大一建築工房,,株式会社,埼玉県,川口市,並木３丁目２８番１６－３０１号サンブライト西川口,,11,203,3320034,,,,,,,2023-10-02,1,,,,,ダイイチケンチクコウボウ,0
1601,7030001156336,新規,0,2023-10-02,2023-10-02,ＳＫ　ＴＲＡＤＥＲＳ株式会社,,株式会社,埼玉県,行田市,門井町２丁目１４番地２３ジュネパレス門井ＩＩＡ１１３号,00132089,11,206,3610044,,,,,,,2023-10-02,1,,,,,エスケートレーダーズ,0
1602,7030001156369,新規,0,2023-10-02,2023-10-02,はなさきライフデザイン株式会社,,株式会社,埼玉県,北本市,中央１丁目６０番地,,11,233,3640031,,,,,,,2023-10-02,1,,,,,ハナサキライフデザイン,0
1605,7030003022593,新規,0,2023-10-02,2023-10-02,合同会社ジェントレス,,合同会社,埼玉県,鶴ヶ島市,大字上広谷４２２－２３,,11,241,3502203,,,,,,,2023-10-02,1,,,,,ジェントレス,0
1606,7030003022651,新規,0,2023-10-02,2023-10-02,キレイエ合同会社,,合同会社,埼玉県,川口市,赤井４丁目２７―１９,,11,203,3340073,,,,,,,2023-10-02,1,,,,,キレイエ,0
1607,7040001130307,新規,0,2023-10-02,2023-10-02,株式会社しんかしわＥサービス,,株式会社,千葉県,柏市,船戸山高野５３８番地,,12,217,2770801,,,,,,,2023-10-02,1,,,,,シンカシワイーサービス,0
1609,7040003023450,新規,0,2023-10-02,2023-10-02,合同会社Ｃｈｉｌｌａｘ,,合同会社,千葉県,習志野市,谷津２丁目１３番２３－１号,,12,216,2750026,,,,,,,2023-10-02,1,,,,,チラックス,0
1610,7050001053564,新規,0,2023-10-02,2023-10-02,株式会社村上管財,,株式会社,茨城県,鹿嶋市,城山４丁目２番１１号,,08,222,3140038,,,,,,,2023-10-02,1,,,,,ムラカミカンザイ,0
1611,7050001053572,新規,0,2023-10-02,2023-10-02,ＮＯＯＲ　ＴＲＡＤＩＮＧ株式会社,,株式会社,茨城県,筑西市,藤ケ谷２０９１番地ロマ１０４号,,08,227,3080112,,,,,,,2023-10-02,1,,,,,ヌールトレーディング,0
1613,7050003007824,新規,0,2023-10-02,2023-10-02,合同会社ｒａｇｇ．９０,,合同会社,茨城県,水戸市,開江町９８７番地,,08,201,3114144,,,,,,,2023-10-02,1,,,,,ラッグキュウジュウ,0
1615,7060001036386,新規,0,2023-10-02,2023-10-02,株式会社尊氏工業,,株式会社,栃木県,足利市,柳原町８５９,,09,202,3260806,,,,,,,2023-10-02,1,,,,,タカウジコウギョウ,0
1616,7060001036394,新規,0,2023-10-02,2023-10-02,株式会社ＬＩＶ　ＳＭＩＬＥ,,株式会社,栃木県,宇都宮市,富士見が丘４丁目２８番２号ローズハイム富士見Ｂ１０２号室,,09,201,3200011,,,,,,,2023-10-02,1,,,,,リブスマイル,0
1617,7060005010131,新規,0,2023-10-02,2023-10-02,一般社団法人健美会,,その他の設立登記法人,栃木県,宇都宮市,上桑島町６７５番地,,09,201,3210913,,,,,,,2023-10-02,1,,,,,ケンビカイ,0
1621,7080103002895,新規,0,2023-10-02,2023-10-02,合同会社エネオアテック,,合同会社,静岡県,下田市,白浜２５１番地の６,,22,219,4150012,,,,,,,2023-10-02,1,,,,,エネオアテック,0
1638,7120001258503,新規,0,2023-10-02,2023-10-02,株式会社ＭＥＴＡＬ　ＰＥＡＫ,,株式会社,大阪府,大阪市東成区,深江北１丁目１６番７号,,27,115,5370001,,,,,,,2023-10-02,1,,,,,メタルピーク,0
1645,7122003002673,新規,0,2023-10-02,2023-10-02,合同会社末広興産,,合同会社,大阪府,東大阪市,長堂１丁目３番２０号,,27,227,5770056,,,,,,,2023-10-02,1,,,,,スエヒロコウサン,0
1650,7130001075311,新規,0,2023-10-02,2023-10-02,株式会社Ｇｒｏｗ,,株式会社,京都府,舞鶴市,行永東町７番地の５,,26,202,6250051,,,,,,,2023-10-02,1,,,,,グロー,0
1651,7130001075328,新規,0,2023-10-02,2023-10-02,株式会社エヌアップ,,株式会社,京都府,舞鶴市,行永東町２番地１５,,26,202,6250051,,,,,,,2023-10-02,1,,,,,エヌアップ,0
1656,7140001131781,新規,0,2023-10-02,2023-10-02,株式会社タカマツ,,株式会社,兵庫県,加古川市,平荘町小畑４１７番地の２,,28,210,6751235,,,,,,,2023-10-02,1,,,,,タカマツ,0
1657,7140001131798,新規,0,2023-10-02,2023-10-02,ＢＥ　ＫＯＢＥ自動車株式会社,,株式会社,兵庫県,芦屋市,涼風町２４－１２,,28,206,6590036,,,,,,,2023-10-02,1,,,,,ビーコウベジドウシャ,0
1670,7180001158219,新規,0,2023-10-02,2023-10-02,株式会社アパイシュナール,,株式会社,愛知県,名古屋市中川区,柳島町６丁目２４番地,,23,110,4540024,,,,,,,2023-10-02,1,,,,,アパイシュナール,0
1714,7290001103196,新規,0,2023-10-02,2023-10-02,株式会社Ｓｔｕｄｉｏ　Ｎｅｏ　Ｂｅａｕｔｙ,,株式会社,福岡県,飯塚市,堀池２７２番地６,,40,205,8200070,,,,,,,2023-10-02,1,,,,,スタジオネオビューティー,0
1718,7290005019158,新規,0,2023-10-02,2023-10-02,ＮＰＯ法人ハルアラ,,その他の設立登記法人,福岡県,久留米市,東櫛原町７７１番地５シャフトレジデンス櫛原Ｂ－１号,00132094,40,203,8300003,,,,,,,2023-10-02,1,,,,,ハルアラ,0
1719,7290801029913,新規,0,2023-10-02,2023-10-02,永崎産業株式会社,,株式会社,福岡県,宮若市,倉久字山神３７４５番地２,,40,226,8230017,,,,,,,2023-10-02,1,,,,,ナガサキサンギョウ,0
1727,7330003009998,新規,0,2023-10-02,2023-10-02,合同会社キャンプ,,合同会社,熊本県,山鹿市,鹿本町高橋４５２番地４,,43,208,8610303,,,,,,,2023-10-02,1,,,,,キャンプ,0
1735,7360003013329,新規,0,2023-10-02,2023-10-02,合同会社ＢＳＣ　Ｇｌｏｂａｌ,,合同会社,沖縄県,中頭郡北谷町,北前１丁目１８番地１７ハイムサマリア３０１,,47,326,9040117,,,,,,,2023-10-02,1,,,,,ビーエスシーグローバル,0
1736,7360003013337,新規,0,2023-10-02,2023-10-02,合同会社ＤｉＺＥＮ,,合同会社,沖縄県,沖縄市,比屋根６丁目６番１２,,47,211,9042173,,,,,,,2023-10-02,1,,,,,ダイゼン,0
1741,7370001050455,新規,0,2023-10-02,2023-10-02,株式会社シュパース,,株式会社,宮城県,仙台市青葉区,北目町４－７ＨＳＧビル４階－Ｂ室,,04,101,9800023,,,,,,,2023-10-02,1,,,,,シュパース,0
1750,7420001018422,新規,0,2023-10-02,2023-10-02,株式会社工藤久吉商店,,株式会社,青森県,弘前市,大字紙漉町２番地の１３号,,02,202,0368221,,,,,,,2023-10-02,1,,,,,クドウキュウキチショウテン,0
1752,7430001090040,新規,0,2023-10-02,2023-10-02,株式会社高山果樹園,,株式会社,北海道,余市郡余市町,登町２０４０－２,,01,408,0460002,,,,,,,2023-10-02,1,,,,,タカヤマカジュエン,0
1753,7430001090081,新規,0,2023-10-02,2023-10-02,株式会社Ａシステムコーポレーション,,株式会社,北海道,江別市,新栄台７３番地の１８,,01,217,0690806,,,,,,,2023-10-02,1,,,,,エーシステムコーポレーション,0
1757,7440001009329,新規,0,2023-10-02,2023-10-02,株式会社Ｂｅｓｔ　Ｌａｒｃｈ,,株式会社,北海道,茅部郡森町,字駒ケ岳１４４番地２８,,01,345,0492141,,,,,,,2023-10-02,1,,,,,ベストラーチ,0
1760,7470001019829,新規,0,2023-10-02,2023-10-02,株式会社ウツミ,,株式会社,香川県,丸亀市,土器町西５丁目３８８番地１,,37,202,7630081,,,,,,,2023-10-02,1,,,,,ウツミ,0
1763,7700150116873,新規,0,2023-10-02,2023-06-05,ストアー湯来の郷,,その他,広島県,広島市佐伯区,湯来町大字多田２５４５,,34,108,7380721,,,,,,,2023-06-05,1,,,,,ストアーユキノサト,0
1764,7700150119042,新規,0,2023-10-02,2023-08-21,アートヴィレッジ大崎セントラルタワー管理組合,,その他,東京都,品川区,大崎１丁目２－２,,13,109,1410032,,,,,,,2023-08-21,1,,,,,アートヴイレツジオオサキセントラルタワーカンリクミアイ,0
1765,7700150120859,新規,0,2023-10-02,2023-10-02,油夫自治会,,その他,三重県,多気郡多気町,油夫３４１番地１,,24,441,5192173,,,,,,,2023-10-02,1,,,,,ユブジチカイ,0
1766,7700150120867,新規,0,2023-10-02,2023-10-02,ｓｈｅｎｚｈｅｎｓｈｉｌｉｔｏｎｇｈｕｉｔｏｕｚｉ　ｙｏｕｘｉａｎｇｏｎｇｓｉ,,外国会社等,,,,,,,,ｓｈｅｎｚｈｅｎｓｈｉｎａｎｓｈａｎｑｕｎａｎｔｏｕｊｉｅｄａｏｑｉａｎｈａｉｌｕｘｉｎｇｈａｉｍｉｎｇｃｈｅｎｇ６ｑｉ３ｄｏｎｇ２ｄａｎｙｕａｎ２５Ｆ,,,,,,2023-10-02,1,,,,,シンセンシリトンフイトウシユウゲンコウシ,0
1767,7700150120875,新規,0,2023-10-02,2023-10-02,Ｈａｎｇｚｈｏｕ　Ｈｕｏｓｈｉ　Ｌｉｇｈｔｉｎｇ　Ｃｏ．，Ｌｔｄ,,外国会社等,,,,,,,,Ｒｏｏｍ１２０２ＭｅｉｙａＢｕｉｌｄｉｎｇＮａｎｙｕａｎＳｔｒｅｅｔ　ＹｕｈａｎｇＤｉｓｔｒｉｃｔ　Ｈａｎｇｚｈｏｕ,,,,,,2023-10-02,1,,,,,コウシュウホウシライティングカンパニーリミテッド,0
1768,7700150120883,新規,0,2023-10-02,2023-10-02,ＳＨＥＮ　ＺＨＥＮ　ＳＨＩ　ＹＵ　ＣＨＥＮＧ　ＫＥＪＩ　ＹＯＵ　ＸＩＡＮ　ＧＯＮＧ　ＳＩ,,外国会社等,,,,,,,,ＧＵＡＮＧ　ＤＯＮＧ　ＳＨＥＮ　ＺＨＥＮ　ＬＯＮＧ　ＨＵＡ　ＱＵ　ＭＩＮ　ＺＨＩ　ＪＩＥ　ＤＡＯ　ＳＨＡＮＧ　ＦＥＮ　ＳＨＥ　ＱＵ　ＧＯＮＧ　ＹＥ　ＸＩ　ＬＵ　ＹＵ　ＺＨＯＮＧ　ＨＵＡＮ　ＬＵ　ＪＩＡＯ　ＨＵｌ　ＣＨＵ　ＤＡ　ＬＯＵ　３２０,,,,,,2023-10-02,1,,,,,シェンジェンシーイーチョンコージーヨウシエンゴンスー,0
1769,7700150120891,新規,0,2023-10-02,2023-10-02,ｓｈｅｎｚｈｅｎｓｈｉｗｅｉｔａｉｄｉｓｈｉｙｅｙｏｕｘｉａｎｇｏｎｇｓｉ,,外国会社等,,,,,,,,ｓｈｅｎｚｈｅｎｓｈｉｂａｏａｎｑｕｆｕｙｏｎｇｊｉｅｄａｏｂａｏａｎｄａｄａｏ６２９７ｈａｏｆｕｌｉｎｄａｓｈａ１１３６,,,,,,2023-10-02,1,,,,,シェンジェンシーウェイタイディーシーイエヨウシエンゴンスー,0
1770,7700150120900,新規,0,2023-10-02,2023-10-02,Ｓｈｅｎｚｈｅｎ　Ｈｏｎｇｚｈａｎ　ａｄｈｅｓｉｖｅ　ｔｅｃｈｎｏｌｏｇｙ　Ｃｏ．，ＬＴＤ,,外国会社等,,,,,,,,Ｂｕｉｌｄｉｎｇ３１６Ｎｏ．４９ＳｈａｎｇｃｈａＣｏｍｍｅｒｃｉａｌＳｔｒｅｅｔＳｈａｎｇｃｈａＣｏｍｍｕｎｉｔｙＸｉｎｑｉａｏＳｔｒｅｅｔ　ＢａｏａｎＤｉｓｔｒｉｃｔ　Ｓｈｅｎｚｈｅｎ,,,,,,2023-10-02,1,,,,,シンセンホンザンアドヒーシブテクノロジーカンパニーリミテッド,0
1771,7700150120909,新規,0,2023-10-02,2023-10-02,義烏市秉欣電子商務有限公司,,外国会社等,,,,,,,,中国（浙江）自由貿易試験区金華市義烏市北苑街道秋実路１０１号２１７室,,,,,,2023-10-02,1,,,,,ギウシヘイキンデンシショウムユウゲンコウシ,0
1772,7700150120917,新規,0,2023-10-02,2023-10-02,ｓｈｅｎｚｈｅｎｓｈｉｐｅｎｇｃｈｅｎｇｙｉｍｉｎｇｋｅｊｉ　ｙｏｕｘｉａｎｇｏｎｇｓｉ,,外国会社等,,,,,,,,２０２　Ｂｕｉｌｄｉｎｇ　８５　Ｃｈａｎｇｃｈｕｎ　Ｎｏｒｔｈ　Ｒｏａｄ　Ｓｈａｎｇｃｕｎ　Ｃｏｍｍｕｎｉｔｙ　Ｇｏｎｇｍｉｎｇ　Ｓｔｒｅｅｔ　Ｇｕａｎｇｍｉｎｇ　Ｄｉｓｔｒｉｃｔ　Ｓｈｅｎｚｈｅｎ　５１８０００　ＣＮ,,,,,,2023-10-02,1,,,,,シンセンシペンチェンイミンカギヨウシェンゴンスー,0
1773,7700150120925,新規,0,2023-10-02,2023-10-02,ＳｈｅｎＺｈｅｎＳｈｉ　ＳｈｉＪｉＸｉｎｇＨｕｉ　ＫｅＪｉＹｏｕＸｉａｎＧｏｎｇＳｉ,,外国会社等,,,,,,,,ｂａｎ　ｔｉａｎ　ｊｉｅ　ｄａｏ　ｗｕ　ｈｅ　ｓｈｅ　ｑｕ　ｓｈｉ　ｈｕａ　ｘｉａｏ，ｑｕ　３０　ｄｏｎｇ　２０１，ｌｏｎｇ　ｇａｎｇ　ｑｕ，Ｓｈｅｎ　ｚｈｅｎ　ｓｈｉ,,,,,,2023-10-02,1,,,,,シンセンシセイキセイキカギユウゲンコウシ,0
1783,8010001238820,新規,0,2023-10-02,2023-10-02,株式会社ＹＵ‐ＥＮ,,株式会社,東京都,千代田区,外神田３丁目１４番３号,,13,101,1010021,,,,,,,2023-10-02,1,,,,,ユーエン,0
1784,8010001238894,新規,0,2023-10-02,2023-10-02,Ｔａｒａｎｔｅｌｌａ株式会社,,株式会社,東京都,千代田区,霞が関１丁目４番１号日土地ビル４階,,13,101,1000013,,,,,,,2023-10-02,1,,,,,タランテラ,0
1804,8010401177395,新規,0,2023-10-02,2023-10-02,株式会社アメジルチルカンパニー,,株式会社,東京都,港区,新橋２丁目２０番１５号,,13,103,1050004,,,,,,,2023-10-02,1,,,,,アメジルチルカンパニー,0
1805,8010401177429,新規,0,2023-10-02,2023-10-02,ギグワーカー少額短期設立準備株式会社,,株式会社,東京都,港区,西新橋２丁目１１番６号,,13,103,1050003,,,,,,,2023-10-02,1,,,,,ギグワーカーショウガクタンキセツリツジュンビ,0
1806,8010401177461,新規,0,2023-10-02,2023-10-02,株式会社ＡＸＴＯＲＭ,,株式会社,東京都,港区,芝浦１丁目８番４－１階,,13,103,1050023,,,,,,,2023-10-02,1,,,,,アクストム,0
1807,8010401177478,新規,0,2023-10-02,2023-10-02,株式会社ＪＴＯＷＥＲ　Ｉｎｆｒａｓｔｒｕｃｔｕｒｅ　Ｈｏｌｄｉｎｇｓ３,,株式会社,東京都,港区,南青山２丁目２番３号,,13,103,1070062,,,,,,,2023-10-02,1,,,,,ジェイタワーインフラストラクチャーホールディングススリー,0
1808,8010401177486,新規,0,2023-10-02,2023-10-02,ＥＩＮＳ・ＯＢＥＮ株式会社,,株式会社,東京都,港区,北青山１丁目３番１号アールキューブ青山３階,,13,103,1070061,,,,,,,2023-10-02,1,,,,,アインスオーベン,0
1815,8010403031006,新規,0,2023-10-02,2023-10-02,合同会社本多アセット企画,,合同会社,東京都,港区,南青山３丁目１番３６号青山丸竹ビル６Ｆ,,13,103,1070062,,,,,,,2023-10-02,1,,,,,ホンダアセットキカク,0
1816,8010403031039,新規,0,2023-10-02,2023-10-02,トリニティリンク・カペラ合同会社,,合同会社,東京都,港区,南青山２丁目２番１５号,,13,103,1070062,,,,,,,2023-10-02,1,,,,,トリニティリンクカペラ,0
1818,8010601063858,新規,0,2023-10-02,2023-10-02,株式会社Ｂｅｓｔ,,株式会社,東京都,墨田区,業平５丁目１１番３号,,13,107,1300002,,,,,,,2023-10-02,1,,,,,ベスト,0
1820,8010801034378,新規,0,2023-10-02,2023-10-02,株式会社ねる子は育つ,,株式会社,東京都,大田区,東雪谷５丁目２７－１２,,13,111,1450065,,,,,,,2023-10-02,1,,,,,ネルコハソダツ,0
1824,8011001156657,新規,0,2023-10-02,2023-10-02,株式会社ＳｐｏＭｉｎｔ,,株式会社,東京都,渋谷区,道玄坂１丁目１０番８号渋谷道玄坂東急ビル２Ｆ－Ｃ,,13,113,1500043,,,,,,,2023-10-02,1,,,,,スポミント,0
1825,8011001157234,新規,0,2023-10-02,2023-10-02,ホープスコンサルティング株式会社,,株式会社,東京都,渋谷区,渋谷２丁目２番４号青山アルコープ４０２号室,,13,113,1500002,,,,,,,2023-10-02,1,,,,,ホープスコンサルティング,0
1826,8011001157242,新規,0,2023-10-02,2023-10-02,株式会社ｎｏｖｅ,,株式会社,東京都,渋谷区,恵比寿南３丁目２番地１６号オクトピア恵比寿南２０４,,13,113,1500022,,,,,,,2023-10-02,1,,,,,ノーヴェ,0
1827,8011003017626,新規,0,2023-10-02,2023-10-02,Ｘ‐Ｂｏｒｄｅｒ　Ａｇｅｎｔ合同会社,,合同会社,東京都,渋谷区,道玄坂１丁目１０番８号渋谷道玄坂東急ビル２Ｆ－Ｃ,,13,113,1500043,,,,,,,2023-10-02,1,,,,,クロスボーダーエージェント,0
1828,8011003017634,新規,0,2023-10-02,2023-10-02,左馬ジャパン合同会社,,合同会社,東京都,渋谷区,渋谷２丁目１９－１５宮益坂ビルディング６０９,,13,113,1500002,,,,,,,2023-10-02,1,,,,,ヒダリウマジャパン,0
1838,8011501029817,新規,0,2023-10-02,2023-10-02,株式会社ウィズスクール,,株式会社,東京都,荒川区,東日暮里５丁目２７番４号,,13,118,1160014,,,,,,,2023-10-02,1,,,,,ウィズスクール,0
1844,8011703003611,新規,0,2023-10-02,2023-10-02,合同会社柿崎急送,00132103,合同会社,東京都,江戸川区,江戸川２丁目１０番２２号,,13,123,1320013,,,,,,,2023-10-02,1,,,,,カキザキキュウソウ,0
1845,8011805003303,新規,0,2023-10-02,2023-10-02,特定非営利活動法人アダチノミライ,,その他の設立登記法人,東京都,足立区,千住３丁目２５番１９号,,13,121,1200034,,,,,,,2023-10-02,1,,,,,アダチノミライ,0
1847,8012403006202,新規,0,2023-10-02,2023-10-02,合同会社Ｇ‐ＳＴＹＬＥ,,合同会社,東京都,調布市,染地２丁目８番地３Ｃ－１２１２,,13,208,1820023,,,,,,,2023-10-02,1,,,,,ジースタイル,0
1848,8012701017859,新規,0,2023-10-02,2023-10-02,ワイエスリハウス株式会社,,株式会社,東京都,西東京市,東町４丁目１４番３号ハイツアサカ２０２号,,13,229,2020012,,,,,,,2023-10-02,1,,,,,ワイエスリハウス,0
1851,8012803003195,新規,0,2023-10-02,2023-10-02,合同会社Ｍｉｋｕｒｕ,,合同会社,東京都,立川市,西砂町１丁目２６番地の６８,,13,202,1900034,,,,,,,2023-10-02,1,,,,,ミクル,0
1854,8013301051397,新規,0,2023-10-02,2023-10-02,ＧＲＯＷ株式会社,,株式会社,東京都,豊島区,巣鴨２丁目４番２－４０４号,,13,116,1700002,,,,,,,2023-10-02,1,,,,,グロー,0
1858,8020001153696,新規,0,2023-10-02,2023-10-02,ＱＲＥＡ株式会社,,株式会社,神奈川県,横浜市西区,浅間町１丁目４番３号ウィザードビル４０２,,14,103,2200072,,,,,,,2023-10-02,1,,,,,クリア,0
1869,8021001080303,新規,0,2023-10-02,2023-10-02,株式会社メインジェット,,株式会社,神奈川県,厚木市,三田９６番地１６,,14,212,2430211,,,,,,,2023-10-02,1,,,,,メインジェット,0
1872,8021003013624,新規,0,2023-10-02,2023-10-02,合同会社トリプルエイト,,合同会社,神奈川県,相模原市南区,南台３丁目９番３８－４０４号,,14,153,2520314,,,,,,,2023-10-02,1,,,,,トリプルエイト,0
1878,8030001156054,新規,0,2023-10-02,2023-10-02,ＡＨ　ＴＲＡＤＩＮＧ株式会社,,株式会社,埼玉県,川越市,大字中福９０３番地２,,11,201,3501156,,,,,,,2023-10-02,1,,,,,エーエイチトレーディング,0
1879,8030001156129,新規,0,2023-10-02,2023-10-02,Ｅ‐ｔｏｕｒ智行株式会社,,株式会社,埼玉県,川口市,本町４丁目５－１藤和川口本町コープ７０７,,11,203,3320012,,,,,,,2023-10-02,1,,,,,イーツアーチコウ,0
1880,8030001156343,新規,0,2023-10-02,2023-10-02,株式会社華誠,,株式会社,埼玉県,富士見市,東みずほ台１丁目５－１２メリーライフみずほ台１０３号室,,11,235,3540015,,,,,,,2023-10-02,1,,,,,カセイ,0
1885,8030003022592,新規,0,2023-10-02,2023-10-02,ＭＩＴＳＵＩＳＨＩ　Ｄｅｓｉｇｎ合同会社,,合同会社,埼玉県,深谷市,普済寺１６９０,,11,218,3690203,,,,,,,2023-10-02,1,,,,,ミツイシデザイン,0
1886,8030003022683,新規,0,2023-10-02,2023-10-02,合同会社えぽっくはうす,,合同会社,埼玉県,さいたま市北区,日進町１丁目６９１番地２カナディアンハイツ日進２０１,,11,102,3310823,,,,,,,2023-10-02,1,,,,,エポックハウス,0
1891,8040001130289,新規,0,2023-10-02,2023-10-02,株式会社あるふぁー,,株式会社,千葉県,流山市,野々下３丁目７５８番地の２２野々下ハイツ１０１,,12,220,2700135,,,,,,,2023-10-02,1,,,,,アルファー,0
1892,8040001130306,新規,0,2023-10-02,2023-10-02,株式会社Ｙ’ｓパートナー,,株式会社,千葉県,市川市,欠真間２丁目２４番１８号,,12,203,2720142,,,,,,,2023-10-02,1,,,,,ワイズパートナー,0
1893,8040001130314,新規,0,2023-10-02,2023-10-02,株式会社ジェムピジョン,,株式会社,千葉県,浦安市,入船６丁目７番２０１号,,12,227,2790012,,,,,,,2023-10-02,1,,,,,ジェムピジョン,0
1898,8050003007823,新規,0,2023-10-02,2023-10-02,合同会社ＨＤ,,合同会社,茨城県,筑西市,新治１９９１番地４３,,08,227,3091106,,,,,,,2023-10-02,1,,,,,エイチディー,0
1899,8050003007831,新規,0,2023-10-02,2023-10-02,合同会社幸喜会,,合同会社,茨城県,鹿嶋市,大字中１７１番地ビレッジハウス大野８棟３０８号,,08,222,3112213,,,,,,,2023-10-02,1,,,,,コウキカイ,0
1903,8080001025881,新規,0,2023-10-02,2023-10-02,エアパネリス株式会社,,株式会社,静岡県,静岡市清水区,興津中町８８７番地の１,,22,103,4240204,,,,,,,2023-10-02,1,,,,,エアパネリス,0
1909,8100003007198,新規,0,2023-10-02,2023-10-02,便利屋アベリア合同会社,,合同会社,長野県,伊那市,荒井３７６０番地３２,,20,209,3960025,,,,,,,2023-10-02,1,,,,,ベンリヤアベリア,0
1919,8120001258444,新規,0,2023-10-02,2023-10-02,株式会社岡田軌道,,株式会社,大阪府,大阪市平野区,長吉六反１丁目３番２７号,,27,126,5470012,,,,,,,2023-10-02,1,,,,,オカダキドウ,0
1920,8120001258460,新規,0,2023-10-02,2023-10-02,株式会社こねくと,,株式会社,大阪府,交野市,寺２丁目６番２０号,,27,230,5760063,,,,,,,2023-10-02,1,,,,,コネクト,0
1923,8120101068306,新規,0,2023-10-02,2023-10-02,株式会社８４,,株式会社,大阪府,泉佐野市,上町２丁目７－２４,,27,213,5980007,,,,,,,2023-10-02,1,,,,,エイティーフォー,0
1928,8120901048110,新規,0,2023-10-02,2023-10-02,株式会社ブライトＵＰ,,株式会社,大阪府,茨木市,橋の内３丁目１１－１２,,27,211,5670805,,,,,,,2023-10-02,1,,,,,ブライトアップ,0
1929,8122001037407,新規,0,2023-10-02,2023-10-02,株式会社ＭＯＮＤＩＡＬ　ＨＯＬＤＩＮＧＳ,,株式会社,大阪府,八尾市,八尾木１丁目１番地の３,,27,212,5810027,,,,,,,2023-10-02,1,,,,,モンディアルホールディングス,0
1930,8122003002680,新規,0,2023-10-02,2023-10-02,大旅合同会社,,合同会社,大阪府,東大阪市,日下町８丁目１番３号石切ｗｏｒｋｓｐａｃｅ２０２号室,,27,227,5798003,,,,,,,2023-10-02,1,,,,,タイリョ,0
1934,8130001075319,新規,0,2023-10-02,2023-10-02,株式会社ＩＤＥＡ　ＪＡＰＡＮ,,株式会社,京都府,京都市下京区,七条御所ノ内西町３８番地２ＫＯＩＺＵＭＩＤＥＳＩＧＮＢＬＤＧ．４Ｆ,,26,106,6008865,,,,,,,2023-10-02,1,,,,,イデアジャパン,0
1935,8130001075327,新規,0,2023-10-02,2023-10-02,株式会社創和不動産,,株式会社,京都府,京都市上京区,宮垣町９１－１０２,,26,102,6020853,,,,,,,2023-10-02,1,,,,,ソウワフドウサン,0
1936,8130001075335,新規,0,2023-10-02,2023-10-02,株式会社ドリームラボラトリー,,株式会社,京都府,京都市南区,西九条島町２７番地,,26,107,6018431,,,,,,,2023-10-02,1,,,,,ドリームラボラトリー,0
1949,8140001131780,新規,0,2023-10-02,2023-10-02,株式会社ｊｕｎｉｙａｔｅｋ,,株式会社,兵庫県,尼崎市,南武庫之荘１０丁目１３番１９－１０２号,,28,202,6610033,,,,,,,2023-10-02,1,,,,,ジュニヤテック,0
1952,8150001026757,新規,0,2023-10-02,2023-10-02,株式会社Ｓａｖａｎｔ,,株式会社,奈良県,奈良市,椿井町３０番地の２,,29,201,6308343,,,,,,,2023-10-02,1,,,,,サヴァン,0
1964,8180003025804,新規,0,2023-10-02,2023-10-02,合同会社オクトパスホールド,,合同会社,愛知県,名古屋市中区,栄２丁目１２番２８号アーク白川公園パークマンション１００８号,,23,106,4600008,,,,,,,2023-10-02,1,,,,,オクトパスホールド,0
1977,8240003006327,新規,0,2023-10-02,2023-10-02,合同会社楽描倶楽部,,合同会社,広島県,東広島市,福富町上戸野２３１１－１－４－１,,34,212,7392304,,,,,,,2023-10-02,1,,,,,ラクガキクラブ,0
2000,8360003013311,新規,0,2023-10-02,2023-10-02,合同会社アイコネクション,,合同会社,沖縄県,国頭郡金武町,字金武４２１４番地３,,47,314,9041201,,,,,,,2023-10-02,1,,,,,アイコネクション,0
2014,8430003015481,新規,0,2023-10-02,2023-10-02,合同会社オーシャンズファーム,,合同会社,北海道,浦河郡浦河町,字富里２２５－１０,,01,607,0593462,,,,,,,2023-10-02,1,,,,,オーシャンズファーム,0
2015,8430005014795,新規,0,2023-10-02,2023-10-02,医療法人社団明健会,,その他の設立登記法人,北海道,札幌市東区,北二十四条東２１丁目５番２７号,,01,103,0650024,,,,,,,2023-10-02,1,,,,,メイケンカイ,0
2016,8460003000968,新規,0,2023-10-02,2023-10-02,合同会社未来くる,,合同会社,北海道,釧路市,昭和北３丁目１４番５号,,01,206,0840901,,,,,,,2023-10-02,1,,,,,ミラクル,0
2018,8460103001560,新規,0,2023-10-02,2023-10-02,合同会社ＶＥＩＮ,,合同会社,北海道,帯広市,西十六条北１丁目１５番地６４,,01,207,0800046,,,,,,,2023-10-02,1,,,,,ベイン,0
2025,8500003003108,新規,0,2023-10-02,2023-10-02,合同会社ＡＣＥ,,合同会社,愛媛県,松山市,土居田町２８２―１,,38,201,7900056,,,,,,,2023-10-02,1,,,,,エース,0
2027,8700150119041,新規,0,2023-10-02,2023-08-21,アートヴィレッジ大崎団地管理組合,,その他,東京都,品川区,大崎１丁目２－２,,13,109,1410032,,,,,,,2023-08-21,1,,,,,アートヴイレツジオオサキダンチカンリクミアイ,0
2028,8700150120866,新規,0,2023-10-02,2023-10-02,ｚｈｅｎｇｚｈｏｕｌｕｎｍａｉｄｉａｎｚｉｓｈａｎｇｗｕ　ｙｏｕｘｉａｎｇｏｎｇｓｉ,,外国会社等,,,,,,,,ＦｅｎｇｈｕａｎｇｃｈａｃｈｅｎｇＣｑｕ８ｈａｏｌｏｕ１ｄａｎｙｕａｎ１６０５ｓｈｉＨｅｎａｎｓｈｅｎｇＺｈｅｎｇｚｈｏｕｓｈｉＪｉｎｓｈｕｑｕ,,,,,,2023-10-02,1,,,,,テイシュウルンマイデンシショウムユウゲンコウシ,0
2029,8700150120874,新規,0,2023-10-02,2023-10-02,ＴＨＥＲＭＯＰＲＯ　ＩＮＣ．,,外国会社等,,,,,,,,１６０３　ＣＡＰＩＴＡＬ　ＡＶＥ　ＳＴＥ　３１０，Ａ１４０　ＣＨＥＹＥＮＮＥ　ＷＹ　８２００１　ＵＳ,,,,,,2023-10-02,1,,,,,ザルモプロインク,0
2030,8700150120882,新規,0,2023-10-02,2023-10-02,ｓｈｅｎｚｈｅｎｓｈｉｃｏｎｇｈａｎｄｉａｎｚｉｓｈａｎｇｗｕｙｏｕｘｉａｎｇｏｎｇｓｉ,,外国会社等,,,,,,,,ＬＯＮＧＧＡＮＧＱＵ　ＢＡＮＴＩＡＮＪｌＥＤＡＯ　ＷＡＮＫＥＣＨＥＮＧＳＨＥＱＵ　ＪＵＬＩＦＵＲＥＮＤＡＤＡＯ　ＳＨＥＮＺＨＯＵＤＩＡＮＮＡＯＤＡＳＨＡ　６ＦＡＱＵ１６ＳＨＩ　ＳＨＥＮＺＨＥＮ　ＧＵＡＮＧＤＯＮＧ　５１８０００　ＣＮ,,,,,,2023-10-02,1,,,,,シェンジェンシーツォンハンディエンズーシャンウーヨウシエンゴンスー,0
2031,8700150120890,新規,0,2023-10-02,2023-10-02,ＳｈｅｎｚｈｅｎＪｉａｈｅＧｌｏｂａｌＬｏｇｉｓｔｉｃｓ　Ｓｕｐｐｌｙ　Ｃｈａｉｎ　Ｃｏ．，Ｌｔｄ,,外国会社等,,,,,,,,ｓｈｅｎｚｈｅｎｓｈｉｂａｏａｎｑｕｆｕｙｏｎｇｊｉｅｄａｏｘｉａｓｈｉｗｅｉｇｕａｎｇｓｈｅｎｇｂａｘｉａｎｇ５ｈａｏ１０１,,,,,,2023-10-02,1,,,,,シェンジェンシージャーホーチュエンチューウーリューゴンインリエンヨウシエンゴンスー,0
2032,8700150120899,新規,0,2023-10-02,2023-10-02,ｓｈｅｎｚｈｅｎｓｈｉｙｉｇｅｙｕａｎｗａｎｇｄｉａｎｚｉｓｈａｎｇｗｕ　ｙｏｕｘｉａｎｇｏｎｇｓｉ,,外国会社等,,,,,,,,Ｌｏｎｇｇａｎｇ　Ｄｉｓｔｒｉｃｔ，Ｂａｎｔｉａｎ　Ｓｔｒｅｅｔ，Ｃｈａｎｇｆａ　Ｍｉｄｄｌｅ　Ｒｄ．ＨａｉＰｅｎｇＤａＳｈａ　Ｎｏ．８０２Ｓｈｅｎｚｈｅｎ,,,,,,2023-10-02,1,,,,,シンセンシイゲユアンワンデンシショウムユウゲンコウシ,0
2033,8700150120908,新規,0,2023-10-02,2023-10-02,義烏市維＿電子商務有限公司,00132072,外国会社等,,,,,,,,中国（浙江）自由貿易試験区金華市義烏市北苑街道秋実路７８号６号楼７０８室,,,,,,2023-10-02,1,,,,,ギウシイサンデンシショウムユウゲンコウシ,0
2034,8700150120916,新規,0,2023-10-02,2023-10-02,Ｇｕａｎｇｚｈｏｕ　Ｚｈｕｏｙｉｎｇ　Ｎｅｔｗｏｒｋ　Ｔｅｃｈｎｏｌｏｇｙ　Ｃｏ．，Ｌｔｄ．,,外国会社等,,,,,,,,Ｒｏｏｍ２２８－６３　ＦｌｏｏｒＡ２　Ｎｏ．２０　ＳａｎｌｉａｎＲｏａｄ　Ｈｕａｎｇｃｕｎ　ＴｉａｎｈｅＤｉｓｔｒｉｃｔ　ＧｕａｎｇｚｈｏｕＣｉｔｙ　５１０６３０　ＣＮ,,,,,,2023-10-02,1,,,,,コウシュウゾオインネットワークテクノロジーカンパニーリミテッド,0
2035,8700150120924,新規,0,2023-10-02,2023-10-02,Ｃｈａｎｇｓｈａ　Ｎｉｊｉｎｇ　Ｔｒａｄｉｎｇ　Ｃｏ．，Ｌｔｄ．,,外国会社等,,,,,,,,６０７８－３４５９，６Ｆ，１Ｑｉ，９６　Ｇａｏｑｉａｏｄａｓｈｉｃｈａｎｇ　１ｓｔ　Ｓｔ．，Ｇａｏｑｉａｏ，Ｙｕｈｕａ，Ｃｈａｎｇｓｈａ，Ｈｕｎａｎ,,,,,,2023-10-02,1,,,,,チョウサニケイボウエキユウゲンコウシ,0
2036,8700150120949,新規,0,2023-10-02,2023-10-02,ＺｈｅｊｉａｎｇＪｉｎＳｈｉＷｅｎＨｕａＹｏｎｇＰｉｎ　ＹｏｕＸｉａｎＧｏｎｇＳｉ,,外国会社等,,,,,,,,Ｓｈｅｎｇｚｈｏｕｓｈｉ　Ｃｈａｎｇｌｅｚｈｅｎ　Ｚｈｉｙｅｅｒｌｕ１３ｈａｏＳｈａｏｘｉｎｇ　Ｚｈｅｊｉａｎｇ　３１２４００　ＣＮ,,,,,,2023-10-02,1,,,,,セッコウジンシウェンホゥアヨウヒンヨウシェンゴンスー,0
2052,9010001238885,新規,0,2023-10-02,2023-10-02,亦可株式会社,,株式会社,東京都,千代田区,神田佐久間町３丁目３８第５東ビル５Ｆ,,13,101,1010025,,,,,,,2023-10-02,1,,,,,エキカ,0
2053,9010001238893,新規,0,2023-10-02,2023-10-02,Ｕｌｔｒａｂｕｌｋ　Ｊａｐａｎ株式会社,,株式会社,東京都,千代田区,丸の内１丁目１１番１号パシフィックセンチュリープレイス丸の内１３階,,13,101,1000005,,,,,,,2023-10-02,1,,,,,ウルトラバルクジャパン,0
2054,9010003041791,新規,0,2023-10-02,2023-10-02,ｋｋｎ　ｓｅｌｅｃｔ合同会社,,合同会社,東京都,千代田区,神田和泉町一丁目６番１６号ヤマトビル４０５,,13,101,1010024,,,,,,,2023-10-02,1,,,,,ケーケーエヌセレクト,0
2065,9010401177403,新規,0,2023-10-02,2023-10-02,株式会社Ｌａｕｎｃｈ　Ｂａｓｅ,,株式会社,東京都,港区,南青山２丁目２番１５号ウィン青山１２１４号,,13,103,1070062,,,,,,,2023-10-02,1,,,,,ローンチベース,0
2066,9010401177460,新規,0,2023-10-02,2023-10-02,Ｌｅｏｌａｎａ株式会社,,株式会社,東京都,港区,元麻布３丁目１番６号,,13,103,1060046,,,,,,,2023-10-02,1,,,,,レオラナ,0
2067,9010401177502,新規,0,2023-10-02,2023-10-02,株式会社５１Ｔａｌｋ　Ｊａｐａｎ,,株式会社,東京都,港区,港南２丁目１６番５号ＮＢＦ品川タワー５階,,13,103,1080075,,,,,,,2023-10-02,1,,,,,ファイブワントークジャパン,0
2068,9010403031013,新規,0,2023-10-02,2023-10-02,アクシス合同会社,,合同会社,東京都,港区,白金台３丁目５－１７－４０２,,13,103,1080071,,,,,,,2023-10-02,1,,,,,アクシス,0
2074,9010801034360,新規,0,2023-10-02,2023-10-02,株式会社ＤｒｅａｍＤｗｅｌｌ　Ｅｓｔａｔｅｓ,,株式会社,東京都,大田区,南馬込４丁目１７番３号エーデルワイス,,13,111,1430025,,,,,,,2023-10-02,1,,,,,ドリームドゥウェルエステイツ,0
2085,9011001157225,新規,0,2023-10-02,2023-10-02,ＪｏｂＴａｌｅｓ株式会社,,株式会社,東京都,渋谷区,道玄坂１丁目１０番８号渋谷道玄坂東急ビル２Ｆ－Ｃ,,13,113,1500043,,,,,,,2023-10-02,1,,,,,ジョブテイルズ,0
2086,9011001157241,新規,0,2023-10-02,2023-10-02,八雲商事株式会社,,株式会社,東京都,目黒区,八雲１丁目６番１３号,,13,110,1520023,,,,,,,2023-10-02,1,,,,,ヤクモショウジ,0
2087,9011001157282,新規,0,2023-10-02,2023-10-02,株式会社Ｍｅたけし,,株式会社,東京都,渋谷区,神南１丁目１２番１４号渋谷宮田ビル６Ｆ－８Ｆ,,13,113,1500041,,,,,,,2023-10-02,1,,,,,エムイータケシ,0
2088,9011005010231,新規,0,2023-10-02,2023-10-02,税理士法人ゼロベース,,その他の設立登記法人,東京都,渋谷区,代々木１丁目２５番５号ＢＩＺＳＭＡＲＴ代々木３３５号室,,13,113,1510053,,,,,,,2023-10-02,1,,,,,ゼロベース,0
2090,9011103013540,新規,0,2023-10-02,2023-10-02,ＡｍａｚｉｎｇＴａｌｋｅｒ　Ｓｅｒｖｉｃｅ合同会社,,合同会社,東京都,新宿区,新宿２丁目５番３号ＡＭビル７階,,13,104,1600022,,,,,,,2023-10-02,1,,,,,アメイジングトーカーサービス,0
2092,9011501029824,新規,0,2023-10-02,2023-10-02,詩碧曼株式会社,,株式会社,東京都,荒川区,西日暮里５丁目２７－４エル・アルカサルフジ２０１号室,,13,118,1160013,,,,,,,2023-10-02,1,,,,,シヘキマン,0
2096,9011703003610,新規,0,2023-10-02,2023-10-02,合同会社浜崎塗装,,合同会社,東京都,江戸川区,西瑞江３丁目２７番地５コアロードハウスＢ－２,,13,123,1320015,,,,,,,2023-10-02,1,,,,,ハマザキトソウ,0
2097,9011801043095,新規,0,2023-10-02,2023-10-02,株式会社ＳＵＭ,,株式会社,東京都,葛飾区,新小岩１丁目５７番３－２０６号,,13,122,1240024,,,,,,,2023-10-02,1,,,,,エスユーエム,0
2099,9011803005861,新規,0,2023-10-02,2023-10-02,佐藤商会合同会社,,合同会社,東京都,足立区,入谷３丁目１１番１号,,13,121,1210836,,,,,,,2023-10-02,1,,,,,サトウショウカイ,0
2102,9012701017858,新規,0,2023-10-02,2023-10-02,株式会社福宝来,,株式会社,東京都,小平市,小川西町２丁目６番１０４号,,13,211,1870035,,,,,,,2023-10-02,1,,,,,フクホウライ,0
2103,9013301051413,新規,0,2023-10-02,2023-10-02,株式会社総合再開発補償,,株式会社,東京都,豊島区,東池袋１丁目３３番８号,,13,116,1700013,,,,,,,2023-10-02,1,,,,,ソウゴウサイカイハツホショウ,0
2112,9021001080310,新規,0,2023-10-02,2023-10-02,デュアルプラン株式会社,,株式会社,神奈川県,相模原市南区,相武台１丁目２２番１０号山本ビル１０１,,14,153,2520324,,,,,,,2023-10-02,1,,,,,デュアルプラン,0
2114,9030001156111,新規,0,2023-10-02,2023-10-02,株式会社ｏｎマネジメント,,株式会社,埼玉県,さいたま市桜区,大字神田７０５番地１,,11,106,3380812,,,,,,,2023-10-02,1,,,,,オンマネジメント,0
2115,9030001156210,新規,0,2023-10-02,2023-10-02,株式会社ＫＭＳＲ,,株式会社,埼玉県,蕨市,塚越３丁目１３番１１号か・りん,,11,223,3350002,,,,,,,2023-10-02,1,,,,,ケエムエスアール,0
2118,9030003022583,新規,0,2023-10-02,2023-10-02,Ｔ＆Ｍ合同会社,,合同会社,埼玉県,三郷市,早稲田７丁目１２番地８,,11,237,3410018,,,,,,,2023-10-02,1,,,,,ティアンドエム,0
2119,9030003022609,新規,0,2023-10-02,2023-10-02,合同会社ＥＮＥＫＩ,,合同会社,埼玉県,さいたま市見沼区,大字南中丸９４３－２０,,11,104,3370041,,,,,,,2023-10-02,1,,,,,エネキ,0
2124,9040001130305,新規,0,2023-10-02,2023-10-02,株式会社ＳＥＩＤＥＮ,,株式会社,千葉県,柏市,酒井根５丁目２８番１号,,12,217,2770053,,,,,,,2023-10-02,1,,,,,セイデン,0
2125,9040001130313,新規,0,2023-10-02,2023-10-02,ＴｏＣｏ株式会社,,株式会社,千葉県,千葉市緑区,あすみが丘３丁目５０番地１４,,12,105,2670066,,,,,,,2023-10-02,1,,,,,トコ,0
2127,9040003023432,新規,0,2023-10-02,2023-10-02,合同会社ＳＥＣＯＮＤ,,合同会社,千葉県,柏市,酒井根４丁目２番２１号,,12,217,2770053,,,,,,,2023-10-02,1,,,,,セカンド,0
2131,9050001053562,新規,0,2023-10-02,2023-10-02,株式会社グリッド電子,,株式会社,茨城県,かすみがうら市,中志筑１４１番地１,,08,230,3150075,,,,,,,2023-10-02,1,,,,,グリッドデンシ,0
2136,9060001036392,新規,0,2023-10-02,2023-10-02,藤田金属株式会社,,株式会社,栃木県,真岡市,下籠谷４３２１番地１,,09,209,3214415,,,,,,,2023-10-02,1,,,,,フジタキンゾク,0
2138,9060003004736,新規,0,2023-10-02,2023-10-02,Ｂ＆Ｒ合同会社,,合同会社,栃木県,栃木市,室町４番１８号１階,,09,203,3280036,,,,,,,2023-10-02,1,,,,,ビーアンドアール,0
2139,9070001040914,新規,0,2023-10-02,2023-10-02,堂堂ジャパンモーターズ株式会社,,株式会社,群馬県,邑楽郡板倉町,大字西岡４６９番地１,,10,521,3740107,,,,,,,2023-10-02,1,,,,,ドウドウジャパンモーターズ,0
2141,9070005010178,新規,0,2023-10-02,2023-10-02,一般社団法人キッズありあ,,その他の設立登記法人,群馬県,前橋市,石倉町２丁目１１番地１,,10,201,3710841,,,,,,,2023-10-02,1,,,,,キッズアリア,0
2143,9080105006364,新規,0,2023-10-02,2023-10-02,一般社団法人静岡県フットゴルフ協会,,その他の設立登記法人,静岡県,富士市,富士見台４丁目５番地の６９,,22,210,4170851,,,,,,,2023-10-02,1,,,,,シズオカケンフットゴルフキョウカイ,0
2156,9120001258435,新規,0,2023-10-02,2023-10-02,株式会社Ｔ＆Ｍ,,株式会社,大阪府,大阪市天王寺区,大道１丁目１３番１７号大道ハイツ１０５号,,27,109,5430052,,,,,,,2023-10-02,1,,,,,ティーアンドエム,0
2163,9120101068296,新規,0,2023-10-02,2023-10-02,株式会社アウル,,株式会社,大阪府,河内長野市,市町１２５１番地,,27,216,5860002,,,,,,,2023-10-02,1,,,,,アウル,0
2167,9130001075169,新規,0,2023-10-02,2023-10-02,株式会社ＢＯＧＥＮ,,株式会社,京都府,京都市東山区,五条橋東４丁目４３２－１３對嵐坊ビル,,26,105,6050846,,,,,,,2023-10-02,1,,,,,ボーゲン,0
2168,9130001075326,新規,0,2023-10-02,2023-10-02,株式会社プラス,,株式会社,京都府,京都市下京区,油小路通塩小路下る南不動町３番地２大道ビル６階Ｂ室,,26,106,6000000,,,,,,,2023-10-02,1,,,,,プラス,0
2175,9150001026748,新規,0,2023-10-02,2023-10-02,丸野商事株式会社,,株式会社,奈良県,奈良市,横井５丁目３５７番地の４,,29,201,6308422,,,,,,,2023-10-02,1,,,,,マルノショウジ,0
2176,9150003003084,新規,0,2023-10-02,2023-10-02,合同会社こころの扉,,合同会社,奈良県,北葛城郡広陵町,大字大塚５２番地１,,29,426,6350834,,,,,,,2023-10-02,1,,,,,ココロノトビラ,0
2192,9180005020372,新規,0,2023-10-02,2023-10-02,医療法人ラビッツ,,その他の設立登記法人,愛知県,長久手市,岩作西島１０２番地,,23,238,4801103,,,,,,,2023-10-02,1,,,,,ラビッツ,0
2195,9180301037863,新規,0,2023-10-02,2023-10-02,株式会社大銀,,株式会社,愛知県,岡崎市,大門３丁目３２番地９,,23,202,4442135,,,,,,,2023-10-02,1,,,,,ダイギン,0
2200,9210001019480,新規,0,2023-10-02,2023-10-02,石塚工業株式会社,00132090,株式会社,福井県,大飯郡高浜町,立石第１５号１番地２ビオーラ・ユーＩＩ２０６,00132091,18,481,9192226,,,,,,,2023-10-02,1,,,,,イシヅカコウギョウ,0
2203,9240001062180,新規,0,2023-10-02,2023-10-02,株式会社上田製作事務所,,株式会社,広島県,広島市南区,宇品御幸３丁目１１番３１－７０１号,,34,103,7340015,,,,,,,2023-10-02,1,,,,,,0
2206,9240003006326,新規,0,2023-10-02,2023-10-02,合同会社ｍａｉｋｋａ,,合同会社,広島県,福山市,丸之内１丁目３番９号,,34,207,7200061,,,,,,,2023-10-02,1,,,,,マイッカ,0
2210,9260001038344,新規,0,2023-10-02,2023-10-02,タナベ株式会社,,株式会社,岡山県,井原市,大江町３７６８番地５,,33,207,7150023,,,,,,,2023-10-02,1,,,,,タナベ,0
2226,9300001013482,新規,0,2023-10-02,2023-10-02,株式会社サンアール,,株式会社,佐賀県,唐津市,朝日町１０５７番地１１,,41,202,8470841,,,,,,,2023-10-02,1,,,,,サンアール,0
2229,9310003004652,新規,0,2023-10-02,2023-10-02,合同会社源,,合同会社,長崎県,東彼杵郡波佐見町,中尾郷９９０番地,,42,323,8593712,,,,,,,2023-10-02,1,,,,,ゲン,0
2230,9330003009996,新規,0,2023-10-02,2023-10-02,アシストライフ合同会社,,合同会社,熊本県,熊本市中央区,水前寺３丁目５番２０号コープ野村水前寺６０４号,,43,101,8620950,,,,,,,2023-10-02,1,,,,,,0
2240,9360001032618,新規,0,2023-10-02,2023-10-02,株式会社Ｐａｉｎｕ,,株式会社,沖縄県,石垣市,字登野城６４４番地１２サニーハウス石垣１０１,,47,207,9070004,,,,,,,2023-10-02,1,,,,,パイヌ,0
2241,9360003013335,新規,0,2023-10-02,2023-10-02,合同会社ギルガメッシュ,,合同会社,沖縄県,島尻郡与那原町,字東浜１０２番地の３セレーヌ４０２,,47,348,9011304,,,,,,,2023-10-02,1,,,,,ギルガメッシュ,0
2245,9370001050453,新規,0,2023-10-02,2023-10-02,株式会社ネイキッド,,株式会社,宮城県,角田市,尾山字横町９番地,,04,208,9811502,,,,,,,2023-10-02,1,,,,,ネイキッド,0
2246,9370001050461,新規,0,2023-10-02,2023-10-02,森坂ＪＳＴ株式会社,,株式会社,宮城県,仙台市青葉区,一番町１丁目１５番４１号－２０１,,04,101,9800811,,,,,,,2023-10-02,1,,,,,モリサカジェイエスティ,0
2247,9370003006305,新規,0,2023-10-02,2023-10-02,ダイリオン合同会社,,合同会社,宮城県,仙台市青葉区,台原６丁目１２番１９－７０１号,,04,101,9810911,,,,,,,2023-10-02,1,,,,,ダイリオン,0
2249,9390001017384,新規,0,2023-10-02,2023-10-02,ＴＨＡＮＮＥＣＴ株式会社,,株式会社,山形県,東根市,大字東根甲４４６１番地,,06,211,9993701,,,,,,,2023-10-02,1,,,,,サンネクト,0
2253,9440005002765,新規,0,2023-10-02,2023-10-02,ひかる国際交流協同組合,,その他の設立登記法人,北海道,亀田郡七飯町,字上藤城１２５番３,,01,337,0411104,,,,,,,2023-10-02,1,,,,,ヒカルコクサイコウリュウ,0
2255,9500001025227,新規,0,2023-10-02,2023-10-02,株式会社幸せ,,株式会社,愛媛県,松山市,一番町２丁目５－８かな美荘１０１号,,38,201,7900001,,,,,,,2023-10-02,1,,,,,シアワセ,0
2257,9700150120816,新規,0,2023-10-02,2023-09-28,ごぼうの党,,その他,東京都,杉並区,阿佐谷南３丁目３７－１３－１００６,,13,115,1660004,,,,,,,2023-09-28,1,,,,,ゴボウノトウ,0
2258,9700150120865,新規,0,2023-10-02,2023-10-02,ＪｉｎｇｚｈｏｕＬｉｙａｎｇ　Ｅｌｅｃｔｒｏｎｉｃ　Ｔｅｃｈｎｏｌｏｇｙ　Ｃｏ．，Ｌｔｄ,,外国会社等,,,,,,,,Ｎｏ．２０１　２ｎｄＦｌｏｏｒＢｕｉｌｄｉｎｇ２４ＰｈａｓｅＩＩＩＺｏｎｅＦ　ＴｉａｎｈｕＦｉｓｈｉｎｇＧｒｏｕｎｄＧｕａｎｊｕＴｏｗｎＳｈａｓｈｉＤｉｓｔｒｉｃｔ　ＪｉｎｇｚｈｏｕＣｉｔｙＨｕｂｅｉＰｒｏｖｉｎｃｅ,00132043,,,,,2023-10-02,1,,,,,ケイシュウリヤンエレクトロニックテクノロジーカンパニーリミテッド,0
2259,9700150120873,新規,0,2023-10-02,2023-10-02,ＨｕｎａｎＪｉａｒｏｎｇｆｕ　Ｔｒａｄｉｎｇ　Ｃｏ．，Ｌｔｄ,,外国会社等,,,,,,,,Ｒｏｏｍ１２３２－１２３７－１２８０　１２ｔｈＦｌｏｏｒＹｕｎｊｉＢｕｉｌｄｉｎｇＮｏ．２５５ＸｉａｎｇｚｈａｎｇＲｏａｄＪｉｎｇｗａｎｚｉＳｔｒｅｅｔＹｕｈｕａＤｉｓｔｒｉｃｔＣｈａｎｇｓｈａＣｉｔｙＨｕｎａｎＰｒｏｖｉｎｃｅ,,,,,,2023-10-02,1,,,,,コナンジアロンフトレーディングカンパニーリミテッド,0
2260,9700150120881,新規,0,2023-10-02,2023-10-02,ｋｅｔｕ（Ｇｕａｎｇｄｏｎｇ）Ｔｅｃｈｎｏｌｏｇｙ　Ｄｅｖｅｌｏｐｍｅｎｔ　Ｃｏ．，Ｌｔｄ,,外国会社等,,,,,,,,Ｒｏｏｍ　９１２，Ｂｕｉｌｄｉｎｇ　１，Ｂｌｏｃｋ　４，Ｎｏ．３２９，Ｙｕｓｈａｎｘｉ　Ｒｏａｄ，Ｓｈａｔｏｕ　Ｓｔｒｅｅｔ，Ｐａｎｙｕ　Ｄｉｓｔｒｉｃｔ　Ｇｕａｎｇｚｈｏｕ　Ｇｕａｎｇｄｏｎｇ　５１００００　ＣＮ,,,,,,2023-10-02,1,,,,,コートゥーグワンドンコージーファージャンヨウシエンゴンスー,0
2261,9700150120898,新規,0,2023-10-02,2023-10-02,ＳｈｅｎｚｈｅｎＴｉａｎｇＴｅｃｈ　Ｔｅｃｈｎｏｌｏｇｙ　Ｃｏ．，Ｌｔｄ．,,外国会社等,,,,,,,,６０７　６ｔｈＦｌｏｏｒ５ＢｕｉｌｄｉｎｇＤｏｎｇｌｉａｎＩｎｄｕｓｔｒｉａｌＡｒｅａＳｏｕｔｈｅａｓｔｏｆＣｈｕａｎｇｙｅＲｏａｄ　Ｂａｏａｎ２３Ｄｉｓｔｒｉｃｔ　Ｓｈｅｎｚｈｅｎ,,,,,,2023-10-02,1,,,,,シンセンテンアンテックテクノロジーカンパニーリミテッド,0
2262,9700150120907,新規,0,2023-10-02,2023-10-02,義烏市台宏電子商務有限公司,,外国会社等,,,,,,,,中国浙江省義烏市北苑街道擁軍三区３１幢１単元５楼,,,,,,2023-10-02,1,,,,,ギウシタイコウデンシショウムユウゲンコウシ,0
2263,9700150120915,新規,0,2023-10-02,2023-10-02,Ｓｈｅｎｚｈｅｎ　Ｔｉａｎｙａｃｈｅｎ　Ｔｅｃｈｎｏｌｏｇｙ　Ｃｏ．，Ｌｔｄ．,,外国会社等,,,,,,,,Ｓｈｅｎｚｈｅｎｓｈｉｌｏｎｇｇａｎｇｑｕｌｏｎｇｇａｎｇｊｉｅｄａｏ　ｘｉｎｓｈｅｎｇｓｈｅｑｕ　ｐｉｎｇｘｉｎａｎｌｕ１２ｈａｏ２ｄｏｎｇ４０９　５１８０００　ＣＮ,,,,,,2023-10-02,1,,,,,シンセンテンヤチェンテクノロジーカンパニーリミテッド,0
2264,9700150120923,新規,0,2023-10-02,2023-10-02,ｙｉ　ｊｉａｎ　ｓｈｅｎ　ｚｈｅｎ　ｓｈｅ　ｊｉ　ｙｏｕ　ｘｉａｎ　ｇｏｎｇ　ｓｉ,,外国会社等,,,,,,,,Ｒｏｏｍ　２０９－３Ａ－１，ｂｕｉｌｄｉｎｇ　１，１９７０　Ｓｃｉｅｎｃｅ　Ｐａｒｋ，Ｍｉｎｚｈｉ　ｃｏｍｍｕｎｉｔｙ，Ｍｉｎｚｈｉ　ｓｔｒｅｅｔ，Ｌｏｎｇｈｕａ　Ｄｉｓｔｒｉｃｔ，Ｓｈｅｎｚｈｅｎ,,,,,,2023-10-02,1,,,,,イケンシンセンセッケイユウゲンコウシ,0
