sequenceNumber,corporateNumber,process,correct,updateDate,changeDate,name,nameImageId,kind,prefectureName,cityName,streetNumber,addressImageId,prefectureCode,cityCode,postCode,addressOutside,addressOutsideImageId,closeDate,closeCause,successorCorporateNumber,changeCause,assignmentDate,latest,enName,enPrefectureName,enCityName,enAddressOutside,furigana,hihyoji
6,1010001245096,新規,0,2024-05-29,2024-05-29,レックス株式会社,,株式会社,東京都,千代田区,大手町１丁目７番２号,,13,101,1000004,,,,,,,2024-05-29,1,,,,,レックス,0
8,1010001245204,新規,0,2024-05-29,2024-05-29,ウェルビスリアルティ株式会社,,株式会社,東京都,中央区,築地６丁目１０番３－６０１号,,13,102,1040045,,,,,,,2024-05-29,1,,,,,ウェルビスリアルティ,0
9,1010001245278,新規,0,2024-05-29,2024-05-29,株式会社Ｑｕｒｉｏ　Ｔｅｃｈ,,株式会社,東京都,中央区,湊１丁目２番４号,,13,102,1040043,,,,,,,2024-05-29,1,,,,,キュリオテック,0
12,1010003043837,新規,0,2024-05-29,2024-05-29,合同会社ＳＴＵＤＩＯ　ＣＯＭＦＹ,,合同会社,東京都,中央区,日本橋室町１丁目１１番１２号日本橋水野ビル７階,,13,102,1030022,,,,,,,2024-05-29,1,,,,,スタジオコンフィー,0
13,1010005038356,新規,0,2024-05-29,2024-05-29,一般社団法人Ｆｉｖｅ　Ｄａｋｉｎｉｓ,,その他の設立登記法人,東京都,中央区,日本橋室町１丁目１１番１２号日本橋水野ビル７階,,13,102,1030022,,,,,,,2024-05-29,1,,,,,ファイヴダキニズ,0
17,1010101016166,新規,0,2024-05-29,2024-05-29,ＦＰＡ株式会社,,株式会社,東京都,八王子市,小宮町８６２番地３,,13,201,1920031,,,,,,,2024-05-29,1,,,,,エフピーエー,0
29,1010401182773,新規,0,2024-05-29,2024-05-29,株式会社メイフロ,,株式会社,東京都,港区,港南２丁目１７番１号京王品川ビル,,13,103,1080075,,,,,,,2024-05-29,1,,,,,メイフロ,0
32,1010503007465,新規,0,2024-05-29,2024-05-29,合同会社Ｓｕｎｒｉｓｅ　Ａｄｖｅｎｔｕｒｅ,,合同会社,東京都,台東区,小島１丁目６番４号,,13,106,1110056,,,,,,,2024-05-29,1,,,,,サンライズアドベンチャー,0
35,1010701046067,新規,0,2024-05-29,2024-05-29,サイファイツイン株式会社,,株式会社,東京都,品川区,東品川１丁目１２番５－４０２号,,13,109,1400002,,,,,,,2024-05-29,1,,,,,サイファイツイン,0
55,1011101107525,新規,0,2024-05-29,2024-05-29,株式会社ＳＡＩＲＡＩ,,株式会社,東京都,新宿区,西新宿３丁目３番１３号西新宿水間ビル２Ｆ,,13,104,1600023,,,,,,,2024-05-29,1,,,,,サイライ,0
59,1011103014447,新規,0,2024-05-29,2024-05-29,合同会社ＣＲＡＷＬ‐ＵＰ,,合同会社,東京都,新宿区,歌舞伎町２丁目２９番１号第３ウイザードセブンビル５階,,13,104,1600021,,,,,,,2024-05-29,1,,,,,クロールアップ,0
60,1011103014471,新規,0,2024-05-29,2024-05-29,Ｂｅｅｌｉｖｅ合同会社,,合同会社,東京都,新宿区,西新宿３丁目３番１３号西新宿水間ビル２Ｆ,,13,104,1600023,,,,,,,2024-05-29,1,,,,,ビリーブ,0
74,1011701027313,新規,0,2024-05-29,2024-05-29,株式会社盛澤,,株式会社,東京都,江戸川区,南小岩７丁目３７番１３号,,13,123,1330056,,,,,,,2024-05-29,1,,,,,モリサワ,0
75,1011801044266,新規,0,2024-05-29,2024-05-29,Ｗ．ＥＵＲＥＫＡ株式会社,,株式会社,東京都,足立区,入谷２丁目１６番１８号,,13,121,1210836,,,,,,,2024-05-29,1,,,,,ダブリューエウレカ,0
90,1020001157324,新規,0,2024-05-29,2024-05-29,株式会社ネロスクーデリア,,株式会社,神奈川県,横浜市都筑区,荏田南５丁目２１－４９,,14,118,2240007,,,,,,,2024-05-29,1,,,,,ネロスクーデリア,0
91,1020001157464,新規,0,2024-05-29,2024-05-29,ＰＯＰＫＯＲＮ株式会社,,株式会社,神奈川県,横浜市鶴見区,下末吉５丁目８番２７号メゾンド旭Ａ－１,,14,101,2300012,,,,,,,2024-05-29,1,,,,,ポップコーン,0
92,1020001157472,新規,0,2024-05-29,2024-05-29,株式会社Ｃｌｏｖｅｒ,,株式会社,神奈川県,横浜市保土ケ谷区,岩井町９７番地エルベ保土ケ谷Ｅ棟１０１号,,14,106,2400023,,,,,,,2024-05-29,1,,,,,クローバー,0
95,1021001082339,新規,0,2024-05-29,2024-05-29,株式会社Ｓｐａｒｒｏｗ,,株式会社,神奈川県,大和市,上草柳１丁目７番７号,,14,213,2420029,,,,,,,2024-05-29,1,,,,,スパロー,0
100,1030001160599,新規,0,2024-05-29,2024-05-29,株式会社ジャルダン,,株式会社,埼玉県,草加市,氷川町２１０２番地７コリンズ上岡ビル４階,,11,221,3400034,,,,,,,2024-05-29,1,,,,,ジャルダン,0
109,1040001133793,新規,0,2024-05-29,2024-05-29,株式会社フレックス,,株式会社,千葉県,千葉市若葉区,谷当町９３８番地３,,12,104,2650072,,,,,,,2024-05-29,1,,,,,フレックス,0
118,1040005022415,新規,0,2024-05-29,2024-05-29,ＮＰＯ法人結ｙｕｉ,,その他の設立登記法人,千葉県,柏市,末広町１２番地３増村荘２０２号,,12,217,2770842,,,,,,,2024-05-29,1,,,,,ユイ,0
120,1050001054832,新規,0,2024-05-29,2024-05-29,ＵＭＥＲ　ＴＲＡＤＩＮＧ株式会社,,株式会社,茨城県,結城市,大字田間１２８０番地１（Ｂ）,,08,207,3070044,,,,,,,2024-05-29,1,,,,,ウメルトレーディング,0
127,1070005010276,新規,0,2024-05-29,2024-05-29,一般社団法人ＵＰ　ＳＴＡＴＥ,,その他の設立登記法人,群馬県,高崎市,南大類町１２２６番地２,,10,202,3700036,,,,,,,2024-05-29,1,,,,,アップステート,0
136,1100001037501,新規,0,2024-05-29,2024-05-29,株式会社ＲＭＩ,,株式会社,長野県,佐久市,桜井２６４番地７,,20,217,3850056,,,,,,,2024-05-29,1,,,,,アールエムアイ,0
151,1120001265298,新規,0,2024-05-29,2024-05-29,株式会社ＮＧＭ　ＪＡＰＡＮ,,株式会社,大阪府,大阪市生野区,生野西１丁目３番２９号ＢＯＭＩＯＲＡ寺田町３０１号室,,27,116,5440024,,,,,,,2024-05-29,1,,,,,エヌジーエムジャパン,0
152,1120001265372,新規,0,2024-05-29,2024-05-29,株式会社ＴａｋｅｃｈｉＤｅｎｋｉ,,株式会社,大阪府,大阪市東住吉区,湯里５丁目１３番２号,,27,121,5460013,,,,,,,2024-05-29,1,,,,,タケチデンキ,0
153,1120001265380,新規,0,2024-05-29,2024-05-29,株式会社Ｌｉｂ,,株式会社,大阪府,大阪市天王寺区,大道１丁目７番１１－３０２号,,27,109,5430052,,,,,,,2024-05-29,1,,,,,リブ,0
154,1120001265414,新規,0,2024-05-29,2024-05-29,ガルベスフロンティア株式会社,,株式会社,大阪府,守口市,大日町３丁目２番１６号,,27,209,5700003,,,,,,,2024-05-29,1,,,,,ガルベスフロンティア,0
155,1120001265422,新規,0,2024-05-29,2024-05-29,家和株式会社,,株式会社,大阪府,大阪市浪速区,敷津西１丁目９番１７－１０６号,,27,111,5560015,,,,,,,2024-05-29,1,,,,,カワ,0
156,1120001265430,新規,0,2024-05-29,2024-05-29,株式会社タスクマンフィナンシャルパートナーズ,,株式会社,大阪府,大阪市中央区,瓦屋町３丁目７番３号,,27,128,5420066,,,,,,,2024-05-29,1,,,,,タスクマンフィナンシャルパートナーズ,0
157,1120003026707,新規,0,2024-05-29,2024-05-29,宣沢合同会社,,合同会社,大阪府,大阪市浪速区,敷津西１丁目１２番２１号アンビエス難波４０１号室,,27,111,5560015,,,,,,,2024-05-29,1,,,,,センタク,0
163,1120901049239,新規,0,2024-05-29,2024-05-29,株式会社岡本エンタープライズ,,株式会社,大阪府,豊中市,北条町１丁目２９番１０－１０１号,,27,203,5610812,,,,,,,2024-05-29,1,,,,,オカモトエンタープライズ,0
164,1120901049247,新規,0,2024-05-29,2024-05-29,株式会社６,,株式会社,大阪府,箕面市,粟生外院６丁目２番３３号（３０６号）,,27,220,5620025,,,,,,,2024-05-29,1,,,,,ロク,0
170,1130001077156,新規,0,2024-05-29,2024-05-29,株式会社禅,,株式会社,京都府,京都市上京区,一条通千本西入烏丸町３６３番地２,,26,102,6028332,,,,,,,2024-05-29,1,,,,,ゼン,0
178,1140003020625,新規,0,2024-05-29,2024-05-29,ＴＮＰ合同会社,,合同会社,兵庫県,姫路市,豊沢町１０５マンション外堀川１０６,,28,201,6700964,,,,,,,2024-05-29,1,,,,,ティーエヌピー,0
197,1180005020636,新規,0,2024-05-29,2024-05-29,一般社団法人リメイクプラン,,その他の設立登記法人,愛知県,名古屋市西区,名駅２丁目３４－１７セントラル名古屋内,,23,104,4510045,,,,,,,2024-05-29,1,,,,,リメイクプラン,0
203,1240001063285,新規,0,2024-05-29,2024-05-29,株式会社ＦＭＥ,,株式会社,広島県,広島市西区,己斐本町１丁目１５番１０号,,34,104,7330812,,,,,,,2024-05-29,1,,,,,エフエムイー,0
205,1240003006696,新規,0,2024-05-29,2024-05-29,合同会社ＶＩＯＬＡ,,合同会社,広島県,東広島市,黒瀬町南方８０４番地１,,34,212,7392503,,,,,,,2024-05-29,1,,,,,ビオラ,0
214,1290001105958,新規,0,2024-05-29,2024-05-29,Ｓｔａｒｔｕｐ　ｐａｒｔｎｅｒ株式会社,,株式会社,福岡県,福岡市西区,今宿駅前１丁目１５－１８マリブ今宿シーサイドテラス３Ｆ,,40,135,8190168,,,,,,,2024-05-29,1,,,,,スタートアップパートナー,0
215,1290001105966,新規,0,2024-05-29,2024-05-29,株式会社ＡＺＵ,,株式会社,福岡県,福岡市博多区,住吉２丁目１７番１３－６０７号,,40,132,8120018,,,,,,,2024-05-29,1,,,,,アズ,0
219,1290003015370,新規,0,2024-05-29,2024-05-29,合同会社ｓｅｏｎａ,,合同会社,福岡県,糸島市,高田３丁目８番９号,,40,230,8191102,,,,,,,2024-05-29,1,,,,,セオナ,0
220,1290003015379,新規,0,2024-05-29,2024-05-29,合同会社Ｓｕｎｍｉｌｅ,,合同会社,福岡県,福岡市中央区,長浜２丁目３－１８－７１５,,40,133,8100072,,,,,,,2024-05-29,1,,,,,サンマイル,0
223,1290801030604,新規,0,2024-05-29,2024-05-29,株式会社ヴィレッジ,,株式会社,福岡県,北九州市門司区,上馬寄１丁目８番１－１２０３号,,40,101,8000042,,,,,,,2024-05-29,1,,,,,ヴィレッジ,0
232,1350003004656,新規,0,2024-05-29,2024-05-29,合同会社ミヤビ,,合同会社,宮崎県,延岡市,昭和町１丁目１６－２,,45,203,8820034,,,,,,,2024-05-29,1,,,,,ミヤビ,0
233,1360003014019,新規,0,2024-05-29,2024-05-29,合同会社ｅ．アイディア,,合同会社,沖縄県,島尻郡南風原町,字宮平７４５番地１５,,47,350,9011104,,,,,,,2024-05-29,1,,,,,イーアイディア,0
251,1430003016379,新規,0,2024-05-29,2024-05-29,合同会社Ｍ　ｆｉｒｍ,,合同会社,北海道,札幌市白石区,東米里２５０２－１５,,01,104,0030876,,,,,,,2024-05-29,1,,,,,エムファーム,0
258,1470001020230,新規,0,2024-05-29,2024-05-29,株式会社イイナ工房,,株式会社,香川県,丸亀市,綾歌町富熊６０６番地,,37,202,7612407,,,,,,,2024-05-29,1,,,,,イイナコウボウ,0
262,1490001010782,新規,0,2024-05-29,2024-05-29,株式会社お役立ち,,株式会社,高知県,高知市,愛宕山１１４番地１０,,39,201,7800025,,,,,,,2024-05-29,1,,,,,オヤクダチ,0
265,1700150125673,新規,0,2024-05-29,2024-05-29,Ｈｅｎａｎ　ｓａｎｐｕ　ｋｅｊｉ　ｙｏｕｘｉａｎｇｏｎｇｓｉ,,外国会社等,,,,,,,,ｈａｎｇｈａｉｄｏｎｇｌｕ４６８ｈａｏ１ｈａｏｌｏｕ１０ｃｅｎｇ１０１４ｈａｏ　Ｇｕａｎｃｈｅｎｇｈｕｉｚｕｑｕ　Ｚｈｅｎｇｚｈｏｕ　ＨｅＮａｎ　４５００００　ＣＮ,,,,,,2024-05-29,1,,,,,ホーナンサンポーコージーヨウシエンゴンスー,0
270,2010001245236,新規,0,2024-05-29,2024-05-29,株式会社ＦＰ＆Ａラボ,,株式会社,東京都,中央区,月島１丁目２２―１―２１１２,,13,102,1040052,,,,,,,2024-05-29,1,,,,,エフピーアンドエーラボ,0
273,2010003043885,新規,0,2024-05-29,2024-05-29,Ｓｔｅｐ　Ｆｏｒｗａｒｄ合同会社,,合同会社,東京都,文京区,小日向３丁目１７番２号,,13,105,1120006,,,,,,,2024-05-29,1,,,,,ステップフォワード,0
284,2010401182582,新規,0,2024-05-29,2024-05-29,株式会社Ｒｅｕｓｓｉｒ,,株式会社,東京都,港区,新橋１丁目５番２号地下１階,,13,103,1050004,,,,,,,2024-05-29,1,,,,,レユシール,0
287,2010503007464,新規,0,2024-05-29,2024-05-29,合同会社ＫＤＭＭ,,合同会社,東京都,台東区,日本堤２丁目９番１１－５０１号トワイズコート三ノ輪,,13,106,1110021,,,,,,,2024-05-29,1,,,,,ケーディーエムエム,0
293,2010701046066,新規,0,2024-05-29,2024-05-29,アフリカ物産貿易株式会社,,株式会社,東京都,品川区,大崎２丁目９番２－３７０１号,,13,109,1410032,,,,,,,2024-05-29,1,,,,,アフリカブッサンボウエキ,0
294,2010801035092,新規,0,2024-05-29,2024-05-29,英商会株式会社,,株式会社,東京都,大田区,池上７丁目２番７号,,13,111,1460082,,,,,,,2024-05-29,1,,,,,エイショウカイ,0
298,2010901055362,新規,0,2024-05-29,2024-05-29,株式会社ＤＥＶＸ,,株式会社,東京都,世田谷区,豪徳寺１丁目９－１１,,13,112,1540021,,,,,,,2024-05-29,1,,,,,デブエックス,0
303,2011001162198,新規,0,2024-05-29,2024-05-29,ＧｏｏｄＴｈｉｎｋｅｒ株式会社,,株式会社,東京都,渋谷区,渋谷２丁目１９－１５宮益坂ビルディング６０９,,13,113,1500002,,,,,,,2024-05-29,1,,,,,グッドシンカー,0
304,2011001162215,新規,0,2024-05-29,2024-05-29,株式会社ＰＧコミュニケーションズ,,株式会社,東京都,渋谷区,富ヶ谷１丁目１４番１４号３階・４階,,13,113,1510063,,,,,,,2024-05-29,1,,,,,ピージーコミュニケーションズ,0
309,2011101107474,新規,0,2024-05-29,2024-05-29,株式会社日本ヒューマンサポート,,株式会社,東京都,新宿区,下宮比町１番４号,,13,104,1620822,,,,,,,2024-05-29,1,,,,,ニホンヒューマンサポート,0
312,2011501030730,新規,0,2024-05-29,2024-05-29,株式会社ＴＯＴＡＬ‐Ｃ,,株式会社,東京都,北区,王子２丁目２７番７－５０２号,,13,117,1140002,,,,,,,2024-05-29,1,,,,,トータルシー,0
316,2011601027791,新規,0,2024-05-29,2024-05-29,株式会社はないち,,株式会社,東京都,練馬区,谷原５丁目１７番１号,,13,120,1770032,,,,,,,2024-05-29,1,,,,,ハナイチ,0
319,2012301013933,新規,0,2024-05-29,2024-05-29,株式会社ＮＡＢＵＲＡＵＣＨＩ,,株式会社,東京都,町田市,能ヶ谷６丁目２０番１２号,,13,209,1950053,,,,,,,2024-05-29,1,,,,,ナブラウチ,0
323,2012403006587,新規,0,2024-05-29,2024-05-29,デジアト合同会社,,合同会社,東京都,小金井市,中町五丁目２６－１３,,13,210,1840000,,,,,,,2024-05-29,1,,,,,デジアト,0
339,2020001157455,新規,0,2024-05-29,2024-05-29,株式会社ＥＮＩＴＹ,,株式会社,神奈川県,川崎市多摩区,宿河原４丁目２１番１３－７０５号,,14,135,2140021,,,,,,,2024-05-29,1,,,,,エニティ,0
340,2020001157463,新規,0,2024-05-29,2024-05-29,株式会社Ａｔａｒａｊｉ,,株式会社,神奈川県,川崎市多摩区,生田８丁目３－４ピエールリヴィエールＩＩ２０１,00134940,14,135,2140038,,,,,,,2024-05-29,1,,,,,アタラジ,0
341,2020001157471,新規,0,2024-05-29,2024-05-29,株式会社Ｔｒｅａｓｕｒｅ,,株式会社,神奈川県,横浜市金沢区,釜利谷東３丁目２番３８号,,14,108,2360042,,,,,,,2024-05-29,1,,,,,トレジャー,0
343,2020003026229,新規,0,2024-05-29,2024-05-29,合同会社ＭａｓＴａｎＧ,,合同会社,神奈川県,横浜市中区,小港町１丁目６番地３アール・ケープラザ本牧１０２,,14,104,2310802,,,,,,,2024-05-29,1,,,,,マスタング,0
350,2030001160549,新規,0,2024-05-29,2024-05-29,株式会社ＡＣＥ,,株式会社,埼玉県,入間市,春日町１丁目１４番７号リバーサイド２０４,,11,225,3580006,,,,,,,2024-05-29,1,,,,,エース,0
353,2030003024396,新規,0,2024-05-29,2024-05-29,合同会社ローズマリー倶楽部,,合同会社,埼玉県,さいたま市北区,日進町２丁目１４８５－１,,11,102,3310823,,,,,,,2024-05-29,1,,,,,ローズマリークラブ,0
360,2040001133792,新規,0,2024-05-29,2024-05-29,株式会社咲楽,,株式会社,千葉県,館山市,八幡５００番地の１,,12,205,2940047,,,,,,,2024-05-29,1,,,,,サクラ,0
366,2040003024924,新規,0,2024-05-29,2024-05-29,合同会社ＨＡＲＵ,,合同会社,千葉県,野田市,目吹２５３７－１０９,,12,208,2780001,,,,,,,2024-05-29,1,,,,,ハル,0
367,2040003025088,新規,0,2024-05-29,2024-05-29,プラスアール合同会社,,合同会社,千葉県,松戸市,八ケ崎５丁目３２番地の３４,,12,207,2700023,,,,,,,2024-05-29,1,,,,,プラスアール,0
371,2060001037141,新規,0,2024-05-29,2024-05-29,ＦＤＣ株式会社,,株式会社,栃木県,芳賀郡芳賀町,大字芳志戸２２７７番地４,,09,345,3213305,,,,,,,2024-05-29,1,,,,,エフディーシー,0
374,2060003005096,新規,0,2024-05-29,2024-05-29,合同会社ＥＭ岩渕,,合同会社,栃木県,宇都宮市,竹林町５６６番地２,,09,201,3210974,,,,,,,2024-05-29,1,,,,,イーエムイワブチ,0
380,2100001037491,新規,0,2024-05-29,2024-05-29,株式会社ひがし電設,,株式会社,長野県,下伊那郡阿南町,新野１４６７－１,,20,404,3991612,,,,,,,2024-05-29,1,,,,,ヒガシデンセツ,0
383,2100003007575,新規,0,2024-05-29,2024-05-29,合同会社天籟貿易,,合同会社,長野県,松本市,女鳥羽３丁目６番１０号,,20,202,3900806,,,,,,,2024-05-29,1,,,,,テンライボウエキ,0
384,2110001038448,新規,0,2024-05-29,2024-05-29,株式会社Ｅｎｔｅｒｔａｉｎ．ｇ,,株式会社,新潟県,新潟市東区,竹尾７１０番地１,,15,102,9500862,,,,,,,2024-05-29,1,,,,,エンターテイング,0
397,2120001265396,新規,0,2024-05-29,2024-05-29,株式会社エクスタード,,株式会社,大阪府,大阪市西区,北堀江１丁目２１番１２－６０１号,,27,106,5500014,,,,,,,2024-05-29,1,,,,,エクスタード,0
398,2120001265405,新規,0,2024-05-29,2024-05-29,株式会社三宝,,株式会社,大阪府,大阪市阿倍野区,天王寺町北２丁目３１番２４,,27,119,5450001,,,,,,,2024-05-29,1,,,,,サンポウ,0
399,2120003026706,新規,0,2024-05-29,2024-05-29,合同会社イーストアップ,,合同会社,大阪府,大阪市平野区,喜連１丁目２番２号,,27,126,5470027,,,,,,,2024-05-29,1,,,,,イーストアップ,0
400,2120901049238,新規,0,2024-05-29,2024-05-29,株式会社ＲＡＹ,,株式会社,大阪府,高槻市,赤大路町１９番２号,,27,207,5691146,,,,,,,2024-05-29,1,,,,,レイ,0
401,2120901049246,新規,0,2024-05-29,2024-05-29,ＩＴＯ総合建築株式会社,,株式会社,大阪府,豊中市,新千里南町２丁目５番６－２０１号,,27,203,5600084,,,,,,,2024-05-29,1,,,,,アイティオーソウゴウケンチク,0
406,2130001077139,新規,0,2024-05-29,2024-05-29,大慧株式会社,,株式会社,京都府,京都市左京区,吉田中大路町ジュアール吉田２２－２０１号室,,26,103,6068313,,,,,,,2024-05-29,1,,,,,ダイエ,0
407,2130001077147,新規,0,2024-05-29,2024-05-29,株式会社スマート,,株式会社,京都府,京都市右京区,梅津東構口町２８－１,,26,108,6150914,,,,,,,2024-05-29,1,,,,,スマート,0
416,2140001134566,新規,0,2024-05-29,2024-05-29,株式会社Ｌｉｇｈｔ,,株式会社,兵庫県,姫路市,十二所前町５クリスタルビル７階,,28,201,6700911,,,,,,,2024-05-29,1,,,,,ライト,0
417,2140001134590,新規,0,2024-05-29,2024-05-29,株式会社ＡＴＥＣ,,株式会社,兵庫県,神戸市中央区,布引町３丁目１番１５号３Ｆ,,28,110,6510097,,,,,,,2024-05-29,1,,,,,エーテック,0
419,2140003020624,新規,0,2024-05-29,2024-05-29,よろず屋みんなの生活護り隊合同会社,,合同会社,兵庫県,尼崎市,東園田町２丁目９４番地の８,,28,202,6610953,,,,,,,2024-05-29,1,,,,,ヨロズヤミンナノセイカツマモリタイ,0
433,2180001161400,新規,0,2024-05-29,2024-05-29,株式会社ＥＵＳＴＯＭＡ,,株式会社,愛知県,名古屋市中村区,名駅４丁目２４番５号第２森ビル４０１,,23,105,4500002,,,,,,,2024-05-29,1,,,,,ユーストマ,0
434,2180001161689,新規,0,2024-05-29,2024-05-29,株式会社Ｔーｂｒｉｇｈｔ,,株式会社,愛知県,あま市,甚目寺須原２７番地３,,23,237,4901111,,,,,,,2024-05-29,1,,,,,ティーブライト,0
437,2180003026849,新規,0,2024-05-29,2024-05-29,合同会社ディーアイエイシー,,合同会社,愛知県,名古屋市緑区,桶狭間巻山１３０３番地,,23,114,4580920,,,,,,,2024-05-29,1,,,,,ディーアイエイシー,0
442,2230003002217,新規,0,2024-05-29,2024-05-29,合同会社ディーケー,,合同会社,富山県,富山市,羽根６８番地,,16,201,9300864,,,,,,,2024-05-29,1,,,,,ディーケー,0
445,2240003006687,新規,0,2024-05-29,2024-05-29,プレシャス合同会社,,合同会社,広島県,広島市中区,竹屋町４番１２－２０２号,,34,101,7300048,,,,,,,2024-05-29,1,,,,,プレシャス,0
446,2240003006695,新規,0,2024-05-29,2024-05-29,合同会社あさひ,,合同会社,広島県,福山市,駅家町万能倉４１６－２－２０１,,34,207,7210000,,,,,,,2024-05-29,1,,,,,アサヒ,0
451,2250003003510,新規,0,2024-05-29,2024-05-29,合同会社かぐら,,合同会社,山口県,萩市,大字佐々並１８７３番地,,35,204,7530101,,,,,,,2024-05-29,1,,,,,カグラ,0
461,2290001105973,新規,0,2024-05-29,2024-05-29,株式会社アンカー,,株式会社,福岡県,福岡市南区,大橋４丁目１４番３－５０１号アクセス大橋,,40,134,8150033,,,,,,,2024-05-29,1,,,,,アンカー,0
466,2320001020491,新規,0,2024-05-29,2024-05-29,株式会社ＡＲＴＹ,,株式会社,大分県,大分市,上宗方南１丁目２番４２号日生ロイヤルマンション３０５,,44,201,8701167,,,,,,,2024-05-29,1,,,,,アーティ,0
472,2360003014018,新規,0,2024-05-29,2024-05-29,合同会社ゼアッタ,,合同会社,沖縄県,うるま市,石川２丁目１９番１２号１Ｆ,,47,213,9041106,,,,,,,2024-05-29,1,,,,,ゼアッタ,0
474,2360005007044,新規,0,2024-05-29,2024-05-29,一般社団法人北中ファーム,,その他の設立登記法人,沖縄県,中頭郡北中城村,字比嘉１５９番地,,47,327,9012305,,,,,,,2024-05-29,1,,,,,キタナカファーム,0
483,2430001091893,新規,0,2024-05-29,2024-05-29,ＴＫ不動産株式会社,,株式会社,北海道,札幌市北区,百合が原７丁目８番１０号,,01,102,0028081,,,,,,,2024-05-29,1,,,,,ティーケーフドウサン,0
484,2430003016378,新規,0,2024-05-29,2024-05-29,合同会社孝志,,合同会社,北海道,札幌市白石区,北郷六条４丁目５－２８－４０２,,01,104,0030836,,,,,,,2024-05-29,1,,,,,コウシ,0
493,2490001010781,新規,0,2024-05-29,2024-05-29,株式会社大福工業,,株式会社,高知県,高知市,朝倉甲５８番地１,,39,201,7808061,,,,,,,2024-05-29,1,,,,,ダイフクコウギョウ,0
495,2700150122133,新規,0,2024-05-29,2024-05-29,ＥＺ　ＤＵＰＥ　ＩＮＣ．,,外国会社等,,,,,,,,２Ｆ．，Ｎｏ．７，Ｋｅｊｉ　１ｓｔ　Ｒｄ．，Ａｎｎａｎ　Ｄｉｓｔ．Ｔａｉｎａｎ　Ｃｉｔｙ，７０９５５，ＴＷ,,,,,,2024-05-29,1,,,,,リルゥコァジグゥフェンヨウシエンゴンス,0
496,2700150125656,新規,0,2024-05-29,2024-05-29,ＩＮＡＺＡＷＡ　ＭＯＴＯＲＳ　ＰＶＴ　ＬＴＤ,,外国会社等,千葉県,山武市,上横地３１７６番地５Ｃ,,12,237,2891313,スリランカ民主社会主義共和国、キャンディ、バトゥゴダ、バムヌポラ、Ｎｏ．１９３,,,,,,2024-05-29,1,,,,,イナザワモータースプライベートリミテツド,0
497,2700150125664,新規,0,2024-05-29,2024-05-29,南足柄市壗下竹松北土地区画整理組合,,その他,神奈川県,南足柄市,狩野８２番地１,,14,217,2500126,,,,,,,2024-05-29,1,,,,,ミナミアシガラシママシタタケマツキタトチクカクセイリクミアイ,0
498,2700150125672,新規,0,2024-05-29,2024-05-29,Ｇｕａｎｇｚｈｏｕ　Ｊｕｎｋａｉ　Ｔｒａｄｉｎｇ　Ｃｏ．，Ｌｔｄ,,外国会社等,,,,,,,,１８１０　Ｒｏｏｍ　２０９，Ｏｎｅ　ｏｆ　Ｎｏ．１２　Ｙｉｎｌｉ　Ｓｔｒｅｅｔ，Ｓｈａｔａｉ　Ｒｏａｄ，Ｔｉａｎｈｅ　Ｄｉｓｔｒｉｃｔ，Ｇｕａｎｇｚｈｏｕ,,,,,,2024-05-29,1,,,,,グワンジョウジンカイマオイーヨウシエンゴンスー,0
508,3010001245185,新規,0,2024-05-29,2024-05-29,株式会社Ｓｕｎｌｉｇｈｔ　Ｊａｐａｎ,,株式会社,東京都,中央区,銀座１丁目１２番４号,,13,102,1040061,,,,,,,2024-05-29,1,,,,,サンライトジャパン,0
509,3010001245243,新規,0,2024-05-29,2024-05-29,三和クリエント株式会社,,株式会社,東京都,千代田区,丸の内１丁目８番３号丸の内トラストタワー本館２０階,,13,101,1000005,,,,,,,2024-05-29,1,,,,,サンワクリエント,0
512,3010003043777,新規,0,2024-05-29,2024-05-29,ＦＴＫ合同会社,,合同会社,東京都,中央区,日本橋２丁目１０番１２号プレリー日本橋ビル９Ｆ,,13,102,1030027,,,,,,,2024-05-29,1,,,,,エフティケー,0
519,3010401182771,新規,0,2024-05-29,2024-05-29,ＮＨＮアイカメ株式会社,,株式会社,東京都,港区,西新橋３丁目１番８号,,13,103,1050003,,,,,,,2024-05-29,1,,,,,エヌエイチエヌアイカメ,0
520,3010401182788,新規,0,2024-05-29,2024-05-29,株式会社Ｎ　ｉｎｖｅｓｔｍｅｎｔｓ,,株式会社,東京都,港区,海岸３丁目１８番２号ピアシティ芝浦ハイツ１５０４,,13,103,1080022,,,,,,,2024-05-29,1,,,,,エヌインベストメンツ,0
521,3010401182805,新規,0,2024-05-29,2024-05-29,バク株式会社,,株式会社,東京都,港区,浜松町２丁目２番１５号浜松町ダイヤビル２Ｆ,,13,103,1050013,,,,,,,2024-05-29,1,,,,,バク,0
523,3010403032693,新規,0,2024-05-29,2024-05-29,富士高資産管理合同会社,,合同会社,東京都,港区,浜松町１丁目１３－２－２００７,,13,103,1050013,,,,,,,2024-05-29,1,,,,,フジタカシサンカンリ,0
532,3010701046065,新規,0,2024-05-29,2024-05-29,株式会社ＯＮＥ,,株式会社,東京都,品川区,豊町３丁目７番６号メゾン・ド・ラペ２０３,,13,109,1420042,,,,,,,2024-05-29,1,,,,,ワン,0
542,3011001162214,新規,0,2024-05-29,2024-05-29,株式会社ライブナウＶ,,株式会社,東京都,渋谷区,千駄ヶ谷３丁目１６－３,,13,113,1510051,,,,,,,2024-05-29,1,,,,,ライブナウブイ,0
547,3011003019197,新規,0,2024-05-29,2024-05-29,合同会社ＵｎｉｔｅＴＱ,,合同会社,東京都,渋谷区,神宮前６丁目２３番４号桑野ビル２階,,13,113,1500001,,,,,,,2024-05-29,1,,,,,ユナイトティーキュー,0
551,3011101107473,新規,0,2024-05-29,2024-05-29,エンハンス・グローバル・コミュニケーション株式会社,,株式会社,東京都,新宿区,西新宿３丁目２番９号新宿ワシントンホテルビル本館２階,,13,104,1600023,,,,,,,2024-05-29,1,,,,,エンハンスグローバルコミュニケーション,0
553,3011105011044,新規,0,2024-05-29,2024-05-29,一般社団法人シャホマド,,その他の設立登記法人,東京都,新宿区,高田馬場２丁目１７番３号東京三協信用金庫本店ビル６Ｆ,,13,104,1690075,,,,,,,2024-05-29,1,,,,,シャホマド,0
555,3011503006083,新規,0,2024-05-29,2024-05-29,合同会社ラージ,,合同会社,東京都,北区,岸町２丁目４－７トーキョーベータ東十条４－２０１,,13,117,1140021,,,,,,,2024-05-29,1,,,,,ラージ,0
557,3011801044280,新規,0,2024-05-29,2024-05-29,株式会社家合,,株式会社,東京都,足立区,平野３丁目１９－２０,,13,121,1210076,,,,,,,2024-05-29,1,,,,,ヤゴウ,0
560,3012301013932,新規,0,2024-05-29,2024-05-29,株式会社正木商店,,株式会社,東京都,町田市,能ヶ谷５丁目３４番１号,,13,209,1950053,,,,,,,2024-05-29,1,,,,,マサキショウテン,0
562,3012403006586,新規,0,2024-05-29,2024-05-29,合同会社ガオガオエナジー,,合同会社,東京都,小金井市,東町５丁目３０番１号,,13,210,1840011,,,,,,,2024-05-29,1,,,,,ガオガオエナジー,0
575,3020001157454,新規,0,2024-05-29,2024-05-29,株式会社ＨＳＭ,,株式会社,神奈川県,横浜市西区,元久保町７番３４号,,14,103,2200063,,,,,,,2024-05-29,1,,,,,エイチエスエム,0
576,3020001157487,新規,0,2024-05-29,2024-05-29,株式会社ｅａｕ,,株式会社,神奈川県,川崎市宮前区,土橋２丁目８－３－５０５,,14,136,2160005,,,,,,,2024-05-29,1,,,,,オー,0
579,3020003026228,新規,0,2024-05-29,2024-05-29,合同会社ｎｏ　ｗｈｅｒｅ,,合同会社,神奈川県,横浜市神奈川区,西寺尾２丁目４１寺尾台キャッスル１０１号室,,14,102,2210001,,,,,,,2024-05-29,1,,,,,ノーウェアー,0
581,3021001082337,新規,0,2024-05-29,2024-05-29,株式会社マハロ,,株式会社,神奈川県,横須賀市,根岸町３丁目３番１６号,,14,201,2390807,,,,,,,2024-05-29,1,,,,,マハロ,0
584,3021003014569,新規,0,2024-05-29,2024-05-29,堀田商店合同会社,,合同会社,神奈川県,鎌倉市,笛田３丁目１３番１号,,14,204,2480027,,,,,,,2024-05-29,1,,,,,ホッタショウテン,0
593,3030003024387,新規,0,2024-05-29,2024-05-29,永立興業合同会社,,合同会社,埼玉県,所沢市,大字荒幡５１２－３,,11,208,3591133,,,,,,,2024-05-29,1,,,,,エイリツコウギョウ,0
594,3030005021713,新規,0,2024-05-29,2024-05-29,一般社団法人あいぷらす,,その他の設立登記法人,埼玉県,川越市,大字笠幡３５０９番地２,,11,201,3501175,,,,,,,2024-05-29,1,,,,,アイプラス,0
598,3040001133791,新規,0,2024-05-29,2024-05-29,ｎｅｘｔｈｏｍｅ株式会社,,株式会社,千葉県,市川市,鬼越１丁目２番１号大和ビル２０３号室,,12,203,2720022,,,,,,,2024-05-29,1,,,,,ネクストホーム,0
599,3040001133800,新規,0,2024-05-29,2024-05-29,Ｓａｙ　Ｉｎｔｅｒｎａｔｉｏｎａｌ株式会社,,株式会社,千葉県,柏市,根戸２１７－１,,12,217,2770831,,,,,,,2024-05-29,1,,,,,セイインターナショナル,0
603,3040003025087,新規,0,2024-05-29,2024-05-29,合同会社ＳＰＩＲＩＴ,,合同会社,千葉県,千葉市中央区,本千葉町３－７－１１０３号室,,12,101,2600014,,,,,,,2024-05-29,1,,,,,スピリット,0
613,3070001041793,新規,0,2024-05-29,2024-05-29,株式会社光進建設,,株式会社,群馬県,伊勢崎市,境女塚２１番地２,,10,204,3700121,,,,,,,2024-05-29,1,,,,,コウシンケンセツ,0
616,3080003003213,新規,0,2024-05-29,2024-05-29,アテコップ合同会社,,合同会社,静岡県,藤枝市,岡部町三輪８９８番地の４,,22,214,4211132,,,,,,,2024-05-29,1,,,,,アテコップ,0
617,3080103003063,新規,0,2024-05-29,2024-05-29,ＥＣオンライン合同会社,,合同会社,静岡県,沼津市,根古屋１４３－１０サンテラザＦ号,,22,203,4100309,,,,,,,2024-05-29,1,,,,,イーシーオンライン,0
622,3100003007574,新規,0,2024-05-29,2024-05-29,合同会社ＧｏａｎｄＤｏ,,合同会社,長野県,長野市,金井田３２プラザＭ３階,,20,201,3812222,,,,,,,2024-05-29,1,,,,,ゴーアンドドゥー,0
630,3120001265362,新規,0,2024-05-29,2024-05-29,株式会社ＪＲＳ,,株式会社,大阪府,大阪市浪速区,大国１丁目２番２５－５０２号,,27,111,5560014,,,,,,,2024-05-29,1,,,,,ジェイアールエス,0
633,3120003026705,新規,0,2024-05-29,2024-05-29,合同会社エメラルドケーブ,,合同会社,大阪府,大阪市北区,万歳町４番１２号６０８,,27,127,5300028,,,,,,,2024-05-29,1,,,,,エメラルドケーブ,0
634,3120003026721,新規,0,2024-05-29,2024-05-29,共栄合同会社,,合同会社,大阪府,大阪市大正区,南恩加島２丁目１０－１９,,27,108,5510021,,,,,,,2024-05-29,1,,,,,キョウエイ,0
637,3120901049237,新規,0,2024-05-29,2024-05-29,株式会社ＡＯ‐ＡＫＵＡ,,株式会社,大阪府,高槻市,赤大路町１９番２号,,27,207,5691146,,,,,,,2024-05-29,1,,,,,アオアクア,0
640,3130001076965,新規,0,2024-05-29,2024-05-29,株式会社ＥＶＥＲＹＴＨＩＮＧ,,株式会社,京都府,京都市南区,西九条蔵王町１１,,26,107,6018414,,,,,,,2024-05-29,1,,,,,エブリシング,0
641,3130001077146,新規,0,2024-05-29,2024-05-29,株式会社吉岡工業,00134952,株式会社,京都府,八幡市,上津屋中堤１４３番地,,26,210,6148176,,,,,,,2024-05-29,1,,,,,ヨシオカコウギョウ,0
642,3130001077154,新規,0,2024-05-29,2024-05-29,集愛佳株式会社,,株式会社,京都府,京都市左京区,田中上柳町９５番地,,26,103,6068205,,,,,,,2024-05-29,1,,,,,シュウアイカ,0
646,3130003009601,新規,0,2024-05-29,2024-05-29,ハレルレコード合同会社,,合同会社,京都府,舞鶴市,森本町２８－９－１Ｆ,,26,202,6250067,,,,,,,2024-05-29,1,,,,,ハレルレコード,0
649,3140001134565,新規,0,2024-05-29,2024-05-29,株式会社フクシマ麺機,,株式会社,兵庫県,たつの市,新宮町北村３５１番地,,28,229,6794323,,,,,,,2024-05-29,1,,,,,フクシマメンキ,0
650,3140001134581,新規,0,2024-05-29,2024-05-29,株式会社スマフル,,株式会社,兵庫県,豊岡市,九日市下町２７７番地の３,,28,209,6680052,,,,,,,2024-05-29,1,,,,,スマフル,0
657,3170003002049,新規,0,2024-05-29,2024-05-29,ＥＶＥＮ合同会社,,合同会社,和歌山県,和歌山市,藤田３１番地１,,30,201,6496318,,,,,,,2024-05-29,1,,,,,イーブン,0
661,3180001161639,新規,0,2024-05-29,2024-05-29,株式会社いからす,,株式会社,愛知県,名古屋市中川区,露橋１丁目２１番１６号,,23,110,4540022,,,,,,,2024-05-29,1,,,,,イカラス,0
662,3180001161705,新規,0,2024-05-29,2024-05-29,Ｗコーポレーション株式会社,,株式会社,愛知県,名古屋市南区,道徳通２丁目５１道徳ビル２Ａ‐１号,,23,112,4570846,,,,,,,2024-05-29,1,,,,,ダブルコーポレーション,0
663,3180001161754,新規,0,2024-05-29,2024-05-29,株式会社勇,,株式会社,愛知県,東海市,名和町一番割中６３番地３,,23,222,4760002,,,,,,,2024-05-29,1,,,,,イサミ,0
667,3180301038677,新規,0,2024-05-29,2024-05-29,株式会社ＲｉｂｏＮ,,株式会社,愛知県,安城市,姫小川町遠見塚１３３番地２３,,23,212,4441161,,,,,,,2024-05-29,1,,,,,リボン,0
677,3240001063218,新規,0,2024-05-29,2024-05-29,株式会社ＤｅｅｐＢＯＮＤ,,株式会社,広島県,広島市中区,新天地１番３号５階,,34,101,7300034,,,,,,,2024-05-29,1,,,,,ディープボンド,0
678,3240001063291,新規,0,2024-05-29,2024-05-29,エスケー工業株式会社,,株式会社,広島県,広島市西区,横川町２丁目１３番２号,,34,104,7330011,,,,,,,2024-05-29,1,,,,,エスケーコウギョウ,0
679,3240003006694,新規,0,2024-05-29,2024-05-29,オリナス・プラス合同会社,,合同会社,広島県,広島市中区,大手町１丁目１番２６号大手町一番ビル３０５,,34,101,7300051,,,,,,,2024-05-29,1,,,,,オリナスプラス,0
704,3290801030602,新規,0,2024-05-29,2024-05-29,株式会社Ｌｉａｎａｔｉｏｎ,,株式会社,福岡県,北九州市小倉南区,長野１丁目１３７６番地１,,40,107,8000228,,,,,,,2024-05-29,1,,,,,リアネーション,0
706,3300001013752,新規,0,2024-05-29,2024-05-29,株式会社心味給食,,株式会社,佐賀県,佐賀市,神園４丁目７番１５号エクセル神園２０２,,41,201,8400806,,,,,,,2024-05-29,1,,,,,ココミキュウショク,0
707,3300003002126,新規,0,2024-05-29,2024-05-29,ＴＤＣ合同会社,,合同会社,佐賀県,鳥栖市,田代本町１２００番地６,,41,203,8410018,,,,,,,2024-05-29,1,,,,,ティーディーシー,0
711,3330001032106,新規,0,2024-05-29,2024-05-29,株式会社エフエルジャパン,,株式会社,熊本県,山鹿市,鹿本町大字津袋６９番地,,43,208,8610500,,,,,,,2024-05-29,1,,,,,エフエルジャパン,0
736,3430001091810,新規,0,2024-05-29,2024-05-29,株式会社ビトヱ,,株式会社,北海道,札幌市中央区,南五条西１５丁目２－３　５０３号室,,01,101,0640805,,,,,,,2024-05-29,1,,,,,ビトエ,0
739,3460101007556,新規,0,2024-05-29,2024-05-29,株式会社サポートサービス,,株式会社,北海道,河東郡音更町,南鈴蘭北２丁目４番地３２,,01,631,0800311,,,,,,,2024-05-29,1,,,,,サポートサービス,0
741,3470001020229,新規,0,2024-05-29,2024-05-29,ブライト株式会社,,株式会社,香川県,高松市,郷東町５８７番地１７８,,37,201,7618031,,,,,,,2024-05-29,1,,,,,ブライト,0
743,3500001025653,新規,0,2024-05-29,2024-05-29,株式会社テンセイシンジュ,,株式会社,愛媛県,宇和島市,津島町成２３０番地２,,38,203,7983333,,,,,,,2024-05-29,1,,,,,テンセイシンジュ,0
746,3700150125671,新規,0,2024-05-29,2024-05-29,ＣｈａｎｇＳｈａＸｉｎＹｕｅ　Ｔｒａｄｉｎｇ　Ｃｏ．，Ｌｔｄ．,,外国会社等,,,,,,,,ｗａｎｊｉａｌｉｚｈｏｎｇｌｕｓａｎｄｕａｎ３６ｈａｏｘｉｙｉｎｇｍｅｎｓｈａｎｇｙｅｇｕａｎｇｃｈａｎｇ４，５，７ｄｏｎｇ１１３１,,,,,,2024-05-29,1,,,,,ジャンシャーシンユエシャンマオヨウシエンゴンスー,0
761,4010401182762,新規,0,2024-05-29,2024-05-29,株式会社東山,,株式会社,東京都,港区,新橋２丁目２番３号４階,,13,103,1050004,,,,,,,2024-05-29,1,,,,,ヒガシヤマ,0
762,4010401182770,新規,0,2024-05-29,2024-05-29,ＧＲＥＥＮＶＯＬＴ　ＰＯＷＥＲ　ＡＳＩＡ株式会社,,株式会社,東京都,港区,六本木３丁目１６番２６号,,13,103,1060032,,,,,,,2024-05-29,1,,,,,グリーンボルトパワーアジア,0
763,4010403032692,新規,0,2024-05-29,2024-05-29,ＲＥＰＬＩＣＡＳ合同会社,,合同会社,東京都,港区,南青山２丁目２－１５,,13,103,1070062,,,,,,,2024-05-29,1,,,,,レプリカス,0
764,4010403032718,新規,0,2024-05-29,2024-05-29,合同会社嶋田企画,,合同会社,東京都,港区,白金台２丁目９番１２－６０３号,,13,103,1080071,,,,,,,2024-05-29,1,,,,,シマダキカク,0
765,4010403032726,新規,0,2024-05-29,2024-05-29,ブラウン中島合同会社,,合同会社,東京都,港区,南青山４丁目１５番１６－２０２号,,13,103,1070062,,,,,,,2024-05-29,1,,,,,ブラウンナカジマ,0
768,4010501052353,新規,0,2024-05-29,2024-05-29,株式会社ラフテル,,株式会社,東京都,台東区,浅草橋２丁目８番６－７０２号シーアイマンション浅草橋,,13,106,1110053,,,,,,,2024-05-29,1,,,,,ラフテル,0
779,4010801035090,新規,0,2024-05-29,2024-05-29,ＰＭ　Ｅｎｔｅｒｐｒｉｓｅ株式会社,,株式会社,東京都,大田区,田園調布４丁目３５番７号,,13,111,1450071,,,,,,,2024-05-29,1,,,,,ピーエムエンタープライズ,0
794,4011001162196,新規,0,2024-05-29,2024-05-29,株式会社ＫＡＧＡＹＡプロモーション,,株式会社,東京都,渋谷区,渋谷２丁目１９－１５宮益坂ビルディング６０９,,13,113,1500002,,,,,,,2024-05-29,1,,,,,カガヤプロモーション,0
796,4011003019221,新規,0,2024-05-29,2024-05-29,合同会社ＳＯＷ,,合同会社,東京都,目黒区,柿の木坂１丁目６番６号柿の木坂音羽ハイツ１０１,,13,110,1520022,,,,,,,2024-05-29,1,,,,,ソウ,0
798,4011101107349,新規,0,2024-05-29,2024-05-29,株式会社ｉＭＡＴＯＵ,,株式会社,東京都,新宿区,西新宿５丁目５番１－３２１０号,,13,104,1600023,,,,,,,2024-05-29,1,,,,,アイマトウ,0
799,4011101107472,新規,0,2024-05-29,2024-05-29,ＡＮＯＴＨＥＲＴＥＡＭ株式会社,,株式会社,東京都,新宿区,新宿２丁目９－２２多摩川新宿ビル３Ｆ,,13,104,1600022,,,,,,,2024-05-29,1,,,,,アナザーチーム,0
807,4011501030729,新規,0,2024-05-29,2024-05-29,株式会社Ｌ＆Ｊ,,株式会社,東京都,北区,赤羽１丁目３９番５号３Ｆ,,13,117,1150045,,,,,,,2024-05-29,1,,,,,エルアンドジェイ,0
814,4012403006585,新規,0,2024-05-29,2024-05-29,有高合同会社,,合同会社,東京都,三鷹市,井の頭３丁目１４番４号‐１,,13,204,1810001,,,,,,,2024-05-29,1,,,,,ユタカ,0
824,4020001157461,新規,0,2024-05-29,2024-05-29,株式会社アクトワン,,株式会社,神奈川県,横浜市中区,赤門町１丁目７番地１－６０２号室,,14,104,2310051,,,,,,,2024-05-29,1,,,,,アクトワン,0
830,4021001082336,新規,0,2024-05-29,2024-05-29,株式会社サンファミリー,,株式会社,神奈川県,伊勢原市,上粕屋２１７番地の１,,14,214,2591141,,,,,,,2024-05-29,1,,,,,サンファミリー,0
831,4021001082352,新規,0,2024-05-29,2024-05-29,相続専門コンサルティング株式会社,,株式会社,神奈川県,藤沢市,鵠沼橘１丁目１番７号門倉ビル３・５階２号室,,14,205,2510024,,,,,,,2024-05-29,1,,,,,ソウゾクセンモンコンサルティング,0
840,4030003024386,新規,0,2024-05-29,2024-05-29,ＸＵＡＮ　ＫＨＡＮＨ合同会社,,合同会社,埼玉県,さいたま市南区,辻７丁目５番１８－１０９号,00134941,11,108,3360026,,,,,,,2024-05-29,1,,,,,スアンカン,0
841,4030003024403,新規,0,2024-05-29,2024-05-29,ＮＫＧ合同会社,,合同会社,埼玉県,川口市,大字赤井１１８４番地の１２,,11,203,3340073,,,,,,,2024-05-29,1,,,,,エヌケージー,0
842,4040001133774,新規,0,2024-05-29,2024-05-29,Ｚｏｔｈ　Ｒｅｎｔａｌ株式会社,,株式会社,千葉県,佐倉市,臼井台２１－１,,12,212,2850866,,,,,,,2024-05-29,1,,,,,ゾウレンタル,0
843,4040003025078,新規,0,2024-05-29,2024-05-29,合同会社南房総ロケーションサービス,,合同会社,千葉県,館山市,高井９５０番地,,12,205,2940041,,,,,,,2024-05-29,1,,,,,ミナミボウソウロケーションサービス,0
845,4050001054838,新規,0,2024-05-29,2024-05-29,株式会社特便ジャパン,,株式会社,茨城県,ひたちなか市,大字田彦１０９０番地７竹林コーポ１０３号,,08,221,3120063,,,,,,,2024-05-29,1,,,,,トクビンジャパン,0
850,4070001041784,新規,0,2024-05-29,2024-05-29,株式会社Ｌａｉｔ　ｆｉｌｍ,,株式会社,群馬県,北群馬郡吉岡町,大字南下１３７５番地８,,10,345,3703604,,,,,,,2024-05-29,1,,,,,レフィルム,0
854,4080103003070,新規,0,2024-05-29,2024-05-29,合同会社ＳＰＩＣＹ　ＣＵＲＲＹ　ＨＯＵＳＥ,,合同会社,静岡県,富士市,比奈８６１番地３,,22,210,4170847,,,,,,,2024-05-29,1,,,,,スパイシーカレーハウス,0
860,4100001037481,新規,0,2024-05-29,2024-05-29,株式会社ローズスピリッツ,,株式会社,長野県,北佐久郡軽井沢町,大字長倉２７３８番地１２Ｃ,,20,321,3890111,,,,,,,2024-05-29,1,,,,,ローズスピリッツ,0
861,4100001037498,新規,0,2024-05-29,2024-05-29,株式会社風土リンク,,株式会社,長野県,長野市,篠ノ井東福寺１４２０番地,,20,201,3888002,,,,,,,2024-05-29,1,,,,,フウドリンク,0
862,4100003007573,新規,0,2024-05-29,2024-05-29,合同会社ＡＳＭＯＴＯＲＳ,,合同会社,長野県,小諸市,丙６２５番地６９,,20,208,3840803,,,,,,,2024-05-29,1,,,,,エーエスモーターズ,0
863,4100003007581,新規,0,2024-05-29,2024-05-29,ルクセラ合同会社,,合同会社,長野県,安曇野市,穂高有明７６９０番地６,,20,220,3998301,,,,,,,2024-05-29,1,,,,,ルクセラ,0
874,4120001265213,新規,0,2024-05-29,2024-05-29,恒達株式会社,,株式会社,大阪府,大阪市生野区,新今里４丁目１０－６十全ビル２０１室,,27,116,5440001,,,,,,,2024-05-29,1,,,,,コウタツ,0
875,4120001265394,新規,0,2024-05-29,2024-05-29,株式会社ビズシスト,,株式会社,大阪府,大阪市浪速区,恵美須西１丁目２－５,,27,111,5560003,,,,,,,2024-05-29,1,,,,,ビズシスト,0
876,4120001265411,新規,0,2024-05-29,2024-05-29,ＫＭＥ株式会社,,株式会社,大阪府,大阪市西成区,天下茶屋東１丁目５番２１号,,27,122,5570011,,,,,,,2024-05-29,1,,,,,ケイエムイー,0
879,4120003026712,新規,0,2024-05-29,2024-05-29,Ｄｅｂｕｔ合同会社,,合同会社,大阪府,大阪市北区,梅田１丁目２番２号大阪駅前第２ビル１２－１２,,27,127,5300001,,,,,,,2024-05-29,1,,,,,デビュー,0
880,4120003026729,新規,0,2024-05-29,2024-05-29,ＩＮＦＩＮＩＴＹ合同会社,,合同会社,大阪府,大阪市中央区,東心斎橋２丁目３番２９号リップルプロローグ８８・５階,,27,128,5420083,,,,,,,2024-05-29,1,,,,,インフィニティ,0
884,4120901049244,新規,0,2024-05-29,2024-05-29,株式会社ＧＵＲＵ,,株式会社,大阪府,箕面市,森町北２丁目７番１７号,,27,220,5630256,,,,,,,2024-05-29,1,,,,,グールー,0
889,4130001077129,新規,0,2024-05-29,2024-05-29,株式会社Ｋ‐ｓｔｙｌｅ,,株式会社,京都府,京都市中京区,河原町通二条下る一之船入町３４７番地アソルティ河原町二条ビル,,26,104,6040924,,,,,,,2024-05-29,1,,,,,ケイスタイル,0
899,4140001134416,新規,0,2024-05-29,2024-05-29,株式会社ペトラジャパン,,株式会社,兵庫県,三田市,東本庄黒岩２２５２番地１,,28,219,6691357,,,,,,,2024-05-29,1,,,,,ペトラジャパン,0
900,4140001134564,新規,0,2024-05-29,2024-05-29,株式会社ＴＡＫＥＮＯＫＯ,,株式会社,兵庫県,小野市,浄谷町５４８番地の１,,28,218,6751317,,,,,,,2024-05-29,1,,,,,タケノコ,0
901,4140001134589,新規,0,2024-05-29,2024-05-29,株式会社サファリ,,株式会社,兵庫県,神戸市中央区,琴ノ緒町１丁目６番７号,,28,110,6510094,,,,,,,2024-05-29,1,,,,,サファリ,0
902,4140001134597,新規,0,2024-05-29,2024-05-29,株式会社エステル,,株式会社,兵庫県,丹波篠山市,北４６番地５,,28,221,6692451,,,,,,,2024-05-29,1,,,,,エステル,0
904,4140005027095,新規,0,2024-05-29,2024-05-29,一般社団法人ＰＩＮＥ,,その他の設立登記法人,兵庫県,神戸市兵庫区,湊川町１０丁目１９－４,,28,105,6520041,,,,,,,2024-05-29,1,,,,,パイン,0
907,4170001018161,新規,0,2024-05-29,2024-05-29,株式会社松本組,,株式会社,和歌山県,和歌山市,加太８７９番地１,,30,201,6400103,,,,,,,2024-05-29,1,,,,,マツモトグミ,0
917,4180001161712,新規,0,2024-05-29,2024-05-29,エマープ株式会社,,株式会社,愛知県,名古屋市西区,栄生２丁目４番１号,,23,104,4510052,,,,,,,2024-05-29,1,,,,,エマープ,0
918,4180001161745,新規,0,2024-05-29,2024-05-29,株式会社アイザック,,株式会社,愛知県,犬山市,四季の丘３丁目１２４番地,,23,215,4840019,,,,,,,2024-05-29,1,,,,,アイザック,0
920,4180003026855,新規,0,2024-05-29,2024-05-29,合同会社竹内総研,,合同会社,愛知県,知多市,金沢字郷中９５,,23,224,4780032,,,,,,,2024-05-29,1,,,,,タケウチソウケン,0
928,4220001026019,新規,0,2024-05-29,2024-05-29,株式会社Ｍｕｔｕｂｉ,,株式会社,石川県,金沢市,此花町５‐６ライフ金沢第１ビル内,,17,201,9200852,,,,,,,2024-05-29,1,,,,,ムツビ,0
933,4240003006677,新規,0,2024-05-29,2024-05-29,Ｍｓｔｙｌｅ合同会社,,合同会社,広島県,三原市,沼田東町末広３１２番５３号,,34,204,7230144,,,,,,,2024-05-29,1,,,,,エムスタイル,0
938,4260003004720,新規,0,2024-05-29,2024-05-29,合同会社ＢＡＫＨＵ’Ｓ　ＴＲＡＤＩＮＧ,,合同会社,岡山県,赤磐市,立川字友田９１９番地１,,33,213,7090815,,,,,,,2024-05-29,1,,,,,バクーズトレーディング,0
941,4290001105930,新規,0,2024-05-29,2024-05-29,株式会社やさしい世界,,株式会社,福岡県,福岡市博多区,博多駅前１丁目２３番２号ＰａｒｋＦｒｏｎｔ博多駅前一丁目５Ｆ－Ｂ,,40,132,8120011,,,,,,,2024-05-29,1,,,,,ヤサシイセカイ,0
942,4290001105971,新規,0,2024-05-29,2024-05-29,株式会社Ｌ．Ｃ．Ａ．,,株式会社,福岡県,春日市,須玖北４丁目５４,,40,218,8160864,,,,,,,2024-05-29,1,,,,,,0
947,4290003015368,新規,0,2024-05-29,2024-05-29,ｍｉｉｕｐ合同会社,,合同会社,福岡県,福岡市博多区,博多駅前１丁目２３番２号ＰａｒｋＦｒｏｎｔ博多駅前一丁目５Ｆ－Ｂ,,40,132,8120011,,,,,,,2024-05-29,1,,,,,ミーアップ,0
952,4300001013751,新規,0,2024-05-29,2024-05-29,株式会社ｍｏｖｅｔｒｕｓｔ,,株式会社,佐賀県,多久市,北多久町大字小侍１６２１番地,,41,204,8460002,,,,,,,2024-05-29,1,,,,,ムーブトラスト,0
957,4330001032105,新規,0,2024-05-29,2024-05-29,株式会社ＡＫＡＩ　ＴＯＢＩＲＡ,,株式会社,熊本県,熊本市北区,龍田陳内３丁目２番３７号,,43,105,8618005,,,,,,,2024-05-29,1,,,,,アカイトビラ,0
961,4360001033728,新規,0,2024-05-29,2024-05-29,株式会社グッドワン沖縄,,株式会社,沖縄県,浦添市,勢理客４丁目１３番１号浦添市産業振興センター結の街５０３号室,,47,208,9012122,,,,,,,2024-05-29,1,,,,,グッドワンオキナワ,0
962,4360003014016,新規,0,2024-05-29,2024-05-29,伯方屋合同会社,,合同会社,沖縄県,那覇市,若狭２丁目３番１３号,,47,201,9000031,,,,,,,2024-05-29,1,,,,,ハカタヤ,0
963,4360003014024,新規,0,2024-05-29,2024-05-29,合同会社Ｓ‐Ｌａｂ,,合同会社,沖縄県,名護市,宇茂佐の森４丁目１９－７ちゅら咲２０５,,47,209,9050009,,,,,,,2024-05-29,1,,,,,エスラボ,0
975,4430001091867,新規,0,2024-05-29,2024-05-29,株式会社Ｉｄｏ　Ａｉｒ,,株式会社,北海道,札幌市中央区,北十条西１５丁目１番地５７ブランズ札幌桑園駅前ウエスト１１０２号,,01,101,0600010,,,,,,,2024-05-29,1,,,,,イドエアー,0
979,4470001020228,新規,0,2024-05-29,2024-05-29,株式会社すいとう塗装,,株式会社,香川県,高松市,亀田南町４６０番地１７,,37,201,7610432,,,,,,,2024-05-29,1,,,,,スイトウトソウ,0
983,4490003001892,新規,0,2024-05-29,2024-05-29,合同会社おちあう里,,合同会社,高知県,長岡郡大豊町,大滝４９８番地,,39,344,7890171,,,,,,,2024-05-29,1,,,,,オチアウサト,0
984,4500001025652,新規,0,2024-05-29,2024-05-29,株式会社テンセイパール,,株式会社,愛媛県,宇和島市,津島町成２３０番地２,,38,203,7983333,,,,,,,2024-05-29,1,,,,,テンセイパール,0
989,4700150125670,新規,0,2024-05-29,2024-05-29,Ｊｉａｎｇｓｕ　Ｅｍｐｉｒｅ　Ｉｎｔｅｒｎａｔｉｏｎａｌ　Ｃｏ．Ｌｔｄ．,,外国会社等,,,,,,,,１ｓｔ　Ｊｉｕｊｉａｎｇ　ＲｏａｄＨｕａｉａｎＪｉａｎｇｓｕ２２３３００ＣＮ,,,,,,2024-05-29,1,,,,,ジャンスーインペイアーグオジーマオイーヨウシエンゴンスー,0
990,4700150125679,新規,0,2024-05-29,2024-05-29,ｓｈｅｎｚｈｅｎｓｈｉ　ｌｉｘｉｎｄｉａｎｚｉｍａｏｙｉｙｏｕｘｉａｎｇｏｎｇｓｉ,,外国会社等,,,,,,,,ｌｏｎｇｈｕａｑｕｇｕａｎｈｕｊｉｅｄａｏｌｕｈｕｓｈｅｑｕｇｕａｎｓｈｅｎｇｗｕｌｕ　ｋｅｍｕｌｏｎｇｋｅｊｉｙｕａｎＣｄｏｎｇ６０２　Ｓｈｅｎｚｈｅｎ　Ｇｕａｎｇｄｏｎｇ,,,,,,2024-05-29,1,,,,,シェンジェンシーリーシンディエンズーマオイーヨウシエンゴーンスー,0
999,5010001245142,新規,0,2024-05-29,2024-05-29,株式会社コムシップ,,株式会社,東京都,文京区,大塚３丁目４２番３号,,13,105,1120012,,,,,,,2024-05-29,1,,,,,コムシップ,0
1000,5010001245225,新規,0,2024-05-29,2024-05-29,モンタルド株式会社,,株式会社,東京都,中央区,銀座１丁目２２番１１号銀座大竹ビジデンス２階,,13,102,1040061,,,,,,,2024-05-29,1,,,,,モンタルド,0
1006,5010101016162,新規,0,2024-05-29,2024-05-29,株式会社村上架設,,株式会社,東京都,八王子市,旭町４番２５－４０１号,,13,201,1920083,,,,,,,2024-05-29,1,,,,,ムラカミカセツ,0
1014,5010401182729,新規,0,2024-05-29,2024-05-29,株式会社Ｄｉｇｉｓｔ,,株式会社,東京都,港区,南青山３丁目１番３６号青山丸竹ビル６Ｆ,,13,103,1070062,,,,,,,2024-05-29,1,,,,,デジスト,0
1015,5010401182811,新規,0,2024-05-29,2024-05-29,株式会社Ｌｉｎｋ　Ｇｌｏｂａｌ,,株式会社,東京都,港区,浜松町２丁目２番１５号浜松町ダイヤビル２Ｆ,,13,103,1050013,,,,,,,2024-05-29,1,,,,,リンクグローバル,0
1018,5010403032659,新規,0,2024-05-29,2024-05-29,合同会社ＡＲＴ,,合同会社,東京都,港区,南青山３丁目１番３６号青山丸竹ビル６Ｆ,,13,103,1070062,,,,,,,2024-05-29,1,,,,,アート,0
1019,5010403032691,新規,0,2024-05-29,2024-05-29,合同会社ひまわりエナジー,,合同会社,東京都,港区,南青山４丁目１番６号セブン南青山ビル６階,,13,103,1070062,,,,,,,2024-05-29,1,,,,,ヒマワリエナジー,0
1021,5010503007453,新規,0,2024-05-29,2024-05-29,合同会社ＯＺ,,合同会社,東京都,台東区,東上野６丁目３０番５‐５０２号メイクス上野,,13,106,1100015,,,,,,,2024-05-29,1,,,,,オズ,0
1023,5010603010869,新規,0,2024-05-29,2024-05-29,荻原工務店合同会社,,合同会社,東京都,墨田区,墨田５丁目１１－２－４０１フュージョナル墨田,,13,107,1310031,,,,,,,2024-05-29,1,,,,,オギハラコウムテン,0
1048,5011303005176,新規,0,2024-05-29,2024-05-29,ＪＡＮＵＫＡ合同会社,,合同会社,東京都,杉並区,天沼１丁目１６－１吉野荘２階５号室,,13,115,1670032,,,,,,,2024-05-29,1,,,,,ジャヌカ,0
1050,5011601027772,新規,0,2024-05-29,2024-05-29,株式会社未来脳,,株式会社,東京都,練馬区,中村北３丁目２３－５シュウ・カワグチビル９Ｆ,,13,120,1760023,,,,,,,2024-05-29,1,,,,,ミライノウ,0
1054,5012401041922,新規,0,2024-05-29,2024-05-29,株式会社リヌアル,,株式会社,東京都,調布市,下石原１丁目６０番地８,,13,208,1820034,,,,,,,2024-05-29,1,,,,,リヌアル,0
1055,5012801023207,新規,0,2024-05-29,2024-05-29,株式会社Ｖａｍｏｓ,,株式会社,東京都,立川市,曙町２丁目１５番１４号ヒロセビル１１Ｂ１Ｆ,00134939,13,202,1900012,,,,,,,2024-05-29,1,,,,,バモス,0
1056,5013101009425,新規,0,2024-05-29,2024-05-29,株式会社ディスクライブ,,株式会社,東京都,福生市,大字熊川１６６０番地１８ルレーブＢ２Ｆ,,13,218,1970003,,,,,,,2024-05-29,1,,,,,ディスクライブ,0
1063,5020001157337,新規,0,2024-05-29,2024-05-29,株式会社アール・エステート,,株式会社,神奈川県,横浜市戸塚区,戸塚町８６４番地１,,14,110,2440003,,,,,,,2024-05-29,1,,,,,アールエステート,0
1075,5030001160604,新規,0,2024-05-29,2024-05-29,株式会社ＩＲＯＡ,,株式会社,埼玉県,さいたま市大宮区,桜木町２丁目３番地大宮マルイ７階,,11,103,3300854,,,,,,,2024-05-29,1,,,,,イロア,0
1080,5040001133658,新規,0,2024-05-29,2024-05-29,株式会社幸建,,株式会社,千葉県,香取市,福田８７５番地１,,12,236,2870024,,,,,,,2024-05-29,1,,,,,,0
1081,5040001133798,新規,0,2024-05-29,2024-05-29,株式会社マタカ工業,,株式会社,千葉県,船橋市,東町８７５番地８,,12,204,2730863,,,,,,,2024-05-29,1,,,,,マタカコウギョウ,0
1088,5040003025077,新規,0,2024-05-29,2024-05-29,Ｔｏｋｙｏ　Ｆｅｅｌｓ　Ａｒｔ合同会社,,合同会社,千葉県,茂原市,粟生野３４９８番地２３,,12,210,2994106,,,,,,,2024-05-29,1,,,,,トウキョウフィールズアート,0
1089,5040003025085,新規,0,2024-05-29,2024-05-29,合同会社ＧＭＴ,,合同会社,千葉県,松戸市,松戸１５５０番地,,12,207,2710092,,,,,,,2024-05-29,1,,,,,ジーエムティー,0
1099,5080105006434,新規,0,2024-05-29,2024-05-29,富士山ドリーム協同組合,,その他の設立登記法人,静岡県,富士市,今泉１７８６番地の１,,22,210,4170001,,,,,,,2024-05-29,1,,,,,フジサンドリーム,0
1100,5080401027209,新規,0,2024-05-29,2024-05-29,株式会社ＢＬＵＥ　ＷＯＲＫＳ,,株式会社,静岡県,浜松市中央区,布橋２丁目１８番２０号,,22,138,4328012,,,,,,,2024-05-29,1,,,,,ブルーワークス,0
1104,5100001037497,新規,0,2024-05-29,2024-05-29,宗宗株式会社,,株式会社,長野県,大町市,常盤９８番地,,20,212,3980004,,,,,,,2024-05-29,1,,,,,ソウソウ,0
1105,5110001038445,新規,0,2024-05-29,2024-05-29,株式会社光工業,,株式会社,新潟県,上越市,北本町４丁目１番９号,,15,222,9430828,,,,,,,2024-05-29,1,,,,,ヒカリコウギョウ,0
1111,5120001265377,新規,0,2024-05-29,2024-05-29,福永商事株式会社,,株式会社,大阪府,大阪市淀川区,西中島３丁目１８番９号新大阪日大ビル６１４号室,,27,123,5320011,,,,,,,2024-05-29,1,,,,,フクナガショウジ,0
1112,5120001265443,新規,0,2024-05-29,2024-05-29,株式会社トピット,,株式会社,大阪府,大阪市都島区,中野町５丁目１４番５号,,27,102,5340027,,,,,,,2024-05-29,1,,,,,トピット,0
1115,5120101069686,新規,0,2024-05-29,2024-05-29,株式会社梟,,株式会社,大阪府,大阪狭山市,東野西３丁目７２０―８,,27,231,5890001,,,,,,,2024-05-29,1,,,,,フクロウ,0
1116,5120901049235,新規,0,2024-05-29,2024-05-29,株式会社ファーストグラス,,株式会社,大阪府,茨木市,新堂２丁目１５番,,27,211,5670835,,,,,,,2024-05-29,1,,,,,ファーストグラス,0
1117,5120901049243,新規,0,2024-05-29,2024-05-29,セイシンリノベーション株式会社,,株式会社,大阪府,豊中市,春日町２丁目１６番３３号,,27,203,5600052,,,,,,,2024-05-29,1,,,,,セイシンリノベーション,0
1118,5120903005178,新規,0,2024-05-29,2024-05-29,合同会社ＯＭコーポレーション,,合同会社,大阪府,吹田市,春日３丁目１６番８,,27,205,5650853,,,,,,,2024-05-29,1,,,,,オーエムコーポレーション,0
1119,5120903005194,新規,0,2024-05-29,2024-05-29,合同会社あやかオリエント,,合同会社,大阪府,吹田市,岸部北２丁目７番４－２号,,27,205,5640001,,,,,,,2024-05-29,1,,,,,アヤカオリエント,0
1126,5140001134596,新規,0,2024-05-29,2024-05-29,クリエイション株式会社,,株式会社,兵庫県,神戸市兵庫区,西橘通１丁目１－２３－１、１０１号,,28,105,6520034,,,,,,,2024-05-29,1,,,,,クリエイション,0
1127,5150001027304,新規,0,2024-05-29,2024-05-29,株式会社はなまる電気,,株式会社,奈良県,天理市,中山町１０７７番地５,,29,204,6320051,,,,,,,2024-05-29,1,,,,,ハナマルデンキ,0
1131,5170001018160,新規,0,2024-05-29,2024-05-29,株式会社中井実業,,株式会社,和歌山県,有田郡湯浅町,大字山田４７５番地,,30,361,6430001,,,,,,,2024-05-29,1,,,,,ナカイジツギョウ,0
1134,5180001161736,新規,0,2024-05-29,2024-05-29,アンクリ株式会社,,株式会社,愛知県,名古屋市中区,千代田３丁目１５番８号,,23,106,4600012,,,,,,,2024-05-29,1,,,,,アンクリ,0
1139,5220001026026,新規,0,2024-05-29,2024-05-29,株式会社カメリアトラスト,,株式会社,石川県,金沢市,西念２丁目１０番１０号,,17,201,9200024,,,,,,,2024-05-29,1,,,,,カメリアトラスト,0
1156,5290001105938,新規,0,2024-05-29,2024-05-29,株式会社ＣＥＯ,,株式会社,福岡県,福岡市博多区,中洲５丁目３－１８－ＴＭ１６ビル８Ｆ,,40,132,8100801,,,,,,,2024-05-29,1,,,,,シーイーオー,0
1157,5290001105946,新規,0,2024-05-29,2024-05-29,株式会社ｍａｎｏ,,株式会社,福岡県,福岡市早良区,有田１丁目３３番８号第２毛利コーポ１Ｆ,,40,137,8140033,,,,,,,2024-05-29,1,,,,,マーノ,0
1158,5290001105954,新規,0,2024-05-29,2024-05-29,株式会社林総業,,株式会社,福岡県,宗像市,田熊６丁目１４番１号,,40,220,8113431,,,,,,,2024-05-29,1,,,,,ハヤシソウギョウ,0
1160,5290003015301,新規,0,2024-05-29,2024-05-29,東亜経済合同会社,,合同会社,福岡県,福岡市東区,松島１丁目１５－１,,40,131,8120062,,,,,,,2024-05-29,1,,,,,トウアケイザイ,0
1161,5290003015367,新規,0,2024-05-29,2024-05-29,合同会社ぶん福茶がま,,合同会社,福岡県,福岡市中央区,春吉３丁目１２番２１号,,40,133,8100003,,,,,,,2024-05-29,1,,,,,ブンプクチャガマ,0
1163,5300001013750,新規,0,2024-05-29,2024-05-29,株式会社ＡＯＺＯＲＡ　ＡＵＴＯ　ＴＲＡＤＩＮＧ,,株式会社,佐賀県,鳥栖市,曽根崎町１４０８番地６,,41,203,8410025,,,,,,,2024-05-29,1,,,,,アオゾラオートトレーディング,0
1171,5330003010396,新規,0,2024-05-29,2024-05-29,合同会社ＮＥＸＴ,,合同会社,熊本県,山鹿市,鹿本町下分田９５５番地,,43,208,8610323,,,,,,,2024-05-29,1,,,,,ネクスト,0
1173,5360003014015,新規,0,2024-05-29,2024-05-29,合同会社永,,合同会社,沖縄県,那覇市,小禄１丁目２６番１６－７０４号サンレジデンス小禄,,47,201,9010152,,,,,,,2024-05-29,1,,,,,トコシエ,0
1187,5430001091890,新規,0,2024-05-29,2024-05-29,株式会社ＩＳ　ｉｎｄｕｓｔｒｙ,,株式会社,北海道,石狩市,花川南五条１丁目２０３番地,,01,235,0613205,,,,,,,2024-05-29,1,,,,,アイエスインダストリー,0
1191,5480001012487,新規,0,2024-05-29,2024-05-29,株式会社澤口工業,,株式会社,徳島県,板野郡藍住町,矢上字北分２２番地８,,36,403,7711252,,,,,,,2024-05-29,1,,,,,サワグチコウギョウ,0
1202,5700150125678,新規,0,2024-05-29,2024-05-29,ｓｈｅｎｚｈｅｎｓｈｉｆｅｉｌｉｋｅｎｍａｏｙｉｙｏｕｘｉａｎｇｏｎｇｓｉ,,外国会社等,,,,,,,,ｌｏｎｇｈｕａｑｕｇｕａｎｈｕｊｉｅｄａｏｌｕｈｕｓｈｅｑｕ　ｚｈａｏｓｈａｎｇｇｕａｎｙｕａｎ６ｄｏｎｇ２ｄａｎｙｕａｎ２０４　ｓｈｅｎｚｈｅｎｓｈｉ　ｇｕａｎｇｄｏｎｇｓｈｅｎｇ,,,,,,2024-05-29,1,,,,,シェンジェンシーフェイリーケンマオイーヨウシエンゴーンスー,0
1212,6010001245224,新規,0,2024-05-29,2024-05-29,Ｇｅｍｉｎｉ　Ｃａｐｉｔａｌ株式会社,,株式会社,東京都,千代田区,丸の内２丁目５番２号,,13,101,1000005,,,,,,,2024-05-29,1,,,,,ジェミニキャピタル,0
1213,6010001245240,新規,0,2024-05-29,2024-05-29,株式会社ドキドキホールディングス,,株式会社,東京都,千代田区,九段北１丁目１１番４号井門九段下ビル４階,,13,101,1020073,,,,,,,2024-05-29,1,,,,,ドキドキホールディングス,0
1214,6010001245249,新規,0,2024-05-29,2024-05-29,株式会社天の門,,株式会社,東京都,中央区,晴海２丁目２番４２－３３１２号,,13,102,1040053,,,,,,,2024-05-29,1,,,,,テンノモン,0
1217,6010003043824,新規,0,2024-05-29,2024-05-29,ソーラーカトレア合同会社,,合同会社,東京都,中央区,京橋２丁目１２番６号ＡＯＪ税理士法人内,,13,102,1040031,,,,,,,2024-05-29,1,,,,,ソーラーカトレア,0
1218,6010003043865,新規,0,2024-05-29,2024-05-29,Ｗｉｓｍｅｔｔａｃ　Ｖｅｎｔｕｒｅｓ合同会社,,合同会社,東京都,中央区,日本橋室町３丁目２番１号,,13,102,1030022,,,,,,,2024-05-29,1,,,,,ウィズメタックベンチャーズ,0
1220,6010103002366,新規,0,2024-05-29,2024-05-29,合同会社ＲＥＤＶＩＢＥＳ,,合同会社,東京都,八王子市,中野上町５丁目５番６号,,13,201,1920041,,,,,,,2024-05-29,1,,,,,レッドバイブス,0
1228,6010401182604,新規,0,2024-05-29,2024-05-29,ＭｏＴｅｃｈ株式会社,,株式会社,東京都,港区,新橋２丁目２０－１５新橋駅前ビル１号館５０９－１,,13,103,1050004,,,,,,,2024-05-29,1,,,,,モーテック,0
1233,6010501052351,新規,0,2024-05-29,2024-05-29,Ｉｎｐａｙ　Ｊａｐａｎ株式会社,,株式会社,東京都,台東区,北上野２丁目２５番９号－３０４号室,,13,106,1100014,,,,,,,2024-05-29,1,,,,,インペイジャパン,0
1237,6010601065286,新規,0,2024-05-29,2024-05-29,株式会社ミッケデザイン,,株式会社,東京都,墨田区,京島３丁目８番７－５０７号,,13,107,1310046,,,,,,,2024-05-29,1,,,,,ミッケデザイン,0
1238,6010603010868,新規,0,2024-05-29,2024-05-29,ＫＡＶＩＮ　ＡＵＴＯ　ＰＡＲＴＳ合同会社,,合同会社,東京都,墨田区,立花４丁目１９番２号,,13,107,1310043,,,,,,,2024-05-29,1,,,,,カヴィンオートパーツ,0
1240,6010803004967,新規,0,2024-05-29,2024-05-29,合同会社伊原,,合同会社,東京都,大田区,南馬込４丁目３５番１５号,,13,111,1430025,,,,,,,2024-05-29,1,,,,,イハラ,0
1248,6011001162343,新規,0,2024-05-29,2024-05-29,株式会社テクシュー,,株式会社,東京都,渋谷区,鶯谷町２－７エクセルビル５階,,13,113,1500032,,,,,,,2024-05-29,1,,,,,テクシュー,0
1249,6011001162351,新規,0,2024-05-29,2024-05-29,株式会社ＬＨ．ＬＡＢＯ,,株式会社,東京都,渋谷区,神宮前６丁目２３番４号桑野ビル２階,,13,113,1500001,,,,,,,2024-05-29,1,,,,,エルエイチラボ,0
1254,6011101107470,新規,0,2024-05-29,2024-05-29,ＦＥＬＩＺ株式会社,,株式会社,東京都,新宿区,西新宿８丁目４番１５号ローズガーデンハウス６０１号,,13,104,1600023,,,,,,,2024-05-29,1,,,,,フェリス,0
1255,6011101107479,新規,0,2024-05-29,2024-05-29,株式会社ＷＸＹ,,株式会社,東京都,新宿区,西新宿２丁目２番１号京王プラザホテル４１２７,,13,104,1600023,,,,,,,2024-05-29,1,,,,,ダブリューエックスワイ,0
1265,6011801044294,新規,0,2024-05-29,2024-05-29,株式会社Ｓ‐ｓｔａｒｔ,,株式会社,東京都,足立区,千住２丁目６４番地７塩田店舗１０１,,13,121,1200034,,,,,,,2024-05-29,1,,,,,エススタート,0
1269,6012801023214,新規,0,2024-05-29,2024-05-29,株式会社ＢＴスペーステック,,株式会社,東京都,立川市,柴崎町２丁目２番１９号カトービル３０３号室,,13,202,1900023,,,,,,,2024-05-29,1,,,,,ビーティースペーステック,0
1275,6020001157443,新規,0,2024-05-29,2024-05-29,株式会社ＩＭＪＳＰ,,株式会社,神奈川県,横浜市西区,高島２丁目６番３２号横浜東口ウィスポートビル,,14,103,2200011,,,,,,,2024-05-29,1,,,,,アイエムジェイエスピー,0
1278,6020003026225,新規,0,2024-05-29,2024-05-29,合同会社タルムード,,合同会社,神奈川県,川崎市幸区,中幸町４丁目２１番地３号１０２号室,,14,132,2120012,,,,,,,2024-05-29,1,,,,,タルムード,0
1279,6020003026241,新規,0,2024-05-29,2024-05-29,合同会社ＳＫＭプランニング,,合同会社,神奈川県,川崎市多摩区,菅馬場３丁目２１番１２号,,14,135,2140004,,,,,,,2024-05-29,1,,,,,エスケイエムプランニング,0
1280,6021001082334,新規,0,2024-05-29,2024-05-29,株式会社勝どき,,株式会社,神奈川県,大和市,西鶴間５丁目１２－５－２０１,,14,213,2420005,,,,,,,2024-05-29,1,,,,,カチドキ,0
1300,6040003025076,新規,0,2024-05-29,2024-05-29,合同会社プレシャスタイム,,合同会社,千葉県,長生郡長南町,須田２４８番地,,12,427,2970111,,,,,,,2024-05-29,1,,,,,プレシャスタイム,0
1303,6050001054836,新規,0,2024-05-29,2024-05-29,株式会社こころ,,株式会社,茨城県,水戸市,見川町２５６３番地の６４２,,08,201,3100913,,,,,,,2024-05-29,1,,,,,ココロ,0
1307,6060001037146,新規,0,2024-05-29,2024-05-29,株式会社和平避雷針工業,,株式会社,栃木県,宇都宮市,宝木町２丁目９１８番地１５,,09,201,3200061,,,,,,,2024-05-29,1,,,,,ワダイラヒライシンコウギョウ,0
1313,6080401027208,新規,0,2024-05-29,2024-05-29,株式会社ｎｅｕｇｌａｎｚ,,株式会社,静岡県,浜松市中央区,大島町８６０番地の２,,22,138,4313112,,,,,,,2024-05-29,1,,,,,ノイグランツ,0
1316,6100001037488,新規,0,2024-05-29,2024-05-29,黒姫エンタープライゼス株式会社,,株式会社,長野県,上水内郡信濃町,大字野尻高沢２４９７－３８０,,20,583,3891303,,,,,,,2024-05-29,1,,,,,クロヒメエンタープライゼス,0
1334,6120001265319,新規,0,2024-05-29,2024-05-29,株式会社パドラー,,株式会社,大阪府,大阪市平野区,長吉川辺４丁目１番１５－１４４号,,27,126,5470014,,,,,,,2024-05-29,1,,,,,パドラー,0
1335,6120001265368,新規,0,2024-05-29,2024-05-29,株式会社ＪＯＹ,,株式会社,大阪府,大阪市旭区,清水５丁目２－２－５０１,,27,117,5350021,,,,,,,2024-05-29,1,,,,,ジョイ,0
1336,6120001265384,新規,0,2024-05-29,2024-05-29,株式会社カサハラ,,株式会社,大阪府,大阪市東住吉区,北田辺５丁目９番１３号,,27,121,5460044,,,,,,,2024-05-29,1,,,,,カサハラ,0
1339,6120901049234,新規,0,2024-05-29,2024-05-29,株式会社ハウスＫ,,株式会社,大阪府,吹田市,長野東２６番２号,,27,205,5650816,,,,,,,2024-05-29,1,,,,,ハウスケイ,0
1341,6122001038134,新規,0,2024-05-29,2024-05-29,株式会社ＳＴＡＩＲＳ,,株式会社,大阪府,大東市,野崎４丁目８番１号クレールドミール１０１号,,27,218,5740015,,,,,,,2024-05-29,1,,,,,ステアーズ,0
1342,6122001038142,新規,0,2024-05-29,2024-05-29,正吉株式会社,,株式会社,大阪府,東大阪市,出雲井本町８番２３－３０１号,,27,227,5798034,,,,,,,2024-05-29,1,,,,,マサヨシ,0
1343,6122003002897,新規,0,2024-05-29,2024-05-29,合同会社ライフサポート,,合同会社,大阪府,東大阪市,善根寺町５丁目１番１４号,,27,227,5798001,,,,,,,2024-05-29,1,,,,,ライフサポート,0
1350,6140001134570,新規,0,2024-05-29,2024-05-29,株式会社翔,,株式会社,兵庫県,神戸市北区,有野町二郎２９７番地の２,,28,109,6511311,,,,,,,2024-05-29,1,,,,,ショウ,0
1354,6150001027303,新規,0,2024-05-29,2024-05-29,株式会社エイコー,,株式会社,奈良県,葛城市,忍海４２６番地８コーポ松川１０１号,,29,211,6392123,,,,,,,2024-05-29,1,,,,,エイコー,0
1364,6180001161693,新規,0,2024-05-29,2024-05-29,株式会社アマテック,,株式会社,愛知県,名古屋市中村区,名駅５丁目４－１４花車ビル北館１階,,23,105,4500002,,,,,,,2024-05-29,1,,,,,アマテック,0
1365,6180001161702,新規,0,2024-05-29,2024-05-29,株式会社ＳＯＲＡ建築,,株式会社,愛知県,名古屋市緑区,平子が丘２１０９番地の１,,23,114,4580826,,,,,,,2024-05-29,1,,,,,ソラケンチク,0
1369,6180003026845,新規,0,2024-05-29,2024-05-29,ＯＮＡＳ合同会社,,合同会社,愛知県,名古屋市北区,川中町１１番８号,,23,103,4620022,,,,,,,2024-05-29,1,,,,,オーナス,0
1373,6210001019772,新規,0,2024-05-29,2024-05-29,ジョルノ株式会社,,株式会社,福井県,福井市,順化１丁目１７番２９号ＳＫ館１Ｆ,,18,201,9100023,,,,,,,2024-05-29,1,,,,,ジョルノ,0
1375,6220001026025,新規,0,2024-05-29,2024-05-29,イシダホールディングス株式会社,,株式会社,石川県,白山市,横江町１３９５番地,,17,210,9240011,,,,,,,2024-05-29,1,,,,,イシダホールディングス,0
1378,6230001020365,新規,0,2024-05-29,2024-05-29,株式会社スガタ電設,,株式会社,富山県,氷見市,大浦新町９番地,,16,205,9350101,,,,,,,2024-05-29,1,,,,,スガタデンセツ,0
1395,6290001105945,新規,0,2024-05-29,2024-05-29,株式会社Ａ‐ＲＯＮ,,株式会社,福岡県,福岡市中央区,大名２丁目２番４３－７Ｆ,,40,133,8100041,,,,,,,2024-05-29,1,,,,,アーロン,0
1403,6290003015382,新規,0,2024-05-29,2024-05-29,ＡＩＮＴ合同会社,,合同会社,福岡県,春日市,桜ヶ丘７丁目４番地１サルヴァトーレ春日２１３号,,40,218,8160872,,,,,,,2024-05-29,1,,,,,アイント,0
1411,6330001032103,新規,0,2024-05-29,2024-05-29,Ｎａｖｉ８株式会社,,株式会社,熊本県,熊本市西区,田崎２丁目４－３３,,43,103,8600053,,,,,,,2024-05-29,1,,,,,ナビエイト,0
1417,6360001033726,新規,0,2024-05-29,2024-05-29,株式会社ＢＯＤＹ　ＭＡＫＥ　ＪＡＰＡＮ,,株式会社,沖縄県,糸満市,字糸満１９４２番地７ベガマンション２０３,,47,210,9010361,,,,,,,2024-05-29,1,,,,,ボディメイクジャパン,0
1419,6370001051339,新規,0,2024-05-29,2024-05-29,株式会社ゴリラワークス,,株式会社,宮城県,仙台市青葉区,作並字鎌倉４４―３,,04,101,9893431,,,,,,,2024-05-29,1,,,,,ゴリラワークス,0
1432,6430001091808,新規,0,2024-05-29,2024-05-29,株式会社優樹,,株式会社,北海道,苫小牧市,宮前町２丁目８番１１号テラセルミヤマエ３０３,,01,213,0591264,,,,,,,2024-05-29,1,,,,,ユウキ,0
1435,6430003016366,新規,0,2024-05-29,2024-05-29,合同会社ＳＨＯ,,合同会社,北海道,札幌市厚別区,厚別西二条１丁目１０－４,,01,108,0040062,,,,,,,2024-05-29,1,,,,,エスエイチオー,0
1437,6450001014329,新規,0,2024-05-29,2024-05-29,株式会社Ｎ　ｃｌｕｂ,,株式会社,北海道,名寄市,西六条南１１丁目２番地３５,,01,221,0960016,,,,,,,2024-05-29,1,,,,,,0
1439,6480001012486,新規,0,2024-05-29,2024-05-29,株式会社オフィス山本,,株式会社,徳島県,板野郡藍住町,富吉字穂実６番地１８,,36,403,7711232,,,,,,,2024-05-29,1,,,,,オフィスヤマモト,0
1441,6700150121742,新規,0,2024-05-29,2024-05-29,ＣＨＩＡ　ＨＵＩ　ＩＮＤＵＳＴＲＩＡＬ　ＣＯ　ＬＴＤ,,外国会社等,,,,,,,,Ｎｏ．４，Ｓｅｃ．２，Ｒｅｈｅ　Ｒｄ．Ｔａｉｃｈｕｎｇ　Ｃｉｔｙ　Ｔａｉｃｈｕｎｇ　Ｃｉｔｙ　４０６　ＴＷ,,,,,,2024-05-29,1,,,,,チアフイインダストリアルカンパニーリミテッド,0
1442,6700150125669,新規,0,2024-05-29,2024-05-29,ＡＯ　ＴＵＯ　ＳＵＯ　ＫＥ　ＪＩ　ＳＨＥＮ　ＺＨＥＮ　ＹＯＵ　ＸＩＡＮ　ＧＯＮＧ　ＳＩ,,外国会社等,,,,,,,,Ｌｏｎｇ　Ｈｕａ　Ｑｕ，Ｄａｌａｎｇ　Ｊｉｅｄａｏ　Ｓｈｕｉｗｅｉｓｈｅｑｕ　Ｆｕｘｕａｎｘｉｎｃｕｎ　８８ｈａｏ　１１０１　Ｓｈｅｎ　Ｚｈｅｎ　Ｇｕａｎｇ　Ｄｏｎｇ　５１８１０９　ＣＮ,,,,,,2024-05-29,1,,,,,オウタクカギシンセンユウゲンコウシ,0
1451,7010001245215,新規,0,2024-05-29,2024-05-29,株式会社きずなソフト,,株式会社,東京都,千代田区,麹町４丁目５－２０・ＫＳビル４階４１３号,,13,101,1020083,,,,,,,2024-05-29,1,,,,,キズナソフト,0
1452,7010001245248,新規,0,2024-05-29,2024-05-29,株式会社バード,,株式会社,東京都,中央区,日本橋室町１丁目１１番１２号日本橋水野ビル７階,,13,102,1030022,,,,,,,2024-05-29,1,,,,,バード,0
1453,7010003043823,新規,0,2024-05-29,2024-05-29,ソーラーサフラン合同会社,,合同会社,東京都,中央区,京橋２丁目１２番６号ＡＯＪ税理士法人内,,13,102,1040031,,,,,,,2024-05-29,1,,,,,ソーラーサフラン,0
1454,7010003043872,新規,0,2024-05-29,2024-05-29,環境資源合同会社,,合同会社,東京都,中央区,銀座６丁目７番１６号第一岩月ビル７階,,13,102,1040061,,,,,,,2024-05-29,1,,,,,カンキョウシゲン,0
1457,7010005038334,新規,0,2024-05-29,2024-05-29,ニセコ・ホスピタリティ一般社団法人,,その他の設立登記法人,東京都,千代田区,霞が関３丁目２番５号,,13,101,1000013,,,,,,,2024-05-29,1,,,,,ニセコホスピタリティ,0
1467,7010401182768,新規,0,2024-05-29,2024-05-29,株式会社Ｔｒｕｅ　Ｓｈｏｅｓ,,株式会社,東京都,港区,白金台３丁目１６番２－１１０６号,,13,103,1080071,,,,,,,2024-05-29,1,,,,,トゥルーシューズ,0
1471,7010403032707,新規,0,2024-05-29,2024-05-29,合同会社ながいき住宅,,合同会社,東京都,港区,北青山２丁目１２番１３号青山ＫＹビル４Ｆ,,13,103,1070061,,,,,,,2024-05-29,1,,,,,ナガイキジュウタク,0
1472,7010403032715,新規,0,2024-05-29,2024-05-29,ＩｎｎｏｖａｔｉｏｎＳｕｐｐｏｒｔ合同会社,,合同会社,東京都,港区,南青山３丁目１番３６号青山丸竹ビル６Ｆ,,13,103,1070062,,,,,,,2024-05-29,1,,,,,イノベーションサポート,0
1481,7011001162061,新規,0,2024-05-29,2024-05-29,株式会社ｕｎｉｔｅｒ,,株式会社,東京都,目黒区,上目黒５丁目１９番５号ウェルコート１０１,,13,110,1530051,,,,,,,2024-05-29,1,,,,,ユニター,0
1484,7011101107453,新規,0,2024-05-29,2024-05-29,株式会社Ｆｏｕｒ　Ｓｎｏｗｓ,,株式会社,東京都,新宿区,高田馬場４丁目３８番１４号シティハイム・オーティアス１０１,,13,104,1690075,,,,,,,2024-05-29,1,,,,,フォースノーズ,0
1488,7011401026139,新規,0,2024-05-29,2024-05-29,燦星株式会社,,株式会社,東京都,板橋区,上板橋３丁目１１番１１－２０１号,,13,119,1740076,,,,,,,2024-05-29,1,,,,,サンセイ,0
1496,7011801044293,新規,0,2024-05-29,2024-05-29,株式会社ｈｏｍｉｅ,,株式会社,東京都,足立区,東和２丁目２８番７号,,13,121,1200003,,,,,,,2024-05-29,1,,,,,ホーミー,0
1497,7012301013929,新規,0,2024-05-29,2024-05-29,株式会社Ｓｕｉ,,株式会社,東京都,町田市,金森１丁目３５番２４号,,13,209,1940012,,,,,,,2024-05-29,1,,,,,スイ,0
1510,7020001157459,新規,0,2024-05-29,2024-05-29,株式会社財宝堂,,株式会社,神奈川県,横浜市中区,本牧原１番２３－５０５号,,14,104,2310821,,,,,,,2024-05-29,1,,,,,,0
1515,7020003026208,新規,0,2024-05-29,2024-05-29,ＭＨＴＬａｂ合同会社,,合同会社,神奈川県,横浜市青葉区,あざみ野３丁目１８番３２号,,14,117,2250011,,,,,,,2024-05-29,1,,,,,エムエッチティラボ,0
1516,7020003026232,新規,0,2024-05-29,2024-05-29,合同会社エツカコミュニケーションズ,,合同会社,神奈川県,横浜市都筑区,中川中央２丁目５番１３号メルヴューサガノ２０１号室,,14,118,2240003,,,,,,,2024-05-29,1,,,,,エツカコミュニケーションズ,0
1522,7021001082300,新規,0,2024-05-29,2024-05-29,株式会社ＢＨ,,株式会社,神奈川県,相模原市中央区,横山台１丁目３１番９‐４０７号,,14,152,2520241,,,,,,,2024-05-29,1,,,,,ビーエイチ,0
1523,7021001082333,新規,0,2024-05-29,2024-05-29,株式会社ｓｅｉｚｅ　ｔｈｅ　ｄａｙ,,株式会社,神奈川県,藤沢市,辻堂東海岸１丁目１１番４号,,14,205,2510045,,,,,,,2024-05-29,1,,,,,セイズザデイ,0
1525,7021003014573,新規,0,2024-05-29,2024-05-29,ＮＩＨＯＮ　ＷＩＮＧＳ合同会社,,合同会社,神奈川県,厚木市,愛名１０２７サンシャインハウス１１５,,14,212,2430038,,,,,,,2024-05-29,1,,,,,ニホンウィングス,0
1528,7030001160536,新規,0,2024-05-29,2024-05-29,株式会社ＧＦＦ,,株式会社,埼玉県,川越市,岸町３丁目１７番地１グリーンパーク川越８０２,,11,201,3501131,,,,,,,2024-05-29,1,,,,,ジーエフエフ,0
1529,7030001160619,新規,0,2024-05-29,2024-05-29,環境ＩＴサービス株式会社,,株式会社,埼玉県,さいたま市南区,文蔵１丁目８番３号南浦和コーポ４０１,,11,108,3360025,,,,,,,2024-05-29,1,,,,,カンキョウアイティサービス,0
1541,7050001054819,新規,0,2024-05-29,2024-05-29,株式会社稲葉産業,,株式会社,茨城県,結城市,大字小田林２５７３番地１,,08,207,3070007,,,,,,,2024-05-29,1,,,,,イナバサンギョウ,0
1543,7050003008392,新規,0,2024-05-29,2024-05-29,ＡＫ　ＴＲＡＤＩＮＧ合同会社,,合同会社,茨城県,猿島郡境町,大字大歩１５８８番地２,,08,546,3060415,,,,,,,2024-05-29,1,,,,,エーケートレーディング,0
1547,7080101024768,新規,0,2024-05-29,2024-05-29,株式会社エスアンドワイ,,株式会社,静岡県,沼津市,共栄町１８番地４,,22,203,4100064,,,,,,,2024-05-29,1,,,,,エスアンドワイ,0
1549,7080401027207,新規,0,2024-05-29,2024-05-29,株式会社溝口商店,,株式会社,静岡県,袋井市,富里１０５６番地,,22,216,4371124,,,,,,,2024-05-29,1,,,,,ミゾグチショウテン,0
1550,7100001037495,新規,0,2024-05-29,2024-05-29,株式会社信州たてしなＤＭＣ,,株式会社,長野県,北佐久郡立科町,大字芦田八ケ野７４３,00134938,20,324,3842309,,,,,,,2024-05-29,1,,,,,シンシュウタテシナディーエムシー,0
1554,7110001038443,新規,0,2024-05-29,2024-05-29,株式会社Ｓ・プラント,,株式会社,新潟県,村上市,北赤谷１５４番地１,,15,212,9593936,,,,,,,2024-05-29,1,,,,,エスプラント,0
1562,7120001264930,新規,0,2024-05-29,2024-05-29,橘藍株式会社,,株式会社,大阪府,大阪市浪速区,恵美須西３丁目１１－３－Ｂ棟,,27,111,5560003,,,,,,,2024-05-29,1,,,,,キツラン,0
1563,7120001265342,新規,0,2024-05-29,2024-05-29,株式会社アスカレオール,,株式会社,大阪府,大阪市北区,中津１丁目１６番２３号三嶋マンション２０１号室,,27,127,5310071,,,,,,,2024-05-29,1,,,,,アスカレオール,0
1564,7120001265375,新規,0,2024-05-29,2024-05-29,株式会社サンビ,,株式会社,大阪府,大阪市北区,中津６丁目８番１号パレス北梅田４０１号室,,27,127,5310071,,,,,,,2024-05-29,1,,,,,サンビ,0
1565,7120001265425,新規,0,2024-05-29,2024-05-29,ＳＡＮＤＡＩ株式会社,,株式会社,大阪府,大阪市平野区,喜連東１丁目７番３６－４０１号,,27,126,5470021,,,,,,,2024-05-29,1,,,,,サンダイ,0
1567,7120003026726,新規,0,2024-05-29,2024-05-29,合同会社ＳＨＩＲＯ,,合同会社,大阪府,大阪市住吉区,遠里小野５丁目５番１０号,,27,120,5580032,,,,,,,2024-05-29,1,,,,,,0
1573,7130001077134,新規,0,2024-05-29,2024-05-29,株式会社ワークトラック,,株式会社,京都府,京田辺市,山手南２丁目１８番地６,,26,211,6100354,,,,,,,2024-05-29,1,,,,,ワークトラック,0
1574,7130001077150,新規,0,2024-05-29,2024-05-29,株式会社Ｘ‐ＣＩＡ,,株式会社,京都府,京都市下京区,七条御所ノ内北町６３番地１エステムプラザ京都御所ノ内ＲＥＧＩＡ３１２号,,26,106,6008861,,,,,,,2024-05-29,1,,,,,エックスシーアイエー,0
1575,7130005017103,新規,0,2024-05-29,2024-05-29,一般社団法人京都生命科学研究所,,その他の設立登記法人,京都府,京都市中京区,河原町通御池下る下丸屋町３９０番地２ＱＵＥＳＴＩＯＮ内,,26,104,6048006,,,,,,,2024-05-29,1,,,,,キョウトセイメイカガクケンキュウショ,0
1577,7140001134586,新規,0,2024-05-29,2024-05-29,ＣＢレンタリース株式会社,,株式会社,兵庫県,姫路市,五郎右衛門邸７１番地,,28,201,6700857,,,,,,,2024-05-29,1,,,,,シービーレンタリース,0
1585,7140003020611,新規,0,2024-05-29,2024-05-29,３８ＡＵＴＯ合同会社,,合同会社,兵庫県,西脇市,和布町１８７番地３,,28,213,6770053,,,,,,,2024-05-29,1,,,,,サンハチオート,0
1586,7150001027310,新規,0,2024-05-29,2024-05-29,株式会社Ｓｋｙ　ｈａｔ,,株式会社,奈良県,奈良市,押熊町６８９番地の１５,,29,201,6310011,,,,,,,2024-05-29,1,,,,,スカイハット,0
1601,7180003026844,新規,0,2024-05-29,2024-05-29,合同会社ＰＥＥＣ,,合同会社,愛知県,長久手市,岩作中島５５番地１１,,23,238,4801103,,,,,,,2024-05-29,1,,,,,ピーク,0
1602,7180003026852,新規,0,2024-05-29,2024-05-29,合同会社めちゃうる,,合同会社,愛知県,名古屋市西区,栄生２丁目１６番２２号,,23,104,4510052,,,,,,,2024-05-29,1,,,,,メチャウル,0
1605,7180301038681,新規,0,2024-05-29,2024-05-29,株式会社ＳＨＵＫＥＮ,,株式会社,愛知県,岡崎市,稲熊町字海深５９番地１,,23,202,4440071,,,,,,,2024-05-29,1,,,,,シュウケン,0
1606,7190001031374,新規,0,2024-05-29,2024-05-29,株式会社いろどり,,株式会社,三重県,いなべ市,大安町石榑東２４４３番地５,,24,214,5110264,,,,,,,2024-05-29,1,,,,,イロドリ,0
1616,7230001020364,新規,0,2024-05-29,2024-05-29,株式会社氷見かねまつ,,株式会社,富山県,氷見市,地蔵町７番４８号,,16,205,9350014,,,,,,,2024-05-29,1,,,,,ヒミカネマツ,0
1619,7240001063288,新規,0,2024-05-29,2024-05-29,株式会社ＴＥＴＳＵ,,株式会社,広島県,広島市東区,尾長西２丁目１２番１３号,,34,102,7320047,,,,,,,2024-05-29,1,,,,,テツ,0
1621,7240003006674,新規,0,2024-05-29,2024-05-29,合同会社ｍａｒｉｎｅ,,合同会社,広島県,広島市中区,銀山町１１番８号,,34,101,7300022,,,,,,,2024-05-29,1,,,,,マリン,0
1622,7250001020668,新規,0,2024-05-29,2024-05-29,ＪＯＴ株式会社,,株式会社,山口県,下松市,中島町１丁目４番９号,,35,207,7440077,,,,,,,2024-05-29,1,,,,,ジェイオーティー,0
1623,7260001039113,新規,0,2024-05-29,2024-05-29,三洋農園株式会社,,株式会社,岡山県,岡山市北区,下伊福上町８番２０号,,33,101,7000051,,,,,,,2024-05-29,1,,,,,サンヨウノウエン,0
1624,7260003004718,新規,0,2024-05-29,2024-05-29,合同会社Ｒｕｉ,,合同会社,岡山県,倉敷市,酒津２５１０番地１パティオ・カーサＡ棟,,33,202,7100801,,,,,,,2024-05-29,1,,,,,ルイ,0
1634,7290001105944,新規,0,2024-05-29,2024-05-29,株式会社３５７,,株式会社,福岡県,福岡市博多区,博多駅南１丁目１５番２８号,,40,132,8120016,,,,,,,2024-05-29,1,,,,,サンゴーナナ,0
1635,7290001105952,新規,0,2024-05-29,2024-05-29,株式会社ｅｒａｎｏｖａ,,株式会社,福岡県,福岡市早良区,飯倉３丁目８番２４－２０１号レオネクスト小緑,,40,137,8140161,,,,,,,2024-05-29,1,,,,,エラノヴァ,0
1636,7290001105960,新規,0,2024-05-29,2024-05-29,株式会社クレッシアナーシング,,株式会社,福岡県,福岡市博多区,諸岡５丁目１３－２４,,40,132,8120894,,,,,,,2024-05-29,1,,,,,クレッシアナーシング,0
1637,7290001105969,新規,0,2024-05-29,2024-05-29,株式会社シンエスタス,,株式会社,福岡県,福岡市博多区,博多駅東３丁目９番７号,,40,132,8120013,,,,,,,2024-05-29,1,,,,,シンエスタス,0
1640,7290003015365,新規,0,2024-05-29,2024-05-29,合同会社秋色企画,,合同会社,福岡県,福岡市中央区,天神２丁目２番１２号Ｔ＆Ｊビルディング７階,,40,133,8100001,,,,,,,2024-05-29,1,,,,,アキイロキカク,0
1643,7290801030598,新規,0,2024-05-29,2024-05-29,株式会社Ａｒｔ．,,株式会社,福岡県,豊前市,大字吉木１１６１番地６,,40,214,8280051,,,,,,,2024-05-29,1,,,,,アート,0
1650,7330001032093,新規,0,2024-05-29,2024-05-29,株式会社奥阿蘇ファーム,,株式会社,熊本県,阿蘇郡高森町,大字尾下１５９番地１,,43,428,8691825,,,,,,,2024-05-29,1,,,,,イクアソファーム,0
1652,7360001033725,新規,0,2024-05-29,2024-05-29,株式会社彩企画,,株式会社,沖縄県,豊見城市,字嘉数１４９番地１テラス満３０１,,47,212,9010202,,,,,,,2024-05-29,1,,,,,アヤキカク,0
1655,7370005010793,新規,0,2024-05-29,2024-05-29,一般社団法人Ｓｏｉｌ,,その他の設立登記法人,宮城県,仙台市若林区,卸町２丁目９番１号,,04,103,9840015,,,,,,,2024-05-29,1,,,,,ソイル,0
1659,7380001034572,新規,0,2024-05-29,2024-05-29,株式会社ＭＡ‐ＲＥ．,,株式会社,福島県,本宮市,本宮字中條１６番地ソレイユ本宮１階,,07,214,9691133,,,,,,,2024-05-29,1,,,,,マーレ,0
1662,7400001016667,新規,0,2024-05-29,2024-05-29,株式会社うちのや,,株式会社,岩手県,宮古市,舘合町５番６号,,03,202,0270077,,,,,,,2024-05-29,1,,,,,ウチノヤ,0
1663,7400005008421,新規,0,2024-05-29,2024-05-29,一般社団法人いわてドリームフィールド,,その他の設立登記法人,岩手県,盛岡市,好摩字夏間木７０番地１９０,,03,201,0284125,,,,,,,2024-05-29,1,,,,,イワテドリームフィールド,0
1669,7430001091897,新規,0,2024-05-29,2024-05-29,株式会社ネクストユース,,株式会社,北海道,札幌市西区,西野二条２丁目５番１１号,,01,107,0630032,,,,,,,2024-05-29,1,,,,,ネクストユース,0
1671,7430003016241,新規,0,2024-05-29,2024-05-29,合同会社ｃｏｃｏｔｏ,,合同会社,北海道,札幌市東区,苗穂町３丁目４－２０ＡＸＩＳ－ＦＡ苗穂４０１号室,,01,103,0650043,,,,,,,2024-05-29,1,,,,,,0
1672,7450001014328,新規,0,2024-05-29,2024-05-29,株式会社Ｒ’ｓ　Ｌｉｎｋ,,株式会社,北海道,富良野市,字下御料,,01,229,0760017,,,,,,,2024-05-29,1,,,,,アールズリンク,0
1673,7480001012485,新規,0,2024-05-29,2024-05-29,株式会社ヌベレー,,株式会社,徳島県,徳島市,佐古二番町５番１１号,,36,201,7700022,,,,,,,2024-05-29,1,,,,,ヌベレー,0
1677,7490001010777,新規,0,2024-05-29,2024-05-29,高知大理石工業株式会社,,株式会社,高知県,高知市,愛宕町２丁目２１番１４号,,39,201,7800051,,,,,,,2024-05-29,1,,,,,,0
1680,7500003003257,新規,0,2024-05-29,2024-05-29,よんでん太陽光合同会社,,合同会社,愛媛県,松山市,湊町６丁目６番地２,,38,201,7900012,,,,,,,2024-05-29,1,,,,,ヨンデンタイヨウコウ,0
1682,7700150125668,新規,0,2024-05-29,2024-05-29,Ｈａｎｇｚｈｏｕ　Ｆｅｎｇ　Ｈａｉ　Ｅｌｅｃｔｒｏｎｉｃ　Ｃｏｍｍｅｒｃｅ　Ｃｏ．Ｌｔｄ,,外国会社等,,,,,,,,ｈｕｉｆｅｎｇｇｕｏｊｉｓｈａｎｇｗｕｚｈｏｎｇｘｉｎ４ｈａｏｌｏｕＤ１２１ｓｈｉ　ＸｉｈｕｑｕＬｉｕｘｉａｊｉｅｄａｏＪｉｎｓｈａｎｌｉｎｇｌｕ２ｈａｏ　ＨＡＮＧＺＨＯＵ　Ｚｈｅｊｉａｎｇ　Ｃｈｉｎａ　３１００００,,,,,,2024-05-29,1,,,,,コウシュウホウデンシエレクトロニクスコマースカンパニーリミティッド,0
1683,7700150125676,新規,0,2024-05-29,2024-05-29,ウィッシュカンパニー　株式会社,,外国会社等,東京都,荒川区,東日暮里５丁目４９－８－２０１,,13,118,1160014,大韓民国ソウル特別市江南区テヘラン路４１９、１６階（三成洞江南ファイナンスプラザ）,,,,,,2024-05-29,1,,,,,ウイツシユカンパニーカブシキガイシヤ,0
1691,8010001245255,新規,0,2024-05-29,2024-05-29,マルモリ株式会社,,株式会社,東京都,文京区,本郷３丁目３１番１５号,,13,105,1130033,,,,,,,2024-05-29,1,,,,,マルモリ,0
1696,8010003043772,新規,0,2024-05-29,2024-05-29,合同会社サイクエスト,,合同会社,東京都,中央区,銀座１丁目２２番１１号銀座大竹ビジデンス２Ｆ,,13,102,1040061,,,,,,,2024-05-29,1,,,,,サイクエスト,0
1703,8010401182767,新規,0,2024-05-29,2024-05-29,株式会社ベルバードアミューズメント,,株式会社,東京都,港区,新橋３丁目８番６号ル・グラシエルビル３６号館６Ｆ,,13,103,1050004,,,,,,,2024-05-29,1,,,,,ベルバードアミューズメント,0
1710,8010501052325,新規,0,2024-05-29,2024-05-29,株式会社丸海商事,,株式会社,東京都,台東区,上野３丁目１６－２天翔オフィス上野末広町８１１室,,13,106,1100005,,,,,,,2024-05-29,1,,,,,マルミショウジ,0
1711,8010501052366,新規,0,2024-05-29,2024-05-29,エイコウ株式会社,,株式会社,東京都,台東区,松が谷２丁目９番１－２０２号,,13,106,1110036,,,,,,,2024-05-29,1,,,,,エイコウ,0
1724,8010903009071,新規,0,2024-05-29,2024-05-29,合同会社ＭＯＮ,,合同会社,東京都,世田谷区,用賀４丁目５番２１号,,13,112,1580097,,,,,,,2024-05-29,1,,,,,モン,0
1730,8011001162192,新規,0,2024-05-29,2024-05-29,株式会社Ｕ’ＮＤＥ,,株式会社,東京都,渋谷区,道玄坂１丁目１０番８号渋谷道玄坂東急ビル２Ｆ－Ｃ,,13,113,1500043,,,,,,,2024-05-29,1,,,,,,0
1732,8011003018863,新規,0,2024-05-29,2024-05-29,合同会社ｓｐｉｒａｌ　ｓｔａｉｒｃａｓｅ,,合同会社,東京都,渋谷区,神宮前６丁目２３番４号桑野ビル２階,,13,113,1500001,,,,,,,2024-05-29,1,,,,,スパイラルステアケース,0
1733,8011003019226,新規,0,2024-05-29,2024-05-29,合同会社ＶＨＴＯＫＹＯ,,合同会社,東京都,目黒区,五本木１丁目２９－１ＰＩＡＺＺＡ－Ｕ３０２号室,,13,110,1530053,,,,,,,2024-05-29,1,,,,,ブイエイチトウキョウ,0
1741,8011301029711,新規,0,2024-05-29,2024-05-29,株式会社ＴＲＩＢＥ,,株式会社,東京都,杉並区,成田東１丁目６番１０号,,13,115,1660015,,,,,,,2024-05-29,1,,,,,トライブ,0
1747,8011701027315,新規,0,2024-05-29,2024-05-29,株式会社ｍｉｌｃｏ,,株式会社,東京都,江戸川区,東葛西２丁目３０番１５号,,13,123,1340084,,,,,,,2024-05-29,1,,,,,ミルコ,0
1749,8011703003842,新規,0,2024-05-29,2024-05-29,ＩＴＡ合同会社,,合同会社,東京都,江戸川区,西葛西４丁目２番５－３２６号コンドミニアム葛西,,13,123,1340088,,,,,,,2024-05-29,1,,,,,アイティーエー,0
1754,8012801023212,新規,0,2024-05-29,2024-05-29,株式会社クツクツ,,株式会社,東京都,国立市,東１丁目１５－１１、４４８ビル３Ｆ,,13,215,1860002,,,,,,,2024-05-29,1,,,,,クツクツ,0
1767,8020001157458,新規,0,2024-05-29,2024-05-29,株式会社寿和,,株式会社,神奈川県,横浜市西区,北幸２丁目１０－２８むつみビル３Ｆ,,14,103,2200004,,,,,,,2024-05-29,1,,,,,シュウワ,0
1768,8020001157466,新規,0,2024-05-29,2024-05-29,株式会社Ｋ‐ｓｔｙｌｅ,,株式会社,神奈川県,横浜市磯子区,杉田２丁目８番２２－Ａ３０２,,14,107,2350033,,,,,,,2024-05-29,1,,,,,ケースタイル,0
1769,8020001157474,新規,0,2024-05-29,2024-05-29,トミーマネジメント株式会社,,株式会社,神奈川県,横浜市緑区,白山４丁目５７番１２号,,14,113,2260006,,,,,,,2024-05-29,1,,,,,トミーマネジメント,0
1772,8020003026215,新規,0,2024-05-29,2024-05-29,合同会社南設備工業,,合同会社,神奈川県,横浜市泉区,和泉中央北４丁目１４番５－２０７号,,14,116,2450024,,,,,,,2024-05-29,1,,,,,ミナミセツビコウギョウ,0
1787,8030003024333,新規,0,2024-05-29,2024-05-29,合同会社フリーダムウェイ,,合同会社,埼玉県,吉川市,きよみ野４丁目１番地５ウッドパーク吉川きよみ野Ｄ２０２,,11,243,3420058,,,,,,,2024-05-29,1,,,,,フリーダムウェイ,0
1788,8030003024358,新規,0,2024-05-29,2024-05-29,合同会社メイシン,,合同会社,埼玉県,さいたま市北区,土呂町２丁目５２番地４サンシティ花みずきＡ１０２,,11,102,3310804,,,,,,,2024-05-29,1,,,,,メイシン,0
1792,8040001133779,新規,0,2024-05-29,2024-05-29,株式会社あゆみ,,株式会社,千葉県,千葉市若葉区,若松町５４３番地９０,,12,104,2640021,,,,,,,2024-05-29,1,,,,,アユミ,0
1801,8070003005437,新規,0,2024-05-29,2024-05-29,合同会社ハレナギ,,合同会社,群馬県,伊勢崎市,境１０６０番地,,10,204,3700124,,,,,,,2024-05-29,1,,,,,ハレナギ,0
1804,8080401027206,新規,0,2024-05-29,2024-05-29,株式会社マークショップサンケイ,,株式会社,静岡県,浜松市中央区,植松町１３８４番地の１,,22,138,4300803,,,,,,,2024-05-29,1,,,,,マークショップサンケイ,0
1820,8120001265184,新規,0,2024-05-29,2024-05-29,株式会社ｙａｋｕｎｉｔａｔｔｅｎａｎｂｏ,,株式会社,大阪府,大阪市北区,堂島２丁目３－３６神産堂島ビル３階,,27,127,5300003,,,,,,,2024-05-29,1,,,,,ヤクニタッテナンボ,0
1821,8120001265333,新規,0,2024-05-29,2024-05-29,清源株式会社,,株式会社,大阪府,大阪市此花区,梅香１丁目１９－１２－３０３室,,27,104,5540013,,,,,,,2024-05-29,1,,,,,セイゲン,0
1822,8120001265432,新規,0,2024-05-29,2024-05-29,勇虎美装株式会社,,株式会社,大阪府,大阪市北区,中津１丁目２番２１号中津明大ビル４階,,27,127,5310071,,,,,,,2024-05-29,1,,,,,ユウトビソウ,0
1826,8120003026709,新規,0,2024-05-29,2024-05-29,合同会社ａｗ,,合同会社,大阪府,大阪市中央区,松屋町住吉１－６フェニックス松屋町１階,,27,128,5400017,,,,,,,2024-05-29,1,,,,,アウ,0
1827,8120003026725,新規,0,2024-05-29,2024-05-29,合同会社メイクスマイル,,合同会社,大阪府,大阪市西区,南堀江４丁目４番２０－４０７号,,27,106,5500015,,,,,,,2024-05-29,1,,,,,メイクスマイル,0
1828,8120901049240,新規,0,2024-05-29,2024-05-29,ＫＭａｋｅ株式会社,,株式会社,大阪府,豊中市,服部西町４丁目５番１－４０２号,,27,203,5610858,,,,,,,2024-05-29,1,,,,,ケイメイク,0
1838,8140001134569,新規,0,2024-05-29,2024-05-29,タマケンテック株式会社,,株式会社,兵庫県,姫路市,勝原区下太田２９０番地１,,28,201,6711201,,,,,,,2024-05-29,1,,,,,タマケンテック,0
1851,8170001018133,新規,0,2024-05-29,2024-05-29,株式会社朝本プランニング,,株式会社,和歌山県,西牟婁郡白浜町,日置７４４番地,,30,401,6492511,,,,,,,2024-05-29,1,,,,,アサモトプランニング,0
1852,8170001018158,新規,0,2024-05-29,2024-05-29,大阪カネイ商事株式会社,,株式会社,和歌山県,御坊市,御坊１１１－５,,30,205,6440001,,,,,,,2024-05-29,1,,,,,オオサカカネイショウジ,0
1860,8180001161700,新規,0,2024-05-29,2024-05-29,株式会社Ｈｅａｌｔｈｉｗａ,,株式会社,愛知県,岩倉市,東町東市場屋敷９９番地１,,23,228,4820041,,,,,,,2024-05-29,1,,,,,ヘルシイワ,0
1861,8180001161725,新規,0,2024-05-29,2024-05-29,株式会社Ｅシステム,,株式会社,愛知県,名古屋市中川区,万場２丁目７２９－３,,23,110,4540997,,,,,,,2024-05-29,1,,,,,イーシステム,0
1865,8180005020646,新規,0,2024-05-29,2024-05-29,一般社団法人ＩＭＳ,,その他の設立登記法人,愛知県,名古屋市名東区,小池町５番地,,23,115,4650047,,,,,,,2024-05-29,1,,,,,アイエムエス,0
1866,8180301038680,新規,0,2024-05-29,2024-05-29,株式会社黒蘭工建,,株式会社,愛知県,岡崎市,鉢地町字下中野３３番地１,,23,202,4443512,,,,,,,2024-05-29,1,,,,,コクランコウケン,0
1870,8230001020363,新規,0,2024-05-29,2024-05-29,株式会社ソムリエＨ,,株式会社,富山県,中新川郡上市町,湯神子２番地１,,16,322,9300454,,,,,,,2024-05-29,1,,,,,ソムリエエイチ,0
1873,8240001063287,新規,0,2024-05-29,2024-05-29,ブライトアップ株式会社,,株式会社,広島県,広島市安佐南区,川内５丁目３２番２９号,,34,105,7310102,,,,,,,2024-05-29,1,,,,,ブライトアップ,0
1876,8240003006698,新規,0,2024-05-29,2024-05-29,合同会社Ａｓｓａｍ,,合同会社,広島県,広島市南区,段原南１丁目１９番９－１１０２号,,34,103,7320814,,,,,,,2024-05-29,1,,,,,アッサム,0
1877,8250001020667,新規,0,2024-05-29,2024-05-29,株式会社上田造船,,株式会社,山口県,長門市,西深川２３番地４,,35,211,7594102,,,,,,,2024-05-29,1,,,,,ウエダゾウセン,0
1880,8260001039112,新規,0,2024-05-29,2024-05-29,株式会社ＡＤＸ,,株式会社,岡山県,岡山市北区,今５丁目９番２４号,,33,101,7000975,,,,,,,2024-05-29,1,,,,,エーディークロス,0
1888,8290001105951,新規,0,2024-05-29,2024-05-29,Ｔ１ＳＰＯＲＴＳ株式会社,,株式会社,福岡県,福岡市東区,東浜１丁目１３番３２号,,40,131,8120055,,,,,,,2024-05-29,1,,,,,ティーワンスポーツ,0
1889,8290001105968,新規,0,2024-05-29,2024-05-29,株式会社ＵＴＡ,,株式会社,福岡県,宗像市,三郎丸２丁目１１番２号,,40,220,8114143,,,,,,,2024-05-29,1,,,,,ウタ,0
1891,8290003015372,新規,0,2024-05-29,2024-05-29,岡村ホーム合同会社,,合同会社,福岡県,福岡市中央区,二丁目２番１２号Ｔ＆Ｊビルディング７Ｆ,,40,133,8100000,,,,,,,2024-05-29,1,,,,,オカムラホーム,0
1892,8290003015380,新規,0,2024-05-29,2024-05-29,合同会社ｃｈａｐｏ,,合同会社,福岡県,福岡市博多区,月隈６丁目９番３５号,,40,132,8120858,,,,,,,2024-05-29,1,,,,,チャポ,0
1898,8330001032092,新規,0,2024-05-29,2024-05-29,株式会社ｙ,,株式会社,熊本県,菊池郡菊陽町,光の森７丁目２４－１０オンブラージュ光の森３０１号,,43,404,8691108,,,,,,,2024-05-29,1,,,,,ワイ,0
1900,8350003004658,新規,0,2024-05-29,2024-05-29,合同会社ＭＵＲＡＫＡＭＩ,,合同会社,宮崎県,宮崎市,恒久南１丁目３番地２ルミナス恒久南６０２号,,45,201,8800915,,,,,,,2024-05-29,1,,,,,ムラカミ,0
1903,8360001033724,新規,0,2024-05-29,2024-05-29,ゆがふ開発株式会社,,株式会社,沖縄県,沖縄市,胡屋５丁目２６番２５号,,47,211,9040021,,,,,,,2024-05-29,1,,,,,ユガフカイハツ,0
1907,8370001051345,新規,0,2024-05-29,2024-05-29,株式会社ＡＬＢＡＲＩＳＥ,,株式会社,宮城県,仙台市青葉区,錦ケ丘４丁目１９番地の４,,04,101,9893123,,,,,,,2024-05-29,1,,,,,アルバライズ,0
1918,8430001091896,新規,0,2024-05-29,2024-05-29,札栄電設株式会社,,株式会社,北海道,札幌市西区,西町北７丁目３番８－１０３号,,01,107,0630061,,,,,,,2024-05-29,1,,,,,サツエイデンセツ,0
1922,8460001003238,新規,0,2024-05-29,2024-05-29,株式会社白雲荘,,株式会社,北海道,川上郡弟子屈町,中央１丁目２番２６号,,01,665,0883211,,,,,,,2024-05-29,1,,,,,,0
1925,8470001020224,新規,0,2024-05-29,2024-05-29,株式会社鼎騰,,株式会社,香川県,丸亀市,郡家町２４９５番地１,,37,202,7630093,,,,,,,2024-05-29,1,,,,,テイトウ,0
1933,8700150125667,新規,0,2024-05-29,2024-05-29,ＳＨＥＮ　ＺＨＥＮ　ＳＨＩ　ＡＩ　ＬＩ　ＰＵ　ＫＥ　ＪＩ　ＹＯＵ　ＸＩＡＮ　ＧＯＮＧ　ＳＩ,,外国会社等,,,,,,,,Ｂａｏ　Ａｎ　Ｑｕ，Ｓｈｉ　Ｙａｎ　Ｊｉｅ　Ｄａｏ　Ｌｕｏ　Ｚｕ　Ｓｈｅ　Ｑｕ　Ｈａｉ　Ｇｕ　Ｋｅ　Ｊｉ　Ｄａ　Ｓｈａ　Ｔ１　Ｄｏｎｇ　１－１３０１　Ｓｈｅｎｚｈｅｎ　Ｇｕａｎｇｄｏｎｇ　５１８１０８　ＣＮ,,,,,,2024-05-29,1,,,,,シンセンシアイリツフカギユウゲンコウシ,0
1934,8700150125675,新規,0,2024-05-29,2024-05-29,Ｔｅｎｓｈｉ　Ａｓｓｏｃｉａｔｅｓ　株式会社,,外国会社等,東京都,荒川区,東日暮里３丁目１２番１５号２階,,13,118,1160014,ネパール国チトワン郡バラトプアメトロポリタン市サヒドチョク１番地,,,,,,2024-05-29,1,,,,,テンシアソシエイツカブシキガイシヤ,0
1946,9010001245139,新規,0,2024-05-29,2024-05-29,ＴＫプラスＭａｎａｇｅｍｅｎｔ株式会社,,株式会社,東京都,中央区,晴海３丁目１０－１,,13,102,1040053,,,,,,,2024-05-29,1,,,,,ティーケープラスマネジメント,0
1947,9010001245246,新規,0,2024-05-29,2024-05-29,株式会社モンテセレーノ,,株式会社,東京都,中央区,銀座１丁目１２－４Ｎ＆ＥＢＬＤ．７階,,13,102,1040061,,,,,,,2024-05-29,1,,,,,モンテセレーノ,0
1948,9010003043854,新規,0,2024-05-29,2024-05-29,ＫＭＹ合同会社,,合同会社,東京都,千代田区,麹町１丁目６番１６号半蔵門海和ビル９階（Ｃ／ＯＪｏｏ－ｒｅａｌｅｓｔａｔｅ－ｏｆｆｉｃｅ）,,13,101,1020083,,,,,,,2024-05-29,1,,,,,ケイエムワイ,0
1950,9010005038349,新規,0,2024-05-29,2024-05-29,一般社団法人ＫＳＩＦ２,,その他の設立登記法人,東京都,千代田区,内幸町２丁目１番６号,,13,101,1000011,,,,,,,2024-05-29,1,,,,,ケイエスアイエフツー,0
1952,9010103002363,新規,0,2024-05-29,2024-05-29,合同会社Ｋｉｎａｋｏｈ,,合同会社,東京都,八王子市,緑町２１４番地４０,,13,201,1930932,,,,,,,2024-05-29,1,,,,,キナコ,0
1959,9010401182675,新規,0,2024-05-29,2024-05-29,株式会社ミュゼプラチナム,,株式会社,東京都,港区,台場２丁目３番５号台場ガーデンシティビル１１階,,13,103,1350091,,,,,,,2024-05-29,1,,,,,ミュゼプラチナム,0
1960,9010401182774,新規,0,2024-05-29,2024-05-29,株式会社葵,,株式会社,東京都,港区,芝浦２丁目３番２６号田町東豊エステート６０１,,13,103,1080023,,,,,,,2024-05-29,1,,,,,アオイ,0
1962,9010403032688,新規,0,2024-05-29,2024-05-29,合同会社ＮＯＴ　Ａ　ＭＯＶＥ,,合同会社,東京都,港区,赤坂４丁目１３番８号赤坂パレスマンション５１０,,13,103,1070052,,,,,,,2024-05-29,1,,,,,ノットアムーブ,0
1963,9010405023248,新規,0,2024-05-29,2024-05-29,一般社団法人ＳＧ　Ｌａｂ,,その他の設立登記法人,東京都,港区,南青山２丁目２番１５号,,13,103,1070062,,,,,,,2024-05-29,1,,,,,エスジーラボ,0
1965,9010501052365,新規,0,2024-05-29,2024-05-29,グロースキル株式会社,,株式会社,東京都,台東区,上野６丁目８番１９号小野田ビル３階３０１,,13,106,1100005,,,,,,,2024-05-29,1,,,,,グロースキル,0
1968,9010605004329,新規,0,2024-05-29,2024-05-29,一般社団法人カンボジアＹＡＴＡＩ　ＳＣＨＯＯＬ,,その他の設立登記法人,東京都,江東区,青海２丁目７番４号ｔｈｅＳＯＨＯ９０１,,13,108,1350064,,,,,,,2024-05-29,1,,,,,カンボジアヤタイスクール,0
1978,9010901055356,新規,0,2024-05-29,2024-05-29,株式会社Ｍ＆Ｍ,,株式会社,東京都,世田谷区,太子堂１丁目１２番２３号三軒茶屋ＧＲＡＮＤ１階事務所,,13,112,1540004,,,,,,,2024-05-29,1,,,,,エムアンドエム,0
1981,9011003019225,新規,0,2024-05-29,2024-05-29,ＬＩＮＯ　ｌａｂ合同会社,,合同会社,東京都,渋谷区,道玄坂１丁目１０番８号渋谷道玄坂東急ビル２Ｆ－Ｃ,,13,113,1500043,,,,,,,2024-05-29,1,,,,,リノラボ,0
1999,9011603004353,新規,0,2024-05-29,2024-05-29,ヴァリー合同会社,,合同会社,東京都,練馬区,南田中３丁目８－２８第１３スカイブルーマンション１０３,,13,120,1770035,,,,,,,2024-05-29,1,,,,,ヴァリー,0
2003,9011801044309,新規,0,2024-05-29,2024-05-29,株式会社ＧＥＭ,,株式会社,東京都,足立区,興野１丁目１６－１２,,13,121,1230844,,,,,,,2024-05-29,1,,,,,ジェム,0
2005,9012703003006,新規,0,2024-05-29,2024-05-29,ＣＨＡ２ＣＯ合同会社,,合同会社,東京都,東村山市,久米川町４丁目１－１５,,13,213,1890003,,,,,,,2024-05-29,1,,,,,チャニコ,0
2014,9020001157465,新規,0,2024-05-29,2024-05-29,株式会社Ｆｏｒｅｓｔ　ＭＡＴＥ,,株式会社,神奈川県,横浜市神奈川区,金港町５－１４クアドリフォリオ８階,,14,102,2210056,,,,,,,2024-05-29,1,,,,,フォレストメイト,0
2019,9020003026230,新規,0,2024-05-29,2024-05-29,致遠合同会社,,合同会社,神奈川県,川崎市幸区,下平間２０７番地１０,,14,132,2120053,,,,,,,2024-05-29,1,,,,,チエン,0
2021,9021003014563,新規,0,2024-05-29,2024-05-29,合同会社御宿物流,,合同会社,神奈川県,横須賀市,平作５丁目２９番６号,,14,201,2380032,,,,,,,2024-05-29,1,,,,,オンジュクブツリュウ,0
2030,9030001160600,新規,0,2024-05-29,2024-05-29,株式会社文太郎工業,,株式会社,埼玉県,さいたま市南区,辻８丁目１６番９号,00134943,11,108,3360026,,,,,,,2024-05-29,1,,,,,ブンタロウコウギョウ,0
2031,9030001160609,新規,0,2024-05-29,2024-05-29,ＹＳ不動産販売株式会社,,株式会社,埼玉県,春日部市,大場１３１６番地３,,11,214,3440021,,,,,,,2024-05-29,1,,,,,ワイエスフドウサンハンバイ,0
2032,9030001160617,新規,0,2024-05-29,2024-05-29,株式会社三和,,株式会社,埼玉県,北足立郡伊奈町,中央２丁目８７番地,,11,301,3620809,,,,,,,2024-05-29,1,,,,,サンワ,0
2038,9030003024381,新規,0,2024-05-29,2024-05-29,合同会社吉成厨機サービス,,合同会社,埼玉県,戸田市,中町１丁目１９番３号スターハイム戸田中町ＩＩ３１１号室,00134942,11,224,3350012,,,,,,,2024-05-29,1,,,,,ヨシナリチュウキサービス,0
2047,9040001133803,新規,0,2024-05-29,2024-05-29,ＨＥＲＯ株式会社,,株式会社,千葉県,船橋市,習志野台５丁目２７番２２号,,12,204,2740063,,,,,,,2024-05-29,1,,,,,ヒーロー,0
2051,9050001054734,新規,0,2024-05-29,2024-05-29,株式会社Ｃｈｒｏｍ,,株式会社,茨城県,鉾田市,汲上４３７７－２,,08,234,3112103,,,,,,,2024-05-29,1,,,,,クロム,0
2059,9070003005436,新規,0,2024-05-29,2024-05-29,合同会社ＺＥＮＴ,,合同会社,群馬県,北群馬郡榛東村,大字広馬場４０７番地１,,10,344,3703504,,,,,,,2024-05-29,1,,,,,ゼント,0
2067,9110001038441,新規,0,2024-05-29,2024-05-29,株式会社マプラスデザイン,,株式会社,新潟県,新潟市東区,空港西１丁目１番１７号,,15,102,9500036,,,,,,,2024-05-29,1,,,,,マプラスデザイン,0
2068,9110003005407,新規,0,2024-05-29,2024-05-29,合同会社新潟西不動産ＣＭＰ,,合同会社,新潟県,新潟市西区,槇尾１５１番地１,,15,107,9502121,,,,,,,2024-05-29,1,,,,,ニイガタニシフドウサンシーエムピー,0
2079,9120001265381,新規,0,2024-05-29,2024-05-29,ＹＳＪ株式会社,,株式会社,大阪府,大阪市浪速区,日本橋西２丁目８番２号１階１号室,,27,111,5560004,,,,,,,2024-05-29,1,,,,,ワイエスジェイ,0
2080,9120001265407,新規,0,2024-05-29,2024-05-29,株式会社Ｔ＆Ｎ,,株式会社,大阪府,大阪市北区,梅田１丁目２番２号大阪駅前第２ビル１２－１２,,27,127,5300001,,,,,,,2024-05-29,1,,,,,ティーアンドエヌ,0
2081,9120001265456,新規,0,2024-05-29,2024-05-29,ＺＡＴＮＡＺ株式会社,,株式会社,大阪府,大阪市淀川区,木川東３丁目９－５スワンズシティ新大阪８０１号室,,27,123,5320012,,,,,,,2024-05-29,1,,,,,ザットナズ,0
2084,9120003026708,新規,0,2024-05-29,2024-05-29,合同会社リクスト,,合同会社,大阪府,大阪市都島区,毛馬町３丁目２番１－６１８号,,27,102,5340001,,,,,,,2024-05-29,1,,,,,リクスト,0
2085,9120003026724,新規,0,2024-05-29,2024-05-29,合同会社Ｂｌａｃｋ　Ｂｕｌｌ,,合同会社,大阪府,大阪市浪速区,稲荷１丁目４番８－６０５号,,27,111,5560023,,,,,,,2024-05-29,1,,,,,ブラックブル,0
2086,9120005024346,新規,0,2024-05-29,2024-05-29,一般社団法人ＰＯＰＯ,,その他の設立登記法人,大阪府,大阪市浪速区,敷津東２丁目１番２４－２６０１号,,27,111,5560012,,,,,,,2024-05-29,1,,,,,ポポ,0
2091,9130001077124,新規,0,2024-05-29,2024-05-29,猫の宿株式会社,,株式会社,京都府,相楽郡和束町,大字石寺小字初尾平２９番地,,26,365,6191221,,,,,,,2024-05-29,1,,,,,ネコノヤド,0
2092,9130001077149,新規,0,2024-05-29,2024-05-29,株式会社シルバーサン,,株式会社,京都府,京都市下京区,七条御所ノ内北町６３番地１エステムプラザ京都御所ノ内ＲＥＧＩＡ３１２号,,26,106,6008861,,,,,,,2024-05-29,1,,,,,シルバーサン,0
2097,9140001134568,新規,0,2024-05-29,2024-05-29,福永工業株式会社,,株式会社,兵庫県,姫路市,飾磨区中島１丁目４７８番地２,,28,201,6728035,,,,,,,2024-05-29,1,,,,,フクナガコウギョウ,0
2098,9140001134584,新規,0,2024-05-29,2024-05-29,ＩＫＹコーポレーション株式会社,,株式会社,兵庫県,神戸市北区,北五葉４丁目５番２４号,,28,109,6511131,,,,,,,2024-05-29,1,,,,,アイケイワイコーポレーション,0
2100,9140003020626,新規,0,2024-05-29,2024-05-29,合同会社セルヴォー設計ラボ,,合同会社,兵庫県,西宮市,若山町８－４－３０３号室,,28,204,6638016,,,,,,,2024-05-29,1,,,,,セルヴォーセッケイラボ,0
2110,9180001161666,新規,0,2024-05-29,2024-05-29,株式会社明日に向かって,,株式会社,愛知県,名古屋市港区,善進町４丁目１８番地の２,,23,111,4550811,,,,,,,2024-05-29,1,,,,,アシタニムカッテ,0
2111,9180001161724,新規,0,2024-05-29,2024-05-29,株式会社大須商会,,株式会社,愛知県,名古屋市中区,大須３丁目２７番２０号,,23,106,4600011,,,,,,,2024-05-29,1,,,,,オオスショウカイ,0
2116,9180003026850,新規,0,2024-05-29,2024-05-29,アトリエどうたん合同会社,,合同会社,愛知県,日進市,赤池南２丁目４０７番地,,23,230,4700127,,,,,,,2024-05-29,1,,,,,アトリエドウタン,0
2117,9190001031372,新規,0,2024-05-29,2024-05-29,株式会社大和工務店,,株式会社,三重県,員弁郡東員町,城山２丁目３１番５,,24,324,5110233,,,,,,,2024-05-29,1,,,,,ヤマトコウムテン,0
2127,9240001063286,新規,0,2024-05-29,2024-05-29,オンラボ株式会社,,株式会社,広島県,広島市西区,己斐東２丁目３０番３７号,,34,104,7330811,,,,,,,2024-05-29,1,,,,,オンラボ,0
2129,9240003006697,新規,0,2024-05-29,2024-05-29,合同会社ＬＡＮＶＡＮ,,合同会社,広島県,安芸郡府中町,本町４丁目１２番１９号,,34,302,7350006,,,,,,,2024-05-29,1,,,,,ランバン,0
2133,9260003004716,新規,0,2024-05-29,2024-05-29,合同会社ＧＬＡＤＩＯ,,合同会社,岡山県,倉敷市,上東１２２７番地５,,33,202,7010111,,,,,,,2024-05-29,1,,,,,グラディオ,0
2138,9290001105950,新規,0,2024-05-29,2024-05-29,株式会社無縁,,株式会社,福岡県,福岡市博多区,博多駅前４丁目３２－１４－１Ｆ,,40,132,8120011,,,,,,,2024-05-29,1,,,,,ムエン,0
2139,9290003015330,新規,0,2024-05-29,2024-05-29,合同会社まるとく,,合同会社,福岡県,春日市,春日原北町３丁目５８－１春日原テルミナ１０３,,40,218,8160802,,,,,,,2024-05-29,1,,,,,マルトク,0
2140,9290003015363,新規,0,2024-05-29,2024-05-29,エンバーク・トラスト合同会社,,合同会社,福岡県,糸島市,加布里５丁目１３－６,,40,230,8191124,,,,,,,2024-05-29,1,,,,,,0
2148,9310001019033,新規,0,2024-05-29,2024-05-29,匠海屋株式会社,,株式会社,長崎県,佐世保市,天神町１３７６番地,,42,202,8571175,,,,,,,2024-05-29,1,,,,,タクミヤ,0
2151,9320001020502,新規,0,2024-05-29,2024-05-29,株式会社三宝荒神,,株式会社,大分県,大分市,東津留１丁目５番１号ユナイテッド東津留ビル２階,,44,201,8700934,,,,,,,2024-05-29,1,,,,,サンポコウジン,0
2152,9320005010160,新規,0,2024-05-29,2024-05-29,特定非営利活動法人神の浦プロジェクト,,その他の設立登記法人,大分県,佐伯市,上浦大字津井浦２１４７番地２,,44,205,8792602,,,,,,,2024-05-29,1,,,,,カミノウラプロジェクト,0
2157,9360001033731,新規,0,2024-05-29,2024-05-29,アイワークス株式会社,,株式会社,沖縄県,糸満市,字与座１２１６,,47,210,9010322,,,,,,,2024-05-29,1,,,,,アイワークス,0
2165,9380001034570,新規,0,2024-05-29,2024-05-29,株式会社ＬＩＦＩＸ,,株式会社,福島県,双葉郡浪江町,大字川添字中上ノ原１４９番地９,,07,547,9791531,,,,,,,2024-05-29,1,,,,,リフィックス,0
2171,9430001091887,新規,0,2024-05-29,2024-05-29,株式会社エフプランツ,,株式会社,北海道,江別市,大麻西町１６番地の１１,,01,217,0690844,,,,,,,2024-05-29,1,,,,,エフプランツ,0
2173,9470001020231,新規,0,2024-05-29,2024-05-29,株式会社Ａｌｔａｉｒ,,株式会社,香川県,観音寺市,観音寺町甲２９４９番地１１観音寺マンション３０７号室,,37,205,7680060,,,,,,,2024-05-29,1,,,,,アルタイル,0
