sequenceNumber,corporateNumber,process,correct,updateDate,changeDate,name,nameImageId,kind,prefectureName,cityName,streetNumber,addressImageId,prefectureCode,cityCode,postCode,addressOutside,addressOutsideImageId,closeDate,closeCause,successorCorporateNumber,changeCause,assignmentDate,latest,enName,enPrefectureName,enCityName,enAddressOutside,furigana,hihyoji
3,1010001100821,登記記録の閉鎖等,0,2025-01-14,2025-01-06,株式会社リーンフェイズ,,株式会社,東京都,千代田区,九段南４丁目８番２１号山脇ビル１１階,,13,101,1020074,,,2025-01-06,合併による解散等,1010001009831,令和６年１２月３１日東京都千代田区九段南四丁目８番２１号山脇ビル１１階株式会社アスク（1010001009831）に合併し解散,2015-10-05,1,,,,,リーンフェイズ,0
5,1010001128350,登記記録の閉鎖等,0,2025-01-14,2024-12-24,株式会社オメガサット,,株式会社,東京都,千代田区,西神田２丁目６番１－１３０５号,,13,101,1010065,,,2024-12-24,清算の結了等,,,2015-10-05,1,,,,,オメガサット,0
16,1010401013722,登記記録の閉鎖等,0,2025-01-14,2024-12-27,株式会社シューインターナショナル,,株式会社,東京都,世田谷区,船橋６丁目２４番８号２０２,,13,112,1560055,,,2024-12-27,清算の結了等,,,2015-10-05,1,,,,,シューインターナショナル,0
19,1010401097897,登記記録の閉鎖等,0,2025-01-14,2025-01-06,ルイ・ヴィトンサービス株式会社,,株式会社,東京都,中央区,八重洲２丁目２番１号,,13,102,1040028,,,2025-01-06,合併による解散等,3010401031706,令和７年１月１日東京都中央区八重洲二丁目２番１号ルイ・ヴィトンジャパン株式会社（3010401031706）に合併し解散,2015-10-05,1,,,,,ルイヴィトンサービス,0
21,1010401182492,登記記録の閉鎖等,0,2025-01-14,2024-12-16,株式会社ＲｉＭ,,株式会社,東京都,港区,南青山２丁目２番１５号ＷｉｎＡｏｙａｍａビルＵＣＦ６３５,,13,103,1070062,,,2024-12-16,清算の結了等,,,2024-05-22,1,,,,,リム,0
32,1010703005450,登記記録の閉鎖等,0,2025-01-14,2024-12-19,ＡＪＰ　Ｇａｍｍａ２合同会社,,合同会社,東京都,港区,虎ノ門３丁目２２番１０－２０１号,,13,103,1050001,,,2024-12-19,清算の結了等,,,2020-10-08,1,,,,,エイジェイピィガンマニ,0
34,1010801025400,登記記録の閉鎖等,0,2025-01-14,2024-12-19,株式会社フレンバシー,,株式会社,東京都,港区,芝５丁目２９番１１号Ｇ－ＢＡＳＥ田町,,13,103,1080014,,,2024-12-19,清算の結了等,,,2015-10-05,1,,,,,フレンバシー,0
44,1011101098368,登記記録の閉鎖等,0,2025-01-14,2025-01-09,株式会社メディカルリサーチ,,株式会社,東京都,新宿区,新宿１丁目２３－１６－６Ｆ,,13,104,1600022,,,2025-01-09,合併による解散等,5010401065685,令和６年１２月１日東京都渋谷区代々木一丁目３８番２号株式会社ベビーカレンダー（5010401065685）に合併し解散,2022-04-04,1,,,,,メディカルリサーチ,0
58,1011802027336,登記記録の閉鎖等,0,2025-01-14,2024-12-27,有限会社クルーズクエスト,,有限会社,東京都,葛飾区,水元３丁目２番１３－２０６号,,13,122,1250032,,,2024-12-27,清算の結了等,,,2015-10-05,1,,,,,クルーズクエスト,0
72,1020001085582,登記記録の閉鎖等,0,2025-01-14,2025-01-06,バルテック・ジャパン株式会社,,株式会社,大阪府,大阪市淀川区,宮原５丁目１－２８新大阪八千代ビル別館８階Ｃ号,,27,123,5320003,,,2025-01-06,清算の結了等,,,2015-10-05,1,,,,,バルテックジャパン,0
86,1021005003381,登記記録の閉鎖等,0,2025-01-14,2025-01-10,特定非営利活動法人にしかま介護たくしー,,その他の設立登記法人,神奈川県,鎌倉市,西鎌倉３丁目７番５号,,14,204,2480035,,,2025-01-10,清算の結了等,,,2015-10-05,1,,,,,ニシカマカイゴタクシー,0
90,1030002013863,登記記録の閉鎖等,0,2025-01-14,2025-01-06,有限会社山下板金工業,,有限会社,埼玉県,さいたま市南区,大字広ヶ谷戸６０番地５,,11,108,3360041,,,2025-01-06,清算の結了等,,,2015-10-05,1,,,,,ヤマシタバンキンコウギョウ,0
104,1050001023523,登記記録の閉鎖等,0,2025-01-14,2025-01-06,株式会社ジョイ・ナス,,株式会社,茨城県,日立市,多賀町４丁目２番３０号,,08,202,3160003,,,2025-01-06,合併による解散等,1050001023341,令和７年１月１日茨城県日立市多賀町四丁目２番３０号田岡建設株式会社（1050001023341）に合併し解散,2015-10-05,1,,,,,ジョイナス,0
111,1050002043462,登記記録の閉鎖等,0,2025-01-14,2025-01-06,有限会社明野測量設計,,有限会社,茨城県,筑西市,猫島４１９番地,,08,227,3004501,,,2025-01-06,清算の結了等,,,2015-10-05,1,,,,,アケノソクリョウセッケイ,0
114,1060001002088,登記記録の閉鎖等,0,2025-01-14,2025-01-06,光陽通信株式会社,,株式会社,栃木県,宇都宮市,宝木町２丁目８８０番地,,09,201,3200061,,,2025-01-06,合併による解散等,6060001001639,令和７年１月１日栃木県宇都宮市宝木町二丁目８８０番地光陽エンジニアリング株式会社（6060001001639）に合併し解散,2015-10-05,1,,,,,コウヨウツウシン,0
121,1070001014702,登記記録の閉鎖等,0,2025-01-14,2025-01-07,株式会社ライコー,,株式会社,群馬県,伊勢崎市,韮塚町３２５番地１,,10,204,3720813,,,2025-01-07,清算の結了等,,,2015-10-05,1,,,,,ライコー,0
127,1080101001566,登記記録の閉鎖等,0,2025-01-14,2025-01-06,株式会社ハンプ,,株式会社,静岡県,沼津市,御幸町２４番１４号,,22,203,4100832,,,2025-01-06,清算の結了等,,,2015-10-05,1,,,,,ハンプ,0
132,1080401006182,登記記録の閉鎖等,0,2025-01-14,2025-01-06,牧野印刷株式会社,,株式会社,静岡県,湖西市,新居町新居２２３２番地,,22,221,4310302,,,2025-01-06,清算の結了等,,,2015-10-05,1,,,,,マキノインサツ,0
165,1130001054980,登記記録の閉鎖等,0,2025-01-14,2025-01-07,株式会社菓のや,,株式会社,京都府,京都市中京区,河原町通三条下る大黒町５３番地１河原町はらだビル３階,,26,104,6048031,,,2025-01-07,清算の結了等,,,2015-10-05,1,,,,,カノヤ,0
172,1140001125145,登記記録の閉鎖等,0,2025-01-14,2025-01-06,株式会社ＷＫＴ,,株式会社,兵庫県,神戸市中央区,中山手通１丁目２５番１０号,,28,110,6500004,,,2025-01-06,清算の結了等,,,2022-03-07,1,,,,,ダブリューケーティー,0
187,1180302001603,登記記録の閉鎖等,0,2025-01-14,2024-12-26,スズキ綿業有限会社,,有限会社,愛知県,岡崎市,岡町字西野々宮１番地７,,23,202,4440005,,,2024-12-26,清算の結了等,,,2015-10-05,1,,,,,スズキメンギョウ,0
188,1180302018564,登記記録の閉鎖等,0,2025-01-14,2025-01-06,有限会社高須土建,,有限会社,愛知県,刈谷市,高須町２丁目２３番地１,,23,210,4480812,,,2025-01-06,清算の結了等,,,2015-10-05,1,,,,,タカスドケン,0
190,1200005009809,登記記録の閉鎖等,0,2025-01-14,2025-01-08,高山市土地開発公社,,その他の設立登記法人,岐阜県,高山市,花岡町２丁目１８番地,,21,203,5060009,,,2025-01-08,清算の結了等,,,2015-10-05,1,,,,,タカヤマシ,0
195,1240002007712,登記記録の閉鎖等,0,2025-01-14,2025-01-09,新豊工業有限会社,,有限会社,広島県,広島市南区,元宇品町４０番４号,,34,103,7340012,,,2025-01-09,清算の結了等,,,2015-10-05,1,,,,,シンホウコウギョウ,0
196,1240002047782,登記記録の閉鎖等,0,2025-01-14,2025-01-09,有限会社うしお商事,,有限会社,広島県,安芸郡府中町,緑ケ丘１３番１４号,,34,302,7350024,,,2025-01-09,清算の結了等,,,2015-10-05,1,,,,,ウシオショウジ,0
206,1290001071630,登記記録の閉鎖等,0,2025-01-14,2024-12-09,ＴＯＭＯＭＡＳＵ　ＤＩＲＥＣＴ株式会社,,株式会社,東京都,渋谷区,渋谷３丁目１０番１５号,,13,113,1500002,,,2024-12-09,合併による解散等,1290001058660,令和６年１２月１日東京都渋谷区渋谷三丁目１０番１５号フォルダ株式会社（1290001058660）に合併し解散,2015-10-13,1,,,,,トモマスダイレクト,0
207,1290001081225,登記記録の閉鎖等,0,2025-01-14,2024-12-19,株式会社ＣＲＥＣＩＡ,,株式会社,福岡県,福岡市博多区,中洲３丁目７－１０若松ビル２階Ｃ号室,,40,132,8100801,,,2024-12-19,清算の結了等,,,2018-04-24,1,,,,,クレシア,0
209,1290002018655,登記記録の閉鎖等,0,2025-01-14,2024-12-19,有限会社池田造園,,有限会社,福岡県,那珂川市,仲１丁目１２６番地,,40,231,8111253,,,2024-12-19,清算の結了等,,,2015-10-05,1,,,,,イケダゾウエン,0
213,1290005007119,登記記録の閉鎖等,0,2025-01-14,2024-12-23,企業組合ワーカーズ遊,,その他の設立登記法人,福岡県,福岡市博多区,博多駅前１丁目５番１号,,40,132,8120011,,,2024-12-23,清算の結了等,,,2015-10-05,1,,,,,ワーカーズユウ,0
215,1300002001188,登記記録の閉鎖等,0,2025-01-14,2025-01-08,有限会社原商店,,有限会社,佐賀県,佐賀市,水ヶ江１丁目４番４２号,,41,201,8400054,,,2025-01-08,清算の結了等,,,2015-10-05,1,,,,,ハラショウテン,0
216,1310001013927,登記記録の閉鎖等,0,2025-01-14,2025-01-09,株式会社ＥＭＡＸ,,株式会社,長崎県,長崎市,城山町１７番５４号,,42,201,8528021,,,2025-01-09,清算の結了等,,,2015-11-06,1,,,,,,0
230,1380002035443,登記記録の閉鎖等,0,2025-01-14,2024-12-26,有限会社キョウエイ製作所,,有限会社,福島県,南会津郡南会津町,長野字下谷地２３番地,,07,368,9670001,,,2024-12-26,清算の結了等,,,2015-10-05,1,,,,,キョウエイセイサクジョ,0
253,1700150062033,登記記録の閉鎖等,0,2025-01-14,2024-08-30,ふれあい友市運営協議会,,その他,長崎県,平戸市,田平町深月免５２１－３,,42,207,8594813,,,2024-08-30,その他の清算の結了等,,,2015-10-09,1,,,,,フレアイユウイチウンエイキヨウギカイ,0
257,2010001120488,登記記録の閉鎖等,0,2025-01-14,2025-01-06,株式会社エムアイエム,,株式会社,東京都,千代田区,五番町２番地カサ・ド・タク,,13,101,1020076,,,2025-01-06,合併による解散等,1010001009831,令和６年１２月３１日東京都千代田区九段南四丁目８番２１号山脇ビル１１階株式会社アスク（1010001009831）に合併し解散,2015-10-05,1,,,,,エムアイエム,0
281,2010401125104,登記記録の閉鎖等,0,2025-01-14,2024-12-19,ダイヤモンド株式会社,,株式会社,東京都,港区,浜松町２丁目２番１５号,,13,103,1050013,,,2024-12-19,清算の結了等,,,2016-06-01,1,,,,,ダイヤモンド,0
283,2010401166676,登記記録の閉鎖等,0,2025-01-14,2024-12-19,ｃｒｅＮＡｗｏ株式会社,,株式会社,東京都,港区,芝２丁目２９－１１パークウェル三田５０２号室,,13,103,1050014,,,2024-12-19,清算の結了等,,,2022-04-11,1,,,,,クレナワオ,0
293,2010701007134,登記記録の閉鎖等,0,2025-01-14,2024-12-24,ドン・コーポレーション株式会社,,株式会社,東京都,品川区,西五反田７丁目２２番１７号ＴＯＣビル,,13,109,1410031,,,2024-12-24,清算の結了等,,,2015-10-05,1,,,,,ドンコーポレーション,0
296,2010801029391,登記記録の閉鎖等,0,2025-01-14,2025-01-06,スイートコーンズ株式会社,,株式会社,東京都,立川市,上砂町５丁目６０番１－３２０号,,13,202,1900032,,,2025-01-06,清算の結了等,,,2018-12-05,1,,,,,スイートコーンズ,0
319,2011201016162,登記記録の閉鎖等,0,2025-01-14,2024-12-05,株式会社アルティス,,株式会社,東京都,渋谷区,千駄ヶ谷５丁目２７番３号やまとビル８階,,13,113,1510051,,,2024-12-05,清算の結了等,,,2015-10-05,1,,,,,アルティス,0
322,2011503005409,登記記録の閉鎖等,0,2025-01-14,2025-01-10,合同会社Ｍｅｔａ　Ｈｏｕｓｅ,,合同会社,東京都,荒川区,町屋４丁目１８番９号ＶｉｌｌａＡｎｇｅ１０１,,13,118,1160001,,,2025-01-10,清算の結了等,,,2022-12-23,1,,,,,メタハウス,0
330,2011802020174,登記記録の閉鎖等,0,2025-01-14,2024-12-25,吉田印刷有限会社,,有限会社,東京都,足立区,島根２丁目２０番１０号,,13,121,1210815,,,2024-12-25,清算の結了等,,,2015-10-05,1,,,,,ヨシダインサツ,0
333,2012701002577,登記記録の閉鎖等,0,2025-01-14,2024-12-26,山木産業株式会社,,株式会社,東京都,西東京市,西原町５丁目４番８号,,13,229,1880004,,,2024-12-26,清算の結了等,,,2015-10-05,1,,,,,ヤマキサンギョウ,0
349,2021001071118,登記記録の閉鎖等,0,2025-01-14,2025-01-09,株式会社エネファスト,,株式会社,神奈川県,小田原市,曽我岸２番地の２,,14,206,2500203,,,2025-01-09,清算の結了等,,,2020-10-19,1,,,,,エネファスト,0
353,2030001020620,登記記録の閉鎖等,0,2025-01-14,2025-01-06,株式会社日高紙器,,株式会社,埼玉県,戸田市,笹目５丁目２８番地の１２,,11,224,3350034,,,2025-01-06,清算の結了等,,,2015-10-05,1,,,,,ヒダカシキ,0
373,2040001123109,登記記録の閉鎖等,0,2025-01-14,2024-12-27,緑環衛株式会社,,株式会社,千葉県,東金市,山田１２２９番地６号グリーンフォルテ１０１,,12,213,2830823,,,2024-12-27,清算の結了等,,,2022-04-22,1,,,,,リョクカンエイ,0
376,2050001012211,登記記録の閉鎖等,0,2025-01-14,2024-12-16,株式会社田山鉄工,,株式会社,茨城県,小美玉市,江戸５７５番地の１８,,08,236,3190122,,,2024-12-16,清算の結了等,,,2023-09-19,1,,,,,タヤマテッコウ,0
385,2060001018637,登記記録の閉鎖等,0,2025-01-14,2024-12-27,株式会社三光技研,,株式会社,栃木県,足利市,堀込町４１番地,,09,202,3260831,,,2024-12-27,清算の結了等,,,2015-10-05,1,,,,,サンコウギケン,0
388,2070001018792,登記記録の閉鎖等,0,2025-01-14,2025-01-08,株式会社エスエスプランニング,,株式会社,群馬県,太田市,飯塚町１１１３番地２４,,10,205,3730817,,,2025-01-08,清算の結了等,,,2015-10-05,1,,,,,エスエスプランニング,0
398,2100003004564,登記記録の閉鎖等,0,2025-01-14,2025-01-06,合同会社ケーエー,,合同会社,長野県,安曇野市,穂高４３９番地５,,20,220,3998303,,,2025-01-06,清算の結了等,,,2017-01-04,1,,,,,ケーエー,0
407,2120001080861,登記記録の閉鎖等,0,2025-01-14,2024-12-25,株式会社ジェーシーアール,,株式会社,大阪府,大阪市中央区,今橋１丁目７番２号,,27,128,5410042,,,2024-12-25,合併による解散等,9120001134231,令和６年１２月２５日大阪市中央区今橋一丁目７番２号ダイセラ株式会社（9120001134231）に合併し解散,2015-10-05,1,,,,,ジェーシーアール,0
413,2120001230128,登記記録の閉鎖等,0,2025-01-14,2025-01-06,アウルホールディングス株式会社,,株式会社,大阪府,大阪市中央区,南久宝寺町２丁目６番７号,,27,128,5410058,,,2025-01-06,合併による解散等,4120001074242,令和７年１月１日大阪市中央区南久宝寺町二丁目６番７号株式会社ソウテン（4120001074242）に合併し解散,2020-07-06,1,,,,,アウルホールディングス,0
424,2120101034528,登記記録の閉鎖等,0,2025-01-14,2025-01-06,株式会社モリモト建築,,株式会社,大阪府,河内長野市,天野町１２０９番地の１,,27,216,5860086,,,2025-01-06,清算の結了等,,,2015-10-05,1,,,,,モリモトケンチク,0
427,2120102011187,登記記録の閉鎖等,0,2025-01-14,2025-01-07,有限会社エフエス土泉,,有限会社,大阪府,堺市西区,浜寺石津町西３丁６番１５号,,27,144,5928333,,,2025-01-07,清算の結了等,,,2015-10-05,1,,,,,エフエスツチセン,0
436,2130002010040,登記記録の閉鎖等,0,2025-01-14,2024-12-27,有限会社出口鉄工所,,有限会社,京都府,京都市東山区,本町１２丁目２２７番地,,26,105,6050981,,,2024-12-27,清算の結了等,,,2015-10-05,1,,,,,デグチテッコウショ,0
437,2140001047355,登記記録の閉鎖等,0,2025-01-14,2025-01-06,尼崎ミナト電機株式会社,,株式会社,兵庫県,尼崎市,昭和通８丁目２７４番地,,28,202,6600881,,,2025-01-06,清算の結了等,,,2015-10-05,1,,,,,アマガサキミナトデンキ,0
443,2140005004906,登記記録の閉鎖等,0,2025-01-14,2025-01-08,税理士法人トータル財務プラン,,その他の設立登記法人,兵庫県,神戸市中央区,御幸通３丁目１番８号,,28,110,6510087,,,2025-01-08,清算の結了等,,,2015-10-05,1,,,,,トータルザイムプラン,0
448,2180001133011,登記記録の閉鎖等,0,2025-01-14,2024-12-25,株式会社結心,,株式会社,愛知県,名古屋市港区,小賀須２丁目１５０８番地,,23,111,4550882,,,2024-12-25,清算の結了等,,,2018-07-09,1,,,,,ユウシン,0
455,2180303004050,登記記録の閉鎖等,0,2025-01-14,2025-01-07,合同会社ｔｏｍｏｒｒｏｗ,,合同会社,愛知県,岡崎市,康生町５１５番地３,,23,202,4440052,,,2025-01-07,清算の結了等,,,2018-04-04,1,,,,,トゥモロー,0
456,2190001030752,登記記録の閉鎖等,0,2025-01-14,2024-12-27,小畑タオル株式会社,,株式会社,三重県,津市,一志町波瀬４５５０番地,,24,201,5152522,,,2024-12-27,清算の結了等,,,2023-09-28,1,,,,,オバタタオル,0
460,2210001016526,登記記録の閉鎖等,0,2025-01-14,2025-01-06,ユーアイＢＰ株式会社,,株式会社,福井県,福井市,幾代２丁目１４２４番地の１,,18,201,9100013,,,2025-01-06,合併による解散等,8210001003683,令和７年１月１日福井市下荒井町１９字５０番地福井トヨタ自動車株式会社（8210001003683）に合併し解散,2016-11-01,1,,,,,ユーアイビーピー,0
466,2240005002098,登記記録の閉鎖等,0,2025-01-14,2025-01-09,特定非営利活動法人日本タイヤ安全対策協議会,,その他の設立登記法人,広島県,広島市安佐北区,安佐町大字あさひが丘７８８番地,,34,106,7313361,,,2025-01-09,登記官による閉鎖,,,2015-10-05,1,,,,,,0
469,2290001054956,登記記録の閉鎖等,0,2025-01-14,2024-12-18,株式会社サカタトレーディング,,株式会社,福岡県,大川市,大字中古賀９５６番地の１,,40,212,8310006,,,2024-12-18,清算の結了等,,,2015-10-05,1,,,,,サカタトレーディング,0
497,2370001048719,登記記録の閉鎖等,0,2025-01-14,2025-01-06,株式会社ＳｔａｒＬｉｇｈｔ,,株式会社,宮城県,仙台市太白区,鹿野２丁目１０番６号,,04,104,9820023,,,2025-01-06,清算の結了等,,,2022-06-24,1,,,,,スターライト,0
510,2430003004630,登記記録の閉鎖等,0,2025-01-14,2025-01-06,合同会社貴和システム,,合同会社,北海道,札幌市豊平区,月寒東三条１０丁目２番５－７０６号,,01,105,0620053,,,2025-01-06,合併による解散等,4430003003993,令和７年１月１日札幌市豊平区月寒東三条十丁目２番５－７０６号神海企画合同会社（4430003003993）に合併し解散,2015-10-05,1,,,,,キワシステム,0
512,2430003004671,登記記録の閉鎖等,0,2025-01-14,2025-01-06,合同会社さくらサンクス,,合同会社,北海道,札幌市豊平区,月寒東三条１０丁目２番５－７０６号,,01,105,0620053,,,2025-01-06,合併による解散等,4430003003993,令和７年１月１日札幌市豊平区月寒東三条十丁目２番５－７０６号神海企画合同会社（4430003003993）に合併し解散,2015-10-05,1,,,,,サクラサンクス,0
518,2700150102762,登記記録の閉鎖等,0,2025-01-14,2024-08-06,高岡市造園土木協会,,その他,富山県,高岡市,博労本町１－１４,,16,202,9330935,,,2024-08-06,その他の清算の結了等,,,2021-04-12,1,,,,,タカオカシゾウエンドボクキヨウカイ,0
522,3010001078305,登記記録の閉鎖等,0,2025-01-14,2024-12-24,株式会社サーティーン,,株式会社,東京都,中央区,築地４丁目４番１５－６０４号,,13,102,1040045,,,2024-12-24,清算の結了等,,,2015-10-05,1,,,,,サーティーン,0
533,3010001223843,登記記録の閉鎖等,0,2025-01-14,2024-12-24,ＫＸ　Ｃａｐｉｔａｌ株式会社,,株式会社,東京都,千代田区,丸の内３丁目１－１国際ビル,,13,101,1000005,,,2024-12-24,清算の結了等,,,2022-01-13,1,,,,,ケイエックスキャピタル,0
559,3010702010598,登記記録の閉鎖等,0,2025-01-14,2024-12-24,有限会社ジェイズ環境計画,,有限会社,東京都,品川区,中延１丁目１番１５号,,13,109,1420053,,,2024-12-24,清算の結了等,,,2015-10-05,1,,,,,ジェイズカンキョウケイカク,0
560,3010703005449,登記記録の閉鎖等,0,2025-01-14,2024-12-19,ＡＪＰ　Ｇａｍｍａ１合同会社,,合同会社,東京都,港区,虎ノ門３丁目２２番１０－２０１号,,13,103,1050001,,,2024-12-19,清算の結了等,,,2020-10-08,1,,,,,エイジェイピィガンマイチ,0
564,3010901004995,登記記録の閉鎖等,0,2025-01-14,2025-01-06,株式会社サンラ,,株式会社,東京都,世田谷区,上馬４丁目１８番１８号,,13,112,1540011,,,2025-01-06,清算の結了等,,,2015-10-05,1,,,,,サンラ,0
568,3011001091636,登記記録の閉鎖等,0,2025-01-14,2024-12-26,株式会社ＳｕｎｒｉｓｅＬａｂ,,株式会社,東京都,新宿区,新宿１丁目２－８国久ビル５Ｆ－Ｂ,,13,104,1600022,,,2024-12-26,清算の結了等,,,2015-10-05,1,,,,,,0
580,3011301023446,登記記録の閉鎖等,0,2025-01-14,2025-01-10,株式会社ＬＥＡＤ,,株式会社,東京都,羽村市,双葉町２丁目６番２８号,,13,227,2050022,,,2025-01-10,清算の結了等,,,2017-08-18,1,,,,,リード,0
582,3011302012092,登記記録の閉鎖等,0,2025-01-14,2025-01-07,有限会社クオリティ・コミュニケーションズ,,有限会社,東京都,杉並区,松ノ木２丁目２９番７号,,13,115,1660014,,,2025-01-07,清算の結了等,,,2015-10-05,1,,,,,,0
585,3011701025538,登記記録の閉鎖等,0,2025-01-14,2025-01-06,株式会社ジェイズ,,株式会社,東京都,江戸川区,東葛西８丁目２９番９－１０３号,,13,123,1340084,,,2025-01-06,清算の結了等,,,2022-08-17,1,,,,,ジェイズ,0
597,3012401025381,登記記録の閉鎖等,0,2025-01-14,2024-12-26,エルエイム株式会社,,株式会社,東京都,府中市,幸町１丁目２９番地の２３,,13,206,1830054,,,2024-12-26,清算の結了等,,,2015-10-05,1,,,,,エルエイム,0
608,3020002022780,登記記録の閉鎖等,0,2025-01-14,2024-12-25,有限会社横田襖店,,有限会社,神奈川県,横浜市旭区,四季美台４９番地,,14,112,2410025,,,2024-12-25,清算の結了等,,,2015-10-05,1,,,,,ヨコタフスマテン,0
612,3020005001435,登記記録の閉鎖等,0,2025-01-14,2024-12-24,医療法人社団熊京会,,その他の設立登記法人,神奈川県,横浜市瀬谷区,瀬谷５丁目１４番３号,,14,114,2460031,,,2024-12-24,清算の結了等,,,2015-10-05,1,,,,,ユウキョウカイ,0
615,3030001055657,登記記録の閉鎖等,0,2025-01-14,2025-01-06,湊建設株式会社,,株式会社,埼玉県,川越市,大字砂新田１５２７番地３,,11,201,3501137,,,2025-01-06,清算の結了等,,,2015-10-05,1,,,,,ミナトケンセツ,0
625,3030002063097,登記記録の閉鎖等,0,2025-01-14,2025-01-06,有限会社小松屋,,有限会社,埼玉県,富士見市,貝塚２丁目５番１６号,,11,235,3540012,,,2025-01-06,清算の結了等,,,2015-10-05,1,,,,,コマツヤ,0
636,3040001076132,登記記録の閉鎖等,0,2025-01-14,2024-12-25,株式会社クロマリズム,,株式会社,東京都,台東区,東上野４丁目８番１号ＴＩＸＴＯＷＥＲ・ＵＥＮＯ１７０８,,13,106,1100015,,,2024-12-25,清算の結了等,,,2015-10-05,1,,,,,クロマリズム,0
638,3050002027637,登記記録の閉鎖等,0,2025-01-14,2024-12-27,有限会社石田工業,,有限会社,茨城県,神栖市,土合本町４丁目９８０９番地２７１,,08,232,3140343,,,2024-12-27,清算の結了等,,,2015-10-05,1,,,,,イシダコウギョウ,0
642,3060001012432,登記記録の閉鎖等,0,2025-01-14,2025-01-06,株式会社ケイズリンク,,株式会社,栃木県,那須塩原市,西栄町２番１号,,09,213,3292728,,,2025-01-06,清算の結了等,,,2015-10-05,1,,,,,ケイズリンク,0
658,3110001014976,登記記録の閉鎖等,0,2025-01-14,2025-01-06,中央開発株式会社,,株式会社,新潟県,三条市,東光寺３６７１番地株式会社中央建設ビル２階,,15,204,9591104,,,2025-01-06,清算の結了等,,,2015-10-05,1,,,,,チュウオウカイハツ,0
678,3120901032036,登記記録の閉鎖等,0,2025-01-14,2024-12-27,あいてらす経営株式会社,,株式会社,大阪府,豊中市,長興寺南１丁目３番５号,,27,203,5610874,,,2024-12-27,清算の結了等,,,2015-10-05,1,,,,,アイテラスケイエイ,0
694,3140001049276,登記記録の閉鎖等,0,2025-01-14,2025-01-06,商都交通株式会社,,株式会社,大阪府,大阪市城東区,成育２丁目１３番２０号,,27,118,5360007,,,2025-01-06,合併による解散等,8120001070337,令和７年１月１日大阪市城東区成育二丁目１３番２０号相互タクシーホールディング株式会社（8120001070337）に合併し解散,2015-10-05,1,,,,,ショウトコウツウ,0
695,3140001100600,登記記録の閉鎖等,0,2025-01-14,2025-01-06,株式会社クボタｅファームやぶ,,株式会社,兵庫県,養父市,大谷１９０番地３,,28,222,6671102,,,2025-01-06,合併による解散等,1140001041037,令和７年１月１日兵庫県尼崎市浜一丁目１番１号株式会社東海近畿クボタ（1140001041037）に合併し解散,2016-01-07,1,,,,,クボタイーファームヤブ,0
698,3140002033898,登記記録の閉鎖等,0,2025-01-14,2025-01-07,平安工業有限会社,,有限会社,兵庫県,相生市,旭３丁目８番１２号,,28,208,6780031,,,2025-01-07,清算の結了等,,,2015-10-05,1,,,,,ヘイアンコウギョウ,0
710,3180002070203,登記記録の閉鎖等,0,2025-01-14,2025-01-06,有限会社リバティ,,有限会社,愛知県,小牧市,中央１丁目３７１番地,,23,219,4850029,,,2025-01-06,合併による解散等,6180001078112,令和６年１２月３１日愛知県小牧市中央一丁目３７１番地株式会社ケイアンドティ（6180001078112）に合併し解散,2015-10-05,1,,,,,リバティ,0
713,3180302010016,登記記録の閉鎖等,0,2025-01-14,2024-12-25,中部総建有限会社,,有限会社,愛知県,豊橋市,神野新田町字タノ割４０番１,,23,201,4418077,,,2024-12-25,清算の結了等,,,2015-10-05,1,,,,,チュウブソウケン,0
714,3180302028529,登記記録の閉鎖等,0,2025-01-14,2024-12-25,有限会社エイコウ製作所,,有限会社,愛知県,みよし市,三好町新屋３６番地,,23,236,4700224,,,2024-12-25,清算の結了等,,,2024-07-25,1,,,,,エイコウセイサクショ,0
715,3180303002730,登記記録の閉鎖等,0,2025-01-14,2024-12-16,合資会社赤ちやんデパートたかす,,合資会社,愛知県,西尾市,肴町４２番地,,23,213,4450835,,,2024-12-16,清算の結了等,,,2015-10-05,1,,,,,,0
730,3240001012637,登記記録の閉鎖等,0,2025-01-14,2025-01-06,ジオキャピタル株式会社,,株式会社,広島県,広島市佐伯区,石内北４丁目４番４号,,34,108,7315109,,,2025-01-06,合併による解散等,5240001017329,令和７年１月１日広島市佐伯区石内北四丁目４番４号ジオレックス株式会社（5240001017329）に合併し解散,2015-10-05,1,,,,,ジオキャピタル,0
731,3240001036751,登記記録の閉鎖等,0,2025-01-14,2025-01-09,株式会社ホールサービスセンター,,株式会社,広島県,安芸郡府中町,鶴江２丁目３番４号,,34,302,7350008,,,2025-01-09,清算の結了等,,,2015-10-05,1,,,,,ホールサービスセンター,0
744,3290001026715,登記記録の閉鎖等,0,2025-01-14,2024-12-18,株式会社いまむら,,株式会社,福岡県,福岡市南区,長住５丁目９番２７号,,40,134,8111362,,,2024-12-18,清算の結了等,,,2015-10-05,1,,,,,イマムラ,0
751,3290002053989,登記記録の閉鎖等,0,2025-01-14,2024-12-20,有限会社丸武電気工事,,有限会社,福岡県,大川市,大字紅粉屋７０６番地,,40,212,8310044,,,2024-12-20,清算の結了等,,,2015-10-05,1,,,,,マルタケデンキコウジ,0
756,3330002012008,登記記録の閉鎖等,0,2025-01-14,2024-12-27,有限会社リンギョウホーム,,有限会社,熊本県,熊本市東区,画図町重富７３５番地５１,,43,102,8610000,,,2024-12-27,清算の結了等,,,2015-10-05,1,,,,,リンギョウホーム,0
757,3330002016371,登記記録の閉鎖等,0,2025-01-14,2024-12-26,有限会社日本ヘルシー,,有限会社,熊本県,菊池郡菊陽町,大字津久礼１２番地４,,43,404,8691101,,,2024-12-26,清算の結了等,,,2015-10-05,1,,,,,ニホンヘルシー,0
762,3350001011784,登記記録の閉鎖等,0,2025-01-14,2025-01-07,株式会社昇華,,株式会社,宮崎県,東臼杵郡門川町,大字加草４２５６番地７,,45,421,8890603,,,2025-01-07,清算の結了等,,,2015-10-05,1,,,,,ショウカ,0
789,3700150044434,登記記録の閉鎖等,0,2025-01-14,2024-06-30,設楽町観光協会,,その他,愛知県,北設楽郡設楽町,清崎字中田１７－７,,23,561,4412302,,,2024-06-30,その他の清算の結了等,,,2015-10-09,1,,,,,シタラチヨウカンコウキヨウカイ,0
827,4010902010232,登記記録の閉鎖等,0,2025-01-14,2025-01-06,有限会社電化ショップマエダ,,有限会社,東京都,世田谷区,喜多見１丁目１８番１号,,13,112,1570067,,,2025-01-06,清算の結了等,,,2015-10-05,1,,,,,デンカショップマエダ,0
858,4013101008519,登記記録の閉鎖等,0,2025-01-14,2025-01-09,株式会社ＪＭ設計,,株式会社,東京都,福生市,大字熊川１３４６番地１７,,13,218,1970003,,,2025-01-09,清算の結了等,,,2020-12-25,1,,,,,ジェイエムセッケイ,0
878,4021002020773,登記記録の閉鎖等,0,2025-01-14,2025-01-10,有限会社三不工業,,有限会社,神奈川県,相模原市中央区,富士見２丁目１０番１７号,,14,152,2520236,,,2025-01-10,清算の結了等,,,2015-10-05,1,,,,,サンプコウギョウ,0
912,4110001019751,登記記録の閉鎖等,0,2025-01-14,2025-01-06,新潟エヌピービー処理株式会社,,株式会社,新潟県,上越市,大潟区土底浜２０２４番地１,,15,222,9493112,,,2025-01-06,合併による解散等,3110001020009,令和７年１月１日新潟県上越市大潟区土底浜２０２４番地１Ｊマテ．カッパープロダクツ株式会社（3110001020009）に合併し解散,2015-10-05,1,,,,,ニイガタエヌピービーショリ,0
913,4110003000008,登記記録の閉鎖等,0,2025-01-14,2025-01-06,合名会社協和社,,合名会社,新潟県,新潟市中央区,日の出１丁目１３番９号,,15,103,9500073,,,2025-01-06,合併による解散等,8110001006721,令和７年１月１日新潟市中央区日の出一丁目１３番９号株式会社布（8110001006721）に合併し解散,2015-10-05,1,,,,,キョウワシャ,0
945,4122001035926,登記記録の閉鎖等,0,2025-01-14,2024-12-26,株式会社植田,,株式会社,大阪府,大東市,深野５丁目４番１２号,,27,218,5740072,,,2024-12-26,清算の結了等,,,2022-06-07,1,,,,,ウエダ,0
946,4130001003019,登記記録の閉鎖等,0,2025-01-14,2025-01-06,株式会社さつき会,,株式会社,京都府,京都市上京区,黒門通出水上る吉野町６８２番地,,26,102,6028117,,,2025-01-06,合併による解散等,8130001003238,令和７年１月１日京都市上京区東堀川通下長者町上ル二丁目２２番地の１大一株式会社（8130001003238）に合併し解散,2015-10-05,1,,,,,サツキカイ,0
947,4130001010551,登記記録の閉鎖等,0,2025-01-14,2025-01-06,興亜エンジニアリング株式会社,,株式会社,京都府,京都市南区,東九条西明田町５６番地,,26,107,6018045,,,2025-01-06,清算の結了等,,,2015-10-05,1,,,,,コウアエンジニアリング,0
954,4140001074216,登記記録の閉鎖等,0,2025-01-14,2025-01-08,株式会社ロンブリス,,株式会社,兵庫県,西宮市,両度町３番２－５０７号,,28,204,6620841,,,2025-01-08,清算の結了等,,,2015-10-05,1,,,,,ロンブリス,0
955,4140001109814,登記記録の閉鎖等,0,2025-01-14,2025-01-06,株式会社四葉ライフ,,株式会社,兵庫県,赤穂市,中広１３５３番地３,,28,212,6780232,,,2025-01-06,清算の結了等,,,2018-04-23,1,,,,,ヨツバライフ,0
965,4180001065938,登記記録の閉鎖等,0,2025-01-14,2024-12-27,嶋工業株式会社,,株式会社,愛知県,愛知郡東郷町,大字諸輪字北山６６番地８,,23,302,4700151,,,2024-12-27,清算の結了等,,,2015-10-05,1,,,,,シマコウギョウ,0
994,4290001002772,登記記録の閉鎖等,0,2025-01-14,2024-12-19,株式会社尾谷商店,,株式会社,福岡県,福岡市東区,千早２丁目１４番８号,,40,131,8130044,,,2024-12-19,清算の結了等,,,2015-10-05,1,,,,,オタニショウテン,0
997,4290001099280,登記記録の閉鎖等,0,2025-01-14,2024-12-19,ナビゲーターズ株式会社,,株式会社,福岡県,福岡市中央区,渡辺通５丁目１４番１２号南天神ビル３階,,40,133,8100004,,,2024-12-19,清算の結了等,,,2022-10-19,1,,,,,ナビゲーターズ,0
998,4290001102250,登記記録の閉鎖等,0,2025-01-14,2024-12-19,株式会社Ｔｒｉｎｇｅ　Ｃｏｒｐｏｒａｔｉｏｎ,,株式会社,福岡県,福岡市博多区,春町３丁目３－７イルグランデ春町公園６０１,,40,132,8120872,,,2024-12-19,清算の結了等,,,2023-07-12,1,,,,,,0
1006,4310002018773,登記記録の閉鎖等,0,2025-01-14,2025-01-06,有限会社フェミニン,,有限会社,長崎県,南島原市,加津佐町丁１６０３番地５,,42,214,8592603,,,2025-01-06,合併による解散等,6310001010060,令和７年１月１日長崎県南島原市加津佐町丁１５９５番地株式会社アパレルオオタ（6310001010060）に合併し解散,2015-10-05,1,,,,,フェミニン,0
1014,4360001017433,登記記録の閉鎖等,0,2025-01-14,2025-01-06,株式会社モリパッケージ,,株式会社,沖縄県,糸満市,西崎町５丁目１２番２３号,,47,210,9010306,,,2025-01-06,清算の結了等,,,2015-10-05,1,,,,,モリパッケージ,0
1021,4430001056829,登記記録の閉鎖等,0,2025-01-14,2025-01-06,大基建設株式会社,,株式会社,北海道,室蘭市,中島町３丁目８番１２号,,01,205,0500074,,,2025-01-06,合併による解散等,1430001055750,令和７年１月１日北海道沙流郡平取町字荷菜４０番地６株式会社小林組（1430001055750）に合併し解散,2015-10-05,1,,,,,タイキケンセツ,0
1024,4430003004612,登記記録の閉鎖等,0,2025-01-14,2025-01-06,合同会社貴和サンクス,,合同会社,北海道,札幌市豊平区,月寒東三条１０丁目２番５－７０６号,,01,105,0620053,,,2025-01-06,合併による解散等,4430003003993,令和７年１月１日札幌市豊平区月寒東三条十丁目２番５－７０６号神海企画合同会社（4430003003993）に合併し解散,2015-10-05,1,,,,,キワサンクス,0
1030,4700150047221,登記記録の閉鎖等,0,2025-01-14,2024-08-31,松阪Ｉ．Ｍ．Ｓ,,その他,三重県,松阪市,高町４５０－１,,24,204,5150011,,,2024-08-31,その他の清算の結了等,,,2015-10-09,1,,,,,マツサカイムズ,0
1035,5010001036491,登記記録の閉鎖等,0,2025-01-14,2024-12-23,亜土印刷株式会社,,株式会社,東京都,中央区,新富２丁目４番１２号,,13,102,1040041,,,2024-12-23,清算の結了等,,,2015-10-05,1,,,,,アドインサツ,0
1047,5010002004266,登記記録の閉鎖等,0,2025-01-14,2024-12-23,有限会社栃尾,,有限会社,東京都,文京区,音羽２丁目３番３号,,13,105,1120013,,,2024-12-23,清算の結了等,,,2015-10-05,1,,,,,トチオ,0
1070,5010501049407,登記記録の閉鎖等,0,2025-01-14,2024-12-26,株式会社しゅープロ,,株式会社,東京都,台東区,橋場１丁目９番３号－１１Ｆ,,13,106,1110023,,,2024-12-26,清算の結了等,,,2022-09-27,1,,,,,シュープロ,0
1079,5010801015018,登記記録の閉鎖等,0,2025-01-14,2025-01-06,株式会社明日葉,,株式会社,東京都,大田区,蒲田４丁目２７番２号,,13,111,1440052,,,2025-01-06,清算の結了等,,,2015-10-05,1,,,,,アシタバ,0
1081,5010903001304,登記記録の閉鎖等,0,2025-01-14,2025-01-06,合同会社ディーエスケイエル・コンサルティング,,合同会社,東京都,世田谷区,深沢７丁目１６番１２号プラト－２０１,,13,112,1580081,,,2025-01-06,清算の結了等,,,2015-10-05,1,,,,,ディーエスケイエルコンサルティング,0
1089,5011101001732,登記記録の閉鎖等,0,2025-01-14,2025-01-07,印西開発株式会社,,株式会社,東京都,新宿区,西新宿２丁目４番１号,,13,104,1600023,,,2025-01-07,合併による解散等,2011101001834,令和７年１月１日東京都新宿区西新宿二丁目４番１号泉開発産業株式会社（2011101001834）に合併し解散,2015-10-05,1,,,,,インザイカイハツ,0
1113,5012302002437,登記記録の閉鎖等,0,2025-01-14,2024-12-27,城山フーズ有限会社,,有限会社,東京都,町田市,玉川学園７丁目４番１１号,,13,209,1940041,,,2024-12-27,合併による解散等,3012301001763,令和６年１２月２７日東京都町田市玉川学園七丁目４番１１号東京産業株式会社（3012301001763）に合併し解散,2015-10-05,1,,,,,シロヤマフーズ,0
1143,5030001137123,登記記録の閉鎖等,0,2025-01-14,2025-01-07,株式会社ＫＹＡキャスト,,株式会社,埼玉県,さいたま市西区,西大宮３丁目３３番地１２,,11,101,3310078,,,2025-01-07,清算の結了等,,,2020-07-06,1,,,,,ケーワイエーキャスト,0
1166,5050001054309,登記記録の閉鎖等,0,2025-01-14,2024-12-25,株式会社八仙測量,,株式会社,茨城県,取手市,ゆめみ野５丁目１１番地１３,,08,217,3020039,,,2024-12-25,清算の結了等,,,2024-02-19,1,,,,,ハッセンソクリョウ,0
1186,5080102000092,登記記録の閉鎖等,0,2025-01-14,2025-01-07,有限会社アクセス電工,,有限会社,静岡県,沼津市,東原４８番地の１,,22,203,4100304,,,2025-01-07,清算の結了等,,,2015-10-05,1,,,,,アクセスデンコウ,0
1199,5110001024718,登記記録の閉鎖等,0,2025-01-14,2025-01-06,株式会社アプトシステムズ,,株式会社,新潟県,長岡市,新産３丁目２番地６,,15,202,9402127,,,2025-01-06,合併による解散等,2110001037788,令和７年１月１日新潟県長岡市新産三丁目２番地６株式会社アプトシステムズ（2110001037788）に合併し解散,2015-10-05,1,,,,,アプトシステムズ,0
1229,5140001047410,登記記録の閉鎖等,0,2025-01-14,2025-01-06,朝日交通株式会社,,株式会社,大阪府,大阪市城東区,成育２丁目１３番２０号,,27,118,5360007,,,2025-01-06,合併による解散等,8120001070337,令和７年１月１日大阪市城東区成育二丁目１３番２０号相互タクシーホールディング株式会社（8120001070337）に合併し解散,2015-10-05,1,,,,,アサヒコウツウ,0
1234,5140003012701,登記記録の閉鎖等,0,2025-01-14,2025-01-08,りんどう合同会社,,合同会社,兵庫県,明石市,二見町東二見２２５番地の４,,28,203,6740092,,,2025-01-08,清算の結了等,,,2018-01-10,1,,,,,リンドウ,0
1239,5180001052571,登記記録の閉鎖等,0,2025-01-14,2024-12-25,株式会社ライフスタッフ,,株式会社,愛知県,名古屋市千種区,穂波町２丁目５１番地,,23,101,4640822,,,2024-12-25,清算の結了等,,,2015-10-05,1,,,,,ライフスタッフ,0
1247,5180301022497,登記記録の閉鎖等,0,2025-01-14,2025-01-06,株式会社沢田電機,,株式会社,愛知県,西尾市,下町神明下９２番地,,23,213,4450891,,,2025-01-06,清算の結了等,,,2015-10-05,1,,,,,サワダデンキ,0
1248,5180302011458,登記記録の閉鎖等,0,2025-01-14,2025-01-06,有限会社イブキヤ,,有限会社,愛知県,豊橋市,魚町１１番地,,23,201,4400894,,,2025-01-06,清算の結了等,,,2015-10-05,1,,,,,イブキヤ,0
1262,5220002013733,登記記録の閉鎖等,0,2025-01-14,2024-12-27,有限会社共進電設防災システム,,有限会社,石川県,七尾市,富岡町６４番地,,17,202,9260866,,,2024-12-27,清算の結了等,,,2015-10-05,1,,,,,キョウシンデンセツボウサイシステム,0
1269,5260002018225,登記記録の閉鎖等,0,2025-01-14,2025-01-09,有限会社山陽オートメーシヨン,,有限会社,岡山県,倉敷市,中島９２２番地の５,,33,202,7100803,,,2025-01-09,清算の結了等,,,2015-10-05,1,,,,,サンヨウオートメーション,0
1272,5290001033809,登記記録の閉鎖等,0,2025-01-14,2024-12-17,ディスクニクス株式会社,,株式会社,福岡県,太宰府市,吉松２丁目５番１０－５０８号,,40,221,8180138,,,2024-12-17,合併による解散等,3290001074466,令和６年１２月１２日福岡県朝倉市大庭１００５番地１０株式会社アース・グリーンふくおか（3290001074466）に合併し解散,2015-10-05,1,,,,,ディスクニクス,0
1280,5290002042874,登記記録の閉鎖等,0,2025-01-14,2024-12-20,有限会社Ｉ’ｍコーポレーション,,有限会社,福岡県,春日市,松ヶ丘５丁目９５番地,,40,218,8160843,,,2024-12-20,清算の結了等,,,2015-10-05,1,,,,,アイムコーポレーション,0
1304,5370301000558,登記記録の閉鎖等,0,2025-01-14,2025-01-06,株式会社さんりくフーズ,,株式会社,宮城県,石巻市,湊東１丁目１０番地３,,04,202,9860020,,,2025-01-06,清算の結了等,,,2015-10-05,1,,,,,サンリクフーズ,0
1324,5700150125208,登記記録の閉鎖等,0,2025-01-14,2024-09-11,相続財産法人（被相続人　土谷泉）,,その他,大阪府,大阪市東住吉区,矢田３丁目１１番２４号,,27,121,5460023,,,2024-09-11,その他の清算の結了等,,,2024-05-10,1,,,,,ソウゾクザイサンホウジンヒソウゾクニンツチヤイズミ,0
1329,6010001061605,登記記録の閉鎖等,0,2025-01-14,2024-12-24,株式会社東京フオトアート,,株式会社,東京都,千代田区,大手町１丁目１番３号,,13,101,1000004,,,2024-12-24,清算の結了等,,,2015-10-05,1,,,,,トウキョウフォトアート,0
1331,6010001128981,登記記録の閉鎖等,0,2025-01-14,2025-01-06,株式会社リンクイベントプロデュース,,株式会社,東京都,中央区,銀座４丁目１２番１５号歌舞伎座タワー,,13,102,1040061,,,2025-01-06,合併による解散等,9010001122841,令和７年１月１日東京都中央区銀座四丁目１２番１５号歌舞伎座タワー株式会社リンクソシュール（9010001122841）に合併し解散,2015-10-05,1,,,,,リンクイベントプロデュース,0
1335,6010001231356,登記記録の閉鎖等,0,2025-01-14,2024-12-24,日本リユース株式会社,,株式会社,東京都,千代田区,神田須田町１丁目１０番地５１ザ・パークハウス千代田淡路町９０１号,,13,101,1010041,,,2024-12-24,清算の結了等,,,2022-12-05,1,,,,,ニホンリユース,0
1362,6010601007577,登記記録の閉鎖等,0,2025-01-14,2025-01-06,株式会社佃宝,,株式会社,東京都,江東区,東雲２丁目２番８号,,13,108,1350062,,,2025-01-06,清算の結了等,,,2015-10-05,1,,,,,ツクホウ,0
1369,6010701021057,登記記録の閉鎖等,0,2025-01-14,2024-12-24,ユーエヌアイ株式会社,,株式会社,東京都,品川区,旗の台２丁目８番１６号,,13,109,1420064,,,2024-12-24,清算の結了等,,,2015-10-05,1,,,,,ユーエヌアイ,0
1395,6011801019957,登記記録の閉鎖等,0,2025-01-14,2024-12-27,株式会社ＫＳＫ計画,,株式会社,東京都,足立区,島根２丁目２３番９号,,13,121,1210815,,,2024-12-27,清算の結了等,,,2015-10-05,1,,,,,ケーエスケーケイカク,0
1426,6030001007234,登記記録の閉鎖等,0,2025-01-14,2024-12-27,フエロアロイ販売株式会社,,株式会社,埼玉県,さいたま市南区,根岸５丁目１８番３号３０１,,11,108,3360024,,,2024-12-27,清算の結了等,,,2015-10-05,1,,,,,フエロアロイハンバイ,0
1427,6030001079364,登記記録の閉鎖等,0,2025-01-14,2025-01-06,ベストパートナー株式会社,,株式会社,埼玉県,川口市,大字芝４５４１番地１,,11,203,3330866,,,2025-01-06,清算の結了等,,,2015-10-05,1,,,,,ベストパートナー,0
1439,6030002077623,登記記録の閉鎖等,0,2025-01-14,2025-01-06,有限会社東洋美装,,有限会社,埼玉県,比企郡川島町,八幡４丁目６番地１４,,11,346,3500151,,,2025-01-06,清算の結了等,,,2015-10-05,1,,,,,トウヨウビソウ,0
1442,6030002118014,登記記録の閉鎖等,0,2025-01-14,2024-12-27,有限会社ながのや,,有限会社,埼玉県,行田市,行田１２番２１号,,11,206,3610073,,,2024-12-27,清算の結了等,,,2015-10-05,1,,,,,ナガノヤ,0
1450,6040002085740,登記記録の閉鎖等,0,2025-01-14,2024-12-27,銚子特殊運送有限会社,,有限会社,千葉県,銚子市,高田町２丁目７２７番地,,12,202,2880862,,,2024-12-27,清算の結了等,,,2015-10-05,1,,,,,チョウシトクシュウンソウ,0
1462,6070001015704,登記記録の閉鎖等,0,2025-01-14,2025-01-10,株式会社大間々印刷,,株式会社,群馬県,みどり市,大間々町大間々２２７１番地,,10,212,3760101,,,2025-01-10,清算の結了等,,,2015-10-05,1,,,,,オオママインサツ,0
1465,6080101016114,登記記録の閉鎖等,0,2025-01-14,2025-01-06,株式会社グランドスラム,,株式会社,静岡県,駿東郡小山町,藤曲７６８番地の１９,,22,344,4101304,,,2025-01-06,清算の結了等,,,2015-10-05,1,,,,,グランドスラム,0
1468,6080401006285,登記記録の閉鎖等,0,2025-01-14,2025-01-07,株式会社日進堂,,株式会社,静岡県,浜松市中央区,鍛冶町１００番地の１アルファタワー１００７号,,22,138,4300933,,,2025-01-07,清算の結了等,,,2015-10-05,1,,,,,ニッシンドウ,0
1476,6100002007449,登記記録の閉鎖等,0,2025-01-14,2025-01-07,有限会社クエス,,有限会社,長野県,長野市,大字大豆島５０６０番地１２,,20,201,3810022,,,2025-01-07,清算の結了等,,,2015-10-05,1,,,,,クエス,0
1483,6120001013280,登記記録の閉鎖等,0,2025-01-14,2025-01-06,エムオーエス株式会社,,株式会社,大阪府,大阪市東成区,中本５丁目２６番１３号,,27,115,5370022,,,2025-01-06,合併による解散等,8120001013766,令和７年１月１日大阪市東成区中本五丁目２６番１３号南大阪自動車サービス株式会社（8120001013766）に合併し解散,2015-10-05,1,,,,,エムオーエス,0
1500,6120901007381,登記記録の閉鎖等,0,2025-01-14,2024-12-27,太平電業株式会社,,株式会社,大阪府,吹田市,山田西１丁目２４番５－２１０号,,27,205,5650824,,,2024-12-27,清算の結了等,,,2015-10-05,1,,,,,タイヘイデンギョウ,0
1511,6130001012538,登記記録の閉鎖等,0,2025-01-14,2025-01-08,株式会社絹菱,,株式会社,京都府,京都市山科区,四ノ宮小金塚８番地の１０２,00047158,26,110,6078022,,,2025-01-08,清算の結了等,,,2015-10-05,1,,,,,キヌビシ,0
1512,6130001031199,登記記録の閉鎖等,0,2025-01-14,2025-01-07,株式会社よつ葉ホームデリバリー京都南,,株式会社,京都府,八幡市,下奈良南頭１８番,,26,210,6148142,,,2025-01-07,清算の結了等,,,2015-10-05,1,,,,,ヨツバホームデリバリーキョウトミナミ,0
1513,6130001077457,登記記録の閉鎖等,0,2025-01-14,2025-01-09,株式会社ひまわり,,株式会社,京都府,京都市下京区,西七条北月読町７８番地２７,,26,106,6008886,,,2025-01-09,清算の結了等,,,2024-07-19,1,,,,,ヒマワリ,0
1521,6140001136369,登記記録の閉鎖等,0,2025-01-14,2025-01-06,カブモト株式会社,,株式会社,兵庫県,美方郡新温泉町,芦屋３３８番地の１,00136995,28,586,6696701,,,2025-01-06,合併による解散等,8140001056598,令和６年１２月３１日兵庫県美方郡新温泉町芦屋３３８番地の１株本建設工業株式会社（8140001056598）に合併し解散,2024-11-14,1,,,,,カブモト,0
1527,6140002055535,登記記録の閉鎖等,0,2025-01-14,2025-01-06,有限会社アダチ電気商会,,有限会社,兵庫県,西宮市,北口町１番２－１０５号,,28,204,6638035,,,2025-01-06,清算の結了等,,,2015-10-05,1,,,,,アダチデンキショウカイ,0
1534,6180001078054,登記記録の閉鎖等,0,2025-01-14,2025-01-06,株式会社名学館ディスカバリー,,株式会社,愛知県,名古屋市昭和区,隼人町６番地１０ＭｅｉｇａｋｕｋａｎＨｉｌｌｓ１Ｆ,,23,107,4660833,,,2025-01-06,合併による解散等,5180001047415,令和７年１月１日名古屋市昭和区隼人町６番地１０ＭｅｉｇａｋｕｋａｎＨｉｌｌｓ１Ｆ株式会社名学館ホールディングス（5180001047415）に合併し解散,2015-10-05,1,,,,,メイガクカンディスカバリー,0
1540,6180001134880,登記記録の閉鎖等,0,2025-01-14,2024-12-27,株式会社エイエイオー,,株式会社,愛知県,名古屋市千種区,池下１丁目１１－２１,,23,101,4640067,,,2024-12-27,清算の結了等,,,2018-12-20,1,,,,,エイエイオー,0
1551,6190001014446,登記記録の閉鎖等,0,2025-01-14,2025-01-07,株式会社トータルエンジニアリング,,株式会社,三重県,四日市市,大治田３丁目６番１８号,,24,202,5100875,,,2025-01-07,清算の結了等,,,2015-10-05,1,,,,,トータルエンジニアリング,0
1570,6250005008660,登記記録の閉鎖等,0,2025-01-14,2025-01-06,やまぐち事業承継・Ｍ＆Ａ協同組合,,その他の設立登記法人,山口県,山口市,宮島町５番１３号,,35,203,7530043,,,2025-01-06,清算の結了等,,,2021-04-08,1,,,,,ヤマグチジギョウショウケイエムアンドエー,0
1586,6320002011206,登記記録の閉鎖等,0,2025-01-14,2025-01-08,有限会社キング自動車工場,,有限会社,大分県,別府市,大字南石垣４０番地の１,,44,202,8740000,,,2025-01-08,清算の結了等,,,2015-10-05,1,,,,,,0
1601,6370401000928,登記記録の閉鎖等,0,2025-01-14,2025-01-06,株式会社ＳＵＮＲＩＫＵＢＡＳＥ,,株式会社,宮城県,本吉郡南三陸町,入谷字岩沢３４３番地２,,04,606,9860782,,,2025-01-06,清算の結了等,,,2015-10-05,1,,,,,サンリクベース,0
1604,6430002045201,登記記録の閉鎖等,0,2025-01-14,2025-01-07,有限会社大雪フォーレスト,,有限会社,北海道,札幌市豊平区,西岡四条１４丁目７番８号,,01,105,0620034,,,2025-01-07,清算の結了等,,,2015-10-05,1,,,,,タイセツフォーレスト,0
1608,6450001002837,登記記録の閉鎖等,0,2025-01-14,2025-01-06,北海丸油株式会社,,株式会社,北海道,旭川市,本町３丁目４３７番地２３９タカハタ・日東ビル２階,,01,204,0700810,,,2025-01-06,合併による解散等,8450001002372,令和７年１月１日北海道旭川市本町三丁目４３７番地２３９日東石油株式会社（8450001002372）に合併し解散,2015-10-05,1,,,,,ホッカイマルユ,0
1611,6470001006844,登記記録の閉鎖等,0,2025-01-14,2025-01-09,ウワヰ産業株式会社,,株式会社,香川県,綾歌郡綾川町,陶４１１７番地３,,37,387,7612103,,,2025-01-09,清算の結了等,,,2015-10-05,1,,,,,ウワイサンギョウ,0
1636,7010003039508,登記記録の閉鎖等,0,2025-01-14,2024-12-24,ＬａｌａＣｒｅａｔｅ合同会社,,合同会社,東京都,中央区,銀座６丁目１３番１６号銀座ＷａｌｌビルＵＣＦ５階,,13,102,1040061,,,2024-12-24,清算の結了等,,,2023-01-11,1,,,,,ララクリエイト,0
1652,7010401176472,登記記録の閉鎖等,0,2025-01-14,2024-12-24,リエゾン株式会社,,株式会社,東京都,港区,新橋６丁目２０番８号,,13,103,1050004,,,2024-12-24,清算の結了等,,,2023-08-17,1,,,,,リエゾン,0
1660,7010703005032,登記記録の閉鎖等,0,2025-01-14,2024-12-24,久万高原バイオマスエナジー合同会社,,合同会社,東京都,品川区,東五反田２丁目１７番１号,,13,109,1410022,,,2024-12-24,清算の結了等,,,2019-11-25,1,,,,,クマコウゲンバイオマスエナジー,0
1683,7011502001610,登記記録の閉鎖等,0,2025-01-14,2025-01-06,有限会社共和堂,,有限会社,東京都,北区,岸町１丁目２番１２号,,13,117,1140021,,,2025-01-06,清算の結了等,,,2015-10-05,1,,,,,キョウワドウ,0
1695,7012801009617,登記記録の閉鎖等,0,2025-01-14,2024-12-27,株式会社仙龍寺東京事務所,,株式会社,東京都,立川市,柏町４丁目６７番地１シアターピース玉川上水４０３,,13,202,1900004,,,2024-12-27,清算の結了等,,,2015-10-05,1,,,,,センリュウジトウキョウジムショ,0
1713,7021003008253,登記記録の閉鎖等,0,2025-01-14,2025-01-10,ＷＴＧ洋上風力開発横須賀合同会社,,合同会社,神奈川県,三浦郡葉山町,下山口１４０５番地の８,,14,301,2400116,,,2025-01-10,清算の結了等,,,2019-03-20,1,,,,,ダブルティージィーヨウジョウフウリョクカイハツヨコスカ,0
1722,7030002009518,登記記録の閉鎖等,0,2025-01-14,2025-01-06,トキワビル有限会社,,有限会社,埼玉県,吉川市,美南２丁目２５番地１グランセンス吉川美南セントラルレジデンス８２２号,,11,243,3420038,,,2025-01-06,清算の結了等,,,2015-10-05,1,,,,,トキワビル,0
1723,7030002030498,登記記録の閉鎖等,0,2025-01-14,2025-01-06,有限会社中野機材,,有限会社,埼玉県,所沢市,東所沢２丁目３番地の３,,11,208,3590021,,,2025-01-06,清算の結了等,,,2015-10-05,1,,,,,ナカノキザイ,0
1730,7040001055454,登記記録の閉鎖等,0,2025-01-14,2025-01-08,株式会社レゾナック・エレクトロニクス,,株式会社,千葉県,市原市,八幡海岸通５番地１,,12,219,2900067,,,2025-01-08,合併による解散等,3011101018084,令和７年１月１日東京都港区東新橋一丁目９番１号株式会社レゾナック（3011101018084）に合併し解散,2015-10-05,1,,,,,レゾナックエレクトロニクス,0
1735,7040002079337,登記記録の閉鎖等,0,2025-01-14,2024-12-25,有限会社イノウエ土地建物,,有限会社,千葉県,山武市,横田１０７３番地の２５,,12,237,2891226,,,2024-12-25,清算の結了等,,,2015-10-05,1,,,,,イノウエトチタテモノ,0
1750,7080401017496,登記記録の閉鎖等,0,2025-01-14,2025-01-06,ヤマハモーターエレクトロニクス株式会社,,株式会社,静岡県,周智郡森町,森１４５０番地の６,,22,461,4370215,,,2025-01-06,合併による解散等,2080401016040,令和７年１月１日静岡県磐田市新貝２５００番地ヤマハ発動機株式会社（2080401016040）に合併し解散,2015-10-05,1,,,,,ヤマハモーターエレクトロニクス,0
1751,7080401021564,登記記録の閉鎖等,0,2025-01-14,2024-12-26,株式会社森下商会,,株式会社,静岡県,菊川市,棚草２６７番地の１,,22,224,4371513,,,2024-12-26,清算の結了等,,,2016-06-15,1,,,,,,0
1780,7120902002348,登記記録の閉鎖等,0,2025-01-14,2025-01-06,有限会社ピンポイント,,有限会社,大阪府,茨木市,総持寺２丁目１３番１０号,,27,211,5670801,,,2025-01-06,清算の結了等,,,2015-10-05,1,,,,,ピンポイント,0
1799,7180001107869,登記記録の閉鎖等,0,2025-01-14,2024-12-25,クレバー工業株式会社,,株式会社,愛知県,名古屋市緑区,黒沢台１丁目１９０６番地の２,,23,114,4580003,,,2024-12-25,清算の結了等,,,2015-10-05,1,,,,,クレバーコウギョウ,0
1810,7180302016208,登記記録の閉鎖等,0,2025-01-14,2024-12-27,有限会社ジェーアンドエム,,有限会社,愛知県,安城市,安城町秋葉西２番地２２,,23,212,4460026,,,2024-12-27,清算の結了等,,,2015-10-05,1,,,,,ジェーアンドエム,0
1818,7210001003684,登記記録の閉鎖等,0,2025-01-14,2025-01-06,福井トヨペット株式会社,,株式会社,福井県,福井市,幾代２丁目１４２４番地の１,,18,201,9100013,,,2025-01-06,合併による解散等,8210001003683,令和７年１月１日福井市下荒井町１９字５０番地福井トヨタ自動車株式会社（8210001003683）に合併し解散,2015-10-05,1,,,,,フクイトヨペット,0
1827,7260001002450,登記記録の閉鎖等,0,2025-01-14,2025-01-09,株式会社コスモ,,株式会社,岡山県,岡山市北区,奥田南町８番３３－３号,,33,101,7000934,,,2025-01-09,清算の結了等,,,2015-10-05,1,,,,,コスモ,0
1828,7260001016731,登記記録の閉鎖等,0,2025-01-14,2024-12-27,株式会社スズキアルト児島販売,,株式会社,岡山県,倉敷市,児島下の町２丁目１４番１３号,,33,202,7110906,,,2024-12-27,清算の結了等,,,2015-10-05,1,,,,,スズキアルトコジマハンバイ,0
1831,7290001100219,登記記録の閉鎖等,0,2025-01-14,2024-12-19,株式会社ｃｈＡｒｔ,,株式会社,福岡県,久留米市,瀬下町１３４番地青木ビル３Ｆ,,40,203,8300025,,,2024-12-19,清算の結了等,,,2023-01-12,1,,,,,チャート,0
1837,7290801028089,登記記録の閉鎖等,0,2025-01-14,2025-01-06,株式会社ＬＩＦＡＣＴ,,株式会社,福岡県,北九州市戸畑区,沖台２丁目９番２３号,,40,105,8040064,,,2025-01-06,清算の結了等,,,2021-12-20,1,,,,,リファクト,0
1842,7350001015229,登記記録の閉鎖等,0,2025-01-14,2025-01-06,宮崎電力株式会社,,株式会社,宮崎県,宮崎市,日ノ出町６５番地１,,45,201,8800856,,,2025-01-06,合併による解散等,1350001011976,令和６年１２月３１日宮崎市日ノ出町６５番地１宮崎電力株式会社（1350001011976）に合併し解散,2018-04-17,1,,,,,ミヤザキデンリョク,0
1849,7370602000916,登記記録の閉鎖等,0,2025-01-14,2025-01-06,ショージ商会有限会社,,有限会社,宮城県,宮城郡利府町,しらかし台３丁目１７番地の５,,04,406,9810134,,,2025-01-06,清算の結了等,,,2015-10-05,1,,,,,ショージショウカイ,0
1850,7380002020613,登記記録の閉鎖等,0,2025-01-14,2024-12-11,有限会社笠松園,,有限会社,福島県,岩瀬郡鏡石町,大字鏡田字鏡沼１２７番地,,07,342,9690401,,,2024-12-11,清算の結了等,,,2015-10-05,1,,,,,リュウショウエン,0
1854,7420001018348,登記記録の閉鎖等,0,2025-01-14,2025-01-07,株式会社大新,,株式会社,青森県,上北郡七戸町,字森ノ下３１番地２２,,02,402,0392815,,,2025-01-07,清算の結了等,,,2023-08-04,1,,,,,ダイシン,0
1855,7430001034955,登記記録の閉鎖等,0,2025-01-14,2025-01-07,株式会社きょう兵衛企画,,株式会社,北海道,札幌市白石区,北郷八条１０丁目２番２２号,,01,104,0030838,,,2025-01-07,清算の結了等,,,2015-10-05,1,,,,,キョウベイキカク,0
1860,7450002010169,登記記録の閉鎖等,0,2025-01-14,2025-01-06,有限会社下頓別商事,,有限会社,北海道,枝幸郡浜頓別町,北三条４丁目４番地,,01,512,0985713,,,2025-01-06,合併による解散等,9450001007726,令和６年１２月３１日北海道枝幸郡浜頓別町北三条四丁目４番地山栄産業株式会社（9450001007726）に合併し解散,2015-10-05,1,,,,,シモトンベツショウジ,0
1867,7700150106321,登記記録の閉鎖等,0,2025-01-14,2024-08-31,ｔｅ＿ｒｉ,,その他,岩手県,花巻市,松園町５０８－１１,,03,205,0250066,,,2024-08-31,その他の清算の結了等,,,2021-12-20,1,,,,,テーリ,0
1879,8010002012448,登記記録の閉鎖等,0,2025-01-14,2024-12-26,有限会社ティー・ティー・エム,,有限会社,東京都,千代田区,内神田１丁目９番５号,,13,101,1010047,,,2024-12-26,合併による解散等,1010001022231,令和６年１２月２６日東京都千代田区内神田一丁目９番５号株式会社タツミ商店（1010001022231）に合併し解散,2015-10-05,1,,,,,ティーティーエム,0
1892,8010403013400,登記記録の閉鎖等,0,2025-01-14,2024-12-16,ジェイ２投資合同会社,,合同会社,東京都,港区,愛宕１丁目３番４号愛宕東洋ビル３階,,13,103,1050002,,,2024-12-16,清算の結了等,,,2015-10-05,1,,,,,ジェイツートウシ,0
1901,8010901046125,登記記録の閉鎖等,0,2025-01-14,2024-12-16,株式会社Ｍｉｎｉｔｔ,,株式会社,東京都,港区,港南２丁目１５番１号品川インターシティＡ棟２２階,,13,103,1080075,,,2024-12-16,清算の結了等,,,2020-04-30,1,,,,,ミニット,0
1918,8011201020828,登記記録の閉鎖等,0,2025-01-14,2025-01-10,株式会社ＧＡＮＧＩＴ,,株式会社,東京都,中野区,中野１丁目３３番１－１０１号,,13,114,1640001,,,2025-01-10,清算の結了等,,,2018-08-24,1,,,,,ギャンギット,0
1977,8050001008815,登記記録の閉鎖等,0,2025-01-14,2025-01-06,株式会社新光エンジニア,,株式会社,茨城県,那珂郡東海村,舟石川駅東４丁目８番９号,,08,341,3191118,,,2025-01-06,清算の結了等,,,2015-10-05,1,,,,,シンコウエンジニア,0
1980,8050002007246,登記記録の閉鎖等,0,2025-01-14,2024-12-27,有限会社宇野テレビサービスセンター,,有限会社,茨城県,那珂市,瓜連１６２８番地,,08,226,3192102,,,2024-12-27,清算の結了等,,,2015-10-05,1,,,,,ウノテレビサービスセンター,0
1987,8060002007419,登記記録の閉鎖等,0,2025-01-14,2025-01-06,有限会社春鮨,,有限会社,栃木県,宇都宮市,下栗町７７２番地２１５田崎ハイツ１０１,,09,201,3210923,,,2025-01-06,清算の結了等,,,2015-10-05,1,,,,,ハルズシ,0
1989,8080001018225,登記記録の閉鎖等,0,2025-01-14,2025-01-06,株式会社ＤＭＣ,,株式会社,静岡県,静岡市葵区,瀬名６丁目４４番１０－２号,,22,101,4200911,,,2025-01-06,清算の結了等,,,2015-10-05,1,,,,,ディーエムシー,0
2001,8090001001378,登記記録の閉鎖等,0,2025-01-14,2025-01-06,株式会社ＤＮＫ,,株式会社,山梨県,甲府市,丸の内１丁目１９番１６号,,19,201,4000031,,,2025-01-06,清算の結了等,,,2015-10-05,1,,,,,ディエヌケー,0
2005,8090002011855,登記記録の閉鎖等,0,2025-01-14,2025-01-06,有限会社河口湖温泉,,有限会社,山梨県,南都留郡富士河口湖町,船津６７１３番地の８,,19,430,4010301,,,2025-01-06,合併による解散等,4090001010234,令和７年１月１日山梨県南都留郡富士河口湖町船津６７１３番地の２２山下総業株式会社（4090001010234）に合併し解散,2015-10-05,1,,,,,カワグチコオンセン,0
2030,8120105008381,登記記録の閉鎖等,0,2025-01-14,2025-01-07,特定非営利活動法人アレルギーサポート大阪,,その他の設立登記法人,大阪府,松原市,天美南６丁目６番２０号,,27,217,5800033,,,2025-01-07,清算の結了等,,,2015-10-29,1,,,,,アレルギーサポートオオサカ,0
2047,8140002069021,登記記録の閉鎖等,0,2025-01-14,2025-01-06,有限会社船越商店,,有限会社,兵庫県,洲本市,物部１丁目６番１９号,,28,205,6560051,,,2025-01-06,清算の結了等,,,2015-10-05,1,,,,,フナコシショウテン,0
2049,8150001010604,登記記録の閉鎖等,0,2025-01-14,2025-01-08,盛竜警備保障株式会社,,株式会社,奈良県,橿原市,新口町１１９番地の４,,29,205,6340802,,,2025-01-08,合併による解散等,4150001022454,令和７年１月１日奈良県橿原市新口町１１９番地の４株式会社盛竜警備（4150001022454）に合併し解散,2015-10-05,1,,,,,セイリュウケイビホショウ,0
2060,8180005007610,登記記録の閉鎖等,0,2025-01-14,2025-01-06,税理士法人丸の内会計事務所,,その他の設立登記法人,愛知県,名古屋市中区,丸の内３丁目４番１０号,,23,106,4600002,,,2025-01-06,清算の結了等,,,2015-10-05,1,,,,,マルノウチカイケイジムショ,0
2065,8190001010518,登記記録の閉鎖等,0,2025-01-14,2024-12-23,株式会社丸八,,株式会社,三重県,松阪市,朝日町一区１３番地の１,,24,204,5150003,,,2024-12-23,清算の結了等,,,2024-10-30,1,,,,,マルハチ,0
2081,8240002001964,登記記録の閉鎖等,0,2025-01-14,2025-01-07,浦田産業有限会社,,有限会社,広島県,広島市中区,幟町１１番４号,,34,101,7300016,,,2025-01-07,合併による解散等,1140001007599,令和６年１２月２６日神戸市中央区磯辺通三丁目２番１７号ＫＯＷＡワールド三宮ビル光和管財株式会社（1140001007599）に合併し解散,2015-10-05,1,,,,,ウラタサンギョウ,0
2087,8290001039670,登記記録の閉鎖等,0,2025-01-14,2025-01-06,株式会社プロタイムズ・ジャパン,,株式会社,福岡県,福岡市博多区,博多駅東３丁目１４番１号,,40,132,8120013,,,2025-01-06,合併による解散等,3290001038792,令和７年１月１日福岡市博多区博多駅東三丁目１４番１号株式会社アステックペイント（3290001038792）に合併し解散,2015-10-05,1,,,,,プロタイムズジャパン,0
2098,8320001014059,登記記録の閉鎖等,0,2025-01-14,2025-01-08,株式会社安心院米穀店,,株式会社,大分県,宇佐市,安心院町木裳３２１番地の２,,44,211,8720507,,,2025-01-08,清算の結了等,,,2015-10-05,1,,,,,,0
2100,8330002020419,登記記録の閉鎖等,0,2025-01-14,2025-01-06,有限会社テイクロート,,有限会社,熊本県,上益城郡嘉島町,大字上島２５３番地の１,,43,442,8613106,,,2025-01-06,清算の結了等,,,2015-10-05,1,,,,,テイクロート,0
2101,8330002029501,登記記録の閉鎖等,0,2025-01-14,2024-12-27,有限会社大幸,,有限会社,熊本県,上天草市,龍ヶ岳町樋島１２８２番地の２,,43,212,8660203,,,2024-12-27,清算の結了等,,,2015-10-05,1,,,,,,0
2105,8340002011821,登記記録の閉鎖等,0,2025-01-14,2025-01-07,ウエヤマ技研有限会社,,有限会社,鹿児島県,鹿児島市,石谷町３２０８番地１,,46,201,8992701,,,2025-01-07,清算の結了等,,,2015-10-05,1,,,,,ウエヤマギケン,0
2121,8430001090898,登記記録の閉鎖等,0,2025-01-14,2025-01-07,Ｆ　ＳＴＹＬＥ株式会社,,株式会社,北海道,札幌市中央区,大通東３丁目１－２２インボイス札幌レジデンス９０８,,01,101,0600041,,,2025-01-07,清算の結了等,,,2024-01-18,1,,,,,エフスタイル,0
2128,8480001009803,登記記録の閉鎖等,0,2025-01-14,2025-01-09,三郎建設株式会社,,株式会社,徳島県,吉野川市,山川町久宗１９４番地,,36,205,7793406,,,2025-01-09,清算の結了等,,,2016-11-02,1,,,,,サブロウケンセツ,0
2143,9010001233424,登記記録の閉鎖等,0,2025-01-14,2024-12-23,ケアワークリエゾン株式会社,,株式会社,東京都,中央区,日本橋蛎殻町１丁目３６番９－１００５号,,13,102,1030014,,,2024-12-23,清算の結了等,,,2023-03-10,1,,,,,ケアワークリエゾン,0
2159,9010401163626,登記記録の閉鎖等,0,2025-01-14,2025-01-06,ＧＣＪＧ１８株式会社,,株式会社,新潟県,長岡市,新産３丁目２番地６,,15,202,9402127,,,2025-01-06,合併による解散等,2110001037788,令和７年１月１日新潟県長岡市新産三丁目２番地６株式会社アプトシステムズ（2110001037788）に合併し解散,2021-11-04,1,,,,,ジーシージェイジーエイティーン,0
2165,9010501032978,登記記録の閉鎖等,0,2025-01-14,2024-12-26,株式会社ドゥバイオ・ジャパン,,株式会社,東京都,台東区,上野１丁目４番２号,,13,106,1100005,,,2024-12-26,合併による解散等,7010501025232,令和６年１２月２６日東京都台東区上野三丁目２１番１１号寿商事株式会社（7010501025232）に合併し解散,2015-10-05,1,,,,,ドゥバイオジャパン,0
2177,9010803004147,登記記録の閉鎖等,0,2025-01-14,2024-12-27,合同会社ｌｉｂｙ,,合同会社,東京都,大田区,中馬込３丁目１６－１９－２１０,,13,111,1430027,,,2024-12-27,清算の結了等,,,2022-04-21,1,,,,,リビー,0
2178,9010901013603,登記記録の閉鎖等,0,2025-01-14,2025-01-06,株式会社ファイブツー,,株式会社,東京都,世田谷区,三軒茶屋１丁目１７番２号,,13,112,1540024,,,2025-01-06,清算の結了等,,,2015-10-05,1,,,,,ファイブツー,0
2207,9012401011657,登記記録の閉鎖等,0,2025-01-14,2025-01-10,株式会社はるばる屋,,株式会社,東京都,三鷹市,下連雀５丁目８番シティコート下連雀３号棟３０３号室,,13,204,1810013,,,2025-01-10,清算の結了等,,,2015-10-05,1,,,,,ハルバルヤ,0
2209,9012701004014,登記記録の閉鎖等,0,2025-01-14,2024-12-27,株式会社海谷工務店,,株式会社,東京都,清瀬市,野塩５丁目２８７番地,,13,221,2040004,,,2024-12-27,清算の結了等,,,2015-10-05,1,,,,,カイヤコウムテン,0
2211,9013401002076,登記記録の閉鎖等,0,2025-01-14,2025-01-06,株式会社フェニックス・インベストメント,,株式会社,東京都,稲城市,向陽台４丁目４番地－２、２－７０９,,13,225,2060803,,,2025-01-06,清算の結了等,,,2015-10-05,1,,,,,フェニックスインベストメント,0
2231,9030003012048,登記記録の閉鎖等,0,2025-01-14,2025-01-06,合同会社ケーユーホールディング,,合同会社,埼玉県,朝霞市,浜崎３丁目８番２９号,,11,227,3510033,,,2025-01-06,合併による解散等,3030003008142,令和７年１月１日埼玉県朝霞市浜崎三丁目８番２９号合同会社オフィス土居（3030003008142）に合併し解散,2018-06-19,1,,,,,ケーユーホールディング,0
2238,9040002048372,登記記録の閉鎖等,0,2025-01-14,2025-01-06,有限会社双葉工機,,有限会社,茨城県,龍ケ崎市,４８２１番地,,08,208,3010000,,,2025-01-06,清算の結了等,,,2015-10-05,1,,,,,フタバコウキ,0
2260,9100001013461,登記記録の閉鎖等,0,2025-01-14,2025-01-06,株式会社ＧＢＢＴ,,株式会社,長野県,松本市,大字笹賀７１５５番地１,,20,202,3990033,,,2025-01-06,清算の結了等,,,2015-10-05,1,,,,,ジービービーティー,0
2262,9100005002089,登記記録の閉鎖等,0,2025-01-14,2025-01-09,特定非営利活動法人長野県定期借地借家権推進機構,,その他の設立登記法人,長野県,長野市,大字高田１０３６番地１,,20,201,3810034,,,2025-01-09,清算の結了等,,,2015-10-05,1,,,,,ナガノケンテイキシャクチシャッカケンスイシンキコウ,0
2266,9110003002734,登記記録の閉鎖等,0,2025-01-14,2025-01-06,合同会社パトリア,,合同会社,新潟県,新潟市東区,逢谷内２丁目２番１２号,,15,102,9500814,,,2025-01-06,清算の結了等,,,2015-10-05,1,,,,,パトリア,0
2274,9120001223711,登記記録の閉鎖等,0,2025-01-14,2025-01-08,Ｒａｖｉ　Ｇｅｍｓ　Ｓｒｉｌａｎｋａ株式会社,,株式会社,大阪府,大阪市中央区,西心斎橋１丁目６－３サンライズビル４０６号,,27,128,5420086,,,2025-01-08,清算の結了等,,,2019-09-13,1,,,,,ラヴィゲムススリランカ,0
2278,9120002010506,登記記録の閉鎖等,0,2025-01-14,2024-12-27,有限会社レインボー,,有限会社,大阪府,吹田市,内本町１丁目７番１７号,,27,205,5640032,,,2024-12-27,清算の結了等,,,2015-10-05,1,,,,,レインボー,0
2280,9120002071168,登記記録の閉鎖等,0,2025-01-14,2025-01-10,有限会社テイーケイ産業,,有限会社,大阪府,大阪市旭区,新森１丁目７番１－４０２,,27,117,5350022,,,2025-01-10,清算の結了等,,,2015-10-05,1,,,,,ティーケイサンギョウ,0
2281,9120101040916,登記記録の閉鎖等,0,2025-01-14,2025-01-09,関空トレーディング株式会社,,株式会社,大阪府,大阪市福島区,野田２丁目１３番５号,,27,103,5530005,,,2025-01-09,清算の結了等,,,2015-10-05,1,,,,,カンクウトレーディング,0
2287,9120901030819,登記記録の閉鎖等,0,2025-01-14,2025-01-09,安威川ゴルフ株式会社,00033575,株式会社,大阪府,大阪市淀川区,塚本３丁目４番２６号,,27,123,5320026,,,2025-01-09,清算の結了等,,,2015-10-05,1,,,,,アイガワゴルフ,0
2294,9140001133157,登記記録の閉鎖等,0,2025-01-14,2024-12-23,株式会社字北山商事,,株式会社,兵庫県,小野市,市場町字北山１０８５番地の２９,,28,218,6751327,,,2024-12-23,清算の結了等,,,2024-02-07,1,,,,,アザキタヤマショウジ,0
2318,9230001010099,登記記録の閉鎖等,0,2025-01-14,2025-01-06,三尚運輸株式会社,,株式会社,富山県,高岡市,佐加野３５４番地の２,,16,202,9330961,,,2025-01-06,合併による解散等,5230001010020,令和７年１月１日富山県高岡市上四屋４番４２号北陸トナミ運輸株式会社（5230001010020）に合併し解散,2015-10-05,1,,,,,サンショウウンユ,0
2321,9250001013356,登記記録の閉鎖等,0,2025-01-14,2025-01-10,三福株式会社,,株式会社,山口県,山口市,今井町４番５号,,35,203,7530055,,,2025-01-10,清算の結了等,,,2015-10-05,1,,,,,,0
2328,9280001004757,登記記録の閉鎖等,0,2025-01-14,2025-01-09,株式会社未来販売堂,,株式会社,島根県,浜田市,旭町丸原１５２９番地１１,,32,202,6970426,,,2025-01-09,清算の結了等,,,2015-10-05,1,,,,,ミライハンバイドウ,0
2330,9290001029159,登記記録の閉鎖等,0,2025-01-14,2024-12-19,平井通信システム株式会社,,株式会社,福岡県,福岡市博多区,上牟田２丁目１２番１５号,,40,132,8120006,,,2024-12-19,清算の結了等,,,2015-10-05,1,,,,,ヒライツウシンシステム,0
2339,9290003004003,登記記録の閉鎖等,0,2025-01-14,2024-12-17,合同会社ローゼン,,合同会社,福岡県,福岡市博多区,中洲３丁目４番６号多門ビル６階,,40,132,8100801,,,2024-12-17,清算の結了等,,,2015-10-05,1,,,,,ローゼン,0
2346,9310001014637,登記記録の閉鎖等,0,2025-01-14,2025-01-09,株式会社アカヒゲ創建,,株式会社,長崎県,長崎市,晴海台町１５番地１５,,42,201,8510402,,,2025-01-09,清算の結了等,,,2017-01-05,1,,,,,アカヒゲソウケン,0
2367,9390002007780,登記記録の閉鎖等,0,2025-01-14,2025-01-07,有限会社にいか,,有限会社,山形県,酒田市,中町３丁目２番２８号,,06,204,9980044,,,2025-01-07,清算の結了等,,,2015-10-05,1,,,,,ニイカ,0
