sequenceNumber,corporateNumber,process,correct,updateDate,changeDate,name,nameImageId,kind,prefectureName,cityName,streetNumber,addressImageId,prefectureCode,cityCode,postCode,addressOutside,addressOutsideImageId,closeDate,closeCause,successorCorporateNumber,changeCause,assignmentDate,latest,enName,enPrefectureName,enCityName,enAddressOutside,furigana,hihyoji
13,1010003029415,登記記録の閉鎖等,0,2021-09-24,2021-09-15,合同会社パスファインダー,,合同会社,東京都,中央区,日本橋本町４丁目１番１号,,13,102,1030023,,,2021-09-15,清算の結了等,,,2019-03-07,1,,,,,パスファインダー,0
28,1010701029518,登記記録の閉鎖等,0,2021-09-24,2021-09-17,ＤＣＭ保険サービス株式会社,,株式会社,東京都,品川区,南大井６丁目２２番７号,,13,109,1400013,,,2021-09-17,清算の結了等,,,2015-10-05,1,,,,,ディーシーエムホケンサービス,0
32,1010802002258,登記記録の閉鎖等,0,2021-09-24,2021-09-13,有限会社江藤電設,,有限会社,東京都,大田区,東雪谷１丁目２番３－４０２号,,13,111,1450065,,,2021-09-13,清算の結了等,,,2015-10-05,1,,,,,エトウデンセツ,0
43,1011001115421,登記記録の閉鎖等,0,2021-09-24,2021-09-16,株式会社ＲＲ,,株式会社,東京都,渋谷区,千駄ヶ谷１丁目２４番５号,,13,113,1510051,,,2021-09-16,合併による解散等,6010001195568,令和３年９月１日東京都千代田区神田小川町二丁目１番地２株式会社ソトコト・プラネット（6010001195568）に合併し解散,2017-03-17,1,,,,,アールアール,0
44,1011001122962,登記記録の閉鎖等,0,2021-09-24,2021-09-16,株式会社ｂｅａ’ｓ　ｕｐ　ｏｎｌｉｎｅ,,株式会社,東京都,渋谷区,桜丘町４番２２号,,13,113,1500031,,,2021-09-16,合併による解散等,6010001195568,令和３年９月１日東京都千代田区神田小川町二丁目１番地２株式会社ソトコト・プラネット（6010001195568）に合併し解散,2018-06-28,1,,,,,ビーズアップオンライン,0
46,1011001127689,登記記録の閉鎖等,0,2021-09-24,2021-09-03,株式会社Ｔｈｅ　Ｈａｎｄｍａｄｅ　Ｃｏｍｐａｎｙ,,株式会社,東京都,目黒区,目黒２丁目９番６号目黒ベガタワー１階,,13,110,1530063,,,2021-09-03,清算の結了等,,,2019-04-22,1,,,,,ザハンドメイドカンパニー,0
58,1011502006581,登記記録の閉鎖等,0,2021-09-24,2021-09-21,有限会社ワタベゴルフ,,有限会社,東京都,北区,志茂２丁目４２番７号,,13,117,1150042,,,2021-09-21,清算の結了等,,,2015-10-05,1,,,,,ワタベゴルフ,0
59,1011503000674,登記記録の閉鎖等,0,2021-09-24,2021-09-21,合資会社松屋精肉店,,合資会社,東京都,北区,西が丘１丁目６番１３号,,13,117,1150056,,,2021-09-21,清算の結了等,,,2015-10-05,1,,,,,マツヤセイニクテン,0
72,1012702003699,登記記録の閉鎖等,0,2021-09-24,2021-09-21,有限会社やなぎ屋ミート,,有限会社,東京都,東村山市,萩山町３丁目１１番地１１,,13,213,1890012,,,2021-09-21,清算の結了等,,,2015-10-05,1,,,,,ヤナギヤミート,0
74,1013202004980,登記記録の閉鎖等,0,2021-09-24,2021-09-03,有限会社パームコート,,有限会社,東京都,目黒区,下目黒３丁目５番１６号,,13,110,1530064,,,2021-09-03,清算の結了等,,,2015-10-05,1,,,,,パームコート,0
77,1020001097388,登記記録の閉鎖等,0,2021-09-24,2021-09-10,株式会社ノザキ,,株式会社,神奈川県,横浜市保土ケ谷区,宮田町１丁目２番地の８,,14,106,2400002,,,2021-09-10,清算の結了等,,,2015-10-05,1,,,,,ノザキ,0
90,1030001077546,登記記録の閉鎖等,0,2021-09-24,2021-09-10,株式会社森田材木店,,株式会社,埼玉県,川口市,末広１丁目１５番２３号,,11,203,3320006,,,2021-09-10,清算の結了等,,,2015-10-05,1,,,,,モリタザイモクテン,0
116,1060002028850,登記記録の閉鎖等,0,2021-09-24,2021-09-16,有限会社知久建設,,有限会社,栃木県,小山市,大字乙女１２１９番地,,09,208,3290214,,,2021-09-16,清算の結了等,,,2015-10-05,1,,,,,チクケンセツ,0
133,1100002036642,登記記録の閉鎖等,0,2021-09-24,2021-09-21,相互不動産有限会社,,有限会社,長野県,飯田市,松尾代田１５１４番地１,,20,205,3950812,,,2021-09-21,合併による解散等,9100002038053,令和３年９月２０日長野県飯田市松尾代田１５１４番地１株式会社宇佐美工業（9100002038053）に合併し解散,2015-10-05,1,,,,,ソウゴフドウサン,0
148,1120001212300,登記記録の閉鎖等,0,2021-09-24,2021-09-13,株式会社ｃＺｅｌｌａ,,株式会社,大阪府,大阪市西区,新町１丁目２番１３号,,27,106,5500013,,,2021-09-13,清算の結了等,,,2018-03-30,1,,,,,クゼラ,0
153,1120003010033,登記記録の閉鎖等,0,2021-09-24,2021-08-03,合同会社Ｆａｓｔｉｎｇ　ｍｅｉｓｔｅｒ　Ｃｏｌｌｅｇｅ,,合同会社,大阪府,大阪市西区,立売堀４丁目７番２４号,,27,106,5500012,,,2021-08-03,清算の結了等,,,2015-10-05,1,,,,,ファスティングマイスターカレッジ,0
162,1120105007613,登記記録の閉鎖等,0,2021-09-24,2021-09-21,医療法人市原眼科クリニック,,その他の設立登記法人,大阪府,大阪市天王寺区,四天王寺２丁目５番１１号棲’Ｓ東門８０３号,,27,109,5430051,,,2021-09-21,清算の結了等,,,2015-10-05,1,,,,,イチハラガンカクリニック,0
164,1120902020033,登記記録の閉鎖等,0,2021-09-24,2021-09-21,有限会社もりやま,,有限会社,大阪府,豊中市,末広町１丁目１番２５号,,27,203,5600024,,,2021-09-21,清算の結了等,,,2015-10-05,1,,,,,モリヤマ,0
169,1130001017855,登記記録の閉鎖等,0,2021-09-24,2021-09-17,エバーラスティング株式会社,,株式会社,京都府,京都市西京区,大枝沓掛町１０番地の９８,,26,111,6101106,,,2021-09-17,清算の結了等,,,2015-10-05,1,,,,,エバーラスティング,0
191,1180001142087,登記記録の閉鎖等,0,2021-09-24,2021-09-16,株式会社ＩＷＴＳ,,株式会社,愛知県,名古屋市中川区,長良町ニ丁目１０９番地グラシア４０３,,23,110,4540815,,,2021-09-16,清算の結了等,,,2020-07-21,1,,,,,アイダブリューティーエス,0
197,1180002092364,登記記録の閉鎖等,0,2021-09-24,2021-09-13,有限会社津島総合保険,,有限会社,愛知県,あま市,七宝町遠島萱苅島１８２６番地の１９,,23,237,4970002,,,2021-09-13,清算の結了等,,,2015-10-05,1,,,,,ツシマソウゴウホケン,0
208,1220001001544,登記記録の閉鎖等,0,2021-09-24,2021-09-16,株式会社大島商店,,株式会社,石川県,金沢市,高畠３丁目９４番地,,17,201,9218001,,,2021-09-16,清算の結了等,,,2015-10-05,1,,,,,オオシマショウテン,0
213,1250002011300,登記記録の閉鎖等,0,2021-09-24,2021-09-21,有限会社八十島商店,,有限会社,山口県,下関市,綾羅木南町２丁目７番３２号,,35,201,7510848,,,2021-09-21,清算の結了等,,,2015-10-05,1,,,,,ヤソジマショウテン,0
232,1290805009009,登記記録の閉鎖等,0,2021-09-24,2021-09-06,一般社団法人福岡県立八幡工業高等学校振興会,,その他の設立登記法人,福岡県,北九州市八幡西区,別所町１番１号福岡県立八幡工業高等学校内,,40,109,8060068,,,2021-09-06,清算の結了等,,,2017-08-02,1,,,,,フクオカケンリツヤハタコウギョウ,0
239,1330002019772,登記記録の閉鎖等,0,2021-09-24,2021-09-21,有限会社土木管理サービス,,有限会社,熊本県,上益城郡御船町,大字辺田見５１番地,,43,441,8613206,,,2021-09-21,清算の結了等,,,2015-10-05,1,,,,,ドボクカンリサービス,0
243,1370002015751,登記記録の閉鎖等,0,2021-09-24,2021-09-14,有限会社トリックス,,有限会社,宮城県,仙台市若林区,卸町東５丁目３番１８号,,04,103,9840002,,,2021-09-14,清算の結了等,,,2015-10-05,1,,,,,,0
264,1450003000587,登記記録の閉鎖等,0,2021-09-24,2021-09-22,合同会社ｒｋ介護,,合同会社,北海道,旭川市,東光十一条２丁目１番２４号,,01,204,0788351,,,2021-09-22,清算の結了等,,,2015-10-05,1,,,,,アールケーカイゴ,0
301,2011001091001,登記記録の閉鎖等,0,2021-09-24,2021-09-03,株式会社キルヌタントゥ,,株式会社,東京都,目黒区,上目黒２丁目１８番１２号,,13,110,1530051,,,2021-09-03,清算の結了等,,,2015-10-05,1,,,,,キルヌタントゥ,0
333,2020001131311,登記記録の閉鎖等,0,2021-09-24,2021-09-16,ＥＬｉｍｐｅｘ株式会社,,株式会社,神奈川県,横浜市南区,六ツ川２丁目１４番地の４５,,14,105,2320066,,,2021-09-16,清算の結了等,,,2019-05-30,1,,,,,イーエルインペックス,0
366,2050002023661,登記記録の閉鎖等,0,2021-09-24,2021-09-16,明光興業有限会社,,有限会社,茨城県,つくば市,筑穂２丁目７番地６,,08,220,3003257,,,2021-09-16,清算の結了等,,,2015-10-05,1,,,,,メイコウコウギョウ,0
373,2070001000726,登記記録の閉鎖等,0,2021-09-24,2021-09-17,カネショウ水産株式会社,,株式会社,群馬県,前橋市,箱田町１６６１番地の１,,10,201,3710837,,,2021-09-17,清算の結了等,,,2015-10-05,1,,,,,カネショウスイサン,0
378,2070002035432,登記記録の閉鎖等,0,2021-09-24,2021-09-16,有限会社宇津野住建,,有限会社,群馬県,沼田市,井土上町８４５番地１,,10,206,3780035,,,2021-09-16,清算の結了等,,,2015-10-05,1,,,,,ウツノジュウケン,0
381,2080401012733,登記記録の閉鎖等,0,2021-09-24,2021-09-22,フロンティアネットワークス株式会社,,株式会社,静岡県,浜松市中区,葵西６丁目１２番４１号,,22,131,4338111,,,2021-09-22,清算の結了等,,,2015-10-05,1,,,,,フロンティアネットワークス,0
385,2100001012635,登記記録の閉鎖等,0,2021-09-24,2021-09-17,株式会社アカネＰＲ,,株式会社,長野県,松本市,大字笹賀７５３１番地,,20,202,3990033,,,2021-09-17,清算の結了等,,,2015-10-05,1,,,,,アカネピーアール,0
400,2120001214568,登記記録の閉鎖等,0,2021-09-24,2021-09-09,株式会社キズナ企画,,株式会社,大阪府,大阪市中央区,久太郎町１丁目９番１７号ストークビルヂング本町８０３号,,27,128,5410056,,,2021-09-09,清算の結了等,,,2018-07-09,1,,,,,キズナキカク,0
443,2170005001735,登記記録の閉鎖等,0,2021-09-24,2021-09-21,社会福祉法人くじら福祉会,,その他の設立登記法人,和歌山県,和歌山市,六十谷４９０番地の５,,30,201,6408482,,,2021-09-21,清算の結了等,,,2015-10-05,1,,,,,クジラフクシカイ,0
454,2180002047111,登記記録の閉鎖等,0,2021-09-24,2021-09-15,有限会社ワークスプランニング,,有限会社,愛知県,名古屋市緑区,鳴海町字米塚３８番地,,23,114,4580801,,,2021-09-15,清算の結了等,,,2015-10-05,1,,,,,ワークスプランニング,0
457,2180002082752,登記記録の閉鎖等,0,2021-09-24,2021-09-15,有限会社三橋電化,,有限会社,愛知県,江南市,鹿子島町尾崎１５７番地,,23,217,4838008,,,2021-09-15,清算の結了等,,,2015-10-05,1,,,,,ミハシデンカ,0
467,2180301010447,登記記録の閉鎖等,0,2021-09-24,2021-09-17,株式会社羽田野建設,,株式会社,愛知県,豊川市,伊奈町茶屋６７番地,,23,207,4410105,,,2021-09-17,清算の結了等,,,2015-10-05,1,,,,,ハダノケンセツ,0
484,2210001013218,登記記録の閉鎖等,0,2021-09-24,2021-09-17,株式会社フクワン,,株式会社,福井県,鯖江市,中野町第１３号９番地,,18,207,9160033,,,2021-09-17,清算の結了等,,,2015-10-05,1,,,,,フクワン,0
489,2230002006747,登記記録の閉鎖等,0,2021-09-24,2021-09-17,有限会社高沢工務店,00079071,有限会社,富山県,富山市,八尾町新田１８３番地,,16,201,9392363,,,2021-09-17,清算の結了等,,,2015-10-05,1,,,,,タカサワコウムテン,0
527,2340005005917,登記記録の閉鎖等,0,2021-09-24,2021-09-17,特定非営利活動法人ＬＣＬ,,その他の設立登記法人,鹿児島県,枕崎市,港町１３４番地ＬＣＬビル２Ｆ,,46,204,8980004,,,2021-09-17,清算の結了等,,,2015-10-05,1,,,,,,0
536,2370201003548,登記記録の閉鎖等,0,2021-09-24,2021-09-10,株式会社ヌマタＲ＆Ｄ,,株式会社,宮城県,大崎市,古川駅南１丁目６８番地,,04,215,9896161,,,2021-09-10,清算の結了等,,,2015-10-05,1,,,,,ヌマタアールアンドディー,0
538,2380002002228,登記記録の閉鎖等,0,2021-09-24,2021-09-17,有限会社玉野屋,,有限会社,福島県,福島市,南町１７０番地,,07,201,9608162,,,2021-09-17,清算の結了等,,,2015-10-05,1,,,,,タマノヤ,0
581,3010401095767,登記記録の閉鎖等,0,2021-09-24,2021-09-07,株式会社ｇｌｏｏｐｓ,,株式会社,埼玉県,川口市,並木１丁目１１番１５号,,11,203,3320034,,,2021-09-07,合併による解散等,8030002109837,令和３年８月３１日埼玉県川口市並木一丁目１１番１５号株式会社ジーアールドライブ（8030002109837）に合併し解散,2015-10-05,1,,,,,グループス,0
587,3010403015260,登記記録の閉鎖等,0,2021-09-24,2021-08-30,合同会社リニューアブルエネルギーパートナ,,合同会社,神奈川県,藤沢市,藤が岡１丁目１番Ａ３－６０１号,,14,205,2510004,,,2021-08-30,清算の結了等,,,2016-08-26,1,,,,,リニューアブルエネルギーパートナ,0
590,3010601020178,登記記録の閉鎖等,0,2021-09-24,2021-09-08,株式会社ナカタ自工,,株式会社,東京都,墨田区,立川２丁目９番８号,,13,107,1300023,,,2021-09-08,清算の結了等,,,2015-10-05,1,,,,,ナカタジコウ,0
596,3010802003543,登記記録の閉鎖等,0,2021-09-24,2021-09-17,有限会社間通信工業,,有限会社,東京都,大田区,上池台５丁目３番１２号エンゼルハイム上池台５０２号,,13,111,1450064,,,2021-09-17,合併による解散等,8010601041905,令和３年９月１日東京都墨田区堤通一丁目１番１－９０７号オルタナティブプランズ株式会社（8010601041905）に合併し解散,2015-10-05,1,,,,,,0
618,3011701016314,登記記録の閉鎖等,0,2021-09-24,2021-09-17,株式会社エヌケーメタル,,株式会社,神奈川県,川崎市宮前区,東有馬３丁目１３番１７－４０８号,,14,136,2160002,,,2021-09-17,清算の結了等,,,2015-10-05,1,,,,,エヌケーメタル,0
629,3020001058033,登記記録の閉鎖等,0,2021-09-24,2021-09-15,株式会社ＭＩＣＯＳ,,株式会社,神奈川県,横浜市磯子区,磯子台２６番１－３１６号,,14,107,2350019,,,2021-09-15,清算の結了等,,,2015-10-05,1,,,,,,0
652,3040002085322,登記記録の閉鎖等,0,2021-09-24,2021-09-13,有限会社オヤマ冷凍,,有限会社,千葉県,銚子市,川口町２丁目６４９０番地,,12,202,2880001,,,2021-09-13,清算の結了等,,,2015-10-05,1,,,,,オヤマレイトウ,0
662,3070002015474,登記記録の閉鎖等,0,2021-09-24,2021-09-22,有限会社音ライブ,,有限会社,群馬県,安中市,板鼻５６３番地６,,10,211,3790111,,,2021-09-22,清算の結了等,,,2015-10-05,1,,,,,オンライブ,0
671,3080105001172,登記記録の閉鎖等,0,2021-09-24,2021-09-17,医療法人社団明産会宮下産婦人科医院,,その他の設立登記法人,静岡県,御殿場市,新橋８４７番地,,22,215,4120043,,,2021-09-17,清算の結了等,,,2015-10-05,1,,,,,メイサンカイミヤシタサンフジンカイイン,0
672,3100001008475,登記記録の閉鎖等,0,2021-09-24,2021-09-17,株式会社島平,,株式会社,長野県,小諸市,田町２丁目５番５号,,20,208,3840028,,,2021-09-17,清算の結了等,,,2015-10-05,1,,,,,シマヘイ,0
675,3100002012286,登記記録の閉鎖等,0,2021-09-24,2021-09-21,有限会社佐久ミートテクニカル,,有限会社,長野県,佐久市,長土呂１番地１,,20,217,3850021,,,2021-09-21,清算の結了等,,,2015-10-05,1,,,,,サクミートテクニカル,0
703,3130001044154,登記記録の閉鎖等,0,2021-09-24,2021-09-16,コトブキ電機工業株式会社,,株式会社,京都府,舞鶴市,字高野由里１３４番地の９,,26,202,6240835,,,2021-09-16,清算の結了等,,,2015-10-05,1,,,,,コトブキデンキコウギョウ,0
725,3180002066647,登記記録の閉鎖等,0,2021-09-24,2021-09-21,有限会社土屋保険コンサルタント,,有限会社,愛知県,春日井市,東野町西３丁目８番地の３４,,23,206,4860818,,,2021-09-21,清算の結了等,,,2015-10-05,1,,,,,ツチヤホケンコンサルタント,0
731,3180005008828,登記記録の閉鎖等,0,2021-09-24,2021-09-21,協同組合尾張東エルピーガス保安センター,,その他の設立登記法人,愛知県,瀬戸市,陶本町５丁目５番地,,23,204,4890045,,,2021-09-21,清算の結了等,,,2015-10-05,1,,,,,オワリヒガシエルピーガスホアンセンター,0
733,3180301014232,登記記録の閉鎖等,0,2021-09-24,2021-09-21,中部テックス株式会社,,株式会社,愛知県,刈谷市,一色町２丁目５番地１,,23,210,4480022,,,2021-09-21,清算の結了等,,,2015-10-05,1,,,,,チュウブテックス,0
736,3190001024316,登記記録の閉鎖等,0,2021-09-24,2021-09-21,株式会社ＣＲＥＡ,,株式会社,三重県,松阪市,久保町１８５５番地１１９５,,24,204,5150044,,,2021-09-21,清算の結了等,,,2017-01-16,1,,,,,クレア,0
738,3190002024216,登記記録の閉鎖等,0,2021-09-24,2021-09-17,有限会社アダチ,,有限会社,三重県,四日市市,上海老町１４８５番地１０１,,24,202,5121201,,,2021-09-17,清算の結了等,,,2015-10-05,1,,,,,アダチ,0
759,3270002007848,登記記録の閉鎖等,0,2021-09-24,2021-09-21,有限会社東洋オフコム,,有限会社,鳥取県,境港市,財ノ木町６５０番地,,31,204,6840054,,,2021-09-21,清算の結了等,,,2015-10-05,1,,,,,トウヨウオフコム,0
781,3380002029914,登記記録の閉鎖等,0,2021-09-24,2021-09-16,有限会社兼平工業所,,有限会社,福島県,双葉郡富岡町,大字大菅字川田１５０番地の２,,07,543,9791171,,,2021-09-16,清算の結了等,,,2015-10-05,1,,,,,カネヒラコウギョウショ,0
782,3390002001153,登記記録の閉鎖等,0,2021-09-24,2021-09-16,有限会社サンテック山形,,有限会社,山形県,山形市,北山形２丁目３番４９号,,06,201,9900822,,,2021-09-16,清算の結了等,,,2015-10-05,1,,,,,サンテックヤマガタ,0
783,3390002001723,登記記録の閉鎖等,0,2021-09-24,2021-09-15,有限会社ダイショウ,,有限会社,山形県,山形市,十日町３丁目８番２５号,,06,201,9900031,,,2021-09-15,清算の結了等,,,2015-10-05,1,,,,,ダイショウ,0
791,3430002044008,登記記録の閉鎖等,0,2021-09-24,2021-09-13,有限会社ウエハラ,,有限会社,北海道,石狩市,花川北二条４丁目１３１番地,,01,235,0613212,,,2021-09-13,清算の結了等,,,2015-10-05,1,,,,,ウエハラ,0
823,4010401101994,登記記録の閉鎖等,0,2021-09-24,2021-09-14,ゼロシーセブン・ホールディングス株式会社,,株式会社,東京都,港区,赤坂７丁目９番７号,,13,103,1070052,,,2021-09-14,合併による解散等,1010001007884,令和３年９月１日東京都港区赤坂一丁目１２番３２号ゼロシーセブン株式会社（1010001007884）に合併し解散,2015-10-05,1,,,,,ゼロシーセブンホールディングス,0
833,4010403013809,登記記録の閉鎖等,0,2021-09-24,2021-09-17,合同会社Ｈ・Ｔホールディングス,,合同会社,東京都,港区,新橋２丁目１６番１－１０１３号,,13,103,1050004,,,2021-09-17,清算の結了等,,,2015-10-05,1,,,,,エイチティーホールディングス,0
856,4010803002923,登記記録の閉鎖等,0,2021-09-24,2021-09-13,合同会社エア・リンガス,,合同会社,東京都,大田区,蒲田５丁目２０番７号地下１階,,13,111,1440052,,,2021-09-13,清算の結了等,,,2019-02-12,1,,,,,エアリンガス,0
876,4011702008656,登記記録の閉鎖等,0,2021-09-24,2021-09-15,南信商事有限会社,,有限会社,東京都,江戸川区,平井５丁目１８番９号,,13,123,1320035,,,2021-09-15,清算の結了等,,,2015-10-05,1,,,,,ナンシンショウジ,0
935,4050002023362,登記記録の閉鎖等,0,2021-09-24,2021-09-17,有限会社アモールサービス,,有限会社,茨城県,つくば市,上広岡４０７番地１,,08,220,3050041,,,2021-09-17,清算の結了等,,,2015-10-05,1,,,,,アモールサービス,0
943,4070001027651,登記記録の閉鎖等,0,2021-09-24,2021-09-21,株式会社アクアプラン,,株式会社,群馬県,高崎市,飯塚町１７３７番地６,,10,202,3700069,,,2021-09-21,清算の結了等,,,2015-10-05,1,,,,,アクアプラン,0
946,4070002024334,登記記録の閉鎖等,0,2021-09-24,2021-09-17,有限会社ナナサワ,,有限会社,群馬県,みどり市,笠懸町阿左美９１０番地５,,10,212,3792311,,,2021-09-17,清算の結了等,,,2015-10-05,1,,,,,ナナサワ,0
956,4120001141884,登記記録の閉鎖等,0,2021-09-24,2021-09-08,株式会社ライズエステート,,株式会社,大阪府,大阪市中央区,淡路町１丁目４番９号,,27,128,5410047,,,2021-09-08,清算の結了等,,,2015-10-05,1,,,,,ライズエステート,0
959,4120001189718,登記記録の閉鎖等,0,2021-09-24,2021-09-15,エーアンドイー株式会社,,株式会社,大阪府,大阪市西区,江之子島１丁目７番３号,,27,106,5500006,,,2021-09-15,清算の結了等,,,2015-10-05,1,,,,,,0
981,4122001030118,登記記録の閉鎖等,0,2021-09-24,2021-09-16,株式会社ナチュラルアート,,株式会社,大阪府,東大阪市,金岡３丁目２８番２１号,,27,227,5770823,,,2021-09-16,清算の結了等,,,2016-11-16,1,,,,,ナチュラルアート,0
992,4140001058227,登記記録の閉鎖等,0,2021-09-24,2021-09-21,角谷建設株式会社,,株式会社,兵庫県,姫路市,飾東町八重畑９８７番地の４,,28,201,6710208,,,2021-09-21,清算の結了等,,,2015-10-05,1,,,,,カクタニケンセツ,0
1006,4180001029372,登記記録の閉鎖等,0,2021-09-24,2021-09-17,飯田セロフアン株式会社,,株式会社,愛知県,名古屋市中村区,並木２丁目２４２番地,,23,105,4530856,,,2021-09-17,清算の結了等,,,2015-10-05,1,,,,,イイダセロフアン,0
1020,4180301028306,登記記録の閉鎖等,0,2021-09-24,2021-09-21,株式会社フリーワーク,,株式会社,愛知県,豊田市,中田町高砂３５番地,,23,211,4730927,,,2021-09-21,清算の結了等,,,2015-10-05,1,,,,,フリーワーク,0
1029,4200005002694,登記記録の閉鎖等,0,2021-09-24,2021-09-22,岐阜アパレルファッション工房協同組合,,その他の設立登記法人,岐阜県,瑞穂市,田之上２４１番地２,,21,216,5010304,,,2021-09-22,清算の結了等,,,2015-10-05,1,,,,,ギフアパレルファッションコウボウ,0
1039,4230002009566,登記記録の閉鎖等,0,2021-09-24,2021-09-17,有限会社明和印刷,,有限会社,富山県,南砺市,二日町２１９６番地,,16,210,9391507,,,2021-09-17,清算の結了等,,,2015-10-05,1,,,,,,0
1049,4260002008128,登記記録の閉鎖等,0,2021-09-24,2021-09-21,有限会社光,,有限会社,岡山県,岡山市北区,今３丁目２５番３４号パークアベニューＡ２０２号,,33,101,7000975,,,2021-09-21,清算の結了等,,,2015-10-05,1,,,,,ヒカリ,0
1075,4350001012996,登記記録の閉鎖等,0,2021-09-24,2021-09-14,株式会社シーパッション,,株式会社,東京都,三鷹市,井の頭４丁目１９番４号,,13,204,1810001,,,2021-09-14,清算の結了等,,,2015-10-05,1,,,,,シーパッション,0
1088,4390001005393,登記記録の閉鎖等,0,2021-09-24,2021-09-14,株式会社コスモティック,,株式会社,山形県,天童市,糠塚１丁目１１番２６号,,06,210,9940014,,,2021-09-14,清算の結了等,,,2015-10-05,1,,,,,コスモティック,0
1106,5010001062678,登記記録の閉鎖等,0,2021-09-24,2021-09-14,株式会社日本橋保険センター,,株式会社,東京都,中央区,日本橋茅場町２丁目４番６号,,13,102,1030025,,,2021-09-14,清算の結了等,,,2015-10-05,1,,,,,ニホンバシホケンセンター,0
1144,5010902003508,登記記録の閉鎖等,0,2021-09-24,2021-09-17,有限会社鬼木安全技術研究所,,有限会社,東京都,世田谷区,上祖師谷２丁目１７番１２号,,13,112,1570065,,,2021-09-17,清算の結了等,,,2015-10-05,1,,,,,オニキアンゼンギジュツケンキュウショ,0
1199,5030002025418,登記記録の閉鎖等,0,2021-09-24,2021-09-10,有限会社八百留本店,,有限会社,埼玉県,戸田市,新曽南１丁目１１番２１号,,11,224,3350026,,,2021-09-10,清算の結了等,,,2015-10-05,1,,,,,ヤオトメホンテン,0
1207,5040002009460,登記記録の閉鎖等,0,2021-09-24,2021-09-15,有限会社林マグネツト工業所,,有限会社,千葉県,千葉市中央区,院内２丁目１３番１０号,,12,101,2600018,,,2021-09-15,清算の結了等,,,2015-10-05,1,,,,,ハヤシマグネツトコウギョウショ,0
1229,5100002001972,登記記録の閉鎖等,0,2021-09-24,2021-09-21,有限会社サカタ電設,,有限会社,長野県,長野市,大字風間１８６２番地５,,20,201,3810023,,,2021-09-21,清算の結了等,,,2015-10-05,1,,,,,サカタデンセツ,0
1235,5120001155272,登記記録の閉鎖等,0,2021-09-24,2021-09-14,井上産業株式会社,,株式会社,大阪府,大阪市旭区,新森４丁目１１番２２号,,27,117,5350022,,,2021-09-14,清算の結了等,,,2015-10-05,1,,,,,イノウエサンギョウ,0
1256,5122003000555,登記記録の閉鎖等,0,2021-09-24,2021-09-21,オーピーテクニカル合同会社,,合同会社,大阪府,八尾市,末広町４丁目１番３２－４０２号,,27,212,5810001,,,2021-09-21,清算の結了等,,,2015-10-05,1,,,,,オーピーテクニカル,0
1267,5140002038383,登記記録の閉鎖等,0,2021-09-24,2021-09-21,有限会社セイテック,,有限会社,兵庫県,加古川市,志方町志方町１５５６番地の１,,28,210,6750321,,,2021-09-21,清算の結了等,,,2015-10-05,1,,,,,セイテック,0
1290,5180302002548,登記記録の閉鎖等,0,2021-09-24,2021-09-14,有限会社パルクレジット,,有限会社,愛知県,岡崎市,材木町２丁目６０番地エムワイビル２階,,23,202,4440057,,,2021-09-14,清算の結了等,,,2015-10-05,1,,,,,パルクレジット,0
1297,5200002009353,登記記録の閉鎖等,0,2021-09-24,2021-09-21,有限会社御料理美寿穂,,有限会社,岐阜県,瑞穂市,穂積８８８番地の２,,21,216,5010223,,,2021-09-21,清算の結了等,,,2015-10-05,1,,,,,オリョウリミズホ,0
1328,5290802025087,登記記録の閉鎖等,0,2021-09-24,2021-09-10,内山電設有限会社,,有限会社,福岡県,田川郡添田町,大字庄１４４８番地の１,,40,602,8240601,,,2021-09-10,清算の結了等,,,2015-10-05,1,,,,,ウチヤマデンセツ,0
1337,5340002024413,登記記録の閉鎖等,0,2021-09-24,2021-09-16,有限会社山元仏具店,,有限会社,鹿児島県,南九州市,川辺町平山２５７２番地,,46,223,8970215,,,2021-09-16,清算の結了等,,,2015-10-05,1,,,,,ヤマモトブツグテン,0
1341,5360002016763,登記記録の閉鎖等,0,2021-09-24,2021-09-15,有限会社ひかり産業,,有限会社,沖縄県,浦添市,伊祖３丁目３４番２号,,47,208,9012132,,,2021-09-15,清算の結了等,,,2015-10-05,1,,,,,ヒカリサンギョウ,0
1356,5390005002980,登記記録の閉鎖等,0,2021-09-24,2021-09-16,協同組合庄内プロパンセンター,,その他の設立登記法人,山形県,酒田市,宮海字明治４４６番地,,06,204,9980005,,,2021-09-16,清算の結了等,,,2015-10-05,1,,,,,ショウナイプロパンセンター,0
1366,5430005012868,登記記録の閉鎖等,0,2021-09-24,2021-09-08,特定非営利活動法人いしかり海辺ファンクラブ,,その他の設立登記法人,北海道,石狩市,花川北二条６丁目２４０番地,,01,235,0613212,,,2021-09-08,清算の結了等,,,2016-08-15,1,,,,,イシカリウミベファンクラブ,0
1370,5480001001036,登記記録の閉鎖等,0,2021-09-24,2021-09-15,株式会社立木写真館,,株式会社,徳島県,徳島市,仲之町１丁目３８番地,,36,201,7700932,,,2021-09-15,清算の結了等,,,2015-10-05,1,,,,,タツキシャシンカン,0
1380,6010001203157,登記記録の閉鎖等,0,2021-09-24,2021-09-21,サミット．アカウンティング株式会社,,株式会社,東京都,中央区,新富１丁目１７番６号,,13,102,1040041,,,2021-09-21,清算の結了等,,,2019-08-09,1,,,,,サミットアカウンティング,0
1386,6010005019104,登記記録の閉鎖等,0,2021-09-24,2021-09-16,一般社団法人震災復興ワークス,,その他の設立登記法人,東京都,千代田区,神田神保町１丁目１４番１号ＫＤＸ神保町ビル２階,,13,101,1010051,,,2021-09-16,清算の結了等,,,2015-10-05,1,,,,,シンサイフッコウワークス,0
1390,6010401127006,登記記録の閉鎖等,0,2021-09-24,2021-09-06,株式会社九九不動産,,株式会社,東京都,目黒区,上目黒１丁目６番７号,,13,110,1530051,,,2021-09-06,清算の結了等,,,2016-09-15,1,,,,,ツヅラフドウサン,0
1396,6010502016462,登記記録の閉鎖等,0,2021-09-24,2021-09-15,有限会社ケイ・エム商事,,有限会社,東京都,台東区,東上野２丁目１０番１号,,13,106,1100015,,,2021-09-15,清算の結了等,,,2015-10-05,1,,,,,ケイエムショウジ,0
1411,6011001019972,登記記録の閉鎖等,0,2021-09-24,2021-09-06,株式会社ＦＦＣ,,株式会社,東京都,渋谷区,神宮前３丁目７番１０－４０１号,,13,113,1500001,,,2021-09-06,清算の結了等,,,2015-10-05,1,,,,,エフエフシー,0
1427,6011402006462,登記記録の閉鎖等,0,2021-09-24,2021-09-17,有限会社トム企画,,有限会社,東京都,板橋区,常盤台２丁目８番２号,,13,119,1740071,,,2021-09-17,清算の結了等,,,2015-10-05,1,,,,,トムキカク,0
1431,6011502005678,登記記録の閉鎖等,0,2021-09-24,2021-09-17,有限会社丸竹不動産,,有限会社,東京都,北区,東田端１丁目７番１５号,,13,117,1140013,,,2021-09-17,清算の結了等,,,2015-10-05,1,,,,,マルタケフドウサン,0
1437,6011801028669,登記記録の閉鎖等,0,2021-09-24,2021-09-21,クリーン建総株式会社,,株式会社,東京都,葛飾区,高砂７丁目４番９号プリマヴェーラ３０１,,13,122,1250054,,,2021-09-21,清算の結了等,,,2015-10-05,1,,,,,,0
1460,6021002032610,登記記録の閉鎖等,0,2021-09-24,2021-09-17,有限会社ナウテクニカ,,有限会社,神奈川県,厚木市,中依知８５番地の１,,14,212,2430805,,,2021-09-17,清算の結了等,,,2015-10-05,1,,,,,ナウテクニカ,0
1481,6050003000895,登記記録の閉鎖等,0,2021-09-24,2021-09-16,Ｌｙｚｅｎｚｅｌ合同会社,,合同会社,茨城県,土浦市,永国台３番地の８０,,08,203,3000810,,,2021-09-16,清算の結了等,,,2015-10-05,1,,,,,ライゼンゼル,0
1487,6080005007184,登記記録の閉鎖等,0,2021-09-24,2021-09-21,一般社団法人日本建築雨水施工士協会,,その他の設立登記法人,静岡県,静岡市清水区,平川地６番１９号,,22,103,4240872,,,2021-09-21,清算の結了等,,,2019-05-17,1,,,,,ニホンケンチクウスイセコウシキョウカイ,0
1491,6080405007288,登記記録の閉鎖等,0,2021-09-24,2021-09-17,建設サポート事業協同組合,,その他の設立登記法人,静岡県,浜松市南区,立野町３３１番地の１,,22,134,4300827,,,2021-09-17,清算の結了等,,,2020-09-10,1,,,,,ケンセツサポート,0
1497,6110002027289,登記記録の閉鎖等,0,2021-09-24,2021-09-17,有限会社金子商事,,有限会社,新潟県,長岡市,南七日町７０番地１２,,15,202,9402116,,,2021-09-17,清算の結了等,,,2015-10-05,1,,,,,カネコショウジ,0
1504,6120001123344,登記記録の閉鎖等,0,2021-09-24,2021-09-15,株式会社クリュール,,株式会社,大阪府,大阪市北区,芝田１丁目１２番７号,,27,127,5300012,,,2021-09-15,清算の結了等,,,2015-10-05,1,,,,,,0
1517,6120003007025,登記記録の閉鎖等,0,2021-09-24,2021-08-03,合同会社Ｗｏｒｌｄ　Ｓｔａｒ　Ｅｎｔｅｒｐｒｉｓｅ,,合同会社,大阪府,大阪市西区,立売堀４丁目７番２４号五葉阿波座ビル８０２号,,27,106,5500012,,,2021-08-03,清算の結了等,,,2015-10-05,1,,,,,ワールドスターエンタープライズ,0
1526,6130001031430,登記記録の閉鎖等,0,2021-09-24,2021-09-15,株式会社麸嘉錦店,,株式会社,京都府,京都市中京区,堺町通錦小路上る菊屋町５３４番地の１,,26,104,6048127,,,2021-09-15,合併による解散等,1130001031253,令和３年９月１５日京都市上京区西洞院通椹木町上る東裏辻町４１３番地株式会社麸嘉（1130001031253）に合併し解散,2015-10-05,1,,,,,フウカニシキテン,0
1527,6130001053482,登記記録の閉鎖等,0,2021-09-24,2021-09-17,ライトアップジャパン株式会社,,株式会社,京都府,京都市下京区,猪熊通五条下る柿本町６０６番地１奥むらビル１Ｆ,,26,106,6008357,,,2021-09-17,清算の結了等,,,2015-10-05,1,,,,,ライトアップジャパン,0
1530,6130002002744,登記記録の閉鎖等,0,2021-09-24,2021-09-21,有限会社西山染工場,,有限会社,京都府,京都市上京区,寺之内通千本東入２丁目新猪熊東町３４５番地,,26,102,6028494,,,2021-09-21,清算の結了等,,,2015-10-05,1,,,,,ニシヤマセンコウジョウ,0
1534,6140001029135,登記記録の閉鎖等,0,2021-09-24,2021-09-21,株式会社笹原商店,,株式会社,兵庫県,神戸市長田区,蓮宮通１丁目１９番地,,28,106,6530831,,,2021-09-21,清算の結了等,,,2015-10-05,1,,,,,ササハラショウテン,0
1535,6140001043565,登記記録の閉鎖等,0,2021-09-24,2021-09-16,堀江スレート株式会社,,株式会社,兵庫県,加古川市,加古川町粟津２５番地の７,,28,210,6750039,,,2021-09-16,清算の結了等,,,2015-10-05,1,,,,,ホリエスレート,0
1551,6180001120204,登記記録の閉鎖等,0,2021-09-24,2021-09-21,株式会社アルファー,,株式会社,愛知県,名古屋市瑞穂区,彌富町字清水ケ岡４６番地,,23,108,4670038,,,2021-09-21,清算の結了等,,,2015-10-05,1,,,,,アルファー,0
1552,6180001137033,登記記録の閉鎖等,0,2021-09-24,2021-09-15,株式会社テック,,株式会社,愛知県,名古屋市天白区,原３丁目３０４番地の１Ｔ＆Ｌビル,,23,116,4680015,,,2021-09-15,清算の結了等,,,2019-06-19,1,,,,,テック,0
1566,6180302026554,登記記録の閉鎖等,0,2021-09-24,2021-09-21,有限会社リースキン・マキノ,,有限会社,愛知県,西尾市,戸ケ崎２丁目７番地６,,23,213,4450075,,,2021-09-21,清算の結了等,,,2015-10-05,1,,,,,リースキンマキノ,0
1576,6220002010993,登記記録の閉鎖等,0,2021-09-24,2021-09-17,有限会社中野木材,,有限会社,石川県,小松市,長谷町ハ２３７番地,,17,203,9230181,,,2021-09-17,清算の結了等,,,2015-10-05,1,,,,,ナカノモクザイ,0
1577,6220002013633,登記記録の閉鎖等,0,2021-09-24,2021-09-16,有限会社粟津建具,,有限会社,石川県,七尾市,富岡町１０９番地の８,,17,202,9260866,,,2021-09-16,清算の結了等,,,2015-10-05,1,,,,,アワヅタテグ,0
1593,6290003003412,登記記録の閉鎖等,0,2021-09-24,2021-09-03,末廣合同会社,,合同会社,福岡県,久留米市,荒木町荒木１４６７番地３,,40,203,8300063,,,2021-09-03,清算の結了等,,,2015-10-05,1,,,,,スエヒロ,0
1613,6340005006523,登記記録の閉鎖等,0,2021-09-24,2021-09-14,医療法人柳井谷耳鼻咽喉科医院,,その他の設立登記法人,鹿児島県,鹿屋市,寿３丁目６番４２号,,46,203,8930014,,,2021-09-14,清算の結了等,,,2015-10-05,1,,,,,ヤナイダニジビインコウカイイン,0
1620,6370301001365,登記記録の閉鎖等,0,2021-09-24,2021-09-13,ヤマニシテクノサービス株式会社,,株式会社,宮城県,石巻市,西浜町１番地２,,04,202,9860843,,,2021-09-13,清算の結了等,,,2015-10-05,1,,,,,ヤマニシテクノサービス,0
1622,6380005010975,登記記録の閉鎖等,0,2021-09-24,2021-09-14,本宮市復興支援事業協同組合,,その他の設立登記法人,福島県,本宮市,高木字久保１５番地２,,07,214,9691101,,,2021-09-14,清算の結了等,,,2015-10-05,1,,,,,モトミヤシフッコウシエン,0
1650,6500002010783,登記記録の閉鎖等,0,2021-09-24,2021-09-22,有限会社木下自動車,,有限会社,愛媛県,伊予郡砥部町,宮内８８８番地,,38,402,7912120,,,2021-09-22,清算の結了等,,,2015-10-05,1,,,,,キノシタジドウシャ,0
1659,7010001102688,登記記録の閉鎖等,0,2021-09-24,2021-09-17,株式会社ブレインクルー,,株式会社,東京都,文京区,本郷３丁目２６番１号,,13,105,1130033,,,2021-09-17,清算の結了等,,,2015-10-05,1,,,,,ブレインクルー,0
1661,7010001195699,登記記録の閉鎖等,0,2021-09-24,2021-09-17,ＣＨＯＣＯＬＡＴＥＲＩＥ　ＤＥ　Ｌ’ＯＰＥＲＡ　ＪＡＰＯＮ株式会社,,株式会社,神奈川県,横浜市西区,戸部町７丁目２４０番地,,14,103,2200042,,,2021-09-17,清算の結了等,,,2018-10-18,1,,,,,ショコラトリードオペラジャポン,0
1703,7011003009640,登記記録の閉鎖等,0,2021-09-24,2021-09-06,ＣＰＤロジスティクス２合同会社,,合同会社,東京都,渋谷区,元代々木町２番４号,,13,113,1510062,,,2021-09-06,清算の結了等,,,2019-02-05,1,,,,,シーピーディーロジスティクスツー,0
1720,7012802004699,登記記録の閉鎖等,0,2021-09-24,2021-09-09,有限会社高良吹付工業,,有限会社,東京都,武蔵村山市,中原２丁目２２番地の１２,,13,223,2080035,,,2021-09-09,清算の結了等,,,2015-10-05,1,,,,,,0
1738,7020002090907,登記記録の閉鎖等,0,2021-09-24,2021-09-09,有限会社萬屋,,有限会社,神奈川県,川崎市高津区,久末３８３番地,,14,134,2130026,,,2021-09-09,清算の結了等,,,2015-10-05,1,,,,,ヨロズヤ,0
1740,7020003016423,登記記録の閉鎖等,0,2021-09-24,2021-09-17,成澤商事合同会社,,合同会社,神奈川県,横浜市中区,花咲町１丁目４８－３・ロゼ桜木町４０６,,14,104,2310063,,,2021-09-17,清算の結了等,,,2019-07-23,1,,,,,ナルサワショウジ,0
1760,7030002087407,登記記録の閉鎖等,0,2021-09-24,2021-09-10,有限会社西川上工務店,,有限会社,埼玉県,越谷市,大字大杉１２９番地１,,11,222,3430005,,,2021-09-10,清算の結了等,,,2015-10-05,1,,,,,ニシカワカミコウムテン,0
1767,7040002048399,登記記録の閉鎖等,0,2021-09-24,2021-09-14,有限会社古市,,有限会社,千葉県,松戸市,小金原６丁目９番地９～４０５,,12,207,2700021,,,2021-09-14,清算の結了等,,,2015-10-05,1,,,,,コイチ,0
1811,7120101026685,登記記録の閉鎖等,0,2021-09-24,2021-09-15,株式会社藤田屋,,株式会社,大阪府,大阪狭山市,東野中４丁目６５１番地の１,,27,231,5890002,,,2021-09-15,清算の結了等,,,2015-10-05,1,,,,,フジタヤ,0
1830,7170002007020,登記記録の閉鎖等,0,2021-09-24,2021-09-22,有限会社オー・エム・イー,,有限会社,和歌山県,有田郡湯浅町,大字青木７７４番地の７,,30,361,6430002,,,2021-09-22,清算の結了等,,,2015-10-05,1,,,,,オーエムイー,0
1841,7180002011194,登記記録の閉鎖等,0,2021-09-24,2021-09-13,有限会社川瀬食品,,有限会社,愛知県,名古屋市北区,長喜町４丁目９番地,,23,103,4620036,,,2021-09-13,清算の結了等,,,2015-10-05,1,,,,,カワセショクヒン,0
1851,7180303004450,登記記録の閉鎖等,0,2021-09-24,2021-09-21,合同会社ゆとり住研,,合同会社,愛知県,豊田市,永太郎町筑紫田８３５番地,,23,211,4700562,,,2021-09-21,清算の結了等,,,2019-10-17,1,,,,,ユトリジュウケン,0
1856,7200002010747,登記記録の閉鎖等,0,2021-09-24,2021-09-21,有限会社三和設計,,有限会社,岐阜県,海津市,南濃町戸田８９０番地,,21,221,5030406,,,2021-09-21,清算の結了等,,,2015-10-05,1,,,,,サンワセッケイ,0
1862,7230001016346,登記記録の閉鎖等,0,2021-09-24,2021-09-21,株式会社川長,,株式会社,富山県,富山市,婦中町田島９３０番地２５,,16,201,9392702,,,2021-09-21,清算の結了等,,,2016-03-11,1,,,,,カワチョウ,0
1863,7230005000494,登記記録の閉鎖等,0,2021-09-24,2021-09-17,農事組合法人トヤマ農産社,,その他の設立登記法人,富山県,富山市,太郎丸本町１丁目７番地の６,,16,201,9398272,,,2021-09-17,清算の結了等,,,2015-10-05,1,,,,,トヤマノウサンシャ,0
1864,7240001004779,登記記録の閉鎖等,0,2021-09-24,2021-09-22,株式会社新広島設計,,株式会社,広島県,広島市中区,国泰寺町１丁目８番３０号,,34,101,7300042,,,2021-09-22,清算の結了等,,,2015-10-05,1,,,,,シンヒロシマセッケイ,0
1867,7240002001172,登記記録の閉鎖等,0,2021-09-24,2021-09-17,有限会社石川商店,,有限会社,広島県,広島市南区,京橋町１０番２９号,,34,103,7320828,,,2021-09-17,清算の結了等,,,2015-10-05,1,,,,,イシカワショウテン,0
1889,7290001092571,登記記録の閉鎖等,0,2021-09-24,2021-09-06,株式会社幸ｓｕｒｐｒｉｓｅ,,株式会社,福岡県,福岡市博多区,博多駅東２丁目１３番２５号,,40,132,8120013,,,2021-09-06,清算の結了等,,,2021-04-02,1,,,,,コウサプライズ,0
1891,7290002051238,登記記録の閉鎖等,0,2021-09-24,2021-09-06,有限会社エステートプランニングアシスト,,有限会社,福岡県,久留米市,東合川４丁目１番２０号,,40,203,8390809,,,2021-09-06,清算の結了等,,,2015-10-05,1,,,,,エステートプランニングアシスト,0
1892,7290005008020,登記記録の閉鎖等,0,2021-09-24,2021-09-21,医療法人中武内科クリニック,,その他の設立登記法人,福岡県,飯塚市,吉原町１番２０号,,40,205,8200040,,,2021-09-21,清算の結了等,,,2015-10-05,1,,,,,ナカタケナイカクリニック,0
1917,7430001001583,登記記録の閉鎖等,0,2021-09-24,2021-09-15,株式会社一福製麵所,00088176,株式会社,北海道,札幌市中央区,南六条西２３丁目５番８号,,01,101,0640806,,,2021-09-15,清算の結了等,,,2015-10-05,1,,,,,イチフクセイメンショ,0
1920,7430002052188,登記記録の閉鎖等,0,2021-09-24,2021-09-15,有限会社三栄商事,,有限会社,北海道,雨竜郡雨竜町,字尾白利加９１番地の２８,,01,436,0782600,,,2021-09-15,合併による解散等,2430002051970,令和３年９月１５日北海道雨竜郡雨竜町字尾白利加９１番地の２８株式会社梶野商事（2430002051970）に合併し解散,2015-10-05,1,,,,,サンエイショウジ,0
1977,8011802004246,登記記録の閉鎖等,0,2021-09-24,2021-09-21,有限会社すやま薬局,,有限会社,東京都,葛飾区,堀切７丁目５番４号,,13,122,1240006,,,2021-09-21,清算の結了等,,,2015-10-05,1,,,,,スヤマヤッキョク,0
1982,8012702007207,登記記録の閉鎖等,0,2021-09-24,2021-09-21,有限会社広田薬局,,有限会社,東京都,東久留米市,本町３丁目２番５号ザ・ウィンベル東久留米Ａ－１０７号,,13,222,2030053,,,2021-09-21,清算の結了等,,,2015-10-05,1,,,,,ヒロタヤッキョク,0
1983,8013201011369,登記記録の閉鎖等,0,2021-09-24,2021-09-01,株式会社シー・アイ・エム総合研究所,,株式会社,東京都,目黒区,下目黒１丁目６番２０号,,13,110,1530064,,,2021-09-01,合併による解散等,5010401157796,令和３年９月１日東京都目黒区下目黒一丁目６番２０号明治安田生命ビル６階株式会社ドルフィン・バリュー・アップ１号（5010401157796）に合併し解散,2015-10-05,1,,,,,シーアイエムソウゴウケンキュウショ,0
2015,8030003003741,登記記録の閉鎖等,0,2021-09-24,2021-09-10,合同会社オフィス・古谷,,合同会社,埼玉県,北葛飾郡松伏町,大字大川戸２２００番地,,11,465,3430106,,,2021-09-10,清算の結了等,,,2015-10-05,1,,,,,オフィスフルヤ,0
2019,8040001070584,登記記録の閉鎖等,0,2021-09-24,2021-09-14,株式会社ＴＫエレクトロニクス,,株式会社,千葉県,柏市,柏１２９２番地の７,,12,217,2770005,,,2021-09-14,清算の結了等,,,2015-10-05,1,,,,,ティーケーエレクトロニクス,0
2025,8040002102774,登記記録の閉鎖等,0,2021-09-24,2021-09-13,有限会社ジェーアンドシーメディアビジネス,,有限会社,千葉県,いすみ市,松丸２９２０番地１,,12,238,2980104,,,2021-09-13,清算の結了等,,,2015-10-05,1,,,,,ジェーアンドシーメディアビジネス,0
2030,8050002041831,登記記録の閉鎖等,0,2021-09-24,2021-09-16,有限会社イーエルシステム,,有限会社,茨城県,筑西市,樋口１３００番地の１６１,00023234,08,227,3080001,,,2021-09-16,清算の結了等,,,2015-10-05,1,,,,,イーエルシステム,0
2031,8050002042722,登記記録の閉鎖等,0,2021-09-24,2021-09-16,有限会社ＳＣＹＲパッケージ,,有限会社,茨城県,桜川市,真壁町源法寺９８４番地,,08,231,3004424,,,2021-09-16,清算の結了等,,,2015-10-05,1,,,,,,0
2038,8070003002624,登記記録の閉鎖等,0,2021-09-24,2021-09-17,合同会社ロックアプリケーション,,合同会社,群馬県,桐生市,本町６丁目３９８番地２ＨＯＮ６ＢＩＬＬ１Ｆ,,10,203,3760031,,,2021-09-17,清算の結了等,,,2016-04-15,1,,,,,ロックアプリケーション,0
2040,8080002014231,登記記録の閉鎖等,0,2021-09-24,2021-09-21,有限会社身成建設,,有限会社,静岡県,島田市,川根町身成３３９４番地,,22,209,4280103,,,2021-09-21,清算の結了等,,,2015-10-05,1,,,,,ミナリケンセツ,0
2048,8090001001089,登記記録の閉鎖等,0,2021-09-24,2021-09-14,株式会社昭和宝飾,,株式会社,山梨県,甲府市,大手２丁目４番２０号,,19,201,4000015,,,2021-09-14,清算の結了等,,,2015-10-05,1,,,,,ショウワホウショク,0
2050,8090005004154,登記記録の閉鎖等,0,2021-09-24,2021-09-14,河口湖商業協同組合,,その他の設立登記法人,山梨県,南都留郡富士河口湖町,船津２０８８番地の２,,19,430,4010301,,,2021-09-14,清算の結了等,,,2015-10-05,1,,,,,カワグチコショウギョウ,0
2055,8110005001537,登記記録の閉鎖等,0,2021-09-24,2021-09-17,特定非営利活動法人ライフ・アクセス二十一,,その他の設立登記法人,新潟県,新潟市中央区,天神１丁目１２－７－１８０６,,15,103,9500917,,,2021-09-17,清算の結了等,,,2015-10-05,1,,,,,ライフアクセスニジュウイチ,0
2056,8120001062301,登記記録の閉鎖等,0,2021-09-24,2021-09-13,株式会社兼松クロージング,,株式会社,大阪府,大阪市北区,鶴野町４番Ａ－１０７号,,27,127,5300014,,,2021-09-13,清算の結了等,,,2015-10-05,1,,,,,カネマツクロージング,0
2068,8120001233892,登記記録の閉鎖等,0,2021-09-24,2021-08-23,果実株式会社,,株式会社,大阪府,大阪市生野区,新今里３丁目４番１７号,,27,116,5440001,,,2021-08-23,清算の結了等,,,2020-12-18,1,,,,,カジツ,0
2073,8120002041361,登記記録の閉鎖等,0,2021-09-24,2021-09-10,有限会社イチテラ機工,,有限会社,大阪府,大阪市城東区,放出西１丁目６番２８号,,27,118,5360011,,,2021-09-10,清算の結了等,,,2015-10-05,1,,,,,イチテラキコウ,0
2098,8150001016238,登記記録の閉鎖等,0,2021-09-24,2021-09-16,株式会社吉野経理センター,,株式会社,奈良県,吉野郡大淀町,大字桧垣本４２８番地の２,,29,442,6380812,,,2021-09-16,清算の結了等,,,2015-10-05,1,,,,,ヨシノケイリセンター,0
2117,8180302001588,登記記録の閉鎖等,0,2021-09-24,2021-09-22,有限会社鈴木ガラス,,有限会社,愛知県,岡崎市,羽根町字池脇２６番地１,,23,202,4440813,,,2021-09-22,清算の結了等,,,2015-10-05,1,,,,,スズキガラス,0
2126,8210001008096,登記記録の閉鎖等,0,2021-09-24,2021-09-17,株式会社フクミツ,,株式会社,福井県,福井市,宿布町第１０号４番地１,,18,201,9102143,,,2021-09-17,清算の結了等,,,2015-10-05,1,,,,,フクミツ,0
2129,8230001007922,登記記録の閉鎖等,0,2021-09-24,2021-09-17,株式会社リベラル拓建,,株式会社,富山県,滑川市,北野１７０番地,,16,206,9360806,,,2021-09-17,清算の結了等,,,2015-10-05,1,,,,,リベラルタクケン,0
2130,8230005007035,登記記録の閉鎖等,0,2021-09-24,2021-09-17,マイスター事業協同組合,,その他の設立登記法人,富山県,氷見市,飯久保１２５番地,,16,205,9350112,,,2021-09-17,清算の結了等,,,2015-10-05,1,,,,,マイスタージギョウ,0
2138,8240002007763,登記記録の閉鎖等,0,2021-09-24,2021-09-22,有限会社駅前チケット,,有限会社,広島県,広島市東区,中山新町１丁目１１番６号,,34,102,7320021,,,2021-09-22,清算の結了等,,,2015-10-05,1,,,,,エキマエチケット,0
2148,8290001028327,登記記録の閉鎖等,0,2021-09-24,2021-09-06,はなや株式会社,,株式会社,福岡県,福岡市博多区,銀天町３丁目５番１５号,,40,132,8120879,,,2021-09-06,清算の結了等,,,2015-10-05,1,,,,,ハナヤ,0
2186,8370402001691,登記記録の閉鎖等,0,2021-09-24,2021-09-13,有限会社公明管工業,,有限会社,宮城県,登米市,迫町北方字来田１７１番地の６,,04,212,9870513,,,2021-09-13,清算の結了等,,,2015-10-05,1,,,,,コウメイカンコウギョウ,0
2190,8380005007433,登記記録の閉鎖等,0,2021-09-24,2021-09-16,いいたて村までい企業組合,,その他の設立登記法人,福島県,相馬郡飯舘村,草野字大師堂６５番地,,07,564,9601801,,,2021-09-16,清算の結了等,,,2015-10-05,1,,,,,イイタテムラマデイ,0
2204,8460101001117,登記記録の閉鎖等,0,2021-09-24,2021-09-22,十勝川ゴールデン観光株式会社,,株式会社,北海道,河東郡音更町,十勝川温泉南１６丁目２番地,,01,631,0800263,,,2021-09-22,清算の結了等,,,2015-10-05,1,,,,,,0
2222,9010001126074,登記記録の閉鎖等,0,2021-09-24,2021-09-15,株式会社ＴＳＳ,,株式会社,東京都,中央区,銀座７丁目６番１１号,,13,102,1040061,,,2021-09-15,清算の結了等,,,2015-10-05,1,,,,,ティーエスエス,0
2224,9010001198915,登記記録の閉鎖等,0,2021-09-24,2021-09-01,株式会社Ｂｏｎ　Ｃｈａｐｅｒａｉ,,株式会社,東京都,中央区,銀座６丁目９番８号,,13,102,1040061,,,2021-09-01,合併による解散等,4010001129858,令和３年９月１日東京都中央区銀座六丁目９番８号株式会社西洋菓子鹿鳴館（4010001129858）に合併し解散,2019-03-06,1,,,,,ボンシャペリー,0
2245,9011002007750,登記記録の閉鎖等,0,2021-09-24,2021-09-03,有限会社高山俊郎事務所,,有限会社,東京都,渋谷区,宇田川町２番１号,,13,113,1500042,,,2021-09-03,清算の結了等,,,2015-10-05,1,,,,,タカヤマトシロウジムショ,0
2263,9011702009947,登記記録の閉鎖等,0,2021-09-24,2021-09-15,有限会社深井防災,,有限会社,東京都,江戸川区,松本１丁目５番４号,,13,123,1330043,,,2021-09-15,清算の結了等,,,2015-10-05,1,,,,,フカイボウザイ,0
2288,9021002055550,登記記録の閉鎖等,0,2021-09-24,2021-09-15,有限会社あしがら保険サービス,,有限会社,神奈川県,足柄上郡開成町,延沢８２番地の１,,14,366,2580026,,,2021-09-15,清算の結了等,,,2015-10-05,1,,,,,アシガラホケンサービス,0
2305,9050002044552,登記記録の閉鎖等,0,2021-09-24,2021-09-16,有限会社草間商店,00023314,有限会社,茨城県,結城市,大字鹿窪２６８番地の１,,08,207,3070015,,,2021-09-16,清算の結了等,,,2015-10-05,1,,,,,クサマショウテン,0
2313,9080002013604,登記記録の閉鎖等,0,2021-09-24,2021-09-21,有限会社サン精機,,有限会社,静岡県,島田市,船木２２２８番地の８,,22,209,4270107,,,2021-09-21,清算の結了等,,,2015-10-05,1,,,,,サンセイキ,0
2318,9080102016886,登記記録の閉鎖等,0,2021-09-24,2021-09-17,有限会社白糸ガーデン,,有限会社,静岡県,富士宮市,上井出２６９番地の１,,22,207,4180103,,,2021-09-17,清算の結了等,,,2015-10-05,1,,,,,シライトガーデン,0
2337,9120001031627,登記記録の閉鎖等,0,2021-09-24,2021-09-14,穂高シヤフト工業株式会社,,株式会社,大阪府,大阪市住之江区,東加賀屋１丁目９番５号,,27,125,5590012,,,2021-09-14,清算の結了等,,,2015-10-05,1,,,,,ホダカシヤフトコウギョウ,0
2353,9122001002649,登記記録の閉鎖等,0,2021-09-24,2021-09-22,株式会社小阪機械,,株式会社,大阪府,東大阪市,御厨中１丁目２番１４号,,27,227,5770035,,,2021-09-22,清算の結了等,,,2015-10-05,1,,,,,コサカキカイ,0
2359,9130002009019,登記記録の閉鎖等,0,2021-09-24,2021-09-21,有限会社ノトス,,有限会社,京都府,京都市西京区,桂木ノ下町１番地１６４,,26,111,6158072,,,2021-09-21,清算の結了等,,,2015-10-05,1,,,,,ノトス,0
2370,9160001012573,登記記録の閉鎖等,0,2021-09-24,2021-09-21,山善株式会社,,株式会社,滋賀県,大津市,月輪２丁目４番２２号,,25,201,5202152,,,2021-09-21,清算の結了等,,,2015-10-05,1,,,,,ヤマゼン,0
2382,9180302015488,登記記録の閉鎖等,0,2021-09-24,2021-09-21,有限会社シバタニ塗装,,有限会社,愛知県,蒲郡市,大塚町産子山５４番地の６,,23,214,4430013,,,2021-09-21,清算の結了等,,,2015-10-05,1,,,,,シバタニトソウ,0
2387,9210002002502,登記記録の閉鎖等,0,2021-09-24,2021-09-17,有限会社トップ企画,,有限会社,福井県,福井市,木田３丁目１２１６番地,,18,201,9188105,,,2021-09-17,清算の結了等,,,2015-10-05,1,,,,,トップキカク,0
2413,9290002056094,登記記録の閉鎖等,0,2021-09-24,2021-09-03,三鉱機材有限会社,,有限会社,福岡県,大牟田市,不知火町２丁目９番地２４エバーライフ大牟田３０７号,,40,202,8360843,,,2021-09-03,清算の結了等,,,2015-10-05,1,,,,,サンコウキザイ,0
2418,9310003003340,登記記録の閉鎖等,0,2021-09-24,2021-09-22,合同会社ＫＲＭ,,合同会社,長崎県,長崎市,界１丁目１６番２９号,,42,201,8510122,,,2021-09-22,清算の結了等,,,2017-07-28,1,,,,,ケイアールエム,0
2433,9370802001951,登記記録の閉鎖等,0,2021-09-24,2021-09-14,有限会社すわん,,有限会社,宮城県,名取市,手倉田字諏訪３５７－２,,04,207,9811231,,,2021-09-14,清算の結了等,,,2015-10-05,1,,,,,スワン,0
2446,9450003001446,登記記録の閉鎖等,0,2021-09-24,2021-09-22,合同会社滴,,合同会社,北海道,旭川市,神居六条３丁目２番１７号,,01,204,0708016,,,2021-09-22,清算の結了等,,,2015-10-05,1,,,,,シズク,0
2449,9462502000654,登記記録の閉鎖等,0,2021-09-24,2021-09-17,有限会社別海アグリサービス,,有限会社,北海道,野付郡別海町,奥行１２番地の３５,,01,691,0860213,,,2021-09-17,清算の結了等,,,2015-10-05,1,,,,,ベッカイアグリサービス,0
