sequenceNumber,corporateNumber,process,correct,updateDate,changeDate,name,nameImageId,kind,prefectureName,cityName,streetNumber,addressImageId,prefectureCode,cityCode,postCode,addressOutside,addressOutsideImageId,closeDate,closeCause,successorCorporateNumber,changeCause,assignmentDate,latest,enName,enPrefectureName,enCityName,enAddressOutside,furigana,hihyoji
2,1010001173710,登記記録の閉鎖等,0,2025-06-18,2025-05-28,株式会社グローバルインテリセンス,,株式会社,東京都,新宿区,新宿７丁目２６番１８－２０９号,,13,104,1600022,,,2025-05-28,清算の結了等,,,2016-02-24,1,,,,,グローバルインテリセンス,0
3,1010001204820,登記記録の閉鎖等,0,2025-06-18,2025-05-19,国分フレッシュリンク株式会社,,株式会社,東京都,中央区,日本橋１丁目２番６号,,13,102,1030027,,,2025-05-19,合併による解散等,6010001166107,令和７年５月１日東京都中央区日本橋一丁目２番６号国分フレッシュ・フードトランス株式会社（6010001166107）に合併し解散,2019-10-24,1,,,,,コクブフレッシュリンク,0
11,1010401064212,登記記録の閉鎖等,0,2025-06-18,2025-05-30,株式会社ＡＩコーポレーション,,株式会社,東京都,中央区,八丁堀１丁目５番２号はごろもビル２階,,13,102,1040032,,,2025-05-30,清算の結了等,,,2015-10-05,1,,,,,エーアイコーポレーション,0
22,1010701021895,登記記録の閉鎖等,0,2025-06-18,2025-06-06,株式会社ＣＣＧ　ＷＯＲＫＩＮＧ　ＨＥＡＤＳ,,株式会社,東京都,千代田区,九段南２丁目３番１４号,,13,101,1020074,,,2025-06-06,合併による解散等,6010001088128,令和７年６月１日東京都千代田区九段南二丁目３番１４号株式会社ＨＥＬＩＯＳ（6010001088128）に合併し解散,2015-10-05,1,,,,,シーシージーワーキングヘッズ,0
29,1010901038574,登記記録の閉鎖等,0,2025-06-18,2025-06-16,プラネットアース株式会社,,株式会社,東京都,世田谷区,上馬４丁目２番９号,,13,112,1540011,,,2025-06-16,清算の結了等,,,2016-08-01,1,,,,,プラネットアース,0
43,1011101003014,登記記録の閉鎖等,0,2025-06-18,2025-05-19,株式会社エス・ケイ・ワイ,,株式会社,東京都,新宿区,内藤町１番地１２１号,,13,104,1600014,,,2025-05-19,清算の結了等,,,2015-10-05,1,,,,,,0
50,1011301018159,登記記録の閉鎖等,0,2025-06-18,2025-06-09,株式会社ＳＳ　ｃｒｅａｔｅ,,株式会社,東京都,杉並区,阿佐谷北３丁目４１番５号,,13,115,1660001,,,2025-06-09,清算の結了等,,,2015-10-05,1,,,,,エスエスクリエイト,0
51,1011301022631,登記記録の閉鎖等,0,2025-06-18,2025-06-09,オールマイティ株式会社,,株式会社,東京都,杉並区,阿佐谷北３丁目４１番５号,,13,115,1660001,,,2025-06-09,清算の結了等,,,2016-10-27,1,,,,,,0
56,1011502006961,登記記録の閉鎖等,0,2025-06-18,2025-06-12,有限会社井口,,有限会社,東京都,荒川区,東尾久１丁目３０番２号,,13,118,1160012,,,2025-06-12,清算の結了等,,,2015-10-05,1,,,,,イグチ,0
61,1011801022239,登記記録の閉鎖等,0,2025-06-18,2025-06-12,株式会社アクセント,,株式会社,東京都,葛飾区,細田５丁目１１番１２号,,13,122,1240021,,,2025-06-12,清算の結了等,,,2015-10-05,1,,,,,アクセント,0
68,1013301034417,登記記録の閉鎖等,0,2025-06-18,2025-06-16,株式会社アドバンス,,株式会社,東京都,豊島区,池袋３丁目５９番１号１０１号室,,13,116,1710014,,,2025-06-16,清算の結了等,,,2015-10-05,1,,,,,アドバンス,0
96,1030002093030,登記記録の閉鎖等,0,2025-06-18,2025-06-11,有限会社ヤハタ運送,,有限会社,埼玉県,坂戸市,大字青木４９１番地２,,11,239,3500207,,,2025-06-11,清算の結了等,,,2015-10-05,1,,,,,ヤハタウンソウ,0
99,1040001033886,登記記録の閉鎖等,0,2025-06-18,2025-06-02,株式会社涼風工房,,株式会社,千葉県,市川市,柏井町２丁目５１番地４,,12,203,2720802,,,2025-06-02,清算の結了等,,,2015-10-05,1,,,,,スズカゼコウボウ,0
115,1080101019765,登記記録の閉鎖等,0,2025-06-18,2025-06-12,株式会社清家工業,,株式会社,静岡県,富士市,松岡１４３２番地の９０,,22,210,4160909,,,2025-06-12,清算の結了等,,,2017-05-01,1,,,,,セイケコウギョウ,0
119,1090001011094,登記記録の閉鎖等,0,2025-06-18,2025-06-09,株式会社サスヨ,,株式会社,山梨県,韮崎市,本町２丁目１０番８号,,19,207,4070024,,,2025-06-09,清算の結了等,,,2015-10-05,1,,,,,サスヨ,0
149,1120102007368,登記記録の閉鎖等,0,2025-06-18,2025-06-12,株式会社南大阪システム発送,,株式会社,大阪府,堺市堺区,海山町２丁１２２番地,,27,141,5900982,,,2025-06-12,清算の結了等,,,2015-10-05,1,,,,,ミナミオオサカシステムハッソウ,0
160,1130001002626,登記記録の閉鎖等,0,2025-06-18,2025-06-13,株式会社エルムンド・トラベル,,株式会社,京都府,京都市左京区,聖護院山王町４３番地２パレステート日生熊野Ｂ１０号,,26,103,6068392,,,2025-06-13,清算の結了等,,,2015-10-05,1,,,,,エルムンドトラベル,0
169,1140005011077,登記記録の閉鎖等,0,2025-06-18,2025-05-30,天理教尼崎港分教会,,その他の設立登記法人,兵庫県,尼崎市,金楽寺町２丁目２３番１５号,,28,202,6600806,,,2025-05-30,合併による解散等,8250005001688,令和７年５月２１日山口県防府市桑山一丁目２番３１号天理教防府大教会（8250005001688）に合併し解散,2015-10-05,1,,,,,,0
185,1200002009852,登記記録の閉鎖等,0,2025-06-18,2025-06-11,有限会社ヤトウ設備,,有限会社,岐阜県,瑞穂市,牛牧４５８番地１,,21,216,5010234,,,2025-06-11,清算の結了等,,,2015-10-05,1,,,,,ヤトウセツビ,0
186,1230001001849,登記記録の閉鎖等,0,2025-06-18,2025-06-16,株式会社東洋カメラ,,株式会社,富山県,富山市,稲荷元町１丁目８番１号,,16,201,9300010,,,2025-06-16,清算の結了等,,,2015-10-05,1,,,,,トウヨウカメラ,0
190,1240001035813,登記記録の閉鎖等,0,2025-06-18,2025-06-13,喜多屋商事株式会社,,株式会社,広島県,福山市,瀬戸町大字長和甲４６７番地１,,34,207,7200836,,,2025-06-13,清算の結了等,,,2015-10-05,1,,,,,キタヤショウジ,0
194,1290001058776,登記記録の閉鎖等,0,2025-06-18,2025-06-13,西日本自立支援協会株式会社,,株式会社,福岡県,福岡市博多区,博多駅東２丁目４番１７号第６岡部ビル６Ｆ,,40,132,8120013,,,2025-06-13,合併による解散等,9010401165845,令和７年６月１日東京都中央区東日本橋三丁目３番７号株式会社ミチルワグループ（9010401165845）に合併し解散,2015-10-05,1,,,,,ニシニホンジリツシエンキョウカイ,0
199,1290801027187,登記記録の閉鎖等,0,2025-06-18,2025-06-10,株式会社ＪＹコンサルティング,,株式会社,福岡県,鞍手郡鞍手町,大字小牧２２９３－３,,40,402,8071311,,,2025-06-10,清算の結了等,,,2021-02-18,1,,,,,ジェイワイコンサルティング,0
201,1310003004172,登記記録の閉鎖等,0,2025-06-18,2025-06-13,合同会社Ｙ，ｓ,,合同会社,長崎県,長崎市,千歳町２番３号,,42,201,8528135,,,2025-06-13,清算の結了等,,,2021-10-01,1,,,,,ワイズ,0
207,1330002031042,登記記録の閉鎖等,0,2025-06-18,2025-06-10,中田道路有限会社,,有限会社,熊本県,球磨郡湯前町,２４１４番地１,,43,506,8680600,,,2025-06-10,清算の結了等,,,2015-10-05,1,,,,,ナカタドウロ,0
210,1340002003585,登記記録の閉鎖等,0,2025-06-18,2025-06-10,有限会社グラフイス,,有限会社,鹿児島県,鹿児島市,呉服町５番７号長谷川ビル３階,,46,201,8920826,,,2025-06-10,清算の結了等,,,2015-10-05,1,,,,,グラフイス,0
219,1370001019126,登記記録の閉鎖等,0,2025-06-18,2025-06-09,株式会社ＨＳ,,株式会社,宮城県,仙台市宮城野区,安養寺２丁目２０番１８号,,04,102,9830832,,,2025-06-09,清算の結了等,,,2015-10-05,1,,,,,エイチエス,0
220,1370002015207,登記記録の閉鎖等,0,2025-06-18,2025-06-09,有限会社加藤興業,,有限会社,宮城県,仙台市太白区,青山１丁目２５番２１号,,04,104,9820834,,,2025-06-09,清算の結了等,,,2015-10-05,1,,,,,カトウコウギョウ,0
226,1410001000460,登記記録の閉鎖等,0,2025-06-18,2025-06-12,株式会社秋田中央漬物,,株式会社,秋田県,秋田市,大町１丁目３番２２号,,05,201,0100921,,,2025-06-12,清算の結了等,,,2015-10-05,1,,,,,アキタチュウオウツケモノ,0
228,1420001002373,登記記録の閉鎖等,0,2025-06-18,2025-06-02,株式会社サカエ企画,,株式会社,青森県,青森市,新町１丁目９番８号,,02,201,0300801,,,2025-06-02,合併による解散等,3420001002108,令和７年６月１日青森市大字牛館字松枝５２番地１株式会社ヤマイシ（3420001002108）に合併し解散,2015-10-05,1,,,,,サカエキカク,0
235,1460002003854,登記記録の閉鎖等,0,2025-06-18,2025-06-16,株式会社アパ・マンセンター,,株式会社,北海道,釧路市,愛国西１丁目３１番１６号,,01,206,0850057,,,2025-06-16,清算の結了等,,,2015-10-05,1,,,,,アパマンセンター,0
242,1500001003751,登記記録の閉鎖等,0,2025-06-18,2025-06-09,株式会社松山新建材センター,,株式会社,愛媛県,松山市,山西町２８番地３,,38,201,7918026,,,2025-06-09,清算の結了等,,,2015-10-05,1,,,,,マツヤマシンケンザイセンター,0
246,2010001170954,登記記録の閉鎖等,0,2025-06-18,2025-06-02,株式会社Ｍｃｏｓ,,株式会社,千葉県,流山市,向小金１丁目３０２番地１,,12,220,2700143,,,2025-06-02,合併による解散等,9010002045942,令和７年６月１日千葉県流山市向小金一丁目３０２番地１株式会社スターファイア（9010002045942）に合併し解散,2015-10-14,1,,,,,エムコス,0
259,2010401025444,登記記録の閉鎖等,0,2025-06-18,2025-05-26,株式会社ビルフレンド,,株式会社,東京都,港区,新橋２丁目１５番８号和泉ビル４階,,13,103,1050004,,,2025-05-26,清算の結了等,,,2015-10-05,1,,,,,ビルフレンド,0
267,2010601013983,登記記録の閉鎖等,0,2025-06-18,2025-06-13,日本レクタス株式会社,,株式会社,東京都,墨田区,亀沢１丁目２４番５号,,13,107,1300014,,,2025-06-13,清算の結了等,,,2015-10-05,1,,,,,ニホンレクタス,0
305,2012301010955,登記記録の閉鎖等,0,2025-06-18,2025-06-11,東京デベロップ株式会社,,株式会社,東京都,町田市,中町３丁目４番１３号,,13,209,1940021,,,2025-06-11,合併による解散等,6012301001835,令和７年４月１日東京都町田市能ヶ谷一丁目１５番２８号株式会社中建（6012301001835）に合併し解散,2017-05-09,1,,,,,トウキョウデベロップ,0
308,2012405003987,登記記録の閉鎖等,0,2025-06-18,2025-06-12,一般社団法人日本ＶＲ・ＡＲ技術推進機構,,その他の設立登記法人,東京都,三鷹市,中原３丁目１０番２７号三鷹ＨＬＤＧＳビル,,13,204,1810005,,,2025-06-12,清算の結了等,,,2017-02-08,1,,,,,ニホンブイアールエイアールギジュツスイシンキコウ,0
316,2020001069403,登記記録の閉鎖等,0,2025-06-18,2025-06-09,昭和動力工事株式会社,,株式会社,神奈川県,川崎市中原区,市ノ坪３６０番地,,14,133,2110016,,,2025-06-09,清算の結了等,,,2025-05-23,1,,,,,,0
330,2021003011501,登記記録の閉鎖等,0,2025-06-18,2025-06-09,合同会社生研,,合同会社,神奈川県,横浜市鶴見区,生麦４丁目３４番２２号,,14,101,2300052,,,2025-06-09,清算の結了等,,,2022-03-22,1,,,,,ナマケン,0
332,2030001013715,登記記録の閉鎖等,0,2025-06-18,2025-06-12,株式会社ケービーデー,,株式会社,埼玉県,さいたま市南区,文蔵５丁目２６番１号,,11,108,3360025,,,2025-06-12,清算の結了等,,,2015-10-05,1,,,,,ケービーデー,0
337,2030002067801,登記記録の閉鎖等,0,2025-06-18,2025-06-11,有限会社インプス,,有限会社,埼玉県,春日部市,粕壁東１丁目４番１２号,,11,214,3440062,,,2025-06-11,清算の結了等,,,2015-10-05,1,,,,,インプス,0
350,2040002051275,登記記録の閉鎖等,0,2025-06-18,2025-06-02,有限会社オバタ,,有限会社,千葉県,流山市,松ケ丘６丁目４０８番地の３,,12,220,2700141,,,2025-06-02,清算の結了等,,,2015-10-05,1,,,,,オバタ,0
356,2050001031021,登記記録の閉鎖等,0,2025-06-18,2025-06-12,株式会社外構屋社中,,株式会社,茨城県,牛久市,中央５丁目４番地４セントラルクリエイト１号,,08,219,3001234,,,2025-06-12,清算の結了等,,,2015-10-05,1,,,,,ガイコウヤシャチュウ,0
359,2050002030220,登記記録の閉鎖等,0,2025-06-18,2025-06-11,有限会社ウサミハウジング,,有限会社,茨城県,日立市,久慈町４丁目３番７号,,08,202,3191222,,,2025-06-11,清算の結了等,,,2015-10-05,1,,,,,ウサミハウジング,0
378,2120001105536,登記記録の閉鎖等,0,2025-06-18,2025-06-10,株式会社ゼブラシステム,,株式会社,大阪府,大阪市城東区,今福西１丁目１５番３０－９１０号,,27,118,5360004,,,2025-06-10,清算の結了等,,,2015-10-05,1,,,,,ゼブラシステム,0
380,2120001180975,登記記録の閉鎖等,0,2025-06-18,2025-06-12,株式会社ＲＡＩＤ,,株式会社,大阪府,大阪市東淀川区,豊新３丁目２１番４号,,27,114,5330014,,,2025-06-12,清算の結了等,,,2015-10-05,1,,,,,レイド,0
382,2120001209642,登記記録の閉鎖等,0,2025-06-18,2025-06-12,永徳国際株式会社,,株式会社,大阪府,大阪市淀川区,新高１丁目１２番１－５１４号,,27,123,5320033,,,2025-06-12,清算の結了等,,,2017-11-21,1,,,,,エイトクコクサイ,0
410,2170001012315,登記記録の閉鎖等,0,2025-06-18,2025-06-16,株式会社ＦＬＡＰ,,株式会社,和歌山県,御坊市,湯川町財部５１６番地１８,,30,205,6440011,,,2025-06-16,清算の結了等,,,2015-10-05,1,,,,,フラップ,0
411,2170002004889,登記記録の閉鎖等,0,2025-06-18,2025-06-16,株式会社リトルシーズ,,株式会社,和歌山県,和歌山市,吹屋町５丁目３２番地の３,,30,201,6408324,,,2025-06-16,清算の結了等,,,2015-10-05,1,,,,,リトルシーズ,0
416,2180002063637,登記記録の閉鎖等,0,2025-06-18,2025-06-11,有限会社ＧＭパートナーズ,,有限会社,愛知県,長久手市,坊の後９１０番地,,23,238,4801168,,,2025-06-11,清算の結了等,,,2015-10-05,1,,,,,ジーエムパートナーズ,0
428,2230001015666,登記記録の閉鎖等,0,2025-06-18,2025-06-13,エコワールドプラン株式会社,,株式会社,富山県,富山市,八木山８０番地６,,16,201,9392253,,,2025-06-13,清算の結了等,,,2015-10-05,1,,,,,エコワールドプラン,0
439,2280002006866,登記記録の閉鎖等,0,2025-06-18,2025-06-16,有限会社川口オート佐田,,有限会社,島根県,出雲市,佐田町反邊１４３９番地２,,32,203,6930506,,,2025-06-16,清算の結了等,,,2015-10-05,1,,,,,カワグチオートサダ,0
448,2290802012939,登記記録の閉鎖等,0,2025-06-18,2025-06-16,有限会社藤本フーズ,,有限会社,福岡県,北九州市八幡東区,春の町２丁目６番６号,,40,108,8050050,,,2025-06-16,清算の結了等,,,2015-10-05,1,,,,,フジモトフーズ,0
454,2310005004500,登記記録の閉鎖等,0,2025-06-18,2025-06-16,医療法人癒谷会,,その他の設立登記法人,長崎県,諫早市,貝津町２３３０番地１,,42,204,8540063,,,2025-06-16,清算の結了等,,,2015-10-05,1,,,,,ユコクカイ,0
462,2370001049122,登記記録の閉鎖等,0,2025-06-18,2025-06-10,株式会社ミラーチ,,株式会社,宮城県,仙台市泉区,泉中央１丁目２５番地の８ノアールブラン泉中央２０１号,,04,105,9813133,,,2025-06-10,清算の結了等,,,2022-10-11,1,,,,,ミラーチ,0
472,2420001009062,登記記録の閉鎖等,0,2025-06-18,2025-06-06,株式会社サイキ,,株式会社,青森県,弘前市,大字城東中央３丁目６番地６号,,02,202,0368093,,,2025-06-06,清算の結了等,,,2015-10-05,1,,,,,サイキ,0
476,2430001037021,登記記録の閉鎖等,0,2025-06-18,2025-06-16,株式会社アクティヘアクリニック,,株式会社,東京都,中野区,中野３丁目３４－３０ニューフナバシヤビル５Ｆ,,13,114,1640001,,,2025-06-16,清算の結了等,,,2015-10-05,1,,,,,アクティヘアクリニック,0
503,3010501049895,登記記録の閉鎖等,0,2025-06-18,2025-06-12,株式会社ＭＩＮＥ　ＥＮＴＥＲＴＡＩＮＭＥＮＴ,,株式会社,東京都,中野区,弥生町１丁目５３－１１,,13,114,1640013,,,2025-06-12,清算の結了等,,,2023-01-20,1,,,,,マインエンターテインメント,0
505,3010601000345,登記記録の閉鎖等,0,2025-06-18,2025-06-04,株式会社兼山興業,,株式会社,東京都,江東区,三好４丁目６番２号,,13,108,1350022,,,2025-06-04,清算の結了等,,,2019-10-23,1,,,,,カネヤマコウギョウ,0
519,3011002027044,登記記録の閉鎖等,0,2025-06-18,2025-05-23,有限会社ウッズインターナショナルネットワーク,,有限会社,東京都,渋谷区,神宮前３丁目３４番６号,,13,113,1500001,,,2025-05-23,清算の結了等,,,2015-10-05,1,,,,,ウッズインターナショナルネットワーク,0
523,3011101017367,登記記録の閉鎖等,0,2025-06-18,2025-06-05,株式会社半澤,,株式会社,東京都,新宿区,高田馬場２丁目１４番５号,,13,104,1690075,,,2025-06-05,清算の結了等,,,2024-08-16,1,,,,,ハンザワ,0
542,3012801002253,登記記録の閉鎖等,0,2025-06-18,2025-06-13,多摩外壁株式会社,,株式会社,東京都,昭島市,福島町１丁目１３番１０号,,13,207,1960031,,,2025-06-13,清算の結了等,,,2015-10-05,1,,,,,タマガイヘキ,0
543,3012801022326,登記記録の閉鎖等,0,2025-06-18,2025-05-22,株式会社フィットネスロジ,,株式会社,東京都,東大和市,立野１丁目２５番地の１７,,13,220,2070021,,,2025-05-22,合併による解散等,6012801018585,令和７年５月１日東京都東大和市仲原三丁目２番地の８株式会社エースロジジャパン（6012801018585）に合併し解散,2023-05-08,1,,,,,フィットネスロジ,0
549,3013301033441,登記記録の閉鎖等,0,2025-06-18,2025-06-02,株式会社ＳＧ企画,,株式会社,東京都,豊島区,南池袋２丁目９番９号,,13,116,1710022,,,2025-06-02,合併による解散等,3013301006505,令和７年６月１日東京都豊島区南池袋二丁目９番９号株式会社創元設計（3013301006505）に合併し解散,2015-10-05,1,,,,,エスジーキカク,0
550,3020001043035,登記記録の閉鎖等,0,2025-06-18,2025-06-09,株式会社ソーハツ,,株式会社,神奈川県,横浜市磯子区,東町１５番３１－２０３号,,14,107,2350005,,,2025-06-09,清算の結了等,,,2015-10-05,1,,,,,ソーハツ,0
552,3020001117508,登記記録の閉鎖等,0,2025-06-18,2025-06-09,えびす株式会社,,株式会社,東京都,杉並区,阿佐谷北３丁目４１番５号,,13,115,1660001,,,2025-06-09,清算の結了等,,,2016-08-17,1,,,,,エビス,0
558,3020003025816,登記記録の閉鎖等,0,2025-06-18,2025-06-11,合同会社ｔｉｅｒｕｐ,,合同会社,愛知県,名古屋市千種区,丘上町１丁目１７番地の１,,23,101,4640837,,,2025-06-11,清算の結了等,,,2024-03-27,1,,,,,ティアアップ,0
560,3020005007713,登記記録の閉鎖等,0,2025-06-18,2025-06-02,医療法人社団清惠会,,その他の設立登記法人,神奈川県,川崎市幸区,戸手１丁目９番１３号,,14,132,2120005,,,2025-06-02,合併による解散等,5020005007678,令和７年６月２日川崎市幸区都町３９番地１社会医療法人財団石心会（5020005007678）に合併し解散,2015-10-05,1,,,,,セイケイカイ,0
585,3040002048452,登記記録の閉鎖等,0,2025-06-18,2025-06-03,有限会社プラネット,,有限会社,千葉県,松戸市,中矢切５３４番地の３,,12,207,2710095,,,2025-06-03,清算の結了等,,,2015-10-05,1,,,,,プラネット,0
592,3060001007614,登記記録の閉鎖等,0,2025-06-18,2025-06-11,パーソナルツアー株式会社,,株式会社,栃木県,宇都宮市,東峰町３０２３番地２０,,09,201,3210944,,,2025-06-11,清算の結了等,,,2015-10-05,1,,,,,パーソナルツアー,0
596,3060005002553,登記記録の閉鎖等,0,2025-06-18,2025-06-12,医療法人社団萌仁会,,その他の設立登記法人,栃木県,日光市,大桑町５２番地,,09,206,3212411,,,2025-06-12,清算の結了等,,,2015-10-05,1,,,,,ホウジンカイ,0
604,3080002003973,登記記録の閉鎖等,0,2025-06-18,2025-06-11,有限会社トーカイデータプロセス,,有限会社,静岡県,静岡市駿河区,寿町６番１８号,,22,102,4228055,,,2025-06-11,清算の結了等,,,2015-10-05,1,,,,,トーカイデータプロセス,0
619,3120001262822,登記記録の閉鎖等,0,2025-06-18,2025-06-11,浩恩株式会社,,株式会社,大阪府,大阪市西区,立売堀１丁目６番１３号南本町天祥ビル２号館２０９室,,27,106,5500012,,,2025-06-11,清算の結了等,,,2024-03-13,1,,,,,コウオン,0
631,3120901030675,登記記録の閉鎖等,0,2025-06-18,2025-06-10,オフィス橋本株式会社,,株式会社,大阪府,高槻市,南松原町８番２５号,,27,207,5690085,,,2025-06-10,清算の結了等,,,2015-10-05,1,,,,,オフィスハシモト,0
639,3130001036102,登記記録の閉鎖等,0,2025-06-18,2025-06-13,株式会社ケイズファクトリー,,株式会社,京都府,亀岡市,篠町見晴５丁目１番１７号,,26,206,6210824,,,2025-06-13,清算の結了等,,,2015-10-05,1,,,,,ケイズファクトリー,0
659,3190001001430,登記記録の閉鎖等,0,2025-06-18,2025-06-02,株式会社ぜにや,,株式会社,三重県,津市,安濃町曽根７４１番地,,24,201,5142306,,,2025-06-02,合併による解散等,1190001006794,令和７年６月１日三重県度会郡玉城町勝田４８７２番地株式会社玉城（1190001006794）に合併し解散,2015-10-05,1,,,,,ゼニヤ,0
661,3210001010536,登記記録の閉鎖等,0,2025-06-18,2025-06-12,楠電気工事株式会社,,株式会社,福井県,敦賀市,三島町１丁目６番１６号,,18,202,9140058,,,2025-06-12,清算の結了等,,,2015-10-05,1,,,,,クスノキデンキコウジ,0
665,3230002008370,登記記録の閉鎖等,0,2025-06-18,2025-06-13,有限会社橋本工業,,有限会社,富山県,下新川郡入善町,墓ノ木４４２番地,,16,342,9390632,,,2025-06-13,清算の結了等,,,2015-10-05,1,,,,,ハシモトコウギョウ,0
673,3260001005515,登記記録の閉鎖等,0,2025-06-18,2025-05-29,東瀬戸圏開発株式会社,,株式会社,岡山県,岡山市,下４５５番地の１,,33,100,,,,2025-05-29,清算の結了等,,,2025-01-22,1,,,,,,1
678,3290001080266,登記記録の閉鎖等,0,2025-06-18,2025-06-06,株式会社樂都,,株式会社,福岡県,糟屋郡宇美町,宇美４丁目２番１０号６０５,,40,341,8112101,,,2025-06-06,清算の結了等,,,2018-01-16,1,,,,,ラクト,0
683,3290002027729,登記記録の閉鎖等,0,2025-06-18,2025-06-09,有限会社リテールサポート井ノ口,,有限会社,福岡県,福津市,津屋崎７丁目３０番５号,,40,224,8113304,,,2025-06-09,清算の結了等,,,2015-10-05,1,,,,,リテールサポートイノクチ,0
687,3300001007457,登記記録の閉鎖等,0,2025-06-18,2025-06-16,株式会社リード,,株式会社,佐賀県,唐津市,呼子町殿ノ浦５１６番地５,,41,202,8470304,,,2025-06-16,清算の結了等,,,2015-10-05,1,,,,,リード,0
692,3330001000707,登記記録の閉鎖等,0,2025-06-18,2025-06-11,株式会社おかよし,,株式会社,熊本県,熊本市中央区,花畑町１３番２１号,,43,101,8600806,,,2025-06-11,清算の結了等,,,2015-10-05,1,,,,,オカヨシ,0
715,3460301004964,登記記録の閉鎖等,0,2025-06-18,2025-06-16,株式会社Ｍ’ｓ企画,,株式会社,北海道,紋別郡遠軽町,大通南２丁目５番地１９,,01,555,0990416,,,2025-06-16,清算の結了等,,,2021-04-21,1,,,,,エムズキカク,0
730,4010001196188,登記記録の閉鎖等,0,2025-06-18,2025-06-05,ＳａｗａＴＣ株式会社,,株式会社,兵庫県,尼崎市,扇町２０番地ロジポート尼崎,,28,202,6600096,,,2025-06-05,清算の結了等,,,2018-11-08,1,,,,,サワティーシー,0
757,4010801033771,登記記録の閉鎖等,0,2025-06-18,2025-05-28,ミナト不動産株式会社,,株式会社,東京都,新宿区,新宿７丁目２６番１８－２０９号,,13,104,1600022,,,2025-05-28,清算の結了等,,,2023-03-14,1,,,,,ミナトフドウサン,0
759,4010901055435,登記記録の閉鎖等,0,2025-06-18,2025-06-09,株式会社ａｒｎｋｕ,,株式会社,東京都,豊島区,南池袋１丁目１８番２３－３０２号,,13,116,1710022,,,2025-06-09,清算の結了等,,,2024-06-10,1,,,,,アーンク,0
762,4011001033587,登記記録の閉鎖等,0,2025-06-18,2025-06-03,株式会社インペリアル・コミュニティ,,株式会社,東京都,豊島区,東池袋１丁目３３番８号,,13,116,1700013,,,2025-06-03,合併による解散等,3013301021883,令和７年６月１日東京都豊島区東池袋一丁目３３番８号田園都市ライフサポート株式会社（3013301021883）に合併し解散,2015-10-05,1,,,,,インペリアルコミュニティ,0
775,4011401000162,登記記録の閉鎖等,0,2025-06-18,2025-06-10,安岐商事株式会社,,株式会社,東京都,板橋区,熊野町３８番９号,,13,119,1730025,,,2025-06-10,清算の結了等,,,2015-10-05,1,,,,,アキショウジ,0
776,4011701012601,登記記録の閉鎖等,0,2025-06-18,2025-06-09,株式会社Ｋコーポレーション,,株式会社,東京都,江戸川区,江戸川１丁目２９番２４号,,13,123,1320013,,,2025-06-09,清算の結了等,,,2015-10-05,1,,,,,,0
783,4012401001522,登記記録の閉鎖等,0,2025-06-18,2025-06-09,株式会社プラスティックアーツフォーアーバンコミュニケーション・パウル,,株式会社,東京都,大田区,西糀谷２丁目２０番１１,,13,111,1440034,,,2025-06-09,清算の結了等,,,2015-10-05,1,,,,,プラスティックアーツフォーアーバンコミュニケーションパウル,0
785,4012401002116,登記記録の閉鎖等,0,2025-06-18,2025-06-12,株式会社けやきプラン,,株式会社,東京都,国分寺市,南町１丁目１１番１０号,,13,214,1850021,,,2025-06-12,清算の結了等,,,2015-10-05,1,,,,,ケヤキプラン,0
789,4012801023249,登記記録の閉鎖等,0,2025-06-18,2025-06-10,佐藤商事株式会社,,株式会社,東京都,立川市,一番町２丁目２９番地の２,,13,202,1900033,,,2025-06-10,清算の結了等,,,2024-06-10,1,,,,,サトウショウジ,0
822,4030002057957,登記記録の閉鎖等,0,2025-06-18,2025-06-11,有限会社ドゥーマインド,,有限会社,埼玉県,上尾市,日の出２丁目５番１０－２２号,,11,219,3620032,,,2025-06-11,清算の結了等,,,2015-10-05,1,,,,,ドゥーマインド,0
838,4040002071718,登記記録の閉鎖等,0,2025-06-18,2025-06-02,有限会社オリーブ,,有限会社,千葉県,市原市,五井東３丁目６番地１３,,12,219,2900055,,,2025-06-02,清算の結了等,,,2015-10-05,1,,,,,オリーブ,0
847,4060001027264,登記記録の閉鎖等,0,2025-06-18,2025-06-12,株式会社みのわトラベル,,株式会社,栃木県,宇都宮市,下栗町９７９番地,,09,201,3210923,,,2025-06-12,清算の結了等,,,2015-10-05,1,,,,,ミノワトラベル,0
848,4060001032859,登記記録の閉鎖等,0,2025-06-18,2025-06-11,株式会社クラート,,株式会社,栃木県,足利市,八幡町３丁目２番地１８,,09,202,3260824,,,2025-06-11,清算の結了等,,,2020-08-17,1,,,,,クラート,0
851,4070001033253,登記記録の閉鎖等,0,2025-06-18,2025-06-11,エキスパート株式会社,,株式会社,群馬県,前橋市,元総社町２丁目６番地３伸栄ビル,,10,201,3710846,,,2025-06-11,合併による解散等,2070001035004,令和７年６月１日群馬県渋川市渋川１７６３番地１西山ビル保険クラスター株式会社（2070001035004）に合併し解散,2017-03-10,1,,,,,エキスパート,0
853,4070002017511,登記記録の閉鎖等,0,2025-06-18,2025-06-10,有限会社シンセー,,有限会社,群馬県,藤岡市,小林３９３番地３,,10,209,3750021,,,2025-06-10,清算の結了等,,,2015-10-05,1,,,,,シンセー,0
860,4100001017351,登記記録の閉鎖等,0,2025-06-18,2025-06-13,白馬物産株式会社,,株式会社,長野県,北安曇郡白馬村,大字北城６３８０番地４,,20,485,3999301,,,2025-06-13,清算の結了等,,,2015-10-05,1,,,,,ハクバブッサン,0
861,4100002029420,登記記録の閉鎖等,0,2025-06-18,2025-06-13,有限会社ｐｒｏｐｈｙ　ｓｔｙｌｅ,,有限会社,長野県,諏訪郡下諏訪町,４９１７番地１４,,20,361,3930000,,,2025-06-13,清算の結了等,,,2015-10-05,1,,,,,プロフィースタイル,0
865,4110002004406,登記記録の閉鎖等,0,2025-06-18,2025-06-05,有限会社東横,,有限会社,新潟県,新潟市中央区,紫竹山１丁目８番２０号,,15,103,9500914,,,2025-06-05,清算の結了等,,,2015-10-05,1,,,,,トウヨコ,0
866,4110003004371,登記記録の閉鎖等,0,2025-06-18,2025-06-04,合同会社トラストファ,,合同会社,新潟県,新潟市東区,中山７丁目８番１５号,,15,102,9500861,,,2025-06-04,清算の結了等,,,2021-01-13,1,,,,,トラストファ,0
869,4120001002772,登記記録の閉鎖等,0,2025-06-18,2025-06-11,株式会社リーフ・コーポレーション,,株式会社,大阪府,大阪市鶴見区,放出東１丁目２８番３２号,,27,124,5380044,,,2025-06-11,清算の結了等,,,2015-10-05,1,,,,,リーフコーポレーション,0
877,4120001252723,登記記録の閉鎖等,0,2025-06-18,2025-06-12,嘉世株式会社,,株式会社,大阪府,大阪市浪速区,湊町１丁目２番１７－３５０３号,,27,111,5560017,,,2025-06-12,清算の結了等,,,2023-02-27,1,,,,,カセイ,0
899,4122001012314,登記記録の閉鎖等,0,2025-06-18,2025-06-12,株式会社シーイープランニング,,株式会社,大阪府,東大阪市,加納２丁目１１番２号,,27,227,5780901,,,2025-06-12,清算の結了等,,,2015-10-05,1,,,,,シーイープランニング,0
902,4122002002990,登記記録の閉鎖等,0,2025-06-18,2025-06-12,有限会社谷室商店,,有限会社,大阪府,東大阪市,足代北１丁目１番４号,,27,227,5770058,,,2025-06-12,清算の結了等,,,2015-10-05,1,,,,,タニムロショウテン,0
910,4140001040473,登記記録の閉鎖等,0,2025-06-18,2025-06-12,福祉・にじの家株式会社,,株式会社,兵庫県,相生市,那波大浜町３番８号,,28,208,6780051,,,2025-06-12,清算の結了等,,,2015-10-05,1,,,,,フクシニジノイエ,0
912,4140001117701,登記記録の閉鎖等,0,2025-06-18,2025-06-10,八大工業株式会社,,株式会社,兵庫県,三田市,藍本４０９３番地の７,,28,219,6691358,,,2025-06-10,清算の結了等,,,2020-06-12,1,,,,,ハチダイコウギョウ,0
919,4150005008565,登記記録の閉鎖等,0,2025-06-18,2025-06-16,特定非営利活動法人煌生会,,その他の設立登記法人,大阪府,大阪市中央区,南船場２丁目３番６号第一住建長堀橋駅前ビル８０５号,,27,128,5420081,,,2025-06-16,清算の結了等,,,2015-10-05,1,,,,,コウセイカイ,0
924,4180001135757,登記記録の閉鎖等,0,2025-06-18,2025-06-16,株式会社住まいるテクノ,,株式会社,愛知県,岡崎市,井ノ口町字河原西２８番地,,23,202,4442133,,,2025-06-16,清算の結了等,,,2019-03-15,1,,,,,スマイルテクノ,0
940,4240001042583,登記記録の閉鎖等,0,2025-06-18,2025-06-13,スイッチ株式会社,,株式会社,広島県,広島市西区,己斐大迫３丁目３８番２７号,,34,104,7330816,,,2025-06-13,清算の結了等,,,2015-10-05,1,,,,,スイッチ,0
963,4290805003801,登記記録の閉鎖等,0,2025-06-18,2025-06-16,ＮＰＯ法人子育て・シンク・タンク,,その他の設立登記法人,福岡県,北九州市小倉北区,片野新町３丁目１番８号,,40,106,8020062,,,2025-06-16,清算の結了等,,,2015-10-05,1,,,,,コソダテシンクタンク,0
964,4310001008858,登記記録の閉鎖等,0,2025-06-18,2025-06-16,株式会社ナガノカメラ,,株式会社,長崎県,大村市,本町４２８番地２,,42,205,8560832,,,2025-06-16,清算の結了等,,,2015-10-05,1,,,,,ナガノカメラ,0
972,4330003009687,登記記録の閉鎖等,0,2025-06-18,2025-06-10,合同会社Ｆｉｎｅ,,合同会社,熊本県,熊本市中央区,本荘３丁目７－１４グリーンウッドビル２階,,43,101,8600811,,,2025-06-10,清算の結了等,,,2023-01-25,1,,,,,ファイン,0
982,4410002011165,登記記録の閉鎖等,0,2025-06-18,2025-06-12,有限会社ライフシステム,,有限会社,秋田県,鹿角市,花輪字上中島１０番地４,,05,209,0185201,,,2025-06-12,清算の結了等,,,2015-10-05,1,,,,,ライフシステム,0
985,4430005006243,登記記録の閉鎖等,0,2025-06-18,2025-06-10,特定非営利活動法人冬の街づくり研究会,,その他の設立登記法人,北海道,札幌市北区,新琴似七条１１丁目４番１７号,,01,102,0010907,,,2025-06-10,清算の結了等,,,2015-10-05,1,,,,,フユノマチズクリケンキュウカイ,0
996,5010001122985,登記記録の閉鎖等,0,2025-06-18,2025-05-30,Ｘｔｒａ株式会社,,株式会社,東京都,千代田区,神田鍛冶町３丁目７番２１号,,13,101,1010045,,,2025-05-30,清算の結了等,,,2015-10-05,1,,,,,エクストラ,0
1001,5010003032035,登記記録の閉鎖等,0,2025-06-18,2025-06-12,インサイトソリューションズ合同会社,,合同会社,東京都,江東区,東陽４丁目７番１０号東陽町ハイホーム８０６,,13,108,1350016,,,2025-06-12,清算の結了等,,,2020-04-10,1,,,,,インサイトソリューションズ,0
1005,5010005035143,登記記録の閉鎖等,0,2025-06-18,2025-06-17,ＡＭ　ａｌｐｈａ　Ｆｏｕｒ特定目的会社,,その他の設立登記法人,東京都,千代田区,霞が関３丁目２番５号,,13,101,1000013,,,2025-06-17,清算の結了等,,,2022-06-15,1,,,,,エーエムアルファフォー,0
1063,5020001069474,登記記録の閉鎖等,0,2025-06-18,2025-06-12,新生建設株式会社,,株式会社,神奈川県,川崎市中原区,丸子通１丁目６４０番地５,,14,133,2110006,,,2025-06-12,清算の結了等,,,2015-10-05,1,,,,,シンセイケンセツ,0
1068,5020002009735,登記記録の閉鎖等,0,2025-06-18,2025-06-16,有限会社杵屋,,有限会社,神奈川県,横浜市磯子区,滝頭２丁目３６番１号,,14,107,2350012,,,2025-06-16,清算の結了等,,,2015-10-05,1,,,,,キネヤ,0
1076,5030002121514,登記記録の閉鎖等,0,2025-06-18,2025-06-05,有限会社ダイワ企画,,有限会社,埼玉県,秩父市,柳田町２番１８号,,11,207,3680015,,,2025-06-05,清算の結了等,,,2015-10-05,1,,,,,ダイワキカク,0
1080,5040001032678,登記記録の閉鎖等,0,2025-06-18,2025-06-02,株式会社Ｓ・Ｍ・Ｄコーポレーション,,株式会社,千葉県,市川市,柏井町１丁目２１９４番地,,12,203,2720802,,,2025-06-02,清算の結了等,,,2015-10-05,1,,,,,エスエムディコーポレーション,0
1101,5110002010964,登記記録の閉鎖等,0,2025-06-18,2025-06-05,有限会社興建,,有限会社,新潟県,新潟市北区,太夫浜１８３６－１２,,15,101,9503112,,,2025-06-05,清算の結了等,,,2015-10-05,1,,,,,コウケン,0
1133,5130005010571,登記記録の閉鎖等,0,2025-06-18,2025-05-29,常光寺,,その他の設立登記法人,京都府,綾部市,光野町前田２１番地,,26,203,6231133,,,2025-05-29,合併による解散等,8130005010602,令和７年５月２９日京都府綾部市睦合町前田１３番地寳蔵寺（8130005010602）に合併し解散,2015-10-05,1,,,,,ジョウコウジ,0
1141,5150001026603,登記記録の閉鎖等,0,2025-06-18,2025-06-17,株式会社セントエムホーム,,株式会社,奈良県,奈良市,神殿町６８５番地の４,,29,201,6308441,,,2025-06-17,清算の結了等,,,2023-08-04,1,,,,,セントエムホーム,0
1146,5170002005942,登記記録の閉鎖等,0,2025-06-18,2025-06-16,有限会社斎藤計算センター,,有限会社,和歌山県,和歌山市,太田４丁目１０－３,,30,201,6408323,,,2025-06-16,清算の結了等,,,2015-10-05,1,,,,,サイトウケイサンセンター,0
1149,5180001135665,登記記録の閉鎖等,0,2025-06-18,2025-06-11,株式会社アイチファーム,,株式会社,愛知県,知多郡東浦町,大字森岡字上源吾３６番地の１４,,23,442,4702101,,,2025-06-11,清算の結了等,,,2019-03-04,1,,,,,アイチファーム,0
1156,5230002004211,登記記録の閉鎖等,0,2025-06-18,2025-06-12,有限会社やわらぎ住宅,,有限会社,富山県,富山市,若竹町６丁目１０番地,,16,201,9398181,,,2025-06-12,清算の結了等,,,2015-10-05,1,,,,,ヤワラギジュウタク,0
1188,5350001010413,登記記録の閉鎖等,0,2025-06-18,2025-06-11,サンワラバー株式会社,,株式会社,宮崎県,宮崎市,鶴島１丁目６番３３号,,45,201,8800014,,,2025-06-11,清算の結了等,,,2015-10-05,1,,,,,サンワラバー,0
1191,5360002009437,登記記録の閉鎖等,0,2025-06-18,2025-05-09,株式会社リンク,,株式会社,沖縄県,糸満市,西崎１丁目１３番１６号３階,,47,210,9010305,,,2025-05-09,合併による解散等,6360001002169,令和７年５月１日沖縄県那覇市おもろまち三丁目７番９号株式会社ラジカル沖縄（6360001002169）に合併し解散,2015-10-05,1,,,,,リンク,0
1228,6010001029800,登記記録の閉鎖等,0,2025-06-18,2025-06-16,株式会社マーケティングインテリジェンス,,株式会社,神奈川県,川崎市宮前区,馬絹１丁目１８番２９－３０１号サングレイス宮前平,,14,136,2160035,,,2025-06-16,清算の結了等,,,2015-10-05,1,,,,,マーケティングインテリジェンス,0
1258,6010805001310,登記記録の閉鎖等,0,2025-06-18,2025-05-23,特定非営利活動法人和と輪会,,その他の設立登記法人,東京都,目黒区,南１丁目１３番５号,,13,110,1520013,,,2025-05-23,清算の結了等,,,2015-10-05,1,,,,,ワトワカイ,0
1262,6011002006722,登記記録の閉鎖等,0,2025-06-18,2025-05-22,有限会社スペース・ラブ,,有限会社,東京都,渋谷区,千駄ヶ谷５丁目１番８号－５０１,,13,113,1510051,,,2025-05-22,清算の結了等,,,2015-10-05,1,,,,,スペースラブ,0
1288,6012403002772,登記記録の閉鎖等,0,2025-06-18,2025-06-05,合同会社シファカ,,合同会社,北海道,虻田郡京極町,字京極３０６番地の２,,01,399,0440101,,,2025-06-05,清算の結了等,,,2016-07-11,1,,,,,シファカ,0
1290,6012405003067,登記記録の閉鎖等,0,2025-06-18,2025-06-04,特定非営利活動法人共生サイエンス・アカデミア,,その他の設立登記法人,東京都,狛江市,和泉本町２丁目１６番１２号,,13,219,2010003,,,2025-06-04,清算の結了等,,,2015-10-05,1,,,,,キョウセイサイエンスアカデミア,0
1316,6030001146379,登記記録の閉鎖等,0,2025-06-18,2025-06-12,マル株式会社,,株式会社,埼玉県,鴻巣市,鎌塚２丁目１２番２９号,,11,217,3690112,,,2025-06-12,清算の結了等,,,2022-01-19,1,,,,,マル,0
1334,6040001053351,登記記録の閉鎖等,0,2025-06-18,2025-06-02,イタクラ建材株式会社,,株式会社,千葉県,袖ケ浦市,代宿８８番地１４,,12,229,2990241,,,2025-06-02,清算の結了等,,,2015-10-05,1,,,,,イタクラケンザイ,0
1339,6040001115639,登記記録の閉鎖等,0,2025-06-18,2025-06-13,スマイルハート株式会社,,株式会社,千葉県,八千代市,八千代台北１丁目８番２号ＴＫビルＩＩ１階,00121157,12,221,2760031,,,2025-06-13,合併による解散等,9010401165845,令和７年６月１日東京都中央区東日本橋三丁目３番７号株式会社ミチルワグループ（9010401165845）に合併し解散,2020-10-27,1,,,,,スマイルハート,0
1347,6060001035587,登記記録の閉鎖等,0,2025-06-18,2025-06-11,株式会社ｒｏｕｇｅ,,株式会社,栃木県,芳賀郡芳賀町,大字八ツ木５７番地４５,,09,345,3213306,,,2025-06-11,清算の結了等,,,2023-01-10,1,,,,,ルージュ,0
1348,6060001036783,登記記録の閉鎖等,0,2025-06-18,2025-06-11,株式会社グッド・フル,,株式会社,栃木県,宇都宮市,松が峰１丁目３番１６号グラン宇都宮６０４号室,,09,201,3200807,,,2025-06-11,清算の結了等,,,2024-02-01,1,,,,,グッドフル,0
1349,6060001036800,登記記録の閉鎖等,0,2025-06-18,2025-06-11,住まいるホーム株式会社,,株式会社,栃木県,宇都宮市,江曽島町１２８３－１７,,09,201,3210102,,,2025-06-11,清算の結了等,,,2024-02-05,1,,,,,スマイルホーム,0
1353,6070001009086,登記記録の閉鎖等,0,2025-06-18,2025-06-10,株式会社テンダー２１,,株式会社,群馬県,高崎市,飯塚町１７２３番地５,,10,202,3700069,,,2025-06-10,清算の結了等,,,2015-10-05,1,,,,,テンダーニジュウイチ,0
1360,6080101022368,登記記録の閉鎖等,0,2025-06-18,2025-06-12,株式会社かりふぉるにあ商事,,株式会社,静岡県,熱海市,伊豆山１０８４番地の５４,,22,205,4130002,,,2025-06-12,清算の結了等,,,2021-03-05,1,,,,,カリフォルニアショウジ,0
1368,6100002038700,登記記録の閉鎖等,0,2025-06-18,2025-06-16,有限会社飯田食鮮市場,,有限会社,長野県,飯田市,松尾上溝３１１４番地３,,20,205,3950811,,,2025-06-16,清算の結了等,,,2015-10-05,1,,,,,イイダショクセンイチバ,0
1369,6120001152822,登記記録の閉鎖等,0,2025-06-18,2025-06-12,ＪＡＰインテック株式会社,,株式会社,大阪府,寝屋川市,秦町７－２９－１Ｆ,,27,215,5720848,,,2025-06-12,清算の結了等,,,2015-10-05,1,,,,,ジェイエイピー,0
1373,6120001270616,登記記録の閉鎖等,0,2025-06-18,2025-06-10,株式会社ＡＬＩＶＥ,,株式会社,大阪府,大阪市中央区,南本町２丁目６－５ファースト船場２０８,,27,128,5410054,,,2025-06-10,清算の結了等,,,2024-11-27,1,,,,,アライブ,0
1377,6120005015034,登記記録の閉鎖等,0,2025-06-18,2025-06-16,ＪＯＨＡＲＩ税理士法人,,その他の設立登記法人,大阪府,大阪市西区,新町１丁目８－１行成ビル８階,,27,106,5500013,,,2025-06-16,清算の結了等,,,2015-10-05,1,,,,,ジョハリ,0
1392,6130001060751,登記記録の閉鎖等,0,2025-06-18,2025-06-13,株式会社Ｍ．Ｙ．Ｍ,,株式会社,京都府,京都市伏見区,南尼崎町５１２番地７,,26,109,6128076,,,2025-06-13,清算の結了等,,,2017-10-18,1,,,,,エムワイエム,0
1408,6190002006137,登記記録の閉鎖等,0,2025-06-18,2025-06-10,有限会社岡本設計,,有限会社,三重県,鈴鹿市,算所町１２３２番地の１,,24,207,5130805,,,2025-06-10,清算の結了等,,,2015-10-05,1,,,,,オカモトセッケイ,0
1425,6290001054341,登記記録の閉鎖等,0,2025-06-18,2025-06-03,株式会社クラフト,,株式会社,福岡県,大牟田市,旭町１丁目２番地１,,40,202,8360807,,,2025-06-03,清算の結了等,,,2015-10-05,1,,,,,クラフト,0
1432,6290003003503,登記記録の閉鎖等,0,2025-06-18,2025-06-06,合同会社プランニング樂都,,合同会社,福岡県,糟屋郡宇美町,とびたけ１丁目２番１０号,,40,341,8112107,,,2025-06-06,清算の結了等,,,2015-10-05,1,,,,,プランニングラクト,0
1454,6380005012856,登記記録の閉鎖等,0,2025-06-18,2025-06-09,企業組合スカイブルー土湯,,その他の設立登記法人,福島県,福島市,土湯温泉町字横道７０番地の１,,07,201,9602157,,,2025-06-09,清算の結了等,,,2024-08-07,1,,,,,スカイブルーツチユ,0
1460,6430001020584,登記記録の閉鎖等,0,2025-06-18,2025-06-11,中央医療寝装株式会社,,株式会社,北海道,札幌市東区,北二十七条東１丁目１番１４号,,01,103,0650027,,,2025-06-11,清算の結了等,,,2015-10-05,1,,,,,チュウオウイリョウシンソウ,0
1463,6430002065793,登記記録の閉鎖等,0,2025-06-18,2025-06-11,有限会社木村商事,,有限会社,北海道,室蘭市,日の出町３丁目７番３号,,01,205,0500081,,,2025-06-11,清算の結了等,,,2015-10-05,1,,,,,キムラショウジ,0
1465,6430005000483,登記記録の閉鎖等,0,2025-06-18,2025-04-21,天理教拓北分教会,,その他の設立登記法人,北海道,札幌市白石区,本郷通５丁目南１番２５号,,01,104,0030024,,,2025-04-21,合併による解散等,6440005001605,令和７年４月１４日北海道二海郡八雲町野田生１５８番地の１天理教茅部分教会（6440005001605）に合併し解散,2015-10-05,1,,,,,テンリキョウタクホクブンキョウカイ,0
1473,6470001003494,登記記録の閉鎖等,0,2025-06-18,2025-06-13,株式会社達人会議,,株式会社,香川県,高松市,伏石町１３０７番地３,,37,201,7618071,,,2025-06-13,清算の結了等,,,2015-10-05,1,,,,,タツジンカイギ,0
1476,6490005006434,登記記録の閉鎖等,0,2025-06-18,2025-06-17,特定非営利活動法人Ｍａｘ　Ｏｎｗａｒｄ,,その他の設立登記法人,高知県,高知市,葛島２丁目７番地２１,,39,201,7818121,,,2025-06-17,清算の結了等,,,2015-10-05,1,,,,,マックスオンワード,0
1488,7010003016969,登記記録の閉鎖等,0,2025-06-18,2025-06-12,合同会社角筈インベストメンツ,,合同会社,東京都,練馬区,富士見台４丁目３６番１９号,,13,120,1770034,,,2025-06-12,清算の結了等,,,2015-10-05,1,,,,,ツノハズインベストメンツ,0
1511,7010602013417,登記記録の閉鎖等,0,2025-06-18,2025-06-11,有限会社富士川梱包,,有限会社,東京都,墨田区,菊川３丁目１０番２号,,13,107,1300024,,,2025-06-11,清算の結了等,,,2015-10-05,1,,,,,,0
1525,7010903005006,登記記録の閉鎖等,0,2025-06-18,2025-06-11,教育情報センター合同会社,,合同会社,東京都,世田谷区,玉川３丁目９番１０号マノア玉川第２、４０７号,,13,112,1580094,,,2025-06-11,清算の結了等,,,2019-06-11,1,,,,,キョウイクジョウホウセンター,0
1543,7011202006942,登記記録の閉鎖等,0,2025-06-18,2025-06-16,有限会社プリッシマ,,有限会社,東京都,中野区,東中野１丁目４５番１０号カーサ・フォレストーネ東中野４０２号,,13,114,1640003,,,2025-06-16,清算の結了等,,,2015-10-05,1,,,,,プリッシマ,0
1557,7012401020412,登記記録の閉鎖等,0,2025-06-18,2025-06-12,ＫＤコンサル株式会社,,株式会社,東京都,国分寺市,富士本３丁目１４番地５３,,13,214,1850031,,,2025-06-12,清算の結了等,,,2015-10-05,1,,,,,ケイディコンサル,0
1569,7020002104154,登記記録の閉鎖等,0,2025-06-18,2025-06-16,有限会社フラワー・ヘルパー・ステーション,,有限会社,神奈川県,川崎市幸区,下平間１０８番地５ダイアパレス鹿島田３０５,,14,132,2120053,,,2025-06-16,清算の結了等,,,2015-10-05,1,,,,,フラワーヘルパーステーション,0
1570,7020003001210,登記記録の閉鎖等,0,2025-06-18,2025-06-13,合資会社冨士屋,,合資会社,神奈川県,横浜市栄区,笠間５丁目３４番８号,,14,115,2470006,,,2025-06-13,清算の結了等,,,2015-10-05,1,,,,,フジヤ,0
1613,7100005000516,登記記録の閉鎖等,0,2025-06-18,2025-04-30,淨願寺,,その他の設立登記法人,長野県,長野市,大字稲葉２２１２番地,,20,201,3800911,,,2025-04-30,合併による解散等,3100005000577,令和７年４月３０日長野市大字稲葉２２０８番２２０９番合併地專福寺（3100005000577）に合併し解散,2015-10-05,1,,,,,ジョウガンジ,0
1631,7120003021479,登記記録の閉鎖等,0,2025-06-18,2025-06-06,合同会社Ｏｒｉｇｉｎ　ｒｅｇｒｅｓｓｉｏｎ,,合同会社,大阪府,大阪市天王寺区,小橋町２－１０－１３０２,,27,109,5430028,,,2025-06-06,清算の結了等,,,2022-04-14,1,,,,,オリジンレグレーション,0
1633,7120101070329,登記記録の閉鎖等,0,2025-06-18,2025-06-11,ＮＩＫＯ株式会社,,株式会社,大阪府,泉南郡田尻町,吉見１０１２－１４０,,27,362,5980092,,,2025-06-11,清算の結了等,,,2024-10-07,1,,,,,ニコ,0
1635,7120102007180,登記記録の閉鎖等,0,2025-06-18,2025-06-11,有限会社ウエダ工業,,有限会社,大阪府,高石市,取石２丁目３５番３５号,,27,225,5920013,,,2025-06-11,清算の結了等,,,2015-10-05,1,,,,,ウエダコウギョウ,0
1636,7120102007453,登記記録の閉鎖等,0,2025-06-18,2025-06-12,佐々木電機工業有限会社,,有限会社,大阪府,堺市北区,東雲東町２丁１番８号,,27,146,5918041,,,2025-06-12,清算の結了等,,,2015-10-05,1,,,,,ササキデンキコウギョウ,0
1651,7140003014497,登記記録の閉鎖等,0,2025-06-18,2025-06-10,合同会社Ｓｔｅｌｌａ　Ａｃａｄｅｍｙ,,合同会社,兵庫県,芦屋市,親王塚町９番８－２号,,28,206,6590016,,,2025-06-10,合併による解散等,3140003011688,令和７年６月１０日兵庫県芦屋市親王塚町９番８－２号合同会社ＴＫＦ（3140003011688）に合併し解散,2019-11-29,1,,,,,ステラアカデミー,0
1655,7180001152072,登記記録の閉鎖等,0,2025-06-18,2025-06-11,ストラクト株式会社,,株式会社,愛知県,名古屋市中区,大須２丁目１０番４５号大須ステーションプラザ４階,,23,106,4600011,,,2025-06-11,清算の結了等,,,2022-07-06,1,,,,,ストラクト,0
1663,7190002001046,登記記録の閉鎖等,0,2025-06-18,2025-06-10,有限会社天満石工業,,有限会社,三重県,津市,大里山室町３９０番地,,24,201,5140121,,,2025-06-10,清算の結了等,,,2015-10-05,1,,,,,,0
1664,7200001008619,登記記録の閉鎖等,0,2025-06-18,2025-06-13,株式会社ユニバーサルサポート,,株式会社,岐阜県,岐阜市,中西郷３丁目７９番地,,21,201,5011177,,,2025-06-13,清算の結了等,,,2015-10-05,1,,,,,ユニバーサルサポート,0
1703,7350002018206,登記記録の閉鎖等,0,2025-06-18,2025-06-11,有限会社野口工業,,有限会社,宮崎県,西諸県郡高原町,大字広原４３８１番地１,,45,361,8894411,,,2025-06-11,清算の結了等,,,2015-10-05,1,,,,,ノグチコウギョウ,0
1719,7410001010891,登記記録の閉鎖等,0,2025-06-18,2025-06-12,五城目ソーラー株式会社,,株式会社,秋田県,南秋田郡五城目町,富津内中津又字大台５番,,05,361,0181853,,,2025-06-12,清算の結了等,,,2015-10-05,1,,,,,ゴジョウメソーラー,0
1721,7410005002051,登記記録の閉鎖等,0,2025-06-18,2025-06-10,公益財団法人由利学生寮,,その他の設立登記法人,秋田県,由利本荘市,川口字大覚１８２番地,,05,210,0150051,,,2025-06-10,清算の結了等,,,2015-10-05,1,,,,,ユリガクセイリョウ,0
1722,7420002018792,登記記録の閉鎖等,0,2025-06-18,2025-06-11,有限会社田中畜産,,有限会社,青森県,上北郡六ヶ所村,大字倉内字切揚場１２５番地１８,,02,411,0393215,,,2025-06-11,清算の結了等,,,2015-10-05,1,,,,,タナカチクサン,0
1726,7430002040151,登記記録の閉鎖等,0,2025-06-18,2025-06-11,有限会社沼空調設備,,有限会社,北海道,札幌市清田区,清田七条３丁目１番２３号,,01,110,0040847,,,2025-06-11,清算の結了等,,,2015-10-05,1,,,,,ヌマクウチョウセツビ,0
1727,7430002043187,登記記録の閉鎖等,0,2025-06-18,2025-06-11,有限会社ハマナス,,有限会社,北海道,石狩市,親船東一条１丁目２０７番地,,01,235,0613365,,,2025-06-11,清算の結了等,,,2015-10-05,1,,,,,ハマナス,0
1733,7460105001972,登記記録の閉鎖等,0,2025-06-18,2025-06-11,特定非営利活動法人北海道放射能分析センター,,その他の設立登記法人,北海道,帯広市,昭和町東５線１１３番地,,01,207,0891247,,,2025-06-11,清算の結了等,,,2015-10-05,1,,,,,ホッカイドウホウシャノウブンセキセンター,0
1737,7480005001410,登記記録の閉鎖等,0,2025-06-18,2025-05-29,天理教徳久分教会,,その他の設立登記法人,徳島県,徳島市,南矢三町２丁目４番１１号,,36,201,7700005,,,2025-05-29,合併による解散等,1480005003180,令和７年５月２９日徳島県阿波市市場町市場字町筋２３１番地の２天理教市香分教会（1480005003180）に合併し解散,2015-10-05,1,,,,,テンリキョウトクヒサブンキョウカイ,0
1745,8010001002598,登記記録の閉鎖等,0,2025-06-18,2025-05-30,株式会社講談社パル,,株式会社,東京都,文京区,音羽２丁目１２番２１号,,13,105,1120013,,,2025-05-30,清算の結了等,,,2015-10-05,1,,,,,コウダンシャパル,0
1775,8010602016212,登記記録の閉鎖等,0,2025-06-18,2025-06-12,有限会社洋光,,有限会社,東京都,東久留米市,浅間町３丁目４番１６号,,13,222,2030012,,,2025-06-12,清算の結了等,,,2015-10-05,1,,,,,ヨウコウ,0
1777,8010901029988,登記記録の閉鎖等,0,2025-06-18,2025-06-12,株式会社勝,,株式会社,東京都,世田谷区,池尻４丁目１０番１－Ｅ２０１号,,13,112,1540001,,,2025-06-12,清算の結了等,,,2015-10-05,1,,,,,ショウ,0
1804,8011701012936,登記記録の閉鎖等,0,2025-06-18,2025-06-04,株式会社公文堂,,株式会社,東京都,江戸川区,北小岩２丁目１４番２－５０９号,,13,123,1330051,,,2025-06-04,清算の結了等,,,2015-10-05,1,,,,,,0
1808,8011702007084,登記記録の閉鎖等,0,2025-06-18,2025-06-05,有限会社高瀬設備,00056661,有限会社,東京都,江戸川区,鹿骨１丁目５７番９号,,13,123,1330073,,,2025-06-05,清算の結了等,,,2015-10-05,1,,,,,タカセセツビ,0
1815,8011802025416,登記記録の閉鎖等,0,2025-06-18,2025-06-11,有限会社システムデザイン研究所,,有限会社,東京都,江東区,海辺１２番７号,,13,108,1350012,,,2025-06-11,清算の結了等,,,2015-10-05,1,,,,,システムデザインケンキュウショ,0
1817,8012701014303,登記記録の閉鎖等,0,2025-06-18,2025-06-12,株式会社スカイスカイ,,株式会社,東京都,小平市,御幸町１３１番地の１８５,,13,211,1870012,,,2025-06-12,清算の結了等,,,2017-05-17,1,,,,,スカイスカイ,0
1819,8012703001324,登記記録の閉鎖等,0,2025-06-18,2025-06-11,フィーノ・ソリューションズ合同会社,,合同会社,東京都,東久留米市,前沢３丁目１５番１０号,,13,222,2030032,,,2025-06-11,清算の結了等,,,2016-07-21,1,,,,,フィーノソリューションズ,0
1823,8020001090428,登記記録の閉鎖等,0,2025-06-18,2025-06-12,日本エコテクノ株式会社,,株式会社,兵庫県,尼崎市,西長洲町１丁目１番４５号,,28,202,6600805,,,2025-06-12,清算の結了等,,,2015-10-05,1,,,,,ニホンエコテクノ,0
1824,8020001090626,登記記録の閉鎖等,0,2025-06-18,2025-06-13,株式会社カルブレイス,,株式会社,東京都,江東区,青海２丁目７番４号ｔｈｅＳＯＨＯ４１１,,13,108,1350064,,,2025-06-13,清算の結了等,,,2015-10-05,1,,,,,カルブレイス,0
1832,8020003017932,登記記録の閉鎖等,0,2025-06-18,2025-06-12,合同会社Ｓｔａｒ　Ｌｉｎｋ,,合同会社,神奈川県,横浜市港南区,野庭町６０６番地１棟１７３号,,14,111,2340056,,,2025-06-12,清算の結了等,,,2020-06-02,1,,,,,スターリンク,0
1839,8030001079239,登記記録の閉鎖等,0,2025-06-18,2025-06-11,商工産業株式会社,,株式会社,埼玉県,川口市,戸塚東１丁目７番２２号,,11,203,3330802,,,2025-06-11,清算の結了等,,,2015-10-05,1,,,,,ショウコウサンギョウ,0
1855,8040002020638,登記記録の閉鎖等,0,2025-06-18,2025-06-02,有限会社今村商会,,有限会社,千葉県,船橋市,宮本８丁目２８番４号,,12,204,2730003,,,2025-06-02,清算の結了等,,,2015-10-05,1,,,,,イマムラショウカイ,0
1857,8040002099904,登記記録の閉鎖等,0,2025-06-18,2025-05-28,有限会社三鈴不動産,,有限会社,千葉県,館山市,薗８６３番地,,12,205,2940006,,,2025-05-28,清算の結了等,,,2015-10-05,1,,,,,ミスズフドウサン,0
1868,8070003004488,登記記録の閉鎖等,0,2025-06-18,2025-06-11,合同会社プレーン,,合同会社,群馬県,佐波郡玉村町,大字上新田６７６－１７東ハイツ１Ｂ,,10,464,3701133,,,2025-06-11,清算の結了等,,,2022-05-20,1,,,,,プレーン,0
1880,8120001097669,登記記録の閉鎖等,0,2025-06-18,2025-06-04,新日本商事株式会社,,株式会社,大阪府,大阪市北区,西天満３丁目１４番１１号,,27,127,5300047,,,2025-06-04,合併による解散等,5120001065793,令和７年５月３０日大阪市北区西天満三丁目１４番１１号株式会社新日本（5120001065793）に合併し解散,2015-10-05,1,,,,,シンニホンショウジ,0
1890,8120001245475,登記記録の閉鎖等,0,2025-06-18,2025-06-09,ＫＹＢＥＬＥ　Ｎｕｔｒｉｔｉｏｎ株式会社,,株式会社,東京都,品川区,東五反田５丁目２１番１５号メタリオンＯＳビル３階１０号室,,13,109,1410022,,,2025-06-09,清算の結了等,,,2022-04-25,1,,,,,キュベレーニュートリション,0
1897,8120003022625,登記記録の閉鎖等,0,2025-06-18,2025-06-11,合同会社シロズコンサルティング,,合同会社,大阪府,大阪市大正区,平尾５丁目１番１号,,27,108,5510012,,,2025-06-11,清算の結了等,,,2022-10-12,1,,,,,シロズコンサルティング,0
1923,8140003018274,登記記録の閉鎖等,0,2025-06-18,2025-06-11,合同会社まゆげ,,合同会社,兵庫県,神戸市兵庫区,神田町４番６－１号,,28,105,6520006,,,2025-06-11,清算の結了等,,,2022-10-24,1,,,,,マユゲ,0
1941,8190001012720,登記記録の閉鎖等,0,2025-06-18,2025-06-09,一木産業株式会社,,株式会社,三重県,桑名市,多度町香取５４番地,,24,205,5110102,,,2025-06-09,清算の結了等,,,2015-10-05,1,,,,,イチキサンギョウ,0
1949,8220002006750,登記記録の閉鎖等,0,2025-06-18,2025-06-16,有限会社奥田商店,,有限会社,石川県,金沢市,諸江町上丁６１１番地１,,17,201,9200015,,,2025-06-16,清算の結了等,,,2015-10-05,1,,,,,オクダショウテン,0
1971,8290802004641,登記記録の閉鎖等,0,2025-06-18,2025-06-16,有限会社中道ビル,,有限会社,福岡県,北九州市小倉北区,堺町１丁目５番１５号,,40,106,8020005,,,2025-06-16,清算の結了等,,,2015-10-05,1,,,,,ナカミチビル,0
1972,8290802016967,登記記録の閉鎖等,0,2025-06-18,2025-06-16,有限会社松本商店,,有限会社,福岡県,遠賀郡遠賀町,大字鬼津１０８２番地の２,,40,384,8114341,,,2025-06-16,清算の結了等,,,2015-10-05,1,,,,,マツモトショウテン,0
1987,8420001008496,登記記録の閉鎖等,0,2025-06-18,2025-06-09,西海開発株式会社,,株式会社,青森県,青森市,大字高田字川瀬１７１番地５,,02,201,0300151,,,2025-06-09,清算の結了等,,,2015-10-05,1,,,,,サイカイカイハツ,0
2000,8460301003854,登記記録の閉鎖等,0,2025-06-18,2025-06-16,株式会社ＭＯＲＩ,,株式会社,北海道,北見市,美山町東４丁目８２番地２９,,01,208,0900069,,,2025-06-16,清算の結了等,,,2015-10-05,1,,,,,モリ,0
2042,9011102009382,登記記録の閉鎖等,0,2025-06-18,2025-05-28,有限会社ナガセデンタルワーク,,有限会社,東京都,新宿区,西早稲田３丁目２７番７号,,13,104,1690051,,,2025-05-28,清算の結了等,,,2015-10-05,1,,,,,ナガセデンタルワーク,0
2045,9011301015603,登記記録の閉鎖等,0,2025-06-18,2025-06-02,Ｐｒｉｘ　ｄｕ　Ｊａｐｏｎ　株式会社,,株式会社,千葉県,印西市,原山３丁目５番３－１０１号,,12,231,2701341,,,2025-06-02,清算の結了等,,,2015-10-05,1,,,,,プリドゥジャポン,0
2047,9011401025758,登記記録の閉鎖等,0,2025-06-18,2025-06-04,株式会社関根商事,,株式会社,東京都,板橋区,坂下１丁目２５番１８号,,13,119,1740043,,,2025-06-04,清算の結了等,,,2024-01-15,1,,,,,セキネショウジ,0
2053,9011701025004,登記記録の閉鎖等,0,2025-06-18,2025-06-05,株式会社さくら建設,,株式会社,東京都,江戸川区,中葛西５丁目１５番１０号ＹＣＣビル３階,,13,123,1340083,,,2025-06-05,清算の結了等,,,2022-01-27,1,,,,,サクラケンセツ,0
2056,9011801009179,登記記録の閉鎖等,0,2025-06-18,2025-06-11,株式会社添田シート商会,,株式会社,埼玉県,日高市,大字原宿３８３番地３０,,11,242,3501205,,,2025-06-11,清算の結了等,,,2015-10-05,1,,,,,ソエダシートショウカイ,0
2057,9011801034202,登記記録の閉鎖等,0,2025-06-18,2025-06-11,雅インターナショナル株式会社,,株式会社,東京都,足立区,舎人２丁目１０番５号ＫＹビル２０２,,13,121,1210831,,,2025-06-11,清算の結了等,,,2017-12-21,1,,,,,ミヤビインターナショナル,0
2076,9013401001160,登記記録の閉鎖等,0,2025-06-18,2025-06-13,株式会社Ｍｅｒｋ,,株式会社,東京都,稲城市,東長沼２１２７番地の５,,13,225,2060802,,,2025-06-13,清算の結了等,,,2015-10-05,1,,,,,,0
2079,9020001148836,登記記録の閉鎖等,0,2025-06-18,2025-06-16,株式会社ｓｙｚｙｇｙ,,株式会社,神奈川県,横浜市都筑区,牛久保西３丁目１０番９号,,14,118,2240015,,,2025-06-16,清算の結了等,,,2022-11-09,1,,,,,シジジー,0
2087,9021001040834,登記記録の閉鎖等,0,2025-06-18,2025-05-29,株式会社ナカタ,,株式会社,神奈川県,横須賀市,緑が丘３１番地,,14,201,2380018,,,2025-05-29,清算の結了等,,,2016-12-12,1,,,,,ナカタ,0
2113,9060001030965,登記記録の閉鎖等,0,2025-06-18,2025-06-11,東方株式会社,,株式会社,栃木県,宇都宮市,道場宿町７９１番地１,,09,201,3213237,,,2025-06-11,清算の結了等,,,2018-10-16,1,,,,,トウホウ,0
2125,9110005009439,登記記録の閉鎖等,0,2025-06-18,2025-06-05,医療法人社団ながぬまこどもクリニック,,その他の設立登記法人,新潟県,上越市,大字上中田１０７０番地,,15,222,9430884,,,2025-06-05,清算の結了等,,,2015-10-05,1,,,,,ナガヌマコドモクリニック,0
2126,9120001018566,登記記録の閉鎖等,0,2025-06-18,2025-06-10,株式会社ピースコーポレーション,,株式会社,大阪府,大阪市生野区,巽東２丁目１１番１９号,00027575,27,116,5440014,,,2025-06-10,清算の結了等,,,2015-10-05,1,,,,,ピースコーポレーション,0
2158,9130002021551,登記記録の閉鎖等,0,2025-06-18,2025-06-05,有限会社ＭＣウィング,,有限会社,京都府,京都市伏見区,醍醐下端山町２番地４１,,26,109,6011332,,,2025-06-05,清算の結了等,,,2015-10-05,1,,,,,エムシーウィング,0
2164,9140002034445,登記記録の閉鎖等,0,2025-06-18,2025-06-12,有限会社植昇組,,有限会社,兵庫県,丹波市,春日町古河６１８番地,,28,223,6694134,,,2025-06-12,清算の結了等,,,2015-10-05,1,,,,,ウエショウグミ,0
2169,9180002008635,登記記録の閉鎖等,0,2025-06-18,2025-06-11,有限会社ヒロ・オオカヤ設計工房,,有限会社,愛知県,名古屋市東区,泉２丁目２０番８号,,23,102,4610001,,,2025-06-11,清算の結了等,,,2015-10-05,1,,,,,ヒロオオカヤセッケイコウボウ,0
2173,9180301001118,登記記録の閉鎖等,0,2025-06-18,2025-06-09,スコープ・アンド・リサーチ株式会社,,株式会社,愛知県,岡崎市,伊賀町字４丁目７番地１,,23,202,4440075,,,2025-06-09,清算の結了等,,,2015-10-05,1,,,,,スコープアンドリサーチ,0
2175,9190001016638,登記記録の閉鎖等,0,2025-06-18,2025-06-09,山路工業株式会社,,株式会社,三重県,四日市市,栄町１番１１号,,24,202,5100084,,,2025-06-09,清算の結了等,,,2015-10-05,1,,,,,ヤマジコウギョウ,0
2177,9210001016610,登記記録の閉鎖等,0,2025-06-18,2025-06-13,株式会社重永工業,,株式会社,福井県,鯖江市,水落町１丁目９－１０,,18,207,9160022,,,2025-06-13,清算の結了等,,,2017-02-07,1,,,,,シゲナガコウギョウ,0
2178,9210003001453,登記記録の閉鎖等,0,2025-06-18,2025-06-09,コミュニケーションＶ合同会社,,合同会社,福井県,福井市,栃泉町第７４号１１番地,,18,201,9102163,,,2025-06-09,清算の結了等,,,2022-01-28,1,,,,,コミュニケーションブイ,0
2180,9220001020727,登記記録の閉鎖等,0,2025-06-18,2025-06-16,エアーサービス工業株式会社,,株式会社,石川県,金沢市,畝田西２丁目１４５番地２,,17,201,9200342,,,2025-06-16,清算の結了等,,,2015-12-25,1,,,,,,0
2195,9290002043860,登記記録の閉鎖等,0,2025-06-18,2025-06-09,有限会社松屋うどん,,有限会社,福岡県,朝倉郡筑前町,依井４４２番地の１,,40,447,8380813,,,2025-06-09,清算の結了等,,,2015-10-05,1,,,,,ツヤウドン,0
2200,9320003003827,登記記録の閉鎖等,0,2025-06-18,2025-06-03,合同会社カイコウラ,,合同会社,大分県,別府市,田の湯町９番３０号,,44,202,8740909,,,2025-06-03,清算の結了等,,,2022-06-14,1,,,,,カイコウラ,0
2202,9330002001772,登記記録の閉鎖等,0,2025-06-18,2025-06-11,有限会社岡末商店,,有限会社,熊本県,熊本市中央区,花畑町１３番２１号,,43,101,8600806,,,2025-06-11,清算の結了等,,,2015-10-05,1,,,,,オカスエショウテン,0
2221,9410002007266,登記記録の閉鎖等,0,2025-06-18,2025-06-09,有限会社テクノネット大内,,有限会社,秋田県,由利本荘市,岩谷町字日渡１１８番地２,,05,210,0180711,,,2025-06-09,清算の結了等,,,2015-10-05,1,,,,,テクノネットオオウチ,0
2231,9430001071484,登記記録の閉鎖等,0,2025-06-18,2025-06-09,宮町ポテト株式会社,,株式会社,北海道,江別市,大麻宮町３番地の７,,01,217,0690855,,,2025-06-09,清算の結了等,,,2016-05-06,1,,,,,ミヤマチポテト,0
2232,9430002021752,登記記録の閉鎖等,0,2025-06-18,2025-06-10,有限会社和道興業,,有限会社,北海道,札幌市西区,西野八条４丁目１７番１０号,,01,107,0630038,,,2025-06-10,清算の結了等,,,2015-10-05,1,,,,,ワドウコウギョウ,0
