sequenceNumber,corporateNumber,process,correct,updateDate,changeDate,name,nameImageId,kind,prefectureName,cityName,streetNumber,addressImageId,prefectureCode,cityCode,postCode,addressOutside,addressOutsideImageId,closeDate,closeCause,successorCorporateNumber,changeCause,assignmentDate,latest,enName,enPrefectureName,enCityName,enAddressOutside,furigana,hihyoji
5,1010001106356,登記記録の閉鎖等,0,2025-03-07,2025-02-20,株式会社オロール,,株式会社,東京都,渋谷区,神宮前２丁目７番７号,,13,113,1500001,,,2025-02-20,合併による解散等,7010001013456,令和７年２月２０日東京都渋谷区神宮前二丁目７番７号オーロラ株式会社（7010001013456）に合併し解散,2015-10-05,1,,,,,オロール,0
10,1010001205843,登記記録の閉鎖等,0,2025-03-07,2025-03-06,株式会社サンクチュアリ,,株式会社,東京都,中野区,東中野１丁目５７番７号,,13,114,1640003,,,2025-03-06,清算の結了等,,,2019-12-05,1,,,,,サンクチュアリ,0
18,1010003043424,登記記録の閉鎖等,0,2025-03-07,2025-02-20,大阪なんば南ホテル合同会社,,合同会社,東京都,中央区,銀座２丁目１０番８号マニエラ銀座ビル４階,,13,102,1040061,,,2025-02-20,清算の結了等,,,2024-04-10,1,,,,,オオサカナンバミナミホテル,0
54,1011001061756,登記記録の閉鎖等,0,2025-03-07,2025-02-25,スコーイ・インターナショナル株式会社,,株式会社,東京都,渋谷区,恵比寿南１丁目２０－２シェモア恵比寿４Ｆ,,13,113,1500022,,,2025-02-25,清算の結了等,,,2015-10-05,1,,,,,スコーイインターナショナル,0
74,1011101016668,登記記録の閉鎖等,0,2025-03-07,2025-03-03,日本ハウズイング株式会社,,株式会社,東京都,新宿区,新宿１丁目３１番１２号,,13,104,1600022,,,2025-03-03,合併による解散等,9010403031970,令和７年３月１日東京都新宿区新宿一丁目３１番１２号マルシアンホールディングス株式会社（9010403031970）に合併し解散,2015-10-05,1,,,,,ニホンハウズイング,0
87,1011502008941,登記記録の閉鎖等,0,2025-03-07,2025-03-04,株式会社品川グループ,,株式会社,東京都,荒川区,西日暮里２丁目８番１１号,,13,118,1160013,,,2025-03-04,清算の結了等,,,2015-10-05,1,,,,,シナガワグループ,0
90,1011801022560,登記記録の閉鎖等,0,2025-03-07,2025-03-05,株式会社プリエイト,,株式会社,東京都,葛飾区,立石８丁目５５番１１－２０５号ドラゴンマンション青戸壱番館,,13,122,1240012,,,2025-03-05,清算の結了等,,,2015-10-05,1,,,,,プリエイト,0
105,1020001024598,登記記録の閉鎖等,0,2025-03-07,2025-02-21,株式会社むろた伍大,,株式会社,神奈川県,横浜市都筑区,荏田南３丁目３４番１２号,,14,118,2240007,,,2025-02-21,清算の結了等,,,2015-10-05,1,,,,,ムロタゴダイ,0
130,1040001035825,登記記録の閉鎖等,0,2025-03-07,2025-03-03,京成タクシー松戸西株式会社,,株式会社,千葉県,松戸市,小根本１５２－４番地,,12,207,2710073,,,2025-03-03,合併による解散等,8040001035372,令和７年３月１日千葉県松戸市金ケ作４０８番地３５７京成タクシーウエスト株式会社（8040001035372）に合併し解散,2015-10-05,1,,,,,ケイセイタクシーマツドニシ,0
144,1050002001123,登記記録の閉鎖等,0,2025-03-07,2025-02-28,キヤスト有限会社,,有限会社,茨城県,水戸市,全隈町１１４３番地の１,,08,201,3114161,,,2025-02-28,清算の結了等,,,2015-10-05,1,,,,,キヤスト,0
151,1070002031143,登記記録の閉鎖等,0,2025-03-07,2025-03-04,有限会社三益,,有限会社,群馬県,太田市,鳥山下町９１０番地の３,,10,205,3730063,,,2025-03-04,清算の結了等,,,2015-10-05,1,,,,,ミマス,0
157,1080402018499,登記記録の閉鎖等,0,2025-03-07,2025-02-28,有限会社ヤマダ商会,,有限会社,静岡県,菊川市,高橋３４１２番地の６,,22,224,4371505,,,2025-02-28,清算の結了等,,,2015-10-05,1,,,,,ヤマダショウカイ,0
171,1120001098954,登記記録の閉鎖等,0,2025-03-07,2025-03-05,株式会社バーモラルインターナショナル,,株式会社,大阪府,大阪市中央区,玉造２丁目１６番８号,,27,128,5400004,,,2025-03-05,清算の結了等,,,2015-10-05,1,,,,,バーモラルインターナショナル,0
192,1120002072165,登記記録の閉鎖等,0,2025-03-07,2025-02-13,有限会社アートシステム,,有限会社,大阪府,寝屋川市,三井南町３０番５－４０２号,,27,215,5720019,,,2025-02-13,清算の結了等,,,2015-10-05,1,,,,,,0
194,1120101050121,登記記録の閉鎖等,0,2025-03-07,2025-02-21,株式会社ユニマート大阪,,株式会社,大阪府,富田林市,本町１８番４号,,27,214,5840093,,,2025-02-21,合併による解散等,3120101031210,令和７年２月２１日大阪府富田林市本町１８番４号株式会社マルマサ（3120101031210）に合併し解散,2015-10-05,1,,,,,ユニマートオオサカ,0
198,1122001018891,登記記録の閉鎖等,0,2025-03-07,2025-03-05,頭師鋼業株式会社,,株式会社,大阪府,八尾市,太田新町８丁目４３番地,,27,212,5810039,,,2025-03-05,清算の結了等,,,2015-10-05,1,,,,,ズシコウギョウ,0
223,1150001001080,登記記録の閉鎖等,0,2025-03-07,2025-03-04,株式会社スーパーヨシムラ,,株式会社,奈良県,奈良市,東登美ヶ丘６丁目２７番１３号,,29,201,6310002,,,2025-03-04,合併による解散等,2220001008745,令和７年２月２８日石川県白山市松本町２５１２番地株式会社クスリのアオキ（2220001008745）に合併し解散,2015-10-05,1,,,,,スーパーヨシムラ,0
261,1250005008442,登記記録の閉鎖等,0,2025-03-07,2025-03-03,特定非営利活動法人スヌーズレンを普及する会,,その他の設立登記法人,山口県,防府市,迫戸町１０番９号,,35,206,7470031,,,2025-03-03,清算の結了等,,,2018-08-14,1,,,,,スヌーズレンヲフキュウスルカイ,0
282,1290005010304,登記記録の閉鎖等,0,2025-03-07,2025-02-13,シティマンション久留米二管理組合法人,,その他の設立登記法人,福岡県,久留米市,諏訪野町２３１１番地の２,,40,203,8300037,,,2025-02-13,清算の結了等,,,2015-10-05,1,,,,,シティマンションクルメニ,0
285,1320001013249,登記記録の閉鎖等,0,2025-03-07,2025-03-03,株式会社カワテツ,,株式会社,大分県,佐伯市,大字木立５５９１番地,,44,205,8762121,,,2025-03-03,合併による解散等,9320001009272,令和７年２月２６日大分県佐伯市大字木立５５９１番地株式会社カワテク（9320001009272）に合併し解散,2015-10-05,1,,,,,カワテツ,0
304,1430002038457,登記記録の閉鎖等,0,2025-03-07,2025-03-03,有限会社フロンティア,,有限会社,北海道,札幌市手稲区,金山二条２丁目５番５号,,01,109,0060042,,,2025-03-03,清算の結了等,,,2015-10-05,1,,,,,フロンティア,0
311,1460402000179,登記記録の閉鎖等,0,2025-03-07,2025-03-04,有限会社しんぱち佐藤商店,,有限会社,北海道,根室市,緑町２丁目１４番地,,01,223,0870051,,,2025-03-04,清算の結了等,,,2015-10-05,1,,,,,シンパチサトウショウテン,0
319,1490002003166,登記記録の閉鎖等,0,2025-03-07,2025-03-05,有限会社きりんコンタクトレンズ研究所,,有限会社,高知県,高知市,愛宕町３丁目９番１９号,,39,201,7800051,,,2025-03-05,清算の結了等,,,2015-10-05,1,,,,,,0
323,2010001008353,登記記録の閉鎖等,0,2025-03-07,2025-02-20,渡辺海外起業株式会社,,株式会社,東京都,文京区,千駄木３丁目２８番９－４０２号,,13,105,1130022,,,2025-02-20,清算の結了等,,,2015-10-05,1,,,,,ワタナベカイガイキギョウ,0
328,2010001096885,登記記録の閉鎖等,0,2025-03-07,2025-02-20,株式会社ケイプラネット,,株式会社,東京都,中央区,八丁堀１丁目１番３号協栄八重洲ビル５階,,13,102,1040032,,,2025-02-20,清算の結了等,,,2015-10-05,1,,,,,ケイプラネット,0
330,2010001199242,登記記録の閉鎖等,0,2025-03-07,2025-02-20,株式会社Ｃｒｅａｊｏｙ,,株式会社,東京都,文京区,根津２丁目２０番１号ＡＢＣビル,,13,105,1130031,,,2025-02-20,清算の結了等,,,2019-03-14,1,,,,,クレアジョイ,0
333,2010001202682,登記記録の閉鎖等,0,2025-03-07,2025-03-05,株式会社ＣＳＤ,,株式会社,東京都,中野区,東中野１丁目５７番７号,,13,114,1640003,,,2025-03-05,清算の結了等,,,2019-07-26,1,,,,,シーエスディー,0
334,2010001238520,登記記録の閉鎖等,0,2025-03-07,2025-02-19,ＤＴＢ第一号株式会社,,株式会社,東京都,千代田区,大手町１丁目９番６号,,13,101,1000004,,,2025-02-19,清算の結了等,,,2023-09-19,1,,,,,ディーティービーダイイチゴウ,0
342,2010003041682,登記記録の閉鎖等,0,2025-03-07,2025-02-19,ＤＴＢ第二号合同会社,,合同会社,東京都,千代田区,大手町１丁目９番６号,,13,101,1000004,,,2025-02-19,清算の結了等,,,2023-09-19,1,,,,,ディーティービーダイニゴウ,0
425,2013401007296,登記記録の閉鎖等,0,2025-03-07,2025-03-05,株式会社ゼネラルスタッフ第三,,株式会社,東京都,稲城市,若葉台３丁目１２番１号,,13,225,2060824,,,2025-03-05,合併による解散等,6110001027934,令和７年３月１日新潟市西区小新五丁目６番９号株式会社ゼネラルスタッフ第一（6110001027934）に合併し解散,2015-10-05,1,,,,,ゼネラルスタッフダイサン,0
427,2020001032443,登記記録の閉鎖等,0,2025-03-07,2025-02-26,株式会社イヌイコーポレーション,,株式会社,神奈川県,横浜市瀬谷区,三ツ境１２９番地の３,,14,114,2460022,,,2025-02-26,清算の結了等,,,2015-10-05,1,,,,,イヌイコーポレーション,0
435,2021001059501,登記記録の閉鎖等,0,2025-03-07,2025-02-21,飛揚株式会社,,株式会社,神奈川県,横浜市西区,北幸１丁目１１－１水信ビル７Ｆ,,14,103,2200004,,,2025-02-21,清算の結了等,,,2016-06-08,1,,,,,ヒヨウ,0
436,2021001072850,登記記録の閉鎖等,0,2025-03-07,2025-02-27,株式会社恒久,,株式会社,神奈川県,綾瀬市,上土棚中３丁目３番４１号,,14,218,2521113,,,2025-02-27,清算の結了等,,,2021-05-11,1,,,,,,0
447,2030001124033,登記記録の閉鎖等,0,2025-03-07,2025-03-05,フロイデ株式会社,,株式会社,埼玉県,加須市,駒場４３９番地７,,11,210,3491214,,,2025-03-05,合併による解散等,8070001021592,令和７年２月２８日群馬県邑楽郡板倉町大字下五箇１８６５番地ウム・ヴェルト株式会社（8070001021592）に合併し解散,2018-01-29,1,,,,,フロイデ,0
452,2040001071357,登記記録の閉鎖等,0,2025-03-07,2025-03-03,京成タクシーあたご株式会社,,株式会社,千葉県,野田市,上花輪１２９５番地３,,12,208,2780033,,,2025-03-03,合併による解散等,8040001035372,令和７年３月１日千葉県松戸市金ケ作４０８番地３５７京成タクシーウエスト株式会社（8040001035372）に合併し解散,2015-10-05,1,,,,,ケイセイタクシーアタゴ,0
453,2040001096222,登記記録の閉鎖等,0,2025-03-07,2025-02-28,株式会社三栄総建,,株式会社,千葉県,富津市,二間塚１６３９番地２５,00124016,12,226,2930002,,,2025-02-28,清算の結了等,,,2016-07-22,1,,,,,,0
463,2040003025682,登記記録の閉鎖等,0,2025-03-07,2025-02-28,Ｓｔａｒ　Ｔｒａｎｓ合同会社,,合同会社,千葉県,千葉市稲毛区,小仲台２丁目６－１,,12,103,2630043,,,2025-02-28,清算の結了等,,,2024-08-27,1,,,,,スタートランス,0
486,2110002009266,登記記録の閉鎖等,0,2025-03-07,2025-03-03,有限会社ぱすてる,,有限会社,新潟県,新潟市中央区,鐙西１丁目７番２号２,,15,103,9500915,,,2025-03-03,合併による解散等,4110001028802,令和７年３月１日新潟県長岡市希望が丘二丁目４番２号株式会社こころＬＣ（4110001028802）に合併し解散,2015-10-05,1,,,,,パステル,0
491,2120001129155,登記記録の閉鎖等,0,2025-03-07,2025-03-03,株式会社エース・フィールド,,株式会社,大阪府,大阪市中央区,南船場２丁目１０番２８号下村ビル７０３号室,,27,128,5420081,,,2025-03-03,清算の結了等,,,2015-10-05,1,,,,,エースフィールド,0
498,2120001194991,登記記録の閉鎖等,0,2025-03-07,2025-03-03,株式会社Ｄ．Ｋ　Ｉｎｔｅｒｎａｔｉｏｎａｌ,,株式会社,大阪府,大阪市北区,堂島浜１丁目１番８号,,27,127,5300004,,,2025-03-03,合併による解散等,4120001109650,令和７年３月１日大阪市北区堂島浜一丁目１番８号株式会社角屋（4120001109650）に合併し解散,2015-12-10,1,,,,,ディーケーインターナショナル,0
499,2120001210096,登記記録の閉鎖等,0,2025-03-07,2025-03-05,マスターズレジデンシャル株式会社,,株式会社,大阪府,大阪市中央区,伏見町４丁目２番１４号,,27,128,5410044,,,2025-03-05,清算の結了等,,,2017-12-14,1,,,,,マスターズレジデンシャル,0
500,2120001210286,登記記録の閉鎖等,0,2025-03-07,2025-02-28,株式会社フォレスト,,株式会社,大阪府,大阪市都島区,大東町１丁目９番１５号,,27,102,5340002,,,2025-02-28,清算の結了等,,,2017-12-21,1,,,,,フォレスト,0
511,2120101020668,登記記録の閉鎖等,0,2025-03-07,2025-02-28,株式会社マサダ,,株式会社,大阪府,大阪市天王寺区,筆ケ崎町５番３９－２５０６号,,27,109,5430027,,,2025-02-28,清算の結了等,,,2015-10-05,1,,,,,マサダ,0
515,2130001019248,登記記録の閉鎖等,0,2025-03-07,2025-03-06,株式会社ラ・メール,,株式会社,京都府,京都市下京区,五条通室町西入る東錺屋町１７１番地,,26,106,6000000,,,2025-03-06,清算の結了等,,,2015-10-05,1,,,,,,0
531,2150002001426,登記記録の閉鎖等,0,2025-03-07,2025-03-04,有限会社ハッスル,,有限会社,奈良県,奈良市,東登美ヶ丘６丁目２７番１３号,,29,201,6310002,,,2025-03-04,合併による解散等,2220001008745,令和７年２月２８日石川県白山市松本町２５１２番地株式会社クスリのアオキ（2220001008745）に合併し解散,2015-10-05,1,,,,,ハッスル,0
553,2200001001041,登記記録の閉鎖等,0,2025-03-07,2025-03-04,金園自動車工業株式会社,,株式会社,岐阜県,岐阜市,東栄町５丁目９番地,,21,201,5008144,,,2025-03-04,清算の結了等,,,2015-10-05,1,,,,,カナゾノジドウシャコウギョウ,0
555,2200002012434,登記記録の閉鎖等,0,2025-03-07,2025-03-05,有限会社大垣写真製版,,有限会社,岐阜県,大垣市,三津屋町５丁目４番地の２,,21,202,5030012,,,2025-03-05,清算の結了等,,,2015-10-05,1,,,,,オオガキシャシンセイハン,0
562,2220002006624,登記記録の閉鎖等,0,2025-03-07,2025-03-03,株式会社コニファー,,株式会社,富山県,魚津市,本江１丁目２６番地,,16,204,9370805,,,2025-03-03,合併による解散等,9230002007929,令和７年３月１日富山県魚津市本江一丁目２６番地株式会社ハピネス（9230002007929）に合併し解散,2015-10-05,1,,,,,コニファー,0
565,2230001014981,登記記録の閉鎖等,0,2025-03-07,2025-03-03,サクラワークス株式会社,,株式会社,富山県,富山市,高木３０００番地,,16,201,9300106,,,2025-03-03,合併による解散等,2230001001030,令和７年３月１日富山市高木３０００番地サクラパックス株式会社（2230001001030）に合併し解散,2015-10-05,1,,,,,サクラワークス,0
590,2290002052471,登記記録の閉鎖等,0,2025-03-07,2025-02-21,ダイワ・メンテナンス・サービス有限会社,,有限会社,福岡県,久留米市,善導寺町与田４７番地１０,,40,203,8390823,,,2025-02-21,清算の結了等,,,2015-10-05,1,,,,,ダイワメンテナンスサービス,0
607,2360005006731,登記記録の閉鎖等,0,2025-03-07,2025-03-06,一般社団法人アジア沖縄・ウクライナ医療支援協会,,その他の設立登記法人,沖縄県,那覇市,首里当蔵町２丁目６８番地２,,47,201,9030812,,,2025-03-06,清算の結了等,,,2022-11-02,1,,,,,アジアオキナワウクライナイリョウシエンキョウカイ,0
613,2370302001285,登記記録の閉鎖等,0,2025-03-07,2025-02-06,有限会社渋谷産業,,有限会社,宮城県,石巻市,中島字向平畑一番１０３番地,,04,202,9860103,,,2025-02-06,清算の結了等,,,2015-10-05,1,,,,,シブヤサンギョウ,0
615,2390001010073,登記記録の閉鎖等,0,2025-03-07,2025-02-03,株式会社ソルテック,,株式会社,山形県,米沢市,八幡原２丁目４６９８番地の５,,06,202,9921128,,,2025-02-03,合併による解散等,4390001002705,令和７年１月１日山形市鋳物町３６番地株式会社サンエー（4390001002705）に合併し解散,2015-10-05,1,,,,,ソルテック,0
622,2420001011258,登記記録の閉鎖等,0,2025-03-07,2025-03-03,株式会社諏訪辺興業,,株式会社,青森県,上北郡六戸町,大字折茂字今熊２４７番３７７,,02,405,0330072,,,2025-03-03,清算の結了等,,,2015-10-05,1,,,,,スワベコウギョウ,0
638,2500005000760,登記記録の閉鎖等,0,2025-03-07,2025-03-03,医療法人中田胃腸科放射線科,,その他の設立登記法人,愛媛県,松山市,南久米町５６３番地,,38,201,7900924,,,2025-03-03,清算の結了等,,,2015-10-05,1,,,,,ナカタイチョウカホウシャセンカ,0
641,3010001014755,登記記録の閉鎖等,0,2025-03-07,2025-02-20,株式会社極光,,株式会社,東京都,渋谷区,神宮前２丁目７番７号,,13,113,1500001,,,2025-02-20,合併による解散等,7010001013456,令和７年２月２０日東京都渋谷区神宮前二丁目７番７号オーロラ株式会社（7010001013456）に合併し解散,2015-10-05,1,,,,,キョッコウ,0
659,3010401159522,登記記録の閉鎖等,0,2025-03-07,2025-02-26,株式会社ＴＥＮＫ,,株式会社,神奈川県,中郡大磯町,国府本郷１５３－Ａ１０１,,14,341,2590111,,,2025-02-26,清算の結了等,,,2021-04-09,1,,,,,テンク,0
667,3010405021595,登記記録の閉鎖等,0,2025-03-07,2025-02-14,カメリア特定目的会社,,その他の設立登記法人,東京都,港区,虎ノ門５丁目１番４号,,13,103,1050001,,,2025-02-14,清算の結了等,,,2022-11-18,1,,,,,カメリア,0
673,3010801013196,登記記録の閉鎖等,0,2025-03-07,2025-02-25,株式会社アンティ・ケア,,株式会社,東京都,大田区,南千束１丁目３４番５号反町ビル２０１,,13,111,1450063,,,2025-02-25,清算の結了等,,,2015-10-05,1,,,,,アンティケア,0
706,3011801005992,登記記録の閉鎖等,0,2025-03-07,2025-03-05,株式会社伊東製作所,,株式会社,東京都,足立区,千住緑町２丁目２２番１２号,,13,121,1200044,,,2025-03-05,清算の結了等,,,2015-10-05,1,,,,,イトウセイサクショ,0
709,3012301000006,登記記録の閉鎖等,0,2025-03-07,2025-03-04,アイワコンピューター株式会社,,株式会社,東京都,町田市,森野４丁目１７番２３号,,13,209,1940022,,,2025-03-04,清算の結了等,,,2015-10-05,1,,,,,アイワコンピューター,0
710,3012701017590,登記記録の閉鎖等,0,2025-03-07,2025-02-28,美倫株式会社,,株式会社,東京都,小平市,鈴木町２丁目１９８－２カエサル花小金井１０３号室,,13,211,1870011,,,2025-02-28,清算の結了等,,,2023-04-12,1,,,,,ミリン,0
714,3013102007033,登記記録の閉鎖等,0,2025-03-07,2025-03-03,有限会社奥富製作所,,有限会社,東京都,青梅市,御岳本町２４０番地の１２,,13,205,1980173,,,2025-03-03,清算の結了等,,,2015-10-05,1,,,,,オクトミセイサクショ,0
723,3020001101338,登記記録の閉鎖等,0,2025-03-07,2025-02-26,株式会社キャビン,,株式会社,神奈川県,横浜市都筑区,見花山３０番７号,,14,118,2240066,,,2025-02-26,清算の結了等,,,2015-10-05,1,,,,,キャビン,0
742,3030001092139,登記記録の閉鎖等,0,2025-03-07,2025-03-03,株式会社エヌエスアール,,株式会社,埼玉県,熊谷市,石原２丁目１番地,,11,202,3600816,,,2025-03-03,合併による解散等,7030001119029,令和７年３月１日埼玉県熊谷市石原二丁目１番地株式会社ジーエスアール（7030001119029）に合併し解散,2015-10-05,1,,,,,エヌエスアール,0
766,3040002091790,登記記録の閉鎖等,0,2025-03-07,2025-02-28,みのり産業有限会社,,有限会社,茨城県,鉾田市,上沢１０６２－１７,,08,234,3112111,,,2025-02-28,清算の結了等,,,2015-10-05,1,,,,,ミノリサンギョウ,0
792,3110005015847,登記記録の閉鎖等,0,2025-03-07,2025-03-03,特定非営利活動法人あおぞらＹＯＧＡ,,その他の設立登記法人,新潟県,新発田市,佐々木１９９４番地１,,15,206,9570082,,,2025-03-03,清算の結了等,,,2016-01-04,1,,,,,アオゾラヨガ,0
795,3120001145606,登記記録の閉鎖等,0,2025-03-07,2025-03-03,株式会社インテリジェンス,,株式会社,大阪府,大阪市西区,靱本町１丁目４番１７号ＡＣＮ信濃橋ビル７階,,27,106,5500004,,,2025-03-03,合併による解散等,3180001070889,令和７年３月１日大阪市西区靱本町一丁目４番１７号ＡＣＮ信濃橋ビル７階Ｔａｉｋｏｈ　Ｈｏｌｄｉｎｇｓ株式会社（3180001070889）に合併し解散,2015-10-05,1,,,,,インテリジェンス,0
804,3120001229862,登記記録の閉鎖等,0,2025-03-07,2025-03-03,アサヱ株式会社,,株式会社,大阪府,門真市,舟田町５５番２４号,,27,223,5710021,,,2025-03-03,清算の結了等,,,2020-06-26,1,,,,,アサヱ,0
841,3180001090210,登記記録の閉鎖等,0,2025-03-07,2025-03-03,株式会社ゼロプランニング,,株式会社,愛知県,岩倉市,中央町３丁目５１番地山尚ビル１Ｆ,,23,228,4820023,,,2025-03-03,清算の結了等,,,2015-10-05,1,,,,,ゼロプランニング,0
849,3180002007601,登記記録の閉鎖等,0,2025-03-07,2025-03-03,有限会社石橋,,有限会社,愛知県,名古屋市昭和区,山里町６７番地,,23,107,4660824,,,2025-03-03,清算の結了等,,,2015-10-05,1,,,,,イシバシ,0
866,3240002016216,登記記録の閉鎖等,0,2025-03-07,2025-03-03,有限会社緑大橋薬局,,有限会社,広島県,広島市西区,観音町６番２号,,34,104,7330031,,,2025-03-03,清算の結了等,,,2015-10-05,1,,,,,ミドリオオハシヤッキョク,0
886,3320001010839,登記記録の閉鎖等,0,2025-03-07,2025-03-05,地方卸売市場中津大同青果株式会社,,株式会社,大分県,中津市,丸山町５３番地,,44,203,8710047,,,2025-03-05,清算の結了等,,,2015-10-05,1,,,,,チホウオロシウリイチバナカツダイドウセイカ,0
890,3340002000267,登記記録の閉鎖等,0,2025-03-07,2025-03-04,有限会社立山椅子店,,有限会社,鹿児島県,鹿児島市,油須木町１５３番地１６,,46,201,8911104,,,2025-03-04,清算の結了等,,,2015-10-05,1,,,,,タチヤマイステン,0
898,3370201003068,登記記録の閉鎖等,0,2025-03-07,2025-02-28,高征建設株式会社,,株式会社,宮城県,栗原市,栗駒菱沼鹿島８番地の１,,04,213,9895323,,,2025-02-28,清算の結了等,,,2015-10-05,1,,,,,タカセイケンセツ,0
902,3390001008372,登記記録の閉鎖等,0,2025-03-07,2025-03-03,株式会社茶勘製菓,,株式会社,山形県,鶴岡市,宝田１丁目４番２５号,,06,203,9970011,,,2025-03-03,合併による解散等,9390001007542,令和７年３月１日山形県鶴岡市宝田一丁目４番２５号株式会社清川屋（9390001007542）に合併し解散,2015-10-05,1,,,,,チャカンセイカ,0
935,4010003014637,登記記録の閉鎖等,0,2025-03-07,2025-02-19,合同会社エムズプラネット,,合同会社,東京都,中央区,東日本橋１丁目９番１１号,,13,102,1030004,,,2025-02-19,清算の結了等,,,2015-10-05,1,,,,,エムズプラネット,0
939,4010101011841,登記記録の閉鎖等,0,2025-03-07,2025-03-05,株式会社ベルズエンタプライズコーポレーション,,株式会社,東京都,八王子市,大塚２８９番地７１,,13,201,1920352,,,2025-03-05,清算の結了等,,,2015-10-05,1,,,,,,0
955,4010402006326,登記記録の閉鎖等,0,2025-03-07,2025-02-17,有限会社新東京歯科補綴研究所,00050897,有限会社,東京都,港区,西新橋１丁目２２番７号丸万７号館６Ｆ,,13,103,1050003,,,2025-02-17,清算の結了等,,,2015-10-05,1,,,,,シントウキョウシカホテツケンキュウジョ,0
971,4011001066075,登記記録の閉鎖等,0,2025-03-07,2025-02-26,株式会社Ｓｏｌｓｔｉｃｅ　Ｊａｐａｎ,,株式会社,神奈川県,川崎市高津区,新作４丁目２１番２０－４０７号,,14,134,2130014,,,2025-02-26,清算の結了等,,,2015-10-05,1,,,,,ソルティスジャパン,0
972,4011001101071,登記記録の閉鎖等,0,2025-03-07,2025-02-25,株式会社東京ライヴズ,,株式会社,東京都,渋谷区,東３丁目１５番９号,,13,113,1500011,,,2025-02-25,清算の結了等,,,2015-10-05,1,,,,,トウキョウライヴズ,0
973,4011001102326,登記記録の閉鎖等,0,2025-03-07,2025-03-05,株式会社Ｇｌｏｂａｌ　Ｍａｎａｇｅｍｅｎｔ,,株式会社,東京都,品川区,西五反田６丁目２番７号,,13,109,1410031,,,2025-03-05,合併による解散等,1110001007362,令和７年３月１日新潟県新潟市秋葉区美幸町三丁目２番２５号株式会社ワールドラボ（1110001007362）に合併し解散,2015-10-05,1,,,,,グローバルマネージメント,0
979,4011101034709,登記記録の閉鎖等,0,2025-03-07,2025-03-04,株式会社エスアールエル・メディサーチ,,株式会社,東京都,新宿区,西新宿２丁目１番１号,,13,104,1600023,,,2025-03-04,合併による解散等,5012801000222,令和７年１月３１日東京都港区赤坂一丁目８番１号株式会社エスアールエル（5012801000222）に合併し解散,2015-10-05,1,,,,,エスアールエルメディサーチ,0
982,4011401005368,登記記録の閉鎖等,0,2025-03-07,2025-02-28,株式会社ヒガシヤデリカ,,株式会社,東京都,板橋区,宮本町３８番８号,,13,119,1740054,,,2025-02-28,清算の結了等,,,2015-10-05,1,,,,,ヒガシヤデリカ,0
989,4012302005515,登記記録の閉鎖等,0,2025-03-07,2025-03-04,有限会社ジースリージャパン,,有限会社,東京都,町田市,上小山田町４４９番地５５,,13,209,1940201,,,2025-03-04,清算の結了等,,,2015-10-05,1,,,,,ジースリージャパン,0
996,4013102007858,登記記録の閉鎖等,0,2025-03-07,2025-03-04,有限会社松栄,,有限会社,東京都,青梅市,友田町１丁目８４８－３番地,,13,205,1980051,,,2025-03-04,清算の結了等,,,2015-10-05,1,,,,,ショウエイ,0
1005,4020005005856,登記記録の閉鎖等,0,2025-03-07,2025-02-21,特定非営利活動法人ハンドドライブ・クロス協会,,その他の設立登記法人,神奈川県,横浜市中区,山下町１番地シルクセンター９１８号,,14,104,2310023,,,2025-02-21,清算の結了等,,,2015-10-05,1,,,,,ハンドドライブクロスキョウカイ,0
1014,4021003011342,登記記録の閉鎖等,0,2025-03-07,2025-03-05,合同会社ベントーブックスジャパン,,合同会社,神奈川県,厚木市,林２丁目３７－５,,14,212,2430816,,,2025-03-05,清算の結了等,,,2022-01-28,1,,,,,,0
1019,4030001113059,登記記録の閉鎖等,0,2025-03-07,2025-03-04,株式会社シャララウッド,,株式会社,埼玉県,白岡市,彦兵衛８５番地６３,,11,246,3490224,,,2025-03-04,清算の結了等,,,2016-03-01,1,,,,,シャララウッド,0
1025,4040001050879,登記記録の閉鎖等,0,2025-03-07,2025-03-03,京成タクシーかずさ株式会社,,株式会社,千葉県,木更津市,潮浜２丁目１番３５,,12,206,2920838,,,2025-03-03,合併による解散等,7040001045182,令和７年３月１日千葉県成田市寺台２７５番３京成タクシーイースト株式会社（7040001045182）に合併し解散,2015-10-05,1,,,,,ケイセイタクシーカズサ,0
1030,4040002071767,登記記録の閉鎖等,0,2025-03-07,2025-02-28,有限会社谷口工務店,,有限会社,千葉県,木更津市,富士見１丁目５番１６号,,12,206,2920831,,,2025-02-28,清算の結了等,,,2015-10-05,1,,,,,タニグチコウムテン,0
1038,4050001022910,登記記録の閉鎖等,0,2025-03-07,2025-03-03,株式会社油屋運送,,株式会社,茨城県,日立市,久慈町６丁目４１番１号,,08,202,3191222,,,2025-03-03,清算の結了等,,,2015-10-05,1,,,,,アブラヤウンソウ,0
1047,4070002010334,登記記録の閉鎖等,0,2025-03-07,2025-03-05,有限会社清水電業社,,有限会社,群馬県,高崎市,石原町１１５６番地,,10,202,3700864,,,2025-03-05,清算の結了等,,,2015-10-05,1,,,,,シミズデンギョウシャ,0
1059,4080401016113,登記記録の閉鎖等,0,2025-03-07,2025-03-06,兼子建設株式会社,,株式会社,静岡県,磐田市,加茂１２３１番地の２,,22,211,4380804,,,2025-03-06,清算の結了等,,,2015-10-05,1,,,,,カネコケンセツ,0
1080,4120001161016,登記記録の閉鎖等,0,2025-03-07,2025-02-28,株式会社サントマリー,,株式会社,大阪府,大阪市浪速区,立葉１丁目３番１８号,,27,111,5560020,,,2025-02-28,合併による解散等,5122001013732,令和７年２月２８日大阪市城東区諏訪四丁目１０番２号株式会社ＯＦＦＩＣＥ幸貴（5122001013732）に合併し解散,2015-10-05,1,,,,,サントマリー,0
1081,4120001208782,登記記録の閉鎖等,0,2025-03-07,2025-02-28,株式会社ホーム・リスターズ,,株式会社,大阪府,大阪市天王寺区,勝山１丁目５番５号,,27,109,5430043,,,2025-02-28,清算の結了等,,,2017-10-17,1,,,,,ホームリスターズ,0
1085,4120001237014,登記記録の閉鎖等,0,2025-03-07,2025-03-03,ＴＯＫＩＮＯ　ＡＩＭＳ株式会社,,株式会社,大阪府,門真市,末広町３６番１０号アドラブール古川橋ウエスト,,27,223,5710030,,,2025-03-03,合併による解散等,6120001168430,令和７年３月１日大阪府門真市末広町３６番１０号アドラブール古川橋ウエストトキノ株式会社（6120001168430）に合併し解散,2021-04-26,1,,,,,トキノエイムズ,0
1102,4120901023728,登記記録の閉鎖等,0,2025-03-07,2025-02-28,国土ハウス株式会社,,株式会社,大阪府,豊中市,野田町５番３２号,,27,203,5610855,,,2025-02-28,清算の結了等,,,2015-10-05,1,,,,,コクドハウス,0
1108,4130001000833,登記記録の閉鎖等,0,2025-03-07,2025-03-03,嵯峨野住宅株式会社,,株式会社,京都府,京都市右京区,太秦棚森町１０番地,,26,108,6168141,,,2025-03-03,清算の結了等,,,2017-11-20,1,,,,,サガノジュウタク,0
1110,4130001074506,登記記録の閉鎖等,0,2025-03-07,2025-02-18,ＪＥＳ株式会社,,株式会社,東京都,中央区,日本橋兜町１７－１日本橋ロイヤルプラザ８１７号室,,13,102,1030026,,,2025-02-18,清算の結了等,,,2023-06-09,1,,,,,ジェイイーエス,0
1112,4130003008288,登記記録の閉鎖等,0,2025-03-07,2025-03-03,合同会社ＴＡＫＡ,,合同会社,京都府,京都市右京区,西京極南大入町８６番地１,,26,108,6150883,,,2025-03-03,清算の結了等,,,2022-11-09,1,,,,,タカ,0
1116,4140001078324,登記記録の閉鎖等,0,2025-03-07,2025-02-28,株式会社児島工作所,,株式会社,兵庫県,伊丹市,伊丹８丁目３番２３号,,28,207,6640846,,,2025-02-28,清算の結了等,,,2015-10-05,1,,,,,コジマコウサクショ,0
1121,4140002068092,登記記録の閉鎖等,0,2025-03-07,2025-02-28,有限会社グローバルインベスト,,有限会社,兵庫県,宝塚市,小林２丁目８番１１,,28,214,6650034,,,2025-02-28,清算の結了等,,,2015-10-05,1,,,,,グローバルインベスト,0
1126,4180001017930,登記記録の閉鎖等,0,2025-03-07,2025-02-28,株式会社野田,,株式会社,愛知県,名古屋市東区,泉１丁目１０番２１号,,23,102,4610001,,,2025-02-28,清算の結了等,,,2015-10-05,1,,,,,ノダ,0
1158,4290001079571,登記記録の閉鎖等,0,2025-03-07,2025-02-25,西日本トラスト販売株式会社,,株式会社,福岡県,福岡市城南区,神松寺３丁目６番３６－５２１号,,40,136,8140121,,,2025-02-25,清算の結了等,,,2017-11-07,1,,,,,ニシニホントラストハンバイ,0
1163,4290801012244,登記記録の閉鎖等,0,2025-03-07,2025-02-21,株式会社ＭＯＴＥＮＡ‐Ｓｅａ,,株式会社,東京都,千代田区,神田錦町２丁目２番地１,,13,101,1010054,,,2025-02-21,合併による解散等,1010001074512,令和７年２月２０日東京都千代田区神田錦町二丁目２番地１商船三井テクノトレード株式会社（1010001074512）に合併し解散,2015-10-05,1,,,,,モテナシー,0
1178,4370001022003,登記記録の閉鎖等,0,2025-03-07,2025-03-03,伊東テクノサービス株式会社,,株式会社,宮城県,仙台市泉区,松森字斉兵衛３６番地の１,,04,105,9813111,,,2025-03-03,合併による解散等,2370001000480,令和７年３月１日宮城県仙台市泉区市名坂字竹内１０５番地の９伊東工業株式会社（2370001000480）に合併し解散,2015-10-05,1,,,,,イトウテクノサービス,0
1234,5010401046215,登記記録の閉鎖等,0,2025-03-07,2025-02-17,株式会社イルレガロ,,株式会社,東京都,港区,南麻布４丁目１３番７号,,13,103,1060047,,,2025-02-17,清算の結了等,,,2015-10-05,1,,,,,イルレガロ,0
1255,5010901030379,登記記録の閉鎖等,0,2025-03-07,2025-02-25,株式会社東京ハウス,,株式会社,東京都,渋谷区,東３丁目１５番９号,,13,113,1500011,,,2025-02-25,清算の結了等,,,2015-10-05,1,,,,,トウキョウハウス,0
1261,5011001047264,登記記録の閉鎖等,0,2025-03-07,2025-02-25,株式会社リアルスタンダード,,株式会社,東京都,渋谷区,桜丘町３０－４渋谷アジアマンション２０４,,13,113,1500031,,,2025-02-25,清算の結了等,,,2015-10-05,1,,,,,リアルスタンダード,0
1286,5011205001876,登記記録の閉鎖等,0,2025-03-07,2025-03-05,特定非営利活動法人ギフテッド研究所,,その他の設立登記法人,東京都,中野区,中央１丁目３８番１号アクロスシティ中野坂上ビル２Ｆ,,13,114,1640011,,,2025-03-05,清算の結了等,,,2015-10-05,1,,,,,ギフテッドケンキュウジョ,0
1290,5011501001729,登記記録の閉鎖等,0,2025-03-07,2025-03-03,株式会社坂井製作所,,株式会社,東京都,北区,堀船３丁目２７番１５号,,13,117,1140004,,,2025-03-03,清算の結了等,,,2015-10-05,1,,,,,サカイセイサクショ,0
1304,5020001035749,登記記録の閉鎖等,0,2025-03-07,2025-02-27,エス・ゼット・ケイ・エンタープライズ株式会社,,株式会社,神奈川県,横浜市青葉区,青葉台２丁目３０番地６－３０９,,14,117,2270062,,,2025-02-27,清算の結了等,,,2015-10-05,1,,,,,エスゼットケイエンタープライズ,0
1332,5040002006994,登記記録の閉鎖等,0,2025-03-07,2025-02-28,有限会社高千誉運輸,,有限会社,千葉県,千葉市若葉区,加曽利町１１９１番地６,,12,104,2640017,,,2025-02-28,清算の結了等,,,2015-10-05,1,,,,,タカチヨウンユ,0
1337,5050001035408,登記記録の閉鎖等,0,2025-03-07,2025-03-03,株式会社グローリー,,株式会社,茨城県,つくば市,みどりの１丁目２０番地４,,08,220,3050881,,,2025-03-03,清算の結了等,,,2015-10-05,1,,,,,グローリー,0
1339,5050002032981,登記記録の閉鎖等,0,2025-03-07,2025-02-28,有限会社イケコークリーニング,,有限会社,茨城県,龍ケ崎市,４０５９番地,,08,208,3010000,,,2025-02-28,清算の結了等,,,2015-10-05,1,,,,,イケコークリーニング,0
1341,5060001013949,登記記録の閉鎖等,0,2025-03-07,2025-03-03,株式会社森のめぐみ工房とちぎ,,株式会社,栃木県,那須郡那須町,大字高久乙１８５７番地２,,09,407,3250303,,,2025-03-03,清算の結了等,,,2015-10-05,1,,,,,モリノメグミコウボウトチギ,0
1345,5070002025348,登記記録の閉鎖等,0,2025-03-07,2025-03-05,有限会社関東ワークヘルプ,,有限会社,群馬県,桐生市,相生町１丁目９６番地２８,,10,203,3760011,,,2025-03-05,合併による解散等,6070001017320,令和７年３月１日群馬県桐生市相生町一丁目９６番地２８株式会社ジョブ・ジョブ（6070001017320）に合併し解散,2015-10-05,1,,,,,カントウワークヘルプ,0
1351,5080402015740,登記記録の閉鎖等,0,2025-03-07,2025-02-27,有限会社ライフサイエンス,,有限会社,静岡県,浜松市浜名区,内野台２丁目３０番２号,,22,139,4340045,,,2025-02-27,清算の結了等,,,2015-10-05,1,,,,,ライフサイエンス,0
1364,5120001089157,登記記録の閉鎖等,0,2025-03-07,2025-03-03,株式会社べるアカツカ,,株式会社,大阪府,大阪市城東区,東中浜１丁目１番１７号,,27,118,5360023,,,2025-03-03,合併による解散等,8120001015044,令和７年３月１日大阪市城東区東中浜一丁目１１番５号株式会社シゲマツ（8120001015044）に合併し解散,2015-10-05,1,,,,,ベルアカツカ,0
1368,5120001248927,登記記録の閉鎖等,0,2025-03-07,2025-02-28,株式会社関西住宅,,株式会社,大阪府,大阪市中央区,平野町２丁目３番７号アーバンエース北浜ビル１階,,27,128,5410046,,,2025-02-28,合併による解散等,2120001182708,令和７年２月２８日大阪市中央区本町四丁目８番１号ＳＤ本町ビル７０２号株式会社ファルコン（2120001182708）に合併し解散,2022-09-20,1,,,,,カンサイジュウタク,0
1431,5230005004431,登記記録の閉鎖等,0,2025-03-07,2025-03-03,株式会社うなづき食工房,,株式会社,富山県,黒部市,宇奈月町下立２３６１番地１,,16,207,9380861,,,2025-03-03,合併による解散等,6230001018203,令和７年３月１日富山県黒部市宇奈月町下立３０８３番地株式会社ファームクリエイト黒部（6230001018203）に合併し解散,2015-10-05,1,,,,,ウナヅキショクコウボウ,0
1434,5240002053389,登記記録の閉鎖等,0,2025-03-07,2025-03-05,大洋工業有限会社,,有限会社,広島県,三原市,本郷南１丁目８番２２号,,34,204,7290417,,,2025-03-05,清算の結了等,,,2015-10-05,1,,,,,タイヨウコウギョウ,0
1457,5320001002883,登記記録の閉鎖等,0,2025-03-07,2025-03-04,株式会社ゆふいん牧場,,株式会社,大分県,大分市,大分流通業務団地１丁目３番６,,44,201,8700319,,,2025-03-04,合併による解散等,8320001015940,令和７年３月１日大分市大分流通業務団地一丁目３番６株式会社まるひで（8320001015940）に合併し解散,2015-10-05,1,,,,,ユフインボクジョウ,0
1460,5330002019752,登記記録の閉鎖等,0,2025-03-07,2025-03-03,有限会社第一事務機,,有限会社,熊本県,上益城郡御船町,大字御船１０４６番地,,43,441,8613207,,,2025-03-03,清算の結了等,,,2015-10-05,1,,,,,ダイイチジムキ,0
1488,5430002064474,登記記録の閉鎖等,0,2025-03-07,2025-03-03,有限会社大東電器店,,有限会社,北海道,室蘭市,輪西町２丁目１０番１０号,,01,205,0500085,,,2025-03-03,清算の結了等,,,2015-10-05,1,,,,,ダイトウデンキテン,0
1518,6010401176845,登記記録の閉鎖等,0,2025-03-07,2025-02-18,株式会社Ｓｏｍｅｏｎｅ　Ｓｐｅｃｉａｌ,,株式会社,東京都,港区,赤坂４丁目２番６号住友不動産新赤坂ビル５階,,13,103,1070052,,,2025-02-18,清算の結了等,,,2023-08-30,1,,,,,サムワンスペシャル,0
1525,6010405007195,登記記録の閉鎖等,0,2025-03-07,2025-02-17,特定非営利活動法人みどりの風,,その他の設立登記法人,東京都,港区,南青山２丁目１３－１０,,13,103,1070062,,,2025-02-17,清算の結了等,,,2015-10-05,1,,,,,ミドリノカゼ,0
1533,6010801023374,登記記録の閉鎖等,0,2025-03-07,2025-02-26,株式会社イーエムイニシアティブ,,株式会社,東京都,大田区,田園調布南１３番９－４０４号,,13,111,1450076,,,2025-02-26,清算の結了等,,,2015-10-05,1,,,,,イーエムイニシアティブ,0
1535,6010803004892,登記記録の閉鎖等,0,2025-03-07,2025-02-27,ａｒｍｙ合同会社,,合同会社,東京都,大田区,大森北５丁目１６番１－２１０号,,13,111,1430016,,,2025-02-27,清算の結了等,,,2024-03-25,1,,,,,アーミー,0
1567,6011801028149,登記記録の閉鎖等,0,2025-03-07,2025-02-28,ティエムワン株式会社,,株式会社,福岡県,北九州市小倉北区,下富野３丁目９番３号,,40,106,8020023,,,2025-02-28,清算の結了等,,,2015-10-05,1,,,,,ティエムワン,0
1569,6011801042892,登記記録の閉鎖等,0,2025-03-07,2025-03-03,株式会社ＮＮＬ電気,,株式会社,埼玉県,白岡市,白岡９０６番地１６,,11,246,3490218,,,2025-03-03,清算の結了等,,,2023-08-17,1,,,,,エヌエヌエルデンキ,0
1578,6013303003076,登記記録の閉鎖等,0,2025-03-07,2025-02-21,合同会社ＦＴＲ,,合同会社,東京都,豊島区,南大塚２丁目１１番１０号ミモザビル３階,,13,116,1700005,,,2025-02-21,清算の結了等,,,2015-12-24,1,,,,,エフティーアール,0
1629,6100005005524,登記記録の閉鎖等,0,2025-03-07,2025-03-04,特定非営利活動法人北信州・ふるさと古民家を住み継ぐ会,,その他の設立登記法人,長野県,中野市,大字永江４２６９番地１,,20,211,3892104,,,2025-03-04,清算の結了等,,,2015-10-05,1,,,,,キタシンシュウフルサトコミンカヲスミツグカイ,0
1632,6120001007051,登記記録の閉鎖等,0,2025-03-07,2025-03-03,株式会社エヌ・ディ・クリエイション,,株式会社,大阪府,大阪市中央区,高麗橋４丁目６番２０号,,27,128,5410043,,,2025-03-03,合併による解散等,5120001007052,令和７年２月２８日大阪市中央区高麗橋四丁目６番２０号株式会社エヌ・エス・ディ（5120001007052）に合併し解散,2015-10-05,1,,,,,エヌディクリエイション,0
1633,6120001050274,登記記録の閉鎖等,0,2025-03-07,2025-03-03,株式会社中村機械製作所,,株式会社,大阪府,大阪市西淀川区,御幣島２丁目２番２７号,,27,113,5550012,,,2025-03-03,清算の結了等,,,2015-10-05,1,,,,,ナカムラキカイセイサクショ,0
1634,6120001115085,登記記録の閉鎖等,0,2025-03-07,2025-03-05,株式会社阪急フーズ,,株式会社,大阪府,大阪市北区,角田町８番７号,,27,127,5300017,,,2025-03-05,清算の結了等,,,2015-10-05,1,,,,,ハンキュウフーズ,0
1688,6180001126779,登記記録の閉鎖等,0,2025-03-07,2025-03-04,株式会社ファームアンド,,株式会社,愛知県,名古屋市西区,名駅２丁目２７番８号名古屋プライムセントラルタワー,,23,104,4510045,,,2025-03-04,合併による解散等,6180001068113,令和７年３月１日名古屋市西区名駅二丁目２７番８号名古屋プライムセントラルタワー株式会社アメーバホールディングス（6180001068113）に合併し解散,2017-03-03,1,,,,,ファームアンド,0
1706,6200005001843,登記記録の閉鎖等,0,2025-03-07,2025-03-03,岐阜中央信用組合,,その他の設立登記法人,岐阜県,岐阜市,神田町８丁目２６番地,,21,201,5008833,,,2025-03-03,清算の結了等,,,2015-10-05,1,,,,,ギフチュウオウ,0
1707,6200005013013,登記記録の閉鎖等,0,2025-03-07,2025-03-05,弁護士法人すみよし法律事務所,,その他の設立登記法人,岐阜県,岐阜市,茜部寺屋敷２丁目１３番地１５,,21,201,5008267,,,2025-03-05,清算の結了等,,,2019-12-27,1,,,,,スミヨシホウリツジムショ,0
1711,6230001007536,登記記録の閉鎖等,0,2025-03-07,2025-03-03,博洋漁業株式会社,,株式会社,富山県,下新川郡入善町,高畠３８１番地,,16,342,9390666,,,2025-03-03,合併による解散等,4230005007848,令和７年３月１日富山県下新川郡入善町高畠３８１番地博洋丸漁業株式会社（4230005007848）に合併し解散,2015-10-05,1,HAKUYO GYOGYO KABUSHIKI KAISHA,Toyama,"381, Takabatake, Nyuzen machi Shimoniikawa gun",,ハクヨウギョギョウ,0
1717,6250002002229,登記記録の閉鎖等,0,2025-03-07,2025-03-03,有限会社エイワークス,,有限会社,山口県,山口市,小郡みらい町１丁目１番１６号,,35,203,7540032,,,2025-03-03,清算の結了等,,,2015-10-05,1,,,,,エイワークス,0
1719,6260001030155,登記記録の閉鎖等,0,2025-03-07,2025-03-06,株式会社アニラボ,,株式会社,岡山県,岡山市南区,浦安西町１３５－１８,,33,104,7028025,,,2025-03-06,清算の結了等,,,2016-11-10,1,,,,,,0
1725,6290001005014,登記記録の閉鎖等,0,2025-03-07,2025-02-28,株式会社栄光,,株式会社,福岡県,福岡市早良区,西新３丁目１１番２７号,,40,137,8140002,,,2025-02-28,清算の結了等,,,2015-10-05,1,,,,,エイコウ,0
1726,6290001091153,登記記録の閉鎖等,0,2025-03-07,2025-02-21,株式会社田中工業,,株式会社,福岡県,福岡市早良区,早良４丁目６番２５号,,40,137,8111122,,,2025-02-21,清算の結了等,,,2020-12-03,1,,,,,タナカコウギョウ,0
1744,6330003006658,登記記録の閉鎖等,0,2025-03-07,2025-02-28,合同会社Ｔ’ｓ　ｃｏｍｐａｎｙ,,合同会社,熊本県,熊本市中央区,出水２丁目１番８－２０３号,,43,101,8620941,,,2025-02-28,清算の結了等,,,2016-03-28,1,,,,,ティーズカンパニー,0
1752,6350005004443,登記記録の閉鎖等,0,2025-03-07,2025-02-25,西諸地区素材生産事業協同組合,,その他の設立登記法人,宮崎県,小林市,細野２８４５番地７,,45,205,8860004,,,2025-02-25,清算の結了等,,,2015-10-05,1,,,,,ニシモロチクソザイセイサン,0
1759,6390001008221,登記記録の閉鎖等,0,2025-03-07,2025-03-03,株式会社ネット清川屋,,株式会社,山形県,鶴岡市,宝田１丁目４番２５号,,06,203,9970011,,,2025-03-03,合併による解散等,9390001007542,令和７年３月１日山形県鶴岡市宝田一丁目４番２５号株式会社清川屋（9390001007542）に合併し解散,2015-10-05,1,,,,,ネットキヨカワヤ,0
1776,6460002004633,登記記録の閉鎖等,0,2025-03-07,2025-03-06,有限会社ヤマヒロ池田興産,,有限会社,北海道,厚岸郡厚岸町,白浜１丁目７４番地,,01,662,0881125,,,2025-03-06,清算の結了等,,,2015-10-05,1,,,,,ヤマヒロイケダコウサン,0
1786,7010001106598,登記記録の閉鎖等,0,2025-03-07,2025-02-18,株式会社デジタルトレック,,株式会社,東京都,港区,南青山２丁目２番１５号,,13,103,1070062,,,2025-02-18,清算の結了等,,,2015-10-05,1,,,,,デジタルトレック,0
1819,7010403027665,登記記録の閉鎖等,0,2025-03-07,2025-02-19,Ｇｏ　Ｃｉｔｙ合同会社,,合同会社,東京都,中央区,日本橋３丁目９番１号日本橋三丁目スクエア１１階,,13,102,1030027,,,2025-02-19,清算の結了等,,,2022-05-20,1,,,,,ゴーシティ,0
1854,7011102011167,登記記録の閉鎖等,0,2025-03-07,2025-02-26,有限会社フローラ,,有限会社,東京都,新宿区,富久町２１番１３号,,13,104,1620067,,,2025-02-26,清算の結了等,,,2015-10-05,1,,,,,フローラ,0
1855,7011103009689,登記記録の閉鎖等,0,2025-03-07,2025-03-03,ｋｅｍｕｒｉ　ｖｅｎｔｕｒｅｓ合同会社,,合同会社,東京都,新宿区,若宮町１０番地,,13,104,1620827,,,2025-03-03,合併による解散等,8011101035653,令和７年３月１日東京都新宿区若宮町１０番地ｋｅｍｕｒｉ　ｖｅｎｔｕｒｅｓ株式会社（8011101035653）に合併し解散,2020-05-15,1,,,,,ケムリベンチャーズ,0
1866,7011601025989,登記記録の閉鎖等,0,2025-03-07,2025-02-28,ニューロダイバーシティ株式会社,,株式会社,東京都,練馬区,小竹町２丁目４０番４号,,13,120,1760004,,,2025-02-28,清算の結了等,,,2022-05-30,1,,,,,ニューロダイバーシティ,0
1882,7020003020994,登記記録の閉鎖等,0,2025-03-07,2025-03-03,合同会社エディラボ,,合同会社,神奈川県,横浜市西区,北幸１丁目１１番５号,,14,103,2200004,,,2025-03-03,清算の結了等,,,2021-12-20,1,,,,,エディラボ,0
1893,7021002072283,登記記録の閉鎖等,0,2025-03-07,2025-03-06,有限会社石田デザイン事務所,,有限会社,神奈川県,厚木市,森の里４丁目９番４号,,14,212,2430122,,,2025-03-06,清算の結了等,,,2015-10-05,1,,,,,イシダデザインジムショ,0
1905,7040003006686,登記記録の閉鎖等,0,2025-03-07,2025-02-28,合同会社フューチャースカイ,,合同会社,千葉県,流山市,大字東深井１４番地の２６,,12,220,2700101,,,2025-02-28,清算の結了等,,,2015-10-05,1,,,,,フューチャースカイ,0
1911,7050005011980,登記記録の閉鎖等,0,2025-03-07,2025-02-27,一般社団法人里山,,その他の設立登記法人,茨城県,筑西市,玉戸５２番地,,08,227,3080847,,,2025-02-27,清算の結了等,,,2016-11-18,1,,,,,サトヤマ,0
1920,7070001035098,登記記録の閉鎖等,0,2025-03-07,2025-03-05,株式会社リホーム,,株式会社,群馬県,太田市,西矢島町６０７番地４,,10,205,3730823,,,2025-03-05,清算の結了等,,,2018-09-27,1,,,,,リホーム,0
1924,7080001023928,登記記録の閉鎖等,0,2025-03-07,2025-03-06,株式会社ＴＭＣ３３,,株式会社,静岡県,静岡市清水区,宮加三１１１５番地の２８,,22,103,4240911,,,2025-03-06,清算の結了等,,,2021-01-06,1,,,,,ティーエムシーサンジュウサン,0
1926,7080002011510,登記記録の閉鎖等,0,2025-03-07,2025-03-05,有限会社山名屋,,有限会社,静岡県,静岡市清水区,港町２丁目６番１号,,22,103,4240943,,,2025-03-05,清算の結了等,,,2015-10-05,1,,,,,ヤマナヤ,0
1928,7080402016349,登記記録の閉鎖等,0,2025-03-07,2025-02-28,有限会社京鈴,,有限会社,静岡県,浜松市天竜区,二俣町二俣１６０３番地２４,,22,140,4313314,,,2025-02-28,清算の結了等,,,2015-10-05,1,,,,,キョウスズ,0
1929,7080403003239,登記記録の閉鎖等,0,2025-03-07,2025-03-03,合同会社鈴浜,,合同会社,静岡県,浜松市中央区,和田町２３５番地,,22,138,4350016,,,2025-03-03,合併による解散等,7080403004006,令和７年３月１日静岡県浜松市中央区丸塚町７２番地の１アルファ合同会社（7080403004006）に合併し解散,2016-02-25,1,,,,,スズハマ,0
1935,7100002003678,登記記録の閉鎖等,0,2025-03-07,2025-02-28,有限会社長野パーレック,,有限会社,長野県,長野市,大字南長野新田町１４５８番地メゾンフォンテーヌ３ＦーＣ,,20,201,3800835,,,2025-02-28,清算の結了等,,,2024-11-29,1,,,,,ナガノパーレック,0
1953,7120101036420,登記記録の閉鎖等,0,2025-03-07,2025-03-03,株式会社ガーネット,,株式会社,大阪府,岸和田市,春木宮本町９番４号,,27,202,5960025,,,2025-03-03,清算の結了等,,,2015-10-05,1,,,,,ガーネット,0
1975,7150001001348,登記記録の閉鎖等,0,2025-03-07,2025-03-05,株式会社大和技研,,株式会社,奈良県,奈良市,田中町３００番地,,29,201,6308432,,,2025-03-05,清算の結了等,,,2015-10-05,1,,,,,ダイワギケン,0
1979,7160001000506,登記記録の閉鎖等,0,2025-03-07,2025-03-05,株式会社かたおか住設機器,,株式会社,滋賀県,大津市,黒津２丁目１６番２８号,,25,201,5202279,,,2025-03-05,清算の結了等,,,2015-10-05,1,,,,,カタオカジュウセツキキ,0
1983,7180001064887,登記記録の閉鎖等,0,2025-03-07,2025-03-03,株式会社アンビション,,株式会社,愛知県,名古屋市東区,代官町１３番３号,,23,102,4610002,,,2025-03-03,清算の結了等,,,2015-10-05,1,,,,,アンビション,0
1984,7180001070407,登記記録の閉鎖等,0,2025-03-07,2025-03-03,株式会社アクラデザイン＆アソシエイツ,,株式会社,愛知県,名古屋市東区,東桜２丁目６番４３号センチュリーステイツ高岳４０４,,23,102,4610005,,,2025-03-03,清算の結了等,,,2015-10-05,1,,,,,アクラデザインアンドアソシエイツ,0
1994,7180003023718,登記記録の閉鎖等,0,2025-03-07,2025-02-28,合同会社いろどり,,合同会社,愛知県,津島市,大字津島字北新開２２６番地１,,23,208,4960027,,,2025-02-28,清算の結了等,,,2022-04-18,1,,,,,イロドリ,0
2015,7240005001582,登記記録の閉鎖等,0,2025-03-07,2025-03-06,学校法人ゆうき学園,,その他の設立登記法人,広島県,広島市東区,戸坂大上４丁目１２番１５号,,34,102,7320014,,,2025-03-06,清算の結了等,,,2015-10-05,1,,,,,ユウキガクエン,0
2022,7260002004859,登記記録の閉鎖等,0,2025-03-07,2025-03-04,有限会社しんせいビル管理,,有限会社,岡山県,岡山市北区,蕃山町１番４号,,33,101,7000818,,,2025-03-04,清算の結了等,,,2015-10-05,1,,,,,,0
2024,7270002006169,登記記録の閉鎖等,0,2025-03-07,2025-02-28,有限会社住吉中央マンション,00004347,有限会社,鳥取県,米子市,上後藤１丁目５番１５号,,31,202,6830841,,,2025-02-28,清算の結了等,,,2015-10-05,1,,,,,スミヨシチュウオウマンション,0
2025,7270003001251,登記記録の閉鎖等,0,2025-03-07,2025-03-06,Ｄ．Ｉ．Ｙ　ＣＬＡＲＵＳ合同会社,,合同会社,鳥取県,米子市,新開７丁目８番３３号,,31,202,6830801,,,2025-03-06,清算の結了等,,,2020-09-14,1,,,,,ディーアイワイクラリス,0
2028,7290001005161,登記記録の閉鎖等,0,2025-03-07,2025-02-26,光洋産業株式会社,,株式会社,福岡県,福岡市早良区,重留４丁目２番６３号,,40,137,8111101,,,2025-02-26,清算の結了等,,,2015-10-05,1,,,,,コウヨウサンギョウ,0
2030,7290001077184,登記記録の閉鎖等,0,2025-03-07,2025-02-25,株式会社Ｏｒｉｊｅｎ　ＪＡＰＡＮ,,株式会社,福岡県,福岡市南区,鶴田４丁目３番１８号４階,,40,134,8111352,,,2025-02-25,清算の結了等,,,2017-03-22,1,,,,,オリジンジャパン,0
2039,7290002045173,登記記録の閉鎖等,0,2025-03-07,2025-02-25,有限会社ユイジャポン,,有限会社,福岡県,飯塚市,横田５８５－１花瀬おやまビル１－Ａ,,40,205,8200044,,,2025-02-25,清算の結了等,,,2015-10-05,1,,,,,ユイジャポン,0
2052,7320002017920,登記記録の閉鎖等,0,2025-03-07,2025-03-05,有限会社スナック一家,,有限会社,大分県,竹田市,大字竹田町１５９番地,,44,208,8780012,,,2025-03-05,清算の結了等,,,2015-10-05,1,,,,,,0
2057,7350001018297,登記記録の閉鎖等,0,2025-03-07,2025-03-03,株式会社ＮＯＵＧＹＯ,,株式会社,宮崎県,都城市,梅北町６９０２番地６,,45,202,8850063,,,2025-03-03,清算の結了等,,,2023-04-27,1,,,,,ノウギョウ,0
2062,7370001047385,登記記録の閉鎖等,0,2025-03-07,2025-02-26,株式会社Ｓｕｃｃｅｓｓ　Ｓｅｅｄ,,株式会社,宮城県,仙台市泉区,泉中央１丁目４２番地の５,,04,105,9813133,,,2025-02-26,合併による解散等,7370001025424,令和７年２月２５日仙台市泉区紫山三丁目７番地の８株式会社Ｗｅｌｌｎｅｓｓ　Ｌｉｎｋ（7370001025424）に合併し解散,2021-07-30,1,,,,,サクセスシード,0
2066,7390002009358,登記記録の閉鎖等,0,2025-03-07,2025-03-04,有限会社サン薬局,,有限会社,山形県,鶴岡市,本町３丁目７番８７号,,06,203,9970034,,,2025-03-04,清算の結了等,,,2015-10-05,1,,,,,サンヤッキョク,0
2068,7410002006674,登記記録の閉鎖等,0,2025-03-07,2025-03-03,有限会社齋藤商店,,有限会社,秋田県,由利本荘市,中梵天２１番地の１,,05,210,0150851,,,2025-03-03,清算の結了等,,,2015-10-05,1,,,,,サイトウショウテン,0
2079,8010001063582,登記記録の閉鎖等,0,2025-03-07,2025-02-20,株式会社コルドナータ,,株式会社,東京都,渋谷区,神宮前２丁目７番７号,,13,113,1500001,,,2025-02-20,合併による解散等,7010001013456,令和７年２月２０日東京都渋谷区神宮前二丁目７番７号オーロラ株式会社（7010001013456）に合併し解散,2015-10-05,1,,,,,コルドナータ,0
2085,8010001223649,登記記録の閉鎖等,0,2025-03-07,2025-02-19,ＲＥＭＥＤ　ＪＡＰＡＮ株式会社,,株式会社,東京都,文京区,湯島３丁目３１番１号中川ビル４０１号室,,13,105,1130034,,,2025-02-19,清算の結了等,,,2022-01-12,1,,,,,リーメドジャパン,0
2094,8010003032263,登記記録の閉鎖等,0,2025-03-07,2025-02-13,合同会社ジオストリート,,合同会社,東京都,千代田区,神田錦町３丁目２１－１０７７,,13,101,1010054,,,2025-02-13,清算の結了等,,,2020-05-20,1,,,,,ジオストリート,0
2101,8010401058554,登記記録の閉鎖等,0,2025-03-07,2025-02-14,株式会社ツボヤマ・コーポレーシヨン,,株式会社,東京都,港区,六本木７丁目１４番６号六本木ＦＦビル,,13,103,1060032,,,2025-02-14,清算の結了等,,,2015-10-05,1,,,,,ツボヤマコーポレーション,0
2119,8010701014109,登記記録の閉鎖等,0,2025-03-07,2025-03-04,株式会社日映企画,,株式会社,東京都,杉並区,和泉１丁目１３番２１号,,13,115,1680063,,,2025-03-04,清算の結了等,,,2015-10-05,1,,,,,ニチエイキカク,0
2123,8010801024049,登記記録の閉鎖等,0,2025-03-07,2025-02-25,株式会社イデアル,,株式会社,東京都,大田区,西蒲田４丁目３１番１４－２０４号,,13,111,1440051,,,2025-02-25,清算の結了等,,,2015-10-05,1,,,,,イデアル,0
2126,8010805002554,登記記録の閉鎖等,0,2025-03-07,2025-02-25,一般社団法人大森スポーツコミュニティ,,その他の設立登記法人,東京都,大田区,大森北５丁目１０番１５号ＴＳビル３Ｆ,,13,111,1430016,,,2025-02-25,清算の結了等,,,2018-04-05,1,,,,,オオモリスポーツコミュニティ,0
2152,8011601018471,登記記録の閉鎖等,0,2025-03-07,2025-03-04,ライフソリューションズ株式会社,,株式会社,東京都,練馬区,練馬１丁目２０番２号,,13,120,1760001,,,2025-03-04,清算の結了等,,,2015-10-05,1,,,,,ライフソリューションズ,0
2171,8020001022513,登記記録の閉鎖等,0,2025-03-07,2025-02-19,株式会社永和運輸,,株式会社,神奈川県,横浜市神奈川区,羽沢町字綿打１６８８,,14,102,2210863,,,2025-02-19,清算の結了等,,,2015-10-05,1,,,,,エイワウンユ,0
2181,8021001064066,登記記録の閉鎖等,0,2025-03-07,2025-03-05,株式会社Ｓｉｓｔｅｒｓ,,株式会社,神奈川県,平塚市,真田４丁目３３番３号,,14,203,2591206,,,2025-03-05,清算の結了等,,,2018-02-02,1,,,,,シスターズ,0
2201,8040001066698,登記記録の閉鎖等,0,2025-03-07,2025-03-03,京成タクシー東葛株式会社,,株式会社,千葉県,我孫子市,我孫子３丁目１番１５号,,12,222,2701166,,,2025-03-03,合併による解散等,8040001035372,令和７年３月１日千葉県松戸市金ケ作４０８番地３５７京成タクシーウエスト株式会社（8040001035372）に合併し解散,2015-10-05,1,,,,,ケイセイタクシートウカツ,0
2203,8040002027625,登記記録の閉鎖等,0,2025-03-07,2025-02-28,有限会社ＣＯＲＥ　ＬＩＮＥ,,有限会社,千葉県,船橋市,東船橋６丁目２番３号,,12,204,2730002,,,2025-02-28,清算の結了等,,,2015-10-05,1,,,,,コアライン,0
2270,8140002021485,登記記録の閉鎖等,0,2025-03-07,2025-03-03,有限会社魚新,,有限会社,兵庫県,神戸市長田区,腕塚町７丁目３番１２号,,28,106,6530036,,,2025-03-03,清算の結了等,,,2015-10-05,1,,,,,ウオシン,0
2274,8160003001848,登記記録の閉鎖等,0,2025-03-07,2025-03-03,合同会社ＣＯＮＮＹ　ＪＡＰＡＮ,,合同会社,滋賀県,彦根市,長曽根南町５５０ー３,,25,202,5220052,,,2025-03-03,清算の結了等,,,2019-06-11,1,,,,,,0
2284,8180002019237,登記記録の閉鎖等,0,2025-03-07,2025-02-28,有限会社フジヤマ,,有限会社,愛知県,清須市,阿原神門２２０番地Ｐｒｏｆｉｔ２２０Ｂ,,23,233,4520901,,,2025-02-28,清算の結了等,,,2015-10-05,1,,,,,フジヤマ,0
2288,8190001010880,登記記録の閉鎖等,0,2025-03-07,2025-03-04,株式会社川北,,株式会社,三重県,多気郡多気町,土羽７５３番地４,,24,441,5192161,,,2025-03-04,清算の結了等,,,2015-10-05,1,,,,,カワキタ,0
2296,8240001042761,登記記録の閉鎖等,0,2025-03-07,2025-03-03,株式会社Ｗｉｔｈ　Ｄｏｇ＆Ｃｏｍｐａｎｙ,,株式会社,東京都,練馬区,豊玉北５丁目７番１３－８０４号,,13,120,1760012,,,2025-03-03,清算の結了等,,,2015-10-05,1,,,,,ウィズドッグアンドカンパニー,0
2300,8240002046662,登記記録の閉鎖等,0,2025-03-07,2025-03-04,有限会社エフ・アイ・ジイ,,有限会社,広島県,府中市,本山町５３０番地の１８４,,34,208,7260001,,,2025-03-04,清算の結了等,,,2015-10-05,1,,,,,エフアイジイ,0
2302,8250002020435,登記記録の閉鎖等,0,2025-03-07,2025-03-03,有限会社ニイナ,,有限会社,山口県,柳井市,新庄２０００番地２７,,35,212,7420033,,,2025-03-03,清算の結了等,,,2015-10-05,1,,,,,ニイナ,0
2311,8290803001596,登記記録の閉鎖等,0,2025-03-07,2025-03-03,合同会社アジア・ビューティ・サービス,,合同会社,福岡県,行橋市,中央２丁目３番５号,,40,213,8240005,,,2025-03-03,合併による解散等,9290802022510,令和７年３月１日福岡県行橋市中央二丁目３番７号株式会社ＺＥＲＯ　ＰＬＵＳ（9290802022510）に合併し解散,2015-10-05,1,,,,,アジアビューティサービス,0
2334,8410002010114,登記記録の閉鎖等,0,2025-03-07,2025-03-03,有限会社アイ・パール,,有限会社,秋田県,能代市,東町２番２３号,,05,202,0160822,,,2025-03-03,清算の結了等,,,2015-10-05,1,,,,,アイパール,0
2343,8430001084149,登記記録の閉鎖等,0,2025-03-07,2025-03-06,株式会社ｔｏｒｉｍｕｒｉｒｉｔｙ,,株式会社,北海道,江別市,あけぼの町１９番地の５,,01,217,0670025,,,2025-03-06,清算の結了等,,,2021-05-26,1,,,,,トリムリリティ,0
2349,8460002001637,登記記録の閉鎖等,0,2025-03-07,2025-03-03,有限会社竹川商店,,有限会社,北海道,釧路市,新橋大通８丁目１番１号,,01,206,0850046,,,2025-03-03,合併による解散等,9460001001199,令和７年３月１日北海道釧路市新橋大通八丁目１番１号東洋不動産株式会社（9460001001199）に合併し解散,2015-10-05,1,,,,,タケカワショウテン,0
2357,9010001121281,登記記録の閉鎖等,0,2025-03-07,2025-02-14,株式会社アイビーリーフ,,株式会社,東京都,千代田区,飯田橋４丁目１番１０号,,13,101,1020072,,,2025-02-14,清算の結了等,,,2015-10-05,1,,,,,アイビーリーフ,0
2366,9010002035687,登記記録の閉鎖等,0,2025-03-07,2025-02-19,有限会社和樹,,有限会社,東京都,中央区,銀座７丁目８番１４号,,13,102,1040061,,,2025-02-19,清算の結了等,,,2015-10-05,1,,,,,カズキ,0
2393,9010703006103,登記記録の閉鎖等,0,2025-03-07,2025-02-14,イノモティクス合同会社,,合同会社,東京都,港区,港南２丁目１６－１,,13,103,1080075,,,2025-02-14,清算の結了等,,,2022-02-07,1,,,,,イノモティクス,0
2396,9010805002306,登記記録の閉鎖等,0,2025-03-07,2025-02-26,一般社団法人久が原介護者サロン虹,,その他の設立登記法人,東京都,大田区,久が原３丁目２８番５号,,13,111,1460085,,,2025-02-26,清算の結了等,,,2015-10-05,1,,,,,クガハラカイゴシャサロンニジ,0
2397,9010805002553,登記記録の閉鎖等,0,2025-03-07,2025-02-25,一般社団法人フットサル・フューチャー・ジャパン,,その他の設立登記法人,東京都,大田区,大森北５丁目１０番１５号ＴＳビル３Ｆ,,13,111,1430016,,,2025-02-25,清算の結了等,,,2018-04-05,1,,,,,フットサルフューチャージャパン,0
2399,9011001059322,登記記録の閉鎖等,0,2025-03-07,2025-02-25,株式会社ＴＯＫＵＹＡ,,株式会社,東京都,渋谷区,本町６丁目１５番１８号,,13,113,1510071,,,2025-02-25,清算の結了等,,,2015-10-05,1,,,,,トクヤ,0
2418,9011801006110,登記記録の閉鎖等,0,2025-03-07,2025-02-27,株式会社岩上鉄工所,,株式会社,千葉県,浦安市,舞浜３丁目１７番１０号,,12,227,2790031,,,2025-02-27,清算の結了等,,,2015-10-05,1,,,,,イワガミテッコウジョ,0
2427,9012703001991,登記記録の閉鎖等,0,2025-03-07,2025-03-04,ＪＩＮＤＯ合同会社,,合同会社,東京都,東久留米市,本町２丁目２－１９武蔵野サンハイツ１０５号室,,13,222,2030053,,,2025-03-04,清算の結了等,,,2020-07-08,1,,,,,ジンド,0
2446,9030002004962,登記記録の閉鎖等,0,2025-03-07,2025-03-03,有限会社小峰電機商会,,有限会社,埼玉県,さいたま市浦和区,常盤６丁目３番２号,,11,107,3300061,,,2025-03-03,清算の結了等,,,2015-10-05,1,,,,,コミネデンキショウカイ,0
2448,9040001046617,登記記録の閉鎖等,0,2025-03-07,2025-03-03,京成タクシー佐倉株式会社,,株式会社,千葉県,佐倉市,太田２３０６番地の４,,12,212,2850808,,,2025-03-03,合併による解散等,7040001045182,令和７年３月１日千葉県成田市寺台２７５番３京成タクシーイースト株式会社（7040001045182）に合併し解散,2015-10-05,1,,,,,ケイセイタクシーサクラ,0
2449,9040001055543,登記記録の閉鎖等,0,2025-03-07,2025-02-28,株式会社ＡＤボイス,,株式会社,千葉県,千葉市中央区,末広２丁目１３番１号,,12,101,2600843,,,2025-02-28,清算の結了等,,,2015-10-05,1,,,,,エーディボイス,0
2473,9080401013659,登記記録の閉鎖等,0,2025-03-07,2025-02-28,株式会社ノア・サポート,,株式会社,静岡県,掛川市,大坂６７１１番地の１,,22,213,4371421,,,2025-02-28,清算の結了等,,,2015-10-05,1,,,,,ノアサポート,0
2530,9140001075936,登記記録の閉鎖等,0,2025-03-07,2025-02-28,村岡電装株式会社,,株式会社,兵庫県,西脇市,上戸田２０２番地８,,28,213,6770035,,,2025-02-28,清算の結了等,,,2015-10-05,1,,,,,ムラオカデンソウ,0
2535,9140002010891,登記記録の閉鎖等,0,2025-03-07,2025-03-03,有限会社エステ美容研究所,,有限会社,兵庫県,神戸市兵庫区,塚本通７丁目３番５号,,28,105,6520804,,,2025-03-03,清算の結了等,,,2015-10-05,1,,,,,エステビヨウケンキュウショ,0
2543,9180001092234,登記記録の閉鎖等,0,2025-03-07,2025-03-03,株式会社中日工務店,,株式会社,愛知県,知多郡武豊町,字向陽１丁目１７番地の１,,23,447,4702357,,,2025-03-03,合併による解散等,5180001093921,令和７年３月１日愛知県知多郡武豊町字向陽一丁目１７番地１株式会社中日ホーム（5180001093921）に合併し解散,2015-10-05,1,,,,,チュウニチコウムテン,0
2594,9290003012113,登記記録の閉鎖等,0,2025-03-07,2025-02-25,デジタルブリッジ合同会社,,合同会社,福岡県,福岡市博多区,博多駅前３丁目７番３５号博多ハイテックビル５０５,,40,132,8120011,,,2025-02-25,清算の結了等,,,2022-02-15,1,,,,,デジタルブリッジ,0
2618,9370002009894,登記記録の閉鎖等,0,2025-03-07,2025-03-03,有限会社エス企画,,有限会社,宮城県,仙台市青葉区,本町１丁目１３番２５号ＮＪ本町ビル,,04,101,9800014,,,2025-03-03,清算の結了等,,,2015-10-05,1,,,,,エスキカク,0
2620,9390002002988,登記記録の閉鎖等,0,2025-03-07,2025-03-03,有限会社ジェイアット,,有限会社,山形県,山形市,平清水１丁目１１番２３号,,06,201,9902401,,,2025-03-03,清算の結了等,,,2015-10-05,1,,,,,,0
2628,9430001091862,登記記録の閉鎖等,0,2025-03-07,2025-02-28,ＷＯＲＬＤ　ＥＳＴＡＴＥ株式会社,,株式会社,北海道,札幌市中央区,大通西１８丁目１番地１４藪商事ビル３Ｆ,,01,101,0600042,,,2025-02-28,合併による解散等,3430001075565,令和７年２月８日札幌市中央区大通西十八丁目１－１４－３階株式会社ＷＯＲＬＤ　ＥＳＴＡＴＥ（3430001075565）に合併し解散,2024-05-23,1,,,,,ワールドエステート,0
2634,9460002005356,登記記録の閉鎖等,0,2025-03-07,2025-03-06,有限会社栄実,,有限会社,北海道,釧路市,鳥取北９丁目１８番７号,,01,206,0840907,,,2025-03-06,清算の結了等,,,2015-10-05,1,,,,,エイジツ,0
2638,9470002008696,登記記録の閉鎖等,0,2025-03-07,2025-03-03,有限会社ケイ・ツープロジェクト,,有限会社,愛知県,名古屋市西区,那古野１丁目１６番１５号,,23,104,4510042,,,2025-03-03,合併による解散等,6180001065110,令和７年２月２７日名古屋市西区那古野一丁目１６番１５号株式会社オフィス二一グループ（6180001065110）に合併し解散,2015-10-05,1,,,,,ケイツープロジェクト,0
2640,9470005003224,登記記録の閉鎖等,0,2025-03-07,2025-03-03,特定非営利活動法人和の会,,その他の設立登記法人,香川県,善通寺市,原田町７３４番地２,,37,204,7650032,,,2025-03-03,清算の結了等,,,2015-10-05,1,,,,,ワノカイ,0
2641,9490002009800,登記記録の閉鎖等,0,2025-03-07,2025-03-05,有限会社中平水産,,有限会社,高知県,土佐市,宇佐町宇佐１４５番地３,,39,205,7811161,,,2025-03-05,清算の結了等,,,2015-10-05,1,,,,,ナカヒラスイサン,0
2644,9500005003030,登記記録の閉鎖等,0,2025-03-07,2025-03-03,医療法人若宮診療所,,その他の設立登記法人,愛媛県,西予市,宇和町下松葉１４０番地５８,,38,214,7970018,,,2025-03-03,清算の結了等,,,2015-10-05,1,,,,,ワカミヤシンリョウショ,0
