sequenceNumber,corporateNumber,process,correct,updateDate,changeDate,name,nameImageId,kind,prefectureName,cityName,streetNumber,addressImageId,prefectureCode,cityCode,postCode,addressOutside,addressOutsideImageId,closeDate,closeCause,successorCorporateNumber,changeCause,assignmentDate,latest,enName,enPrefectureName,enCityName,enAddressOutside,furigana,hihyoji
11,1010001255657,新規,0,2025-06-06,2025-06-06,株式会社歴史研究機構,,株式会社,東京都,中央区,湊２丁目１１番１号,,13,102,1040043,,,,,,,2025-06-06,1,,,,,レキシケンキュウキコウ,0
12,1010001255673,新規,0,2025-06-06,2025-06-06,Ｌ＆Ｂホールディングス株式会社,,株式会社,東京都,千代田区,飯田橋４丁目４番８号２０１号室,,13,101,1020072,,,,,,,2025-06-06,1,,,,,エルアンドビーホールディングス,0
13,1010001255707,新規,0,2025-06-06,2025-06-06,ｒｅｖｉｂｅｓ株式会社,,株式会社,東京都,中央区,東日本橋３丁目９番２号サンクビル,,13,102,1030004,,,,,,,2025-06-06,1,,,,,リバイブス,0
16,1010003047557,新規,0,2025-06-06,2025-06-06,ＤＲＥＳ１合同会社,,合同会社,東京都,中央区,日本橋１丁目４番１号日本橋一丁目ビルディング,,13,102,1030027,,,,,,,2025-06-06,1,,,,,ドレスワン,0
17,1010005040155,新規,0,2025-06-06,2025-06-06,税理士法人いちから,,その他の設立登記法人,東京都,千代田区,内神田３丁目１７番８号小山第一ビル４階４０３号室,,13,101,1010047,,,,,,,2025-06-06,1,,,,,イチカラ,0
18,1010101016711,新規,0,2025-06-06,2025-06-06,東和建設株式会社,,株式会社,東京都,八王子市,千人町１丁目５番１２号,,13,201,1930835,,,,,,,2025-06-06,1,,,,,トウワケンセツ,0
24,1010401190776,新規,0,2025-06-06,2025-06-06,Ｍｅｇａｎｅ　ＡＩ株式会社,,株式会社,東京都,港区,六本木６丁目１０番１号六本木ヒルズ森タワー１６階,,13,103,1060032,,,,,,,2025-06-06,1,,,,,メガネエーアイ,0
25,1010401190792,新規,0,2025-06-06,2025-06-06,株式会社ｒｉｓｈ,,株式会社,東京都,港区,南青山３丁目８番７号クレアトゥール南青山４０２,,13,103,1070062,,,,,,,2025-06-06,1,,,,,リッシュ,0
26,1010401190801,新規,0,2025-06-06,2025-06-06,株式会社スマイルホールディングス,,株式会社,東京都,港区,新橋６丁目２０番４号新橋パインビル４階,,13,103,1050004,,,,,,,2025-06-06,1,,,,,スマイルホールディングス,0
27,1010401190818,新規,0,2025-06-06,2025-06-06,株式会社ｂｌａｎｃＨｅ,,株式会社,東京都,港区,南青山３丁目１番３６号青山丸竹ビル６Ｆ,,13,103,1070062,,,,,,,2025-06-06,1,,,,,ブランシェ,0
28,1010401190826,新規,0,2025-06-06,2025-06-06,ＭＣＰ３９株式会社,,株式会社,東京都,港区,元赤坂１丁目１番７－１２０９号株式会社赤坂国際会計内,,13,103,1070051,,,,,,,2025-06-06,1,,,,,エムシーピースリーナイン,0
33,1010501054170,新規,0,2025-06-06,2025-06-06,株式会社東山堂ミツボシグローバル,,株式会社,東京都,台東区,花川戸１丁目１１－６,,13,106,1110033,,,,,,,2025-06-06,1,,,,,トウザンドウミツボシグローバル,0
42,1010801036224,新規,0,2025-06-06,2025-06-06,株式会社湧月電工,,株式会社,東京都,大田区,南六郷２丁目２０番９号,,13,111,1440045,,,,,,,2025-06-06,1,,,,,ユウゲツデンコウ,0
43,1010803005391,新規,0,2025-06-06,2025-06-06,合同会社古川企画,,合同会社,東京都,大田区,大森南５丁目４番１７－３０５号モアステージ大森南,,13,111,1430013,,,,,,,2025-06-06,1,,,,,フルカワキカク,0
44,1010803005425,新規,0,2025-06-06,2025-06-06,Ｎｏｒｉｖａ合同会社,,合同会社,東京都,大田区,北糀谷２丁目９番９号,,13,111,1440032,,,,,,,2025-06-06,1,,,,,ノリヴァ,0
45,1010803005433,新規,0,2025-06-06,2025-06-06,ＡＢＣ合同会社,,合同会社,東京都,大田区,田園調布４丁目２１―１８,,13,111,1450071,,,,,,,2025-06-06,1,,,,,エービーシー,0
47,1010901057491,新規,0,2025-06-06,2025-06-06,ＴＭＫパートナーズ株式会社,,株式会社,東京都,世田谷区,松原２丁目２６番１５号,,13,112,1560043,,,,,,,2025-06-06,1,,,,,ティーエムケイパートナーズ,0
48,1010901057509,新規,0,2025-06-06,2025-06-06,株式会社キンダーヴィレ,,株式会社,東京都,世田谷区,太子堂４丁目１８番１５号,,13,112,1540004,,,,,,,2025-06-06,1,,,,,キンダーヴィレ,0
50,1010903009986,新規,0,2025-06-06,2025-06-06,ＥＭ　Ｅｓｔａｔｅ合同会社,,合同会社,東京都,世田谷区,砧４丁目２０番１６号,,13,112,1570073,,,,,,,2025-06-06,1,,,,,イーエムエステート,0
57,1011001169780,新規,0,2025-06-06,2025-06-06,カタチズム株式会社,,株式会社,東京都,目黒区,下目黒１丁目１番１４号コノトラビル７Ｆ,,13,110,1530064,,,,,,,2025-06-06,1,,,,,カタチズム,0
58,1011001170301,新規,0,2025-06-06,2025-06-06,株式会社いけちる,,株式会社,東京都,渋谷区,道玄坂１丁目１０番８号渋谷道玄坂東急ビル２Ｆ－Ｃ,,13,113,1500043,,,,,,,2025-06-06,1,,,,,イケチル,0
60,1011003021667,新規,0,2025-06-06,2025-06-06,合同会社Ｍｅａｌｉａ,,合同会社,東京都,渋谷区,道玄坂１丁目１０番８号渋谷道玄坂東急ビル２Ｆ－Ｃ,,13,113,1500043,,,,,,,2025-06-06,1,,,,,ミーリア,0
61,1011003021717,新規,0,2025-06-06,2025-06-06,ｓｏｆｔｄｒｅａｍ合同会社,,合同会社,東京都,渋谷区,東２丁目２７－１０,,13,113,1500011,,,,,,,2025-06-06,1,,,,,ソフトドリーム,0
62,1011003021857,新規,0,2025-06-06,2025-06-06,合同会社スクラムエージェント,,合同会社,東京都,渋谷区,千駄ヶ谷１丁目１９番１２－４０１号,,13,113,1510051,,,,,,,2025-06-06,1,,,,,スクラムエージェント,0
63,1011005011047,新規,0,2025-06-06,2025-06-06,エバーグリーン司法書士法人,,その他の設立登記法人,東京都,渋谷区,西原３丁目２１番７号メトロステージ代々木上原１０１,,13,113,1510066,,,,,,,2025-06-06,1,,,,,エバーグリーン,0
68,1011101111972,新規,0,2025-06-06,2025-06-06,株式会社ｓｏｌｚ,,株式会社,東京都,新宿区,歌舞伎町１丁目６番６号,,13,104,1600021,,,,,,,2025-06-06,1,,,,,ソルズ,0
69,1011101112054,新規,0,2025-06-06,2025-06-06,株式会社渦の杜,,株式会社,東京都,新宿区,西新宿３丁目３番１３号西新宿水間ビル２Ｆ,,13,104,1600023,,,,,,,2025-06-06,1,,,,,ウズノモリ,0
70,1011103015916,新規,0,2025-06-06,2025-06-06,合同会社ＺｅＲａ,,合同会社,東京都,新宿区,下落合４丁目２番１４号レリオン下落合１０１,,13,104,1610033,,,,,,,2025-06-06,1,,,,,ゼラ,0
76,1011601028700,新規,0,2025-06-06,2025-06-06,フルハウス株式会社,,株式会社,東京都,練馬区,春日町６丁目１６－１１フォーチュン光が丘２０２号室,,13,120,1790074,,,,,,,2025-06-06,1,,,,,フルハウス,0
78,1011701028402,新規,0,2025-06-06,2025-06-06,ＴＷコンサルティング株式会社,,株式会社,東京都,江戸川区,中葛西６丁目１８番１０号,,13,123,1340083,,,,,,,2025-06-06,1,,,,,ティーダブルコンサルティング,0
79,1011801046279,新規,0,2025-06-06,2025-06-06,ゴールドウェルスマネジメント株式会社,,株式会社,東京都,足立区,梅田８丁目１４番１－３２２号,,13,121,1230851,,,,,,,2025-06-06,1,,,,,ゴールドウェルスマネジメント,0
81,1012401043204,新規,0,2025-06-06,2025-06-06,株式会社ｙｏｕｋｉｍｉ　Ｔｅｃｈ,,株式会社,東京都,府中市,府中町２丁目９番地１－３１０,,13,206,1830055,,,,,,,2025-06-06,1,,,,,ユキミテック,0
91,1020001163264,新規,0,2025-06-06,2025-06-06,Ｉｎｖｉｎｃｉｂｌｅ　Ｄｙｎａｍｉｃｓ株式会社,,株式会社,神奈川県,横浜市西区,北幸２丁目１０番４８号むつみビル３階,,14,103,2200004,,,,,,,2025-06-06,1,,,,,インヴィンシブルダイナミクス,0
95,1020003028671,新規,0,2025-06-06,2025-06-06,合同会社ＴＳＵＢＵＳＡ,,合同会社,神奈川県,川崎市多摩区,枡形１丁目４番１３‐３０３号,,14,135,2140032,,,,,,,2025-06-06,1,,,,,ツブサ,0
102,1021001085440,新規,0,2025-06-06,2025-06-06,Ｐｌｕｍ　Ｔｏｗｎ株式会社,,株式会社,神奈川県,小田原市,中村原１１６番地の１４,,14,206,2560803,,,,,,,2025-06-06,1,,,,,プラムタウン,0
103,1021003016105,新規,0,2025-06-06,2025-06-06,合同会社スマイズアップ,,合同会社,神奈川県,藤沢市,円行１丁目６番地の１２,,14,205,2520805,,,,,,,2025-06-06,1,,,,,スマイズアップ,0
112,1030001166860,新規,0,2025-06-06,2025-06-06,株式会社Ｌｉｖｅ　Ｎａｔｕｒａｌ＆Ｃｏ,,株式会社,埼玉県,越谷市,大成町８丁目２５８１番地３,,11,222,3430825,,,,,,,2025-06-06,1,,,,,リブナチュラルアンドカンパニー,0
113,1030001166869,新規,0,2025-06-06,2025-06-06,豊之源株式会社,,株式会社,埼玉県,蕨市,南町３丁目５番９号ＢＯＡ２番館３０２号室,,11,223,3350003,,,,,,,2025-06-06,1,,,,,ホウノゲン,0
114,1030001166885,新規,0,2025-06-06,2025-06-06,株式会社トラスト・ドライブ,,株式会社,埼玉県,川口市,西川口６丁目７番３１号,,11,203,3320021,,,,,,,2025-06-06,1,,,,,トラストドライブ,0
115,1030001166935,新規,0,2025-06-06,2025-06-06,むびたまスタジオ株式会社,,株式会社,埼玉県,川口市,青木３丁目１７番１９号,,11,203,3320031,,,,,,,2025-06-06,1,,,,,ムビタマスタジオ,0
116,1030001166968,新規,0,2025-06-06,2025-06-06,株式会社尾島電工,,株式会社,埼玉県,川越市,新宿町６丁目１３番地３８,,11,201,3501124,,,,,,,2025-06-06,1,,,,,オジマデンコウ,0
117,1030001166992,新規,0,2025-06-06,2025-06-06,ＤＡＮＤＡＮ不動産株式会社,,株式会社,埼玉県,さいたま市緑区,馬場２丁目５番地４０,,11,109,3360912,,,,,,,2025-06-06,1,,,,,ダンダンフドウサン,0
120,1030003026906,新規,0,2025-06-06,2025-06-06,合同会社あかはま,,合同会社,埼玉県,大里郡寄居町,大字赤浜９７５番地３,,11,408,3691211,,,,,,,2025-06-06,1,,,,,アカハマ,0
121,1030003026947,新規,0,2025-06-06,2025-06-06,合同会社角田技研,,合同会社,埼玉県,草加市,旭町３丁目４番１７コスモスヴィレッジ２０２号,,11,221,3400053,,,,,,,2025-06-06,1,,,,,カクタギケン,0
125,1040001139072,新規,0,2025-06-06,2025-06-06,湯川音社株式会社,,株式会社,千葉県,船橋市,金杉９丁目１５－１６サクセス１番館１０２室,,12,204,2730853,,,,,,,2025-06-06,1,,,,,ユカワオンシャ,0
126,1040001139089,新規,0,2025-06-06,2025-06-06,株式会社あくび,,株式会社,千葉県,市原市,ちはら台南４丁目３番地５,,12,219,2900142,,,,,,,2025-06-06,1,,,,,アクビ,0
127,1040001139114,新規,0,2025-06-06,2025-06-06,株式会社ＳＴフィールド,,株式会社,千葉県,八千代市,勝田台７丁目３０番１３号,,12,221,2760023,,,,,,,2025-06-06,1,,,,,エスティーフィールド,0
128,1040005022794,新規,0,2025-06-06,2025-06-06,一般社団法人Ｇｉｚｏｋｕ,,その他の設立登記法人,千葉県,千葉市美浜区,真砂５丁目２街区サンコーポ検見川２－１０５,,12,106,2610011,,,,,,,2025-06-06,1,,,,,ギゾク,0
131,1070001042983,新規,0,2025-06-06,2025-06-06,株式会社ＴＣＳ,,株式会社,群馬県,邑楽郡板倉町,大字岩田２２５９番地４,,10,521,3740133,,,,,,,2025-06-06,1,,,,,ティーシーエス,0
132,1070001042991,新規,0,2025-06-06,2025-06-06,株式会社らいち美装,,株式会社,群馬県,桐生市,新里町鶴ヶ谷２３２番地１３,,10,203,3760132,,,,,,,2025-06-06,1,,,,,,0
133,1070001043008,新規,0,2025-06-06,2025-06-06,株式会社はぎわら工業,,株式会社,群馬県,安中市,松井田町人見１４３３番地２,,10,211,3790224,,,,,,,2025-06-06,1,,,,,ハギワラコウギョウ,0
138,1080001026977,新規,0,2025-06-06,2025-06-06,まるた望月株式会社,,株式会社,静岡県,静岡市清水区,由比１７４番１５号,,22,103,4213103,,,,,,,2025-06-06,1,,,,,マルタモチヅキ,0
139,1080103003346,新規,0,2025-06-06,2025-06-06,合同会社スリービーンズ,,合同会社,静岡県,沼津市,本錦町６８４番地３,,22,203,4100867,,,,,,,2025-06-06,1,,,,,スリービーンズ,0
146,1100003008203,新規,0,2025-06-06,2025-06-06,合同会社ＪｕｍｏｋｕｎｏＪｕ,,合同会社,長野県,東御市,本海野２３２番地,,20,219,3890518,,,,,,,2025-06-06,1,,,,,ジュモクノジュ,0
155,1120001276485,新規,0,2025-06-06,2025-06-06,ｙａｄｏｒｉ株式会社,,株式会社,大阪府,大阪市淀川区,三国本町２丁目９番２１号,,27,123,5320005,,,,,,,2025-06-06,1,,,,,ヤドリ,0
156,1120001276493,新規,0,2025-06-06,2025-06-06,株式会社プロスペリティ,,株式会社,大阪府,大阪市西区,北堀江１丁目１番７号四ツ橋日生ビル２１０,,27,106,5500014,,,,,,,2025-06-06,1,,,,,プロスペリティ,0
157,1120001276527,新規,0,2025-06-06,2025-06-06,株式会社ＣＲＡＰＳ,,株式会社,大阪府,守口市,寺内町２丁目１０番１２号フェルティシャトー守口５０２号室,,27,209,5700056,,,,,,,2025-06-06,1,,,,,クラップス,0
158,1120001276543,新規,0,2025-06-06,2025-06-06,株式会社Ｔｈｅｒａｐｉｓｔ　Ｅｎｇｌｉｓｈ,,株式会社,大阪府,大阪市北区,梅田１丁目２番２号大阪駅前第２ビル１２－１２,,27,127,5300001,,,,,,,2025-06-06,1,,,,,セラピストイングリッシュ,0
159,1120001276551,新規,0,2025-06-06,2025-06-06,格格駕到株式会社,,株式会社,大阪府,大阪市東住吉区,東田辺３丁目１－１－３Ｆ－Ｂ,,27,121,5460032,,,,,,,2025-06-06,1,,,,,カカガトウ,0
160,1120001276568,新規,0,2025-06-06,2025-06-06,Ｅｑｕａｌ株式会社,,株式会社,大阪府,枚方市,楠葉花園町５番４－１４１６号,,27,210,5731121,,,,,,,2025-06-06,1,,,,,イコール,0
161,1120001276592,新規,0,2025-06-06,2025-06-06,株式会社パストラル,,株式会社,大阪府,寝屋川市,点野１丁目１２－１,,27,215,5720077,,,,,,,2025-06-06,1,,,,,パストラル,0
162,1120001276601,新規,0,2025-06-06,2025-06-06,ＺＧＧＯ株式会社,,株式会社,大阪府,大阪市北区,本庄西２丁目８番１９号,,27,127,5310073,,,,,,,2025-06-06,1,,,,,ゼットジージーオー,0
163,1120001276642,新規,0,2025-06-06,2025-06-06,株式会社ＰＡＮアセットマネジメント,,株式会社,大阪府,大阪市中央区,東心斎橋１丁目８番１１－１６０１号,,27,128,5420083,,,,,,,2025-06-06,1,,,,,パンアセットマネジメント,0
164,1120003029569,新規,0,2025-06-06,2025-06-06,合同会社ＮＫ,,合同会社,大阪府,大阪市北区,西天満５丁目４番１３号ユリスト西天満ビル６Ｆ,,27,127,5300047,,,,,,,2025-06-06,1,,,,,エヌケイ,0
165,1120003029668,新規,0,2025-06-06,2025-06-06,ＡＣクリエイト合同会社,,合同会社,大阪府,大阪市中央区,南船場３丁目２番２２号おおきに南船場ビル２０５,,27,128,5420081,,,,,,,2025-06-06,1,,,,,エーシークリエイト,0
166,1120003029676,新規,0,2025-06-06,2025-06-06,ＤＮＴ合同会社,,合同会社,大阪府,大阪市中央区,常盤町１丁目１－９－４０２,,27,128,5400028,,,,,,,2025-06-06,1,,,,,ディーエヌティー,0
168,1120101071844,新規,0,2025-06-06,2025-06-06,株式会社ＹＳＫ‐ＴＥＣ,,株式会社,大阪府,堺市中区,深井中町１１４２番地１０,,27,142,5998272,,,,,,,2025-06-06,1,,,,,ワイエスケーテック,0
174,1122001039310,新規,0,2025-06-06,2025-06-06,株式会社ＲＡＴＥＬＷＯＲＫＳ,,株式会社,大阪府,東大阪市,渋川町１丁目１４番１３号,,27,227,5770836,,,,,,,2025-06-06,1,,,,,ラーテルワークス,0
179,1130001079813,新規,0,2025-06-06,2025-06-06,株式会社田中商事,,株式会社,京都府,京都市西京区,下津林六反田１番地４６,,26,111,6158063,,,,,,,2025-06-06,1,,,,,タナカショウジ,0
180,1130001079821,新規,0,2025-06-06,2025-06-06,株式会社Ｍａｋｅ　Ａ,,株式会社,京都府,京都市左京区,高野蓼原町１４－１ＷｈａｔｅｖｅｒＳＨＩＭＯＧＡＭＯ－ＥＡＳＴＯ２Ｎ,,26,103,6068101,,,,,,,2025-06-06,1,,,,,メイクエー,0
181,1130001079854,新規,0,2025-06-06,2025-06-06,株式会社Ｔ‐ＴＨＲＥＥ,,株式会社,京都府,京都市東山区,祇園町北側２９１番地双葉祇園ビルＢ１,,26,105,6050073,,,,,,,2025-06-06,1,,,,,ティースリー,0
182,1130003010511,新規,0,2025-06-06,2025-06-06,合同会社みしみな,,合同会社,京都府,京都市伏見区,羽束師鴨川町２１２番地２２,,26,109,6128484,,,,,,,2025-06-06,1,,,,,ミシミナ,0
183,1130003010528,新規,0,2025-06-06,2025-06-06,田中設備設計合同会社,,合同会社,京都府,舞鶴市,字行永１９９４,,26,202,6250052,,,,,,,2025-06-06,1,,,,,タナカセツビセッケイ,0
184,1130003010536,新規,0,2025-06-06,2025-06-06,合同会社ａｓｔｅｒ,,合同会社,京都府,京都市北区,紫野西野町６,,26,101,6038233,,,,,,,2025-06-06,1,,,,,アスター,0
185,1130005017380,新規,0,2025-06-06,2025-06-06,一般社団法人まちのとびら,,その他の設立登記法人,京都府,舞鶴市,字引土７番地１０西矢殖産ビル１階北側,,26,202,6240841,,,,,,,2025-06-06,1,,,,,マチノトビラ,0
188,1140001138857,新規,0,2025-06-06,2025-06-06,ピュアドリーム電設株式会社,,株式会社,兵庫県,尼崎市,若王寺２丁目２番１２号,,28,202,6610974,,,,,,,2025-06-06,1,,,,,ピュアドリームデンセツ,0
189,1140002046968,新規,0,2025-06-06,2025-06-06,有限会社中山衣料店,,有限会社,兵庫県,美方郡新温泉町,浜坂１９４９番地の１,,28,586,6696702,,,,,,,2025-06-06,1,,,,,ナカヤマイリョウテン,0
191,1140003022150,新規,0,2025-06-06,2025-06-06,合同会社揚げ羽,,合同会社,兵庫県,神戸市兵庫区,出在家町２丁目５番１２号,,28,105,6520846,,,,,,,2025-06-06,1,,,,,アゲハ,0
195,1140005027528,新規,0,2025-06-06,2025-06-06,医療法人恕成会,,その他の設立登記法人,兵庫県,神戸市長田区,長楽町２丁目３番３号,,28,106,6530054,,,,,,,2025-06-06,1,,,,,ジョセイカイ,0
203,1180001167010,新規,0,2025-06-06,2025-06-06,青山ワンストップ株式会社,,株式会社,愛知県,名古屋市昭和区,吹上町１丁目６４番地の１５,,23,107,4660002,,,,,,,2025-06-06,1,,,,,アオヤマワンストップ,0
204,1180001167142,新規,0,2025-06-06,2025-06-06,株式会社オフィスあおやま,,株式会社,愛知県,長久手市,宮脇１１２番地,,23,238,4801172,,,,,,,2025-06-06,1,,,,,オフィスアオヤマ,0
205,1180001167167,新規,0,2025-06-06,2025-06-06,株式会社ＭＩＰＲＯＶＩＮＩ,,株式会社,愛知県,名古屋市中区,錦３丁目２０番２７号,,23,106,4600003,,,,,,,2025-06-06,1,,,,,ミプロヴィーニ,0
210,1180301039867,新規,0,2025-06-06,2025-06-06,ＫＺＴ株式会社,,株式会社,愛知県,豊田市,柿本町５丁目２７番地２,,23,211,4710855,,,,,,,2025-06-06,1,,,,,ケーゼットティー,0
211,1180301039891,新規,0,2025-06-06,2025-06-06,糸数トレーディング＆ホーム株式会社,,株式会社,愛知県,豊川市,御津町下佐脇広野２６－８２,,23,207,4410302,,,,,,,2025-06-06,1,,,,,イトカズトレーディングアンドホーム,0
214,1180303006601,新規,0,2025-06-06,2025-06-06,合同会社翡翠,,合同会社,愛知県,豊橋市,西浜町２２－９,,23,201,4410156,,,,,,,2025-06-06,1,,,,,ヒスイ,0
225,1200001043869,新規,0,2025-06-06,2025-06-06,株式会社福地建材,,株式会社,岐阜県,美濃加茂市,加茂野町鷹之巣２３３６番地３,,21,211,5050051,,,,,,,2025-06-06,1,,,,,フクチケンザイ,0
226,1200001043885,新規,0,2025-06-06,2025-06-06,株式会社Ｂａｍｂｏｏ,,株式会社,岐阜県,岐阜市,柳津町流通センター１丁目７番地１,,21,201,5016123,,,,,,,2025-06-06,1,,,,,バンブー,0
234,1240001065026,新規,0,2025-06-06,2025-06-06,株式会社Ｒｉ‐ｍｏ,,株式会社,広島県,呉市,広大新開１丁目２番７号,,34,202,7370141,,,,,,,2025-06-06,1,,,,,リーモ,0
235,1240001065034,新規,0,2025-06-06,2025-06-06,株式会社セキュ,,株式会社,広島県,福山市,駅家町大字万能倉５６３番地１,,34,207,7201131,,,,,,,2025-06-06,1,,,,,セキュ,0
239,1260001040241,新規,0,2025-06-06,2025-06-06,株式会社ＳＬＯＷ　ＬＡＮＥ,,株式会社,岡山県,倉敷市,新田３２１８番地６,,33,202,7100038,,,,,,,2025-06-06,1,,,,,スローレーン,0
244,1290801031602,新規,0,2025-06-06,2025-06-06,株式会社優建工業,,株式会社,福岡県,北九州市八幡東区,西丸山町８番４６号,,40,108,8050052,,,,,,,2025-06-06,1,,,,,ユウケンコウギョウ,0
253,1330001033287,新規,0,2025-06-06,2025-06-06,株式会社ＰＬＳ,,株式会社,熊本県,熊本市中央区,出水７丁目４３－３ラフォーレ雅２０３号,,43,101,8620941,,,,,,,2025-06-06,1,,,,,ピーエルエス,0
259,1340001027395,新規,0,2025-06-06,2025-06-06,株式会社外園エンジニアリング,,株式会社,鹿児島県,曽於郡大崎町,野方７５１,,46,468,8998313,,,,,,,2025-06-06,1,,,,,ホカゾノエンジニアリング,0
260,1340001027412,新規,0,2025-06-06,2025-06-06,株式会社ＮａｎａＬｅａｆ,,株式会社,鹿児島県,指宿市,湯の浜４丁目２０番９号,,46,210,8910406,,,,,,,2025-06-06,1,,,,,ナナリーフ,0
261,1340005009877,新規,0,2025-06-06,2025-06-06,一般社団法人鹿児島大学医学部医学科同窓会,,その他の設立登記法人,鹿児島県,鹿児島市,桜ヶ丘８丁目３５番１号,,46,201,8900075,,,,,,,2025-06-06,1,,,,,カゴシマダイガクイガクブイガクカドウソウカイ,0
262,1360001035297,新規,0,2025-06-06,2025-06-06,株式会社オキナワサーティーナイナーズ,,株式会社,沖縄県,中頭郡北谷町,桑江１丁目２番７号ベアーズコート桑江セントラル４０７,,47,326,9040103,,,,,,,2025-06-06,1,,,,,オキナワサーティーナイナーズ,0
268,1360003014976,新規,0,2025-06-06,2025-06-06,合同会社まるっと,,合同会社,沖縄県,中頭郡西原町,字兼久２５４番地の１スターブル兼久２０５号,,47,329,9030104,,,,,,,2025-06-06,1,,,,,マルット,0
269,1370001052663,新規,0,2025-06-06,2025-06-06,株式会社Ａｓｓｅｔ　ｐｌｕｓ,,株式会社,宮城県,仙台市青葉区,錦町２丁目４番１３号,,04,101,9800012,,,,,,,2025-06-06,1,,,,,アセットプラス,0
270,1370001052671,新規,0,2025-06-06,2025-06-06,株式会社ＣＡＭＭＩＮＯ,,株式会社,宮城県,柴田郡柴田町,船岡新栄３丁目７番地１５,,04,323,9891607,,,,,,,2025-06-06,1,,,,,カミーノ,0
273,1430001094617,新規,0,2025-06-06,2025-06-06,株式会社トピーＳＮＯＷＴ,,株式会社,北海道,札幌市北区,篠路町太平２２１－４,,01,102,0028051,,,,,,,2025-06-06,1,,,,,トピースノート,0
275,1430003017740,新規,0,2025-06-06,2025-06-06,合同会社ジュノープロパティ,,合同会社,北海道,札幌市東区,北四十五条東１５丁目３番１７号,,01,103,0070845,,,,,,,2025-06-06,1,,,,,ジュノープロパティ,0
276,1430003017749,新規,0,2025-06-06,2025-06-06,合同会社かぜのあ,,合同会社,北海道,札幌市北区,あいの里一条７丁目１２番２５号,,01,102,0028071,,,,,,,2025-06-06,1,,,,,カゼノア,0
277,1440001009615,新規,0,2025-06-06,2025-06-06,株式会社ＳＡＳ,,株式会社,北海道,函館市,白鳥町２０番１０号アル白鳥Ｉ一階右,00139487,01,202,0400082,,,,,,,2025-06-06,1,,,,,エスエーエス,0
279,1450005004454,新規,0,2025-06-06,2025-06-06,一般社団法人あさひかわ公共嘱託登記司法書士協会,,その他の設立登記法人,北海道,旭川市,花咲町４丁目２２７２番地の２０旭川司法書士会館内,,01,204,0700901,,,,,,,2025-06-06,1,,,,,アサヒカワコウキョウショクタクトウキシホウショシキョウカイ,0
282,1470001020750,新規,0,2025-06-06,2025-06-06,株式会社四国アルファ,,株式会社,香川県,丸亀市,綾歌町富熊５０５３番地１,,37,202,7612407,,,,,,,2025-06-06,1,,,,,シコクアルファ,0
289,2010001255383,新規,0,2025-06-06,2025-06-06,株式会社玉ひろ,,株式会社,東京都,中央区,銀座１丁目１２番４号Ｎ＆ＥＢＬＤ．６Ｆ,,13,102,1040061,,,,,,,2025-06-06,1,,,,,タマヒロ,0
290,2010001255697,新規,0,2025-06-06,2025-06-06,サピエントハーモニー株式会社,,株式会社,東京都,中央区,銀座７丁目１３番２０号銀座ＴＨビル９階,,13,102,1040061,,,,,,,2025-06-06,1,,,,,サピエントハーモニー,0
291,2010001255706,新規,0,2025-06-06,2025-06-06,株式会社ユウキ,,株式会社,東京都,中央区,佃１丁目１１番９－３００４号,,13,102,1040051,,,,,,,2025-06-06,1,,,,,ユウキ,0
293,2010003047548,新規,0,2025-06-06,2025-06-06,Ｃ３ＡＮＩＭＡ合同会社,,合同会社,東京都,中央区,日本橋室町１丁目１１番１２号日本橋水野ビル７階,,13,102,1030022,,,,,,,2025-06-06,1,,,,,シーサンアニマ,0
294,2010003047614,新規,0,2025-06-06,2025-06-06,アーバンウェルネス合同会社,,合同会社,東京都,千代田区,平河町１丁目６番１５号シルスフィア会計事務所内,,13,101,1020093,,,,,,,2025-06-06,1,,,,,アーバンウェルネス,0
304,2010401190734,新規,0,2025-06-06,2025-06-06,株式会社ＨＵＥ　Ｐｒｏｄｕｃｔｉｏｎｓ,,株式会社,東京都,港区,南青山５丁目１２番２４号,,13,103,1070062,,,,,,,2025-06-06,1,,,,,ヒュープロダクションズ,0
305,2010401190866,新規,0,2025-06-06,2025-06-06,ルクステックプロ株式会社,,株式会社,東京都,港区,西麻布１丁目８番６号杉下ビル３０１,,13,103,1060031,,,,,,,2025-06-06,1,,,,,ルクステックプロ,0
310,2010403035235,新規,0,2025-06-06,2025-06-06,アフェリーチェ合同会社,,合同会社,東京都,港区,高輪１丁目１３―９ｆｌｕｆｆｙ白金高輪１０２,,13,103,1080074,,,,,,,2025-06-06,1,,,,,アフェリーチェ,0
311,2010501054161,新規,0,2025-06-06,2025-06-06,川宇株式会社,,株式会社,東京都,台東区,北上野２丁目２５番９号ＩＳビル４０７号室,,13,106,1100014,,,,,,,2025-06-06,1,,,,,センウ,0
314,2010603011614,新規,0,2025-06-06,2025-06-06,ダイニングスキーマ合同会社,,合同会社,東京都,江東区,富岡１丁目２－４オリーブハウス門前仲町２,,13,108,1350047,,,,,,,2025-06-06,1,,,,,ダイニングスキーマ,0
318,2010801036215,新規,0,2025-06-06,2025-06-06,株式会社オフィスしまなみ,,株式会社,東京都,大田区,西六郷４丁目１１番１－９０７号,,13,111,1440056,,,,,,,2025-06-06,1,,,,,オフィスシマナミ,0
319,2010801036223,新規,0,2025-06-06,2025-06-06,株式会社Ｅｎｇａｇｉａ,,株式会社,東京都,大田区,西蒲田７丁目４－４　小山第二ビル６Ｆ,,13,111,1440051,,,,,,,2025-06-06,1,,,,,エンゲイジア,0
320,2010801036231,新規,0,2025-06-06,2025-06-06,株式会社ヴァルクラフト,,株式会社,東京都,大田区,西蒲田８丁目２２番３－４１３号,,13,111,1440051,,,,,,,2025-06-06,1,,,,,ヴァルクラフト,0
322,2010901057508,新規,0,2025-06-06,2025-06-06,株式会社ＶＩＳＩＯＮ　ＡＲＣＨＩＶＥ,,株式会社,東京都,世田谷区,太子堂４丁目１８番１５号マガザン三軒茶屋２・３Ｆ－３,,13,112,1540004,,,,,,,2025-06-06,1,,,,,ビジョンアーカイブ,0
323,2010901057524,新規,0,2025-06-06,2025-06-06,株式会社ＬＳＡ,,株式会社,東京都,世田谷区,上北沢１丁目２３番９号,,13,112,1560057,,,,,,,2025-06-06,1,,,,,エルエスエー,0
328,2011001169870,新規,0,2025-06-06,2025-06-06,グローバルベンチャーコンサルティング株式会社,,株式会社,東京都,渋谷区,恵比寿西１丁目７番７号ＥＢＳビル３階,,13,113,1500021,,,,,,,2025-06-06,1,,,,,グローバルベンチャーコンサルティング,0
329,2011001170399,新規,0,2025-06-06,2025-06-06,株式会社みなも,,株式会社,東京都,渋谷区,円山町５番３号ＭＩＥＵＸ渋谷ビル８階,,13,113,1500044,,,,,,,2025-06-06,1,,,,,ミナモ,0
331,2011003021682,新規,0,2025-06-06,2025-06-06,合同会社ＫＩＫＫＡＫＥ,,合同会社,東京都,渋谷区,恵比寿西２丁目４番８号ウィンド恵比寿ビル８Ｆ,,13,113,1500021,,,,,,,2025-06-06,1,,,,,キッカケ,0
336,2011103015980,新規,0,2025-06-06,2025-06-06,合同会社Ｂｉｇ　ｅｙｅｓ,,合同会社,東京都,新宿区,百人町３丁目２６番１－４１４号,,13,104,1690073,,,,,,,2025-06-06,1,,,,,ビッグアイズ,0
339,2011105011474,新規,0,2025-06-06,2025-06-06,弁護士法人田中保彦法律事務所,,その他の設立登記法人,東京都,新宿区,若葉１丁目１２－４佐々木総研ビル１０１,,13,104,1600011,,,,,,,2025-06-06,1,,,,,タナカヤスヒコホウリツジムショ,0
341,2011203004719,新規,0,2025-06-06,2025-06-06,ＲＩＳＩＮＧＳＴＡＲ合同会社,,合同会社,東京都,中野区,南台３丁目２３番２号,,13,114,1640014,,,,,,,2025-06-06,1,,,,,ライジングスター,0
343,2011301030633,新規,0,2025-06-06,2025-06-06,Ｖ‐ＳＴＡＲ　ＴＲＡＤＥ株式会社,,株式会社,東京都,杉並区,和田３丁目５９番１０－１０２号,,13,115,1660012,,,,,,,2025-06-06,1,,,,,ブイスタートレード,0
347,2011501032173,新規,0,2025-06-06,2025-06-06,強盛集団株式会社,,株式会社,東京都,荒川区,南千住３丁目２７－２浅草ビル５０８,,13,118,1160003,,,,,,,2025-06-06,1,,,,,キョウセイグループ,0
350,2011601028708,新規,0,2025-06-06,2025-06-06,株式会社白水,,株式会社,東京都,練馬区,高野台２丁目１１番１９号エスポワール高野台２０１,,13,120,1770033,,,,,,,2025-06-06,1,,,,,ハクスイ,0
351,2011601028716,新規,0,2025-06-06,2025-06-06,株式会社ＴＡＫＡ電設,,株式会社,東京都,練馬区,南大泉２丁目３３番２４号,,13,120,1780064,,,,,,,2025-06-06,1,,,,,タカデンセツ,0
352,2011701028392,新規,0,2025-06-06,2025-06-06,清水ホールディングス株式会社,,株式会社,東京都,江戸川区,中央４丁目１０番１２－１０１号セントラルハイツ,,13,123,1320021,,,,,,,2025-06-06,1,,,,,シミズホールディングス,0
353,2011701028401,新規,0,2025-06-06,2025-06-06,株式会社工研ホールディングス,,株式会社,東京都,江戸川区,清新町１丁目４番７－７０８号,,13,123,1340087,,,,,,,2025-06-06,1,,,,,コウケンホールディングス,0
354,2011801046261,新規,0,2025-06-06,2025-06-06,株式会社ＫＥ　ＡＵＰＵＮＩ　ＢＵＤＤＨＡ,,株式会社,東京都,足立区,西竹の塚１丁目１１番２－２１０２号,,13,121,1210822,,,,,,,2025-06-06,1,,,,,ケアウプニブッダ,0
355,2011803006899,新規,0,2025-06-06,2025-06-06,合同会社セールスブリッジ,,合同会社,東京都,足立区,西新井本町１丁目２１－８,,13,121,1230845,,,,,,,2025-06-06,1,,,,,セールスブリッジ,0
357,2012401043203,新規,0,2025-06-06,2025-06-06,株式会社キャッチャー,,株式会社,東京都,武蔵野市,吉祥寺南町３丁目１８番１０号,,13,203,1800003,,,,,,,2025-06-06,1,,,,,キャッチャー,0
362,2013301054397,新規,0,2025-06-06,2025-06-06,株式会社ＡＰＸ,,株式会社,東京都,豊島区,東池袋３丁目１番１号サンシャイン６０、４５階ＳＥＲＶＣＯＲＰ内,,13,116,1700013,,,,,,,2025-06-06,1,,,,,エーピーエックス,0
363,2013301054406,新規,0,2025-06-06,2025-06-06,株式会社Ｐｅｒｐｅｃｏ,,株式会社,東京都,豊島区,池袋２丁目１６番１５号細谷荘１０１号,,13,116,1710014,,,,,,,2025-06-06,1,,,,,ペルペコ,0
385,2021003016054,新規,0,2025-06-06,2025-06-06,合同会社ウイズ遊スタジオ,,合同会社,神奈川県,藤沢市,立石１丁目１６－３,,14,205,2510872,,,,,,,2025-06-06,1,,,,,ウイズユースタジオ,0
386,2021003016087,新規,0,2025-06-06,2025-06-06,合同会社すてっぷ,,合同会社,神奈川県,三浦市,三崎町城ケ島６５８－２９,,14,210,2380237,,,,,,,2025-06-06,1,,,,,ステップ,0
387,2021003016104,新規,0,2025-06-06,2025-06-06,ＢＯＴＥＣＯ　ＣＩＡ．ＢＲＡＳＩＬ合同会社,,合同会社,神奈川県,平塚市,四之宮３丁目１４番３号,,14,203,2540014,,,,,,,2025-06-06,1,,,,,ボテココンパニャブラジル,0
393,2030001166868,新規,0,2025-06-06,2025-06-06,株式会社ＲＫ．Ｎｅｘｔ,,株式会社,埼玉県,草加市,中央２丁目１６番１０号,,11,221,3400016,,,,,,,2025-06-06,1,,,,,アールケーネクスト,0
394,2030001166876,新規,0,2025-06-06,2025-06-06,株式会社Ｇ‐ＬＡＢＯ,,株式会社,埼玉県,三郷市,高州４丁目４０番地２,,11,237,3410037,,,,,,,2025-06-06,1,,,,,ジーラボ,0
395,2030001166884,新規,0,2025-06-06,2025-06-06,株式会社子午山,,株式会社,埼玉県,熊谷市,久保島４０５番地２,,11,202,3600831,,,,,,,2025-06-06,1,,,,,シゴサン,0
396,2030001166892,新規,0,2025-06-06,2025-06-06,株式会社トレデュニオン,,株式会社,埼玉県,三郷市,早稲田２丁目１９番地２,,11,237,3410018,,,,,,,2025-06-06,1,,,,,トレデュニオン,0
397,2030001166918,新規,0,2025-06-06,2025-06-06,株式会社尾身住設,,株式会社,埼玉県,さいたま市南区,大字広ヶ谷戸８４番地１６,,11,108,3360041,,,,,,,2025-06-06,1,,,,,オミジュウセツ,0
398,2030001166934,新規,0,2025-06-06,2025-06-06,株式会社明光インダストリーズ,,株式会社,埼玉県,草加市,谷塚町１８８０番地２２,,11,221,3400023,,,,,,,2025-06-06,1,,,,,メイコウインダストリーズ,0
399,2030001166942,新規,0,2025-06-06,2025-06-06,株式会社やな川,,株式会社,埼玉県,富士見市,大字水子４３７０番地４,,11,235,3540011,,,,,,,2025-06-06,1,,,,,ヤナガワ,0
400,2030001166950,新規,0,2025-06-06,2025-06-06,株式会社染谷電設,,株式会社,埼玉県,越谷市,七左町４丁目７２番地５,,11,222,3430851,,,,,,,2025-06-06,1,,,,,ソメヤデンセツ,0
401,2030001166967,新規,0,2025-06-06,2025-06-06,ＧＯＡＴ　ｗｏｒｋｓ株式会社,,株式会社,埼玉県,戸田市,上戸田２丁目１７－６,,11,224,3350022,,,,,,,2025-06-06,1,,,,,ゴートワークス,0
404,2030003026896,新規,0,2025-06-06,2025-06-06,東京車輌サービス合同会社,,合同会社,埼玉県,志木市,館２丁目４番７－８０２号,,11,228,3530006,,,,,,,2025-06-06,1,,,,,トウキョウシャリョウサービス,0
405,2030003026913,新規,0,2025-06-06,2025-06-06,合同会社ひばり建築計画,,合同会社,埼玉県,蕨市,錦町１丁目１番１８号藤和シティホームズ戸田１５０１号,,11,223,3350005,,,,,,,2025-06-06,1,,,,,ヒバリケンチクケイカク,0
406,2030003026921,新規,0,2025-06-06,2025-06-06,合同会社アサヒ,,合同会社,埼玉県,戸田市,大字新曽１５３１番地の１サンクレイドル北戸田ＩＩ４０３号室,00139486,11,224,3350021,,,,,,,2025-06-06,1,,,,,アサヒ,0
411,2040001139063,新規,0,2025-06-06,2025-06-06,株式会社キングマンプロモーション,,株式会社,千葉県,浦安市,当代島２丁目３番１７－２０３号鉄,,12,227,2790001,,,,,,,2025-06-06,1,,,,,キングマンプロモーション,0
418,2050001056753,新規,0,2025-06-06,2025-06-06,株式会社セイブ,,株式会社,茨城県,水戸市,住吉町２８４番地の１,,08,201,3100844,,,,,,,2025-06-06,1,,,,,セイブ,0
419,2050001056761,新規,0,2025-06-06,2025-06-06,株式会社つかもと農産,,株式会社,茨城県,稲敷市,新橋１４１番地２,,08,229,3000613,,,,,,,2025-06-06,1,,,,,ツカモトノウサン,0
421,2050005013643,新規,0,2025-06-06,2025-06-06,一般社団法人アイエス,,その他の設立登記法人,茨城県,水戸市,千波町２８５６番地の１３,,08,201,3100851,,,,,,,2025-06-06,1,,,,,アイエス,0
423,2060001038255,新規,0,2025-06-06,2025-06-06,ＤＩＬＥＴＴＯ株式会社,,株式会社,栃木県,足利市,小俣町７７０番地２,,09,202,3260141,,,,,,,2025-06-06,1,,,,,ディレット,0
425,2070001042982,新規,0,2025-06-06,2025-06-06,株式会社ツリープロテクション,,株式会社,群馬県,太田市,由良町１５５９番地１,,10,205,3730036,,,,,,,2025-06-06,1,,,,,ツリープロテクション,0
426,2070001042990,新規,0,2025-06-06,2025-06-06,株式会社ＯＮ,,株式会社,群馬県,佐波郡玉村町,大字樋越８０番地３グランコート玉村Ｂ２０１号室,,10,464,3701103,,,,,,,2025-06-06,1,,,,,オン,0
428,2070003005946,新規,0,2025-06-06,2025-06-06,合同会社インパクト,,合同会社,群馬県,伊勢崎市,本町１７番地７,,10,204,3720047,,,,,,,2025-06-06,1,,,,,インパクト,0
431,2080101025548,新規,0,2025-06-06,2025-06-06,株式会社６２６,,株式会社,静岡県,富士市,大渕２５１１番地の３,,22,210,4170000,,,,,,,2025-06-06,1,,,,,ロクニーロク,0
439,2100003008219,新規,0,2025-06-06,2025-06-06,合同会社オフィスＭ,,合同会社,長野県,北佐久郡軽井沢町,大字軽井沢１３２３番３２５ロイヤルプリンシパル軽井沢１０２,,20,321,3890102,,,,,,,2025-06-06,1,,,,,オフィスエム,0
441,2110001039314,新規,0,2025-06-06,2025-06-06,ＳＴＡＲＣ株式会社,,株式会社,新潟県,新潟市中央区,幸西３丁目１番６号蔦屋書店新潟万代２Ｆ,,15,103,9500908,,,,,,,2025-06-06,1,,,,,スターク,0
442,2110001039322,新規,0,2025-06-06,2025-06-06,株式会社鈴木インベストメント,,株式会社,新潟県,新潟市東区,寺山３丁目８番４６号,,15,102,9500892,,,,,,,2025-06-06,1,,,,,スズキインベストメント,0
444,2110003005784,新規,0,2025-06-06,2025-06-06,合同会社インテリオール,,合同会社,新潟県,新潟市中央区,親松２０３番地１,,15,103,9500952,,,,,,,2025-06-06,1,,,,,インテリオール,0
463,2120001276492,新規,0,2025-06-06,2025-06-06,株式会社Ｓ‐ＴＥＦ,,株式会社,大阪府,大阪市都島区,内代町１丁目５番６号,,27,102,5340013,,,,,,,2025-06-06,1,,,,,エステフ,0
464,2120001276526,新規,0,2025-06-06,2025-06-06,株式会社ａｌａ,,株式会社,大阪府,大阪市城東区,関目２丁目１番１７号,,27,118,5360008,,,,,,,2025-06-06,1,,,,,アーラ,0
465,2120001276550,新規,0,2025-06-06,2025-06-06,株式会社メシオ,,株式会社,大阪府,大阪市中央区,千日前２丁目３番４号アガペ日本橋４０２号,,27,128,5420074,,,,,,,2025-06-06,1,,,,,メシオ,0
466,2120001276575,新規,0,2025-06-06,2025-06-06,株式会社Ｈ・Ａ・Ｋ,,株式会社,大阪府,大阪市西成区,萩之茶屋２丁目３－２２,,27,122,5570004,,,,,,,2025-06-06,1,,,,,エイチエーケー,0
469,2120003029592,新規,0,2025-06-06,2025-06-06,合同会社ＡＶｅｉｌｌｅｕｘ,,合同会社,大阪府,大阪市阿倍野区,天王寺町北１丁目２番２４号Ｓ・シャトレー３０３号,,27,119,5450001,,,,,,,2025-06-06,1,,,,,アヴェイユ,0
470,2120003029683,新規,0,2025-06-06,2025-06-06,合同会社マッスルベアー,,合同会社,大阪府,大阪市阿倍野区,松崎町２丁目１－２８近鉄松崎町ビル２・３Ｆ,,27,119,5450053,,,,,,,2025-06-06,1,,,,,マッスルベアー,0
476,2120101071835,新規,0,2025-06-06,2025-06-06,ｔ．株式会社,,株式会社,大阪府,堺市堺区,北瓦町１丁４番１３号,,27,141,5900076,,,,,,,2025-06-06,1,,,,,ティードット,0
477,2120101071843,新規,0,2025-06-06,2025-06-06,Ｕ＆Ｉ株式会社,,株式会社,大阪府,阪南市,鳥取６２０－１－２０１,,27,232,5990204,,,,,,,2025-06-06,1,,,,,ユーアンドアイ,0
480,2120901051020,新規,0,2025-06-06,2025-06-06,ＮＯＭＵＲＡ＆ＰＡＲＴＮＥＲＳ株式会社,,株式会社,大阪府,吹田市,寿町２丁目２番１－１００２号,,27,205,5640036,,,,,,,2025-06-06,1,,,,,ノムラアンドパートナーズ,0
483,2122001039284,新規,0,2025-06-06,2025-06-06,ＨＩＫＡＲＩホールディングス株式会社,,株式会社,大阪府,東大阪市,渋川町２丁目６番８号３階,,27,227,5770836,,,,,,,2025-06-06,1,,,,,ヒカリホールディングス,0
484,2122001039326,新規,0,2025-06-06,2025-06-06,株式会社ＦＲＥＥＧＯ,,株式会社,大阪府,東大阪市,布市町４丁目８番３５－７０４号,,27,227,5798004,,,,,,,2025-06-06,1,,,,,フリーゴー,0
485,2122003003222,新規,0,2025-06-06,2025-06-06,合同会社ｍｉｓｃ,,合同会社,大阪府,柏原市,太平寺２丁目１５番１３号,,27,221,5820017,,,,,,,2025-06-06,1,,,,,ミスク,0
489,2130003010519,新規,0,2025-06-06,2025-06-06,しっぽのさきっぽ合同会社,,合同会社,京都府,京都市上京区,寺町通鞍馬口下る２筋目西入新御霊口町２８５番地,,26,102,6020897,,,,,,,2025-06-06,1,,,,,シッポノサキッポ,0
490,2130003010535,新規,0,2025-06-06,2025-06-06,合同会社Ｃｒｅｓｃｅｎｔ　Ｌｉｆｅ,,合同会社,京都府,京都市下京区,小稲荷町８５－２Ｇｒａｎｄ－Ｋ京都駅前ビル２０１,,26,106,6008208,,,,,,,2025-06-06,1,,,,,クレセントライフ,0
492,2140001138781,新規,0,2025-06-06,2025-06-06,株式会社Ｍｏｎａｒｃｈ　Ｐｒｏｐｅｒｔｙ,,株式会社,兵庫県,神戸市灘区,上野通５丁目８番１５号,,28,102,6570817,,,,,,,2025-06-06,1,,,,,モナークプロパティ,0
493,2140001138856,新規,0,2025-06-06,2025-06-06,株式会社Ｋａｎａｅｒｕ不動産,,株式会社,兵庫県,神戸市灘区,大和町３丁目１－１３大和町ビル４階,,28,102,6570031,,,,,,,2025-06-06,1,,,,,カナエルフドウサン,0
496,2140003022158,新規,0,2025-06-06,2025-06-06,合同会社Ｍｉｒａｎ,,合同会社,兵庫県,神戸市中央区,磯辺通１丁目１番１８号カサベラ国際プラザビル７０７号室,,28,110,6510084,,,,,,,2025-06-06,1,,,,,ミラン,0
497,2140003022182,新規,0,2025-06-06,2025-06-06,美日合同会社,,合同会社,兵庫県,神戸市中央区,神仙寺通３丁目１番１４－１０２号,,28,110,6510051,,,,,,,2025-06-06,1,,,,,ビビ,0
503,2170001018659,新規,0,2025-06-06,2025-06-06,旭日株式会社,,株式会社,和歌山県,海南市,日方２８６番地,,30,202,6420002,,,,,,,2025-06-06,1,,,,,アサヒ,0
511,2180001167158,新規,0,2025-06-06,2025-06-06,株式会社ブリス,,株式会社,愛知県,一宮市,今伊勢町宮後字北山中２７番地１,,23,203,4910057,,,,,,,2025-06-06,1,,,,,ブリス,0
512,2180001167190,新規,0,2025-06-06,2025-06-06,株式会社ＴＡＫＥ,,株式会社,愛知県,名古屋市守山区,脇田町２１３,,23,113,4630024,,,,,,,2025-06-06,1,,,,,テイク,0
516,2190001032278,新規,0,2025-06-06,2025-06-06,株式会社米勝ふぁーむ,,株式会社,三重県,鈴鹿市,石薬師町３１５３番１,,24,207,5130012,,,,,,,2025-06-06,1,,,,,,0
518,2190003005059,新規,0,2025-06-06,2025-06-06,合同会社クワッドメディックス,,合同会社,三重県,伊賀市,槙山３４４０番地の１０６８,,24,216,5180000,,,,,,,2025-06-06,1,,,,,クワッドメディックス,0
530,2240005015950,新規,0,2025-06-06,2025-06-06,一般社団法人ＢＹＰＲＯＤＵＣＴ,,その他の設立登記法人,広島県,広島市中区,白島中町１１番２号,,34,101,7300002,,,,,,,2025-06-06,1,,,,,バイプロダクト,0
535,2250003003741,新規,0,2025-06-06,2025-06-06,合同会社笑和,,合同会社,山口県,光市,中村町９番１３号,,35,210,7430048,,,,,,,2025-06-06,1,,,,,ショウワ,0
537,2260001040249,新規,0,2025-06-06,2025-06-06,株式会社Ｈ＆インクリーズ．,,株式会社,岡山県,倉敷市,福田町浦田２３９１番地４２,,33,202,7128031,,,,,,,2025-06-06,1,,,,,エイチアンドインクリーズ,0
538,2260001040257,新規,0,2025-06-06,2025-06-06,株式会社ヒノデ防災,,株式会社,岡山県,岡山市北区,御津野々口１４７６番地３,,33,101,7092117,,,,,,,2025-06-06,1,,,,,ヒノデボウサイ,0
543,2290001110247,新規,0,2025-06-06,2025-06-06,和元産業株式会社,,株式会社,福岡県,古賀市,花見南２丁目１５－１６,,40,223,8113111,,,,,,,2025-06-06,1,,,,,ワゲンサンギョウ,0
553,2320001021151,新規,0,2025-06-06,2025-06-06,株式会社里や,,株式会社,大分県,別府市,大字鉄輪２７５番地の１１,,44,202,8740000,,,,,,,2025-06-06,1,,,,,サトヤ,0
554,2330001033253,新規,0,2025-06-06,2025-06-06,株式会社安井蒲鉾店,,株式会社,熊本県,宇城市,小川町小川８番地２,,43,213,8690621,,,,,,,2025-06-06,1,,,,,ヤスイカマボコテン,0
557,2360001035313,新規,0,2025-06-06,2025-06-06,全日本ペットサービス株式会社,,株式会社,沖縄県,那覇市,久茂地１丁目１番１号,,47,201,9000015,,,,,,,2025-06-06,1,,,,,ゼンニホンペットサービス,0
560,2370001052662,新規,0,2025-06-06,2025-06-06,株式会社ＢＩＳ,,株式会社,宮城県,仙台市青葉区,錦町２丁目４番１３号,,04,101,9800012,,,,,,,2025-06-06,1,,,,,ビーアイエス,0
561,2370001052670,新規,0,2025-06-06,2025-06-06,株式会社ＹＫコーポレーション,,株式会社,宮城県,黒川郡大郷町,東成田字板谷西山１１番地１,,04,422,9813522,,,,,,,2025-06-06,1,,,,,ワイケーコーポレーション,0
562,2370003007136,新規,0,2025-06-06,2025-06-06,合同会社サポーラテーブル,,合同会社,宮城県,仙台市青葉区,みやぎ台５丁目５番３号,,04,101,9893214,,,,,,,2025-06-06,1,,,,,サポーラテーブル,0
565,2380001035377,新規,0,2025-06-06,2025-06-06,ＬｅｆｔＢｒａｉｎ株式会社,,株式会社,福島県,郡山市,愛宕町３番１３号バルミー郡山８１３号,,07,203,9638873,,,,,,,2025-06-06,1,,,,,レフトブレイン,0
567,2400001017059,新規,0,2025-06-06,2025-06-06,株式会社Ｊ・ウォーター,,株式会社,岩手県,盛岡市,上堂３丁目１３番３５号,,03,201,0200125,,,,,,,2025-06-06,1,,,,,ジェイウォーター,0
572,2430001094599,新規,0,2025-06-06,2025-06-06,株式会社音屋,,株式会社,北海道,札幌市東区,東苗穂十四条２丁目１７番１０号,,01,103,0070814,,,,,,,2025-06-06,1,,,,,オトヤ,0
573,2430001094608,新規,0,2025-06-06,2025-06-06,株式会社アリキキプロパティ,,株式会社,北海道,磯谷郡蘭越町,字湯里１１２番地１,,01,394,0481321,,,,,,,2025-06-06,1,,,,,アリキキプロパティ,0
574,2430001094616,新規,0,2025-06-06,2025-06-06,株式会社ワタナベ建設,,株式会社,北海道,札幌市白石区,中央二条３丁目１番５３号三晃ビル１階,,01,104,0030012,,,,,,,2025-06-06,1,,,,,ワタナベケンセツ,0
575,2430001094624,新規,0,2025-06-06,2025-06-06,株式会社ＣＡＮＡＬ,,株式会社,北海道,札幌市西区,発寒四条２丁目２番２３－６０１号,,01,107,0630824,,,,,,,2025-06-06,1,,,,,カナル,0
578,2430003017748,新規,0,2025-06-06,2025-06-06,日本エクスプレス貿易合同会社,,合同会社,北海道,札幌市中央区,南十六条西５丁目３番１－３１５号,,01,101,0640916,,,,,,,2025-06-06,1,,,,,ニホンエクスプレスボウエキ,0
580,2450003002673,新規,0,2025-06-06,2025-06-06,合同会社アイデア,,合同会社,北海道,稚内市,富岡５丁目１１番１０号ハイツあだちＢ２０１号室,,01,214,0970012,,,,,,,2025-06-06,1,,,,,アイデア,0
591,2700150130953,新規,0,2025-06-06,2025-06-06,小松市打越地区土地区画整理組合,,その他,石川県,小松市,打越町１丁目４５番地１,,17,203,9230831,,,,,,,2025-06-06,1,,,,,コマツシウチコシチクトチクカクセイリクミアイ,0
596,3010001255580,新規,0,2025-06-06,2025-06-06,株式会社Ｆｉｎａｍｕｓｅ,,株式会社,東京都,文京区,本郷２丁目１４番７－６０５号,,13,105,1130033,,,,,,,2025-06-06,1,,,,,フィナミューズ,0
597,3010001255639,新規,0,2025-06-06,2025-06-06,株式会社ウィスタリアコンサルティング,,株式会社,東京都,千代田区,神田和泉町１番地６号１６ヤマトビル４０５,,13,101,1010024,,,,,,,2025-06-06,1,,,,,ウィスタリアコンサルティング,0
598,3010001255705,新規,0,2025-06-06,2025-06-06,株式会社カーボンエックス,,株式会社,東京都,千代田区,岩本町３丁目１番１０号,,13,101,1010032,,,,,,,2025-06-06,1,,,,,カーボンエックス,0
599,3010003047530,新規,0,2025-06-06,2025-06-06,ＴｉｔａｎｉａＲｅｓｅａｒｃｈ合同会社,,合同会社,東京都,文京区,本郷６丁目２６－１０,,13,105,1130033,,,,,,,2025-06-06,1,,,,,ティタニアリサーチ,0
600,3010003047621,新規,0,2025-06-06,2025-06-06,ＢＥＳＳ　Ｐｒｏｊｅｃｔ１合同会社,,合同会社,東京都,中央区,京橋２丁目７番１４号ビュレックス京橋７０３港総合会計事務所内,,13,102,1040031,,,,,,,2025-06-06,1,,,,,ベスプロジェクトワン,0
604,3010401190808,新規,0,2025-06-06,2025-06-06,株式会社ＡＧＡＶＥ,,株式会社,東京都,港区,北青山１丁目３番１号アールキューブ青山３階,,13,103,1070061,,,,,,,2025-06-06,1,,,,,アガベ,0
605,3010401190840,新規,0,2025-06-06,2025-06-06,株式会社チャッターボックス,,株式会社,東京都,港区,浜松町２丁目２番１５号浜松町ダイヤビル２Ｆ,,13,103,1050013,,,,,,,2025-06-06,1,,,,,チャッターボックス,0
606,3010401190857,新規,0,2025-06-06,2025-06-06,株式会社Ｂｅｌｌｅ,,株式会社,東京都,港区,南麻布１丁目５番１－２０２号,,13,103,1060047,,,,,,,2025-06-06,1,,,,,ベル,0
607,3010401190865,新規,0,2025-06-06,2025-06-06,Ａａｖｙａ株式会社,,株式会社,東京都,港区,芝大門２丁目１２番１０号Ｔ＆Ｇ浜松町ビル６階,,13,103,1050012,,,,,,,2025-06-06,1,,,,,アヴィヤ,0
614,3010801036230,新規,0,2025-06-06,2025-06-06,株式会社Ｒｉｏｒａ,,株式会社,東京都,大田区,西蒲田７丁目１番３号ステラビル５Ｆ,,13,111,1440051,,,,,,,2025-06-06,1,,,,,リオラ,0
615,3010803005423,新規,0,2025-06-06,2025-06-06,合同会社シャカリキ,,合同会社,東京都,大田区,南雪谷１丁目１番１号,,13,111,1450066,,,,,,,2025-06-06,1,,,,,シャカリキ,0
616,3010803005431,新規,0,2025-06-06,2025-06-06,合同会社誠総業,,合同会社,東京都,大田区,久が原５丁目１－１－３０３,,13,111,1460085,,,,,,,2025-06-06,1,,,,,マコトソウギョウ,0
620,3010901057507,新規,0,2025-06-06,2025-06-06,株式会社ｏｖｅｒｔｕｒｅ,,株式会社,東京都,世田谷区,弦巻５丁目２０番１８号－３０３号,,13,112,1540016,,,,,,,2025-06-06,1,,,,,オーバチュア,0
628,3011001169944,新規,0,2025-06-06,2025-06-06,株式会社クリエイティブトーキョー,,株式会社,東京都,渋谷区,恵比寿西２丁目８番４号ＥＸ恵比寿西ビル５階,,13,113,1500021,,,,,,,2025-06-06,1,,,,,クリエイティブトーキョー,0
629,3011001170308,新規,0,2025-06-06,2025-06-06,株式会社よきに,,株式会社,東京都,渋谷区,東４丁目７番３－８０１号,,13,113,1500011,,,,,,,2025-06-06,1,,,,,ヨキニ,0
631,3011003021715,新規,0,2025-06-06,2025-06-06,合同会社ＡｍｉＬａｂｏ,,合同会社,東京都,目黒区,八雲４丁目３－１３,,13,110,1520023,,,,,,,2025-06-06,1,,,,,アミラボ,0
634,3011103016020,新規,0,2025-06-06,2025-06-06,合同会社ｍｅｏｗｔｅｃｈ,,合同会社,東京都,新宿区,西新宿３丁目３番１３号西新宿水間ビル６階,,13,104,1600023,,,,,,,2025-06-06,1,,,,,ミャオテック,0
637,3011403004716,新規,0,2025-06-06,2025-06-06,合同会社いたばしトゲトゲ,,合同会社,東京都,板橋区,向原２丁目２３番８号,,13,119,1730036,,,,,,,2025-06-06,1,,,,,イタバシトゲトゲ,0
646,3011601028715,新規,0,2025-06-06,2025-06-06,株式会社中谷商事,,株式会社,東京都,練馬区,中村２丁目２６番１４号,,13,120,1760024,,,,,,,2025-06-06,1,,,,,ナカヤショウジ,0
648,3011703004283,新規,0,2025-06-06,2025-06-06,合同会社ＳＩコンサルティング,,合同会社,東京都,江戸川区,松江１丁目１４番３号,,13,123,1320025,,,,,,,2025-06-06,1,,,,,エスアイコンサルティング,0
651,3012403007171,新規,0,2025-06-06,2025-06-06,合同会社ミコテラス,,合同会社,東京都,三鷹市,牟礼４丁目４番９号１０３,,13,204,1810002,,,,,,,2025-06-06,1,,,,,ミコテラス,0
664,3020001163171,新規,0,2025-06-06,2025-06-06,ＳＫＦオートモーティブジャパン株式会社,,株式会社,神奈川県,横浜市港北区,新横浜３丁目１７番地６,,14,109,2220033,,,,,,,2025-06-06,1,,,,,エスケイエフオートモーティブジャパン,0
665,3020001163279,新規,0,2025-06-06,2025-06-06,株式会社ＴｒｉＦｉｌｍ,,株式会社,神奈川県,横浜市港北区,下田町５丁目３９－３－１,,14,109,2230064,,,,,,,2025-06-06,1,,,,,トライフィルム,0
674,3021001085397,新規,0,2025-06-06,2025-06-06,株式会社リルケイ,,株式会社,神奈川県,大和市,下鶴間９６番地９,,14,213,2420001,,,,,,,2025-06-06,1,,,,,リルケイ,0
675,3021001085422,新規,0,2025-06-06,2025-06-06,株式会社ＥＮＬＩＮＯＡ,,株式会社,神奈川県,海老名市,上今泉３丁目５番３０－１号,,14,215,2430431,,,,,,,2025-06-06,1,,,,,エンリノア,0
676,3021001085439,新規,0,2025-06-06,2025-06-06,株式会社ＲＭ‐ｗａｌｌ,,株式会社,神奈川県,綾瀬市,早川２９８０番地１５４,,14,218,2521123,,,,,,,2025-06-06,1,,,,,アールエムウォール,0
689,3030001166859,新規,0,2025-06-06,2025-06-06,株式会社ＬＩＱＵＡ,,株式会社,埼玉県,草加市,小山２丁目１８番９号,,11,221,3400045,,,,,,,2025-06-06,1,,,,,リクア,0
690,3030001166867,新規,0,2025-06-06,2025-06-06,株式会社ｂｅｎ,,株式会社,埼玉県,川口市,南鳩ヶ谷７丁目３６番１０号,,11,203,3340013,,,,,,,2025-06-06,1,,,,,ベン,0
691,3030001166875,新規,0,2025-06-06,2025-06-06,株式会社クオルト,,株式会社,埼玉県,さいたま市北区,土呂町１４８８番地１,,11,102,3310804,,,,,,,2025-06-06,1,,,,,クオルト,0
692,3030001166883,新規,0,2025-06-06,2025-06-06,株式会社瀝心,,株式会社,埼玉県,越谷市,相模町３丁目２３３番地,,11,222,3430823,,,,,,,2025-06-06,1,,,,,レキシン,0
693,3030001166891,新規,0,2025-06-06,2025-06-06,株式会社ＹＳホーム,,株式会社,埼玉県,さいたま市南区,大字太田窪２６０４番地４,,11,108,3360015,,,,,,,2025-06-06,1,,,,,ワイエスホーム,0
694,3030001166900,新規,0,2025-06-06,2025-06-06,ローランリアルパートナーズ株式会社,,株式会社,埼玉県,川口市,芝下１丁目１番２７号,,11,203,3330848,,,,,,,2025-06-06,1,,,,,ローランリアルパートナーズ,0
695,3030001166933,新規,0,2025-06-06,2025-06-06,株式会社イーリス,,株式会社,埼玉県,春日部市,一ノ割４丁目９番７号,,11,214,3440031,,,,,,,2025-06-06,1,,,,,イーリス,0
696,3030001166958,新規,0,2025-06-06,2025-06-06,株式会社バリューコネクションズ,,株式会社,埼玉県,さいたま市見沼区,春野４丁目２７番地３,,11,104,3370002,,,,,,,2025-06-06,1,,,,,バリューコネクションズ,0
697,3030001166966,新規,0,2025-06-06,2025-06-06,勇建装株式会社,,株式会社,埼玉県,川口市,川口４丁目４番３１－３０９号第一永谷マンション,,11,203,3320015,,,,,,,2025-06-06,1,,,,,イサムケンソウ,0
701,3030003026904,新規,0,2025-06-06,2025-06-06,合同会社Ｏｐｅｎ　Ｆｕｔｕｒｅ,,合同会社,埼玉県,さいたま市緑区,大字大崎３４８２番地４,,11,109,3360974,,,,,,,2025-06-06,1,,,,,オープンフューチャー,0
702,3030003026937,新規,0,2025-06-06,2025-06-06,ＲＭ　ＴＥＣＨ合同会社,,合同会社,埼玉県,川口市,西青木３丁目３－２４ヴィラフラワー２０３,,11,203,3320035,,,,,,,2025-06-06,1,,,,,アールエムテック,0
703,3030003026945,新規,0,2025-06-06,2025-06-06,ＨＦＩＬ合同会社,,合同会社,埼玉県,さいたま市見沼区,東大宮１丁目２９－４カノ東大宮２１０,,11,104,3370051,,,,,,,2025-06-06,1,,,,,エイチエフアイエル,0
705,3040001139129,新規,0,2025-06-06,2025-06-06,ＧＸスマートライフ株式会社,,株式会社,千葉県,市原市,今富７９６番地,,12,219,2900265,,,,,,,2025-06-06,1,,,,,ジーエックススマートライフ,0
709,3040003027785,新規,0,2025-06-06,2025-06-06,合同会社ＳＥＥＤ,,合同会社,千葉県,成田市,三里塚２５２－１７－１０２,,12,211,2860111,,,,,,,2025-06-06,1,,,,,シード,0
710,3050001056793,新規,0,2025-06-06,2025-06-06,株式会社マヨシレクス,,株式会社,茨城県,水戸市,赤塚１丁目２００５番地の１１９サンドーマ赤塚,,08,201,3114141,,,,,,,2025-06-06,1,,,,,マヨシレクス,0
719,3070001042998,新規,0,2025-06-06,2025-06-06,株式会社ＲｅＢｉｒｔｈ,,株式会社,群馬県,太田市,高林西町５２４番地１２,,10,205,3730828,,,,,,,2025-06-06,1,,,,,リバース,0
720,3070001043006,新規,0,2025-06-06,2025-06-06,株式会社フルバンス,,株式会社,群馬県,高崎市,南大類町１１７２番地１,,10,202,3700036,,,,,,,2025-06-06,1,,,,,フルバンス,0
727,3080103003344,新規,0,2025-06-06,2025-06-06,合同会社きく組,,合同会社,静岡県,田方郡函南町,平井１７５３－１０３９,,22,325,4190107,,,,,,,2025-06-06,1,,,,,キクグミ,0
737,3110001039321,新規,0,2025-06-06,2025-06-06,光屋社中株式会社,,株式会社,新潟県,新発田市,大手町１丁目２番７号,,15,206,9570052,,,,,,,2025-06-06,1,,,,,ヒカリヤシャチュウ,0
738,3110001039338,新規,0,2025-06-06,2025-06-06,土屋住設株式会社,,株式会社,新潟県,新潟市西区,松美台６番４３号,,15,107,9502072,,,,,,,2025-06-06,1,,,,,ツチヤジュウセツ,0
743,3120001276467,新規,0,2025-06-06,2025-06-06,華勝株式会社,,株式会社,大阪府,大阪市東住吉区,中野３丁目６－１５サンソレイユ中野３１１,,27,121,5460012,,,,,,,2025-06-06,1,,,,,カショウ,0
744,3120001276483,新規,0,2025-06-06,2025-06-06,株式会社ミストールジャパン,,株式会社,大阪府,大阪市中央区,南船場３丁目２－２２おおきに南船場ビル,,27,128,5420081,,,,,,,2025-06-06,1,,,,,ミストールジャパン,0
745,3120001276509,新規,0,2025-06-06,2025-06-06,株式会社Ａｌｓｔｒｏｅｍｅｒｉａ,,株式会社,大阪府,大阪市東成区,大今里南３丁目４番２号,,27,115,5370013,,,,,,,2025-06-06,1,,,,,アルストロメリア,0
746,3120001276566,新規,0,2025-06-06,2025-06-06,株式会社ＴＣグローバルリンク,,株式会社,大阪府,枚方市,長尾元町５丁目２９番１９号,,27,210,5730163,,,,,,,2025-06-06,1,,,,,ティーシーグローバルリンク,0
747,3120001276590,新規,0,2025-06-06,2025-06-06,タット・エンジニアリング株式会社,,株式会社,大阪府,大阪市西区,江戸堀１丁目２４番１９号,,27,106,5500002,,,,,,,2025-06-06,1,,,,,タットエンジニアリング,0
748,3120001276616,新規,0,2025-06-06,2025-06-06,株式会社Ｒｅｄ　Ｃｏｍｅｔ,,株式会社,大阪府,大阪市西区,立売堀５丁目４－７プレミュールアワザ１００１,,27,106,5500012,,,,,,,2025-06-06,1,,,,,レッドコメット,0
749,3120001276624,新規,0,2025-06-06,2025-06-06,Ｇｌｏｂａｌ　Ｓｔａｙ　Ｊａｐａｎ株式会社,,株式会社,大阪府,枚方市,楠葉朝日１丁目６番１０号,,27,210,5731111,,,,,,,2025-06-06,1,,,,,グローバルステイジャパン,0
755,3120101071850,新規,0,2025-06-06,2025-06-06,株式会社ＲＥＳＥＥＤＳ,,株式会社,大阪府,堺市東区,石原町４丁３３９番地３,,27,143,5998102,,,,,,,2025-06-06,1,,,,,レシーズ,0
757,3120103006499,新規,0,2025-06-06,2025-06-06,ＮＧＯＣ　ＡＮＨ合同会社,,合同会社,大阪府,和泉市,室堂町２８８－６－２０８号,,27,219,5941101,,,,,,,2025-06-06,1,,,,,ゴックアイン,0
764,3120901051044,新規,0,2025-06-06,2025-06-06,株式会社ミチ研究館,,株式会社,大阪府,高槻市,北昭和台町１４番２１号,,27,207,5690816,,,,,,,2025-06-06,1,,,,,ミチケンキュウカン,0
769,3122001039309,新規,0,2025-06-06,2025-06-06,株式会社Ｎｏｒｄｋｒａｆｔ,,株式会社,大阪府,東大阪市,渋川町１丁目１４番１３号,,27,227,5770836,,,,,,,2025-06-06,1,,,,,ノルドクラフト,0
775,3130001079836,新規,0,2025-06-06,2025-06-06,株式会社ミズノ,,株式会社,京都府,城陽市,平川鍜治塚３１番地の７９,00139472,26,207,6100101,,,,,,,2025-06-06,1,,,,,ミズノ,0
776,3130001079852,新規,0,2025-06-06,2025-06-06,株式会社都市縫製,,株式会社,京都府,舞鶴市,字魚屋２９７番地１４,,26,202,6240923,,,,,,,2025-06-06,1,,,,,トシホウセイ,0
777,3130005017379,新規,0,2025-06-06,2025-06-06,社会保険労務士法人アップサポート,,その他の設立登記法人,京都府,京都市西京区,桂上野西町１２３番地,,26,111,6158006,,,,,,,2025-06-06,1,,,,,アップサポート,0
779,3140001138863,新規,0,2025-06-06,2025-06-06,戦友車両株式会社,,株式会社,兵庫県,尼崎市,大庄中通１丁目７３番２号,,28,202,6600075,,,,,,,2025-06-06,1,,,,,センユウシャリョウ,0
788,3180001167132,新規,0,2025-06-06,2025-06-06,株式会社ＭＣＣＵＢＥ,,株式会社,愛知県,名古屋市東区,泉１丁目１３番１号,,23,102,4610001,,,,,,,2025-06-06,1,,,,,エムシーキューブ,0
789,3180301039881,新規,0,2025-06-06,2025-06-06,ライフ株式会社,,株式会社,愛知県,刈谷市,天王町１丁目４５番地,,23,210,4480824,,,,,,,2025-06-06,1,,,,,ライフ,0
791,3190003005066,新規,0,2025-06-06,2025-06-06,合同会社星空,,合同会社,三重県,四日市市,貝家町１６２番地４,,24,202,5100956,,,,,,,2025-06-06,1,,,,,ホシゾラ,0
794,3200001043859,新規,0,2025-06-06,2025-06-06,株式会社ＨＩＬＬＢＩＬＬＹ,,株式会社,岐阜県,中津川市,馬籠４９４４番地２,,21,206,5080502,,,,,,,2025-06-06,1,,,,,ヒルビリー,0
810,3240001065049,新規,0,2025-06-06,2025-06-06,株式会社よつは,,株式会社,広島県,呉市,広古新開７丁目４０番９号Ａ棟１０２号室,,34,202,7370112,,,,,,,2025-06-06,1,,,,,ヨツハ,0
819,3280003001956,新規,0,2025-06-06,2025-06-06,合同会社Ｚｅｎ　Ｔｅｃｈｎｏｌｏｇｙ,,合同会社,島根県,出雲市,高松町１３４３‐２,,32,203,6930053,,,,,,,2025-06-06,1,,,,,ゼンテクノロジー,0
824,3290001110238,新規,0,2025-06-06,2025-06-06,株式会社ココ,,株式会社,福岡県,福岡市博多区,住吉３丁目９番１カワイアーバンビル５０３号,,40,132,8120018,,,,,,,2025-06-06,1,,,,,ココ,0
825,3290001110270,新規,0,2025-06-06,2025-06-06,株式会社リペアーズ,,株式会社,福岡県,福岡市博多区,千代２丁目２２番８号一豊ビル２０２,,40,132,8120044,,,,,,,2025-06-06,1,,,,,リペアーズ,0
826,3290003016929,新規,0,2025-06-06,2025-06-06,合同会社エブリワン,,合同会社,福岡県,福岡市西区,大字吉武３３３番地１,,40,135,8190036,,,,,,,2025-06-06,1,,,,,エブリワン,0
827,3290003016937,新規,0,2025-06-06,2025-06-06,合同会社リフォームサラサ,,合同会社,福岡県,福岡市城南区,長尾５丁目２０番１７－４０３号,,40,136,8140123,,,,,,,2025-06-06,1,,,,,リフォームサラサ,0
830,3290803005073,新規,0,2025-06-06,2025-06-06,合同会社ｓｔｙｌｅ,,合同会社,福岡県,北九州市小倉北区,古船場町８番１３－３０３号,,40,106,8020082,,,,,,,2025-06-06,1,,,,,スタイル,0
839,3330001033260,新規,0,2025-06-06,2025-06-06,静峰園株式会社,,株式会社,熊本県,熊本市北区,植木町亀甲８１４番地,,43,105,8610127,,,,,,,2025-06-06,1,,,,,セイホウエン,0
840,3340001027402,新規,0,2025-06-06,2025-06-06,株式会社Ｒｅａｌｉｖｅ,,株式会社,鹿児島県,鹿児島市,西千石町１１－２１鹿児島ＭＳビル５階６階,,46,201,8920847,,,,,,,2025-06-06,1,,,,,リアライヴ,0
841,3340001027419,新規,0,2025-06-06,2025-06-06,株式会社野田地研,,株式会社,鹿児島県,日置市,日吉町吉利１２０４番地１,,46,216,8993203,,,,,,,2025-06-06,1,,,,,ノダチケン,0
850,3360001035287,新規,0,2025-06-06,2025-06-06,株式会社Ｇ．Ｉ．Ｃ,,株式会社,沖縄県,沖縄市,松本５丁目１９番１１号,,47,211,9042151,,,,,,,2025-06-06,1,,,,,ジーアイシー,0
854,3370001052678,新規,0,2025-06-06,2025-06-06,株式会社ビヨンドザリバー,,株式会社,宮城県,仙台市青葉区,五橋１丁目１番５８－２１０号,,04,101,9800022,,,,,,,2025-06-06,1,,,,,ビヨンドザリバー,0
856,3370003007119,新規,0,2025-06-06,2025-06-06,合同会社ＮｅＮｅ,,合同会社,宮城県,仙台市泉区,将監１丁目３－２－１０２,,04,105,9813132,,,,,,,2025-06-06,1,,,,,ネネ,0
857,3370003007135,新規,0,2025-06-06,2025-06-06,合同会社エスペランス,,合同会社,宮城県,仙台市青葉区,大町２丁目１５番１３－７０２号,,04,101,9800804,,,,,,,2025-06-06,1,,,,,エスペランス,0
858,3380001035335,新規,0,2025-06-06,2025-06-06,株式会社こもれび,,株式会社,福島県,福島市,大森字本町裏２９番地の１４,,07,201,9601101,,,,,,,2025-06-06,1,,,,,コモレビ,0
859,3380001035368,新規,0,2025-06-06,2025-06-06,株式会社ＫＴ,,株式会社,福島県,岩瀬郡鏡石町,久来石５７２番地３,,07,342,9690403,,,,,,,2025-06-06,1,,,,,ケーティー,0
863,3400003003477,新規,0,2025-06-06,2025-06-06,合同会社ＭＯＲＩＳ,,合同会社,岩手県,北上市,常盤台４丁目６－９１常盤ハイツＣ棟,,03,206,0240012,,,,,,,2025-06-06,1,,,,,モリス,0
864,3410001014178,新規,0,2025-06-06,2025-06-06,株式会社アプロ,,株式会社,秋田県,秋田市,山王３丁目７番１０号,,05,201,0100951,,,,,,,2025-06-06,1,,,,,アプロ,0
866,3420001019168,新規,0,2025-06-06,2025-06-06,株式会社ふそう都市整備,,株式会社,青森県,十和田市,東四番町１番３８号,,02,206,0340032,,,,,,,2025-06-06,1,,,,,フソウトシセイビ,0
867,3420001019176,新規,0,2025-06-06,2025-06-06,株式会社富商,,株式会社,青森県,青森市,古川２丁目１４番７号,,02,201,0300862,,,,,,,2025-06-06,1,,,,,トミショウ,0
870,3430001094615,新規,0,2025-06-06,2025-06-06,株式会社茶トラのしっぽ,,株式会社,北海道,北広島市,中央６丁目８番地９,,01,234,0611121,,,,,,,2025-06-06,1,,,,,チャトラノシッポ,0
871,3430003017747,新規,0,2025-06-06,2025-06-06,合同会社Ａｍｃ,,合同会社,北海道,札幌市北区,北二十三条西５丁目１番２７－２０１号,,01,102,0010023,,,,,,,2025-06-06,1,,,,,エーエムシー,0
885,3500001026338,新規,0,2025-06-06,2025-06-06,株式会社アスリート．１レッカーレンタ,,株式会社,愛媛県,松山市,高井町７５９番地５,,38,201,7911111,,,,,,,2025-06-06,1,,,,,アスリートワンレッカーレンタ,0
896,4010001255365,新規,0,2025-06-06,2025-06-06,ウィズアマックスジャパン株式会社,,株式会社,東京都,中央区,八丁堀２丁目３番９号,,13,102,1040032,,,,,,,2025-06-06,1,,,,,ウィズアマックスジャパン,0
897,4010001255621,新規,0,2025-06-06,2025-06-06,株式会社スパークル・ワークス,,株式会社,東京都,中央区,日本橋３丁目１５番８号アミノ酸会館ビル６階,,13,102,1030027,,,,,,,2025-06-06,1,,,,,スパークルワークス,0
898,4010001255687,新規,0,2025-06-06,2025-06-06,株式会社Ｉ　Ｇｒｏｕｐ,,株式会社,東京都,中央区,銀座７丁目７－１２ニューコンパルビル４Ｆ,,13,102,1040061,,,,,,,2025-06-06,1,,,,,アイグループ,0
899,4010001255704,新規,0,2025-06-06,2025-06-06,ｔｕｋｉカンパニー株式会社,,株式会社,東京都,中央区,銀座１丁目１２－４Ｎ＆ＥＢＬＤ．６Ｆ,,13,102,1040061,,,,,,,2025-06-06,1,,,,,ツキカンパニー,0
900,4010001255778,新規,0,2025-06-06,2025-06-06,ＩＫＩＧＡＩ株式会社,,株式会社,東京都,中央区,日本橋大伝馬町１番７号日本橋ノースプレイス３Ｆ,,13,102,1030011,,,,,,,2025-06-06,1,,,,,イキガイ,0
905,4010003047546,新規,0,2025-06-06,2025-06-06,Ｍ．ＬＢアシストオフィス合同会社,,合同会社,東京都,中央区,銀座１丁目１６－７銀座大栄ビル５階,,13,102,1040061,,,,,,,2025-06-06,1,,,,,エムエルビーアシストオフィス,0
906,4010003047554,新規,0,2025-06-06,2025-06-06,合同会社ＲＴウェルネス,,合同会社,東京都,中央区,銀座１丁目１２番４号Ｎ＆ＥＢＬＤ．７階,,13,102,1040061,,,,,,,2025-06-06,1,,,,,アールティーウェルネス,0
907,4010003047562,新規,0,2025-06-06,2025-06-06,合同会社Ｊ＆Ｓ,,合同会社,東京都,中央区,銀座１丁目１２番４号Ｎ＆ＥＢＬＤ．６Ｆ,,13,102,1040061,,,,,,,2025-06-06,1,,,,,ジェイアンドエス,0
908,4010003047620,新規,0,2025-06-06,2025-06-06,ＢＴＬ開発合同会社,,合同会社,東京都,中央区,日本橋２丁目１６番３号１８山京ビル２０１号,,13,102,1030027,,,,,,,2025-06-06,1,,,,,ビーティーエルカイハツ,0
910,4010005040144,新規,0,2025-06-06,2025-06-06,一般社団法人デロイトトーマツ戦略研究所,,その他の設立登記法人,東京都,千代田区,丸の内３丁目２番３号丸の内二重橋ビルディング,,13,101,1000005,,,,,,,2025-06-06,1,,,,,デロイトトーマツセンリャクケンキュウジョ,0
918,4010401190831,新規,0,2025-06-06,2025-06-06,株式会社Ｒｉｎｇ,,株式会社,東京都,港区,西麻布２丁目２３番１６号西麻布オークテラス１０２,,13,103,1060031,,,,,,,2025-06-06,1,,,,,リング,0
919,4010401190897,新規,0,2025-06-06,2025-06-06,株式会社ｓｅｅｄｓ,,株式会社,東京都,港区,赤坂４丁目７－６赤坂ビジネスコート,,13,103,1070052,,,,,,,2025-06-06,1,,,,,シーズ,0
921,4010405024481,新規,0,2025-06-06,2025-06-06,特定目的会社アールイープロジェクトセブン,,その他の設立登記法人,東京都,港区,虎ノ門２丁目６番１号虎ノ門ヒルズステーションタワー,,13,103,1050001,,,,,,,2025-06-06,1,,,,,アールイープロジェクトセブン,0
926,4010701047797,新規,0,2025-06-06,2025-06-06,株式会社原田商事,,株式会社,東京都,品川区,戸越５丁目１６番２号,,13,109,1420041,,,,,,,2025-06-06,1,,,,,ハラダショウジ,0
929,4010801036221,新規,0,2025-06-06,2025-06-06,株式会社アセット・グロース,,株式会社,東京都,大田区,西蒲田６丁目２２番８号ハイツアミューズ１０１,,13,111,1440051,,,,,,,2025-06-06,1,,,,,アセットグロース,0
940,4011001169670,新規,0,2025-06-06,2025-06-06,株式会社Ｒ．Ｈ．,,株式会社,東京都,渋谷区,代々木５丁目３４番６号３０４,,13,113,1510053,,,,,,,2025-06-06,1,,,,,アールエイチ,0
941,4011001170422,新規,0,2025-06-06,2025-06-06,天才さいき株式会社,,株式会社,東京都,渋谷区,渋谷３丁目２６番１６号第５叶ビル７階,,13,113,1500002,,,,,,,2025-06-06,1,,,,,テンサイサイキ,0
944,4011101111953,新規,0,2025-06-06,2025-06-06,株式会社ｉｎｏｗａｙ,,株式会社,東京都,新宿区,西新宿３丁目３番１３号西新宿水間ビル６階,,13,104,1600023,,,,,,,2025-06-06,1,,,,,イノウェイ,0
948,4011103015979,新規,0,2025-06-06,2025-06-06,合同会社バストリー,,合同会社,東京都,新宿区,新宿２丁目１２番１３号新宿アントレサロンビル２階,,13,104,1600022,,,,,,,2025-06-06,1,,,,,バストリー,0
949,4011201026416,新規,0,2025-06-06,2025-06-06,株式会社美林国際集団,,株式会社,東京都,中野区,上高田４丁目４３番９号,,13,114,1640002,,,,,,,2025-06-06,1,,,,,ビリンコクサイシュウダン,0
956,4011601028706,新規,0,2025-06-06,2025-06-06,株式会社ＮＭＲ,,株式会社,東京都,練馬区,石神井台７丁目２３番１０号,,13,120,1770045,,,,,,,2025-06-06,1,,,,,エヌエムアール,0
957,4011701028399,新規,0,2025-06-06,2025-06-06,株式会社田澤興業,,株式会社,東京都,江戸川区,新堀２丁目１８番１２号,,13,123,1320001,,,,,,,2025-06-06,1,,,,,タザワコウギョウ,0
958,4011705001897,新規,0,2025-06-06,2025-06-06,一般社団法人えどＢＡＹ地域共創ミライ,,その他の設立登記法人,東京都,江戸川区,一之江１丁目６番１１号,,13,123,1320024,,,,,,,2025-06-06,1,,,,,エドベイチイキキョウソウミライ,0
960,4011801046268,新規,0,2025-06-06,2025-06-06,株式会社千舟,,株式会社,東京都,足立区,小台１丁目６－５－２０１,,13,121,1200046,,,,,,,2025-06-06,1,,,,,センシュウ,0
961,4011801046276,新規,0,2025-06-06,2025-06-06,株式会社Ｎ＆Ｋフーズ,,株式会社,東京都,足立区,東和５丁目９番６－４０１号,,13,121,1200003,,,,,,,2025-06-06,1,,,,,エヌアンドケーフーズ,0
962,4012401043218,新規,0,2025-06-06,2025-06-06,株式会社ＢＯＤＹ　ＭＥＮＴＯＲ,,株式会社,東京都,府中市,宮町２丁目２５番地の９京所マンション１０１,,13,206,1830023,,,,,,,2025-06-06,1,,,,,ボディメンター,0
965,4013301054404,新規,0,2025-06-06,2025-06-06,株式会社トライライン,,株式会社,東京都,豊島区,西池袋３丁目８番５号大晃第５ビル２０１号室,,13,116,1710021,,,,,,,2025-06-06,1,,,,,トライライン,0
971,4020001163278,新規,0,2025-06-06,2025-06-06,株式会社ＬＯＯＰ,,株式会社,神奈川県,川崎市幸区,北加瀬１丁目６番２２‐１０２,,14,132,2120057,,,,,,,2025-06-06,1,,,,,ループ,0
974,4020003028669,新規,0,2025-06-06,2025-06-06,合同会社中村,,合同会社,神奈川県,横浜市神奈川区,西寺尾４丁目２７－８－２０１,,14,102,2210001,,,,,,,2025-06-06,1,,,,,ナカムラ,0
978,4021001085462,新規,0,2025-06-06,2025-06-06,株式会社坂上重建,,株式会社,神奈川県,綾瀬市,深谷上７丁目９番１４号,,14,218,2521108,,,,,,,2025-06-06,1,,,,,,0
986,4030001166791,新規,0,2025-06-06,2025-06-06,株式会社ＳＨＩＮＥＩホールディングス,,株式会社,埼玉県,新座市,畑中１丁目４番２０号,,11,230,3520012,,,,,,,2025-06-06,1,,,,,シンエイホールディングス,0
987,4030001166858,新規,0,2025-06-06,2025-06-06,株式会社ナカムラホールディングス,,株式会社,埼玉県,熊谷市,拾六間５５７番地２,,11,202,3600846,,,,,,,2025-06-06,1,,,,,ナカムラホールディングス,0
988,4030001166866,新規,0,2025-06-06,2025-06-06,株式会社オールブルー,,株式会社,埼玉県,行田市,大字若小玉３８８３番地３,,11,206,3610017,,,,,,,2025-06-06,1,,,,,オールブルー,0
989,4030001166874,新規,0,2025-06-06,2025-06-06,スポーツリーディングサポート株式会社,,株式会社,埼玉県,越谷市,赤山町２丁目１５９番地１アーバンハウス１号館１０１,,11,222,3430807,,,,,,,2025-06-06,1,,,,,スポーツリーディングサポート,0
990,4030001166890,新規,0,2025-06-06,2025-06-06,株式会社侍,,株式会社,埼玉県,さいたま市緑区,大字三室７４番地８（２０２号）,,11,109,3360911,,,,,,,2025-06-06,1,,,,,サムライ,0
991,4030001166899,新規,0,2025-06-06,2025-06-06,株式会社Ｏｊａｓ,,株式会社,埼玉県,所沢市,林２丁目４７５番地の１５,,11,208,3591167,,,,,,,2025-06-06,1,,,,,オージャス,0
992,4030001166916,新規,0,2025-06-06,2025-06-06,株式会社Ａｉｍ,,株式会社,埼玉県,新座市,東北２丁目３４番２号,,11,230,3520001,,,,,,,2025-06-06,1,,,,,エイム,0
993,4030001166932,新規,0,2025-06-06,2025-06-06,株式会社ハーフパイント,,株式会社,埼玉県,越谷市,蒲生東町４番４８号ゼファー新越谷リビーノ４０７号,,11,222,3430841,,,,,,,2025-06-06,1,,,,,ハーフパイント,0
994,4030001166949,新規,0,2025-06-06,2025-06-06,株式会社ヒューマンアトリエ,,株式会社,埼玉県,さいたま市大宮区,桜木町１丁目１９５番地１大宮ソラミチＫＯＺ４階,,11,103,3300854,,,,,,,2025-06-06,1,,,,,ヒューマンアトリエ,0
995,4030001166981,新規,0,2025-06-06,2025-06-06,Ｊ．Ｌ．ＴＩＧＥＲ株式会社,,株式会社,埼玉県,三郷市,戸ケ崎２１３２－１,,11,237,3410044,,,,,,,2025-06-06,1,,,,,ジェーエルタイガー,0
1000,4030003026886,新規,0,2025-06-06,2025-06-06,日本産業合同会社,,合同会社,埼玉県,三郷市,早稲田５丁目６－９,,11,237,3410018,,,,,,,2025-06-06,1,,,,,ニホンサンギョウ,0
1001,4030003026903,新規,0,2025-06-06,2025-06-06,合同会社Ｗａｎｄ,,合同会社,埼玉県,川口市,末広２丁目１０番７－３０４号,,11,203,3320006,,,,,,,2025-06-06,1,,,,,ワンド,0
1002,4030003026928,新規,0,2025-06-06,2025-06-06,ＩＮＳＩＧＨＴ合同会社,,合同会社,埼玉県,坂戸市,溝端町１７番地１４,,11,239,3500274,,,,,,,2025-06-06,1,,,,,インサイト,0
1003,4030003026936,新規,0,2025-06-06,2025-06-06,伊藤商事合同会社,,合同会社,埼玉県,川口市,大字芝６９９０番地の７４－２０２室,,11,203,3330866,,,,,,,2025-06-06,1,,,,,イトウショウジ,0
1004,4040001139078,新規,0,2025-06-06,2025-06-06,エア・ウォーターＫ＆Ｏ株式会社,,株式会社,千葉県,茂原市,茂原６６１番地,,12,210,2970026,,,,,,,2025-06-06,1,,,,,エアウォーターケイアンドオー,0
1005,4040003027768,新規,0,2025-06-06,2025-06-06,合同会社ＴＲＡＶＥＬ　ＢＡＳＥ,,合同会社,千葉県,旭市,三川４９０７－５,,12,215,2892714,,,,,,,2025-06-06,1,,,,,トラベルベース,0
1012,4060005010349,新規,0,2025-06-06,2025-06-06,一般社団法人ＮｉＴ,,その他の設立登記法人,栃木県,日光市,今市６２８番地１８,,09,206,3211261,,,,,,,2025-06-06,1,,,,,ニット,0
1013,4070001042980,新規,0,2025-06-06,2025-06-06,株式会社尾池自動車,,株式会社,群馬県,桐生市,新里町新川１９２２番地２,,10,203,3760121,,,,,,,2025-06-06,1,,,,,オイケジドウシャ,0
1019,4080101025538,新規,0,2025-06-06,2025-06-06,みらい経営サポート株式会社,,株式会社,静岡県,三島市,広小路町２番１０号,,22,206,4110856,,,,,,,2025-06-06,1,,,,,ミライケイエイサポート,0
1023,4110001039320,新規,0,2025-06-06,2025-06-06,株式会社ＩＳＡ,,株式会社,新潟県,糸魚川市,上刈２丁目８番１４号,,15,216,9410064,,,,,,,2025-06-06,1,,,,,アイエスエー,0
1025,4110003005774,新規,0,2025-06-06,2025-06-06,Ｂｉｏｒｈｙｔｈｍ合同会社,,合同会社,新潟県,三条市,田島２丁目１８－１１ロイヤルタウン三条七番館１０２,,15,204,9550044,,,,,,,2025-06-06,1,,,,,ビオリズム,0
1031,4120001276540,新規,0,2025-06-06,2025-06-06,新輝盛貿易株式会社,,株式会社,大阪府,大阪市淀川区,加島４丁目２番２１－２０２号,,27,123,5320031,,,,,,,2025-06-06,1,,,,,シンキセイボウエキ,0
1032,4120001276573,新規,0,2025-06-06,2025-06-06,一川株式会社,,株式会社,大阪府,大阪市北区,中崎２丁目８－１３－３０６,,27,127,5300016,,,,,,,2025-06-06,1,,,,,イチカワ,0
1033,4120001276581,新規,0,2025-06-06,2025-06-06,株式会社順遂,,株式会社,大阪府,大阪市中央区,南船場４丁目６番２２号心斎橋ＭＳビル５０２,,27,128,5420081,,,,,,,2025-06-06,1,,,,,ジュンスイ,0
1034,4120001276598,新規,0,2025-06-06,2025-06-06,株式会社ＭＩＲＡＣＬＥ　ＷＯＲＬＤ,,株式会社,大阪府,大阪市浪速区,湊町１丁目２番３号マルイト難波ビル２０階,,27,111,5560017,,,,,,,2025-06-06,1,,,,,ミラクルワールド,0
1035,4120001276672,新規,0,2025-06-06,2025-06-06,稠州株式会社,,株式会社,大阪府,大阪市中央区,南船場１丁目３番１４－７０９号,,27,128,5420081,,,,,,,2025-06-06,1,,,,,チュウシュウ,0
1043,4120101071809,新規,0,2025-06-06,2025-06-06,株式会社吉田設備,,株式会社,大阪府,松原市,西野々２丁目９番２３号,,27,217,5800004,,,,,,,2025-06-06,1,,,,,ヨシダセツビ,0
1044,4120101071817,新規,0,2025-06-06,2025-06-06,株式会社ホットスタッフ堺,,株式会社,大阪府,堺市西区,平岡町３８番地１,,27,144,5938307,,,,,,,2025-06-06,1,,,,,ホットスタッフサカイ,0
1045,4120101071833,新規,0,2025-06-06,2025-06-06,株式会社ＡＵＲＯＲＡ,,株式会社,大阪府,堺市中区,新家町４９４番地１１,,27,142,5998232,,,,,,,2025-06-06,1,,,,,アウローラ,0
1046,4120103006498,新規,0,2025-06-06,2025-06-06,合同会社アコンパニエ,,合同会社,大阪府,藤井寺市,藤ケ丘３丁目１３番２号,,27,226,5830017,,,,,,,2025-06-06,1,,,,,アコンパニエ,0
1050,4120903005708,新規,0,2025-06-06,2025-06-06,合同会社ＱＵＡＮＴＡ,,合同会社,大阪府,摂津市,正雀３丁目１４番２８号２０３号,,27,224,5660023,,,,,,,2025-06-06,1,,,,,クアンタ,0
1055,4130001079793,新規,0,2025-06-06,2025-06-06,ＫＯＴＯＴＵＳ株式会社,,株式会社,京都府,京都市中京区,六角町３６８－１,,26,104,6048212,,,,,,,2025-06-06,1,,,,,コトタス,0
1056,4130001079810,新規,0,2025-06-06,2025-06-06,株式会社ｃｏｍ,,株式会社,京都府,京都市中京区,中筋通夷川上る鉾田町３０６番地,,26,104,6040902,,,,,,,2025-06-06,1,,,,,コム,0
1057,4130001079843,新規,0,2025-06-06,2025-06-06,株式会社ｅｔｅ,,株式会社,京都府,亀岡市,三宅町野々神１番地６５,,26,206,6210814,,,,,,,2025-06-06,1,,,,,エテ,0
1058,4130003010525,新規,0,2025-06-06,2025-06-06,合同会社林住研,,合同会社,京都府,京田辺市,大住小林９番地２０,,26,211,6100343,,,,,,,2025-06-06,1,,,,,ハヤシジュウケン,0
1062,4140001138788,新規,0,2025-06-06,2025-06-06,株式会社Ｍ３,,株式会社,兵庫県,神戸市須磨区,白川台４丁目１３番５号,,28,107,6540103,,,,,,,2025-06-06,1,,,,,エムスリー,0
1063,4140001138854,新規,0,2025-06-06,2025-06-06,株式会社Ａｌｌ　Ｂｅｎｅｆｉｔ　Ｉｎｔｅｒｎａｔｉｏｎａｌ,,株式会社,兵庫県,伊丹市,池尻２丁目２０９,,28,207,6640027,,,,,,,2025-06-06,1,,,,,オールベネフィット,0
1064,4140001138870,新規,0,2025-06-06,2025-06-06,龍翔株式会社,,株式会社,兵庫県,神戸市東灘区,深江南町１丁目５番６号,,28,101,6580022,,,,,,,2025-06-06,1,,,,,リュウショウ,0
1067,4140003022148,新規,0,2025-06-06,2025-06-06,合同会社Ｄａｉｓｙ,,合同会社,兵庫県,神戸市西区,玉津町高津橋９９９番地の１９,,28,111,6512122,,,,,,,2025-06-06,1,,,,,デイジー,0
1068,4140005027533,新規,0,2025-06-06,2025-06-06,一般社団法人あつまろ,,その他の設立登記法人,兵庫県,たつの市,龍野町島田２９番地１,,28,229,6794121,,,,,,,2025-06-06,1,,,,,アツマロ,0
1078,4180001167230,新規,0,2025-06-06,2025-06-06,Ｂ　ＭＡＲＫＥＴＩＮＧ　ＪＡＰＡＮ株式会社,,株式会社,愛知県,名古屋市中村区,名駅４丁目２４番５号第２森ビル４０１,,23,105,4500002,,,,,,,2025-06-06,1,,,,,ビーマーケティングジャッパン,0
1082,4180003028570,新規,0,2025-06-06,2025-06-06,合同会社ブルームーン,,合同会社,愛知県,名古屋市天白区,元八事４丁目２７６番地,,23,116,4680066,,,,,,,2025-06-06,1,,,,,ブルームーン,0
1083,4180301039872,新規,0,2025-06-06,2025-06-06,株式会社並び矢,,株式会社,愛知県,豊田市,寺部町３丁目５５４番地,,23,211,4710017,,,,,,,2025-06-06,1,,,,,ナラビヤ,0
1086,4190001032284,新規,0,2025-06-06,2025-06-06,株式会社ＳＭＦ,,株式会社,三重県,松阪市,駅部田町１２８７－７,,24,204,5150045,,,,,,,2025-06-06,1,,,,,エスエムエフ,0
1087,4190003005065,新規,0,2025-06-06,2025-06-06,合同会社４ｔｈ,,合同会社,三重県,三重郡菰野町,大字竹成２２４５番地２,,24,341,5101312,,,,,,,2025-06-06,1,,,,,フォース,0
1088,4200003006862,新規,0,2025-06-06,2025-06-06,合同会社エム・アンド・ケイ,,合同会社,岐阜県,高山市,下三之町２３番地,,21,203,5060841,,,,,,,2025-06-06,1,,,,,エムアンドケイ,0
1098,4220001026720,新規,0,2025-06-06,2025-06-06,株式会社暁,,株式会社,石川県,能美郡川北町,字壱ツ屋７９番地４,,17,324,9231267,,,,,,,2025-06-06,1,,,,,アカツキ,0
1099,4220001026737,新規,0,2025-06-06,2025-06-06,株式会社トータルインテリアはた,,株式会社,石川県,金沢市,山科３丁目１７番３３号,,17,201,9218175,,,,,,,2025-06-06,1,,,,,トータルインテリアハタ,0
1108,4240001065056,新規,0,2025-06-06,2025-06-06,叶花工業株式会社,,株式会社,広島県,安芸郡坂町,北新地２丁目３番４３－１００１号,,34,309,7314311,,,,,,,2025-06-06,1,,,,,カノカコウギョウ,0
1116,4240005015949,新規,0,2025-06-06,2025-06-06,弁護士法人共創,,その他の設立登記法人,広島県,広島市東区,光町１丁目１２番１６号広島ビル６階,,34,102,7320052,,,,,,,2025-06-06,1,,,,,キョウソウ,0
1129,4290005019747,新規,0,2025-06-06,2025-06-06,一般社団法人コンコン,,その他の設立登記法人,福岡県,福岡市早良区,百道浜３丁目４番１０－７０３号,,40,137,8140001,,,,,,,2025-06-06,1,,,,,コンコン,0
1133,4320001021158,新規,0,2025-06-06,2025-06-06,株式会社ＴＥＮＭＯＮ,,株式会社,大分県,大分市,大字小池原１４００番地の３,,44,201,8700147,,,,,,,2025-06-06,1,,,,,テンモン,0
1135,4330001033251,新規,0,2025-06-06,2025-06-06,株式会社中満工業,,株式会社,熊本県,合志市,須屋２０９２番地４６,,43,216,8611102,,,,,,,2025-06-06,1,,,,,ナカミツコウギョウ,0
1136,4330001033276,新規,0,2025-06-06,2025-06-06,株式会社佐野工業,,株式会社,熊本県,上益城郡甲佐町,大字船津１９７９番地１,,43,444,8614611,,,,,,,2025-06-06,1,,,,,サノコウギョウ,0
1137,4330003010991,新規,0,2025-06-06,2025-06-06,合同会社ききょう家,,合同会社,熊本県,熊本市中央区,安政町４－１３ＭＫビル１階,,43,101,8600801,,,,,,,2025-06-06,1,,,,,キキョウヤ,0
1138,4330003011040,新規,0,2025-06-06,2025-06-06,合同会社エルマ,,合同会社,熊本県,合志市,幾久富１８６６－８１２オリエンス幾久富１０３,,43,216,8611112,,,,,,,2025-06-06,1,,,,,エルマ,0
1139,4330003011049,新規,0,2025-06-06,2025-06-06,どりいむ不動産合同会社,,合同会社,熊本県,菊池郡菊陽町,大字津久礼２７００番地７グレイスピア２　７０３号,,43,404,8691101,,,,,,,2025-06-06,1,,,,,ドリイムフドウサン,0
1140,4340001027392,新規,0,2025-06-06,2025-06-06,株式会社作井農園,,株式会社,鹿児島県,大島郡喜界町,大字荒木１０５１番地１,,46,529,8916231,,,,,,,2025-06-06,1,,,,,サクイノウエン,0
1141,4340001027401,新規,0,2025-06-06,2025-06-06,株式会社トトリ,,株式会社,鹿児島県,鹿屋市,西原２丁目３２番３３号ブラックストーン２０２号,,46,203,8930064,,,,,,,2025-06-06,1,,,,,トトリ,0
1143,4370003007126,新規,0,2025-06-06,2025-06-06,ＬＥＧＥＮＤ合同会社,,合同会社,宮城県,登米市,石越町北郷字芦倉１４７番地１３,00139468,04,212,9894701,,,,,,,2025-06-06,1,,,,,レジェンド,0
1144,4370003007134,新規,0,2025-06-06,2025-06-06,合同会社マネジアーク,,合同会社,宮城県,名取市,大手町６丁目１－１－２０１,,04,207,9811232,,,,,,,2025-06-06,1,,,,,マネジアーク,0
1150,4380001035375,新規,0,2025-06-06,2025-06-06,株式会社Ｒｉｔｔｅｒ,,株式会社,福島県,郡山市,安積町荒井字北大部５番地の２,,07,203,9630111,,,,,,,2025-06-06,1,,,,,リッター,0
1155,4400003003476,新規,0,2025-06-06,2025-06-06,ｖｉｌｌａ盛岡合同会社,,合同会社,岩手県,盛岡市,本宮５丁目２番１０号イオプレストビル１０２,,03,201,0200866,,,,,,,2025-06-06,1,,,,,ヴィラモリオカ,0
1156,4410001014169,新規,0,2025-06-06,2025-06-06,株式会社ティーエス,,株式会社,秋田県,横手市,大屋新町字法竜２３７番地１,,05,203,0130051,,,,,,,2025-06-06,1,,,,,ティーエス,0
1157,4430001094614,新規,0,2025-06-06,2025-06-06,総合匠業株式会社,,株式会社,北海道,石狩市,花川北六条２丁目５２番地７,,01,235,0613216,,,,,,,2025-06-06,1,,,,,ソウゴウショウギョウ,0
1158,4430001094622,新規,0,2025-06-06,2025-06-06,株式会社Ｄ‐Ｅｎｔｅｒｔａｉｎｍｅｎｔ,,株式会社,北海道,札幌市中央区,南三条西４丁目１７－３Ｊ・ＢＯＸビル５Ｆ,,01,101,0600063,,,,,,,2025-06-06,1,,,,,ディーエンターテインメント,0
1159,4430001094630,新規,0,2025-06-06,2025-06-06,株式会社スノースマイル,,株式会社,北海道,苫小牧市,双葉町１丁目１番５号コダマビル１Ｆ,,01,213,0530045,,,,,,,2025-06-06,1,,,,,スノースマイル,0
1160,4430003017738,新規,0,2025-06-06,2025-06-06,合同会社Ｑ３,,合同会社,北海道,札幌市豊平区,平岸五条７丁目７番１２－４０３,,01,105,0620935,,,,,,,2025-06-06,1,,,,,キュースリー,0
1161,4450001014644,新規,0,2025-06-06,2025-06-06,株式会社一戸ホールディングス,,株式会社,北海道,富良野市,花園町１番２０号,,01,229,0760027,,,,,,,2025-06-06,1,,,,,イチノヘホールディングス,0
1162,4450003002671,新規,0,2025-06-06,2025-06-06,合同会社林ファーム,,合同会社,北海道,紋別郡滝上町,字滝ノ上原野八線南１４番地,,01,560,0995600,,,,,,,2025-06-06,1,,,,,ハヤシファーム,0
1175,5010001254655,新規,0,2025-06-06,2025-06-06,ＣＴＰパークノ株式会社,,株式会社,東京都,中央区,築地７丁目１０番地８号ＳＥＡビル６０１号,,13,102,1040045,,,,,,,2025-06-06,1,,,,,シーティーピーパークノ,0
1176,5010001255587,新規,0,2025-06-06,2025-06-06,三井不動産ネットワークイノベーション株式会社,,株式会社,東京都,中央区,日本橋室町３丁目２番１号,,13,102,1030022,,,,,,,2025-06-06,1,,,,,ミツイフドウサンネットワークイノベーション,0
1177,5010001255604,新規,0,2025-06-06,2025-06-06,株式会社ｏｏｏ,,株式会社,東京都,中央区,日本橋小舟町９番地４イトーピア日本橋小舟町ビル５階,,13,102,1030024,,,,,,,2025-06-06,1,,,,,オー,0
1178,5010001255612,新規,0,2025-06-06,2025-06-06,株式会社コナミアーケードゲームス,,株式会社,東京都,中央区,銀座１丁目１１番１号,,13,102,1040061,,,,,,,2025-06-06,1,,,,,コナミアーケードゲームス,0
1179,5010001255620,新規,0,2025-06-06,2025-06-06,専門家プロファイル株式会社,,株式会社,東京都,中央区,銀座２丁目１６番７号－２０１,,13,102,1040061,,,,,,,2025-06-06,1,,,,,センモンカプロファイル,0
1180,5010001255653,新規,0,2025-06-06,2025-06-06,ＺＡＱ　Ａｃｃｏｕｎｔｉｎｇ株式会社,,株式会社,東京都,千代田区,神田須田町１丁目１４番地１ヒューリック神田須田町ビル２階,,13,101,1010041,,,,,,,2025-06-06,1,,,,,ザックアカウンティング,0
1181,5010001255661,新規,0,2025-06-06,2025-06-06,Ｇｓｔａｒ株式会社,,株式会社,東京都,千代田区,有楽町１丁目１３番２号第一生命日比谷ファースト１２階,,13,101,1000006,,,,,,,2025-06-06,1,,,,,ジースター,0
1182,5010001255686,新規,0,2025-06-06,2025-06-06,株式会社ノルギィ,,株式会社,東京都,中央区,東日本橋２丁目５番１０号,,13,102,1030004,,,,,,,2025-06-06,1,,,,,ノルギィ,0
1183,5010001255744,新規,0,2025-06-06,2025-06-06,ジャパンオート株式会社,,株式会社,東京都,千代田区,神田東松下町１７番地,,13,101,1010042,,,,,,,2025-06-06,1,,,,,ジャパンオート,0
1186,5010005040135,新規,0,2025-06-06,2025-06-06,ＤＲＥＳ３一般社団法人,,その他の設立登記法人,東京都,中央区,日本橋１丁目４番１号日本橋一丁目ビルディング,,13,102,1030027,,,,,,,2025-06-06,1,,,,,ドレススリー,0
1190,5010401190673,新規,0,2025-06-06,2025-06-06,株式会社ＧＲＡＰＨＩＣ　ＢＯＡＲＤ,,株式会社,東京都,港区,南青山６丁目７番８号ファーロ南青山１１０１,,13,103,1070062,,,,,,,2025-06-06,1,,,,,グラフィックボード,0
1191,5010401190772,新規,0,2025-06-06,2025-06-06,オリエントパブリッシング株式会社,,株式会社,東京都,港区,赤坂６丁目１５番４号２階,,13,103,1070052,,,,,,,2025-06-06,1,,,,,オリエントパブリッシング,0
1192,5010401190789,新規,0,2025-06-06,2025-06-06,Ｈａｌｅｌｅａ株式会社,,株式会社,東京都,港区,新橋５丁目３１番８号ル・グラシエルＢＬＤＧ．３２－１００２号室,,13,103,1050004,,,,,,,2025-06-06,1,,,,,ハレレア,0
1193,5010401190806,新規,0,2025-06-06,2025-06-06,株式会社乙巳ホールディングス,,株式会社,東京都,港区,新橋６丁目２２番５－１４０１号コンシェリア新橋ＳＩＸ,,13,103,1050004,,,,,,,2025-06-06,1,,,,,キノトミホールディングス,0
1194,5010401190921,新規,0,2025-06-06,2025-06-06,ＲＲＧ　Ｊａｐａｎ株式会社,,株式会社,東京都,港区,六本木７丁目３番８号,,13,103,1060032,,,,,,,2025-06-06,1,,,,,アールアールジージャパン,0
1198,5010403035298,新規,0,2025-06-06,2025-06-06,ｍａｋｅ　ｕｐ　ｂｏｕｑｕｅｔ合同会社,,合同会社,東京都,港区,南麻布２丁目３番１１号パークホームズ南麻布ザレジデンス５１２,,13,103,1060047,,,,,,,2025-06-06,1,,,,,メイクアップブーケ,0
1199,5010405024480,新規,0,2025-06-06,2025-06-06,特定目的会社アールイープロジェクトシックス,,その他の設立登記法人,東京都,港区,虎ノ門２丁目６番１号虎ノ門ヒルズステーションタワー,,13,103,1050001,,,,,,,2025-06-06,1,,,,,アールイープロジェクトシックス,0
1207,5010801036229,新規,0,2025-06-06,2025-06-06,株式会社ＪＡＭ,,株式会社,東京都,大田区,蒲田本町１丁目１０－７－９０７,,13,111,1440053,,,,,,,2025-06-06,1,,,,,ジャム,0
1209,5010901057513,新規,0,2025-06-06,2025-06-06,株式会社キャップトゥ,,株式会社,東京都,世田谷区,桜丘５丁目３９番７号トップルーム千歳船橋１０２,,13,112,1560054,,,,,,,2025-06-06,1,,,,,キャップトゥ,0
1212,5011001169926,新規,0,2025-06-06,2025-06-06,株式会社Ｌｕｋｅ,,株式会社,東京都,渋谷区,神南１丁目１１－４ＦＰＧリンクス神南５階,,13,113,1500041,,,,,,,2025-06-06,1,,,,,ルカ,0
1213,5011001169934,新規,0,2025-06-06,2025-06-06,未来会議株式会社,,株式会社,東京都,渋谷区,道玄坂１丁目１０番８号渋谷道玄坂東急ビル２Ｆ－Ｃ,,13,113,1500043,,,,,,,2025-06-06,1,,,,,ミライカイギ,0
1214,5011001169959,新規,0,2025-06-06,2025-06-06,善為株式会社,,株式会社,東京都,目黒区,下目黒１丁目１番１４号コノトラビル７Ｆ,,13,110,1530064,,,,,,,2025-06-06,1,,,,,ゼンタメ,0
1215,5011001170314,新規,0,2025-06-06,2025-06-06,曜光商事株式会社,,株式会社,東京都,目黒区,洗足１丁目１５番１３－６１４号,,13,110,1520012,,,,,,,2025-06-06,1,,,,,ヨウコウショウジ,0
1219,5011101111944,新規,0,2025-06-06,2025-06-06,株式会社ＡＬＬＡＩ,,株式会社,東京都,新宿区,西新宿３丁目３番１３号西新宿水間ビル６階,,13,104,1600023,,,,,,,2025-06-06,1,,,,,オーライ,0
1220,5011101112001,新規,0,2025-06-06,2025-06-06,株式会社ディー・スタイル,,株式会社,東京都,新宿区,新宿１丁目１２番５号４Ｆ,,13,104,1600022,,,,,,,2025-06-06,1,,,,,ディースタイル,0
1222,5011103015945,新規,0,2025-06-06,2025-06-06,ブルーインフラ１６号合同会社,,合同会社,東京都,新宿区,四谷２丁目９番地１５東京ユナイテッド綜合事務所内,,13,104,1600004,,,,,,,2025-06-06,1,,,,,ブルーインフラジュウロクゴウ,0
1225,5011203004724,新規,0,2025-06-06,2025-06-06,合同会社スタートブリッジ,,合同会社,東京都,中野区,大和町４丁目１４番１４号,,13,114,1650034,,,,,,,2025-06-06,1,,,,,スタートブリッジ,0
1236,5011801046259,新規,0,2025-06-06,2025-06-06,ネクサス西新井株式会社,,株式会社,東京都,足立区,江北４丁目２９－５ＫＪメディカルモール江北３階,,13,121,1230872,,,,,,,2025-06-06,1,,,,,ネクサスニシアライ,0
1237,5011803006896,新規,0,2025-06-06,2025-06-06,合同会社まほろばキャピタル,,合同会社,東京都,足立区,千住旭町４５－６－６０４,,13,121,1200026,,,,,,,2025-06-06,1,,,,,マホロバキャピタル,0
1239,5012401043200,新規,0,2025-06-06,2025-06-06,輝月株式会社,,株式会社,東京都,武蔵野市,吉祥寺南町３丁目４番３－４１０号,,13,203,1800003,,,,,,,2025-06-06,1,,,,,キヅキ,0
1246,5013301054403,新規,0,2025-06-06,2025-06-06,株式会社アーキテックサンエイ,,株式会社,東京都,豊島区,池袋３丁目４７番７,,13,116,1710014,,,,,,,2025-06-06,1,,,,,アーキテックサンエイ,0
1252,5020001163203,新規,0,2025-06-06,2025-06-06,株式会社ＤＥＮＥＢ,,株式会社,神奈川県,横浜市中区,不老町２丁目１１番地４スカイパークビル,,14,104,2310032,,,,,,,2025-06-06,1,,,,,デネブ,0
1253,5020001163285,新規,0,2025-06-06,2025-06-06,株式会社探求,,株式会社,神奈川県,横浜市保土ケ谷区,仏向町１３２８－１グレイス保土ケ谷公園２－６０１号,,14,106,2400044,,,,,,,2025-06-06,1,,,,,タンキュウ,0
1254,5020001163302,新規,0,2025-06-06,2025-06-06,ＡＹ株式会社,,株式会社,神奈川県,横浜市磯子区,洋光台６丁目１７－５１,,14,107,2350045,,,,,,,2025-06-06,1,,,,,エイワイ,0
1259,5020005016893,新規,0,2025-06-06,2025-06-06,一般社団法人奏音会,,その他の設立登記法人,神奈川県,横浜市中区,相生町２丁目５０番地大和地所相生町ビル４０１号,,14,104,2310012,,,,,,,2025-06-06,1,,,,,カナオトカイ,0
1262,5021001085437,新規,0,2025-06-06,2025-06-06,株式会社仁建,,株式会社,神奈川県,足柄上郡山北町,山北９７２番地１２,,14,364,2580113,,,,,,,2025-06-06,1,,,,,ジンケン,0
1267,5030001166840,新規,0,2025-06-06,2025-06-06,株式会社Ｒｅｓｔａｒｔ,,株式会社,埼玉県,上尾市,上町１丁目４番１号関東商工会館ビル４階Ａ室,,11,219,3620037,,,,,,,2025-06-06,1,,,,,リスタート,0
1268,5030001166873,新規,0,2025-06-06,2025-06-06,木造建築株式会社,,株式会社,埼玉県,川口市,元郷２丁目１５番１－７０６号,,11,203,3320011,,,,,,,2025-06-06,1,,,,,モクゾウケンチク,0
1269,5030001166881,新規,0,2025-06-06,2025-06-06,株式会社ＩＮＤＩＧＯ　ＷＯＲＫ,,株式会社,埼玉県,北本市,朝日２丁目２３８番地ワコーレＲＧ北本Ｂ－６０４,,11,233,3640011,,,,,,,2025-06-06,1,,,,,インディゴワーク,0
1270,5030001166898,新規,0,2025-06-06,2025-06-06,株式会社リメックス,,株式会社,埼玉県,さいたま市岩槻区,大字大谷４９２番地１,,11,110,3390015,,,,,,,2025-06-06,1,,,,,リメックス,0
1271,5030001166907,新規,0,2025-06-06,2025-06-06,株式会社東陽ビルサービス,,株式会社,埼玉県,川口市,上青木３丁目１番１４－８１１号川口学園台スカイハイツ,,11,203,3330844,,,,,,,2025-06-06,1,,,,,トウヨウビルサービス,0
1272,5030001166915,新規,0,2025-06-06,2025-06-06,株式会社青宙,,株式会社,埼玉県,久喜市,久喜北２丁目９番１号,,11,232,3460007,,,,,,,2025-06-06,1,,,,,アオソラ,0
1273,5030001166964,新規,0,2025-06-06,2025-06-06,株式会社エーダブルエー,,株式会社,埼玉県,久喜市,桜田１丁目３２番１１,,11,232,3400203,,,,,,,2025-06-06,1,,,,,エーダブルエー,0
1277,5030003026893,新規,0,2025-06-06,2025-06-06,合同会社アリヴオンリミテッド,,合同会社,埼玉県,吉川市,大字上笹塚１６５１－１グリーンラボ２０２号,,11,243,3420017,,,,,,,2025-06-06,1,,,,,アリヴオンリミテッド,0
1278,5030003026910,新規,0,2025-06-06,2025-06-06,合同会社ｃｌａｒｕｓ,,合同会社,埼玉県,川越市,南大塚６丁目３９番地２（ソフィアＡ２０２号室）,,11,201,3501162,,,,,,,2025-06-06,1,,,,,クラルス,0
1279,5030003026919,新規,0,2025-06-06,2025-06-06,合同会社ワイアール,,合同会社,埼玉県,川口市,南前川１丁目１１番２２号,,11,203,3330846,,,,,,,2025-06-06,1,,,,,ワイアール,0
1280,5030003026927,新規,0,2025-06-06,2025-06-06,合同会社ＡＳ,,合同会社,埼玉県,ふじみ野市,上福岡１丁目２番１７号上福岡第二ビル３Ｆ,,11,245,3560004,,,,,,,2025-06-06,1,,,,,エーエス,0
1281,5030003026935,新規,0,2025-06-06,2025-06-06,合同会社宙,,合同会社,埼玉県,所沢市,緑町４丁目４７番１０号,,11,208,3591111,,,,,,,2025-06-06,1,,,,,ソラ,0
1282,5030005022189,新規,0,2025-06-06,2025-06-06,税理士法人内村会計事務所,,その他の設立登記法人,埼玉県,さいたま市中央区,上落合６丁目７番１－１０６号,,11,105,3380001,,,,,,,2025-06-06,1,,,,,ウチムラカイケイジムショ,0
1286,5040001139085,新規,0,2025-06-06,2025-06-06,株式会社出島屋,,株式会社,千葉県,香取市,扇島２６５９番地３,,12,236,2870801,,,,,,,2025-06-06,1,,,,,デジマヤ,0
1294,5060003005580,新規,0,2025-06-06,2025-06-06,合同会社ＧＯＬＤ,,合同会社,栃木県,小山市,神鳥谷１丁目２２番４３号,,09,208,3230034,,,,,,,2025-06-06,1,,,,,ゴールド,0
1298,5070001042939,新規,0,2025-06-06,2025-06-06,クロハリオ株式会社,,株式会社,群馬県,前橋市,天川原町１丁目２番地１８,,10,201,3710803,,,,,,,2025-06-06,1,,,,,,0
1299,5070001043004,新規,0,2025-06-06,2025-06-06,株式会社セントラルデザイン,,株式会社,群馬県,伊勢崎市,太田町５６４番地１,,10,204,3720006,,,,,,,2025-06-06,1,,,,,セントラルデザイン,0
1302,5080103003342,新規,0,2025-06-06,2025-06-06,合同会社Ｕｐ　ｆｉｅｌｄ,,合同会社,静岡県,賀茂郡南伊豆町,青市１１０４－５,,22,304,4150151,,,,,,,2025-06-06,1,,,,,アップフィールド,0
1305,5100001038677,新規,0,2025-06-06,2025-06-06,株式会社Ｍｅ,,株式会社,長野県,諏訪市,諏訪１丁目６番２２号,,20,206,3920004,,,,,,,2025-06-06,1,,,,,ミー,0
1306,5110001039336,新規,0,2025-06-06,2025-06-06,ミクニスター株式会社,,株式会社,新潟県,長岡市,長町１丁目４番地６,,15,202,9400053,,,,,,,2025-06-06,1,,,,,ミクニスター,0
1307,5110003005781,新規,0,2025-06-06,2025-06-06,合同会社ＳＴＯ,,合同会社,新潟県,長岡市,寺島町６７５番地ピアッツァセルカ２０２号室,,15,202,9402101,,,,,,,2025-06-06,1,,,,,エスティーオー,0
1314,5120001276523,新規,0,2025-06-06,2025-06-06,株式会社スアーブコア,,株式会社,大阪府,大阪市東淀川区,西淡路４丁目２５番９－２０１号,,27,114,5330031,,,,,,,2025-06-06,1,,,,,スアーブコア,0
1315,5120001276572,新規,0,2025-06-06,2025-06-06,Ｚ＆Ｑ株式会社,,株式会社,大阪府,大阪市中央区,東平２丁目２－７メゾンルミエール上六２０１号室,,27,128,5420063,,,,,,,2025-06-06,1,,,,,ゼッドアンドキュウ,0
1316,5120001276647,新規,0,2025-06-06,2025-06-06,株式会社縁膳,,株式会社,大阪府,大阪市東成区,深江北１丁目１番３２号,,27,115,5370001,,,,,,,2025-06-06,1,,,,,エンゼン,0
1322,5120101071849,新規,0,2025-06-06,2025-06-06,株式会社ネイビー,,株式会社,大阪府,泉佐野市,新安松３丁目６番４０号,,27,213,5980032,,,,,,,2025-06-06,1,,,,,ネイビー,0
1323,5120103006506,新規,0,2025-06-06,2025-06-06,寺内管理合同会社,,合同会社,大阪府,松原市,南新町１丁目１２－２５－３０９号,,27,217,5800023,,,,,,,2025-06-06,1,,,,,テラウチカンリ,0
1329,5122001039307,新規,0,2025-06-06,2025-06-06,未来之星株式会社,,株式会社,大阪府,柏原市,旭ケ丘１丁目１番５０号－１階,,27,221,5820026,,,,,,,2025-06-06,1,,,,,ミライノホシ,0
1335,5130001079834,新規,0,2025-06-06,2025-06-06,Ｋ株式会社,,株式会社,京都府,京都市山科区,西野山中鳥井町９１番地２,,26,110,6078306,,,,,,,2025-06-06,1,,,,,ケイ,0
1336,5130001079850,新規,0,2025-06-06,2025-06-06,株式会社スタートアップサーチ,,株式会社,京都府,京都市下京区,七条通油小路東入大黒町２２７番地第２キョートビル４０２,,26,106,6008223,,,,,,,2025-06-06,1,,,,,スタートアップリサーチ,0
1339,5140001138853,新規,0,2025-06-06,2025-06-06,株式会社耕人,,株式会社,兵庫県,小野市,河合中町字蓬莱野８３番地の１２,,28,218,6751353,,,,,,,2025-06-06,1,,,,,コウジン,0
1342,5140003022130,新規,0,2025-06-06,2025-06-06,合同会社Ｇｒａｎｄｉｒ,,合同会社,兵庫県,加古郡播磨町,北本荘１丁目１４番１０号,,28,382,6750144,,,,,,,2025-06-06,1,,,,,グランディール,0
1344,5160003003500,新規,0,2025-06-06,2025-06-06,合同会社ＬＵＭＩＸＥＬ,,合同会社,滋賀県,愛知郡愛荘町,岩倉２５４番地,,25,425,5291207,,,,,,,2025-06-06,1,,,,,ルミクセル,0
1358,5180001167130,新規,0,2025-06-06,2025-06-06,Ａｓｕｄｅ株式会社,,株式会社,愛知県,半田市,寺町１６３番地の１０,,23,205,4750844,,,,,,,2025-06-06,1,,,,,アスディ,0
1362,5180301039888,新規,0,2025-06-06,2025-06-06,株式会社柿原工業,,株式会社,愛知県,豊川市,行明町樋詰１５３番地１,,23,207,4420822,,,,,,,2025-06-06,1,,,,,,0
1363,5180301039896,新規,0,2025-06-06,2025-06-06,株式会社Ｙｏｚｏｒａ,,株式会社,愛知県,蒲郡市,浜町８０番地,,23,214,4430036,,,,,,,2025-06-06,1,,,,,ヨゾラ,0
1372,5220001026736,新規,0,2025-06-06,2025-06-06,株式会社ＢＡＢＹ　ＢＯＳＳ,,株式会社,石川県,野々市市,二日市２丁目４２番地,,17,212,9218809,,,,,,,2025-06-06,1,,,,,ベイビーボス,0
1375,5230001020952,新規,0,2025-06-06,2025-06-06,株式会社ＲＫＭ,,株式会社,富山県,高岡市,長江１８６８コンチネンタルスカイハイツ１０６号室,,16,202,9330959,,,,,,,2025-06-06,1,,,,,アールケーエム,0
1386,5250001021180,新規,0,2025-06-06,2025-06-06,株式会社プラス電工,,株式会社,山口県,宇部市,南浜町２丁目８番３６号,,35,202,7550063,,,,,,,2025-06-06,1,,,,,プラスデンコウ,0
1387,5250003003739,新規,0,2025-06-06,2025-06-06,合同会社瀬戸内未来水産,,合同会社,山口県,周南市,大字櫛ヶ浜２４２番地の２４,,35,215,7450805,,,,,,,2025-06-06,1,,,,,,0
1390,5290001110211,新規,0,2025-06-06,2025-06-06,株式会社ｖａｌｕｅ　ｇａｔｅ,,株式会社,福岡県,福岡市南区,大橋１丁目３番１８号,,40,134,8150033,,,,,,,2025-06-06,1,,,,,バリューゲート,0
1391,5290001110236,新規,0,2025-06-06,2025-06-06,株式会社Ｇｒｅｅｎ　Ｂａｓｋｅｔ,,株式会社,福岡県,福岡市中央区,天神２丁目２番１２号Ｔ＆Ｊビルディング７Ｆ,,40,133,8100001,,,,,,,2025-06-06,1,,,,,グリーンバスケット,0
1392,5290001110244,新規,0,2025-06-06,2025-06-06,株式会社ＭｅｎｕＭｅｎｕ,,株式会社,福岡県,福岡市西区,今宿駅前１丁目１５番１８号,,40,135,8190168,,,,,,,2025-06-06,1,,,,,メニューメニュー,0
1400,5290801031598,新規,0,2025-06-06,2025-06-06,株式会社Ｊｙｏｕｓｅｉ,,株式会社,福岡県,行橋市,大字下稗田１５８０番地１４,,40,213,8240054,,,,,,,2025-06-06,1,,,,,ジョウセイ,0
1401,5310003005027,新規,0,2025-06-06,2025-06-06,Ｃｉｔｙ　Ｈｉｇｈ合同会社,,合同会社,長崎県,大村市,桜馬場２丁目４４４－１－Ｂ２０３,,42,205,8560812,,,,,,,2025-06-06,1,,,,,シティハイ,0
1405,5330001033267,新規,0,2025-06-06,2025-06-06,株式会社Ｆｏｒｅｓｔｒｙ‐Ｓａｎｋｉ,,株式会社,熊本県,熊本市南区,城南町塚原２２２番地１,,43,104,8614226,,,,,,,2025-06-06,1,,,,,フォレストリーサンキ,0
1406,5330003011048,新規,0,2025-06-06,2025-06-06,合同会社山口商店,,合同会社,熊本県,水俣市,汐見町１丁目２番３３号,,43,205,8670054,,,,,,,2025-06-06,1,,,,,ヤマグチショウテン,0
1408,5340003004868,新規,0,2025-06-06,2025-06-06,合同会社思い出ＰＬＡＮＴ,,合同会社,鹿児島県,鹿児島市,西佐多町１１３番地９,,46,201,8911301,,,,,,,2025-06-06,1,,,,,オモイデプラント,0
1412,5370001052684,新規,0,2025-06-06,2025-06-06,株式会社くっくまナチュラルワークス,,株式会社,宮城県,牡鹿郡女川町,黄金１番地１,,04,581,9862246,,,,,,,2025-06-06,1,,,,,クックマナチュラルワークス,0
1419,5420001019174,新規,0,2025-06-06,2025-06-06,株式会社アール総合資材,,株式会社,青森県,五所川原市,大字石岡字藤巻１２５番地１１,,02,205,0370005,,,,,,,2025-06-06,1,,,,,アールソウゴウシザイ,0
1422,5430001094489,新規,0,2025-06-06,2025-06-06,ＴＲＡＩＬＩＸ株式会社,,株式会社,北海道,岩内郡共和町,前田１６９番地１１,,01,401,0482201,,,,,,,2025-06-06,1,,,,,トレイリックス,0
1423,5430001094605,新規,0,2025-06-06,2025-06-06,株式会社ｎｅｗ　ｌｅａｖｅｓ,,株式会社,北海道,札幌市白石区,本郷通１３丁目南１番３号,,01,104,0030024,,,,,,,2025-06-06,1,,,,,ニューリーブス,0
1425,5450001014643,新規,0,2025-06-06,2025-06-06,株式会社ＥＳＹ,,株式会社,北海道,旭川市,宮下通１０丁目９０２番地１,,01,204,0700030,,,,,,,2025-06-06,1,,,,,イーエスワイ,0
1429,5480001012859,新規,0,2025-06-06,2025-06-06,アジャイル株式会社,,株式会社,徳島県,板野郡松茂町,中喜来字群恵１８３番地１,,36,401,7710212,,,,,,,2025-06-06,1,,,,,アジャイル,0
1432,6010001255611,新規,0,2025-06-06,2025-06-06,ファイナンシャル・フラッグ・コンサルティングサービス株式会社,,株式会社,東京都,中央区,晴海５丁目５番３―１１１２号,,13,102,1040053,,,,,,,2025-06-06,1,,,,,ファイナンシャルフラッグコンサルティングサービス,0
1433,6010001255652,新規,0,2025-06-06,2025-06-06,株式会社Ｓｐｅｅｄ＆Ｓｃａｌｅ,,株式会社,東京都,中央区,日本橋室町１丁目１１番１２号日本橋水野ビル７階,,13,102,1030022,,,,,,,2025-06-06,1,,,,,スピードアンドスケール,0
1434,6010001255669,新規,0,2025-06-06,2025-06-06,かりんこラボ株式会社,,株式会社,東京都,中央区,銀座１丁目１２番４号Ｎ＆ＥＢＬＤ．６Ｆ,,13,102,1040061,,,,,,,2025-06-06,1,,,,,カリンコラボ,0
1435,6010001255702,新規,0,2025-06-06,2025-06-06,株式会社Ｋクリエイト,,株式会社,東京都,中央区,勝どき４丁目６番１－１０２４号,,13,102,1040054,,,,,,,2025-06-06,1,,,,,ケイクリエイト,0
1436,6010001255743,新規,0,2025-06-06,2025-06-06,内幸町他業高度化等事業準備株式会社,,株式会社,東京都,千代田区,内幸町２丁目１番６号,,13,101,1000011,,,,,,,2025-06-06,1,,,,,ウチサイワイチョウタギョウコウドカトウジギョウジュンビ,0
1441,6010003047461,新規,0,2025-06-06,2025-06-06,合同会社ＨＹＣ,,合同会社,東京都,文京区,大塚４丁目２０－１３和田マンション,,13,105,1120012,,,,,,,2025-06-06,1,,,,,エイチワイシー,0
1442,6010003047536,新規,0,2025-06-06,2025-06-06,セーフスプリング合同会社,,合同会社,東京都,中央区,月島１丁目２２番１－２６０７号,,13,102,1040052,,,,,,,2025-06-06,1,,,,,セーフスプリング,0
1443,6010003047560,新規,0,2025-06-06,2025-06-06,Ｆａｃｅ　ｔｏ　ｄｅｓｉｇｎ合同会社,,合同会社,東京都,千代田区,一番町２１番地３ルミナス一番町３０２号,,13,101,1020082,,,,,,,2025-06-06,1,,,,,フェイストゥデザイン,0
1444,6010003047585,新規,0,2025-06-06,2025-06-06,合同会社ＴＩＯ,,合同会社,東京都,千代田区,神田須田町１丁目７番８号ＶＯＲＴ秋葉原ＩＶ２Ｆ,00139485,13,101,1010041,,,,,,,2025-06-06,1,,,,,ティオ,0
1446,6010005040126,新規,0,2025-06-06,2025-06-06,社会保険労務士法人日本労務パートナーズ,,その他の設立登記法人,東京都,中央区,日本橋堀留町１丁目５番７号,,13,102,1030012,,,,,,,2025-06-06,1,,,,,ニホンロウムパートナーズ,0
1447,6010005040159,新規,0,2025-06-06,2025-06-06,リエネ大分日出杵築ウィンドファーム一般社団法人,,その他の設立登記法人,東京都,中央区,京橋２丁目１２番６号ＡＯＪ税理士法人内,,13,102,1040031,,,,,,,2025-06-06,1,,,,,リエネオオイタヒジキツキウィンドファーム,0
1458,6010401190697,新規,0,2025-06-06,2025-06-06,ショウオウ医薬株式会社,,株式会社,東京都,港区,三田１丁目２番１８号ＴＴＤビル,,13,103,1080073,,,,,,,2025-06-06,1,,,,,ショウオウイヤク,0
1459,6010401190862,新規,0,2025-06-06,2025-06-06,株式会社Ｌｉ‐Ｐａｌｅ,,株式会社,東京都,港区,麻布十番１丁目５番１０号アトラスビル６Ｆ,,13,103,1060045,,,,,,,2025-06-06,1,,,,,リペール,0
1460,6010401190870,新規,0,2025-06-06,2025-06-06,ダイリー株式会社,,株式会社,東京都,港区,港南２丁目１５番１号品川インターシティＡ棟２２階,,13,103,1080075,,,,,,,2025-06-06,1,,,,,ダイリー,0
1468,6010601067423,新規,0,2025-06-06,2025-06-06,カードファンタジー株式会社,,株式会社,東京都,江東区,枝川１丁目１３番１３号,,13,108,1350051,,,,,,,2025-06-06,1,,,,,カードファンタジー,0
1477,6010901057487,新規,0,2025-06-06,2025-06-06,株式会社フューチャーサイクル,,株式会社,東京都,世田谷区,砧２丁目２番１２－１０２号,,13,112,1570073,,,,,,,2025-06-06,1,,,,,フューチャーサイクル,0
1478,6010901057504,新規,0,2025-06-06,2025-06-06,Ｇｒｏｗ　Ｌｏｇ株式会社,,株式会社,東京都,世田谷区,桜新町１丁目３１番１８号コスモスパジオ桜新町３０２,,13,112,1540015,,,,,,,2025-06-06,1,,,,,グローログ,0
1489,6011001169768,新規,0,2025-06-06,2025-06-06,株式会社ｅｍｐｔｙ,,株式会社,東京都,渋谷区,恵比寿西２丁目８番４号ＥＸ恵比寿西ビル５階,,13,113,1500021,,,,,,,2025-06-06,1,,,,,エンプティ,0
1490,6011001169891,新規,0,2025-06-06,2025-06-06,株式会社Ｎｅｒｕｆｅｅ,,株式会社,東京都,渋谷区,神泉町２０番２１号クロスシー渋谷神泉ビルＭＩＤＰＯＩＮＴ渋谷神泉１－０５,,13,113,1500045,,,,,,,2025-06-06,1,,,,,ネルフィー,0
1491,6011001169958,新規,0,2025-06-06,2025-06-06,株式会社ＳＣＲＩＰＴ,,株式会社,東京都,渋谷区,円山町５番５号,,13,113,1500044,,,,,,,2025-06-06,1,,,,,スクリプト,0
1495,6011101111927,新規,0,2025-06-06,2025-06-06,株式会社こんさる,,株式会社,東京都,新宿区,西新宿７丁目１０番１７,,13,104,1600023,,,,,,,2025-06-06,1,,,,,コンサル,0
1496,6011101112000,新規,0,2025-06-06,2025-06-06,株式会社Ａｕｒａｌｉｓ,,株式会社,東京都,新宿区,新宿１丁目３６番２号新宿第七葉山ビル３Ｆ,,13,104,1600022,,,,,,,2025-06-06,1,,,,,オーラリス,0
1497,6011201026372,新規,0,2025-06-06,2025-06-06,ＡＡ　Ｃｏｒｐｏｒａｔｉｏｎ株式会社,,株式会社,東京都,中野区,江古田４丁目３２－３－２Ｆ,,13,114,1650022,,,,,,,2025-06-06,1,,,,,エーエーコーポレーション,0
1512,6011801046258,新規,0,2025-06-06,2025-06-06,株式会社リソラ,,株式会社,東京都,足立区,谷在家３丁目２４番２－２１１,,13,121,1230863,,,,,,,2025-06-06,1,,,,,リソラ,0
1515,6011803006895,新規,0,2025-06-06,2025-06-06,Ｐ‐Ｌｉｎｅ合同会社,,合同会社,東京都,足立区,大谷田２丁目３－３５－３－１１０１,,13,121,1200001,,,,,,,2025-06-06,1,,,,,ピーライン,0
1518,6012403007177,新規,0,2025-06-06,2025-06-06,合同会社イロトリ,,合同会社,東京都,多摩市,諏訪２丁目４番地,,13,224,2060024,,,,,,,2025-06-06,1,,,,,イロトリ,0
1519,6012405005121,新規,0,2025-06-06,2025-06-06,つつじヶ丘キリスト教会,,その他の設立登記法人,東京都,調布市,菊野台１丁目４６番地５,,13,208,1820007,,,,,,,2025-06-06,1,,,,,ツツジガオカキリストキョウカイ,0
1521,6012701018900,新規,0,2025-06-06,2025-06-06,株式会社Ｓｍｉｌｅ　Ｗｅｌｌ,,株式会社,東京都,東久留米市,中央町２丁目１番９号,,13,222,2030054,,,,,,,2025-06-06,1,,,,,スマイルウェル,0
1522,6012703003289,新規,0,2025-06-06,2025-06-06,合同会社保谷,,合同会社,東京都,西東京市,泉町２丁目１９番９号,,13,229,2020011,,,,,,,2025-06-06,1,,,,,ホウヤ,0
1527,6013305003719,新規,0,2025-06-06,2025-06-06,一般社団法人日本個人事業主支援機構,,その他の設立登記法人,東京都,豊島区,千早２丁目４３番８号ＹＯ邸３Ｆ,,13,116,1710044,,,,,,,2025-06-06,1,,,,,ニッポンコジンジギョウヌシシエンキコウ,0
1537,6020005016892,新規,0,2025-06-06,2025-06-06,ＮＰＯ法人国際協働企画室グッピーズ,,その他の設立登記法人,神奈川県,川崎市多摩区,長尾６丁目３３番５号,,14,135,2140023,,,,,,,2025-06-06,1,,,,,コクサイキョウドウキカクシツグッピーズ,0
1542,6021001085436,新規,0,2025-06-06,2025-06-06,株式会社加藤塗装,,株式会社,神奈川県,厚木市,上依知１５０９番地１７,,14,212,2430801,,,,,,,2025-06-06,1,,,,,カトウトソウ,0
1549,6030001166831,新規,0,2025-06-06,2025-06-06,株式会社ｂｕｄｄｙ,,株式会社,埼玉県,朝霞市,溝沼２丁目１２番１３号,,11,227,3510023,,,,,,,2025-06-06,1,,,,,バディー,0
1550,6030001166848,新規,0,2025-06-06,2025-06-06,サンフォレスト株式会社,,株式会社,埼玉県,川口市,戸塚２丁目１１－１０ＴＦビル２－３０３,,11,203,3330811,,,,,,,2025-06-06,1,,,,,サンフォレスト,0
1551,6030001166889,新規,0,2025-06-06,2025-06-06,株式会社スラッシュ,,株式会社,埼玉県,草加市,新善町４３７番地５－２０１号,,11,221,3400054,,,,,,,2025-06-06,1,,,,,スラッシュ,0
1552,6030001166897,新規,0,2025-06-06,2025-06-06,株式会社田中,,株式会社,埼玉県,さいたま市中央区,新中里５丁目２０番１０号,,11,105,3380011,,,,,,,2025-06-06,1,,,,,タナカ,0
1553,6030001166906,新規,0,2025-06-06,2025-06-06,株式会社常昇興業,,株式会社,埼玉県,八潮市,大字大曽根８８１番地１,,11,234,3400834,,,,,,,2025-06-06,1,,,,,ジョウショウコウギョウ,0
1554,6030001166914,新規,0,2025-06-06,2025-06-06,株式会社ＡＲＴ　ＳＥＡＳＯＮ,,株式会社,埼玉県,川越市,石原町１丁目３２番地３３,,11,201,3500824,,,,,,,2025-06-06,1,,,,,アートシーズン,0
1555,6030001166922,新規,0,2025-06-06,2025-06-06,株式会社インテリア岩崎,00139466,株式会社,埼玉県,越谷市,花田５丁目１４番地１９,,11,222,3430015,,,,,,,2025-06-06,1,,,,,インテリアイワサキ,0
1556,6030001166930,新規,0,2025-06-06,2025-06-06,株式会社スタジオ松組,,株式会社,埼玉県,羽生市,大字喜右エ門新田２３０番地,,11,216,3480014,,,,,,,2025-06-06,1,,,,,スタジオマツグミ,0
1562,6030003026901,新規,0,2025-06-06,2025-06-06,ＬＡＤＡＭＡ合同会社,,合同会社,埼玉県,入間郡三芳町,大字上富２２９３番地７,,11,324,3540045,,,,,,,2025-06-06,1,,,,,ラダマ,0
1563,6030003026918,新規,0,2025-06-06,2025-06-06,合同会社銀農,,合同会社,埼玉県,和光市,丸山台１丁目４－４、２Ｆ,,11,229,3510112,,,,,,,2025-06-06,1,,,,,ギンノウ,0
1564,6030003026926,新規,0,2025-06-06,2025-06-06,合同会社ＣＯＲＥ,,合同会社,埼玉県,さいたま市見沼区,大字蓮沼４９６番地８,,11,104,3370015,,,,,,,2025-06-06,1,,,,,コアー,0
1565,6030003026934,新規,0,2025-06-06,2025-06-06,吉吉商事合同会社,,合同会社,埼玉県,蕨市,北町４丁目３番１２号,,11,223,3350001,,,,,,,2025-06-06,1,,,,,ニキチショウジ,0
1567,6030005022188,新規,0,2025-06-06,2025-06-06,一般社団法人ＢＥＬＬＥＦＩＮＥ,,その他の設立登記法人,埼玉県,越谷市,千間台西３丁目２番地１２イオンスタイルせんげん台２階,,11,222,3430041,,,,,,,2025-06-06,1,,,,,ベルフィーヌ,0
1576,6040001139076,新規,0,2025-06-06,2025-06-06,株式会社ＬｅＬｉｅｎ,,株式会社,千葉県,我孫子市,台田４丁目２番１５－１０１号,,12,222,2701167,,,,,,,2025-06-06,1,,,,,ルリアン,0
1577,6040001139092,新規,0,2025-06-06,2025-06-06,櫻研富士樺株式会社,,株式会社,千葉県,佐倉市,生谷１５２９番地,,12,212,2850836,,,,,,,2025-06-06,1,,,,,サクラケンフジカ,0
1578,6040003027808,新規,0,2025-06-06,2025-06-06,ＭＳＣ合同会社,,合同会社,千葉県,八千代市,緑が丘西７丁目１８番地２３,,12,221,2760040,,,,,,,2025-06-06,1,,,,,エムエスシー,0
1581,6060003005588,新規,0,2025-06-06,2025-06-06,合同会社ＣＡＬＣＥＳ,,合同会社,栃木県,宇都宮市,下栗町６１４番地１９,,09,201,3210923,,,,,,,2025-06-06,1,,,,,カーチェス,0
1582,6070001042987,新規,0,2025-06-06,2025-06-06,株式会社ＳＯＲＲＩＳＯ,,株式会社,群馬県,太田市,台之郷町７０３番地１０,,10,205,3730801,,,,,,,2025-06-06,1,,,,,ソリッソ,0
1583,6070001042995,新規,0,2025-06-06,2025-06-06,ビッグファーム株式会社,,株式会社,群馬県,富岡市,野上１９２０番地,,10,210,3702323,,,,,,,2025-06-06,1,,,,,ビッグファーム,0
1584,6070003005950,新規,0,2025-06-06,2025-06-06,マッスル・ブレイン合同会社,,合同会社,群馬県,桐生市,本町５丁目５１番１号東武桐生本町ビル桐生市インキュベーション・オフィス２階,,10,203,3760031,,,,,,,2025-06-06,1,,,,,マッスルブレイン,0
1585,6080001026964,新規,0,2025-06-06,2025-06-06,インフルブルーム株式会社,,株式会社,静岡県,静岡市駿河区,有東３丁目２番３号マンションＦｕｓｈｉｍｉ２０２,,22,102,4228032,,,,,,,2025-06-06,1,,,,,インフルブルーム,0
1586,6080403005277,新規,0,2025-06-06,2025-06-06,合同会社プラストロ,,合同会社,静岡県,浜松市中央区,富塚町４３４２番地の１グランメール佐鳴湖５０１,,22,138,4328002,,,,,,,2025-06-06,1,,,,,プラストロ,0
1593,6100003008198,新規,0,2025-06-06,2025-06-06,合同会社ＩｋｅｍｏｒｉＯｒｃｈａｒｄ,,合同会社,長野県,須坂市,大字村山町３４５,,20,207,3820904,,,,,,,2025-06-06,1,,,,,イケモリオーチャード,0
1594,6110001039302,新規,0,2025-06-06,2025-06-06,Ｐｅａｒ　Ｊａｐａｎ株式会社,,株式会社,新潟県,三条市,井戸場１５９１番地１,,15,204,9550096,,,,,,,2025-06-06,1,,,,,ペアジャパン,0
1595,6110001039335,新規,0,2025-06-06,2025-06-06,株式会社ＲｅＧｒｏｗ,,株式会社,新潟県,新潟市中央区,東大通２丁目４番１０号日本生命ビル９Ｆ,,15,103,9500087,,,,,,,2025-06-06,1,,,,,リーグロウ,0
1602,6120001276464,新規,0,2025-06-06,2025-06-06,偉軒株式会社,,株式会社,大阪府,大阪市淀川区,十三本町１丁目１８－７－２０３,,27,123,5320024,,,,,,,2025-06-06,1,,,,,イケン,0
1603,6120001276480,新規,0,2025-06-06,2025-06-06,株式会社Ｂｅ　Ｃｌｅａｒ,,株式会社,大阪府,大阪市浪速区,難波中２丁目６番１号壽ビル４階,,27,111,5560011,,,,,,,2025-06-06,1,,,,,ビークリア,0
1604,6120001276514,新規,0,2025-06-06,2025-06-06,株式会社ＡＱＵＡ,,株式会社,大阪府,大阪市城東区,諏訪４丁目１２番２５号,,27,118,5360021,,,,,,,2025-06-06,1,,,,,アクア,0
1605,6120001276522,新規,0,2025-06-06,2025-06-06,株式会社サイプレス,,株式会社,大阪府,大阪市東住吉区,東田辺３丁目２７番４号,,27,121,5460032,,,,,,,2025-06-06,1,,,,,サイプレス,0
1606,6120001276539,新規,0,2025-06-06,2025-06-06,エクラ・シエル株式会社,,株式会社,大阪府,大阪市旭区,中宮２丁目１９番５号ルベール公園前６０３号室,,27,117,5350003,,,,,,,2025-06-06,1,,,,,エクラシエル,0
1607,6120001276571,新規,0,2025-06-06,2025-06-06,株式会社ケーライフデザイン,,株式会社,大阪府,枚方市,山之上５丁目３７番２５号,,27,210,5730047,,,,,,,2025-06-06,1,,,,,ケーライフデザイン,0
1608,6120001276596,新規,0,2025-06-06,2025-06-06,株式会社Ｂｕｄｄｙ　Ｍｏｖｉｎ,,株式会社,大阪府,大阪市北区,万歳町３番１２号萬栄ビル２０４号室,,27,127,5300028,,,,,,,2025-06-06,1,,,,,バディムービン,0
1612,6120003029671,新規,0,2025-06-06,2025-06-06,ＵｒｂａｎＡｒｔ合同会社,,合同会社,大阪府,大阪市旭区,中宮３丁目６番２１号Ａビル,,27,117,5350003,,,,,,,2025-06-06,1,,,,,アーバンアート,0
1615,6120101071856,新規,0,2025-06-06,2025-06-06,株式会社ｐｅｒｍｅ,,株式会社,大阪府,堺市北区,東浅香山町２丁４第２萬晃ビル２０３,,27,146,5918008,,,,,,,2025-06-06,1,,,,,ペルメ,0
1616,6120103006496,新規,0,2025-06-06,2025-06-06,ＮＯＺＯＭＩ合同会社,,合同会社,大阪府,堺市北区,金岡町１４２３番地３なかもずオールズ１１１６号,,27,146,5918022,,,,,,,2025-06-06,1,,,,,ノゾミ,0
1617,6120103006505,新規,0,2025-06-06,2025-06-06,ココリアルエステート合同会社,,合同会社,大阪府,堺市南区,三原台１丁９番７－２号,,27,145,5900111,,,,,,,2025-06-06,1,,,,,ココリアルエステート,0
1619,6120901051000,新規,0,2025-06-06,2025-06-06,株式会社ＳＩＪ,,株式会社,大阪府,茨木市,真砂２丁目６番１２号サニーメルベーユ３０５号,,27,211,5670851,,,,,,,2025-06-06,1,,,,,エスアイジェー,0
1624,6122001039297,新規,0,2025-06-06,2025-06-06,株式会社ＹＵＴＡＫＡ,,株式会社,大阪府,東大阪市,川田４丁目６番１号,,27,227,5780905,,,,,,,2025-06-06,1,,,,,ユタカ,0
1632,6130001079841,新規,0,2025-06-06,2025-06-06,株式会社ｍａｙｍｉｎ．ｊａｐａｎ,,株式会社,京都府,京都市東山区,泉涌寺東林町３９番地５１,,26,105,6050976,,,,,,,2025-06-06,1,,,,,メイミンジャパン,0
1638,6140001138852,新規,0,2025-06-06,2025-06-06,株式会社スマイルフォー,,株式会社,兵庫県,西脇市,野村町３７２番地の４,,28,213,6770054,,,,,,,2025-06-06,1,,,,,スマイルフォー,0
1640,6140003022170,新規,0,2025-06-06,2025-06-06,リアレスター合同会社,,合同会社,兵庫県,西宮市,津門西口町２番１６号,,28,204,6638231,,,,,,,2025-06-06,1,,,,,リアレスター,0
1646,6170001018663,新規,0,2025-06-06,2025-06-06,株式会社イオリエンジ,,株式会社,和歌山県,和歌山市,土佐町２丁目５４－４,,30,201,6408256,,,,,,,2025-06-06,1,,,,,イオリエンジ,0
1652,6180003028585,新規,0,2025-06-06,2025-06-06,合同会社Ａｎｔｉｑｕｅ,,合同会社,愛知県,名古屋市名東区,新宿２丁目１９０番地,,23,115,4650063,,,,,,,2025-06-06,1,,,,,アンティーク,0
1654,6180303006596,新規,0,2025-06-06,2025-06-06,合同会社Ｈｏｓｏｄａ,,合同会社,愛知県,豊橋市,東幸町字東明１１番地１,,23,201,4400843,,,,,,,2025-06-06,1,,,,,ホソダ,0
1656,6190001032274,新規,0,2025-06-06,2025-06-06,株式会社Ｇｒｅｅｎ,,株式会社,三重県,松阪市,萌木町１４番地１０,,24,204,5150087,,,,,,,2025-06-06,1,,,,,グリーン,0
1657,6190001032290,新規,0,2025-06-06,2025-06-06,キャンフォート株式会社,,株式会社,三重県,志摩市,磯部町穴川１３６５番地１０,,24,215,5170213,,,,,,,2025-06-06,1,,,,,キャンフォート,0
1658,6190003005063,新規,0,2025-06-06,2025-06-06,合同会社光壮,,合同会社,三重県,鈴鹿市,稲生１丁目２０番２５号,,24,207,5100205,,,,,,,2025-06-06,1,,,,,コウソウ,0
1662,6200001043872,新規,0,2025-06-06,2025-06-06,株式会社ヤマグチ,,株式会社,岐阜県,多治見市,明和町３丁目１番地の１,,21,204,5070072,,,,,,,2025-06-06,1,,,,,ヤマグチ,0
1663,6200003006869,新規,0,2025-06-06,2025-06-06,合同会社ＡＬＩ・ＩＮＴＥＲＮＡＴＩＯＮＡＬ,,合同会社,岐阜県,大垣市,外渕１丁目１０２番地２,,21,202,5030934,,,,,,,2025-06-06,1,,,,,アリインターナショナル,0
1665,6210001020202,新規,0,2025-06-06,2025-06-06,株式会社よろこび,,株式会社,福井県,坂井市,丸岡町南横地第２号２７番地８,,18,210,9100375,,,,,,,2025-06-06,1,,,,,ヨロコビ,0
1666,6220001026735,新規,0,2025-06-06,2025-06-06,閨谷工業株式会社,,株式会社,石川県,七尾市,国分町ラ部６８番地,,17,202,9260821,,,,,,,2025-06-06,1,,,,,ネヤタニコウギョウ,0
1668,6230003002444,新規,0,2025-06-06,2025-06-06,合同会社シロカワデンタルラボ,,合同会社,富山県,富山市,蓮町１丁目１番４５号,,16,201,9318333,,,,,,,2025-06-06,1,,,,,シロカワデンタルラボ,0
1676,6250003003746,新規,0,2025-06-06,2025-06-06,合同会社つむぎ,,合同会社,山口県,萩市,大字川島４４４,,35,204,7580031,,,,,,,2025-06-06,1,,,,,ツムギ,0
1677,6260001040253,新規,0,2025-06-06,2025-06-06,株式会社フジマル,,株式会社,岡山県,倉敷市,水江１５８６番地７１,,33,202,7100802,,,,,,,2025-06-06,1,,,,,フジマル,0
1678,6260001040261,新規,0,2025-06-06,2025-06-06,株式会社ＫＩＴ,,株式会社,岡山県,岡山市北区,東古松２丁目２－２ポルト・ボヌール５０５,,33,101,7000921,,,,,,,2025-06-06,1,,,,,キット,0
1686,6290001110251,新規,0,2025-06-06,2025-06-06,株式会社ライフテラス,,株式会社,福岡県,福岡市南区,警弥郷３丁目４番１５号,,40,134,8111324,,,,,,,2025-06-06,1,,,,,ライフテラス,0
1689,6290003016934,新規,0,2025-06-06,2025-06-06,合同会社ＤＵＫＥ,,合同会社,福岡県,筑後市,大字新溝５７５番地３,,40,211,8330006,,,,,,,2025-06-06,1,,,,,デューク,0
1692,6290005019761,新規,0,2025-06-06,2025-06-06,一般社団法人ＰＲＯＰＡＬ,,その他の設立登記法人,福岡県,朝倉郡筑前町,下高場１９８４番地１ボルドーＶ番館１０２号,00139473,40,447,8380211,,,,,,,2025-06-06,1,,,,,プロパル,0
1697,6300001014211,新規,0,2025-06-06,2025-06-06,株式会社ストラテック,,株式会社,佐賀県,佐賀市,鍋島町大字八戸溝１６６番地３５,,41,201,8490932,,,,,,,2025-06-06,1,,,,,ストラテック,0
1700,6310001019639,新規,0,2025-06-06,2025-06-06,株式会社ＮｅｕｎＳｔｅｉｎ,,株式会社,長崎県,西彼杵郡長与町,岡郷２２４８番地８,,42,307,8512121,,,,,,,2025-06-06,1,,,,,ノインシュタイン,0
1706,6320003004687,新規,0,2025-06-06,2025-06-06,合同会社雄和,,合同会社,大分県,別府市,原町１２番３号エーガーデン桜園２０３号,,44,202,8740820,,,,,,,2025-06-06,1,,,,,ユウワ,0
1708,6330001033274,新規,0,2025-06-06,2025-06-06,株式会社セールスアドバンス,,株式会社,熊本県,熊本市中央区,九品寺４丁目２１番４１号,,43,101,8620976,,,,,,,2025-06-06,1,,,,,セールスアドバンス,0
1709,6330003011039,新規,0,2025-06-06,2025-06-06,合同会社エイミー,,合同会社,熊本県,熊本市南区,上ノ郷２丁目３番２０号１０１,,43,104,8614132,,,,,,,2025-06-06,1,,,,,エイミー,0
1713,6340003004867,新規,0,2025-06-06,2025-06-06,合同会社メブキ,,合同会社,鹿児島県,日置市,伊集院町妙円寺３丁目６６番地５,,46,216,8992503,,,,,,,2025-06-06,1,,,,,メブキ,0
1716,6350001019577,新規,0,2025-06-06,2025-06-06,愛宕住研株式会社,,株式会社,宮崎県,日南市,大字酒谷乙５７２番地２,,45,204,8892511,,,,,,,2025-06-06,1,,,,,アタゴジュウケン,0
1724,6370001052667,新規,0,2025-06-06,2025-06-06,株式会社トータルクリーンフィックス,,株式会社,宮城県,仙台市宮城野区,新田２丁目６番２６号,,04,102,9830038,,,,,,,2025-06-06,1,,,,,トータルクリーンフィックス,0
1726,6380001035373,新規,0,2025-06-06,2025-06-06,株式会社創建,,株式会社,福島県,いわき市,東田町１丁目１８番地の９,,07,204,9748212,,,,,,,2025-06-06,1,,,,,ソウケン,0
1728,6400001017055,新規,0,2025-06-06,2025-06-06,株式会社カントク,,株式会社,岩手県,盛岡市,新田町７番３０号新田町レジデンス５号,,03,201,0200042,,,,,,,2025-06-06,1,,,,,カントク,0
1729,6400005008496,新規,0,2025-06-06,2025-06-06,一般社団法人ＫＩＺＵＮＡプロジェクト,,その他の設立登記法人,岩手県,花巻市,山の神４６８－１３ハイツアルファ１０２,,03,205,0250024,,,,,,,2025-06-06,1,,,,,キズナプロジェクト,0
1731,6410001014175,新規,0,2025-06-06,2025-06-06,株式会社ＮＯＢ‐Ａｇｅｎｃｙ,,株式会社,秋田県,横手市,寿町６番２３号,,05,203,0130025,,,,,,,2025-06-06,1,,,,,ノブエージェンシー,0
1734,6430001094604,新規,0,2025-06-06,2025-06-06,株式会社ＲＡＲＥＬＹ,,株式会社,北海道,札幌市東区,中沼六条２丁目１番１８－２０２号,,01,103,0070006,,,,,,,2025-06-06,1,,,,,レアリー,0
1735,6430001094620,新規,0,2025-06-06,2025-06-06,株式会社Ｂｉｚｇｒｏｏｖｅ,,株式会社,北海道,札幌市中央区,北六条西１４丁目４番地３０東邦シャトー桑園２０２号,,01,101,0600006,,,,,,,2025-06-06,1,,,,,ビズグルーブ,0
1736,6430001094629,新規,0,2025-06-06,2025-06-06,ＳＫ工業株式会社,,株式会社,北海道,札幌市北区,屯田六条５丁目８番１６号,,01,102,0020856,,,,,,,2025-06-06,1,,,,,エスケイコウギョウ,0
1737,6430003017736,新規,0,2025-06-06,2025-06-06,合同会社フェリーチェ,,合同会社,北海道,札幌市北区,北三十五条西６丁目１番１－５０２号,,01,102,0010035,,,,,,,2025-06-06,1,,,,,フェリーチェ,0
1738,6430003017744,新規,0,2025-06-06,2025-06-06,ＴＲＵＥ　ＮＯＲＴＨ　ＥＳＴＡＴＥ合同会社,,合同会社,北海道,虻田郡倶知安町,南七条西１丁目１番地２,,01,400,0440041,,,,,,,2025-06-06,1,,,,,トゥルーノースエステート,0
1740,6450001014642,新規,0,2025-06-06,2025-06-06,株式会社三幸ホールディングス,,株式会社,北海道,旭川市,緑町２５丁目２１４３番地４１,,01,204,0700823,,,,,,,2025-06-06,1,,,,,サンコウホールディングス,0
1741,6460001006011,新規,0,2025-06-06,2025-06-06,釧路市場サービス株式会社,,株式会社,北海道,釧路市,新富士町６丁目１番２３号,,01,206,0840904,,,,,,,2025-06-06,1,,,,,クシロシジョウサービス,0
1742,6460005001594,新規,0,2025-06-06,2025-06-06,一般社団法人釧路公共嘱託登記司法書士協会,,その他の設立登記法人,北海道,釧路市,宮本１丁目２番４号,,01,206,0850833,,,,,,,2025-06-06,1,,,,,クシロコウキョウショクタクトウキシホウショシキョウカイ,0
1744,6460301005299,新規,0,2025-06-06,2025-06-06,株式会社ＴＳＵＮＥ,,株式会社,北海道,網走郡大空町,女満別西七条４丁目３番１６号,,01,564,0992327,,,,,,,2025-06-06,1,,,,,ツネ,0
1745,6470001020746,新規,0,2025-06-06,2025-06-06,宮脇地総株式会社,,株式会社,香川県,高松市,宮脇町１丁目７番２５号スカール伊藤８０１,,37,201,7600005,,,,,,,2025-06-06,1,,,,,ミヤワキチソウ,0
1748,6480005007094,新規,0,2025-06-06,2025-06-06,一般社団法人公共嘱託登記土地家屋調査士協会藍,,その他の設立登記法人,徳島県,徳島市,出来島本町２丁目６番地,,36,201,7700823,,,,,,,2025-06-06,1,,,,,コウキョウショクタクトウキトチカオクチョウサシキョウカイアイ,0
1749,6490001011074,新規,0,2025-06-06,2025-06-06,エネテートマネージメント株式会社,,株式会社,高知県,土佐市,高岡町乙１６１番地１２,,39,205,7811102,,,,,,,2025-06-06,1,,,,,エネテートマネージメント,0
1752,6700150130933,新規,0,2025-06-06,2025-06-06,ｔｈｉｎｇｓｆｌｏｗ，ｉｎｃ,,外国会社等,,,,,,,,５１　Ｓｅｏｎｇｓｕｉ－ｒｏ　２０－ｇｉｌ，Ｓｅｏｎｇｄｏｎｇ－ｇｕ，Ｓｅｏｕｌ,,,,,,2025-06-06,1,,,,,シングスフロウインク,0
1760,7010001255619,新規,0,2025-06-06,2025-06-06,株式会社柚雪,,株式会社,東京都,中央区,佃１丁目１１番８号ピアウエストスクエアノースウイング２階,,13,102,1040051,,,,,,,2025-06-06,1,,,,,ユズユキ,0
1761,7010001255635,新規,0,2025-06-06,2025-06-06,株式会社ひだまりケア,,株式会社,東京都,千代田区,平河町１丁目３番６－５１４号,,13,101,1020093,,,,,,,2025-06-06,1,,,,,ヒダマリケア,0
1762,7010001255651,新規,0,2025-06-06,2025-06-06,株式会社情報流通,,株式会社,東京都,中央区,日本橋堀留町１丁目１０番１９号,,13,102,1030012,,,,,,,2025-06-06,1,,,,,ジョウホウリュウツウ,0
1763,7010001255684,新規,0,2025-06-06,2025-06-06,ブルースカイ株式会社,,株式会社,東京都,中央区,日本橋浜町１丁目２番８号５階,,13,102,1030007,,,,,,,2025-06-06,1,,,,,ブルースカイ,0
1765,7010003047535,新規,0,2025-06-06,2025-06-06,Ｖｅｎｕｓ合同会社,,合同会社,東京都,中央区,日本橋兜町１７番１号日本橋ロイヤルプラザ７０６,,13,102,1030026,,,,,,,2025-06-06,1,,,,,ビーナス,0
1766,7010003047543,新規,0,2025-06-06,2025-06-06,合同会社ＢｌａｃｋＣａｔ,,合同会社,東京都,千代田区,神田和泉町１番地６－１６ヤマトビル４０５,,13,101,1010024,,,,,,,2025-06-06,1,,,,,ブラックキャット,0
1773,7010401190795,新規,0,2025-06-06,2025-06-06,株式会社ｅｐａｎｕ,,株式会社,東京都,港区,赤坂６丁目４番１８－６０１号,,13,103,1070052,,,,,,,2025-06-06,1,,,,,エパヌ,0
1774,7010401190812,新規,0,2025-06-06,2025-06-06,株式会社アヤミタカダアーキテクツ,,株式会社,東京都,港区,赤坂６丁目９－５氷川アネックス２号館２０１,,13,103,1070052,,,,,,,2025-06-06,1,,,,,アヤミタカダアーキテクツ,0
1775,7010401190829,新規,0,2025-06-06,2025-06-06,株式会社ヴィクシズ,,株式会社,東京都,港区,六本木４丁目１２番４号清水ビルＢ１,,13,103,1060032,,,,,,,2025-06-06,1,,,,,ヴィクシズ,0
1776,7010401190853,新規,0,2025-06-06,2025-06-06,ＡＫＲＩＮ株式会社,,株式会社,東京都,港区,南青山２丁目４番１５号,,13,103,1070062,,,,,,,2025-06-06,1,,,,,アクリン,0
1779,7010405024479,新規,0,2025-06-06,2025-06-06,特定目的会社アールイープロジェクトファイブ,,その他の設立登記法人,東京都,港区,虎ノ門２丁目６番１号虎ノ門ヒルズステーションタワー,,13,103,1050001,,,,,,,2025-06-06,1,,,,,アールイープロジェクトファイブ,0
1780,7010501054149,新規,0,2025-06-06,2025-06-06,ＮＣ商事株式会社,,株式会社,東京都,台東区,台東３丁目５番１０号１０２Ｄ,,13,106,1100016,,,,,,,2025-06-06,1,,,,,エヌシーショウジ,0
1783,7010601067414,新規,0,2025-06-06,2025-06-06,漢舎パートナーズ株式会社,,株式会社,東京都,墨田区,墨田２丁目１１番１１号,,13,107,1310031,,,,,,,2025-06-06,1,,,,,カンシャパートナーズ,0
1784,7010601067422,新規,0,2025-06-06,2025-06-06,グローバルリンク株式会社,,株式会社,東京都,墨田区,吾妻橋１丁目１８番２号サンスプレンダー吾妻橋８０１号室,,13,107,1300001,,,,,,,2025-06-06,1,,,,,グローバルリンク,0
1785,7010601067430,新規,0,2025-06-06,2025-06-06,株式会社Ｗａｋｋｕ,,株式会社,東京都,江東区,枝川１丁目１４－２０－１１０１,,13,108,1350051,,,,,,,2025-06-06,1,,,,,ワック,0
1789,7010703007739,新規,0,2025-06-06,2025-06-06,合同会社Ｌｉａｎ,,合同会社,東京都,品川区,東中延２丁目５番４号,,13,109,1420052,,,,,,,2025-06-06,1,,,,,リアン,0
1790,7010703007747,新規,0,2025-06-06,2025-06-06,ハッピーベル合同会社,,合同会社,東京都,品川区,二葉１丁目３番７－１０４号,,13,109,1420043,,,,,,,2025-06-06,1,,,,,ハッピーベル,0
1796,7010803005428,新規,0,2025-06-06,2025-06-06,合同会社正和堂,,合同会社,東京都,大田区,田園調布１丁目５５番８号,,13,111,1450071,,,,,,,2025-06-06,1,,,,,セイワドウ,0
1801,7010903009989,新規,0,2025-06-06,2025-06-06,アリーナ合同会社,,合同会社,東京都,世田谷区,千歳台４丁目２６番１９－２０４号,,13,112,1570071,,,,,,,2025-06-06,1,,,,,アリーナ,0
1802,7010903009997,新規,0,2025-06-06,2025-06-06,合同会社京浜オート商会,,合同会社,東京都,世田谷区,弦巻３丁目３０番９号,,13,112,1540016,,,,,,,2025-06-06,1,,,,,ケイヒンオートショウカイ,0
1811,7011001169924,新規,0,2025-06-06,2025-06-06,株式会社Ｌｕｚｚｕ,,株式会社,東京都,渋谷区,神宮前６丁目２３番４号桑野ビル２階,,13,113,1500001,,,,,,,2025-06-06,1,,,,,ルッツ,0
1812,7011001169932,新規,0,2025-06-06,2025-06-06,株式会社在宅医療パートナー,,株式会社,東京都,渋谷区,神南１丁目１１番４号,,13,113,1500041,,,,,,,2025-06-06,1,,,,,ザイタクイリョウパートナー,0
1817,7011101112024,新規,0,2025-06-06,2025-06-06,株式会社ＫＪチョイス,,株式会社,東京都,新宿区,百人町１丁目８番１－１００２号,,13,104,1690073,,,,,,,2025-06-06,1,,,,,ケイジェイチョイス,0
1820,7011105011478,新規,0,2025-06-06,2025-06-06,一般社団法人コア・エイト,,その他の設立登記法人,東京都,新宿区,西新宿８丁目５番１号,,13,104,1600023,,,,,,,2025-06-06,1,,,,,コアエイト,0
1825,7011501032169,新規,0,2025-06-06,2025-06-06,株式会社エスドリ,,株式会社,東京都,北区,滝野川７丁目２８－３ＢｕｚｚＷｏｒｋ,,13,117,1140023,,,,,,,2025-06-06,1,,,,,エスドリ,0
1836,7011801046257,新規,0,2025-06-06,2025-06-06,株式会社ｅ．ｎｉ．ｓｈｉ,,株式会社,東京都,葛飾区,堀切５丁目４６番５号,,13,122,1240006,,,,,,,2025-06-06,1,,,,,エニシ,0
1837,7011801046273,新規,0,2025-06-06,2025-06-06,Ｐｅｒｆｅｃｔ　Ｌｉｆｅ株式会社,,株式会社,東京都,足立区,佐野２丁目１６番８号,,13,121,1210053,,,,,,,2025-06-06,1,,,,,パーフェクトライフ,0
1838,7011801046281,新規,0,2025-06-06,2025-06-06,株式会社ディヴァプロ,,株式会社,東京都,足立区,北加平町１０番２０号,,13,121,1210056,,,,,,,2025-06-06,1,,,,,ディヴァプロ,0
1845,7012701018899,新規,0,2025-06-06,2025-06-06,株式会社エム・ジェー,,株式会社,東京都,東村山市,栄町２丁目８番地１４,,13,213,1890013,,,,,,,2025-06-06,1,,,,,エムジェー,0
1847,7012801024013,新規,0,2025-06-06,2025-06-06,ＡＩＢ株式会社,,株式会社,東京都,昭島市,武蔵野２丁目１２番８号,,13,207,1960021,,,,,,,2025-06-06,1,,,,,エーアイビー,0
1849,7012803003758,新規,0,2025-06-06,2025-06-06,合同会社国和,,合同会社,東京都,国立市,西２丁目１０番の８ＫＳ２１ビル４０１号,,13,215,1860005,,,,,,,2025-06-06,1,,,,,クニワ,0
1856,7020003028674,新規,0,2025-06-06,2025-06-06,合同会社ＧｅＮｅｘ,,合同会社,神奈川県,横浜市西区,浅間町１丁目４番３号ウィザードビル４０２,,14,103,2200072,,,,,,,2025-06-06,1,,,,,ジェネックス,0
1861,7021001085427,新規,0,2025-06-06,2025-06-06,株式会社ＩＴＴＡＮ,,株式会社,神奈川県,海老名市,大谷北２丁目１０番６９号,,14,215,2430419,,,,,,,2025-06-06,1,,,,,イッタン,0
1870,7030001166871,新規,0,2025-06-06,2025-06-06,株式会社円縁,,株式会社,埼玉県,川越市,東田町４番地３２６,,11,201,3501114,,,,,,,2025-06-06,1,,,,,エニシ,0
1871,7030001166888,新規,0,2025-06-06,2025-06-06,株式会社くろっぷくろっぷ,,株式会社,埼玉県,所沢市,大字北岩岡４１３番地,,11,208,3590007,,,,,,,2025-06-06,1,,,,,クロップクロップ,0
1872,7030001166905,新規,0,2025-06-06,2025-06-06,株式会社Ｉ・Ｋ・Ｏ,,株式会社,埼玉県,草加市,柿木町１１８４番地１,,11,221,3400001,,,,,,,2025-06-06,1,,,,,アイケーオー,0
1873,7030001166954,新規,0,2025-06-06,2025-06-06,株式会社ハイアットコンサルティング,,株式会社,埼玉県,さいたま市南区,根岸５丁目１番１１号,,11,108,3360024,,,,,,,2025-06-06,1,,,,,ハイアットコンサルティング,0
1874,7030001166962,新規,0,2025-06-06,2025-06-06,株式会社ＩＲＥ,,株式会社,埼玉県,川口市,元郷３丁目２３番１号Ｅ・ＨＯＵＳＥ川口１０１号室,,11,203,3320011,,,,,,,2025-06-06,1,,,,,アイアールイー,0
1880,7030003026925,新規,0,2025-06-06,2025-06-06,合同会社杜希,,合同会社,埼玉県,さいたま市見沼区,大字南中野５５９番地１,,11,104,3370042,,,,,,,2025-06-06,1,,,,,トキ,0
1885,7040001139141,新規,0,2025-06-06,2025-06-06,株式会社アイティｅ,,株式会社,千葉県,我孫子市,柴崎台１丁目３番１７号,,12,222,2701176,,,,,,,2025-06-06,1,,,,,アイティイー,0
1893,7040003027682,新規,0,2025-06-06,2025-06-06,合同会社ＫＯＢＡ,,合同会社,千葉県,千葉市若葉区,桜木８丁目８‐２６,,12,104,2640028,,,,,,,2025-06-06,1,,,,,コバ,0
1897,7060003005587,新規,0,2025-06-06,2025-06-06,合同会社Ｆａｉｔｈ,,合同会社,栃木県,大田原市,紫塚１丁目９番５７号ニューウイング羽石２０５号,,09,210,3240058,,,,,,,2025-06-06,1,,,,,フェイス,0
1900,7070001042986,新規,0,2025-06-06,2025-06-06,株式会社エヌエージーシステム,,株式会社,群馬県,高崎市,棟高町１０３６番地２,,10,202,3703521,,,,,,,2025-06-06,1,,,,,エヌエージーシステム,0
1902,7080401027966,新規,0,2025-06-06,2025-06-06,株式会社アディクト,,株式会社,静岡県,浜松市中央区,常盤町２番地の４,,22,138,4300917,,,,,,,2025-06-06,1,,,,,アディクト,0
1905,7090001019306,新規,0,2025-06-06,2025-06-06,株式会社南アルプス林業,,株式会社,山梨県,南アルプス市,上宮地１５２８番地,,19,208,4000312,,,,,,,2025-06-06,1,,,,,ミナミアルプスリンギョウ,0
1908,7100003008197,新規,0,2025-06-06,2025-06-06,合同会社Ｒｅｖｉｖａｌ,,合同会社,長野県,長野市,青木島町大塚１４３番地,,20,201,3812205,,,,,,,2025-06-06,1,,,,,リバイバル,0
1918,7120001276463,新規,0,2025-06-06,2025-06-06,太平洋夢株式会社,,株式会社,大阪府,大阪市西成区,萩之茶屋２丁目６－４ニューかめや１７５号室,,27,122,5570004,,,,,,,2025-06-06,1,,,,,タイヘイヨウユメ,0
1919,7120001276521,新規,0,2025-06-06,2025-06-06,株式会社アドディレクション,,株式会社,大阪府,大阪市西成区,松２丁目６番２９号,,27,122,5570034,,,,,,,2025-06-06,1,,,,,アドディレクション,0
1920,7120001276546,新規,0,2025-06-06,2025-06-06,株式会社ＹＯＫＥ,,株式会社,大阪府,大阪市西区,靭本町一丁目９番１８号,,27,106,5500000,,,,,,,2025-06-06,1,,,,,ヨーク,0
1921,7120001276554,新規,0,2025-06-06,2025-06-06,ＩｎｆｉｎｉＮｅｔ株式会社,,株式会社,大阪府,大阪市東住吉区,東田辺３丁目１－１－３Ｆ－Ｈ,,27,121,5460032,,,,,,,2025-06-06,1,,,,,インフィニネット,0
1922,7120001276562,新規,0,2025-06-06,2025-06-06,ＫＯＭ’ｃ株式会社,,株式会社,大阪府,大阪市福島区,福島７丁目１８番２０号２４０１室,,27,103,5530003,,,,,,,2025-06-06,1,,,,,コムシー,0
1923,7120001276579,新規,0,2025-06-06,2025-06-06,株式会社Ａｄｖａｎｃｅｄ　Ｃｒｅａｔｏｒｓ,,株式会社,大阪府,大阪市阿倍野区,阪南町２丁目５－２４Ｊ－ＡＲＣ昭和町１Ｆ,,27,119,5450021,,,,,,,2025-06-06,1,,,,,アドヴァンストクリエイターズ,0
1924,7120001276612,新規,0,2025-06-06,2025-06-06,株式会社Ｎｅｘｔ　Ｒｉｎｇ,,株式会社,大阪府,大阪市淀川区,西宮原２丁目６番１６号新大阪コーポビアネアーズ３０１号,,27,123,5320004,,,,,,,2025-06-06,1,,,,,ネクストリング,0
1925,7120001276637,新規,0,2025-06-06,2025-06-06,小春日和株式会社,,株式会社,大阪府,大阪市港区,夕凪１丁目１０－１２－７０３号室,,27,107,5520004,,,,,,,2025-06-06,1,,,,,コハルビヨリ,0
1928,7120005024967,新規,0,2025-06-06,2025-06-06,一般社団法人ともり,,その他の設立登記法人,大阪府,大阪市北区,梅田１丁目２番２号大阪駅前第２ビル１２－１２,,27,127,5300001,,,,,,,2025-06-06,1,,,,,トモリ,0
1933,7120101071822,新規,0,2025-06-06,2025-06-06,株式会社飛彩翔運,,株式会社,大阪府,高石市,西取石７丁目１２番６号,,27,225,5920012,,,,,,,2025-06-06,1,,,,,ヒサイショウウン,0
1934,7120101071839,新規,0,2025-06-06,2025-06-06,株式会社宝星電機システム,,株式会社,大阪府,富田林市,若松町東１丁目８番１２号,,27,214,5840023,,,,,,,2025-06-06,1,,,,,ホウセイデンキシステム,0
1935,7120103006504,新規,0,2025-06-06,2025-06-06,ＨＮＡ合同会社,,合同会社,大阪府,和泉市,室堂町２８８－６、２０５号,,27,219,5941101,,,,,,,2025-06-06,1,,,,,エイチエヌエー,0
1939,7120903005705,新規,0,2025-06-06,2025-06-06,合同会社ＮＩＣＣＯＬＬＹ　ｋｎｏｗｌｅｄｇｅ,,合同会社,大阪府,箕面市,船場東２丁目１－４０－８０３,,27,220,5620035,,,,,,,2025-06-06,1,,,,,ニコリーナレッジ,0
1941,7122003003226,新規,0,2025-06-06,2025-06-06,エムケイワイエス合同会社,,合同会社,大阪府,八尾市,東町６丁目１５１番地,,27,212,5810861,,,,,,,2025-06-06,1,,,,,エムケイワイエス,0
1944,7130001079832,新規,0,2025-06-06,2025-06-06,株式会社Ｌｏｎｆｉｅｅ,,株式会社,京都府,京都市上京区,中立売通裏門東入多門町４３４番地－７０４,,26,102,6028261,,,,,,,2025-06-06,1,,,,,ロンフィー,0
1954,7170001018662,新規,0,2025-06-06,2025-06-06,株式会社ＢＲＡＮＤ　ＷＡＫＡＹＡＭＡ,,株式会社,和歌山県,和歌山市,黒田１８５番地３Ｋｅｙ－Ｓｉｔｅ２Ｆ,,30,201,6408341,,,,,,,2025-06-06,1,,,,,ブランドワカヤマ,0
1964,7180001167137,新規,0,2025-06-06,2025-06-06,株式会社中村電気土木,,株式会社,愛知県,愛西市,西保町西川原２７７番地１３,,23,232,4960911,,,,,,,2025-06-06,1,,,,,ナカムラデンキドボク,0
1965,7180001167145,新規,0,2025-06-06,2025-06-06,株式会社ｋｅｅｐ,,株式会社,愛知県,名古屋市北区,柳原１丁目１４番２２号チケンビル４階４０５号,,23,103,4620845,,,,,,,2025-06-06,1,,,,,キープ,0
1966,7180001167178,新規,0,2025-06-06,2025-06-06,株式会社えん,,株式会社,愛知県,知多郡武豊町,字鹿ノ子田１丁目１１３番地ロイヤルリリーフＭ＆Ｓ３０５号,,23,447,4702302,,,,,,,2025-06-06,1,,,,,エン,0
1974,7180301039878,新規,0,2025-06-06,2025-06-06,食の和株式会社,,株式会社,愛知県,豊橋市,白河町１３番地プラウドタワー豊橋３０２,,23,201,4418021,,,,,,,2025-06-06,1,,,,,ショクノワ,0
1977,7180303006595,新規,0,2025-06-06,2025-06-06,合同会社ファーマーズＩＮＡ,,合同会社,愛知県,豊橋市,野田町字野田１０番地の１,,23,201,4418001,,,,,,,2025-06-06,1,,,,,ファーマーズイナ,0
1978,7190001032281,新規,0,2025-06-06,2025-06-06,株式会社Ｅ‐Ｈｏｒｉｚｏｎ,,株式会社,三重県,四日市市,新正４丁目１６番１０号ＦｏｕｒｓｅａｓｏｎｓＩ－１０１,00139471,24,202,5100064,,,,,,,2025-06-06,1,,,,,イーホライズン,0
1987,7230003002443,新規,0,2025-06-06,2025-06-06,合同会社和み,,合同会社,富山県,富山市,千石町５丁目６番２－３０３号,,16,201,9300066,,,,,,,2025-06-06,1,,,,,ナゴミ,0
1991,7240001065020,新規,0,2025-06-06,2025-06-06,株式会社コウヨウエンジ,,株式会社,広島県,福山市,大門町１丁目１４番２８－４号,,34,207,7210926,,,,,,,2025-06-06,1,,,,,コウヨウエンジ,0
1997,7260001040269,新規,0,2025-06-06,2025-06-06,株式会社Ｌ＆Ｅ,,株式会社,岡山県,倉敷市,片島町１０７５番地１,,33,202,7100805,,,,,,,2025-06-06,1,,,,,エルアンドイー,0
2006,7290001110242,新規,0,2025-06-06,2025-06-06,株式会社ＮｅｗＰｒｏ,,株式会社,福岡県,福岡市博多区,博多駅前１丁目２３番２号ＰａｒｋＦｒｏｎｔ博多駅前１丁目５Ｆ－Ｂ,,40,132,8120011,,,,,,,2025-06-06,1,,,,,ニュープロ,0
2007,7290001110250,新規,0,2025-06-06,2025-06-06,株式会社ＺＶＡ,,株式会社,福岡県,福岡市中央区,谷２丁目１６番３３,,40,133,8100031,,,,,,,2025-06-06,1,,,,,ズバ,0
2010,7290003016933,新規,0,2025-06-06,2025-06-06,アップアップＮＴ合同会社,,合同会社,福岡県,大野城市,南ケ丘３丁目７－２９,,40,219,8160964,,,,,,,2025-06-06,1,,,,,アップアップエヌティー,0
2015,7290801031605,新規,0,2025-06-06,2025-06-06,株式会社ＡＭＡＲＵ,,株式会社,福岡県,北九州市小倉南区,湯川３丁目６－５５,,40,107,8000257,,,,,,,2025-06-06,1,,,,,アマル,0
2018,7300001014210,新規,0,2025-06-06,2025-06-06,はがくれ銃砲株式会社,,株式会社,佐賀県,鳥栖市,立石町８８１番地１,,41,203,8410075,,,,,,,2025-06-06,1,,,,,ハガクレジュウホウ,0
2021,7320001021139,新規,0,2025-06-06,2025-06-06,株式会社ミズナ,,株式会社,大分県,別府市,田の湯町３番７号３Ｆ－２,,44,202,8740909,,,,,,,2025-06-06,1,,,,,ミズナ,0
2022,7320001021155,新規,0,2025-06-06,2025-06-06,株式会社ルトゥールアンカーズ,,株式会社,大分県,大分市,ふじが丘南３丁目１３番７号,,44,201,8701183,,,,,,,2025-06-06,1,,,,,ルトゥールアンカーズ,0
2024,7340001027398,新規,0,2025-06-06,2025-06-06,株式会社ライフアップ,,株式会社,鹿児島県,鹿児島市,武岡５丁目２５番地２３号,,46,201,8900031,,,,,,,2025-06-06,1,,,,,ライフアップ,0
2026,7350003004948,新規,0,2025-06-06,2025-06-06,合同会社ケアサポートアジア,,合同会社,宮崎県,都城市,金田町２５３８番地１,,45,202,8850001,,,,,,,2025-06-06,1,,,,,ケアサポートアジア,0
2033,7370001052666,新規,0,2025-06-06,2025-06-06,株式会社ジーエルホールディングス,,株式会社,宮城県,仙台市青葉区,木町通１丁目１－２５,,04,101,9800801,,,,,,,2025-06-06,1,,,,,ジーエルホールディングス,0
2034,7370001052682,新規,0,2025-06-06,2025-06-06,はぐくみ給食株式会社,,株式会社,宮城県,仙台市青葉区,中山９丁目２番１２号,,04,101,9810952,,,,,,,2025-06-06,1,,,,,ハグクミキュウショク,0
2036,7370003007131,新規,0,2025-06-06,2025-06-06,合同会社ＴＩＣ,,合同会社,宮城県,仙台市青葉区,台原４丁目１３番１７号,,04,101,9810911,,,,,,,2025-06-06,1,,,,,ティック,0
2039,7420003003125,新規,0,2025-06-06,2025-06-06,櫻庭商会合同会社,,合同会社,青森県,青森市,大字築木館字山ノ井１５番地８,,02,201,0300925,,,,,,,2025-06-06,1,,,,,サクラバショウカイ,0
2047,7430001094603,新規,0,2025-06-06,2025-06-06,株式会社タグテック,,株式会社,北海道,千歳市,梅ケ丘２丁目１番１５号,,01,224,0660025,,,,,,,2025-06-06,1,,,,,タグテック,0
2048,7430001094628,新規,0,2025-06-06,2025-06-06,株式会社チャレンジコネクション,,株式会社,北海道,札幌市中央区,南五条西１５丁目２番３号５０３,,01,101,0640805,,,,,,,2025-06-06,1,,,,,チャレンジコネクション,0
2050,7430003017727,新規,0,2025-06-06,2025-06-06,合同会社プティ・ラソ,,合同会社,北海道,札幌市北区,篠路九条２丁目１番２５号,,01,102,0028029,,,,,,,2025-06-06,1,,,,,プティラソ,0
2051,7430003017751,新規,0,2025-06-06,2025-06-06,Ａｎｙｏｎｅ　ｅｌｓｅ合同会社,,合同会社,北海道,札幌市豊平区,月寒西一条３丁目３番１－８０３,,01,105,0620021,,,,,,,2025-06-06,1,,,,,エニイワンエルス,0
2052,7450001014641,新規,0,2025-06-06,2025-06-06,ノースクロップ株式会社,,株式会社,北海道,名寄市,字日進１１１５番地,,01,221,0960066,,,,,,,2025-06-06,1,,,,,ノースクロップ,0
2068,8010001255601,新規,0,2025-06-06,2025-06-06,株式会社Ｃａｓａ　Ａｓｋａ,,株式会社,東京都,中央区,銀座１丁目１２番４号Ｎ＆ＥＢＬＤ．６Ｆ,,13,102,1040061,,,,,,,2025-06-06,1,,,,,カサアスカ,0
2069,8010001255626,新規,0,2025-06-06,2025-06-06,株式会社ビズワク,,株式会社,東京都,中央区,銀座１丁目１２番４号Ｎ＆Ｅ・ＢＬＤ．６Ｆ,,13,102,1040061,,,,,,,2025-06-06,1,,,,,ビズワク,0
2070,8010001255634,新規,0,2025-06-06,2025-06-06,株式会社ＰＲＯＴＥＡＭＺ,,株式会社,東京都,中央区,日本橋室町１丁目１１番１２号日本橋水野ビル７階,,13,102,1030022,,,,,,,2025-06-06,1,,,,,プロチームズ,0
2071,8010001255642,新規,0,2025-06-06,2025-06-06,奥河商事株式会社,,株式会社,東京都,中央区,日本橋室町１丁目１１－１２日本橋水野ビル７階,,13,102,1030022,,,,,,,2025-06-06,1,,,,,オクカワショウジ,0
2072,8010001255659,新規,0,2025-06-06,2025-06-06,和応システム株式会社,,株式会社,東京都,文京区,白山１丁目６番４号文京ＶＥＮＴＵＲＥＢＡＳＥ２階Ａ２０号室,,13,105,1130001,,,,,,,2025-06-06,1,,,,,ワオウシステム,0
2073,8010001255782,新規,0,2025-06-06,2025-06-06,株式会社ＡＦＳ,,株式会社,東京都,中央区,銀座１丁目１２番４号Ｎ＆ＥＢＬＤ．６Ｆ,,13,102,1040061,,,,,,,2025-06-06,1,,,,,アフス,0
2074,8010003047559,新規,0,2025-06-06,2025-06-06,ＤＲＥＳ３合同会社,,合同会社,東京都,中央区,日本橋１丁目４番１号日本橋一丁目ビルディング,,13,102,1030027,,,,,,,2025-06-06,1,,,,,ドレススリー,0
2075,8010003047591,新規,0,2025-06-06,2025-06-06,合同会社カクタスＰ＆Ｍ,,合同会社,東京都,中央区,日本橋箱崎町１番２号,,13,102,1030015,,,,,,,2025-06-06,1,,,,,カクタスピーアンドエム,0
2076,8010003047609,新規,0,2025-06-06,2025-06-06,合同会社Ｂｅｌｌｅｖｉａｇｅ,,合同会社,東京都,中央区,銀座４丁目１２番１５号歌舞伎座タワー,,13,102,1040061,,,,,,,2025-06-06,1,,,,,ベルヴィアージ,0
2077,8010005040090,新規,0,2025-06-06,2025-06-06,特定非営利活動法人日本マカオ協会,,その他の設立登記法人,東京都,千代田区,九段南１丁目５番６号りそな九段ビル５階ＫＳフロア,,13,101,1020074,,,,,,,2025-06-06,1,,,,,ニホンマカオキョウカイ,0
2083,8010401190745,新規,0,2025-06-06,2025-06-06,ＡＥＱＵＩＴＡ　Ｊａｐａｎ株式会社,,株式会社,東京都,港区,海岸１丁目２番２０号汐留ビルディング３階ＣＳＣＪａｐａｎＣｏｒｐｏｒａｔｅＳｅｒｖｉｃｅｓ株式会社内,,13,103,1050022,,,,,,,2025-06-06,1,,,,,エクイタジャパン,0
2084,8010401190753,新規,0,2025-06-06,2025-06-06,株式会社ケア・リンクス,,株式会社,東京都,港区,南青山２丁目２番１５号ｗｉｎ青山ビル,,13,103,1070062,,,,,,,2025-06-06,1,,,,,ケアリンクス,0
2085,8010401190778,新規,0,2025-06-06,2025-06-06,Ｚ．Ｙ．Ｆ株式会社,,株式会社,東京都,港区,北青山２丁目７番１３号プラセオ青山ビル３階,,13,103,1070061,,,,,,,2025-06-06,1,,,,,ズィーワイエフ,0
2086,8010401190794,新規,0,2025-06-06,2025-06-06,株式会社フロウリッシュ,,株式会社,東京都,港区,北青山１丁目３番１号アールキューブ青山３階,,13,103,1070061,,,,,,,2025-06-06,1,,,,,フロウリッシュ,0
2087,8010401190803,新規,0,2025-06-06,2025-06-06,ＤＸアカデミー株式会社,,株式会社,東京都,港区,六本木３丁目１６番１２号六本木ＫＳビル５Ｆ,,13,103,1060032,,,,,,,2025-06-06,1,,,,,ディーエックスアカデミー,0
2088,8010401190828,新規,0,2025-06-06,2025-06-06,ＭＣＰ４１株式会社,,株式会社,東京都,港区,元赤坂１丁目１番７－１２０９号株式会社赤坂国際会計内,,13,103,1070051,,,,,,,2025-06-06,1,,,,,エムシーピーフォーワン,0
2089,8010401190844,新規,0,2025-06-06,2025-06-06,ＬＬホールディングス２株式会社,,株式会社,東京都,港区,浜松町２丁目４番１号,,13,103,1050013,,,,,,,2025-06-06,1,,,,,エルエルホールディングスツー,0
2093,8010405024445,新規,0,2025-06-06,2025-06-06,雲取山特定目的会社,,その他の設立登記法人,東京都,港区,六本木１丁目６番１号泉ガーデンタワーＫＰＭＧ税理士法人内,,13,103,1060032,,,,,,,2025-06-06,1,,,,,クモトリヤマ,0
2094,8010405024478,新規,0,2025-06-06,2025-06-06,特定目的会社アールイープロジェクトフォー,,その他の設立登記法人,東京都,港区,虎ノ門２丁目６番１号虎ノ門ヒルズステーションタワー,,13,103,1050001,,,,,,,2025-06-06,1,,,,,アールイープロジェクトフォー,0
2097,8010503007871,新規,0,2025-06-06,2025-06-06,合同会社Ｌｕｒｉｅ,,合同会社,東京都,台東区,松が谷２丁目２７番９－１００４号日神デュオステージ浅草松が谷,,13,106,1110036,,,,,,,2025-06-06,1,,,,,ルリエ,0
2100,8010601067405,新規,0,2025-06-06,2025-06-06,ブルーバード株式会社,,株式会社,東京都,江東区,亀戸１丁目４０番６号アズ亀戸ビル９０１,,13,108,1360071,,,,,,,2025-06-06,1,,,,,ブルーバード,0
2101,8010601067413,新規,0,2025-06-06,2025-06-06,ＨＹ株式会社,,株式会社,東京都,江東区,北砂５丁目２０番１８－９１０号,,13,108,1360073,,,,,,,2025-06-06,1,,,,,エイチワイ,0
2119,8011001169774,新規,0,2025-06-06,2025-06-06,株式会社Ｊａｐａｎ　Ｓｔｏｒａｇｅ　Ｂｕｉｌｄ,,株式会社,東京都,渋谷区,神南１丁目１１－４ＦＰＧリンクス神南５階,,13,113,1500041,,,,,,,2025-06-06,1,,,,,ジャパンストレージビルド,0
2120,8011001169832,新規,0,2025-06-06,2025-06-06,ディープシー株式会社,,株式会社,東京都,渋谷区,神南１丁目１１－４ＦＰＧリンクス神南５階,,13,113,1500041,,,,,,,2025-06-06,1,,,,,ディープシー,0
2121,8011001169931,新規,0,2025-06-06,2025-06-06,株式会社Ｍｕａｈ,,株式会社,東京都,目黒区,三田２丁目１０番５５－１０３,,13,110,1530062,,,,,,,2025-06-06,1,,,,,ムア,0
2122,8011001169956,新規,0,2025-06-06,2025-06-06,ＰＥアドリンク株式会社,,株式会社,東京都,渋谷区,道玄坂２丁目６番１７号渋東シネタワー１２階,,13,113,1500043,,,,,,,2025-06-06,1,,,,,ピーイーアドリンク,0
2123,8011003021801,新規,0,2025-06-06,2025-06-06,ＡＴＴＡ合同会社,,合同会社,東京都,目黒区,目黒本町５丁目７番１０号３０１,,13,110,1520002,,,,,,,2025-06-06,1,,,,,アッタ,0
2124,8011005011057,新規,0,2025-06-06,2025-06-06,社会保険労務士法人ヒューマックス,,その他の設立登記法人,東京都,渋谷区,代官山町８番７号Ｄａｉｗａ代官山ビル１階,,13,113,1500034,,,,,,,2025-06-06,1,,,,,ヒューマックス,0
2128,8011101111974,新規,0,2025-06-06,2025-06-06,株式会社ｕｎｌｅａｒｎ,,株式会社,東京都,新宿区,新宿２丁目１２－１３新宿アントレサロンビル２階,,13,104,1600022,,,,,,,2025-06-06,1,,,,,アンラーン,0
2129,8011105011477,新規,0,2025-06-06,2025-06-06,一般社団法人コア・ナイン,,その他の設立登記法人,東京都,新宿区,西新宿８丁目５番１号,,13,104,1600023,,,,,,,2025-06-06,1,,,,,コアナイン,0
2130,8011201026412,新規,0,2025-06-06,2025-06-06,Ｃｉｎｅｐｈｉｌｉａ株式会社,,株式会社,東京都,中野区,上高田１丁目３７番２６号レオリンＢ０１,,13,114,1640002,,,,,,,2025-06-06,1,,,,,シネフィリア,0
2133,8011301030628,新規,0,2025-06-06,2025-06-06,株式会社青天,,株式会社,東京都,杉並区,高円寺北２丁目８番１号２階,,13,115,1660002,,,,,,,2025-06-06,1,,,,,アオテン,0
2136,8011401027136,新規,0,2025-06-06,2025-06-06,ＣＡＲＥ　ＵＳ株式会社,,株式会社,東京都,板橋区,成増３丁目４７番５号カガミハウス２０１号,,13,119,1750094,,,,,,,2025-06-06,1,,,,,ケアアス,0
2137,8011701028404,新規,0,2025-06-06,2025-06-06,株式会社ウェルテック工業,,株式会社,東京都,江戸川区,東葛西６丁目２４番１９号,,13,123,1340084,,,,,,,2025-06-06,1,,,,,ウェルテックコウギョウ,0
2138,8011703004238,新規,0,2025-06-06,2025-06-06,合同会社Ｐａｓｓｉｏｎ　Ｃｏｎｎｅｃｔ,,合同会社,東京都,江戸川区,東小岩６丁目３３－１８－１０２号室,,13,123,1330052,,,,,,,2025-06-06,1,,,,,パッションコネクト,0
2141,8011801046272,新規,0,2025-06-06,2025-06-06,株式会社Ｍ＆Ｍ,,株式会社,東京都,足立区,柳原１丁目８番６号,,13,121,1200022,,,,,,,2025-06-06,1,,,,,エムアンドエム,0
2147,8012801024012,新規,0,2025-06-06,2025-06-06,株式会社ＥｉｇｈＴｗＯｎｅ,,株式会社,東京都,立川市,一番町４丁目１４番地の２３,,13,202,1900033,,,,,,,2025-06-06,1,,,,,エイトゥーワン,0
2154,8020001163191,新規,0,2025-06-06,2025-06-06,ｋ’ｓ　ｈｏｍｅ株式会社,,株式会社,神奈川県,横浜市中区,本牧宮原２－２５,,14,104,2310804,,,,,,,2025-06-06,1,,,,,ケーズホーム,0
2155,8020001163200,新規,0,2025-06-06,2025-06-06,株式会社スムサポ,,株式会社,神奈川県,川崎市高津区,坂戸１丁目１７番３－３２５号パークホームズ溝の口ミッドイースト,,14,134,2130012,,,,,,,2025-06-06,1,,,,,スムサポ,0
2156,8020001163233,新規,0,2025-06-06,2025-06-06,株式会社梅花,,株式会社,神奈川県,川崎市宮前区,宮前平３丁目９番地３０,,14,136,2160006,,,,,,,2025-06-06,1,,,,,バイカ,0
2157,8020001163241,新規,0,2025-06-06,2025-06-06,株式会社Ｐｅｎｇｅｖａ,,株式会社,神奈川県,横浜市西区,北幸１丁目５番１０号ＪＰＲ横浜ビル８階,,14,103,2200004,,,,,,,2025-06-06,1,,,,,ペンジーヴァ,0
2158,8020003028624,新規,0,2025-06-06,2025-06-06,合同会社テナクリパートナーズ,,合同会社,神奈川県,横浜市西区,浅間町１丁目４－３ウィザードビル４０２,,14,103,2200072,,,,,,,2025-06-06,1,,,,,テナクリパートナーズ,0
2162,8021001085418,新規,0,2025-06-06,2025-06-06,株式会社Ｆａｍｉｌｙ,,株式会社,神奈川県,大和市,つきみ野４丁目５番１号,,14,213,2420002,,,,,,,2025-06-06,1,,,,,ファミリー,0
2163,8021001085426,新規,0,2025-06-06,2025-06-06,株式会社タイセー,,株式会社,神奈川県,横須賀市,長沢４丁目９番６号,,14,201,2390842,,,,,,,2025-06-06,1,,,,,タイセー,0
2164,8021003016073,新規,0,2025-06-06,2025-06-06,合同会社ＭＴＴ,,合同会社,神奈川県,鎌倉市,長谷２丁目７－３２,,14,204,2480016,,,,,,,2025-06-06,1,,,,,エムティーティー,0
2170,8030001166854,新規,0,2025-06-06,2025-06-06,株式会社タイセークリエイト,,株式会社,埼玉県,川口市,北原台２丁目８番３１－１０５号,,11,203,3330815,,,,,,,2025-06-06,1,,,,,タイセークリエイト,0
2171,8030001166870,新規,0,2025-06-06,2025-06-06,株式会社ＰＥＲＺＯＮ,,株式会社,埼玉県,大里郡寄居町,大字牟礼１５４４番地２６,,11,408,3691215,,,,,,,2025-06-06,1,,,,,パーゾン,0
2172,8030001166887,新規,0,2025-06-06,2025-06-06,株式会社高橋造園,00139467,株式会社,埼玉県,さいたま市岩槻区,大字黒谷１５７３番地,,11,110,3390033,,,,,,,2025-06-06,1,,,,,タカハシゾウエン,0
2173,8030001166895,新規,0,2025-06-06,2025-06-06,株式会社ＺＥＮ,,株式会社,埼玉県,行田市,行田２１番１２号,,11,206,3610073,,,,,,,2025-06-06,1,,,,,ゼン,0
2174,8030001166904,新規,0,2025-06-06,2025-06-06,株式会社佐野工業,,株式会社,埼玉県,朝霞市,三原２丁目１６番１３－Ｂ－６０２号,,11,227,3510025,,,,,,,2025-06-06,1,,,,,サノコウギョウ,0
2175,8030001166912,新規,0,2025-06-06,2025-06-06,株式会社一千道,,株式会社,埼玉県,新座市,東北２丁目２７番１０－６０２号,,11,230,3520001,,,,,,,2025-06-06,1,,,,,イッセンドウ,0
2176,8030001166920,新規,0,2025-06-06,2025-06-06,株式会社Ｗｈｉｔｅ,,株式会社,埼玉県,さいたま市大宮区,大門町２丁目１０９番地,,11,103,3300846,,,,,,,2025-06-06,1,,,,,ホワイト,0
2177,8030001166937,新規,0,2025-06-06,2025-06-06,株式会社ＬＩＮＫ,,株式会社,埼玉県,川口市,大字安行領根岸３７８番地の４,,11,203,3330834,,,,,,,2025-06-06,1,,,,,リンク,0
2178,8030001166945,新規,0,2025-06-06,2025-06-06,株式会社セタパートナーズ,,株式会社,埼玉県,さいたま市浦和区,北浦和５丁目１１番１６号,,11,107,3300074,,,,,,,2025-06-06,1,,,,,セタパートナーズ,0
2179,8030001166953,新規,0,2025-06-06,2025-06-06,株式会社Ｎｏｚｏｍｉ,,株式会社,埼玉県,さいたま市大宮区,三橋２丁目１７０番地,,11,103,3300856,,,,,,,2025-06-06,1,,,,,ノゾミ,0
2180,8030001166986,新規,0,2025-06-06,2025-06-06,株式会社斉藤内装,,株式会社,埼玉県,久喜市,西大輪４丁目２番地１３,,11,232,3400206,,,,,,,2025-06-06,1,,,,,サイトウナイソウ,0
2181,8030001166994,新規,0,2025-06-06,2025-06-06,株式会社ＮＥＯ,,株式会社,埼玉県,朝霞市,栄町３丁目２－１シャリエ朝霞４０５,,11,227,3510012,,,,,,,2025-06-06,1,,,,,ネオ,0
2184,8030003026899,新規,0,2025-06-06,2025-06-06,合同会社Ｌａｇｏｍ,,合同会社,埼玉県,川越市,神明町６７番地１２,,11,201,3500823,,,,,,,2025-06-06,1,,,,,ラーゴム,0
2185,8030003026908,新規,0,2025-06-06,2025-06-06,Ｉｎｋ　Ｍａｒｋｓ　ＲＩＮ合同会社,,合同会社,埼玉県,さいたま市南区,南浦和２丁目２８番１３－６１２号,,11,108,3360017,,,,,,,2025-06-06,1,,,,,インクマークスリン,0
2186,8030003026916,新規,0,2025-06-06,2025-06-06,ＢＩＳＮＵ合同会社,,合同会社,埼玉県,熊谷市,美土里町１丁目６８,,11,202,3600845,,,,,,,2025-06-06,1,,,,,ビスヌ,0
2187,8030003026932,新規,0,2025-06-06,2025-06-06,合同会社Ｙ‐１,,合同会社,埼玉県,川口市,大字安行原１４２０番地の１,,11,203,3340057,,,,,,,2025-06-06,1,,,,,ワイイチ,0
2189,8040001139074,新規,0,2025-06-06,2025-06-06,株式会社アートザライン,,株式会社,千葉県,千葉市美浜区,若葉３丁目１番地１幕張ベイパークスカイグランドタワー４１０１号,,12,106,2610014,,,,,,,2025-06-06,1,,,,,アートザライン,0
2201,8050005013646,新規,0,2025-06-06,2025-06-06,シャトー水戸管理組合法人,,その他の設立登記法人,茨城県,水戸市,八幡町７番１３号,,08,201,3100065,,,,,,,2025-06-06,1,,,,,シャトーミト,0
2210,8070001042985,新規,0,2025-06-06,2025-06-06,ｊｕｎｋ　ｓｔｏｒｙ株式会社,,株式会社,群馬県,高崎市,上中居町５６９番地８アクシア上中居Ａ号室,,10,202,3700851,,,,,,,2025-06-06,1,,,,,ジャンクストーリー,0
2211,8070003005949,新規,0,2025-06-06,2025-06-06,合同会社アクティヴォ,,合同会社,群馬県,高崎市,栄町６番９号,,10,202,3700841,,,,,,,2025-06-06,1,,,,,アクティヴォ,0
2215,8080003003472,新規,0,2025-06-06,2025-06-06,合同会社ＫＯＤＡＣＨＩ,,合同会社,静岡県,静岡市葵区,羽鳥本町２８番３５号,,22,101,4211217,,,,,,,2025-06-06,1,,,,,コダチ,0
2219,8080401027949,新規,0,2025-06-06,2025-06-06,株式会社杉浦ＨＤ,,株式会社,静岡県,浜松市中央区,紺屋町３０８番地の４,,22,138,4300938,,,,,,,2025-06-06,1,,,,,スギウラホールディングス,0
2226,8110001039275,新規,0,2025-06-06,2025-06-06,株式会社エスエムリキッドクリスタル,,株式会社,新潟県,長岡市,鉄工町２丁目３－５４,,15,202,9402022,,,,,,,2025-06-06,1,,,,,エスエムリキッドクリスタル,0
2243,8120001276421,新規,0,2025-06-06,2025-06-06,株式会社ＳＰビルテクノロジー,,株式会社,大阪府,大阪市中央区,瓦町４丁目７番４号南星瓦町ビル５０２,,27,128,5410048,,,,,,,2025-06-06,1,,,,,エスピービルテクノロジー,0
2244,8120001276462,新規,0,2025-06-06,2025-06-06,東和株式会社,,株式会社,大阪府,大阪市住吉区,沢之町１丁目５－２８谷岡１０１Ａ,,27,120,5580031,,,,,,,2025-06-06,1,,,,,トウワ,0
2245,8120001276470,新規,0,2025-06-06,2025-06-06,株式会社ＨｉＫＡＲＩ,,株式会社,大阪府,大阪市阿倍野区,阪南町５丁目９番２８号１階,,27,119,5450021,,,,,,,2025-06-06,1,,,,,ヒカリ,0
2246,8120001276487,新規,0,2025-06-06,2025-06-06,株式会社ナルジン,,株式会社,大阪府,枚方市,中宮東之町３６番１２号,,27,210,5731195,,,,,,,2025-06-06,1,,,,,ナルジン,0
2247,8120001276495,新規,0,2025-06-06,2025-06-06,株式会社大聖,,株式会社,大阪府,大阪市住吉区,杉本１丁目１１番１６号,,27,120,5580022,,,,,,,2025-06-06,1,,,,,タイセイ,0
2248,8120001276529,新規,0,2025-06-06,2025-06-06,株式会社ミネルヴァ,,株式会社,大阪府,大阪市城東区,中央１丁目８番２０シャトー中央２０１,,27,118,5360005,,,,,,,2025-06-06,1,,,,,ミネルヴァ,0
2249,8120001276553,新規,0,2025-06-06,2025-06-06,株式会社Ｎｏｍｉ,,株式会社,大阪府,大阪市生野区,巽北１丁目１番１号１Ｆ－Ｈ,,27,116,5440004,,,,,,,2025-06-06,1,,,,,ノミ,0
2250,8120001276578,新規,0,2025-06-06,2025-06-06,ムラサキ国際商事株式会社,,株式会社,大阪府,大阪市東住吉区,駒川４丁目１８－２１－３Ｂ,,27,121,5460043,,,,,,,2025-06-06,1,,,,,ムラサキコクサイショウジ,0
2251,8120001276603,新規,0,2025-06-06,2025-06-06,株式会社Ｌｉｎｏａ　Ｇｒｏｕｐ,,株式会社,大阪府,大阪市西区,阿波座１丁目３番１８号エッグビル本町３０３号室,,27,106,5500011,,,,,,,2025-06-06,1,,,,,リノアグループ,0
2252,8120001276636,新規,0,2025-06-06,2025-06-06,株式会社つなぐ,,株式会社,大阪府,大阪市此花区,島屋６丁目２番１００－５０８号,,27,104,5540024,,,,,,,2025-06-06,1,,,,,ツナグ,0
2253,8120003029637,新規,0,2025-06-06,2025-06-06,ＭＯＮＩＴＡ合同会社,,合同会社,大阪府,大阪市浪速区,日本橋３丁目２番２３号メゾンコハラ２Ｎ号室,,27,111,5560005,,,,,,,2025-06-06,1,,,,,モニタ,0
2254,8120003029678,新規,0,2025-06-06,2025-06-06,ＳＴＡＲ　ＬＩＮＫＳ合同会社,,合同会社,大阪府,大阪市北区,中崎西３丁目１番１０－４０２号室,,27,127,5300015,,,,,,,2025-06-06,1,,,,,スターリンクス,0
2255,8120003029686,新規,0,2025-06-06,2025-06-06,合同会社ライズ,,合同会社,大阪府,寝屋川市,三井南町１２番９号,,27,215,5720019,,,,,,,2025-06-06,1,,,,,ライズ,0
2257,8120101071854,新規,0,2025-06-06,2025-06-06,株式会社Ｃｈｉａｎ,,株式会社,大阪府,堺市西区,上野芝町３丁６番９－５０３号,,27,144,5938301,,,,,,,2025-06-06,1,,,,,チアン,0
2265,8130001079856,新規,0,2025-06-06,2025-06-06,株式会社中々,,株式会社,京都府,宮津市,字由良２３２番地,,26,205,6260071,,,,,,,2025-06-06,1,,,,,ナカナカ,0
2267,8130003010521,新規,0,2025-06-06,2025-06-06,合同会社助産院りゅばん,,合同会社,京都府,京都市東山区,本町１５丁目２８４番地２,,26,105,6050981,,,,,,,2025-06-06,1,,,,,ジョサンインリュバン,0
2271,8140001138826,新規,0,2025-06-06,2025-06-06,株式会社松尾音楽事務所,,株式会社,兵庫県,神戸市中央区,磯上通８丁目１番２９号カサベラビルＣ＆Ｍ４０３号室,,28,110,6510086,,,,,,,2025-06-06,1,,,,,マツオオンガクジムショ,0
2272,8140001138842,新規,0,2025-06-06,2025-06-06,株式会社ＭＯＤＵＮ,,株式会社,兵庫県,神戸市長田区,上池田３丁目１８番２２－２０１号,,28,106,6530827,,,,,,,2025-06-06,1,,,,,モドゥン,0
2273,8140001138859,新規,0,2025-06-06,2025-06-06,株式会社グロースＫ,,株式会社,兵庫県,神戸市西区,水谷１丁目６番８号,,28,111,6512121,,,,,,,2025-06-06,1,,,,,グロースケー,0
2281,8140003022160,新規,0,2025-06-06,2025-06-06,合同会社ビーエイチ,,合同会社,兵庫県,神戸市中央区,元町通３丁目６番１号,,28,110,6500022,,,,,,,2025-06-06,1,,,,,ビーエイチ,0
2289,8160001026780,新規,0,2025-06-06,2025-06-06,株式会社ＧＯＥＮ,,株式会社,滋賀県,甲賀市,水口町下山６９４番地９５,,25,209,5280063,,,,,,,2025-06-06,1,,,,,ゴエン,0
2292,8170003002226,新規,0,2025-06-06,2025-06-06,合同会社おやおや大家,,合同会社,和歌山県,和歌山市,六十谷１２４７番地の５０,,30,201,6408482,,,,,,,2025-06-06,1,,,,,オヤオヤオオヤ,0
2297,8180001167094,新規,0,2025-06-06,2025-06-06,株式会社Ｔｒａｓｔｒｉａ,,株式会社,愛知県,名古屋市千種区,春岡１丁目３４番８号,,23,101,4640848,,,,,,,2025-06-06,1,,,,,トラストリア,0
2298,8180001167177,新規,0,2025-06-06,2025-06-06,株式会社Ｙ’ｓ,,株式会社,愛知県,海部郡大治町,大字砂子字千手堂６５０番地アメニティ大治三番館６０７号,,23,424,4901143,,,,,,,2025-06-06,1,,,,,ワイズ,0
2299,8180001167251,新規,0,2025-06-06,2025-06-06,ＲｅＲｏｏｔ株式会社,,株式会社,愛知県,名古屋市中村区,平池町４丁目６０番１２号グローバルゲート１１階,,23,105,4530872,,,,,,,2025-06-06,1,,,,,リルート,0
2303,8180003028575,新規,0,2025-06-06,2025-06-06,合同会社自由のカオス,,合同会社,愛知県,名古屋市南区,東又兵ヱ町３丁目１４番地の２（宝第２笠寺ハイツ２１３号）,,23,112,4570833,,,,,,,2025-06-06,1,,,,,ジユウノカオス,0
2305,8180301039885,新規,0,2025-06-06,2025-06-06,株式会社ケアリーネ,,株式会社,愛知県,西尾市,桜町奥新田２番地,,23,213,4450803,,,,,,,2025-06-06,1,,,,,ケアリーネ,0
2306,8190001032280,新規,0,2025-06-06,2025-06-06,株式会社とくら建築設計社,,株式会社,三重県,四日市市,大治田１丁目１番９－１号,,24,202,5100875,,,,,,,2025-06-06,1,,,,,トクラケンチクセッケイシャ,0
2307,8190001032289,新規,0,2025-06-06,2025-06-06,株式会社下地電機,,株式会社,三重県,三重郡菰野町,大字杉谷１６３０番地２０,,24,341,5101326,,,,,,,2025-06-06,1,,,,,シモジデンキ,0
2308,8190003005053,新規,0,2025-06-06,2025-06-06,合同会社ライズアップ,,合同会社,三重県,桑名市,大字赤尾８８０,,24,205,5110934,,,,,,,2025-06-06,1,,,,,ライズアップ,0
2322,8240001065052,新規,0,2025-06-06,2025-06-06,株式会社ＬＯＴＵＳ,,株式会社,広島県,広島市中区,堀川町３番２０号（６階）,,34,101,7300033,,,,,,,2025-06-06,1,,,,,ロータス,0
2330,8260001040243,新規,0,2025-06-06,2025-06-06,株式会社慎,,株式会社,岡山県,瀬戸内市,邑久町豊安２７７番地１０,,33,212,7014222,,,,,,,2025-06-06,1,,,,,シン,0
2333,8290001110340,新規,0,2025-06-06,2025-06-06,陽だまりらん株式会社,,株式会社,福岡県,福岡市中央区,小笹１丁目１０番５－５２号第二ヒロカネビル,,40,133,8100033,,,,,,,2025-06-06,1,,,,,ヒダマリラン,0
2339,8290803005069,新規,0,2025-06-06,2025-06-06,合同会社ケアサポート吉村,,合同会社,福岡県,行橋市,大字道場寺２６７番地１,,40,213,8240026,,,,,,,2025-06-06,1,,,,,ケアサポートヨシムラ,0
2341,8300001014218,新規,0,2025-06-06,2025-06-06,株式会社リーフレット,,株式会社,佐賀県,佐賀市,六座町３番３８号,,41,201,8400845,,,,,,,2025-06-06,1,,,,,リーフレット,0
2342,8320001021146,新規,0,2025-06-06,2025-06-06,株式会社ｅｋｋａ,,株式会社,大分県,速見郡日出町,３４８０番地１,,44,341,8791506,,,,,,,2025-06-06,1,,,,,エッカ,0
2344,8330001033248,新規,0,2025-06-06,2025-06-06,株式会社あまね薬局,,株式会社,熊本県,熊本市北区,八景水谷１丁目３２番６号,,43,105,8618064,,,,,,,2025-06-06,1,,,,,アマネヤッキョク,0
2345,8330001033256,新規,0,2025-06-06,2025-06-06,株式会社コントラスト,,株式会社,熊本県,熊本市東区,佐土原２丁目８番７号,,43,102,8620916,,,,,,,2025-06-06,1,,,,,コントラスト,0
2351,8350001019583,新規,0,2025-06-06,2025-06-06,株式会社長嶺クレーン工業,,株式会社,宮崎県,北諸県郡三股町,大字樺山８７３番地１,,45,341,8891901,,,,,,,2025-06-06,1,,,,,ナガミネクレーンコウギョウ,0
2354,8360003015002,新規,0,2025-06-06,2025-06-06,合同会社琉球ガシャ,,合同会社,沖縄県,那覇市,安謝２丁目２番８号ルナシティ３０１,,47,201,9000003,,,,,,,2025-06-06,1,,,,,リュウキュウガシャ,0
2357,8370003007122,新規,0,2025-06-06,2025-06-06,合同会社ウエックピアコート,,合同会社,宮城県,仙台市宮城野区,東仙台５丁目１７番１５号パークパレスあさの２０１,,04,102,9830833,,,,,,,2025-06-06,1,,,,,ウエックピアコート,0
2361,8390003002402,新規,0,2025-06-06,2025-06-06,合同会社みんなの住み処,,合同会社,山形県,酒田市,熊野田字仁田１１番地の２,,06,204,9980819,,,,,,,2025-06-06,1,,,,,ミンナノスミカ,0
2362,8400001017053,新規,0,2025-06-06,2025-06-06,株式会社ファイブエイチ,,株式会社,岩手県,花巻市,東和町前田９区３２６番地２,,03,205,0280105,,,,,,,2025-06-06,1,,,,,ファイブエイチ,0
2363,8400001017061,新規,0,2025-06-06,2025-06-06,株式会社岡田住設,,株式会社,岩手県,紫波郡紫波町,土舘字内川３５－３,,03,321,0283453,,,,,,,2025-06-06,1,,,,,オカダジュウセツ,0
2365,8430001094602,新規,0,2025-06-06,2025-06-06,株式会社Ｆ　ｃａｒ,,株式会社,北海道,札幌市南区,北ノ沢１７２７番地１６,,01,106,0050832,,,,,,,2025-06-06,1,,,,,エフカー,0
2370,8490001011072,新規,0,2025-06-06,2025-06-06,ＬｕｘｕＣａｒｅ株式会社,,株式会社,高知県,高知市,一宮西町４丁目１９番２４号,,39,201,7818136,,,,,,,2025-06-06,1,,,,,ラグジュケア,0
2380,9010001255617,新規,0,2025-06-06,2025-06-06,株式会社アシスト,,株式会社,東京都,中央区,日本橋兜町１７番１号日本橋ロイヤルプラザ７０６,,13,102,1030026,,,,,,,2025-06-06,1,,,,,アシスト,0
2381,9010001255625,新規,0,2025-06-06,2025-06-06,株式会社坂本冬休み,,株式会社,東京都,千代田区,丸の内３丁目２番２号丸の内二重橋ビル２階,,13,101,1000005,,,,,,,2025-06-06,1,,,,,サカモトフユヤスミ,0
2382,9010001255682,新規,0,2025-06-06,2025-06-06,日本ＡＩエージェント開発株式会社,,株式会社,東京都,千代田区,神田神保町１丁目５６番地１神保町ＹＴビル３階,,13,101,1010051,,,,,,,2025-06-06,1,,,,,ニホンエーアイエージェントカイハツ,0
2385,9010003047558,新規,0,2025-06-06,2025-06-06,ＤＲＥＳ２合同会社,,合同会社,東京都,中央区,日本橋１丁目４番１号日本橋一丁目ビルディング,,13,102,1030027,,,,,,,2025-06-06,1,,,,,ドレスツー,0
2386,9010003047608,新規,0,2025-06-06,2025-06-06,合同会社築地工務店,,合同会社,東京都,中央区,日本橋浜町１丁目１０番８－４０１号,,13,102,1030007,,,,,,,2025-06-06,1,,,,,ツキジコウムテン,0
2393,9010401190364,新規,0,2025-06-06,2025-06-06,ＣＴ　Ｇｒｉｄ株式会社,,株式会社,東京都,港区,赤坂２丁目１４番５号Ｄａｉｗａ赤坂ビル４階,,13,103,1070052,,,,,,,2025-06-06,1,,,,,シーティーグリッド,0
2394,9010401190769,新規,0,2025-06-06,2025-06-06,ＡｌｉｖｅＴｅｃｈ株式会社,,株式会社,東京都,港区,白金台５丁目６－９日総第２７ビル４０２,,13,103,1080071,,,,,,,2025-06-06,1,,,,,,0
2395,9010401190802,新規,0,2025-06-06,2025-06-06,株式会社木村組,,株式会社,東京都,港区,芝２丁目２０番６号クーカイテラス芝公園４０１,,13,103,1050014,,,,,,,2025-06-06,1,,,,,キムラグミ,0
2396,9010401190810,新規,0,2025-06-06,2025-06-06,リブラファイナンシャルデザイン株式会社,,株式会社,東京都,港区,南青山２丁目２番１５号ウィン青山９４２,,13,103,1070062,,,,,,,2025-06-06,1,,,,,リブラファイナンシャルデザイン,0
2397,9010401190827,新規,0,2025-06-06,2025-06-06,ＭＣＰ４０株式会社,,株式会社,東京都,港区,元赤坂１丁目１番７－１２０９号株式会社赤坂国際会計内,,13,103,1070051,,,,,,,2025-06-06,1,,,,,エムシーピーフォーゼロ,0
2398,9010401190835,新規,0,2025-06-06,2025-06-06,株式会社ＧｅＮｉ,,株式会社,東京都,港区,六本木７丁目４番１号スマイリービル２階,,13,103,1060032,,,,,,,2025-06-06,1,,,,,ジーニ,0
2399,9010401190892,新規,0,2025-06-06,2025-06-06,株式会社ＳＹＮＡＰＳＥ,,株式会社,東京都,港区,芝浦２丁目１４－１９モナークマンション田町６０２号室,,13,103,1080023,,,,,,,2025-06-06,1,,,,,シナプス,0
2401,9010403035311,新規,0,2025-06-06,2025-06-06,合同会社田田,,合同会社,東京都,港区,北青山１丁目６－３－６１８,,13,103,1070061,,,,,,,2025-06-06,1,,,,,デンデン,0
2403,9010405024411,新規,0,2025-06-06,2025-06-06,一般社団法人日本汎用人工知能協会,,その他の設立登記法人,東京都,港区,東麻布２丁目１８番１号,,13,103,1060044,,,,,,,2025-06-06,1,,,,,ニホンハンヨウジンコウチノウキョウカイ,0
2404,9010405024477,新規,0,2025-06-06,2025-06-06,特定目的会社アールイープロジェクトスリー,,その他の設立登記法人,東京都,港区,虎ノ門２丁目６番１号虎ノ門ヒルズステーションタワー,,13,103,1050001,,,,,,,2025-06-06,1,,,,,アールイープロジェクトスリー,0
2413,9010801036217,新規,0,2025-06-06,2025-06-06,株式会社黒松,,株式会社,東京都,大田区,田園調布５丁目２番１２号,,13,111,1450071,,,,,,,2025-06-06,1,,,,,クロマツ,0
2414,9010803005426,新規,0,2025-06-06,2025-06-06,合同会社Ｃ．ＫＵＷＡＭＡ,,合同会社,東京都,大田区,多摩川２丁目２４番２号,,13,111,1460095,,,,,,,2025-06-06,1,,,,,シークワマ,0
2415,9010803005434,新規,0,2025-06-06,2025-06-06,合同会社Ｂｕｎｔｌｉｎｅ,,合同会社,東京都,大田区,大森中１丁目３番３－７０２号,,13,111,1430014,,,,,,,2025-06-06,1,,,,,バントライン,0
2418,9010901057492,新規,0,2025-06-06,2025-06-06,Ｂｌｏｏｍｉｎｇｆｉｅｌｄ株式会社,,株式会社,東京都,世田谷区,八幡山３丁目３５番３３－２０４号,,13,112,1560056,,,,,,,2025-06-06,1,,,,,ブルーミングフィールド,0
2419,9010903009987,新規,0,2025-06-06,2025-06-06,合同会社Ｋ＆Ｓインターナショナル,,合同会社,東京都,世田谷区,砧６丁目１２番１０号,,13,112,1570073,,,,,,,2025-06-06,1,,,,,ケーアンドエスインターナショナル,0
2426,9011001169930,新規,0,2025-06-06,2025-06-06,ＳＴＥＭ　Ａｃａｄｅｍｙ株式会社,,株式会社,東京都,渋谷区,神宮前６丁目２３番４号桑野ビル２階,,13,113,1500001,,,,,,,2025-06-06,1,,,,,ステムアカデミー,0
2427,9011001169939,新規,0,2025-06-06,2025-06-06,Ｋｏｋｏｓｏｋｏ株式会社,,株式会社,東京都,渋谷区,東２丁目２２番３号ＥＡＳＴＰＬＵＳ００５号室,,13,113,1500011,,,,,,,2025-06-06,1,,,,,ココソコ,0
2428,9011001169947,新規,0,2025-06-06,2025-06-06,株式会社ａｎｄＢＰ,,株式会社,東京都,目黒区,青葉台１丁目２０番５号,,13,110,1530042,,,,,,,2025-06-06,1,,,,,アンドビーピー,0
2429,9011001170137,新規,0,2025-06-06,2025-06-06,株式会社ライミ,,株式会社,東京都,渋谷区,上原１丁目１８番１５号,,13,113,1510064,,,,,,,2025-06-06,1,,,,,ライミ,0
2430,9011001170343,新規,0,2025-06-06,2025-06-06,ｂａｔｏｎｎ株式会社,,株式会社,東京都,渋谷区,千駄ヶ谷３丁目５２番５号原宿ニュースカイハイツアネックス６０４号室,,13,113,1510051,,,,,,,2025-06-06,1,,,,,バトン,0
2438,9011101111973,新規,0,2025-06-06,2025-06-06,株式会社グロウプロ,,株式会社,東京都,新宿区,西新宿６丁目５番１号新宿アイランドタワー２階,,13,104,1600023,,,,,,,2025-06-06,1,,,,,グロウプロ,0
2441,9011103015982,新規,0,2025-06-06,2025-06-06,合同会社インダストリア,,合同会社,東京都,新宿区,西新宿３丁目３番１３号西新宿水間ビル２Ｆ,,13,104,1600023,,,,,,,2025-06-06,1,,,,,インダストリア,0
2451,9011703004278,新規,0,2025-06-06,2025-06-06,合同会社Ａｎｙ,,合同会社,東京都,江戸川区,臨海町５丁目２番１号,,13,123,1340086,,,,,,,2025-06-06,1,,,,,エニー,0
2455,9012303002168,新規,0,2025-06-06,2025-06-06,合同会社えふがく,,合同会社,東京都,町田市,小川２丁目５－４０,,13,209,1940003,,,,,,,2025-06-06,1,,,,,エフガク,0
2463,9013301054399,新規,0,2025-06-06,2025-06-06,株式会社キャッチアッププラス,,株式会社,東京都,豊島区,南長崎５丁目３０－５サニーハイム１０１,,13,116,1710052,,,,,,,2025-06-06,1,,,,,キャッチアッププラス,0
2464,9013301054408,新規,0,2025-06-06,2025-06-06,株式会社ＧＭＤ,,株式会社,東京都,豊島区,東池袋１丁目３４番５号いちご東池袋ビル６階,,13,116,1700013,,,,,,,2025-06-06,1,,,,,ジーエムディー,0
2467,9020001163216,新規,0,2025-06-06,2025-06-06,株式会社ＫＯＭＥ,,株式会社,神奈川県,川崎市多摩区,菅馬場２丁目２１番２７号,,14,135,2140004,,,,,,,2025-06-06,1,,,,,コメ,0
2468,9020001163257,新規,0,2025-06-06,2025-06-06,株式会社グレリア,,株式会社,神奈川県,川崎市高津区,久本２丁目７番４４号,,14,134,2130011,,,,,,,2025-06-06,1,,,,,グレリア,0
2469,9020001163281,新規,0,2025-06-06,2025-06-06,栄曜株式会社,,株式会社,神奈川県,横浜市中区,山田町２－７第七大場ビル１Ｆ,,14,104,2310036,,,,,,,2025-06-06,1,,,,,エイヨウ,0
2474,9020003028581,新規,0,2025-06-06,2025-06-06,合同会社Ｒ＆Ｒ,,合同会社,神奈川県,横浜市保土ケ谷区,帷子町２丁目６７番１号,,14,106,2400013,,,,,,,2025-06-06,1,,,,,アールアンドアール,0
2479,9021001085425,新規,0,2025-06-06,2025-06-06,株式会社Ｃ＆Ｍコンサルティング,,株式会社,神奈川県,藤沢市,鵠沼海岸６丁目１５番１～６号,00139484,14,205,2510037,,,,,,,2025-06-06,1,,,,,シーアンドエムコンサルティング,0
2482,9021003016106,新規,0,2025-06-06,2025-06-06,Ｔ＆Ｃ合同会社,,合同会社,神奈川県,横須賀市,秋谷４１４９番地,,14,201,2400105,,,,,,,2025-06-06,1,,,,,ティーアンドシー,0
2495,9030001166853,新規,0,2025-06-06,2025-06-06,株式会社カイメリエ,,株式会社,埼玉県,熊谷市,箱田４丁目１０番９号,,11,202,3600014,,,,,,,2025-06-06,1,,,,,カイメリエ,0
2496,9030001166861,新規,0,2025-06-06,2025-06-06,株式会社ＷＡＯ,,株式会社,埼玉県,吉川市,栄町１３５４番地３１,,11,243,3420050,,,,,,,2025-06-06,1,,,,,ワオ,0
2497,9030001166878,新規,0,2025-06-06,2025-06-06,株式会社ＮＨホールディングス,,株式会社,埼玉県,羽生市,南７丁目１９番地１１,,11,216,3480053,,,,,,,2025-06-06,1,,,,,エヌエイチホールディングス,0
2498,9030001166894,新規,0,2025-06-06,2025-06-06,アカリツキ株式会社,,株式会社,埼玉県,八潮市,大字南後谷５８番地１,,11,234,3400831,,,,,,,2025-06-06,1,,,,,アカリツキ,0
2499,9030001166936,新規,0,2025-06-06,2025-06-06,福田サービス株式会社,,株式会社,埼玉県,入間市,宮寺２９２５番地２８８,,11,225,3580014,,,,,,,2025-06-06,1,,,,,フクダサービス,0
2500,9030001166944,新規,0,2025-06-06,2025-06-06,株式会社餡子屋,,株式会社,埼玉県,八潮市,大瀬４丁目８番地１シティテラス八潮８０６,,11,234,3400822,,,,,,,2025-06-06,1,,,,,アンコヤ,0
2507,9030003026898,新規,0,2025-06-06,2025-06-06,合同会社ｔｓｕｂｏｌａｂｏ,,合同会社,埼玉県,大里郡寄居町,大字寄居９５９番地,,11,408,3691203,,,,,,,2025-06-06,1,,,,,ツボラボ,0
2508,9030003026923,新規,0,2025-06-06,2025-06-06,伊藤ハウス合同会社,,合同会社,埼玉県,久喜市,本町３丁目１８番５号,,11,232,3460005,,,,,,,2025-06-06,1,,,,,イトウハウス,0
2509,9030003026931,新規,0,2025-06-06,2025-06-06,シアラープロパティ合同会社,,合同会社,埼玉県,さいたま市大宮区,北袋町１丁目６０１番地１Ｃ１２４１,,11,103,3300835,,,,,,,2025-06-06,1,,,,,シアラープロパティ,0
2512,9040001139073,新規,0,2025-06-06,2025-06-06,株式会社ＶＩＥＮＴＯ,,株式会社,千葉県,香取市,羽根川１７７番地,,12,236,2890331,,,,,,,2025-06-06,1,,,,,ビエント,0
2513,9040001139107,新規,0,2025-06-06,2025-06-06,株式会社スターマン,,株式会社,千葉県,千葉市若葉区,桜木北２丁目９番４－１号,,12,104,2640029,,,,,,,2025-06-06,1,,,,,スターマン,0
2514,9040001139123,新規,0,2025-06-06,2025-06-06,ＶＩＳＩＯＮ株式会社,,株式会社,千葉県,四街道市,物井１４７４番地１１－２階,,12,228,2840012,,,,,,,2025-06-06,1,,,,,ビジョン,0
2517,9040003027747,新規,0,2025-06-06,2025-06-06,Ｒａｊｐｏｏｔ　ｃｏｒｐｏｒａｔｉｏｎ合同会社,,合同会社,千葉県,野田市,柏寺６３３－７４,,12,208,2700214,,,,,,,2025-06-06,1,,,,,ラジプートコーポレーション,0
2518,9040003027755,新規,0,2025-06-06,2025-06-06,Ｆｌｏｗ　Ｓｔａｔｅ合同会社,,合同会社,千葉県,習志野市,藤崎３丁目１番２１号,,12,216,2750017,,,,,,,2025-06-06,1,,,,,フローステイト,0
2526,9060001038273,新規,0,2025-06-06,2025-06-06,株式会社晃作屋,,株式会社,栃木県,日光市,下鉢石町８１７番地,,09,206,3211403,,,,,,,2025-06-06,1,,,,,コウサクヤ,0
2529,9060003005585,新規,0,2025-06-06,2025-06-06,ファーム・オゥパラディ合同会社,,合同会社,栃木県,那須郡那須町,大字梁瀬４３４番地４,,09,407,3293434,,,,,,,2025-06-06,1,,,,,ファームオゥパラディ,0
2532,9070001042992,新規,0,2025-06-06,2025-06-06,株式会社匠屋,,株式会社,群馬県,伊勢崎市,田中島町５３７番地１２,,10,204,3720802,,,,,,,2025-06-06,1,,,,,タクミヤ,0
2537,9080103003347,新規,0,2025-06-06,2025-06-06,ＩＭＲＡＮ　ＴＲＡＤＩＮＧ合同会社,,合同会社,静岡県,御殿場市,板妻３６７番地の１,,22,215,4120048,,,,,,,2025-06-06,1,,,,,イムラントレーディング,0
2544,9080401027964,新規,0,2025-06-06,2025-06-06,匠工房・縁株式会社,,株式会社,静岡県,浜松市浜名区,引佐町井伊谷８１１番地の８,,22,139,4312212,,,,,,,2025-06-06,1,,,,,タクミコウボウエン,0
2549,9090003002836,新規,0,2025-06-06,2025-06-06,ウーバ合同会社,,合同会社,山梨県,韮崎市,上祖母石６３８,,19,207,4070007,,,,,,,2025-06-06,1,,,,,ウーバ,0
2552,9110001039316,新規,0,2025-06-06,2025-06-06,株式会社野口商店,,株式会社,新潟県,新潟市江南区,酒屋町４９３番地,,15,104,9500324,,,,,,,2025-06-06,1,,,,,ノグチショウテン,0
2553,9110001039324,新規,0,2025-06-06,2025-06-06,株式会社新風,,株式会社,新潟県,新潟市中央区,天神１丁目１番地プラーカ３‐２Ｆ、ＨＵＢＳＴＡＴＩＯＮＫＥＮＴＯ内,,15,103,9500917,,,,,,,2025-06-06,1,,,,,シンフウ,0
2554,9110003005778,新規,0,2025-06-06,2025-06-06,Ｊａｐａｎ　Ｕｎｌｏｃｋｅｄ合同会社,,合同会社,新潟県,長岡市,寺泊夏戸字川西４００１番地３,,15,202,9402522,,,,,,,2025-06-06,1,,,,,ジャパンアンロックド,0
2561,9120001276486,新規,0,2025-06-06,2025-06-06,株式会社宝華,,株式会社,大阪府,大阪市浪速区,敷津西２丁目１－２６タイホウハイツ敷津３番館,,27,111,5560015,,,,,,,2025-06-06,1,,,,,タカラケ,0
2562,9120001276494,新規,0,2025-06-06,2025-06-06,株式会社ｕｎｉｖｅｒｓ,,株式会社,大阪府,大阪市北区,茶屋町１０番２号３Ｆ,,27,127,5300013,,,,,,,2025-06-06,1,,,,,ユニヴェール,0
2563,9120001276536,新規,0,2025-06-06,2025-06-06,Ａｒｋ　ｆｒｏｗ株式会社,,株式会社,大阪府,大阪市淀川区,十三本町２丁目８－８福森マンション３０２,,27,123,5320024,,,,,,,2025-06-06,1,,,,,アークフロウ,0
2564,9120001276552,新規,0,2025-06-06,2025-06-06,仁穎株式会社,,株式会社,大阪府,大阪市東住吉区,東田辺３丁目１－１－３Ｆ－Ｆ,,27,121,5460032,,,,,,,2025-06-06,1,,,,,ジンエイ,0
2565,9120001276560,新規,0,2025-06-06,2025-06-06,株式会社Ａｘｔｕｒｅ,,株式会社,大阪府,大阪市中央区,南船場２丁目７番１１号,,27,128,5420081,,,,,,,2025-06-06,1,,,,,アクスチャー,0
2566,9120001276577,新規,0,2025-06-06,2025-06-06,株式会社コウエン,,株式会社,大阪府,大阪市西区,新町１丁目６－２３四ツ橋大川ビルＢ１,,27,106,5500013,,,,,,,2025-06-06,1,,,,,コウエン,0
2567,9120001276668,新規,0,2025-06-06,2025-06-06,株式会社友,,株式会社,大阪府,大阪市中央区,北浜１丁目８番１６号大阪証券取引所ビル弁護士法人北浜法律事務所内,,27,128,5410041,,,,,,,2025-06-06,1,,,,,ユウ,0
2570,9120003029636,新規,0,2025-06-06,2025-06-06,ＧＡＵＴＡＭ合同会社,,合同会社,大阪府,大阪市浪速区,日本橋３丁目２番２３号メゾンコハラ２Ｎ号室,,27,111,5560005,,,,,,,2025-06-06,1,,,,,ゴウタム,0
2572,9120101071779,新規,0,2025-06-06,2025-06-06,ＭＵＮＩＲ　ＫＨＡＮ　ＴＲＡＤＩＮＧ株式会社,,株式会社,大阪府,河内長野市,松ケ丘中町１５６９番地の６,,27,216,5860006,,,,,,,2025-06-06,1,,,,,ムニールカーントレーディング,0
2577,9120103006485,新規,0,2025-06-06,2025-06-06,合同会社Ｌｕｃａ,,合同会社,大阪府,泉南市,信達岡中５０９－５,,27,228,5900523,,,,,,,2025-06-06,1,,,,,ルカ,0
2584,9122003003208,新規,0,2025-06-06,2025-06-06,ＴＡＧ合同会社,,合同会社,大阪府,八尾市,南本町７丁目５－３０,,27,212,5810081,,,,,,,2025-06-06,1,,,,,タグ,0
2586,9130001079814,新規,0,2025-06-06,2025-06-06,株式会社ＷＯＮ’ｓ,,株式会社,京都府,宇治市,伊勢田町新中荒２０－２,,26,204,6110043,,,,,,,2025-06-06,1,,,,,ウォンズ,0
2588,9130003010529,新規,0,2025-06-06,2025-06-06,合同会社ミカサ,,合同会社,京都府,木津川市,木津八色６７番地１,,26,214,6190214,,,,,,,2025-06-06,1,,,,,ミカサ,0
2590,9130005017381,新規,0,2025-06-06,2025-06-06,一般社団法人種まき人,,その他の設立登記法人,京都府,綾部市,五津合町荒木５７番地の１,,26,203,6231123,,,,,,,2025-06-06,1,,,,,タネマキビト,0
2594,9140001138833,新規,0,2025-06-06,2025-06-06,株式会社Ｒｉｖｉｖａｌ,,株式会社,兵庫県,神戸市中央区,中山手通７丁目１４番１－８１２号,,28,110,6500004,,,,,,,2025-06-06,1,,,,,リバイバル,0
2595,9140001138866,新規,0,2025-06-06,2025-06-06,株式会社藤原エステート,,株式会社,兵庫県,尼崎市,立花町３丁目１８番２８号,,28,202,6610025,,,,,,,2025-06-06,1,,,,,フジワラエステート,0
2596,9140001138874,新規,0,2025-06-06,2025-06-06,株式会社ＣｏｃｏＲｉｃｈｅ,,株式会社,兵庫県,神戸市中央区,港島中町６丁目１４番地ポートピアプラザＡ棟１０７号,,28,110,6500046,,,,,,,2025-06-06,1,,,,,ココリッシュ,0
2601,9140003022052,新規,0,2025-06-06,2025-06-06,合同会社神正,,合同会社,兵庫県,加古川市,加古川町西河原１２１,,28,210,6750036,,,,,,,2025-06-06,1,,,,,シンセイ,0
2602,9140005027529,新規,0,2025-06-06,2025-06-06,一般社団法人ホスピタリティＣＣ,,その他の設立登記法人,兵庫県,神戸市中央区,磯辺通１丁目１番１８号カサベラ国際プラザビル７０７,,28,110,6510084,,,,,,,2025-06-06,1,,,,,ホスピタリティシーシー,0
2606,9160001026796,新規,0,2025-06-06,2025-06-06,株式会社山千家,,株式会社,滋賀県,大津市,衣川２丁目７番６号,,25,201,5200244,,,,,,,2025-06-06,1,,,,,ヤマセンケ,0
2607,9160001026813,新規,0,2025-06-06,2025-06-06,シーソーサービス株式会社,,株式会社,滋賀県,大津市,枝４丁目字百谷７４６番５,,25,201,5202275,,,,,,,2025-06-06,1,,,,,シーソーサービス,0
2618,9180001167119,新規,0,2025-06-06,2025-06-06,株式会社ファーストベル,,株式会社,愛知県,瀬戸市,十軒町１０１番地の２,,23,204,4890901,,,,,,,2025-06-06,1,,,,,ファーストベル,0
2619,9180001167168,新規,0,2025-06-06,2025-06-06,株式会社ミヤモト,,株式会社,愛知県,名古屋市中村区,日ノ宮町１丁目４０番地,,23,105,4530823,,,,,,,2025-06-06,1,,,,,ミヤモト,0
2620,9180001167192,新規,0,2025-06-06,2025-06-06,株式会社富由,,株式会社,愛知県,名古屋市昭和区,緑町１丁目１５番地の１,,23,107,4660013,,,,,,,2025-06-06,1,,,,,フユ,0
2623,9180003028574,新規,0,2025-06-06,2025-06-06,合同会社タヒラ工業,,合同会社,愛知県,弥富市,三好５丁目６番地の１,,23,235,4980046,,,,,,,2025-06-06,1,,,,,タヒラコウギョウ,0
2624,9180005021123,新規,0,2025-06-06,2025-06-06,日伸自働車労働組合,,その他の設立登記法人,愛知県,名古屋市西区,則武新町２丁目２番９号ハイツセゾン四季３０２号,,23,104,4510051,,,,,,,2025-06-06,1,,,,,ニッシンジドウシャ,0
2628,9180301039892,新規,0,2025-06-06,2025-06-06,株式会社まるえん,,株式会社,愛知県,安城市,新田町新栄８３番地６,,23,212,4460061,,,,,,,2025-06-06,1,,,,,マルエン,0
2630,9190001032271,新規,0,2025-06-06,2025-06-06,株式会社ラソ工務店,,株式会社,三重県,いなべ市,藤原町山口７１９番地１,,24,214,5110524,,,,,,,2025-06-06,1,,,,,ラソコウムテン,0
2631,9190003005060,新規,0,2025-06-06,2025-06-06,Ｓａｋｅｎｅｋｏ　Ｂａｓｅ合同会社,,合同会社,三重県,松阪市,舞出町１７番地,,24,204,5152107,,,,,,,2025-06-06,1,,,,,サケネコベース,0
2638,9230003002441,新規,0,2025-06-06,2025-06-06,合同会社仁作建工,,合同会社,富山県,富山市,西荒屋５４５番地１,,16,201,9398251,,,,,,,2025-06-06,1,,,,,ニサクケンコウ,0
2648,9240001065010,新規,0,2025-06-06,2025-06-06,広進金属株式会社,,株式会社,広島県,東広島市,福富町久芳３６９４－８,,34,212,7392303,,,,,,,2025-06-06,1,,,,,コウシンキンゾク,0
2649,9240001065035,新規,0,2025-06-06,2025-06-06,株式会社谷本工業,,株式会社,広島県,尾道市,向島町１０３９５番地３,,34,205,7220073,,,,,,,2025-06-06,1,,,,,タニモトコウギョウ,0
2650,9240001065051,新規,0,2025-06-06,2025-06-06,株式会社スターベルズ,,株式会社,広島県,東広島市,鏡山２丁目３１３広島大学ベンチャー・ビジネス・ラボラトリー,,34,212,7390046,,,,,,,2025-06-06,1,,,,,スターベルズ,0
2653,9250001021185,新規,0,2025-06-06,2025-06-06,株式会社きららデンタルラボ,,株式会社,山口県,山口市,阿知須３８６２番地５,,35,203,7541277,,,,,,,2025-06-06,1,,,,,キララデンタルラボ,0
2663,9290003016931,新規,0,2025-06-06,2025-06-06,合同会社Ｎｅｗ　ｒｉｖｅｒ,,合同会社,福岡県,福岡市博多区,冷泉町６番３５－１０５号ライオンズマンション博多中央,,40,132,8120039,,,,,,,2025-06-06,1,,,,,ニューリバー,0
2664,9290005019767,新規,0,2025-06-06,2025-06-06,一般社団法人Ｏｎｉ　Ｐｒｏｊｅｃｔ,,その他の設立登記法人,福岡県,福岡市東区,唐原４丁目１６番２－２号,,40,131,8130001,,,,,,,2025-06-06,1,,,,,オニプロジェクト,0
2666,9290801031603,新規,0,2025-06-06,2025-06-06,株式会社大希,,株式会社,福岡県,北九州市戸畑区,天神２丁目３番２号,,40,105,8040094,,,,,,,2025-06-06,1,,,,,タイキ,0
2670,9320001021145,新規,0,2025-06-06,2025-06-06,ユーホームテック株式会社,,株式会社,大分県,別府市,大字鶴見５２０番地の８,,44,202,8740840,,,,,,,2025-06-06,1,,,,,ユーホームテック,0
2672,9330001033271,新規,0,2025-06-06,2025-06-06,株式会社Ｍｉｒｉｃｅ,,株式会社,熊本県,阿蘇市,小倉９４７番地１,,43,214,8692312,,,,,,,2025-06-06,1,,,,,ミライス,0
2673,9330001033288,新規,0,2025-06-06,2025-06-06,株式会社水俣ツーリスト,,株式会社,熊本県,水俣市,月浦２４７番地１３,,43,205,8670035,,,,,,,2025-06-06,1,,,,,ミナマタツーリスト,0
2674,9330001033296,新規,0,2025-06-06,2025-06-06,Ｆ．Ｍ．Ｓ株式会社,,株式会社,熊本県,玉名市,亀甲７９－６,,43,206,8650015,,,,,,,2025-06-06,1,,,,,エフエムエス,0
2676,9330003011044,新規,0,2025-06-06,2025-06-06,合同会社クローバーエステート,,合同会社,熊本県,八代市,古閑中町１４６１番地１,,43,202,8660898,,,,,,,2025-06-06,1,,,,,クローバーエステート,0
2679,9340003004864,新規,0,2025-06-06,2025-06-06,エポーインベスト合同会社,,合同会社,鹿児島県,薩摩郡さつま町,宮之城屋地１５８４－１,,46,392,8951803,,,,,,,2025-06-06,1,,,,,エポーインベスト,0
2681,9340005009878,新規,0,2025-06-06,2025-06-06,行政書士法人サツマトウロク,,その他の設立登記法人,鹿児島県,鹿児島市,谷山港２丁目４番地１０陸運会館内,,46,201,8910131,,,,,,,2025-06-06,1,,,,,サツマトウロク,0
2682,9350001019566,新規,0,2025-06-06,2025-06-06,株式会社Ｏｎ　Ｙｏｕｒ　Ｍａｒｋｓ,,株式会社,宮崎県,北諸県郡三股町,稗田９番地１４,,45,341,8891903,,,,,,,2025-06-06,1,,,,,オンユアマークス,0
2683,9360001035117,新規,0,2025-06-06,2025-06-06,株式会社清工業,,株式会社,沖縄県,石垣市,字石垣１７７５－１１,,47,207,9070023,,,,,,,2025-06-06,1,,,,,キヨシコウギョウ,0
2684,9360001035307,新規,0,2025-06-06,2025-06-06,株式会社立山,,株式会社,沖縄県,石垣市,字真栄里３４５番地１７,,47,207,9070002,,,,,,,2025-06-06,1,,,,,タテヤマ,0
2685,9360003014993,新規,0,2025-06-06,2025-06-06,合同会社ＭＵＲＡＹＡＭＡ,,合同会社,沖縄県,中頭郡北谷町,字宮城１－１－３２７,,47,326,9040113,,,,,,,2025-06-06,1,,,,,ムラヤマ,0
2686,9360003015001,新規,0,2025-06-06,2025-06-06,合同会社ｍｏｓｓａｎ,,合同会社,沖縄県,浦添市,経塚１丁目４番１５－２０１号コーポサンシーロ,00139469,47,208,9012111,,,,,,,2025-06-06,1,,,,,モッサン,0
2688,9370001052648,新規,0,2025-06-06,2025-06-06,株式会社Ａ．Ｓ．ＨＡＷＫ,,株式会社,宮城県,仙台市宮城野区,小鶴１丁目１０番２１号,,04,102,9830031,,,,,,,2025-06-06,1,,,,,エーエスホーク,0
2689,9370001052656,新規,0,2025-06-06,2025-06-06,株式会社ＹＡＭＡＳＡ,,株式会社,宮城県,塩竈市,中の島４番３４号,,04,203,9850015,,,,,,,2025-06-06,1,,,,,ヤマサ,0
2690,9370001052664,新規,0,2025-06-06,2025-06-06,株式会社バックオフィスサポート,,株式会社,宮城県,仙台市青葉区,錦町２丁目４番１３号,,04,101,9800012,,,,,,,2025-06-06,1,,,,,バックオフィスサポート,0
2691,9370001052672,新規,0,2025-06-06,2025-06-06,株式会社Ｃｉｖｉｌ　Ｄｅｓｉｇｎ　Ｓａｔｏｕ,,株式会社,宮城県,仙台市青葉区,国分町３丁目１１番５号日宝勾当台西ビル３０１号,,04,101,9800803,,,,,,,2025-06-06,1,,,,,シビルデザインサトウ,0
2692,9370001052680,新規,0,2025-06-06,2025-06-06,株式会社Ｓｔａｅｌ,,株式会社,宮城県,多賀城市,新田字後１０４番地の１キリュウＦ,,04,209,9850854,,,,,,,2025-06-06,1,,,,,ステイル,0
2695,9410001014172,新規,0,2025-06-06,2025-06-06,ビスクアイズ株式会社,,株式会社,秋田県,秋田市,下新城中野字琵琶沼１９８番地１９,,05,201,0100146,,,,,,,2025-06-06,1,,,,,ビスクアイズ,0
2697,9430001094618,新規,0,2025-06-06,2025-06-06,株式会社トレーディングサービス,,株式会社,北海道,小樽市,オタモイ１丁目４－３,,01,203,0482671,,,,,,,2025-06-06,1,,,,,トレーディングサービス,0
2698,9430001094626,新規,0,2025-06-06,2025-06-06,株式会社Ａｒｒｏｗ　ｄｅｓｉｇｎ,,株式会社,北海道,札幌市中央区,大通西１５丁目３－１２大通西ビル８階,,01,101,0600042,,,,,,,2025-06-06,1,,,,,アロウデザイン,0
2700,9430003017733,新規,0,2025-06-06,2025-06-06,合同会社ＧＩＶＥ　ＡＩＤ訪問看護あさひ,,合同会社,北海道,江別市,朝日町４１番１９－２０２号,,01,217,0670024,,,,,,,2025-06-06,1,,,,,ギブエイドホウモンカンゴアサヒ,0
2702,9440003001694,新規,0,2025-06-06,2025-06-06,合同会社アドバンス,,合同会社,北海道,函館市,湯川町３丁目二十番十－七百六号,,01,202,0420932,,,,,,,2025-06-06,1,,,,,アドバンス,0
2703,9450003002667,新規,0,2025-06-06,2025-06-06,Ｓｃａｌｉｎｇ　Ｙｏｕｒ　Ｃｏｍｐａｎｙ合同会社,,合同会社,北海道,旭川市,東光一条３丁目３番２５号アドニス東光２０１号,,01,204,0788341,,,,,,,2025-06-06,1,,,,,スケーリングユアカンパニー,0
2710,9500001026324,新規,0,2025-06-06,2025-06-06,株式会社井上塗装工業,,株式会社,愛媛県,今治市,祇園町２丁目３番２２号,00139470,38,202,7940804,,,,,,,2025-06-06,1,,,,,イノウエトソウコウギョウ,0
2712,9700150118505,新規,0,2025-06-06,2025-06-06,ｇｕａｎｇｘｉｓｈｉｊｉｃｈｕａｎｇｘｉｎｘｉａｎｓｈｉｄｉａｎｚｉｙｏｕｘｉａｎｇｏｎｇｓｉ,,外国会社等,,,,,,,,ｎａｎｎｉｎｇｓｈｉｌｉａｎｃｈｏｕｌｕ６７ｈａｏｚｈｏｎｇｇｕａｎｃｕｎｄｉａｎｚｉｘｉｎｘｉｃｈａｎｙｅｙｕａｎ３　ｎａｎｎｉｎｇｓｈｉ　ｇｕａｎｇｘｉｓｈｅｎｇ,,,,,,2025-06-06,1,,,,,グァンシーシジチュァンシンシェンシディエンズーヨウシェンゴンス,0
