sequenceNumber,corporateNumber,process,correct,updateDate,changeDate,name,nameImageId,kind,prefectureName,cityName,streetNumber,addressImageId,prefectureCode,cityCode,postCode,addressOutside,addressOutsideImageId,closeDate,closeCause,successorCorporateNumber,changeCause,assignmentDate,latest,enName,enPrefectureName,enCityName,enAddressOutside,furigana,hihyoji
19,1010001228051,新規,0,2022-07-11,2022-07-11,Ｍｉｄｏｒｉ　ＤＣ株式会社,,株式会社,東京都,千代田区,永田町２丁目１７－１０－７０２,,13,101,1000014,,,,,,,2022-07-11,1,,,,,ミドリディーシー,0
23,1010003038093,新規,0,2022-07-11,2022-07-11,合同会社東京クリエイション,,合同会社,東京都,中央区,日本橋３丁目２番１４号新槇町ビル別館第一,,13,102,1030027,,,,,,,2022-07-11,1,,,,,トウキョウクリエイション,0
25,1010005035246,新規,0,2022-07-11,2022-07-11,ＡＬＪ　Ｓｔｕｄｅｎｔ　Ｈｏｕｓｉｎｇ一般社団法人,,その他の設立登記法人,東京都,千代田区,神田神保町１丁目１１番地さくら綜合事務所内,,13,101,1010051,,,,,,,2022-07-11,1,,,,,エーエルジェースチューデントハウジング,0
32,1010401168401,新規,0,2022-07-11,2022-07-11,株式会社ユースプロダクション,,株式会社,東京都,港区,南青山２丁目２番１５号ウィン青山４３２,,13,103,1070062,,,,,,,2022-07-11,1,,,,,ユースプロダクション,0
33,1010401168450,新規,0,2022-07-11,2022-07-11,株式会社ＴＷＯ　ＷＩＮＧＳ　ＣＡＰＩＴＡＬ,,株式会社,東京都,港区,南麻布２丁目５番２１号イデア南麻布７Ｆ,,13,103,1060047,,,,,,,2022-07-11,1,,,,,トゥーウイングスキャピタル,0
34,1010401168475,新規,0,2022-07-11,2022-07-11,ネイチャースピリット株式会社,,株式会社,東京都,港区,南青山５丁目１７番２号,,13,103,1070062,,,,,,,2022-07-11,1,,,,,ネイチャースピリット,0
35,1010405021143,新規,0,2022-07-11,2022-07-11,一般社団法人笠間地域活性化基金,,その他の設立登記法人,東京都,港区,虎ノ門３丁目２２番１０－２０１号,,13,103,1050001,,,,,,,2022-07-11,1,,,,,カサマチイキカッセイカキキン,0
36,1010405021184,新規,0,2022-07-11,2022-07-11,谷田部ファシリティ特定目的会社,,その他の設立登記法人,東京都,港区,六本木１丁目６番１号泉ガーデンタワー,,13,103,1060032,,,,,,,2022-07-11,1,,,,,ヤタベファシリティ,0
43,1010603009634,新規,0,2022-07-11,2022-07-11,合同会社Ｏｎｌｙ　Ｏｎｅ,,合同会社,東京都,墨田区,錦糸３丁目２番１号アルカイースト２階,,13,107,1300013,,,,,,,2022-07-11,1,,,,,オンリーワン,0
48,1010801033089,新規,0,2022-07-11,2022-07-11,Ｇ２株式会社,,株式会社,東京都,大田区,大森北１丁目１１－４サンライト大森６０２,,13,111,1430016,,,,,,,2022-07-11,1,,,,,ジーツー,0
52,1011001148529,新規,0,2022-07-11,2022-07-11,株式会社ＣＯ’ＫＹＵ,,株式会社,東京都,渋谷区,恵比寿西１丁目９番６号ＡＳＴＲＥビル３Ｆ,,13,113,1500021,,,,,,,2022-07-11,1,,,,,コキュウ,0
53,1011001148594,新規,0,2022-07-11,2022-07-11,株式会社ＰａａａＫ,,株式会社,東京都,渋谷区,千駄ヶ谷３丁目１３番２０号第７宮廷マンション２０２号室,,13,113,1510051,,,,,,,2022-07-11,1,,,,,パーク,0
54,1011003015000,新規,0,2022-07-11,2022-07-11,ＴＨＥ　ＣＥＥＳ合同会社,,合同会社,東京都,目黒区,五本木１丁目３８－５ベラドンナ五本木１０３,,13,110,1530053,,,,,,,2022-07-11,1,,,,,ザシーズ,0
60,1011301027928,新規,0,2022-07-11,2022-07-11,矢崎ライブス株式会社,,株式会社,東京都,杉並区,南荻窪４丁目１９番１５号,,13,115,1670052,,,,,,,2022-07-11,1,,,,,ヤザキライブス,0
61,1011303004454,新規,0,2022-07-11,2022-07-11,合同会社Ｆｌａｂ,,合同会社,東京都,杉並区,和泉３丁目５３－１８ヴィラストーン２Ｆ,,13,115,1680063,,,,,,,2022-07-11,1,,,,,エフラボ,0
64,1011401024395,新規,0,2022-07-11,2022-07-11,ＴＷＱ株式会社,,株式会社,東京都,板橋区,仲宿６２－２,,13,119,1730005,,,,,,,2022-07-11,1,,,,,ティーダブリューキュー,0
67,1011503005211,新規,0,2022-07-11,2022-07-11,合同会社まめしば,,合同会社,東京都,北区,桐ケ丘１丁目２０番８号,,13,117,1150054,,,,,,,2022-07-11,1,,,,,マメシバ,0
71,1011701025432,新規,0,2022-07-11,2022-07-11,株式会社ＴＳＳ,,株式会社,東京都,江戸川区,春江町３丁目４５番１２号２階,,13,123,1320003,,,,,,,2022-07-11,1,,,,,ティーエスエス,0
72,1011701025449,新規,0,2022-07-11,2022-07-11,株式会社リンスコネクト,,株式会社,東京都,江戸川区,船堀５丁目３番２－３０９号,,13,123,1340091,,,,,,,2022-07-11,1,,,,,リンスコネクト,0
76,1011801040983,新規,0,2022-07-11,2022-07-11,ＣｈａｍａＴｅｃｈ株式会社,,株式会社,東京都,足立区,青井３丁目３２番１－３０９号,,13,121,1200012,,,,,,,2022-07-11,1,,,,,チャマテック,0
77,1011803005167,新規,0,2022-07-11,2022-07-11,バーリーバーリー合同会社,,合同会社,東京都,足立区,谷中２丁目８番７号東京ヤマオキビル６０３,,13,121,1200006,,,,,,,2022-07-11,1,,,,,バーリーバーリー,0
83,1012401039400,新規,0,2022-07-11,2022-07-11,株式会社ＲＰＡ　ＪＡＰＡＮ,,株式会社,東京都,稲城市,平尾１丁目４９番６号山王ビル２０３号,,13,225,2060823,,,,,,,2022-07-11,1,,,,,アールピーエージャパン,0
84,1012401039409,新規,0,2022-07-11,2022-07-11,株式会社ｍｏｍｏ,,株式会社,東京都,調布市,国領町８丁目２番２号コナ・ヴィレッジ調布国領３０１号,,13,208,1820022,,,,,,,2022-07-11,1,,,,,モモ,0
85,1013101008975,新規,0,2022-07-11,2022-07-11,株式会社ワールドスタッフ,,株式会社,東京都,西多摩郡瑞穂町,大字箱根ケ崎３９６番地４グリーンハイツ幸２０１号室,,13,303,1901221,,,,,,,2022-07-11,1,,,,,ワールドスタッフ,0
96,1020001147176,新規,0,2022-07-11,2022-07-11,ボゾンジャパン株式会社,,株式会社,神奈川県,横浜市神奈川区,台町１７番地１,,14,102,2210834,,,,,,,2022-07-11,1,,,,,ボゾンジャパン,0
97,1020001147250,新規,0,2022-07-11,2022-07-11,株式会社Ｂｅｌｌ　Ｐｏｌｉｔｅ　Ｆｏｏｄｓ,,株式会社,神奈川県,横浜市鶴見区,上の宮１丁目１６番５号,,14,101,2300075,,,,,,,2022-07-11,1,,,,,ベルポライトフーズ,0
98,1020001147259,新規,0,2022-07-11,2022-07-11,株式会社ローカス,,株式会社,神奈川県,横浜市都筑区,中川１丁目６番１２号金陵電気ビル１０２,,14,118,2240001,,,,,,,2022-07-11,1,,,,,ローカス,0
99,1020001147267,新規,0,2022-07-11,2022-07-11,株式会社ＲｎＢ,,株式会社,神奈川県,横浜市西区,戸部本町３０番３,,14,103,2200041,,,,,,,2022-07-11,1,,,,,ランボ,0
100,1020001147275,新規,0,2022-07-11,2022-07-11,億＿株式会社,00127161,株式会社,神奈川県,横浜市南区,高砂町１丁目２番地パーク・ノヴァ横浜吉野町３０５,,14,105,2320025,,,,,,,2022-07-11,1,,,,,オクキン,0
101,1020001147283,新規,0,2022-07-11,2022-07-11,バリュープロパティ株式会社,,株式会社,神奈川県,横浜市南区,前里町３丁目６４番６号,,14,105,2320004,,,,,,,2022-07-11,1,,,,,バリュープロパティ,0
102,1020001147300,新規,0,2022-07-11,2022-07-11,株式会社ＡＮＰ　ＥＮＥＲＴＥＣＨ,,株式会社,神奈川県,横浜市中区,尾上町３丁目３５番横浜第一有楽ビル８階,,14,104,2310015,,,,,,,2022-07-11,1,,,,,エーエヌピーエナテック,0
108,1020003022071,新規,0,2022-07-11,2022-07-11,Ｌｉｂｅｒ合同会社,,合同会社,神奈川県,川崎市中原区,小杉町３丁目６００番地Ｋ３Ａザ・レジデンス２１０６,,14,133,2110063,,,,,,,2022-07-11,1,,,,,リーベル,0
109,1020003022088,新規,0,2022-07-11,2022-07-11,合同会社ｃｒｉｓｉｓ,,合同会社,神奈川県,川崎市川崎区,渡田４丁目５番９号エムズ渡田３０２,,14,131,2100837,,,,,,,2022-07-11,1,,,,,クリシス,0
118,1030001149015,新規,0,2022-07-11,2022-07-11,株式会社マークテック,,株式会社,埼玉県,深谷市,常盤町７３番地１,,11,218,3660034,,,,,,,2022-07-11,1,,,,,マークテック,0
119,1030001149196,新規,0,2022-07-11,2022-07-11,Ｅ・ホールディングス株式会社,,株式会社,埼玉県,さいたま市桜区,道場３丁目１９番１０号オフィス桜１０１,,11,106,3380835,,,,,,,2022-07-11,1,,,,,イーホールディングス,0
120,1030001149205,新規,0,2022-07-11,2022-07-11,株式会社Ｏ‐ＳＥＱＵＥＮＣＥ,,株式会社,埼玉県,春日部市,緑町５丁目３番３６号,,11,214,3440063,,,,,,,2022-07-11,1,,,,,オーシーケンス,0
127,1030003019760,新規,0,2022-07-11,2022-07-11,合同会社ムラサメ,,合同会社,埼玉県,熊谷市,万吉５７２－１６１,,11,202,3600161,,,,,,,2022-07-11,1,,,,,ムラサメ,0
128,1030003019777,新規,0,2022-07-11,2022-07-11,ＭＡＳＵＤ　ＩＮＴＥＲＮＡＴＩＯＮＡＬ合同会社,,合同会社,埼玉県,蕨市,南町３丁目２４番６号－１０５,,11,223,3350003,,,,,,,2022-07-11,1,,,,,マスードインターナショナル,0
140,1040001124198,新規,0,2022-07-11,2022-07-11,株式会社船橋コックワイナリー,,株式会社,千葉県,船橋市,南本町３６番９号,,12,204,2730004,,,,,,,2022-07-11,1,,,,,フナバシコックワイナリー,0
141,1040001124256,新規,0,2022-07-11,2022-07-11,株式会社スマイデア,,株式会社,千葉県,千葉市中央区,白旗２丁目１３－１０,,12,101,2600841,,,,,,,2022-07-11,1,,,,,スマイデア,0
150,1040003020420,新規,0,2022-07-11,2022-07-11,日本予防リハビリ合同会社,,合同会社,千葉県,印西市,浦部１６３番地５,,12,231,2701367,,,,,,,2022-07-11,1,,,,,ニホンヨボウリハビリ,0
158,1050001051391,新規,0,2022-07-11,2022-07-11,株式会社アスリード,,株式会社,茨城県,結城郡八千代町,大字野爪３７７番地５,,08,521,3003518,,,,,,,2022-07-11,1,,,,,アスリード,0
163,1060003004140,新規,0,2022-07-11,2022-07-11,Ｑｕｅｅｎ合同会社,,合同会社,栃木県,宇都宮市,馬場通り３丁目４－７－３００５,,09,201,3200026,,,,,,,2022-07-11,1,,,,,クイーン,0
166,1070001039427,新規,0,2022-07-11,2022-07-11,グンリツ株式会社,,株式会社,群馬県,前橋市,下増田町７５３番地６,,10,201,3792113,,,,,,,2022-07-11,1,,,,,グンリツ,0
167,1080001025079,新規,0,2022-07-11,2022-07-11,株式会社井上,,株式会社,静岡県,島田市,祇園町８３７３番地の２,00127172,22,209,4270058,,,,,,,2022-07-11,1,,,,,イノウエ,0
172,1090001017661,新規,0,2022-07-11,2022-07-11,株式会社ａｂｉｇｎｅ,,株式会社,山梨県,甲府市,太田町２３番１１号,,19,201,4000865,,,,,,,2022-07-11,1,,,,,アビニャ,0
174,1100001035521,新規,0,2022-07-11,2022-07-11,株式会社Ａｎｃｈｏｒ　Ｄｅｓｉｇｎ,,株式会社,長野県,安曇野市,豊科５２９０番地９,,20,220,3998205,,,,,,,2022-07-11,1,,,,,アンカーデザイン,0
178,1110003004804,新規,0,2022-07-11,2022-07-11,セフィーロ合同会社,,合同会社,新潟県,長岡市,金沢５丁目１番７５号,,15,202,9400135,,,,,,,2022-07-11,1,,,,,セフィーロ,0
179,1110005016830,新規,0,2022-07-11,2022-07-11,一般社団法人新潟クラシック音楽協会,,その他の設立登記法人,新潟県,新潟市中央区,西堀通３番町８０４番地１シティタワー西堀１９０２号,,15,103,9518061,,,,,,,2022-07-11,1,,,,,ニイガタクラシックオンガクキョウカイ,0
184,1120001247239,新規,0,2022-07-11,2022-07-11,株式会社古谷塗装店,,株式会社,大阪府,門真市,岸和田２丁目９番２９号,,27,223,5710002,,,,,,,2022-07-11,1,,,,,フルタニトソウテン,0
185,1120003022037,新規,0,2022-07-11,2022-07-11,合同会社Ｚａｋｋａ,,合同会社,大阪府,大阪市阿倍野区,阪南町３丁目３３番３号プレサンスロジェ阿倍野阪南町０７０２号,,27,119,5450021,,,,,,,2022-07-11,1,,,,,ザッカ,0
195,1120901046228,新規,0,2022-07-11,2022-07-11,株式会社野口商會,,株式会社,大阪府,吹田市,岸部中５丁目１０番４０号,,27,205,5640002,,,,,,,2022-07-11,1,,,,,ノグチショウカイ,0
198,1122005003626,新規,0,2022-07-11,2022-07-11,一般社団法人日本企業活性化支援機構,,その他の設立登記法人,大阪府,東大阪市,足代北１丁目１３番１５号,,27,227,5770058,,,,,,,2022-07-11,1,,,,,ニホンキギョウカッセイカシエンキコウ,0
213,1140001126614,新規,0,2022-07-11,2022-07-11,さくらカンパニー株式会社,,株式会社,兵庫県,芦屋市,公光町４番２８号Ｃ８,,28,206,6590065,,,,,,,2022-07-11,1,,,,,サクラカンパニー,0
214,1140001126630,新規,0,2022-07-11,2022-07-11,株式会社エスエムエムティ,,株式会社,兵庫県,神戸市中央区,下山手通３丁目７番９号,,28,110,6500011,,,,,,,2022-07-11,1,,,,,エスエムエムティ,0
215,1140001126639,新規,0,2022-07-11,2022-07-11,スリーエレメンツ株式会社,,株式会社,兵庫県,宝塚市,逆瀬川１丁目１番４３号,,28,214,6650035,,,,,,,2022-07-11,1,,,,,スリーエレメンツ,0
216,1140001126647,新規,0,2022-07-11,2022-07-11,株式会社大恵,,株式会社,兵庫県,加西市,北条町北条５３番地ラフェスタ加西８０１,,28,220,6752312,,,,,,,2022-07-11,1,,,,,ダイケイ,0
217,1140001126663,新規,0,2022-07-11,2022-07-11,株式会社アルクリエイト,,株式会社,兵庫県,姫路市,四郷町東阿保１１３６番地５,,28,201,6710247,,,,,,,2022-07-11,1,,,,,アルクリエイト,0
224,1140003017893,新規,0,2022-07-11,2022-07-11,合同会社ジュジュヘアー,,合同会社,兵庫県,小野市,復井町８７１－９０,,28,218,6751352,,,,,,,2022-07-11,1,,,,,ジュジュヘアー,0
227,1140005026232,新規,0,2022-07-11,2022-07-11,一般社団法人ＦＣ　ＳＯＮＨＯ,,その他の設立登記法人,兵庫県,川西市,一庫３丁目６番２８号,,28,217,6660153,,,,,,,2022-07-11,1,,,,,エフシーソニオ,0
239,1180001152169,新規,0,2022-07-11,2022-07-11,ＨＲセカンド株式会社,,株式会社,愛知県,一宮市,木曽川町玉ノ井字四ツ辻東１６番地１,00127166,23,203,4930004,,,,,,,2022-07-11,1,,,,,エイチアールセカンド,0
244,1180003024028,新規,0,2022-07-11,2022-07-11,合同会社ＩＤＥＡ２１,,合同会社,愛知県,名古屋市熱田区,千年１丁目２０番１１号,,23,109,4560054,,,,,,,2022-07-11,1,,,,,アイディアトゥーワン,0
251,1190001029614,新規,0,2022-07-11,2022-07-11,株式会社浦村ＳｅａＦａｒｍ,,株式会社,三重県,鳥羽市,浦村町１５６０番地,,24,211,5170025,,,,,,,2022-07-11,1,,,,,ウラムラシーファーム,0
255,1200001040271,新規,0,2022-07-11,2022-07-11,Ａｚｐｅｃ製薬株式会社,,株式会社,岐阜県,大垣市,郭町東２丁目２７番地,,21,202,5030886,,,,,,,2022-07-11,1,,,,,アヅペックセイヤク,0
265,1230005009244,新規,0,2022-07-11,2022-07-11,社会保険労務士法人森井事務所,,その他の設立登記法人,富山県,魚津市,吉島１６２番地,,16,204,9370041,,,,,,,2022-07-11,1,,,,,モリイジムショ,0
267,1240003005707,新規,0,2022-07-11,2022-07-11,合同会社ＺＡｉ,,合同会社,広島県,廿日市市,佐方１丁目６番１８号,,34,213,7380001,,,,,,,2022-07-11,1,,,,,ザイ,0
281,1290001098161,新規,0,2022-07-11,2022-07-11,株式会社高田電工,00127157,株式会社,福岡県,久留米市,梅満町７７０番地,,40,203,8300048,,,,,,,2022-07-11,1,,,,,タカダデンコウ,0
282,1290003012707,新規,0,2022-07-11,2022-07-11,合同会社Ｌ‐Ｐｒｏ,,合同会社,福岡県,福岡市中央区,天神２丁目３番１０号天神パインクレスト７１９号,,40,133,8100001,,,,,,,2022-07-11,1,,,,,エルプロ,0
289,1300003001864,新規,0,2022-07-11,2022-07-11,合同会社蔦屋商店,,合同会社,佐賀県,佐賀市,柳町９番４号,,41,201,8400823,,,,,,,2022-07-11,1,,,,,ツタヤショウテン,0
297,1330001029913,新規,0,2022-07-11,2022-07-11,やまがＢＡＳＥ株式会社,,株式会社,熊本県,山鹿市,鹿央町広２１７５番地,,43,208,8610564,,,,,,,2022-07-11,1,,,,,ヤマガベース,0
300,1340005009480,新規,0,2022-07-11,2022-07-11,特定非営利活動法人かごしまスポーツ道,,その他の設立登記法人,鹿児島県,霧島市,国分野口東８番３１号,,46,218,8994341,,,,,,,2022-07-11,1,,,,,カゴシマスポーツドウ,0
310,1380003005222,新規,0,2022-07-11,2022-07-11,山崎設備合同会社,00127170,合同会社,福島県,南相馬市,原町区大町３丁目１１２番地マンションドム大町２０１,,07,212,9750001,,,,,,,2022-07-11,1,,,,,ヤマザキセツビ,0
315,1410003003684,新規,0,2022-07-11,2022-07-11,合同会社末廣屋,,合同会社,秋田県,秋田市,大住南１丁目９－３０,,05,201,0101420,,,,,,,2022-07-11,1,,,,,スエヒロヤ,0
318,1430001086985,新規,0,2022-07-11,2022-07-11,メイツ株式会社,,株式会社,北海道,札幌市豊平区,月寒中央通１０丁目６－３４－２０１,,01,105,0620020,,,,,,,2022-07-11,1,,,,,メイツ,0
319,1430001086993,新規,0,2022-07-11,2022-07-11,株式会社Ｇｇ,,株式会社,北海道,札幌市中央区,南七条西１丁目２番３－５０２号,,01,101,0640807,,,,,,,2022-07-11,1,,,,,グゥー,0
320,1430001087026,新規,0,2022-07-11,2022-07-11,株式会社楓,,株式会社,北海道,室蘭市,寿町３丁目１４番１７号,,01,205,0500082,,,,,,,2022-07-11,1,,,,,カエデ,0
321,1430001087050,新規,0,2022-07-11,2022-07-11,株式会社ＲＴＤ,,株式会社,北海道,札幌市西区,発寒十二条３丁目６番１８号,,01,107,0630832,,,,,,,2022-07-11,1,,,,,アールティーディー,0
324,1430003014077,新規,0,2022-07-11,2022-07-11,合同会社ｐｈｉｌｉａ,,合同会社,北海道,札幌市中央区,南八条西１丁目１３－１３９Ｓ－ＦＯＲＴ中島公園,,01,101,0640808,,,,,,,2022-07-11,1,,,,,フィリア,0
325,1430003014085,新規,0,2022-07-11,2022-07-11,ケイ・サーベイオフィス合同会社,,合同会社,北海道,札幌市中央区,宮の森二条６丁目１番２２号ヴィレッタ宮の森３０３号,,01,101,0640952,,,,,,,2022-07-11,1,,,,,ケイサーベイオフィス,0
337,1500001024335,新規,0,2022-07-11,2022-07-11,藤電株式会社,,株式会社,愛媛県,西条市,大町５５２番地１,,38,206,7930030,,,,,,,2022-07-11,1,,,,,フジデン,0
338,1500001024343,新規,0,2022-07-11,2022-07-11,株式会社四国貿易,,株式会社,愛媛県,今治市,東村南１丁目８番３号,,38,202,7991507,,,,,,,2022-07-11,1,,,,,シコクボウエキ,0
359,2010001228026,新規,0,2022-07-11,2022-07-11,酷優客株式会社,,株式会社,東京都,中央区,日本橋本町２丁目６－１,,13,102,1030023,,,,,,,2022-07-11,1,,,,,コウユウキャク,0
367,2010005035212,新規,0,2022-07-11,2022-07-11,一般社団法人世界水まつり,,その他の設立登記法人,東京都,中央区,東日本橋２丁目６番１１号ＮＳビル２階,,13,102,1030004,,,,,,,2022-07-11,1,,,,,セカイミズマツリ,0
368,2010005035229,新規,0,2022-07-11,2022-07-11,一般社団法人在京大分県人会,,その他の設立登記法人,東京都,千代田区,平河町２丁目６番３号,,13,101,1020093,,,,,,,2022-07-11,1,,,,,ザイキョウオオイタケンジンカイ,0
375,2010401168318,新規,0,2022-07-11,2022-07-11,ＶＨホテルマネジメント株式会社,,株式会社,東京都,港区,西新橋１丁目１番１号ＥＰコンサルティングサービス内,,13,103,1050003,,,,,,,2022-07-11,1,,,,,ブイエイチホテルマネジメント,0
376,2010401168383,新規,0,2022-07-11,2022-07-11,株式会社ファーストデジタルアナリティクス,,株式会社,東京都,港区,西麻布２丁目２番２－５０８号,,13,103,1060031,,,,,,,2022-07-11,1,,,,,ファーストデジタルアナリティクス,0
377,2010401168458,新規,0,2022-07-11,2022-07-11,株式会社ＮＡＢＢＡ　ＪＡＰＡＮ,,株式会社,東京都,港区,南青山２丁目２番１５号ウィン青山９４２,,13,103,1070062,,,,,,,2022-07-11,1,,,,,ナバジャパン,0
378,2010401168490,新規,0,2022-07-11,2022-07-11,株式会社ＨＩＮＩＣＨＩＪＯ,,株式会社,東京都,港区,浜松町２丁目２番１５号浜松町ダイヤビル２Ｆ,,13,103,1050013,,,,,,,2022-07-11,1,,,,,ヒニチジョウ,0
379,2010403028057,新規,0,2022-07-11,2022-07-11,合同会社８ｃａｎ,,合同会社,東京都,港区,東麻布２丁目５－３ルピナス麻布シティフォルム３０７号室,,13,103,1060044,,,,,,,2022-07-11,1,,,,,ヤカン,0
383,2010501049104,新規,0,2022-07-11,2022-07-11,株式会社ＯＭＣブレイン,,株式会社,東京都,台東区,元浅草３丁目１０番７－９０３号コスモ元浅草,,13,106,1110041,,,,,,,2022-07-11,1,,,,,オーエムシーブレイン,0
390,2010603009633,新規,0,2022-07-11,2022-07-11,合同会社リヤン,,合同会社,東京都,江東区,亀戸３丁目１５番７号,,13,108,1360071,,,,,,,2022-07-11,1,,,,,リヤン,0
396,2010901051171,新規,0,2022-07-11,2022-07-11,株式会社棚橋グループ,,株式会社,東京都,世田谷区,三軒茶屋１丁目４０番１４－３０４号,,13,112,1540024,,,,,,,2022-07-11,1,,,,,タナハシグループ,0
406,2011001148536,新規,0,2022-07-11,2022-07-11,株式会社ＯＮＹＸ,,株式会社,東京都,渋谷区,神宮前４丁目１５番１３号１Ａ室,,13,113,1500001,,,,,,,2022-07-11,1,,,,,オニキス,0
407,2011001148593,新規,0,2022-07-11,2022-07-11,株式会社兵庫撮影事務所,,株式会社,東京都,渋谷区,本一丁目１２番４－５０４号,,13,113,1500000,,,,,,,2022-07-11,1,,,,,ヒョウゴサツエイジムショ,0
414,2011101099530,新規,0,2022-07-11,2022-07-11,株式会社マックスフィールド,,株式会社,東京都,新宿区,西新宿３丁目３番１３号西新宿水間ビル６階,,13,104,1600023,,,,,,,2022-07-11,1,,,,,マックスフィールド,0
418,2011301027919,新規,0,2022-07-11,2022-07-11,株式会社ＲＥＶＥＬ　ＤＥＳＩＧＮ,,株式会社,東京都,杉並区,宮前３丁目３５番１３号,,13,115,1680081,,,,,,,2022-07-11,1,,,,,レベルデザイン,0
422,2011501028246,新規,0,2022-07-11,2022-07-11,株式会社ベルサトー,,株式会社,東京都,荒川区,西尾久５丁目７番５号ベルサトー４０１,,13,118,1160011,,,,,,,2022-07-11,1,,,,,ベルサトー,0
424,2011701025448,新規,0,2022-07-11,2022-07-11,株式会社ＡＹ,,株式会社,東京都,江戸川区,松江５丁目１８番２３号エクセレント船堀１２０１,,13,123,1320025,,,,,,,2022-07-11,1,,,,,エーワイ,0
426,2011703003195,新規,0,2022-07-11,2022-07-11,合同会社広京,,合同会社,東京都,江戸川区,西葛西５丁目１１番１１号司ビル３階,,13,123,1340088,,,,,,,2022-07-11,1,,,,,ヒロキョウ,0
434,2012701017146,新規,0,2022-07-11,2022-07-11,株式会社ＧＯＲＩＬＬＡ　Ｃｏｏｋｉｎｇ,,株式会社,東京都,小平市,花小金井南町３丁目３４番４２号１６,,13,211,1870003,,,,,,,2022-07-11,1,,,,,ゴリラクッキング,0
442,2020001147183,新規,0,2022-07-11,2022-07-11,株式会社上村設計,,株式会社,神奈川県,横浜市中区,本牧元町４７番１－２０９号,,14,104,2310822,,,,,,,2022-07-11,1,,,,,カミムラセッケイ,0
443,2020001147258,新規,0,2022-07-11,2022-07-11,株式会社楓ダクト,,株式会社,神奈川県,横浜市鶴見区,浜町１丁目３番地２４,,14,101,2300036,,,,,,,2022-07-11,1,,,,,カエデダクト,0
444,2020001147266,新規,0,2022-07-11,2022-07-11,株式会社ｈａｋｋｏ　ｐｒｏｊｅｃｔ,,株式会社,神奈川県,横浜市青葉区,美しが丘１丁目１３－１０吉村ビル１０７,,14,117,2250002,,,,,,,2022-07-11,1,,,,,ハッコウプロジェクト,0
445,2020001147274,新規,0,2022-07-11,2022-07-11,株式会社Ｅｉｇｈｔ防災,,株式会社,神奈川県,横浜市中区,曙町４丁目５６番地長倉屋メゾン４０３号室,,14,104,2310057,,,,,,,2022-07-11,1,,,,,エイトボウサイ,0
446,2020001147316,新規,0,2022-07-11,2022-07-11,株式会社ファインノース,,株式会社,神奈川県,横浜市中区,山手町６８番地７,,14,104,2310862,,,,,,,2022-07-11,1,,,,,ファインノース,0
448,2020003021980,新規,0,2022-07-11,2022-07-11,合同会社雲上,,合同会社,神奈川県,川崎市多摩区,菅城下２６番４１号アルカディア１０３,,14,135,2140007,,,,,,,2022-07-11,1,,,,,ウンジョウ,0
449,2020003022070,新規,0,2022-07-11,2022-07-11,オールスマイルフーズ合同会社,,合同会社,神奈川県,横浜市都筑区,荏田南５丁目７番３号－Ｆ区画,,14,118,2240007,,,,,,,2022-07-11,1,,,,,オールスマイルフーズ,0
453,2021003011914,新規,0,2022-07-11,2022-07-11,合同会社ミカタｗ,,合同会社,神奈川県,茅ヶ崎市,菱沼２丁目６番３５号アルカス湘南１０１,,14,207,2530011,,,,,,,2022-07-11,1,,,,,ミカタ,0
464,2030001149154,新規,0,2022-07-11,2022-07-11,株式会社Ａｎｄ　Ｙｏｕ　Ｔｅａｒ,,株式会社,埼玉県,さいたま市浦和区,仲町２丁目５番１号地下１階Ｍｉｏ浦和,,11,107,3300062,,,,,,,2022-07-11,1,,,,,アンドユーティア,0
465,2030001149162,新規,0,2022-07-11,2022-07-11,株式会社ｈａｐｐｙ　ｔｒｅｅ,,株式会社,埼玉県,ふじみ野市,苗間７２８番地８,,11,245,3560052,,,,,,,2022-07-11,1,,,,,ハッピーツリー,0
466,2030001149170,新規,0,2022-07-11,2022-07-11,ＴＳＣ株式会社,,株式会社,埼玉県,上尾市,向山１丁目１７番地１８,,11,219,3620045,,,,,,,2022-07-11,1,,,,,ティエスシー,0
477,2030005020914,新規,0,2022-07-11,2022-07-11,一般社団法人ペット育成環境健全化推進協会,,その他の設立登記法人,埼玉県,吉川市,美南２丁目２３番２号１Ｂ,,11,243,3420038,,,,,,,2022-07-11,1,,,,,ペットイクセイカンキョウケンゼンカスイシンキョウカイ,0
485,2040001124206,新規,0,2022-07-11,2022-07-11,ＹＡＳＩＮ株式会社,,株式会社,千葉県,八街市,八街い１７６－５７マンションＳＡＢＡ２１０号室,,12,230,2891143,,,,,,,2022-07-11,1,,,,,ヤシン,0
486,2040001124214,新規,0,2022-07-11,2022-07-11,株式会社ＨＩＲＯ　ＡＵＴＯ,,株式会社,千葉県,長生郡長柄町,長富１番地２,,12,426,2970214,,,,,,,2022-07-11,1,,,,,ヒロオート,0
487,2040001124271,新規,0,2022-07-11,2022-07-11,株式会社ＣＡＭＣＨＩＢＡ　ＧＲＯＵＰ,,株式会社,千葉県,習志野市,鷺沼５丁目６番３２号鷺沼マンション１０１号室,,12,216,2750014,,,,,,,2022-07-11,1,,,,,カムチバグループ,0
491,2040003020386,新規,0,2022-07-11,2022-07-11,聚安合同会社,,合同会社,千葉県,館山市,北条６４７番地の１,,12,205,2940045,,,,,,,2022-07-11,1,,,,,,0
492,2040003020428,新規,0,2022-07-11,2022-07-11,合同会社ＫＥＳＨＡＷ　ＬＡＮＫＡ,,合同会社,千葉県,山武郡芝山町,新井田６４６－１,,12,409,2891625,,,,,,,2022-07-11,1,,,,,ケーショウランカ,0
494,2040005021671,新規,0,2022-07-11,2022-07-11,一般社団法人国際福祉推進協会,,その他の設立登記法人,千葉県,浦安市,富士見３丁目１番３６－１０９,,12,227,2790043,,,,,,,2022-07-11,1,,,,,コクサイフクシスイシンキョウカイ,0
502,2070001039426,新規,0,2022-07-11,2022-07-11,株式会社タベイ,,株式会社,群馬県,太田市,高林南町６５６番地,,10,205,3730827,,,,,,,2022-07-11,1,,,,,タベイ,0
505,2080001025078,新規,0,2022-07-11,2022-07-11,株式会社アール,,株式会社,静岡県,静岡市葵区,安東１丁目２３番６号,,22,101,4200882,,,,,,,2022-07-11,1,,,,,アール,0
509,2080101023411,新規,0,2022-07-11,2022-07-11,株式会社ｅｎｂｌｉｓｓ,,株式会社,静岡県,富士宮市,外神１５５８番地の８,,22,207,4180006,,,,,,,2022-07-11,1,,,,,エンブリス,0
514,2100001035495,新規,0,2022-07-11,2022-07-11,株式会社ジェイコンポーネンツ,,株式会社,長野県,上田市,大手１丁目１２番２３号ＢＩＧＵＥＤＡ２０４号室,,20,203,3860024,,,,,,,2022-07-11,1,,,,,ジェイコンポーネンツ,0
515,2100001035520,新規,0,2022-07-11,2022-07-11,株式会社ジャスト,,株式会社,長野県,長野市,三輪７丁目４番１１号,,20,201,3800803,,,,,,,2022-07-11,1,,,,,ジャスト,0
516,2100003006610,新規,0,2022-07-11,2022-07-11,合同会社ｎａｔｕｒａｌ,,合同会社,長野県,佐久市,野沢４０７番地１,,20,217,3850053,,,,,,,2022-07-11,1,,,,,ナチュラル,0
527,2120001246702,新規,0,2022-07-11,2022-07-11,ＵＬＵ株式会社,,株式会社,大阪府,大阪市天王寺区,味原町１４番３号,,27,109,5430023,,,,,,,2022-07-11,1,,,,,ウル,0
528,2120001247155,新規,0,2022-07-11,2022-07-11,株式会社Ｓ．Ｅ．Ｌ,,株式会社,大阪府,大阪市城東区,関目３丁目１５番１号,,27,118,5360008,,,,,,,2022-07-11,1,,,,,エスイーエル,0
529,2120001247171,新規,0,2022-07-11,2022-07-11,株式会社キシモト,,株式会社,大阪府,大阪市天王寺区,北河堀町７番２２号,,27,109,5430053,,,,,,,2022-07-11,1,,,,,キシモト,0
530,2120001247188,新規,0,2022-07-11,2022-07-11,株式会社Ｂｌｏｏｍ　ｏｆ　ｐｅａｃｅ,,株式会社,大阪府,枚方市,南中振２丁目５０番２号,,27,210,5730094,,,,,,,2022-07-11,1,,,,,ブルームオブピース,0
531,2120001247213,新規,0,2022-07-11,2022-07-11,株式会社ＣＲＯＷＮ,,株式会社,大阪府,大阪市西区,江戸堀２丁目１－１江戸堀センタービル９階,,27,106,5500002,,,,,,,2022-07-11,1,,,,,クラウン,0
532,2120001247246,新規,0,2022-07-11,2022-07-11,スウィングコンサルティング株式会社,,株式会社,大阪府,大阪市北区,梅田１丁目１番３号大阪駅前第３ビル２５階,,27,127,5300001,,,,,,,2022-07-11,1,,,,,スウィングコンサルティング,0
535,2120003022011,新規,0,2022-07-11,2022-07-11,凝承九合同会社,,合同会社,大阪府,大阪市生野区,勝山南３丁目１４番２０号,,27,116,5440021,,,,,,,2022-07-11,1,,,,,ギョウショウキュウ,0
536,2120003022028,新規,0,2022-07-11,2022-07-11,合同会社２１,,合同会社,大阪府,大阪市都島区,東野田町３丁目１１－１０－１階,,27,102,5340024,,,,,,,2022-07-11,1,,,,,トゥエンティファースト,0
542,2120101065903,新規,0,2022-07-11,2022-07-11,株式会社Ｅ‐ＷＯＲＫｓ．,,株式会社,大阪府,泉南市,岡田５丁目１－１２,,27,228,5900531,,,,,,,2022-07-11,1,,,,,イーワークス,0
544,2120103004768,新規,0,2022-07-11,2022-07-11,ＹＴＡ合同会社,,合同会社,大阪府,岸和田市,大北町１番３２－１２０８号,,27,202,5960061,,,,,,,2022-07-11,1,,,,,ワイティーエー,0
545,2120103004784,新規,0,2022-07-11,2022-07-11,合同会社ハッピーハートセラピー,,合同会社,大阪府,堺市東区,中茶屋４６番地６,,27,143,5998128,,,,,,,2022-07-11,1,,,,,ハッピーハートセラピー,0
547,2120901046227,新規,0,2022-07-11,2022-07-11,株式会社ｋｉｍＡＣＴ,,株式会社,大阪府,吹田市,片山町４丁目１７番２１号,,27,205,5640082,,,,,,,2022-07-11,1,,,,,キムアクト,0
549,2120903004232,新規,0,2022-07-11,2022-07-11,Ｆ．Ｋｉｄｓ合同会社,,合同会社,大阪府,高槻市,庄所町３番２１号,,27,207,5690064,,,,,,,2022-07-11,1,,,,,エフキッズ,0
552,2130001072189,新規,0,2022-07-11,2022-07-11,株式会社Ａ‐ＬＩＳＴ　ＭＥＲＩＡ,,株式会社,京都府,京都市中京区,西ノ京星池町１６６番地,,26,104,6048416,,,,,,,2022-07-11,1,,,,,エーリストメリア,0
553,2130003008059,新規,0,2022-07-11,2022-07-11,合同会社クリモト,,合同会社,京都府,京都市伏見区,小栗栖岩ケ淵町１５番地５,,26,109,6011443,,,,,,,2022-07-11,1,,,,,クリモト,0
563,2140001126621,新規,0,2022-07-11,2022-07-11,株式会社Ｎホールディングス,,株式会社,兵庫県,姫路市,北新在家２丁目１９番１３号,,28,201,6700091,,,,,,,2022-07-11,1,,,,,エヌホールディングス,0
564,2140001126638,新規,0,2022-07-11,2022-07-11,グローアップメンテナンス株式会社,,株式会社,兵庫県,明石市,大久保町大久保町６６３番地の１３,,28,203,6740067,,,,,,,2022-07-11,1,,,,,グローアップメンテナンス,0
565,2140001126662,新規,0,2022-07-11,2022-07-11,日本道路安全株式会社,,株式会社,兵庫県,神戸市西区,伊川谷町有瀬１５０６番地の１,,28,111,6512113,,,,,,,2022-07-11,1,,,,,ニホンドウロアンゼン,0
572,2140003017876,新規,0,2022-07-11,2022-07-11,合同会社ＫＯＭＡ,,合同会社,兵庫県,神戸市中央区,栄町通１丁目１番８号ノーサンビル３０３号室,,28,110,6500023,,,,,,,2022-07-11,1,,,,,コーマ,0
574,2140005026231,新規,0,2022-07-11,2022-07-11,弁理士法人オフィス大江山,,その他の設立登記法人,兵庫県,神戸市東灘区,深江北町４丁目８番１９－２０１号,,28,101,6580013,,,,,,,2022-07-11,1,,,,,オフィスオオエヤマ,0
576,2150001025673,新規,0,2022-07-11,2022-07-11,株式会社Ｍ’ｓ　ｌａｂｏ,,株式会社,奈良県,奈良市,富雄元町１丁目８番１９号Ｄ’クラディア富雄２０６,,29,201,6310078,,,,,,,2022-07-11,1,,,,,エムズラボ,0
577,2150001025681,新規,0,2022-07-11,2022-07-11,株式会社Ｎ．Ｄ．Ｓ,,株式会社,奈良県,奈良市,七条１丁目７番２８号,,29,201,6308053,,,,,,,2022-07-11,1,,,,,エヌディーエス,0
578,2160001024328,新規,0,2022-07-11,2022-07-11,エンゼルエステイト滋賀株式会社,,株式会社,滋賀県,東近江市,青野町４６００番地,,25,213,5270232,,,,,,,2022-07-11,1,,,,,エンゼルエステイトシガ,0
579,2160005011099,新規,0,2022-07-11,2022-07-11,一般社団法人あもるぷらす,,その他の設立登記法人,滋賀県,栗東市,高野６６０番地３,,25,208,5203045,,,,,,,2022-07-11,1,,,,,アモルプラス,0
586,2180001152036,新規,0,2022-07-11,2022-07-11,百三総研株式会社,,株式会社,愛知県,一宮市,木曽川町黒田字山１番地２ＴＯＵＲＮＥＹ木曽川８１０号,,23,203,4930001,,,,,,,2022-07-11,1,,,,,ヒャクサンソウケン,0
587,2180001152060,新規,0,2022-07-11,2022-07-11,株式会社ＴＫ,,株式会社,愛知県,名古屋市名東区,陸前町１７０８番地,,23,115,4650057,,,,,,,2022-07-11,1,,,,,ティーケイ,0
588,2180001152110,新規,0,2022-07-11,2022-07-11,株式会社エムジェイサービス,,株式会社,愛知県,名古屋市瑞穂区,弥富通３－５４ハートイン弥富通３Ｆ,,23,108,4670000,,,,,,,2022-07-11,1,,,,,エムジェイサービス,0
589,2180001152135,新規,0,2022-07-11,2022-07-11,名機通商株式会社,,株式会社,愛知県,名古屋市緑区,鳴海町字伝治山１番地の２４（ライオンズガーデン野並６０７号）,,23,114,4580844,,,,,,,2022-07-11,1,,,,,メイキツウショウ,0
590,2180001152143,新規,0,2022-07-11,2022-07-11,美創観株式会社,,株式会社,愛知県,半田市,有楽町７丁目１５０番地の５,,23,205,4750837,,,,,,,2022-07-11,1,,,,,ビソウカン,0
591,2180001152168,新規,0,2022-07-11,2022-07-11,株式会社ＳＯＡＲ　ＣＨＯＲＤ,,株式会社,愛知県,名古屋市千種区,高見１丁目５番１号ＰＲＥＮＤＲＥ・Ｄｉｏ７０１号,,23,101,4640073,,,,,,,2022-07-11,1,,,,,ソアコード,0
592,2180001152176,新規,0,2022-07-11,2022-07-11,株式会社ＴＡ２ＲＯ３,,株式会社,愛知県,名古屋市昭和区,南山町４番地の４,,23,107,4660835,,,,,,,2022-07-11,1,,,,,ティーエーツーアールオースリー,0
602,2180003024027,新規,0,2022-07-11,2022-07-11,合同会社エスペランザ,,合同会社,愛知県,名古屋市千種区,唐山町１丁目４２番地の２,,23,101,4640806,,,,,,,2022-07-11,1,,,,,エスペランザ,0
604,2190001029613,新規,0,2022-07-11,2022-07-11,フローナル株式会社,,株式会社,三重県,伊勢市,竹ケ鼻町３７３番地,,24,203,5160005,,,,,,,2022-07-11,1,,,,,フローナル,0
605,2190001029621,新規,0,2022-07-11,2022-07-11,株式会社ｏｂｒｉＧａＴ,,株式会社,三重県,鈴鹿市,南玉垣町５７０７―２,,24,207,5130816,,,,,,,2022-07-11,1,,,,,オブリガット,0
610,2200001040262,新規,0,2022-07-11,2022-07-11,株式会社青山工業,,株式会社,岐阜県,可児市,中恵土１７９６番地１,,21,214,5090202,,,,,,,2022-07-11,1,,,,,アオヤマコウギョウ,0
623,2240001060083,新規,0,2022-07-11,2022-07-11,株式会社Ｍ’ｓエクステリア,,株式会社,広島県,廿日市市,大野１丁目１３番２８号,,34,213,7390434,,,,,,,2022-07-11,1,,,,,エムズエクステリア,0
624,2240001060091,新規,0,2022-07-11,2022-07-11,株式会社Ｆｌｙｅｅ,,株式会社,広島県,広島市安佐南区,八木９丁目９番５０－１１号１１０２号室,,34,105,7310101,,,,,,,2022-07-11,1,,,,,フリー,0
627,2240003005706,新規,0,2022-07-11,2022-07-11,合同会社Ｒｅｖｉｖｅ,,合同会社,広島県,安芸郡府中町,鹿籠１丁目２０番１０－３０９号,,34,302,7350025,,,,,,,2022-07-11,1,,,,,リバイブ,0
629,2260001037039,新規,0,2022-07-11,2022-07-11,株式会社ＣＲＥＥＴＥ,,株式会社,岡山県,岡山市中区,桜橋４丁目１番１６号,,33,102,7038285,,,,,,,2022-07-11,1,,,,,クリート,0
633,2290001098144,新規,0,2022-07-11,2022-07-11,大神デジタル・ソリューションズ株式会社,,株式会社,福岡県,福岡市南区,柏原１丁目４番１１号,,40,134,8111353,,,,,,,2022-07-11,1,,,,,オオガミデジタルソリューションズ,0
634,2290001098202,新規,0,2022-07-11,2022-07-11,ｎｉｃｏ　ｈｏｕｓｅ株式会社,,株式会社,福岡県,久留米市,安武町安武本１３２８番地３,,40,203,8300072,,,,,,,2022-07-11,1,,,,,ニコハウス,0
635,2290001098227,新規,0,2022-07-11,2022-07-11,株式会社ＢＡＵＭ,,株式会社,福岡県,福岡市中央区,桜坂１丁目１４番１８号ＥＳハウス６,,40,133,8100024,,,,,,,2022-07-11,1,,,,,バウム,0
645,2290801028713,新規,0,2022-07-11,2022-07-11,株式会社長寿会,,株式会社,福岡県,北九州市小倉南区,守恒１丁目１１番１６－９０９号,,40,107,8020972,,,,,,,2022-07-11,1,,,,,チョウジュカイ,0
649,2300001012986,新規,0,2022-07-11,2022-07-11,株式会社ａｌｌ　ｔｅｃｈ,,株式会社,佐賀県,伊万里市,南波多町井手野２３７０番地,,41,205,8480007,,,,,,,2022-07-11,1,,,,,オールテック,0
671,2350001017857,新規,0,2022-07-11,2022-07-11,株式会社ＫＭクリエーション,,株式会社,宮崎県,宮崎市,大工３丁目５８番地１,,45,201,8800015,,,,,,,2022-07-11,1,,,,,ケイエムクリエーション,0
675,2360001030669,新規,0,2022-07-11,2022-07-11,Ｔｈｅ　Ａｌｌ　Ｇｒｉｔ　Ｃｏｒｐｏｒａｔｉｏｎ株式会社,,株式会社,沖縄県,浦添市,西原６丁目１５番３号,,47,208,9012101,,,,,,,2022-07-11,1,,,,,ジオールグリットコーポレーション,0
676,2360001030685,新規,0,2022-07-11,2022-07-11,株式会社オーシャンアンバーストーン,,株式会社,沖縄県,那覇市,前島２丁目１２番１２号セントラルコーポ兼陽４０７,,47,201,9000016,,,,,,,2022-07-11,1,,,,,オーシャンアンバーストーン,0
684,2370003005767,新規,0,2022-07-11,2022-07-11,合同会社ＡＸＩＳ,,合同会社,宮城県,仙台市泉区,住吉台西１丁目５－９,,04,105,9813223,,,,,,,2022-07-11,1,,,,,アクシス,0
688,2390001016970,新規,0,2022-07-11,2022-07-11,株式会社ＣＱ‐ＢＡＳＥ,,株式会社,山形県,山形市,伊達城１丁目３－６,,06,201,9902163,,,,,,,2022-07-11,1,,,,,シーキューベース,0
690,2400003002959,新規,0,2022-07-11,2022-07-11,ルーモ合同会社,,合同会社,岩手県,北上市,相去町葛西檀５番地６９,,03,206,0240051,,,,,,,2022-07-11,1,,,,,ルーモ,0
692,2410003003683,新規,0,2022-07-11,2022-07-11,合同会社玲翔,,合同会社,秋田県,大仙市,土川字下西野７１番地７,,05,212,0192111,,,,,,,2022-07-11,1,,,,,レイト,0
693,2420001017940,新規,0,2022-07-11,2022-07-11,株式会社ＫＴＳ,,株式会社,青森県,青森市,大字前田字中野１９番地２,,02,201,0380053,,,,,,,2022-07-11,1,,,,,ケーティーエス,0
696,2430003014076,新規,0,2022-07-11,2022-07-11,Ｈ＆Ｃｏｍｐａｎｙ合同会社,,合同会社,北海道,札幌市白石区,本通１４丁目南７－１４アルファコート白石９０１,,01,104,0030026,,,,,,,2022-07-11,1,,,,,エイチアンドカンパニー,0
697,2430003014092,新規,0,2022-07-11,2022-07-11,合同会社Ｈｏｋｋａｉｄｏ　Ｈｏｏｐｓ,,合同会社,北海道,札幌市北区,屯田七条１０丁目７番２６号,,01,102,0020857,,,,,,,2022-07-11,1,,,,,ホッカイドウフープス,0
700,2480001011789,新規,0,2022-07-11,2022-07-11,株式会社Ｏｒｉｇｉｎ　ｒｅｇｒｅｓｓｉｏｎ,,株式会社,徳島県,徳島市,南田宮３丁目４番７号,,36,201,7700004,,,,,,,2022-07-11,1,,,,,オリジンレグレッション,0
718,3010005035211,新規,0,2022-07-11,2022-07-11,一般社団法人Ａｒｓ法務相続支援協会,,その他の設立登記法人,東京都,中央区,銀座７丁目１３番６号,,13,102,1040061,,,,,,,2022-07-11,1,,,,,アルスホウムソウゾクシエンキョウカイ,0
719,3010005035228,新規,0,2022-07-11,2022-07-11,一般社団法人日本ＰＭＳ研究会,,その他の設立登記法人,東京都,文京区,本郷３丁目３５番４号不二光学ビル４Ｆ,,13,105,1130033,,,,,,,2022-07-11,1,,,,,ニホンピーエムエスケンキュウカイ,0
720,3010103001949,新規,0,2022-07-11,2022-07-11,合同会社エイト,,合同会社,東京都,八王子市,横川町１０７３－３－２０２,,13,201,1930823,,,,,,,2022-07-11,1,,,,,,0
725,3010401168234,新規,0,2022-07-11,2022-07-11,Ｌｅａｄｉａ株式会社,,株式会社,東京都,港区,浜松町２丁目２番１５号浜松町ダイヤビル２Ｆ,,13,103,1050013,,,,,,,2022-07-11,1,,,,,リーディア,0
726,3010401168449,新規,0,2022-07-11,2022-07-11,株式会社ＧＡＲＩＢＡＬＤＩ,,株式会社,東京都,港区,虎ノ門３丁目１８番１２－７１０号,,13,103,1050001,,,,,,,2022-07-11,1,,,,,ギャリボルディー,0
732,3010601061445,新規,0,2022-07-11,2022-07-11,株式会社ＣＲＥＳＴ,,株式会社,東京都,江東区,亀戸９丁目５番７号,,13,108,1360071,,,,,,,2022-07-11,1,,,,,クレスト,0
752,3011001148386,新規,0,2022-07-11,2022-07-11,株式会社チェックレイズ,,株式会社,東京都,渋谷区,宇田川町１２番３号ニュー渋谷コーポラス９０２番,,13,113,1500042,,,,,,,2022-07-11,1,,,,,チェックレイズ,0
753,3011001148601,新規,0,2022-07-11,2022-07-11,山信商事株式会社,,株式会社,東京都,渋谷区,神宮前１丁目１０番３４号原宿コーポ別館６０２号室,,13,113,1500001,,,,,,,2022-07-11,1,,,,,ヤマシンショウジ,0
754,3011001148659,新規,0,2022-07-11,2022-07-11,株式会社ＳＡＭＵＲＡＩエステート,,株式会社,東京都,渋谷区,千駄ヶ谷３丁目３番３１－４０１号,,13,113,1510051,,,,,,,2022-07-11,1,,,,,サムライエステート,0
755,3011005009650,新規,0,2022-07-11,2022-07-11,コンパッソ行政書士法人,,その他の設立登記法人,東京都,渋谷区,道玄坂１丁目１０番５号渋谷プレイス９階,,13,113,1500043,,,,,,,2022-07-11,1,,,,,コンパッソ,0
762,3011103011954,新規,0,2022-07-11,2022-07-11,Ｓｌｅｅｐｉｎｇ　Ｅｇｇｚ合同会社,,合同会社,東京都,新宿区,新宿６丁目２９番１１号,,13,104,1600022,,,,,,,2022-07-11,1,,,,,スリーピングエッグズ,0
763,3011103011970,新規,0,2022-07-11,2022-07-11,バンカーズ９号合同会社,,合同会社,東京都,新宿区,四谷２丁目９番地１５東京ユナイテッド綜合事務所内,,13,104,1600004,,,,,,,2022-07-11,1,,,,,バンカーズキュウゴウ,0
764,3011301027926,新規,0,2022-07-11,2022-07-11,株式会社ＩＤパートナーズ,,株式会社,東京都,杉並区,下高井戸２丁目１番１４号,,13,115,1680073,,,,,,,2022-07-11,1,,,,,アイディーパートナーズ,0
769,3011601026099,新規,0,2022-07-11,2022-07-11,株式会社マイト,,株式会社,東京都,練馬区,高松５丁目４番２７号,,13,120,1790075,,,,,,,2022-07-11,1,,,,,マイト,0
773,3012401039398,新規,0,2022-07-11,2022-07-11,株式会社アセットテクノロジー,,株式会社,東京都,府中市,是政４丁目１番地の１リムザ８４１,,13,206,1830014,,,,,,,2022-07-11,1,,,,,アセットテクノロジー,0
774,3012701017145,新規,0,2022-07-11,2022-07-11,株式会社ＰＩＮＵＳ,,株式会社,東京都,西東京市,向台町３丁目５番２７－５１４号,,13,229,1880013,,,,,,,2022-07-11,1,,,,,パイナス,0
777,3013101008973,新規,0,2022-07-11,2022-07-11,株式会社ワイワイ,,株式会社,東京都,青梅市,東青梅６丁目１０番地の２第３－３０４号,,13,205,1980042,,,,,,,2022-07-11,1,,,,,ワイワイ,0
792,3020001147257,新規,0,2022-07-11,2022-07-11,ＢＹＤ　Ａｕｔｏ　Ｊａｐａｎ株式会社,,株式会社,神奈川県,横浜市神奈川区,栄町１０－３５ポートサイドダイヤビル２Ｆ,,14,102,2210052,,,,,,,2022-07-11,1,,,,,ビーワイディーオートジャパン,0
793,3020001147356,新規,0,2022-07-11,2022-07-11,ＳＢＲ株式会社,,株式会社,神奈川県,横浜市磯子区,森が丘２丁目１４番３６号,,14,107,2350024,,,,,,,2022-07-11,1,,,,,エスビーアール,0
798,3020003022078,新規,0,2022-07-11,2022-07-11,合同会社イスト,,合同会社,神奈川県,横浜市旭区,二俣川１丁目４５番地４４,,14,112,2410821,,,,,,,2022-07-11,1,,,,,イスト,0
817,3030001149095,新規,0,2022-07-11,2022-07-11,株式会社ｍｅｒｉｓｅ,,株式会社,埼玉県,川口市,西川口１丁目１７番１６－４０１号,,11,203,3320021,,,,,,,2022-07-11,1,,,,,ミライズ,0
818,3030001149120,新規,0,2022-07-11,2022-07-11,株式会社ＭＥＳ,,株式会社,埼玉県,川口市,領家３丁目４番５号ソフィアＢ,,11,203,3320004,,,,,,,2022-07-11,1,,,,,エムイーエス,0
819,3030001149145,新規,0,2022-07-11,2022-07-11,株式会社アクアサウナ,,株式会社,埼玉県,八潮市,大字鶴ケ曽根７２６番地７,,11,234,3400802,,,,,,,2022-07-11,1,,,,,アクアサウナ,0
820,3030001149211,新規,0,2022-07-11,2022-07-11,興和株式会社,,株式会社,埼玉県,川口市,川口４丁目４番３４－７１２号,,11,203,3320015,,,,,,,2022-07-11,1,,,,,コウワ,0
829,3030003019718,新規,0,2022-07-11,2022-07-11,合同会社ホワイトキャスト,,合同会社,埼玉県,越谷市,千間台西１丁目２１番地１０号サニーハイツせんげん台５０５,,11,222,3430041,,,,,,,2022-07-11,1,,,,,ホワイトキャスト,0
830,3030003019775,新規,0,2022-07-11,2022-07-11,昌栄合同会社,,合同会社,埼玉県,鶴ヶ島市,大字下新田６２１番地２０５・ＫＩＶオフィス下新田Ｉ－Ａ号室,00127167,11,241,3502222,,,,,,,2022-07-11,1,,,,,ショウエイ,0
831,3030003019783,新規,0,2022-07-11,2022-07-11,ａｓ‐ｉｓ合同会社,,合同会社,埼玉県,川越市,元町１丁目８番地３３藤田ビル,,11,201,3500062,,,,,,,2022-07-11,1,,,,,アズーイズ,0
843,3040003020410,新規,0,2022-07-11,2022-07-11,山和美装合同会社,,合同会社,千葉県,銚子市,長塚町３丁目６５３番地,,12,202,2880837,,,,,,,2022-07-11,1,,,,,サンワビゾウ,0
844,3040003020419,新規,0,2022-07-11,2022-07-11,合同会社ノドルＪ,,合同会社,千葉県,木更津市,中島２２６６,,12,206,2920008,,,,,,,2022-07-11,1,,,,,ノドルジェイ,0
845,3040003020427,新規,0,2022-07-11,2022-07-11,合同会社英結ファーム,,合同会社,千葉県,勝浦市,名木１１６番地,,12,218,2995253,,,,,,,2022-07-11,1,,,,,ハナユイファーム,0
848,3040005021670,新規,0,2022-07-11,2022-07-11,一般社団法人共振科学研究所,,その他の設立登記法人,千葉県,勝浦市,松野４０５番地１,,12,218,2995211,,,,,,,2022-07-11,1,,,,,キョウシンカガクケンキュウジョ,0
850,3050003006680,新規,0,2022-07-11,2022-07-11,合同会社ＡＫＥＳＵ　ＥＮＴＥＲＰＲＩＳＥＳ,,合同会社,茨城県,筑西市,中根２７４番地２,,08,227,3004513,,,,,,,2022-07-11,1,,,,,アケスエンタープライセス,0
855,3060001035078,新規,0,2022-07-11,2022-07-11,株式会社デイライト,,株式会社,栃木県,下都賀郡壬生町,大字安塚１０９０番地１,,09,361,3210201,,,,,,,2022-07-11,1,,,,,デイライト,0
860,3070001039425,新規,0,2022-07-11,2022-07-11,齋藤農業株式会社,,株式会社,群馬県,太田市,高林北町乙２１６１番地,,10,205,3730829,,,,,,,2022-07-11,1,,,,,サイトウノウギョウ,0
865,3090001017668,新規,0,2022-07-11,2022-07-11,株式会社エクステリア三咲,,株式会社,山梨県,富士吉田市,浅間２丁目１２番５号,,19,202,4030031,,,,,,,2022-07-11,1,,,,,エクステリアミサキ,0
868,3110005016829,新規,0,2022-07-11,2022-07-11,一般社団法人刈羽福祉会ライフサポート未来,,その他の設立登記法人,新潟県,刈羽郡刈羽村,大字刈羽３５７０番地１,,15,504,9450307,,,,,,,2022-07-11,1,,,,,カリワフクシカイライフサポートミライ,0
884,3120001247162,新規,0,2022-07-11,2022-07-11,株式会社ＯＴＮ,,株式会社,大阪府,大阪市福島区,福島１丁目１番４８－４００４号,,27,103,5530003,,,,,,,2022-07-11,1,,,,,オーティーエヌ,0
888,3120003022084,新規,0,2022-07-11,2022-07-11,合同会社摩耶通信技研,,合同会社,大阪府,大阪市西区,北堀江１丁目１４番９号太陽ビル３階Ｂ,,27,106,5500014,,,,,,,2022-07-11,1,,,,,マヤツウシンギケン,0
889,3120005023048,新規,0,2022-07-11,2022-07-11,一般社団法人日本止水協会,,その他の設立登記法人,大阪府,大阪市旭区,清水２丁目１０番１３号,,27,117,5350021,,,,,,,2022-07-11,1,,,,,ニホンシスイキョウカイ,0
893,3120103004783,新規,0,2022-07-11,2022-07-11,りんて合同会社,,合同会社,大阪府,堺市堺区,南三国ヶ丘町２丁１番２７号,,27,141,5900023,,,,,,,2022-07-11,1,,,,,リンテ,0
896,3120901046226,新規,0,2022-07-11,2022-07-11,株式会社幸,,株式会社,大阪府,豊中市,永楽荘１丁目６番９号,,27,203,5600051,,,,,,,2022-07-11,1,,,,,サチ,0
901,3130001072122,新規,0,2022-07-11,2022-07-11,株式会社楽俵,,株式会社,京都府,京都市北区,小山堀池町３８番地１２,,26,101,6038145,,,,,,,2022-07-11,1,,,,,ラクタワラ,0
910,3140001126620,新規,0,2022-07-11,2022-07-11,株式会社Ｃ‐Ｐｌａａｔｓ,,株式会社,兵庫県,神戸市西区,学園東町１丁目３番地の１・１１６－５０２号,,28,111,6512102,,,,,,,2022-07-11,1,,,,,シープラーツ,0
911,3140001126645,新規,0,2022-07-11,2022-07-11,株式会社ハンド,,株式会社,兵庫県,丹波市,市島町中竹田２４２７番地,,28,223,6694302,,,,,,,2022-07-11,1,,,,,ハンド,0
912,3140001126686,新規,0,2022-07-11,2022-07-11,株式会社ＹＧＫ,,株式会社,兵庫県,神戸市須磨区,寺田町２丁目１－１４－２０３,,28,107,6540025,,,,,,,2022-07-11,1,,,,,ワイジーケー,0
913,3140001126694,新規,0,2022-07-11,2022-07-11,今里ビル株式会社,,株式会社,兵庫県,宝塚市,中筋６丁目３番３号,,28,214,6650874,,,,,,,2022-07-11,1,,,,,イマザトビル,0
914,3140001126703,新規,0,2022-07-11,2022-07-11,株式会社神楽,,株式会社,兵庫県,伊丹市,昆陽東５丁目１番３号,,28,207,6640886,,,,,,,2022-07-11,1,,,,,カグラ,0
920,3140003017883,新規,0,2022-07-11,2022-07-11,合同会社ティー,,合同会社,兵庫県,神戸市北区,藤原台南町４丁目１８番７号,,28,109,6511303,,,,,,,2022-07-11,1,,,,,ティー,0
927,3150003002728,新規,0,2022-07-11,2022-07-11,ＫＫＡ合同会社,,合同会社,奈良県,生駒市,上町台３番地９,,29,209,6300138,,,,,,,2022-07-11,1,,,,,ケーケーエー,0
933,3180001152002,新規,0,2022-07-11,2022-07-11,オレエイド株式会社,,株式会社,愛知県,名古屋市名東区,牧の里１丁目２０６番地富弘ビル１階Ｃ,,23,115,4650068,,,,,,,2022-07-11,1,,,,,オレエイド,0
934,3180001152134,新規,0,2022-07-11,2022-07-11,株式会社ハクシーズ,,株式会社,愛知県,名古屋市中区,大須３丁目３１番２２号ＣＦｏｒｅｓｔＩＩ,00127162,23,106,4600011,,,,,,,2022-07-11,1,,,,,ハクシーズ,0
935,3180001152150,新規,0,2022-07-11,2022-07-11,株式会社ＬＡＮＤＢＯＸ,,株式会社,愛知県,名古屋市中村区,本陣通３丁目５５番地プレサンスロジェ本陣駅前７０４号,,23,105,4530041,,,,,,,2022-07-11,1,,,,,ランドボックス,0
936,3180001152159,新規,0,2022-07-11,2022-07-11,ＣＲＭテクノロジーズ株式会社,,株式会社,愛知県,一宮市,神山２丁目８番１７－９０２号,,23,203,4910904,,,,,,,2022-07-11,1,,,,,シーアールエムテクノロジーズ,0
944,3180003024018,新規,0,2022-07-11,2022-07-11,ユージングテクノロジーベタージャパン合同会社,,合同会社,愛知県,名古屋市中区,栄５丁目２６番３９号,,23,106,4600008,,,,,,,2022-07-11,1,,,,,ユージングテクノロジーベタージャパン,0
948,3190001029620,新規,0,2022-07-11,2022-07-11,アイプラトリエ株式会社,,株式会社,三重県,員弁郡東員町,大字六把野新田１６７番地５,,24,324,5110242,,,,,,,2022-07-11,1,,,,,アイプラトリエ,0
950,3190005011723,新規,0,2022-07-11,2022-07-11,医療法人もりした整形外科,,その他の設立登記法人,三重県,四日市市,山之一色町２４１４番地１,,24,202,5120906,,,,,,,2022-07-11,1,,,,,モリシタセイケイゲカ,0
956,3240001060082,新規,0,2022-07-11,2022-07-11,株式会社ＯＮＥ,,株式会社,広島県,広島市安佐北区,亀山南５丁目１６番２５号,,34,106,7310232,,,,,,,2022-07-11,1,,,,,ワン,0
962,3250001019648,新規,0,2022-07-11,2022-07-11,株式会社ＭＪ食品,,株式会社,山口県,防府市,上天神町１番２４号,,35,206,7470033,,,,,,,2022-07-11,1,,,,,エムジェイショクヒン,0
963,3250001019656,新規,0,2022-07-11,2022-07-11,機創技研工業株式会社,,株式会社,山口県,宇部市,厚南中央５丁目８番２－１８号,,35,202,7590212,,,,,,,2022-07-11,1,,,,,キソウギケンコウギョウ,0
964,3260001037038,新規,0,2022-07-11,2022-07-11,株式会社アスシード,,株式会社,岡山県,岡山市中区,倉富３５７番地１,,33,102,7038264,,,,,,,2022-07-11,1,,,,,アスシード,0
967,3260003003970,新規,0,2022-07-11,2022-07-11,リトルデーラー合同会社,,合同会社,岡山県,笠岡市,園井２０５５番地１３,,33,205,7140021,,,,,,,2022-07-11,1,,,,,リトルデーラー,0
968,3260003003979,新規,0,2022-07-11,2022-07-11,合同会社らっとぶる,,合同会社,岡山県,岡山市東区,瀬戸町下５４６番地２,,33,103,7090856,,,,,,,2022-07-11,1,,,,,ラットブル,0
972,3290001098234,新規,0,2022-07-11,2022-07-11,株式会社かなでるプラン,,株式会社,福岡県,飯塚市,鯰田２４１９番地１,,40,205,8200001,,,,,,,2022-07-11,1,,,,,カナデルプラン,0
975,3290003012688,新規,0,2022-07-11,2022-07-11,よか税合同会社,,合同会社,福岡県,福岡市中央区,赤坂１丁目１３番２８‐３０８号ロマネスク赤坂,,40,133,8100042,,,,,,,2022-07-11,1,,,,,ヨカゼイ,0
976,3290003012696,新規,0,2022-07-11,2022-07-11,合同会社Ｆ．Ｄ．Ｐ,,合同会社,福岡県,糸島市,志摩師吉４３０番地２２,,40,230,8191314,,,,,,,2022-07-11,1,,,,,エフディーピー,0
982,3290801028720,新規,0,2022-07-11,2022-07-11,株式会社ｍａｒｕｍｏＩＣＴ,,株式会社,福岡県,北九州市小倉南区,徳力新町２丁目４番７号,,40,107,8020979,,,,,,,2022-07-11,1,,,,,マルモアイシーティー,0
989,3300001012985,新規,0,2022-07-11,2022-07-11,株式会社ＫＳＴ,,株式会社,佐賀県,唐津市,湊町７４２番地１－２Ｆ,,41,202,8470133,,,,,,,2022-07-11,1,,,,,ケイエスティー,0
995,3320001019178,新規,0,2022-07-11,2022-07-11,株式会社浦松コンサルティングファーム,,株式会社,大分県,別府市,大字鶴見４１４２番地の８,,44,202,8740840,,,,,,,2022-07-11,1,,,,,ウラマツコンサルティングファーム,0
996,3320001019203,新規,0,2022-07-11,2022-07-11,ｖｅｒｍｉｌｉｏｎｈｕｅ株式会社,,株式会社,大分県,大分市,中島西３丁目３番５号中島ハウスマンション５０２,,44,201,8700047,,,,,,,2022-07-11,1,,,,,バーミリオンヒュー,0
1003,3340001024894,新規,0,2022-07-11,2022-07-11,株式会社ロンテック,,株式会社,鹿児島県,鹿児島市,春山町１７６０－３,,46,201,8992704,,,,,,,2022-07-11,1,,,,,ロンテック,0
1008,3360003012053,新規,0,2022-07-11,2022-07-11,合同会社ＭＩＴ,,合同会社,沖縄県,那覇市,久米１丁目１―２１オレンジビル５階,,47,201,9000033,,,,,,,2022-07-11,1,,,,,エムアイティー,0
1012,3370003005766,新規,0,2022-07-11,2022-07-11,クローバー合同会社,,合同会社,宮城県,仙台市青葉区,一番町１丁目１７番１－６０５号,,04,101,9800811,,,,,,,2022-07-11,1,,,,,クローバー,0
1022,3410003003682,新規,0,2022-07-11,2022-07-11,合同会社スバル,,合同会社,秋田県,潟上市,天王字持谷地１０４番地９,,05,211,0100201,,,,,,,2022-07-11,1,,,,,スバル,0
1028,3430001086983,新規,0,2022-07-11,2022-07-11,Ｕｃｈｉ株式会社,,株式会社,北海道,虻田郡ニセコ町,字羊蹄１１番地１,,01,395,0481541,,,,,,,2022-07-11,1,,,,,ウチ,0
1029,3430001086991,新規,0,2022-07-11,2022-07-11,北方解放戦線株式会社,,株式会社,北海道,札幌市中央区,南五条西１丁目１番地１８デュオベール札幌南５条１２０１号,,01,101,0640805,,,,,,,2022-07-11,1,,,,,ホッポウカイホウセンセン,0
1030,3430001087008,新規,0,2022-07-11,2022-07-11,アヴァンライズ株式会社,,株式会社,北海道,札幌市中央区,北四条西４丁目１－７ＭＭＳ駅前ビル１階,,01,101,0600004,,,,,,,2022-07-11,1,,,,,アヴァンライズ,0
1031,3430001087040,新規,0,2022-07-11,2022-07-11,株式会社Ｂ・Ｍ・Ｇ,,株式会社,北海道,札幌市北区,篠路町篠路４４４番地３３,,01,102,0028053,,,,,,,2022-07-11,1,,,,,ビーエムジー,0
1033,3430003014091,新規,0,2022-07-11,2022-07-11,アトネス合同会社,,合同会社,北海道,北広島市,栄町３丁目７番地６,,01,234,0611133,,,,,,,2022-07-11,1,,,,,アトネス,0
1050,4010001227991,新規,0,2022-07-11,2022-07-11,ＥＳＧレンタル株式会社,,株式会社,東京都,中央区,日本橋茅場町１丁目４番６号,,13,102,1030025,,,,,,,2022-07-11,1,,,,,イーエスジーレンタル,0
1051,4010001228024,新規,0,2022-07-11,2022-07-11,株式会社友,,株式会社,東京都,中央区,日本橋箱崎町１６番１号,,13,102,1030015,,,,,,,2022-07-11,1,,,,,ユウ,0
1052,4010001228057,新規,0,2022-07-11,2022-07-11,Ａｓｉａ　Ｒｅａｌ　Ｃａｐｉｔａｌ‐Ｇ１株式会社,,株式会社,東京都,千代田区,麹町１丁目６－９ＤＩＫ麹町ビル２Ｄ,,13,101,1020083,,,,,,,2022-07-11,1,,,,,アジアリアルキャピタルジーワン,0
1057,4010003038132,新規,0,2022-07-11,2022-07-11,合同会社プライムフォーマスターリース,,合同会社,東京都,千代田区,丸の内１丁目６番５号,,13,101,1000005,,,,,,,2022-07-11,1,,,,,プライムフォーマスターリース,0
1060,4010005035219,新規,0,2022-07-11,2022-07-11,一般財団法人ズームグループ学術振興財団,,その他の設立登記法人,東京都,千代田区,神田駿河台４丁目４番地１,,13,101,1010062,,,,,,,2022-07-11,1,,,,,ズームグループガクジュツシンコウザイダン,0
1061,4010103001948,新規,0,2022-07-11,2022-07-11,ＣＡＳＥ　ＤｉｇｉｔａｌＣｒｅａｔｉｖｅｓ合同会社,,合同会社,東京都,八王子市,大和田町１丁目９－１７,,13,201,1920045,,,,,,,2022-07-11,1,,,,,ケースデジタルクリエイティヴ,0
1063,4010401168349,新規,0,2022-07-11,2022-07-11,株式会社ウイニングスタッド,,株式会社,東京都,港区,北青山３丁目６番７号青山パラシオタワー１１階,,13,103,1070061,,,,,,,2022-07-11,1,,,,,ウイニングスタッド,0
1064,4010401168373,新規,0,2022-07-11,2022-07-11,株式会社ＹＫコンサルティング,,株式会社,東京都,港区,西新橋１丁目２０番１０号,,13,103,1050003,,,,,,,2022-07-11,1,,,,,ワイケィコンサルティング,0
1065,4010401168431,新規,0,2022-07-11,2022-07-11,トルパニオン・ジャパン株式会社,,株式会社,東京都,港区,麻布台２丁目１番２－１４０６号,,13,103,1060041,,,,,,,2022-07-11,1,,,,,トルパニオンジャパン,0
1066,4010401168472,新規,0,2022-07-11,2022-07-11,株式会社ＴＨＥ　ＣＯＬＤ　ＰＲＯＣＥＳＳ　ＴＯＫＹＯ,,株式会社,東京都,港区,北青山３丁目９番１０号北青山ビル１階,,13,103,1070061,,,,,,,2022-07-11,1,,,,,ザコールドプロセストーキョー,0
1067,4010403028071,新規,0,2022-07-11,2022-07-11,合同会社三凛企画,,合同会社,東京都,港区,東麻布１丁目２８番６号,,13,103,1060044,,,,,,,2022-07-11,1,,,,,サンリンキカク,0
1072,4010601061452,新規,0,2022-07-11,2022-07-11,株式会社ウェッブアイ・ホールディングス,,株式会社,東京都,江東区,東砂７丁目１番１－９０２号,,13,108,1360074,,,,,,,2022-07-11,1,,,,,ウェッブアイホールディングス,0
1091,4011001148559,新規,0,2022-07-11,2022-07-11,株式会社エスペランサ,,株式会社,東京都,渋谷区,道玄坂１丁目１０番８号渋谷道玄坂東急ビル２Ｆ－Ｃ,,13,113,1500043,,,,,,,2022-07-11,1,,,,,エスペランサ,0
1092,4011001148609,新規,0,2022-07-11,2022-07-11,ＧＭＯ　Ｗｅｂ３株式会社,,株式会社,東京都,渋谷区,桜丘町２６番１号,,13,113,1500031,,,,,,,2022-07-11,1,,,,,ジーエムオーウェブスリー,0
1093,4011003015006,新規,0,2022-07-11,2022-07-11,合同会社メイプルズ,,合同会社,東京都,渋谷区,神宮前６丁目２３番４号桑野ビル２階,,13,113,1500001,,,,,,,2022-07-11,1,,,,,メイプルズ,0
1100,4011101099529,新規,0,2022-07-11,2022-07-11,株式会社誠グループ,,株式会社,東京都,新宿区,百人町１丁目１７－６成田ビル３０３,,13,104,1690073,,,,,,,2022-07-11,1,,,,,マコトグループ,0
1111,4011601026098,新規,0,2022-07-11,2022-07-11,株式会社ＳＯＧＵＮＩ,,株式会社,東京都,練馬区,関町北３丁目５－１５,,13,120,1770051,,,,,,,2022-07-11,1,,,,,ソグニ,0
1113,4011701025446,新規,0,2022-07-11,2022-07-11,株式会社石井印刷,,株式会社,東京都,江戸川区,南小岩４丁目５番９号,,13,123,1330056,,,,,,,2022-07-11,1,,,,,イシイインサツ,0
1114,4011703003193,新規,0,2022-07-11,2022-07-11,ケアデザイン合同会社,,合同会社,東京都,江戸川区,松江７丁目１３番２号,,13,123,1320025,,,,,,,2022-07-11,1,,,,,ケアデザイン,0
1116,4011801040989,新規,0,2022-07-11,2022-07-11,友信株式会社,,株式会社,東京都,足立区,神明南２丁目１７番２０号アークステージ北綾瀬１０４号,,13,121,1210057,,,,,,,2022-07-11,1,,,,,ユウシン,0
1119,4012401039414,新規,0,2022-07-11,2022-07-11,株式会社ｅｙｅ,,株式会社,東京都,武蔵野市,御殿山１丁目４番１８－１４０２号,,13,203,1800005,,,,,,,2022-07-11,1,,,,,,0
1120,4012405004760,新規,0,2022-07-11,2022-07-11,弁理士法人真田特許事務所,,その他の設立登記法人,東京都,武蔵野市,吉祥寺本町１丁目１０番３１号,,13,203,1800004,,,,,,,2022-07-11,1,,,,,サナダトッキョジムショ,0
1122,4013101008972,新規,0,2022-07-11,2022-07-11,株式会社笑,,株式会社,東京都,羽村市,羽中３丁目１６番３１号Ａ,,13,227,2050015,,,,,,,2022-07-11,1,,,,,エム,0
1126,4013301049346,新規,0,2022-07-11,2022-07-11,株式会社和陽日本語学院,,株式会社,東京都,豊島区,西池袋１丁目１１番１号メトロポリタンプラザビル１２階,,13,116,1710021,,,,,,,2022-07-11,1,,,,,ワヨウニホンゴガクイン,0
1127,4013301049354,新規,0,2022-07-11,2022-07-11,株式会社ナウネス,,株式会社,東京都,豊島区,南池袋３丁目２４番１９号グラータ南池袋４０２号,,13,116,1710022,,,,,,,2022-07-11,1,,,,,ナウネス,0
1133,4020001147215,新規,0,2022-07-11,2022-07-11,株式会社アールダブル,,株式会社,神奈川県,川崎市幸区,古市場１８６２番地,,14,132,2120052,,,,,,,2022-07-11,1,,,,,アールダブル,0
1134,4020001147248,新規,0,2022-07-11,2022-07-11,株式会社緑舎,,株式会社,神奈川県,川崎市川崎区,江川２丁目１５番１－１０５号,,14,131,2100823,,,,,,,2022-07-11,1,,,,,ミドリヤ,0
1135,4020001147272,新規,0,2022-07-11,2022-07-11,株式会社東海,,株式会社,神奈川県,横浜市神奈川区,新子安１丁目１０番１９－２０７号,,14,102,2210013,,,,,,,2022-07-11,1,,,,,トウカイ,0
1136,4020001147314,新規,0,2022-07-11,2022-07-11,株式会社Ｎ‐ｃｕｂｅ,,株式会社,神奈川県,横浜市港南区,芹が谷１丁目８番１８号,,14,111,2330006,,,,,,,2022-07-11,1,,,,,エヌキューブ,0
1137,4020001147330,新規,0,2022-07-11,2022-07-11,株式会社恒隆,,株式会社,神奈川県,横浜市中区,山下町１５１－３アートビル４階,,14,104,2310023,,,,,,,2022-07-11,1,,,,,コウリュウ,0
1140,4020003022028,新規,0,2022-07-11,2022-07-11,合同会社さいはら,,合同会社,神奈川県,横浜市戸塚区,秋葉町２８０－５第６野本ビル２階,,14,110,2450052,,,,,,,2022-07-11,1,,,,,サイハラ,0
1141,4020003022069,新規,0,2022-07-11,2022-07-11,コット合同会社,,合同会社,神奈川県,横浜市鶴見区,寺谷２丁目１５番１５号,,14,101,2300015,,,,,,,2022-07-11,1,,,,,コット,0
1142,4020003022077,新規,0,2022-07-11,2022-07-11,合同会社アンビシャス,,合同会社,神奈川県,横浜市金沢区,富岡東６丁目４番８－３号,,14,108,2360051,,,,,,,2022-07-11,1,,,,,アンビシャス,0
1143,4020003022085,新規,0,2022-07-11,2022-07-11,ＭＩインベストメント合同会社,,合同会社,神奈川県,横浜市神奈川区,金港町２番地１,,14,102,2210056,,,,,,,2022-07-11,1,,,,,エムアイインベストメント,0
1152,4021001076478,新規,0,2022-07-11,2022-07-11,株式会社土田製作所,,株式会社,神奈川県,相模原市南区,古淵５丁目１番６号,,14,153,2520344,,,,,,,2022-07-11,1,,,,,ツチダセイサクジョ,0
1153,4021001076486,新規,0,2022-07-11,2022-07-11,株式会社Ｃｒｕｎｃｈ　Ｃｌｕｂ,,株式会社,神奈川県,横須賀市,佐島３丁目１１番２９号,,14,201,2400103,,,,,,,2022-07-11,1,,,,,クランチクラブ,0
1155,4021005012561,新規,0,2022-07-11,2022-07-11,一般社団法人ライフアソート三浦海岸団地管理組合,,その他の設立登記法人,神奈川県,三浦市,南下浦町上宮田３２１２番地２４,,14,210,2380101,,,,,,,2022-07-11,1,,,,,ライフアソートミウラカイガンダンチカンリクミアイ,0
1166,4030001148716,新規,0,2022-07-11,2022-07-11,株式会社ナチュールプラス,,株式会社,埼玉県,熊谷市,三ヶ尻３８５７番地,,11,202,3600843,,,,,,,2022-07-11,1,,,,,ナチュールプラス,0
1167,4030001149185,新規,0,2022-07-11,2022-07-11,株式会社トップアスト,,株式会社,埼玉県,朝霞市,田島２丁目１４－１－３０１,,11,227,3510032,,,,,,,2022-07-11,1,,,,,,0
1168,4030001149202,新規,0,2022-07-11,2022-07-11,株式会社ＢｕｚｚＢｌｏｗ,,株式会社,埼玉県,川口市,末広２丁目４番１３号３０２号室,,11,203,3320006,,,,,,,2022-07-11,1,,,,,バスブロー,0
1172,4030003019741,新規,0,2022-07-11,2022-07-11,合同会社エストリア,,合同会社,埼玉県,所沢市,日吉町６－９,,11,208,3591123,,,,,,,2022-07-11,1,,,,,エストリア,0
1173,4030003019766,新規,0,2022-07-11,2022-07-11,合同会社ＣＨＡＮＤＲＡ　ＳＨＡＮＴＩ,,合同会社,埼玉県,蕨市,北町５丁目８番６号トーシンハイツ蕨４０４号,,11,223,3350001,,,,,,,2022-07-11,1,,,,,チャンドラシャンティ,0
1174,4030003019774,新規,0,2022-07-11,2022-07-11,合同会社アールズ・エンタープライズ,,合同会社,埼玉県,本庄市,児玉町入浅見１１２５番地７１,,11,211,3670203,,,,,,,2022-07-11,1,,,,,アールズエンタープライズ,0
1184,4040001124187,新規,0,2022-07-11,2022-07-11,株式会社ＯＲＩＮＵＳ,,株式会社,千葉県,いすみ市,大原９８１２番地,,12,238,2980004,,,,,,,2022-07-11,1,,,,,オリナス,0
1193,4040003020376,新規,0,2022-07-11,2022-07-11,ＳＡＩＫＩ企画合同会社,,合同会社,千葉県,柏市,塚崎１０８０番地,,12,217,2770923,,,,,,,2022-07-11,1,,,,,サイキキカク,0
1194,4040003020401,新規,0,2022-07-11,2022-07-11,合同会社ワダツミ,,合同会社,千葉県,四街道市,四街道１５３５番地６７,,12,228,2840005,,,,,,,2022-07-11,1,,,,,ワタツミ,0
1195,4040003020418,新規,0,2022-07-11,2022-07-11,合同会社クプル,,合同会社,千葉県,千葉市若葉区,千城台西１丁目５６番１号,,12,104,2640004,,,,,,,2022-07-11,1,,,,,クプル,0
1196,4050001051364,新規,0,2022-07-11,2022-07-11,株式会社ＥＰＣＯＴ,,株式会社,茨城県,つくば市,春日２丁目４６番地１コンフォートやまのい６０６号,,08,220,3050821,,,,,,,2022-07-11,1,,,,,エプコット,0
1197,4050001051372,新規,0,2022-07-11,2022-07-11,株式会社コレクト,,株式会社,茨城県,土浦市,桜町２丁目４番１０号,,08,203,3000037,,,,,,,2022-07-11,1,,,,,コレクト,0
1203,4060001035085,新規,0,2022-07-11,2022-07-11,株式会社ＣＡＮＯＷ,,株式会社,栃木県,小山市,城東２丁目２６番２２号,,09,208,3230807,,,,,,,2022-07-11,1,,,,,カナウ,0
1208,4080003002833,新規,0,2022-07-11,2022-07-11,合同会社イーウチラボ,,合同会社,静岡県,焼津市,小土８６７－４,,22,212,4250086,,,,,,,2022-07-11,1,,,,,イーウチラボ,0
1212,4080101023418,新規,0,2022-07-11,2022-07-11,Ｍ’ｓインテリア株式会社,,株式会社,静岡県,伊豆の国市,四日町８７０番地の１,,22,225,4102123,,,,,,,2022-07-11,1,,,,,エムズインテリア,0
1213,4080401025948,新規,0,2022-07-11,2022-07-11,井口牧場株式会社,,株式会社,静岡県,浜松市北区,三ヶ日町都筑３５２４番地の２,,22,135,4311402,,,,,,,2022-07-11,1,,,,,イグチボクジョウ,0
1214,4080405007471,新規,0,2022-07-11,2022-07-11,一般社団法人ジュニアサポーター浜松,,その他の設立登記法人,静岡県,浜松市西区,伊左地町２４６０番地の２,,22,133,4311111,,,,,,,2022-07-11,1,,,,,ジュニアサポーターハママツ,0
1219,4110005016828,新規,0,2022-07-11,2022-07-11,一般社団法人ともにあゆむ,,その他の設立登記法人,新潟県,新潟市中央区,東大通２丁目７番２８号スタック新潟６０９号,,15,103,9500087,,,,,,,2022-07-11,1,,,,,トモニアユム,0
1223,4120001247153,新規,0,2022-07-11,2022-07-11,株式会社シマコシ,,株式会社,大阪府,枚方市,出口５丁目５番１８－５号,,27,210,5730065,,,,,,,2022-07-11,1,,,,,シマコシ,0
1224,4120001247228,新規,0,2022-07-11,2022-07-11,株式会社ネイティブ,,株式会社,大阪府,大阪市旭区,大宮３丁目２０番３０号プレジールＫ３０１,,27,117,5350002,,,,,,,2022-07-11,1,,,,,ネイティブ,0
1225,4120001247269,新規,0,2022-07-11,2022-07-11,Ｃｏｎｃｏｒｄ　Ｃｌｕｂ株式会社,,株式会社,大阪府,大阪市浪速区,幸町２丁目２－４０－１２０１,,27,111,5560021,,,,,,,2022-07-11,1,,,,,コンコードクラブ,0
1226,4120005023047,新規,0,2022-07-11,2022-07-11,医療法人幸志会,,その他の設立登記法人,大阪府,大阪市北区,中之島２丁目３番１８号中之島フェスティバルタワー１５階,,27,127,5300005,,,,,,,2022-07-11,1,,,,,コウシカイ,0
1227,4120005023055,新規,0,2022-07-11,2022-07-11,一般社団法人家具家電循環型レンタル協会,,その他の設立登記法人,大阪府,大阪市中央区,南本町３丁目３番１４号貴田ビル５階,,27,128,5410054,,,,,,,2022-07-11,1,,,,,カグカデンジュンカンガタレンタルキョウカイ,0
1230,4120101065901,新規,0,2022-07-11,2022-07-11,株式会社Ｋａｍｏｎ,,株式会社,大阪府,泉大津市,東雲町４番３５－５０６号,,27,206,5950026,,,,,,,2022-07-11,1,,,,,,0
1237,4120901046233,新規,0,2022-07-11,2022-07-11,Ａｓｓｅｔ　Ｓｅａ株式会社,,株式会社,大阪府,吹田市,春日４丁目２番１－５２１号,,27,205,5650853,,,,,,,2022-07-11,1,,,,,アセットシー,0
1244,4130001072121,新規,0,2022-07-11,2022-07-11,株式会社タンポポ柊,,株式会社,京都府,京都市中京区,西ノ京上合町６０番地,,26,104,6048484,,,,,,,2022-07-11,1,,,,,タンポポヒイラギ,0
1253,4140001126636,新規,0,2022-07-11,2022-07-11,株式会社ＡＲＮＥＯ,,株式会社,兵庫県,西宮市,今津曙町３－１７,,28,204,6638214,,,,,,,2022-07-11,1,,,,,アルネオ,0
1254,4140001126660,新規,0,2022-07-11,2022-07-11,株式会社ｇｒｏｏｖｅ,,株式会社,兵庫県,神戸市兵庫区,大開通２丁目３番１８号,,28,105,6520803,,,,,,,2022-07-11,1,,,,,グルーヴ,0
1255,4140001126710,新規,0,2022-07-11,2022-07-11,株式会社晴喜,00127169,株式会社,兵庫県,神戸市東灘区,住吉台２５番２０号,,28,101,6580062,,,,,,,2022-07-11,1,,,,,ハルキ,0
1267,4160001024326,新規,0,2022-07-11,2022-07-11,株式会社Ｋ‐ｎｅｃｔ,,株式会社,滋賀県,蒲生郡日野町,大字北脇１番地２２２,,25,383,5291663,,,,,,,2022-07-11,1,,,,,ケイネクト,0
1272,4170001017188,新規,0,2022-07-11,2022-07-11,株式会社オールリノベイト,,株式会社,和歌山県,和歌山市,島橋東ノ丁１番４７号,,30,201,6408413,,,,,,,2022-07-11,1,,,,,オールリノベイト,0
1287,4180001152091,新規,0,2022-07-11,2022-07-11,株式会社エムトリア,,株式会社,愛知県,名古屋市緑区,鳴丘２丁目２４１８番地の１（ベルエアヒルズ２０５号）,,23,114,4580005,,,,,,,2022-07-11,1,,,,,エムトリア,0
1288,4180001152133,新規,0,2022-07-11,2022-07-11,株式会社Ｒｏｏｍ　Ｓｔｙｌｅ,,株式会社,愛知県,名古屋市西区,城町２４８番地の６,,23,104,4520842,,,,,,,2022-07-11,1,,,,,ルームスタイル,0
1289,4180001152182,新規,0,2022-07-11,2022-07-11,株式会社ＩＳＳＯＵ,,株式会社,愛知県,名古屋市守山区,鳥神町１１１番地,,23,113,4630088,,,,,,,2022-07-11,1,,,,,イッソウ,0
1290,4180001152190,新規,0,2022-07-11,2022-07-11,Ｃ技研株式会社,,株式会社,愛知県,常滑市,字椎田奥８番地の９,,23,216,4790034,,,,,,,2022-07-11,1,,,,,シーギケン,0
1293,4180005019840,新規,0,2022-07-11,2022-07-11,一般社団法人ＣＳＣ特殊清掃士認定協会,,その他の設立登記法人,愛知県,名古屋市港区,七反野１丁目２２０２番地,,23,111,4550884,,,,,,,2022-07-11,1,,,,,シーエスシートクシュセイソウシニンテイキョウカイ,0
1301,4190005011722,新規,0,2022-07-11,2022-07-11,医療法人ＴＤＯ,,その他の設立登記法人,三重県,津市,大里睦合町３２０番６,,24,201,5140126,,,,,,,2022-07-11,1,,,,,ティーディーオー,0
1302,4200001040277,新規,0,2022-07-11,2022-07-11,株式会社はるか,,株式会社,岐阜県,岐阜市,則武２５９６番地６９,,21,201,5020931,,,,,,,2022-07-11,1,,,,,ハルカ,0
1305,4200003005617,新規,0,2022-07-11,2022-07-11,合同会社ＭＣ,,合同会社,岐阜県,瑞穂市,田之上２９番地５,,21,216,5010304,,,,,,,2022-07-11,1,,,,,エムシー,0
1317,4260001037037,新規,0,2022-07-11,2022-07-11,株式会社エル・フレーズ,,株式会社,岡山県,岡山市東区,広谷３０９番地,,33,103,7048182,,,,,,,2022-07-11,1,,,,,エルフレーズ,0
1320,4260003003978,新規,0,2022-07-11,2022-07-11,合同会社オギノ建築企画,,合同会社,岡山県,岡山市北区,大供２丁目１番７号,,33,101,7000913,,,,,,,2022-07-11,1,,,,,オギノケンチクキカク,0
1321,4260005011112,新規,0,2022-07-11,2022-07-11,一般社団法人ＭａｋｅＨａｐｐｉｎｅｓｓ協会,,その他の設立登記法人,岡山県,岡山市北区,東花尻２６８番地９,,33,101,7010135,,,,,,,2022-07-11,1,,,,,メイクハピネスキョウカイ,0
1326,4290001098175,新規,0,2022-07-11,2022-07-11,野武士エンタープライズ株式会社,,株式会社,福岡県,嘉麻市,上山田４４０番地１５,,40,227,8210012,,,,,,,2022-07-11,1,,,,,ノブシエンタープライズ,0
1327,4290001098209,新規,0,2022-07-11,2022-07-11,株式会社エニー,,株式会社,福岡県,嘉麻市,上山田５２８番地６,,40,227,8210012,,,,,,,2022-07-11,1,,,,,エニー,0
1332,4300001012984,新規,0,2022-07-11,2022-07-11,ＮＥＸＴ株式会社,,株式会社,佐賀県,伊万里市,立花町１９０１番地２０,,41,205,8480027,,,,,,,2022-07-11,1,,,,,ネクスト,0
1333,4300001012992,新規,0,2022-07-11,2022-07-11,株式会社テイク・ゼロ,,株式会社,佐賀県,武雄市,武雄町大字昭和３８番地２,,41,206,8430023,,,,,,,2022-07-11,1,,,,,テイクゼロ,0
1342,4340001024893,新規,0,2022-07-11,2022-07-11,煌伸建床株式会社,,株式会社,鹿児島県,出水市,大野原町９９１番地９,,46,208,8990216,,,,,,,2022-07-11,1,,,,,コウシンケンショウ,0
1344,4340003003854,新規,0,2022-07-11,2022-07-11,千茶名グループ合同会社,,合同会社,鹿児島県,大島郡伊仙町,大字伊仙１３６７番地１,,46,532,8918201,,,,,,,2022-07-11,1,,,,,チチャナグループ,0
1352,4370001048774,新規,0,2022-07-11,2022-07-11,株式会社丸晃板金,,株式会社,宮城県,牡鹿郡女川町,鷲神浜字荒立２１番地の１２０,,04,581,9862243,,,,,,,2022-07-11,1,,,,,マルコウバンキン,0
1353,4370003005757,新規,0,2022-07-11,2022-07-11,合同会社ティンブレ,,合同会社,宮城県,仙台市太白区,長町５丁目２番６－７１０号,,04,104,9820011,,,,,,,2022-07-11,1,,,,,ティンブレ,0
1360,4410003003681,新規,0,2022-07-11,2022-07-11,合同会社ＶＩＳＴＡ,,合同会社,秋田県,秋田市,牛島西３丁目７番２９号,,05,201,0100063,,,,,,,2022-07-11,1,,,,,ヴィスタ,0
1362,4430001086990,新規,0,2022-07-11,2022-07-11,株式会社ラビッツグループ,,株式会社,北海道,札幌市中央区,南五条西１丁目１番地１８デュオベール札幌南五条１２０１号,,01,101,0640805,,,,,,,2022-07-11,1,,,,,ラビッツグループ,0
1363,4430001086999,新規,0,2022-07-11,2022-07-11,株式会社北海道琉通,,株式会社,北海道,江別市,工栄町１３番地５,,01,217,0670051,,,,,,,2022-07-11,1,,,,,ホッカイドウリュウツウ,0
1364,4430001087023,新規,0,2022-07-11,2022-07-11,エイーナ株式会社,,株式会社,北海道,札幌市中央区,南三条西１２丁目３２５番地９,,01,101,0600063,,,,,,,2022-07-11,1,,,,,エイーナ,0
1365,4430003014082,新規,0,2022-07-11,2022-07-11,合同会社ｃｏｌｏｒｆｕｌ,,合同会社,北海道,虻田郡喜茂別町,字金山１５３,,01,398,0440454,,,,,,,2022-07-11,1,,,,,カラフル,0
1366,4430003014108,新規,0,2022-07-11,2022-07-11,合同会社Ｔｒａｎｓｆｏｒｍａｔｉｏｎａｌ,,合同会社,北海道,札幌市豊平区,福住一条５丁目８番１２号エステート橘２０２号,,01,105,0620041,,,,,,,2022-07-11,1,,,,,トランスフォーメーショナル,0
1369,4470001019154,新規,0,2022-07-11,2022-07-11,池田設計室株式会社,,株式会社,香川県,高松市,木太町１８６８番地２ラ・トゥール林道１階中東,,37,201,7600080,,,,,,,2022-07-11,1,,,,,,0
1370,4500001024340,新規,0,2022-07-11,2022-07-11,株式会社山下不動産,,株式会社,愛媛県,松山市,南吉田町１１５４番地の１３,,38,201,7918042,,,,,,,2022-07-11,1,,,,,ヤマシタフドウサン,0
1378,4700150110251,新規,0,2022-07-11,2022-06-22,ＭＹＰエンターテインメント,,その他,埼玉県,さいたま市大宮区,高鼻町１丁目４５４ラ・パルヴォＩＩ１０１,00126716,11,103,3300803,,,,,,,2022-06-22,1,,,,,エムワイピーエンターテインメント,0
1379,4700150110433,新規,0,2022-07-11,2022-06-27,Ｅｓｔｕｄｉｏ　ＥＬ　ＣＡＹＯ　池本佳代,,その他,東京都,中野区,野方３丁目２９番５－７０１号室　アムス野方,,13,114,1650027,,,,,,,2022-06-27,1,,,,,エストウデイオエルカジヨイケモトカヨ,0
1380,4700150110854,新規,0,2022-07-11,2022-07-11,北京環球友鄰科技有限公司,,外国会社等,,,,,,,,Ｒｏｏｍ３０３，Ｔｏｗｅｒ　４，２２　ＴｅｎｇＲｅｎ　Ｒｏａｄ，ＳｈｕｎＹｉ　Ｄｉｓｔｒｉｃｔ，Ｂｅｉｊｉｎｇ，Ｐｅｏｐｌｅ’ｓ　Ｒｅｐｕｂｌｉｃ　ｏｆ　Ｃｈｉｎａ,,,,,,2022-07-11,1,,,,,ペキンカンキユウユウリンカギユウゲンコウシ,0
1392,5010001227818,新規,0,2022-07-11,2022-07-11,株式会社セレンディピティ,,株式会社,東京都,中央区,銀座６丁目１３番１６号銀座ＷＡＬＬビルＵＣＦ５階,,13,102,1040061,,,,,,,2022-07-11,1,,,,,セレンディピティ,0
1393,5010001228007,新規,0,2022-07-11,2022-07-11,株式会社ライフォ,,株式会社,東京都,千代田区,神田駿河台３丁目５番地１５,,13,101,1010062,,,,,,,2022-07-11,1,,,,,ライフォ,0
1394,5010001228023,新規,0,2022-07-11,2022-07-11,ＭＡ２ダイニング株式会社,,株式会社,東京都,中央区,八重洲２丁目２番１号,,13,102,1040028,,,,,,,2022-07-11,1,,,,,エムエイツーダイニング,0
1401,5010005035226,新規,0,2022-07-11,2022-07-11,特定目的会社ＬＣＪ印西,,その他の設立登記法人,東京都,中央区,日本橋１丁目４番１号日本橋一丁目ビルディング,,13,102,1030027,,,,,,,2022-07-11,1,,,,,エルシージェイインザイ,0
1413,5010401168389,新規,0,2022-07-11,2022-07-11,株式会社集中メディプロ,,株式会社,東京都,港区,赤坂３丁目５番５号ストロング赤坂ビル６Ｆ,,13,103,1070052,,,,,,,2022-07-11,1,,,,,シュウチュウメディプロ,0
1414,5010401168447,新規,0,2022-07-11,2022-07-11,株式会社Ｊａｐａｎｉｔｙ,,株式会社,東京都,港区,虎ノ門４丁目３－１城山トラストタワー２７階,,13,103,1050001,,,,,,,2022-07-11,1,,,,,ジャパニティ,0
1415,5010401168471,新規,0,2022-07-11,2022-07-11,株式会社トゥライクス,,株式会社,東京都,港区,新橋１丁目１８番１３号,,13,103,1050004,,,,,,,2022-07-11,1,,,,,トゥライクス,0
1416,5010403028046,新規,0,2022-07-11,2022-07-11,合同会社ＴＲＯＮＣＯ,,合同会社,東京都,港区,麻布十番１丁目４番８号麻布永坂ビル１階,,13,103,1060045,,,,,,,2022-07-11,1,,,,,トロンコ,0
1418,5010501049092,新規,0,2022-07-11,2022-07-11,ＭｉｌｌｉｏｎＢｕｃｋｓ株式会社,,株式会社,東京都,台東区,上野２丁目１３番１２号東洋ビル２Ｆ,,13,106,1100005,,,,,,,2022-07-11,1,,,,,ミリオンバックス,0
1419,5010501049101,新規,0,2022-07-11,2022-07-11,ＥＣＯ　ＦＡＩＴＨ株式会社,,株式会社,東京都,台東区,下谷２丁目２４番１１－１４０１号,,13,106,1100004,,,,,,,2022-07-11,1,,,,,エコフェイス,0
1422,5010601061468,新規,0,2022-07-11,2022-07-11,ＪＣ株式会社,,株式会社,東京都,墨田区,墨田４丁目６１－５Ｄ．Ｐ．ＨＯＵＳＥ１０１号室,,13,107,1310031,,,,,,,2022-07-11,1,,,,,ジェーシー,0
1425,5010703006296,新規,0,2022-07-11,2022-07-11,合同会社ｒｕｂａｔｏ,,合同会社,東京都,品川区,西五反田４丁目１４番７号４階,,13,109,1410031,,,,,,,2022-07-11,1,,,,,ルバート,0
1444,5011001148475,新規,0,2022-07-11,2022-07-11,株式会社ＰＲ　Ｔｅｃｈ,,株式会社,東京都,渋谷区,道玄坂２丁目３番２号大外ビル３階,,13,113,1500043,,,,,,,2022-07-11,1,,,,,ピーアールテック,0
1445,5011001148509,新規,0,2022-07-11,2022-07-11,ｆｅｗｓｉｏｎ株式会社,,株式会社,東京都,渋谷区,神宮前６丁目２３番４号桑野ビル２階,,13,113,1500001,,,,,,,2022-07-11,1,,,,,フュージョン,0
1446,5011001148533,新規,0,2022-07-11,2022-07-11,東京ＭＴＩ株式会社,,株式会社,東京都,渋谷区,代々木２丁目３０番４号,,13,113,1510053,,,,,,,2022-07-11,1,,,,,トウキョウエムティーアイ,0
1447,5011001148558,新規,0,2022-07-11,2022-07-11,Ｔｒｕｓｔｇｒａｍ株式会社,,株式会社,東京都,渋谷区,道玄坂１丁目１２－１渋谷マークシティＷ２２階,,13,113,1500043,,,,,,,2022-07-11,1,,,,,トラストグラム,0
1448,5011001148608,新規,0,2022-07-11,2022-07-11,株式会社８１９,,株式会社,東京都,渋谷区,笹塚１丁目６０番９－２０１号,,13,113,1510073,,,,,,,2022-07-11,1,,,,,ハチイチキュウ,0
1449,5011001148624,新規,0,2022-07-11,2022-07-11,株式会社ＭＡＫＥＰＬＵＳ,,株式会社,東京都,渋谷区,宇田川町３－７ヒューリック渋谷公園通りビル５Ｆ―４１,,13,113,1500042,,,,,,,2022-07-11,1,,,,,メイクプラス,0
1450,5011003015005,新規,0,2022-07-11,2022-07-11,合同会社ａｏｙａｍａ,,合同会社,東京都,渋谷区,渋谷４丁目２－２７,,13,113,1500002,,,,,,,2022-07-11,1,,,,,アオヤマ,0
1454,5011101099503,新規,0,2022-07-11,2022-07-11,株式会社２０２２,,株式会社,東京都,新宿区,歌舞伎町１丁目１２番９号,,13,104,1600021,,,,,,,2022-07-11,1,,,,,ニイゼロニイニイ,0
1455,5011103011969,新規,0,2022-07-11,2022-07-11,バンカーズ８号合同会社,,合同会社,東京都,新宿区,四谷２丁目９番地１５東京ユナイテッド綜合事務所内,,13,104,1600004,,,,,,,2022-07-11,1,,,,,バンカーズハチゴウ,0
1457,5011301027924,新規,0,2022-07-11,2022-07-11,株式会社ＦＡＳＴ　ＳＵＰＰＬＹ　ＣＨＡＩＮ　ＭＡＮＡＧＥＭＥＮＴＳ,,株式会社,東京都,杉並区,成田西２丁目１３番２７号,,13,115,1660016,,,,,,,2022-07-11,1,,,,,ファストサプライチェーンマネジメント,0
1458,5011401024400,新規,0,2022-07-11,2022-07-11,株式会社ＲＰエージェンシー,,株式会社,東京都,板橋区,成増２丁目１０番３－９０１号,,13,119,1750094,,,,,,,2022-07-11,1,,,,,アールピーエージェンシー,0
1461,5011403003716,新規,0,2022-07-11,2022-07-11,ケィティサポート合同会社,,合同会社,東京都,板橋区,赤塚新町３丁目３番１１号アルクファース３０２,,13,119,1750093,,,,,,,2022-07-11,1,,,,,ケィティサポート,0
1467,5011603003648,新規,0,2022-07-11,2022-07-11,合同会社フォースゲームスタジオ,,合同会社,東京都,練馬区,大泉学園町５丁目２５番１６号,,13,120,1780061,,,,,,,2022-07-11,1,,,,,フォースゲームスタジオ,0
1468,5011701025445,新規,0,2022-07-11,2022-07-11,株式会社ＥＬ・ＳＩＤＥ,,株式会社,東京都,江戸川区,南篠崎町４丁目１５番５号,,13,123,1330065,,,,,,,2022-07-11,1,,,,,エルサイド,0
1473,5012401039405,新規,0,2022-07-11,2022-07-11,株式会社ＢＯＣＣＨＩ　Ｍａｒｋｅｔｉｎｇ,,株式会社,東京都,稲城市,東長沼５５７番地の４・１Ｆ,,13,225,2060802,,,,,,,2022-07-11,1,,,,,ボッチマーケティング,0
1477,5013301049329,新規,0,2022-07-11,2022-07-11,嘉之會株式会社,,株式会社,東京都,豊島区,目白２丁目１６－１７－６０２,,13,116,1710031,,,,,,,2022-07-11,1,,,,,カノカイ,0
1478,5013303006220,新規,0,2022-07-11,2022-07-11,合同会社副,,合同会社,東京都,豊島区,南大塚１丁目６０番２０号天翔大塚駅前ビルＳ５０２号,,13,116,1700005,,,,,,,2022-07-11,1,,,,,フク,0
1485,5020001147247,新規,0,2022-07-11,2022-07-11,株式会社ＡＤ　ＡＳＴＲＡ,,株式会社,神奈川県,横浜市西区,楠町７番地１－２１０３号,,14,103,2200003,,,,,,,2022-07-11,1,,,,,アドアストラ,0
1486,5020001147263,新規,0,2022-07-11,2022-07-11,エクスフロント株式会社,,株式会社,神奈川県,川崎市中原区,小杉町３丁目１５０１番地２プラウドタワー武蔵小杉３９１１,,14,133,2110063,,,,,,,2022-07-11,1,,,,,エクスフロント,0
1487,5020001147288,新規,0,2022-07-11,2022-07-11,ハウスコム西神奈川株式会社,,株式会社,神奈川県,川崎市高津区,溝口１丁目８番１号,,14,134,2130001,,,,,,,2022-07-11,1,,,,,ハウスコムニシカナガワ,0
1488,5020001147296,新規,0,2022-07-11,2022-07-11,あじさい商事株式会社,,株式会社,神奈川県,横浜市戸塚区,汲沢６丁目１８－２１,,14,110,2450061,,,,,,,2022-07-11,1,,,,,アジサイショウジ,0
1489,5020001147313,新規,0,2022-07-11,2022-07-11,ＡＺＵ不動産株式会社,,株式会社,神奈川県,横浜市中区,常盤町１丁目２番地１関内電子ビル９階,,14,104,2310014,,,,,,,2022-07-11,1,,,,,アズフドウサン,0
1490,5020001147346,新規,0,2022-07-11,2022-07-11,株式会社ＧＲＡ,,株式会社,神奈川県,横浜市青葉区,あざみ野１丁目１７番地９７,,14,117,2250011,,,,,,,2022-07-11,1,,,,,グロー,0
1495,5020003022076,新規,0,2022-07-11,2022-07-11,合同会社すくやか,,合同会社,神奈川県,川崎市宮前区,馬絹６丁目２０番１１号,,14,136,2160035,,,,,,,2022-07-11,1,,,,,スクヤカ,0
1497,5021001076493,新規,0,2022-07-11,2022-07-11,ＮＦ半導体株式会社,,株式会社,神奈川県,藤沢市,大鋸２丁目４番２１号,,14,205,2510002,,,,,,,2022-07-11,1,,,,,エヌエフハンドウタイ,0
1510,5030001149085,新規,0,2022-07-11,2022-07-11,株式会社モノダ,,株式会社,埼玉県,戸田市,美女木北３丁目２番地の１－１０５号,,11,224,3350038,,,,,,,2022-07-11,1,,,,,モノダ,0
1511,5030001149110,新規,0,2022-07-11,2022-07-11,株式会社ＳＭＰコンサルティング,,株式会社,埼玉県,戸田市,上戸田４丁目１番１－８０１号,,11,224,3350022,,,,,,,2022-07-11,1,,,,,エスエムピーコンサルティング,0
1513,5030003019757,新規,0,2022-07-11,2022-07-11,合名会社デルタ,,合名会社,埼玉県,戸田市,本町３丁目１０番５号,,11,224,3350023,,,,,,,2022-07-11,1,,,,,デルタ,0
1523,5040001124161,新規,0,2022-07-11,2022-07-11,株式会社ヒルトップバーディクラブ,,株式会社,千葉県,佐倉市,木野子３６２番地,,12,212,2850801,,,,,,,2022-07-11,1,,,,,ヒルトップバーディクラブ,0
1524,5040001124178,新規,0,2022-07-11,2022-07-11,オフィス秀ノ山株式会社,,株式会社,千葉県,松戸市,串崎南町１３１番地の２,,12,207,2702215,,,,,,,2022-07-11,1,,,,,オフィスヒデノヤマ,0
1525,5040001124186,新規,0,2022-07-11,2022-07-11,株式会社ＪＣＬ　ＨＯＬＤＩＮＧＳ,,株式会社,千葉県,香取市,鳥羽６０９番地１６,,12,236,2870038,,,,,,,2022-07-11,1,,,,,ジェイシーエルホールディングス,0
1526,5040001124260,新規,0,2022-07-11,2022-07-11,リンク株式会社,,株式会社,千葉県,千葉市中央区,宮崎２丁目１番２７－５０３号,,12,101,2600806,,,,,,,2022-07-11,1,,,,,リンク,0
1529,5050001051396,新規,0,2022-07-11,2022-07-11,ＫＲＥＳＴ　ＪＡＰＡＮ株式会社,,株式会社,茨城県,守谷市,板戸井１０５２番地３,,08,224,3020101,,,,,,,2022-07-11,1,,,,,クレストジャパン,0
1534,5050003006679,新規,0,2022-07-11,2022-07-11,合同会社ＲＩＳ,,合同会社,茨城県,小美玉市,野田１３０番地６,,08,236,3113411,,,,,,,2022-07-11,1,,,,,アールアイエス,0
1541,5070001039423,新規,0,2022-07-11,2022-07-11,ブルービッツ株式会社,,株式会社,群馬県,太田市,上田島町５４８番地１（２Ｆ－Ｃ）,,10,205,3730044,,,,,,,2022-07-11,1,,,,,ブルービッツ,0
1543,5080003002832,新規,0,2022-07-11,2022-07-11,合同会社ＭＯＮＩ,,合同会社,静岡県,焼津市,塩津１９６番地の１,,22,212,4250085,,,,,,,2022-07-11,1,,,,,モニ,0
1546,5080101023417,新規,0,2022-07-11,2022-07-11,株式会社ＤＸ技研,,株式会社,静岡県,田方郡函南町,畑５２９番地の３９１,,22,325,4190104,,,,,,,2022-07-11,1,,,,,ディックスギケン,0
1555,5100003006616,新規,0,2022-07-11,2022-07-11,合同会社ＢＡＥＤ,,合同会社,長野県,松本市,波田５４７５－１０,,20,202,3901401,,,,,,,2022-07-11,1,,,,,ベイド,0
1567,5120001247202,新規,0,2022-07-11,2022-07-11,株式会社ショウナカ,,株式会社,大阪府,大阪市平野区,加美北５丁目１４番１９号,,27,126,5470001,,,,,,,2022-07-11,1,,,,,ショウナカ,0
1568,5120001247227,新規,0,2022-07-11,2022-07-11,株式会社Ｍｉｋｏｔｏ,,株式会社,大阪府,大阪市中央区,内淡路町２丁目４番１１号スクエアコート内淡路４０１号,,27,128,5400038,,,,,,,2022-07-11,1,,,,,ミコト,0
1569,5120001247251,新規,0,2022-07-11,2022-07-11,福商株式会社,,株式会社,大阪府,大阪市旭区,中宮２丁目１６番１５号,,27,117,5350003,,,,,,,2022-07-11,1,,,,,フクショウ,0
1571,5120005023046,新規,0,2022-07-11,2022-07-11,医療法人おおかわ眼科クリニック,,その他の設立登記法人,大阪府,大阪市西淀川区,歌島２丁目３番２号,,27,113,5550021,,,,,,,2022-07-11,1,,,,,,0
1573,5120101065917,新規,0,2022-07-11,2022-07-11,株式会社敬真,,株式会社,大阪府,堺市堺区,北田出井町２丁２番２７－１０７号,,27,141,5900017,,,,,,,2022-07-11,1,,,,,ケイシン,0
1578,5120901046224,新規,0,2022-07-11,2022-07-11,株式会社ＮＥＷＥＮ,,株式会社,大阪府,豊中市,豊南町南５丁目４番１４－３０５号,,27,203,5610815,,,,,,,2022-07-11,1,,,,,ニュウエン,0
1579,5120901046232,新規,0,2022-07-11,2022-07-11,株式会社大仁田,,株式会社,大阪府,豊中市,山ノ上町１７番１号エステルハイツ２０２,,27,203,5610892,,,,,,,2022-07-11,1,,,,,オオニタ,0
1581,5120903004221,新規,0,2022-07-11,2022-07-11,合同会社ＭｅｄｉＣｏ,,合同会社,大阪府,吹田市,江坂町１丁目１２－２０,,27,205,5640063,,,,,,,2022-07-11,1,,,,,メディコ,0
1590,5130001072120,新規,0,2022-07-11,2022-07-11,株式会社メタハウス,,株式会社,京都府,京都市中京区,三条通新町西入釜座町２２番地ストークビル三条烏丸,,26,104,6048241,,,,,,,2022-07-11,1,,,,,メタハウス,0
1600,5140001126619,新規,0,2022-07-11,2022-07-11,株式会社勇和電気,,株式会社,兵庫県,神戸市東灘区,魚崎南町２丁目２０番８号,,28,101,6580025,,,,,,,2022-07-11,1,,,,,ユウワデンキ,0
1601,5140001126627,新規,0,2022-07-11,2022-07-11,株式会社インテリアかんだ,,株式会社,兵庫県,豊岡市,気比３５２４番地,,28,209,6696124,,,,,,,2022-07-11,1,,,,,インテリアカンダ,0
1602,5140001126635,新規,0,2022-07-11,2022-07-11,デュオコンサルティング株式会社,,株式会社,兵庫県,西宮市,門戸岡田町７番４号,,28,204,6620826,,,,,,,2022-07-11,1,,,,,デュオコンサルティング,0
1607,5140003017873,新規,0,2022-07-11,2022-07-11,合同会社悠々システム,,合同会社,兵庫県,宝塚市,安倉中５丁目１９番３４号,,28,214,6650822,,,,,,,2022-07-11,1,,,,,ユウユウシステム,0
1609,5140005026237,新規,0,2022-07-11,2022-07-11,ＯＧＵＳＨＩ社会保険労務士法人,,その他の設立登記法人,兵庫県,西宮市,池田町３番３号,,28,204,6620911,,,,,,,2022-07-11,1,,,,,オグシ,0
1612,5160001024325,新規,0,2022-07-11,2022-07-11,株式会社ひのでファーム,,株式会社,滋賀県,蒲生郡日野町,大字十禅師１０７６番地,,25,383,5291645,,,,,,,2022-07-11,1,,,,,ヒノデファーム,0
1617,5180001152157,新規,0,2022-07-11,2022-07-11,スターアラウンドパートナーズ株式会社,,株式会社,愛知県,一宮市,西大海道字柏木１０３番地１,,23,203,4910005,,,,,,,2022-07-11,1,,,,,スターアラウンドパートナーズ,0
1623,5180005019848,新規,0,2022-07-11,2022-07-11,一般社団法人ものづくりパートナーズ,,その他の設立登記法人,愛知県,名古屋市中区,橘１丁目５番１号,,23,106,4600016,,,,,,,2022-07-11,1,,,,,モノヅクリパートナーズ,0
1630,5190005011721,新規,0,2022-07-11,2022-07-11,特定非営利活動法人ピアコード,,その他の設立登記法人,三重県,多気郡明和町,大字明星２１４１番地３,,24,442,5150313,,,,,,,2022-07-11,1,,,,,ピアコード,0
1632,5200001040268,新規,0,2022-07-11,2022-07-11,株式会社ＵＦＢ　Ｇｌｏｂａｌ　Ｓｔａｎｄａｒｄｓ,,株式会社,岐阜県,可児市,広見８１７番地,,21,214,5090214,,,,,,,2022-07-11,1,,,,,ユーエフビーグローバルスタンダーズ,0
1633,5200003005616,新規,0,2022-07-11,2022-07-11,令和創業合同会社,,合同会社,岐阜県,不破郡垂井町,綾戸５２９番地,,21,361,5032112,,,,,,,2022-07-11,1,,,,,レイワソウギョウ,0
1639,5240001060072,新規,0,2022-07-11,2022-07-11,株式会社ＪＡＤＥ＆ｎｉｎａ,,株式会社,広島県,福山市,水呑町４３２８番地水呑三新田５５－１－２,,34,207,7200832,,,,,,,2022-07-11,1,,,,,ジェイドアンドニーナ,0
1644,5250005008760,新規,0,2022-07-11,2022-07-11,アウトドアスポーツやまぐち協同組合,,その他の設立登記法人,山口県,周南市,本町２丁目１４番地,,35,215,7450036,,,,,,,2022-07-11,1,,,,,アウトドアスポーツヤマグチ,0
1649,5260001037036,新規,0,2022-07-11,2022-07-11,株式会社パレスフィールド,,株式会社,岡山県,倉敷市,亀島２丁目７番２２号,,33,202,7128013,,,,,,,2022-07-11,1,,,,,パレスフィールド,0
1650,5260001037044,新規,0,2022-07-11,2022-07-11,ワイズバーンロード株式会社,,株式会社,岡山県,岡山市南区,植松５７４番地７,,33,104,7100151,,,,,,,2022-07-11,1,,,,,ワイズバーンロード,0
1653,5290001098216,新規,0,2022-07-11,2022-07-11,株式会社ｂｅａｄｓ,,株式会社,福岡県,福岡市南区,曰佐５丁目３－８パルク３０２,,40,134,8111313,,,,,,,2022-07-11,1,,,,,ビーズ,0
1658,5290005018748,新規,0,2022-07-11,2022-07-11,一般社団法人障がい者雇用支援機構てとて,,その他の設立登記法人,福岡県,那珂川市,松木３丁目１６番地,,40,231,8111251,,,,,,,2022-07-11,1,,,,,ショウガイシャコヨウシエンキコウテトテ,0
1661,5300001012983,新規,0,2022-07-11,2022-07-11,株式会社むすひ,,株式会社,佐賀県,多久市,北多久町メイプルタウン１番７号,,41,204,8460007,,,,,,,2022-07-11,1,,,,,ムスヒ,0
1670,5350001017854,新規,0,2022-07-11,2022-07-11,株式会社ストアライト,,株式会社,宮崎県,延岡市,伊形町５１７７番地１６,,45,203,8890503,,,,,,,2022-07-11,1,,,,,ストアライト,0
1673,5360003012175,新規,0,2022-07-11,2022-07-11,ＬＩＢ合同会社,,合同会社,沖縄県,宮古島市,平良字久貝７７８－５,,47,214,9060015,,,,,,,2022-07-11,1,,,,,リブ,0
1674,5370001048773,新規,0,2022-07-11,2022-07-11,テックデザイン株式会社,,株式会社,宮城県,仙台市青葉区,落合１丁目７番１５号,,04,101,9893126,,,,,,,2022-07-11,1,,,,,テックデザイン,0
1681,5390001016968,新規,0,2022-07-11,2022-07-11,Ｋ．Ａ．ｃｏｎｓｕｌｔｉｎｇ株式会社,,株式会社,山形県,東置賜郡高畠町,大字夏茂８１４番地スマイル夏刈Ｂ,,06,381,9992172,,,,,,,2022-07-11,1,,,,,ケーエーコンサルティング,0
1693,5430001086981,新規,0,2022-07-11,2022-07-11,株式会社Ｔｒａｄｍａｎ,,株式会社,北海道,岩見沢市,北三条西１３丁目２番２号,,01,210,0680043,,,,,,,2022-07-11,1,,,,,トラッドマン,0
1694,5430001086998,新規,0,2022-07-11,2022-07-11,株式会社Ｍａｒｚｅｎａｙ,,株式会社,北海道,札幌市豊平区,平岸四条１１丁目１０－１２ガーデンテラス平岸１０１,,01,105,0620934,,,,,,,2022-07-11,1,,,,,マーゼナイ,0
1695,5430001087014,新規,0,2022-07-11,2022-07-11,株式会社アイ・エス物流,,株式会社,北海道,札幌市北区,新琴似十一条１３丁目３番１３号,,01,102,0010911,,,,,,,2022-07-11,1,,,,,アイエスブツリュウ,0
1696,5430001087088,新規,0,2022-07-11,2022-07-11,株式会社ＡＢＥ　ＦＡＲＭ,,株式会社,北海道,余市郡赤井川村,字都１０２番地１３,,01,409,0460541,,,,,,,2022-07-11,1,,,,,アベファーム,0
1697,5430003014098,新規,0,2022-07-11,2022-07-11,合同会社ギミックファクトリー,,合同会社,北海道,江別市,若草町３－７４,,01,217,0670004,,,,,,,2022-07-11,1,,,,,ギミックファクトリー,0
1707,5500001024331,新規,0,2022-07-11,2022-07-11,一友住設株式会社,,株式会社,愛媛県,新居浜市,中村松木２丁目４番２０号,,38,205,7920041,,,,,,,2022-07-11,1,,,,,イチユウジュウセツ,0
1708,5700150110853,新規,0,2022-07-11,2022-07-11,香港環球友鄰服務有限公司,,外国会社等,,,,,,,,Ｒｏｏｍ　Ｄ３　Ｂｌｏｃｋ　Ｄ，　８／Ｆ，　Ｈｏｐ　Ｈｉｎｇ　Ｉｎｄｕｓｔｒｉａｌ　Ｂｕｉｌｄｉｎｇ，　７０４　Ｃａｓｔｌｅ　Ｐｅａｋ　Ｒｏａｄ，　Ｋｏｗｌｏｏｎ，　Ｈｏｎｇ　Ｋｏｎｇ,,,,,,2022-07-11,1,,,,,ホンコンカンキユウユウリンフクムユウゲンコウシ,0
1709,5700150110886,新規,0,2022-07-11,2022-07-11,Ｔ．Ａ．Ｚ．Ｔｒａｄｉｎｇ　ＰＶＴ　ＬＴＤ,,外国会社等,千葉県,千葉市緑区,大木戸町２９３番地３,,12,105,2670057,スリランカ民主社会主義共和国、キャンディ、アクラナ、ドゥヌビラロード、９５,,,,,,2022-07-11,1,,,,,テイエイズイトレーデイングピーヴイテイエルテイデイ,0
1723,6010001227767,新規,0,2022-07-11,2022-07-11,株式会社アクセスホールディングス,,株式会社,東京都,千代田区,大手町２丁目１番１号大手町野村ビル１６Ｆ,,13,101,1000004,,,,,,,2022-07-11,1,,,,,アクセスホールディングス,0
1724,6010001227800,新規,0,2022-07-11,2022-07-11,セントケアＤＸ株式会社,,株式会社,東京都,中央区,京橋２丁目８番７号,,13,102,1040031,,,,,,,2022-07-11,1,,,,,セントケアディーエックス,0
1725,6010001227817,新規,0,2022-07-11,2022-07-11,株式会社ｉｔｏｎｅｒｉ,,株式会社,東京都,中央区,日本橋浜町１丁目７番６号,,13,102,1030007,,,,,,,2022-07-11,1,,,,,イトネリ,0
1726,6010001228030,新規,0,2022-07-11,2022-07-11,株式会社ＶＣＯ　ＪＡＰＡＮ,,株式会社,東京都,文京区,根津２丁目３４番３号うぇすてる藍ぞめＣ棟Ｃ－２,,13,105,1130031,,,,,,,2022-07-11,1,,,,,ブイシーオージャパン,0
1727,6010001228039,新規,0,2022-07-11,2022-07-11,株式会社ディッシュウィル,,株式会社,東京都,中央区,日本橋富沢町四丁目１０番,,13,102,1030006,,,,,,,2022-07-11,1,,,,,ディッシュウィル,0
1732,6010003038097,新規,0,2022-07-11,2022-07-11,Ｂｌｕｅｓｑｕａｒｅ　Ｊａｐａｎ合同会社,,合同会社,東京都,中央区,日本橋室町１丁目２番６号日本橋大栄ビル７階,,13,102,1030022,,,,,,,2022-07-11,1,,,,,ブルースクエアジャパン,0
1733,6010101015246,新規,0,2022-07-11,2022-07-11,キングジム東京株式会社,,株式会社,東京都,八王子市,久保山町２丁目４０番地８,,13,201,1920023,,,,,,,2022-07-11,1,,,,,キングジムトウキョウ,0
1742,6010401168470,新規,0,2022-07-11,2022-07-11,株式会社ケミストリー,,株式会社,東京都,港区,三田２丁目１４番５号フロイントゥ三田４階,,13,103,1080073,,,,,,,2022-07-11,1,,,,,ケミストリー,0
1744,6010403028061,新規,0,2022-07-11,2022-07-11,合同会社ＬＥＡＰＳ,,合同会社,東京都,港区,南青山２丁目２番１５号,,13,103,1070062,,,,,,,2022-07-11,1,,,,,リープス,0
1748,6010501049091,新規,0,2022-07-11,2022-07-11,ＲＥＩＺ株式会社,,株式会社,東京都,台東区,下谷３丁目１６番１３号サンライズ入谷１０１号室,,13,106,1100004,,,,,,,2022-07-11,1,,,,,レイズ,0
1750,6010601061450,新規,0,2022-07-11,2022-07-11,東力株式会社,,株式会社,東京都,江東区,潮見２丁目８番１４－７２７号,,13,108,1350052,,,,,,,2022-07-11,1,,,,,トウリキ,0
1758,6010701042895,新規,0,2022-07-11,2022-07-11,株式会社ピーノ,,株式会社,東京都,品川区,東五反田３丁目１６番６号イング島津山１０３,,13,109,1410022,,,,,,,2022-07-11,1,,,,,ピーノ,0
1759,6010701042920,新規,0,2022-07-11,2022-07-11,曖昧性理論研究所株式会社,,株式会社,東京都,品川区,西五反田３丁目１１番６号,,13,109,1410031,,,,,,,2022-07-11,1,,,,,アイマイセイリロンケンキュウジョ,0
1762,6010903007523,新規,0,2022-07-11,2022-07-11,合同会社ｍｏｉ,,合同会社,東京都,世田谷区,代田２丁目２６番１４－３０６号,,13,112,1550033,,,,,,,2022-07-11,1,,,,,モイ,0
1770,6011001148557,新規,0,2022-07-11,2022-07-11,株式会社ＢＩＧ‐Ｔ,,株式会社,東京都,渋谷区,代々木２丁目４４番２－１０１号,,13,113,1510053,,,,,,,2022-07-11,1,,,,,ビッグティー,0
1771,6011001148648,新規,0,2022-07-11,2022-07-11,株式会社ＨＡＰＰＹ　ＳＵＮ,,株式会社,東京都,渋谷区,道玄坂１丁目１０番８号渋谷道玄坂東急ビル２Ｆ－Ｃ,,13,113,1500043,,,,,,,2022-07-11,1,,,,,ハッピーサン,0
1773,6011003014996,新規,0,2022-07-11,2022-07-11,Ａｒｔｉｆｉｅｌｄ合同会社,,合同会社,東京都,渋谷区,道玄坂１丁目１０番８号渋谷道玄坂東急ビル２Ｆ－Ｃ,,13,113,1500043,,,,,,,2022-07-11,1,,,,,アーティフィールド,0
1777,6011101099411,新規,0,2022-07-11,2022-07-11,株式会社Ｌａｖｉｃａｒｅ,,株式会社,東京都,新宿区,新宿１丁目３６番２号新宿第七葉山ビル３階,,13,104,1600022,,,,,,,2022-07-11,1,,,,,ラヴィケア,0
1778,6011101099493,新規,0,2022-07-11,2022-07-11,株式会社トライザ,,株式会社,東京都,新宿区,余丁町８番１２号パラスト新宿余丁町３０２,,13,104,1620055,,,,,,,2022-07-11,1,,,,,トライザ,0
1780,6011103011968,新規,0,2022-07-11,2022-07-11,バンカーズ７号合同会社,,合同会社,東京都,新宿区,四谷２丁目９番地１５東京ユナイテッド綜合事務所内,,13,104,1600004,,,,,,,2022-07-11,1,,,,,バンカーズナナゴウ,0
1785,6011301027923,新規,0,2022-07-11,2022-07-11,安曇株式会社,,株式会社,東京都,杉並区,宮前２丁目２２番１５号,,13,115,1680081,,,,,,,2022-07-11,1,,,,,アズミ,0
1790,6011501028242,新規,0,2022-07-11,2022-07-11,レジェンド株式会社,,株式会社,東京都,北区,豊島３丁目１７番１６－９０５号,,13,117,1140003,,,,,,,2022-07-11,1,,,,,レジェンド,0
1791,6011501028250,新規,0,2022-07-11,2022-07-11,株式会社ｃｈａｔｅｒｒａｎｔ,,株式会社,東京都,荒川区,東日暮里４丁目３４番１０－４０２号,,13,118,1160014,,,,,,,2022-07-11,1,,,,,シャエラン,0
1793,6011603003639,新規,0,2022-07-11,2022-07-11,合同会社フロンティア,,合同会社,東京都,練馬区,北町２丁目３６番５号ベルテ東武練馬４０１,,13,120,1790081,,,,,,,2022-07-11,1,,,,,フロンティア,0
1794,6011603003647,新規,0,2022-07-11,2022-07-11,合同会社ＦＬＯＷ　ＣＨＡＮＧＥＳ,,合同会社,東京都,練馬区,三原台１丁目２５番４号,,13,120,1770031,,,,,,,2022-07-11,1,,,,,フローチェンジ,0
1799,6011801040970,新規,0,2022-07-11,2022-07-11,株式会社ｃｏｌｏｒ‐ｏｆ‐ｄｒｅａｍ．,,株式会社,東京都,足立区,関原３丁目３９番１３号,,13,121,1230852,,,,,,,2022-07-11,1,,,,,カラーオブドリーム,0
1806,6012403005478,新規,0,2022-07-11,2022-07-11,合同会社経営支援工房,,合同会社,東京都,武蔵野市,吉祥寺南町５丁目８番４号,,13,203,1800003,,,,,,,2022-07-11,1,,,,,ケイエイシエンコウボウ,0
1808,6012803002835,新規,0,2022-07-11,2022-07-11,合同会社ＧＳ,,合同会社,東京都,立川市,錦町２丁目１番３０号３階,,13,202,1900022,,,,,,,2022-07-11,1,,,,,ジーエス,0
1826,6020001147205,新規,0,2022-07-11,2022-07-11,株式会社リッテル,,株式会社,神奈川県,横浜市泉区,緑園５丁目８番地２４,,14,116,2450002,,,,,,,2022-07-11,1,,,,,リッテル,0
1827,6020001147254,新規,0,2022-07-11,2022-07-11,株式会社Ｔｒｕｓｔ,,株式会社,神奈川県,川崎市高津区,二子１丁目１７番１－８１４号,,14,134,2130002,,,,,,,2022-07-11,1,,,,,トラスト,0
1828,6020001147270,新規,0,2022-07-11,2022-07-11,株式会社ＡＶＥＮＩＲ,,株式会社,神奈川県,横浜市港北区,鳥山町２５４番地５４,,14,109,2220035,,,,,,,2022-07-11,1,,,,,アヴニール,0
1829,6020001147287,新規,0,2022-07-11,2022-07-11,ハウスコム東神奈川株式会社,,株式会社,神奈川県,横浜市港北区,菊名４丁目１番６号,,14,109,2220011,,,,,,,2022-07-11,1,,,,,ハウスコムヒガシカナガワ,0
1830,6020001147312,新規,0,2022-07-11,2022-07-11,株式会社トヨコー,,株式会社,神奈川県,横浜市西区,元久保町６番１４号,,14,103,2200063,,,,,,,2022-07-11,1,,,,,トヨコー,0
1834,6020003022050,新規,0,2022-07-11,2022-07-11,合同会社オハナイチ,,合同会社,神奈川県,横浜市緑区,上山１丁目１２番２３－２０５号,,14,113,2260012,,,,,,,2022-07-11,1,,,,,オハナイチ,0
1835,6020003022091,新規,0,2022-07-11,2022-07-11,合同会社ウルレア,,合同会社,神奈川県,川崎市川崎区,旭町２丁目１番１－４０３号,,14,131,2100808,,,,,,,2022-07-11,1,,,,,ウルレア,0
1837,6021001076468,新規,0,2022-07-11,2022-07-11,株式会社ＳＥＬＥＣＴ,,株式会社,神奈川県,藤沢市,葛原２２４５－１,,14,205,2520822,,,,,,,2022-07-11,1,,,,,セレクト,0
1845,6030001149200,新規,0,2022-07-11,2022-07-11,株式会社関東マシンメディカル,,株式会社,埼玉県,戸田市,下戸田１丁目１７番１１号,,11,224,3350011,,,,,,,2022-07-11,1,,,,,カントウマシンメディカル,0
1848,6030003019772,新規,0,2022-07-11,2022-07-11,ＵＮＵＲ　ＭＯＮＧＯＬ合同会社,,合同会社,埼玉県,飯能市,本町１番１１号ＫＩＶオフィス飯能Ｃ号室,,11,209,3570032,,,,,,,2022-07-11,1,,,,,ウヌルモンゴル,0
1849,6030003019780,新規,0,2022-07-11,2022-07-11,合同会社みーふぁいゆ,,合同会社,埼玉県,川口市,大字差間１２６番地の１,,11,203,3330816,,,,,,,2022-07-11,1,,,,,ミーファイユ,0
1857,6040001124152,新規,0,2022-07-11,2022-07-11,株式会社特装技建,,株式会社,千葉県,松戸市,小金２３９番地の１６,,12,207,2700014,,,,,,,2022-07-11,1,,,,,トクソウギケン,0
1858,6040001124202,新規,0,2022-07-11,2022-07-11,株式会社たいむ,,株式会社,千葉県,市川市,稲荷木２丁目１２番１３号,,12,203,2720024,,,,,,,2022-07-11,1,,,,,タイム,0
1859,6040001124227,新規,0,2022-07-11,2022-07-11,株式会社日本福祉連盟,,株式会社,千葉県,流山市,おおたかの森西１丁目２番地の３アゼリアテラス９０２,,12,220,2700128,,,,,,,2022-07-11,1,,,,,ニホンフクシレンメイ,0
1860,6040001124268,新規,0,2022-07-11,2022-07-11,株式会社ｄｅｓａｆｉｏ,,株式会社,千葉県,市原市,ちはら台南２丁目２３番地２０,,12,219,2900142,,,,,,,2022-07-11,1,,,,,デサフィオ,0
1865,6050001051379,新規,0,2022-07-11,2022-07-11,ライオン薬局株式会社,,株式会社,茨城県,土浦市,下高津１丁目４番１７－９０８号,,08,203,3000812,,,,,,,2022-07-11,1,,,,,ライオンヤッキョク,0
1868,6050003006661,新規,0,2022-07-11,2022-07-11,いち合同会社,,合同会社,茨城県,鹿嶋市,大字長栖１８７９－１５９ヒルズ長栖１０８,,08,222,3140022,,,,,,,2022-07-11,1,,,,,イチ,0
1873,6060001035067,新規,0,2022-07-11,2022-07-11,株式会社ＳＨＵ,,株式会社,栃木県,宇都宮市,宮みらい２番２６号センチュリー宇都宮壱番館１２０６号室,,09,201,3210969,,,,,,,2022-07-11,1,,,,,シュウ,0
1874,6060001035083,新規,0,2022-07-11,2022-07-11,株式会社Ｓ‐ＢＬｏｏｄ　ｃｏｍｐａｎｙ,,株式会社,栃木県,宇都宮市,東宿郷３丁目３番５号Ｓ－ｄｅｓｉｇｎビル,,09,201,3210953,,,,,,,2022-07-11,1,,,,,エスブラッドカンパニー,0
1877,6070001039430,新規,0,2022-07-11,2022-07-11,株式会社玄武門,,株式会社,群馬県,伊勢崎市,八坂町５５９番地３,,10,204,3720044,,,,,,,2022-07-11,1,,,,,ゲンブモン,0
1879,6080001025074,新規,0,2022-07-11,2022-07-11,不動産．ｃｏｍ株式会社,,株式会社,静岡県,藤枝市,青木３丁目１２番１号,,22,214,4260037,,,,,,,2022-07-11,1,,,,,フドウサンドットコム,0
1899,6120001247044,新規,0,2022-07-11,2022-07-11,株式会社Ｒｉｒｅｃｉｔ,,株式会社,大阪府,大阪市西区,南堀江１丁目７番３号ＯＬＤＢＥＴＴＹ’ＳＢｌｄｇ．２Ｆ,,27,106,5500015,,,,,,,2022-07-11,1,,,,,リレイシー,0
1900,6120001247119,新規,0,2022-07-11,2022-07-11,ＡＴパートナーズ株式会社,,株式会社,大阪府,大阪市北区,梅田１丁目１番３号大阪駅前第３ビル２９階１－１－１号室,,27,127,5300001,,,,,,,2022-07-11,1,,,,,エーティーパートナーズ,0
1901,6120001247250,新規,0,2022-07-11,2022-07-11,株式会社ＫＩＹＡＣ,,株式会社,大阪府,大阪市中央区,久太郎町４丁目１－３大阪センタービル６Ｆ－１７７,,27,128,5410056,,,,,,,2022-07-11,1,,,,,キヤク,0
1902,6120001247267,新規,0,2022-07-11,2022-07-11,株式会社ＧＫＹプラス,,株式会社,大阪府,大阪市天王寺区,空堀町３番３号－８０３,,27,109,5430012,,,,,,,2022-07-11,1,,,,,ジーケーワイプラス,0
1907,6120005023045,新規,0,2022-07-11,2022-07-11,一般社団法人国際統合医療学会,,その他の設立登記法人,大阪府,大阪市中央区,南本町３丁目１番３号カネセ第３ビル６階,,27,128,5410054,,,,,,,2022-07-11,1,,,,,コクサイトウゴウイリョウガッカイ,0
1908,6120005023053,新規,0,2022-07-11,2022-07-11,一般社団法人Ｄ‐ＳＩＰ　ｊａｐａｎ,,その他の設立登記法人,大阪府,大阪市西区,北堀江３丁目７番３０号,,27,106,5500014,,,,,,,2022-07-11,1,,,,,ディーシップジャパン,0
1909,6120005023061,新規,0,2022-07-11,2022-07-11,医療法人徳秀会,,その他の設立登記法人,大阪府,大阪市天王寺区,玉造元町３番９号八光ビル６階,,27,109,5430014,,,,,,,2022-07-11,1,,,,,トクシュウカイ,0
1912,6120101065899,新規,0,2022-07-11,2022-07-11,株式会社ＮＲ,,株式会社,大阪府,和泉市,箕形町１丁目７番４１号,,27,219,5940042,,,,,,,2022-07-11,1,,,,,エヌアール,0
1913,6120101065908,新規,0,2022-07-11,2022-07-11,株式会社中村建工,,株式会社,大阪府,岸和田市,額原町４８１番地の１０,,27,202,5960822,,,,,,,2022-07-11,1,,,,,ナカムラケンコウ,0
1915,6120901046231,新規,0,2022-07-11,2022-07-11,株式会社中之島工務店,,株式会社,大阪府,茨木市,玉櫛１丁目４－３サニービル１０３,,27,211,5670895,,,,,,,2022-07-11,1,,,,,ナカノシマコウムテン,0
1927,6140001126642,新規,0,2022-07-11,2022-07-11,株式会社芦屋オリエス,00127171,株式会社,兵庫県,芦屋市,大原町１２番２７－２０７号,,28,206,6590092,,,,,,,2022-07-11,1,,,,,アシヤオリエス,0
1928,6140001126683,新規,0,2022-07-11,2022-07-11,株式会社ＯＷＬ,,株式会社,兵庫県,西脇市,西脇７７１番地の７９,,28,213,6770015,,,,,,,2022-07-11,1,,,,,アウル,0
1929,6140001126691,新規,0,2022-07-11,2022-07-11,福里食品株式会社,,株式会社,兵庫県,明石市,二見町福里６５０番地,,28,203,6740091,,,,,,,2022-07-11,1,,,,,フクサトショクヒン,0
1930,6140001126700,新規,0,2022-07-11,2022-07-11,株式会社Ｙ’ｓ　ｓｔｙｌｅ,,株式会社,兵庫県,神戸市西区,櫨谷町長谷３８８番地,,28,111,6512235,,,,,,,2022-07-11,1,,,,,ワイズスタイル,0
1932,6140003017880,新規,0,2022-07-11,2022-07-11,ユーサービス合同会社,,合同会社,兵庫県,神戸市北区,鈴蘭台南町３丁目６番１４号,,28,109,6511113,,,,,,,2022-07-11,1,,,,,ユーサービス,0
1935,6140005026236,新規,0,2022-07-11,2022-07-11,一般社団法人ＵＤ総合研究ネットワーク,,その他の設立登記法人,兵庫県,神戸市東灘区,御影中町３丁目２番４－４４０１号,,28,101,6580054,,,,,,,2022-07-11,1,,,,,ユーディーソウゴウケンキュウネットワーク,0
1951,6180001152081,新規,0,2022-07-11,2022-07-11,株式会社ＴＥＮＥＲＡＭＥＮＴＥ,,株式会社,愛知県,名古屋市西区,牛島町６－１名古屋ルーセントタワー４０階,,23,104,4510046,,,,,,,2022-07-11,1,,,,,テネラメンテ,0
1952,6180001152115,新規,0,2022-07-11,2022-07-11,ケイ・トラスト株式会社,,株式会社,愛知県,日進市,藤塚６丁目２９番地,,23,230,4700117,,,,,,,2022-07-11,1,,,,,ケイトラスト,0
1953,6180001152148,新規,0,2022-07-11,2022-07-11,株式会社ｓｈｉｎｅ,,株式会社,愛知県,名古屋市中区,丸の内３丁目６番１１号レインボー丸の内７０３号,,23,106,4600002,,,,,,,2022-07-11,1,,,,,シャイン,0
1954,6180001152156,新規,0,2022-07-11,2022-07-11,株式会社Ｓｔｅａｄｙ　Ｓｔａｔｅ,,株式会社,愛知県,名古屋市中区,大須３丁目５番１３号ＨＡＳＥ－ＢＬＤＧ１,,23,106,4600011,,,,,,,2022-07-11,1,,,,,ステディステイト,0
1957,6180003024007,新規,0,2022-07-11,2022-07-11,合同会社八開村,,合同会社,愛知県,清須市,西枇杷島町南大和１５９番地,,23,233,4520013,,,,,,,2022-07-11,1,,,,,ハチカイムラ,0
1958,6180003024023,新規,0,2022-07-11,2022-07-11,合同会社ＭＯｐｏｗｅｒ,,合同会社,愛知県,名古屋市中村区,乾出町２丁目３１番地の２,,23,105,4530832,,,,,,,2022-07-11,1,,,,,エムオーパワー,0
1966,6190001029618,新規,0,2022-07-11,2022-07-11,株式会社石恵工業,,株式会社,三重県,三重郡菰野町,大字竹成１４番地５,,24,341,5101312,,,,,,,2022-07-11,1,,,,,イシケイコウギョウ,0
1967,6190005011720,新規,0,2022-07-11,2022-07-11,医療法人紡ぐの会,,その他の設立登記法人,三重県,四日市市,垂坂町４１３－１,,24,202,5108037,,,,,,,2022-07-11,1,,,,,ツムグノカイ,0
1971,6200001040267,新規,0,2022-07-11,2022-07-11,株式会社咲蓮,,株式会社,岐阜県,岐阜市,尻毛２丁目２０番地１,,21,201,5011147,,,,,,,2022-07-11,1,,,,,サクレ,0
1972,6200001040275,新規,0,2022-07-11,2022-07-11,株式会社ＫＩＭ,,株式会社,岐阜県,美濃加茂市,古井町下古井２５２番地,,21,211,5050034,,,,,,,2022-07-11,1,,,,,ケーアイエム,0
1981,6240003005702,新規,0,2022-07-11,2022-07-11,合同会社大竹場所実行委員会,,合同会社,広島県,大竹市,小方２丁目１０番１２号,,34,211,7390623,,,,,,,2022-07-11,1,,,,,オオタケバショジッコウイインカイ,0
1987,6260001037035,新規,0,2022-07-11,2022-07-11,株式会社長尾設備工業,,株式会社,岡山県,倉敷市,玉島阿賀崎４丁目１１番１１号パインツリーＤ２０５,,33,202,7138121,,,,,,,2022-07-11,1,,,,,ナガオセツビコウギョウ,0
1994,6290001098223,新規,0,2022-07-11,2022-07-11,株式会社バーミリオン,,株式会社,福岡県,筑紫野市,針摺西１丁目２番１－１３０１号,00127159,40,217,8180084,,,,,,,2022-07-11,1,,,,,バーミリオン,0
1996,6290003012719,新規,0,2022-07-11,2022-07-11,Ｓｔｅｌｌａｒ合同会社,,合同会社,福岡県,福岡市博多区,博多駅前３丁目１３番１５号リアン博多駅前ビル６階,,40,132,8120011,,,,,,,2022-07-11,1,,,,,ステラ,0
1999,6290005018747,新規,0,2022-07-11,2022-07-11,一般社団法人環境設備管理協会,,その他の設立登記法人,福岡県,福岡市博多区,博多駅前２丁目１番１号,,40,132,8120011,,,,,,,2022-07-11,1,,,,,カンキョウセツビカンリキョウカイ,0
2005,6300001012982,新規,0,2022-07-11,2022-07-11,株式会社カリテ,,株式会社,佐賀県,杵島郡江北町,大字佐留志１４１２番地１スペリオール江北５０４号,,41,424,8490502,,,,,,,2022-07-11,1,,,,,カリテ,0
2011,6340001024891,新規,0,2022-07-11,2022-07-11,株式会社大吉農園,,株式会社,鹿児島県,指宿市,山川岡児ケ水１２６６番地１,,46,210,8910513,,,,,,,2022-07-11,1,,,,,ダイキチノウエン,0
2015,6350003004123,新規,0,2022-07-11,2022-07-11,合同会社縁樹,,合同会社,宮崎県,宮崎市,大字島之内６５１８番地７,,45,201,8800121,,,,,,,2022-07-11,1,,,,,エンジュ,0
2018,6360003012141,新規,0,2022-07-11,2022-07-11,Ｂｅｓｔｏｎｅ合同会社,,合同会社,沖縄県,那覇市,前島３丁目２５番２号泊ポートビル２Ｆ－２１２号室,,47,201,9000016,,,,,,,2022-07-11,1,,,,,ベストワン,0
2019,6360005006686,新規,0,2022-07-11,2022-07-11,一般社団法人サンゴ保全協会,,その他の設立登記法人,沖縄県,国頭郡恩納村,字山田４２番地１,,47,311,9040416,,,,,,,2022-07-11,1,,,,,サンゴホゼンキョウカイ,0
2028,6390001016967,新規,0,2022-07-11,2022-07-11,株式会社ＬＩＢ,,株式会社,山形県,山形市,城西町５丁目１８番９号,,06,201,9900832,,,,,,,2022-07-11,1,,,,,リブ,0
2029,6410001013235,新規,0,2022-07-11,2022-07-11,株式会社ｃｒｅａｔｅ,,株式会社,秋田県,横手市,雄物川町東里字東里西７番地５,,05,203,0130203,,,,,,,2022-07-11,1,,,,,クリエイト,0
2031,6420001017937,新規,0,2022-07-11,2022-07-11,株式会社さとうファーム,,株式会社,青森県,三戸郡新郷村,大字西越字西越２９２番地２,,02,450,0391802,,,,,,,2022-07-11,1,,,,,サトウファーム,0
2037,6430001086989,新規,0,2022-07-11,2022-07-11,株式会社ＢＣＣ,,株式会社,北海道,札幌市白石区,南郷通１４丁目北２－６クイーンズコート南郷４０３,,01,104,0030023,,,,,,,2022-07-11,1,,,,,ビーシーシー,0
2038,6430001087005,新規,0,2022-07-11,2022-07-11,株式会社バリューソフトアドバンス,,株式会社,北海道,札幌市中央区,北三条西２丁目１番地,,01,101,0600003,,,,,,,2022-07-11,1,,,,,バリューソフトアドバンス,0
2040,6430003014080,新規,0,2022-07-11,2022-07-11,合同会社ＡＪ,,合同会社,北海道,札幌市豊平区,中の島一条３丁目２番２２－２０３号,,01,105,0620921,,,,,,,2022-07-11,1,,,,,エージェー,0
2041,6430003014097,新規,0,2022-07-11,2022-07-11,合同会社ＳＯＲＡＴＡ,,合同会社,北海道,札幌市中央区,南十九条西１５丁目２番２７－４０１号,,01,101,0640919,,,,,,,2022-07-11,1,,,,,ソラタ,0
2042,6440003001474,新規,0,2022-07-11,2022-07-11,合同会社ＳＨＥＥ　ＧＬＡＳＳ　ＣＯＦＦＥＥ,,合同会社,北海道,函館市,東山３丁目１６番５号,,01,202,0410835,,,,,,,2022-07-11,1,,,,,シーグラスコーヒー,0
2050,6500001024339,新規,0,2022-07-11,2022-07-11,株式会社ＲＺ,,株式会社,愛媛県,四国中央市,金生町山田井９０１番地２,,38,213,7990112,,,,,,,2022-07-11,1,,,,,アールゼット,0
2052,6700150108285,新規,0,2022-07-11,2022-04-22,低音デュオ,,その他,東京都,板橋区,小茂根１丁目２５－１９第五メゾン小茂根５０２　松平敬　様方,,13,119,1730037,,,,,,,2022-04-22,1,,,,,テイオンデユオ,0
2053,6700150109886,新規,0,2022-07-11,2022-06-16,Ｋａｏｒｉ　Ｓｔｕｄｉｏ　花,,その他,東京都,世田谷区,大原１丁目３５－２０,,13,112,1560041,,,,,,,2022-06-16,1,,,,,カオリスタジオハナ,0
2054,6700150110415,新規,0,2022-07-11,2022-06-27,南行徳ハイツＡ棟管理組合,,その他,千葉県,市川市,南行徳３丁目６番１号,,12,203,2720138,,,,,,,2022-06-27,1,,,,,ミナミギヨウトクハイツエートウカンリクミアイ,0
2055,6700150110563,新規,0,2022-07-11,2022-06-29,ＳＰＥＣＩＡＬ　ＥＦＦＥＣＴＳ,,その他,東京都,東村山市,久米川町４丁目４７－１テルプシコレ東村山４０６,,13,213,1890003,,,,,,,2022-06-29,1,,,,,スペシヤルエフエクツ,0
2056,6700150110852,新規,0,2022-07-11,2022-07-11,Ｎｕｔｒａｗｉｓｅ　Ｈｅａｌｔｈ　ａｎｄ　Ｂｅａｕｔｙ　Ｃｏ,,外国会社等,,,,,,,,９６００　Ｔｏｌｅｄｏ　Ｗａｙ　Ｉｒｖｉｎｅ　ＣＡ　９２６１８　ＵＳＡ,,,,,,2022-07-11,1,,,,,ニユートラワイズヘルスアンドビユーテイコープ,0
2069,7010001227816,新規,0,2022-07-11,2022-07-11,ＭＵＦＧトレーディング株式会社,,株式会社,東京都,千代田区,大手町２丁目２番１号,,13,101,1000004,,,,,,,2022-07-11,1,,,,,エムユーエフジートレーディング,0
2070,7010001227956,新規,0,2022-07-11,2022-07-11,ＡＩＴＩ株式会社,,株式会社,東京都,中央区,日本橋兜町６－５兜町第６平和ビル,,13,102,1030026,,,,,,,2022-07-11,1,,,,,エーアイティアイ,0
2071,7010001227980,新規,0,2022-07-11,2022-07-11,ネクスレジン株式会社,,株式会社,東京都,千代田区,神田錦町１丁目１４番４号,,13,101,1010054,,,,,,,2022-07-11,1,,,,,ネクスレジン,0
2076,7010003038039,新規,0,2022-07-11,2022-07-11,合同会社ＳＨＡＭＢＬＥＳ,,合同会社,東京都,中央区,新川１丁目２８番４ー１００２号,,13,102,1040033,,,,,,,2022-07-11,1,,,,,シャンブルズ,0
2077,7010003038096,新規,0,2022-07-11,2022-07-11,威睿合同会社,,合同会社,東京都,千代田区,神田佐久間町３丁目３８第５東ビル５Ｆ,,13,101,1010025,,,,,,,2022-07-11,1,,,,,イエイ,0
2078,7010103001945,新規,0,2022-07-11,2022-07-11,合同会社くままゆ,,合同会社,東京都,八王子市,暁町２丁目６番１５号朝日プラザ八王子１０３,,13,201,1920043,,,,,,,2022-07-11,1,,,,,クママユ,0
2084,7010401168387,新規,0,2022-07-11,2022-07-11,日本ウイスキーラボ株式会社,,株式会社,東京都,港区,東麻布３丁目８番９号東麻布ビルＢ１Ｆ,,13,103,1060044,,,,,,,2022-07-11,1,,,,,ニホンウイスキーラボ,0
2088,7010405021146,新規,0,2022-07-11,2022-07-11,ＳｉｌｋＲｏａｄ　Ｓｅａｓｉｄｅ　Ｒｅｓｉｄｅｎｔｉａｌ特定目的会社,,その他の設立登記法人,東京都,港区,六本木１丁目６番１号泉ガーデンタワーＫＰＭＧ税理士法人内,,13,103,1060032,,,,,,,2022-07-11,1,,,,,シルクロードシーサイドレジデンシャル,0
2091,7010501049099,新規,0,2022-07-11,2022-07-11,グローバルトレース株式会社,,株式会社,東京都,台東区,上野公園１８番８－２０２号,,13,106,1100007,,,,,,,2022-07-11,1,,,,,グローバルトレース,0
2093,7010601061466,新規,0,2022-07-11,2022-07-11,株式会社ブルートパーズ,,株式会社,東京都,江東区,住吉１丁目２番７－２１１号,,13,108,1350002,,,,,,,2022-07-11,1,,,,,ブルートパーズ,0
2094,7010603009612,新規,0,2022-07-11,2022-07-11,東京マイクロコンポーネンツ合同会社,,合同会社,東京都,墨田区,両国１丁目３－１１アオヤギ両国ビル５０１号室,,13,107,1300026,,,,,,,2022-07-11,1,,,,,トウキョウマイクロコンポーネンツ,0
2097,7010701042928,新規,0,2022-07-11,2022-07-11,ＷＡ株式会社,,株式会社,東京都,品川区,東品川２丁目２番４号天王洲ファーストタワー５Ｆ,,13,109,1400002,,,,,,,2022-07-11,1,,,,,ダブルエー,0
2098,7010803004231,新規,0,2022-07-11,2022-07-11,合同会社ぎん,,合同会社,東京都,大田区,東六郷３丁目２４番３号,,13,111,1440046,,,,,,,2022-07-11,1,,,,,ギン,0
2109,7011101099492,新規,0,2022-07-11,2022-07-11,株式会社Ｕｐｄｒａｆｔ,,株式会社,東京都,新宿区,西新宿３丁目３番１３号西新宿水間ビル６階,,13,104,1600023,,,,,,,2022-07-11,1,,,,,アップドラフト,0
2110,7011103011967,新規,0,2022-07-11,2022-07-11,Ｂａｎｋｅｒｓファクタリング合同会社,,合同会社,東京都,新宿区,四谷２丁目９番地１５東京ユナイテッド綜合事務所内,,13,104,1600004,,,,,,,2022-07-11,1,,,,,バンカーズファクタリング,0
2116,7011603003646,新規,0,2022-07-11,2022-07-11,合同会社Ｓｐｉｒａｌ,,合同会社,東京都,練馬区,大泉町６丁目６－９ハウスファイン１,,13,120,1780062,,,,,,,2022-07-11,1,,,,,スパイラル,0
2121,7011705001738,新規,0,2022-07-11,2022-07-11,小林関根合同税理士法人,,その他の設立登記法人,東京都,江戸川区,東小松川３丁目３６番１６号,,13,123,1320033,,,,,,,2022-07-11,1,,,,,コバヤシセキネゴウドウ,0
2131,7012401039411,新規,0,2022-07-11,2022-07-11,株式会社ＦＬＵＩＤ,,株式会社,東京都,武蔵野市,吉祥寺南町２丁目１２番８号第２本橋コーポ２０１,,13,203,1800003,,,,,,,2022-07-11,1,,,,,フルード,0
2132,7012803002834,新規,0,2022-07-11,2022-07-11,合同会社ＮＳＳ,,合同会社,東京都,立川市,栄町２丁目４８番地の２－２０１,,13,202,1900003,,,,,,,2022-07-11,1,,,,,エヌエスエス,0
2146,7020001147204,新規,0,2022-07-11,2022-07-11,株式会社ティーズ,,株式会社,神奈川県,川崎市幸区,小向西町１丁目４６番地８,,14,132,2120004,,,,,,,2022-07-11,1,,,,,ティーズ,0
2147,7020001147212,新規,0,2022-07-11,2022-07-11,株式会社清香,,株式会社,神奈川県,横浜市戸塚区,舞岡町１１４２番地１０－２０１号,,14,110,2440813,,,,,,,2022-07-11,1,,,,,サヤカ,0
2148,7020001147286,新規,0,2022-07-11,2022-07-11,株式会社アスリートフィード,,株式会社,神奈川県,川崎市中原区,宮内２丁目３１番１３号ミヤヨシ第二工場２０１,,14,133,2110051,,,,,,,2022-07-11,1,,,,,アスリートフィード,0
2149,7020001147294,新規,0,2022-07-11,2022-07-11,株式会社ＡＳＫ,,株式会社,神奈川県,川崎市幸区,中幸町３丁目３１番地２,,14,132,2120012,,,,,,,2022-07-11,1,,,,,エーエスケー,0
2150,7020001147311,新規,0,2022-07-11,2022-07-11,株式会社Ａ．ｅ,,株式会社,神奈川県,横浜市西区,高島２丁目１９番１２号横浜スカイビル２０Ｆ,,14,103,2200011,,,,,,,2022-07-11,1,,,,,エーイー,0
2151,7020001147328,新規,0,2022-07-11,2022-07-11,株式会社ナカヤマ,,株式会社,神奈川県,横浜市都筑区,川和町１２１１番地,,14,118,2240057,,,,,,,2022-07-11,1,,,,,ナカヤマ,0
2154,7020003022074,新規,0,2022-07-11,2022-07-11,合同会社ＢＩＧＳ,,合同会社,神奈川県,横浜市西区,高島２丁目１１－２スカイメナー横浜４２２,,14,103,2200011,,,,,,,2022-07-11,1,,,,,ビーアイジーエス,0
2163,7021003011918,新規,0,2022-07-11,2022-07-11,合同会社ＰｉｎｅＴｒｅｅ１３４,,合同会社,神奈川県,茅ヶ崎市,東海岸南４丁目１２番２９号,,14,207,2530054,,,,,,,2022-07-11,1,,,,,パインツリーイチサンヨン,0
2175,7030001149141,新規,0,2022-07-11,2022-07-11,バーチャル照明株式会社,,株式会社,埼玉県,蕨市,錦町１丁目１番９号,,11,223,3350005,,,,,,,2022-07-11,1,,,,,バーチャルショウメイ,0
2179,7030003019763,新規,0,2022-07-11,2022-07-11,合同会社Ｃ　ｓｔｙｌｅ,,合同会社,埼玉県,入間市,大字仏子９２３番地３ＪＵＮプレジ仏子２１０,,11,225,3580053,,,,,,,2022-07-11,1,,,,,シースタイル,0
2187,7040001124234,新規,0,2022-07-11,2022-07-11,株式会社大河,,株式会社,千葉県,山武市,本須賀４０６２番地１カーサ・ナメキＤ棟２０２号,,12,237,2891305,,,,,,,2022-07-11,1,,,,,,0
2188,7040001124259,新規,0,2022-07-11,2022-07-11,株式会社なないろ,,株式会社,千葉県,鴨川市,佐野２６０番地,,12,223,2960236,,,,,,,2022-07-11,1,,,,,ナナイロ,0
2193,7040003020415,新規,0,2022-07-11,2022-07-11,合同会社ＤＭＲ,,合同会社,千葉県,松戸市,松戸１８７７番地の１パークホームズ松戸セントラルマーク１１０５号,,12,207,2710092,,,,,,,2022-07-11,1,,,,,ディーエムアール,0
2198,7050001051386,新規,0,2022-07-11,2022-07-11,株式会社Ｈ・Ｕ・Ｃ,,株式会社,茨城県,東茨城郡城里町,大字那珂西２５９６番地１３,,08,310,3114302,,,,,,,2022-07-11,1,,,,,エイチユーシー,0
2199,7050001051394,新規,0,2022-07-11,2022-07-11,瀬出井建設工業株式会社,,株式会社,茨城県,神栖市,波崎８２３０番地１８,,08,232,3140408,,,,,,,2022-07-11,1,,,,,セデイケンケンセツコウギョウ,0
2201,7050003006669,新規,0,2022-07-11,2022-07-11,Ｇｌｉｔｔｅｒ合同会社,,合同会社,茨城県,常総市,水海道森下町４３９７番地１谷田川アパートＡ棟,,08,211,3030005,,,,,,,2022-07-11,1,,,,,グリッター,0
2204,7060001035066,新規,0,2022-07-11,2022-07-11,株式会社Ｄｕｋｅ　Ｋ,,株式会社,栃木県,那須郡那須町,大字高久丙２５６４番地５,,09,407,3250302,,,,,,,2022-07-11,1,,,,,デュークケイ,0
2205,7060001035074,新規,0,2022-07-11,2022-07-11,株式会社サンサンスパーク,,株式会社,栃木県,宇都宮市,江曽島町１４２８番地１,,09,201,3210102,,,,,,,2022-07-11,1,,,,,サンサンスパーク,0
2213,7080101023415,新規,0,2022-07-11,2022-07-11,株式会社鼓動,,株式会社,静岡県,駿東郡小山町,須走１０９番地の５６,,22,344,4101431,,,,,,,2022-07-11,1,,,,,コドウ,0
2222,7110001036819,新規,0,2022-07-11,2022-07-11,株式会社ＬＯＣＣＩ　ＣＯＭＰＡＮＹ,,株式会社,新潟県,妙高市,大字飛田１０３６－２サバーブハウスアスコット１０７,,15,217,9440092,,,,,,,2022-07-11,1,,,,,ロッチカンパニー,0
2239,7120005023052,新規,0,2022-07-11,2022-07-11,医療法人輝結会,,その他の設立登記法人,大阪府,枚方市,中宮西之町２４番１８号,,27,210,5730021,,,,,,,2022-07-11,1,,,,,コウユウカイ,0
2247,7130001072168,新規,0,2022-07-11,2022-07-11,株式会社アクロバティックチリメンジャコ,,株式会社,京都府,京都市左京区,田中上柳町２１,,26,103,6068205,,,,,,,2022-07-11,1,,,,,アクロバティックチリメンジャコ,0
2255,7140001126617,新規,0,2022-07-11,2022-07-11,株式会社西尾工業,,株式会社,兵庫県,姫路市,北原４５０番地７,,28,201,6728002,,,,,,,2022-07-11,1,,,,,ニシオコウギョウ,0
2256,7140001126625,新規,0,2022-07-11,2022-07-11,株式会社Ｏ２,,株式会社,兵庫県,神戸市北区,道場町塩田１４３５番地,,28,109,6511502,,,,,,,2022-07-11,1,,,,,オーツー,0
2257,7140001126699,新規,0,2022-07-11,2022-07-11,株式会社栞凪,,株式会社,兵庫県,神戸市東灘区,北青木４丁目４番１６号,,28,101,6580014,,,,,,,2022-07-11,1,,,,,カンナ,0
2258,7140001126708,新規,0,2022-07-11,2022-07-11,株式会社ハートフルハーモニー,,株式会社,兵庫県,川西市,清和台東３丁目２番地の２,,28,217,6660142,,,,,,,2022-07-11,1,,,,,ハートフルハーモニー,0
2260,7140003017896,新規,0,2022-07-11,2022-07-11,合同会社Ｔｅｃｈ　Ｐｌａｎｅｔ,,合同会社,兵庫県,西宮市,上甲子園４丁目２番１６号,,28,204,6638114,,,,,,,2022-07-11,1,,,,,テックプラネット,0
2264,7140005026227,新規,0,2022-07-11,2022-07-11,弁護士法人オールニーズ法律事務所,,その他の設立登記法人,兵庫県,神戸市中央区,三宮町１丁目４番４号木口ビル８階,,28,110,6500021,,,,,,,2022-07-11,1,,,,,オールニーズホウリツジムショ,0
2269,7160001024331,新規,0,2022-07-11,2022-07-11,株式会社ナカニシゴム,,株式会社,滋賀県,彦根市,高宮町１３９２番地３,,25,202,5220201,,,,,,,2022-07-11,1,,,,,ナカニシゴム,0
2270,7160001024356,新規,0,2022-07-11,2022-07-11,株式会社Ｔｈａｎｋｓ,,株式会社,滋賀県,近江八幡市,加茂町３２１番地８,,25,204,5230058,,,,,,,2022-07-11,1,,,,,サンクス,0
2272,7170003001749,新規,0,2022-07-11,2022-07-11,合同会社サンセットライズ,,合同会社,和歌山県,和歌山市,有本１３０番地１セジュール有本１０２,,30,201,6408390,,,,,,,2022-07-11,1,,,,,サンセットライズ,0
2276,7180001152023,新規,0,2022-07-11,2022-07-11,花木電気工事株式会社,,株式会社,愛知県,あま市,蜂須賀南本郷８７３番地,,23,237,4901225,,,,,,,2022-07-11,1,,,,,ハナキデンキコウジ,0
2277,7180001152122,新規,0,2022-07-11,2022-07-11,株式会社ライズアップネクスト,,株式会社,愛知県,名古屋市熱田区,花町３番３号－２,,23,109,4560011,,,,,,,2022-07-11,1,,,,,ライズアップネクスト,0
2278,7180001152130,新規,0,2022-07-11,2022-07-11,株式会社Ｙｓ　Ｅｓｓｅｎｃｅ,,株式会社,愛知県,名古屋市中区,栄１丁目１８－１５ラ・レジダンス・ド・シャトレーヌ１２０５,,23,106,4600008,,,,,,,2022-07-11,1,,,,,ワイズエッセンス,0
2279,7180001152139,新規,0,2022-07-11,2022-07-11,あいち障害者支援サービス株式会社,,株式会社,愛知県,名古屋市中村区,大秋町１丁目２番地若鳩ハイツ１０３,,23,105,4530042,,,,,,,2022-07-11,1,,,,,アイチショウガイシャシエンサービス,0
2285,7180003024022,新規,0,2022-07-11,2022-07-11,合同会社サンピーク,,合同会社,愛知県,名古屋市西区,上名古屋３丁目１６番２３号,,23,104,4510025,,,,,,,2022-07-11,1,,,,,サンピーク,0
2301,7220001024952,新規,0,2022-07-11,2022-07-11,株式会社ＡＭＫ,,株式会社,石川県,金沢市,増泉２丁目２１番２５号,,17,201,9218025,,,,,,,2022-07-11,1,,,,,エーエムケー,0
2309,7240001060070,新規,0,2022-07-11,2022-07-11,株式会社ネクストパワー,,株式会社,広島県,福山市,鞆町後地２１７６番地１,,34,207,7200202,,,,,,,2022-07-11,1,,,,,ネクストパワー,0
2319,7260001037034,新規,0,2022-07-11,2022-07-11,株式会社エスワン,,株式会社,岡山県,倉敷市,児島下の町１０丁目３８２番地９,,33,202,7110906,,,,,,,2022-07-11,1,,,,,エスワン,0
2323,7280003001630,新規,0,2022-07-11,2022-07-11,合同会社ｉ‐Ｌａｃｈｉｃ,,合同会社,島根県,松江市,西津田３丁目１３番１３－４号,,32,201,6900017,,,,,,,2022-07-11,1,,,,,アイラシック,0
2327,7290001098164,新規,0,2022-07-11,2022-07-11,やす武ホールディングス株式会社,,株式会社,福岡県,太宰府市,宰府２丁目７番１６号,,40,221,8180117,,,,,,,2022-07-11,1,,,,,ヤスタケホールディングス,0
2329,7290801028725,新規,0,2022-07-11,2022-07-11,株式会社Ｖｉｖｉｅ,,株式会社,福岡県,北九州市小倉北区,足原２丁目１番２９号,,40,106,8020043,,,,,,,2022-07-11,1,,,,,ビビィ,0
2331,7300001012981,新規,0,2022-07-11,2022-07-11,株式会社オプラス,,株式会社,佐賀県,神埼郡吉野ヶ里町,大曲２６２６番地１８,,41,327,8420103,,,,,,,2022-07-11,1,,,,,オプラス,0
2333,7320001019199,新規,0,2022-07-11,2022-07-11,株式会社ＤＥＬＴＡＮＩＺＥＤ,,株式会社,大分県,大分市,大字関園２９１番地の１,,44,201,8700115,,,,,,,2022-07-11,1,,,,,デルタナイズド,0
2334,7320003003853,新規,0,2022-07-11,2022-07-11,合同会社ＲＥＩＴ,,合同会社,大分県,大分市,横尾東町１丁目１３番２５号,,44,201,8700130,,,,,,,2022-07-11,1,,,,,リート,0
2339,7340001024890,新規,0,2022-07-11,2022-07-11,株式会社ＢＲＯ,,株式会社,鹿児島県,薩摩川内市,東郷町斧渕１５９１番地１３,,46,215,8951106,,,,,,,2022-07-11,1,,,,,ブロ,0
2347,7360001030697,新規,0,2022-07-11,2022-07-11,ウィルソアジャパン株式会社,,株式会社,沖縄県,那覇市,古波蔵４丁目１３番６０号,,47,201,9000024,,,,,,,2022-07-11,1,,,,,ウィルソアジャパン,0
2358,7410001013234,新規,0,2022-07-11,2022-07-11,株式会社ステラリア,,株式会社,秋田県,秋田市,大住２丁目３番１３号,,05,201,0101436,,,,,,,2022-07-11,1,,,,,ステラリア,0
2360,7420001017944,新規,0,2022-07-11,2022-07-11,ｅｂｉｎａ株式会社,,株式会社,青森県,東津軽郡平内町,大字内童子字童子２５番地,,02,301,0393352,,,,,,,2022-07-11,1,,,,,エビナ,0
2364,7430001087012,新規,0,2022-07-11,2022-07-11,株式会社ＳＴマシナリー,,株式会社,北海道,日高郡新ひだか町,静内緑町６丁目１番８号,,01,610,0560004,,,,,,,2022-07-11,1,,,,,エスティーマシナリー,0
2365,7430001087053,新規,0,2022-07-11,2022-07-11,Ｓ．Ｔ．Ｂ．Ｃ株式会社,,株式会社,北海道,江別市,上江別南町２０番地の６,,01,217,0670062,,,,,,,2022-07-11,1,,,,,エスティービーシー,0
2369,7460101007214,新規,0,2022-07-11,2022-07-11,株式会社道,,株式会社,北海道,上川郡清水町,字熊牛４８番地,,01,636,0890241,,,,,,,2022-07-11,1,,,,,ミチ,0
2375,7700150110851,新規,0,2022-07-11,2022-07-11,Ｅａｓｔｇａｔｅ　Ｉｎｆｏｔｅｃｈ　Ｐｒｉｖａｔｅ　Ｌｔｄ．,,外国会社等,,,,,,,,ＸＩ／２７５，　ＨＳ３，　Ｈｅａｖｅｎｌｙ　Ｐｌａｚａ，　Ｐａｄａｍｕｇａｌ　Ｋａｋｋａｎａｄ　Ｋｏｃｈｉ，　Ｋｅｒｅｌａ　６８２０２１,,,,,,2022-07-11,1,,,,,イーストゲートインフオテツクプライベートリミテツド,0
2388,8010001228029,新規,0,2022-07-11,2022-07-11,株式会社ツクヨミ,,株式会社,東京都,中央区,佃２丁目２－１０－３５０９,,13,102,1040051,,,,,,,2022-07-11,1,,,,,ツクヨミ,0
2395,8010003038104,新規,0,2022-07-11,2022-07-11,銀座リアルティ・ワン合同会社,,合同会社,東京都,千代田区,丸の内２丁目１番１号,,13,101,1000005,,,,,,,2022-07-11,1,,,,,ギンザリアルティワン,0
2396,8010003038129,新規,0,2022-07-11,2022-07-11,合同会社Ａｌｐｈａ,,合同会社,東京都,中央区,銀座１丁目十二番四号Ｎ＆ＥＢＬＤ．６Ｆ,,13,102,1040061,,,,,,,2022-07-11,1,,,,,アルファ,0
2398,8010005035215,新規,0,2022-07-11,2022-07-11,一般社団法人日本スパトライアスロン協会,,その他の設立登記法人,東京都,中央区,銀座８丁目１１番５号正金ビル２Ｆ株式会社ＹＡＳＵＰＲＯＪＥＣＴ内,,13,102,1040061,,,,,,,2022-07-11,1,,,,,ニホンスパトライアスロンキョウカイ,0
2405,8010405021145,新規,0,2022-07-11,2022-07-11,一般社団法人知的探求心育英協会,,その他の設立登記法人,東京都,港区,南青山２丁目２－１５ＷＩＮ青山５３１,,13,103,1070062,,,,,,,2022-07-11,1,,,,,チテキタンキュウシンイクエイキョウカイ,0
2431,8011001148605,新規,0,2022-07-11,2022-07-11,株式会社シードルインベストメント,,株式会社,東京都,目黒区,中目黒３丁目６番２号中目黒Ｆ・Ｓビル５階,,13,110,1530061,,,,,,,2022-07-11,1,,,,,シードルインベストメント,0
2433,8011003015002,新規,0,2022-07-11,2022-07-11,合同会社クラース・エステート,,合同会社,東京都,渋谷区,神宮前６丁目２３番４号桑野ビル２階,,13,113,1500001,,,,,,,2022-07-11,1,,,,,クラースエステート,0
2434,8011101099500,新規,0,2022-07-11,2022-07-11,株式会社Ｕｎｉｖｅｒｓａｌ　Ｅｄｕｃａｔｉｏｎ　Ｐｌａｎｎｉｎｇ,,株式会社,東京都,新宿区,西早稲田２丁目４番２６号１Ｆ,,13,104,1690051,,,,,,,2022-07-11,1,,,,,ユニバーサルエデュケーションプランニング,0
2435,8011101099541,新規,0,2022-07-11,2022-07-11,株式会社Ｒｅ’ａｓｓｕｒｅ,,株式会社,東京都,新宿区,西新宿３丁目２－９新宿ワシントンホテルビル本館２Ｆ,,13,104,1600023,,,,,,,2022-07-11,1,,,,,リアシェア,0
2441,8011401024380,新規,0,2022-07-11,2022-07-11,春海株式会社,,株式会社,東京都,板橋区,前野町２丁目１９番１４号２０５号,,13,119,1740063,,,,,,,2022-07-11,1,,,,,ハルミ,0
2448,8011701025450,新規,0,2022-07-11,2022-07-11,株式会社ＹＯ,,株式会社,東京都,江戸川区,西葛西５丁目１０番２６－３１７号,,13,123,1340088,,,,,,,2022-07-11,1,,,,,ヨー,0
2449,8012301013060,新規,0,2022-07-11,2022-07-11,株式会社ＴＥＴＴＡ,,株式会社,東京都,町田市,相原町１７７５番地２２,,13,209,1940211,,,,,,,2022-07-11,1,,,,,テッタ,0
2450,8012303001699,新規,0,2022-07-11,2022-07-11,合同会社ＢＥＳＴ‐ＴＲＡＮＳＰＯＲＴＥＲ,,合同会社,東京都,町田市,鶴間５丁目４番３５号,,13,209,1940004,,,,,,,2022-07-11,1,,,,,ベストトランスポーター,0
2451,8012401039393,新規,0,2022-07-11,2022-07-11,株式会社ＳＵＭアドバイザリー,,株式会社,東京都,調布市,下石原３丁目３番地１５,,13,208,1820034,,,,,,,2022-07-11,1,,,,,エスユーエムアドバイザリー,0
2452,8012401039410,新規,0,2022-07-11,2022-07-11,株式会社プレフィックス,,株式会社,東京都,調布市,染地３丁目１番地１０５６,,13,208,1820023,,,,,,,2022-07-11,1,,,,,プレフィックス,0
2455,8012805003128,新規,0,2022-07-11,2022-07-11,一般社団法人はじめのいーっぽ,,その他の設立登記法人,東京都,東大和市,狭山１丁目８５３番地の３７,,13,220,2070003,,,,,,,2022-07-11,1,,,,,ハジメノイーッポ,0
2467,8020001147178,新規,0,2022-07-11,2022-07-11,株式会社Ｓｕｍ,,株式会社,神奈川県,横浜市港北区,大倉山１丁目１２番２号武田ビル１０２号,,14,109,2220037,,,,,,,2022-07-11,1,,,,,サム,0
2468,8020001147244,新規,0,2022-07-11,2022-07-11,サテライト・ストリーム株式会社,,株式会社,神奈川県,横浜市南区,大岡３丁目６番２６号,,14,105,2320061,,,,,,,2022-07-11,1,,,,,サテライトストリーム,0
2469,8020001147269,新規,0,2022-07-11,2022-07-11,株式会社トゥーバース,,株式会社,神奈川県,川崎市多摩区,栗谷３丁目２９番２３号,,14,135,2140039,,,,,,,2022-07-11,1,,,,,トゥーバース,0
2470,8020001147285,新規,0,2022-07-11,2022-07-11,株式会社ｔｈｒｅｅ　ｔｙｐｅ,,株式会社,神奈川県,横浜市中区,福富町西通４５番地１ファーストビル４階,,14,104,2310042,,,,,,,2022-07-11,1,,,,,スリータイプ,0
2475,8020003022057,新規,0,2022-07-11,2022-07-11,合同会社千年宮,,合同会社,神奈川県,横浜市港南区,港南台１丁目５０番１７号,,14,111,2340054,,,,,,,2022-07-11,1,,,,,センネングウ,0
2476,8020003022081,新規,0,2022-07-11,2022-07-11,合同会社海龍,,合同会社,神奈川県,横浜市西区,北幸１丁目１１番１号水信ビル７階,,14,103,2200004,,,,,,,2022-07-11,1,,,,,カイリュウ,0
2479,8020005015595,新規,0,2022-07-11,2022-07-11,税理士法人アイ・ケイ会計,,その他の設立登記法人,神奈川県,横浜市神奈川区,三ツ沢中町６番６号,,14,102,2210851,,,,,,,2022-07-11,1,,,,,アイケイカイケイ,0
2483,8021001076524,新規,0,2022-07-11,2022-07-11,Ｐｅｒｍａｎｅｎｔ　Ｐｌａｎｅｔ株式会社,,株式会社,神奈川県,逗子市,逗子１丁目６－２７－４０２,,14,208,2490006,,,,,,,2022-07-11,1,,,,,パーマネントプラネット,0
2493,8030001148992,新規,0,2022-07-11,2022-07-11,株式会社Ｆｕｎ　ｔｉｍｅ,,株式会社,埼玉県,さいたま市北区,奈良町１１番地６ラ・フォルテ３０１,,11,102,3310822,,,,,,,2022-07-11,1,,,,,ファンタイム,0
2494,8030001149099,新規,0,2022-07-11,2022-07-11,株式会社ＧＥＮＥＦＯＲＣＥ,,株式会社,埼玉県,所沢市,小手指元町２丁目２４番地の３,,11,208,3591147,,,,,,,2022-07-11,1,,,,,ジェネフォース,0
2495,8030001149108,新規,0,2022-07-11,2022-07-11,株式会社モックベル,,株式会社,埼玉県,東松山市,松葉町３丁目１１番２５号,,11,212,3550017,,,,,,,2022-07-11,1,,,,,モックベル,0
2496,8030001149157,新規,0,2022-07-11,2022-07-11,ハウスコム埼玉株式会社,,株式会社,埼玉県,和光市,本町６番８号,,11,229,3510114,,,,,,,2022-07-11,1,,,,,ハウスコムサイタマ,0
2497,8030001149165,新規,0,2022-07-11,2022-07-11,株式会社コーンベリーファーム,,株式会社,埼玉県,深谷市,折之口４８７番地２,,11,218,3660812,,,,,,,2022-07-11,1,,,,,コーンベリーファーム,0
2500,8030003019738,新規,0,2022-07-11,2022-07-11,合同会社ＭＡＣ,,合同会社,埼玉県,蕨市,南町２丁目１２番１１号,,11,223,3350003,,,,,,,2022-07-11,1,,,,,エムエーシー,0
2513,8040001124134,新規,0,2022-07-11,2022-07-11,友電通商株式会社,,株式会社,千葉県,長生郡長柄町,六地蔵３４５番地１,,12,426,2970233,,,,,,,2022-07-11,1,,,,,ユウデンツウショウ,0
2514,8040001124209,新規,0,2022-07-11,2022-07-11,ハウスコム千葉株式会社,,株式会社,千葉県,市川市,行徳駅前１丁目２２番１９号,,12,203,2720133,,,,,,,2022-07-11,1,,,,,ハウスコムチバ,0
2515,8040001124217,新規,0,2022-07-11,2022-07-11,株式会社須藤興業,,株式会社,千葉県,白井市,冨士６７番地の１０５,,12,232,2701432,,,,,,,2022-07-11,1,,,,,,0
2516,8040001124258,新規,0,2022-07-11,2022-07-11,ｏｏｔｗｎ株式会社,,株式会社,千葉県,柏市,北柏２丁目１５－５,,12,217,2770832,,,,,,,2022-07-11,1,,,,,オートン,0
2531,8040003020422,新規,0,2022-07-11,2022-07-11,合同会社スノー,,合同会社,千葉県,富里市,久能２３８番地３７,,12,233,2860203,,,,,,,2022-07-11,1,,,,,スノー,0
2535,8050001051344,新規,0,2022-07-11,2022-07-11,株式会社ミックスベリア,,株式会社,茨城県,稲敷市,佐原組新田１３１番地,,08,229,3000749,,,,,,,2022-07-11,1,,,,,ミックスベリア,0
2542,8070001039420,新規,0,2022-07-11,2022-07-11,株式会社ＳＨＡＨ　ＧＬＯＢＡＬ　ＴＲＡＤＩＮＧ,,株式会社,群馬県,邑楽郡邑楽町,大字鶉７９２番地１ガーベラマンション１０２,,10,525,3700601,,,,,,,2022-07-11,1,,,,,シャグローバルトレーディング,0
2543,8070001039429,新規,0,2022-07-11,2022-07-11,株式会社Ｂｌｏｏｍｉｎｇ,,株式会社,群馬県,伊勢崎市,上諏訪町１２５２番地１２,,10,204,3720021,,,,,,,2022-07-11,1,,,,,ブルーミング,0
2544,8070003004538,新規,0,2022-07-11,2022-07-11,合同会社Ｍ＆Ｊ,,合同会社,群馬県,太田市,飯田町１２２５番地３ＹＳビル２Ｆ,,10,205,3730851,,,,,,,2022-07-11,1,,,,,エムアンドジェイ,0
2552,8090001017663,新規,0,2022-07-11,2022-07-11,株式会社ふるや果樹園,,株式会社,山梨県,南アルプス市,藤田１２９番地３,,19,208,4000334,,,,,,,2022-07-11,1,,,,,フルヤカジュエン,0
2565,8120001247232,新規,0,2022-07-11,2022-07-11,意思決定コンサルティング株式会社,,株式会社,大阪府,大阪市中央区,北久宝寺町３丁目６番１号本町南ガーデンシティ７階,,27,128,5410057,,,,,,,2022-07-11,1,,,,,イシケッテイコンサルティング,0
2566,8120001247249,新規,0,2022-07-11,2022-07-11,株式会社アヒージョとパスタ,,株式会社,大阪府,大阪市城東区,中央１丁目１１番６号,,27,118,5360005,,,,,,,2022-07-11,1,,,,,アヒージョトパスタ,0
2567,8120001247257,新規,0,2022-07-11,2022-07-11,株式会社ビオレータ,,株式会社,大阪府,大阪市中央区,南本町３丁目３番２５号,,27,128,5410054,,,,,,,2022-07-11,1,,,,,ビオレータ,0
2568,8120001247265,新規,0,2022-07-11,2022-07-11,株式会社カラメリゼ,,株式会社,大阪府,大阪市天王寺区,夕陽丘町３番１９－３０１号,,27,109,5430075,,,,,,,2022-07-11,1,,,,,カラメリゼ,0
2572,8120101065864,新規,0,2022-07-11,2022-07-11,株式会社Ｆｌｅｕｒ,,株式会社,大阪府,和泉市,桑原町２８２番地の１マルベリーパレス１０３,,27,219,5940066,,,,,,,2022-07-11,1,,,,,フルール,0
2573,8120101065889,新規,0,2022-07-11,2022-07-11,正和商事株式会社,,株式会社,大阪府,松原市,東新町１丁目１０番２３号,,27,217,5800024,,,,,,,2022-07-11,1,,,,,セイワショウジ,0
2574,8120101065914,新規,0,2022-07-11,2022-07-11,株式会社ＳＴパートナーズ,,株式会社,大阪府,高石市,取石１丁目１２－１１－２０３,,27,225,5920013,,,,,,,2022-07-11,1,,,,,エスティーパートナーズ,0
2577,8120103004779,新規,0,2022-07-11,2022-07-11,ｂａｍｂｏｏ池田屋合同会社,,合同会社,大阪府,南河内郡千早赤阪村,大字水分１２８２番地の１２,,27,383,5850041,,,,,,,2022-07-11,1,,,,,バンブーイケダヤ,0
2583,8130005016525,新規,0,2022-07-11,2022-07-11,医療法人ふくふくの森,,その他の設立登記法人,京都府,福知山市,駅南町１丁目２８９番地,,26,201,6200940,,,,,,,2022-07-11,1,,,,,フクフクノモリ,0
2593,8140001126616,新規,0,2022-07-11,2022-07-11,株式会社ＮＣＣ,,株式会社,兵庫県,たつの市,誉田町広山４２８番地３,,28,229,6794134,,,,,,,2022-07-11,1,,,,,エヌシーシー,0
2594,8140001126624,新規,0,2022-07-11,2022-07-11,神明左官株式会社,,株式会社,兵庫県,神戸市西区,今寺２５番地の１０,,28,111,6512114,,,,,,,2022-07-11,1,,,,,シンメイサカン,0
2595,8140001126632,新規,0,2022-07-11,2022-07-11,株式会社ハウジングリーチ,,株式会社,兵庫県,西宮市,神園町２番３７－３０８号,,28,204,6620027,,,,,,,2022-07-11,1,,,,,ハウジングリーチ,0
2596,8140001126640,新規,0,2022-07-11,2022-07-11,株式会社ＫＡＫＥＨＡＳＨＩ計算センター,,株式会社,兵庫県,姫路市,北条宮の町４１４番地,,28,201,6700948,,,,,,,2022-07-11,1,,,,,カケハシケイサンセンター,0
2597,8140001126649,新規,0,2022-07-11,2022-07-11,株式会社Ｌｉｉｔｅ,,株式会社,兵庫県,川西市,日高町６番１６号１０１,,28,217,6660032,,,,,,,2022-07-11,1,,,,,リイテ,0
2598,8140001126657,新規,0,2022-07-11,2022-07-11,順福堂株式会社,,株式会社,兵庫県,尼崎市,浜２丁目１番９号,,28,202,6610967,,,,,,,2022-07-11,1,,,,,ジュンフクドウ,0
2602,8140003017895,新規,0,2022-07-11,2022-07-11,ＳＡＣＨＩ合同会社,,合同会社,兵庫県,神戸市灘区,原田通３丁目５番１５号,,28,102,6570837,,,,,,,2022-07-11,1,,,,,サチ,0
2604,8140005026234,新規,0,2022-07-11,2022-07-11,サントピアグランドハイツ管理組合法人,,その他の設立登記法人,兵庫県,洲本市,小路谷１２８１番地５サントピアグランドハイツ７０２号室,,28,205,6560023,,,,,,,2022-07-11,1,,,,,サントピアグランドハイツ,0
2624,8180001152030,新規,0,2022-07-11,2022-07-11,株式会社ＴｅｃｈｎｏＮｅｔｗｏｒｋｓ,,株式会社,愛知県,名古屋市中村区,則武１丁目２９番３号,,23,105,4530014,,,,,,,2022-07-11,1,,,,,テクノネットワークス,0
2625,8180001152146,新規,0,2022-07-11,2022-07-11,心繹株式会社,,株式会社,愛知県,名古屋市中区,栄１丁目１８番１５号ラ・レジダンス・ド・シャトレーヌ２１６,,23,106,4600008,,,,,,,2022-07-11,1,,,,,シンエキ,0
2626,8180001152154,新規,0,2022-07-11,2022-07-11,株式会社ＴＯＲＡＮＩＣＯＮ,,株式会社,愛知県,名古屋市東区,白壁２丁目１４番２７号,,23,102,4610011,,,,,,,2022-07-11,1,,,,,トラニコン,0
2628,8180005019845,新規,0,2022-07-11,2022-07-11,西部知多協同組合,,その他の設立登記法人,愛知県,知多市,梅が丘１丁目１４番地の１,,23,224,4780016,,,,,,,2022-07-11,1,,,,,セイブチタ,0
2641,8240003005709,新規,0,2022-07-11,2022-07-11,合同会社のぞみ事務所,,合同会社,広島県,広島市佐伯区,隅の浜３丁目３番３６号,,34,108,7315145,,,,,,,2022-07-11,1,,,,,ノゾミジムショ,0
2650,8290001098188,新規,0,2022-07-11,2022-07-11,株式会社ＳＨＩＲＯ,,株式会社,福岡県,久留米市,北野町中３２３５番地１－２０２,,40,203,8301113,,,,,,,2022-07-11,1,,,,,シロ,0
2652,8290003012700,新規,0,2022-07-11,2022-07-11,Ｒｏｃｋｅｔ‐ｉｎ‐Ｂｏｔｔｌｅ合同会社,,合同会社,福岡県,福岡市博多区,祇園町８番１３号ＴｈｅＣｏｍｐａｎｙ内,,40,132,8120038,,,,,,,2022-07-11,1,,,,,ロケットインボトル,0
2656,8290005018745,新規,0,2022-07-11,2022-07-11,社会保険労務士法人森下労働法務事務所,,その他の設立登記法人,福岡県,福岡市中央区,春吉３丁目２１番８号春野ビル３Ｆ,,40,133,8100003,,,,,,,2022-07-11,1,,,,,モリシタロウドウホウムジムショ,0
2657,8290801028724,新規,0,2022-07-11,2022-07-11,株式会社アレンジ,,株式会社,福岡県,北九州市小倉南区,若園１丁目２０番５号,,40,107,8020816,,,,,,,2022-07-11,1,,,,,アレンジ,0
2660,8290805009571,新規,0,2022-07-11,2022-07-11,ＭＴＯ社会保険労務士法人,,その他の設立登記法人,福岡県,北九州市小倉北区,室町２丁目３番７号,,40,106,8030812,,,,,,,2022-07-11,1,,,,,エムティオー,0
2661,8300001012980,新規,0,2022-07-11,2022-07-11,株式会社池田製作所,,株式会社,佐賀県,鳥栖市,弥生が丘１丁目８番地東峰マンション弥生が丘９１０,,41,203,8410005,,,,,,,2022-07-11,1,,,,,イケダセイサクショ,0
2662,8300001012989,新規,0,2022-07-11,2022-07-11,株式会社逢力興業,,株式会社,佐賀県,唐津市,相知町久保４９９番地２,,41,202,8493232,,,,,,,2022-07-11,1,,,,,アイチコウギョウ,0
2668,8330003009436,新規,0,2022-07-11,2022-07-11,合同会社Ｓｍｉｌｅ　Ｌａｂ．,,合同会社,熊本県,熊本市東区,西原１丁目２－２４,,43,102,8618029,,,,,,,2022-07-11,1,,,,,スマイルラボ,0
2676,8360001030655,新規,0,2022-07-11,2022-07-11,株式会社メーベル,,株式会社,沖縄県,島尻郡南風原町,字津嘉山１８０４－１,,47,350,9011117,,,,,,,2022-07-11,1,,,,,メーベル,0
2688,8420001017943,新規,0,2022-07-11,2022-07-11,株式会社アーキテクト新山,,株式会社,青森県,青森市,沖館５丁目８番２５号,,02,201,0380002,,,,,,,2022-07-11,1,,,,,アーキテクトニイヤマ,0
2690,8420005007817,新規,0,2022-07-11,2022-07-11,税理士法人げんき会計,,その他の設立登記法人,青森県,弘前市,大字取上２丁目２番地３,,02,202,0368171,,,,,,,2022-07-11,1,,,,,ヒロサキゲンキカイケイ,0
2691,8430001087003,新規,0,2022-07-11,2022-07-11,浦江投資管理株式会社,,株式会社,北海道,札幌市北区,北十二条西１丁目１番８－８０４号,,01,102,0010012,,,,,,,2022-07-11,1,,,,,ウラエトウシカンリ,0
2693,8430003014079,新規,0,2022-07-11,2022-07-11,合同会社Ｅ‐ＰＬＵＳ,,合同会社,北海道,北広島市,希望ヶ丘２丁目３番地５８,,01,234,0611261,,,,,,,2022-07-11,1,,,,,イープラス,0
2702,8470005006450,新規,0,2022-07-11,2022-07-11,一般社団法人さぬき空き家サポート,,その他の設立登記法人,香川県,善通寺市,仙遊町２丁目２番１０号,,37,204,7650001,,,,,,,2022-07-11,1,,,,,サヌキアキヤサポート,0
2704,8500001024345,新規,0,2022-07-11,2022-07-11,ハイテック通信株式会社,,株式会社,愛媛県,松山市,道後喜多町５番４０号,,38,201,7900848,,,,,,,2022-07-11,1,,,,,ハイテックツウシン,0
2706,8700150110883,新規,0,2022-07-11,2022-07-11,イコニ　株式会社,,外国会社等,福岡県,福岡市中央区,春吉２丁目１９番１５－１１０３号,,40,133,8100003,大韓民国ソウル特別市江南区テヘラン路６３ギル１２，８３９号（三成洞，ＬＧ宣陵エクラートＢ棟）,,,,,,2022-07-11,1,,,,,イコニカブシキガイシヤ,0
2707,8700150110900,新規,0,2022-07-11,2022-07-11,ＪＡＹ　ＭＡＴＡ　ＤＩ　ＧＲＯＵＰ　ＰＶＴ．ＬＴＤ．,,外国会社等,群馬県,前橋市,大手町２丁目１６－８堀ビル大手町３０１,,10,201,3710026,ネパール連邦民主共和国ラリットプール行政部、イマドル市第３区マハラクシミ,,,,,,2022-07-11,1,,,,,ジヤヤマタデイグループプライベートリミテド,0
2727,9010005035214,新規,0,2022-07-11,2022-07-11,一般社団法人ＳＭＡＲＴ,,その他の設立登記法人,東京都,中央区,銀座５丁目７番１０号,,13,102,1040061,,,,,,,2022-07-11,1,,,,,スマート,0
2732,9010401168344,新規,0,2022-07-11,2022-07-11,株式会社Ｔｅｒａ　Ｓｍａｒｔ,,株式会社,東京都,港区,南青山２丁目２番１５号,,13,103,1070062,,,,,,,2022-07-11,1,,,,,テラスマート,0
2733,9010401168385,新規,0,2022-07-11,2022-07-11,株式会社うまうま,,株式会社,東京都,港区,元麻布３丁目１１－３センチュリー六本木１０３号,,13,103,1060046,,,,,,,2022-07-11,1,,,,,ウマウマ,0
2734,9010401168435,新規,0,2022-07-11,2022-07-11,新亀山社中株式会社,,株式会社,東京都,港区,元麻布２丁目１番１３号,,13,103,1060046,,,,,,,2022-07-11,1,,,,,シンカメヤマシャチュウ,0
2735,9010401168443,新規,0,2022-07-11,2022-07-11,Ｓｏｒａｄｙｎａｍｉｃｓ株式会社,,株式会社,東京都,港区,西新橋１丁目２－９日比谷セントラルビル１４階,,13,103,1050003,,,,,,,2022-07-11,1,,,,,ソラダイナミクス,0
2736,9010401168468,新規,0,2022-07-11,2022-07-11,株式会社ＴＳＫ,,株式会社,東京都,港区,南青山１丁目３番１号,,13,103,1070062,,,,,,,2022-07-11,1,,,,,ティーエスケー,0
2741,9010403028050,新規,0,2022-07-11,2022-07-11,合同会社メルシーブルー,,合同会社,東京都,港区,南青山２丁目２番１５号,,13,103,1070062,,,,,,,2022-07-11,1,,,,,メルシーブルー,0
2742,9010403028075,新規,0,2022-07-11,2022-07-11,合同会社ＤＴ京都清水,,合同会社,東京都,港区,南青山４丁目２１番２６号細谷総合会計事務所内,,13,103,1070062,,,,,,,2022-07-11,1,,,,,ディーティーキョウトキヨミズ,0
2744,9010501049097,新規,0,2022-07-11,2022-07-11,株式会社Ｕ‐１ｓｔ,,株式会社,東京都,台東区,上野２丁目１０番４号池之端会館ビルディング３階Ｂ号室,,13,106,1100005,,,,,,,2022-07-11,1,,,,,ユーファースト,0
2748,9010601061456,新規,0,2022-07-11,2022-07-11,株式会社ＳＫサービス,,株式会社,東京都,江東区,南砂５丁目１０番５－７０１号,,13,108,1360076,,,,,,,2022-07-11,1,,,,,エスケーサービス,0
2749,9010601061464,新規,0,2022-07-11,2022-07-11,株式会社ＧＮ‐１,,株式会社,東京都,江東区,永代２丁目２０番２号,,13,108,1350034,,,,,,,2022-07-11,1,,,,,ジーエヌワン,0
2750,9010603009635,新規,0,2022-07-11,2022-07-11,合同会社ＳＨＡＦＡＲＩ,,合同会社,東京都,墨田区,江東橋１丁目４番５－５０２号,,13,107,1300022,,,,,,,2022-07-11,1,,,,,シャファリ,0
2756,9010901051198,新規,0,2022-07-11,2022-07-11,株式会社バランサー,,株式会社,東京都,世田谷区,北沢１丁目４番１１号,,13,112,1550031,,,,,,,2022-07-11,1,,,,,バランサー,0
2771,9011101099458,新規,0,2022-07-11,2022-07-11,株式会社クローバー,,株式会社,東京都,新宿区,西新宿３丁目３－１３,,13,104,1600023,,,,,,,2022-07-11,1,,,,,,0
2773,9011103011949,新規,0,2022-07-11,2022-07-11,合同会社ＫＧＨ,,合同会社,東京都,新宿区,歌舞伎町２丁目１８番５号プラーズタワー３０７号,,13,104,1600021,,,,,,,2022-07-11,1,,,,,ケージーエイチ,0
2774,9011103011957,新規,0,2022-07-11,2022-07-11,エムコーポレーション合同会社,,合同会社,東京都,新宿区,西新宿３丁目３番１３号西新宿水間ビル６階,,13,104,1600023,,,,,,,2022-07-11,1,,,,,エムコーポレーション,0
2776,9011205002499,新規,0,2022-07-11,2022-07-11,一般社団法人全国採用支援協会,,その他の設立登記法人,東京都,中野区,大和町３丁目１番６号,,13,114,1650034,,,,,,,2022-07-11,1,,,,,ゼンコクサイヨウシエンキョウカイ,0
2778,9011301027929,新規,0,2022-07-11,2022-07-11,株式会社サウンドワゴンスタジオ,,株式会社,東京都,杉並区,西荻北２丁目２番１４号第二喜志コーポ１－ａ号室,,13,115,1670042,,,,,,,2022-07-11,1,,,,,サウンドワゴンスタジオ,0
2784,9011701025433,新規,0,2022-07-11,2022-07-11,株式会社燕屋,,株式会社,東京都,江戸川区,春江町３丁目４５番１２号３階,,13,123,1320003,,,,,,,2022-07-11,1,,,,,ツバメヤ,0
2790,9012403005483,新規,0,2022-07-11,2022-07-11,ガイアステージ合同会社,,合同会社,東京都,小金井市,緑町１丁目５番３号,,13,210,1840003,,,,,,,2022-07-11,1,,,,,,0
2802,9020003022072,新規,0,2022-07-11,2022-07-11,ＩＮＦＩＮＩＴＹ　ＬＩＮＥ合同会社,,合同会社,神奈川県,横浜市南区,中島町４丁目８９番地１中島町店舗１階,,14,105,2320055,,,,,,,2022-07-11,1,,,,,インフィニティライン,0
2803,9020003022089,新規,0,2022-07-11,2022-07-11,合同会社ＫＣプラス,,合同会社,神奈川県,川崎市川崎区,駅前本町１１番地２川崎フロンティアビル４階,,14,131,2100007,,,,,,,2022-07-11,1,,,,,ケーシープラス,0
2804,9020003022106,新規,0,2022-07-11,2022-07-11,タカヤス合同会社,,合同会社,神奈川県,横浜市鶴見区,岸谷２丁目１３番７号,,14,101,2300078,,,,,,,2022-07-11,1,,,,,タカヤス,0
2805,9020005015594,新規,0,2022-07-11,2022-07-11,一般社団法人世界押花芸術協会,,その他の設立登記法人,神奈川県,横浜市西区,高島２丁目５番１０号ストーク菱沼ビル７階,,14,103,2200011,,,,,,,2022-07-11,1,,,,,セカイオシバナゲイジュツキョウカイ,0
2807,9021001076465,新規,0,2022-07-11,2022-07-11,株式会社和金,,株式会社,神奈川県,相模原市中央区,上溝３丁目１番２８号,,14,152,2520243,,,,,,,2022-07-11,1,,,,,ワキン,0
2811,9021003011916,新規,0,2022-07-11,2022-07-11,合同会社湘南福祉入浴サービス,,合同会社,神奈川県,藤沢市,本町４丁目７番２８号,,14,205,2510053,,,,,,,2022-07-11,1,,,,,ショウナンフクシニュウヨクサービス,0
2826,9030001149065,新規,0,2022-07-11,2022-07-11,株式会社倉林塗装,,株式会社,埼玉県,加須市,上樋遣川４３５６番地５,00127158,11,210,3470003,,,,,,,2022-07-11,1,,,,,クラバヤシトソウ,0
2827,9030001149123,新規,0,2022-07-11,2022-07-11,ケアベースジャパン株式会社,,株式会社,埼玉県,さいたま市南区,曲本３丁目７番１４号シティパル２０５,,11,108,3360033,,,,,,,2022-07-11,1,,,,,ケアベースジャパン,0
2828,9030001149180,新規,0,2022-07-11,2022-07-11,株式会社ａｕｒｏｒａ,,株式会社,埼玉県,さいたま市南区,別所５丁目１５－２,,11,108,3360021,,,,,,,2022-07-11,1,,,,,オーロラ,0
2833,9030003019778,新規,0,2022-07-11,2022-07-11,合同会社壱,,合同会社,埼玉県,さいたま市北区,東大成町１丁目６００,,11,102,3310814,,,,,,,2022-07-11,1,,,,,イチ,0
2834,9030005020908,新規,0,2022-07-11,2022-07-11,特定非営利活動法人Ｓｐｅｃｉａｌ　Ｄｉｓｃｏｖｅｒｙ　Ｓｕｐｐｏｒｔｅｒｓ,,その他の設立登記法人,埼玉県,桶川市,坂田東２丁目９番地３１,,11,231,3630009,,,,,,,2022-07-11,1,,,,,スペシャルディスカバリーサポーターズ,0
2835,9030005020916,新規,0,2022-07-11,2022-07-11,特定非営利活動法人にゃんラブ,,その他の設立登記法人,埼玉県,八潮市,大字大曽根４５２番地５号,,11,234,3400834,,,,,,,2022-07-11,1,,,,,ニャンラブ,0
2842,9040001124133,新規,0,2022-07-11,2022-07-11,ＫＳイノベーション株式会社,,株式会社,千葉県,千葉市緑区,おゆみ野３丁目１０番地１ウィザースレジデンスおゆみ野１４０２,,12,105,2660031,,,,,,,2022-07-11,1,,,,,ケイエスイノベーション,0
2843,9040001124249,新規,0,2022-07-11,2022-07-11,ヒサマツフードサービス株式会社,,株式会社,千葉県,市原市,五井東３丁目４４番地３,,12,219,2900055,,,,,,,2022-07-11,1,,,,,ヒサマツフードサービス,0
2844,9040001124257,新規,0,2022-07-11,2022-07-11,株式会社４ＤＸ,,株式会社,千葉県,佐倉市,王子台１丁目２１番地７,,12,212,2850837,,,,,,,2022-07-11,1,,,,,フォーディーエックス,0
2850,9040005021673,新規,0,2022-07-11,2022-07-11,土地家屋調査士法人作田登記測量事務所,,その他の設立登記法人,千葉県,成田市,郷部１３４０番地,,12,211,2860014,,,,,,,2022-07-11,1,,,,,サクタトウキソクリョウジムショ,0
2851,9050001051376,新規,0,2022-07-11,2022-07-11,古内電気工事株式会社,,株式会社,茨城県,東茨城郡大洗町,磯浜町３９０９番地の６,,08,309,3111301,,,,,,,2022-07-11,1,,,,,,0
2852,9050001051384,新規,0,2022-07-11,2022-07-11,株式会社Ｌｉｂｅａ,,株式会社,茨城県,つくば市,栗原３５１４番地４,,08,220,3050001,,,,,,,2022-07-11,1,,,,,リベア,0
2853,9050003006650,新規,0,2022-07-11,2022-07-11,ＡＣ　ＴＲＡＤＩＮＧ合同会社,,合同会社,茨城県,筑西市,横塚１２２１番地,,08,227,3091116,,,,,,,2022-07-11,1,,,,,エーシートレーディング,0
2854,9050003006667,新規,0,2022-07-11,2022-07-11,おぅめカンパニィ合同会社,,合同会社,茨城県,古河市,尾崎３４７０番地４,,08,204,3060101,,,,,,,2022-07-11,1,,,,,オゥメカンパニィ,0
2856,9060001035080,新規,0,2022-07-11,2022-07-11,Ｍ・Ｅ・Ｓコンサルティング株式会社,,株式会社,栃木県,小山市,大字羽川３７０番地１０,,09,208,3230012,,,,,,,2022-07-11,1,,,,,エムイーエスコンサルティング,0
2859,9060003004117,新規,0,2022-07-11,2022-07-11,ＴＨＡＰＡ　ＩＮＴＥＲＮＡＴＩＯＮＡＬ合同会社,,合同会社,栃木県,栃木市,大平町新１５４０－１４３サンプローズ２０５,,09,203,3294425,,,,,,,2022-07-11,1,,,,,タパインターナショナル,0
2864,9080001025071,新規,0,2022-07-11,2022-07-11,株式会社オリオール,,株式会社,静岡県,静岡市駿河区,中田３丁目１０番４０号,,22,102,4228041,,,,,,,2022-07-11,1,,,,,オリオール,0
2867,9090001017662,新規,0,2022-07-11,2022-07-11,株式会社旬果ふるさと農園,,株式会社,山梨県,笛吹市,石和町四日市場１７２８番地１、２Ｆ,,19,211,4060032,,,,,,,2022-07-11,1,,,,,シュンカフルサトノウエン,0
2881,9120001247264,新規,0,2022-07-11,2022-07-11,株式会社ｉＴａｘコンサルティング,,株式会社,大阪府,大阪市中央区,淡路町３丁目１番１号,,27,128,5410047,,,,,,,2022-07-11,1,,,,,アイタックスコンサルティング,0
2885,9120003022005,新規,0,2022-07-11,2022-07-11,テックサーキット合同会社,,合同会社,大阪府,大阪市西区,土佐堀３丁目２番１１－１２０３号,,27,106,5500001,,,,,,,2022-07-11,1,,,,,テックサーキット,0
2887,9120005023042,新規,0,2022-07-11,2022-07-11,一般社団法人ＳＲＪ砕石生産協議会,,その他の設立登記法人,大阪府,大阪市中央区,南船場２丁目５番１２号,,27,128,5420081,,,,,,,2022-07-11,1,,,,,エスアールジェイサイセキセイサンキョウギカイ,0
2891,9120103004778,新規,0,2022-07-11,2022-07-11,合同会社オウフ,,合同会社,大阪府,和泉市,王子町２丁目６－５１,,27,219,5940004,,,,,,,2022-07-11,1,,,,,オウフ,0
2892,9120901046237,新規,0,2022-07-11,2022-07-11,株式会社ｅｍｉｓｉａ,,株式会社,大阪府,豊中市,東泉丘４丁目１番８－１０７号,,27,203,5610861,,,,,,,2022-07-11,1,,,,,エミシア,0
2895,9130001072117,新規,0,2022-07-11,2022-07-11,株式会社ＫＩＧ京都,,株式会社,京都府,京都市山科区,勧修寺東出町４３番地,,26,110,6078216,,,,,,,2022-07-11,1,,,,,ケーアイジーキョウト,0
2896,9130001072133,新規,0,2022-07-11,2022-07-11,株式会社ＭＯＯＳＥ,,株式会社,京都府,亀岡市,篠町馬堀池ノ下１番地１,,26,206,6210823,,,,,,,2022-07-11,1,,,,,ムース,0
2897,9130001072199,新規,0,2022-07-11,2022-07-11,株式会社エルグ,,株式会社,京都府,京都市南区,八条寺内町１６番地４,,26,107,6018476,,,,,,,2022-07-11,1,,,,,エルグ,0
2898,9130001072208,新規,0,2022-07-11,2022-07-11,株式会社Ｆｏｒｃｅ,,株式会社,京都府,八幡市,上津屋浜垣内７８番地１,,26,210,6148181,,,,,,,2022-07-11,1,,,,,フォース,0
2904,9140001126607,新規,0,2022-07-11,2022-07-11,大寺板金工業株式会社,,株式会社,兵庫県,神戸市西区,伊川谷町有瀬１２７７－１０３号,,28,111,6512113,,,,,,,2022-07-11,1,,,,,オオテラバンキンコウギョウ,0
2905,9140001126615,新規,0,2022-07-11,2022-07-11,渡辺建設株式会社,,株式会社,兵庫県,たつの市,龍野町中井８０１番地１０９,,28,229,6794124,,,,,,,2022-07-11,1,,,,,ワタナベケンセツ,0
2906,9140001126631,新規,0,2022-07-11,2022-07-11,盛安株式会社,,株式会社,兵庫県,神戸市兵庫区,東出町３丁目５番７号,,28,105,6520823,,,,,,,2022-07-11,1,,,,,セイアン,0
2907,9140001126697,新規,0,2022-07-11,2022-07-11,株式会社ＧＲＩＴ,,株式会社,兵庫県,尼崎市,名神町３丁目２番１１－１０５号,,28,202,6610021,,,,,,,2022-07-11,1,,,,,グリット,0
2914,9140003017886,新規,0,2022-07-11,2022-07-11,合同会社Ｎｏｍｕｒａ,,合同会社,兵庫県,姫路市,花田町高木７８番地１,,28,201,6710256,,,,,,,2022-07-11,1,,,,,ノムラ,0
2916,9140005026233,新規,0,2022-07-11,2022-07-11,山花・今井税理士法人,,その他の設立登記法人,兵庫県,尼崎市,七松町１丁目２番１－４０２号,,28,202,6600052,,,,,,,2022-07-11,1,,,,,ヤマハナイマイ,0
2929,9180001151907,新規,0,2022-07-11,2022-07-11,株式会社カンガルー,,株式会社,愛知県,一宮市,木曾川町里小牧字道路寺５２番４,,23,203,4910000,,,,,,,2022-07-11,1,,,,,カンガルー,0
2930,9180001152137,新規,0,2022-07-11,2022-07-11,ＫＩＮＧＳＴＡＲ　ＥＮＴＥＲＰＲＩＳＥＳ株式会社,,株式会社,愛知県,名古屋市中川区,愛知町１０番１６号ＳＫマンション黄金２０１号,,23,110,4540807,,,,,,,2022-07-11,1,,,,,キングスターエンタープライセス,0
2931,9180001152145,新規,0,2022-07-11,2022-07-11,株式会社ＳＡＩ,,株式会社,愛知県,名古屋市昭和区,広路通１丁目１７番地の２,,23,107,4660854,,,,,,,2022-07-11,1,,,,,サイ,0
2932,9180001152178,新規,0,2022-07-11,2022-07-11,株式会社耕和住宅,,株式会社,愛知県,江南市,河野町河野１３８番地,,23,217,4838369,,,,,,,2022-07-11,1,,,,,コウワジュウタク,0
2936,9180003024029,新規,0,2022-07-11,2022-07-11,澤田土木設計合同会社,,合同会社,愛知県,稲沢市,野崎町本郷７６番地,,23,220,4928447,,,,,,,2022-07-11,1,,,,,サワダドボクセッケイ,0
2937,9180005019844,新規,0,2022-07-11,2022-07-11,一般社団法人ＳＶ名古屋,,その他の設立登記法人,愛知県,名古屋市名東区,本郷２丁目１２７番地,,23,115,4650024,,,,,,,2022-07-11,1,,,,,エスブイナゴヤ,0
2943,9180305009363,新規,0,2022-07-11,2022-07-11,特定非営利活動法人大森クラブ,,その他の設立登記法人,愛知県,豊橋市,大岩町字佃１番地の６,,23,201,4413147,,,,,,,2022-07-11,1,,,,,オオモリクラブ,0
2946,9200001040248,新規,0,2022-07-11,2022-07-11,株式会社ラボオート,,株式会社,岐阜県,岐阜市,六条東１丁目１３番７号,,21,201,5008353,,,,,,,2022-07-11,1,,,,,ラボオート,0
2947,9200003005612,新規,0,2022-07-11,2022-07-11,合同会社Ｆ＆Ｉカンパニー,,合同会社,岐阜県,瑞穂市,古橋１７１２番地５,,21,216,5010322,,,,,,,2022-07-11,1,,,,,エフアンドアイカンパニー,0
2952,9240001060060,新規,0,2022-07-11,2022-07-11,株式会社レイズエム,,株式会社,広島県,福山市,今津町５丁目４番１４号,,34,207,7290111,,,,,,,2022-07-11,1,,,,,レイズエム,0
2953,9240003005708,新規,0,2022-07-11,2022-07-11,合同会社ファーストライド,,合同会社,広島県,広島市西区,己斐上２丁目１４番３ステラｋｏｉ１０１号室,,34,104,7330815,,,,,,,2022-07-11,1,,,,,ファーストライド,0
2960,9260001037032,新規,0,2022-07-11,2022-07-11,株式会社Ｏｕｔ,,株式会社,岡山県,真庭市,上河内２０３０番地１,,33,214,7193121,,,,,,,2022-07-11,1,,,,,アウト,0
2961,9260001037040,新規,0,2022-07-11,2022-07-11,株式会社アイナコーポレーション,,株式会社,岡山県,岡山市北区,下石井１丁目１番１７号,,33,101,7000907,,,,,,,2022-07-11,1,,,,,アイナコーポレーション,0
2963,9260003003981,新規,0,2022-07-11,2022-07-11,合同会社ルボートン,,合同会社,岡山県,倉敷市,下庄１４０－１,,33,202,7010112,,,,,,,2022-07-11,1,,,,,,0
2968,9290001098113,新規,0,2022-07-11,2022-07-11,株式会社ＡＩＭＥ,,株式会社,福岡県,福岡市中央区,地行４丁目１番１２－１０１号タテスリー地行,,40,133,8100064,,,,,,,2022-07-11,1,,,,,アイム,0
2969,9290001098204,新規,0,2022-07-11,2022-07-11,株式会社ＬＩＬ,,株式会社,福岡県,春日市,春日原北町４丁目３５レークサイドコスモ１Ｆ,,40,218,8160802,,,,,,,2022-07-11,1,,,,,リル,0
2972,9300001012988,新規,0,2022-07-11,2022-07-11,株式会社西有田土木ホールディングス,,株式会社,佐賀県,西松浦郡有田町,上内野丙３４３０番地１,,41,401,8494162,,,,,,,2022-07-11,1,,,,,ニシアリタドボクホールディングス,0
2973,9300003001865,新規,0,2022-07-11,2022-07-11,ウィルネス合同会社,,合同会社,佐賀県,鳥栖市,儀徳町２９３７,,41,203,8410066,,,,,,,2022-07-11,1,,,,,ウィルネス,0
2981,9340001024880,新規,0,2022-07-11,2022-07-11,株式会社ＳＫ５,,株式会社,鹿児島県,鹿児島市,山之口町８番２０号ニューヨークビル５階,,46,201,8920844,,,,,,,2022-07-11,1,,,,,エスケーファイブ,0
2985,9350003004120,新規,0,2022-07-11,2022-07-11,霧島自然食品合同会社,,合同会社,宮崎県,宮崎市,花ケ島町柳ノ丸５５０番地１４,,45,201,8800036,,,,,,,2022-07-11,1,,,,,キリシマシゼンショクヒン,0
2989,9360001030654,新規,0,2022-07-11,2022-07-11,株式会社読谷オペレーションズ,,株式会社,沖縄県,中頭郡読谷村,字儀間４７４番地,,47,324,9040327,,,,,,,2022-07-11,1,,,,,ヨミタンオペレーションズ,0
2990,9360001030662,新規,0,2022-07-11,2022-07-11,株式会社ＯＲＩＯＮ,,株式会社,沖縄県,豊見城市,字与根５６５番地１,,47,212,9010224,,,,,,,2022-07-11,1,,,,,オリオン,0
2994,9370001048753,新規,0,2022-07-11,2022-07-11,株式会社ＣＩＣＫＳ,,株式会社,宮城県,大崎市,古川下中目字曲屋敷２３番地,,04,215,9896123,,,,,,,2022-07-11,1,,,,,シックス,0
2995,9370001048786,新規,0,2022-07-11,2022-07-11,株式会社ＩＤｅａｌ,,株式会社,宮城県,仙台市青葉区,小田原４丁目３番２５－４０４号,,04,101,9800003,,,,,,,2022-07-11,1,,,,,アイデアル,0
3004,9420001017918,新規,0,2022-07-11,2022-07-11,株式会社ヒーズル,,株式会社,青森県,八戸市,柏崎２丁目１－１６,,02,203,0310081,,,,,,,2022-07-11,1,,,,,ヒーズル,0
3005,9420001017942,新規,0,2022-07-11,2022-07-11,Ａｉヘルスケア株式会社,,株式会社,青森県,八戸市,湊高台１丁目３番６号,,02,203,0310823,,,,,,,2022-07-11,1,,,,,エーアイヘルスケア,0
3010,9430001086994,新規,0,2022-07-11,2022-07-11,株式会社カトウサッシ,,株式会社,北海道,札幌市東区,北四十三条東８丁目４番１９号,,01,103,0070843,,,,,,,2022-07-11,1,,,,,カトウサッシ,0
3012,9430003014078,新規,0,2022-07-11,2022-07-11,合同会社ユートピア,,合同会社,北海道,札幌市西区,山の手一条９丁目４番１０号ローヤルハイツ山の手３０５号,,01,107,0630001,,,,,,,2022-07-11,1,,,,,ユートピア,0
3013,9430003014094,新規,0,2022-07-11,2022-07-11,合同会社Ｍａｖｅｒｉｃｋ　Ｂａｋｅｒ,,合同会社,北海道,石狩市,緑苑台東一条１丁目５８番地,,01,235,0613221,,,,,,,2022-07-11,1,,,,,マーベリックベイカー,0
3014,9440001009112,新規,0,2022-07-11,2022-07-11,株式会社盛栄商事,,株式会社,北海道,二海郡八雲町,花浦８１番地１９,,01,346,0493122,,,,,,,2022-07-11,1,,,,,セイエイショウジ,0
3016,9450001013740,新規,0,2022-07-11,2022-07-11,ＳＴホールディングス株式会社,,株式会社,北海道,枝幸郡枝幸町,北浜町３１４番地３,,01,514,0985826,,,,,,,2022-07-11,1,,,,,エスティホールディングス,0
3025,9500001024336,新規,0,2022-07-11,2022-07-11,株式会社Ｗｅｇ,,株式会社,愛媛県,伊予郡松前町,大字西高柳２４０番地７,,38,401,7913132,,,,,,,2022-07-11,1,,,,,ヴェーク,0
3026,9500001024344,新規,0,2022-07-11,2022-07-11,株式会社トピシエル,,株式会社,愛媛県,伊予郡砥部町,重光１６５番地１,,38,402,7912112,,,,,,,2022-07-11,1,,,,,,0
3027,9700150110866,新規,0,2022-07-11,2022-07-11,Ｍ．Ｍ．Ａ．Ｓｔｏｒｅ,,外国会社等,埼玉県,熊谷市,上之６３０－５カーサ上之２０６,,11,202,3600012,ネパール、カトマンズ、ガネシュトール、カトマンズ副都心の４,,,,,,2022-07-11,1,,,,,エムエムエーストア,0
3028,9700150110899,新規,0,2022-07-11,2022-07-11,ＫＨＡＤＫＡ　＆　ＳＯＮＳ　ＰＶＴ．ＬＴＤ,,外国会社等,東京都,渋谷区,笹塚１丁目５９番９－６０３号,,13,113,1510073,ネパール国、カトマンズ郡、家番号１６－５８、カトマンズ大都市２９区,,,,,,2022-07-11,1,,,,,カドウカアンドソンズプライベートリミテツド,0
