sequenceNumber,corporateNumber,process,correct,updateDate,changeDate,name,nameImageId,kind,prefectureName,cityName,streetNumber,addressImageId,prefectureCode,cityCode,postCode,addressOutside,addressOutsideImageId,closeDate,closeCause,successorCorporateNumber,changeCause,assignmentDate,latest,enName,enPrefectureName,enCityName,enAddressOutside,furigana,hihyoji
3,1010001130414,登記記録の閉鎖等,0,2024-06-05,2024-05-22,株式会社グリーンテックソリューション,,株式会社,東京都,港区,赤坂４丁目８番１９号,,13,103,1070052,,,2024-05-22,清算の結了等,,,2015-10-05,1,,,,,グリーンテックソリューション,0
14,1010005010587,登記記録の閉鎖等,0,2024-06-05,2024-05-31,医療法人社団医王会,,その他の設立登記法人,東京都,板橋区,前野町６丁目２９番１３号,,13,119,1740063,,,2024-05-31,清算の結了等,,,2015-10-05,1,,,,,イオウカイ,0
15,1010005032945,登記記録の閉鎖等,0,2024-06-05,2024-05-31,常総西特定目的会社,,その他の設立登記法人,東京都,港区,元赤坂１丁目１番８号株式会社赤坂国際会計内,,13,103,1070051,,,2024-05-31,清算の結了等,,,2021-02-15,1,,,,,ジョウソウニシ,0
25,1010401088764,登記記録の閉鎖等,0,2024-06-05,2024-05-22,Ｃｏｒｂｉｓ　Ｅｎｔｅｒｔａｉｎｍｅｎｔ　Ｊａｐａｎ株式会社,,株式会社,東京都,港区,元赤坂１丁目２番７号赤坂Ｋタワー,,13,103,1070051,,,2024-05-22,清算の結了等,,,2015-10-05,1,,,,,コービスエンターテインメントジャパン,0
41,1010601036259,登記記録の閉鎖等,0,2024-06-05,2024-06-03,株式会社ＰＰＩ,,株式会社,群馬県,みどり市,笠懸町阿左美５８４－６,,10,212,3792311,,,2024-06-03,清算の結了等,,,2015-10-05,1,,,,,ピーピーアイ,0
48,1010902004773,登記記録の閉鎖等,0,2024-06-05,2024-06-03,有限会社キョーワ金型,,有限会社,東京都,世田谷区,南烏山６丁目１２番１－７０３号,,13,112,1570062,,,2024-06-03,清算の結了等,,,2015-10-05,1,,,,,,0
52,1011001140097,登記記録の閉鎖等,0,2024-06-05,2024-05-27,ＫＭＤ株式会社,,株式会社,東京都,渋谷区,神宮前６丁目２３番４号桑野ビル２階,,13,113,1500001,,,2024-05-27,合併による解散等,8010401176802,令和６年５月１日東京都港区北青山一丁目３番１号アールキューブ青山３階ＫＭＤ株式会社（8010401176802）に合併し解散,2021-04-28,1,,,,,ケイエムディー,0
65,1011702015003,登記記録の閉鎖等,0,2024-06-05,2024-05-31,有限会社サムプロセス,,有限会社,東京都,江戸川区,中央４丁目２５番２３号アフェール・Ｊ新小岩３０１号,,13,123,1320021,,,2024-05-31,清算の結了等,,,2015-10-05,1,,,,,サムプロセス,0
74,1013201001376,登記記録の閉鎖等,0,2024-06-05,2024-05-15,株式会社環境企画,,株式会社,東京都,目黒区,鷹番３丁目１９番２号,,13,110,1520004,,,2024-05-15,清算の結了等,,,2015-10-05,1,,,,,カンキョウキカク,0
76,1013301028955,登記記録の閉鎖等,0,2024-06-05,2024-05-27,株式会社大翔,,株式会社,東京都,豊島区,西池袋４丁目２７番１０－１０２号,,13,116,1710021,,,2024-05-27,清算の結了等,,,2015-10-05,1,,,,,ヤマト,0
77,1013301032676,登記記録の閉鎖等,0,2024-06-05,2024-05-27,株式会社ネッチ,,株式会社,東京都,豊島区,池袋３丁目３４番７号,,13,116,1710014,,,2024-05-27,清算の結了等,,,2015-10-05,1,,,,,ネッチ,0
87,1021001025644,登記記録の閉鎖等,0,2024-06-05,2024-06-03,東横運送興業株式会社,,株式会社,神奈川県,大和市,下鶴間２９９８番地の１２８,,14,213,2420001,,,2024-06-03,清算の結了等,,,2015-10-05,1,,,,,トウヨコウンソウコウギョウ,0
88,1021001029570,登記記録の閉鎖等,0,2024-06-05,2024-06-03,株式会社東海,,株式会社,神奈川県,海老名市,柏ケ谷６００番地の１０,,14,215,2430402,,,2024-06-03,清算の結了等,,,2015-10-05,1,,,,,トウカイ,0
104,1030001040405,登記記録の閉鎖等,0,2024-06-05,2024-05-31,ササダコーポレーション株式会社,,株式会社,埼玉県,八潮市,大字大原４９１番地２スウィートコート八潮弐番館４０１号,,11,234,3400825,,,2024-05-31,清算の結了等,,,2015-10-05,1,,,,,ササダコーポレーション,0
124,1050003003192,登記記録の閉鎖等,0,2024-06-05,2024-05-31,禹陽合同会社,,合同会社,茨城県,かすみがうら市,坂８７２番地－Ａ,,08,230,3000214,,,2024-05-31,清算の結了等,,,2016-02-26,1,,,,,ウヨウ,0
129,1070001039063,登記記録の閉鎖等,0,2024-06-05,2024-05-30,株式会社ＫＯＫＯ,,株式会社,群馬県,高崎市,栄町３番１１号高崎バナーズビル４Ｆ,,10,202,3700841,,,2024-05-30,清算の結了等,,,2022-03-23,1,,,,,ココ,0
134,1080101007431,登記記録の閉鎖等,0,2024-06-05,2024-05-31,株式会社アキラ製作,,株式会社,静岡県,田方郡函南町,柏谷２４２番地の１,,22,325,4190112,,,2024-05-31,清算の結了等,,,2015-10-05,1,,,,,アキラセイサク,0
138,1100002029605,登記記録の閉鎖等,0,2024-06-05,2024-05-28,有限会社三友製作所,,有限会社,長野県,諏訪郡富士見町,落合１００２８番地,,20,362,3990214,,,2024-05-28,清算の結了等,,,2015-10-05,1,,,,,ミツトモセイサクショ,0
144,1120001135609,登記記録の閉鎖等,0,2024-06-05,2024-06-03,株式会社システムズブレイン,,株式会社,大阪府,大阪市北区,梅田３丁目３番２０号,,27,127,5300001,,,2024-06-03,合併による解散等,5120001048484,令和６年６月１日大阪市北区梅田三丁目３番２０号レイシスソフトウエアーサービス株式会社（5120001048484）に合併し解散,2015-10-05,1,,,,,システムズブレイン,0
166,1120101025271,登記記録の閉鎖等,0,2024-06-05,2024-05-30,伸交運輸株式会社,,株式会社,大阪府,松原市,天美我堂３丁目２６５番地,,27,217,5800026,,,2024-05-30,清算の結了等,,,2015-10-05,1,,,,,シンコウウンユ,0
182,1140001040427,登記記録の閉鎖等,0,2024-06-05,2024-06-03,佐用自動車株式会社,,株式会社,兵庫県,佐用郡佐用町,佐用２３２番地１,,28,501,6795301,,,2024-06-03,合併による解散等,8140001039297,令和６年６月１日兵庫県佐用郡佐用町力万６１５番地株式会社小林モータース（8140001039297）に合併し解散,2015-10-05,1,,,,,サヨウジドウシャ,0
185,1140001085141,登記記録の閉鎖等,0,2024-06-05,2024-05-31,中棉工業株式会社,,株式会社,兵庫県,淡路市,志筑３２６３番地,,28,226,6562131,,,2024-05-31,清算の結了等,,,2015-10-05,1,,,,,チュウメンコウギョウ,0
193,1140003008810,登記記録の閉鎖等,0,2024-06-05,2024-05-31,合同会社暁,,合同会社,兵庫県,神戸市北区,若葉台３丁目６番２８号,,28,109,6511143,,,2024-05-31,清算の結了等,,,2015-10-05,1,,,,,アカツキ,0
195,1150001005949,登記記録の閉鎖等,0,2024-06-05,2024-06-03,轟産業株式会社,,株式会社,奈良県,大和郡山市,白土町２１８の４,,29,203,6391112,,,2024-06-03,合併による解散等,5150001017874,令和６年６月１日奈良県大和郡山市白土町２１８番地４トドロキスポーツマネージメント株式会社（5150001017874）に合併し解散,2015-10-05,1,,,,,トドロキサンギョウ,0
204,1180001070255,登記記録の閉鎖等,0,2024-06-05,2024-05-31,株式会社花もめんインターナショナル,,株式会社,愛知県,名古屋市名東区,香流２丁目９０４番地,,23,115,4650005,,,2024-05-31,清算の結了等,,,2015-10-05,1,,,,,ハナモメンインターナショナル,0
213,1200002018985,登記記録の閉鎖等,0,2024-06-05,2024-06-03,有限会社西部精工,,有限会社,岐阜県,関市,神野３０３６番地,,21,205,5013203,,,2024-06-03,清算の結了等,,,2015-10-05,1,,,,,セイブセイコウ,0
224,1240002015780,登記記録の閉鎖等,0,2024-06-05,2024-05-31,有限会社丸内製麺所,,有限会社,広島県,広島市中区,江波南２丁目１１番３０号,,34,101,7300835,,,2024-05-31,清算の結了等,,,2015-10-05,1,,,,,マルウチセイメンジョ,0
252,1320002009799,登記記録の閉鎖等,0,2024-06-05,2024-05-31,有限会社ひまわり,,有限会社,大分県,大分市,大字上宗方１０５２番地の８,,44,201,8701152,,,2024-05-31,清算の結了等,,,2015-10-05,1,,,,,,0
253,1320002020748,登記記録の閉鎖等,0,2024-06-05,2024-05-31,有限会社スタート,,有限会社,大分県,中津市,日ノ出町一丁目３５０番地の１２,,44,203,8710034,,,2024-05-31,清算の結了等,,,2015-10-05,1,,,,,,0
256,1340005008045,登記記録の閉鎖等,0,2024-06-05,2024-06-03,鹿児島県家電販売協同組合,,その他の設立登記法人,鹿児島県,大島郡与論町,大字麦屋１７８番１号,,46,535,8919300,,,2024-06-03,清算の結了等,,,2015-10-05,1,,,,,カゴシマケンカデンハンバイ,0
291,1430005009868,登記記録の閉鎖等,0,2024-06-05,2024-06-03,医療法人社団西里内科循環器科医院,,その他の設立登記法人,北海道,室蘭市,高砂町２丁目３０番６号,,01,205,0500072,,,2024-06-03,清算の結了等,,,2015-10-05,1,,,,,ニシザトナイカジュンカンキカイイン,0
292,1440001007643,登記記録の閉鎖等,0,2024-06-05,2024-05-31,ファベンシー・ビジネス・コンサルティング株式会社,,株式会社,北海道,函館市,美原５丁目４７番７号,,01,202,0410806,,,2024-05-31,清算の結了等,,,2015-10-05,1,,,,,ファベンシービジネスコンサルティング,0
298,1450002000027,登記記録の閉鎖等,0,2024-06-05,2024-05-29,有限会社葵運輸,,有限会社,北海道,上川郡当麻町,五条東３丁目９番８号,,01,454,0781315,,,2024-05-29,清算の結了等,,,2015-10-05,1,,,,,アオイウンユ,0
317,2010001161805,登記記録の閉鎖等,0,2024-06-05,2024-05-27,株式会社クリアアップ,,株式会社,東京都,文京区,大塚５丁目２８番８号１０１,,13,105,1120012,,,2024-05-27,清算の結了等,,,2015-10-05,1,,,,,クリアアップ,0
321,2010001220676,登記記録の閉鎖等,0,2024-06-05,2024-05-27,株式会社エッジ,,株式会社,東京都,中央区,日本橋２丁目２番３号ＲＩＳＨＥビル４階,,13,102,1030027,,,2024-05-27,清算の結了等,,,2021-08-25,1,,,,,エッジ,0
328,2010401148088,登記記録の閉鎖等,0,2024-06-05,2024-05-24,ペテューム株式会社,,株式会社,東京都,千代田区,丸の内２丁目３番２号郵船ビルディング１階,,13,101,1000005,,,2024-05-24,清算の結了等,,,2019-09-18,1,,,,,ペテューム,0
332,2010402035269,登記記録の閉鎖等,0,2024-06-05,2024-05-31,有限会社青鈴書房,,有限会社,東京都,北区,神谷１丁目２番３－９０３号,,13,117,1150043,,,2024-05-31,清算の結了等,,,2015-10-05,1,,,,,セイリンショボウ,0
338,2010502020708,登記記録の閉鎖等,0,2024-06-05,2024-05-31,有限会社宏和,,有限会社,東京都,北区,神谷１丁目２番３－９０３号,,13,117,1150043,,,2024-05-31,清算の結了等,,,2015-10-05,1,,,,,コウワ,0
347,2010801022223,登記記録の閉鎖等,0,2024-06-05,2024-05-30,株式会社西糀谷,,株式会社,東京都,大田区,西糀谷３丁目１６番５号,,13,111,1440034,,,2024-05-30,清算の結了等,,,2015-10-05,1,,,,,ニシコウジヤ,0
373,2011802015892,登記記録の閉鎖等,0,2024-06-05,2024-05-31,有限会社鶴屋,,有限会社,東京都,足立区,舎人１丁目１５番８号,,13,121,1210831,,,2024-05-31,清算の結了等,,,2015-10-05,1,,,,,ツルヤ,0
385,2013201006300,登記記録の閉鎖等,0,2024-06-05,2024-05-15,ランタサルミジャパン株式会社,,株式会社,東京都,目黒区,鷹番３丁目１９番２号,,13,110,1520004,,,2024-05-15,清算の結了等,,,2015-10-05,1,,,,,ランタサルミジャパン,0
390,2020001060469,登記記録の閉鎖等,0,2024-06-05,2024-05-27,株式会社エステート・タケタ,,株式会社,神奈川県,横浜市中区,本牧町１丁目１０９番地４平田ビル１Ｆ,,14,104,2310806,,,2024-05-27,清算の結了等,,,2015-10-05,1,,,,,エステートタケタ,0
407,2021002023002,登記記録の閉鎖等,0,2024-06-05,2024-06-03,有限会社南峰工務店,,有限会社,神奈川県,相模原市南区,相模台６丁目１６番１２号,,14,153,2520321,,,2024-06-03,清算の結了等,,,2015-10-05,1,,,,,ナンポウコウムテン,0
425,2030002086082,登記記録の閉鎖等,0,2024-06-05,2024-05-31,有限会社サンエン,,有限会社,埼玉県,越谷市,川柳町３丁目２２３番地６,,11,222,3430827,,,2024-05-31,清算の結了等,,,2015-10-05,1,,,,,サンエン,0
431,2040002036004,登記記録の閉鎖等,0,2024-06-05,2024-05-27,有限会社はまだ薬局,,有限会社,千葉県,市川市,鬼高２丁目９番１０号,,12,203,2720015,,,2024-05-27,清算の結了等,,,2015-10-05,1,,,,,ハマダヤッキョク,0
432,2040003021054,登記記録の閉鎖等,0,2024-06-05,2024-05-27,合同会社おおたかピクルス,,合同会社,千葉県,松戸市,幸谷８６１番地の２,,12,207,2700017,,,2024-05-27,清算の結了等,,,2022-10-18,1,,,,,オオタカピクルス,0
448,2080001016309,登記記録の閉鎖等,0,2024-06-05,2024-05-31,エイアンドティライフ株式会社,,株式会社,静岡県,藤枝市,新南新屋１８番６号,,22,214,4260073,,,2024-05-31,清算の結了等,,,2015-10-05,1,,,,,エイアンドティライフ,0
459,2080405001419,登記記録の閉鎖等,0,2024-06-05,2024-05-27,天理教雄踏分教會,,その他の設立登記法人,静岡県,浜松市中央区,雄踏町宇布見７８１４番地,,22,138,4310102,,,2024-05-27,合併による解散等,3080405000964,令和６年５月２７日静岡県浜松市中央区根洗町１１５５番地天理教濱松分教会（3080405000964）に合併し解散,2015-10-05,1,,,,,テンリキョウユウトウブンキョウカイ,0
480,2120002079630,登記記録の閉鎖等,0,2024-06-05,2024-06-03,有限会社後藤スクリーン印刷,,有限会社,大阪府,門真市,三ツ島５丁目１３番５号,,27,223,5710015,,,2024-06-03,清算の結了等,,,2015-10-05,1,,,,,ゴトウスクリーンインサツ,0
504,2140001064912,登記記録の閉鎖等,0,2024-06-05,2024-05-31,株式会社十二所土地,,株式会社,兵庫県,姫路市,安田４丁目４９番地１３シャトー睦１０３,,28,201,6700955,,,2024-05-31,合併による解散等,4140001129374,令和６年５月３１日兵庫県姫路市綿町１４６ｃｏｎｔｉｎｅｎｔ株式会社（4140001129374）に合併し解散,2015-10-05,1,,,,,ジュウニショトチ,0
508,2140001094257,登記記録の閉鎖等,0,2024-06-05,2024-05-31,株式会社ノバハウス,,株式会社,兵庫県,姫路市,城北本町５番２７号,,28,201,6700884,,,2024-05-31,清算の結了等,,,2015-10-05,1,,,,,ノバハウス,0
519,2160001022174,登記記録の閉鎖等,0,2024-06-05,2024-06-03,株式会社Ｆ－ＢＵＲＳＴ,,株式会社,滋賀県,湖南市,菩提寺１０３２番地４,,25,211,5203242,,,2024-06-03,清算の結了等,,,2019-12-25,1,,,,,エフバースト,0
531,2210002012375,登記記録の閉鎖等,0,2024-06-05,2024-05-31,有限会社ミルクショップイノウエ,,有限会社,福井県,越前市,本多３丁目４番５号,,18,209,9150811,,,2024-05-31,清算の結了等,,,2015-10-05,1,,,,,ミルクショップイノウエ,0
544,2240002030069,登記記録の閉鎖等,0,2024-06-05,2024-05-31,三晃電工有限会社,,有限会社,広島県,三次市,十日市中３丁目２番１号,,34,209,7280012,,,2024-05-31,清算の結了等,,,2015-10-05,1,,,,,サンコウデンコウ,0
554,2290001028852,登記記録の閉鎖等,0,2024-06-05,2024-05-13,株式会社ＵＧＬＹ,,株式会社,福岡県,福岡市中央区,今泉２丁目３番４１号,,40,133,8100021,,,2024-05-13,清算の結了等,,,2015-10-05,1,,,,,アグリー,0
555,2290001040287,登記記録の閉鎖等,0,2024-06-05,2024-05-29,マツバハウス株式会社,,株式会社,東京都,豊島区,駒込２丁目１２番１１号古川ビル１階,,13,116,1700003,,,2024-05-29,清算の結了等,,,2015-10-05,1,,,,,マツバハウス,0
560,2310002007654,登記記録の閉鎖等,0,2024-06-05,2024-05-30,有限会社オート・タックス,,有限会社,長崎県,西彼杵郡時津町,久留里郷５番地１,,42,308,8512107,,,2024-05-30,清算の結了等,,,2015-10-05,1,,,,,オートタックス,0
563,2320002005335,登記記録の閉鎖等,0,2024-06-05,2024-06-03,有限会社バーディ企画,,有限会社,大分県,大分市,大字下郡１４６３番地の３,,44,201,8700951,,,2024-06-03,清算の結了等,,,2015-10-05,1,,,,,バーディーキカク,0
577,2380002011773,登記記録の閉鎖等,0,2024-06-05,2024-05-24,有限会社フィールド,,有限会社,福島県,郡山市,喜久田町卸１丁目１－１,,07,203,9630547,,,2024-05-24,合併による解散等,5380001017397,令和６年５月２４日福島県会津若松市桜町１３２番１０株式会社グリーセス（5380001017397）に合併し解散,2015-10-05,1,,,,,フィールド,0
636,3010003038117,登記記録の閉鎖等,0,2024-06-05,2024-05-28,ジェネシスツー合同会社,,合同会社,東京都,千代田区,丸の内３丁目１番１号東京共同会計事務所内,,13,101,1000005,,,2024-05-28,清算の結了等,,,2022-07-12,1,,,,,ジェネシスツー,0
665,3010601049606,登記記録の閉鎖等,0,2024-06-05,2024-06-03,株式会社Ｒｅｊｕｖｅｎａｔｉｏｎ,,株式会社,東京都,江東区,東陽１丁目３８－１４セジョリ東陽町６０４号,,13,108,1350016,,,2024-06-03,合併による解散等,2010601040350,令和６年６月１日東京都江東区東陽１－３８－１４セジョリ東陽町６０４号株式会社沖村総合技術研究所（2010601040350）に合併し解散,2016-04-26,1,,,,,リジュベネーション,0
681,3011003014355,登記記録の閉鎖等,0,2024-06-05,2024-05-20,たなか情報合同会社,,合同会社,東京都,渋谷区,道玄坂１丁目１０番８号渋谷道玄坂東急ビル２Ｆ－Ｃ,,13,113,1500043,,,2024-05-20,清算の結了等,,,2022-03-18,1,,,,,タナカジョウホウ,0
709,3011802012699,登記記録の閉鎖等,0,2024-06-05,2024-05-31,有限会社児玉興業,,有限会社,東京都,足立区,谷在家２丁目１６番１－２０２号,,13,121,1230863,,,2024-05-31,清算の結了等,,,2015-10-05,1,,,,,,0
753,3040002101260,登記記録の閉鎖等,0,2024-06-05,2024-05-27,有限会社吉原商店,,有限会社,千葉県,鴨川市,浜荻１３７６番地,,12,223,2995504,,,2024-05-27,清算の結了等,,,2015-10-05,1,,,,,ヨシワラショウテン,0
765,3050002002094,登記記録の閉鎖等,0,2024-06-05,2024-06-03,有限会社田昌,,有限会社,茨城県,水戸市,河和田１丁目１６５３番地の８,,08,201,3114152,,,2024-06-03,清算の結了等,,,2015-10-05,1,,,,,タショウ,0
766,3050003001277,登記記録の閉鎖等,0,2024-06-05,2024-05-31,合同会社奈良質店,,合同会社,茨城県,古河市,本町１丁目１番３３号,,08,204,3060023,,,2024-05-31,清算の結了等,,,2015-10-05,1,,,,,ナラシチテン,0
773,3070001036026,登記記録の閉鎖等,0,2024-06-05,2024-05-30,株式会社ケイツー,,株式会社,群馬県,富岡市,富岡３２９番地４,,10,210,3702316,,,2024-05-30,清算の結了等,,,2019-08-15,1,,,,,ケイツー,0
780,3080101007132,登記記録の閉鎖等,0,2024-06-05,2024-06-03,株式会社ベストプラン,,株式会社,静岡県,御殿場市,深沢１２４８番地の３１,,22,215,4120023,,,2024-06-03,清算の結了等,,,2015-10-05,1,,,,,ベストプラン,0
785,3080405005435,登記記録の閉鎖等,0,2024-06-05,2024-05-27,天理教浜勇分教会,,その他の設立登記法人,静岡県,磐田市,大久保４２番地３３,,22,211,4380002,,,2024-05-27,合併による解散等,3080405000964,令和６年５月２７日静岡県浜松市中央区根洗町１１５５番地天理教濱松分教会（3080405000964）に合併し解散,2015-10-05,1,,,,,テンリキョウハマユウブンキョウカイ,0
791,3100005009817,登記記録の閉鎖等,0,2024-06-05,2024-05-14,八幡社,,その他の設立登記法人,長野県,飯田市,伊豆木５２９１番地４,,20,205,3992434,,,2024-05-14,合併による解散等,5100005009807,令和６年５月１４日長野県飯田市伊豆木３５４４番地八幡宮（5100005009807）に合併し解散,2015-10-05,1,,,,,ハチマンシャ,0
797,3120001254638,登記記録の閉鎖等,0,2024-06-05,2024-06-03,株式会社ＦＯＵＲ　ＣＡＰＩＴＡＬ,,株式会社,大阪府,大阪市中央区,上町Ｂ番８号クリエイト上町ビル２階,,27,128,5400005,,,2024-06-03,清算の結了等,,,2023-05-08,1,,,,,フォーキャピタル,0
804,3120002028462,登記記録の閉鎖等,0,2024-06-05,2024-06-03,有限会社丸久産業,,有限会社,大阪府,大阪市淀川区,三津屋北１丁目９番１８号,,27,123,5320032,,,2024-06-03,清算の結了等,,,2015-10-05,1,,,,,マルキュウサンギョウ,0
852,3180003000555,登記記録の閉鎖等,0,2024-06-05,2024-05-31,合資会社松原メッキ工業所,,合資会社,愛知県,名古屋市港区,稲永５丁目１２番７号,,23,111,4550842,,,2024-05-31,清算の結了等,,,2015-10-05,1,,,,,マツバラメッキコウギョウショ,0
857,3190001012964,登記記録の閉鎖等,0,2024-06-05,2024-06-03,株式会社サンアイ,,株式会社,三重県,いなべ市,員弁町大泉新田４５番地の３,,24,214,5110217,,,2024-06-03,清算の結了等,,,2015-10-05,1,,,,,サンアイ,0
869,3220001017068,登記記録の閉鎖等,0,2024-06-05,2024-06-03,株式会社モズコレクション,,株式会社,石川県,野々市市,押野１丁目３８０番地,,17,212,9218802,,,2024-06-03,清算の結了等,,,2015-10-05,1,,,,,,0
876,3240001029086,登記記録の閉鎖等,0,2024-06-05,2024-06-03,株式会社アクア,,株式会社,広島県,廿日市市,大野中央３丁目１番２４号,,34,213,7390437,,,2024-06-03,清算の結了等,,,2015-10-05,1,,,,,,0
877,3240001030449,登記記録の閉鎖等,0,2024-06-05,2024-05-31,株式会社クラフト桑田,,株式会社,広島県,福山市,駅家町大字万能倉１２４１番地の５,,34,207,7201131,,,2024-05-31,清算の結了等,,,2015-10-05,1,,,,,クラフトクワダ,0
892,3290001082287,登記記録の閉鎖等,0,2024-06-05,2024-05-14,株式会社Ｈｏｍｉｎｅｓ　ｃｏｎｎｅｃｔ,,株式会社,福岡県,糟屋郡粕屋町,花ヶ浦１丁目７番１号,,40,349,8112310,,,2024-05-14,清算の結了等,,,2018-08-03,1,,,,,ホーミネスコネクト,0
898,3320002005870,登記記録の閉鎖等,0,2024-06-05,2024-06-03,有限会社藤蔵建設,,有限会社,大分県,大分市,岩田町３丁目１番１号,,44,201,8700936,,,2024-06-03,清算の結了等,,,2015-10-05,1,,,,,,0
900,3340001004319,登記記録の閉鎖等,0,2024-06-05,2024-05-31,株式会社明和住建,,株式会社,鹿児島県,鹿児島市,星ヶ峯２丁目３４番１１号,,46,201,8910102,,,2024-05-31,清算の結了等,,,2015-10-05,1,,,,,メイワジュウケン,0
909,3350001014928,登記記録の閉鎖等,0,2024-06-05,2024-06-03,株式会社宮崎実業,,株式会社,茨城県,北茨城市,中郷町石岡１０５６番地,,08,215,3191558,,,2024-06-03,清算の結了等,,,2017-09-12,1,,,,,ミヤザキジツギョウ,0
925,3430002028282,登記記録の閉鎖等,0,2024-06-05,2024-06-03,有限会社山田商事,,有限会社,北海道,札幌市手稲区,富丘一条４丁目５番２８－１０３号,,01,109,0060011,,,2024-06-03,合併による解散等,7430001033172,令和６年６月１日札幌市北区北二十五条西八丁目２番２４号株式会社サンクール（7430001033172）に合併し解散,2015-10-05,1,,,,,ヤマダショウジ,0
926,3430003015957,登記記録の閉鎖等,0,2024-06-05,2024-05-30,合同会社山本工業,,合同会社,北海道,苫小牧市,のぞみ町１丁目５番５号,,01,213,0591272,,,2024-05-30,清算の結了等,,,2024-02-16,1,,,,,ヤマモトコウギョウ,0
935,3480001000493,登記記録の閉鎖等,0,2024-06-05,2024-05-31,北島ビルト株式会社,,株式会社,徳島県,徳島市,昭和町８丁目２７番地,,36,201,7700942,,,2024-05-31,合併による解散等,2480001000503,令和６年５月３１日徳島市昭和町八丁目２７番地北島産業株式会社（2480001000503）に合併し解散,2015-10-05,1,,,,,キタジマビルト,0
961,4010001099234,登記記録の閉鎖等,0,2024-06-05,2024-06-03,株式会社アーク・システムマネジメント,,株式会社,東京都,台東区,台東２丁目１８番８号,,13,106,1100016,,,2024-06-03,清算の結了等,,,2015-10-05,1,,,,,アークシステムマネジメント,0
963,4010001200998,登記記録の閉鎖等,0,2024-06-05,2024-06-03,株式会社ゴールデンゲート,,株式会社,東京都,江東区,南砂４丁目５番２１号,,13,108,1360076,,,2024-06-03,清算の結了等,,,2019-05-22,1,,,,,ゴールデンゲート,0
969,4010003036648,登記記録の閉鎖等,0,2024-06-05,2024-05-22,合同会社円海山,,合同会社,東京都,港区,北青山１丁目２番３号,,13,103,1070061,,,2024-05-22,清算の結了等,,,2022-01-04,1,,,,,エンカイザン,0
970,4010005030649,登記記録の閉鎖等,0,2024-06-05,2024-05-31,一般社団法人ウニクス秩父,,その他の設立登記法人,東京都,中央区,日本橋２丁目５番１号,,13,102,1030027,,,2024-05-31,清算の結了等,,,2019-08-26,1,,,,,ウニクスチチブ,0
990,4010602010821,登記記録の閉鎖等,0,2024-06-05,2024-05-31,有限会社サンライト印刷,,有限会社,東京都,江東区,住吉１丁目８番９号,,13,108,1350002,,,2024-05-31,清算の結了等,,,2015-10-05,1,,,,,サンライトインサツ,0
992,4010603006232,登記記録の閉鎖等,0,2024-06-05,2024-05-30,合同会社ダンデライオン,,合同会社,東京都,江東区,豊洲３丁目５番３－８３７号,,13,108,1350061,,,2024-05-30,清算の結了等,,,2016-03-18,1,,,,,ダンデライオン,0
998,4010901022971,登記記録の閉鎖等,0,2024-06-05,2024-06-03,株式会社ＲＥＰＲＡＮＡ,,株式会社,東京都,世田谷区,太子堂２丁目１６番８号,,13,112,1540004,,,2024-06-03,清算の結了等,,,2015-10-05,1,,,,,リプラーナ,0
1020,4011502004987,登記記録の閉鎖等,0,2024-06-05,2024-06-04,有限会社平野電設,,有限会社,東京都,北区,王子３丁目３番１２号,,13,117,1140002,,,2024-06-04,清算の結了等,,,2015-10-05,1,,,,,ヒラノデンセツ,0
1034,4013201005052,登記記録の閉鎖等,0,2024-06-05,2024-05-15,株式会社フィンランドジャパンハウス,,株式会社,東京都,目黒区,鷹番３丁目１９番２号,,13,110,1520004,,,2024-05-15,清算の結了等,,,2015-10-05,1,,,,,フィンランドジャパンハウス,0
1036,4013402001692,登記記録の閉鎖等,0,2024-06-05,2024-05-30,有限会社相澤産業,,有限会社,東京都,多摩市,和田７６１番地,,13,224,2060001,,,2024-05-30,清算の結了等,,,2015-10-05,1,,,,,アイザワサンギョウ,0
1045,4020003016269,登記記録の閉鎖等,0,2024-06-05,2024-05-22,株式会社ｓｗｉｔｃｈ,,株式会社,東京都,港区,新橋４丁目２４番３号エムエフ新橋５０３号室,,13,103,1050004,,,2024-05-22,清算の結了等,,,2019-06-25,1,,,,,スイッチ,0
1054,4030001001767,登記記録の閉鎖等,0,2024-06-05,2024-05-31,株式会社カイネート,,株式会社,埼玉県,さいたま市北区,植竹町１丁目８２０番６,,11,102,3310813,,,2024-05-31,清算の結了等,,,2015-10-05,1,,,,,カイネート,0
1060,4030002079407,登記記録の閉鎖等,0,2024-06-05,2024-05-30,有限会社アグリビジネスコンサルティング,,有限会社,埼玉県,川越市,新富町１丁目９番地１４（スヴェニール本川越１０２号室）,,11,201,3500043,,,2024-05-30,清算の結了等,,,2015-10-05,1,,,,,アグリビジネスコンサルティング,0
1062,4030003019956,登記記録の閉鎖等,0,2024-06-05,2024-05-31,合同会社モンテ不動産,,合同会社,埼玉県,熊谷市,別府５丁目１７番地,,11,202,3600856,,,2024-05-31,清算の結了等,,,2022-08-10,1,,,,,モンテフドウサン,0
1065,4040001128477,登記記録の閉鎖等,0,2024-06-05,2024-05-27,ＥＣＯＩＴ株式会社,,株式会社,千葉県,市原市,五井２３３９番地４階,,12,219,2900056,,,2024-05-27,清算の結了等,,,2023-05-19,1,,,,,エコアイティ,0
1079,4060001018858,登記記録の閉鎖等,0,2024-06-05,2024-05-31,株式会社タナカ,,株式会社,栃木県,足利市,通６丁目３１４８番地,,09,202,3260814,,,2024-05-31,清算の結了等,,,2015-10-05,1,,,,,タナカ,0
1107,4120001191104,登記記録の閉鎖等,0,2024-06-05,2024-05-30,株式会社ＫＤＴ,,株式会社,大阪府,大阪市中央区,備後町２丁目６番８号サンライズビル大阪１３階,,27,128,5410051,,,2024-05-30,合併による解散等,1120001198713,令和６年５月２４日大阪市北区堂島一丁目５番１７号株式会社ＳＥＲＩＯホールディングス（1120001198713）に合併し解散,2015-10-05,1,,,,,ケイディーティ,0
1119,4120002076436,登記記録の閉鎖等,0,2024-06-05,2024-06-03,有限会社ダミアン,,有限会社,大阪府,寝屋川市,大利町８番２３号,,27,215,5720048,,,2024-06-03,清算の結了等,,,2015-10-05,1,,,,,ダミアン,0
1120,4120003008421,登記記録の閉鎖等,0,2024-06-05,2024-06-03,合同会社音,,合同会社,大阪府,枚方市,杉山手３丁目２１番１号,,27,210,5730118,,,2024-06-03,清算の結了等,,,2015-10-05,1,,,,,オト,0
1139,4140001039268,登記記録の閉鎖等,0,2024-06-05,2024-06-03,チエリー佐用販売株式会社,,株式会社,兵庫県,佐用郡佐用町,円応寺２０７番地の１,,28,501,6795300,,,2024-06-03,合併による解散等,8140001039297,令和６年６月１日兵庫県佐用郡佐用町力万６１５番地株式会社小林モータース（8140001039297）に合併し解散,2015-10-05,1,,,,,チエリーサヨウハンバイ,0
1150,4140003012009,登記記録の閉鎖等,0,2024-06-05,2024-06-03,合同会社ウィーンズ,,合同会社,兵庫県,神戸市灘区,赤松町２丁目３番２９号,,28,102,6570061,,,2024-06-03,清算の結了等,,,2017-03-23,1,,,,,ウィーンズ,0
1187,4240001042419,登記記録の閉鎖等,0,2024-06-05,2024-05-31,ＯＮＯ設備株式会社,,株式会社,広島県,福山市,入船町２丁目１０番６号,,34,207,7200801,,,2024-05-31,清算の結了等,,,2015-10-05,1,,,,,オノセツビ,0
1212,4320002020051,登記記録の閉鎖等,0,2024-06-05,2024-05-31,有限会社玖珠建材,,有限会社,大分県,玖珠郡玖珠町,大字山田２６９４番地の１８,,44,462,8794412,,,2024-05-31,清算の結了等,,,2015-10-05,1,,,,,,0
1232,4400001005557,登記記録の閉鎖等,0,2024-06-05,2024-05-23,ひまわり温泉株式会社,,株式会社,岩手県,花巻市,石鳥谷町松林寺第３地割８１番地１０,,03,205,0283182,,,2024-05-23,清算の結了等,,,2015-10-05,1,,,,,ヒマワリオンセン,0
1239,4420005003893,登記記録の閉鎖等,0,2024-06-05,2024-05-21,社会福祉法人すわん,,その他の設立登記法人,青森県,五所川原市,脇元磯辺３６５番地１,,02,205,0370405,,,2024-05-21,合併による解散等,4420005003555,令和６年５月２１日青森県五所川原市大字水野尾字懸樋２２２番地の３社会福祉法人拓心会（4420005003555）に合併し解散,2015-10-05,1,,,,,スワン,0
1261,4490005003219,登記記録の閉鎖等,0,2024-06-05,2024-05-23,地主神社,,その他の設立登記法人,高知県,高岡郡佐川町,丙５７１番地,,39,402,7891203,,,2024-05-23,合併による解散等,8490005003256,令和６年５月２３日高知県高岡郡佐川町丙６６７番地中岡神社（8490005003256）に合併し解散,2015-10-05,1,,,,,ジヌシジンジャ,0
1280,5010401091178,登記記録の閉鎖等,0,2024-06-05,2024-05-22,株式会社セレンディップ,,株式会社,東京都,港区,麻布十番１丁目９番３号第２フジヨシビル１階２階,,13,103,1060045,,,2024-05-22,清算の結了等,,,2015-10-05,1,,,,,セレンディップ,0
1281,5010401137542,登記記録の閉鎖等,0,2024-06-05,2024-05-22,ＣａｌＡｍｐ　Ｊａｐａｎ株式会社,,株式会社,東京都,港区,南麻布４丁目１１番２２号南麻布Ｔ＆Ｆビル８階,,13,103,1060047,,,2024-05-22,清算の結了等,,,2018-04-06,1,,,,,カランプジャパン,0
1296,5011003007118,登記記録の閉鎖等,0,2024-06-05,2024-05-27,合同会社ＡＮＥＬＡ,,合同会社,東京都,杉並区,上荻１丁目２０番６号,,13,115,1670043,,,2024-05-27,清算の結了等,,,2016-10-12,1,,,,,アネラ,0
1338,5030001090165,登記記録の閉鎖等,0,2024-06-05,2024-05-31,株式会社サンワ土地,,株式会社,埼玉県,飯能市,大字岩沢８２０番地５,,11,209,3570023,,,2024-05-31,清算の結了等,,,2015-10-05,1,,,,,サンワトチ,0
1354,5040003023907,登記記録の閉鎖等,0,2024-06-05,2024-05-28,スターコンパッション合同会社,,合同会社,千葉県,船橋市,夏見４丁目３５番２号,,12,204,2730865,,,2024-05-28,清算の結了等,,,2023-12-13,1,,,,,スターコンパッション,0
1358,5050002038302,登記記録の閉鎖等,0,2024-06-05,2024-06-03,有限会社ベストシステム,,有限会社,茨城県,守谷市,本町５１６番地の１,,08,224,3020109,,,2024-06-03,清算の結了等,,,2015-10-05,1,,,,,ベストシステム,0
1360,5060001036363,登記記録の閉鎖等,0,2024-06-05,2024-05-29,株式会社パイプマンホールディングス,,株式会社,栃木県,宇都宮市,下平出町１６１番地１,,09,201,3210903,,,2024-05-29,合併による解散等,2060001011162,令和６年５月８日栃木県宇都宮市下平出町１６１番地１株式会社菊地設備工業（2060001011162）に合併し解散,2023-09-21,1,,,,,パイプマンホールディングス,0
1368,5080103002641,登記記録の閉鎖等,0,2024-06-05,2024-05-29,偉業合同会社,,合同会社,静岡県,沼津市,白銀町９番９号富創第三ビル４階,,22,203,4100805,,,2024-05-29,清算の結了等,,,2022-09-02,1,,,,,イギョウ,0
1375,5100005005319,登記記録の閉鎖等,0,2024-06-05,2024-05-16,エホバの証人中野会衆,,その他の設立登記法人,長野県,中野市,大字一本木字山神５６２番地６,,20,211,3830012,,,2024-05-16,合併による解散等,5100005011671,令和６年５月１６日長野市豊野町豊野２００２－１０エホバの証人の長野県信濃会衆（5100005011671）に合併し解散,2015-10-05,1,,,,,エホバノショウニンナカノカイシュウ,0
1384,5120001047189,登記記録の閉鎖等,0,2024-06-05,2024-06-03,株式会社ブレーンファクトリー,,株式会社,大阪府,大阪市西区,京町堀２丁目１番１６号岡ビル５０２,,27,106,5500003,,,2024-06-03,清算の結了等,,,2015-10-05,1,,,,,ブレーンファクトリー,0
1389,5120001236155,登記記録の閉鎖等,0,2024-06-05,2024-06-03,株式会社ａｂｏｕｔｉｒ,,株式会社,大阪府,大阪市中央区,瓦町３丁目１番３号,,27,128,5410048,,,2024-06-03,清算の結了等,,,2021-03-23,1,,,,,アブティール,0
1409,5120901030021,登記記録の閉鎖等,0,2024-06-05,2024-05-31,株式会社ジェーテック,,株式会社,大阪府,箕面市,船場西１丁目５番１２号,,27,220,5620036,,,2024-05-31,清算の結了等,,,2015-10-05,1,,,,,ジェーテック,0
1410,5120903004072,登記記録の閉鎖等,0,2024-06-05,2024-05-31,合同会社Ａｒｉｎｅ,,合同会社,大阪府,高槻市,上牧南駅前町８番７－１０７号,,27,207,5690004,,,2024-05-31,清算の結了等,,,2022-03-16,1,,,,,アリネ,0
1419,5130003007198,登記記録の閉鎖等,0,2024-06-05,2024-06-03,合同会社くもんトピックス,,合同会社,京都府,舞鶴市,愛宕下町３番地の３０,,26,202,6250032,,,2024-06-03,清算の結了等,,,2021-04-28,1,,,,,クモントピックス,0
1421,5140001049332,登記記録の閉鎖等,0,2024-06-05,2024-05-31,株式会社シュンプロモーション大阪,,株式会社,兵庫県,尼崎市,武庫之荘７丁目３番１２号,,28,202,6610035,,,2024-05-31,清算の結了等,,,2015-10-05,1,,,,,シュンプロモーションオオサカ,0
1462,5220003002685,登記記録の閉鎖等,0,2024-06-05,2024-05-31,三合貿易合同会社,,合同会社,石川県,白山市,小柳町ろ１６７番地１,,17,210,9202103,,,2024-05-31,清算の結了等,,,2019-10-24,1,,,,,サンゴウボウエキ,0
1469,5240001050701,登記記録の閉鎖等,0,2024-06-05,2024-06-04,長谷川企画株式会社,,株式会社,広島県,広島市中区,白島北町１４番１７－１０１号,,34,101,7300001,,,2024-06-04,清算の結了等,,,2017-03-03,1,,,,,,0
1471,5240002034595,登記記録の閉鎖等,0,2024-06-05,2024-06-03,丸善工業有限会社,,有限会社,広島県,呉市,蒲刈町向１３２２番地,,34,202,7370311,,,2024-06-03,清算の結了等,,,2015-10-05,1,,,,,マルゼンコウギョウ,0
1475,5250002013433,登記記録の閉鎖等,0,2024-06-05,2024-06-03,有限会社萩スーツセンター,,有限会社,山口県,萩市,大字椿東２７６２番地の６,,35,204,7580011,,,2024-06-03,清算の結了等,,,2015-10-05,1,,,,,ハギスーツセンター,0
1477,5260002018927,登記記録の閉鎖等,0,2024-06-05,2024-05-29,有限会社真和物流,,有限会社,岡山県,倉敷市,北浜町８番８２号,,33,202,7100812,,,2024-05-29,清算の結了等,,,2015-10-05,1,,,,,シンワブンツリュウ,0
1479,5260005007522,登記記録の閉鎖等,0,2024-06-05,2024-05-20,横尾神社,,その他の設立登記法人,岡山県,美作市,横尾１３９８番地,,33,215,7012613,,,2024-05-20,合併による解散等,6260005007471,令和６年５月２０日岡山県美作市土居５８１番地土居神社（6260005007471）に合併し解散,2015-10-05,1,,,,,ヨコオジンジャ,0
1490,5290005007115,登記記録の閉鎖等,0,2024-06-05,2024-05-20,特定非営利活動法人東アジアオープンハートコミュニティ,,その他の設立登記法人,福岡県,朝倉市,黒川６２４６番地,,40,228,8380072,,,2024-05-20,清算の結了等,,,2015-10-05,1,,,,,,0
1498,5310001006159,登記記録の閉鎖等,0,2024-06-05,2024-06-03,株式会社リューブン,,株式会社,長崎県,佐世保市,柚木元町２６７３番地１,,42,202,8570115,,,2024-06-03,清算の結了等,,,2015-10-05,1,,,,,リューブン,0
1539,5460305001378,登記記録の閉鎖等,0,2024-06-05,2024-05-23,天理教最寄分教会,,その他の設立登記法人,北海道,網走市,字卯原内１００番地４,,01,211,0930135,,,2024-05-23,合併による解散等,6260005004171,令和６年４月３０日岡山県倉敷市児島味野六丁目２番１１号天理教児島郷分教会（6260005004171）に合併し解散,2015-10-05,1,,,,,,0
1581,6010405019315,登記記録の閉鎖等,0,2024-06-05,2024-05-23,一般社団法人天神ホテル管理,,その他の設立登記法人,東京都,港区,虎ノ門５丁目１番４号,,13,103,1050001,,,2024-05-23,清算の結了等,,,2020-12-03,1,,,,,テンジンホテルカンリ,0
1597,6011001069571,登記記録の閉鎖等,0,2024-06-05,2024-05-21,株式会社はーとぽっぽ,,株式会社,東京都,渋谷区,代々木２丁目２１番８号６０６,,13,113,1510053,,,2024-05-21,清算の結了等,,,2015-10-05,1,,,,,ハートポッポ,0
1603,6011002007547,登記記録の閉鎖等,0,2024-06-05,2024-05-20,有限会社太平印刷所,,有限会社,東京都,渋谷区,代々木１丁目１２番４号,,13,113,1510053,,,2024-05-20,清算の結了等,,,2015-10-05,1,,,,,タイヘイインサツジョ,0
1613,6011301016447,登記記録の閉鎖等,0,2024-06-05,2024-05-23,ダイヤクレスト株式会社,,株式会社,東京都,杉並区,松ノ木３丁目２４番１５－３０４号,,13,115,1660014,,,2024-05-23,清算の結了等,,,2015-10-05,1,,,,,ダイヤクレスト,0
1638,6020002022712,登記記録の閉鎖等,0,2024-06-05,2024-05-31,有限会社山善,,有限会社,神奈川県,横浜市旭区,白根２丁目３６番１号白根台グリーンコープ５０８号,,14,112,2410005,,,2024-05-31,清算の結了等,,,2015-10-05,1,,,,,ヤマゼン,0
1651,6021005002313,登記記録の閉鎖等,0,2024-06-05,2024-06-03,特定非営利活動法人水平社全国企業会,,その他の設立登記法人,神奈川県,鎌倉市,小袋谷１丁目４番２１－２０２,,14,204,2470055,,,2024-06-03,清算の結了等,,,2015-10-05,1,,,,,,0
1656,6030001110525,登記記録の閉鎖等,0,2024-06-05,2024-06-03,彩花物流株式会社,,株式会社,埼玉県,大里郡寄居町,大字藤田２番地７,,11,408,3691204,,,2024-06-03,清算の結了等,,,2015-10-05,1,,,,,アヤカブツリュウ,0
1665,6030002096227,登記記録の閉鎖等,0,2024-06-05,2024-05-31,有限会社日野屋企画,,有限会社,埼玉県,東松山市,箭弓町２丁目１１番２号,00017442,11,212,3550028,,,2024-05-31,合併による解散等,2030002096222,令和６年５月３１日埼玉県東松山市松本町一丁目３番４０号株式会社日野屋商店（2030002096222）に合併し解散,2015-10-05,1,,,,,ヒノヤキカク,0
1667,6030003016547,登記記録の閉鎖等,0,2024-06-05,2024-06-03,カインドネス合同会社,,合同会社,埼玉県,久喜市,伊坂中央２丁目２４番地２７,,11,232,3491127,,,2024-06-03,清算の結了等,,,2021-01-21,1,,,,,カインドネス,0
1694,6070001032609,登記記録の閉鎖等,0,2024-06-05,2024-06-03,株式会社Ｋ　ＣＲＡＦＴ,,株式会社,群馬県,高崎市,行力町７５番地２,,10,202,3700088,,,2024-06-03,清算の結了等,,,2016-09-05,1,,,,,,0
1696,6070001037145,登記記録の閉鎖等,0,2024-06-05,2024-06-03,株式会社アップ,,株式会社,埼玉県,富士見市,大字水子１３７４番地３,,11,235,3540011,,,2024-06-03,清算の結了等,,,2020-08-28,1,,,,,アップ,0
1701,6080005000494,登記記録の閉鎖等,0,2024-06-05,2024-05-23,天理教國一分教会,,その他の設立登記法人,静岡県,静岡市葵区,弥勒２丁目７番１２号,,22,101,4200053,,,2024-05-23,合併による解散等,3080005000497,令和６年５月２３日静岡市葵区清閑町３番７号天理教大應分教会（3080005000497）に合併し解散,2015-10-05,1,,,,,テンリキョウクニイチブンキョウカイ,0
1709,6110002003190,登記記録の閉鎖等,0,2024-06-05,2024-05-31,ジムスコーポレーション有限会社,,有限会社,新潟県,新潟市江南区,曽野木２丁目２番８号,,15,104,9501135,,,2024-05-31,清算の結了等,,,2015-10-05,1,,,,,ジムスコーポレーション,0
1735,6120102025514,登記記録の閉鎖等,0,2024-06-05,2024-05-31,福星コンクリート工業有限会社,,有限会社,大阪府,和泉市,光明台３丁目１０番５号,,27,219,5941111,,,2024-05-31,清算の結了等,,,2015-10-05,1,,,,,フクセイコンクリートコウギョウ,0
1755,6140002024201,登記記録の閉鎖等,0,2024-06-05,2024-06-03,有限会社ギャザウェー,,有限会社,兵庫県,神戸市長田区,丸山町４丁目５番９－５０３号,,28,106,6530875,,,2024-06-03,清算の結了等,,,2015-10-05,1,,,,,ギャザウェー,0
1759,6160001006000,登記記録の閉鎖等,0,2024-06-05,2024-06-03,ＪＭＡエンジニアリング株式会社,,株式会社,滋賀県,甲賀市,水口町古城が丘６４３番地の２３,,25,209,5280073,,,2024-06-03,清算の結了等,,,2015-10-05,1,,,,,ジェイエムエーエンジニアリング,0
1763,6180001100214,登記記録の閉鎖等,0,2024-06-05,2024-05-30,株式会社マジック,,株式会社,愛知県,名古屋市緑区,桶狭間切戸２４２２番地,,23,114,4580922,,,2024-05-30,清算の結了等,,,2015-10-05,1,,,,,マジック,0
1778,6220002007131,登記記録の閉鎖等,0,2024-06-05,2024-06-03,有限会社ドロップス,,有限会社,石川県,金沢市,牧山町チ１１番地甲,,17,201,9200148,,,2024-06-03,清算の結了等,,,2015-10-05,1,,,,,ドロップス,0
1782,6240001015224,登記記録の閉鎖等,0,2024-06-05,2024-06-03,株式会社リーベリア,,株式会社,広島県,広島市中区,鉄砲町１番１５号,,34,101,7300017,,,2024-06-03,合併による解散等,6240001006017,令和６年６月１日広島市中区鉄砲町１番１５号株式会社大進本店（6240001006017）に合併し解散,2015-10-05,1,,,,,リーベリア,0
1785,6240001032112,登記記録の閉鎖等,0,2024-06-05,2024-06-03,株式会社堀江建築設計事務所,,株式会社,広島県,福山市,御門町３丁目３番６号,,34,207,7200805,,,2024-06-03,清算の結了等,,,2015-10-05,1,,,,,ホリエケンチクセッケイジムショ,0
1786,6240001037813,登記記録の閉鎖等,0,2024-06-05,2024-06-03,株式会社因島スーパー,,株式会社,広島県,尾道市,因島中庄町４６９９番地３,,34,205,7222211,,,2024-06-03,清算の結了等,,,2015-10-05,1,,,,,インノシマスーパー,0
1787,6240001044157,登記記録の閉鎖等,0,2024-06-05,2024-06-03,株式会社ＮＧＫ製作所,,株式会社,広島県,福山市,加茂町字上加茂５５８番地１,,34,207,7202419,,,2024-06-03,清算の結了等,,,2015-10-05,1,,,,,エヌジーケーセイサクショ,0
1790,6240001058165,登記記録の閉鎖等,0,2024-06-05,2024-06-03,Ｒｏｍａｎｏ株式会社,,株式会社,広島県,広島市中区,銀山町１１番１号ビジュー銀山町ビル３Ｆ,,34,101,7300022,,,2024-06-03,合併による解散等,2240001056338,令和６年６月１日広島市中区銀山町１１番１号ビジュー銀山町ビル３Ｆ株式会社ＲＯＭＡ（2240001056338）に合併し解散,2021-06-23,1,,,,,ロマーノ,0
1841,6430001006113,登記記録の閉鎖等,0,2024-06-05,2024-05-31,株式会社コスモステート,,株式会社,北海道,札幌市北区,北三十八条西７丁目１番１２号,,01,102,0010038,,,2024-05-31,清算の結了等,,,2015-10-05,1,,,,,コスモステート,0
1848,6460101002050,登記記録の閉鎖等,0,2024-06-05,2024-05-31,めむろ新嵐山株式会社,,株式会社,北海道,河西郡芽室町,中美生２線４２番地,,01,637,0820086,,,2024-05-31,清算の結了等,,,2015-10-05,1,,,,,メムロシンアラシヤマ,0
1869,7010002019064,登記記録の閉鎖等,0,2024-06-05,2024-05-27,有限会社木の実,,有限会社,東京都,中央区,銀座６丁目８番６号,,13,102,1040061,,,2024-05-27,清算の結了等,,,2015-10-05,1,,,,,コノミ,0
1886,7010403027129,登記記録の閉鎖等,0,2024-06-05,2024-05-22,合同会社伊吹山,,合同会社,東京都,港区,北青山１丁目２番３号,,13,103,1070061,,,2024-05-22,清算の結了等,,,2022-02-22,1,,,,,イブキヤマ,0
1901,7010903005195,登記記録の閉鎖等,0,2024-06-05,2024-06-03,Ｓｔａｂｌｅ　ｓｅｒｖｉｃｅ　ｊａｐａｎ合同会社,,合同会社,東京都,世田谷区,上馬２丁目９番１５号リーガランド三軒茶屋３０２,,13,112,1540011,,,2024-06-03,清算の結了等,,,2019-09-02,1,,,,,ステイブルサービスジャパン,0
1933,7011702005023,登記記録の閉鎖等,0,2024-06-05,2024-05-24,有限会社サタケ商店,,有限会社,東京都,江戸川区,南篠崎町３丁目２４番１３号,,13,123,1330065,,,2024-05-24,清算の結了等,,,2015-10-05,1,,,,,サタケショウテン,0
1947,7012702006234,登記記録の閉鎖等,0,2024-06-05,2024-06-03,有限会社市村,,有限会社,東京都,東久留米市,前沢３丁目１２番２６号,,13,222,2030032,,,2024-06-03,清算の結了等,,,2015-10-05,1,,,,,イチムラ,0
1951,7013303004346,登記記録の閉鎖等,0,2024-06-05,2024-05-13,ＦＤＵインベストメント合同会社,,合同会社,東京都,港区,芝浦３丁目１番２１号,,13,103,1080023,,,2024-05-13,合併による解散等,2013301010706,令和６年５月１日東京都港区芝浦三丁目１番２１号株式会社ファミリーマート（2013301010706）に合併し解散,2018-10-23,1,,,,,エフディーユーインベストメント,0
1969,7021002053399,登記記録の閉鎖等,0,2024-06-05,2024-06-03,有限会社山武,,有限会社,神奈川県,小田原市,城山１丁目１０番１０号,,14,206,2500045,,,2024-06-03,清算の結了等,,,2015-10-05,1,,,,,ヤマタケ,0
1984,7030003013171,登記記録の閉鎖等,0,2024-06-05,2024-06-03,オフィスエヌ合同会社,,合同会社,埼玉県,越谷市,大沢４丁目１６番８号,,11,222,3430025,,,2024-06-03,清算の結了等,,,2019-03-01,1,,,,,オフィスエヌ,0
2002,7050002022097,登記記録の閉鎖等,0,2024-06-05,2024-06-03,有限会社丸勇,,有限会社,茨城県,つくば市,吉沼９００番地,,08,220,3002617,,,2024-06-03,清算の結了等,,,2015-10-05,1,,,,,マルユウ,0
2011,7070002027086,登記記録の閉鎖等,0,2024-06-05,2024-06-03,有限会社飛鳥塾,,有限会社,群馬県,渋川市,半田１３６５番地１,,10,208,3770004,,,2024-06-03,清算の結了等,,,2015-10-05,1,,,,,アスカジュク,0
2020,7080401023668,登記記録の閉鎖等,0,2024-06-05,2024-05-31,株式会社タカス工業,,株式会社,静岡県,御前崎市,池新田３８５７番地,,22,223,4371612,,,2024-05-31,清算の結了等,,,2019-06-06,1,,,,,タカスコウギョウ,0
2053,7122001035592,登記記録の閉鎖等,0,2024-06-05,2024-05-31,株式会社ティ・アイ・シー,,株式会社,大阪府,東大阪市,高井田中５丁目４番３７号,,27,227,5770065,,,2024-05-31,清算の結了等,,,2022-02-18,1,,,,,ティアイシー,0
2068,7140003014729,登記記録の閉鎖等,0,2024-06-05,2024-06-03,ＭＩＲＡＩＴｅｃｈｎｏｌｏｇｉｅｓ合同会社,,合同会社,兵庫県,芦屋市,岩園町２８－２０－Ａ－１０２,,28,206,6590013,,,2024-06-03,清算の結了等,,,2020-02-27,1,,,,,ミライテクノロジーズ,0
2098,7240001051417,登記記録の閉鎖等,0,2024-06-05,2024-06-04,ディコトミック株式会社,,株式会社,広島県,広島市安佐北区,深川８丁目４－５６,,34,106,7391751,,,2024-06-04,清算の結了等,,,2017-07-18,1,,,,,ディコトミック,0
2138,7340001019643,登記記録の閉鎖等,0,2024-06-05,2024-05-31,株式会社Ｔｈｉｃｋ,,株式会社,鹿児島県,鹿児島市,谷山港１丁目３番地３４,,46,201,8910131,,,2024-05-31,合併による解散等,8340001019642,令和６年５月３１日鹿児島市谷山港一丁目３番地３４株式会社Ｓｍａｒｔ（8340001019642）に合併し解散,2016-09-05,1,,,,,シック,0
2142,7350001007473,登記記録の閉鎖等,0,2024-06-05,2024-05-29,株式会社イープラン,,株式会社,宮崎県,延岡市,岡富町３０番地,,45,203,8820056,,,2024-05-29,清算の結了等,,,2015-10-05,1,,,,,イープラン,0
2147,7380001021513,登記記録の閉鎖等,0,2024-06-05,2024-05-22,株式会社いわき・タウンズヴィル,,株式会社,東京都,港区,芝５丁目２９番２２－８０８号,,13,103,1080014,,,2024-05-22,清算の結了等,,,2015-10-05,1,,,,,イワキタウンズヴィル,0
2148,7380002011661,登記記録の閉鎖等,0,2024-06-05,2024-05-31,有限会社ピーユーシー企画,,有限会社,福島県,郡山市,富田町字向舘４７番地の１０,,07,203,9638041,,,2024-05-31,清算の結了等,,,2015-10-05,1,,,,,ピーユーシーキカク,0
2160,7430002019617,登記記録の閉鎖等,0,2024-06-05,2024-05-31,有限会社宮下電気工業,,有限会社,北海道,札幌市北区,篠路八条６丁目８番８号,,01,102,0028028,,,2024-05-31,清算の結了等,,,2015-10-05,1,,,,,,0
2184,8010003037394,登記記録の閉鎖等,0,2024-06-05,2024-05-28,ジェネシスワン合同会社,,合同会社,東京都,千代田区,丸の内３丁目１番１号東京共同会計事務所内,,13,101,1000005,,,2024-05-28,清算の結了等,,,2022-04-11,1,,,,,ジェネシスワン,0
2199,8010403027128,登記記録の閉鎖等,0,2024-06-05,2024-05-22,合同会社筑波山,,合同会社,東京都,港区,北青山１丁目２番３号,,13,103,1070061,,,2024-05-22,清算の結了等,,,2022-02-22,1,,,,,ツクバサン,0
2208,8010602019413,登記記録の閉鎖等,0,2024-06-05,2024-06-03,有限会社天倉測量設計事務所,,有限会社,東京都,江東区,大島１丁目２９番３号,,13,108,1360072,,,2024-06-03,清算の結了等,,,2015-10-05,1,,,,,,0
2209,8010701010495,登記記録の閉鎖等,0,2024-06-05,2024-05-31,株式会社レムコ,,株式会社,東京都,品川区,八潮５丁目１２番６１－１０７号,,13,109,1400003,,,2024-05-31,清算の結了等,,,2015-10-05,1,,,,,レムコ,0
2228,8011003006100,登記記録の閉鎖等,0,2024-06-05,2024-05-20,合同会社左馬,,合同会社,東京都,目黒区,鷹番３丁目２２番３号,,13,110,1520004,,,2024-05-20,清算の結了等,,,2015-10-05,1,,,,,ヒダリウマ,0
2231,8011101003098,登記記録の閉鎖等,0,2024-06-05,2024-05-29,株式会社エスビーケイ,,株式会社,東京都,新宿区,若葉３丁目１番地,,13,104,1600011,,,2024-05-29,清算の結了等,,,2015-10-05,1,,,,,エスビーケイ,0
2234,8011201018434,登記記録の閉鎖等,0,2024-06-05,2024-06-03,株式会社ＡＢＥＬ,,株式会社,東京都,中野区,中野５丁目５８番地９ソシアルビル１０１,,13,114,1640001,,,2024-06-03,清算の結了等,,,2015-10-05,1,,,,,アベル,0
2240,8012401030658,登記記録の閉鎖等,0,2024-06-05,2024-05-31,株式会社ＭＴＯ,,株式会社,東京都,府中市,押立町５丁目１４番地の６,,13,206,1830012,,,2024-05-31,清算の結了等,,,2015-10-21,1,,,,,エムティーオー,0
2253,8020003020052,登記記録の閉鎖等,0,2024-06-05,2024-05-31,合同会社エース,,合同会社,神奈川県,川崎市川崎区,東田町２番地４プリムローズ仲見世館５階,,14,131,2100005,,,2024-05-31,清算の結了等,,,2021-06-23,1,,,,,エース,0
2256,8021001010516,登記記録の閉鎖等,0,2024-06-05,2024-06-03,アーバンメンテナンス株式会社,,株式会社,神奈川県,鎌倉市,山崎９３７番地,,14,204,2470066,,,2024-06-03,清算の結了等,,,2015-10-05,1,,,,,アーバンメンテナンス,0
2261,8021002031494,登記記録の閉鎖等,0,2024-06-05,2024-06-03,有限会社ケーエム商会,,有限会社,神奈川県,厚木市,三田南２丁目１番１号,,14,212,2430217,,,2024-06-03,清算の結了等,,,2015-10-05,1,,,,,,0
2264,8021005002286,登記記録の閉鎖等,0,2024-06-05,2024-06-03,特定非営利活動法人鎌倉顔真流,,その他の設立登記法人,神奈川県,鎌倉市,小袋谷１丁目４番２１－２０２号,,14,204,2470055,,,2024-06-03,清算の結了等,,,2015-10-05,1,,,,,カマクラガンシンリュウ,0
2265,8021005007987,登記記録の閉鎖等,0,2024-06-05,2024-05-24,日本山妙法寺横須賀小僧伽,,その他の設立登記法人,神奈川県,横須賀市,三春町５丁目２９番地,,14,201,2380014,,,2024-05-24,合併による解散等,1020005000125,令和６年５月１７日横浜市南区南太田三丁目２５番３号宗教法人日本山妙法寺横浜中僧伽（1020005000125）に合併し解散,2015-10-05,1,,,,,,0
2272,8030002109309,登記記録の閉鎖等,0,2024-06-05,2024-05-31,有限会社金野精工,,有限会社,埼玉県,川口市,大字安行領根岸２５５３番地の７６,,11,203,3330834,,,2024-05-31,清算の結了等,,,2015-10-05,1,,,,,カネノセイコウ,0
2314,8120001254261,登記記録の閉鎖等,0,2024-06-05,2024-06-03,株式会社ＡＲＣＡＮＯＡＨ,,株式会社,大阪府,大阪市北区,兎我野町１１番３号サンシャイン東梅田２０１号,,27,127,5300056,,,2024-06-03,清算の結了等,,,2023-04-24,1,,,,,アルカノア,0
2326,8120003024472,登記記録の閉鎖等,0,2024-06-05,2024-06-04,合同会社Ｊ　Ｈｏｌｄｉｎｇｓ,,合同会社,大阪府,大阪市北区,西天満１丁目１０番８号西天満第１１松屋ビル２０５号,,27,127,5300047,,,2024-06-04,清算の結了等,,,2023-07-13,1,,,,,ジェイホールディングス,0
2329,8120005011799,登記記録の閉鎖等,0,2024-06-05,2024-06-03,エンゼルハイム西大橋管理組合法人,,その他の設立登記法人,大阪府,大阪市西区,新町２丁目２０番４号,,27,106,5500013,,,2024-06-03,清算の結了等,,,2015-10-05,1,,,,,エンゼルハイムニシオオハシ,0
2366,8220001012246,登記記録の閉鎖等,0,2024-06-05,2024-06-03,永儀水産株式会社,,株式会社,石川県,小松市,本江町ホ１番地,,17,203,9230841,,,2024-06-03,合併による解散等,8220001011958,令和６年６月１日石川県小松市本江町ホ１番地小松水産株式会社（8220001011958）に合併し解散,2015-10-05,1,,,,,ナガギスイサン,0
2372,8240001046077,登記記録の閉鎖等,0,2024-06-05,2024-06-03,ライフドライブ株式会社,,株式会社,広島県,広島市南区,黄金山町１３番１２号,,34,103,7340041,,,2024-06-03,清算の結了等,,,2015-10-05,1,,,,,ライフドライブ,0
2375,8240002003903,登記記録の閉鎖等,0,2024-06-05,2024-06-03,有限会社勝木自動車整備工場,,有限会社,広島県,広島市安佐北区,亀山９丁目９番１６号,,34,106,7310231,,,2024-06-03,清算の結了等,,,2015-10-05,1,,,,,,0
2376,8240002051571,登記記録の閉鎖等,0,2024-06-05,2024-06-03,峯松配管有限会社,,有限会社,広島県,尾道市,因島重井町６５０４番地,,34,205,7222102,,,2024-06-03,清算の結了等,,,2015-10-05,1,,,,,ミネマツハイカン,0
2397,8290005000422,登記記録の閉鎖等,0,2024-06-05,2024-05-08,天理教博陵分教会,,その他の設立登記法人,福岡県,福岡市東区,東浜１丁目６番１４号,,40,131,8120055,,,2024-05-08,合併による解散等,8290005000430,令和６年５月８日福岡市南区三宅二丁目３３番２７号天理教福陵分教会（8290005000430）に合併し解散,2015-10-05,1,,,,,,0
2440,8440001008379,登記記録の閉鎖等,0,2024-06-05,2024-06-03,株式会社シーラクンス,,株式会社,北海道,札幌市東区,北八条東４丁目１番２０号,,01,103,0600908,,,2024-06-03,合併による解散等,9430001020202,令和６年６月１日札幌市東区北八条東四丁目１番２０号株式会社サッポロドラッグストアー（9430001020202）に合併し解散,2018-08-14,1,,,,,シーラクンス,0
2447,8480002008250,登記記録の閉鎖等,0,2024-06-05,2024-05-31,有限会社旅館朝日屋,,有限会社,徳島県,小松島市,赤石町９番２号,,36,203,7730021,,,2024-05-31,清算の結了等,,,2015-10-05,1,,,,,,0
2463,9010001215380,登記記録の閉鎖等,0,2024-06-05,2024-05-27,株式会社大中商会,,株式会社,東京都,中央区,銀座１丁目２２番１１号銀座大竹ビジデンス２階,,13,102,1040061,,,2024-05-27,清算の結了等,,,2021-01-25,1,,,,,ダイチュウショウカイ,0
2466,9010001235271,登記記録の閉鎖等,0,2024-06-05,2024-05-24,株式会社ＫＳＴ６,,株式会社,東京都,千代田区,内幸町２丁目１番６号,,13,101,1000011,,,2024-05-24,清算の結了等,,,2023-05-12,1,,,,,ケイエスティーシックス,0
2478,9010401123869,登記記録の閉鎖等,0,2024-06-05,2024-05-30,株式会社参謀,,株式会社,東京都,大田区,蒲田５丁目２１番１３号Ｂ２－９,,13,111,1440052,,,2024-05-30,清算の結了等,,,2016-03-23,1,,,,,サンボウ,0
2482,9010401165069,登記記録の閉鎖等,0,2024-06-05,2024-06-03,株式会社Ｔ３,,株式会社,東京都,港区,六本木４丁目１２番１０号,,13,103,1060032,,,2024-06-03,合併による解散等,6010501035323,令和６年６月１日東京都港区六本木四丁目１２番１０号株式会社ケイシュウフーズ（6010501035323）に合併し解散,2022-01-21,1,,,,,ティースリー,0
2489,9010601035427,登記記録の閉鎖等,0,2024-06-05,2024-05-29,株式会社グローバル・グループ,,株式会社,東京都,江東区,有明３丁目１番２５号,,13,108,1350063,,,2024-05-29,清算の結了等,,,2024-02-09,1,,,,,,0
2510,9011101072357,登記記録の閉鎖等,0,2024-06-05,2024-06-03,株式会社ＭＫＮａｖｉ,,株式会社,埼玉県,川口市,朝日１丁目１－２３－１０１号室,,11,203,3320001,,,2024-06-03,清算の結了等,,,2015-10-05,1,,,,,エムケーナビ,0
2536,9013301003050,登記記録の閉鎖等,0,2024-06-05,2024-05-30,大村貿易株式会社,,株式会社,東京都,豊島区,駒込４丁目１４番６－２０２号,,13,116,1700003,,,2024-05-30,清算の結了等,,,2015-10-05,1,,,,,オオムラボウエキ,0
2547,9021002015637,登記記録の閉鎖等,0,2024-06-05,2024-06-04,有限会社松下建設,,有限会社,神奈川県,鎌倉市,手広２丁目３４番１号,,14,204,2480036,,,2024-06-04,清算の結了等,,,2015-10-05,1,,,,,マツシタケンセツ,0
2552,9021005006773,登記記録の閉鎖等,0,2024-06-05,2024-06-03,社会福祉法人大磯恒道会,,その他の設立登記法人,神奈川県,中郡大磯町,虫窪２８５番地２,,14,341,2590103,,,2024-06-03,清算の結了等,,,2015-10-05,1,,,,,,0
2556,9030001125537,登記記録の閉鎖等,0,2024-06-05,2024-05-31,株式会社トリム,,株式会社,埼玉県,坂戸市,伊豆の山町１０番地（１１－２０５）,,11,239,3500275,,,2024-05-31,清算の結了等,,,2018-05-07,1,,,,,トリム,0
2582,9050002030759,登記記録の閉鎖等,0,2024-06-05,2024-06-03,須田興業有限会社,,有限会社,茨城県,日立市,田尻町４丁目５番４２号,,08,202,3191416,,,2024-06-03,清算の結了等,,,2015-10-05,1,,,,,スダコウギョウ,0
2612,9120001048514,登記記録の閉鎖等,0,2024-06-05,2024-06-03,ロイヤル観光株式会社,,株式会社,大阪府,大阪市生野区,巽北３丁目１５番１３号,00028211,27,116,5440004,,,2024-06-03,合併による解散等,4120001145687,令和６年６月１日大阪市生野区巽西三丁目１番２５号五条観光株式会社（4120001145687）に合併し解散,2015-10-05,1,,,,,ロイヤルカンコウ,0
2628,9120005017985,登記記録の閉鎖等,0,2024-06-05,2024-06-04,ＮＰＯ法人加賀屋スポーツクラブ,,その他の設立登記法人,大阪府,大阪市住之江区,西加賀屋３丁目１２番６号,,27,125,5590016,,,2024-06-04,清算の結了等,,,2015-10-05,1,,,,,カガヤスポーツクラブ,0
2649,9140005004890,登記記録の閉鎖等,0,2024-06-05,2024-06-04,特定非営利活動法人あいな育みの会,,その他の設立登記法人,兵庫県,神戸市北区,山田町藍那字清水２８番地,,28,109,6511104,,,2024-06-04,清算の結了等,,,2015-10-05,1,,,,,アイナハグクミノカイ,0
2651,9160001018232,登記記録の閉鎖等,0,2024-06-05,2024-06-03,株式会社Ｂ－Ｆｒａｍｅ,,株式会社,滋賀県,湖南市,菩提寺１０３２－４,,25,211,5203242,,,2024-06-03,清算の結了等,,,2015-10-05,1,,,,,ビーフレイム,0
2659,9180005019662,登記記録の閉鎖等,0,2024-06-05,2024-06-03,一般社団法人エールメイト東海,,その他の設立登記法人,愛知県,名古屋市中川区,月島町１番２１号,,23,110,4540804,,,2024-06-03,清算の結了等,,,2022-03-07,1,,,,,エールメイトトウカイ,0
2668,9200003005884,登記記録の閉鎖等,0,2024-06-05,2024-05-29,ＭＹＳ　Ｐａｒｔｎｅｒｓ合同会社,,合同会社,岐阜県,安八郡安八町,東結１５６１番地,,21,383,5030112,,,2024-05-29,清算の結了等,,,2023-03-06,1,,,,,エムワイエスパートナーズ,0
2691,9260002026331,登記記録の閉鎖等,0,2024-06-05,2024-05-31,有限会社星成,,有限会社,岡山県,小田郡矢掛町,東三成２０３９番地の１,,33,461,7141211,,,2024-05-31,清算の結了等,,,2015-10-05,1,,,,,セイジョウ,0
2703,9320002000949,登記記録の閉鎖等,0,2024-06-05,2024-06-03,有限会社インターヨーロッパ,,有限会社,大分県,大分市,府内町２丁目６１番地１,,44,201,8700021,,,2024-06-03,清算の結了等,,,2015-10-05,1,,,,,,0
2723,9380002007484,登記記録の閉鎖等,0,2024-06-05,2024-05-31,有限会社アサカ機材,,有限会社,福島県,郡山市,安積３丁目３５５番地,,07,203,9630107,,,2024-05-31,清算の結了等,,,2015-10-05,1,,,,,アサカキザイ,0
2736,9430002064355,登記記録の閉鎖等,0,2024-06-05,2024-05-31,有限会社鈴木新聞販売,,有限会社,北海道,室蘭市,本町１丁目６番７号,,01,205,0510015,,,2024-05-31,清算の結了等,,,2015-10-05,1,,,,,スズキシンブンハンバイ,0
