sequenceNumber,corporateNumber,process,correct,updateDate,changeDate,name,nameImageId,kind,prefectureName,cityName,streetNumber,addressImageId,prefectureCode,cityCode,postCode,addressOutside,addressOutsideImageId,closeDate,closeCause,successorCorporateNumber,changeCause,assignmentDate,latest,enName,enPrefectureName,enCityName,enAddressOutside,furigana,hihyoji
13,1010001234917,新規,0,2023-05-01,2023-05-01,株式会社リットホールディングス,,株式会社,東京都,中央区,銀座１丁目２２番１１号銀座大竹ビジデンス２Ｆ,,13,102,1040061,,,,,,,2023-05-01,1,,,,,リットホールディングス,0
14,1010001234933,新規,0,2023-05-01,2023-05-01,ＪＰＡ第２８４号株式会社,,株式会社,東京都,千代田区,霞が関３丁目２番１号,,13,101,1000013,,,,,,,2023-05-01,1,,,,,ジェイピーエーダイニヒャクハチジュウヨンゴウ,0
15,1010001234941,新規,0,2023-05-01,2023-05-01,ＪＰＡ第２９２号株式会社,,株式会社,東京都,千代田区,霞が関３丁目２番１号,,13,101,1000013,,,,,,,2023-05-01,1,,,,,ジェイピーエーダイニヒャクキュウジュウニゴウ,0
16,1010001234958,新規,0,2023-05-01,2023-05-01,株式会社Ｔｈｅ　Ｏｎｅ,,株式会社,東京都,中央区,銀座７丁目１３番２０号銀座ＴＨビル９階,,13,102,1040061,,,,,,,2023-05-01,1,,,,,ザワン,0
19,1010003040470,新規,0,2023-05-01,2023-05-01,ＷＹＰ合同会社,,合同会社,東京都,千代田区,神田須田町１丁目１２番８号ＪＬＢグランエクリュ神田８０１,,13,101,1010041,,,,,,,2023-05-01,1,,,,,ダブリューワイピー,0
20,1010003040479,新規,0,2023-05-01,2023-05-01,Ｇｅｏｔｈｅｒｍａｌ　Ｖｅｎｔｕｒｅｓ　Ｊａｐａｎ合同会社,,合同会社,東京都,千代田区,大手町１丁目２番１号,,13,101,1000004,,,,,,,2023-05-01,1,,,,,ジオサーマルベンチャーズジャパン,0
35,1010401174036,新規,0,2023-05-01,2023-05-01,株式会社ＭＡＲＪＯＲＡＭ,,株式会社,東京都,港区,南青山４丁目１７番３３号グランカーサ南青山２Ｆ,,13,103,1070062,,,,,,,2023-05-01,1,,,,,マジョラム,0
40,1010405022050,新規,0,2023-05-01,2023-05-01,一般社団法人アスリートコーチング協会,,その他の設立登記法人,東京都,港区,赤坂１丁目１２番３２号アーク森ビル３６階,,13,103,1070052,,,,,,,2023-05-01,1,,,,,アスリートコーチングキョウカイ,0
46,1010701044186,新規,0,2023-05-01,2023-05-01,株式会社西ノ暁堂,,株式会社,東京都,品川区,西五反田１丁目３２番４号,,13,109,1410031,,,,,,,2023-05-01,1,,,,,ニシノアカツキドウ,0
52,1010901052955,新規,0,2023-05-01,2023-05-01,株式会社ＴＨＴ,,株式会社,東京都,世田谷区,池尻４丁目３４番１０－５０２号,,13,112,1540001,,,,,,,2023-05-01,1,,,,,ティーエイチティー,0
63,1011001153644,新規,0,2023-05-01,2023-05-01,株式会社コールトレーディングジャパン,,株式会社,東京都,渋谷区,宇田川町３６番６号,,13,113,1500042,,,,,,,2023-05-01,1,,,,,コールトレーディングジャパン,0
71,1011101102716,新規,0,2023-05-01,2023-05-01,株式会社アーモンド,,株式会社,東京都,新宿区,西新宿３丁目２番７号,,13,104,1600023,,,,,,,2023-05-01,1,,,,,アーモンド,0
77,1011501029237,新規,0,2023-05-01,2023-05-01,靖和通商株式会社,,株式会社,東京都,荒川区,町屋３丁目６番１３号コーポ泰成１０１号室,,13,118,1160001,,,,,,,2023-05-01,1,,,,,セイワショウジ,0
100,1013303006612,新規,0,2023-05-01,2023-05-01,合同会社Ｋｅｅｎ,,合同会社,東京都,豊島区,南大塚２丁目１１番１０号ミモザビル３階,,13,116,1700005,,,,,,,2023-05-01,1,,,,,キーン,0
106,1020001151384,新規,0,2023-05-01,2023-05-01,株式会社ＫＡＤ,,株式会社,神奈川県,川崎市川崎区,渡田４丁目９－９,,14,131,2100837,,,,,,,2023-05-01,1,,,,,ケイエイディ,0
118,1021001078790,新規,0,2023-05-01,2023-05-01,Ｔａｌｋｉｅ　ｔｅｌｌ株式会社,,株式会社,神奈川県,平塚市,長持４７２－１,,14,203,2591217,,,,,,,2023-05-01,1,,,,,トーキーテル,0
119,1021001078907,新規,0,2023-05-01,2023-05-01,株式会社ブロックチェーンルアーズ,,株式会社,神奈川県,相模原市緑区,日連７３１番地１２,,14,151,2520185,,,,,,,2023-05-01,1,,,,,ブロックチェーンルアーズ,0
120,1021001078923,新規,0,2023-05-01,2023-05-01,あそと株式会社,,株式会社,神奈川県,鎌倉市,大町１丁目９－２２トレジャーフットビル,,14,204,2480007,,,,,,,2023-05-01,1,,,,,アソト,0
121,1021001078931,新規,0,2023-05-01,2023-05-01,ＶＡＬＬＥＹ　ＧＡＴＥ　Ｌｏｇｉｓｔｉｃｓ株式会社,,株式会社,神奈川県,秦野市,曽屋３６５３番地の１７,,14,211,2570031,,,,,,,2023-05-01,1,,,,,バリーゲートロジスティクス,0
125,1021003013052,新規,0,2023-05-01,2023-05-01,１ｂａｃｋｏｆｆｉｃｅ合同会社,,合同会社,神奈川県,相模原市緑区,西橋本５丁目４番２１号さがみはら産業創造センター１３１２号室,,14,151,2520131,,,,,,,2023-05-01,1,,,,,ワンバックオフィス,0
131,1030003021683,新規,0,2023-05-01,2023-05-01,合同会社ＵＭＥ,,合同会社,埼玉県,狭山市,広瀬台１丁目５２番２５号,,11,215,3501328,,,,,,,2023-05-01,1,,,,,ユーエムイー,0
138,1040001128240,新規,0,2023-05-01,2023-05-01,株式会社千葉インテリック,,株式会社,千葉県,館山市,上真倉２１０５番地９,,12,205,2940038,,,,,,,2023-05-01,1,,,,,チバインテリック,0
141,1040003022516,新規,0,2023-05-01,2023-05-01,ＡＩＳＡＩ　ＨＹＢＲＩＤ合同会社,,合同会社,千葉県,山武市,埴谷１７７１番地３０,,12,237,2891223,,,,,,,2023-05-01,1,,,,,アイサイハイブリッド,0
142,1040003022524,新規,0,2023-05-01,2023-05-01,ＳＡＹＵＮＩ　ＪＡＰＡＮ　ＬＡＮＫＡ　ＴＲＡＤＩＮＧ合同会社,,合同会社,千葉県,山武郡芝山町,新井田６４６番地１－Ｄ－８,,12,409,2891625,,,,,,,2023-05-01,1,,,,,サユニジャパンランカトレーディング,0
158,1080101023965,新規,0,2023-05-01,2023-05-01,株式会社キャンスポ,,株式会社,静岡県,富士宮市,猪之頭５００番地の７,,22,207,4180108,,,,,,,2023-05-01,1,,,,,キャンスポ,0
160,1080103002785,新規,0,2023-05-01,2023-05-01,ＤｅｅＺａｉ合同会社,,合同会社,静岡県,伊東市,宇佐美字谷ヶ丘２６８６番地の７,,22,208,4140001,,,,,,,2023-05-01,1,,,,,デザイー,0
161,1080103002793,新規,0,2023-05-01,2023-05-01,ＷＩＮＳ　ＨＯＬＤＩＮＧＳ合同会社,,合同会社,静岡県,沼津市,大諏訪６３６,,22,203,4100873,,,,,,,2023-05-01,1,,,,,ウインズホールディングス,0
174,1120001254219,新規,0,2023-05-01,2023-05-01,ＴＥＡＭ‐Ｘ株式会社,,株式会社,大阪府,大阪市北区,梅田１丁目１番３号大阪駅前第３ビル２９階１－１－１号室,,27,127,5300001,,,,,,,2023-05-01,1,,,,,チームエックス,0
175,1120001254466,新規,0,2023-05-01,2023-05-01,Ｓｈｉｎｃａ株式会社,,株式会社,大阪府,大阪市中央区,博労町１丁目８番８号堺筋ＭＳビル３階,,27,128,5410059,,,,,,,2023-05-01,1,,,,,シンカ,0
179,1120003023951,新規,0,2023-05-01,2023-05-01,合同会社心灯舎,,合同会社,大阪府,大阪市生野区,中川西２丁目７番１号,,27,116,5440032,,,,,,,2023-05-01,1,,,,,シントウシャ,0
180,1120005023594,新規,0,2023-05-01,2023-05-01,一般社団法人バイオカーボンなにわ,,その他の設立登記法人,大阪府,大阪市平野区,流町３丁目８番１７号,,27,126,5470032,,,,,,,2023-05-01,1,,,,,バイオカーボンナニワ,0
187,1130001074203,新規,0,2023-05-01,2023-05-01,如如株式会社,,株式会社,京都府,京都市左京区,丸太町通川端東入東丸太町３２番地２（１Ｆ）,,26,103,6068395,,,,,,,2023-05-01,1,,,,,ジョジョ,0
188,1130001074211,新規,0,2023-05-01,2023-05-01,株式会社おすすめ堂,,株式会社,京都府,京都市下京区,七条通油小路東入大黒町２２７番地第２キョートビル４０２,,26,106,6008223,,,,,,,2023-05-01,1,,,,,オススメドウ,0
190,1140001130021,新規,0,2023-05-01,2023-05-01,株式会社Ｆｉｌｌ,,株式会社,兵庫県,神戸市西区,平野町中津３６,,28,111,6512257,,,,,,,2023-05-01,1,,,,,フィル,0
193,1140005026595,新規,0,2023-05-01,2023-05-01,一般社団法人ルーナ,,その他の設立登記法人,兵庫県,三木市,志染町東自由が丘１丁目７番地の８,,28,215,6730553,,,,,,,2023-05-01,1,,,,,ルーナ,0
194,1150005009475,新規,0,2023-05-01,2023-05-01,一般社団法人フードバンク大和高田,,その他の設立登記法人,奈良県,大和高田市,北片塩町６番１１号,,29,202,6350084,,,,,,,2023-05-01,1,,,,,フードバンクヤマトタカダ,0
197,1170001017579,新規,0,2023-05-01,2023-05-01,加太吉林業株式会社,,株式会社,和歌山県,和歌山市,加太１８０５番地６,,30,201,6400103,,,,,,,2023-05-01,1,,,,,カダヨシリンギョウ,0
203,1180001156079,新規,0,2023-05-01,2023-05-01,株式会社ＯＮＥ,,株式会社,愛知県,海部郡大治町,大字北間島字柿木３０番地の５,,23,424,4901132,,,,,,,2023-05-01,1,,,,,ワン,0
211,1180303005693,新規,0,2023-05-01,2023-05-01,合同会社なんつな,,合同会社,愛知県,豊田市,平戸橋町馬場瀬６９番地１,,23,211,4700331,,,,,,,2023-05-01,1,,,,,ナンツナ,0
218,1220003003506,新規,0,2023-05-01,2023-05-01,合同会社ＭＧ．ファイン,,合同会社,石川県,野々市市,新庄１丁目２０３番地,,17,212,9218824,,,,,,,2023-05-01,1,,,,,エムジーファイン,0
219,1230001019817,新規,0,2023-05-01,2023-05-01,株式会社石坂,,株式会社,富山県,滑川市,吾妻町２６６番地,,16,206,9360033,,,,,,,2023-05-01,1,,,,,イシサカ,0
226,1250001020062,新規,0,2023-05-01,2023-05-01,二葉建設株式会社,,株式会社,山口県,防府市,大字佐野２１０番地,,35,206,7470067,,,,,,,2023-05-01,1,,,,,フタバケンセツ,0
230,1260001037907,新規,0,2023-05-01,2023-05-01,株式会社フィット,,株式会社,岡山県,倉敷市,川入８３２番地１,,33,202,7100811,,,,,,,2023-05-01,1,,,,,フィット,0
231,1260001037915,新規,0,2023-05-01,2023-05-01,つきあかり株式会社,,株式会社,岡山県,岡山市南区,箕島１２４番地４,,33,104,7010206,,,,,,,2023-05-01,1,,,,,ツキアカリ,0
233,1260003004293,新規,0,2023-05-01,2023-05-01,一商事合同会社,,合同会社,岡山県,倉敷市,西阿知町西原６４１番地１６,,33,202,7100806,,,,,,,2023-05-01,1,,,,,イチショウジ,0
237,1290001101370,新規,0,2023-05-01,2023-05-01,株式会社タマキチ,,株式会社,福岡県,筑紫野市,石崎３丁目３９番１２号,,40,217,8180068,,,,,,,2023-05-01,1,,,,,タマキチ,0
238,1290001101379,新規,0,2023-05-01,2023-05-01,ｆｅｖ株式会社,,株式会社,福岡県,福岡市中央区,今泉１丁目１３番３０号２Ｆ,,40,133,8100021,,,,,,,2023-05-01,1,,,,,フェブ,0
254,1320001019733,新規,0,2023-05-01,2023-05-01,スカイワーク株式会社,,株式会社,大分県,別府市,竹の内３－１,,44,202,8740841,,,,,,,2023-05-01,1,,,,,スカイワーク,0
265,1360001031940,新規,0,2023-05-01,2023-05-01,株式会社Ｋｕｒａｐｌａｎ,,株式会社,沖縄県,うるま市,字具志川３２７６番地１,,47,213,9042223,,,,,,,2023-05-01,1,,,,,クラプラン,0
266,1360001031949,新規,0,2023-05-01,2023-05-01,タイラ製麺所株式会社,,株式会社,沖縄県,那覇市,牧志３丁目９番１１号嘉数ビル１０１,,47,201,9000013,,,,,,,2023-05-01,1,,,,,タイラセイメンジョ,0
268,1360003012930,新規,0,2023-05-01,2023-05-01,Ｃｏｎｔｉｓｈｅｌｌ合同会社,,合同会社,沖縄県,那覇市,前島２丁目１６番７号ヴィラ・イルシオン２０２,,47,201,9000016,,,,,,,2023-05-01,1,,,,,コンティシェル,0
298,1480001012086,新規,0,2023-05-01,2023-05-01,株式会社Ａｗａ　Ｗａｖｅ,,株式会社,徳島県,徳島市,川内町米津２６番地２,,36,201,7710139,,,,,,,2023-05-01,1,,,,,アワウェーブ,0
299,1500001024905,新規,0,2023-05-01,2023-05-01,株式会社３ｅｅｔ,,株式会社,愛媛県,松山市,清住２丁目１０９１番地３,,38,201,7918055,,,,,,,2023-05-01,1,,,,,ミート,0
301,1700150115889,新規,0,2023-05-01,2023-05-01,ｓｈｅｎｚｈｅｎｆａｎｇｃａｏｙｉｙｉｍａｏｙｉｙｏｕｘｉａｎｇｏｎｇｓｉ,,外国会社等,,,,,,,,ｌｏｎｇｇａｎｇｑｕ　ｌｏｎｇｃｈｅｎｇｊｉｅｄａｏ　ｘｉｎｌｉａｎｓｈｅｑｕａｉｎａｎｌｕ４６８ｈａｏ２０１－Ｆ　ｓｈｅｎｚｈｅｎｓｈｉ　ｇｕａｎｇｄｏｎｇｓｈｅｎｇ　５１８１７２　ＣＮ,,,,,,2023-05-01,1,,,,,シェンジェンファンツァオイーイーマオイーヨウシエンゴンスー,0
302,1700150115897,新規,0,2023-05-01,2023-05-01,ｓｈｅｎｚｈｅｎｓｈｉ　ｄａｑｉａｎｇｋｅｊｉ　ｙｏｕｘｉａｎｇｏｎｇｓｉ,,外国会社等,,,,,,,,ｌｏｎｇｇａｎｇｑｕ　ｂａｎｔｉａｎｊｉｅｄａｏ　ｗａｎｋｅｃｈｅｎｇｓｈｅｑｕ　ｊｕｌｉｆｕｒｅｎｄａｄａｏ　ｓｈｅｎｚｈｏｕｄｉａｎｎａｏｄａｓｈａ２Ｆ　ｂａｉｒｕｉｄａｇｏｎｇｆａｎｇＫ１７　Ｓｈｅｎｚｈｅｎ　Ｇｕａｎｇｄｏｎｇ　５１８１２９ＣＮ,,,,,,2023-05-01,1,,,,,シンセンシダチァンケジヨウシェンゴンスー,0
323,2010001234932,新規,0,2023-05-01,2023-05-01,ＪＰＡ第２８３号株式会社,,株式会社,東京都,千代田区,霞が関３丁目２番１号,,13,101,1000013,,,,,,,2023-05-01,1,,,,,ジェイピーエーダイニヒャクハチジュウサンゴウ,0
324,2010001234940,新規,0,2023-05-01,2023-05-01,ＪＰＡ第２９１号株式会社,,株式会社,東京都,千代田区,霞が関３丁目２番１号,,13,101,1000013,,,,,,,2023-05-01,1,,,,,ジェイピーエーダイニヒャクキュウジュウイチゴウ,0
325,2010001234965,新規,0,2023-05-01,2023-05-01,株式会社１６１６,,株式会社,東京都,中央区,銀座１丁目１２番４号Ｎ＆ＥＢＬＤ．６Ｆ,,13,102,1040061,,,,,,,2023-05-01,1,,,,,イロイロ,0
334,2010401174118,新規,0,2023-05-01,2023-05-01,株式会社Ｈｉｇｈａｉｍ,,株式会社,東京都,港区,赤坂２丁目１３番２０号ツムギビル,,13,103,1070052,,,,,,,2023-05-01,1,,,,,ハイエイム,0
335,2010405022108,新規,0,2023-05-01,2023-05-01,大阪通天閣特定目的会社,,その他の設立登記法人,東京都,港区,元赤坂１丁目１番８号株式会社赤坂国際会計内,,13,103,1070051,,,,,,,2023-05-01,1,,,,,オオサカツウテンカク,0
363,2011101102715,新規,0,2023-05-01,2023-05-01,Ｌｉｆｅｃｔ株式会社,,株式会社,東京都,新宿区,西新宿３丁目２番７号,,13,104,1600023,,,,,,,2023-05-01,1,,,,,リフェクト,0
370,2011601026777,新規,0,2023-05-01,2023-05-01,銘田株式会社,,株式会社,東京都,練馬区,北町５丁目５－７かぼちゃ馬車、平和台Ｖ２０４号室,,13,120,1790081,,,,,,,2023-05-01,1,,,,,メイダ,0
374,2011701026198,新規,0,2023-05-01,2023-05-01,株式会社ケアテック東京研究所,,株式会社,東京都,江戸川区,東小松川１丁目８－１４,,13,123,1320033,,,,,,,2023-05-01,1,,,,,ケアテックトウキョウケンキュウジョ,0
378,2011801042319,新規,0,2023-05-01,2023-05-01,株式会社ＫＪ　ＴＲＵＳＴ,,株式会社,東京都,葛飾区,奥戸３丁目１４番１２号,,13,122,1240022,,,,,,,2023-05-01,1,,,,,ケイジェイトラスト,0
398,2020003023829,新規,0,2023-05-01,2023-05-01,合同会社ピースフル,,合同会社,神奈川県,川崎市幸区,戸手３丁目２番１０－３０２号,,14,132,2120005,,,,,,,2023-05-01,1,,,,,ピースフル,0
399,2020003023845,新規,0,2023-05-01,2023-05-01,合同会社久留米っ子,,合同会社,神奈川県,横浜市中区,南仲通１丁目１３番地アールケープラザ横浜関内ポートサイドビュー６１１,,14,104,2310006,,,,,,,2023-05-01,1,,,,,クルメッコ,0
402,2021003012920,新規,0,2023-05-01,2023-05-01,合同会社ＮＥＸＳＩＡ,,合同会社,神奈川県,相模原市中央区,上溝１５３３―１５,,14,152,2520243,,,,,,,2023-05-01,1,,,,,ネクシア,0
403,2021003013043,新規,0,2023-05-01,2023-05-01,合同会社Ｒ．Ｓ,,合同会社,神奈川県,愛甲郡愛川町,半原１３９３番地の３,,14,401,2430307,,,,,,,2023-05-01,1,,,,,アールエス,0
404,2021003013051,新規,0,2023-05-01,2023-05-01,合同会社蒼,,合同会社,神奈川県,横須賀市,小川町２５番地３税理士合同ビル５０３号,,14,201,2380004,,,,,,,2023-05-01,1,,,,,アオ,0
410,2030003021682,新規,0,2023-05-01,2023-05-01,ＦＣＯＭＢＩＮＥ合同会社,,合同会社,埼玉県,さいたま市見沼区,大字南中丸５６０番地３,,11,104,3370041,,,,,,,2023-05-01,1,,,,,エフコンバイン,0
411,2030005021243,新規,0,2023-05-01,2023-05-01,一般財団法人まごころ財団,,その他の設立登記法人,埼玉県,さいたま市大宮区,上小町５３５番地,,11,103,3300855,,,,,,,2023-05-01,1,,,,,マゴコロザイダン,0
416,2040001128207,新規,0,2023-05-01,2023-05-01,エムズワークス株式会社,,株式会社,千葉県,柏市,岩井２０８番１号,,12,217,2701445,,,,,,,2023-05-01,1,,,,,エムズワークス,0
422,2040003022515,新規,0,2023-05-01,2023-05-01,アオゲバ合同会社,,合同会社,千葉県,印西市,草深２３２３番地１９,,12,231,2701337,,,,,,,2023-05-01,1,,,,,アオゲバ,0
423,2040003022523,新規,0,2023-05-01,2023-05-01,ＴＭ企画合同会社,,合同会社,千葉県,東金市,田間２丁目１９番地６,,12,213,2830005,,,,,,,2023-05-01,1,,,,,ティーエムキカク,0
427,2050001052760,新規,0,2023-05-01,2023-05-01,Ｐ．Ａ　Ｇｒｏｕｐ株式会社,,株式会社,茨城県,坂東市,岩井４２９４－１２,,08,228,3060631,,,,,,,2023-05-01,1,,,,,ピーエーグループ,0
428,2050001052769,新規,0,2023-05-01,2023-05-01,株式会社Ｋ＆Ａプランニング,,株式会社,茨城県,水戸市,酒門町１６４７－３２,,08,201,3100841,,,,,,,2023-05-01,1,,,,,ケーアンドエープランニング,0
435,2070005010119,新規,0,2023-05-01,2023-05-01,特定非営利活動法人メリーのいえ,,その他の設立登記法人,群馬県,桐生市,小梅町１番１６号,,10,203,3760004,,,,,,,2023-05-01,1,,,,,メリーノイエ,0
441,2080401026460,新規,0,2023-05-01,2023-05-01,株式会社緑青,,株式会社,静岡県,浜松市東区,上石田町１７８２番地の１フレーシュコリーヌ２０３,,22,132,4350001,,,,,,,2023-05-01,1,,,,,ロクショウ,0
445,2100001036361,新規,0,2023-05-01,2023-05-01,株式会社吉原製作所,,株式会社,長野県,諏訪郡下諏訪町,８８９９番地,,20,361,3930000,,,,,,,2023-05-01,1,,,,,ヨシハラセイサクショ,0
448,2100003006998,新規,0,2023-05-01,2023-05-01,合同会社ＬＣＳ,,合同会社,長野県,松本市,村井町南１丁目３１番１７号,,20,202,3990036,,,,,,,2023-05-01,1,,,,,エルシーエス,0
454,2120005023602,新規,0,2023-05-01,2023-05-01,一般社団法人サンガ,,その他の設立登記法人,大阪府,大阪市阿倍野区,昭和町５丁目１番３０号アーバン昭和町ビル２０３,,27,119,5450011,,,,,,,2023-05-01,1,,,,,サンガ,0
459,2122001036934,新規,0,2023-05-01,2023-05-01,株式会社Ｗｅｌｌ‐ｂｅｉｎｇ,,株式会社,大阪府,東大阪市,高井田西３丁目９番１３号,,27,227,5770067,,,,,,,2023-05-01,1,,,,,ウェルビーイング,0
466,2140001129995,新規,0,2023-05-01,2023-05-01,株式会社ラポール・神戸,,株式会社,兵庫県,神戸市灘区,記田町５丁目４番３号,,28,102,6570034,,,,,,,2023-05-01,1,,,,,ラポールコウベ,0
469,2140003019030,新規,0,2023-05-01,2023-05-01,合同会社予防医学研究所,,合同会社,兵庫県,神戸市中央区,播磨町４９番地神戸旧居留地平和ビル,,28,110,6500036,,,,,,,2023-05-01,1,,,,,ヨボウイガクケンキュウショ,0
470,2140003019039,新規,0,2023-05-01,2023-05-01,合同会社神月,,合同会社,兵庫県,神戸市中央区,海岸通３丁目１－１ＫＣＣビル４Ｆ,,28,110,6500024,,,,,,,2023-05-01,1,,,,,シンゲツ,0
473,2150001026366,新規,0,2023-05-01,2023-05-01,株式会社双英,,株式会社,奈良県,生駒市,真弓１丁目４番２６号,,29,209,6300122,,,,,,,2023-05-01,1,,,,,ソウエイ,0
477,2170001017578,新規,0,2023-05-01,2023-05-01,Ｆｏｕｑｕｅ＆Ｖａｇａ株式会社,,株式会社,和歌山県,和歌山市,弘西３３９番地３,,30,201,6496339,,,,,,,2023-05-01,1,,,,,フークアンドヴァーガ,0
487,2180001156053,新規,0,2023-05-01,2023-05-01,株式会社ＩＮＦＩＮＩＴＹ　ＲＯＹＡＬ,,株式会社,愛知県,名古屋市中区,栄２丁目７番１３号ヴィア白川４０１,,23,106,4600008,,,,,,,2023-05-01,1,,,,,インフィニティロイヤル,0
488,2180001156078,新規,0,2023-05-01,2023-05-01,ＦＫＫ株式会社,,株式会社,愛知県,瀬戸市,塩草町１９２番地の３,,23,204,4890895,,,,,,,2023-05-01,1,,,,,エフケーケー,0
489,2180001156086,新規,0,2023-05-01,2023-05-01,ＫＯＳＨＩＮ株式会社,,株式会社,愛知県,名古屋市名東区,香流２丁目４０２番地の３,,23,115,4650005,,,,,,,2023-05-01,1,,,,,コシン,0
497,2200001041244,新規,0,2023-05-01,2023-05-01,株式会社ＷａＧａＹａ,,株式会社,岐阜県,大垣市,今宿６丁目５２番地１６ドリームコア３１２号,,21,202,5030807,,,,,,,2023-05-01,1,,,,,ワガヤ,0
504,2230001019816,新規,0,2023-05-01,2023-05-01,株式会社北山工務店,,株式会社,富山県,富山市,八尾町深谷１０１５５番地１,,16,201,9392316,,,,,,,2023-05-01,1,,,,,キタヤマコウムテン,0
509,2240001061437,新規,0,2023-05-01,2023-05-01,株式会社清明,,株式会社,広島県,尾道市,瀬戸田町林９４９番地１０,,34,205,7222416,,,,,,,2023-05-01,1,,,,,セイメイ,0
513,2240003006126,新規,0,2023-05-01,2023-05-01,ワイドリンクス合同会社,,合同会社,広島県,広島市西区,鈴が峰町３９－４鈴が峰第５団地４号棟３０５,,34,104,7330852,,,,,,,2023-05-01,1,,,,,ワイドリンクス,0
522,2290001101345,新規,0,2023-05-01,2023-05-01,株式会社ジィーレックス,,株式会社,福岡県,福岡市中央区,天神１丁目１番１号,,40,133,8100001,,,,,,,2023-05-01,1,,,,,ジィーレックス,0
525,2290003013860,新規,0,2023-05-01,2023-05-01,合同会社アプリシエイト,,合同会社,福岡県,福岡市東区,西戸崎２丁目２３番６号,,40,131,8110321,,,,,,,2023-05-01,1,,,,,アプリシエイト,0
527,2290005019030,新規,0,2023-05-01,2023-05-01,医療法人石進会,,その他の設立登記法人,福岡県,飯塚市,片島２丁目６番８号,,40,205,8200068,,,,,,,2023-05-01,1,,,,,セキシンカイ,0
528,2300001013282,新規,0,2023-05-01,2023-05-01,株式会社リンクスコーポレーション,,株式会社,佐賀県,佐賀市,天神１丁目２番５５号,,41,201,8400815,,,,,,,2023-05-01,1,,,,,リンクスコーポレーション,0
529,2300005007140,新規,0,2023-05-01,2023-05-01,特定非営利活動法人こどもシンクタンクＳＡＧＡ,,その他の設立登記法人,佐賀県,佐賀市,駅南本町３番１２号,,41,201,8400816,,,,,,,2023-05-01,1,,,,,コドモシンクタンクサガ,0
533,2330001008908,新規,0,2023-05-01,2023-05-01,株式会社グランドシティ,,株式会社,熊本県,熊本市,良町３丁目９番２６号,,43,201,8620969,,,,,,,2023-05-01,1,,,,,グランドシティ,0
537,2340002028680,新規,0,2023-05-01,2023-05-01,有限会社和田商事,,有限会社,鹿児島県,鹿児島市,和田３丁目１８番１号,,46,201,8910143,,,,,,,2023-05-01,1,,,,,ワダショウジ,0
539,2360001031948,新規,0,2023-05-01,2023-05-01,フォロワー株式会社,,株式会社,沖縄県,豊見城市,字豊崎１番地１２１３,,47,212,9010225,,,,,,,2023-05-01,1,,,,,フォロワー,0
543,2370003006113,新規,0,2023-05-01,2023-05-01,ホットクリエイト合同会社,,合同会社,宮城県,仙台市太白区,富沢１丁目１０番１７号,,04,104,9820032,,,,,,,2023-05-01,1,,,,,ホットクリエイト,0
562,2430001088956,新規,0,2023-05-01,2023-05-01,株式会社高建工業,00130328,株式会社,北海道,岩内郡岩内町,字御崎２０番地３,,01,402,0450026,,,,,,,2023-05-01,1,,,,,タカケンコウギョウ,0
563,2430001088972,新規,0,2023-05-01,2023-05-01,株式会社ユウカリ,,株式会社,北海道,札幌市東区,苗穂町１２丁目１－３８,,01,103,0650043,,,,,,,2023-05-01,1,,,,,ユウカリ,0
564,2430001088989,新規,0,2023-05-01,2023-05-01,株式会社浜美,,株式会社,北海道,札幌市中央区,南六条西１１丁目１２８４番地２７－７０２,,01,101,0640806,,,,,,,2023-05-01,1,,,,,ハマヨシ,0
574,2700150115888,新規,0,2023-05-01,2023-05-01,Ｐａｌｃｏｍ　Ｉｎｔｅｒｎａｔｉｏｎａｌ　Ｃｏｒｐｏｒａｔｉｏｎ,,外国会社等,,,,,,,,８Ｆ．，Ｎｏ．３８５，Ｙａｎｇｇｕａｎｇ　Ｓｔ．，Ｎｅｉｈｕ　Ｄｉｓｔ．，Ｔａｉｐｅｉ　Ｃｉｔｙ　１１４０６７，Ｔａｉｗａｎ（Ｒ．Ｏ．Ｃ）,,,,,,2023-05-01,1,,,,,フアンフォントンシングーフェンヨウシエンゴンスー,0
575,2700150115896,新規,0,2023-05-01,2023-05-01,ｃｈａｎｇｚｈｏｕｓｈｉ　ｔａｏｂａｎｗａｎｇｌｕｏｋｅｊｉ　ｙｏｕｘｉａｎｇｏｎｇｓｉ,,外国会社等,,,,,,,,ｘｉｎｂｅｉｑｕ　ｈｕａｓｈａｎｌｕ１８ｈａｏ　ｃｈａｎｇｚｈｏｕｓｈｉ　ｊｉａｎｇｓｕｓｈｅｎｇ　２１３０００ＣＮ,,,,,,2023-05-01,1,,,,,チャンジョウシタオバンワンルォケジヨウシェンゴンスー,0
594,3010001234510,新規,0,2023-05-01,2023-05-01,株式会社瑞夢,,株式会社,東京都,中央区,築地２丁目１番２号秀和築地レジデンス１２０１,,13,102,1040045,,,,,,,2023-05-01,1,,,,,ズイム,0
595,3010001234898,新規,0,2023-05-01,2023-05-01,Ｒｅ’ｒｏｏｔｓ株式会社,,株式会社,東京都,中央区,銀座１丁目１２－４Ｎ＆ＥＢＬＤ．７階,,13,102,1040061,,,,,,,2023-05-01,1,,,,,リルーツ,0
596,3010001234923,新規,0,2023-05-01,2023-05-01,株式会社アドベンチャー,,株式会社,東京都,千代田区,丸の内１丁目８番２号,,13,101,1000005,,,,,,,2023-05-01,1,,,,,アドベンチャー,0
597,3010001234931,新規,0,2023-05-01,2023-05-01,ＪＰＡ第２８２号株式会社,,株式会社,東京都,千代田区,霞が関３丁目２番１号,,13,101,1000013,,,,,,,2023-05-01,1,,,,,ジェイピーエーダイニヒャクハチジュウニゴウ,0
616,3010501050374,新規,0,2023-05-01,2023-05-01,株式会社行雲,,株式会社,東京都,台東区,根岸３丁目１番６号,,13,106,1100003,,,,,,,2023-05-01,1,,,,,コウウン,0
617,3010501050382,新規,0,2023-05-01,2023-05-01,株式会社トラスト,,株式会社,東京都,台東区,元浅草１丁目６番１２号ＧＯＧＯオフィス御徒町６２３号室,,13,106,1110041,,,,,,,2023-05-01,1,,,,,トラスト,0
618,3010501050390,新規,0,2023-05-01,2023-05-01,ＡＩＢＡＮＫ株式会社,,株式会社,東京都,台東区,竜泉３丁目３８－４,,13,106,1100012,,,,,,,2023-05-01,1,,,,,エーアイバンク,0
631,3011101102706,新規,0,2023-05-01,2023-05-01,株式会社Ｋａ　Ｐｉｌｉｎａ,,株式会社,東京都,新宿区,上落合１丁目１番１５－１１１５号,,13,104,1610034,,,,,,,2023-05-01,1,,,,,カピリナ,0
632,3011103013001,新規,0,2023-05-01,2023-05-01,合同会社Ｘ　ＡＧＥＮＴ,,合同会社,東京都,新宿区,西新宿３丁目３番１３号西新宿水間ビル２Ｆ,,13,104,1600023,,,,,,,2023-05-01,1,,,,,クロスエージェント,0
635,3011303004741,新規,0,2023-05-01,2023-05-01,合同会社はちみつ,,合同会社,東京都,杉並区,高井戸東２丁目２７番８号,,13,115,1680072,,,,,,,2023-05-01,1,,,,,ハチミツ,0
636,3011401025094,新規,0,2023-05-01,2023-05-01,株式会社エージーエーホールディングス,,株式会社,東京都,板橋区,新河岸１丁目１５番５号,,13,119,1750081,,,,,,,2023-05-01,1,,,,,エージーエーホールディングス,0
646,3012405004860,新規,0,2023-05-01,2023-05-01,一般社団法人障害児・者ＱＯＬサポートラボＣＩＡＯ,,その他の設立登記法人,東京都,府中市,住吉町２丁目３０－４０ラヴィラ府中多摩川３１１,,13,206,1830034,,,,,,,2023-05-01,1,,,,,ショウガイジシャキューオーエルサポートラボチャオ,0
653,3013301050668,新規,0,2023-05-01,2023-05-01,千代田興業株式会社,,株式会社,東京都,杉並区,高井戸東３丁目２４番９号,,13,115,1680072,,,,,,,2023-05-01,1,,,,,チヨダコウギョウ,0
658,3020001151358,新規,0,2023-05-01,2023-05-01,クルス機工株式会社,,株式会社,神奈川県,川崎市幸区,南加瀬４丁目３６番１０号,,14,132,2120055,,,,,,,2023-05-01,1,,,,,クルスキコウ,0
659,3020001151374,新規,0,2023-05-01,2023-05-01,株式会社ワイズカラー,,株式会社,神奈川県,横浜市南区,八幡町５７番地１アルフヘイム１０２,,14,105,2320037,,,,,,,2023-05-01,1,,,,,ワイズカラー,0
672,3030003021681,新規,0,2023-05-01,2023-05-01,朝陽音合同会社,,合同会社,埼玉県,さいたま市中央区,上峰１丁目２０－１０,,11,105,3380014,,,,,,,2023-05-01,1,,,,,アサヒネ,0
677,3040001128206,新規,0,2023-05-01,2023-05-01,株式会社ＲＩＳＯＮＯ　ＬＩＦＥ,,株式会社,千葉県,流山市,おおたかの森東４丁目４－２２,,12,220,2700138,,,,,,,2023-05-01,1,,,,,リソーノライフ,0
680,3040003022514,新規,0,2023-05-01,2023-05-01,ＣＧＳインターナショナル合同会社,,合同会社,千葉県,野田市,中野台鹿島町１０番地の７,,12,208,2780036,,,,,,,2023-05-01,1,,,,,シージーエスインターナショナル,0
681,3040003022522,新規,0,2023-05-01,2023-05-01,合同会社ＣｏＣｏ,,合同会社,千葉県,東金市,家徳２１７番地１１,,12,213,2830062,,,,,,,2023-05-01,1,,,,,ココ,0
685,3050001052768,新規,0,2023-05-01,2023-05-01,株式会社ユーゴースポルト,,株式会社,茨城県,小美玉市,中延１７８８番地,,08,236,3113422,,,,,,,2023-05-01,1,,,,,ユーゴースポルト,0
688,3050005013262,新規,0,2023-05-01,2023-05-01,一般社団法人日本防災シェルター協会,,その他の設立登記法人,茨城県,結城市,大字田間２２２２番地２,,08,207,3070044,,,,,,,2023-05-01,1,,,,,ニホンボウサイシェルターキョウカイ,0
692,3060005010085,新規,0,2023-05-01,2023-05-01,一般社団法人ローカルキャンバス,,その他の設立登記法人,栃木県,塩谷郡塩谷町,大字玉生７４７コミュニティスペースＳＴＥＰ‐ＯＮＥ,,09,384,3292221,,,,,,,2023-05-01,1,,,,,ローカルキャンバス,0
703,3100001036369,新規,0,2023-05-01,2023-05-01,株式会社スプリングサン,,株式会社,長野県,長野市,大字若槻団地１番地１０３,,20,201,3810051,,,,,,,2023-05-01,1,,,,,スプリングサン,0
707,3100003006997,新規,0,2023-05-01,2023-05-01,合同会社ＡＣＴＡＲＩＳＥ,,合同会社,長野県,上田市,諏訪形１３７７番地２８号,,20,203,3860032,,,,,,,2023-05-01,1,,,,,アクタライズ,0
721,3120001254357,新規,0,2023-05-01,2023-05-01,天弘株式会社,,株式会社,大阪府,大阪市天王寺区,悲田院町９－１７阪和ビル３０３号室,,27,109,5430055,,,,,,,2023-05-01,1,,,,,アマヒロ,0
722,3120001254480,新規,0,2023-05-01,2023-05-01,株式会社祐食,,株式会社,大阪府,大阪市東住吉区,住道矢田６丁目３番４号,,27,121,5460022,,,,,,,2023-05-01,1,,,,,ユウショク,0
723,3120001254514,新規,0,2023-05-01,2023-05-01,株式会社ＭＡＮＡＴＳＵ＆ＭＡＨＵＹＵ,,株式会社,大阪府,大阪市北区,天満１丁目１３番５－１０１号,,27,127,5300043,,,,,,,2023-05-01,1,,,,,マナツアンドマフユ,0
724,3120001254522,新規,0,2023-05-01,2023-05-01,株式会社錦,,株式会社,大阪府,大阪市阿倍野区,松崎町４丁目５番３２号,,27,119,5450053,,,,,,,2023-05-01,1,,,,,キン,0
725,3120001254530,新規,0,2023-05-01,2023-05-01,株式会社ＴＡＣＨＩＡＧＥ,,株式会社,大阪府,大阪市西区,北堀江２丁目４－１１サンライズビル４Ｆ,,27,106,5500014,,,,,,,2023-05-01,1,,,,,タチアゲ,0
726,3120001254571,新規,0,2023-05-01,2023-05-01,株式会社ＣＬ　ＨＩＬＬＳ,,株式会社,大阪府,大阪市港区,弁天４丁目５番１１－２５０５号,,27,107,5520007,,,,,,,2023-05-01,1,,,,,シーエルヒルズ,0
727,3120001254588,新規,0,2023-05-01,2023-05-01,株式会社いろ,,株式会社,大阪府,大阪市中央区,南船場４丁目１０番５号,,27,128,5420081,,,,,,,2023-05-01,1,,,,,イロ,0
730,3120003023925,新規,0,2023-05-01,2023-05-01,合同会社ベルエキップヘルスケア,,合同会社,大阪府,大阪市生野区,勝山北１丁目２－６三好ビル２階２０２,,27,116,5440033,,,,,,,2023-05-01,1,,,,,ベルエキップヘルスケア,0
735,3120901047471,新規,0,2023-05-01,2023-05-01,株式会社ＯＫホールディングス,,株式会社,大阪府,茨木市,春日４丁目１番１８号,,27,211,5670031,,,,,,,2023-05-01,1,,,,,オーケーホールディングス,0
738,3120905006457,新規,0,2023-05-01,2023-05-01,一般社団法人こども未来創造力育成協会,,その他の設立登記法人,大阪府,吹田市,南吹田１丁目５－２１,,27,205,5640043,,,,,,,2023-05-01,1,,,,,コドモミライソウゾウリョクイクセイキョウカイ,0
744,3130001074176,新規,0,2023-05-01,2023-05-01,株式会社澄農園,,株式会社,京都府,京都市伏見区,深草直違橋６丁目３００番地,,26,109,6120889,,,,,,,2023-05-01,1,,,,,スミノウエン,0
745,3130001074218,新規,0,2023-05-01,2023-05-01,株式会社レーヴ・エステート,,株式会社,京都府,乙訓郡大山崎町,字円明寺小字若宮前１０－８１,,26,303,6180091,,,,,,,2023-05-01,1,,,,,レーヴエステート,0
754,3140003019038,新規,0,2023-05-01,2023-05-01,合同会社ＯＨＡＮＡ,,合同会社,兵庫県,西宮市,神明町８番２－７０９号,,28,204,6620845,,,,,,,2023-05-01,1,,,,,オハーナ,0
756,3160001025003,新規,0,2023-05-01,2023-05-01,ＸＩＮ株式会社,,株式会社,滋賀県,大津市,におの浜２丁目１－１－６１０,,25,201,5200801,,,,,,,2023-05-01,1,,,,,シン,0
757,3160003002867,新規,0,2023-05-01,2023-05-01,ファンタイムス合同会社,,合同会社,滋賀県,草津市,西大路町２－５陽好ビル１Ｆ,,25,206,5250037,,,,,,,2023-05-01,1,,,,,ファンタイムス,0
761,3180001156077,新規,0,2023-05-01,2023-05-01,株式会社亀家,,株式会社,愛知県,春日井市,宮町字宮町８０番地４,,23,206,4860904,,,,,,,2023-05-01,1,,,,,カメヤ,0
766,3180005020205,新規,0,2023-05-01,2023-05-01,弁護士法人丸の内国際法律事務所,,その他の設立登記法人,愛知県,名古屋市中区,丸の内３丁目４番１２号ワークビル丸の内３階,,23,106,4600002,,,,,,,2023-05-01,1,,,,,マルノウチコクサイホウリツジムショ,0
770,3180301037349,新規,0,2023-05-01,2023-05-01,株式会社くても,,株式会社,愛知県,西尾市,今川町御堂東１２番地２,,23,213,4450063,,,,,,,2023-05-01,1,,,,,クテモ,0
778,3230001019815,新規,0,2023-05-01,2023-05-01,株式会社Ｂｒｉｄｇｅｓ,,株式会社,富山県,中新川郡立山町,吉峰野開１２番地,,16,323,9301362,,,,,,,2023-05-01,1,,,,,ブリッジ,0
783,3260001037913,新規,0,2023-05-01,2023-05-01,株式会社ＣＣＰ‐１,,株式会社,岡山県,岡山市北区,丸の内１丁目１５番２０号ちゅうぎん本店ビル９階,,33,101,7000823,,,,,,,2023-05-01,1,,,,,シーシーピーワン,0
792,3290001101377,新規,0,2023-05-01,2023-05-01,株式会社ＡｒｋＲｉｓｅ,,株式会社,福岡県,糟屋郡粕屋町,戸原西１丁目３番５号,,40,349,8112319,,,,,,,2023-05-01,1,,,,,アークライズ,0
800,3290803004406,新規,0,2023-05-01,2023-05-01,合同会社九搬商会,,合同会社,福岡県,北九州市小倉北区,泉台１丁目１１番２７－１０２号,,40,106,8030842,,,,,,,2023-05-01,1,,,,,キュウハンショウカイ,0
814,3370001049897,新規,0,2023-05-01,2023-05-01,株式会社Ｗｃｏｎｎｅｃｔ,,株式会社,宮城県,仙台市若林区,卸町２丁目９－１ＩＮＴＩＬＡＱ東北イノベーションセンター,,04,103,9840015,,,,,,,2023-05-01,1,,,,,ダブリューコネクト,0
815,3370003006112,新規,0,2023-05-01,2023-05-01,クラウド合同会社,,合同会社,宮城県,仙台市太白区,泉崎２丁目２６番３号２０２,,04,104,9820031,,,,,,,2023-05-01,1,,,,,クラウド,0
820,3380003005451,新規,0,2023-05-01,2023-05-01,合同会社三幸ライフ,,合同会社,福島県,郡山市,田村町金屋字上川原１６５クラール８‐２０２,,07,203,9630725,,,,,,,2023-05-01,1,,,,,サンコウライフ,0
828,3430001088988,新規,0,2023-05-01,2023-05-01,株式会社ＡＫＩＲＡ,,株式会社,北海道,札幌市中央区,大通西１丁目さっぽろテレビ塔Ｂ１,,01,101,0600042,,,,,,,2023-05-01,1,,,,,アキラ,0
829,3430001089029,新規,0,2023-05-01,2023-05-01,株式会社流進,,株式会社,北海道,小樽市,桜３丁目２２番２３号,,01,203,0470156,,,,,,,2023-05-01,1,,,,,リュウシン,0
833,3470001019592,新規,0,2023-05-01,2023-05-01,ＡＯＢＡグループ株式会社,,株式会社,香川県,善通寺市,下吉田町９０７番地,,37,204,7650021,,,,,,,2023-05-01,1,,,,,アオバグループ,0
835,3500001024903,新規,0,2023-05-01,2023-05-01,株式会社Ｊパーツ,,株式会社,愛媛県,松山市,天山１丁目１番２号,,38,201,7900951,,,,,,,2023-05-01,1,,,,,ジェイパーツ,0
836,3700150115887,新規,0,2023-05-01,2023-05-01,庄内広域水道事業統合準備協議会,,その他,山形県,酒田市,末広町１４番１４号酒田市上下水道部内,,06,204,9980854,,,,,,,2023-05-01,1,,,,,ショウナイコウイキスイドウジギョウトウゴウジュンビキョウギカイ,0
837,3700150115895,新規,0,2023-05-01,2023-05-01,ｃｈｏｎｇｑｉｎｇ　ｓｈｅｎｋａｉ　ｊｉｄｉａｎ　ｙｏｕｘｉａｎｇｏｎｇｓｉ,,外国会社等,,,,,,,,Ｎｏ．１１　ｊｉｎｙｕｎ　ｒｏａｄ，Ｂｅｉｂｅｉ，Ｃｈｏｎｇｑｉｎｇｓｈｉ　４００７００ＣＮ,,,,,,2023-05-01,1,,,,,チョンチンシンカイジディンヨウシェンゴンスー,0
850,4010001234922,新規,0,2023-05-01,2023-05-01,株式会社風来,,株式会社,東京都,千代田区,神田練塀町３番地ベルファース秋葉原１６０８号,,13,101,1010022,,,,,,,2023-05-01,1,,,,,フウライ,0
851,4010001234930,新規,0,2023-05-01,2023-05-01,ＪＰＡ第２８１号株式会社,,株式会社,東京都,千代田区,霞が関３丁目２番１号,,13,101,1000013,,,,,,,2023-05-01,1,,,,,ジェイピーエーダイニヒャクハチジュウイチゴウ,0
852,4010001234939,新規,0,2023-05-01,2023-05-01,ＪＰＡ第２９０号株式会社,,株式会社,東京都,千代田区,霞が関３丁目２番１号,,13,101,1000013,,,,,,,2023-05-01,1,,,,,ジェイピーエーダイニヒャクキュウジュウゴウ,0
853,4010001234963,新規,0,2023-05-01,2023-05-01,株式会社ＰＡＭＯＪＡ,,株式会社,東京都,千代田区,神田猿楽町１丁目２番６号,,13,101,1010064,,,,,,,2023-05-01,1,,,,,,0
854,4010001234971,新規,0,2023-05-01,2023-05-01,株式会社Ｘａｎａｄｕ,,株式会社,東京都,千代田区,内幸町１丁目１番１号帝国ホテルタワー１５Ｆ,,13,101,1000011,,,,,,,2023-05-01,1,,,,,ザナドゥ,0
858,4010003040484,新規,0,2023-05-01,2023-05-01,ＳＥＬＤ合同会社,,合同会社,東京都,文京区,目白台３丁目１４番３号,,13,105,1120015,,,,,,,2023-05-01,1,,,,,セルド,0
869,4010401174099,新規,0,2023-05-01,2023-05-01,ＮＭＢアスフォデル株式会社,,株式会社,東京都,港区,新橋４丁目３０番６号京急中はらビル５Ｆ,,13,103,1050004,,,,,,,2023-05-01,1,,,,,エヌエムビーアスフォデル,0
873,4010403030003,新規,0,2023-05-01,2023-05-01,ＫＡＮＡＤＥ合同会社,,合同会社,東京都,港区,白金１丁目２番１－Ｅ３１１３号,,13,103,1080072,,,,,,,2023-05-01,1,,,,,カナデ,0
875,4010501050381,新規,0,2023-05-01,2023-05-01,株式会社ｅＦｆａｉｎ,,株式会社,東京都,台東区,上野６丁目１番６号,,13,106,1100005,,,,,,,2023-05-01,1,,,,,エフファイン,0
879,4010601063028,新規,0,2023-05-01,2023-05-01,わかさ商事株式会社,,株式会社,東京都,江東区,亀戸５丁目６番２１号ＵＩＷ９ＢＬＤＧ４Ｆ,,13,108,1360071,,,,,,,2023-05-01,1,,,,,ワカサショウジ,0
880,4010601063036,新規,0,2023-05-01,2023-05-01,株式会社エソラゴト,,株式会社,東京都,墨田区,文花１丁目１８－１３,,13,107,1310044,,,,,,,2023-05-01,1,,,,,エソラゴト,0
890,4011001153922,新規,0,2023-05-01,2023-05-01,忠訓国際株式会社,,株式会社,東京都,渋谷区,代々木１丁目３０－１５天翔代々木ビル２階Ｓ２０８号室,,13,113,1510053,,,,,,,2023-05-01,1,,,,,チュウクンコクサイ,0
891,4011005010054,新規,0,2023-05-01,2023-05-01,一般社団法人日本ウエルフェア協会,,その他の設立登記法人,東京都,渋谷区,恵比寿１丁目１３番１０号恵比寿壱番館３０３,,13,113,1500013,,,,,,,2023-05-01,1,,,,,ニホンウエルフェアキョウカイ,0
893,4011103013000,新規,0,2023-05-01,2023-05-01,合同会社ＢＥＯＮＥ,,合同会社,東京都,新宿区,新宿３丁目１２番４号新宿Ｎタウンプラザ３０９号,,13,104,1600022,,,,,,,2023-05-01,1,,,,,ビーワン,0
898,4011403003989,新規,0,2023-05-01,2023-05-01,合同会社ＮｉｋｕＱＧａｍｅｓ,,合同会社,東京都,板橋区,南常盤台１丁目１１－６レフア南常盤台１０１号室,,13,119,1740072,,,,,,,2023-05-01,1,,,,,ニクキューゲームス,0
899,4011405002246,新規,0,2023-05-01,2023-05-01,ＡＣ２６一般社団法人,,その他の設立登記法人,東京都,板橋区,上板橋１丁目１９番１６号,,13,119,1740076,,,,,,,2023-05-01,1,,,,,エーシートゥエンティシックス,0
904,4011801042325,新規,0,2023-05-01,2023-05-01,ヴィーメール株式会社,,株式会社,東京都,足立区,西新井本町４丁目１２番２７号１階,,13,121,1230845,,,,,,,2023-05-01,1,,,,,ヴィーメール,0
905,4012403005959,新規,0,2023-05-01,2023-05-01,Ｒｅｎｔ　ａ　Ｈｏｕｓｅ　Ｇｅｒｏｎｃａ合同会社,,合同会社,東京都,狛江市,和泉本町１丁目３５番７－２１７号,,13,219,2010003,,,,,,,2023-05-01,1,,,,,レンタハウスヘロンカ,0
908,4013301050691,新規,0,2023-05-01,2023-05-01,株式会社ＧＰＴＭｏｂｉｌｅ,,株式会社,東京都,豊島区,池袋３丁目３９番２号富貴ビル３０１号,,13,116,1710014,,,,,,,2023-05-01,1,,,,,ジーピーティーモバイル,0
916,4020001151365,新規,0,2023-05-01,2023-05-01,Ｅｌｉｒａｉ株式会社,,株式会社,神奈川県,横浜市中区,翁町２丁目７－１０関内フレックスビル６０６号室,,14,104,2310028,,,,,,,2023-05-01,1,,,,,エリライ,0
917,4020001151398,新規,0,2023-05-01,2023-05-01,株式会社イノベートクリエイション,,株式会社,神奈川県,川崎市多摩区,菅６丁目１３番１－４０７号,,14,135,2140001,,,,,,,2023-05-01,1,,,,,イノベートクリエイション,0
921,4020003023793,新規,0,2023-05-01,2023-05-01,合同会社ミーダ,,合同会社,神奈川県,横浜市西区,北幸２丁目１０番地２８むつみビル３Ｆ,,14,103,2200004,,,,,,,2023-05-01,1,,,,,ミーダ,0
922,4020003023827,新規,0,2023-05-01,2023-05-01,ホワイトホース合同会社,,合同会社,神奈川県,横浜市神奈川区,新子安１丁目２番３－７０９号,,14,102,2210013,,,,,,,2023-05-01,1,,,,,ホワイトホース,0
930,4030001153633,新規,0,2023-05-01,2023-05-01,株式会社Ｌ．Ｉ．Ｂ,,株式会社,埼玉県,戸田市,大字新曽２１０７番地の８,,11,224,3350021,,,,,,,2023-05-01,1,,,,,リブ,0
931,4030001153658,新規,0,2023-05-01,2023-05-01,昌平株式会社,,株式会社,埼玉県,草加市,瀬崎３丁目５番２２号,,11,221,3400022,,,,,,,2023-05-01,1,,,,,,0
946,4040001128188,新規,0,2023-05-01,2023-05-01,Ｈ‐ＭＡＳＨ株式会社,,株式会社,千葉県,松戸市,常盤平５丁目２８番地の５ジュウエル常盤平６０６号,,12,207,2702261,,,,,,,2023-05-01,1,,,,,エイチマッシュ,0
947,4040001128196,新規,0,2023-05-01,2023-05-01,株式会社ＺＥＮ,,株式会社,千葉県,長生郡一宮町,東野１３番地５コンフレール一宮１０１,,12,421,2994306,,,,,,,2023-05-01,1,,,,,ゼン,0
948,4040001128205,新規,0,2023-05-01,2023-05-01,株式会社フルアップ,,株式会社,千葉県,千葉市稲毛区,山王町１２９番地,,12,103,2630002,,,,,,,2023-05-01,1,,,,,フルアップ,0
952,4040005021983,新規,0,2023-05-01,2023-05-01,一般社団法人安房ダイバーシティ研究所,,その他の設立登記法人,千葉県,館山市,犬石１０４番地,,12,205,2940226,,,,,,,2023-05-01,1,,,,,アワダイバーシティケンキュウジョ,0
955,4050005013261,新規,0,2023-05-01,2023-05-01,国鉄水戸動力車労働組合,,その他の設立登記法人,茨城県,水戸市,三の丸３丁目１番３号,,08,201,3100011,,,,,,,2023-05-01,1,,,,,コクテツミトドウリョク,0
960,4060003004534,新規,0,2023-05-01,2023-05-01,オオミヤクリエイティブデザイン合同会社,,合同会社,栃木県,宇都宮市,山本３丁目１１番５号,,09,201,3200012,,,,,,,2023-05-01,1,,,,,オオミヤクリエイティブデザイン,0
963,4070001040381,新規,0,2023-05-01,2023-05-01,ＪＶＳ株式会社,,株式会社,群馬県,邑楽郡邑楽町,大字篠塚１６９７－１４,,10,525,3700615,,,,,,,2023-05-01,1,,,,,,0
969,4080001025588,新規,0,2023-05-01,2023-05-01,株式会社ＡＬＬＩＯＮ,,株式会社,静岡県,静岡市清水区,梅ヶ谷６０７番地の２,,22,103,4240001,,,,,,,2023-05-01,1,,,,,アリオン,0
970,4080101023962,新規,0,2023-05-01,2023-05-01,株式会社アマネ創建,,株式会社,静岡県,富士市,今泉３２６６番地の１,,22,210,4170001,,,,,,,2023-05-01,1,,,,,アマネソウケン,0
988,4120001254488,新規,0,2023-05-01,2023-05-01,国廷株式会社,,株式会社,大阪府,大阪市西成区,花園南１丁目６番９－１０１号,,27,122,5570015,,,,,,,2023-05-01,1,,,,,コクテイ,0
989,4120001254521,新規,0,2023-05-01,2023-05-01,木屋文六株式会社,,株式会社,大阪府,大阪市東淀川区,柴島１丁目２番６号,,27,114,5330024,,,,,,,2023-05-01,1,,,,,キヤブンロク,0
991,4120003023825,新規,0,2023-05-01,2023-05-01,合同会社ＣＴＦ,,合同会社,大阪府,枚方市,村野東町１１－２５グランドソレイユ３０２,,27,210,5730015,,,,,,,2023-05-01,1,,,,,シーティーエフ,0
995,4122001036924,新規,0,2023-05-01,2023-05-01,ＭＨ　Ｔｒａｄｉｎｇ株式会社,,株式会社,大阪府,柏原市,大字雁多尾畑５５８０番地の１ダイコウアパート１０５号室,,27,221,5820012,,,,,,,2023-05-01,1,,,,,エムエイチトレーディング,0
999,4130003008692,新規,0,2023-05-01,2023-05-01,合同会社ＣＯＲＳＡ,,合同会社,京都府,京都市下京区,西七条西久保町３０番地２３,,26,106,6008874,,,,,,,2023-05-01,1,,,,,コルサ,0
1002,4140001129977,新規,0,2023-05-01,2023-05-01,株式会社ＢＥ‐ＯＮＥ,,株式会社,兵庫県,明石市,二見町西二見８８９番地の１－２０２号,,28,203,6740094,,,,,,,2023-05-01,1,,,,,ビーワン,0
1003,4140001129993,新規,0,2023-05-01,2023-05-01,心木株式会社,,株式会社,兵庫県,神戸市長田区,長尾町２丁目１２番４号,,28,106,6530855,,,,,,,2023-05-01,1,,,,,シンモク,0
1004,4140003019045,新規,0,2023-05-01,2023-05-01,合同会社リレーションズ,,合同会社,兵庫県,豊岡市,出石町寺町５２０番地の３,,28,209,6680222,,,,,,,2023-05-01,1,,,,,リレーションズ,0
1005,4140005026601,新規,0,2023-05-01,2023-05-01,一般社団法人ＮｅｘｔＢａｓｅｂａｌｌＴｅａｍｓ,,その他の設立登記法人,兵庫県,西宮市,羽衣町７番３０号夙川グリーンタウン３階ＫＯＷＡＫＵＲＡ内,,28,204,6620051,,,,,,,2023-05-01,1,,,,,ネクストベースボールチームズ,0
1007,4150001026364,新規,0,2023-05-01,2023-05-01,株式会社宮賀商事,,株式会社,奈良県,御所市,大字東辻３４番地１０,00130325,29,208,6392205,,,,,,,2023-05-01,1,,,,,ミヤガショウジ,0
1008,4160001025002,新規,0,2023-05-01,2023-05-01,七賢株式会社,,株式会社,滋賀県,大津市,枝４丁目１０番３５号,,25,201,5202275,,,,,,,2023-05-01,1,,,,,シチケン,0
1015,4180001156068,新規,0,2023-05-01,2023-05-01,株式会社Ｓｔｏｃｋ　Ｆｌｏｗ,,株式会社,愛知県,稲沢市,祖父江町本甲大溝６４番地１ＣＯＳＭＯＨＯＵＳＥ、Ｅ１０１,,23,220,4950012,,,,,,,2023-05-01,1,,,,,ストックフロー,0
1016,4180001156092,新規,0,2023-05-01,2023-05-01,ナッツミート株式会社,,株式会社,愛知県,名古屋市中村区,名駅３丁目３番２号志摩ビル５Ｆ,,23,105,4500002,,,,,,,2023-05-01,1,,,,,ナッツミート,0
1023,4180301037348,新規,0,2023-05-01,2023-05-01,株式会社ＨＭＴ,,株式会社,愛知県,岡崎市,葵町２番地１,,23,202,4440913,,,,,,,2023-05-01,1,,,,,エイチエムティー,0
1029,4200003005939,新規,0,2023-05-01,2023-05-01,合同会社田中林業Ｍ＆Ｓ,,合同会社,岐阜県,山県市,葛原４８８７番地２,,21,215,5012331,,,,,,,2023-05-01,1,,,,,タナカリンギョウエムアンドエス,0
1032,4240001061435,新規,0,2023-05-01,2023-05-01,株式会社タカイ設備設計事務所,,株式会社,広島県,広島市西区,己斐本町２丁目１８番１３号,,34,104,7330812,,,,,,,2023-05-01,1,,,,,タカイセツビセッケイジムショ,0
1039,4260001001208,新規,0,2023-05-01,2023-05-01,株式会社オカタテ,,株式会社,岡山県,岡山市北区,平田１１２番地の１１７,,33,101,7000952,,,,,,,2023-05-01,1,,,,,オカタテ,0
1050,4290001101351,新規,0,2023-05-01,2023-05-01,Ｔｒｅｓ　Ａｌｃｈｅｍｉｘ株式会社,,株式会社,福岡県,福岡市博多区,博多駅前２丁目１９番１７号トーカン博多第５ビル３１２号室,,40,132,8120011,,,,,,,2023-05-01,1,,,,,トレスアルケミクス,0
1055,4290005019029,新規,0,2023-05-01,2023-05-01,医療法人有田クリニック,,その他の設立登記法人,福岡県,糸島市,前原西４丁目５番２８号,,40,230,8191117,,,,,,,2023-05-01,1,,,,,アリタクリニック,0
1062,4320001019730,新規,0,2023-05-01,2023-05-01,湯治ぐらし株式会社,,株式会社,大分県,別府市,大字鶴見４０１番地の１,,44,202,8740840,,,,,,,2023-05-01,1,,,,,トウジグラシ,0
1064,4340001025537,新規,0,2023-05-01,2023-05-01,株式会社暖ＭＵＫＵ,,株式会社,鹿児島県,鹿児島市,下福元町８０２８番地２９,,46,201,8910144,,,,,,,2023-05-01,1,,,,,ダンムック,0
1075,4410003003789,新規,0,2023-05-01,2023-05-01,アウィッシュ合同会社,,合同会社,秋田県,潟上市,天王字鶴沼台６２番地１,,05,211,0100201,,,,,,,2023-05-01,1,,,,,アウィッシュ,0
1079,4430001088946,新規,0,2023-05-01,2023-05-01,株式会社ＨＡＴＴＯＲＩ,,株式会社,北海道,札幌市北区,新川四条１９丁目５番１号プランドール新川ＩＩ－３号,00130327,01,102,0010924,,,,,,,2023-05-01,1,,,,,ハットリ,0
1080,4430001088995,新規,0,2023-05-01,2023-05-01,株式会社札幌みらい運輸,,株式会社,北海道,札幌市中央区,南二十九条西１１丁目４番１０号,,01,101,0640929,,,,,,,2023-05-01,1,,,,,サッポロミライウンユ,0
1081,4430001089003,新規,0,2023-05-01,2023-05-01,株式会社コンソ,,株式会社,北海道,札幌市北区,北三十四条西１１丁目２番３号,,01,102,0010034,,,,,,,2023-05-01,1,,,,,コンソ,0
1082,4430003014982,新規,0,2023-05-01,2023-05-01,合同会社想繋電設,,合同会社,北海道,苫小牧市,日吉町４丁目２０番１号,,01,213,0530816,,,,,,,2023-05-01,1,,,,,ソウケイデンセツ,0
1086,4490003001769,新規,0,2023-05-01,2023-05-01,合同会社高野産業,,合同会社,高知県,高知市,神田１３６９番地１２コーポ中岡１０３,,39,201,7808040,,,,,,,2023-05-01,1,,,,,タカノサンギョウ,0
1087,4490005006898,新規,0,2023-05-01,2023-05-01,一般社団法人にゃあちゅうぷろじぇくと,,その他の設立登記法人,高知県,高知市,薊野北町１丁目１０番３号沢田マンション２７号室,,39,201,7810011,,,,,,,2023-05-01,1,,,,,ニャアチュウプロジェクト,0
1089,4700150115886,新規,0,2023-05-01,2023-05-01,ｑｉｎｇｄａｏ　ｋａｎｇｎｉｘｉｎｃａｉｌｉａｏ　ｙｏｕｘｉａｎｇｏｎｇｓｉ,,外国会社等,,,,,,,,ｓｈｉｂｅｉｑｕ　ｓｈａｎｇｑｉｕｌｕ　７ｈａｏ３ｄａｎｙｕａｎ　６０３ｈｕ　ｑｉｎｇｄａｏｓｈｉ　ｓｈａｎｄｏｎｇｓｈｅｎｇ,,,,,,2023-05-01,1,,,,,チンダォカンニシンチャイリィアォユウゲンコウシ,0
1090,4700150115903,新規,0,2023-05-01,2023-05-01,Ｓｈｅｎｚｈｅｎｓｈｉ　Ｊｉｎｇｂｅｉｋｅｊｉｙｏｕｘｉａｎｇｏｎｇｓｉ,,外国会社等,,,,,,,,Ｌｏｎｇｈｕａ　ｑｕ　ｌｏｎｇ　ｈｕａ　ｊｉｅ　ｄａｏ　ｈｅｐｉｎｇ　ｌｕ　６４ｈａｏ，ｚｈｅｎｈｕａ　ｇｏｎｇ　ｙｅ　ｙｕａｎ　Ｂ５０７　Ｓｈｅｎｚｈｅｎ　Ｇｕａｎｇｄｏｎｇ,,,,,,2023-05-01,1,,,,,シンセンシジンベイケジユウゲンコウシ,0
1102,5010001234921,新規,0,2023-05-01,2023-05-01,ＫＡＲＹＵＵ株式会社,,株式会社,東京都,中央区,晴海５丁目１－１７－１３２４,,13,102,1040053,,,,,,,2023-05-01,1,,,,,カリュー,0
1103,5010001234938,新規,0,2023-05-01,2023-05-01,ＪＰＡ第２８９号株式会社,,株式会社,東京都,千代田区,霞が関３丁目２番１号,,13,101,1000013,,,,,,,2023-05-01,1,,,,,ジェイピーエーダイニヒャクハチジュウキュウゴウ,0
1108,5010003040483,新規,0,2023-05-01,2023-05-01,合同会社首都圏レジ開発シックス,,合同会社,東京都,千代田区,平河町１丁目６番１５号シルスフィア会計事務所内,,13,101,1020093,,,,,,,2023-05-01,1,,,,,シュトケンレジカイハツシックス,0
1109,5010003040500,新規,0,2023-05-01,2023-05-01,合同会社奈良大宮町ホテルマネジメント,,合同会社,東京都,千代田区,霞が関３丁目２番５号,,13,101,1000013,,,,,,,2023-05-01,1,,,,,ナラオオミヤチョウホテルマネジメント,0
1116,5010401174024,新規,0,2023-05-01,2023-05-01,アシスト株式会社,,株式会社,東京都,港区,浜松町２丁目２番１５号浜松町ダイヤビル２Ｆ,,13,103,1050013,,,,,,,2023-05-01,1,,,,,アシスト,0
1118,5010403030019,新規,0,2023-05-01,2023-05-01,合同会社ＬｅａｐＤｏｇ,,合同会社,東京都,港区,白金台５丁目１４番１－７０４号,,13,103,1080071,,,,,,,2023-05-01,1,,,,,リープドッグ,0
1119,5010405022055,新規,0,2023-05-01,2023-05-01,弁護士法人法の里,,その他の設立登記法人,東京都,港区,赤坂６丁目１０番８号ＳＫＩ赤坂ビルディング４階,,13,103,1070052,,,,,,,2023-05-01,1,,,,,ホウノサト,0
1122,5010701044182,新規,0,2023-05-01,2023-05-01,株式会社ＫＡＧＥＭＵＳＨＡ,,株式会社,東京都,品川区,西品川１丁目１番１号住友不動産大崎ガーデンタワー９Ｆ,,13,109,1410033,,,,,,,2023-05-01,1,,,,,カゲムシャ,0
1132,5010903008126,新規,0,2023-05-01,2023-05-01,合同会社ｎｕｔｓｆｉｅｌｄ,,合同会社,東京都,世田谷区,松原３丁目４０－５,,13,112,1560043,,,,,,,2023-05-01,1,,,,,ナッツフィールド,0
1140,5011101102704,新規,0,2023-05-01,2023-05-01,株式会社紅味,,株式会社,東京都,新宿区,西早稲田３丁目１３番１号山口ビル２０１室,,13,104,1690051,,,,,,,2023-05-01,1,,,,,コウミ,0
1141,5011101102712,新規,0,2023-05-01,2023-05-01,株式会社Ｎ・Ｋ　ＪＡＰＡＮ,,株式会社,東京都,新宿区,住吉町６番１０号,,13,104,1620065,,,,,,,2023-05-01,1,,,,,エヌケイジャパン,0
1144,5011203004071,新規,0,2023-05-01,2023-05-01,合同会社ｆｏｏｌ,,合同会社,東京都,中野区,野方１丁目２１－１０,,13,114,1650027,,,,,,,2023-05-01,1,,,,,フール,0
1147,5011401025092,新規,0,2023-05-01,2023-05-01,ムートン・エクスプレス株式会社,,株式会社,東京都,板橋区,成増３丁目５１番１号瑞光ビル３階,,13,119,1750094,,,,,,,2023-05-01,1,,,,,ムートンエクスプレス,0
1149,5011701026187,新規,0,2023-05-01,2023-05-01,株式会社Ｑ‐Ｌ,,株式会社,東京都,江戸川区,西瑞江３丁目１９番５７号,,13,123,1320015,,,,,,,2023-05-01,1,,,,,キューエル,0
1150,5011703003457,新規,0,2023-05-01,2023-05-01,ＡＶＡＮＩ合同会社,,合同会社,東京都,江戸川区,清新町１丁目１番３－５０８号,,13,123,1340087,,,,,,,2023-05-01,1,,,,,アバニ,0
1157,5013303006609,新規,0,2023-05-01,2023-05-01,ＴＡＩＳＮＯＷ合同会社,,合同会社,東京都,豊島区,東池袋１丁目１７番１１号パークハイツ池袋１１０５号,,13,116,1700013,,,,,,,2023-05-01,1,,,,,タイスノー,0
1169,5020001151356,新規,0,2023-05-01,2023-05-01,株式会社ＭＩＵ,,株式会社,神奈川県,横浜市中区,本牧町２丁目２８４番地３０,,14,104,2310806,,,,,,,2023-05-01,1,,,,,エムアイユー,0
1176,5020003023677,新規,0,2023-05-01,2023-05-01,合同会社ＧＥＬＧＥ,,合同会社,神奈川県,川崎市川崎区,渡田山王町７番１２－９０２号,,14,131,2100845,,,,,,,2023-05-01,1,,,,,ゲルゲ,0
1177,5020003023818,新規,0,2023-05-01,2023-05-01,ＡＺＡ商店合同会社,,合同会社,神奈川県,横浜市西区,浅間町１丁目４番３号ウィザードビル４０２,,14,103,2200072,,,,,,,2023-05-01,1,,,,,エイゼットエイショウテン,0
1178,5020003023842,新規,0,2023-05-01,2023-05-01,野鶴合同会社,,合同会社,神奈川県,川崎市麻生区,岡上１丁目１７番１号,,14,137,2150027,,,,,,,2023-05-01,1,,,,,ヤカク,0
1179,5020005015978,新規,0,2023-05-01,2023-05-01,一般社団法人楓美会,,その他の設立登記法人,神奈川県,横浜市緑区,三保町３２番地,,14,113,2260015,,,,,,,2023-05-01,1,,,,,フウビカイ,0
1189,5030001153657,新規,0,2023-05-01,2023-05-01,ナップザガーデン株式会社,,株式会社,埼玉県,さいたま市見沼区,大字小深作４４５番地３,,11,104,3370005,,,,,,,2023-05-01,1,,,,,ナップザガーデン,0
1190,5030001153665,新規,0,2023-05-01,2023-05-01,メディカル・ケア・プランニング宮代株式会社,,株式会社,埼玉県,南埼玉郡宮代町,字道佛２２番地,,11,442,3450811,,,,,,,2023-05-01,1,,,,,メディカルケアプランニングミヤシロ,0
1191,5030001153673,新規,0,2023-05-01,2023-05-01,株式会社松実,,株式会社,埼玉県,蕨市,塚越２丁目１３番７号フラット山岸３０６号,,11,223,3350002,,,,,,,2023-05-01,1,,,,,ショウミ,0
1193,5030003021655,新規,0,2023-05-01,2023-05-01,合同会社アーキサンド,,合同会社,埼玉県,さいたま市大宮区,桜木町２丁目３番地大宮マルイ７階,,11,103,3300854,,,,,,,2023-05-01,1,,,,,アーキサンド,0
1198,5040001128187,新規,0,2023-05-01,2023-05-01,ＹＡＳＨＩＭＡｃｏｎｓｔｒｕｃｔｉｏｎ株式会社,,株式会社,千葉県,八千代市,大和田３３２番地９シェスム大和田３号棟,,12,221,2760045,,,,,,,2023-05-01,1,,,,,ヤシマコンストラクション,0
1199,5040001128195,新規,0,2023-05-01,2023-05-01,株式会社ｈａｎａ,,株式会社,千葉県,船橋市,本町２丁目２５番２６号,,12,204,2730005,,,,,,,2023-05-01,1,,,,,ハナ,0
1200,5040001128229,新規,0,2023-05-01,2023-05-01,ＩＮＴＩ株式会社,,株式会社,千葉県,山武市,姫島３１９番地３５,,12,237,2891327,,,,,,,2023-05-01,1,,,,,インティ,0
1201,5040001128237,新規,0,2023-05-01,2023-05-01,株式会社シエル,,株式会社,千葉県,野田市,上花輪７３９,,12,208,2780033,,,,,,,2023-05-01,1,,,,,シエル,0
1203,5040002054143,新規,0,2023-05-01,2023-05-01,有限会社三ヶ尾不動産,,有限会社,千葉県,流山市,美原４丁目２０５番地,,12,220,2700103,,,,,,,2023-05-01,1,,,,,サンガオフドウサン,0
1207,5040003022396,新規,0,2023-05-01,2023-05-01,合同会社ＷＡＫＵＷＡＫＵ,,合同会社,千葉県,市原市,ちはら台東８丁目８－１９７,,12,219,2900141,,,,,,,2023-05-01,1,,,,,ワクワク,0
1215,5050003007462,新規,0,2023-05-01,2023-05-01,合同会社ＩＳＡ　ＭＯＴＯＲＳ,,合同会社,茨城県,猿島郡境町,大字伏木字関根１５４５番地１,,08,546,3060416,,,,,,,2023-05-01,1,,,,,イサモータース,0
1227,5080003002972,新規,0,2023-05-01,2023-05-01,合同会社静岡評価センター,,合同会社,静岡県,静岡市清水区,船越南町７４５番地の７,,22,103,4240863,,,,,,,2023-05-01,1,,,,,シズオカヒョウカセンター,0
1235,5100001036359,新規,0,2023-05-01,2023-05-01,Ｔ・Ｍ・Ｒ株式会社,,株式会社,長野県,岡谷市,大栄町２丁目１番５号,,20,204,3940025,,,,,,,2023-05-01,1,,,,,ティーエムアール,0
1239,5110001037488,新規,0,2023-05-01,2023-05-01,株式会社ＴＫＳ,,株式会社,新潟県,三条市,福島新田丁３２１番地,,15,204,9591155,,,,,,,2023-05-01,1,,,,,ティーケーエス,0
1245,5120001254289,新規,0,2023-05-01,2023-05-01,株式会社ＴＥＮ,,株式会社,大阪府,大阪市浪速区,難波中１丁目１４－８－４０２,,27,111,5560011,,,,,,,2023-05-01,1,,,,,テン,0
1246,5120001254537,新規,0,2023-05-01,2023-05-01,ライフサポートのぞみ株式会社,,株式会社,大阪府,大阪市中央区,谷町７丁目３番４－２１６号,,27,128,5420012,,,,,,,2023-05-01,1,,,,,ライフサポートノゾミ,0
1250,5120101067450,新規,0,2023-05-01,2023-05-01,株式会社Ｋ２ｔｅｃ．,,株式会社,大阪府,岸和田市,土生町１丁目４番２９号,,27,202,5960825,,,,,,,2023-05-01,1,,,,,ケーツーテック,0
1254,5120901047478,新規,0,2023-05-01,2023-05-01,株式会社吉野商店,,株式会社,大阪府,摂津市,鳥飼八町２丁目１０番２１号,,27,224,5660061,,,,,,,2023-05-01,1,,,,,ヨシノショウテン,0
1258,5130001074199,新規,0,2023-05-01,2023-05-01,株式会社麺逢,,株式会社,京都府,京都市中京区,壬生森町５６番地１０,,26,104,6048862,,,,,,,2023-05-01,1,,,,,メンホウ,0
1262,5140001130034,新規,0,2023-05-01,2023-05-01,株式会社ハチ,,株式会社,兵庫県,西宮市,高松町１０番１０号北浦ハイツ１Ｆ,,28,204,6638204,,,,,,,2023-05-01,1,,,,,ハチ,0
1264,5140003019044,新規,0,2023-05-01,2023-05-01,マリイング合同会社,,合同会社,兵庫県,宝塚市,山本南３丁目１－２８ダイアパレスＱ４－６０５,,28,214,6650882,,,,,,,2023-05-01,1,,,,,マリイング,0
1269,5150001026371,新規,0,2023-05-01,2023-05-01,株式会社ＳＴＢ,,株式会社,奈良県,奈良市,青垣台３丁目１５１－１８,,29,201,6310053,,,,,,,2023-05-01,1,,,,,エスティービー,0
1272,5160003002865,新規,0,2023-05-01,2023-05-01,Ｍｅｄ　Ｓｕｐ合同会社,,合同会社,滋賀県,栗東市,小柿９丁目１１番３６号,,25,208,5203024,,,,,,,2023-05-01,1,,,,,メドサップ,0
1273,5170003001866,新規,0,2023-05-01,2023-05-01,合同会社みらい,,合同会社,和歌山県,和歌山市,楠見中１０７番地５,,30,201,6408463,,,,,,,2023-05-01,1,,,,,ミライ,0
1283,5180001156067,新規,0,2023-05-01,2023-05-01,株式会社トヨダ内装,,株式会社,愛知県,一宮市,北方町曽根字村裏東１０２０番地１１,,23,203,4938002,,,,,,,2023-05-01,1,,,,,トヨダナイソウ,0
1284,5180001156091,新規,0,2023-05-01,2023-05-01,大峰企業株式会社,,株式会社,愛知県,名古屋市南区,天白町５丁目１７番地の１,,23,112,4570803,,,,,,,2023-05-01,1,,,,,タイホウキギョウ,0
1287,5180301037347,新規,0,2023-05-01,2023-05-01,株式会社トキサインボード,,株式会社,愛知県,豊川市,東名町１丁目８１番地,,23,207,4420019,,,,,,,2023-05-01,1,,,,,トキサインボード,0
1323,5290001101359,新規,0,2023-05-01,2023-05-01,株式会社楽プロ,,株式会社,福岡県,福岡市博多区,博多駅前１丁目２３番１号ＰａｒｋＦｒｏｎｔ博多駅前１丁目５Ｆ－Ｂ,,40,132,8120011,,,,,,,2023-05-01,1,,,,,ラクプロ,0
1324,5290001101375,新規,0,2023-05-01,2023-05-01,ＩＮＫＦＮＫ株式会社,,株式会社,福岡県,福岡市中央区,大名１丁目２番２８号１Ｆ,,40,133,8100041,,,,,,,2023-05-01,1,,,,,インクファンク,0
1327,5290003013866,新規,0,2023-05-01,2023-05-01,合同会社Ｄａｄｄｙ’ｓ　ＢＡＳＥ福岡,,合同会社,福岡県,久留米市,藤光町９８９番地８,,40,203,8300054,,,,,,,2023-05-01,1,,,,,ダディーズベースフクオカ,0
1334,5320001019738,新規,0,2023-05-01,2023-05-01,株式会社不動産の木,,株式会社,大分県,別府市,大字鶴見３０７２番地の３,,44,202,8740840,,,,,,,2023-05-01,1,,,,,フドウサンノキ,0
1344,5340001025536,新規,0,2023-05-01,2023-05-01,湾藍ベイブルー株式会社,,株式会社,鹿児島県,枕崎市,宮田町２６４番地２,,46,204,8980022,,,,,,,2023-05-01,1,,,,,ワンランベイブルー,0
1350,5360001031953,新規,0,2023-05-01,2023-05-01,一久株式会社,,株式会社,沖縄県,石垣市,字登野城３１９番地３,,47,207,9070004,,,,,,,2023-05-01,1,,,,,イッキュウ,0
1351,5360003012927,新規,0,2023-05-01,2023-05-01,合同会社川満実業,,合同会社,沖縄県,宮古島市,平良字久貝１０３３番地サンセットヒルズ２－６,,47,214,9060015,,,,,,,2023-05-01,1,,,,,カワミツジツギョウ,0
1367,5430001089027,新規,0,2023-05-01,2023-05-01,株式会社管野建設,,株式会社,北海道,札幌市手稲区,前田八条１９丁目６番１１号,,01,109,0060818,,,,,,,2023-05-01,1,,,,,カンノケンセツ,0
1370,5450001013967,新規,0,2023-05-01,2023-05-01,株式会社やるねぇファーム,,株式会社,北海道,上川郡剣淵町,藤本町１５４８番地３,,01,465,0980342,,,,,,,2023-05-01,1,,,,,ヤルネェファーム,0
1376,5500001024901,新規,0,2023-05-01,2023-05-01,株式会社マルデン,,株式会社,愛媛県,松山市,余戸南３丁目１０番３０号,,38,201,7900047,,,,,,,2023-05-01,1,,,,,マルデン,0
1378,5700150115885,新規,0,2023-05-01,2023-05-01,ＳｈｅｎｚｈｅｎＳｈｉ　ＺｈｉｓｈｕｎｙｉｎｇＭａｏｙｉ　ＹｏｕｘｉａｎＧｏｎｇｓｉ,,外国会社等,,,,,,,,ｍｉｎｚｈｉ　Ｃｏｍｍｕｎｉｔｙ，Ｍｉｎｚｈｉ　Ｓｔｒｅｅｔ，Ｌｏｎｇｈｕａ　Ｄｉｓｔｒｉｃｔ，５１１Ａ，Ｂｕｉｌｄｉｎｇ　１，１９７０　Ｓｃｉｅｎｃｅ　Ｐａｒｋ　Ｓｈｅｎｚｈｅｎ　Ｃｉｔｙ，Ｇｕａｎｇｄｏｎｇ,,,,,,2023-05-01,1,,,,,シンセンシジスンインマオイユウゲンコウシ,0
1379,5700150115893,新規,0,2023-05-01,2023-05-01,Ａｇｉｌｉｔｙ　ＣＩＳ　Ｌｉｍｉｔｅｄ,,外国会社等,,,,,,,,Ｌｅｖｅｌ　１０　５６　Ｃａｗｌｅｙ　Ｓｔｒｅｅｔ　Ｅｌｌｅｒｓｌｉｅ，Ａｕｃｋｌａｎｄ　１０５１，Ｎｅｗ　Ｚｅａｌａｎｄ,,,,,,2023-05-01,1,,,,,アジリーテイーシーアイエスリミテツド,0
1380,5700150115902,新規,0,2023-05-01,2023-05-01,ｓｈｅｎｚｈｅｎｓｈｉ　ｗａｎｚｈｏｎｇｆｕｈｕａｙｕａｎ　ｙｏｕｘｉａｎｇｏｎｇｓｉ,,外国会社等,,,,,,,,Ｌｏｎｇｈｕａ　Ｄｉｓｔｒｉｃｔ，Ｍｉｎｚｈｉ　Ｓｔｒｅｅｔ　Ｘｉｎｎｉｕ　Ｃｏｍｍｕｎｉｔｙ，Ｗａｎｚｈｏｎｇ　Ｃｉｔｙ　ＦｕｚｈｕａｎｇｐｉｆａｓｈｉｃｈａｎｇＡ３１６９　ＳｈｅｎＺｈｅｎ　ＧｕａｎｇＤｏｎｇ,,,,,,2023-05-01,1,,,,,シンセンシワンゾォウフホゥアユェンユウゲンコウシ,0
1395,6010001234929,新規,0,2023-05-01,2023-05-01,ＪＰＡ第２８０号株式会社,,株式会社,東京都,千代田区,霞が関３丁目２番１号,,13,101,1000013,,,,,,,2023-05-01,1,,,,,ジェイピーエーダイニヒャクハチジュウゴウ,0
1396,6010001234937,新規,0,2023-05-01,2023-05-01,ＪＰＡ第２８８号株式会社,,株式会社,東京都,千代田区,霞が関３丁目２番１号,,13,101,1000013,,,,,,,2023-05-01,1,,,,,ジェイピーエーダイニヒャクハチジュウハチゴウ,0
1397,6010001234994,新規,0,2023-05-01,2023-05-01,幸福生活株式会社,,株式会社,東京都,中央区,日本橋蛎殻町１丁目３番５号共同ビル２階２３号,,13,102,1030014,,,,,,,2023-05-01,1,,,,,コウフクセイカツ,0
1405,6010003040482,新規,0,2023-05-01,2023-05-01,合同会社首都圏レジ開発ファイブ,,合同会社,東京都,千代田区,平河町１丁目６番１５号シルスフィア会計事務所内,,13,101,1020093,,,,,,,2023-05-01,1,,,,,シュトケンレジカイハツファイブ,0
1415,6010401174007,新規,0,2023-05-01,2023-05-01,株式会社仁,,株式会社,東京都,港区,浜松町２丁目２番１５号浜松町ダイヤビル２Ｆ,,13,103,1050013,,,,,,,2023-05-01,1,,,,,ジン,0
1418,6010403030018,新規,0,2023-05-01,2023-05-01,合同会社Ｓａｎｓｈｕ,,合同会社,東京都,港区,赤坂７丁目８番７号,,13,103,1070052,,,,,,,2023-05-01,1,,,,,サンシュウ,0
1422,6010405022112,新規,0,2023-05-01,2023-05-01,一般社団法人真名子太陽光,,その他の設立登記法人,東京都,港区,六本木１丁目９番１０号アークヒルズ仙石山森タワー４０階,,13,103,1060032,,,,,,,2023-05-01,1,,,,,マナゴタイヨウコウ,0
1429,6010705003506,新規,0,2023-05-01,2023-05-01,一般社団法人メディウェイ,,その他の設立登記法人,東京都,品川区,西五反田１丁目２３番７号,,13,109,1410031,,,,,,,2023-05-01,1,,,,,メディウェイ,0
1436,6011005010052,新規,0,2023-05-01,2023-05-01,一般社団法人東急グループ慶太塾,,その他の設立登記法人,東京都,渋谷区,南平台町５番６号,,13,113,1500036,,,,,,,2023-05-01,1,,,,,トウキュウグループケイタジュク,0
1440,6011101102703,新規,0,2023-05-01,2023-05-01,ＺｅｎＬｉｎｋ株式会社,,株式会社,東京都,新宿区,百人町１丁目５－４東都ビル６０１,,13,104,1690073,,,,,,,2023-05-01,1,,,,,ゼンリンク,0
1441,6011103012999,新規,0,2023-05-01,2023-05-01,合同会社ＮＩＫＫＥＮ,,合同会社,東京都,新宿区,西新宿３丁目３番１３号西新宿水間ビル６階,,13,104,1600023,,,,,,,2023-05-01,1,,,,,ナイケン,0
1442,6011403003987,新規,0,2023-05-01,2023-05-01,合同会社ＥＴＷＡＳ,,合同会社,東京都,板橋区,大谷口上町８５－１－２０７,,13,119,1730032,,,,,,,2023-05-01,1,,,,,エトワス,0
1444,6011601026781,新規,0,2023-05-01,2023-05-01,ｚｏｃ株式会社,,株式会社,東京都,練馬区,練馬３丁目１番８－４０１号,,13,120,1760001,,,,,,,2023-05-01,1,,,,,ゾック,0
1467,6020001151339,新規,0,2023-05-01,2023-05-01,ＧＯＪＯ株式会社,,株式会社,神奈川県,横浜市港南区,日野中央３丁目１６番２１－４０３号,,14,111,2340053,,,,,,,2023-05-01,1,,,,,ゴジョウ,0
1468,6020001151363,新規,0,2023-05-01,2023-05-01,株式会社Ｙｏｋｏｈａｍａ　Ｔｉｌｅ　Ｗｏｒｋｓ,,株式会社,神奈川県,横浜市鶴見区,東寺尾１丁目４０番５号大山ハイツ１０１,,14,101,2300077,,,,,,,2023-05-01,1,,,,,ヨコハマタイルワークス,0
1469,6020001151396,新規,0,2023-05-01,2023-05-01,株式会社Ｃａｌｍ,,株式会社,神奈川県,横浜市港北区,新吉田東８丁目４７番３６－３０７号,,14,109,2230058,,,,,,,2023-05-01,1,,,,,カルム,0
1476,6020003023759,新規,0,2023-05-01,2023-05-01,ＢＩＢＩＫＡ合同会社,,合同会社,神奈川県,川崎市川崎区,日進町２２番地１寿々喜ビル３０３,,14,131,2100024,,,,,,,2023-05-01,1,,,,,ビビカ,0
1481,6030001153664,新規,0,2023-05-01,2023-05-01,株式会社言合,,株式会社,埼玉県,草加市,谷塚町５１２－４ユウハイツ２０３号室,,11,221,3400023,,,,,,,2023-05-01,1,,,,,イア,0
1489,6040001128178,新規,0,2023-05-01,2023-05-01,Ｊ＆Ｃエクスプレス株式会社,,株式会社,千葉県,市川市,南行徳２丁目２１－６Ｄレガーロ１０７,,12,203,2720138,,,,,,,2023-05-01,1,,,,,ジェーアンドシーエクスプレス,0
1490,6040001128203,新規,0,2023-05-01,2023-05-01,株式会社ＬＩＮＫ　ＵＰ,,株式会社,千葉県,習志野市,本大久保２丁目４番３－５０１号,,12,216,2750012,,,,,,,2023-05-01,1,,,,,リンクアップ,0
1507,6080401026457,新規,0,2023-05-01,2023-05-01,株式会社美住,,株式会社,静岡県,浜松市中区,常盤町１３３番地の６クレフ常盤５０３,,22,131,4300917,,,,,,,2023-05-01,1,,,,,ビジュウ,0
1522,6120001254536,新規,0,2023-05-01,2023-05-01,株式会社ＨＯＲＩＺＯＮ,,株式会社,大阪府,大阪市北区,豊崎３丁目１６番１６－２１１５号,,27,127,5310072,,,,,,,2023-05-01,1,,,,,ホリゾン,0
1527,6120101067458,新規,0,2023-05-01,2023-05-01,株式会社ホンヤマテック,,株式会社,大阪府,堺市堺区,車之町東１丁１番２号,,27,141,5900943,,,,,,,2023-05-01,1,,,,,ホンヤマテック,0
1533,6130001074198,新規,0,2023-05-01,2023-05-01,株式会社Ｐｒｅｃｉｏｕｓ,,株式会社,京都府,宇治市,宇治半白１０８番地サイセリア宇治Ｂ－１０３,,26,204,6110021,,,,,,,2023-05-01,1,,,,,プレシャス,0
1542,6140001129975,新規,0,2023-05-01,2023-05-01,株式会社５１０,,株式会社,兵庫県,赤穂市,鷏和１１９６番地２,,28,212,6780256,,,,,,,2023-05-01,1,,,,,ゴトウ,0
1543,6140001129983,新規,0,2023-05-01,2023-05-01,株式会社ｏｇｇｉ　ｏｔｔｏ,,株式会社,兵庫県,西宮市,若松町５－５,,28,204,6620035,,,,,,,2023-05-01,1,,,,,オッジオット,0
1544,6140001129991,新規,0,2023-05-01,2023-05-01,Ａ’Ｂａｓｅ株式会社,,株式会社,兵庫県,芦屋市,打出町５番２１号１０１,,28,206,6590022,,,,,,,2023-05-01,1,,,,,エーベース,0
1545,6140001130000,新規,0,2023-05-01,2023-05-01,株式会社ｉｎｔｏ,,株式会社,兵庫県,神戸市中央区,雲井通２丁目１番９号,,28,110,6510096,,,,,,,2023-05-01,1,,,,,イントゥー,0
1550,6140003019043,新規,0,2023-05-01,2023-05-01,合同会社ＡｐＴコンサルティング,,合同会社,兵庫県,神戸市中央区,相生町５丁目１２番１８号,,28,110,6500025,,,,,,,2023-05-01,1,,,,,エイピーティーコンサルティング,0
1556,6170001017574,新規,0,2023-05-01,2023-05-01,株式会社ステンレス魚住,,株式会社,和歌山県,和歌山市,下三毛４１６番地１,,30,201,6496263,,,,,,,2023-05-01,1,,,,,ステンレスウオズミ,0
1560,6180001156074,新規,0,2023-05-01,2023-05-01,株式会社ＮＩＧＡＭＩ,,株式会社,愛知県,名古屋市中村区,名駅３丁目４－１０アルティメイト名駅１ｓｔ２階,,23,105,4500002,,,,,,,2023-05-01,1,,,,,ニガミ,0
1561,6180001156082,新規,0,2023-05-01,2023-05-01,株式会社ＨＹ,,株式会社,愛知県,大府市,江端町３丁目１４３番地,,23,223,4740035,,,,,,,2023-05-01,1,,,,,エイチワイ,0
1569,6190001030344,新規,0,2023-05-01,2023-05-01,株式会社スターライト,,株式会社,三重県,志摩市,阿児町国府１０４８番地１０号,,24,215,5170506,,,,,,,2023-05-01,1,,,,,スターライト,0
1575,6230003002007,新規,0,2023-05-01,2023-05-01,富山トータルサービス合同会社,,合同会社,富山県,富山市,婦中町田島６５７番地１シャノワール１０２号,,16,201,9392702,,,,,,,2023-05-01,1,,,,,トヤマトータルサービス,0
1576,6240001061433,新規,0,2023-05-01,2023-05-01,株式会社薫化舎ひろしま,,株式会社,広島県,広島市東区,二葉の里１丁目１番地７２,,34,102,7320057,,,,,,,2023-05-01,1,,,,,クンカシャヒロシマ,0
1586,6250001020074,新規,0,2023-05-01,2023-05-01,株式会社パンゲア,,株式会社,山口県,下関市,上田中町２丁目２０番６号,,35,201,7500009,,,,,,,2023-05-01,1,,,,,パンゲア,0
1595,6290001101325,新規,0,2023-05-01,2023-05-01,和庭株式会社,,株式会社,福岡県,福岡市早良区,西新７丁目８番１１号,,40,137,8140002,,,,,,,2023-05-01,1,,,,,ワテイ,0
1596,6290001101374,新規,0,2023-05-01,2023-05-01,Ｑｕｏｋｋａ株式会社,,株式会社,福岡県,福岡市中央区,大濠１丁目６番１号,,40,133,8100052,,,,,,,2023-05-01,1,,,,,クオッカ,0
1597,6290001101382,新規,0,2023-05-01,2023-05-01,株式会社ｅａｒｃｅ　Ａｃｔ,,株式会社,福岡県,糸島市,前原駅南２丁目９番６号,,40,230,8191138,,,,,,,2023-05-01,1,,,,,アースアクト,0
1601,6290003013857,新規,0,2023-05-01,2023-05-01,ラクゲン合同会社,,合同会社,福岡県,福岡市博多区,博多駅東２丁目５番１９号サンライフ第３ビル５Ｆ・６Ｆ,,40,132,8120013,,,,,,,2023-05-01,1,,,,,ラクゲン,0
1602,6290003013865,新規,0,2023-05-01,2023-05-01,合同会社アシスト,,合同会社,福岡県,福岡市博多区,博多駅前１丁目２３番１号ＰａｒｋＦｒｏｎｔ博多駅前１丁目５Ｆ－Ｂ,,40,132,8120011,,,,,,,2023-05-01,1,,,,,アシスト,0
1605,6290801029501,新規,0,2023-05-01,2023-05-01,株式会社Ｊｉｎｋｅｉｄｏ,,株式会社,福岡県,北九州市小倉南区,横代北町３丁目１番２５－１０２号,,40,107,8020821,,,,,,,2023-05-01,1,,,,,ジンケイドウ,0
1606,6300001013287,新規,0,2023-05-01,2023-05-01,グッドリング株式会社,,株式会社,佐賀県,佐賀市,嘉瀬町大字十五１３１７番地１,,41,201,8400863,,,,,,,2023-05-01,1,,,,,グッドリング,0
1607,6310001018392,新規,0,2023-05-01,2023-05-01,ＷＡＧＹＵＭＡＦＩＡ　ＮＡＧＡＳＡＫＩ株式会社,,株式会社,長崎県,長崎市,万才町３番５号,,42,201,8500033,,,,,,,2023-05-01,1,,,,,ワギュウマフィアナガサキ,0
1608,6320001019729,新規,0,2023-05-01,2023-05-01,メンテナンスサービス株式会社,,株式会社,大分県,大分市,新栄町１５番１１号,,44,201,8700919,,,,,,,2023-05-01,1,,,,,メンテナンスサービス,0
1609,6330002016724,新規,0,2023-05-01,2023-05-01,有限会社西合志養鷄センター,,有限会社,熊本県,合志市,野々島３８６番地,,43,216,8611103,,,,,,,2023-05-01,1,,,,,ニシゴウシヨウケイセンター,0
1610,6330003009818,新規,0,2023-05-01,2023-05-01,合同会社ひまわりコミュニケーション,,合同会社,熊本県,阿蘇郡南阿蘇村,大字久石３８７４番地１５,,43,433,8691412,,,,,,,2023-05-01,1,,,,,,0
1615,6360001031960,新規,0,2023-05-01,2023-05-01,株式会社ＯＫＩＮＡＷＡ　ＩＳＬＡＮＤ,,株式会社,沖縄県,中頭郡北谷町,字宮城１番地１アルトゥーレ美浜６１８,,47,326,9040113,,,,,,,2023-05-01,1,,,,,オキナワアイランド,0
1616,6360003012926,新規,0,2023-05-01,2023-05-01,合同会社すみれ,,合同会社,沖縄県,沖縄市,古謝２丁目２９番３５号ＨＱＤＭＧＲＡＣＥ４０２号,,47,211,9042161,,,,,,,2023-05-01,1,,,,,スミレ,0
1617,6360003012934,新規,0,2023-05-01,2023-05-01,合同会社カネヤカンパニー,,合同会社,沖縄県,那覇市,泉崎２丁目９番地４,,47,201,9000021,,,,,,,2023-05-01,1,,,,,カネヤカンパニー,0
1623,6380005012708,新規,0,2023-05-01,2023-05-01,特定非営利活動法人ＯＮＥ　ＳＴＥＰ,,その他の設立登記法人,福島県,いわき市,錦町江栗１丁目６１番地,,07,204,9748232,,,,,,,2023-05-01,1,,,,,ワンステップ,0
1635,6430001088977,新規,0,2023-05-01,2023-05-01,株式会社ウッドシェフ,,株式会社,北海道,江別市,緑ケ丘２１番地の５,,01,217,0690823,,,,,,,2023-05-01,1,,,,,ウッドシェフ,0
1643,6700150115884,新規,0,2023-05-01,2023-05-01,Ｓｈｅｎ　Ｚｈｅｎ　Ｃｈｕａｎｇ　Ｑｉｎｇ　Ｃｈｕｎ　Ｋｅ　Ｊｉ　Ｙｏｕ　Ｘｉａｎ　Ｇｏｎｇ　Ｓｉ,,外国会社等,,,,,,,,ｓｈｅｎ　ｚｈｅｎ　ｓｈｉ　ｌｏｎｇ　ｇａｎｇ　ｑｕ　ｂａｎ　ｔｉａｎ　ｊｉｅ　ｄａｏ　ｘｉｎ　ｘｕｅ　ｓｈｅ　ｙｉ　ｓｈａｎｇ　ｘｕｅ　ｋｅ　ｊｉ　ｃｈｅｎｇ　ｙｉ　ｌｕ　ｓａｎ　ｈａｏ　Ｂｄｏｎｇ　６０１,,,,,,2023-05-01,1,,,,,シェンジェンチュワンチンチュンコージーヨウシエンゴンスー,0
1644,6700150115892,新規,0,2023-05-01,2023-05-01,Ｆｏｃｕｓ　Ｅｎｔｅｒｔａｉｎｍｅｎｔ,,外国会社等,,,,,,,,ｐａｒｃ　ｄｅ　Ｆｌａｎｄｒｅ　Ｌｅ　Ｂｅａｕｖａｓｉｓ　ｂａｔｉｍｅｎｔ　２８－１１　ｒｕｅ　Ｃａｍｂｒａｉ　７５１０９　Ｐａｒｉｓ,,,,,,2023-05-01,1,,,,,フオーカスエンターテイメント,0
1645,6700150115901,新規,0,2023-05-01,2023-05-01,ｗｅｉｆａｎｇ　ｈｅｆｅｎｇｌａｏｂａｏｙｏｎｇｐｉｎ　ｙｏｕｘｉａｎｇｏｎｇｓｉ,,外国会社等,,,,,,,,ｇａｏｍｉｊｉｎｇｊｉｋａｉｆａｑｕ　ｙａｏｑｉａｎｌｕ　１６７１ｈａｏ　ｗｅｉｆａｎｇｓｈｉ　ｇａｏｍｉｓｈｉ　ｓｈａｎｄｏｎｇ　ｓｈｅｎｇ,,,,,,2023-05-01,1,,,,,ウェイファンヘフェンラオバオヨンピンユウゲンコウシ,0
1657,7010001234911,新規,0,2023-05-01,2023-05-01,株式会社Ｍ企画,,株式会社,東京都,中央区,銀座８丁目７番５号金春ビル３階,,13,102,1040061,,,,,,,2023-05-01,1,,,,,エムキカク,0
1658,7010001234928,新規,0,2023-05-01,2023-05-01,ＪＰＡ第２７９号株式会社,,株式会社,東京都,千代田区,霞が関３丁目２番１号,,13,101,1000013,,,,,,,2023-05-01,1,,,,,ジェイピーエーダイニヒャクナナジュウキュウゴウ,0
1659,7010001234936,新規,0,2023-05-01,2023-05-01,ＪＰＡ第２８７号株式会社,,株式会社,東京都,千代田区,霞が関３丁目２番１号,,13,101,1000013,,,,,,,2023-05-01,1,,,,,ジェイピーエーダイニヒャクハチジュウナナゴウ,0
1660,7010001234952,新規,0,2023-05-01,2023-05-01,Ｋａｇｒａ　Ｋｉｔｃｈｅｎｓ株式会社,,株式会社,東京都,千代田区,神田美土代町９番地３日経タイプビル２階,,13,101,1010053,,,,,,,2023-05-01,1,,,,,カグラキッチン,0
1661,7010001234960,新規,0,2023-05-01,2023-05-01,三井不動産ＴＥＰＣＯエナジー株式会社,,株式会社,東京都,中央区,日本橋室町３丁目２番１号,,13,102,1030022,,,,,,,2023-05-01,1,,,,,ミツイフドウサンテプコエナジー,0
1675,7010401174039,新規,0,2023-05-01,2023-05-01,株式会社Ｆａｄｅｒ,,株式会社,東京都,港区,浜松町２丁目２番１５号ダイヤビル２Ｆ,,13,103,1050013,,,,,,,2023-05-01,1,,,,,フェーダー,0
1682,7010405022053,新規,0,2023-05-01,2023-05-01,一般社団法人日本デジタル人材育成推進協会,,その他の設立登記法人,東京都,港区,赤坂８丁目１２番１６号,,13,103,1070052,,,,,,,2023-05-01,1,,,,,ニホンデジタルジンザイイクセイスイシンキョウカイ,0
1683,7010405022094,新規,0,2023-05-01,2023-05-01,ＥＳＲ３７特定目的会社,,その他の設立登記法人,東京都,港区,浜松町１丁目２０番１０号ライオネス浜松町５０６号室,,13,103,1050013,,,,,,,2023-05-01,1,,,,,イーエスアールサンジュウナナ,0
1700,7010903008124,新規,0,2023-05-01,2023-05-01,啓紀航合同会社,,合同会社,東京都,世田谷区,豪徳寺１丁目１８番１４号,,13,112,1540021,,,,,,,2023-05-01,1,,,,,ケイキコウ,0
1710,7011101102702,新規,0,2023-05-01,2023-05-01,ＪＣ株式会社,,株式会社,東京都,新宿区,西落合３丁目１－２コスモ西落合８０３号室,,13,104,1610031,,,,,,,2023-05-01,1,,,,,ジェーシー,0
1712,7011103013014,新規,0,2023-05-01,2023-05-01,合同会社Ｖｉｏｌｅｔ,,合同会社,東京都,新宿区,新宿２丁目１４番４号,,13,104,1600022,,,,,,,2023-05-01,1,,,,,バイオレット,0
1716,7011401025074,新規,0,2023-05-01,2023-05-01,副島商事株式会社,,株式会社,東京都,板橋区,小豆沢４丁目７番３－２０１号,,13,119,1740051,,,,,,,2023-05-01,1,,,,,ソエジマショウジ,0
1718,7011403003986,新規,0,2023-05-01,2023-05-01,Ｄ＆Ｌ合同会社,,合同会社,東京都,板橋区,中台１丁目３７番２－みどり荘１０２号室,,13,119,1740064,,,,,,,2023-05-01,1,,,,,ディーアンドエル,0
1723,7011601026780,新規,0,2023-05-01,2023-05-01,株式会社ＬａｐｉｓＡｚｕｒｅ,,株式会社,東京都,練馬区,高野台１丁目８番２号ＮＦ・ラ・ヴェーラ４０８,,13,120,1770033,,,,,,,2023-05-01,1,,,,,ラピスアズール,0
1724,7011701026185,新規,0,2023-05-01,2023-05-01,株式会社ｅｎ,,株式会社,東京都,江戸川区,平井５丁目５－６ＤＳ平井ビル１Ｆ,,13,123,1320035,,,,,,,2023-05-01,1,,,,,エン,0
1735,7013301050656,新規,0,2023-05-01,2023-05-01,潤智商事株式会社,,株式会社,東京都,豊島区,池袋本町１丁目１９番６号三宝ビル４階,,13,116,1700011,,,,,,,2023-05-01,1,,,,,エンチショウジ,0
1741,7020001151296,新規,0,2023-05-01,2023-05-01,株式会社タイムレスチケット,,株式会社,神奈川県,川崎市多摩区,宿河原１丁目１７番８－２１４号,,14,135,2140021,,,,,,,2023-05-01,1,,,,,タイムレスチケット,0
1742,7020001151354,新規,0,2023-05-01,2023-05-01,株式会社Ｅｉｇｈｔ,,株式会社,神奈川県,横浜市中区,尾上町３丁目４３番地横浜パークサイド関内７－Ｃ,,14,104,2310015,,,,,,,2023-05-01,1,,,,,エイト,0
1743,7020001151362,新規,0,2023-05-01,2023-05-01,株式会社ＲＫＳ,,株式会社,神奈川県,川崎市麻生区,千代ケ丘２丁目８番地２２,,14,137,2150005,,,,,,,2023-05-01,1,,,,,アールケーエス,0
1744,7020001151404,新規,0,2023-05-01,2023-05-01,ＴＴＰ株式会社,,株式会社,神奈川県,川崎市川崎区,小川町１６－１７－５０４,,14,131,2100023,,,,,,,2023-05-01,1,,,,,ティーティーピー,0
1747,7020003023816,新規,0,2023-05-01,2023-05-01,ＣＹ合同会社,,合同会社,神奈川県,川崎市多摩区,寺尾台１丁目２１番地１,,14,135,2140005,,,,,,,2023-05-01,1,,,,,シーワイ,0
1748,7021001078926,新規,0,2023-05-01,2023-05-01,株式会社ＴＵＫＡＳＡ,,株式会社,神奈川県,横須賀市,安浦町３丁目１０－４,,14,201,2380012,,,,,,,2023-05-01,1,,,,,ツカサ,0
1750,7021003013039,新規,0,2023-05-01,2023-05-01,合同会社Ｊｅｎｉ,,合同会社,神奈川県,逗子市,逗子１丁目８－１８,,14,208,2490006,,,,,,,2023-05-01,1,,,,,ジニ,0
1751,7021005012798,新規,0,2023-05-01,2023-05-01,一般社団法人寺尾南地区社会福祉協議会,,その他の設立登記法人,神奈川県,綾瀬市,寺尾釜田２丁目１７番３１号,,14,218,2521135,,,,,,,2023-05-01,1,,,,,テラオミナミチクシャカイフクシキョウギカイ,0
1755,7030001153655,新規,0,2023-05-01,2023-05-01,株式会社はる不動産,,株式会社,埼玉県,狭山市,入間川１丁目７番１０号,,11,215,3501305,,,,,,,2023-05-01,1,,,,,ハルフドウサン,0
1758,7030003021629,新規,0,2023-05-01,2023-05-01,Ｓａｌｅｓ　Ｋｎｏｗｌｅｄｇｅ合同会社,,合同会社,埼玉県,川口市,栄町１丁目９－６リブリレジデンス大木１１１号,,11,203,3320017,,,,,,,2023-05-01,1,,,,,セールスナレッジ,0
1759,7030003021653,新規,0,2023-05-01,2023-05-01,合同会社芸能説経節れいわ組,,合同会社,埼玉県,川口市,桜町３丁目１８番３号,,11,203,3340001,,,,,,,2023-05-01,1,,,,,ゲイノウセッキョウブシレイワグミ,0
1764,7040001128202,新規,0,2023-05-01,2023-05-01,株式会社ｔｈｘ,,株式会社,千葉県,君津市,南子安６丁目２１－６,,12,225,2991162,,,,,,,2023-05-01,1,,,,,ティーエイチエックス,0
1765,7040001128235,新規,0,2023-05-01,2023-05-01,株式会社長谷川土木工業,,株式会社,千葉県,千葉市中央区,都町３丁目１０番１０号Ａ１０２,,12,101,2600001,,,,,,,2023-05-01,1,,,,,ハセガワドボクコウギョウ,0
1766,7040003022502,新規,0,2023-05-01,2023-05-01,エッセンスマーケティング合同会社,,合同会社,千葉県,浦安市,高洲４丁目３番１－３３３号プラウド新浦安,,12,227,2790023,,,,,,,2023-05-01,1,,,,,エッセンスマーケティング,0
1768,7050005013259,新規,0,2023-05-01,2023-05-01,一般社団法人Ｎ．ＰｉｌａｔｅｓＥｄｕｃａｔｉｏｎ,,その他の設立登記法人,茨城県,つくば市,研究学園５丁目４番地８メゾンエチュード１０２,,08,220,3050817,,,,,,,2023-05-01,1,,,,,エヌピラティスエデュケーション,0
1770,7060001035917,新規,0,2023-05-01,2023-05-01,株式会社Ｉ．Ｋ‐ステップ,,株式会社,栃木県,佐野市,吉水町興聖寺７２３番地１,,09,204,3270313,,,,,,,2023-05-01,1,,,,,アイケーステップ,0
1775,7080101023968,新規,0,2023-05-01,2023-05-01,株式会社煌陵,,株式会社,静岡県,駿東郡清水町,久米田１２５番地の１,,22,341,4110911,,,,,,,2023-05-01,1,,,,,コウリョウ,0
1776,7080401026456,新規,0,2023-05-01,2023-05-01,株式会社福いち,,株式会社,静岡県,浜松市天竜区,山東４４７７番地の４,,22,137,4313303,,,,,,,2023-05-01,1,,,,,フクイチ,0
1797,7120001254601,新規,0,2023-05-01,2023-05-01,Ｔｈｒｅｅ　ｌｅａｖｅｓ株式会社,,株式会社,大阪府,大阪市中央区,南船場１丁目６番１－５０２号,,27,128,5420081,,,,,,,2023-05-01,1,,,,,スリーリーヴス,0
1798,7120001254634,新規,0,2023-05-01,2023-05-01,株式会社ヤマダガラスサービス,,株式会社,大阪府,大阪市東住吉区,鷹合２丁目６番２２号,,27,121,5460014,,,,,,,2023-05-01,1,,,,,ヤマダガラスサービス,0
1805,7120003023979,新規,0,2023-05-01,2023-05-01,合同会社藤森,,合同会社,大阪府,大阪市淀川区,塚本５丁目２番１０号,,27,123,5320026,,,,,,,2023-05-01,1,,,,,フジモリ,0
1806,7120005023597,新規,0,2023-05-01,2023-05-01,労働基準調査組合,,その他の設立登記法人,大阪府,大阪市西区,新町１丁目１４番３９号日宝立売堀ビル４０５号室,,27,106,5500013,,,,,,,2023-05-01,1,,,,,ロウドウキジュンチョウサ,0
1807,7120101067457,新規,0,2023-05-01,2023-05-01,株式会社三共高束,,株式会社,大阪府,松原市,東新町５丁目３番２２号,,27,217,5800024,,,,,,,2023-05-01,1,,,,,サンキョウコウソク,0
1819,7140001129990,新規,0,2023-05-01,2023-05-01,大誠株式会社,,株式会社,兵庫県,神戸市中央区,磯上通３丁目２番１４－１３０４号,,28,110,6510086,,,,,,,2023-05-01,1,,,,,タイセイ,0
1820,7140001129999,新規,0,2023-05-01,2023-05-01,株式会社香島園,,株式会社,兵庫県,伊丹市,中央５丁目３－４０,,28,207,6640851,,,,,,,2023-05-01,1,,,,,カシマエン,0
1821,7140001130016,新規,0,2023-05-01,2023-05-01,株式会社ナイアール,,株式会社,兵庫県,宝塚市,雲雀丘山手１丁目９番１２号,,28,214,6650804,,,,,,,2023-05-01,1,,,,,ナイアール,0
1826,7150001026361,新規,0,2023-05-01,2023-05-01,柳本鉄工株式会社,,株式会社,奈良県,天理市,柳本町４８番地,,29,204,6320052,,,,,,,2023-05-01,1,,,,,ヤナギモトテッコウ,0
1836,7180001155983,新規,0,2023-05-01,2023-05-01,株式会社ＬＵＺ,,株式会社,愛知県,名古屋市中区,栄３丁目１５番３３号,,23,106,4600008,,,,,,,2023-05-01,1,,,,,ルシュ,0
1844,7190001030368,新規,0,2023-05-01,2023-05-01,株式会社リバティラボ,,株式会社,三重県,伊勢市,御薗町長屋２２２９番地３,,24,203,5160804,,,,,,,2023-05-01,1,,,,,リバティラボ,0
1847,7200005013482,新規,0,2023-05-01,2023-05-01,一般社団法人岐阜県透析研究会,,その他の設立登記法人,岐阜県,大垣市,新田町２丁目１４番地,,21,202,5030856,,,,,,,2023-05-01,1,,,,,ギフケントウセキケンキュウカイ,0
1848,7210003001637,新規,0,2023-05-01,2023-05-01,ＫＩＴ合同会社,,合同会社,福井県,鯖江市,小黒町１丁目３－１４－３,,18,207,9160028,,,,,,,2023-05-01,1,,,,,ケーアイティー,0
1854,7240001061432,新規,0,2023-05-01,2023-05-01,株式会社双羽商店,,株式会社,広島県,福山市,伊勢丘３丁目１３番３３号２０５,,34,207,7210915,,,,,,,2023-05-01,1,,,,,フタバショウテン,0
1861,7250001020057,新規,0,2023-05-01,2023-05-01,株式会社フォアーゼット,,株式会社,山口県,大島郡周防大島町,大字伊保田１１９５,,35,305,7422601,,,,,,,2023-05-01,1,,,,,フォアーゼット,0
1871,7290001101365,新規,0,2023-05-01,2023-05-01,株式会社悠久工業,,株式会社,福岡県,大野城市,上大利５丁目５番８号１０４号,,40,219,8160955,,,,,,,2023-05-01,1,,,,,ユウキュウコウギョウ,0
1872,7290001101373,新規,0,2023-05-01,2023-05-01,Ｎｙａｎｔｏ株式会社,,株式会社,福岡県,福岡市中央区,大濠１丁目６番１号,,40,133,8100052,,,,,,,2023-05-01,1,,,,,ニャント,0
1873,7290001101381,新規,0,2023-05-01,2023-05-01,株式会社Ｂｒａｃｋｅｔ,,株式会社,福岡県,福岡市東区,香椎駅前２丁目１９番４－５０１号フェリシア香椎ステーション,,40,131,8130013,,,,,,,2023-05-01,1,,,,,ブラケット,0
1877,7290003013856,新規,0,2023-05-01,2023-05-01,合同会社ＨＡＮＳＩＫ,,合同会社,福岡県,福岡市東区,箱崎１丁目２７番１４号１Ｆ,,40,131,8120053,,,,,,,2023-05-01,1,,,,,ハンシク,0
1878,7290003013864,新規,0,2023-05-01,2023-05-01,合同会社ｕｐｗｈａｔｓ,,合同会社,福岡県,福岡市中央区,天神２丁目２番１２号Ｔ＆Ｊビルディング７Ｆ,,40,133,8100001,,,,,,,2023-05-01,1,,,,,アップワッツ,0
1883,7310001018391,新規,0,2023-05-01,2023-05-01,株式会社永セ仁,,株式会社,長崎県,長崎市,桶屋町４１番地コムフォート桶屋町６０３号室,,42,201,8500027,,,,,,,2023-05-01,1,,,,,,0
1886,7320001019736,新規,0,2023-05-01,2023-05-01,株式会社勝重工業,,株式会社,大分県,佐伯市,中村北町４番３５号,,44,205,8760856,,,,,,,2023-05-01,1,,,,,カツシゲコウギョウ,0
1888,7330001030782,新規,0,2023-05-01,2023-05-01,長澤貿易株式会社,,株式会社,熊本県,熊本市中央区,手取本町３番地８有明ビル５階５０２号室,,43,101,8600808,,,,,,,2023-05-01,1,,,,,ナガサワボウエキ,0
1889,7330001030808,新規,0,2023-05-01,2023-05-01,株式会社通潤ファーム,,株式会社,熊本県,上益城郡山都町,下市２４２番地１,,43,447,8613513,,,,,,,2023-05-01,1,,,,,ツウジュンファーム,0
1891,7350001018322,新規,0,2023-05-01,2023-05-01,バイオガスパーク宮崎第３発電所株式会社,,株式会社,宮崎県,宮崎市,大字本郷北方２５２０番地５,,45,201,8800925,,,,,,,2023-05-01,1,,,,,バイオガスパークミヤザキダイサンハツデンショ,0
1893,7360001031943,新規,0,2023-05-01,2023-05-01,株式会社サカリズム,,株式会社,沖縄県,浦添市,牧港２丁目２番３号,,47,208,9012131,,,,,,,2023-05-01,1,,,,,サカリズム,0
1896,7360005006842,新規,0,2023-05-01,2023-05-01,特定非営利活動法人まくとぅー,,その他の設立登記法人,沖縄県,うるま市,石川東恩納５４６番地４,,47,213,9041111,,,,,,,2023-05-01,1,,,,,マクトゥー,0
1912,7430003014996,新規,0,2023-05-01,2023-05-01,合同会社プラス,,合同会社,北海道,札幌市手稲区,西宮の沢三条１丁目１０番２０－６０３号,,01,109,0060003,,,,,,,2023-05-01,1,,,,,プラス,0
1913,7440001009254,新規,0,2023-05-01,2023-05-01,株式会社田村工業,,株式会社,北海道,函館市,美原２丁目４３番４号,,01,202,0410806,,,,,,,2023-05-01,1,,,,,タムラコウギョウ,0
1919,7500001024899,新規,0,2023-05-01,2023-05-01,株式会社日本エステートサービス,,株式会社,愛媛県,松山市,石手１丁目３番３号石手ハイツ幸３０３,,38,201,7900852,,,,,,,2023-05-01,1,,,,,ニホンエステートサービス,0
1920,7500003003026,新規,0,2023-05-01,2023-05-01,合同会社ｂｒｉｄｇｅ,,合同会社,愛媛県,松山市,三番町１丁目３番地１－１１０１,,38,201,7900003,,,,,,,2023-05-01,1,,,,,ブリッジ,0
1921,7700150115883,新規,0,2023-05-01,2023-05-01,Ａｎｒａｎ　Ｓｅｃｕｒｉｔｙ　Ｔｅｃｈｎｏｌｏｇｙ　Ｃｏ．，Ｌｔｄ,,外国会社等,,,,,,,,ＲＭ２　３／Ｆ　ＲＵＢＹ　ＣＯＭＭ　ＢＵＩＬＤＩＮＧ　４８０　ＮＡＴＨＡＮ　ＲＯＡＤ,,,,,,2023-05-01,1,,,,,アンランセキュリティテクノロジーコウリミテッド,0
1922,7700150115891,新規,0,2023-05-01,2023-05-01,Ｃｈａｎｇｓｈａ　Ｘｉａｎｇ　Ｚｈｅ　ｅ－ｃｏｍｍｅｒｃｅ　Ｌｉｍｉｔｅｄ,,外国会社等,,,,,,,,Ｎｏ．７０５，Ｗａｎｄｅｆｕ　Ｂｕｉｌｄｉｎｇ，Ｎｏ．１７６，Ｓｅｃｔｉｏｎ　１，Ｗａｎｊｉａｌｉ　Ｍｉｄｄｌｅ　Ｒｏａｄ，Ｈｅｈｕａｙｕａｎ　Ｓｔｒｅｅｔ，Ｆｕｒｏｎｇ　Ｄｉｓｔｒｉｃｔ，Ｃｈａｎｇｓｈａ　Ｃｉｔｙ，Ｈｕｎａ　Ｐｒｏｖｉｎｃｅ，４１００００，ＣＮ,,,,,,2023-05-01,1,,,,,チヨウサシヨウシヤデンシシヨウムユウゲンコウシ,0
1923,7700150115900,新規,0,2023-05-01,2023-05-01,ｓｈｅｎｚｈｅｎｓｈｉ　ｔｉａｎｈａｏｓｈｅｎｇｓｈｉ　ｋｅｊｉｙｏｕｘｉａｎｇｏｎｇｓｉ,,外国会社等,,,,,,,,６ｄｏｎｇｃｈａｎｇｆａｎｇ３０９　ｆｕｑｉａｏｄｉｗｕｇｏｎｇｙｅｑｕ　ｑｉａｏｔｏｕｓｈｅｑｕ　ｆｕｈａｉｊｉｅｄａｏ　ｂａｏａｎｑｕ　ｓｈｅｎｚｈｅｎｓｈｉ　ｇｕａｎｇｄｏｎｇｓｈｅｎｇ　Ｃｈｉｎａ,,,,,,2023-05-01,1,,,,,シンセンシティアンハオシェンシケジヨウシャンゴンシ,0
1936,8010001234860,新規,0,2023-05-01,2023-05-01,株式会社Ａｌｌ　ａｂｏｕｔ　Ｒｉｃｃｉ,,株式会社,東京都,中央区,銀座７丁目１５番５号,,13,102,1040061,,,,,,,2023-05-01,1,,,,,オールアバウトリッチ,0
1937,8010001234935,新規,0,2023-05-01,2023-05-01,ＪＰＡ第２８６号株式会社,,株式会社,東京都,千代田区,霞が関３丁目２番１号,,13,101,1000013,,,,,,,2023-05-01,1,,,,,ジェイピーエーダイニヒャクハチジュウロクゴウ,0
1952,8010405022052,新規,0,2023-05-01,2023-05-01,一般社団法人Ｃｏｍｂｉｎｅ　Ｗｏｒｋｓ　Ｓｐａｃｅ,,その他の設立登記法人,東京都,港区,高輪４丁目２３番６号ハイホーム高輪７０８,,13,103,1080074,,,,,,,2023-05-01,1,,,,,コンバインワークススペース,0
1953,8010503006972,新規,0,2023-05-01,2023-05-01,合同会社ＡＷＦ,,合同会社,東京都,台東区,上野２丁目１番４号,,13,106,1100005,,,,,,,2023-05-01,1,,,,,エーダブリューエフ,0
1956,8010801033867,新規,0,2023-05-01,2023-05-01,株式会社メディカルフェア,,株式会社,東京都,大田区,京浜島２丁目１２番１２号,,13,111,1430003,,,,,,,2023-05-01,1,,,,,メディカルフェア,0
1960,8010901052890,新規,0,2023-05-01,2023-05-01,株式会社ＭＮＮＤ,,株式会社,東京都,世田谷区,船橋６丁目１５番３－３０６号,,13,112,1560055,,,,,,,2023-05-01,1,,,,,マンド,0
1972,8011201024614,新規,0,2023-05-01,2023-05-01,株式会社ＩＮＶＥＳＰＥＣ　ＪＡＰＡＮ,,株式会社,東京都,中野区,上鷺宮１丁目６番６号,,13,114,1650031,,,,,,,2023-05-01,1,,,,,インベスペックジャパン,0
1977,8011501029206,新規,0,2023-05-01,2023-05-01,勝大株式会社,,株式会社,東京都,北区,浮間１丁目１－１４リムジンビル１０８号,,13,117,1150051,,,,,,,2023-05-01,1,,,,,ショウダイ,0
1978,8011501029239,新規,0,2023-05-01,2023-05-01,株式会社Ｏｍｙ,,株式会社,東京都,北区,田端５丁目８番１号,,13,117,1140014,,,,,,,2023-05-01,1,,,,,オミー,0
1980,8011503005584,新規,0,2023-05-01,2023-05-01,涵ＨＡＮ貿易合同会社,,合同会社,東京都,北区,王子２丁目１８－１２大林ビル王子アネックス４０１,,13,117,1140002,,,,,,,2023-05-01,1,,,,,カンハンボウエキ,0
1989,8012801022321,新規,0,2023-05-01,2023-05-01,株式会社タイガーメディアワークス,,株式会社,東京都,国分寺市,本町２丁目２０番２９号,,13,214,1850012,,,,,,,2023-05-01,1,,,,,タイガーメディアワークス,0
1994,8013305003469,新規,0,2023-05-01,2023-05-01,一般社団法人アトラス,,その他の設立登記法人,東京都,豊島区,東池袋４丁目５番１号エアライズタワー３９０１号,,13,116,1700013,,,,,,,2023-05-01,1,,,,,アトラス,0
1997,8020001151130,新規,0,2023-05-01,2023-05-01,アルファ株式会社,,株式会社,神奈川県,川崎市高津区,坂戸３丁目１６番１号,,14,134,2130012,,,,,,,2023-05-01,1,,,,,アルファ,0
1998,8020001151337,新規,0,2023-05-01,2023-05-01,株式会社ＥＮｉ,,株式会社,神奈川県,横浜市西区,みなとみらい５丁目３番２－７０７号,,14,103,2200012,,,,,,,2023-05-01,1,,,,,エニ,0
1999,8020001151394,新規,0,2023-05-01,2023-05-01,株式会社早鈴,,株式会社,神奈川県,横浜市港北区,綱島西２丁目６番２７号,,14,109,2230053,,,,,,,2023-05-01,1,,,,,ハヤズズ,0
2000,8020001151403,新規,0,2023-05-01,2023-05-01,株式会社長岐設備,,株式会社,神奈川県,横浜市鶴見区,馬場１丁目２６番１８号,,14,101,2300076,,,,,,,2023-05-01,1,,,,,ナガキセツビ,0
2015,8030001153588,新規,0,2023-05-01,2023-05-01,ＳＧ株式会社,,株式会社,埼玉県,鶴ヶ島市,大字脚折１４９１番地２５,,11,241,3502213,,,,,,,2023-05-01,1,,,,,エスジー,0
2021,8040001128192,新規,0,2023-05-01,2023-05-01,株式会社コレクトベース,,株式会社,千葉県,柏市,五條谷９７番地２,,12,217,2770913,,,,,,,2023-05-01,1,,,,,コレクトベース,0
2022,8040001128234,新規,0,2023-05-01,2023-05-01,株式会社ＭＯＲＥ４２８ＳＴＹＬＥ,,株式会社,千葉県,松戸市,六実４丁目９番５号太田ビル３階,,12,207,2702204,,,,,,,2023-05-01,1,,,,,モアヨツヤスタイル,0
2025,8040003022518,新規,0,2023-05-01,2023-05-01,合同会社しばた,,合同会社,千葉県,柏市,西柏台２丁目１番－１,,12,217,2770886,,,,,,,2023-05-01,1,,,,,シバタ,0
2038,8080101023967,新規,0,2023-05-01,2023-05-01,株式会社ＳｕｇａｒＢｅｌｌ,,株式会社,静岡県,御殿場市,深沢４４９番地の６,,22,215,4120023,,,,,,,2023-05-01,1,,,,,シュガーベル,0
2039,8080103002795,新規,0,2023-05-01,2023-05-01,合同会社ＵＮＥＲＩ,,合同会社,静岡県,駿東郡長泉町,納米里６２－１，１２０３号,,22,342,4110933,,,,,,,2023-05-01,1,,,,,ウネリ,0
2058,8120001254360,新規,0,2023-05-01,2023-05-01,ＦＢ株式会社,,株式会社,大阪府,大阪市中央区,船場中央２丁目１番４号船場センタービル４号館地下一階Ｂ１０８ＲＯＹＡＬＯＦＦＩＣＥ内,,27,128,5410055,,,,,,,2023-05-01,1,,,,,エフビー,0
2059,8120001254534,新規,0,2023-05-01,2023-05-01,株式会社Ｍａｒｉａ　ｇｒａｃｅ,,株式会社,大阪府,大阪市城東区,今福西４丁目１番３１号,,27,118,5360004,,,,,,,2023-05-01,1,,,,,マリアグレイス,0
2060,8120001254567,新規,0,2023-05-01,2023-05-01,株式会社Ｇ’Ｓｔｅｃｔ,,株式会社,大阪府,大阪市此花区,春日出北１丁目１９番１４号,,27,104,5540021,,,,,,,2023-05-01,1,,,,,ジーステクト,0
2066,8120005023596,新規,0,2023-05-01,2023-05-01,クロスリンク協同組合,,その他の設立登記法人,大阪府,大阪市淀川区,西中島７丁目１４番３５号日宝北５号館６０１号室,,27,123,5320011,,,,,,,2023-05-01,1,,,,,クロスリンク,0
2069,8120101067456,新規,0,2023-05-01,2023-05-01,福田商店株式会社,,株式会社,大阪府,羽曳野市,島泉８丁目１２番２９号,,27,222,5830881,,,,,,,2023-05-01,1,,,,,フクダショウテン,0
2075,8120903004615,新規,0,2023-05-01,2023-05-01,合同会社Ｋ．Ｅ,,合同会社,大阪府,吹田市,千里山西６丁目３４番２－６１２号室,,27,205,5650851,,,,,,,2023-05-01,1,,,,,ケーイー,0
2079,8130001074205,新規,0,2023-05-01,2023-05-01,株式会社寛,,株式会社,京都府,京都市左京区,田中下柳町２０番地,,26,103,6068204,,,,,,,2023-05-01,1,,,,,カン,0
2082,8140003019041,新規,0,2023-05-01,2023-05-01,合同会社ＷａＪｕ,,合同会社,兵庫県,神戸市東灘区,魚崎南町５丁目５番１２－１２０３号,,28,101,6580025,,,,,,,2023-05-01,1,,,,,ワジュ,0
2085,8170005007009,新規,0,2023-05-01,2023-05-01,一般社団法人ココロコプラス,,その他の設立登記法人,和歌山県,橋本市,紀見ケ丘１丁目１４番２号,,30,203,6480092,,,,,,,2023-05-01,1,,,,,ココロコプラス,0
2093,8180001156064,新規,0,2023-05-01,2023-05-01,株式会社ＣＯＯＬ,,株式会社,愛知県,名古屋市東区,葵３丁目２５番２０号,,23,102,4610004,,,,,,,2023-05-01,1,,,,,クール,0
2094,8180001156089,新規,0,2023-05-01,2023-05-01,株式会社Ｔ＆Ｋエンタープライズ,,株式会社,愛知県,名古屋市千種区,法王町２丁目５番地,,23,101,4640057,,,,,,,2023-05-01,1,,,,,ティーアンドケイエンタープライズ,0
2098,8180301037344,新規,0,2023-05-01,2023-05-01,株式会社Ｓ＆Ｍ,,株式会社,愛知県,刈谷市,築地町５丁目３５番地２,,23,210,4480011,,,,,,,2023-05-01,1,,,,,エスアンドエム,0
2100,8200001041247,新規,0,2023-05-01,2023-05-01,株式会社和多志,,株式会社,岐阜県,瑞穂市,牛牧７０３番地１,,21,216,5010234,,,,,,,2023-05-01,1,,,,,ワタシ,0
2102,8200005013481,新規,0,2023-05-01,2023-05-01,東白川村労働者協同組合,,その他の設立登記法人,岐阜県,加茂郡東白川村,五加１５４６番地,,21,507,5091303,,,,,,,2023-05-01,1,,,,,ヒガシシラカワムラ,0
2113,8250001020080,新規,0,2023-05-01,2023-05-01,株式会社セブンエイト,,株式会社,山口県,光市,中央３丁目２番５号,,35,210,7430013,,,,,,,2023-05-01,1,,,,,セブンエイト,0
2116,8260001037909,新規,0,2023-05-01,2023-05-01,ファームフォース株式会社,,株式会社,岡山県,倉敷市,中央２丁目２番２２号,,33,202,7100046,,,,,,,2023-05-01,1,,,,,ファームフォース,0
2117,8260001037917,新規,0,2023-05-01,2023-05-01,株式会社エース,,株式会社,岡山県,岡山市北区,横井上１５５番地１,,33,101,7011145,,,,,,,2023-05-01,1,,,,,エース,0
2130,8290001101356,新規,0,2023-05-01,2023-05-01,Ｑｕａｌｉａ株式会社,,株式会社,福岡県,久留米市,東合川７丁目１０番３９－１号,,40,203,8390809,,,,,,,2023-05-01,1,,,,,クオリア,0
2131,8290001101364,新規,0,2023-05-01,2023-05-01,株式会社銅申,,株式会社,福岡県,久留米市,三潴町田川１７９５番地２,,40,203,8300102,,,,,,,2023-05-01,1,,,,,ドウノブ,0
2132,8290001101380,新規,0,2023-05-01,2023-05-01,株式会社ソフトマトリックス,,株式会社,福岡県,福岡市中央区,高砂１丁目２２－１１－９００,,40,133,8100011,,,,,,,2023-05-01,1,,,,,ソフトマトリックス,0
2137,8290801029499,新規,0,2023-05-01,2023-05-01,株式会社ｏｆｆｉｃｅ　Ｊｅｙ,,株式会社,福岡県,北九州市小倉南区,葛原１丁目５‐２７‐２Ｆ,,40,107,8000251,,,,,,,2023-05-01,1,,,,,オフィスジェイ,0
2139,8310001018390,新規,0,2023-05-01,2023-05-01,本田日進株式会社,,株式会社,長崎県,長崎市,宝栄町２２番２１号,,42,201,8528016,,,,,,,2023-05-01,1,,,,,ホンダニッシン,0
2140,8320003004074,新規,0,2023-05-01,2023-05-01,合同会社ＹＡＭＡＤＡ,,合同会社,大分県,杵築市,山香町大字小武９３４番地,,44,210,8791304,,,,,,,2023-05-01,1,,,,,ヤマダ,0
2145,8330005010656,新規,0,2023-05-01,2023-05-01,医療法人社団かえる会,,その他の設立登記法人,熊本県,天草市,宮地岳町１７３４番地２,,43,215,8631161,,,,,,,2023-05-01,1,,,,,カエルカイ,0
2147,8340003004114,新規,0,2023-05-01,2023-05-01,合同会社ＳＨＯＹＡ海陸産業,,合同会社,鹿児島県,鹿児島市,鴨池新町２５－１－３０６,,46,201,8900064,,,,,,,2023-05-01,1,,,,,ショウヤカイリクサンギョウ,0
2149,8350001018321,新規,0,2023-05-01,2023-05-01,バイオガスパーク宮崎第２発電所株式会社,,株式会社,宮崎県,宮崎市,大字本郷北方２５２０番地５,,45,201,8800925,,,,,,,2023-05-01,1,,,,,バイオガスパークミヤザキダイニハツデンショ,0
2154,8360003012916,新規,0,2023-05-01,2023-05-01,侑合同会社,,合同会社,沖縄県,中頭郡西原町,字翁長８番地コーポハッピー３０２号,,47,329,9030117,,,,,,,2023-05-01,1,,,,,ユウ,0
2156,8360005006841,新規,0,2023-05-01,2023-05-01,一般社団法人Ｏ‐Ｓｈｉｎｅ,,その他の設立登記法人,沖縄県,宮古島市,平良字下里３１０７番地１０５７Ａ１,,47,214,9060013,,,,,,,2023-05-01,1,,,,,オーシャイン,0
2170,8430003014987,新規,0,2023-05-01,2023-05-01,Ｎｉｓｅｋｏ　Ｓｕｐｒｅｍｅ合同会社,,合同会社,北海道,虻田郡倶知安町,南四条東５丁目３番地５戸田ＡＰ２階－Ａ,,01,400,0440014,,,,,,,2023-05-01,1,,,,,ニセコスープリーム,0
2171,8450001013972,新規,0,2023-05-01,2023-05-01,株式会社千代田,,株式会社,北海道,旭川市,東光四条４丁目２番１２号,,01,204,0788344,,,,,,,2023-05-01,1,,,,,チヨダ,0
2174,8500001024898,新規,0,2023-05-01,2023-05-01,株式会社二宮防水,,株式会社,愛媛県,西予市,宇和町小原３１４番地,,38,214,7970027,,,,,,,2023-05-01,1,,,,,ニノミヤボウスイ,0
2178,8700150115882,新規,0,2023-05-01,2023-05-01,ＳＯＵＴＨＬＡＮＤ　ＲＵＢＢＥＲ　ＣＯ．，ＬＴＤ．,,外国会社等,,,,,,,,Ｎｏ．５５，Ｒａｊｙｉｎｄｅｅ　Ｒｏａｄ，Ｈａｔｙａｉ　Ｓｕｂ　Ｄｉｓｔｒｉｃｔ，Ｈａｔｙａｉ　Ｄｉｓｔｒｉｃｔ，Ｓｏｎｇｋｈｌａ　Ｐｒｏｖｉｎｃｅ,,,,,,2023-05-01,1,,,,,サウスランドラバーカンパニーリミテッド,0
2179,8700150115890,新規,0,2023-05-01,2023-05-01,Ａｎｈｕｉ　Ｂａｉｆａｎｇ　Ｋｎｉｔｔｉｎｇ　ｃｏ．，ｌｔｄ,,外国会社等,,,,,,,,Ｌｉｎｇｃｈｅｎｇ　ｄｅｖｅｌｏｐ　ｚｏｎｅ，ｓｕｚｈｏｕ　ｃｉｔｙ，ａｎｈｕｉ　Ｐｒｏｖｉｎｃｅ,,,,,,2023-05-01,1,,,,,アンフイバイファンジェンジーヨウシエンゴンスー,0
2180,8700150115899,新規,0,2023-05-01,2023-05-01,Ｓｈｅｎｚｈｅｎｓｈｉ　Ｘｉｎｓｉ　ｋｅｊｉ　ｙｏｕｘｉａｎｇｏｎｇｓｉ,,外国会社等,,,,,,,,Ｓｈｅｎｚｈｅｎｓｈｉｂａｏａｎｑｕｆｕｈａｉｊｉｅｄａｏ　ｚｈａｎｃｈｅｎｇｓｈｅｑｕｆｕｙｕａｎｙｉｌｕ３５ｈａｏ　ｔｉａｎｒｕｉｇｏｎｇｙｅｙｕａｎＡ　９ｄｏｎｇ３０３　５１８０００ＣＮ,,,,,,2023-05-01,1,,,,,シェンヂェンシシンシケジヨウシェンゴンスー,0
2191,9010001234934,新規,0,2023-05-01,2023-05-01,ＪＰＡ第２８５号株式会社,,株式会社,東京都,千代田区,霞が関３丁目２番１号,,13,101,1000013,,,,,,,2023-05-01,1,,,,,ジェイピーエーダイニヒャクハチジュウゴゴウ,0
2192,9010001234942,新規,0,2023-05-01,2023-05-01,ＪＰＡ第２９３号株式会社,,株式会社,東京都,千代田区,霞が関３丁目２番１号,,13,101,1000013,,,,,,,2023-05-01,1,,,,,ジェイピーエーダイニヒャクキュウジュウサンゴウ,0
2196,9010003040488,新規,0,2023-05-01,2023-05-01,ＰＡＧ　Ｒｅｎ　Ｐｒｏｊｅｃｔ０合同会社,,合同会社,東京都,千代田区,霞が関３丁目２番５号霞が関ビルディング３１階,,13,101,1000013,,,,,,,2023-05-01,1,,,,,ピーエージーレンプロジェクトゼロ,0
2207,9010401174029,新規,0,2023-05-01,2023-05-01,ＲＩＩＭＡ　ＴＯＫＹＯ株式会社,,株式会社,東京都,港区,芝浦４丁目２０－２－４０１２,,13,103,1080023,,,,,,,2023-05-01,1,,,,,リィーマトウキョウ,0
2209,9010403030048,新規,0,2023-05-01,2023-05-01,合同会社滝山開発,,合同会社,東京都,港区,元赤坂１丁目１番８号赤坂コミュニティビル４階,,13,103,1070051,,,,,,,2023-05-01,1,,,,,タキヤマカイハツ,0
2210,9010405022051,新規,0,2023-05-01,2023-05-01,一般社団法人和の価値振興推進協議会,,その他の設立登記法人,東京都,港区,南青山５丁目１７番１２号,,13,103,1070062,,,,,,,2023-05-01,1,,,,,ワノカチシンコウスイシンキョウギカイ,0
2213,9010603010114,新規,0,2023-05-01,2023-05-01,ＴＯＫ合同会社,,合同会社,東京都,墨田区,文花１丁目１８－１３,,13,107,1310044,,,,,,,2023-05-01,1,,,,,トワ,0
2231,9011301028662,新規,0,2023-05-01,2023-05-01,株式会社風,,株式会社,東京都,杉並区,高円寺南４丁目４０番５号ハイムヴェーコウエンジ２０１,,13,115,1660003,,,,,,,2023-05-01,1,,,,,カゼ,0
2235,9011503005583,新規,0,2023-05-01,2023-05-01,合同会社Ｙｐｌｕｓ,,合同会社,東京都,北区,昭和町１丁目３－４ポラール尾久４０１,,13,117,1140011,,,,,,,2023-05-01,1,,,,,ワイプラス,0
2248,9013301050605,新規,0,2023-05-01,2023-05-01,ソレイユジャパン株式会社,,株式会社,東京都,豊島区,東池袋４丁目２６番１３号,,13,116,1700013,,,,,,,2023-05-01,1,,,,,ソレイユジャパン,0
2249,9013301050679,新規,0,2023-05-01,2023-05-01,ブレインウェーブコンサルティング株式会社,,株式会社,東京都,豊島区,千早２丁目１８番４号富有マンション１Ｆ,,13,116,1710044,,,,,,,2023-05-01,1,,,,,ブレインウェーブコンサルティング,0
2250,9013301050695,新規,0,2023-05-01,2023-05-01,株式会社ｗｏｎｄｅｒ　ｗａｌｌ,,株式会社,東京都,豊島区,池袋２丁目６２番１０号武蔵屋第三ビル１Ｆ,,13,116,1710014,,,,,,,2023-05-01,1,,,,,ワンダーウォール,0
2261,9020001151303,新規,0,2023-05-01,2023-05-01,スノーボール株式会社,,株式会社,神奈川県,川崎市川崎区,宮本町６－２－５０１,,14,131,2100004,,,,,,,2023-05-01,1,,,,,スノーボール,0
2264,9020005015974,新規,0,2023-05-01,2023-05-01,一般社団法人日本農業教会,,その他の設立登記法人,神奈川県,川崎市麻生区,王禅寺東３丁目４５番７号,,14,137,2150018,,,,,,,2023-05-01,1,,,,,ニホンノウギョウキョウカイ,0
2266,9021001078916,新規,0,2023-05-01,2023-05-01,株式会社誠和建設,,株式会社,神奈川県,大和市,大和南１丁目４番８号西山ビル３－Ａ,,14,213,2420016,,,,,,,2023-05-01,1,,,,,セイワケンセツ,0
2267,9021001078932,新規,0,2023-05-01,2023-05-01,株式会社ＦＵＪＩＹＡＭＡ　ＲＥＡＬ　ＥＳＴＡＴＥ,,株式会社,神奈川県,相模原市南区,鵜野森２丁目１０番３号,,14,153,2520301,,,,,,,2023-05-01,1,,,,,フジヤマリアルエステート,0
2270,9021003013037,新規,0,2023-05-01,2023-05-01,ＳＴＡＲＢＲＡＮＤＳ．ＮＥＴ合同会社,,合同会社,神奈川県,鎌倉市,由比ガ浜３丁目７－４３,,14,204,2480014,,,,,,,2023-05-01,1,,,,,スターブランズドットネット,0
2278,9040001128233,新規,0,2023-05-01,2023-05-01,エフツーワークス株式会社,,株式会社,千葉県,市川市,本北方２丁目１７番１３号,,12,203,2720816,,,,,,,2023-05-01,1,,,,,エフツーワークス,0
2279,9040001128241,新規,0,2023-05-01,2023-05-01,株式会社トリガタ建設,,株式会社,千葉県,東金市,東上宿７番地２アネックス和総３０７,,12,213,2830067,,,,,,,2023-05-01,1,,,,,トリガタケンセツ,0
2286,9040003022517,新規,0,2023-05-01,2023-05-01,合同会社みちのうえ,,合同会社,千葉県,君津市,川俣旧川俣１番地１１,,12,225,2920524,,,,,,,2023-05-01,1,,,,,ミチノウエ,0
2297,9060005010088,新規,0,2023-05-01,2023-05-01,一般社団法人青葉組栃木団,,その他の設立登記法人,栃木県,大田原市,山の手２丁目２１－３,,09,210,3240051,,,,,,,2023-05-01,1,,,,,アオバグミトチギダン,0
2298,9070001040385,新規,0,2023-05-01,2023-05-01,ＳＵＮ‐ＭＯＯＮ‐ＦＡＬＣＯＮ株式会社,,株式会社,群馬県,高崎市,上豊岡町８６３番地９,,10,202,3700871,,,,,,,2023-05-01,1,,,,,サンムーンファルコン,0
2300,9080003002969,新規,0,2023-05-01,2023-05-01,合同会社ＴＭＴ,,合同会社,静岡県,静岡市葵区,春日１丁目１番１号,,22,101,4200823,,,,,,,2023-05-01,1,,,,,ティーエムティー,0
2303,9080101023917,新規,0,2023-05-01,2023-05-01,株式会社エルヴィッタ,,株式会社,静岡県,富士市,水戸島３３６番１４号,,22,210,4160921,,,,,,,2023-05-01,1,,,,,エルヴィッタ,0
2305,9080401026462,新規,0,2023-05-01,2023-05-01,株式会社スズモク,,株式会社,静岡県,浜松市天竜区,二俣町阿蔵５５番地の１,,22,137,4313311,,,,,,,2023-05-01,1,,,,,スズモク,0
2321,9120001254442,新規,0,2023-05-01,2023-05-01,株式会社吉川酒店,,株式会社,大阪府,大阪市北区,中崎西４丁目３番４１号,,27,127,5300015,,,,,,,2023-05-01,1,,,,,ヨシカワサケテン,0
2322,9120001254590,新規,0,2023-05-01,2023-05-01,株式会社ＥＮｒｉｓｅ,,株式会社,大阪府,大阪市福島区,福島７丁目２番１０号,,27,103,5530003,,,,,,,2023-05-01,1,,,,,エンライズ,0
2324,9120003023969,新規,0,2023-05-01,2023-05-01,合同会社ステップアップ,,合同会社,大阪府,大阪市西成区,津守１丁目４番１１号津守第一マンション４０２号,,27,122,5570062,,,,,,,2023-05-01,1,,,,,ステップアップ,0
2327,9120101067455,新規,0,2023-05-01,2023-05-01,株式会社エヌワン,,株式会社,大阪府,泉南市,信達市場１０１２番地の８,,27,228,5900504,,,,,,,2023-05-01,1,,,,,エヌワン,0
2330,9120901047433,新規,0,2023-05-01,2023-05-01,株式会社アイズクリーン,,株式会社,大阪府,茨木市,上野町八丁目２３番３号,,27,211,5670064,,,,,,,2023-05-01,1,,,,,アイズクリーン,0
2334,9130001074212,新規,0,2023-05-01,2023-05-01,株式会社ＳＨＡＲＶＩＬ,,株式会社,京都府,京都市左京区,田中西高原町２４番地,,26,103,6068241,,,,,,,2023-05-01,1,,,,,シャルビル,0
2336,9130003008696,新規,0,2023-05-01,2023-05-01,合同会社ＢＬＴＭ,,合同会社,京都府,京都市中京区,壬生上大竹町３２番地２ハナマウイ三条１０２号室,,26,104,6048851,,,,,,,2023-05-01,1,,,,,ビーエルティーエム,0
2347,9140003019040,新規,0,2023-05-01,2023-05-01,合同会社萩原,,合同会社,兵庫県,高砂市,高砂町農人町１７８８番地の１プレステージ高砂１０１号,,28,216,6760061,,,,,,,2023-05-01,1,,,,,ハギハラ,0
2349,9150003002953,新規,0,2023-05-01,2023-05-01,合同会社地音,,合同会社,奈良県,宇陀市,榛原萩原２６２５番地,,29,212,6330253,,,,,,,2023-05-01,1,,,,,ジオン,0
2355,9180001156063,新規,0,2023-05-01,2023-05-01,ＹＯＵＲ　ＭＯＢＩＬＥ株式会社,,株式会社,愛知県,名古屋市中村区,名駅３丁目４番１０号アルティメイト名古屋１ｓｔ２階,,23,105,4500002,,,,,,,2023-05-01,1,,,,,ユアーモバイル,0
2356,9180005020208,新規,0,2023-05-01,2023-05-01,一般社団法人愛知ハートライン,,その他の設立登記法人,愛知県,名古屋市北区,北久手町４３番５,,23,103,4620001,,,,,,,2023-05-01,1,,,,,アイチハートライン,0
2360,9230001019818,新規,0,2023-05-01,2023-05-01,セブンプライド株式会社,,株式会社,富山県,富山市,牛島町２４番６号,,16,201,9300858,,,,,,,2023-05-01,1,,,,,セブンプライド,0
2362,9240001061439,新規,0,2023-05-01,2023-05-01,株式会社ＳＡＮＴＥＲＩＲＥ,,株式会社,広島県,広島市佐伯区,五日市駅前１丁目８番３－５０２号,,34,108,7315125,,,,,,,2023-05-01,1,,,,,サンテリール,0
2371,9250003003264,新規,0,2023-05-01,2023-05-01,合同会社オレンジパーク,,合同会社,山口県,下関市,長府扇町６番４６号,,35,201,7520927,,,,,,,2023-05-01,1,,,,,オレンジパーク,0
2374,9260003004294,新規,0,2023-05-01,2023-05-01,合同会社小西珈琲焙煎所,,合同会社,岡山県,岡山市東区,瀬戸町万富３３７番地９,,33,103,7090841,,,,,,,2023-05-01,1,,,,,コニシコーヒーバイセンショ,0
2380,9290001101371,新規,0,2023-05-01,2023-05-01,株式会社Ｇ‐ｉｎｖｅｓｔｍｅｎｔ,,株式会社,福岡県,福岡市博多区,冷泉町１０－２３博多冷泉町ビル２階,,40,132,8120039,,,,,,,2023-05-01,1,,,,,ジーインベストメント,0
2387,9290805009653,新規,0,2023-05-01,2023-05-01,医療法人おのＫクリニック,,その他の設立登記法人,福岡県,北九州市八幡西区,鷹の巣１丁目６番１７号,,40,109,8060047,,,,,,,2023-05-01,1,,,,,オノケイクリニック,0
2388,9300003001956,新規,0,2023-05-01,2023-05-01,合同会社桃加,,合同会社,佐賀県,鹿島市,大字中村１６４４番地１３,,41,207,8491304,,,,,,,2023-05-01,1,,,,,モモカ,0
2397,9350001018320,新規,0,2023-05-01,2023-05-01,バイオガスパーク宮崎第１発電所株式会社,,株式会社,宮崎県,宮崎市,大字本郷北方２５２０番地５,,45,201,8800925,,,,,,,2023-05-01,1,,,,,バイオガスパークミヤザキダイイチハツデンショ,0
2399,9360001031941,新規,0,2023-05-01,2023-05-01,株式会社ＴｓｕＫｕＲｉＢａ,,株式会社,沖縄県,国頭郡金武町,字屋嘉２９０４番地９,,47,314,9041203,,,,,,,2023-05-01,1,,,,,ツクリバ,0
2400,9360003012923,新規,0,2023-05-01,2023-05-01,合同会社琉球ｃｏｎｎｅｃｔ,,合同会社,沖縄県,那覇市,字国場１１８０番地６コクバ・イーザトＩ１０３,00130329,47,201,9020075,,,,,,,2023-05-01,1,,,,,リュウキュウコネクト,0
2406,9370001049891,新規,0,2023-05-01,2023-05-01,株式会社リブート,,株式会社,宮城県,石巻市,湊東１丁目４番地１,,04,202,9860020,,,,,,,2023-05-01,1,,,,,リブート,0
2408,9370003006115,新規,0,2023-05-01,2023-05-01,合同会社ＴＹＭＳＵＲＶＥＹ,,合同会社,宮城県,栗原市,志波姫伊豆野南町尻１６,,04,213,9895603,,,,,,,2023-05-01,1,,,,,ティーワイエムサーベイ,0
2416,9430001088990,新規,0,2023-05-01,2023-05-01,株式会社Ｔ．Ｉ．Ｍ,,株式会社,北海道,札幌市北区,篠路町上篠路３４５‐４６,,01,102,0028052,,,,,,,2023-05-01,1,,,,,ティーアイエム,0
2419,9430003014978,新規,0,2023-05-01,2023-05-01,合同会社ＥＮＪＯＹ　ＩＴ,,合同会社,北海道,札幌市手稲区,稲穂一条１丁目１２－５ペルル稲穂８０１号,,01,109,0060031,,,,,,,2023-05-01,1,,,,,エンジョイイット,0
2422,9460101007377,新規,0,2023-05-01,2023-05-01,株式会社Ａｏｓｈｉｏｎ,,株式会社,北海道,河東郡音更町,木野大通西３丁目１番地１,,01,631,0800301,,,,,,,2023-05-01,1,,,,,アオシオン,0
2426,9700150115898,新規,0,2023-05-01,2023-05-01,ＷＵＨＡＮ　ＳＨＵＮＨＵＩ　ＥＣＯＭＭＥＲＣＥ　ＬＴＤ,,外国会社等,,,,,,,,Ｈｕｂｅｉ　１８　ｈａｏ　ｂｏ　ｈａｎ　ｋｅ　ｊｉ　ｇｕａｎｇ　ｄｉａｎ　ｚｉ　ｘｉｎ　ｘｉ　ｃｈａｎ　ｙｅ　ｊｉ　ｄｉ　２　ｑｉ　２　ｄｏｎｇ　Ａ　ｂｕｉｌｄｉｎｇ　１９　ｆｌｏｏｒ　０４　ｒｏｏｍ　ｅＢｌｕｅ　Ｂｏｘ　４３００４２ＣＮ,,,,,,2023-05-01,1,,,,,ウハンスンフィイーコマースリミテッド,0
