sequenceNumber,corporateNumber,process,correct,updateDate,changeDate,name,nameImageId,kind,prefectureName,cityName,streetNumber,addressImageId,prefectureCode,cityCode,postCode,addressOutside,addressOutsideImageId,closeDate,closeCause,successorCorporateNumber,changeCause,assignmentDate,latest,enName,enPrefectureName,enCityName,enAddressOutside,furigana,hihyoji
10,1010001250344,新規,0,2024-12-04,2024-12-04,株式会社ＳＬＩ,,株式会社,東京都,中央区,湊２丁目１２－１６－１２０１号,,13,102,1040043,,,,,,,2024-12-04,1,,,,,エスエルアイ,0
11,1010001250419,新規,0,2024-12-04,2024-12-04,ＳＥＥＤＳインテリジェンス株式会社,,株式会社,東京都,文京区,本郷２丁目３番９－３０３号,,13,105,1130033,,,,,,,2024-12-04,1,,,,,シーズインテリジェンス,0
13,1010003045701,新規,0,2024-12-04,2024-12-04,クレメント合同会社,,合同会社,東京都,千代田区,神田和泉町１番地６－１６ヤマトビル４０５,,13,101,1010024,,,,,,,2024-12-04,1,,,,,クレメント,0
15,1010005039222,新規,0,2024-12-04,2024-12-04,一般社団法人秋津雄飛会,,その他の設立登記法人,東京都,文京区,本郷３丁目３８番１０号さかえビル２階,,13,105,1130033,,,,,,,2024-12-04,1,,,,,アキヅユウヒカイ,0
26,1010401186808,新規,0,2024-12-04,2024-12-04,株式会社ブラボー商店,,株式会社,東京都,港区,高輪２丁目１－２,,13,103,1080074,,,,,,,2024-12-04,1,,,,,ブラボーショウテン,0
27,1010401186857,新規,0,2024-12-04,2024-12-04,流星観光株式会社,,株式会社,東京都,港区,芝４丁目６－５芝大井ビル３Ｆ,,13,103,1080014,,,,,,,2024-12-04,1,,,,,リュウセイカンコウ,0
36,1010601066413,新規,0,2024-12-04,2024-12-04,＿ホールディングス株式会社,00137216,株式会社,東京都,江東区,大島５丁目４７番５号サンヒルズ９０１,,13,108,1360072,,,,,,,2024-12-04,1,,,,,スワエホールディングス,0
37,1010603011251,新規,0,2024-12-04,2024-12-04,Ｎｏｖｏ　Ａｕｔｏｍａｔｉｏｎ合同会社,,合同会社,東京都,江東区,白河２丁目１４番２号ＷＯＲＫＬＡＢＥＬ清澄白河３１３号室,,13,108,1350021,,,,,,,2024-12-04,1,,,,,ノボオートメーション,0
43,1010901056452,新規,0,2024-12-04,2024-12-04,株式会社ＫＥＹＢＲＡＣＫＥＴ,,株式会社,東京都,世田谷区,尾山台３丁目１９―１１ピアース尾山台レジデンス３０８,,13,112,1580086,,,,,,,2024-12-04,1,,,,,キーブラケット,0
45,1010903009549,新規,0,2024-12-04,2024-12-04,小さく進めて大きく変える合同会社,,合同会社,東京都,世田谷区,砧１丁目３３―６,,13,112,1570073,,,,,,,2024-12-04,1,,,,,チイサクススメテオオキクカエル,0
54,1011001166126,新規,0,2024-12-04,2024-12-04,株式会社カネコ,,株式会社,東京都,目黒区,鷹番１丁目７番５号,,13,110,1520004,,,,,,,2024-12-04,1,,,,,カネコ,0
55,1011001166150,新規,0,2024-12-04,2024-12-04,株式会社エイチプラス,,株式会社,東京都,目黒区,目黒３丁目１番７号,,13,110,1530063,,,,,,,2024-12-04,1,,,,,エイチプラス,0
56,1011001166282,新規,0,2024-12-04,2024-12-04,浩睿株式会社,,株式会社,東京都,渋谷区,千駄ヶ谷３丁目５番１５ー４０２号,,13,113,1510051,,,,,,,2024-12-04,1,,,,,コウエイ,0
67,1011101109785,新規,0,2024-12-04,2024-12-04,ＷＩＮ　ＳＯＵＲＣＥ　ＥＬＥＣＴＲＯＮＩＣＳ株式会社,,株式会社,東京都,新宿区,百人町２丁目１３番１３号Ｊハウス２０６,,13,104,1690073,,,,,,,2024-12-04,1,,,,,ウィンソースエレクトロニクス,0
68,1011103015247,新規,0,2024-12-04,2024-12-04,合同会社Ｌｕｎａ．Ｐ,,合同会社,東京都,新宿区,新宿１丁目３６－２,,13,104,1600022,,,,,,,2024-12-04,1,,,,,ルナピー,0
74,1011301030213,新規,0,2024-12-04,2024-12-04,株式会社ランス,,株式会社,東京都,杉並区,上井草１丁目３２番２号,,13,115,1670023,,,,,,,2024-12-04,1,,,,,ランス,0
79,1011601028254,新規,0,2024-12-04,2024-12-04,株式会社ＳＤＣ,,株式会社,東京都,練馬区,石神井町７丁目５番１３号,,13,120,1770041,,,,,,,2024-12-04,1,,,,,エスディーシー,0
80,1011701027882,新規,0,2024-12-04,2024-12-04,株式会社エフズアドバンス,,株式会社,東京都,江戸川区,大杉３丁目７番５号,,13,123,1320022,,,,,,,2024-12-04,1,,,,,エフズアドバンス,0
85,1011801045231,新規,0,2024-12-04,2024-12-04,辛国＿株式会社,00137218,株式会社,東京都,足立区,千住河原町２７番８号ＭｅｌｄｉａＲｅｓｉｄｅｎｔｉａｌ北千住１０３－Ｆ,,13,121,1200037,,,,,,,2024-12-04,1,,,,,シンコクトウ,0
86,1011801045272,新規,0,2024-12-04,2024-12-04,双深株式会社,,株式会社,東京都,葛飾区,東新小岩２丁目１番１号,,13,122,1240023,,,,,,,2024-12-04,1,,,,,ソウシン,0
87,1012301014180,新規,0,2024-12-04,2024-12-04,株式会社Ｏｋａｒａ　Ｔｅｒｒａｃｅ,,株式会社,東京都,町田市,原町田５丁目１３番３４号,,13,209,1940013,,,,,,,2024-12-04,1,,,,,オカラテラス,0
103,1020001160410,新規,0,2024-12-04,2024-12-04,株式会社ＡＳＨＵ,,株式会社,神奈川県,川崎市多摩区,堰２丁目１１番２－２号,,14,135,2140022,,,,,,,2024-12-04,1,,,,,アス,0
104,1020001160435,新規,0,2024-12-04,2024-12-04,株式会社ＳＫＰ国際,,株式会社,神奈川県,川崎市川崎区,港町５番１－１０１４号,,14,131,2100807,,,,,,,2024-12-04,1,,,,,エスケーピーコクサイ,0
105,1020001160443,新規,0,2024-12-04,2024-12-04,株式会社ひなた園,,株式会社,神奈川県,川崎市宮前区,犬蔵１丁目３４番２４号,,14,136,2160011,,,,,,,2024-12-04,1,,,,,ヒナタエン,0
114,1021001083907,新規,0,2024-12-04,2024-12-04,株式会社ＰｉＥＣＥ,,株式会社,神奈川県,鎌倉市,御成町１３番２０号,,14,204,2480012,,,,,,,2024-12-04,1,,,,,ピース,0
117,1021003015305,新規,0,2024-12-04,2024-12-04,Ａｏｄｏゴールドフィッシュ・ファーム合同会社,,合同会社,神奈川県,藤沢市,白旗４丁目１２番３８号,,14,205,2510051,,,,,,,2024-12-04,1,,,,,アオドゴールドフィッシュファーム,0
119,1030001163734,新規,0,2024-12-04,2024-12-04,株式会社トワレーヴ,,株式会社,埼玉県,所沢市,大字亀ケ谷４２６番地１,,11,208,3590014,,,,,,,2024-12-04,1,,,,,トワレーヴ,0
120,1030001163750,新規,0,2024-12-04,2024-12-04,株式会社まと,,株式会社,埼玉県,所沢市,松葉町１９番２号,,11,208,3590044,,,,,,,2024-12-04,1,,,,,マト,0
121,1030001163800,新規,0,2024-12-04,2024-12-04,癒し楽園株式会社,,株式会社,埼玉県,加須市,生出４６番地１,,11,210,3491143,,,,,,,2024-12-04,1,,,,,イヤシラクエン,0
122,1030001163809,新規,0,2024-12-04,2024-12-04,Ｎｅｗ　Ｌｉｆｅ　Ｊａｐａｎ株式会社,,株式会社,埼玉県,さいたま市南区,文蔵３丁目１番３号南浦和第２ローヤルコーポ１０１,,11,108,3360025,,,,,,,2024-12-04,1,,,,,ニューライフジャパン,0
126,1030003025610,新規,0,2024-12-04,2024-12-04,ここるのあ合同会社,,合同会社,埼玉県,所沢市,所沢新町２５７５番地の２３,,11,208,3590006,,,,,,,2024-12-04,1,,,,,ココルノア,0
127,1030003025619,新規,0,2024-12-04,2024-12-04,合同会社しろむぎ,,合同会社,埼玉県,さいたま市岩槻区,美園東１丁目１番地１・１３０３号室,,11,110,3390028,,,,,,,2024-12-04,1,,,,,シロムギ,0
131,1040001136400,新規,0,2024-12-04,2024-12-04,株式会社あかつきホールディングス,,株式会社,千葉県,船橋市,海神町南１丁目１４８８番地１エンゼルプレディア西船橋９０３号,,12,204,2730024,,,,,,,2024-12-04,1,,,,,アカツキホールディングス,0
132,1040001136409,新規,0,2024-12-04,2024-12-04,株式会社ｎｙｘ,,株式会社,千葉県,松戸市,新松戸１丁目４９８番地コンフォート新松戸２Ｆ,,12,207,2700034,,,,,,,2024-12-04,1,,,,,ニックス,0
133,1040001136417,新規,0,2024-12-04,2024-12-04,株式会社トーセン,,株式会社,千葉県,八千代市,大和田新田７６０番地６６,,12,221,2760046,,,,,,,2024-12-04,1,,,,,トーセン,0
136,1050001055814,新規,0,2024-12-04,2024-12-04,Ｋ．Ｍ　ＴＲＡＤＩＮＧ株式会社,,株式会社,茨城県,坂東市,山７６４番地１,,08,228,3060502,,,,,,,2024-12-04,1,,,,,ケイエムトレイディング,0
137,1050001055822,新規,0,2024-12-04,2024-12-04,株式会社大洋,,株式会社,茨城県,水戸市,大工町１丁目４番１２号大工町ビル２Ｆ,,08,201,3100031,,,,,,,2024-12-04,1,,,,,タイヨウ,0
139,1050005013529,新規,0,2024-12-04,2024-12-04,一般社団法人ＳＰＡＣＥ　Ｋｉａ　Ｏｒａ,,その他の設立登記法人,茨城県,つくば市,松代１丁目２８番地６,,08,220,3050035,,,,,,,2024-12-04,1,,,,,スペースキアオラ,0
142,1060001037695,新規,0,2024-12-04,2024-12-04,株式会社ＣＯＲＥ．ＤＥＶ,,株式会社,栃木県,宇都宮市,今宮４丁目６番３０号,,09,201,3210166,,,,,,,2024-12-04,1,,,,,コアデベロップメント,0
147,1070001042414,新規,0,2024-12-04,2024-12-04,丸駒フードサービス株式会社,,株式会社,群馬県,高崎市,上大類町７８５－２,,10,202,3700031,,,,,,,2024-12-04,1,,,,,マルコマフードサービス,0
148,1070001042422,新規,0,2024-12-04,2024-12-04,Ｈｏａｌｏｈａ株式会社,,株式会社,群馬県,甘楽郡甘楽町,大字福島１５５３番地１号,,10,384,3702212,,,,,,,2024-12-04,1,,,,,ホアロハ,0
151,1070003005690,新規,0,2024-12-04,2024-12-04,ツバメ合同会社,,合同会社,群馬県,安中市,板鼻１８８５番地５,,10,211,3790111,,,,,,,2024-12-04,1,,,,,ツバメ,0
160,1100003007898,新規,0,2024-12-04,2024-12-04,Ｒａｉｃｈｏ’ｓ　Ｈｏｕｓｅ合同会社,,合同会社,長野県,北安曇郡白馬村,大字北城３０２０－１０１８,,20,485,3999301,,,,,,,2024-12-04,1,,,,,ライチョウズハウス,0
162,1110001038886,新規,0,2024-12-04,2024-12-04,株式会社壱真,,株式会社,新潟県,三条市,直江町３丁目２番７－３号,,15,204,9550832,,,,,,,2024-12-04,1,,,,,イッシン,0
171,1120001270620,新規,0,2024-12-04,2024-12-04,株式会社三登工芸,,株式会社,大阪府,門真市,四宮３丁目９番２４号,,27,223,5710017,,,,,,,2024-12-04,1,,,,,ミトコウゲイ,0
172,1120001270760,新規,0,2024-12-04,2024-12-04,中州株式会社,,株式会社,大阪府,大阪市中央区,松屋町９番２０号ローレルステート松屋町５０２Ｂ,,27,128,5420067,,,,,,,2024-12-04,1,,,,,チュウシュウ,0
173,1120001270769,新規,0,2024-12-04,2024-12-04,日本医業政経塾株式会社,,株式会社,大阪府,大阪市北区,梅田１丁目２番２号大阪駅前第２ビル１２－１２,,27,127,5300001,,,,,,,2024-12-04,1,,,,,ニホンイギョウセイケイジュク,0
174,1120001270777,新規,0,2024-12-04,2024-12-04,株式会社縁,,株式会社,大阪府,大阪市中央区,北浜２丁目２番２１－３２０１号,,27,128,5410041,,,,,,,2024-12-04,1,,,,,エン,0
175,1120001270785,新規,0,2024-12-04,2024-12-04,株式会社ＡＮＤＹ’Ｓ,,株式会社,大阪府,大阪市生野区,勝山南１丁目１０番１５号,,27,116,5440021,,,,,,,2024-12-04,1,,,,,アンディーズ,0
176,1120001270802,新規,0,2024-12-04,2024-12-04,Ｍ紳士株式会社,,株式会社,大阪府,大阪市中央区,島之内２丁目１０番１２号７１２号室,,27,128,5420082,,,,,,,2024-12-04,1,,,,,エムシンシ,0
177,1120005024642,新規,0,2024-12-04,2024-12-04,一般社団法人日本ベビーサポート協会,,その他の設立登記法人,大阪府,大阪市西区,江戸堀１丁目２３番１９号グラン・ビルド江戸堀７０４,,27,106,5500002,,,,,,,2024-12-04,1,,,,,ニホンベビーサポートキョウカイ,0
190,1130003010057,新規,0,2024-12-04,2024-12-04,ＹＡＴアドバイザリー合同会社,,合同会社,京都府,京都市中京区,一之船入町３７６クロトビル５階,,26,104,6040924,,,,,,,2024-12-04,1,,,,,ワイエーティーアドバイザリー,0
199,1150001027720,新規,0,2024-12-04,2024-12-04,自然農法株式会社,,株式会社,奈良県,桜井市,大字穴師７８番地,,29,206,6330071,,,,,,,2024-12-04,1,,,,,シゼンノウホウ,0
203,1160001026382,新規,0,2024-12-04,2024-12-04,株式会社ｄｉｖｅ　ｉｎ　ＬＩＦＥ,,株式会社,滋賀県,長浜市,元浜町７－５,,25,203,5260059,,,,,,,2024-12-04,1,,,,,ダイブインライフ,0
204,1160001026390,新規,0,2024-12-04,2024-12-04,株式会社英心商事,,株式会社,滋賀県,栗東市,霊仙寺６丁目６番３２号,,25,208,5203035,,,,,,,2024-12-04,1,,,,,エイシンショウジ,0
205,1160003003347,新規,0,2024-12-04,2024-12-04,合同会社中嶋庵,,合同会社,滋賀県,彦根市,平田町９６６番地１,,25,202,5220041,,,,,,,2024-12-04,1,,,,,ナカジマアン,0
207,1170003002133,新規,0,2024-12-04,2024-12-04,合同会社むすびめ,,合同会社,和歌山県,有田郡有田川町,大字吉原１２５３番地,,30,366,6430166,,,,,,,2024-12-04,1,,,,,ムスビメ,0
213,1180001164387,新規,0,2024-12-04,2024-12-04,株式会社ｍｉｎｅ,,株式会社,愛知県,名古屋市中区,平和１丁目２２番５号,,23,106,4600021,,,,,,,2024-12-04,1,,,,,ミーヌ,0
214,1180001164395,新規,0,2024-12-04,2024-12-04,株式会社Ｍサポート,,株式会社,愛知県,名古屋市中村区,太閤５丁目１６番７号,,23,105,4530801,,,,,,,2024-12-04,1,,,,,エムサポート,0
222,1180301039306,新規,0,2024-12-04,2024-12-04,安藤商事株式会社,,株式会社,愛知県,刈谷市,今川町２丁目１０２番地,,23,210,4480005,,,,,,,2024-12-04,1,,,,,アンドウショウジ,0
223,1180303006353,新規,0,2024-12-04,2024-12-04,合同会社Ｕｎｉｔｙ,,合同会社,愛知県,豊田市,高岡町池端８１番地２,,23,211,4730933,,,,,,,2024-12-04,1,,,,,ユニティ,0
229,1220001026368,新規,0,2024-12-04,2024-12-04,Ｊｉｒｉｒｉｔａ株式会社,,株式会社,石川県,野々市市,御経塚４丁目１２３番地,,17,212,9218801,,,,,,,2024-12-04,1,,,,,ジリリタ,0
231,1220003003902,新規,0,2024-12-04,2024-12-04,ＴＫＤ合同会社,,合同会社,石川県,白山市,湊町７―２５番地,,17,210,9290217,,,,,,,2024-12-04,1,,,,,ティーケーディー,0
235,1240001064184,新規,0,2024-12-04,2024-12-04,株式会社グッドウェル,,株式会社,広島県,広島市中区,大手町１丁目１番２０号相生橋ビル７階Ａ号室,,34,101,7300051,,,,,,,2024-12-04,1,,,,,グッドウェル,0
236,1240001064192,新規,0,2024-12-04,2024-12-04,株式会社ｃｉｃａ,,株式会社,広島県,安芸高田市,向原町坂１２４６番地,,34,214,7391201,,,,,,,2024-12-04,1,,,,,シカ,0
237,1240001064218,新規,0,2024-12-04,2024-12-04,ＴＯＷＩＮＧ株式会社,,株式会社,広島県,広島市西区,三篠町３丁目１５番１号,,34,104,7330003,,,,,,,2024-12-04,1,,,,,トーイング,0
238,1240003006960,新規,0,2024-12-04,2024-12-04,合同会社ａｉｄｅ,,合同会社,広島県,広島市中区,富士見町９－１６ｋａｔａｙａｍａＢＬＤＧ２５１１０４,,34,101,7300043,,,,,,,2024-12-04,1,,,,,アイド,0
242,1260001039696,新規,0,2024-12-04,2024-12-04,株式会社かたづけ娘,,株式会社,岡山県,岡山市東区,金田１０３２－５,,33,103,7048196,,,,,,,2024-12-04,1,,,,,カタヅケムスメ,0
244,1280001009301,新規,0,2024-12-04,2024-12-04,株式会社正直不動産,,株式会社,島根県,浜田市,国分町２３１０番地,,32,202,6970003,,,,,,,2024-12-04,1,,,,,ショウジキフドウサン,0
250,1290003016146,新規,0,2024-12-04,2024-12-04,合同会社Ｂｏｄｙ　Ｓｅｌｅｃｔ,,合同会社,福岡県,那珂川市,片縄北６丁目１８番１０号,,40,231,8111203,,,,,,,2024-12-04,1,,,,,ボディセレクト,0
255,1290801031098,新規,0,2024-12-04,2024-12-04,株式会社クロスサイド,,株式会社,福岡県,遠賀郡遠賀町,大字今古賀３３４番地４,,40,384,8114303,,,,,,,2024-12-04,1,,,,,クロスサイド,0
268,1330001032710,新規,0,2024-12-04,2024-12-04,株式会社荒木ファーム,,株式会社,熊本県,玉名市,横島町共栄６３番地,,43,206,8650073,,,,,,,2024-12-04,1,,,,,アラキファーム,0
287,1430001093164,新規,0,2024-12-04,2024-12-04,アイタックグループ株式会社,,株式会社,北海道,札幌市中央区,南十二条西１５丁目４番３号,,01,101,0640912,,,,,,,2024-12-04,1,,,,,アイタックグループ,0
288,1430001093180,新規,0,2024-12-04,2024-12-04,株式会社Ｓｏｖｅｕ,,株式会社,北海道,札幌市南区,川沿十二条５丁目１番１５号,,01,106,0050812,,,,,,,2024-12-04,1,,,,,ソヴォ,0
289,1430001093189,新規,0,2024-12-04,2024-12-04,株式会社２５２９,,株式会社,北海道,札幌市中央区,南六条西６丁目７番地１第６旭観光ビル,,01,101,0640806,,,,,,,2024-12-04,1,,,,,ニコフク,0
290,1430001093206,新規,0,2024-12-04,2024-12-04,株式会社０１’ｐｉｅｃｅ,,株式会社,北海道,千歳市,新富３丁目２番１９号,,01,224,0660037,,,,,,,2024-12-04,1,,,,,ワンピース,0
295,1430003017047,新規,0,2024-12-04,2024-12-04,合同会社ｙａｍ,,合同会社,北海道,石狩郡当別町,字金沢４９５－１６,,01,303,0610212,,,,,,,2024-12-04,1,,,,,ヤム,0
303,1470001020486,新規,0,2024-12-04,2024-12-04,株式会社ＭＩＮＡ高松,,株式会社,香川県,高松市,城東町１丁目４－１７,,37,201,7600036,,,,,,,2024-12-04,1,,,,,,0
309,1700150074318,新規,0,2024-12-04,2016-06-29,瓜幕バイオガスプラント利用組合,,その他,北海道,河東郡鹿追町,瓜幕西３０線２５番地１,,01,634,0810341,,,,,,,2016-06-29,1,,,,,ウリマクバイオガスプラントリヨウクミアイ,0
324,2010001250418,新規,0,2024-12-04,2024-12-04,株式会社ＢＯＮＤ　ＣＯＮＳＵＬＴＩＮＧ,,株式会社,東京都,中央区,日本橋茅場町２丁目９番８号,,13,102,1030025,,,,,,,2024-12-04,1,,,,,ボンドコンサルティング,0
325,2010001250442,新規,0,2024-12-04,2024-12-04,株式会社イングレディブル,,株式会社,東京都,中央区,日本橋室町１丁目１１番１２号日本橋水野ビル７階,,13,102,1030022,,,,,,,2024-12-04,1,,,,,イングレディブル,0
329,2010003045725,新規,0,2024-12-04,2024-12-04,ＴＧＯ　Ｐａｒｔｎｅｒｓ合同会社,,合同会社,東京都,中央区,日本橋室町１丁目１１番１２号日本橋水野ビル７階,,13,102,1030022,,,,,,,2024-12-04,1,,,,,ティジィオーパートナーズ,0
332,2010101016438,新規,0,2024-12-04,2024-12-04,株式会社ＥＮＷＡＶＥ,,株式会社,東京都,八王子市,小宮町１０９６番地１６,,13,201,1920031,,,,,,,2024-12-04,1,,,,,エンウェイブ,0
338,2010401186798,新規,0,2024-12-04,2024-12-04,株式会社タレントインキュベータ,,株式会社,東京都,港区,新橋４丁目３１－３第３名和ビル,,13,103,1050004,,,,,,,2024-12-04,1,,,,,タレントインキュベータ,0
339,2010401186815,新規,0,2024-12-04,2024-12-04,株式会社トリケラトプス,,株式会社,東京都,港区,北青山１丁目３番１号アールキューブ青山３階,,13,103,1070061,,,,,,,2024-12-04,1,,,,,トリケラトプス,0
340,2010401186823,新規,0,2024-12-04,2024-12-04,株式会社Ｎｅｘｔ　ｌｉｎｅ,,株式会社,東京都,港区,南青山３丁目１番３６号青山丸竹ビル６Ｆ,,13,103,1070062,,,,,,,2024-12-04,1,,,,,ネクストライン,0
341,2010401186856,新規,0,2024-12-04,2024-12-04,スーペン株式会社,,株式会社,東京都,港区,六本木１丁目７－２７全特六本木ビルＥＡＳＴ４Ｆ,,13,103,1060032,,,,,,,2024-12-04,1,,,,,スーペン,0
342,2010401186864,新規,0,2024-12-04,2024-12-04,株式会社ＬＩＳ,,株式会社,東京都,港区,港南２丁目１６－１品川イーストワンタワー４Ｆ,,13,103,1080075,,,,,,,2024-12-04,1,,,,,エルアイエス,0
345,2010403033940,新規,0,2024-12-04,2024-12-04,ルモラ合同会社,,合同会社,東京都,港区,白金１丁目２番１－Ｅ６１２,,13,103,1080072,,,,,,,2024-12-04,1,,,,,ルモラ,0
346,2010403033949,新規,0,2024-12-04,2024-12-04,合同会社Ｎｅｘｔ　Ｉｎｔｅｒｎａｔｉｏｎａｌ,,合同会社,東京都,港区,芝４丁目１８番１－１３０６号,,13,103,1080014,,,,,,,2024-12-04,1,,,,,ネクストインターナショナル,0
356,2010603011242,新規,0,2024-12-04,2024-12-04,ＴＫコーポレーション合同会社,,合同会社,東京都,墨田区,太平１丁目１０番１２－１０２号,,13,107,1300012,,,,,,,2024-12-04,1,,,,,ティーケーコーポレーション,0
357,2010701046925,新規,0,2024-12-04,2024-12-04,新和株式会社,,株式会社,東京都,品川区,西五反田８丁目１２番５号７０４,,13,109,1410031,,,,,,,2024-12-04,1,,,,,シンワ,0
358,2010701046941,新規,0,2024-12-04,2024-12-04,ＢａｍＶｏｉｃｅ株式会社,,株式会社,東京都,品川区,荏原７丁目９番６号,,13,109,1420063,,,,,,,2024-12-04,1,,,,,バンボイス,0
360,2010803005184,新規,0,2024-12-04,2024-12-04,合同会社Ｈｅｒｅ＆Ｎｏｗ,,合同会社,東京都,大田区,山王２丁目－５－６ＳａｎｎｏＢｒｉｄｇｅＢＩＺｃｏｍｆｏｒｔ大森山王,,13,111,1430023,,,,,,,2024-12-04,1,,,,,ヒアナウ,0
369,2011001166208,新規,0,2024-12-04,2024-12-04,株式会社立石,,株式会社,東京都,目黒区,自由が丘３丁目５番３号,,13,110,1520035,,,,,,,2024-12-04,1,,,,,タテイシ,0
373,2011105011251,新規,0,2024-12-04,2024-12-04,一般社団法人日本留学教育学会,,その他の設立登記法人,東京都,新宿区,北新宿３丁目９番１６号白川ビル１階,,13,104,1690074,,,,,,,2024-12-04,1,,,,,ニホンリュウガクキョウイクガッカイ,0
375,2011201025964,新規,0,2024-12-04,2024-12-04,株式会社ａｎｄ　Ｓ,,株式会社,東京都,中野区,弥生町２丁目３１番５号ＧＲＡＮＰＡＳＥＯ中野新橋５０２,,13,114,1640013,,,,,,,2024-12-04,1,,,,,アンドエス,0
376,2011201025972,新規,0,2024-12-04,2024-12-04,テンペック株式会社,,株式会社,東京都,中野区,本町６丁目９－１１,,13,114,1640012,,,,,,,2024-12-04,1,,,,,テンペック,0
377,2011203004545,新規,0,2024-12-04,2024-12-04,合資会社ＰＯＹＯ,,合資会社,東京都,中野区,新井１丁目１６番１４号ＣＩＣＡＤＡＮＡＫＡＮＯ２０３,,13,114,1650026,,,,,,,2024-12-04,1,,,,,ポヨ,0
383,2011601028261,新規,0,2024-12-04,2024-12-04,株式会社ＹＵ　ＣＲＥＡＴＩＶＥ　ＷＯＲＫＳ,,株式会社,東京都,練馬区,石神井町３丁目１８番５号ＳＫコーポ２０２,,13,120,1770041,,,,,,,2024-12-04,1,,,,,ユークリエイティブワークス,0
385,2011701027881,新規,0,2024-12-04,2024-12-04,株式会社ゼロクラフト,,株式会社,東京都,江戸川区,本一色３丁目７番７号,,13,123,1330044,,,,,,,2024-12-04,1,,,,,ゼロクラフト,0
390,2011801045247,新規,0,2024-12-04,2024-12-04,福慧株式会社,,株式会社,東京都,葛飾区,堀切７丁目２８番１８号１０１号室,,13,122,1240006,,,,,,,2024-12-04,1,,,,,フクトシ,0
391,2011801045263,新規,0,2024-12-04,2024-12-04,株式会社ブチアゲ,,株式会社,東京都,葛飾区,東立石２丁目１０番３号,,13,122,1240013,,,,,,,2024-12-04,1,,,,,ブチアゲ,0
396,2012801023614,新規,0,2024-12-04,2024-12-04,はぁとｅｉｒｕ株式会社,,株式会社,東京都,立川市,曙町３丁目２４番８号ストーク立川１Ｆ,00137233,13,202,1900012,,,,,,,2024-12-04,1,,,,,ハァトエイル,0
402,2013301053473,新規,0,2024-12-04,2024-12-04,築楽国際開発株式会社,,株式会社,東京都,豊島区,要町３丁目３７番１号２Ｂ,,13,116,1710043,,,,,,,2024-12-04,1,,,,,チクラクコクサイカイハツ,0
407,2020001160376,新規,0,2024-12-04,2024-12-04,株式会社ＧＢ　ＣＡＰＩＴＡＬ,,株式会社,神奈川県,横浜市青葉区,青葉台２丁目２番地２０サンハイム青葉台２０１,,14,117,2270062,,,,,,,2024-12-04,1,,,,,ジービーキャピタル,0
408,2020001160418,新規,0,2024-12-04,2024-12-04,株式会社煌盛商事,,株式会社,神奈川県,横浜市港北区,樽町４丁目５－３ＳＲＥビル３Ｆ,,14,109,2220001,,,,,,,2024-12-04,1,,,,,コウセイショウジ,0
409,2020001160426,新規,0,2024-12-04,2024-12-04,株式会社ＬＵＸＰＵＥ,,株式会社,神奈川県,横浜市旭区,本村町６５番地２６,,14,112,2410024,,,,,,,2024-12-04,1,,,,,ルクスプエル,0
414,2020003027383,新規,0,2024-12-04,2024-12-04,合同会社えあほ,,合同会社,神奈川県,川崎市幸区,鹿島田１丁目１番５－２２０６号,,14,132,2120058,,,,,,,2024-12-04,1,,,,,エアホ,0
420,2021001083897,新規,0,2024-12-04,2024-12-04,株式会社ＩｎｔｅｒＬｉｎｇｕａｌ,,株式会社,神奈川県,相模原市南区,新磯野１丁目２４番１２号べレオ新磯野３０３,,14,153,2520325,,,,,,,2024-12-04,1,,,,,インターリンガル,0
421,2021001083906,新規,0,2024-12-04,2024-12-04,エイトドア株式会社,,株式会社,神奈川県,茅ヶ崎市,新栄町７番５号ＣｈｉｇａｓａｋｉＢｉｚ－ｎａｚ３Ｆ,,14,207,2530044,,,,,,,2024-12-04,1,,,,,エイトドア,0
422,2021001083914,新規,0,2024-12-04,2024-12-04,株式会社ＡＲＣ,,株式会社,神奈川県,横須賀市,吉井１丁目２番４号,,14,201,2390804,,,,,,,2024-12-04,1,,,,,,0
423,2021001083922,新規,0,2024-12-04,2024-12-04,日本金若和株式会社,,株式会社,神奈川県,大和市,草柳１丁目１９番地９田園リビングマート３号室,,14,213,2420026,,,,,,,2024-12-04,1,,,,,ニホンキンジャクワ,0
428,2021003015304,新規,0,2024-12-04,2024-12-04,合同会社ＲＩＫＡＲＩ,,合同会社,神奈川県,藤沢市,鵠沼花沢町３番１６号,,14,205,2510023,,,,,,,2024-12-04,1,,,,,リカリ,0
438,2030001163782,新規,0,2024-12-04,2024-12-04,株式会社ｄａｎｄｅｌｉｏｎ,,株式会社,埼玉県,新座市,栗原１丁目１３－１７ＫＵＲＩＨＡ１１３－２０２号室,,11,230,3520035,,,,,,,2024-12-04,1,,,,,ダンデライオン,0
439,2030001163799,新規,0,2024-12-04,2024-12-04,漢昌商貿株式会社,,株式会社,埼玉県,深谷市,上野台２３５２番地ダイアパレスＢＷ深谷１３６号,,11,218,3660801,,,,,,,2024-12-04,1,,,,,カンショウショウボウ,0
445,2030003025618,新規,0,2024-12-04,2024-12-04,合同会社ＳＫＩ,,合同会社,埼玉県,川口市,大字安行慈林字赤芝５６７番地５,,11,203,3340071,,,,,,,2024-12-04,1,,,,,エスケーアイ,0
446,2030005021961,新規,0,2024-12-04,2024-12-04,社会保険労務士法人ＡＯＩみらい,,その他の設立登記法人,埼玉県,行田市,長野２丁目９番１６号,,11,206,3610023,,,,,,,2024-12-04,1,,,,,アオイミライ,0
455,2040001136399,新規,0,2024-12-04,2024-12-04,株式会社ブリリアントプロパティ,,株式会社,千葉県,我孫子市,東我孫子１丁目９番２５号,,12,222,2701144,,,,,,,2024-12-04,1,,,,,ブリリアントプロパティ,0
456,2040001136416,新規,0,2024-12-04,2024-12-04,株式会社ＫＩＣ,,株式会社,千葉県,八街市,榎戸４１６－２５,,12,230,2891106,,,,,,,2024-12-04,1,,,,,ケイアイシー,0
458,2050001055805,新規,0,2024-12-04,2024-12-04,ＬＩＬＹ　Ｈａｉｒ　Ｓａｌｏｎ株式会社,,株式会社,茨城県,石岡市,北府中１丁目４番１７号,,08,205,3150012,,,,,,,2024-12-04,1,,,,,リリーヘアサロン,0
459,2050001055813,新規,0,2024-12-04,2024-12-04,株式会社ＴＡＴ,,株式会社,茨城県,つくば市,天久保２丁目３番地１ホソダビル１０２,,08,220,3050005,,,,,,,2024-12-04,1,,,,,トウアンアンテイン,0
462,2060001037694,新規,0,2024-12-04,2024-12-04,ＫＯＨＡＲＴ株式会社,,株式会社,栃木県,宇都宮市,花房２丁目８番６号エール・ド・シャトー１Ｆ,,09,201,3200827,,,,,,,2024-12-04,1,,,,,コハート,0
467,2070001042421,新規,0,2024-12-04,2024-12-04,株式会社プログレ,,株式会社,群馬県,北群馬郡吉岡町,大字大久保１１２番地２,,10,345,3703602,,,,,,,2024-12-04,1,,,,,プログレ,0
470,2080101025176,新規,0,2024-12-04,2024-12-04,株式会社粋,,株式会社,静岡県,伊豆の国市,北江間１５６番地の６,,22,225,4102223,,,,,,,2024-12-04,1,,,,,スイ,0
478,2100001038093,新規,0,2024-12-04,2024-12-04,株式会社ＷＢエステート,,株式会社,長野県,諏訪郡原村,宇深山１６２６７番地６４９,,20,363,3910100,,,,,,,2024-12-04,1,,,,,ダブリュービィエステート,0
492,2120001270743,新規,0,2024-12-04,2024-12-04,イハン商事株式会社,,株式会社,大阪府,大阪市東住吉区,矢田４丁目９番１５－４０１号,,27,121,5460023,,,,,,,2024-12-04,1,,,,,イハンショウジ,0
493,2120001270776,新規,0,2024-12-04,2024-12-04,株式会社突破,,株式会社,大阪府,枚方市,禁野本町２丁目５番１５号,,27,210,5731197,,,,,,,2024-12-04,1,,,,,トッパ,0
494,2120001270826,新規,0,2024-12-04,2024-12-04,株式会社ＰＩＫＯＲＵＡメディカル,,株式会社,大阪府,大阪市旭区,清水５丁目３番２号,,27,117,5350021,,,,,,,2024-12-04,1,,,,,ピコルアメディカル,0
499,2120003028090,新規,0,2024-12-04,2024-12-04,合同会社ホーリー,,合同会社,大阪府,大阪市東淀川区,大桐２丁目７番１６－２１６号,,27,114,5330011,,,,,,,2024-12-04,1,,,,,ホーリー,0
500,2120003028099,新規,0,2024-12-04,2024-12-04,合同会社二条開発プロジェクト,,合同会社,大阪府,大阪市中央区,高麗橋１丁目７番７－９０４号,,27,128,5410043,,,,,,,2024-12-04,1,,,,,ニジョウカイハツプロジェクト,0
508,2120901050121,新規,0,2024-12-04,2024-12-04,株式会社タチ建設,,株式会社,大阪府,高槻市,深沢町１丁目２４番１３号,,27,207,5690035,,,,,,,2024-12-04,1,,,,,タチケンセツ,0
513,2130001078533,新規,0,2024-12-04,2024-12-04,株式会社後藤商店,,株式会社,京都府,京都市左京区,静市市原町４７６－４,,26,103,6011123,,,,,,,2024-12-04,1,,,,,ゴトウショウテン,0
516,2130005017248,新規,0,2024-12-04,2024-12-04,特定非営利活動法人少子化支援ネットワーク,,その他の設立登記法人,京都府,京都市西京区,大枝北沓掛町１丁目５番地２－４０６,,26,111,6101101,,,,,,,2024-12-04,1,,,,,ショウシカシエンネットワーク,0
519,2140001136579,新規,0,2024-12-04,2024-12-04,洛神自動車株式会社,,株式会社,兵庫県,加古郡稲美町,草谷１番地の８０３,,28,381,6751102,,,,,,,2024-12-04,1,,,,,ラクシンジドウシャ,0
520,2140001136604,新規,0,2024-12-04,2024-12-04,株式会社Ｕｎｉｆａｍ,,株式会社,兵庫県,神戸市灘区,新在家南町３丁目７番２１号,,28,102,6570864,,,,,,,2024-12-04,1,,,,,ユニファム,0
522,2140003021374,新規,0,2024-12-04,2024-12-04,合同会社ＮｏａＴｏａ,,合同会社,兵庫県,尼崎市,長洲西通１丁目１０番１－６３０号,,28,202,6600807,,,,,,,2024-12-04,1,,,,,ノアトア,0
527,2150003003438,新規,0,2024-12-04,2024-12-04,合同会社Ａｌｌ　Ｓｔａｒｔｓ　Ｎｏｗ,,合同会社,奈良県,生駒市,谷田町１２７６番地６,,29,209,6300251,,,,,,,2024-12-04,1,,,,,オールスターツナウ,0
538,2180001164386,新規,0,2024-12-04,2024-12-04,株式会社ＳＥＩＫＯＵ　ＡＧＥＮＧ,,株式会社,愛知県,名古屋市東区,泉３丁目１番３０号,,23,102,4610001,,,,,,,2024-12-04,1,,,,,セイコウアゲング,0
539,2180001164394,新規,0,2024-12-04,2024-12-04,株式会社まなこ関西,,株式会社,愛知県,名古屋市中村区,名駅３丁目２２番４号,,23,105,4500002,,,,,,,2024-12-04,1,,,,,マナコカンサイ,0
540,2180001164411,新規,0,2024-12-04,2024-12-04,グロフィルロジ株式会社,,株式会社,愛知県,名古屋市西区,城北町１丁目１６番地,,23,104,4510023,,,,,,,2024-12-04,1,,,,,グロフィルロジ,0
543,2180003027707,新規,0,2024-12-04,2024-12-04,スラッシュゼロ合同会社,,合同会社,愛知県,名古屋市北区,清水５丁目２６番３号,,23,103,4620844,,,,,,,2024-12-04,1,,,,,スラッシュゼロ,0
544,2180301039288,新規,0,2024-12-04,2024-12-04,株式会社河源,,株式会社,愛知県,豊田市,前山町５丁目２１番地１,,23,211,4710828,,,,,,,2024-12-04,1,,,,,カワゲン,0
547,2190005012004,新規,0,2024-12-04,2024-12-04,一般社団法人四日市こども食堂・居場所ステーション,,その他の設立登記法人,三重県,四日市市,下之宮町字五反縄３７番１,,24,202,5108028,,,,,,,2024-12-04,1,,,,,ヨッカイチコドモショクドウイバショステーション,0
551,2200003006609,新規,0,2024-12-04,2024-12-04,合同会社リアン,,合同会社,岐阜県,各務原市,蘇原中央町２丁目９１番地,,21,213,5040813,,,,,,,2024-12-04,1,,,,,リアン,0
554,2220001026367,新規,0,2024-12-04,2024-12-04,株式会社マルキュウ商事,,株式会社,石川県,珠洲市,蛸島町１部２番地４２１,00137213,17,205,9271204,,,,,,,2024-12-04,1,,,,,マルキュウショウジ,0
563,2240001064191,新規,0,2024-12-04,2024-12-04,アールビーケイホールディングス株式会社,,株式会社,広島県,呉市,広大新開２丁目１１－２９,,34,202,7370141,,,,,,,2024-12-04,1,,,,,,0
569,2260001039695,新規,0,2024-12-04,2024-12-04,Ｄプラス株式会社,,株式会社,岡山県,瀬戸内市,邑久町尻海２８４２番地５３,,33,212,7014212,,,,,,,2024-12-04,1,,,,,ディープラス,0
570,2260003004994,新規,0,2024-12-04,2024-12-04,合同会社Ｓｍａｌｌ　Ｓｔｅｐｓ,,合同会社,岡山県,岡山市中区,江並３２５番地６,,33,102,7028004,,,,,,,2024-12-04,1,,,,,スモールステップス,0
571,2270005005619,新規,0,2024-12-04,2024-12-04,一般社団法人寄り添い相談室ご縁は宝,,その他の設立登記法人,鳥取県,米子市,淀江町今津４２３番地２,,31,202,6893401,,,,,,,2024-12-04,1,,,,,ヨリソイソウダンシツゴエンハタカラ,0
584,2290001108225,新規,0,2024-12-04,2024-12-04,株式会社Ｂｅ　Ｆｕｔｕｒｅ,,株式会社,福岡県,福岡市南区,高宮４丁目２３番１６号第五高宮コーポラス３１３,,40,134,8150083,,,,,,,2024-12-04,1,,,,,ビーフューチャー,0
589,2290003016137,新規,0,2024-12-04,2024-12-04,グッドライフパートナー合同会社,,合同会社,福岡県,太宰府市,石坂３丁目５－１３－１０１,,40,221,8180118,,,,,,,2024-12-04,1,,,,,グッドライフパートナー,0
590,2290003016145,新規,0,2024-12-04,2024-12-04,ファンタスティックフォー第１号合同会社,,合同会社,福岡県,福岡市中央区,薬院１丁目１番１号,,40,133,8100022,,,,,,,2024-12-04,1,,,,,ファンタスティックフォーダイイチゴウ,0
592,2290801031097,新規,0,2024-12-04,2024-12-04,株式会社Ｅａｓｔｕｂ,,株式会社,福岡県,北九州市小倉北区,小文字２丁目３番３号,,40,106,8020037,,,,,,,2024-12-04,1,,,,,イースタブ,0
594,2290803004910,新規,0,2024-12-04,2024-12-04,合同会社ＥＲＥ,,合同会社,福岡県,北九州市門司区,大里戸ノ上２丁目８番１０－１２０２号,,40,101,8000024,,,,,,,2024-12-04,1,,,,,イーアールイー,0
596,2320001020847,新規,0,2024-12-04,2024-12-04,株式会社ＲｅＶ,,株式会社,大分県,大分市,大字下郡３１１９番地の４,,44,201,8700951,,,,,,,2024-12-04,1,,,,,リブ,0
597,2320003004526,新規,0,2024-12-04,2024-12-04,合同会社オグラセイキ,,合同会社,大分県,中津市,大字金手１１１番地３,,44,203,8710013,,,,,,,2024-12-04,1,,,,,オグラセイキ,0
600,2330001032718,新規,0,2024-12-04,2024-12-04,株式会社ｆｕｓｉｏｎ,,株式会社,熊本県,熊本市中央区,世安３丁目６番４８－２０９号グランテージ世安,,43,101,8600827,,,,,,,2024-12-04,1,,,,,フュージョン,0
601,2340003004680,新規,0,2024-12-04,2024-12-04,合同会社耀,,合同会社,鹿児島県,日置市,東市来町美山１７４２番地,,46,216,8992431,,,,,,,2024-12-04,1,,,,,アキ,0
602,2350001019309,新規,0,2024-12-04,2024-12-04,ファーム一宇株式会社,,株式会社,宮崎県,都城市,山田町中霧島３１０２番地４谷頭駅前ふれあい団地６２－３０２,,45,202,8894602,,,,,,,2024-12-04,1,,,,,ファームイチウ,0
613,2410003004013,新規,0,2024-12-04,2024-12-04,合同会社ＡｋｉｔａＤｏｇ,,合同会社,秋田県,秋田市,八橋本町２丁目１０番１４号,,05,201,0100973,,,,,,,2024-12-04,1,,,,,アキタドッグ,0
636,3010003045674,新規,0,2024-12-04,2024-12-04,合同会社Ｓ５５,,合同会社,東京都,中央区,月島２丁目１－１アーバンライフ月島駅前イースト３０９,,13,102,1040052,,,,,,,2024-12-04,1,,,,,エスゴーゴー,0
637,3010003045682,新規,0,2024-12-04,2024-12-04,ホスピタリティコネクト合同会社,,合同会社,東京都,文京区,関口１丁目１２番６号,,13,105,1120014,,,,,,,2024-12-04,1,,,,,ホスピタリティコネクト,0
640,3010401186797,新規,0,2024-12-04,2024-12-04,株式会社ＯＮＥＴＥＮ,,株式会社,東京都,港区,台場２丁目２番２－５０７号,,13,103,1350091,,,,,,,2024-12-04,1,,,,,ワンテン,0
641,3010401186806,新規,0,2024-12-04,2024-12-04,ＷＷＲＣ　ＪＡＰＡＮ株式会社,,株式会社,東京都,港区,芝５丁目２９番２０号クロスオフィス三田２０３,,13,103,1080014,,,,,,,2024-12-04,1,,,,,ダブルダブルアールシージャパン,0
644,3010403033948,新規,0,2024-12-04,2024-12-04,ＤＩＭＥＮＳＩＯＮ３号合同会社,,合同会社,東京都,港区,虎ノ門５丁目９番１号,,13,103,1050001,,,,,,,2024-12-04,1,,,,,ディメンションサンゴウ,0
653,3010701046908,新規,0,2024-12-04,2024-12-04,株式会社アール・ワークス,,株式会社,東京都,品川区,西大井１丁目１－２Ｊタワー西大井イーストタワー２Ｆ,,13,109,1400015,,,,,,,2024-12-04,1,,,,,アールワークス,0
664,3011001166165,新規,0,2024-12-04,2024-12-04,株式会社Ｓｔｕｄｉｏ　Ｓｏｄａ,,株式会社,東京都,渋谷区,代々木２丁目２３番１号,,13,113,1510053,,,,,,,2024-12-04,1,,,,,スタジオソーダ,0
665,3011001166330,新規,0,2024-12-04,2024-12-04,株式会社オフスプリンク,,株式会社,東京都,渋谷区,西原１丁目４３番１号デミシル代々幡５０２,,13,113,1510066,,,,,,,2024-12-04,1,,,,,オフスプリンク,0
667,3011005010798,新規,0,2024-12-04,2024-12-04,一般社団法人ゆいグローバルネット,,その他の設立登記法人,東京都,渋谷区,広尾５丁目４番１２号大成鋼機ビル４階,,13,113,1500012,,,,,,,2024-12-04,1,,,,,ユイグローバルネット,0
672,3011101109791,新規,0,2024-12-04,2024-12-04,佐藤イサクホールディングス株式会社,,株式会社,東京都,新宿区,西新宿３丁目２番８号,,13,104,1600023,,,,,,,2024-12-04,1,,,,,サトウイサクホールディングス,0
674,3011201025971,新規,0,2024-12-04,2024-12-04,株式会社クロノス,,株式会社,東京都,中野区,沼袋２丁目１１番９－１０２号,,13,114,1650025,,,,,,,2024-12-04,1,,,,,クロノス,0
678,3011501031430,新規,0,2024-12-04,2024-12-04,株式会社ｅＵｐ　Ｊａｐａｎ,,株式会社,東京都,荒川区,西日暮里２丁目７－１８セントラルマンション５０５,,13,118,1160013,,,,,,,2024-12-04,1,,,,,イーアップジャパン,0
680,3011601028260,新規,0,2024-12-04,2024-12-04,株式会社Ｒｅｃｒｅ８,,株式会社,東京都,練馬区,北町８丁目４－１７ＰｅａｃｅｍｅｎｔＨｏｕｓｅ１０２号,,13,120,1790081,,,,,,,2024-12-04,1,,,,,リクリエイト,0
681,3011701027872,新規,0,2024-12-04,2024-12-04,株式会社ＡＯＹＡＭＡ,,株式会社,東京都,江戸川区,平井３丁目２３－１１平井ＳＫハイツ４０２,,13,123,1320035,,,,,,,2024-12-04,1,,,,,アオヤマ,0
682,3011801045254,新規,0,2024-12-04,2024-12-04,株式会社Ｌｕｍｉ,,株式会社,東京都,足立区,千住２丁目３番地ＭＡＩＮＳＴＡＧＥ北千住ＩＩ１２０１,00137217,13,121,1200034,,,,,,,2024-12-04,1,,,,,ルミ,0
683,3011803006584,新規,0,2024-12-04,2024-12-04,合同会社大福,,合同会社,東京都,足立区,東和３丁目４番１４－９０２号,,13,121,1200003,,,,,,,2024-12-04,1,,,,,ダイフク,0
686,3012401042542,新規,0,2024-12-04,2024-12-04,株式会社Ｍ．ａｒｋｓ,,株式会社,東京都,府中市,白糸台３丁目３番地の４２,,13,206,1830011,,,,,,,2024-12-04,1,,,,,エムアークス,0
696,3013301053456,新規,0,2024-12-04,2024-12-04,青嵐教育株式会社,,株式会社,東京都,豊島区,東池袋５丁目４９番５号小野ビル３階,,13,116,1700013,,,,,,,2024-12-04,1,,,,,セイランキョウイク,0
704,3020003027382,新規,0,2024-12-04,2024-12-04,合同会社高進,,合同会社,神奈川県,横浜市鶴見区,上の宮２丁目１１番５号,,14,101,2300075,,,,,,,2024-12-04,1,,,,,コウシン,0
715,3021001083905,新規,0,2024-12-04,2024-12-04,赤坂エレク株式会社,,株式会社,神奈川県,平塚市,下島４０１番地の９,,14,203,2540003,,,,,,,2024-12-04,1,,,,,アカサカエレク,0
716,3021001083921,新規,0,2024-12-04,2024-12-04,Ｄａｒｋ　Ｈｏｒｓｅ株式会社,,株式会社,神奈川県,横須賀市,大滝町２丁目１０－１幸久ビル３Ｆ,,14,201,2380008,,,,,,,2024-12-04,1,,,,,ダークホース,0
717,3021003015303,新規,0,2024-12-04,2024-12-04,合同会社すしっちょ,,合同会社,神奈川県,大和市,渋谷６丁目２－７ボンドール１Ｆ店舗４号室,,14,213,2420023,,,,,,,2024-12-04,1,,,,,スシッチョ,0
728,3030001163773,新規,0,2024-12-04,2024-12-04,株式会社Ｏｒａｎｇｅ　Ｓｗａｎ,,株式会社,埼玉県,さいたま市岩槻区,美園東１丁目１番地１・２１０号室,,11,110,3390028,,,,,,,2024-12-04,1,,,,,オレンジスワン,0
729,3030001163798,新規,0,2024-12-04,2024-12-04,株式会社リシプ,,株式会社,埼玉県,ふじみ野市,築地３丁目３－６シティハイツ１０２,,11,245,3560026,,,,,,,2024-12-04,1,,,,,リシプ,0
742,3050003008867,新規,0,2024-12-04,2024-12-04,合同会社Ｋｏｍｉｒｋａ,,合同会社,茨城県,守谷市,けやき台４丁目３１番地１４号,,08,224,3020128,,,,,,,2024-12-04,1,,,,,コミルカ,0
745,3060001037693,新規,0,2024-12-04,2024-12-04,島空設備工業株式会社,,株式会社,栃木県,宇都宮市,駒生町２４１９番地１,,09,201,3200065,,,,,,,2024-12-04,1,,,,,トウアセツビコウギョウ,0
747,3060003005351,新規,0,2024-12-04,2024-12-04,Ｇｒａｚｉａ合同会社,,合同会社,栃木県,宇都宮市,東峰町３１０１番地１１１,,09,201,3210944,,,,,,,2024-12-04,1,,,,,グラッツィア,0
750,3070001042412,新規,0,2024-12-04,2024-12-04,株式会社松根自動車,,株式会社,群馬県,前橋市,大友町３丁目１２番地２,,10,201,3710847,,,,,,,2024-12-04,1,,,,,マツネジドウシャ,0
760,3100001038092,新規,0,2024-12-04,2024-12-04,伊那バスホールディングス株式会社,,株式会社,長野県,伊那市,西町５２０８番地,,20,209,3960026,,,,,,,2024-12-04,1,,,,,イナバスホールディングス,0
771,3120001270668,新規,0,2024-12-04,2024-12-04,雅閣アパレル株式会社,,株式会社,大阪府,大阪市西成区,千本北１丁目２番１７号,,27,122,5570053,,,,,,,2024-12-04,1,,,,,ガカクアパレル,0
772,3120001270718,新規,0,2024-12-04,2024-12-04,Ｔｅａｍ　Ｌｏｃａｌ　Ｃａｐｉｔａｌ株式会社,,株式会社,大阪府,大阪市中央区,北浜２丁目６番１８号,,27,128,5410041,,,,,,,2024-12-04,1,,,,,チームローカルキャピタル,0
773,3120001270734,新規,0,2024-12-04,2024-12-04,万宸株式会社,,株式会社,大阪府,大阪市中央区,島之内２丁目１０番１２号７０３号室,,27,128,5420082,,,,,,,2024-12-04,1,,,,,マンシン,0
774,3120001270759,新規,0,2024-12-04,2024-12-04,希研株式会社,,株式会社,大阪府,大阪市城東区,関目５丁目１９番９号関目花博公館２０５Ａ,,27,118,5360008,,,,,,,2024-12-04,1,,,,,キケン,0
775,3120001270775,新規,0,2024-12-04,2024-12-04,株式会社Ｇｏｏｄｉａｓ,,株式会社,大阪府,大阪市西区,江戸堀１丁目２２番３８号,,27,106,5500002,,,,,,,2024-12-04,1,,,,,グッディアス,0
776,3120001270783,新規,0,2024-12-04,2024-12-04,株式会社ＷＥＬＤＩＡ,,株式会社,大阪府,大阪市淀川区,十三東３丁目４番１０－４１４号,,27,123,5320023,,,,,,,2024-12-04,1,,,,,ウィルディア,0
777,3120001270866,新規,0,2024-12-04,2024-12-04,株式会社ブリスフルバウズ,,株式会社,大阪府,大阪市中央区,糸屋町２丁目１番８号川友ビル２階,,27,128,5400022,,,,,,,2024-12-04,1,,,,,ブリスフルバウズ,0
779,3120003028081,新規,0,2024-12-04,2024-12-04,合同会社梶本加工,,合同会社,大阪府,大阪市生野区,田島４丁目１１番１８号,,27,116,5440011,,,,,,,2024-12-04,1,,,,,カジモトカコウ,0
782,3120101070695,新規,0,2024-12-04,2024-12-04,株式会社山本設備設計,,株式会社,大阪府,貝塚市,久保３６３番地１０,,27,208,5970031,,,,,,,2024-12-04,1,,,,,ヤマモトセツビセッケイ,0
786,3120903005444,新規,0,2024-12-04,2024-12-04,合同会社ＳＡ管理,,合同会社,大阪府,高槻市,登町４１番６号,,27,207,5690046,,,,,,,2024-12-04,1,,,,,エスエーカンリ,0
789,3122003003056,新規,0,2024-12-04,2024-12-04,合同会社ＳＤＲ,,合同会社,大阪府,八尾市,龍華町１丁目４番２－３０２１号,,27,212,5810069,,,,,,,2024-12-04,1,,,,,エスディーアール,0
797,3130005017247,新規,0,2024-12-04,2024-12-04,一般社団法人カームテクノロジー協会,,その他の設立登記法人,京都府,京都市中京区,夷川通柳馬場東入俵屋町２９５番地１,,26,104,6040966,,,,,,,2024-12-04,1,,,,,カームテクノロジーキョウカイ,0
801,3140001136603,新規,0,2024-12-04,2024-12-04,株式会社ＦＯＲＷＡＲＤ,,株式会社,兵庫県,尼崎市,東園田町５丁目１８番７号,,28,202,6610953,,,,,,,2024-12-04,1,,,,,フォワード,0
803,3150001027719,新規,0,2024-12-04,2024-12-04,株式会社ＭＨＹ,,株式会社,奈良県,奈良市,西登美ヶ丘４丁目１番１６号,,29,201,6310006,,,,,,,2024-12-04,1,,,,,エムエイチワイ,0
805,3150003003437,新規,0,2024-12-04,2024-12-04,ライトレイル合同会社,,合同会社,奈良県,大和郡山市,朝日町３－４－７０９,,29,203,6391013,,,,,,,2024-12-04,1,,,,,ライトレイル,0
806,3160001026389,新規,0,2024-12-04,2024-12-04,株式会社Ｆｒｅｅ　ｄｅｓｉｇｎ,,株式会社,滋賀県,湖南市,菩提寺西４丁目８番１７号,,25,211,5203248,,,,,,,2024-12-04,1,,,,,フリーデザイン,0
807,3160003003345,新規,0,2024-12-04,2024-12-04,合同会社けあまね事業所衣川,,合同会社,滋賀県,大津市,衣川２丁目２３番５号,,25,201,5200244,,,,,,,2024-12-04,1,,,,,ケアマネジギョウショキヌガワ,0
820,3180001164393,新規,0,2024-12-04,2024-12-04,株式会社マナ・サポ,,株式会社,愛知県,名古屋市中村区,那古野１丁目３９番３号,00137219,23,105,4500001,,,,,,,2024-12-04,1,,,,,マナサポ,0
821,3180001164443,新規,0,2024-12-04,2024-12-04,株式会社Ｎａｖｉｓ　Ｐｒｏｏｆ,,株式会社,愛知県,名古屋市港区,土古町４丁目１１番地の６,,23,111,4550068,,,,,,,2024-12-04,1,,,,,ナビスプルーフ,0
824,3180003027689,新規,0,2024-12-04,2024-12-04,合同会社Ｔｗｉｎｃｌｅ,,合同会社,愛知県,名古屋市緑区,大清水４丁目８１１番地,,23,114,4580805,,,,,,,2024-12-04,1,,,,,ツインクル,0
826,3180301039287,新規,0,2024-12-04,2024-12-04,株式会社ＧＬＯＷ,,株式会社,愛知県,西尾市,中畑２丁目１１０番地,,23,213,4440304,,,,,,,2024-12-04,1,,,,,グロー,0
835,3200001043207,新規,0,2024-12-04,2024-12-04,株式会社Ｇｏｏｄ　ＨＤ,,株式会社,岐阜県,岐阜市,本町３丁目２０番地１,,21,201,5008034,,,,,,,2024-12-04,1,,,,,グッドホールディングス,0
841,3240001064190,新規,0,2024-12-04,2024-12-04,岩崎農園株式会社,00137215,株式会社,広島県,豊田郡大崎上島町,中野４０９３番地１２,,34,431,7250301,,,,,,,2024-12-04,1,,,,,イワサキノウエン,0
842,3240001064208,新規,0,2024-12-04,2024-12-04,株式会社Ｅｘｅｃｕｔｉｖｅ,,株式会社,広島県,広島市西区,楠木町４丁目３番１号,,34,104,7330002,,,,,,,2024-12-04,1,,,,,エグゼクティブ,0
845,3240003006959,新規,0,2024-12-04,2024-12-04,合同会社怪奇工房,,合同会社,広島県,福山市,瀬戸町長和２３２１番２,,34,207,7210000,,,,,,,2024-12-04,1,,,,,カイキコウボウ,0
856,3290001108216,新規,0,2024-12-04,2024-12-04,株式会社Ｗｉｌｙ’ｓ,,株式会社,福岡県,福岡市中央区,清川３丁目９番１５－１３０４号,,40,133,8100005,,,,,,,2024-12-04,1,,,,,ウィリーズ,0
858,3290801031088,新規,0,2024-12-04,2024-12-04,レジャークリエイト株式会社,,株式会社,福岡県,北九州市戸畑区,一枝２丁目１０番４号,,40,105,8040021,,,,,,,2024-12-04,1,,,,,レジャークリエイト,0
868,3320003004525,新規,0,2024-12-04,2024-12-04,戸田商事合同会社,,合同会社,大分県,中津市,南堀川町４７２番地ナンシーハイツ１番館２０２号,,44,203,8710087,,,,,,,2024-12-04,1,,,,,トダショウジ,0
870,3330001032709,新規,0,2024-12-04,2024-12-04,株式会社叶,,株式会社,熊本県,熊本市南区,城南町鰐瀬６４番地６,,43,104,8614222,,,,,,,2024-12-04,1,,,,,カナル,0
871,3330003010670,新規,0,2024-12-04,2024-12-04,合同会社ＡＧＲＩＳＫＹ,,合同会社,熊本県,阿蘇市,一の宮町中通２０５３番地,,43,214,8692613,,,,,,,2024-12-04,1,,,,,アグリスカイ,0
872,3340001026973,新規,0,2024-12-04,2024-12-04,株式会社Ｍａｒｃｈ,,株式会社,鹿児島県,鹿児島市,新屋敷町３番２５－３０５号,,46,201,8920838,,,,,,,2024-12-04,1,,,,,マーチ,0
873,3350001019308,新規,0,2024-12-04,2024-12-04,株式会社ＳＡＫＵＹＡ,,株式会社,宮崎県,西臼杵郡高千穂町,大字三田井７９７番地,,45,441,8821101,,,,,,,2024-12-04,1,,,,,サクヤ,0
889,3410003004012,新規,0,2024-12-04,2024-12-04,合同会社スローライフ,,合同会社,秋田県,秋田市,広面字樋口１１１番地１ロイヤルハイツ壱番館２０５号,,05,201,0100041,,,,,,,2024-12-04,1,,,,,スローライフ,0
893,3430001093187,新規,0,2024-12-04,2024-12-04,中道建設株式会社,,株式会社,北海道,苫小牧市,字糸井４０１番地の６２,,01,213,0530814,,,,,,,2024-12-04,1,,,,,ナカミチケンセツ,0
894,3430001093204,新規,0,2024-12-04,2024-12-04,株式会社ＳＯＲＡＲＣＨ,,株式会社,北海道,滝川市,黄金町西１丁目１番２６号,,01,225,0730011,,,,,,,2024-12-04,1,,,,,ソラーチ,0
898,3480005007048,新規,0,2024-12-04,2024-12-04,監査法人ＦＰＣ,,その他の設立登記法人,徳島県,徳島市,中洲町２丁目５番地,,36,201,7700856,,,,,,,2024-12-04,1,,,,,エフピーシー,0
905,3700150121654,新規,0,2024-12-04,2023-11-01,ミズベリング旭川,,その他,北海道,上川郡東神楽町,南一条東１丁目３－１２,,01,453,0711502,,,,,,,2023-11-01,1,,,,,ミズベリングアサヒカワ,0
906,3700150128055,新規,0,2024-12-04,2024-12-04,Ｇｌｏｖｅｒｓａｌ，Ｉｎｃ．,,外国会社等,東京都,渋谷区,道玄坂１丁目１０番８号　渋谷道玄坂東急ビル２Ｆ－Ｃ,,13,113,1500043,アメリカ合衆国デラウェア州ニューアーク市バークスデール１１３番地プロフェッショナル・センター,,,,,,2024-12-04,1,,,,,グロバーサルインク,0
915,4010001250449,新規,0,2024-12-04,2024-12-04,株式会社Ｉｎｎｏｖａｔｉｖｅ　Ａｇｅｎｃｙ,,株式会社,東京都,中央区,銀座１丁目２２番１－４０２号,,13,102,1040061,,,,,,,2024-12-04,1,,,,,イノベーティブエージェンシー,0
916,4010002057026,新規,0,2024-12-04,2024-12-04,有限会社梅村商事,,有限会社,東京都,文京区,目白台１丁目１１番１３号,,13,105,1120015,,,,,,,2024-12-04,1,,,,,ウメムラショウジ,0
917,4010005039153,新規,0,2024-12-04,2024-12-04,一般社団法人天命経営学会,,その他の設立登記法人,東京都,中央区,銀座８丁目１７番５号ＴＨＥＨＵＢ銀座ＯＣＴ,,13,102,1040061,,,,,,,2024-12-04,1,,,,,テンメイケイエイガッカイ,0
919,4010101016436,新規,0,2024-12-04,2024-12-04,神平興産株式会社,,株式会社,東京都,八王子市,台町２丁目１４番６号,,13,201,1930931,,,,,,,2024-12-04,1,,,,,カミヒラコウサン,0
925,4010401186425,新規,0,2024-12-04,2024-12-04,株式会社ＨＯＬＹ,,株式会社,東京都,港区,北青山１丁目３－１アールキューブ青山３階,,13,103,1070061,,,,,,,2024-12-04,1,,,,,ホーリー,0
926,4010401186631,新規,0,2024-12-04,2024-12-04,株式会社ディムサムプロジェクト,,株式会社,東京都,港区,白金台３丁目１７番１８号１Ｆ,,13,103,1080071,,,,,,,2024-12-04,1,,,,,ディムサムプロジェクト,0
927,4010401186805,新規,0,2024-12-04,2024-12-04,ＣＩＣ株式会社,,株式会社,東京都,港区,高輪２丁目１６番２号高輪Ｕ－３０１,,13,103,1080074,,,,,,,2024-12-04,1,,,,,シーアイシー,0
928,4010401186813,新規,0,2024-12-04,2024-12-04,株式会社みけねこソフト,,株式会社,東京都,港区,南青山７丁目１２番１２号ムジカーサ南青山３０１,,13,103,1070062,,,,,,,2024-12-04,1,,,,,ミケネコソフト,0
930,4010403033939,新規,0,2024-12-04,2024-12-04,厚木上依知合同会社,,合同会社,東京都,港区,元赤坂１丁目１番８号株式会社赤坂国際会計内,,13,103,1070051,,,,,,,2024-12-04,1,,,,,アツギカミエチ,0
932,4010501053293,新規,0,2024-12-04,2024-12-04,ＳＨＯＫＵＰＡＮ．ＩＮＣ株式会社,,株式会社,東京都,台東区,浅草４丁目４６番４号ペリグリンアパートメント５０２,,13,106,1110032,,,,,,,2024-12-04,1,,,,,ショクパンインク,0
935,4010601066410,新規,0,2024-12-04,2024-12-04,横綱企画株式会社,,株式会社,東京都,墨田区,堤通１丁目１９－８,,13,107,1310034,,,,,,,2024-12-04,1,,,,,ヨコヅナキカク,0
936,4010601066427,新規,0,2024-12-04,2024-12-04,株式会社シンコー建設,,株式会社,東京都,江東区,大島８丁目２０番１６号,,13,108,1360072,,,,,,,2024-12-04,1,,,,,シンコーケンセツ,0
937,4010603011249,新規,0,2024-12-04,2024-12-04,パグナス合同会社,,合同会社,東京都,江東区,木場３丁目１４番２－８０３号,,13,108,1350042,,,,,,,2024-12-04,1,,,,,パグナス,0
938,4010703007493,新規,0,2024-12-04,2024-12-04,合同会社エターナルタイム,,合同会社,東京都,品川区,東大井５丁目２４番１６－５０３号,,13,109,1400011,,,,,,,2024-12-04,1,,,,,エターナルタイム,0
940,4010801035644,新規,0,2024-12-04,2024-12-04,ＡＲＴ　ＩＰ株式会社,,株式会社,東京都,大田区,大森北６丁目３０－１６－６０１,,13,111,1430016,,,,,,,2024-12-04,1,,,,,アートアイピー,0
943,4010901056425,新規,0,2024-12-04,2024-12-04,ＴＤ　Ｊａｐａｎ株式会社,,株式会社,東京都,世田谷区,尾山台３丁目９番１２号オープンレジデンシア尾山台６０１,,13,112,1580086,,,,,,,2024-12-04,1,,,,,ティーディージャパン,0
946,4011001166172,新規,0,2024-12-04,2024-12-04,株式会社ＯＯ,,株式会社,東京都,渋谷区,神宮前４丁目２６番２８号原宿Ｖ２ビル２Ｆ,,13,113,1500001,,,,,,,2024-12-04,1,,,,,オーオー,0
947,4011001166239,新規,0,2024-12-04,2024-12-04,ＲＡＨＡＢ株式会社,,株式会社,東京都,渋谷区,円山町５番５号Ｎａｖｉ渋谷Ｖ３階,,13,113,1500044,,,,,,,2024-12-04,1,,,,,ラハブ,0
948,4011001166296,新規,0,2024-12-04,2024-12-04,株式会社ＬｕｍｉｎｉＳｃａｐｅ,,株式会社,東京都,渋谷区,神宮前６丁目２３番４号桑野ビル２階,,13,113,1500001,,,,,,,2024-12-04,1,,,,,ルミニスケープ,0
950,4011003020484,新規,0,2024-12-04,2024-12-04,合同会社オクターブ,,合同会社,東京都,渋谷区,神南１丁目１１番４号ＦＰＧリンクス神南５階,,13,113,1500041,,,,,,,2024-12-04,1,,,,,オクターブ,0
954,4011101109808,新規,0,2024-12-04,2024-12-04,株式会社ＫＬＣ,,株式会社,東京都,新宿区,西新宿３丁目３番１３号西新宿水間ビル６階,,13,104,1600023,,,,,,,2024-12-04,1,,,,,ケイエルシー,0
955,4011103015252,新規,0,2024-12-04,2024-12-04,合同会社ＢＢミュージックアカデミー,,合同会社,東京都,新宿区,中井１丁目３番４号１Ｆ,,13,104,1610035,,,,,,,2024-12-04,1,,,,,ビービーミュージックアカデミー,0
956,4011201025962,新規,0,2024-12-04,2024-12-04,Ｂ‐ＭＯＯＮ株式会社,,株式会社,東京都,中野区,弥生町２丁目５２番４－３０８号,,13,114,1640013,,,,,,,2024-12-04,1,,,,,ビームーン,0
960,4011503006322,新規,0,2024-12-04,2024-12-04,ｍｋ合同会社,,合同会社,東京都,荒川区,東日暮里５丁目１３番５－２０１号,,13,118,1160014,,,,,,,2024-12-04,1,,,,,エムケイ,0
963,4011701027871,新規,0,2024-12-04,2024-12-04,株式会社ｃａｎｎａ　ｐｅｎｓａｎｔｅ,,株式会社,東京都,江戸川区,松島２丁目８番５号,,13,123,1320031,,,,,,,2024-12-04,1,,,,,カンナペンサンテ,0
966,4011803006575,新規,0,2024-12-04,2024-12-04,合同会社えみ,,合同会社,東京都,足立区,古千谷本町２丁目１０番６号,,13,121,1210832,,,,,,,2024-12-04,1,,,,,エミ,0
972,4013101009574,新規,0,2024-12-04,2024-12-04,あすく不動産管理株式会社,,株式会社,東京都,あきる野市,引田２２５番地丸徳ビル２０２,,13,228,1970834,,,,,,,2024-12-04,1,,,,,アスクフドウサンカンリ,0
979,4020001160424,新規,0,2024-12-04,2024-12-04,株式会社カイコンサルタント,,株式会社,神奈川県,横浜市磯子区,広地町１１番７号,,14,107,2350013,,,,,,,2024-12-04,1,,,,,カイコンサルタント,0
980,4020001160507,新規,0,2024-12-04,2024-12-04,株式会社フリークスコンサルティング,,株式会社,神奈川県,川崎市多摩区,枡形５丁目２番１０号,,14,135,2140032,,,,,,,2024-12-04,1,,,,,フリークスコンサルティング,0
989,4020003027381,新規,0,2024-12-04,2024-12-04,合同会社クラウドコールズ,,合同会社,神奈川県,横浜市港北区,菊名３丁目１－１３,,14,109,2220011,,,,,,,2024-12-04,1,,,,,クラウドコールズ,0
994,4021001083904,新規,0,2024-12-04,2024-12-04,株式会社イタリア館,,株式会社,神奈川県,平塚市,八重咲町２４番２８号ドエル杉山１Ｆ,,14,203,2540811,,,,,,,2024-12-04,1,,,,,イタリアカン,0
995,4021001083912,新規,0,2024-12-04,2024-12-04,株式会社ＲＥＡＲＩＺＥ,,株式会社,神奈川県,茅ヶ崎市,堤８番地１０,,14,207,2530006,,,,,,,2024-12-04,1,,,,,リアライズ,0
997,4030001163681,新規,0,2024-12-04,2024-12-04,株式会社ＩＮＦＩＮＩＴＥ,,株式会社,埼玉県,さいたま市大宮区,北袋町１丁目６０１番地１Ｃ３３６,,11,103,3300835,,,,,,,2024-12-04,1,,,,,インフィニティー,0
998,4030001163731,新規,0,2024-12-04,2024-12-04,Ａ‐ｓａｉｚｕ株式会社,,株式会社,埼玉県,和光市,白子３丁目１５番１５－５０７号,,11,229,3510101,,,,,,,2024-12-04,1,,,,,エーサイズ,0
999,4030001163748,新規,0,2024-12-04,2024-12-04,株式会社ＤＩＫＯ,,株式会社,埼玉県,川口市,柳崎２丁目２１番２０号,,11,203,3330861,,,,,,,2024-12-04,1,,,,,ディーコ,0
1000,4030001163764,新規,0,2024-12-04,2024-12-04,株式会社ジーワーク,,株式会社,埼玉県,入間郡三芳町,大字藤久保６１２５番地,,11,324,3540041,,,,,,,2024-12-04,1,,,,,ジーワーク,0
1001,4030001163797,新規,0,2024-12-04,2024-12-04,Ｙみらい農産株式会社,,株式会社,埼玉県,南埼玉郡宮代町,字東１０７番地,,11,442,3450814,,,,,,,2024-12-04,1,,,,,ワイミライノウサン,0
1002,4030001163814,新規,0,2024-12-04,2024-12-04,株式会社エヌティソフト,,株式会社,埼玉県,草加市,松原２丁目３番１－１００４号,,11,221,3400041,,,,,,,2024-12-04,1,,,,,エヌティソフト,0
1010,4030003025632,新規,0,2024-12-04,2024-12-04,ＧＡＴＥＷＡＹ合同会社,,合同会社,埼玉県,草加市,弁天２丁目２７－４５スカイハイツ３Ｄ号室,,11,221,3400004,,,,,,,2024-12-04,1,,,,,ゲートウェイ,0
1014,4040001136389,新規,0,2024-12-04,2024-12-04,日本エレベーター・エンジニアリング株式会社,,株式会社,千葉県,八街市,八街字元駒場は９６番地２５,,12,230,2891100,,,,,,,2024-12-04,1,,,,,ニホンエレベーターエンジニアリング,0
1015,4040001136397,新規,0,2024-12-04,2024-12-04,株式会社アメリカンエンパイヤパートナーズ,,株式会社,千葉県,千葉市緑区,椎名崎町１８９番地１０メヌエット８１－９０３号,,12,105,2660016,,,,,,,2024-12-04,1,,,,,アメリカンエンパイヤパートナーズ,0
1022,4050001055828,新規,0,2024-12-04,2024-12-04,ストリームテクノロジ株式会社,,株式会社,茨城県,つくば市,松代３丁目２６番地１,,08,220,3050035,,,,,,,2024-12-04,1,,,,,ストリームテクノロジ,0
1026,4060005010274,新規,0,2024-12-04,2024-12-04,弁護士法人小野真一法律事務所,,その他の設立登記法人,栃木県,宇都宮市,小幡１丁目１番２１号オノセビル５階,,09,201,3200036,,,,,,,2024-12-04,1,,,,,オノシンイチホウリツジムショ,0
1030,4070005010331,新規,0,2024-12-04,2024-12-04,一般社団法人サイクリング・フェスティバルＡＳＡＭＡ,,その他の設立登記法人,群馬県,吾妻郡長野原町,大字北軽井沢１９８８番地,,10,424,3771412,,,,,,,2024-12-04,1,,,,,サイクリングフェスティバルアサマ,0
1034,4080403005155,新規,0,2024-12-04,2024-12-04,合同会社Ｗｉｓｔｅｒｉａ,,合同会社,静岡県,浜松市中央区,佐鳴台４丁目１２‐１６セントポーリア佐鳴台５０１,,22,138,4328021,,,,,,,2024-12-04,1,,,,,ウィステリア,0
1036,4100003007895,新規,0,2024-12-04,2024-12-04,合同会社ＵＧＡＴＴＡ,,合同会社,長野県,松本市,井川城３丁目４番３４号,,20,202,3900831,,,,,,,2024-12-04,1,,,,,ウガッタ,0
1043,4120001270758,新規,0,2024-12-04,2024-12-04,萱薇株式会社,,株式会社,大阪府,大阪市中央区,松屋町９番２０号ローレルステート松屋町７０８Ａ,,27,128,5420067,,,,,,,2024-12-04,1,,,,,カンビ,0
1044,4120001270782,新規,0,2024-12-04,2024-12-04,株式会社ワンプロミネンス,,株式会社,大阪府,大阪市北区,大淀中２丁目６番１９号グリーンプラザ新梅田９０１号,,27,127,5310076,,,,,,,2024-12-04,1,,,,,ワンプロミネンス,0
1045,4120001270790,新規,0,2024-12-04,2024-12-04,株式会社Ｆ２ステージ,,株式会社,大阪府,寝屋川市,春日町９番２５号,,27,215,5720063,,,,,,,2024-12-04,1,,,,,エフツーステージ,0
1046,4120001270799,新規,0,2024-12-04,2024-12-04,株式会社ＣＯＮＮＥＣＴＥＲ,,株式会社,大阪府,大阪市東淀川区,東中島２丁目８番８号ワークステーション新大阪２０３号,,27,114,5330033,,,,,,,2024-12-04,1,,,,,コネクティ,0
1047,4120001270808,新規,0,2024-12-04,2024-12-04,華勝日本株式会社,,株式会社,大阪府,大阪市平野区,瓜破２丁目１－５０アビタシオン２３－３０５室,,27,126,5470024,,,,,,,2024-12-04,1,,,,,カショウニッポン,0
1048,4120001270816,新規,0,2024-12-04,2024-12-04,株式会社ＷＤＣ,,株式会社,大阪府,大阪市中央区,南船場３丁目２番２２号おおきに南船場ビル２０５,,27,128,5420081,,,,,,,2024-12-04,1,,,,,ダブリューディーシー,0
1049,4120001270881,新規,0,2024-12-04,2024-12-04,株式会社Ｒｅｌｏｑ,,株式会社,大阪府,大阪市北区,大深町３番１号グランフロント大阪ナレッジキャピタル８階,,27,127,5300011,,,,,,,2024-12-04,1,,,,,リロック,0
1050,4120003028089,新規,0,2024-12-04,2024-12-04,合同会社イレブン,,合同会社,大阪府,大阪市中央区,高麗橋４丁目５番８－２０１号グローネット淀屋橋,,27,128,5410043,,,,,,,2024-12-04,1,,,,,イレブン,0
1051,4120003028097,新規,0,2024-12-04,2024-12-04,ＴＭ合同会社,,合同会社,大阪府,枚方市,東香里元町１４番２５号１０３号室,,27,210,5730076,,,,,,,2024-12-04,1,,,,,ティーエム,0
1055,4120103006176,新規,0,2024-12-04,2024-12-04,合同会社わんちーむ,,合同会社,大阪府,貝塚市,名越７８１番地８,,27,208,5970042,,,,,,,2024-12-04,1,,,,,ワンチーム,0
1057,4120901050128,新規,0,2024-12-04,2024-12-04,株式会社ハッピーライフ,,株式会社,大阪府,摂津市,一津屋２丁目２８番１７号,,27,224,5660043,,,,,,,2024-12-04,1,,,,,ハッピーライフ,0
1058,4122001038706,新規,0,2024-12-04,2024-12-04,ハッピーレンタカー株式会社,,株式会社,大阪府,八尾市,小畑町４丁目１１２番１－１０４号,,27,212,5810835,,,,,,,2024-12-04,1,,,,,ハッピーレンタカー,0
1061,4130001078523,新規,0,2024-12-04,2024-12-04,ＳＴＡＲＳ株式会社,,株式会社,京都府,京都市伏見区,桃山水野左近東町８１番地９,,26,109,6120055,,,,,,,2024-12-04,1,,,,,スターズ,0
1062,4130003010046,新規,0,2024-12-04,2024-12-04,Ｓｔｅｃｈｎｉｃｓ合同会社,,合同会社,京都府,相楽郡精華町,大字南稲八妻小字門口３２番地,,26,366,6190243,,,,,,,2024-12-04,1,,,,,エステクニクス,0
1068,4140003021372,新規,0,2024-12-04,2024-12-04,合同会社Ｍ＆Ａセンター,,合同会社,兵庫県,尼崎市,上ノ島町２丁目２８－１０－３０２,,28,202,6610014,,,,,,,2024-12-04,1,,,,,モソロ,0
1075,4150005009646,新規,0,2024-12-04,2024-12-04,医療法人プライマリ,,その他の設立登記法人,奈良県,奈良市,紀寺町４１６番地１,,29,201,6308306,,,,,,,2024-12-04,1,,,,,プライマリ,0
1086,4180001164376,新規,0,2024-12-04,2024-12-04,株式会社Ａｂｏｖｅ　Ｉｄｅａ,,株式会社,愛知県,名古屋市昭和区,鶴舞１丁目２番３２号,,23,107,4660064,,,,,,,2024-12-04,1,,,,,アバブイデア,0
1093,4180301039286,新規,0,2024-12-04,2024-12-04,株式会社カノア,,株式会社,愛知県,豊田市,浄水町南平１５０番地５７,,23,211,4700343,,,,,,,2024-12-04,1,,,,,カノア,0
1094,4180301039294,新規,0,2024-12-04,2024-12-04,ＩＳＭ株式会社,,株式会社,愛知県,岡崎市,丸山町字上地畑６２番地１,,23,202,4440006,,,,,,,2024-12-04,1,,,,,イズム,0
1095,4180303006359,新規,0,2024-12-04,2024-12-04,福玉行合同会社,,合同会社,愛知県,豊田市,明和町２丁目６２番地７,,23,211,4710825,,,,,,,2024-12-04,1,,,,,フクギョクゴウ,0
1096,4190001031848,新規,0,2024-12-04,2024-12-04,株式会社ヨシカワメディカル,,株式会社,三重県,津市,大谷町１３２番地３３,,24,201,5140007,,,,,,,2024-12-04,1,,,,,ヨシカワメディカル,0
1098,4190003004868,新規,0,2024-12-04,2024-12-04,合同会社ＭＣサポートセンター,,合同会社,三重県,松阪市,虹が丘町１７番地８,,24,204,5150042,,,,,,,2024-12-04,1,,,,,エムシーサポートセンター,0
1102,4210001019989,新規,0,2024-12-04,2024-12-04,株式会社コムリノ,,株式会社,福井県,大野市,下麻生嶋第４８号３３番地,,18,205,9120815,,,,,,,2024-12-04,1,,,,,コムリノ,0
1107,4240001064157,新規,0,2024-12-04,2024-12-04,水田工業株式会社,,株式会社,広島県,呉市,瀬戸見町１４‐１９,,34,202,7370834,,,,,,,2024-12-04,1,,,,,ミズタコウギョウ,0
1108,4240001064207,新規,0,2024-12-04,2024-12-04,株式会社ＡＳＡＲＩ,,株式会社,広島県,広島市西区,南観音１丁目３番３９号,,34,104,7330035,,,,,,,2024-12-04,1,,,,,アサリ,0
1109,4240003006941,新規,0,2024-12-04,2024-12-04,合同会社ミオト,,合同会社,広島県,東広島市,安芸津町木谷４３６‐３,,34,212,7392401,,,,,,,2024-12-04,1,,,,,ミオト,0
1110,4240003006966,新規,0,2024-12-04,2024-12-04,Ｓｔｏｃｋ合同会社,,合同会社,広島県,広島市安佐南区,伴南５丁目２０番２３号,,34,105,7313168,,,,,,,2024-12-04,1,,,,,ストック,0
1112,4260003004992,新規,0,2024-12-04,2024-12-04,ネクストステップパートナーズ合同会社,,合同会社,岡山県,倉敷市,阿知１丁目７番２号くらしきシティプラザ西ビル８Ｆ,,33,202,7100055,,,,,,,2024-12-04,1,,,,,ネクストステップパートナーズ,0
1116,4290001108215,新規,0,2024-12-04,2024-12-04,株式会社ＣＲＡＳ,,株式会社,福岡県,福岡市中央区,天神１丁目４－１西日本新聞会館１６Ｆ,,40,133,8100001,,,,,,,2024-12-04,1,,,,,クラース,0
1119,4290003016143,新規,0,2024-12-04,2024-12-04,合同会社とーちゃん,,合同会社,福岡県,福岡市博多区,吉塚４丁目１番５号コーポかわらだ１０７号,,40,132,8120041,,,,,,,2024-12-04,1,,,,,,0
1121,4290801031095,新規,0,2024-12-04,2024-12-04,株式会社サンナイトプランニング,,株式会社,福岡県,北九州市小倉北区,片野新町２丁目７番２０号,,40,106,8020062,,,,,,,2024-12-04,1,,,,,サンナイトプランニング,0
1127,4310001019351,新規,0,2024-12-04,2024-12-04,株式会社進和工機,,株式会社,長崎県,諫早市,飯盛町中山５０１－２,,42,204,8541103,,,,,,,2024-12-04,1,,,,,シンワコウキ,0
1135,4340001026972,新規,0,2024-12-04,2024-12-04,株式会社ヴィーナスターオーガニクス,,株式会社,鹿児島県,霧島市,国分野口西１７番３８号,,46,218,8994343,,,,,,,2024-12-04,1,,,,,ヴィーナスターオーガニクス,0
1136,4340003004679,新規,0,2024-12-04,2024-12-04,合同会社南州企画,,合同会社,鹿児島県,鹿児島市,西坂元町１９番８号,,46,201,8920863,,,,,,,2024-12-04,1,,,,,ナンシュウキカク,0
1139,4360003014503,新規,0,2024-12-04,2024-12-04,合同会社笑幸,,合同会社,沖縄県,那覇市,若狭３丁目２番２６号,,47,201,9000031,,,,,,,2024-12-04,1,,,,,エコウ,0
1141,4380001034947,新規,0,2024-12-04,2024-12-04,株式会社くろべこ,,株式会社,福島県,南相馬市,原町区深野字宮平７２番地,,07,212,9750071,,,,,,,2024-12-04,1,,,,,クロベコ,0
1144,4390001017810,新規,0,2024-12-04,2024-12-04,ｗｅｓｔ９株式会社,,株式会社,山形県,村山市,大字富並４２２０番地１５,,06,208,9950208,,,,,,,2024-12-04,1,,,,,ウェストナイン,0
1157,4700150099114,新規,0,2024-12-04,2020-05-25,鹿児島県自治体情報処理連絡協議会,,その他,鹿児島県,鹿児島市,鴨池新町７番４号,,46,201,8900064,,,,,,,2020-05-25,1,,,,,カゴシマケンジチタイジヨウホウシヨリレンラクキヨウギカイ,0
1159,4700150128054,新規,0,2024-12-04,2024-12-04,ｓｈｅｎｚｈｅｎ　ｗｅｉｈｕｉ　ｔｅｃｈｎｏｌｏｇｙ　Ｃｏ．Ｌｔｄ,,外国会社等,,,,,,,,ｌｏｎｇｇａｎｇｑｕ　ｂａｎｔｉａｎｊｉｅｄａｏｗｕｈｅｓｈｅｑｕ　ｗｕｈｅｄａｄａｏｎａｎ４９ｈａｏ，ｓｈｉｈｕａｌｉｘｉｎｇｆｅｎｇｄａｅｒｈａｏｃｈａｎｇｆａｎｇ３０１－６，ｓｈｅｎｚｈｅｎｓｈｉ，ｇｕａｎｇｄｏｎｇｓｈｅｎｇ,,,,,,2024-12-04,1,,,,,シェンジェンシーウエイホゥイコーァジーヨウシエンゴーンスー,0
1165,5010001250381,新規,0,2024-12-04,2024-12-04,株式会社タクミホールディングス,,株式会社,東京都,千代田区,丸の内１丁目９番２号,,13,101,1000005,,,,,,,2024-12-04,1,,,,,タクミホールディングス,0
1166,5010002035880,新規,0,2024-12-04,2024-12-04,有限会社板橋開発,,有限会社,東京都,中央区,東日本橋２丁目１番１１号,,13,102,1030004,,,,,,,2024-12-04,1,,,,,,0
1168,5010003045607,新規,0,2024-12-04,2024-12-04,合同会社ｂｅｙｏｎｄ５号,,合同会社,東京都,千代田区,霞が関３丁目２番５号,,13,101,1000013,,,,,,,2024-12-04,1,,,,,ビヨンドゴゴウ,0
1169,5010003045689,新規,0,2024-12-04,2024-12-04,ジルコンスリー合同会社,,合同会社,東京都,中央区,日本橋１丁目４番１号日本橋一丁目ビルディング,,13,102,1030027,,,,,,,2024-12-04,1,,,,,ジルコンスリー,0
1170,5010003045706,新規,0,2024-12-04,2024-12-04,合同会社シルクル,,合同会社,東京都,中央区,銀座１丁目１２－４Ｎ＆ＥＢＬＤ．７階,,13,102,1040061,,,,,,,2024-12-04,1,,,,,シルクル,0
1172,5010005039227,新規,0,2024-12-04,2024-12-04,一般社団法人萌黄,,その他の設立登記法人,東京都,千代田区,霞が関３丁目２番５号,,13,101,1000013,,,,,,,2024-12-04,1,,,,,モエギ,0
1173,5010101016419,新規,0,2024-12-04,2024-12-04,ＫＯＴＡ株式会社,,株式会社,東京都,八王子市,寺町４３－９,,13,201,1920073,,,,,,,2024-12-04,1,,,,,コタ,0
1174,5010401186804,新規,0,2024-12-04,2024-12-04,株式会社ＥＤＥＮ,,株式会社,東京都,港区,南青山５丁目１７番２号,,13,103,1070062,,,,,,,2024-12-04,1,,,,,エデン,0
1176,5010403033938,新規,0,2024-12-04,2024-12-04,合同会社ＶＡＩＬＬＡＮＴ,,合同会社,東京都,港区,北青山１丁目３番１号アールキューブ青山３階,,13,103,1070061,,,,,,,2024-12-04,1,,,,,ヴァイヨン,0
1185,5010601066418,新規,0,2024-12-04,2024-12-04,遠東黙達株式会社,,株式会社,東京都,江東区,亀戸３丁目６２番１０号３０２号室,,13,108,1360071,,,,,,,2024-12-04,1,,,,,エントウモクダツ,0
1191,5010603011248,新規,0,2024-12-04,2024-12-04,合同会社ＭＡＨＡＬＯ,,合同会社,東京都,墨田区,吾妻橋３丁目１１番１５号,,13,107,1300001,,,,,,,2024-12-04,1,,,,,マハロ,0
1193,5010701046939,新規,0,2024-12-04,2024-12-04,株式会社アソネコンサルティング,,株式会社,東京都,品川区,西五反田２丁目１４－１３ニックハイム五反田２Ｆ２７,,13,109,1410031,,,,,,,2024-12-04,1,,,,,アソネコンサルティング,0
1195,5010801035643,新規,0,2024-12-04,2024-12-04,株式会社Ｂｕｄｄｙ　Ｇｒｏｕｐ,,株式会社,東京都,大田区,蒲田５丁目８番４号楠見ビル１Ｆ,,13,111,1440052,,,,,,,2024-12-04,1,,,,,バディグループ,0
1201,5011001166130,新規,0,2024-12-04,2024-12-04,株式会社ＬｕｘＡｔｈ,,株式会社,東京都,渋谷区,円山町５番２号ＶＯＲＴ渋谷道玄坂ＩＩ１１Ｆ,00137221,13,113,1500044,,,,,,,2024-12-04,1,,,,,ラグザス,0
1204,5011003020509,新規,0,2024-12-04,2024-12-04,合同会社ザ・ニンジャ,,合同会社,東京都,渋谷区,恵比寿南３丁目１番２４－６０１号,,13,113,1500022,,,,,,,2024-12-04,1,,,,,ザニンジャ,0
1205,5011003020566,新規,0,2024-12-04,2024-12-04,ＴＨ合同会社,,合同会社,東京都,渋谷区,神宮前６丁目２３番４号桑野ビル２階,,13,113,1500001,,,,,,,2024-12-04,1,,,,,ティエイチ,0
1215,5011101109798,新規,0,2024-12-04,2024-12-04,ＤＡＤＡ株式会社,,株式会社,東京都,新宿区,西新宿３丁目３番１３号西新宿水間ビル２階,,13,104,1600023,,,,,,,2024-12-04,1,,,,,ダダ,0
1216,5011101109807,新規,0,2024-12-04,2024-12-04,株式会社ＡＣＡＤＥＬＩ,,株式会社,東京都,新宿区,四谷４丁目１８－６６アトリエ三つ葉Ｄ号室,,13,104,1600004,,,,,,,2024-12-04,1,,,,,アカデリ,0
1217,5011101109815,新規,0,2024-12-04,2024-12-04,株式会社ＨＭＤ,,株式会社,東京都,新宿区,西新宿６丁目５番１号新宿アイランドタワー２階,,13,104,1600023,,,,,,,2024-12-04,1,,,,,エイチエムディー,0
1219,5011103015251,新規,0,2024-12-04,2024-12-04,合同会社キャリマニア,,合同会社,東京都,新宿区,北新宿４丁目１１番３－４０２号,,13,104,1690074,,,,,,,2024-12-04,1,,,,,キャリマニア,0
1222,5011403004565,新規,0,2024-12-04,2024-12-04,Ｄｒｅａｍ　ｗｉｎｇｓ　８３８６合同会社,,合同会社,東京都,板橋区,常盤台４丁目２１番６号アツザワビル１Ｆ,,13,119,1740071,,,,,,,2024-12-04,1,,,,,ドリームウイングスハチサンハチロク,0
1227,5011501031429,新規,0,2024-12-04,2024-12-04,佳盛立派株式会社,,株式会社,東京都,荒川区,町屋３丁目２４番２号面川ビル３０５号室,,13,118,1160001,,,,,,,2024-12-04,1,,,,,カセイリッパ,0
1230,5011503006321,新規,0,2024-12-04,2024-12-04,合同会社ハスベトリンク,,合同会社,東京都,北区,滝野川７丁目５０番１５号,,13,117,1140023,,,,,,,2024-12-04,1,,,,,ハスベトリンク,0
1235,5011801045260,新規,0,2024-12-04,2024-12-04,ａｒａホールディングス株式会社,,株式会社,東京都,葛飾区,新小岩２丁目８番５号,,13,122,1240024,,,,,,,2024-12-04,1,,,,,エーアールエーホールディングス,0
1240,5012401042532,新規,0,2024-12-04,2024-12-04,株式会社アカウンティング・アトリエ,,株式会社,東京都,府中市,宮西町２丁目８番地の２松原ビル,,13,206,1830022,,,,,,,2024-12-04,1,,,,,アカウンティングアトリエ,0
1243,5012405005064,新規,0,2024-12-04,2024-12-04,一般社団法人ゴールデン・シルバー,,その他の設立登記法人,東京都,三鷹市,井の頭２丁目３３番２６号,,13,204,1810001,,,,,,,2024-12-04,1,,,,,ゴールデンシルバー,0
1257,5020001160456,新規,0,2024-12-04,2024-12-04,株式会社高南,,株式会社,神奈川県,川崎市宮前区,平６丁目４番３０－１号,,14,136,2160022,,,,,,,2024-12-04,1,,,,,コウナン,0
1270,5021005013237,新規,0,2024-12-04,2024-12-04,一般社団法人外国人材サポートセンター,,その他の設立登記法人,神奈川県,足柄下郡湯河原町,門川４９７番地５,,14,384,2590302,,,,,,,2024-12-04,1,,,,,ガイコクジンザイサポートセンター,0
1280,5030001163739,新規,0,2024-12-04,2024-12-04,株式会社ワイディーケー,,株式会社,埼玉県,川口市,桜町１丁目１４番１１号オカダヤビル２階,,11,203,3340001,,,,,,,2024-12-04,1,,,,,ワイディーケー,0
1281,5030001163796,新規,0,2024-12-04,2024-12-04,株式会社ＩＭＰＥＲＩＡＬ　ＤＥＳＩＧＮ,,株式会社,埼玉県,新座市,野火止５丁目１５番３１号,,11,230,3520011,,,,,,,2024-12-04,1,,,,,インペリアルデザイン,0
1287,5030003025573,新規,0,2024-12-04,2024-12-04,彩春広告合同会社,,合同会社,埼玉県,春日部市,中央１丁目８－１５春日部セントラルＣ－４９,,11,214,3440067,,,,,,,2024-12-04,1,,,,,サイシュンコウコク,0
1288,5030003025581,新規,0,2024-12-04,2024-12-04,有成商事合同会社,,合同会社,埼玉県,八潮市,緑町１丁目３６番地３２,,11,234,3400808,,,,,,,2024-12-04,1,,,,,アリナリショウジ,0
1289,5030003025623,新規,0,2024-12-04,2024-12-04,合同会社ＤＲＥＡＭ,,合同会社,埼玉県,さいたま市浦和区,北浦和１丁目１－７Ａビル４Ｆ,,11,107,3300074,,,,,,,2024-12-04,1,,,,,ドリーム,0
1290,5030003025631,新規,0,2024-12-04,2024-12-04,ＳＢＫ合同会社,,合同会社,埼玉県,さいたま市緑区,原山２丁目１－２０－１,,11,109,3360931,,,,,,,2024-12-04,1,,,,,エスビーケー,0
1298,5040001136405,新規,0,2024-12-04,2024-12-04,株式会社ＯＬＤＳＡＮ,,株式会社,千葉県,松戸市,新作６１０番地の１,,12,207,2710052,,,,,,,2024-12-04,1,,,,,オールドサン,0
1299,5040001136413,新規,0,2024-12-04,2024-12-04,ＴＡＯ株式会社,,株式会社,千葉県,香取市,小見川６７９番地３－２階,,12,236,2890313,,,,,,,2024-12-04,1,,,,,タオ,0
1300,5040003026298,新規,0,2024-12-04,2024-12-04,合同会社幸楽農園,,合同会社,千葉県,市原市,西国吉１６４３番地４１,,12,219,2900231,,,,,,,2024-12-04,1,,,,,コウラクノウエン,0
1302,5050001055827,新規,0,2024-12-04,2024-12-04,株式会社三澤建興,,株式会社,茨城県,結城市,大字小田林１５３６番地,,08,207,3070007,,,,,,,2024-12-04,1,,,,,ミサワケンコウ,0
1303,5050001055835,新規,0,2024-12-04,2024-12-04,株式会社本田,,株式会社,茨城県,東茨城郡茨城町,大字常井１１６２－３,,08,302,3113112,,,,,,,2024-12-04,1,,,,,ホンダ,0
1304,5050003008849,新規,0,2024-12-04,2024-12-04,合同会社ソフト,,合同会社,茨城県,牛久市,さくら台２丁目５番地４５,,08,219,3001217,,,,,,,2024-12-04,1,,,,,ソフト,0
1309,5060005010273,新規,0,2024-12-04,2024-12-04,一般社団法人プラスク,,その他の設立登記法人,栃木県,那須塩原市,黒磯幸町５番６号,,09,213,3250057,,,,,,,2024-12-04,1,,,,,プラスク,0
1312,5070001042427,新規,0,2024-12-04,2024-12-04,株式会社ＢＯＵ,,株式会社,群馬県,前橋市,南町２丁目４７番地１ＳＯＬＡＮＡＩＩ１階Ｃ号室,00137236,10,201,3710805,,,,,,,2024-12-04,1,,,,,ボウ,0
1313,5070003005687,新規,0,2024-12-04,2024-12-04,合同会社大黒,,合同会社,群馬県,高崎市,下小鳥町４６０番地３,,10,202,3700074,,,,,,,2024-12-04,1,,,,,ダイコク,0
1316,5080003003343,新規,0,2024-12-04,2024-12-04,合同会社エシフレ,,合同会社,静岡県,静岡市葵区,千代田７丁目２番４０号,,22,101,4200803,,,,,,,2024-12-04,1,,,,,エシフレ,0
1317,5090001019035,新規,0,2024-12-04,2024-12-04,株式会社ＯＧＩオートグラス,,株式会社,山梨県,甲府市,上曽根町１７４７番地１,,19,201,4001501,,,,,,,2024-12-04,1,,,,,オギオートグラス,0
1337,5120001270385,新規,0,2024-12-04,2024-12-04,潮信実業株式会社,,株式会社,大阪府,大阪市住之江区,御崎１丁目７番１６号御崎ハイツ４０２号室,,27,125,5590013,,,,,,,2024-12-04,1,,,,,チョウシンジツギョウ,0
1338,5120001270682,新規,0,2024-12-04,2024-12-04,ｒｅｎｏｔｔｙ．４ｓ株式会社,,株式会社,大阪府,大阪市北区,梅田１丁目２番２号大阪駅前第２ビル１２－１２,,27,127,5300001,,,,,,,2024-12-04,1,,,,,リノッティフォーエス,0
1339,5120001270732,新規,0,2024-12-04,2024-12-04,田見株式会社,,株式会社,大阪府,大阪市生野区,巽北１丁目７番３号３０５,00137234,27,116,5440004,,,,,,,2024-12-04,1,,,,,タミ,0
1340,5120001270781,新規,0,2024-12-04,2024-12-04,株式会社ＨＡＰＹ,,株式会社,大阪府,大阪市北区,菅栄町１３番９号アーカスシティ天六１０２,,27,127,5300031,,,,,,,2024-12-04,1,,,,,ハーピ,0
1341,5120001270798,新規,0,2024-12-04,2024-12-04,株式会社ＹＵＲＵ,,株式会社,大阪府,大阪市北区,梅田１丁目２番２号大阪駅前第２ビル１２－１２,,27,127,5300001,,,,,,,2024-12-04,1,,,,,ユル,0
1342,5120001270807,新規,0,2024-12-04,2024-12-04,阡又国際商貿株式会社,,株式会社,大阪府,大阪市西成区,鶴見橋１丁目１０番１４号１０５室,,27,122,5570031,,,,,,,2024-12-04,1,,,,,センウコクサイショウボウ,0
1346,5120003028088,新規,0,2024-12-04,2024-12-04,合同会社Ｋｅｌｌｙ　Ｄｅｓｉｇｎ,,合同会社,大阪府,大阪市北区,梅田１丁目２－２大阪駅前第２ビル１２－１２,,27,127,5300001,,,,,,,2024-12-04,1,,,,,ケリーデザイン,0
1347,5120901050119,新規,0,2024-12-04,2024-12-04,株式会社ＭＡＲＵＳＹＯ,,株式会社,大阪府,豊中市,利倉２丁目７番１０号,,27,203,5610845,,,,,,,2024-12-04,1,,,,,マルショー,0
1352,5130001078530,新規,0,2024-12-04,2024-12-04,株式会社まえだ内装,,株式会社,京都府,京田辺市,松井古松井５１番地１,,26,211,6100342,,,,,,,2024-12-04,1,,,,,マエダナイソウ,0
1358,5140005027292,新規,0,2024-12-04,2024-12-04,一般社団法人兵庫県ドラゴンボート協会,,その他の設立登記法人,兵庫県,赤穂市,加里屋３３番地５,,28,212,6780239,,,,,,,2024-12-04,1,,,,,ヒョウゴケンドラゴンボートキョウカイ,0
1361,5150003003435,新規,0,2024-12-04,2024-12-04,合同会社ｈａｃｏ．,,合同会社,奈良県,葛城市,北花内５１８番地１３,,29,211,6392113,,,,,,,2024-12-04,1,,,,,ハコ,0
1368,5180001164400,新規,0,2024-12-04,2024-12-04,株式会社ＡＳＫ,,株式会社,愛知県,名古屋市中村区,名駅３丁目２２番４号,,23,105,4500002,,,,,,,2024-12-04,1,,,,,エーエスケー,0
1369,5180001164409,新規,0,2024-12-04,2024-12-04,株式会社Ａｉｒ,,株式会社,愛知県,名古屋市名東区,名東本町１７０番地,,23,115,4650088,,,,,,,2024-12-04,1,,,,,エアー,0
1370,5180001164458,新規,0,2024-12-04,2024-12-04,株式会社ロジテクノ,,株式会社,愛知県,稲沢市,一色西町９９番地,,23,220,4928374,,,,,,,2024-12-04,1,,,,,ロジテクノ,0
1375,5180003027695,新規,0,2024-12-04,2024-12-04,合同会社ＫＡＩＫＯのおへや,,合同会社,愛知県,清須市,上条２丁目６番地８シティハイツ上条１０１,,23,233,4520944,,,,,,,2024-12-04,1,,,,,カイコノオヘヤ,0
1377,5180301039285,新規,0,2024-12-04,2024-12-04,株式会社Ｌｕｓｈｅ,,株式会社,愛知県,蒲郡市,三谷町東４丁目８番地２,,23,214,4430021,,,,,,,2024-12-04,1,,,,,ルーシェ,0
1378,5180301039293,新規,0,2024-12-04,2024-12-04,株式会社ＡＭＵ,,株式会社,愛知県,安城市,住吉町５丁目２７番地４,,23,212,4460072,,,,,,,2024-12-04,1,,,,,アム,0
1381,5180303006358,新規,0,2024-12-04,2024-12-04,合同会社大嶋モーターサイクル,,合同会社,愛知県,額田郡幸田町,大字菱池字錦田２０番地,,23,501,4440113,,,,,,,2024-12-04,1,,,,,オオシマモーターサイクル,0
1382,5190001031847,新規,0,2024-12-04,2024-12-04,株式会社中勢電設,,株式会社,三重県,伊勢市,御薗町長屋２８６９番地６,,24,203,5160804,,,,,,,2024-12-04,1,,,,,チュウセイデンセツ,0
1384,5190003004867,新規,0,2024-12-04,2024-12-04,合同会社ＴＳＣ,,合同会社,三重県,津市,高茶屋４丁目３６‐３１,,24,201,5140819,,,,,,,2024-12-04,1,,,,,ティーエスシー,0
1394,5210001019988,新規,0,2024-12-04,2024-12-04,株式会社ＯＳ　ＧＲＯＵＰ,,株式会社,福井県,福井市,順化１丁目７番６号４７１１ビル１Ｆ,,18,201,9100023,,,,,,,2024-12-04,1,,,,,オーエスグループ,0
1397,5240001064189,新規,0,2024-12-04,2024-12-04,嘉宏株式会社,,株式会社,広島県,福山市,新涯町５丁目２番４７－４号,,34,207,7210955,,,,,,,2024-12-04,1,,,,,カコウ,0
1398,5240001064197,新規,0,2024-12-04,2024-12-04,株式会社Ｆａｉｔｈ,,株式会社,広島県,広島市中区,弥生町６－９－２,,34,101,7300023,,,,,,,2024-12-04,1,,,,,フェイス,0
1399,5240001064214,新規,0,2024-12-04,2024-12-04,アート・ライフ株式会社,,株式会社,広島県,広島市中区,東千田町１丁目１番５５－１２０６号ｈｉｔｏｔｏ広島ＴｈｅＴｏｗｅｒ,,34,101,7300053,,,,,,,2024-12-04,1,,,,,アートライフ,0
1401,5260001039684,新規,0,2024-12-04,2024-12-04,株式会社平テクノサービス,,株式会社,岡山県,倉敷市,西阿知町新田５６９番地２,,33,202,7100804,,,,,,,2024-12-04,1,,,,,タイラテクノサービス,0
1404,5260003004991,新規,0,2024-12-04,2024-12-04,合同会社Ｓｉｘ　Ｐａｃｋｓ,,合同会社,岡山県,岡山市北区,建部町福渡９９９番地３０,,33,101,7093111,,,,,,,2024-12-04,1,,,,,シックスパックス,0
1405,5270003001690,新規,0,2024-12-04,2024-12-04,合同会社Ｌｉｂｒａ,,合同会社,鳥取県,鳥取市,南隈５９４番地,,31,201,6800903,,,,,,,2024-12-04,1,,,,,リブラ,0
1414,5290001108172,新規,0,2024-12-04,2024-12-04,株式会社たけちゃん,,株式会社,福岡県,福岡市中央区,港２丁目７番１６－１０１号レスペデザ大濠,,40,133,8100075,,,,,,,2024-12-04,1,,,,,タケチャン,0
1419,5290003016142,新規,0,2024-12-04,2024-12-04,合同会社Ｍｅｒｃｉ,,合同会社,福岡県,福岡市東区,和白丘１丁目２１番２－７０１号,,40,131,8110213,,,,,,,2024-12-04,1,,,,,メルシー,0
1422,5290801031086,新規,0,2024-12-04,2024-12-04,ＳＴＲ株式会社,,株式会社,福岡県,直方市,大字頓野２１８２－４,,40,204,8220002,,,,,,,2024-12-04,1,,,,,エスティーアール,0
1423,5290801031094,新規,0,2024-12-04,2024-12-04,春田株式会社,,株式会社,福岡県,北九州市小倉北区,紺屋町１１－２０,,40,106,8020081,,,,,,,2024-12-04,1,,,,,ハルタ,0
1426,5290803004908,新規,0,2024-12-04,2024-12-04,合同会社ＩＮＮ,,合同会社,福岡県,宮若市,磯光１２３８番地１エスポアールＴ・Ｓ　Ｃ２０１,,40,226,8230004,,,,,,,2024-12-04,1,,,,,アイエヌエヌ,0
1432,5310003004904,新規,0,2024-12-04,2024-12-04,ＭＳＤ合同会社,,合同会社,長崎県,長崎市,女の都２丁目３７－８,,42,201,8528144,,,,,,,2024-12-04,1,,,,,エムエスディ,0
1434,5320001020844,新規,0,2024-12-04,2024-12-04,株式会社ＫＴＹ,,株式会社,大分県,大分市,大字城原２３３３番地の１,,44,201,8700267,,,,,,,2024-12-04,1,,,,,ケーティーワイ,0
1440,5330001032723,新規,0,2024-12-04,2024-12-04,株式会社はるか会計センター,,株式会社,熊本県,熊本市南区,白藤１丁目１番７８号,,43,104,8614112,,,,,,,2024-12-04,1,,,,,ハルカカイケイセンター,0
1446,5350003004792,新規,0,2024-12-04,2024-12-04,ＬＡ　Ｔｒａｄｉｎｇ合同会社,,合同会社,宮崎県,宮崎市,佐土原町下那珂１０８２４,,45,201,8800212,,,,,,,2024-12-04,1,,,,,エルエートレーディング,0
1447,5360001034519,新規,0,2024-12-04,2024-12-04,株式会社沖縄オートガレージ,,株式会社,沖縄県,豊見城市,字渡橋名３４,,47,212,9010222,,,,,,,2024-12-04,1,,,,,オキナワオートガレージ,0
1448,5370001052008,新規,0,2024-12-04,2024-12-04,株式会社ＨＴＨ,,株式会社,宮城県,仙台市宮城野区,燕沢東１丁目３番１５号,,04,102,9830822,,,,,,,2024-12-04,1,,,,,エイチティーエイチ,0
1449,5370001052016,新規,0,2024-12-04,2024-12-04,株式会社なないろ,,株式会社,宮城県,仙台市若林区,木ノ下５丁目２番２４号,,04,103,9840047,,,,,,,2024-12-04,1,,,,,ナナイロ,0
1450,5380001034954,新規,0,2024-12-04,2024-12-04,ＳＤＫインターナショナル株式会社,,株式会社,福島県,二本松市,大関２９５番地,,07,210,9640077,,,,,,,2024-12-04,1,,,,,エスディケイインターナショナル,0
1456,5400001016875,新規,0,2024-12-04,2024-12-04,株式会社十三夜,,株式会社,岩手県,盛岡市,名須川町１１番８号,,03,201,0200016,,,,,,,2024-12-04,1,,,,,ジュウサンヤ,0
1462,5430001093185,新規,0,2024-12-04,2024-12-04,株式会社宮澤総業,,株式会社,北海道,江別市,野幌代々木町７番地の１４,,01,217,0690817,,,,,,,2024-12-04,1,,,,,ミヤザワソウギョウ,0
1464,5430003017043,新規,0,2024-12-04,2024-12-04,Ｃ’ＥＳＴ　ＭＯＩ　ＣＯＣＯ合同会社,,合同会社,北海道,室蘭市,東町５丁目３番５号,,01,205,0500083,,,,,,,2024-12-04,1,,,,,セモアココ,0
1465,5430003017051,新規,0,2024-12-04,2024-12-04,合同会社ｆａｃｔ,,合同会社,北海道,札幌市中央区,南一条西７丁目１番地１ビルヂングフクダ５階,,01,101,0600061,,,,,,,2024-12-04,1,,,,,ファクト,0
1468,5480001012669,新規,0,2024-12-04,2024-12-04,株式会社ケアネスファーマシー,,株式会社,徳島県,板野郡北島町,中村字福神１７番地１,,36,402,7710203,,,,,,,2024-12-04,1,,,,,ケアネスファーマシー,0
1471,5700150026364,新規,0,2024-12-04,2015-10-09,門真市生涯スポーツ推進協議会,,その他,大阪府,門真市,中町１－１,,27,223,5710055,,,,,,,2015-10-09,1,,,,,カドマシシヨウガイスポーツスイシンキヨウギカイ,0
1472,5700150052492,新規,0,2024-12-04,2015-10-09,三良坂町自治振興区連絡協議会,,その他,広島県,三次市,三良坂町三良坂２８２５,,34,209,7294304,,,,,,,2015-10-09,1,,,,,ミラサカチヨウジチシンコウクレンラクキヨウギカイ,0
1473,5700150128053,新規,0,2024-12-04,2024-12-04,東京精密協力会社持株会,,その他,東京都,八王子市,石川町２９６８－２　株式会社東京精密　業務会社　総務室　内,,13,201,1920032,,,,,,,2024-12-04,1,,,,,トウキョウセイミツキョウリョクガイシャモチカブカイ,0
1480,6010001250364,新規,0,2024-12-04,2024-12-04,株式会社はじめトラスト,,株式会社,東京都,千代田区,西神田２丁目５－７神田中央ビル４０５号室,,13,101,1010065,,,,,,,2024-12-04,1,,,,,ハジメトラスト,0
1481,6010001250414,新規,0,2024-12-04,2024-12-04,株式会社ＧＬＯＣＡＬ　ＤＯＯＲ,,株式会社,東京都,中央区,銀座１丁目２２番１１号銀座大竹ビジデンス８階,,13,102,1040061,,,,,,,2024-12-04,1,,,,,グローカルドア,0
1484,6010003045606,新規,0,2024-12-04,2024-12-04,合同会社ｂｅｙｏｎｄ４号,,合同会社,東京都,千代田区,霞が関３丁目２番５号,,13,101,1000013,,,,,,,2024-12-04,1,,,,,ビヨンドヨンゴウ,0
1485,6010003045663,新規,0,2024-12-04,2024-12-04,合同会社藤崎,00137220,合同会社,東京都,中央区,新富２丁目５番２号,,13,102,1040041,,,,,,,2024-12-04,1,,,,,フジサキ,0
1491,6010401186803,新規,0,2024-12-04,2024-12-04,株式会社ロイヤルガーネット,,株式会社,東京都,港区,高輪１丁目２３番３３号４０２,,13,103,1080074,,,,,,,2024-12-04,1,,,,,ロイヤルガーネット,0
1492,6010403033937,新規,0,2024-12-04,2024-12-04,合同会社実践会三豊プロジェクト１,,合同会社,東京都,港区,赤坂４丁目１１番２０号,,13,103,1070052,,,,,,,2024-12-04,1,,,,,ジッセンカイミトヨプロジェクトワン,0
1493,6010403033945,新規,0,2024-12-04,2024-12-04,ヴァリア合同会社,,合同会社,東京都,港区,芝１丁目２番１－６１１号,,13,103,1050014,,,,,,,2024-12-04,1,,,,,ヴァリア,0
1496,6010603011247,新規,0,2024-12-04,2024-12-04,合同会社松崎商会,,合同会社,東京都,江東区,石島１２番９号,,13,108,1350014,,,,,,,2024-12-04,1,,,,,マツザキショウカイ,0
1497,6010701046938,新規,0,2024-12-04,2024-12-04,株式会社ＬＩＢＥＲＴＹ　ＣＯＲＥ,,株式会社,東京都,品川区,西五反田５丁目３２番７号ジニア不動前２０２,,13,109,1410031,,,,,,,2024-12-04,1,,,,,リバティーコア,0
1499,6010801035618,新規,0,2024-12-04,2024-12-04,株式会社アハヤ,,株式会社,東京都,大田区,大森西２丁目２０－２５アバビル３号館３０３,,13,111,1430015,,,,,,,2024-12-04,1,,,,,アハヤ,0
1501,6010903009536,新規,0,2024-12-04,2024-12-04,合同会社ビズリッジ,,合同会社,東京都,世田谷区,弦巻５丁目１番８－１４１号,,13,112,1540016,,,,,,,2024-12-04,1,,,,,ビズリッジ,0
1507,6011001166138,新規,0,2024-12-04,2024-12-04,株式会社フルチェンジ,,株式会社,東京都,渋谷区,元代々木町６－１,,13,113,1510062,,,,,,,2024-12-04,1,,,,,フルチェンジ,0
1508,6011001166328,新規,0,2024-12-04,2024-12-04,株式会社キッチンわたりがらす,,株式会社,東京都,目黒区,上目黒５丁目２８番１１号,,13,110,1530051,,,,,,,2024-12-04,1,,,,,キッチンワタリガラス,0
1509,6011001166352,新規,0,2024-12-04,2024-12-04,株式会社ＳｍａｒｔＣｅｌｌ,,株式会社,東京都,渋谷区,渋谷２丁目１１番６号ラウンドクロス渋谷８階,,13,113,1500002,,,,,,,2024-12-04,1,,,,,スマートセル,0
1510,6011003020540,新規,0,2024-12-04,2024-12-04,マイダス・イノベーション合同会社,,合同会社,東京都,渋谷区,道玄坂１丁目１０番８号渋谷道玄坂東急ビル２Ｆ－Ｃ,,13,113,1500043,,,,,,,2024-12-04,1,,,,,マイダスイノベーション,0
1513,6011101109814,新規,0,2024-12-04,2024-12-04,株式会社Ｇ‐Ｓｔａｒ　Ｔｅｃｈｎｏｌｏｇｉｅｓ,,株式会社,東京都,新宿区,西新宿３丁目３番１３号西新宿水間ビル６階,,13,104,1600023,,,,,,,2024-12-04,1,,,,,ジースターテクノロジーズ,0
1514,6011201025969,新規,0,2024-12-04,2024-12-04,株式会社東晶,,株式会社,東京都,中野区,弥生町１丁目１２番２号,,13,114,1640013,,,,,,,2024-12-04,1,,,,,トウショウ,0
1517,6011501031428,新規,0,2024-12-04,2024-12-04,株式会社ＢＥＴ,,株式会社,東京都,北区,王子５丁目１番１－１１２９号,,13,117,1140002,,,,,,,2024-12-04,1,,,,,ビーイーティー,0
1518,6011501031436,新規,0,2024-12-04,2024-12-04,正選優品株式会社,,株式会社,東京都,北区,浮間１丁目１－１４－１２６号室,,13,117,1150051,,,,,,,2024-12-04,1,,,,,セイセンユウヒン,0
1519,6011503006320,新規,0,2024-12-04,2024-12-04,合同会社大江戸國,,合同会社,東京都,北区,志茂１丁目２５番８号,,13,117,1150042,,,,,,,2024-12-04,1,,,,,オオエドコク,0
1524,6011801045268,新規,0,2024-12-04,2024-12-04,株式会社コンリード,,株式会社,東京都,足立区,千住５丁目７番１０号,,13,121,1200034,,,,,,,2024-12-04,1,,,,,コンリード,0
1528,6012401042531,新規,0,2024-12-04,2024-12-04,株式会社ミタシ,,株式会社,東京都,小金井市,東町１丁目３０番１７号,,13,210,1840011,,,,,,,2024-12-04,1,,,,,ミタシ,0
1532,6013301053453,新規,0,2024-12-04,2024-12-04,株式会社Ｂｉｆｒｏｓｔ,,株式会社,東京都,豊島区,西池袋１丁目２９番３号,,13,116,1710021,,,,,,,2024-12-04,1,,,,,ビフレスト,0
1537,6020001160430,新規,0,2024-12-04,2024-12-04,株式会社ＡＣＳコンサルティング,,株式会社,神奈川県,横浜市磯子区,汐見台２丁目２－２－４０７,,14,107,2350022,,,,,,,2024-12-04,1,,,,,エーシーエスコンサルティング,0
1538,6020001160439,新規,0,2024-12-04,2024-12-04,株式会社紘勇建設,,株式会社,神奈川県,横浜市旭区,白根７丁目３７番２１－２号,,14,112,2410005,,,,,,,2024-12-04,1,,,,,コウユウケンセツ,0
1541,6020003027396,新規,0,2024-12-04,2024-12-04,合同会社ＵＥＮＯ,,合同会社,神奈川県,川崎市川崎区,渡田３丁目２－１５江口山中ビル１０２,,14,131,2100837,,,,,,,2024-12-04,1,,,,,ウエノ,0
1551,6030001163655,新規,0,2024-12-04,2024-12-04,株式会社０ｘ０,,株式会社,埼玉県,さいたま市緑区,太田窪１丁目１２番１０号,,11,109,3360936,,,,,,,2024-12-04,1,,,,,ゼロ,0
1552,6030001163787,新規,0,2024-12-04,2024-12-04,ＴＨＸＪａｐａｎ株式会社,,株式会社,埼玉県,春日部市,大場１１２０番地５,,11,214,3440021,,,,,,,2024-12-04,1,,,,,ティーエイチエックスジャパン,0
1557,6030003025630,新規,0,2024-12-04,2024-12-04,Ｂ‐テクノ合同会社,,合同会社,埼玉県,さいたま市見沼区,大字丸ヶ崎１０５０番地,,11,104,3370001,,,,,,,2024-12-04,1,,,,,ビーテクノ,0
1565,6040003026297,新規,0,2024-12-04,2024-12-04,合同会社ＫＡＭＩＮＯＫＯ　ＰＪ,,合同会社,千葉県,柏市,末広町１１番１２号,,12,217,2770842,,,,,,,2024-12-04,1,,,,,カミノコプロジェクト,0
1567,6050003008856,新規,0,2024-12-04,2024-12-04,クリックライフ合同会社,,合同会社,茨城県,日立市,諏訪町１丁目１１番６－１号,,08,202,3160001,,,,,,,2024-12-04,1,,,,,クリックライフ,0
1568,6050003008864,新規,0,2024-12-04,2024-12-04,合同会社Ｈｏｐｅ＆Ｈａｒｍｏｎｙ,,合同会社,茨城県,那珂郡東海村,大字舟石川３１４番地７,,08,341,3191111,,,,,,,2024-12-04,1,,,,,ホープアンドハーモニー,0
1569,6060001037690,新規,0,2024-12-04,2024-12-04,宇都宮モビリティサービス株式会社,,株式会社,栃木県,宇都宮市,二番町２番７号,,09,201,3200813,,,,,,,2024-12-04,1,,,,,ウツノミヤモビリティサービス,0
1570,6080001026634,新規,0,2024-12-04,2024-12-04,株式会社キングヒーロー,,株式会社,静岡県,焼津市,上小杉８８７番地の７１,,22,212,4210201,,,,,,,2024-12-04,1,,,,,キングヒーロー,0
1571,6080401027604,新規,0,2024-12-04,2024-12-04,株式会社スイプロ,,株式会社,静岡県,磐田市,国府台６２２番地７,,22,211,4380077,,,,,,,2024-12-04,1,,,,,スイプロ,0
1573,6080405007692,新規,0,2024-12-04,2024-12-04,一般社団法人こども共育サポート協会,,その他の設立登記法人,静岡県,浜松市中央区,中央１丁目１８番２０－２３０１号,,22,138,4300929,,,,,,,2024-12-04,1,,,,,コドモキョウイクサポートキョウカイ,0
1574,6110001038898,新規,0,2024-12-04,2024-12-04,株式会社ぴ,,株式会社,新潟県,新潟市中央区,東大通２丁目３番２３号道頓堀ビル３階,,15,103,9500087,,,,,,,2024-12-04,1,,,,,ピ,0
1576,6110003005599,新規,0,2024-12-04,2024-12-04,オスカー貿易合同会社,,合同会社,新潟県,小千谷市,東栄１丁目４番１号,,15,208,9470004,,,,,,,2024-12-04,1,,,,,オスカーボウエキ,0
1585,6120001270731,新規,0,2024-12-04,2024-12-04,ｓｋｙ株式会社,,株式会社,大阪府,大阪市西成区,橘１丁目１１－２８オフィスポート橘４１５号室,,27,122,5570051,,,,,,,2024-12-04,1,,,,,スカイ,0
1586,6120001270756,新規,0,2024-12-04,2024-12-04,凱霆株式会社,,株式会社,大阪府,大阪市大正区,三軒家西３丁目４番１６号中山ビル１０４６,,27,108,5510001,,,,,,,2024-12-04,1,,,,,カイテイ,0
1587,6120001270764,新規,0,2024-12-04,2024-12-04,株式会社ワイトアールス,,株式会社,大阪府,大阪市福島区,福島１丁目３番２７号－４０１,,27,103,5530003,,,,,,,2024-12-04,1,,,,,ワイトアールス,0
1588,6120001270806,新規,0,2024-12-04,2024-12-04,静興株式会社,,株式会社,大阪府,大阪市西成区,出城１丁目８番１９号４０２室,,27,122,5570024,,,,,,,2024-12-04,1,,,,,セイキョウ,0
1589,6120001270847,新規,0,2024-12-04,2024-12-04,株式会社信源,,株式会社,大阪府,大阪市北区,豊崎３丁目８番５－９０２号,,27,127,5310072,,,,,,,2024-12-04,1,,,,,シンゲン,0
1593,6120003028087,新規,0,2024-12-04,2024-12-04,アクト合同会社,,合同会社,大阪府,大阪市西区,靱本町１丁目１０番４号井出ビル７０１,,27,106,5500004,,,,,,,2024-12-04,1,,,,,アクト,0
1595,6120101070692,新規,0,2024-12-04,2024-12-04,株式会社Ｍ．Ｒ．Ｔ,,株式会社,大阪府,堺市北区,北花田町４－１１０－６,,27,146,5910000,,,,,,,2024-12-04,1,,,,,エムアールティ,0
1598,6120901050118,新規,0,2024-12-04,2024-12-04,株式会社みなみ,,株式会社,大阪府,茨木市,新堂１丁目７番５号,,27,211,5670835,,,,,,,2024-12-04,1,,,,,ミナミ,0
1599,6122001038704,新規,0,2024-12-04,2024-12-04,株式会社ノース,,株式会社,大阪府,八尾市,宮町１丁目２番６号,,27,212,5810815,,,,,,,2024-12-04,1,,,,,ノース,0
1600,6122001038712,新規,0,2024-12-04,2024-12-04,株式会社ＹＯＴＳＵＭＯＴＯ,,株式会社,大阪府,八尾市,太田３丁目２２６番地の１７,,27,212,5810037,,,,,,,2024-12-04,1,,,,,ヨツモト,0
1601,6122001038720,新規,0,2024-12-04,2024-12-04,株式会社Ｌｅ　ｃｉｅｌ　ｂｌｕｅ,,株式会社,大阪府,東大阪市,西石切町１丁目１１－３０ラガール新石切２Ｃ,,27,227,5798013,,,,,,,2024-12-04,1,,,,,ルシエルブルー,0
1609,6130001078513,新規,0,2024-12-04,2024-12-04,株式会社ＳＥＥＤ,,株式会社,京都府,京都市下京区,大黒町２２７,,26,106,6008043,,,,,,,2024-12-04,1,,,,,シード,0
1612,6130003010052,新規,0,2024-12-04,2024-12-04,合同会社ＴＡＫＥ５,,合同会社,京都府,京都市南区,吉祥院石原開町５７番地２,,26,107,6018365,,,,,,,2024-12-04,1,,,,,テイクファイブ,0
1628,6180001164390,新規,0,2024-12-04,2024-12-04,株式会社ＩＮＮＯＶＥＬ　ＨＥＡＬＴＨＣＡＲＥ,,株式会社,愛知県,名古屋市緑区,鎌倉台１丁目２１１番地,,23,114,4580829,,,,,,,2024-12-04,1,,,,,イノベルヘルスケア,0
1631,6180301039292,新規,0,2024-12-04,2024-12-04,ＵＭＥ　ＨＯＭＥ株式会社,,株式会社,愛知県,豊田市,千石町５丁目１８番地,,23,211,4710016,,,,,,,2024-12-04,1,,,,,ウメホーム,0
1638,6200001043204,新規,0,2024-12-04,2024-12-04,株式会社公家,,株式会社,岐阜県,岐阜市,三ツ又町１２番地２,,21,201,5008348,,,,,,,2024-12-04,1,,,,,クゲ,0
1639,6200003006605,新規,0,2024-12-04,2024-12-04,Ｌｃｉｅｌ合同会社,,合同会社,岐阜県,岐阜市,玉森町１３番地１－３０８号,,21,201,5008837,,,,,,,2024-12-04,1,,,,,エルシエル,0
1640,6220001026363,新規,0,2024-12-04,2024-12-04,株式会社ＲＯＬＬＥＲ,,株式会社,石川県,金沢市,浅野本町２丁目２２番３３号,,17,201,9200841,,,,,,,2024-12-04,1,,,,,ローラ,0
1642,6240001064196,新規,0,2024-12-04,2024-12-04,株式会社テクアク,,株式会社,広島県,廿日市市,佐方３丁目８番３号,,34,213,7380001,,,,,,,2024-12-04,1,,,,,テクアク,0
1643,6250001020925,新規,0,2024-12-04,2024-12-04,株式会社Ｆｌａｒｅ,,株式会社,山口県,防府市,国衙５丁目７番１３－３号井上ハイツ１０１号,,35,206,7470024,,,,,,,2024-12-04,1,,,,,フレア,0
1648,6260001039700,新規,0,2024-12-04,2024-12-04,株式会社１ＬＴ,,株式会社,岡山県,玉野市,長尾６８８番地１,,33,204,7060151,,,,,,,2024-12-04,1,,,,,ワンエルティー,0
1651,6290001108171,新規,0,2024-12-04,2024-12-04,学びのグループ株式会社,,株式会社,福岡県,福岡市東区,高美台４丁目１番５号１０３号室,,40,131,8110215,,,,,,,2024-12-04,1,,,,,マナビノグループ,0
1654,6290003016133,新規,0,2024-12-04,2024-12-04,筑後空き家管理サービス合同会社,,合同会社,福岡県,久留米市,国分町８９２番地３,,40,203,8390863,,,,,,,2024-12-04,1,,,,,チクゴアキヤカンリサービス,0
1657,6290801031085,新規,0,2024-12-04,2024-12-04,株式会社ＣＲＩ,,株式会社,福岡県,北九州市小倉北区,東篠崎３丁目５番３号,,40,106,8020072,,,,,,,2024-12-04,1,,,,,シーアールアイ,0
1658,6290801031093,新規,0,2024-12-04,2024-12-04,株式会社Ｋ．Ｋ．Ｃ,,株式会社,福岡県,遠賀郡芦屋町,正門町７－３,,40,381,8070112,,,,,,,2024-12-04,1,,,,,ケイケイシー,0
1659,6290801031102,新規,0,2024-12-04,2024-12-04,株式会社スエヒロコーポレーション,,株式会社,福岡県,北九州市若松区,響町１丁目８９番地１５,,40,103,8080021,,,,,,,2024-12-04,1,,,,,スエヒロコーポレーション,0
1660,6290803004907,新規,0,2024-12-04,2024-12-04,合同会社ホームニカ,,合同会社,福岡県,北九州市小倉北区,山門町５番３０－１０１号,,40,106,8020024,,,,,,,2024-12-04,1,,,,,ホームニカ,0
1661,6300001013997,新規,0,2024-12-04,2024-12-04,株式会社ビッグロード,,株式会社,佐賀県,佐賀市,鍋島町大字森田７３９番地１,,41,201,8490936,,,,,,,2024-12-04,1,,,,,ビッグロード,0
1669,6330001032714,新規,0,2024-12-04,2024-12-04,ハローウィン株式会社,,株式会社,熊本県,熊本市南区,富合町木原５７０番地,,43,104,8614153,,,,,,,2024-12-04,1,,,,,ハローウィン,0
1674,6340001026979,新規,0,2024-12-04,2024-12-04,三栄株式会社,,株式会社,鹿児島県,鹿児島市,山田町６６７番地１,,46,201,8910104,,,,,,,2024-12-04,1,,,,,サンエイ,0
1681,6370001052023,新規,0,2024-12-04,2024-12-04,株式会社キュアオール,,株式会社,宮城県,仙台市宮城野区,銀杏町２０番２０号,,04,102,9830047,,,,,,,2024-12-04,1,,,,,キュアオール,0
1682,6370003006844,新規,0,2024-12-04,2024-12-04,合同会社ｐｅｂｂｌｅ　ｖｉｖｉｄ　ｃｏｎｃｅｐｔ,,合同会社,宮城県,宮城郡七ヶ浜町,汐見台南２丁目１３番地１３,,04,404,9850822,,,,,,,2024-12-04,1,,,,,ペブルビビットコンセプト,0
1686,6380001034953,新規,0,2024-12-04,2024-12-04,株式会社ＬＡＤＬＥ,,株式会社,福島県,いわき市,泉町２丁目１３－７,,07,204,9718185,,,,,,,2024-12-04,1,,,,,ラドル,0
1688,6380005012897,新規,0,2024-12-04,2024-12-04,特定非営利活動法人共生社会ふくしま,,その他の設立登記法人,福島県,福島市,飯坂町中野字高田前２番地の７社会福祉法人けやきの村内,,07,201,9600261,,,,,,,2024-12-04,1,,,,,キョウセイシャカイフクシマ,0
1689,6390001017809,新規,0,2024-12-04,2024-12-04,株式会社ＮＨサトヤ,,株式会社,山形県,米沢市,大字李山４６４０番地,,06,202,9921461,,,,,,,2024-12-04,1,,,,,エヌエイチサトヤ,0
1690,6390005009091,新規,0,2024-12-04,2024-12-04,医療法人社団仁笑会,,その他の設立登記法人,山形県,山形市,南四番町７－１８,,06,201,9902444,,,,,,,2024-12-04,1,,,,,ジンエイカイ,0
1691,6410001014010,新規,0,2024-12-04,2024-12-04,株式会社リコ・フォルトゥーナ,,株式会社,秋田県,秋田市,中通２丁目６番４４号ニュー金座街ビル３Ｆ,,05,201,0100001,,,,,,,2024-12-04,1,,,,,リコフォルトゥーナ,0
1692,6430001093201,新規,0,2024-12-04,2024-12-04,株式会社ＷｅｓｔＢｒｉｄｇｅ,,株式会社,北海道,札幌市西区,宮の沢一条２丁目８番６号,,01,107,0630051,,,,,,,2024-12-04,1,,,,,ウエストブリッジ,0
1697,6460301005258,新規,0,2024-12-04,2024-12-04,株式会社アトラス,,株式会社,北海道,網走市,南六条西３丁目８番地２,,01,211,0930016,,,,,,,2024-12-04,1,,,,,アトラス,0
1709,7010001250470,新規,0,2024-12-04,2024-12-04,株式会社Ｓｈａｎｔｉ,,株式会社,東京都,中央区,銀座１丁目１２番４号Ｎ＆ＥＢＬＤ．７階,,13,102,1040061,,,,,,,2024-12-04,1,,,,,シャンティ,0
1715,7010003045605,新規,0,2024-12-04,2024-12-04,合同会社ｂｅｙｏｎｄ３号,,合同会社,東京都,千代田区,霞が関３丁目２番５号,,13,101,1000013,,,,,,,2024-12-04,1,,,,,ビヨンドサンゴウ,0
1716,7010003045704,新規,0,2024-12-04,2024-12-04,エンパワージャパン合同会社,,合同会社,東京都,中央区,銀座１丁目２２番１１号銀座大竹ビジデンス２Ｆ,,13,102,1040061,,,,,,,2024-12-04,1,,,,,エンパワージャパン,0
1717,7010003045720,新規,0,2024-12-04,2024-12-04,パシフィックアドバイザリー合同会社,,合同会社,東京都,中央区,銀座１丁目１４―７,,13,102,1040061,,,,,,,2024-12-04,1,,,,,パシフィックアドバイザリー,0
1719,7010102011870,新規,0,2024-12-04,2024-12-04,有限会社坂爪工業,,有限会社,東京都,八王子市,横川町７７１番地６,,13,201,1930823,,,,,,,2024-12-04,1,,,,,,0
1727,7010401186802,新規,0,2024-12-04,2024-12-04,株式会社ｔｏｒａｐｅ,,株式会社,東京都,港区,高輪１丁目２３番３３号４０２,,13,103,1080074,,,,,,,2024-12-04,1,,,,,トラペ,0
1728,7010401186810,新規,0,2024-12-04,2024-12-04,ＭｉＴＡＳＵＮ株式会社,,株式会社,東京都,港区,三田３丁目１２番１４号,,13,103,1080073,,,,,,,2024-12-04,1,,,,,ミタサン,0
1729,7010401186819,新規,0,2024-12-04,2024-12-04,Ｑｕｅｅｎ　Ｃｌａｒｉｏｎ株式会社,,株式会社,東京都,港区,南青山３丁目３番３号リビエラ南青山ビル２０６,,13,103,1070062,,,,,,,2024-12-04,1,,,,,クイーンクラリオン,0
1730,7010401186843,新規,0,2024-12-04,2024-12-04,株式会社コンセイエ,,株式会社,東京都,港区,南青山３丁目１－３６青山丸竹ビル６階,,13,103,1070062,,,,,,,2024-12-04,1,,,,,コンセイエ,0
1732,7010403033936,新規,0,2024-12-04,2024-12-04,合同会社ブラザー・リフォーム,,合同会社,東京都,港区,六本木５丁目１３番１１－１００２号,,13,103,1060032,,,,,,,2024-12-04,1,,,,,,0
1733,7010405023836,新規,0,2024-12-04,2024-12-04,一般社団法人樹,,その他の設立登記法人,東京都,港区,六本木７丁目３番８号永谷ヒルプラザ六本木８１０,,13,103,1060032,,,,,,,2024-12-04,1,,,,,ミキ,0
1737,7010601066399,新規,0,2024-12-04,2024-12-04,株式会社ＭＯＡＩ　Ｌａｂ,,株式会社,東京都,江東区,三好１丁目８番３号,,13,108,1350022,,,,,,,2024-12-04,1,,,,,モアイラボ,0
1738,7010601066408,新規,0,2024-12-04,2024-12-04,株式会社Ａｔａｍａ,,株式会社,東京都,江東区,森下３丁目１番１５号,,13,108,1350004,,,,,,,2024-12-04,1,,,,,アタマ,0
1742,7010801035625,新規,0,2024-12-04,2024-12-04,ＪＡＥＨ株式会社,,株式会社,東京都,大田区,中馬込１丁目１２番２４号,,13,111,1430027,,,,,,,2024-12-04,1,,,,,ジェイエーイーエイチ,0
1747,7010903009543,新規,0,2024-12-04,2024-12-04,Ｔｈｉｎｋ　Ｂｉｇ＆Ｃｏｍｐａｎｙ合同会社,,合同会社,東京都,世田谷区,瀬田１丁目２番１７ー２０１号,,13,112,1580095,,,,,,,2024-12-04,1,,,,,シンクビッグアンドカンパニー,0
1756,7011001166178,新規,0,2024-12-04,2024-12-04,株式会社ノイラウム,,株式会社,東京都,渋谷区,猿楽町３０番８号,,13,113,1500033,,,,,,,2024-12-04,1,,,,,ノイラウム,0
1766,7011101109763,新規,0,2024-12-04,2024-12-04,株式会社Ｍａｔｃｈｆｙ,,株式会社,東京都,新宿区,西新宿７丁目１番１２号クロスオフィス新宿,,13,104,1600023,,,,,,,2024-12-04,1,,,,,マチファイ,0
1767,7011101109805,新規,0,2024-12-04,2024-12-04,Ｐｒｉｍｅ株式会社,,株式会社,東京都,新宿区,新宿７丁目１２番１号新宿平和ビル１階,,13,104,1600022,,,,,,,2024-12-04,1,,,,,プライム,0
1768,7011101109813,新規,0,2024-12-04,2024-12-04,株式会社ＵＴホールディングス,,株式会社,東京都,新宿区,中落合２丁目１１番４号,,13,104,1610032,,,,,,,2024-12-04,1,,,,,ユーティーホールディングス,0
1770,7011103015258,新規,0,2024-12-04,2024-12-04,合同会社ＥＢＩ,,合同会社,東京都,新宿区,西新宿３丁目３番１３号西新宿水間ビル６階,,13,104,1600023,,,,,,,2024-12-04,1,,,,,エビ,0
1772,7011201025968,新規,0,2024-12-04,2024-12-04,株式会社Ｄｏｕｂｌｅ‐Ａホールディングス,,株式会社,東京都,中野区,江原町１丁目２５番２２号グリーンキャピタル中野江原町３０５,,13,114,1650023,,,,,,,2024-12-04,1,,,,,タブルエーホールディングス,0
1776,7011603004537,新規,0,2024-12-04,2024-12-04,合同会社ＭＩＲＡＩＥ‐ＪＰ,,合同会社,東京都,練馬区,富士見台２丁目３７番１号,,13,120,1770034,,,,,,,2024-12-04,1,,,,,ミライヘジェイピー,0
1777,7011605002621,新規,0,2024-12-04,2024-12-04,一般社団法人ＧａｉｎＥＸＰ,,その他の設立登記法人,東京都,練馬区,大泉学園町１丁目７番２２号ソーシャルアパートメント大泉学園１１１号,,13,120,1780061,,,,,,,2024-12-04,1,,,,,ゲインエクスペリエンス,0
1779,7011701027860,新規,0,2024-12-04,2024-12-04,株式会社フォーカンパニージャパン,,株式会社,東京都,江戸川区,西一之江１丁目３－１３,,13,123,1320023,,,,,,,2024-12-04,1,,,,,フォーカンパニージャパン,0
1780,7011701027869,新規,0,2024-12-04,2024-12-04,日本開明算術優良教育株式会社,,株式会社,東京都,江戸川区,南小岩３丁目１番１４号プランドールＭ１１０室,,13,123,1330056,,,,,,,2024-12-04,1,,,,,ニホンカイメイサンジュツユウリョウキョウイク,0
1783,7011801045267,新規,0,2024-12-04,2024-12-04,株式会社ＢＩＧ　ＢＲＩＤＧＥ,,株式会社,東京都,葛飾区,東新小岩３丁目８番５－９０４号,,13,122,1240023,,,,,,,2024-12-04,1,,,,,ビッグブリッジ,0
1784,7011803006580,新規,0,2024-12-04,2024-12-04,合同会社なべふたアートスタジオ,,合同会社,東京都,足立区,東和４丁目１５番１９号,,13,121,1200003,,,,,,,2024-12-04,1,,,,,ナベフタアートスタジオ,0
1786,7012401042530,新規,0,2024-12-04,2024-12-04,センシンディー株式会社,,株式会社,東京都,武蔵野市,吉祥寺東町４丁目８番８号,,13,203,1800002,,,,,,,2024-12-04,1,,,,,センシンディー,0
1791,7013301053452,新規,0,2024-12-04,2024-12-04,株式会社外国人サポートセンター,,株式会社,東京都,豊島区,南大塚２丁目３８番１号,,13,116,1700005,,,,,,,2024-12-04,1,,,,,ガイコクジンサポートセンター,0
1792,7013301053460,新規,0,2024-12-04,2024-12-04,第二産業株式会社,,株式会社,東京都,豊島区,北大塚２丁目２－１３大塚シャトレトーコー４０２号室,,13,116,1700004,,,,,,,2024-12-04,1,,,,,ダイニサンギョウ,0
1797,7020001160438,新規,0,2024-12-04,2024-12-04,株式会社メディアワークス,,株式会社,神奈川県,川崎市多摩区,西生田２丁目１２番２４号橘１０２,,14,135,2140037,,,,,,,2024-12-04,1,,,,,メディアワークス,0
1798,7020001160454,新規,0,2024-12-04,2024-12-04,株式会社ルメナスエナジー,,株式会社,神奈川県,横浜市中区,日本大通５２番地,,14,104,2310021,,,,,,,2024-12-04,1,,,,,ルメナスエナジー,0
1805,7021003015299,新規,0,2024-12-04,2024-12-04,ひばりが丘不動産管理合同会社,,合同会社,神奈川県,座間市,ひばりが丘２丁目５６番１２号,,14,216,2520003,,,,,,,2024-12-04,1,,,,,ヒバリガオカフドウサンカンリ,0
1813,7030001163729,新規,0,2024-12-04,2024-12-04,株式会社Ｔ‐ＲＩＳＥ,,株式会社,埼玉県,鴻巣市,原馬室６５４番地７,,11,217,3650043,,,,,,,2024-12-04,1,,,,,ティーライズ,0
1814,7030001163745,新規,0,2024-12-04,2024-12-04,日新株式会社,,株式会社,埼玉県,川口市,西川口５丁目１４番６号レスペランス１０２号,,11,203,3320021,,,,,,,2024-12-04,1,,,,,ニッシン,0
1815,7030001163753,新規,0,2024-12-04,2024-12-04,株式会社川幡,,株式会社,埼玉県,川口市,東川口４丁目７番２号,,11,203,3330801,,,,,,,2024-12-04,1,,,,,カワバタ,0
1816,7030001163803,新規,0,2024-12-04,2024-12-04,Ａｒｉｍａｓ株式会社,,株式会社,埼玉県,北葛飾郡杉戸町,大字堤根８９６－１８,,11,464,3450024,,,,,,,2024-12-04,1,,,,,アリマス,0
1822,7030003025588,新規,0,2024-12-04,2024-12-04,Ｍ＆Ｍ合同会社,,合同会社,埼玉県,八潮市,大瀬４丁目８番地１シティテラス八潮８２３,,11,234,3400822,,,,,,,2024-12-04,1,,,,,エムアンドエム,0
1823,7030003025613,新規,0,2024-12-04,2024-12-04,ＵＣＯＳケアプラン＆成年後見センター合同会社,,合同会社,埼玉県,さいたま市北区,大成町４丁目６２１番地１ダイアパレス大宮大成７０４,,11,102,3310815,,,,,,,2024-12-04,1,,,,,ユウコスケアプランアンドセイネンコウケンセンター,0
1824,7030005021965,新規,0,2024-12-04,2024-12-04,土地家屋調査士法人中田測量事務所,,その他の設立登記法人,埼玉県,春日部市,中央４丁目７番地４,,11,214,3440067,,,,,,,2024-12-04,1,,,,,ナカダソクリョウジムショ,0
1836,7040001136403,新規,0,2024-12-04,2024-12-04,株式会社誠真,,株式会社,千葉県,富津市,下飯野６９０番地,,12,226,2930006,,,,,,,2024-12-04,1,,,,,セイシン,0
1837,7040001136411,新規,0,2024-12-04,2024-12-04,株式会社ネクスト・プロダクター,,株式会社,千葉県,鎌ケ谷市,道野辺１０５０番地１４,,12,224,2730114,,,,,,,2024-12-04,1,,,,,ネクストプロダクター,0
1842,7050003008863,新規,0,2024-12-04,2024-12-04,合同会社みらい光電科学,,合同会社,茨城県,つくば市,御幸が丘３４（ｉｎｎｏ－ｂａｓｅＴＳＵＫＵＢＡ内）,,08,220,3050841,,,,,,,2024-12-04,1,,,,,ミライコウデンカガク,0
1845,7060001037698,新規,0,2024-12-04,2024-12-04,株式会社みのり商事,,株式会社,栃木県,宇都宮市,下栗町４９１－３,,09,201,3210923,,,,,,,2024-12-04,1,,,,,ミノリショウジ,0
1846,7060001037707,新規,0,2024-12-04,2024-12-04,株式会社菱沼園芸,,株式会社,栃木県,芳賀郡芳賀町,大字北長島１３番地,,09,345,3213323,,,,,,,2024-12-04,1,,,,,ヒシヌマエンゲイ,0
1847,7060005010271,新規,0,2024-12-04,2024-12-04,一般社団法人いきいきライフ協会アンドユー,,その他の設立登記法人,栃木県,宇都宮市,大通り５丁目２番８号ＡＣアネックスビル,,09,201,3200811,,,,,,,2024-12-04,1,,,,,イキイキライフキョウカイアンドユー,0
1850,7070001042425,新規,0,2024-12-04,2024-12-04,株式会社都,,株式会社,群馬県,安中市,高別当４１７番地７,,10,211,3790132,,,,,,,2024-12-04,1,,,,,ミヤコ,0
1857,7080101025171,新規,0,2024-12-04,2024-12-04,株式会社ｎｅｃｏ,,株式会社,静岡県,裾野市,稲荷２６番地の８ドリームハイツ１０４,,22,220,4101113,,,,,,,2024-12-04,1,,,,,ネコ,0
1862,7090001019033,新規,0,2024-12-04,2024-12-04,株式会社ライフサービス,,株式会社,山梨県,笛吹市,石和町広瀬６２３番地２０クラウドナイン３０２,,19,211,4060035,,,,,,,2024-12-04,1,,,,,ライフサービス,0
1866,7100003007892,新規,0,2024-12-04,2024-12-04,合同会社華都,,合同会社,長野県,須坂市,大字日滝３７５番地３,,20,207,3820000,,,,,,,2024-12-04,1,,,,,カト,0
1873,7120001270763,新規,0,2024-12-04,2024-12-04,株式会社キャリニング,,株式会社,大阪府,大阪市東淀川区,瑞光２丁目１番３号ダイドーメゾン上新庄１０５号室,,27,114,5330005,,,,,,,2024-12-04,1,,,,,キャリニング,0
1874,7120001270796,新規,0,2024-12-04,2024-12-04,株式会社ＥＣグローバル,,株式会社,大阪府,大阪市中央区,鎗屋町１丁目２－６ザ・スペース鑓屋町６０１,,27,128,5400027,,,,,,,2024-12-04,1,,,,,イーシーグローバル,0
1875,7120001270805,新規,0,2024-12-04,2024-12-04,ＳＨＩＮＥ株式会社,,株式会社,大阪府,大阪市西淀川区,佃３丁目１８番２５境ハイツ１０８号,,27,113,5550001,,,,,,,2024-12-04,1,,,,,シャイン,0
1877,7120003028086,新規,0,2024-12-04,2024-12-04,Ｌｏｖｅｒｅｇｉｏｎ合同会社,,合同会社,大阪府,大阪市城東区,蒲生２丁目４番１９号,,27,118,5360016,,,,,,,2024-12-04,1,,,,,ラブリージョン,0
1879,7120005024645,新規,0,2024-12-04,2024-12-04,社会保険労務士法人下川＆パートナーズ,,その他の設立登記法人,大阪府,大阪市中央区,安土町２丁目３番１３号,,27,128,5410052,,,,,,,2024-12-04,1,,,,,シモカワアンドパートナーズ,0
1883,7120101070700,新規,0,2024-12-04,2024-12-04,株式会社山長,,株式会社,大阪府,和泉市,父鬼町１４７番地の２,,27,219,5941132,,,,,,,2024-12-04,1,,,,,ヤマチョウ,0
1884,7120103006173,新規,0,2024-12-04,2024-12-04,合同会社翔吉,,合同会社,大阪府,羽曳野市,河原城４７５－２,,27,222,5830867,,,,,,,2024-12-04,1,,,,,ショウキチ,0
1894,7130001078495,新規,0,2024-12-04,2024-12-04,ＭＬＧＨ株式会社,,株式会社,京都府,京都市左京区,岩倉幡枝町６０１－５５,,26,103,6060015,,,,,,,2024-12-04,1,,,,,エムエルジーエイチ,0
1895,7130001078504,新規,0,2024-12-04,2024-12-04,ＳＭＡＲＴＷＡＹ株式会社,,株式会社,京都府,八幡市,橋本栗ケ谷３７番地の４７,,26,210,6148327,,,,,,,2024-12-04,1,,,,,スマートウェー,0
1896,7130001078512,新規,0,2024-12-04,2024-12-04,株式会社ことのは,,株式会社,京都府,京都市北区,紫竹栗栖町１６カサビエハ３０１号,,26,101,6038435,,,,,,,2024-12-04,1,,,,,コトノハ,0
1900,7140001136590,新規,0,2024-12-04,2024-12-04,株式会社ＧＬノルディック,,株式会社,兵庫県,神戸市中央区,北本町通４丁目２番２０号,,28,110,6510075,,,,,,,2024-12-04,1,,,,,ジーエルノルディック,0
1903,7140003021378,新規,0,2024-12-04,2024-12-04,合同会社オレンジ,,合同会社,兵庫県,姫路市,飾東町庄２９８番地１ハイツＥ－ＭＡＴＥ１０６,,28,201,6710218,,,,,,,2024-12-04,1,,,,,オレンジ,0
1904,7140003021386,新規,0,2024-12-04,2024-12-04,合同会社ｎａｒｕ,,合同会社,兵庫県,神戸市東灘区,渦森台３丁目２番２号,,28,101,6580066,,,,,,,2024-12-04,1,,,,,ナル,0
1908,7160001026385,新規,0,2024-12-04,2024-12-04,株式会社エフアンドビイ,,株式会社,滋賀県,湖南市,水戸町２６番地４,,25,211,5203215,,,,,,,2024-12-04,1,,,,,エフアンドビイ,0
1911,7170001018398,新規,0,2024-12-04,2024-12-04,株式会社初山クリエイション,,株式会社,和歌山県,田辺市,明洋２丁目７番８号,,30,206,6460062,,,,,,,2024-12-04,1,,,,,ハツヤマクリエイション,0
1922,7180001164349,新規,0,2024-12-04,2024-12-04,松尾築炉ホールディングス株式会社,,株式会社,愛知県,瀬戸市,東茨町６０番１８,,23,204,4890897,,,,,,,2024-12-04,1,,,,,マツオチクロホールディングス,0
1923,7180001164381,新規,0,2024-12-04,2024-12-04,株式会社Ｂｓ　ｏｎｅ,,株式会社,愛知県,名古屋市中川区,澄池町５番２３号,,23,110,4540806,,,,,,,2024-12-04,1,,,,,ビーエスワン,0
1924,7180001164456,新規,0,2024-12-04,2024-12-04,株式会社Ｌａ　ｎｕｏｖａ　ＳＹＯＮ,,株式会社,愛知県,名古屋市中区,丸の内１丁目１０番２５号,,23,106,4600002,,,,,,,2024-12-04,1,,,,,ラヌオーバシオン,0
1930,7180301039291,新規,0,2024-12-04,2024-12-04,大田グェン株式会社,,株式会社,愛知県,岡崎市,大門３丁目１７番地１７,,23,202,4442135,,,,,,,2024-12-04,1,,,,,オオタグェン,0
1931,7180301039300,新規,0,2024-12-04,2024-12-04,株式会社仟極,,株式会社,愛知県,岡崎市,康生通南３丁目３９番地,,23,202,4440044,,,,,,,2024-12-04,1,,,,,センゴク,0
1933,7180303006356,新規,0,2024-12-04,2024-12-04,アップルラボ合同会社,,合同会社,愛知県,豊田市,丸山町４丁目３番地５３,,23,211,4710832,,,,,,,2024-12-04,1,,,,,アップルラボ,0
1939,7200001043186,新規,0,2024-12-04,2024-12-04,ＲＥＮＥＲＧＹ販売株式会社,,株式会社,岐阜県,岐阜市,領下７丁目６番地,,21,201,5008241,,,,,,,2024-12-04,1,,,,,リナジィハンバイ,0
1946,7230001020645,新規,0,2024-12-04,2024-12-04,Ｄ‐１ｓｔ株式会社,,株式会社,富山県,富山市,長柄町１丁目１番６号,,16,201,9300076,,,,,,,2024-12-04,1,,,,,ディーファースト,0
1953,7260001039690,新規,0,2024-12-04,2024-12-04,株式会社Ｆａｂｉｏ,,株式会社,岡山県,井原市,木之子町１８８番地３,,33,207,7150004,,,,,,,2024-12-04,1,,,,,ファビオ,0
1954,7260001039699,新規,0,2024-12-04,2024-12-04,株式会社ＨＡＮＤＳ　ＴＲＡＤＥ,,株式会社,岡山県,瀬戸内市,邑久町箕輪３７番地１,,33,212,7014253,,,,,,,2024-12-04,1,,,,,ハンズトレード,0
1956,7270003001689,新規,0,2024-12-04,2024-12-04,合同会社中元屋,,合同会社,鳥取県,米子市,上福原２丁目１７番３０号（スペースロイヤル１０１号）,,31,202,6830004,,,,,,,2024-12-04,1,,,,,ナカモトヤ,0
1962,7290001108204,新規,0,2024-12-04,2024-12-04,株式会社Ｓ・Ｈ・Ｕ,,株式会社,福岡県,糟屋郡志免町,桜丘１丁目５番１号,,40,343,8112201,,,,,,,2024-12-04,1,,,,,エスエイチユー,0
1965,7290003016140,新規,0,2024-12-04,2024-12-04,合同会社ＷＡＴＡＳＨＩＮＯ,,合同会社,福岡県,福岡市東区,馬出３丁目１５番２５－３１１号,,40,131,8120054,,,,,,,2024-12-04,1,,,,,ワタシノ,0
1968,7300001013996,新規,0,2024-12-04,2024-12-04,株式会社ひととき工舎,,株式会社,佐賀県,唐津市,佐志中通３１４３番地２,,41,202,8470114,,,,,,,2024-12-04,1,,,,,ヒトトキコウシャ,0
1972,7320001020850,新規,0,2024-12-04,2024-12-04,ひとかん株式会社,,株式会社,大分県,大分市,府内町３丁目３番１６号峯野第１０ビル３０１号,,44,201,8700021,,,,,,,2024-12-04,1,,,,,ヒトカン,0
1982,7360003014500,新規,0,2024-12-04,2024-12-04,合同会社ＡＯ企画,,合同会社,沖縄県,沖縄市,松本１丁目７番２号１０１号室,,47,211,9042151,,,,,,,2024-12-04,1,,,,,エーオーキカク,0
1990,7430001093183,新規,0,2024-12-04,2024-12-04,株式会社ファミリー,,株式会社,北海道,石狩市,樽川４４９番地２,,01,235,0613251,,,,,,,2024-12-04,1,,,,,ファミリー,0
1991,7430001093209,新規,0,2024-12-04,2024-12-04,株式会社えでぃとぐら,,株式会社,北海道,札幌市北区,新琴似一条１３丁目４番１８号,,01,102,0010901,,,,,,,2024-12-04,1,,,,,エディトグラ,0
2000,7500003003380,新規,0,2024-12-04,2024-12-04,ＳＳＩＳＳＴＥＲ合同会社,,合同会社,愛媛県,西条市,喜多川６０１番地１４,,38,206,7930042,,,,,,,2024-12-04,1,,,,,シスター,0
2011,8010001250354,新規,0,2024-12-04,2024-12-04,株式会社ＺＥＮ　ＤＥＳＩＧＮ,,株式会社,東京都,中央区,銀座１丁目１２番４号Ｎ＆ＥＢＬＤ．６Ｆ,,13,102,1040061,,,,,,,2024-12-04,1,,,,,ゼンデザイン,0
2012,8010001250395,新規,0,2024-12-04,2024-12-04,株式会社ＣｏｍｐｏｓｅＦｌｏｗ,,株式会社,東京都,中央区,銀座１丁目１２番４号Ｎ＆ＥＢＬＤ．６Ｆ,,13,102,1040061,,,,,,,2024-12-04,1,,,,,コンポーズフロー,0
2013,8010001250412,新規,0,2024-12-04,2024-12-04,ＲＩＭＯＤＡ株式会社,,株式会社,東京都,中央区,湊２丁目１１番１号,,13,102,1040043,,,,,,,2024-12-04,1,,,,,リモダ,0
2015,8010003045604,新規,0,2024-12-04,2024-12-04,合同会社ｂｅｙｏｎｄ２号,,合同会社,東京都,千代田区,霞が関３丁目２番５号,,13,101,1000013,,,,,,,2024-12-04,1,,,,,ビヨンドニゴウ,0
2016,8010003045653,新規,0,2024-12-04,2024-12-04,合同会社いのちの寺小屋,,合同会社,東京都,中央区,日本橋室町１丁目１１番１２号日本橋水野ビル７階,,13,102,1030022,,,,,,,2024-12-04,1,,,,,イノチノテラコヤ,0
2024,8010401186792,新規,0,2024-12-04,2024-12-04,株式会社ミライ,,株式会社,東京都,港区,浜松町２丁目２番１５号浜松町ダイヤビル２階,,13,103,1050013,,,,,,,2024-12-04,1,,,,,ミライ,0
2025,8010401186801,新規,0,2024-12-04,2024-12-04,株式会社Ａｎｅｌａ,,株式会社,東京都,港区,高輪１丁目２３番３３号４０２,,13,103,1080074,,,,,,,2024-12-04,1,,,,,アネラ,0
2027,8010403033951,新規,0,2024-12-04,2024-12-04,合同会社ローツェ・インベストメンツ,,合同会社,東京都,港区,浜松町２丁目２番６号大塚ビル３階,,13,103,1050013,,,,,,,2024-12-04,1,,,,,ローツェインベストメンツ,0
2033,8010601066415,新規,0,2024-12-04,2024-12-04,株式会社豊寅国際,,株式会社,東京都,江東区,大島３丁目８番７－１００６号,,13,108,1360072,,,,,,,2024-12-04,1,,,,,トヨトラコクサイ,0
2036,8010603011253,新規,0,2024-12-04,2024-12-04,合同会社Ｋ’ｓ　ｅａｔｅｒｙ,,合同会社,東京都,江東区,東砂３丁目１６番６－５０３号,,13,108,1360074,,,,,,,2024-12-04,1,,,,,ケーズイータリー,0
2038,8010701046928,新規,0,2024-12-04,2024-12-04,同心力株式会社,,株式会社,東京都,品川区,東五反田１丁目１９番４号,,13,109,1410022,,,,,,,2024-12-04,1,,,,,ドウシンリョク,0
2042,8010901056413,新規,0,2024-12-04,2024-12-04,株式会社進代,,株式会社,東京都,世田谷区,上馬１丁目３４番１９－１０６号,,13,112,1540011,,,,,,,2024-12-04,1,,,,,シンダイ,0
2057,8011101109804,新規,0,2024-12-04,2024-12-04,株式会社ＥｎＰｏｎｐｕ,,株式会社,東京都,新宿区,西新宿３丁目３番１３号西新宿水間ビル２Ｆ,,13,104,1600023,,,,,,,2024-12-04,1,,,,,エンポンプ,0
2059,8011103015249,新規,0,2024-12-04,2024-12-04,合同会社さんほうが,,合同会社,東京都,新宿区,西新宿３丁目３番１３号西新宿水間ビル６階,,13,104,1600023,,,,,,,2024-12-04,1,,,,,サンホウガ,0
2061,8011201025967,新規,0,2024-12-04,2024-12-04,フォーシズンスビル株式会社,,株式会社,東京都,中野区,沼袋４丁目２７番１５号フォーシズンスビル,,13,114,1650025,,,,,,,2024-12-04,1,,,,,フォーシズンスビル,0
2062,8011201025975,新規,0,2024-12-04,2024-12-04,株式会社ＤＯＶＥ　ＣＯＭＰＡＮＹ,,株式会社,東京都,中野区,弥生町５丁目６番２３号ファブリックレジデンス中野Ｂ号室,,13,114,1640013,,,,,,,2024-12-04,1,,,,,ダブカンパニー,0
2065,8011401026625,新規,0,2024-12-04,2024-12-04,株式会社ＣｒａｖｅＨｕｂ,,株式会社,東京都,板橋区,蓮根１丁目２９番７号,,13,119,1740046,,,,,,,2024-12-04,1,,,,,クレイブハブ,0
2069,8011601028256,新規,0,2024-12-04,2024-12-04,東京麦麦家株式会社,,株式会社,東京都,練馬区,中村北１丁目１１番３号フォーラムイン東京１００６号室,,13,120,1760023,,,,,,,2024-12-04,1,,,,,トウキョウマイマイカ,0
2073,8011703004048,新規,0,2024-12-04,2024-12-04,ＡＩビジネス合同会社,,合同会社,東京都,江戸川区,小松川１丁目５－１メゾンリバーサイド高層棟６０７,,13,123,1320034,,,,,,,2024-12-04,1,,,,,エーアイビジネス,0
2089,8020001160453,新規,0,2024-12-04,2024-12-04,株式会社ＢＥＬＡＮＩ,,株式会社,神奈川県,横浜市西区,北幸２丁目５番１３号,,14,103,2200004,,,,,,,2024-12-04,1,,,,,ベラニ,0
2091,8020003027386,新規,0,2024-12-04,2024-12-04,合同会社３ＫＲ,,合同会社,神奈川県,川崎市麻生区,万福寺４丁目３番７－１１５号,,14,137,2150004,,,,,,,2024-12-04,1,,,,,スリーケーアール,0
2092,8020003027394,新規,0,2024-12-04,2024-12-04,合同会社ＫＳＭ,,合同会社,神奈川県,川崎市麻生区,はるひ野５丁目４番３号,,14,137,2150036,,,,,,,2024-12-04,1,,,,,ケーエスエム,0
2094,8020005016627,新規,0,2024-12-04,2024-12-04,一般社団法人ＹＳＬアソシエーション,,その他の設立登記法人,神奈川県,横浜市南区,吉野町３丁目７番地ヘンミビル２階,,14,105,2320014,,,,,,,2024-12-04,1,,,,,ワイエスエルアソシエーション,0
2100,8021005013234,新規,0,2024-12-04,2024-12-04,一般社団法人認知症・フレイル予防推進協会,,その他の設立登記法人,神奈川県,相模原市緑区,西橋本２丁目１５番１－２０１号,,14,151,2520131,,,,,,,2024-12-04,1,,,,,ニンチショウフレイルヨボウスイシンキョウカイ,0
2107,8030001163736,新規,0,2024-12-04,2024-12-04,株式会社ファーストロード,,株式会社,埼玉県,川口市,大字石神１６６６番地の１ラフレ仲道Ｄ１０２号,,11,203,3330823,,,,,,,2024-12-04,1,,,,,ファーストロード,0
2108,8030001163744,新規,0,2024-12-04,2024-12-04,株式会社美爽健,,株式会社,埼玉県,飯能市,栄町１１番地１０アクエス飯能栄町１０５号室,,11,209,3570025,,,,,,,2024-12-04,1,,,,,ビソウケン,0
2109,8030001163752,新規,0,2024-12-04,2024-12-04,株式会社ＭＩＹＡＫＥＮ,,株式会社,埼玉県,さいたま市見沼区,大字南中丸１５４０番地４,,11,104,3370041,,,,,,,2024-12-04,1,,,,,ミヤケン,0
2110,8030001163769,新規,0,2024-12-04,2024-12-04,株式会社甲,,株式会社,埼玉県,所沢市,上新井５丁目３７番地の７,,11,208,3591142,,,,,,,2024-12-04,1,,,,,キノエ,0
2111,8030001163785,新規,0,2024-12-04,2024-12-04,株式会社アドボ,,株式会社,埼玉県,和光市,白子１丁目１４番３号,,11,229,3510101,,,,,,,2024-12-04,1,,,,,アドボ,0
2112,8030001163793,新規,0,2024-12-04,2024-12-04,株式会社玖逸,,株式会社,埼玉県,川越市,寿町１丁目２２８３番地１２,,11,201,3501116,,,,,,,2024-12-04,1,,,,,キュウイツ,0
2113,8030001163810,新規,0,2024-12-04,2024-12-04,株式会社シティックジャパン,,株式会社,埼玉県,蕨市,中央３丁目２２番２４号,,11,223,3350004,,,,,,,2024-12-04,1,,,,,シティックジャパン,0
2117,8030002125553,新規,0,2024-12-04,2024-12-04,井上産業有限会社,,有限会社,埼玉県,川口市,大字三ツ和８５１番地,,11,203,3340011,,,,,,,2024-12-04,1,,,,,,0
2119,8030003025579,新規,0,2024-12-04,2024-12-04,解体匠合同会社,,合同会社,埼玉県,川口市,戸塚東１丁目２２－１０,,11,203,3330802,,,,,,,2024-12-04,1,,,,,カイタイタクミ,0
2120,8030003025612,新規,0,2024-12-04,2024-12-04,住まいる合同会社,,合同会社,埼玉県,さいたま市見沼区,大字御蔵１１８６番地４,,11,104,3370033,,,,,,,2024-12-04,1,,,,,スマイル,0
2121,8030003025629,新規,0,2024-12-04,2024-12-04,合同会社オーズファミリア,,合同会社,埼玉県,北足立郡伊奈町,中央５丁目１９３番地３,,11,301,3620809,,,,,,,2024-12-04,1,,,,,オーズファミリア,0
2123,8040001136393,新規,0,2024-12-04,2024-12-04,株式会社ＡｏＫａｎａ,,株式会社,千葉県,船橋市,丸山２丁目４０番１４－２号,,12,204,2730048,,,,,,,2024-12-04,1,,,,,アオカナ,0
2124,8040001136410,新規,0,2024-12-04,2024-12-04,浩和土木株式会社,,株式会社,千葉県,茂原市,下永吉３６７番地８,,12,210,2970035,,,,,,,2024-12-04,1,,,,,ヒロカズドボク,0
2125,8040001136419,新規,0,2024-12-04,2024-12-04,株式会社シーグラス,,株式会社,千葉県,市川市,市川１丁目２３番８号,,12,203,2720034,,,,,,,2024-12-04,1,,,,,シーグラス,0
2128,8060001037697,新規,0,2024-12-04,2024-12-04,東京パワー不動産株式会社,,株式会社,栃木県,宇都宮市,今宮４丁目１８番３３号,,09,201,3210166,,,,,,,2024-12-04,1,,,,,トウキョウパワーフドウサン,0
2137,8080101025154,新規,0,2024-12-04,2024-12-04,大洋興業株式会社,,株式会社,静岡県,下田市,白浜１０２番地の１,,22,219,4150012,,,,,,,2024-12-04,1,,,,,タイヨウコウギョウ,0
2142,8090001019032,新規,0,2024-12-04,2024-12-04,株式会社ｍｏｒｅ　ｄｏ,,株式会社,山梨県,甲府市,下曽根町１１３３番地１,,19,201,4001508,,,,,,,2024-12-04,1,,,,,モアドゥ,0
2146,8100001038071,新規,0,2024-12-04,2024-12-04,雪城国際株式会社,,株式会社,長野県,北安曇郡白馬村,大字北城８２８番地１０－１０３,,20,485,3999301,,,,,,,2024-12-04,1,,,,,ユキシロコクサイ,0
2158,8120001270787,新規,0,2024-12-04,2024-12-04,株式会社ＨａｌａｓｉＣａ,,株式会社,大阪府,大阪市中央区,龍造寺町３番１２－１００１号,,27,128,5400014,,,,,,,2024-12-04,1,,,,,ハラシカ,0
2159,8120001270804,新規,0,2024-12-04,2024-12-04,荷楓株式会社,,株式会社,大阪府,大阪市西成区,鶴見橋１丁目１０番１４号１０４室,,27,122,5570031,,,,,,,2024-12-04,1,,,,,カフウ,0
2160,8120001270820,新規,0,2024-12-04,2024-12-04,東ＨＯＵＳＥ株式会社,,株式会社,大阪府,大阪市生野区,新今里６丁目３番１０－５０６号,,27,116,5440001,,,,,,,2024-12-04,1,,,,,ヒガシハウス,0
2161,8120003028093,新規,0,2024-12-04,2024-12-04,合同会社Ｒｏｏｔ　Ｅｉｇｈｔ,,合同会社,大阪府,大阪市西区,江戸堀２丁目１番１号江戸堀センタービル９階,,27,106,5500002,,,,,,,2024-12-04,1,,,,,ルートエイト,0
2163,8120101070682,新規,0,2024-12-04,2024-12-04,株式会社ＭＡＯＮ,,株式会社,大阪府,松原市,阿保４丁目９番２２号,,27,217,5800043,,,,,,,2024-12-04,1,,,,,マオン,0
2165,8120901050124,新規,0,2024-12-04,2024-12-04,株式会社レゴリス,,株式会社,大阪府,吹田市,江の木町３番１１号第３ロンヂェビル５階,,27,205,5640053,,,,,,,2024-12-04,1,,,,,レゴリス,0
2170,8130001078453,新規,0,2024-12-04,2024-12-04,株式会社関鉄保安サービス,,株式会社,京都府,与謝郡与謝野町,字石川８７４番地４,,26,465,6292303,,,,,,,2024-12-04,1,,,,,カンテツホアンサービス,0
2171,8130001078503,新規,0,2024-12-04,2024-12-04,ビースタイル株式会社,,株式会社,京都府,京都市山科区,西野山桜ノ馬場町１２３,,26,110,6078308,,,,,,,2024-12-04,1,,,,,ビースタイル,0
2178,8140001136458,新規,0,2024-12-04,2024-12-04,Ｒｅｌｙｍａｔｅ株式会社,,株式会社,兵庫県,神戸市中央区,北長狭通３丁目７番３号玉川ビル４階,,28,110,6500012,,,,,,,2024-12-04,1,,,,,レリーメイト,0
2184,8170003002135,新規,0,2024-12-04,2024-12-04,合同会社ＮＥＸＳＴＥＲ,,合同会社,和歌山県,和歌山市,岡円福院東ノ丁１２第２ＮＫビル２０３号室,,30,201,6408361,,,,,,,2024-12-04,1,,,,,ネクスター,0
2193,8180001164397,新規,0,2024-12-04,2024-12-04,日本外国語技能教習センター株式会社,,株式会社,愛知県,清須市,朝日天王１３０番地１,,23,233,4520932,,,,,,,2024-12-04,1,,,,,ニホンガイコクゴギノウキョウシュウセンター,0
2194,8180001164406,新規,0,2024-12-04,2024-12-04,株式会社山川,,株式会社,愛知県,名古屋市北区,神明町４３番地の２,,23,103,4620859,,,,,,,2024-12-04,1,,,,,ヤマカワ,0
2195,8180001164414,新規,0,2024-12-04,2024-12-04,株式会社ＢＥＡＴＮＩＫ,,株式会社,愛知県,岩倉市,西市町東畑田１７１番地２,,23,228,4820036,,,,,,,2024-12-04,1,,,,,ビートニック,0
2200,8180301039282,新規,0,2024-12-04,2024-12-04,株式会社スピネル,,株式会社,愛知県,豊橋市,横須賀町組替１１番地１サンハイツＯＫＡＤＡ１０５,,23,201,4400093,,,,,,,2024-12-04,1,,,,,スピネル,0
2201,8180301039290,新規,0,2024-12-04,2024-12-04,株式会社カーデン,,株式会社,愛知県,碧南市,池下町２丁目１７番地,,23,209,4470023,,,,,,,2024-12-04,1,,,,,カーデン,0
2202,8180303006363,新規,0,2024-12-04,2024-12-04,テック合同会社,,合同会社,愛知県,豊橋市,山田二番町４４番地の１２,,23,201,4418104,,,,,,,2024-12-04,1,,,,,テック,0
2203,8190001031852,新規,0,2024-12-04,2024-12-04,株式会社平和ファーム,,株式会社,三重県,津市,白塚町２４１９番地,,24,201,5140101,,,,,,,2024-12-04,1,,,,,ヘイワファーム,0
2211,8260001039698,新規,0,2024-12-04,2024-12-04,株式会社ＥＡ‐Ｍ,,株式会社,岡山県,備前市,吉永町岩崎５４１番地２,,33,211,7090226,,,,,,,2024-12-04,1,,,,,イーエーエム,0
2214,8290001108186,新規,0,2024-12-04,2024-12-04,ｆｏｒ　ａｌｐｈａ株式会社,,株式会社,福岡県,飯塚市,川津９５番地３１,,40,205,8200067,,,,,,,2024-12-04,1,,,,,フォーアルファ,0
2218,8290003016148,新規,0,2024-12-04,2024-12-04,合同会社トクマル,,合同会社,福岡県,うきは市,吉井町徳丸４２７番地２,,40,225,8391302,,,,,,,2024-12-04,1,,,,,,0
2222,8290801031083,新規,0,2024-12-04,2024-12-04,株式会社Ｓｍｉｌｅ　Ｓｕｐｐｏｒｔ,,株式会社,福岡県,北九州市八幡西区,菅原町３－２３　５０５,,40,109,8060027,,,,,,,2024-12-04,1,,,,,スマイルサポート,0
2223,8290801031091,新規,0,2024-12-04,2024-12-04,株式会社モノコトラボ,,株式会社,福岡県,直方市,大字頓野１９２１番地１フォレスタけやき１０８,,40,204,8220002,,,,,,,2024-12-04,1,,,,,モノコトラボ,0
2224,8290801031100,新規,0,2024-12-04,2024-12-04,株式会社Ｋａｎ,,株式会社,福岡県,北九州市八幡西区,星ケ丘６丁目４－２１,,40,109,8071264,,,,,,,2024-12-04,1,,,,,カン,0
2229,8320005010203,新規,0,2024-12-04,2024-12-04,税理士法人此本経理事務所,,その他の設立登記法人,大分県,別府市,北浜２丁目６番１０号,,44,202,8740920,,,,,,,2024-12-04,1,,,,,コノモトケイリジムショ,0
2233,8330001032695,新規,0,2024-12-04,2024-12-04,株式会社ＢＳＫプロジェクト,,株式会社,熊本県,熊本市中央区,下通１丁目１１－１１－１Ｆ,,43,101,8600807,,,,,,,2024-12-04,1,,,,,ビーエスケープロジェクト,0
2234,8330001032712,新規,0,2024-12-04,2024-12-04,株式会社まつぺ,,株式会社,熊本県,宇城市,松橋町松橋１１９番地２,,43,213,8690502,,,,,,,2024-12-04,1,,,,,マツペ,0
2248,8380001034951,新規,0,2024-12-04,2024-12-04,株式会社ロングスロー,,株式会社,福島県,福島市,栄町６番７号,,07,201,9608031,,,,,,,2024-12-04,1,,,,,ロングスロー,0
2252,8410001014009,新規,0,2024-12-04,2024-12-04,株式会社Ｃ＆Ｊ　Ｆａｍｉｌｉａｒ,,株式会社,秋田県,秋田市,土崎港北３丁目４番５１号,,05,201,0110941,,,,,,,2024-12-04,1,,,,,シーアンドジェイファミリア,0
2254,8420001018941,新規,0,2024-12-04,2024-12-04,株式会社ルートエナジー,,株式会社,青森県,八戸市,八太郎６丁目５番２３号,,02,203,0391168,,,,,,,2024-12-04,1,,,,,ルートエナジー,0
2255,8430003017049,新規,0,2024-12-04,2024-12-04,合同会社夢や菓子工房,,合同会社,北海道,札幌市東区,北四十一条東１８丁目３番８－８０１号,,01,103,0070841,,,,,,,2024-12-04,1,,,,,ユメヤカシコウボウ,0
2256,8430005015117,新規,0,2024-12-04,2024-12-04,一般社団法人敬咲会令樹クリニック,,その他の設立登記法人,北海道,札幌市中央区,南二条東４丁目６番２号,,01,101,0600052,,,,,,,2024-12-04,1,,,,,ケイショウカイレイジュクリニック,0
2257,8450001014459,新規,0,2024-12-04,2024-12-04,株式会社ＦＲＮＤ,,株式会社,北海道,富良野市,本町１０番３号,,01,229,0760031,,,,,,,2024-12-04,1,,,,,エフアールエヌディー,0
2263,8470001020488,新規,0,2024-12-04,2024-12-04,株式会社ＴＭ,,株式会社,香川県,高松市,木太町２０１５番地１　１０２,,37,201,7600080,,,,,,,2024-12-04,1,,,,,タミ,0
2278,9010001250477,新規,0,2024-12-04,2024-12-04,ＳＦホールディングス株式会社,,株式会社,東京都,千代田区,大手町１丁目６番１号,,13,101,1000004,,,,,,,2024-12-04,1,,,,,エスエフホールディングス,0
2282,9010003045603,新規,0,2024-12-04,2024-12-04,合同会社ｂｅｙｏｎｄ１号,,合同会社,東京都,千代田区,霞が関３丁目２番５号,,13,101,1000013,,,,,,,2024-12-04,1,,,,,ビヨンドイチゴウ,0
2283,9010003045636,新規,0,2024-12-04,2024-12-04,合同会社ＳＷＣ,,合同会社,東京都,中央区,銀座１丁目１２番４号Ｎ＆ＥＢＬＤ．６Ｆ,,13,102,1040061,,,,,,,2024-12-04,1,,,,,エスダブリュシー,0
2292,9010401186668,新規,0,2024-12-04,2024-12-04,ＡＤジャパン株式会社,,株式会社,東京都,港区,赤坂１丁目１４番１５号第３５興和ビル別館４階,,13,103,1070052,,,,,,,2024-12-04,1,,,,,エイディージャパン,0
2293,9010401186800,新規,0,2024-12-04,2024-12-04,ＫｅｉＯｎｅ株式会社,,株式会社,東京都,港区,高輪１丁目２３番３３号４０２,,13,103,1080074,,,,,,,2024-12-04,1,,,,,ケイワン,0
2294,9010401186809,新規,0,2024-12-04,2024-12-04,株式会社エス・エム・エスウェルフェアテクノロジー,,株式会社,東京都,港区,芝公園２丁目１１番１号,,13,103,1050011,,,,,,,2024-12-04,1,,,,,エスエムエスウェルフェアテクノロジー,0
2303,9010601066397,新規,0,2024-12-04,2024-12-04,キンバ株式会社,,株式会社,東京都,江東区,亀戸３丁目６２番１０－２０６号,,13,108,1360071,,,,,,,2024-12-04,1,,,,,キンバ,0
2304,9010601066406,新規,0,2024-12-04,2024-12-04,Ｂｉｏ　Ｃａｒｂｏｎ　Ｆａｃｔｏｒｙ　Ｙａｍａｎａｓｈｉ株式会社,,株式会社,東京都,江東区,木場３丁目１８番１７号,,13,108,1350042,,,,,,,2024-12-04,1,,,,,バイオカーボンファクトリーヤマナシ,0
2305,9010601066414,新規,0,2024-12-04,2024-12-04,澤悦株式会社,,株式会社,東京都,墨田区,向島４丁目３－８グレイス向島２０１－Ｄ,,13,107,1310033,,,,,,,2024-12-04,1,,,,,タクエツ,0
2306,9010601066430,新規,0,2024-12-04,2024-12-04,関東設備株式会社,,株式会社,東京都,江東区,大島４丁目１－８－２０２公社西大島住宅８号棟,,13,108,1360072,,,,,,,2024-12-04,1,,,,,カントウセツビ,0
2308,9010603011244,新規,0,2024-12-04,2024-12-04,合同会社ＣＡＭＰＯ　ＢＡＲ,,合同会社,東京都,墨田区,江東橋４丁目２８番３号ビフールドビル３階,,13,107,1300022,,,,,,,2024-12-04,1,,,,,カンプバー,0
2309,9010701046935,新規,0,2024-12-04,2024-12-04,環境Ｅｎｅｒｇｙ株式会社,,株式会社,東京都,品川区,南大井１丁目４番９号,,13,109,1400013,,,,,,,2024-12-04,1,,,,,カンキョウエナジー,0
2312,9010801035623,新規,0,2024-12-04,2024-12-04,株式会社聖栄工業,,株式会社,東京都,大田区,蒲田１丁目８－１４－３０１,,13,111,1440052,,,,,,,2024-12-04,1,,,,,セイエイコウギョウ,0
2313,9010801035631,新規,0,2024-12-04,2024-12-04,株式会社サイコッチョー,,株式会社,東京都,大田区,羽田旭町２番６号,,13,111,1440042,,,,,,,2024-12-04,1,,,,,サイコッチョー,0
2318,9010901056412,新規,0,2024-12-04,2024-12-04,こもれび庭芸株式会社,,株式会社,東京都,世田谷区,玉川３丁目２０番２号マノア玉川第３ビル５０１号室,,13,112,1580094,,,,,,,2024-12-04,1,,,,,コモレビテイゲイ,0
2321,9011001166317,新規,0,2024-12-04,2024-12-04,株式会社ＵＥＤ,,株式会社,東京都,渋谷区,道玄坂１丁目１０番８号渋谷道玄坂東急ビル２Ｆ－Ｃ,,13,113,1500043,,,,,,,2024-12-04,1,,,,,ユーイーディー,0
2322,9011001166325,新規,0,2024-12-04,2024-12-04,株式会社ＬＤＸデザインクラウド,,株式会社,東京都,目黒区,下目黒１丁目２番１４号,,13,110,1530064,,,,,,,2024-12-04,1,,,,,エルディーエックスデザインクラウド,0
2327,9011101109811,新規,0,2024-12-04,2024-12-04,株式会社ＳＮＫ,,株式会社,東京都,新宿区,歌舞伎町１丁目９番６号,,13,104,1600021,,,,,,,2024-12-04,1,,,,,エスエヌケイ,0
2328,9011103015248,新規,0,2024-12-04,2024-12-04,合同会社ＴＭ企画,,合同会社,東京都,新宿区,西新宿３丁目３番１３号西新宿水間ビル２Ｆ,,13,104,1600023,,,,,,,2024-12-04,1,,,,,ティーエムキカク,0
2331,9011201025966,新規,0,2024-12-04,2024-12-04,株式会社スリーエイチ,,株式会社,東京都,中野区,中央２丁目５８番１５号コートドール坂上１０１,,13,114,1640011,,,,,,,2024-12-04,1,,,,,スリーエイチ,0
2332,9011201025974,新規,0,2024-12-04,2024-12-04,株式会社ミタスコスメ,,株式会社,東京都,中野区,大和町３丁目２０－３ザ・レジデンス高円寺１０１,,13,114,1650034,,,,,,,2024-12-04,1,,,,,ミタスコスメ,0
2335,9011401026616,新規,0,2024-12-04,2024-12-04,株式会社アイガーマネジメント,,株式会社,東京都,板橋区,板橋１丁目１８番６号,,13,119,1730004,,,,,,,2024-12-04,1,,,,,アイガーマネジメント,0
2343,9012401042529,新規,0,2024-12-04,2024-12-04,株式会社ＬＡＲＡ,,株式会社,東京都,武蔵野市,吉祥寺本町１丁目４番１５号ホワイトハウスビル３０１,,13,203,1800004,,,,,,,2024-12-04,1,,,,,ララ,0
2352,9013301053450,新規,0,2024-12-04,2024-12-04,メナージュ株式会社,,株式会社,東京都,豊島区,長崎１丁目２６番３号,,13,116,1710051,,,,,,,2024-12-04,1,,,,,メナージュ,0
2360,9020001160444,新規,0,2024-12-04,2024-12-04,株式会社ミートキング,,株式会社,神奈川県,横浜市南区,白妙町１丁目１番地,,14,105,2320023,,,,,,,2024-12-04,1,,,,,ミートキング,0
2364,9020003027344,新規,0,2024-12-04,2024-12-04,合同会社画写映好,,合同会社,神奈川県,横浜市西区,浅間町１丁目４番３号ウィザードビル４０２,,14,103,2200072,,,,,,,2024-12-04,1,,,,,ガシャエイコウ,0
2365,9020003027385,新規,0,2024-12-04,2024-12-04,ＬｉＳコンサルティング合同会社,,合同会社,神奈川県,川崎市川崎区,駅前本町１１番地２川崎フロンティアビル４階,,14,131,2100007,,,,,,,2024-12-04,1,,,,,エルアイエスコンサルティング,0
2370,9021001083899,新規,0,2024-12-04,2024-12-04,株式会社幸の羽ダイニング,,株式会社,神奈川県,平塚市,明石町２１番６号,,14,203,2540042,,,,,,,2024-12-04,1,,,,,コノハダイニング,0
2371,9021001083908,新規,0,2024-12-04,2024-12-04,株式会社ＢＳＳ,,株式会社,神奈川県,愛甲郡愛川町,中津２６７１番地の９,,14,401,2430303,,,,,,,2024-12-04,1,,,,,ビーエスエス,0
2372,9021001083916,新規,0,2024-12-04,2024-12-04,株式会社ビーシー,,株式会社,神奈川県,相模原市中央区,上溝７丁目１５番２１号,,14,152,2520243,,,,,,,2024-12-04,1,,,,,ビーシー,0
2373,9021001083940,新規,0,2024-12-04,2024-12-04,忠享株式会社,,株式会社,神奈川県,茅ヶ崎市,円蔵２丁目８番４６号２階,,14,207,2530084,,,,,,,2024-12-04,1,,,,,チュウキョウ,0
2379,9030001163710,新規,0,2024-12-04,2024-12-04,東方国際株式会社,,株式会社,埼玉県,蕨市,中央６丁目９－５,,11,223,3350004,,,,,,,2024-12-04,1,,,,,トウホウコクサイ,0
2380,9030001163735,新規,0,2024-12-04,2024-12-04,上善若水株式会社,,株式会社,埼玉県,越谷市,南越谷４丁目１１番地５トラビ南越谷６Ｆ－０２,,11,222,3430845,,,,,,,2024-12-04,1,,,,,ジョウゼンジャクスイ,0
2381,9030001163751,新規,0,2024-12-04,2024-12-04,株式会社魁建築事務所,,株式会社,埼玉県,所沢市,松葉町１９番２号,,11,208,3590044,,,,,,,2024-12-04,1,,,,,カイケンチクジムショ,0
2382,9030001163784,新規,0,2024-12-04,2024-12-04,株式会社リセド,,株式会社,埼玉県,越谷市,南越谷１丁目１５－１南越谷ラクーン４Ｆ,,11,222,3430845,,,,,,,2024-12-04,1,,,,,,0
2383,9030001163792,新規,0,2024-12-04,2024-12-04,宏海商事株式会社,,株式会社,埼玉県,川口市,本町１丁目９番４号,,11,203,3320012,,,,,,,2024-12-04,1,,,,,コウカイショウジ,0
2388,9030005021963,新規,0,2024-12-04,2024-12-04,グローバルヒューマン協同組合,,その他の設立登記法人,埼玉県,熊谷市,万平町１丁目１６番,,11,202,3600034,,,,,,,2024-12-04,1,,,,,グローバルヒューマン,0
2393,9040001136392,新規,0,2024-12-04,2024-12-04,株式会社リアン,,株式会社,千葉県,我孫子市,市柴崎台三丁目２１番１７号,,12,222,2701100,,,,,,,2024-12-04,1,,,,,リアン,0
2399,9040005022580,新規,0,2024-12-04,2024-12-04,一般社団法人ならしの市民電力,,その他の設立登記法人,千葉県,習志野市,東習志野４丁目１１番８号,,12,216,2750001,,,,,,,2024-12-04,1,,,,,ナラシノシミンデンリョク,0
2403,9050001055815,新規,0,2024-12-04,2024-12-04,ハルメド株式会社,,株式会社,茨城県,つくば市,北条４３２６番地２,,08,220,3004231,,,,,,,2024-12-04,1,,,,,ハルメド,0
2404,9050001055823,新規,0,2024-12-04,2024-12-04,株式会社Ｐｒｉｍｅ,,株式会社,茨城県,水戸市,大工町１丁目１番１５号ステージビル１階,,08,201,3100031,,,,,,,2024-12-04,1,,,,,プライム,0
2405,9050003008861,新規,0,2024-12-04,2024-12-04,合同会社ミラント,,合同会社,茨城県,守谷市,中央１丁目１５番地１３,,08,224,3020115,,,,,,,2024-12-04,1,,,,,ミラント,0
2408,9070001042423,新規,0,2024-12-04,2024-12-04,ＴＴＣリアルエステート株式会社,,株式会社,群馬県,太田市,龍舞町１９６３番地５０,,10,205,3730806,,,,,,,2024-12-04,1,,,,,ティティシィリアルエステート,0
2411,9080103003207,新規,0,2024-12-04,2024-12-04,合同会社ヒロキ,,合同会社,静岡県,沼津市,高沢町１０－２２藤和シティコープ沼津７０１,,22,203,4100057,,,,,,,2024-12-04,1,,,,,ヒロキ,0
2414,9090001019031,新規,0,2024-12-04,2024-12-04,株式会社Ｅスタッフ,,株式会社,山梨県,中央市,若宮３８番地１０,,19,214,4093803,,,,,,,2024-12-04,1,,,,,イースタッフ,0
2417,9100001038070,新規,0,2024-12-04,2024-12-04,白馬リゾート開発株式会社,,株式会社,長野県,北安曇郡白馬村,大字北城１４７１８番地１７４,,20,485,3999301,,,,,,,2024-12-04,1,,,,,ハクバリゾートカイハツ,0
2438,9120001270638,新規,0,2024-12-04,2024-12-04,ダイナデジタル株式会社,,株式会社,大阪府,大阪市港区,港晴３丁目１番１１－２０２Ｃ,,27,107,5520023,,,,,,,2024-12-04,1,,,,,ダイナデジタル,0
2439,9120001270695,新規,0,2024-12-04,2024-12-04,彩洋株式会社,,株式会社,大阪府,大阪市淀川区,木川西１丁目６番２７号５０５Ａ,,27,123,5320013,,,,,,,2024-12-04,1,,,,,サイヨウ,0
2440,9120001270786,新規,0,2024-12-04,2024-12-04,株式会社大実,,株式会社,大阪府,大阪市福島区,福島８丁目１７－３－１Ｆ,,27,103,5530003,,,,,,,2024-12-04,1,,,,,オオミ,0
2441,9120001270794,新規,0,2024-12-04,2024-12-04,富石株式会社,,株式会社,大阪府,大阪市西成区,岸里東１丁目２２－１－２０１号,,27,122,5570042,,,,,,,2024-12-04,1,,,,,トミイシ,0
2442,9120001270803,新規,0,2024-12-04,2024-12-04,辰星株式会社,,株式会社,大阪府,大阪市西成区,萩之茶屋２丁目８－３－３０９号室,,27,122,5570004,,,,,,,2024-12-04,1,,,,,シンセイ,0
2443,9120001270811,新規,0,2024-12-04,2024-12-04,大成株式会社,,株式会社,大阪府,大阪市生野区,桃谷３丁目２０番２５号桃谷ハイツ２０７号室,,27,116,5440034,,,,,,,2024-12-04,1,,,,,タイセイ,0
2448,9120003028092,新規,0,2024-12-04,2024-12-04,合同会社ＵＮＳ,,合同会社,大阪府,大阪市都島区,都島本通２丁目１０番７－６０３号,,27,102,5340021,,,,,,,2024-12-04,1,,,,,ユーエヌエス,0
2450,9120901050115,新規,0,2024-12-04,2024-12-04,株式会社Ｔ’ｓコーポレーション,,株式会社,大阪府,豊中市,上新田１丁目２４番Ｍ－２０７号,,27,203,5600085,,,,,,,2024-12-04,1,,,,,ティーズコーポレーション,0
2468,9140001136639,新規,0,2024-12-04,2024-12-04,株式会社ＮＫＲ,,株式会社,兵庫県,神戸市東灘区,甲南町２丁目４番１２－５０２号,,28,101,6580084,,,,,,,2024-12-04,1,,,,,エヌケーアール,0
2473,9160001026391,新規,0,2024-12-04,2024-12-04,株式会社ＴＮＧ　Ｃｏｎｓｕｌｔｉｎｇ,,株式会社,滋賀県,大津市,仰木２丁目６番５号,,25,201,5200247,,,,,,,2024-12-04,1,,,,,ティーエヌジーコンサルティング,0
2476,9170003002134,新規,0,2024-12-04,2024-12-04,合同会社吉野,00137235,合同会社,和歌山県,和歌山市,木ノ本７５４番地６,,30,201,6408453,,,,,,,2024-12-04,1,,,,,ヨシノ,0
2486,9180001164388,新規,0,2024-12-04,2024-12-04,株式会社Ｒｅ,,株式会社,愛知県,名古屋市北区,水草町１丁目６１番地の９,,23,103,4620042,,,,,,,2024-12-04,1,,,,,アールイー,0
2487,9180001164396,新規,0,2024-12-04,2024-12-04,株式会社リク・サポ,,株式会社,愛知県,名古屋市中村区,名駅３丁目２２番４号,,23,105,4500002,,,,,,,2024-12-04,1,,,,,リクサポ,0
2488,9180001164438,新規,0,2024-12-04,2024-12-04,株式会社スマートネットワークス,,株式会社,愛知県,春日井市,角崎町３２番地１,,23,206,4860943,,,,,,,2024-12-04,1,,,,,スマートネットワークス,0
2490,9180301039281,新規,0,2024-12-04,2024-12-04,株式会社ＭＡＶＥＲＩＣＫ　ＪＡＰＡＮ,,株式会社,愛知県,岡崎市,中岡崎町４番地４中岡崎ビル２Ｆ,,23,202,4440921,,,,,,,2024-12-04,1,,,,,マーヴェリックジャパン,0
2493,9200001043192,新規,0,2024-12-04,2024-12-04,アセット・マネジメント株式会社,,株式会社,岐阜県,中津川市,福岡９７８番地６２,,21,206,5080203,,,,,,,2024-12-04,1,,,,,アセットマネジメント,0
2494,9200001043201,新規,0,2024-12-04,2024-12-04,株式会社Ｌｉｅｎ．,,株式会社,岐阜県,各務原市,那加西野町１７５番地４フォレスト三本木１Ｆ－Ｅ,,21,213,5040968,,,,,,,2024-12-04,1,,,,,リアン,0
2499,9240001064185,新規,0,2024-12-04,2024-12-04,株式会社ホーイックグルメ,,株式会社,広島県,福山市,明神町１丁目２番４０号,,34,207,7210961,,,,,,,2024-12-04,1,,,,,ホーイックグルメ,0
2500,9240001064202,新規,0,2024-12-04,2024-12-04,株式会社ＯＬＡＦ,,株式会社,広島県,広島市西区,三篠町１丁目３番１２－３０２号,,34,104,7330003,,,,,,,2024-12-04,1,,,,,オラフ,0
2501,9240001064210,新規,0,2024-12-04,2024-12-04,株式会社ネクサスやまだ,,株式会社,広島県,呉市,阿賀中央９丁目１番９号,,34,202,7370003,,,,,,,2024-12-04,1,,,,,ネクサスヤマダネクサスヤマダヤマダ,0
2504,9240003006961,新規,0,2024-12-04,2024-12-04,合同会社ラキ,,合同会社,広島県,広島市西区,南観音７丁目１４－１４－１００２,,34,104,7330035,,,,,,,2024-12-04,1,,,,,ラキ,0
2505,9250001007028,新規,0,2024-12-04,2024-12-04,泰平石油サービス株式会社,,株式会社,山口県,下関市,大字幡生一町５番,,35,201,7500000,,,,,,,2024-12-04,1,,,,,タイヘイセキユサービス,0
2507,9250001020922,新規,0,2024-12-04,2024-12-04,株式会社ＨＥＡＴ,,株式会社,山口県,大島郡周防大島町,大字小松字北町１１５４番２,,35,305,7422106,,,,,,,2024-12-04,1,,,,,ヒート,0
2514,9280001009302,新規,0,2024-12-04,2024-12-04,株式会社Ｃｈｌｏｒｏｓ,,株式会社,島根県,松江市,乃白町３９４番地４,,32,201,6900045,,,,,,,2024-12-04,1,,,,,クロロス,0
2519,9290001108177,新規,0,2024-12-04,2024-12-04,和木川株式会社,,株式会社,福岡県,糸島市,高祖１５２１番地１階０１室,,40,230,8191571,,,,,,,2024-12-04,1,,,,,ワキガワ,0
2520,9290001108193,新規,0,2024-12-04,2024-12-04,株式会社シルト,,株式会社,福岡県,福岡市東区,香椎２丁目５番４０号,,40,131,8130011,,,,,,,2024-12-04,1,,,,,シルト,0
2521,9290001108202,新規,0,2024-12-04,2024-12-04,株式会社ヘンゲンジザイ,,株式会社,福岡県,福岡市東区,香住ヶ丘６丁目２６番２３号,,40,131,8130003,,,,,,,2024-12-04,1,,,,,ヘンゲンジザイ,0
2527,9290805009785,新規,0,2024-12-04,2024-12-04,ＮＰＯ法人めいくＹＯＵすまいる,,その他の設立登記法人,福岡県,北九州市戸畑区,西大谷２丁目３番３２号,,40,105,8040032,,,,,,,2024-12-04,1,,,,,メイクユウスマイル,0
2537,9340001026968,新規,0,2024-12-04,2024-12-04,株式会社薩摩匠建,,株式会社,鹿児島県,鹿児島市,南郡元町１８番８号,,46,201,8900069,,,,,,,2024-12-04,1,,,,,サツマショウケン,0
2545,9380001034959,新規,0,2024-12-04,2024-12-04,株式会社コバリ左官,,株式会社,福島県,石川郡玉川村,大字小高字丑久保５４番地の１,,07,502,9636312,,,,,,,2024-12-04,1,,,,,コバリサカン,0
2552,9430001093198,新規,0,2024-12-04,2024-12-04,株式会社Ｎ‐ＴＥＣ,,株式会社,北海道,札幌市東区,北三十七条東２９丁目１７番６号,,01,103,0070837,,,,,,,2024-12-04,1,,,,,エヌテック,0
2557,9470001020487,新規,0,2024-12-04,2024-12-04,株式会社池田裕一郎古物商事務所,,株式会社,香川県,丸亀市,綾歌町栗熊東１２３０番地１,,37,202,7612406,,,,,,,2024-12-04,1,,,,,,0
2558,9470003002764,新規,0,2024-12-04,2024-12-04,合同会社ＧＲＯＷＴＨ　ＯＮＥ,,合同会社,香川県,坂出市,元町１丁目１番１号,,37,203,7620045,,,,,,,2024-12-04,1,,,,,グロースワン,0
