sequenceNumber,corporateNumber,process,correct,updateDate,changeDate,name,nameImageId,kind,prefectureName,cityName,streetNumber,addressImageId,prefectureCode,cityCode,postCode,addressOutside,addressOutsideImageId,closeDate,closeCause,successorCorporateNumber,changeCause,assignmentDate,latest,enName,enPrefectureName,enCityName,enAddressOutside,furigana,hihyoji
4,1010001249213,新規,0,2024-10-23,2024-10-23,株式会社ＭＡＲＴＨＡ　ＴＯＫＹＯ,,株式会社,東京都,千代田区,神田多町２丁目１１番地２８中林ビル２Ｆ,,13,101,1010046,,,,,,,2024-10-23,1,,,,,マーサトウキョウ,0
5,1010001249270,新規,0,2024-10-23,2024-10-23,株式会社アイル・インドネシア,,株式会社,東京都,中央区,銀座６丁目１５番１号,,13,102,1040061,,,,,,,2024-10-23,1,,,,,アイルインドネシア,0
6,1010001249304,新規,0,2024-10-23,2024-10-23,吉祥貴金属株式会社,,株式会社,東京都,中央区,晴海フラッグシービレッジＣ棟１００４,,13,102,1030000,,,,,,,2024-10-23,1,,,,,キッショキキンゾク,0
7,1010001249320,新規,0,2024-10-23,2024-10-23,株式会社ａｏ暁コンサルティング,,株式会社,東京都,千代田区,神田神保町３丁目１０宝栄ビル３０１,,13,101,1010051,,,,,,,2024-10-23,1,,,,,アオアカツキコンサルティング,0
22,1010401185801,新規,0,2024-10-23,2024-10-23,株式会社森輝,,株式会社,東京都,港区,芝２丁目２８－１１芝ＭＫビル５階ＬｉｎｋＳｐａｃｅ芝５０３室,,13,103,1050014,,,,,,,2024-10-23,1,,,,,シンキ,0
23,1010401185891,新規,0,2024-10-23,2024-10-23,株式会社Ａ‐ＪＡＳ,,株式会社,東京都,港区,新橋２丁目１６番１－８０３号,,13,103,1050004,,,,,,,2024-10-23,1,,,,,エージャス,0
24,1010401185925,新規,0,2024-10-23,2024-10-23,株式会社ＧＪ１,,株式会社,東京都,港区,虎ノ門１丁目３番１号,,13,103,1050001,,,,,,,2024-10-23,1,,,,,ジージェーイチ,0
30,1010403033611,新規,0,2024-10-23,2024-10-23,合同会社Ｒｅａｌ　Ｇｒｏｏｖｅ,,合同会社,東京都,港区,北青山１丁目３番１号アールキューブ青山３階,,13,103,1070061,,,,,,,2024-10-23,1,,,,,リアルグルーヴ,0
31,1010403033644,新規,0,2024-10-23,2024-10-23,ピーク・エナジー・ジャパン・アセット１合同会社,,合同会社,東京都,港区,芝大門２丁目１２番３号共生ビル２号館７階,,13,103,1050012,,,,,,,2024-10-23,1,,,,,ピークエナジージャパンアセットワン,0
38,1010501053073,新規,0,2024-10-23,2024-10-23,ＴＯＹＯＲＯＢＯ株式会社,,株式会社,東京都,台東区,台東２丁目１２番２号,,13,106,1100016,,,,,,,2024-10-23,1,,,,,トーヨーロボ,0
47,1010801035481,新規,0,2024-10-23,2024-10-23,株式会社Ｄ　Ｔｅｃｈ　Ｉｎｎｏｖａｔｉｏｎｓ,,株式会社,東京都,大田区,東糀谷６丁目４番１７号ＯＴＡテクノＣＯＲＥ４０９号室,,13,111,1440033,,,,,,,2024-10-23,1,,,,,ディーテックイノベーションズ,0
48,1010801035498,新規,0,2024-10-23,2024-10-23,株式会社リフィックス,,株式会社,東京都,大田区,南馬込５丁目３８番７号第一ルミナール南馬込３０７,,13,111,1430025,,,,,,,2024-10-23,1,,,,,リフィックス,0
59,1011001165334,新規,0,2024-10-23,2024-10-23,株式会社ＴＯＹコーポレーション,,株式会社,東京都,渋谷区,神南１丁目１２番１７号神南大井ビル,,13,113,1500041,,,,,,,2024-10-23,1,,,,,トイコーポレーション,0
60,1011001165350,新規,0,2024-10-23,2024-10-23,株式会社エリッシュ,,株式会社,東京都,目黒区,目黒本町６丁目１８番１８－１０６号目黒本町レジデンス,,13,110,1520002,,,,,,,2024-10-23,1,,,,,エリッシュ,0
61,1011001165367,新規,0,2024-10-23,2024-10-23,ワンネス株式会社,,株式会社,東京都,目黒区,中根１丁目８番２５号,,13,110,1520031,,,,,,,2024-10-23,1,,,,,ワンネス,0
62,1011003020215,新規,0,2024-10-23,2024-10-23,合同会社チアイズクリエイション,,合同会社,東京都,目黒区,自由が丘２丁目１６－１２ＲＪ３,,13,110,1520035,,,,,,,2024-10-23,1,,,,,チアイズクリエイション,0
63,1011003020223,新規,0,2024-10-23,2024-10-23,合同会社ＫｎＲ,,合同会社,東京都,目黒区,大橋２丁目８番１８号ドエル大橋６０１,,13,110,1530044,,,,,,,2024-10-23,1,,,,,ケーエヌアール,0
66,1011101109067,新規,0,2024-10-23,2024-10-23,立人株式会社,,株式会社,東京都,新宿区,百人町１丁目１８－８大久保カドビル２０４号室Ｃ０３,,13,104,1690073,,,,,,,2024-10-23,1,,,,,タテニン,0
68,1011103015040,新規,0,2024-10-23,2024-10-23,合同会社千晴,,合同会社,東京都,新宿区,北新宿１丁目３０－２１ＴＳハウスＢ２,,13,104,1690074,,,,,,,2024-10-23,1,,,,,チハル,0
69,1011203004505,新規,0,2024-10-23,2024-10-23,合同会社ｏｈａｎａ,,合同会社,東京都,中野区,江古田３丁目７番７号,,13,114,1650022,,,,,,,2024-10-23,1,,,,,オハナ,0
77,1011601028139,新規,0,2024-10-23,2024-10-23,株式会社八霜,,株式会社,東京都,練馬区,桜台１丁目３５番１３号,,13,120,1760002,,,,,,,2024-10-23,1,,,,,ヤシモ,0
82,1012801023508,新規,0,2024-10-23,2024-10-23,株式会社ＲＥＩＷＡ,,株式会社,東京都,昭島市,大神町２丁目１０番１９号,,13,207,1960013,,,,,,,2024-10-23,1,,,,,レイワ,0
93,1020001159683,新規,0,2024-10-23,2024-10-23,株式会社ＫＡＩコンサルティング事務所,,株式会社,神奈川県,横浜市港北区,箕輪町３丁目５番９の２号,,14,109,2230051,,,,,,,2024-10-23,1,,,,,カイコンサルティングジムショ,0
96,1020003027095,新規,0,2024-10-23,2024-10-23,合同会社Ａｕｇｅｎｂｌｉｃｋ,,合同会社,神奈川県,川崎市幸区,南幸町２丁目７７番地１クリオレジダンス南幸町７０３,,14,132,2120016,,,,,,,2024-10-23,1,,,,,アウゲンブリック,0
100,1021001083527,新規,0,2024-10-23,2024-10-23,スリーアローズ株式会社,,株式会社,神奈川県,平塚市,明石町１６－１８－１Ｆ,,14,203,2540042,,,,,,,2024-10-23,1,,,,,スリーアローズ,0
101,1021001083551,新規,0,2024-10-23,2024-10-23,株式会社Ｉｓ　Ｙｏｕ,,株式会社,神奈川県,高座郡寒川町,岡田５丁目１番８号,,14,321,2530105,,,,,,,2024-10-23,1,,,,,イズユー,0
102,1021001083584,新規,0,2024-10-23,2024-10-23,株式会社栄湘サービス,,株式会社,神奈川県,鎌倉市,腰越１丁目８番２０号シーサイドメゾン七里ヶ浜１０１,,14,204,2480033,,,,,,,2024-10-23,1,,,,,エイショウサービス,0
112,1030001163049,新規,0,2024-10-23,2024-10-23,株式会社Ｇｒａｂ　Ｄｅｓｉｒｅ,,株式会社,埼玉県,ふじみ野市,ふじみ野４丁目１１番３号,,11,245,3560050,,,,,,,2024-10-23,1,,,,,グラブディザイア,0
113,1030001163057,新規,0,2024-10-23,2024-10-23,Ｐａｌｐｕｎｔｅホールディングス株式会社,,株式会社,埼玉県,さいたま市大宮区,吉敷町１丁目８１番地１ＨＩビルディング３階Ａフロア,,11,103,3300843,,,,,,,2024-10-23,1,,,,,パルプンテホールディングス,0
114,1030001163065,新規,0,2024-10-23,2024-10-23,株式会社スターゲート・インターナショナル,,株式会社,埼玉県,入間郡三芳町,大字上富２０４１番地１０,,11,324,3540045,,,,,,,2024-10-23,1,,,,,スターゲートインターナショナル,0
115,1030001163073,新規,0,2024-10-23,2024-10-23,株式会社ハンズテック,,株式会社,埼玉県,所沢市,林１丁目２１４番地,,11,208,3591167,,,,,,,2024-10-23,1,,,,,ハンズテック,0
116,1030001163081,新規,0,2024-10-23,2024-10-23,株式会社Ｋ＆Ｉ　ＡＩＲ　ＳＹＳＴＥＭ,,株式会社,埼玉県,新座市,堀ノ内３丁目７番４１号,,11,230,3520023,,,,,,,2024-10-23,1,,,,,ケーアンドアイエアーシステム,0
117,1030001163107,新規,0,2024-10-23,2024-10-23,株式会社楽林ハウス,,株式会社,埼玉県,さいたま市南区,大字大谷口６０１－９,,11,108,3360042,,,,,,,2024-10-23,1,,,,,ラクリンハウス,0
118,1030001163115,新規,0,2024-10-23,2024-10-23,株式会社Ｔ‐Ｆｒｅｅ,,株式会社,埼玉県,本庄市,小島１丁目４－４４,,11,211,3670061,,,,,,,2024-10-23,1,,,,,ティーフリー,0
123,1030003025354,新規,0,2024-10-23,2024-10-23,合同会社ＵＮＩＴＹ　ＷＯＲＫＳ,,合同会社,埼玉県,所沢市,大字松郷７０番地の２,,11,208,3590027,,,,,,,2024-10-23,1,,,,,ユニティワークス,0
124,1030005021896,新規,0,2024-10-23,2024-10-23,Ｍ．来光事業協同組合,,その他の設立登記法人,埼玉県,比企郡吉見町,大字大串９８３番,,11,347,3550134,,,,,,,2024-10-23,1,,,,,エムライコウ,0
129,1040001135897,新規,0,2024-10-23,2024-10-23,株式会社はまや,,株式会社,千葉県,市川市,国府台４丁目７番３８号,,12,203,2720827,,,,,,,2024-10-23,1,,,,,ハマヤ,0
137,1050001055566,新規,0,2024-10-23,2024-10-23,ＳＡ環境株式会社,,株式会社,茨城県,古河市,水海２２４３番地３,,08,204,3060215,,,,,,,2024-10-23,1,,,,,エスエーカンキョウ,0
138,1050003008753,新規,0,2024-10-23,2024-10-23,合同会社奏建設工業,,合同会社,茨城県,神栖市,堀割２丁目１０番１６号,,08,232,3140135,,,,,,,2024-10-23,1,,,,,カナデケンセツコウギョウ,0
146,1070003005625,新規,0,2024-10-23,2024-10-23,Ｔｏｐｐｅｒｈｏｕｓｅ合同会社,,合同会社,群馬県,伊勢崎市,国定町２丁目２０９０番地１ニッケイハウス７,,10,204,3792221,,,,,,,2024-10-23,1,,,,,トッパーハウス,0
147,1080001026564,新規,0,2024-10-23,2024-10-23,えがお広告株式会社,,株式会社,静岡県,焼津市,方ノ上３５５番地の４,,22,212,4250005,,,,,,,2024-10-23,1,,,,,エガオコウコク,0
152,1080401027526,新規,0,2024-10-23,2024-10-23,藤華株式会社,,株式会社,静岡県,浜松市中央区,小豆餅３丁目９番８号,,22,138,4338113,,,,,,,2024-10-23,1,,,,,フジカ,0
154,1100001037955,新規,0,2024-10-23,2024-10-23,株式会社Ｂｏｔｔｏｍｓ　ｕｐ,,株式会社,長野県,駒ヶ根市,上穂北３０番１７号,,20,210,3994116,,,,,,,2024-10-23,1,,,,,ボトムズアップ,0
159,1110005017143,新規,0,2024-10-23,2024-10-23,医療法人社団あかね会,,その他の設立登記法人,新潟県,胎内市,あかね町２６番２５号,,15,227,9592659,,,,,,,2024-10-23,1,,,,,アカネカイ,0
166,1120001269555,新規,0,2024-10-23,2024-10-23,株式会社ＫｕＫｕＮａ,,株式会社,大阪府,大阪市中央区,常磐町二丁目１番１号２０１,,27,128,5390000,,,,,,,2024-10-23,1,,,,,ククナ,0
167,1120001269588,新規,0,2024-10-23,2024-10-23,株式会社ポジティブ,,株式会社,大阪府,大阪市平野区,長吉長原４丁目１８番４１号６０１,,27,126,5470016,,,,,,,2024-10-23,1,,,,,ポジティブ,0
168,1120001269638,新規,0,2024-10-23,2024-10-23,株式会社ビジョナリーパート,,株式会社,大阪府,大阪市東淀川区,東中島２丁目２０－１８－９０９,,27,114,5330033,,,,,,,2024-10-23,1,,,,,ビジョナリーパート,0
169,1120001269654,新規,0,2024-10-23,2024-10-23,金田技研株式会社,,株式会社,大阪府,守口市,金田町６丁目２番７‐３０１,,27,209,5700011,,,,,,,2024-10-23,1,,,,,キンダギケン,0
170,1120003027795,新規,0,2024-10-23,2024-10-23,合同会社Ａｒａ,,合同会社,大阪府,大阪市生野区,新今里５丁目１５番１７－５Ｄ号室,,27,116,5440001,,,,,,,2024-10-23,1,,,,,アラ,0
176,1120901049932,新規,0,2024-10-23,2024-10-23,株式会社辻ガラス建材,00136718,株式会社,大阪府,豊中市,箕輪２丁目７番７号,,27,203,5600035,,,,,,,2024-10-23,1,,,,,ツジガラスケンザイ,0
177,1120901049940,新規,0,2024-10-23,2024-10-23,株式会社エムトラスト,,株式会社,大阪府,吹田市,内本町１丁目１３番２号,,27,205,5640032,,,,,,,2024-10-23,1,,,,,エムトラスト,0
182,1130001078187,新規,0,2024-10-23,2024-10-23,ミズノワ株式会社,,株式会社,京都府,京都市山科区,大宅細田町５０番地,,26,110,6078189,,,,,,,2024-10-23,1,,,,,ミズノワ,0
187,1140001136175,新規,0,2024-10-23,2024-10-23,株式会社ハートパスクリエイト,,株式会社,兵庫県,神戸市中央区,磯辺通１丁目１番１８号カサベラ国際プラザビル７０７,,28,110,6510084,,,,,,,2024-10-23,1,,,,,,0
190,1140003021219,新規,0,2024-10-23,2024-10-23,合同会社ＮＤＣ,,合同会社,兵庫県,尼崎市,下坂部２丁目２６番２０号レジス城の堀３０１号,,28,202,6610975,,,,,,,2024-10-23,1,,,,,エヌディーシー,0
196,1160001026300,新規,0,2024-10-23,2024-10-23,株式会社安和,,株式会社,滋賀県,近江八幡市,安土町下豊浦５４１５番地５,,25,204,5211311,,,,,,,2024-10-23,1,,,,,アンワ,0
197,1170003002117,新規,0,2024-10-23,2024-10-23,合同会社Ａｒｃ,,合同会社,和歌山県,岩出市,備前４２プチ・ツール２－Ａ,,30,209,6496233,,,,,,,2024-10-23,1,,,,,アーク,0
206,1180001163728,新規,0,2024-10-23,2024-10-23,ｎｅｗｍｏ東海株式会社,,株式会社,愛知県,名古屋市昭和区,鶴舞１丁目２番３２号,,23,107,4660064,,,,,,,2024-10-23,1,,,,,ニューモトウカイ,0
214,1180301039165,新規,0,2024-10-23,2024-10-23,株式会社ハルミ不動産,,株式会社,愛知県,みよし市,三好町上１番地１,,23,236,4700224,,,,,,,2024-10-23,1,,,,,ハルミフドウサン,0
216,1180305009619,新規,0,2024-10-23,2024-10-23,一般社団法人日本犬の森,,その他の設立登記法人,愛知県,新城市,作手善夫字カイリケ２９番１３,,23,221,4411403,,,,,,,2024-10-23,1,,,,,ニホンケンノモリ,0
221,1200001043068,新規,0,2024-10-23,2024-10-23,株式会社ＣＯＵＬＥＵＲ,,株式会社,岐阜県,岐阜市,鏡島２０２５番地２,,21,201,5010111,,,,,,,2024-10-23,1,,,,,クルール,0
227,1220001026285,新規,0,2024-10-23,2024-10-23,株式会社ＡＬＩ,,株式会社,石川県,能美市,宮竹町２３６番地市営宮竹住宅・１－１０４号,,17,211,9231205,,,,,,,2024-10-23,1,,,,,アリ,0
232,1240001063995,新規,0,2024-10-23,2024-10-23,ニシムラ産業株式会社,,株式会社,広島県,廿日市市,阿品４丁目２２番１２号,,34,213,7380054,,,,,,,2024-10-23,1,,,,,ニシムラサンギョウ,0
233,1250001020855,新規,0,2024-10-23,2024-10-23,Ｓ‐ＬＩＦＥ株式会社,,株式会社,山口県,防府市,大字大崎５０４番５号,,35,206,7470065,,,,,,,2024-10-23,1,,,,,エスライフ,0
250,1290001107707,新規,0,2024-10-23,2024-10-23,Ｊ’ｓ株式会社,,株式会社,福岡県,久留米市,山本町耳納３８９番地４,,40,203,8390826,,,,,,,2024-10-23,1,,,,,ジェイズ,0
251,1290001107715,新規,0,2024-10-23,2024-10-23,ドローン点検株式会社,,株式会社,福岡県,福岡市東区,箱崎３丁目２番５号,,40,131,8120053,,,,,,,2024-10-23,1,,,,,ドローンテンケン,0
252,1290001107723,新規,0,2024-10-23,2024-10-23,株式会社バウムデザイン,,株式会社,福岡県,福岡市早良区,西新３丁目６番８号,,40,137,8140002,,,,,,,2024-10-23,1,,,,,バウムデザイン,0
255,1290003015908,新規,0,2024-10-23,2024-10-23,合同会社ロジカルファーミング,,合同会社,福岡県,朝倉郡筑前町,朝園１９４１－３,,40,447,8380817,,,,,,,2024-10-23,1,,,,,ロジカルファーミング,0
256,1290003015973,新規,0,2024-10-23,2024-10-23,合同会社博多花,,合同会社,福岡県,福岡市中央区,警固２丁目２番２５－２０５号,,40,133,8100023,,,,,,,2024-10-23,1,,,,,ハカタハナ,0
264,1320003004502,新規,0,2024-10-23,2024-10-23,氣創建合同会社,,合同会社,大分県,大分市,大字猪野１４０９番地１シャングリラ猪野２０１号,,44,201,8700134,,,,,,,2024-10-23,1,,,,,キソウケン,0
265,1330001032561,新規,0,2024-10-23,2024-10-23,かいくみ株式会社,,株式会社,熊本県,熊本市西区,島崎２丁目１－３０－１００４,,43,103,8600073,,,,,,,2024-10-23,1,,,,,カイクミ,0
275,1370003006790,新規,0,2024-10-23,2024-10-23,合同会社エムケープロダクション,,合同会社,宮城県,仙台市太白区,あすと長町１丁目５番４２－１０１１号,,04,104,9820007,,,,,,,2024-10-23,1,,,,,エムケープロダクション,0
287,1430001092926,新規,0,2024-10-23,2024-10-23,株式会社ワンストップサービス,,株式会社,北海道,札幌市西区,山の手三条５丁目２番２０－２０２号,,01,107,0630003,,,,,,,2024-10-23,1,,,,,ワンストップサービス,0
309,2010001249229,新規,0,2024-10-23,2024-10-23,株式会社ＢＩＫＯ,,株式会社,東京都,中央区,東日本橋３丁目７番１２号,,13,102,1030004,,,,,,,2024-10-23,1,,,,,ビコー,0
310,2010001249278,新規,0,2024-10-23,2024-10-23,株式会社Ｋ＆Ａ,,株式会社,東京都,千代田区,東神田３丁目５番１号５０３,,13,101,1010031,,,,,,,2024-10-23,1,,,,,ケーアンドエー,0
311,2010001249303,新規,0,2024-10-23,2024-10-23,スリーピラーズ株式会社,,株式会社,東京都,千代田区,外神田３丁目６－１第一協和ビル２階,,13,101,1010021,,,,,,,2024-10-23,1,,,,,スリーピラーズ,0
320,2010401185890,新規,0,2024-10-23,2024-10-23,株式会社ＡＹＬＡキャピタル,,株式会社,東京都,港区,麻布十番１丁目５番１０号,,13,103,1060045,,,,,,,2024-10-23,1,,,,,アイラキャピタル,0
321,2010401185899,新規,0,2024-10-23,2024-10-23,株式会社０ｐｘ,,株式会社,東京都,港区,浜松町２丁目２番１５号浜松町ダイヤビル２Ｆ,,13,103,1050013,,,,,,,2024-10-23,1,,,,,ゼロピクセル,0
327,2010601066148,新規,0,2024-10-23,2024-10-23,ＮＯＲＲＩ株式会社,,株式会社,東京都,江東区,豊洲６丁目４番３４号メブクス豊洲１Ｆ,,13,108,1350061,,,,,,,2024-10-23,1,,,,,ノーリ,0
329,2010701046727,新規,0,2024-10-23,2024-10-23,株式会社ＤＧ,,株式会社,東京都,品川区,西五反田８丁目１０番２１号Ｏｆｆｉｃｅｎｉｓｈｉｇｏｔａｎｎｄａ８ｔｈＤ号室,,13,109,1410031,,,,,,,2024-10-23,1,,,,,デージー,0
344,2011001165317,新規,0,2024-10-23,2024-10-23,株式会社ＣｏｎｎｅｃＴ　ｐｌｕｓ,,株式会社,東京都,渋谷区,広尾４丁目１番６－３０７号,,13,113,1500012,,,,,,,2024-10-23,1,,,,,コネクトプラス,0
345,2011001165416,新規,0,2024-10-23,2024-10-23,株式会社ＴＲＡＮＳＩＴ,,株式会社,東京都,渋谷区,神南１丁目１１番４号ＦＰＧリンクス神南５階,,13,113,1500041,,,,,,,2024-10-23,1,,,,,トランジット,0
350,2011101109231,新規,0,2024-10-23,2024-10-23,三陽建設株式会社,,株式会社,東京都,新宿区,高田馬場１丁目２８番１８号和光ビル３０７,,13,104,1690075,,,,,,,2024-10-23,1,,,,,サンヨウケンセツ,0
351,2011101109272,新規,0,2024-10-23,2024-10-23,日本唯新株式会社,,株式会社,東京都,新宿区,北新宿４丁目２１番３号青麦ビル１０１号室,,13,104,1690074,,,,,,,2024-10-23,1,,,,,ニホンユイシン,0
352,2011103015056,新規,0,2024-10-23,2024-10-23,ＡＩＮＴＥＸ合同会社,,合同会社,東京都,新宿区,西新宿３丁目３番１３号西新宿水間ビル２Ｆ,,13,104,1600023,,,,,,,2024-10-23,1,,,,,エインテクス,0
353,2011103015072,新規,0,2024-10-23,2024-10-23,合同会社アオイニア,,合同会社,東京都,新宿区,西新宿３丁目３番１３号西新宿水間ビル６階,,13,104,1600023,,,,,,,2024-10-23,1,,,,,アオイニア,0
354,2011103015097,新規,0,2024-10-23,2024-10-23,若葉合同会社,,合同会社,東京都,新宿区,若葉１丁目１４－３２,,13,104,1600011,,,,,,,2024-10-23,1,,,,,ワカバ,0
355,2011105011202,新規,0,2024-10-23,2024-10-23,一般社団法人日本倫理士育成協会,,その他の設立登記法人,東京都,新宿区,新宿６丁目２８番７号新宿ＥＡＳＴＣＯＵＲＴ８階,,13,104,1600022,,,,,,,2024-10-23,1,,,,,ニホンリンリシイクセイキョウカイ,0
362,2011401026531,新規,0,2024-10-23,2024-10-23,東京雪盧堂文化芸術株式会社,,株式会社,東京都,板橋区,坂下１丁目２８番２号,,13,119,1740043,,,,,,,2024-10-23,1,,,,,トウキョウシェルドウブンカゲイジュツ,0
363,2011403004535,新規,0,2024-10-23,2024-10-23,合同会社ＡｔｋＺ,,合同会社,東京都,板橋区,西台２丁目２３－７－４０３,,13,119,1750045,,,,,,,2024-10-23,1,,,,,エーティーケーゼット,0
365,2011501031290,新規,0,2024-10-23,2024-10-23,株式会社ＳＡＮＢＩ,,株式会社,東京都,荒川区,西日暮里６丁目２８番１号,,13,118,1160013,,,,,,,2024-10-23,1,,,,,サンビ,0
370,2012403006785,新規,0,2024-10-23,2024-10-23,ＤＡＲＵＭＡ　ＶＩＳＩＯＮ合同会社,,合同会社,東京都,武蔵野市,吉祥寺東町２丁目４２―２５ＮＯＺＯＭＩＯ吉祥寺４０７,,13,203,1800002,,,,,,,2024-10-23,1,,,,,ダルマビジョン,0
372,2013301053242,新規,0,2024-10-23,2024-10-23,株式会社ＡＳＰＩＡ,,株式会社,東京都,豊島区,要町１丁目６番６号,,13,116,1710043,,,,,,,2024-10-23,1,,,,,アスピア,0
374,2013305003656,新規,0,2024-10-23,2024-10-23,行政書士法人東京帝都法務事務所,,その他の設立登記法人,東京都,豊島区,西池袋５丁目８－９藤和池袋コープ２０２,,13,116,1710021,,,,,,,2024-10-23,1,,,,,トウキョウテイトホウムジムショ,0
381,2020001159740,新規,0,2024-10-23,2024-10-23,株式会社ひとえ,,株式会社,神奈川県,横浜市中区,松影町２丁目６番地４,,14,104,2310025,,,,,,,2024-10-23,1,,,,,ヒトエ,0
382,2020001159749,新規,0,2024-10-23,2024-10-23,株式会社日成ガス,,株式会社,神奈川県,横浜市西区,浅間町１丁目４番地３ウィザードビル４０２,,14,103,2200072,,,,,,,2024-10-23,1,,,,,ニッセイガス,0
384,2020003027103,新規,0,2024-10-23,2024-10-23,ａｉｐｌｕｓ’ａｉ合同会社,,合同会社,神奈川県,川崎市宮前区,南野川２丁目６番２９号,,14,136,2160042,,,,,,,2024-10-23,1,,,,,アイプラスアイ,0
386,2021001083550,新規,0,2024-10-23,2024-10-23,ドットワン株式会社,,株式会社,神奈川県,座間市,緑ケ丘２丁目１２番１９号,,14,216,2520021,,,,,,,2024-10-23,1,,,,,ドットワン,0
387,2021001083567,新規,0,2024-10-23,2024-10-23,株式会社アールエル,,株式会社,神奈川県,相模原市緑区,根小屋１２３０番地３７,,14,151,2520153,,,,,,,2024-10-23,1,,,,,アールエル,0
391,2021003015139,新規,0,2024-10-23,2024-10-23,合同会社ａｒｏｕｎｄ　ｓｕｐｐｏｒｔ,,合同会社,神奈川県,厚木市,上依知３３４番地８,,14,212,2430801,,,,,,,2024-10-23,1,,,,,アラウンドサポート,0
400,2030001163072,新規,0,2024-10-23,2024-10-23,株式会社三洋建物,,株式会社,埼玉県,坂戸市,薬師町２３番地１メルクマール薬師１０３号室,,11,239,3500229,,,,,,,2024-10-23,1,,,,,サンヨウタテモノ,0
401,2030001163114,新規,0,2024-10-23,2024-10-23,たけなか電気通信株式会社,,株式会社,埼玉県,三郷市,鷹野２丁目３３９番地４,,11,237,3410035,,,,,,,2024-10-23,1,,,,,タケナカデンキツウシン,0
403,2030003025337,新規,0,2024-10-23,2024-10-23,合同会社Ｎｉｎｅ　Ｇａｔｅｓ,,合同会社,埼玉県,富士見市,東みずほ台２丁目５番地１１コスモ２１、１０１,,11,235,3540015,,,,,,,2024-10-23,1,,,,,ナインゲイツ,0
404,2030003025345,新規,0,2024-10-23,2024-10-23,合同会社ＨＵＢ,,合同会社,埼玉県,春日部市,粕壁東１丁目８番１５号パークサイドビル２Ｆ,,11,214,3440062,,,,,,,2024-10-23,1,,,,,ハブ,0
405,2030003025353,新規,0,2024-10-23,2024-10-23,明誠建設合同会社,,合同会社,埼玉県,八潮市,大字古新田８８６番地３,,11,234,3400823,,,,,,,2024-10-23,1,,,,,メイセイケンセツ,0
406,2030003025361,新規,0,2024-10-23,2024-10-23,ナハルインターナショナル合同会社,,合同会社,埼玉県,蕨市,北町１丁目４番１９号ビレッタＧＡ１０４号,,11,223,3350001,,,,,,,2024-10-23,1,,,,,ナハルインターナショナル,0
414,2040001135888,新規,0,2024-10-23,2024-10-23,株式会社フィラント商会,,株式会社,千葉県,木更津市,大和２丁目１８番１１号,,12,206,2920805,,,,,,,2024-10-23,1,,,,,フィラントショウカイ,0
415,2040001135905,新規,0,2024-10-23,2024-10-23,Ｆ．Ｌ．Ｃ株式会社,,株式会社,千葉県,千葉市若葉区,高品町１９５番地５０,,12,104,2640024,,,,,,,2024-10-23,1,,,,,エフエルシー,0
417,2040003026029,新規,0,2024-10-23,2024-10-23,吉立合同会社,,合同会社,千葉県,船橋市,駿河台１丁目２０番２号２０４号,,12,204,2730862,,,,,,,2024-10-23,1,,,,,キチリツ,0
418,2040005022554,新規,0,2024-10-23,2024-10-23,一般社団法人ＧＧ協会,,その他の設立登記法人,千葉県,千葉市稲毛区,小中台町１１９６番地２フジコーポ１０２,,12,103,2630044,,,,,,,2024-10-23,1,,,,,ジージーキョウカイ,0
421,2050001055557,新規,0,2024-10-23,2024-10-23,株式会社ＳｙｓｔｅｍＲＳ,,株式会社,茨城県,水戸市,文京２丁目３－１６サジタリウス２０３,,08,201,3100056,,,,,,,2024-10-23,1,,,,,システムアールエス,0
422,2060003005286,新規,0,2024-10-23,2024-10-23,合同会社ＫＯＳＥＩ,,合同会社,栃木県,鹿沼市,戸張町２３５９,,09,205,3220063,,,,,,,2024-10-23,1,,,,,コウセイ,0
425,2080001026563,新規,0,2024-10-23,2024-10-23,株式会社セントラルスクリーン,,株式会社,静岡県,島田市,稲荷３丁目２番６３号,,22,209,4270038,,,,,,,2024-10-23,1,,,,,セントラルスクリーン,0
426,2080103003171,新規,0,2024-10-23,2024-10-23,合同会社アールエス,,合同会社,静岡県,沼津市,高尾台１３－２３,,22,203,4100017,,,,,,,2024-10-23,1,,,,,アールエス,0
430,2100005013241,新規,0,2024-10-23,2024-10-23,一般社団法人バンポ,,その他の設立登記法人,長野県,木曽郡木曽町,福島５１２２、２階,,20,432,3970001,,,,,,,2024-10-23,1,,,,,バンポ,0
433,2110001038794,新規,0,2024-10-23,2024-10-23,株式会社ＪＯＹＢ,,株式会社,新潟県,糸魚川市,大字能生４４３９番地５,,15,216,9491352,,,,,,,2024-10-23,1,,,,,ジョイビー,0
436,2110005017142,新規,0,2024-10-23,2024-10-23,医療法人社団月潟歯科クリニック,,その他の設立登記法人,新潟県,新潟市南区,月潟４５７番地１,,15,106,9501304,,,,,,,2024-10-23,1,,,,,ツキガタシカクリニック,0
448,2120001269546,新規,0,2024-10-23,2024-10-23,アラシ株式会社,,株式会社,大阪府,大阪市浪速区,恵美須東２丁目６番１５号,,27,111,5560002,,,,,,,2024-10-23,1,,,,,アラシ,0
449,2120001269612,新規,0,2024-10-23,2024-10-23,株式会社Ｉｎｔｅｒｌｉｎｇｏ,,株式会社,大阪府,大阪市北区,中津７丁目４番５－３０１号,,27,127,5310071,,,,,,,2024-10-23,1,,,,,インターリンゴ,0
450,2120001269629,新規,0,2024-10-23,2024-10-23,株式会社ＲａｄｉａｎｔＲｉｓｅ,,株式会社,大阪府,大阪市北区,梅田１丁目２番２号大阪駅前第２ビル１２－１２,,27,127,5300001,,,,,,,2024-10-23,1,,,,,ラディアントライズ,0
452,2120003027720,新規,0,2024-10-23,2024-10-23,吉澤商事合同会社,,合同会社,大阪府,大阪市西成区,橘３丁目１７－１０－１０４号,,27,122,5570051,,,,,,,2024-10-23,1,,,,,ヨシザワショウジ,0
454,2120101070449,新規,0,2024-10-23,2024-10-23,株式会社ＯＴＮＫ,,株式会社,大阪府,貝塚市,石才６番地１,,27,208,5970082,,,,,,,2024-10-23,1,,,,,オーティーエヌケー,0
456,2120103006104,新規,0,2024-10-23,2024-10-23,合同会社堺商事,,合同会社,大阪府,堺市南区,晴美台４丁１番２－１０４号,,27,145,5900113,,,,,,,2024-10-23,1,,,,,サカイショウジ,0
459,2120901049948,新規,0,2024-10-23,2024-10-23,優創社株式会社,,株式会社,大阪府,吹田市,南正雀２丁目１０－１９,,27,205,5640012,,,,,,,2024-10-23,1,,,,,ユウソウシャ,0
466,2130003009949,新規,0,2024-10-23,2024-10-23,ＫＹＯＴＯ　ＲＩＣＥ＆ＳＯＮＳ合同会社,,合同会社,京都府,京都市下京区,七条通油小路東入大黒町２２７番地第２キョートビル４０２,,26,106,6008223,,,,,,,2024-10-23,1,,,,,キョウトライスアンドサンズ,0
471,2140001136133,新規,0,2024-10-23,2024-10-23,Ｂｅｌｌ株式会社,,株式会社,兵庫県,姫路市,本町１２７番地大手前ダイネンＢＬＤ．ＩＩ３階,00136725,28,201,6700012,,,,,,,2024-10-23,1,,,,,ベル,0
472,2140001136182,新規,0,2024-10-23,2024-10-23,善漁水産株式会社,,株式会社,兵庫県,たつの市,御津町室津１０３４番地４５,,28,229,6711332,,,,,,,2024-10-23,1,,,,,ゼンリョウスイサン,0
493,2180301039164,新規,0,2024-10-23,2024-10-23,株式会社ＢＡＥ　ＢＡＥ,,株式会社,愛知県,高浜市,神明町７丁目１番地１２,,23,227,4441305,,,,,,,2024-10-23,1,,,,,ベベ,0
494,2180305009618,新規,0,2024-10-23,2024-10-23,ＹＵＲＡＭＥＫＩ労働者協同組合,,その他の設立登記法人,愛知県,新城市,豊岡字奥平１９番地１,,23,221,4411631,,,,,,,2024-10-23,1,,,,,ユラメキ,0
506,2210003001848,新規,0,2024-10-23,2024-10-23,合同会社メディタックス,,合同会社,福井県,福井市,玄正島町１６－２５－１,,18,201,9100822,,,,,,,2024-10-23,1,,,,,メディタックス,0
509,2220001026284,新規,0,2024-10-23,2024-10-23,株式会社ＭＥＳ,,株式会社,石川県,金沢市,大桑町和３８番地１７,,17,201,9218046,,,,,,,2024-10-23,1,,,,,エムイーエス,0
517,2240003006910,新規,0,2024-10-23,2024-10-23,バケットリストベンチャーズ合同会社,,合同会社,広島県,広島市安芸区,畑賀３丁目２４番１２号,,34,107,7360088,,,,,,,2024-10-23,1,,,,,バケットリストベンチャーズ,0
534,2290003015972,新規,0,2024-10-23,2024-10-23,合同会社カーキャリー,,合同会社,福岡県,久留米市,上津町２５１８番地４,,40,203,8300052,,,,,,,2024-10-23,1,,,,,カーキャリー,0
545,2330001032569,新規,0,2024-10-23,2024-10-23,株式会社ＡＳＯ　ＰＬＡＹ　ＧＲＯＵＮＤ,,株式会社,熊本県,阿蘇郡高森町,大字上色見２８８９,,43,428,8691601,,,,,,,2024-10-23,1,,,,,アソプレイグラウンド,0
548,2340001026875,新規,0,2024-10-23,2024-10-23,株式会社Ｄ．Ｌ．Ｃ,,株式会社,鹿児島県,霧島市,国分府中町３－２コーポ吉満２０３,,46,218,8994346,,,,,,,2024-10-23,1,,,,,ディーエルシー,0
550,2360001034348,新規,0,2024-10-23,2024-10-23,株式会社スマイルゲート,,株式会社,沖縄県,那覇市,久米２丁目５番１５号,,47,201,9000033,,,,,,,2024-10-23,1,,,,,スマイルゲート,0
553,2360003014414,新規,0,2024-10-23,2024-10-23,合同会社リアナ,,合同会社,沖縄県,那覇市,松尾２丁目１０番２２号３階,,47,201,9000014,,,,,,,2024-10-23,1,,,,,リアナ,0
569,2430001092909,新規,0,2024-10-23,2024-10-23,株式会社Ａ,,株式会社,北海道,札幌市南区,川沿一条３丁目１０番５号,,01,106,0050801,,,,,,,2024-10-23,1,,,,,エイ,0
572,2430003016923,新規,0,2024-10-23,2024-10-23,Ｍ　ｐｌｕｓ　Ｂ合同会社,,合同会社,北海道,札幌市北区,新琴似八条１丁目１番３４号,,01,102,0010908,,,,,,,2024-10-23,1,,,,,エムプラスビー,0
583,2700150127545,新規,0,2024-10-23,2024-10-17,和歌山地域経済研究機構,,その他,和歌山県,和歌山市,栄谷９３０和歌山大学経済学部内,,30,201,6408441,,,,,,,2024-10-17,1,,,,,ワカヤマチイキケイザイケンキユウキコウ,0
588,3010001249252,新規,0,2024-10-23,2024-10-23,株式会社フドーズ・ホスピタリティ・マネジメント,,株式会社,東京都,中央区,銀座１丁目２２番１１号銀座大竹ビジデンス２Ｆ,,13,102,1040061,,,,,,,2024-10-23,1,,,,,フドーズホスピタリティマネジメント,0
589,3010001249260,新規,0,2024-10-23,2024-10-23,ＵＤＯＮ株式会社,,株式会社,東京都,千代田区,神田須田町１丁目７番８号ＶＯＲＴ秋葉原ＩＶ２Ｆ,00136727,13,101,1010041,,,,,,,2024-10-23,1,,,,,ウドン,0
590,3010001249269,新規,0,2024-10-23,2024-10-23,株式会社ＢＯＮＢＯＮＭＥＤＩＣＡＬ,,株式会社,東京都,中央区,銀座１丁目８番７号,,13,102,1040061,,,,,,,2024-10-23,1,,,,,ボンボンメディカル,0
591,3010001249302,新規,0,2024-10-23,2024-10-23,株式会社セィフティボイス,,株式会社,東京都,中央区,日本橋２丁目１０－５ＧＲＡＮＢＩＺ東京日本橋６階,,13,102,1030027,,,,,,,2024-10-23,1,,,,,セィフティボイス,0
592,3010001249327,新規,0,2024-10-23,2024-10-23,ウエルシアケアトランスポート株式会社,,株式会社,東京都,千代田区,外神田２丁目２番１５号,,13,101,1010021,,,,,,,2024-10-23,1,,,,,ウエルシアケアトランスポート,0
594,3010005038998,新規,0,2024-10-23,2024-10-23,白金台２一般社団法人,,その他の設立登記法人,東京都,千代田区,神田小川町３丁目２６番８号神田小川町三丁目ビル６階,,13,101,1010052,,,,,,,2024-10-23,1,,,,,シロカネダイツー,0
611,3010401185502,新規,0,2024-10-23,2024-10-23,飛島ホールディングス株式会社,,株式会社,東京都,港区,港南１丁目８番１５号,,13,103,1080075,,,,,,,2024-10-23,1,,,,,トビシマホールディングス,0
612,3010401185774,新規,0,2024-10-23,2024-10-23,株式会社ＤＯＰＥ　Ｖｉｓｉｏｎ,,株式会社,東京都,港区,南青山２丁目２番１５号,,13,103,1070062,,,,,,,2024-10-23,1,,,,,ドープビジョン,0
613,3010401185923,新規,0,2024-10-23,2024-10-23,Ｃｏｍｐａｘ　Ｓｏｆｔｗａｒｅ　Ｄｅｖｅｌｏｐｍｅｎｔ　Ｊａｐａｎ株式会社,,株式会社,東京都,港区,西新橋１丁目２番９号日比谷セントラルビル１４階,,13,103,1050003,,,,,,,2024-10-23,1,,,,,コンパックスソフトウェアデベロップメントジャパン,0
614,3010401185948,新規,0,2024-10-23,2024-10-23,全日医療株式会社,,株式会社,東京都,港区,赤坂９丁目６番１１－７０３号,,13,103,1070052,,,,,,,2024-10-23,1,,,,,ゼンニチイリョウ,0
620,3010501053071,新規,0,2024-10-23,2024-10-23,株式会社ＬＵＣＫＩＮＥＳＳ,,株式会社,東京都,台東区,上野２丁目１１番２の４階,,13,106,1100005,,,,,,,2024-10-23,1,,,,,ラキネス,0
630,3010903009431,新規,0,2024-10-23,2024-10-23,合同会社東京外語学院,,合同会社,東京都,世田谷区,代沢５丁目１９番１２号,,13,112,1550032,,,,,,,2024-10-23,1,,,,,トウキョウガイゴガクイン,0
635,3011001165349,新規,0,2024-10-23,2024-10-23,ＨＩｍａｇｉｎｅ株式会社,,株式会社,東京都,渋谷区,千駄ヶ谷３丁目１３番５－２０１号,,13,113,1510051,,,,,,,2024-10-23,1,,,,,ヒマジン,0
636,3011001165398,新規,0,2024-10-23,2024-10-23,ＫＭＳＮＣ　Ｊａｐａｎ株式会社,,株式会社,東京都,渋谷区,神南１丁目１１番４号ＦＰＧリンクス神南５階,,13,113,1500041,,,,,,,2024-10-23,1,,,,,ケイエムエスエヌシージャパン,0
637,3011003020221,新規,0,2024-10-23,2024-10-23,合同会社ユアリー,,合同会社,東京都,渋谷区,道玄坂１丁目１６番６号二葉ビル８ｂ,,13,113,1500043,,,,,,,2024-10-23,1,,,,,ユアリー,0
643,3011101109081,新規,0,2024-10-23,2024-10-23,株式会社ラッキーストライク,,株式会社,東京都,新宿区,西新宿３丁目３番１３号西新宿水間ビル６階,,13,104,1600023,,,,,,,2024-10-23,1,,,,,ラッキーストライク,0
644,3011101109131,新規,0,2024-10-23,2024-10-23,株式会社ｐｏｐｏｃａｋａ,,株式会社,東京都,新宿区,須賀町８番地シャトー沢村Ｂ,,13,104,1600018,,,,,,,2024-10-23,1,,,,,ポポカカ,0
645,3011101109189,新規,0,2024-10-23,2024-10-23,株式会社雷門神易,,株式会社,東京都,新宿区,四谷三栄町２番１４号,,13,104,1600008,,,,,,,2024-10-23,1,,,,,カミナリモンジンエキ,0
646,3011101109230,新規,0,2024-10-23,2024-10-23,株式会社ＩＩＴ　ｂｅａｕｔｙ,,株式会社,東京都,新宿区,西新宿３丁目３番１３号西新宿水間ビル２Ｆ,,13,104,1600023,,,,,,,2024-10-23,1,,,,,アイアイティービューティー,0
647,3011103015096,新規,0,2024-10-23,2024-10-23,ラオリー合同会社,,合同会社,東京都,新宿区,西新宿３丁目３番１３号西新宿水間ビル６階,,13,104,1600023,,,,,,,2024-10-23,1,,,,,ラオリー,0
651,3011303005302,新規,0,2024-10-23,2024-10-23,ダングベア合同会社,,合同会社,東京都,杉並区,浜田山３丁目２５番１６号エスカイア浜田山３０７,,13,115,1680065,,,,,,,2024-10-23,1,,,,,ダングベア,0
660,3012401042410,新規,0,2024-10-23,2024-10-23,株式会社ベーシックプロンプト,,株式会社,東京都,三鷹市,中原１丁目６番１５号パラゼット中原１０２,,13,204,1810005,,,,,,,2024-10-23,1,,,,,ベーシックプロンプト,0
662,3012701018507,新規,0,2024-10-23,2024-10-23,株式会社スリップノット,,株式会社,東京都,小平市,鈴木町２丁目１９８－２カエサル花小金井１階,,13,211,1870011,,,,,,,2024-10-23,1,,,,,スリップノット,0
663,3012801023506,新規,0,2024-10-23,2024-10-23,株式会社シェダル,,株式会社,東京都,国立市,東１丁目１５番１１号,,13,215,1860002,,,,,,,2024-10-23,1,,,,,シェダル,0
667,3013301053241,新規,0,2024-10-23,2024-10-23,ウト株式会社,,株式会社,東京都,豊島区,東池袋１丁目３４番５号いちご東池袋ビル６階,,13,116,1700013,,,,,,,2024-10-23,1,,,,,ウト,0
669,3020001159649,新規,0,2024-10-23,2024-10-23,株式会社ワールド開発,,株式会社,神奈川県,川崎市川崎区,元木１丁目１０番１０号,,14,131,2100021,,,,,,,2024-10-23,1,,,,,ワールドカイハツ,0
670,3020001159707,新規,0,2024-10-23,2024-10-23,株式会社Ｋ２,,株式会社,神奈川県,川崎市川崎区,駅前本町１１番地２川崎フロンティアビル４階,,14,131,2100007,,,,,,,2024-10-23,1,,,,,ケーツー,0
671,3020001159731,新規,0,2024-10-23,2024-10-23,株式会社アイバランス,,株式会社,神奈川県,横浜市港北区,新横浜２丁目６番地３,,14,109,2220033,,,,,,,2024-10-23,1,,,,,アイバランス,0
672,3020001159748,新規,0,2024-10-23,2024-10-23,株式会社ひとつぼし,,株式会社,神奈川県,横浜市港南区,上大岡西１丁目１８番５－２６０９号,,14,111,2330002,,,,,,,2024-10-23,1,,,,,ヒトツボシ,0
676,3021001083500,新規,0,2024-10-23,2024-10-23,株式会社佐佐木商会,,株式会社,神奈川県,鎌倉市,台３丁目６番１５－８０６号,,14,204,2470061,,,,,,,2024-10-23,1,,,,,ササキショウカイ,0
686,3030001163071,新規,0,2024-10-23,2024-10-23,株式会社ロイヤリティー,,株式会社,埼玉県,比企郡吉見町,大字谷口１２６番地,,11,347,3550117,,,,,,,2024-10-23,1,,,,,ロイヤリティー,0
687,3030001163096,新規,0,2024-10-23,2024-10-23,株式会社１０１,,株式会社,埼玉県,東松山市,箭弓町１丁目１７番９号ルネスカーサ１０１号室,,11,212,3550028,,,,,,,2024-10-23,1,,,,,イチマルイチ,0
688,3030001163105,新規,0,2024-10-23,2024-10-23,株式会社終縁,,株式会社,埼玉県,草加市,青柳６丁目５３番１号,,11,221,3400002,,,,,,,2024-10-23,1,,,,,シュウエン,0
689,3030001163121,新規,0,2024-10-23,2024-10-23,株式会社リトラス,,株式会社,埼玉県,川越市,大字安比奈新田１３０－４,,11,201,3501173,,,,,,,2024-10-23,1,,,,,リトラス,0
691,3030003025352,新規,0,2024-10-23,2024-10-23,Ｗｅｓｔａ合同会社,,合同会社,埼玉県,さいたま市浦和区,岸町７丁目４番５－５０５号,,11,107,3300064,,,,,,,2024-10-23,1,,,,,ウェスタ,0
693,3030005021903,新規,0,2024-10-23,2024-10-23,一般社団法人ディマシュジャパンファンクラブ,,その他の設立登記法人,埼玉県,朝霞市,根岸台５丁目６番１,,11,227,3510005,,,,,,,2024-10-23,1,,,,,ディマシュジャパンファンクラブ,0
702,3050001055556,新規,0,2024-10-23,2024-10-23,株式会社ＳＨＥＺ　ＩＮＴＥＲＮＡＴＩＯＮＡＬ,,株式会社,茨城県,坂東市,莚打９５０番地５６,,08,228,3060625,,,,,,,2024-10-23,1,,,,,シェズインターナショナル,0
703,3050001055564,新規,0,2024-10-23,2024-10-23,株式会社ＰＲＯＵＤ,,株式会社,茨城県,桜川市,大国玉５９２０番地２,,08,231,3091244,,,,,,,2024-10-23,1,,,,,プラウド,0
709,3070003005615,新規,0,2024-10-23,2024-10-23,合同会社エクセリンク,,合同会社,群馬県,高崎市,筑縄町７５番地５号ドルフィン筑縄１０１,,10,202,3700075,,,,,,,2024-10-23,1,,,,,エクセリンク,0
711,3080101025084,新規,0,2024-10-23,2024-10-23,株式会社徳田椎茸園,,株式会社,静岡県,熱海市,伊豆山１１３０番地の６,,22,205,4130002,,,,,,,2024-10-23,1,,,,,トクダシイタケエン,0
713,3080103003170,新規,0,2024-10-23,2024-10-23,合同会社Ａｐｈｒｏｄｉｔｅ　Ｆａｒｍ,,合同会社,静岡県,伊豆の国市,宗光寺１０９番地１,,22,225,4102302,,,,,,,2024-10-23,1,,,,,アフロディーテファーム,0
715,3080401027524,新規,0,2024-10-23,2024-10-23,京匠技研株式会社,,株式会社,静岡県,浜松市中央区,植松町５２番地の５,,22,138,4300803,,,,,,,2024-10-23,1,,,,,キョウショウギケン,0
721,3110005017141,新規,0,2024-10-23,2024-10-23,一般社団法人Ｈａｒｍｏｎｙ,,その他の設立登記法人,新潟県,燕市,粟生津１０３１番地５,,15,213,9590227,,,,,,,2024-10-23,1,,,,,ハーモニー,0
732,3120001269413,新規,0,2024-10-23,2024-10-23,ＳＮＳクエスト株式会社,,株式会社,大阪府,大阪市平野区,喜連西６丁目１番２４号,,27,126,5470026,,,,,,,2024-10-23,1,,,,,エスエヌエスクエスト,0
733,3120001269520,新規,0,2024-10-23,2024-10-23,聯晟株式会社,,株式会社,大阪府,大阪市都島区,東野田町４丁目１－５－３０４号,,27,102,5340024,,,,,,,2024-10-23,1,,,,,レイセイ,0
734,3120001269652,新規,0,2024-10-23,2024-10-23,株式会社ＪＹＯ,,株式会社,大阪府,大阪市淀川区,宮原４丁目５‐２６‐５０８,,27,123,5320003,,,,,,,2024-10-23,1,,,,,ジョー,0
735,3120003027810,新規,0,2024-10-23,2024-10-23,たびねずみ合同会社,,合同会社,大阪府,大阪市東成区,東中本３丁目１６－１５－５０５,,27,115,5370021,,,,,,,2024-10-23,1,,,,,タビネズミ,0
737,3120101070456,新規,0,2024-10-23,2024-10-23,美田美術株式会社,,株式会社,大阪府,富田林市,川向町３番１－４０６号,,27,214,5840049,,,,,,,2024-10-23,1,,,,,ビデンビジュツ,0
738,3120101070464,新規,0,2024-10-23,2024-10-23,株式会社フロンティア,,株式会社,大阪府,岸和田市,葛城町８９１番地の２４,,27,202,5960824,,,,,,,2024-10-23,1,,,,,フロンティア,0
739,3120105009921,新規,0,2024-10-23,2024-10-23,一般財団法人プラージュ財団,,その他の設立登記法人,大阪府,藤井寺市,春日丘１丁目２番２９号,,27,226,5830026,,,,,,,2024-10-23,1,,,,,プラージュザイダン,0
741,3120901049939,新規,0,2024-10-23,2024-10-23,株式会社ｍａｌｌｅｔ,,株式会社,大阪府,茨木市,紫明園１番４３－２０８号,,27,211,5670045,,,,,,,2024-10-23,1,,,,,マレット,0
744,3130001078177,新規,0,2024-10-23,2024-10-23,ＮＯＡ　ＳＴＡＮＤＡＲＤ株式会社,,株式会社,京都府,長岡京市,馬場見場走り２６番地３（３－３１４）長岡京スカイハイツ,,26,209,6170828,,,,,,,2024-10-23,1,,,,,ノアスタンダード,0
746,3130005017222,新規,0,2024-10-23,2024-10-23,医療法人堀江内科クリニック,,その他の設立登記法人,京都府,京都市右京区,太秦開日町２１番地２９,,26,108,6168185,,,,,,,2024-10-23,1,,,,,ホリエナイカクリニック,0
751,3140001136082,新規,0,2024-10-23,2024-10-23,株式会社ａｎｄ　Ｃｒｏｗｎ,,株式会社,兵庫県,神戸市北区,鹿の子台南町３丁目９－１０,,28,109,6511514,,,,,,,2024-10-23,1,,,,,アンドクラウン,0
752,3140001136173,新規,0,2024-10-23,2024-10-23,株式会社Ｃｒｅｓｃｅｎｔ,,株式会社,兵庫県,神戸市中央区,磯上通１丁目１番１８号カサベラ国際プラザビル７０７号室,,28,110,6510086,,,,,,,2024-10-23,1,,,,,クレッセント,0
753,3140001136181,新規,0,2024-10-23,2024-10-23,株式会社つなぐ,,株式会社,兵庫県,西宮市,高松町１８番８号,,28,204,6638204,,,,,,,2024-10-23,1,,,,,ツナグ,0
754,3140001136198,新規,0,2024-10-23,2024-10-23,株式会社エフォール,,株式会社,兵庫県,神戸市長田区,神楽町４丁目５番５号,,28,106,6530836,,,,,,,2024-10-23,1,,,,,エフォール,0
770,3180001163809,新規,0,2024-10-23,2024-10-23,株式会社ＴＭＣＯ,,株式会社,愛知県,知多郡東浦町,大字緒川字東仙台２３番地の３,,23,442,4702102,,,,,,,2024-10-23,1,,,,,ティーエムシーオー,0
773,3180003027532,新規,0,2024-10-23,2024-10-23,合同会社８３２,,合同会社,愛知県,瀬戸市,西茨町１０８番地の２キャッスルハイツ瀬戸西茨の丘８０４,,23,204,4890884,,,,,,,2024-10-23,1,,,,,ハチミツ,0
774,3180005020816,新規,0,2024-10-23,2024-10-23,ｔｅプラス東海協同組合,,その他の設立登記法人,愛知県,東海市,東海町３丁目７番地１８,,23,222,4760015,,,,,,,2024-10-23,1,,,,,ティーイープラストウカイ,0
777,3180301039171,新規,0,2024-10-23,2024-10-23,株式会社Ａｋａｔｓｕｋｉ,,株式会社,愛知県,碧南市,鶴見町３丁目７０番地,,23,209,4470057,,,,,,,2024-10-23,1,,,,,アカツキ,0
789,3220003003859,新規,0,2024-10-23,2024-10-23,合同会社７,,合同会社,石川県,金沢市,玉鉾２丁目５０２番地（トラスティビルディング３０１号室）,,17,201,9218002,,,,,,,2024-10-23,1,,,,,セブン,0
800,3260003004936,新規,0,2024-10-23,2024-10-23,ＤＮ合同会社,,合同会社,岡山県,岡山市中区,乙多見２７０－１,,33,102,7038228,,,,,,,2024-10-23,1,,,,,ディーエヌ,0
809,3290003015971,新規,0,2024-10-23,2024-10-23,Ｄｅｅｐ　Ｄｉｖｅ合同会社,,合同会社,福岡県,福岡市中央区,白金１丁目１８－１０白金アパートメンツ５０６号,,40,133,8100012,,,,,,,2024-10-23,1,,,,,ディープダイブ,0
811,3290005019541,新規,0,2024-10-23,2024-10-23,舞鶴中央司法書士法人,,その他の設立登記法人,福岡県,福岡市中央区,舞鶴３丁目７番１３号,,40,133,8100073,,,,,,,2024-10-23,1,,,,,マイヅルチュウオウ,0
822,3320005010190,新規,0,2024-10-23,2024-10-23,一般社団法人ままのゆりかご,,その他の設立登記法人,大分県,大分市,大字一木２０８９番地の５０９,,44,201,8700316,,,,,,,2024-10-23,1,,,,,ママノユリカゴ,0
826,3330005010834,新規,0,2024-10-23,2024-10-23,ＮＰＯ法人ＬＶＦサポートクラブ,,その他の設立登記法人,熊本県,熊本市東区,戸島西２丁目６番２１号,,43,102,8618043,,,,,,,2024-10-23,1,,,,,ロービジョンフットサルサポートクラブ,0
827,3340001026866,新規,0,2024-10-23,2024-10-23,株式会社ナインアクシア,,株式会社,鹿児島県,霧島市,国分中央６丁目１番３号ニューイングビル３階,,46,218,8994332,,,,,,,2024-10-23,1,,,,,ナインアクシア,0
834,3360001034355,新規,0,2024-10-23,2024-10-23,株式会社Ｔｒｕｅ　Ｒｉｓｅ,,株式会社,沖縄県,島尻郡八重瀬町,字小城９０番地,,47,362,9010415,,,,,,,2024-10-23,1,,,,,トゥルーライズ,0
835,3360003014413,新規,0,2024-10-23,2024-10-23,合同会社ワトナル,,合同会社,沖縄県,浦添市,牧港２丁目１５番３号コーポ水無月２０１,,47,208,9012131,,,,,,,2024-10-23,1,,,,,ワトナル,0
836,3370001051845,新規,0,2024-10-23,2024-10-23,株式会社ＣｏＣｏｗｅｌｌｎｅｓｓ,,株式会社,宮城県,仙台市宮城野区,榴岡１丁目６－８タニタビル１Ｆ,,04,102,9830852,,,,,,,2024-10-23,1,,,,,ココウェルネス,0
837,3370003006789,新規,0,2024-10-23,2024-10-23,合同会社Ｆｅｌｉｃｅ,,合同会社,宮城県,仙台市青葉区,上杉２丁目４番２１－９０７号,,04,101,9800011,,,,,,,2024-10-23,1,,,,,フェリス,0
844,3390001017778,新規,0,2024-10-23,2024-10-23,株式会社ｍａｎｍａｌ,,株式会社,山形県,山形市,西田５丁目５番１５号,,06,201,9900831,,,,,,,2024-10-23,1,,,,,マンマル,0
870,3700150056545,新規,0,2024-10-23,2015-10-09,香川丸亀国際ハーフマラソン大会組織委員会,,その他,香川県,丸亀市,金倉町９２４番地１,,37,202,7630053,,,,,,,2015-10-09,1,,,,,カガワマルガメコクサイハーフマラソンタイカイソシキイインカイ,0
883,4010001248666,新規,0,2024-10-23,2024-10-23,ＳｅｔＢｏｔ技術株式会社,,株式会社,東京都,千代田区,神田佐久間町３丁目２１番インターアクトビル３Ｆ,,13,101,1010025,,,,,,,2024-10-23,1,,,,,セットボットギジュツ,0
884,4010001249210,新規,0,2024-10-23,2024-10-23,株式会社アイナミック,,株式会社,東京都,文京区,本郷６丁目２５番１４号,,13,105,1130033,,,,,,,2024-10-23,1,,,,,アイナミック,0
885,4010001249251,新規,0,2024-10-23,2024-10-23,株式会社思考と言語と学習と,,株式会社,東京都,千代田区,麹町１丁目３番地１１麹町第２センタービル１００１号,,13,101,1020083,,,,,,,2024-10-23,1,,,,,シコウトゲンゴトガクシュウト,0
886,4010001249292,新規,0,2024-10-23,2024-10-23,株式会社ＴＨＥ　ＮＡＵＧＨＴＹ,,株式会社,東京都,千代田区,神田神保町２丁目１１－１５、２Ｆ,,13,101,1010051,,,,,,,2024-10-23,1,,,,,ザノーティー,0
888,4010003045285,新規,0,2024-10-23,2024-10-23,Ｐｅｇ合同会社,,合同会社,東京都,千代田区,神田和泉町１番地６の１６ヤマトビル４０５,,13,101,1010024,,,,,,,2024-10-23,1,,,,,ペグ,0
897,4010401185889,新規,0,2024-10-23,2024-10-23,株式会社シン・プラットプレイアウト,,株式会社,東京都,港区,赤坂４丁目８番１０号,,13,103,1070052,,,,,,,2024-10-23,1,,,,,シンプラットプレイアウト,0
898,4010401185914,新規,0,2024-10-23,2024-10-23,株式会社ＤＥＩＮＯＣＨＥＩＲＵＳ,,株式会社,東京都,港区,南青山５丁目４番３５号たつむら青山マンション７１１号室,,13,103,1070062,,,,,,,2024-10-23,1,,,,,ディノケイルス,0
899,4010401185955,新規,0,2024-10-23,2024-10-23,歯科心身株式会社,,株式会社,東京都,港区,北青山１丁目３番１号アールキューブ青山３階,,13,103,1070061,,,,,,,2024-10-23,1,,,,,シカシンシン,0
902,4010403033658,新規,0,2024-10-23,2024-10-23,合同会社ＣｅｎｔｅｒｎａｔｉｏｎａＬ,,合同会社,東京都,港区,北青山１丁目４番地１号ランジェ青山６０２号室,,13,103,1070061,,,,,,,2024-10-23,1,,,,,センターナショナル,0
911,4010601066138,新規,0,2024-10-23,2024-10-23,株式会社武田商事,,株式会社,東京都,江東区,東雲１丁目９番４２－１４０５号,,13,108,1350062,,,,,,,2024-10-23,1,,,,,タケダショウジ,0
920,4011001164671,新規,0,2024-10-23,2024-10-23,株式会社ＰＡＲＴＹ　ＭＯＮＳＴＥＲ,,株式会社,東京都,目黒区,五本木１丁目５－６－２０１,,13,110,1530053,,,,,,,2024-10-23,1,,,,,パーティーモンスター,0
921,4011001165166,新規,0,2024-10-23,2024-10-23,株式会社ＩＤＥＡＦＡＣＴＯＲＹ　ＪＡＰＡＮ,,株式会社,東京都,渋谷区,桜丘町４－１４ＶＯＲＴ渋谷桜丘ビル５Ｆ,,13,113,1500031,,,,,,,2024-10-23,1,,,,,アイデアファクトリージャパン,0
922,4011001165315,新規,0,2024-10-23,2024-10-23,株式会社クロスシティ,,株式会社,東京都,目黒区,鷹番２丁目２１番４号,,13,110,1520004,,,,,,,2024-10-23,1,,,,,クロスシティ,0
923,4011001165331,新規,0,2024-10-23,2024-10-23,株式会社ＬｉｌＤ,,株式会社,東京都,渋谷区,恵比寿南１丁目１６番３号２Ｆ,,13,113,1500022,,,,,,,2024-10-23,1,,,,,リルド,0
924,4011001165397,新規,0,2024-10-23,2024-10-23,オプティデント株式会社,,株式会社,東京都,渋谷区,渋谷２丁目１９番１５号宮益坂ビルディング６０９,,13,113,1500002,,,,,,,2024-10-23,1,,,,,オプティデント,0
925,4011001165406,新規,0,2024-10-23,2024-10-23,株式会社ＧＵＦＡ,,株式会社,東京都,渋谷区,本町３丁目３８番１－１２０１号,,13,113,1510071,,,,,,,2024-10-23,1,,,,,ガーファ,0
926,4011001165513,新規,0,2024-10-23,2024-10-23,メドライフハピネス株式会社,,株式会社,東京都,渋谷区,恵比寿１丁目２２－３,,13,113,1500013,,,,,,,2024-10-23,1,,,,,メドライフハピネス,0
930,4011101109130,新規,0,2024-10-23,2024-10-23,ＭＲコーポレーション株式会社,,株式会社,東京都,新宿区,西落合２丁目２０番４号,,13,104,1610031,,,,,,,2024-10-23,1,,,,,エムアールコーポレーション,0
931,4011101109254,新規,0,2024-10-23,2024-10-23,株式会社ＳＰＡ,,株式会社,東京都,新宿区,新宿２丁目１３番１０号武蔵野ビル５階,,13,104,1600022,,,,,,,2024-10-23,1,,,,,エスピーエー,0
932,4011103015095,新規,0,2024-10-23,2024-10-23,合同会社ｍｙＰｕｒｐｌｅ,,合同会社,東京都,新宿区,新宿４丁目２番２０号,,13,104,1600022,,,,,,,2024-10-23,1,,,,,マイパープル,0
933,4011103015104,新規,0,2024-10-23,2024-10-23,ＰａｙＤｏｃｋｅｒ　Ｊａｐａｎ合同会社,,合同会社,東京都,新宿区,新宿１丁目３６番２号新宿第７葉山ビル３階,,13,104,1600022,,,,,,,2024-10-23,1,,,,,ペイドッカージャパン,0
937,4011301030037,新規,0,2024-10-23,2024-10-23,株式会社４Ｄｅｅｐ,,株式会社,東京都,杉並区,南荻窪２丁目３４番２０号Ｕガーデン杉並２０２号,,13,115,1670052,,,,,,,2024-10-23,1,,,,,フォーディープ,0
938,4011401026513,新規,0,2024-10-23,2024-10-23,Ｓｔｅｌｌａ株式会社,,株式会社,東京都,板橋区,小豆沢１丁目３番５号,,13,119,1740051,,,,,,,2024-10-23,1,,,,,ステラ,0
939,4011403004533,新規,0,2024-10-23,2024-10-23,ライフケア平井合同会社,,合同会社,東京都,板橋区,前野町４丁目１１番２号,,13,119,1740063,,,,,,,2024-10-23,1,,,,,ライフケアヒライ,0
949,4012701018522,新規,0,2024-10-23,2024-10-23,株式会社三十四,,株式会社,東京都,西東京市,谷戸町３丁目３番３６号,,13,229,1880001,,,,,,,2024-10-23,1,,,,,サトシ,0
950,4012703003118,新規,0,2024-10-23,2024-10-23,アイエスケーワークス合同会社,,合同会社,東京都,東村山市,栄町３丁目１５番２０号,,13,213,1890013,,,,,,,2024-10-23,1,,,,,アイエスケーワークス,0
954,4020001159697,新規,0,2024-10-23,2024-10-23,星元国際株式会社,,株式会社,神奈川県,横浜市鶴見区,鶴見中央４丁目３４番２６号ニックハイム鶴見千代田ビル６０９,,14,101,2300051,,,,,,,2024-10-23,1,,,,,セイゲンコクサイ,0
955,4020001159722,新規,0,2024-10-23,2024-10-23,ふくら株式会社,,株式会社,神奈川県,横浜市港南区,日限山１丁目３１番１８号,,14,111,2330015,,,,,,,2024-10-23,1,,,,,フクラ,0
956,4020001159739,新規,0,2024-10-23,2024-10-23,ＵＮＡ　ＰＡＳＳＩＯＮＥ株式会社,,株式会社,神奈川県,横浜市保土ケ谷区,新桜ケ丘２丁目２８番２２号,,14,106,2400036,,,,,,,2024-10-23,1,,,,,ウナパッシオーネ,0
960,4021001083557,新規,0,2024-10-23,2024-10-23,株式会社モリクラ,,株式会社,神奈川県,相模原市南区,古淵３丁目９番５号,,14,153,2520344,,,,,,,2024-10-23,1,,,,,モリクラ,0
963,4021003015137,新規,0,2024-10-23,2024-10-23,合同会社ＨＡＳＵＩ,,合同会社,神奈川県,相模原市南区,相模大野３丁目１－２－１３０５,,14,153,2520303,,,,,,,2024-10-23,1,,,,,ハスイ,0
968,4030001163070,新規,0,2024-10-23,2024-10-23,株式会社リノベクション,,株式会社,埼玉県,ふじみ野市,池上１番１７号,,11,245,3560019,,,,,,,2024-10-23,1,,,,,リノベクション,0
969,4030001163079,新規,0,2024-10-23,2024-10-23,株式会社オウル・ロジ,,株式会社,埼玉県,熊谷市,上須戸３７８番地２５,,11,202,3600213,,,,,,,2024-10-23,1,,,,,オウルロジ,0
970,4030001163095,新規,0,2024-10-23,2024-10-23,株式会社イスト,,株式会社,埼玉県,桶川市,南２丁目４番１号サニーブリッサ１０３号室,,11,231,3630015,,,,,,,2024-10-23,1,,,,,イスト,0
971,4030001163104,新規,0,2024-10-23,2024-10-23,Ｒｅ‐Ｒａｎｇｅ株式会社,,株式会社,埼玉県,草加市,松原３丁目６番１号,,11,221,3400041,,,,,,,2024-10-23,1,,,,,リレンジ,0
982,4050001055563,新規,0,2024-10-23,2024-10-23,株式会社遊匠,,株式会社,茨城県,坂東市,辺田１１４４番地６９,,08,228,3060632,,,,,,,2024-10-23,1,,,,,ユウショウ,0
983,4050003008726,新規,0,2024-10-23,2024-10-23,ぽちたま合同会社,,合同会社,茨城県,鉾田市,大蔵９１３番地３,,08,234,3112117,,,,,,,2024-10-23,1,,,,,ポチタマ,0
984,4050003008750,新規,0,2024-10-23,2024-10-23,サンシス合同会社,,合同会社,茨城県,古河市,古河７２６番地２,,08,204,3060016,,,,,,,2024-10-23,1,,,,,サンシス,0
987,4070001042254,新規,0,2024-10-23,2024-10-23,Ｍ　ＡＲＩ株式会社,,株式会社,群馬県,吾妻郡中之条町,大字伊勢町９１４番地２,,10,421,3770423,,,,,,,2024-10-23,1,,,,,エムアリ,0
997,4080101025083,新規,0,2024-10-23,2024-10-23,株式会社伊豆・あさひ,,株式会社,静岡県,田方郡函南町,平井１７５３番地の８１４,,22,325,4190107,,,,,,,2024-10-23,1,,,,,イズアサヒ,0
1000,4090003002667,新規,0,2024-10-23,2024-10-23,合同会社Ｔ＆Ｔ　Ｆｕｊｉｙａｍａ　Ｃｏｍｐａｎｙ,,合同会社,山梨県,富士吉田市,小明見１丁目１２番１０号,,19,202,4030002,,,,,,,2024-10-23,1,,,,,ティアンドティフジヤマカンパニー,0
1003,4110001038792,新規,0,2024-10-23,2024-10-23,株式会社ポルタ,,株式会社,新潟県,燕市,上諏訪８番２号,,15,213,9590181,,,,,,,2024-10-23,1,,,,,ポルタ,0
1008,4120001269610,新規,0,2024-10-23,2024-10-23,株式会社ＡＲＴＥＭＩＳ,,株式会社,大阪府,大阪市住吉区,長居西１丁目１２番２８号,,27,120,5580002,,,,,,,2024-10-23,1,,,,,アルテミス,0
1009,4120001269627,新規,0,2024-10-23,2024-10-23,ＪＤ株式会社,,株式会社,大阪府,大阪市大正区,平尾４丁目１２番２０号１０１号室,,27,108,5510012,,,,,,,2024-10-23,1,,,,,ジェイディー,0
1010,4120001269635,新規,0,2024-10-23,2024-10-23,株式会社メディキャンバス,,株式会社,大阪府,大阪市北区,梅田１丁目２－２大阪駅前第２ビル１２－１２,,27,127,5300001,,,,,,,2024-10-23,1,,,,,メディキャンバス,0
1013,4120003027784,新規,0,2024-10-23,2024-10-23,合同会社ＤＩＫ．ＭＳ,,合同会社,大阪府,大阪市北区,池田町１番３１号サニーハイツ天満３０３号室,,27,127,5300033,,,,,,,2024-10-23,1,,,,,ディーアイケイエムエス,0
1015,4120101070455,新規,0,2024-10-23,2024-10-23,株式会社青木永和,,株式会社,大阪府,堺市北区,南花田町４１７－３－２１０,,27,146,5918011,,,,,,,2024-10-23,1,,,,,アオギエイワ,0
1019,4122003002981,新規,0,2024-10-23,2024-10-23,サービスフロンティア合同会社,,合同会社,大阪府,東大阪市,若江北町２丁目３番２２号,,27,227,5780945,,,,,,,2024-10-23,1,,,,,サービスフロンティア,0
1022,4130001078192,新規,0,2024-10-23,2024-10-23,株式会社折晋,,株式会社,京都府,舞鶴市,字安岡中山９０３－４,,26,202,6250021,,,,,,,2024-10-23,1,,,,,オリシン,0
1025,4130003009947,新規,0,2024-10-23,2024-10-23,合同会社ＬＩＶＩＮＧ　ＦＯＲＥＳＴ,,合同会社,京都府,京都市下京区,七条通油小路東入大黒町２２７番地第２キョートビル４０２,,26,106,6008223,,,,,,,2024-10-23,1,,,,,リビングフォレスト,0
1026,4130005017221,新規,0,2024-10-23,2024-10-23,一般社団法人ネコチュアリ,,その他の設立登記法人,京都府,京都市右京区,花園中御門町７番地１７,,26,108,6168054,,,,,,,2024-10-23,1,,,,,ネコチュアリ,0
1028,4140001136156,新規,0,2024-10-23,2024-10-23,ＳＯＬＯＮＴ株式会社,,株式会社,兵庫県,加古川市,西神吉町鼎１４９５番地,,28,210,6750047,,,,,,,2024-10-23,1,,,,,ソロント,0
1029,4140001136164,新規,0,2024-10-23,2024-10-23,株式会社メディベル,,株式会社,兵庫県,加古郡稲美町,国岡８８７番地の３,,28,381,6751115,,,,,,,2024-10-23,1,,,,,メディベル,0
1030,4140001136172,新規,0,2024-10-23,2024-10-23,株式会社ＴＲＵＭＰ,,株式会社,兵庫県,神戸市長田区,戸崎通２丁目３番８号,,28,106,6530845,,,,,,,2024-10-23,1,,,,,トランプ,0
1031,4140001136189,新規,0,2024-10-23,2024-10-23,株式会社ＳｅｉＧａ,,株式会社,兵庫県,西宮市,木津山町４番２５号,,28,204,6620062,,,,,,,2024-10-23,1,,,,,セイガ,0
1032,4140001136197,新規,0,2024-10-23,2024-10-23,株式会社ｔｏｒａｎｏｃｏｙａ,,株式会社,兵庫県,南あわじ市,松帆古津路１００１番地トランタンヴォーテ,,28,224,6560304,,,,,,,2024-10-23,1,,,,,トラノコヤ,0
1033,4140003021216,新規,0,2024-10-23,2024-10-23,合同会社Ｍｉｌｔｏｎ,,合同会社,兵庫県,宝塚市,南口２丁目１４番３－１４１０号,,28,214,6650011,,,,,,,2024-10-23,1,,,,,ミルトン,0
1046,4180003027523,新規,0,2024-10-23,2024-10-23,Ｈｅｎｄｒｉｘ　Ｇｅｎｅｔｉｃｓ　Ｌａｙｅｒｓ　Ｊａｐａｎ合同会社,,合同会社,愛知県,春日井市,勝川町７丁目３７番地グランドメゾン勝川ネクシティＥ１２０３号,,23,206,4860945,,,,,,,2024-10-23,1,,,,,ヘンドリクスジェネティクスレイヤーズジャパン,0
1047,4180005020815,新規,0,2024-10-23,2024-10-23,一般社団法人東海自然保護機構,,その他の設立登記法人,愛知県,瀬戸市,白坂町１０９番地,,23,204,4890017,,,,,,,2024-10-23,1,,,,,トウカイシゼンホゴキコウ,0
1050,4190001031749,新規,0,2024-10-23,2024-10-23,株式会社与八,,株式会社,三重県,桑名市,大字大仲新田字屋敷３１９‐４２,,24,205,5110947,,,,,,,2024-10-23,1,,,,,ヨハチ,0
1052,4190003004835,新規,0,2024-10-23,2024-10-23,ａｎｄＬｉｆｅ合同会社,,合同会社,三重県,北牟婁郡紀北町,相賀１９５０番地１,,24,543,5193406,,,,,,,2024-10-23,1,,,,,アンドライフ,0
1067,4240003006909,新規,0,2024-10-23,2024-10-23,合同会社フジロイヤルテック,,合同会社,広島県,福山市,田尻町３６３４番地,,34,207,7200203,,,,,,,2024-10-23,1,,,,,フジロイヤルテック,0
1080,4290001107670,新規,0,2024-10-23,2024-10-23,株式会社たまりば,,株式会社,福岡県,福岡市博多区,中洲２丁目３番３号,,40,132,8100801,,,,,,,2024-10-23,1,,,,,タマリバ,0
1086,4290003015962,新規,0,2024-10-23,2024-10-23,合同会社ＡＭＡＴＯ,,合同会社,福岡県,福岡市中央区,長浜２丁目２番３６号,,40,133,8100072,,,,,,,2024-10-23,1,,,,,アマト,0
1089,4290803004867,新規,0,2024-10-23,2024-10-23,社会福祉機構合同会社,,合同会社,福岡県,北九州市小倉南区,朽網東２丁目２７番１２号,,40,107,8000232,,,,,,,2024-10-23,1,,,,,シャカイフクシキコウ,0
1094,4330001032575,新規,0,2024-10-23,2024-10-23,株式会社ＴＫＤコーポレーション,,株式会社,熊本県,熊本市東区,京塚本町１番２３－４号,,43,102,8620952,,,,,,,2024-10-23,1,,,,,ティーケイディーコーポレーション,0
1096,4330003010604,新規,0,2024-10-23,2024-10-23,合同会社ジアス,,合同会社,熊本県,人吉市,上漆田町４１７１番地,,43,203,8680821,,,,,,,2024-10-23,1,,,,,ジアス,0
1097,4330003010612,新規,0,2024-10-23,2024-10-23,七沢希陽合同会社,,合同会社,熊本県,熊本市南区,田井島２丁目２番１３０号,,43,104,8620965,,,,,,,2024-10-23,1,,,,,ナナサワキハル,0
1108,4360001034354,新規,0,2024-10-23,2024-10-23,ＡＭｄｒａｗｉｎｇ株式会社,,株式会社,沖縄県,沖縄市,照屋３丁目７番１５号,,47,211,9040011,,,,,,,2024-10-23,1,,,,,エイエムドローイング,0
1109,4370001051844,新規,0,2024-10-23,2024-10-23,株式会社Ｓ・Ｄコーポレーション,,株式会社,宮城県,多賀城市,八幡字一本柳５６番地１,,04,209,9850874,,,,,,,2024-10-23,1,,,,,エスディコーポレーション,0
1111,4390001017777,新規,0,2024-10-23,2024-10-23,株式会社メガテックホールディングス,,株式会社,山形県,山形市,若宮１丁目９番８号,,06,201,9902453,,,,,,,2024-10-23,1,,,,,メガテックホールディングス,0
1114,4420001018904,新規,0,2024-10-23,2024-10-23,株式会社ファースト,,株式会社,青森県,三沢市,春日台２丁目１５４番地８０５号,,02,207,0330053,,,,,,,2024-10-23,1,,,,,ファースト,0
1125,4430003016913,新規,0,2024-10-23,2024-10-23,合同会社フォーシーム,,合同会社,北海道,札幌市豊平区,平岸一条２丁目１１番４８ー６０３号,,01,105,0620931,,,,,,,2024-10-23,1,,,,,フォーシーム,0
1127,4450003002548,新規,0,2024-10-23,2024-10-23,合同会社ＭＡＮＹ　ＦＩＥＬＤ,,合同会社,北海道,旭川市,東光九条９丁目１番１７号,,01,204,0788349,,,,,,,2024-10-23,1,,,,,,0
1130,4490003001950,新規,0,2024-10-23,2024-10-23,合同会社テンセンス,,合同会社,高知県,須崎市,大間西町１１番１３－１号,,39,206,7850033,,,,,,,2024-10-23,1,,,,,,0
1140,5010001249218,新規,0,2024-10-23,2024-10-23,株式会社ＫＩビジネスパートナーズ,,株式会社,東京都,千代田区,神田須田町１丁目５番地１０,,13,101,1010041,,,,,,,2024-10-23,1,,,,,ケイアイビジネスパートナーズ,0
1141,5010001249300,新規,0,2024-10-23,2024-10-23,株式会社ケアエッジ,,株式会社,東京都,中央区,入船３丁目１番５号,,13,102,1040042,,,,,,,2024-10-23,1,,,,,ケアエッジ,0
1151,5010401185888,新規,0,2024-10-23,2024-10-23,株式会社ゆい,,株式会社,東京都,港区,南青山２丁目２９－８,,13,103,1070062,,,,,,,2024-10-23,1,,,,,ユイ,0
1152,5010401185896,新規,0,2024-10-23,2024-10-23,株式会社ターミナル不動産,,株式会社,東京都,港区,三田１丁目３－２４,,13,103,1080073,,,,,,,2024-10-23,1,,,,,ターミナルフドウサン,0
1153,5010401185938,新規,0,2024-10-23,2024-10-23,ＮｙｕｕＬｙ株式会社,,株式会社,東京都,港区,赤坂１丁目５番１２号第二虎ノ門ビル４階,,13,103,1070052,,,,,,,2024-10-23,1,,,,,ニューリー,0
1155,5010403033657,新規,0,2024-10-23,2024-10-23,合同会社ＴＩＬＴ２４,,合同会社,東京都,港区,赤坂２丁目１６番１３号パークヒルズ赤坂４０１,,13,103,1070052,,,,,,,2024-10-23,1,,,,,チルトニジュウヨン,0
1158,5010501053053,新規,0,2024-10-23,2024-10-23,正直不動産株式会社,,株式会社,東京都,台東区,上野７丁目３－９－１００７号アルベルゴ上野,,13,106,1100005,,,,,,,2024-10-23,1,,,,,ショウジキフドウサン,0
1166,5010703007402,新規,0,2024-10-23,2024-10-23,合同会社ｋｏｎｏｉｔｏ　ｗｏｒｋｓ,,合同会社,東京都,品川区,西五反田１丁目４－８－１３０９,,13,109,1410031,,,,,,,2024-10-23,1,,,,,コノイトワークス,0
1177,5011001165347,新規,0,2024-10-23,2024-10-23,Ｃｒｅａ株式会社,,株式会社,東京都,渋谷区,神泉町１０番１５号アネックス神泉３０１,,13,113,1500045,,,,,,,2024-10-23,1,,,,,クレア,0
1178,5011001165355,新規,0,2024-10-23,2024-10-23,株式会社Ｆｕｔｕｒｅ　Ｏｂｊｅｃｔｓ,,株式会社,東京都,目黒区,碑文谷５丁目２番５号Ｔ＆Ａビル５Ｆ,,13,110,1520003,,,,,,,2024-10-23,1,,,,,フューチャーオブジェクツ,0
1179,5011001165371,新規,0,2024-10-23,2024-10-23,株式会社ＢＥＣＵＡＤＲＯ,,株式会社,東京都,目黒区,柿の木坂２丁目１３番１３号柿の木坂ヴォーンＩＩＩＡ－１０２,00136719,13,110,1520022,,,,,,,2024-10-23,1,,,,,ベクアドロ,0
1180,5011001165388,新規,0,2024-10-23,2024-10-23,株式会社イノウエエステート,,株式会社,東京都,目黒区,緑が丘２丁目２２番１７号,,13,110,1520034,,,,,,,2024-10-23,1,,,,,イノウエエステート,0
1182,5011003020252,新規,0,2024-10-23,2024-10-23,合同会社クレパス,,合同会社,東京都,渋谷区,円山町２番１６号,,13,113,1500044,,,,,,,2024-10-23,1,,,,,クレパス,0
1191,5011401026529,新規,0,2024-10-23,2024-10-23,天馬株式会社,,株式会社,東京都,板橋区,仲宿６３番地７号ＯＥＯｆｆｉｃｅＢｌｄｇ．５０７号室,,13,119,1730005,,,,,,,2024-10-23,1,,,,,テンマ,0
1194,5011601028143,新規,0,2024-10-23,2024-10-23,株式会社プライム,,株式会社,東京都,練馬区,石神井町２丁目１４番１号,,13,120,1770041,,,,,,,2024-10-23,1,,,,,プライム,0
1198,5012301014128,新規,0,2024-10-23,2024-10-23,株式会社ＳＴＡＲＡＮＩＳＥ,,株式会社,東京都,町田市,つくし野２丁目２８番地１１,,13,209,1940001,,,,,,,2024-10-23,1,,,,,スターアニス,0
1208,5020001159696,新規,0,2024-10-23,2024-10-23,株式会社リバース,,株式会社,神奈川県,横浜市神奈川区,鶴屋町２丁目９番地２２日興パレス横浜８０３,,14,102,2210835,,,,,,,2024-10-23,1,,,,,リバース,0
1209,5020001159738,新規,0,2024-10-23,2024-10-23,株式会社Ｒｅ．ＡＦ,,株式会社,神奈川県,川崎市多摩区,枡形１丁目５－１１,,14,135,2140032,,,,,,,2024-10-23,1,,,,,リーフ,0
1221,5021001083564,新規,0,2024-10-23,2024-10-23,株式会社さがみ南部給食センター,,株式会社,神奈川県,相模原市南区,大野台４丁目１番４８号,,14,153,2520331,,,,,,,2024-10-23,1,,,,,サガミナンブキュウショクセンター,0
1229,5030001163078,新規,0,2024-10-23,2024-10-23,株式会社ガッツ,,株式会社,埼玉県,川口市,桜町６丁目９番１８号,,11,203,3340001,,,,,,,2024-10-23,1,,,,,ガッツ,0
1230,5030001163086,新規,0,2024-10-23,2024-10-23,株式会社ＵＳＪ　ＪＡＰＡＮ,,株式会社,埼玉県,飯能市,本町１９番２号ＫＩＶ－Ｗｅｌｆａｒｅ会館飯能３号室,,11,209,3570032,,,,,,,2024-10-23,1,,,,,ユーエスジェージャパン,0
1231,5030001163094,新規,0,2024-10-23,2024-10-23,株式会社建友,,株式会社,埼玉県,越谷市,川柳町１丁目１４４番地１０,,11,222,3430827,,,,,,,2024-10-23,1,,,,,ケンユウ,0
1235,5030003025359,新規,0,2024-10-23,2024-10-23,合同会社夢と希望,,合同会社,埼玉県,さいたま市大宮区,桜木町２丁目３番地大宮マルイ７階,,11,103,3300854,,,,,,,2024-10-23,1,,,,,ユメトキボウ,0
1242,5050005013509,新規,0,2024-10-23,2024-10-23,一般社団法人地方公営企業会計総合研究所,,その他の設立登記法人,茨城県,ひたちなか市,新光町３８番地ひたちなかテクノセンター,,08,221,3120005,,,,,,,2024-10-23,1,,,,,チホウコウエイキギョウカイケイソウゴウケンキュウジョ,0
1243,5070001042294,新規,0,2024-10-23,2024-10-23,株式会社Ｈａｚｕｍｉ,,株式会社,群馬県,前橋市,千代田町２丁目１０番１号ｃｈｏｃｏｌａｔｅ１Ｆ,,10,201,3710022,,,,,,,2024-10-23,1,,,,,ハズミ,0
1250,5080101025082,新規,0,2024-10-23,2024-10-23,一永堂株式会社,,株式会社,静岡県,御殿場市,萩原６２６番地の３,,22,215,4120042,,,,,,,2024-10-23,1,,,,,イチエイドウ,0
1251,5080103003169,新規,0,2024-10-23,2024-10-23,合同会社Ｌｉｂ．ｓｔｕｄｉｏ,,合同会社,静岡県,沼津市,御幸町１９－５香陵ハイツ１階西側,,22,203,4100832,,,,,,,2024-10-23,1,,,,,リブスタジオ,0
1256,5110003005534,新規,0,2024-10-23,2024-10-23,合同会社ＩＳテクノロジーズ,,合同会社,新潟県,見附市,上新田町２‐３５,,15,211,9540112,,,,,,,2024-10-23,1,,,,,アイエステクノロジーズ,0
1264,5120001269592,新規,0,2024-10-23,2024-10-23,株式会社ガーブ・クリエイティブエンターテインメント,,株式会社,大阪府,大阪市中央区,本町３丁目５番５号,,27,128,5410053,,,,,,,2024-10-23,1,,,,,ガーブクリエイティブエンターテインメント,0
1269,5120003027809,新規,0,2024-10-23,2024-10-23,ＲＩＴＡ合同会社,,合同会社,大阪府,大阪市淀川区,塚本１丁目２番５－３２４号,,27,123,5320026,,,,,,,2024-10-23,1,,,,,リタ,0
1270,5120005024589,新規,0,2024-10-23,2024-10-23,弁護士法人北浜中央,,その他の設立登記法人,大阪府,大阪市中央区,北浜２丁目６番１１号北浜エクセルビル２階,,27,128,5410041,,,,,,,2024-10-23,1,,,,,キタハマチュウオウ,0
1287,5140001136196,新規,0,2024-10-23,2024-10-23,株式会社岡工業,,株式会社,兵庫県,尼崎市,富松町３丁目１２－１９－１,,28,202,6610003,,,,,,,2024-10-23,1,,,,,オカコウギョウ,0
1289,5140005027243,新規,0,2024-10-23,2024-10-23,一般社団法人シビルソサエティ,,その他の設立登記法人,兵庫県,姫路市,広畑区東新町３丁目３番地の２金海福祉ビルディング広畑３０２号,,28,201,6711121,,,,,,,2024-10-23,1,,,,,シビルソサエティ,0
1305,5180005020814,新規,0,2024-10-23,2024-10-23,特定非営利活動法人ドローン研究開発機構,,その他の設立登記法人,愛知県,名古屋市中区,丸の内２丁目１番１５号,,23,106,4600002,,,,,,,2024-10-23,1,,,,,ドローンケンキュウカイハツキコウ,0
1308,5180301039161,新規,0,2024-10-23,2024-10-23,株式会社さんとく,,株式会社,愛知県,高浜市,呉竹町５丁目６番地２１,,23,227,4441336,,,,,,,2024-10-23,1,,,,,サントク,0
1317,5230001020580,新規,0,2024-10-23,2024-10-23,ＶＩＡＲＱ株式会社,,株式会社,富山県,富山市,花園町３丁目７番１７‐１０６号,,16,201,9398201,,,,,,,2024-10-23,1,,,,,ヴィアーク,0
1322,5240001063983,新規,0,2024-10-23,2024-10-23,株式会社ＦＦＤ,,株式会社,広島県,三原市,明神２丁目４番９号,,34,204,7230046,,,,,,,2024-10-23,1,,,,,エフエフディ,0
1333,5290001107686,新規,0,2024-10-23,2024-10-23,株式会社ＳＧＮ,,株式会社,福岡県,大牟田市,大字手鎌２３番地６,,40,202,8360004,,,,,,,2024-10-23,1,,,,,エスジーエヌ,0
1334,5290001107703,新規,0,2024-10-23,2024-10-23,株式会社スリーシップホールディングス,,株式会社,福岡県,福岡市東区,多の津２丁目５番２号,,40,131,8130034,,,,,,,2024-10-23,1,,,,,スリーシップホールディングス,0
1337,5290005019523,新規,0,2024-10-23,2024-10-23,バナナ協同組合,,その他の設立登記法人,福岡県,福岡市博多区,綱場町６番１３号九産綱場ビル６階,,40,132,8120024,,,,,,,2024-10-23,1,,,,,バナナ,0
1346,5340001026880,新規,0,2024-10-23,2024-10-23,ひととき株式会社,,株式会社,鹿児島県,鹿児島市,草牟田１丁目１－５－６０３,,46,201,8900014,,,,,,,2024-10-23,1,,,,,ヒトトキ,0
1349,5360001034353,新規,0,2024-10-23,2024-10-23,株式会社東恩納興業,,株式会社,沖縄県,うるま市,字兼箇段１３６２番地１メゾンマーベラス１０２,,47,213,9042241,,,,,,,2024-10-23,1,,,,,ヒガシオンナコウギョウ,0
1352,5360003014411,新規,0,2024-10-23,2024-10-23,合同会社寿設備工業,,合同会社,沖縄県,沖縄市,知花６丁目２６－１４シャトーグランデパート２Ｂ１,,47,211,9042143,,,,,,,2024-10-23,1,,,,,コトブキセツビコウギョウ,0
1359,5390001017776,新規,0,2024-10-23,2024-10-23,株式会社かっさラボ,,株式会社,山形県,山形市,馬見ケ崎１丁目１４番８号,,06,201,9900810,,,,,,,2024-10-23,1,,,,,カッサラボ,0
1361,5410001013970,新規,0,2024-10-23,2024-10-23,株式会社リフォームＡＫＴ,,株式会社,秋田県,秋田市,浜田字滝ノ下１２３番１,,05,201,0101654,,,,,,,2024-10-23,1,,,,,リフォームエーケーティー,0
1371,5430001092872,新規,0,2024-10-23,2024-10-23,株式会社Ｌｕｍｉｎａｖ,,株式会社,北海道,札幌市中央区,南一条西１１丁目３２７番地,,01,101,0600061,,,,,,,2024-10-23,1,,,,,ルミネイヴ,0
1372,5430001092922,新規,0,2024-10-23,2024-10-23,株式会社ＳＡＰＰＯＲＯ　ＥＡＳＴ　ＣＯＮＳＵＬＴＩＮＧ,,株式会社,北海道,札幌市東区,北九条東６丁目１番３号,,01,103,0600909,,,,,,,2024-10-23,1,,,,,サッポロイーストコンサルティング,0
1378,5430005015094,新規,0,2024-10-23,2024-10-23,一般社団法人Ｆｅｅｄ　Ｐａｒｌａ,,その他の設立登記法人,北海道,札幌市厚別区,上野幌一条２丁目６番１０号,,01,108,0040031,,,,,,,2024-10-23,1,,,,,フィードパーラ,0
1381,5460303000844,新規,0,2024-10-23,2024-10-23,合同会社川崎自工,00136728,合同会社,北海道,北見市,北上２５－５５ノールモンテ１０１,,01,208,0991583,,,,,,,2024-10-23,1,,,,,カワサキジコウ,0
1387,6010001249010,新規,0,2024-10-23,2024-10-23,東京長栄株式会社,,株式会社,東京都,中央区,日本橋兜町五丁目１番兜町第１平和ビル３Ｆ,,13,102,1030026,,,,,,,2024-10-23,1,,,,,トウキョウチョウエイ,0
1388,6010001249209,新規,0,2024-10-23,2024-10-23,株式会社三勝,,株式会社,東京都,中央区,築地２丁目６－２カルム築地５０３室,,13,102,1040045,,,,,,,2024-10-23,1,,,,,サンカツ,0
1389,6010001249290,新規,0,2024-10-23,2024-10-23,株式会社Ｇプログレッシブ,,株式会社,東京都,千代田区,九段南１丁目５番６号りそな九段ビル５ＦＫＳフロア,,13,101,1020074,,,,,,,2024-10-23,1,,,,,,0
1392,6010003045267,新規,0,2024-10-23,2024-10-23,三勝合同会社,,合同会社,東京都,中央区,築地２丁目６－２カルム築地５０３室,,13,102,1040045,,,,,,,2024-10-23,1,,,,,サンカツ,0
1393,6010003045291,新規,0,2024-10-23,2024-10-23,合同会社ＴＣＬ　Ｊａｐａｎ,,合同会社,東京都,中央区,日本橋小舟町８番１３号天翔オフィス日本橋５０９号室,,13,102,1030024,,,,,,,2024-10-23,1,,,,,ティーシーエルジャパン,0
1395,6010103002440,新規,0,2024-10-23,2024-10-23,とら塾合同会社,,合同会社,東京都,八王子市,東浅川町３３６番地４アーカイブス１０１号,,13,201,1930834,,,,,,,2024-10-23,1,,,,,トラジュク,0
1410,6010401185912,新規,0,2024-10-23,2024-10-23,株式会社ＪＵＡＮＩＴＡ,,株式会社,東京都,港区,南青山５丁目１０番５号九曜ビルディング青山ハイツ８０５,,13,103,1070062,,,,,,,2024-10-23,1,,,,,ファニータ,0
1417,6010501052954,新規,0,2024-10-23,2024-10-23,東進商事株式会社,,株式会社,東京都,台東区,浅草１丁目１番地１２－２Ｆ,,13,106,1110032,,,,,,,2024-10-23,1,,,,,トウシンショウジ,0
1427,6010901056142,新規,0,2024-10-23,2024-10-23,Ｔｙｋｅｎ株式会社,,株式会社,東京都,世田谷区,弦巻４丁目８番１２号,,13,112,1540016,,,,,,,2024-10-23,1,,,,,タイクン,0
1432,6011001165321,新規,0,2024-10-23,2024-10-23,株式会社イフオンリー,,株式会社,東京都,渋谷区,道玄坂１丁目１０番８号渋谷道玄坂東急ビル２Ｆ－Ｃ,,13,113,1500043,,,,,,,2024-10-23,1,,,,,イフオンリー,0
1433,6011001165346,新規,0,2024-10-23,2024-10-23,株式会社Ａｓｃｅｎｄａ,,株式会社,東京都,渋谷区,広尾３丁目１７番４号,,13,113,1500012,,,,,,,2024-10-23,1,,,,,アセンダ,0
1434,6011001165354,新規,0,2024-10-23,2024-10-23,株式会社ｍｅｅｔｓ　Ｌａｂ,,株式会社,東京都,渋谷区,円山町５番５号Ｎａｖｉ渋谷Ｖ３階,,13,113,1500044,,,,,,,2024-10-23,1,,,,,ミーツラボ,0
1438,6011003020210,新規,0,2024-10-23,2024-10-23,合同会社Ｍａｒｉａｎｎｅ,,合同会社,東京都,渋谷区,神宮前３丁目３３番２号,,13,113,1500001,,,,,,,2024-10-23,1,,,,,マリアンヌ,0
1439,6011003020227,新規,0,2024-10-23,2024-10-23,ＫＫＮ合同会社,,合同会社,東京都,目黒区,東が丘１丁目２８番１７号,,13,110,1520021,,,,,,,2024-10-23,1,,,,,ケーケーエヌ,0
1442,6011101109277,新規,0,2024-10-23,2024-10-23,株式会社マキシマイズ,,株式会社,東京都,新宿区,西新宿３丁目３番１３号西新宿水間ビル６階,,13,104,1600023,,,,,,,2024-10-23,1,,,,,マキシマイズ,0
1448,6011401026528,新規,0,2024-10-23,2024-10-23,株式会社ＤｉｇｉｔａｌＰｉｅｃｅ,,株式会社,東京都,板橋区,南町１４番１－５０２号グランデージ要町,,13,119,1730027,,,,,,,2024-10-23,1,,,,,デジタルピース,0
1451,6011505002656,新規,0,2024-10-23,2024-10-23,一般社団法人日本執事協会,,その他の設立登記法人,東京都,北区,王子２丁目２番１１号,,13,117,1140002,,,,,,,2024-10-23,1,,,,,ニホンシツジキョウカイ,0
1456,6011601028142,新規,0,2024-10-23,2024-10-23,エルクス株式会社,,株式会社,東京都,練馬区,上石神井３丁目２０番２号,,13,120,1770044,,,,,,,2024-10-23,1,,,,,エルクス,0
1468,6013301053239,新規,0,2024-10-23,2024-10-23,スカイビュージャパン株式会社,,株式会社,東京都,豊島区,北大塚１丁目１７番３号,,13,116,1700004,,,,,,,2024-10-23,1,,,,,スカイビュージャパン,0
1471,6020001159712,新規,0,2024-10-23,2024-10-23,ＢＥＳＩＤＥ株式会社,,株式会社,神奈川県,横浜市西区,北幸２丁目１０番４８号むつみビル３階,,14,103,2200004,,,,,,,2024-10-23,1,,,,,ビサイド,0
1476,6020003027090,新規,0,2024-10-23,2024-10-23,ランテーナ合同会社,,合同会社,神奈川県,横浜市青葉区,市ケ尾町３３０－１２,,14,117,2250024,,,,,,,2024-10-23,1,,,,,ランテーナ,0
1477,6020003027116,新規,0,2024-10-23,2024-10-23,合同会社Ｐｒｏｒｉｔａ　Ｐａｒｔｎｅｒｓ,,合同会社,神奈川県,横浜市都筑区,北山田２丁目２７番２－１０６号,,14,118,2240021,,,,,,,2024-10-23,1,,,,,プロリタパートナーズ,0
1478,6020003027149,新規,0,2024-10-23,2024-10-23,スギモト事務所合同会社,,合同会社,神奈川県,川崎市麻生区,栗木台２丁目３番６号フェリシア栗木台Ａ－４,,14,137,2150032,,,,,,,2024-10-23,1,,,,,スギモトジムショ,0
1489,6030001163069,新規,0,2024-10-23,2024-10-23,株式会社カフアテック,,株式会社,埼玉県,さいたま市大宮区,桜木町１丁目１９５番地１大宮ソラミチＫＯＺ４階,,11,103,3300854,,,,,,,2024-10-23,1,,,,,カフアテック,0
1490,6030001163093,新規,0,2024-10-23,2024-10-23,株式会社浜工業,,株式会社,埼玉県,北葛飾郡杉戸町,大字本郷６７１番地１,,11,464,3450023,,,,,,,2024-10-23,1,,,,,ハマコウギョウ,0
1491,6030001163110,新規,0,2024-10-23,2024-10-23,株式会社ＩＤＫ,,株式会社,埼玉県,越谷市,蒲生愛宕町５番２９－１号,,11,222,3430834,,,,,,,2024-10-23,1,,,,,アイディケイ,0
1492,6030001163119,新規,0,2024-10-23,2024-10-23,株式会社アヴァンチネクスト,,株式会社,埼玉県,さいたま市桜区,西堀２丁目２番１０－３０２,,11,106,3380832,,,,,,,2024-10-23,1,,,,,アヴァンチネクスト,0
1495,6030003025358,新規,0,2024-10-23,2024-10-23,スピカ合同会社,,合同会社,埼玉県,和光市,丸山台２丁目８番２９号,,11,229,3510112,,,,,,,2024-10-23,1,,,,,スピカ,0
1498,6030005021900,新規,0,2024-10-23,2024-10-23,医療法人社団ＩＮＣ,,その他の設立登記法人,埼玉県,深谷市,宿根１４３０番２,,11,218,3660810,,,,,,,2024-10-23,1,,,,,アイエヌシー,0
1503,6040001135876,新規,0,2024-10-23,2024-10-23,株式会社一米,,株式会社,千葉県,千葉市緑区,あすみが丘１丁目１番地８,,12,105,2670066,,,,,,,2024-10-23,1,,,,,イチベイ,0
1504,6040001135901,新規,0,2024-10-23,2024-10-23,海東青食品株式会社,,株式会社,千葉県,船橋市,松が丘５丁目１１番９号,,12,204,2740064,,,,,,,2024-10-23,1,,,,,カイトンチンショクヒン,0
1514,6070001042211,新規,0,2024-10-23,2024-10-23,株式会社ｃｏｃｏ＆ｒｕｒｕ,,株式会社,群馬県,太田市,下浜田町７４０番地１３,,10,205,3730821,,,,,,,2024-10-23,1,,,,,ココアンドルル,0
1515,6070001042293,新規,0,2024-10-23,2024-10-23,株式会社Ｋ＆Ｓイノベーションラボ,,株式会社,群馬県,高崎市,吉井町黒熊３２６番地３,,10,202,3702112,,,,,,,2024-10-23,1,,,,,ケイアンドエスイノベーションラボ,0
1518,6070003005620,新規,0,2024-10-23,2024-10-23,サンサン合同会社,,合同会社,群馬県,伊勢崎市,八坂町４番地８,,10,204,3720044,,,,,,,2024-10-23,1,,,,,サンサン,0
1522,6080101025081,新規,0,2024-10-23,2024-10-23,株式会社エレクトリンク,,株式会社,静岡県,沼津市,南本郷町１２番８号,,22,203,4100815,,,,,,,2024-10-23,1,,,,,エレクトリンク,0
1523,6080401027521,新規,0,2024-10-23,2024-10-23,空色国晃株式会社,,株式会社,静岡県,浜松市中央区,小豆餅４丁目７番４号,,22,138,4338113,,,,,,,2024-10-23,1,,,,,ソライロコクコウ,0
1524,6080403005129,新規,0,2024-10-23,2024-10-23,合同会社ＡＬＰＨＡ,,合同会社,静岡県,菊川市,嶺田２４００－１,,22,224,4371522,,,,,,,2024-10-23,1,,,,,アルファ,0
1532,6110005017139,新規,0,2024-10-23,2024-10-23,特定非営利活動法人長岡シティ・スポーツコミュニティ,,その他の設立登記法人,新潟県,長岡市,千手２丁目１２番２２‐６０４号,,15,202,9400087,,,,,,,2024-10-23,1,,,,,ナガオカシティスポーツコミュニティ,0
1544,6120001269501,新規,0,2024-10-23,2024-10-23,双銘株式会社,,株式会社,大阪府,大阪市都島区,高倉町２丁目３－９－２０２号室,,27,102,5340011,,,,,,,2024-10-23,1,,,,,ソウメイ,0
1545,6120001269526,新規,0,2024-10-23,2024-10-23,はれや株式会社,,株式会社,大阪府,大阪市北区,本庄東３丁目５番１９－１０２号,,27,127,5310074,,,,,,,2024-10-23,1,,,,,ハレヤ,0
1546,6120001269534,新規,0,2024-10-23,2024-10-23,Ｙ＆Ｙ株式会社,,株式会社,大阪府,大阪市都島区,内代町１丁目１番地２８－７０３号室,,27,102,5340013,,,,,,,2024-10-23,1,,,,,ワイアンドワイ,0
1547,6120001269583,新規,0,2024-10-23,2024-10-23,株式会社Ｅｖｏｌｖｅ,,株式会社,大阪府,大阪市北区,天満橋１丁目３番２０号,,27,127,5300042,,,,,,,2024-10-23,1,,,,,エヴォルブ,0
1548,6120001269591,新規,0,2024-10-23,2024-10-23,株式会社一点軒古美術,,株式会社,大阪府,大阪市旭区,中宮２丁目１９番５号ルベール公園前７０３号,,27,117,5350003,,,,,,,2024-10-23,1,,,,,イッテンケンコビジュツ,0
1549,6120001269633,新規,0,2024-10-23,2024-10-23,株式会社デフデバイス,,株式会社,大阪府,寝屋川市,萱島東２丁目１３番２９号,,27,215,5720824,,,,,,,2024-10-23,1,,,,,デフデバイス,0
1561,6120003027808,新規,0,2024-10-23,2024-10-23,合同会社ワイム,,合同会社,大阪府,枚方市,田口１丁目３２－３,,27,210,5731162,,,,,,,2024-10-23,1,,,,,ワイム,0
1564,6120101070461,新規,0,2024-10-23,2024-10-23,株式会社ＲＳキャピタル,,株式会社,大阪府,富田林市,寺池台５丁目１４番１号,,27,214,5840073,,,,,,,2024-10-23,1,,,,,アールエスキャピタル,0
1567,6120901049944,新規,0,2024-10-23,2024-10-23,シロサン株式会社,,株式会社,大阪府,箕面市,西宿３丁目１４番１１号,,27,220,5620034,,,,,,,2024-10-23,1,,,,,シロサン,0
1569,6120903005391,新規,0,2024-10-23,2024-10-23,合同会社Ｊａｃｋ‐ＩＴ,,合同会社,大阪府,茨木市,学園町５番３－１００８号,,27,211,5670833,,,,,,,2024-10-23,1,,,,,ジャックイット,0
1573,6130001078158,新規,0,2024-10-23,2024-10-23,ＺｅｒｏｏｎｅＪａｐａｎ株式会社,,株式会社,京都府,京都市中京区,御池通東洞院東入笹屋町４３６永和御池ビル６０６号,,26,104,6048187,,,,,,,2024-10-23,1,,,,,ゼロワンジャパン,0
1574,6130001078182,新規,0,2024-10-23,2024-10-23,Ｌｉｎｋ　Ｐａｒｋ株式会社,,株式会社,京都府,京都市南区,西九条唐戸町１８番地４－１０２,,26,107,6018447,,,,,,,2024-10-23,1,,,,,リンクパーク,0
1575,6130001078190,新規,0,2024-10-23,2024-10-23,株式会社Ｔｉｅ,,株式会社,京都府,京都市伏見区,桃山町和泉２３番地３トーシンハイツ桃山４０３号室,,26,109,6128015,,,,,,,2024-10-23,1,,,,,ティーアイイー,0
1579,6140001136088,新規,0,2024-10-23,2024-10-23,りんさん株式会社,,株式会社,兵庫県,川辺郡猪名川町,柏梨田字塩井２２７－１,,28,301,6660243,,,,,,,2024-10-23,1,,,,,リンサン,0
1580,6140001136179,新規,0,2024-10-23,2024-10-23,株式会社Ｔ・Ｉ,,株式会社,兵庫県,明石市,魚住町中尾１４２番地,,28,203,6740082,,,,,,,2024-10-23,1,,,,,ティーアイ,0
1598,6180001163723,新規,0,2024-10-23,2024-10-23,株式会社Ｌｕｍｉｎａ,,株式会社,愛知県,名古屋市中区,丸の内２丁目１６番８号２Ｆ,,23,106,4600002,,,,,,,2024-10-23,1,,,,,ルミナ,0
1604,6180301039169,新規,0,2024-10-23,2024-10-23,株式会社エルドラドジャパン,,株式会社,愛知県,岡崎市,天白町字東池３番地３,,23,202,4440844,,,,,,,2024-10-23,1,,,,,エルドラドジャパン,0
1618,6200003006555,新規,0,2024-10-23,2024-10-23,Ｂａｓｈｅｅｒ　Ｔｒａｄｉｎｇ合同会社,,合同会社,岐阜県,美濃加茂市,西町７丁目３１３番地,,21,211,5050046,,,,,,,2024-10-23,1,,,,,バシェールトレーディング,0
1624,6220001026280,新規,0,2024-10-23,2024-10-23,株式会社勝栄,,株式会社,石川県,金沢市,広岡２丁目７番２５号（プレミスト金沢駅西口・４０６号）,,17,201,9200031,,,,,,,2024-10-23,1,,,,,ショウエイ,0
1625,6220003003864,新規,0,2024-10-23,2024-10-23,ｎｅｏｎ合同会社,,合同会社,石川県,金沢市,此花町５番６号ライフ金沢第一ビル６０１Ａ,,17,201,9200852,,,,,,,2024-10-23,1,,,,,ネオン,0
1629,6240001063990,新規,0,2024-10-23,2024-10-23,株式会社ツリガネ堂,,株式会社,広島県,東広島市,西条西本町２８番６号サンスクエア東広島３階東広島市新産業創造センター貸事務所Ｂ,,34,212,7390043,,,,,,,2024-10-23,1,,,,,ツリガネドウ,0
1643,6290001107693,新規,0,2024-10-23,2024-10-23,株式会社Ｍ＆Ｓ,,株式会社,福岡県,福岡市南区,大橋１丁目１５番６号アルボーレ大橋１Ｆ,,40,134,8150033,,,,,,,2024-10-23,1,,,,,エムアンドエス,0
1644,6290001107719,新規,0,2024-10-23,2024-10-23,株式会社ＴＯＲＴＵＥ,,株式会社,福岡県,古賀市,舞の里１丁目２０番８号,,40,223,8113114,,,,,,,2024-10-23,1,,,,,トルチェ,0
1654,6320001020777,新規,0,2024-10-23,2024-10-23,天ケ瀬ビラ環境株式会社,,株式会社,大分県,日田市,天瀬町本城６４０番地５４,,44,204,8770112,,,,,,,2024-10-23,1,,,,,アマガセビラカンキョウ,0
1655,6320003004497,新規,0,2024-10-23,2024-10-23,合同会社調和,,合同会社,大分県,宇佐市,大字法鏡寺９２１番地の１５,,44,211,8790454,,,,,,,2024-10-23,1,,,,,チョウワ,0
1656,6330001032557,新規,0,2024-10-23,2024-10-23,パートナーズ株式会社,,株式会社,熊本県,球磨郡多良木町,大字多良木１３８８番地２ヤマダビル,,43,505,8680501,,,,,,,2024-10-23,1,,,,,パートナーズ,0
1658,6340001026871,新規,0,2024-10-23,2024-10-23,インフィニット株式会社,,株式会社,鹿児島県,鹿児島市,西田３丁目７番１６号,,46,201,8900046,,,,,,,2024-10-23,1,,,,,インフィニット,0
1662,6360001034253,新規,0,2024-10-23,2024-10-23,株式会社琉球モビリティ,,株式会社,沖縄県,中頭郡北谷町,字伊平４１４番地５－２階,,47,326,9040102,,,,,,,2024-10-23,1,,,,,リュウキュウモビリティ,0
1663,6360001034352,新規,0,2024-10-23,2024-10-23,株式会社ＨＥＡＬＩＮＧＣＡＴＩＯＮ　ＪＡＰＡＮ,,株式会社,沖縄県,那覇市,久米２丁目３－１５,,47,201,9000033,,,,,,,2024-10-23,1,,,,,ヒーリングケーションジャパン,0
1665,6360005007123,新規,0,2024-10-23,2024-10-23,一般社団法人医樹会,,その他の設立登記法人,沖縄県,宜野湾市,伊佐４丁目２番１６号沖縄化粧板ビル,,47,205,9012221,,,,,,,2024-10-23,1,,,,,イジュカイ,0
1668,6380005012889,新規,0,2024-10-23,2024-10-23,一般社団法人東日本介保支援協会,,その他の設立登記法人,福島県,福島市,渡利字大久保７７番地の１西棟,,07,201,9608141,,,,,,,2024-10-23,1,,,,,ヒガシニホンカイホシエンキョウカイ,0
1680,6430001092888,新規,0,2024-10-23,2024-10-23,ＳＫＹコンタクト株式会社,,株式会社,北海道,札幌市豊平区,平岸一条６丁目１－３０－２１７,,01,105,0620931,,,,,,,2024-10-23,1,,,,,スカイコンタクト,0
1681,6430001092921,新規,0,2024-10-23,2024-10-23,株式会社メアラシケンイチ,,株式会社,北海道,札幌市中央区,北一条西２丁目１１番地１・２３山京ビル３０１,,01,101,0600001,,,,,,,2024-10-23,1,,,,,メアラシケンイチ,0
1689,6440005002784,新規,0,2024-10-23,2024-10-23,一般社団法人ｒｅｓｔａ,,その他の設立登記法人,北海道,函館市,湯川町２丁目４３－４,,01,202,0420932,,,,,,,2024-10-23,1,,,,,リスタ,0
1691,6470001020432,新規,0,2024-10-23,2024-10-23,阿山不動産リアルティ株式会社,,株式会社,香川県,高松市,塩上町２丁目１番１０号,,37,201,7600062,,,,,,,2024-10-23,1,,,,,アヤマフドウサンリアルティ,0
1694,6480003002196,新規,0,2024-10-23,2024-10-23,バンクリエイト合同会社,,合同会社,徳島県,板野郡藍住町,徳命字小塚北１１４番地１４,,36,403,7711210,,,,,,,2024-10-23,1,,,,,バンクリエイト,0
1696,6500001025956,新規,0,2024-10-23,2024-10-23,株式会社白流,,株式会社,愛媛県,新居浜市,萩生２８２２番地の２,,38,205,7920050,,,,,,,2024-10-23,1,,,,,ハクル,0
1697,6700150126254,新規,0,2024-10-23,2024-06-28,羽島市国際交流協会,,その他,岐阜県,羽島市,竹鼻町５５番地,,21,209,5016241,,,,,,,2024-06-28,1,,,,,ハシマシコクサイコウリユウキヨウカイ,0
1704,7010001249182,新規,0,2024-10-23,2024-10-23,ＭＪＴ株式会社,,株式会社,東京都,中央区,銀座１丁目１２番４号Ｎ＆ＥＢＬＤ６Ｆ,,13,102,1040061,,,,,,,2024-10-23,1,,,,,エムジェイティー,0
1705,7010001249232,新規,0,2024-10-23,2024-10-23,株式会社Ｗｉｓｈ　Ｐａｒｔｎｅｒｓ,,株式会社,東京都,中央区,日本橋本石町３丁目２番７号,,13,102,1030021,,,,,,,2024-10-23,1,,,,,ウィッシュパートナーズ,0
1712,7010003045241,新規,0,2024-10-23,2024-10-23,合同会社ａｍａｚａｔ６８,,合同会社,東京都,千代田区,内神田２丁目１３番２号,,13,101,1010047,,,,,,,2024-10-23,1,,,,,アマザットロクジュウハチ,0
1714,7010005039002,新規,0,2024-10-23,2024-10-23,一般社団法人リニューアブルエナジー,,その他の設立登記法人,東京都,中央区,八丁堀３丁目１８番１０号,,13,102,1040032,,,,,,,2024-10-23,1,,,,,リニューアブルエナジー,0
1726,7010405023704,新規,0,2024-10-23,2024-10-23,一般社団法人アテナＳＰＣホールディングス,,その他の設立登記法人,東京都,港区,芝大門２丁目１２番３号共生ビル２号館７階,,13,103,1050012,,,,,,,2024-10-23,1,,,,,アテナエスピーシーホールディングス,0
1733,7010701046722,新規,0,2024-10-23,2024-10-23,株式会社ルーク,,株式会社,東京都,品川区,大井１丁目２３番７号,,13,109,1400014,,,,,,,2024-10-23,1,,,,,ルーク,0
1736,7010901056174,新規,0,2024-10-23,2024-10-23,株式会社ゆたか,,株式会社,東京都,世田谷区,代沢５丁目３２番７号小林ビル２階,,13,112,1550032,,,,,,,2024-10-23,1,,,,,ユタカ,0
1740,7011001165345,新規,0,2024-10-23,2024-10-23,株式会社ＶＡＬＰ,,株式会社,東京都,渋谷区,渋谷１丁目１５番１５号テラス渋谷美竹６０５,,13,113,1500002,,,,,,,2024-10-23,1,,,,,バルプ,0
1741,7011001165361,新規,0,2024-10-23,2024-10-23,株式会社Ｓ．Ｉ．Ｐ．Ｈ　Ｆｌａｇｓ,,株式会社,東京都,渋谷区,元代々木町２－４代々木ＨＲＣビル７階,,13,113,1510062,,,,,,,2024-10-23,1,,,,,エスアイピーエイチフラッグス,0
1742,7011001165378,新規,0,2024-10-23,2024-10-23,ＰｅｎＢｌｕｅ株式会社,,株式会社,東京都,渋谷区,道玄坂１丁目１０番８号渋谷道玄坂東急ビル２Ｆ－Ｃ,,13,113,1500043,,,,,,,2024-10-23,1,,,,,ペンブルー,0
1743,7011003020226,新規,0,2024-10-23,2024-10-23,Ｐｒｅｔｅｒｉｔｅ合同会社,,合同会社,東京都,渋谷区,渋谷２丁目１９－１５宮益坂ビルディング６０９,,13,113,1500002,,,,,,,2024-10-23,1,,,,,プレテリット,0
1746,7011105011197,新規,0,2024-10-23,2024-10-23,行政書士法人神楽坂法務合同事務所,,その他の設立登記法人,東京都,新宿区,神楽坂４丁目１番１号オザワビル６階,,13,104,1620825,,,,,,,2024-10-23,1,,,,,カグラザカホウムゴウドウジムショ,0
1752,7011503006278,新規,0,2024-10-23,2024-10-23,ＯＡＳＩＳ　ＳＴＡＹ合同会社,,合同会社,東京都,北区,中里１丁目７－１０御簾納ビル１Ｆ,00136720,13,117,1140015,,,,,,,2024-10-23,1,,,,,オアシスステイ,0
1753,7011505002655,新規,0,2024-10-23,2024-10-23,一般社団法人Ｗｅｌｌ‐Ｗｉｎｄ,,その他の設立登記法人,東京都,荒川区,東尾久８丁目３９番１号,,13,118,1160012,,,,,,,2024-10-23,1,,,,,ウェルウィンド,0
1761,7012701018528,新規,0,2024-10-23,2024-10-23,株式会社Ｆｏｕｒｗａｌｋ,,株式会社,東京都,西東京市,中町５丁目５―１０,,13,229,2020013,,,,,,,2024-10-23,1,,,,,フォーウォーク,0
1763,7012703003115,新規,0,2024-10-23,2024-10-23,合同会社あべ企画,,合同会社,東京都,西東京市,下保谷１丁目７番５号,,13,229,2020004,,,,,,,2024-10-23,1,,,,,アベキカク,0
1766,7013301053238,新規,0,2024-10-23,2024-10-23,株式会社ヤマナイプラス,,株式会社,東京都,豊島区,池袋２丁目５７番６－ＢＯ２号,,13,116,1710014,,,,,,,2024-10-23,1,,,,,ヤマナイプラス,0
1788,7021001083538,新規,0,2024-10-23,2024-10-23,株式会社見目工房,,株式会社,神奈川県,相模原市南区,相模大野６丁目２０番１－９０４号,,14,153,2520303,,,,,,,2024-10-23,1,,,,,ケンモクコウボウ,0
1791,7030001163051,新規,0,2024-10-23,2024-10-23,株式会社ＪＣ商事,,株式会社,埼玉県,さいたま市南区,鹿手袋５丁目１１番３４－２号,,11,108,3360031,,,,,,,2024-10-23,1,,,,,ジェーシーショウジ,0
1792,7030001163068,新規,0,2024-10-23,2024-10-23,株式会社おかわり,,株式会社,埼玉県,さいたま市南区,大字大谷口１７３７番地４,,11,108,3360042,,,,,,,2024-10-23,1,,,,,オカワリ,0
1793,7030001163118,新規,0,2024-10-23,2024-10-23,新埼ガード株式会社,,株式会社,埼玉県,越谷市,南越谷４丁目１１番地５トラビ南越谷６Ｆ－０１,,11,222,3430845,,,,,,,2024-10-23,1,,,,,シンサイガード,0
1795,7030003025349,新規,0,2024-10-23,2024-10-23,とある合同会社,,合同会社,埼玉県,ふじみ野市,中福岡１８８番１９号,,11,245,3560013,,,,,,,2024-10-23,1,,,,,トアル,0
1796,7030003025365,新規,0,2024-10-23,2024-10-23,ハーク合同会社,,合同会社,埼玉県,久喜市,砂原１丁目３番９号,,11,232,3400218,,,,,,,2024-10-23,1,,,,,ハーク,0
1798,7040001135891,新規,0,2024-10-23,2024-10-23,株式会社Ｄｏｇ　Ｂｏｎ,,株式会社,千葉県,柏市,布施８２６番地１５,,12,217,2770825,,,,,,,2024-10-23,1,,,,,,0
1799,7040001135900,新規,0,2024-10-23,2024-10-23,株式会社Ｏｎｅ‐Ｓｔｅｐ,,株式会社,千葉県,松戸市,幸田２丁目１４８,,12,207,2700001,,,,,,,2024-10-23,1,,,,,ワンステップ,0
1803,7040003026032,新規,0,2024-10-23,2024-10-23,合同会社ａｎｄｒｉｘ,,合同会社,千葉県,印西市,武西１０６８番地６,,12,231,2701354,,,,,,,2024-10-23,1,,,,,アンドリックス,0
1808,7050001055569,新規,0,2024-10-23,2024-10-23,嘉禾株式会社,,株式会社,茨城県,日立市,鮎川町６丁目６番２２号,,08,202,3160036,,,,,,,2024-10-23,1,,,,,カガ,0
1809,7050003008723,新規,0,2024-10-23,2024-10-23,ＮＡＭＵ８８８合同会社,,合同会社,茨城県,つくば市,吉瀬１９３７番地,,08,220,3050022,,,,,,,2024-10-23,1,,,,,ナムハチハチハチ,0
1810,7050003008748,新規,0,2024-10-23,2024-10-23,ＴＯＹＯ　ＪＡＰＡＮ合同会社,,合同会社,茨城県,神栖市,砂山１０１４番地３３１,,08,232,3140255,,,,,,,2024-10-23,1,,,,,トーヨージャパン,0
1813,7060003005298,新規,0,2024-10-23,2024-10-23,合同会社ネイチャーディストリクト,,合同会社,栃木県,鹿沼市,口粟野１１６８－２,,09,205,3220305,,,,,,,2024-10-23,1,,,,,ネイチャーディストリクト,0
1814,7070001042284,新規,0,2024-10-23,2024-10-23,佐取開発株式会社,,株式会社,群馬県,館林市,松原３丁目１０番５号,,10,207,3740016,,,,,,,2024-10-23,1,,,,,サトリカイハツ,0
1823,7080403005128,新規,0,2024-10-23,2024-10-23,合同会社加藤モーター,,合同会社,静岡県,浜松市中央区,大瀬町５３２番地の１,,22,138,4313113,,,,,,,2024-10-23,1,,,,,カトウモーター,0
1836,7120001269442,新規,0,2024-10-23,2024-10-23,日深株式会社,,株式会社,大阪府,大阪市生野区,新今里６丁目３番１０号エクラ新今里４０５号,,27,116,5440001,,,,,,,2024-10-23,1,,,,,ニッシン,0
1837,7120001269475,新規,0,2024-10-23,2024-10-23,株式会社Ｒｅ’Ｂｅｌｌ,,株式会社,大阪府,大阪市中央区,宗右衛門町５－６,,27,128,5420084,,,,,,,2024-10-23,1,,,,,リベル,0
1838,7120001269599,新規,0,2024-10-23,2024-10-23,株式会社スタイルトレーディング,,株式会社,大阪府,大阪市北区,大深町３番４０号４０４,,27,127,5300011,,,,,,,2024-10-23,1,,,,,スタイルトレーディング,0
1839,7120001269608,新規,0,2024-10-23,2024-10-23,株式会社Ｂｉｔ’ｓ,,株式会社,大阪府,大阪市北区,天満橋３丁目５番２２号天満グリーン土井マンション６０１,,27,127,5300042,,,,,,,2024-10-23,1,,,,,ビッツ,0
1840,7120001269640,新規,0,2024-10-23,2024-10-23,株式会社Ｍｉｒａｃｔ　Ｑｕｅｅｎ,,株式会社,大阪府,大阪市北区,紅梅町１－７久幸ビル２階,,27,127,5300038,,,,,,,2024-10-23,1,,,,,ミラクトクイーン,0
1842,7120003027798,新規,0,2024-10-23,2024-10-23,合同会社ＩＥＣ,,合同会社,大阪府,大阪市北区,天満２丁目８番３号クレグラン天満１１０１号室,,27,127,5300043,,,,,,,2024-10-23,1,,,,,アイイーシー,0
1843,7120003027807,新規,0,2024-10-23,2024-10-23,合同会社フェリスグローバル,,合同会社,大阪府,大阪市東成区,大今里４丁目１８－５,,27,115,5370012,,,,,,,2024-10-23,1,,,,,フェリスグローバル,0
1849,7120101070460,新規,0,2024-10-23,2024-10-23,白露一方株式会社,,株式会社,大阪府,堺市北区,南花田町４１７－３－２１８,,27,146,5918011,,,,,,,2024-10-23,1,,,,,ハクロイッポウ,0
1854,7120903005390,新規,0,2024-10-23,2024-10-23,トリニティ合同会社,,合同会社,大阪府,摂津市,千里丘東１丁目１２番３４号,,27,224,5660011,,,,,,,2024-10-23,1,,,,,トリニティ,0
1871,7140001136161,新規,0,2024-10-23,2024-10-23,株式会社与幸メディカル,,株式会社,兵庫県,西宮市,大谷町１１番１９号,,28,204,6620054,,,,,,,2024-10-23,1,,,,,ヨコウメディカル,0
1872,7140001136178,新規,0,2024-10-23,2024-10-23,株式会社ｍｅｔａ　ｅａｒｔｈ,,株式会社,兵庫県,姫路市,岩端町１５６番地５,,28,201,6700028,,,,,,,2024-10-23,1,,,,,メタアース,0
1894,7180005020812,新規,0,2024-10-23,2024-10-23,一般社団法人国際公共経済学会,,その他の設立登記法人,愛知県,名古屋市熱田区,熱田西町１番２５号曙館８１５研究室,,23,109,4560036,,,,,,,2024-10-23,1,,,,,コクサイコウキョウケイザイガッカイ,0
1896,7180301039168,新規,0,2024-10-23,2024-10-23,株式会社ヒイラギ,,株式会社,愛知県,岡崎市,欠町字三田田北通９番地３７,,23,202,4440011,,,,,,,2024-10-23,1,,,,,ヒイラギ,0
1900,7190001031738,新規,0,2024-10-23,2024-10-23,株式会社ナーチャーファーマ,,株式会社,三重県,多気郡明和町,大字有爾中４９７番地１,,24,442,5150316,,,,,,,2024-10-23,1,,,,,ナーチャーファーマ,0
1905,7200001043054,新規,0,2024-10-23,2024-10-23,株式会社Ｋ．Ａ．ＥＬ　ｈｅｌｐ　ｌｉｖｅｓ,,株式会社,岐阜県,土岐市,駄知町１２０８番地６,,21,212,5095401,,,,,,,2024-10-23,1,,,,,ケーエーイーエルヘルプライブズ,0
1907,7200003006554,新規,0,2024-10-23,2024-10-23,合同会社ＨＢＮ,,合同会社,岐阜県,高山市,三福寺町４９７番地３ビエナコートＳ－１－Ａ,,21,203,5060807,,,,,,,2024-10-23,1,,,,,エイチビーエヌ,0
1908,7210005010165,新規,0,2024-10-23,2024-10-23,労働者協同組合りたねっと,,その他の設立登記法人,福井県,福井市,二の宮５丁目２番２８号,,18,201,9100015,,,,,,,2024-10-23,1,,,,,リタネット,0
1916,7240001063981,新規,0,2024-10-23,2024-10-23,株式会社ＥＮコーポレーション,,株式会社,広島県,福山市,駅家町大字上山守３７５番地１,,34,207,7201142,,,,,,,2024-10-23,1,,,,,エンコーポレーション,0
1920,7250001020858,新規,0,2024-10-23,2024-10-23,株式会社ルイージ,,株式会社,山口県,下関市,上新地町２丁目１１－８シャーメゾン桜山１０２号,,35,201,7500061,,,,,,,2024-10-23,1,,,,,ルイージ,0
1928,7290001107701,新規,0,2024-10-23,2024-10-23,株式会社ＭＰＧ,,株式会社,福岡県,福岡市中央区,薬院４丁目１番１１号２階,,40,133,8100022,,,,,,,2024-10-23,1,,,,,エムピージー,0
1930,7290003015976,新規,0,2024-10-23,2024-10-23,匠塗合同会社,,合同会社,福岡県,宗像市,須江三丁目１１番２４－２０６号,,40,220,8113400,,,,,,,2024-10-23,1,,,,,ショウト,0
1940,7320001020776,新規,0,2024-10-23,2024-10-23,津守不動産開発株式会社,,株式会社,大分県,大分市,大字毛井８３５番地の２,,44,201,8700124,,,,,,,2024-10-23,1,,,,,ツモリフドウサンカイハツ,0
1942,7360001034343,新規,0,2024-10-23,2024-10-23,株式会社宮電工,,株式会社,沖縄県,沖縄市,南桃原３丁目３３番３４号,,47,211,9040035,,,,,,,2024-10-23,1,,,,,ミヤデンコウ,0
1944,7360003014401,新規,0,2024-10-23,2024-10-23,琉球エンタープライズ合同会社,,合同会社,沖縄県,那覇市,字安里３８８－７４玉城店舗,,47,201,9020067,,,,,,,2024-10-23,1,,,,,リュウキュウエンタープライズ,0
1947,7370001051825,新規,0,2024-10-23,2024-10-23,株式会社萬寿山,,株式会社,宮城県,仙台市青葉区,国分町２丁目１１－１１千松島ビル１階,,04,101,9800803,,,,,,,2024-10-23,1,,,,,マンジュサン,0
1948,7370001051841,新規,0,2024-10-23,2024-10-23,千美館クラブ株式会社,,株式会社,宮城県,白石市,大鷹沢大町字矢ノ口下５１番地の１,,04,206,9890212,,,,,,,2024-10-23,1,,,,,センビカンクラブ,0
1957,7380005012888,新規,0,2024-10-23,2024-10-23,一般社団法人いきいきライフ協会郡山,,その他の設立登記法人,福島県,郡山市,字下亀田２１番地の９,,07,203,9638032,,,,,,,2024-10-23,1,,,,,イキイキライフキョウカイコオリヤマ,0
1969,7430001092920,新規,0,2024-10-23,2024-10-23,株式会社ＥＢＩＳ　ＨＯＭＥ,,株式会社,北海道,札幌市中央区,南六条西７丁目１番地６高砂ビルＮｏ．７　１Ｆ,,01,101,0640806,,,,,,,2024-10-23,1,,,,,エビスホーム,0
1971,7430003016893,新規,0,2024-10-23,2024-10-23,合同会社優健,,合同会社,北海道,札幌市東区,北三十七条東５丁目１番２３号テラスハウス左号,,01,103,0070837,,,,,,,2024-10-23,1,,,,,ユウケン,0
1976,7500001025947,新規,0,2024-10-23,2024-10-23,淵圓株式会社,,株式会社,愛媛県,新居浜市,上原３丁目１番９号,,38,205,7920046,,,,,,,2024-10-23,1,,,,,フチソノ,0
1977,7500001025955,新規,0,2024-10-23,2024-10-23,株式会社ＣＨＩＬＬ,,株式会社,愛媛県,松山市,堀江町１７６９番地１,,38,201,7992651,,,,,,,2024-10-23,1,,,,,チル,0
1989,8010001248984,新規,0,2024-10-23,2024-10-23,株式会社アイリンク,,株式会社,東京都,中央区,銀座１丁目２２－１１銀座大竹ビジデンス２Ｆ,,13,102,1040061,,,,,,,2024-10-23,1,,,,,アイリンク,0
1990,8010001249181,新規,0,2024-10-23,2024-10-23,株式会社クリエーブ,,株式会社,東京都,中央区,勝どき５丁目３番１－２９１７号,,13,102,1040054,,,,,,,2024-10-23,1,,,,,クリエーブ,0
1991,8010001249215,新規,0,2024-10-23,2024-10-23,株式会社ビオニー,,株式会社,東京都,千代田区,飯田橋２丁目１１番１０号,,13,101,1020072,,,,,,,2024-10-23,1,,,,,ビオニー,0
1992,8010001249306,新規,0,2024-10-23,2024-10-23,株式会社ＢＯＵ,,株式会社,東京都,千代田区,東神田２丁目１０番５号,,13,101,1010031,,,,,,,2024-10-23,1,,,,,ビーオーユー,0
2006,8010401185860,新規,0,2024-10-23,2024-10-23,株式会社祭采,,株式会社,東京都,港区,芝５丁目１６番２号ＶＯＲＴ三田,,13,103,1080014,,,,,,,2024-10-23,1,,,,,サイサイ,0
2007,8010401185893,新規,0,2024-10-23,2024-10-23,株式会社Ｍｅｌｏｖａｔｅ,,株式会社,東京都,港区,赤坂８丁目４番１４号青山タワープレイス８階,,13,103,1070052,,,,,,,2024-10-23,1,,,,,メロヴェイト,0
2016,8010501053067,新規,0,2024-10-23,2024-10-23,海創株式会社,,株式会社,東京都,台東区,下谷１丁目４番５号瑞橙ビル５階,,13,106,1100004,,,,,,,2024-10-23,1,,,,,カイソウ,0
2017,8010601066150,新規,0,2024-10-23,2024-10-23,株式会社ＭＩＫＥ,,株式会社,東京都,墨田区,両国１丁目１２番１２号塚田ビル３階,,13,107,1300026,,,,,,,2024-10-23,1,,,,,マイク,0
2023,8011001165336,新規,0,2024-10-23,2024-10-23,株式会社ＬＡＲＡＮ,,株式会社,東京都,目黒区,目黒本町５丁目３３番２４号,,13,110,1520002,,,,,,,2024-10-23,1,,,,,ララン,0
2024,8011001165344,新規,0,2024-10-23,2024-10-23,株式会社ＤＯＷＩＳＥ,,株式会社,東京都,渋谷区,円山町５番５号Ｎａｖｉ渋谷Ｖ３階,,13,113,1500044,,,,,,,2024-10-23,1,,,,,ドゥワイズ,0
2025,8011001165542,新規,0,2024-10-23,2024-10-23,Ｔａｂｌｅ　ｔｏ　Ｆａｒｍ株式会社,,株式会社,東京都,目黒区,大橋１丁目６番８号－４０３,,13,110,1530044,,,,,,,2024-10-23,1,,,,,テーブルトゥーファーム,0
2026,8011003020217,新規,0,2024-10-23,2024-10-23,合同会社Ｒ３,,合同会社,東京都,目黒区,青葉台３丁目７番１７－２００２号ソプラタワー,,13,110,1530042,,,,,,,2024-10-23,1,,,,,アールスリー,0
2027,8011003020225,新規,0,2024-10-23,2024-10-23,合同会社ｉ‐リンクス,,合同会社,東京都,目黒区,目黒本町３丁目５番９号リブレ１Ｆ,,13,110,1520002,,,,,,,2024-10-23,1,,,,,アイリンクス,0
2031,8011101109242,新規,0,2024-10-23,2024-10-23,ＳＲＤハウジング株式会社,,株式会社,東京都,新宿区,西新宿４丁目３４番７号,,13,104,1600023,,,,,,,2024-10-23,1,,,,,エスアールディーハウジング,0
2032,8011101109250,新規,0,2024-10-23,2024-10-23,ピーニジ株式会社,,株式会社,東京都,新宿区,西新宿６丁目５番１号新宿アイランドタワー２階,,13,104,1600023,,,,,,,2024-10-23,1,,,,,ピーニジ,0
2037,8011103015100,新規,0,2024-10-23,2024-10-23,合同会社ＭＩＹＡＢＩ,,合同会社,東京都,新宿区,歌舞伎町１丁目２番３－４０５号,,13,104,1600021,,,,,,,2024-10-23,1,,,,,ミヤビ,0
2038,8011301030099,新規,0,2024-10-23,2024-10-23,株式会社なかむら,,株式会社,東京都,杉並区,上井草４丁目１５番２２号,,13,115,1670023,,,,,,,2024-10-23,1,,,,,ナカムラ,0
2039,8011403004538,新規,0,2024-10-23,2024-10-23,合同会社トライツリー,,合同会社,東京都,板橋区,南常盤台１丁目１６番１１－３０２号,,13,119,1740072,,,,,,,2024-10-23,1,,,,,トライツリー,0
2046,8013301053237,新規,0,2024-10-23,2024-10-23,株式会社ＫＯＫＩＳＡＮＺＥＮ,,株式会社,東京都,豊島区,南長崎４丁目４番１号,,13,116,1710052,,,,,,,2024-10-23,1,,,,,コウキサンゼン,0
2047,8013305003659,新規,0,2024-10-23,2024-10-23,一般社団法人レインボーコンパス,,その他の設立登記法人,東京都,豊島区,長崎６丁目３１番６号,,13,116,1710051,,,,,,,2024-10-23,1,,,,,レインボーコンパス,0
2051,8020001159693,新規,0,2024-10-23,2024-10-23,株式会社Ｊｉｎ,,株式会社,神奈川県,横浜市鶴見区,平安町２丁目１５－９－１０１,,14,101,2300031,,,,,,,2024-10-23,1,,,,,ジン,0
2052,8020001159727,新規,0,2024-10-23,2024-10-23,株式会社オーシャントレーディング,,株式会社,神奈川県,横浜市栄区,飯島町１５６３番地４,,14,115,2440842,,,,,,,2024-10-23,1,,,,,オーシャントレーディング,0
2058,8020003027097,新規,0,2024-10-23,2024-10-23,ＤＨＩＪ合同会社,,合同会社,神奈川県,横浜市中区,野毛町４丁目１７３番地２サンヴェール横濱野毛山公園１００４号室,,14,104,2310064,,,,,,,2024-10-23,1,,,,,ディエイチアイジェイ,0
2060,8021001083553,新規,0,2024-10-23,2024-10-23,株式会社相模原学校給食サービス,,株式会社,神奈川県,相模原市南区,松が枝町４番５号,,14,153,2520313,,,,,,,2024-10-23,1,,,,,サガミハラガッコウキュウショクサービス,0
2061,8021001083578,新規,0,2024-10-23,2024-10-23,株式会社清水コーポレーション,,株式会社,神奈川県,秦野市,北矢名６８番地の１,,14,211,2570006,,,,,,,2024-10-23,1,,,,,シミズコーポレーション,0
2069,8030001163067,新規,0,2024-10-23,2024-10-23,株式会社ＨＢＳ,,株式会社,埼玉県,深谷市,人見１１３番地２,,11,218,3660811,,,,,,,2024-10-23,1,,,,,エイチビーエス,0
2070,8030001163075,新規,0,2024-10-23,2024-10-23,株式会社ビーラッシュ,,株式会社,埼玉県,狭山市,広瀬２丁目３６番７号,,11,215,3501319,,,,,,,2024-10-23,1,,,,,ビーラッシュ,0
2071,8030001163083,新規,0,2024-10-23,2024-10-23,近江総建株式会社,,株式会社,埼玉県,川越市,今成３丁目１３番地３８,,11,201,3501105,,,,,,,2024-10-23,1,,,,,オウミソウケン,0
2072,8030001163109,新規,0,2024-10-23,2024-10-23,株式会社ビジュアルキコウ,,株式会社,埼玉県,草加市,稲荷４丁目１０番６号コーポジュン２０２号,,11,221,3400003,,,,,,,2024-10-23,1,,,,,ビジュアルキコウ,0
2073,8030001163117,新規,0,2024-10-23,2024-10-23,ＫＣ株式会社,,株式会社,埼玉県,さいたま市大宮区,大成町２丁目１６７番地１ツカサビル,,11,103,3300852,,,,,,,2024-10-23,1,,,,,ケーシー,0
2075,8030003025356,新規,0,2024-10-23,2024-10-23,合同会社Ｆｏｒｅｓｔ　Ｗｏｒｋｓ,,合同会社,埼玉県,富士見市,東みずほ台１丁目４－１サニークレストみずほ台６０３,,11,235,3540015,,,,,,,2024-10-23,1,,,,,フォレストワークス,0
2076,8030005021898,新規,0,2024-10-23,2024-10-23,医療法人あきた会,,その他の設立登記法人,埼玉県,さいたま市緑区,大字中尾４４３番地５,,11,109,3360932,,,,,,,2024-10-23,1,,,,,アキタカイ,0
2082,8040001135890,新規,0,2024-10-23,2024-10-23,株式会社ＯＨＡＮＡ,,株式会社,千葉県,浦安市,高洲１丁目１４番１８号,,12,227,2790023,,,,,,,2024-10-23,1,,,,,オハナ,0
2083,8040001135899,新規,0,2024-10-23,2024-10-23,株式会社ＦｌａＦｒｉｅ,,株式会社,千葉県,市川市,東菅野１丁目３３番１３号,,12,203,2720823,,,,,,,2024-10-23,1,,,,,フラフレ,0
2085,8040003026031,新規,0,2024-10-23,2024-10-23,ＴＯＪＡＰＡＮ合同会社,,合同会社,千葉県,八千代市,下高野５４３番地２６,,12,221,2760021,,,,,,,2024-10-23,1,,,,,トージャパン,0
2087,8050001055568,新規,0,2024-10-23,2024-10-23,ＲＴ　ＡＵＴＯ株式会社,,株式会社,茨城県,坂東市,寺久字向原１２５３－９,,08,228,3060656,,,,,,,2024-10-23,1,,,,,アールティーオート,0
2094,8060005010254,新規,0,2024-10-23,2024-10-23,特定非営利活動法人ＢｒｏｔｈｅｒＨｏｏｄ,,その他の設立登記法人,栃木県,足利市,常見町２丁目１７番地９,,09,202,3260022,,,,,,,2024-10-23,1,,,,,,0
2108,8080401027511,新規,0,2024-10-23,2024-10-23,株式会社九十九,,株式会社,静岡県,浜松市中央区,田町３２５番地の６小島屋ビル１階,,22,138,4300944,,,,,,,2024-10-23,1,,,,,ツクモ,0
2113,8080403005127,新規,0,2024-10-23,2024-10-23,合同会社柳澤電工,,合同会社,静岡県,浜松市中央区,佐藤１丁目１１番２０号,,22,138,4300807,,,,,,,2024-10-23,1,,,,,ヤナギサワデンコウ,0
2114,8100003007834,新規,0,2024-10-23,2024-10-23,合同会社ＫＩ,,合同会社,長野県,松本市,波田１５１９番地２４,,20,202,3901401,,,,,,,2024-10-23,1,,,,,キ,0
2116,8110001038789,新規,0,2024-10-23,2024-10-23,つばめ・やひこウォーターサービス株式会社,,株式会社,新潟県,燕市,新興野４番７６号,,15,213,9590116,,,,,,,2024-10-23,1,,,,,ツバメヤヒコウォーターサービス,0
2133,8120001269490,新規,0,2024-10-23,2024-10-23,木子ビジネスサービス株式会社,,株式会社,大阪府,大阪市都島区,東野田町４丁目１番５号３０１号室,,27,102,5340024,,,,,,,2024-10-23,1,,,,,キコビジネスサービス,0
2134,8120001269549,新規,0,2024-10-23,2024-10-23,株式会社セイントライフ,,株式会社,大阪府,大阪市中央区,東平２丁目３番１０－７０３号,,27,128,5420063,,,,,,,2024-10-23,1,,,,,セイントライフ,0
2135,8120001269581,新規,0,2024-10-23,2024-10-23,株式会社クフウノトビラ,,株式会社,大阪府,大阪市住吉区,南住吉１丁目８番６号,,27,120,5580041,,,,,,,2024-10-23,1,,,,,クフウノトビラ,0
2136,8120001269607,新規,0,2024-10-23,2024-10-23,株式会社ＭＹ,,株式会社,大阪府,大阪市北区,天神橋７丁目１番１６－４１０４号,,27,127,5310041,,,,,,,2024-10-23,1,,,,,エムワイ,0
2137,8120001269631,新規,0,2024-10-23,2024-10-23,ＭｅｄＡｃｅ株式会社,,株式会社,大阪府,大阪市住吉区,帝塚山西１丁目２番１７号,,27,120,5580052,,,,,,,2024-10-23,1,,,,,メドエース,0
2141,8120101070451,新規,0,2024-10-23,2024-10-23,Ｗｉｎ商事株式会社,,株式会社,大阪府,堺市堺区,南島町１丁３６番地１３－６０４号,,27,141,5900904,,,,,,,2024-10-23,1,,,,,ウインショウジ,0
2142,8120101070468,新規,0,2024-10-23,2024-10-23,株式会社きゅう,,株式会社,大阪府,和泉市,伯太町４丁目４番８号,,27,219,5940023,,,,,,,2024-10-23,1,,,,,キュウ,0
2147,8130001078189,新規,0,2024-10-23,2024-10-23,株式会社Ｕｎｉｍｎｉ,,株式会社,京都府,京都市左京区,田中南大久保町３０番地,,26,103,6068214,,,,,,,2024-10-23,1,,,,,ユニムニ,0
2149,8130003009943,新規,0,2024-10-23,2024-10-23,三石管理合同会社,,合同会社,京都府,京都市下京区,小坂町１９－１－１０１,,26,106,6008821,,,,,,,2024-10-23,1,,,,,ミツイシカンリ,0
2150,8130003009951,新規,0,2024-10-23,2024-10-23,Ｈｅｅｒａ　Ｔｒａｄｉｎｇ合同会社,,合同会社,京都府,京都市伏見区,桃山羽柴長吉東町７５番地,,26,109,6120065,,,,,,,2024-10-23,1,,,,,ヘエラトレーディング,0
2157,8140001136177,新規,0,2024-10-23,2024-10-23,株式会社なにわ,,株式会社,兵庫県,神戸市長田区,上池田５丁目４番１１号錦興ハイツ１０１号,,28,106,6530827,,,,,,,2024-10-23,1,,,,,ナニワ,0
2158,8140001136185,新規,0,2024-10-23,2024-10-23,株式会社ＯＳエンジニアリング,,株式会社,兵庫県,尼崎市,南武庫之荘１０丁目５番３号,,28,202,6610033,,,,,,,2024-10-23,1,,,,,オーエスエンジニアリング,0
2167,8180001163779,新規,0,2024-10-23,2024-10-23,株式会社ＡＴＨ,,株式会社,愛知県,名古屋市守山区,大字中志段味字四畝物２３０６番地,,23,113,4630002,,,,,,,2024-10-23,1,,,,,エーティーエイチ,0
2168,8180001163829,新規,0,2024-10-23,2024-10-23,凸凹Ｂｒｅｗ　Ｗｏｒｋｓ株式会社,,株式会社,愛知県,一宮市,せんい１丁目５－８,,23,203,4910873,,,,,,,2024-10-23,1,,,,,デコボコブリューワークス,0
2175,8180301039167,新規,0,2024-10-23,2024-10-23,Ｆｒｅｅａｍ株式会社,,株式会社,愛知県,豊田市,平戸橋町波岩８６番地２５２,,23,211,4700331,,,,,,,2024-10-23,1,,,,,フリーム,0
2187,8200003006553,新規,0,2024-10-23,2024-10-23,Ｚｉｍ　Ａｕｔｏ　Ｔｒａｄｉｎｇ合同会社,,合同会社,岐阜県,美濃加茂市,加茂野町今泉字大字モナリサ１５４７－２４－２０６,,21,211,5050052,,,,,,,2024-10-23,1,,,,,ジムオートトレーディング,0
2194,8240001063989,新規,0,2024-10-23,2024-10-23,株式会社レントサービス,,株式会社,広島県,山県郡北広島町,寺原３３３１番地１,,34,369,7311504,,,,,,,2024-10-23,1,,,,,レントサービス,0
2199,8240003006913,新規,0,2024-10-23,2024-10-23,合同会社Ｓｍｉｌｅ　Ｋｅｙ,,合同会社,広島県,安芸郡海田町,昭和町１１番１６号,,34,304,7360062,,,,,,,2024-10-23,1,,,,,スマイルキー,0
2201,8260001039491,新規,0,2024-10-23,2024-10-23,株式会社Ｆａｎｓ,,株式会社,岡山県,岡山市北区,平野６２２－２３ｗｏｒｋｓｐａｃｅ平野２０５号室,,33,101,7010151,,,,,,,2024-10-23,1,,,,,ファンス,0
2202,8260001039566,新規,0,2024-10-23,2024-10-23,株式会社ジャパンナチュラルマテリアルズ,,株式会社,岡山県,岡山市南区,築港新町１丁目２０番１５号,,33,104,7028056,,,,,,,2024-10-23,1,,,,,ジャパンナチュラルマテリアルズ,0
2213,8290001107659,新規,0,2024-10-23,2024-10-23,七色風株式会社,,株式会社,福岡県,筑紫野市,桜台２丁目１番８号,,40,217,8180063,,,,,,,2024-10-23,1,,,,,ナナイロノカゼ,0
2214,8290001107683,新規,0,2024-10-23,2024-10-23,千福株式会社,,株式会社,福岡県,糟屋郡篠栗町,大字乙犬９９５番地３－１４０５号,,40,342,8112412,,,,,,,2024-10-23,1,,,,,センフク,0
2215,8290001107717,新規,0,2024-10-23,2024-10-23,天瑞齊蓉株式会社,,株式会社,福岡県,福岡市東区,箱崎ふ頭４丁目２４番２０１号,,40,131,8120051,,,,,,,2024-10-23,1,,,,,テンズイサイヨウ,0
2219,8330001032571,新規,0,2024-10-23,2024-10-23,株式会社オールサポート,,株式会社,熊本県,熊本市東区,画図町重富５２９番地１,,43,102,8610000,,,,,,,2024-10-23,1,,,,,オールサポート,0
2244,8470003002740,新規,0,2024-10-23,2024-10-23,Ｚｅｎｉｔｈ　Ｅｘｐｏｒｔ　Ｃｏ．合同会社,,合同会社,香川県,木田郡三木町,大字池戸２５４４番地７,,37,341,7610701,,,,,,,2024-10-23,1,,,,,,0
2247,8480003002194,新規,0,2024-10-23,2024-10-23,合同会社ＹＵＫＡＭＡ,,合同会社,徳島県,板野郡北島町,中村字日開野３９番地,,36,402,7710203,,,,,,,2024-10-23,1,,,,,ユカマ,0
2248,8500001025954,新規,0,2024-10-23,2024-10-23,株式会社ストゥニールスクエア,,株式会社,愛媛県,松山市,南斎院町７４番地２,,38,201,7918032,,,,,,,2024-10-23,1,,,,,ストゥニールスクエア,0
2260,9010001249180,新規,0,2024-10-23,2024-10-23,夢ラボ株式会社,,株式会社,東京都,千代田区,神田和泉町１番地６－１６ヤマトビル４０５,,13,101,1010024,,,,,,,2024-10-23,1,,,,,ユメラボ,0
2261,9010001249271,新規,0,2024-10-23,2024-10-23,エンデバー・ユナイテッド・パートナーズ・３４株式会社,,株式会社,東京都,千代田区,丸の内２丁目５番１号丸の内二丁目ビル６階,,13,101,1000005,,,,,,,2024-10-23,1,,,,,エンデバーユナイテッドパートナーズサーティーフォー,0
2262,9010001249288,新規,0,2024-10-23,2024-10-23,株式会社Ｎｅｗ　ｂｌｏｏｍ,,株式会社,東京都,中央区,銀座６丁目１３番９号ｂｉｚｃｕｂｅ,,13,102,1040061,,,,,,,2024-10-23,1,,,,,ニューブルーム,0
2267,9010003045272,新規,0,2024-10-23,2024-10-23,銀座ホスピタリティ合同会社,,合同会社,東京都,中央区,日本橋１丁目４番１号,,13,102,1030027,,,,,,,2024-10-23,1,,,,,ギンザホスピタリティ,0
2274,9010401185827,新規,0,2024-10-23,2024-10-23,株式会社ＶＩＳＴＡ,,株式会社,東京都,港区,港南２丁目１５番２号,,13,103,1080075,,,,,,,2024-10-23,1,,,,,ヴィスタ,0
2275,9010401185918,新規,0,2024-10-23,2024-10-23,株式会社ｊｏｂ’ｓ　ｍａｎａｇｅｍｅｎｔ,,株式会社,東京都,港区,赤坂８丁目４番３号,,13,103,1070052,,,,,,,2024-10-23,1,,,,,ジョブズマネジメント,0
2276,9010401185926,新規,0,2024-10-23,2024-10-23,株式会社ＭＢＫキャピタル,,株式会社,東京都,港区,愛宕１丁目１番１－１３０８号,,13,103,1050002,,,,,,,2024-10-23,1,,,,,エムビーケーキャピタル,0
2277,9010401185950,新規,0,2024-10-23,2024-10-23,株式会社オーガスタ東京,,株式会社,東京都,港区,南青山３丁目１番３６号青山丸竹ビル,,13,103,1070062,,,,,,,2024-10-23,1,,,,,オーガスタトウキョウ,0
2280,9010403033645,新規,0,2024-10-23,2024-10-23,ＴＫ７合同会社,,合同会社,東京都,港区,北青山１丁目６番５－１０４号,,13,103,1070061,,,,,,,2024-10-23,1,,,,,ティーケーセブン,0
2281,9010403033653,新規,0,2024-10-23,2024-10-23,合同会社みちしるべ,,合同会社,東京都,港区,白金３丁目１番１０シンシア白金高輪７０１号,,13,103,1080072,,,,,,,2024-10-23,1,,,,,ミチシルベ,0
2286,9010601066133,新規,0,2024-10-23,2024-10-23,株式会社ＨＥＲＯ　ＩＮＤＵＳＴＲＩＥＳ,,株式会社,東京都,江東区,豊洲５丁目５番１－４０６号,,13,108,1350061,,,,,,,2024-10-23,1,,,,,ヒーローインダストリーズ,0
2292,9010901056172,新規,0,2024-10-23,2024-10-23,株式会社ｐｉｎｅｔａｉｌ,,株式会社,東京都,世田谷区,深沢７丁目１３番９号,,13,112,1580081,,,,,,,2024-10-23,1,,,,,パインテイル,0
2297,9010903009434,新規,0,2024-10-23,2024-10-23,合同会社Ｈｏｒｉｚｏｎ,,合同会社,東京都,世田谷区,駒沢５丁目２６番７号,,13,112,1540012,,,,,,,2024-10-23,1,,,,,ホライゾン,0
2302,9011001165319,新規,0,2024-10-23,2024-10-23,株式会社Ｇｒｅｅｎ　Ｇａｒｄｅｎ,,株式会社,東京都,渋谷区,桜丘町１４番５号渋谷サニーヒル４０４,,13,113,1500031,,,,,,,2024-10-23,1,,,,,グリーンガーデン,0
2303,9011001165335,新規,0,2024-10-23,2024-10-23,株式会社ピコ・グラフィカ,,株式会社,東京都,渋谷区,神宮前６丁目１２番１８号ＴｈｅＩｃｅｂｅｒｇ１Ｆ,,13,113,1500001,,,,,,,2024-10-23,1,,,,,ピコグラフィカ,0
2304,9011001165368,新規,0,2024-10-23,2024-10-23,株式会社フルネスアルファ,,株式会社,東京都,渋谷区,道玄坂１丁目１０番８号渋谷道玄坂東急ビル２Ｆ－Ｃ,,13,113,1500043,,,,,,,2024-10-23,1,,,,,フルネスアルファ,0
2305,9011001165376,新規,0,2024-10-23,2024-10-23,ＡＫＩＲＡ株式会社,,株式会社,東京都,目黒区,上目黒３丁目２１番２８－１１９号上目黒小川坂ハイツ,,13,110,1530051,,,,,,,2024-10-23,1,,,,,アキラ,0
2306,9011001165434,新規,0,2024-10-23,2024-10-23,スタンダード・ガイア株式会社,,株式会社,東京都,目黒区,自由が丘２丁目８番５号,,13,110,1520035,,,,,,,2024-10-23,1,,,,,スタンダードガイア,0
2308,9011003020216,新規,0,2024-10-23,2024-10-23,Ｂｅｓｔｉｍｍｕｎｇ　Ｃｒｅａｔｉｖｅ合同会社,,合同会社,東京都,目黒区,平町１丁目９番１５号メゾンユニ平町２０３,,13,110,1520032,,,,,,,2024-10-23,1,,,,,ベスティモンクリエイティブ,0
2309,9011003020224,新規,0,2024-10-23,2024-10-23,合同会社ｍｉｎｏｔｅ,,合同会社,東京都,渋谷区,渋谷２丁目１９－１５宮益坂ビルディング６０９,,13,113,1500002,,,,,,,2024-10-23,1,,,,,ミノート,0
2310,9011003020232,新規,0,2024-10-23,2024-10-23,合同会社ＬＯＮＥ,,合同会社,東京都,渋谷区,神宮前３丁目１６番５号,,13,113,1500001,,,,,,,2024-10-23,1,,,,,ローン,0
2311,9011003020249,新規,0,2024-10-23,2024-10-23,無二合同会社,,合同会社,東京都,目黒区,碑文谷５丁目９番３号ＴＯＰ学芸大学第４－５０８,,13,110,1520003,,,,,,,2024-10-23,1,,,,,ムニ,0
2319,9011101109150,新規,0,2024-10-23,2024-10-23,七麓株式会社,,株式会社,東京都,新宿区,若松町２５番１２－２０３号,,13,104,1620056,,,,,,,2024-10-23,1,,,,,シチロク,0
2320,9011101109274,新規,0,2024-10-23,2024-10-23,Ｌｏｇ‐Ｐｌｕｓ株式会社,,株式会社,東京都,新宿区,西新宿３丁目３番１３号西新宿水間ビル６階,,13,104,1600023,,,,,,,2024-10-23,1,,,,,ログプラス,0
2321,9011101109290,新規,0,2024-10-23,2024-10-23,ラッキー株式会社,,株式会社,東京都,新宿区,高田馬場２丁目１９－８－４０１,,13,104,1690075,,,,,,,2024-10-23,1,,,,,ラッキー,0
2327,9011401026509,新規,0,2024-10-23,2024-10-23,ｏｎｔｏｌｏｇｙ株式会社,,株式会社,東京都,板橋区,赤塚２丁目２６－３－３０４,,13,119,1750092,,,,,,,2024-10-23,1,,,,,オントロジー,0
2328,9011401026517,新規,0,2024-10-23,2024-10-23,株式会社エイト,,株式会社,東京都,板橋区,加賀１丁目９番１０－９０１号,,13,119,1730003,,,,,,,2024-10-23,1,,,,,エイト,0
2329,9011401026533,新規,0,2024-10-23,2024-10-23,三木株式会社,,株式会社,東京都,板橋区,仲宿６３番地７号ＯＥＯｆｆｉｃｅＢｌｄｇ．４１１号,,13,119,1730005,,,,,,,2024-10-23,1,,,,,ミキ,0
2335,9011803006513,新規,0,2024-10-23,2024-10-23,合同会社カイトリップ,,合同会社,東京都,足立区,千住東２丁目７－２８－２０４,,13,121,1200025,,,,,,,2024-10-23,1,,,,,カイトリップ,0
2338,9012801023509,新規,0,2024-10-23,2024-10-23,ＲＯＵＴＥ株式会社,,株式会社,東京都,東大和市,立野１丁目２８番地の２５,,13,220,2070021,,,,,,,2024-10-23,1,,,,,ルート,0
2348,9020001159718,新規,0,2024-10-23,2024-10-23,Ａｆｒｏ株式会社,,株式会社,神奈川県,横浜市旭区,笹野台２丁目３９番７－１号,,14,112,2410816,,,,,,,2024-10-23,1,,,,,アフロ,0
2349,9020001159742,新規,0,2024-10-23,2024-10-23,株式会社ブリッジスターズ,,株式会社,神奈川県,横浜市神奈川区,高島台１番地３１,,14,102,2210833,,,,,,,2024-10-23,1,,,,,ブリッジスターズ,0
2356,9021001083577,新規,0,2024-10-23,2024-10-23,Ｏ　Ｆｉｌｍｓ株式会社,,株式会社,神奈川県,鎌倉市,玉縄３丁目２番地３０,,14,204,2470071,,,,,,,2024-10-23,1,,,,,ビックオーフィルムズ,0
2364,9030001163066,新規,0,2024-10-23,2024-10-23,株式会社ＬａｕｇｈＴａｌｅ,,株式会社,埼玉県,東松山市,大字野田１２０６番地１７,,11,212,3550007,,,,,,,2024-10-23,1,,,,,ラフテル,0
2365,9030001163090,新規,0,2024-10-23,2024-10-23,Ｓ＆Ｓ株式会社,,株式会社,埼玉県,北葛飾郡松伏町,大字松伏３２４７番地３,,11,465,3430111,,,,,,,2024-10-23,1,,,,,エスアンドエス,0
2366,9030001163116,新規,0,2024-10-23,2024-10-23,株式会社アーキ・イノベーション,,株式会社,埼玉県,吉川市,上笹塚１丁目９番地２,,11,243,3420017,,,,,,,2024-10-23,1,,,,,アーキイノベーション,0
2370,9030003025355,新規,0,2024-10-23,2024-10-23,合同会社ベストコンサルティング,,合同会社,埼玉県,上尾市,井戸木２丁目１‐３,,11,219,3620071,,,,,,,2024-10-23,1,,,,,ベストコンサルティング,0
2378,9040003026030,新規,0,2024-10-23,2024-10-23,合同会社ベスト９,,合同会社,千葉県,柏市,西柏台２丁目３番１－８１６号,,12,217,2770886,,,,,,,2024-10-23,1,,,,,ベストナイン,0
2379,9040003026039,新規,0,2024-10-23,2024-10-23,合同会社学伸プラザ,,合同会社,千葉県,佐倉市,井野１１１２番地５９,,12,212,2850855,,,,,,,2024-10-23,1,,,,,ガクシンプラザ,0
2391,9110001038771,新規,0,2024-10-23,2024-10-23,ＬＭ‐１株式会社,,株式会社,新潟県,新潟市江南区,曙町５丁目３－４１,,15,104,9500134,,,,,,,2024-10-23,1,,,,,エルエムワン,0
2406,9120001269597,新規,0,2024-10-23,2024-10-23,株式会社Ａｌｋａｉｄ,,株式会社,大阪府,大阪市東住吉区,北田辺２丁目１３番１８号,,27,121,5460044,,,,,,,2024-10-23,1,,,,,アルカイド,0
2407,9120001269639,新規,0,2024-10-23,2024-10-23,株式会社優遊国際,,株式会社,大阪府,大阪市中央区,島之内２丁目６番３２－５０７号,,27,128,5420082,,,,,,,2024-10-23,1,,,,,ユウユウコクサイ,0
2409,9120003027805,新規,0,2024-10-23,2024-10-23,阿部自動車合同会社,,合同会社,大阪府,大阪市浪速区,敷津東１丁目７番２９号,,27,111,5560012,,,,,,,2024-10-23,1,,,,,アベジドウシャ,0
2416,9120901049941,新規,0,2024-10-23,2024-10-23,株式会社Ｆ．Ａ．Ｂ,,株式会社,大阪府,茨木市,西中条町十丁目１３番２０３号,,27,211,5670887,,,,,,,2024-10-23,1,,,,,ファブ,0
2418,9120903005389,新規,0,2024-10-23,2024-10-23,合同会社なかがわ,,合同会社,大阪府,豊中市,服部豊町１丁目７番１２号,,27,203,5610859,,,,,,,2024-10-23,1,,,,,ナカガワ,0
2426,9140001136176,新規,0,2024-10-23,2024-10-23,株式会社ＬＵＩ,,株式会社,兵庫県,西宮市,甲子園口北町１番１１－６０２号,,28,204,6638112,,,,,,,2024-10-23,1,,,,,ルイ,0
2428,9160003003315,新規,0,2024-10-23,2024-10-23,合同会社Ｖｅｎｕｓ,,合同会社,滋賀県,高島市,マキノ町山中４８５番地,,25,212,5201806,,,,,,,2024-10-23,1,,,,,ヴィーナス,0
2431,9170003002118,新規,0,2024-10-23,2024-10-23,合同会社Ｌａ　Ｐｉｓｃｉｎｅ,,合同会社,和歌山県,有田市,宮崎町２５８番地４,,30,204,6490316,,,,,,,2024-10-23,1,,,,,ラピスィヌ,0
2437,9180001163704,新規,0,2024-10-23,2024-10-23,株式会社ヤパンツアーズ,,株式会社,愛知県,北名古屋市,鹿田永塚１５６番地Ａ棟,,23,234,4810004,,,,,,,2024-10-23,1,,,,,ヤパンツアーズ,0
2442,9180301039166,新規,0,2024-10-23,2024-10-23,株式会社ｋｏｔｏｈａ,,株式会社,愛知県,安城市,古井町堂前田３９番地８,,23,212,4460025,,,,,,,2024-10-23,1,,,,,コトハ,0
2448,9200001043069,新規,0,2024-10-23,2024-10-23,アーイデア株式会社,,株式会社,岐阜県,可児市,中恵土２３７１番地５５,,21,214,5090202,,,,,,,2024-10-23,1,,,,,アーイデア,0
2452,9240001063988,新規,0,2024-10-23,2024-10-23,株式会社ＡＹＥ,,株式会社,広島県,広島市東区,牛田本町２丁目５番２０号,,34,102,7320066,,,,,,,2024-10-23,1,,,,,エーワイイー,0
2463,9260005011413,新規,0,2024-10-23,2024-10-23,一般社団法人オハナ,,その他の設立登記法人,岡山県,岡山市中区,海吉２３０６番地の１,,33,102,7038261,,,,,,,2024-10-23,1,,,,,オハナ,0
2464,9280001009277,新規,0,2024-10-23,2024-10-23,株式会社マカタホールディングス,,株式会社,島根県,松江市,八幡町７８６番地,,32,201,6900025,,,,,,,2024-10-23,1,,,,,マカタホールディングス,0
2475,9290001107682,新規,0,2024-10-23,2024-10-23,株式会社Ｒｅ’０,,株式会社,福岡県,福岡市早良区,原６丁目２０番２０号,,40,137,8140022,,,,,,,2024-10-23,1,,,,,リオー,0
2477,9290801030968,新規,0,2024-10-23,2024-10-23,株式会社小田原基礎,,株式会社,福岡県,北九州市八幡西区,本城東２丁目１４番２４号,,40,109,8070815,,,,,,,2024-10-23,1,,,,,オダワラキソ,0
2478,9290801030984,新規,0,2024-10-23,2024-10-23,株式会社センタシストアカデミー,,株式会社,福岡県,北九州市若松区,ひびきの１番８号,,40,103,8080135,,,,,,,2024-10-23,1,,,,,センタシストアカデミー,0
2481,9330001032579,新規,0,2024-10-23,2024-10-23,株式会社田川工業,,株式会社,熊本県,宇城市,小川町中小野２７番地１,,43,213,8690602,,,,,,,2024-10-23,1,,,,,タガワコウギョウ,0
2485,9350001019244,新規,0,2024-10-23,2024-10-23,花歌農林株式会社,,株式会社,宮崎県,西都市,大字尾八重９１５番地,,45,208,8811121,,,,,,,2024-10-23,1,,,,,ハナウタノウリン,0
2487,9360003014416,新規,0,2024-10-23,2024-10-23,合同会社たいよう,,合同会社,沖縄県,宮古島市,平良字西仲宗根３－２０,,47,214,9060006,,,,,,,2024-10-23,1,,,,,タイヨウ,0
2501,9430001092910,新規,0,2024-10-23,2024-10-23,株式会社Ｒ,,株式会社,北海道,札幌市南区,川沿一条３丁目１０番５号,,01,106,0050801,,,,,,,2024-10-23,1,,,,,アール,0
2503,9460003001016,新規,0,2024-10-23,2024-10-23,合同会社釧路市民食堂,,合同会社,北海道,釧路市,北大通３丁目７番３号北大通３丁目ビル,,01,206,0850015,,,,,,,2024-10-23,1,,,,,クシロシミンショクドウ,0
2509,9500003003354,新規,0,2024-10-23,2024-10-23,Ｊ‐Ｂｌｅｓｓ合同会社,,合同会社,愛媛県,新居浜市,本郷１丁目１０－１６,,38,205,7920042,,,,,,,2024-10-23,1,,,,,ジェイブレス,0
