sequenceNumber,corporateNumber,process,correct,updateDate,changeDate,name,nameImageId,kind,prefectureName,cityName,streetNumber,addressImageId,prefectureCode,cityCode,postCode,addressOutside,addressOutsideImageId,closeDate,closeCause,successorCorporateNumber,changeCause,assignmentDate,latest,enName,enPrefectureName,enCityName,enAddressOutside,furigana,hihyoji
4,1010001244445,新規,0,2024-05-01,2024-05-01,ＪＡＺ株式会社,,株式会社,東京都,中央区,晴海２丁目３番３０－３７１４号,,13,102,1040053,,,,,,,2024-05-01,1,,,,,ジヤズ,0
5,1010001244528,新規,0,2024-05-01,2024-05-01,ＰＴＣＪ‐６ホールディングス株式会社,,株式会社,東京都,千代田区,丸の内１丁目９番１号,,13,101,1000005,,,,,,,2024-05-01,1,,,,,ピーティーシージェイシックスホールディングス,0
8,1010003043622,新規,0,2024-05-01,2024-05-01,久喜ロジスティック合同会社,,合同会社,東京都,中央区,京橋２丁目１１番３号服部ビル７０１,,13,102,1040031,,,,,,,2024-05-01,1,,,,,クキロジスティック,0
9,1010003043630,新規,0,2024-05-01,2024-05-01,イーホールディング合同会社,,合同会社,東京都,千代田区,麹町５丁目１番地ＮＫ真和ビル９階,,13,101,1020083,,,,,,,2024-05-01,1,,,,,イーホールディング,0
14,1010005038158,新規,0,2024-05-01,2024-05-01,特定非営利活動法人クレーター,,その他の設立登記法人,東京都,文京区,音羽１丁目５番１９号レオーネ文京音羽６階６０１号室,,13,105,1120013,,,,,,,2024-05-01,1,,,,,クレーター,0
20,1010401182096,新規,0,2024-05-01,2024-05-01,株式会社ＦＵＪＩＫＥＮ,,株式会社,東京都,港区,北青山１丁目３番１号アールキューブ青山３階,,13,103,1070061,,,,,,,2024-05-01,1,,,,,フジケン,0
21,1010401182121,新規,0,2024-05-01,2024-05-01,ＧＡＮ　ＰＲＯＪＥＣＴ株式会社,,株式会社,東京都,港区,赤坂２丁目６番２２号,,13,103,1070052,,,,,,,2024-05-01,1,,,,,ガンプロジェクト,0
28,1010603010798,新規,0,2024-05-01,2024-05-01,合同会社ＰＷＲ,,合同会社,東京都,墨田区,両国１丁目６番３－１００１号,,13,107,1300026,,,,,,,2024-05-01,1,,,,,ピーダブリューアール,0
32,1010801035011,新規,0,2024-05-01,2024-05-01,株式会社クローバー,,株式会社,東京都,大田区,蒲田５丁目７番６－１０１号,,13,111,1440052,,,,,,,2024-05-01,1,,,,,クローバー,0
35,1010901055165,新規,0,2024-05-01,2024-05-01,株式会社ヌーリテール,,株式会社,東京都,世田谷区,等々力４丁目５番９号キラクプレイス等々力３０４,,13,112,1580082,,,,,,,2024-05-01,1,,,,,ヌーリテール,0
37,1010903009004,新規,0,2024-05-01,2024-05-01,合同会社ＴＯＫＹＯ　ＰＨＯＴＯＧＲＡＰＨＩＣ　ＲＥＳＥＡＲＣＨ,,合同会社,東京都,世田谷区,成城９丁目２８番８－４１８号,,13,112,1570066,,,,,,,2024-05-01,1,,,,,トウキョウフォトグラフィックリサーチ,0
47,1011105011013,新規,0,2024-05-01,2024-05-01,一般財団法人高千穂交易奨学財団,,その他の設立登記法人,東京都,新宿区,四谷１丁目６番１号,,13,104,1600004,,,,,,,2024-05-01,1,,,,,タカチホコウエキショウガクザイダン,0
48,1011401026061,新規,0,2024-05-01,2024-05-01,株式会社インフィエイト,,株式会社,東京都,板橋区,南常盤台１丁目１１番６号レフア南常盤台１０１号室,,13,119,1740072,,,,,,,2024-05-01,1,,,,,インフィエイト,0
50,1011501030616,新規,0,2024-05-01,2024-05-01,株式会社ＳＳＡ,,株式会社,東京都,荒川区,東日暮里６丁目５７番１０号,,13,118,1160014,,,,,,,2024-05-01,1,,,,,エスエスエー,0
59,1012703002972,新規,0,2024-05-01,2024-05-01,合同会社ＳＴＳ　Ｔｒａｄｉｎｇ,,合同会社,東京都,小平市,仲町２０７番地,,13,211,1870042,,,,,,,2024-05-01,1,,,,,エスティーエストレーディング,0
62,1013101009404,新規,0,2024-05-01,2024-05-01,株式会社グラスフィールド,,株式会社,東京都,西多摩郡瑞穂町,大字殿ケ谷６３２－２－Ｃ,,13,303,1901212,,,,,,,2024-05-01,1,,,,,,0
70,1020001156920,新規,0,2024-05-01,2024-05-01,カルマー・ジャパン株式会社,,株式会社,神奈川県,横浜市港北区,新横浜２丁目１３番１３号ＴＰＲ新横浜ビル７Ｆ,,14,109,2220033,,,,,,,2024-05-01,1,,,,,カルマージャパン,0
85,1021001082099,新規,0,2024-05-01,2024-05-01,株式会社ＰＲＳ,,株式会社,神奈川県,茅ヶ崎市,小和田２丁目１番地３９号,,14,207,2530012,,,,,,,2024-05-01,1,,,,,ピーアールエス,0
89,1021003014455,新規,0,2024-05-01,2024-05-01,アユダ合同会社,,合同会社,神奈川県,海老名市,今里２丁目７番６号,,14,215,2430423,,,,,,,2024-05-01,1,,,,,アユダ,0
105,1030001160062,新規,0,2024-05-01,2024-05-01,Ｊ　ＧＲＯＵＰ株式会社,,株式会社,埼玉県,さいたま市大宮区,桜木町４丁目１０００番地,,11,103,3300854,,,,,,,2024-05-01,1,,,,,ジェイグループ,0
106,1030001160104,新規,0,2024-05-01,2024-05-01,株式会社Ｍ．Ａ　ＩＮＴＥＲＮＡＴＩＯＮＡＬ,,株式会社,埼玉県,久喜市,緑１丁目２１番１１号,,11,232,3491106,,,,,,,2024-05-01,1,,,,,エムエーインターナショナル,0
112,1030003024190,新規,0,2024-05-01,2024-05-01,カミーユデンタル・ヘルスケア合同会社,,合同会社,埼玉県,さいたま市大宮区,土手町１丁目６３番地１グリーンヴィラ６０２,,11,103,3300801,,,,,,,2024-05-01,1,,,,,カミーユデンタルヘルスケア,0
119,1040001133389,新規,0,2024-05-01,2024-05-01,株式会社サンシャイン・Ｇ,,株式会社,千葉県,松戸市,小金上総町２－１８,,12,207,2700015,,,,,,,2024-05-01,1,,,,,サンシャイングローバル,0
126,1040005022373,新規,0,2024-05-01,2024-05-01,医療法人社団幕張ドルフィン歯科クリニック,,その他の設立登記法人,千葉県,千葉市花見川区,幕張本郷１丁目１４番１０号,,12,102,2620033,,,,,,,2024-05-01,1,,,,,マクハリドルフィンシカクリニック,0
140,1080001026275,新規,0,2024-05-01,2024-05-01,株式会社Ｈ．Ｔｒｕｓｔｅｅｓ,,株式会社,静岡県,静岡市清水区,山切４７番地の８,,22,103,4240105,,,,,,,2024-05-01,1,,,,,エイチトラスティーズ,0
147,1080101024708,新規,0,2024-05-01,2024-05-01,株式会社リブート,,株式会社,静岡県,熱海市,上多賀７３０番地の１コーポ秋山Ａ２０２号,,22,205,4130101,,,,,,,2024-05-01,1,,,,,リブート,0
151,1100003007535,新規,0,2024-05-01,2024-05-01,Ｓ．Ｓ．ＰＬＡＴＦＯＲＭ合同会社,,合同会社,長野県,長野市,大字稲葉母袋６８５番地１,,20,201,3800914,,,,,,,2024-05-01,1,,,,,エスエスプラットフォーム,0
154,1110001038358,新規,0,2024-05-01,2024-05-01,新潟電力株式会社,,株式会社,新潟県,新潟市中央区,花園１丁目５－６京ビル５階,,15,103,9500086,,,,,,,2024-05-01,1,,,,,ニイガタデンリョク,0
163,1120001264309,新規,0,2024-05-01,2024-05-01,株式会社ＬＵＰＩＳＯＬ,,株式会社,大阪府,大阪市浪速区,湊町２丁目２番５－７０２号,,27,111,5560017,,,,,,,2024-05-01,1,,,,,ラピソル,0
164,1120001264432,新規,0,2024-05-01,2024-05-01,株式会社夢と未来,,株式会社,大阪府,大阪市生野区,新今里２丁目１３番２１号,,27,116,5440001,,,,,,,2024-05-01,1,,,,,ユメトミライ,0
165,1120001264507,新規,0,2024-05-01,2024-05-01,株式会社津野食品企画,,株式会社,大阪府,大阪市都島区,御幸町２丁目５番６号,,27,102,5340012,,,,,,,2024-05-01,1,,,,,ツノショクヒンキカク,0
166,1120001264515,新規,0,2024-05-01,2024-05-01,株式会社エムズ建物調査,,株式会社,大阪府,大阪市中央区,瓦町４丁目３番１４－１００５号,,27,128,5410048,,,,,,,2024-05-01,1,,,,,エムズタテモノチョウサ,0
167,1120001264523,新規,0,2024-05-01,2024-05-01,Ｈｏｌｌｙｗｏｏｄ　Ｐａｒｔｙ株式会社,,株式会社,大阪府,大阪市中央区,平野町２丁目２番７－３０５号,,27,128,5410046,,,,,,,2024-05-01,1,,,,,ハリウッドパーティー,0
175,1120003026434,新規,0,2024-05-01,2024-05-01,永恵合同会社,,合同会社,大阪府,大阪市中央区,本町橋６－２１シャンボール内本町６０４室Ａ,,27,128,5400029,,,,,,,2024-05-01,1,,,,,エイケイ,0
176,1120003026475,新規,0,2024-05-01,2024-05-01,合同会社ＡＩＲ　ＧＲＥＥＮ,,合同会社,大阪府,大阪市北区,梅田１丁目１－３大阪駅前第３ビル２９階１－１－１号室,,27,127,5300001,,,,,,,2024-05-01,1,,,,,エアーグリーン,0
177,1120003026483,新規,0,2024-05-01,2024-05-01,ＪＸＫ合同会社,,合同会社,大阪府,大阪市中央区,南船場３丁目２番２２号おおきに南船場ビル２０５,,27,128,5420081,,,,,,,2024-05-01,1,,,,,ジェイエックスケイ,0
179,1120101069509,新規,0,2024-05-01,2024-05-01,バンブーフォレスト株式会社,,株式会社,大阪府,泉南郡熊取町,野田２丁目８番１９号,,27,361,5900451,,,,,,,2024-05-01,1,,,,,バンブーフォレスト,0
182,1120901049107,新規,0,2024-05-01,2024-05-01,株式会社リンクス,,株式会社,大阪府,高槻市,真上町４丁目４番２１号,,27,207,5691121,,,,,,,2024-05-01,1,,,,,リンクス,0
183,1120901049115,新規,0,2024-05-01,2024-05-01,ユーコーポレーション株式会社,,株式会社,大阪府,豊能郡能勢町,宿野１５１番地の２２１,,27,322,5630341,,,,,,,2024-05-01,1,,,,,ユーコーポレーション,0
192,1130003009504,新規,0,2024-05-01,2024-05-01,合同会社久保林業,,合同会社,京都府,京都市左京区,浄土寺上馬場町９,,26,103,6068416,,,,,,,2024-05-01,1,,,,,クボリンギョウ,0
201,1140005027057,新規,0,2024-05-01,2024-05-01,一般社団法人めぐみ会,,その他の設立登記法人,兵庫県,神戸市中央区,元町通１丁目１３－１３ナポリ元町ビル７階,,28,110,6500022,,,,,,,2024-05-01,1,,,,,メグミカイ,0
213,1180001161104,新規,0,2024-05-01,2024-05-01,Ｓ・Ｂ・Ｈ株式会社,,株式会社,愛知県,名古屋市中村区,名駅３丁目２０番２０号名駅錦ビル６階,,23,105,4500002,,,,,,,2024-05-01,1,,,,,エスビーエイチ,0
214,1180001161178,新規,0,2024-05-01,2024-05-01,株式会社Ａｋａｓｈｉ,,株式会社,愛知県,名古屋市昭和区,御器所１丁目１９番１９号,,23,107,4660051,,,,,,,2024-05-01,1,,,,,アカシ,0
215,1180001161186,新規,0,2024-05-01,2024-05-01,株式会社Ｄｅａｒ　Ｂｅ,,株式会社,愛知県,名古屋市東区,泉１丁目４番６号グリーンハイツ外堀通り３０５号室,,23,102,4610001,,,,,,,2024-05-01,1,,,,,ディアビー,0
216,1180001161203,新規,0,2024-05-01,2024-05-01,株式会社大王商事,,株式会社,愛知県,小牧市,下小針中島１丁目２４０番地２,,23,219,4850051,,,,,,,2024-05-01,1,,,,,ダイオウショウジ,0
219,1180003026692,新規,0,2024-05-01,2024-05-01,合同会社きずな,,合同会社,愛知県,名古屋市天白区,高坂町２９０番地,,23,116,4680025,,,,,,,2024-05-01,1,,,,,キズナ,0
226,1190002017031,新規,0,2024-05-01,2024-05-01,有限会社百十紅,,有限会社,三重県,いなべ市,大安町石榑南１８３９番地,,24,214,5110266,,,,,,,2024-05-01,1,,,,,ヒャクジュウコウ,0
227,1190003004648,新規,0,2024-05-01,2024-05-01,合同会社ＹＳ,,合同会社,三重県,津市,河芸町久知野１８５５番地６９,,24,201,5100312,,,,,,,2024-05-01,1,,,,,ワイエス,0
237,1250003003486,新規,0,2024-05-01,2024-05-01,合同会社木心,,合同会社,山口県,山口市,大内矢田南４丁目２番５号,,35,203,7530222,,,,,,,2024-05-01,1,,,,,キゴコロ,0
241,1260003004665,新規,0,2024-05-01,2024-05-01,Ｃ．Ｍ．Ｋ合同会社,,合同会社,岡山県,岡山市北区,東古松４丁目３番２５号サーパス医大南弐番館５０２,,33,101,7000921,,,,,,,2024-05-01,1,,,,,シーエムケイ,0
251,1290801011579,新規,0,2024-05-01,2024-05-01,株式会社オージー,,株式会社,福岡県,北九州市八幡東区,上本町１丁目９番４３号,,40,108,8050018,,,,,,,2024-05-01,1,,,,,オージー,0
256,1330001031992,新規,0,2024-05-01,2024-05-01,株式会社古家建具工房,,株式会社,熊本県,山鹿市,津留４１４番地１,,43,208,8610551,,,,,,,2024-05-01,1,,,,,フルイエタテグコウボウ,0
257,1350001018939,新規,0,2024-05-01,2024-05-01,天庵株式会社,,株式会社,宮崎県,西臼杵郡高千穂町,大字三田井１１８０―２５,,45,441,8821101,,,,,,,2024-05-01,1,,,,,テンアン,0
263,1360003013937,新規,0,2024-05-01,2024-05-01,合同会社まるみず商会正興業,,合同会社,沖縄県,那覇市,与儀２丁目１７番２５号ジヴェルニー１０５,,47,201,9020076,,,,,,,2024-05-01,1,,,,,マルミズショウカイマサコウギョウ,0
266,1370001051228,新規,0,2024-05-01,2024-05-01,株式会社ＬＩＢＥ,,株式会社,宮城県,仙台市太白区,中田３丁目７番４５号コーポ今野,,04,104,9811104,,,,,,,2024-05-01,1,,,,,ライブ,0
276,1390001017598,新規,0,2024-05-01,2024-05-01,株式会社ＡＷＯＫＫ,,株式会社,山形県,南陽市,赤湯３１２６番地,,06,213,9992211,,,,,,,2024-05-01,1,,,,,アウォーク,0
277,1390003002243,新規,0,2024-05-01,2024-05-01,合同会社山形フルーツ,,合同会社,山形県,東村山郡山辺町,大字山辺１０６４番地,,06,301,9900301,,,,,,,2024-05-01,1,,,,,ヤマガタフルーツ,0
287,1430001091688,新規,0,2024-05-01,2024-05-01,株式会社北成造園,,株式会社,北海道,芦別市,本町１０６５番地１,,01,216,0750041,,,,,,,2024-05-01,1,,,,,ホクセイゾウエン,0
289,1460001005892,新規,0,2024-05-01,2024-05-01,株式会社北秀興産,,株式会社,北海道,釧路郡釧路町,緑３丁目４９番地,,01,661,0882153,,,,,,,2024-05-01,1,,,,,ホクシュウコウサン,0
290,1460103001617,新規,0,2024-05-01,2024-05-01,トカチクラフト合同会社,,合同会社,北海道,帯広市,西一条南８丁目２,,01,207,0800011,,,,,,,2024-05-01,1,,,,,トカチクラフト,0
295,1700150021501,新規,0,2024-05-01,2015-10-09,上伊那自家用自動車協会,,その他,長野県,伊那市,上の原６００２－１,,20,209,3960008,,,,,,,2015-10-09,1,,,,,カミイナジカヨウジドウシヤキヨウカイ,0
296,1700150055755,新規,0,2024-05-01,2015-10-09,出雲全日本大学選抜駅伝競走組織委員会,,その他,島根県,出雲市,今市町７０出雲市役所文化スポーツ課内,,32,203,6930001,,,,,,,2015-10-09,1,,,,,イズモゼンニホンダイガクセンバツエキデンキヨウソウソシキイインカイ,0
306,2010001244394,新規,0,2024-05-01,2024-05-01,株式会社ＭＡＣＰＲ,,株式会社,東京都,中央区,日本橋室町３丁目３番１号Ｅ．Ｔ．Ｓ．室町ビル５階,,13,102,1030022,,,,,,,2024-05-01,1,,,,,マックピーアール,0
307,2010001244477,新規,0,2024-05-01,2024-05-01,株式会社Ｌｕｃｋ・Ａ,,株式会社,東京都,千代田区,神田佐久間町３丁目２０番５号,,13,101,1010025,,,,,,,2024-05-01,1,,,,,ラックエー,0
308,2010001244527,新規,0,2024-05-01,2024-05-01,ＰＴＣＪ‐６Ｆホールディングス株式会社,,株式会社,東京都,千代田区,丸の内１丁目９番１号,,13,101,1000005,,,,,,,2024-05-01,1,,,,,ピーティーシージェイシックスエフホールディングス,0
311,2010003043621,新規,0,2024-05-01,2024-05-01,合同会社江田島開発,,合同会社,東京都,文京区,白山５丁目２９番９号,,13,105,1120001,,,,,,,2024-05-01,1,,,,,エタジマカイハツ,0
319,2010103002345,新規,0,2024-05-01,2024-05-01,合同会社界,,合同会社,東京都,八王子市,千人町２丁目２０－５,,13,201,1930835,,,,,,,2024-05-01,1,,,,,カイ,0
324,2010401182038,新規,0,2024-05-01,2024-05-01,株式会社橙,,株式会社,東京都,港区,港南４丁目６番１－２７０４号,,13,103,1080075,,,,,,,2024-05-01,1,,,,,ダイダイ,0
325,2010401182095,新規,0,2024-05-01,2024-05-01,株式会社ＡＳＡリートパートナーズ,,株式会社,東京都,港区,虎ノ門２丁目１０番４号,,13,103,1050001,,,,,,,2024-05-01,1,,,,,エーエスエーリートパートナーズ,0
326,2010403032521,新規,0,2024-05-01,2024-05-01,合同会社スリーフィールド,,合同会社,東京都,港区,白金台３丁目１８番８－３０３号,,13,103,1080071,,,,,,,2024-05-01,1,,,,,スリーフィールド,0
331,2010601065100,新規,0,2024-05-01,2024-05-01,株式会社マスターピースカットフィルムズ,,株式会社,東京都,江東区,東雲１丁目５番１８号クレヴィア豊洲７０７,,13,108,1350062,,,,,,,2024-05-01,1,,,,,マスターピースカットフィルムズ,0
333,2010703007149,新規,0,2024-05-01,2024-05-01,合同会社縁,,合同会社,東京都,品川区,西品川１丁目２９番１２号,,13,109,1410033,,,,,,,2024-05-01,1,,,,,,0
341,2010903008995,新規,0,2024-05-01,2024-05-01,Ｔａｂｌｅ　Ｕｎｓｔａｂｌｅ　ＤＡＯ合同会社,,合同会社,東京都,世田谷区,松原３丁目３０－１０－２Ｆ,,13,112,1560043,,,,,,,2024-05-01,1,,,,,テーブルアンステーブルダオ,0
342,2010903009011,新規,0,2024-05-01,2024-05-01,合同会社成富デザイン事務所,,合同会社,東京都,世田谷区,南烏山４丁目５番１６号荒井マンション２０１,,13,112,1570062,,,,,,,2024-05-01,1,,,,,ナリトミデザインジムショ,0
344,2011001161687,新規,0,2024-05-01,2024-05-01,株式会社ＣＡＲＥＸ,,株式会社,東京都,渋谷区,恵比寿南１丁目２０番６号第２１荒井ビル４階,,13,113,1500022,,,,,,,2024-05-01,1,,,,,カーレックス,0
345,2011005010502,新規,0,2024-05-01,2024-05-01,一般社団法人日韓貿易振興協会,,その他の設立登記法人,東京都,渋谷区,道玄坂１丁目１０番８号東急ビル２Ｆ－Ｃ,,13,113,1500043,,,,,,,2024-05-01,1,,,,,ニッカンンボウエキシンコウキョウカイ,0
347,2011101107169,新規,0,2024-05-01,2024-05-01,株式会社ウェルネス,,株式会社,東京都,新宿区,西新宿３丁目１１番１６号,,13,104,1600023,,,,,,,2024-05-01,1,,,,,ウェルネス,0
351,2011401026060,新規,0,2024-05-01,2024-05-01,頂豊株式会社,,株式会社,東京都,板橋区,熊野町３３－１植木コーポ２０１,,13,119,1730025,,,,,,,2024-05-01,1,,,,,チョウホウ,0
352,2011405002297,新規,0,2024-05-01,2024-05-01,特定非営利活動法人マム・スマイル・ウィズ,,その他の設立登記法人,東京都,板橋区,清水町３８番１－５１０号,,13,119,1740053,,,,,,,2024-05-01,1,,,,,マムスマイルウィズ,0
358,2011703003815,新規,0,2024-05-01,2024-05-01,ＧＯＬＤＥＮ　ＪＡＧＵＡＲ合同会社,,合同会社,東京都,江戸川区,南小岩７丁目２７番１３号,,13,123,1330056,,,,,,,2024-05-01,1,,,,,ゴールデンジャガー,0
386,2020003025981,新規,0,2024-05-01,2024-05-01,合同会社ＨＯＫＵＴＯ,,合同会社,神奈川県,横浜市神奈川区,斎藤分町３０番１８号ハーミットクラブハウス東白楽２０４号,,14,102,2210811,,,,,,,2024-05-01,1,,,,,ホクト,0
395,2021003014438,新規,0,2024-05-01,2024-05-01,Ｅｎｇｒｏｗｔｈ合同会社,,合同会社,神奈川県,中郡二宮町,山西１７２－２グレースヒル湘南２０３,,14,342,2590124,,,,,,,2024-05-01,1,,,,,エングロース,0
409,2040001133339,新規,0,2024-05-01,2024-05-01,潮悦株式会社,,株式会社,千葉県,野田市,西高野４５５番１０,,12,208,2700216,,,,,,,2024-05-01,1,,,,,チョウエツ,0
410,2040001133388,新規,0,2024-05-01,2024-05-01,株式会社アピス,,株式会社,千葉県,八千代市,勝田台南２丁目１９番２４号,,12,221,2760025,,,,,,,2024-05-01,1,,,,,アピス,0
411,2040001133396,新規,0,2024-05-01,2024-05-01,株式会社ホンゴウ,,株式会社,千葉県,千葉市花見川区,幕張本郷３丁目２１番２１－２号,,12,102,2620033,,,,,,,2024-05-01,1,,,,,ホンゴウ,0
412,2040001133421,新規,0,2024-05-01,2024-05-01,ＷｅｌｌＭｅｎｔ株式会社,,株式会社,千葉県,千葉市美浜区,若葉３丁目１―１８幕張ベイパーククロスレジデンスＳ２―１,,12,106,2610014,,,,,,,2024-05-01,1,,,,,ウェルメント,0
416,2040005022380,新規,0,2024-05-01,2024-05-01,一般社団法人カケル,,その他の設立登記法人,千葉県,我孫子市,天王台１丁目１番１号,,12,222,2701143,,,,,,,2024-05-01,1,,,,,カケル,0
422,2050003008315,新規,0,2024-05-01,2024-05-01,ＩＳＵＲＵ　ＬＡＮＫＡ合同会社,,合同会社,茨城県,稲敷市,沼田２７１３番地１０－２０１号,,08,229,3000506,,,,,,,2024-05-01,1,,,,,イスルランカ,0
431,2070001041687,新規,0,2024-05-01,2024-05-01,株式会社ＥＶＥＲ　ＧＯＡＴ,,株式会社,群馬県,桐生市,広沢町５丁目５０１４番地８,,10,203,3760013,,,,,,,2024-05-01,1,,,,,エバーゴート,0
441,2110001038365,新規,0,2024-05-01,2024-05-01,株式会社ｂｒａｎｃｈ,,株式会社,新潟県,新潟市北区,鳥屋字鳥屋浦７５３番地,,15,101,9503316,,,,,,,2024-05-01,1,,,,,ブランチ,0
452,2120001264191,新規,0,2024-05-01,2024-05-01,イフゼン株式会社,,株式会社,大阪府,大阪市淀川区,西中島３丁目１２番８号,,27,123,5320011,,,,,,,2024-05-01,1,,,,,イフゼン,0
453,2120001264407,新規,0,2024-05-01,2024-05-01,シーワイエクセル株式会社,,株式会社,大阪府,大阪市淀川区,西宮原３丁目３－３－３３１,,27,123,5320004,,,,,,,2024-05-01,1,,,,,シーワイエクセル,0
454,2120001264497,新規,0,2024-05-01,2024-05-01,ライブソリューション株式会社,,株式会社,大阪府,大阪市都島区,東野田町４丁目７番５号,,27,102,5340024,,,,,,,2024-05-01,1,,,,,ライブソリューション,0
455,2120001264506,新規,0,2024-05-01,2024-05-01,三宅理紗ホールディングス株式会社,,株式会社,大阪府,大阪市浪速区,幸町２丁目８番７号,,27,111,5560021,,,,,,,2024-05-01,1,,,,,ミヤケリサホールディングス,0
456,2120001264514,新規,0,2024-05-01,2024-05-01,株式会社アローイ,,株式会社,大阪府,大阪市北区,天神橋４丁目２番７号天満松栄会館４０１,,27,127,5300041,,,,,,,2024-05-01,1,,,,,アローイ,0
457,2120001264530,新規,0,2024-05-01,2024-05-01,徳州早稲田株式会社,,株式会社,大阪府,大阪市旭区,生江３丁目４番２３号コレクション城北ＩＩ,00134593,27,117,5350004,,,,,,,2024-05-01,1,,,,,トクシュウワセダ,0
458,2120001264571,新規,0,2024-05-01,2024-05-01,株式会社アリティ,,株式会社,大阪府,大阪市北区,西天満５丁目１６番１５－４０６号,,27,127,5300047,,,,,,,2024-05-01,1,,,,,アリティ,0
459,2120003026466,新規,0,2024-05-01,2024-05-01,ＮＭＫ　ＧＲＯＵＰ合同会社,,合同会社,大阪府,大阪市生野区,小路３丁目１３番５号,,27,116,5440002,,,,,,,2024-05-01,1,,,,,エヌエムケーグループ,0
460,2120003026482,新規,0,2024-05-01,2024-05-01,秋菜合同会社,,合同会社,大阪府,大阪市鶴見区,諸口６丁目２番６２－２０７号,,27,124,5380051,,,,,,,2024-05-01,1,,,,,シュウナ,0
461,2120003026490,新規,0,2024-05-01,2024-05-01,合同会社Ｆｌｏｗｅｒ　ｏｆ　Ｌｉｆｅ,,合同会社,大阪府,大阪市北区,梅田１丁目１－３大阪駅前第３ビル２９階１－１－１号室,,27,127,5300001,,,,,,,2024-05-01,1,,,,,フラワーオブライフ,0
462,2120101069499,新規,0,2024-05-01,2024-05-01,プレイング株式会社,,株式会社,大阪府,堺市堺区,向陵東町３丁１番１４号,,27,141,5900025,,,,,,,2024-05-01,1,,,,,プレイング,0
469,2122001038063,新規,0,2024-05-01,2024-05-01,株式会社岩本電設,,株式会社,大阪府,八尾市,末広町４丁目８番７号,,27,212,5810001,,,,,,,2024-05-01,1,,,,,イワモトデンセツ,0
474,2140001134269,新規,0,2024-05-01,2024-05-01,株式会社ＳＵＮ　ＲＯＣＫ,,株式会社,兵庫県,神戸市北区,淡河町淡河７８７,,28,109,6511603,,,,,,,2024-05-01,1,,,,,サンロック,0
484,2180001161177,新規,0,2024-05-01,2024-05-01,株式会社Ｅｌｉｇｅ,,株式会社,愛知県,名古屋市北区,喜惣治１丁目２２９番地の２,,23,103,4620065,,,,,,,2024-05-01,1,,,,,エリッジ,0
485,2180001161185,新規,0,2024-05-01,2024-05-01,致可株式会社,,株式会社,愛知県,名古屋市瑞穂区,津賀田町２丁目２７番地ドール津賀田４０５号室,,23,108,4670823,,,,,,,2024-05-01,1,,,,,チカ,0
486,2180001161202,新規,0,2024-05-01,2024-05-01,株式会社香月,,株式会社,愛知県,丹羽郡大口町,下小口７丁目３４番地１,,23,361,4800144,,,,,,,2024-05-01,1,,,,,カツキ,0
487,2180001161210,新規,0,2024-05-01,2024-05-01,昇輝株式会社,,株式会社,愛知県,名古屋市西区,大野木５丁目７３番地米本ビル２Ａ号室,,23,104,4520803,,,,,,,2024-05-01,1,,,,,ショウキ,0
488,2180001161251,新規,0,2024-05-01,2024-05-01,株式会社アトラスソリューションズ,,株式会社,愛知県,名古屋市中村区,名駅４丁目２４番５号第２森ビル４０１,,23,105,4500002,,,,,,,2024-05-01,1,,,,,アトラスソリューションズ,0
493,2180003026709,新規,0,2024-05-01,2024-05-01,合同会社ＮＹ,,合同会社,愛知県,瀬戸市,大坂町８０番地,,23,204,4890867,,,,,,,2024-05-01,1,,,,,エヌワイ,0
497,2200001042449,新規,0,2024-05-01,2024-05-01,株式会社ＬＩＦＥ　ＭＡＫＥ,,株式会社,岐阜県,関市,栄町１丁目１４番地５,,21,205,5013253,,,,,,,2024-05-01,1,,,,,ライフメイク,0
498,2210001019743,新規,0,2024-05-01,2024-05-01,株式会社ＭＩＮＯＲＩ,,株式会社,福井県,丹生郡越前町,樫津第１６号４４番地,,18,423,9160272,,,,,,,2024-05-01,1,,,,,ミノリ,0
503,2240003006646,新規,0,2024-05-01,2024-05-01,合同会社ＺＯＯＮ,,合同会社,広島県,東広島市,志和町奥屋２４３６－２,,34,212,7390266,,,,,,,2024-05-01,1,,,,,ゾーン,0
512,2260005011345,新規,0,2024-05-01,2024-05-01,協同組合ＤＥＩ,,その他の設立登記法人,岡山県,岡山市北区,富原３７８８番地１,,33,101,7011153,,,,,,,2024-05-01,1,,,,,ディーイーアイ,0
516,2290001105552,新規,0,2024-05-01,2024-05-01,株式会社ＢＴバイオマステクノロジー研究所,,株式会社,福岡県,福岡市博多区,比恵町１３－１５,,40,132,8120014,,,,,,,2024-05-01,1,,,,,ビーティバイオマステクノロジーケンキュウジョ,0
517,2290801030529,新規,0,2024-05-01,2024-05-01,リンカー株式会社,,株式会社,福岡県,北九州市若松区,本町１丁目５番１１号,,40,103,8080034,,,,,,,2024-05-01,1,,,,,リンカー,0
519,2300001013712,新規,0,2024-05-01,2024-05-01,株式会社ａｎｔｈｅａ,,株式会社,佐賀県,鳥栖市,布津原町１４－１－１Ｆ,,41,203,8410053,,,,,,,2024-05-01,1,,,,,アンシア,0
524,2320001020442,新規,0,2024-05-01,2024-05-01,一翔株式会社,,株式会社,大分県,大分市,山津町１丁目７番１号,,44,201,8700136,,,,,,,2024-05-01,1,,,,,イッショウ,0
526,2330001032016,新規,0,2024-05-01,2024-05-01,ＴＫサポート株式会社,,株式会社,熊本県,熊本市東区,戸島２丁目５－１０５,,43,102,8618041,,,,,,,2024-05-01,1,,,,,ティケイサポート,0
534,2360001033589,新規,0,2024-05-01,2024-05-01,株式会社ＯＵＲＳＯＮＧＳ,,株式会社,沖縄県,名護市,字宇茂佐１６０８番地Ｍｅｌｅ　Ｋｕｋｕｎａ１０３号室,,47,209,9050006,,,,,,,2024-05-01,1,,,,,アワソングス,0
541,2380001034494,新規,0,2024-05-01,2024-05-01,株式会社サンライト,,株式会社,福島県,伊達市,沢田７番地９,,07,213,9600473,,,,,,,2024-05-01,1,,,,,サンライト,0
552,2450001014308,新規,0,2024-05-01,2024-05-01,株式会社ＰＥＮＮＹ’Ｓ　ＲＥＰＡＩＲ　ＧＡＲＡＧＥ,,株式会社,北海道,上川郡鷹栖町,北一条１丁目１番２２号,,01,452,0711211,,,,,,,2024-05-01,1,,,,,ペニーズリペアガレージ,0
557,2500005008705,新規,0,2024-05-01,2024-05-01,特定非営利活動法人緑のゆび,,その他の設立登記法人,愛媛県,松山市,祝谷東町８１２番地９オックスフォード１０１号,,38,201,7900835,,,,,,,2024-05-01,1,,,,,ミドリノユビ,0
566,3010001244385,新規,0,2024-05-01,2024-05-01,株式会社Ｔ＆Ｕ,,株式会社,東京都,中央区,築地６丁目１７番４号リードシー築地ビル６０１,,13,102,1040045,,,,,,,2024-05-01,1,,,,,ティーアンドユー,0
567,3010001244484,新規,0,2024-05-01,2024-05-01,株式会社俣野クリエイション,,株式会社,東京都,千代田区,岩本町３丁目１０－７東自機ビル７Ｆ,,13,101,1010032,,,,,,,2024-05-01,1,,,,,,0
573,3010101016115,新規,0,2024-05-01,2024-05-01,リープオートモビルズ株式会社,,株式会社,東京都,八王子市,台町４丁目３０番７号,,13,201,1930931,,,,,,,2024-05-01,1,,,,,リープオートモビルズ,0
580,3010401182094,新規,0,2024-05-01,2024-05-01,株式会社Ｍｏｘｉｅ,,株式会社,東京都,港区,赤坂７丁目７番５号,,13,103,1070052,,,,,,,2024-05-01,1,,,,,モクシー,0
582,3010403032495,新規,0,2024-05-01,2024-05-01,Ｇ　ｂｏｓｓ合同会社,,合同会社,東京都,港区,新橋６丁目１１番１３号プライムメゾン新橋タワー１２０５,,13,103,1050004,,,,,,,2024-05-01,1,,,,,ジーボス,0
585,3010503007422,新規,0,2024-05-01,2024-05-01,合同会社ＢＯＢ,,合同会社,東京都,台東区,根岸１丁目１－２４鶯谷日伸ハイツ６０５号,,13,106,1100003,,,,,,,2024-05-01,1,,,,,ベストオブベスト,0
586,3010601065090,新規,0,2024-05-01,2024-05-01,ＮＯＴＨＩＮＧ　ＣＯ．株式会社,,株式会社,東京都,江東区,清澄１丁目２番２４－４０２号,,13,108,1350024,,,,,,,2024-05-01,1,,,,,ナッシングコー,0
587,3010603010805,新規,0,2024-05-01,2024-05-01,合同会社ＬＥＯＮ,,合同会社,東京都,墨田区,石原３丁目１６番地１号ハイネス壱番館１０３号室,,13,107,1300011,,,,,,,2024-05-01,1,,,,,レオン,0
589,3010903009002,新規,0,2024-05-01,2024-05-01,合同会社まるまる,,合同会社,東京都,世田谷区,羽根木１丁目９番１４－２０９号,,13,112,1560042,,,,,,,2024-05-01,1,,,,,マルマル,0
599,3011001161769,新規,0,2024-05-01,2024-05-01,ピカピカ株式会社,,株式会社,東京都,渋谷区,広尾５丁目１番１５－５０１号ザ・パークハウス広尾,,13,113,1500012,,,,,,,2024-05-01,1,,,,,ピカピカ,0
601,3011003019040,新規,0,2024-05-01,2024-05-01,合同会社Ｒａｖｅｎ’ｓ　Ｎｅｓｔ,,合同会社,東京都,目黒区,目黒本町５丁目２３番２０－２０２号,,13,110,1520002,,,,,,,2024-05-01,1,,,,,レイヴンズネスト,0
607,3011101107168,新規,0,2024-05-01,2024-05-01,株式会社ワイズ,,株式会社,東京都,新宿区,西新宿３丁目１１番１６号,,13,104,1600023,,,,,,,2024-05-01,1,,,,,ワイズ,0
611,3011303005145,新規,0,2024-05-01,2024-05-01,合同会社ＳＴＵＤＩＯ　ＹＳＭ,,合同会社,東京都,杉並区,本天沼３丁目４４番１４－１０３コーポ本天沼,,13,115,1670031,,,,,,,2024-05-01,1,,,,,,0
624,3012403006545,新規,0,2024-05-01,2024-05-01,ｉｃｈｉ　ｄｅｓｉｇｎ合同会社,,合同会社,東京都,三鷹市,下連雀３丁目４３－２１藤和三鷹ホームズ２０４,,13,204,1810013,,,,,,,2024-05-01,1,,,,,イチデザイン,0
629,3012801023134,新規,0,2024-05-01,2024-05-01,株式会社ＨＥＡＲＴ,,株式会社,東京都,日野市,大坂上１丁目３２番地の１１伊藤ビル,,13,212,1910061,,,,,,,2024-05-01,1,,,,,ハート,0
630,3012801023142,新規,0,2024-05-01,2024-05-01,株式会社モアステップ,,株式会社,東京都,国立市,西２丁目２５番地の１,,13,215,1860005,,,,,,,2024-05-01,1,,,,,モアステップ,0
642,3020005016400,新規,0,2024-05-01,2024-05-01,一般社団法人くらしの研究所,,その他の設立登記法人,神奈川県,横浜市西区,みなとみらい４丁目９番１－Ｂ２５０８号,,14,103,2200012,,,,,,,2024-05-01,1,,,,,クラシノケンキュウジョ,0
646,3021001082130,新規,0,2024-05-01,2024-05-01,株式会社ＲＤ　ＳＥＲＶＩＣＥ　ＪＰ,,株式会社,神奈川県,綾瀬市,蓼川２丁目８番２２－１号,,14,218,2521105,,,,,,,2024-05-01,1,,,,,アールディサービスジェイピー,0
648,3021003014445,新規,0,2024-05-01,2024-05-01,Ｎ＆Ｈ桜合同会社,,合同会社,神奈川県,平塚市,東真土２丁目２０番６９号,,14,203,2540018,,,,,,,2024-05-01,1,,,,,エヌアンドエイチサクラ,0
654,3030001160102,新規,0,2024-05-01,2024-05-01,ＡＢＵ　ＢＡＫＡＲ　ＴＲＡＤＩＮＧ株式会社,,株式会社,埼玉県,幸手市,北１丁目１５番３４号グランハイムさくらＣ棟１０２号室,,11,240,3400111,,,,,,,2024-05-01,1,,,,,アブバカールトレーディング,0
655,3030001160127,新規,0,2024-05-01,2024-05-01,株式会社ＭＭＳ　ＦＵＴＵＲＥ,,株式会社,埼玉県,春日部市,粕壁１丁目３－４,,11,214,3440061,,,,,,,2024-05-01,1,,,,,エムエムエスフューチャー,0
669,3040001133362,新規,0,2024-05-01,2024-05-01,株式会社リン・コンストラクション,,株式会社,千葉県,木更津市,新田１丁目４番４号１Ｆ,,12,206,2920832,,,,,,,2024-05-01,1,,,,,リンコンストラクション,0
670,3040001133370,新規,0,2024-05-01,2024-05-01,株式会社Ｍｉｗａ’ｇｒｏｕｐ,,株式会社,千葉県,東金市,東上宿３番地７Ｌ＆Ｒ１号棟１０５,,12,213,2830067,,,,,,,2024-05-01,1,,,,,ミワグループ,0
681,3070001041686,新規,0,2024-05-01,2024-05-01,株式会社ＦＳＧ,,株式会社,群馬県,伊勢崎市,柴町９５３番地７０,,10,204,3720824,,,,,,,2024-05-01,1,,,,,エフエスジー,0
683,3080001026273,新規,0,2024-05-01,2024-05-01,株式会社咲工業,,株式会社,静岡県,静岡市葵区,足久保奥組１９９０番地,,22,101,4212125,,,,,,,2024-05-01,1,,,,,サキコウギョウ,0
684,3080003003188,新規,0,2024-05-01,2024-05-01,ぬくもりテクノロジー合同会社,,合同会社,静岡県,焼津市,大住５８８番地の２,,22,212,4250072,,,,,,,2024-05-01,1,,,,,,0
685,3080101024714,新規,0,2024-05-01,2024-05-01,株式会社ｅｎＤｏ,,株式会社,静岡県,沼津市,高島本町１３番３号,,22,203,4100055,,,,,,,2024-05-01,1,,,,,エンドウ,0
688,3080401027152,新規,0,2024-05-01,2024-05-01,株式会社満室,,株式会社,静岡県,浜松市中央区,上島３丁目２８番３０号ロイヤルクレスト上島３０２号室,,22,138,4338122,,,,,,,2024-05-01,1,,,,,マンシツ,0
691,3090001018682,新規,0,2024-05-01,2024-05-01,Ｈｅａｒｔ　Ｄｏｇ株式会社,,株式会社,山梨県,甲斐市,篠原３１１２番地１,,19,210,4000115,,,,,,,2024-05-01,1,,,,,ハートドッグ,0
715,3120001264430,新規,0,2024-05-01,2024-05-01,アマネライフ株式会社,,株式会社,大阪府,大阪市中央区,南久宝寺町４丁目３番１１－１２０３号,,27,128,5410058,,,,,,,2024-05-01,1,,,,,アマネライフ,0
716,3120001264455,新規,0,2024-05-01,2024-05-01,株式会社ＳＵＲＥ　ＳＨＯＴ,,株式会社,大阪府,大阪市福島区,鷺洲５丁目１２番２－１９２１号,,27,103,5530002,,,,,,,2024-05-01,1,,,,,シュアーショット,0
717,3120001264505,新規,0,2024-05-01,2024-05-01,株式会社三嘉,,株式会社,大阪府,寝屋川市,美井元町６－１４ＥＡＳＴＨＩＬＬ４Ｆ,,27,215,5720006,,,,,,,2024-05-01,1,,,,,ミヨシ,0
718,3120001264513,新規,0,2024-05-01,2024-05-01,株式会社ＤＡＹＺ,,株式会社,大阪府,大阪市中央区,上汐２丁目４番６号上六センタービル３１２号,,27,128,5420064,,,,,,,2024-05-01,1,,,,,デイズ,0
723,3120003026465,新規,0,2024-05-01,2024-05-01,合同会社ＮＤＡアート,,合同会社,大阪府,大阪市北区,梅田２丁目５番１３号桜橋第一ビル３０４号,,27,127,5300001,,,,,,,2024-05-01,1,,,,,エヌディーエーアート,0
724,3120003026473,新規,0,2024-05-01,2024-05-01,合同会社Ｔ＆Ｍ,,合同会社,大阪府,大阪市西成区,千本中２丁目１番９号,,27,122,5570054,,,,,,,2024-05-01,1,,,,,ティーアンドエム,0
728,3120101069498,新規,0,2024-05-01,2024-05-01,株式会社ＲＥＦＯＲＷＡＲＤ,,株式会社,大阪府,和泉市,和気町１丁目３１番３－２号,,27,219,5940073,,,,,,,2024-05-01,1,,,,,リフォワード,0
735,3130001076949,新規,0,2024-05-01,2024-05-01,株式会社ハタヨシ,,株式会社,京都府,京都市西京区,樫原宇治井町２１番地１,,26,111,6158185,,,,,,,2024-05-01,1,,,,,ハタヨシ,0
736,3130003009510,新規,0,2024-05-01,2024-05-01,Ａｕｄａｘ　Ｃｒｅａｔｉｏｎ合同会社,,合同会社,京都府,京都市下京区,七条通油小路東入大黒町２２７番地第２キョートビル４０２,,26,106,6008223,,,,,,,2024-05-01,1,,,,,アウダックスクリエーション,0
737,3130003009519,新規,0,2024-05-01,2024-05-01,合同会社玲寿,,合同会社,京都府,京都市西京区,樫原久保町３３番地１ドミール久保３０１,,26,111,6158171,,,,,,,2024-05-01,1,,,,,レージュ,0
753,3150003003239,新規,0,2024-05-01,2024-05-01,Ｇｉａ　Ｌｉｎｈ合同会社,,合同会社,奈良県,奈良市,宝来１丁目６番８号,,29,201,6310845,,,,,,,2024-05-01,1,,,,,ジャリン,0
759,3170003002024,新規,0,2024-05-01,2024-05-01,合同会社緑ヶ丘,,合同会社,和歌山県,和歌山市,西浜１０５８番地,,30,201,6410036,,,,,,,2024-05-01,1,,,,,ミドリガオカ,0
765,3180001161176,新規,0,2024-05-01,2024-05-01,株式会社Ｍ’ｓコーポレーション,,株式会社,愛知県,名古屋市北区,楠味鋺５丁目１２１０番地,,23,103,4620014,,,,,,,2024-05-01,1,,,,,エムズコーポレーション,0
766,3180001161184,新規,0,2024-05-01,2024-05-01,井格株式会社,,株式会社,愛知県,名古屋市千種区,小松町５丁目３番１５,,23,101,4640853,,,,,,,2024-05-01,1,,,,,イカク,0
767,3180001161192,新規,0,2024-05-01,2024-05-01,株式会社フードアトリエキッチンラボ,,株式会社,愛知県,名古屋市西区,枇杷島３丁目２３番１４号,,23,104,4510053,,,,,,,2024-05-01,1,,,,,フードアトリエキッチンラボ,0
768,3180001161201,新規,0,2024-05-01,2024-05-01,株式会社前進,,株式会社,愛知県,名古屋市昭和区,高峯町３３番地の３,,23,107,4660811,,,,,,,2024-05-01,1,,,,,ゼンシン,0
774,3180003026699,新規,0,2024-05-01,2024-05-01,リクル合同会社,,合同会社,愛知県,海部郡大治町,大字長牧字中道１１９－３,,23,424,4901131,,,,,,,2024-05-01,1,,,,,リクル,0
782,3200003006327,新規,0,2024-05-01,2024-05-01,アンバー合同会社,,合同会社,岐阜県,多治見市,旭ケ丘８丁目２９番地の２３９,,21,204,5070071,,,,,,,2024-05-01,1,,,,,アンバー,0
798,3280001009167,新規,0,2024-05-01,2024-05-01,株式会社ワクムス,,株式会社,島根県,邑智郡邑南町,矢上１８２番地２,,32,449,6960103,,,,,,,2024-05-01,1,,,,,ワクムス,0
800,3290001105551,新規,0,2024-05-01,2024-05-01,株式会社はんざかい,,株式会社,福岡県,大川市,大字榎津５２３番地,,40,212,8310004,,,,,,,2024-05-01,1,,,,,ハンザカイ,0
801,3290003015212,新規,0,2024-05-01,2024-05-01,ＯＲＴＵＳ合同会社,,合同会社,福岡県,福岡市中央区,天神２丁目２番１２号Ｔ＆Ｊビルディング７Ｆ,,40,133,8100001,,,,,,,2024-05-01,1,,,,,オルトゥス,0
807,3320001020441,新規,0,2024-05-01,2024-05-01,株式会社ｆｏｒｔｉｎａ,,株式会社,大分県,大分市,畑中２丁目６番４６号３Ｆ,,44,201,8700856,,,,,,,2024-05-01,1,,,,,フォルティナ,0
808,3320003004351,新規,0,2024-05-01,2024-05-01,オープンマインドアライズ合同会社,,合同会社,大分県,大分市,大字迫３７４番地の３７Ｒｕｍｅ鶴崎Ｅ,,44,201,8700272,,,,,,,2024-05-01,1,,,,,,0
811,3330001032007,新規,0,2024-05-01,2024-05-01,株式会社星ノ設備,,株式会社,熊本県,上益城郡嘉島町,大字北甘木２１５９番地１,,43,442,8613104,,,,,,,2024-05-01,1,,,,,ホシノセツビ,0
813,3330003010340,新規,0,2024-05-01,2024-05-01,合同会社ＫＹＧ,,合同会社,熊本県,熊本市東区,長嶺南１丁目６－２７－１０５,,43,102,8618039,,,,,,,2024-05-01,1,,,,,ケーワイジー,0
818,3370001051226,新規,0,2024-05-01,2024-05-01,株式会社Ｇａｂｕｒｉ,,株式会社,宮城県,塩竈市,花立町８番１５号,,04,203,9850023,,,,,,,2024-05-01,1,,,,,ガブリ,0
828,3420001018707,新規,0,2024-05-01,2024-05-01,Ｒｕｔｉｌｅ　Ｂｅａｒｓ株式会社,,株式会社,青森県,青森市,古舘一丁目３番１１号－１,,02,201,0380000,,,,,,,2024-05-01,1,,,,,ルチルベアーズ,0
832,3430001091422,新規,0,2024-05-01,2024-05-01,Ｂｙフェノメノン株式会社,,株式会社,北海道,札幌市中央区,南六条西２丁目５番地１５ＡＭＳＴＯＷＥＲ２１０６号,,01,101,0640806,,,,,,,2024-05-01,1,,,,,バイフェノメノン,0
833,3430001091686,新規,0,2024-05-01,2024-05-01,株式会社ロールネオ,,株式会社,北海道,札幌市中央区,大通西２丁目５番地,,01,101,0600042,,,,,,,2024-05-01,1,,,,,ロールネオ,0
834,3430001091703,新規,0,2024-05-01,2024-05-01,ゴールドパインツリー株式会社,,株式会社,北海道,札幌市中央区,宮ケ丘１丁目１番４５号,,01,101,0640959,,,,,,,2024-05-01,1,,,,,ゴールドパインツリー,0
837,3450001014307,新規,0,2024-05-01,2024-05-01,株式会社Ｎ　ＷＯＲＫＳ,,株式会社,北海道,旭川市,末広四条５丁目８番１３号,,01,204,0718134,,,,,,,2024-05-01,1,,,,,エヌワークス,0
845,3700150124921,新規,0,2024-05-01,2024-04-17,上中島地域振興会,,その他,富山県,魚津市,吉野１２８０－９,,16,204,9370842,,,,,,,2024-04-17,1,,,,,カミナカジマチイキシンコウカイ,0
862,4010005038254,新規,0,2024-05-01,2024-05-01,一般社団法人月面開発戦略研究機構,,その他の設立登記法人,東京都,千代田区,丸の内１丁目７番１２号サピアタワー８階,,13,101,1000005,,,,,,,2024-05-01,1,,,,,ゲツメンカイハツセンリャクケンキュウキコウ,0
869,4010403032429,新規,0,2024-05-01,2024-05-01,合同会社もっと青春,,合同会社,東京都,港区,芝浦２丁目１６－１０ラナビル４階,,13,103,1080023,,,,,,,2024-05-01,1,,,,,,0
872,4010601008081,新規,0,2024-05-01,2024-05-01,関ライト工業株式会社,,株式会社,東京都,江東区,海辺１６番７号,,13,108,1350012,,,,,,,2024-05-01,1,,,,,セキライトコウギョウ,0
889,4011001161669,新規,0,2024-05-01,2024-05-01,株式会社ＴＨＡＮＫＳ　ＴＯ　ＹＯＵ,,株式会社,東京都,渋谷区,千駄ヶ谷１丁目１１番３号Ｓｃｒｉｂｅ千駄ヶ谷５０１,,13,113,1510051,,,,,,,2024-05-01,1,,,,,サンクストゥユー,0
890,4011003018842,新規,0,2024-05-01,2024-05-01,ＨｙｐｅｒＢｅｅ合同会社,,合同会社,東京都,目黒区,上目黒５丁目９‐４,,13,110,1530051,,,,,,,2024-05-01,1,,,,,ハイパービー,0
897,4011201025426,新規,0,2024-05-01,2024-05-01,ＲＩＴＳＵ株式会社,,株式会社,東京都,中野区,若宮３丁目１２番２号,,13,114,1650033,,,,,,,2024-05-01,1,,,,,リツ,0
909,4011701027236,新規,0,2024-05-01,2024-05-01,Ｄｏｏｒ　Ｔｏ株式会社,,株式会社,東京都,江戸川区,船堀５丁目３番９号ＣＡＳＡプレステージ１０６,,13,123,1340091,,,,,,,2024-05-01,1,,,,,ドアトゥ,0
910,4011801044148,新規,0,2024-05-01,2024-05-01,加貝奈斯株式会社,,株式会社,東京都,葛飾区,西新小岩５丁目２８－２０七番館１０８号,,13,122,1240025,,,,,,,2024-05-01,1,,,,,カバイナス,0
913,4012401041808,新規,0,2024-05-01,2024-05-01,万里鵬翼株式会社,,株式会社,東京都,三鷹市,井の頭３丁目５‐１１,,13,204,1810001,,,,,,,2024-05-01,1,,,,,バンリホウヨク,0
926,4020001156967,新規,0,2024-05-01,2024-05-01,株式会社カインド住設,,株式会社,神奈川県,横浜市瀬谷区,本郷１丁目１６番地２本郷ハイツＩ２０２,00134585,14,114,2460015,,,,,,,2024-05-01,1,,,,,カインドジュウセツ,0
927,4020001156991,新規,0,2024-05-01,2024-05-01,株式会社さゝ家,,株式会社,神奈川県,横浜市旭区,小高町１７０番地の１８,,14,112,2410015,,,,,,,2024-05-01,1,,,,,ササヤ,0
932,4020003026037,新規,0,2024-05-01,2024-05-01,合同会社ＬＥＶＡＮＴＥ,,合同会社,神奈川県,川崎市川崎区,東田町３番地１３工永ビルＢ１,,14,131,2100005,,,,,,,2024-05-01,1,,,,,レバンテ,0
933,4020003026053,新規,0,2024-05-01,2024-05-01,ＳＹＮＣＴＥＭ合同会社,,合同会社,神奈川県,横浜市西区,浅間町１丁目４番３号ウィザードビル４０２,,14,103,2200072,,,,,,,2024-05-01,1,,,,,シンクテム,0
939,4021001082105,新規,0,2024-05-01,2024-05-01,エヌ・ジョイント株式会社,,株式会社,神奈川県,足柄上郡開成町,吉田島２８４８番地１０,,14,366,2580021,,,,,,,2024-05-01,1,,,,,エヌジョイント,0
947,4030001160051,新規,0,2024-05-01,2024-05-01,株式会社武蔵野ネット不動産,,株式会社,埼玉県,新座市,大和田１丁目１８番３号トーシンハイツ新座１０２号室,,11,230,3520004,,,,,,,2024-05-01,1,,,,,ムサシノネットフドウサン,0
950,4030003024188,新規,0,2024-05-01,2024-05-01,合同会社キャリブレ,,合同会社,埼玉県,坂戸市,関間４丁目１２番１２‐１３０１号ファーストレジデンス若葉,,11,239,3500215,,,,,,,2024-05-01,1,,,,,キャリブレ,0
953,4040001133386,新規,0,2024-05-01,2024-05-01,株式会社ＬＩＮＫＳ,,株式会社,千葉県,千葉市中央区,中央３丁目１８－７加瀬ビル１５８－５０３,,12,101,2600013,,,,,,,2024-05-01,1,,,,,リンクス,0
955,4040003024889,新規,0,2024-05-01,2024-05-01,新天地合同会社,,合同会社,千葉県,匝瑳市,野手３７０番地,,12,235,2893181,,,,,,,2024-05-01,1,,,,,シンテンチ,0
963,4060001037049,新規,0,2024-05-01,2024-05-01,株式会社デジタルリンケージ,,株式会社,栃木県,日光市,所野１５４１番１８８４,,09,206,3211421,,,,,,,2024-05-01,1,,,,,デジタルリンケージ,0
968,4070001041669,新規,0,2024-05-01,2024-05-01,株式会社ＴＲＰ,,株式会社,群馬県,前橋市,樋越町７３４番地１,,10,201,3710221,,,,,,,2024-05-01,1,,,,,ティーアールピー,0
969,4070001041693,新規,0,2024-05-01,2024-05-01,株式会社Ａｎｃｈｏｒ,,株式会社,群馬県,館林市,羽附町１６８９番４号慶友レジデンス３０１号室,,10,207,3740011,,,,,,,2024-05-01,1,,,,,アンカー,0
971,4080001026272,新規,0,2024-05-01,2024-05-01,株式会社ＮＡＲＵサポート,,株式会社,静岡県,島田市,道悦５丁目１８番２４号,,22,209,4270019,,,,,,,2024-05-01,1,,,,,ナルサポート,0
982,4100003007508,新規,0,2024-05-01,2024-05-01,ソナタパートナーズ合同会社,,合同会社,長野県,北安曇郡白馬村,大字北城８２９番地１３１,,20,485,3999301,,,,,,,2024-05-01,1,,,,,ソナタパートナーズ,0
985,4110001038363,新規,0,2024-05-01,2024-05-01,株式会社ｈａｋｕ寿,,株式会社,新潟県,新潟市中央区,古町通８番町１４３３番地１,,15,103,9518063,,,,,,,2024-05-01,1,,,,,ハクジュ,0
997,4120001264479,新規,0,2024-05-01,2024-05-01,海悦株式会社,,株式会社,大阪府,大阪市生野区,巽北１丁目７番３号３０５号室,00134589,27,116,5440004,,,,,,,2024-05-01,1,,,,,カイエツ,0
998,4120001264487,新規,0,2024-05-01,2024-05-01,株式会社ＨＡＫＫＥ,,株式会社,大阪府,大阪市北区,梅田１丁目３番１－８００号大阪駅前第１ビル８階５号,,27,127,5300001,,,,,,,2024-05-01,1,,,,,ハッケ,0
999,4120001264495,新規,0,2024-05-01,2024-05-01,株式会社Ｂ‐ｂｒｏ,,株式会社,大阪府,大阪市平野区,喜連東２丁目１番２５号,,27,126,5470021,,,,,,,2024-05-01,1,,,,,ビーブロー,0
1000,4120001264545,新規,0,2024-05-01,2024-05-01,株式会社ベストイノベーションＪＰ,,株式会社,大阪府,大阪市港区,三先１丁目８番７号,,27,107,5520016,,,,,,,2024-05-01,1,,,,,ベストイノベーションジェイピー,0
1001,4120003026415,新規,0,2024-05-01,2024-05-01,Ｇｌｏｂａｌ．Ｈｕｍａｎ．Ｓｏｕｒｃｉｎｇ合同会社,,合同会社,大阪府,大阪市北区,梅田１丁目２番２号大阪駅前第２ビル１２－１２,,27,127,5300001,,,,,,,2024-05-01,1,,,,,グローバルヒューマンソーシング,0
1002,4120003026480,新規,0,2024-05-01,2024-05-01,合同会社ＭＡＴＳＵ,,合同会社,大阪府,大阪市生野区,巽中２丁目１３番１５号タツミビル３階,00134594,27,116,5440013,,,,,,,2024-05-01,1,,,,,マツ,0
1003,4120003026489,新規,0,2024-05-01,2024-05-01,合同会社プラウ,,合同会社,大阪府,大阪市北区,錦町２番３６号コンフォールエスティオ９０７号室,,27,127,5300034,,,,,,,2024-05-01,1,,,,,プラウ,0
1005,4120101069497,新規,0,2024-05-01,2024-05-01,株式会社瀧口工業,,株式会社,大阪府,富田林市,須賀２丁目１１番１４号,,27,214,5840062,,,,,,,2024-05-01,1,,,,,タキグチコウギョウ,0
1010,4120905006605,新規,0,2024-05-01,2024-05-01,一般社団法人こころと遊ぼう,,その他の設立登記法人,大阪府,三島郡島本町,高浜３丁目３番１－２１６号,,27,301,6180012,,,,,,,2024-05-01,1,,,,,ココロトアソボウ,0
1014,4122003002874,新規,0,2024-05-01,2024-05-01,合同会社ＨＹＰＨＥＮ,,合同会社,大阪府,大東市,深野４丁目１６－８０,,27,218,5740072,,,,,,,2024-05-01,1,,,,,ハイフン,0
1032,4140001134267,新規,0,2024-05-01,2024-05-01,株式会社ＢｅｎｅｆｉｔＴｒｅｅ,,株式会社,兵庫県,神戸市垂水区,北舞子４丁目９番４８－７０３号,,28,108,6550045,,,,,,,2024-05-01,1,,,,,ベネフィットツリー,0
1034,4150001027255,新規,0,2024-05-01,2024-05-01,桜奈株式会社,,株式会社,奈良県,奈良市,佐紀町２２２８番地の７、１０１号室,,29,201,6308003,,,,,,,2024-05-01,1,,,,,サクラナ,0
1044,4180001161159,新規,0,2024-05-01,2024-05-01,株式会社ＴＭ,,株式会社,愛知県,名古屋市北区,大曽根１丁目２７番５号ＯＨマンション１階,,23,103,4620825,,,,,,,2024-05-01,1,,,,,ティーエム,0
1045,4180001161191,新規,0,2024-05-01,2024-05-01,株式会社ＩＫＤ,,株式会社,愛知県,春日井市,岩野町２丁目６番地２,,23,206,4860805,,,,,,,2024-05-01,1,,,,,アイケイディ,0
1051,4180003026715,新規,0,2024-05-01,2024-05-01,合同会社ＭＨＫ,,合同会社,愛知県,一宮市,浅井町尾関字清山２６番地,,23,203,4910101,,,,,,,2024-05-01,1,,,,,エムエイチケー,0
1052,4180005020617,新規,0,2024-05-01,2024-05-01,社会保険労務士法人パートナー,,その他の設立登記法人,愛知県,名古屋市中村区,椿町１５番１０号名駅三交ビル６階,,23,105,4530015,,,,,,,2024-05-01,1,,,,,パートナー,0
1057,4200003006326,新規,0,2024-05-01,2024-05-01,ＢＥＳＴＡＤ合同会社,,合同会社,岐阜県,関市,下有知３５３８番地２,,21,205,5013217,,,,,,,2024-05-01,1,,,,,ベストアド,0
1085,4290801030527,新規,0,2024-05-01,2024-05-01,網谷コンサルティング株式会社,,株式会社,福岡県,北九州市小倉北区,堺町１丁目９番１０号,,40,106,8020005,,,,,,,2024-05-01,1,,,,,アミタニコンサルティング,0
1089,4300003002117,新規,0,2024-05-01,2024-05-01,合同会社山口企画,,合同会社,佐賀県,多久市,東多久町別府４７７４,,41,204,8460011,,,,,,,2024-05-01,1,,,,,ヤマグチキカク,0
1092,4320001020440,新規,0,2024-05-01,2024-05-01,株式会社林産テクノス,,株式会社,大分県,別府市,大字南立石１０３１番地１,,44,202,8740000,,,,,,,2024-05-01,1,,,,,リンサンテクノス,0
1094,4320003004342,新規,0,2024-05-01,2024-05-01,合同会社Ｍ＆Ｙ,,合同会社,大分県,中津市,大字島田２０番地,,44,203,8710033,,,,,,,2024-05-01,1,,,,,エムアンドワイ,0
1095,4320003004350,新規,0,2024-05-01,2024-05-01,合同会社ＬＭＣ,,合同会社,大分県,大分市,大字野津原１１８番地の３,,44,201,8701203,,,,,,,2024-05-01,1,,,,,エルエムシー,0
1107,4400001016637,新規,0,2024-05-01,2024-05-01,株式会社ＨｉｒｏＮｅｉｇｅ,,株式会社,岩手県,岩手郡雫石町,高前田１２５－１,,03,301,0200543,,,,,,,2024-05-01,1,,,,,ヒロネージュ,0
1108,4400005008408,新規,0,2024-05-01,2024-05-01,農事組合法人きのみ北方,,その他の設立登記法人,岩手県,一関市,藤沢町黄海字町裏２８－３,,03,209,0293311,,,,,,,2024-05-01,1,,,,,キノミキタカタ,0
1115,4430003016277,新規,0,2024-05-01,2024-05-01,合同会社コウノトリ企画,,合同会社,北海道,札幌市北区,北七条西４丁目１番地１トーカン札幌第一キャステール６０７,,01,102,0600807,,,,,,,2024-05-01,1,,,,,コウノトリキカク,0
1138,5010001244433,新規,0,2024-05-01,2024-05-01,株式会社ＡＩスロパチガールズ,,株式会社,東京都,中央区,銀座１丁目１２番４号Ｎ＆ＥＢＬＤ．７階,,13,102,1040061,,,,,,,2024-05-01,1,,,,,エーアイスロパチガールズ,0
1139,5010001244499,新規,0,2024-05-01,2024-05-01,株式会社ｄｏｔＨＡＸ,,株式会社,東京都,千代田区,神田神保町２丁目３－１,,13,101,1010051,,,,,,,2024-05-01,1,,,,,ドットハックス,0
1140,5010001244516,新規,0,2024-05-01,2024-05-01,Ｌｕｍｉｎａｒｉ株式会社,,株式会社,東京都,中央区,日本橋室町１丁目１１番１２号日本橋水野ビル７階,,13,102,1030022,,,,,,,2024-05-01,1,,,,,ルミナリ,0
1143,5010003043536,新規,0,2024-05-01,2024-05-01,Ｆｒｏｍｙ合同会社,,合同会社,東京都,中央区,銀座１丁目１２番４号Ｎ＆ＥＢＬＤ．６Ｆ,,13,102,1040061,,,,,,,2024-05-01,1,,,,,フロミー,0
1150,5010401182051,新規,0,2024-05-01,2024-05-01,株式会社グロージェント,,株式会社,東京都,港区,六本木１丁目５番３－８０６号,,13,103,1060032,,,,,,,2024-05-01,1,,,,,グロージェント,0
1151,5010401182092,新規,0,2024-05-01,2024-05-01,９７４キャピタル株式会社,,株式会社,東京都,港区,東新橋２丁目１０番１０号,,13,103,1050021,,,,,,,2024-05-01,1,,,,,キューナナヨンキャピタル,0
1152,5010401182101,新規,0,2024-05-01,2024-05-01,ＡＩＸ　ｐａｒｔｎｅｒ株式会社,,株式会社,東京都,港区,北青山１丁目３番１号アールキューブ青山３階,,13,103,1070061,,,,,,,2024-05-01,1,,,,,エーアイエックスパートナー,0
1153,5010401182126,新規,0,2024-05-01,2024-05-01,株式会社ＶＩＶＡＮＴ,,株式会社,東京都,港区,赤坂５丁目２番２０号,,13,103,1070052,,,,,,,2024-05-01,1,,,,,ビバント,0
1168,5010901055178,新規,0,2024-05-01,2024-05-01,株式会社ＤＥＬＴＡＺ,,株式会社,東京都,世田谷区,上用賀５丁目１０－２１,,13,112,1580098,,,,,,,2024-05-01,1,,,,,デルタズ,0
1170,5011001161412,新規,0,2024-05-01,2024-05-01,富士山花火実行委員会株式会社,,株式会社,東京都,渋谷区,神宮前５丁目３８－１１－５０１,,13,113,1500001,,,,,,,2024-05-01,1,,,,,フジサンハナビジッコウイインカイ,0
1184,5011203004377,新規,0,2024-05-01,2024-05-01,合同会社誠,,合同会社,東京都,中野区,中野５丁目５６－１６タニヒロビル１Ｆ,,13,114,1640001,,,,,,,2024-05-01,1,,,,,マコト,0
1185,5011301011498,新規,0,2024-05-01,2024-05-01,双葉建設株式会社,,株式会社,東京都,杉並区,浜田山３丁目２３番６号,,13,115,1680065,,,,,,,2024-05-01,1,,,,,,0
1191,5011801044122,新規,0,2024-05-01,2024-05-01,株式会社ＳＯＬＰＩＮＯ,,株式会社,東京都,足立区,千住旭町４１―１４第一ビル６Ｆ,,13,121,1200026,,,,,,,2024-05-01,1,,,,,ソルピノ,0
1192,5011801044147,新規,0,2024-05-01,2024-05-01,デイズ建設工業株式会社,,株式会社,東京都,足立区,佐野２丁目２０番１１号,,13,121,1210053,,,,,,,2024-05-01,1,,,,,デイズケンセツコウギョウ,0
1197,5012801023132,新規,0,2024-05-01,2024-05-01,株式会社Ｔａｋｅ　Ｒｉｓｅ,,株式会社,東京都,立川市,高松町３丁目２５番１号,,13,202,1900011,,,,,,,2024-05-01,1,,,,,テイクライズ,0
1198,5012801023140,新規,0,2024-05-01,2024-05-01,株式会社おかだ屋,,株式会社,東京都,昭島市,東町４丁目８番４－９号,,13,207,1960033,,,,,,,2024-05-01,1,,,,,オカダヤ,0
1209,5020001156982,新規,0,2024-05-01,2024-05-01,ケイ・エム・リアルティ株式会社,,株式会社,神奈川県,横浜市鶴見区,下末吉１丁目１４番１３号,,14,101,2300012,,,,,,,2024-05-01,1,,,,,ケイエムリアルティ,0
1210,5020005016398,新規,0,2024-05-01,2024-05-01,一般社団法人ＢＬＳ横浜,,その他の設立登記法人,神奈川県,横浜市中区,新港２丁目２番１号横浜ワールドポーターズ６階,,14,104,2310001,,,,,,,2024-05-01,1,,,,,ビーエルエスヨコハマ,0
1212,5021001082104,新規,0,2024-05-01,2024-05-01,株式会社フィーリング,,株式会社,神奈川県,相模原市中央区,上矢部５丁目１２番６号,,14,152,2520201,,,,,,,2024-05-01,1,,,,,フィーリング,0
1213,5021001082112,新規,0,2024-05-01,2024-05-01,株式会社湘南桜花,,株式会社,神奈川県,厚木市,温水西２丁目１番３８号,,14,212,2430039,,,,,,,2024-05-01,1,,,,,ショウナンオウカ,0
1221,5030001159943,新規,0,2024-05-01,2024-05-01,株式会社Ｒｅぷらす,,株式会社,埼玉県,さいたま市大宮区,桜木町２丁目３番地大宮マルイ７階,,11,103,3300854,,,,,,,2024-05-01,1,,,,,リプラス,0
1222,5030001160042,新規,0,2024-05-01,2024-05-01,アチーブ設備株式会社,,株式会社,埼玉県,さいたま市北区,宮原町１丁目３０番地３０５号,,11,102,3310812,,,,,,,2024-05-01,1,,,,,アチーブセツビ,0
1223,5030001160059,新規,0,2024-05-01,2024-05-01,株式会社Ｌａｖｉｅｓ,,株式会社,埼玉県,越谷市,大字上間久里３１２番地１,,11,222,3430043,,,,,,,2024-05-01,1,,,,,ラビーズ,0
1224,5030001160125,新規,0,2024-05-01,2024-05-01,ＴＡＯＮ’ｓ株式会社,,株式会社,埼玉県,加須市,琴寄２３４番地３,,11,210,3491133,,,,,,,2024-05-01,1,,,,,タオンズ,0
1233,5040001133344,新規,0,2024-05-01,2024-05-01,株式会社クリエイティブハード,,株式会社,千葉県,袖ケ浦市,大竹５１７番地,,12,229,2990221,,,,,,,2024-05-01,1,,,,,クリエイティブハード,0
1234,5040001133369,新規,0,2024-05-01,2024-05-01,株式会社フィナンシャルアドバイス＆コンサルティング,,株式会社,千葉県,茂原市,緑町２２番地８,,12,210,2970025,,,,,,,2024-05-01,1,,,,,フィナンシャルアドバイスアンドコンサルティング,0
1235,5040001133377,新規,0,2024-05-01,2024-05-01,株式会社ＺＥＮＹＵ,,株式会社,千葉県,松戸市,栄町西２丁目８９４番地の４１,,12,207,2710061,,,,,,,2024-05-01,1,,,,,ゼンユ,0
1236,5040001133385,新規,0,2024-05-01,2024-05-01,パープルトレード株式会社,,株式会社,千葉県,印西市,高花５丁目１０－９－１０２,,12,231,2701342,,,,,,,2024-05-01,1,,,,,パープルトレード,0
1239,5040003024830,新規,0,2024-05-01,2024-05-01,合同会社ＺＥＲＯ’Ｓ　Ｃｏｍｐａｎｙ,,合同会社,千葉県,夷隅郡御宿町,新町６８１番地１,,12,443,2995103,,,,,,,2024-05-01,1,,,,,ゼロスカンパニー,0
1240,5040003024888,新規,0,2024-05-01,2024-05-01,芝生生産圃場整備事業合同会社,,合同会社,千葉県,柏市,中十余二３９７番地３Ｋ・Ｓガーデン柏の葉キャンパス４０４,,12,217,2770873,,,,,,,2024-05-01,1,,,,,,0
1242,5050003008337,新規,0,2024-05-01,2024-05-01,合同会社ＡＫＩ　ＤＥＳＩＧＮ　ＯＦＦＩＣＥ,,合同会社,茨城県,常総市,五郎兵衛新田町５７４,,08,211,3002524,,,,,,,2024-05-01,1,,,,,アキデザインオフィス,0
1246,5070003005340,新規,0,2024-05-01,2024-05-01,大野トレーディング合同会社,,合同会社,群馬県,太田市,西本町４４－２３ウイング６、１０１,,10,205,3730033,,,,,,,2024-05-01,1,,,,,オオノトレーディング,0
1247,5070003005398,新規,0,2024-05-01,2024-05-01,ＴＨＥ　ＥＭＰＲＥＳＳ合同会社,,合同会社,群馬県,館林市,本町１番５号ミッドタウン館林１０２号室,,10,207,3740000,,,,,,,2024-05-01,1,,,,,ジエンプレス,0
1250,5080101024712,新規,0,2024-05-01,2024-05-01,株式会社トラストガード,,株式会社,静岡県,伊豆の国市,富士見７６７番地の２,,22,225,4102205,,,,,,,2024-05-01,1,,,,,,0
1260,5100003007507,新規,0,2024-05-01,2024-05-01,合同会社ジークラフト,,合同会社,長野県,長野市,青木島町綱島２２９番地１,,20,201,3812206,,,,,,,2024-05-01,1,,,,,ジークラフト,0
1263,5110003005377,新規,0,2024-05-01,2024-05-01,合同会社Ｓａｔｏｕ,,合同会社,新潟県,新潟市中央区,南笹口１丁目８番２２号Ｆｌａｔ新潟駅南Ｎｏｒｔｈ５０５号,,15,103,9500912,,,,,,,2024-05-01,1,,,,,サトウ,0
1279,5120001264478,新規,0,2024-05-01,2024-05-01,株式会社ＮＩＧＨＴ　ＨＡＷＫ,,株式会社,大阪府,大阪市浪速区,難波中２丁目１０－７０なんばパークスタワー１９Ｆ,,27,111,5560011,,,,,,,2024-05-01,1,,,,,ナイトホーク,0
1280,5120001264494,新規,0,2024-05-01,2024-05-01,株式会社ＭＹＳ,,株式会社,大阪府,大阪市西区,土佐堀３丁目３番２－１２０９号,,27,106,5500001,,,,,,,2024-05-01,1,,,,,エムワイエス,0
1281,5120001264511,新規,0,2024-05-01,2024-05-01,株式会社ＧＢＣＡ　ＪＡＰＡＮ,,株式会社,大阪府,大阪市阿倍野区,阪南町５丁目２５番１８号オーナーズマンション阪南ＩＩ３０１号,00134587,27,119,5450021,,,,,,,2024-05-01,1,,,,,ジービーシーエージャパン,0
1282,5120001264528,新規,0,2024-05-01,2024-05-01,株式会社ニシナリ・ラインズ・フォワーダー,,株式会社,大阪府,大阪市西成区,津守３丁目４番５号,,27,122,5570062,,,,,,,2024-05-01,1,,,,,ニシナリラインズフォワーダー,0
1284,5120003026471,新規,0,2024-05-01,2024-05-01,合同会社Ｒｅｓａｇｅ,,合同会社,大阪府,大阪市北区,中津３丁目３３番１６－６０１号,,27,127,5310071,,,,,,,2024-05-01,1,,,,,リサージュ,0
1285,5120003026488,新規,0,2024-05-01,2024-05-01,合同会社Ａｌｌ　ｉｎ,,合同会社,大阪府,大阪市東成区,大今里西３丁目１２番１５号,,27,115,5370014,,,,,,,2024-05-01,1,,,,,オールイン,0
1289,5120103005805,新規,0,2024-05-01,2024-05-01,合同会社ＨＩＲＯＴＡＫＡ,,合同会社,大阪府,和泉市,上町４３６番地の３５,,27,219,5940002,,,,,,,2024-05-01,1,,,,,ヒロタカ,0
1293,5122003002873,新規,0,2024-05-01,2024-05-01,ＥｐｉｃＱｕｅｓｔ合同会社,,合同会社,大阪府,東大阪市,岸田堂西２丁目７－３１,,27,227,5770848,,,,,,,2024-05-01,1,,,,,エピッククエスト,0
1297,5130003009509,新規,0,2024-05-01,2024-05-01,合同会社日々気,,合同会社,京都府,相楽郡精華町,大字下狛小字浄楽３－４,,26,366,6190245,,,,,,,2024-05-01,1,,,,,ヒビキ,0
1303,5140001134266,新規,0,2024-05-01,2024-05-01,株式会社Ｒｅｍｉｎｉｓｃｅｎｃｅ,,株式会社,兵庫県,神戸市中央区,磯上通８丁目１番２９号カサベラビルＣ＆Ｍ４０３号室,,28,110,6510086,,,,,,,2024-05-01,1,,,,,レミニセンス,0
1329,5180001161190,新規,0,2024-05-01,2024-05-01,株式会社ＴＦＣアシスト,,株式会社,愛知県,名古屋市熱田区,川並町２番２２号,,23,109,4560072,,,,,,,2024-05-01,1,,,,,ティーエフシーアシスト,0
1330,5180001161208,新規,0,2024-05-01,2024-05-01,ＮＤ　ＶＩＥＴ株式会社,,株式会社,愛知県,名古屋市緑区,境松２丁目３４１番ヤマサマンション４０３号,,23,114,4580820,,,,,,,2024-05-01,1,,,,,エヌディーヴェット,0
1331,5180001161232,新規,0,2024-05-01,2024-05-01,株式会社全体最適,,株式会社,愛知県,名古屋市中村区,名駅３丁目４－１０アルティメイト名駅１ｓｔ２階,,23,105,4500002,,,,,,,2024-05-01,1,,,,,ゼンタイサイテキ,0
1338,5200001042454,新規,0,2024-05-01,2024-05-01,株式会社１３工務店,,株式会社,岐阜県,関市,小瀬南２丁目１８番１５号,,21,205,5013266,,,,,,,2024-05-01,1,,,,,イチサンコウムテン,0
1349,5250003003490,新規,0,2024-05-01,2024-05-01,合同会社メッセージ花くじら,,合同会社,山口県,下関市,汐入町３４番１０号,,35,201,7500059,,,,,,,2024-05-01,1,,,,,メッセージハナクジラ,0
1353,5260005011350,新規,0,2024-05-01,2024-05-01,一般社団法人岡山立志教育支援プロジェクト,,その他の設立登記法人,岡山県,岡山市北区,磨屋町１番１９号３Ｆ今津事務所内,,33,101,7000826,,,,,,,2024-05-01,1,,,,,オカヤマリッシキョウイクシエンプロジェクト,0
1365,5310001018988,新規,0,2024-05-01,2024-05-01,上月株式会社,,株式会社,長崎県,長崎市,西山台２丁目１１番５号東明西山台２０１号室,,42,201,8528122,,,,,,,2024-05-01,1,,,,,ジョウゲツ,0
1395,5400001016636,新規,0,2024-05-01,2024-05-01,株式会社喬屋,,株式会社,岩手県,大船渡市,日頃市町字下小通４５番地２,,03,203,0220005,,,,,,,2024-05-01,1,,,,,キョウヤ,0
1396,5400001016644,新規,0,2024-05-01,2024-05-01,株式会社スタンドアップ,,株式会社,岩手県,盛岡市,盛岡駅前通１５番６号マルビルＩＩＩ４階,00134588,03,201,0200034,,,,,,,2024-05-01,1,,,,,スタンドアップ,0
1399,5410001013822,新規,0,2024-05-01,2024-05-01,株式会社高橋農園,00134595,株式会社,秋田県,仙北郡美郷町,畑屋字狐塚１５０番地,,05,434,0191531,,,,,,,2024-05-01,1,,,,,タカハシノウエン,0
1407,5430003016251,新規,0,2024-05-01,2024-05-01,合同会社Ｂｒａｉｎ　Ｎｏｖａ,,合同会社,北海道,恵庭市,西島松４３８番地２,,01,231,0611356,,,,,,,2024-05-01,1,,,,,ブレインノバ,0
1408,5450001014305,新規,0,2024-05-01,2024-05-01,株式会社ｌｏｃａｌ　ｗｏｏｄ　ｆｕｒｎｉｔｕｒｅ,,株式会社,北海道,上川郡下川町,一の橋２４０番地,,01,468,0981331,,,,,,,2024-05-01,1,,,,,ローカルウッドファニチャー,0
1409,5450003002480,新規,0,2024-05-01,2024-05-01,合同会社天音,,合同会社,北海道,天塩郡遠別町,字北浜７６番地３,,01,486,0983541,,,,,,,2024-05-01,1,,,,,アノン,0
1410,5470001020169,新規,0,2024-05-01,2024-05-01,ＭＧＣ　ｐｒｏｊｅｃｔ株式会社,,株式会社,香川県,高松市,高松町２５１０番地６,,37,201,7610104,,,,,,,2024-05-01,1,,,,,エムジーシープロジェクト,0
1417,5500001025585,新規,0,2024-05-01,2024-05-01,ＨＯＫＵ株式会社,,株式会社,愛媛県,宇和島市,大宮町３丁目２番３号,,38,203,7980039,,,,,,,2024-05-01,1,,,,,ホク,0
1418,5700150124936,新規,0,2024-05-01,2024-04-17,秋田県立鹿角高等学校ＰＴＡ,,その他,秋田県,鹿角市,花輪字明堂長根１２,,05,209,0185201,,,,,,,2024-04-17,1,,,,,アキタケンリツカヅノコウトウガツコウピーテイーエー,0
1427,6010001244333,新規,0,2024-05-01,2024-05-01,株式会社ｎｏ　ｃｏｍｍｅｎｔ,,株式会社,東京都,中央区,勝どき６丁目３番２－１８２９号,,13,102,1040054,,,,,,,2024-05-01,1,,,,,ノーコメント,0
1428,6010001244457,新規,0,2024-05-01,2024-05-01,株式会社ＵｎｉＧｒｏｗｔｈ,,株式会社,東京都,千代田区,麹町６丁目４番地９－２０１号,,13,101,1020083,,,,,,,2024-05-01,1,,,,,ユニグロース,0
1429,6010001244481,新規,0,2024-05-01,2024-05-01,株式会社ＦｒｅｅＭ,,株式会社,東京都,中央区,勝どき６丁目３番２－７０９号,,13,102,1040054,,,,,,,2024-05-01,1,,,,,フリーム,0
1433,6010003043634,新規,0,2024-05-01,2024-05-01,ＨＣＬＶＦ１合同会社,,合同会社,東京都,千代田区,丸の内３丁目１番１号東京共同会計事務所内,,13,101,1000005,,,,,,,2024-05-01,1,,,,,エイチシーエルブイエフワン,0
1436,6010005038260,新規,0,2024-05-01,2024-05-01,ＨＣＬＶＦ１一般社団法人,,その他の設立登記法人,東京都,千代田区,丸の内３丁目１番１号東京共同会計事務所内,,13,101,1000005,,,,,,,2024-05-01,1,,,,,エイチシーエルブイエフワン,0
1446,6010401182125,新規,0,2024-05-01,2024-05-01,株式会社ＨＡＲＵ,,株式会社,東京都,港区,赤坂４丁目５番２０－２０２号,,13,103,1070052,,,,,,,2024-05-01,1,,,,,ハル,0
1454,6010603010802,新規,0,2024-05-01,2024-05-01,Ｓｎｏｗ　Ｓｏｕｔｈ合同会社,,合同会社,東京都,江東区,辰巳１丁目６番１０号ブリリア辰巳キャナルテラス８０７号室,,13,108,1350053,,,,,,,2024-05-01,1,,,,,スノウサウス,0
1467,6011101107157,新規,0,2024-05-01,2024-05-01,国際健康医療協会株式会社,,株式会社,東京都,新宿区,大久保３丁目８番１－２０１４号,,13,104,1690072,,,,,,,2024-05-01,1,,,,,コクサイケンコウイリョウキョウカイ,0
1476,6011803006210,新規,0,2024-05-01,2024-05-01,ＱＵＩＺ　ＬＡＢ合同会社,,合同会社,東京都,足立区,舎人３丁目４番１０号,,13,121,1210831,,,,,,,2024-05-01,1,,,,,クイズラブ,0
1477,6012301013888,新規,0,2024-05-01,2024-05-01,株式会社ｓｈｉｏｒｙ,,株式会社,東京都,町田市,小山ヶ丘６丁目１番地２１５,,13,209,1940215,,,,,,,2024-05-01,1,,,,,シオリー,0
1484,6013301052430,新規,0,2024-05-01,2024-05-01,翼美不動産株式会社,,株式会社,東京都,豊島区,高田３丁目３番１７号壽田ビル１０１号,,13,116,1710033,,,,,,,2024-05-01,1,,,,,ウミフドウサン,0
1506,6030001160025,新規,0,2024-05-01,2024-05-01,見山グループ株式会社,,株式会社,埼玉県,川口市,西川口１丁目３０番２０－２０９号室,,11,203,3320021,,,,,,,2024-05-01,1,,,,,,0
1507,6030001160108,新規,0,2024-05-01,2024-05-01,株式会社ケイアイエム設備,,株式会社,埼玉県,北本市,本宿６丁目１９０番地９,,11,233,3640005,,,,,,,2024-05-01,1,,,,,ケイアイエムセツビ,0
1508,6030001160116,新規,0,2024-05-01,2024-05-01,株式会社ＭＩＲＵＴＯＷＡ,,株式会社,埼玉県,越谷市,大成町１丁目２１３９番地,,11,222,3430825,,,,,,,2024-05-01,1,,,,,ミルトワ,0
1511,6030003024178,新規,0,2024-05-01,2024-05-01,合同会社ｔｗｉｇ,,合同会社,埼玉県,川口市,芝中田１丁目２０番１６－２０９号,,11,203,3330847,,,,,,,2024-05-01,1,,,,,ツイッグ,0
1516,6040001133376,新規,0,2024-05-01,2024-05-01,株式会社ＥＮＳＯＷＥＲＳ,,株式会社,千葉県,柏市,中央町５番１６号穂高第２ブラザーズ柏２０３号室,,12,217,2770021,,,,,,,2024-05-01,1,,,,,エンソワーズ,0
1517,6040001133384,新規,0,2024-05-01,2024-05-01,株式会社安藤装業,,株式会社,千葉県,木更津市,桜井新町３丁目２番地３８,,12,206,2920823,,,,,,,2024-05-01,1,,,,,アンドウソウギョウ,0
1525,6040003024879,新規,0,2024-05-01,2024-05-01,合同会社イージーレンタル,,合同会社,千葉県,八街市,沖１１３７番地１,,12,230,2891126,,,,,,,2024-05-01,1,,,,,イージーレンタル,0
1526,6040003024887,新規,0,2024-05-01,2024-05-01,ＩＣＨＩ　ＭＹＡＮＭＡＲ合同会社,,合同会社,千葉県,船橋市,市場４丁目２番１１号,,12,204,2730001,,,,,,,2024-05-01,1,,,,,イチミャンマー,0
1531,6050001054704,新規,0,2024-05-01,2024-05-01,株式会社ＭＳＫ,,株式会社,茨城県,那珂市,杉４１０番地の２松本総建ビル２Ｆ,,08,226,3110106,,,,,,,2024-05-01,1,,,,,エムエスケー,0
1543,6080003003185,新規,0,2024-05-01,2024-05-01,合同会社イノーマル,,合同会社,静岡県,静岡市駿河区,八幡４丁目３番１７－３０４号,,22,102,4228076,,,,,,,2024-05-01,1,,,,,イノーマル,0
1544,6080101024703,新規,0,2024-05-01,2024-05-01,ＳＢ株式会社,,株式会社,静岡県,沼津市,五月町４番２３号,,22,203,4100044,,,,,,,2024-05-01,1,,,,,エスビー,0
1545,6080101024711,新規,0,2024-05-01,2024-05-01,株式会社フリーダム,,株式会社,静岡県,沼津市,米山町１１番２３号,,22,203,4100046,,,,,,,2024-05-01,1,,,,,,0
1555,6110001038361,新規,0,2024-05-01,2024-05-01,株式会社ＬＣＳＲｓ,,株式会社,新潟県,新潟市西区,流通３丁目１番１０号,,15,107,9501125,,,,,,,2024-05-01,1,,,,,エルシーエスアールエス,0
1562,6120001264023,新規,0,2024-05-01,2024-05-01,嘉之吉株式会社,,株式会社,大阪府,大阪市西成区,天下茶屋３丁目１６番１８号,,27,122,5570014,,,,,,,2024-05-01,1,,,,,カノヨシ,0
1563,6120001264436,新規,0,2024-05-01,2024-05-01,株式会社オルト,,株式会社,大阪府,大阪市城東区,野江２丁目９番４号,,27,118,5360006,,,,,,,2024-05-01,1,,,,,オルト,0
1564,6120001264444,新規,0,2024-05-01,2024-05-01,株式会社ａｋｉ,,株式会社,大阪府,守口市,春日町１１－８,,27,209,5700055,,,,,,,2024-05-01,1,,,,,アキ,0
1565,6120001264485,新規,0,2024-05-01,2024-05-01,株式会社３Ｃ,,株式会社,大阪府,大阪市阿倍野区,松虫通３丁目３番１０号,,27,119,5450043,,,,,,,2024-05-01,1,,,,,スリーシー,0
1566,6120001264493,新規,0,2024-05-01,2024-05-01,伸碩株式会社,,株式会社,大阪府,大阪市中央区,淡路町３丁目４番１号２階２０４号室,,27,128,5410047,,,,,,,2024-05-01,1,,,,,シンセキ,0
1567,6120001264510,新規,0,2024-05-01,2024-05-01,Ｓｉｒｉｕｓ　Ｐａｒｔｎｅｒｓ株式会社,,株式会社,大阪府,大阪市東住吉区,鷹合２丁目１２番１９号,,27,121,5460014,,,,,,,2024-05-01,1,,,,,シリウスパートナーズ,0
1568,6120001264519,新規,0,2024-05-01,2024-05-01,株式会社安本運送,,株式会社,大阪府,寝屋川市,出雲町５番５号,,27,215,5720821,,,,,,,2024-05-01,1,,,,,ヤスモトウンソウ,0
1571,6120005024299,新規,0,2024-05-01,2024-05-01,特定非営利活動法人ｓｍｉｌｅちあふる,,その他の設立登記法人,大阪府,大阪市生野区,巽南５丁目２番４１号,00134586,27,116,5440015,,,,,,,2024-05-01,1,,,,,スマイルチアフル,0
1575,6120105009852,新規,0,2024-05-01,2024-05-01,ＮＰＯ法人風の歌,,その他の設立登記法人,大阪府,泉南市,樽井５丁目２７番２０号,,27,228,5900521,,,,,,,2024-05-01,1,,,,,カゼノウタ,0
1578,6120901049110,新規,0,2024-05-01,2024-05-01,株式会社フットケアメディカル,,株式会社,大阪府,高槻市,北園町１８番１号コーケンビル３０３号室,,27,207,5690802,,,,,,,2024-05-01,1,,,,,フットケアメディカル,0
1581,6120905006603,新規,0,2024-05-01,2024-05-01,特定非営利活動法人職人グローバルキャリア協会,,その他の設立登記法人,大阪府,摂津市,鳥飼中１丁目２番５号５０１号,,27,224,5660064,,,,,,,2024-05-01,1,,,,,ショクニングローバルキャリアキョウカイ,0
1583,6122005003745,新規,0,2024-05-01,2024-05-01,特定非営利活動法人サムシングハッピー,,その他の設立登記法人,大阪府,八尾市,八尾木北６丁目２７番地の１,,27,212,5810016,,,,,,,2024-05-01,1,,,,,サムシングハッピー,0
1595,6140001134240,新規,0,2024-05-01,2024-05-01,包家株式会社,,株式会社,兵庫県,神戸市北区,星和台１丁目１２番地４１,,28,109,6511121,,,,,,,2024-05-01,1,,,,,ホウカ,0
1596,6140001134257,新規,0,2024-05-01,2024-05-01,株式会社ＳａｋａｍｏｔｏＩＰ　ＪＡＰＡＮ,,株式会社,兵庫県,芦屋市,三条町１２番１６号,,28,206,6590087,,,,,,,2024-05-01,1,,,,,サカモトアイピージャパン,0
1597,6140001134265,新規,0,2024-05-01,2024-05-01,株式会社Ｌｉｂｅｒｔａ　Ｌｉｆｅ,,株式会社,兵庫県,神戸市垂水区,仲田１丁目１番３７号,,28,108,6550034,,,,,,,2024-05-01,1,,,,,リベルタライフ,0
1603,6160001025883,新規,0,2024-05-01,2024-05-01,ＫＡＩＧＵＹＳ　ＪＡＰＡＮ株式会社,,株式会社,滋賀県,栗東市,小柿５丁目３番９号,,25,208,5203024,,,,,,,2024-05-01,1,,,,,,0
1613,6180001161157,新規,0,2024-05-01,2024-05-01,株式会社ピースオブ,,株式会社,愛知県,名古屋市中村区,名駅３丁目４番１０号アルティメイト名駅１ｓｔ２階,,23,105,4500002,,,,,,,2024-05-01,1,,,,,ピースオブ,0
1614,6180001161173,新規,0,2024-05-01,2024-05-01,株式会社オフィスワイズ,,株式会社,愛知県,名古屋市東区,東桜１丁目４－２７クレール高岳３０２,,23,102,4610005,,,,,,,2024-05-01,1,,,,,オフィスワイズ,0
1615,6180001161181,新規,0,2024-05-01,2024-05-01,株式会社シノハラＴ‐ワークス,,株式会社,愛知県,名古屋市中区,栄５丁目２６番３６号,,23,106,4600008,,,,,,,2024-05-01,1,,,,,シノハラティーワークス,0
1616,6180001161231,新規,0,2024-05-01,2024-05-01,株式会社ｅｎ,,株式会社,愛知県,名古屋市昭和区,川名本町６丁目２５番地の３ライオンズガーデン川名本町２０３号,,23,107,4660855,,,,,,,2024-05-01,1,,,,,エン,0
1622,6180003026564,新規,0,2024-05-01,2024-05-01,ビジネス＆リーガル合同会社,,合同会社,愛知県,名古屋市東区,東大曽根町６番９号ＶＣレジデンス徳川園３０４,,23,102,4610022,,,,,,,2024-05-01,1,,,,,ビジネスアンドリーガル,0
1623,6180003026705,新規,0,2024-05-01,2024-05-01,うふ合同会社,,合同会社,愛知県,名古屋市中区,富士見町３－２６エスポア富士見台９０１,,23,106,4600014,,,,,,,2024-05-01,1,,,,,ウフ,0
1624,6180005020615,新規,0,2024-05-01,2024-05-01,特定非営利活動法人日本総合ケアサポート協会,,その他の設立登記法人,愛知県,名古屋市北区,六が池町４４０番地,,23,103,4620002,,,,,,,2024-05-01,1,,,,,ニホンソウゴウケアサポートキョウカイ,0
1635,6240001063140,新規,0,2024-05-01,2024-05-01,株式会社ミヤチホールディングス,,株式会社,広島県,尾道市,天満町１７番５６号コニシビル２階,,34,205,7220038,,,,,,,2024-05-01,1,,,,,ミヤチホールディングス,0
1636,6240001063149,新規,0,2024-05-01,2024-05-01,株式会社ダイケン,,株式会社,広島県,広島市佐伯区,五日市中央３丁目１０番２７－１０１号,,34,108,7315128,,,,,,,2024-05-01,1,,,,,ダイケン,0
1641,6260003004669,新規,0,2024-05-01,2024-05-01,合同会社鞆屋,,合同会社,岡山県,岡山市北区,津倉町１丁目７－７,,33,101,7000014,,,,,,,2024-05-01,1,,,,,トモヤ,0
1645,6290001105474,新規,0,2024-05-01,2024-05-01,ｓｉＮｕｓ株式会社,,株式会社,福岡県,久留米市,諏訪野町２３４６－５グランフォーレ諏訪野プレミアム１００１,,40,203,8300037,,,,,,,2024-05-01,1,,,,,サイナス,0
1648,6290003015234,新規,0,2024-05-01,2024-05-01,合同会社たくおＰＤ,,合同会社,福岡県,福岡市博多区,神屋町１０番１６－６０６号,,40,132,8120022,,,,,,,2024-05-01,1,,,,,タクオピーディー,0
1652,6310001018987,新規,0,2024-05-01,2024-05-01,山口物産ホールディングス株式会社,,株式会社,長崎県,諫早市,森山町唐比東５４６番地,,42,204,8540207,,,,,,,2024-05-01,1,,,,,ヤマグチブッサンホールディングス,0
1657,6330003010346,新規,0,2024-05-01,2024-05-01,合同会社Ｒｅｌａｔｉｏｎｓ,,合同会社,熊本県,熊本市南区,南高江１丁目１２番６９号,,43,104,8614106,,,,,,,2024-05-01,1,,,,,リレーションズ,0
1658,6340001026467,新規,0,2024-05-01,2024-05-01,シンヤマ設備株式会社,,株式会社,鹿児島県,出水市,六月田町７９７番地,,46,208,8990126,,,,,,,2024-05-01,1,,,,,シンヤマセツビ,0
1661,6360003013908,新規,0,2024-05-01,2024-05-01,ＳＴＥＥＬ　ＨＯＲＳＥ　Ｈｏｌｄｉｎｇｓ合同会社,,合同会社,沖縄県,沖縄市,美里５丁目１０番２号,,47,211,9042153,,,,,,,2024-05-01,1,,,,,スティールホースホールディングス,0
1662,6360003013932,新規,0,2024-05-01,2024-05-01,合同会社アグリイノベーション,,合同会社,沖縄県,国頭郡今帰仁村,字古宇利２３１６－１,,47,306,9050406,,,,,,,2024-05-01,1,,,,,アグリイノベーション,0
1663,6370001051248,新規,0,2024-05-01,2024-05-01,株式会社東海産業,,株式会社,宮城県,名取市,小塚原字鍋島１０４,,04,207,9811212,,,,,,,2024-05-01,1,,,,,トウカイサンギョウ,0
1674,6410001013821,新規,0,2024-05-01,2024-05-01,株式会社ＨｔＭＥ,,株式会社,秋田県,雄勝郡羽後町,杉宮字東腰廻５７番地,,05,463,0121126,,,,,,,2024-05-01,1,,,,,エイチティーミー,0
1678,6420003002912,新規,0,2024-05-01,2024-05-01,ディードライブ合同会社,,合同会社,青森県,弘前市,大字豊田１丁目５―５,,02,202,0368101,,,,,,,2024-05-01,1,,,,,ディードライブ,0
1683,6430003016267,新規,0,2024-05-01,2024-05-01,合同会社ＲＥＩ,,合同会社,北海道,札幌市白石区,北郷二条６丁目９番８号,,01,104,0030832,,,,,,,2024-05-01,1,,,,,レイ,0
1684,6430003016275,新規,0,2024-05-01,2024-05-01,合同会社ギャラクティック・スタイル,,合同会社,北海道,札幌市東区,北十五条東７丁目１番２０号ＫＡＮＴＩＮＥ　Ｎ１５‐Ｃ７室,,01,103,0650015,,,,,,,2024-05-01,1,,,,,ギャラクティックスタイル,0
1690,6450005004409,新規,0,2024-05-01,2024-05-01,特定非営利活動法人エフ・コレクティブ,,その他の設立登記法人,北海道,空知郡中富良野町,字中富良野東２線北十五号,,01,461,0710772,,,,,,,2024-05-01,1,,,,,エフコレクティブ,0
1692,6470001020168,新規,0,2024-05-01,2024-05-01,ＴＳコネクト株式会社,,株式会社,香川県,丸亀市,土器町東５丁目３８８番地,,37,202,7630082,,,,,,,2024-05-01,1,,,,,ティーエスコネクト,0
1694,6480001012453,新規,0,2024-05-01,2024-05-01,株式会社ＺＥＮ,,株式会社,徳島県,徳島市,かちどき橋１丁目２２番地１ＴＯＫＵＳＨＩＭＡ　ＭＩＤＴＯＷＥＲ８０１号室,,36,201,7700939,,,,,,,2024-05-01,1,,,,,ゼン,0
1696,6700150029358,新規,0,2024-05-01,2015-10-09,ゆめさきの森公園運営協議会,,その他,兵庫県,姫路市,夢前町寺２１６０－２,,28,201,6712116,,,,,,,2015-10-09,1,,,,,ユメサキノモリコウエンウンエイキヨウギカイ,0
1697,6700150095177,新規,0,2024-05-01,2019-07-01,岐阜長良川鵜飼保存会,,その他,岐阜県,岐阜市,司町４０番地１岐阜市役所文化財保護課内,,21,201,5008076,,,,,,,2019-07-01,1,,,,,ギフナガラガワウカイホゾンカイ,0
1698,6700150124852,新規,0,2024-05-01,2024-04-15,美川まちづくり協議会,,その他,石川県,白山市,美川浜町ヨ１０３,,17,210,9290233,,,,,,,2024-04-15,1,,,,,ミカワマチヅクリキヨウギカイ,0
1708,7010001244472,新規,0,2024-05-01,2024-05-01,ＡＭＪ株式会社,,株式会社,東京都,文京区,小石川３丁目２６番１８－１５０２号,,13,105,1120002,,,,,,,2024-05-01,1,,,,,エイエムジェイ,0
1709,7010001244480,新規,0,2024-05-01,2024-05-01,株式会社グッドラック,,株式会社,東京都,千代田区,平河町１丁目６番１５号ＵＳビル８Ｆ,,13,101,1020093,,,,,,,2024-05-01,1,,,,,グッドラック,0
1712,7010005038251,新規,0,2024-05-01,2024-05-01,Ｏｓａｋａ２一般社団法人,,その他の設立登記法人,東京都,千代田区,霞が関３丁目２番６号東京倶楽部ビルディング１１階,,13,101,1000013,,,,,,,2024-05-01,1,,,,,オオサカツー,0
1721,7010601065079,新規,0,2024-05-01,2024-05-01,株式会社ワンノック,,株式会社,東京都,墨田区,江東橋３丁目３番８号,,13,107,1300022,,,,,,,2024-05-01,1,,,,,ワンノック,0
1724,7010801035006,新規,0,2024-05-01,2024-05-01,株式会社ＭＲＫコンサルティング,,株式会社,東京都,大田区,大森西３丁目１４番１６号,,13,111,1430015,,,,,,,2024-05-01,1,,,,,エムアールケイコンサルティング,0
1728,7010901055143,新規,0,2024-05-01,2024-05-01,株式会社ＲｅＬＩＦＥ,,株式会社,東京都,世田谷区,若林１丁目２６番２号アネックス若林３０２,,13,112,1540023,,,,,,,2024-05-01,1,,,,,リライフ,0
1729,7010901055184,新規,0,2024-05-01,2024-05-01,株式会社オイルマウンテン,,株式会社,東京都,世田谷区,船橋１丁目１番２号,,13,112,1560055,,,,,,,2024-05-01,1,,,,,オイルマウンテン,0
1746,7011103014375,新規,0,2024-05-01,2024-05-01,合同会社デルム,,合同会社,東京都,新宿区,若葉２丁目１１番地リビオ四谷５１０,,13,104,1600011,,,,,,,2024-05-01,1,,,,,デルム,0
1753,7011801044153,新規,0,2024-05-01,2024-05-01,誠林国際株式会社,,株式会社,東京都,足立区,鹿浜５丁目２１番６号横地方,,13,121,1230864,,,,,,,2024-05-01,1,,,,,セイリンコクサイ,0
1755,7012401041813,新規,0,2024-05-01,2024-05-01,一美株式会社,,株式会社,東京都,府中市,小柳町２丁目１番地の１６シャトール小柳町１０３,,13,206,1830013,,,,,,,2024-05-01,1,,,,,カズミ,0
1757,7012701018230,新規,0,2024-05-01,2024-05-01,株式会社アルカ,,株式会社,東京都,東村山市,萩山町２丁目１７番地９,,13,213,1890012,,,,,,,2024-05-01,1,,,,,アルカ,0
1783,7030001160115,新規,0,2024-05-01,2024-05-01,株式会社ＦＬＯＴ,,株式会社,埼玉県,秩父市,熊木町５番６号大地センタービル１Ｆ,,11,207,3680032,,,,,,,2024-05-01,1,,,,,フロット,0
1791,7040001133350,新規,0,2024-05-01,2024-05-01,株式会社ヴェリテック,,株式会社,千葉県,木更津市,真舟３丁目３番１号,,12,206,2920802,,,,,,,2024-05-01,1,,,,,ベェリテック,0
1792,7040001133375,新規,0,2024-05-01,2024-05-01,株式会社陶板フィールド,,株式会社,千葉県,東金市,東金１１３６番地１－１０４,,12,213,2830802,,,,,,,2024-05-01,1,,,,,トウバンフィールド,0
1793,7040001133383,新規,0,2024-05-01,2024-05-01,株式会社アスレス,,株式会社,千葉県,千葉市若葉区,大井戸町７０７番地大井戸ハウスＡ号室,,12,104,2650075,,,,,,,2024-05-01,1,,,,,アスレス,0
1796,7050001054694,新規,0,2024-05-01,2024-05-01,株式会社Ｖｉｔａｌｙ,,株式会社,茨城県,神栖市,太田５２３番地２７,,08,232,3140254,,,,,,,2024-05-01,1,,,,,バイタリー,0
1803,7070001041674,新規,0,2024-05-01,2024-05-01,株式会社ＭｕｌｔｉＦｕｌｌ,,株式会社,群馬県,佐波郡玉村町,大字福島１０５７番地２３,,10,464,3701105,,,,,,,2024-05-01,1,,,,,マルチフル,0
1804,7070001041690,新規,0,2024-05-01,2024-05-01,株式会社Ｒｅ，ｖｉｖａｌ,,株式会社,群馬県,太田市,龍舞町５２０４番地朝日メゾン・ド・コア１０３,,10,205,3730806,,,,,,,2024-05-01,1,,,,,リバイバル,0
1810,7080103003051,新規,0,2024-05-01,2024-05-01,麻心合同会社,,合同会社,静岡県,御殿場市,川島田１８１９－７１,,22,215,4120045,,,,,,,2024-05-01,1,,,,,マゴコロ,0
1819,7110001038369,新規,0,2024-05-01,2024-05-01,株式会社ＨＥＥＲＡ,,株式会社,新潟県,新潟市南区,犬帰新田７５４,,15,106,9501403,,,,,,,2024-05-01,1,,,,,ヒーラ,0
1820,7110003005375,新規,0,2024-05-01,2024-05-01,ＲＥにいがた合同会社,,合同会社,新潟県,新潟市西区,小針が丘２番４５号,,15,107,9502013,,,,,,,2024-05-01,1,,,,,アールイーニイガタ,0
1827,7120001264410,新規,0,2024-05-01,2024-05-01,株式会社ｔｏｄａｙｓｗｏｒｋ,,株式会社,大阪府,大阪市淀川区,宮原５丁目６番３－３０４号,,27,123,5320003,,,,,,,2024-05-01,1,,,,,トゥデイズワーク,0
1828,7120001264443,新規,0,2024-05-01,2024-05-01,旻盛株式会社,,株式会社,大阪府,大阪市都島区,片町１丁目３番２３－６０２号,,27,102,5340025,,,,,,,2024-05-01,1,,,,,ビンセイ,0
1829,7120001264468,新規,0,2024-05-01,2024-05-01,震金株式会社,,株式会社,大阪府,大阪市生野区,中川３丁目４番１７号２０４号室,,27,116,5440005,,,,,,,2024-05-01,1,,,,,シンキン,0
1830,7120001264476,新規,0,2024-05-01,2024-05-01,株式会社ベスト,,株式会社,大阪府,大阪市西淀川区,御幣島２丁目１７番４号,,27,113,5550012,,,,,,,2024-05-01,1,,,,,ベスト,0
1831,7120001264484,新規,0,2024-05-01,2024-05-01,ＯｎｅＳｈｅｅｔ株式会社,,株式会社,大阪府,大阪市北区,梅田１丁目１番３号大阪駅前第３ビル２９階１－１－１号室,,27,127,5300001,,,,,,,2024-05-01,1,,,,,ワンシート,0
1832,7120001264492,新規,0,2024-05-01,2024-05-01,株式会社ビズフーズ・ラボ,,株式会社,大阪府,大阪市淀川区,東三国３丁目９番１３－１１９号,,27,123,5320002,,,,,,,2024-05-01,1,,,,,ビズフーズラボ,0
1833,7120001264518,新規,0,2024-05-01,2024-05-01,株式会社ＡＥＧＩＳ　Ｉｎｄｕｓｔｒｉｅｓ,,株式会社,大阪府,大阪市北区,梅田１丁目２番２号大阪駅前第２ビル１２－１２,,27,127,5300001,,,,,,,2024-05-01,1,,,,,アイギスインダストリーズ,0
1834,7120001264526,新規,0,2024-05-01,2024-05-01,富隣株式会社,,株式会社,大阪府,大阪市西成区,松１丁目２番８－４０１号,,27,122,5570034,,,,,,,2024-05-01,1,,,,,トミリン,0
1835,7120001264550,新規,0,2024-05-01,2024-05-01,ＨＣ株式会社,,株式会社,大阪府,大阪市西成区,玉出西２丁目１０番２２－４１４号,,27,122,5570045,,,,,,,2024-05-01,1,,,,,エイチシー,0
1837,7120003026478,新規,0,2024-05-01,2024-05-01,合同会社みるく舎,,合同会社,大阪府,大阪市生野区,巽西１丁目８番１号ロート製薬株式会社内,00134584,27,116,5440012,,,,,,,2024-05-01,1,,,,,ミルクシャ,0
1838,7120003026486,新規,0,2024-05-01,2024-05-01,合同会社インポルタンテマリド,,合同会社,大阪府,大阪市此花区,春日出南２丁目３－８,,27,104,5540023,,,,,,,2024-05-01,1,,,,,インポルタンテマリド,0
1839,7120003026528,新規,0,2024-05-01,2024-05-01,Ｓｕｍｍｉｔ　Ａｐｐ合同会社,,合同会社,大阪府,大阪市平野区,背戸口２丁目１５番３号３０１,,27,126,5470034,,,,,,,2024-05-01,1,,,,,サミットアプリ,0
1843,7120103005786,新規,0,2024-05-01,2024-05-01,合同会社Ｈａｍｚａ　Ｉｍｐｅｘ,,合同会社,大阪府,堺市堺区,三条通６－２０,,27,141,5900046,,,,,,,2024-05-01,1,,,,,ハムザインペックス,0
1847,7122003002871,新規,0,2024-05-01,2024-05-01,合同会社メタルホープ,,合同会社,大阪府,東大阪市,水走３丁目８番７号,,27,227,5780921,,,,,,,2024-05-01,1,,,,,メタルホープ,0
1851,7130003009507,新規,0,2024-05-01,2024-05-01,合同会社ＥＮＥソーラー掛川,,合同会社,京都府,京田辺市,山手南２丁目１－３ハチセンビル３号館４０１,,26,211,6100354,,,,,,,2024-05-01,1,,,,,エネソーラーカケガワ,0
1856,7140003020495,新規,0,2024-05-01,2024-05-01,南九州ソーラー合同会社,,合同会社,兵庫県,神戸市中央区,御幸通８丁目１番６号,,28,110,6510087,,,,,,,2024-05-01,1,,,,,ミナミキュウシュウソーラー,0
1868,7180001161206,新規,0,2024-05-01,2024-05-01,株式会社Ｆａｎ．Ｃ,,株式会社,愛知県,名古屋市中村区,３－４－１０アルティメイト名駅１ｓｔ２階,,23,105,4530000,,,,,,,2024-05-01,1,,,,,ファンシー,0
1893,7210001019739,新規,0,2024-05-01,2024-05-01,株式会社ＫＣＢ,,株式会社,福井県,南条郡南越前町,東大道第１号４番地の１,,18,404,9190223,,,,,,,2024-05-01,1,,,,,ケーシービー,0
1902,7250003003489,新規,0,2024-05-01,2024-05-01,Ｂｉｏｍｅｃａ　ＴｒｉＴｅｃｈ合同会社,,合同会社,山口県,宇部市,常盤台２丁目１６番１号,,35,202,7550097,,,,,,,2024-05-01,1,,,,,バイオメカトライテック,0
1907,7260003004668,新規,0,2024-05-01,2024-05-01,合同会社モモタロウホールディングス,,合同会社,岡山県,岡山市中区,円山６９９番地３,,33,102,7038271,,,,,,,2024-05-01,1,,,,,モモタロウホールディングス,0
1918,7290801030532,新規,0,2024-05-01,2024-05-01,Ｅｃｏ　Ａｌｌｉａｎｃｅ　Ｔｒａｄｉｎｇ株式会社,,株式会社,福岡県,鞍手郡小竹町,大字御徳字権現堂８９番２,,40,401,8201101,,,,,,,2024-05-01,1,,,,,エコアライアンストレーディング,0
1923,7320001020438,新規,0,2024-05-01,2024-05-01,株式会社叶和,,株式会社,大分県,杵築市,山香町大字立石１２７９番地３１,,44,210,8791302,,,,,,,2024-05-01,1,,,,,トオワ,0
1924,7320003004348,新規,0,2024-05-01,2024-05-01,合同会社グリントピノ,,合同会社,大分県,大分市,末広町２丁目４番２１－９０２号,,44,201,8700027,,,,,,,2024-05-01,1,,,,,グリントピノ,0
1931,7350005006232,新規,0,2024-05-01,2024-05-01,一般社団法人ＣＦＦＡ,,その他の設立登記法人,宮崎県,西都市,大字岡富１１８０番地１,,45,208,8810001,,,,,,,2024-05-01,1,,,,,シーエフエフエー,0
1934,7370001051230,新規,0,2024-05-01,2024-05-01,株式会社盛栄国際,,株式会社,宮城県,気仙沼市,本吉町登米沢１６２番地１,,04,205,9880318,,,,,,,2024-05-01,1,,,,,セイエイコクサイ,0
1936,7370005010777,新規,0,2024-05-01,2024-05-01,一般社団法人東北地方砕石協議会,,その他の設立登記法人,宮城県,仙台市宮城野区,榴岡１丁目６番３７号,,04,102,9830852,,,,,,,2024-05-01,1,,,,,トウホクチホウサイセキキョウギカイ,0
1954,7430001091682,新規,0,2024-05-01,2024-05-01,株式会社日本ＧＯＬＦ企画,,株式会社,北海道,札幌市南区,北ノ沢２丁目１２番８号,,01,106,0050832,,,,,,,2024-05-01,1,,,,,ニホンゴルフキカク,0
1964,7500003003232,新規,0,2024-05-01,2024-05-01,合同会社地球田醸造,,合同会社,愛媛県,東温市,松瀬川２７番地,,38,215,7910314,,,,,,,2024-05-01,1,,,,,テラダジョウゾウ,0
1976,8010001244397,新規,0,2024-05-01,2024-05-01,ハイカワス株式会社,,株式会社,東京都,中央区,八丁堀３丁目１１番１３号ＡＳＰＲＩＭＥ八丁堀１４０２,,13,102,1040032,,,,,,,2024-05-01,1,,,,,ハイカワス,0
1977,8010001244488,新規,0,2024-05-01,2024-05-01,株式会社ｂｉｔｂｏｘｘ,,株式会社,東京都,中央区,日本橋箱崎町１６番１１ルミネ日本橋６０１,,13,102,1030015,,,,,,,2024-05-01,1,,,,,ビットボックス,0
1978,8010001244505,新規,0,2024-05-01,2024-05-01,白岡エナジー株式会社,,株式会社,東京都,千代田区,丸の内１丁目８番３号,,13,101,1000005,,,,,,,2024-05-01,1,,,,,シラオカエナジー,0
1988,8010405023166,新規,0,2024-05-01,2024-05-01,一般社団法人ＷＥＢマーケティング認定協会,,その他の設立登記法人,東京都,港区,北青山１丁目３番１号アールキューブ青山３階,,13,103,1070061,,,,,,,2024-05-01,1,,,,,ウェブマーケティングニンテイキョウカイ,0
1993,8010601065111,新規,0,2024-05-01,2024-05-01,株式会社ｒｉｓｅ　ｏｎ,,株式会社,東京都,江東区,東砂３丁目３０番１４－３０７号,,13,108,1360074,,,,,,,2024-05-01,1,,,,,ライズオン,0
1997,8010605004321,新規,0,2024-05-01,2024-05-01,特定非営利活動法人ユートピュア,,その他の設立登記法人,東京都,江東区,大島９丁目５番１号コアシティ東大島１０１,,13,108,1360072,,,,,,,2024-05-01,1,,,,,ユートピュア,0
2002,8010701045913,新規,0,2024-05-01,2024-05-01,ＪＣＣサービス株式会社,,株式会社,東京都,品川区,南大井２丁目１１番４号３Ａ棟１０２号,,13,109,1400013,,,,,,,2024-05-01,1,,,,,ジェイシーシーサービス,0
2003,8010701045921,新規,0,2024-05-01,2024-05-01,株式会社モンキーポッド,,株式会社,東京都,品川区,南品川４丁目７番２１号,,13,109,1400004,,,,,,,2024-05-01,1,,,,,モンキーポッド,0
2004,8010703007135,新規,0,2024-05-01,2024-05-01,合同会社ＳＥＲＡＰＨ,,合同会社,東京都,品川区,東五反田４丁目１０番１０－１００３号,,13,109,1410022,,,,,,,2024-05-01,1,,,,,セラフ,0
2019,8011101107171,新規,0,2024-05-01,2024-05-01,株式会社アイディ,,株式会社,東京都,新宿区,高田馬場４丁目１番６－３０３号,,13,104,1690075,,,,,,,2024-05-01,1,,,,,アイディ,0
2023,8011301029604,新規,0,2024-05-01,2024-05-01,株式会社ＹＰＣ,,株式会社,東京都,杉並区,浜田山２丁目１３番４号ＨＡＭＡＤＡＹＡＭＡ－ＡＰ－１２－Ａ,,13,115,1680065,,,,,,,2024-05-01,1,,,,,ワイピーシー,0
2024,8011403004364,新規,0,2024-05-01,2024-05-01,北洞合同会社,,合同会社,東京都,板橋区,徳丸４丁目２５番２０－５０１号,,13,119,1750083,,,,,,,2024-05-01,1,,,,,キタボラ,0
2027,8011801044152,新規,0,2024-05-01,2024-05-01,東京博奥ＩＴ通信株式会社,,株式会社,東京都,葛飾区,新小岩３丁目２９－７ＫＡＫＵＲＥＯＦＦＩＣＥ２０６号,,13,122,1240024,,,,,,,2024-05-01,1,,,,,トウキョウハクオウインフォメーションテクノロジーツウシン,0
2029,8012401041820,新規,0,2024-05-01,2024-05-01,株式会社トーハチ,,株式会社,東京都,三鷹市,上連雀７丁目８番３０号アレックス宮崎１０２,,13,204,1810012,,,,,,,2024-05-01,1,,,,,トーハチ,0
2035,8020001156955,新規,0,2024-05-01,2024-05-01,株式会社ＭｙＰｒｏＧｕｉｄｅ　Ｊａｐａｎ,,株式会社,神奈川県,横浜市中区,相生町１丁目７番地和同ビル２階,,14,104,2310012,,,,,,,2024-05-01,1,,,,,マイプロガイドジャパン,0
2036,8020001157020,新規,0,2024-05-01,2024-05-01,みなとキャピタル株式会社,,株式会社,神奈川県,横浜市西区,宮崎町５８番地１グランドメゾン伊勢山４０９号,,14,103,2200031,,,,,,,2024-05-01,1,,,,,ミナトキャピタル,0
2040,8020003025992,新規,0,2024-05-01,2024-05-01,鼎匯豊国際合同会社,,合同会社,神奈川県,横浜市鶴見区,駒岡３丁目３７－１６,,14,101,2300071,,,,,,,2024-05-01,1,,,,,ジョケイホウコクサイ,0
2056,8030001160114,新規,0,2024-05-01,2024-05-01,丸山工業株式会社,,株式会社,埼玉県,さいたま市浦和区,駒場１丁目２７番１３号,,11,107,3300051,,,,,,,2024-05-01,1,,,,,マルヤマコウギョウ,0
2063,8040001133382,新規,0,2024-05-01,2024-05-01,株式会社レイノワークス,,株式会社,千葉県,君津市,君津台２丁目２５番１０号,,12,225,2991143,,,,,,,2024-05-01,1,,,,,レイノワークス,0
2064,8040001133416,新規,0,2024-05-01,2024-05-01,株式会社ケースマン,,株式会社,千葉県,松戸市,本町１７―１１芹澤ビル６Ｆ,,12,207,2710091,,,,,,,2024-05-01,1,,,,,ケースマン,0
2072,8050001054693,新規,0,2024-05-01,2024-05-01,株式会社八雲虹,,株式会社,茨城県,那珂市,竹ノ内４丁目１８番地７,,08,226,3110110,,,,,,,2024-05-01,1,,,,,ヤクモコウ,0
2088,8080001026269,新規,0,2024-05-01,2024-05-01,株式会社ゴールドグリーン,,株式会社,静岡県,静岡市葵区,足久保口組１２７番地の５,,22,101,4212124,,,,,,,2024-05-01,1,,,,,ゴールドグリーン,0
2097,8090005007628,新規,0,2024-05-01,2024-05-01,一般社団法人身延山まちづくり推進機構,,その他の設立登記法人,山梨県,南巨摩郡身延町,身延３５６７番地,,19,365,4092524,,,,,,,2024-05-01,1,,,,,ミノブサンマチヅクリスイシンキコウ,0
2099,8110001038368,新規,0,2024-05-01,2024-05-01,ダイワサービス株式会社,,株式会社,新潟県,新発田市,下飯塚１９番地１,,15,206,9592331,,,,,,,2024-05-01,1,,,,,ダイワサービス,0
2114,8120001264426,新規,0,2024-05-01,2024-05-01,株式会社ムツキトーカ,,株式会社,大阪府,大阪市中央区,南船場４丁目１０－５南船場ＳＯＨＯビル７０２,,27,128,5420081,,,,,,,2024-05-01,1,,,,,ムツキトーカ,0
2115,8120001264475,新規,0,2024-05-01,2024-05-01,おしごと．ｃｏｍ株式会社,,株式会社,大阪府,大阪市阿倍野区,阪南町１丁目５３－１１藤澤ハイツ２－Ａ,,27,119,5450021,,,,,,,2024-05-01,1,,,,,オシゴトドットコム,0
2116,8120001264491,新規,0,2024-05-01,2024-05-01,株式会社ラパン,,株式会社,大阪府,大阪市浪速区,稲荷２丁目２番８号,,27,111,5560023,,,,,,,2024-05-01,1,,,,,ラパン,0
2124,8120003026477,新規,0,2024-05-01,2024-05-01,Ａｎ　Ｋｈａｎｇ合同会社,,合同会社,大阪府,大阪市阿倍野区,天王寺町北１丁目８－４７、１０７号,,27,119,5450001,,,,,,,2024-05-01,1,,,,,アンカン,0
2125,8120003026493,新規,0,2024-05-01,2024-05-01,ナインポケッツ合同会社,,合同会社,大阪府,大阪市東成区,玉津２丁目１０番１７号,,27,115,5370023,,,,,,,2024-05-01,1,,,,,ナインポケッツ,0
2127,8120103005802,新規,0,2024-05-01,2024-05-01,合同会社ＧＲＡＶＩＴＹ,,合同会社,大阪府,羽曳野市,大黒３５６－２,,27,222,5830847,,,,,,,2024-05-01,1,,,,,グラヴィティ,0
2129,8120901049091,新規,0,2024-05-01,2024-05-01,株式会社スイング,,株式会社,大阪府,豊中市,東寺内町９番１号ＥＡＳＹＢＯＸ緑地公園２０４号室,,27,203,5610871,,,,,,,2024-05-01,1,,,,,スイング,0
2130,8120901049109,新規,0,2024-05-01,2024-05-01,ウエットストップ株式会社,,株式会社,大阪府,吹田市,春日４丁目２番１－８０９号,,27,205,5650853,,,,,,,2024-05-01,1,,,,,ウエットストップ,0
2133,8122003002870,新規,0,2024-05-01,2024-05-01,ＨＡＮＡＭＩ合同会社,,合同会社,大阪府,柏原市,大正２丁目８番５号,,27,221,5820009,,,,,,,2024-05-01,1,,,,,ハナミ,0
2139,8130001076952,新規,0,2024-05-01,2024-05-01,御門興産株式会社,,株式会社,京都府,船井郡京丹波町,粟野町４４番地,,26,407,6220301,,,,,,,2024-05-01,1,,,,,ミカドコウサン,0
2142,8130005017085,新規,0,2024-05-01,2024-05-01,一般社団法人京都みやこ古民家再生協会,,その他の設立登記法人,京都府,京都市山科区,大塚檀ノ浦２９番地１４,00134583,26,110,6078124,,,,,,,2024-05-01,1,,,,,キョウトミヤココミンカサイセイキョウカイ,0
2146,8140001134214,新規,0,2024-05-01,2024-05-01,株式会社播州百貨店,,株式会社,兵庫県,加西市,山枝町４８０番地の３２,,28,220,6790108,,,,,,,2024-05-01,1,,,,,バンシュウヒャッカテン,0
2157,8180001161221,新規,0,2024-05-01,2024-05-01,株式会社メイセイＨ＆Ｄ,,株式会社,愛知県,名古屋市西区,名塚町３丁目３４番地,,23,104,4510081,,,,,,,2024-05-01,1,,,,,メイセイエイチアンドディー,0
2158,8180001161238,新規,0,2024-05-01,2024-05-01,株式会社幸和高齢者サポートセンター,,株式会社,愛知県,東海市,名和町向イ１５番地（１棟３０１号）,,23,222,4760002,,,,,,,2024-05-01,1,,,,,コウワコウレイシャサポートセンター,0
2162,8180003026694,新規,0,2024-05-01,2024-05-01,ＳＴ　Ｗｈｅｅｌｓ合同会社,,合同会社,愛知県,津島市,越津町字東田面７０番２,,23,208,4960022,,,,,,,2024-05-01,1,,,,,エスティーホイールズ,0
2163,8180003026703,新規,0,2024-05-01,2024-05-01,合同会社ちのらぼ,,合同会社,愛知県,名古屋市中村区,名駅３丁目４番１０号アルティメイト名駅１ｓｔ２階,,23,105,4500002,,,,,,,2024-05-01,1,,,,,チノラボ,0
2164,8180003026711,新規,0,2024-05-01,2024-05-01,合同会社アイダブリュウ,,合同会社,愛知県,名古屋市西区,上小田井１丁目１５９番地,,23,104,4520821,,,,,,,2024-05-01,1,,,,,アイダブリュウ,0
2169,8180301038598,新規,0,2024-05-01,2024-05-01,ＩＳＫ株式会社,,株式会社,愛知県,西尾市,一色町一色南屋敷１１２番地,,23,213,4440423,,,,,,,2024-05-01,1,,,,,アイエスケイ,0
2171,8180303006108,新規,0,2024-05-01,2024-05-01,明石合同会社,,合同会社,愛知県,碧南市,若宮町２丁目６１,,23,209,4470818,,,,,,,2024-05-01,1,,,,,アカシ,0
2174,8200001042451,新規,0,2024-05-01,2024-05-01,株式会社ＮＢフーズ,,株式会社,岐阜県,可児市,土田７４１番地１,,21,214,5090206,,,,,,,2024-05-01,1,,,,,エヌビーフーズ,0
2177,8240001063147,新規,0,2024-05-01,2024-05-01,株式会社ＳＯＬ,,株式会社,広島県,広島市西区,観音町１０－１７－３０１,,34,104,7330031,,,,,,,2024-05-01,1,,,,,ソル,0
2187,8250005008915,新規,0,2024-05-01,2024-05-01,一般社団法人ブライトスカイ,,その他の設立登記法人,山口県,山口市,平井４１１番地１,,35,203,7530831,,,,,,,2024-05-01,1,,,,,,0
2189,8260002000741,新規,0,2024-05-01,2024-05-01,有限会社泉鉄工所,,有限会社,岡山県,岡山市南区,泉田字上川田３５２番地５号,,33,104,7000944,,,,,,,2024-05-01,1,,,,,,0
2193,8260005011348,新規,0,2024-05-01,2024-05-01,南岡山生コンクリート協同組合,,その他の設立登記法人,岡山県,岡山市北区,久米２２６番地,,33,101,7010144,,,,,,,2024-05-01,1,,,,,ミナミオカヤマナマコンクリート,0
2198,8290001105547,新規,0,2024-05-01,2024-05-01,株式会社Ａｔｅｌｉｅｒ　Ａｒｉ,,株式会社,福岡県,福岡市南区,大楠２丁目１９－１２－４０７,,40,134,8150082,,,,,,,2024-05-01,1,,,,,アトリエアリ,0
2203,8300001013715,新規,0,2024-05-01,2024-05-01,株式会社さくら不動産プラス,,株式会社,佐賀県,佐賀市,西田代２丁目２番１号,,41,201,8400045,,,,,,,2024-05-01,1,,,,,サクラフドウサンプラス,0
2210,8310001018977,新規,0,2024-05-01,2024-05-01,株式会社ＴＭ工建,,株式会社,長崎県,長崎市,三重町６６７番地２,,42,201,8512204,,,,,,,2024-05-01,1,,,,,ティーエムコウケン,0
2211,8310001018985,新規,0,2024-05-01,2024-05-01,株式会社ニッスイまぐろ,,株式会社,長崎県,佐世保市,鹿町町長串４０３番地３１,,42,202,8596206,,,,,,,2024-05-01,1,,,,,ニッスイマグロ,0
2219,8350003004617,新規,0,2024-05-01,2024-05-01,ｆｒｅｅｌｙ合同会社,,合同会社,宮崎県,日向市,大字平岩１９３番地１,,45,206,8830022,,,,,,,2024-05-01,1,,,,,フリーリー,0
2223,8370001051246,新規,0,2024-05-01,2024-05-01,株式会社アルファスター,,株式会社,宮城県,仙台市青葉区,木町通１丁目１番２５号,,04,101,9800801,,,,,,,2024-05-01,1,,,,,アルファスター,0
2236,8430001091673,新規,0,2024-05-01,2024-05-01,Ｔｈｅ　Ｒｅｓｔａｕｒａｎｔ株式会社,,株式会社,北海道,札幌市中央区,宮の森三条１２丁目１番１号愛生舘ラボＢ１,,01,101,0640953,,,,,,,2024-05-01,1,,,,,ザレストラン,0
2237,8430001091681,新規,0,2024-05-01,2024-05-01,株式会社ここたす,,株式会社,北海道,札幌市北区,北二十一条西１１丁目北海道大学フード＆メディカルイノベーション国際拠点ＨＸ,,01,102,0010021,,,,,,,2024-05-01,1,,,,,ココタス,0
2238,8430001091698,新規,0,2024-05-01,2024-05-01,株式会社ｖｅｒｔ,,株式会社,北海道,札幌市西区,西野三条６丁目６番１８－３０１号,,01,107,0630033,,,,,,,2024-05-01,1,,,,,ヴェール,0
2246,8700150005885,新規,0,2024-05-01,2015-10-09,全国商業高等学校長協会,,その他,東京都,新宿区,大京町２６,,13,104,1600015,,,,,,,2015-10-09,1,,,,,ゼンコクシヨウギヨウコウトウガツコウチヨウキヨウカイ,0
2247,8700150036757,新規,0,2024-05-01,2015-10-09,宮沢賢治学会イーハトーブセンター,,その他,岩手県,花巻市,高松第１地割１－１,,03,205,0250014,,,,,,,2015-10-09,1,,,,,ミヤザワケンジガツカイイーハトーブセンター,0
2248,8700150124347,新規,0,2024-05-01,2024-03-07,やさか児童クラブ　さくら会,,その他,島根県,浜田市,弥栄町長安本郷３２５－１,,32,202,6971211,,,,,,,2024-03-07,1,,,,,ヤサカジドウクラブサクラカイ,0
2261,9010001244256,新規,0,2024-05-01,2024-05-01,株式会社ｆｌｕｓｓＳｔｅｉｎ,,株式会社,東京都,千代田区,九段南１丁目５番６号りそな九段ビル５階ＫＳフロア,,13,101,1020074,,,,,,,2024-05-01,1,,,,,フルーゥスシュタイン,0
2262,9010001244405,新規,0,2024-05-01,2024-05-01,ザカリーワン株式会社,,株式会社,東京都,千代田区,麹町２丁目５番１号、半蔵門ＰＲＥＸ・Ｓｏｕｔｈ・２Ｆ,,13,101,1020083,,,,,,,2024-05-01,1,,,,,ザカリーワン,0
2263,9010001244470,新規,0,2024-05-01,2024-05-01,株式会社ＦＳＳ,,株式会社,東京都,中央区,銀座１丁目１２－４Ｎ＆ＥＢＬＤ．７階,,13,102,1040061,,,,,,,2024-05-01,1,,,,,エフエスエス,0
2271,9010403032498,新規,0,2024-05-01,2024-05-01,ルミレッズコマーシャルジャパン合同会社,,合同会社,東京都,港区,港南２丁目１６番５号ＮＢＦ品川タワー６階,,13,103,1080075,,,,,,,2024-05-01,1,,,,,ルミレッズコマーシャルジャパン,0
2272,9010403032523,新規,0,2024-05-01,2024-05-01,Ａｅｇｉｓ　Ｇｌｏｂａｌ合同会社,,合同会社,東京都,港区,元麻布３丁目１番６号,,13,103,1060046,,,,,,,2024-05-01,1,,,,,エージスグローバル,0
2277,9010601065093,新規,0,2024-05-01,2024-05-01,株式会社リドリ,,株式会社,東京都,墨田区,墨田５丁目５番２号Ｒビル墨田１Ｆ－２１,,13,107,1310031,,,,,,,2024-05-01,1,,,,,リドリ,0
2278,9010603010799,新規,0,2024-05-01,2024-05-01,合同会社Ｌｕｋｏｃｈ,,合同会社,東京都,墨田区,文花１丁目１８－１３,,13,107,1310044,,,,,,,2024-05-01,1,,,,,ルコチ,0
2281,9010701045920,新規,0,2024-05-01,2024-05-01,株式会社カルチュア・エンタテインメント分割準備会社,,株式会社,東京都,品川区,上大崎３丁目１番１号,,13,109,1410021,,,,,,,2024-05-01,1,,,,,カルチュアエンタテインメントブンカツジュンビガイシャ,0
2282,9010703007159,新規,0,2024-05-01,2024-05-01,合同会社Ｃａｔｗａｌｋ,,合同会社,東京都,品川区,小山６丁目１０―６,,13,109,1420062,,,,,,,2024-05-01,1,,,,,キャットウォーク,0
2283,9010705003619,新規,0,2024-05-01,2024-05-01,一般社団法人Ｂ‐Ｓｉｄｅ　Ｉｎｃｕｂａｔｏｒ,,その他の設立登記法人,東京都,品川区,中延３丁目７番１４号,,13,109,1420053,,,,,,,2024-05-01,1,,,,,ビーサイドインキュベーター,0
2290,9011001161648,新規,0,2024-05-01,2024-05-01,株式会社ＦＡＲＣＨ,,株式会社,東京都,渋谷区,道玄坂１丁目１０番８号渋谷道玄坂東急ビル２Ｆ－Ｃ,,13,113,1500043,,,,,,,2024-05-01,1,,,,,ファーチ,0
2291,9011001161680,新規,0,2024-05-01,2024-05-01,ウリーヴォ株式会社,,株式会社,東京都,渋谷区,渋谷２丁目１９番１５号宮益坂ビルディング６０９号室,,13,113,1500002,,,,,,,2024-05-01,1,,,,,ウリーヴォ,0
2296,9011005010487,新規,0,2024-05-01,2024-05-01,弁理士法人レゾナンス,,その他の設立登記法人,東京都,渋谷区,南平台町１２番地６－３０１号,,13,113,1500036,,,,,,,2024-05-01,1,,,,,レゾナンス,0
2298,9011101107162,新規,0,2024-05-01,2024-05-01,ＢＡＮＳＵＫ株式会社,,株式会社,東京都,新宿区,新宿７丁目２７番３号３０５,,13,104,1600022,,,,,,,2024-05-01,1,,,,,バンソク,0
2301,9011105011014,新規,0,2024-05-01,2024-05-01,ＮＰＯ法人白たんぽぽの会,,その他の設立登記法人,東京都,新宿区,歌舞伎町２丁目２番１９号,,13,104,1600021,,,,,,,2024-05-01,1,,,,,シロタンポポノカイ,0
2331,9021001082125,新規,0,2024-05-01,2024-05-01,Ｒ３５８株式会社,,株式会社,神奈川県,海老名市,今里２丁目１３番２３号,,14,215,2430423,,,,,,,2024-05-01,1,,,,,アールサンゴーハチ,0
2332,9021003014456,新規,0,2024-05-01,2024-05-01,合同会社くりはま,,合同会社,神奈川県,横須賀市,久里浜５丁目３－４,,14,201,2390831,,,,,,,2024-05-01,1,,,,,クリハマ,0
2344,9030001160096,新規,0,2024-05-01,2024-05-01,株式会社エムズ,,株式会社,埼玉県,川越市,大字小堤６１５番地９,,11,201,3500811,,,,,,,2024-05-01,1,,,,,エムズ,0
2345,9030001160105,新規,0,2024-05-01,2024-05-01,株式会社Ｍ．Ｈ．,,株式会社,埼玉県,羽生市,大字砂山１１１９番地２,,11,216,3480036,,,,,,,2024-05-01,1,,,,,エムエイチ,0
2346,9030003024175,新規,0,2024-05-01,2024-05-01,合同会社Ｒｅ　Ｌｉｆｅ,,合同会社,埼玉県,三郷市,三郷３丁目１８‐５‐３０３,,11,237,3410024,,,,,,,2024-05-01,1,,,,,リライフ,0
2347,9030003024209,新規,0,2024-05-01,2024-05-01,ダブルネット合同会社,,合同会社,埼玉県,川口市,青木１丁目１８番２５－１Ｆ,,11,203,3320031,,,,,,,2024-05-01,1,,,,,ダブルネット,0
2351,9040001133282,新規,0,2024-05-01,2024-05-01,ＭＴ　ＴＲＡＤＩＮＧ株式会社,,株式会社,千葉県,四街道市,物井１８０３番地１,,12,228,2840012,,,,,,,2024-05-01,1,,,,,エムティートゥレーディング,0
2352,9040001133381,新規,0,2024-05-01,2024-05-01,株式会社Ｆｉｔｔｉｎｇ　ａｎｄ　Ｂｕｉｌｄ,,株式会社,千葉県,流山市,前平井１０８番地（運Ｂ１４１街区１）１４０５,,12,220,2700152,,,,,,,2024-05-01,1,,,,,フィッティングアンドビルド,0
2354,9040003024892,新規,0,2024-05-01,2024-05-01,合同会社ＵＯＴなべぶん,,合同会社,千葉県,銚子市,川口町２丁目６３８５番地,,12,202,2880001,,,,,,,2024-05-01,1,,,,,ユーオーティーナベブン,0
2373,9070001041697,新規,0,2024-05-01,2024-05-01,株式会社ユウメカニック,,株式会社,群馬県,佐波郡玉村町,大字板井１２０８番地５,,10,464,3701135,,,,,,,2024-05-01,1,,,,,ユウメカニック,0
2378,9080001026276,新規,0,2024-05-01,2024-05-01,株式会社ＧＥＮＩＵＳ,,株式会社,静岡県,静岡市葵区,安東２丁目１２番２３号,,22,101,4200882,,,,,,,2024-05-01,1,,,,,,0
2381,9080105006430,新規,0,2024-05-01,2024-05-01,一般社団法人といろ,,その他の設立登記法人,静岡県,沼津市,北今沢７番地の２,,22,203,4100876,,,,,,,2024-05-01,1,,,,,トイロ,0
2403,9120001264508,新規,0,2024-05-01,2024-05-01,昭陽株式会社,,株式会社,大阪府,大阪市大正区,三軒家西３丁目４番１６号中山ビル１０２１,,27,108,5510001,,,,,,,2024-05-01,1,,,,,ショウヨウ,0
2404,9120001264532,新規,0,2024-05-01,2024-05-01,ＡＧＲＩ　ＰＬＵＳ株式会社,,株式会社,大阪府,大阪市西区,京町堀２丁目６番２０－１２０２号室,,27,106,5500003,,,,,,,2024-05-01,1,,,,,アグリプラス,0
2409,9120003026484,新規,0,2024-05-01,2024-05-01,ＴＡＫＵ‐ｒｐｍ合同会社,,合同会社,大阪府,枚方市,東香里南町７番９号,,27,210,5730074,,,,,,,2024-05-01,1,,,,,タクアールピーエム,0
2414,9120901049116,新規,0,2024-05-01,2024-05-01,株式会社丸菱ＨＤ,,株式会社,大阪府,高槻市,柱本３丁目１２番１０号３Ｆ,,27,207,5690844,,,,,,,2024-05-01,1,,,,,マルビシホールディングス,0
2417,9130001076943,新規,0,2024-05-01,2024-05-01,株式会社桂エステート,,株式会社,京都府,京都市西京区,川島滑樋町５１番地,,26,111,6158106,,,,,,,2024-05-01,1,,,,,カツラエステート,0
2418,9130001076951,新規,0,2024-05-01,2024-05-01,株式会社インフィニート,,株式会社,京都府,宇治市,五ケ庄西川原２１番地の３８,,26,204,6110011,,,,,,,2024-05-01,1,,,,,インフィニート,0
2421,9130003009496,新規,0,2024-05-01,2024-05-01,ＡＳＩＡ　ＰＲＯ　ＣＡＴＥＲＩＮＧ　ＧＲＯＵＰ合同会社,,合同会社,京都府,京都市下京区,烏丸通松原上る薬師前町７１２,,26,106,6008416,,,,,,,2024-05-01,1,,,,,アジアプロケータリンググループ,0
2422,9130003009513,新規,0,2024-05-01,2024-05-01,ユータック合同会社,,合同会社,京都府,京都市伏見区,石田大山町４番地の４３,,26,109,6011433,,,,,,,2024-05-01,1,,,,,ユータック,0
2434,9150003003241,新規,0,2024-05-01,2024-05-01,ディーズプロパティ合同会社,,合同会社,奈良県,生駒市,松美台１５０番地５,,29,209,6300241,,,,,,,2024-05-01,1,,,,,ディーズプロパティ,0
2446,9180001160932,新規,0,2024-05-01,2024-05-01,株式会社ベルマネジメントワイズ,,株式会社,愛知県,名古屋市中区,新栄２丁目４２番２８号,,23,106,4600007,,,,,,,2024-05-01,1,,,,,ベルマネジメントワイズ,0
2447,9180001161170,新規,0,2024-05-01,2024-05-01,株式会社ＡＣＴｘＳＴＹＬＥ,,株式会社,愛知県,名古屋市中村区,名駅３丁目４－１０アルティメイト名駅１ｓｔ２階,,23,105,4500002,,,,,,,2024-05-01,1,,,,,アクトスタイル,0
2448,9180001161204,新規,0,2024-05-01,2024-05-01,ＨＯＡＮＧ　ＧＩＡ株式会社,,株式会社,愛知県,海部郡蟹江町,宝２丁目２５２番地,,23,425,4970030,,,,,,,2024-05-01,1,,,,,ホアンザー,0
2449,9180001161220,新規,0,2024-05-01,2024-05-01,株式会社こどもみらい,,株式会社,愛知県,海部郡大治町,大字北間島字屋敷１２９番地,,23,424,4901132,,,,,,,2024-05-01,1,,,,,コドモミライ,0
2450,9180001161237,新規,0,2024-05-01,2024-05-01,株式会社８８ｓｔｙｌｅ,,株式会社,愛知県,名古屋市中村区,烏森町１丁目３６番地の１,,23,105,4530855,,,,,,,2024-05-01,1,,,,,ハチハチスタイル,0
2464,9220001025965,新規,0,2024-05-01,2024-05-01,株式会社ｎｏｗ,,株式会社,石川県,加賀市,塩浜町り１４番地５,,17,206,9220446,,,,,,,2024-05-01,1,,,,,ナウ,0
2467,9240001063154,新規,0,2024-05-01,2024-05-01,株式会社大美和,,株式会社,広島県,広島市西区,古江上１丁目６８６番地１－３０１号,,34,104,7330875,,,,,,,2024-05-01,1,,,,,オオミワ,0
2469,9250001020633,新規,0,2024-05-01,2024-05-01,株式会社ひなた不動産,,株式会社,山口県,山口市,大内千坊２丁目１９番１２号,,35,203,7530251,,,,,,,2024-05-01,1,,,,,ヒナタフドウサン,0
2470,9250003003487,新規,0,2024-05-01,2024-05-01,合同会社グッドチア,,合同会社,山口県,下関市,長府惣社町２番１９号,,35,201,7520970,,,,,,,2024-05-01,1,,,,,グッドチア,0
2480,9290001105546,新規,0,2024-05-01,2024-05-01,株式会社ボーダーライン,,株式会社,福岡県,福岡市早良区,賀茂４丁目１２番３号,,40,137,8140164,,,,,,,2024-05-01,1,,,,,ボーダーライン,0
2481,9290001105604,新規,0,2024-05-01,2024-05-01,株式会社Ｃ＆Ｍカンパニー,,株式会社,福岡県,福岡市中央区,大手門３丁目１４番２７号ラフォーレ大濠パークアベニュー６０４,,40,133,8100074,,,,,,,2024-05-01,1,,,,,シーアンドエムカンパニー,0
2484,9290801030530,新規,0,2024-05-01,2024-05-01,株式会社ＨＲＳ,,株式会社,福岡県,北九州市八幡西区,光明１丁目３番２０－１０３号,,40,109,8070824,,,,,,,2024-05-01,1,,,,,エイチアールエス,0
2493,9320003004346,新規,0,2024-05-01,2024-05-01,合同会社竹広,,合同会社,大分県,大分市,大字森町１１８１－２リバーサイド森町２－１０３,,44,201,8700127,,,,,,,2024-05-01,1,,,,,タケヒロ,0
2497,9330001031993,新規,0,2024-05-01,2024-05-01,株式会社Ｔｏｂａｓｅ　Ｌａｂｏ,,株式会社,熊本県,宇城市,三角町戸馳３７３－３,,43,213,8693203,,,,,,,2024-05-01,1,,,,,トバセラボ,0
2498,9330001032018,新規,0,2024-05-01,2024-05-01,株式会社ハキフキ,,株式会社,熊本県,熊本市中央区,島崎１丁目２１－３１－２,,43,101,8600073,,,,,,,2024-05-01,1,,,,,ハキフキ,0
2502,9330003010343,新規,0,2024-05-01,2024-05-01,合同会社エモト,,合同会社,熊本県,熊本市北区,八景水谷４丁目５番４５号（８０６）,,43,105,8618064,,,,,,,2024-05-01,1,,,,,エモト,0
2509,9370001051229,新規,0,2024-05-01,2024-05-01,三馬株式会社,,株式会社,宮城県,気仙沼市,本吉町登米沢１６２番地１,,04,205,9880318,,,,,,,2024-05-01,1,,,,,ミツマ,0
2510,9370003006585,新規,0,2024-05-01,2024-05-01,合同会社ガーベラ,,合同会社,宮城県,黒川郡大和町,吉岡まほろば１丁目７番地の１１ヴィア・ラツテア二番館２０２,,04,421,9813632,,,,,,,2024-05-01,1,,,,,ガーベラ,0
2512,9370005010775,新規,0,2024-05-01,2024-05-01,一般社団法人みつやブリッジ,,その他の設立登記法人,宮城県,伊具郡丸森町,耕野字中ノ沢１８番地２,,04,341,9812303,,,,,,,2024-05-01,1,,,,,ミツヤブリッジ,0
2520,9400005008411,新規,0,2024-05-01,2024-05-01,社会福祉法人碧晴会,,その他の設立登記法人,岩手県,九戸郡洋野町,種市第３９地割３９番地３５,,03,507,0287911,,,,,,,2024-05-01,1,,,,,ヘキセイカイ,0
2522,9420001018701,新規,0,2024-05-01,2024-05-01,株式会社ＮＥＥＤ,,株式会社,青森県,八戸市,北白山台５丁目１番７号,,02,203,0391114,,,,,,,2024-05-01,1,,,,,ニード,0
2539,9480001012459,新規,0,2024-05-01,2024-05-01,株式会社桶幸アーバンホールディングス,,株式会社,徳島県,鳴門市,撫養町南浜字東浜４８４番地,,36,202,7720003,,,,,,,2024-05-01,1,,,,,オケコウアーバンホールディングス,0
2542,9700150109272,新規,0,2024-05-01,2022-06-07,ＪＡＰＬＩＮ,,その他,東京都,渋谷区,幡ヶ谷３丁目８０－１９ブレスオートゥ１０３,,13,113,1510072,,,,,,,2022-06-07,1,,,,,ジヤツプリン,0
