sequenceNumber,corporateNumber,process,correct,updateDate,changeDate,name,nameImageId,kind,prefectureName,cityName,streetNumber,addressImageId,prefectureCode,cityCode,postCode,addressOutside,addressOutsideImageId,closeDate,closeCause,successorCorporateNumber,changeCause,assignmentDate,latest,enName,enPrefectureName,enCityName,enAddressOutside,furigana,hihyoji
3,1010001258321,新規,0,2025-09-10,2025-09-10,株式会社ＨＡＩＬｔｏＴＡＲＴ,,株式会社,東京都,中央区,銀座１丁目２２番１１号銀座大竹ビジデンス２Ｆ,,13,102,1040061,,,,,,,2025-09-10,1,,,,,ハイルトタルト,0
4,1010001258354,新規,0,2025-09-10,2025-09-10,ティーエルシーヘンビット株式会社,,株式会社,東京都,千代田区,神田練塀町３番地,,13,101,1010022,,,,,,,2025-09-10,1,,,,,ティーエルシーヘンビット,0
5,1010001258395,新規,0,2025-09-10,2025-09-10,樸真株式会社,,株式会社,東京都,中央区,銀座１丁目１９番１４号銀座ＯＮＥビル６Ｆ,,13,102,1040061,,,,,,,2025-09-10,1,,,,,ボクシン,0
6,1010001258453,新規,0,2025-09-10,2025-09-10,Ｓａｙａｒｉ　Ｌａｂｓ　Ｊａｐａｎ株式会社,,株式会社,東京都,中央区,日本橋３丁目９番１号日本橋三丁目スクエア１１階,,13,102,1030027,,,,,,,2025-09-10,1,,,,,サヤリラボスジャパン,0
8,1010003048695,新規,0,2025-09-10,2025-09-10,トリシア合同会社,,合同会社,東京都,中央区,銀座１丁目１２－４Ｎ＆ＥＢＬＤ．６Ｆ,,13,102,1040061,,,,,,,2025-09-10,1,,,,,トリシア,0
9,1010003048712,新規,0,2025-09-10,2025-09-10,Ｌｉｂｅｒｔｙ　Ｌｉｎｋ合同会社,,合同会社,東京都,中央区,日本橋２丁目１６－４ｒｅｍｉｘ日本橋６階,,13,102,1030027,,,,,,,2025-09-10,1,,,,,リバティリンク,0
11,1010005040650,新規,0,2025-09-10,2025-09-10,一般社団法人ＡＴＪ１４,,その他の設立登記法人,東京都,千代田区,丸の内１丁目４番１号東京共同会計事務所内,,13,101,1000005,,,,,,,2025-09-10,1,,,,,エーティージェイフォーティーン,0
19,1010401192839,新規,0,2025-09-10,2025-09-10,株式会社イドライブクリエイティブ,,株式会社,東京都,港区,赤坂２丁目２３番１号,,13,103,1070052,,,,,,,2025-09-10,1,,,,,イドライブクリエイティブ,0
20,1010401192913,新規,0,2025-09-10,2025-09-10,ＳＩＶＡ株式会社,,株式会社,東京都,港区,芝５丁目２６番１６号,,13,103,1080014,,,,,,,2025-09-10,1,,,,,シヴァ,0
28,1010601067931,新規,0,2025-09-10,2025-09-10,Ｓ＆Ｈ株式会社,,株式会社,東京都,墨田区,墨田３丁目１４番８号,,13,107,1310031,,,,,,,2025-09-10,1,,,,,エスアンドエイチ,0
29,1010601067956,新規,0,2025-09-10,2025-09-10,Ｔｅｃｈｔ株式会社,,株式会社,東京都,江東区,佐賀２丁目８番６－２２９号,,13,108,1350031,,,,,,,2025-09-10,1,,,,,テクト,0
30,1010603011788,新規,0,2025-09-10,2025-09-10,合同会社Ｙ＆Ｋコンサルティング,,合同会社,東京都,墨田区,向島４丁目２７－８－２０２,,13,107,1310033,,,,,,,2025-09-10,1,,,,,ワイアンドケイコンサルティング,0
32,1010801036554,新規,0,2025-09-10,2025-09-10,宇瞳光学日本株式会社,,株式会社,東京都,大田区,矢口１丁目８番２５号ハイツベルグ武蔵２階２０８号室,,13,111,1460093,,,,,,,2025-09-10,1,,,,,ウトウコウガクニホン,0
36,1010905004837,新規,0,2025-09-10,2025-09-10,一般社団法人睦特殊金属工業親睦会,,その他の設立登記法人,東京都,世田谷区,玉川２丁目１６番６号,,13,112,1580094,,,,,,,2025-09-10,1,,,,,ムツミトクシュキンゾクコウギョウシンボクカイ,0
46,1011001172438,新規,0,2025-09-10,2025-09-10,Ｈｉｎｔ株式会社,,株式会社,東京都,渋谷区,道玄坂１丁目１０番８号渋谷道玄坂東急ビル２Ｆ―Ｃ,,13,113,1500043,,,,,,,2025-09-10,1,,,,,ヒント,0
49,1011003022343,新規,0,2025-09-10,2025-09-10,合同会社ｆｉｘ,,合同会社,東京都,渋谷区,神南１丁目１１番４号ＦＰＧリンクス神南５Ｆ,,13,113,1500041,,,,,,,2025-09-10,1,,,,,フィックス,0
50,1011003022351,新規,0,2025-09-10,2025-09-10,合同会社ＷＡＱＷＡＱ,,合同会社,東京都,目黒区,上目黒１丁目２６番１－４１０８号,,13,110,1530051,,,,,,,2025-09-10,1,,,,,,0
56,1011101113250,新規,0,2025-09-10,2025-09-10,ＬＥＡＰ　Ｓｏｌｕｔｉｏｎｓ株式会社,,株式会社,東京都,新宿区,西新宿１丁目２６―２新宿野村ビル３２階,,13,104,1600023,,,,,,,2025-09-10,1,,,,,リープソリューションズ,0
57,1011105011566,新規,0,2025-09-10,2025-09-10,白馬ＰＪ一般社団法人,,その他の設立登記法人,東京都,新宿区,四谷２丁目９番地１５東京ユナイテッド綜合事務所内,,13,104,1600004,,,,,,,2025-09-10,1,,,,,ハクバピージェイ,0
59,1011303005709,新規,0,2025-09-10,2025-09-10,合同会社ジービーシー管理,,合同会社,東京都,杉並区,和田２丁目３６番１８号,,13,115,1660012,,,,,,,2025-09-10,1,,,,,ジービーシーカンリ,0
61,1011501032538,新規,0,2025-09-10,2025-09-10,株式会社エイテッド,,株式会社,東京都,北区,神谷２丁目１番１２号ＤＩＰＳ東十条３０６,,13,117,1150043,,,,,,,2025-09-10,1,,,,,エイテッド,0
62,1011801046700,新規,0,2025-09-10,2025-09-10,株式会社Ｅｎｅｒｇｙ　Ａｒｃ,,株式会社,東京都,足立区,西新井１丁目３５番１４号,,13,121,1230841,,,,,,,2025-09-10,1,,,,,エナジーアーク,0
64,1011803007056,新規,0,2025-09-10,2025-09-10,合同会社インサイトパートナーズ,,合同会社,東京都,足立区,加賀２丁目１９－１,,13,121,1230861,,,,,,,2025-09-10,1,,,,,インサイトパートナーズ,0
65,1011803007064,新規,0,2025-09-10,2025-09-10,ｍｏｆｕｎｅｋｏ合同会社,,合同会社,東京都,足立区,千住河原町４２番７－４０３号,,13,121,1200037,,,,,,,2025-09-10,1,,,,,モフネコ,0
67,1012401043575,新規,0,2025-09-10,2025-09-10,株式会社エム．オー,,株式会社,東京都,調布市,深大寺東町８丁目１５番地１,,13,208,1820012,,,,,,,2025-09-10,1,,,,,エムオー,0
69,1012801024225,新規,0,2025-09-10,2025-09-10,株式会社ＰＬＥ,,株式会社,東京都,国立市,青柳２丁目２６番地の２１－３０７,,13,215,1860013,,,,,,,2025-09-10,1,,,,,ピーエルイー,0
78,1020001164774,新規,0,2025-09-10,2025-09-10,明光貴金属精錬株式会社,,株式会社,神奈川県,川崎市川崎区,大島４丁目２２番７号,,14,131,2100834,,,,,,,2025-09-10,1,,,,,メイコウキキンゾクセイレン,0
79,1020001164790,新規,0,2025-09-10,2025-09-10,Ｌａｔｅｅｆ株式会社,,株式会社,神奈川県,川崎市中原区,新丸子東３丁目１１１１番地１レジデンス・ザ・武蔵小杉５０１,,14,133,2110004,,,,,,,2025-09-10,1,,,,,ラティーフ,0
83,1020003029389,新規,0,2025-09-10,2025-09-10,合同会社Ｒｉｔｕａｌ＆Ｃｏ．,,合同会社,神奈川県,横浜市西区,浅間町１丁目４番３号ウィザードビル４０２,,14,103,2200072,,,,,,,2025-09-10,1,,,,,リチュアルアンドカンパニー,0
87,1021001086224,新規,0,2025-09-10,2025-09-10,株式会社ＫＵＢＯＫＥＮ,,株式会社,神奈川県,厚木市,下川入３１３番地６グローブヒルズ１０２,,14,212,2430206,,,,,,,2025-09-10,1,,,,,クボケン,0
88,1021001086249,新規,0,2025-09-10,2025-09-10,株式会社ＴＯＰ,,株式会社,神奈川県,大和市,下鶴間１８３５番地,,14,213,2420001,,,,,,,2025-09-10,1,,,,,トップ,0
90,1021003016518,新規,0,2025-09-10,2025-09-10,小泉工業合同会社,,合同会社,神奈川県,平塚市,万田１丁目３番２号,,14,203,2540913,,,,,,,2025-09-10,1,,,,,コイズミコウギョウ,0
91,1021003016542,新規,0,2025-09-10,2025-09-10,合同会社アイガス工業,,合同会社,神奈川県,横須賀市,平作６丁目３番１号,,14,201,2380032,,,,,,,2025-09-10,1,,,,,アイガスコウギョウ,0
96,1030001168551,新規,0,2025-09-10,2025-09-10,株式会社ＫＹＯＷＡＮ　ＣＯＲＰＯＲＡＴＩＯＮ,,株式会社,埼玉県,川口市,坂下町４丁目８番１号,,11,203,3340003,,,,,,,2025-09-10,1,,,,,キョウワンコーポレーション,0
97,1030001168592,新規,0,2025-09-10,2025-09-10,ＨＵＭＡ　ＳＨＡＮＴＩ株式会社,,株式会社,埼玉県,川越市,岸町１丁目４９－２９,,11,201,3501131,,,,,,,2025-09-10,1,,,,,フマシャンティ,0
102,1030003027516,新規,0,2025-09-10,2025-09-10,合同会社時結び,,合同会社,埼玉県,川口市,南鳩ヶ谷５丁目１９番５号,,11,203,3340013,,,,,,,2025-09-10,1,,,,,トキムスビ,0
103,1030003027532,新規,0,2025-09-10,2025-09-10,合同会社ホヌリンク,,合同会社,埼玉県,川口市,戸塚東１丁目１３番１０号ヴィスターラ戸塚東２０２,,11,203,3330802,,,,,,,2025-09-10,1,,,,,ホヌリンク,0
104,1030003027549,新規,0,2025-09-10,2025-09-10,合同会社世友,,合同会社,埼玉県,川口市,青木３丁目１２－１６パラシオン川口２０１,,11,203,3320031,,,,,,,2025-09-10,1,,,,,セイユウ,0
105,1030003027573,新規,0,2025-09-10,2025-09-10,合同会社西坂,,合同会社,埼玉県,志木市,幸町３丁目１３番３７号,,11,228,3530005,,,,,,,2025-09-10,1,,,,,ニシザカ,0
108,1040001140435,新規,0,2025-09-10,2025-09-10,株式会社Ｙａｔｓｕｒｕｇｉ　Ｗｏｒｋｓ,,株式会社,千葉県,千葉市中央区,本千葉町１３番１号パークホームズ千葉１０１０号,,12,101,2600014,,,,,,,2025-09-10,1,,,,,ヤツルギワークス,0
111,1040003028471,新規,0,2025-09-10,2025-09-10,合同会社Ｔｉｔａｎｉｓ,,合同会社,千葉県,千葉市若葉区,中野町１２４５,,12,104,2650051,,,,,,,2025-09-10,1,,,,,タイタニス,0
116,1060003005741,新規,0,2025-09-10,2025-09-10,合同会社ＫＡＫＥＲＵ,,合同会社,栃木県,足利市,鹿島町１１６４,,09,202,3260844,,,,,,,2025-09-10,1,,,,,カケル,0
121,1080003003553,新規,0,2025-09-10,2025-09-10,合同会社アドジャパン,,合同会社,静岡県,静岡市駿河区,桃園町８－５静岡エスアイビル南館３階,,22,102,4210114,,,,,,,2025-09-10,1,,,,,アドジャパン,0
124,1100001038937,新規,0,2025-09-10,2025-09-10,株式会社豊美容,,株式会社,長野県,松本市,中央２丁目２番３号,,20,202,3900811,,,,,,,2025-09-10,1,,,,,ユタカビヨウ,0
125,1100001038945,新規,0,2025-09-10,2025-09-10,株式会社Ｏｆｆ　ａｎｄ　Ｃｏ．,,株式会社,長野県,北佐久郡軽井沢町,軽井沢東１９－１３,,20,321,3890104,,,,,,,2025-09-10,1,,,,,オフアンドコー,0
128,1100003008384,新規,0,2025-09-10,2025-09-10,合同会社ＳＵ　ＰＹＡＥ　ＳＯＮＥ,,合同会社,長野県,松本市,村井町南３丁目１２－２２号,,20,202,3990036,,,,,,,2025-09-10,1,,,,,スピェソゥン,0
130,1110003005884,新規,0,2025-09-10,2025-09-10,合同会社リエゾン,,合同会社,新潟県,佐渡市,両津湊３４９番地１,,15,224,9520014,,,,,,,2025-09-10,1,,,,,リエゾン,0
139,1120001279380,新規,0,2025-09-10,2025-09-10,ネクサテック株式会社,,株式会社,大阪府,枚方市,香里園山之手町２３番２４号,,27,210,5730087,,,,,,,2025-09-10,1,,,,,ネクサテック,0
140,1120001279406,新規,0,2025-09-10,2025-09-10,株式会社ハヤショーエステイツ,,株式会社,大阪府,大阪市北区,東天満１丁目１１－７－３０３,,27,127,5300044,,,,,,,2025-09-10,1,,,,,ハヤショーエステイツ,0
141,1120001279439,新規,0,2025-09-10,2025-09-10,株式会社ル・リエット,,株式会社,大阪府,大阪市北区,天神橋２丁目４番１７号千代田第１ビル１０階Ｇ号室,,27,127,5300041,,,,,,,2025-09-10,1,,,,,ルリエット,0
142,1120001279455,新規,0,2025-09-10,2025-09-10,株式会社グランクリュ,,株式会社,大阪府,大阪市大正区,平尾５丁目６－２１,,27,108,5510012,,,,,,,2025-09-10,1,,,,,グランクリュ,0
143,1120001279513,新規,0,2025-09-10,2025-09-10,光和株式会社,,株式会社,大阪府,大阪市東住吉区,田辺１丁目８番１７号、２０１号室,,27,121,5460031,,,,,,,2025-09-10,1,,,,,コウワ,0
144,1120001279562,新規,0,2025-09-10,2025-09-10,億珀克株式会社,,株式会社,大阪府,大阪市生野区,新今里３丁目４番１７号ＯＧビル２１０Ｂ,,27,116,5440001,,,,,,,2025-09-10,1,,,,,オクハクコク,0
145,1120001279678,新規,0,2025-09-10,2025-09-10,クレナイ株式会社,,株式会社,大阪府,大阪市東淀川区,豊里６丁目２８番３２号マンション優勝３Ｃ号室,,27,114,5330013,,,,,,,2025-09-10,1,,,,,クレナイ,0
147,1120003030485,新規,0,2025-09-10,2025-09-10,合同会社Ｂｙ　Ｒ,,合同会社,大阪府,大阪市都島区,片町２丁目６番１１－４０３号,,27,102,5340025,,,,,,,2025-09-10,1,,,,,バイアール,0
148,1120003030510,新規,0,2025-09-10,2025-09-10,大和美麗合同会社,,合同会社,大阪府,大阪市平野区,長吉長原東３丁目７番２３号１０２号室,,27,126,5470013,,,,,,,2025-09-10,1,,,,,ヤマトミレイ,0
149,1120003030527,新規,0,2025-09-10,2025-09-10,花町Ｃｏｆｆｅｅ合同会社,,合同会社,大阪府,大阪市西区,立売堀１丁目６番１３－２０５号,,27,106,5500012,,,,,,,2025-09-10,1,,,,,ハナマチコーヒー,0
152,1120005025153,新規,0,2025-09-10,2025-09-10,一般社団法人ミライメタ学園,,その他の設立登記法人,大阪府,大阪市淀川区,西中島４丁目２番２１号,,27,123,5320011,,,,,,,2025-09-10,1,,,,,ミライメタガクエン,0
154,1120905006789,新規,0,2025-09-10,2025-09-10,一般社団法人Ｍサポート,,その他の設立登記法人,大阪府,吹田市,寿町２丁目１番１１号,,27,205,5640036,,,,,,,2025-09-10,1,,,,,エムサポート,0
158,1130001080465,新規,0,2025-09-10,2025-09-10,株式会社サーチェル,,株式会社,京都府,京都市下京区,松原通烏丸西入ル玉津島町２９４番地,,26,106,6000000,,,,,,,2025-09-10,1,,,,,サーチェル,0
161,1130003010734,新規,0,2025-09-10,2025-09-10,合同会社Ｈｕｎｎｙ,,合同会社,京都府,京都市下京区,七条通油小路東入大黒町２２７番地第２キョートビル４０２,,26,106,6008223,,,,,,,2025-09-10,1,,,,,ハニー,0
168,1140001139888,新規,0,2025-09-10,2025-09-10,ベルバリューホールディングス株式会社,,株式会社,兵庫県,尼崎市,七松町１丁目２番１号フェスタ立花北館４０１Ｂ,,28,202,6600052,,,,,,,2025-09-10,1,,,,,ベルバリューホールディングス,0
169,1140001139962,新規,0,2025-09-10,2025-09-10,株式会社Ｓｐｉｋｅ,,株式会社,兵庫県,神戸市中央区,小野浜町１番４－４０５号,,28,110,6510082,,,,,,,2025-09-10,1,,,,,スパイク,0
170,1140003022563,新規,0,2025-09-10,2025-09-10,合同会社ダイコソーシング,,合同会社,兵庫県,神戸市中央区,国香通２丁目１－１６モンテ春日野４０１号室,,28,110,6510066,,,,,,,2025-09-10,1,,,,,ダイコソーシング,0
172,1150001028396,新規,0,2025-09-10,2025-09-10,株式会社真龍コーポレーション,,株式会社,奈良県,大和郡山市,小泉町４－２クレアール小泉東Ｉ１０１,,29,203,6391042,,,,,,,2025-09-10,1,,,,,マリュウコーポレーション,0
176,1170001018783,新規,0,2025-09-10,2025-09-10,株式会社ＮＩＣヒアリング,,株式会社,和歌山県,和歌山市,太田１丁目１３番８号,,30,201,6408323,,,,,,,2025-09-10,1,,,,,エヌアイシーヒアリング,0
178,1170003002298,新規,0,2025-09-10,2025-09-10,友誠合同会社,,合同会社,和歌山県,和歌山市,新生町２番地２１グランメール新生町６０５,,30,201,6408325,,,,,,,2025-09-10,1,,,,,ユウセイ,0
182,1180001168553,新規,0,2025-09-10,2025-09-10,株式会社グローバルスタッフィング,,株式会社,愛知県,名古屋市中村区,名駅５丁目１６番１７号,,23,105,4500002,,,,,,,2025-09-10,1,,,,,グローバルスタッフィング,0
191,1190003005167,新規,0,2025-09-10,2025-09-10,スマイルＡｉｄ合同会社,,合同会社,三重県,松阪市,垣鼻町１２１２番地６ファミリー垣鼻２０２,,24,204,5150033,,,,,,,2025-09-10,1,,,,,スマイルエイド,0
194,1200001044207,新規,0,2025-09-10,2025-09-10,ＭｉｒａｔｅＸ株式会社,,株式会社,岐阜県,岐阜市,芋島３丁目５番２号,,21,201,5008234,,,,,,,2025-09-10,1,,,,,ミラテックス,0
195,1200001044215,新規,0,2025-09-10,2025-09-10,ＲＡＯ　ＩＮＴＥＲＮＡＴＩＯＮＡＬ株式会社,,株式会社,岐阜県,岐阜市,黒野１７３－１８,,21,201,5011131,,,,,,,2025-09-10,1,,,,,ラオインターナショナル,0
201,1220005008998,新規,0,2025-09-10,2025-09-10,特定非営利活動法人ライフスタイル健康寿命科学コンソーシアム,,その他の設立登記法人,石川県,金沢市,角間町金沢大学がん進展制御研究所遺伝子・染色体構築研究分野内,,17,201,9201164,,,,,,,2025-09-10,1,,,,,ライフスタイルケンコウジュミョウカガクコンソーシアム,0
204,1240001065471,新規,0,2025-09-10,2025-09-10,株式会社Ｐｕｒｅ　Ｆｌａｔ,,株式会社,広島県,世羅郡世羅町,大字賀茂８８９－２,,34,462,7221626,,,,,,,2025-09-10,1,,,,,ピュアフラット,0
217,1290001111304,新規,0,2025-09-10,2025-09-10,ＡＺＨＡＮ株式会社,,株式会社,福岡県,福津市,須多田５２０－１,,40,224,8113303,,,,,,,2025-09-10,1,,,,,アズハン,0
218,1290001111312,新規,0,2025-09-10,2025-09-10,株式会社Ｅｎｓｅｎｓ,,株式会社,福岡県,福岡市博多区,上川端町３番６号ザマーカーズビルディング０８０・９Ｆ,,40,132,8120026,,,,,,,2025-09-10,1,,,,,エンセンス,0
232,1330003011200,新規,0,2025-09-10,2025-09-10,合同会社ａｃｏ．,,合同会社,熊本県,熊本市南区,川尻１丁目３番１号,,43,104,8614115,,,,,,,2025-09-10,1,,,,,アコ,0
235,1360005007284,新規,0,2025-09-10,2025-09-10,一般社団法人琉球アスリートグループ,,その他の設立登記法人,沖縄県,那覇市,牧志３丁目１０番２号,,47,201,9000013,,,,,,,2025-09-10,1,,,,,リュウキュウアスリートグループ,0
236,1370001053034,新規,0,2025-09-10,2025-09-10,株式会社Ｌｏｓ,,株式会社,宮城県,本吉郡南三陸町,志津川字天王山２０２－１,,04,606,9860728,,,,,,,2025-09-10,1,,,,,ロス,0
239,1390003002441,新規,0,2025-09-10,2025-09-10,合同会社鶴石産業,,合同会社,山形県,鶴岡市,丸岡字鳥飼１２９番地１,,06,203,9970334,,,,,,,2025-09-10,1,,,,,,0
243,1410001014270,新規,0,2025-09-10,2025-09-10,伏見屋商店株式会社,,株式会社,秋田県,仙北市,角館町横町２７番地,,05,215,0140323,,,,,,,2025-09-10,1,,,,,フシミヤショウテン,0
249,1430001095268,新規,0,2025-09-10,2025-09-10,Ｍ　Ｂｒｉｄｇｅ株式会社,,株式会社,北海道,札幌市中央区,旭ケ丘１丁目１０‐１‐２０２,,01,101,0640941,,,,,,,2025-09-10,1,,,,,エムブリッジ,0
257,1500001026505,新規,0,2025-09-10,2025-09-10,株式会社亀,,株式会社,愛媛県,宇和島市,寄松甲５１８番地３,,38,203,7980084,,,,,,,2025-09-10,1,,,,,カメ,0
260,1700150131977,新規,0,2025-09-10,2025-09-10,ＮＯＴＴＡ　ＰＴＥ．ＬＴＤ．,,外国会社等,東京都,千代田区,大手町１丁目９番２号大手町フィナンシャルシティグランキューブ３階（Ｎｏｔｔａ株式会社）,,13,101,1000004,９　Ｒａｆｆｌｅｓ　Ｐｌａｃｅ，＃２６－０１，Ｒｅｐｕｂｌｉｃ　Ｐｌａｚａ，Ｓｉｎｇａｐｏｒｅ,,,,,,2025-09-10,1,,,,,ノッタユウゲンセキニンガイシヤ,0
261,1700150132133,新規,0,2025-09-10,2025-09-10,ｓｈｅｎｚｈｅｎｓｈｉｃｈｕａｎｇｋｏｎｇｋｅｊｉｙｏｕｘｉａｎｇｏｎｇｓｉ,,外国会社等,,,,,,,,ｓｈｅｎｚｈｅｎｓｈｉｌｏｎｇｇａｎｇｑｕｎａｎｗａｎｊｉｅｄａｏｋａｎｇｌｅｓｈｅｑｕｚｈｏｎｇｈａｉｘｉｎｃｈｕａｎｇｘｉｎｃｈａｎｙｅｃｈｅｎｇ８ｄｏｎｇ５０３，Ｓｈｅｎｚｈｅｎ，Ｇｕａｎｇｄｏｎｇ，５１８０００,,,,,,2025-09-10,1,,,,,シェンジェンシーチュワンコンコージーヨウシエンゴンスー,0
267,2010001258171,新規,0,2025-09-10,2025-09-10,株式会社リーフムーン,,株式会社,東京都,中央区,銀座４丁目１０－１銀座ＡＺＡビル９階,,13,102,1040061,,,,,,,2025-09-10,1,,,,,リーフムーン,0
268,2010001258320,新規,0,2025-09-10,2025-09-10,匯興株式会社,,株式会社,東京都,千代田区,神田北乗物町２神田北乗物町ビル６０２,,13,101,1010036,,,,,,,2025-09-10,1,,,,,カイキョウ,0
269,2010001258353,新規,0,2025-09-10,2025-09-10,ティーエルシーロクワット株式会社,,株式会社,東京都,千代田区,神田練塀町３番地,,13,101,1010022,,,,,,,2025-09-10,1,,,,,ティーエルシーロクワット,0
270,2010001258378,新規,0,2025-09-10,2025-09-10,株式会社Ａ＆Ｋデザイン・ホールディングス,,株式会社,東京都,千代田区,丸の内２丁目４番１号,,13,101,1000005,,,,,,,2025-09-10,1,,,,,エーアンドケーデザインホールデイングス,0
271,2010001258403,新規,0,2025-09-10,2025-09-10,ＤＰ　Ｗｏｒｌｄ　Ｊａｐａｎ株式会社,,株式会社,東京都,千代田区,大手町１丁目５番１号大手町ファーストスクエアイーストタワー４階,,13,101,1000004,,,,,,,2025-09-10,1,,,,,ディーピーワールドジャパン,0
272,2010001258411,新規,0,2025-09-10,2025-09-10,株式会社オクタゴン,,株式会社,東京都,千代田区,有楽町１丁目５番２号１１Ｆ,,13,101,1000006,,,,,,,2025-09-10,1,,,,,オクタゴン,0
282,2010401192838,新規,0,2025-09-10,2025-09-10,株式会社Ｏｐｅｎ　Ｍａｒｋｅｔ,,株式会社,東京都,港区,西麻布４丁目１０番９号ＦＬＡＴＳ．Ｙ．２０１,,13,103,1060031,,,,,,,2025-09-10,1,,,,,オープンマーケット,0
285,2010403035994,新規,0,2025-09-10,2025-09-10,創建設備合同会社,,合同会社,東京都,港区,北青山１丁目３番１号アールキューブ青山３Ｆ,,13,103,1070061,,,,,,,2025-09-10,1,,,,,ソウケンセツビ,0
292,2010603011770,新規,0,2025-09-10,2025-09-10,イモビリエール合同会社,,合同会社,東京都,江東区,東雲１丁目９番４３－２７１１,,13,108,1350062,,,,,,,2025-09-10,1,,,,,イモビリエール,0
293,2010603011787,新規,0,2025-09-10,2025-09-10,南宝合同会社,,合同会社,東京都,江東区,東砂７丁目１０番３－４１２号,,13,108,1360074,,,,,,,2025-09-10,1,,,,,ナンボウ,0
298,2010901058051,新規,0,2025-09-10,2025-09-10,株式会社レスパイラル,,株式会社,東京都,世田谷区,上野毛２丁目２１－１２－２０５,,13,112,1580093,,,,,,,2025-09-10,1,,,,,レスパイラル,0
299,2010901058068,新規,0,2025-09-10,2025-09-10,株式会社舟見企画,,株式会社,東京都,世田谷区,中町２丁目３０番２５号チッタ・カーザ・ビアンカＩＩＩ１０１,00140603,13,112,1580091,,,,,,,2025-09-10,1,,,,,フナミキカク,0
303,2011001171884,新規,0,2025-09-10,2025-09-10,株式会社オフィスロミオ,,株式会社,東京都,渋谷区,渋谷３丁目６番２号,,13,113,1500002,,,,,,,2025-09-10,1,,,,,オフィスロミオ,0
304,2011001171901,新規,0,2025-09-10,2025-09-10,株式会社ｉ‐ｍｅ　ＣＯＳＴＵＭＥ,,株式会社,東京都,渋谷区,円山町５番３号ＭＩＥＵＸ渋谷ビル８階,,13,113,1500044,,,,,,,2025-09-10,1,,,,,アイミーコスチューム,0
305,2011001172387,新規,0,2025-09-10,2025-09-10,株式会社クリクロ,,株式会社,東京都,目黒区,自由が丘２丁目１６番１２号ＲＪ３,,13,110,1520035,,,,,,,2025-09-10,1,,,,,クリクロ,0
306,2011003022342,新規,0,2025-09-10,2025-09-10,合同会社ＱＬＥＥＤ,,合同会社,東京都,渋谷区,道玄坂１丁目１０番８号渋谷道玄坂東急ビル２Ｆ－Ｃ,,13,113,1500043,,,,,,,2025-09-10,1,,,,,クリード,0
311,2011101113225,新規,0,2025-09-10,2025-09-10,株式会社ＵＫ企画,,株式会社,東京都,新宿区,歌舞伎町１丁目１１―５,,13,104,1600021,,,,,,,2025-09-10,1,,,,,ユーケーキカク,0
316,2011201026632,新規,0,2025-09-10,2025-09-10,株式会社ＷｈｅｎＰｉｇｓＦｌｙ,,株式会社,東京都,中野区,野方１丁目１５番９号２Ｆ,,13,114,1650027,,,,,,,2025-09-10,1,,,,,ウェンピッグスフライ,0
317,2011301030872,新規,0,2025-09-10,2025-09-10,ミレナ株式会社,,株式会社,東京都,杉並区,高井戸東３丁目３５番１０－２０３号,,13,115,1680072,,,,,,,2025-09-10,1,,,,,ミレナ,0
318,2011401027389,新規,0,2025-09-10,2025-09-10,ＴＭＥＩ株式会社,,株式会社,東京都,板橋区,南常盤台１丁目１６－１５嶋崎第二ビル３０３号,,13,119,1740072,,,,,,,2025-09-10,1,,,,,ティーエムイーアイ,0
320,2011501032520,新規,0,2025-09-10,2025-09-10,欧和吉美株式会社,,株式会社,東京都,荒川区,西尾久６丁目２４番３－１０７号,,13,118,1160011,,,,,,,2025-09-10,1,,,,,オウワヨシビ,0
324,2011701028731,新規,0,2025-09-10,2025-09-10,株式会社ＫＲＥ　Ａｐｐｒａｉｓａｌ,,株式会社,東京都,江戸川区,西葛西１丁目１４番２―２０２号,,13,123,1340088,,,,,,,2025-09-10,1,,,,,ケーアルイーアプレイザル,0
330,2012401043574,新規,0,2025-09-10,2025-09-10,株式会社ＩＯ３ソリューションズ,,株式会社,東京都,狛江市,和泉本町２丁目２６番１３号,,13,219,2010003,,,,,,,2025-09-10,1,,,,,アイオースリーソリューションズ,0
338,2020001164740,新規,0,2025-09-10,2025-09-10,株式会社Ｂｅ　Ｅｙｅｓ,,株式会社,神奈川県,横浜市青葉区,あざみ野４丁目２番地２フォースタウンあざみ野３０３,,14,117,2250011,,,,,,,2025-09-10,1,,,,,ビーアイズ,0
339,2020001164815,新規,0,2025-09-10,2025-09-10,株式会社ｈｏｎｅｓＴｅａ,,株式会社,神奈川県,横浜市青葉区,美しが丘２丁目２５－１Ｗ６３８,,14,117,2250002,,,,,,,2025-09-10,1,,,,,オネスティー,0
344,2020003029339,新規,0,2025-09-10,2025-09-10,合同会社シェルパ,,合同会社,神奈川県,横浜市西区,北幸２丁目１０番４８号むつみビル３階,,14,103,2200004,,,,,,,2025-09-10,1,,,,,シェルパ,0
347,2021001086223,新規,0,2025-09-10,2025-09-10,株式会社ミキ彫刻,,株式会社,神奈川県,愛甲郡愛川町,半原１４０４番地の７,,14,401,2430307,,,,,,,2025-09-10,1,,,,,ミキチョウコク,0
348,2021001086256,新規,0,2025-09-10,2025-09-10,ＭＳエンジニアリングラボ株式会社,,株式会社,神奈川県,藤沢市,辻堂元町６丁目２４番２３号,,14,205,2510043,,,,,,,2025-09-10,1,,,,,エムエスエンジニアリングラボ,0
349,2021001086280,新規,0,2025-09-10,2025-09-10,株式会社Ｌ＆ｃ．,,株式会社,神奈川県,海老名市,国分南１丁目２７番３０号,,14,215,2430405,,,,,,,2025-09-10,1,,,,,エルアンドシー,0
351,2021003016517,新規,0,2025-09-10,2025-09-10,ＲＲ　ＴＲＡＤＩＮＧ合同会社,,合同会社,神奈川県,横須賀市,富士見町１丁目５番地９レジデンスＺ２０１,,14,201,2380021,,,,,,,2025-09-10,1,,,,,アールアールトレーディング,0
352,2021003016533,新規,0,2025-09-10,2025-09-10,合同会社ＥＣアシスト,,合同会社,神奈川県,藤沢市,辻堂東海岸２丁目９番１１号,,14,205,2510045,,,,,,,2025-09-10,1,,,,,イーシーアシスト,0
354,2030001168443,新規,0,2025-09-10,2025-09-10,株式会社ロッソ,,株式会社,埼玉県,越谷市,蒲生寿町１８番４８号８０２号,,11,222,3430836,,,,,,,2025-09-10,1,,,,,ロッソ,0
355,2030001168484,新規,0,2025-09-10,2025-09-10,Ｏｎｅ　Ｐｌｕｓ株式会社,,株式会社,埼玉県,川口市,中青木３丁目７番２１号,,11,203,3320032,,,,,,,2025-09-10,1,,,,,ワンプラス,0
357,2030003027531,新規,0,2025-09-10,2025-09-10,合同会社すくすく,,合同会社,埼玉県,所沢市,北中１丁目１９１番地の３チッチの森２０１,,11,208,3591101,,,,,,,2025-09-10,1,,,,,スクスク,0
358,2030003027556,新規,0,2025-09-10,2025-09-10,合同会社共考舎,,合同会社,埼玉県,北葛飾郡松伏町,ゆめみ野東３丁目７番地９,,11,465,3430114,,,,,,,2025-09-10,1,,,,,キョウコウシャ,0
361,2040001140434,新規,0,2025-09-10,2025-09-10,株式会社春咲,,株式会社,千葉県,松戸市,胡録台４７－１０,,12,207,2710075,,,,,,,2025-09-10,1,,,,,ハルサキ,0
362,2040001140442,新規,0,2025-09-10,2025-09-10,株式会社ＫｉｎｇＣｏｍｍｅｒｃｅ,,株式会社,千葉県,松戸市,二ツ木１３１７番地の７,,12,207,2700027,,,,,,,2025-09-10,1,,,,,キングコマース,0
363,2040001140450,新規,0,2025-09-10,2025-09-10,株式会社ＫＮＤＫ,,株式会社,千葉県,松戸市,六実３丁目２１番地の５,,12,207,2702204,,,,,,,2025-09-10,1,,,,,ケイエヌディーケイ,0
370,2040003028479,新規,0,2025-09-10,2025-09-10,Ｖｂｉｏ合同会社,,合同会社,千葉県,印西市,滝野１丁目１４番１号,,12,231,2702329,,,,,,,2025-09-10,1,,,,,ヴイビオ,0
373,2050001057223,新規,0,2025-09-10,2025-09-10,株式会社ＫＡＩＴＯコーポレーション,,株式会社,茨城県,土浦市,大手町１３番１５号,,08,203,3000044,,,,,,,2025-09-10,1,,,,,カイトコーポレーション,0
374,2050001057256,新規,0,2025-09-10,2025-09-10,株式会社ＭＧＳ,,株式会社,茨城県,土浦市,神立町１７６３番地８,,08,203,3000013,,,,,,,2025-09-10,1,,,,,エムジーエス,0
387,2100001038936,新規,0,2025-09-10,2025-09-10,株式会社吉川ミート,,株式会社,長野県,飯田市,桐林１０５１番地４,,20,205,3992565,,,,,,,2025-09-10,1,,,,,ヨシカワミート,0
401,2120001279363,新規,0,2025-09-10,2025-09-10,株式会社ＭＡＩＬＬＯＮ,,株式会社,大阪府,大阪市北区,梅田２丁目４番９号ブリーゼタワー,,27,127,5300001,,,,,,,2025-09-10,1,,,,,マイヨン,0
402,2120001279438,新規,0,2025-09-10,2025-09-10,株式会社方程式,,株式会社,大阪府,大阪市淀川区,塚本４丁目１２番１８号,,27,123,5320026,,,,,,,2025-09-10,1,,,,,ホウテイシキ,0
403,2120001279446,新規,0,2025-09-10,2025-09-10,株式会社イートファクトリーインターナショナル,,株式会社,大阪府,大阪市北区,天神橋３丁目４番１４号,,27,127,5300041,,,,,,,2025-09-10,1,,,,,イートファクトリーインターナショナル,0
404,2120001279454,新規,0,2025-09-10,2025-09-10,株式会社ｔｏｐｏ,,株式会社,大阪府,大阪市北区,鶴野町３番９－２３０３号,,27,127,5300014,,,,,,,2025-09-10,1,,,,,トプ,0
405,2120001279561,新規,0,2025-09-10,2025-09-10,日本グリーンエネルギー株式会社,,株式会社,大阪府,大阪市西区,立売堀４丁目３番１６号５０３室,,27,106,5500012,,,,,,,2025-09-10,1,,,,,ニホングリーンエネルギー,0
410,2120003030484,新規,0,2025-09-10,2025-09-10,カインファミリー合同会社,,合同会社,大阪府,大阪市城東区,諏訪４丁目６番３０－１０３号室,,27,118,5360021,,,,,,,2025-09-10,1,,,,,カインファミリー,0
411,2120003030518,新規,0,2025-09-10,2025-09-10,合同会社ＹＫコンサルティング,,合同会社,大阪府,大阪市中央区,内本町２丁目３－８－２０１,,27,128,5400026,,,,,,,2025-09-10,1,,,,,ワイケイコンサルティング,0
415,2120101072387,新規,0,2025-09-10,2025-09-10,智恵のもと株式会社,,株式会社,大阪府,和泉市,福瀬町２５３番地の３,,27,219,5941123,,,,,,,2025-09-10,1,,,,,チエノモト,0
418,2120105010062,新規,0,2025-09-10,2025-09-10,一般社団法人川上フットボールクラブ,,その他の設立登記法人,大阪府,河内長野市,清見台１丁目８番１４号,,27,216,5860043,,,,,,,2025-09-10,1,,,,,カワカミフットボールクラブ,0
431,2140003022554,新規,0,2025-09-10,2025-09-10,合同会社ＡＩＷｉｔｈ,,合同会社,兵庫県,三田市,けやき台５丁目２５番地２５３,,28,219,6691321,,,,,,,2025-09-10,1,,,,,アイウィズ,0
435,2150003003702,新規,0,2025-09-10,2025-09-10,ホーテック合同会社,,合同会社,奈良県,桜井市,安倍木材団地２丁目３番地の１,,29,206,6330055,,,,,,,2025-09-10,1,,,,,ホーテック,0
440,2180001168503,新規,0,2025-09-10,2025-09-10,Ｄａｉｔｏ　Ｍａｉｓｏｎ株式会社,,株式会社,愛知県,小牧市,若草町１８８番地ハイツ若草Ａ棟２０１号,,23,219,4850031,,,,,,,2025-09-10,1,,,,,ダイトウメゾン,0
441,2180001168544,新規,0,2025-09-10,2025-09-10,株式会社ＭＹＮ,,株式会社,愛知県,名古屋市中村区,鳥居通２丁目２５－１タカラフローリッシュ１階,,23,105,4530044,,,,,,,2025-09-10,1,,,,,エムワイエヌ,0
442,2180001168577,新規,0,2025-09-10,2025-09-10,株式会社グレイスターランド,,株式会社,愛知県,名古屋市中区,丸の内３丁目２３番２０号,,23,106,4600002,,,,,,,2025-09-10,1,,,,,グレイスターランド,0
443,2180001168602,新規,0,2025-09-10,2025-09-10,株式会社美秋,,株式会社,愛知県,一宮市,赤見３丁目３番３号,,23,203,4910023,,,,,,,2025-09-10,1,,,,,ビシュウ,0
446,2180003029018,新規,0,2025-09-10,2025-09-10,合同会社ＤＡｄａ,,合同会社,愛知県,名古屋市北区,木津根町５９－２,,23,103,4620851,,,,,,,2025-09-10,1,,,,,ダダ,0
449,2180301040188,新規,0,2025-09-10,2025-09-10,株式会社ケイ工業,,株式会社,愛知県,豊田市,若林東町宮間２２番地６,,23,211,4730914,,,,,,,2025-09-10,1,,,,,ケイコウギョウ,0
457,2230001021078,新規,0,2025-09-10,2025-09-10,株式会社庄司タイヤ商会,,株式会社,富山県,富山市,北代６４５３番地２,,16,201,9300103,,,,,,,2025-09-10,1,,,,,ショウジタイヤショウカイ,0
462,2240001065487,新規,0,2025-09-10,2025-09-10,株式会社ダンソン,,株式会社,広島県,広島市中区,江波西２丁目８番２６－３０１号,,34,101,7300831,,,,,,,2025-09-10,1,,,,,ダンソン,0
474,2290003017341,新規,0,2025-09-10,2025-09-10,合同会社近藤憲児事務所,,合同会社,福岡県,福岡市中央区,天神４丁目６－２８いちご天神ノースビル７階,,40,133,8100001,,,,,,,2025-09-10,1,,,,,コンドウケンジジムショ,0
498,2360001035759,新規,0,2025-09-10,2025-09-10,株式会社Ｃｏ‐Ｔｈｒｉｖｅ,,株式会社,沖縄県,豊見城市,字豊見城６０９番地１,,47,212,9010241,,,,,,,2025-09-10,1,,,,,コースライブ,0
500,2370005011004,新規,0,2025-09-10,2025-09-10,一般社団法人宮城県知的障害者福祉協会,,その他の設立登記法人,宮城県,仙台市宮城野区,幸町４丁目６番２号,,04,102,9830836,,,,,,,2025-09-10,1,,,,,ミヤギケンチテキショウガイシャフクシキョウカイ,0
502,2380001035567,新規,0,2025-09-10,2025-09-10,株式会社Ｎｏｖａｔｅｒｒａ,,株式会社,福島県,会津若松市,中町１番２０号,,07,202,9650878,,,,,,,2025-09-10,1,,,,,ノバテッラ,0
509,2430001095176,新規,0,2025-09-10,2025-09-10,アイビックファーム株式会社,,株式会社,北海道,札幌市東区,苗穂町１３丁目１番１５号,,01,103,0650043,,,,,,,2025-09-10,1,,,,,アイビックファーム,0
511,2430003018069,新規,0,2025-09-10,2025-09-10,合同会社ＡＸＥ,,合同会社,北海道,札幌市西区,琴似二条３丁目１番３号,,01,107,0630812,,,,,,,2025-09-10,1,,,,,アクス,0
516,2500001026504,新規,0,2025-09-10,2025-09-10,株式会社天叶,,株式会社,愛媛県,松山市,南高井町１６０６番地７,,38,201,7911112,,,,,,,2025-09-10,1,,,,,テンカ,0
517,2700150132082,新規,0,2025-09-10,2025-09-10,ＩＳ　ＭＡＲＩＮＥ　ＣＯ．，　ＬＴＤ,,外国会社等,兵庫県,神戸市中央区,磯辺通１丁目１番１８号７０７号室,,28,110,6510084,ＦＬＡＴ　１０７　２５　ＩＮＤＥＳＣＯＮ　ＳＱＵＡＲＥ　ＬＯＮＤＯＮ　ＥＮＧＬＡＮＤ　Ｅ１４　９ＤＧ,,,,,,2025-09-10,1,,,,,アイエスマリン,0
518,2700150132132,新規,0,2025-09-10,2025-09-10,Ｃｈａｎｇｓｈａ　Ｄｕｏｌｅｍａｎ　Ｅ－ｃｏｍｍｅｒｃｅ　Ｃｏ．，Ｌｔｄ．,,外国会社等,,,,,,,,Ｎｏ．１０１－Ｂ－７４，Ａｎｎｅｘ　Ｂｕｉｌｄｉｎｇｓ　Ａ－１　ａｎｄ　Ａ－２，Ｈａｉｃｈｕａｎｇ　Ｔｅｃｈｎｏｌｏｇｙ　Ｉｎｄｕｓｔｒｉａｌ　Ｐａｒｋ，Ｎｏ．６２７，Ｌｕｇｕ　Ａｖｅｎｕｅ，Ｌｕｇｕ　Ｓｕｂ－ｄｉｓｔｒｉｃｔ，Ｘｉａｎｇｊｉａｎｇ　Ｎｅｗ　Ａｒｅａ，Ｃｈａｎｇｓｈａ，Ｈｕｎａｎ，４１００００,,,,,,2025-09-10,1,,,,,ジャンシャーシードゥオラーマンディエンズーシャンウーヨウシエンゴンスー,0
523,3010001258352,新規,0,2025-09-10,2025-09-10,ティーエルシーエウラリア株式会社,,株式会社,東京都,千代田区,神田練塀町３番地,,13,101,1010022,,,,,,,2025-09-10,1,,,,,ティーエルシーエウラリア,0
524,3010001258360,新規,0,2025-09-10,2025-09-10,ティーエルシーソレル株式会社,,株式会社,東京都,千代田区,神田練塀町３番地,,13,101,1010022,,,,,,,2025-09-10,1,,,,,ティーエルシーソレル,0
525,3010001258377,新規,0,2025-09-10,2025-09-10,スコレーセントリック株式会社,,株式会社,東京都,中央区,銀座１丁目１２番４号Ｎ＆ＥＢＬＤ．６Ｆ,,13,102,1040061,,,,,,,2025-09-10,1,,,,,スコレーセントリック,0
526,3010001258402,新規,0,2025-09-10,2025-09-10,１２００株式会社,,株式会社,東京都,文京区,小石川２丁目１８－１,,13,105,1120002,,,,,,,2025-09-10,1,,,,,イチニゼロゼロ,0
530,3010003048669,新規,0,2025-09-10,2025-09-10,合同会社ヨウコ商事,,合同会社,東京都,千代田区,神田錦町３丁目１５錦精社神田ビル天翔オフィス大手町竹橋２階２１１号室,,13,101,1010054,,,,,,,2025-09-10,1,,,,,ヨウコショウジ,0
531,3010003048693,新規,0,2025-09-10,2025-09-10,合同会社スパート,,合同会社,東京都,中央区,日本橋室町４丁目３番５号,,13,102,1030022,,,,,,,2025-09-10,1,,,,,スパート,0
534,3010005040649,新規,0,2025-09-10,2025-09-10,一般社団法人ＡＴＪ１３,,その他の設立登記法人,東京都,千代田区,丸の内１丁目４番１号東京共同会計事務所内,,13,101,1000005,,,,,,,2025-09-10,1,,,,,エーティージェイサーティーン,0
545,3010405024722,新規,0,2025-09-10,2025-09-10,一般財団法人久石譲財団,,その他の設立登記法人,東京都,港区,西麻布４丁目２０番３号西麻布ＨＯＵＳＥ２０２,,13,103,1060031,,,,,,,2025-09-10,1,,,,,ヒサイシジョウザイダン,0
550,3010601067954,新規,0,2025-09-10,2025-09-10,株式会社Ｓ．ＢＯＸ,,株式会社,東京都,江東区,大島４丁目１８番１０号,,13,108,1360072,,,,,,,2025-09-10,1,,,,,エスボックス,0
552,3010603011786,新規,0,2025-09-10,2025-09-10,合同会社ＹＡＥ,,合同会社,東京都,墨田区,東向島５丁目７番１５号,,13,107,1310032,,,,,,,2025-09-10,1,,,,,ヤエ,0
554,3010701048284,新規,0,2025-09-10,2025-09-10,ＳＴＡＬＥＫＳ株式会社,,株式会社,東京都,品川区,大崎３丁目５－２エステージ大崎ビル６階オープンオフィス大崎駅西口６２４,,13,109,1410032,,,,,,,2025-09-10,1,,,,,スタレクス,0
557,3010705003797,新規,0,2025-09-10,2025-09-10,医療法人社団ＳＭＡＲＴ,,その他の設立登記法人,東京都,品川区,南大井２丁目１２番１号大森パークハイツ１０９号室,,13,109,1400013,,,,,,,2025-09-10,1,,,,,スマート,0
561,3010901058059,新規,0,2025-09-10,2025-09-10,株式会社ティロリ,,株式会社,東京都,世田谷区,深沢６丁目１７－１４,,13,112,1580081,,,,,,,2025-09-10,1,,,,,ティロリ,0
563,3010903010257,新規,0,2025-09-10,2025-09-10,合同会社前原ライフ＆ケア,,合同会社,東京都,世田谷区,太子堂４丁目２８番６号サンハイツ,,13,112,1540004,,,,,,,2025-09-10,1,,,,,マエハラライフアンドケア,0
571,3011001171891,新規,0,2025-09-10,2025-09-10,株式会社ＥＮＥ　ＧＲＡＭ,,株式会社,東京都,渋谷区,道玄坂１丁目１０番８号渋谷道玄坂東急ビル２Ｆ－Ｃ,,13,113,1500043,,,,,,,2025-09-10,1,,,,,エネグラム,0
572,3011001171900,新規,0,2025-09-10,2025-09-10,株式会社Ａｎａｎｔａ,,株式会社,東京都,渋谷区,道玄坂１丁目１０番８号渋谷道玄坂東急ビル２Ｆ－Ｃ,,13,113,1500043,,,,,,,2025-09-10,1,,,,,アナンタ,0
573,3011001171909,新規,0,2025-09-10,2025-09-10,株式会社ＡＴＯＯＳＨＩ,,株式会社,東京都,渋谷区,道玄坂１丁目１０番８号渋谷道玄坂東急ビル２Ｆ－Ｃ,,13,113,1500043,,,,,,,2025-09-10,1,,,,,アトオシ,0
574,3011001172304,新規,0,2025-09-10,2025-09-10,株式会社ＲｅＢｒｉｄｇｅ　Ｐａｒｔｎｅｒｓ,,株式会社,東京都,渋谷区,神南１丁目１８番２号フレーム神南坂４Ｆ,,13,113,1500041,,,,,,,2025-09-10,1,,,,,リブリッジパートナーズ,0
575,3011001172411,新規,0,2025-09-10,2025-09-10,リバティゲート・コンサルティング株式会社,,株式会社,東京都,渋谷区,円山町５番３号ＭＩＥＵＸ渋谷ビル８階,,13,113,1500044,,,,,,,2025-09-10,1,,,,,リバティゲートコンサルティング,0
579,3011003022341,新規,0,2025-09-10,2025-09-10,ＰＬＡＹ‐ｆｕｌ合同会社,,合同会社,東京都,目黒区,中目黒１丁目１０番２２－９０５号中目黒ハイツ,,13,110,1530061,,,,,,,2025-09-10,1,,,,,プレイフル,0
580,3011005011169,新規,0,2025-09-10,2025-09-10,リタブレイン行政書士法人,,その他の設立登記法人,東京都,渋谷区,神泉町２０番２１号クロスシー渋谷神泉ビル４－１３,,13,113,1500045,,,,,,,2025-09-10,1,,,,,リタブレイン,0
583,3011101112977,新規,0,2025-09-10,2025-09-10,株式会社セキュアホーム,,株式会社,東京都,新宿区,新宿２丁目８－１新宿セブンビル２０５号,,13,104,1600022,,,,,,,2025-09-10,1,,,,,セキュアホーム,0
591,3011501032536,新規,0,2025-09-10,2025-09-10,株式会社服部断熱工業,,株式会社,東京都,荒川区,東日暮里２丁目４４番４号,,13,118,1160014,,,,,,,2025-09-10,1,,,,,ハットリダンネツコウギョウ,0
592,3011501032544,新規,0,2025-09-10,2025-09-10,ティエリス株式会社,,株式会社,東京都,北区,田端新町１丁目２２番９－１２０１号,,13,117,1140012,,,,,,,2025-09-10,1,,,,,ティエリス,0
595,3011803007054,新規,0,2025-09-10,2025-09-10,合同会社ＴＯＫＩＨＯ,,合同会社,東京都,葛飾区,西新小岩４丁目２３－５かつしか創業会館,,13,122,1240025,,,,,,,2025-09-10,1,,,,,トキホ,0
598,3012701019067,新規,0,2025-09-10,2025-09-10,リトモ株式会社,,株式会社,東京都,小平市,回田町２０１番地の３２,,13,211,1870013,,,,,,,2025-09-10,1,,,,,リトモ,0
599,3012801024248,新規,0,2025-09-10,2025-09-10,株式会社ＢｒａｈｍａＳｔｕｄｉｏ,,株式会社,東京都,日野市,大坂上２丁目５番地の１３,,13,212,1910061,,,,,,,2025-09-10,1,,,,,ブラフマスタジオ,0
600,3012803003860,新規,0,2025-09-10,2025-09-10,合同会社檜翠,,合同会社,東京都,日野市,万願寺２丁目２７番地の４９,,13,212,1910024,,,,,,,2025-09-10,1,,,,,ヒスイ,0
601,3013301054883,新規,0,2025-09-10,2025-09-10,株式会社２．１,,株式会社,東京都,豊島区,東池袋１丁目３５番３号池袋センタービル２階,,13,116,1700013,,,,,,,2025-09-10,1,,,,,ニテンイチ,0
602,3013305003746,新規,0,2025-09-10,2025-09-10,一般社団法人江蘇大学日本同窓会,,その他の設立登記法人,東京都,豊島区,東池袋１丁目３２－７大樹生命池袋ビル２階,,13,116,1700013,,,,,,,2025-09-10,1,,,,,コウソダイガクニホンドウソウカイ,0
609,3020001164764,新規,0,2025-09-10,2025-09-10,株式会社ＭＡＫＥＳＴＲＡ,,株式会社,神奈川県,川崎市多摩区,菅稲田堤１丁目２番３６－４０３号,,14,135,2140003,,,,,,,2025-09-10,1,,,,,メイケストラ,0
610,3020001164789,新規,0,2025-09-10,2025-09-10,株式会社ソーシャルブースト,,株式会社,神奈川県,横浜市保土ケ谷区,常盤台３３番１３－６０３号,,14,106,2400067,,,,,,,2025-09-10,1,,,,,ソーシャルブースト,0
611,3020001164822,新規,0,2025-09-10,2025-09-10,株式会社ＫＵＭＡ　Ａ＆Ｄ,,株式会社,神奈川県,横浜市泉区,弥生台２５番地１,,14,116,2450008,,,,,,,2025-09-10,1,,,,,クマエーアンドディー,0
613,3020003029346,新規,0,2025-09-10,2025-09-10,ＹＫＹ合同会社,,合同会社,神奈川県,横浜市青葉区,榎が丘５３－３９,,14,117,2270063,,,,,,,2025-09-10,1,,,,,ワイケーワイ,0
616,3021001086222,新規,0,2025-09-10,2025-09-10,株式会社成共グループ,,株式会社,神奈川県,大和市,西鶴間１丁目３番２号太陽ビル第１３－２Ｆ,,14,213,2420005,,,,,,,2025-09-10,1,,,,,セイキョウグループ,0
617,3021001086263,新規,0,2025-09-10,2025-09-10,株式会社Ｍａｋｅ　Ｌｏｃａｌ　Ｐｏｗｅｒｆｕｌ,,株式会社,神奈川県,横須賀市,日の出町１丁目７番地日の出町ＳＴビル３階,,14,201,2380006,,,,,,,2025-09-10,1,,,,,メイクローカルパワフル,0
623,3030003027514,新規,0,2025-09-10,2025-09-10,合同会社Ｆｉｔ　Ｔｅｒｒａｃｅ２４,,合同会社,埼玉県,さいたま市岩槻区,本町４丁目１０－８,,11,110,3390057,,,,,,,2025-09-10,1,,,,,フィットテラスニジュウヨン,0
624,3030003027571,新規,0,2025-09-10,2025-09-10,合同会社ＶＩＬＬＡＧＥ,,合同会社,埼玉県,川越市,大手町２－３,,11,201,3500057,,,,,,,2025-09-10,1,,,,,ヴィレッジ,0
630,3040003028544,新規,0,2025-09-10,2025-09-10,合同会社Ｋｅｙａｋｅｋｉ,,合同会社,千葉県,野田市,なみき３丁目８番地７,,12,208,2700229,,,,,,,2025-09-10,1,,,,,ケヤケキ,0
633,3050001057271,新規,0,2025-09-10,2025-09-10,ＡＡＲＪＡＮ株式会社,,株式会社,茨城県,つくば市,二の宮３丁目７番地２キャサＩＩ２０２号,00140607,08,220,3050051,,,,,,,2025-09-10,1,,,,,アールジャン,0
641,3080003003551,新規,0,2025-09-10,2025-09-10,ＥＤＩＴ合同会社,,合同会社,静岡県,静岡市葵区,羽鳥本町２７－５３,,22,101,4211217,,,,,,,2025-09-10,1,,,,,エディット,0
646,3100003008382,新規,0,2025-09-10,2025-09-10,ＭＩＮＨ　ＮＨＡＴ合同会社,,合同会社,長野県,長野市,三輪５丁目４１番１６号コーポヤヨイ２０５,,20,201,3800803,,,,,,,2025-09-10,1,,,,,ミンニヤット,0
654,3120001279461,新規,0,2025-09-10,2025-09-10,ＣＩＭ　Ｊａｐａｎ株式会社,,株式会社,大阪府,大阪市中央区,松屋町９番２０号ローレルステート松屋町５０２Ｂ,,27,128,5420067,,,,,,,2025-09-10,1,,,,,シーアイエムジャパン,0
655,3120001279486,新規,0,2025-09-10,2025-09-10,株式会社碧,,株式会社,大阪府,大阪市中央区,谷町９丁目３番７号,,27,128,5420012,,,,,,,2025-09-10,1,,,,,アオ,0
656,3120001279494,新規,0,2025-09-10,2025-09-10,株式会社ＥＢ　Ｊａｐａｎ,,株式会社,大阪府,大阪市港区,弁天３丁目１０番２０号港ＯＧＩビル４０７号室,,27,107,5520007,,,,,,,2025-09-10,1,,,,,イービージャパン,0
657,3120001279511,新規,0,2025-09-10,2025-09-10,ＦＧＭ設備株式会社,,株式会社,大阪府,大阪市東住吉区,照ケ丘矢田１丁目１３番９号キャンパスコート東住吉１０４号室,,27,121,5460021,,,,,,,2025-09-10,1,,,,,エフジーエムセツビ,0
658,3120001279560,新規,0,2025-09-10,2025-09-10,＿図株式会社,00140598,株式会社,大阪府,大阪市東成区,大今里３丁目１５番６号ＩｍａｚａｔｏＴｏｗｅｒ３０４Ａ,,27,115,5370012,,,,,,,2025-09-10,1,,,,,ビズ,0
659,3120003030509,新規,0,2025-09-10,2025-09-10,合同会社結の手,,合同会社,大阪府,大阪市浪速区,元町１丁目１１‐８サキモトビル４０２‐２,,27,111,5560016,,,,,,,2025-09-10,1,,,,,ユイノテ,0
660,3120003030582,新規,0,2025-09-10,2025-09-10,ＭｏＦｕ　Ｌａｎｄ合同会社,,合同会社,大阪府,大阪市中央区,平野町１丁目８－１３平野町八千代ビル３１９号室,,27,128,5410046,,,,,,,2025-09-10,1,,,,,モフランド,0
661,3120103006689,新規,0,2025-09-10,2025-09-10,速通合同会社,,合同会社,大阪府,泉佐野市,日根野５７００番地の５０,,27,213,5980021,,,,,,,2025-09-10,1,,,,,ソクツウ,0
662,3120103006697,新規,0,2025-09-10,2025-09-10,なごみ２４企画合同会社,,合同会社,大阪府,泉佐野市,長滝１７４２番地,,27,213,5980034,,,,,,,2025-09-10,1,,,,,ナゴミニイヨンキカク,0
663,3120901051473,新規,0,2025-09-10,2025-09-10,株式会社ＧＤ,,株式会社,大阪府,茨木市,大池２丁目１２番１９号,,27,211,5670826,,,,,,,2025-09-10,1,,,,,ジーディー,0
667,3122005003847,新規,0,2025-09-10,2025-09-10,ＮＰＯ法人ＦＭＣＡ,,その他の設立登記法人,大阪府,東大阪市,花園西町２丁目６番１４号,,27,227,5780936,,,,,,,2025-09-10,1,,,,,エフエムシーエー,0
671,3130005017453,新規,0,2025-09-10,2025-09-10,一般社団法人香道の会,,その他の設立登記法人,京都府,京都市上京区,室町通今出川上る築山北半町２１６番地４,,26,102,6020038,,,,,,,2025-09-10,1,,,,,コウドウノカイ,0
676,3150003003701,新規,0,2025-09-10,2025-09-10,合同会社Ｆｕｋｕ,,合同会社,奈良県,高市郡高取町,大字越智７１番地３,,29,401,6350144,,,,,,,2025-09-10,1,,,,,フク,0
684,3180001168345,新規,0,2025-09-10,2025-09-10,アリソンカフェ株式会社,,株式会社,愛知県,名古屋市瑞穂区,豊岡通２丁目１７番地サンテラス瑞穂１Ｂ,,23,108,4670012,,,,,,,2025-09-10,1,,,,,アリソンカフェ,0
688,3180003029017,新規,0,2025-09-10,2025-09-10,合同会社ＫＡＮＡＲＩＥ,,合同会社,愛知県,春日井市,弥生町１丁目３３番地,,23,206,4860838,,,,,,,2025-09-10,1,,,,,カナリエ,0
691,3180301040187,新規,0,2025-09-10,2025-09-10,株式会社はかり屋,,株式会社,愛知県,刈谷市,今川町３丁目１０６番地,,23,210,4480005,,,,,,,2025-09-10,1,,,,,ハカリヤ,0
693,3190001032525,新規,0,2025-09-10,2025-09-10,株式会社ＴＫ,,株式会社,三重県,四日市市,ときわ３丁目１番１７号,,24,202,5100834,,,,,,,2025-09-10,1,,,,,ティケイ,0
700,3260001040529,新規,0,2025-09-10,2025-09-10,株式会社士水,,株式会社,岡山県,倉敷市,西坂１３４２番地３４４,,33,202,7100004,,,,,,,2025-09-10,1,,,,,シスイ,0
711,3300005007263,新規,0,2025-09-10,2025-09-10,特定非営利活動法人Ｄ‐ＳＵＰＰＯＲＴ,,その他の設立登記法人,佐賀県,嬉野市,塩田町大字久間乙１０４４番地３,,41,209,8491402,,,,,,,2025-09-10,1,,,,,ディーサポート,0
721,3330001033517,新規,0,2025-09-10,2025-09-10,株式会社ＯＵ警備保障,,株式会社,熊本県,熊本市中央区,本荘６丁目１０－１５,,43,101,8600811,,,,,,,2025-09-10,1,,,,,オーユーケイビホショウ,0
724,3330003011198,新規,0,2025-09-10,2025-09-10,合同会社ツクラス,,合同会社,熊本県,熊本市南区,護藤町２２１０番地,,43,104,8614117,,,,,,,2025-09-10,1,,,,,ツクラス,0
725,3330003011207,新規,0,2025-09-10,2025-09-10,合同会社東建材店,,合同会社,熊本県,人吉市,下漆田町２４５１番地,,43,203,8680822,,,,,,,2025-09-10,1,,,,,ヒガシケンザイテン,0
726,3340001027633,新規,0,2025-09-10,2025-09-10,株式会社ＪＳホールディングス,,株式会社,鹿児島県,鹿児島市,西坂元町１９番８号,,46,201,8920863,,,,,,,2025-09-10,1,,,,,ジェイエスホールディングス,0
743,3380001035566,新規,0,2025-09-10,2025-09-10,株式会社サイドマウンテン,,株式会社,福島県,伊達郡川俣町,字宮町４７番地の４,,07,308,9601461,,,,,,,2025-09-10,1,,,,,サイドマウンテン,0
746,3380003006136,新規,0,2025-09-10,2025-09-10,パソコンサポート・ブレイン合同会社,,合同会社,福島県,郡山市,八山田３丁目１番地イーストピアハイツ１０２号室,,07,203,9638052,,,,,,,2025-09-10,1,,,,,パソコンサポートブレイン,0
756,3470001020880,新規,0,2025-09-10,2025-09-10,株式会社八千代,,株式会社,香川県,観音寺市,吉岡町８８５番地８ルネス吉岡５３号地２０１号室,,37,205,7680021,,,,,,,2025-09-10,1,,,,,ヤチヨ,0
757,3500001026503,新規,0,2025-09-10,2025-09-10,株式会社結,,株式会社,愛媛県,新居浜市,坂井町２丁目９番５６号,,38,205,7920812,,,,,,,2025-09-10,1,,,,,ムスブ,0
758,3500001026511,新規,0,2025-09-10,2025-09-10,株式会社メディカル＆フィットネスＬＩＲ,,株式会社,愛媛県,西条市,喜多台１３０－７,,38,206,7991343,,,,,,,2025-09-10,1,,,,,メディカルアンドフィットネスエルアイアール,0
765,4010001258351,新規,0,2025-09-10,2025-09-10,ティーエルシーターニップ株式会社,,株式会社,東京都,千代田区,神田練塀町３番地,,13,101,1010022,,,,,,,2025-09-10,1,,,,,ティーエルシーターニップ,0
766,4010001258376,新規,0,2025-09-10,2025-09-10,株式会社ＥＤＮ,,株式会社,東京都,千代田区,神田須田町１丁目７番８号ＶＯＲＴ秋葉原ＩＶ２Ｆ,00140596,13,101,1010041,,,,,,,2025-09-10,1,,,,,イーディーエヌ,0
767,4010001258392,新規,0,2025-09-10,2025-09-10,ＰＧＡ株式会社,,株式会社,東京都,千代田区,神田和泉町１－６－１６ヤマトビル４０５,,13,101,1010024,,,,,,,2025-09-10,1,,,,,ピージーエー,0
768,4010003048701,新規,0,2025-09-10,2025-09-10,合同会社Ｇｏｐｅ　Ｐｒｏｐｅｒｔｉｅｓ,,合同会社,東京都,文京区,本郷６丁目９番１－１０３号,,13,105,1130033,,,,,,,2025-09-10,1,,,,,ゴーププロパティーズ,0
769,4010005040648,新規,0,2025-09-10,2025-09-10,一般社団法人ＴＫＧネクストパートナーズ,,その他の設立登記法人,東京都,千代田区,大手町１丁目７番２号東京サンケイビル２７階,,13,101,1000004,,,,,,,2025-09-10,1,,,,,ティーケージーネクストパートナーズ,0
775,4010405024705,新規,0,2025-09-10,2025-09-10,ＫＤＣＲ　Ｔｏｋｙｏ２特定目的会社,,その他の設立登記法人,東京都,港区,西新橋１丁目２２番５号６階,,13,103,1050003,,,,,,,2025-09-10,1,,,,,ケーディーシーアールトウキョウツー,0
777,4010601067648,新規,0,2025-09-10,2025-09-10,株式会社トランスルーセント,,株式会社,東京都,江東区,豊洲３丁目４番１号,,13,108,1350061,,,,,,,2025-09-10,1,,,,,トランスルーセント,0
778,4010601067929,新規,0,2025-09-10,2025-09-10,株式会社住花,,株式会社,東京都,江東区,南砂３丁目８番２－１１１６号,,13,108,1360076,,,,,,,2025-09-10,1,,,,,スミカ,0
779,4010601067937,新規,0,2025-09-10,2025-09-10,株式会社ＳＯＷ,,株式会社,東京都,墨田区,江東橋５丁目１０番５号,,13,107,1300022,,,,,,,2025-09-10,1,,,,,ソウ,0
786,4010701048283,新規,0,2025-09-10,2025-09-10,株式会社ＦＥＲＮＡＮＤＯ,,株式会社,東京都,品川区,戸越１丁目２０番９号,,13,109,1420041,,,,,,,2025-09-10,1,,,,,フェルナンド,0
787,4010703007898,新規,0,2025-09-10,2025-09-10,ＳＨＲＥＳＴＨＡ合同会社,,合同会社,東京都,品川区,二葉２丁目２４番９－３０１号,,13,109,1420043,,,,,,,2025-09-10,1,,,,,スレスタ,0
788,4010803005538,新規,0,2025-09-10,2025-09-10,和＿総研合同会社,00140602,合同会社,東京都,大田区,東海３丁目７番３号東海ビル４１３号,,13,111,1430001,,,,,,,2025-09-10,1,,,,,ワビョウソウケン,0
791,4010901058058,新規,0,2025-09-10,2025-09-10,株式会社アスタリスク,,株式会社,東京都,世田谷区,奥沢２丁目２番１８号,,13,112,1580083,,,,,,,2025-09-10,1,,,,,アスタリスク,0
792,4010903010256,新規,0,2025-09-10,2025-09-10,合同会社スカイコンサルティング,,合同会社,東京都,世田谷区,松原２丁目２－６レジデンス松原１０１号室,,13,112,1560043,,,,,,,2025-09-10,1,,,,,スカイコンサルティング,0
797,4011001171874,新規,0,2025-09-10,2025-09-10,株式会社ｉｍｕｍ,,株式会社,東京都,目黒区,柿の木坂２丁目５番９号ｓｉｇｍａ４０２,,13,110,1520022,,,,,,,2025-09-10,1,,,,,イムウム,0
798,4011001171890,新規,0,2025-09-10,2025-09-10,ＳＡＮＫＹＯ　ＩＺＭ株式会社,,株式会社,東京都,渋谷区,渋谷３丁目２９番１４号,,13,113,1500002,,,,,,,2025-09-10,1,,,,,サンキョウイズム,0
799,4011001171908,新規,0,2025-09-10,2025-09-10,Ｎｅｘｉｇｈｔ株式会社,,株式会社,東京都,渋谷区,道玄坂１丁目１０番８号渋谷道玄坂東急ビル２Ｆ－Ｃ,,13,113,1500043,,,,,,,2025-09-10,1,,,,,ネクサイト,0
800,4011001172328,新規,0,2025-09-10,2025-09-10,株式会社アクトニカ,,株式会社,東京都,渋谷区,道玄坂１丁目１０番８号渋谷道玄坂東急ビル２Ｆ－Ｃ,,13,113,1500043,,,,,,,2025-09-10,1,,,,,アクトニカ,0
806,4011101113231,新規,0,2025-09-10,2025-09-10,落合商事株式会社,,株式会社,東京都,新宿区,中落合３丁目２２‐１５,,13,104,1610032,,,,,,,2025-09-10,1,,,,,オチアイショウジ,0
807,4011103016300,新規,0,2025-09-10,2025-09-10,ハッピースター日本合同会社,,合同会社,東京都,新宿区,新宿２丁目５番３号ＡＭビル７階,,13,104,1600022,,,,,,,2025-09-10,1,,,,,ハッピースターニホン,0
809,4011303005706,新規,0,2025-09-10,2025-09-10,文登致遠合同会社,,合同会社,東京都,杉並区,梅里２丁目２５番１３号高円寺プラザ２０３号－Ｅ室,,13,115,1660011,,,,,,,2025-09-10,1,,,,,ブントチエン,0
814,4011501032551,新規,0,2025-09-10,2025-09-10,ＯＣＥＡＮ　ＭＡＰＬＥ　ＪＡＰＡＮ株式会社,,株式会社,東京都,北区,田端１丁目２０－２４,,13,117,1140014,,,,,,,2025-09-10,1,,,,,オーシャンメイプルジャパン,0
819,4011703004373,新規,0,2025-09-10,2025-09-10,育慧合同会社,,合同会社,東京都,江戸川区,東小岩５丁目３７番１２号楽新ビル２０７号,,13,123,1330052,,,,,,,2025-09-10,1,,,,,イクエ,0
822,4011801046714,新規,0,2025-09-10,2025-09-10,東京鴻翔貿易株式会社,,株式会社,東京都,葛飾区,堀切７丁目２７－７名橋ビル２０５号室,,13,122,1240006,,,,,,,2025-09-10,1,,,,,トウキョウコウショウボウエキ,0
826,4012401043572,新規,0,2025-09-10,2025-09-10,ＰｌａｎｔＤＸ株式会社,,株式会社,東京都,調布市,調布ケ丘１丁目５番地１国立大学法人電気通信大学内,,13,208,1820021,,,,,,,2025-09-10,1,,,,,プラントディーエックス,0
830,4012801024247,新規,0,2025-09-10,2025-09-10,Ｈｉｍａｌａｙａ　Ｄｉｎｉｎｇ株式会社,,株式会社,東京都,国立市,中１丁目１０－３２ＣｕｂｅＫｕｎｉｔａｃｈｉ３Ｆ,,13,215,1860004,,,,,,,2025-09-10,1,,,,,ヒマラヤダイニング,0
837,4020001164739,新規,0,2025-09-10,2025-09-10,株式会社クラウドピーク,,株式会社,神奈川県,川崎市多摩区,中野島６丁目１１番４号,,14,135,2140012,,,,,,,2025-09-10,1,,,,,クラウドピーク,0
839,4020003029304,新規,0,2025-09-10,2025-09-10,合同会社街波,,合同会社,神奈川県,横浜市都筑区,中川中央１丁目３０－１プレミアヨコハマ３ＦＢＩＺｃｏｍｆｏｒｔ,,14,118,2240003,,,,,,,2025-09-10,1,,,,,マチナミ,0
840,4021001086254,新規,0,2025-09-10,2025-09-10,株式会社サンリッチ,,株式会社,神奈川県,茅ヶ崎市,円蔵２５９１番地１０２号,,14,207,2530084,,,,,,,2025-09-10,1,,,,,サンリッチ,0
841,4021001086262,新規,0,2025-09-10,2025-09-10,株式会社小島建築,,株式会社,神奈川県,愛甲郡愛川町,田代３２７番地の１モアステージＡ,,14,401,2430306,,,,,,,2025-09-10,1,,,,,コジマケンチク,0
845,4021003016507,新規,0,2025-09-10,2025-09-10,合同会社Ｃａｎｄｙ,,合同会社,神奈川県,海老名市,社家６丁目７番９号,,14,215,2430424,,,,,,,2025-09-10,1,,,,,キャンディー,0
847,4030001167674,新規,0,2025-09-10,2025-09-10,株式会社ＧｒｏｗＩｎｆｉｎｉｔｙ,,株式会社,埼玉県,所沢市,小手指元町３丁目７番地の９,,11,208,3591147,,,,,,,2025-09-10,1,,,,,グロウインフィニティ,0
848,4030001168549,新規,0,2025-09-10,2025-09-10,株式会社ななふく,,株式会社,埼玉県,日高市,大字高萩６９０番地３７,,11,242,3501213,,,,,,,2025-09-10,1,,,,,ナナフク,0
849,4030001168565,新規,0,2025-09-10,2025-09-10,株式会社キャッチオン,,株式会社,埼玉県,新座市,大和田５丁目１７番２３－３０４号室,,11,230,3520004,,,,,,,2025-09-10,1,,,,,キャッチオン,0
850,4030003027554,新規,0,2025-09-10,2025-09-10,合同会社エディット,,合同会社,埼玉県,東松山市,大字石橋１７１０番地１６,,11,212,3550072,,,,,,,2025-09-10,1,,,,,エディット,0
851,4030003027570,新規,0,2025-09-10,2025-09-10,Ｗｅｌｌ　ｂｅｉｎｇ　ｊｏｂ合同会社,,合同会社,埼玉県,さいたま市緑区,芝原２丁目１４番地１４,,11,109,3360917,,,,,,,2025-09-10,1,,,,,ウェルビーイングジョブ,0
852,4030003027579,新規,0,2025-09-10,2025-09-10,ＨＤ・ＣＶ合同会社,,合同会社,埼玉県,川口市,大字峯１３００番地１１０,,11,203,3340056,,,,,,,2025-09-10,1,,,,,エイチディーシーブイ,0
858,4040003028519,新規,0,2025-09-10,2025-09-10,カエリミエステート合同会社,,合同会社,千葉県,千葉市稲毛区,稲毛東６丁目１２番１９号,,12,103,2630031,,,,,,,2025-09-10,1,,,,,,0
876,4100003008373,新規,0,2025-09-10,2025-09-10,合同会社フォリナーサポート,,合同会社,長野県,松本市,渚１丁目７－３６－３０２号ＥＬ・ドラード,,20,202,3900841,,,,,,,2025-09-10,1,,,,,フォリナーサポート,0
878,4110001039543,新規,0,2025-09-10,2025-09-10,株式会社えびや,,株式会社,新潟県,糸魚川市,大町１丁目４番２６号,,15,216,9410061,,,,,,,2025-09-10,1,,,,,エビヤ,0
879,4110001039568,新規,0,2025-09-10,2025-09-10,インフィニティー空間設計株式会社,,株式会社,新潟県,長岡市,南町３丁目３番１４号,,15,202,9400081,,,,,,,2025-09-10,1,,,,,インフィニティークウカンセッケイ,0
898,4120001279378,新規,0,2025-09-10,2025-09-10,ＭＢＨライフ株式会社,,株式会社,大阪府,大阪市中央区,島之内１丁目２２番２０号堺筋ビルディング９Ｆ,,27,128,5420082,,,,,,,2025-09-10,1,,,,,エムビーエイチライフ,0
899,4120001279403,新規,0,2025-09-10,2025-09-10,株式会社ＰＩＮＫ,,株式会社,大阪府,大阪市城東区,蒲生３丁目１０番６号１階ＪＡＣＫ,,27,118,5360016,,,,,,,2025-09-10,1,,,,,ピンク,0
900,4120001279444,新規,0,2025-09-10,2025-09-10,九壌明星株式会社,,株式会社,大阪府,大阪市住吉区,南住吉２丁目６番２１号ホワイトコーポ南住吉１０２号室,,27,120,5580041,,,,,,,2025-09-10,1,,,,,クジョウメイセイ,0
901,4120001279460,新規,0,2025-09-10,2025-09-10,日本文質株式会社,,株式会社,大阪府,大阪市生野区,新今里３丁目４番１７号ＯＧビル４０５Ｂ,,27,116,5440001,,,,,,,2025-09-10,1,,,,,ニホンブンシツ,0
902,4120001279485,新規,0,2025-09-10,2025-09-10,株式会社ｐ．ｃ．ｅ,,株式会社,大阪府,大阪市北区,天神橋３丁目７番２６号,,27,127,5300041,,,,,,,2025-09-10,1,,,,,ピーシーイー,0
906,4120003030508,新規,0,2025-09-10,2025-09-10,合同会社山洋,,合同会社,大阪府,枚方市,西禁野１丁目１番２５号ＶＥＧＡ７０３号室,,27,210,5731192,,,,,,,2025-09-10,1,,,,,サンヨウ,0
907,4120005025150,新規,0,2025-09-10,2025-09-10,学校法人弘道会,,その他の設立登記法人,大阪府,枚方市,宮之下町８番８号,,27,210,5730046,,,,,,,2025-09-10,1,,,,,コウドウカイ,0
909,4120101072402,新規,0,2025-09-10,2025-09-10,東和株式会社,,株式会社,大阪府,泉大津市,条南町３－２６松ノ浜マンション３０５号室,,27,206,5950016,,,,,,,2025-09-10,1,,,,,トウワ,0
910,4120101072410,新規,0,2025-09-10,2025-09-10,月日株式会社,,株式会社,大阪府,泉南市,鳴滝１丁目１４番８号－Ａ室,,27,228,5900534,,,,,,,2025-09-10,1,,,,,ツキヒ,0
911,4120103006696,新規,0,2025-09-10,2025-09-10,合同会社ヨットクラブ小豆島,,合同会社,大阪府,堺市堺区,北波止町１０番地,,27,141,5900986,,,,,,,2025-09-10,1,,,,,ヨットクラブショウドシマ,0
914,4120901051448,新規,0,2025-09-10,2025-09-10,三十日屋株式会社,,株式会社,大阪府,豊能郡能勢町,倉垣１９１０番地,,27,322,5630113,,,,,,,2025-09-10,1,,,,,ミソカヤ,0
921,4130001080479,新規,0,2025-09-10,2025-09-10,株式会社ＳＴＵＤＩＯ‐Ａ,,株式会社,京都府,亀岡市,旭町栗坪２８番地,,26,206,6210001,,,,,,,2025-09-10,1,,,,,スタジオエー,0
923,4130005017452,新規,0,2025-09-10,2025-09-10,特定非営利活動法人ＪＤＰフリーランス支援機構,,その他の設立登記法人,京都府,京都市下京区,中堂寺北町４０番地１,,26,106,6008812,,,,,,,2025-09-10,1,,,,,ジェイディーピーフリーランスシエンキコウ,0
927,4140001139935,新規,0,2025-09-10,2025-09-10,株式会社広畑自動車硝子,,株式会社,兵庫県,姫路市,中地南町１３７番地,,28,201,6700975,,,,,,,2025-09-10,1,,,,,ヒロハタジドウシャガラス,0
928,4140003022536,新規,0,2025-09-10,2025-09-10,合同会社共生日本,,合同会社,兵庫県,神戸市東灘区,西岡本３丁目１５番１８号,,28,101,6580073,,,,,,,2025-09-10,1,,,,,キョウセイニッポン,0
929,4140003022552,新規,0,2025-09-10,2025-09-10,ランフレンズ合同会社,,合同会社,兵庫県,神戸市中央区,小野柄通６丁目１番９号富士ビル２階Ｇ室,,28,110,6510088,,,,,,,2025-09-10,1,,,,,ランフレンズ,0
930,4140005027624,新規,0,2025-09-10,2025-09-10,一般社団法人Ｈｅａｒｔ　Ｂｒｉｄｇｅ,,その他の設立登記法人,兵庫県,神戸市垂水区,旭が丘３丁目１４番２－２号,,28,108,6550033,,,,,,,2025-09-10,1,,,,,ハートブリッジ,0
941,4170001018780,新規,0,2025-09-10,2025-09-10,セイワプラッテ株式会社,,株式会社,和歌山県,田辺市,朝日ヶ丘１３番３１号コーポ三和１－Ｂ,,30,206,6460027,,,,,,,2025-09-10,1,,,,,セイワプラッテ,0
942,4170003002295,新規,0,2025-09-10,2025-09-10,Ｏｒｉｏｎ　Ｉｍｐｏｒｔｓ合同会社,,合同会社,和歌山県,橋本市,光陽台２丁目９番地の１２,,30,203,6480099,,,,,,,2025-09-10,1,,,,,オリオンインポート,0
954,4180001168583,新規,0,2025-09-10,2025-09-10,株式会社リフレワン,,株式会社,愛知県,春日井市,鳥居松町２丁目１８６番地,,23,206,4860844,,,,,,,2025-09-10,1,,,,,リフレワン,0
955,4180001168600,新規,0,2025-09-10,2025-09-10,株式会社扶桑,,株式会社,愛知県,名古屋市中区,栄５丁目１０番１４号ルイ栄４０１,,23,106,4600008,,,,,,,2025-09-10,1,,,,,フソウ,0
956,4180001168609,新規,0,2025-09-10,2025-09-10,株式会社ＣＯＳＭＯ　ＲＥＶＯ,,株式会社,愛知県,名古屋市守山区,下志段味５丁目４０１番地,,23,113,4630003,,,,,,,2025-09-10,1,,,,,コスモレボ,0
957,4180001168625,新規,0,2025-09-10,2025-09-10,株式会社ウェイズエッジ,,株式会社,愛知県,尾張旭市,東印場町２丁目３番地２２　ロイヤルステイツ旭野３０５号,,23,226,4880830,,,,,,,2025-09-10,1,,,,,ウェイズエッジ,0
959,4180003029008,新規,0,2025-09-10,2025-09-10,合同会社ＨＴＭ,,合同会社,愛知県,名古屋市中区,上前津２丁目２番４号,,23,106,4600013,,,,,,,2025-09-10,1,,,,,エイチティーエム,0
960,4180003029016,新規,0,2025-09-10,2025-09-10,合同会社Ｃａｒｎａ,,合同会社,愛知県,名古屋市中川区,野田３丁目３５番地の２,,23,110,4540912,,,,,,,2025-09-10,1,,,,,カルナ,0
963,4190003005164,新規,0,2025-09-10,2025-09-10,合同会社Ｌ．Ｎ　ＣＯ．，ＬＴＤ．,,合同会社,三重県,津市,庄田町２５６５番地２９,,24,201,5141255,,,,,,,2025-09-10,1,,,,,エルドットエヌカンパニーリミテッド,0
968,4200005013799,新規,0,2025-09-10,2025-09-10,医療法人健聡会,,その他の設立登記法人,岐阜県,羽島市,正木町新井３７５番地２,,21,209,5016225,,,,,,,2025-09-10,1,,,,,ケンソウカイ,0
970,4220001026919,新規,0,2025-09-10,2025-09-10,株式会社ｓｏｕ＆Ｃｏ,,株式会社,石川県,金沢市,野田町へ３３６番地５,,17,201,9218104,,,,,,,2025-09-10,1,,,,,ソウアンドコー,0
973,4240001065493,新規,0,2025-09-10,2025-09-10,株式会社ワンエイティ,,株式会社,広島県,三原市,須波ハイツ２丁目１２番２号,,34,204,7230035,,,,,,,2025-09-10,1,,,,,ワンエイティ,0
980,4290001111227,新規,0,2025-09-10,2025-09-10,株式会社ＮＥＷ　ＬＡＮＤ　ＦＯＸ,,株式会社,福岡県,福岡市南区,長丘２丁目５番８－５０３号,,40,134,8150075,,,,,,,2025-09-10,1,,,,,ニューランドフォックス,0
981,4290801031839,新規,0,2025-09-10,2025-09-10,株式会社ヘブンハート,,株式会社,福岡県,築上郡築上町,大字東築城２６１,,40,647,8290101,,,,,,,2025-09-10,1,,,,,ヘブンハート,0
989,4330003011206,新規,0,2025-09-10,2025-09-10,合同会社ＳＯＵ,,合同会社,熊本県,宇土市,神馬町７５０番地８,,43,211,8690424,,,,,,,2025-09-10,1,,,,,ソウ,0
999,4370003007282,新規,0,2025-09-10,2025-09-10,合同会社くろこ,,合同会社,宮城県,白石市,字本町１１番地,,04,206,9890275,,,,,,,2025-09-10,1,,,,,クロコ,0
1000,4380001035557,新規,0,2025-09-10,2025-09-10,株式会社Ｆｕｊｉｉ　Ｆａｍｉｌｙ　Ｆａｒｍ,,株式会社,福島県,西白河郡矢吹町,神田南１５０番地,,07,466,9690251,,,,,,,2025-09-10,1,,,,,フジイファミリーファーム,0
1001,4380003006135,新規,0,2025-09-10,2025-09-10,ＡＪカンパニー合同会社,,合同会社,福島県,いわき市,常磐関船町志座１４番地の３,,07,204,9728318,,,,,,,2025-09-10,1,,,,,エージェイカンパニー,0
1009,4470001020888,新規,0,2025-09-10,2025-09-10,でんき０株式会社,,株式会社,香川県,高松市,丸亀町５番地２,,37,201,7600029,,,,,,,2025-09-10,1,,,,,,0
1015,4500001026510,新規,0,2025-09-10,2025-09-10,株式会社ＲＡＴ　ＧＡＲＡＧＥ,,株式会社,愛媛県,今治市,大西町紺原甲６２８番地,,38,202,7992202,,,,,,,2025-09-10,1,,,,,ラットガレージ,0
1025,5010001258301,新規,0,2025-09-10,2025-09-10,株式会社ＲＡＹ,,株式会社,東京都,中央区,日本橋富沢町１６番９号名門ビル４０１号室,,13,102,1030006,,,,,,,2025-09-10,1,,,,,レイ,0
1026,5010001258359,新規,0,2025-09-10,2025-09-10,ティーエルシーモス株式会社,,株式会社,東京都,千代田区,神田練塀町３番地,,13,101,1010022,,,,,,,2025-09-10,1,,,,,ティーエルシーモス,0
1027,5010001258391,新規,0,2025-09-10,2025-09-10,株式会社グロバンス,,株式会社,東京都,中央区,銀座１丁目１２番４号Ｎ＆ＥＢＬＤ．６Ｆ,,13,102,1040061,,,,,,,2025-09-10,1,,,,,グロバンス,0
1028,5010003048460,新規,0,2025-09-10,2025-09-10,エクイス環境ジャパン合同会社,,合同会社,東京都,中央区,京橋２丁目２番１号京橋エドグラン,,13,102,1040031,,,,,,,2025-09-10,1,,,,,エクイスカンキョウジャパン,0
1029,5010003048592,新規,0,2025-09-10,2025-09-10,合同会社ＤＧＣ,,合同会社,東京都,千代田区,丸の内１丁目１１番１号パシフィックセンチュリープレイス丸の内１３０８,,13,101,1000005,,,,,,,2025-09-10,1,,,,,ディージーシー,0
1031,5010005040655,新規,0,2025-09-10,2025-09-10,一般財団法人ＮＥＷ　ＴＥＲＡＫＯＹＡ,,その他の設立登記法人,東京都,千代田区,内神田２丁目１３番８号ＢＭビル４階,,13,101,1010047,,,,,,,2025-09-10,1,,,,,ニューテラコヤ,0
1038,5010401192224,新規,0,2025-09-10,2025-09-10,ＬＥＭＯＮ企画株式会社,,株式会社,東京都,港区,芝浦４丁目１９番１－２０１７号,,13,103,1080023,,,,,,,2025-09-10,1,,,,,レモンキカク,0
1039,5010403035983,新規,0,2025-09-10,2025-09-10,合同会社ＦＵＴＯ,,合同会社,東京都,港区,北青山１丁目３－３三橋ビル３階,,13,103,1070061,,,,,,,2025-09-10,1,,,,,フトー,0
1041,5010601067944,新規,0,2025-09-10,2025-09-10,達納得株式会社,,株式会社,東京都,江東区,亀戸３丁目６２番１０号２０６号室,,13,108,1360071,,,,,,,2025-09-10,1,,,,,ダナトク,0
1042,5010601067952,新規,0,2025-09-10,2025-09-10,清寧テクノ商事株式会社,,株式会社,東京都,墨田区,両国１丁目１２番１２号塚田ビル３階,,13,107,1300026,,,,,,,2025-09-10,1,,,,,セイネイ,0
1043,5010603011784,新規,0,2025-09-10,2025-09-10,合同会社Ｌｕｓｔｉａ,,合同会社,東京都,江東区,永代２丁目３０番７号３０１号室,,13,108,1350034,,,,,,,2025-09-10,1,,,,,ラスティア,0
1045,5010701048258,新規,0,2025-09-10,2025-09-10,ＯＲＤフードサービスホールディングス株式会社,,株式会社,東京都,品川区,大崎１丁目１１番２号,,13,109,1410032,,,,,,,2025-09-10,1,,,,,オーアールディーフードサービスホールディングス,0
1051,5010705003795,新規,0,2025-09-10,2025-09-10,アルク社会保険労務士法人,,その他の設立登記法人,東京都,品川区,東五反田１丁目１０番７号,,13,109,1410022,,,,,,,2025-09-10,1,,,,,アルク,0
1053,5010901058065,新規,0,2025-09-10,2025-09-10,株式会社ＢＥＦＲＩＥＮＤ,,株式会社,東京都,世田谷区,駒沢４丁目１８番２１号田中ハイツ３０１,,13,112,1540012,,,,,,,2025-09-10,1,,,,,ビーフレンド,0
1056,5011001171898,新規,0,2025-09-10,2025-09-10,ブライトマインド株式会社,,株式会社,東京都,渋谷区,道玄坂１丁目１０－８渋谷道玄坂東急ビル２Ｆ－Ｃ,,13,113,1500043,,,,,,,2025-09-10,1,,,,,ブライトマインド,0
1057,5011001172236,新規,0,2025-09-10,2025-09-10,株式会社ＳＴＥＲＮＥ,,株式会社,東京都,渋谷区,東１丁目１６番７号,,13,113,1500011,,,,,,,2025-09-10,1,,,,,シュテルネ,0
1058,5011001172442,新規,0,2025-09-10,2025-09-10,ザ・ファーストペンギンズ株式会社,,株式会社,東京都,渋谷区,道玄坂１丁目１０番８号渋谷道玄坂東急ビル２Ｆ―Ｃ,,13,113,1500043,,,,,,,2025-09-10,1,,,,,ザファーストペンギンズ,0
1059,5011003022331,新規,0,2025-09-10,2025-09-10,こめ合同会社,,合同会社,東京都,渋谷区,恵比寿西２丁目８番４号ＥＸ恵比寿西ビル５階,,13,113,1500021,,,,,,,2025-09-10,1,,,,,コメ,0
1065,5011101113008,新規,0,2025-09-10,2025-09-10,ノルチ株式会社,,株式会社,東京都,新宿区,西新宿７丁目２２－３１柏木ＭＵＲＡ３１５,,13,104,1600023,,,,,,,2025-09-10,1,,,,,ノルチ,0
1068,5011201026638,新規,0,2025-09-10,2025-09-10,株式会社グランドヒル,,株式会社,東京都,中野区,上高田２丁目５８番１８－５０１号,,13,114,1640002,,,,,,,2025-09-10,1,,,,,,0
1069,5011301030853,新規,0,2025-09-10,2025-09-10,株式会社ティーシーケー,,株式会社,東京都,杉並区,高井戸東４丁目１４番７号,,13,115,1680072,,,,,,,2025-09-10,1,,,,,ティーシーケー,0
1070,5011303005705,新規,0,2025-09-10,2025-09-10,合同会社ＳＣＬ,,合同会社,東京都,杉並区,高円寺南３丁目２７番１３号セントコート３０１,,13,115,1660003,,,,,,,2025-09-10,1,,,,,エスシーエル,0
1072,5011601028969,新規,0,2025-09-10,2025-09-10,桜橋株式会社,,株式会社,東京都,練馬区,春日町６丁目１６番１１号フォーチュン光が丘２３１号室,,13,120,1790074,,,,,,,2025-09-10,1,,,,,サクラバシ,0
1076,5011801046705,新規,0,2025-09-10,2025-09-10,ＡＫＡＨＩ株式会社,,株式会社,東京都,足立区,江北３丁目３９番１号,,13,121,1230872,,,,,,,2025-09-10,1,,,,,アカヒ,0
1077,5011803007060,新規,0,2025-09-10,2025-09-10,合同会社ＡＶＡＮＺＡ,,合同会社,東京都,足立区,新田１丁目２－２１ロイヤルステージ王子神谷６０１,,13,121,1230865,,,,,,,2025-09-10,1,,,,,アバンサ,0
1091,5020001164770,新規,0,2025-09-10,2025-09-10,株式会社玉三郎,,株式会社,神奈川県,横浜市港南区,港南台４丁目１６－１４,,14,111,2340054,,,,,,,2025-09-10,1,,,,,タマサブロウ,0
1096,5020003029344,新規,0,2025-09-10,2025-09-10,合同会社デジタル・ダスト・デザイン研究所,,合同会社,神奈川県,横浜市港北区,篠原北２丁目１４－２８,,14,109,2220021,,,,,,,2025-09-10,1,,,,,デジタルダストデザインケンキュウジョ,0
1097,5020005016976,新規,0,2025-09-10,2025-09-10,一般社団法人動物愛護ラボはるうらら,,その他の設立登記法人,神奈川県,横浜市南区,永田東１丁目３３番地２８サンライズ横浜１０１号室,,14,105,2320072,,,,,,,2025-09-10,1,,,,,ドウブツアイゴラボハルウララ,0
1100,5021001086245,新規,0,2025-09-10,2025-09-10,株式会社よろず商い千,,株式会社,神奈川県,相模原市南区,古淵３丁目１２番４号パサニアビル３０１,,14,153,2520344,,,,,,,2025-09-10,1,,,,,ヨロズアキナイセン,0
1101,5021001086253,新規,0,2025-09-10,2025-09-10,株式会社リベンスホーム,,株式会社,神奈川県,横須賀市,根岸町４丁目２２番７号熊沢ビル１０１,,14,201,2390807,,,,,,,2025-09-10,1,,,,,リベンスホーム,0
1105,5030001168556,新規,0,2025-09-10,2025-09-10,マイプレさいたま株式会社,,株式会社,埼玉県,さいたま市北区,日進町２丁目１８６３番地５,,11,102,3310823,,,,,,,2025-09-10,1,,,,,マイプレサイタマ,0
1106,5030001168564,新規,0,2025-09-10,2025-09-10,株式会社フォレスト,,株式会社,埼玉県,さいたま市西区,西大宮４丁目５２番地１,,11,101,3310078,,,,,,,2025-09-10,1,,,,,フォレスト,0
1107,5030001168572,新規,0,2025-09-10,2025-09-10,株式会社朝倉技建,,株式会社,埼玉県,川口市,南鳩ヶ谷１丁目２３番１４号プランドール１０２号,,11,203,3340013,,,,,,,2025-09-10,1,,,,,アサクラギケン,0
1108,5030001168639,新規,0,2025-09-10,2025-09-10,Ｎｅｘｏ株式会社,,株式会社,埼玉県,川口市,青木１丁目１８番２９号,,11,203,3320031,,,,,,,2025-09-10,1,,,,,ネクソ,0
1111,5030003027561,新規,0,2025-09-10,2025-09-10,合同会社ジンジャーリリー,,合同会社,埼玉県,三郷市,泉１丁目１２番地１２,,11,237,3410054,,,,,,,2025-09-10,1,,,,,ジンジャーリリー,0
1112,5030003027578,新規,0,2025-09-10,2025-09-10,ゆう和ＲＩＳＥ合同会社,,合同会社,埼玉県,さいたま市南区,別所７丁目６番８号,,11,108,3360021,,,,,,,2025-09-10,1,,,,,ユウワライズ,0
1116,5040001140365,新規,0,2025-09-10,2025-09-10,株式会社オアシス,,株式会社,千葉県,千葉市中央区,白旗１丁目１番５号,,12,101,2600841,,,,,,,2025-09-10,1,,,,,オアシス,0
1126,5100003008380,新規,0,2025-09-10,2025-09-10,Ｓｅａｓｏｎｓ　Ｒｅｓｏｒｔ合同会社,,合同会社,長野県,上水内郡信濃町,大字野尻３８８４－１７９,,20,583,3891303,,,,,,,2025-09-10,1,,,,,シーズンズリゾート,0
1135,5120001279352,新規,0,2025-09-10,2025-09-10,株式会社Ｓｅｍｌａ,,株式会社,大阪府,門真市,東江端町７－２０,,27,223,5710008,,,,,,,2025-09-10,1,,,,,セムラ,0
1136,5120001279435,新規,0,2025-09-10,2025-09-10,株式会社エルフ,,株式会社,大阪府,大阪市中央区,南船場３丁目２番２２号おおきに南船場ビル２０５,,27,128,5420081,,,,,,,2025-09-10,1,,,,,エルフ,0
1137,5120001279443,新規,0,2025-09-10,2025-09-10,株式会社ＴＭテック,,株式会社,大阪府,大阪市大正区,泉尾７丁目５番１号,,27,108,5510031,,,,,,,2025-09-10,1,,,,,ティーエムテック,0
1138,5120001279468,新規,0,2025-09-10,2025-09-10,株式会社リックイノーバ,,株式会社,大阪府,大阪市淀川区,西中島６丁目６番１７号リックファースト３Ｆ,,27,123,5320011,,,,,,,2025-09-10,1,,,,,リックイノーバ,0
1139,5120001279492,新規,0,2025-09-10,2025-09-10,ビジョンエッジ株式会社,,株式会社,大阪府,大阪市浪速区,下寺２丁目９番１０－５０１号,,27,111,5560001,,,,,,,2025-09-10,1,,,,,ビジョンエッジ,0
1143,5120003030481,新規,0,2025-09-10,2025-09-10,飛翔テクノロジー合同会社,,合同会社,大阪府,大阪市東住吉区,西今川２丁目１０番１８号,,27,121,5460042,,,,,,,2025-09-10,1,,,,,ヒショウテクノロジー,0
1144,5120003030507,新規,0,2025-09-10,2025-09-10,集程合同会社,,合同会社,大阪府,大阪市港区,磯路２丁目７番１０号,,27,107,5520003,,,,,,,2025-09-10,1,,,,,シュウテイ,0
1145,5120003030564,新規,0,2025-09-10,2025-09-10,合同会社ＨＳＫ,,合同会社,大阪府,大阪市天王寺区,筆ケ崎町５番５３－１２１７号,,27,109,5430027,,,,,,,2025-09-10,1,,,,,エイチエスケイ,0
1148,5120101072368,新規,0,2025-09-10,2025-09-10,泉海商運東日本株式会社,,株式会社,大阪府,和泉市,平井町３０７番地１,,27,219,5941115,,,,,,,2025-09-10,1,,,,,センカイショウウンヒガシニホン,0
1152,5120103006695,新規,0,2025-09-10,2025-09-10,合同会社岸和田ＢＡＳＥ,,合同会社,大阪府,岸和田市,流木町８５７門を入って右の建物,,27,202,5960835,,,,,,,2025-09-10,1,,,,,キシワダベース,0
1158,5130001080544,新規,0,2025-09-10,2025-09-10,日本茂清株式会社,,株式会社,京都府,京都市南区,西九条南田町１－４,,26,107,6018441,,,,,,,2025-09-10,1,,,,,ニホンモセイ,0
1161,5130003010747,新規,0,2025-09-10,2025-09-10,合同会社はたらく福祉総合研究所,,合同会社,京都府,久世郡久御山町,坊之池坊村中１１番地１,,26,322,6130042,,,,,,,2025-09-10,1,,,,,ハタラクフクシソウゴウケンキュウショ,0
1167,5140001139934,新規,0,2025-09-10,2025-09-10,ＫＮ株式会社,,株式会社,兵庫県,姫路市,花田町加納原田９４８番地１９,,28,201,6710252,,,,,,,2025-09-10,1,,,,,ケーエヌ,0
1168,5140001139942,新規,0,2025-09-10,2025-09-10,株式会社キンキ機設,,株式会社,兵庫県,神戸市東灘区,住吉南町５丁目６番２１号,,28,101,6580041,,,,,,,2025-09-10,1,,,,,キンキキセツ,0
1170,5140003022543,新規,0,2025-09-10,2025-09-10,合同会社Ｙ’ｓ,,合同会社,兵庫県,姫路市,飾東町北山４６７番地,,28,201,6710212,,,,,,,2025-09-10,1,,,,,ワイズ,0
1171,5140003022576,新規,0,2025-09-10,2025-09-10,合同会社Ｈａｐｐｙ　Ｓｔａｔｉｏｎ,,合同会社,兵庫県,明石市,二見町東二見７２５番地の２２,,28,203,6740092,,,,,,,2025-09-10,1,,,,,ハッピーステーション,0
1181,5180001168624,新規,0,2025-09-10,2025-09-10,株式会社グレイス・サン,,株式会社,愛知県,名古屋市東区,葵３丁目３番８号ＳＬＸ葵３０１,,23,102,4610004,,,,,,,2025-09-10,1,,,,,グレイスサン,0
1188,5180301040193,新規,0,2025-09-10,2025-09-10,株式会社Ｌｉｆｅ　Ｓｈｉｆｔ,,株式会社,愛知県,岡崎市,元能見町３１番地２１,,23,202,4440063,,,,,,,2025-09-10,1,,,,,ライフシフト,0
1190,5190003005163,新規,0,2025-09-10,2025-09-10,ＫＳ工業合同会社,,合同会社,三重県,津市,高茶屋小森町２７８１コンフォールカルチェ３０１,,24,201,5140817,,,,,,,2025-09-10,1,,,,,ケーエスコウギョウ,0
1194,5200001044228,新規,0,2025-09-10,2025-09-10,株式会社Ｇｉｆｕ‐ｔｏ,,株式会社,岐阜県,岐阜市,日野北５丁目１０番１１号,,21,201,5008207,,,,,,,2025-09-10,1,,,,,ギフトゥ,0
1201,5220001026918,新規,0,2025-09-10,2025-09-10,株式会社ｋｉｋｉ,,株式会社,石川県,金沢市,本町２丁目２番１３号２Ｆ,,17,201,9200853,,,,,,,2025-09-10,1,,,,,キキ,0
1204,5240001065476,新規,0,2025-09-10,2025-09-10,株式会社華火,,株式会社,広島県,東広島市,高屋町杵原１２６２番地３,,34,212,7392102,,,,,,,2025-09-10,1,,,,,ハナビ,0
1205,5240001065492,新規,0,2025-09-10,2025-09-10,株式会社ここいろ,,株式会社,広島県,広島市中区,本通７番２９号,,34,101,7300035,,,,,,,2025-09-10,1,,,,,ココイロ,0
1208,5260001040543,新規,0,2025-09-10,2025-09-10,株式会社エムイーメディカル,,株式会社,岡山県,岡山市北区,幸町４番１２号,,33,101,7000903,,,,,,,2025-09-10,1,,,,,エムイーメディカル,0
1216,5290001111309,新規,0,2025-09-10,2025-09-10,株式会社あるいえ,,株式会社,福岡県,福岡市博多区,博多駅南４丁目３番３号センターいずみビル２０１号,,40,132,8120016,,,,,,,2025-09-10,1,,,,,アルイエ,0
1218,5290801031854,新規,0,2025-09-10,2025-09-10,株式会社九＿社,00140608,株式会社,福岡県,北九州市若松区,片山３丁目５番８号,,40,103,8080106,,,,,,,2025-09-10,1,,,,,キュウアンシャ,0
1226,5330003011205,新規,0,2025-09-10,2025-09-10,ＨＯ　ＭＩＮＨ合同会社,,合同会社,熊本県,宇土市,南段原町４６－３－１０４号,,43,211,8690421,,,,,,,2025-09-10,1,,,,,ホーミン,0
1232,5360003015236,新規,0,2025-09-10,2025-09-10,合同会社美護乃屋,,合同会社,沖縄県,那覇市,具志３丁目４番５号グレース具志５０１,,47,201,9010146,,,,,,,2025-09-10,1,,,,,ビゴノヤ,0
1234,5370001053006,新規,0,2025-09-10,2025-09-10,株式会社ｆｅｕ,,株式会社,宮城県,仙台市青葉区,国分町１丁目６番１号１階Ｆ号,,04,101,9800803,,,,,,,2025-09-10,1,,,,,フゥ,0
1235,5370001053047,新規,0,2025-09-10,2025-09-10,株式会社東西工業,,株式会社,宮城県,黒川郡大和町,吉岡南３丁目１３番地の１３,,04,421,9813626,,,,,,,2025-09-10,1,,,,,トウセイコウギョウ,0
1239,5380003006134,新規,0,2025-09-10,2025-09-10,合同会社輝雄,,合同会社,福島県,いわき市,小名浜岡小名２丁目２番地の１２アルティメートヴィラＥ棟,,07,204,9718151,,,,,,,2025-09-10,1,,,,,キユウ,0
1248,5430001095198,新規,0,2025-09-10,2025-09-10,株式会社北縁,,株式会社,北海道,石狩郡当別町,太美町１４９８番地－Ｂ,,01,303,0613776,,,,,,,2025-09-10,1,,,,,ホクエン,0
1260,6010001258283,新規,0,2025-09-10,2025-09-10,星月株式会社,,株式会社,東京都,文京区,白山１丁目６－４同栄マンション２階文京ＶＥＮＴＵＲＥＢＡＳＥ－Ａ１２号室,,13,105,1130001,,,,,,,2025-09-10,1,,,,,スタームーン,0
1261,6010001258358,新規,0,2025-09-10,2025-09-10,ティーエルシータイム株式会社,,株式会社,東京都,千代田区,神田練塀町３番地,,13,101,1010022,,,,,,,2025-09-10,1,,,,,ティーエルシータイム,0
1262,6010001258374,新規,0,2025-09-10,2025-09-10,株式会社Ｒｅ‐Ｓｌｅｅｐ,,株式会社,東京都,中央区,日本橋蛎殻町２丁目１１番２号オートエックス工藤ビル４階,,13,102,1030014,,,,,,,2025-09-10,1,,,,,リスリープ,0
1263,6010001258382,新規,0,2025-09-10,2025-09-10,株式会社ＯＴＳ,,株式会社,東京都,千代田区,丸の内１丁目６番１号,,13,101,1000005,,,,,,,2025-09-10,1,,,,,オーティーエス,0
1264,6010001258416,新規,0,2025-09-10,2025-09-10,株式会社Ｒ＆Ｍ,,株式会社,東京都,千代田区,飯田橋４丁目４番１－２４０３号,,13,101,1020072,,,,,,,2025-09-10,1,,,,,アールアンドエム,0
1268,6010003048666,新規,0,2025-09-10,2025-09-10,ｈｉｄｅ合同会社,,合同会社,東京都,千代田区,神田錦町３丁目１５錦精社神田ビル天翔オフィス大手町竹橋２階２０３号室,,13,101,1010054,,,,,,,2025-09-10,1,,,,,ヒデ,0
1269,6010003048682,新規,0,2025-09-10,2025-09-10,合同会社横浜ピア８ホスピタリティ,,合同会社,東京都,中央区,銀座１丁目６番１１号アースタックス税理士法人内,,13,102,1040061,,,,,,,2025-09-10,1,,,,,ヨコハマピアエイトホスピタリティ,0
1270,6010003048690,新規,0,2025-09-10,2025-09-10,マイウェイ合同会社,,合同会社,東京都,中央区,佃２丁目１１番６－５０２号,,13,102,1040051,,,,,,,2025-09-10,1,,,,,マイウェイ,0
1271,6010003048699,新規,0,2025-09-10,2025-09-10,ＴＨＥ　ＦＡＴＥ合同会社,,合同会社,東京都,千代田区,神田須田町１丁目２４番地３,,13,101,1010041,,,,,,,2025-09-10,1,,,,,ザフェイト,0
1273,6010101016863,新規,0,2025-09-10,2025-09-10,株式会社マミーハンズ,,株式会社,東京都,八王子市,子安町１丁目２６－１４－１０２,,13,201,1920904,,,,,,,2025-09-10,1,,,,,マミーハンズ,0
1283,6010401193097,新規,0,2025-09-10,2025-09-10,株式会社ペンギン工房,,株式会社,東京都,港区,南青山２丁目２番１５号ＷｉｎＡｏｙａｍａビルＵＣＦ６３５,,13,103,1070062,,,,,,,2025-09-10,1,,,,,ペンギンコウボウ,0
1284,6010403035999,新規,0,2025-09-10,2025-09-10,クリム・ホールディング合同会社,,合同会社,東京都,港区,三田１丁目３－４０麻布十番ＢＵＳＩＮＥＳＳＣＵＢＥ－Ｓ天翔オフィス麻布十番４階４０７－Ｄ号室,,13,103,1080073,,,,,,,2025-09-10,1,,,,,クリムホールディング,0
1285,6010403036007,新規,0,2025-09-10,2025-09-10,合同会社ＷＨＡＴ　ＡＲＴ,,合同会社,東京都,港区,赤坂８丁目６番２８号１０１号室,,13,103,1070052,,,,,,,2025-09-10,1,,,,,ワットアート,0
1292,6010601067943,新規,0,2025-09-10,2025-09-10,株式会社Ｃｌｉｃｋ,,株式会社,東京都,墨田区,千歳３丁目３番３－７０１号Ｃｏｍｆａｉｒ森下,,13,107,1300025,,,,,,,2025-09-10,1,,,,,クリック,0
1293,6010603011783,新規,0,2025-09-10,2025-09-10,ＰｕｚｚｌｅＯｕｔ合同会社,,合同会社,東京都,江東区,亀戸１丁目１０番５号１０１,,13,108,1360071,,,,,,,2025-09-10,1,,,,,パズルアウト,0
1294,6010705003794,新規,0,2025-09-10,2025-09-10,行政書士法人しんきんリーガルサポート,,その他の設立登記法人,東京都,品川区,西五反田７丁目２番３号,,13,109,1410031,,,,,,,2025-09-10,1,,,,,シンキンリーガルサポート,0
1297,6010903010254,新規,0,2025-09-10,2025-09-10,ＦＯＨＴＯ合同会社,,合同会社,東京都,世田谷区,桜上水４丁目２３番６号３０１,,13,112,1560045,,,,,,,2025-09-10,1,,,,,フォート,0
1303,6011001171955,新規,0,2025-09-10,2025-09-10,グーユー・インターナショナル・トレード株式会社,,株式会社,東京都,渋谷区,富ヶ谷１丁目１４番１４号スタンフォードアネックスビル３Ｆ,,13,113,1510063,,,,,,,2025-09-10,1,,,,,グーユーインターナショナルトレード,0
1310,6011101113114,新規,0,2025-09-10,2025-09-10,株式会社ＲＥＶＡ　ＪＡＰＡＮ,,株式会社,東京都,新宿区,西新宿３丁目３番１３号西新宿水間ビル２Ｆ,,13,104,1600023,,,,,,,2025-09-10,1,,,,,リーヴェジャパン,0
1315,6011205002700,新規,0,2025-09-10,2025-09-10,一般社団法人ウェルネスサイエンスラボラトリー,,その他の設立登記法人,東京都,中野区,東中野３丁目１４番１号,,13,114,1640003,,,,,,,2025-09-10,1,,,,,ウェルネスサイエンスラボラトリー,0
1318,6011303005704,新規,0,2025-09-10,2025-09-10,初見貿易合同会社,,合同会社,東京都,杉並区,梅里２丁目２５番１３号高円寺プラザ２０３号－Ｃ室,,13,115,1660011,,,,,,,2025-09-10,1,,,,,ハツミボウエキ,0
1323,6011803007051,新規,0,2025-09-10,2025-09-10,Ｂ＆Ｂ合同会社,,合同会社,東京都,足立区,綾瀬２丁目１８番６－４０５号,,13,121,1200005,,,,,,,2025-09-10,1,,,,,ビーアンドビー,0
1331,6012801024237,新規,0,2025-09-10,2025-09-10,株式会社ＡＲＡＧＡＳ,,株式会社,東京都,武蔵村山市,伊奈平５丁目９１番地の１５,,13,223,2080023,,,,,,,2025-09-10,1,,,,,アラガス,0
1334,6013301054864,新規,0,2025-09-10,2025-09-10,株式会社ｃａｔ,,株式会社,東京都,豊島区,東池袋２丁目６２番８号ＢＩＧオフィスプラザ池袋１２０６,,13,116,1700013,,,,,,,2025-09-10,1,,,,,キャット,0
1348,6021001086244,新規,0,2025-09-10,2025-09-10,株式会社南矯正ラボ,,株式会社,神奈川県,横須賀市,追浜南町２丁目１番地１４,,14,201,2370065,,,,,,,2025-09-10,1,,,,,ミナミキョウセイ,0
1349,6021001086277,新規,0,2025-09-10,2025-09-10,株式会社テクニカルオートＳＵＺＵＫＩ,,株式会社,神奈川県,厚木市,三田３１０９番地２,,14,212,2430211,,,,,,,2025-09-10,1,,,,,テクニカルオートスズキ,0
1350,6021001086285,新規,0,2025-09-10,2025-09-10,株式会社ミライ準備,,株式会社,神奈川県,藤沢市,亀井野１５２５番地の６,,14,205,2520813,,,,,,,2025-09-10,1,,,,,ミライジュンビ,0
1351,6021003016513,新規,0,2025-09-10,2025-09-10,Ｓ　Ｍ　Ｔ　ＧＲＯＵＰ合同会社,,合同会社,神奈川県,相模原市南区,新磯野１０６番地２,,14,153,2520325,,,,,,,2025-09-10,1,,,,,エスエムティグループ,0
1352,6030001168555,新規,0,2025-09-10,2025-09-10,Ｙ‐Ｋリアルティ株式会社,,株式会社,埼玉県,川口市,東本郷１丁目６番４０号,,11,203,3340063,,,,,,,2025-09-10,1,,,,,ワイケーリアルティ,0
1353,6030001168563,新規,0,2025-09-10,2025-09-10,株式会社ＳＹコーポレーション,,株式会社,埼玉県,さいたま市岩槻区,本町４丁目１０番８号,,11,110,3390057,,,,,,,2025-09-10,1,,,,,エスワイコーポレーション,0
1354,6030001168571,新規,0,2025-09-10,2025-09-10,株式会社Ｎｏｖａ　Ｅｓｔａｔｅ,,株式会社,埼玉県,さいたま市見沼区,東大宮１丁目１２番地２２,,11,104,3370051,,,,,,,2025-09-10,1,,,,,ノヴァエステート,0
1355,6030001168588,新規,0,2025-09-10,2025-09-10,株式会社華真,,株式会社,埼玉県,川越市,大字下新河岸８８番地２３,,11,201,3501136,,,,,,,2025-09-10,1,,,,,カシン,0
1356,6030001168605,新規,0,2025-09-10,2025-09-10,株式会社フォーティベスト,,株式会社,埼玉県,所沢市,寿町２１番１２－１１０２号ブリリアタワー所沢ロジュマン,,11,208,3591122,,,,,,,2025-09-10,1,,,,,フォーティベスト,0
1360,6030003027560,新規,0,2025-09-10,2025-09-10,合同会社ＤｉｇｉＣａｔ,,合同会社,埼玉県,さいたま市見沼区,春岡３丁目４０番地２５,,11,104,3370008,,,,,,,2025-09-10,1,,,,,デジキャット,0
1367,6040003028392,新規,0,2025-09-10,2025-09-10,合同会社ワイルドパス,,合同会社,千葉県,成田市,加良部６丁目６番１号２０４号,,12,211,2860036,,,,,,,2025-09-10,1,,,,,ワイルドパス,0
1370,6050003009549,新規,0,2025-09-10,2025-09-10,合同会社Ｓｈｅｉｋｈ　Ｅｎｔｅｒｐｒｉｓｅ,,合同会社,茨城県,坂東市,辺田１５２５番地５フローラ坂東Ａ棟１０２号室,,08,228,3060632,,,,,,,2025-09-10,1,,,,,シェイクエンタープライズ,0
1371,6050005013689,新規,0,2025-09-10,2025-09-10,一般社団法人キャリアパスポート,,その他の設立登記法人,茨城県,水戸市,中央１丁目３番３８号,,08,201,3100805,,,,,,,2025-09-10,1,,,,,キャリアパスポート,0
1372,6060001038557,新規,0,2025-09-10,2025-09-10,株式会社Ａｐｒｉｃｕｓ,,株式会社,栃木県,佐野市,奈良渕町１１０２番地１２Ｇ－ＡｃｃｏｒｄｏＳＡＮＯＩＩ,00140609,09,204,3270842,,,,,,,2025-09-10,1,,,,,アプリクス,0
1389,6100001038908,新規,0,2025-09-10,2025-09-10,株式会社ワン,,株式会社,長野県,佐久市,中込２３３６－１,,20,217,3850051,,,,,,,2025-09-10,1,,,,,ワン,0
1390,6100001038940,新規,0,2025-09-10,2025-09-10,株式会社Ｓｈｉｎｗａ,,株式会社,長野県,安曇野市,明科七貴４７５０番地,,20,220,3997104,,,,,,,2025-09-10,1,,,,,シンワ,0
1404,6120001279384,新規,0,2025-09-10,2025-09-10,株式会社ファーストステップ,,株式会社,大阪府,大阪市福島区,福島７丁目１－１０ＷｉＺｆｕｋｕｓｈｉｍａ２階ＧＲＡＮＤＳＬＡＭ,,27,103,5530003,,,,,,,2025-09-10,1,,,,,ファーストステップ,0
1405,6120001279459,新規,0,2025-09-10,2025-09-10,康慧株式会社,,株式会社,大阪府,大阪市東成区,大今里３丁目１５番６号ＩｍａｚａｔｏＴｏｗｅｒ５１０Ｅ,,27,115,5370012,,,,,,,2025-09-10,1,,,,,コウエ,0
1406,6120001279491,新規,0,2025-09-10,2025-09-10,株式会社ワイエネット,,株式会社,大阪府,大阪市平野区,加美北５丁目１２番２３号コムプラザ加美Ｈ号室,,27,126,5470001,,,,,,,2025-09-10,1,,,,,ワイエネット,0
1407,6120001279756,新規,0,2025-09-10,2025-09-10,源不動産株式会社,,株式会社,大阪府,大阪市城東区,新喜多東２丁目６番１０号,,27,118,5360017,,,,,,,2025-09-10,1,,,,,ミナモトフドウサン,0
1416,6120003030506,新規,0,2025-09-10,2025-09-10,合同会社ＰＨＵ　ＭＩＮＨ,,合同会社,大阪府,大阪市住吉区,遠野小野３－２０－９－２０２号,,27,120,5580000,,,,,,,2025-09-10,1,,,,,フミン,0
1417,6120101072350,新規,0,2025-09-10,2025-09-10,Ｕｂｕ株式会社,,株式会社,大阪府,堺市堺区,北瓦町１丁３－２,,27,141,5900076,,,,,,,2025-09-10,1,,,,,ウブ,0
1418,6120101072367,新規,0,2025-09-10,2025-09-10,泉海商運中部株式会社,,株式会社,大阪府,和泉市,平井町３０７番地１,,27,219,5941115,,,,,,,2025-09-10,1,,,,,センカイショウウンチュウブ,0
1420,6120103006694,新規,0,2025-09-10,2025-09-10,日出東方合同会社,,合同会社,大阪府,堺市中区,辻之１１７１－６０－１０１,00140600,27,142,5998245,,,,,,,2025-09-10,1,,,,,ヒノデトウホウ,0
1429,6130001080527,新規,0,2025-09-10,2025-09-10,株式会社Ｂｅａｕｔｅｒｉａ,,株式会社,京都府,京都市中京区,西ノ京永本町１４－４３ザゲート二条２Ｆ,,26,104,6048421,,,,,,,2025-09-10,1,,,,,ビューテリア,0
1433,6140001139990,新規,0,2025-09-10,2025-09-10,クレシアエステート株式会社,,株式会社,兵庫県,加西市,北条町古坂１丁目２番地,,28,220,6752303,,,,,,,2025-09-10,1,,,,,クレシアエステート,0
1434,6140003022567,新規,0,2025-09-10,2025-09-10,ユーテックジャパン合同会社,,合同会社,兵庫県,神戸市中央区,磯辺通１丁目１番１８号カサベラ国際プラザビル７０７号室,,28,110,6510084,,,,,,,2025-09-10,1,,,,,ユーテックジャパン,0
1435,6150001028391,新規,0,2025-09-10,2025-09-10,株式会社希音,,株式会社,奈良県,奈良市,中山町西４丁目５３５番２３４号,,29,201,6310013,,,,,,,2025-09-10,1,,,,,キノン,0
1442,6180001168557,新規,0,2025-09-10,2025-09-10,ＳＳＣセコカンコンサル株式会社,,株式会社,愛知県,名古屋市名東区,極楽４丁目１４０５番地,,23,115,4650053,,,,,,,2025-09-10,1,,,,,エスエスシーセコカンコンサル,0
1447,6180003028998,新規,0,2025-09-10,2025-09-10,合同会社ＭＬＤ　Ｓｔｕｄｉｏ,,合同会社,愛知県,名古屋市中村区,名駅４丁目２４番５号第２森ビル４０１,,23,105,4500002,,,,,,,2025-09-10,1,,,,,エムエルディスタジオ,0
1449,6180303006720,新規,0,2025-09-10,2025-09-10,ＤＮモバイル合同会社,,合同会社,愛知県,豊川市,御津町御馬玉袋６１番地８,,23,207,4410311,,,,,,,2025-09-10,1,,,,,ディーエヌモバイル,0
1450,6190003005170,新規,0,2025-09-10,2025-09-10,南伊勢いそいそツアーズ合同会社,,合同会社,三重県,度会郡南伊勢町,神前浦１１番地,,24,472,5161422,,,,,,,2025-09-10,1,,,,,ミナミイセイソイソツアーズ,0
1451,6200003007025,新規,0,2025-09-10,2025-09-10,＿＿合同会社,00140601,合同会社,岐阜県,揖斐郡池田町,本郷１３９２番地の１,,21,404,5032417,,,,,,,2025-09-10,1,,,,,シンシン,0
1459,6260001040526,新規,0,2025-09-10,2025-09-10,株式会社山テク,,株式会社,岡山県,玉野市,田井２丁目２３番１０号,,33,204,7060001,,,,,,,2025-09-10,1,,,,,,0
1464,6290001111324,新規,0,2025-09-10,2025-09-10,株式会社遥啓,,株式会社,福岡県,福岡市西区,今宿西１丁目１３番１８号,,40,135,8190169,,,,,,,2025-09-10,1,,,,,ハルケイ,0
1467,6290003017354,新規,0,2025-09-10,2025-09-10,Ｉ　ＧＥＴ合同会社,,合同会社,福岡県,福岡市東区,二又瀬新町１１番３７号,,40,131,8120065,,,,,,,2025-09-10,1,,,,,アイゲット,0
1477,6320001021305,新規,0,2025-09-10,2025-09-10,株式会社湯けむりフーズ,,株式会社,大分県,別府市,北浜１丁目４番９号つるみプレザンビル２Ｆ,,44,202,8740920,,,,,,,2025-09-10,1,,,,,ユケムリフーズ,0
1480,6330005010947,新規,0,2025-09-10,2025-09-10,特定非営利活動法人しらぬいの風,,その他の設立登記法人,熊本県,八代市,萩原町１丁目８番３７号,,43,202,8660831,,,,,,,2025-09-10,1,,,,,シラヌイノカゼ,0
1482,6340001027630,新規,0,2025-09-10,2025-09-10,株式会社Ｒｋａｎａｅｒｕ,,株式会社,鹿児島県,曽於郡大崎町,益丸１０６９－１,,46,468,8997303,,,,,,,2025-09-10,1,,,,,アールカナエル,0
1485,6360001035763,新規,0,2025-09-10,2025-09-10,株式会社ＩＫＭ,,株式会社,沖縄県,沖縄市,上地２丁目１５番２２号ミルコマンション上地シー＆ベースビュー１４０２号,,47,211,9040031,,,,,,,2025-09-10,1,,,,,アイケイエム,0
1489,6370001053046,新規,0,2025-09-10,2025-09-10,株式会社プリノノ,,株式会社,宮城県,仙台市若林区,沖野３丁目１３番２０号１０１,,04,103,9840831,,,,,,,2025-09-10,1,,,,,プリノノ,0
1491,6380001035563,新規,0,2025-09-10,2025-09-10,株式会社ティースリー,,株式会社,福島県,郡山市,麓山１丁目３－４ダイアパレス１０３,,07,203,9638876,,,,,,,2025-09-10,1,,,,,ティースリー,0
1502,6430003018065,新規,0,2025-09-10,2025-09-10,合同会社Ｄｅａｒｓ,,合同会社,北海道,札幌市北区,北二十条西５丁目２番５０号ＣＲＯＳＳ　ＰＯＩＮＴ８階８０２号室,,01,102,0010020,,,,,,,2025-09-10,1,,,,,ディアーズ,0
1504,6430005015291,新規,0,2025-09-10,2025-09-10,特定非営利活動法人ボラギャング,,その他の設立登記法人,北海道,札幌市北区,新琴似一条８丁目１９番１０号,,01,102,0010901,,,,,,,2025-09-10,1,,,,,ボラギャング,0
1521,7010001258357,新規,0,2025-09-10,2025-09-10,ティーエルシーラディッシュ株式会社,,株式会社,東京都,千代田区,神田練塀町３番地,,13,101,1010022,,,,,,,2025-09-10,1,,,,,ティーエルシーラディッシュ,0
1522,7010001258373,新規,0,2025-09-10,2025-09-10,株式会社Ｌｕｎａｒｋ,,株式会社,東京都,中央区,日本橋小舟町９番１０－６０３号,,13,102,1030024,,,,,,,2025-09-10,1,,,,,ルナーク,0
1523,7010001258381,新規,0,2025-09-10,2025-09-10,株式会社ＳＬＡ,,株式会社,東京都,千代田区,丸の内１丁目６番１号,,13,101,1000005,,,,,,,2025-09-10,1,,,,,エスエルエー,0
1524,7010001258415,新規,0,2025-09-10,2025-09-10,ブランディング・ラボ株式会社,,株式会社,東京都,千代田区,富士見１丁目３番１１号富士見デュープレックスＢ’ｓ４階,,13,101,1020071,,,,,,,2025-09-10,1,,,,,ブランディングラボ,0
1527,7010005040637,新規,0,2025-09-10,2025-09-10,一般社団法人日本こども福祉の会,,その他の設立登記法人,東京都,中央区,銀座１丁目２２番１１号銀座大竹ビジデンス２Ｆ,,13,102,1040061,,,,,,,2025-09-10,1,,,,,ニホンコドモフクシノカイ,0
1531,7010101016862,新規,0,2025-09-10,2025-09-10,株式会社Ｏｎｅ,,株式会社,東京都,八王子市,絹ケ丘３丁目２７番６号,,13,201,1920912,,,,,,,2025-09-10,1,,,,,ワン,0
1552,7010601067918,新規,0,2025-09-10,2025-09-10,税理士不動産株式会社,,株式会社,東京都,墨田区,緑２丁目１０番１１号レナファイン３０２,,13,107,1300021,,,,,,,2025-09-10,1,,,,,ゼイリシフフドウサン,0
1553,7010601067934,新規,0,2025-09-10,2025-09-10,株式会社ＫＬＨＴ,,株式会社,東京都,江東区,東雲１丁目９番４３号ＢＥＡＣＯＮＴｏｗｅｒＲｅｓｉｄｅｎｃｅ３２０４,,13,108,1350062,,,,,,,2025-09-10,1,,,,,ケーエルエイチティー,0
1555,7010603011782,新規,0,2025-09-10,2025-09-10,ゴールド・ビーンズ合同会社,,合同会社,東京都,墨田区,本所１丁目３５番１０号－２０２,,13,107,1300004,,,,,,,2025-09-10,1,,,,,ゴールドビーンズ,0
1557,7010701048280,新規,0,2025-09-10,2025-09-10,Ｖａｌｕｅ　Ｃａｐｉｔａｌ株式会社,,株式会社,東京都,品川区,上大崎２丁目１８番１６号ヴェリテ目黒３Ｆ,,13,109,1410021,,,,,,,2025-09-10,1,,,,,バリューキャピタル,0
1563,7011001171871,新規,0,2025-09-10,2025-09-10,株式会社ＥＮＯＡ,,株式会社,東京都,目黒区,碑文谷１丁目２番１０－６１４号シーアイマンション碑文谷,,13,110,1520003,,,,,,,2025-09-10,1,,,,,エノア,0
1564,7011001171913,新規,0,2025-09-10,2025-09-10,株式会社Ｈｅａｒｔ　Ｌｉｆｅ‐こころの悩み相談所,,株式会社,東京都,渋谷区,円山町１５番１４－３０７号エル・アルカサル渋谷,,13,113,1500044,,,,,,,2025-09-10,1,,,,,ハートライフココロノナヤミソウダンジョ,0
1565,7011001172440,新規,0,2025-09-10,2025-09-10,株式会社ＡＬＴＲＥＧＯ,,株式会社,東京都,渋谷区,道玄坂１丁目１０番８号渋谷道玄坂東急ビル２Ｆ―Ｃ,,13,113,1500043,,,,,,,2025-09-10,1,,,,,オルターエゴ,0
1566,7011003022478,新規,0,2025-09-10,2025-09-10,合同会社オルヴィタス,,合同会社,東京都,渋谷区,初台１丁目５１番１号,,13,113,1510061,,,,,,,2025-09-10,1,,,,,オルヴィタス,0
1570,7011103016297,新規,0,2025-09-10,2025-09-10,白馬ＰＪ合同会社,,合同会社,東京都,新宿区,四谷２丁目９番地１５東京ユナイテッド綜合事務所内,,13,104,1600004,,,,,,,2025-09-10,1,,,,,ハクバピージェイ,0
1573,7011201026636,新規,0,2025-09-10,2025-09-10,株式会社ＳＵＮＬＩＴ,,株式会社,東京都,中野区,中央１丁目３番４号ＣＲＡＳＯ中野坂上３０１,,13,114,1640011,,,,,,,2025-09-10,1,,,,,サンリット,0
1574,7011301030884,新規,0,2025-09-10,2025-09-10,株式会社ニュータビー,,株式会社,東京都,杉並区,高円寺南２丁目１番１５号ＣｕｂｉｋＯｆｆｉｃｅ東高円寺１０５,,13,115,1660003,,,,,,,2025-09-10,1,,,,,ニュータビー,0
1581,7011503006674,新規,0,2025-09-10,2025-09-10,合同会社ＤＧ,,合同会社,東京都,荒川区,東日暮里２丁目３２番２号ラシクラス日暮里２０１号,,13,118,1160014,,,,,,,2025-09-10,1,,,,,ディージー,0
1584,7011703004379,新規,0,2025-09-10,2025-09-10,合同会社Ｄｉｇｔｅｃｈｔｉｖｅ,,合同会社,東京都,江戸川区,瑞江２丁目５番３号グレイス瑞江２Ｆ,,13,123,1320011,,,,,,,2025-09-10,1,,,,,ディグテクティブ,0
1586,7011801046703,新規,0,2025-09-10,2025-09-10,株式会社寅威,,株式会社,東京都,足立区,綾瀬６丁目３９番６号コーポＴＡＮＡＫＡ２Ｅ,,13,121,1200005,,,,,,,2025-09-10,1,,,,,トライ,0
1589,7011803007067,新規,0,2025-09-10,2025-09-10,合同会社オルタンシア,,合同会社,東京都,葛飾区,東金町６丁目２７番４－３２０号ライオンズガーデン金町リバーステージ,,13,122,1250041,,,,,,,2025-09-10,1,,,,,オルタンシア,0
1591,7012401043578,新規,0,2025-09-10,2025-09-10,株式会社リビルド,,株式会社,東京都,府中市,小柳町４丁目３３－１５,,13,206,1830013,,,,,,,2025-09-10,1,,,,,リビルド,0
1592,7012405005161,新規,0,2025-09-10,2025-09-10,医療法人社団楓紫会,,その他の設立登記法人,東京都,調布市,小島町２丁目４５番地６Ｃｏｃｏ調布１階,,13,208,1820026,,,,,,,2025-09-10,1,,,,,フウシカイ,0
1595,7012703003370,新規,0,2025-09-10,2025-09-10,合同会社ＶＩＮＡサーチ,,合同会社,東京都,東村山市,本町２丁目１２番地１サンライトビル３Ｆ,,13,213,1890014,,,,,,,2025-09-10,1,,,,,ビナサーチ,0
1597,7012801024244,新規,0,2025-09-10,2025-09-10,タマジェンラボ株式会社,,株式会社,東京都,立川市,錦町１丁目４－４サニービル２Ｆ・ＣＳ－２５２,,13,202,1900022,,,,,,,2025-09-10,1,,,,,タマジェンラボ,0
1598,7013101009794,新規,0,2025-09-10,2025-09-10,株式会社ジョブゼミ,,株式会社,東京都,羽村市,玉川２丁目６番２４号,,13,227,2050024,,,,,,,2025-09-10,1,,,,,ジョブゼミ,0
1600,7013301054863,新規,0,2025-09-10,2025-09-10,Ａｌｔｉｖｕｓ　Ｈｏｌｄｉｎｇｓ株式会社,,株式会社,東京都,豊島区,東池袋５丁目７番３号東池袋五丁目ビル２階,,13,116,1700013,,,,,,,2025-09-10,1,,,,,アルティブスホールディングス,0
1608,7020001164777,新規,0,2025-09-10,2025-09-10,株式会社フウ,,株式会社,神奈川県,横浜市中区,吉田町５３番地,,14,104,2310041,,,,,,,2025-09-10,1,,,,,フウ,0
1613,7021001086251,新規,0,2025-09-10,2025-09-10,株式会社ＴＳサークル,,株式会社,神奈川県,秦野市,今泉６４７番地,,14,211,2570014,,,,,,,2025-09-10,1,,,,,ティエスサークル,0
1621,7030001168422,新規,0,2025-09-10,2025-09-10,株式会社ひなた,,株式会社,埼玉県,さいたま市緑区,原山３丁目１５番３３－１０１号,,11,109,3360931,,,,,,,2025-09-10,1,,,,,ヒナタ,0
1622,7030001168488,新規,0,2025-09-10,2025-09-10,株式会社Ｇ２キャピタル,,株式会社,埼玉県,草加市,松原３丁目６番１号,,11,221,3400041,,,,,,,2025-09-10,1,,,,,ジーツーキャピタル,0
1623,7030001168562,新規,0,2025-09-10,2025-09-10,株式会社ライズピア,,株式会社,埼玉県,さいたま市大宮区,吉敷町１丁目７５番地１,,11,103,3300843,,,,,,,2025-09-10,1,,,,,ライズピア,0
1624,7030001168629,新規,0,2025-09-10,2025-09-10,ピクセルライト株式会社,,株式会社,埼玉県,川口市,西川口６丁目４番６号第二荻島ビル２階,,11,203,3320021,,,,,,,2025-09-10,1,,,,,ピクセルライト,0
1628,7030003027568,新規,0,2025-09-10,2025-09-10,合同会社イベントセール,,合同会社,埼玉県,狭山市,笹井２丁目７番２７号,,11,215,3501327,,,,,,,2025-09-10,1,,,,,イベントセール,0
1635,7040003028400,新規,0,2025-09-10,2025-09-10,合同会社爪美人,,合同会社,千葉県,松戸市,大金平５丁目４４１番地の５,,12,207,2700006,,,,,,,2025-09-10,1,,,,,ツメビジン,0
1638,7050001057251,新規,0,2025-09-10,2025-09-10,株式会社信念,,株式会社,茨城県,ひたちなか市,表町２番地４,,08,221,3120047,,,,,,,2025-09-10,1,,,,,シンネン,0
1640,7050003009515,新規,0,2025-09-10,2025-09-10,合同会社エフエルシー,,合同会社,茨城県,古河市,中央町３丁目７－２９,,08,204,3060033,,,,,,,2025-09-10,1,,,,,エフエルシー,0
1645,7070003006080,新規,0,2025-09-10,2025-09-10,フードラ合同会社,,合同会社,群馬県,安中市,上後閑２４９６番地,,10,211,3790108,,,,,,,2025-09-10,1,,,,,フードラ,0
1647,7080001027144,新規,0,2025-09-10,2025-09-10,株式会社ＡＬＥＴＴＡ,,株式会社,静岡県,静岡市葵区,二番町１１番地の１,,22,101,4200072,,,,,,,2025-09-10,1,,,,,アレッタ,0
1649,7080003003548,新規,0,2025-09-10,2025-09-10,合同会社ＫＹＯ‐ＺＯＮ,,合同会社,静岡県,静岡市駿河区,丸子３２１１－１２,,22,102,4210103,,,,,,,2025-09-10,1,,,,,キョウゾン,0
1651,7080401028163,新規,0,2025-09-10,2025-09-10,株式会社ＴＡＯ,,株式会社,静岡県,浜松市中央区,天神町３番２号,,22,138,4300808,,,,,,,2025-09-10,1,,,,,タオ,0
1657,7100003008379,新規,0,2025-09-10,2025-09-10,合同会社ＴｒｉＳｐｉｒａｌ,,合同会社,長野県,飯田市,本町１丁目１２,,20,205,3950044,,,,,,,2025-09-10,1,,,,,トリスパイラル,0
1658,7110003005879,新規,0,2025-09-10,2025-09-10,ＰｉｘｅｌＳｔｒａｎｄ　Ｓｔｕｄｉｏ合同会社,,合同会社,新潟県,柏崎市,桜木町字六番杭１４６８番地２号,,15,205,9450073,,,,,,,2025-09-10,1,,,,,ピクセルストランドスタジオ,0
1664,7120001279359,新規,0,2025-09-10,2025-09-10,ハクウイチ株式会社,,株式会社,大阪府,大阪市東成区,深江北３丁目４番２１号エクラ深江橋２１２Ｂ,,27,115,5370001,,,,,,,2025-09-10,1,,,,,ハクウイチ,0
1665,7120001279433,新規,0,2025-09-10,2025-09-10,株式会社Ｆｌｏｒ　Ｌｉｎｄａ,,株式会社,大阪府,大阪市城東区,今福西３丁目８番１０号,,27,118,5360004,,,,,,,2025-09-10,1,,,,,フロールリンダ,0
1666,7120001279474,新規,0,2025-09-10,2025-09-10,株式会社Ｔ＆Ｎエイトコーポレーション,,株式会社,大阪府,大阪市浪速区,敷津東２丁目１番２４－１０１２号,,27,111,5560012,,,,,,,2025-09-10,1,,,,,ティーアンドエヌエイトコーポレーション,0
1667,7120001279482,新規,0,2025-09-10,2025-09-10,山本建築株式会社,,株式会社,大阪府,交野市,私部南１丁目１１－１３,,27,230,5760035,,,,,,,2025-09-10,1,,,,,ヤマモトケンチク,0
1671,7120003030439,新規,0,2025-09-10,2025-09-10,合同会社みずほ,,合同会社,大阪府,大阪市北区,梅田１丁目２番２号大阪駅前第２ビル１２－１２,,27,127,5300001,,,,,,,2025-09-10,1,,,,,ミズホ,0
1672,7120003030505,新規,0,2025-09-10,2025-09-10,ＦＵＪＩ合同会社,,合同会社,大阪府,大阪市西成区,北津守３丁目７番９号,,27,122,5570061,,,,,,,2025-09-10,1,,,,,フジ,0
1673,7120003030513,新規,0,2025-09-10,2025-09-10,合同会社Ｉｄｅａｌｅ,,合同会社,大阪府,大阪市中央区,森ノ宮中央２丁目１３番－３５－８１１,,27,128,5400003,,,,,,,2025-09-10,1,,,,,イデアル,0
1675,7120101072366,新規,0,2025-09-10,2025-09-10,泉海商運西日本株式会社,,株式会社,大阪府,和泉市,平井町３０７番地１,,27,219,5941115,,,,,,,2025-09-10,1,,,,,センカイショウウンニシニホン,0
1677,7120103006693,新規,0,2025-09-10,2025-09-10,合同会社レジリエンス研究所,,合同会社,大阪府,岸和田市,南上町１丁目３１番２１号ベルトピア南上町Ｂ棟１０２号,,27,202,5960078,,,,,,,2025-09-10,1,,,,,レジリエンスケンキュウジョ,0
1680,7120901051478,新規,0,2025-09-10,2025-09-10,フッキー株式会社,,株式会社,大阪府,箕面市,船場東２丁目４番１号フレスデザインビル５Ｆ,,27,220,5620035,,,,,,,2025-09-10,1,,,,,フッキー,0
1686,7130001080476,新規,0,2025-09-10,2025-09-10,株式会社ＪＫ　ＴＲＡＤＩＮＧ,,株式会社,京都府,木津川市,加茂町里西鳥口７６番地コスモハイツ東１０３号室,,26,214,6191152,,,,,,,2025-09-10,1,,,,,ジェイケイトレーディング,0
1687,7130001080526,新規,0,2025-09-10,2025-09-10,株式会社一休,,株式会社,京都府,京都市中京区,御池通東洞院東入笹屋町４３６永和御池ビル６０６号,,26,104,6048187,,,,,,,2025-09-10,1,,,,,イッキュウ,0
1688,7130001080550,新規,0,2025-09-10,2025-09-10,株式会社ｏｒｉｃｏｗ,,株式会社,京都府,京都市下京区,本塩竈町５３４番地,,26,106,6008119,,,,,,,2025-09-10,1,,,,,オリコウ,0
1692,7140001139965,新規,0,2025-09-10,2025-09-10,株式会社ｆｏｒｃｅｓｓ,,株式会社,兵庫県,宝塚市,逆瀬川２丁目７番１７－１号,,28,214,6650035,,,,,,,2025-09-10,1,,,,,フォーセス,0
1694,7140003022566,新規,0,2025-09-10,2025-09-10,Ａｉｄｒａ合同会社,,合同会社,兵庫県,加東市,牧野７６６番地１,,28,228,6731474,,,,,,,2025-09-10,1,,,,,アイドラ,0
1706,7180001168606,新規,0,2025-09-10,2025-09-10,総合建物防水管理サービス株式会社,,株式会社,愛知県,名古屋市西区,中小田井３丁目９７番地の２,,23,104,4520822,,,,,,,2025-09-10,1,,,,,ソウゴウタテモノボウスイカンリサービス,0
1708,7180003029005,新規,0,2025-09-10,2025-09-10,ＴＡＳＴＥ　ＯＦ　ＮＥＰＡＬ合同会社,,合同会社,愛知県,名古屋市北区,山田４丁目１５番２７号市営山田北荘７０７号,,23,103,4620810,,,,,,,2025-09-10,1,,,,,テイストオフネパール,0
1711,7190005012073,新規,0,2025-09-10,2025-09-10,星禾協同組合,,その他の設立登記法人,三重県,桑名市,大字東汰上５７２番地の１,,24,205,5110806,,,,,,,2025-09-10,1,,,,,セイカ,0
1714,7200001044201,新規,0,2025-09-10,2025-09-10,株式会社Ｃｙｂｅｒ　Ｇｒｏｕｐ　Ｈｏｌｄｉｎｇｓ,,株式会社,岐阜県,岐阜市,住田町１丁目１８パリービル４Ｆ,,21,201,5008843,,,,,,,2025-09-10,1,,,,,サイバーグループホールディングス,0
1715,7200001044226,新規,0,2025-09-10,2025-09-10,株式会社浅野電気,,株式会社,岐阜県,岐阜市,柳津町蓮池１丁目７１番地,,21,201,5016103,,,,,,,2025-09-10,1,,,,,アサノデンキ,0
1716,7200001044234,新規,0,2025-09-10,2025-09-10,ＭＴ株式会社,,株式会社,岐阜県,岐阜市,柳津町上佐波２丁目８４番地,,21,201,5016121,,,,,,,2025-09-10,1,,,,,エムティー,0
1717,7200003007016,新規,0,2025-09-10,2025-09-10,合同会社セレンディア,,合同会社,岐阜県,各務原市,蘇原新栄町２丁目６１－１－ＩＩＩ２０２,00140599,21,213,5040855,,,,,,,2025-09-10,1,,,,,セレンディア,0
1719,7200005013796,新規,0,2025-09-10,2025-09-10,三宅社会保険労務士法人,,その他の設立登記法人,岐阜県,岐阜市,大宝町２丁目１４番地１,,21,201,5008851,,,,,,,2025-09-10,1,,,,,ミヤケ,0
1721,7220001026924,新規,0,2025-09-10,2025-09-10,塚田建設株式会社,,株式会社,石川県,金沢市,畝田中２丁目１４３ハイカムール壱番館２０３,,17,201,9200343,,,,,,,2025-09-10,1,,,,,,0
1732,7290003017428,新規,0,2025-09-10,2025-09-10,ＡＮ合同会社,,合同会社,福岡県,古賀市,花鶴丘１丁目７－１２－２０３号,,40,223,8113104,,,,,,,2025-09-10,1,,,,,アン,0
1735,7290803005144,新規,0,2025-09-10,2025-09-10,一人合同会社,,合同会社,福岡県,北九州市小倉北区,中井２丁目１１番９ＳＯ中井Ｉ,,40,106,8030836,,,,,,,2025-09-10,1,,,,,ヒトリ,0
1742,7330003011194,新規,0,2025-09-10,2025-09-10,合同会社ＭＹＮＡＲＩＳ,,合同会社,熊本県,玉名市,中３３番地２,,43,206,8650064,,,,,,,2025-09-10,1,,,,,ミナリス,0
1748,7360001035762,新規,0,2025-09-10,2025-09-10,株式会社映,,株式会社,沖縄県,宜野湾市,真栄原３丁目１７番２号５－Ａ,,47,205,9012215,,,,,,,2025-09-10,1,,,,,ハエル,0
1754,7370001053045,新規,0,2025-09-10,2025-09-10,株式会社レントガード,,株式会社,宮城県,仙台市青葉区,花京院２丁目１番６１－９０６号,,04,101,9800013,,,,,,,2025-09-10,1,,,,,レントガード,0
1770,7430001095171,新規,0,2025-09-10,2025-09-10,株式会社ＭＫ‐ＭＯＴＯＲＩＮＧ,,株式会社,北海道,江別市,文京台東町１０番地の２８,,01,217,0690834,,,,,,,2025-09-10,1,,,,,エムケイーモトリング,0
1772,7430003018072,新規,0,2025-09-10,2025-09-10,合同会社ホクセツ,,合同会社,北海道,札幌市北区,屯田六条１丁目９番１８号,,01,102,0020856,,,,,,,2025-09-10,1,,,,,ホクセツ,0
1781,7500001026508,新規,0,2025-09-10,2025-09-10,株式会社旭和商事,,株式会社,愛媛県,四国中央市,下柏町８７番地４,,38,213,7990411,,,,,,,2025-09-10,1,,,,,アサヒワショウジ,0
1795,8010001258216,新規,0,2025-09-10,2025-09-10,ＥｅＮｅ　ｊａｐａｎ株式会社,,株式会社,東京都,中央区,日本橋人形町３丁目３番５号,,13,102,1030013,,,,,,,2025-09-10,1,,,,,イイネジャパン,0
1796,8010001258356,新規,0,2025-09-10,2025-09-10,ティーエルシーエルム株式会社,,株式会社,東京都,千代田区,神田練塀町３番地,,13,101,1010022,,,,,,,2025-09-10,1,,,,,ティーエルシーエルム,0
1797,8010001258372,新規,0,2025-09-10,2025-09-10,株式会社ＴＲＩＬＬＩＯＮ　ＨＥＡＲＴ,,株式会社,東京都,中央区,銀座３丁目１１番１号銀座参番館ビル５Ｆ,,13,102,1040061,,,,,,,2025-09-10,1,,,,,トリリオンハート,0
1798,8010001258414,新規,0,2025-09-10,2025-09-10,株式会社やまと出版,,株式会社,東京都,千代田区,富士見１丁目３番１１号富士見デュープレックスＢ’ｓ４階,,13,101,1020071,,,,,,,2025-09-10,1,,,,,ヤマトシュッパン,0
1812,8010401192989,新規,0,2025-09-10,2025-09-10,株式会社ＴＭＴパートナーズ,,株式会社,東京都,港区,虎ノ門１丁目１６番６号虎ノ門ＲＡＰＯ－ＴＯビルＵＣＦ７階,,13,103,1050001,,,,,,,2025-09-10,1,,,,,ティーエムティーパートナーズ,0
1813,8010401192997,新規,0,2025-09-10,2025-09-10,株式会社ナユタ,,株式会社,東京都,港区,南青山７丁目１２番５－１０３号,,13,103,1070062,,,,,,,2025-09-10,1,,,,,ナユタ,0
1815,8010403035980,新規,0,2025-09-10,2025-09-10,合同会社Ｅ　ｉｎｃ．,,合同会社,東京都,港区,南青山３丁目１０－４１ジュエル青山ビル２０２,,13,103,1070062,,,,,,,2025-09-10,1,,,,,イーインク,0
1816,8010403035997,新規,0,2025-09-10,2025-09-10,合同会社Ｚｈｅｎ’ｓ　Ｇ＆Ｄ,,合同会社,東京都,港区,南青山２丁目４－１２南青山アサヒビル天翔オフィス南青山ＡＮＮＥＸ地下１階００８号室,,13,103,1070062,,,,,,,2025-09-10,1,,,,,ジェンズジーアンドディー,0
1817,8010405024668,新規,0,2025-09-10,2025-09-10,一般社団法人Ｒ．Ａｌｉｖｅ．Ａｃａｄｅｍｙ,,その他の設立登記法人,東京都,港区,南麻布４丁目５番４８号,,13,103,1060047,,,,,,,2025-09-10,1,,,,,,0
1823,8010601067925,新規,0,2025-09-10,2025-09-10,一鳴驚人ブロックチェーン投資株式会社,,株式会社,東京都,墨田区,千歳３丁目６番５号５０２室プロス森下,,13,107,1300025,,,,,,,2025-09-10,1,,,,,イチメイキョウジンブロックチェーントウシ,0
1824,8010601067933,新規,0,2025-09-10,2025-09-10,株式会社ＳＧキャピタル,,株式会社,東京都,江東区,住吉２丁目６番３号Ｌａｓｉｃａ住吉２０３,,13,108,1350002,,,,,,,2025-09-10,1,,,,,エスジーキャピタル,0
1825,8010601067941,新規,0,2025-09-10,2025-09-10,森友株式会社,,株式会社,東京都,江東区,亀戸６丁目３２－６ＴＡＳＥＮビル１Ｆ,,13,108,1360071,,,,,,,2025-09-10,1,,,,,モリトモ,0
1826,8010603011781,新規,0,2025-09-10,2025-09-10,オフィスエヌ合同会社,,合同会社,東京都,江東区,塩浜２丁目１７番地１０号,,13,108,1350043,,,,,,,2025-09-10,1,,,,,オフィスエヌ,0
1827,8010701048255,新規,0,2025-09-10,2025-09-10,株式会社ＡｃｅＲ,,株式会社,東京都,品川区,東五反田５丁目２０番８号,,13,109,1410022,,,,,,,2025-09-10,1,,,,,エースアール,0
1829,8010901058062,新規,0,2025-09-10,2025-09-10,株式会社ＨＡＲｅＧＲＡ,,株式会社,東京都,世田谷区,太子堂４丁目１８番１５号マガザン三軒茶屋２、３Ｆ－３,,13,112,1540004,,,,,,,2025-09-10,1,,,,,ハレグラ,0
1832,8011001171441,新規,0,2025-09-10,2025-09-10,株式会社ＢＵＳＨＩＮ,,株式会社,東京都,渋谷区,道玄坂１丁目１０番８号渋谷道玄坂東急ビル２Ｆ－Ｃ,,13,113,1500043,,,,,,,2025-09-10,1,,,,,ブシン,0
1833,8011001171887,新規,0,2025-09-10,2025-09-10,株式会社ＮＩＩＬ　Ｐｒｏｄｕｃｔｉｏｎｓ,,株式会社,東京都,渋谷区,道玄坂１丁目１０番８号渋谷道玄坂東急ビル２Ｆ－Ｃ,,13,113,1500043,,,,,,,2025-09-10,1,,,,,ニルプロダクション,0
1834,8011001171904,新規,0,2025-09-10,2025-09-10,株式会社ブルラン,,株式会社,東京都,渋谷区,富ヶ谷１丁目２６番２号ｆｉｔ・代々木公園３０２,,13,113,1510063,,,,,,,2025-09-10,1,,,,,ブルラン,0
1835,8011001171912,新規,0,2025-09-10,2025-09-10,ＩＶＹ　Ｈｏｌｄｉｎｇｓ株式会社,,株式会社,東京都,渋谷区,渋谷２丁目２１番１号渋谷ヒカリエ３３Ｆ,,13,113,1500002,,,,,,,2025-09-10,1,,,,,アイビーホールディングス,0
1836,8011001172258,新規,0,2025-09-10,2025-09-10,株式会社ＵＮＳＴＡＴＥ,,株式会社,東京都,渋谷区,神宮前２丁目３４番１７号住友不動産原宿ビル２０Ｆ,,13,113,1500001,,,,,,,2025-09-10,1,,,,,アンステイト,0
1840,8011101113013,新規,0,2025-09-10,2025-09-10,株式会社マイアドール,,株式会社,東京都,新宿区,市谷砂土原町３丁目８番地,,13,104,1620842,,,,,,,2025-09-10,1,,,,,マイアドール,0
1842,8011301030875,新規,0,2025-09-10,2025-09-10,Ｒｏｎａ　Ａｓｓｅｔ　Ｍａｎａｇｅｍｅｎｔ株式会社,,株式会社,東京都,杉並区,井草３丁目２５番２号,,13,115,1670021,,,,,,,2025-09-10,1,,,,,ロナアセットマネジメント,0
1845,8011503006673,新規,0,2025-09-10,2025-09-10,合同会社笹の葉,,合同会社,東京都,北区,赤羽西１丁目２８番１０号,,13,117,1150055,,,,,,,2025-09-10,1,,,,,ササノハ,0
1850,8011803007058,新規,0,2025-09-10,2025-09-10,合同会社シェアラーズ,,合同会社,東京都,足立区,西新井栄町１丁目１６番２－５１１号,,13,121,1230843,,,,,,,2025-09-10,1,,,,,シェアラーズ,0
1853,8012403007324,新規,0,2025-09-10,2025-09-10,合同会社Ｈａｒｕｋｉ,,合同会社,東京都,小金井市,本町５丁目３８番２５－７０４号,,13,210,1840004,,,,,,,2025-09-10,1,,,,,ハルキ,0
1865,8020005016973,新規,0,2025-09-10,2025-09-10,一般社団法人相模ボートクラブ,,その他の設立登記法人,神奈川県,横浜市南区,永田北３丁目２１番１３号,,14,105,2320071,,,,,,,2025-09-10,1,,,,,サガミボートクラブ,0
1871,8021001086234,新規,0,2025-09-10,2025-09-10,株式会社にゅいｚ,,株式会社,神奈川県,藤沢市,鵠沼桜が岡１丁目４番１５号,,14,205,2510027,,,,,,,2025-09-10,1,,,,,ニュイズ,0
1872,8021001086250,新規,0,2025-09-10,2025-09-10,株式会社知原電気設備,,株式会社,神奈川県,横須賀市,田浦泉町１番地,,14,201,2370073,,,,,,,2025-09-10,1,,,,,チハラデンキセツビ,0
1876,8030001168454,新規,0,2025-09-10,2025-09-10,株式会社ｌｉｍｉｔ,,株式会社,埼玉県,さいたま市大宮区,桜木町２丁目４番１７号ＹＧ大宮駅前第二ビル５Ｆ,,11,103,3300854,,,,,,,2025-09-10,1,,,,,リミット,0
1878,8030003027526,新規,0,2025-09-10,2025-09-10,雲川商合同会社,,合同会社,埼玉県,鴻巣市,堤町１－６,,11,217,3650056,,,,,,,2025-09-10,1,,,,,ウンセンショウ,0
1879,8030003027559,新規,0,2025-09-10,2025-09-10,合同会社Ｉ＆Ｎ,,合同会社,埼玉県,草加市,栄町３丁目２番１４号ＧｒａｎｄｉｒＳａｋａｅＡ号室,,11,221,3400011,,,,,,,2025-09-10,1,,,,,アイアンドエヌ,0
1880,8030003027567,新規,0,2025-09-10,2025-09-10,合同会社フィックス建創,,合同会社,埼玉県,さいたま市大宮区,桜木町２丁目３番地大宮マルイ７階,,11,103,3300854,,,,,,,2025-09-10,1,,,,,フィックスケンソウ,0
1882,8040001140346,新規,0,2025-09-10,2025-09-10,株式会社ＣｏＣｏ住まいる,,株式会社,千葉県,野田市,上花輪８４１番地５,,12,208,2780033,,,,,,,2025-09-10,1,,,,,ココスマイル,0
1883,8040001140404,新規,0,2025-09-10,2025-09-10,株式会社ＪＥＤ,,株式会社,千葉県,成田市,玉造５丁目３４番地２,,12,211,2860011,,,,,,,2025-09-10,1,,,,,ジェーイーディー,0
1884,8040001140420,新規,0,2025-09-10,2025-09-10,株式会社未来ハウス,,株式会社,千葉県,千葉市若葉区,愛生町９０番地９,,12,104,2640031,,,,,,,2025-09-10,1,,,,,ミキハウス,0
1885,8040001140445,新規,0,2025-09-10,2025-09-10,株式会社Ｙｕｉ　Ｎｅｓｔ,,株式会社,千葉県,柏市,松葉町４丁目１番地３、５棟５０８号,,12,217,2770827,,,,,,,2025-09-10,1,,,,,ユイネスト,0
1886,8040001140453,新規,0,2025-09-10,2025-09-10,ＯＧＭ不動産株式会社,,株式会社,千葉県,木更津市,中央１丁目３－２ピュア木更津,,12,206,2920067,,,,,,,2025-09-10,1,,,,,オージーエムフドウサン,0
1888,8040003028473,新規,0,2025-09-10,2025-09-10,ＮＨＡＴ　ＮＨＩ合同会社,,合同会社,千葉県,佐倉市,王子台２丁目１３－１４加藤第一２０１号,,12,212,2850837,,,,,,,2025-09-10,1,,,,,ニャットニ,0
1891,8050001057218,新規,0,2025-09-10,2025-09-10,株式会社ＳＨＥ　ＨＤ,,株式会社,茨城県,水戸市,小吹町１９７２番地１１メゾン・ドゥ・ブランＣ棟１０１号,,08,201,3100914,,,,,,,2025-09-10,1,,,,,シーホールディングズ,0
1897,8070001043331,新規,0,2025-09-10,2025-09-10,中央エスディ株式会社,,株式会社,群馬県,前橋市,六供町５丁目３３番地３１,,10,201,3710804,,,,,,,2025-09-10,1,,,,,チュウオウエスディ,0
1898,8070005010427,新規,0,2025-09-10,2025-09-10,一般社団法人ヒナコルメル美術館,,その他の設立登記法人,群馬県,館林市,尾曳町１１番５号,,10,207,3740019,,,,,,,2025-09-10,1,,,,,,0
1901,8080001027143,新規,0,2025-09-10,2025-09-10,株式会社スカイ,,株式会社,静岡県,静岡市清水区,北矢部町１丁目７番５０号,,22,103,4240937,,,,,,,2025-09-10,1,,,,,スカイ,0
1904,8090001019503,新規,0,2025-09-10,2025-09-10,株式会社ｍｙ　ｃａｆｅ　ｒｏｏｍ,,株式会社,山梨県,韮崎市,本町１丁目９－４清水ビル１階,,19,207,4070024,,,,,,,2025-09-10,1,,,,,マイカフェルーム,0
1925,8120001279416,新規,0,2025-09-10,2025-09-10,ｖｉｖｉ　ｏｆｆｉｃｅ株式会社,,株式会社,大阪府,大阪市東淀川区,西淡路５丁目１番１号コミューズ新大阪２０４－１５号室,,27,114,5330031,,,,,,,2025-09-10,1,,,,,ヴィヴィオフィス,0
1926,8120001279457,新規,0,2025-09-10,2025-09-10,株式会社エンペサール,,株式会社,大阪府,大阪市福島区,福島２丁目２番４,,27,103,5530003,,,,,,,2025-09-10,1,,,,,エンペサール,0
1927,8120001279465,新規,0,2025-09-10,2025-09-10,ラピスリンク株式会社,,株式会社,大阪府,大阪市中央区,南船場４丁目１０番５号南船場ＳＯＨＯビル７０２,,27,128,5420081,,,,,,,2025-09-10,1,,,,,ラピスリンク,0
1928,8120001279515,新規,0,2025-09-10,2025-09-10,義豊株式会社,,株式会社,大阪府,大阪市西成区,花園北２丁目１番６号まどか荘２０２号,,27,122,5570016,,,,,,,2025-09-10,1,,,,,ギホウ,0
1929,8120001279523,新規,0,2025-09-10,2025-09-10,株式会社クラスワン,,株式会社,大阪府,大阪市中央区,淡路町３丁目２番１３号ゼルコバビル６階,,27,128,5410047,,,,,,,2025-09-10,1,,,,,クラスワン,0
1930,8120001279688,新規,0,2025-09-10,2025-09-10,株式会社ＴＫＲ,,株式会社,大阪府,大阪市福島区,福島３丁目１番４９－５０９号,,27,103,5530003,,,,,,,2025-09-10,1,,,,,ティーケーアール,0
1934,8120003030479,新規,0,2025-09-10,2025-09-10,ＫＯＢＯ　ＣＯＮＳＵＬＴＩＮＧ合同会社,,合同会社,大阪府,大阪市阿倍野区,阪南町３丁目１３番２号,,27,119,5450021,,,,,,,2025-09-10,1,,,,,コボコンサルティング,0
1935,8120003030512,新規,0,2025-09-10,2025-09-10,合同会社ＺＯＲＮ,,合同会社,大阪府,大阪市北区,梅田１丁目２番２号大阪駅前第２ビル１２－１２,,27,127,5300001,,,,,,,2025-09-10,1,,,,,ゾーン,0
1936,8120003030553,新規,0,2025-09-10,2025-09-10,合同会社吉原経営会計,,合同会社,大阪府,大阪市淀川区,宮原１丁目１７‐３３ＨｉｖｅＳｐａｃｅ新大阪３２０号,,27,123,5320003,,,,,,,2025-09-10,1,,,,,ヨシハラケイエイカイケイ,0
1937,8120003030578,新規,0,2025-09-10,2025-09-10,合同会社ＭＱ,,合同会社,大阪府,枚方市,黄金野１丁目２番３８－２０４号,,27,210,5731145,,,,,,,2025-09-10,1,,,,,エムキュー,0
1938,8120101072365,新規,0,2025-09-10,2025-09-10,山図株式会社,,株式会社,大阪府,堺市東区,大美野１７３番地３フルーリ大美野３０３,,27,143,5998126,,,,,,,2025-09-10,1,,,,,ヤマズ,0
1939,8120103006684,新規,0,2025-09-10,2025-09-10,合同会社中村メンテナンスラボラトリー,,合同会社,大阪府,堺市中区,深阪５丁２番１０号,,27,142,5998253,,,,,,,2025-09-10,1,,,,,ナカムラメンテナンスラボラトリー,0
1940,8120103006692,新規,0,2025-09-10,2025-09-10,本寧合同会社,,合同会社,大阪府,堺市堺区,神石市之町３０番２１－２０５号,,27,141,5900813,,,,,,,2025-09-10,1,,,,,ベンニン,0
1951,8140003022557,新規,0,2025-09-10,2025-09-10,合同会社三浦商店,,合同会社,兵庫県,神戸市灘区,福住通８丁目１番１９－２号,,28,102,6570824,,,,,,,2025-09-10,1,,,,,ミウラショウテン,0
1952,8140003022565,新規,0,2025-09-10,2025-09-10,Ｋｅｎｊｉ　Ｆｏｏｄｓ合同会社,,合同会社,兵庫県,姫路市,花田町加納原田２９７－７号,,28,201,6710252,,,,,,,2025-09-10,1,,,,,ケンジフッド,0
1957,8160001027044,新規,0,2025-09-10,2025-09-10,優商株式会社,,株式会社,滋賀県,甲賀市,甲賀町毛枚１１５番地,,25,209,5203425,,,,,,,2025-09-10,1,,,,,ユウショウ,0
1960,8160003003596,新規,0,2025-09-10,2025-09-10,ＣＬＥＡＲ　ＣＲＥＡＴＥ合同会社,,合同会社,滋賀県,大津市,馬場１丁目１３番地２１,,25,201,5200802,,,,,,,2025-09-10,1,,,,,クリアクリエイト,0
1963,8180001168563,新規,0,2025-09-10,2025-09-10,株式会社アミールトレーディング,,株式会社,愛知県,名古屋市港区,佐野町１丁目７番地の３,,23,111,4550042,,,,,,,2025-09-10,1,,,,,アミールトレーディング,0
1968,8180003029004,新規,0,2025-09-10,2025-09-10,ＳＲＴ　Ｉｎｔｅｒｎａｔｉｏｎａｌ合同会社,,合同会社,愛知県,名古屋市千種区,内山３丁目２１番２３号キャッスル北沢４０２号,,23,101,4640075,,,,,,,2025-09-10,1,,,,,エスアルティーインターナショナル,0
1972,8200001044225,新規,0,2025-09-10,2025-09-10,おちょぼ不動産株式会社,,株式会社,岐阜県,海津市,平田町三郷９８８番地,,21,221,5030312,,,,,,,2025-09-10,1,,,,,オチョボフドウサン,0
1973,8200001044233,新規,0,2025-09-10,2025-09-10,株式会社ＹＣネクサス,,株式会社,岐阜県,岐阜市,八代３丁目８番５号,,21,201,5020812,,,,,,,2025-09-10,1,,,,,ワイシーネクサス,0
1980,8240001065481,新規,0,2025-09-10,2025-09-10,株式会社バイクショップカンパニー,,株式会社,広島県,広島市安佐南区,山本２丁目２番１７号,,34,105,7310137,,,,,,,2025-09-10,1,,,,,バイクショップカンパニー,0
1986,8260001040524,新規,0,2025-09-10,2025-09-10,ケートラスト商事株式会社,,株式会社,岡山県,岡山市東区,中川町３１６番地１３エストメゾンｆｉｅｒ１階,,33,103,7048176,,,,,,,2025-09-10,1,,,,,ケートラストショウジ,0
1987,8260001040532,新規,0,2025-09-10,2025-09-10,株式会社ケアーズ,,株式会社,岡山県,倉敷市,児島阿津１丁目１４番１６号,,33,202,7110923,,,,,,,2025-09-10,1,,,,,ケアーズ,0
1990,8290001111314,新規,0,2025-09-10,2025-09-10,株式会社ＰＲＯＤＵＣＥ,,株式会社,福岡県,福岡市中央区,天神４丁目３番８号ミーナ天神８階ＴｈｅＣｏｍｐａｎｙミーナ天神,,40,133,8100001,,,,,,,2025-09-10,1,,,,,プロデュース,0
1991,8290001111322,新規,0,2025-09-10,2025-09-10,株式会社インスパイア,,株式会社,福岡県,福岡市中央区,薬院２丁目１３番１－３０２号,,40,133,8100022,,,,,,,2025-09-10,1,,,,,インスパイア,0
2000,8310001019785,新規,0,2025-09-10,2025-09-10,株式会社給酔,,株式会社,長崎県,長崎市,本石灰町６番４号１階,,42,201,8500901,,,,,,,2025-09-10,1,,,,,キュウスイ,0
2003,8320001021328,新規,0,2025-09-10,2025-09-10,株式会社Ｒｅｆｏｒｅｓｔ,,株式会社,大分県,中津市,本耶馬溪町跡田９０４番地,,44,203,8710099,,,,,,,2025-09-10,1,,,,,レフォレスト,0
2008,8330001033561,新規,0,2025-09-10,2025-09-10,株式会社ＡＲＲＯＷＳ,,株式会社,熊本県,合志市,幾久富１８６６番地６７６,,43,216,8611112,,,,,,,2025-09-10,1,,,,,アローズ,0
2012,8330003011202,新規,0,2025-09-10,2025-09-10,合同会社占い寺子屋おん,,合同会社,熊本県,熊本市中央区,水前寺３丁目８番１０－２０２号パストラルハイム水前寺,,43,101,8620950,,,,,,,2025-09-10,1,,,,,,0
2014,8340005009904,新規,0,2025-09-10,2025-09-10,一般社団法人龍治苑アートウォークス,,その他の設立登記法人,鹿児島県,奄美市,名瀬井根町６番６号,,46,222,8940024,,,,,,,2025-09-10,1,,,,,リュウジエンアートウォークス,0
2017,8360001035761,新規,0,2025-09-10,2025-09-10,株式会社アイランド川満,,株式会社,沖縄県,宮古島市,下地字上地５１７番地３,,47,214,9060304,,,,,,,2025-09-10,1,,,,,アイランドカワミツ,0
2021,8370003007279,新規,0,2025-09-10,2025-09-10,合同会社オガーレジャパン,,合同会社,宮城県,仙台市太白区,向山１丁目１９番３２号オガーレ向山２０３号,,04,104,9820841,,,,,,,2025-09-10,1,,,,,オガーレジャパン,0
2023,8380001035561,新規,0,2025-09-10,2025-09-10,株式会社郷信テクノ,,株式会社,福島県,郡山市,安積町笹川字西長久保１５０番地の５ウィンヒルズアサカ２０５号,,07,203,9630102,,,,,,,2025-09-10,1,,,,,キョウシンテクノ,0
2026,8380003006131,新規,0,2025-09-10,2025-09-10,合同会社ターキー,,合同会社,福島県,南相馬市,原町区橋本町１丁目９４番地の３,,07,212,9750006,,,,,,,2025-09-10,1,,,,,ターキー,0
2028,8390001018103,新規,0,2025-09-10,2025-09-10,ＷＩＴＨ　ＷＥＬＬ株式会社,,株式会社,山形県,寒河江市,仲谷地３丁目５番地の５,,06,206,9910054,,,,,,,2025-09-10,1,,,,,ウィズウェル,0
2031,8430001095162,新規,0,2025-09-10,2025-09-10,＿害株式会社,00140597,株式会社,北海道,札幌市豊平区,平岸五条７丁目６番２６－３０２号,,01,105,0620935,,,,,,,2025-09-10,1,,,,,レイガイ,0
2033,8430003018063,新規,0,2025-09-10,2025-09-10,合同会社ｅｍｕ,,合同会社,北海道,札幌市中央区,北五条西２７丁目１－１－５０１,,01,101,0640825,,,,,,,2025-09-10,1,,,,,エム,0
2034,8470001020884,新規,0,2025-09-10,2025-09-10,株式会社やるけん,,株式会社,香川県,高松市,田町９番地３フォレストン田町ビル８階,,37,201,7600053,,,,,,,2025-09-10,1,,,,,ヤルケン,0
2040,8500001026507,新規,0,2025-09-10,2025-09-10,ぷらす紙工株式会社,,株式会社,愛媛県,四国中央市,川之江町４６０番地,,38,213,7990101,,,,,,,2025-09-10,1,,,,,プラスシコウ,0
2050,9010001258339,新規,0,2025-09-10,2025-09-10,株式会社トリニティ,,株式会社,東京都,中央区,銀座８丁目１１－５正金ビル８Ｆ,,13,102,1040061,,,,,,,2025-09-10,1,,,,,トリニティ,0
2051,9010001258355,新規,0,2025-09-10,2025-09-10,ティーエルシーパトリニア株式会社,,株式会社,東京都,千代田区,神田練塀町３番地,,13,101,1010022,,,,,,,2025-09-10,1,,,,,ティーエルシーパトリニア,0
2052,9010001258421,新規,0,2025-09-10,2025-09-10,株式会社ＳＴ　Ｍｅｄｉｔａｌ,,株式会社,東京都,千代田区,大手町１丁目６番１号,,13,101,1000004,,,,,,,2025-09-10,1,,,,,エスティーメディタル,0
2056,9010005040651,新規,0,2025-09-10,2025-09-10,特定非営利活動法人ＬＯＨＡＬＯＨＡ　ＬＡＮＤ,,その他の設立登記法人,東京都,文京区,音羽２丁目１番１号ＣＲＡＮＥ音羽２階,,13,105,1120013,,,,,,,2025-09-10,1,,,,,ロハロハランド,0
2057,9010101016860,新規,0,2025-09-10,2025-09-10,株式会社Ａｌｉｅｎｔｏ　Ｃｏｍｐａｎｙ,,株式会社,東京都,八王子市,中町９番１２号,,13,201,1920085,,,,,,,2025-09-10,1,,,,,アリエントカンパニー,0
2060,9010401192996,新規,0,2025-09-10,2025-09-10,株式会社ＯＷＮＩＳＴ　ＪＡＰＡＮ,,株式会社,東京都,港区,北青山２丁目１４番４号６Ｆ,,13,103,1070061,,,,,,,2025-09-10,1,,,,,オニストジャパン,0
2065,9010601067965,新規,0,2025-09-10,2025-09-10,株式会社イソニウム,,株式会社,東京都,江東区,白河４丁目３番１－６１６号,,13,108,1350021,,,,,,,2025-09-10,1,,,,,イソニウム,0
2067,9010701048279,新規,0,2025-09-10,2025-09-10,株式会社Ｏｓｈｉｍａｔｅ,,株式会社,東京都,品川区,西五反田３丁目１５番６号,,13,109,1410031,,,,,,,2025-09-10,1,,,,,オシメイト,0
2071,9010903010251,新規,0,2025-09-10,2025-09-10,合同会社ＴＨＥＯ,,合同会社,東京都,世田谷区,若林１丁目８－３,,13,112,1540023,,,,,,,2025-09-10,1,,,,,テオ,0
2077,9011001171886,新規,0,2025-09-10,2025-09-10,株式会社八咫,,株式会社,東京都,渋谷区,神宮前２丁目２８番５号,,13,113,1500001,,,,,,,2025-09-10,1,,,,,ヤタ,0
2078,9011001171911,新規,0,2025-09-10,2025-09-10,株式会社ＮＥＸＴＵＲＥ,,株式会社,東京都,渋谷区,代々木２丁目１６－１７代々木フラット２０１,,13,113,1510053,,,,,,,2025-09-10,1,,,,,ネクスチャー,0
2079,9011001172257,新規,0,2025-09-10,2025-09-10,株式会社ＨＥＥＬＡＬ,,株式会社,東京都,渋谷区,神宮前２丁目３４番１７号住友不動産原宿ビル２０Ｆ,,13,113,1500001,,,,,,,2025-09-10,1,,,,,ヘラル,0
2080,9011001172439,新規,0,2025-09-10,2025-09-10,株式会社ＩｔｓｕＣａｒａ,,株式会社,東京都,渋谷区,道玄坂１丁目１０番８号渋谷道玄坂東急ビル２Ｆ―Ｃ,,13,113,1500043,,,,,,,2025-09-10,1,,,,,イツキャラ,0
2083,9011003022336,新規,0,2025-09-10,2025-09-10,合同会社ブルーマーク,,合同会社,東京都,渋谷区,広尾１丁目２番１号ヒカリビル４階,,13,113,1500012,,,,,,,2025-09-10,1,,,,,ブルーマーク,0
2084,9011003022476,新規,0,2025-09-10,2025-09-10,Ａｕｔｏｒ合同会社,,合同会社,東京都,目黒区,三田１丁目９番２号,,13,110,1530062,,,,,,,2025-09-10,1,,,,,アオトア,0
2096,9011301030874,新規,0,2025-09-10,2025-09-10,株式会社ネクシュア,,株式会社,東京都,杉並区,荻窪５丁目３０－６福村産業荻窪ビル３２２,,13,115,1670051,,,,,,,2025-09-10,1,,,,,ネクシュア,0
2097,9011405002407,新規,0,2025-09-10,2025-09-10,医療法人社団ちむも会,,その他の設立登記法人,東京都,板橋区,大山西町１３番８号,,13,119,1730033,,,,,,,2025-09-10,1,,,,,チムモカイ,0
2098,9011503006672,新規,0,2025-09-10,2025-09-10,合同会社Ｐｒｏｓｐｅｒｉａコンサルティング,,合同会社,東京都,荒川区,南千住１丁目５７－１８,,13,118,1160003,,,,,,,2025-09-10,1,,,,,プロスペリアコンサルティング,0
2106,9011803007057,新規,0,2025-09-10,2025-09-10,合同会社Ｒ＆Ｋ,,合同会社,東京都,葛飾区,柴又１丁目３２－１７,,13,122,1250052,,,,,,,2025-09-10,1,,,,,アールアンドケイ,0
2111,9012801024234,新規,0,2025-09-10,2025-09-10,株式会社Ｐａｓ　ａ　Ｐａｓ,,株式会社,東京都,立川市,柴崎町２丁目３－１４,,13,202,1900023,,,,,,,2025-09-10,1,,,,,パスアパス,0
2129,9020001164866,新規,0,2025-09-10,2025-09-10,株式会社高鶏酒飯,,株式会社,神奈川県,川崎市高津区,久本１丁目１６－１－２０２ハイラーク溝の口,,14,134,2130011,,,,,,,2025-09-10,1,,,,,タカトリシュハン,0
2132,9020003029381,新規,0,2025-09-10,2025-09-10,合同会社ユニークフォース,,合同会社,神奈川県,横浜市神奈川区,金港町５－１４クアドリフォリオ８階,,14,102,2210056,,,,,,,2025-09-10,1,,,,,ユニークフォース,0
2138,9021001086200,新規,0,2025-09-10,2025-09-10,ＫＭ株式会社,,株式会社,神奈川県,小田原市,鬼柳８８,,14,206,2500211,,,,,,,2025-09-10,1,,,,,ケーエム,0
2141,9021003016519,新規,0,2025-09-10,2025-09-10,合同会社中島電気設備,,合同会社,神奈川県,大和市,下鶴間３０４番地１４,,14,213,2420001,,,,,,,2025-09-10,1,,,,,ナカジマデンキセツビ,0
2144,9030001168544,新規,0,2025-09-10,2025-09-10,株式会社森内装,,株式会社,埼玉県,川口市,東領家２丁目３４番１０号ビラージュ紅山２０５,,11,203,3320003,,,,,,,2025-09-10,1,,,,,モリナイソウ,0
2147,9030003027566,新規,0,2025-09-10,2025-09-10,Ｓｐｌｅｘ合同会社,,合同会社,埼玉県,川口市,並木元町１番６７－１９１３号,,11,203,3320033,,,,,,,2025-09-10,1,,,,,スピレックス,0
2148,9030003027582,新規,0,2025-09-10,2025-09-10,リンクスポット合同会社,,合同会社,埼玉県,川口市,西川口６丁目４－６第二荻島ビル２０１,,11,203,3320021,,,,,,,2025-09-10,1,,,,,リンクスポット,0
2155,9040001140337,新規,0,2025-09-10,2025-09-10,株式会社ＭＥＭＯＲＩＡＮＣＥ,,株式会社,千葉県,柏市,十余二３８０番地４５中央２０９街区１２カルマーティ２０１号,,12,217,2770872,,,,,,,2025-09-10,1,,,,,メモリアンセ,0
2156,9040001140411,新規,0,2025-09-10,2025-09-10,株式会社Ｌａｌｕ,,株式会社,千葉県,千葉市緑区,誉田町２丁目２０番地１６５,,12,105,2660005,,,,,,,2025-09-10,1,,,,,ラル,0
2157,9040003028448,新規,0,2025-09-10,2025-09-10,合同会社セミコロン,,合同会社,千葉県,松戸市,幸田１丁目１６５－２０１号,,12,207,2700001,,,,,,,2025-09-10,1,,,,,セミコロン,0
2158,9040003028472,新規,0,2025-09-10,2025-09-10,ＳＨＩＮ　ＷＯＲＬＤ合同会社,,合同会社,千葉県,鎌ケ谷市,くぬぎ山１丁目９番２９号,,12,224,2730128,,,,,,,2025-09-10,1,,,,,シンワールド,0
2163,9060001038554,新規,0,2025-09-10,2025-09-10,株式会社足利現代美術研究所,,株式会社,栃木県,足利市,江川町１２５,,09,202,3260067,,,,,,,2025-09-10,1,,,,,アシカガゲンダイビジュツケンキュウジョ,0
2164,9060003005734,新規,0,2025-09-10,2025-09-10,合同会社リライト,,合同会社,栃木県,宇都宮市,若草４丁目９－４ソフィアコートＡ２０２,,09,201,3200072,,,,,,,2025-09-10,1,,,,,リライト,0
2169,9080001027142,新規,0,2025-09-10,2025-09-10,株式会社無農薬茶の杉本園,,株式会社,静岡県,島田市,金谷猪土居３７６９番地の３,,22,209,4280039,,,,,,,2025-09-10,1,,,,,ムノウヤクチャノスギモトエン,0
2171,9080003003554,新規,0,2025-09-10,2025-09-10,合同会社ＮＥＸＴ,,合同会社,静岡県,静岡市葵区,田町３丁目１８番地フレア田町１０１,,22,101,4200068,,,,,,,2025-09-10,1,,,,,ネクスト,0
2172,9090003002893,新規,0,2025-09-10,2025-09-10,合同会社キャンロク,,合同会社,山梨県,南都留郡西桂町,下暮地１７８２番地,,19,423,4030021,,,,,,,2025-09-10,1,,,,,キャンロク,0
2180,9110003005885,新規,0,2025-09-10,2025-09-10,ＰａｎｄＣ合同会社,,合同会社,新潟県,新潟市中央区,神道寺１丁目１番１８号,,15,103,9500983,,,,,,,2025-09-10,1,,,,,ピーアンドシー,0
2185,9120001279357,新規,0,2025-09-10,2025-09-10,邁雅株式会社,,株式会社,大阪府,大阪市城東区,関目５丁目１９番９号関目花博公館１０１Ｂ,,27,118,5360008,,,,,,,2025-09-10,1,,,,,マイア,0
2186,9120001279415,新規,0,2025-09-10,2025-09-10,株式会社エイトデイズ,,株式会社,大阪府,大阪市都島区,大東町１丁目７－３－１０２,,27,102,5340002,,,,,,,2025-09-10,1,,,,,エイトデイズ,0
2187,9120001279456,新規,0,2025-09-10,2025-09-10,株式会社Ａｒｄｏｒｅ,,株式会社,大阪府,大阪市中央区,道頓堀２丁目１番５号４Ｆ,,27,128,5420071,,,,,,,2025-09-10,1,,,,,アルドーレ,0
2188,9120001279472,新規,0,2025-09-10,2025-09-10,美波オール株式会社,,株式会社,大阪府,枚方市,西禁野１丁目１３番１２号,,27,210,5731192,,,,,,,2025-09-10,1,,,,,ミナミオール,0
2189,9120001279522,新規,0,2025-09-10,2025-09-10,株式会社ハクエイ,,株式会社,大阪府,大阪市東淀川区,淡路４丁目２番１４号,,27,114,5330032,,,,,,,2025-09-10,1,,,,,ハクエイ,0
2192,9120005025154,新規,0,2025-09-10,2025-09-10,一般社団法人政治経済情勢活用会,,その他の設立登記法人,大阪府,大阪市北区,梅田１丁目２番２号大阪駅前第２ビル１２－１２,,27,127,5300001,,,,,,,2025-09-10,1,,,,,セイジケイザイジョウセイカツヨウカイ,0
2199,9120903005843,新規,0,2025-09-10,2025-09-10,ＥＶＡＮ　ＧＲＯＵＰ合同会社,,合同会社,大阪府,豊中市,庄内栄町１丁目７番１０号,,27,203,5610834,,,,,,,2025-09-10,1,,,,,,0
2211,9140001139930,新規,0,2025-09-10,2025-09-10,株式会社いちひろ,,株式会社,兵庫県,尼崎市,西立花町２丁目１番１－１０３号,,28,202,6600054,,,,,,,2025-09-10,1,,,,,イチヒロ,0
2212,9140001139963,新規,0,2025-09-10,2025-09-10,株式会社ルナライズ,,株式会社,兵庫県,明石市,西明石南町３丁目３番２５－４０４号,,28,203,6730041,,,,,,,2025-09-10,1,,,,,ルナライズ,0
2213,9140001139971,新規,0,2025-09-10,2025-09-10,バーテックスインターナショナル株式会社,,株式会社,兵庫県,明石市,大久保町高丘７丁目２番地の８,,28,203,6740057,,,,,,,2025-09-10,1,,,,,バーテックスインターナショナル,0
2214,9150001028389,新規,0,2025-09-10,2025-09-10,株式会社下茶屋工房,,株式会社,奈良県,御所市,大字下茶屋１５７番地１,,29,208,6392324,,,,,,,2025-09-10,1,,,,,シモノチャヤコウボウ,0
2224,9170003002299,新規,0,2025-09-10,2025-09-10,合同会社熊野商店,,合同会社,和歌山県,新宮市,大橋通３丁目１番１号日光ビル１階,,30,207,6470004,,,,,,,2025-09-10,1,,,,,クマノショウテン,0
2228,9180001168554,新規,0,2025-09-10,2025-09-10,株式会社ノヴァリエ,,株式会社,愛知県,東海市,加木屋町２丁目１０４番地,,23,222,4770032,,,,,,,2025-09-10,1,,,,,ノヴァリエ,0
2229,9180003029003,新規,0,2025-09-10,2025-09-10,サンシャイン合同会社,,合同会社,愛知県,名古屋市北区,楠味鋺３丁目６０１,,23,103,4620014,,,,,,,2025-09-10,1,,,,,サンシャイン,0
2230,9180003029011,新規,0,2025-09-10,2025-09-10,ＤＲ合同会社,,合同会社,愛知県,名古屋市千種区,古出来３丁目２番５号大清ビル２Ｃ,,23,101,4640085,,,,,,,2025-09-10,1,,,,,ディアール,0
2231,9180301040198,新規,0,2025-09-10,2025-09-10,株式会社ＩＩＭ,,株式会社,愛知県,豊川市,赤坂町大日２７４番地,,23,207,4410202,,,,,,,2025-09-10,1,,,,,イーム,0
2232,9180303006718,新規,0,2025-09-10,2025-09-10,合同会社Ｓ．Ｄ．Ｅ．,,合同会社,愛知県,安城市,大山町２丁目１番地７,,23,212,4460042,,,,,,,2025-09-10,1,,,,,エスディーイー,0
2233,9190005012071,新規,0,2025-09-10,2025-09-10,特定非営利活動法人北勢空き家相談センター,,その他の設立登記法人,三重県,四日市市,九の城町９番１０号,,24,202,5100072,,,,,,,2025-09-10,1,,,,,ホクセイアキヤソウダンセンター,0
2235,9200001044216,新規,0,2025-09-10,2025-09-10,株式会社ＴＩＳＭＡ,,株式会社,岐阜県,可児市,桜ケ丘２丁目１１８番地,,21,214,5090235,,,,,,,2025-09-10,1,,,,,ティスマ,0
2236,9200001044224,新規,0,2025-09-10,2025-09-10,株式会社ＲＩＮＫＩ,,株式会社,岐阜県,揖斐郡揖斐川町,志津山２４５番地４,,21,401,5010613,,,,,,,2025-09-10,1,,,,,リンキ,0
2237,9200001044232,新規,0,2025-09-10,2025-09-10,株式会社ＣＯＮＮＥＣＴ,,株式会社,岐阜県,不破郡垂井町,府中２４９９番地の１,,21,361,5032114,,,,,,,2025-09-10,1,,,,,コネクト,0
2238,9200001044240,新規,0,2025-09-10,2025-09-10,株式会社ＫＤＳ,,株式会社,岐阜県,岐阜市,折立２８４番地１,,21,201,5011132,,,,,,,2025-09-10,1,,,,,ケーディーエス,0
2239,9200003007014,新規,0,2025-09-10,2025-09-10,合同会社ＮＲ　ＴＲＡＤＩＮＧ,,合同会社,岐阜県,土岐市,下石町６６０番地の２９サンテラス芝Ｂ－２０５号,,21,212,5095202,,,,,,,2025-09-10,1,,,,,エヌアールトレーディング,0
2241,9220001026922,新規,0,2025-09-10,2025-09-10,Ｋａｔａｌｉｆｔ株式会社,,株式会社,石川県,鹿島郡中能登町,良川ト部４４番地甲,,17,407,9291717,,,,,,,2025-09-10,1,,,,,カタリフト,0
2242,9230003002499,新規,0,2025-09-10,2025-09-10,ＮＦパートナーズ合同会社,,合同会社,富山県,富山市,黒瀬６２４番地１９,,16,201,9398213,,,,,,,2025-09-10,1,,,,,エヌエフパートナーズ,0
2245,9240001065489,新規,0,2025-09-10,2025-09-10,株式会社リ・ラーナ,,株式会社,広島県,広島市中区,大手町１丁目５番１６－４０１号,,34,101,7300051,,,,,,,2025-09-10,1,,,,,リラーナ,0
2248,9240003007398,新規,0,2025-09-10,2025-09-10,合同会社司馬,,合同会社,広島県,広島市佐伯区,藤垂園２番３８号,,34,108,7315131,,,,,,,2025-09-10,1,,,,,シバ,0
2249,9240005015985,新規,0,2025-09-10,2025-09-10,一般社団法人ささえあい,,その他の設立登記法人,広島県,広島市西区,楠木町２丁目１１－２３－２０４号,,34,104,7330002,,,,,,,2025-09-10,1,,,,,ササエアイ,0
2262,9360001035760,新規,0,2025-09-10,2025-09-10,誠工業株式会社,,株式会社,沖縄県,那覇市,曙２丁目２１番５号フリーベル曙５０１,,47,201,9000002,,,,,,,2025-09-10,1,,,,,マコトコウギョウ,0
2264,9360003015240,新規,0,2025-09-10,2025-09-10,合同会社孝松電設,,合同会社,沖縄県,南城市,佐敷字津波古５８３番地２,,47,215,9011414,,,,,,,2025-09-10,1,,,,,タカマツデンセツ,0
2266,9370001053043,新規,0,2025-09-10,2025-09-10,株式会社Ｐａｃｉｆｉｃ　Ｓｅｒｖｉｃｅ,,株式会社,宮城県,仙台市太白区,太白２丁目１２番２号,,04,104,9820212,,,,,,,2025-09-10,1,,,,,パシフィックサービス,0
2268,9380001035552,新規,0,2025-09-10,2025-09-10,藤添塗装株式会社,,株式会社,福島県,福島市,飯野町青木字上宮１２番地の１,,07,201,9601303,,,,,,,2025-09-10,1,,,,,フジソエトソウ,0
2269,9380001035560,新規,0,2025-09-10,2025-09-10,株式会社Ｍｕｓｃａｒａｔｅ,,株式会社,福島県,南相馬市,原町区雫字蛭沢２８４番地の３５,,07,212,9750042,,,,,,,2025-09-10,1,,,,,ムスカレイト,0
2270,9380003006130,新規,0,2025-09-10,2025-09-10,合同会社ＤＥＮ,,合同会社,福島県,いわき市,植田町本町２丁目６番地の１３大武ビル２Ｆ,,07,204,9748261,,,,,,,2025-09-10,1,,,,,デン,0
2272,9390001018102,新規,0,2025-09-10,2025-09-10,株式会社リライル,,株式会社,山形県,飽海郡遊佐町,菅里字菅野南山３７番地６,,06,461,9998531,,,,,,,2025-09-10,1,,,,,リライル,0
2275,9410001014271,新規,0,2025-09-10,2025-09-10,シー・アンド・シーホールディングス株式会社,,株式会社,秋田県,鹿角郡小坂町,荒谷字手紙沢５４番地５,,05,303,0170204,,,,,,,2025-09-10,1,,,,,シーアンドシーホールディングス,0
2276,9430001095186,新規,0,2025-09-10,2025-09-10,株式会社ＲａＦ,,株式会社,北海道,札幌市南区,藤野二条９丁目８番６号,,01,106,0612282,,,,,,,2025-09-10,1,,,,,ラフ,0
2281,9450001014730,新規,0,2025-09-10,2025-09-10,株式会社フレッシュ農園くぼ,,株式会社,北海道,上川郡東神楽町,１８号南５番地,,01,453,0711548,,,,,,,2025-09-10,1,,,,,フレッシュノウエンクボ,0
2285,9500001026506,新規,0,2025-09-10,2025-09-10,株式会社ピーターパン,,株式会社,愛媛県,松山市,平和通１丁目５番地３６,,38,201,7900807,,,,,,,2025-09-10,1,,,,,ピーターパン,0
2287,9700150132134,新規,0,2025-09-10,2025-09-10,ｓｈｅｎｚｈｅｎｓｈｉｊｕｚａｉｙｉｑｉｚｉｘｕｎｇｕａｎｌｉｙｏｕｘｉａｎｇｏｎｇｓｉ,,外国会社等,,,,,,,,ｓｈｅｎｚｈｅｎｓｈｉｌｏｎｇｈｕａｑｕｍｉｎｚｈｉｊｉｅｄａｏｍｉｎｚｈｉｓｈｅｑｕｍｅｉｈｕａｓｈａｎｚｈｕａｎｇｓｉｍｅｉｙｕａｎ２６ｄｏｎｇ３０１　５１８１１０　ＣＮ,,,,,,2025-09-10,1,,,,,シェンジェンシージーザイイーチーズーシングワンリーヨウシエンゴンスー,0
