sequenceNumber,corporateNumber,process,correct,updateDate,changeDate,name,nameImageId,kind,prefectureName,cityName,streetNumber,addressImageId,prefectureCode,cityCode,postCode,addressOutside,addressOutsideImageId,closeDate,closeCause,successorCorporateNumber,changeCause,assignmentDate,latest,enName,enPrefectureName,enCityName,enAddressOutside,furigana,hihyoji
10,1010002053366,登記記録の閉鎖等,0,2024-03-06,2024-03-01,有限会社創建実業,,有限会社,東京都,文京区,本駒込６丁目１５番８号,,13,105,1130021,,,2024-03-01,清算の結了等,,,2015-10-05,1,,,,,ソウケンジツギョウ,0
24,1010501033091,登記記録の閉鎖等,0,2024-03-06,2024-03-01,一菱株式会社,,株式会社,東京都,台東区,元浅草３丁目２番２号,,13,106,1110041,,,2024-03-01,清算の結了等,,,2015-10-05,1,,,,,イチビシ,0
50,1011401020898,登記記録の閉鎖等,0,2024-03-06,2024-03-04,ヤマトゴルフ株式会社,,株式会社,東京都,板橋区,大和町４７番２号,,13,119,1730012,,,2024-03-04,清算の結了等,,,2018-03-28,1,,,,,ヤマトゴルフ,0
64,1012801018474,登記記録の閉鎖等,0,2024-03-06,2024-02-29,株式会社ｎｏｄａ,,株式会社,東京都,日野市,日野本町１丁目１１番地の７ＶｉｅＪｏｙｅｕ２０１,,13,212,1910011,,,2024-02-29,清算の結了等,,,2018-01-04,1,,,,,ノダ,0
75,1020003006462,登記記録の閉鎖等,0,2024-03-06,2024-03-01,合同会社フォレスト,,合同会社,神奈川県,川崎市川崎区,榎町２番１４号,,14,131,2100002,,,2024-03-01,清算の結了等,,,2015-10-05,1,,,,,フォレスト,0
89,1021003003870,登記記録の閉鎖等,0,2024-03-06,2024-03-01,株式会社ＳＨＣデザイン,,株式会社,神奈川県,茅ヶ崎市,円蔵１丁目１０番３３号,,14,207,2530084,,,2024-03-01,清算の結了等,,,2015-10-05,1,,,,,,0
90,1021003004415,登記記録の閉鎖等,0,2024-03-06,2024-03-01,株式会社サン土地建物,,株式会社,神奈川県,厚木市,旭町５丁目２１番２号,,14,212,2430014,,,2024-03-01,合併による解散等,3021001023695,令和６年３月１日神奈川県厚木市旭町五丁目２１番２号株式会社サンブレイン（3021001023695）に合併し解散,2015-10-05,1,,,,,,0
111,1040001018417,登記記録の閉鎖等,0,2024-03-06,2024-03-01,株式会社パールハウス,,株式会社,千葉県,船橋市,前原西４丁目３８番１９号,,12,204,2740825,,,2024-03-01,合併による解散等,2040001017194,令和６年３月１日千葉県船橋市前原西四丁目３８番１９号株式会社グランドラインコーポレーション（2040001017194）に合併し解散,2015-10-05,1,,,,,パールハウス,0
160,1100002026817,登記記録の閉鎖等,0,2024-03-06,2024-03-01,有限会社豊峯,,有限会社,長野県,北安曇郡白馬村,大字神城２２７１１番地,,20,485,3999211,,,2024-03-01,清算の結了等,,,2015-10-05,1,,,,,ホウホウ,0
163,1110001034679,登記記録の閉鎖等,0,2024-03-06,2024-03-01,株式会社シンセンメディカルコミュニケーションズ,,株式会社,新潟県,新潟市中央区,神道寺１丁目６番１４号,,15,103,9500983,,,2024-03-01,合併による解散等,2110001002461,令和６年３月１日新潟市中央区神道寺二丁目３番２３号株式会社新宣（2110001002461）に合併し解散,2020-03-03,1,,,,,シンセンメディカルコミュニケーションズ,0
191,1120101045996,登記記録の閉鎖等,0,2024-03-06,2024-03-05,株式会社アイシン,,株式会社,大阪府,泉大津市,板原町１丁目５番４号,,27,206,5950033,,,2024-03-05,清算の結了等,,,2015-10-05,1,,,,,アイシン,0
211,1140001083021,登記記録の閉鎖等,0,2024-03-06,2024-02-29,株式会社松浪総研,,株式会社,兵庫県,宝塚市,長尾台２丁目１２番１８号,,28,214,6650807,,,2024-02-29,清算の結了等,,,2015-10-05,1,,,,,マツナミソウケン,0
215,1140002029015,登記記録の閉鎖等,0,2024-03-06,2024-02-29,有限会社ジーニウスファイブ,,有限会社,兵庫県,淡路市,遠田３１０４番地１,,28,226,6561503,,,2024-02-29,清算の結了等,,,2015-10-05,1,,,,,ジーニウスファイブ,0
225,1160005006967,登記記録の閉鎖等,0,2024-03-06,2024-03-05,御嶽教桐原教会,,その他の設立登記法人,滋賀県,近江八幡市,竹町３２６番地,,25,204,5230036,,,2024-03-05,清算の結了等,,,2015-10-05,1,,,,,オンタケキョウキリハラキョウカイ,0
228,1180001086086,登記記録の閉鎖等,0,2024-03-06,2024-02-29,株式会社トクヤマ,,株式会社,愛知県,稲沢市,生出山田町５６番地,,23,220,4928304,,,2024-02-29,清算の結了等,,,2015-10-05,1,,,,,トクヤマ,0
229,1180001090708,登記記録の閉鎖等,0,2024-03-06,2024-03-01,株式会社ステラ,,株式会社,愛知県,名古屋市千種区,今池５丁目３１番１９号,,23,101,4640850,,,2024-03-01,合併による解散等,1180001148480,令和６年３月１日名古屋市中区栄四丁目１７番２１号株式会社ＴＡＩＳＨＩ（1180001148480）に合併し解散,2015-10-05,1,,,,,ステラ,0
245,1180003018533,登記記録の閉鎖等,0,2024-03-06,2024-02-28,株式会社Ｂ・Ｓ・Ｓ,,株式会社,愛知県,名古屋市緑区,徳重１丁目７０２番地１,,23,114,4580815,,,2024-02-28,清算の結了等,,,2017-12-18,1,,,,,ビーエスエス,0
250,1180303003763,登記記録の閉鎖等,0,2024-03-06,2024-02-29,マルフ合同会社,,合同会社,愛知県,豊橋市,北島町字北島８１番地１,,23,201,4400071,,,2024-02-29,清算の結了等,,,2017-01-18,1,,,,,マルフ,0
252,1190001001291,登記記録の閉鎖等,0,2024-03-06,2024-03-04,織田建設株式会社,,株式会社,三重県,津市,牧町４５９番地の１,,24,201,5141123,,,2024-03-04,清算の結了等,,,2015-10-05,1,,,,,オリタケンセツ,0
254,1190001028161,登記記録の閉鎖等,0,2024-03-06,2024-03-04,株式会社池田不動産,,株式会社,三重県,桑名市,大字大仲新田５４１番地３,,24,205,5110947,,,2024-03-04,清算の結了等,,,2021-03-29,1,,,,,イケダフドウサン,0
258,1200001010927,登記記録の閉鎖等,0,2024-03-06,2024-03-05,ギフトーセン株式会社,,株式会社,岐阜県,羽島郡笠松町,長池３６４番地,,21,303,5016063,,,2024-03-05,清算の結了等,,,2015-10-05,1,,,,,ギフトーセン,0
263,1210002004126,登記記録の閉鎖等,0,2024-03-06,2024-03-04,有限会社吉川経営労務研究所,,有限会社,福井県,福井市,高木２丁目７１５番地,,18,201,9100805,,,2024-03-04,清算の結了等,,,2015-10-05,1,,,,,ヨシカワケイエイロウムケンキュウジョ,0
282,1290001060253,登記記録の閉鎖等,0,2024-03-06,2024-02-29,株式会社アルキー,,株式会社,福岡県,福岡市中央区,渡辺通２丁目８番１－５０２号,,40,133,8100004,,,2024-02-29,清算の結了等,,,2015-10-05,1,,,,,アルキー,0
291,1300001010537,登記記録の閉鎖等,0,2024-03-06,2024-02-29,株式会社一井工業,,株式会社,佐賀県,唐津市,水主町２２９３番地３,,41,202,8470065,,,2024-02-29,清算の結了等,,,2016-11-01,1,,,,,イチイコウギョウ,0
324,1400003001284,登記記録の閉鎖等,0,2024-03-06,2024-03-01,合同会社グラシアス,,合同会社,岩手県,盛岡市,長橋町３７番３号,,03,201,0200146,,,2024-03-01,清算の結了等,,,2015-10-05,1,,,,,グラシアス,0
328,1420002003619,登記記録の閉鎖等,0,2024-03-06,2024-03-01,有限会社共成産業,,有限会社,青森県,青森市,大字幸畑字谷脇１８０番地３,,02,201,0300943,,,2024-03-01,清算の結了等,,,2015-10-05,1,,,,,キョウセイサンギョウ,0
338,1470002019016,登記記録の閉鎖等,0,2024-03-06,2024-03-04,有限会社豊島館,,有限会社,香川県,小豆郡土庄町,豊島家浦３８３６番地の１,,37,322,7614661,,,2024-03-04,清算の結了等,,,2015-10-05,1,,,,,テシマカン,0
340,1500001016571,登記記録の閉鎖等,0,2024-03-06,2024-03-01,株式会社エクセルイングリッシュオンライン,,株式会社,愛媛県,新居浜市,北内町４丁目１０番２７号,,38,205,7920842,,,2024-03-01,清算の結了等,,,2015-10-05,1,,,,,エクセルイングリッシュオンライン,0
347,2010001145329,登記記録の閉鎖等,0,2024-03-06,2024-02-29,株式会社リライズメディカルシステムズ,,株式会社,東京都,文京区,音羽１丁目１７番１１－６０３号,,13,105,1120013,,,2024-02-29,清算の結了等,,,2015-10-05,1,,,,,リライズメディカルシステムズ,0
359,2010003035362,登記記録の閉鎖等,0,2024-03-06,2024-03-04,合同会社クレイン,,合同会社,東京都,目黒区,下目黒２丁目２番２－１７０２号パークキューブ目黒タワー,,13,110,1530064,,,2024-03-04,清算の結了等,,,2021-07-26,1,,,,,クレイン,0
393,2011001146052,登記記録の閉鎖等,0,2024-03-06,2024-02-27,株式会社Ａｒｉ・ｇａｔｅホールディングス,,株式会社,東京都,目黒区,上目黒１丁目２２番１２号中目黒高架下Ｂ－６区画,,13,110,1530051,,,2024-02-27,合併による解散等,7011001071304,令和６年２月２２日東京都渋谷区代官山町１９番４号代官山駅ビル二階株式会社Ａｒｉ・ｇａｔｅ（7011001071304）に合併し解散,2022-03-02,1,,,,,アリゲートホールディングス,0
394,2011101064055,登記記録の閉鎖等,0,2024-03-06,2024-03-01,株式会社ろばたの炉神楽坂,,株式会社,東京都,新宿区,神楽坂３丁目５番地,,13,104,1620825,,,2024-03-01,清算の結了等,,,2015-10-05,1,,,,,ロバタノロカグラザカ,0
428,2013401006554,登記記録の閉鎖等,0,2024-03-06,2024-03-01,かぐらケアパートナーズ株式会社,,株式会社,大阪府,大阪市住吉区,我孫子２丁目４番１０号シャーメゾンＫＳ１０６号,,27,120,5580014,,,2024-03-01,合併による解散等,4120001221959,令和６年３月１日大阪市住吉区我孫子二丁目４番１０号シャーメゾンＫＳ１０６号株式会社ビッグハート（4120001221959）に合併し解散,2015-10-05,1,,,,,カグラケアパートナーズ,0
430,2020001133976,登記記録の閉鎖等,0,2024-03-06,2024-03-01,株式会社アルファメイル,,株式会社,神奈川県,鎌倉市,大船２丁目１８－１６国米ビル３Ｆ,,14,204,2470056,,,2024-03-01,合併による解散等,6021001064126,令和６年３月１日神奈川県鎌倉市梶原１９－２古館ビル４階株式会社アルファメイル（6021001064126）に合併し解散,2019-12-10,1,,,,,アルファメイル,0
441,2020002105719,登記記録の閉鎖等,0,2024-03-06,2024-02-27,有限会社百瀬電気サービス,,有限会社,神奈川県,川崎市宮前区,南野川２丁目３２番１８号,,14,136,2160042,,,2024-02-27,清算の結了等,,,2015-10-05,1,,,,,モモセデンキサービス,0
447,2021001063866,登記記録の閉鎖等,0,2024-03-06,2024-03-05,ＡＳＡ久里浜株式会社,,株式会社,神奈川県,横須賀市,久里浜６丁目４番１号,,14,201,2390831,,,2024-03-05,清算の結了等,,,2018-01-09,1,,,,,エーエスエークリハマ,0
462,2030002002832,登記記録の閉鎖等,0,2024-03-06,2024-03-01,有限会社大澤商会,,有限会社,埼玉県,さいたま市中央区,上落合１丁目１０番２４号,,11,105,3380001,,,2024-03-01,清算の結了等,,,2015-10-05,1,,,,,オオサワショウカイ,0
492,2080401016940,登記記録の閉鎖等,0,2024-03-06,2024-03-04,株式会社アーチ,,株式会社,静岡県,磐田市,一言３００３番地３,,22,211,4380811,,,2024-03-04,清算の結了等,,,2015-10-05,1,,,,,アーチ,0
501,2100002030636,登記記録の閉鎖等,0,2024-03-06,2024-03-01,有限会社ヤザキ,,有限会社,長野県,茅野市,仲町５番２号,,20,214,3910005,,,2024-03-01,清算の結了等,,,2015-10-05,1,,,,,ヤザキ,0
514,2120002037167,登記記録の閉鎖等,0,2024-03-06,2024-03-04,有限会社ディオン,,有限会社,大阪府,大阪市中央区,本町橋２７番地３,,27,128,5400029,,,2024-03-04,清算の結了等,,,2015-10-05,1,,,,,ディオン,0
518,2120101030997,登記記録の閉鎖等,0,2024-03-06,2024-03-01,株式会社ワインプレス,,株式会社,大阪府,泉佐野市,りんくう往来北２番１１,,27,213,5980048,,,2024-03-01,合併による解散等,9170001012176,令和６年３月１日大阪府泉佐野市りんくう往来北２番１１株式会社ワインプレスインターナショナル（9170001012176）に合併し解散,2015-10-05,1,,,,,ワインプレス,0
519,2120901010199,登記記録の閉鎖等,0,2024-03-06,2024-03-04,株式会社吉田商店,,株式会社,大阪府,摂津市,鳥飼銘木町８番９号,,27,224,5660063,,,2024-03-04,清算の結了等,,,2015-10-05,1,,,,,ヨシダショウテン,0
537,2150001026283,登記記録の閉鎖等,0,2024-03-06,2024-03-01,福井小水力発電株式会社,,株式会社,奈良県,吉野郡下市町,大字新住１１１８番地,,29,443,6380045,,,2024-03-01,合併による解散等,5150001026025,令和６年３月１日奈良県吉野郡下市町大字新住１１１８番地株式会社森とみずのちから（5150001026025）に合併し解散,2023-04-05,1,,,,,フクイショウスイリョクハツデン,0
545,2180001026801,登記記録の閉鎖等,0,2024-03-06,2024-02-29,林鋳造株式会社,,株式会社,愛知県,名古屋市西区,児玉２丁目２番６号,,23,104,4510066,,,2024-02-29,清算の結了等,,,2015-10-05,1,,,,,ハヤシチュウゾウ,0
584,2250001003495,登記記録の閉鎖等,0,2024-03-06,2024-03-05,日進工業株式会社,,株式会社,山口県,宇部市,大字東須恵字い二３９０６番地の５,,35,202,7590206,,,2024-03-05,清算の結了等,,,2015-10-05,1,,,,,ニッシンコウギョウ,0
587,2260001000459,登記記録の閉鎖等,0,2024-03-06,2024-03-05,イシクラマテリアル株式会社,,株式会社,岡山県,岡山市南区,箕島１３５９番地,,33,104,7010206,,,2024-03-05,清算の結了等,,,2015-10-05,1,,,,,イシクラマテリアル,0
588,2260001009806,登記記録の閉鎖等,0,2024-03-06,2024-02-29,株式会社セイタ,,株式会社,岡山県,岡山市北区,大内田１２５３番地,,33,101,7010165,,,2024-02-29,清算の結了等,,,2015-10-05,1,,,,,セイタ,0
589,2260001013618,登記記録の閉鎖等,0,2024-03-06,2024-03-04,株式会社白神,,株式会社,岡山県,倉敷市,堀南６８９番地,,33,202,7100841,,,2024-03-04,清算の結了等,,,2015-10-05,1,,,,,シラガ,0
592,2280002002725,登記記録の閉鎖等,0,2024-03-06,2024-03-05,有限会社作野組,,有限会社,島根県,松江市,美保関町七類１７３９番地,,32,201,6901311,,,2024-03-05,清算の結了等,,,2015-10-05,1,,,,,サクノクミ,0
593,2290001088153,登記記録の閉鎖等,0,2024-03-06,2024-02-29,株式会社エムアール,,株式会社,福岡県,福岡市中央区,大名２丁目１０番８－１２０１号,,40,133,8100041,,,2024-02-29,清算の結了等,,,2020-02-21,1,,,,,エムアール,0
634,2430001037211,登記記録の閉鎖等,0,2024-03-06,2024-02-29,株式会社パーシュメディカルコンサルツ,,株式会社,北海道,札幌市中央区,大通西２８丁目１番２号,,01,101,0640820,,,2024-02-29,清算の結了等,,,2015-10-05,1,,,,,パーシュメディカルコンサルツ,0
642,2470003001913,登記記録の閉鎖等,0,2024-03-06,2024-02-20,合同会社ＴＯＳ,,合同会社,香川県,観音寺市,植田町５３９番地２３,,37,205,7680012,,,2024-02-20,清算の結了等,,,2021-02-09,1,,,,,トス,0
651,3010002024448,登記記録の閉鎖等,0,2024-03-06,2024-03-01,有限会社ファルコン・ポイント,,有限会社,東京都,中央区,銀座８丁目８番１１号,,13,102,1040061,,,2024-03-01,合併による解散等,5010001054221,令和６年２月２９日東京都中央区銀座八丁目８番１１号株式会社博品館（5010001054221）に合併し解散,2015-10-05,1,,,,,ファルコンポイント,0
652,3010003042275,登記記録の閉鎖等,0,2024-03-06,2024-03-01,神戸ソーラー合同会社,,合同会社,東京都,中央区,日本橋１丁目４番１号,,13,102,1030027,,,2024-03-01,合併による解散等,6010403013757,令和６年３月１日東京都中央区日本橋一丁目４番１号神戸山田太陽光発電所合同会社（6010403013757）に合併し解散,2023-11-22,1,,,,,コウベソーラー,0
664,3010402023792,登記記録の閉鎖等,0,2024-03-06,2024-03-01,有限会社アット・ピーズ,,有限会社,東京都,港区,浜松町２丁目２番１５号浜松町ダイヤビル２Ｆ,,13,103,1050013,,,2024-03-01,清算の結了等,,,2015-10-05,1,,,,,アットピーズ,0
719,3020001123828,登記記録の閉鎖等,0,2024-03-06,2024-03-01,プレゼン株式会社,,株式会社,神奈川県,横浜市鶴見区,鶴見中央４丁目８番１２号加瀬ビル４階,,14,101,2300051,,,2024-03-01,清算の結了等,,,2017-11-20,1,,,,,プレゼン,0
730,3021001060722,登記記録の閉鎖等,0,2024-03-06,2024-03-01,株式会社ともゆき,,株式会社,神奈川県,中郡大磯町,高麗３丁目３－４５,,14,341,2550001,,,2024-03-01,合併による解散等,1021001057753,令和６年３月１日神奈川県平塚市平塚五丁目２４番３２号ＡＲＥＸ株式会社（1021001057753）に合併し解散,2016-11-24,1,,,,,トモユキ,0
752,3040001017516,登記記録の閉鎖等,0,2024-03-06,2024-03-01,株式会社ジーエルシーホーム,,株式会社,千葉県,船橋市,前原西４丁目３８番１９号,,12,204,2740825,,,2024-03-01,合併による解散等,2040001017194,令和６年３月１日千葉県船橋市前原西四丁目３８番１９号株式会社グランドラインコーポレーション（2040001017194）に合併し解散,2015-10-05,1,,,,,ジーエルシーホーム,0
765,3070001030441,登記記録の閉鎖等,0,2024-03-06,2024-03-04,株式会社アクロスハウス,,株式会社,群馬県,高崎市,上中居町３７７番地１,,10,202,3700851,,,2024-03-04,清算の結了等,,,2015-10-05,1,,,,,アクロスハウス,0
767,3080001003181,登記記録の閉鎖等,0,2024-03-06,2024-03-01,ダイワ製本株式会社,,株式会社,静岡県,藤枝市,八幡５５７番地,,22,214,4260009,,,2024-03-01,合併による解散等,1080001003984,令和６年３月１日静岡市葵区流通センター１２番２号日興美術株式会社（1080001003984）に合併し解散,2015-10-05,1,,,,,ダイワセイホン,0
785,3100001013500,登記記録の閉鎖等,0,2024-03-06,2024-03-01,株式会社高橋工芸製作所,,株式会社,長野県,松本市,宮田１５番１１号,,20,202,3990001,,,2024-03-01,清算の結了等,,,2015-10-05,1,,,,,タカハシコウゲイセイサクジョ,0
794,3120001178028,登記記録の閉鎖等,0,2024-03-06,2024-03-04,株式会社Ｔｎ総合企画,,株式会社,大阪府,枚方市,楠葉面取町２１９６番地の６,,27,210,5731113,,,2024-03-04,清算の結了等,,,2015-10-05,1,,,,,,0
820,3140001106911,登記記録の閉鎖等,0,2024-03-06,2024-03-01,株式会社ＯＮＥ’Ｓ　ＳＴＲＥＥＴ,,株式会社,兵庫県,明石市,大明石町１丁目６番１パピオスあかし１Ｆ,,28,203,6730891,,,2024-03-01,清算の結了等,,,2017-07-18,1,,,,,ワンズストリート,0
829,3150001026282,登記記録の閉鎖等,0,2024-03-06,2024-03-01,鳥取小水力発電株式会社,,株式会社,奈良県,吉野郡下市町,大字新住１１１８番地,,29,443,6380045,,,2024-03-01,合併による解散等,5150001026025,令和６年３月１日奈良県吉野郡下市町大字新住１１１８番地株式会社森とみずのちから（5150001026025）に合併し解散,2023-04-05,1,,,,,トットリショウスイリョクハツデン,0
836,3180001019531,登記記録の閉鎖等,0,2024-03-06,2024-03-01,サン自動車工業株式会社,,株式会社,愛知県,名古屋市中川区,吉津１丁目２１０９番地,,23,110,4540981,,,2024-03-01,合併による解散等,6190001018752,令和６年３月１日名古屋市中川区吉津一丁目２１０９番地株式会社ｉｆオートサービス（6190001018752）に合併し解散,2015-10-05,1,,,,,サンジドウシャコウギョウ,0
856,3200002004018,登記記録の閉鎖等,0,2024-03-06,2024-03-05,有限会社ブティックもんど,,有限会社,岐阜県,岐阜市,北一色８丁目７番４号,,21,201,5008227,,,2024-03-05,清算の結了等,,,2015-10-05,1,,,,,ブティックモンド,0
860,3220001019270,登記記録の閉鎖等,0,2024-03-06,2024-03-01,株式会社ＴＨＵＭＢ’Ｓ　ＵＰ,,株式会社,石川県,野々市市,本町６丁目２２番１号,,17,212,9218815,,,2024-03-01,合併による解散等,8220001020298,令和６年３月１日石川県野々市市本町六丁目２２番１号株式会社Ｍａｖｅｒｉｃｋ（8220001020298）に合併し解散,2015-10-05,1,,,,,サムズアップ,0
879,3290001004860,登記記録の閉鎖等,0,2024-03-06,2024-02-29,都建設産業株式会社,,株式会社,福岡県,福岡市城南区,大字東油山４９４番地２,,40,136,8140155,,,2024-02-29,清算の結了等,,,2015-10-05,1,,,,,ミヤコケンセツサンギョウ,0
890,3300001006285,登記記録の閉鎖等,0,2024-03-06,2024-03-01,ヒューバックス株式会社,,株式会社,東京都,中央区,日本橋茅場町３丁目１０番２号ＳＫＫビル８階,,13,102,1030025,,,2024-03-01,合併による解散等,2040001079532,令和６年３月１日東京都中央区日本橋茅場町三丁目１０番２号ＳＫＫビル８階株式会社スリーティソフト（2040001079532）に合併し解散,2015-10-05,1,,,,,ヒューバックス,0
900,3340001020555,登記記録の閉鎖等,0,2024-03-06,2024-03-04,ＭｉｒａｉａＬ株式会社,,株式会社,鹿児島県,鹿児島市,東谷山１丁目２番３号,,46,201,8910113,,,2024-03-04,清算の結了等,,,2017-08-16,1,,,,,ミライアル,0
903,3350002011338,登記記録の閉鎖等,0,2024-03-06,2024-03-01,有限会社ホキタ産業,,有限会社,宮崎県,東臼杵郡美郷町,西郷田代９０５６番地１,,45,431,8831101,,,2024-03-01,合併による解散等,1350001006225,令和６年３月１日宮崎県東臼杵郡美郷町西郷田代３７７番地株式会社橋口組（1350001006225）に合併し解散,2015-10-05,1,,,,,ホキタサンギョウ,0
914,3400002000120,登記記録の閉鎖等,0,2024-03-06,2024-02-29,有限会社阿久津酒店,,有限会社,岩手県,盛岡市,大沢川原３丁目４番１号,,03,201,0200025,,,2024-02-29,清算の結了等,,,2015-10-05,1,,,,,アクツサケテン,0
920,3430002006172,登記記録の閉鎖等,0,2024-03-06,2024-02-29,有限会社共和コーポ,,有限会社,北海道,札幌市東区,北九条東１丁目１番地,,01,103,0600909,,,2024-02-29,清算の結了等,,,2015-10-05,1,,,,,キョウワコーポ,0
932,3480001007695,登記記録の閉鎖等,0,2024-03-06,2024-02-29,株式会社桜,,株式会社,徳島県,美馬郡つるぎ町,半田字西久保１１５番地の１,,36,468,7794403,,,2024-02-29,清算の結了等,,,2015-10-05,1,,,,,,0
938,3500002017501,登記記録の閉鎖等,0,2024-03-06,2024-03-04,有限会社近添電機工業,,有限会社,愛媛県,新居浜市,高田１丁目３番６９号,,38,205,7920887,,,2024-03-04,清算の結了等,,,2015-10-05,1,,,,,,0
939,3500005002178,登記記録の閉鎖等,0,2024-03-06,2024-03-04,医療法人おとね会,,その他の設立登記法人,愛媛県,松山市,古川西２丁目３番１８号,,38,201,7900944,,,2024-03-04,清算の結了等,,,2015-10-05,1,,,,,オトネカイ,0
949,4010001157644,登記記録の閉鎖等,0,2024-03-06,2024-02-29,株式会社ＵＮＩＭＡＸ,,株式会社,東京都,千代田区,五番町２番地１１,,13,101,1020076,,,2024-02-29,清算の結了等,,,2015-10-05,1,,,,,ユニマックス,0
1031,4011503002874,登記記録の閉鎖等,0,2024-03-06,2024-02-26,合同会社　ＳＡＩＤＵＳ,,合同会社,東京都,北区,滝野川２丁目５番１０－５０３号,,13,117,1140023,,,2024-02-26,清算の結了等,,,2016-01-20,1,,,,,サイダス,0
1057,4021001062800,登記記録の閉鎖等,0,2024-03-06,2024-03-01,株式会社ファーマーズバーベキュー,,株式会社,神奈川県,藤沢市,打戻５３９番地,,14,205,2520824,,,2024-03-01,清算の結了等,,,2017-08-10,1,,,,,ファーマーズバーベキュー,0
1072,4030002050474,登記記録の閉鎖等,0,2024-03-06,2024-02-29,有限会社シンコーボーリング,,有限会社,埼玉県,草加市,新栄３丁目４番地８,,11,221,3400056,,,2024-02-29,清算の結了等,,,2015-10-05,1,,,,,シンコーボーリング,0
1076,4040001028396,登記記録の閉鎖等,0,2024-03-06,2024-02-29,株式会社スズカ,,株式会社,千葉県,市川市,欠真間１丁目８番２２号４０４室,,12,203,2720142,,,2024-02-29,清算の結了等,,,2015-10-05,1,,,,,スズカ,0
1077,4040001093977,登記記録の閉鎖等,0,2024-03-06,2024-03-01,ＫＴアセット株式会社,,株式会社,千葉県,流山市,大字西深井３４３番地,,12,220,2700107,,,2024-03-01,清算の結了等,,,2016-02-10,1,,,,,ケーティーアセット,0
1082,4040002070620,登記記録の閉鎖等,0,2024-03-06,2024-02-29,有限会社ぷりも,,有限会社,千葉県,君津市,東坂田４丁目６番７号,,12,225,2991144,,,2024-02-29,清算の結了等,,,2015-10-05,1,,,,,プリモ,0
1098,4060003003734,登記記録の閉鎖等,0,2024-03-06,2024-02-29,株式会社ＮＡＲＸＴＯＮＥ,,株式会社,栃木県,宇都宮市,さつき２丁目１番５号,,09,201,3210141,,,2024-02-29,清算の結了等,,,2021-06-11,1,,,,,ナークストン,0
1129,4120103000798,登記記録の閉鎖等,0,2024-03-06,2024-03-05,合同会社モリヤ,,合同会社,大阪府,大阪狭山市,狭山５丁目２２３２番地の３（１－４０４号）,,27,231,5890005,,,2024-03-05,清算の結了等,,,2015-10-05,1,,,,,モリヤ,0
1157,4180001007452,登記記録の閉鎖等,0,2024-03-06,2024-03-01,株式会社モビドック,,株式会社,愛知県,名古屋市港区,十一屋２丁目３４７番地,,23,111,4550831,,,2024-03-01,合併による解散等,7180001092599,令和６年３月１日愛知県大府市共栄町三丁目６番地の１中部カーサービス株式会社（7180001092599）に合併し解散,2015-10-05,1,,,,,モビドック,0
1175,4190001005876,登記記録の閉鎖等,0,2024-03-06,2024-03-04,飛鳥株式会社,,株式会社,三重県,鈴鹿市,白子駅前１５番１２号松下ビル１階,,24,207,5100241,,,2024-03-04,清算の結了等,,,2015-10-05,1,,,,,アスカ,0
1193,4240002030042,登記記録の閉鎖等,0,2024-03-06,2024-03-04,有限会社こんりき,,有限会社,広島県,三次市,東酒屋町１５７番地,,34,209,7280023,,,2024-03-04,清算の結了等,,,2015-10-05,1,,,,,コンリキ,0
1230,4340001017773,登記記録の閉鎖等,0,2024-03-06,2024-03-01,株式会社室田保険事務所,,株式会社,鹿児島県,鹿屋市,野里町４８５３番地４,,46,203,8930055,,,2024-03-01,清算の結了等,,,2015-10-05,1,,,,,ムロタホケンジムショ,0
1271,5010001166702,登記記録の閉鎖等,0,2024-03-06,2024-02-29,株式会社Ｉ’ｓ　Ｌｉｆｅ,,株式会社,東京都,文京区,弥生２丁目１１番１０号,,13,105,1130032,,,2024-02-29,清算の結了等,,,2015-10-05,1,,,,,アイズライフ,0
1287,5010403014335,登記記録の閉鎖等,0,2024-03-06,2024-02-29,プルートス・サービシズ合同会社,,合同会社,東京都,中央区,日本橋３丁目９番１号日本橋三丁目スクエア１１階,,13,102,1030027,,,2024-02-29,清算の結了等,,,2016-01-22,1,,,,,プルートスサービシズ,0
1288,5010403028442,登記記録の閉鎖等,0,2024-03-06,2024-02-26,合同会社ＥｎｒｉｃｈＰｅｏｐｌｅ,,合同会社,東京都,港区,浜松町２丁目２番１５号浜松町ダイヤビル２Ｆ,,13,103,1050013,,,2024-02-26,清算の結了等,,,2022-09-08,1,,,,,エンリッチピープル,0
1322,5011101098249,登記記録の閉鎖等,0,2024-03-06,2024-03-01,株式会社ｎ．ＣＨ　Ｅｎｔｅｒｔａｉｎｍｅｎｔ　Ｊａｐａｎ,,株式会社,東京都,新宿区,歌舞伎町２丁目４番１０号ＫＤＸ東新宿ビル８階,,13,104,1600021,,,2024-03-01,清算の結了等,,,2022-03-25,1,,,,,エヌシーエッチエンターテイメントジャパン,0
1331,5011505002062,登記記録の閉鎖等,0,2024-03-06,2024-02-26,一般社団法人ＯＬＣ,,その他の設立登記法人,東京都,荒川区,町屋１丁目５番６号,,13,118,1160001,,,2024-02-26,清算の結了等,,,2017-04-11,1,,,,,オーエルシー,0
1342,5013402007375,登記記録の閉鎖等,0,2024-03-06,2024-02-29,有限会社ＥＣ引越センター,,有限会社,東京都,三鷹市,大沢５丁目６番２４号,,13,204,1810015,,,2024-02-29,清算の結了等,,,2015-10-05,1,,,,,,0
1346,5020001078863,登記記録の閉鎖等,0,2024-03-06,2024-03-01,株式会社ビー・エス・エヌ,,株式会社,神奈川県,川崎市中原区,上丸子山王町１丁目８７２番地,,14,133,2110002,,,2024-03-01,清算の結了等,,,2015-10-05,1,,,,,ビーエスエヌ,0
1381,5030002077228,登記記録の閉鎖等,0,2024-03-06,2024-03-01,有限会社仲野工務店,,有限会社,埼玉県,入間郡三芳町,大字北永井８３３番地２,,11,324,3540044,,,2024-03-01,清算の結了等,,,2015-10-05,1,,,,,ナカノコウムテン,0
1386,5040001012399,登記記録の閉鎖等,0,2024-03-06,2024-03-01,株式会社ＴＳＴ,,株式会社,千葉県,千葉市美浜区,真砂２丁目７番３号,,12,106,2610011,,,2024-03-01,清算の結了等,,,2015-10-05,1,,,,,ティーエスティー,0
1393,5040002069216,登記記録の閉鎖等,0,2024-03-06,2024-03-01,有限会社サーパス電気設計事務所,,有限会社,千葉県,木更津市,港南台４丁目２０番７号,,12,206,2920827,,,2024-03-01,清算の結了等,,,2015-10-05,1,,,,,サーパスデンキセッケイジムショ,0
1404,5060005009398,登記記録の閉鎖等,0,2024-03-06,2024-02-27,一般社団法人ココロファーム,,その他の設立登記法人,栃木県,足利市,上渋垂町２８４番地８,,09,202,3260335,,,2024-02-27,清算の結了等,,,2017-12-08,1,,,,,ココロファーム,0
1421,5100003002862,登記記録の閉鎖等,0,2024-03-06,2024-03-01,合資会社喜楽食堂,,合資会社,長野県,駒ヶ根市,赤穂３１４５番地,,20,210,3994117,,,2024-03-01,清算の結了等,,,2015-10-05,1,,,,,キラクショクドウ,0
1433,5120001229497,登記記録の閉鎖等,0,2024-03-06,2024-03-01,株式会社菱和建設,,株式会社,大阪府,大阪市西淀川区,大和田２丁目３番１１号,,27,113,5550032,,,2024-03-01,清算の結了等,,,2020-06-05,1,,,,,ヒシワケンセツ,0
1491,5180002078772,登記記録の閉鎖等,0,2024-03-06,2024-02-28,有限会社ケイティエス,,有限会社,愛知県,一宮市,千秋町浅野羽根字北斉宮寺２４８９番地２１,,23,203,4910816,,,2024-02-28,清算の結了等,,,2015-10-05,1,,,,,ケイティエス,0
1497,5190001003672,登記記録の閉鎖等,0,2024-03-06,2024-03-04,トレジャーホーム株式会社,,株式会社,三重県,亀山市,南野町１番１７号,,24,210,5190156,,,2024-03-04,清算の結了等,,,2015-10-05,1,,,,,トレジャーホーム,0
1510,5230001018088,登記記録の閉鎖等,0,2024-03-06,2024-03-01,チェンジングフード株式会社,,株式会社,富山県,富山市,呉羽町２９５番地１９,,16,201,9300138,,,2024-03-01,合併による解散等,1230001017721,令和６年２月２９日富山市呉羽町２９５番地１９株式会社日本海グロー（1230001017721）に合併し解散,2019-11-14,1,,,,,チェンジングフード,0
1520,5250002008788,登記記録の閉鎖等,0,2024-03-06,2024-03-04,有限会社共立塗装,,有限会社,山口県,下関市,彦島本村町５丁目１８番８号,,35,201,7500074,,,2024-03-04,清算の結了等,,,2015-10-05,1,,,,,キョウリツトソウ,0
1535,5290001058335,登記記録の閉鎖等,0,2024-03-06,2024-02-28,株式会社アートケイズ,,株式会社,福岡県,福岡市南区,大楠３丁目２６番１８号,,40,134,8150082,,,2024-02-28,清算の結了等,,,2015-10-05,1,,,,,アートケイズ,0
1544,5290801022721,登記記録の閉鎖等,0,2024-03-06,2024-03-01,株式会社ＷＳコンストラクション,,株式会社,福岡県,北九州市門司区,新門司１丁目１４番地６,,40,101,8000115,,,2024-03-01,合併による解散等,8290801005434,令和６年３月１日北九州市門司区新門司一丁目１４番地６株式会社清家石材工業（8290801005434）に合併し解散,2016-07-11,1,,,,,ダブリューエスコンストラクション,0
1558,5320002001281,登記記録の閉鎖等,0,2024-03-06,2024-03-04,有限会社エス・アイコーポレーション,,有限会社,大分県,大分市,大字千歳１９０４番地の１５,,44,201,8700132,,,2024-03-04,清算の結了等,,,2015-10-05,1,,,,,エスアイコーポレーション,0
1564,5340005003463,登記記録の閉鎖等,0,2024-03-06,2024-03-01,中村町中央生産森林組合,,その他の設立登記法人,鹿児島県,薩摩川内市,中村町７１０８番地１,,46,215,8950003,,,2024-03-01,清算の結了等,,,2015-10-05,1,,,,,ナカムラチョウチュウオウセイサン,0
1611,6010001038545,登記記録の閉鎖等,0,2024-03-06,2024-03-01,ヒューマングローバルコミュニケーションズ株式会社,,株式会社,東京都,新宿区,高田馬場４丁目４番２号,,13,104,1690075,,,2024-03-01,合併による解散等,4011101055952,令和６年３月１日東京都新宿区西新宿七丁目５番２５号ヒューマンアカデミー株式会社（4011101055952）に合併し解散,2015-10-05,1,,,,,ヒューマングローバルコミュニケーションズ,0
1635,6010501046931,登記記録の閉鎖等,0,2024-03-06,2024-02-29,逐本株式会社,,株式会社,東京都,台東区,上野１丁目１３－４エスペランサ湯島,,13,106,1100005,,,2024-02-29,清算の結了等,,,2021-02-24,1,,,,,オウモト,0
1645,6010701031007,登記記録の閉鎖等,0,2024-03-06,2024-03-01,株式会社トランジションホールディングス,,株式会社,東京都,品川区,東五反田１丁目７番１１号ＡＩＯＳ五反田アネックス５１１,,13,109,1410022,,,2024-03-01,合併による解散等,4010701035166,令和６年３月１日東京都品川区東五反田一丁目７番１１号ＡＩＯＳ五反田アネックス５１１株式会社スカウター（4010701035166）に合併し解散,2015-10-05,1,,,,,トランジションホールディングス,0
1647,6010702011024,登記記録の閉鎖等,0,2024-03-06,2024-03-01,有限会社モト・プランニング,,有限会社,東京都,品川区,北品川５丁目８番１５－１００９号,,13,109,1410001,,,2024-03-01,清算の結了等,,,2015-10-05,1,,,,,モトプランニング,0
1652,6010901040212,登記記録の閉鎖等,0,2024-03-06,2024-02-29,株式会社アジュール,,株式会社,東京都,武蔵野市,境４丁目４番２９号,,13,203,1800022,,,2024-02-29,清算の結了等,,,2017-06-07,1,,,,,アジュール,0
1662,6011002032388,登記記録の閉鎖等,0,2024-03-06,2024-03-04,有限会社ツムラ,,有限会社,東京都,渋谷区,恵比寿西１丁目１４番２号,,13,113,1500021,,,2024-03-04,清算の結了等,,,2015-10-05,1,,,,,ツムラ,0
1673,6011501016296,登記記録の閉鎖等,0,2024-03-06,2024-02-26,株式会社秀吉,,株式会社,東京都,荒川区,町屋５丁目３番１８号,,13,118,1160001,,,2024-02-26,清算の結了等,,,2015-10-05,1,,,,,ヒデヨシ,0
1676,6011701018464,登記記録の閉鎖等,0,2024-03-06,2024-02-28,株式会社金源,,株式会社,東京都,江戸川区,西小岩４丁目６番２０号,,13,123,1330057,,,2024-02-28,清算の結了等,,,2015-10-05,1,,,,,キンゲン,0
1679,6013101000052,登記記録の閉鎖等,0,2024-03-06,2024-03-04,株式会社エビスホーム,,株式会社,東京都,福生市,大字福生６６４番地７,,13,218,1970011,,,2024-03-04,清算の結了等,,,2015-10-05,1,,,,,エビスホーム,0
1685,6013302018166,登記記録の閉鎖等,0,2024-03-06,2024-02-29,有限会社クボケン,,有限会社,東京都,豊島区,要町１丁目６番６－４０１号,,13,116,1710043,,,2024-02-29,清算の結了等,,,2015-10-05,1,,,,,クボケン,0
1687,6020001069754,登記記録の閉鎖等,0,2024-03-06,2024-03-01,株式会社ディー・エス・アイ,,株式会社,神奈川県,川崎市中原区,下小田中１丁目６番２８号,,14,133,2110041,,,2024-03-01,清算の結了等,,,2015-10-05,1,,,,,ディーエスアイ,0
1700,6021001058648,登記記録の閉鎖等,0,2024-03-06,2024-03-05,株式会社ポンプランニング,,株式会社,神奈川県,横須賀市,追浜東町１丁目１０番地１２,,14,201,2370063,,,2024-03-05,清算の結了等,,,2016-03-02,1,,,,,ポンプランニング,0
1709,6030001040912,登記記録の閉鎖等,0,2024-03-06,2024-03-01,バージョンアップ株式会社,,株式会社,埼玉県,川口市,榛松３丁目１番２２号,,11,203,3340062,,,2024-03-01,合併による解散等,8030001080964,令和６年３月１日埼玉県川口市榛松三丁目１番２２号株式会社アーキスケープ（8030001080964）に合併し解散,2015-10-05,1,,,,,バージョンアップ,0
1711,6030001090321,登記記録の閉鎖等,0,2024-03-06,2024-03-01,株式会社テクト・プランニング,,株式会社,埼玉県,入間市,豊岡１丁目２番２１号山路ビル４階,,11,225,3580003,,,2024-03-01,清算の結了等,,,2015-10-05,1,,,,,テクトプランニング,0
1736,6060003001455,登記記録の閉鎖等,0,2024-03-06,2024-02-29,牧企画合同会社,,合同会社,栃木県,小山市,天神町２丁目２番２５号１０５,,09,208,3230032,,,2024-02-29,清算の結了等,,,2015-10-05,1,,,,,マキキカク,0
1751,6110001015476,登記記録の閉鎖等,0,2024-03-06,2024-03-04,株式会社未来工建,,株式会社,新潟県,三条市,北入蔵１丁目９番２２号,,15,204,9550053,,,2024-03-04,清算の結了等,,,2015-10-05,1,,,,,ミライコウケン,0
1759,6120001233201,登記記録の閉鎖等,0,2024-03-06,2024-03-01,株式会社愛維福,,株式会社,東京都,世田谷区,上馬５丁目２０番２１号ライオンズマンション上馬第２－５０２号室Ｃ,,13,112,1540011,,,2024-03-01,清算の結了等,,,2020-11-27,1,,,,,アイウィフク,0
1779,6120101044746,登記記録の閉鎖等,0,2024-03-06,2024-03-04,阪南工業株式会社,,株式会社,大阪府,阪南市,黒田３４４番地,,27,232,5990203,,,2024-03-04,清算の結了等,,,2015-10-05,1,,,,,,0
1807,6140005005561,登記記録の閉鎖等,0,2024-03-06,2024-03-05,医療法人社団藤谷内科医院,,その他の設立登記法人,兵庫県,明石市,魚住町西岡１８６３番地の３,,28,203,6740084,,,2024-03-05,清算の結了等,,,2015-10-05,1,,,,,フジタニナイカイイン,0
1813,6180001014942,登記記録の閉鎖等,0,2024-03-06,2024-03-04,柘植物産株式会社,,株式会社,愛知県,名古屋市南区,鳥栖１丁目１５番１８号,,23,112,4570006,,,2024-03-04,清算の結了等,,,2024-01-31,1,,,,,ツゲブッサン,0
1824,6180002019643,登記記録の閉鎖等,0,2024-03-06,2024-02-28,株式会社森山観光,,株式会社,愛知県,名古屋市中区,丸の内２丁目１８番２２号三博ビル５階,,23,106,4600002,,,2024-02-28,清算の結了等,,,2015-10-05,1,,,,,モリヤマカンコウ,0
1832,6200001031415,登記記録の閉鎖等,0,2024-03-06,2024-03-01,株式会社千吉,,株式会社,岐阜県,多治見市,本町５丁目２４番地,,21,204,5070033,,,2024-03-01,合併による解散等,2200002020222,令和６年３月１日岐阜県多治見市本町五丁目２４番地株式会社澤千（2200002020222）に合併し解散,2015-10-05,1,,,,,センキチ,0
1835,6220001003750,登記記録の閉鎖等,0,2024-03-06,2024-03-01,倉庫精練株式会社,,株式会社,石川県,金沢市,古府町南４５９番地,,17,201,9200363,,,2024-03-01,合併による解散等,4220001015673,令和６年３月１日石川県鹿島郡中能登町久乃木井部１５番地丸井織物株式会社（4220001015673）に合併し解散,2015-10-05,1,,,,,ソウコセイレン,0
1849,6290001054192,登記記録の閉鎖等,0,2024-03-06,2024-02-28,大牟田プラントサービス株式会社,,株式会社,福岡県,大牟田市,健老町４６１番地,,40,202,8360011,,,2024-02-28,清算の結了等,,,2015-10-05,1,,,,,オオムタプラントサービス,0
1892,6430002053781,登記記録の閉鎖等,0,2024-03-06,2024-03-01,有限会社いがらし,,有限会社,北海道,小樽市,花園１丁目４番１号,,01,203,0470024,,,2024-03-01,清算の結了等,,,2015-10-05,1,,,,,イガラシ,0
1898,6470001013766,登記記録の閉鎖等,0,2024-03-06,2024-03-04,株式会社鈴蘭,,株式会社,香川県,三豊市,山本町大野２０３２番地１,,37,208,7680102,,,2024-03-04,清算の結了等,,,2015-10-05,1,,,,,スズラン,0
1899,6470002016082,登記記録の閉鎖等,0,2024-03-06,2024-03-04,十日屋商事有限会社,,有限会社,香川県,観音寺市,茂木町５丁目１番６号,,37,205,7680069,,,2024-03-04,清算の結了等,,,2015-10-05,1,,,,,トウカヤショウジ,0
1912,7010003018544,登記記録の閉鎖等,0,2024-03-06,2024-02-29,合同会社ＪＰＴオメガ,,合同会社,東京都,千代田区,紀尾井町４番３,,13,101,1020094,,,2024-02-29,清算の結了等,,,2015-10-05,1,,,,,ジェーピーティーオメガ,0
1916,7010401011076,登記記録の閉鎖等,0,2024-03-06,2024-03-01,株式会社産経学園,,株式会社,神奈川県,相模原市南区,相模大野３丁目１番７号,,14,153,2520303,,,2024-03-01,合併による解散等,8021001011753,令和６年３月１日神奈川県相模原市南区相模大野三丁目１番７号株式会社カルチャー（8021001011753）に合併し解散,2015-10-05,1,,,,,サンケイガクエン,0
1927,7010405020742,登記記録の閉鎖等,0,2024-03-06,2024-02-27,一般社団法人シェアリングポリティクス,,その他の設立登記法人,東京都,豊島区,目白３丁目５番１３－３０２号,,13,116,1710031,,,2024-02-27,清算の結了等,,,2022-02-28,1,,,,,シェアリングポリティクス,0
1962,7011101038863,登記記録の閉鎖等,0,2024-03-06,2024-03-01,東京六法出版株式会社,,株式会社,東京都,新宿区,南元町４番地１８,,13,104,1600012,,,2024-03-01,清算の結了等,,,2015-10-05,1,,,,,トウキョウロッポウシュッパン,0
1965,7011101080568,登記記録の閉鎖等,0,2024-03-06,2024-03-01,株式会社桔梗カリガネ舎,,株式会社,東京都,新宿区,西早稲田１丁目２２番３号,,13,104,1690051,,,2024-03-01,清算の結了等,,,2017-06-09,1,,,,,キキョウカリガネシャ,0
1992,7013102002385,登記記録の閉鎖等,0,2024-03-06,2024-02-28,有限会社堀江鋼業,,有限会社,東京都,あきる野市,瀬戸岡１１３番地３,,13,228,1970803,,,2024-02-28,清算の結了等,,,2015-10-05,1,,,,,ホリエコウギョウ,0
2010,7021001023626,登記記録の閉鎖等,0,2024-03-06,2024-02-29,株式会社星エンジニアリング,,株式会社,神奈川県,秦野市,北矢名２８７番地の１２,,14,211,2570006,,,2024-02-29,清算の結了等,,,2015-10-05,1,,,,,ホシエンジニアリング,0
2015,7021002032246,登記記録の閉鎖等,0,2024-03-06,2024-03-04,有限会社大栄製作所,,有限会社,神奈川県,厚木市,下川入９１番地,,14,212,2430206,,,2024-03-04,清算の結了等,,,2015-10-05,1,,,,,ダイエイセイサクジョ,0
2025,7030001114236,登記記録の閉鎖等,0,2024-03-06,2024-03-01,株式会社太田,,株式会社,埼玉県,日高市,大字田波目１０３７番地１,,11,242,3501201,,,2024-03-01,合併による解散等,7030001090072,令和６年３月１日埼玉県日高市大字田波目１０３７番地１太田鉄工株式会社（7030001090072）に合併し解散,2016-05-12,1,,,,,オオタ,0
2068,7110002022933,登記記録の閉鎖等,0,2024-03-06,2024-03-04,シンセイ・ビジネス・コンサルタント有限会社,,有限会社,新潟県,上越市,春日山町３丁目１６番４４号,,15,222,9430807,,,2024-03-04,清算の結了等,,,2015-10-05,1,,,,,シンセイビジネスコンサルタント,0
2078,7120002073802,登記記録の閉鎖等,0,2024-03-06,2024-03-04,有限会社オフィスエフ,,有限会社,大阪府,枚方市,北中振１丁目１６番８号,,27,210,5730064,,,2024-03-04,清算の結了等,,,2015-10-05,1,,,,,オフィスエフ,0
2110,7150001026584,登記記録の閉鎖等,0,2024-03-06,2024-03-01,北海道小水力発電株式会社,,株式会社,奈良県,吉野郡下市町,大字新住１１１８番地,,29,443,6380045,,,2024-03-01,合併による解散等,5150001026025,令和６年３月１日奈良県吉野郡下市町大字新住１１１８番地株式会社森とみずのちから（5150001026025）に合併し解散,2023-08-03,1,,,,,ホッカイドウショウスイリョクハツデン,0
2132,7180002075842,登記記録の閉鎖等,0,2024-03-06,2024-02-29,有限会社江戸喜,,有限会社,愛知県,一宮市,本町３丁目２番１３号,,23,203,4910859,,,2024-02-29,清算の結了等,,,2015-10-05,1,,,,,エドキ,0
2137,7200001016563,登記記録の閉鎖等,0,2024-03-06,2024-03-04,早崎建築設計株式会社,,株式会社,岐阜県,大垣市,赤坂町４０７７番地２,,21,202,5032213,,,2024-03-04,清算の結了等,,,2015-10-05,1,,,,,ハヤサキケンチクセッケイ,0
2145,7220001019572,登記記録の閉鎖等,0,2024-03-06,2024-03-04,株式会社湯涌のこころ,,株式会社,石川県,金沢市,緑が丘６番１０号,,17,201,9218117,,,2024-03-04,清算の結了等,,,2015-10-05,1,,,,,ユワクノココロ,0
2147,7220002012015,登記記録の閉鎖等,0,2024-03-06,2024-02-29,有限会社サワダ,,有限会社,石川県,小松市,四丁町ヘ１番地１,,17,203,9230971,,,2024-02-29,清算の結了等,,,2015-10-05,1,,,,,サワダ,0
2170,7310002003351,登記記録の閉鎖等,0,2024-03-06,2024-03-04,有限会社ティーエム工業,,有限会社,長崎県,長崎市,水の浦町５番２０号,,42,201,8500061,,,2024-03-04,清算の結了等,,,2015-10-05,1,,,,,,0
2203,7480002001710,登記記録の閉鎖等,0,2024-03-06,2024-03-05,国府車体有限会社,,有限会社,徳島県,徳島市,国府町芝原字野神６２番地１,,36,201,7793112,,,2024-03-05,清算の結了等,,,2015-10-05,1,,,,,コクフシャタイ,0
2264,8011103002841,登記記録の閉鎖等,0,2024-03-06,2024-02-29,合同会社ＭＡＬＡＷＮ,,合同会社,東京都,新宿区,新宿２丁目１１番２号,,13,104,1600022,,,2024-02-29,清算の結了等,,,2015-10-05,1,,,,,マロン,0
2290,8011802019558,登記記録の閉鎖等,0,2024-03-06,2024-03-04,有限会社モナミ自動車,,有限会社,東京都,足立区,六月３丁目１１番４号,,13,121,1210814,,,2024-03-04,清算の結了等,,,2015-10-05,1,,,,,モナミジドウシャ,0
2298,8013201015849,登記記録の閉鎖等,0,2024-03-06,2024-03-04,株式会社朝日センター,,株式会社,東京都,目黒区,上目黒１丁目２３番１－１０２号,,13,110,1530051,,,2024-03-04,清算の結了等,,,2015-10-05,1,,,,,アサヒセンター,0
2310,8020002050323,登記記録の閉鎖等,0,2024-03-06,2024-03-01,有限会社ケイエム工業,,有限会社,神奈川県,横浜市瀬谷区,瀬谷４丁目１６番地１０パークハイム瀬谷３０１号,,14,114,2460031,,,2024-03-01,清算の結了等,,,2015-10-05,1,,,,,,0
2313,8021001009525,登記記録の閉鎖等,0,2024-03-06,2024-03-01,牧田商事株式会社,,株式会社,神奈川県,鎌倉市,小町１丁目４番４号,,14,204,2480006,,,2024-03-01,合併による解散等,6021001008842,令和６年３月１日神奈川県鎌倉市由比ガ浜一丁目１２番７号株式会社井上蒲鉾店（6021001008842）に合併し解散,2015-10-05,1,,,,,,0
2320,8021002028929,登記記録の閉鎖等,0,2024-03-06,2024-03-04,有限会社大江サービス,,有限会社,神奈川県,相模原市緑区,長竹３３５２番地１,,14,151,2520154,,,2024-03-04,清算の結了等,,,2015-10-05,1,,,,,,0
2322,8030001086276,登記記録の閉鎖等,0,2024-03-06,2024-03-01,株式会社クリタ,,株式会社,埼玉県,深谷市,岡部５５０番地,,11,218,3690211,,,2024-03-01,清算の結了等,,,2015-10-05,1,,,,,クリタ,0
2340,8040002073529,登記記録の閉鎖等,0,2024-03-06,2024-03-01,有限会社三和開発,,有限会社,東京都,千代田区,有楽町１丁目２番２号,,13,101,1000006,,,2024-03-01,合併による解散等,2010001170145,令和６年３月１日東京都千代田区有楽町一丁目２番２号サンフロンティアホテルマネジメント株式会社（2010001170145）に合併し解散,2015-10-05,1,,,,,サンワカイハツ,0
2341,8040002093279,登記記録の閉鎖等,0,2024-03-06,2024-02-29,石井電気計装有限会社,,有限会社,千葉県,柏市,泉２１５０番地,,12,217,2701456,,,2024-02-29,清算の結了等,,,2015-10-05,1,,,,,イシイデンキケイソウ,0
2344,8050001017816,登記記録の閉鎖等,0,2024-03-06,2024-03-01,株式会社ユア・エージェンシー,,株式会社,茨城県,つくば市,高崎１３７７番地５,,08,220,3001245,,,2024-03-01,清算の結了等,,,2015-10-05,1,,,,,ユアエージェンシー,0
2357,8070005002944,登記記録の閉鎖等,0,2024-03-06,2024-03-01,医療法人永井外科胃腸科,,その他の設立登記法人,群馬県,高崎市,箕郷町上芝２７３番地１,,10,202,3703104,,,2024-03-01,清算の結了等,,,2015-10-05,1,,,,,ナガイゲカイチョウカ,0
2363,8080101000768,登記記録の閉鎖等,0,2024-03-06,2024-03-01,資生化学通商株式会社,,株式会社,静岡県,沼津市,吉田町２８番２４号,,22,203,4100836,,,2024-03-01,合併による解散等,3080101000938,令和６年３月１日静岡県沼津市吉田町２８番２４号芹沢薬品株式会社（3080101000938）に合併し解散,2015-10-05,1,,,,,シセイカガク,0
2364,8080101009339,登記記録の閉鎖等,0,2024-03-06,2024-03-01,比奈化学株式会社,,株式会社,静岡県,富士市,比奈３１５番地の４,,22,210,4170847,,,2024-03-01,合併による解散等,3080101000938,令和６年３月１日静岡県沼津市吉田町２８番２４号芹沢薬品株式会社（3080101000938）に合併し解散,2015-10-05,1,,,,,ヒナカガク,0
2408,8150001026583,登記記録の閉鎖等,0,2024-03-06,2024-03-01,石川小水力発電株式会社,,株式会社,奈良県,吉野郡下市町,大字新住１１１８番地,,29,443,6380045,,,2024-03-01,合併による解散等,5150001026025,令和６年３月１日奈良県吉野郡下市町大字新住１１１８番地株式会社森とみずのちから（5150001026025）に合併し解散,2023-08-03,1,,,,,イシカワショウスイリョクハツデン,0
2412,8180001040458,登記記録の閉鎖等,0,2024-03-06,2024-02-28,株式会社プロンプト,,株式会社,愛知県,名古屋市中区,栄１丁目２３番２９号,,23,106,4600008,,,2024-02-28,清算の結了等,,,2015-10-05,1,,,,,プロンプト,0
2429,8200001009789,登記記録の閉鎖等,0,2024-03-06,2024-03-01,板屋生コンクリート株式会社,,株式会社,岐阜県,本巣市,根尾東板屋７８５番地,,21,218,5011516,,,2024-03-01,合併による解散等,3200001015924,令和６年３月１日岐阜県揖斐郡揖斐川町房島１２２６番地１揖斐川生コンクリート工業株式会社（3200001015924）に合併し解散,2015-10-05,1,,,,,イタヤナマコンクリート,0
2435,8200002009986,登記記録の閉鎖等,0,2024-03-06,2024-03-01,有限会社ワークス,,有限会社,岐阜県,大垣市,和合新町１丁目２５番地１,,21,202,5030801,,,2024-03-01,清算の結了等,,,2015-10-05,1,,,,,ワークス,0
2450,8240005012678,登記記録の閉鎖等,0,2024-03-06,2024-02-28,特定非営利活動法人ひろしまユニバーサルデザイン推進協会,,その他の設立登記法人,広島県,東広島市,安芸津町風早１２５７番地,,34,212,7392403,,,2024-02-28,清算の結了等,,,2015-10-05,1,,,,,ヒロシマユニバーサルデザインスイシンキョウカイ,0
2452,8250002017729,登記記録の閉鎖等,0,2024-03-06,2024-03-04,岩国漬物佃煮製造有限会社,,有限会社,山口県,岩国市,麻里布町１丁目８番２９号,,35,208,7400018,,,2024-03-04,清算の結了等,,,2015-10-05,1,,,,,イワクニツケモノツクダニセイゾウ,0
2457,8290001010111,登記記録の閉鎖等,0,2024-03-06,2024-02-20,株式会社椿乃華,,株式会社,福岡県,福岡市早良区,飯倉２丁目２０番１４号,,40,137,8140161,,,2024-02-20,清算の結了等,,,2015-10-05,1,,,,,ツバキノハナ,0
2514,8470002012253,登記記録の閉鎖等,0,2024-03-06,2024-03-01,有限会社松田酒店,,有限会社,東京都,千代田区,紀尾井町１番３号,,13,101,1020094,,,2024-03-01,合併による解散等,4010401039979,令和６年３月１日東京都千代田区紀尾井町１番３号ＬＩＮＥヤフー株式会社（4010401039979）に合併し解散,2015-10-05,1,,,,,マツダサケテン,0
2515,8470003001833,登記記録の閉鎖等,0,2024-03-06,2024-02-19,合同会社フルスイング,,合同会社,香川県,観音寺市,出作町１１８６－４,,37,205,7680011,,,2024-02-19,清算の結了等,,,2020-09-16,1,,,,,フルスイング,0
2523,8500001014957,登記記録の閉鎖等,0,2024-03-06,2024-03-01,フードブレイン株式会社,,株式会社,愛媛県,四国中央市,川之江町４１０５番地１７,,38,213,7990101,,,2024-03-01,合併による解散等,2500001014640,令和６年３月１日愛媛県四国中央市川之江町４１０５番地１７サンヨー食品株式会社（2500001014640）に合併し解散,2015-10-05,1,,,,,フードブレイン,0
2530,9010001112487,登記記録の閉鎖等,0,2024-03-06,2024-02-29,株式会社シーズ・プランニング,,株式会社,東京都,千代田区,神田神保町２丁目１９番地１,,13,101,1010051,,,2024-02-29,清算の結了等,,,2015-10-05,1,,,,,シーズプランニング,0
2579,9011101047160,登記記録の閉鎖等,0,2024-03-06,2024-03-01,株式会社知創,,株式会社,東京都,新宿区,早稲田鶴巻町５５７番地１２,,13,104,1620041,,,2024-03-01,合併による解散等,1080401000202,令和６年３月１日静岡県浜松市中央区鍛冶町１番地の２株式会社アサヒコーポレーション（1080401000202）に合併し解散,2015-10-05,1,,,,,チソウ,0
2596,9011402007441,登記記録の閉鎖等,0,2024-03-06,2024-03-01,有限会社樋田石工業,,有限会社,東京都,板橋区,本町９番７号,,13,119,1730001,,,2024-03-01,清算の結了等,,,2015-10-05,1,,,,,ヒダイシコウギョウ,0
2621,9020001145016,登記記録の閉鎖等,0,2024-03-06,2024-03-01,株式会社ＮＩＫＫＥＮ,,株式会社,神奈川県,横浜市西区,みなとみらい２丁目２番１号横浜ランドマークタワー１５階１５０４区,,14,103,2200012,,,2024-03-01,清算の結了等,,,2022-01-28,1,,,,,ニッケン,0
2669,9050001050444,登記記録の閉鎖等,0,2024-03-06,2024-03-01,株式会社御倉,,株式会社,茨城県,笠間市,平町１８９番地,,08,216,3091722,,,2024-03-01,清算の結了等,,,2022-01-12,1,,,,,オクラ,0
2676,9070001038529,登記記録の閉鎖等,0,2024-03-06,2024-02-29,株式会社久保田金型,,株式会社,群馬県,太田市,吉沢町１６１５番地１,,10,205,3730019,,,2024-02-29,清算の結了等,,,2021-10-13,1,,,,,クボタカナガタ,0
2677,9070002028792,登記記録の閉鎖等,0,2024-03-06,2024-03-01,有限会社企画サムシング,,有限会社,群馬県,高崎市,末広町２６２番地１サンクレイドル高崎末広１４０１,,10,202,3700065,,,2024-03-01,清算の結了等,,,2015-10-05,1,,,,,キカクサムシング,0
2679,9080001017390,登記記録の閉鎖等,0,2024-03-06,2024-03-01,株式会社Ｍ’ｓインベストメント,,株式会社,静岡県,藤枝市,青葉町４丁目７番７号,,22,214,4260066,,,2024-03-01,合併による解散等,2080001022059,令和６年３月１日静岡県藤枝市青葉町四丁目７番７号株式会社ＭＳＭアセット（2080001022059）に合併し解散,2015-10-05,1,,,,,エムズインベストメント,0
2690,9100002024945,登記記録の閉鎖等,0,2024-03-06,2024-02-29,有限会社信濃富士薬品,,有限会社,長野県,塩尻市,大字片丘北熊井９５７９,,20,215,3990711,,,2024-02-29,清算の結了等,,,2015-10-05,1,,,,,シナノフジヤクヒン,0
2699,9120001246200,登記記録の閉鎖等,0,2024-03-06,2024-01-29,ｇｏｇｏ　ｊａｐａｎ株式会社,,株式会社,大阪府,大阪市住吉区,長居東４丁目１５－２１ビラ長居４０５号室,,27,120,5580004,,,2024-01-29,清算の結了等,,,2022-05-31,1,,,,,ゴーゴージャパン,0
2707,9120101005563,登記記録の閉鎖等,0,2024-03-06,2024-03-04,株式会社野口建設,,株式会社,大阪府,堺市中区,東八田２５５番地,,27,142,5998275,,,2024-03-04,清算の結了等,,,2015-10-05,1,,,,,ノグチケンセツ,0
2711,9120901011422,登記記録の閉鎖等,0,2024-03-06,2024-03-04,株式会社高槻モータース,,株式会社,大阪府,高槻市,京口町９番２７号,,27,207,5690072,,,2024-03-04,清算の結了等,,,2015-10-05,1,,,,,タカツキモータース,0
2712,9120901017766,登記記録の閉鎖等,0,2024-03-06,2024-03-05,株式会社ＭＡＤＯＣＡ,,株式会社,大阪府,吹田市,江の木町１３番１６号,,27,205,5640053,,,2024-03-05,清算の結了等,,,2015-10-05,1,,,,,,0
2732,9150001026582,登記記録の閉鎖等,0,2024-03-06,2024-03-01,富山小水力発電株式会社,,株式会社,奈良県,吉野郡下市町,大字新住１１１８番地,,29,443,6380045,,,2024-03-01,合併による解散等,5150001026025,令和６年３月１日奈良県吉野郡下市町大字新住１１１８番地株式会社森とみずのちから（5150001026025）に合併し解散,2023-08-03,1,,,,,トヤマショウスイリョクハツデン,0
2736,9160005003338,登記記録の閉鎖等,0,2024-03-06,2024-03-04,湖北メカトロ協同組合,,その他の設立登記法人,滋賀県,長浜市,平方町７３０番地,,25,203,5260033,,,2024-03-04,清算の結了等,,,2015-10-05,1,,,,,コホクメカトロ,0
2754,9190001006052,登記記録の閉鎖等,0,2024-03-06,2024-03-04,株式会社鈴昇,,株式会社,三重県,鈴鹿市,江島町５４６番地の４,,24,207,5100237,,,2024-03-04,清算の結了等,,,2015-10-05,1,,,,,スズショウ,0
2774,9260002021332,登記記録の閉鎖等,0,2024-03-06,2024-03-05,マルビ産業有限会社,,有限会社,岡山県,倉敷市,児島唐琴３丁目６番４７号,,33,202,7110904,,,2024-03-05,清算の結了等,,,2015-10-05,1,,,,,,0
2808,9340005007683,登記記録の閉鎖等,0,2024-03-06,2024-03-04,ＮＰＯ法人きんこう・まちむらネットワーク,,その他の設立登記法人,鹿児島県,肝属郡錦江町,神川６７９番地,,46,490,8932301,,,2024-03-04,清算の結了等,,,2015-10-05,1,,,,,キンコウマチムラネットワーク,0
2826,9420001016473,登記記録の閉鎖等,0,2024-03-06,2024-03-01,株式会社ＳＡＮＮＯＷＡ,,株式会社,青森県,三戸郡三戸町,大字在府小路町４３番地,,02,441,0390132,,,2024-03-01,清算の結了等,,,2019-01-31,1,,,,,サンノワ,0
