sequenceNumber,corporateNumber,process,correct,updateDate,changeDate,name,nameImageId,kind,prefectureName,cityName,streetNumber,addressImageId,prefectureCode,cityCode,postCode,addressOutside,addressOutsideImageId,closeDate,closeCause,successorCorporateNumber,changeCause,assignmentDate,latest,enName,enPrefectureName,enCityName,enAddressOutside,furigana,hihyoji
9,1010001229248,新規,0,2022-09-08,2022-09-08,株式会社エンソリューションズ,,株式会社,東京都,中央区,銀座１丁目２２番１１号銀座大竹ビジデンス２階,,13,102,1040061,,,,,,,2022-09-08,1,,,,,エンソリューションズ,0
10,1010001229297,新規,0,2022-09-08,2022-09-08,株式会社ＪＡＰＡＮ　ＫＩＭＯＮＯ　ＡＵＣＴＩＯＮ,,株式会社,東京都,文京区,千駄木１丁目２０番８号,,13,105,1130022,,,,,,,2022-09-08,1,,,,,,0
11,1010001229347,新規,0,2022-09-08,2022-09-08,Ｔｅｃｈ＆Ｇｌｏｂｅ　Ｃｏｎｓｕｌｔｉｎｇ株式会社,,株式会社,東京都,中央区,銀座１丁目２２番１１号銀座大竹ビジデンス２階,,13,102,1040061,,,,,,,2022-09-08,1,,,,,テックアンドグローブコンサルティング,0
31,1010401169498,新規,0,2022-09-08,2022-09-08,株式会社プラグマティックテクノロジーズ,,株式会社,東京都,港区,南青山２丁目２番１５号,,13,103,1070062,,,,,,,2022-09-08,1,,,,,プラグマティックテクノロジーズ,0
32,1010401169515,新規,0,2022-09-08,2022-09-08,株式会社フレイムアップ,,株式会社,東京都,港区,南青山２丁目２番１５号,,13,103,1070062,,,,,,,2022-09-08,1,,,,,フレイムアップ,0
37,1010405021382,新規,0,2022-09-08,2022-09-08,谷田部ファシリティ１一般社団法人,,その他の設立登記法人,東京都,港区,六本木１丁目６番１号泉ガーデンタワー,,13,103,1060032,,,,,,,2022-09-08,1,,,,,ヤタベファシリティワン,0
39,1010501049336,新規,0,2022-09-08,2022-09-08,天意国際株式会社,,株式会社,東京都,台東区,北上野２丁目２５番９号－５０７号室,,13,106,1100014,,,,,,,2022-09-08,1,,,,,テンイコクサイ,0
40,1010601061785,新規,0,2022-09-08,2022-09-08,株式会社スムース,,株式会社,東京都,墨田区,石原４丁目１０番１１号,,13,107,1300011,,,,,,,2022-09-08,1,,,,,スムース,0
42,1010701043188,新規,0,2022-09-08,2022-09-08,ＤｉＣＥ株式会社,,株式会社,東京都,品川区,大井１丁目１４番１－１００４号,,13,109,1400014,,,,,,,2022-09-08,1,,,,,ダイス,0
46,1010801033254,新規,0,2022-09-08,2022-09-08,株式会社歓迎フーズ,,株式会社,東京都,大田区,蒲田４丁目２９番１号８Ｆ,,13,111,1440052,,,,,,,2022-09-08,1,,,,,カンゲイフーズ,0
49,1010901051577,新規,0,2022-09-08,2022-09-08,Ｒｅｃｏｎａ　Ｍｕｓｉｃ株式会社,,株式会社,東京都,世田谷区,松原３丁目３０－１０－２０１５,,13,112,1560043,,,,,,,2022-09-08,1,,,,,レコナミュージック,0
50,1010901051585,新規,0,2022-09-08,2022-09-08,株式会社プラススイッチ,,株式会社,東京都,世田谷区,上馬４丁目２番９,,13,112,1540011,,,,,,,2022-09-08,1,,,,,プラススイッチ,0
51,1010901051593,新規,0,2022-09-08,2022-09-08,株式会社ＭＡＮＡ,,株式会社,東京都,世田谷区,奥沢７丁目１１番５号,,13,112,1580083,,,,,,,2022-09-08,1,,,,,マナ,0
60,1011001149626,新規,0,2022-09-08,2022-09-08,株式会社ＣＯ０,,株式会社,東京都,渋谷区,渋谷２丁目１９－１５宮益坂ビルディング６０９,,13,113,1500002,,,,,,,2022-09-08,1,,,,,シーオーゼロ,0
61,1011001149634,新規,0,2022-09-08,2022-09-08,株式会社９１ｐｌｕｓ,,株式会社,東京都,目黒区,祐天寺１丁目１０番１６号１０１,,13,110,1530052,,,,,,,2022-09-08,1,,,,,ナインティーワンプラス,0
62,1011001149659,新規,0,2022-09-08,2022-09-08,株式会社ヨアケマエ,,株式会社,東京都,渋谷区,東２丁目２２番５号,,13,113,1500011,,,,,,,2022-09-08,1,,,,,ヨアケマエ,0
63,1011001149667,新規,0,2022-09-08,2022-09-08,もりみらい株式会社,,株式会社,東京都,目黒区,中目黒３丁目２番１５号,,13,110,1530061,,,,,,,2022-09-08,1,,,,,モリミライ,0
65,1011003015355,新規,0,2022-09-08,2022-09-08,合同会社ＡＳＳＥＴ,,合同会社,東京都,渋谷区,猿楽町２９番８号ヒルサイドテラスＥ－３２,,13,113,1500033,,,,,,,2022-09-08,1,,,,,アセット,0
69,1011101100059,新規,0,2022-09-08,2022-09-08,株式会社アオロータス,,株式会社,東京都,新宿区,新宿５丁目１０番１０号,,13,104,1600022,,,,,,,2022-09-08,1,,,,,アオロータス,0
70,1011101100100,新規,0,2022-09-08,2022-09-08,株式会社ティーアンドイーパワーツール,,株式会社,東京都,新宿区,新宿１丁目８番４号,,13,104,1600022,,,,,,,2022-09-08,1,,,,,ティーアンドイーパワーツール,0
71,1011101100109,新規,0,2022-09-08,2022-09-08,ガンガサガル株式会社,,株式会社,東京都,新宿区,西早稲田１丁目４番１８号,,13,104,1690051,,,,,,,2022-09-08,1,,,,,ガンガサガル,0
72,1011101100117,新規,0,2022-09-08,2022-09-08,株式会社メタバースパートナーズ,,株式会社,東京都,新宿区,高田馬場１丁目２－１５早稲田永谷マンション９０３,,13,104,1690075,,,,,,,2022-09-08,1,,,,,メタバースパートナーズ,0
74,1011205002507,新規,0,2022-09-08,2022-09-08,医療法人社団千恵会,,その他の設立登記法人,東京都,中野区,若宮３丁目１７番６号メゾンドグリシーヌ１階,,13,114,1650033,,,,,,,2022-09-08,1,,,,,センケイカイ,0
75,1011303004512,新規,0,2022-09-08,2022-09-08,合同会社ＱＵＯＣＢＡＯ２２,,合同会社,東京都,杉並区,高円寺南３丁目１２番１３号プラザドゥエボリ１０２,,13,115,1660003,,,,,,,2022-09-08,1,,,,,コクバオニジュウニ,0
78,1011501028453,新規,0,2022-09-08,2022-09-08,株式会社ＪＶＫ,,株式会社,東京都,荒川区,東日暮里４丁目３２番２号,,13,118,1160014,,,,,,,2022-09-08,1,,,,,ジェイブイケイ,0
79,1011501028461,新規,0,2022-09-08,2022-09-08,Ｒｅｖｏｐｏｉｎｔ　Ｊａｐａｎ株式会社,,株式会社,東京都,荒川区,南千住３丁目２７－２浅草ビル５０８号室,,13,118,1160003,,,,,,,2022-09-08,1,,,,,レヴォポイントジャパン,0
81,1011601026233,新規,0,2022-09-08,2022-09-08,ＳＧＣ株式会社,,株式会社,東京都,練馬区,北町２丁目３１－１３ＯＹビル２階,,13,120,1790081,,,,,,,2022-09-08,1,,,,,エスジシ,0
83,1011801041230,新規,0,2022-09-08,2022-09-08,神佑株式会社,,株式会社,東京都,葛飾区,奥戸３丁目１９－２２,,13,122,1240022,,,,,,,2022-09-08,1,,,,,シンユウ,0
89,1013305003384,新規,0,2022-09-08,2022-09-08,一般社団法人グローバルコンサルティング,,その他の設立登記法人,東京都,豊島区,北大塚３丁目３３番１５号,,13,116,1700004,,,,,,,2022-09-08,1,,,,,グローバルコンサルティング,0
96,1020001148091,新規,0,2022-09-08,2022-09-08,Ｒａｉｎｂｏｗ　Ｄｒａｇｏｎ株式会社,,株式会社,神奈川県,横浜市港北区,大曽根１丁目４番１８号,,14,109,2220003,,,,,,,2022-09-08,1,,,,,レインボードラゴン,0
97,1020001148133,新規,0,2022-09-08,2022-09-08,Ｎ‐ＰＲＯＳ株式会社,,株式会社,神奈川県,横浜市中区,末吉町４丁目８３番地,,14,104,2310055,,,,,,,2022-09-08,1,,,,,エヌプロス,0
98,1020001148141,新規,0,2022-09-08,2022-09-08,株式会社近藤商会,,株式会社,神奈川県,川崎市多摩区,宿河原１丁目２９番１３号,,14,135,2140021,,,,,,,2022-09-08,1,,,,,コンドウショウカイ,0
99,1020001148158,新規,0,2022-09-08,2022-09-08,株式会社ＴＫサービス,,株式会社,神奈川県,横浜市中区,長者町８丁目１２４番地,,14,104,2310033,,,,,,,2022-09-08,1,,,,,ティーケーサービス,0
105,1020003022344,新規,0,2022-09-08,2022-09-08,合同会社ＮａａＳ,,合同会社,神奈川県,川崎市中原区,井田中ノ町２－３－３１５号グランドメゾン元住吉サウステラス,,14,133,2110034,,,,,,,2022-09-08,1,,,,,ナーズ,0
107,1021001076943,新規,0,2022-09-08,2022-09-08,株式会社フクラス,,株式会社,神奈川県,相模原市緑区,小原５１８番地２０,,14,151,2520173,,,,,,,2022-09-08,1,,,,,フクラス,0
108,1021001076951,新規,0,2022-09-08,2022-09-08,株式会社ルルロボ,,株式会社,神奈川県,鎌倉市,七里ガ浜東５丁目８番１６号,,14,204,2480025,,,,,,,2022-09-08,1,,,,,ルルロボ,0
114,1021003012120,新規,0,2022-09-08,2022-09-08,合同会社大庭木工所,,合同会社,神奈川県,平塚市,小鍋島８８１番地の４,,14,203,2540004,,,,,,,2022-09-08,1,,,,,オオバモッコウショ,0
120,1030001149989,新規,0,2022-09-08,2022-09-08,株式会社ワット,,株式会社,埼玉県,八潮市,大字大曽根１９番地６グリーンパーク第１１八潮－４０９,,11,234,3400834,,,,,,,2022-09-08,1,,,,,ワット,0
121,1030001150014,新規,0,2022-09-08,2022-09-08,株式会社むちゃうま１１１０,,株式会社,埼玉県,川口市,大字神戸６０５番地の１８,,11,203,3330832,,,,,,,2022-09-08,1,,,,,ムチャウマカワグチ,0
122,1030001150030,新規,0,2022-09-08,2022-09-08,株式会社Ｔｒａｉｎｉｎｇ　ｂａｓｅ,,株式会社,埼玉県,久喜市,中央三丁目８番２３号,,11,232,3460000,,,,,,,2022-09-08,1,,,,,トレーニングベース,0
140,1050001051656,新規,0,2022-09-08,2022-09-08,和盛株式会社,,株式会社,茨城県,猿島郡五霞町,大字冬木２４４番地１,,08,542,3060305,,,,,,,2022-09-08,1,,,,,ワセイ,0
142,1050003006823,新規,0,2022-09-08,2022-09-08,カスタムパーツ屋合同会社,,合同会社,茨城県,那珂市,杉６０３番地１,,08,226,3110106,,,,,,,2022-09-08,1,,,,,カスタムパーツヤ,0
145,1060003004223,新規,0,2022-09-08,2022-09-08,合同会社ＪＥＮＮＹ　９ＫＨ　ＴＲＡＤＩＮＧ,,合同会社,栃木県,小山市,天神町２丁目１０番１６号,,09,208,3230032,,,,,,,2022-09-08,1,,,,,ジェニーナインケイエッチトレーディング,0
147,1080405007482,新規,0,2022-09-08,2022-09-08,一般社団法人ＲｅＦｒａｍｅ,,その他の設立登記法人,静岡県,浜松市南区,参野町１６０番地の２,,22,134,4300816,,,,,,,2022-09-08,1,,,,,リフレイム,0
150,1100001035686,新規,0,2022-09-08,2022-09-08,株式会社百瀬設備,,株式会社,長野県,塩尻市,大字片丘５０３４番地９,,20,215,3990711,,,,,,,2022-09-08,1,,,,,モモセセツビ,0
154,1100003006685,新規,0,2022-09-08,2022-09-08,川島農園合同会社,,合同会社,長野県,中野市,大字田麦４３番地１０,,20,211,3830065,,,,,,,2022-09-08,1,,,,,カワシマノウエン,0
165,1120001248617,新規,0,2022-09-08,2022-09-08,株式会社人生劇場,,株式会社,大阪府,大阪市旭区,中宮４丁目１５番１３号１階,,27,117,5350003,,,,,,,2022-09-08,1,,,,,ジンセイゲキジョウ,0
166,1120001248666,新規,0,2022-09-08,2022-09-08,和一株式会社,,株式会社,大阪府,大阪市中央区,松屋町９番２０号ローレルステート松屋町９０４Ａ,,27,128,5420067,,,,,,,2022-09-08,1,,,,,ワイチ,0
167,1120001248699,新規,0,2022-09-08,2022-09-08,一集株式会社,,株式会社,大阪府,大阪市住之江区,粉浜１丁目１１－１,,27,125,5590001,,,,,,,2022-09-08,1,,,,,イージー,0
172,1120901046467,新規,0,2022-09-08,2022-09-08,株式会社ランチェスター,,株式会社,大阪府,摂津市,一津屋１丁目２０番３号,,27,224,5660043,,,,,,,2022-09-08,1,,,,,ランチェスター,0
173,1120901046475,新規,0,2022-09-08,2022-09-08,株式会社エスシード,,株式会社,大阪府,池田市,井口堂１丁目７番２０－１０３号,,27,204,5630023,,,,,,,2022-09-08,1,,,,,エスシード,0
175,1130001072553,新規,0,2022-09-08,2022-09-08,ＪＯＯ株式会社,,株式会社,京都府,京都市左京区,田中野神町２３番地,,26,103,6068213,,,,,,,2022-09-08,1,,,,,ジョー,0
188,1160001024502,新規,0,2022-09-08,2022-09-08,株式会社インテリア服部,,株式会社,滋賀県,大津市,一里山２丁目１９番４５号茶屋前コーポ３０２,,25,201,5202153,,,,,,,2022-09-08,1,,,,,インテリアハットリ,0
190,1170001017273,新規,0,2022-09-08,2022-09-08,株式会社バンブー,,株式会社,和歌山県,和歌山市,太田３１１番１５,,30,201,6408323,,,,,,,2022-09-08,1,,,,,バンブー,0
191,1170003001770,新規,0,2022-09-08,2022-09-08,潤和警備保障合同会社,,合同会社,和歌山県,海南市,野上中１８１番地２,,30,202,6401171,,,,,,,2022-09-08,1,,,,,ジュンワケイビホショウ,0
192,1180001152879,新規,0,2022-09-08,2022-09-08,株式会社ヴィレッジテック,,株式会社,愛知県,稲沢市,大塚北４丁目６６番地４,,23,220,4928215,,,,,,,2022-09-08,1,,,,,ヴィレッジテック,0
193,1180001152895,新規,0,2022-09-08,2022-09-08,株式会社Ｓｍａｒｔｓ,,株式会社,愛知県,名古屋市千種区,姫池通２丁目２番地の１,,23,101,4640055,,,,,,,2022-09-08,1,,,,,スマーツ,0
194,1180001152929,新規,0,2022-09-08,2022-09-08,マルニ建材株式会社,,株式会社,愛知県,名古屋市中区,栄５丁目５番２０号,,23,106,4600008,,,,,,,2022-09-08,1,,,,,マルニケンザイ,0
195,1180001152961,新規,0,2022-09-08,2022-09-08,ユードライブ株式会社,,株式会社,愛知県,一宮市,大和町毛受字東屋敷３３番地,,23,203,4910932,,,,,,,2022-09-08,1,,,,,ユードライブ,0
196,1180003024168,新規,0,2022-09-08,2022-09-08,ユーシン合同会社,,合同会社,愛知県,愛西市,北一色町北田面２８７番地２Ｆ,,23,232,4960905,,,,,,,2022-09-08,1,,,,,ユーシン,0
199,1200001040429,新規,0,2022-09-08,2022-09-08,株式会社相真工業,,株式会社,岐阜県,羽島市,上中町沖２０５９番地３,,21,209,5016318,,,,,,,2022-09-08,1,,,,,アイシンコウギョウ,0
204,1250001019757,新規,0,2022-09-08,2022-09-08,株式会社ホットスタッフ下関,,株式会社,山口県,下関市,一の宮本町２丁目１２番２６号,,35,201,7510808,,,,,,,2022-09-08,1,,,,,ホットスタッフシモノセキ,0
212,1280003001644,新規,0,2022-09-08,2022-09-08,ワーケーション島根合同会社,,合同会社,島根県,邑智郡川本町,大字川下１６１７番地１,,32,441,6960004,,,,,,,2022-09-08,1,,,,,ワーケーションシマネ,0
213,1290001098772,新規,0,2022-09-08,2022-09-08,ｅｋファーム株式会社分割準備会社,,株式会社,福岡県,福岡市博多区,板付４丁目７番２８号,,40,132,8120888,,,,,,,2022-09-08,1,,,,,イーケーファームブンカツジュンビガイシャ,0
215,1290003012921,新規,0,2022-09-08,2022-09-08,合同会社ともに,,合同会社,福岡県,福岡市南区,長丘４丁目８番２号ラビィーア長丘４０７号,,40,134,8150075,,,,,,,2022-09-08,1,,,,,トモニ,0
217,1290005018801,新規,0,2022-09-08,2022-09-08,一般社団法人生命と個性の学び舎,,その他の設立登記法人,福岡県,福岡市西区,西都２丁目１４番１４号,,40,135,8190367,,,,,,,2022-09-08,1,,,,,セイメイトコセイノマナビヤ,0
229,1330003009509,新規,0,2022-09-08,2022-09-08,合同会社ヒカリノ企画,,合同会社,熊本県,熊本市東区,新生１丁目１９番３号２０５,,43,102,8620908,,,,,,,2022-09-08,1,,,,,ヒカリノキカク,0
230,1330005010555,新規,0,2022-09-08,2022-09-08,医療法人樹香会,,その他の設立登記法人,熊本県,菊池郡大津町,美咲野１丁目２２番２２号,,43,403,8691237,,,,,,,2022-09-08,1,,,,,ジュコウカイ,0
235,1360001030926,新規,0,2022-09-08,2022-09-08,株式会社Ｓｐｒｉｎｇ,,株式会社,沖縄県,那覇市,宇栄原１丁目６番１０－７０１号　ワイズグレイスシティ赤嶺,,47,201,9010153,,,,,,,2022-09-08,1,,,,,スプリング,0
242,1380003005271,新規,0,2022-09-08,2022-09-08,Ｗｅｌｌ　Ｋ．Ｓ　Ｊａｐａｎ合同会社,,合同会社,福島県,郡山市,大槻町字西ノ宮西９３－１２,,07,203,9630201,,,,,,,2022-09-08,1,,,,,ウェルケイエスジャパン,0
254,1450001013789,新規,0,2022-09-08,2022-09-08,株式会社ホープス,,株式会社,北海道,旭川市,豊岡二条４丁目４番１４号,,01,204,0788232,,,,,,,2022-09-08,1,,,,,ホープス,0
270,2010001229338,新規,0,2022-09-08,2022-09-08,株式会社ＭＲＹマネジメント,,株式会社,東京都,文京区,千駄木３丁目４８番５号,,13,105,1130022,,,,,,,2022-09-08,1,,,,,エムアールワイマネジメント,0
272,2010003038613,新規,0,2022-09-08,2022-09-08,合同会社ｄｂ．ｌａｂ,,合同会社,東京都,中央区,銀座１丁目１２番４号Ｎ＆ＥＢＬＤ．６Ｆ,,13,102,1040061,,,,,,,2022-09-08,1,,,,,ディービーラボ,0
273,2010003038621,新規,0,2022-09-08,2022-09-08,合同会社ＫＥパワー２４,,合同会社,東京都,千代田区,霞が関３丁目２番１号霞が関コモンゲート西館２２階株式会社Ｋエナジー内,,13,101,1000013,,,,,,,2022-09-08,1,,,,,ケイイーパワーニジュウヨン,0
284,2010401169547,新規,0,2022-09-08,2022-09-08,株式会社ＳＡＥＬＯＵＮ,,株式会社,東京都,港区,麻布台３丁目４－１２ロイヤルプラザ４０１号室,,13,103,1060041,,,,,,,2022-09-08,1,,,,,セロウン,0
285,2010401169571,新規,0,2022-09-08,2022-09-08,株式会社ａｌｔｒｕｉｃｅ,,株式会社,東京都,港区,白金３丁目７番８号シャルム白金３０３,,13,103,1080072,,,,,,,2022-09-08,1,,,,,アルトルイス,0
287,2010403028461,新規,0,2022-09-08,2022-09-08,桜通合同会社,,合同会社,東京都,港区,愛宕２丁目５番１号,,13,103,1050002,,,,,,,2022-09-08,1,,,,,サクラドオリ,0
292,2010601061826,新規,0,2022-09-08,2022-09-08,永吉株式会社,,株式会社,東京都,江東区,亀戸５丁目１０番７号１階,,13,108,1360071,,,,,,,2022-09-08,1,,,,,ナガヨシ,0
298,2010801033245,新規,0,2022-09-08,2022-09-08,株式会社あいうえい,,株式会社,東京都,大田区,東矢口１丁目１１番１９－３０２号,,13,111,1460094,,,,,,,2022-09-08,1,,,,,アイウエイ,0
301,2010901051584,新規,0,2022-09-08,2022-09-08,株式会社ラフテル,,株式会社,東京都,世田谷区,祖師谷５丁目３２番３０号テラス５,,13,112,1570072,,,,,,,2022-09-08,1,,,,,ラフテル,0
311,2011101100108,新規,0,2022-09-08,2022-09-08,株式会社浮日歌,,株式会社,東京都,新宿区,西新宿３丁目３番１３号西新宿水間ビル２Ｆ,,13,104,1600023,,,,,,,2022-09-08,1,,,,,ウツカ,0
312,2011103012128,新規,0,2022-09-08,2022-09-08,合同会社Ｒｅｎａｉｓｓａｎｃｅ,,合同会社,東京都,新宿区,歌舞伎町２丁目９番１８号ライオンズプラザ新宿８１３号,,13,104,1600021,,,,,,,2022-09-08,1,,,,,ルネサンス,0
313,2011103012144,新規,0,2022-09-08,2022-09-08,合同会社ヤマ,,合同会社,東京都,新宿区,西新宿３丁目３番１３号西新宿水間ビル２Ｆ,,13,104,1600023,,,,,,,2022-09-08,1,,,,,ヤマ,0
314,2011201024090,新規,0,2022-09-08,2022-09-08,株式会社ＯＲＩＥＮＴＡＬ,,株式会社,東京都,中野区,鷺宮３丁目３７番１４号,,13,114,1650032,,,,,,,2022-09-08,1,,,,,オリエンタル,0
319,2011501028452,新規,0,2022-09-08,2022-09-08,Ｂ＆Ｍ株式会社,,株式会社,東京都,荒川区,西尾久７丁目１１番１２号２Ｆ－Ｅ室,,13,118,1160011,,,,,,,2022-09-08,1,,,,,ビーアンドエム,0
320,2011501028460,新規,0,2022-09-08,2022-09-08,日本宮之＿株式会社,00127779,株式会社,東京都,荒川区,南千住３丁目２７－２浅草ビル５０８号室,,13,118,1160003,,,,,,,2022-09-08,1,,,,,ニホンミヤノレイ,0
329,2012401039622,新規,0,2022-09-08,2022-09-08,株式会社Ｅ．ＢＩＳ,,株式会社,東京都,三鷹市,下連雀６丁目２番１６－１０２号,,13,204,1810013,,,,,,,2022-09-08,1,,,,,エビス,0
330,2012801021832,新規,0,2022-09-08,2022-09-08,株式会社ＨＡＪＩＭＥＳＵＮ,,株式会社,東京都,立川市,上砂町５丁目５７番地の２アーバンヒルズ武蔵砂川４０１号,,13,202,1900032,,,,,,,2022-09-08,1,,,,,ハジメサン,0
331,2013101009007,新規,0,2022-09-08,2022-09-08,株式会社ｓｑｕａｒｅ,,株式会社,東京都,羽村市,緑ヶ丘１丁目１８番地３,,13,227,2050003,,,,,,,2022-09-08,1,,,,,スクエア,0
345,2020001148124,新規,0,2022-09-08,2022-09-08,エキスパートロジスティクス株式会社,,株式会社,神奈川県,横浜市都筑区,茅ケ崎南４丁目１６番１０－６０３号,,14,118,2240037,,,,,,,2022-09-08,1,,,,,エキスパートロジスティクス,0
347,2020003022351,新規,0,2022-09-08,2022-09-08,Ｊａｓｍｉｎｅ　Ｓｃｉｅｎｃｅ合同会社,,合同会社,神奈川県,横浜市中区,桜木町１丁目１０１番地１クロスゲート７階,,14,104,2310062,,,,,,,2022-09-08,1,,,,,ジャスミンサイエンス,0
348,2020005015642,新規,0,2022-09-08,2022-09-08,一般社団法人アナザーフィールド,,その他の設立登記法人,神奈川県,横浜市金沢区,能見台６丁目３６番１２号,,14,108,2360057,,,,,,,2022-09-08,1,,,,,アナザーフィールド,0
353,2021001076942,新規,0,2022-09-08,2022-09-08,株式会社ディライトシステム,,株式会社,神奈川県,相模原市南区,上鶴間２丁目１５番４号,,14,153,2520302,,,,,,,2022-09-08,1,,,,,ディライトシステム,0
354,2021001076959,新規,0,2022-09-08,2022-09-08,株式会社ｃａｎｔｉｋ,,株式会社,神奈川県,相模原市南区,相南４丁目１７番１０号,,14,153,2520312,,,,,,,2022-09-08,1,,,,,チャンティ,0
363,2030001149963,新規,0,2022-09-08,2022-09-08,株式会社ＣＨＩＭＩ,,株式会社,埼玉県,戸田市,美女木２丁目３２番地の１３（６号棟）,,11,224,3350031,,,,,,,2022-09-08,1,,,,,チミ,0
364,2030001150005,新規,0,2022-09-08,2022-09-08,株式会社ワクリエル,,株式会社,埼玉県,新座市,野火止８丁目１６番９－５０６号,,11,230,3520011,,,,,,,2022-09-08,1,,,,,ワクリエル,0
365,2030001150013,新規,0,2022-09-08,2022-09-08,株式会社クリーダム,,株式会社,埼玉県,川口市,大字木曽呂２１６番地の５フラワーガーデンＡ２０２号,,11,203,3330831,,,,,,,2022-09-08,1,,,,,クリーダム,0
366,2030003020180,新規,0,2022-09-08,2022-09-08,合同会社ＳＴＳサポート,,合同会社,埼玉県,さいたま市大宮区,桜木町２丁目３番地大宮マルイ７階,,11,103,3300854,,,,,,,2022-09-08,1,,,,,エスティエスサポート,0
374,2040001124957,新規,0,2022-09-08,2022-09-08,隆幸商事株式会社,,株式会社,千葉県,八千代市,勝田台１丁目２５番２号平和荘東棟８号室,,12,221,2760023,,,,,,,2022-09-08,1,,,,,リュウコウショウジ,0
378,2040003020766,新規,0,2022-09-08,2022-09-08,合同会社ゼロイチ,,合同会社,千葉県,白井市,七次台３丁目８番２３号,,12,232,2701436,,,,,,,2022-09-08,1,,,,,ゼロイチ,0
383,2050001051655,新規,0,2022-09-08,2022-09-08,株式会社グレイハウンドターミナル,,株式会社,茨城県,東茨城郡茨城町,大字小鶴２０６８番地３,,08,302,3113107,,,,,,,2022-09-08,1,,,,,グレイハウンドターミナル,0
385,2050003006822,新規,0,2022-09-08,2022-09-08,合同会社ペイロールオフィス,,合同会社,茨城県,水戸市,見川２丁目７０番地の１１,,08,201,3100912,,,,,,,2022-09-08,1,,,,,,0
392,2060001035260,新規,0,2022-09-08,2022-09-08,株式会社ヤタベ設備,,株式会社,栃木県,宇都宮市,中久保２丁目７番８号,,09,201,3210906,,,,,,,2022-09-08,1,,,,,ヤタベセツビ,0
400,2080001025185,新規,0,2022-09-08,2022-09-08,株式会社Ｆａｒｍｅｒ’ｓ　Ｇｏｌｄ,,株式会社,静岡県,静岡市葵区,上足洗１丁目７番３９号,,22,101,4200841,,,,,,,2022-09-08,1,,,,,ファーマーズゴールド,0
409,2110001036955,新規,0,2022-09-08,2022-09-08,株式会社プランリード,,株式会社,新潟県,長岡市,四郎丸１丁目１３番３号,,15,202,9400046,,,,,,,2022-09-08,1,,,,,プランリード,0
418,2120001248599,新規,0,2022-09-08,2022-09-08,株式会社Ｌａｎｃｅ,,株式会社,大阪府,枚方市,南楠葉１丁目６番８号プレザントハウス１Ｆ,,27,210,5731105,,,,,,,2022-09-08,1,,,,,ランセ,0
419,2120001248616,新規,0,2022-09-08,2022-09-08,株式会社Ｋｎｏｃｋ　Ｅａｔ,,株式会社,大阪府,大阪市福島区,福島３丁目６番１５号,,27,103,5530003,,,,,,,2022-09-08,1,,,,,ノックイート,0
424,2120003022424,新規,0,2022-09-08,2022-09-08,合同会社ウィッチウェイ,,合同会社,大阪府,大阪市福島区,海老江２丁目３番４号ｎｅｓｔ９５（３０３号）,,27,103,5530001,,,,,,,2022-09-08,1,,,,,ウィッチウェイ,0
426,2120005023180,新規,0,2022-09-08,2022-09-08,一般社団法人日本小児矯正歯科学会,,その他の設立登記法人,大阪府,大阪市淀川区,東三国４丁目１番８号大京ビル東三国ハイツ２階Ｃ,,27,123,5320002,,,,,,,2022-09-08,1,,,,,ニホンショウニキョウセイシカガッカイ,0
431,2120901046474,新規,0,2022-09-08,2022-09-08,アズ・ラポール株式会社,,株式会社,大阪府,豊能郡能勢町,宿野１６６番地の２５,,27,322,5630341,,,,,,,2022-09-08,1,,,,,アズラポール,0
432,2120901046482,新規,0,2022-09-08,2022-09-08,株式会社ｓｅｇｏｅ,,株式会社,大阪府,吹田市,江の木町１１番３８－１２０３号,,27,205,5640053,,,,,,,2022-09-08,1,,,,,セゴエ,0
434,2130001072585,新規,0,2022-09-08,2022-09-08,竜進工業株式会社,,株式会社,京都府,福知山市,字猪崎４４４番地の４,,26,201,6200017,,,,,,,2022-09-08,1,,,,,タツシンコウギョウ,0
436,2130003008166,新規,0,2022-09-08,2022-09-08,優美アトリエ＆トレード合同会社,,合同会社,京都府,京都市西京区,桂徳大寺東町９９番地,,26,111,6158303,,,,,,,2022-09-08,1,,,,,ユウビアトリエアンドトレード,0
437,2130005016571,新規,0,2022-09-08,2022-09-08,船越税理士法人,,その他の設立登記法人,京都府,福知山市,末広町１丁目１番地１,,26,201,6200054,,,,,,,2022-09-08,1,,,,,フナコシ,0
440,2140003018073,新規,0,2022-09-08,2022-09-08,合同会社一徳,,合同会社,兵庫県,伊丹市,山田６丁目４番３－３号,,28,207,6640874,,,,,,,2022-09-08,1,,,,,イットク,0
441,2140003018115,新規,0,2022-09-08,2022-09-08,ユーカリプタス合同会社,,合同会社,兵庫県,神戸市垂水区,中道２丁目１番８号,,28,108,6550896,,,,,,,2022-09-08,1,,,,,ユーカリプタス,0
445,2180001152886,新規,0,2022-09-08,2022-09-08,株式会社メディグリーン,,株式会社,愛知県,名古屋市中川区,新家１丁目１６１０番地,,23,110,4540972,,,,,,,2022-09-08,1,,,,,メディグリーン,0
446,2180001152894,新規,0,2022-09-08,2022-09-08,株式会社ワカバヤシ,,株式会社,愛知県,江南市,小杁町長者毛東１３７番地２,,23,217,4838408,,,,,,,2022-09-08,1,,,,,ワカバヤシ,0
447,2180001152960,新規,0,2022-09-08,2022-09-08,株式会社蟹江エンジニアリング,,株式会社,愛知県,海部郡蟹江町,平安３丁目１－１,,23,425,4970053,,,,,,,2022-09-08,1,,,,,カニエエンジニアリング,0
448,2180001152969,新規,0,2022-09-08,2022-09-08,株式会社Ｍ’ｓ　ＨＯＵＳＥ,,株式会社,愛知県,名古屋市港区,港楽３丁目１番１５号,,23,111,4550014,,,,,,,2022-09-08,1,,,,,エムズハウス,0
450,2180003024225,新規,0,2022-09-08,2022-09-08,合同会社ＣＦＣ,,合同会社,愛知県,名古屋市中村区,松原町５丁目１番地,,23,105,4530021,,,,,,,2022-09-08,1,,,,,シーエフシー,0
453,2190001029753,新規,0,2022-09-08,2022-09-08,ＤＩＡホールディングス株式会社,,株式会社,三重県,津市,栄町３丁目１２３番地１,,24,201,5140004,,,,,,,2022-09-08,1,,,,,ダイアホールディングス,0
472,2290001098771,新規,0,2022-09-08,2022-09-08,株式会社対馬原木しいたけ分割準備会社,,株式会社,福岡県,福岡市博多区,板付４丁目７番２８号,,40,132,8120888,,,,,,,2022-09-08,1,,,,,ツシマゲンボクシイタケブンカツジュンビガイシャ,0
473,2290001098805,新規,0,2022-09-08,2022-09-08,株式会社関家具ホールディングス２,,株式会社,福岡県,大川市,大字幡保９８番地の７,,40,212,8310033,,,,,,,2022-09-08,1,,,,,セキカグホールディングスツー,0
474,2290001098846,新規,0,2022-09-08,2022-09-08,株式会社Ｂｃｈｉｌｌａｘ,,株式会社,福岡県,福岡市中央区,港１丁目９番２６－４０２号モントーレ舞鶴ベイレジデンス,,40,133,8100075,,,,,,,2022-09-08,1,,,,,ビーチラックス,0
475,2290001098854,新規,0,2022-09-08,2022-09-08,株式会社ａｎｄ．Ｃ,,株式会社,福岡県,糟屋郡宇美町,光正寺３丁目２番１６号アネックス宇美１０５号,,40,341,8112123,,,,,,,2022-09-08,1,,,,,アンドシー,0
477,2290003012912,新規,0,2022-09-08,2022-09-08,合同会社デベループ,,合同会社,福岡県,福岡市博多区,博多駅南２丁目９番１０－１５１２号,,40,132,8120016,,,,,,,2022-09-08,1,,,,,デベループ,0
478,2290003012937,新規,0,2022-09-08,2022-09-08,合同会社Ｅ‐Ｖ,,合同会社,福岡県,福岡市中央区,天神４丁目６－２８天神ファーストビル７階,,40,133,8100001,,,,,,,2022-09-08,1,,,,,イーブイ,0
479,2290005018800,新規,0,2022-09-08,2022-09-08,ＮＰＯ法人えほん楽団,,その他の設立登記法人,福岡県,福岡市博多区,光丘町１丁目３番２３－２０４号リーベスト南福岡,,40,132,8120874,,,,,,,2022-09-08,1,,,,,エホンガクダン,0
483,2340001025027,新規,0,2022-09-08,2022-09-08,株式会社宮田ブロイラー,,株式会社,鹿児島県,曽於市,末吉町南之郷６７４６番地１,,46,217,8998608,,,,,,,2022-09-08,1,,,,,ミヤタブロイラー,0
488,2360001030917,新規,0,2022-09-08,2022-09-08,株式会社Ｔａｂｉｎｃｈｕ,,株式会社,沖縄県,那覇市,前島３丁目８番１６号フラワーキャッスル前島Ｆ－１,,47,201,9000016,,,,,,,2022-09-08,1,,,,,タビンチュ,0
489,2360001030925,新規,0,2022-09-08,2022-09-08,未来クリエーション株式会社,,株式会社,沖縄県,糸満市,字潮平７７７番地１（１０１）,,47,210,9010302,,,,,,,2022-09-08,1,,,,,ミライクリエーション,0
490,2360001030933,新規,0,2022-09-08,2022-09-08,株式会社沖ロコ,,株式会社,沖縄県,国頭郡本部町,字渡久地７９９番地１・３０１号室,,47,308,9050214,,,,,,,2022-09-08,1,,,,,オキロコ,0
491,2370001049015,新規,0,2022-09-08,2022-09-08,株式会社木所板金,,株式会社,宮城県,遠田郡美里町,木間塚字土手合１４番地３,,04,505,9894205,,,,,,,2022-09-08,1,,,,,キドコロバンキン,0
495,2380001033100,新規,0,2022-09-08,2022-09-08,株式会社長月,,株式会社,福島県,郡山市,片平町字大山南２番地の２３７,,07,203,9630211,,,,,,,2022-09-08,1,,,,,ナガツキ,0
496,2380001033109,新規,0,2022-09-08,2022-09-08,株式会社ＦＩＮＥ　ＳＴＥＰ,,株式会社,福島県,郡山市,喜久田町字寺久保２８番地２５,,07,203,9630551,,,,,,,2022-09-08,1,,,,,ファインステップ,0
497,2380003005270,新規,0,2022-09-08,2022-09-08,ＮＤＡＮＤＡ合同会社,,合同会社,福島県,郡山市,西田町三町目字吉田２５２番地,,07,203,9630922,,,,,,,2022-09-08,1,,,,,ンダンダ,0
500,2380005012620,新規,0,2022-09-08,2022-09-08,農事組合法人ジュイタックＮＥＸＴ,,その他の設立登記法人,福島県,喜多方市,豊川町一井字才ノ神９９５番地,,07,208,9660912,,,,,,,2022-09-08,1,,,,,ジュイタックネクスト,0
508,2430001087470,新規,0,2022-09-08,2022-09-08,株式会社ルシャ,,株式会社,北海道,札幌市中央区,南十三条西２２丁目２番１８－２０３号,,01,101,0640913,,,,,,,2022-09-08,1,,,,,ルシャ,0
509,2450001013788,新規,0,2022-09-08,2022-09-08,株式会社メディプロＤＳ,,株式会社,北海道,旭川市,豊岡二条４丁目４番１４号,,01,204,0788232,,,,,,,2022-09-08,1,,,,,メディプロディーエス,0
514,2490001010286,新規,0,2022-09-08,2022-09-08,株式会社アムール,,株式会社,高知県,高知市,追手筋１丁目３番１３号ＫＩＲＡビル２階,,39,201,7800842,,,,,,,2022-09-08,1,,,,,アムール,0
515,2700150111549,新規,0,2022-09-08,2022-08-30,惠澤山　龍城院,,その他,宮城県,仙台市青葉区,八幡４丁目８－３２,,04,101,9800871,,,,,,,2022-08-30,1,,,,,ケイタクサンリユウジヨウイン,0
516,2700150111565,新規,0,2022-09-08,2022-08-30,ＭｔｏＳ,,その他,愛媛県,松山市,束本１丁目４番３６号,,38,201,7900916,,,,,,,2022-08-30,1,,,,,エムトウーエス,0
530,3010003038620,新規,0,2022-09-08,2022-09-08,合同会社ＫＥパワー２３,,合同会社,東京都,千代田区,霞が関３丁目２番１号霞が関コモンゲート西館２２階株式会社Ｋエナジー内,,13,101,1000013,,,,,,,2022-09-08,1,,,,,ケイイーパワーニジュウサン,0
531,3010005035541,新規,0,2022-09-08,2022-09-08,一般社団法人アサヒ飯塚,00127783,その他の設立登記法人,東京都,千代田区,内神田２丁目２番６号５階あすな会計事務所内,,13,101,1010047,,,,,,,2022-09-08,1,,,,,アサヒイイヅカ,0
535,3010401169496,新規,0,2022-09-08,2022-09-08,物語運輸株式会社,,株式会社,東京都,港区,南青山７丁目１３番２－３１７号,,13,103,1070062,,,,,,,2022-09-08,1,,,,,モノガタリウンユ,0
536,3010401169505,新規,0,2022-09-08,2022-09-08,天珠カンパニー株式会社,,株式会社,東京都,港区,虎ノ門３丁目８番２５号近鉄虎ノ門ビル８０３,,13,103,1050001,,,,,,,2022-09-08,1,,,,,テンジュカンパニー,0
537,3010401169546,新規,0,2022-09-08,2022-09-08,株式会社Ｔ＆Ｈ,,株式会社,東京都,港区,六本木５丁目１６番５号,,13,103,1060032,,,,,,,2022-09-08,1,,,,,ティーアンドエイチ,0
538,3010401169562,新規,0,2022-09-08,2022-09-08,株式会社Ｃｏｃｏｏｎ,,株式会社,東京都,港区,六本木２丁目２番１１号９０３,,13,103,1060032,,,,,,,2022-09-08,1,,,,,コクーン,0
539,3010403028428,新規,0,2022-09-08,2022-09-08,ＥＳＴ合同会社,,合同会社,東京都,港区,南青山３丁目１番３６号青山丸竹ビル６Ｆ,,13,103,1070062,,,,,,,2022-09-08,1,,,,,エスト,0
540,3010403028436,新規,0,2022-09-08,2022-09-08,合同会社ろくよん,,合同会社,東京都,港区,東新橋１丁目１０番１－１６１１号,,13,103,1050021,,,,,,,2022-09-08,1,,,,,ロクヨン,0
541,3010403028452,新規,0,2022-09-08,2022-09-08,合同会社Ｔｉｌｄａ,,合同会社,東京都,港区,南青山３丁目１番３６号青山丸竹ビル６Ｆ,,13,103,1070062,,,,,,,2022-09-08,1,,,,,チルダ,0
542,3010403028460,新規,0,2022-09-08,2022-09-08,南六条合同会社,,合同会社,東京都,港区,愛宕２丁目５番１号,,13,103,1050002,,,,,,,2022-09-08,1,,,,,ミナミロクジョウ,0
545,3010503006713,新規,0,2022-09-08,2022-09-08,星辰合同会社,,合同会社,東京都,台東区,浅草２丁目１２－８荒井ビル３０１,,13,106,1110032,,,,,,,2022-09-08,1,,,,,セイシン,0
551,3010701043186,新規,0,2022-09-08,2022-09-08,株式会社ＫＮＥ,,株式会社,東京都,品川区,西五反田１丁目１１番１－１００９号,,13,109,1410031,,,,,,,2022-09-08,1,,,,,ケーエヌイー,0
552,3010703006380,新規,0,2022-09-08,2022-09-08,ニュークロスジャパン合同会社,,合同会社,東京都,品川区,上大崎２丁目６番２５－１１２号,,13,109,1410021,,,,,,,2022-09-08,1,,,,,ニュークロスジャパン,0
554,3010803004276,新規,0,2022-09-08,2022-09-08,合同会社ストリーム,,合同会社,東京都,大田区,大森北２丁目４番１５号,,13,111,1430016,,,,,,,2022-09-08,1,,,,,ストリーム,0
564,3011001149599,新規,0,2022-09-08,2022-09-08,Ｕ８株式会社,,株式会社,東京都,渋谷区,神泉町１番２１－７０１号,,13,113,1500045,,,,,,,2022-09-08,1,,,,,ユーエイト,0
565,3011001149640,新規,0,2022-09-08,2022-09-08,株式会社ライズ,,株式会社,東京都,渋谷区,恵比寿西１丁目１０番１０号,,13,113,1500021,,,,,,,2022-09-08,1,,,,,ライズ,0
567,3011003015353,新規,0,2022-09-08,2022-09-08,合同会社ＹＧＴＣ,,合同会社,東京都,渋谷区,神宮前４丁目２６番２８号ファンファンビル３階,,13,113,1500001,,,,,,,2022-09-08,1,,,,,ワイジーティーシー,0
571,3011101100123,新規,0,2022-09-08,2022-09-08,株式会社和幻,,株式会社,東京都,新宿区,西新宿３丁目１４番１６－１０１号,,13,104,1600023,,,,,,,2022-09-08,1,,,,,ワキュウ,0
572,3011103012143,新規,0,2022-09-08,2022-09-08,合同会社ＰＯＰＣＯＲＮ　ＰＡＲＴＹ,,合同会社,東京都,新宿区,西新宿３丁目３番１３号西新宿水間ビル２Ｆ,,13,104,1600023,,,,,,,2022-09-08,1,,,,,ポップコーンパーティー,0
574,3011303004510,新規,0,2022-09-08,2022-09-08,フォントかるた合同会社,,合同会社,東京都,杉並区,松庵３丁目６番６号,,13,115,1670054,,,,,,,2022-09-08,1,,,,,フォントカルタ,0
580,3011505002493,新規,0,2022-09-08,2022-09-08,医療法人社団ＯＳＳＯ　ＦＯＲＴＥ,,その他の設立登記法人,東京都,北区,王子５丁目１番４０号２階１３号室,,13,117,1140002,,,,,,,2022-09-08,1,,,,,オッソフォルテ,0
584,3011601026231,新規,0,2022-09-08,2022-09-08,ＳＴアソシエイツ株式会社,,株式会社,東京都,練馬区,旭丘１丁目６６－５－１４０２,,13,120,1760005,,,,,,,2022-09-08,1,,,,,エスティアソシエイツ,0
587,3012701017228,新規,0,2022-09-08,2022-09-08,株式会社ひかり,,株式会社,東京都,清瀬市,元町１丁目１１番１９号第２ヴィラ坂井１０２号,,13,221,2040021,,,,,,,2022-09-08,1,,,,,ヒカリ,0
595,3013303006288,新規,0,2022-09-08,2022-09-08,合同会社ソラウタ,,合同会社,東京都,豊島区,上池袋１丁目３７番２２号,,13,116,1700012,,,,,,,2022-09-08,1,,,,,ソラウタ,0
601,3020001148024,新規,0,2022-09-08,2022-09-08,株式会社Ｎ＆Ｋ,,株式会社,神奈川県,横浜市都筑区,大丸１０番３－３０４号,,14,118,2240061,,,,,,,2022-09-08,1,,,,,エヌアンドケイ,0
602,3020001148131,新規,0,2022-09-08,2022-09-08,株式会社Ｅｉｇｈｔ２,,株式会社,神奈川県,横浜市港南区,笹下４丁目１４－４８,,14,111,2340052,,,,,,,2022-09-08,1,,,,,エイトセカンド,0
607,3021001076941,新規,0,2022-09-08,2022-09-08,株式会社萠星,,株式会社,神奈川県,横須賀市,平作３丁目２番９号,,14,201,2380032,,,,,,,2022-09-08,1,,,,,メイセイ,0
608,3021001076958,新規,0,2022-09-08,2022-09-08,株式会社いいのや食研,,株式会社,神奈川県,秦野市,堀西６７３番地,,14,211,2591331,,,,,,,2022-09-08,1,,,,,イイノヤショクケン,0
611,3021003012119,新規,0,2022-09-08,2022-09-08,国際ヘルステックコンサルティング合同会社,,合同会社,神奈川県,厚木市,森の里４丁目４１番１号,,14,212,2430122,,,,,,,2022-09-08,1,,,,,コクサイヘルステックコンサルティング,0
618,3030001150045,新規,0,2022-09-08,2022-09-08,プラスワン株式会社,,株式会社,埼玉県,さいたま市浦和区,常盤４丁目１３番１２号常盤ライトビル３０２号室,,11,107,3300061,,,,,,,2022-09-08,1,,,,,プラスワン,0
624,3030003020163,新規,0,2022-09-08,2022-09-08,岩倉電池合同会社,,合同会社,埼玉県,さいたま市桜区,山久保２丁目２番１７－２号,,11,106,3380821,,,,,,,2022-09-08,1,,,,,イワクラデンチ,0
628,3040001125021,新規,0,2022-09-08,2022-09-08,株式会社ＡＲＭＯＲ　ＴＯＫＹＯ,,株式会社,千葉県,鎌ケ谷市,東初富４丁目５番２２号,,12,224,2730122,,,,,,,2022-09-08,1,,,,,アーマートウキョウ,0
631,3040003020773,新規,0,2022-09-08,2022-09-08,合同会社ティアラ・アセット・マネジメント,,合同会社,千葉県,船橋市,前原西４丁目１７番８－４号,,12,204,2740825,,,,,,,2022-09-08,1,,,,,ティアラアセットマネジメント,0
635,3050001051654,新規,0,2022-09-08,2022-09-08,株式会社ヨシダエンジニアリング,,株式会社,茨城県,鹿嶋市,大字根三田８９２番地３,,08,222,3140035,,,,,,,2022-09-08,1,,,,,ヨシダエンジニアリング,0
640,3050003006821,新規,0,2022-09-08,2022-09-08,ビリオンズ合同会社,,合同会社,茨城県,稲敷郡阿見町,大字実穀１６２７番地８,,08,443,3001153,,,,,,,2022-09-08,1,,,,,ビリオンズ,0
643,3060003004221,新規,0,2022-09-08,2022-09-08,合同会社フジタレッカー,,合同会社,栃木県,那須烏山市,中央１丁目２０番２５号,,09,215,3210621,,,,,,,2022-09-08,1,,,,,フジタレッカー,0
644,3070001039615,新規,0,2022-09-08,2022-09-08,ルック不動産株式会社,,株式会社,群馬県,高崎市,貝沢町１３１７番地１,,10,202,3700042,,,,,,,2022-09-08,1,,,,,ルックフドウサン,0
653,3100003006683,新規,0,2022-09-08,2022-09-08,合同会社ＣＡＮ,,合同会社,長野県,松本市,波田８４５９番地４,,20,202,3901401,,,,,,,2022-09-08,1,,,,,キャン,0
656,3100005012911,新規,0,2022-09-08,2022-09-08,老健協同組合,,その他の設立登記法人,長野県,松本市,大字入山辺４０７番地,,20,202,3900222,,,,,,,2022-09-08,1,,,,,ロウケン,0
660,3110005016853,新規,0,2022-09-08,2022-09-08,アシスト新潟行政書士法人,,その他の設立登記法人,新潟県,新潟市中央区,長潟８９４番地１,,15,103,9500932,,,,,,,2022-09-08,1,,,,,アシストニイガタ,0
671,3120001248672,新規,0,2022-09-08,2022-09-08,楞儷株式会社,00127781,株式会社,大阪府,大阪市中央区,松屋町９番２０号ローレルステート松屋町４０９Ａ,,27,128,5420067,,,,,,,2022-09-08,1,,,,,リョウレイ,0
672,3120001248689,新規,0,2022-09-08,2022-09-08,日本技術承継支援株式会社,,株式会社,大阪府,大阪市阿倍野区,阿倍野筋１丁目１番４３号あべのハルカス３１階,,27,119,5450052,,,,,,,2022-09-08,1,,,,,ニホンギジュツショウケイシエン,0
673,3120001248722,新規,0,2022-09-08,2022-09-08,株式会社Ｃ‐Ｐｒｏｓ,,株式会社,大阪府,大阪市中央区,南船場２丁目７番１３号,,27,128,5420081,,,,,,,2022-09-08,1,,,,,シープロス,0
674,3120001248730,新規,0,2022-09-08,2022-09-08,東洋紡エムシー株式会社,,株式会社,大阪府,大阪市北区,梅田１丁目１３番１号大阪梅田ツインタワーズ・サウス,,27,127,5300001,,,,,,,2022-09-08,1,,,,,トウヨウボウエムシー,0
675,3120001248739,新規,0,2022-09-08,2022-09-08,株式会社ＨＩＧＡＳＨＩＤＡ,,株式会社,大阪府,大阪市東淀川区,井高野３丁目３番２５号,,27,114,5330001,,,,,,,2022-09-08,1,,,,,ヒガシダ,0
676,3120003022398,新規,0,2022-09-08,2022-09-08,合同会社ＲＩＴＳＵＫＩ,,合同会社,大阪府,大阪市北区,堂島１丁目３番３号北新地西辻ビル５Ｆ,,27,127,5300003,,,,,,,2022-09-08,1,,,,,リツキ,0
678,3120103004841,新規,0,2022-09-08,2022-09-08,合同会社すきーむ,,合同会社,大阪府,堺市南区,三原台１丁３番８棟７１１号,,27,145,5900111,,,,,,,2022-09-08,1,,,,,スキーム,0
684,3120901046440,新規,0,2022-09-08,2022-09-08,株式会社Ｂｉｋｅ　Ｓｔａｒｓ　Ｌｉｎｋ,,株式会社,大阪府,高槻市,柱本５丁目１５番３号,,27,207,5690844,,,,,,,2022-09-08,1,,,,,バイクスターズリンク,0
685,3120901046465,新規,0,2022-09-08,2022-09-08,株式会社ＷＯＲＫＳＨＯＰ,,株式会社,大阪府,吹田市,千里山竹園１丁目１９番８号,,27,205,5650852,,,,,,,2022-09-08,1,,,,,ワークショップ,0
686,3120903004297,新規,0,2022-09-08,2022-09-08,ワールドリンク合同会社,,合同会社,大阪府,池田市,井口堂２丁目２番３号,,27,204,5630023,,,,,,,2022-09-08,1,,,,,ワールドリンク,0
694,3130001072592,新規,0,2022-09-08,2022-09-08,株式会社パーフェクトワールド,,株式会社,京都府,京丹後市,網野町浜詰７４１番地,,26,212,6293245,,,,,,,2022-09-08,1,,,,,パーフェクトワールド,0
701,3140001127288,新規,0,2022-09-08,2022-09-08,Ｇｒａｙ　Ｒｅｓｅａｒｃｈ　Ｉｎｓｔｉｔｕｔｅ株式会社,,株式会社,兵庫県,芦屋市,月若町２番１８号,,28,206,6590084,,,,,,,2022-09-08,1,,,,,グレイリサーチインスティテュート,0
703,3140003018114,新規,0,2022-09-08,2022-09-08,合同会社Ｈｅａｒｔ　Ｍｅｅｔｓ　Ｗｏｒｌｄ,,合同会社,兵庫県,神戸市中央区,上筒井通７丁目３番６号ときわ上筒井レクラン５０２号室,,28,110,6510061,,,,,,,2022-09-08,1,,,,,ハートミーツワールド,0
728,3230001019518,新規,0,2022-09-08,2022-09-08,ウィファインド株式会社,,株式会社,富山県,富山市,桜橋通り３番１号富山電気ビルディング本館２階,,16,201,9300004,,,,,,,2022-09-08,1,,,,,ウィファインド,0
731,3240003005787,新規,0,2022-09-08,2022-09-08,合同会社１ｃｈｉｏｒ８ｃｈｉ,,合同会社,広島県,東広島市,西条岡町２－１２イーストコア２０５,,34,212,7390016,,,,,,,2022-09-08,1,,,,,イチカバチカ,0
733,3250001019755,新規,0,2022-09-08,2022-09-08,株式会社ＡＫＮスマイル・プラス,,株式会社,山口県,宇部市,大字妻崎開作６５４番地１,,35,202,7590204,,,,,,,2022-09-08,1,,,,,エーケーエヌスマイルプラス,0
744,3290001098770,新規,0,2022-09-08,2022-09-08,株式会社翔榮分割準備会社,,株式会社,福岡県,福岡市博多区,板付４丁目７番２８号,,40,132,8120888,,,,,,,2022-09-08,1,,,,,ショウエイブンカツジュンビガイシャ,0
755,3340001025018,新規,0,2022-09-08,2022-09-08,株式会社Ｌｅｖｅｌ．５,,株式会社,鹿児島県,鹿児島市,山之口町９番１７号上原ビル５階,,46,201,8920844,,,,,,,2022-09-08,1,,,,,レベルファイブ,0
757,3360001030924,新規,0,2022-09-08,2022-09-08,Ｓｏｍｅｗｈｅｒｅ＆Ｈｅｒｅ株式会社,,株式会社,沖縄県,那覇市,壺屋１丁目６－２、３Ｆ,,47,201,9020065,,,,,,,2022-09-08,1,,,,,サムウェアアンドヒア,0
758,3360001030932,新規,0,2022-09-08,2022-09-08,Ｒ＆Ｔホールディングス株式会社,,株式会社,沖縄県,那覇市,首里石嶺町２丁目２６１番地６,,47,201,9030804,,,,,,,2022-09-08,1,,,,,アールアンドティーホールディングス,0
759,3360003012284,新規,0,2022-09-08,2022-09-08,合同会社たいたい,,合同会社,沖縄県,石垣市,字真栄里７７番地２,,47,207,9070002,,,,,,,2022-09-08,1,,,,,タイタイ,0
760,3360005006714,新規,0,2022-09-08,2022-09-08,一般社団法人喜納昌吉萬國津染花の会,,その他の設立登記法人,沖縄県,那覇市,牧志１丁目２－１,,47,201,9000013,,,,,,,2022-09-08,1,,,,,キナショウキチバンコクシンリョウハナノカイ,0
763,3370001049039,新規,0,2022-09-08,2022-09-08,ＴＨＥ７２ＣＬＵＢ株式会社,,株式会社,宮城県,塩竈市,海岸通４番１号プチパレビル２階,,04,203,9850002,,,,,,,2022-09-08,1,,,,,ザセブンツークラブ,0
765,3370003005824,新規,0,2022-09-08,2022-09-08,合同会社Ｈ＆Ｔダイニング,,合同会社,宮城県,仙台市宮城野区,岩切字青津目１２９番地の３,,04,102,9830821,,,,,,,2022-09-08,1,,,,,エイチアンドティーダイニング,0
779,3430001087362,新規,0,2022-09-08,2022-09-08,株式会社ＭＯＫＯ,,株式会社,北海道,札幌市中央区,南十六条西４丁目１番１０号,,01,101,0640916,,,,,,,2022-09-08,1,,,,,モコ,0
781,3470001019254,新規,0,2022-09-08,2022-09-08,株式会社ＥＩＴＯ,,株式会社,香川県,高松市,三谷町７１８番地１１,,37,201,7610450,,,,,,,2022-09-08,1,,,,,エイト,0
788,3700150111151,新規,0,2022-09-08,2022-08-12,支援団体　ＭＩＬＡＩ,,その他,福島県,郡山市,田村町徳定字下北田２５－５ＣＡＭＰＵＳ２１Ａ－２０７,,07,203,9631165,,,,,,,2022-08-12,1,,,,,シエンダンタイミライ,0
805,4010401169537,新規,0,2022-09-08,2022-09-08,株式会社エイスタイルス,,株式会社,東京都,港区,芝浦２丁目１番１１－９１１号,,13,103,1080023,,,,,,,2022-09-08,1,,,,,エイスタイルス,0
806,4010401169586,新規,0,2022-09-08,2022-09-08,株式会社Ｖａｎｉｌｌｅｓｔ,,株式会社,東京都,港区,南青山２丁目２番１５号ＷｉｎＡｏｙａｍａビルＵＣＦ６３５,,13,103,1070062,,,,,,,2022-09-08,1,,,,,バニレスト,0
811,4010403028419,新規,0,2022-09-08,2022-09-08,合同会社カラーズコンサルティング,,合同会社,東京都,港区,台場１丁目５番４－８０７号,,13,103,1350091,,,,,,,2022-09-08,1,,,,,カラーズコンサルティング,0
816,4010405021363,新規,0,2022-09-08,2022-09-08,Ａｏｙａｍａ　Ａｃｃｏｕｎｔｉｎｇ税理士法人,,その他の設立登記法人,東京都,港区,南青山５丁目４番２７号Ｂａｒｂｉｚｏｎ１０４－８０２号,,13,103,1070062,,,,,,,2022-09-08,1,,,,,アオヤマアカウンティング,0
829,4010601061824,新規,0,2022-09-08,2022-09-08,株式会社五感空間価値研究所,,株式会社,東京都,墨田区,堤通１丁目１７番５－４１７号,,13,107,1310034,,,,,,,2022-09-08,1,,,,,ゴカンクウカンカチケンキュウショ,0
832,4010701043185,新規,0,2022-09-08,2022-09-08,株式会社ＳＹ,,株式会社,東京都,品川区,上大崎２丁目３番２５号,,13,109,1410021,,,,,,,2022-09-08,1,,,,,エスワイ,0
837,4010805002970,新規,0,2022-09-08,2022-09-08,医療法人社団大明会,,その他の設立登記法人,東京都,大田区,西糀谷４丁目２１番４号糀谷Ｔビル１階,,13,111,1440034,,,,,,,2022-09-08,1,,,,,ダイメイカイ,0
846,4011001149656,新規,0,2022-09-08,2022-09-08,株式会社白鳥,,株式会社,東京都,渋谷区,道玄坂１丁目１３番５号ＭＳＴ渋谷４階,,13,113,1500043,,,,,,,2022-09-08,1,,,,,ハクチョウ,0
848,4011003015088,新規,0,2022-09-08,2022-09-08,いろは合同会社,,合同会社,東京都,渋谷区,神宮前３丁目２４－１,,13,113,1500001,,,,,,,2022-09-08,1,,,,,イロハ,0
849,4011003015328,新規,0,2022-09-08,2022-09-08,合同会社Ｒｉｍｉｅｎｓ,,合同会社,東京都,目黒区,駒場３丁目５番８号ＥＸＡＭ駒場東大前２０１,,13,110,1530041,,,,,,,2022-09-08,1,,,,,リミエンス,0
850,4011003015352,新規,0,2022-09-08,2022-09-08,合同会社ｍａＨｏｒａ,,合同会社,東京都,目黒区,五本木３丁目２０番２号,,13,110,1530053,,,,,,,2022-09-08,1,,,,,マホラ,0
856,4011103012134,新規,0,2022-09-08,2022-09-08,Ｎｏｍａｒｚ合同会社,,合同会社,東京都,新宿区,西新宿３丁目９番７号,,13,104,1600023,,,,,,,2022-09-08,1,,,,,ノマース,0
857,4011103012142,新規,0,2022-09-08,2022-09-08,合同会社Ｍｏｖｅ　Ｃｏｎｓｕｌｔｉｎｇ,,合同会社,東京都,新宿区,愛住町３－９グランシュール四谷１０３,,13,104,1600005,,,,,,,2022-09-08,1,,,,,ムーブコンサルティング,0
860,4011501028459,新規,0,2022-09-08,2022-09-08,株式会社ＮＣ企画,,株式会社,東京都,北区,東十条４丁目５番２４号清水マンション１Ｆ,,13,117,1140001,,,,,,,2022-09-08,1,,,,,エヌシーキカク,0
864,4011605002467,新規,0,2022-09-08,2022-09-08,医療法人社団Ｓｍａｒｔ　Ｌｅａｆ,,その他の設立登記法人,東京都,練馬区,東大泉４丁目１番１０号,,13,120,1780063,,,,,,,2022-09-08,1,,,,,スマートリーフ,0
873,4012401039620,新規,0,2022-09-08,2022-09-08,クリアサービス株式会社,,株式会社,東京都,府中市,寿町１丁目４番地の３,,13,206,1830056,,,,,,,2022-09-08,1,,,,,クリアサービス,0
874,4012701017243,新規,0,2022-09-08,2022-09-08,株式会社ラフト,,株式会社,東京都,清瀬市,竹丘２丁目７－４－５０１,,13,221,2040023,,,,,,,2022-09-08,1,,,,,ラフト,0
883,4020001148130,新規,0,2022-09-08,2022-09-08,株式会社れたあ,,株式会社,神奈川県,横浜市保土ケ谷区,法泉１丁目８－１０－２,,14,106,2400032,,,,,,,2022-09-08,1,,,,,レタア,0
884,4020001148155,新規,0,2022-09-08,2022-09-08,株式会社サウンドカット,,株式会社,神奈川県,横浜市都筑区,見花山１番３０号見花山ビル３階,,14,118,2240066,,,,,,,2022-09-08,1,,,,,サウンドカット,0
887,4020003022366,新規,0,2022-09-08,2022-09-08,Ｍｏｒｅ　Ｏｐｔｉｏｎｓ合同会社,,合同会社,神奈川県,横浜市鶴見区,上の宮２丁目３番１９号,,14,101,2300075,,,,,,,2022-09-08,1,,,,,モアオプションズ,0
892,4021001076940,新規,0,2022-09-08,2022-09-08,天翼株式会社,,株式会社,神奈川県,座間市,入谷西５丁目４８－１－５０３,,14,216,2520029,,,,,,,2022-09-08,1,,,,,テンヨク,0
893,4021001076949,新規,0,2022-09-08,2022-09-08,株式会社石牟礼設備,,株式会社,神奈川県,相模原市緑区,二本松２丁目１３番７号,,14,151,2520137,,,,,,,2022-09-08,1,,,,,イシムレセツビ,0
900,4030001149994,新規,0,2022-09-08,2022-09-08,株式会社ＭＯＡＮ,,株式会社,埼玉県,所沢市,西所沢２丁目１番１３－３０２号,,11,208,3591144,,,,,,,2022-09-08,1,,,,,モアン,0
903,4030003020162,新規,0,2022-09-08,2022-09-08,合同会社ＣＲＥＥＲ,,合同会社,埼玉県,八潮市,大字南後谷６４２番地１１,,11,234,3400831,,,,,,,2022-09-08,1,,,,,クレール,0
906,4040001124955,新規,0,2022-09-08,2022-09-08,ＰＭ株式会社,,株式会社,千葉県,我孫子市,久寺家１丁目２７番２１号,,12,222,2701163,,,,,,,2022-09-08,1,,,,,ピーエム,0
907,4040001124988,新規,0,2022-09-08,2022-09-08,株式会社ガーデン動物病院,,株式会社,千葉県,印西市,大森６９３番地６,,12,231,2701327,,,,,,,2022-09-08,1,,,,,ガーデンドウブツビョウイン,0
908,4040001125020,新規,0,2022-09-08,2022-09-08,株式会社禄家工房,,株式会社,千葉県,市川市,本北方３丁目２３番３９号,,12,203,2720816,,,,,,,2022-09-08,1,,,,,ロクヤコウボウ,0
914,4050003006829,新規,0,2022-09-08,2022-09-08,Ｓ　Ｄ　Ｉ　ＣＲＥＷ合同会社,,合同会社,茨城県,龍ケ崎市,若柴町３０６０番地１スターハイツＧ号室,,08,208,3010041,,,,,,,2022-09-08,1,,,,,エスディーアイクルー,0
915,4060001035242,新規,0,2022-09-08,2022-09-08,株式会社ＫＳＦ,,株式会社,栃木県,佐野市,飯田町７９７番地１,,09,204,3270825,,,,,,,2022-09-08,1,,,,,ケイエスエフ,0
916,4060001035250,新規,0,2022-09-08,2022-09-08,株式会社那須ひゅっげ,,株式会社,栃木県,那須塩原市,緑２丁目１２８２番地２０,,09,213,3292713,,,,,,,2022-09-08,1,,,,,ナスヒュッゲ,0
917,4060001035259,新規,0,2022-09-08,2022-09-08,株式会社Ｓｈｉｉｎａｋｅｎｍａ,,株式会社,栃木県,足利市,板倉町９９１番地１,,09,202,3260102,,,,,,,2022-09-08,1,,,,,シイナケンマ,0
921,4060005010010,新規,0,2022-09-08,2022-09-08,那須町一般廃棄物処理協同組合,,その他の設立登記法人,栃木県,那須郡那須町,大字高久甲３０番地１３,,09,407,3250001,,,,,,,2022-09-08,1,,,,,ナスマチイッパンハイキブツショリ,0
922,4070001039614,新規,0,2022-09-08,2022-09-08,株式会社ナチュラルサポート,,株式会社,群馬県,高崎市,棟高町６０３番地９,,10,202,3703521,,,,,,,2022-09-08,1,,,,,ナチュラルサポート,0
923,4070001039622,新規,0,2022-09-08,2022-09-08,株式会社エイチエム,,株式会社,群馬県,渋川市,石原１１３番地１３,,10,208,3770007,,,,,,,2022-09-08,1,,,,,エイチエム,0
931,4080401026038,新規,0,2022-09-08,2022-09-08,株式会社ｅｐａｎｏｕｉｒ,,株式会社,静岡県,浜松市西区,入野町４９０４番地の２１,,22,133,4328061,,,,,,,2022-09-08,1,,,,,エパヌウィール,0
941,4100003006682,新規,0,2022-09-08,2022-09-08,シグナス長野合同会社,,合同会社,長野県,安曇野市,穂高柏原２８７２番地２２,,20,220,3998304,,,,,,,2022-09-08,1,,,,,シグナスナガノ,0
953,4120001248639,新規,0,2022-09-08,2022-09-08,株式会社道明神将玄学研究所,,株式会社,大阪府,大阪市天王寺区,細工谷１丁目３番２５－２８０３号,,27,109,5430032,,,,,,,2022-09-08,1,,,,,ドウメイシンショウゲンガクケンキュウショ,0
954,4120001248647,新規,0,2022-09-08,2022-09-08,株式会社ネクストレベルワークス,,株式会社,大阪府,大阪市北区,芝田１丁目１０番１０号,,27,127,5300012,,,,,,,2022-09-08,1,,,,,ネクストレベルワークス,0
955,4120001248655,新規,0,2022-09-08,2022-09-08,株式会社ヒトシア,,株式会社,大阪府,大阪市東淀川区,豊新３丁目８番１１号いほりビル３階Ｂ号,,27,114,5330014,,,,,,,2022-09-08,1,,,,,ヒトシア,0
956,4120001248688,新規,0,2022-09-08,2022-09-08,株式会社ブライトゾーン,,株式会社,大阪府,大阪市浪速区,大国２丁目１０番８号,,27,111,5560014,,,,,,,2022-09-08,1,,,,,ブライトゾーン,0
961,4120003022389,新規,0,2022-09-08,2022-09-08,合同会社ＥＲＩＫＡ,,合同会社,大阪府,大阪市北区,梅田１丁目１番３号大阪駅前第３ビル２９階１－１－１号室,,27,127,5300001,,,,,,,2022-09-08,1,,,,,エリカ,0
962,4120003022406,新規,0,2022-09-08,2022-09-08,合同会社ＧＲＡＩＮＤＥＢＥＡＵＴＥ,,合同会社,大阪府,大阪市旭区,太子橋３丁目３－４,,27,117,5350001,,,,,,,2022-09-08,1,,,,,グランドボーテ,0
963,4120103004840,新規,0,2022-09-08,2022-09-08,合同会社つむぎメディカル,,合同会社,大阪府,和泉市,箕形町６丁目２番５－１０６号,,27,219,5940042,,,,,,,2022-09-08,1,,,,,ツムギメディカル,0
965,4120901046472,新規,0,2022-09-08,2022-09-08,株式会社Ａｒｔ　Ａｉｄｅｄ　Ｄｅｓｉｇｎ,,株式会社,大阪府,池田市,城南２丁目６番１２号サンハイツ池田２０２号,,27,204,5630025,,,,,,,2022-09-08,1,,,,,アートエイディドデザイン,0
966,4120901046480,新規,0,2022-09-08,2022-09-08,株式会社健工務店,,株式会社,大阪府,吹田市,江の木町２番３５号,,27,205,5640053,,,,,,,2022-09-08,1,,,,,ケンコウムテン,0
970,4130001072567,新規,0,2022-09-08,2022-09-08,株式会社ＫＳＭ,,株式会社,京都府,京都市下京区,仏光寺通油小路東入木賊山町１６５番地,,26,106,6008461,,,,,,,2022-09-08,1,,,,,ケイエスエム,0
979,4140001127221,新規,0,2022-09-08,2022-09-08,株式会社たけいさお,,株式会社,兵庫県,加古郡稲美町,加古１７３８番地の１,,28,381,6751105,,,,,,,2022-09-08,1,,,,,タケイサオ,0
980,4140001127337,新規,0,2022-09-08,2022-09-08,水野電工株式会社,,株式会社,兵庫県,神戸市垂水区,南多聞台４丁目１番２５－８１０号,,28,108,6550043,,,,,,,2022-09-08,1,,,,,ミズノデンコウ,0
981,4140001127345,新規,0,2022-09-08,2022-09-08,ミコウ株式会社,,株式会社,兵庫県,神戸市兵庫区,西上橘通１丁目２番１７号メゾンジョイフル３０２,,28,105,6520033,,,,,,,2022-09-08,1,,,,,ミコウ,0
985,4140003018113,新規,0,2022-09-08,2022-09-08,合同会社中川装工,,合同会社,兵庫県,姫路市,城見台３丁目１１１１番地１４２,,28,201,6700803,,,,,,,2022-09-08,1,,,,,ナカガワソウコウ,0
1001,4180001152868,新規,0,2022-09-08,2022-09-08,株式会社クラッソーネコンストラクション,,株式会社,愛知県,名古屋市中村区,名駅５丁目７番３０号名駅東ビル４Ｆ,,23,105,4500002,,,,,,,2022-09-08,1,,,,,クラッソーネコンストラクション,0
1002,4180001152892,新規,0,2022-09-08,2022-09-08,株式会社シーケービルド,,株式会社,愛知県,名古屋市港区,入場２丁目７０６番地,,23,111,4550803,,,,,,,2022-09-08,1,,,,,シーケービルド,0
1003,4180001152901,新規,0,2022-09-08,2022-09-08,株式会社Ｃｏｍｅ　Ｉｎ,,株式会社,愛知県,名古屋市中村区,小鴨町１０５番地,,23,105,4530844,,,,,,,2022-09-08,1,,,,,カミン,0
1004,4180001152942,新規,0,2022-09-08,2022-09-08,ヒカリトラスト株式会社,,株式会社,愛知県,名古屋市東区,東片端町２３番地,,23,102,4610015,,,,,,,2022-09-08,1,,,,,ヒカリトラスト,0
1005,4180001152959,新規,0,2022-09-08,2022-09-08,株式会社久野動物病院,,株式会社,愛知県,大府市,森岡町２丁目２４６番地,,23,223,4740038,,,,,,,2022-09-08,1,,,,,クノドウブツビョウイン,0
1010,4180003024207,新規,0,2022-09-08,2022-09-08,合同会社ブルージーンズ,,合同会社,愛知県,名古屋市昭和区,白金１丁目１４番１８号,,23,107,4660058,,,,,,,2022-09-08,1,,,,,ブルージーンズ,0
1027,4290001098852,新規,0,2022-09-08,2022-09-08,ＵＫ株式会社,,株式会社,福岡県,三井郡大刀洗町,大字山隈２０６４番地の７,,40,503,8301226,,,,,,,2022-09-08,1,,,,,ユーケー,0
1028,4290001098877,新規,0,2022-09-08,2022-09-08,株式会社シオン,,株式会社,福岡県,朝倉市,牛木６３１,,40,228,8380067,,,,,,,2022-09-08,1,,,,,シオン,0
1029,4290001098885,新規,0,2022-09-08,2022-09-08,株式会社まり乃,,株式会社,福岡県,福岡市中央区,赤坂３丁目６番８－２０１号,,40,133,8100042,,,,,,,2022-09-08,1,,,,,マリノ,0
1035,4290801028876,新規,0,2022-09-08,2022-09-08,株式会社筒井,,株式会社,福岡県,鞍手郡鞍手町,大字古門５２７番地,,40,402,8071306,,,,,,,2022-09-08,1,,,,,ツツイ,0
1036,4290801028884,新規,0,2022-09-08,2022-09-08,株式会社ウメタナ,,株式会社,福岡県,北九州市八幡西区,三ケ森４丁目９－１０,,40,109,8070843,,,,,,,2022-09-08,1,,,,,ウメタナ,0
1039,4290803004198,新規,0,2022-09-08,2022-09-08,合同会社ネクストドリーム,,合同会社,福岡県,北九州市小倉北区,船頭町３番１９号,,40,106,8020008,,,,,,,2022-09-08,1,,,,,ネクストドリーム,0
1042,4320001019318,新規,0,2022-09-08,2022-09-08,株式会社大正塗装,,株式会社,大分県,大分市,大字神崎２６９番地の９,,44,201,8700100,,,,,,,2022-09-08,1,,,,,ダイショウトソウ,0
1045,4330001030091,新規,0,2022-09-08,2022-09-08,株式会社鳴川ファーム,,株式会社,熊本県,天草市,倉岳町棚底８５０番地１１０,,43,215,8616402,,,,,,,2022-09-08,1,,,,,ナルカワファーム,0
1047,4330003009514,新規,0,2022-09-08,2022-09-08,Ｌｏｔｏｍｏｎ合同会社,,合同会社,熊本県,熊本市南区,近見７丁目１２番９７号,,43,104,8614101,,,,,,,2022-09-08,1,,,,,ロトモン,0
1048,4330005010560,新規,0,2022-09-08,2022-09-08,医療法人ＯＭＩ,,その他の設立登記法人,熊本県,熊本市中央区,大江４丁目１９－２０,,43,101,8620971,,,,,,,2022-09-08,1,,,,,オミ,0
1049,4340001025025,新規,0,2022-09-08,2022-09-08,株式会社ＷＡＺ,,株式会社,鹿児島県,鹿児島市,上荒田町３６－５－８０６,,46,201,8900055,,,,,,,2022-09-08,1,,,,,ワズ,0
1058,4360001030915,新規,0,2022-09-08,2022-09-08,株式会社ＲＩＰＰＬＥＳ　ＳＰＲＥＡＤ,,株式会社,沖縄県,名護市,大北１丁目１０番３５－３０３号ＮｅｗＦｉｒｓｔ,,47,209,9050019,,,,,,,2022-09-08,1,,,,,リップルズスプレッド,0
1059,4360001030948,新規,0,2022-09-08,2022-09-08,株式会社ＴＫＹ設備,,株式会社,沖縄県,宜野湾市,我如古２丁目３番７－１０１号,,47,205,9012214,,,,,,,2022-09-08,1,,,,,ティーケーワイセツビ,0
1060,4360003012283,新規,0,2022-09-08,2022-09-08,合同会社カッパのお城,,合同会社,沖縄県,中頭郡北谷町,美浜１丁目１番７号Ｃ号室,,47,326,9040115,,,,,,,2022-09-08,1,,,,,カッパノオシロ,0
1061,4360003012291,新規,0,2022-09-08,2022-09-08,合同会社ルポム,,合同会社,沖縄県,浦添市,字港川３６１番地３（２Ｆ）,,47,208,9012134,,,,,,,2022-09-08,1,,,,,ルポム,0
1066,4380001033107,新規,0,2022-09-08,2022-09-08,株式会社和コーポレーション,,株式会社,福島県,いわき市,常磐西郷町金山５２番地１（２０８号室）,,07,204,9728316,,,,,,,2022-09-08,1,,,,,ヤワラコーポレーション,0
1069,4390001017018,新規,0,2022-09-08,2022-09-08,ＷｅｌｌＯｎｅ株式会社,,株式会社,山形県,山形市,西田２丁目２４‐５０,,06,201,9900831,,,,,,,2022-09-08,1,,,,,ウェルワン,0
1071,4400003002973,新規,0,2022-09-08,2022-09-08,合同会社ＫＩＴＯＭＯ,,合同会社,岩手県,花巻市,幸田８－１５５－１４,,03,205,0250013,,,,,,,2022-09-08,1,,,,,キトモ,0
1078,4440001009141,新規,0,2022-09-08,2022-09-08,株式会社マルタク水産,,株式会社,北海道,茅部郡森町,字尾白内町３２３番地３,,01,345,0492301,,,,,,,2022-09-08,1,,,,,,0
1086,4490001010284,新規,0,2022-09-08,2022-09-08,株式会社ナガト防災設備,,株式会社,高知県,南国市,前浜１４番地２,,39,204,7830094,,,,,,,2022-09-08,1,,,,,ナガトボウサイセツビ,0
1088,4700150111407,新規,0,2022-09-08,2022-08-22,先進友愛会,,その他,東京都,港区,元赤坂１丁目２－７赤坂Ｋタワー４階,,13,103,1070051,,,,,,,2022-08-22,1,,,,,センシンユウアイカイ,0
1100,5010001229145,新規,0,2022-09-08,2022-09-08,日本トラスト販売株式会社,,株式会社,東京都,文京区,本郷１丁目１６番１号,,13,105,1130033,,,,,,,2022-09-08,1,,,,,ニホントラストハンバイ,0
1101,5010001229269,新規,0,2022-09-08,2022-09-08,株式会社ＳＰＵＲＺ,,株式会社,東京都,中央区,銀座１丁目１２番４号Ｎ＆ＥＢＬＤ．７階,,13,102,1040061,,,,,,,2022-09-08,1,,,,,スパーズ,0
1102,5010003038619,新規,0,2022-09-08,2022-09-08,合同会社ＫＥパワー２２,,合同会社,東京都,千代田区,霞が関３丁目２番１号霞が関コモンゲート西館２２階株式会社Ｋエナジー内,,13,101,1000013,,,,,,,2022-09-08,1,,,,,ケイイーパワーニジュウニ,0
1104,5010101015321,新規,0,2022-09-08,2022-09-08,株式会社Ｌｉａｍ,,株式会社,東京都,八王子市,弐分方町６２４,,13,201,1930822,,,,,,,2022-09-08,1,,,,,リアム,0
1111,5010401169437,新規,0,2022-09-08,2022-09-08,株式会社ｅｐｉｒｏｓｅ．,,株式会社,東京都,港区,麻布十番１丁目３番地１１号今井ビル４０１号室,,13,103,1060045,,,,,,,2022-09-08,1,,,,,エピローズ,0
1112,5010401169536,新規,0,2022-09-08,2022-09-08,株式会社シービービー,,株式会社,東京都,港区,新橋１丁目１８番１号航空会館ビル９階,,13,103,1050004,,,,,,,2022-09-08,1,,,,,シービービー,0
1115,5010403028418,新規,0,2022-09-08,2022-09-08,合同会社Ｄｉｌｅｔｔｏ,,合同会社,東京都,港区,南青山２丁目２番１５号ＷＩＮ青山５３１,,13,103,1070062,,,,,,,2022-09-08,1,,,,,ディレット,0
1116,5010403028442,新規,0,2022-09-08,2022-09-08,合同会社ＥｎｒｉｃｈＰｅｏｐｌｅ,,合同会社,東京都,港区,浜松町２丁目２番１５号浜松町ダイヤビル２Ｆ,,13,103,1050013,,,,,,,2022-09-08,1,,,,,エンリッチピープル,0
1122,5010605004126,新規,0,2022-09-08,2022-09-08,一般社団法人ＡＩ・契約レビューテクノロジー協会,,その他の設立登記法人,東京都,江東区,豊洲３丁目２番２０号豊洲フロント６Ｆ,,13,108,1350061,,,,,,,2022-09-08,1,,,,,エーアイケイヤクレビューテクノロジーキョウカイ,0
1127,5010901051549,新規,0,2022-09-08,2022-09-08,株式会社ＭＩＲＲＯＲ,,株式会社,東京都,世田谷区,羽根木１丁目１９－１５,,13,112,1560042,,,,,,,2022-09-08,1,,,,,ミラー,0
1131,5011001149564,新規,0,2022-09-08,2022-09-08,株式会社Ｂａｌｌｉｓｔａ,,株式会社,東京都,渋谷区,神宮前６丁目２３－４,,13,113,1500001,,,,,,,2022-09-08,1,,,,,バリスタ,0
1132,5011001149606,新規,0,2022-09-08,2022-09-08,株式会社カラブリヤ,,株式会社,東京都,渋谷区,神宮前１丁目２０番９号柴崎ビル３０２,,13,113,1500001,,,,,,,2022-09-08,1,,,,,カラブリヤ,0
1133,5011001149639,新規,0,2022-09-08,2022-09-08,株式会社トリニティ,,株式会社,東京都,渋谷区,渋谷３丁目３番５号,,13,113,1500002,,,,,,,2022-09-08,1,,,,,トリニティ,0
1135,5011003015351,新規,0,2022-09-08,2022-09-08,合同会社ＧＬｏｏＬＬＹ,,合同会社,東京都,目黒区,碑文谷１丁目１１番５号,,13,110,1520003,,,,,,,2022-09-08,1,,,,,グローリー,0
1137,5011005009731,新規,0,2022-09-08,2022-09-08,税理士法人アシスタ,,その他の設立登記法人,東京都,渋谷区,千駄ヶ谷１丁目２２番３号,,13,113,1510051,,,,,,,2022-09-08,1,,,,,アシスタ,0
1143,5011101100096,新規,0,2022-09-08,2022-09-08,株式会社輝,,株式会社,東京都,新宿区,大久保２丁目３番５－２０５号,,13,104,1690072,,,,,,,2022-09-08,1,,,,,カガヤキ,0
1144,5011101100113,新規,0,2022-09-08,2022-09-08,株式会社Ｔｈｅ　Ｌｅａｇｕｅｓ,,株式会社,東京都,新宿区,西新宿６丁目６番３号新宿国際ビルディング新館５階,,13,104,1600023,,,,,,,2022-09-08,1,,,,,ザリーグス,0
1149,5011201024088,新規,0,2022-09-08,2022-09-08,株式会社Ｒ’ｓ　ＧＡＴＥ,,株式会社,東京都,中野区,鷺宮４丁目４３番１号,,13,114,1650032,,,,,,,2022-09-08,1,,,,,アールズゲート,0
1151,5011501028458,新規,0,2022-09-08,2022-09-08,ＨＯＣＣ株式会社,,株式会社,東京都,荒川区,南千住３丁目２７－２浅草ビルＩ号室,,13,118,1160003,,,,,,,2022-09-08,1,,,,,エイチオーオーシー,0
1155,5011605002466,新規,0,2022-09-08,2022-09-08,一般社団法人女性ホルモン活性委員会,,その他の設立登記法人,東京都,練馬区,関町北２丁目５番８号,,13,120,1770051,,,,,,,2022-09-08,1,,,,,ジョセイホルモンカッセイイインカイ,0
1161,5012805003147,新規,0,2022-09-08,2022-09-08,医療法人社団桐育会,,その他の設立登記法人,東京都,東大和市,南街５丁目３６番地の８、１階,,13,220,2070014,,,,,,,2022-09-08,1,,,,,トウイクカイ,0
1162,5013103001165,新規,0,2022-09-08,2022-09-08,合同会社遊サポート,,合同会社,東京都,あきる野市,留原６１３番地５,,13,228,1900152,,,,,,,2022-09-08,1,,,,,ユウサポート,0
1170,5020001148113,新規,0,2022-09-08,2022-09-08,森古株式会社,,株式会社,神奈川県,横浜市中区,石川町４丁目１５８番地２８エステート小柳３０３号室,,14,104,2310868,,,,,,,2022-09-08,1,,,,,モリコ,0
1171,5020001148121,新規,0,2022-09-08,2022-09-08,Ｔｈｅ　ａｌｉｖｉｏ株式会社,,株式会社,神奈川県,横浜市中区,本牧大里町３６番２８号,,14,104,2310823,,,,,,,2022-09-08,1,,,,,ザアリビオ,0
1176,5020005015656,新規,0,2022-09-08,2022-09-08,一般社団法人カームガーデン,,その他の設立登記法人,神奈川県,川崎市宮前区,西野川２丁目１６番５０号,,14,136,2160044,,,,,,,2022-09-08,1,,,,,カームガーデン,0
1185,5021001076956,新規,0,2022-09-08,2022-09-08,株式会社中田商事つばさ,,株式会社,神奈川県,藤沢市,石川２丁目２１番地の５,,14,205,2520815,,,,,,,2022-09-08,1,,,,,ナカダショウジツバサ,0
1188,5021003012109,新規,0,2022-09-08,2022-09-08,合同会社はるうらら,,合同会社,神奈川県,相模原市中央区,陽光台６丁目９番３号,,14,152,2520226,,,,,,,2022-09-08,1,,,,,ハルウララ,0
1194,5030001149969,新規,0,2022-09-08,2022-09-08,株式会社パーフェクトプロ,,株式会社,埼玉県,戸田市,笹目５丁目１番２５,,11,224,3350034,,,,,,,2022-09-08,1,,,,,パーフェクトプロ,0
1195,5030001149993,新規,0,2022-09-08,2022-09-08,株式会社双葉,,株式会社,埼玉県,八潮市,大字二丁目９８３番地４,,11,234,3400811,,,,,,,2022-09-08,1,,,,,フタバ,0
1196,5030001150002,新規,0,2022-09-08,2022-09-08,株式会社山本内装,,株式会社,埼玉県,さいたま市南区,辻１丁目９番８号１－５０２,00127784,11,108,3360026,,,,,,,2022-09-08,1,,,,,ヤマモトナイソウ,0
1214,5050005013137,新規,0,2022-09-08,2022-09-08,一般社団法人聖徳らくゆうクラブ,,その他の設立登記法人,茨城県,土浦市,乙戸南２丁目７番２１号,,08,203,3000845,,,,,,,2022-09-08,1,,,,,セイトクラクユウクラブ,0
1218,5060001035258,新規,0,2022-09-08,2022-09-08,株式会社佐伯牧場,,株式会社,栃木県,那須烏山市,曲田３４７番地,,09,215,3210515,,,,,,,2022-09-08,1,,,,,サエキボクジョウ,0
1222,5070001039613,新規,0,2022-09-08,2022-09-08,株式会社タケヤ,,株式会社,群馬県,高崎市,八島町２０番地１武蔵屋ビル２階,,10,202,3700849,,,,,,,2022-09-08,1,,,,,タケヤ,0
1232,5100001035690,新規,0,2022-09-08,2022-09-08,株式会社ハグコーポレーション,,株式会社,長野県,長野市,篠ノ井布施高田７１０番地,,20,201,3888007,,,,,,,2022-09-08,1,,,,,ハグコーポレーション,0
1239,5120001248605,新規,0,2022-09-08,2022-09-08,株式会社ＲＩＶＡＳＯＬ,,株式会社,大阪府,大阪市北区,梅田１丁目３番１号大阪駅前第１ビル８Ｆ５号,,27,127,5300001,,,,,,,2022-09-08,1,,,,,リバソル,0
1240,5120001248687,新規,0,2022-09-08,2022-09-08,ファースト株式会社,,株式会社,大阪府,守口市,大久保町３丁目２１番２３号,,27,209,5700012,,,,,,,2022-09-08,1,,,,,ファースト,0
1241,5120001248695,新規,0,2022-09-08,2022-09-08,エナジースタッフ西日本株式会社,,株式会社,大阪府,大阪市北区,梅田２丁目５番１３号桜橋第一ビル３０４号,,27,127,5300001,,,,,,,2022-09-08,1,,,,,エナジースタッフニシニホン,0
1242,5120001248712,新規,0,2022-09-08,2022-09-08,株式会社ベルカント,,株式会社,大阪府,大阪市鶴見区,中茶屋１丁目８番３９号,,27,124,5380033,,,,,,,2022-09-08,1,,,,,ベルカント,0
1248,5120901046471,新規,0,2022-09-08,2022-09-08,株式会社徳馬,,株式会社,大阪府,豊中市,西緑丘２丁目５番１号,,27,203,5600005,,,,,,,2022-09-08,1,,,,,トクマ,0
1249,5120901046488,新規,0,2022-09-08,2022-09-08,コムライフサポート株式会社,,株式会社,大阪府,豊中市,上野西１丁目１２番９号,,27,203,5600011,,,,,,,2022-09-08,1,,,,,コムライフサポート,0
1251,5120903004295,新規,0,2022-09-08,2022-09-08,合同会社春晴堂,,合同会社,大阪府,豊中市,長興寺南２丁目８番２６－１０４号,,27,203,5610874,,,,,,,2022-09-08,1,,,,,シュンセイドウ,0
1255,5130001072541,新規,0,2022-09-08,2022-09-08,ＭＯＸＩＭＯＸＩ株式会社,,株式会社,京都府,宇治市,宇治妙楽１－１宇治橋ビル２階Ｂ号室,,26,204,6110021,,,,,,,2022-09-08,1,,,,,モシモシ,0
1256,5130005016569,新規,0,2022-09-08,2022-09-08,こころ税理士法人,,その他の設立登記法人,京都府,京都市伏見区,新町８丁目４２４番地の２,,26,109,6128081,,,,,,,2022-09-08,1,,,,,ココロ,0
1269,5180001152974,新規,0,2022-09-08,2022-09-08,株式会社つがる,,株式会社,愛知県,名古屋市中川区,中島新町３丁目２５０８番地,,23,110,4540932,,,,,,,2022-09-08,1,,,,,ツガル,0
1270,5180003024230,新規,0,2022-09-08,2022-09-08,ミニーザ合同会社,,合同会社,愛知県,名古屋市緑区,元徳重２丁目７０４番地,,23,114,4580852,,,,,,,2022-09-08,1,,,,,ミニーザ,0
1271,5180003024239,新規,0,2022-09-08,2022-09-08,合同会社つめぴかぴか,,合同会社,愛知県,名古屋市中村区,二ツ橋町３丁目５番地,,23,105,4530813,,,,,,,2022-09-08,1,,,,,ツメピカピカ,0
1275,5200001040433,新規,0,2022-09-08,2022-09-08,株式会社阿部ＨＤ,,株式会社,岐阜県,各務原市,鵜沼古市場町４丁目２０７番地,,21,213,5090133,,,,,,,2022-09-08,1,,,,,アベホールディングス,0
1283,5240003005785,新規,0,2022-09-08,2022-09-08,合同会社ＲｙｕＲｙｕ,,合同会社,広島県,竹原市,忠海中町１丁目２番５４号,,34,203,7292316,,,,,,,2022-09-08,1,,,,,リュリュ,0
1284,5260001037234,新規,0,2022-09-08,2022-09-08,映像技研株式会社,,株式会社,岡山県,岡山市中区,兼基９０番地１－１００５,,33,102,7038227,,,,,,,2022-09-08,1,,,,,エイゾウギケン,0
1291,5290001098851,新規,0,2022-09-08,2022-09-08,株式会社ことぶき不動産,,株式会社,福岡県,福岡市博多区,堅粕４丁目１５番１号,,40,132,8120043,,,,,,,2022-09-08,1,,,,,コトブキフドウサン,0
1292,5290001098884,新規,0,2022-09-08,2022-09-08,株式会社九建,,株式会社,福岡県,久留米市,東櫛原町３１８番地４ハミング櫛原２０３,,40,203,8300003,,,,,,,2022-09-08,1,,,,,キュウケン,0
1293,5290003012926,新規,0,2022-09-08,2022-09-08,ミヅマ建設合同会社,,合同会社,福岡県,久留米市,三潴町玉満２２０４番地５,,40,203,8300112,,,,,,,2022-09-08,1,,,,,ミヅマケンセツ,0
1295,5290801028875,新規,0,2022-09-08,2022-09-08,株式会社雄研究開発所,,株式会社,福岡県,京都郡みやこ町,勝山黒田４８５番地２,,40,625,8240822,,,,,,,2022-09-08,1,,,,,ユウケンキュウカイハツショ,0
1296,5290801028883,新規,0,2022-09-08,2022-09-08,株式会社ビーホーム石橋,,株式会社,福岡県,北九州市小倉北区,三郎丸３丁目１４番２２号,,40,106,8020061,,,,,,,2022-09-08,1,,,,,ビーホームイシバシ,0
1300,5310003004441,新規,0,2022-09-08,2022-09-08,合同会社エイトプラス,,合同会社,長崎県,佐世保市,大塔町１７３０－１５,,42,202,8571161,,,,,,,2022-09-08,1,,,,,エイトプラス,0
1302,5320001019317,新規,0,2022-09-08,2022-09-08,株式会社共和,,株式会社,大分県,大分市,新町１番１３号アスティオン新町６０２,,44,201,8700028,,,,,,,2022-09-08,1,,,,,キョウワ,0
1308,5340001025024,新規,0,2022-09-08,2022-09-08,優昭物流株式会社,,株式会社,鹿児島県,鹿児島市,堀江町１９番３号,,46,201,8920824,,,,,,,2022-09-08,1,,,,,ユウショウブツリュウ,0
1312,5370001049037,新規,0,2022-09-08,2022-09-08,株式会社カンブン,,株式会社,宮城県,仙台市青葉区,五橋１丁目５番８－５０２号,,04,101,9800022,,,,,,,2022-09-08,1,,,,,カンブン,0
1324,5460103001480,新規,0,2022-09-08,2022-09-08,ほんべつ農産加工藍合同会社,,合同会社,北海道,中川郡本別町,共栄９番地７,,01,646,0893305,,,,,,,2022-09-08,1,,,,,ホンベツノウサンカコウアイ,0
1327,5470001019252,新規,0,2022-09-08,2022-09-08,株式会社レッツ,,株式会社,香川県,坂出市,京町２丁目５番１８号,,37,203,7620001,,,,,,,2022-09-08,1,,,,,レッツ,0
1331,5490001010267,新規,0,2022-09-08,2022-09-08,荒川電工ホールディングス株式会社,,株式会社,高知県,高知市,高＿６番１９号,00127778,39,201,7800071,,,,,,,2022-09-08,1,,,,,アラカワデンコウホールディングス,0
1336,6010001229276,新規,0,2022-09-08,2022-09-08,株式会社イノベーションジャパン,,株式会社,東京都,中央区,日本橋人形町２丁目１１番５号３Ｆ,,13,102,1030013,,,,,,,2022-09-08,1,,,,,イノベーションジャパン,0
1337,6010003038618,新規,0,2022-09-08,2022-09-08,合同会社ＫＥパワー２１,,合同会社,東京都,千代田区,霞が関３丁目２番１号霞が関コモンゲート西館２２階株式会社Ｋエナジー内,,13,101,1000013,,,,,,,2022-09-08,1,,,,,ケイイーパワーニジュウイチ,0
1338,6010003038626,新規,0,2022-09-08,2022-09-08,合同会社Ｇｌｏｂａｌ　ＡＭ,,合同会社,東京都,中央区,晴海２丁目２番４２号－２２０５,,13,102,1040053,,,,,,,2022-09-08,1,,,,,グローバルエーエム,0
1340,6010005035514,新規,0,2022-09-08,2022-09-08,社会保険労務士法人星人事労務コンサルティング,,その他の設立登記法人,東京都,千代田区,丸の内１丁目８番３号丸の内トラストタワー本館２０階,,13,101,1000005,,,,,,,2022-09-08,1,,,,,ホシジンジロウムコンサルティング,0
1347,6010401169527,新規,0,2022-09-08,2022-09-08,キャスティング・ビー株式会社,,株式会社,東京都,港区,南麻布２丁目４番５号皆川ビル６Ｆ,,13,103,1060047,,,,,,,2022-09-08,1,,,,,キャスティングビー,0
1349,6010403028409,新規,0,2022-09-08,2022-09-08,Ｎｉｍｉａｎｅ　ＶＩＶＩＡＮ合同会社,,合同会社,東京都,港区,南青山２丁目２番１５号,,13,103,1070062,,,,,,,2022-09-08,1,,,,,ニムエヴィヴィアン,0
1351,6010501049331,新規,0,2022-09-08,2022-09-08,ＯＲＮＩＳ株式会社,,株式会社,東京都,台東区,上野３丁目１６番２号天翔オフィス上野末広町,,13,106,1100005,,,,,,,2022-09-08,1,,,,,オルニス,0
1360,6010901051572,新規,0,2022-09-08,2022-09-08,ＳＧサービス株式会社,,株式会社,東京都,世田谷区,若林１丁目４０番１１号,,13,112,1540023,,,,,,,2022-09-08,1,,,,,エスジーサービス,0
1361,6010901051589,新規,0,2022-09-08,2022-09-08,株式会社ＢＡＣＫ　ＤＯＯＲ,,株式会社,東京都,世田谷区,上野毛４丁目３３番２－Ｓ２０７号,,13,112,1580093,,,,,,,2022-09-08,1,,,,,バックドア,0
1367,6011001149605,新規,0,2022-09-08,2022-09-08,株式会社Ｂｉｇ　Ｔｒｅｅ,,株式会社,東京都,渋谷区,幡ヶ谷２丁目２０番１２－４０５号,,13,113,1510072,,,,,,,2022-09-08,1,,,,,ビッグツリー,0
1368,6011001149613,新規,0,2022-09-08,2022-09-08,株式会社Ｓｃｅｎａｒｉｏ,,株式会社,東京都,目黒区,碑文谷６丁目１番２号,,13,110,1520003,,,,,,,2022-09-08,1,,,,,シナリオ,0
1369,6011001149646,新規,0,2022-09-08,2022-09-08,株式会社ピックアップ,,株式会社,東京都,渋谷区,富ヶ谷２丁目１９番１６号４０１,,13,113,1510063,,,,,,,2022-09-08,1,,,,,ピックアップ,0
1370,6011001149687,新規,0,2022-09-08,2022-09-08,株式会社ＡＬＯＨＡ医食住研究所,,株式会社,東京都,目黒区,柿の木坂１丁目１１番１２号,,13,110,1520022,,,,,,,2022-09-08,1,,,,,アロハイショクジュウケンキュウショ,0
1372,6011003015359,新規,0,2022-09-08,2022-09-08,合同会社Ｍ＆Ｍ,,合同会社,東京都,渋谷区,恵比寿１丁目７番３号３０１,,13,113,1500013,,,,,,,2022-09-08,1,,,,,エムアンドエム,0
1380,6011103012140,新規,0,2022-09-08,2022-09-08,ディオニューソス合同会社,,合同会社,東京都,新宿区,左門町１４―６１―７０６,,13,104,1600017,,,,,,,2022-09-08,1,,,,,ディオニューソス,0
1384,6011501028449,新規,0,2022-09-08,2022-09-08,株式会社Ｌｉｔ　Ｉｎｎｏｖａｔｉｏｎ,,株式会社,東京都,北区,中十条３丁目１１番６号１Ｆ,,13,117,1140032,,,,,,,2022-09-08,1,,,,,リットイノベーション,0
1386,6011601026229,新規,0,2022-09-08,2022-09-08,アップアセット株式会社,,株式会社,東京都,練馬区,立野町２３番１１号,,13,120,1770054,,,,,,,2022-09-08,1,,,,,アップアセット,0
1387,6011801041242,新規,0,2022-09-08,2022-09-08,株式会社フェリックスドムス,,株式会社,東京都,足立区,入谷４丁目１８番１０号コーポシオ３０１,,13,121,1210836,,,,,,,2022-09-08,1,,,,,フェリックスドムス,0
1388,6011801041250,新規,0,2022-09-08,2022-09-08,智星株式会社,,株式会社,東京都,足立区,西新井本町５丁目２番４－１０６号,,13,121,1230845,,,,,,,2022-09-08,1,,,,,チセイ,0
1391,6012401039619,新規,0,2022-09-08,2022-09-08,フィールドクルー株式会社,,株式会社,東京都,武蔵野市,吉祥寺南町２丁目２番地５号アスコーナミエビル６階,,13,203,1800003,,,,,,,2022-09-08,1,,,,,フィールドクルー,0
1392,6012405004783,新規,0,2022-09-08,2022-09-08,医療法人社団京誠会,,その他の設立登記法人,東京都,多摩市,落合１丁目５番地１グリムコートビル２０２号室,,13,224,2060033,,,,,,,2022-09-08,1,,,,,キョウセイカイ,0
1393,6012705002322,新規,0,2022-09-08,2022-09-08,医療法人社団Ｂｒｉｌｌｉａｎｔ　Ｓｍｉｌｅ,,その他の設立登記法人,東京都,西東京市,南町４丁目１３番２２号,,13,229,1880012,,,,,,,2022-09-08,1,,,,,ブリリアントスマイル,0
1396,6012803002876,新規,0,2022-09-08,2022-09-08,リアの森合同会社,,合同会社,東京都,国分寺市,南町３丁目２２番３１号島崎ビル３０１,,13,214,1850021,,,,,,,2022-09-08,1,,,,,,0
1414,6021001076955,新規,0,2022-09-08,2022-09-08,株式会社湘南東幸,,株式会社,神奈川県,藤沢市,鵠沼橘１丁目１番４号砂川ビル５階,,14,205,2510024,,,,,,,2022-09-08,1,,,,,ショウナントウコウ,0
1417,6021003012116,新規,0,2022-09-08,2022-09-08,みんなのテレビの記憶合同会社,,合同会社,神奈川県,鎌倉市,長谷２丁目１番３号,,14,204,2480016,,,,,,,2022-09-08,1,,,,,ミンナノテレビノキオク,0
1424,6030001149943,新規,0,2022-09-08,2022-09-08,株式会社高橋興業,,株式会社,埼玉県,上尾市,大字上６８２番地１０,,11,219,3620001,,,,,,,2022-09-08,1,,,,,タカハシコウギョウ,0
1425,6030001150018,新規,0,2022-09-08,2022-09-08,株式会社アポロ,,株式会社,埼玉県,三郷市,早稲田１丁目１８番地４,,11,237,3410018,,,,,,,2022-09-08,1,,,,,アポロ,0
1426,6030001150026,新規,0,2022-09-08,2022-09-08,ＴＹ株式会社,,株式会社,埼玉県,越谷市,大成町８丁目２４３２番１,,11,222,3430825,,,,,,,2022-09-08,1,,,,,ティーワイ,0
1427,6030001150042,新規,0,2022-09-08,2022-09-08,株式会社大玻璃,,株式会社,埼玉県,さいたま市中央区,上落合３丁目１３番２６－３０１号,,11,105,3380001,,,,,,,2022-09-08,1,,,,,オオハリ,0
1429,6030003020152,新規,0,2022-09-08,2022-09-08,ゆあスマイルケアサポート合同会社,,合同会社,埼玉県,八潮市,大字西袋６７５番地１５,,11,234,3400833,,,,,,,2022-09-08,1,,,,,ユアスマイルケアサポート,0
1430,6030003020160,新規,0,2022-09-08,2022-09-08,ＹＫ合同会社,,合同会社,埼玉県,川口市,西川口１丁目３０番２０号４Ｆ,,11,203,3320021,,,,,,,2022-09-08,1,,,,,ワイケイ,0
1432,6040001124920,新規,0,2022-09-08,2022-09-08,株式会社ＲＩＭＵ．ｃｏｍｐａｎｙ,,株式会社,千葉県,流山市,富士見台２丁目５番地の１６小田急ハイツ１３－２０４,,12,220,2700127,,,,,,,2022-09-08,1,,,,,ライムカンパニー,0
1433,6040001124994,新規,0,2022-09-08,2022-09-08,株式会社アンプリーチ,,株式会社,千葉県,松戸市,幸谷８２９番地の１１,,12,207,2700017,,,,,,,2022-09-08,1,,,,,アンプリーチ,0
1438,6040003020754,新規,0,2022-09-08,2022-09-08,合同会社Ｕｌｕ,,合同会社,千葉県,船橋市,二和西２丁目５番１４号,,12,204,2740806,,,,,,,2022-09-08,1,,,,,ウル,0
1442,6050001051651,新規,0,2022-09-08,2022-09-08,株式会社協栄ホーム,,株式会社,茨城県,行方市,繁昌１１６０番地２,,08,233,3111712,,,,,,,2022-09-08,1,,,,,キョウエイホーム,0
1443,6050005013136,新規,0,2022-09-08,2022-09-08,行政書士法人あさひ事務所,,その他の設立登記法人,茨城県,稲敷郡阿見町,大字荒川本郷２０３３番地４８６クープル・マリエＡ１０１,,08,443,3001152,,,,,,,2022-09-08,1,,,,,アサヒジムショ,0
1446,6060001035257,新規,0,2022-09-08,2022-09-08,小島建設株式会社,,株式会社,栃木県,日光市,大室１８３０番地２９１,,09,206,3212332,,,,,,,2022-09-08,1,,,,,コジマケンセツ,0
1462,6110003004857,新規,0,2022-09-08,2022-09-08,あらい堂合同会社,,合同会社,新潟県,燕市,吉田文京町１４番２６号,,15,213,9590266,,,,,,,2022-09-08,1,,,,,アライドウ,0
1471,6120001248645,新規,0,2022-09-08,2022-09-08,Ｍａｎｌｏｏｎｇ株式会社,,株式会社,大阪府,大阪市中央区,島之内１丁目１６番３－２０１号,,27,128,5420082,,,,,,,2022-09-08,1,,,,,マンロング,0
1472,6120001248653,新規,0,2022-09-08,2022-09-08,大嶋創苑株式会社,,株式会社,大阪府,大阪市平野区,平野西４丁目３番２８－３０２号,,27,126,5470033,,,,,,,2022-09-08,1,,,,,オオシマソウエン,0
1473,6120001248686,新規,0,2022-09-08,2022-09-08,株式会社イヴホーム,,株式会社,大阪府,大阪市天王寺区,生玉町一丁目２７番,,27,109,5430071,,,,,,,2022-09-08,1,,,,,イヴホーム,0
1477,6120003022412,新規,0,2022-09-08,2022-09-08,合同会社輪笑,,合同会社,大阪府,大阪市住吉区,万代東１丁目１番１号富久屋ビル２Ｄ号,,27,120,5580056,,,,,,,2022-09-08,1,,,,,ワニ,0
1485,6120901046470,新規,0,2022-09-08,2022-09-08,株式会社Ｉｎｏｕｅ　Ｓｈｕｔｔｅｒ,,株式会社,大阪府,摂津市,三島３丁目２番４５－２０１号,,27,224,5660022,,,,,,,2022-09-08,1,,,,,イノウエシャッター,0
1492,6130001072565,新規,0,2022-09-08,2022-09-08,株式会社ＡＱＹＡ,,株式会社,京都府,舞鶴市,倉梯町３４番地５,,26,202,6250056,,,,,,,2022-09-08,1,,,,,アクワイア,0
1501,6140005026310,新規,0,2022-09-08,2022-09-08,特定非営利活動法人仁愛グローバル,,その他の設立登記法人,兵庫県,神戸市中央区,中山手通７丁目２５番４３号,,28,110,6500004,,,,,,,2022-09-08,1,,,,,ジンアイグローバル,0
1507,6180001152197,新規,0,2022-09-08,2022-09-08,株式会社ＯＶＥＲＣＯＭＥ,,株式会社,愛知県,名古屋市西区,菊井２丁目２１番３号,,23,104,4510044,,,,,,,2022-09-08,1,,,,,オーバーカム,0
1508,6180001152882,新規,0,2022-09-08,2022-09-08,株式会社フルブルームアーキテクト,,株式会社,愛知県,江南市,小折本町柳橋１０８番地１,,23,217,4838128,,,,,,,2022-09-08,1,,,,,フルブルームアーキテクト,0
1509,6180001152973,新規,0,2022-09-08,2022-09-08,株式会社ＫＪカンパニー,,株式会社,愛知県,名古屋市中区,新栄１丁目１１番１４号東泉ニュータウンビル６Ｄ,,23,106,4600007,,,,,,,2022-09-08,1,,,,,ケイジェイカンパニー,0
1512,6180005019921,新規,0,2022-09-08,2022-09-08,一般財団法人寺島八惠会,,その他の設立登記法人,愛知県,名古屋市緑区,鳴海町字作町１０番地,,23,114,4580801,,,,,,,2022-09-08,1,,,,,テラシマハッケイカイ,0
1515,6210005010050,新規,0,2022-09-08,2022-09-08,一般社団法人ＧＦＩアカデミー,,その他の設立登記法人,福井県,敦賀市,本町１丁目１４番１０号,,18,202,9140051,,,,,,,2022-09-08,1,,,,,ジーエフアイアカデミー,0
1522,6240001060360,新規,0,2022-09-08,2022-09-08,株式会社西日本環境エンジニアリング,,株式会社,広島県,広島市中区,鉄砲町１番１８号,,34,101,7300017,,,,,,,2022-09-08,1,,,,,ニシニホンカンキョウエンジニアリング,0
1524,6240003005784,新規,0,2022-09-08,2022-09-08,合同会社アキノ,,合同会社,広島県,広島市中区,三川町６番３－６０１号コスモスビル,,34,101,7300029,,,,,,,2022-09-08,1,,,,,アキノ,0
1526,6250001019752,新規,0,2022-09-08,2022-09-08,光東ホールディングス株式会社,,株式会社,山口県,光市,浅江５丁目２７番１８号,,35,210,7430021,,,,,,,2022-09-08,1,,,,,コウトウホールディングス,0
1537,6290001098850,新規,0,2022-09-08,2022-09-08,株式会社ベストスイミングクラブ若宮,,株式会社,福岡県,福岡市東区,舞松原１丁目１番１８号,,40,131,8130042,,,,,,,2022-09-08,1,,,,,ベストスイミングクラブワカミヤ,0
1538,6290001098867,新規,0,2022-09-08,2022-09-08,株式会社千枝,,株式会社,福岡県,福岡市中央区,赤坂２丁目５番３８号,,40,133,8100042,,,,,,,2022-09-08,1,,,,,チエ,0
1539,6290001098875,新規,0,2022-09-08,2022-09-08,株式会社至誠,,株式会社,福岡県,福岡市博多区,博多駅南１丁目２－３博多駅前第一ビル３階,,40,132,8120016,,,,,,,2022-09-08,1,,,,,シセイ,0
1542,6290003012925,新規,0,2022-09-08,2022-09-08,合同会社ルービアーレ,,合同会社,福岡県,福岡市東区,香椎照葉１丁目２番１－２０２号,,40,131,8130017,,,,,,,2022-09-08,1,,,,,ルービアーレ,0
1543,6290003012933,新規,0,2022-09-08,2022-09-08,ＳＫ合同会社,,合同会社,福岡県,久留米市,天神町１５１番地,,40,203,8300033,,,,,,,2022-09-08,1,,,,,エスケイ,0
1546,6320001019316,新規,0,2022-09-08,2022-09-08,株式会社ＫＣ,,株式会社,大分県,大分市,明野南１丁目２５番７号,,44,201,8700163,,,,,,,2022-09-08,1,,,,,ケーシー,0
1551,6340001025023,新規,0,2022-09-08,2022-09-08,株式会社おがた,,株式会社,鹿児島県,熊毛郡屋久島町,船行５１７番地７,,46,505,8914312,,,,,,,2022-09-08,1,,,,,オガタ,0
1555,6350001017928,新規,0,2022-09-08,2022-09-08,株式会社オイシードカンパニー,,株式会社,宮崎県,西諸県郡高原町,大字西麓９３３番地４,,45,361,8894412,,,,,,,2022-09-08,1,,,,,オイシードカンパニー,0
1556,6350001017936,新規,0,2022-09-08,2022-09-08,株式会社美トマト,,株式会社,宮崎県,宮崎市,大字郡司分甲１０４１番地,,45,201,8800924,,,,,,,2022-09-08,1,,,,,ビトマト,0
1561,6360001030946,新規,0,2022-09-08,2022-09-08,株式会社ＴＫＹ,,株式会社,沖縄県,沖縄市,泡瀬６丁目３番２３号１Ｆ,,47,211,9042172,,,,,,,2022-09-08,1,,,,,ティケーワイ,0
1562,6360001030954,新規,0,2022-09-08,2022-09-08,株式会社ヒューマンスタッフサービス,,株式会社,沖縄県,那覇市,辻１丁目１４番７号トーマス辻９０１,00127782,47,201,9000037,,,,,,,2022-09-08,1,,,,,ヒューマンスタッフサービス,0
1563,6360003012298,新規,0,2022-09-08,2022-09-08,合同会社ｇｒｏｗ　ｕｐ沖縄,,合同会社,沖縄県,中頭郡読谷村,字渡具知１７５番地１、１Ｆ,,47,324,9040315,,,,,,,2022-09-08,1,,,,,グローアップオキナワ,0
1565,6370001049036,新規,0,2022-09-08,2022-09-08,株式会社大清工業,,株式会社,宮城県,大崎市,古川旭１丁目３番１号,,04,215,9896117,,,,,,,2022-09-08,1,,,,,タイセイコウギョウ,0
1566,6370001049044,新規,0,2022-09-08,2022-09-08,株式会社Ｕｃｈｉ　ｃａｒｅ,,株式会社,宮城県,仙台市泉区,南光台４丁目２１－１３,,04,105,9818003,,,,,,,2022-09-08,1,,,,,ウチケア,0
1567,6380001033113,新規,0,2022-09-08,2022-09-08,株式会社デジタルラボならは,,株式会社,福島県,双葉郡楢葉町,大字山田岡字堂ノ下６－４,,07,542,9790513,,,,,,,2022-09-08,1,,,,,デジタルラボナラハ,0
1569,6380005012617,新規,0,2022-09-08,2022-09-08,一般社団法人いわきリラクゼーション業育成協会,,その他の設立登記法人,福島県,いわき市,常磐下船尾町古内２９０番地１３号,,07,204,9728312,,,,,,,2022-09-08,1,,,,,イワキリラクゼーションギョウイクセイキョウカイ,0
1572,6400003002971,新規,0,2022-09-08,2022-09-08,合同会社Ｅ‐スタイル,,合同会社,岩手県,北上市,小鳥崎２地割９８番地１,,03,206,0240105,,,,,,,2022-09-08,1,,,,,イースタイル,0
1576,6410001013276,新規,0,2022-09-08,2022-09-08,株式会社瑶光水産,,株式会社,秋田県,男鹿市,戸賀戸賀字戸賀５番地,,05,206,0100674,,,,,,,2022-09-08,1,,,,,ヨウコウスイサン,0
1583,6460105002245,新規,0,2022-09-08,2022-09-08,一般社団法人杪の杜,,その他の設立登記法人,北海道,帯広市,西十九条南１丁目７番地３０,,01,207,0802469,,,,,,,2022-09-08,1,,,,,コズエノモリ,0
1589,6490003001701,新規,0,2022-09-08,2022-09-08,合同会社Ｅｖｅｒ,,合同会社,高知県,高知市,堺町１３番１０号パンダ堺町１０２号,,39,201,7800834,,,,,,,2022-09-08,1,,,,,エバー,0
1593,6700150107741,新規,0,2022-09-08,2022-04-08,Ｓ’ＡＰＰＵＹＥＲ　ｅｎｔｅｒｔａｉｎｍｅｎｔ,,その他,京都府,京都市南区,東九条河西町２８,,26,107,6018014,,,,,,,2022-04-08,1,,,,,サピユイエエンターテイメント,0
1594,6700150107948,新規,0,2022-09-08,2022-04-13,ａｒｔ－ｓｅｎｓｉｂｉｌｉｓａｔｉｏｎ,,その他,北海道,札幌市北区,新琴似八条５丁目３－８,,01,102,0010908,,,,,,,2022-04-13,1,,,,,アートサンシビリザシオン,0
1603,7010001229267,新規,0,2022-09-08,2022-09-08,株式会社トビラダイニング,,株式会社,東京都,千代田区,神田駿河台４丁目３番地新お茶の水ビルディング１４階,,13,101,1010062,,,,,,,2022-09-08,1,,,,,トビラダイニング,0
1609,7010003038600,新規,0,2022-09-08,2022-09-08,合同会社セブン,,合同会社,東京都,千代田区,神田須田町１丁目２６番地２松浦ビル３階,,13,101,1010041,,,,,,,2022-09-08,1,,,,,セブン,0
1610,7010003038617,新規,0,2022-09-08,2022-09-08,ＯＴＫ合同会社,,合同会社,東京都,文京区,湯島２丁目１番１４号グランレジェイド御茶ノ水６０１,,13,105,1130034,,,,,,,2022-09-08,1,,,,,オーティーケー,0
1624,7010401169484,新規,0,2022-09-08,2022-09-08,ミーティア株式会社,,株式会社,東京都,港区,南青山３丁目１番３６号青山丸竹ビル６Ｆ,,13,103,1070062,,,,,,,2022-09-08,1,,,,,ミーティア,0
1625,7010401169492,新規,0,2022-09-08,2022-09-08,千代田不動産株式会社,,株式会社,東京都,港区,赤坂２丁目１０番７－７０５号,,13,103,1070052,,,,,,,2022-09-08,1,,,,,チヨダフドウサン,0
1626,7010401169591,新規,0,2022-09-08,2022-09-08,ＧＣＪＩ９株式会社,,株式会社,東京都,港区,元赤坂１丁目１番８号株式会社赤坂国際会計内,,13,103,1070051,,,,,,,2022-09-08,1,,,,,ジーシージェイアイナイン,0
1628,7010403028432,新規,0,2022-09-08,2022-09-08,ＭＭ　Ｉｎｔｅｒｎａｔｉｏｎａｌ合同会社,,合同会社,東京都,港区,虎ノ門城山トラストタワー２７階,,13,103,1050000,,,,,,,2022-09-08,1,,,,,エムエムインターナショナル,0
1629,7010403028440,新規,0,2022-09-08,2022-09-08,合同会社Ｃｚａｒｎｙ,,合同会社,東京都,港区,南青山２丁目２７番２８－１１０１号,,13,103,1070062,,,,,,,2022-09-08,1,,,,,チャルネ,0
1632,7010501049347,新規,0,2022-09-08,2022-09-08,Ｓｔｒｅａｍｅｒ　Ｊａｐａｎエンターテイメント株式会社,,株式会社,東京都,台東区,根岸５丁目１６番７号プレールドゥーク東京ＥＡＳＴ２－９０１,,13,106,1100003,,,,,,,2022-09-08,1,,,,,ストリーマージャパンエンターテイメント,0
1645,7010901051588,新規,0,2022-09-08,2022-09-08,株式会社Ｓ＆Ｂ,,株式会社,東京都,世田谷区,池尻３丁目１１番３１号,,13,112,1540001,,,,,,,2022-09-08,1,,,,,エスアンドビー,0
1646,7010903007613,新規,0,2022-09-08,2022-09-08,合同会社アーツアンドブックス,,合同会社,東京都,世田谷区,三宿１丁目８－１０－４１４,,13,112,1540005,,,,,,,2022-09-08,1,,,,,アーツアンドブックス,0
1651,7011001149604,新規,0,2022-09-08,2022-09-08,株式会社ｔｋ１,,株式会社,東京都,渋谷区,神宮前６丁目２３番４号桑野ビル２階,,13,113,1500001,,,,,,,2022-09-08,1,,,,,ティーケーワン,0
1652,7011001149637,新規,0,2022-09-08,2022-09-08,株式会社ＳＯＫ,,株式会社,東京都,渋谷区,神宮前１丁目２０番１４号,,13,113,1500001,,,,,,,2022-09-08,1,,,,,エスオーケー,0
1653,7011001149653,新規,0,2022-09-08,2022-09-08,株式会社エンダイブテクノロジーズ,,株式会社,東京都,渋谷区,広尾１丁目１４番１５号クオリア広尾７０１,,13,113,1500012,,,,,,,2022-09-08,1,,,,,エンダイブテクノロジーズ,0
1654,7011001149678,新規,0,2022-09-08,2022-09-08,株式会社ＴＳ,,株式会社,東京都,渋谷区,東１丁目２２番４号,,13,113,1500011,,,,,,,2022-09-08,1,,,,,ティーエス,0
1656,7011003015333,新規,0,2022-09-08,2022-09-08,合同会社Ｋ＆Ｓコンサルティング,,合同会社,東京都,目黒区,中根１丁目２番地１０号ドレッセ都立大学６０４,,13,110,1520031,,,,,,,2022-09-08,1,,,,,ケーアンドエスコンサルティング,0
1661,7011305002855,新規,0,2022-09-08,2022-09-08,一般社団法人いのちの恵み,,その他の設立登記法人,東京都,杉並区,和泉４丁目４５番１５号,,13,115,1680063,,,,,,,2022-09-08,1,,,,,イノチノメグミ,0
1664,7011601026228,新規,0,2022-09-08,2022-09-08,株式会社アレナ,,株式会社,東京都,練馬区,石神井台８丁目２１番２３号,,13,120,1770045,,,,,,,2022-09-08,1,,,,,アレナ,0
1674,7012405004782,新規,0,2022-09-08,2022-09-08,医療法人社団幹裕会,,その他の設立登記法人,東京都,調布市,小島町１丁目５番地５,,13,208,1820026,,,,,,,2022-09-08,1,,,,,カンユウカイ,0
1675,7012801021828,新規,0,2022-09-08,2022-09-08,株式会社ｍｅａｌｍａｔｅｓ,,株式会社,東京都,国立市,西１丁目１７－２２,,13,215,1860005,,,,,,,2022-09-08,1,,,,,,0
1686,7020001148078,新規,0,2022-09-08,2022-09-08,フィールドアドバンス株式会社,,株式会社,神奈川県,横浜市保土ケ谷区,岩崎町２９－８ヤシロハイツ２０１,,14,106,2400015,,,,,,,2022-09-08,1,,,,,フィールドアドバンス,0
1687,7020001148128,新規,0,2022-09-08,2022-09-08,株式会社ウエアテック,,株式会社,神奈川県,川崎市高津区,千年８９７番地６,,14,134,2130022,,,,,,,2022-09-08,1,,,,,ウエアテック,0
1701,7030001150041,新規,0,2022-09-08,2022-09-08,株式会社Ｙｕｚｕｒｉａ,,株式会社,埼玉県,さいたま市岩槻区,原町６番４３号ビーラインシェリール１０２,,11,110,3390047,,,,,,,2022-09-08,1,,,,,ユズリア,0
1702,7030003020151,新規,0,2022-09-08,2022-09-08,合同会社イットネス,,合同会社,埼玉県,所沢市,大字牛沼３７７番地６号,,11,208,3590026,,,,,,,2022-09-08,1,,,,,イットネス,0
1709,7040001124928,新規,0,2022-09-08,2022-09-08,株式会社ＳＡプロジェクト,,株式会社,千葉県,船橋市,印内３丁目１番１３号,,12,204,2730039,,,,,,,2022-09-08,1,,,,,エスエープロジェクト,0
1717,7050003006818,新規,0,2022-09-08,2022-09-08,合同会社Ｈ　ｇａｒｄｅｎ,,合同会社,茨城県,かすみがうら市,上稲吉大字東清水２０４４番５,,08,230,3150056,,,,,,,2022-09-08,1,,,,,エイチガーデン,0
1718,7050005013135,新規,0,2022-09-08,2022-09-08,医療法人裕里会,,その他の設立登記法人,茨城県,土浦市,おおつ野５丁目１番地８,,08,203,3000028,,,,,,,2022-09-08,1,,,,,ユウリカイ,0
1728,7060005010008,新規,0,2022-09-08,2022-09-08,一般社団法人こらぼ,,その他の設立登記法人,栃木県,宇都宮市,宿郷２丁目７番３号,,09,201,3210945,,,,,,,2022-09-08,1,,,,,コラボ,0
1732,7080101023522,新規,0,2022-09-08,2022-09-08,ＫＵＲＩＯ株式会社,,株式会社,静岡県,沼津市,大手町４丁目８番３号,,22,203,4100801,,,,,,,2022-09-08,1,,,,,クリオ,0
1736,7100001035689,新規,0,2022-09-08,2022-09-08,株式会社百富,,株式会社,長野県,松本市,寿北９丁目７番１０号,,20,202,3990011,,,,,,,2022-09-08,1,,,,,モモトミ,0
1753,7120001248603,新規,0,2022-09-08,2022-09-08,株式会社なないろアカデミー,,株式会社,大阪府,大阪市鶴見区,浜３丁目１番１２号,,27,124,5380035,,,,,,,2022-09-08,1,,,,,ナナイロアカデミー,0
1754,7120001248611,新規,0,2022-09-08,2022-09-08,江戸善フード株式会社,,株式会社,大阪府,大阪市福島区,福島６丁目５番１８－９０２号,,27,103,5530003,,,,,,,2022-09-08,1,,,,,エドゼンフード,0
1755,7120001248628,新規,0,2022-09-08,2022-09-08,中崎株式会社,,株式会社,大阪府,大阪市大正区,千島１丁目１０番１０－３０５号,,27,108,5510003,,,,,,,2022-09-08,1,,,,,ナカサキ,0
1756,7120001248677,新規,0,2022-09-08,2022-09-08,株式会社伊東電気商会,,株式会社,大阪府,門真市,島頭１丁目６番２号,,27,223,5710016,,,,,,,2022-09-08,1,,,,,イトウデンキショウカイ,0
1757,7120001248685,新規,0,2022-09-08,2022-09-08,氏家商事株式会社,,株式会社,大阪府,大阪市港区,築港４丁目１０番３０号大寅ビル１０１,,27,107,5520021,,,,,,,2022-09-08,1,,,,,ウジイエショウジ,0
1758,7120001248719,新規,0,2022-09-08,2022-09-08,バケモンエンターテインメント株式会社,,株式会社,大阪府,大阪市西区,南堀江１丁目１２番４号,,27,106,5500015,,,,,,,2022-09-08,1,,,,,バケモンエンターテインメント,0
1759,7120001248727,新規,0,2022-09-08,2022-09-08,株式会社ＶＭＡ,,株式会社,大阪府,大阪市福島区,福島３丁目１番６５号,,27,103,5530003,,,,,,,2022-09-08,1,,,,,ブイエムエー,0
1764,7120003022411,新規,0,2022-09-08,2022-09-08,インシグニット・コンサルティング合同会社,,合同会社,大阪府,大阪市北区,豊崎３丁目１６番１６－２１１０号,,27,127,5310072,,,,,,,2022-09-08,1,,,,,インシグニットコンサルティング,0
1775,7130001072606,新規,0,2022-09-08,2022-09-08,株式会社Ｋ２,,株式会社,京都府,京都市右京区,梅津上田町３２番地３,,26,108,6150932,,,,,,,2022-09-08,1,,,,,ケーツー,0
1801,7180001152881,新規,0,2022-09-08,2022-09-08,株式会社ＡＰ,,株式会社,愛知県,小牧市,大字三ツ渕１５５７番地３,,23,219,4850075,,,,,,,2022-09-08,1,,,,,エーピー,0
1802,7180001152972,新規,0,2022-09-08,2022-09-08,ミライズエステイト株式会社,,株式会社,愛知県,名古屋市中村区,名駅３丁目４番１０号アルティメイト名駅１ｓｔ８階,,23,105,4500002,,,,,,,2022-09-08,1,,,,,ミライズエステイト,0
1804,7180003024220,新規,0,2022-09-08,2022-09-08,合同会社ＭｅｒｒｙＭｅｒｒｙ,,合同会社,愛知県,海部郡大治町,大字西條字諏訪１６番地,,23,424,4901144,,,,,,,2022-09-08,1,,,,,メリーメリー,0
1809,7200001040415,新規,0,2022-09-08,2022-09-08,株式会社讃照庵,,株式会社,岐阜県,下呂市,金山町金山３４７９番地２,,21,220,5091622,,,,,,,2022-09-08,1,,,,,サンショウアン,0
1814,7230003001908,新規,0,2022-09-08,2022-09-08,合同会社シムビズ,,合同会社,富山県,富山市,清水町４丁目１番８号,,16,201,9300036,,,,,,,2022-09-08,1,,,,,シムビズ,0
1820,7250001019751,新規,0,2022-09-08,2022-09-08,株式会社ＴＡＩＫＯ,,株式会社,山口県,下関市,綾羅木本町１丁目９番１－１０１号,,35,201,7510849,,,,,,,2022-09-08,1,,,,,タイコー,0
1823,7280005007502,新規,0,2022-09-08,2022-09-08,一般社団法人八雲会,,その他の設立登記法人,島根県,松江市,西津田６丁目５番４４号,,32,201,6900017,,,,,,,2022-09-08,1,,,,,ヤクモカイ,0
1825,7290001098791,新規,0,2022-09-08,2022-09-08,株式会社アスク西日本,,株式会社,福岡県,福岡市中央区,天神１丁目１５番５号,,40,133,8100001,,,,,,,2022-09-08,1,,,,,アスクニシニホン,0
1826,7290001098817,新規,0,2022-09-08,2022-09-08,株式会社ＥＶＡＨ,,株式会社,福岡県,福岡市中央区,春吉１丁目１４番５号キャロット天神２０２,,40,133,8100003,,,,,,,2022-09-08,1,,,,,エヴァ,0
1830,7290801028881,新規,0,2022-09-08,2022-09-08,株式会社アシストパートナー,,株式会社,福岡県,北九州市小倉北区,馬借３丁目３－３７,,40,106,8020077,,,,,,,2022-09-08,1,,,,,アシストパートナー,0
1834,7330003009511,新規,0,2022-09-08,2022-09-08,合同会社ケア助,,合同会社,熊本県,宇城市,小川町北小野１０９１番地６,,43,213,8690601,,,,,,,2022-09-08,1,,,,,ケアスケ,0
1838,7340005009500,新規,0,2022-09-08,2022-09-08,医療法人ハナノサクコロ,,その他の設立登記法人,鹿児島県,鹿児島市,小山田町６７２０番地１,,46,201,8911231,,,,,,,2022-09-08,1,,,,,ハナノサクコロ,0
1839,7350001017951,新規,0,2022-09-08,2022-09-08,株式会社暁,,株式会社,宮崎県,宮崎市,吾妻町１５１番地５アルテマイスターイオ２０５号,,45,201,8800864,,,,,,,2022-09-08,1,,,,,アカツキ,0
1844,7360003012289,新規,0,2022-09-08,2022-09-08,ｒａｉｎ合同会社,,合同会社,沖縄県,豊見城市,字豊崎１番地１２６９グランコスモザ・リゾート沖縄豊崎１３０１号,,47,212,9010225,,,,,,,2022-09-08,1,,,,,レイン,0
1846,7370001049027,新規,0,2022-09-08,2022-09-08,ウォールアームジャパン株式会社,,株式会社,宮城県,仙台市青葉区,国分町１丁目７番１８号,,04,101,9800803,,,,,,,2022-09-08,1,,,,,ウォールアームジャパン,0
1847,7370001049035,新規,0,2022-09-08,2022-09-08,株式会社ｖｉｖａｎｔ　ａｒｒａｎｇｅ,,株式会社,宮城県,仙台市太白区,茂庭字新組９番地の２,,04,104,9820251,,,,,,,2022-09-08,1,,,,,ヴィヴァンアレンジ,0
1851,7380001033112,新規,0,2022-09-08,2022-09-08,飯舘石油ガス株式会社,,株式会社,福島県,相馬郡飯舘村,関沢字中里１０番１,,07,564,9601804,,,,,,,2022-09-08,1,,,,,イイタテセキユガス,0
1859,7430001087474,新規,0,2022-09-08,2022-09-08,株式会社ノーザンリード,,株式会社,北海道,札幌市中央区,宮の森二条２丁目３番２２号フラット２１・２－Ａ,,01,101,0640952,,,,,,,2022-09-08,1,,,,,ノーザンリード,0
1861,7440001009147,新規,0,2022-09-08,2022-09-08,株式会社キウロコ高野水産,00127785,株式会社,北海道,山越郡長万部町,字旭浜１４７番地６,,01,347,0493519,,,,,,,2022-09-08,1,,,,,キウロコタカノスイサン,0
1862,7460001005730,新規,0,2022-09-08,2022-09-08,株式会社ＨＯＫＵＳＡＮ‐ＴＶ,,株式会社,北海道,釧路市,東川町１３番７号,,01,206,0850056,,,,,,,2022-09-08,1,,,,,ホクサンティーブイ,0
1863,7470003002246,新規,0,2022-09-08,2022-09-08,合同会社ＬＡＭＰ,,合同会社,香川県,丸亀市,原田町１６８２番地１３,,37,202,7630074,,,,,,,2022-09-08,1,,,,,ランプ,0
1875,8010001229233,新規,0,2022-09-08,2022-09-08,株式会社ジンシャリ,,株式会社,東京都,千代田区,神田佐久間町１丁目８番地４アルテール秋葉原７０８,,13,101,1010025,,,,,,,2022-09-08,1,,,,,ジンシャリ,0
1876,8010001229357,新規,0,2022-09-08,2022-09-08,株式会社ベジマっくす,,株式会社,東京都,千代田区,九段南１丁目５番６号りそな九段ビル５階ＫＳフロア,,13,101,1020074,,,,,,,2022-09-08,1,,,,,,0
1881,8010005035529,新規,0,2022-09-08,2022-09-08,一般社団法人ＨＩ０号,,その他の設立登記法人,東京都,千代田区,丸の内３丁目１番１号東京共同会計事務所内,,13,101,1000005,,,,,,,2022-09-08,1,,,,,エイチアイゼロゴウ,0
1886,8010401169558,新規,0,2022-09-08,2022-09-08,Ｇａｋｕ株式会社,,株式会社,東京都,港区,六本木１丁目４番５号,,13,103,1060032,,,,,,,2022-09-08,1,,,,,ガク,0
1887,8010401169590,新規,0,2022-09-08,2022-09-08,株式会社Ｌｉｂｒａ,,株式会社,東京都,港区,南青山３丁目８番４０号青山センタービル,,13,103,1070062,,,,,,,2022-09-08,1,,,,,リブラ,0
1894,8010405021327,新規,0,2022-09-08,2022-09-08,一般社団法人ＭＩＳＳＦＩＴ　ＪＡＰＡＮホリスティック協会,,その他の設立登記法人,東京都,港区,南青山２丁目２番１５号Ｗｉｎ青山ビルＵＣＦ６階,,13,103,1070062,,,,,,,2022-09-08,1,,,,,ミスフィットジャパンホリスティックキョウカイ,0
1897,8010503006709,新規,0,2022-09-08,2022-09-08,合同会社Ｃｏｎｖｅｒｓｉｏｎ,,合同会社,東京都,台東区,台東１丁目１３番９号第五光正ビル２Ａ,,13,106,1100016,,,,,,,2022-09-08,1,,,,,コンバージョン,0
1901,8010601061787,新規,0,2022-09-08,2022-09-08,株式会社Ｆａｖｅ,,株式会社,東京都,墨田区,京島３丁目６０番６号,,13,107,1310046,,,,,,,2022-09-08,1,,,,,フェイヴ,0
1902,8010601061829,新規,0,2022-09-08,2022-09-08,株式会社Ａ‐Ｆａｃｔ,,株式会社,東京都,墨田区,石原１丁目２３番４号,,13,107,1300011,,,,,,,2022-09-08,1,,,,,エーファクト,0
1906,8010703006376,新規,0,2022-09-08,2022-09-08,サニーウォーカー合同会社,,合同会社,東京都,品川区,西五反田６丁目１４番７－５０７号,,13,109,1410031,,,,,,,2022-09-08,1,,,,,サニーウォーカー,0
1909,8010901051587,新規,0,2022-09-08,2022-09-08,株式会社ファンベース,,株式会社,東京都,世田谷区,砧３丁目１１番２号,,13,112,1570073,,,,,,,2022-09-08,1,,,,,ファンベース,0
1911,8010903007629,新規,0,2022-09-08,2022-09-08,合同会社ブルームーン,,合同会社,東京都,世田谷区,砧１丁目２１番１８－４０７号,,13,112,1570073,,,,,,,2022-09-08,1,,,,,ブルームーン,0
1915,8011001149603,新規,0,2022-09-08,2022-09-08,株式会社ＭＥＩＧＡ,,株式会社,東京都,渋谷区,神宮前６丁目２５番８－９１０号,,13,113,1500001,,,,,,,2022-09-08,1,,,,,メイガ,0
1916,8011001149611,新規,0,2022-09-08,2022-09-08,株式会社Ｌｏｇｉｃ　ｐａｓｓ,,株式会社,東京都,渋谷区,恵比寿西２丁目３番地１１,,13,113,1500021,,,,,,,2022-09-08,1,,,,,ロジックパス,0
1917,8011001149636,新規,0,2022-09-08,2022-09-08,株式会社Ｔｒｏｃａ,,株式会社,東京都,渋谷区,神宮前６丁目２３番４号桑野ビル２階,,13,113,1500001,,,,,,,2022-09-08,1,,,,,トロカ,0
1918,8011001149660,新規,0,2022-09-08,2022-09-08,株式会社旭屋,,株式会社,東京都,渋谷区,桜丘町２３番１７号シティコート桜丘４０８,,13,113,1500031,,,,,,,2022-09-08,1,,,,,アサヒヤ,0
1919,8011001149669,新規,0,2022-09-08,2022-09-08,株式会社ＭＩＡ保育所管理センター,,株式会社,東京都,渋谷区,渋谷１丁目１９番８号,,13,113,1500002,,,,,,,2022-09-08,1,,,,,エムアイエーホイクショカンリセンター,0
1925,8011101100093,新規,0,2022-09-08,2022-09-08,株式会社明光キャリアパートナーズ,,株式会社,東京都,新宿区,西新宿７丁目２０番１号,,13,104,1600023,,,,,,,2022-09-08,1,,,,,メイコウキャリアパートナーズ,0
1926,8011203003905,新規,0,2022-09-08,2022-09-08,合同会社イストワール,,合同会社,東京都,中野区,南台４丁目３３番２号,,13,114,1640014,,,,,,,2022-09-08,1,,,,,イストワール,0
1934,8011703003248,新規,0,2022-09-08,2022-09-08,合同会社鈴芳,,合同会社,東京都,江戸川区,北葛西１丁目１０番５号,,13,123,1340081,,,,,,,2022-09-08,1,,,,,スズヨシ,0
1940,8012403005575,新規,0,2022-09-08,2022-09-08,合同会社ＳＤＣ,,合同会社,東京都,調布市,国領町７丁目３－２２スプランドゥール国領２０２,,13,208,1820022,,,,,,,2022-09-08,1,,,,,エスディーシー,0
1942,8012801021835,新規,0,2022-09-08,2022-09-08,株式会社スタジオタッツ,,株式会社,東京都,立川市,柴崎町２丁目１０－１４矢沢ビル５０１,,13,202,1900023,,,,,,,2022-09-08,1,,,,,,0
1949,8020001148028,新規,0,2022-09-08,2022-09-08,株式会社八朔ラボ,,株式会社,神奈川県,横浜市緑区,西八朔町３７番地１５,,14,113,2260024,,,,,,,2022-09-08,1,,,,,ハッサクラボ,0
1951,8020003022362,新規,0,2022-09-08,2022-09-08,合同会社横浜嚥下研究会,,合同会社,神奈川県,横浜市南区,中里１丁目１１番１９号,,14,105,2320063,,,,,,,2022-09-08,1,,,,,ヨコハマエンゲケンキュウカイ,0
1954,8020005015653,新規,0,2022-09-08,2022-09-08,税理士法人ブレスト,,その他の設立登記法人,神奈川県,川崎市中原区,小杉町１丁目４０３－１０サニーウェル小杉２１２号室,,14,133,2110063,,,,,,,2022-09-08,1,,,,,ブレスト,0
1962,8030001149941,新規,0,2022-09-08,2022-09-08,平沼水産株式会社,,株式会社,埼玉県,さいたま市浦和区,前地３丁目３番１８号,,11,107,3300053,,,,,,,2022-09-08,1,,,,,ヒラヌマスイサン,0
1963,8030001150040,新規,0,2022-09-08,2022-09-08,株式会社松浦建装,,株式会社,埼玉県,川越市,砂新田１丁目６番地１８,,11,201,3501137,,,,,,,2022-09-08,1,,,,,マツウラケンソウ,0
1964,8030003020150,新規,0,2022-09-08,2022-09-08,合同会社パルファンロッキ,,合同会社,埼玉県,さいたま市大宮区,桜木町２丁目３３２ベルファース大宮６０２,,11,103,3300854,,,,,,,2022-09-08,1,,,,,パルファンロッキ,0
1976,8040001124984,新規,0,2022-09-08,2022-09-08,株式会社ＯＲＣＡｎｅｘｔ,,株式会社,千葉県,松戸市,本町１７－１１芹澤ビル６Ｆ,,12,207,2710091,,,,,,,2022-09-08,1,,,,,オルカネクスト,0
1977,8040001124992,新規,0,2022-09-08,2022-09-08,ドクタープレゼント株式会社,,株式会社,千葉県,流山市,松ケ丘４丁目４９５番地の４,,12,220,2700141,,,,,,,2022-09-08,1,,,,,ドクタープレゼント,0
1992,8070001039593,新規,0,2022-09-08,2022-09-08,株式会社ＭＣカンパニー,,株式会社,群馬県,伊勢崎市,磯町３６２番地３,,10,204,3792217,,,,,,,2022-09-08,1,,,,,エムシーカンパニー,0
1993,8070001039619,新規,0,2022-09-08,2022-09-08,株式会社ＴＵＣソリューションズ,,株式会社,群馬県,高崎市,根小屋町７４１番地,,10,202,3701214,,,,,,,2022-09-08,1,,,,,ティーユーシーソリューションズ,0
2004,8110003004855,新規,0,2022-09-08,2022-09-08,ＪＣＨ合同会社,,合同会社,新潟県,柏崎市,駅前２丁目３番３２－１０１号,,15,205,9450055,,,,,,,2022-09-08,1,,,,,ジェーシーエイチ,0
2013,8120001248643,新規,0,2022-09-08,2022-09-08,Ｔｏｐ　Ｓｕｎ株式会社,,株式会社,大阪府,大阪市淀川区,西中島６丁目２番３－３１７号,,27,123,5320011,,,,,,,2022-09-08,1,,,,,トップサン,0
2014,8120001248668,新規,0,2022-09-08,2022-09-08,株式会社ＥＤＩＴＩＯＮ,,株式会社,大阪府,大阪市中央区,久太郎町１丁目８番９号５０４号室,,27,128,5410056,,,,,,,2022-09-08,1,,,,,エディション,0
2015,8120001248676,新規,0,2022-09-08,2022-09-08,株式会社ｍａｎｔｏ,,株式会社,大阪府,大阪市北区,曾根崎新地１丁目１０番１６号永楽ビル９階,,27,127,5300002,,,,,,,2022-09-08,1,,,,,マント,0
2016,8120001248692,新規,0,2022-09-08,2022-09-08,あすくステーション株式会社,,株式会社,大阪府,大阪市城東区,成育４丁目２３番１０号,,27,118,5360007,,,,,,,2022-09-08,1,,,,,アスクステーション,0
2017,8120001248718,新規,0,2022-09-08,2022-09-08,株式会社ＴＡＷＥＫＯＯＮ,,株式会社,大阪府,大阪市中央区,高津１丁目１０番１５－４０３シュトラール高津,,27,128,5420072,,,,,,,2022-09-08,1,,,,,タウィクン,0
2018,8120001248726,新規,0,2022-09-08,2022-09-08,株式会社ワイエスイノベーション,,株式会社,大阪府,大阪市東住吉区,今川７丁目８番２３号,,27,121,5460003,,,,,,,2022-09-08,1,,,,,ワイエスイノベーション,0
2020,8120003022419,新規,0,2022-09-08,2022-09-08,マカロニＣＢＤ合同会社,,合同会社,大阪府,大阪市北区,梅田１丁目１番３号大阪駅前第３ビル２９階１－１－１号室,,27,127,5300001,,,,,,,2022-09-08,1,,,,,マカロニシービーディー,0
2037,8140001127275,新規,0,2022-09-08,2022-09-08,深山株式会社,,株式会社,兵庫県,豊岡市,城崎町湯島１０１１番地,,28,209,6696101,,,,,,,2022-09-08,1,,,,,シンザン,0
2044,8140005026291,新規,0,2022-09-08,2022-09-08,一般社団法人在日アフリカ人ネットワークＡＤＮＪ,,その他の設立登記法人,兵庫県,淡路市,岩屋１２１５番地グランドハイツ淡路２０１,,28,226,6562401,,,,,,,2022-09-08,1,,,,,ザイニチアフリカジンネットワークエーディーエヌジェイ,0
2045,8140005026309,新規,0,2022-09-08,2022-09-08,一般社団法人先端制御システム研究会,,その他の設立登記法人,兵庫県,神戸市中央区,港島南町５丁目５番地の２,,28,110,6500047,,,,,,,2022-09-08,1,,,,,センタンセイギョシステムケンキュウカイ,0
2050,8170003001772,新規,0,2022-09-08,2022-09-08,合同会社ＮＩ不動産,,合同会社,和歌山県,御坊市,野口１２７５,,30,205,6440031,,,,,,,2022-09-08,1,,,,,エヌアイフドウサン,0
2057,8180001152889,新規,0,2022-09-08,2022-09-08,株式会社ＡＲクワハラ,,株式会社,愛知県,名古屋市守山区,天子田１丁目４０３番地,,23,113,4630037,,,,,,,2022-09-08,1,,,,,エーアールクワハラ,0
2058,8180001152939,新規,0,2022-09-08,2022-09-08,株式会社ＣＲＡＮＥ,,株式会社,愛知県,一宮市,今伊勢町新神戸字乾２４番地,,23,203,4910052,,,,,,,2022-09-08,1,,,,,クレイン,0
2059,8180001152947,新規,0,2022-09-08,2022-09-08,ＢＲＡＭ株式会社,,株式会社,愛知県,大府市,宮内町５丁目１１４番地１,,23,223,4740047,,,,,,,2022-09-08,1,,,,,ブラム,0
2061,8180005019928,新規,0,2022-09-08,2022-09-08,一般社団法人ストック,,その他の設立登記法人,愛知県,名古屋市中区,錦３丁目２２番２４号ＡＴＳ広小路ビル３階,,23,106,4600003,,,,,,,2022-09-08,1,,,,,ストック,0
2067,8200001040439,新規,0,2022-09-08,2022-09-08,ＴＫ商事株式会社,,株式会社,岐阜県,高山市,岡本町２丁目９８番地３,,21,203,5060054,,,,,,,2022-09-08,1,,,,,テーケーショウジ,0
2078,8250001019759,新規,0,2022-09-08,2022-09-08,株式会社山シャイン,,株式会社,山口県,萩市,大字椿東３０５０－１,,35,204,7580011,,,,,,,2022-09-08,1,,,,,サンシャイン,0
2091,8290001098832,新規,0,2022-09-08,2022-09-08,株式会社雄豊,,株式会社,福岡県,福岡市早良区,百道浜１丁目２番６－６０２号,,40,137,8140001,,,,,,,2022-09-08,1,,,,,ユウホウ,0
2092,8290001098865,新規,0,2022-09-08,2022-09-08,株式会社ＡＤＥＯ,,株式会社,福岡県,福岡市博多区,博多駅前１丁目８番７－２０２号,,40,132,8120011,,,,,,,2022-09-08,1,,,,,アデオ,0
2093,8290001098873,新規,0,2022-09-08,2022-09-08,株式会社メディカルウィング,,株式会社,福岡県,久留米市,中央町３５番地１８,,40,203,8300023,,,,,,,2022-09-08,1,,,,,メディカルウィング,0
2095,8290801028880,新規,0,2022-09-08,2022-09-08,株式会社カネハ,,株式会社,福岡県,北九州市小倉北区,馬借１丁目５番１１－２号,,40,106,8020077,,,,,,,2022-09-08,1,,,,,カネハ,0
2097,8320003003893,新規,0,2022-09-08,2022-09-08,ＵＮＩＦＩＥＤ　ＴＲＡＤＩＮＧ　ＪＡＰＡＮ合同会社,,合同会社,大分県,大分市,大字下郡３３５番地の１３９,,44,201,8700951,,,,,,,2022-09-08,1,,,,,ユニファイドトレーディングジャパン,0
2100,8340005009499,新規,0,2022-09-08,2022-09-08,一般社団法人オーガニック大地,,その他の設立登記法人,鹿児島県,いちき串木野市,川上４７４番地,,46,219,8992102,,,,,,,2022-09-08,1,,,,,オーガニックダイチ,0
2104,8380001033103,新規,0,2022-09-08,2022-09-08,阿部工房株式会社,,株式会社,福島県,須賀川市,浜尾字漆房１１５番地,,07,207,9620812,,,,,,,2022-09-08,1,,,,,アベコウボウ,0
2105,8380001033111,新規,0,2022-09-08,2022-09-08,浪江石油ガス株式会社,,株式会社,福島県,双葉郡浪江町,大字権現堂字広町７０番１,,07,547,9791521,,,,,,,2022-09-08,1,,,,,ナミエセキユガス,0
2107,8400001015998,新規,0,2022-09-08,2022-09-08,株式会社Ｎｅｘｔ　Ｇｒｅｅｎ　Ｓｔａｇｅ,,株式会社,岩手県,岩手郡岩手町,大字一方井第１６地割２２４番地,,03,303,0284421,,,,,,,2022-09-08,1,,,,,ネクストグリーンステージ,0
2116,8430003014260,新規,0,2022-09-08,2022-09-08,合同会社碧雲,,合同会社,北海道,沙流郡日高町,富川東６丁目７番４号,,01,601,0550004,,,,,,,2022-09-08,1,,,,,ヘキウン,0
2117,8440003001480,新規,0,2022-09-08,2022-09-08,合同会社ｐａｌｉｌｌｏｓ,,合同会社,北海道,北斗市,七重浜４丁目３８番９号,,01,236,0490111,,,,,,,2022-09-08,1,,,,,パリージョス,0
2124,8700150104266,新規,0,2022-09-08,2021-08-03,藤和シティコープ古河管理組合,,その他,茨城県,古河市,中央町２丁目８－４５,,08,204,3060033,,,,,,,2021-08-03,1,,,,,トウワシテイコープコガカンリクミアイ,0
2134,9010001229298,新規,0,2022-09-08,2022-09-08,デシール株式会社,,株式会社,東京都,中央区,新川２丁目８番８号ＳＮＴ八丁堀ビル４階,,13,102,1040033,,,,,,,2022-09-08,1,,,,,,0
2136,9010005035528,新規,0,2022-09-08,2022-09-08,医療法人社団ＡＬＯＨＡ,,その他の設立登記法人,東京都,中央区,銀座７丁目８番１号銀座梅林ビル９階,,13,102,1040061,,,,,,,2022-09-08,1,,,,,アロハ,0
2151,9010401169499,新規,0,2022-09-08,2022-09-08,株式会社虎ノ門ストラテジー,,株式会社,東京都,港区,虎ノ門１丁目１７番１号虎ノ門ヒルズビジネスタワー１５階（ＣＩＣＴｏｋｙｏ）,,13,103,1050001,,,,,,,2022-09-08,1,,,,,トラノモンストラテジー,0
2152,9010401169508,新規,0,2022-09-08,2022-09-08,ハローロボット株式会社,,株式会社,東京都,港区,赤坂８丁目４番１４号青山タワープレイス８階,,13,103,1070052,,,,,,,2022-09-08,1,,,,,ハローロボット,0
2153,9010401169516,新規,0,2022-09-08,2022-09-08,株式会社ナインファースト,,株式会社,東京都,港区,南麻布１丁目４番１３号,,13,103,1060047,,,,,,,2022-09-08,1,,,,,ナインファースト,0
2154,9010401169549,新規,0,2022-09-08,2022-09-08,株式会社Ｓｈｅｍｍ,,株式会社,東京都,港区,東麻布１丁目３－８ＴＯＷＥＲＦＲＯＮＴ神谷町３Ｆ,,13,103,1060044,,,,,,,2022-09-08,1,,,,,シェム,0
2156,9010403028430,新規,0,2022-09-08,2022-09-08,石山商事合同会社,,合同会社,東京都,港区,南青山３丁目１番３６号青山丸竹ビル６Ｆ,,13,103,1070062,,,,,,,2022-09-08,1,,,,,イシヤマショウジ,0
2157,9010403028471,新規,0,2022-09-08,2022-09-08,合同会社オンライン,,合同会社,東京都,港区,浜松町２丁目２―１５浜松町ダイヤビル２Ｆ,,13,103,1050013,,,,,,,2022-09-08,1,,,,,オンライン,0
2158,9010405021383,新規,0,2022-09-08,2022-09-08,谷田部ファシリティ３一般社団法人,,その他の設立登記法人,東京都,港区,六本木１丁目６番１号泉ガーデンタワー,,13,103,1060032,,,,,,,2022-09-08,1,,,,,ヤタベファシリティスリー,0
2162,9010601061828,新規,0,2022-09-08,2022-09-08,株式会社ＲＩＧＧ,,株式会社,東京都,墨田区,京島１丁目８番８号,,13,107,1310046,,,,,,,2022-09-08,1,,,,,リグ,0
2163,9010701043180,新規,0,2022-09-08,2022-09-08,株式会社Ｙ＆Ｈ,,株式会社,東京都,品川区,小山４丁目４番３号,,13,109,1420062,,,,,,,2022-09-08,1,,,,,ワイアンドエイチ,0
2170,9010901051586,新規,0,2022-09-08,2022-09-08,サイガハウジング株式会社,,株式会社,東京都,世田谷区,駒沢１丁目２番２８－２０６号,,13,112,1540012,,,,,,,2022-09-08,1,,,,,サイガハウジング,0
2179,9011001149585,新規,0,2022-09-08,2022-09-08,株式会社Ｙｅｌｌｏｗｓｔｏｎｅ　Ｃｏｎｓｕｌｔｉｎｇ,,株式会社,東京都,渋谷区,渋谷２丁目２２－３渋谷東口ビル６Ｆ,,13,113,1500002,,,,,,,2022-09-08,1,,,,,イエローストーンコンサルティング,0
2180,9011001149602,新規,0,2022-09-08,2022-09-08,ＥＬＯＮ株式会社,,株式会社,東京都,渋谷区,猿楽町７番８号,,13,113,1500033,,,,,,,2022-09-08,1,,,,,イーロン,0
2181,9011001149610,新規,0,2022-09-08,2022-09-08,株式会社ミアビータ,,株式会社,東京都,渋谷区,渋谷２丁目１９番１５号宮益坂ビルディング６０９,,13,113,1500002,,,,,,,2022-09-08,1,,,,,ミアビータ,0
2182,9011001149651,新規,0,2022-09-08,2022-09-08,株式会社オリジン,,株式会社,東京都,渋谷区,広尾４丁目１‐３１‐１１０５,,13,113,1500012,,,,,,,2022-09-08,1,,,,,オリジン,0
2183,9011001149668,新規,0,2022-09-08,2022-09-08,株式会社ＭＩＡ総務事務センター,,株式会社,東京都,渋谷区,渋谷１丁目１９番８号,,13,113,1500002,,,,,,,2022-09-08,1,,,,,エムアイエーソウムジムセンター,0
2185,9011003015356,新規,0,2022-09-08,2022-09-08,合同会社ＮＴ‐Ｋ,,合同会社,東京都,渋谷区,道玄坂１丁目１０番８号渋谷道玄坂東急ビル２Ｆ－Ｃ,,13,113,1500043,,,,,,,2022-09-08,1,,,,,エヌティケー,0
2186,9011003015364,新規,0,2022-09-08,2022-09-08,合同会社クエスタ・ストラーダ,,合同会社,東京都,渋谷区,南平台町１２－９,,13,113,1500036,,,,,,,2022-09-08,1,,,,,クエスタストラーダ,0
2189,9011103012146,新規,0,2022-09-08,2022-09-08,合同会社ｔｈｅ　ｗｏｎｓ,,合同会社,東京都,新宿区,北新宿１丁目３０－３０近鉄柏木ハイツ１１４号,,13,104,1690074,,,,,,,2022-09-08,1,,,,,ザウォンズ,0
2190,9011201024092,新規,0,2022-09-08,2022-09-08,ＥＬＩＮ株式会社,,株式会社,東京都,中野区,中央４丁目６番１号,,13,114,1640011,,,,,,,2022-09-08,1,,,,,エリン,0
2191,9011205002508,新規,0,2022-09-08,2022-09-08,医療法人社団ＫＣ,,その他の設立登記法人,東京都,中野区,大和町１丁目２７番３号暁荘１階,,13,114,1650034,,,,,,,2022-09-08,1,,,,,ケーシー,0
2194,9011301028084,新規,0,2022-09-08,2022-09-08,株式会社クオン,,株式会社,東京都,杉並区,堀ノ内２丁目１２番１３号セントヒルズ方南町１０１,,13,115,1660013,,,,,,,2022-09-08,1,,,,,クオン,0
2195,9011301028092,新規,0,2022-09-08,2022-09-08,株式会社ＭａＶｉｅ,,株式会社,東京都,杉並区,阿佐谷南３丁目１番１９号横川ビル２階,,13,115,1660004,,,,,,,2022-09-08,1,,,,,マヴィ,0
2196,9011303004513,新規,0,2022-09-08,2022-09-08,合同会社はまべ,,合同会社,東京都,杉並区,阿佐谷北１丁目１番１０号カサ・デル・アーチェロ１０１,,13,115,1660001,,,,,,,2022-09-08,1,,,,,ハマベ,0
2197,9011305002853,新規,0,2022-09-08,2022-09-08,一般社団法人これから,,その他の設立登記法人,東京都,杉並区,阿佐谷北４丁目９番２１号１階,,13,115,1660001,,,,,,,2022-09-08,1,,,,,コレカラ,0
2203,9011801041248,新規,0,2022-09-08,2022-09-08,Ｓ‐ＷＯＲＫＳＨＯＰ株式会社,,株式会社,東京都,葛飾区,小菅１丁目３７番１－１０７号ソライエ葛飾小菅,,13,122,1240001,,,,,,,2022-09-08,1,,,,,エスワークショップ,0
2205,9012701017239,新規,0,2022-09-08,2022-09-08,株式会社ＥＶＡ‐ＪＰ‐ＪＡＰＡＮ,,株式会社,東京都,西東京市,向台町２丁目１３番３０号,,13,229,1880013,,,,,,,2022-09-08,1,,,,,エバジェーピージャパン,0
2211,9020001148142,新規,0,2022-09-08,2022-09-08,株式会社ＭＧＣ,,株式会社,神奈川県,横浜市金沢区,西柴４丁目１５番２２号,,14,108,2360017,,,,,,,2022-09-08,1,,,,,エムジーシー,0
2218,9020003022345,新規,0,2022-09-08,2022-09-08,合同会社Ａｒｔ　Ｄｅ　Ｗｏｎｄｅｒ,,合同会社,神奈川県,横浜市青葉区,美しが丘西３丁目３５番地１８,,14,117,2250001,,,,,,,2022-09-08,1,,,,,アートデワンダー,0
2225,9021001076944,新規,0,2022-09-08,2022-09-08,ハーベストランド株式会社,,株式会社,神奈川県,綾瀬市,早川城山１丁目３番２２号,,14,218,2521127,,,,,,,2022-09-08,1,,,,,ハーベストランド,0
2226,9021001076952,新規,0,2022-09-08,2022-09-08,株式会社鎌谷会計,,株式会社,神奈川県,相模原市中央区,相模原５丁目１１番２号ソ・ビエール３０５号室,,14,152,2520231,,,,,,,2022-09-08,1,,,,,カマタニカイケイ,0
2230,9021003012105,新規,0,2022-09-08,2022-09-08,合同会社ワタフゥロジ,,合同会社,神奈川県,横須賀市,津久井２丁目１５番４１－１０号,,14,201,2390843,,,,,,,2022-09-08,1,,,,,ワタフゥロジ,0
2231,9021003012113,新規,0,2022-09-08,2022-09-08,アストレア合同会社,,合同会社,神奈川県,海老名市,社家５丁目２９番１４号,,14,215,2430424,,,,,,,2022-09-08,1,,,,,アストレア,0
2236,9030001149957,新規,0,2022-09-08,2022-09-08,株式会社ｂｅｌｌ　ｆｉｒｓｔ,,株式会社,埼玉県,行田市,棚田町１丁目３３番地４ベルトピア行田２－２０２号,,11,206,3610041,,,,,,,2022-09-08,1,,,,,ベルファースト,0
2237,9030001150031,新規,0,2022-09-08,2022-09-08,株式会社Ｃ＆Ｓ,,株式会社,埼玉県,秩父市,中村町３丁目１番３８号,,11,207,3680051,,,,,,,2022-09-08,1,,,,,シーアンドエス,0
2238,9030001150056,新規,0,2022-09-08,2022-09-08,ＢＭ建設株式会社,,株式会社,埼玉県,さいたま市見沼区,大字小深作３５５番地１３,,11,104,3370005,,,,,,,2022-09-08,1,,,,,ビーエムケンセツ,0
2241,9030003020158,新規,0,2022-09-08,2022-09-08,合同会社仁平,,合同会社,埼玉県,川口市,江戸２丁目１番１４号,,11,203,3340074,,,,,,,2022-09-08,1,,,,,ジンベイ,0
2242,9030003020166,新規,0,2022-09-08,2022-09-08,合同会社トミリオ,,合同会社,埼玉県,蕨市,中央４丁目１２番１２号,,11,223,3350004,,,,,,,2022-09-08,1,,,,,トミリオ,0
2243,9040001124983,新規,0,2022-09-08,2022-09-08,株式会社まんまる,,株式会社,千葉県,松戸市,松戸新田２６８番地の５,,12,207,2702241,,,,,,,2022-09-08,1,,,,,マンマル,0
2244,9040001125008,新規,0,2022-09-08,2022-09-08,株式会社ｕｔａ,,株式会社,千葉県,千葉市中央区,千葉寺町１２１０番地１６,,12,101,2600844,,,,,,,2022-09-08,1,,,,,ウタ,0
2260,9070001039592,新規,0,2022-09-08,2022-09-08,日本ドローン株式会社,,株式会社,群馬県,桐生市,仲町１丁目２番４３号,,10,203,3760035,,,,,,,2022-09-08,1,,,,,ニホンドローン,0
2262,9080001025162,新規,0,2022-09-08,2022-09-08,株式会社うずまき,,株式会社,静岡県,静岡市清水区,矢倉町５番３６号,,22,103,4240802,,,,,,,2022-09-08,1,,,,,ウズマキ,0
2265,9080101023520,新規,0,2022-09-08,2022-09-08,株式会社健康美人フォーラム,,株式会社,静岡県,伊東市,湯川３丁目６番１８号伊東シーサイドセンチュリー２１－７０７号,,22,208,4140002,,,,,,,2022-09-08,1,,,,,ケンコウビジンフォーラム,0
2269,9090003002159,新規,0,2022-09-08,2022-09-08,合同会社ＦＵＮＡＴＯＭＩ,,合同会社,山梨県,甲府市,池田２丁目６番２４号,,19,201,4000062,,,,,,,2022-09-08,1,,,,,フナトミ,0
2282,9120001248626,新規,0,2022-09-08,2022-09-08,ＲＥＢＯＲＮａｎｄＦＵＳＩＯＮ株式会社,,株式会社,大阪府,大阪市北区,本庄西３丁目１２番１４－１００４号,,27,127,5310073,,,,,,,2022-09-08,1,,,,,リボーンアンドフュージョン,0
2283,9120001248634,新規,0,2022-09-08,2022-09-08,ｍｅｚｏｎ株式会社,,株式会社,大阪府,大阪市中央区,道修町２丁目２番５号イヌイ第二ビル２階,,27,128,5410045,,,,,,,2022-09-08,1,,,,,メゾン,0
2284,9120001248675,新規,0,2022-09-08,2022-09-08,亘旦建築株式会社,,株式会社,大阪府,大阪市中央区,松屋町９番２０号ローレルステート松屋町５０７Ｂ,,27,128,5420067,,,,,,,2022-09-08,1,,,,,コウタンケンチク,0
2285,9120001248691,新規,0,2022-09-08,2022-09-08,株式会社ＢＡＳＥ企画,,株式会社,大阪府,大阪市都島区,都島本通３丁目２４番１１号,,27,102,5340021,,,,,,,2022-09-08,1,,,,,ベースキカク,0
2286,9120003022392,新規,0,2022-09-08,2022-09-08,合同会社大善,,合同会社,大阪府,大阪市西成区,南津守３丁目２番５５号,,27,122,5570063,,,,,,,2022-09-08,1,,,,,ダイゼン,0
2287,9120003022418,新規,0,2022-09-08,2022-09-08,ＲＥｓｔｏｒｅ　ＥＸＰＯ合同会社,,合同会社,大阪府,大阪市西成区,天下茶屋１丁目８－１６シティプラザ花園３０１号,,27,122,5570014,,,,,,,2022-09-08,1,,,,,リストアエキスポ,0
2289,9120103004844,新規,0,2022-09-08,2022-09-08,合同会社Ｂ‐ｗｅｓｔ,,合同会社,大阪府,堺市西区,上野芝町５丁２番１－９０９号,,27,144,5938301,,,,,,,2022-09-08,1,,,,,ビーウエスト,0
2291,9120901046476,新規,0,2022-09-08,2022-09-08,株式会社Ｃｏｎｎｅｃｔ　Ｗｏｒｋｓ,,株式会社,大阪府,摂津市,鳥飼下３丁目３４番１０号,,27,224,5660071,,,,,,,2022-09-08,1,,,,,コネクトワークス,0
2296,9130001072612,新規,0,2022-09-08,2022-09-08,株式会社Ｄ．ａｍｐ,,株式会社,京都府,京都市上京区,千本通上長者町上る百万遍町８１番地２グランタック千本５０２,,26,102,6028276,,,,,,,2022-09-08,1,,,,,ディアンプ,0
2305,9150001025808,新規,0,2022-09-08,2022-09-08,株式会社ＬＡＭＰ　ＢＡＲ,,株式会社,奈良県,奈良市,三条宮前町２－８プラウド奈良三条宮前町６０６号室,,29,201,6308121,,,,,,,2022-09-08,1,,,,,ランプバー,0
2307,9160001024503,新規,0,2022-09-08,2022-09-08,日本大阪ＮＯＺＯＭＩ文化株式会社,,株式会社,滋賀県,大津市,本堅田４丁目１５番１３号Ｍプラザ堅田駅前１００２,,25,201,5200242,,,,,,,2022-09-08,1,,,,,ニホンオオサカノゾミブンカ,0
2308,9170005006975,新規,0,2022-09-08,2022-09-08,一般社団法人あたらしい保育イニシアチブ,,その他の設立登記法人,和歌山県,紀の川市,古和田２６８番地２,,30,208,6496432,,,,,,,2022-09-08,1,,,,,アタラシイホイクイニシアチブ,0
2311,9180001152888,新規,0,2022-09-08,2022-09-08,新都開発株式会社,,株式会社,愛知県,名古屋市中区,錦１丁目７番１５号,,23,106,4600003,,,,,,,2022-09-08,1,,,,,シントカイハツ,0
2312,9180001152896,新規,0,2022-09-08,2022-09-08,ＴＨＡｎｋ株式会社,,株式会社,愛知県,名古屋市中区,栄２丁目２番地１号広小路伏見中駒ビル２Ｆ‐９,,23,106,4600008,,,,,,,2022-09-08,1,,,,,サンク,0
2313,9180001152913,新規,0,2022-09-08,2022-09-08,誠商事株式会社,,株式会社,愛知県,名古屋市港区,七反野２丁目１３０７番地の４,,23,111,4550884,,,,,,,2022-09-08,1,,,,,マコトショウジ,0
2314,9180001152970,新規,0,2022-09-08,2022-09-08,株式会社Ｆｉｎａｎｃｉａｌ　Ｑｕｅｓｔ,,株式会社,愛知県,名古屋市中村区,名駅３丁目２８番１２号大名古屋ビルヂング１１階,,23,105,4500002,,,,,,,2022-09-08,1,,,,,ファイナンシャルクエスト,0
2315,9180001152979,新規,0,2022-09-08,2022-09-08,ｏｋｕ株式会社,,株式会社,愛知県,名古屋市西区,名駅２丁目３４番１７号セントラル名古屋１１０１号,,23,104,4510045,,,,,,,2022-09-08,1,,,,,オク,0
2317,9180003024235,新規,0,2022-09-08,2022-09-08,合同会社Ｇ‐ｇｒｏｕｐ,,合同会社,愛知県,名古屋市中区,新栄２丁目８番４号ロイジェント新栄ＩＩ１０２号,00127780,23,106,4600007,,,,,,,2022-09-08,1,,,,,ジーグループ,0
2324,9200001040421,新規,0,2022-09-08,2022-09-08,ジーエイト株式会社,,株式会社,岐阜県,中津川市,かやの木町２７００番地の１アサカビル２０１,,21,206,5080045,,,,,,,2022-09-08,1,,,,,ジーエイト,0
2327,9200003005661,新規,0,2022-09-08,2022-09-08,合同会社プロテイク,,合同会社,岐阜県,岐阜市,清本町７丁目４０番地,,21,201,5008351,,,,,,,2022-09-08,1,,,,,プロテイク,0
2338,9250001019758,新規,0,2022-09-08,2022-09-08,株式会社ホットスタッフ防府,,株式会社,山口県,防府市,平和町１４番１４号,,35,206,7470043,,,,,,,2022-09-08,1,,,,,ホットスタッフホウフ,0
2346,9290001098831,新規,0,2022-09-08,2022-09-08,株式会社永信興業,,株式会社,福岡県,みやま市,瀬高町文廣１５０９番地１,,40,229,8350022,,,,,,,2022-09-08,1,,,,,エイシンコウギョウ,0
2347,9290001098872,新規,0,2022-09-08,2022-09-08,株式会社Ｈ３,,株式会社,福岡県,福岡市中央区,大名１丁目９番２５－３０２号,,40,133,8100041,,,,,,,2022-09-08,1,,,,,エイチスリー,0
2348,9290001098880,新規,0,2022-09-08,2022-09-08,株式会社フクオカデザイン,,株式会社,福岡県,福岡市中央区,大濠２丁目１０番２０号大濠パークホームズ２０３号,,40,133,8100052,,,,,,,2022-09-08,1,,,,,フクオカデザイン,0
2359,9310001018027,新規,0,2022-09-08,2022-09-08,Ｔｓ　ＬＩＮＥＣＴ株式会社,,株式会社,長崎県,長崎市,筑後町３番２２号ビバシティ筑後町４０１号,,42,201,8500052,,,,,,,2022-09-08,1,,,,,ティーズリネクト,0
2361,9330001030095,新規,0,2022-09-08,2022-09-08,株式会社Ｃｏｚｙ　Ｒｅｌｉｅｆ,,株式会社,熊本県,熊本市東区,沼山津１丁目１４番２３号,,43,102,8612102,,,,,,,2022-09-08,1,,,,,コージーリリーフ,0
2364,9330005010556,新規,0,2022-09-08,2022-09-08,医療法人こもれび,,その他の設立登記法人,熊本県,玉名市,寺田２０番４,,43,206,8650022,,,,,,,2022-09-08,1,,,,,コモレビ,0
2373,9370003005827,新規,0,2022-09-08,2022-09-08,ＡＹＳ　ｗｏｒｋ合同会社,,合同会社,宮城県,名取市,名取が丘１丁目２番１７号,,04,207,9811235,,,,,,,2022-09-08,1,,,,,エイワイエスワーク,0
2375,9380001033110,新規,0,2022-09-08,2022-09-08,株式会社Ｒｅ．Ａｘｉａ,,株式会社,福島県,福島市,南矢野目字中江１２番地の１０南矢野目テナントＣ,,07,201,9600112,,,,,,,2022-09-08,1,,,,,リアクシア,0
2381,9380005012622,新規,0,2022-09-08,2022-09-08,ＮＰＯ法人高橋コアラ,00127790,その他の設立登記法人,福島県,福島市,松川町美郷３丁目１番地の２,,07,201,9601242,,,,,,,2022-09-08,1,,,,,タカハシコアラ,0
2384,9400001015997,新規,0,2022-09-08,2022-09-08,玉山金鉱山株式会社,,株式会社,岩手県,陸前高田市,竹駒町字上壺１０４番地２,,03,210,0292203,,,,,,,2022-09-08,1,,,,,タマヤマキンコウザン,0
2387,9450003002246,新規,0,2022-09-08,2022-09-08,合同会社フィフティーセブン,,合同会社,北海道,旭川市,緑町１２丁目１１２５番地２４,,01,204,0700823,,,,,,,2022-09-08,1,,,,,フィフティーセブン,0
2390,9700150111212,新規,0,2022-09-08,2022-08-12,Ｈｉｓｈｉｇａｔａ　Ａｒｔ　Ｐｒｏｊｅｃｔ,,その他,北海道,札幌市白石区,菊水元町二条１丁目９－１１－１　Ｃｈａｍｅｌｅｏｎ　Ｌａｂｅｌ　内,,01,104,0030822,,,,,,,2022-08-12,1,,,,,ヒシガタアートプロジエクト,0
