sequenceNumber,corporateNumber,process,correct,updateDate,changeDate,name,nameImageId,kind,prefectureName,cityName,streetNumber,addressImageId,prefectureCode,cityCode,postCode,addressOutside,addressOutsideImageId,closeDate,closeCause,successorCorporateNumber,changeCause,assignmentDate,latest,enName,enPrefectureName,enCityName,enAddressOutside,furigana,hihyoji
1,1010001141650,登記記録の閉鎖等,0,2025-08-07,2025-07-09,株式会社Ｒａｆ,,株式会社,東京都,千代田区,一番町３番１０号アピス一番町７０１,,13,101,1020082,,,2025-07-09,清算の結了等,,,2015-10-05,1,,,,,,0
2,1010001148472,登記記録の閉鎖等,0,2025-08-07,2025-07-01,株式会社ＲＨＩＮＯ　ｃｒｅａｔｉｏｎ,,株式会社,東京都,中央区,日本橋兜町１７－２号,,13,102,1030026,,,2025-07-01,清算の結了等,,,2015-10-05,1,,,,,ライノクリエイション,0
6,1010001231443,登記記録の閉鎖等,0,2025-08-07,2025-07-01,株式会社ＰＩＦ,,株式会社,東京都,千代田区,神田小川町２丁目４番地１７大宮第１ビル５階,,13,101,1010052,,,2025-07-01,合併による解散等,6010401103808,令和７年７月１日東京都千代田区神田小川町二丁目４番地１７大宮第１ビル５階ＳＡＵＤＯＲＲＡ株式会社（6010401103808）に合併し解散,2022-12-08,1,,,,,ピーアイエフ,0
10,1010005031039,登記記録の閉鎖等,0,2025-08-07,2025-07-16,一般社団法人ロッキーゲートツー,,その他の設立登記法人,東京都,中央区,日本橋１丁目４番１号,,13,102,1030027,,,2025-07-16,清算の結了等,,,2019-11-13,1,,,,,ロッキーゲートツー,0
11,1010005031047,登記記録の閉鎖等,0,2025-08-07,2025-07-16,一般社団法人ロッキーゲートテン,,その他の設立登記法人,東京都,中央区,日本橋１丁目４番１号,,13,102,1030027,,,2025-07-16,清算の結了等,,,2019-11-13,1,,,,,ロッキーゲートテン,0
36,1010901013899,登記記録の閉鎖等,0,2025-08-07,2025-08-05,株式会社アイミル,,株式会社,東京都,世田谷区,若林１丁目２９番１２号,,13,112,1540023,,,2025-08-05,清算の結了等,,,2015-10-05,1,,,,,アイミル,0
43,1011005007243,登記記録の閉鎖等,0,2025-08-07,2025-07-07,一般社団法人すこやか育て協会,,その他の設立登記法人,東京都,渋谷区,渋谷１丁目１番７号,,13,113,1500002,,,2025-07-07,清算の結了等,,,2017-06-26,1,,,,,スコヤカソダテキョウカイ,0
58,1012802005117,登記記録の閉鎖等,0,2025-08-07,2025-07-17,有限会社村山バッティングセンター,,有限会社,東京都,武蔵村山市,大南１丁目２０番地の１１,,13,223,2080013,,,2025-07-17,清算の結了等,,,2015-10-05,1,,,,,ムラヤマバッティングセンター,0
72,1020001142689,登記記録の閉鎖等,0,2025-08-07,2025-07-22,株式会社３Ｓ,,株式会社,神奈川県,川崎市麻生区,万福寺４丁目７番９号,,14,137,2150004,,,2025-07-22,合併による解散等,2020001124587,令和７年７月２１日神奈川県川崎市麻生区万福寺四丁目７番９号ソシオス株式会社（2020001124587）に合併し解散,2021-08-23,1,,,,,スリーエス,0
79,1020005002311,登記記録の閉鎖等,0,2025-08-07,2025-07-23,神奈川情報サービス協同組合,,その他の設立登記法人,神奈川県,横浜市中区,海岸通４丁目２３番地,,14,104,2310002,,,2025-07-23,清算の結了等,,,2015-10-05,1,,,,,カナガワジョウホウサービス,0
90,1030001004673,登記記録の閉鎖等,0,2025-08-07,2025-07-31,株式会社全建,,株式会社,埼玉県,さいたま市見沼区,大字蓮沼１５５１番地４３,,11,104,3370015,,,2025-07-31,清算の結了等,,,2015-10-05,1,,,,,,0
94,1030001143348,登記記録の閉鎖等,0,2025-08-07,2025-07-31,株式会社大運俊送,,株式会社,埼玉県,さいたま市桜区,西堀２丁目１９番１５号アイセイマンション１０８号室,,11,106,3380832,,,2025-07-31,清算の結了等,,,2021-07-14,1,,,,,オオウンシュンソウ,0
103,1040001118092,登記記録の閉鎖等,0,2025-08-07,2025-07-17,アトアゴルフ株式会社,,株式会社,千葉県,千葉市中央区,祐光２丁目１１番１２号ＳＫマンション１階１０１号室,,12,101,2600007,,,2025-07-17,清算の結了等,,,2021-04-19,1,,,,,アトアゴルフ,0
119,1080401020159,登記記録の閉鎖等,0,2025-08-07,2025-08-01,株式会社Ｔ・Ｙ・Ｈサービス,,株式会社,静岡県,浜松市浜名区,西美薗２３６２番地,,22,139,4340033,,,2025-08-01,清算の結了等,,,2015-10-05,1,,,,,ティワイエイチサービス,0
120,1080402002957,登記記録の閉鎖等,0,2025-08-07,2025-08-01,湖東牛乳販売有限会社,,有限会社,静岡県,浜松市中央区,伊左地町４３８番地,,22,138,4311111,,,2025-08-01,清算の結了等,,,2015-10-05,1,,,,,コトウギュウニュウハンバイ,0
135,1120903001255,登記記録の閉鎖等,0,2025-08-07,2025-07-07,合同会社すみれ,,合同会社,大阪府,箕面市,如意谷４丁目６番地９－１０３号,,27,220,5620011,,,2025-07-07,清算の結了等,,,2015-10-05,1,,,,,,0
138,1130001006973,登記記録の閉鎖等,0,2025-08-07,2025-07-24,株式会社ナカムラ,,株式会社,京都府,京都市左京区,下鴨膳部町１番地,,26,103,6060815,,,2025-07-24,清算の結了等,,,2015-10-05,1,,,,,ナカムラ,0
141,1140001001346,登記記録の閉鎖等,0,2025-08-07,2025-08-01,共栄梱包株式会社,,株式会社,兵庫県,神戸市東灘区,向洋町西１丁目１六甲アイランド７号上屋,,28,101,6580033,,,2025-08-01,合併による解散等,4140001084371,令和７年８月１日兵庫県伊丹市西野二丁目３１番地の１３株式会社日伸（4140001084371）に合併し解散,2015-10-05,1,,,,,キョウエイコンポウ,0
142,1140001018745,登記記録の閉鎖等,0,2025-08-07,2025-08-01,株式会社ファミリー住販,,株式会社,兵庫県,神戸市垂水区,星が丘３丁目４番２１号,,28,108,6550032,,,2025-08-01,清算の結了等,,,2015-10-05,1,,,,,ファミリージュウハン,0
144,1140001042316,登記記録の閉鎖等,0,2025-08-07,2025-07-31,株式会社ＡＫコーポレーション,,株式会社,兵庫県,神戸市兵庫区,水木通３丁目１番３号,,28,105,6520802,,,2025-07-31,清算の結了等,,,2015-10-05,1,,,,,,0
146,1140001092138,登記記録の閉鎖等,0,2025-08-07,2025-08-01,株式会社ＫＩＫＩ,,株式会社,兵庫県,西宮市,甲子園六番町１番６号,,28,204,6638176,,,2025-08-01,清算の結了等,,,2015-10-05,1,,,,,キキ,0
154,1140003006772,登記記録の閉鎖等,0,2025-08-07,2025-07-31,合資会社ひとふくし会,,合資会社,兵庫県,尼崎市,東大物町１丁目５番２７号,,28,202,6600828,,,2025-07-31,清算の結了等,,,2015-10-05,1,,,,,ヒトフクシカイ,0
157,1150001001766,登記記録の閉鎖等,0,2025-08-07,2025-08-04,株式会社奈良ホテル,,株式会社,奈良県,奈良市,高畑町１０９６番地,,29,201,6308301,,,2025-08-04,合併による解散等,6130001017504,令和７年７月１日京都市下京区烏丸通塩小路下る東塩小路町９０１番地株式会社ジェイアール西日本ホテル開発（6130001017504）に合併し解散,2015-10-05,1,,,,,ナラホテル,0
159,1180001101621,登記記録の閉鎖等,0,2025-08-07,2025-07-11,株式会社モノン,,株式会社,愛知県,名古屋市北区,杉村１丁目２６番８号西館１Ｆ,,23,103,4620835,,,2025-07-11,清算の結了等,,,2015-10-05,1,,,,,モノン,0
164,1190001016471,登記記録の閉鎖等,0,2025-08-07,2025-07-31,水谷土建株式会社,,株式会社,三重県,四日市市,大宮町２１番３号,,24,202,5100003,,,2025-07-31,清算の結了等,,,2015-10-05,1,,,,,ミズタニドケン,0
180,1240001004594,登記記録の閉鎖等,0,2025-08-07,2025-08-01,株式会社広島ＳＰ,,株式会社,広島県,広島市東区,牛田旭１丁目１３番１２－６０１号,,34,102,7320067,,,2025-08-01,清算の結了等,,,2015-10-05,1,,,,,ヒロシマエスピー,0
187,1260005009605,登記記録の閉鎖等,0,2025-08-07,2025-07-16,一般社団法人北医会,,その他の設立登記法人,岡山県,勝田郡勝央町,岡２６６番地１,,33,622,7094311,,,2025-07-16,清算の結了等,,,2015-10-05,1,,,,,ホクイカイ,0
192,1290001081258,登記記録の閉鎖等,0,2025-08-07,2025-07-11,株式会社Ｓ・ＴＥＣ・Ｅ,,株式会社,福岡県,宗像市,自由ヶ丘７丁目２１番地１６ヒルトップ１１Ａ－４号室,,40,220,8114163,,,2025-07-11,清算の結了等,,,2018-04-26,1,,,,,エステックイー,0
195,1290002032549,登記記録の閉鎖等,0,2025-08-07,2025-08-01,株式会社ｔｅａｍＢ,,株式会社,福岡県,北九州市小倉北区,浅野３丁目１番３号,,40,106,8020001,,,2025-08-01,合併による解散等,3290801017161,令和７年８月１日北九州市小倉北区室町二丁目２番８号株式会社ウインズビル（3290801017161）に合併し解散,2015-10-05,1,,,,,チームビー,0
203,1330001009337,登記記録の閉鎖等,0,2025-08-07,2025-07-22,株式会社クリエイト,,株式会社,熊本県,熊本市中央区,上通町６番８号,,43,101,8600845,,,2025-07-22,清算の結了等,,,2015-10-05,1,,,,,クリエイト,0
220,1370003006642,登記記録の閉鎖等,0,2025-08-07,2025-07-16,合同会社ＮＩＣ,,合同会社,宮城県,登米市,迫町佐沼字北散田３３番地６,,04,212,9870511,,,2025-07-16,清算の結了等,,,2024-06-11,1,,,,,エヌアイシー,0
226,1430001037848,登記記録の閉鎖等,0,2025-08-07,2025-07-14,株式会社藤よし,,株式会社,北海道,江別市,元町３０番地の７,,01,217,0670031,,,2025-07-14,清算の結了等,,,2015-10-05,1,,,,,フジヨシ,0
235,1430005013795,登記記録の閉鎖等,0,2025-08-07,2025-07-17,社会保険労務士法人小松事務所,,その他の設立登記法人,北海道,札幌市中央区,大通西１４丁目３番地１４－１００２号,,01,101,0600042,,,2025-07-17,清算の結了等,,,2019-10-28,1,,,,,コマツジムショ,0
239,1480002007168,登記記録の閉鎖等,0,2025-08-07,2025-08-01,有限会社阿波フーズ,,有限会社,徳島県,徳島市,南沖洲４丁目５番３３号,,36,201,7700874,,,2025-08-01,合併による解散等,3480001003216,令和７年８月１日徳島市南沖洲四丁目５番３３号株式会社大八食品（3480001003216）に合併し解散,2015-10-05,1,,,,,アワフーズ,0
243,1500002011885,登記記録の閉鎖等,0,2025-08-07,2025-08-01,有限会社松本商店,,有限会社,愛媛県,大洲市,大洲１７６番地,,38,207,7950012,,,2025-08-01,清算の結了等,,,2015-10-05,1,,,,,マツモトショウテン,0
247,2010001226814,登記記録の閉鎖等,0,2025-08-07,2025-08-04,株式会社ＭＹＮロジテック,,株式会社,東京都,中央区,明石町８番１号聖路加タワー３８階,,13,102,1040044,,,2025-08-04,合併による解散等,2120001020537,令和７年６月３０日大阪市平野区瓜破南二丁目４番１３８号昌和株式会社（2120001020537）に合併し解散,2022-05-23,1,,,,,マインロジテック,0
252,2010005031038,登記記録の閉鎖等,0,2025-08-07,2025-07-16,一般社団法人ロッキーゲートワン,,その他の設立登記法人,東京都,中央区,日本橋１丁目４番１号,,13,102,1030027,,,2025-07-16,清算の結了等,,,2019-11-13,1,,,,,ロッキーゲートワン,0
253,2010005031046,登記記録の閉鎖等,0,2025-08-07,2025-07-16,一般社団法人ロッキーゲートナイン,,その他の設立登記法人,東京都,中央区,日本橋１丁目４番１号,,13,102,1030027,,,2025-07-16,清算の結了等,,,2019-11-13,1,,,,,ロッキーゲートナイン,0
256,2010103001660,登記記録の閉鎖等,0,2025-08-07,2025-08-04,合同会社日本ＣＳＶ総合研究所,,合同会社,東京都,八王子市,上柚木３丁目３番地２－５０６,,13,201,1920373,,,2025-08-04,清算の結了等,,,2021-02-12,1,,,,,ニホンシーエスブイソウゴウケンキュウジョ,0
288,2011101057562,登記記録の閉鎖等,0,2025-08-07,2025-08-04,株式会社メロー,,株式会社,東京都,板橋区,桜川２丁目１番２号,,13,119,1740075,,,2025-08-04,清算の結了等,,,2015-10-05,1,,,,,,0
296,2011501022364,登記記録の閉鎖等,0,2025-08-07,2025-08-04,株式会社イーコア,,株式会社,東京都,北区,東田端１丁目２番１２号,,13,117,1140013,,,2025-08-04,清算の結了等,,,2017-02-20,1,,,,,イーコア,0
299,2011701004583,登記記録の閉鎖等,0,2025-08-07,2025-08-01,株式会社大栄塗工舎,,株式会社,東京都,江戸川区,松江７丁目２番２２号,,13,123,1320025,,,2025-08-01,清算の結了等,,,2015-10-05,1,,,,,ダイエイトコウシャ,0
330,2021001026930,登記記録の閉鎖等,0,2025-08-07,2025-07-29,株式会社スクールメイトミチル,,株式会社,神奈川県,海老名市,さつき町１番地,,14,215,2430421,,,2025-07-29,清算の結了等,,,2015-10-05,1,,,,,スクールメイトミチル,0
331,2021001044321,登記記録の閉鎖等,0,2025-08-07,2025-07-29,株式会社Ｂｌｏｓｓｏｍｓ,,株式会社,神奈川県,横須賀市,若松町２丁目３３－３－４０８,,14,201,2380007,,,2025-07-29,清算の結了等,,,2015-10-05,1,,,,,ブラッサムズ,0
333,2021001076876,登記記録の閉鎖等,0,2025-08-07,2025-08-06,株式会社Ｅｉｇｈｔ,,株式会社,神奈川県,横須賀市,大矢部２丁目１２番７号,,14,201,2380024,,,2025-08-06,清算の結了等,,,2022-08-30,1,,,,,エイト,0
337,2021002045079,登記記録の閉鎖等,0,2025-08-07,2025-07-30,有限会社サムシング,,有限会社,神奈川県,海老名市,杉久保南１丁目５番１９号,,14,215,2430427,,,2025-07-30,清算の結了等,,,2015-10-05,1,,,,,サムシング,0
345,2050001049872,登記記録の閉鎖等,0,2025-08-07,2025-07-25,株式会社クレオ,,株式会社,茨城県,古河市,女沼３１８番地１,,08,204,3060226,,,2025-07-25,清算の結了等,,,2021-09-24,1,,,,,クレオ,0
353,2080002017594,登記記録の閉鎖等,0,2025-08-07,2025-07-30,有限会社志昇産業,,有限会社,静岡県,藤枝市,高岡１丁目１２番３４号,,22,214,4260062,,,2025-07-30,清算の結了等,,,2015-10-05,1,,,,,シショウサンギョウ,0
354,2080005005489,登記記録の閉鎖等,0,2025-08-07,2025-07-30,旭漁業生産組合,,その他の設立登記法人,静岡県,焼津市,小川３３１６番地の２,,22,212,4250033,,,2025-07-30,清算の結了等,,,2015-10-05,1,,,,,アサヒ,0
356,2100001007271,登記記録の閉鎖等,0,2025-08-07,2025-08-04,株式会社櫻井建設,,株式会社,長野県,佐久市,臼田１０２２番地２,,20,217,3840301,,,2025-08-04,清算の結了等,,,2015-10-05,1,,,,,サクライケンセツ,0
382,2120902015668,登記記録の閉鎖等,0,2025-08-07,2025-07-30,有限会社舩木興産,,有限会社,兵庫県,芦屋市,親王塚町９番８－２号,,28,206,6590016,,,2025-07-30,清算の結了等,,,2015-10-05,1,,,,,フナキコウサン,0
393,2140002008380,登記記録の閉鎖等,0,2025-08-07,2025-08-01,有限会社河合商事,,有限会社,兵庫県,神戸市長田区,細田町２丁目７番地４,,28,106,6530835,,,2025-08-01,清算の結了等,,,2015-10-05,1,,,,,カワイショウジ,0
400,2150005009466,登記記録の閉鎖等,0,2025-08-07,2025-08-04,一般社団法人愛ＦＬＯＲＡ,,その他の設立登記法人,奈良県,橿原市,木原町２２２番地の４,,29,205,6340004,,,2025-08-04,清算の結了等,,,2023-03-29,1,,,,,アイフローラ,0
424,2220001012482,登記記録の閉鎖等,0,2025-08-07,2025-08-01,株式会社湊正,,株式会社,石川県,小松市,工業団地１丁目８３番地,,17,203,9230994,,,2025-08-01,清算の結了等,,,2015-10-05,1,,,,,,0
425,2220002014577,登記記録の閉鎖等,0,2025-08-07,2025-07-14,有限会社ミナト石油,,有限会社,石川県,羽咋郡志賀町,福浦港ミナト１５２番１,,17,384,9250315,,,2025-07-14,清算の結了等,,,2015-10-05,1,,,,,ミナトセキユ,0
436,2280002008020,登記記録の閉鎖等,0,2025-08-07,2025-08-01,有限会社トリオ,,有限会社,広島県,山県郡北広島町,本地１９３１番地,,34,369,7311526,,,2025-08-01,清算の結了等,,,2015-10-05,1,,,,,,0
437,2280005004925,登記記録の閉鎖等,0,2025-08-07,2025-08-01,長源寺,,その他の設立登記法人,島根県,邑智郡邑南町,雪田５０１番地,,32,449,6960506,,,2025-08-01,清算の結了等,,,2015-10-05,1,,,,,チョウゲンジ,0
445,2290801020430,登記記録の閉鎖等,0,2025-08-07,2025-07-29,株式会社北九工業,,株式会社,福岡県,遠賀郡水巻町,二西３丁目１７番２５号,,40,382,8070055,,,2025-07-29,清算の結了等,,,2015-10-05,1,,,,,キタキュウコウギョウ,0
454,2310001012390,登記記録の閉鎖等,0,2025-08-07,2025-08-01,株式会社共進商事,,株式会社,長崎県,西海市,西海町面高郷１０６９番地１,,42,212,8513508,,,2025-08-01,清算の結了等,,,2015-10-05,1,,,,,キョウシンショウジ,0
455,2310002012357,登記記録の閉鎖等,0,2025-08-07,2025-08-01,有限会社川内建設,,有限会社,長崎県,東彼杵郡波佐見町,井石郷１９８３番地,,42,323,8593711,,,2025-08-01,清算の結了等,,,2015-10-05,1,,,,,カワチケンセツ,0
469,2380001021492,登記記録の閉鎖等,0,2025-08-07,2025-07-15,株式会社Ｎ・Ｅコーポレーション,,株式会社,福島県,いわき市,平字田町６８,,07,204,9708026,,,2025-07-15,清算の結了等,,,2015-10-05,1,,,,,エヌイーコーポレーション,0
476,2420001012891,登記記録の閉鎖等,0,2025-08-07,2025-07-28,ＫＦ電気株式会社,,株式会社,青森県,上北郡六ヶ所村,大字倉内字笹崎１０２６番地２コーポクリスタルＢ号,,02,411,0393215,,,2025-07-28,清算の結了等,,,2015-10-05,1,,,,,ケーエフデンキ,0
481,2430001064544,登記記録の閉鎖等,0,2025-08-07,2025-07-16,株式会社アドニコ,,株式会社,北海道,札幌市北区,北七条西１丁目１番２号ＳＥ札幌ビル５０６,,01,102,0600807,,,2025-07-16,清算の結了等,,,2015-10-05,1,,,,,アドニコ,0
492,2460001003714,登記記録の閉鎖等,0,2025-08-07,2025-08-05,株式会社海野事務所,,株式会社,北海道,釧路市,文苑１丁目１４番９号,,01,206,0850063,,,2025-08-05,清算の結了等,,,2015-10-05,1,,,,,ウミノジムショ,0
502,3010001147480,登記記録の閉鎖等,0,2025-08-07,2025-08-01,株式会社リップル,,株式会社,東京都,世田谷区,下馬５丁目９番８号－１,,13,112,1540002,,,2025-08-01,合併による解散等,2011001065277,令和７年８月１日東京都世田谷区下馬五丁目９番８号－１株式会社ＴＯＮＩＣ（2011001065277）に合併し解散,2015-10-05,1,,,,,リップル,0
507,3010005034782,登記記録の閉鎖等,0,2025-08-07,2025-07-15,一般社団法人鈴鹿ＥＲＩ１号,,その他の設立登記法人,東京都,千代田区,丸の内１丁目４番１号東京共同会計事務所内,,13,101,1000005,,,2025-07-15,清算の結了等,,,2022-03-29,1,,,,,スズカイーアールアイイチゴウ,0
518,3010501027018,登記記録の閉鎖等,0,2025-08-07,2025-07-25,株式会社プロスト,,株式会社,東京都,台東区,上野桜木１丁目１０番１７号,,13,106,1100002,,,2025-07-25,清算の結了等,,,2015-10-05,1,,,,,プロスト,0
532,3011001159508,登記記録の閉鎖等,0,2025-08-07,2025-07-15,株式会社ＢＵＺＭＡ,,株式会社,東京都,千代田区,紀尾井町１番３号,,13,101,1020094,,,2025-07-15,合併による解散等,1010401062075,令和７年７月１日東京都千代田区紀尾井町１番３号バリューコマース株式会社（1010401062075）に合併し解散,2024-01-22,1,,,,,バズマ,0
557,3013301005829,登記記録の閉鎖等,0,2025-08-07,2025-07-23,株式会社スズキ,,株式会社,東京都,豊島区,目白４丁目１３番１６号,,13,116,1710031,,,2025-07-23,清算の結了等,,,2015-10-05,1,,,,,スズキ,0
571,3020003025618,登記記録の閉鎖等,0,2025-08-07,2025-07-24,合同会社アジサシ,,合同会社,神奈川県,横浜市都筑区,仲町台１丁目２番２３－６０２号,,14,118,2240041,,,2025-07-24,清算の結了等,,,2024-02-27,1,,,,,アジサシ,0
590,3040003007655,登記記録の閉鎖等,0,2025-08-07,2025-07-29,合同会社ＴＦＹコーポレーション,,合同会社,千葉県,市川市,南行徳２丁目１３番１５－３０１号,,12,203,2720138,,,2025-07-29,清算の結了等,,,2015-10-05,1,,,,,ティーエフワイコーポレーション,0
601,3070001038352,登記記録の閉鎖等,0,2025-08-07,2025-07-31,ランドワークス株式会社,,株式会社,群馬県,邑楽郡大泉町,大字古海７９４番地の３６,,10,524,3700524,,,2025-07-31,清算の結了等,,,2021-08-18,1,,,,,ランドワークス,0
625,3130001061471,登記記録の閉鎖等,0,2025-08-07,2025-08-01,デザインラボ株式会社,,株式会社,滋賀県,草津市,矢橋町５４番地１５,,25,206,5250066,,,2025-08-01,合併による解散等,6140001114837,令和７年６月１７日京都府京都市中京区壬生坊城町１番地の１グリッド株式会社（6140001114837）に合併し解散,2018-02-06,1,,,,,デザインラボ,0
646,3160002010004,登記記録の閉鎖等,0,2025-08-07,2025-07-31,有限会社ハヤシデラ,,有限会社,滋賀県,東近江市,八日市緑町１３番１４号,,25,213,5270023,,,2025-07-31,合併による解散等,1130001050294,令和７年７月１日東京都千代田区大手町１－１－２大手門タワーなぎさアセットマネジメント株式会社（1130001050294）に合併し解散,2015-10-05,1,,,,,ハヤシデラ,0
650,3180002014837,登記記録の閉鎖等,0,2025-08-07,2025-07-15,有限会社マルトシ,,有限会社,愛知県,名古屋市南区,明治２丁目８番２１号,,23,112,4570861,,,2025-07-15,清算の結了等,,,2015-10-05,1,,,,,マルトシ,0
662,3220001014040,登記記録の閉鎖等,0,2025-08-07,2025-08-04,株式会社北口商事,,株式会社,石川県,加賀市,中代町３７９番地,,17,206,9220014,,,2025-08-04,清算の結了等,,,2015-10-05,1,,,,,キタグチショウジ,0
678,3290001096469,登記記録の閉鎖等,0,2025-08-07,2025-08-01,株式会社ＳＰＤ,,株式会社,福岡県,太宰府市,大佐野２丁目１５番１号,,40,221,8180134,,,2025-08-01,合併による解散等,5290001049739,令和７年８月１日福岡県久留米市東町２８番地９株式会社ユーコー（5290001049739）に合併し解散,2022-02-21,1,,,,,エスピーディー,0
681,3290002048205,登記記録の閉鎖等,0,2025-08-07,2025-07-10,有限会社文化,,有限会社,福岡県,八女市,馬場６０番地,,40,210,8340023,,,2025-07-10,清算の結了等,,,2015-10-05,1,,,,,ブンカ,0
685,3300001008629,登記記録の閉鎖等,0,2025-08-07,2025-08-01,株式会社アジア観光経済研究所,,株式会社,佐賀県,嬉野市,嬉野町大字下宿乙７３８番地,,41,209,8430301,,,2025-08-01,清算の結了等,,,2015-10-05,1,,,,,アジアカンコウケイザイケンキュウショ,0
708,3380002003877,登記記録の閉鎖等,0,2025-08-07,2025-07-16,有限会社ユニティサービス,,有限会社,福島県,福島市,北矢野目字前原１０番地の１,,07,201,9600113,,,2025-07-16,清算の結了等,,,2015-10-05,1,,,,,ユニティサービス,0
728,4010001203968,登記記録の閉鎖等,0,2025-08-07,2025-08-04,エムシーデジタル株式会社,,株式会社,東京都,千代田区,有楽町１丁目１番２号,,13,101,1000006,,,2025-08-04,合併による解散等,7010001167434,令和７年７月１日東京都渋谷区恵比寿一丁目１８番１４号エムシーディースリー株式会社（7010001167434）に合併し解散,2019-09-19,1,,,,,エムシーデジタル,0
729,4010001212325,登記記録の閉鎖等,0,2025-08-07,2025-07-09,株式会社ＳＨＭＹ,,株式会社,東京都,千代田区,平河町２丁目５番２号ザ・レジデンス平河町１５０４号室,,13,101,1020093,,,2025-07-09,清算の結了等,,,2020-09-16,1,,,,,シミー,0
738,4010005022869,登記記録の閉鎖等,0,2025-08-07,2025-07-22,特定非営利活動法人防災のことば研究会,,その他の設立登記法人,埼玉県,飯能市,原町１２４番地１１,,11,209,3570005,,,2025-07-22,清算の結了等,,,2015-10-05,1,,,,,ボウサイノコトバケンキュウカイ,0
739,4010005031044,登記記録の閉鎖等,0,2025-08-07,2025-07-16,一般社団法人ロッキーゲートセブン,,その他の設立登記法人,東京都,中央区,日本橋１丁目４番１号,,13,102,1030027,,,2025-07-16,清算の結了等,,,2019-11-13,1,,,,,ロッキーゲートセブン,0
746,4010401005452,登記記録の閉鎖等,0,2025-08-07,2025-07-07,エムティエムシステム株式会社,,株式会社,東京都,港区,西新橋３丁目２４番１２号,,13,103,1050003,,,2025-07-07,清算の結了等,,,2025-03-12,1,,,,,,0
782,4011601017576,登記記録の閉鎖等,0,2025-08-07,2025-07-22,株式会社ダイシン,,株式会社,東京都,練馬区,下石神井６丁目３番５号,,13,120,1770042,,,2025-07-22,清算の結了等,,,2015-10-05,1,,,,,ダイシン,0
787,4011801019604,登記記録の閉鎖等,0,2025-08-07,2025-07-09,株式会社リライト,,株式会社,東京都,中央区,銀座１丁目３番３号Ｇ１ビル７階,,13,102,1040061,,,2025-07-09,清算の結了等,,,2015-10-05,1,,,,,リライト,0
797,4013302020446,登記記録の閉鎖等,0,2025-08-07,2025-07-22,有限会社琳,,有限会社,東京都,豊島区,駒込４丁目９番２９号,,13,116,1700003,,,2025-07-22,清算の結了等,,,2015-10-05,1,,,,,リン,0
798,4013303007616,登記記録の閉鎖等,0,2025-08-07,2025-07-22,合同会社ＥＲＩＣ,,合同会社,東京都,豊島区,巣鴨２丁目４番４号大豊ビル４階,,13,116,1700002,,,2025-07-22,清算の結了等,,,2025-04-16,1,,,,,エリック,0
814,4030001034478,登記記録の閉鎖等,0,2025-08-07,2025-07-31,株式会社ミヤプランニング,,株式会社,埼玉県,さいたま市北区,宮原町４丁目１２４番地１９,,11,102,3310812,,,2025-07-31,清算の結了等,,,2015-10-05,1,,,,,ミヤプランニング,0
816,4030001092121,登記記録の閉鎖等,0,2025-08-07,2025-08-01,株式会社レイズ・ブレイン,,株式会社,埼玉県,秩父市,大野原２００番地７８,,11,207,3680005,,,2025-08-01,清算の結了等,,,2015-10-05,1,,,,,レイズブレイン,0
830,4050001026886,登記記録の閉鎖等,0,2025-08-07,2025-07-25,株式会社植木工業所,,株式会社,茨城県,久慈郡大子町,大字芦野倉２３９番地１,00022310,08,364,3193538,,,2025-07-25,清算の結了等,,,2015-10-05,1,,,,,ウエキコウギョウショ,0
846,4100001016592,登記記録の閉鎖等,0,2025-08-07,2025-07-30,株式会社ランドテック,,株式会社,長野県,塩尻市,大字塩尻町１５６３番地１,,20,215,3990712,,,2025-07-30,清算の結了等,,,2015-10-05,1,,,,,ランドテック,0
847,4100001033027,登記記録の閉鎖等,0,2025-08-07,2025-07-30,株式会社ｍｏｒｅ,,株式会社,長野県,茅野市,豊平６８９５－１フルール梨ノ木１０２,,20,214,3910213,,,2025-07-30,清算の結了等,,,2020-03-23,1,,,,,モア,0
850,4100005006821,登記記録の閉鎖等,0,2025-08-07,2025-07-31,特定非営利活動法人グループＨＩＹＯＫＯ,,その他の設立登記法人,長野県,塩尻市,大門八番町４番１号,,20,215,3990737,,,2025-07-31,清算の結了等,,,2015-10-05,1,,,,,グループヒヨコ,0
870,4120105006620,登記記録の閉鎖等,0,2025-08-07,2025-07-23,特定非営利活動法人ウィズ生活支援センター,,その他の設立登記法人,大阪府,泉佐野市,長滝２２２１－３０,,27,213,5980034,,,2025-07-23,清算の結了等,,,2015-10-05,1,,,,,ウィズセイカツシエンセンター,0
879,4140001033592,登記記録の閉鎖等,0,2025-08-07,2025-08-01,株式会社ＳＵＣＣＥＳＳ,,株式会社,兵庫県,神戸市兵庫区,和田山通１丁目２番２５号神戸市ものづくり復興工場Ｄ棟５１６,,28,105,6520884,,,2025-08-01,清算の結了等,,,2015-10-05,1,,,,,サクセス,0
885,4140001107297,登記記録の閉鎖等,0,2025-08-07,2025-08-01,株式会社アイベイト,,株式会社,兵庫県,神戸市東灘区,深江北町４丁目１２番４－４０５号,,28,101,6580013,,,2025-08-01,清算の結了等,,,2017-08-22,1,,,,,アイベイト,0
897,4180001055674,登記記録の閉鎖等,0,2025-08-07,2025-07-11,株式会社ビィジョナリーアドバタイジング,,株式会社,愛知県,名古屋市千種区,内山３丁目１０番１７号今池セントラルビル２階２－Ａ号室,,23,101,4640075,,,2025-07-11,清算の結了等,,,2015-10-05,1,,,,,ビィジョナリーアドバタイジング,0
898,4180001063792,登記記録の閉鎖等,0,2025-08-07,2025-07-11,メディアレイズ株式会社,,株式会社,愛知県,名古屋市中区,丸の内３丁目７番２６号,,23,106,4600002,,,2025-07-11,清算の結了等,,,2015-10-05,1,,,,,メディアレイズ,0
906,4180001165837,登記記録の閉鎖等,0,2025-08-07,2025-07-15,株式会社ＦａｍｉＳｐｈｅｒｅ,,株式会社,愛知県,尾張旭市,東本地ケ原町３丁目７４－１,,23,226,4880033,,,2025-07-15,清算の結了等,,,2025-03-14,1,,,,,ファミスフィア,0
916,4200003003018,登記記録の閉鎖等,0,2025-08-07,2025-08-01,合同会社リブート,,合同会社,岐阜県,揖斐郡大野町,大字下方９４２番地,,21,403,5010523,,,2025-08-01,清算の結了等,,,2015-10-05,1,,,,,,0
917,4200003003918,登記記録の閉鎖等,0,2025-08-07,2025-07-31,合同会社ＪＶＣ,,合同会社,岐阜県,岐阜市,高森町３丁目２９番地,,21,201,5008171,,,2025-07-31,清算の結了等,,,2017-01-10,1,,,,,ジェイブイシー,0
947,4320001005375,登記記録の閉鎖等,0,2025-08-07,2025-07-15,株式会社ランニング,,株式会社,熊本県,熊本市中央区,新市街１３－１３フタビル３階,,43,101,8600803,,,2025-07-15,清算の結了等,,,2015-10-05,1,,,,,ランニング,0
951,4330005001980,登記記録の閉鎖等,0,2025-08-07,2025-07-18,医療法人修光会,,その他の設立登記法人,熊本県,熊本市中央区,新町２丁目４番１８号,,43,101,8600004,,,2025-07-18,清算の結了等,,,2015-10-05,1,,,,,シュウコウカイ,0
959,4350002015338,登記記録の閉鎖等,0,2025-08-07,2025-07-31,有限会社長崎建設,,有限会社,宮崎県,北諸県郡三股町,大字樺山４８９５番地２,,45,341,8891901,,,2025-07-31,清算の結了等,,,2015-10-05,1,,,,,ナガサキケンセツ,0
977,4430005001657,登記記録の閉鎖等,0,2025-08-07,2025-07-15,医療法人社団清田小児科医院,,その他の設立登記法人,北海道,札幌市清田区,清田一条４丁目５番３０号,,01,110,0040841,,,2025-07-15,清算の結了等,,,2015-10-05,1,,,,,キヨタショウニカイイン,0
983,4490002012742,登記記録の閉鎖等,0,2025-08-07,2025-08-04,有限会社岩崎建材,,有限会社,高知県,安芸郡田野町,１４７７番地１,,39,303,7816410,,,2025-08-04,清算の結了等,,,2015-10-05,1,,,,,イワサキケンザイ,0
988,4500001016461,登記記録の閉鎖等,0,2025-08-07,2025-08-01,株式会社神来,,株式会社,愛媛県,西条市,中奥２号１５１番地,,38,206,7930214,,,2025-08-01,清算の結了等,,,2015-10-05,1,,,,,シンライ,0
991,4500002020421,登記記録の閉鎖等,0,2025-08-07,2025-07-31,有限会社篠崎製麺,00008196,有限会社,愛媛県,今治市,別宮町９丁目３番５号,,38,202,7940026,,,2025-07-31,清算の結了等,,,2015-10-05,1,,,,,シノザキセイメン,0
1005,5010001218569,登記記録の閉鎖等,0,2025-08-07,2025-08-04,株式会社インダストリー・ワン,,株式会社,東京都,中央区,京橋１丁目１３番１号,,13,102,1040031,,,2025-08-04,合併による解散等,7010001167434,令和７年７月１日東京都渋谷区恵比寿一丁目１８番１４号エムシーディースリー株式会社（7010001167434）に合併し解散,2021-06-07,1,,,,,インダストリーワン,0
1006,5010001219947,登記記録の閉鎖等,0,2025-08-07,2025-07-09,ＴＲエナジ－株式会社,,株式会社,東京都,千代田区,大手町２丁目２番１号,,13,101,1000004,,,2025-07-09,清算の結了等,,,2021-07-27,1,,,,,ティーアールエナジー,0
1011,5010003020262,登記記録の閉鎖等,0,2025-08-07,2025-07-09,ＡＳＭ１合同会社,,合同会社,東京都,中央区,日本橋１丁目４番１号日本橋一丁目ビルディング,,13,102,1030027,,,2025-07-09,清算の結了等,,,2015-10-05,1,,,,,エイエスエムワン,0
1013,5010005007010,登記記録の閉鎖等,0,2025-08-07,2025-07-15,特定非営利活動法人日本臨床医療レーザー協会,,その他の設立登記法人,東京都,中央区,佃２丁目２番１０－３２１２号,,13,102,1040051,,,2025-07-15,清算の結了等,,,2015-10-05,1,,,,,ニホンリンショウイリョウレーザーキョウカイ,0
1015,5010005031043,登記記録の閉鎖等,0,2025-08-07,2025-07-16,一般社団法人ロッキーゲートシックス,,その他の設立登記法人,東京都,中央区,日本橋１丁目４番１号,,13,102,1030027,,,2025-07-16,清算の結了等,,,2019-11-13,1,,,,,ロッキーゲートシックス,0
1016,5010401066758,登記記録の閉鎖等,0,2025-08-07,2025-07-09,新日本技建株式会社,,株式会社,東京都,港区,東麻布２丁目２６番１２号ＡＺＲ１０１,,13,103,1060044,,,2025-07-09,清算の結了等,,,2015-10-05,1,,,,,シンニホンギケン,0
1022,5010403020283,登記記録の閉鎖等,0,2025-08-07,2025-07-10,知床ＩＢＬＰ合同会社,,合同会社,東京都,港区,西新橋１丁目１番１号ＥＰコンサルティングサービス内,,13,103,1050003,,,2025-07-10,清算の結了等,,,2019-02-28,1,,,,,シレトコアイビーエルピー,0
1026,5010501002150,登記記録の閉鎖等,0,2025-08-07,2025-07-29,オクズミ設備株式会社,,株式会社,東京都,台東区,日本堤２丁目３番５号,,13,106,1110021,,,2025-07-29,清算の結了等,,,2015-10-05,1,,,,,オクズミセツビ,0
1027,5010501029210,登記記録の閉鎖等,0,2025-08-07,2025-07-07,株式会社ＢｕｓｉｎｅｓｓＭａｋｅ．ｃｏｍ,,株式会社,東京都,台東区,元浅草１丁目４番８号,,13,106,1110041,,,2025-07-07,清算の結了等,,,2015-10-05,1,,,,,,0
1033,5010705000801,登記記録の閉鎖等,0,2025-08-07,2025-07-25,特定非営利活動法人アーテム,,その他の設立登記法人,東京都,品川区,東大井４丁目８番１０号大井仙台坂マンション２０１号,,13,109,1400011,,,2025-07-25,清算の結了等,,,2015-10-05,1,,,,,アーテム,0
1036,5010802010521,登記記録の閉鎖等,0,2025-08-07,2025-07-25,有限会社鳥澤均建築事務所,,有限会社,東京都,大田区,大森西１丁目１８番１１号,,13,111,1430015,,,2025-07-25,清算の結了等,,,2015-10-05,1,,,,,,0
1038,5010901036228,登記記録の閉鎖等,0,2025-08-07,2025-08-05,株式会社ジーフォー,,株式会社,東京都,世田谷区,祖師谷３丁目３０番６号,,13,112,1570072,,,2025-08-05,清算の結了等,,,2015-10-05,1,,,,,ジーフォー,0
1042,5011001153525,登記記録の閉鎖等,0,2025-08-07,2025-07-07,株式会社ＮＯＵＭＩＮ,,株式会社,東京都,渋谷区,桜丘町１４番６号黒松ビル４０２,,13,113,1500031,,,2025-07-07,清算の結了等,,,2023-04-06,1,,,,,ノウミン,0
1043,5011001163160,登記記録の閉鎖等,0,2025-08-07,2025-07-07,株式会社Ｐａｒｓａｖｅ,,株式会社,東京都,渋谷区,代々木５丁目４２番８号,,13,113,1510053,,,2025-07-07,清算の結了等,,,2024-07-04,1,,,,,パーセーブ,0
1059,5011402000160,登記記録の閉鎖等,0,2025-08-07,2025-08-04,有限会社相葉ボールト,,有限会社,東京都,板橋区,大和町１８番１１号,,13,119,1730012,,,2025-08-04,清算の結了等,,,2015-10-05,1,,,,,アイバボールト,0
1099,5030002065505,登記記録の閉鎖等,0,2025-08-07,2025-08-01,有限会社ホーサンズ,,有限会社,埼玉県,新座市,西堀２丁目３番７号,,11,230,3520031,,,2025-08-01,清算の結了等,,,2015-10-05,1,,,,,ホーサンズ,0
1109,5040003009988,登記記録の閉鎖等,0,2025-08-07,2025-07-14,合同会社ベルツリー,,合同会社,千葉県,鎌ケ谷市,西佐津間１丁目８番４３－１５号,,12,224,2730134,,,2025-07-14,清算の結了等,,,2017-05-01,1,,,,,ベルツリー,0
1118,5050003003271,登記記録の閉鎖等,0,2025-08-07,2025-07-17,合同会社イソザキ,,合同会社,茨城県,ひたちなか市,平磯町５３７番地１,,08,221,3111203,,,2025-07-17,清算の結了等,,,2016-05-06,1,,,,,イソザキ,0
1119,5060001004436,登記記録の閉鎖等,0,2025-08-07,2025-07-28,メゾンドエル株式会社,,株式会社,栃木県,宇都宮市,中今泉５丁目２９番１号,,09,201,3210968,,,2025-07-28,清算の結了等,,,2015-10-05,1,,,,,メゾンドエル,0
1143,5120001246294,登記記録の閉鎖等,0,2025-08-07,2025-07-28,株式会社ＷＢＦＰＰ,,株式会社,大阪府,大阪市浪速区,元町２丁目７番２０号,,27,111,5560016,,,2025-07-28,清算の結了等,,,2022-06-03,1,,,,,ダブリュービーエフピーピー,0
1170,5140001134720,登記記録の閉鎖等,0,2025-08-07,2025-08-01,株式会社アビック赤穂,,株式会社,兵庫県,神戸市中央区,琴ノ緒町５丁目６番１号,,28,110,6510094,,,2025-08-01,合併による解散等,6140001034102,令和７年８月１日神戸市中央区琴ノ緒町五丁目６番１号株式会社アストリーツーコーポレーション（6140001034102）に合併し解散,2024-06-11,1,,,,,アビックアコウ,0
1184,5180001151290,登記記録の閉鎖等,0,2025-08-07,2025-07-14,マル伊トラスト株式会社,,株式会社,愛知県,知多郡南知多町,大字片名字新師崎１１番地の２,,23,445,4703502,,,2025-07-14,清算の結了等,,,2022-05-11,1,,,,,マルイトラスト,0
1185,5180001157478,登記記録の閉鎖等,0,2025-08-07,2025-07-09,株式会社Ｅｄｅｌ,,株式会社,愛知県,海部郡大治町,大字西條字坂牧島３０番地,,23,424,4901144,,,2025-07-09,合併による解散等,5190001020924,令和７年７月１日名古屋市中村区名駅一丁目１番１号ＪＰタワー名古屋１９Ｆアズサポート株式会社（5190001020924）に合併し解散,2023-08-09,1,,,,,エデル,0
1195,5200001004462,登記記録の閉鎖等,0,2025-08-07,2025-07-31,株式会社富士屋精肉,,株式会社,岐阜県,岐阜市,神田町６丁目１４番地,,21,201,5008833,,,2025-07-31,清算の結了等,,,2015-10-05,1,,,,,フジヤセイニク,0
1197,5230002009177,登記記録の閉鎖等,0,2025-08-07,2025-08-04,呉西運輸有限会社,,有限会社,富山県,砺波市,杉木１丁目１６５番地,,16,208,9391355,,,2025-08-04,清算の結了等,,,2015-10-05,1,,,,,ゴセイウンユ,0
1198,5240001022626,登記記録の閉鎖等,0,2025-08-07,2025-07-31,東広島開発株式会社,,株式会社,広島県,東広島市,三永３丁目１６番１２号,,34,212,7390026,,,2025-07-31,清算の結了等,,,2015-10-05,1,,,,,ヒガシヒロシマカイハツ,0
1202,5250001015232,登記記録の閉鎖等,0,2025-08-07,2025-08-01,株式会社ＫＡＩＫＡ,,株式会社,山口県,下関市,竹崎町４丁目２番３６号,,35,201,7500025,,,2025-08-01,清算の結了等,,,2015-10-05,1,,,,,カイカ,0
1241,5420002001239,登記記録の閉鎖等,0,2025-08-07,2025-07-29,有限会社佐藤保温,,有限会社,青森県,青森市,大字石江字江渡７５番地１,,02,201,0380003,,,2025-07-29,清算の結了等,,,2015-10-05,1,,,,,サトウホオン,0
1248,5460001001418,登記記録の閉鎖等,0,2025-08-07,2025-08-06,株式会社フジセクロス,,株式会社,北海道,釧路市,星が浦大通４丁目５番５１号,,01,206,0840912,,,2025-08-06,清算の結了等,,,2015-10-05,1,,,,,フジセクロス,0
1249,5460005000408,登記記録の閉鎖等,0,2025-08-07,2025-08-06,医療法人社団尾高歯科医院,,その他の設立登記法人,北海道,釧路市,入江町１５番３２号,,01,206,0850008,,,2025-08-06,清算の結了等,,,2015-10-05,1,,,,,オダカシカイイン,0
1253,5490001005382,登記記録の閉鎖等,0,2025-08-07,2025-08-01,株式会社西部レントオール,,株式会社,高知県,吾川郡いの町,波川５５７番地,,39,386,7812128,,,2025-08-01,合併による解散等,9490001006237,令和７年８月１日高知県南国市岡豊町小篭１５７番地１株式会社東部レントオール（9490001006237）に合併し解散,2015-10-05,1,,,,,セイブレントオール,0
1269,6010005031042,登記記録の閉鎖等,0,2025-08-07,2025-07-16,一般社団法人ロッキーゲートファイブ,,その他の設立登記法人,東京都,中央区,日本橋１丁目４番１号,,13,102,1030027,,,2025-07-16,清算の結了等,,,2019-11-13,1,,,,,ロッキーゲートファイブ,0
1283,6010403020282,登記記録の閉鎖等,0,2025-08-07,2025-07-10,羅臼ホールディングス合同会社,,合同会社,東京都,港区,西新橋１丁目１番１号ＥＰコンサルティングサービス内,,13,103,1050003,,,2025-07-10,清算の結了等,,,2019-02-28,1,,,,,ラウスホールディングス,0
1293,6010602013293,登記記録の閉鎖等,0,2025-08-07,2025-07-28,有限会社新村製作所,,有限会社,東京都,墨田区,東向島６丁目１６番５号,,13,107,1310032,,,2025-07-28,清算の結了等,,,2015-10-05,1,,,,,,0
1303,6011101007893,登記記録の閉鎖等,0,2025-08-07,2025-07-29,サトウ商事株式会社,,株式会社,埼玉県,所沢市,弥生町１７５５番地の９３,,11,208,3590043,,,2025-07-29,清算の結了等,,,2015-10-05,1,,,,,サトウショウジ,0
1311,6011503004456,登記記録の閉鎖等,0,2025-08-07,2025-07-07,ＲＥＦＬ合同会社,,合同会社,東京都,千代田区,内神田１丁目２番１５－９０５号,,13,101,1010047,,,2025-07-07,合併による解散等,7011503002830,令和７年７月１日東京都千代田区神田須田町一丁目７番８号ＶＯＲＴ秋葉原ＩＶ２Ｆｉｉｋｏ　ｏｆｆｉｃｅ合同会社（7011503002830）に合併し解散,2020-07-29,1,,,,,リフル,0
1330,6013301028364,登記記録の閉鎖等,0,2025-08-07,2025-07-09,ＷＴＢフーズ株式会社,,株式会社,東京都,文京区,本郷５丁目１番１１号ＫＩＩＨＯＵＳＥ２０２,,13,105,1130033,,,2025-07-09,清算の結了等,,,2015-10-05,1,,,,,ウィーティービーフーズ,0
1344,6030001024361,登記記録の閉鎖等,0,2025-08-07,2025-07-31,株式会社鈴木工務店,,株式会社,埼玉県,所沢市,旭町１４番１４号,,11,208,3590036,,,2025-07-31,清算の結了等,,,2015-10-05,1,,,,,スズキコウムテン,0
1352,6030002026695,登記記録の閉鎖等,0,2025-08-07,2025-08-04,有限会社エーストランスポート,,有限会社,東京都,足立区,千住４丁目６番１１号,,13,121,1200034,,,2025-08-04,清算の結了等,,,2015-10-05,1,,,,,エーストランスポート,0
1366,6060005004118,登記記録の閉鎖等,0,2025-08-07,2025-07-28,特定非営利活動法人キッズシェルター,,その他の設立登記法人,栃木県,那須塩原市,高柳２番地１２２,,09,213,3292707,,,2025-07-28,清算の結了等,,,2015-10-05,1,,,,,キッズシェルター,0
1368,6070001018822,登記記録の閉鎖等,0,2025-08-07,2025-07-31,株式会社エルム,,株式会社,群馬県,邑楽郡邑楽町,大字中野２８２２番地の５,,10,525,3700603,,,2025-07-31,清算の結了等,,,2015-10-05,1,,,,,エルム,0
1377,6090001018861,登記記録の閉鎖等,0,2025-08-07,2025-07-31,株式会社ＮＥＸＴ　ＷＡＹＳ,,株式会社,山梨県,南都留郡富士河口湖町,船津７１０５番地１,,19,430,4010301,,,2025-07-31,清算の結了等,,,2024-08-19,1,,,,,ネクストウェイズ,0
1378,6100001001923,登記記録の閉鎖等,0,2025-08-07,2025-08-05,玉井薬品株式会社,,株式会社,長野県,長野市,大字柳原字東囲２０８６番地の１,,20,201,3810012,,,2025-08-05,清算の結了等,,,2015-10-05,1,,,,,タマイヤクヒン,0
1382,6100002022332,登記記録の閉鎖等,0,2025-08-07,2025-07-30,有限会社花岡電子,,有限会社,長野県,東筑摩郡山形村,６０２４番地２,,20,450,3901301,,,2025-07-30,清算の結了等,,,2015-10-05,1,,,,,ハナオカデンシ,0
1383,6100002022423,登記記録の閉鎖等,0,2025-08-07,2025-08-04,有限会社高田コーキング,,有限会社,長野県,松本市,波田５７３５番地５,,20,202,3901401,,,2025-08-04,清算の結了等,,,2015-10-05,1,,,,,タカダコーキング,0
1384,6100002023033,登記記録の閉鎖等,0,2025-08-07,2025-07-30,有限会社あさひトレーディング,,有限会社,長野県,松本市,大字島立２６５番地２,,20,202,3900852,,,2025-07-30,清算の結了等,,,2015-10-05,1,,,,,アサヒトレーディング,0
1386,6120001148242,登記記録の閉鎖等,0,2025-08-07,2025-07-28,株式会社鶴保商店,,株式会社,大阪府,寝屋川市,八坂町２番３号,,27,215,5720838,,,2025-07-28,清算の結了等,,,2015-10-05,1,,,,,ツルホショウテン,0
1402,6120003014582,登記記録の閉鎖等,0,2025-08-07,2025-07-15,株式会社ＲＩＤＥ　ＩＴ,,株式会社,北海道,札幌市中央区,南二条西３丁目１３－４カタオカビル３Ｆ,,01,101,0600062,,,2025-07-15,清算の結了等,,,2018-08-06,1,,,,,ライドイット,0
1426,6130005015248,登記記録の閉鎖等,0,2025-08-07,2025-08-04,一般社団法人桃李教育会,,その他の設立登記法人,大阪府,大阪市中央区,南船場４丁目１０番５号南船場ＳＯＨＯビル７０２,,27,128,5420081,,,2025-08-04,清算の結了等,,,2018-03-19,1,,,,,トウリキョウイクカイ,0
1429,6140001083958,登記記録の閉鎖等,0,2025-08-07,2025-07-28,株式会社エイアールジェイ,,株式会社,兵庫県,西宮市,名塩南台４丁目１０番地１１,,28,204,6691132,,,2025-07-28,清算の結了等,,,2015-10-05,1,,,,,エイアールジェイ,0
1446,6160002005975,登記記録の閉鎖等,0,2025-08-07,2025-07-30,有限会社サンエイ化成,,有限会社,滋賀県,湖南市,日枝町４番地の２３,,25,211,5203203,,,2025-07-30,清算の結了等,,,2015-10-05,1,,,,,サンエイカセイ,0
1449,6180001115294,登記記録の閉鎖等,0,2025-08-07,2025-07-14,株式会社ＦＭオールスターズ,,株式会社,愛知県,名古屋市千種区,今池３丁目３５番１号,,23,101,4640850,,,2025-07-14,清算の結了等,,,2015-10-05,1,,,,,エフエムオールスターズ,0
1459,6210002009590,登記記録の閉鎖等,0,2025-08-07,2025-07-31,羽生塗装有限会社,,有限会社,福井県,大野市,中据第１５号８番地,,18,205,9120437,,,2025-07-31,清算の結了等,,,2015-10-05,1,,,,,ハニュウトソウ,0
1481,6290802010022,登記記録の閉鎖等,0,2025-08-07,2025-08-06,有限会社帆足鉄工所,00094444,有限会社,福岡県,北九州市門司区,葛葉３丁目７番１６号,,40,101,8000008,,,2025-08-06,清算の結了等,,,2015-10-05,1,,,,,ホアシテッコウショ,0
1497,6340002000727,登記記録の閉鎖等,0,2025-08-07,2025-07-23,有限会社あい観光,,有限会社,鹿児島県,鹿児島市,喜入瀬々串町３３０番地１,,46,201,8910201,,,2025-07-23,清算の結了等,,,2015-10-05,1,,,,,アイカンコウ,0
1498,6340002004364,登記記録の閉鎖等,0,2025-08-07,2025-07-24,有限会社佐藤建設,,有限会社,鹿児島県,鹿児島市,石谷町２０８６番地１９,,46,201,8992701,,,2025-07-24,清算の結了等,,,2015-10-05,1,,,,,サトウケンセツ,0
1508,6400002013326,登記記録の閉鎖等,0,2025-08-07,2025-07-14,楓有限会社,,有限会社,岩手県,久慈市,新中の橋第３７地割５９番地２４,,03,207,0280023,,,2025-07-14,清算の結了等,,,2015-10-05,1,,,,,,0
1511,6430001020477,登記記録の閉鎖等,0,2025-08-07,2025-07-16,株式会社ランドスケープ工業,,株式会社,北海道,札幌市西区,山の手二条６丁目６番１１号,,01,107,0630002,,,2025-07-16,清算の結了等,,,2015-10-05,1,,,,,ランドスケープコウギョウ,0
1512,6430001062156,登記記録の閉鎖等,0,2025-08-07,2025-07-17,株式会社パテラ,,株式会社,北海道,札幌市北区,百合が原３丁目１番２号,,01,102,0028081,,,2025-07-17,清算の結了等,,,2015-10-05,1,,,,,パテラ,0
1537,7010005031041,登記記録の閉鎖等,0,2025-08-07,2025-07-16,一般社団法人ロッキーゲートフォー,,その他の設立登記法人,東京都,中央区,日本橋１丁目４番１号,,13,102,1030027,,,2025-07-16,清算の結了等,,,2019-11-13,1,,,,,ロッキーゲートフォー,0
1549,7010502001034,登記記録の閉鎖等,0,2025-08-07,2025-07-24,有限会社イシイ,,有限会社,東京都,台東区,蔵前３丁目５番１号,,13,106,1110051,,,2025-07-24,清算の結了等,,,2015-10-05,1,,,,,イシイ,0
1550,7010502019381,登記記録の閉鎖等,0,2025-08-07,2025-07-14,有限会社みあき,,有限会社,千葉県,富津市,金谷２２０４番地７,,12,226,2991861,,,2025-07-14,清算の結了等,,,2015-10-05,1,,,,,ミアキ,0
1552,7010505002368,登記記録の閉鎖等,0,2025-08-07,2025-07-31,特定非営利活動法人日本輸出入業者協会,,その他の設立登記法人,東京都,足立区,佐野２丁目６－７,,13,121,1210053,,,2025-07-31,清算の結了等,,,2015-10-05,1,,,,,ニホンユシュツニュウギョウシャキョウカイ,0
1556,7010801030378,登記記録の閉鎖等,0,2025-08-07,2025-07-25,Ｓｏｐｈｅｒｒｅ株式会社,,株式会社,東京都,台東区,台東４丁目５番８号スペースヒロ３０１号室,,13,106,1100016,,,2025-07-25,清算の結了等,,,2019-11-19,1,,,,,ソフィール,0
1564,7011101110036,登記記録の閉鎖等,0,2025-08-07,2025-07-04,株式会社Ｒａｍｐａｌ　Ｌａｔｏｕｒ　Ｊａｐａｎ,,株式会社,東京都,新宿区,新宿１丁目４番１３号,,13,104,1600022,,,2025-07-04,清算の結了等,,,2024-12-24,1,,,,,ランパルラトゥールジャパン,0
1614,7050001019235,登記記録の閉鎖等,0,2025-08-07,2025-07-28,株式会社渡辺製茶工場,,株式会社,茨城県,古河市,上和田１０６番地,,08,204,3060122,,,2025-07-28,清算の結了等,,,2015-10-05,1,,,,,ワタナベセイチャコウジョウ,0
1618,7070001036674,登記記録の閉鎖等,0,2025-08-07,2025-07-31,株式会社ヤマタカ,,株式会社,群馬県,太田市,安養寺町２３４番地１,,10,205,3700422,,,2025-07-31,清算の結了等,,,2020-03-17,1,,,,,ヤマタカ,0
1620,7070002029578,登記記録の閉鎖等,0,2025-08-07,2025-07-31,有限会社十字屋薬局,,有限会社,群馬県,邑楽郡邑楽町,大字赤堀３９６９番地,,10,525,3700614,,,2025-07-31,清算の結了等,,,2015-10-05,1,,,,,ジュウジヤヤッキョク,0
1633,7110002015136,登記記録の閉鎖等,0,2025-08-07,2025-07-14,有限会社下町商栄,,有限会社,新潟県,新発田市,日渡１１２番地,,15,206,9570072,,,2025-07-14,合併による解散等,2011602000624,令和７年７月１４日新潟県新発田市日渡１１２番地株式会社あやめ商事（2011602000624）に合併し解散,2015-10-05,1,,,,,シモマチショウエイ,0
1634,7110005006215,登記記録の閉鎖等,0,2025-08-07,2025-07-11,医療法人社団浩純会,,その他の設立登記法人,新潟県,燕市,殿島２丁目７０９１番地２,,15,213,9591233,,,2025-07-11,清算の結了等,,,2015-10-05,1,,,,,コウジュンカイ,0
1635,7120001027478,登記記録の閉鎖等,0,2025-08-07,2025-07-29,株式会社サンコー商会,,株式会社,大阪府,大阪市大正区,南恩加島３丁目８番１２－６０５号,,27,108,5510021,,,2025-07-29,清算の結了等,,,2015-10-05,1,,,,,,0
1637,7120001131800,登記記録の閉鎖等,0,2025-08-07,2025-07-16,株式会社大阪アドネット,,株式会社,大阪府,大阪市中央区,玉造１丁目２２番２０号,,27,128,5400004,,,2025-07-16,清算の結了等,,,2015-10-05,1,,,,,オオサカアドネット,0
1664,7140001026420,登記記録の閉鎖等,0,2025-08-07,2025-08-01,株式会社大成バインダリー,,株式会社,兵庫県,神戸市兵庫区,和田山通１丁目２番２５号神戸市ものづくり復興工場Ｄ棟５１６,,28,105,6520884,,,2025-08-01,清算の結了等,,,2015-10-05,1,,,,,,0
1665,7140001048539,登記記録の閉鎖等,0,2025-08-07,2025-08-04,尼崎ホテル開発株式会社,,株式会社,兵庫県,尼崎市,潮江１丁目４番１号,,28,202,6610976,,,2025-08-04,合併による解散等,6130001017504,令和７年７月１日京都市下京区烏丸通塩小路下る東塩小路町９０１番地株式会社ジェイアール西日本ホテル開発（6130001017504）に合併し解散,2015-10-05,1,,,,,アマガサキホテルカイハツ,0
1676,7140002010670,登記記録の閉鎖等,0,2025-08-07,2025-07-30,有限会社青木通信設備,,有限会社,兵庫県,神戸市兵庫区,笠松通５丁目５番２号,,28,105,6520864,,,2025-07-30,清算の結了等,,,2015-10-05,1,,,,,アオキツウシンセツビ,0
1685,7180001114254,登記記録の閉鎖等,0,2025-08-07,2025-07-14,株式会社中部メンテナンス,,株式会社,愛知県,名古屋市南区,豊４丁目３番１５号,,23,112,4570863,,,2025-07-14,清算の結了等,,,2015-10-05,1,,,,,チュウブメンテナンス,0
1686,7180001114824,登記記録の閉鎖等,0,2025-08-07,2025-07-11,株式会社日本創研システム,,株式会社,愛知県,名古屋市中区,丸の内１丁目１７番１９号,,23,106,4600002,,,2025-07-11,合併による解散等,2180001047855,令和７年７月１日名古屋市天白区平針二丁目１８０９番地株式会社コスモテレコム（2180001047855）に合併し解散,2015-10-05,1,,,,,ニホンソウケンシステム,0
1724,7290002004567,登記記録の閉鎖等,0,2025-08-07,2025-07-22,有限会社亀屋物産,,有限会社,福岡県,福岡市東区,松島４丁目９番３９号,,40,131,8130062,,,2025-07-22,清算の結了等,,,2015-10-05,1,,,,,カメヤブッサン,0
1738,7350002006301,登記記録の閉鎖等,0,2025-08-07,2025-07-31,有限会社豊味屋,,有限会社,宮崎県,宮崎市,青葉町１４５番地３,,45,201,8800842,,,2025-07-31,清算の結了等,,,2015-10-05,1,,,,,ホウミヤ,0
1762,7450002009608,登記記録の閉鎖等,0,2025-08-07,2025-08-01,有限会社ロード,,有限会社,北海道,富良野市,西町２番５１号,,01,229,0760037,,,2025-08-01,清算の結了等,,,2015-10-05,1,,,,,ロード,0
1764,7470001011595,登記記録の閉鎖等,0,2025-08-07,2025-08-04,株式会社石文舎,,株式会社,香川県,東かがわ市,引田１３８番地９,,37,207,7692901,,,2025-08-04,清算の結了等,,,2015-10-05,1,,,,,セキブンシャ,0
1769,8010001165008,登記記録の閉鎖等,0,2025-08-07,2025-07-09,Ａｃｅ　Ａｓｉａ　Ａｇｅｎｃｙ株式会社,,株式会社,東京都,中央区,東日本橋１丁目１番７号,,13,102,1030004,,,2025-07-09,清算の結了等,,,2015-10-05,1,,,,,エースアジアエージェンシー,0
1777,8010005031040,登記記録の閉鎖等,0,2025-08-07,2025-07-16,一般社団法人ロッキーゲートスリー,,その他の設立登記法人,東京都,中央区,日本橋１丁目４番１号,,13,102,1030027,,,2025-07-16,清算の結了等,,,2019-11-13,1,,,,,ロッキーゲートスリー,0
1787,8010405017036,登記記録の閉鎖等,0,2025-08-07,2025-07-10,一般社団法人松尾榮光会,,その他の設立登記法人,東京都,港区,芝浦４丁目１９番１－２０１号,,13,103,1080023,,,2025-07-10,清算の結了等,,,2018-09-04,1,,,,,マツオエイコウカイ,0
1789,8010601028084,登記記録の閉鎖等,0,2025-08-07,2025-07-28,新益物産株式会社,,株式会社,東京都,江東区,木場６丁目７番１６号,,13,108,1350042,,,2025-07-28,清算の結了等,,,2015-10-05,1,,,,,シンエキブッサン,0
1802,8011101002141,登記記録の閉鎖等,0,2025-08-07,2025-07-22,株式会社イフ・フォーラム,,株式会社,東京都,練馬区,田柄２丁目４９番１０号,,13,120,1790073,,,2025-07-22,清算の結了等,,,2015-10-05,1,,,,,イフフォーラム,0
1806,8011101071491,登記記録の閉鎖等,0,2025-08-07,2025-07-24,株式会社エデュート,,株式会社,神奈川県,横浜市都筑区,仲町台１丁目２－２３－６０２,,14,118,2240041,,,2025-07-24,清算の結了等,,,2015-10-05,1,,,,,エデュート,0
1813,8011501009760,登記記録の閉鎖等,0,2025-08-07,2025-08-01,下田商事株式会社,,株式会社,東京都,荒川区,町屋２丁目２０番１４号,,13,118,1160001,,,2025-08-01,清算の結了等,,,2015-10-05,1,,,,,シモダショウジ,0
1821,8011701019353,登記記録の閉鎖等,0,2025-08-07,2025-07-31,株式会社スギサワ,,株式会社,東京都,江戸川区,中央２丁目１７番２９号,,13,123,1320021,,,2025-07-31,清算の結了等,,,2015-10-23,1,,,,,スギサワ,0
1822,8011801032693,登記記録の閉鎖等,0,2025-08-07,2025-08-01,株式会社ＴＳビルディ,,株式会社,東京都,足立区,西綾瀬２丁目４番１号,,13,121,1200014,,,2025-08-01,合併による解散等,3011801009721,令和７年８月１日東京都足立区西綾瀬二丁目４番１号田中商事株式会社（3011801009721）に合併し解散,2016-12-21,1,,,,,ティーエスビルディ,0
1825,8012301005644,登記記録の閉鎖等,0,2025-08-07,2025-07-31,ナカキンリース株式会社,,株式会社,山梨県,南アルプス市,上高砂７６５番地,,19,208,4000201,,,2025-07-31,清算の結了等,,,2015-10-05,1,,,,,ナカキンリース,0
1856,8021001056955,登記記録の閉鎖等,0,2025-08-07,2025-07-22,株式会社プラスワン,,株式会社,神奈川県,横浜市西区,高島２丁目１１番２号,,14,103,2200011,,,2025-07-22,清算の結了等,,,2015-10-05,1,,,,,プラスワン,0
1875,8040003008582,登記記録の閉鎖等,0,2025-08-07,2025-07-08,アンフェミエ合同会社,,合同会社,千葉県,鎌ケ谷市,南初富６丁目１番７号,,12,224,2730123,,,2025-07-08,清算の結了等,,,2016-05-13,1,,,,,アンフェミエ,0
1884,8080402004600,登記記録の閉鎖等,0,2025-08-07,2025-08-01,有限会社大進産業,,有限会社,静岡県,浜松市中央区,安間町７１５番地,,22,138,4350012,,,2025-08-01,清算の結了等,,,2015-10-05,1,,,,,ダイシンサンギョウ,0
1888,8100001026324,登記記録の閉鎖等,0,2025-08-07,2025-08-04,株式会社カスケード資源研究所,,株式会社,長野県,東筑摩郡山形村,清水高原７５９９番地１４,,20,450,3901301,,,2025-08-04,清算の結了等,,,2015-10-05,1,,,,,カスケードシゲンケンキュウジョ,0
1896,8120001243941,登記記録の閉鎖等,0,2025-08-07,2025-07-16,株式会社Ｇａｉａ,,株式会社,大阪府,大阪市中央区,農人橋３丁目２番７号,,27,128,5400011,,,2025-07-16,清算の結了等,,,2022-02-21,1,,,,,ガイア,0
1931,8190001030128,登記記録の閉鎖等,0,2025-08-07,2025-07-31,株式会社大志,,株式会社,三重県,鈴鹿市,野町西２丁目８番３１号,,24,207,5100218,,,2025-07-31,清算の結了等,,,2023-01-30,1,,,,,ダイシ,0
1933,8190002013800,登記記録の閉鎖等,0,2025-08-07,2025-07-30,有限会社葛西設備工業,,有限会社,三重県,松阪市,塚本町１９５番地,,24,204,5150811,,,2025-07-30,清算の結了等,,,2015-10-05,1,,,,,カッサイセツビコウギョウ,0
1944,8250002008587,登記記録の閉鎖等,0,2025-08-07,2025-08-05,有限会社鼎商会,,有限会社,山口県,下関市,王司神田６丁目３番３５号,,35,201,7520911,,,2025-08-05,清算の結了等,,,2015-10-05,1,,,,,,0
1948,8290001051824,登記記録の閉鎖等,0,2025-08-07,2025-08-04,株式会社ジェイエムエル,,株式会社,福岡県,久留米市,百年公園１番１号福岡バイオインキュベーションセンター,,40,203,8390864,,,2025-08-04,合併による解散等,9330001018363,令和７年７月１０日熊本市中央区帯山四丁目１７番１号株式会社再春館安心安全研究所（9330001018363）に合併し解散,2015-10-05,1,,,,,ジェイエムエル,0
1964,8330001020312,登記記録の閉鎖等,0,2025-08-07,2025-07-22,株式会社ＲＯＣＯＣＯ,,株式会社,熊本県,熊本市東区,長嶺東８丁目１３番４５号,,43,102,8618038,,,2025-07-22,清算の結了等,,,2015-10-05,1,,,,,,0
1979,8400002004901,登記記録の閉鎖等,0,2025-08-07,2025-07-15,有限会社阿部設計事務所,,有限会社,岩手県,盛岡市,中ノ橋通１丁目１１番１０－６０３号,,03,201,0200871,,,2025-07-15,清算の結了等,,,2015-10-05,1,,,,,アベセッケイジムショ,0
1983,8420005003584,登記記録の閉鎖等,0,2025-08-07,2025-07-02,株式会社西北総合ドライクリーニングセンター,,株式会社,青森県,五所川原市,大字小曲字豊里７番地２,,02,205,0370076,,,2025-07-02,合併による解散等,4420001005357,令和７年７月１日青森市南佃二丁目２６番６号株式会社東洋社（4420001005357）に合併し解散,2015-10-05,1,,,,,セイホクソウゴウドライクリーニングセンター,0
1993,8450003002354,登記記録の閉鎖等,0,2025-08-07,2025-08-01,ｇｒｅｅｎ　ｐｅａｃｅ不動産合同会社,,合同会社,北海道,旭川市,旭神三条４丁目７番９号,,01,204,0788373,,,2025-08-01,清算の結了等,,,2023-07-07,1,,,,,グリーンピースフドウサン,0
2021,9010601063915,登記記録の閉鎖等,0,2025-08-07,2025-07-30,株式会社ローカルＷｅｂ３,,株式会社,東京都,江東区,平野３丁目２番１５－６０４号,,13,108,1350023,,,2025-07-30,清算の結了等,,,2023-10-05,1,,,,,ローカルウェブスリー,0
2023,9010701003572,登記記録の閉鎖等,0,2025-08-07,2025-08-04,株式会社サエグサ,,株式会社,東京都,品川区,荏原６丁目１９番１３号９０１グランシティユーローレジデンス品川の杜,,13,109,1420063,,,2025-08-04,清算の結了等,,,2015-10-05,1,,,,,サエグサ,0
2030,9010901000452,登記記録の閉鎖等,0,2025-08-07,2025-08-05,アサクラハウス株式会社,,株式会社,東京都,世田谷区,奥沢１丁目５８番８号,,13,112,1580083,,,2025-08-05,清算の結了等,,,2015-10-05,1,,,,,アサクラハウス,0
2032,9011001001903,登記記録の閉鎖等,0,2025-08-07,2025-07-02,株式会社旭エステート,,株式会社,東京都,渋谷区,宇田川町３３番７号,,13,113,1500042,,,2025-07-02,清算の結了等,,,2025-04-02,1,,,,,アサヒエステート,0
2036,9011001055081,登記記録の閉鎖等,0,2025-08-07,2025-07-07,株式会社コントン,,株式会社,東京都,渋谷区,神宮前６丁目２３番４号桑野ビル２階,,13,113,1500001,,,2025-07-07,清算の結了等,,,2015-10-05,1,,,,,コントン,0
2053,9011801001739,登記記録の閉鎖等,0,2025-08-07,2025-08-01,株式会社酒井製作所,,株式会社,東京都,葛飾区,宝町２丁目２３番５－５０１号,,13,122,1240005,,,2025-08-01,清算の結了等,,,2015-10-05,1,,,,,サカイセイサクジョ,0
2055,9011801041339,登記記録の閉鎖等,0,2025-08-07,2025-08-04,株式会社ソルナテル,,株式会社,東京都,足立区,梅田３丁目２３番３号,,13,121,1230851,,,2025-08-04,清算の結了等,,,2022-09-30,1,,,,,ソルナテル,0
2077,9021002060625,登記記録の閉鎖等,0,2025-08-07,2025-07-28,有限会社マルジン,,有限会社,神奈川県,中郡大磯町,高麗１丁目３番２０号,,14,341,2550001,,,2025-07-28,清算の結了等,,,2015-10-05,1,,,,,マルジン,0
2082,9030001022016,登記記録の閉鎖等,0,2025-08-07,2025-08-01,株式会社ブルーリボンジャパンリミテッド,,株式会社,埼玉県,戸田市,川岸２丁目２番１－７０１号,,11,224,3350015,,,2025-08-01,清算の結了等,,,2015-10-05,1,,,,,ブルーリボンジャパンリミテッド,0
2096,9030002084880,登記記録の閉鎖等,0,2025-08-07,2025-07-31,有限会社あるた,,有限会社,埼玉県,越谷市,東越谷８丁目３番地２グリーンフィールドＢ－２０１,,11,222,3430023,,,2025-07-31,清算の結了等,,,2015-10-05,1,,,,,アルタ,0
2098,9030003002750,登記記録の閉鎖等,0,2025-08-07,2025-07-31,合名会社春蔵絵具,,合名会社,埼玉県,入間郡三芳町,大字竹間沢３２４番地６,,11,324,3540043,,,2025-07-31,清算の結了等,,,2015-10-05,1,,,,,ハルゾウエノグ,0
2101,9040001016066,登記記録の閉鎖等,0,2025-08-07,2025-07-14,株式会社ワイエスコーポレーション,,株式会社,千葉県,千葉市花見川区,横戸町１５６９番地３１,,12,102,2620001,,,2025-07-14,清算の結了等,,,2015-10-05,1,,,,,ワイエスコーポレーション,0
2124,9090002014064,登記記録の閉鎖等,0,2025-08-07,2025-07-31,有限会社翁,,有限会社,山梨県,北杜市,長坂町中丸２２０５番地,,19,209,4080036,,,2025-07-31,清算の結了等,,,2015-10-05,1,,,,,オキナ,0
2125,9100005007030,登記記録の閉鎖等,0,2025-08-07,2025-08-01,一般社団法人南信読売会,,その他の設立登記法人,長野県,松本市,大手３丁目５番２０号,,20,202,3900874,,,2025-08-01,合併による解散等,5100005002274,令和７年８月１日長野県松本市大手三丁目５番２０号一般社団法人長野県読売会（5100005002274）に合併し解散,2015-10-05,1,,,,,ナンシンヨミウリカイ,0
2129,9120001114480,登記記録の閉鎖等,0,2025-08-07,2025-07-16,株式会社水谷製作所,,株式会社,大阪府,大阪市平野区,喜連１丁目１番２４号,,27,126,5470027,,,2025-07-16,清算の結了等,,,2015-10-05,1,,,,,ミズタニセイサクショ,0
2147,9120901027559,登記記録の閉鎖等,0,2025-08-07,2025-07-18,株式会社ＭＯＳテクノコーポレイション,,株式会社,大阪府,豊中市,上新田１丁目２４番Ｂ－３１１号,,27,203,5600085,,,2025-07-18,清算の結了等,,,2015-10-05,1,,,,,モステクノコーポレイション,0
2149,9122001008340,登記記録の閉鎖等,0,2025-08-07,2025-07-31,真政モーターサービス株式会社,,株式会社,大阪府,東大阪市,川俣１丁目８番１５号,,27,227,5770063,,,2025-07-31,清算の結了等,,,2015-10-05,1,,,,,シンセイモーターサービス,0
2161,9140001102194,登記記録の閉鎖等,0,2025-08-07,2025-07-30,ヒビキ株式会社,,株式会社,兵庫県,丹波篠山市,八上上８３番地１,,28,221,6692446,,,2025-07-30,清算の結了等,,,2016-05-30,1,,,,,ヒビキ,0
2167,9140002028868,登記記録の閉鎖等,0,2025-08-07,2025-07-31,有限会社山栄商事,,有限会社,兵庫県,明石市,大蔵中町８番１７号,,28,203,6730873,,,2025-07-31,清算の結了等,,,2015-10-05,1,,,,,サンエイショウジ,0
2177,9190002008857,登記記録の閉鎖等,0,2025-08-07,2025-07-31,有限会社サム・アウトソーシング,,有限会社,三重県,伊勢市,船江３丁目６番９号,,24,203,5160008,,,2025-07-31,清算の結了等,,,2015-10-05,1,,,,,サムアウトソーシング,0
2178,9190002017189,登記記録の閉鎖等,0,2025-08-07,2025-08-01,有限会社マツヤ,,有限会社,三重県,いなべ市,北勢町北中津原９３番地,,24,214,5110422,,,2025-08-01,清算の結了等,,,2015-10-05,1,,,,,マツヤ,0
2203,9290805007731,登記記録の閉鎖等,0,2025-08-07,2025-08-05,学校法人宮城学園,,その他の設立登記法人,福岡県,田川郡添田町,大字添田１３５３番地の２,,40,602,8240602,,,2025-08-05,清算の結了等,,,2015-10-05,1,,,,,ミヤギガクエン,0
2204,9300001004911,登記記録の閉鎖等,0,2025-08-07,2025-08-01,河谷蒲鉾株式会社,,株式会社,佐賀県,鹿島市,大字高津原３７１７番地１２,,41,207,8491311,,,2025-08-01,清算の結了等,,,2015-10-05,1,,,,,カワタニカマボコ,0
2205,9300005007159,登記記録の閉鎖等,0,2025-08-07,2025-08-01,一般社団法人岳乃百姓一揆,,その他の設立登記法人,佐賀県,西松浦郡有田町,丸尾２６７１,,41,401,8440023,,,2025-08-01,清算の結了等,,,2023-10-19,1,,,,,タケノヒャクショウイッキ,0
2213,9340001017141,登記記録の閉鎖等,0,2025-08-07,2025-07-22,株式会社コンストラクト,,株式会社,鹿児島県,薩摩川内市,矢倉町４４３５番地１,,46,215,8950036,,,2025-07-22,清算の結了等,,,2015-10-05,1,,,,,コンストラクト,0
2240,9460301004884,登記記録の閉鎖等,0,2025-08-07,2025-07-15,北海グルメ本舗株式会社,,株式会社,北海道,札幌市中央区,南二条西７丁目８番２号南２条ビル９０２号,,01,101,0600062,,,2025-07-15,清算の結了等,,,2020-06-09,1,,,,,ホッカイグルメホンポ,0
