sequenceNumber,corporateNumber,process,correct,updateDate,changeDate,name,nameImageId,kind,prefectureName,cityName,streetNumber,addressImageId,prefectureCode,cityCode,postCode,addressOutside,addressOutsideImageId,closeDate,closeCause,successorCorporateNumber,changeCause,assignmentDate,latest,enName,enPrefectureName,enCityName,enAddressOutside,furigana,hihyoji
9,1010001245344,新規,0,2024-06-03,2024-06-03,株式会社クラップボルデ,,株式会社,東京都,千代田区,丸の内２丁目２番１号岸本ビルヂング６階,,13,101,1000005,,,,,,,2024-06-03,1,,,,,クラップボルデ,0
10,1010001245360,新規,0,2024-06-03,2024-06-03,株式会社Ｕｐｆｅｅｌ,,株式会社,東京都,中央区,日本橋室町１丁目１１－１２日本橋水野ビル７階,,13,102,1030022,,,,,,,2024-06-03,1,,,,,アップフィール,0
22,1010401182831,新規,0,2024-06-03,2024-06-03,アサヒ機装ホールディングス株式会社,,株式会社,東京都,港区,高輪３丁目２４番１６号,,13,103,1080074,,,,,,,2024-06-03,1,,,,,アサヒキソウホールディングス,0
26,1010601065308,新規,0,2024-06-03,2024-06-03,株式会社門仲ＢＡＳＥ,,株式会社,東京都,江東区,富岡１丁目９番６号Ｗ門前仲町ステーション１,,13,108,1350047,,,,,,,2024-06-03,1,,,,,モンナカベース,0
27,1010703007199,新規,0,2024-06-03,2024-06-03,アニマライズ・ジャパン合同会社,,合同会社,東京都,品川区,東大井３丁目８番１２号ディームス大井町フォレスト４０２,,13,109,1400011,,,,,,,2024-06-03,1,,,,,アニマライズジャパン,0
28,1010801035110,新規,0,2024-06-03,2024-06-03,株式会社ＮｅｏＬｉｎｋｓ,,株式会社,東京都,大田区,中央６丁目２７番３号（１階）,,13,111,1430024,,,,,,,2024-06-03,1,,,,,ネオリンクス,0
44,1011801044316,新規,0,2024-06-03,2024-06-03,株式会社ＨＴＭオートガラス,,株式会社,東京都,足立区,舎人１丁目１－１５,,13,121,1210831,,,,,,,2024-06-03,1,,,,,エイチティーエムオートガラス,0
45,1011801044324,新規,0,2024-06-03,2024-06-03,株式会社ＬＥＧＡＬＩＡ,,株式会社,東京都,足立区,新田１丁目８－２３レーベンスクエアリハート東京１５０６,,13,121,1230865,,,,,,,2024-06-03,1,,,,,レガリア,0
47,1012305002090,新規,0,2024-06-03,2024-06-03,一般社団法人Ｍａｋａｎａ　ｐｒｏｄｕｃｅ,,その他の設立登記法人,東京都,町田市,南成瀬６丁目８番地５東芳ハイツ３－１,,13,209,1940045,,,,,,,2024-06-03,1,,,,,マカナプロデュース,0
50,1012801023227,新規,0,2024-06-03,2024-06-03,株式会社ｕｓｕａｑｔ．,,株式会社,東京都,立川市,曙町１丁目５番６号ブルエ立川３０２,,13,202,1900012,,,,,,,2024-06-03,1,,,,,ユージュアクト,0
51,1013301052591,新規,0,2024-06-03,2024-06-03,進技株式会社,,株式会社,東京都,豊島区,長崎３丁目９番１０－３０１号,,13,116,1710051,,,,,,,2024-06-03,1,,,,,シンギ,0
64,1020001157522,新規,0,2024-06-03,2024-06-03,北沢技研株式会社,,株式会社,神奈川県,横浜市青葉区,青葉台１丁目１９番地２７,,14,117,2270062,,,,,,,2024-06-03,1,,,,,キタザワギケン,0
65,1020001157530,新規,0,2024-06-03,2024-06-03,株式会社Ｔ‐ＳＴＹＬＥ,,株式会社,神奈川県,横浜市神奈川区,神大寺４丁目１８番４号パークヒル神大寺４０５号,,14,102,2210801,,,,,,,2024-06-03,1,,,,,ティースタイル,0
68,1020003026262,新規,0,2024-06-03,2024-06-03,Ｐｌａｎｅｔ　Ｇｏｕｒｍｅｔ　Ｃｒｅａｔｉｏｎ合同会社,,合同会社,神奈川県,横浜市西区,浅間町１丁目４－３－４０２,,14,103,2200072,,,,,,,2024-06-03,1,,,,,プラネットグルメクリエーション,0
85,1030001160673,新規,0,2024-06-03,2024-06-03,株式会社ＯＨＡＮＡＭＡＨＡＲＯ,,株式会社,埼玉県,加須市,戸室１００番地１,,11,210,3470116,,,,,,,2024-06-03,1,,,,,オハナマハロ,0
106,1050001054857,新規,0,2024-06-03,2024-06-03,株式会社プロジェクトメンターコンサルティング,,株式会社,茨城県,ひたちなか市,大字市毛９３５番地１７,,08,221,3120033,,,,,,,2024-06-03,1,,,,,プロジェクトメンターコンサルティング,0
107,1060005010211,新規,0,2024-06-03,2024-06-03,コマドリ協同組合,,その他の設立登記法人,栃木県,小山市,東城南４丁目９番地３,,09,208,3230829,,,,,,,2024-06-03,1,,,,,コマドリ,0
109,1080001026325,新規,0,2024-06-03,2024-06-03,株式会社ＧＧＩ,,株式会社,静岡県,牧之原市,仁田６１６番地４,,22,226,4210413,,,,,,,2024-06-03,1,,,,,ジージーアイ,0
114,1080101024773,新規,0,2024-06-03,2024-06-03,株式会社ＬＥＰウェルネスマネジメント,,株式会社,静岡県,伊豆の国市,田中山１７３０番地,,22,225,4102301,,,,,,,2024-06-03,1,,,,,エルイーピーウェルネスマネジメント,0
117,1090001018742,新規,0,2024-06-03,2024-06-03,株式会社新田商店,,株式会社,山梨県,甲州市,勝沼町休息１５６０番地,,19,213,4091304,,,,,,,2024-06-03,1,,,,,ニッタショウテン,0
133,1120103005866,新規,0,2024-06-03,2024-06-03,合同会社リベライズ,,合同会社,大阪府,松原市,立部１丁目１２１番地の３６,,27,217,5800012,,,,,,,2024-06-03,1,,,,,リベライズ,0
134,1120901049255,新規,0,2024-06-03,2024-06-03,株式会社日通国際,,株式会社,大阪府,茨木市,下井町２番９号,,27,211,5670066,,,,,,,2024-06-03,1,,,,,ニッツウコクサイ,0
135,1120901049263,新規,0,2024-06-03,2024-06-03,株式会社ＥＳＰＯＩＲ,,株式会社,大阪府,吹田市,泉町１丁目２２番２２号,,27,205,5640041,,,,,,,2024-06-03,1,,,,,エスポワール,0
137,1122001038139,新規,0,2024-06-03,2024-06-03,株式会社ＳＰＩＮＡＬＩＮＫ,,株式会社,大阪府,東大阪市,吉田本町３丁目５番１２－７０３号,,27,227,5780982,,,,,,,2024-06-03,1,,,,,スパイナリンク,0
141,1130001077164,新規,0,2024-06-03,2024-06-03,株式会社ｉｎｃｅｐｔｉｏｎ,,株式会社,京都府,京都市西京区,桂野里町４１－５６－４０３,,26,111,6158073,,,,,,,2024-06-03,1,,,,,インセプション,0
162,1180001161764,新規,0,2024-06-03,2024-06-03,株式会社Ｍｕｎｉ　ａｎｄ　Ｃｏｍｐａｎｙ,,株式会社,愛知県,名古屋市北区,黒川本通２丁目２８レジデンス黒龍１０３号,,23,103,4620841,,,,,,,2024-06-03,1,,,,,ムニアンドカンパニー,0
163,1180301038687,新規,0,2024-06-03,2024-06-03,株式会社ＫＳ０２,,株式会社,愛知県,刈谷市,原崎町６丁目７０９番地,,23,210,4480039,,,,,,,2024-06-03,1,,,,,ケーエスゼロニ,0
168,1210003001799,新規,0,2024-06-03,2024-06-03,合同会社ｋａ‐ｓａ,,合同会社,福井県,鯖江市,柳町４丁目１１－１８メイプルＩ．２０４,,18,207,9160047,,,,,,,2024-06-03,1,,,,,カサ,0
183,1250005008921,新規,0,2024-06-03,2024-06-03,社会保険労務士法人ＳＲオアシス,,その他の設立登記法人,山口県,防府市,大字高井１１４３番地の１,,35,206,7470064,,,,,,,2024-06-03,1,,,,,エスアールオアシス,0
184,1260001039119,新規,0,2024-06-03,2024-06-03,株式会社ＲＡＮＧＥ　ＳＹＳＴＥＭＳ,,株式会社,岡山県,岡山市北区,今４丁目９ー７ー１０３,,33,101,7000975,,,,,,,2024-06-03,1,,,,,レンジシステムス,0
186,1270003001629,新規,0,2024-06-03,2024-06-03,ランドユーズ合同会社,,合同会社,鳥取県,米子市,葭津１５０８－７,,31,202,6830105,,,,,,,2024-06-03,1,,,,,ランドユーズ,0
192,1290001105982,新規,0,2024-06-03,2024-06-03,株式会社食ＬＡＢＯ,,株式会社,福岡県,福岡市中央区,梅光園１丁目３－１サンフラワー梅光園３０２,,40,133,8100035,,,,,,,2024-06-03,1,,,,,ショクラボ,0
196,1290003015387,新規,0,2024-06-03,2024-06-03,合同会社エクセンド,,合同会社,福岡県,福岡市博多区,博多駅前１丁目２３番２号ＰａｒｋＦｒｏｎｔ博多駅前１丁目５Ｆ－Ｂ,,40,132,8120011,,,,,,,2024-06-03,1,,,,,エクセンド,0
198,1300001013754,新規,0,2024-06-03,2024-06-03,ＮＧＳ株式会社,,株式会社,佐賀県,小城市,牛津町上砥川５８番地１０,,41,208,8490305,,,,,,,2024-06-03,1,,,,,エヌジーエス,0
202,1320001020492,新規,0,2024-06-03,2024-06-03,株式会社アルクスィエル,,株式会社,大分県,大分市,大字葛木３１９番地の８,,44,201,8700133,,,,,,,2024-06-03,1,,,,,アルクスィエル,0
203,1320003004378,新規,0,2024-06-03,2024-06-03,合同会社ワンフォオール,,合同会社,大分県,宇佐市,大字住江６３５番地の１５６,,44,211,8720044,,,,,,,2024-06-03,1,,,,,ワンフォオール,0
205,1330001032116,新規,0,2024-06-03,2024-06-03,株式会社ココロザシ,,株式会社,熊本県,八代市,高島町４１６７番地１（ＩＩ１０３）,00134993,43,202,8660014,,,,,,,2024-06-03,1,,,,,ココロザシ,0
208,1340001026546,新規,0,2024-06-03,2024-06-03,株式会社ｕｎｉｓａｌｅｓ,,株式会社,鹿児島県,鹿屋市,郷之原町１２３６９番地４,,46,203,8930065,,,,,,,2024-06-03,1,,,,,ユニセールス,0
214,1360003014035,新規,0,2024-06-03,2024-06-03,合同会社ＥＴＥＲＮＡＬ,,合同会社,沖縄県,島尻郡与那原町,字与那原１２８２番地の６,,47,348,9011303,,,,,,,2024-06-03,1,,,,,エターナル,0
215,1360005007045,新規,0,2024-06-03,2024-06-03,特定非営利活動法人空き家・空き地問題サポートセンター沖縄,,その他の設立登記法人,沖縄県,那覇市,首里山川町３丁目５３－２６－２階,,47,201,9030825,,,,,,,2024-06-03,1,,,,,アキヤアキチモンダイサポートセンターオキナワ,0
219,1410001013842,新規,0,2024-06-03,2024-06-03,株式会社わいわい,,株式会社,秋田県,秋田市,中通６丁目１２番１３号,,05,201,0100001,,,,,,,2024-06-03,1,,,,,ワイワイ,0
223,1430003016395,新規,0,2024-06-03,2024-06-03,合同会社Ｓｔｅｌｌａ,,合同会社,北海道,札幌市東区,北三十条東１丁目２番１１号,,01,103,0650030,,,,,,,2024-06-03,1,,,,,ステラ,0
232,1500001025663,新規,0,2024-06-03,2024-06-03,新浜株式会社,,株式会社,愛媛県,新居浜市,繁本町１－８,,38,205,7920023,,,,,,,2024-06-03,1,,,,,シンハマ,0
239,1700150125715,新規,0,2024-06-03,2024-06-03,Ｓｏｕｎｄｔｏｙｓ，Ｉｎｃ．,,外国会社等,,,,,,,,２２５　Ｃｈｕｒｃｈ　Ｓｔ．Ｂｕｒｌｉｎｇｔｏｎ　０５４０１　ＵＳＡ,,,,,,2024-06-03,1,,,,,サウンドトイズインク,0
247,2010001245335,新規,0,2024-06-03,2024-06-03,株式会社大志,,株式会社,東京都,中央区,銀座１丁目２２番１１号銀座大竹ビジデンス２Ｆ,,13,102,1040061,,,,,,,2024-06-03,1,,,,,タイシ,0
249,2010005038371,新規,0,2024-06-03,2024-06-03,ＯＳＪ　ＮＩＩＧＡＴＡ特定目的会社,,その他の設立登記法人,東京都,千代田区,丸の内３丁目１番１号東京共同会計事務所内,,13,101,1000005,,,,,,,2024-06-03,1,,,,,オーエスジェイニイガタ,0
258,2010401182847,新規,0,2024-06-03,2024-06-03,Ａｃｔｏｎ　Ｄｉｇｉｐｕｌｓｅ　Ｊａｐａｎ株式会社,,株式会社,東京都,港区,赤坂２丁目１４番１１号,,13,103,1070052,,,,,,,2024-06-03,1,,,,,アクトンデジパルスジャパン,0
262,2010501052388,新規,0,2024-06-03,2024-06-03,株式会社グラン,,株式会社,東京都,台東区,駒形１丁目７番１１号東武浅草駒形ビル６Ｆ,,13,106,1110043,,,,,,,2024-06-03,1,,,,,グラン,0
267,2010603010871,新規,0,2024-06-03,2024-06-03,合同会社Ｎａｔｈｔｈａｎｄｉｇｅ　Ｉｎｔｅｒｎａｔｉｏｎａｌ,,合同会社,東京都,墨田区,立花４丁目１９番２号,,13,107,1310043,,,,,,,2024-06-03,1,,,,,ナターリゲインターナショナル,0
278,2011003019306,新規,0,2024-06-03,2024-06-03,合同会社ｔａｌｔｏ,,合同会社,東京都,目黒区,下目黒１丁目１番１４号コノトラビル７Ｆ,,13,110,1530064,,,,,,,2024-06-03,1,,,,,タルト,0
283,2011403004403,新規,0,2024-06-03,2024-06-03,合資会社カネチョウ,,合資会社,東京都,板橋区,志村２丁目８番１号,,13,119,1740056,,,,,,,2024-06-03,1,,,,,カネチョウ,0
292,2011801044307,新規,0,2024-06-03,2024-06-03,片山テクニカルセンター株式会社,,株式会社,東京都,葛飾区,東四つ木４丁目３０番１１号,,13,122,1240014,,,,,,,2024-06-03,1,,,,,カタヤマテクニカルセンター,0
295,2012401041925,新規,0,2024-06-03,2024-06-03,ＦｕｓｉｏｎＭｉｎｄソフト株式会社,,株式会社,東京都,武蔵野市,御殿山１丁目１１番１２－２２７号,,13,203,1800005,,,,,,,2024-06-03,1,,,,,フュージョンマインドソフト,0
297,2012801023226,新規,0,2024-06-03,2024-06-03,藤和総合管理株式会社,,株式会社,東京都,日野市,東豊田２丁目２４番地の８,,13,212,1910052,,,,,,,2024-06-03,1,,,,,トウワソウゴウカンリ,0
305,2020001157488,新規,0,2024-06-03,2024-06-03,＿元日本株式会社,00134988,株式会社,神奈川県,横浜市緑区,十日市場町８７２－１９,,14,113,2260025,,,,,,,2024-06-03,1,,,,,コウゲンニホン,0
306,2020001157538,新規,0,2024-06-03,2024-06-03,富億株式会社,,株式会社,神奈川県,横浜市中区,山下町１６４番地,,14,104,2310023,,,,,,,2024-06-03,1,,,,,フーイー,0
311,2020003026261,新規,0,2024-06-03,2024-06-03,ｐｉｏｎｅｅｒｐｌａｎｔｓ合同会社,,合同会社,神奈川県,横浜市鶴見区,栄町通３丁目３６－１３ＫＡＩＮＡ鶴見４０１号,,14,101,2300038,,,,,,,2024-06-03,1,,,,,パイオニアプランツ,0
328,2040001133842,新規,0,2024-06-03,2024-06-03,株式会社ＤＯＬ,,株式会社,千葉県,君津市,中野４丁目１５番１４号,,12,225,2991151,,,,,,,2024-06-03,1,,,,,ドル,0
329,2040001133850,新規,0,2024-06-03,2024-06-03,株式会社雅,,株式会社,千葉県,白井市,根１８４７番地の５４,,12,232,2701431,,,,,,,2024-06-03,1,,,,,ミヤビ,0
332,2040003025113,新規,0,2024-06-03,2024-06-03,合同会社ＫＳＤ,,合同会社,千葉県,千葉市花見川区,瑞穂１丁目１０－１１ハイブリッジＢ２０４,,12,102,2620026,,,,,,,2024-06-03,1,,,,,ケイエスディー,0
337,2050001054856,新規,0,2024-06-03,2024-06-03,株式会社明伸フィールドエンジニアリング,,株式会社,茨城県,水戸市,元石川町６１１番地の９２,,08,201,3100843,,,,,,,2024-06-03,1,,,,,メイシンフィールドエンジニアリング,0
338,2050001054864,新規,0,2024-06-03,2024-06-03,シンテック株式会社,,株式会社,茨城県,筑西市,甲７８６番地６,,08,227,3080021,,,,,,,2024-06-03,1,,,,,シンテック,0
351,2090001018741,新規,0,2024-06-03,2024-06-03,株式会社マウント富士運搬,,株式会社,山梨県,富士吉田市,上吉田７丁目１３番１５号,,19,202,4030005,,,,,,,2024-06-03,1,,,,,マウントフジウンパン,0
354,2100003007583,新規,0,2024-06-03,2024-06-03,合同会社Ａｆｆｅｃｔ,,合同会社,長野県,松本市,中央１丁目４－２酒楽ビル１階,,20,202,3900811,,,,,,,2024-06-03,1,,,,,アフェクト,0
367,2120001265504,新規,0,2024-06-03,2024-06-03,三田理化ホールディングス株式会社,,株式会社,大阪府,大阪市北区,大淀中２丁目８番２号,,27,127,5310076,,,,,,,2024-06-03,1,,,,,ミタリカホールディングス,0
371,2120003026739,新規,0,2024-06-03,2024-06-03,文＿合同会社,00134984,合同会社,大阪府,大阪市東淀川区,西淡路１丁目１－９ビジネス新大阪５２１号室,,27,114,5330031,,,,,,,2024-06-03,1,,,,,ブンセン,0
372,2120005024352,新規,0,2024-06-03,2024-06-03,一般社団法人Ｎメディカル,,その他の設立登記法人,大阪府,大阪市西区,西本町２丁目５番１１号５階,,27,106,5500005,,,,,,,2024-06-03,1,,,,,エヌメディカル,0
377,2120901049254,新規,0,2024-06-03,2024-06-03,株式会社ＧＲＡＮ’ＩＭＭＵ,,株式会社,大阪府,吹田市,江の木町１４番９号２階,,27,205,5640053,,,,,,,2024-06-03,1,,,,,グランイミュ,0
378,2120901049262,新規,0,2024-06-03,2024-06-03,株式会社渡邊ハウジング,,株式会社,大阪府,吹田市,江坂町１丁目１４番２０号グランドステージ江坂８０３号,,27,205,5640063,,,,,,,2024-06-03,1,,,,,ワタナベハウジング,0
381,2140001134624,新規,0,2024-06-03,2024-06-03,株式会社こもれび,,株式会社,兵庫県,神戸市須磨区,高倉台５丁目１２番１９号,,28,107,6540081,,,,,,,2024-06-03,1,,,,,コモレビ,0
386,2160001025961,新規,0,2024-06-03,2024-06-03,ＳＭＴ株式会社,,株式会社,滋賀県,大津市,湖城が丘１６番地５７,,25,201,5200821,,,,,,,2024-06-03,1,,,,,エスエムティー,0
389,2170001018163,新規,0,2024-06-03,2024-06-03,株式会社どんぐりふぁーむ,,株式会社,和歌山県,伊都郡かつらぎ町,大字星山２９２番地,,30,341,6497146,,,,,,,2024-06-03,1,,,,,ドングリファーム,0
392,2180001161771,新規,0,2024-06-03,2024-06-03,株式会社十色の路,,株式会社,愛知県,名古屋市千種区,堀割町２丁目１０番地グランドメゾンＴｈｅ覚王山ヒルズ６０１,,23,101,4640065,,,,,,,2024-06-03,1,,,,,トイロノロ,0
395,2180003026857,新規,0,2024-06-03,2024-06-03,合同会社ＬＧ　Ｃｏｒｐｏｒａｔｉｏｎ,,合同会社,愛知県,丹羽郡大口町,上小口１丁目６０番地２,,23,361,4800141,,,,,,,2024-06-03,1,,,,,エルジーコーポレーション,0
396,2180003026881,新規,0,2024-06-03,2024-06-03,合同会社ＮＡＩＮＳ,,合同会社,愛知県,岩倉市,南新町三反田９８４－３６,,23,228,4820013,,,,,,,2024-06-03,1,,,,,ナインズ,0
397,2180005020643,新規,0,2024-06-03,2024-06-03,弁護士法人あきつゆ,,その他の設立登記法人,愛知県,名古屋市東区,武平町５丁目１番名古屋栄ビルディング,,23,102,4610008,,,,,,,2024-06-03,1,,,,,アキツユ,0
398,2180005020651,新規,0,2024-06-03,2024-06-03,一般社団法人英気の泉,,その他の設立登記法人,愛知県,名古屋市中村区,菊水町１丁目２番１８号,,23,105,4530068,,,,,,,2024-06-03,1,,,,,エイキノイズミ,0
401,2190001031379,新規,0,2024-06-03,2024-06-03,株式会社ＯＫＡＤＥＮＫＯ,,株式会社,三重県,松阪市,立野町１３２９番地２５,,24,204,5150054,,,,,,,2024-06-03,1,,,,,オカデンコウ,0
407,2220001026029,新規,0,2024-06-03,2024-06-03,株式会社ＧＬＡＤＡＣＴ,,株式会社,石川県,河北郡内灘町,白帆台２丁目３２０番地,,17,365,9200269,,,,,,,2024-06-03,1,,,,,グラダクト,0
416,2260001039126,新規,0,2024-06-03,2024-06-03,アジャイルパートナーズ株式会社,,株式会社,岡山県,岡山市北区,惣爪１８３番地,,33,101,7011343,,,,,,,2024-06-03,1,,,,,アジャイルパートナーズ,0
418,2290001105940,新規,0,2024-06-03,2024-06-03,月と風の森株式会社,,株式会社,福岡県,福岡市博多区,東月隈４丁目２番１０号,,40,132,8120854,,,,,,,2024-06-03,1,,,,,ツキトカゼノモリ,0
420,2290003015386,新規,0,2024-06-03,2024-06-03,合同会社細美創,,合同会社,福岡県,福岡市中央区,薬院２丁目５－４２－９０１号,,40,133,8100022,,,,,,,2024-06-03,1,,,,,サイビソウ,0
425,2340001026545,新規,0,2024-06-03,2024-06-03,株式会社ＯＫ商店,,株式会社,鹿児島県,鹿児島市,中央町２７番１号１階,,46,201,8900053,,,,,,,2024-06-03,1,,,,,オーケーショウテン,0
426,2360001033738,新規,0,2024-06-03,2024-06-03,株式会社ａｑｕａ　ｒｅｃｏｌｔｅ,,株式会社,沖縄県,宜野湾市,嘉数４丁目２番１５号,,47,205,9012226,,,,,,,2024-06-03,1,,,,,アクアリコルテ,0
427,2360001033746,新規,0,2024-06-03,2024-06-03,株式会社Ｃｈｉｌｌ　Ｕｐ,,株式会社,沖縄県,島尻郡座間味村,字座間味６番地,,47,354,9013402,,,,,,,2024-06-03,1,,,,,チルアップ,0
431,2370001051350,新規,0,2024-06-03,2024-06-03,ＦＵＪＩＳＡＫＵＲＡ　Ｉｎｔｅｒｎａｔｉｏｎａｌ株式会社,,株式会社,宮城県,石巻市,鹿妻本町１番地１０,,04,202,9860013,,,,,,,2024-06-03,1,,,,,フジサクラインターナショナル,0
435,2380001034577,新規,0,2024-06-03,2024-06-03,株式会社和幸建設,,株式会社,福島県,郡山市,鳴神２丁目２３番地,,07,203,9630207,,,,,,,2024-06-03,1,,,,,ワコウケンセツ,0
442,2430003016394,新規,0,2024-06-03,2024-06-03,合同会社ＵＮＬＩＭＩＴＥＤ,,合同会社,北海道,札幌市東区,北二十二条東１０丁目３番１２号,,01,103,0650022,,,,,,,2024-06-03,1,,,,,アンリミテッド,0
449,2700150125714,新規,0,2024-06-03,2024-06-03,ＹＡＭＡＤＡ　ＣＯＮＳＵＬＴＩＮＧ　ＳＰＩＲＥ　ＩＮＤＩＡ　ＰＲＩＶＡＴＥ　ＬＩＭＩＴＥＤ,,外国会社等,東京都,千代田区,丸の内１丁目８－１丸の内トラストタワーＮ館,,13,101,1000005,１ｓｔ　Ｆｌｏｏｒ，Ｔｏｗｅｒ　Ｅ，ＤＬＦ　Ｃｙｂｅｒ　Ｇｒｅｅｎｓ，ＤＬＦ　Ｐｈａｓｅ　３，Ｓｅｃｔｏｒ　２４，Ｇｕｒｕｇｒａｍ，Ｈａｒｙａｎａ,,,,,,2024-06-03,1,,,,,ヤマダコンサルテイングスパイアインドプライベートリミテツド,0
464,3010101016156,新規,0,2024-06-03,2024-06-03,株式会社梅達生活研究所,,株式会社,東京都,八王子市,元本郷町４丁目１８番４号,,13,201,1920051,,,,,,,2024-06-03,1,,,,,バイタツセイカツケンキュウショ,0
472,3010401182796,新規,0,2024-06-03,2024-06-03,波実株式会社,,株式会社,東京都,港区,南青山５丁目４番１１－３０１号,,13,103,1070062,,,,,,,2024-06-03,1,,,,,ハミ,0
473,3010401182846,新規,0,2024-06-03,2024-06-03,吉幸林株式会社,,株式会社,東京都,港区,港南４丁目６番７号,,13,103,1080075,,,,,,,2024-06-03,1,,,,,ヨシコウリン,0
474,3010401182862,新規,0,2024-06-03,2024-06-03,株式会社ｂａｉｃａｍｏ,,株式会社,東京都,港区,南青山３丁目１番３６号青山丸竹ビル６階,,13,103,1070062,,,,,,,2024-06-03,1,,,,,バイカモ,0
477,3010403032735,新規,0,2024-06-03,2024-06-03,烏丸ホスピタリティ合同会社,,合同会社,東京都,港区,赤坂４丁目１番３１号,,13,103,1070052,,,,,,,2024-06-03,1,,,,,カラスマホスピタリティ,0
494,3011003019305,新規,0,2024-06-03,2024-06-03,合同会社プログレス,,合同会社,東京都,渋谷区,渋谷２丁目１９‐１５宮益坂ビルディング６０９,,13,113,1500002,,,,,,,2024-06-03,1,,,,,プログレス,0
499,3011101107515,新規,0,2024-06-03,2024-06-03,Ｋ　Ｃｏｒｐｏｒａｔｉｏｎ株式会社,,株式会社,東京都,新宿区,高田馬場４丁目４番１０号コーポラス徳光,,13,104,1690075,,,,,,,2024-06-03,1,,,,,ケーコーポレーション,0
500,3011101107531,新規,0,2024-06-03,2024-06-03,株式会社紬声,,株式会社,東京都,新宿区,二十騎町１－３２－４０１,,13,104,1620855,,,,,,,2024-06-03,1,,,,,ツムゴエ,0
501,3011201025518,新規,0,2024-06-03,2024-06-03,株式会社ＪＭソムニウム,,株式会社,東京都,中野区,本町４丁目３５番１号,,13,114,1640012,,,,,,,2024-06-03,1,,,,,ジェイエムソムニウム,0
507,3011503006091,新規,0,2024-06-03,2024-06-03,ＬＩＯＮ　ＯＦ　ＩＮＤＩＡ合同会社,,合同会社,東京都,北区,王子本町１丁目１番１０号,,13,117,1140022,,,,,,,2024-06-03,1,,,,,ライオンオブインティア,0
509,3011701027344,新規,0,2024-06-03,2024-06-03,株式会社壱,,株式会社,東京都,江戸川区,西葛西６丁目１３番１号たかみビル５Ｆ,,13,123,1340088,,,,,,,2024-06-03,1,,,,,ハジメ,0
510,3011801044297,新規,0,2024-06-03,2024-06-03,株式会社Ｌｉｅｎ,,株式会社,東京都,足立区,青井３丁目１０番４４号,,13,121,1200012,,,,,,,2024-06-03,1,,,,,リアン,0
511,3011801044314,新規,0,2024-06-03,2024-06-03,株式会社ＡＯＺＯＲＡ,,株式会社,東京都,足立区,西竹の塚２丁目１６番１３号,,13,121,1210822,,,,,,,2024-06-03,1,,,,,アオゾラ,0
512,3012401041932,新規,0,2024-06-03,2024-06-03,株式会社まのね,,株式会社,東京都,稲城市,平尾２丁目１００－１１,,13,225,2060823,,,,,,,2024-06-03,1,,,,,マノネ,0
519,3020001157520,新規,0,2024-06-03,2024-06-03,株式会社Ｋ,,株式会社,神奈川県,横浜市南区,真金町１丁目５番地２カーサ・ビィータ１０１,,14,105,2320021,,,,,,,2024-06-03,1,,,,,ケー,0
520,3020001157529,新規,0,2024-06-03,2024-06-03,株式会社森俊苑,,株式会社,神奈川県,横浜市神奈川区,神大寺４丁目１８番４号パークヒル神大寺４０５号,,14,102,2210801,,,,,,,2024-06-03,1,,,,,シンシュエン,0
522,3020003026236,新規,0,2024-06-03,2024-06-03,合同会社フラットプレイス,,合同会社,神奈川県,川崎市宮前区,平４丁目１番５号,,14,136,2160022,,,,,,,2024-06-03,1,,,,,フラットプレイス,0
523,3020003026269,新規,0,2024-06-03,2024-06-03,合同会社リーブルポン,,合同会社,神奈川県,横浜市港北区,新横浜３丁目２０－３,,14,109,2220033,,,,,,,2024-06-03,1,,,,,リーブルポン,0
534,3030001160663,新規,0,2024-06-03,2024-06-03,株式会社太田工業,,株式会社,埼玉県,ふじみ野市,上福岡１丁目１２番２７号,,11,245,3560004,,,,,,,2024-06-03,1,,,,,オオタコウギョウ,0
546,3040001133874,新規,0,2024-06-03,2024-06-03,結工業株式会社,,株式会社,千葉県,千葉市若葉区,野呂町１７９３番地２３３,,12,104,2650053,,,,,,,2024-06-03,1,,,,,ユウコウギョウ,0
548,3040003025095,新規,0,2024-06-03,2024-06-03,明心合同会社,,合同会社,千葉県,松戸市,新松戸１丁目８７番地セザール新松戸３０２号,,12,207,2700034,,,,,,,2024-06-03,1,,,,,メイシン,0
549,3040003025104,新規,0,2024-06-03,2024-06-03,合同会社Ｎｏｂｌｅ　Ｇｒｏｕｐ,,合同会社,千葉県,我孫子市,都１７番地１,,12,222,2701102,,,,,,,2024-06-03,1,,,,,ノーブルグループ,0
559,3080401027219,新規,0,2024-06-03,2024-06-03,株式会社ＬｉｇｈｔＮｏｗ,,株式会社,静岡県,浜松市中央区,鍛冶町１００番地の１ザザシティ浜松中央館Ｂ１Ｆ,,22,138,4300933,,,,,,,2024-06-03,1,,,,,ライナウ,0
566,3110001038447,新規,0,2024-06-03,2024-06-03,レミーホールディングス株式会社,,株式会社,新潟県,新発田市,富塚町３丁目２８８番地６,,15,206,9570062,,,,,,,2024-06-03,1,,,,,レミーホールディングス,0
574,3120001265536,新規,0,2024-06-03,2024-06-03,株式会社Ｆｉｖｅ,,株式会社,大阪府,大阪市中央区,西心斎橋１丁目１０－１５ヴィアイン心斎橋ビル２階,,27,128,5420086,,,,,,,2024-06-03,1,,,,,ファイブ,0
580,3120003026655,新規,0,2024-06-03,2024-06-03,合同会社ｌｉｎｅｎ,,合同会社,大阪府,大阪市北区,山崎町１－１３ＩＢビル２階,,27,127,5300024,,,,,,,2024-06-03,1,,,,,リネン,0
581,3120003026746,新規,0,2024-06-03,2024-06-03,Ａｒｔｅｒｉｏｒ合同会社,,合同会社,大阪府,大阪市東淀川区,井高野２丁目５番５号クレセントコート２０３,,27,114,5330001,,,,,,,2024-06-03,1,,,,,アルテリアル,0
583,3120005024351,新規,0,2024-06-03,2024-06-03,一般社団法人七星,,その他の設立登記法人,大阪府,大阪市鶴見区,焼野２丁目南６番７号３階,,27,124,5380037,,,,,,,2024-06-03,1,,,,,ナナホシ,0
588,3120901049261,新規,0,2024-06-03,2024-06-03,株式会社ｋａｉ,,株式会社,大阪府,池田市,新町１０番３号,,27,204,5630050,,,,,,,2024-06-03,1,,,,,カイ,0
595,3130001077179,新規,0,2024-06-03,2024-06-03,株式会社カインドコラボ,,株式会社,京都府,京都市上京区,左馬松町７９２番地１,,26,102,6028145,,,,,,,2024-06-03,1,,,,,カインドコラボ,0
596,3140001134623,新規,0,2024-06-03,2024-06-03,株式会社ｌｉｂｅｒｔａ,,株式会社,兵庫県,神戸市東灘区,本山北町３丁目４番１８－４０５号,,28,101,6580003,,,,,,,2024-06-03,1,,,,,リベルタ,0
597,3140001134631,新規,0,2024-06-03,2024-06-03,株式会社愛Ｉサービス,,株式会社,兵庫県,姫路市,白浜町甲１３１１番地４,,28,201,6728023,,,,,,,2024-06-03,1,,,,,アイアイサービス,0
603,3140003020656,新規,0,2024-06-03,2024-06-03,エムエムｔｅｃ合同会社,,合同会社,兵庫県,神戸市西区,二ツ屋２丁目４番１５号,,28,111,6512142,,,,,,,2024-06-03,1,,,,,エムエムテック,0
604,3140005027096,新規,0,2024-06-03,2024-06-03,一般社団法人日本こどもの才能発見協会,,その他の設立登記法人,兵庫県,神戸市中央区,磯辺通１丁目１番１８号カサベラ国際プラザビル７０７号室,,28,110,6510084,,,,,,,2024-06-03,1,,,,,ニホンコドモノサイノウハッケンキョウカイ,0
608,3160001025969,新規,0,2024-06-03,2024-06-03,株式会社Ｃｒｏｓｓｌｅａｄ,,株式会社,滋賀県,湖南市,三雲２９２番１玉木マンション１Ａ,,25,211,5203221,,,,,,,2024-06-03,1,,,,,クロスリード,0
609,3170001018170,新規,0,2024-06-03,2024-06-03,株式会社キャンバスペイント,,株式会社,和歌山県,岩出市,安上６６番地の１,,30,209,6496252,,,,,,,2024-06-03,1,,,,,キャンバスペイント,0
620,3180001161787,新規,0,2024-06-03,2024-06-03,株式会社ｆｉｎｅｔｅｃ,,株式会社,愛知県,名古屋市守山区,金屋２丁目１１番地,,23,113,4630072,,,,,,,2024-06-03,1,,,,,ファインテック,0
626,3190001031378,新規,0,2024-06-03,2024-06-03,ＡＢＢＥＹ　Ｒｓ株式会社,,株式会社,三重県,鈴鹿市,国府町８１３０番地７,,24,207,5130836,,,,,,,2024-06-03,1,,,,,アビーアールエス,0
627,3190003004695,新規,0,2024-06-03,2024-06-03,合同会社徳人,,合同会社,三重県,津市,白塚町４６０８‐１２,00134996,24,201,5140101,,,,,,,2024-06-03,1,,,,,トクジン,0
639,3250001020671,新規,0,2024-06-03,2024-06-03,株式会社創永,,株式会社,山口県,宇部市,大字小串７４－３キャメロットビル３００号室,,35,202,7550067,,,,,,,2024-06-03,1,,,,,ソウエイ,0
643,3260001039125,新規,0,2024-06-03,2024-06-03,株式会社ＫＡＩ技研,,株式会社,岡山県,浅口市,金光町占見１３３９番地１,,33,216,7190105,,,,,,,2024-06-03,1,,,,,カイギケン,0
644,3280001009191,新規,0,2024-06-03,2024-06-03,株式会社成月工業,,株式会社,島根県,江津市,嘉久志町２４２６地番６１,,32,207,6950016,,,,,,,2024-06-03,1,,,,,ナツキコウギョウ,0
650,3290001105972,新規,0,2024-06-03,2024-06-03,株式会社Ｔ＆Ｍバイオインフォテック,,株式会社,福岡県,春日市,春日原北町５丁目８番１号,,40,218,8160802,,,,,,,2024-06-03,1,,,,,ティーアンドエムバイオインフォテック,0
651,3290001105980,新規,0,2024-06-03,2024-06-03,株式会社九州大原組,,株式会社,福岡県,福岡市博多区,博多駅中央街５番１２号,,40,132,8120012,,,,,,,2024-06-03,1,,,,,キュウシュウオオハラグミ,0
652,3290003015377,新規,0,2024-06-03,2024-06-03,合同会社優,,合同会社,福岡県,福岡市西区,愛宕浜２丁目３番３号,,40,135,8190013,,,,,,,2024-06-03,1,,,,,ユウ,0
656,3290801030610,新規,0,2024-06-03,2024-06-03,株式会社ＵＰ‐Ｅｉｇｈｔ,,株式会社,福岡県,北九州市小倉北区,米町１丁目１番１号小倉駅前ひびきビル６階,,40,106,8020003,,,,,,,2024-06-03,1,,,,,アップエイト,0
658,3300001013760,新規,0,2024-06-03,2024-06-03,株式会社サンネックス,,株式会社,佐賀県,伊万里市,新天町２８４番地３,,41,205,8480041,,,,,,,2024-06-03,1,,,,,サンネックス,0
660,3330001032122,新規,0,2024-06-03,2024-06-03,株式会社ベルズ,,株式会社,熊本県,熊本市中央区,下通１丁目９番１４号,,43,101,8600807,,,,,,,2024-06-03,1,,,,,ベルズ,0
661,3330003010398,新規,0,2024-06-03,2024-06-03,合同会社ＴＮＣ,,合同会社,熊本県,八代市,鏡町貝洲３０６番地４,,43,202,8694223,,,,,,,2024-06-03,1,,,,,ティーエヌシー,0
666,3350001018986,新規,0,2024-06-03,2024-06-03,株式会社ＴＫ,,株式会社,宮崎県,宮崎市,大字芳士８００番地２１,,45,201,8800123,,,,,,,2024-06-03,1,,,,,ティーケー,0
668,3360003014025,新規,0,2024-06-03,2024-06-03,合同会社沖縄ミライ,,合同会社,沖縄県,那覇市,辻２丁目４－１５ピュアインビル７０３,00134985,47,201,9000037,,,,,,,2024-06-03,1,,,,,オキナワミライ,0
673,3370003006632,新規,0,2024-06-03,2024-06-03,合同会社ターンアラウンド,,合同会社,宮城県,仙台市青葉区,荒巻本沢３丁目２‐１,,04,101,9810966,,,,,,,2024-06-03,1,,,,,ターンアラウンド,0
691,3430003016369,新規,0,2024-06-03,2024-06-03,合同会社ＣＳＲ,,合同会社,北海道,室蘭市,中島町１丁目２３－１０ＡＨＳビル１階,,01,205,0500074,,,,,,,2024-06-03,1,,,,,シーエスアール,0
692,3470001020237,新規,0,2024-06-03,2024-06-03,株式会社寅や,,株式会社,香川県,高松市,瓦町１丁目１０番地１６,,37,201,7600052,,,,,,,2024-06-03,1,,,,,トラヤ,0
705,3700150125713,新規,0,2024-06-03,2024-06-03,Ｚｙｎｇａ　Ｉｎｃ．,,外国会社等,,,,,,,,１２００　Ｐａｒｋ　Ｐｌａｃｅ，Ｓａｎ　Ｍａｔｅｏ，ＣＡ　９４４０３,,,,,,2024-06-03,1,,,,,ジンガインク,0
719,4010001244938,新規,0,2024-06-03,2024-06-03,Ｌａ　Ｇｌｏｂ株式会社,,株式会社,東京都,中央区,日本橋蛎殻町２丁目１５－９－８０１,,13,102,1030014,,,,,,,2024-06-03,1,,,,,ラグラブ,0
720,4010101016171,新規,0,2024-06-03,2024-06-03,エヌ．エム．ティ株式会社,,株式会社,東京都,八王子市,上野町１０－２,,13,201,1920902,,,,,,,2024-06-03,1,,,,,エヌエムティ,0
726,4010401182812,新規,0,2024-06-03,2024-06-03,株式会社ｄｏｔ‐ｈｚｍ,,株式会社,東京都,港区,南青山３丁目１番３６号青山丸竹ビル６Ｆ,,13,103,1070062,,,,,,,2024-06-03,1,,,,,ドットヒズミ,0
735,4010405023269,新規,0,2024-06-03,2024-06-03,Ｌｉｂｒａ特定目的会社,,その他の設立登記法人,東京都,港区,虎ノ門５丁目１番４号,,13,103,1050001,,,,,,,2024-06-03,1,,,,,リブラ,0
739,4010601065305,新規,0,2024-06-03,2024-06-03,株式会社ベレット,,株式会社,東京都,江東区,深川２丁目２６番３号－４０３,,13,108,1350033,,,,,,,2024-06-03,1,,,,,ベレット,0
741,4010701046089,新規,0,2024-06-03,2024-06-03,株式会社旭浩,,株式会社,東京都,品川区,平塚２丁目１１番１２号６０８,,13,109,1420051,,,,,,,2024-06-03,1,,,,,アキヒロ,0
744,4010901055377,新規,0,2024-06-03,2024-06-03,株式会社五十嵐映像事務所,,株式会社,東京都,世田谷区,下馬５丁目１０番１５号,,13,112,1540002,,,,,,,2024-06-03,1,,,,,イガラシエイゾウジムショ,0
745,4010901055385,新規,0,2024-06-03,2024-06-03,株式会社ｔＡｏ,,株式会社,東京都,世田谷区,代田６丁目２番１７号メゾンヴェール下北沢１０２号室,,13,112,1550033,,,,,,,2024-06-03,1,,,,,タオ,0
746,4010903009100,新規,0,2024-06-03,2024-06-03,Ｌａ　Ｌｉｂｅｒｔｅ合同会社,,合同会社,東京都,世田谷区,奥沢７丁目４６番１４号,,13,112,1580083,,,,,,,2024-06-03,1,,,,,ラリベルテ,0
757,4011303005177,新規,0,2024-06-03,2024-06-03,合同会社ケイドットエス,,合同会社,東京都,杉並区,久我山２丁目１７－３,,13,115,1680082,,,,,,,2024-06-03,1,,,,,,0
763,4011701027310,新規,0,2024-06-03,2024-06-03,株式会社ＫＥＩ鉄工業,,株式会社,東京都,江戸川区,中葛西１丁目２３番１－１０１号,,13,123,1340083,,,,,,,2024-06-03,1,,,,,ケイテッコウギョウ,0
764,4011703003862,新規,0,2024-06-03,2024-06-03,合同会社いその屋,,合同会社,東京都,江戸川区,東松本２丁目７番８号,,13,123,1330071,,,,,,,2024-06-03,1,,,,,イソノヤ,0
768,4012403006593,新規,0,2024-06-03,2024-06-03,ＡＡ　Ｍａｎａｇｅｍｅｎｔ合同会社,,合同会社,東京都,調布市,緑ケ丘１丁目９番地３１,,13,208,1820001,,,,,,,2024-06-03,1,,,,,ダブルエーマネージメント,0
769,4012701018282,新規,0,2024-06-03,2024-06-03,株式会社Ｋ＆Ｊホールディングス,,株式会社,東京都,東村山市,野口町３丁目７番地６８,,13,213,1890022,,,,,,,2024-06-03,1,,,,,ケイアンドジェイホールディングス,0
772,4012801023224,新規,0,2024-06-03,2024-06-03,株式会社ＫＳＮ,,株式会社,東京都,国分寺市,日吉町４丁目３番４号サンシャイン日吉３０７,,13,214,1850032,,,,,,,2024-06-03,1,,,,,ケーエスエヌ,0
778,4020003026103,新規,0,2024-06-03,2024-06-03,日本総合リサイクル合同会社,,合同会社,神奈川県,横浜市西区,北幸２丁目１０番４８号むつみビル３階,,14,103,2200004,,,,,,,2024-06-03,1,,,,,ニホンソウゴウリサイクル,0
784,4021001082377,新規,0,2024-06-03,2024-06-03,株式会社ＨｉＬａｂ,,株式会社,神奈川県,伊勢原市,桜台４丁目８－３１,,14,214,2591132,,,,,,,2024-06-03,1,,,,,ヒラボ,0
786,4021003014584,新規,0,2024-06-03,2024-06-03,合同会社武藏建築,,合同会社,神奈川県,相模原市南区,相武台２丁目２３番１８－５号,,14,153,2520324,,,,,,,2024-06-03,1,,,,,ムサシケンチク,0
790,4030001160670,新規,0,2024-06-03,2024-06-03,株式会社Ａｄａｇｉｏ,,株式会社,埼玉県,草加市,栄町２丁目９番２０－７０５号,,11,221,3400011,,,,,,,2024-06-03,1,,,,,アダージョ,0
795,4040001133873,新規,0,2024-06-03,2024-06-03,株式会社キッズネクスト,,株式会社,千葉県,千葉市美浜区,真砂４丁目３番５号,,12,106,2610011,,,,,,,2024-06-03,1,,,,,キッズネクスト,0
804,4060001037164,新規,0,2024-06-03,2024-06-03,株式会社鳴門,,株式会社,栃木県,宇都宮市,道場宿町１０４８番地１,,09,201,3213237,,,,,,,2024-06-03,1,,,,,ナルト,0
806,4070005010281,新規,0,2024-06-03,2024-06-03,一般社団法人ぐんま未来企画,,その他の設立登記法人,群馬県,みどり市,大間々町大間々１０１０番地３,,10,212,3760101,,,,,,,2024-06-03,1,,,,,グンマミライキカク,0
809,4080403005023,新規,0,2024-06-03,2024-06-03,合同会社Ｔｚ,,合同会社,静岡県,浜松市中央区,幸１丁目１１番１１号,,22,138,4338123,,,,,,,2024-06-03,1,,,,,ティーズ,0
812,4100001037515,新規,0,2024-06-03,2024-06-03,株式会社ＳＲＫ,,株式会社,長野県,松本市,大字笹賀５０８７番地２２２,,20,202,3990033,,,,,,,2024-06-03,1,,,,,エスアールケイ,0
823,4120001265452,新規,0,2024-06-03,2024-06-03,株式会社平田電気商会,,株式会社,大阪府,門真市,堂山町１１番３１号,,27,223,5710059,,,,,,,2024-06-03,1,,,,,ヒラタデンキショウカイ,0
824,4120001265535,新規,0,2024-06-03,2024-06-03,華成株式会社,,株式会社,大阪府,大阪市生野区,巽北１丁目２１－２９－７１７,00134995,27,116,5440004,,,,,,,2024-06-03,1,,,,,カセイ,0
827,4120003026695,新規,0,2024-06-03,2024-06-03,合同会社ＤＡＴＥ,,合同会社,大阪府,大阪市中央区,上本町西２丁目１番４号,,27,128,5420062,,,,,,,2024-06-03,1,,,,,デイト,0
832,4120901049260,新規,0,2024-06-03,2024-06-03,コダイコーヒー株式会社,,株式会社,大阪府,豊中市,本町４丁目６－３９,,27,203,5600021,,,,,,,2024-06-03,1,,,,,コダイコーヒー,0
833,4120903005195,新規,0,2024-06-03,2024-06-03,合同会社Ｍｙコーポレーション,,合同会社,大阪府,高槻市,中川町４番１２号,,27,207,5690066,,,,,,,2024-06-03,1,,,,,エムワイコーポレーション,0
844,4140001134606,新規,0,2024-06-03,2024-06-03,家族味株式会社,,株式会社,兵庫県,神戸市中央区,中山手通３丁目４番２－５０１号,,28,110,6500004,,,,,,,2024-06-03,1,,,,,カスミ,0
849,4150001027313,新規,0,2024-06-03,2024-06-03,株式会社あい和商事,,株式会社,奈良県,香芝市,良福寺１４５番地１,,29,210,6390235,,,,,,,2024-06-03,1,,,,,アイワショウジ,0
854,4180001161761,新規,0,2024-06-03,2024-06-03,株式会社ＭｅｌｔｙＬａｂ,,株式会社,愛知県,名古屋市中区,大須２丁目３番５号,,23,106,4600011,,,,,,,2024-06-03,1,,,,,メルティラボ,0
862,4200005013626,新規,0,2024-06-03,2024-06-03,一般社団法人日本人口減対策機構,,その他の設立登記法人,岐阜県,岐阜市,岩田西１丁目８０５,,21,201,5013156,,,,,,,2024-06-03,1,,,,,ニホンジンコウゲンタイサクキコウ,0
865,4220001026035,新規,0,2024-06-03,2024-06-03,株式会社大吉,,株式会社,石川県,河北郡内灘町,字千鳥台５丁目６番地,,17,365,9200277,,,,,,,2024-06-03,1,,,,,ダイキチ,0
870,4240001063299,新規,0,2024-06-03,2024-06-03,株式会社モリデン,,株式会社,広島県,広島市中区,吉島新町１丁目１番１号,,34,101,7300824,,,,,,,2024-06-03,1,,,,,モリデン,0
871,4240001063308,新規,0,2024-06-03,2024-06-03,株式会社みつき,,株式会社,広島県,広島市南区,大州２丁目１０番１２号,,34,103,7320802,,,,,,,2024-06-03,1,,,,,ミツキ,0
883,4290001105988,新規,0,2024-06-03,2024-06-03,ＴＴＰ株式会社,,株式会社,福岡県,福岡市博多区,博多駅前１丁目１８番１５－２０３号,,40,132,8120011,,,,,,,2024-06-03,1,,,,,ティーティーピー,0
888,4290803004743,新規,0,2024-06-03,2024-06-03,合同会社一五,,合同会社,福岡県,遠賀郡岡垣町,中央台４丁目７－１４,,40,383,8114218,,,,,,,2024-06-03,1,,,,,イチゴ,0
895,4310001019038,新規,0,2024-06-03,2024-06-03,輝洋水産株式会社,,株式会社,長崎県,五島市,玉之浦町荒川字古里１２９番地２６,,42,211,8530501,,,,,,,2024-06-03,1,,,,,キヨウスイサン,0
896,4310005008771,新規,0,2024-06-03,2024-06-03,九州アジアワーク協同組合,,その他の設立登記法人,長崎県,長崎市,田中町７９番地５６,,42,201,8510134,,,,,,,2024-06-03,1,,,,,キュウシュウアジアワーク,0
902,4360001033736,新規,0,2024-06-03,2024-06-03,株式会社アイナハレ沖縄,,株式会社,沖縄県,中頭郡北中城村,字島袋１４３３番地１,,47,327,9012301,,,,,,,2024-06-03,1,,,,,アイナハレオキナワ,0
903,4360001033744,新規,0,2024-06-03,2024-06-03,株式会社頑丈企画,,株式会社,沖縄県,那覇市,牧志２丁目１７－２７－４０１,,47,201,9000013,,,,,,,2024-06-03,1,,,,,ガンジュウキカク,0
904,4360003014032,新規,0,2024-06-03,2024-06-03,合同会社Ｋａｉｍａｎａ,,合同会社,沖縄県,宮古島市,平良字久貝２４８番地９,,47,214,9060015,,,,,,,2024-06-03,1,,,,,カイマナ,0
908,4370005010796,新規,0,2024-06-03,2024-06-03,一般社団法人事業創発研究会ＤｉｇｉＢｉｚみやぎ,,その他の設立登記法人,宮城県,仙台市青葉区,大町１丁目３番２号,,04,101,9800804,,,,,,,2024-06-03,1,,,,,ジギョウソウハツケンキュウカイデジビズミヤギ,0
911,4380001034575,新規,0,2024-06-03,2024-06-03,株式会社大和,,株式会社,福島県,西白河郡矢吹町,大和内２０３番地,,07,466,9690286,,,,,,,2024-06-03,1,,,,,ヤマト,0
917,4430003016401,新規,0,2024-06-03,2024-06-03,ＳＡＰＰＯＲＯ　ＫＯＭＡＣＨＩ合同会社,,合同会社,北海道,札幌市北区,北七条西５丁目６番地１－６０７号,,01,102,0600807,,,,,,,2024-06-03,1,,,,,サッポロコマチ,0
918,4470001020236,新規,0,2024-06-03,2024-06-03,株式会社ＰＯＴ,,株式会社,香川県,高松市,新北町２２番２８－１０６号,,37,201,7600001,,,,,,,2024-06-03,1,,,,,ポット,0
933,5010003043924,新規,0,2024-06-03,2024-06-03,タズシステム合同会社,,合同会社,東京都,中央区,銀座７丁目１３番３０号,,13,102,1040061,,,,,,,2024-06-03,1,,,,,タズシステム,0
935,5010101016170,新規,0,2024-06-03,2024-06-03,Ｋ．Ｓ．Ｃｒｅａｔｅ株式会社,,株式会社,東京都,八王子市,下恩方町１０１３番地２,,13,201,1920154,,,,,,,2024-06-03,1,,,,,ケーエスクリエイト,0
942,5010401182828,新規,0,2024-06-03,2024-06-03,ＭＥＧＡＴＡＫＡ　Ｃｒｅａｔｉｖｅ　Ｆａｃｔｏｒｙ株式会社,,株式会社,東京都,港区,南青山７丁目１番５号＆ＣＡＬＭｍｉｎａｍｉａｏｙａｍａ,,13,103,1070062,,,,,,,2024-06-03,1,,,,,メガタカクリエイティブファクトリー,0
943,5010401182836,新規,0,2024-06-03,2024-06-03,株式会社Ｆｏｒｔｕｎａ　ｇｒａｎｄｅ,,株式会社,東京都,港区,赤坂２丁目１３番３－１００２号,,13,103,1070052,,,,,,,2024-06-03,1,,,,,フォルトゥーナグランデ,0
944,5010401182860,新規,0,2024-06-03,2024-06-03,ダット・コンサルティング株式会社,,株式会社,東京都,港区,北青山１丁目３番１号アールキューブ青山３階,,13,103,1070061,,,,,,,2024-06-03,1,,,,,ダットコンサルティング,0
947,5010405023268,新規,0,2024-06-03,2024-06-03,Ｖｉｒｇｏ特定目的会社,,その他の設立登記法人,東京都,港区,虎ノ門５丁目１番４号,,13,103,1050001,,,,,,,2024-06-03,1,,,,,ヴァーゴ,0
948,5010405023301,新規,0,2024-06-03,2024-06-03,一般社団法人津軽パワー,,その他の設立登記法人,東京都,港区,元赤坂１丁目１番８号赤坂コミュニティビル４階,,13,103,1070051,,,,,,,2024-06-03,1,,,,,ツガルパワー,0
950,5010501052377,新規,0,2024-06-03,2024-06-03,ＧＲＥジャパンリミテッド株式会社,,株式会社,東京都,台東区,台東４丁目２０－８ステージファースト仲御徒町６０５,,13,106,1100016,,,,,,,2024-06-03,1,,,,,ジーアールイージャパンリミテッド,0
953,5010601065312,新規,0,2024-06-03,2024-06-03,ＢＨＡＲＡＴ　ＢＯＥＫＩ株式会社,,株式会社,東京都,江東区,北砂３丁目４番１８－６０８号,,13,108,1360073,,,,,,,2024-06-03,1,,,,,バラートボウエキ,0
955,5010701046088,新規,0,2024-06-03,2024-06-03,株式会社未来キッズ,,株式会社,東京都,品川区,西五反田１丁目２４番４－１２１６号,,13,109,1410031,,,,,,,2024-06-03,1,,,,,ミライキッズ,0
962,5011003019146,新規,0,2024-06-03,2024-06-03,合同会社Ｌｕｃｉｄａ　Ｃｏｎｓｕｌｔｉｎｇ,,合同会社,東京都,渋谷区,恵比寿西２丁目８番４号ＥＸ恵比寿西ビル５階,,13,113,1500021,,,,,,,2024-06-03,1,,,,,ルシーダコンサルティング,0
966,5011105011034,新規,0,2024-06-03,2024-06-03,一般社団法人中華美食文化促進会,,その他の設立登記法人,東京都,新宿区,百人町１丁目１８－１０第２林ビル４階,,13,104,1690073,,,,,,,2024-06-03,1,,,,,チュウカビショクブンカソクシンカイ,0
968,5011301029714,新規,0,2024-06-03,2024-06-03,星優蜜株式会社,,株式会社,東京都,杉並区,井草２丁目２番５‐１０９号,,13,115,1670021,,,,,,,2024-06-03,1,,,,,セイユウミツ,0
972,5011401026149,新規,0,2024-06-03,2024-06-03,株式会社Ｌｉｎｏ,,株式会社,東京都,板橋区,徳丸６丁目２８－５－１０１,,13,119,1750083,,,,,,,2024-06-03,1,,,,,リノ,0
973,5011703003837,新規,0,2024-06-03,2024-06-03,合同会社折笠,,合同会社,東京都,江戸川区,江戸川５丁目４０番地１３ＳＴＨＯＭＥＢ－１,,13,123,1340013,,,,,,,2024-06-03,1,,,,,オリカサ,0
977,5012401041930,新規,0,2024-06-03,2024-06-03,株式会社チーム・ジエイシイケイ,,株式会社,東京都,小金井市,梶野町１丁目２番３６号,,13,210,1840002,,,,,,,2024-06-03,1,,,,,チームジエイシイケイ,0
979,5012801023223,新規,0,2024-06-03,2024-06-03,株式会社セティレ,,株式会社,東京都,国分寺市,東元町３丁目３４番１０号Ｐ・Ａ国分寺ＩＩ２１２,00134994,13,214,1850022,,,,,,,2024-06-03,1,,,,,セティレ,0
987,5020001157527,新規,0,2024-06-03,2024-06-03,トクテック株式会社,,株式会社,神奈川県,川崎市川崎区,池上新町２丁目１０番１７号ルシェル２０１,,14,131,2100832,,,,,,,2024-06-03,1,,,,,トクテック,0
988,5020001157535,新規,0,2024-06-03,2024-06-03,株式会社ＫＡＰＡＬＩＬＹ,,株式会社,神奈川県,横浜市栄区,飯島町７４番地１,,14,115,2440842,,,,,,,2024-06-03,1,,,,,カパリリ,0
989,5020001157543,新規,0,2024-06-03,2024-06-03,株式会社一期一会,,株式会社,神奈川県,川崎市高津区,下野毛３丁目６番１８－２号,,14,134,2130006,,,,,,,2024-06-03,1,,,,,イチゴイチエ,0
990,5020001157568,新規,0,2024-06-03,2024-06-03,株式会社ノベルフーズ,,株式会社,神奈川県,横浜市神奈川区,山内町１番地,,14,102,2210054,,,,,,,2024-06-03,1,,,,,ノベルフーズ,0
1006,5021001082368,新規,0,2024-06-03,2024-06-03,シスルオント株式会社,,株式会社,神奈川県,三浦郡葉山町,堀内１１７３番地の１ファミール葉山シーガレリア５０５号,,14,301,2400112,,,,,,,2024-06-03,1,,,,,シスルオント,0
1008,5030001160521,新規,0,2024-06-03,2024-06-03,Ｙａｎ　Ｃｌｉｍｂ＆Ｙｏｇａ　Ｊａｐａｎ株式会社,,株式会社,埼玉県,入間市,大字上藤沢４０６－３４西武狭山グリーンビル１８－５０３,,11,225,3580013,,,,,,,2024-06-03,1,,,,,ヤンクライムアンドヨガジャパン,0
1014,5030003024410,新規,0,2024-06-03,2024-06-03,合同会社Ｍｌｉｅｒ,,合同会社,埼玉県,和光市,丸山台２丁目１７番４号,,11,229,3510112,,,,,,,2024-06-03,1,,,,,エムリエ,0
1019,5040001133872,新規,0,2024-06-03,2024-06-03,ＥＣＳ株式会社,,株式会社,千葉県,茂原市,山崎９６３番地２,,12,210,2970061,,,,,,,2024-06-03,1,,,,,イーシーエス,0
1026,5050001054861,新規,0,2024-06-03,2024-06-03,株式会社明伸ホールディング,,株式会社,茨城県,水戸市,元石川町６１１番地９２,,08,201,3100843,,,,,,,2024-06-03,1,,,,,メイシンホールディング,0
1028,5060001037147,新規,0,2024-06-03,2024-06-03,株式会社Ｍ＆Ａ専門案内所,,株式会社,栃木県,小山市,東間々田１丁目１３番５号,,09,208,3290206,,,,,,,2024-06-03,1,,,,,エムアンドエーセンモンアンナイジョ,0
1029,5060001037163,新規,0,2024-06-03,2024-06-03,株式会社麦ホールディングス,,株式会社,栃木県,宇都宮市,宝木本町１４７７番地３１,,09,201,3200075,,,,,,,2024-06-03,1,,,,,ムギホールディングス,0
1032,5080101024778,新規,0,2024-06-03,2024-06-03,ＳＯＮＩＤＯ株式会社,,株式会社,静岡県,三島市,大場１５６－１,,22,206,4110803,,,,,,,2024-06-03,1,,,,,ソニード,0
1037,5090001018739,新規,0,2024-06-03,2024-06-03,株式会社ＮＫフォワード,,株式会社,山梨県,笛吹市,八代町北９８３番地,,19,211,4060821,,,,,,,2024-06-03,1,,,,,エヌケイフォワード,0
1039,5100003007580,新規,0,2024-06-03,2024-06-03,イラスト・狩り合同会社,,合同会社,長野県,上田市,天神４丁目３番１２号,,20,203,3860025,,,,,,,2024-06-03,1,,,,,イラストガリ,0
1055,5120001265311,新規,0,2024-06-03,2024-06-03,千爾株式会社,,株式会社,大阪府,大阪市中央区,本町橋６番２１－３０５号,,27,128,5400029,,,,,,,2024-06-03,1,,,,,キナー,0
1056,5120001265468,新規,0,2024-06-03,2024-06-03,株式会社ＪａＰＡＮ　ＳＥＮＳＥ,,株式会社,大阪府,大阪市北区,梅田１丁目２番２号大阪駅前第２ビル１２－１２,,27,127,5300001,,,,,,,2024-06-03,1,,,,,ジャパンセンス,0
1057,5120001265476,新規,0,2024-06-03,2024-06-03,株式会社セブンズノース,,株式会社,大阪府,大阪市阿倍野区,西田辺町１丁目４番２１－５０３号,,27,119,5450014,,,,,,,2024-06-03,1,,,,,セブンズノース,0
1060,5120003026513,新規,0,2024-06-03,2024-06-03,合同会社ケンシン,,合同会社,大阪府,枚方市,片鉾東町２３番２３号,,27,210,5731156,,,,,,,2024-06-03,1,,,,,ケンシン,0
1061,5120003026711,新規,0,2024-06-03,2024-06-03,合同会社Ｌａ　Ｆｉｎ,,合同会社,大阪府,大阪市北区,梅田１丁目２番２号大阪駅前第２ビル１２－１２,,27,127,5300001,,,,,,,2024-06-03,1,,,,,ラファン,0
1065,5120901049268,新規,0,2024-06-03,2024-06-03,株式会社Ｋｅｅｐ　Ｆａｉｔｈ,,株式会社,大阪府,茨木市,西駅前町４茨木駅前ビル６２０,,27,211,5670032,,,,,,,2024-06-03,1,,,,,キープフェイス,0
1069,5130001077144,新規,0,2024-06-03,2024-06-03,株式会社ヒロオ,,株式会社,京都府,宇治市,明星町２丁目３番地の１８,,26,204,6110014,,,,,,,2024-06-03,1,,,,,ヒロオ,0
1070,5130001077169,新規,0,2024-06-03,2024-06-03,Ｔ２株式会社,,株式会社,京都府,京都市南区,上鳥羽高畠町１０４番地,,26,107,6018101,,,,,,,2024-06-03,1,,,,,ティーツー,0
1074,5140001134613,新規,0,2024-06-03,2024-06-03,株式会社ＷＡＬＴＺ．,,株式会社,兵庫県,神戸市中央区,中山手通２丁目３番１５号－２Ｆ,,28,110,6500004,,,,,,,2024-06-03,1,,,,,ワルツ,0
1077,5160001025967,新規,0,2024-06-03,2024-06-03,株式会社光南ボーリング,,株式会社,滋賀県,草津市,矢倉１丁目３番５５－１２号,,25,206,5250053,,,,,,,2024-06-03,1,,,,,コウナンボーリング,0
1078,5160003003203,新規,0,2024-06-03,2024-06-03,Ｔ＆Ｄ合同会社,,合同会社,滋賀県,湖南市,中央１丁目４４－１市兵衛第一ビル１０４号,,25,211,5203234,,,,,,,2024-06-03,1,,,,,ティーアンドディー,0
1080,5170001018169,新規,0,2024-06-03,2024-06-03,株式会社天心会,,株式会社,和歌山県,岩出市,根来９５６番地の７,,30,209,6496202,,,,,,,2024-06-03,1,,,,,テンシンカイ,0
1086,5180001161752,新規,0,2024-06-03,2024-06-03,小山一花株式会社,,株式会社,愛知県,名古屋市中区,錦２丁目１６番４号,,23,106,4600003,,,,,,,2024-06-03,1,,,,,コヤマハナ,0
1087,5180001161760,新規,0,2024-06-03,2024-06-03,ｓａｋｕｒａ　ｓｅｃｏｎｄ株式会社,,株式会社,愛知県,弥富市,中山町北脇６８９番地１,,23,235,4980038,,,,,,,2024-06-03,1,,,,,サクラセカンド,0
1088,5180003026870,新規,0,2024-06-03,2024-06-03,合同会社井上カンリ代行,,合同会社,愛知県,岩倉市,八剱町城屋敷３４０５番地６,,23,228,4820031,,,,,,,2024-06-03,1,,,,,イノウエカンリダイコウ,0
1093,5190003004693,新規,0,2024-06-03,2024-06-03,合同会社ＪＯＹ　ＦＡＣＴＯＲＹ,,合同会社,三重県,津市,乙部２１‐２５‐１０５,,24,201,5140016,,,,,,,2024-06-03,1,,,,,ジョイファクトリー,0
1097,5200003006366,新規,0,2024-06-03,2024-06-03,ホログラム合同会社,,合同会社,岐阜県,岐阜市,三田洞東２丁目７番１０号,,21,201,5020003,,,,,,,2024-06-03,1,,,,,ホログラム,0
1101,5220001026034,新規,0,2024-06-03,2024-06-03,株式会社Ｌｅａｄ,,株式会社,石川県,金沢市,大場町東７８９番地３,,17,201,9203121,,,,,,,2024-06-03,1,,,,,リード,0
1105,5240001063298,新規,0,2024-06-03,2024-06-03,株式会社Ｒｉｒｅ,,株式会社,広島県,広島市西区,井口２丁目２４番４１－６０４号オーベル井口,,34,104,7330842,,,,,,,2024-06-03,1,,,,,リエル,0
1108,5260001039123,新規,0,2024-06-03,2024-06-03,株式会社ＴＯＫＯトランスポート,,株式会社,岡山県,津山市,国分寺２３２番地５,,33,203,7080843,,,,,,,2024-06-03,1,,,,,トーコートランスポート,0
1109,5260003004777,新規,0,2024-06-03,2024-06-03,合同会社匠堂本舗,,合同会社,岡山県,赤磐市,桜が丘東４丁目４－４０,,33,213,7090721,,,,,,,2024-06-03,1,,,,,タクミドウホンポ,0
1119,5290003015383,新規,0,2024-06-03,2024-06-03,合同会社隆法堂,,合同会社,福岡県,糟屋郡篠栗町,大字尾仲３４１番地２８,,40,342,8112413,,,,,,,2024-06-03,1,,,,,リュウホウドウ,0
1120,5290005019416,新規,0,2024-06-03,2024-06-03,一般社団法人ＮＮＫ,,その他の設立登記法人,福岡県,福岡市西区,小戸１丁目１９番１－Ａ－２０１号,,40,135,8190001,,,,,,,2024-06-03,1,,,,,,0
1125,5360001033735,新規,0,2024-06-03,2024-06-03,株式会社サニー,,株式会社,沖縄県,中頭郡西原町,字幸地９９５－７,,47,329,9030116,,,,,,,2024-06-03,1,,,,,サニー,0
1126,5360005007041,新規,0,2024-06-03,2024-06-03,一般社団法人慶留間島教育振興センター,,その他の設立登記法人,沖縄県,島尻郡座間味村,字慶留間２６番地,,47,354,9013312,,,,,,,2024-06-03,1,,,,,ゲルマジマキョウイクシンコウセンター,0
1127,5370005010795,新規,0,2024-06-03,2024-06-03,一般社団法人東名防潮水門管理組合,,その他の設立登記法人,宮城県,東松島市,牛網字上西５５番地３,,04,214,9810301,,,,,,,2024-06-03,1,,,,,トウナボウチョウスイモンカンリクミアイ,0
1135,5420001018746,新規,0,2024-06-03,2024-06-03,株式会社Ｓｎｏｗ　ｐｒａｉｓｅ,,株式会社,青森県,弘前市,大字浜の町西３丁目２番地５,,02,202,0368324,,,,,,,2024-06-03,1,,,,,スノープレイス,0
1137,5430003016375,新規,0,2024-06-03,2024-06-03,零下五度合同会社,,合同会社,北海道,札幌市中央区,南二条東１丁目１－１２フラーテ札幌６１５号室,,01,101,0600052,,,,,,,2024-06-03,1,,,,,レイカゴド,0
1138,5430003016400,新規,0,2024-06-03,2024-06-03,ＳＫＹシステム合同会社,,合同会社,北海道,苫小牧市,美原町３丁目１６－１１,,01,213,0591262,,,,,,,2024-06-03,1,,,,,スカイシステム,0
1145,5470001020235,新規,0,2024-06-03,2024-06-03,株式会社ＭＡＳＴＹ,,株式会社,香川県,高松市,香川町川内原８８５番地２,,37,201,7611704,,,,,,,2024-06-03,1,,,,,マスティー,0
1154,5700150124894,新規,0,2024-06-03,2024-04-17,長野県蘇生法教育推進会,,その他,長野県,松本市,女鳥羽３丁目６－１３,,20,202,3900806,,,,,,,2024-04-17,1,,,,,ナガノケンソセイホウキヨウイクスイシンカイ,0
1164,6010001245273,新規,0,2024-06-03,2024-06-03,ＪＭＡＰ株式会社,,株式会社,東京都,中央区,築地６丁目２３番７号,,13,102,1040045,,,,,,,2024-06-03,1,,,,,ジェイマップ,0
1165,6010001245414,新規,0,2024-06-03,2024-06-03,株式会社自治体総合研究所,,株式会社,東京都,千代田区,霞が関３丁目６番１４号,,13,101,1000013,,,,,,,2024-06-03,1,,,,,ジチタイソウゴウケンキュウジョ,0
1166,6010003043832,新規,0,2024-06-03,2024-06-03,プロスペリタス合同会社,,合同会社,東京都,中央区,湊３丁目１７番８―４１１号,,13,102,1040043,,,,,,,2024-06-03,1,,,,,プロスペリタス,0
1173,6010401182711,新規,0,2024-06-03,2024-06-03,株式会社シェフテリエ,,株式会社,東京都,港区,南青山１丁目１５－９,,13,103,1070062,,,,,,,2024-06-03,1,,,,,シェフテリエ,0
1174,6010401182802,新規,0,2024-06-03,2024-06-03,メリーテックス株式会社,,株式会社,東京都,港区,南青山１丁目１番１号,,13,103,1070062,,,,,,,2024-06-03,1,,,,,メリーテックス,0
1175,6010401182819,新規,0,2024-06-03,2024-06-03,株式会社トップステップ,,株式会社,東京都,港区,南青山３丁目１－３６青山丸竹ビル６Ｆ,,13,103,1070062,,,,,,,2024-06-03,1,,,,,トップステップ,0
1196,6011101107520,新規,0,2024-06-03,2024-06-03,Ｍａｒｂｕｌｌ　Ｘ株式会社,,株式会社,東京都,新宿区,西新宿３丁目３番１３号西新宿水間ビル６階,,13,104,1600023,,,,,,,2024-06-03,1,,,,,マーブルエックス,0
1230,6020001157534,新規,0,2024-06-03,2024-06-03,株式会社悠志,,株式会社,神奈川県,横浜市戸塚区,深谷町９４８番地１０,,14,110,2450067,,,,,,,2024-06-03,1,,,,,ユウシ,0
1233,6020003026258,新規,0,2024-06-03,2024-06-03,合同会社クリューソス,,合同会社,神奈川県,川崎市幸区,小倉１番地１パークシティ新川崎Ｅ－３０７,,14,132,2120054,,,,,,,2024-06-03,1,,,,,クリューソス,0
1236,6021001082367,新規,0,2024-06-03,2024-06-03,株式会社ＬＥＡ’ｓＦｉｔｎｅｓｓ,,株式会社,神奈川県,座間市,相武台３丁目６－５２,,14,216,2520011,,,,,,,2024-06-03,1,,,,,レアズフィットネス,0
1252,6050003008419,新規,0,2024-06-03,2024-06-03,合同会社ｓｕｄｄａｉｓ　ｅｎｔｅｒｐｒｉｓｅｓ,,合同会社,茨城県,結城市,大字結城字塔ノ下町７４８番６の１,,08,207,3070001,,,,,,,2024-06-03,1,,,,,スデースエンターウプリセス,0
1255,6060001037162,新規,0,2024-06-03,2024-06-03,ＵｎｉｔＸ株式会社,,株式会社,栃木県,宇都宮市,戸祭町２６３８－１２,,09,201,3200053,,,,,,,2024-06-03,1,,,,,ユニットエックス,0
1262,6090001018738,新規,0,2024-06-03,2024-06-03,三森不動産株式会社,,株式会社,山梨県,甲府市,朝日２丁目５番１３号,,19,201,4000025,,,,,,,2024-06-03,1,,,,,ミツモリフドウサン,0
1272,6110001038444,新規,0,2024-06-03,2024-06-03,株式会社まるごーとナーシング,,株式会社,新潟県,南魚沼市,塩沢８６２－８,,15,226,9496408,,,,,,,2024-06-03,1,,,,,マルゴートナーシング,0
1277,6120001265475,新規,0,2024-06-03,2024-06-03,君禾株式会社,,株式会社,大阪府,大阪市港区,市岡３丁目１３番９号藤原文化２０２Ａ,,27,107,5520012,,,,,,,2024-06-03,1,,,,,キミカ,0
1278,6120001265483,新規,0,2024-06-03,2024-06-03,株式会社ＮＦＧコーポレーション,,株式会社,大阪府,大阪市中央区,安土町１丁目７番１３号トヤマビル９階,,27,128,5410052,,,,,,,2024-06-03,1,,,,,エヌエフジーコーポレーション,0
1279,6120001265500,新規,0,2024-06-03,2024-06-03,株式会社光定,,株式会社,大阪府,大阪市中央区,南船場２丁目８番１１号シナプス心斎橋ビル,,27,128,5420081,,,,,,,2024-06-03,1,,,,,コウテイ,0
1280,6120003026603,新規,0,2024-06-03,2024-06-03,合同会社近畿総合リサイクル,,合同会社,大阪府,大阪市生野区,新今里２丁目１１番１２号カルム今里１階,,27,116,5440001,,,,,,,2024-06-03,1,,,,,キンキソウゴウリサイクル,0
1281,6120003026735,新規,0,2024-06-03,2024-06-03,ＺＥＡＬＰＬＵＳ合同会社,,合同会社,大阪府,大阪市中央区,南本町２丁目２番２号,,27,128,5410054,,,,,,,2024-06-03,1,,,,,ジールプラス,0
1282,6120003026743,新規,0,2024-06-03,2024-06-03,合同会社Ｍａｖｅｒｉｃｋ,,合同会社,大阪府,大阪市北区,梅田２丁目５番１３号桜橋第一ビル３０４号,,27,127,5300001,,,,,,,2024-06-03,1,,,,,マーベリック,0
1287,6120901049259,新規,0,2024-06-03,2024-06-03,株式会社Ｍｉｒａｉ,,株式会社,大阪府,高槻市,宮之川原３丁目１４番１号の１,,27,207,5691032,,,,,,,2024-06-03,1,,,,,ミライ,0
1290,6130001077168,新規,0,2024-06-03,2024-06-03,株式会社Ｔｅｃｈｎｏ　Ａｒｔｈｕｒ,,株式会社,京都府,京都市下京区,西七条南西野町８,,26,106,6008877,,,,,,,2024-06-03,1,,,,,テクノアーサー,0
1294,6140001134562,新規,0,2024-06-03,2024-06-03,株式会社大和,,株式会社,兵庫県,姫路市,安田３丁目２６番地９０３,,28,201,6700955,,,,,,,2024-06-03,1,,,,,ダイワ,0
1295,6140003020637,新規,0,2024-06-03,2024-06-03,合同会社みこえ,,合同会社,兵庫県,神戸市北区,幸陽町１丁目１８番地エスペランス幸陽台７１３号,,28,109,6511203,,,,,,,2024-06-03,1,,,,,ミコエ,0
1296,6150001027311,新規,0,2024-06-03,2024-06-03,寧楽醗酵株式会社,,株式会社,奈良県,天理市,柳本町１４０６番地柳本マンション２０４号室,,29,204,6320052,,,,,,,2024-06-03,1,,,,,ナラハッコウ,0
1298,6160001025966,新規,0,2024-06-03,2024-06-03,株式会社上原工業,,株式会社,滋賀県,東近江市,五個荘北町屋町８４番地１７,,25,213,5291443,,,,,,,2024-06-03,1,,,,,ウエハラコウギョウ,0
1299,6170001018168,新規,0,2024-06-03,2024-06-03,株式会社ＲＳ,,株式会社,和歌山県,田辺市,芳養松原１丁目１番１９号,,30,206,6460063,,,,,,,2024-06-03,1,,,,,アールエス,0
1307,6180001161751,新規,0,2024-06-03,2024-06-03,株式会社ＱＴＥＰ,,株式会社,愛知県,名古屋市中区,栄１丁目１３番３０号ｍｙアパートメント３Ａ,,23,106,4600008,,,,,,,2024-06-03,1,,,,,キューテップ,0
1308,6180001161776,新規,0,2024-06-03,2024-06-03,株式会社ＫＡＧＵＲＡ,,株式会社,愛知県,名古屋市中区,橘１丁目２１番５号,,23,106,4600016,,,,,,,2024-06-03,1,,,,,カグラ,0
1316,6180005020648,新規,0,2024-06-03,2024-06-03,相続税理士法人,,その他の設立登記法人,愛知県,一宮市,せんい１丁目３番１号,,23,203,4910873,,,,,,,2024-06-03,1,,,,,ソウゾク,0
1326,6200003006365,新規,0,2024-06-03,2024-06-03,合同会社ＫＹＵ,,合同会社,岐阜県,羽島市,正木町森１４丁目１５番地,,21,209,5016221,,,,,,,2024-06-03,1,,,,,キュウ,0
1329,6240001063297,新規,0,2024-06-03,2024-06-03,株式会社ＫＩＭ,,株式会社,広島県,尾道市,栗原西１丁目１０番２２号,,34,205,7220026,,,,,,,2024-06-03,1,,,,,ケーアイエム,0
1330,6240001063306,新規,0,2024-06-03,2024-06-03,株式会社Ａｉｂｅｅ,,株式会社,広島県,広島市西区,中広町２丁目２１－２２,,34,104,7330012,,,,,,,2024-06-03,1,,,,,アイビー,0
1331,6260001039122,新規,0,2024-06-03,2024-06-03,株式会社オフィスさんなっぷ,,株式会社,岡山県,倉敷市,児島駅前１丁目４６番地,,33,202,7110921,,,,,,,2024-06-03,1,,,,,オフィスサンナップ,0
1334,6290001106002,新規,0,2024-06-03,2024-06-03,七福株式会社,00134989,株式会社,福岡県,福岡市中央区,大名２丁目１２番１５号赤坂セブンビル８Ｆ,,40,133,8100041,,,,,,,2024-06-03,1,,,,,シチフク,0
1342,6290801030616,新規,0,2024-06-03,2024-06-03,株式会社塗上,,株式会社,福岡県,北九州市八幡西区,皇后崎町２－３３－１Ｆ,,40,109,8060041,,,,,,,2024-06-03,1,,,,,トガミ,0
1361,6430001091907,新規,0,2024-06-03,2024-06-03,株式会社Ｐｌａｔｉｎｕｍ　Ｈｏｋｋａｉｄｏ,,株式会社,北海道,札幌市豊平区,月寒中央通７丁目６－２０ＪＡ月寒中央ビル２Ｆ,,01,105,0620020,,,,,,,2024-06-03,1,,,,,プラチナムホッカイドウ,0
1363,6440001009445,新規,0,2024-06-03,2024-06-03,オクシリアイランドフェリー株式会社,,株式会社,北海道,奥尻郡奥尻町,字奥尻３０９番地先,,01,367,0431401,,,,,,,2024-06-03,1,,,,,オクシリアイランドフェリー,0
1365,6470003002651,新規,0,2024-06-03,2024-06-03,かなとみらい企画合同会社,,合同会社,香川県,高松市,寿町２丁目２－１０高松寿町プライムビル４Ｆ,,37,201,7600023,,,,,,,2024-06-03,1,,,,,カナトミライキカク,0
1366,6490001010786,新規,0,2024-06-03,2024-06-03,ＭＡＮＩ　ＩＮＴＥＲＮＡＴＩＯＮＡＬ　ＩＮＣ株式会社,,株式会社,高知県,四万十市,右山２３７番地２第２コーポ１０７,,39,210,7870015,,,,,,,2024-06-03,1,,,,,マニインターナショナルインク,0
1367,7010001245330,新規,0,2024-06-03,2024-06-03,株式会社デリ・アートフルライフ,,株式会社,東京都,千代田区,神田錦町３番１５名鉄不動産竹橋ビル３Ｆ,,13,101,1000000,,,,,,,2024-06-03,1,,,,,デリアートフルライフ,0
1368,7010001245355,新規,0,2024-06-03,2024-06-03,ＩｄｅａＢａｎｋｓ株式会社,,株式会社,東京都,文京区,小日向４丁目４－１４－７０２,,13,105,1120006,,,,,,,2024-06-03,1,,,,,アイディアバンクス,0
1369,7010001245363,新規,0,2024-06-03,2024-06-03,株式会社アーク,,株式会社,東京都,中央区,湊３丁目５番１０号,,13,102,1040043,,,,,,,2024-06-03,1,,,,,アーク,0
1372,7010003043674,新規,0,2024-06-03,2024-06-03,合同会社ｍｅｎ,,合同会社,東京都,千代田区,六番町７―１１,,13,101,1020085,,,,,,,2024-06-03,1,,,,,メン,0
1373,7010003043897,新規,0,2024-06-03,2024-06-03,ＧＣＰ２合同会社,,合同会社,東京都,千代田区,丸の内１丁目１１番１号,,13,101,1000005,,,,,,,2024-06-03,1,,,,,ジーシーピーツー,0
1375,7010103002365,新規,0,2024-06-03,2024-06-03,合同会社クレア,,合同会社,東京都,八王子市,小宮町１１７０－１マンションさつき野４０３号,,13,201,1920031,,,,,,,2024-06-03,1,,,,,,0
1379,7010401182719,新規,0,2024-06-03,2024-06-03,株式会社Ｗｉｃｋ,,株式会社,東京都,港区,南麻布２丁目１２番７号南麻布ＴＭＤビル７階,,13,103,1060047,,,,,,,2024-06-03,1,,,,,ウィック,0
1380,7010401182842,新規,0,2024-06-03,2024-06-03,ＳＡＶＥ　ＴＨＥ　ＤＵＣＫ　ＪＡＰＡＮ株式会社,,株式会社,東京都,港区,東新橋２丁目１４番１号,,13,103,1050021,,,,,,,2024-06-03,1,,,,,セーブザダックジャパン,0
1381,7010401182850,新規,0,2024-06-03,2024-06-03,Ａｔｅｌｉｅｒｓ　ＡＭＥ　Ｊａｐａｎ株式会社,,株式会社,東京都,港区,赤坂２丁目１２番７号赤坂二丁目ビル２階株式会社プラス・ワン・サービス内,,13,103,1070052,,,,,,,2024-06-03,1,,,,,アトリエアームジャパン,0
1382,7010401182867,新規,0,2024-06-03,2024-06-03,株式会社トシオオタニ,,株式会社,東京都,港区,南青山３丁目１番３６号青山丸竹ビル６Ｆ,,13,103,1070062,,,,,,,2024-06-03,1,,,,,トシオオタニ,0
1388,7010501052268,新規,0,2024-06-03,2024-06-03,株式会社Ｂ＆Ｂ,,株式会社,東京都,台東区,下谷１丁目４番９号,,13,106,1100004,,,,,,,2024-06-03,1,,,,,ビーアンドビー,0
1389,7010501052350,新規,0,2024-06-03,2024-06-03,株式会社浚影,,株式会社,東京都,台東区,蔵前３丁目１３－１２蔵前ハイム２０４－５,,13,106,1110051,,,,,,,2024-06-03,1,,,,,シュンエイ,0
1391,7010601065302,新規,0,2024-06-03,2024-06-03,株式会社ＫＡプロセッション,,株式会社,東京都,墨田区,立川４丁目１３番１６－５０２号錦糸町第７ウイーンハイツ,,13,107,1300023,,,,,,,2024-06-03,1,,,,,ケーエープロセッション,0
1410,7011501030718,新規,0,2024-06-03,2024-06-03,倍安来日本株式会社,,株式会社,東京都,北区,浮間１丁目１番１４号リムジンビル３２８,,13,117,1150051,,,,,,,2024-06-03,1,,,,,バイアンライニホン,0
1411,7011501030734,新規,0,2024-06-03,2024-06-03,株式会社豪丸,,株式会社,東京都,北区,浮間１丁目１番１４号リムジンビル１３４,,13,117,1150051,,,,,,,2024-06-03,1,,,,,ゴウマル,0
1413,7011703003851,新規,0,2024-06-03,2024-06-03,合同会社Ｒ９,,合同会社,東京都,江戸川区,平井６丁目４－２,,13,123,1320035,,,,,,,2024-06-03,1,,,,,アールナイン,0
1416,7012303001997,新規,0,2024-06-03,2024-06-03,合同会社ＭＴＢ,,合同会社,東京都,町田市,山崎町２９５番地１２,,13,209,1950074,,,,,,,2024-06-03,1,,,,,エムティービー,0
1418,7012403006590,新規,0,2024-06-03,2024-06-03,Ｖｅｎｕｓ　Ｅｓｔａｔｅ合同会社,,合同会社,東京都,狛江市,中和泉５丁目２１番１７号,,13,219,2010012,,,,,,,2024-06-03,1,,,,,ヴィーナスエステート,0
1420,7013301052578,新規,0,2024-06-03,2024-06-03,ＵｎｉＰｏｎｏ株式会社,,株式会社,東京都,豊島区,池袋２丁目４５－１アークシティ池袋６０５,,13,116,1710014,,,,,,,2024-06-03,1,,,,,ユニポノ,0
1427,7020003026257,新規,0,2024-06-03,2024-06-03,合同会社ミルアセットマネジメント,,合同会社,神奈川県,横浜市西区,宮ケ谷２５番地１パークスクエア三ツ沢公園Ｂ３１３号,,14,103,2200006,,,,,,,2024-06-03,1,,,,,ミルアセットマネジメント,0
1428,7020003026265,新規,0,2024-06-03,2024-06-03,合同会社ｅｓｐｏｉｒ,,合同会社,神奈川県,横浜市西区,みなとみらい５丁目３番２－２００５号,,14,103,2200012,,,,,,,2024-06-03,1,,,,,エスポワール,0
1429,7020003026273,新規,0,2024-06-03,2024-06-03,合同会社ｓｅｓａｍｅ,,合同会社,神奈川県,横浜市鶴見区,尻手１丁目７－９－１１２,,14,101,2300003,,,,,,,2024-06-03,1,,,,,セサミ,0
1433,7021001082366,新規,0,2024-06-03,2024-06-03,Ａ‐ＳＫＹ　ｗａｌｌ株式会社,,株式会社,神奈川県,小田原市,栢山２７７４番地の２７,,14,206,2500852,,,,,,,2024-06-03,1,,,,,エースカイウォール,0
1437,7021003014581,新規,0,2024-06-03,2024-06-03,エムケーデータソリューション合同会社,,合同会社,神奈川県,相模原市南区,新磯野４丁目２番３号４０５号室,,14,153,2520325,,,,,,,2024-06-03,1,,,,,エムケーデータソリューション,0
1444,7030001160651,新規,0,2024-06-03,2024-06-03,株式会社スリーエス,,株式会社,埼玉県,ふじみ野市,亀久保３丁目５番３７号,,11,245,3560051,,,,,,,2024-06-03,1,,,,,スリーエス,0
1445,7030001160684,新規,0,2024-06-03,2024-06-03,株式会社ネクストクリエイションズ,,株式会社,埼玉県,志木市,中宗岡３丁目４番１号,,11,228,3530002,,,,,,,2024-06-03,1,,,,,ネクストクリエイションズ,0
1448,7040001133862,新規,0,2024-06-03,2024-06-03,株式会社Ｉｄ,,株式会社,千葉県,柏市,豊四季６７８番地２２９、３０１号,,12,217,2770863,,,,,,,2024-06-03,1,,,,,アイディー,0
1449,7040001133870,新規,0,2024-06-03,2024-06-03,株式会社ＢＩＥＮＥＳＴＡＲ,,株式会社,千葉県,千葉市中央区,新千葉１丁目７－２,,12,101,2600031,,,,,,,2024-06-03,1,,,,,ビエネスター,0
1452,7040003025109,新規,0,2024-06-03,2024-06-03,Ｏｆｆｉｃｅ　Ｋ　Ｐｌａｎｎｉｎｇ合同会社,,合同会社,千葉県,柏市,あけぼの３丁目８番１６－５０２号,,12,217,2770841,,,,,,,2024-06-03,1,,,,,オフィスケイプランニング,0
1453,7040003025117,新規,0,2024-06-03,2024-06-03,合同会社よしみい,,合同会社,千葉県,我孫子市,青山台１丁目７番１３－１号,,12,222,2701175,,,,,,,2024-06-03,1,,,,,ヨシミイ,0
1458,7060001037161,新規,0,2024-06-03,2024-06-03,株式会社ＭｅｒｒｙＬａｎｄホールディングス,,株式会社,栃木県,栃木市,都賀町平川４２０番地５,,09,203,3280112,,,,,,,2024-06-03,1,,,,,メリーランドホールディングス,0
1461,7060003005100,新規,0,2024-06-03,2024-06-03,Ｒｕｎａ　Ａｒｔ合同会社,,合同会社,栃木県,小山市,暁２丁目４番５－５０４号,,09,208,3290211,,,,,,,2024-06-03,1,,,,,ルナアート,0
1464,7070001041815,新規,0,2024-06-03,2024-06-03,株式会社Ｒｕｆｆｕｅ,,株式会社,群馬県,高崎市,台町９番地１２,,10,202,3700805,,,,,,,2024-06-03,1,,,,,ルフエ,0
1466,7080003003218,新規,0,2024-06-03,2024-06-03,合同会社ｒａｒｅ．,,合同会社,静岡県,静岡市駿河区,大和１丁目１－１９ロイヤルマンション大和町３０８号,,22,102,4228077,,,,,,,2024-06-03,1,,,,,,0
1472,7090001018745,新規,0,2024-06-03,2024-06-03,株式会社セーフプラス,,株式会社,山梨県,甲府市,下石田２丁目１０－４,,19,201,4000046,,,,,,,2024-06-03,1,,,,,セーフプラス,0
1480,7120001265417,新規,0,2024-06-03,2024-06-03,ユニオン住研株式会社,,株式会社,大阪府,大阪市北区,樋之口町３番１２号,,27,127,5300032,,,,,,,2024-06-03,1,,,,,ユニオンジュウケン,0
1481,7120001265433,新規,0,2024-06-03,2024-06-03,＿＿株式会社,00134992,株式会社,大阪府,大阪市生野区,新今里５丁目７－６新今里サクセスビル２０３号室,,27,116,5440001,,,,,,,2024-06-03,1,,,,,コウギョウ,0
1482,7120001265532,新規,0,2024-06-03,2024-06-03,瑞奇株式会社,,株式会社,大阪府,大阪市東住吉区,照ケ丘矢田１丁目４番７ＦＵＧＡ矢田マンション２０２号室,,27,121,5460021,,,,,,,2024-06-03,1,,,,,ズイキ,0
1486,7120005024356,新規,0,2024-06-03,2024-06-03,一般社団法人大阪菓子会館,,その他の設立登記法人,大阪府,大阪市西区,北堀江１丁目２３番７号,,27,106,5500014,,,,,,,2024-06-03,1,,,,,オオサカカシカイカン,0
1490,7120101069676,新規,0,2024-06-03,2024-06-03,ＲＨＭキャピタル株式会社,,株式会社,大阪府,岸和田市,西之内町５５番３７号ノースコート１０２号,,27,202,5960044,,,,,,,2024-06-03,1,,,,,アールエイチエムキャピタル,0
1491,7120101069684,新規,0,2024-06-03,2024-06-03,コスモ商事株式会社,,株式会社,大阪府,堺市堺区,市之町東２丁２番２３号,,27,141,5900952,,,,,,,2024-06-03,1,,,,,コスモショウジ,0
1492,7120101069692,新規,0,2024-06-03,2024-06-03,株式会社ＡＮ　ＮＡＭ　ＢＩＳＨＯＫＵ,,株式会社,大阪府,堺市堺区,中三国ヶ丘町５丁３－２３,,27,141,5900022,,,,,,,2024-06-03,1,,,,,アンナムビショク,0
1497,7120903005201,新規,0,2024-06-03,2024-06-03,Ｍｏｍｍｙ　Ｂｌｅｓｓ合同会社,,合同会社,大阪府,豊中市,本町１丁目１１－３０ワコーレ豊中ステーションウィング８０１,,27,203,5600021,,,,,,,2024-06-03,1,,,,,マミーブレス,0
1506,7130001077183,新規,0,2024-06-03,2024-06-03,株式会社エルイーツー,,株式会社,京都府,京都市伏見区,深草西浦町８丁目１１３西陣ビル４階,,26,109,6120029,,,,,,,2024-06-03,1,,,,,エルイーツー,0
1508,7130003009473,新規,0,2024-06-03,2024-06-03,ＭＡＥＶＡ合同会社,,合同会社,京都府,京都市西京区,桂艮町１７－５８,,26,111,6158083,,,,,,,2024-06-03,1,,,,,メイヴァ,0
1513,7140001134636,新規,0,2024-06-03,2024-06-03,株式会社蒔野,,株式会社,兵庫県,神戸市灘区,神前町１丁目２－１５,,28,102,6570052,,,,,,,2024-06-03,1,,,,,マキノ,0
1514,7170001018167,新規,0,2024-06-03,2024-06-03,株式会社ＧＲＥＡＴ　ＤＲＥＡＭ,,株式会社,和歌山県,和歌山市,古屋１３６番地２,,30,201,6408435,,,,,,,2024-06-03,1,,,,,グレートドリーム,0
1522,7180001161742,新規,0,2024-06-03,2024-06-03,ウインググループホールディングス株式会社,,株式会社,愛知県,東海市,大田町畑間７１番地１,,23,222,4770031,,,,,,,2024-06-03,1,,,,,ウインググループホールディングス,0
1523,7180001161775,新規,0,2024-06-03,2024-06-03,株式会社ヤマダワークス,,株式会社,愛知県,名古屋市中区,大須３丁目１４番地３６号,,23,106,4600011,,,,,,,2024-06-03,1,,,,,ヤマダワークス,0
1526,7180003026828,新規,0,2024-06-03,2024-06-03,合同会社ＣＹＣＬＥＲ,,合同会社,愛知県,名古屋市中川区,八熊２丁目１６番１５号,,23,110,4540013,,,,,,,2024-06-03,1,,,,,サイクラー,0
1527,7180003026877,新規,0,2024-06-03,2024-06-03,ＱＯＯＮＥＬ合同会社,,合同会社,愛知県,北名古屋市,中之郷栗島９１番地,,23,234,4810045,,,,,,,2024-06-03,1,,,,,クウネル,0
1532,7200003006364,新規,0,2024-06-03,2024-06-03,ＭＵＮＩＲ　ＴＲＡＤＩＮＧ合同会社,,合同会社,岐阜県,岐阜市,黒野９９－１ぐりむ・ぎほく１２室,,21,201,5011131,,,,,,,2024-06-03,1,,,,,ムニールトレーディング,0
1536,7220001026032,新規,0,2024-06-03,2024-06-03,株式会社ムービーズ,,株式会社,石川県,金沢市,角間町ヌ７番地,,17,201,9201164,,,,,,,2024-06-03,1,,,,,ムービーズ,0
1540,7240001063296,新規,0,2024-06-03,2024-06-03,株式会社尾道ユナイテッドＦＣ,,株式会社,広島県,尾道市,平原３丁目２１番１１－６号メゾンフレンディ,,34,205,7220018,,,,,,,2024-06-03,1,,,,,オノミチユナイテッドエフシー,0
1543,7240003006699,新規,0,2024-06-03,2024-06-03,合同会社パレット,,合同会社,広島県,尾道市,天満町７番３号,,34,205,7220038,,,,,,,2024-06-03,1,,,,,パレット,0
1546,7260001039121,新規,0,2024-06-03,2024-06-03,株式会社グローバルコミュニケーションデザイン,,株式会社,岡山県,岡山市北区,出石町１丁目７番７号,,33,101,7000812,,,,,,,2024-06-03,1,,,,,グローバルコミュニケーションデザイン,0
1557,7300001013757,新規,0,2024-06-03,2024-06-03,株式会社Ｍ．Ｐ．Ｍ,,株式会社,佐賀県,鳥栖市,田代本町１０７１番地８,,41,203,8410018,,,,,,,2024-06-03,1,,,,,エムピーエム,0
1559,7320001020504,新規,0,2024-06-03,2024-06-03,株式会社ジョイミール,,株式会社,大分県,大分市,大字上宗方１０６１－２－２ＦＮ,,44,201,8701152,,,,,,,2024-06-03,1,,,,,ジョイミール,0
1562,7360001033733,新規,0,2024-06-03,2024-06-03,株式会社ユウダイ,,株式会社,沖縄県,宜野湾市,大山５丁目１番１２号１０１号石川貸店舗,,47,205,9012223,,,,,,,2024-06-03,1,,,,,ユウダイ,0
1563,7360001033741,新規,0,2024-06-03,2024-06-03,沖縄国際株式会社,,株式会社,沖縄県,那覇市,牧志３丁目１番１号,,47,201,9000013,,,,,,,2024-06-03,1,,,,,オキナワコクサイ,0
1569,7370001051354,新規,0,2024-06-03,2024-06-03,株式会社ａｍｉｍａｒｕ,,株式会社,宮城県,仙台市太白区,太白１丁目１番５号,,04,104,9820212,,,,,,,2024-06-03,1,,,,,アミマル,0
1575,7390001017626,新規,0,2024-06-03,2024-06-03,株式会社山形総本家,,株式会社,山形県,鶴岡市,末広町６番１３号,,06,203,9970015,,,,,,,2024-06-03,1,,,,,ヤマガタソウホンケ,0
1577,7410001013845,新規,0,2024-06-03,2024-06-03,株式会社おのさかん,,株式会社,秋田県,雄勝郡羽後町,西馬音内字中野１９番地１３,,05,463,0121131,,,,,,,2024-06-03,1,,,,,オノサカン,0
1581,7420001018744,新規,0,2024-06-03,2024-06-03,株式会社ＯＡＫ　ｃｈｉｌｄ,,株式会社,青森県,八戸市,大字廿六日町８番地,,02,203,0310044,,,,,,,2024-06-03,1,,,,,オークチャイルド,0
1592,7700150125453,新規,0,2024-06-03,2024-05-17,瀬尾ひでとし後援会,,その他,福岡県,福岡市城南区,金山団地２－４０７,,40,136,8140114,,,,,,,2024-05-17,1,,,,,セオヒデトシコウエンカイ,0
1599,8010001245346,新規,0,2024-06-03,2024-06-03,株式会社ｒｅｖｅ,,株式会社,東京都,中央区,銀座１丁目２２番１１号銀座大竹ビジデンス２Ｆ,,13,102,1040061,,,,,,,2024-06-03,1,,,,,レーヴ,0
1600,8010001245362,新規,0,2024-06-03,2024-06-03,株式会社パラソル総研,,株式会社,東京都,千代田区,岩本町２丁目１番９－１４０１号,,13,101,1010032,,,,,,,2024-06-03,1,,,,,パラソルソウケン,0
1602,8010003043905,新規,0,2024-06-03,2024-06-03,合同会社ｆｅｒｔｉｌｅ,,合同会社,東京都,中央区,銀座７丁目１５－８タウンハイツ銀座４０６,,13,102,1040061,,,,,,,2024-06-03,1,,,,,ファータイル,0
1609,8010401182858,新規,0,2024-06-03,2024-06-03,株式会社納土総研,,株式会社,東京都,港区,浜松町２丁目２番１５号浜松町ダイヤビル２Ｆ,,13,103,1050013,,,,,,,2024-06-03,1,,,,,ノウドソウケン,0
1615,8010501052374,新規,0,2024-06-03,2024-06-03,株式会社ＰＲＡＴＯＮ,,株式会社,東京都,台東区,松が谷４丁目２０番１０号,,13,106,1110036,,,,,,,2024-06-03,1,,,,,プラトン,0
1616,8010501052382,新規,0,2024-06-03,2024-06-03,リアラブル株式会社,,株式会社,東京都,台東区,池之端３丁目３番９号,,13,106,1100008,,,,,,,2024-06-03,1,,,,,リアラブル,0
1625,8010701046085,新規,0,2024-06-03,2024-06-03,株式会社Ｅｌｓａｎｔ,,株式会社,東京都,品川区,北品川５丁目５番１５号４Ｆ,,13,109,1410001,,,,,,,2024-06-03,1,,,,,エルサント,0
1638,8011705001836,新規,0,2024-06-03,2024-06-03,一般社団法人特殊車両推進協議会,,その他の設立登記法人,東京都,江戸川区,南葛西３丁目１０番１５号マンションカネイ４０３号室,,13,123,1340085,,,,,,,2024-06-03,1,,,,,トクシュシャリョウスイシンキョウギカイ,0
1642,8012401041928,新規,0,2024-06-03,2024-06-03,株式会社ＩＴＯ,,株式会社,東京都,稲城市,平尾１丁目１４番地の１７,,13,225,2060823,,,,,,,2024-06-03,1,,,,,アイティオー,0
1644,8012403006598,新規,0,2024-06-03,2024-06-03,合同会社ＫＤＢ,,合同会社,東京都,調布市,柴崎１丁目５０番地４,,13,208,1820014,,,,,,,2024-06-03,1,,,,,ケーディービー,0
1663,8021001082357,新規,0,2024-06-03,2024-06-03,ＹＫ株式会社,,株式会社,神奈川県,相模原市緑区,橋本台１丁目３３番２－４２０号,,14,151,2520132,,,,,,,2024-06-03,1,,,,,ワイケイ,0
1664,8021001082365,新規,0,2024-06-03,2024-06-03,ＰＭＰ工業株式会社,,株式会社,神奈川県,横須賀市,野比３丁目２９番１９号,,14,201,2390841,,,,,,,2024-06-03,1,,,,,ピーエムピーコウギョウ,0
1679,8040001133853,新規,0,2024-06-03,2024-06-03,株式会社Ｍ　Ｐｌｕｓ,,株式会社,千葉県,船橋市,本町５丁目１０番５号ＥｓｐｏｉｒＳＡＳＡＫＩ－３０８号,,12,204,2730005,,,,,,,2024-06-03,1,,,,,エムプラス,0
1680,8040001133861,新規,0,2024-06-03,2024-06-03,株式会社ファイン住設,,株式会社,千葉県,東金市,求名１１７番地１,,12,213,2830002,,,,,,,2024-06-03,1,,,,,ファインジュウセツ,0
1681,8040003025108,新規,0,2024-06-03,2024-06-03,合同会社フィル,,合同会社,千葉県,浦安市,北栄１丁目１１－１１－２０１,,12,227,2790002,,,,,,,2024-06-03,1,,,,,フィル,0
1687,8060001037160,新規,0,2024-06-03,2024-06-03,株式会社エイチ・ワイ・エイ,,株式会社,栃木県,宇都宮市,上戸祭町７６番地１３,,09,201,3200051,,,,,,,2024-06-03,1,,,,,エイチワイエイ,0
1688,8060005010213,新規,0,2024-06-03,2024-06-03,一般社団法人Ｓｐｏｒｔｓ　Ｌｉｆｅ　Ａｌｌｉａｎｃｅ,,その他の設立登記法人,栃木県,宇都宮市,二荒町５番７号,,09,201,3200804,,,,,,,2024-06-03,1,,,,,スポーツライフアライアンス,0
1689,8070001041764,新規,0,2024-06-03,2024-06-03,ＲＡＡＺ　ＴＲＡＤＩＮＧ株式会社,,株式会社,群馬県,藤岡市,岡之郷２５５番地,,10,209,3750011,,,,,,,2024-06-03,1,,,,,ラーズトレーディング,0
1691,8080101024775,新規,0,2024-06-03,2024-06-03,株式会社メモリアル西伊豆,,株式会社,静岡県,賀茂郡西伊豆町,田子１７７０番地の１,,22,306,4103515,,,,,,,2024-06-03,1,,,,,メモリアルニシイズ,0
1692,8080401027222,新規,0,2024-06-03,2024-06-03,株式会社みらいえ不動産,,株式会社,静岡県,浜松市中央区,和田町７５番地の２ビジネスパーク和田５号,,22,138,4350016,,,,,,,2024-06-03,1,,,,,ミライエフドウサン,0
1693,8090001018736,新規,0,2024-06-03,2024-06-03,株式会社ＯＫライフ,,株式会社,山梨県,都留市,井倉６９４番地,,19,204,4020011,,,,,,,2024-06-03,1,,,,,オーケーライフ,0
1694,8090001018744,新規,0,2024-06-03,2024-06-03,株式会社ＺＯＮＥ,,株式会社,山梨県,甲府市,国母３丁目１１番１７号,,19,201,4000043,,,,,,,2024-06-03,1,,,,,ゾーン,0
1706,8120001265382,新規,0,2024-06-03,2024-06-03,株式会社一龍運輸,,株式会社,大阪府,門真市,島頭４丁目１３番２４号サンモントレ島頭１０３,,27,223,5710016,,,,,,,2024-06-03,1,,,,,イチリュウウンユ,0
1707,8120001265390,新規,0,2024-06-03,2024-06-03,関西マネジメント株式会社,,株式会社,大阪府,大阪市中央区,南船場４丁目１０番５号南船場ＳＯＨＯビル７０２,,27,128,5420081,,,,,,,2024-06-03,1,,,,,カンサイマネジメント,0
1708,8120001265473,新規,0,2024-06-03,2024-06-03,株式会社レイ,,株式会社,大阪府,大阪市阿倍野区,阿倍野筋１丁目１番４３号あべのハルカス３１Ｆ,,27,119,5450052,,,,,,,2024-06-03,1,,,,,レイ,0
1709,8120001265515,新規,0,2024-06-03,2024-06-03,株式会社アスイロ,,株式会社,大阪府,大阪市北区,梅田１丁目１３番１号大阪梅田ツインタワーズ・サウス１５階,,27,127,5300001,,,,,,,2024-06-03,1,,,,,アスイロ,0
1710,8120001265523,新規,0,2024-06-03,2024-06-03,株式会社マーケティングハイランズ,,株式会社,大阪府,大阪市中央区,日本橋１丁目１８番１号,,27,128,5420073,,,,,,,2024-06-03,1,,,,,マーケティングハイランズ,0
1715,8120101069691,新規,0,2024-06-03,2024-06-03,株式会社Ａｌａ‐Ｐｕｎａ,,株式会社,大阪府,堺市堺区,浅香山町２丁４番３１号,,27,141,5900012,,,,,,,2024-06-03,1,,,,,アラプナ,0
1716,8120901049257,新規,0,2024-06-03,2024-06-03,株式会社ゼニス,,株式会社,大阪府,高槻市,真上町２丁目１番３１号,,27,207,5691121,,,,,,,2024-06-03,1,,,,,ゼニス,0
1717,8120903005200,新規,0,2024-06-03,2024-06-03,合同会社ＡＱｃｅｌｌ,,合同会社,大阪府,茨木市,庄２丁目１７,,27,211,5670806,,,,,,,2024-06-03,1,,,,,アクセル,0
1719,8130001077174,新規,0,2024-06-03,2024-06-03,寺村商事株式会社,,株式会社,京都府,木津川市,山城町綺田渡戸２７番地,,26,214,6190201,,,,,,,2024-06-03,1,,,,,テラムラショウジ,0
1720,8130001077182,新規,0,2024-06-03,2024-06-03,株式会社幸輝,,株式会社,京都府,舞鶴市,字七日市４７１番地５,,26,202,6240822,,,,,,,2024-06-03,1,,,,,コウコウ,0
1721,8130003009605,新規,0,2024-06-03,2024-06-03,アイ・エヌ・シー合同会社,,合同会社,京都府,京都市中京区,壬生賀陽御所町４２－１２,,26,104,6048811,,,,,,,2024-06-03,1,,,,,アイエヌシー,0
1726,8140001134610,新規,0,2024-06-03,2024-06-03,ユニファースト株式会社,,株式会社,兵庫県,姫路市,飾磨区清水２丁目５岩崎ビル３Ｆ中,,28,201,6728051,,,,,,,2024-06-03,1,,,,,ユニファースト,0
1727,8140001134635,新規,0,2024-06-03,2024-06-03,ニューパスコンサルティング株式会社,,株式会社,兵庫県,神戸市中央区,熊内町５丁目１２番１８号,,28,110,6510056,,,,,,,2024-06-03,1,,,,,ニューパスコンサルティング,0
1734,8170001018166,新規,0,2024-06-03,2024-06-03,株式会社ＩＳＫ,,株式会社,和歌山県,岩出市,波分２３９番地の１,,30,209,6496241,,,,,,,2024-06-03,1,,,,,アイエスケイ,0
1741,8180001161758,新規,0,2024-06-03,2024-06-03,株式会社ラブリエ,,株式会社,愛知県,名古屋市中区,丸の内３丁目２２番１１号,,23,106,4600002,,,,,,,2024-06-03,1,,,,,ラブリエ,0
1757,8210003001792,新規,0,2024-06-03,2024-06-03,Ｅｍｉｔａｓｕ合同会社,,合同会社,福井県,福井市,上野本町１丁目２０２３－６,,18,201,9100134,,,,,,,2024-06-03,1,,,,,エミタス,0
1759,8220001026031,新規,0,2024-06-03,2024-06-03,株式会社ＳＯ．ＧＲＡＴＩＡ,,株式会社,石川県,加賀市,柏野町ト１０１番地１,,17,206,9220262,,,,,,,2024-06-03,1,,,,,ソグラティア,0
1762,8240001063304,新規,0,2024-06-03,2024-06-03,株式会社Ｓｈｕ,,株式会社,広島県,三原市,宗郷２丁目３番３３号コーポＳ２（２０３号）,,34,204,7230044,,,,,,,2024-06-03,1,,,,,シュウ,0
1766,8260001039120,新規,0,2024-06-03,2024-06-03,株式会社甍興産,,株式会社,岡山県,岡山市南区,藤田６６８番地７３,,33,104,7010221,,,,,,,2024-06-03,1,,,,,イラカコウサン,0
1770,8290001106000,新規,0,2024-06-03,2024-06-03,株式会社シビルサポート,,株式会社,福岡県,福岡市東区,香椎２丁目２３番１－１０５号ＪＧＭヴェルデガーデン香椎の杜,,40,131,8130011,,,,,,,2024-06-03,1,,,,,シビルサポート,0
1775,8290801030614,新規,0,2024-06-03,2024-06-03,株式会社藤田和住デザイン,,株式会社,福岡県,北九州市小倉南区,大字辻三４６,00134986,40,107,8030263,,,,,,,2024-06-03,1,,,,,フジタワジュウデザイン,0
1776,8330003010385,新規,0,2024-06-03,2024-06-03,ジャストワールドズ合同会社,,合同会社,熊本県,熊本市南区,良町１丁目１番３７‐２号,,43,104,8620969,,,,,,,2024-06-03,1,,,,,ジャストワールドズ,0
1781,8360001033732,新規,0,2024-06-03,2024-06-03,株式会社いろはカンパニー,,株式会社,沖縄県,うるま市,字赤道６８６番地８,,47,213,9042245,,,,,,,2024-06-03,1,,,,,イロハカンパニー,0
1782,8360001033740,新規,0,2024-06-03,2024-06-03,株式会社Ｓｕｍ‐ｆｉｅｌｄ,,株式会社,沖縄県,那覇市,安謝１丁目１番２７号アサヒビル１階,,47,201,9000003,,,,,,,2024-06-03,1,,,,,サムフィールド,0
1785,8370003006628,新規,0,2024-06-03,2024-06-03,ｗｉｓｈ合同会社,,合同会社,宮城県,石巻市,大街道東２丁目５番７１号ｇｌｉｃｉｎａ－Ａ棟,,04,202,9860855,,,,,,,2024-06-03,1,,,,,ウィッシュ,0
1793,8420001018743,新規,0,2024-06-03,2024-06-03,株式会社Ｎｉｎｅ　Ｑｕａｄｓ,,株式会社,青森県,八戸市,大字長横町７番地まるまんビル３０１,,02,203,0310089,,,,,,,2024-06-03,1,,,,,ナインクワッズ,0
1796,8430003016389,新規,0,2024-06-03,2024-06-03,合同会社いここい,,合同会社,北海道,小樽市,信香町４番６号,,01,203,0470016,,,,,,,2024-06-03,1,,,,,イココイ,0
1797,8430003016397,新規,0,2024-06-03,2024-06-03,合同会社ＡｙＵＮｇ,,合同会社,北海道,札幌市南区,真駒内本町６丁目２番１号,,01,106,0050021,,,,,,,2024-06-03,1,,,,,アユン,0
1804,8440003001596,新規,0,2024-06-03,2024-06-03,ＮＹ合同会社,,合同会社,北海道,北斗市,七重浜４丁目２７番２０号,,01,236,0490111,,,,,,,2024-06-03,1,,,,,エヌワイ,0
1807,8470001020232,新規,0,2024-06-03,2024-06-03,株式会社ビッグラック,,株式会社,香川県,高松市,百間町９番地１５,,37,201,7600041,,,,,,,2024-06-03,1,,,,,ビッグラック,0
1825,9010001243811,新規,0,2024-06-03,2024-06-03,株式会社ＳＴ　ＬＩＮＥ,,株式会社,東京都,中央区,銀座１丁目１２－４Ｎ＆ＥＢＬＤ．７Ｐａ,,13,102,1040061,,,,,,,2024-06-03,1,,,,,エスティーライン,0
1827,9010003043912,新規,0,2024-06-03,2024-06-03,ふじサンエネルギー合同会社,,合同会社,東京都,千代田区,富士見２丁目１０番２号,,13,101,1020071,,,,,,,2024-06-03,1,,,,,フジサンエネルギー,0
1828,9010003043929,新規,0,2024-06-03,2024-06-03,合同会社新川崎ＤＣ,,合同会社,東京都,千代田区,丸の内３丁目１番１号東京共同会計事務所内,,13,101,1000005,,,,,,,2024-06-03,1,,,,,シンカワサキディーシー,0
1835,9010401182799,新規,0,2024-06-03,2024-06-03,株式会社リナジー,,株式会社,東京都,港区,北青山１丁目３番１号アールキューブ青山３階,,13,103,1070061,,,,,,,2024-06-03,1,,,,,リナジー,0
1836,9010401182840,新規,0,2024-06-03,2024-06-03,ライフケアホールディングス株式会社,,株式会社,東京都,港区,三田５丁目４番４号リッツ三田１Ｆ,,13,103,1080073,,,,,,,2024-06-03,1,,,,,ライフケアホールディングス,0
1837,9010401182873,新規,0,2024-06-03,2024-06-03,株式会社Ｃａｓａ,,株式会社,東京都,港区,北青山３丁目６番２０号９Ｆ,,13,103,1070061,,,,,,,2024-06-03,1,,,,,カーサ,0
1838,9010401182881,新規,0,2024-06-03,2024-06-03,株式会社澄明,,株式会社,東京都,港区,赤坂８丁目６－２７スカイプラザ赤坂４０４,,13,103,1070052,,,,,,,2024-06-03,1,,,,,チョウメイ,0
1843,9010501052274,新規,0,2024-06-03,2024-06-03,日本卓越精機ベアリング製造株式会社,,株式会社,東京都,台東区,清川１丁目２１－５ＷＡＬＬａｐａｒｔｍｅｎｔ５階大区画号室,,13,106,1110022,,,,,,,2024-06-03,1,,,,,ニホンタクエツセイキベアリングセイゾウ,0
1844,9010501052282,新規,0,2024-06-03,2024-06-03,株式会社Ｔａｋｕｍｉ　Ｈｏｍｅ,,株式会社,東京都,台東区,三ノ輪１丁目２８番１６号ＢＬＵＥＳＫＹ２０１号,,13,106,1100011,,,,,,,2024-06-03,1,,,,,タクミホーム,0
1845,9010501052373,新規,0,2024-06-03,2024-06-03,株式会社喜楽,,株式会社,東京都,台東区,千束３丁目２１番１２号キートスビル５０４号室,,13,106,1110031,,,,,,,2024-06-03,1,,,,,キラク,0
1846,9010501052381,新規,0,2024-06-03,2024-06-03,智控日本株式会社,,株式会社,東京都,台東区,台東１丁目２４番９号ブライト秋葉原Ｂ１Ｆ,,13,106,1100016,,,,,,,2024-06-03,1,,,,,チコウニホン,0
1850,9010803004972,新規,0,2024-06-03,2024-06-03,合同会社アンダンティーノ,,合同会社,東京都,大田区,下丸子４丁目２７番３－９０１号,,13,111,1460092,,,,,,,2024-06-03,1,,,,,アンダンティーノ,0
1861,9011301029719,新規,0,2024-06-03,2024-06-03,信環境株式会社,,株式会社,東京都,杉並区,下井草２丁目１０番２２号,,13,115,1670022,,,,,,,2024-06-03,1,,,,,,0
1867,9011701027314,新規,0,2024-06-03,2024-06-03,Ａスチール株式会社,,株式会社,東京都,江戸川区,中葛西１丁目１４番１４－１０３号,,13,123,1340083,,,,,,,2024-06-03,1,,,,,エイスチール,0
1870,9011801044325,新規,0,2024-06-03,2024-06-03,株式会社ＧＩＯ,,株式会社,東京都,葛飾区,小菅４丁目１６番１－２０８号コープ野村綾瀬,,13,122,1240001,,,,,,,2024-06-03,1,,,,,ジーアイオー,0
1876,9011803006232,新規,0,2024-06-03,2024-06-03,ＢＭＭＴ合同会社,,合同会社,東京都,足立区,足立２丁目２１番７号,,13,121,1200015,,,,,,,2024-06-03,1,,,,,ビーエムエムティー,0
1878,9012301013935,新規,0,2024-06-03,2024-06-03,株式会社ｙｓ企画,,株式会社,東京都,町田市,南つくし野４丁目１８－１６,,13,209,1940002,,,,,,,2024-06-03,1,,,,,ワイズキカク,0
1885,9020001157440,新規,0,2024-06-03,2024-06-03,Ｓｔｒｅｅｔｂｏｏｓｔｅｒ　Ｊａｐａｎ株式会社,,株式会社,神奈川県,横浜市港北区,篠原北１丁目１５－４－１,,14,109,2220021,,,,,,,2024-06-03,1,,,,,ストリートブースタージャパン,0
1886,9020001157481,新規,0,2024-06-03,2024-06-03,ＳＩＫＩＳＡＩグループ株式会社,,株式会社,神奈川県,横浜市西区,浅間町１丁目４番３号ウィザードビル４０２,,14,103,2200072,,,,,,,2024-06-03,1,,,,,シキサイグループ,0
1887,9020001157523,新規,0,2024-06-03,2024-06-03,株式会社環,,株式会社,神奈川県,横浜市港北区,日吉２丁目１６－９,,14,109,2230061,,,,,,,2024-06-03,1,,,,,タマキ,0
1893,9021003014588,新規,0,2024-06-03,2024-06-03,ＫＵＭＡＲＩ合同会社,,合同会社,神奈川県,平塚市,八重咲町２５－２７,,14,203,2540811,,,,,,,2024-06-03,1,,,,,クマリ,0
1898,9030001160674,新規,0,2024-06-03,2024-06-03,株式会社弘栄,,株式会社,埼玉県,蓮田市,大字閏戸４１９０番地６,,11,238,3490133,,,,,,,2024-06-03,1,,,,,コウエイ,0
1900,9030003024282,新規,0,2024-06-03,2024-06-03,合同会社ＴＷＥＬＶＥ,,合同会社,埼玉県,所沢市,大字山口９９２番地の２,,11,208,3591145,,,,,,,2024-06-03,1,,,,,トゥウェルブ,0
1905,9040001133720,新規,0,2024-06-03,2024-06-03,株式会社ヒライ,,株式会社,千葉県,市川市,曽谷６丁目２５－２６,,12,203,2720832,,,,,,,2024-06-03,1,,,,,ヒライ,0
1906,9040001133828,新規,0,2024-06-03,2024-06-03,イント＆ピコ株式会社,,株式会社,千葉県,印西市,原３丁目２番７３５号,,12,231,2701335,,,,,,,2024-06-03,1,,,,,イントアンドピコ,0
1907,9040001133852,新規,0,2024-06-03,2024-06-03,株式会社Ｒｅｅｍ,,株式会社,千葉県,船橋市,海神６丁目２０番２４号,,12,204,2730021,,,,,,,2024-06-03,1,,,,,リーム,0
1911,9050001054841,新規,0,2024-06-03,2024-06-03,株式会社ＳＨＩＭＡＭＵＲＡホールディングス,,株式会社,茨城県,かすみがうら市,深谷６１番地７４,,08,230,3000134,,,,,,,2024-06-03,1,,,,,シマムラホールディングス,0
1918,9050003008424,新規,0,2024-06-03,2024-06-03,合同会社ＥＹＥＬＯＶＥ,,合同会社,茨城県,鉾田市,鉾田２５９５番地１１,,08,234,3111517,,,,,,,2024-06-03,1,,,,,アイラブ,0
1921,9080401027213,新規,0,2024-06-03,2024-06-03,株式会社伸々,,株式会社,静岡県,浜松市中央区,松島町２２９番地の１,,22,138,4300834,,,,,,,2024-06-03,1,,,,,シンシン,0
1935,9120001265497,新規,0,2024-06-03,2024-06-03,株式会社大阪奈良産業医サービス,,株式会社,大阪府,大阪市北区,梅田１丁目２番２号大阪駅前第２ビル１２－１２,,27,127,5300001,,,,,,,2024-06-03,1,,,,,オオサカナラサンギョウイサービス,0
1936,9120001265514,新規,0,2024-06-03,2024-06-03,翔育株式会社,,株式会社,大阪府,大阪市中央区,谷町３丁目７番２－１３０１号,,27,128,5400012,,,,,,,2024-06-03,1,,,,,ショウイク,0
1937,9120001265522,新規,0,2024-06-03,2024-06-03,株式会社ＣＯＮＹＣＯＮＹ,,株式会社,大阪府,大阪市淀川区,宮原１丁目１９－２３－８２５,,27,123,5320003,,,,,,,2024-06-03,1,,,,,コニーコニー,0
1939,9120003026550,新規,0,2024-06-03,2024-06-03,合同会社ウェブミー,,合同会社,大阪府,大阪市北区,梅田１丁目２番２号大阪駅前第２ビル１２‐１２,,27,127,5300001,,,,,,,2024-06-03,1,,,,,ウェブミー,0
1947,9120901049231,新規,0,2024-06-03,2024-06-03,無月鏡花株式会社,,株式会社,大阪府,豊中市,庄内幸町５丁目１５番１６号,,27,203,5610833,,,,,,,2024-06-03,1,,,,,ムゲツキョウカ,0
1948,9120901049256,新規,0,2024-06-03,2024-06-03,株式会社ハッピーブルー,,株式会社,大阪府,吹田市,江坂町１丁目１７番１２－８０４号,,27,205,5640063,,,,,,,2024-06-03,1,,,,,ハッピーブルー,0
1950,9130001077165,新規,0,2024-06-03,2024-06-03,文太郎ソリューションズ株式会社,,株式会社,京都府,京都市右京区,西院日照町１１２サーパスシティ西院日照町５０７,,26,108,6150065,,,,,,,2024-06-03,1,,,,,ブンタロウソリューションズ,0
1959,9160001025963,新規,0,2024-06-03,2024-06-03,リアライズ株式会社,,株式会社,滋賀県,大津市,大将軍３丁目６－６－１０１号,,25,201,5202145,,,,,,,2024-06-03,1,,,,,リアライズ,0
1966,9180001161749,新規,0,2024-06-03,2024-06-03,株式会社テクノアロウ,,株式会社,愛知県,小牧市,若草町１９０番地,,23,219,4850031,,,,,,,2024-06-03,1,,,,,テクノアロウ,0
1969,9180301038688,新規,0,2024-06-03,2024-06-03,株式会社Ｏｄｄｓ　Ｉｎｖｅｓｔｍｅｎｔｓ,,株式会社,愛知県,岡崎市,梅園町字２丁目９－６、２０８号室,,23,202,4440031,,,,,,,2024-06-03,1,,,,,オッズインベストメンツ,0
1973,9190001031380,新規,0,2024-06-03,2024-06-03,Ｐｌｕｓ　ｅｉｇｈｔ株式会社,,株式会社,三重県,四日市市,下海老町２６５７番地５,,24,202,5121203,,,,,,,2024-06-03,1,,,,,プラスエイト,0
1981,9230001020370,新規,0,2024-06-03,2024-06-03,株式会社北陸しろはとファーム,,株式会社,富山県,射水市,流通センター水戸田２丁目３番地１,,16,211,9390402,,,,,,,2024-06-03,1,,,,,ホクリクシロハトファーム,0
1986,9250003003512,新規,0,2024-06-03,2024-06-03,合同会社エムワイエンジニアリング,,合同会社,山口県,下関市,垢田町２丁目１番１８号,,35,201,7510841,,,,,,,2024-06-03,1,,,,,エムワイエンジニアリング,0
2000,9300001013755,新規,0,2024-06-03,2024-06-03,株式会社進栄開発,,株式会社,佐賀県,小城市,芦刈町浜枝川９８２番地１１,00134991,41,208,8490315,,,,,,,2024-06-03,1,,,,,シンエイカイハツ,0
2006,9320003004379,新規,0,2024-06-03,2024-06-03,合同会社ＳＨＵＢＩ,,合同会社,大分県,佐伯市,直川大字横川２４８６番地,,44,205,8793105,,,,,,,2024-06-03,1,,,,,シュウビ,0
2007,9330001032125,新規,0,2024-06-03,2024-06-03,株式会社Ａｌｇｕｅ,,株式会社,熊本県,上益城郡嘉島町,大字北甘木２２５７番地１,,43,442,8613104,,,,,,,2024-06-03,1,,,,,アルギュ,0
2013,9340001026547,新規,0,2024-06-03,2024-06-03,株式会社エスコネクト,,株式会社,鹿児島県,鹿児島市,加治屋町８－１６－７０１,,46,201,8920846,,,,,,,2024-06-03,1,,,,,エスコネクト,0
2016,9350001018989,新規,0,2024-06-03,2024-06-03,株式会社はじめ商店,,株式会社,宮崎県,串間市,大字奈留５１７１番地,,45,207,8893531,,,,,,,2024-06-03,1,,,,,ハジメショウテン,0
2028,9430001091912,新規,0,2024-06-03,2024-06-03,株式会社Ｇｅｒｂｅｒａ,,株式会社,北海道,札幌市中央区,大通西７丁目２番地２,,01,101,0600042,,,,,,,2024-06-03,1,,,,,ガーベラ,0
2029,9430001091920,新規,0,2024-06-03,2024-06-03,株式会社ＴＫ‐Ｓｅｌｅｃｔｉｏｎ,,株式会社,北海道,札幌市北区,屯田五条７丁目１１番１５号,,01,102,0020855,,,,,,,2024-06-03,1,,,,,ティーケーセレクション,0
2031,9430003016396,新規,0,2024-06-03,2024-06-03,合同会社シュパーズ,,合同会社,北海道,札幌市中央区,南七条西４丁目４２４－１２すすきのプラザビル８０７,,01,101,0640807,,,,,,,2024-06-03,1,,,,,シュパーズ,0
