sequenceNumber,corporateNumber,process,correct,updateDate,changeDate,name,nameImageId,kind,prefectureName,cityName,streetNumber,addressImageId,prefectureCode,cityCode,postCode,addressOutside,addressOutsideImageId,closeDate,closeCause,successorCorporateNumber,changeCause,assignmentDate,latest,enName,enPrefectureName,enCityName,enAddressOutside,furigana,hihyoji
12,1010001250996,新規,0,2024-12-24,2024-12-24,幹細胞しえんきこう株式会社,,株式会社,東京都,千代田区,麹町４丁目２－１１ＳｙｎｃｓＫｏｊｉｍａｃｈｉＢｌｄｇ．６階,,13,101,1020083,,,,,,,2024-12-24,1,,,,,カンサイボウシエンキコウ,0
14,1010003045833,新規,0,2024-12-24,2024-12-24,Ｔｈｅ　Ｐｅａｋ　Ｓｅｒｉｅｓ　ＸＩ合同会社,,合同会社,東京都,千代田区,四番町４番地９新東京国際リーガル内,,13,101,1020081,,,,,,,2024-12-24,1,,,,,ザピークシリーズイレブン,0
15,1010003045899,新規,0,2024-12-24,2024-12-24,カラーオブジェクト合同会社,,合同会社,東京都,千代田区,神田須田町１丁目７番８号ＶＯＲＴ秋葉原ＩＶ２Ｆ,00137433,13,101,1010041,,,,,,,2024-12-24,1,,,,,カラーオブジェクト,0
18,1010101016463,新規,0,2024-12-24,2024-12-24,ピクシスノーティカ株式会社,,株式会社,東京都,八王子市,元本郷町３丁目２１番２０号,,13,201,1920051,,,,,,,2024-12-24,1,,,,,ピクシスノーティカ,0
28,1010603011292,新規,0,2024-12-24,2024-12-24,スパークルジャパン合同会社,,合同会社,東京都,江東区,豊洲４丁目９番１３号,,13,108,1350061,,,,,,,2024-12-24,1,,,,,スパークルジャパン,0
31,1010701047032,新規,0,2024-12-24,2024-12-24,良帆商事株式会社,,株式会社,東京都,品川区,西品川１丁目１０番９号－２０３号,,13,109,1410033,,,,,,,2024-12-24,1,,,,,リョウハンショウジ,0
35,1010901056444,新規,0,2024-12-24,2024-12-24,ＰＣＰコンサルティング株式会社,,株式会社,東京都,世田谷区,羽根木２丁目２８－１５コオリナクリスタル羽根木３０１,,13,112,1560042,,,,,,,2024-12-24,1,,,,,ピーシーピーコンサルティング,0
43,1011001166737,新規,0,2024-12-24,2024-12-24,株式会社Ａｒｔｉｓａｎａｌ　Ｏｒｃｈｅｓｔｒａ,,株式会社,東京都,渋谷区,広尾４丁目１番１７号広尾ガーデンヒルズＥ－４０６,,13,113,1500012,,,,,,,2024-12-24,1,,,,,アーティザナルオーケストラ,0
44,1011001166794,新規,0,2024-12-24,2024-12-24,星河株式会社,,株式会社,東京都,渋谷区,神南１丁目１２番１４号渋谷宮田ビル６Ｆ、７Ｆ、８Ｆ,,13,113,1500041,,,,,,,2024-12-24,1,,,,,セイガ,0
46,1011003020652,新規,0,2024-12-24,2024-12-24,合同会社ＣＮ太陽光５号,,合同会社,東京都,渋谷区,千駄ヶ谷３丁目１１番８号,,13,113,1510051,,,,,,,2024-12-24,1,,,,,シーエヌタイヨウコウゴゴウ,0
47,1011003020669,新規,0,2024-12-24,2024-12-24,合同会社Ｌｉｎｏ,,合同会社,東京都,渋谷区,渋谷２丁目１９－１５宮益坂ビルディング６０９,,13,113,1500002,,,,,,,2024-12-24,1,,,,,リノ,0
50,1011101110033,新規,0,2024-12-24,2024-12-24,千鳥ヶ淵コーポレーション株式会社,,株式会社,東京都,新宿区,西新宿３丁目３番１３号西新宿水間ビル２Ｆ,,13,104,1600023,,,,,,,2024-12-24,1,,,,,チドリガフチコーポレーション,0
51,1011103015338,新規,0,2024-12-24,2024-12-24,アングスターマーケット合同会社,,合同会社,東京都,新宿区,西新宿３丁目３番１３号西新宿水間ビル６階,,13,104,1600023,,,,,,,2024-12-24,1,,,,,アングスターマーケット,0
68,1012703003153,新規,0,2024-12-24,2024-12-24,合同会社ＴＥＮＮＮ,,合同会社,東京都,東村山市,野口町１丁目１７－１関田ビルＣ棟２階,,13,213,1890022,,,,,,,2024-12-24,1,,,,,テン,0
75,1013303007445,新規,0,2024-12-24,2024-12-24,白藤合同会社,,合同会社,東京都,豊島区,池袋２丁目２２番２号新日本パレスビル３階,,13,116,1710014,,,,,,,2024-12-24,1,,,,,シラフジ,0
85,1020001160732,新規,0,2024-12-24,2024-12-24,株式会社Ａｍｏｒ,,株式会社,神奈川県,横浜市青葉区,あざみ野１丁目３番地１ドミールあざみ野１０６,,14,117,2250011,,,,,,,2024-12-24,1,,,,,アモル,0
92,1020003027483,新規,0,2024-12-24,2024-12-24,合同会社ありがとう,,合同会社,神奈川県,川崎市川崎区,池上新町２丁目４－２アーバンハイツ１０３,,14,131,2100832,,,,,,,2024-12-24,1,,,,,アリガトウ,0
93,1020005016658,新規,0,2024-12-24,2024-12-24,一般社団法人統合医療共済会,,その他の設立登記法人,神奈川県,横浜市南区,日枝町３丁目７１番地,,14,105,2320011,,,,,,,2024-12-24,1,,,,,トウゴウイリョウキョウサイカイ,0
105,1030001164047,新規,0,2024-12-24,2024-12-24,株式会社ＹＡＰ全館設備,,株式会社,埼玉県,久喜市,菖蒲町菖蒲９００－６,,11,232,3460106,,,,,,,2024-12-24,1,,,,,ワイエーピーゼンカンセツビ,0
106,1030001164055,新規,0,2024-12-24,2024-12-24,株式会社Ｌｉｎｋ　Ｄｒｉｖｅ,,株式会社,埼玉県,川口市,大字道合９８３番地の１８,,11,203,3330835,,,,,,,2024-12-24,1,,,,,リンクドライブ,0
107,1030001164071,新規,0,2024-12-24,2024-12-24,株式会社ＬＥＴＯ,,株式会社,埼玉県,さいたま市緑区,原山２丁目６番１７号,,11,109,3360931,,,,,,,2024-12-24,1,,,,,レト,0
108,1030001164088,新規,0,2024-12-24,2024-12-24,Ｓｉｒｉｕｓ株式会社,,株式会社,埼玉県,新座市,西堀２丁目１１－１７,,11,230,3520031,,,,,,,2024-12-24,1,,,,,シリウス,0
116,1040001136689,新規,0,2024-12-24,2024-12-24,株式会社Ｋ’ｚ　ｗｏｒｋｓ,,株式会社,千葉県,柏市,関場町１番３５号メゾン・レンブラント１０３,,12,217,2770028,,,,,,,2024-12-24,1,,,,,ケイズワークス,0
119,1040003026426,新規,0,2024-12-24,2024-12-24,ＨＵＮＧ　ＣＵＣ合同会社,,合同会社,千葉県,船橋市,栄町１丁目２９番２２号ＳｅｂｏＳｅｂｏ船橋Ｂ棟１０１号,,12,204,2730018,,,,,,,2024-12-24,1,,,,,,0
121,1070001042471,新規,0,2024-12-24,2024-12-24,株式会社ＡＵ　ＫＡＭＢＯＨ,,株式会社,群馬県,太田市,小舞木町３１１番地ＭＢＣＶ－３０２,,10,205,3730818,,,,,,,2024-12-24,1,,,,,エーユーカンボー,0
124,1080101025210,新規,0,2024-12-24,2024-12-24,アイオーティーリンク株式会社,,株式会社,静岡県,伊豆の国市,寺家１５１番地の１,,22,225,4102122,,,,,,,2024-12-24,1,,,,,アイオーティーリンク,0
131,1100001038144,新規,0,2024-12-24,2024-12-24,株式会社ＵＳＰ,,株式会社,長野県,茅野市,玉川２２２７番地１,,20,214,3910011,,,,,,,2024-12-24,1,,,,,ユーエスピー,0
148,1120001271313,新規,0,2024-12-24,2024-12-24,天地合一株式会社,,株式会社,大阪府,大阪市生野区,生野西１丁目１１番４号,,27,116,5440024,,,,,,,2024-12-24,1,,,,,テンチゴウイツ,0
149,1120001271354,新規,0,2024-12-24,2024-12-24,東勝株式会社,,株式会社,大阪府,大阪市平野区,加美北１丁目２３番２７号、２０１号室,,27,126,5470001,,,,,,,2024-12-24,1,,,,,トウカツ,0
150,1120001271362,新規,0,2024-12-24,2024-12-24,ＳＡＮＳＡＮ旅行株式会社,,株式会社,大阪府,大阪市中央区,瓦町４丁目６番８－１２０６号,,27,128,5410048,,,,,,,2024-12-24,1,,,,,サンサンリョコウ,0
151,1120001271370,新規,0,2024-12-24,2024-12-24,株式会社ジャバラＨＤ,,株式会社,大阪府,大阪市中央区,本町３丁目５番７号,,27,128,5410053,,,,,,,2024-12-24,1,,,,,ジャバラエイチディ,0
152,1120001271379,新規,0,2024-12-24,2024-12-24,株式会社Ｇｒａｃｅ,,株式会社,大阪府,大阪市都島区,都島南通１丁目１９番１０号,,27,102,5340023,,,,,,,2024-12-24,1,,,,,グレイス,0
153,1120001271387,新規,0,2024-12-24,2024-12-24,株式会社三光興産,,株式会社,大阪府,大阪市城東区,今福西６丁目２番１－６０２号,,27,118,5360004,,,,,,,2024-12-24,1,,,,,サンコウコウサン,0
154,1120001271395,新規,0,2024-12-24,2024-12-24,日本医療投資株式会社,,株式会社,大阪府,大阪市北区,豊崎１丁目８番１－８０３号,,27,127,5310072,,,,,,,2024-12-24,1,,,,,ニホンイリョウトウシ,0
157,1120003028232,新規,0,2024-12-24,2024-12-24,合同会社上翔技建,,合同会社,大阪府,門真市,大橋町３番２２号大橋町文化１０１号,,27,223,5710077,,,,,,,2024-12-24,1,,,,,ジョウショウギケン,0
159,1120005024667,新規,0,2024-12-24,2024-12-24,一般社団法人日本太陽光防災支援センター,,その他の設立登記法人,大阪府,大阪市平野区,瓜破西３丁目３番３号,,27,126,5470025,,,,,,,2024-12-24,1,,,,,ニホンタイヨウコウボウサイシエンセンター,0
166,1120901050196,新規,0,2024-12-24,2024-12-24,株式会社ＦＡホールディングス,,株式会社,大阪府,摂津市,鳥飼本町４丁目４番４３号,,27,224,5660052,,,,,,,2024-12-24,1,,,,,エフエイホールディングス,0
167,1122001038758,新規,0,2024-12-24,2024-12-24,ＴＮアセットマネジメント株式会社,,株式会社,大阪府,八尾市,久宝寺２丁目１番３５号,,27,212,5810072,,,,,,,2024-12-24,1,,,,,ティーエヌアセットマネジメント,0
177,1140001136828,新規,0,2024-12-24,2024-12-24,開進ランカ株式会社,,株式会社,兵庫県,西宮市,中島町１６－３１,,28,204,6638105,,,,,,,2024-12-24,1,,,,,カイシンランカ,0
178,1140001136836,新規,0,2024-12-24,2024-12-24,株式会社ホームガード,,株式会社,兵庫県,芦屋市,大原町１１番２４号ラポルテ北館２階,,28,206,6590092,,,,,,,2024-12-24,1,,,,,ホームガード,0
182,1150003003455,新規,0,2024-12-24,2024-12-24,合同会社ミドリノ,,合同会社,奈良県,北葛城郡上牧町,緑ヶ丘１丁目３番１７号,,29,424,6390204,,,,,,,2024-12-24,1,,,,,ミドリノ,0
191,1180001164676,新規,0,2024-12-24,2024-12-24,株式会社ＢＩＰ,,株式会社,愛知県,名古屋市西区,玉池町１１０番地,,23,104,4520812,,,,,,,2024-12-24,1,,,,,ビップ,0
196,1180301039363,新規,0,2024-12-24,2024-12-24,株式会社ワイエーオート,,株式会社,愛知県,豊橋市,北山町７４番地１,,23,201,4418105,,,,,,,2024-12-24,1,,,,,ワイエーオート,0
197,1180303006378,新規,0,2024-12-24,2024-12-24,合同会社中部販売,,合同会社,愛知県,豊橋市,天伯町字竜ケ丘９１番地１,,23,201,4418122,,,,,,,2024-12-24,1,,,,,チュウブハンバイ,0
199,1190003004887,新規,0,2024-12-24,2024-12-24,合同会社天米堂,,合同会社,三重県,三重郡菰野町,大字大強原１９８７番１,,24,341,5101222,,,,,,,2024-12-24,1,,,,,テンマイドウ,0
217,1270001009104,新規,0,2024-12-24,2024-12-24,株式会社Ｋａｌｏｒｉ,,株式会社,鳥取県,鳥取市,鹿野町広木６９番地,,31,201,6890401,,,,,,,2024-12-24,1,,,,,カロリ,0
237,1330001032751,新規,0,2024-12-24,2024-12-24,株式会社クレイス,,株式会社,熊本県,熊本市西区,池田４丁目３２番２２号,,43,103,8600082,,,,,,,2024-12-24,1,,,,,クレイス,0
243,1370001052060,新規,0,2024-12-24,2024-12-24,株式会社セピア,,株式会社,宮城県,仙台市青葉区,愛子東２丁目４番１５号,,04,101,9893127,,,,,,,2024-12-24,1,,,,,セピア,0
254,1430001093313,新規,0,2024-12-24,2024-12-24,株式会社ＧＥＮＩＣ,,株式会社,北海道,石狩市,花川南七条３丁目２０２番地,,01,235,0613207,,,,,,,2024-12-24,1,,,,,ジェニック,0
261,1490001010923,新規,0,2024-12-24,2024-12-24,イアス高知株式会社,,株式会社,高知県,高知市,長浜４４４４番地１６,,39,201,7810270,,,,,,,2024-12-24,1,,,,,イアスコウチ,0
265,1500001026042,新規,0,2024-12-24,2024-12-24,株式会社ＴＩ工務,,株式会社,愛媛県,伊予郡砥部町,上原町５７番地３,,38,402,7912117,,,,,,,2024-12-24,1,,,,,ティーアイコウム,0
266,1700150128379,新規,0,2024-12-24,2024-12-24,ｓｈｅｎｚｈｅｎｓｈｉｘｉｎｈｅｙｏｕｍｉｄｉａｎｚｉｓｈａｎｇｗｕｙｏｕｘｉａｎｇｏｎｇｓｉ,,外国会社等,,,,,,,,ｓｈｅｎｚｈｅｎｓｈｉｌｕｏｈｕｑｕｎａｎｈｕｊｉｅｄａｏｊｉａｂｅｉｓｈｅｑｕｙｉｎｇｃｈｕｎｌｕ１２ｈａｏｈａｉｗａｉｌｉａｎｙｉｄａｓｈａ１３０３－１７９６,,,,,,2024-12-24,1,,,,,シンセンシシンヘヨウミデンシショウムユウゲンコウシ,0
273,2010001250855,新規,0,2024-12-24,2024-12-24,株式会社トータルアカウンティングソリューションズ,,株式会社,東京都,千代田区,九段南３丁目５－２九段南３丁目ビル５Ｆ,,13,101,1020074,,,,,,,2024-12-24,1,,,,,トータルアカウンティングソリューションズ,0
274,2010001250888,新規,0,2024-12-24,2024-12-24,輝煌株式会社,,株式会社,東京都,文京区,白山１丁目６番４号文京ＶｅｎｔｕｒｅＢａｓｅ２階Ａ０３号室,,13,105,1130001,,,,,,,2024-12-24,1,,,,,キコウ,0
275,2010001250938,新規,0,2024-12-24,2024-12-24,ＢＡＣＫＲＡＮＫ株式会社,,株式会社,東京都,中央区,日本橋室町１丁目１１番１２号日本橋水野ビル７階,,13,102,1030022,,,,,,,2024-12-24,1,,,,,バックランク,0
279,2010005039279,新規,0,2024-12-24,2024-12-24,行政書士法人Ｐｏｌａｒｉｓ,,その他の設立登記法人,東京都,中央区,入船１丁目９番８号,,13,102,1040042,,,,,,,2024-12-24,1,,,,,ポラリス,0
284,2010401187219,新規,0,2024-12-24,2024-12-24,ｓｕｃｃｅｓｓｆｅｅ株式会社,,株式会社,東京都,港区,南青山３丁目８番５号,,13,103,1070062,,,,,,,2024-12-24,1,,,,,サクセスフィ,0
300,2010601066503,新規,0,2024-12-24,2024-12-24,株式会社リミライ,,株式会社,東京都,江東区,青海２丁目７－４ｔｈｅＳＯＨＯ８３９号室,,13,108,1350064,,,,,,,2024-12-24,1,,,,,リミライ,0
303,2010701047015,新規,0,2024-12-24,2024-12-24,データメトリックスサービセズ株式会社,,株式会社,東京都,品川区,西五反田１丁目２６番２号五反田サンハイツ９１１,,13,109,1410031,,,,,,,2024-12-24,1,,,,,データメトリックスサービセズ,0
304,2010701047023,新規,0,2024-12-24,2024-12-24,株式会社東京水産,,株式会社,東京都,品川区,東大井６丁目１０番１９号,,13,109,1400011,,,,,,,2024-12-24,1,,,,,トウキョウスイサン,0
311,2011001166703,新規,0,2024-12-24,2024-12-24,株式会社ＦＥＥＬ,,株式会社,東京都,渋谷区,神宮前４丁目３番２号,,13,113,1500001,,,,,,,2024-12-24,1,,,,,フィール,0
312,2011001166769,新規,0,2024-12-24,2024-12-24,リベルテ株式会社,,株式会社,東京都,渋谷区,神宮前４丁目７番１２号,,13,113,1500001,,,,,,,2024-12-24,1,,,,,リベルテ,0
313,2011001166777,新規,0,2024-12-24,2024-12-24,株式会社なる,,株式会社,東京都,渋谷区,道玄坂１丁目１０番８号渋谷道玄坂東急ビル２Ｆ－Ｃ,,13,113,1500043,,,,,,,2024-12-24,1,,,,,ナル,0
314,2011003020643,新規,0,2024-12-24,2024-12-24,合同会社ＧＤ,,合同会社,東京都,渋谷区,道玄坂２丁目１５番１号ノア道玄坂３１０号,,13,113,1500043,,,,,,,2024-12-24,1,,,,,ジーディー,0
315,2011003020668,新規,0,2024-12-24,2024-12-24,ＣｒｅａｔｏｒＷａｙｓ合同会社,,合同会社,東京都,渋谷区,神宮前６丁目２３番４号桑野ビル２階,,13,113,1500001,,,,,,,2024-12-24,1,,,,,クリエイターウェイズ,0
319,2011301030245,新規,0,2024-12-24,2024-12-24,株式会社健康ＢＡＳＥ,,株式会社,東京都,杉並区,堀ノ内１丁目６番地３号マンション方南町二葉１０２号室,,13,115,1660013,,,,,,,2024-12-24,1,,,,,ケンコウベース,0
331,2013303007444,新規,0,2024-12-24,2024-12-24,合同会社Ｍａｙｄａｙ,,合同会社,東京都,豊島区,西巣鴨１丁目１番２号４Ｆ,,13,116,1700001,,,,,,,2024-12-24,1,,,,,メイデイ,0
332,2013303007452,新規,0,2024-12-24,2024-12-24,スタート合同会社,,合同会社,東京都,豊島区,西巣鴨３丁目３番８号ブルームステージ４０１号,,13,116,1700001,,,,,,,2024-12-24,1,,,,,スタート,0
335,2020001160624,新規,0,2024-12-24,2024-12-24,株式会社ＭＹ　ＭＥＤＩＣＡ,,株式会社,神奈川県,横浜市中区,常盤町１丁目３番地,,14,104,2310014,,,,,,,2024-12-24,1,,,,,マイメディカ,0
336,2020001160681,新規,0,2024-12-24,2024-12-24,株式会社ＮＴＨ,,株式会社,神奈川県,横浜市西区,みなとみらい３丁目６番３号ＭＭパークビル６階６０３区－Ａ,,14,103,2200012,,,,,,,2024-12-24,1,,,,,エヌティーエイチ,0
342,2020003027482,新規,0,2024-12-24,2024-12-24,合同会社９９,,合同会社,神奈川県,横浜市中区,矢口台８９番地１ヤマテエンバシープラザ１０１号室,,14,104,2310831,,,,,,,2024-12-24,1,,,,,ツクモ,0
343,2020005016657,新規,0,2024-12-24,2024-12-24,一般社団法人ＰＯＬＡＲＩＳ,,その他の設立登記法人,神奈川県,川崎市川崎区,砂子２丁目４番地１７、１階,,14,131,2100006,,,,,,,2024-12-24,1,,,,,ポラリス,0
350,2021003015378,新規,0,2024-12-24,2024-12-24,合同会社ともに,,合同会社,神奈川県,海老名市,杉久保南１丁目７番１６号,,14,215,2430427,,,,,,,2024-12-24,1,,,,,トモニ,0
352,2030001163972,新規,0,2024-12-24,2024-12-24,株式会社ＰＪ　ＡＵＴＯＳ,,株式会社,埼玉県,行田市,大字長野４８３６番地２,,11,206,3610023,,,,,,,2024-12-24,1,,,,,ピージェイオートス,0
353,2030001164062,新規,0,2024-12-24,2024-12-24,アエズエンジニアリング株式会社,,株式会社,埼玉県,深谷市,石塚３９６番地１,,11,218,3660011,,,,,,,2024-12-24,1,,,,,アエズエンジニアリング,0
354,2030001164095,新規,0,2024-12-24,2024-12-24,株式会社ドルフィン,,株式会社,埼玉県,熊谷市,上之３０２３番地３,,11,202,3600012,,,,,,,2024-12-24,1,,,,,ドルフィン,0
355,2030003025758,新規,0,2024-12-24,2024-12-24,ＫＡＭＡＬＡ合同会社,,合同会社,埼玉県,鴻巣市,松原４丁目３番５５号,,11,217,3650042,,,,,,,2024-12-24,1,,,,,カマラ,0
362,2040001136606,新規,0,2024-12-24,2024-12-24,すずなりコンサルティング株式会社,,株式会社,千葉県,千葉市美浜区,打瀬２丁目１０番地パティオス１５番街５１８号室,,12,106,2610013,,,,,,,2024-12-24,1,,,,,スズナリコンサルティング,0
366,2050001055904,新規,0,2024-12-24,2024-12-24,株式会社ジオデザイン,,株式会社,茨城県,高萩市,大字秋山４５７番地２,,08,214,3180024,,,,,,,2024-12-24,1,,,,,ジオデザイン,0
367,2050001055920,新規,0,2024-12-24,2024-12-24,株式会社Ｈ＆ＬＩＦＩＸ,,株式会社,茨城県,日立市,弁天町１丁目９番１号ＨＵＢＳｑｕａｒｅ２階,,08,202,3170072,,,,,,,2024-12-24,1,,,,,エイチアンドリフィックス,0
368,2050003008901,新規,0,2024-12-24,2024-12-24,合同会社ｏｆｆｉｃｅ　ＹＵＫＯ,,合同会社,茨城県,水戸市,千波町１６８番地の２１,,08,201,3100851,,,,,,,2024-12-24,1,,,,,オフィスユウコ,0
371,2070003005707,新規,0,2024-12-24,2024-12-24,合同会社エルバ,,合同会社,群馬県,みどり市,大間々町塩原１２３４番地,,10,212,3760115,,,,,,,2024-12-24,1,,,,,エルバ,0
372,2070003005715,新規,0,2024-12-24,2024-12-24,合同会社ぷれみあむばーむ,,合同会社,群馬県,高崎市,新町３２８９番地３,,10,202,3701301,,,,,,,2024-12-24,1,,,,,プレミアムバーム,0
381,2090005007666,新規,0,2024-12-24,2024-12-24,一般社団法人成年後見事務所灯,,その他の設立登記法人,山梨県,甲府市,城東３丁目１３番８号,,19,201,4000861,,,,,,,2024-12-24,1,,,,,セイネンコウケンジムショアカリ,0
382,2100001038143,新規,0,2024-12-24,2024-12-24,株式会社ＳＴＩ,,株式会社,長野県,下伊那郡高森町,下市田２８５７番地６,,20,403,3993103,,,,,,,2024-12-24,1,,,,,エスティーアイ,0
392,2120001271254,新規,0,2024-12-24,2024-12-24,株式会社ＯＭ,,株式会社,大阪府,大阪市阿倍野区,阿倍野筋３丁目５番１７－２４０５号,,27,119,5450052,,,,,,,2024-12-24,1,,,,,オーエム,0
393,2120001271378,新規,0,2024-12-24,2024-12-24,株式会社ＳＴＡＲ　ＲＡＩＮ,,株式会社,大阪府,大阪市北区,野崎町７番３号松下ビル２階,,27,127,5300055,,,,,,,2024-12-24,1,,,,,スターレイン,0
394,2120001271386,新規,0,2024-12-24,2024-12-24,株式会社シマショウ,,株式会社,大阪府,大阪市東淀川区,西淡路１丁目１番９号ビジネス新大阪４１６号,,27,114,5330031,,,,,,,2024-12-24,1,,,,,シマショウ,0
400,2120005024666,新規,0,2024-12-24,2024-12-24,Ｎ‐ｃａｔｉｏｎ一般社団法人,,その他の設立登記法人,大阪府,大阪市天王寺区,上汐４丁目３番１５号アクアプレイス上本町８０３号,,27,109,5430002,,,,,,,2024-12-24,1,,,,,エヌケーション,0
405,2120901050204,新規,0,2024-12-24,2024-12-24,株式会社竹原事務所,,株式会社,大阪府,茨木市,山手台新町２丁目１１番２５号,,27,211,5670010,,,,,,,2024-12-24,1,,,,,タケハラジムショ,0
406,2120903005478,新規,0,2024-12-24,2024-12-24,合同会社ＭＯＯＮ　ｓｔｙｌｅ,,合同会社,大阪府,豊中市,上野西３丁目２番４５－１０５号,,27,203,5600011,,,,,,,2024-12-24,1,,,,,ムーンスタイル,0
409,2130001078649,新規,0,2024-12-24,2024-12-24,ＯＬＩＳ株式会社,,株式会社,京都府,京都市北区,大宮南田尻町６３番地,,26,101,6038832,,,,,,,2024-12-24,1,,,,,オリス,0
419,2140001136827,新規,0,2024-12-24,2024-12-24,皆成不動産株式会社,,株式会社,兵庫県,姫路市,御国野町国分寺２３１番地プレステージ姫路御国野５０６号,,28,201,6710234,,,,,,,2024-12-24,1,,,,,カイセイフドウサン,0
432,2180003027780,新規,0,2024-12-24,2024-12-24,合同会社Ｖａｌｅｎｔｉｎｅ　Ｖａｌｅｎｔｉｎｅ,,合同会社,愛知県,春日井市,西尾町２７３番地３,,23,206,4800302,,,,,,,2024-12-24,1,,,,,バレンタインバレンタイン,0
442,2230001020674,新規,0,2024-12-24,2024-12-24,株式会社羽廣屋万九郎,00137430,株式会社,富山県,富山市,神通本町２丁目２番１９‐２００１号レーベン富山神通本町ＯＮＥＴＯＷＥＲ,,16,201,9300008,,,,,,,2024-12-24,1,,,,,ハビロヤマンクロウ,0
444,2240001064290,新規,0,2024-12-24,2024-12-24,Ｌｉｆｅ　Ｉｎ　Ｍｏｔｉｏｎ株式会社,,株式会社,広島県,広島市佐伯区,石内北２丁目１２番１号,,34,108,7315109,,,,,,,2024-12-24,1,,,,,ライフインモーション,0
447,2240003006992,新規,0,2024-12-24,2024-12-24,アプリサポートゼン合同会社,,合同会社,広島県,広島市佐伯区,藤の木３丁目６番６号,,34,108,7315103,,,,,,,2024-12-24,1,,,,,アプリサポートゼン,0
450,2260001039729,新規,0,2024-12-24,2024-12-24,サイトウ鈑金株式会社,,株式会社,岡山県,倉敷市,高須賀１６６番地２,,33,202,7100021,,,,,,,2024-12-24,1,,,,,サイトウバンキン,0
456,2290001108365,新規,0,2024-12-24,2024-12-24,千手タイル株式会社,,株式会社,福岡県,朝倉市,千手９５５番地４,,40,228,8380017,,,,,,,2024-12-24,1,,,,,センズタイル,0
457,2290001108373,新規,0,2024-12-24,2024-12-24,株式会社Ｃｒｅａｔｉｖｅ　Ｔｉｍｅ,,株式会社,福岡県,福岡市博多区,博多駅前１丁目２３番２号ＰａｒｋＦｒｏｎｔ博多駅前１丁目５Ｆ－Ｂ,,40,132,8120011,,,,,,,2024-12-24,1,,,,,クリエイティブタイム,0
458,2290001108398,新規,0,2024-12-24,2024-12-24,株式会社古賀重設,,株式会社,福岡県,糟屋郡粕屋町,花ヶ浦４丁目１３番１号,,40,349,8112310,,,,,,,2024-12-24,1,,,,,コガジュウセツ,0
460,2290003016203,新規,0,2024-12-24,2024-12-24,合同会社ルナ・エ・ソーレ,,合同会社,福岡県,福岡市博多区,千代２丁目２番３６号,,40,132,8120044,,,,,,,2024-12-24,1,,,,,ルナエソーレ,0
468,2360001034562,新規,0,2024-12-24,2024-12-24,株式会社ＢｅＹｏｕ,,株式会社,沖縄県,沖縄市,中央１丁目３４番５号コーラルラグーンＡ,,47,211,9040004,,,,,,,2024-12-24,1,,,,,ビーユー,0
475,2430001093320,新規,0,2024-12-24,2024-12-24,株式会社エスリバ,,株式会社,北海道,札幌市東区,北三十三条東５丁目２番３８号,,01,103,0650033,,,,,,,2024-12-24,1,,,,,エスリバ,0
476,2430001093329,新規,0,2024-12-24,2024-12-24,海洲株式会社,,株式会社,北海道,小樽市,朝里川温泉２丁目６８６番地８,,01,203,0470154,,,,,,,2024-12-24,1,,,,,カイシュウ,0
478,2470001020510,新規,0,2024-12-24,2024-12-24,株式会社ファームＨ．Ｍ,,株式会社,香川県,高松市,屋島西町１１８１番地７,,37,201,7610113,,,,,,,2024-12-24,1,,,,,ファームエイチエム,0
483,2500003003393,新規,0,2024-12-24,2024-12-24,スプレッドチャーム合同会社,,合同会社,愛媛県,四国中央市,土居町小林６０２番地３,,38,213,7990702,,,,,,,2024-12-24,1,,,,,スプレッドチャーム,0
484,2700150128378,新規,0,2024-12-24,2024-12-24,ｇｕａｎｇｚｈｏｕｐｏｇｕｓｈａｎｇｗｕｆｕｗｕｙｏｕｘｉａｎｇｏｎｇｓｉ,,外国会社等,,,,,,,,７０１－７０２Ａ　Ｚｉｂｉａｎ　１２５４，５８５　Ａｉｒｐｏｒｔ　Ｒｏａｄ　Ｔａｎｇｊｉｎｇ　Ｓｔｒｅｅｔ，Ｂａｉｙｕｎ　Ｄｉｓｔｒｉｃｔ，Ｇｕａｎｇｚｈｏｕ　Ｃｉｔｙ,,,,,,2024-12-24,1,,,,,コウシュウポグシャンウフウユウゲンコウシ,0
492,3010001250920,新規,0,2024-12-24,2024-12-24,株式会社石黒組,,株式会社,東京都,中央区,築地７丁目１２番１３－９０２号,,13,102,1040045,,,,,,,2024-12-24,1,,,,,イシグログミ,0
493,3010001250994,新規,0,2024-12-24,2024-12-24,ＥＮＶＩＳＩＯＮ　ＥＮＥＲＧＹ　ＪＡＰＡＮ株式会社,,株式会社,東京都,千代田区,霞が関３丁目２番６号東京倶楽部ビルディング１１階,,13,101,1000013,,,,,,,2024-12-24,1,,,,,エンビジョンエナジージャパン,0
502,3010403034046,新規,0,2024-12-24,2024-12-24,合同会社住まいコンパス,,合同会社,東京都,港区,南青山２丁目２番１５号,,13,103,1070062,,,,,,,2024-12-24,1,,,,,スマイコンパス,0
511,3010901056525,新規,0,2024-12-24,2024-12-24,株式会社ＤｒａＩＴ,,株式会社,東京都,世田谷区,太子堂４丁目１８番１５号マガザン三軒茶屋２・３Ｆ－３,,13,112,1540004,,,,,,,2024-12-24,1,,,,,ドライト,0
515,3011001166735,新規,0,2024-12-24,2024-12-24,株式会社ｅｘｍｏｒｅ,,株式会社,東京都,渋谷区,道玄坂１丁目１０番８号渋谷道玄坂東急ビル２Ｆ―Ｃ,,13,113,1500043,,,,,,,2024-12-24,1,,,,,エクスモア,0
516,3011001166743,新規,0,2024-12-24,2024-12-24,株式会社コーチングファーム,,株式会社,東京都,目黒区,柿の木坂２丁目２０番５号,,13,110,1520022,,,,,,,2024-12-24,1,,,,,コーチングファーム,0
517,3011001166792,新規,0,2024-12-24,2024-12-24,ダイヤモンドエックス株式会社,,株式会社,東京都,渋谷区,渋谷３丁目１５番３号土屋渋谷ビル７階,,13,113,1500002,,,,,,,2024-12-24,1,,,,,ダイヤモンドエックス,0
518,3011003020659,新規,0,2024-12-24,2024-12-24,リシェス合同会社,,合同会社,東京都,渋谷区,鶯谷町１６番６号,,13,113,1500032,,,,,,,2024-12-24,1,,,,,リシェス,0
519,3011003020675,新規,0,2024-12-24,2024-12-24,合同会社樹生,,合同会社,東京都,渋谷区,幡ヶ谷１丁目３番１号ゴールデンマンション７０１号室,,13,113,1510072,,,,,,,2024-12-24,1,,,,,ジュナ,0
520,3011005010815,新規,0,2024-12-24,2024-12-24,一般社団法人国際文物芸術品取引協会,,その他の設立登記法人,東京都,渋谷区,松濤１丁目２９番１号渋谷クロスロードビル６階,,13,113,1500046,,,,,,,2024-12-24,1,,,,,コクサイブンブツゲイジュツヒントリヒキキョウカイ,0
521,3011101110015,新規,0,2024-12-24,2024-12-24,株式会社フィーノリッケ,,株式会社,東京都,新宿区,新宿１丁目２番１号新宿御苑前マンション４０２,,13,104,1600022,,,,,,,2024-12-24,1,,,,,フィーノリッケ,0
522,3011101110031,新規,0,2024-12-24,2024-12-24,株式会社ＳＵＮＦＩＥＬＤ不動産,,株式会社,東京都,新宿区,西新宿３丁目７－２６ハイネスロワイヤル６１２号室,,13,104,1600023,,,,,,,2024-12-24,1,,,,,サンフィールドフドウサン,0
525,3011103015336,新規,0,2024-12-24,2024-12-24,合同会社ＯＮ計画,,合同会社,東京都,新宿区,中落合２丁目１１番５号,,13,104,1610032,,,,,,,2024-12-24,1,,,,,オンケイカク,0
527,3011401026670,新規,0,2024-12-24,2024-12-24,田雲株式会社,,株式会社,東京都,板橋区,坂下１丁目２８番２号,,13,119,1740043,,,,,,,2024-12-24,1,,,,,タグモ,0
528,3011501031496,新規,0,2024-12-24,2024-12-24,株式会社滝本不動産,,株式会社,東京都,北区,赤羽１丁目２９番６号,,13,117,1150045,,,,,,,2024-12-24,1,,,,,タキモトフドウサン,0
529,3011501031513,新規,0,2024-12-24,2024-12-24,青松産業株式会社,,株式会社,東京都,北区,十条仲原１丁目３－５鈴木ビル２０３号室,,13,117,1140031,,,,,,,2024-12-24,1,,,,,アオマツサンギョウ,0
535,3012801023605,新規,0,2024-12-24,2024-12-24,株式会社堀尾総業,,株式会社,東京都,東大和市,南街３丁目２９番６号,,13,220,2070014,,,,,,,2024-12-24,1,,,,,ホリオソウギョウ,0
536,3012803003571,新規,0,2024-12-24,2024-12-24,合同会社ｓｏａｌｉｓ,,合同会社,東京都,日野市,栄町３丁目１―３７,,13,212,1910001,,,,,,,2024-12-24,1,,,,,ソアリス,0
549,3020001160648,新規,0,2024-12-24,2024-12-24,株式会社Ｓ＆Ｋ,,株式会社,神奈川県,横浜市西区,高島２丁目７番２－２３０５号,,14,103,2200011,,,,,,,2024-12-24,1,,,,,エスアンドケー,0
556,3020003027481,新規,0,2024-12-24,2024-12-24,合同会社ＴＲＯＩＳＵ,,合同会社,神奈川県,横浜市戸塚区,汲沢３丁目１５－３５－２,,14,110,2450061,,,,,,,2024-12-24,1,,,,,トロワ,0
557,3020003027507,新規,0,2024-12-24,2024-12-24,合同会社スマイルコーポレーション,,合同会社,神奈川県,横浜市港北区,大倉山６丁目１１番１－４０３号,,14,109,2220037,,,,,,,2024-12-24,1,,,,,スマイルコーポレーション,0
558,3020005016656,新規,0,2024-12-24,2024-12-24,一般社団法人Ｇｏｏｄ　Ｌｉｓｔｅｎｅｒ’ｓ　Ｔａｂｌｅ,,その他の設立登記法人,神奈川県,横浜市瀬谷区,宮沢２丁目５３番地２１,,14,114,2460038,,,,,,,2024-12-24,1,,,,,グッドリスナーズテーブル,0
560,3021003015360,新規,0,2024-12-24,2024-12-24,合同会社ＰＵＪＡ,,合同会社,神奈川県,小田原市,西大友１３６番地の２,,14,206,2500212,,,,,,,2024-12-24,1,,,,,プージャ,0
566,3030001164053,新規,0,2024-12-24,2024-12-24,株式会社くらしく,,株式会社,埼玉県,久喜市,西大輪１８３９番地６,,11,232,3400206,,,,,,,2024-12-24,1,,,,,クラシク,0
567,3030001164061,新規,0,2024-12-24,2024-12-24,株式会社ハザマフードサービス,,株式会社,埼玉県,入間市,大字新久７７０,,11,225,3580031,,,,,,,2024-12-24,1,,,,,ハザマフードサービス,0
570,3030005021985,新規,0,2024-12-24,2024-12-24,一般社団法人Ｔａｍａ‐ｆｕｎ,,その他の設立登記法人,埼玉県,さいたま市見沼区,大和田町１丁目２１５番地８,,11,104,3370053,,,,,,,2024-12-24,1,,,,,タマファン,0
575,3040001136679,新規,0,2024-12-24,2024-12-24,ＦＡＢ　ＴＲＡＤＩＮＧ株式会社,,株式会社,千葉県,長生郡一宮町,東浪見７４０３番地３,,12,421,2994303,,,,,,,2024-12-24,1,,,,,ファブトレーディング,0
581,3050001055911,新規,0,2024-12-24,2024-12-24,ＨＡＢＩＢ　ＡＲＹＡＮ　ＴＲＡＤＩＮＧ株式会社,,株式会社,茨城県,坂東市,内野山４９４番地１,,08,228,3060514,,,,,,,2024-12-24,1,,,,,ハビブアリアントレイディング,0
582,3050003008900,新規,0,2024-12-24,2024-12-24,合同会社ルカス,,合同会社,茨城県,つくば市,吾妻１丁目１４番地１デュオヒルズつくばエンブレム１５０６号,,08,220,3050031,,,,,,,2024-12-24,1,,,,,ルカス,0
588,3080001026678,新規,0,2024-12-24,2024-12-24,株式会社菊池タイル,,株式会社,静岡県,静岡市葵区,田町３丁目８１番地の２,,22,101,4200068,,,,,,,2024-12-24,1,,,,,キクチタイル,0
589,3080003003361,新規,0,2024-12-24,2024-12-24,合同会社ライフ＆ウェルビーイング,,合同会社,静岡県,静岡市駿河区,豊原町２番１０－２０６号,,22,102,4228071,,,,,,,2024-12-24,1,,,,,ライフアンドウェルビーイング,0
591,3080101025209,新規,0,2024-12-24,2024-12-24,株式会社エルザ,,株式会社,静岡県,伊東市,宇佐美３５９４番地８０９,,22,208,4140001,,,,,,,2024-12-24,1,,,,,エルザ,0
597,3100001038142,新規,0,2024-12-24,2024-12-24,株式会社ヴァッソ,,株式会社,長野県,須坂市,大字小島４０７番地,,20,207,3820000,,,,,,,2024-12-24,1,,,,,ヴァッソ,0
608,3120001271402,新規,0,2024-12-24,2024-12-24,Ｂｉｎｗａｎｇ　Ｔｅｃｈ株式会社,,株式会社,大阪府,大阪市淀川区,西中島４丁目７番２号チサンマンション新大阪５０２号室,,27,123,5320011,,,,,,,2024-12-24,1,,,,,ビンワンテック,0
611,3120003028180,新規,0,2024-12-24,2024-12-24,合同会社たまちゃん,,合同会社,大阪府,大阪市東住吉区,田辺５丁目１５番２２号,,27,121,5460031,,,,,,,2024-12-24,1,,,,,タマチャン,0
612,3120003028230,新規,0,2024-12-24,2024-12-24,合同会社恵星工業,,合同会社,大阪府,大阪市住吉区,帝塚山西２丁目１２－２２－３０１,,27,120,5580052,,,,,,,2024-12-24,1,,,,,ケイセイコウギョウ,0
614,3120101070794,新規,0,2024-12-24,2024-12-24,木の風Ｄｅｓｉｇｎ株式会社,,株式会社,大阪府,富田林市,津々山台３丁目１４番４号,,27,214,5840086,,,,,,,2024-12-24,1,,,,,キノカゼデザイン,0
617,3120903005477,新規,0,2024-12-24,2024-12-24,合同会社ＰＮＹ,,合同会社,大阪府,豊中市,服部寿町３丁目１４番４０号,,27,203,5610857,,,,,,,2024-12-24,1,,,,,ピーエヌワイ,0
624,3130001078631,新規,0,2024-12-24,2024-12-24,ＮＧＳＮ　ＷＯＲＫＳ株式会社,,株式会社,京都府,京都市右京区,太秦堀ケ内町７－４５,,26,108,6168152,,,,,,,2024-12-24,1,,,,,エヌジーエスエヌワークス,0
632,3140001136818,新規,0,2024-12-24,2024-12-24,株式会社エンハンス,,株式会社,兵庫県,西宮市,中前田町１番２１号,,28,204,6620857,,,,,,,2024-12-24,1,,,,,エンハンス,0
633,3140001136826,新規,0,2024-12-24,2024-12-24,株式会社ＥＡプランニング,,株式会社,兵庫県,尼崎市,塚口本町３丁目２５番１０－１０１号,,28,202,6610001,,,,,,,2024-12-24,1,,,,,イーエープランニング,0
634,3140001136834,新規,0,2024-12-24,2024-12-24,株式会社ウォンパートナーズ,,株式会社,兵庫県,姫路市,飾磨区英賀西町２丁目７２番地スマイルパレスＢ,,28,201,6728088,,,,,,,2024-12-24,1,,,,,ウォンパートナーズ,0
639,3160001026430,新規,0,2024-12-24,2024-12-24,株式会社ＤＡＩＧＯＭＩ,,株式会社,滋賀県,大津市,和邇中６７９番地の１,,25,201,5200526,,,,,,,2024-12-24,1,,,,,ダイゴミ,0
650,3180001164674,新規,0,2024-12-24,2024-12-24,株式会社ヒューマンサポート西日本,,株式会社,愛知県,東海市,荒尾町金山２７４番地,,23,222,4760003,,,,,,,2024-12-24,1,,,,,ヒューマンサポートニシニホン,0
657,3200001043256,新規,0,2024-12-24,2024-12-24,株式会社ＭＡＶＥＲＹＫ３１,,株式会社,岐阜県,可児市,川合５０６番地３２,,21,214,5090201,,,,,,,2024-12-24,1,,,,,マーヴェリックサーチワン,0
659,3230001020673,新規,0,2024-12-24,2024-12-24,株式会社ＫＩＳＥ保険,,株式会社,富山県,南砺市,荒木５６９番地１,,16,210,9391732,,,,,,,2024-12-24,1,,,,,キセホケン,0
660,3230003002348,新規,0,2024-12-24,2024-12-24,合同会社グロウエレクト,,合同会社,富山県,富山市,大泉２番地５,,16,201,9398058,,,,,,,2024-12-24,1,,,,,グロウエレクト,0
676,3290003016210,新規,0,2024-12-24,2024-12-24,Ｕｍｂｒｅｌｌａ　Ｃｏｎｓｕｌｔｉｎｇ合同会社,,合同会社,福岡県,福岡市中央区,大手門３丁目１４番２７号ラフォーレ大濠パークアベニュー６０４,,40,133,8100074,,,,,,,2024-12-24,1,,,,,アンブレラコンサルティング,0
681,3300001014024,新規,0,2024-12-24,2024-12-24,株式会社Ｏｒａ,,株式会社,佐賀県,藤津郡太良町,大字大浦丁１６５３番地,,41,441,8491612,,,,,,,2024-12-24,1,,,,,オーラ,0
687,3320005010208,新規,0,2024-12-24,2024-12-24,一般社団法人国際ＢＨＩナノバブル水素医美容協会,,その他の設立登記法人,大分県,津久見市,門前町７番９号,,44,207,8792456,,,,,,,2024-12-24,1,,,,,コクサイビーエイチアイナノバブルスイソイビヨウキョウカイ,0
695,3360001034545,新規,0,2024-12-24,2024-12-24,株式会社ＮＥＸＵＳ,,株式会社,沖縄県,宮古島市,平良字久貝１０６０番地,,47,214,9060015,,,,,,,2024-12-24,1,,,,,ネクサス,0
698,3360005007150,新規,0,2024-12-24,2024-12-24,一般財団法人前島塩神保存会,,その他の設立登記法人,沖縄県,那覇市,前島１丁目１１番１号,,47,201,9000016,,,,,,,2024-12-24,1,,,,,マエジマエンシンホゾンカイ,0
699,3370001052059,新規,0,2024-12-24,2024-12-24,Ｋ．Ｔ．Ａ．Ｐ．株式会社,,株式会社,宮城県,亘理郡山元町,浅生原字日向２０番地２,,04,362,9892203,,,,,,,2024-12-24,1,,,,,ケーティーエーピー,0
700,3370005010871,新規,0,2024-12-24,2024-12-24,ＮＰＯ法人ＷＴＦＣせんだい,,その他の設立登記法人,宮城県,仙台市若林区,荒井南１２番地の１２,,04,103,9840039,,,,,,,2024-12-24,1,,,,,ダブリュウティエフシーセンダイ,0
706,3410005006618,新規,0,2024-12-24,2024-12-24,一般社団法人ＫＡＭＡＩＴＡＣＨＩ,,その他の設立登記法人,秋田県,雄勝郡羽後町,字南西馬音内３１３番地４,,05,463,0121100,,,,,,,2024-12-24,1,,,,,カマイタチ,0
707,3420001018954,新規,0,2024-12-24,2024-12-24,東日電設株式会社,,株式会社,青森県,青森市,沖館４丁目１６番１２号セジュールＷｉｔＯＫＩ２０３,,02,201,0380002,,,,,,,2024-12-24,1,,,,,トウニチデンセツ,0
709,3430001093328,新規,0,2024-12-24,2024-12-24,アイディーアイ株式会社,,株式会社,北海道,札幌市中央区,南十五条西８丁目２－３３－１１２,,01,101,0640915,,,,,,,2024-12-24,1,,,,,アイディーアイ,0
712,3440005002787,新規,0,2024-12-24,2024-12-24,土地家屋調査士法人ここに,,その他の設立登記法人,北海道,函館市,中道２丁目８番２号エムズＩＩ５０７号室,00137437,01,202,0410853,,,,,,,2024-12-24,1,,,,,ココニ,0
718,3500003003392,新規,0,2024-12-24,2024-12-24,合同会社アネックス,,合同会社,愛媛県,松山市,保免西３丁目１番２３号,,38,201,7900043,,,,,,,2024-12-24,1,,,,,アネックス,0
719,3700150128377,新規,0,2024-12-24,2024-12-24,ｄｏｎｇｇｕａｎｓｈｉｚｕｔｅｌｏｎｇｓｈａｎｇｍａｏｙｏｕｘｉａｎｇｏｎｇｓｉ,,外国会社等,,,,,,,,ｇｕａｎｇｄｏｎｇｓｈｅｎｇ　ｄｏｎｇｇｕａｎｓｈｉ　ｌｉａｏｂｕｚｈｅｎ　ｈｅｎｇｋｅｎｇｈｅｎｇｘｉｌｉｕｌｕ　１１ｈａｏ２ｈａｏｌｏｕ３０６ｓｈｉ,,,,,,2024-12-24,1,,,,,ドングゥアンシズテロンシャンマオユウゲンコウシ,0
736,4010005039285,新規,0,2024-12-24,2024-12-24,特定非営利活動法人日本日帰り手術推進機構,,その他の設立登記法人,東京都,千代田区,神田小川町２丁目６番地大宮第二ビル２階,,13,101,1010052,,,,,,,2024-12-24,1,,,,,ニホンヒガエリシュジュツスイシンキコウ,0
744,4010403034020,新規,0,2024-12-24,2024-12-24,合同会社アンバータジェイビー,,合同会社,東京都,港区,白金３丁目１番１３号日恵ビル２階,,13,103,1080072,,,,,,,2024-12-24,1,,,,,アンバータジェイビー,0
745,4010403034029,新規,0,2024-12-24,2024-12-24,ＭＡｋｅｓ合同会社,,合同会社,東京都,港区,南青山３丁目１番３６号青山丸竹ビル６Ｆ,,13,103,1070062,,,,,,,2024-12-24,1,,,,,メイクス,0
751,4010703007510,新規,0,2024-12-24,2024-12-24,島津山整容医療合同会社,,合同会社,東京都,品川区,東五反田３丁目６番１０号,,13,109,1410022,,,,,,,2024-12-24,1,,,,,シマズヤマセイヨウイリョウ,0
754,4010801035702,新規,0,2024-12-24,2024-12-24,株式会社アキニータ,,株式会社,東京都,大田区,中央５丁目２０番１号グランフォルム大田中央Ａ棟１１,,13,111,1430024,,,,,,,2024-12-24,1,,,,,アキニータ,0
756,4011001166619,新規,0,2024-12-24,2024-12-24,株式会社Ｂｕｚｚｚ,,株式会社,東京都,渋谷区,渋谷２丁目１９番１５号宮益坂ビルディング６０９,,13,113,1500002,,,,,,,2024-12-24,1,,,,,バズ,0
757,4011001166742,新規,0,2024-12-24,2024-12-24,株式会社ＲＩＯＮ,,株式会社,東京都,渋谷区,桜丘町２３番１７号シティコート桜丘４０８,,13,113,1500031,,,,,,,2024-12-24,1,,,,,リオン,0
758,4011003020633,新規,0,2024-12-24,2024-12-24,合同会社ＫＫ＆ＭＫ　Ｐａｒｔｎｅｒｓ,,合同会社,東京都,渋谷区,富ヶ谷１丁目３２番２７－４０７号フォレセーヌ渋谷富ヶ谷,,13,113,1510063,,,,,,,2024-12-24,1,,,,,ケイケイアンドエムケイパートナーズ,0
765,4011103015335,新規,0,2024-12-24,2024-12-24,楽雪国際合同会社,,合同会社,東京都,新宿区,西新宿３丁目３番１３号西新宿水間ビル６階,,13,104,1600023,,,,,,,2024-12-24,1,,,,,ラッキーコクサイ,0
768,4011105011266,新規,0,2024-12-24,2024-12-24,一般社団法人日本危機管理アライアンス協会,,その他の設立登記法人,東京都,新宿区,榎町３４番地３榎町ビル６階,,13,104,1620806,,,,,,,2024-12-24,1,,,,,ニホンキキカンリアライアンスキョウカイ,0
777,4011501031512,新規,0,2024-12-24,2024-12-24,ＬＯＯＭＡＡ株式会社,,株式会社,東京都,北区,十条仲原１丁目３－５鈴木ビル２０１号室,,13,117,1140031,,,,,,,2024-12-24,1,,,,,ルーマー,0
779,4011701027921,新規,0,2024-12-24,2024-12-24,株式会社ＧＯＬＤ　ＭＡＫＥ,,株式会社,東京都,江戸川区,西葛西３丁目７番２５号,,13,123,1340088,,,,,,,2024-12-24,1,,,,,ゴールドメイク,0
785,4012801023661,新規,0,2024-12-24,2024-12-24,株式会社ＡＳＲＩＲ　ＦＩＸ,,株式会社,東京都,日野市,落川２００１番地の１０,,13,212,1910034,,,,,,,2024-12-24,1,,,,,アズリルフィックス,0
790,4013301053554,新規,0,2024-12-24,2024-12-24,株式会社練馬スピードスターズ,,株式会社,東京都,豊島区,雑司が谷２丁目１６番５号,,13,116,1710032,,,,,,,2024-12-24,1,,,,,ネリマスピードスターズ,0
796,4020001160630,新規,0,2024-12-24,2024-12-24,株式会社Ｉｄｏｌ,,株式会社,神奈川県,川崎市多摩区,長尾５丁目１９－２０,,14,135,2140023,,,,,,,2024-12-24,1,,,,,アイドル,0
798,4020005016639,新規,0,2024-12-24,2024-12-24,特定非営利活動法人ＪＯＭ,,その他の設立登記法人,神奈川県,川崎市高津区,下作延４丁目２番１－２１１号クレッセント溝の口,,14,134,2130033,,,,,,,2024-12-24,1,,,,,ジェイオーエム,0
799,4020005016655,新規,0,2024-12-24,2024-12-24,一般社団法人ＹＹＴ,,その他の設立登記法人,神奈川県,川崎市多摩区,菅北浦３丁目１２番２９号,,14,135,2140008,,,,,,,2024-12-24,1,,,,,ワイワイティー,0
811,4030001164069,新規,0,2024-12-24,2024-12-24,イアス八潮株式会社,,株式会社,埼玉県,八潮市,大字大曽根１５９０番地１,,11,234,3400834,,,,,,,2024-12-24,1,,,,,イアスヤシオ,0
812,4030001164085,新規,0,2024-12-24,2024-12-24,株式会社栗原ＢＡＳＥ,,株式会社,埼玉県,新座市,栗原１丁目２番２３号,,11,230,3520035,,,,,,,2024-12-24,1,,,,,クリハラベース,0
813,4030001164102,新規,0,2024-12-24,2024-12-24,株式会社ＭＪＣ,,株式会社,埼玉県,上尾市,大字瓦葺２４０９番地１８,,11,219,3620022,,,,,,,2024-12-24,1,,,,,エムジェーシー,0
816,4030005021984,新規,0,2024-12-24,2024-12-24,ＮＰＯ法人Ｒｅ‐ｅａｃｈ,,その他の設立登記法人,埼玉県,川越市,大字山田１６２１番地１モンドビル２Ｆ,,11,201,3500822,,,,,,,2024-12-24,1,,,,,リーチ,0
821,4040001136686,新規,0,2024-12-24,2024-12-24,株式会社ＮＢＳ,,株式会社,千葉県,香取市,新里１３３１番地１,,12,236,2890424,,,,,,,2024-12-24,1,,,,,エヌビーエス,0
824,4040003026290,新規,0,2024-12-24,2024-12-24,ＢＨＡＧＡＷＯＴＩ合同会社,,合同会社,千葉県,柏市,中新宿３丁目２番１２号,,12,217,2770066,,,,,,,2024-12-24,1,,,,,バガワティ,0
825,4040003026373,新規,0,2024-12-24,2024-12-24,合同会社ＮＴＹＦ,,合同会社,千葉県,千葉市中央区,富士見２丁目１７番９号Ｍ・Ｕビル２階,,12,101,2600015,,,,,,,2024-12-24,1,,,,,エヌティワイエフ,0
826,4040003026456,新規,0,2024-12-24,2024-12-24,合同会社Ｍａｋａｎａ　Ｓａｎｃｔｕａｒｙ,,合同会社,千葉県,市川市,田尻３丁目１１－５－２０２,,12,203,2720014,,,,,,,2024-12-24,1,,,,,マカナサンクチュアリー,0
830,4050003008899,新規,0,2024-12-24,2024-12-24,ＭＮＭ　ＬＡＮＫＡ合同会社,,合同会社,茨城県,取手市,小文間５７０１番地２４ゴラッソ取手Ｂ号室,,08,217,3020001,,,,,,,2024-12-24,1,,,,,エムエヌエムランカ,0
835,4080001026677,新規,0,2024-12-24,2024-12-24,株式会社ハイズエステート,,株式会社,静岡県,静岡市駿河区,泉町９番１０号,,22,102,4228066,,,,,,,2024-12-24,1,,,,,ハイズエステート,0
836,4080101025208,新規,0,2024-12-24,2024-12-24,共同不動産株式会社,,株式会社,静岡県,駿東郡長泉町,下土狩６４９番地の１,,22,342,4110943,,,,,,,2024-12-24,1,,,,,キョウドウフドウサン,0
846,4110001038933,新規,0,2024-12-24,2024-12-24,株式会社まるぐる,,株式会社,新潟県,三条市,月岡２７８３番地１,,15,204,9550803,,,,,,,2024-12-24,1,,,,,マルグル,0
854,4120001271376,新規,0,2024-12-24,2024-12-24,株式会社総合ファシリティーズ,,株式会社,大阪府,大阪市北区,梅田１丁目１－３大阪駅前第３ビル２９階１－１－１号室,,27,127,5300001,,,,,,,2024-12-24,1,,,,,ソウゴウファシリティーズ,0
855,4120001271384,新規,0,2024-12-24,2024-12-24,株式会社レジェンダ,,株式会社,大阪府,大阪市北区,堂島１丁目２番２５号,,27,127,5300003,,,,,,,2024-12-24,1,,,,,レジェンダ,0
860,4122001038747,新規,0,2024-12-24,2024-12-24,株式会社巡業,,株式会社,大阪府,東大阪市,池島町２丁目２番２５号,,27,227,5798064,,,,,,,2024-12-24,1,,,,,ジュンギョウ,0
862,4122003003071,新規,0,2024-12-24,2024-12-24,天余商事合同会社,,合同会社,大阪府,東大阪市,水走１丁目３－４５、２０３室,,27,227,5780921,,,,,,,2024-12-24,1,,,,,テンウショウジ,0
867,4130001078639,新規,0,2024-12-24,2024-12-24,株式会社五郎,,株式会社,京都府,京都市中京区,七軒町４６２ＪＩＮ四条大宮１階,,26,104,6048366,,,,,,,2024-12-24,1,,,,,ゴロウ,0
870,4130003010095,新規,0,2024-12-24,2024-12-24,ジョブパートナー合同会社,,合同会社,京都府,京都市左京区,高野東開町１８番地,,26,103,6068107,,,,,,,2024-12-24,1,,,,,ジョブパートナー,0
875,4140001136833,新規,0,2024-12-24,2024-12-24,株式会社エフエムディ,,株式会社,兵庫県,加古川市,平岡町二俣６５１番地の２,,28,210,6750111,,,,,,,2024-12-24,1,,,,,エフエムディ,0
877,4140003021447,新規,0,2024-12-24,2024-12-24,合同会社ＶＡＳＩＬＥＵＳ,,合同会社,兵庫県,尼崎市,南塚口町７丁目８番８号,,28,202,6610012,,,,,,,2024-12-24,1,,,,,バジリウス,0
882,4150001027759,新規,0,2024-12-24,2024-12-24,ＣＮＡＡ株式会社,,株式会社,奈良県,大和郡山市,九条町９０１番地２２,,29,203,6391001,,,,,,,2024-12-24,1,,,,,シーエヌエーエー,0
883,4150003003460,新規,0,2024-12-24,2024-12-24,ヒーノスグループ合同会社,,合同会社,奈良県,磯城郡田原本町,大字阪手３１６－６,,29,363,6360247,,,,,,,2024-12-24,1,,,,,ヒーノスグループ,0
893,4180301039360,新規,0,2024-12-24,2024-12-24,株式会社Ｖｅｌｏｃｉｔｙ,,株式会社,愛知県,刈谷市,野田町新上納５１番地１ベルドミールＤ２０３号,,23,210,4480803,,,,,,,2024-12-24,1,,,,,ヴェロシティー,0
910,4240001064280,新規,0,2024-12-24,2024-12-24,ＡＫＩ株式会社,,株式会社,広島県,広島市南区,出汐１丁目６－１出汐レスト１０２,,34,103,7340001,,,,,,,2024-12-24,1,,,,,エーケーアイ,0
911,4240001064289,新規,0,2024-12-24,2024-12-24,株式会社浅野商会,,株式会社,広島県,安芸郡府中町,鶴江２丁目１６番１８号,,34,302,7350008,,,,,,,2024-12-24,1,,,,,アサノショウカイ,0
914,4240003006990,新規,0,2024-12-24,2024-12-24,合同会社ユタカエステート,,合同会社,広島県,福山市,日吉台１丁目１６番３１号,,34,207,7210972,,,,,,,2024-12-24,1,,,,,ユタカエステート,0
947,4290003016201,新規,0,2024-12-24,2024-12-24,フィクサー合同会社,,合同会社,福岡県,福岡市中央区,天神２丁目２番１２号Ｔ＆Ｊビルディング７Ｆ,,40,133,8100001,,,,,,,2024-12-24,1,,,,,フィクサー,0
949,4290801031137,新規,0,2024-12-24,2024-12-24,株式会社華,,株式会社,福岡県,北九州市八幡西区,黒崎１丁目１４番２２号ＯＢビル３Ｂ,,40,109,8060021,,,,,,,2024-12-24,1,,,,,ハナ,0
951,4300001014023,新規,0,2024-12-24,2024-12-24,株式会社ＬＡＣ,,株式会社,佐賀県,神埼市,神埼町永歌１０１５番地５,,41,210,8420004,,,,,,,2024-12-24,1,,,,,ラック,0
961,4340003004687,新規,0,2024-12-24,2024-12-24,合同会社Ｓ,,合同会社,鹿児島県,鹿児島市,緑ヶ丘町３５番７号,,46,201,8911274,,,,,,,2024-12-24,1,,,,,エス,0
970,4400001016884,新規,0,2024-12-24,2024-12-24,株式会社みらい測量,,株式会社,岩手県,盛岡市,西仙北２丁目８番２９号,,03,201,0200864,,,,,,,2024-12-24,1,,,,,ミライソクリョウ,0
971,4420005007936,新規,0,2024-12-24,2024-12-24,一般社団法人あおもり医療連携推進機構,,その他の設立登記法人,青森県,青森市,東造道２丁目１番１号,,02,201,0300913,,,,,,,2024-12-24,1,,,,,アオモリイリョウレンケイスイシンキコウ,0
972,4430001093310,新規,0,2024-12-24,2024-12-24,オトザワ興産株式会社,,株式会社,北海道,札幌市西区,発寒六条１１丁目１番１２号,,01,107,0630826,,,,,,,2024-12-24,1,,,,,オトザワコウサン,0
973,4430001093319,新規,0,2024-12-24,2024-12-24,株式会社ＴＭＳ,,株式会社,北海道,札幌市中央区,北四条西２丁目１－２５札幌ＴＲビル９階,,01,101,0600004,,,,,,,2024-12-24,1,,,,,ティーエムエス,0
974,4430001093335,新規,0,2024-12-24,2024-12-24,株式会社ＥＥＲＬＩＪＫ,,株式会社,北海道,札幌市白石区,東札幌四条６丁目１番１５号,,01,104,0030004,,,,,,,2024-12-24,1,,,,,エールリック,0
975,4430003017085,新規,0,2024-12-24,2024-12-24,合同会社ＬｕａｎａＫｏｔｉ,,合同会社,北海道,伊達市,大町２５番地５,,01,233,0520027,,,,,,,2024-12-24,1,,,,,ルアナコティ,0
984,4500003003391,新規,0,2024-12-24,2024-12-24,合同会社ＮＹＦ,,合同会社,愛媛県,伊予市,尾崎６４０番地１,,38,210,7993127,,,,,,,2024-12-24,1,,,,,エヌワイエフ,0
985,4700150128376,新規,0,2024-12-24,2024-12-24,深セン加利福康物流有限公司,,外国会社等,,,,,,,,中国深セン市龍崗区坂田街道賽盒跨境電商産業園大貿工業区３棟４楼６１０室,,,,,,2024-12-24,1,,,,,シンセンカリフッコウブツリュウユウゲンコウシ,0
986,4700150128384,新規,0,2024-12-24,2024-12-24,Ｃｈｅｎｇｄｕ　ｍｉａｏｍｉａｏ　ｗａｎｇｗａｎｇ　ｋｅｊｉ　ｙｏｕｘｉａｎ　ｇｏｎｇｓｉ,,外国会社等,,,,,,,,Ｒｏｏｍ　１４０５，１４ｔｈ　Ｆｌｏｏｒ，Ｂｕｉｌｄｉｎｇ　１，Ｎｏ．５６　Ｔｉａｎｈｕｉｚｈｏｎｇ　Ｓｔｒｅｅｔ，Ｇａｏｘｉｎ　Ｄｉｓｔｒｉｃｔ，Ｃｈｅｎｇｄｕ　６１００００　ＣＮ,,,,,,2024-12-24,1,,,,,チェンドウミャオミャオワンワンカギヨウシエンゴンスー,0
991,5010001250828,新規,0,2024-12-24,2024-12-24,株式会社Ｒｅａｌ　ｕｐ　Ｓｔｙｌｅ,,株式会社,東京都,中央区,銀座１丁目１２－４Ｎ＆ＥＢＬＤ．７階,,13,102,1040061,,,,,,,2024-12-24,1,,,,,リアルアップスタイル,0
992,5010001250877,新規,0,2024-12-24,2024-12-24,株式会社ネオンスリー,,株式会社,東京都,千代田区,神田淡路町２丁目４番６号Ｆ＆Ｆロイヤルビル６Ｆ,,13,101,1010063,,,,,,,2024-12-24,1,,,,,ネオンスリー,0
1002,5010401187174,新規,0,2024-12-24,2024-12-24,ルナビジョン株式会社,,株式会社,東京都,港区,新橋１丁目１２番９号新橋プレイス７階,,13,103,1050004,,,,,,,2024-12-24,1,,,,,ルナビジョン,0
1007,5010901056531,新規,0,2024-12-24,2024-12-24,Ｔ‐ｔｅｃｈ株式会社,,株式会社,東京都,世田谷区,池尻２丁目３６番４号グレートラッキー２・３０１,,13,112,1540001,,,,,,,2024-12-24,1,,,,,ティーテック,0
1009,5010903009529,新規,0,2024-12-24,2024-12-24,未来医療経営研究会合同会社,,合同会社,東京都,世田谷区,玉川３丁目１１‐１柳小路東角３Ｆ,,13,112,1580094,,,,,,,2024-12-24,1,,,,,ミライイリョウケイエイケンキュウカイ,0
1012,5011001166717,新規,0,2024-12-24,2024-12-24,株式会社エース,,株式会社,東京都,渋谷区,神宮前６丁目２３番４号桑野ビル２階,,13,113,1500001,,,,,,,2024-12-24,1,,,,,エース,0
1013,5011001166725,新規,0,2024-12-24,2024-12-24,株式会社オージャスホーム,,株式会社,東京都,目黒区,目黒本町４丁目１９番３号,,13,110,1520002,,,,,,,2024-12-24,1,,,,,オージャスホーム,0
1014,5011001166741,新規,0,2024-12-24,2024-12-24,株式会社ＭＩＣＯＴＯ,,株式会社,東京都,渋谷区,渋谷２丁目２１番１号,,13,113,1500002,,,,,,,2024-12-24,1,,,,,ミコト,0
1015,5011001166774,新規,0,2024-12-24,2024-12-24,株式会社ｎｉｖａｌｉｓ,,株式会社,東京都,渋谷区,神南１丁目１１―４ＦＰＧリンクス神南５階,,13,113,1500041,,,,,,,2024-12-24,1,,,,,ニヴァリス,0
1021,5011503006354,新規,0,2024-12-24,2024-12-24,合同会社ＴＡＯ,,合同会社,東京都,荒川区,西日暮里１丁目３７－１４－８０１,,13,118,1160013,,,,,,,2024-12-24,1,,,,,タオ,0
1025,5011701027920,新規,0,2024-12-24,2024-12-24,ＴＯＫＹＯ　ＭＯＶＥ株式会社,,株式会社,東京都,江戸川区,清新町１丁目１番５－１０１号,,13,123,1340087,,,,,,,2024-12-24,1,,,,,トウキョウムーブ,0
1029,5011703004067,新規,0,2024-12-24,2024-12-24,ＳＡＮＤＬＡＮＤＳ合同会社,,合同会社,東京都,江戸川区,東葛西６丁目３６番１４号カーロヴィレッタＩＩ１０２,00137429,13,123,1340084,,,,,,,2024-12-24,1,,,,,サンドランズ,0
1042,5020001160712,新規,0,2024-12-24,2024-12-24,株式会社ＮＧＰ,,株式会社,神奈川県,横浜市西区,北幸２丁目１０番４８号むつみビル３階,,14,103,2200004,,,,,,,2024-12-24,1,,,,,エヌジーピー,0
1043,5020001160720,新規,0,2024-12-24,2024-12-24,ＭＥＲＡＲＣ株式会社,,株式会社,神奈川県,横浜市中区,山下町１５５番地洪喜ビル３０２,,14,104,2310023,,,,,,,2024-12-24,1,,,,,メラーク,0
1046,5020003027496,新規,0,2024-12-24,2024-12-24,Ａｒｔ　ｏｆ　Ｌｉｆｅ合同会社,,合同会社,神奈川県,横浜市南区,大岡１丁目５８番１８号,,14,105,2320061,,,,,,,2024-12-24,1,,,,,アートオブライフ,0
1047,5020003027505,新規,0,2024-12-24,2024-12-24,フェローズマネジメント合同会社,,合同会社,神奈川県,横浜市青葉区,美しが丘５丁目３４番地１,,14,117,2250002,,,,,,,2024-12-24,1,,,,,フェローズマネジメント,0
1056,5030001164051,新規,0,2024-12-24,2024-12-24,株式会社リズムホーム,,株式会社,埼玉県,比企郡嵐山町,大字志賀２６３番地６９,,11,342,3550214,,,,,,,2024-12-24,1,,,,,リズムホーム,0
1057,5030001164068,新規,0,2024-12-24,2024-12-24,イアス所沢株式会社,,株式会社,埼玉県,所沢市,大字上山口１３６３番地の２,,11,208,3591153,,,,,,,2024-12-24,1,,,,,イアストコロザワ,0
1058,5030001164092,新規,0,2024-12-24,2024-12-24,株式会社Ｋホースクリニック,,株式会社,埼玉県,さいたま市緑区,大字上野田６９６番地,,11,109,3360977,,,,,,,2024-12-24,1,,,,,ケイホースクリニック,0
1067,5040001136677,新規,0,2024-12-24,2024-12-24,イアス銚子株式会社,,株式会社,千葉県,銚子市,長塚町６丁目４４５８番地の２,,12,202,2880837,,,,,,,2024-12-24,1,,,,,イアスチョウシ,0
1072,5050001055884,新規,0,2024-12-24,2024-12-24,株式会社ＢＥＳＴ　ＳＨＯＴ,,株式会社,茨城県,水戸市,見川２丁目５７番地の１２プレミアム３０ドアーズ２０１,,08,201,3100912,,,,,,,2024-12-24,1,,,,,ベストショット,0
1073,5050001055918,新規,0,2024-12-24,2024-12-24,イアス水戸株式会社,,株式会社,茨城県,水戸市,天王町６番５号,,08,201,3100025,,,,,,,2024-12-24,1,,,,,イアスミト,0
1085,5080403005170,新規,0,2024-12-24,2024-12-24,合同会社ＣＡＭＰ,,合同会社,静岡県,浜松市中央区,和田町３０番地,,22,138,4350016,,,,,,,2024-12-24,1,,,,,キャンプ,0
1087,5100001038140,新規,0,2024-12-24,2024-12-24,株式会社リメイク,,株式会社,長野県,下高井郡木島平村,大字穂高３００５－１,,20,562,3892301,,,,,,,2024-12-24,1,,,,,リメイク,0
1094,5110001038949,新規,0,2024-12-24,2024-12-24,イアス新潟株式会社,,株式会社,新潟県,新潟市西蒲区,漆山７７８２番地,,15,108,9530054,,,,,,,2024-12-24,1,,,,,イアスニイガタ,0
1095,5110005017164,新規,0,2024-12-24,2024-12-24,協同組合ＧＭＲ,,その他の設立登記法人,新潟県,上越市,頸城区西福島１０２６番地２８,,15,222,9420147,,,,,,,2024-12-24,1,,,,,ジーエムアール,0
1100,5120001271375,新規,0,2024-12-24,2024-12-24,バンクオブボンズ株式会社,,株式会社,大阪府,枚方市,上野２丁目４番１－４０７号,,27,210,5731175,,,,,,,2024-12-24,1,,,,,バンクオブボンズ,0
1107,5122001038754,新規,0,2024-12-24,2024-12-24,株式会社桑田工業,,株式会社,大阪府,八尾市,本町２丁目１２番４号,,27,212,5810003,,,,,,,2024-12-24,1,,,,,クワタコウギョウ,0
1113,5140001136816,新規,0,2024-12-24,2024-12-24,栄コーポレーション株式会社,,株式会社,兵庫県,宝塚市,湯本町８番１８－１５０２号,,28,214,6650003,,,,,,,2024-12-24,1,,,,,サカエコーポレーション,0
1114,5140001136832,新規,0,2024-12-24,2024-12-24,株式会社中之島ＧＡＴＥ,,株式会社,兵庫県,神戸市中央区,新港町１１番１号,,28,110,6500041,,,,,,,2024-12-24,1,,,,,ナカノシマゲート,0
1115,5140001136840,新規,0,2024-12-24,2024-12-24,株式会社ガレージライン,,株式会社,兵庫県,神戸市長田区,五番町５丁目４番地の１,,28,106,6530003,,,,,,,2024-12-24,1,,,,,ガレージライン,0
1118,5150001027766,新規,0,2024-12-24,2024-12-24,ヒノタキ株式会社,,株式会社,奈良県,桜井市,大字上之庄３２３番地の６,,29,206,6330061,,,,,,,2024-12-24,1,,,,,ヒノタキ,0
1126,5180003027778,新規,0,2024-12-24,2024-12-24,合同会社Ｍ’ｓエステート,,合同会社,愛知県,名古屋市東区,葵３丁目２５番５号,,23,102,4610004,,,,,,,2024-12-24,1,,,,,エムズエステート,0
1127,5180005020871,新規,0,2024-12-24,2024-12-24,聖い水の教会,,その他の設立登記法人,愛知県,半田市,横山町１６８番地の１,,23,205,4750946,,,,,,,2024-12-24,1,,,,,キヨイミズノキョウカイ,0
1148,5290001108370,新規,0,2024-12-24,2024-12-24,株式会社Ｖｅｒｔｅｘ,,株式会社,福岡県,宗像市,三郎丸６丁目１番９－２０３号,,40,220,8114143,,,,,,,2024-12-24,1,,,,,バーテックス,0
1151,5290801031111,新規,0,2024-12-24,2024-12-24,株式会社シバニ,,株式会社,福岡県,北九州市小倉北区,泉台２丁目１４番１４－１０２号,,40,106,8030842,,,,,,,2024-12-24,1,,,,,シバニ,0
1153,5300001014022,新規,0,2024-12-24,2024-12-24,株式会社ｉｒｏ,,株式会社,佐賀県,佐賀市,若宮１丁目１０番３７号,,41,201,8490926,,,,,,,2024-12-24,1,,,,,イロ,0
1155,5310003004912,新規,0,2024-12-24,2024-12-24,合同会社ちとせ,,合同会社,長崎県,長崎市,三重町６７１－１,,42,201,8512204,,,,,,,2024-12-24,1,,,,,チトセ,0
1157,5330005010857,新規,0,2024-12-24,2024-12-24,医療法人松山会,,その他の設立登記法人,熊本県,荒尾市,原万田４６２番地,,43,204,8640001,,,,,,,2024-12-24,1,,,,,ショウザンカイ,0
1158,5340001027012,新規,0,2024-12-24,2024-12-24,株式会社オンサイドエッジ,,株式会社,鹿児島県,鹿児島市,西千石町１１－２１鹿児島ＭＳビル５Ｆ・６Ｆ,,46,201,8920847,,,,,,,2024-12-24,1,,,,,オンサイドエッジ,0
1159,5340005009799,新規,0,2024-12-24,2024-12-24,一般社団法人未来７Ｋｉｄ’ｓ,,その他の設立登記法人,鹿児島県,鹿屋市,串良町有里３０４０番地１,,46,203,8931602,,,,,,,2024-12-24,1,,,,,ミライキッズ,0
1160,5360001034568,新規,0,2024-12-24,2024-12-24,株式会社シン建設,,株式会社,沖縄県,沖縄市,比屋根３丁目７番１号,,47,211,9042173,,,,,,,2024-12-24,1,,,,,シンケンセツ,0
1176,5430001093334,新規,0,2024-12-24,2024-12-24,株式会社弘賢工業,,株式会社,北海道,虻田郡洞爺湖町,旭町５番地１藤アパート１０１,,01,584,0495611,,,,,,,2024-12-24,1,,,,,コウケンコウギョウ,0
1177,5430005015128,新規,0,2024-12-24,2024-12-24,アンカーズ行政書士法人,,その他の設立登記法人,北海道,札幌市中央区,北十二条西１８丁目１番１９号ブリック札幌桑園２階,,01,101,0600012,,,,,,,2024-12-24,1,,,,,アンカーズ,0
1179,5460103001670,新規,0,2024-12-24,2024-12-24,合同会社Ａ＆Ｓ,,合同会社,北海道,中川郡幕別町,札内青葉町３００番地の１０４,,01,643,0890541,,,,,,,2024-12-24,1,,,,,エーアンドエス,0
1189,5700150128375,新規,0,2024-12-24,2024-12-24,深セン致遠麦穗物流有限公司,,外国会社等,,,,,,,,中国深セン市龍崗区龍崗街道水田一路１１号Ｄ棟４楼４０８室,,,,,,2024-12-24,1,,,,,シンセンチエンバクズイブツリュウユウゲンコウシ,0
1190,5700150128383,新規,0,2024-12-24,2024-12-24,ｆｏｓｈａｎｓｈｉｐｏｎｉｎｇｍａｏｙｉｙｏｕｘｉａｎｇｏｎｇｓｉ,,外国会社等,,,,,,,,Ｓｈｏｐ　Ｎｏ．１０　ｏｎ　ｔｈｅ　ｆｉｒｓｔ　ｆｌｏｏｒ　ｏｆ　Ｂｌｏｃｋ　Ａ，Ｎｏ．６，Ｄｕｎｓａｎｇ　Ａｖｅｎｕｅ，Ｓｈａｚｕｉ　Ｉｎｄｕｓｔｒｉａｌ　Ｐａｒｋ，Ｊｉｕｊｉａｎｇ　Ｔｏｗｎ，Ｎａｎｈａｉ　Ｄｉｓｔｒｉｃｔ，Ｆｏｓｈａｎ　Ｃｉｔｙ．５２８２００　ＣＮ,,,,,,2024-12-24,1,,,,,フォサンシポニンマオイヨウシエンゴンスー,0
1199,6010001249720,新規,0,2024-12-24,2024-12-24,ＱＵＥＥ株式会社,,株式会社,東京都,千代田区,五番町１２－７ドミール五番町１号棟０５５号室,,13,101,1020076,,,,,,,2024-12-24,1,,,,,キュー,0
1200,6010001250851,新規,0,2024-12-24,2024-12-24,生前契約サービス株式会社,,株式会社,東京都,千代田区,九段北１丁目４番５号,,13,101,1020073,,,,,,,2024-12-24,1,,,,,セイゼンケイヤクサービス,0
1204,6010005039325,新規,0,2024-12-24,2024-12-24,一般社団法人第二太陽光発電,,その他の設立登記法人,東京都,千代田区,丸の内１丁目４番１号東京共同会計事務所内,,13,101,1000005,,,,,,,2024-12-24,1,,,,,ダイニタイヨウコウハツデン,0
1208,6010401187207,新規,0,2024-12-24,2024-12-24,株式会社ノックアウト,,株式会社,東京都,港区,南青山５丁目６番１６号,,13,103,1070062,,,,,,,2024-12-24,1,,,,,,0
1209,6010401187215,新規,0,2024-12-24,2024-12-24,株式会社アドラスト・ホールディングス,,株式会社,東京都,港区,虎ノ門１丁目１番１０号,,13,103,1050001,,,,,,,2024-12-24,1,,,,,アドラストホールディングス,0
1217,6010701047036,新規,0,2024-12-24,2024-12-24,株式会社ハジメバ,,株式会社,東京都,品川区,西大井１丁目１－２Ｊタワーイーストタワー２０７,,13,109,1400015,,,,,,,2024-12-24,1,,,,,ハジメバ,0
1221,6010901056539,新規,0,2024-12-24,2024-12-24,株式会社ヴェロシティ,,株式会社,東京都,世田谷区,尾山台２丁目３０番１号,,13,112,1580086,,,,,,,2024-12-24,1,,,,,ヴェロシティ,0
1222,6010905004709,新規,0,2024-12-24,2024-12-24,一般社団法人日中寒山寺協会,,その他の設立登記法人,東京都,世田谷区,成城４丁目１２番１０号,,13,112,1570066,,,,,,,2024-12-24,1,,,,,ニッチュウカンザンジキョウカイ,0
1227,6011001166633,新規,0,2024-12-24,2024-12-24,ＭａｒｋｅｔｉｎｇＸ株式会社,,株式会社,東京都,渋谷区,恵比寿西１丁目１０番１１号フジワラビルディング２階,,13,113,1500021,,,,,,,2024-12-24,1,,,,,マーケティングエックス,0
1228,6011001166708,新規,0,2024-12-24,2024-12-24,株式会社Ｂｌｕｅ　Ｓｋｙ　ｍｏｄｅｌ　ａｇｅｎｃｙ,,株式会社,東京都,渋谷区,神宮前６丁目２３番４号桑野ビル２階,,13,113,1500001,,,,,,,2024-12-24,1,,,,,ブルースカイモデルエージェンシー,0
1229,6011001166724,新規,0,2024-12-24,2024-12-24,株式会社オージャス,,株式会社,東京都,目黒区,目黒本町４丁目１９番３号,,13,110,1520002,,,,,,,2024-12-24,1,,,,,オージャス,0
1230,6011001166740,新規,0,2024-12-24,2024-12-24,株式会社Ｅｃｌａｔ　ｄｅ　Ｊｏｉｅ,,株式会社,東京都,渋谷区,東３丁目２５番７号永源ビル３階,,13,113,1500011,,,,,,,2024-12-24,1,,,,,エクラドジョワ,0
1231,6011001166749,新規,0,2024-12-24,2024-12-24,３ｃｎｔ株式会社,,株式会社,東京都,渋谷区,鉢山町７番８－２０２号,,13,113,1500035,,,,,,,2024-12-24,1,,,,,スリーカウント,0
1232,6011001166757,新規,0,2024-12-24,2024-12-24,ＴＫＦイノベーション株式会社,,株式会社,東京都,渋谷区,東１丁目２７番１号,,13,113,1500011,,,,,,,2024-12-24,1,,,,,ティーケーエフイノベーション,0
1233,6011003020672,新規,0,2024-12-24,2024-12-24,合同会社ストックインベスト,,合同会社,東京都,目黒区,緑が丘２丁目１４番２２号,,13,110,1520034,,,,,,,2024-12-24,1,,,,,ストックインベスト,0
1236,6011101110029,新規,0,2024-12-24,2024-12-24,充話宝株式会社,,株式会社,東京都,新宿区,新宿１丁目３２番５－４０１号,,13,104,1600022,,,,,,,2024-12-24,1,,,,,ジュウワホウ,0
1237,6011103015333,新規,0,2024-12-24,2024-12-24,合同会社関越理想社ネクスト,,合同会社,東京都,新宿区,新小川町９番２１号,,13,104,1620814,,,,,,,2024-12-24,1,,,,,カンエツリソウシャネクスト,0
1238,6011105011264,新規,0,2024-12-24,2024-12-24,一般社団法人いまからつくる,,その他の設立登記法人,東京都,新宿区,西新宿３丁目３番１３号西新宿水間ビル２Ｆ,,13,104,1600023,,,,,,,2024-12-24,1,,,,,イマカラツクル,0
1241,6011403004580,新規,0,2024-12-24,2024-12-24,合同会社ＴＷＩＮＳ,,合同会社,東京都,板橋区,常盤台３丁目１３－１７,,13,119,1740071,,,,,,,2024-12-24,1,,,,,ツインズ,0
1244,6011601028324,新規,0,2024-12-24,2024-12-24,株式会社高山電設,,株式会社,東京都,練馬区,田柄５丁目３番３２号,,13,120,1790073,,,,,,,2024-12-24,1,,,,,タカヤマデンセツ,0
1247,6012301014201,新規,0,2024-12-24,2024-12-24,株式会社ＰＥＮＥＸＭＥＮＴ,,株式会社,東京都,町田市,原町田４丁目１１－１３天野ビル４Ｆ,,13,209,1940013,,,,,,,2024-12-24,1,,,,,ペネント,0
1249,6012401042606,新規,0,2024-12-24,2024-12-24,株式会社サンエレキ,,株式会社,東京都,府中市,浅間町４丁目１３番地の６４,,13,206,1830001,,,,,,,2024-12-24,1,,,,,サンエレキ,0
1251,6012803003577,新規,0,2024-12-24,2024-12-24,合同会社ＲＦＴ,,合同会社,東京都,国分寺市,東元町２丁目１０番１４号,,13,214,1850022,,,,,,,2024-12-24,1,,,,,アールエフティー,0
1261,6021001084058,新規,0,2024-12-24,2024-12-24,Ｓ　Ｔ　ＡＵＴＯ株式会社,,株式会社,神奈川県,藤沢市,西俣野１９０８－１,,14,205,2520812,,,,,,,2024-12-24,1,,,,,エスティオート,0
1267,6030001164059,新規,0,2024-12-24,2024-12-24,株式会社ＭＭＣ,,株式会社,埼玉県,さいたま市大宮区,天沼町２丁目７５９番地,,11,103,3300834,,,,,,,2024-12-24,1,,,,,エムエムシー,0
1268,6030001164075,新規,0,2024-12-24,2024-12-24,Ｔ‐ＴＥＣＨサービス株式会社,,株式会社,埼玉県,狭山市,大字水野１３１４番地の２フォーブル狭山１０３,,11,215,3501317,,,,,,,2024-12-24,1,,,,,ティーテックサービス,0
1269,6030001164083,新規,0,2024-12-24,2024-12-24,株式会社レヴリ,,株式会社,埼玉県,東松山市,大字今泉８９番地４,,11,212,3550042,,,,,,,2024-12-24,1,,,,,レヴリ,0
1270,6030001164100,新規,0,2024-12-24,2024-12-24,株式会社Ｌ’ｅｃｌａｔ,,株式会社,埼玉県,鶴ヶ島市,大字藤金６７６番地１,,11,241,3502206,,,,,,,2024-12-24,1,,,,,レクラ,0
1280,6070001042475,新規,0,2024-12-24,2024-12-24,株式会社Ｎ‐ｃｌｏｕｄ,,株式会社,群馬県,高崎市,北原町８４１－５プランドールトロワＢ１０１,,10,202,3703513,,,,,,,2024-12-24,1,,,,,エヌクラウド,0
1281,6070003005711,新規,0,2024-12-24,2024-12-24,合同会社ＫＡＬＡ　ＴＲＡＤＩＮＧ,,合同会社,群馬県,桐生市,宮前町２丁目１番１０号永寿荘１号,,10,203,3760046,,,,,,,2024-12-24,1,,,,,カラトレーディング,0
1283,6080003003359,新規,0,2024-12-24,2024-12-24,ＨＯＭＥＹ合同会社,,合同会社,静岡県,島田市,向谷元町１１１０番地の１１,,22,209,4270035,,,,,,,2024-12-24,1,,,,,ホーミー,0
1290,6110001038948,新規,0,2024-12-24,2024-12-24,株式会社えーしゃ,,株式会社,新潟県,十日町市,馬場丙１５５５番地３０,,15,210,9498551,,,,,,,2024-12-24,1,,,,,エーシャ,0
1296,6120001270995,新規,0,2024-12-24,2024-12-24,川蜜株式会社,,株式会社,大阪府,大阪市淀川区,十三本町１丁目９番２０－４０６号,,27,123,5320024,,,,,,,2024-12-24,1,,,,,カワミツ,0
1297,6120001271283,新規,0,2024-12-24,2024-12-24,株式会社三恵ファームスタジオ,,株式会社,大阪府,大阪市西成区,長橋１丁目７番２１号,,27,122,5570025,,,,,,,2024-12-24,1,,,,,サンケイファームスタジオ,0
1298,6120001271399,新規,0,2024-12-24,2024-12-24,ＴＯＳＯＮ株式会社,,株式会社,大阪府,大阪市中央区,南久宝寺町３丁目４番１５－３１２号,,27,128,5410058,,,,,,,2024-12-24,1,,,,,トーソン,0
1300,6120003028228,新規,0,2024-12-24,2024-12-24,合同会社ＲＥＮ,,合同会社,大阪府,大阪市東淀川区,東中島１丁目２０番１４号東口ステーションビル１００５号,,27,114,5330033,,,,,,,2024-12-24,1,,,,,レン,0
1302,6120901050200,新規,0,2024-12-24,2024-12-24,清泉堂株式会社,,株式会社,大阪府,箕面市,彩都粟生北３丁目７番５３号,,27,220,5620029,,,,,,,2024-12-24,1,,,,,セイセンドウ,0
1309,6130001078629,新規,0,2024-12-24,2024-12-24,株式会社ＭＩＲＡＩ　ｖｉｓｉｏｎ,,株式会社,京都府,京都市南区,久世高田町２５７番地１３９,,26,107,6018211,,,,,,,2024-12-24,1,,,,,ミライビジョン,0
1317,6150001027765,新規,0,2024-12-24,2024-12-24,株式会社和田工業,,株式会社,奈良県,生駒郡三郷町,美松ケ丘東２丁目１０番６号,,29,343,6360805,,,,,,,2024-12-24,1,,,,,ワダコウギョウ,0
1318,6150003003459,新規,0,2024-12-24,2024-12-24,ｍｏｒｐｈｅｕｓ　ｉｎｄｕｓｔｒｙ合同会社,,合同会社,奈良県,奈良市,杉ヶ町３３番地の３奈良駅クリスタルビル５Ｆ,,29,201,6308357,,,,,,,2024-12-24,1,,,,,モーフィアスインダストリイ,0
1319,6150005009652,新規,0,2024-12-24,2024-12-24,医療法人光翼会,,その他の設立登記法人,奈良県,橿原市,土橋町６０９,,29,205,6340844,,,,,,,2024-12-24,1,,,,,コウヨクカイ,0
1321,6160001026428,新規,0,2024-12-24,2024-12-24,株式会社Ｊａｐａｎｅｓｅ,,株式会社,滋賀県,甲賀市,甲南町新治２０３６番地１１,,25,209,5203313,,,,,,,2024-12-24,1,,,,,ジャパニーズ,0
1325,6170003002137,新規,0,2024-12-24,2024-12-24,クリスタルエステート合同会社,,合同会社,和歌山県,和歌山市,雑賀屋町２８番地サーパス県庁前８０４号,,30,201,6408249,,,,,,,2024-12-24,1,,,,,クリスタルエステート,0
1337,6180301039367,新規,0,2024-12-24,2024-12-24,株式会社弥栄,,株式会社,愛知県,安城市,三河安城東町１丁目２７番地３２ステータス安城６階,,23,212,4460057,,,,,,,2024-12-24,1,,,,,イヤサカ,0
1351,6240001064279,新規,0,2024-12-24,2024-12-24,株式会社ＳＰＲＩＮＧ　ＨＯＲＳＥ　Ｐｈ,,株式会社,広島県,呉市,安浦町安登東６丁目６番６号,,34,202,7372513,,,,,,,2024-12-24,1,,,,,スプリングホースピーエイチ,0
1360,6280003001904,新規,0,2024-12-24,2024-12-24,合同会社結縁,,合同会社,島根県,大田市,川合町川合１０１２番地２,,32,205,6940011,,,,,,,2024-12-24,1,,,,,ユウエン,0
1367,6290801031135,新規,0,2024-12-24,2024-12-24,イアス北九州株式会社,,株式会社,福岡県,北九州市小倉北区,江南町８番８号,,40,106,8020083,,,,,,,2024-12-24,1,,,,,イアスキタキュウシュウ,0
1371,6330001032755,新規,0,2024-12-24,2024-12-24,ＱＦアシスト株式会社,,株式会社,熊本県,熊本市東区,長嶺南４丁目４番６０号長嶺ステップＩＩ２号,00137438,43,102,8618039,,,,,,,2024-12-24,1,,,,,キューエフアシスト,0
1389,6430001093325,新規,0,2024-12-24,2024-12-24,株式会社ＣＯＣＯＡ,,株式会社,北海道,札幌市中央区,南二条西５丁目３１番地１ＲＭＢｌｄ．７０１,,01,101,0600062,,,,,,,2024-12-24,1,,,,,ココア,0
1390,6430003017100,新規,0,2024-12-24,2024-12-24,合同会社リバイバル,,合同会社,北海道,札幌市豊平区,中の島二条１０丁目３－４東カン中の島パークサイドマンション６１６,,01,105,0620922,,,,,,,2024-12-24,1,,,,,リバイバル,0
1395,6470001020507,新規,0,2024-12-24,2024-12-24,株式会社Ｂｒｉｄｇｅ　Ｐｌｕｓ,,株式会社,香川県,高松市,林町２００８番地１　ｏｒｉｇｉｎｉｓ　Ｇ　３Ｆ,,37,201,7610301,,,,,,,2024-12-24,1,,,,,ブリッジプラス,0
1396,6470003002775,新規,0,2024-12-24,2024-12-24,合同会社直正工業,,合同会社,香川県,丸亀市,新田町６２番地３,,37,202,7630055,,,,,,,2024-12-24,1,,,,,マサナオコウギョウ,0
1399,6480001012684,新規,0,2024-12-24,2024-12-24,イアス徳島株式会社,,株式会社,徳島県,徳島市,川内町旭野１３１番地,,36,201,7710101,,,,,,,2024-12-24,1,,,,,イアストクシマ,0
1409,6500001026046,新規,0,2024-12-24,2024-12-24,株式会社ネイバーズ,,株式会社,愛媛県,新居浜市,萩生２７５０番地,,38,205,7920050,,,,,,,2024-12-24,1,,,,,ネイバーズ,0
1410,6700150128374,新規,0,2024-12-24,2024-12-24,広州恩倪玻科技有限公司,,外国会社等,,,,,,,,中国広州市天河区広州大道北１１１２号三楼Ｂ３１７４,,,,,,2024-12-24,1,,,,,コウシュウオンゲイハカギユウゲンコウシ,0
1411,6700150128382,新規,0,2024-12-24,2024-12-24,Ｓｈｅｎｚｈｅｎ　Ｍａｙａ　Ｓｔａｒ　Ｔｒａｄｉｎｇ　Ｃｏ．，Ｌｔｄ．,,外国会社等,,,,,,,,Ｓｈｅｎｚｈｅｎ　Ｂａｏａｎ　Ｘｉｎ’ａｎ　Ｓｔｒｅｅｔ　Ｓｈａｎｇｃｈｕａｎ　Ｃｏｍｍｕｎｉｔｙ　Ｄｉｓｔｒｉｃｔ　３１　Ｓｈｕｉｋｏｕ　Ｇａｒｄｅｎ　Ｅａｓｔ　Ｌａｎｅ　１　Ｎｏ．１　Ａ７１２，３８４１８　ＣＮ,,,,,,2024-12-24,1,,,,,シンセンマヤスターレーディングカンパニーリミテッド,0
1423,7010003045836,新規,0,2024-12-24,2024-12-24,Ｔｈｅ　Ｐｅａｋ　Ｓｅｒｉｅｓ　ＸＩＶ合同会社,,合同会社,東京都,千代田区,四番町４番地９新東京国際リーガル内,,13,101,1020081,,,,,,,2024-12-24,1,,,,,ザピークシリーズフォーティーン,0
1424,7010003045844,新規,0,2024-12-24,2024-12-24,Ｂｒｅｅｚｅ合同会社,,合同会社,東京都,中央区,銀座１丁目１２－４Ｎ＆ＥＢＬＤ．７階,,13,102,1040061,,,,,,,2024-12-24,1,,,,,ブリーズ,0
1435,7010401187172,新規,0,2024-12-24,2024-12-24,株式会社Ｊｅｗａｌｕｋａ,,株式会社,東京都,港区,六本木６丁目１０番１号六本木ヒルズ森タワー１６階,,13,103,1060032,,,,,,,2024-12-24,1,,,,,ジェワルカ,0
1436,7010401187180,新規,0,2024-12-24,2024-12-24,栖鳳株式会社,,株式会社,東京都,港区,新橋６丁目１３番９号ＲＥＧＡＲＤＳＨＩＭＢＡＳＨＩ２階,,13,103,1050004,,,,,,,2024-12-24,1,,,,,セイホウ,0
1437,7010401187222,新規,0,2024-12-24,2024-12-24,ＷＥ株式会社,,株式会社,東京都,港区,南青山３丁目１番３６号青山丸竹ビル６Ｆ,,13,103,1070062,,,,,,,2024-12-24,1,,,,,ウイ,0
1438,7010401187239,新規,0,2024-12-24,2024-12-24,株式会社ヤオロズ．,,株式会社,東京都,港区,東麻布１丁目５番２号,,13,103,1060044,,,,,,,2024-12-24,1,,,,,ヤオロズ,0
1440,7010403034059,新規,0,2024-12-24,2024-12-24,合同会社ｍｉｔｓｕｍｅ,,合同会社,東京都,港区,南青山３丁目１番３６号青山丸竹ビル６Ｆ,,13,103,1070062,,,,,,,2024-12-24,1,,,,,ミツメ,0
1442,7010501053324,新規,0,2024-12-24,2024-12-24,示瑪株式会社,,株式会社,東京都,台東区,鳥越２丁目８－４島崎第１０ビル２階２０３Ｂ号室,,13,106,1110054,,,,,,,2024-12-24,1,,,,,シマ,0
1447,7010601066507,新規,0,2024-12-24,2024-12-24,Ｆ＆ＦＩ株式会社,,株式会社,東京都,江東区,青海２丁目７－４ｔｈｅＳＯＨＯｏｄａｉｂａ８２３号室,,13,108,1350064,,,,,,,2024-12-24,1,,,,,エフアンドエフアイ,0
1459,7011001166723,新規,0,2024-12-24,2024-12-24,株式会社ＮＯＴＩＣＥ,,株式会社,東京都,渋谷区,宇田川町７番１７号,,13,113,1500042,,,,,,,2024-12-24,1,,,,,ノーティス,0
1460,7011001166764,新規,0,2024-12-24,2024-12-24,株式会社ＡｔＲＵＭ,,株式会社,東京都,渋谷区,代々木２丁目１８番細川ビル３階,,13,113,1510053,,,,,,,2024-12-24,1,,,,,アトラム,0
1461,7011003020655,新規,0,2024-12-24,2024-12-24,合同会社ＮＹＳ,,合同会社,東京都,目黒区,目黒本町２丁目２０番１４号ニューウェルハイツ学芸大２０５,,13,110,1520002,,,,,,,2024-12-24,1,,,,,エヌワイエス,0
1464,7011101110011,新規,0,2024-12-24,2024-12-24,勇伝株式会社,,株式会社,東京都,新宿区,西新宿３丁目３番１３号西新宿水間ビル２Ｆ,,13,104,1600023,,,,,,,2024-12-24,1,,,,,ユウデン,0
1465,7011101110036,新規,0,2024-12-24,2024-12-24,株式会社Ｒａｍｐａｌ　Ｌａｔｏｕｒ　Ｊａｐａｎ,,株式会社,東京都,新宿区,新宿１丁目４番１３号,,13,104,1600022,,,,,,,2024-12-24,1,,,,,ランパルラトゥールジャパン,0
1466,7011103015324,新規,0,2024-12-24,2024-12-24,合同会社ＳＳＤ,,合同会社,東京都,新宿区,西新宿３丁目３番１３号西新宿水間ビル２Ｆ,,13,104,1600023,,,,,,,2024-12-24,1,,,,,エスエスディ,0
1467,7011103015332,新規,0,2024-12-24,2024-12-24,合同会社Ｈ．Ｍ．Ｇ．Ｍ,,合同会社,東京都,新宿区,百人町１丁目５番２２号アパートメントプレアデス１１０,,13,104,1690073,,,,,,,2024-12-24,1,,,,,エイチドットエムドットジードットエム,0
1469,7011105011271,新規,0,2024-12-24,2024-12-24,一般社団法人ＥＮＤＬＥＳＳ　ＡＣＡＤＥＭＹ,,その他の設立登記法人,東京都,新宿区,西新宿８丁目３番１号西新宿ＧＦビル１Ｆ,,13,104,1600023,,,,,,,2024-12-24,1,,,,,エンドレスアカデミー,0
1471,7011203004557,新規,0,2024-12-24,2024-12-24,合同会社ファンタレラ,,合同会社,東京都,中野区,大和町１丁目６１番９号,,13,114,1650034,,,,,,,2024-12-24,1,,,,,ファンタレラ,0
1473,7011503006352,新規,0,2024-12-24,2024-12-24,ＬＡＫＳＨＩＴＡ合同会社,,合同会社,東京都,北区,東十条４丁目４番１５号コンフォート東十条５０２号室,,13,117,1140001,,,,,,,2024-12-24,1,,,,,ラクシタ,0
1474,7011601028323,新規,0,2024-12-24,2024-12-24,株式会社ＯＦＦＩＣＥ　ＢＬＵＥ　ＦＯＲＥＳＴ,,株式会社,東京都,練馬区,三原台２丁目１０番２０号,,13,120,1770031,,,,,,,2024-12-24,1,,,,,オフィスブルーフォレスト,0
1479,7012301014200,新規,0,2024-12-24,2024-12-24,株式会社ＳＡＮＫＡＲＡ３３,,株式会社,東京都,町田市,能ヶ谷３丁目１４番１号,,13,209,1950053,,,,,,,2024-12-24,1,,,,,,0
1484,7013301053568,新規,0,2024-12-24,2024-12-24,株式会社アーリークロス,,株式会社,東京都,豊島区,東池袋１丁目３４番５号いちご東池袋ビル６階,,13,116,1700013,,,,,,,2024-12-24,1,,,,,アーリークロス,0
1496,7020001160636,新規,0,2024-12-24,2024-12-24,株式会社都筑運輸,,株式会社,神奈川県,横浜市都筑区,茅ケ崎中央５２番地１グランエクシード６０５,,14,118,2240032,,,,,,,2024-12-24,1,,,,,ツヅキウンユ,0
1497,7020001160652,新規,0,2024-12-24,2024-12-24,ジャパンアーキテクト株式会社,,株式会社,神奈川県,横浜市南区,大岡５丁目１８番１５号,,14,105,2320061,,,,,,,2024-12-24,1,,,,,ジャパンアーキテクト,0
1498,7020001160677,新規,0,2024-12-24,2024-12-24,株式会社ナカムラ・アセット・マネジメント,,株式会社,神奈川県,横浜市青葉区,新石川４丁目６番地６,,14,117,2250003,,,,,,,2024-12-24,1,,,,,ナカムラアセットマネジメント,0
1506,7021001084073,新規,0,2024-12-24,2024-12-24,株式会社湯禅,,株式会社,神奈川県,藤沢市,下土棚１０５９番地の２０,,14,205,2520807,,,,,,,2024-12-24,1,,,,,ユゼン,0
1508,7021003015381,新規,0,2024-12-24,2024-12-24,合同会社ヤマシタフォトクリエイティブ,,合同会社,神奈川県,厚木市,鳶尾４丁目１８番１７号,,14,212,2430204,,,,,,,2024-12-24,1,,,,,ヤマシタフォトクリエイティブ,0
1514,7030001163910,新規,0,2024-12-24,2024-12-24,弘景株式会社,,株式会社,埼玉県,川口市,西川口１丁目６番１号小野田ビル８０１号,,11,203,3320021,,,,,,,2024-12-24,1,,,,,コウケイ,0
1515,7030001164058,新規,0,2024-12-24,2024-12-24,朝霞和光環境テクノロジー株式会社,,株式会社,埼玉県,朝霞市,岡３丁目１番２１号３０４号室,,11,227,3510007,,,,,,,2024-12-24,1,,,,,アサカワコウカンキョウテクノロジー,0
1516,7030001164066,新規,0,2024-12-24,2024-12-24,株式会社エステック,,株式会社,埼玉県,所沢市,大字下安松４７６番地の１６,,11,208,3590024,,,,,,,2024-12-24,1,,,,,エステック,0
1517,7030001164090,新規,0,2024-12-24,2024-12-24,株式会社関口工業,,株式会社,埼玉県,春日部市,南中曽根５５０番地１,,11,214,3440048,,,,,,,2024-12-24,1,,,,,セキグチコウギョウ,0
1518,7030001164116,新規,0,2024-12-24,2024-12-24,株式会社Ｏ・Ｊ　ＥＸＰＲＥＳＳ,,株式会社,埼玉県,さいたま市桜区,栄和２丁目１０番２８号,,11,106,3380823,,,,,,,2024-12-24,1,,,,,オージェーエクスプレス,0
1520,7030003025745,新規,0,2024-12-24,2024-12-24,Ｆｕｊｉ　ｔｒａｄｉｎｇ合同会社,,合同会社,埼玉県,越谷市,越ヶ谷３丁目３番１６号２階,,11,222,3430813,,,,,,,2024-12-24,1,,,,,フジトレーディング,0
1521,7030003025753,新規,0,2024-12-24,2024-12-24,合同会社カムイ,,合同会社,埼玉県,草加市,栄町２丁目４番１８号ジュネスヒロカワ２０３,,11,221,3400011,,,,,,,2024-12-24,1,,,,,カムイ,0
1533,7040003026453,新規,0,2024-12-24,2024-12-24,ＡＹＲＩＭ合同会社,,合同会社,千葉県,流山市,おおたかの森北２丁目５１番地の７,,12,220,2700119,,,,,,,2024-12-24,1,,,,,アイリム,0
1535,7040005022608,新規,0,2024-12-24,2024-12-24,特定非営利活動法人文化創造アカデミー,,その他の設立登記法人,千葉県,千葉市稲毛区,稲丘町１０番１１号,,12,103,2630033,,,,,,,2024-12-24,1,,,,,ブンカソウゾウアカデミー,0
1538,7050001055908,新規,0,2024-12-24,2024-12-24,株式会社ゴールデンフェニックス,,株式会社,茨城県,牛久市,田宮町２４８番地,,08,219,3001236,,,,,,,2024-12-24,1,,,,,ゴールデンフェニックス,0
1549,7080101025205,新規,0,2024-12-24,2024-12-24,株式会社ホープ・ワン,,株式会社,静岡県,富士市,岩本２０５４番地の２２,,22,210,4160901,,,,,,,2024-12-24,1,,,,,ホープワン,0
1554,7080401027636,新規,0,2024-12-24,2024-12-24,株式会社ＫＣＰ２,,株式会社,静岡県,浜松市中央区,鍛冶町１００番地の１ザザシティ浜松中央館Ｂ１Ｆ,,22,138,4300933,,,,,,,2024-12-24,1,,,,,ケーシーピーツー,0
1560,7110001038947,新規,0,2024-12-24,2024-12-24,株式会社みーしゃ,,株式会社,新潟県,十日町市,馬場丙１５５５番地３０,,15,210,9498551,,,,,,,2024-12-24,1,,,,,ミーシャ,0
1568,7120001271175,新規,0,2024-12-24,2024-12-24,株式会社ＳＥＮＳＥＥＤ,,株式会社,大阪府,大阪市中央区,南船場２丁目７番１４号,,27,128,5420081,,,,,,,2024-12-24,1,,,,,センシード,0
1569,7120001271381,新規,0,2024-12-24,2024-12-24,株式会社ＬＥＢＵＬ,,株式会社,大阪府,大阪市東住吉区,公園南矢田２丁目６番３号セジュールオッツＴ３０２号,,27,121,5460024,,,,,,,2024-12-24,1,,,,,レブル,0
1570,7120001271398,新規,0,2024-12-24,2024-12-24,株式会社タキシードパーク,,株式会社,大阪府,大阪市北区,西天満４丁目９番２号西天満ビル１階,,27,127,5300047,,,,,,,2024-12-24,1,,,,,タキシードパーク,0
1574,7120003028219,新規,0,2024-12-24,2024-12-24,ＭＩＲＡＩ合同会社,,合同会社,大阪府,大阪市港区,築港３丁目８番６,,27,107,5520021,,,,,,,2024-12-24,1,,,,,ミライ,0
1577,7120101070799,新規,0,2024-12-24,2024-12-24,株式会社勝建設,,株式会社,大阪府,堺市南区,美木多上９８２番地９,,27,145,5900136,,,,,,,2024-12-24,1,,,,,カツケンセツ,0
1584,7140001136822,新規,0,2024-12-24,2024-12-24,株式会社叶笑,,株式会社,兵庫県,西宮市,津門住江町８番１６号,,28,204,6638234,,,,,,,2024-12-24,1,,,,,カナエ,0
1588,7140003021444,新規,0,2024-12-24,2024-12-24,合同会社ＰＦＳ,,合同会社,兵庫県,明石市,西新町３丁目１３番２３－１００７号,,28,203,6730023,,,,,,,2024-12-24,1,,,,,ピーエフエス,0
1589,7140005027290,新規,0,2024-12-24,2024-12-24,一般社団法人Ｒｅｇｅｎｅｒａｔｉｖｅ　Ｃｏｆｆｅｅ協会,,その他の設立登記法人,兵庫県,神戸市中央区,北野町１丁目１－１４,,28,110,6500002,,,,,,,2024-12-24,1,,,,,リジェネラティヴコーヒーキョウカイ,0
1594,7150005009651,新規,0,2024-12-24,2024-12-24,医療法人社団清信会,,その他の設立登記法人,奈良県,奈良市,西大寺国見町１丁目１－１３１,,29,201,6310823,,,,,,,2024-12-24,1,,,,,セイシンカイ,0
1598,7160001026427,新規,0,2024-12-24,2024-12-24,株式会社フレンズ不動産,,株式会社,滋賀県,大津市,梅林１丁目３番３０号,,25,201,5200051,,,,,,,2024-12-24,1,,,,,フレンズフドウサン,0
1612,7180301039366,新規,0,2024-12-24,2024-12-24,ぷくぷくぱんだ株式会社,,株式会社,愛知県,安城市,住吉町７丁目１４番地３,,23,212,4460072,,,,,,,2024-12-24,1,,,,,プクプクパンダ,0
1620,7210001020003,新規,0,2024-12-24,2024-12-24,株式会社Ｐｅｔａｌ,,株式会社,福井県,鯖江市,大野町２８号１８番地,,18,207,9161102,,,,,,,2024-12-24,1,,,,,ペタル,0
1622,7240001064286,新規,0,2024-12-24,2024-12-24,株式会社ｋｙａｎｏｓ,,株式会社,広島県,広島市安芸区,畑賀１丁目６番３６－６号,,34,107,7360088,,,,,,,2024-12-24,1,,,,,キアノス,0
1624,7250001020940,新規,0,2024-12-24,2024-12-24,Ｓｐｅａｋ株式会社,,株式会社,山口県,山口市,黒川２６１４番地７,,35,203,7530851,,,,,,,2024-12-24,1,,,,,スピーク,0
1626,7270005005622,新規,0,2024-12-24,2024-12-24,一般社団法人チャレンジ・アグリ・プロダクツ,,その他の設立登記法人,鳥取県,鳥取市,湖山町南４丁目１０１鳥取大学農学部内,,31,201,6800945,,,,,,,2024-12-24,1,,,,,チャレンジアグリプロダクツ,0
1633,7290005019595,新規,0,2024-12-24,2024-12-24,医療法人ＭＳＯ,,その他の設立登記法人,福岡県,福岡市西区,姪浜駅南１丁目２番１５号,,40,135,8190006,,,,,,,2024-12-24,1,,,,,エムエスオー,0
1637,7300003002213,新規,0,2024-12-24,2024-12-24,合同会社原口一博インスティテュート,,合同会社,佐賀県,佐賀市,高木瀬東２丁目５番４１号,,41,201,8490922,,,,,,,2024-12-24,1,,,,,ハラグチカズヒロインスティテュート,0
1638,7310001019373,新規,0,2024-12-24,2024-12-24,株式会社大平青果,,株式会社,長崎県,島原市,下宮町甲１７７５番地３,,42,203,8550014,,,,,,,2024-12-24,1,,,,,オオヒラセイカ,0
1643,7320003004538,新規,0,2024-12-24,2024-12-24,合同会社ハンティングライフ社,,合同会社,大分県,大分市,緑が丘３丁目２番７号,,44,201,8701172,,,,,,,2024-12-24,1,,,,,ハンティングライフシャ,0
1650,7340003004692,新規,0,2024-12-24,2024-12-24,合同会社ｗａｋｕｗａｋｕ,,合同会社,鹿児島県,大島郡喜界町,大字湾３７７番地２,,46,529,8916202,,,,,,,2024-12-24,1,,,,,ワクワク,0
1658,7360001034566,新規,0,2024-12-24,2024-12-24,株式会社航エンジニア,,株式会社,沖縄県,うるま市,字川田４７８番地１－Ｄ棟,,47,213,9042232,,,,,,,2024-12-24,1,,,,,ワタルエンジニア,0
1665,7380001035001,新規,0,2024-12-24,2024-12-24,イアス郡山株式会社,,株式会社,福島県,郡山市,喜久田町字菖蒲池２１番地の４２,,07,203,9630551,,,,,,,2024-12-24,1,,,,,イアスコオリヤマ,0
1671,7430001093324,新規,0,2024-12-24,2024-12-24,株式会社ＴＯＰ　ＧＩＶＥＲＳ,,株式会社,北海道,札幌市中央区,南六条西３丁目１ニューオリンピアビル,,01,101,0640806,,,,,,,2024-12-24,1,,,,,トップギバーズ,0
1672,7430001093332,新規,0,2024-12-24,2024-12-24,株式会社Ｍａｖｅｒｉｃｋ,,株式会社,北海道,札幌市豊平区,豊平五条５丁目２番６－３０５号,,01,105,0620905,,,,,,,2024-12-24,1,,,,,マーベリック,0
1676,7430005015126,新規,0,2024-12-24,2024-12-24,一般財団法人日本伝統麻協議会,,その他の設立登記法人,北海道,札幌市中央区,北十条西１６丁目２８番地１４５,,01,101,0600010,,,,,,,2024-12-24,1,,,,,ニホンデントウアサキョウギカイ,0
1678,7460001005961,新規,0,2024-12-24,2024-12-24,株式会社アウロラ,,株式会社,北海道,釧路市,鳥取大通２丁目２番２４号,,01,206,0840906,,,,,,,2024-12-24,1,,,,,アウロラ,0
1679,7460101007643,新規,0,2024-12-24,2024-12-24,株式会社友創,,株式会社,北海道,中川郡幕別町,札内豊町４５番地の７,,01,643,0890532,,,,,,,2024-12-24,1,,,,,ユウソウ,0
1680,7460301005265,新規,0,2024-12-24,2024-12-24,株式会社Ｓｋｙｗａｒｄ　Ｇｒｏｗｔｈ,,株式会社,北海道,北見市,北二条西２丁目８　ＫＩＴＡＭＩ　ＢＡＳＥ内,,01,208,0900042,,,,,,,2024-12-24,1,,,,,スカイワードグロース,0
1684,7480001012683,新規,0,2024-12-24,2024-12-24,イアス阿波株式会社,,株式会社,徳島県,徳島市,仲之町１丁目２１番地の４,,36,201,7700932,,,,,,,2024-12-24,1,,,,,イアスアワ,0
1685,7480003002212,新規,0,2024-12-24,2024-12-24,合同会社青木経営経済総合事務所,,合同会社,徳島県,徳島市,南庄町４丁目５４番地の１,,36,201,7700045,,,,,,,2024-12-24,1,,,,,アオキケイエイケイザイソウゴウジムショ,0
1688,7700150128357,新規,0,2024-12-24,2024-12-24,ＡＬＥＸＳＴＥＷＡＲＴ　ＩＮＳＰＥＣＴＩＯＮ　ＬＩＭＩＴＥＤ,,外国会社等,,,,,,,,ＭｉｌｌＭａｉｌＴｏｗｅｒ，２ｎｄｆｌｏｏｒ，ＷｉｃｋｈａｍｓＣａｙ１，ＰＯＢｏｘ４４０６ＲｏａｄＴｏｗｎＴｏｒｔｏｌａ，ＢｒｉｔｉｓｈＶｉｒｇｉｎＩｓｌａｎｄ,,,,,,2024-12-24,1,,,,,アレツクススチユワートインスペクシヨン,0
1689,7700150128373,新規,0,2024-12-24,2024-12-24,深セン市楽邦暉貿易有限公司,,外国会社等,,,,,,,,中国深セン市龍崗区坂田街道中興路東互聯ｅ時代賽盒科技大楼２楼２０３室,,,,,,2024-12-24,1,,,,,シンセンシラクホウキボウエキユウゲンコウシ,0
1690,7700150128381,新規,0,2024-12-24,2024-12-24,ＫＡＰＩＬＡ　ＭＯＴＯＲＳ,,外国会社等,神奈川県,愛甲郡愛川町,三増３５０番８－Ｎｏ．４,,14,401,2430308,スリランカ民主社会主義共和国、ドゥンマラスリヤ、メインストリートＮｏ．１６６Ａ,,,,,,2024-12-24,1,,,,,カピラモータース,0
1699,8010001250882,新規,0,2024-12-24,2024-12-24,はいチーズベジ株式会社,,株式会社,東京都,千代田区,紀尾井町１番３号東京ガーデンテラス紀尾井町紀尾井タワー１４階,,13,101,1020094,,,,,,,2024-12-24,1,,,,,ハイチーズベジ,0
1700,8010001250949,新規,0,2024-12-24,2024-12-24,株式会社ビットロジックトラスト,,株式会社,東京都,千代田区,麹町４丁目４番４号,,13,101,1020083,,,,,,,2024-12-24,1,,,,,ビットロジックトラスト,0
1703,8010003045835,新規,0,2024-12-24,2024-12-24,Ｔｈｅ　Ｐｅａｋ　Ｓｅｒｉｅｓ　ＸＩＩＩ合同会社,,合同会社,東京都,千代田区,四番町４番地９新東京国際リーガル内,,13,101,1020081,,,,,,,2024-12-24,1,,,,,ザピークシリーズサーティーン,0
1704,8010003045876,新規,0,2024-12-24,2024-12-24,ＷＡＺＡＷＯＲＫＳ合同会社,,合同会社,東京都,千代田区,神田美倉町１０番地,,13,101,1010038,,,,,,,2024-12-24,1,,,,,ワザワークス,0
1706,8010005039281,新規,0,2024-12-24,2024-12-24,一般社団法人ＳＲＲ,,その他の設立登記法人,東京都,中央区,銀座１丁目５番６号レンガ通り福神ビル４階,,13,102,1040061,,,,,,,2024-12-24,1,,,,,エスアールアール,0
1707,8010005039315,新規,0,2024-12-24,2024-12-24,特定非営利活動法人フルーツフルライフ,,その他の設立登記法人,東京都,千代田区,五番町４番地１９幸ビル４階,,13,101,1020076,,,,,,,2024-12-24,1,,,,,フルーツライフ,0
1714,8010401187147,新規,0,2024-12-24,2024-12-24,プロジェクトＯＮＥ株式会社,,株式会社,東京都,港区,三田５丁目２番２２号ザ・パークハウス三田ガーデン１５１１,,13,103,1080073,,,,,,,2024-12-24,1,,,,,プロジェクトワン,0
1715,8010401187238,新規,0,2024-12-24,2024-12-24,株式会社オルツＲＥキャピタル,,株式会社,東京都,港区,六本木６丁目１番２０号六本木電気ビル,,13,103,1060032,,,,,,,2024-12-24,1,,,,,オルツアールイーキャピタル,0
1719,8010403034058,新規,0,2024-12-24,2024-12-24,合同会社Ｌｉｆｅ　Ａｓｃｅｎｄ,,合同会社,東京都,港区,北青山１丁目３番１号アールキューブ青山３階,,13,103,1070061,,,,,,,2024-12-24,1,,,,,ライフアセンド,0
1720,8010405023868,新規,0,2024-12-24,2024-12-24,一般社団法人女性アスリート支援機構,,その他の設立登記法人,東京都,港区,赤坂６丁目５番２８号ヴェルディ赤坂３Ｆ,,13,103,1070052,,,,,,,2024-12-24,1,,,,,ジョセイアスリートシエンキコウ,0
1721,8010405023892,新規,0,2024-12-24,2024-12-24,弁護士法人東京虎ノ門国際法律事務所,,その他の設立登記法人,東京都,港区,虎ノ門１丁目１６番２号岩尾ビル８階,,13,103,1050001,,,,,,,2024-12-24,1,,,,,トウキョウトラノモンコクサイホウリツジムショ,0
1724,8010501053389,新規,0,2024-12-24,2024-12-24,株式会社Ｔ・Ｂ・Ｅ,,株式会社,東京都,台東区,雷門１丁目１２番５号滝沢ビル１Ｆ,,13,106,1110034,,,,,,,2024-12-24,1,,,,,ティービーイー,0
1725,8010503007681,新規,0,2024-12-24,2024-12-24,合同会社サザンカ,,合同会社,東京都,台東区,北上野２丁目２１－１２東京凱捷ビル６０２,,13,106,1100014,,,,,,,2024-12-24,1,,,,,サザンカ,0
1731,8010703007507,新規,0,2024-12-24,2024-12-24,合同会社ぽかぽかほーむ,,合同会社,東京都,品川区,西五反田１丁目２６番２号五反田サンハイツ９１１,,13,109,1410031,,,,,,,2024-12-24,1,,,,,ポカポカホーム,0
1738,8011001166524,新規,0,2024-12-24,2024-12-24,株式会社イージューライダー,,株式会社,東京都,渋谷区,幡ヶ谷２丁目９－１２,,13,113,1510072,,,,,,,2024-12-24,1,,,,,イージューライダー,0
1739,8011001166739,新規,0,2024-12-24,2024-12-24,トリクル株式会社,,株式会社,東京都,渋谷区,道玄坂１丁目１０番８号渋谷道玄坂東急ビル２Ｆ－Ｃ,,13,113,1500043,,,,,,,2024-12-24,1,,,,,トリクル,0
1742,8011003020638,新規,0,2024-12-24,2024-12-24,合同会社ＰＳＳ,,合同会社,東京都,渋谷区,道玄坂１丁目１０番８号渋谷道玄坂東急ビル２Ｆ－Ｃ,,13,113,1500043,,,,,,,2024-12-24,1,,,,,ピーエスエス,0
1743,8011003020670,新規,0,2024-12-24,2024-12-24,ペイフォワードパートナーズ合同会社,,合同会社,東京都,渋谷区,道玄坂１丁目１０番８号渋谷道玄坂東急ビル２Ｆ－Ｃ,,13,113,1500043,,,,,,,2024-12-24,1,,,,,ペイフォワードパートナーズ,0
1745,8011101110035,新規,0,2024-12-24,2024-12-24,株式会社ｎｅｒｖｅ,,株式会社,東京都,新宿区,山吹町３４０番地２ミリアレジデンス早稲田山吹町６０３,,13,104,1620801,,,,,,,2024-12-24,1,,,,,ナーブ,0
1746,8011101110043,新規,0,2024-12-24,2024-12-24,株式会社ＭＩＴ,,株式会社,東京都,新宿区,新宿２丁目１２番１３号新宿アントレサロンビル２階,,13,104,1600022,,,,,,,2024-12-24,1,,,,,ミット,0
1753,8011303005371,新規,0,2024-12-24,2024-12-24,合同会社Ｊ．ｃｏｎｎｅｃｔ,,合同会社,東京都,杉並区,天沼２丁目２２－２０,,13,115,1670032,,,,,,,2024-12-24,1,,,,,ジェイコネクト,0
1762,8012401042604,新規,0,2024-12-24,2024-12-24,株式会社エフィナス,,株式会社,東京都,調布市,小島町２丁目５１－２寿ビル２Ｆ,,13,208,1820026,,,,,,,2024-12-24,1,,,,,エフィナス,0
1765,8012703003155,新規,0,2024-12-24,2024-12-24,Ｒｉｖｅｒｔｏｎｅ合同会社,,合同会社,東京都,東久留米市,本町４丁目７－４５,,13,222,2030053,,,,,,,2024-12-24,1,,,,,リバートーン,0
1768,8012803003575,新規,0,2024-12-24,2024-12-24,合同会社８２,,合同会社,東京都,立川市,一番町６丁目２８番地の１４,,13,202,1900033,,,,,,,2024-12-24,1,,,,,エイティーツー,0
1788,8021003015389,新規,0,2024-12-24,2024-12-24,わかくさアセット合同会社,,合同会社,神奈川県,平塚市,中里１６－１８,,14,203,2540054,,,,,,,2024-12-24,1,,,,,ワカクサアセット,0
1791,8030001163884,新規,0,2024-12-24,2024-12-24,株式会社ヴォーラ・ディスカー,,株式会社,埼玉県,朝霞市,溝沼３丁目２番５号,,11,227,3510023,,,,,,,2024-12-24,1,,,,,ヴォーラディスカー,0
1792,8030001164057,新規,0,2024-12-24,2024-12-24,ｅｉｇｈｔ　ｓｕｎｓ株式会社,,株式会社,埼玉県,草加市,原町２丁目１番８－１号,,11,221,3400048,,,,,,,2024-12-24,1,,,,,エイトサンズ,0
1793,8030001164065,新規,0,2024-12-24,2024-12-24,ながばなし株式会社,,株式会社,埼玉県,さいたま市桜区,大字下大久保８６７番地４,,11,106,3380825,,,,,,,2024-12-24,1,,,,,ナガバナシ,0
1794,8030001164081,新規,0,2024-12-24,2024-12-24,株式会社橋本総業,,株式会社,埼玉県,川口市,南鳩ヶ谷２丁目８番１７号矢作マンション１０４号,,11,203,3340013,,,,,,,2024-12-24,1,,,,,ハシモトソウギョウ,0
1796,8030003025736,新規,0,2024-12-24,2024-12-24,ＴＲＪ合同会社,,合同会社,埼玉県,吉川市,美南１丁目２番地２リブリ・ＳＡＫＵＲＡ１５－３０８号室,,11,243,3420038,,,,,,,2024-12-24,1,,,,,トレジャー,0
1801,8040001136690,新規,0,2024-12-24,2024-12-24,ファンタジー・スペース株式会社,,株式会社,千葉県,鎌ケ谷市,南鎌ケ谷１丁目８－２７―２０１号室,,12,224,2730106,,,,,,,2024-12-24,1,,,,,ファンタジースペース,0
1804,8040003026452,新規,0,2024-12-24,2024-12-24,合同会社虹,,合同会社,千葉県,山武市,本須賀１４３５番地,,12,237,2891305,,,,,,,2024-12-24,1,,,,,ニジ,0
1807,8050001055915,新規,0,2024-12-24,2024-12-24,株式会社トラスト,,株式会社,茨城県,日立市,小木津町１丁目８－１５,,08,202,3191413,,,,,,,2024-12-24,1,,,,,トラスト,0
1808,8050001055923,新規,0,2024-12-24,2024-12-24,Ｍｕｌｂｅｒｒｙ　Ｆｉｅｌｄ　Ｊａｐａｎ株式会社,,株式会社,茨城県,北相馬郡利根町,大字羽根野６４３番地１,,08,564,3001636,,,,,,,2024-12-24,1,,,,,マルベリーフィールドジャパン,0
1809,8050003008895,新規,0,2024-12-24,2024-12-24,合同会社山翠フロンティア,,合同会社,茨城県,下妻市,長塚乙２番地１５,,08,210,3040056,,,,,,,2024-12-24,1,,,,,サンスイフロンティア,0
1811,8060001037755,新規,0,2024-12-24,2024-12-24,株式会社クラシカエル,,株式会社,栃木県,宇都宮市,石井町３４３１番地５６,,09,201,3210912,,,,,,,2024-12-24,1,,,,,クラシカエル,0
1816,8070001042465,新規,0,2024-12-24,2024-12-24,株式会社バンブー,,株式会社,群馬県,高崎市,箕郷町生原８６１番地１,,10,202,3703102,,,,,,,2024-12-24,1,,,,,バンブー,0
1817,8070001042473,新規,0,2024-12-24,2024-12-24,株式会社土屋産業,,株式会社,群馬県,太田市,八重笠町３３５番地１,,10,205,3730805,,,,,,,2024-12-24,1,,,,,ツチヤサンギョウ,0
1830,8120001271364,新規,0,2024-12-24,2024-12-24,株式会社アイル,,株式会社,大阪府,寝屋川市,楠根北町３番６０号,,27,215,5720845,,,,,,,2024-12-24,1,,,,,アイル,0
1831,8120001271372,新規,0,2024-12-24,2024-12-24,嘉信サンシャイン株式会社,,株式会社,大阪府,大阪市淀川区,西宮原２丁目６－１６－５２２号,,27,123,5320004,,,,,,,2024-12-24,1,,,,,カシンサンシャイン,0
1835,8120003028226,新規,0,2024-12-24,2024-12-24,合同会社ｅｍｕｓ,,合同会社,大阪府,大阪市天王寺区,上本町６丁目９番１９号ＦＬＡＴ３４上本町１００２号,,27,109,5430001,,,,,,,2024-12-24,1,,,,,エミュ,0
1839,8120101070798,新規,0,2024-12-24,2024-12-24,照屋創業株式会社,,株式会社,大阪府,堺市堺区,宿屋町西３－１－２７－１０３,,27,141,5900000,,,,,,,2024-12-24,1,,,,,テルヤソウギョウ,0
1840,8120103006206,新規,0,2024-12-24,2024-12-24,合同会社Ｍ＆Ｙ,,合同会社,大阪府,泉南市,信達大苗代７０１番地の５１,,27,228,5900505,,,,,,,2024-12-24,1,,,,,エムアンドワイ,0
1854,8140001136821,新規,0,2024-12-24,2024-12-24,株式会社Ｔ‐ＳＨＯ会,,株式会社,兵庫県,宝塚市,安倉中４丁目１番５号,,28,214,6650822,,,,,,,2024-12-24,1,,,,,ティーショーカイ,0
1855,8140001136838,新規,0,2024-12-24,2024-12-24,株式会社アップトレンド,,株式会社,兵庫県,姫路市,田寺東２丁目１０番１７－６０１号,,28,201,6700081,,,,,,,2024-12-24,1,,,,,アップトレンド,0
1858,8140003021443,新規,0,2024-12-24,2024-12-24,合同会社Ｙ２コーポレーション,,合同会社,兵庫県,高砂市,金ケ田町５番３－３号,,28,216,6760816,,,,,,,2024-12-24,1,,,,,ワイツーコーポレーション,0
1860,8150001027763,新規,0,2024-12-24,2024-12-24,株式会社スタイルビルド,,株式会社,奈良県,奈良市,学園北１丁目１４番８号,,29,201,6310036,,,,,,,2024-12-24,1,,,,,スタイルビルド,0
1863,8160001026426,新規,0,2024-12-24,2024-12-24,株式会社ケアリアプラス,,株式会社,滋賀県,長浜市,大戌亥町２８８番地５,,25,203,5260043,,,,,,,2024-12-24,1,,,,,ケアリアプラス,0
1864,8180001164653,新規,0,2024-12-24,2024-12-24,株式会社正フロアー,,株式会社,愛知県,東海市,名和町寝覚２３８番地の３,,23,222,4760002,,,,,,,2024-12-24,1,,,,,マサフロアー,0
1868,8180301039357,新規,0,2024-12-24,2024-12-24,株式会社ＱＵＯＮチョコレート,,株式会社,愛知県,豊橋市,松葉町１丁目４番地サカキバラビル１階,,23,201,4400897,,,,,,,2024-12-24,1,,,,,クオンチョコレート,0
1869,8180301039365,新規,0,2024-12-24,2024-12-24,株式会社ＹＳＳ,,株式会社,愛知県,碧南市,緑町５丁目７０番地,,23,209,4470041,,,,,,,2024-12-24,1,,,,,ワイエスエス,0
1883,8210001020002,新規,0,2024-12-24,2024-12-24,株式会社ＫＥＮ‐Ｂ,,株式会社,福井県,坂井市,春江町江留上中央１１番地４６,,18,210,9190453,,,,,,,2024-12-24,1,,,,,ケンビー,0
1888,8230001020660,新規,0,2024-12-24,2024-12-24,株式会社島,,株式会社,富山県,魚津市,本新町２０番３４号,,16,204,9370068,,,,,,,2024-12-24,1,,,,,シマ,0
1894,8240005015870,新規,0,2024-12-24,2024-12-24,特定非営利活動法人日本リトルシニア中学硬式野球協会中国連盟,,その他の設立登記法人,広島県,呉市,吉浦宮花町７番６号,,34,202,7370863,,,,,,,2024-12-24,1,,,,,ニホンリトルシニアチュウガクコウシキヤキュウキョウカイチュウゴクレンメイ,0
1904,8290001108392,新規,0,2024-12-24,2024-12-24,ブレンド株式会社,,株式会社,福岡県,福岡市中央区,六本松３丁目１６番２７－８０２号サーパス赤坂マスターズビュー,,40,133,8100044,,,,,,,2024-12-24,1,,,,,ブレンド,0
1907,8290003016214,新規,0,2024-12-24,2024-12-24,合同会社グリュック,,合同会社,福岡県,大牟田市,大字橘１５３９,,40,202,8370911,,,,,,,2024-12-24,1,,,,,グリュック,0
1917,8330003010682,新規,0,2024-12-24,2024-12-24,合同会社ｍｕｎａｃａｔａ,,合同会社,熊本県,熊本市中央区,練兵町１３番７号９０１,,43,101,8600017,,,,,,,2024-12-24,1,,,,,ムナカタ,0
1921,8360003014490,新規,0,2024-12-24,2024-12-24,合同会社ＱＥＥＣ,,合同会社,沖縄県,石垣市,字新川１５８３番３２６号,,47,207,9070024,,,,,,,2024-12-24,1,,,,,,0
1927,8390001017831,新規,0,2024-12-24,2024-12-24,株式会社もりのかえで,,株式会社,山形県,村山市,楯岡新町３丁目２１番１２号,,06,208,9950033,,,,,,,2024-12-24,1,,,,,モリノカエデ,0
1933,8420001018958,新規,0,2024-12-24,2024-12-24,株式会社スペースＹ’ｓ,,株式会社,青森県,むつ市,新町３番１４号,,02,208,0350051,,,,,,,2024-12-24,1,,,,,スペースワイズ,0
1944,8700150128372,新規,0,2024-12-24,2024-12-24,Ｎｏｒｔｈ　Ｔｈｉｎ　Ｐｌｙ　Ｔｅｃｈｎｏｌｏｇｙ　Ｓｐ．ｚ　ｏ．ｏ．,,外国会社等,,,,,,,,ＰＵＫＯＷＣＡ　３８Ａ　ｓｔｒｅｅｔ／４４－２４０　ＯＲＹ　Ｌ　ＳＫＩＥ,,,,,,2024-12-24,1,,,,,ノースシンプライテクノロジースプズオーオー,0
1945,8700150128380,新規,0,2024-12-24,2024-12-24,ｓｈｅｎｚｈｅｎｓｈｉｍａｉｓｈｕｎｋｅｊｉｙｏｕｘｉａｎｇｏｎｇｓｉ,,外国会社等,,,,,,,,Ｒｏｏｍ　３２８－Ａ２４，Ｅａｓｔ　Ｆｌｏｏｒ　３，Ｂｕｉｌｄｉｎｇ　２０６，Ｔａｉｒａｎ　Ｔｅｃｈｎｏｌｏｇｙ　Ｐａｒｋ，Ｔａｉｒａｎ　６ｔｈ　Ｒｏａｄ，Ｔｉａｎａｎ　Ｃｏｍｍｕｎｉｔｙ，Ｓｈａｔｏｕ　Ｓｔｒｅｅｔ，Ｆｕｔｉａｎ，Ｓｈｅｎｚｈｅｎ,,,,,,2024-12-24,1,,,,,シンセンシマイスンカギユウゲンコウシ,0
1953,9010001250452,新規,0,2024-12-24,2024-12-24,株式会社Ｌｉｖｅ,,株式会社,東京都,中央区,銀座７丁目１３番６号サガミビル２階,,13,102,1040061,,,,,,,2024-12-24,1,,,,,ライブ,0
1954,9010001250691,新規,0,2024-12-24,2024-12-24,株式会社シベハス,,株式会社,東京都,中央区,銀座１丁目２２番１１号銀座大竹ビジデンス２Ｆ,,13,102,1040061,,,,,,,2024-12-24,1,,,,,シベハス,0
1955,9010001250824,新規,0,2024-12-24,2024-12-24,ＹＩ　ＥＤＧＥ株式会社,,株式会社,東京都,中央区,銀座１丁目２２番１１号銀座ビジデンス２Ｆ,,13,102,1040061,,,,,,,2024-12-24,1,,,,,イーエッジ,0
1956,9010001250907,新規,0,2024-12-24,2024-12-24,株式会社ＰＲＯＳＴＡ,,株式会社,東京都,中央区,入船３丁目４－７,,13,102,1040042,,,,,,,2024-12-24,1,,,,,プロスタ,0
1957,9010001250948,新規,0,2024-12-24,2024-12-24,株式会社ユトピア,,株式会社,東京都,中央区,銀座１丁目１２番４号Ｎ＆Ｅ・ＢＬＤ．７階,,13,102,1040061,,,,,,,2024-12-24,1,,,,,ユトピア,0
1960,9010003045834,新規,0,2024-12-24,2024-12-24,Ｔｈｅ　Ｐｅａｋ　Ｓｅｒｉｅｓ　ＸＩＩ合同会社,,合同会社,東京都,千代田区,四番町４番地９新東京国際リーガル内,,13,101,1020081,,,,,,,2024-12-24,1,,,,,ザピークシリーズトゥエルブ,0
1961,9010003045850,新規,0,2024-12-24,2024-12-24,Ｍｅｇａｔｅｃｈ　Ｌｅｘｇｏ合同会社,,合同会社,東京都,千代田区,飯田橋３丁目４番１号４階,,13,101,1020072,,,,,,,2024-12-24,1,,,,,メガーテックレクスゴー,0
1963,9010005039314,新規,0,2024-12-24,2024-12-24,一般社団法人栄養医学療養ケア研究所,,その他の設立登記法人,東京都,中央区,銀座１丁目１２番４号Ｎ＆ＥＢＬＤ．７階,,13,102,1040061,,,,,,,2024-12-24,1,,,,,エイヨウイガクリョウヨウケアケンキュウジョ,0
1971,9010501053347,新規,0,2024-12-24,2024-12-24,ＳｍａｒｔＬａｂｓ株式会社,,株式会社,東京都,台東区,鳥越２丁目８番４号,,13,106,1110054,,,,,,,2024-12-24,1,,,,,スマートラボス,0
1972,9010501053388,新規,0,2024-12-24,2024-12-24,株式会社鐘典,,株式会社,東京都,台東区,寿４丁目４－７すずらんハイネス６Ｆ,,13,106,1110042,,,,,,,2024-12-24,1,,,,,ショウテン,0
1973,9010501053396,新規,0,2024-12-24,2024-12-24,株式会社東粋翔,,株式会社,東京都,台東区,雷門２丁目１９番１２号,,13,106,1110034,,,,,,,2024-12-24,1,,,,,トウスイショウ,0
1974,9010503007680,新規,0,2024-12-24,2024-12-24,合同会社ハウトラス,,合同会社,東京都,台東区,日本堤１丁目４０番４－６０２号,,13,106,1110021,,,,,,,2024-12-24,1,,,,,ハウトラス,0
1977,9010601066505,新規,0,2024-12-24,2024-12-24,ＩＮＯ水産株式会社,,株式会社,東京都,江東区,豊洲６丁目６番３号ホウスイビル４０４,,13,108,1350061,,,,,,,2024-12-24,1,,,,,イノスイサン,0
1983,9011001166556,新規,0,2024-12-24,2024-12-24,ＲＵＮＡ株式会社,,株式会社,東京都,目黒区,下目黒１丁目１番１４号コノトラビル７Ｆ,,13,110,1530064,,,,,,,2024-12-24,1,,,,,ルナ,0
1984,9011001166696,新規,0,2024-12-24,2024-12-24,株式会社ヒカツ,,株式会社,東京都,目黒区,東山２丁目１２番４号２０２,,13,110,1530043,,,,,,,2024-12-24,1,,,,,ヒカツ,0
1985,9011001166738,新規,0,2024-12-24,2024-12-24,ＰｈＤ株式会社,,株式会社,東京都,渋谷区,神宮前４丁目１１番２号高野ビル２０２,,13,113,1500001,,,,,,,2024-12-24,1,,,,,ピーエイチディー,0
1986,9011001166762,新規,0,2024-12-24,2024-12-24,株式会社ＮＥＸＴ,,株式会社,東京都,渋谷区,恵比寿西１丁目１８番１号－６０１,,13,113,1500021,,,,,,,2024-12-24,1,,,,,ネクスト,0
1987,9011003020661,新規,0,2024-12-24,2024-12-24,Ｍｏｒｕ合同会社,,合同会社,東京都,渋谷区,道玄坂１丁目１０番８号渋谷道玄坂東急ビル２Ｆ－Ｃ,,13,113,1500043,,,,,,,2024-12-24,1,,,,,モル,0
1988,9011003020678,新規,0,2024-12-24,2024-12-24,合同会社クラドニ,,合同会社,東京都,渋谷区,千駄ヶ谷１丁目５番１号,,13,113,1510051,,,,,,,2024-12-24,1,,,,,クラドニ,0
1995,9011101110034,新規,0,2024-12-24,2024-12-24,株式会社日星商事,,株式会社,東京都,新宿区,富久町１１番５号シャトレ市ヶ谷１０５,,13,104,1620067,,,,,,,2024-12-24,1,,,,,ニッセイショウジ,0
1996,9011101110042,新規,0,2024-12-24,2024-12-24,フォーミュラ株式会社,,株式会社,東京都,新宿区,西新宿３丁目３番１３号西新宿水間ビル２Ｆ,,13,104,1600023,,,,,,,2024-12-24,1,,,,,フォーミュラ,0
2000,9011303005370,新規,0,2024-12-24,2024-12-24,ＦＲＥＳＨ　ＷＡＴＥＲ合同会社,,合同会社,東京都,杉並区,下井草３丁目４番２３号,,13,115,1670022,,,,,,,2024-12-24,1,,,,,フレッシュウォーター,0
2002,9011501031524,新規,0,2024-12-24,2024-12-24,株式会社Ｔｏｐ　Ｇ,,株式会社,東京都,荒川区,西日暮里６丁目１６－２,,13,118,1160013,,,,,,,2024-12-24,1,,,,,トップジー,0
2003,9011601028305,新規,0,2024-12-24,2024-12-24,ＡｓｓｅｔＰａｒｔｎｅｒｓ株式会社,,株式会社,東京都,練馬区,東大泉５丁目２－１２,,13,120,1780063,,,,,,,2024-12-24,1,,,,,アセットパートナーズ,0
2026,9020001160700,新規,0,2024-12-24,2024-12-24,杉ボデー株式会社,,株式会社,神奈川県,横浜市港北区,日吉７丁目２１番３８号,,14,109,2230061,,,,,,,2024-12-24,1,,,,,スギボデー,0
2027,9020001160717,新規,0,2024-12-24,2024-12-24,株式会社オーチャード,,株式会社,神奈川県,川崎市宮前区,土橋２丁目１３番地８菱興マンション３０５,,14,136,2160005,,,,,,,2024-12-24,1,,,,,オーチャード,0
2029,9020003027492,新規,0,2024-12-24,2024-12-24,ノアリス合同会社,,合同会社,神奈川県,横浜市神奈川区,片倉１丁目２８番３０号,,14,102,2210865,,,,,,,2024-12-24,1,,,,,ノアリス,0
2031,9020005016659,新規,0,2024-12-24,2024-12-24,医療法人在宅診良会,,その他の設立登記法人,神奈川県,横浜市都筑区,牛久保東１丁目３２番２６号パークハウス牛久保１０６,,14,118,2240014,,,,,,,2024-12-24,1,,,,,ザイタクシンリョウカイ,0
2037,9030001164056,新規,0,2024-12-24,2024-12-24,株式会社さくらファイナンシャル,,株式会社,埼玉県,熊谷市,円光２丁目３番１２号,,11,202,3600813,,,,,,,2024-12-24,1,,,,,サクラファイナンシャル,0
2038,9030001164064,新規,0,2024-12-24,2024-12-24,あおもと貿易株式会社,,株式会社,埼玉県,川口市,西川口４丁目１番２６－３０５号ヒューマンスクエア西川口ベアージュ,,11,203,3320021,,,,,,,2024-12-24,1,,,,,アオモトボウエキ,0
2039,9030001164072,新規,0,2024-12-24,2024-12-24,株式会社ＴＲＢ,,株式会社,埼玉県,比企郡小川町,大字勝呂６２番地１,,11,343,3550336,,,,,,,2024-12-24,1,,,,,ティーアールビー,0
2040,9030001164080,新規,0,2024-12-24,2024-12-24,株式会社いろどり,,株式会社,埼玉県,志木市,本町５丁目２１番１４号ＪＳＫビル６階,,11,228,3530004,,,,,,,2024-12-24,1,,,,,イロドリ,0
2041,9030001164089,新規,0,2024-12-24,2024-12-24,株式会社ＳＥＥＥＫｓ,,株式会社,埼玉県,さいたま市大宮区,三橋３丁目１６番地２クレイノオリーブハウスネオＩＩ１０５号室,00137432,11,103,3300856,,,,,,,2024-12-24,1,,,,,シークズ,0
2049,9040001136657,新規,0,2024-12-24,2024-12-24,株式会社オリジンハウス,,株式会社,千葉県,千葉市美浜区,中瀬１丁目３番地幕張テクノガーデンＣＢ棟３階ＭＢＰ,,12,106,2610023,,,,,,,2024-12-24,1,,,,,オリジンハウス,0
2052,9050001055922,新規,0,2024-12-24,2024-12-24,株式会社電路計画,,株式会社,茨城県,つくば市,吾妻１丁目１０－１つくばセンタービル１階ｃｏ－ｅｎ,,08,220,3050031,,,,,,,2024-12-24,1,,,,,デンロケイカク,0
2053,9050003008894,新規,0,2024-12-24,2024-12-24,合同会社ＡＲＣＳ,,合同会社,茨城県,神栖市,太田３１４５番地１,,08,232,3140254,,,,,,,2024-12-24,1,,,,,アークス,0
2057,9060003005370,新規,0,2024-12-24,2024-12-24,Ｅ　ＬＡＮＫＡ合同会社,,合同会社,栃木県,足利市,鹿島町５９７－１第３鹿島荘－１,,09,202,3260844,,,,,,,2024-12-24,1,,,,,イーランカ,0
2071,9080405007698,新規,0,2024-12-24,2024-12-24,特定非営利活動法人現代寺子屋,,その他の設立登記法人,静岡県,掛川市,南１丁目２１番エクセルシオール掛川３０２,,22,213,4360029,,,,,,,2024-12-24,1,,,,,ゲンダイテラコヤ,0
2072,9100001038145,新規,0,2024-12-24,2024-12-24,株式会社ｉＢ,,株式会社,長野県,須坂市,大字亀倉４５４番地７,,20,207,3820000,,,,,,,2024-12-24,1,,,,,アイビー,0
2074,9110001038945,新規,0,2024-12-24,2024-12-24,株式会社ＡＳＬＡＮ,,株式会社,新潟県,新潟市中央区,西堀前通８番町１５２１番地２２,,15,103,9518062,,,,,,,2024-12-24,1,,,,,アスラン,0
2075,9110001038953,新規,0,2024-12-24,2024-12-24,株式会社らーめんヒグマ長岡店,,株式会社,新潟県,長岡市,喜多町２９７３番地,,15,202,9402121,,,,,,,2024-12-24,1,,,,,ラーメンヒグマナガオカテン,0
2079,9120001271181,新規,0,2024-12-24,2024-12-24,瑞道株式会社,,株式会社,大阪府,大阪市港区,港晴３丁目１－１１井上ビル２Ｅ,,27,107,5520023,,,,,,,2024-12-24,1,,,,,ズイドウ,0
2080,9120001271396,新規,0,2024-12-24,2024-12-24,株式会社ＣＯＮＳＣＩＯＵＳＮＥＳＳ,,株式会社,大阪府,大阪市中央区,南船場３丁目２番２２号おおきに南船場ビル２０５,,27,128,5420081,,,,,,,2024-12-24,1,,,,,コンシャスネス,0
2084,9120101070780,新規,0,2024-12-24,2024-12-24,謙祥益株式会社,,株式会社,大阪府,和泉市,和気町１丁目２１番４号,,27,219,5940073,,,,,,,2024-12-24,1,,,,,ケンショウエキ,0
2085,9120101070797,新規,0,2024-12-24,2024-12-24,株式会社ポイントキャンバス,,株式会社,大阪府,堺市南区,竹城台３丁９番１７号,,27,145,5900105,,,,,,,2024-12-24,1,,,,,ポイントキャンバス,0
2087,9120103006188,新規,0,2024-12-24,2024-12-24,合同会社春花,,合同会社,大阪府,貝塚市,堤３７９番２号,,27,208,5970054,,,,,,,2024-12-24,1,,,,,シュンカ,0
2088,9120103006205,新規,0,2024-12-24,2024-12-24,日野未来地所合同会社,,合同会社,大阪府,和泉市,上代町７７６番地の１和泉鶴山台アーバンコンフォート３１９号室,,27,219,5940011,,,,,,,2024-12-24,1,,,,,ヒノミライジショ,0
2091,9120901050206,新規,0,2024-12-24,2024-12-24,ゴート・リンクス株式会社,,株式会社,大阪府,豊中市,熊野町２丁目９番６４号,,27,203,5600014,,,,,,,2024-12-24,1,,,,,ゴートリンクス,0
2100,9140001136820,新規,0,2024-12-24,2024-12-24,株式会社ｎｓ‐ｐｌｕｓ,,株式会社,兵庫県,伊丹市,稲野町３丁目３０－１６,,28,207,6640861,,,,,,,2024-12-24,1,,,,,エヌエスプラス,0
2107,9140003021434,新規,0,2024-12-24,2024-12-24,合同会社聖雲興業,,合同会社,兵庫県,姫路市,網干区余子浜７９番地１１メゾンヨコハマ６０６,,28,201,6711254,,,,,,,2024-12-24,1,,,,,セイウンコウギョウ,0
2108,9140003021442,新規,0,2024-12-24,2024-12-24,合同会社ニューアロー,,合同会社,兵庫県,豊岡市,城崎町湯島６４２番地,,28,209,6696101,,,,,,,2024-12-24,1,,,,,ニューアロー,0
2109,9140003021450,新規,0,2024-12-24,2024-12-24,合同会社Ｓｕｍｍｅｒ　Ｄａｙ,,合同会社,兵庫県,芦屋市,松浜町８番１８号,,28,206,6590053,,,,,,,2024-12-24,1,,,,,サマーデイ,0
2110,9150003003456,新規,0,2024-12-24,2024-12-24,合同会社ヒダカ,,合同会社,奈良県,大和高田市,大字田井９１番地２,,29,202,6350041,,,,,,,2024-12-24,1,,,,,ヒダカ,0
2111,9160001026425,新規,0,2024-12-24,2024-12-24,株式会社ハグクミノアイ,,株式会社,滋賀県,草津市,下笠町５１２番地２３,,25,206,5250029,,,,,,,2024-12-24,1,,,,,ハグクミノアイ,0
2118,9180001164660,新規,0,2024-12-24,2024-12-24,株式会社クオンスマイル,,株式会社,愛知県,名古屋市中区,平和２丁目２番２０号グリュック平和１００１号室,,23,106,4600021,,,,,,,2024-12-24,1,,,,,クオンスマイル,0
2119,9180301039356,新規,0,2024-12-24,2024-12-24,株式会社明かり,,株式会社,愛知県,豊橋市,西幸町字幸６４番地１,,23,201,4418113,,,,,,,2024-12-24,1,,,,,アカリ,0
2121,9180303006379,新規,0,2024-12-24,2024-12-24,合同会社エール事務センター,,合同会社,愛知県,豊川市,豊津町神ノ木３１０番地１,,23,207,4411222,,,,,,,2024-12-24,1,,,,,エールジムセンター,0
2128,9230001020676,新規,0,2024-12-24,2024-12-24,株式会社エキスパート,,株式会社,富山県,富山市,市場２２８番地２,,16,201,9392211,,,,,,,2024-12-24,1,,,,,エキスパート,0
2130,9240001064284,新規,0,2024-12-24,2024-12-24,株式会社新呉工業,,株式会社,広島県,福山市,坪生町６丁目３４番２０号,,34,207,7210903,,,,,,,2024-12-24,1,,,,,シンクレコウギョウ,0
2136,9290001108375,新規,0,2024-12-24,2024-12-24,株式会社ＣＨＡＴＯＲＡ’ｓ,,株式会社,福岡県,福岡市西区,西都２丁目２２番２－８０５号,,40,135,8190367,,,,,,,2024-12-24,1,,,,,チャトラズ,0
2137,9290001108391,新規,0,2024-12-24,2024-12-24,株式会社ＴＭＫ,,株式会社,福岡県,三潴郡大木町,大字三八松６１３番地１,,40,522,8300424,,,,,,,2024-12-24,1,,,,,ティエムケー,0
2139,9290003016213,新規,0,2024-12-24,2024-12-24,合同会社如月金文堂,,合同会社,福岡県,福岡市城南区,茶山４丁目６番１６号,,40,136,8140111,,,,,,,2024-12-24,1,,,,,キサラギキンブンドウ,0
2144,9290801031140,新規,0,2024-12-24,2024-12-24,株式会社Ｆ‐ｗｅａｖｅ,,株式会社,福岡県,北九州市八幡西区,北筑１丁目１１番１６号,,40,109,8070857,,,,,,,2024-12-24,1,,,,,エフウィーブ,0
2163,9390003002327,新規,0,2024-12-24,2024-12-24,合同会社いこい,,合同会社,山形県,寒河江市,大字高屋字北江５９番地の１９,,06,206,9910042,,,,,,,2024-12-24,1,,,,,イコイ,0
2172,9430001093330,新規,0,2024-12-24,2024-12-24,厚林株式会社,,株式会社,北海道,小樽市,桜１丁目１６番１６号,,01,203,0470156,,,,,,,2024-12-24,1,,,,,コウリン,0
2177,9430005015124,新規,0,2024-12-24,2024-12-24,特定非営利活動法人北海道行動デザインチーム,,その他の設立登記法人,北海道,札幌市厚別区,上野幌一条３丁目１０番１８号,,01,108,0040031,,,,,,,2024-12-24,1,,,,,ホッカイドウコウドウデザインチーム,0
2178,9440001009541,新規,0,2024-12-24,2024-12-24,株式会社ハーツオン,,株式会社,北海道,函館市,西桔梗町５８９番地２５,,01,202,0410824,,,,,,,2024-12-24,1,,,,,ハーツオン,0
2182,9460003001024,新規,0,2024-12-24,2024-12-24,合同会社むげん,,合同会社,北海道,釧路市,新富士町６丁目３番９号,,01,206,0840904,,,,,,,2024-12-24,1,,,,,ムゲン,0
2183,9460301005263,新規,0,2024-12-24,2024-12-24,株式会社くまさんの会,,株式会社,北海道,斜里郡斜里町,朝日町２２番地１５,,01,545,0994114,,,,,,,2024-12-24,1,,,,,クマサンノカイ,0
2184,9462503000224,新規,0,2024-12-24,2024-12-24,合同会社ナーチュア,,合同会社,北海道,標津郡中標津町,東三十三条北３丁目４番地４,,01,692,0861073,,,,,,,2024-12-24,1,,,,,ナーチュア,0
