sequenceNumber,corporateNumber,process,correct,updateDate,changeDate,name,nameImageId,kind,prefectureName,cityName,streetNumber,addressImageId,prefectureCode,cityCode,postCode,addressOutside,addressOutsideImageId,closeDate,closeCause,successorCorporateNumber,changeCause,assignmentDate,latest,enName,enPrefectureName,enCityName,enAddressOutside,furigana,hihyoji
11,1010001228431,新規,0,2022-08-03,2022-08-03,株式会社Ｌｉｖｅ　ｔｈｅ　ｌｉｆｅ,,株式会社,東京都,中央区,銀座１丁目１２番４号Ｎ＆ＥＢＬＤ・６Ｆ,,13,102,1040061,,,,,,,2022-08-03,1,,,,,リヴザライフ,0
12,1010001228456,新規,0,2022-08-03,2022-08-03,株式会社さかなプロダクション,,株式会社,東京都,千代田区,九段南１丁目５－６りそな九段ビル５階ＫＳフロア,,13,101,1020074,,,,,,,2022-08-03,1,,,,,サカナプロダクション,0
14,1010003038325,新規,0,2022-08-03,2022-08-03,合同会社ＫＩＡキャピタル,,合同会社,東京都,千代田区,霞が関３丁目２番５号,,13,101,1000013,,,,,,,2022-08-03,1,,,,,ケーアイエーキャピタル,0
20,1010103001959,新規,0,2022-08-03,2022-08-03,Ｑｕｉｎｔｕｓ合同会社,,合同会社,東京都,八王子市,別所１丁目４１－１－７－１７０５,,13,201,1920363,,,,,,,2022-08-03,1,,,,,クインタス,0
30,1010401168574,新規,0,2022-08-03,2022-08-03,ＡｕｔｏＭａｘＪＰ株式会社,,株式会社,東京都,港区,浜松町２丁目２番１５号浜松町ダイヤビル２Ｆ,,13,103,1050013,,,,,,,2022-08-03,1,,,,,オートマックスジャパン,0
31,1010401168756,新規,0,2022-08-03,2022-08-03,株式会社ＧｏｌｄＷｅｌｌ,,株式会社,東京都,港区,港南１丁目９番３６号,,13,103,1080075,,,,,,,2022-08-03,1,,,,,ゴールドウェル,0
32,1010401168855,新規,0,2022-08-03,2022-08-03,株式会社イーフレンズ,,株式会社,東京都,港区,芝５丁目２６番２４号田町スクエア１Ｆ,,13,103,1080014,,,,,,,2022-08-03,1,,,,,イーフレンズ,0
37,1010601061595,新規,0,2022-08-03,2022-08-03,株式会社Ｇｒａｎｄｅ　Ｐｌａｇｅ,,株式会社,東京都,墨田区,両国２丁目２０番１２－２３３号,,13,107,1300026,,,,,,,2022-08-03,1,,,,,グランデプラージュ,0
38,1010601061612,新規,0,2022-08-03,2022-08-03,株式会社フットワーク,,株式会社,東京都,江東区,亀戸７丁目２１番３号,,13,108,1360071,,,,,,,2022-08-03,1,,,,,フットワーク,0
41,1010603009667,新規,0,2022-08-03,2022-08-03,合同会社ｍｕｉｍｉ,,合同会社,東京都,江東区,亀戸２丁目１４番１２号,,13,108,1360071,,,,,,,2022-08-03,1,,,,,ムイミ,0
53,1011001148776,新規,0,2022-08-03,2022-08-03,ＪＫ　Ｐｒｏｐｅｒｔｙ　Ｍａｎａｇｅｍｅｎｔ株式会社,,株式会社,東京都,渋谷区,代々木神園町３番２号,,13,113,1510052,,,,,,,2022-08-03,1,,,,,ジェイケイプロパティマネージメント,0
54,1011001148900,新規,0,2022-08-03,2022-08-03,ブルー・グローブ株式会社,,株式会社,東京都,渋谷区,恵比寿西１丁目２２番１号代官山ＧＮビル３階,,13,113,1500021,,,,,,,2022-08-03,1,,,,,ブルーグローブ,0
58,1011101099688,新規,0,2022-08-03,2022-08-03,株式会社Ｆｏｒ　ｌｉｆｅ,,株式会社,東京都,新宿区,西新宿７丁目７番３３号新銘ビル２Ｆ,,13,104,1600023,,,,,,,2022-08-03,1,,,,,フォーライフ,0
59,1011101099721,新規,0,2022-08-03,2022-08-03,株式会社ビジネスプロセスサービス,,株式会社,東京都,新宿区,西新宿７丁目３番４号,,13,104,1600023,,,,,,,2022-08-03,1,,,,,ビジネスプロセスサービス,0
60,1011101099738,新規,0,2022-08-03,2022-08-03,株式会社クロスパーク,,株式会社,東京都,新宿区,西新宿３丁目３番１３号,,13,104,1600023,,,,,,,2022-08-03,1,,,,,クロスパーク,0
65,1011401024453,新規,0,2022-08-03,2022-08-03,株式会社飛翔,,株式会社,東京都,板橋区,中丸町１６番１２号リーフハイツときわ１階,,13,119,1730026,,,,,,,2022-08-03,1,,,,,ヒショウ,0
72,1011803005209,新規,0,2022-08-03,2022-08-03,水辺合同会社,,合同会社,東京都,葛飾区,東新小岩５丁目１２－１１－３階,,13,122,1240023,,,,,,,2022-08-03,1,,,,,ミズベ,0
80,1012401039482,新規,0,2022-08-03,2022-08-03,株式会社竹晴,,株式会社,東京都,武蔵野市,境南町２丁目６番５号,,13,203,1800023,,,,,,,2022-08-03,1,,,,,タケセイ,0
87,1012801021759,新規,0,2022-08-03,2022-08-03,株式会社Ｍ’ｓ　Ｔｒａｎｓｐｏｒｔ,,株式会社,東京都,昭島市,東町５丁目６番７号,,13,207,1960033,,,,,,,2022-08-03,1,,,,,エムズトランスポート,0
90,1013301049448,新規,0,2022-08-03,2022-08-03,株式会社ミサダメ,,株式会社,東京都,豊島区,池袋４丁目２９番６－１１０３号,,13,116,1710014,,,,,,,2022-08-03,1,,,,,ミサダメ,0
92,1013303006249,新規,0,2022-08-03,2022-08-03,ベルロジック合同会社,,合同会社,東京都,豊島区,南大塚２丁目１１番１０号ミモザビル３Ｆ,,13,116,1700005,,,,,,,2022-08-03,1,,,,,ベルロジック,0
99,1020001147589,新規,0,2022-08-03,2022-08-03,株式会社ＡＮＳＷＥＲ　ＭＡＣＨＩＮＥ,,株式会社,神奈川県,川崎市川崎区,下並木１２番地１－１０１,,14,131,2100025,,,,,,,2022-08-03,1,,,,,アンサーマシーン,0
102,1021001076654,新規,0,2022-08-03,2022-08-03,株式会社東京衡機不動産,,株式会社,神奈川県,相模原市南区,上鶴間６丁目３１番９号,,14,153,2520302,,,,,,,2022-08-03,1,,,,,トウキョウコウキフドウサン,0
103,1021001076662,新規,0,2022-08-03,2022-08-03,株式会社Ｋ‐ＳＹ,,株式会社,神奈川県,相模原市南区,下溝３０４番地９,,14,153,2520335,,,,,,,2022-08-03,1,,,,,ケイエスワイ,0
107,1021003011997,新規,0,2022-08-03,2022-08-03,合同会社ｔｏ　ｔｈｅ　Ｎｅｘｔ,,合同会社,神奈川県,伊勢原市,下糟屋３００２番地の６,,14,214,2591143,,,,,,,2022-08-03,1,,,,,トゥザネクスト,0
108,1021003012005,新規,0,2022-08-03,2022-08-03,ＢＩＭ合同会社,,合同会社,神奈川県,相模原市中央区,横山３丁目３１番１３号エリオス３０７,,14,152,2520242,,,,,,,2022-08-03,1,,,,,ビーアイエム,0
110,1021005012580,新規,0,2022-08-03,2022-08-03,特定非営利活動法人海老名自立支援センターともに,,その他の設立登記法人,神奈川県,海老名市,杉久保南１丁目７番１６号,,14,215,2430427,,,,,,,2022-08-03,1,,,,,エビナジリツシエンセンタートモニ,0
123,1040001124504,新規,0,2022-08-03,2022-08-03,株式会社ＳＡＮＴＯ,,株式会社,千葉県,市川市,欠真間２丁目１－２１－１Ｆ,,12,203,2720142,,,,,,,2022-08-03,1,,,,,サント,0
124,1040001124553,新規,0,2022-08-03,2022-08-03,株式会社ＩｖｙＧａｉｎ,,株式会社,千葉県,千葉市中央区,新千葉１丁目７－２,,12,101,2600031,,,,,,,2022-08-03,1,,,,,アイビーゲイン,0
129,1040003020536,新規,0,2022-08-03,2022-08-03,合同会社健倖,,合同会社,千葉県,四街道市,鹿渡１１１６番地３エトアールＡ２０５号室,,12,228,2840003,,,,,,,2022-08-03,1,,,,,ケンコウ,0
133,1050001051482,新規,0,2022-08-03,2022-08-03,株式会社グリーンフラッシュ,,株式会社,茨城県,水戸市,南町２丁目４－５１レーベン水戸１３０６,,08,201,3100021,,,,,,,2022-08-03,1,,,,,グリーンフラッシュ,0
139,1080101023461,新規,0,2022-08-03,2022-08-03,株式会社渡辺商店,,株式会社,静岡県,富士市,永田町１丁目１４７番地,,22,210,4170055,,,,,,,2022-08-03,1,,,,,ワタナベショウテン,0
143,1080103002629,新規,0,2022-08-03,2022-08-03,ＹＫＫオープン合同会社,,合同会社,静岡県,駿東郡長泉町,下土狩９１５番地の１７,,22,342,4110943,,,,,,,2022-08-03,1,,,,,ワイケーケーオープン,0
144,1080105006272,新規,0,2022-08-03,2022-08-03,特定非営利活動法人レザミ・デ・ザール,,その他の設立登記法人,静岡県,沼津市,大岡１０５６番地の１０,,22,203,4100022,,,,,,,2022-08-03,1,,,,,レザミデザール,0
145,1080401025983,新規,0,2022-08-03,2022-08-03,株式会社杉浦プレス,,株式会社,静岡県,湖西市,新居町中之郷３０３５番地の１６,,22,221,4310301,,,,,,,2022-08-03,1,,,,,スギウラプレス,0
152,1110001036857,新規,0,2022-08-03,2022-08-03,株式会社エムハート,,株式会社,新潟県,三条市,下保内４０９番地２５,,15,204,9550021,,,,,,,2022-08-03,1,,,,,エムハート,0
153,1110001036865,新規,0,2022-08-03,2022-08-03,株式会社ＷｏｏｄＲｏｓｅ,,株式会社,新潟県,十日町市,南新田町３丁目８－２,,15,210,9480005,,,,,,,2022-08-03,1,,,,,ウッドローズ,0
169,1120001247759,新規,0,2022-08-03,2022-08-03,瑞翔株式会社,,株式会社,大阪府,大阪市東成区,深江北３丁目４番２１号エクラ深江橋７０３Ｂ,,27,115,5370001,,,,,,,2022-08-03,1,,,,,ズイショウ,0
170,1120001247825,新規,0,2022-08-03,2022-08-03,株式会社ＫＷＮ,,株式会社,大阪府,大阪市中央区,南久宝寺町２丁目３番６号Ｙｏｎｅｚａｗａ船場ビル７０１号,,27,128,5410058,,,,,,,2022-08-03,1,,,,,ケイダブリューエヌ,0
178,1120101065994,新規,0,2022-08-03,2022-08-03,株式会社辻工業,00127410,株式会社,大阪府,富田林市,錦織北２丁目３番３号,,27,214,5840066,,,,,,,2022-08-03,1,,,,,ツジコウギョウ,0
179,1120101066010,新規,0,2022-08-03,2022-08-03,ショウヨウＲＥＭ株式会社,,株式会社,大阪府,堺市北区,長曽根町４５番地,,27,146,5918025,,,,,,,2022-08-03,1,,,,,ショウヨウアールイーエム,0
180,1120101066019,新規,0,2022-08-03,2022-08-03,株式会社欣基,,株式会社,大阪府,堺市西区,鳳南町３丁１９９－１Ｒ１２０８,,27,144,5938325,,,,,,,2022-08-03,1,,,,,キンキ,0
184,1120903004258,新規,0,2022-08-03,2022-08-03,クロウズワークス合同会社,,合同会社,大阪府,高槻市,山手町２丁目３番７号,,27,207,5691103,,,,,,,2022-08-03,1,,,,,クロウズワークス,0
191,1130001072198,新規,0,2022-08-03,2022-08-03,株式会社Ｕ‐ＷＯＲＫ,,株式会社,京都府,京都市南区,唐橋門脇町２９番地１ルネ西大路１０１０,,26,107,6018461,,,,,,,2022-08-03,1,,,,,ユーワーク,0
192,1130001072272,新規,0,2022-08-03,2022-08-03,株式会社水穂,,株式会社,京都府,船井郡京丹波町,上大久保コウヤ垣内３番地２,,26,407,6220452,,,,,,,2022-08-03,1,,,,,ミズホ,0
193,1130001072339,新規,0,2022-08-03,2022-08-03,株式会社幸茸園,,株式会社,京都府,宇治市,五ケ庄広岡谷１番地の１２,,26,204,6110011,,,,,,,2022-08-03,1,,,,,コウジョウエン,0
194,1130001072347,新規,0,2022-08-03,2022-08-03,株式会社ＲＳＰ,,株式会社,京都府,京都市南区,久世上久世町４５６番地２２,,26,107,6018212,,,,,,,2022-08-03,1,,,,,アールエスピー,0
195,1130002035773,新規,0,2022-08-03,2022-08-03,有限会社エフ,,有限会社,京都府,京都市東山区,大黒町通五条上る二丁目大黒町３０２番地,,26,105,6050000,,,,,,,2022-08-03,1,,,,,エフ,0
197,1130003008092,新規,0,2022-08-03,2022-08-03,合同会社伸晄事務サービス,,合同会社,京都府,京都市中京区,西洞院通三条下る柳水町８４番地三洋六角ビル４階,,26,104,6048242,,,,,,,2022-08-03,1,,,,,シンコウジムサービス,0
204,1140001126985,新規,0,2022-08-03,2022-08-03,株式会社田中屋,,株式会社,兵庫県,神崎郡福崎町,南田原２９９３－１伸和ビル１０５,,28,443,6792203,,,,,,,2022-08-03,1,,,,,タナカヤ,0
211,1140005026273,新規,0,2022-08-03,2022-08-03,一般社団法人ＤＡＮＣＥ＆ＡＲＴ　ＡＳＳＯＣＩＡＴＩＯＮ　ｏｆｆｉｃｅ志儀,,その他の設立登記法人,兵庫県,明石市,大久保町高丘１丁目１２番地の７,,28,203,6740057,,,,,,,2022-08-03,1,,,,,ダンスアンドアートアソシエーションオフィスシギ,0
218,1170001017216,新規,0,2022-08-03,2022-08-03,株式会社マツモト,,株式会社,和歌山県,和歌山市,西浜８５９番地１２,,30,201,6410036,,,,,,,2022-08-03,1,,,,,マツモト,0
229,1180001152391,新規,0,2022-08-03,2022-08-03,ＡＭＳＡ株式会社,,株式会社,愛知県,豊明市,栄町姥子１９番地１１,,23,229,4701163,,,,,,,2022-08-03,1,,,,,アムサ,0
230,1180001152417,新規,0,2022-08-03,2022-08-03,株式会社恩田美装,,株式会社,愛知県,名古屋市北区,芳野３丁目１０番１１号,,23,103,4620824,,,,,,,2022-08-03,1,,,,,オンダビソウ,0
231,1180001152433,新規,0,2022-08-03,2022-08-03,株式会社Ｋ‐ＢＲＥＥＤ,,株式会社,愛知県,尾張旭市,新居町下切戸１２４６番地９,,23,226,4880071,,,,,,,2022-08-03,1,,,,,ケイブリード,0
234,1190001029663,新規,0,2022-08-03,2022-08-03,株式会社ハウスケア,,株式会社,三重県,志摩市,志摩町片田２９７６番地,,24,215,5170701,,,,,,,2022-08-03,1,,,,,ハウスケア,0
238,1200001040338,新規,0,2022-08-03,2022-08-03,株式会社プリマ,,株式会社,岐阜県,大垣市,菅野３丁目５番地宗宮ビル１０３,,21,202,5032208,,,,,,,2022-08-03,1,,,,,プリマ,0
257,1220005008692,新規,0,2022-08-03,2022-08-03,特定非営利活動法人薬薬連携ＳＤＧｓ　ＫＡＮＡＺＡＷＡ,,その他の設立登記法人,石川県,金沢市,泉が丘１丁目３‐５サーパス泉が丘３０３号室,,17,201,9218035,,,,,,,2022-08-03,1,,,,,ヤクヤクレンケイエスディージーズカナザワ,0
269,1260001037097,新規,0,2022-08-03,2022-08-03,株式会社木工舎,,株式会社,岡山県,岡山市北区,十日市東町６－５０,,33,101,7000854,,,,,,,2022-08-03,1,,,,,モッコウシャ,0
272,1280001008757,新規,0,2022-08-03,2022-08-03,株式会社長楽グロース,,株式会社,島根県,松江市,玉湯町玉造３２３番地,,32,201,6990201,,,,,,,2022-08-03,1,,,,,チョウラクグロース,0
274,1280003001636,新規,0,2022-08-03,2022-08-03,合同会社小笠原工務店,,合同会社,島根県,大田市,水上町福原６６５番地１９,,32,205,6940302,,,,,,,2022-08-03,1,,,,,オガサワラコウムテン,0
277,1290001098442,新規,0,2022-08-03,2022-08-03,株式会社豊福構造設計,,株式会社,福岡県,福岡市城南区,樋井川５丁目５番５号,,40,136,8140153,,,,,,,2022-08-03,1,,,,,トヨフクコウゾウセッケイ,0
290,1320005010011,新規,0,2022-08-03,2022-08-03,一般社団法人健幸,,その他の設立登記法人,大分県,杵築市,大字杵築２５２番地１８,,44,210,8730001,,,,,,,2022-08-03,1,,,,,ケンコウ,0
293,1330001029987,新規,0,2022-08-03,2022-08-03,オイカゼ株式会社,,株式会社,熊本県,菊池郡菊陽町,武蔵ヶ丘２丁目１７番１３号,,43,404,8691111,,,,,,,2022-08-03,1,,,,,オイカゼ,0
297,1340001024938,新規,0,2022-08-03,2022-08-03,株式会社山添組,,株式会社,鹿児島県,出水郡長島町,鷹巣９１９番地１１,,46,404,8991401,,,,,,,2022-08-03,1,,,,,ヤマゾエグミ,0
300,1350001017882,新規,0,2022-08-03,2022-08-03,株式会社エクセレントワーク,,株式会社,宮崎県,延岡市,野地町３丁目３４４９－１－Ａ－２,,45,203,8820802,,,,,,,2022-08-03,1,,,,,エクセレントワーク,0
302,1350003004136,新規,0,2022-08-03,2022-08-03,合同会社高千穂いまちゃんカンパニー,,合同会社,宮崎県,西臼杵郡高千穂町,大字岩戸２５７５番地,,45,441,8821621,,,,,,,2022-08-03,1,,,,,タカチホイマチャンカンパニー,0
303,1360001030760,新規,0,2022-08-03,2022-08-03,Ｏｎ　ｔｈｅ　ｔａｂｌｅ株式会社,,株式会社,沖縄県,那覇市,港町２丁目１４番２４号,,47,201,9000001,,,,,,,2022-08-03,1,,,,,オンザテーブル,0
304,1360003012204,新規,0,2022-08-03,2022-08-03,合同会社カフービジネスサポート,,合同会社,沖縄県,那覇市,字安里１７８番地ミオビエント新都心７０５,,47,201,9020067,,,,,,,2022-08-03,1,,,,,カフービジネスサポート,0
309,1370001048868,新規,0,2022-08-03,2022-08-03,株式会社フレグラッド,,株式会社,宮城県,仙台市青葉区,大町１丁目２番１８－４０３号,,04,101,9800804,,,,,,,2022-08-03,1,,,,,フレグラッド,0
310,1370001048892,新規,0,2022-08-03,2022-08-03,株式会社Ｒｅｏ,,株式会社,宮城県,仙台市太白区,郡山字谷地田東２８－１コルベイユＡ１０１,,04,104,9820003,,,,,,,2022-08-03,1,,,,,レオ,0
313,1380001033035,新規,0,2022-08-03,2022-08-03,株式会社こはる地所,,株式会社,福島県,伊達市,保原町字六丁目１９番地３,,07,213,9600616,,,,,,,2022-08-03,1,,,,,コハルジショ,0
314,1380003005255,新規,0,2022-08-03,2022-08-03,合同会社ＴＳＵＢＡＳＡ,,合同会社,福島県,福島市,笹谷字出水田４番地１８,,07,201,9600241,,,,,,,2022-08-03,1,,,,,ツバサ,0
332,1430001087216,新規,0,2022-08-03,2022-08-03,株式会社プレスリー,,株式会社,北海道,札幌市東区,北八条東４丁目１－２０,,01,103,0600908,,,,,,,2022-08-03,1,,,,,プレスリー,0
356,2010001228447,新規,0,2022-08-03,2022-08-03,株式会社ＣＳＭキャピタル,,株式会社,東京都,千代田区,内神田１丁目２番２号,,13,101,1010047,,,,,,,2022-08-03,1,,,,,シーエスエムキャピタル,0
360,2010003038299,新規,0,2022-08-03,2022-08-03,Ａｒｋ　Ｉｎｔｅｒｎａｔｉｏｎａｌ合同会社,,合同会社,東京都,中央区,銀座１丁目１５－４銀座１丁目ビル７階,,13,102,1040061,,,,,,,2022-08-03,1,,,,,アークインターナショナル,0
362,2010101015274,新規,0,2022-08-03,2022-08-03,和暢株式会社,,株式会社,東京都,八王子市,万町２番地１,,13,201,1920903,,,,,,,2022-08-03,1,,,,,ワチョウ,0
364,2010103001958,新規,0,2022-08-03,2022-08-03,合同会社Ｍｉｒａｉｅ,,合同会社,東京都,八王子市,戸吹町３９１－５,,13,201,1920001,,,,,,,2022-08-03,1,,,,,ミライエ,0
372,2010401168623,新規,0,2022-08-03,2022-08-03,ＴＳＧプロパティ株式会社,,株式会社,東京都,港区,南青山３丁目１５番９号,,13,103,1070062,,,,,,,2022-08-03,1,,,,,ティーエスジープロパティ,0
373,2010401168838,新規,0,2022-08-03,2022-08-03,株式会社ＲＬＦ,,株式会社,東京都,港区,南青山２丁目２－１５ＷｉｎＡｏｙａｍａビルＵＣＦ６３５,,13,103,1070062,,,,,,,2022-08-03,1,,,,,アールエルエフ,0
374,2010401168846,新規,0,2022-08-03,2022-08-03,一元健康株式会社,,株式会社,東京都,港区,虎ノ門１丁目１１番４号,,13,103,1050001,,,,,,,2022-08-03,1,,,,,イチゲンケンコウ,0
375,2010401168895,新規,0,2022-08-03,2022-08-03,株式会社テミクス・データ,,株式会社,東京都,港区,六本木１丁目４番５号,,13,103,1060032,,,,,,,2022-08-03,1,,,,,テミクスデータ,0
377,2010403028214,新規,0,2022-08-03,2022-08-03,ＩＹマネジメント合同会社,,合同会社,東京都,港区,南麻布１丁目２５番３号２０１,,13,103,1060047,,,,,,,2022-08-03,1,,,,,アイワイマネジメント,0
380,2010501049186,新規,0,2022-08-03,2022-08-03,株式会社ミヤウチ,,株式会社,東京都,台東区,元浅草４丁目７番１号,,13,106,1110041,,,,,,,2022-08-03,1,,,,,ミヤウチ,0
386,2010601061611,新規,0,2022-08-03,2022-08-03,株式会社ディー・ジェイ,,株式会社,東京都,江東区,塩浜２丁目１１番１８号金海ビル,,13,108,1350043,,,,,,,2022-08-03,1,,,,,ディージェイ,0
387,2010603009666,新規,0,2022-08-03,2022-08-03,志成知能合同会社,,合同会社,東京都,江東区,東砂４丁目２４番地３－８０８号,,13,108,1360074,,,,,,,2022-08-03,1,,,,,シセイチノウ,0
390,2010901051329,新規,0,2022-08-03,2022-08-03,株式会社ＧＡＲＤＥＮ,,株式会社,東京都,世田谷区,成城３丁目２４番３３号,,13,112,1570066,,,,,,,2022-08-03,1,,,,,ガーデン,0
394,2011001148965,新規,0,2022-08-03,2022-08-03,株式会社ＡＥＰ,,株式会社,東京都,渋谷区,渋谷２丁目１９番１５号宮益坂ビルディング６０９,,13,113,1500002,,,,,,,2022-08-03,1,,,,,エーイーピー,0
395,2011001148981,新規,0,2022-08-03,2022-08-03,株式会社５６Ｇａｍｉｎｇ,,株式会社,東京都,渋谷区,桜丘町２６番１号セルリアンタワー１５階,,13,113,1500031,,,,,,,2022-08-03,1,,,,,フィフティシックスゲーミング,0
397,2011101099720,新規,0,2022-08-03,2022-08-03,株式会社採用コンサル,,株式会社,東京都,新宿区,西新宿７丁目３番４号,,13,104,1600023,,,,,,,2022-08-03,1,,,,,サイヨウコンサル,0
398,2011101099761,新規,0,2022-08-03,2022-08-03,ＶＩＳＢＹＴＥ株式会社,,株式会社,東京都,新宿区,西新宿３丁目３番１３号,,13,104,1600023,,,,,,,2022-08-03,1,,,,,ビスバイト,0
399,2011103011996,新規,0,2022-08-03,2022-08-03,合同会社ＩＭＡＭＵ,,合同会社,東京都,新宿区,新宿５丁目１１番２８号,,13,104,1600022,,,,,,,2022-08-03,1,,,,,イマム,0
402,2011201024000,新規,0,2022-08-03,2022-08-03,株式会社ＴｅｃＮｅｃｔ,,株式会社,東京都,中野区,弥生町２丁目１９番１３号エクセレビル４階,,13,114,1640013,,,,,,,2022-08-03,1,,,,,テクネクト,0
405,2011401024452,新規,0,2022-08-03,2022-08-03,株式会社イクシード,,株式会社,東京都,板橋区,志村１丁目１２番２６号,,13,119,1740056,,,,,,,2022-08-03,1,,,,,イクシード,0
407,2011503005243,新規,0,2022-08-03,2022-08-03,合同会社ｈｉｒｏｍｉｓｕｙａ,,合同会社,東京都,荒川区,西日暮里２丁目３０－２－３０４,,13,118,1160013,,,,,,,2022-08-03,1,,,,,ヒロミスヤ,0
413,2011801041089,新規,0,2022-08-03,2022-08-03,株式会社ＳＴＹＬＥ　ＯＮＥ,,株式会社,東京都,葛飾区,西水元４丁目１５番２０号,,13,122,1250031,,,,,,,2022-08-03,1,,,,,スタイルワン,0
415,2011803005208,新規,0,2022-08-03,2022-08-03,ｗｏｒｋｅｒ　ｂｅｅ合同会社,,合同会社,東京都,葛飾区,立石８丁目６番１８号,,13,122,1240012,,,,,,,2022-08-03,1,,,,,ワーカービー,0
418,2012403005523,新規,0,2022-08-03,2022-08-03,合同会社ＪＥＴ　ｓｔｏｒｅ,,合同会社,東京都,多摩市,落合２丁目３８番地３０１,,13,224,2060033,,,,,,,2022-08-03,1,,,,,ジェットストア,0
419,2012801021766,新規,0,2022-08-03,2022-08-03,株式会社アイズリアルティ,,株式会社,東京都,国分寺市,西恋ヶ窪４丁目３０番地１４,,13,214,1850013,,,,,,,2022-08-03,1,,,,,アイズリアルティ,0
421,2013101008990,新規,0,2022-08-03,2022-08-03,株式会社秋葉建築設計事務所,,株式会社,東京都,青梅市,今井１丁目２４７番地,,13,205,1980023,,,,,,,2022-08-03,1,,,,,アキバケンチクセッケイジムショ,0
426,2013301049463,新規,0,2022-08-03,2022-08-03,株式会社スアール,,株式会社,東京都,豊島区,池袋２丁目２２番２号３Ｆ,,13,116,1710014,,,,,,,2022-08-03,1,,,,,スアール,0
427,2013303006248,新規,0,2022-08-03,2022-08-03,フラクタル合同会社,,合同会社,東京都,豊島区,池袋１丁目７番２３号,,13,116,1700014,,,,,,,2022-08-03,1,,,,,フラクタル,0
433,2020001147588,新規,0,2022-08-03,2022-08-03,株式会社総和,,株式会社,神奈川県,川崎市高津区,子母口１０００番地１３,,14,134,2130023,,,,,,,2022-08-03,1,,,,,ソウワ,0
434,2020001147596,新規,0,2022-08-03,2022-08-03,株式会社ＨＡＹＡＶＵＳＡ,,株式会社,神奈川県,川崎市宮前区,初山２丁目１１番３－２号,,14,136,2160026,,,,,,,2022-08-03,1,,,,,ハヤブサ,0
442,2021001076637,新規,0,2022-08-03,2022-08-03,株式会社ＧＯＣＨＯ,,株式会社,神奈川県,藤沢市,大庭５０１２番地の３,,14,205,2510861,,,,,,,2022-08-03,1,,,,,ゴチョウ,0
443,2021001076686,新規,0,2022-08-03,2022-08-03,株式会社バライロ,,株式会社,神奈川県,逗子市,桜山３丁目１９－４,,14,208,2490005,,,,,,,2022-08-03,1,,,,,バライロ,0
447,2021003011996,新規,0,2022-08-03,2022-08-03,合同会社ＦＵＪＩＫＡＩ,,合同会社,神奈川県,藤沢市,辻堂新町３丁目７番２８号第２さつきハイム２０３,,14,205,2510042,,,,,,,2022-08-03,1,,,,,フジカイ,0
448,2021003012004,新規,0,2022-08-03,2022-08-03,合同会社ジョイントヘルスプロモーション,,合同会社,神奈川県,横須賀市,追浜本町１丁目９８番,,14,201,2370068,,,,,,,2022-08-03,1,,,,,ジョイントヘルスプロモーション,0
462,2040001124486,新規,0,2022-08-03,2022-08-03,株式会社ＢｉＰＳ,,株式会社,千葉県,千葉市花見川区,み春野３丁目５番１６号,,12,102,2620007,,,,,,,2022-08-03,1,,,,,ビップス,0
465,2040003020568,新規,0,2022-08-03,2022-08-03,早川管財合同会社,,合同会社,千葉県,船橋市,山手１丁目１番３－９１０号,,12,204,2730045,,,,,,,2022-08-03,1,,,,,ハヤカワカンザイ,0
473,2050001051481,新規,0,2022-08-03,2022-08-03,ＮＡＭ　ＣＵＯＮＧ株式会社,,株式会社,茨城県,土浦市,中村東１丁目１１番８号,,08,203,3000850,,,,,,,2022-08-03,1,,,,,ナムキョウ,0
475,2060001035129,新規,0,2022-08-03,2022-08-03,ｈｉｃｓ株式会社,,株式会社,栃木県,宇都宮市,中里町２５４番地１４６,,09,201,3210414,,,,,,,2022-08-03,1,,,,,ヒックス,0
476,2060003004172,新規,0,2022-08-03,2022-08-03,ＷＩＬＤ　ＴＥＣ合同会社,,合同会社,栃木県,那須郡那須町,大字高久丙３０６１番地,,09,407,3250302,,,,,,,2022-08-03,1,,,,,ワイルドテック,0
478,2070001039500,新規,0,2022-08-03,2022-08-03,ＴＮ　Ｔｒａｎｓ　ｐｏｒｔ株式会社,,株式会社,群馬県,太田市,下浜田町１２１３番地－１０１,,10,205,3730821,,,,,,,2022-08-03,1,,,,,ティーエヌトランスポート,0
485,2080401025982,新規,0,2022-08-03,2022-08-03,株式会社ＺＥＮ　ＤＡＸ,,株式会社,静岡県,磐田市,富里２２４番地の１８,,22,211,4380807,,,,,,,2022-08-03,1,,,,,ゼンダックス,0
488,2090001017702,新規,0,2022-08-03,2022-08-03,株式会社渡邉総建,,株式会社,山梨県,甲府市,大里町１４８番地１４,,19,201,4000053,,,,,,,2022-08-03,1,,,,,ワタナベソウケン,0
489,2090001017719,新規,0,2022-08-03,2022-08-03,株式会社プロスペリタ,,株式会社,山梨県,都留市,上谷２丁目１番１５号新町別館Ａ棟１階Ｃ,,19,204,4020053,,,,,,,2022-08-03,1,,,,,プロスペリタ,0
493,2110001036864,新規,0,2022-08-03,2022-08-03,株式会社山倉,,株式会社,新潟県,新潟市江南区,西山５２０番地４,,15,104,9500113,,,,,,,2022-08-03,1,,,,,ヤマクラ,0
504,2120001247758,新規,0,2022-08-03,2022-08-03,Ｒｅａｄｉｃｕｌｏｕｓ　Ｌａｂ株式会社,,株式会社,大阪府,大阪市東成区,深江北３丁目４番２１号エクラ深江橋２０８Ａ,,27,115,5370001,,,,,,,2022-08-03,1,,,,,レディキュラスラブ,0
505,2120001247799,新規,0,2022-08-03,2022-08-03,株式会社ＱＶＥＣ,,株式会社,大阪府,大阪市鶴見区,鶴見３丁目１２番地２５ドリームネオポリス鶴見ＩＩＩ１０１,00127399,27,124,5380053,,,,,,,2022-08-03,1,,,,,キューベック,0
506,2120001247832,新規,0,2022-08-03,2022-08-03,Ｌｉｌｌｙ　ＴｅＡｍｏ株式会社,,株式会社,大阪府,大阪市浪速区,大国２丁目８－７,,27,111,5560014,,,,,,,2022-08-03,1,,,,,リリーデアモ,0
507,2120001247865,新規,0,2022-08-03,2022-08-03,株式会社キタタニ,,株式会社,大阪府,寝屋川市,池田１丁目１３番１号,,27,215,5720039,,,,,,,2022-08-03,1,,,,,キタタニ,0
511,2120005023123,新規,0,2022-08-03,2022-08-03,医療法人ＦＡＧＭ,,その他の設立登記法人,大阪府,枚方市,岡東町１４番４８号やまぐちビル４階,,27,210,5730032,,,,,,,2022-08-03,1,,,,,エフエージーエム,0
515,2120101066001,新規,0,2022-08-03,2022-08-03,株式会社あかつき,,株式会社,大阪府,南河内郡河南町,大字一須賀４３８番地の１,,27,382,5850002,,,,,,,2022-08-03,1,,,,,アカツキ,0
519,2120901046318,新規,0,2022-08-03,2022-08-03,株式会社ＢＯＮホールディングス,,株式会社,大阪府,豊中市,小曽根３丁目５番７号,,27,203,5610813,,,,,,,2022-08-03,1,,,,,ボンホールディングス,0
520,2122001036117,新規,0,2022-08-03,2022-08-03,達知株式会社,,株式会社,大阪府,東大阪市,御厨東１丁目２番２７号,,27,227,5770033,,,,,,,2022-08-03,1,,,,,タチ,0
521,2122001036125,新規,0,2022-08-03,2022-08-03,給湯ジョーズ株式会社,,株式会社,大阪府,四條畷市,南野４丁目４番２５号,,27,229,5750021,,,,,,,2022-08-03,1,,,,,キュウトウジョーズ,0
526,2130001072321,新規,0,2022-08-03,2022-08-03,佳宏株式会社,,株式会社,京都府,京都市北区,紫野北舟岡町２７番地８２,,26,101,6038227,,,,,,,2022-08-03,1,,,,,ケイコウ,0
528,2130003008091,新規,0,2022-08-03,2022-08-03,合同会社ＲＥＵＮＩＯＮ　ＳＴＵＤＩＯ,,合同会社,京都府,京都市右京区,西京極北大入町４３－３,,26,108,6150881,,,,,,,2022-08-03,1,,,,,リユニオンスタジオ,0
529,2130003008109,新規,0,2022-08-03,2022-08-03,合同会社金丸コーポレーション,,合同会社,京都府,京都市右京区,西院笠目町２４－３－６０８,,26,108,6150058,,,,,,,2022-08-03,1,,,,,カナマルコーポレーション,0
534,2140001126976,新規,0,2022-08-03,2022-08-03,株式会社東進,,株式会社,兵庫県,神戸市長田区,若松町２丁目１番９号３Ｆ,,28,106,6530038,,,,,,,2022-08-03,1,,,,,トウシン,0
535,2140003017991,新規,0,2022-08-03,2022-08-03,ＢｕｌｋＵｐ　Ｃａｐｉｔａｌｓ合同会社,,合同会社,兵庫県,神戸市中央区,琴ノ緒町４丁目６番６号第一マス一ビル４０２号,,28,110,6510094,,,,,,,2022-08-03,1,,,,,バルクアップキャピタルズ,0
540,2160001024427,新規,0,2022-08-03,2022-08-03,株式会社山崎木材,,株式会社,滋賀県,東近江市,甲津畑町１１６４番地,,25,213,5270214,,,,,,,2022-08-03,1,,,,,ヤマザキモクザイ,0
544,2170001017215,新規,0,2022-08-03,2022-08-03,株式会社Ｓｍｉｌｅ　Ｆｒｕｉｔ,,株式会社,和歌山県,西牟婁郡上富田町,市ノ瀬１７１２番地の１,,30,404,6492107,,,,,,,2022-08-03,1,,,,,スマイルフルーツ,0
548,2180001152416,新規,0,2022-08-03,2022-08-03,株式会社クリアライズ,,株式会社,愛知県,一宮市,北方町北方字西本郷２０７番地２,,23,203,4938001,,,,,,,2022-08-03,1,,,,,クリアライズ,0
549,2180001152424,新規,0,2022-08-03,2022-08-03,株式会社ドリームアシスト長野,,株式会社,愛知県,名古屋市千種区,千種２丁目２３番６号,,23,101,4640858,,,,,,,2022-08-03,1,,,,,ドリームアシストナガノ,0
550,2180001152465,新規,0,2022-08-03,2022-08-03,株式会社ＷＡＳＯコンサルティング,,株式会社,愛知県,名古屋市西区,名駅２丁目３４番１７号セントラル名古屋１１０１号,,23,104,4510045,,,,,,,2022-08-03,1,,,,,ワソコンサルティング,0
552,2180301036509,新規,0,2022-08-03,2022-08-03,株式会社ダイアサ,,株式会社,愛知県,高浜市,呉竹町３丁目５番地３２,,23,227,4441336,,,,,,,2022-08-03,1,,,,,ダイアサ,0
558,2200001040329,新規,0,2022-08-03,2022-08-03,株式会社ウラヌス,,株式会社,岐阜県,岐阜市,長森細畑３４４番地１,,21,201,5008247,,,,,,,2022-08-03,1,,,,,ウラヌス,0
561,2210001019033,新規,0,2022-08-03,2022-08-03,株式会社林織物,,株式会社,福井県,坂井市,坂井町下兵庫第２４６号２番地,,18,210,9190527,,,,,,,2022-08-03,1,,,,,ハヤシオリモノ,0
573,2240001060166,新規,0,2022-08-03,2022-08-03,株式会社ＷＥＣＡＳ,,株式会社,広島県,広島市安佐南区,伴東４丁目１０番４３号１階,,34,105,7313164,,,,,,,2022-08-03,1,,,,,ウィーキャス,0
574,2240001060174,新規,0,2022-08-03,2022-08-03,株式会社マルフ,,株式会社,広島県,広島市西区,南観音５丁目２番１０号,,34,104,7330035,,,,,,,2022-08-03,1,,,,,マルフ,0
575,2240001060182,新規,0,2022-08-03,2022-08-03,株式会社橋本会計事務所,,株式会社,広島県,広島市西区,草津梅が台８番８－５号,,34,104,7330864,,,,,,,2022-08-03,1,,,,,ハシモトカイケイジムショ,0
578,2240003005739,新規,0,2022-08-03,2022-08-03,合同会社Ｄ‐ｎｅｘｔ,,合同会社,広島県,広島市佐伯区,五日市５丁目１０－１７－２０２,,34,108,7315127,,,,,,,2022-08-03,1,,,,,ディーネクスト,0
591,2260001037105,新規,0,2022-08-03,2022-08-03,ＨＡＴＴＯＲＩ　ＢＡＧＥＬ株式会社,,株式会社,岡山県,岡山市北区,奉還町１丁目４番地１２－１,,33,101,7000026,,,,,,,2022-08-03,1,,,,,ハットリベーグル,0
592,2260003004004,新規,0,2022-08-03,2022-08-03,合同会社Ｂｏｏｍｂｏｏｍ‐ｈｉｖｅ,,合同会社,岡山県,倉敷市,茶屋町１５６４番地１１,,33,202,7101101,,,,,,,2022-08-03,1,,,,,ブーンブンハイブ,0
602,2290003012788,新規,0,2022-08-03,2022-08-03,レア就労支援サービス合同会社,,合同会社,福岡県,福岡市東区,香椎照葉３丁目２－４－６１３,,40,131,8130017,,,,,,,2022-08-03,1,,,,,レアシュウロウシエンサービス,0
605,2330001029986,新規,0,2022-08-03,2022-08-03,ＮＥＯ　ＳＴＹＬＥ株式会社,,株式会社,熊本県,上益城郡益城町,大字木山４７３番地１,,43,443,8612242,,,,,,,2022-08-03,1,,,,,ネオスタイル,0
611,2340001024945,新規,0,2022-08-03,2022-08-03,株式会社ノムラ,,株式会社,鹿児島県,鹿児島市,吉野町８７６０番地１８,,46,201,8920871,,,,,,,2022-08-03,1,,,,,ノムラ,0
614,2350005006088,新規,0,2022-08-03,2022-08-03,小林ヒューマンリソース事業協同組合,,その他の設立登記法人,宮崎県,小林市,堤２７４８番地４,,45,205,8860003,,,,,,,2022-08-03,1,,,,,コバヤシヒューマンリソース,0
618,2360005006698,新規,0,2022-08-03,2022-08-03,一般社団法人Ｏｋｉｎａｗａ　Ｄｒｏｎｅ．ｌａｂ,,その他の設立登記法人,沖縄県,国頭郡国頭村,字安田６２番地,,47,301,9051503,,,,,,,2022-08-03,1,,,,,オキナワドローンラボ,0
623,2370001048875,新規,0,2022-08-03,2022-08-03,株式会社ラギッドブラザーズ,,株式会社,宮城県,仙台市宮城野区,原町３丁目８番１０号Ｌｉｂｅｒｔｅ－Ｃ,,04,102,9830841,,,,,,,2022-08-03,1,,,,,ラギッドブラザーズ,0
626,2380001033034,新規,0,2022-08-03,2022-08-03,株式会社キレイプレミアム,,株式会社,福島県,郡山市,芳賀１丁目１番７号,,07,203,9638813,,,,,,,2022-08-03,1,,,,,キレイプレミアム,0
640,2420001017957,新規,0,2022-08-03,2022-08-03,株式会社ＲＷ,,株式会社,青森県,青森市,浜田１丁目１０番地１４,,02,201,0300843,,,,,,,2022-08-03,1,,,,,アールダブリュー,0
645,2450001013763,新規,0,2022-08-03,2022-08-03,株式会社丸貴渡邊組,,株式会社,北海道,旭川市,豊岡十三条１丁目４番１号,,01,204,0788243,,,,,,,2022-08-03,1,,,,,マルキワタナベグミ,0
646,2460305001983,新規,0,2022-08-03,2022-08-03,税理士法人トラスト会計,,その他の設立登記法人,北海道,網走市,南六条西３丁目８番地２,,01,211,0930016,,,,,,,2022-08-03,1,,,,,トラストカイケイ,0
650,2480001011814,新規,0,2022-08-03,2022-08-03,株式会社高島建設,00127414,株式会社,徳島県,徳島市,国府町東高輪３２７番地５,,36,201,7793105,,,,,,,2022-08-03,1,,,,,タカシマケンセツ,0
654,2500001024375,新規,0,2022-08-03,2022-08-03,株式会社谷本ホールディングス,,株式会社,愛媛県,松山市,桑原１丁目２番４１号,,38,201,7900911,,,,,,,2022-08-03,1,,,,,タニモトホールディングス,0
657,2700150004298,新規,0,2022-08-03,2015-10-09,日本福祉協会,,その他,東京都,中央区,八重洲２丁目６－２１三徳八重洲ビル５階,,13,102,1040028,,,,,,,2015-10-09,1,,,,,ニホンフクシキヨウカイ,0
667,3010001228454,新規,0,2022-08-03,2022-08-03,株式会社Ｆｌｏ,,株式会社,東京都,中央区,銀座１丁目２２番１１号銀座大竹ビジデンス２Ｆ,,13,102,1040061,,,,,,,2022-08-03,1,,,,,フロー,0
668,3010001228487,新規,0,2022-08-03,2022-08-03,株式会社コンジーニアル,,株式会社,東京都,中央区,銀座７丁目１３番６号サガミビル２階,,13,102,1040061,,,,,,,2022-08-03,1,,,,,コンジーニアル,0
669,3010001228553,新規,0,2022-08-03,2022-08-03,株式会社ハッピー商店,,株式会社,東京都,千代田区,神田佐久間町３丁目３８番地第５東ビル５階,,13,101,1010025,,,,,,,2022-08-03,1,,,,,ハッピーショウテン,0
670,3010001228578,新規,0,2022-08-03,2022-08-03,Ｂｏｌｉｎｏｐｓｉｓ株式会社,,株式会社,東京都,千代田区,有楽町１丁目７番１号,,13,101,1000006,,,,,,,2022-08-03,1,,,,,ボリノプシス,0
676,3010101015273,新規,0,2022-08-03,2022-08-03,株式会社ＹＫ,,株式会社,東京都,八王子市,本町２７番９号,,13,201,1920066,,,,,,,2022-08-03,1,,,,,ワイケイ,0
677,3010101015281,新規,0,2022-08-03,2022-08-03,株式会社ウラベ工芸,,株式会社,東京都,八王子市,宇津貫町１４３５番地,,13,201,1920915,,,,,,,2022-08-03,1,,,,,ウラベコウゲイ,0
679,3010103001957,新規,0,2022-08-03,2022-08-03,ａｎｄＳＣＡＰＥＳ合同会社,,合同会社,東京都,八王子市,高尾町２２１７,,13,201,1930844,,,,,,,2022-08-03,1,,,,,アンドスケイプス,0
687,3010401168845,新規,0,2022-08-03,2022-08-03,ｓｔｏ．ｔ株式会社,,株式会社,東京都,港区,海岸１丁目１番１－５３０５号,,13,103,1050022,,,,,,,2022-08-03,1,,,,,エスティーオードットティー,0
691,3010601061610,新規,0,2022-08-03,2022-08-03,株式会社ＢＰＭ,,株式会社,東京都,江東区,亀戸１丁目３２番８号イワハナビル７Ｆ,,13,108,1360071,,,,,,,2022-08-03,1,,,,,ビーピーエム,0
692,3010603009657,新規,0,2022-08-03,2022-08-03,合同会社五葉,,合同会社,東京都,江東区,亀戸２丁目６番６号,,13,108,1360071,,,,,,,2022-08-03,1,,,,,ゴヨウ,0
696,3010901051336,新規,0,2022-08-03,2022-08-03,株式会社Ｇｉｖｅ　Ｃｏｍｐａｎｙ,,株式会社,東京都,世田谷区,千歳台１丁目３０番３６号,,13,112,1570071,,,,,,,2022-08-03,1,,,,,ギブカンパニー,0
697,3010903007534,新規,0,2022-08-03,2022-08-03,ＡＲＣＨＶＳＴ合同会社,,合同会社,東京都,世田谷区,三軒茶屋１丁目６－１１－５０２,,13,112,1540024,,,,,,,2022-08-03,1,,,,,アーキビスト,0
703,3011001148799,新規,0,2022-08-03,2022-08-03,株式会社ＧＰＣ,,株式会社,東京都,目黒区,上目黒１丁目１７番５号,,13,110,1530051,,,,,,,2022-08-03,1,,,,,ジーピーシー,0
704,3011001148840,新規,0,2022-08-03,2022-08-03,株式会社ＰＵＧＮＵＳ,,株式会社,東京都,渋谷区,本町４丁目１６番１０号ＡＶＥＮＩＲ渋谷本町２０６,,13,113,1510071,,,,,,,2022-08-03,1,,,,,パグナス,0
705,3011001148857,新規,0,2022-08-03,2022-08-03,ＡｘｉｍＴｒａｄｅ株式会社,,株式会社,東京都,渋谷区,道玄坂１丁目１２番１号渋谷マークシティＷ２２階,,13,113,1500043,,,,,,,2022-08-03,1,,,,,アクシムトレード,0
706,3011101099760,新規,0,2022-08-03,2022-08-03,株式会社ＫＳＯＬ,,株式会社,東京都,新宿区,高田馬場１丁目３１番８号,,13,104,1690075,,,,,,,2022-08-03,1,,,,,ケイソル,0
707,3011103012028,新規,0,2022-08-03,2022-08-03,インフェルノブラスト合同会社,,合同会社,東京都,新宿区,高田馬場２丁目１０番１５号ＹＯＫＥＩＶ－３０１,00127402,13,104,1690075,,,,,,,2022-08-03,1,,,,,インフェルノブラスト,0
708,3011103012036,新規,0,2022-08-03,2022-08-03,ナレッジビラジャパン合同会社,,合同会社,東京都,新宿区,下宮比町２番２８－１０２７号,,13,104,1620822,,,,,,,2022-08-03,1,,,,,ナレッジビラジャパン,0
715,3011305002842,新規,0,2022-08-03,2022-08-03,一般社団法人Ａｒｔ　Ｃａｎ　Ｓａｖｅ　Ｕｓ,,その他の設立登記法人,東京都,杉並区,高井戸東３丁目７番２号,,13,115,1680072,,,,,,,2022-08-03,1,,,,,アートキャンセイブアス,0
716,3011401024451,新規,0,2022-08-03,2022-08-03,新・野崎プランニング株式会社,00127395,株式会社,東京都,板橋区,板橋１丁目４８番１２号ＧＣＴビル７Ｆ,,13,119,1730004,,,,,,,2022-08-03,1,,,,,シンノザキプランニング,0
718,3011501028352,新規,0,2022-08-03,2022-08-03,株式会社Ｍｉｔｓｕｋｉ,,株式会社,東京都,荒川区,荒川１丁目１４番１３号,,13,118,1160002,,,,,,,2022-08-03,1,,,,,ミツキ,0
722,3011801041088,新規,0,2022-08-03,2022-08-03,株式会社クラウドナイン,,株式会社,東京都,足立区,西新井本町１丁目５番２号,,13,121,1230845,,,,,,,2022-08-03,1,,,,,クラウドナイン,0
728,3012701017178,新規,0,2022-08-03,2022-08-03,株式会社ｔｉｄａ　ｓｍｉｌｅ,,株式会社,東京都,東久留米市,本町１丁目５番１８号,,13,222,2030053,,,,,,,2022-08-03,1,,,,,ティダスマイル,0
731,3020003022169,新規,0,2022-08-03,2022-08-03,ＨＫ　Ｔｒａｄｉｎｇ　Ｃｏｍｐａｎｙ合同会社,,合同会社,神奈川県,横浜市中区,福富町西通４５－１ファーストビル１階,,14,104,2310042,,,,,,,2022-08-03,1,,,,,エイチケートレーディングカンパニー,0
732,3020003022177,新規,0,2022-08-03,2022-08-03,Ｃｒｅａｍ合同会社,,合同会社,神奈川県,横浜市西区,北幸１丁目１１番１号水信ビル７階,,14,103,2200004,,,,,,,2022-08-03,1,,,,,クリーム,0
733,3020005015617,新規,0,2022-08-03,2022-08-03,司法書士法人ライタス綜合事務所,,その他の設立登記法人,神奈川県,横浜市神奈川区,台町１１番地３０台ビル１２,,14,102,2210834,,,,,,,2022-08-03,1,,,,,,0
738,3021001076652,新規,0,2022-08-03,2022-08-03,株式会社Ｃｏｒａｌ　Ｒｅｅｆ,,株式会社,神奈川県,厚木市,中町３丁目６番１４号,,14,212,2430018,,,,,,,2022-08-03,1,,,,,コーラルリーフ,0
739,3021001076677,新規,0,2022-08-03,2022-08-03,株式会社Ｍ‐ＴＹ　Ａｓｓｉｓｔ,,株式会社,神奈川県,厚木市,三田南３丁目９番３６－５号,,14,212,2430217,,,,,,,2022-08-03,1,,,,,エムティワイアシスト,0
741,3021005012579,新規,0,2022-08-03,2022-08-03,医療法人鶴英会,,その他の設立登記法人,神奈川県,鎌倉市,雪ノ下１丁目１６番２５号,,14,204,2480005,,,,,,,2022-08-03,1,,,,,カクエイカイ,0
743,3030001034594,新規,0,2022-08-03,2022-08-03,株式会社アトリエわたなべ緑,,株式会社,埼玉県,草加市,旭町５丁目３番７号,,11,221,3400053,,,,,,,2022-08-03,1,,,,,アトリエワタナベミドリ,0
748,3030001149475,新規,0,2022-08-03,2022-08-03,株式会社五狐稲荷大社,,株式会社,埼玉県,戸田市,本町３丁目４番１４号,,11,224,3350023,,,,,,,2022-08-03,1,,,,,ゴコウイナリタイシャ,0
760,3040001124460,新規,0,2022-08-03,2022-08-03,株式会社リビスマ,,株式会社,千葉県,八千代市,米本２１３７番地１,,12,221,2760015,,,,,,,2022-08-03,1,,,,,リビスマ,0
768,3060003004171,新規,0,2022-08-03,2022-08-03,合同会社ユニバーサルトレーディング,,合同会社,栃木県,栃木市,岩舟町新里１３０４番地２８号室,,09,203,3294316,,,,,,,2022-08-03,1,,,,,ユニバーサルトレーディング,0
769,3060005010003,新規,0,2022-08-03,2022-08-03,一般社団法人あけぼの総合支援センター,,その他の設立登記法人,栃木県,佐野市,富岡町１３３２番地,,09,204,3270844,,,,,,,2022-08-03,1,,,,,アケボノソウゴウシエンセンター,0
770,3070001039499,新規,0,2022-08-03,2022-08-03,株式会社ＧＲＥＥＮ　ＦＲＥＡＫＳ,,株式会社,群馬県,前橋市,大渡町１丁目１２番地６,,10,201,3710854,,,,,,,2022-08-03,1,,,,,グリーンフリークス,0
783,3110001036855,新規,0,2022-08-03,2022-08-03,株式会社小林板金,,株式会社,新潟県,長岡市,雲出町３９６番地１,,15,202,9402046,,,,,,,2022-08-03,1,,,,,コバヤシバンキン,0
796,3120001247848,新規,0,2022-08-03,2022-08-03,株式会社ＣＡＬＭＩＮ,,株式会社,大阪府,大阪市中央区,内本町１丁目２－１５谷四スクエアビル５階０４,,27,128,5400026,,,,,,,2022-08-03,1,,,,,カルミン,0
797,3120003022191,新規,0,2022-08-03,2022-08-03,合同会社まるさんかくしかく,,合同会社,大阪府,大阪市中央区,日本橋１丁目５－１５おおきに日本一ビル９０１,,27,128,5420073,,,,,,,2022-08-03,1,,,,,マルサンカクシカク,0
806,3120901046325,新規,0,2022-08-03,2022-08-03,ポポロ株式会社,,株式会社,大阪府,茨木市,山手台新町１丁目１２番７号,,27,211,5670010,,,,,,,2022-08-03,1,,,,,ポポロ,0
808,3120903004248,新規,0,2022-08-03,2022-08-03,合同会社まるちゃ,,合同会社,大阪府,吹田市,寿町１丁目３番１６号ヤングバリー３０１号,,27,205,5640036,,,,,,,2022-08-03,1,,,,,マルチャ,0
810,3122001036124,新規,0,2022-08-03,2022-08-03,侑壮株式会社,,株式会社,大阪府,八尾市,清水町１丁目２番１９－２０７号,,27,212,5810006,,,,,,,2022-08-03,1,,,,,ユウソウ,0
814,3130001072304,新規,0,2022-08-03,2022-08-03,株式会社橋爪中川,,株式会社,京都府,福知山市,字中ノ５２番地,,26,201,6200000,,,,,,,2022-08-03,1,,,,,ハシヅメナカガワ,0
819,3130003008090,新規,0,2022-08-03,2022-08-03,アミダ産業合同会社,,合同会社,京都府,城陽市,寺田北山田３１番地の１００,,26,207,6100121,,,,,,,2022-08-03,1,,,,,アミダサンギョウ,0
820,3130003008116,新規,0,2022-08-03,2022-08-03,合同会社ＭＯＭＥＮＴ,,合同会社,京都府,京都市中京区,麩屋町通二条下る尾張町２３１番地,,26,104,6040934,,,,,,,2022-08-03,1,,,,,モーメント,0
826,3140001126942,新規,0,2022-08-03,2022-08-03,株式会社ＨＯＸＩＮ,,株式会社,兵庫県,神戸市北区,西大池２丁目１２番１－５０２号,,28,109,6511201,,,,,,,2022-08-03,1,,,,,ホクシン,0
827,3140001126983,新規,0,2022-08-03,2022-08-03,株式会社ＧＦカンパニー,,株式会社,兵庫県,神戸市東灘区,西岡本７丁目１３番１３号,,28,101,6580073,,,,,,,2022-08-03,1,,,,,ジーエフカンパニー,0
829,3140003017990,新規,0,2022-08-03,2022-08-03,友田写真館合同会社,,合同会社,兵庫県,神戸市東灘区,深江本町２丁目１１－１２－１０４,,28,101,6580021,,,,,,,2022-08-03,1,,,,,トモダシャシンカン,0
834,3140005026271,新規,0,2022-08-03,2022-08-03,一般社団法人ＡＩ　ｔｕｎｉｎｇ　ｓｅｌｆｍａｓｔｅｒ,,その他の設立登記法人,兵庫県,伊丹市,山田４丁目４番２３号,,28,207,6640874,,,,,,,2022-08-03,1,,,,,アイチューニングセルフマスター,0
836,3150003002744,新規,0,2022-08-03,2022-08-03,合同会社かがやき,,合同会社,奈良県,橿原市,石原田町１０２番地の１３,,29,205,6340014,,,,,,,2022-08-03,1,,,,,カガヤキ,0
841,3170001017214,新規,0,2022-08-03,2022-08-03,株式会社田中ドア,,株式会社,和歌山県,田辺市,上秋津２６０５番地の１,,30,206,6460001,,,,,,,2022-08-03,1,,,,,タナカドア,0
854,3180001152448,新規,0,2022-08-03,2022-08-03,エニグマ株式会社,,株式会社,愛知県,名古屋市昭和区,山脇町３丁目２番地の４,,23,107,4660063,,,,,,,2022-08-03,1,,,,,エニグマ,0
855,3180001152464,新規,0,2022-08-03,2022-08-03,ウッドストック株式会社,,株式会社,愛知県,春日井市,廻間町字落重６２,,23,206,4870031,,,,,,,2022-08-03,1,,,,,ウッドストック,0
858,3180003024100,新規,0,2022-08-03,2022-08-03,合同会社ＳＡＫＡＥ,,合同会社,愛知県,知多郡東浦町,大字生路字生片山６３番地の３,,23,442,4702104,,,,,,,2022-08-03,1,,,,,サカエ,0
861,3180301036490,新規,0,2022-08-03,2022-08-03,中部産業ホールディングス株式会社,,株式会社,愛知県,豊田市,梅坪町６丁目２番地８,,23,211,4710064,,,,,,,2022-08-03,1,,,,,チュウブサンギョウホールディングス,0
867,3200001040344,新規,0,2022-08-03,2022-08-03,信榮産業株式会社,,株式会社,岐阜県,羽島市,正木町須賀２０９２番地,,21,209,5016216,,,,,,,2022-08-03,1,,,,,シンエイサンギョウ,0
872,3200003005634,新規,0,2022-08-03,2022-08-03,合同会社ＣＮリサーチ,,合同会社,岐阜県,岐阜市,高砂町１丁目１７番地,,21,201,5008407,,,,,,,2022-08-03,1,,,,,シーエヌリサーチ,0
875,3220001024972,新規,0,2022-08-03,2022-08-03,株式会社やすらぎ見附,,株式会社,石川県,珠洲市,宝立町鵜飼２字７３番地１,,17,205,9271222,,,,,,,2022-08-03,1,,,,,ヤスラギミツケ,0
879,3240001060157,新規,0,2022-08-03,2022-08-03,株式会社ＭＡＲＯ,,株式会社,広島県,広島市西区,楠木町２丁目１０番１４－１１０１号,,34,104,7330002,,,,,,,2022-08-03,1,,,,,マロ,0
897,3290001098424,新規,0,2022-08-03,2022-08-03,ＷＨＩＴＥ　ＤＩＳＨ株式会社,,株式会社,福岡県,福岡市中央区,天神２丁目３番１０号天神パインクレスト７１９,,40,133,8100001,,,,,,,2022-08-03,1,,,,,ホワイトディッシュ,0
902,3290005018766,新規,0,2022-08-03,2022-08-03,ＮＰＯ法人ぎんともも,,その他の設立登記法人,福岡県,福岡市博多区,博多駅２―４―１６福泉第一ビル２階Ｃ,,40,132,8120000,,,,,,,2022-08-03,1,,,,,ギントモモ,0
903,3290801028778,新規,0,2022-08-03,2022-08-03,テラステック株式会社,,株式会社,福岡県,遠賀郡遠賀町,遠賀川３丁目３２番５号,,40,384,8114307,,,,,,,2022-08-03,1,,,,,テラステック,0
904,3290801028794,新規,0,2022-08-03,2022-08-03,株式会社ワイアールジー,,株式会社,福岡県,遠賀郡水巻町,吉田西１丁目３番１８号,,40,382,8070046,,,,,,,2022-08-03,1,,,,,ワイアールジー,0
907,3320001019252,新規,0,2022-08-03,2022-08-03,株式会社アイトラック,,株式会社,大分県,大分市,大字横尾１９３９番地の４,,44,201,8700126,,,,,,,2022-08-03,1,,,,,アイトラック,0
910,3330001029985,新規,0,2022-08-03,2022-08-03,株式会社益田美装,,株式会社,熊本県,熊本市南区,川口町１０２３番地１,,43,104,8614123,,,,,,,2022-08-03,1,,,,,マシタビソウ,0
911,3330001029993,新規,0,2022-08-03,2022-08-03,株式会社貴公史,,株式会社,熊本県,宇土市,城塚町６５５番地,00127398,43,211,8690462,,,,,,,2022-08-03,1,,,,,キコウシ,0
919,3350001017889,新規,0,2022-08-03,2022-08-03,株式会社ストークス,,株式会社,宮崎県,都城市,岩満町１４１番地１,,45,202,8851101,,,,,,,2022-08-03,1,,,,,ストークス,0
923,3360001030767,新規,0,2022-08-03,2022-08-03,株式会社ゼストカーズ,,株式会社,沖縄県,宮古島市,伊良部字長浜１４４３番地,,47,214,9060506,,,,,,,2022-08-03,1,,,,,ゼストカーズ,0
925,3370003005790,新規,0,2022-08-03,2022-08-03,合同会社旅とサウナと温泉と,,合同会社,宮城県,仙台市青葉区,米ケ袋１丁目７番２９号ジュネス米ケ袋３０４,,04,101,9800813,,,,,,,2022-08-03,1,,,,,タビトサウナトオンセント,0
929,3400001015961,新規,0,2022-08-03,2022-08-03,株式会社近藤家畜医院,,株式会社,岩手県,盛岡市,城西町１０番３５－４０８号,,03,201,0200044,,,,,,,2022-08-03,1,,,,,コンドウカチクイイン,0
937,3420001017956,新規,0,2022-08-03,2022-08-03,株式会社ＫＯＮＫＯＮ,,株式会社,青森県,三沢市,松園町２丁目１５番２８号,,02,207,0330037,,,,,,,2022-08-03,1,,,,,コンコン,0
944,3430001087197,新規,0,2022-08-03,2022-08-03,丸誠真建興業株式会社,,株式会社,北海道,札幌市手稲区,曙三条３丁目９番１５号,,01,109,0060833,,,,,,,2022-08-03,1,,,,,マルセイシンケンコウギョウ,0
949,3430003014141,新規,0,2022-08-03,2022-08-03,Ｉｍｐｒｏｖｅ合同会社,,合同会社,北海道,札幌市豊平区,平岸三条８丁目７－３０,,01,105,0620933,,,,,,,2022-08-03,1,,,,,インプルーブ,0
954,3470001019188,新規,0,2022-08-03,2022-08-03,株式会社井筒屋,,株式会社,香川県,観音寺市,茂西町１丁目６番１５号,,37,205,7680073,,,,,,,2022-08-03,1,,,,,イヅツヤ,0
957,3480001011813,新規,0,2022-08-03,2022-08-03,株式会社リンクテクト,,株式会社,徳島県,徳島市,川内町加賀須野２２３番地の１,,36,201,7710130,,,,,,,2022-08-03,1,,,,,リンクテクト,0
961,3500001024366,新規,0,2022-08-03,2022-08-03,株式会社７１０,,株式会社,愛媛県,西条市,石田７２３番地,,38,206,7991364,,,,,,,2022-08-03,1,,,,,ナナイチマル,0
967,4010001228313,新規,0,2022-08-03,2022-08-03,Ｍｅｒｉｔ　Ａｓｓｅｔ　Ｍａｎａｇｅｍｅｎｔ株式会社,,株式会社,東京都,中央区,佃１丁目１１番７号１１０３,,13,102,1040051,,,,,,,2022-08-03,1,,,,,メリットアセットマネジメント,0
968,4010001228453,新規,0,2022-08-03,2022-08-03,株式会社オフィス３５８,,株式会社,東京都,文京区,本郷４丁目１７番８号,,13,105,1130033,,,,,,,2022-08-03,1,,,,,オフィスサンゴハチ,0
969,4010001228461,新規,0,2022-08-03,2022-08-03,株式会社システムラボ,,株式会社,東京都,千代田区,九段北１丁目９番５号朝日九段マンション６１８,,13,101,1020073,,,,,,,2022-08-03,1,,,,,システムラボ,0
970,4010001228486,新規,0,2022-08-03,2022-08-03,株式会社ＢｅｎａＶｉ,,株式会社,東京都,千代田区,東神田１丁目１３－１４－３０１,,13,101,1010031,,,,,,,2022-08-03,1,,,,,ベナヴィ,0
973,4010003038297,新規,0,2022-08-03,2022-08-03,合同会社シングリット,,合同会社,東京都,中央区,銀座１丁目１２番４号Ｎ＆ＥＢＬＤ．７階,,13,102,1040061,,,,,,,2022-08-03,1,,,,,シングリット,0
976,4010005035367,新規,0,2022-08-03,2022-08-03,一般社団法人シラソル,,その他の設立登記法人,東京都,千代田区,丸の内３丁目１番１号東京共同会計事務所内,,13,101,1000005,,,,,,,2022-08-03,1,,,,,シラソル,0
977,4010101015272,新規,0,2022-08-03,2022-08-03,株式会社Ｎｅｘｔ,,株式会社,東京都,八王子市,めじろ台１丁目９番地１,,13,201,1930833,,,,,,,2022-08-03,1,,,,,ネクスト,0
982,4010401168299,新規,0,2022-08-03,2022-08-03,株式会社Ｚ２ＡＬＰＨＡ,,株式会社,東京都,港区,南青山２丁目２－１５ＷｉｎＡｏｙａｍａビルＵＣＦ６３５,,13,103,1070062,,,,,,,2022-08-03,1,,,,,ジーツーアルファ,0
983,4010401168340,新規,0,2022-08-03,2022-08-03,Ｓｐａｃｅ　Ｃｏｎｎｅｃｔ株式会社,,株式会社,東京都,港区,南青山２丁目２番１５号,,13,103,1070062,,,,,,,2022-08-03,1,,,,,スペースコネクト,0
984,4010401168828,新規,0,2022-08-03,2022-08-03,株式会社ＧＬＯＶＩＣＴ,,株式会社,東京都,港区,南青山１丁目１０番３号南青山Ｄビル６階,,13,103,1070062,,,,,,,2022-08-03,1,,,,,グローヴィクト,0
985,4010401168836,新規,0,2022-08-03,2022-08-03,株式会社エタークリエイション,,株式会社,東京都,港区,西新橋２丁目４番３号,,13,103,1050003,,,,,,,2022-08-03,1,,,,,エタークリエイション,0
986,4010401168852,新規,0,2022-08-03,2022-08-03,株式会社ジャフコグループＳＩＤ‐１,,株式会社,東京都,港区,虎ノ門１丁目２３番１号ジャフコグループ株式会社内,,13,103,1050001,,,,,,,2022-08-03,1,,,,,ジャフコグループエスアイディーワン,0
987,4010401168860,新規,0,2022-08-03,2022-08-03,株式会社ＭＤＣ,,株式会社,東京都,港区,西新橋２丁目８番１８号共立ビル３Ｆ,,13,103,1050003,,,,,,,2022-08-03,1,,,,,エムディーシー,0
990,4010403028154,新規,0,2022-08-03,2022-08-03,スマートワークコミュニケーションズ合同会社,,合同会社,東京都,港区,南青山２丁目２番１５号ウィン青山９４２,,13,103,1070062,,,,,,,2022-08-03,1,,,,,スマートワークコミュニケーションズ,0
991,4010403028179,新規,0,2022-08-03,2022-08-03,出向起業スピンアウトキャピタル合同会社,,合同会社,東京都,港区,赤坂１丁目１２番３２号アーク森ビル３階,,13,103,1070052,,,,,,,2022-08-03,1,,,,,シュッコウキギョウスピンアウトキャピタル,0
996,4010601061584,新規,0,2022-08-03,2022-08-03,株式会社トータスレンタカー,,株式会社,東京都,江東区,新木場３丁目４番６号,,13,108,1360082,,,,,,,2022-08-03,1,,,,,トータスレンタカー,0
997,4010601061601,新規,0,2022-08-03,2022-08-03,株式会社ｂａｇｕｎｉ,,株式会社,東京都,江東区,東砂２丁目１２番３７－８０７号,,13,108,1360074,,,,,,,2022-08-03,1,,,,,バグニ,0
998,4010603009656,新規,0,2022-08-03,2022-08-03,合同会社ＳＹ２,,合同会社,東京都,江東区,有明１丁目２－１１,,13,108,1350063,,,,,,,2022-08-03,1,,,,,エスワイツー,0
1000,4010701043029,新規,0,2022-08-03,2022-08-03,株式会社Ｆｌｏｗ,,株式会社,東京都,品川区,上大崎３丁目２番９号,,13,109,1410021,,,,,,,2022-08-03,1,,,,,フロー,0
1009,4011001148897,新規,0,2022-08-03,2022-08-03,Ｃｈａｎｃｅ　Ｍａｋｅ株式会社,,株式会社,東京都,渋谷区,本町５丁目５番１０号,,13,113,1510071,,,,,,,2022-08-03,1,,,,,チャンスメイク,0
1014,4011103012027,新規,0,2022-08-03,2022-08-03,ＢＬＵＥＭＯＯＮ　ＭＵＳＩＣ合同会社,,合同会社,東京都,新宿区,西新宿３丁目３番１３号,,13,104,1600023,,,,,,,2022-08-03,1,,,,,ブルームーンミュージック,0
1015,4011103012035,新規,0,2022-08-03,2022-08-03,ＲａｙｎｓＡｒｃｈｉｔｅｃｔ合同会社,,合同会社,東京都,新宿区,西新宿３丁目３番１３号西新宿水間ビル２Ｆ,,13,104,1600023,,,,,,,2022-08-03,1,,,,,レインズアーキテクト,0
1020,4011401024450,新規,0,2022-08-03,2022-08-03,株式会社Ｌ．Ｔ．Ｃ,,株式会社,東京都,板橋区,板橋１丁目４８番１２号ＧＣＴビル７Ｆ,,13,119,1730004,,,,,,,2022-08-03,1,,,,,エルティーシー,0
1023,4011503005241,新規,0,2022-08-03,2022-08-03,Ｂｒｏｗｎ’ｓ　Ｓｏｎ　Ｍｙａｎｍａｒ　ＢＳＭ合同会社,,合同会社,東京都,荒川区,東尾久２丁目３１番９号－２０２,,13,118,1160012,,,,,,,2022-08-03,1,,,,,ブラウンズソンミャンマービーエスエム,0
1024,4011701025504,新規,0,2022-08-03,2022-08-03,イダト機工株式会社,,株式会社,東京都,江戸川区,西瑞江５丁目１９番地６４,,13,123,1340015,,,,,,,2022-08-03,1,,,,,イダトキコウ,0
1030,4012401039496,新規,0,2022-08-03,2022-08-03,株式会社Ｕｎｉｃｏｒｎ,,株式会社,東京都,小金井市,本町１丁目１７－９－２０５,,13,210,1840004,,,,,,,2022-08-03,1,,,,,ユニコーン,0
1037,4013301049453,新規,0,2022-08-03,2022-08-03,株式会社ＮｅｕＢｕｒｇ,,株式会社,東京都,豊島区,東池袋２丁目１番３号ＭＫビル２０２号室,,13,116,1700013,,,,,,,2022-08-03,1,,,,,ノイブルク,0
1047,4020005015616,新規,0,2022-08-03,2022-08-03,一般社団法人ツバメの会,,その他の設立登記法人,神奈川県,横浜市鶴見区,鶴見中央１丁目３１番２２－１８１０号,,14,101,2300051,,,,,,,2022-08-03,1,,,,,ツバメノカイ,0
1051,4021001076619,新規,0,2022-08-03,2022-08-03,エスグランデ株式会社,,株式会社,神奈川県,足柄下郡箱根町,二ノ平１２９７－３２８,,14,382,2500407,,,,,,,2022-08-03,1,,,,,エスグランデ,0
1052,4021001076676,新規,0,2022-08-03,2022-08-03,株式会社ＳＫサービス,,株式会社,神奈川県,相模原市緑区,中野１３８０番地３,,14,151,2520157,,,,,,,2022-08-03,1,,,,,エスケーサービス,0
1056,4030001149474,新規,0,2022-08-03,2022-08-03,株式会社ＡＣＥ,,株式会社,埼玉県,戸田市,美女木２丁目１１番地の１エクセルアキモト４０２,,11,224,3350031,,,,,,,2022-08-03,1,,,,,エース,0
1058,4030003019923,新規,0,2022-08-03,2022-08-03,ＥＭＩＺＡ合同会社,,合同会社,埼玉県,川口市,坂下町２丁目１６番１７号,,11,203,3340003,,,,,,,2022-08-03,1,,,,,エミザ,0
1084,4060001035135,新規,0,2022-08-03,2022-08-03,株式会社俺はやる,,株式会社,栃木県,鹿沼市,茂呂２６６番地９,,09,205,3220026,,,,,,,2022-08-03,1,,,,,オレハヤル,0
1092,4080101023459,新規,0,2022-08-03,2022-08-03,あかり動物病院株式会社,,株式会社,静岡県,伊東市,南町１丁目３番６号,,22,208,4140035,,,,,,,2022-08-03,1,,,,,アカリドウブツビョウイン,0
1097,4100001035584,新規,0,2022-08-03,2022-08-03,株式会社Ｃ．Ｆ．Ｅ,,株式会社,長野県,松本市,深志２丁目２番６号加納ビル,,20,202,3900815,,,,,,,2022-08-03,1,,,,,シーエフイー,0
1105,4120001247830,新規,0,2022-08-03,2022-08-03,株式会社ＳＴ,,株式会社,大阪府,大阪市淀川区,三津屋中３丁目８－２０,,27,123,5320036,,,,,,,2022-08-03,1,,,,,エスティ,0
1106,4120001247847,新規,0,2022-08-03,2022-08-03,株式会社ａｎｄ　ｍｏｒｅ,,株式会社,大阪府,大阪市住吉区,東粉浜２丁目１０番９号３Ｆ－Ｂ,,27,120,5580051,,,,,,,2022-08-03,1,,,,,アンドモア,0
1107,4120001247855,新規,0,2022-08-03,2022-08-03,山池株式会社,,株式会社,大阪府,大阪市中央区,南船場１丁目３番１７号永都ビル大阪長堀,,27,128,5420081,,,,,,,2022-08-03,1,,,,,ヤマイケ,0
1108,4120001247921,新規,0,2022-08-03,2022-08-03,セブン商事株式会社,,株式会社,大阪府,大阪市生野区,小路東４丁目３番２８－２０１号,,27,116,5440003,,,,,,,2022-08-03,1,,,,,セブンショウジ,0
1111,4120003022125,新規,0,2022-08-03,2022-08-03,合同会社ＮＳ工業,,合同会社,大阪府,大阪市平野区,瓜破東３丁目２番２８号,,27,126,5470022,,,,,,,2022-08-03,1,,,,,,0
1112,4120003022190,新規,0,2022-08-03,2022-08-03,ＳＤＧソリューションズ合同会社,,合同会社,大阪府,大阪市浪速区,敷津西２丁目１６－２４－４５,,27,111,5560015,,,,,,,2022-08-03,1,,,,,エスディージーソリューションズ,0
1113,4120003022199,新規,0,2022-08-03,2022-08-03,ＡＮＴ合同会社,,合同会社,大阪府,大阪市西区,靭本町一丁目６番１０号,,27,106,5500000,,,,,,,2022-08-03,1,,,,,アント,0
1118,4120005023121,新規,0,2022-08-03,2022-08-03,一般社団法人Ｒｏｏｔｓ,,その他の設立登記法人,大阪府,大阪市北区,西天満４丁目１１番８号,,27,127,5300047,,,,,,,2022-08-03,1,,,,,ルーツ,0
1121,4120101066008,新規,0,2022-08-03,2022-08-03,株式会社ビーアイテック,,株式会社,大阪府,堺市北区,北花田町３丁４４番１７号,,27,146,5918002,,,,,,,2022-08-03,1,,,,,ビーアイテック,0
1129,4122001036123,新規,0,2022-08-03,2022-08-03,株式会社ＮＡＧＯＭＩ,,株式会社,大阪府,八尾市,安中町６丁目８番１０号,,27,212,5810085,,,,,,,2022-08-03,1,,,,,ナゴミ,0
1133,4130003008098,新規,0,2022-08-03,2022-08-03,合同会社中西企画,,合同会社,京都府,京都市左京区,一乗寺松田町１０２,,26,103,6068124,,,,,,,2022-08-03,1,,,,,ナカニシキカク,0
1160,4180001152380,新規,0,2022-08-03,2022-08-03,ａｎｄｙｏｕ不動産株式会社,,株式会社,愛知県,名古屋市緑区,東神の倉２丁目１５０５番地,,23,114,4580808,,,,,,,2022-08-03,1,,,,,アンドユーフドウサン,0
1161,4180001152422,新規,0,2022-08-03,2022-08-03,株式会社７０Ｃｏ．,,株式会社,愛知県,名古屋市中区,錦３丁目１８番６号シャイン山清ビル４Ａ,,23,106,4600003,,,,,,,2022-08-03,1,,,,,ナナゼロコーポレーション,0
1162,4180001152430,新規,0,2022-08-03,2022-08-03,株式会社ＨＲＯホールディングス,,株式会社,愛知県,春日井市,東野町４丁目１０番地１,,23,206,4860817,,,,,,,2022-08-03,1,,,,,エイチアールオーホールディングス,0
1163,4180001152447,新規,0,2022-08-03,2022-08-03,フジキュー株式会社,,株式会社,愛知県,名古屋市昭和区,伊勝町２丁目３０番地の２,,23,107,4660805,,,,,,,2022-08-03,1,,,,,フジキュー,0
1164,4180001152463,新規,0,2022-08-03,2022-08-03,ＳＥＬＬ‐ＨＯＭＥ建設株式会社,,株式会社,愛知県,北名古屋市,西之保宮前１番地,,23,234,4810033,,,,,,,2022-08-03,1,,,,,セルホームケンセツ,0
1168,4190001029660,新規,0,2022-08-03,2022-08-03,ロイヤルマンションＨＡＭＡＤＡ株式会社,,株式会社,三重県,四日市市,中浜田町１番２号,,24,202,5100065,,,,,,,2022-08-03,1,,,,,ロイヤルマンションハマダ,0
1172,4200001040327,新規,0,2022-08-03,2022-08-03,株式会社Ｋ＆Ｇ,,株式会社,岐阜県,各務原市,川島緑町２丁目１５９番地１,,21,213,5016027,,,,,,,2022-08-03,1,,,,,ケイアンドジー,0
1173,4200001040335,新規,0,2022-08-03,2022-08-03,株式会社ｂｍｔｏｔａｌ,,株式会社,岐阜県,岐阜市,菅生２丁目４番１７号,,21,201,5020914,,,,,,,2022-08-03,1,,,,,ビーエムトータル,0
1181,4220001024971,新規,0,2022-08-03,2022-08-03,株式会社ＮＭＰ,,株式会社,石川県,金沢市,諸江町３０‐１アルプラザ金沢店２階,,17,201,9200014,,,,,,,2022-08-03,1,,,,,エヌエムピー,0
1183,4240001060148,新規,0,2022-08-03,2022-08-03,株式会社ＥｎＤｅｅｐ,,株式会社,広島県,広島市佐伯区,旭園１１番４８号,,34,108,7315133,,,,,,,2022-08-03,1,,,,,エンディープ,0
1184,4240001060156,新規,0,2022-08-03,2022-08-03,株式会社Ｍ‐クローバ,,株式会社,広島県,東広島市,八本松飯田８丁目８番３０－１２号,,34,212,7390146,,,,,,,2022-08-03,1,,,,,エムクローバ,0
1185,4240001060164,新規,0,2022-08-03,2022-08-03,株式会社真結建設,,株式会社,広島県,広島市佐伯区,杉並台４７番地１１,,34,108,7380514,,,,,,,2022-08-03,1,,,,,シンユウケンセツ,0
1186,4240001060172,新規,0,2022-08-03,2022-08-03,株式会社利建,,株式会社,広島県,三原市,本郷北４丁目６番８号,,34,204,7290418,,,,,,,2022-08-03,1,,,,,トシケン,0
1187,4240001060189,新規,0,2022-08-03,2022-08-03,株式会社ロジブラン,,株式会社,広島県,広島市佐伯区,楽々園６丁目１２番６５号,,34,108,7315136,,,,,,,2022-08-03,1,,,,,ロジブラン,0
1195,4260003004002,新規,0,2022-08-03,2022-08-03,合同会社ＬｉＰｌａ,,合同会社,岡山県,玉野市,八浜町見石１６０５番地５,,33,204,7060222,,,,,,,2022-08-03,1,,,,,リプラ,0
1208,4290001098456,新規,0,2022-08-03,2022-08-03,Ｒｅｓｔａ　Ｌｉｎｋ株式会社,,株式会社,福岡県,福岡市博多区,博多駅南３丁目５番３５号大蔵マンション南博多２０８号室,,40,132,8120016,,,,,,,2022-08-03,1,,,,,レスタリンク,0
1209,4290003012803,新規,0,2022-08-03,2022-08-03,合同会社暮らしの応援舎,,合同会社,福岡県,福岡市東区,千早５丁目４番４－２０２号,,40,131,8130044,,,,,,,2022-08-03,1,,,,,クラシノオウエンシャ,0
1211,4290801028777,新規,0,2022-08-03,2022-08-03,やす株式会社,,株式会社,福岡県,北九州市八幡東区,清田２丁目１５番６号,,40,108,8050034,,,,,,,2022-08-03,1,,,,,ヤス,0
1212,4290801028785,新規,0,2022-08-03,2022-08-03,株式会社菓樹,,株式会社,福岡県,築上郡上毛町,大字吉岡６０９番地１３,,40,646,8710912,,,,,,,2022-08-03,1,,,,,カジュ,0
1216,4300005007089,新規,0,2022-08-03,2022-08-03,特定非営利活動法人日本鷹馬文化顕彰会,,その他の設立登記法人,佐賀県,武雄市,橘町大字大日２１７８番地,,41,206,8430013,,,,,,,2022-08-03,1,,,,,ニホンヨウバブンカケンショウカイ,0
1222,4350001017888,新規,0,2022-08-03,2022-08-03,株式会社ＴＯＫＵＭＩ,,株式会社,宮崎県,都城市,山之口町富吉６２６４番地１,,45,202,8891801,,,,,,,2022-08-03,1,,,,,トクミ,0
1231,4380001033024,新規,0,2022-08-03,2022-08-03,株式会社丸國建設,,株式会社,福島県,郡山市,田村町守山字上河原４１番地２１,,07,203,9631155,,,,,,,2022-08-03,1,,,,,マルクニケンセツ,0
1236,4390001016985,新規,0,2022-08-03,2022-08-03,株式会社石塚長治郎商店,,株式会社,山形県,鶴岡市,水沢戊８８番地,,06,203,9997542,,,,,,,2022-08-03,1,,,,,イシヅカチョウジロウショウテン,0
1237,4400001015960,新規,0,2022-08-03,2022-08-03,株式会社ティーエス,,株式会社,岩手県,一関市,東山町長坂字柴宿３２番地３９,,03,209,0290302,,,,,,,2022-08-03,1,,,,,ティーエス,0
1243,4430001087196,新規,0,2022-08-03,2022-08-03,株式会社ＤＥＲＭＡ,,株式会社,北海道,札幌市中央区,南二条東１丁目１番地１２,,01,101,0600052,,,,,,,2022-08-03,1,,,,,デルマ,0
1244,4430003014157,新規,0,2022-08-03,2022-08-03,合同会社ＤＡ　ＴＲＡＤＩＮＧ,,合同会社,北海道,石狩郡当別町,弥生１１７番地２８,,01,303,0610223,,,,,,,2022-08-03,1,,,,,ディーエートレーディング,0
1255,4470003002224,新規,0,2022-08-03,2022-08-03,穴吹合同会社,,合同会社,香川県,高松市,鍛冶屋町７番地１２,,37,201,7600028,,,,,,,2022-08-03,1,,,,,アナブキ,0
1262,5010001228452,新規,0,2022-08-03,2022-08-03,株式会社清國,,株式会社,東京都,中央区,銀座４丁目１３番１６号,,13,102,1040061,,,,,,,2022-08-03,1,,,,,キヨクニ,0
1263,5010001228477,新規,0,2022-08-03,2022-08-03,株式会社ビジョンアシスタント,,株式会社,東京都,中央区,新川１丁目３番２１号,,13,102,1040033,,,,,,,2022-08-03,1,,,,,ビジョンアシスタント,0
1264,5010001228485,新規,0,2022-08-03,2022-08-03,Ｌｅｒｏｎ株式会社,,株式会社,東京都,中央区,銀座１丁目１２番４号Ｎ＆ＥＢＬＤ．６Ｆ,,13,102,1040061,,,,,,,2022-08-03,1,,,,,レロン,0
1265,5010001228502,新規,0,2022-08-03,2022-08-03,株式会社フォンテーヌリアン,,株式会社,東京都,文京区,大塚１丁目４番１５号－２５０４,00127408,13,105,1120012,,,,,,,2022-08-03,1,,,,,フォンテーヌリアン,0
1266,5010001228535,新規,0,2022-08-03,2022-08-03,株式会社設立準備法人第１号,,株式会社,東京都,千代田区,九段南１丁目６番１７号,,13,101,1020074,,,,,,,2022-08-03,1,,,,,セツリツジュンビホウジンダイイチゴウ,0
1269,5010005035333,新規,0,2022-08-03,2022-08-03,一般社団法人Ｓ＆Ｄｘ１,,その他の設立登記法人,東京都,千代田区,神田三崎町２丁目４番１号ＴＵＧ－Ｉビル９Ｆ,00127409,13,101,1010061,,,,,,,2022-08-03,1,,,,,エスアンドディーエックスイチ,0
1281,5010401168835,新規,0,2022-08-03,2022-08-03,Ｌｉｅｂｅ　Ｃｏｒａ株式会社,,株式会社,東京都,港区,新橋６丁目１３番１２号ＶＯＲＴ新橋ＩＩ７階,00127397,13,103,1050004,,,,,,,2022-08-03,1,,,,,リーベコーラ,0
1282,5010401168851,新規,0,2022-08-03,2022-08-03,株式会社Ｍ　Ｇａｒｄｅｎ,,株式会社,東京都,港区,芝５丁目１２－１５ＫＮビル２階,,13,103,1080014,,,,,,,2022-08-03,1,,,,,エムガーデン,0
1284,5010405021239,新規,0,2022-08-03,2022-08-03,弁理士法人鈴榮特許綜合事務所,,その他の設立登記法人,東京都,港区,芝３丁目２３番１号,,13,103,1050014,,,,,,,2022-08-03,1,,,,,スズエイトッキョソウゴウジムショ,0
1287,5010601061591,新規,0,2022-08-03,2022-08-03,株式会社桜宴堂,,株式会社,東京都,墨田区,八広５丁目３０番１２－６０２号,,13,107,1310041,,,,,,,2022-08-03,1,,,,,オウエンドウ,0
1288,5010601061617,新規,0,2022-08-03,2022-08-03,株式会社山旅旅,,株式会社,東京都,江東区,森下３丁目１３－１３－１４０２,,13,108,1350004,,,,,,,2022-08-03,1,,,,,ヤマタビタビ,0
1293,5010701043028,新規,0,2022-08-03,2022-08-03,株式会社Ｃｏｍｍｅｒｃｅ　Ｃｒｅｗ,,株式会社,東京都,品川区,上大崎３丁目２番９号,,13,109,1410021,,,,,,,2022-08-03,1,,,,,コマースクルー,0
1302,5011001148987,新規,0,2022-08-03,2022-08-03,株式会社Ｓｐａｒｋ　Ｐｒｏｊｅｃｔ,,株式会社,東京都,渋谷区,宇田川町３６－１７ニューシブヤマンション１０１,,13,113,1500042,,,,,,,2022-08-03,1,,,,,スパークプロジェクト,0
1304,5011003015079,新規,0,2022-08-03,2022-08-03,合同会社Ａｖｅｒｅｅｌ,,合同会社,東京都,渋谷区,円山町５番５号Ｎａｖｉ渋谷Ｖ３階,,13,113,1500044,,,,,,,2022-08-03,1,,,,,アヴェリール,0
1305,5011003015112,新規,0,2022-08-03,2022-08-03,ａｓｓｅｔ　ａｃｃｅｌｅｒａｔｉｏｎ　ａｘｉｓ合同会社,,合同会社,東京都,渋谷区,代々木２丁目３３番１,,13,113,1510053,,,,,,,2022-08-03,1,,,,,アセットアクセラレーションアクシス,0
1306,5011101099701,新規,0,2022-08-03,2022-08-03,株式会社ＡＣＭＥＥ,,株式会社,東京都,新宿区,西新宿７丁目７番２８号,,13,104,1600023,,,,,,,2022-08-03,1,,,,,アクミー,0
1307,5011101099759,新規,0,2022-08-03,2022-08-03,株式会社Ｂｅ　Ｆｒｏｎｔ,,株式会社,東京都,新宿区,住吉町１番１９号,,13,104,1620065,,,,,,,2022-08-03,1,,,,,ビーフロント,0
1313,5011305002840,新規,0,2022-08-03,2022-08-03,一般社団法人スリーベイズ,,その他の設立登記法人,東京都,杉並区,上井草４丁目１６番１６号,,13,115,1670023,,,,,,,2022-08-03,1,,,,,スリーベイズ,0
1318,5011801041094,新規,0,2022-08-03,2022-08-03,株式会社ミライエ,,株式会社,東京都,足立区,保木間２丁目２番地６号キッズフォトスタジオチョコ２Ｆ,,13,121,1210064,,,,,,,2022-08-03,1,,,,,ミライエ,0
1319,5012301013088,新規,0,2022-08-03,2022-08-03,ガウェイトン株式会社,,株式会社,東京都,町田市,成瀬が丘３丁目２１番地１,,13,209,1940011,,,,,,,2022-08-03,1,,,,,ガウェイトン,0
1320,5012401039487,新規,0,2022-08-03,2022-08-03,株式会社しんしん,,株式会社,東京都,武蔵野市,中町２丁目１３番２７号,,13,203,1800006,,,,,,,2022-08-03,1,,,,,シンシン,0
1338,5020003022175,新規,0,2022-08-03,2022-08-03,アイＭＡＩＮ合同会社,,合同会社,神奈川県,川崎市宮前区,西野川３丁目９番２１号,,14,136,2160044,,,,,,,2022-08-03,1,,,,,アイメイン,0
1341,5021001076642,新規,0,2022-08-03,2022-08-03,株式会社アド兵,,株式会社,神奈川県,平塚市,纒１６４番地の９プラザ・シフォレＩＩ１０２,00127396,14,203,2540901,,,,,,,2022-08-03,1,,,,,アドヘイ,0
1344,5021003012001,新規,0,2022-08-03,2022-08-03,合同会社ＲＩＭＥ,,合同会社,神奈川県,三浦郡葉山町,堀内１９６７－７,,14,301,2400112,,,,,,,2022-08-03,1,,,,,リム,0
1347,5030001149457,新規,0,2022-08-03,2022-08-03,ＰＵＲＰＲＩＳＥ株式会社,,株式会社,埼玉県,比企郡嵐山町,大字菅谷７番地２,,11,342,3550221,,,,,,,2022-08-03,1,,,,,パープライズ,0
1348,5030001149481,新規,0,2022-08-03,2022-08-03,株式会社Ｗａｎｂｌｅｍ,,株式会社,埼玉県,熊谷市,円光１丁目１番３３号,,11,202,3600813,,,,,,,2022-08-03,1,,,,,ワンブレム,0
1360,5040001124450,新規,0,2022-08-03,2022-08-03,株式会社タイコー,,株式会社,千葉県,山武市,木原２２１番地１,,12,237,2891212,,,,,,,2022-08-03,1,,,,,タイコー,0
1361,5040001124491,新規,0,2022-08-03,2022-08-03,株式会社ＭＩＫＡＴＡ,,株式会社,千葉県,松戸市,高塚新田１２８－２－１－８－２０１,,12,207,2702222,,,,,,,2022-08-03,1,,,,,ミカタ,0
1362,5040001124500,新規,0,2022-08-03,2022-08-03,勝家株式会社,,株式会社,千葉県,印西市,鹿黒南５丁目３番地１,,12,231,2701369,,,,,,,2022-08-03,1,,,,,ショウケ,0
1366,5040003020557,新規,0,2022-08-03,2022-08-03,合同会社あんなかどうぶつ病院,,合同会社,千葉県,流山市,前平井１７７－１プロシードＴＸ流山セントラルパーク店舗０００２,,12,220,2700152,,,,,,,2022-08-03,1,,,,,アンナカドウブツビョウイン,0
1370,5050001051479,新規,0,2022-08-03,2022-08-03,株式会社シャキーホールディングス,,株式会社,茨城県,水戸市,吉沢町７９０番地の１２,,08,201,3100845,,,,,,,2022-08-03,1,,,,,シャキーホールディングス,0
1372,5060001035126,新規,0,2022-08-03,2022-08-03,株式会社Ｂ＆Ｂ　Ｂｅｉｊａ‐ｆｌｏｒ,,株式会社,栃木県,佐野市,大橋町２０７８番地アラキビル１０１,,09,204,3270003,,,,,,,2022-08-03,1,,,,,ビーアンドビーベイジャフロー,0
1373,5060001035142,新規,0,2022-08-03,2022-08-03,株式会社寺内動物病院,,株式会社,栃木県,塩谷郡高根沢町,大字石末２０３１番地,,09,386,3291225,,,,,,,2022-08-03,1,,,,,テラウチドウブツビョウイン,0
1374,5060005010001,新規,0,2022-08-03,2022-08-03,一般社団法人栃木県相続支援協会,,その他の設立登記法人,栃木県,宇都宮市,宿郷１丁目１９番１７号パースレジデンス宿郷２Ｆ,,09,201,3210945,,,,,,,2022-08-03,1,,,,,トチギケンソウゾクシエンキョウカイ,0
1375,5070001039480,新規,0,2022-08-03,2022-08-03,株式会社天狗山リゾート開発,,株式会社,群馬県,吾妻郡草津町,大字草津字白根４６４番地２７,,10,426,3771711,,,,,,,2022-08-03,1,,,,,テングヤマリゾートカイハツ,0
1376,5080001025109,新規,0,2022-08-03,2022-08-03,株式会社泉,,株式会社,静岡県,静岡市葵区,有永町２２番６０号,,22,101,4200969,,,,,,,2022-08-03,1,,,,,イズミ,0
1378,5080005007474,新規,0,2022-08-03,2022-08-03,社会福祉法人のんのん英育会,,その他の設立登記法人,静岡県,島田市,御仮屋町８８４９番地の１,,22,209,4270053,,,,,,,2022-08-03,1,,,,,ノンノンエイイクカイ,0
1386,5100001035583,新規,0,2022-08-03,2022-08-03,株式会社ＺｅＬｏ　Ａｖａｎｄｅ,,株式会社,長野県,松本市,深志２丁目２番６号加納ビル,,20,202,3900815,,,,,,,2022-08-03,1,,,,,ゼロアバンデ,0
1390,5110003004833,新規,0,2022-08-03,2022-08-03,合同会社ＢｌｕｅＷａｌｌｅｔ,,合同会社,新潟県,見附市,市野坪町２－５０－１,,15,211,9540083,,,,,,,2022-08-03,1,,,,,ブルーウォレット,0
1403,5120001247879,新規,0,2022-08-03,2022-08-03,源田秋業株式会社,,株式会社,大阪府,大阪市東成区,深江北３丁目４番２１号エクラ深江橋１１０Ｂ,,27,115,5370001,,,,,,,2022-08-03,1,,,,,ゲンダシュウギョウ,0
1406,5120101065999,新規,0,2022-08-03,2022-08-03,株式会社ＦＲＳＫ,,株式会社,大阪府,堺市西区,鳳中町１０丁６番１号パレス竹ヶ城１Ｃ号,,27,144,5938327,,,,,,,2022-08-03,1,,,,,エフアールエスケー,0
1407,5120101066023,新規,0,2022-08-03,2022-08-03,株式会社ピース,,株式会社,大阪府,河内長野市,北青葉台４番２号,,27,216,5860068,,,,,,,2022-08-03,1,,,,,ピース,0
1409,5120103004807,新規,0,2022-08-03,2022-08-03,合同会社ゼストワン,,合同会社,大阪府,南河内郡河南町,大字神山４８６－１３,,27,382,5850034,,,,,,,2022-08-03,1,,,,,ゼストワン,0
1412,5120901013348,新規,0,2022-08-03,2022-08-03,大楠住宅株式会社,,株式会社,大阪府,茨木市,駅前４丁目７番１７号,,27,211,5670888,,,,,,,2022-08-03,1,,,,,ダイナンジュウタク,0
1413,5120901046323,新規,0,2022-08-03,2022-08-03,株式会社ＫＯＫＩＴＡ,,株式会社,大阪府,池田市,呉服町６番１３号,,27,204,5630048,,,,,,,2022-08-03,1,,,,,コキタ,0
1417,5122001036122,新規,0,2022-08-03,2022-08-03,株式会社グランテック,,株式会社,大阪府,四條畷市,岡山東２丁目６番７号,,27,229,5750003,,,,,,,2022-08-03,1,,,,,グランテック,0
1418,5122001036130,新規,0,2022-08-03,2022-08-03,株式会社ＮＩＣＥ　ＯＮＥ,,株式会社,大阪府,柏原市,大字高井田１５７２番地の５,,27,221,5820015,,,,,,,2022-08-03,1,,,,,ナイスワン,0
1422,5130001072319,新規,0,2022-08-03,2022-08-03,株式会社吉田管理,,株式会社,京都府,福知山市,前田新町５２番地,,26,201,6200866,,,,,,,2022-08-03,1,,,,,ヨシダカンリ,0
1423,5130001072343,新規,0,2022-08-03,2022-08-03,株式会社ＭＩＲＡＩＺＥ,,株式会社,京都府,京都市山科区,大宅中小路町３５－３,,26,110,6078176,,,,,,,2022-08-03,1,,,,,ミライズ,0
1426,5130005016544,新規,0,2022-08-03,2022-08-03,特定非営利活動法人けいはんなアバターチャレンジ,,その他の設立登記法人,京都府,相楽郡精華町,光台２丁目２番地２,,26,366,6190237,,,,,,,2022-08-03,1,,,,,ケイハンナアバターチャレンジ,0
1432,5140001126965,新規,0,2022-08-03,2022-08-03,株式会社ｆｒｅｅｄｏｍ,,株式会社,兵庫県,神戸市中央区,磯上通８丁目１番２９号,,28,110,6510086,,,,,,,2022-08-03,1,,,,,フリーダム,0
1433,5140001126973,新規,0,2022-08-03,2022-08-03,ＰＯＲＴＢＡＣＫ株式会社,,株式会社,兵庫県,神戸市中央区,海岸通５番地,,28,110,6500024,,,,,,,2022-08-03,1,,,,,ポートバック,0
1435,5140003017989,新規,0,2022-08-03,2022-08-03,合同会社けりーな企画,,合同会社,兵庫県,姫路市,仁豊野９４３番地２０３,,28,201,6700801,,,,,,,2022-08-03,1,,,,,ケリーナキカク,0
1436,5140003018005,新規,0,2022-08-03,2022-08-03,合同会社ＫＥＮＴＡＲＯ,,合同会社,兵庫県,宝塚市,寿楽荘１１―１２,,28,214,6650012,,,,,,,2022-08-03,1,,,,,ケンタロ,0
1446,5180001152405,新規,0,2022-08-03,2022-08-03,株式会社リチースト,,株式会社,愛知県,名古屋市中区,千代田２丁目２５－１３－８０５,,23,106,4600012,,,,,,,2022-08-03,1,,,,,リチースト,0
1447,5180001152438,新規,0,2022-08-03,2022-08-03,株式会社ＬｅＡｄ　Ｏｆｆ,,株式会社,愛知県,名古屋市北区,三軒町１３７番地の４,,23,103,4620004,,,,,,,2022-08-03,1,,,,,リードオフ,0
1448,5180001152462,新規,0,2022-08-03,2022-08-03,株式会社ＭＩコンサルティング,,株式会社,愛知県,名古屋市東区,葵３丁目２３番３号第１４オーシャンビル,,23,102,4610004,,,,,,,2022-08-03,1,,,,,エムアイコンサルティング,0
1450,5180301036489,新規,0,2022-08-03,2022-08-03,株式会社ＳＣＲＡＴＣＨＨ,,株式会社,愛知県,岡崎市,羽根北町４丁目３番地５,,23,202,4440831,,,,,,,2022-08-03,1,,,,,スクラッチ,0
1459,5200005013369,新規,0,2022-08-03,2022-08-03,一般社団法人養老町シルバー人材センター,,その他の設立登記法人,岐阜県,養老郡養老町,高田７９番地２養老町老人福祉センター内,,21,341,5031314,,,,,,,2022-08-03,1,,,,,ヨウロウチョウシルバージンザイセンター,0
1460,5210001019030,新規,0,2022-08-03,2022-08-03,株式会社クオル出版,,株式会社,福井県,福井市,足羽２丁目１９番１１号,,18,201,9188007,,,,,,,2022-08-03,1,,,,,クオルシュッパン,0
1468,5240005015428,新規,0,2022-08-03,2022-08-03,一般社団法人広島県相続支援協会,,その他の設立登記法人,広島県,広島市西区,草津本町２４番３号１階,,34,104,7330865,,,,,,,2022-08-03,1,,,,,ヒロシマケンソウゾクシエンキョウカイ,0
1481,5290001098439,新規,0,2022-08-03,2022-08-03,株式会社ｂｅｓｔＵＮＩＴ,,株式会社,福岡県,春日市,春日原北町３丁目２３－４０１号,,40,218,8160802,,,,,,,2022-08-03,1,,,,,ベストユニット,0
1482,5290001098455,新規,0,2022-08-03,2022-08-03,株式会社メイフェア,,株式会社,福岡県,大牟田市,大字橘１５８番地１,,40,202,8370911,,,,,,,2022-08-03,1,,,,,メイフェア,0
1483,5290001098471,新規,0,2022-08-03,2022-08-03,株式会社アンドＦ,,株式会社,福岡県,嘉麻市,上臼井３２８番地１,,40,227,8200502,,,,,,,2022-08-03,1,,,,,アンドエフ,0
1488,5290801028784,新規,0,2022-08-03,2022-08-03,株式会社永島ホールディングス,,株式会社,福岡県,北九州市門司区,西海岸２丁目３番２７－２１０号,,40,101,8010841,,,,,,,2022-08-03,1,,,,,ナガシマホールディングス,0
1499,5330003009471,新規,0,2022-08-03,2022-08-03,リレーポイント合同会社,,合同会社,熊本県,熊本市中央区,中央街４－２２アルバ銀座通りビル２Ｆ,,43,101,8600802,,,,,,,2022-08-03,1,,,,,リレーポイント,0
1500,5340001024934,新規,0,2022-08-03,2022-08-03,株式会社ＡＵＢＥ,,株式会社,鹿児島県,鹿児島市,武２丁目１４番２７－１４０１号,,46,201,8900045,,,,,,,2022-08-03,1,,,,,オウブ,0
1501,5350001017887,新規,0,2022-08-03,2022-08-03,株式会社真和環境,,株式会社,宮崎県,西都市,大字三宅２４４５番地１２,,45,208,8810005,,,,,,,2022-08-03,1,,,,,シンワカンキョウ,0
1512,5370001048880,新規,0,2022-08-03,2022-08-03,ニュースカイグローバル株式会社,,株式会社,宮城県,仙台市宮城野区,宮千代３丁目１番７号,,04,102,9830044,,,,,,,2022-08-03,1,,,,,ニュースカイグローバル,0
1550,5450001013760,新規,0,2022-08-03,2022-08-03,株式会社アシストはた建設,,株式会社,北海道,名寄市,東四条南４丁目６番地１,,01,221,0960004,,,,,,,2022-08-03,1,,,,,アシストハタケンセツ,0
1551,5450003002233,新規,0,2022-08-03,2022-08-03,合同会社大家アニメート,,合同会社,北海道,旭川市,末広六条１１丁目５番２号,,01,204,0718136,,,,,,,2022-08-03,1,,,,,オオヤアニメート,0
1559,5500001024364,新規,0,2022-08-03,2022-08-03,株式会社ｗｉｌｌａｔｅ,,株式会社,愛媛県,宇和島市,川内甲１９２１番地７,,38,203,7980075,,,,,,,2022-08-03,1,,,,,ウィルエイト,0
1564,5500003002871,新規,0,2022-08-03,2022-08-03,合同会社チームイズム,,合同会社,愛媛県,松山市,今在家４丁目１５番２５号,,38,201,7911106,,,,,,,2022-08-03,1,,,,,チームイズム,0
1565,5700150110093,新規,0,2022-08-03,2022-06-20,水村美咲映画製作委員会,,その他,東京都,北区,上十条１丁目４－１０カメリアガーデン３０３,,13,117,1140034,,,,,,,2022-06-20,1,,,,,ミズムラミサキエイガセイサクイインカイ,0
1581,6010001228451,新規,0,2022-08-03,2022-08-03,さんほれ株式会社,,株式会社,東京都,千代田区,神田佐久間町３丁目２１－４０１,,13,101,1010025,,,,,,,2022-08-03,1,,,,,サンホレ,0
1582,6010001228476,新規,0,2022-08-03,2022-08-03,株式会社エムズフォレスト,,株式会社,東京都,中央区,日本橋中洲１番５浜町グランドハイツ２０７号,,13,102,1030008,,,,,,,2022-08-03,1,,,,,エムズフォレスト,0
1583,6010001228492,新規,0,2022-08-03,2022-08-03,株式会社銀座ＡＣＥ,,株式会社,東京都,中央区,銀座５丁目１４番１６号銀座アビタシオンビル４０５,,13,102,1040061,,,,,,,2022-08-03,1,,,,,,0
1584,6010001228501,新規,0,2022-08-03,2022-08-03,ファクトリアル・ジャパン株式会社,,株式会社,東京都,中央区,日本橋３丁目９番１号日本橋三丁目スクエア１１階,,13,102,1030027,,,,,,,2022-08-03,1,,,,,ファクトリアルジャパン,0
1585,6010001228559,新規,0,2022-08-03,2022-08-03,株式会社コアオプトテクノロジー,,株式会社,東京都,千代田区,岩本町２丁目１３番６号,,13,101,1010032,,,,,,,2022-08-03,1,,,,,,0
1589,6010101015279,新規,0,2022-08-03,2022-08-03,株式会社大生,,株式会社,東京都,八王子市,万町８２番地１,,13,201,1920903,,,,,,,2022-08-03,1,,,,,タイセイ,0
1597,6010401168818,新規,0,2022-08-03,2022-08-03,株式会社インターキューブホールディングス,,株式会社,東京都,港区,港南２丁目１５番３号,,13,103,1080075,,,,,,,2022-08-03,1,,,,,インターキューブホールディングス,0
1598,6010401168826,新規,0,2022-08-03,2022-08-03,株式会社Ｎｅｘｔｒｅｋ,,株式会社,東京都,港区,新橋４丁目１番１号,,13,103,1050004,,,,,,,2022-08-03,1,,,,,ネクストレック,0
1599,6010401168842,新規,0,2022-08-03,2022-08-03,株式会社Ｌｅａｄｏｎ,,株式会社,東京都,港区,南青山２丁目２番１５号,,13,103,1070062,,,,,,,2022-08-03,1,,,,,リードオン,0
1600,6010401168850,新規,0,2022-08-03,2022-08-03,株式会社ｈａｌｌｏｗ,,株式会社,東京都,港区,芝５丁目１２－１５ＫＮビル２階,,13,103,1080014,,,,,,,2022-08-03,1,,,,,ハロウ,0
1601,6010401168875,新規,0,2022-08-03,2022-08-03,全日空商事ダリアリーシング株式会社,,株式会社,東京都,港区,東新橋１丁目５番２号,,13,103,1050021,,,,,,,2022-08-03,1,,,,,ゼンニックウショウジダリアリーシング,0
1603,6010403028177,新規,0,2022-08-03,2022-08-03,合同会社Ｓ２ＤＩＯ,,合同会社,東京都,港区,浜松町２丁目２番１５号浜松町ダイヤビル２Ｆ,,13,103,1050013,,,,,,,2022-08-03,1,,,,,エスツーディオ,0
1609,6010601061590,新規,0,2022-08-03,2022-08-03,株式会社山川,,株式会社,東京都,江東区,亀戸２丁目３６番１２号,,13,108,1360071,,,,,,,2022-08-03,1,,,,,ヤマカワ,0
1611,6010603009670,新規,0,2022-08-03,2022-08-03,合同会社イーグル,,合同会社,東京都,江東区,南砂２丁目９－５,,13,108,1360076,,,,,,,2022-08-03,1,,,,,イーグル,0
1615,6010901051309,新規,0,2022-08-03,2022-08-03,ＧＲＹＰＨ　ＦＲＯＮＴＩＥＲ株式会社,,株式会社,東京都,世田谷区,世田谷１丁目４１番２号,,13,112,1540017,,,,,,,2022-08-03,1,,,,,グリフフロンティア,0
1616,6010901051341,新規,0,2022-08-03,2022-08-03,株式会社杏桜翠,,株式会社,東京都,世田谷区,上祖師谷１丁目１４番１号,,13,112,1570065,,,,,,,2022-08-03,1,,,,,コウミ,0
1625,6011001148870,新規,0,2022-08-03,2022-08-03,ＰＭ　ＣＬＯＵＤ株式会社,,株式会社,東京都,渋谷区,神宮前６丁目２３番４号桑野ビル２Ｆ,,13,113,1500001,,,,,,,2022-08-03,1,,,,,ピーエムクラウド,0
1626,6011001148887,新規,0,2022-08-03,2022-08-03,株式会社集中モード,,株式会社,東京都,渋谷区,神宮前１丁目１０番３４－４１０号,,13,113,1500001,,,,,,,2022-08-03,1,,,,,シュウチュウモード,0
1627,6011001148978,新規,0,2022-08-03,2022-08-03,株式会社ＥＹＥ‐ＬＥＴ,,株式会社,東京都,渋谷区,神宮前６丁目２３番４号桑野ビル２階,,13,113,1500001,,,,,,,2022-08-03,1,,,,,アイレット,0
1628,6011001148994,新規,0,2022-08-03,2022-08-03,株式会社ＭＡＬＵＩＣＨＩ,,株式会社,東京都,目黒区,駒場１丁目３９番１８号１階,,13,110,1530041,,,,,,,2022-08-03,1,,,,,マルイチ,0
1629,6011001149010,新規,0,2022-08-03,2022-08-03,株式会社モモ,,株式会社,東京都,渋谷区,神山町５番２０号ＺＩＮＥＹＯＹＯＧＩ－ＫＯＥＮ２Ｅ,,13,113,1500047,,,,,,,2022-08-03,1,,,,,モモ,0
1630,6011001149019,新規,0,2022-08-03,2022-08-03,ｂｅＦｒｉｅｎｄｚ株式会社,,株式会社,東京都,渋谷区,神南１丁目２３－１４リージャス渋谷公園通りビル１Ｆ,,13,113,1500041,,,,,,,2022-08-03,1,,,,,ビーフレンズ,0
1634,6011003015128,新規,0,2022-08-03,2022-08-03,合同会社ＫＡＮＡＤＥ,,合同会社,東京都,目黒区,下目黒４丁目１９番１４,,13,110,1530064,,,,,,,2022-08-03,1,,,,,カナデ,0
1635,6011101099766,新規,0,2022-08-03,2022-08-03,株式会社ライトローズ,,株式会社,東京都,新宿区,高田馬場２丁目１－１センテニアルタワー７０３,,13,104,1690075,,,,,,,2022-08-03,1,,,,,ライトローズ,0
1637,6011201024005,新規,0,2022-08-03,2022-08-03,株式会社ｅｌｌｅｎ,,株式会社,東京都,中野区,本町３丁目１２番１５号,,13,114,1640012,,,,,,,2022-08-03,1,,,,,エレン,0
1639,6011401024449,新規,0,2022-08-03,2022-08-03,株式会社ＵＮＩＴＥ,,株式会社,東京都,板橋区,板橋１丁目４８番１２号ＧＣＴビル７Ｆ,,13,119,1730004,,,,,,,2022-08-03,1,,,,,ユナイト,0
1649,6011801041093,新規,0,2022-08-03,2022-08-03,ＡＤＳ株式会社,,株式会社,東京都,葛飾区,青戸３丁目３７番１５号京成青戸ビル３Ｆ,,13,122,1250062,,,,,,,2022-08-03,1,,,,,エーディーエス,0
1650,6011803005204,新規,0,2022-08-03,2022-08-03,合同会社Ｎｏｔ　ｂａｄ　Ｉｎｃ．,,合同会社,東京都,足立区,東和３丁目１３番１－９２６号,,13,121,1200003,,,,,,,2022-08-03,1,,,,,ノットバッドインク,0
1653,6012701017183,新規,0,2022-08-03,2022-08-03,株式会社Ａｃｅ,,株式会社,東京都,西東京市,東伏見５丁目６番５号,,13,229,2020021,,,,,,,2022-08-03,1,,,,,エース,0
1654,6012703002506,新規,0,2022-08-03,2022-08-03,ＭＡＹＡ　ＩＮＶＥＮＴＩＶＥ合同会社,,合同会社,東京都,小平市,学園東町１丁目１６番３２号富士見荘１０３号,,13,211,1870043,,,,,,,2022-08-03,1,,,,,マヤインベンティブ,0
1671,6020001147535,新規,0,2022-08-03,2022-08-03,セントラル株式会社,,株式会社,神奈川県,横浜市南区,万世町２丁目２３番地１ポートヴィラＡＫ９０３号室,,14,105,2320032,,,,,,,2022-08-03,1,,,,,セントラル,0
1672,6020001147551,新規,0,2022-08-03,2022-08-03,株式会社Ｏｆｆｉｃｅ　Ｖｉｏｌｅｔｔａ,,株式会社,神奈川県,横浜市泉区,領家３丁目１４番地６,,14,116,2450004,,,,,,,2022-08-03,1,,,,,オフィスヴィオレッタ,0
1677,6020005015614,新規,0,2022-08-03,2022-08-03,特定非営利活動法人横浜エクセレンススポーツクラブ,,その他の設立登記法人,神奈川県,横浜市中区,真砂町２丁目２５番地関内中央ビル４階Ｋ４０２,,14,104,2310016,,,,,,,2022-08-03,1,,,,,ヨコハマエクセレンススポーツクラブ,0
1683,6021001076641,新規,0,2022-08-03,2022-08-03,株式会社トテソリゾ,,株式会社,神奈川県,藤沢市,鵠沼神明２丁目１２番２５－１０１号,,14,205,2510021,,,,,,,2022-08-03,1,,,,,トテソリゾ,0
1684,6021001076666,新規,0,2022-08-03,2022-08-03,株式会社徳長造園土木,00127415,株式会社,神奈川県,藤沢市,遠藤１５３５番地の１２,,14,205,2520816,,,,,,,2022-08-03,1,,,,,トクナガゾウエンドボク,0
1685,6021003012009,新規,0,2022-08-03,2022-08-03,合同会社Ｐａｔｈ　Ｂｅｉｎｇ,,合同会社,神奈川県,小田原市,西酒匂１丁目８－２７－５０９,,14,206,2560817,,,,,,,2022-08-03,1,,,,,パスビーイング,0
1688,6030003019905,新規,0,2022-08-03,2022-08-03,合同会社ＬＩＮＢＥＣＫ,,合同会社,埼玉県,川口市,芝樋ノ爪２丁目５番５ー３０３号,,11,203,3330852,,,,,,,2022-08-03,1,,,,,リンベック,0
1689,6030005020943,新規,0,2022-08-03,2022-08-03,特定非営利活動法人十人十色,,その他の設立登記法人,埼玉県,児玉郡神川町,大字渡瀬７４０番地１,,11,383,3670301,,,,,,,2022-08-03,1,,,,,ジュウニントイロ,0
1694,6040001124482,新規,0,2022-08-03,2022-08-03,太陽商事株式会社,,株式会社,千葉県,浦安市,鉄鋼通り１丁目４番５号,,12,227,2790025,,,,,,,2022-08-03,1,,,,,タイヨウショウジ,0
1695,6040001124499,新規,0,2022-08-03,2022-08-03,株式会社Ｙ’ｓ　ＯＮＥ,,株式会社,千葉県,野田市,光葉町３丁目２６番地の７リリーベルＡ,,12,208,2780057,,,,,,,2022-08-03,1,,,,,ワイズワン,0
1699,6050003006744,新規,0,2022-08-03,2022-08-03,リバースコンサルティング合同会社,,合同会社,茨城県,古河市,東本町３丁目９番４６号,,08,204,3060013,,,,,,,2022-08-03,1,,,,,リバースコンサルティング,0
1702,6060001035133,新規,0,2022-08-03,2022-08-03,株式会社とわ,,株式会社,栃木県,小山市,城北５丁目１０－１,,09,208,3230029,,,,,,,2022-08-03,1,,,,,トワ,0
1703,6060001035141,新規,0,2022-08-03,2022-08-03,株式会社ドローンクリエイティブサービス,,株式会社,栃木県,宇都宮市,竹下町６２２番地２６,,09,201,3213236,,,,,,,2022-08-03,1,,,,,ドローンクリエイティブサービス,0
1705,6070001039496,新規,0,2022-08-03,2022-08-03,株式会社Ｔ．Ｍカンパニー,,株式会社,群馬県,前橋市,千代田町５丁目１３番１号ＺＯＯＭ２１ビル２－Ａ,,10,201,3710022,,,,,,,2022-08-03,1,,,,,ティーエムカンパニー,0
1709,6080001025108,新規,0,2022-08-03,2022-08-03,株式会社ＩＤＥＡＬ　ＦＯＵＲ,,株式会社,静岡県,静岡市駿河区,下川原５丁目２０番８号,,22,102,4210113,,,,,,,2022-08-03,1,,,,,イデアルフォー,0
1715,6080101023457,新規,0,2022-08-03,2022-08-03,東静ガード株式会社,,株式会社,静岡県,富士宮市,杉田１１３０番地の１,,22,207,4180021,,,,,,,2022-08-03,1,,,,,トウセイガード,0
1718,6080401025979,新規,0,2022-08-03,2022-08-03,株式会社魚＿水産,00127407,株式会社,静岡県,御前崎市,池新田３４４８番地の１ヴィアレットＡ棟,,22,223,4371612,,,,,,,2022-08-03,1,,,,,ウオヒロスイサン,0
1719,6090001017707,新規,0,2022-08-03,2022-08-03,株式会社八ヶ岳むらはま工房,,株式会社,山梨県,北杜市,高根町東井出４９８６番地１４２７,,19,209,4080003,,,,,,,2022-08-03,1,,,,,ヤツガタケムラハマコウボウ,0
1721,6100001035582,新規,0,2022-08-03,2022-08-03,株式会社マルケン,,株式会社,長野県,北佐久郡軽井沢町,大字長倉２１１５番地１１７２,,20,321,3890111,,,,,,,2022-08-03,1,,,,,マルケン,0
1739,6120001247804,新規,0,2022-08-03,2022-08-03,藍山株式会社,,株式会社,大阪府,大阪市西成区,天下茶屋１丁目６番２１号,,27,122,5570014,,,,,,,2022-08-03,1,,,,,アイヤマ,0
1744,6120003022164,新規,0,2022-08-03,2022-08-03,合同会社３４５,,合同会社,大阪府,大阪市東住吉区,針中野３丁目２－２５グローハイツ針中野１０２号,,27,121,5460011,,,,,,,2022-08-03,1,,,,,ミヨコ,0
1748,6120101066006,新規,0,2022-08-03,2022-08-03,株式会社レアレア,,株式会社,大阪府,堺市西区,上野芝町３丁４番２０号ＴＫビル２０１,,27,144,5938301,,,,,,,2022-08-03,1,,,,,レアレア,0
1749,6120901046322,新規,0,2022-08-03,2022-08-03,株式会社Ｗｒｅｉｎ　Ｆｏｒｃｅ,,株式会社,大阪府,豊中市,長興寺北２丁目４番３１－３０１号,,27,203,5610875,,,,,,,2022-08-03,1,,,,,レインフォルス,0
1754,6122001036121,新規,0,2022-08-03,2022-08-03,株式会社ＴＡＣＳ,,株式会社,大阪府,東大阪市,若江南町４丁目２番２５号,,27,227,5780943,,,,,,,2022-08-03,1,,,,,タックス,0
1755,6122003002393,新規,0,2022-08-03,2022-08-03,合同会社ふるすぺっく,,合同会社,大阪府,東大阪市,荒本北２丁目２番３号,,27,227,5770011,,,,,,,2022-08-03,1,,,,,フルスペック,0
1757,6130001072326,新規,0,2022-08-03,2022-08-03,株式会社ｐｅａｃｅ　ｏｆ　ｍｉｎｄ,,株式会社,京都府,京都市東山区,林下町４２２番地２サンピアザ南棟２階,,26,105,6050062,,,,,,,2022-08-03,1,,,,,ピースオブマインド,0
1758,6130001072342,新規,0,2022-08-03,2022-08-03,株式会社ｃｈｉｒｏｌｉ,,株式会社,京都府,長岡京市,今里３丁目１－２５,,26,209,6170814,,,,,,,2022-08-03,1,,,,,チロリ,0
1763,6140001126931,新規,0,2022-08-03,2022-08-03,Ｏｆｆｉｃｅ　Ｍｉｔｓｕ株式会社,,株式会社,兵庫県,西宮市,木津山町６番２５号,,28,204,6620062,,,,,,,2022-08-03,1,,,,,オフィスミツ,0
1764,6140001126956,新規,0,2022-08-03,2022-08-03,株式会社ハマー,,株式会社,兵庫県,神戸市垂水区,学が丘１丁目１９番１６号,,28,108,6550004,,,,,,,2022-08-03,1,,,,,ハマー,0
1765,6140001126964,新規,0,2022-08-03,2022-08-03,パッセ株式会社,,株式会社,兵庫県,神戸市中央区,山本通１丁目７番１５号２階,,28,110,6500003,,,,,,,2022-08-03,1,,,,,パッセ,0
1766,6140001126972,新規,0,2022-08-03,2022-08-03,株式会社フォレスト,,株式会社,兵庫県,芦屋市,新浜町７－１２－３０６,,28,206,6590031,,,,,,,2022-08-03,1,,,,,フォレスト,0
1768,6140003017963,新規,0,2022-08-03,2022-08-03,合同会社オメガ,,合同会社,兵庫県,芦屋市,六麗荘町１１番５号,,28,206,6590000,,,,,,,2022-08-03,1,,,,,オメガ,0
1769,6140003018004,新規,0,2022-08-03,2022-08-03,合同会社シトラスグリーン,,合同会社,兵庫県,神戸市長田区,久保町６丁目１番１号アスタくにづか４番館２０２,,28,106,6530041,,,,,,,2022-08-03,1,,,,,シトラスグリーン,0
1771,6150001025728,新規,0,2022-08-03,2022-08-03,日本吉屋株式会社,,株式会社,奈良県,高市郡高取町,大字観覚寺９２３番地１,,29,401,6350154,,,,,,,2022-08-03,1,,,,,ニホンヨシヤ,0
1772,6150001025736,新規,0,2022-08-03,2022-08-03,東建設株式会社,,株式会社,奈良県,大和高田市,幸町３番３－６２０号,,29,202,6350015,,,,,,,2022-08-03,1,,,,,アズマケンセツ,0
1785,6180001152387,新規,0,2022-08-03,2022-08-03,株式会社ＮＮＫ,,株式会社,愛知県,名古屋市南区,南野３丁目１８５番地,,23,112,4570068,,,,,,,2022-08-03,1,,,,,エヌエヌケイ,0
1786,6180001152412,新規,0,2022-08-03,2022-08-03,株式会社ＤＥＳＩＧＮ　ＬＩＮＫＳ,,株式会社,愛知県,名古屋市中区,丸の内３丁目４番１２号,,23,106,4600002,,,,,,,2022-08-03,1,,,,,デザインリンクス,0
1787,6180001152429,新規,0,2022-08-03,2022-08-03,株式会社ＡＲＫＬＥＴ,,株式会社,愛知県,名古屋市千種区,池園町２丁目１３ヒルハウス２　１０１,,23,101,4640818,,,,,,,2022-08-03,1,,,,,アークレット,0
1794,6190001029659,新規,0,2022-08-03,2022-08-03,株式会社フォレストホールディングス,,株式会社,三重県,伊勢市,中島２丁目１番２４号,,24,203,5160067,,,,,,,2022-08-03,1,,,,,フォレストホールディングス,0
1795,6190003004049,新規,0,2022-08-03,2022-08-03,合同会社Ｋ’ｓ　Ｌａｂ．,,合同会社,三重県,松阪市,豊原町３１９番地９,,24,204,5150205,,,,,,,2022-08-03,1,,,,,ケーズラボ,0
1800,6240001060162,新規,0,2022-08-03,2022-08-03,ＳｅｃｏｎｄＨａｎｄ株式会社,,株式会社,広島県,江田島市,江田島町切串３丁目２１番１２号,,34,215,7372111,,,,,,,2022-08-03,1,,,,,セカンドハンド,0
1801,6240001060187,新規,0,2022-08-03,2022-08-03,株式会社マアス,,株式会社,広島県,広島市南区,出島２丁目２番１８号,,34,103,7340013,,,,,,,2022-08-03,1,,,,,マアス,0
1805,6240003005743,新規,0,2022-08-03,2022-08-03,合同会社善恵,,合同会社,広島県,広島市東区,山根町３９番１２号,,34,102,7320048,,,,,,,2022-08-03,1,,,,,ゼンケイ,0
1808,6250001019694,新規,0,2022-08-03,2022-08-03,株式会社Ｐａｒａｃｒａｆ,,株式会社,山口県,下関市,山の田本町１８番２８号,,35,201,7510838,,,,,,,2022-08-03,1,,,,,パラクラフ,0
1818,6280001008760,新規,0,2022-08-03,2022-08-03,株式会社共栄工業,,株式会社,島根県,松江市,上乃木５丁目１０－３５,,32,201,6900015,,,,,,,2022-08-03,1,,,,,キョウエイコウギョウ,0
1823,6290001098421,新規,0,2022-08-03,2022-08-03,ｅｔｒａ株式会社,,株式会社,福岡県,福岡市中央区,春吉２丁目９番１号ファロディハルヨシＩＩ６０３,00127405,40,133,8100003,,,,,,,2022-08-03,1,,,,,エトラ,0
1824,6290001098462,新規,0,2022-08-03,2022-08-03,株式会社ピースマシナリー,,株式会社,福岡県,久留米市,白山町５６５番地２－４０３号,,40,203,8300041,,,,,,,2022-08-03,1,,,,,ピースマシナリー,0
1825,6290003012792,新規,0,2022-08-03,2022-08-03,ＲＣＰソリューションズ合同会社,,合同会社,福岡県,福岡市南区,向野２丁目１０番２５号,,40,134,8150035,,,,,,,2022-08-03,1,,,,,アールシーピーソリューションズ,0
1827,6290005018763,新規,0,2022-08-03,2022-08-03,行政書士法人淺上法務事務所,,その他の設立登記法人,福岡県,福岡市東区,千早３丁目９番２３号,,40,131,8130044,,,,,,,2022-08-03,1,,,,,アサガミホウムジムショ,0
1828,6290801028783,新規,0,2022-08-03,2022-08-03,ｏｔｏｋｕｒａ株式会社,,株式会社,福岡県,北九州市八幡西区,別所町１６番９号,,40,109,8060068,,,,,,,2022-08-03,1,,,,,オトクラ,0
1829,6290801028791,新規,0,2022-08-03,2022-08-03,株式会社エムアールシー,,株式会社,福岡県,北九州市八幡西区,御開３丁目５番８－２０３号,,40,109,8070806,,,,,,,2022-08-03,1,,,,,エムアールシー,0
1831,6310001017972,新規,0,2022-08-03,2022-08-03,株式会社ＹＡＳ設備設計,,株式会社,長崎県,佐世保市,赤崎町１４６３番地１１,,42,202,8570064,,,,,,,2022-08-03,1,,,,,ワイエーエスセツビセッケイ,0
1832,6310001017980,新規,0,2022-08-03,2022-08-03,株式会社ＳｉｌｖｅｒＬｅａｆ,,株式会社,長崎県,長崎市,出島町２－１１出島交流会館８Ｆ,,42,201,8500862,,,,,,,2022-08-03,1,,,,,シルバーリーフ,0
1840,6350001017886,新規,0,2022-08-03,2022-08-03,株式会社一孝,,株式会社,宮崎県,宮崎市,大字小松９０４番地１,,45,201,8802112,,,,,,,2022-08-03,1,,,,,イッコウ,0
1842,6360003012208,新規,0,2022-08-03,2022-08-03,合同会社Ｓｎｏｗｆｌａｋｅ,,合同会社,沖縄県,宜野湾市,嘉数４丁目２８番９号,,47,205,9012226,,,,,,,2022-08-03,1,,,,,スノーフレーク,0
1845,6370001048896,新規,0,2022-08-03,2022-08-03,株式会社Ｌｅａｐｎｅｓ,,株式会社,宮城県,栗原市,高清水桜丁１４番４,,04,213,9872133,,,,,,,2022-08-03,1,,,,,リープネス,0
1857,6400001015959,新規,0,2022-08-03,2022-08-03,株式会社３３３,,株式会社,岩手県,滝沢市,鵜飼大緩３９番地１０,,03,216,0200662,,,,,,,2022-08-03,1,,,,,スリーピース,0
1865,6430001087186,新規,0,2022-08-03,2022-08-03,菊地電設株式会社,,株式会社,北海道,札幌市東区,東苗穂十三条４丁目１１番１８号,,01,103,0070813,,,,,,,2022-08-03,1,,,,,キクチデンセツ,0
1871,6460001005723,新規,0,2022-08-03,2022-08-03,株式会社井上建装,,株式会社,北海道,釧路市,若松町１７番１１号クレイトンハウスＳ１０２号,,01,206,0850033,,,,,,,2022-08-03,1,,,,,イノウエケンソウ,0
1879,6500001024371,新規,0,2022-08-03,2022-08-03,株式会社ＫＣＳ,,株式会社,愛媛県,伊予市,１１３１番地１,,38,210,7993100,,,,,,,2022-08-03,1,,,,,ケーシーエス,0
1882,6700150049694,新規,0,2022-08-03,2015-10-09,小松東ロ－タリ－クラブ,,その他,石川県,小松市,日の出町４丁目９３ホテルビナリオＫＯＭＡＴＳＵセントレ　３Ｆ,,17,203,9230868,,,,,,,2015-10-09,1,,,,,コマツヒガシロータリークラブ,0
1887,7010001228426,新規,0,2022-08-03,2022-08-03,聖峰株式会社,,株式会社,東京都,中央区,入船１丁目９番８号ピエノアーク入船ビル３０３,,13,102,1040042,,,,,,,2022-08-03,1,,,,,セイホウ,0
1888,7010001228450,新規,0,2022-08-03,2022-08-03,ネクサス株式会社,,株式会社,東京都,中央区,日本橋小舟町８番１３号,,13,102,1030024,,,,,,,2022-08-03,1,,,,,ネクサス,0
1902,7010401168750,新規,0,2022-08-03,2022-08-03,株式会社ＺｅｒｏＯｎｅ,,株式会社,東京都,港区,新橋３丁目４番１０号,,13,103,1050004,,,,,,,2022-08-03,1,,,,,ゼロワン,0
1903,7010401168825,新規,0,2022-08-03,2022-08-03,かしましか株式会社,,株式会社,東京都,港区,白金台２丁目１９番３号,,13,103,1080071,,,,,,,2022-08-03,1,,,,,カシマシカ,0
1904,7010401168841,新規,0,2022-08-03,2022-08-03,株式会社ＨＡＰＰＹ　ＤＲＥＡＭ,,株式会社,東京都,港区,西麻布２丁目２５－２５リクレイシア西麻布２番館１２０３,,13,103,1060031,,,,,,,2022-08-03,1,,,,,ハッピードリーム,0
1905,7010403028201,新規,0,2022-08-03,2022-08-03,合同会社ミッドキャッスルリーシング,,合同会社,東京都,港区,六本木６丁目１０番１号六本木ヒルズ森タワー,,13,103,1060032,,,,,,,2022-08-03,1,,,,,ミッドキャッスルリーシング,0
1908,7010601061598,新規,0,2022-08-03,2022-08-03,アドート株式会社,,株式会社,東京都,江東区,富岡１丁目２２番２４号門前仲町レジデンス参番館１０１,,13,108,1350047,,,,,,,2022-08-03,1,,,,,アドート,0
1910,7010603009661,新規,0,2022-08-03,2022-08-03,ＲＩＴＺ　ＭＯＯＮ合同会社,,合同会社,東京都,江東区,門前仲町２丁目２－１５大竹ビル３０３,,13,108,1350048,,,,,,,2022-08-03,1,,,,,リッズムーン,0
1911,7010605004108,新規,0,2022-08-03,2022-08-03,一般社団法人全国軽貨物協会,,その他の設立登記法人,東京都,墨田区,錦糸１丁目２番１号アルカセントラル１４階,,13,107,1300013,,,,,,,2022-08-03,1,,,,,ゼンコクケイカモツキョウカイ,0
1933,7011101099699,新規,0,2022-08-03,2022-08-03,財經株式会社,,株式会社,東京都,新宿区,四谷４丁目２４番１６号,,13,104,1600004,,,,,,,2022-08-03,1,,,,,ザイケイ,0
1934,7011101099724,新規,0,2022-08-03,2022-08-03,Ｋａｎｄｊｉ　Ｊａｐａｎ株式会社,,株式会社,東京都,新宿区,西新宿３丁目３番１３号西新宿水間ビル６Ｆ,,13,104,1600023,,,,,,,2022-08-03,1,,,,,カンジジャパン,0
1942,7011301027996,新規,0,2022-08-03,2022-08-03,株式会社葵,,株式会社,東京都,杉並区,方南１丁目２３番地６号,,13,115,1680062,,,,,,,2022-08-03,1,,,,,アオイ,0
1944,7011403003739,新規,0,2022-08-03,2022-08-03,Ｐａｔｉｎａ　Ｃｏｍｐａｎｙ合同会社,,合同会社,東京都,板橋区,成増３丁目２０番１６号,,13,119,1750094,,,,,,,2022-08-03,1,,,,,パティナカンパニー,0
1945,7011501028349,新規,0,2022-08-03,2022-08-03,東昇実業株式会社,,株式会社,東京都,荒川区,南千住３丁目２７－２浅草ビル５０８号室,,13,118,1160003,,,,,,,2022-08-03,1,,,,,トウショウジツギョウ,0
1949,7011803005211,新規,0,2022-08-03,2022-08-03,合同会社金藤,,合同会社,東京都,足立区,神明２丁目１１番８－１０５号,,13,121,1210051,,,,,,,2022-08-03,1,,,,,カネフジ,0
1955,7012703002505,新規,0,2022-08-03,2022-08-03,新成合同会社,,合同会社,東京都,小平市,小川町２丁目１３３７,,13,211,1870032,,,,,,,2022-08-03,1,,,,,シンセイ,0
1964,7013301049459,新規,0,2022-08-03,2022-08-03,株式会社達隆,,株式会社,東京都,豊島区,高田３丁目３番２２－１０５号,,13,116,1710033,,,,,,,2022-08-03,1,,,,,タツリュウ,0
1974,7020001147550,新規,0,2022-08-03,2022-08-03,株式会社ｙ＆ｙ,,株式会社,神奈川県,川崎市宮前区,犬蔵３丁目１３番２２号,,14,136,2160011,,,,,,,2022-08-03,1,,,,,ワイアンドワイ,0
1975,7020001147575,新規,0,2022-08-03,2022-08-03,株式会社ＹＭＧ,,株式会社,神奈川県,横浜市青葉区,市ケ尾町５４２番地３４,,14,117,2250024,,,,,,,2022-08-03,1,,,,,ワイエムジー,0
1978,7020003022181,新規,0,2022-08-03,2022-08-03,ｍｏｎｂｕｒａｎ合同会社,,合同会社,神奈川県,横浜市鶴見区,小野町１４番地１０４－１０６号,,14,101,2300046,,,,,,,2022-08-03,1,,,,,モンブラン,0
1981,7021001076640,新規,0,2022-08-03,2022-08-03,株式会社興健,,株式会社,神奈川県,厚木市,温水西１丁目４番２５号ハイツ小麦１０２,,14,212,2430039,,,,,,,2022-08-03,1,,,,,コウケン,0
1982,7021001076657,新規,0,2022-08-03,2022-08-03,株式会社湘南ウッドロード,,株式会社,神奈川県,中郡二宮町,二宮２２１４番地の１６,,14,342,2590123,,,,,,,2022-08-03,1,,,,,ショウナンウッドロード,0
1983,7021001076665,新規,0,2022-08-03,2022-08-03,株式会社植喜代,,株式会社,神奈川県,茅ヶ崎市,南湖２丁目９番１０号,,14,207,2530061,,,,,,,2022-08-03,1,,,,,ウエキヨ,0
1984,7021001076681,新規,0,2022-08-03,2022-08-03,株式会社アンドディ,,株式会社,神奈川県,茅ヶ崎市,香川６丁目１６番２４号,,14,207,2530082,,,,,,,2022-08-03,1,,,,,アンドディ,0
1986,7021005012583,新規,0,2022-08-03,2022-08-03,一般社団法人産後セラピー協会,,その他の設立登記法人,神奈川県,藤沢市,藤沢９７６番地６湘南ビル４階,,14,205,2510052,,,,,,,2022-08-03,1,,,,,サンゴセラピーキョウカイ,0
2000,7040001124515,新規,0,2022-08-03,2022-08-03,Ｏ３Ｌｉｆｅ株式会社,,株式会社,千葉県,船橋市,薬円台１丁目５番３号プレミールサザエ２０６号,,12,204,2740077,,,,,,,2022-08-03,1,,,,,オースリーライフ,0
2001,7040001124548,新規,0,2022-08-03,2022-08-03,ＴＫＣ株式会社,,株式会社,千葉県,船橋市,飯山満町２丁目４８１番地２６ノーブルコートＩ－１０５号,00127406,12,204,2740822,,,,,,,2022-08-03,1,,,,,ティーケーシー,0
2005,7040003020530,新規,0,2022-08-03,2022-08-03,合同会社ＭＩＹＡＢＩ,,合同会社,千葉県,木更津市,羽鳥野５丁目１番地３,,12,206,2920819,,,,,,,2022-08-03,1,,,,,ミヤビ,0
2006,7040003020539,新規,0,2022-08-03,2022-08-03,Ｔｒｕｎｋ合同会社,,合同会社,千葉県,浦安市,明海６丁目１番１０号パークシティグランデ新浦安トレードポート２階,,12,227,2790014,,,,,,,2022-08-03,1,,,,,トランク,0
2007,7040005021691,新規,0,2022-08-03,2022-08-03,特定非営利活動法人スマートアクセシビリティ,,その他の設立登記法人,千葉県,千葉市美浜区,中瀬１丁目３番地幕張テクノガーデンＣＢ棟ＭＢＰ,,12,106,2610023,,,,,,,2022-08-03,1,,,,,スマートアクセシビリティ,0
2015,7060001035140,新規,0,2022-08-03,2022-08-03,株式会社ナオトモ,,株式会社,栃木県,下都賀郡野木町,大字丸林３９８番地８マロード３階,,09,364,3290111,,,,,,,2022-08-03,1,,,,,ナオトモ,0
2016,7060001035149,新規,0,2022-08-03,2022-08-03,カミフク板金株式会社,,株式会社,栃木県,日光市,土沢１８８２番地１エクセレント藤和Ａ－１０１,,09,206,3211274,,,,,,,2022-08-03,1,,,,,カミフクバンキン,0
2021,7070001039495,新規,0,2022-08-03,2022-08-03,株式会社ｍｏｄｅｓｔｙ,,株式会社,群馬県,高崎市,菅谷町８２７番地２,,10,202,3703522,,,,,,,2022-08-03,1,,,,,モデスティー,0
2026,7080001025107,新規,0,2022-08-03,2022-08-03,株式会社ブリキック,,株式会社,静岡県,牧之原市,東萩間２３３８番地４６,,22,226,4210501,,,,,,,2022-08-03,1,,,,,ブリキック,0
2027,7080001025115,新規,0,2022-08-03,2022-08-03,株式会社ＩＮＡＢＡ,,株式会社,静岡県,静岡市葵区,下１１８６番地の３,,22,101,4212108,,,,,,,2022-08-03,1,,,,,イナバ,0
2034,7080103002631,新規,0,2022-08-03,2022-08-03,静熱会計合同会社,,合同会社,静岡県,熱海市,清水町３の２３の６１４,,22,205,4130021,,,,,,,2022-08-03,1,,,,,シズネツカイケイ,0
2038,7100001035565,新規,0,2022-08-03,2022-08-03,株式会社Ｉｓｔｙｌｅ,,株式会社,長野県,佐久市,根岸１７９９番地１,,20,217,3850062,,,,,,,2022-08-03,1,,,,,アイスタイル,0
2054,7120001247729,新規,0,2022-08-03,2022-08-03,タダヨシ産業株式会社,,株式会社,大阪府,大阪市浪速区,恵美須西３丁目１６－３９ラフォーレ新今宮１０２号,,27,111,5560003,,,,,,,2022-08-03,1,,,,,タダヨシサンギョウ,0
2055,7120001247803,新規,0,2022-08-03,2022-08-03,株式会社イデアウィングス,,株式会社,大阪府,大阪市淀川区,西中島６丁目３番２４号北白石ビル西館４Ｆ,,27,123,5320011,,,,,,,2022-08-03,1,,,,,イデアウィングス,0
2056,7120001247836,新規,0,2022-08-03,2022-08-03,株式会社看医ラボ,,株式会社,大阪府,大阪市西成区,長橋１丁目１３番２２号金輝ビル２０３,,27,122,5570025,,,,,,,2022-08-03,1,,,,,カンイラボ,0
2065,7130001072317,新規,0,2022-08-03,2022-08-03,四季株式会社,,株式会社,京都府,京都市上京区,寺町通荒神口上る荒神町１１５番地２,,26,102,6020856,,,,,,,2022-08-03,1,,,,,シキ,0
2066,7130001072341,新規,0,2022-08-03,2022-08-03,株式会社ＹＳ企画,,株式会社,京都府,京都市西京区,嵐山朝月町６６番地,,26,111,6160022,,,,,,,2022-08-03,1,,,,,ワイエスキカク,0
2070,7130003008095,新規,0,2022-08-03,2022-08-03,合同会社Ｄｏｇｍａ,,合同会社,京都府,長岡京市,下海印寺下内田１番地１Ｔｉａｒｅ西山天王山２０１,,26,209,6170845,,,,,,,2022-08-03,1,,,,,ドグマ,0
2078,7140001126947,新規,0,2022-08-03,2022-08-03,株式会社ななつぼし,,株式会社,兵庫県,姫路市,網干区浜田７０番地１４,,28,201,6711242,,,,,,,2022-08-03,1,,,,,ナナツボシ,0
2079,7140001126971,新規,0,2022-08-03,2022-08-03,ｒｉｓｅｓ株式会社,,株式会社,兵庫県,芦屋市,前田町７－１２,,28,206,6590071,,,,,,,2022-08-03,1,,,,,ライズ,0
2081,7140003017995,新規,0,2022-08-03,2022-08-03,波止場ＣＰＴ合同会社,,合同会社,兵庫県,西宮市,名塩南台２丁目４番地１６,,28,204,6691132,,,,,,,2022-08-03,1,,,,,,0
2084,7140005026276,新規,0,2022-08-03,2022-08-03,一般社団法人Ｐ３みかげ,,その他の設立登記法人,兵庫県,神戸市東灘区,御影中町１丁目７番１５号,,28,101,6580054,,,,,,,2022-08-03,1,,,,,ピーキューブミカゲ,0
2094,7180001152394,新規,0,2022-08-03,2022-08-03,株式会社ＳｍａｒＴｒｅｅ,,株式会社,愛知県,名古屋市名東区,扇町２丁目１番地の２ヴィアーレ星ヶ丘の森２１４号,,23,115,4650076,,,,,,,2022-08-03,1,,,,,スマートリー,0
2095,7180001152411,新規,0,2022-08-03,2022-08-03,株式会社ブリス,,株式会社,愛知県,名古屋市緑区,八つ松１丁目４０１番地の２０,,23,114,4580810,,,,,,,2022-08-03,1,,,,,ブリス,0
2096,7180001152452,新規,0,2022-08-03,2022-08-03,株式会社エヌトラック,,株式会社,愛知県,名古屋市昭和区,荒田町５丁目２７番地の２プラウド石川橋２０１号,,23,107,4660844,,,,,,,2022-08-03,1,,,,,エヌトラック,0
2099,7180301036479,新規,0,2022-08-03,2022-08-03,株式会社新名古屋技術社,,株式会社,愛知県,刈谷市,司町８丁目１５番地,,23,210,4480834,,,,,,,2022-08-03,1,,,,,,0
2100,7180301036487,新規,0,2022-08-03,2022-08-03,株式会社石川商会,,株式会社,愛知県,豊橋市,南小池町１６５番地,,23,201,4418044,,,,,,,2022-08-03,1,,,,,イシカワショウカイ,0
2104,7190005011728,新規,0,2022-08-03,2022-08-03,一般社団法人ファーム徳田,,その他の設立登記法人,三重県,鈴鹿市,徳田町１００６番地の１徳田ふれあい会館内,,24,207,5100251,,,,,,,2022-08-03,1,,,,,ファームトクダ,0
2105,7200001040340,新規,0,2022-08-03,2022-08-03,株式会社吉建,,株式会社,岐阜県,各務原市,各務おがせ町５丁目２２５番地２,,21,213,5090104,,,,,,,2022-08-03,1,,,,,ヨシケン,0
2116,7220001024969,新規,0,2022-08-03,2022-08-03,株式会社うめのきや,,株式会社,石川県,鳳珠郡能登町,字宇出津新１５５番地,,17,463,9270432,,,,,,,2022-08-03,1,,,,,ウメノキヤ,0
2126,7250001019693,新規,0,2022-08-03,2022-08-03,株式会社Ｍｏｔｈｅｒ＆Ｃｌｅａｒｗａｔｅｒ,,株式会社,山口県,宇部市,大字小串６７番地７,,35,202,7550067,,,,,,,2022-08-03,1,,,,,マザーアンドクリアウォーター,0
2135,7290001098453,新規,0,2022-08-03,2022-08-03,株式会社Ｃ‐ＣＲＥＳＴ,,株式会社,福岡県,大野城市,仲畑４丁目１６番４８号,,40,219,8160921,,,,,,,2022-08-03,1,,,,,シークレスト,0
2142,7290801028782,新規,0,2022-08-03,2022-08-03,株式会社啓和プラント,,株式会社,福岡県,遠賀郡岡垣町,大字内浦１５１番地１,,40,383,8114203,,,,,,,2022-08-03,1,,,,,ケイワプラント,0
2143,7290801028790,新規,0,2022-08-03,2022-08-03,株式会社かなう,,株式会社,福岡県,北九州市八幡西区,下上津役４丁目９番３号,,40,109,8070075,,,,,,,2022-08-03,1,,,,,カナウ,0
2147,7330001029998,新規,0,2022-08-03,2022-08-03,株式会社ｂｏａｒ,,株式会社,熊本県,熊本市中央区,上水前寺２丁目１番１１号,,43,101,8620951,,,,,,,2022-08-03,1,,,,,ボア,0
2157,7350001017893,新規,0,2022-08-03,2022-08-03,アートプランツ株式会社,,株式会社,宮崎県,宮崎市,宮脇町７８番地３,,45,201,8800877,,,,,,,2022-08-03,1,,,,,アートプランツ,0
2161,7370001048870,新規,0,2022-08-03,2022-08-03,Ｒｍｉｅｓ株式会社,,株式会社,宮城県,仙台市青葉区,小松島４丁目１５番３０－４０４号,,04,101,9810905,,,,,,,2022-08-03,1,,,,,ルーミーズ,0
2163,7370005010513,新規,0,2022-08-03,2022-08-03,特定非営利活動法人ワークトライフスクウェア,,その他の設立登記法人,宮城県,白石市,福岡長袋字陣場屋敷４８番地,,04,206,9890232,,,,,,,2022-08-03,1,,,,,ワークトライフスクウェア,0
2171,7390005008968,新規,0,2022-08-03,2022-08-03,一般社団法人世界連邦クラブ,,その他の設立登記法人,山形県,酒田市,浜松町７７番４０,,06,204,9980074,,,,,,,2022-08-03,1,,,,,セカイレンポウクラブ,0
2175,7400001015958,新規,0,2022-08-03,2022-08-03,壽技工株式会社,,株式会社,岩手県,宮古市,日影町４番１２号,,03,202,0270007,,,,,,,2022-08-03,1,,,,,コトブキギコウ,0
2176,7400001015966,新規,0,2022-08-03,2022-08-03,マサルインダストリー株式会社,,株式会社,岩手県,二戸市,石切所字穴牛長久保７番地１,,03,213,0286103,,,,,,,2022-08-03,1,,,,,マサルインダストリー,0
2183,7430001087160,新規,0,2022-08-03,2022-08-03,株式会社ＪＥＷＥＬＲＹ　ＬＡＮＤ,,株式会社,北海道,札幌市豊平区,平岸五条１４丁目２番２５号ＭＧビル２Ｆ,,01,105,0620935,,,,,,,2022-08-03,1,,,,,ジュエリーランド,0
2184,7430001087202,新規,0,2022-08-03,2022-08-03,株式会社アールホールディングス,,株式会社,北海道,登別市,富浦町２２３番地１,,01,230,0590462,,,,,,,2022-08-03,1,,,,,アールホールディングス,0
2193,7500001024370,新規,0,2022-08-03,2022-08-03,株式会社ＡＩＭＥＥ,,株式会社,愛媛県,松山市,歩行町１丁目５番地９,,38,201,7900801,,,,,,,2022-08-03,1,,,,,エイミー,0
2195,8000020409618,新規,0,2022-08-03,2022-08-03,行橋京都メディカルセンター組合,,地方公共団体,福岡県,行橋市,東大橋２丁目９番１号,,40,213,8240002,,,,,,,2022-08-03,1,,,,,ユクハシミヤコメディカルセンタークミアイ,0
2202,8010001228375,新規,0,2022-08-03,2022-08-03,株式会社ＦＬＥＸ,,株式会社,東京都,中央区,日本橋２丁目１番３号アーバンネット日本橋二丁目ビル１０階,,13,102,1030027,,,,,,,2022-08-03,1,,,,,フレックス,0
2203,8010001228458,新規,0,2022-08-03,2022-08-03,Ｔｏｍｏｒｅａ　Ｔｅｃｈｎｏｌｏｇｉｅｓ株式会社,,株式会社,東京都,千代田区,一番町１４番地２－６０１号,,13,101,1020082,,,,,,,2022-08-03,1,,,,,トモリアテクノロジーズ,0
2204,8010001228490,新規,0,2022-08-03,2022-08-03,株式会社ｃｒｅａｔｕｒｅ,,株式会社,東京都,千代田区,有楽町２丁目１０番１号,,13,101,1000006,,,,,,,2022-08-03,1,,,,,クリーチャー,0
2205,8010001228516,新規,0,2022-08-03,2022-08-03,日本生命第８回劣後ローン流動化株式会社,,株式会社,東京都,千代田区,丸の内３丁目１番１号東京共同会計事務所内,,13,101,1000005,,,,,,,2022-08-03,1,,,,,ニホンセイメイダイハチカイレツゴローンリュウドウカ,0
2207,8010003038302,新規,0,2022-08-03,2022-08-03,ＳＴＥＬＬＡ合同会社,,合同会社,東京都,中央区,銀座１丁目１２番４号Ｎ＆ＥＢＬＤ７階,,13,102,1040061,,,,,,,2022-08-03,1,,,,,ステラ,0
2210,8010005035330,新規,0,2022-08-03,2022-08-03,税理士法人宇野会計事務所,,その他の設立登記法人,東京都,文京区,小石川２丁目１番１３号２０３,,13,105,1120002,,,,,,,2022-08-03,1,,,,,ウノカイケイジムショ,0
2212,8010101015277,新規,0,2022-08-03,2022-08-03,Ｍ’ｓトータル家賃保証株式会社,,株式会社,東京都,八王子市,横川町２番地２,,13,201,1930823,,,,,,,2022-08-03,1,,,,,エムズトータルヤチンホショウ,0
2221,8010401168808,新規,0,2022-08-03,2022-08-03,株式会社ＳｐｏｒｔｓＴｅｃｈ　Ｊａｐａｎ,,株式会社,東京都,港区,麻布十番２－７－５カスタリア麻布十番七面坂４０８号室,,13,103,1050000,,,,,,,2022-08-03,1,,,,,スポーツテックジャパン,0
2222,8010401168816,新規,0,2022-08-03,2022-08-03,株式会社ＩＲＩＳＥＲ,,株式会社,東京都,港区,浜松町１丁目１８番１３号高桑ビル３階,,13,103,1050013,,,,,,,2022-08-03,1,,,,,イリゼ,0
2223,8010401168832,新規,0,2022-08-03,2022-08-03,株式会社ＳＲ‐ＢＡＳＥ,,株式会社,東京都,港区,東麻布１丁目８番１４－５０１号,,13,103,1060044,,,,,,,2022-08-03,1,,,,,エスアールベース,0
2224,8010401168840,新規,0,2022-08-03,2022-08-03,ＳＴＹＬＥ　ＪＡＰＡＮ株式会社,,株式会社,東京都,港区,北青山３丁目１５番５号,,13,103,1070061,,,,,,,2022-08-03,1,,,,,スタイルジャパン,0
2225,8010401168849,新規,0,2022-08-03,2022-08-03,株式会社ＡＴＴＥＮＤ,,株式会社,東京都,港区,赤坂９丁目６－２７カーム乃木坂２Ｆ,,13,103,1070052,,,,,,,2022-08-03,1,,,,,アテンド,0
2228,8010403028134,新規,0,2022-08-03,2022-08-03,合同会社施策ぱっと,,合同会社,東京都,港区,南青山２丁目２番１５号,,13,103,1070062,,,,,,,2022-08-03,1,,,,,シサクパット,0
2230,8010601061589,新規,0,2022-08-03,2022-08-03,東進システムズ株式会社,,株式会社,東京都,江東区,佐賀１丁目１１番１１号東海永代ハイツ４０３,,13,108,1350031,,,,,,,2022-08-03,1,,,,,トウシンシステムズ,0
2231,8010603009669,新規,0,2022-08-03,2022-08-03,スモールビズコンサルティング合同会社,,合同会社,東京都,江東区,海辺１５－５サークルキューブ海辺２０８,,13,108,1350012,,,,,,,2022-08-03,1,,,,,スモールビズコンサルティング,0
2232,8010701043033,新規,0,2022-08-03,2022-08-03,株式会社ブライト,,株式会社,東京都,品川区,西五反田２丁目２番１０号,,13,109,1410031,,,,,,,2022-08-03,1,,,,,ブライト,0
2236,8010705003396,新規,0,2022-08-03,2022-08-03,特定非営利活動法人ラオス教育支援活動プロジェクト,,その他の設立登記法人,東京都,品川区,上大崎４丁目５番３１号,,13,109,1410021,,,,,,,2022-08-03,1,,,,,ラオスキョウイクシエンカツドウプロジェクト,0
2241,8010905004351,新規,0,2022-08-03,2022-08-03,一般社団法人文学フリマ事務局,,その他の設立登記法人,東京都,世田谷区,桜新町２丁目１３番１０号,,13,112,1540015,,,,,,,2022-08-03,1,,,,,ブンガクフリマジムキョク,0
2253,8011001148836,新規,0,2022-08-03,2022-08-03,株式会社ｋａｙｕｍｉ,,株式会社,東京都,渋谷区,恵比寿南１丁目１１番１６号,,13,113,1500022,,,,,,,2022-08-03,1,,,,,カユミ,0
2254,8011003015084,新規,0,2022-08-03,2022-08-03,イーアフルエンス合同会社,,合同会社,東京都,渋谷区,宇田川町３番７号ヒューリック渋谷公園通りビル５Ｆ－４３,,13,113,1500042,,,,,,,2022-08-03,1,,,,,イーアフルエンス,0
2256,8011101099764,新規,0,2022-08-03,2022-08-03,ＧＥＮＥＳＴ株式会社,,株式会社,東京都,新宿区,上落合２丁目２６－３２,,13,104,1610034,,,,,,,2022-08-03,1,,,,,ジェネスト,0
2262,8011201024003,新規,0,2022-08-03,2022-08-03,株式会社ＴＭＫ,,株式会社,東京都,中野区,中野５丁目３８番３－１０７号,,13,114,1640001,,,,,,,2022-08-03,1,,,,,ティーエムケー,0
2263,8011203003888,新規,0,2022-08-03,2022-08-03,合同会社Ｂｏｓｏａｎ,,合同会社,東京都,中野区,江原町３丁目３２―８,,13,114,1650023,,,,,,,2022-08-03,1,,,,,ボウソウアン,0
2266,8011401024447,新規,0,2022-08-03,2022-08-03,株式会社ワールドドリーム商事,,株式会社,東京都,板橋区,東坂下２丁目１１番７号レセット高橋ビルＩＩ４０２,00127416,13,119,1740042,,,,,,,2022-08-03,1,,,,,ワールドドリームショウジ,0
2268,8011501028356,新規,0,2022-08-03,2022-08-03,株式会社サトウ工務店,,株式会社,東京都,北区,中里２丁目６番３号,,13,117,1140015,,,,,,,2022-08-03,1,,,,,サトウコウムテン,0
2275,8011803005210,新規,0,2022-08-03,2022-08-03,ＥＴＢＳ合同会社,,合同会社,東京都,葛飾区,奥戸２丁目４２－１０,,13,122,1240022,,,,,,,2022-08-03,1,,,,,イーティービィエス,0
2277,8012701017181,新規,0,2022-08-03,2022-08-03,株式会社コボリン,,株式会社,東京都,東村山市,野口町２丁目１８番地５,,13,213,1890022,,,,,,,2022-08-03,1,,,,,コボリン,0
2280,8012801021760,新規,0,2022-08-03,2022-08-03,株式会社嶋ホーム,,株式会社,東京都,立川市,砂川町８丁目６２番地の８,,13,202,1900031,,,,,,,2022-08-03,1,,,,,シマホーム,0
2281,8013301049458,新規,0,2022-08-03,2022-08-03,日本ＪＣＪ株式会社,,株式会社,東京都,豊島区,南大塚２丁目１１－２－６０３号,,13,116,1700005,,,,,,,2022-08-03,1,,,,,ニホンジェイシージェイ,0
2288,8020001147533,新規,0,2022-08-03,2022-08-03,ＡＳＩＡＮＳＴＡＲ　ＬＩＦＥ　ＣＲＥＡＴＩＯＮ株式会社,,株式会社,神奈川県,横浜市西区,高島２丁目６番３２号,,14,103,2200011,,,,,,,2022-08-03,1,,,,,エイシアンスターライフクリエーション,0
2293,8020003022172,新規,0,2022-08-03,2022-08-03,合同会社ヴィクトリア,,合同会社,神奈川県,川崎市中原区,小杉陣屋町２丁目２０番１号,,14,133,2110062,,,,,,,2022-08-03,1,,,,,ヴィクトリア,0
2296,8021001076689,新規,0,2022-08-03,2022-08-03,ＫＭＥ株式会社,,株式会社,神奈川県,平塚市,東真土３丁目８番６４号,,14,203,2540018,,,,,,,2022-08-03,1,,,,,ケーエムイー,0
2305,8030001149479,新規,0,2022-08-03,2022-08-03,株式会社ＭＡＲＷＡ　ＴＲＡＤＩＮＧ,,株式会社,埼玉県,春日部市,西金野井１９０４番２,,11,214,3440112,,,,,,,2022-08-03,1,,,,,マルワトレーディング,0
2311,8030003019746,新規,0,2022-08-03,2022-08-03,合同会社タミヤエンジニアリング,,合同会社,埼玉県,上尾市,仲町１丁目３―６オーチャード５０１,,11,219,3620035,,,,,,,2022-08-03,1,,,,,タミヤエンジニアリング,0
2312,8030003019878,新規,0,2022-08-03,2022-08-03,艾洋合同会社,,合同会社,埼玉県,川越市,大字藤間７９番地７三冨士グロリアスマンション新河岸１号館３１３号室,,11,201,3501142,,,,,,,2022-08-03,1,,,,,ガイヨウ,0
2318,8040001124464,新規,0,2022-08-03,2022-08-03,ＡＤＵＳ株式会社,,株式会社,千葉県,船橋市,西船１丁目１２番２７－２０４号,,12,204,2730031,,,,,,,2022-08-03,1,,,,,アドアス,0
2319,8040001124497,新規,0,2022-08-03,2022-08-03,株式会社ＲＥＢＯＯＲＮ,,株式会社,千葉県,柏市,花野井１５３２番地１,,12,217,2770812,,,,,,,2022-08-03,1,,,,,リボーン,0
2320,8040001124514,新規,0,2022-08-03,2022-08-03,株式会社ソワン,,株式会社,千葉県,成田市,西三里塚１番地１２７,,12,211,2860115,,,,,,,2022-08-03,1,,,,,ソワン,0
2321,8040001124555,新規,0,2022-08-03,2022-08-03,Ｎ＆Ｋ株式会社,,株式会社,千葉県,千葉市花見川区,千種町７４番地１,,12,102,2620012,,,,,,,2022-08-03,1,,,,,エヌアンドケー,0
2322,8040001124588,新規,0,2022-08-03,2022-08-03,株式会社ＫＯ‐ＩＤＥＡ,,株式会社,千葉県,千葉市中央区,星久喜町９３９番地,,12,101,2600808,,,,,,,2022-08-03,1,,,,,コイデア,0
2324,8040003020538,新規,0,2022-08-03,2022-08-03,合同会社Ｍａｒｉｎ　Ｓｐｉｃｅ　Ｌａｎｋａ,,合同会社,千葉県,柏市,大塚町２番１２号大塚町ハウス１０１号,,12,217,2770026,,,,,,,2022-08-03,1,,,,,マリンスパイスランカ,0
2328,8060002041178,新規,0,2022-08-03,2022-08-03,山一木材有限会社,,有限会社,栃木県,佐野市,戸奈良町８４８番地,,09,204,3270323,,,,,,,2022-08-03,1,,,,,ヤマイチモクザイ,0
2332,8080001025106,新規,0,2022-08-03,2022-08-03,株式会社鈴喜板金,,株式会社,静岡県,牧之原市,静波１３２７番地の１,,22,226,4210422,,,,,,,2022-08-03,1,,,,,スズキバンキン,0
2334,8080003002846,新規,0,2022-08-03,2022-08-03,グリーンナチュレ合同会社,,合同会社,静岡県,静岡市葵区,山崎１丁目２４－１１,,22,101,4211213,,,,,,,2022-08-03,1,,,,,グリーンナチュレ,0
2335,8080103002630,新規,0,2022-08-03,2022-08-03,オフィスこがねむし北山合同会社,,合同会社,静岡県,伊東市,鎌田１０８６番地の４６６,,22,208,4140054,,,,,,,2022-08-03,1,,,,,オフィスコガネムシキタヤマ,0
2337,8080401025985,新規,0,2022-08-03,2022-08-03,株式会社ワイフライト,,株式会社,静岡県,浜松市西区,馬郡町２９６４番地,,22,133,4310203,,,,,,,2022-08-03,1,,,,,ワイフライト,0
2338,8090001017705,新規,0,2022-08-03,2022-08-03,株式会社キュール,,株式会社,山梨県,西八代郡市川三郷町,大塚４８１０－１,,19,346,4093611,,,,,,,2022-08-03,1,,,,,キュール,0
2341,8090003002143,新規,0,2022-08-03,2022-08-03,合同会社ディーディートレーディング,,合同会社,山梨県,南都留郡富士河口湖町,船津２７８９番地８,,19,430,4010301,,,,,,,2022-08-03,1,,,,,ディーディートレーディング,0
2345,8110001036859,新規,0,2022-08-03,2022-08-03,株式会社Ｓｔ,,株式会社,新潟県,新潟市中央区,東大通１丁目６番２８号５渡辺ビル１階,,15,103,9500087,,,,,,,2022-08-03,1,,,,,エスティー,0
2347,8110003004830,新規,0,2022-08-03,2022-08-03,合同会社Ｌａ　ＰＬＵＳ,,合同会社,新潟県,上越市,五智１丁目１５番２０号ヌーベルシャトゥー１０３号,,15,222,9420081,,,,,,,2022-08-03,1,,,,,ラプラス,0
2357,8120001247868,新規,0,2022-08-03,2022-08-03,株式会社ＢＯＫＵ,,株式会社,大阪府,大阪市北区,堂島１丁目３番２８号堂島センターＢ－１,,27,127,5300003,,,,,,,2022-08-03,1,,,,,ボク,0
2368,8120101065988,新規,0,2022-08-03,2022-08-03,株式会社ＮＡＯプランニング,,株式会社,大阪府,泉南市,馬場２丁目５番７号,,27,228,5900525,,,,,,,2022-08-03,1,,,,,ナオプランニング,0
2369,8120101066004,新規,0,2022-08-03,2022-08-03,株式会社古賀断熱,,株式会社,大阪府,堺市南区,三木閉３１番地,,27,145,5900154,,,,,,,2022-08-03,1,,,,,コガダンネツ,0
2373,8120901046320,新規,0,2022-08-03,2022-08-03,株式会社ブロッサム,,株式会社,大阪府,摂津市,別府２丁目２４－１４,,27,224,5660046,,,,,,,2022-08-03,1,,,,,ブロッサム,0
2376,8130001072332,新規,0,2022-08-03,2022-08-03,株式会社古川ホールディングス,,株式会社,京都府,舞鶴市,字余部下８２１番地２,,26,202,6250087,,,,,,,2022-08-03,1,,,,,フルカワホールディングス,0
2377,8130001072340,新規,0,2022-08-03,2022-08-03,株式会社川勝モータース,,株式会社,京都府,京都市左京区,岩倉花園町２８３番地１,,26,103,6060024,,,,,,,2022-08-03,1,,,,,カワカツモータース,0
2378,8130003008111,新規,0,2022-08-03,2022-08-03,合同会社フォワードプランニング,,合同会社,京都府,乙訓郡大山崎町,字円明寺小字佃１０番６号,,26,303,6180091,,,,,,,2022-08-03,1,,,,,フォワードプランニング,0
2383,8140001126979,新規,0,2022-08-03,2022-08-03,株式会社ｍｅｂａｅ,,株式会社,兵庫県,宝塚市,野上１丁目１番３号シャローム逆瀬川２階,,28,214,6650022,,,,,,,2022-08-03,1,,,,,メバエ,0
2384,8140001126987,新規,0,2022-08-03,2022-08-03,株式会社ママクリエイターラボ,,株式会社,兵庫県,神戸市中央区,野崎通７丁目３－１４アスモ新神戸ビル１０１,,28,110,6510054,,,,,,,2022-08-03,1,,,,,ママクリエイターラボ,0
2387,8140003017994,新規,0,2022-08-03,2022-08-03,ＲＳ合同会社,,合同会社,兵庫県,姫路市,西庄乙６９－１ＯＡＦＬＡＴ西庄ＥＡＳＴＩ１０３,00127400,28,201,6700981,,,,,,,2022-08-03,1,,,,,アールエス,0
2396,8180001152410,新規,0,2022-08-03,2022-08-03,株式会社ＦＡＳＴ　ＧＬＯＢＡＬ　ＦＲＥＩＧＨＴ　ＪＰ,,株式会社,愛知県,名古屋市中村区,大宮町３丁目２８－３,,23,105,4530821,,,,,,,2022-08-03,1,,,,,ファストグローバルフレイトジャパン,0
2397,8180001152419,新規,0,2022-08-03,2022-08-03,株式会社ＡＲＴＳ,,株式会社,愛知県,名古屋市中区,錦３丁目４番１２号,,23,106,4600003,,,,,,,2022-08-03,1,,,,,アーツ,0
2398,8180001152427,新規,0,2022-08-03,2022-08-03,株式会社ＭＴＩ,,株式会社,愛知県,名古屋市中区,錦１丁目４番１９号プラウドタワー名古屋丸の内１５０１号,,23,106,4600003,,,,,,,2022-08-03,1,,,,,エムティーアイ,0
2399,8180001152443,新規,0,2022-08-03,2022-08-03,株式会社ソブエビル,,株式会社,愛知県,名古屋市西区,花の木２丁目２１番２２号,,23,104,4510062,,,,,,,2022-08-03,1,,,,,ソブエビル,0
2400,8180001152476,新規,0,2022-08-03,2022-08-03,元祖ファンシー株式会社,,株式会社,愛知県,一宮市,瀬部字小出６５番地,,23,203,4910001,,,,,,,2022-08-03,1,,,,,ガンソファンシー,0
2402,8180005019878,新規,0,2022-08-03,2022-08-03,弁護士法人Ｚｅｎｏｓ,,その他の設立登記法人,愛知県,名古屋市中区,丸の内２丁目１８番２２号三博ビル２０６号,,23,106,4600002,,,,,,,2022-08-03,1,,,,,ゼノス,0
2405,8180301036486,新規,0,2022-08-03,2022-08-03,Ｇｌｏｃａｌ　Ｉｎｎｏｖａｔｉｏｎ株式会社,,株式会社,愛知県,豊橋市,東七根町字一ノ沢１１３番地,,23,201,4413201,,,,,,,2022-08-03,1,,,,,グローカルイノベーション,0
2406,8180301036494,新規,0,2022-08-03,2022-08-03,株式会社ＡＯＫ,,株式会社,愛知県,豊橋市,向山町字川北９番地４グランドゥール向山１０１号,,23,201,4400864,,,,,,,2022-08-03,1,,,,,エーオーケー,0
2407,8180301036503,新規,0,2022-08-03,2022-08-03,株式会社健樹苑,,株式会社,愛知県,西尾市,中畑町大山５番地７,,23,213,4440303,,,,,,,2022-08-03,1,,,,,ケンジュエン,0
2412,8200001040331,新規,0,2022-08-03,2022-08-03,明亮株式会社,,株式会社,岐阜県,養老郡養老町,下笠５０７８番４,,21,341,5031384,,,,,,,2022-08-03,1,,,,,メイリョウ,0
2413,8200001040348,新規,0,2022-08-03,2022-08-03,株式会社岐阜補聴器,,株式会社,岐阜県,岐阜市,加納上本町３丁目１４番地,,21,201,5008451,,,,,,,2022-08-03,1,,,,,ギフホチョウキ,0
2419,8210001019028,新規,0,2022-08-03,2022-08-03,ふくいヒトモノデザイン株式会社,,株式会社,福井県,福井市,順化１丁目１番１号,,18,201,9100023,,,,,,,2022-08-03,1,,,,,フクイヒトモノデザイン,0
2427,8240001060160,新規,0,2022-08-03,2022-08-03,株式会社Ｎｅｘｔ　Ｖｉｓｉｏｎ,,株式会社,広島県,福山市,新涯町４丁目７番１号,,34,207,7210955,,,,,,,2022-08-03,1,,,,,ネクストヴィジョン,0
2428,8240001060185,新規,0,2022-08-03,2022-08-03,竹内商店株式会社,,株式会社,広島県,広島市安佐南区,東原３丁目１８番１３－７－２０１号,,34,105,7310112,,,,,,,2022-08-03,1,,,,,タケウチショウテン,0
2429,8240003005741,新規,0,2022-08-03,2022-08-03,合同会社幹建工業,,合同会社,広島県,福山市,引野町６２５番地１,,34,207,7210942,,,,,,,2022-08-03,1,,,,,モトケンコウギョウ,0
2435,8260001037099,新規,0,2022-08-03,2022-08-03,ヒロホールディングス株式会社,,株式会社,岡山県,岡山市北区,久米２２６番地,,33,101,7010144,,,,,,,2022-08-03,1,,,,,ヒロホールディングス,0
2436,8260001037108,新規,0,2022-08-03,2022-08-03,株式会社ＲＡＫＵＮＹ,,株式会社,岡山県,倉敷市,中島９２５番地１０,,33,202,7100803,,,,,,,2022-08-03,1,,,,,ラクニー,0
2449,8290001098452,新規,0,2022-08-03,2022-08-03,株式会社Ｚｅｎ内装,,株式会社,福岡県,福岡市博多区,那珂５丁目３番７－２０４号,,40,132,8120893,,,,,,,2022-08-03,1,,,,,ゼンナイソウ,0
2450,8290001098469,新規,0,2022-08-03,2022-08-03,グラティスフード株式会社,,株式会社,福岡県,みやま市,瀬高町本郷９０１番地１,,40,229,8350021,,,,,,,2022-08-03,1,,,,,グラティスフード,0
2453,8290003012799,新規,0,2022-08-03,2022-08-03,合同会社ＢＥ＆ＧＯ,,合同会社,福岡県,福岡市南区,多賀１丁目２－３６－２０１,,40,134,8150072,,,,,,,2022-08-03,1,,,,,ビーゴ,0
2455,8290801028781,新規,0,2022-08-03,2022-08-03,株式会社フクナガ,,株式会社,福岡県,北九州市小倉北区,下富野５丁目１４番７－１号,,40,106,8020023,,,,,,,2022-08-03,1,,,,,フクナガ,0
2458,8310001017970,新規,0,2022-08-03,2022-08-03,株式会社緒方機工,,株式会社,長崎県,佐世保市,鹿町町下歌ヶ浦９５７番地３,,42,202,8596204,,,,,,,2022-08-03,1,,,,,オガタキコウ,0
2463,8320003003869,新規,0,2022-08-03,2022-08-03,合同会社太田電工,,合同会社,大分県,大分市,政所２丁目４－６－１,,44,201,8700268,,,,,,,2022-08-03,1,,,,,オオタデンコウ,0
2473,8330003009469,新規,0,2022-08-03,2022-08-03,合同会社さくらエステート,,合同会社,熊本県,上益城郡嘉島町,大字鯰２７３８,,43,442,8613101,,,,,,,2022-08-03,1,,,,,サクラエステート,0
2476,8340005009482,新規,0,2022-08-03,2022-08-03,一般社団法人甑島社中,,その他の設立登記法人,鹿児島県,薩摩川内市,里町里３４６３番地１,,46,215,8961101,,,,,,,2022-08-03,1,,,,,コシキジマシャチュウ,0
2477,8350001017884,新規,0,2022-08-03,2022-08-03,株式会社フレスカ,,株式会社,宮崎県,児湯郡高鍋町,大字北高鍋２４２５番地１,,45,401,8840002,,,,,,,2022-08-03,1,,,,,フレスカ,0
2479,8360005006684,新規,0,2022-08-03,2022-08-03,一般社団法人沖縄スタートアップ支援協会,,その他の設立登記法人,沖縄県,那覇市,首里大名町２丁目１００番地,,47,201,9030802,,,,,,,2022-08-03,1,,,,,オキナワスタートアップシエンキョウカイ,0
2483,8370005010512,新規,0,2022-08-03,2022-08-03,一般社団法人宮城県相続支援協会,,その他の設立登記法人,宮城県,仙台市青葉区,本町１丁目５番２８号カーニープレイス仙台駅前通６０３号室,,04,101,9800014,,,,,,,2022-08-03,1,,,,,ミヤギケンソウゾクシエンキョウカイ,0
2496,8400001015957,新規,0,2022-08-03,2022-08-03,株式会社さくら通り運送,,株式会社,岩手県,北上市,和賀町竪川目８地割１１４番３,,03,206,0240332,,,,,,,2022-08-03,1,,,,,サクラドオリウンソウ,0
2501,8430001087184,新規,0,2022-08-03,2022-08-03,Ｑ　Ｅｎｔｅｒｐｒｉｓｅ　Ｓｙｓｔｅｍｓ株式会社,,株式会社,北海道,札幌市北区,北十三条西３丁目２番２４－４０２号,,01,102,0010013,,,,,,,2022-08-03,1,,,,,キューエンタープライズシステムズ,0
2502,8430001087201,新規,0,2022-08-03,2022-08-03,株式会社ボタボンズ,,株式会社,北海道,札幌市北区,新琴似三条７丁目４番３号,,01,102,0010903,,,,,,,2022-08-03,1,,,,,ボタボンズ,0
2506,8480001011817,新規,0,2022-08-03,2022-08-03,株式会社Ｈａｎａｔａｎｉ,,株式会社,徳島県,徳島市,栄町１丁目１２,,36,201,7700921,,,,,,,2022-08-03,1,,,,,ハナタニ,0
2510,8700150065483,新規,0,2022-08-03,2015-10-09,都城工業高等専門学校後援会,,その他,宮崎県,都城市,吉尾町４７３－１,,45,202,8850006,,,,,,,2015-10-09,1,,,,,ミヤコノジヨウコウギヨウコウトウセンモンガツコウコウエンカイ,0
2513,9010001228432,新規,0,2022-08-03,2022-08-03,時代星雲株式会社,,株式会社,東京都,中央区,銀座１丁目２１番１６－２０３号,,13,102,1040061,,,,,,,2022-08-03,1,,,,,ジダイセイウン,0
2514,9010001228440,新規,0,2022-08-03,2022-08-03,ＮＩＩＸＩＡ　ＧＲＯＵＰ株式会社,,株式会社,東京都,千代田区,飯田橋３丁目６番８号飯田橋Ｔ＆Ｓビル３階,,13,101,1020072,,,,,,,2022-08-03,1,,,,,ニーシアグループ,0
2515,9010001228457,新規,0,2022-08-03,2022-08-03,Ｂｏｎｒｏｙ　Ｒｅｎｅｗａｂｌｅ　Ｊａｐａｎ株式会社,,株式会社,東京都,千代田区,神田佐久間河岸８４号地サンユウビル２０１,,13,101,1010026,,,,,,,2022-08-03,1,,,,,ボンロイリニューアブルジャパン,0
2520,9010101015276,新規,0,2022-08-03,2022-08-03,一恵住宅サービス株式会社,,株式会社,東京都,八王子市,加住町１丁目２５３番地１,,13,201,1920004,,,,,,,2022-08-03,1,,,,,カズエジュウタクサービス,0
2530,9010401168848,新規,0,2022-08-03,2022-08-03,パウ・コーポレーション株式会社,,株式会社,東京都,港区,虎ノ門４丁目１番２８号,,13,103,1050001,,,,,,,2022-08-03,1,,,,,パウコーポレーション,0
2537,9010601061588,新規,0,2022-08-03,2022-08-03,＿悦株式会社,00127403,株式会社,東京都,江東区,枝川１丁目１４番６－７０１号,,13,108,1350051,,,,,,,2022-08-03,1,,,,,ハクエツ,0
2538,9010601061613,新規,0,2022-08-03,2022-08-03,株式会社ベンチプレス,,株式会社,東京都,江東区,亀戸７丁目２１番３号,,13,108,1360071,,,,,,,2022-08-03,1,,,,,ベンチプレス,0
2558,9011101099755,新規,0,2022-08-03,2022-08-03,株式会社スタディクラウド,,株式会社,東京都,新宿区,西新宿３丁目３番１３号西新宿水間ビル２Ｆ,,13,104,1600023,,,,,,,2022-08-03,1,,,,,スタディクラウド,0
2560,9011103012014,新規,0,2022-08-03,2022-08-03,合同会社ＹＩＭＡＩ,,合同会社,東京都,新宿区,西早稲田２丁目７番地６号,,13,104,1690051,,,,,,,2022-08-03,1,,,,,ワイイマイ,0
2561,9011201024002,新規,0,2022-08-03,2022-08-03,株式会社池下ＢＩＭ設備,,株式会社,東京都,中野区,本町１丁目３２番２号ハーモニータワー１５階,,13,114,1640012,,,,,,,2022-08-03,1,,,,,イケシタビムセツビ,0
2562,9011203003887,新規,0,2022-08-03,2022-08-03,美弘産業合同会社,,合同会社,東京都,中野区,中野２丁目３０番７号５Ｆ,,13,114,1640001,,,,,,,2022-08-03,1,,,,,ビコウサンギョウ,0
2564,9011501028355,新規,0,2022-08-03,2022-08-03,ＴＣＮ‐ＳＯＬ株式会社,,株式会社,東京都,荒川区,西日暮里１丁目３２番６号,,13,118,1160013,,,,,,,2022-08-03,1,,,,,ティーシーエヌソル,0
2565,9011701025508,新規,0,2022-08-03,2022-08-03,梅原建業株式会社,,株式会社,東京都,江戸川区,谷河内２丁目１１番２０号,,13,123,1330002,,,,,,,2022-08-03,1,,,,,ウメハラケンギョウ,0
2569,9012301013092,新規,0,2022-08-03,2022-08-03,株式会社ボクノブルー,,株式会社,東京都,町田市,金井ヶ丘２丁目２９－１９ビラージュ玉川学園Ａ２０２,,13,209,1950076,,,,,,,2022-08-03,1,,,,,ボクノブルー,0
2570,9012403005517,新規,0,2022-08-03,2022-08-03,合同会社ＪＵＮＳＨＩＮ,,合同会社,東京都,武蔵野市,吉祥寺南町１丁目２９番地６号メゾンフローラ１０５,,13,203,1800003,,,,,,,2022-08-03,1,,,,,ジュンシン,0
2571,9012405004764,新規,0,2022-08-03,2022-08-03,一般社団法人フリースクールＩＦラボ,,その他の設立登記法人,東京都,三鷹市,牟礼７丁目４番２５号－２,,13,204,1810002,,,,,,,2022-08-03,1,,,,,フリースクールイフラボ,0
2575,9012701017180,新規,0,2022-08-03,2022-08-03,株式会社Ｌｉｂｅｒａｌ,,株式会社,東京都,小平市,たかの台４６番１２号ＯＰＴたかの台２０２号室,,13,211,1870024,,,,,,,2022-08-03,1,,,,,リベラル,0
2577,9012703002503,新規,0,2022-08-03,2022-08-03,合同会社ＡＭＡＹＡＮ,,合同会社,東京都,東久留米市,本町１丁目５番１８号,,13,222,2030053,,,,,,,2022-08-03,1,,,,,アマヤン,0
2578,9012803002849,新規,0,2022-08-03,2022-08-03,合同会社平田プロモーション,,合同会社,東京都,立川市,錦町１丁目１１番７号メゾンドノアロゼ錦町５０３号,,13,202,1900022,,,,,,,2022-08-03,1,,,,,ヒラタプロモーション,0
2580,9013301049457,新規,0,2022-08-03,2022-08-03,株式会社Ｕスタイル,,株式会社,東京都,豊島区,南池袋２丁目８番９号２階,,13,116,1710022,,,,,,,2022-08-03,1,,,,,ユースタイル,0
2589,9020001147466,新規,0,2022-08-03,2022-08-03,株式会社ｂｏｆｏ,,株式会社,神奈川県,横浜市神奈川区,栄町１番地１９グレイス横浜ポートシティ２０４号,,14,102,2210052,,,,,,,2022-08-03,1,,,,,ボウフォ,0
2602,9021001076523,新規,0,2022-08-03,2022-08-03,株式会社Ｐｒｏｄｕｃｅ　Ｓｔｙｌｅ,,株式会社,神奈川県,足柄上郡開成町,中之名７６番地１１,,14,366,2580024,,,,,,,2022-08-03,1,,,,,,0
2603,9021001076655,新規,0,2022-08-03,2022-08-03,株式会社ＨＴＣ,,株式会社,神奈川県,高座郡寒川町,一之宮２丁目２３番１１号茅ヶ崎タワー２００Ａ,,14,321,2530111,,,,,,,2022-08-03,1,,,,,エイチティーシー,0
2604,9021001076671,新規,0,2022-08-03,2022-08-03,株式会社ＲｅＯ,,株式会社,神奈川県,茅ヶ崎市,浜之郷１１７６番地３５,,14,207,2530086,,,,,,,2022-08-03,1,,,,,レオ,0
2605,9021001076688,新規,0,2022-08-03,2022-08-03,株式会社朷,,株式会社,神奈川県,三浦郡葉山町,下山口１２３２番地,,14,301,2400116,,,,,,,2022-08-03,1,,,,,トウ,0
2608,9021005012581,新規,0,2022-08-03,2022-08-03,一般社団法人日本マダニー,,その他の設立登記法人,神奈川県,厚木市,旭町４丁目１１番２７号２Ｆ,,14,212,2430014,,,,,,,2022-08-03,1,,,,,ニホンマダニー,0
2615,9040001124513,新規,0,2022-08-03,2022-08-03,株式会社日新,,株式会社,千葉県,千葉市稲毛区,小仲台７丁目２２番５号エクセレントシティ稲毛小仲台ガーデン４０４号,,12,103,2630043,,,,,,,2022-08-03,1,,,,,ニッシン,0
2622,9050001051483,新規,0,2022-08-03,2022-08-03,株式会社東創,,株式会社,茨城県,水戸市,吉沼町１７５１番地６,,08,201,3100827,,,,,,,2022-08-03,1,,,,,トウソウ,0
2624,9060001035139,新規,0,2022-08-03,2022-08-03,株式会社谷澤園芸,,株式会社,栃木県,日光市,森友１５９０番地１４,,09,206,3212335,,,,,,,2022-08-03,1,,,,,ヤザワエンゲイ,0
2629,9080001025113,新規,0,2022-08-03,2022-08-03,株式会社Ｍ‐ｈｏｐｅ,,株式会社,静岡県,静岡市駿河区,馬渕４丁目１０番２４号,,22,102,4228063,,,,,,,2022-08-03,1,,,,,エムホープ,0
2632,9080101023462,新規,0,2022-08-03,2022-08-03,株式会社内装のすぎやま,,株式会社,静岡県,富士宮市,外神東町２４１番地の３,,22,207,4180007,,,,,,,2022-08-03,1,,,,,ナイソウノスギヤマ,0
2634,9080401025984,新規,0,2022-08-03,2022-08-03,株式会社プログレスワン,,株式会社,静岡県,磐田市,森下１００８番地５,,22,211,4380834,,,,,,,2022-08-03,1,,,,,プログレスワン,0
2635,9090001017712,新規,0,2022-08-03,2022-08-03,株式会社いいくぼ,,株式会社,山梨県,南巨摩郡富士川町,青柳町３５９番地１,,19,368,4000501,,,,,,,2022-08-03,1,,,,,イイクボ,0
2638,9110001036858,新規,0,2022-08-03,2022-08-03,株式会社阿部外装,,株式会社,新潟県,新発田市,三日市５２０番地３,,15,206,9592453,,,,,,,2022-08-03,1,,,,,アベガイソウ,0
2639,9110003004821,新規,0,2022-08-03,2022-08-03,ナシエンテ合同会社,,合同会社,新潟県,新発田市,池ノ端９３５番地,,15,206,9592321,,,,,,,2022-08-03,1,,,,,ナシエンテ,0
2652,9120001247801,新規,0,2022-08-03,2022-08-03,Ｃｉｔｙ　Ｇｏプロパティーズ株式会社,,株式会社,大阪府,大阪市生野区,新今里３丁目４番１７号シャトー第４今里１０６Ａ,,27,116,5440001,,,,,,,2022-08-03,1,,,,,シティーゴープロパティーズ,0
2653,9120001247834,新規,0,2022-08-03,2022-08-03,エイヤー株式会社,,株式会社,大阪府,大阪市福島区,福島３丁目６番６－２０２号,,27,103,5530003,,,,,,,2022-08-03,1,,,,,エイヤー,0
2654,9120001247883,新規,0,2022-08-03,2022-08-03,界外株式会社,,株式会社,大阪府,大阪市東成区,深江北３丁目４番２１号エクラ深江橋２１２Ａ,,27,115,5370001,,,,,,,2022-08-03,1,,,,,カイガイ,0
2660,9120101065995,新規,0,2022-08-03,2022-08-03,株式会社楠本,,株式会社,大阪府,松原市,天美南２丁目２４５番地の２,,27,217,5800033,,,,,,,2022-08-03,1,,,,,クスモト,0
2661,9120101066011,新規,0,2022-08-03,2022-08-03,株式会社ＭＲＫ,,株式会社,大阪府,高石市,加茂１丁目１３番２８号,,27,225,5920011,,,,,,,2022-08-03,1,,,,,エムアールケー,0
2666,9120901046328,新規,0,2022-08-03,2022-08-03,株式会社トレジャースクエア,,株式会社,大阪府,豊中市,小曽根４丁目２－１パークハイツアイリス１階Ａ,,27,203,5610813,,,,,,,2022-08-03,1,,,,,トレジャースクエア,0
2670,9122001036110,新規,0,2022-08-03,2022-08-03,オウズプラン株式会社,,株式会社,大阪府,東大阪市,森河内東２丁目７番２４号,,27,227,5770062,,,,,,,2022-08-03,1,,,,,オウズプラン,0
2671,9122001036119,新規,0,2022-08-03,2022-08-03,四国近畿建材株式会社,,株式会社,大阪府,東大阪市,稲田新町３丁目９番６０号,,27,227,5770004,,,,,,,2022-08-03,1,,,,,シコクキンキケンザイ,0
2675,9130001072331,新規,0,2022-08-03,2022-08-03,株式会社Ｓａｙカウンセリングオフィス,,株式会社,京都府,京都市右京区,西院高田町４－１－１０３,,26,108,6160000,,,,,,,2022-08-03,1,,,,,セイカウンセリングオフィス,0
2676,9130001072348,新規,0,2022-08-03,2022-08-03,株式会社ＣＨＰ,,株式会社,京都府,京都市伏見区,深草西浦町６丁目６２キャッスル深草３０２,,26,109,6120029,,,,,,,2022-08-03,1,,,,,シーエイチピー,0
2677,9130001072356,新規,0,2022-08-03,2022-08-03,株式会社ユウキ,,株式会社,京都府,京都市伏見区,中島外山町１１６番地２７,,26,109,6128455,,,,,,,2022-08-03,1,,,,,ユウキ,0
2682,9130003008093,新規,0,2022-08-03,2022-08-03,合同会社Ｊエンジニアリング,,合同会社,京都府,宇治市,木幡北島２１番地の５７,,26,204,6110002,,,,,,,2022-08-03,1,,,,,ジェイエンジニアリング,0
2691,9140001126920,新規,0,2022-08-03,2022-08-03,株式会社三輪,,株式会社,兵庫県,神戸市中央区,脇浜町２丁目１番１６号,,28,110,6510072,,,,,,,2022-08-03,1,,,,,ミワ,0
2692,9140001126937,新規,0,2022-08-03,2022-08-03,株式会社日和産業,,株式会社,兵庫県,姫路市,御国野町国分寺字酉ノ前６５５番地１,,28,201,6710234,,,,,,,2022-08-03,1,,,,,ニワサンギョウ,0
2693,9140001126978,新規,0,2022-08-03,2022-08-03,レトログラード株式会社,,株式会社,兵庫県,丹波篠山市,池上２４５番地１０,,28,221,6692436,,,,,,,2022-08-03,1,,,,,レトログラード,0
2694,9140001126986,新規,0,2022-08-03,2022-08-03,株式会社岸田電機,,株式会社,兵庫県,姫路市,下手野４丁目８番７２号,,28,201,6700063,,,,,,,2022-08-03,1,,,,,キシダデンキ,0
2700,9140003017993,新規,0,2022-08-03,2022-08-03,ＭＡＭ合同会社,,合同会社,兵庫県,神戸市兵庫区,吉田町２丁目２３番７号２階,,28,105,6520872,,,,,,,2022-08-03,1,,,,,マン,0
2704,9150001025733,新規,0,2022-08-03,2022-08-03,株式会社木理舎,,株式会社,奈良県,奈良市,佐紀町２１３４番地の１,,29,201,6308003,,,,,,,2022-08-03,1,,,,,キリヤ,0
2707,9160001024420,新規,0,2022-08-03,2022-08-03,株式会社ナカトモ,,株式会社,滋賀県,大津市,日吉台３丁目１７番１２号,,25,201,5200112,,,,,,,2022-08-03,1,,,,,ナカトモ,0
2712,9170001017217,新規,0,2022-08-03,2022-08-03,株式会社関西化工,,株式会社,和歌山県,和歌山市,島２６番地１３５,,30,201,6496314,,,,,,,2022-08-03,1,,,,,カンサイカコウ,0
2713,9170003001755,新規,0,2022-08-03,2022-08-03,合同会社Ｓａｔｔｖａ,,合同会社,和歌山県,紀の川市,貴志川町長山２５６番地メゾン・ドゥ・ソレイユＩＩ１０１,00127404,30,208,6400416,,,,,,,2022-08-03,1,,,,,サットヴァ,0
2720,9180001152418,新規,0,2022-08-03,2022-08-03,株式会社山口電気,,株式会社,愛知県,名古屋市緑区,姥子山４丁目８０６番地の４,,23,114,4580830,,,,,,,2022-08-03,1,,,,,ヤマグチデンキ,0
2721,9180001152442,新規,0,2022-08-03,2022-08-03,リージジャパン株式会社,,株式会社,愛知県,名古屋市瑞穂区,塩入町３番３号,,23,108,4670851,,,,,,,2022-08-03,1,,,,,リージジャパン,0
2723,9180003024053,新規,0,2022-08-03,2022-08-03,Ｄ’ｓ　Ｇｒａｃｅ　Ｊａｐａｎ合同会社,,合同会社,愛知県,西春日井郡豊山町,大字青山字江川１０－１,,23,342,4800201,,,,,,,2022-08-03,1,,,,,ディーズグレイスジャパン,0
2724,9180005019877,新規,0,2022-08-03,2022-08-03,行政書士法人つくし,,その他の設立登記法人,愛知県,犬山市,大字五郎丸字新田組１３番地５,,23,215,4840066,,,,,,,2022-08-03,1,,,,,ツクシ,0
2726,9180301036493,新規,0,2022-08-03,2022-08-03,株式会社Ｒ．Ｍ,,株式会社,愛知県,額田郡幸田町,大字菱池字菅田４３番地（３０１）,,23,501,4440113,,,,,,,2022-08-03,1,,,,,アールエム,0
2730,9190001029672,新規,0,2022-08-03,2022-08-03,株式会社アルクハナ,,株式会社,三重県,伊勢市,東大淀町５３２番地２,,24,203,5150509,,,,,,,2022-08-03,1,,,,,アルクハナ,0
2733,9200001040314,新規,0,2022-08-03,2022-08-03,株式会社Ｄｏｗｎ　Ｓｔｙｌｅ,,株式会社,岐阜県,飛騨市,神岡町東雲１１６３－５１,,21,217,5061147,,,,,,,2022-08-03,1,,,,,ダウンスタイル,0
2734,9200001040330,新規,0,2022-08-03,2022-08-03,株式会社ａｄｄ．,,株式会社,岐阜県,恵那市,長島町正家１０６１番地３１,,21,210,5097203,,,,,,,2022-08-03,1,,,,,アッド,0
2735,9200001040339,新規,0,2022-08-03,2022-08-03,株式会社プライス,,株式会社,岐阜県,羽島郡岐南町,上印食３丁目８４番地,,21,302,5016001,,,,,,,2022-08-03,1,,,,,プライス,0
2736,9200001040347,新規,0,2022-08-03,2022-08-03,株式会社遠藤工業,,株式会社,岐阜県,岐阜市,岩崎２７１番地４,,21,201,5020005,,,,,,,2022-08-03,1,,,,,エンドウコウギョウ,0
2740,9200005013373,新規,0,2022-08-03,2022-08-03,社会保険労務士法人伊佐治社会保険労務士事務所,,その他の設立登記法人,岐阜県,岐阜市,長良福光２４０８番地１,,21,201,5020817,,,,,,,2022-08-03,1,,,,,イサジシャカイホケンロウムシジムショ,0
2743,9220003003341,新規,0,2022-08-03,2022-08-03,合同会社Ｔ‐ＨＭＥ,,合同会社,石川県,金沢市,磯部町へ３１‐４,,17,201,9200012,,,,,,,2022-08-03,1,,,,,ティーエイチミー,0
2744,9220005008693,新規,0,2022-08-03,2022-08-03,一般社団法人ピースセンター小松,,その他の設立登記法人,石川県,小松市,本町４丁目５１番地,,17,203,9230937,,,,,,,2022-08-03,1,,,,,ピースセンターコマツ,0
2746,9230001019470,新規,0,2022-08-03,2022-08-03,株式会社浅利商店,,株式会社,富山県,富山市,千石町６丁目３番３号,,16,201,9300066,,,,,,,2022-08-03,1,,,,,アサリショウテン,0
2753,9240001060168,新規,0,2022-08-03,2022-08-03,株式会社オオシモ工業,,株式会社,広島県,広島市西区,庚午北４丁目９番２７‐３０９号,,34,104,7330821,,,,,,,2022-08-03,1,,,,,オオシモコウギョウ,0
2754,9240001060176,新規,0,2022-08-03,2022-08-03,株式会社にいや,,株式会社,広島県,広島市西区,横川町３丁目９番４号,,34,104,7330011,,,,,,,2022-08-03,1,,,,,ニイヤ,0
2759,9260001037107,新規,0,2022-08-03,2022-08-03,株式会社ＢＴＲ,,株式会社,岡山県,津山市,小原２００番地２９,,33,203,7080001,,,,,,,2022-08-03,1,,,,,ビーティアール,0
2762,9280001008758,新規,0,2022-08-03,2022-08-03,株式会社シマネライン,,株式会社,島根県,松江市,美保関町森山４５２番地１,,32,201,6901312,,,,,,,2022-08-03,1,,,,,シマネライン,0
2764,9280003001637,新規,0,2022-08-03,2022-08-03,合同会社ＳＩＧＮパートナーズ,,合同会社,島根県,浜田市,長浜町４９４番地甲,,32,202,6970063,,,,,,,2022-08-03,1,,,,,サインパートナーズ,0
2774,9290001098451,新規,0,2022-08-03,2022-08-03,株式会社田中情報サービス,,株式会社,福岡県,福岡市早良区,弥生１丁目２番３３－１０１号,,40,137,8140014,,,,,,,2022-08-03,1,,,,,タナカジョウホウサービス,0
2778,9290003012798,新規,0,2022-08-03,2022-08-03,合同会社豊将,,合同会社,福岡県,福岡市南区,野間３丁目１３番２４号,,40,134,8150041,,,,,,,2022-08-03,1,,,,,トヨマサ,0
2783,9290801028780,新規,0,2022-08-03,2022-08-03,ベルトラスト株式会社,,株式会社,福岡県,直方市,大字感田１３１４番地１,,40,204,8220001,,,,,,,2022-08-03,1,,,,,ベルトラスト,0
2793,9330003009468,新規,0,2022-08-03,2022-08-03,合同会社万庄,,合同会社,熊本県,熊本市西区,河内町東門寺８２３番地,,43,103,8615342,,,,,,,2022-08-03,1,,,,,バンショウ,0
2796,9350001017883,新規,0,2022-08-03,2022-08-03,株式会社ユノテック,,株式会社,宮崎県,小林市,東方７７２番地,,45,205,8860001,,,,,,,2022-08-03,1,,,,,ユノテック,0
2797,9350001017891,新規,0,2022-08-03,2022-08-03,蛯原林業株式会社,,株式会社,宮崎県,日南市,南郷町榎原丙８８０番地,,45,204,8893217,,,,,,,2022-08-03,1,,,,,エビハラリンギョウ,0
2799,9350003004137,新規,0,2022-08-03,2022-08-03,合同会社セラヴィ,,合同会社,宮崎県,宮崎市,大坪西２丁目１番３１号レイクサイド大坪２０３号,,45,201,8800932,,,,,,,2022-08-03,1,,,,,セラヴィ,0
2802,9370001048860,新規,0,2022-08-03,2022-08-03,株式会社成和ホールディングス,,株式会社,宮城県,富谷市,成田２丁目３番地３成田ビル２０１号,,04,216,9813341,,,,,,,2022-08-03,1,,,,,セイワホールディングス,0
2803,9370001048885,新規,0,2022-08-03,2022-08-03,株式会社東北不動産管財,,株式会社,宮城県,仙台市若林区,遠見塚２丁目４１番１７号フォーサイド１０１,,04,103,9840823,,,,,,,2022-08-03,1,,,,,トウホクフドウサンカンザイ,0
2804,9370001048893,新規,0,2022-08-03,2022-08-03,孝雅建設株式会社,,株式会社,宮城県,仙台市若林区,大和町３丁目１１番１－５１０号,,04,103,9840042,,,,,,,2022-08-03,1,,,,,コウガケンセツ,0
2817,9420003002554,新規,0,2022-08-03,2022-08-03,合同会社アズマシー,,合同会社,青森県,五所川原市,字大町５０１番地１５,,02,205,0370063,,,,,,,2022-08-03,1,,,,,アズマシー,0
2828,9500001024369,新規,0,2022-08-03,2022-08-03,株式会社ＲＯＩ,,株式会社,愛媛県,松山市,歩行町１丁目１３番地５,,38,201,7900801,,,,,,,2022-08-03,1,,,,,ロイ,0
