sequenceNumber,corporateNumber,process,correct,updateDate,changeDate,name,nameImageId,kind,prefectureName,cityName,streetNumber,addressImageId,prefectureCode,cityCode,postCode,addressOutside,addressOutsideImageId,closeDate,closeCause,successorCorporateNumber,changeCause,assignmentDate,latest,enName,enPrefectureName,enCityName,enAddressOutside,furigana,hihyoji
2,1010001067549,登記記録の閉鎖等,0,2024-10-31,2024-10-25,株式会社クエスト・インターナショナル,,株式会社,埼玉県,春日部市,南５丁目５番１９号,,11,214,3440064,,,2024-10-25,清算の結了等,,,2015-10-05,1,,,,,クエストインターナショナル,0
7,1010001171516,登記記録の閉鎖等,0,2024-10-31,2024-10-18,株式会社ＮＥＰ,,株式会社,東京都,中央区,日本橋３丁目２番１４号,,13,102,1030027,,,2024-10-18,清算の結了等,,,2015-11-09,1,,,,,,0
16,1010102001778,登記記録の閉鎖等,0,2024-10-31,2024-10-30,有限会社加藤造園,,有限会社,東京都,八王子市,小比企町１８３３番地の１,,13,201,1930934,,,2024-10-30,清算の結了等,,,2015-10-05,1,,,,,カトウゾウエン,0
25,1010701036588,登記記録の閉鎖等,0,2024-10-31,2024-10-28,株式会社ライブストリーミングジャパン,,株式会社,東京都,品川区,上大崎１丁目５番５号,,13,109,1410021,,,2024-10-28,清算の結了等,,,2018-10-15,1,,,,,ライブストリーミングジャパン,0
56,1011701022727,登記記録の閉鎖等,0,2024-10-31,2024-10-28,ＺＺＩＣ株式会社,,株式会社,東京都,江戸川区,中央４丁目９－３,,13,123,1320021,,,2024-10-28,清算の結了等,,,2019-06-18,1,,,,,ゼットゼットアイシー,0
72,1020001047905,登記記録の閉鎖等,0,2024-10-31,2024-10-15,株式会社リラックスホールディングス,,株式会社,神奈川県,横浜市神奈川区,金港町１番地１１－４００１号,,14,102,2210056,,,2024-10-15,清算の結了等,,,2015-10-05,1,,,,,リラックスホールディングス,0
82,1021001031931,登記記録の閉鎖等,0,2024-10-31,2024-10-29,小住装美株式会社,,株式会社,神奈川県,足柄下郡湯河原町,宮上７２４番地１８０,,14,384,2590314,,,2024-10-29,清算の結了等,,,2015-10-05,1,,,,,オズミソウビ,0
86,1021001060781,登記記録の閉鎖等,0,2024-10-31,2024-10-30,株式会社ジャパンライン,,株式会社,神奈川県,伊勢原市,東大竹２丁目８番１２－３２２号,,14,214,2591133,,,2024-10-30,清算の結了等,,,2016-11-30,1,,,,,,0
102,1030002060575,登記記録の閉鎖等,0,2024-10-31,2024-10-25,株式会社朝日新聞サービスアンカー・セキタ,,株式会社,埼玉県,和光市,本町２６番１６号,,11,229,3510114,,,2024-10-25,清算の結了等,,,2015-10-05,1,,,,,アサヒシンブンサービスアンカーセキタカ,0
104,1030002115461,登記記録の閉鎖等,0,2024-10-31,2024-10-25,有限会社オオハシ,,有限会社,埼玉県,熊谷市,万平町１丁目１３７番地,,11,202,3600034,,,2024-10-25,清算の結了等,,,2015-10-05,1,,,,,オオハシ,0
105,1030003008846,登記記録の閉鎖等,0,2024-10-31,2024-10-28,合同会社エーアンドエム,,合同会社,埼玉県,さいたま市南区,大字円正寺５２０番地１ルネ南浦和３０１,,11,108,3360043,,,2024-10-28,清算の結了等,,,2016-05-23,1,,,,,エーアンドエム,0
110,1040001028309,登記記録の閉鎖等,0,2024-10-31,2024-10-22,富士綜合警備保障株式会社,,株式会社,千葉県,船橋市,本町７丁目１２番８－３０３号,,12,204,2730005,,,2024-10-22,清算の結了等,,,2015-10-05,1,,,,,フジソウゴウケイビホショウ,0
113,1040001065665,登記記録の閉鎖等,0,2024-10-31,2024-10-25,サニー建設株式会社,,株式会社,千葉県,柏市,柏４丁目４番８号,,12,217,2770005,,,2024-10-25,清算の結了等,,,2015-10-05,1,,,,,サニーケンセツ,0
119,1050002003193,登記記録の閉鎖等,0,2024-10-31,2024-10-24,有限会社森田設備設計事務所,,有限会社,茨城県,水戸市,白梅３丁目６番２８号,,08,201,3100804,,,2024-10-24,清算の結了等,,,2015-10-05,1,,,,,モリタセツビセッケイジムショ,0
120,1050002030849,登記記録の閉鎖等,0,2024-10-31,2024-10-23,高島電機有限会社,,有限会社,茨城県,日立市,神峰町１丁目８番１２号,,08,202,3170064,,,2024-10-23,清算の結了等,,,2015-10-05,1,,,,,タカシマデンキ,0
123,1060002038107,登記記録の閉鎖等,0,2024-10-31,2024-10-25,有限会社ライフメンテナンス,,有限会社,栃木県,足利市,助戸東山町８７２番地４,,09,202,3260042,,,2024-10-25,清算の結了等,,,2015-10-05,1,,,,,ライフメンテナンス,0
135,1080405007350,登記記録の閉鎖等,0,2024-10-31,2024-10-29,一般社団法人しずおかスポーツプロモーション,,その他の設立登記法人,静岡県,御前崎市,門屋２０７０番地の２,,22,223,4371615,,,2024-10-29,清算の結了等,,,2021-05-06,1,,,,,シズオカスポーツプロモーション,0
138,1110002027764,登記記録の閉鎖等,0,2024-10-31,2024-10-25,有限会社サトミ石油,,有限会社,新潟県,長岡市,摂田屋４丁目１番１５号,,15,202,9401105,,,2024-10-25,清算の結了等,,,2015-10-05,1,,,,,サトミセキユ,0
165,1120105007274,登記記録の閉鎖等,0,2024-10-31,2024-10-28,医療法人若野歯科医院,,その他の設立登記法人,大阪府,阪南市,下出１６４番地の４,,27,232,5990202,,,2024-10-28,清算の結了等,,,2015-10-05,1,,,,,ワカノシカイイン,0
167,1120901041518,登記記録の閉鎖等,0,2024-10-31,2024-10-29,株式会社エアーシステムソリューション,,株式会社,大阪府,吹田市,千里山西５丁目３１番２０号,,27,205,5650851,,,2024-10-29,清算の結了等,,,2019-07-08,1,,,,,エアーシステムソリューション,0
194,1180002047970,登記記録の閉鎖等,0,2024-10-31,2024-10-17,有限会社ウェルカンパニー,,有限会社,愛知県,名古屋市中川区,中郷１丁目１８２番地,,23,110,4540921,,,2024-10-17,清算の結了等,,,2015-10-05,1,,,,,ウェルカンパニー,0
196,1180301004920,登記記録の閉鎖等,0,2024-10-31,2024-10-23,株式会社アグリ技研,,株式会社,愛知県,豊橋市,天伯町字天伯１１９番地の２,,23,201,4418122,,,2024-10-23,清算の結了等,,,2015-10-05,1,,,,,アグリギケン,0
207,1240002044730,登記記録の閉鎖等,0,2024-10-31,2024-10-28,島山自動車有限会社,,有限会社,広島県,福山市,加茂町字上加茂２５７番地の１,,34,207,7202419,,,2024-10-28,清算の結了等,,,2015-10-05,1,,,,,シマヤマジドウシャ,0
209,1250001012308,登記記録の閉鎖等,0,2024-10-31,2024-10-24,株式会社ＢＭＣ,,株式会社,広島県,広島市安佐南区,伴南４丁目６番８号,,34,105,7313168,,,2024-10-24,清算の結了等,,,2015-10-05,1,,,,,ビーエムシー,0
210,1260002028211,登記記録の閉鎖等,0,2024-10-31,2024-10-24,有限会社グローバル,,有限会社,岡山県,苫田郡鏡野町,吉原６７８番地,,33,606,7080332,,,2024-10-24,清算の結了等,,,2015-10-05,1,,,,,グローバル,0
222,1290805007094,登記記録の閉鎖等,0,2024-10-31,2024-10-22,医療法人春桜会,,その他の設立登記法人,福岡県,春日市,星見ヶ丘２丁目５５番２０,,40,218,8160849,,,2024-10-22,清算の結了等,,,2015-10-05,1,,,,,シュンオウカイ,0
226,1350001014574,登記記録の閉鎖等,0,2024-10-31,2024-10-28,株式会社あゆむ,,株式会社,宮崎県,串間市,大字西方２６４７番地１,,45,207,8880001,,,2024-10-28,清算の結了等,,,2017-03-29,1,,,,,アユム,0
231,1370002015909,登記記録の閉鎖等,0,2024-10-31,2024-10-17,有限会社スムースリー,,有限会社,宮城県,大崎市,古川大幡字月蔵２６番地３,,04,215,9896114,,,2024-10-17,清算の結了等,,,2015-10-05,1,,,,,スムースリー,0
243,1430003007733,登記記録の閉鎖等,0,2024-10-31,2024-10-28,ＳＰＴ．Ｅ．ＭＡＫＩＢＡ合同会社,,合同会社,北海道,江別市,牧場町１３番８,,01,217,0670005,,,2024-10-28,清算の結了等,,,2016-07-13,1,,,,,エスピーティーイーマキバ,0
250,1470001018778,登記記録の閉鎖等,0,2024-10-31,2024-10-29,株式会社つむぎ建築工房,,株式会社,香川県,高松市,下田井町５３０番地４,,37,201,7610313,,,2024-10-29,清算の結了等,,,2021-10-20,1,,,,,ツムギケンチクコウボウ,0
283,2010701001541,登記記録の閉鎖等,0,2024-10-31,2024-10-25,株式会社エンジニアリングラボ,,株式会社,東京都,品川区,東大井３丁目２０番３２号,,13,109,1400011,,,2024-10-25,清算の結了等,,,2015-10-05,1,,,,,エンジニアリングラボ,0
293,2011101015438,登記記録の閉鎖等,0,2024-10-31,2024-10-18,株式会社中村製作所,,株式会社,東京都,新宿区,舟町１３番地,,13,104,1600006,,,2024-10-18,清算の結了等,,,2015-10-05,1,,,,,ナカムラセイサクジョ,0
295,2011101055541,登記記録の閉鎖等,0,2024-10-31,2024-10-29,株式会社キャスティングロード,,株式会社,東京都,新宿区,新宿３丁目１番２４号京王新宿三丁目ビル７階,,13,104,1600022,,,2024-10-29,合併による解散等,3010501027496,令和６年１０月１日東京都台東区台東一丁目１番１４号Ｄ’ｓＶＡＲＩＥ秋葉原ビル５階株式会社ミライル（3010501027496）に合併し解散,2015-10-05,1,,,,,キャスティングロード,0
300,2011301004174,登記記録の閉鎖等,0,2024-10-31,2024-10-25,株式会社高橋電気商店,,株式会社,東京都,杉並区,阿佐谷北４丁目２２番３号,,13,115,1660001,,,2024-10-25,清算の結了等,,,2015-10-05,1,,,,,タカハシデンキショウテン,0
314,2020001053670,登記記録の閉鎖等,0,2024-10-31,2024-10-03,カムイ株式会社,,株式会社,神奈川県,横浜市戸塚区,戸塚町３９１５番地,,14,110,2440003,,,2024-10-03,清算の結了等,,,2015-10-05,1,,,,,カムイ,0
322,2020005011732,登記記録の閉鎖等,0,2024-10-31,2024-10-15,一般社団法人アルページュホームヒーリング協会,,その他の設立登記法人,神奈川県,横浜市港北区,下田町６丁目８番１２号,,14,109,2230064,,,2024-10-15,清算の結了等,,,2015-10-05,1,,,,,アルページュホームヒーリングキョウカイ,0
326,2030001039248,登記記録の閉鎖等,0,2024-10-31,2024-10-28,フォースカスタム株式会社,,株式会社,埼玉県,草加市,稲荷４丁目３８番１８号,,11,221,3400003,,,2024-10-28,清算の結了等,,,2015-10-05,1,,,,,フォースカスタム,0
328,2030001089482,登記記録の閉鎖等,0,2024-10-31,2024-10-25,つちや食品工業株式会社,,株式会社,埼玉県,飯能市,大字下加治１９６番地,,11,209,3570016,,,2024-10-25,清算の結了等,,,2015-10-05,1,,,,,ツチヤショクヒンコウギョウ,0
344,2040001036343,登記記録の閉鎖等,0,2024-10-31,2024-10-23,株式会社松戸ＬＩＸＩＬ製作所,,株式会社,茨城県,土浦市,紫ケ丘４番地,,08,203,3000003,,,2024-10-23,清算の結了等,,,2015-10-05,1,,,,,マツドリクシルセイサクショ,0
364,2080002014955,登記記録の閉鎖等,0,2024-10-31,2024-10-25,有限会社パワーゾーン,,有限会社,静岡県,牧之原市,波津１６２３番地２,,22,226,4210523,,,2024-10-25,合併による解散等,1080001016326,令和６年１０月２５日静岡県藤枝市大洲二丁目１０番地の１大藤建設株式会社（1080001016326）に合併し解散,2015-10-05,1,,,,,パワーゾーン,0
366,2080101001193,登記記録の閉鎖等,0,2024-10-31,2024-10-30,株式会社東海コメット,,株式会社,静岡県,沼津市,東椎路８９番地の３,,22,203,4100302,,,2024-10-30,清算の結了等,,,2015-10-05,1,,,,,トウカイコメット,0
372,2080402021147,登記記録の閉鎖等,0,2024-10-31,2024-10-30,有限会社伊藤製材,,有限会社,静岡県,磐田市,下神増１７６番地の３,,22,211,4380126,,,2024-10-30,清算の結了等,,,2015-10-05,1,,,,,イトウセイザイ,0
378,2110001031485,登記記録の閉鎖等,0,2024-10-31,2024-10-28,株式会社桔梗屋,,株式会社,新潟県,中魚沼郡津南町,大字谷内２２９４番地１,,15,482,9498204,,,2024-10-28,清算の結了等,,,2016-05-02,1,,,,,キキョウヤ,0
404,2120101038834,登記記録の閉鎖等,0,2024-10-31,2024-10-30,大協トラベルサービス株式会社,,株式会社,大阪府,岸和田市,田治米町３９７番地の７,,27,202,5960805,,,2024-10-30,清算の結了等,,,2015-10-05,1,,,,,ダイキョウトラベルサービス,0
409,2120901011981,登記記録の閉鎖等,0,2024-10-31,2024-10-28,株式会社北摂電商,,株式会社,大阪府,高槻市,神内２丁目３番５号,,27,207,5690007,,,2024-10-28,清算の結了等,,,2015-10-05,1,,,,,ホクセツデンショウ,0
433,2180001121230,登記記録の閉鎖等,0,2024-10-31,2024-10-18,株式会社モンズハウス,,株式会社,愛知県,一宮市,平安１丁目３番１６号,,23,203,4910872,,,2024-10-18,清算の結了等,,,2015-12-04,1,,,,,モンズハウス,0
436,2180003022914,登記記録の閉鎖等,0,2024-10-31,2024-10-17,合同会社つみ木,,合同会社,愛知県,東海市,加木屋町鎌吉良根５３番地１,,23,222,4770032,,,2024-10-17,清算の結了等,,,2021-09-08,1,,,,,ツミキ,0
444,2230002000287,登記記録の閉鎖等,0,2024-10-31,2024-10-30,有限会社イケハラ,,有限会社,富山県,富山市,下冨居１丁目１０番４０号,,16,201,9300814,,,2024-10-30,清算の結了等,,,2015-10-05,1,,,,,イケハラ,0
446,2240001057930,登記記録の閉鎖等,0,2024-10-31,2024-10-17,株式会社古本工業,,株式会社,広島県,呉市,仁方皆実町４番３９号,,34,202,7370156,,,2024-10-17,清算の結了等,,,2021-05-11,1,,,,,フルモトコウギョウ,0
448,2240002054919,登記記録の閉鎖等,0,2024-10-31,2024-10-28,有限会社堀越金属工業所,,有限会社,広島県,広島市南区,堀越２丁目３番２０号,,34,103,7340052,,,2024-10-28,清算の結了等,,,2024-03-25,1,,,,,ホリコシキンゾクコウギョウショ,0
454,2260001027196,登記記録の閉鎖等,0,2024-10-31,2024-10-24,株式会社読宣岡山トランスポート,,株式会社,岡山県,岡山市北区,大安寺南町１丁目１番６５号,,33,101,7000064,,,2024-10-24,清算の結了等,,,2015-10-05,1,,,,,ヨミセンオカヤマトランスポート,0
464,2290005012150,登記記録の閉鎖等,0,2024-10-31,2024-07-30,白峯神社,,その他の設立登記法人,福岡県,みやま市,高田町舞鶴６５５番地,,40,229,8350131,,,2024-07-30,合併による解散等,7290005012212,令和６年７月３０日福岡県みやま市高田町舞鶴２６２番地老松神社（7290005012212）に合併し解散,2015-10-05,1,,,,,シラミネジンジャ,0
468,2290005017678,登記記録の閉鎖等,0,2024-10-31,2024-09-12,一般社団法人九州オムレツ協会,,その他の設立登記法人,福岡県,福岡市南区,寺塚２丁目８番３－２２１号金子アベニュー,,40,134,8150074,,,2024-09-12,清算の結了等,,,2020-03-03,1,,,,,キュウシュウオムレツキョウカイ,0
476,2340002028697,登記記録の閉鎖等,0,2024-10-31,2024-10-29,有限会社正村ハイツ,,有限会社,鹿児島県,鹿児島市,日之出町４２番１４号,,46,201,8900086,,,2024-10-29,清算の結了等,,,2024-05-28,1,,,,,ショウムラハイツ,0
477,2340005004670,登記記録の閉鎖等,0,2024-10-31,2024-09-19,天理教芦大勝分教会,00100272,その他の設立登記法人,鹿児島県,大島郡龍郷町,大勝２２７６番地,,46,527,8940105,,,2024-09-19,合併による解散等,2340005004679,令和６年９月１９日鹿児島県奄美市名瀬安勝町２８番１号天理教大島分教会（2340005004679）に合併し解散,2015-10-05,1,,,,,テンリキョウアシオオガチブンキョウカイ,0
484,2350002018111,登記記録の閉鎖等,0,2024-10-31,2024-10-29,有限会社吉永建設,,有限会社,宮崎県,小林市,東方４５３番地８,,45,205,8860001,,,2024-10-29,清算の結了等,,,2015-10-05,1,,,,,ヨシナガケンセツ,0
486,2360001032021,登記記録の閉鎖等,0,2024-10-31,2024-10-29,株式会社ネクストトライ,,株式会社,沖縄県,浦添市,牧港２丁目３６番３－４０２号,,47,208,9012131,,,2024-10-29,清算の結了等,,,2023-05-18,1,,,,,ネクストトライ,0
498,2430001073165,登記記録の閉鎖等,0,2024-10-31,2024-10-29,東洋商事株式会社,,株式会社,北海道,札幌市中央区,北一条東５丁目１０番７号２０８号室,,01,101,0600031,,,2024-10-29,清算の結了等,,,2017-01-24,1,,,,,トウヨウショウジ,0
524,3010102003434,登記記録の閉鎖等,0,2024-10-31,2024-10-29,有限会社白木屋商店,,有限会社,東京都,八王子市,西寺方町１００６番地の１４４,,13,201,1920153,,,2024-10-29,清算の結了等,,,2015-10-05,1,,,,,シロキヤショウテン,0
538,3011001018184,登記記録の閉鎖等,0,2024-10-31,2024-10-04,株式会社ネクスト,,株式会社,東京都,渋谷区,東１丁目１０番１１号,,13,113,1500011,,,2024-10-04,清算の結了等,,,2015-10-05,1,,,,,ネクスト,0
544,3011001156348,登記記録の閉鎖等,0,2024-10-31,2024-09-25,株式会社ＨＴＨ,,株式会社,東京都,港区,三田３丁目１２番１４号,,13,103,1080073,,,2024-09-25,合併による解散等,4010001237462,令和６年９月１日東京都千代田区有楽町一丁目１３番２号第一生命日比谷ファースト１８階株式会社ＳＰホールディングス（4010001237462）に合併し解散,2023-08-16,1,,,,,エイチティーエイチ,0
550,3011503002421,登記記録の閉鎖等,0,2024-10-31,2024-10-29,心常合同会社,,合同会社,東京都,北区,上十条２丁目８番５号,,13,117,1140034,,,2024-10-29,清算の結了等,,,2015-10-05,1,,,,,,0
567,3020001028630,登記記録の閉鎖等,0,2024-10-31,2024-10-03,株式会社武相工務店,,株式会社,神奈川県,横浜市中区,野毛町２丁目９０番地,,14,104,2310064,,,2024-10-03,清算の結了等,,,2023-11-01,1,,,,,,0
569,3020001128117,登記記録の閉鎖等,0,2024-10-31,2024-10-15,株式会社エイトインターナショナル,,株式会社,神奈川県,横浜市中区,桜木町１丁目１－７ＴＯＣみなとみらい１０階,,14,104,2310062,,,2024-10-15,清算の結了等,,,2018-10-02,1,,,,,エイトインターナショナル,0
584,3030001020058,登記記録の閉鎖等,0,2024-10-31,2024-10-28,株式会社梅田組,,株式会社,埼玉県,戸田市,本町２丁目８番９号,,11,224,3350023,,,2024-10-28,清算の結了等,,,2015-10-05,1,,,,,,0
585,3030001043100,登記記録の閉鎖等,0,2024-10-31,2024-10-25,株式会社アッシュ,,株式会社,埼玉県,さいたま市岩槻区,大字小溝７６５番地２０,,11,110,3390003,,,2024-10-25,清算の結了等,,,2015-10-05,1,,,,,アッシュ,0
607,3060002040044,登記記録の閉鎖等,0,2024-10-31,2024-10-28,有限会社小林工務店,,有限会社,栃木県,佐野市,葛生西２丁目４番１６号,,09,204,3270507,,,2024-10-28,清算の結了等,,,2015-10-05,1,,,,,コバヤシコウムテン,0
617,3110001002642,登記記録の閉鎖等,0,2024-10-31,2024-10-28,昭和コピー工業株式会社,,株式会社,新潟県,新潟市中央区,女池２丁目５番１３号,,15,103,9500941,,,2024-10-28,清算の結了等,,,2015-10-05,1,,,,,ショウワコピーコウギョウ,0
618,3110001031138,登記記録の閉鎖等,0,2024-10-31,2024-10-25,株式会社でかしました佐渡,,株式会社,新潟県,佐渡市,両津福浦２丁目２番地１５,,15,224,9520013,,,2024-10-25,清算の結了等,,,2015-12-17,1,,,,,デカシマシタサド,0
620,3120001077989,登記記録の閉鎖等,0,2024-10-31,2024-10-29,株式会社ギヤラクシー・トウエンテイワン,,株式会社,大阪府,大阪市福島区,鷺洲１丁目７番２９号パレット２０１,,27,103,5530002,,,2024-10-29,清算の結了等,,,2015-10-05,1,,,,,ギヤラクシートウエンテイワン,0
647,3140005015407,登記記録の閉鎖等,0,2024-10-31,2024-10-29,三田本町通りセンター街協同組合,,その他の設立登記法人,兵庫県,三田市,三田町２８番２８号,,28,219,6691533,,,2024-10-29,清算の結了等,,,2015-10-05,1,,,,,サンダホンマチドオリセンターガイ,0
651,3180001086010,登記記録の閉鎖等,0,2024-10-31,2024-09-24,日本バルブコントロールズ株式会社,,株式会社,愛知県,名古屋市中村区,名駅南１丁目２１番１９号,,23,105,4500003,,,2024-09-24,合併による解散等,9010601063147,令和６年９月１日東京都港区西新橋一丁目１番１号ＮＶＣホールディングス株式会社（9010601063147）に合併し解散,2015-10-05,1,,,,,ニホンバルブコントロールズ,0
669,3240001037799,登記記録の閉鎖等,0,2024-10-31,2024-10-30,因の島運輸株式会社,,株式会社,広島県,尾道市,因島土生町２２０１番地,,34,205,7222323,,,2024-10-30,清算の結了等,,,2015-10-05,1,,,,,インノシマウンユ,0
677,3250002004657,登記記録の閉鎖等,0,2024-10-31,2024-10-28,有限会社ケイエイチワイ企画,,有限会社,山口県,宇部市,山門４丁目１番２４号,,35,202,7550077,,,2024-10-28,清算の結了等,,,2015-10-05,1,,,,,ケイエイチワイキカク,0
678,3250002017205,登記記録の閉鎖等,0,2024-10-31,2024-10-25,有限会社読売新聞光中央サービスセンター,,有限会社,山口県,光市,光井９丁目１４番１４号,,35,210,7430011,,,2024-10-25,清算の結了等,,,2015-10-05,1,,,,,,0
681,3290001054600,登記記録の閉鎖等,0,2024-10-31,2024-10-24,株式会社熊澤建設,,株式会社,福岡県,柳川市,久々原１３０番地７,,40,207,8320086,,,2024-10-24,清算の結了等,,,2015-10-05,1,,,,,クマザワケンセツ,0
688,3290002039757,登記記録の閉鎖等,0,2024-10-31,2024-09-30,有限会社新原,,有限会社,福岡県,太宰府市,通古賀６丁目１５番１号,,40,221,8180104,,,2024-09-30,清算の結了等,,,2015-10-05,1,,,,,ニイハラ,0
707,3430001057514,登記記録の閉鎖等,0,2024-10-31,2024-10-28,株式会社日通パワーサプライ,,株式会社,北海道,伊達市,山下町１６１番地,,01,233,0520032,,,2024-10-28,清算の結了等,,,2015-10-05,1,,,,,ニッツウパワーサプライ,0
713,3450001006196,登記記録の閉鎖等,0,2024-10-31,2024-10-25,旭日工業株式会社,,株式会社,北海道,旭川市,旭岡２丁目４番地の２３,,01,204,0700822,,,2024-10-25,清算の結了等,,,2015-10-05,1,,,,,キョクジツコウギョウ,0
748,4011001019207,登記記録の閉鎖等,0,2024-10-31,2024-10-29,株式会社ＳＰＳ,,株式会社,埼玉県,ふじみ野市,西２丁目１番２５号,,11,245,3560005,,,2024-10-29,合併による解散等,4011001046416,令和６年１０月１日東京都渋谷区渋谷一丁目１２番７号株式会社ＳＧＳ（4011001046416）に合併し解散,2015-10-05,1,,,,,エスピーエス,0
755,4011102028404,登記記録の閉鎖等,0,2024-10-31,2024-10-17,有限会社ワイエムプランニング．,,有限会社,東京都,新宿区,新宿２丁目９番２３号ＳＶＡＸ新宿Ｂ館４Ｆ,,13,104,1600022,,,2024-10-17,清算の結了等,,,2015-10-05,1,,,,,,0
756,4011501004724,登記記録の閉鎖等,0,2024-10-31,2024-10-28,株式会社森元,,株式会社,東京都,北区,滝野川７丁目７番１１号,,13,117,1140023,,,2024-10-28,清算の結了等,,,2015-10-05,1,,,,,モリゲン,0
768,4013301021164,登記記録の閉鎖等,0,2024-10-31,2024-10-28,株式会社棋苑図書,,株式会社,埼玉県,八潮市,大字浮塚３２３番１号,,11,234,3400835,,,2024-10-28,清算の結了等,,,2015-10-05,1,,,,,キエントショ,0
793,4030001026707,登記記録の閉鎖等,0,2024-10-31,2024-10-25,株式会社ヨシヤス,,株式会社,埼玉県,狭山市,大字南入曽１００２番地の２,,11,215,3501316,,,2024-10-25,清算の結了等,,,2015-10-05,1,,,,,ヨシヤス,0
798,4030002024172,登記記録の閉鎖等,0,2024-10-31,2024-10-28,有限会社小暮製作所,,有限会社,埼玉県,戸田市,大字新曽７７６番地６,,11,224,3350021,,,2024-10-28,清算の結了等,,,2015-10-05,1,,,,,コグレセイサクショ,0
803,4040001024107,登記記録の閉鎖等,0,2024-10-31,2024-10-25,メディカルコム株式会社,,株式会社,千葉県,船橋市,松が丘１丁目５２番３２号,,12,204,2740064,,,2024-10-25,合併による解散等,6030001066965,令和６年１０月１日埼玉県北葛飾郡松伏町築比地７９５番地１株式会社ウィーズ（6030001066965）に合併し解散,2015-10-05,1,,,,,メヂィカルコム,0
805,4040001033033,登記記録の閉鎖等,0,2024-10-31,2024-09-24,株式会社Ｍ＆Ｎ,,株式会社,千葉県,市川市,八幡３丁目２９－２０秋葉ビル２０５,,12,203,2720021,,,2024-09-24,合併による解散等,2040001103779,令和６年９月１２日千葉県銚子市春日町１０５番地アステルサポート株式会社（2040001103779）に合併し解散,2015-10-05,1,,,,,エムアンドエヌ,0
818,4060001014147,登記記録の閉鎖等,0,2024-10-31,2024-10-28,株式会社関東商会,,株式会社,栃木県,小山市,大字神鳥谷３０９番地５０,,09,208,3230827,,,2024-10-28,清算の結了等,,,2015-10-05,1,,,,,カントウショウカイ,0
819,4060001029376,登記記録の閉鎖等,0,2024-10-31,2024-10-28,株式会社ティーズ・クリエイト,,株式会社,栃木県,足利市,山下町２５６４番地,,09,202,3260846,,,2024-10-28,清算の結了等,,,2017-05-17,1,,,,,ティーズクリエイト,0
821,4070002015614,登記記録の閉鎖等,0,2024-10-31,2024-10-30,有限会社ネップ,,有限会社,群馬県,高崎市,新町１６５３番地５,,10,202,3701301,,,2024-10-30,清算の結了等,,,2015-10-05,1,,,,,,0
837,4120001178092,登記記録の閉鎖等,0,2024-10-31,2024-10-30,株式会社テクノジパング,,株式会社,群馬県,館林市,成島町２２２番地タツザワビル,,10,207,3740055,,,2024-10-30,清算の結了等,,,2015-10-05,1,,,,,テクノジパング,0
853,4122003002164,登記記録の閉鎖等,0,2024-10-31,2024-10-29,ハルショウ合同会社,,合同会社,大阪府,四條畷市,雁屋北町１８－２３,,27,229,5750035,,,2024-10-29,清算の結了等,,,2021-08-31,1,,,,,ハルショウ,0
870,4180302026878,登記記録の閉鎖等,0,2024-10-31,2024-10-25,有限会社すし友,,有限会社,愛知県,西尾市,吉良町津平西深６６番地１,,23,213,4440503,,,2024-10-25,清算の結了等,,,2015-10-05,1,,,,,スシトモ,0
875,4200002018025,登記記録の閉鎖等,0,2024-10-31,2024-10-30,有限会社アイテクノコーポレーション,,有限会社,岐阜県,可児市,長坂１丁目６８番地,,21,214,5090257,,,2024-10-30,清算の結了等,,,2015-10-05,1,,,,,,0
880,4240002032914,登記記録の閉鎖等,0,2024-10-31,2024-10-29,栄工業有限会社,,有限会社,広島県,呉市,畝原町４番８号,,34,202,7370061,,,2024-10-29,清算の結了等,,,2015-10-05,1,,,,,サカエコウギョウ,0
881,4240002034150,登記記録の閉鎖等,0,2024-10-31,2024-10-28,有限会社丸山運送,,有限会社,広島県,呉市,広塩焼１丁目２１番１７号,,34,202,7370103,,,2024-10-28,清算の結了等,,,2015-10-05,1,,,,,マルヤマウンソウ,0
884,4250003003211,登記記録の閉鎖等,0,2024-10-31,2024-10-28,合同会社Ｓａｋｕｒａ,,合同会社,山口県,山口市,大内矢田南４丁目１１番３号,,35,203,7530222,,,2024-10-28,清算の結了等,,,2023-01-23,1,,,,,サクラ,0
889,4260003002121,登記記録の閉鎖等,0,2024-10-31,2024-10-28,合同会社リブラ,,合同会社,岡山県,岡山市中区,東川原２５０番地４２,,33,102,7038255,,,2024-10-28,清算の結了等,,,2016-11-25,1,,,,,リブラ,0
890,4270001008284,登記記録の閉鎖等,0,2024-10-31,2024-10-29,株式会社帆乃風,,株式会社,鳥取県,境港市,中野町２７３番地,,31,204,6840041,,,2024-10-29,清算の結了等,,,2021-05-27,1,,,,,ホノカゼ,0
897,4290002002672,登記記録の閉鎖等,0,2024-10-31,2024-10-01,高木地所有限会社,,有限会社,福岡県,福岡市南区,井尻５丁目２４番２４号,,40,134,8111302,,,2024-10-01,清算の結了等,,,2015-10-05,1,,,,,タカギジショ,0
901,4290805006639,登記記録の閉鎖等,0,2024-10-31,2024-10-18,西岸寺,,その他の設立登記法人,福岡県,行橋市,大字天生田８１２番地,,40,213,8240044,,,2024-10-18,清算の結了等,,,2015-10-05,1,,,,,セイガンジ,0
910,4320002021074,登記記録の閉鎖等,0,2024-10-31,2024-10-25,有限会社古田薬局,,有限会社,大分県,中津市,大字宮夫１２番地６,,44,203,8710012,,,2024-10-25,合併による解散等,6030001066965,令和６年１０月１日埼玉県北葛飾郡松伏町築比地７９５番地１株式会社ウィーズ（6030001066965）に合併し解散,2015-10-05,1,,,,,フルタヤッキョク,0
911,4330001022923,登記記録の閉鎖等,0,2024-10-31,2024-10-25,株式会社丸心運輸,,株式会社,熊本県,八代市,大村町６８８番地,,43,202,8660895,,,2024-10-25,清算の結了等,,,2016-07-06,1,,,,,マルシンウンユ,0
917,4330005005742,登記記録の閉鎖等,0,2024-10-31,2024-09-18,本庄菅原神社,,その他の設立登記法人,熊本県,宇城市,三角町郡浦２６６６番地,,43,213,8693202,,,2024-09-18,合併による解散等,4330005005734,令和６年９月１８日熊本県宇城市三角町郡浦２６６６番地郡浦神社（4330005005734）に合併し解散,2015-10-05,1,,,,,ホンジョウスガワラジンジャ,0
924,4350005000989,登記記録の閉鎖等,0,2024-10-31,2024-10-28,職業訓練法人宮崎美容人材育成協会,,その他の設立登記法人,宮崎県,宮崎市,大字本郷南方４１４０番地１,,45,201,8800921,,,2024-10-28,清算の結了等,,,2015-10-05,1,,,,,ミヤザキビヨウジンザイイクセイキョウカイ,0
925,4360001013639,登記記録の閉鎖等,0,2024-10-31,2024-10-29,ＲＴＬ株式会社,,株式会社,沖縄県,宜野湾市,大謝名５丁目２０番８号,,47,205,9012225,,,2024-10-29,清算の結了等,,,2015-10-05,1,,,,,アールティエル,0
931,4370005009194,登記記録の閉鎖等,0,2024-10-31,2024-10-16,一般社団法人日本小型水難救助艇協会,,その他の設立登記法人,宮城県,大崎市,鹿島台広長字大館下５番地５,,04,215,9894104,,,2024-10-16,清算の結了等,,,2017-04-10,1,,,,,ニホンコガタスイナンキュウジョテイキョウカイ,0
932,4380001025888,登記記録の閉鎖等,0,2024-10-31,2024-10-18,株式会社絆栄,,株式会社,福島県,福島市,南沢又字中琵琶渕３０番地渡辺ビル１階南,,07,201,9608254,,,2024-10-18,清算の結了等,,,2015-10-05,1,,,,,,0
938,4430001042639,登記記録の閉鎖等,0,2024-10-31,2024-10-29,平成地所開発株式会社,,株式会社,北海道,江別市,四条５丁目５番地,,01,217,0670014,,,2024-10-29,清算の結了等,,,2015-10-05,1,,,,,,0
946,4440002008951,登記記録の閉鎖等,0,2024-10-31,2024-10-25,有限会社千葉呉服店,,有限会社,北海道,瀬棚郡今金町,字今金１５７番地,,01,370,0494308,,,2024-10-25,清算の結了等,,,2015-10-05,1,,,,,チバゴフクテン,0
948,4460105000093,登記記録の閉鎖等,0,2024-10-31,2024-09-18,宗教法人エホバの証人の幕別会衆,,その他の設立登記法人,北海道,中川郡幕別町,緑町１２番地８１,,01,643,0890614,,,2024-09-18,合併による解散等,2460105000095,令和６年９月１８日北海道帯広市西二十一条北一丁目５番地５エホバの証人の帯広市南会衆（2460105000095）に合併し解散,2015-10-05,1,,,,,,0
949,4460301004014,登記記録の閉鎖等,0,2024-10-31,2024-10-30,株式会社ローズファームきたみ,,株式会社,北海道,北見市,双葉町１丁目１番１号,,01,208,0900054,,,2024-10-30,清算の結了等,,,2015-10-05,1,,,,,,0
951,4470002017818,登記記録の閉鎖等,0,2024-10-31,2024-10-28,有限会社石原工業,,有限会社,香川県,さぬき市,鴨庄４４４３番地２１５,,37,206,7692102,,,2024-10-28,清算の結了等,,,2015-10-05,1,,,,,イシハラコウギョウ,0
952,4480001009468,登記記録の閉鎖等,0,2024-10-31,2024-10-29,株式会社ＱＬＩＰ,,株式会社,徳島県,徳島市,寺島本町東３丁目１２番地の８,,36,201,7700832,,,2024-10-29,清算の結了等,,,2015-12-02,1,,,,,クリップ,0
961,5010001099340,登記記録の閉鎖等,0,2024-10-31,2024-10-11,グッドサービス株式会社,,株式会社,東京都,中央区,日本橋大伝馬町１０番２号,,13,102,1030011,,,2024-10-11,合併による解散等,1010001050166,令和６年１０月１日東京都中央区日本橋大伝馬町１０番２号中央運輸株式会社（1010001050166）に合併し解散,2015-10-05,1,,,,,グッドサービス,0
965,5010003016847,登記記録の閉鎖等,0,2024-10-31,2024-10-17,エイチ・ケイ・リミテッド合同会社,,合同会社,東京都,文京区,小日向２丁目１１番１１号,,13,105,1120006,,,2024-10-17,清算の結了等,,,2015-10-05,1,,,,,エイチケイリミテッド,0
995,5011101068136,登記記録の閉鎖等,0,2024-10-31,2024-10-29,株式会社ジョブス,,株式会社,東京都,新宿区,新宿２丁目３番１３号,,13,104,1600022,,,2024-10-29,合併による解散等,3010501027496,令和６年１０月１日東京都台東区台東一丁目１番１４号Ｄ’ｓＶＡＲＩＥ秋葉原ビル５階株式会社ミライル（3010501027496）に合併し解散,2015-10-05,1,,,,,ジョブス,0
1009,5011701026311,登記記録の閉鎖等,0,2024-10-31,2024-10-23,株式会社めぐ流,,株式会社,東京都,江戸川区,中央３丁目２０番２４号,,13,123,1320021,,,2024-10-23,清算の結了等,,,2023-06-09,1,,,,,メグル,0
1010,5011702011171,登記記録の閉鎖等,0,2024-10-31,2024-10-25,有限会社瑞江トラベル,,有限会社,東京都,江戸川区,東瑞江３丁目４９番１７号,,13,123,1320014,,,2024-10-25,清算の結了等,,,2015-10-05,1,,,,,ミズエトラベル,0
1011,5011702016963,登記記録の閉鎖等,0,2024-10-31,2024-10-25,有限会社ＴＦＣ,,有限会社,東京都,江戸川区,鹿骨２丁目７番１４号,,13,123,1330073,,,2024-10-25,清算の結了等,,,2015-10-05,1,,,,,,0
1048,5021002043105,登記記録の閉鎖等,0,2024-10-31,2024-10-29,有限会社アドバンス,,有限会社,神奈川県,座間市,入谷東４丁目５６番９号,,14,216,2520028,,,2024-10-29,清算の結了等,,,2015-10-05,1,,,,,,0
1049,5021002052824,登記記録の閉鎖等,0,2024-10-31,2024-10-28,パリー有限会社,,有限会社,神奈川県,小田原市,栄町１丁目１７番３２号,,14,206,2500011,,,2024-10-28,清算の結了等,,,2015-10-05,1,,,,,パリー,0
1054,5030001162492,登記記録の閉鎖等,0,2024-10-31,2024-10-25,北埼ツバメ石油株式会社,,株式会社,埼玉県,行田市,大字下須戸２４３９番地１,,11,206,3610012,,,2024-10-25,清算の結了等,,,2024-09-26,1,,,,,ホクサイツバメセキユ,0
1057,5030002071734,登記記録の閉鎖等,0,2024-10-31,2024-10-25,有限会社ケーエム商会,,有限会社,埼玉県,春日部市,大畑９番地日神パレステージ武里８０１号,,11,214,3440022,,,2024-10-25,清算の結了等,,,2015-10-05,1,,,,,ケーエムショウカイ,0
1067,5060001022355,登記記録の閉鎖等,0,2024-10-31,2024-10-28,株式会社フードフロンティア,,株式会社,栃木県,宇都宮市,駒生町３３５８番地２３,,09,201,3200065,,,2024-10-28,清算の結了等,,,2015-10-05,1,,,,,フードフロンティア,0
1069,5070001024887,登記記録の閉鎖等,0,2024-10-31,2024-10-30,ＮＥＰアドワークス株式会社,,株式会社,群馬県,高崎市,新町１６５３番地６,,10,202,3701301,,,2024-10-30,清算の結了等,,,2015-10-05,1,,,,,ネップアドワークス,0
1085,5120001069332,登記記録の閉鎖等,0,2024-10-31,2024-10-29,株式会社東アジア交流センター,,株式会社,大阪府,大阪市中央区,安土町１丁目８番１号,,27,128,5410052,,,2024-10-29,清算の結了等,,,2015-10-05,1,,,,,,0
1127,5130001042494,登記記録の閉鎖等,0,2024-10-31,2024-10-28,株式会社木村新聞舗,,株式会社,京都府,城陽市,寺田樋尻１２番地７６,00036432,26,207,6100121,,,2024-10-28,清算の結了等,,,2015-10-05,1,,,,,キムラシンブンホ,0
1146,5180003023067,登記記録の閉鎖等,0,2024-10-31,2024-10-15,シセイフードサービス合同会社,,合同会社,愛知県,尾張旭市,南原山町赤土１６５番地３メイツ三郷４０４号,,23,226,4880066,,,2024-10-15,清算の結了等,,,2021-10-11,1,,,,,シセイフードサービス,0
1154,5190002001205,登記記録の閉鎖等,0,2024-10-31,2024-10-22,有限会社ヌマタ,,有限会社,三重県,津市,丸之内３３番１８号,,24,201,5140033,,,2024-10-22,清算の結了等,,,2015-10-05,1,,,,,,0
1161,5220002009244,登記記録の閉鎖等,0,2024-10-31,2024-08-14,有限会社千代野自動車,,有限会社,石川県,白山市,米永町２１９番地９,,17,210,9240075,,,2024-08-14,合併による解散等,4220003000789,令和６年８月８日石川県白山市米永町２１９番地９合同会社カーステージ北陸（4220003000789）に合併し解散,2015-10-05,1,,,,,チヨノジドウシャ,0
1169,5280002011731,登記記録の閉鎖等,0,2024-10-31,2024-10-25,有限会社小林薬局,,有限会社,島根県,仁多郡奥出雲町,三成３５８番地６,,32,343,6991511,,,2024-10-25,合併による解散等,6030001066965,令和６年１０月１日埼玉県北葛飾郡松伏町築比地７９５番地１株式会社ウィーズ（6030001066965）に合併し解散,2015-10-05,1,,,,,コバヤシヤッキョク,0
1173,5290001098397,登記記録の閉鎖等,0,2024-10-31,2024-10-01,ツジマルホールディングス株式会社,,株式会社,福岡県,糸島市,二丈松末１３４４番地２,,40,230,8191613,,,2024-10-01,清算の結了等,,,2022-07-27,1,,,,,ツジマルホールディングス,0
1177,5290002037453,登記記録の閉鎖等,0,2024-10-31,2024-10-01,有限会社パートナー不動産,,有限会社,福岡県,糟屋郡宇美町,宇美５丁目１１番２２号,,40,341,8112101,,,2024-10-01,清算の結了等,,,2015-10-05,1,,,,,パートナーフドウサン,0
1186,5310001008329,登記記録の閉鎖等,0,2024-10-31,2024-10-24,貴洋建設株式会社,,株式会社,長崎県,諫早市,若葉町３５５番地３,,42,204,8540064,,,2024-10-24,清算の結了等,,,2015-10-05,1,,,,,,0
1191,5340005004684,登記記録の閉鎖等,0,2024-10-31,2024-09-19,天理教大龍郷分教会,,その他の設立登記法人,鹿児島県,大島郡龍郷町,龍郷字金久１０８番地,,46,527,8940321,,,2024-09-19,合併による解散等,2340005004679,令和６年９月１９日鹿児島県奄美市名瀬安勝町２８番１号天理教大島分教会（2340005004679）に合併し解散,2015-10-05,1,,,,,テンリキョウオオタツゴウブンキョウカイ,0
1203,5410003003350,登記記録の閉鎖等,0,2024-10-31,2024-10-28,合同会社ｃｒｏｓｓｇａｔｅ,,合同会社,秋田県,秋田市,将軍野桂町７番２２号,,05,201,0110934,,,2024-10-28,清算の結了等,,,2020-02-13,1,,,,,,0
1218,5470001001945,登記記録の閉鎖等,0,2024-10-31,2024-10-29,四国貿易株式会社,,株式会社,香川県,高松市,円座町１６２１番地３,,37,201,7618044,,,2024-10-29,清算の結了等,,,2015-10-05,1,,,,,シコクボウエキ,0
1220,5470001018510,登記記録の閉鎖等,0,2024-10-31,2024-10-29,株式会社つむぎ,,株式会社,香川県,高松市,下田井町５３０番地４,,37,201,7610313,,,2024-10-29,清算の結了等,,,2021-05-11,1,,,,,ツムギ,0
1221,5470002006167,登記記録の閉鎖等,0,2024-10-31,2024-10-29,有限会社小山建築設計事務所,,有限会社,香川県,高松市,屋島西町２４８０番地１０,,37,201,7610113,,,2024-10-29,清算の結了等,,,2015-10-05,1,,,,,コヤマケンチクセッケイジムショ,0
1240,6010001197135,登記記録の閉鎖等,0,2024-10-31,2024-10-29,東京通信機器商事株式会社,,株式会社,東京都,千代田区,丸の内１丁目１１番１号パシフィックセンチュリープレイス８階,,13,101,1000005,,,2024-10-29,合併による解散等,3040003016318,令和６年１０月１日千葉県千葉市美浜区中瀬二丁目６番地ＷＢＧマリブイースト１４Ｆ１４０８Ｈａｌｌｏｎ合同会社（3040003016318）に合併し解散,2018-12-25,1,,,,,トウキョウツウシンキキショウジ,0
1249,6010005007397,登記記録の閉鎖等,0,2024-10-31,2024-10-15,国立大学法人東京医科歯科大学,,その他の設立登記法人,東京都,文京区,湯島１丁目５番４５号,,13,105,1130034,,,2024-10-15,清算の結了等,,,2015-10-05,1,,,,,,0
1250,6010401063457,登記記録の閉鎖等,0,2024-10-31,2024-09-25,株式会社シニアライフクリエイト,,株式会社,東京都,港区,三田３丁目１２番１４号,,13,103,1080073,,,2024-09-25,合併による解散等,4010001237462,令和６年９月１日東京都千代田区有楽町一丁目１３番２号第一生命日比谷ファースト１８階株式会社ＳＰホールディングス（4010001237462）に合併し解散,2015-10-05,1,,,,,シニアライフクリエイト,0
1257,6010502011926,登記記録の閉鎖等,0,2024-10-31,2024-10-22,有限会社ヤマグチ印刷,,有限会社,東京都,台東区,松が谷２丁目２２番８号,,13,106,1110036,,,2024-10-22,清算の結了等,,,2015-10-05,1,,,,,ヤマグチインサツ,0
1264,6011001134862,登記記録の閉鎖等,0,2024-10-31,2024-10-04,株式会社ＧＬキャピタル,,株式会社,東京都,渋谷区,代々木４丁目１８番１３号,,13,113,1510053,,,2024-10-04,清算の結了等,,,2020-07-20,1,,,,,ジーエルキャピタル,0
1286,6011802012936,登記記録の閉鎖等,0,2024-10-31,2024-10-23,有限会社斉藤金属,,有限会社,東京都,足立区,綾瀬１丁目３５番５－３０７号,,13,121,1200005,,,2024-10-23,清算の結了等,,,2015-10-05,1,,,,,,0
1303,6020002020410,登記記録の閉鎖等,0,2024-10-31,2024-10-15,有限会社アート塗装,,有限会社,神奈川県,横浜市旭区,上白根町７９５番地,,14,112,2410001,,,2024-10-15,清算の結了等,,,2015-10-05,1,,,,,,0
1309,6021001052642,登記記録の閉鎖等,0,2024-10-31,2024-10-30,株式会社オールライン,,株式会社,神奈川県,伊勢原市,東大竹２丁目８番地の１２ポートボナール３２２号室,,14,214,2591133,,,2024-10-30,清算の結了等,,,2015-10-05,1,,,,,,0
1316,6030001062460,登記記録の閉鎖等,0,2024-10-31,2024-10-28,株式会社三清,,株式会社,埼玉県,鴻巣市,袋９０８番地３,,11,217,3690131,,,2024-10-28,清算の結了等,,,2015-10-05,1,,,,,サンセイ,0
1323,6030001107570,登記記録の閉鎖等,0,2024-10-31,2024-10-25,株式会社ＣｙｇｎｕｓＥｎｔｅｒｔａｉｎｍｅｎｔ,,株式会社,埼玉県,川口市,幸町２丁目４－１９サンドーレ１０１,,11,203,3320016,,,2024-10-25,清算の結了等,,,2015-10-05,1,,,,,シグナスエンターテインメント,0
1327,6040001047080,登記記録の閉鎖等,0,2024-10-31,2024-10-29,株式会社朋栄ティ・エム・エス,,株式会社,千葉県,佐倉市,大作２丁目３番３号,,12,212,2850802,,,2024-10-29,合併による解散等,3011001030263,令和６年１０月１日東京都渋谷区恵比寿三丁目８番１号株式会社朋栄（3011001030263）に合併し解散,2015-10-05,1,,,,,ホウエイティエムエス,0
1333,6040002001763,登記記録の閉鎖等,0,2024-10-31,2024-10-28,有限会社エスケー商事,,有限会社,千葉県,千葉市美浜区,幕張西４丁目１－１４ステラガーデン幕張１０２,,12,106,2610026,,,2024-10-28,清算の結了等,,,2015-10-05,1,,,,,エスケーショウジ,0
1334,6040002018626,登記記録の閉鎖等,0,2024-10-31,2024-09-18,有限会社タグチエンタープライズ,,有限会社,千葉県,習志野市,秋津２丁目３番６－４０４号,,12,216,2750025,,,2024-09-18,清算の結了等,,,2015-10-05,1,,,,,タグチエンタープライズ,0
1336,6040002023766,登記記録の閉鎖等,0,2024-10-31,2024-10-28,有限会社つるや伊藤,,有限会社,千葉県,船橋市,本町４丁目３１番２５号,,12,204,2730005,,,2024-10-28,清算の結了等,,,2015-10-05,1,,,,,ツルヤイトウ,0
1342,6050002025621,登記記録の閉鎖等,0,2024-10-31,2024-10-24,有限会社三和メディカル,,有限会社,茨城県,古河市,諸川１４４７番地２,,08,204,3060126,,,2024-10-24,清算の結了等,,,2015-10-05,1,,,,,サンワメディカル,0
1345,6060002037343,登記記録の閉鎖等,0,2024-10-31,2024-10-28,有限会社牧野塗装工業,,有限会社,栃木県,足利市,江川町５４２番地４,,09,202,3260067,,,2024-10-28,清算の結了等,,,2015-10-05,1,,,,,マキノトソウコウギョウ,0
1349,6080001016412,登記記録の閉鎖等,0,2024-10-31,2024-10-25,株式会社ウィーズ静岡,,株式会社,静岡県,藤枝市,与左衛門４３１番地の３,,22,214,4260047,,,2024-10-25,合併による解散等,6030001066965,令和６年１０月１日埼玉県北葛飾郡松伏町築比地７９５番地１株式会社ウィーズ（6030001066965）に合併し解散,2015-10-05,1,,,,,ウィーズシズオカ,0
1351,6080002003351,登記記録の閉鎖等,0,2024-10-31,2024-10-25,有限会社正友エンジニアリング,,有限会社,静岡県,静岡市葵区,足久保口組３２７６番地の２４２,,22,101,4212124,,,2024-10-25,清算の結了等,,,2015-10-05,1,,,,,マサトモエンジニアリング,0
1354,6080102009629,登記記録の閉鎖等,0,2024-10-31,2024-10-30,有限会社永代不動産,,有限会社,静岡県,三島市,寿町２番１２号,,22,206,4110039,,,2024-10-30,清算の結了等,,,2015-10-05,1,,,,,エイダイフドウサン,0
1375,6120003009574,登記記録の閉鎖等,0,2024-10-31,2024-10-30,合同会社ゆかい,,合同会社,滋賀県,大津市,一里山１丁目１番１号,,25,201,5202153,,,2024-10-30,清算の結了等,,,2015-10-05,1,,,,,ユカイ,0
1383,6120901024674,登記記録の閉鎖等,0,2024-10-31,2024-10-29,株式会社槻工務店,,株式会社,大阪府,豊中市,曽根東町５丁目１２番２７号,,27,203,5610802,,,2024-10-29,清算の結了等,,,2016-11-10,1,,,,,ケヤキコウムテン,0
1388,6130001011589,登記記録の閉鎖等,0,2024-10-31,2024-10-11,株式会社富士精工,,株式会社,京都府,京都市南区,吉祥院石原東之口２１番地ノ１,,26,107,6018361,,,2024-10-11,清算の結了等,,,2015-10-05,1,,,,,,0
1399,6160005007309,登記記録の閉鎖等,0,2024-10-31,2024-10-29,東近江環境サービス協同組合,,その他の設立登記法人,滋賀県,東近江市,五個荘小幡町５２４番地９,,25,213,5291422,,,2024-10-29,清算の結了等,,,2015-10-05,1,,,,,ヒガシオウミカンキョウサービス,0
1400,6180001016914,登記記録の閉鎖等,0,2024-10-31,2024-10-18,新名古屋設備株式会社,,株式会社,愛知県,名古屋市北区,六が池町３６４番地,,23,103,4620002,,,2024-10-18,清算の結了等,,,2015-10-05,1,,,,,シンナゴヤセツビ,0
1401,6180001037539,登記記録の閉鎖等,0,2024-10-31,2024-10-15,大日ユニコン株式会社,,株式会社,愛知県,名古屋市中区,錦１丁目１０番２０号,,23,106,4600003,,,2024-10-15,清算の結了等,,,2015-10-05,1,,,,,ダイニチユニコン,0
1418,6200001008132,登記記録の閉鎖等,0,2024-10-31,2024-10-28,株式会社恒和ＴＤＣ,,株式会社,岐阜県,岐阜市,柳津町高桑３丁目４８番地,,21,201,5016122,,,2024-10-28,清算の結了等,,,2015-10-05,1,,,,,コウワティーディーシー,0
1421,6240001006982,登記記録の閉鎖等,0,2024-10-31,2024-10-28,株式会社チヤーム丸美屋,,株式会社,広島県,広島市中区,西平塚町６番１６号,,34,101,7300024,,,2024-10-28,清算の結了等,,,2015-10-05,1,,,,,チヤームマルミヤ,0
1431,6260002012813,登記記録の閉鎖等,0,2024-10-31,2024-10-30,有限会社ラガー,,有限会社,岡山県,岡山市北区,平和町４番１１号,,33,101,7000827,,,2024-10-30,清算の結了等,,,2015-10-05,1,,,,,ラガー,0
1452,6340001009240,登記記録の閉鎖等,0,2024-10-31,2024-10-22,ベネフィック株式会社,,株式会社,鹿児島県,薩摩川内市,樋脇町市比野２５６１番地１,00098710,46,215,8951203,,,2024-10-22,清算の結了等,,,2015-10-05,1,,,,,ベネフィック,0
1453,6340001012046,登記記録の閉鎖等,0,2024-10-31,2024-10-29,株式会社北薩漬物,00098780,株式会社,鹿児島県,出水市,高尾野町上水流６７１番地５７,,46,208,8990406,,,2024-10-29,清算の結了等,,,2015-10-05,1,,,,,ホクサツツケモノ,0
1454,6340002016789,登記記録の閉鎖等,0,2024-10-31,2024-10-25,有限会社メディカルコーポレーション宇都,,有限会社,鹿児島県,鹿児島市,下竜尾町１番１５号,,46,201,8920852,,,2024-10-25,合併による解散等,6030001066965,令和６年１０月１日埼玉県北葛飾郡松伏町築比地７９５番地１株式会社ウィーズ（6030001066965）に合併し解散,2015-10-05,1,,,,,メディカルコーポレーションウト,0
1462,6380002024012,登記記録の閉鎖等,0,2024-10-31,2024-10-17,有限会社信交不動産,,有限会社,福島県,いわき市,錦町中央２丁目１１番地の１,,07,204,9748233,,,2024-10-17,清算の結了等,,,2015-10-05,1,,,,,シンコウフドウサン,0
1466,6430002027967,登記記録の閉鎖等,0,2024-10-31,2024-10-29,有限会社給与計算システム,,有限会社,北海道,札幌市東区,北八条東３丁目１番１号,,01,103,0600908,,,2024-10-29,清算の結了等,,,2015-10-05,1,,,,,キュウヨケイサンシステム,0
1484,7010001131605,登記記録の閉鎖等,0,2024-10-31,2024-10-18,株式会社日本紙資材,,株式会社,東京都,千代田区,飯田橋３丁目２番２号,,13,101,1020072,,,2024-10-18,清算の結了等,,,2015-10-05,1,,,,,ニホンカミシザイ,0
1488,7010401042014,登記記録の閉鎖等,0,2024-10-31,2024-10-11,株式会社アンテールジャパン,,株式会社,東京都,港区,芝５丁目１番７号蜂谷ビル２Ｆ,,13,103,1080014,,,2024-10-11,清算の結了等,,,2015-10-05,1,,,,,,0
1497,7010802002806,登記記録の閉鎖等,0,2024-10-31,2024-10-24,有限会社大滝商店,,有限会社,東京都,大田区,東海３丁目２番８号,,13,111,1430001,,,2024-10-24,清算の結了等,,,2015-10-05,1,,,,,ダイタキショウテン,0
1500,7010901023249,登記記録の閉鎖等,0,2024-10-31,2024-10-22,株式会社ＡＤＶＩＣＥ．ＪＰ,,株式会社,東京都,世田谷区,代沢３丁目１７番１７－１０１号,,13,112,1550032,,,2024-10-22,清算の結了等,,,2015-10-05,1,,,,,アドバイスドットジェイピイ,0
1525,7011701026788,登記記録の閉鎖等,0,2024-10-31,2024-10-25,Ａ＆Ｊ株式会社,,株式会社,東京都,江戸川区,南小岩５丁目２０－３ヴィラ四宮３０１,,13,123,1330056,,,2024-10-25,清算の結了等,,,2023-11-27,1,,,,,エーアンドジェイ,0
1529,7012402010206,登記記録の閉鎖等,0,2024-10-31,2024-10-24,有限会社アトリエ功野,,有限会社,東京都,杉並区,南荻窪２丁目１３番１号,,13,115,1670052,,,2024-10-24,清算の結了等,,,2015-10-05,1,,,,,アトリエコウノ,0
1538,7013402007068,登記記録の閉鎖等,0,2024-10-31,2024-10-18,有限会社四季会席葵,,有限会社,東京都,日野市,高幡１５９番地の１,,13,212,1910031,,,2024-10-18,清算の結了等,,,2015-10-05,1,,,,,,0
1540,7020001130556,登記記録の閉鎖等,0,2024-10-31,2024-10-25,株式会社ウィーズ関西,,株式会社,三重県,松阪市,大黒田町４５４番地１４（２階）,,24,204,5150063,,,2024-10-25,合併による解散等,6030001066965,令和６年１０月１日埼玉県北葛飾郡松伏町築比地７９５番地１株式会社ウィーズ（6030001066965）に合併し解散,2019-04-04,1,,,,,ウィーズカンサイ,0
1542,7020001151032,登記記録の閉鎖等,0,2024-10-31,2024-10-18,株式会社おにぎり王国,,株式会社,東京都,千代田区,神田神保町２丁目２－３４－１Ｆ,,13,101,1010051,,,2024-10-18,清算の結了等,,,2023-04-10,1,,,,,オニギリオウコク,0
1549,7020003011663,登記記録の閉鎖等,0,2024-10-31,2024-10-28,合同会社ケイユー企画,,合同会社,神奈川県,逗子市,逗子５丁目１１番３９,,14,208,2490006,,,2024-10-28,合併による解散等,2010703002967,令和６年１０月５日東京都港区西麻布二丁目２１－２５ジュネス西麻布２０２合同会社デイナス（2010703002967）に合併し解散,2016-08-10,1,,,,,,0
1557,7030001038476,登記記録の閉鎖等,0,2024-10-31,2024-10-30,株式会社フォーユー,,株式会社,埼玉県,草加市,谷塚１丁目２３番１－１０７号,,11,221,3400028,,,2024-10-30,清算の結了等,,,2015-10-05,1,,,,,フォーユー,0
1561,7030002094898,登記記録の閉鎖等,0,2024-10-31,2024-10-30,有限会社黒川測建,,有限会社,埼玉県,坂戸市,西坂戸５丁目４０番地１４,,11,239,3500247,,,2024-10-30,清算の結了等,,,2015-10-05,1,,,,,クロカワソクケン,0
1571,7040002056708,登記記録の閉鎖等,0,2024-10-31,2024-10-25,有限会社勝田金物店,,有限会社,千葉県,印旛郡栄町,安食３７４１番地,,12,329,2701516,,,2024-10-25,清算の結了等,,,2015-10-05,1,,,,,カツタカナモノテン,0
1572,7040002076607,登記記録の閉鎖等,0,2024-10-31,2024-10-25,株式会社ウィーズ千葉,,株式会社,千葉県,千葉市緑区,古市場町１０２番地,,12,105,2660026,,,2024-10-25,合併による解散等,6030001066965,令和６年１０月１日埼玉県北葛飾郡松伏町築比地７９５番地１株式会社ウィーズ（6030001066965）に合併し解散,2015-10-05,1,,,,,ウィーズチバ,0
1574,7050001041627,登記記録の閉鎖等,0,2024-10-31,2024-10-21,ＭＪホールディングス株式会社,,株式会社,茨城県,高萩市,大字高戸４６２番地の２,,08,214,3180002,,,2024-10-21,合併による解散等,4050002032231,令和６年１０月２１日茨城県高萩市大字高戸４６２番地の２株式会社皆川獣医科医院（4050002032231）に合併し解散,2016-09-26,1,,,,,エムジェーホールディングス,0
1583,7080101000430,登記記録の閉鎖等,0,2024-10-31,2024-10-30,金田ガス器材株式会社,,株式会社,静岡県,沼津市,若葉町１８番１０号,,22,203,4100059,,,2024-10-30,清算の結了等,,,2015-10-05,1,,,,,カネダガスキザイ,0
1594,7110001011763,登記記録の閉鎖等,0,2024-10-31,2024-10-28,株式会社武藤建設,,株式会社,新潟県,五泉市,水島町１０番２７号,,15,218,9591812,,,2024-10-28,清算の結了等,,,2015-10-05,1,,,,,,0
1598,7110002000278,登記記録の閉鎖等,0,2024-10-31,2024-10-28,青木建塗工業有限会社,,有限会社,新潟県,新潟市東区,東新町２番１８号,,15,102,9500065,,,2024-10-28,清算の結了等,,,2015-10-05,1,,,,,,0
1628,7140005016863,登記記録の閉鎖等,0,2024-10-31,2024-10-30,特定非営利活動法人ウェルハート,,その他の設立登記法人,兵庫県,加東市,上三草字三草山１１３４の２１１,,28,228,6731472,,,2024-10-30,清算の結了等,,,2015-10-05,1,,,,,ウェルハート,0
1633,7180002077970,登記記録の閉鎖等,0,2024-10-31,2024-10-15,有限会社ライン設計,,有限会社,愛知県,一宮市,あずら１丁目２番３,,23,203,4910835,,,2024-10-15,清算の結了等,,,2015-10-05,1,,,,,ラインセッケイ,0
1634,7180003010658,登記記録の閉鎖等,0,2024-10-31,2024-10-16,合資会社シルビア,,合資会社,愛知県,瀬戸市,東横山町１１６番地の１,,23,204,4890066,,,2024-10-16,清算の結了等,,,2015-10-05,1,,,,,シルビア,0
1635,7180302001119,登記記録の閉鎖等,0,2024-10-31,2024-10-25,有限会社ケーツーテック,,有限会社,愛知県,豊橋市,大村町字橋元１１６番地,,23,201,4400081,,,2024-10-25,清算の結了等,,,2015-10-05,1,,,,,ケーツーテック,0
1638,7180302016463,登記記録の閉鎖等,0,2024-10-31,2024-10-28,有限会社太田塗装店,,有限会社,愛知県,安城市,桜井町薬師田４９番地２,,23,212,4441154,,,2024-10-28,清算の結了等,,,2015-10-05,1,,,,,オオタトソウテン,0
1641,7190005011744,登記記録の閉鎖等,0,2024-10-31,2024-10-29,一般社団法人遊びとケアの日々,,その他の設立登記法人,三重県,松阪市,下村町２５９４番地８,,24,204,5150043,,,2024-10-29,清算の結了等,,,2022-10-11,1,,,,,アソビトケアノヒビ,0
1642,7200001002431,登記記録の閉鎖等,0,2024-10-31,2024-10-28,株式会社ジェムハート,,株式会社,岐阜県,岐阜市,日置江２９１番地１５,,21,201,5016133,,,2024-10-28,清算の結了等,,,2015-10-05,1,,,,,ジェムハート,0
1647,7240001024959,登記記録の閉鎖等,0,2024-10-31,2024-10-24,株式会社勝光山製作所,,株式会社,広島県,庄原市,川手町２００番地の１,,34,210,7270005,,,2024-10-24,清算の結了等,,,2015-10-05,1,,,,,ショウコウザンセイサクショ,0
1661,7290002054562,登記記録の閉鎖等,0,2024-10-31,2024-10-01,有限会社コーグチクラフト工業,,有限会社,福岡県,大川市,大字一木１０５８番地の７,,40,212,8310034,,,2024-10-01,清算の結了等,,,2024-05-27,1,,,,,コーグチクラフトコウギョウ,0
1667,7310001017591,登記記録の閉鎖等,0,2024-10-31,2024-10-24,株式会社もろおかライフサポート,,株式会社,長崎県,諫早市,多良見町化屋７８６番地９,,42,204,8590401,,,2024-10-24,清算の結了等,,,2021-11-16,1,,,,,モロオカライフサポート,0
1672,7330002021839,登記記録の閉鎖等,0,2024-10-31,2024-10-25,田中メディカル有限会社,,有限会社,熊本県,荒尾市,平山２２６８番地４,,43,204,8640015,,,2024-10-25,清算の結了等,,,2015-10-05,1,,,,,タナカメディカル,0
1677,7380002020687,登記記録の閉鎖等,0,2024-10-31,2024-10-04,有限会社安藤興業,,有限会社,福島県,須賀川市,大久保字西ノ内１３８番地２,,07,207,9620312,,,2024-10-04,清算の結了等,,,2015-10-05,1,,,,,アンドウコウギョウ,0
1687,7440002000955,登記記録の閉鎖等,0,2024-10-31,2024-10-28,有限会社カットサロンさいとう,,有限会社,北海道,函館市,臼尻町１２２番地の２,,01,202,0411613,,,2024-10-28,清算の結了等,,,2015-10-05,1,,,,,カットサロンサイトウ,0
1688,7460303000594,登記記録の閉鎖等,0,2024-10-31,2024-10-30,合同会社ほるす,,合同会社,北海道,北見市,並木町５１０番地６４,,01,208,0900012,,,2024-10-30,清算の結了等,,,2016-08-24,1,,,,,ホルス,0
1689,7480001004978,登記記録の閉鎖等,0,2024-10-31,2024-10-29,株式会社久住建築設計事務所,,株式会社,徳島県,板野郡松茂町,中喜来字中瀬西ノ越２５番地２５,,36,401,7710212,,,2024-10-29,清算の結了等,,,2015-10-05,1,,,,,クスミケンチクセッケイジムショ,0
1691,7490002003227,登記記録の閉鎖等,0,2024-10-31,2024-10-30,有限会社立石青果,,有限会社,高知県,高知市,弘化台１２番１２号,,39,201,7810811,,,2024-10-30,清算の結了等,,,2015-10-05,1,,,,,タテイシセイカ,0
1699,8010001189403,登記記録の閉鎖等,0,2024-10-31,2024-10-22,株式会社エレメント・トウキョウ,,株式会社,東京都,台東区,東上野５丁目２４番１２号イーストＵビル５階,,13,106,1100015,,,2024-10-22,清算の結了等,,,2018-02-07,1,,,,,エレメントトウキョウ,0
1714,8010401131939,登記記録の閉鎖等,0,2024-10-31,2024-10-15,ケーシー株式会社,,株式会社,東京都,港区,六本木７丁目３番１９－２１４号,,13,103,1060032,,,2024-10-15,清算の結了等,,,2017-06-09,1,,,,,ケーシー,0
1719,8010405017746,登記記録の閉鎖等,0,2024-10-31,2024-10-28,南関東プロパティ特定目的会社,,その他の設立登記法人,東京都,中央区,銀座１丁目６番１１号,,13,102,1040061,,,2024-10-28,清算の結了等,,,2019-05-28,1,,,,,ミナミカントウプロパティ,0
1725,8010603009256,登記記録の閉鎖等,0,2024-10-31,2024-10-29,Ｃａｓｓ　Ｊａｐａｎ合同会社,,合同会社,東京都,江東区,有明３丁目７番２６号有明フロンティアビルＢ棟９階,,13,108,1350063,,,2024-10-29,清算の結了等,,,2021-11-18,1,,,,,キャスジャパン,0
1744,8011501007995,登記記録の閉鎖等,0,2024-10-31,2024-10-29,株式会社中根材木店,,株式会社,東京都,荒川区,荒川４丁目４０番８号,,13,118,1160002,,,2024-10-29,清算の結了等,,,2015-10-05,1,,,,,,0
1746,8011701027249,登記記録の閉鎖等,0,2024-10-31,2024-10-24,株式会社未来建設,,株式会社,東京都,江戸川区,一之江４丁目３番１３号一之江プリンスビル１０５,,13,123,1320024,,,2024-10-24,清算の結了等,,,2024-05-07,1,,,,,ミライケンセツ,0
1748,8011702007134,登記記録の閉鎖等,0,2024-10-31,2024-10-24,有限会社武田タイヤ商会,,有限会社,東京都,江戸川区,船堀４丁目６番５号,,13,123,1340091,,,2024-10-24,清算の結了等,,,2015-10-05,1,,,,,タケダタイヤショウカイ,0
1774,8021002026214,登記記録の閉鎖等,0,2024-10-31,2024-10-30,有限会社相模テクノ通信,,有限会社,神奈川県,相模原市緑区,下九沢２１３０番地１,,14,151,2520134,,,2024-10-30,清算の結了等,,,2015-10-05,1,,,,,サガミテクノツウシン,0
1777,8021002054818,登記記録の閉鎖等,0,2024-10-31,2024-10-29,有限会社関野屋呉服店,,有限会社,神奈川県,南足柄市,関本５５４番地,,14,217,2500105,,,2024-10-29,清算の結了等,,,2022-05-25,1,,,,,セキノヤゴフクテン,0
1781,8030001061915,登記記録の閉鎖等,0,2024-10-31,2024-10-24,株式会社アルファ,,株式会社,埼玉県,北本市,本町５丁目１７８番地,,11,233,3640033,,,2024-10-24,清算の結了等,,,2015-10-05,1,,,,,アルファ,0
1838,8180001029542,登記記録の閉鎖等,0,2024-10-31,2024-09-24,株式会社ヴァルテック,,株式会社,愛知県,名古屋市中村区,名駅南１丁目２１番１９号,,23,105,4500003,,,2024-09-24,合併による解散等,9010601063147,令和６年９月１日東京都港区西新橋一丁目１番１号ＮＶＣホールディングス株式会社（9010601063147）に合併し解散,2015-10-05,1,,,,,ヴァルテック,0
1849,8180301024152,登記記録の閉鎖等,0,2024-10-31,2024-10-25,株式会社松下電気商会,,株式会社,愛知県,新城市,長篠字下り筬２番地の１,,23,221,4411634,,,2024-10-25,清算の結了等,,,2015-10-05,1,,,,,マツシタデンキショウカイ,0
1857,8220001003303,登記記録の閉鎖等,0,2024-10-31,2024-10-08,新谷物産株式会社,,株式会社,石川県,金沢市,入江２丁目１２８番地,,17,201,9218011,,,2024-10-08,清算の結了等,,,2023-06-02,1,,,,,,0
1866,8240002020477,登記記録の閉鎖等,0,2024-10-31,2024-10-30,有限会社システム山本,,有限会社,広島県,広島市安佐南区,大町東４丁目８番３－３０１号,,34,105,7310124,,,2024-10-30,清算の結了等,,,2015-10-05,1,,,,,システムヤマモト,0
1872,8270002008750,登記記録の閉鎖等,0,2024-10-31,2024-10-25,株式会社Ｅ－ＢＯＮＤグループ,,株式会社,愛知県,一宮市,八町通２丁目６番地１,,23,203,4910844,,,2024-10-25,合併による解散等,6030001066965,令和６年１０月１日埼玉県北葛飾郡松伏町築比地７９５番地１株式会社ウィーズ（6030001066965）に合併し解散,2015-10-05,1,,,,,イーボンドグループ,0
1873,8280002011919,登記記録の閉鎖等,0,2024-10-31,2024-10-25,有限会社フジ,,有限会社,島根県,仁多郡奥出雲町,三成１６２２番地３,,32,343,6991511,,,2024-10-25,合併による解散等,6030001066965,令和６年１０月１日埼玉県北葛飾郡松伏町築比地７９５番地１株式会社ウィーズ（6030001066965）に合併し解散,2015-10-05,1,,,,,フジ,0
1880,8290801006993,登記記録の閉鎖等,0,2024-10-31,2024-10-18,株式会社セイユウ,,株式会社,福岡県,北九州市小倉南区,大字母原８８－１,,40,107,8030187,,,2024-10-18,清算の結了等,,,2015-10-05,1,,,,,セイユウ,0
1890,8320002014025,登記記録の閉鎖等,0,2024-10-31,2024-10-30,有限会社中尾塗装,,有限会社,大分県,宇佐市,大字川部１４５４番地,,44,211,8790452,,,2024-10-30,清算の結了等,,,2015-10-05,1,,,,,,0
1899,8330005005739,登記記録の閉鎖等,0,2024-10-31,2024-09-18,見芳神社,,その他の設立登記法人,熊本県,宇城市,三角町郡浦２６６６番地,,43,213,8693202,,,2024-09-18,合併による解散等,4330005005734,令和６年９月１８日熊本県宇城市三角町郡浦２６６６番地郡浦神社（4330005005734）に合併し解散,2015-10-05,1,,,,,ミヨシジンジャ,0
1905,8380005005569,登記記録の閉鎖等,0,2024-10-31,2024-10-02,福島県勤労者住宅生活協同組合,,その他の設立登記法人,福島県,須賀川市,森宿字白石坂７番地１９６,,07,207,9620001,,,2024-10-02,清算の結了等,,,2019-06-04,1,,,,,,0
1908,8410005001242,登記記録の閉鎖等,0,2024-10-31,2024-10-29,特定非営利活動法人秋田県１型糖尿病の会,,その他の設立登記法人,秋田県,秋田市,上北手猿田字苗代沢２２２番１,,05,201,0101406,,,2024-10-29,清算の結了等,,,2015-10-05,1,,,,,アキタケンイチガタトウニョウビョウノカイ,0
1911,8430001009642,登記記録の閉鎖等,0,2024-10-31,2024-10-25,株式会社ベルエステート,,株式会社,北海道,札幌市中央区,南七条西３丁目２番地,,01,101,0640807,,,2024-10-25,清算の結了等,,,2015-10-05,1,,,,,ベルエステート,0
1927,9010001047527,登記記録の閉鎖等,0,2024-10-31,2024-10-17,壽賀多商事株式会社,,株式会社,東京都,江東区,大島６丁目１５番２－７０１号,,13,108,1360072,,,2024-10-17,清算の結了等,,,2015-10-05,1,,,,,スガタショウジ,0
1929,9010001137360,登記記録の閉鎖等,0,2024-10-31,2024-10-10,株式会社戦略調達,,株式会社,東京都,千代田区,六番町６番４号,,13,101,1020085,,,2024-10-10,清算の結了等,,,2015-10-05,1,,,,,センリャクチョウタツ,0
1930,9010001141255,登記記録の閉鎖等,0,2024-10-31,2024-10-25,株式会社人成,,株式会社,埼玉県,草加市,西町１３３６－４,,11,221,3400035,,,2024-10-25,清算の結了等,,,2015-10-05,1,,,,,ジンセイ,0
1932,9010001238431,登記記録の閉鎖等,0,2024-10-31,2024-09-09,株式会社Ｇｒｏｖｅ　Ｐａｒｔｎｅｒｓ,,株式会社,東京都,千代田区,麹町６丁目６番地２,,13,101,1020083,,,2024-09-09,合併による解散等,9013301046628,令和６年９月１日東京都千代田区麹町六丁目６番地２株式会社顧問バンク（9013301046628）に合併し解散,2023-09-13,1,,,,,グローブパートナーズ,0
1941,9010103001654,登記記録の閉鎖等,0,2024-10-31,2024-10-28,合同会社ＪＯＢ工房,,合同会社,東京都,八王子市,楢原町６００－１,,13,201,1930803,,,2024-10-28,清算の結了等,,,2021-01-29,1,,,,,ジェイオービーコウボウ,0
1943,9010401098351,登記記録の閉鎖等,0,2024-10-31,2024-10-11,株式会社にんげんクラブ,,株式会社,東京都,港区,芝５丁目１３番１８号,,13,103,1080014,,,2024-10-11,清算の結了等,,,2015-10-05,1,,,,,ニンゲンクラブ,0
1945,9010401159756,登記記録の閉鎖等,0,2024-10-31,2024-10-11,Ｓｏａｒ株式会社,,株式会社,東京都,港区,浜松町２丁目２－１５浜松町ダイヤビル２階,,13,103,1050013,,,2024-10-11,清算の結了等,,,2021-05-10,1,,,,,ソアー,0
1952,9010501048363,登記記録の閉鎖等,0,2024-10-31,2024-10-22,Ａｆｔｅｒｌｉｆｅ株式会社,,株式会社,東京都,台東区,寿３丁目９－３丸大ビル３Ｆ－０６,,13,106,1110042,,,2024-10-22,清算の結了等,,,2022-01-26,1,,,,,アフターライフ,0
1956,9010602020295,登記記録の閉鎖等,0,2024-10-31,2024-10-25,有限会社山口工機,,有限会社,東京都,江東区,北砂７丁目９番１７号,,13,108,1360073,,,2024-10-25,清算の結了等,,,2015-10-05,1,,,,,ヤマグチコウキ,0
1958,9010702007498,登記記録の閉鎖等,0,2024-10-31,2024-10-25,有限会社豊栄工業所,,有限会社,東京都,品川区,小山２丁目１５番１２号,,13,109,1420062,,,2024-10-25,清算の結了等,,,2015-10-05,1,,,,,トヨサカコウギョウショ,0
1960,9010801017605,登記記録の閉鎖等,0,2024-10-31,2024-10-25,シャコー株式会社,,株式会社,東京都,大田区,大森北３丁目４番５号,,13,111,1430016,,,2024-10-25,清算の結了等,,,2015-10-05,1,,,,,シャコー,0
1965,9011001143976,登記記録の閉鎖等,0,2024-10-31,2024-09-02,株式会社Ｇｒｏｗｔｈ,,株式会社,東京都,渋谷区,代々木１丁目４４番１２号,,13,113,1510053,,,2024-09-02,合併による解散等,1013301037592,令和６年８月３１日東京都渋谷区代々木三丁目２３番４－１２０５株式会社Ｊｉｎｒｉｋｉｓｈａ（1013301037592）に合併し解散,2021-11-12,1,,,,,グロウス,0
1967,9011003013517,登記記録の閉鎖等,0,2024-10-31,2024-10-03,合同会社共栄,,合同会社,東京都,渋谷区,神泉町１１番５号メゾン・ド・ヴィレ渋谷８０３,,13,113,1500045,,,2024-10-03,清算の結了等,,,2021-10-07,1,,,,,キョウエイ,0
1971,9011101067299,登記記録の閉鎖等,0,2024-10-31,2024-10-18,福島県かつらお胡蝶蘭育成事業株式会社,,株式会社,福島県,郡山市,島２丁目４３番１２号,,07,203,9638034,,,2024-10-18,清算の結了等,,,2015-10-05,1,,,,,フクシマケンカツラオコチョウランイクセイジギョウ,0
1991,9011803002891,登記記録の閉鎖等,0,2024-10-31,2024-10-18,合同会社むさしの,,合同会社,東京都,千代田区,平河町１丁目３番６号ＢＩＺＭＡＲＫＳ２Ｆ,,13,101,1020093,,,2024-10-18,清算の結了等,,,2017-05-11,1,,,,,ムサシノ,0
2017,9020005004977,登記記録の閉鎖等,0,2024-10-31,2024-10-15,特定非営利活動法人加齢ライス,,その他の設立登記法人,神奈川県,横浜市青葉区,桂台２丁目３８番地１５,,14,117,2270034,,,2024-10-15,清算の結了等,,,2015-10-05,1,,,,,カレイライス,0
2018,9021002055344,登記記録の閉鎖等,0,2024-10-31,2024-10-29,有限会社エーアイエスハウスクリーンサービス,,有限会社,神奈川県,足柄上郡大井町,金子８９５番地１１,,14,362,2580019,,,2024-10-29,清算の結了等,,,2015-10-05,1,,,,,エーアイエスハウスクリーンサービス,0
2022,9030001072028,登記記録の閉鎖等,0,2024-10-31,2024-10-25,株式会社テラプランニング,,株式会社,埼玉県,東松山市,若松町１丁目１８番２６号,,11,212,3550037,,,2024-10-25,清算の結了等,,,2015-10-05,1,,,,,テラプランニング,0
2052,9100005008004,登記記録の閉鎖等,0,2024-10-31,2024-10-21,諏訪砂利砕石事業協同組合,,その他の設立登記法人,長野県,諏訪市,大字四賀４６番地,,20,206,3920012,,,2024-10-21,清算の結了等,,,2015-10-05,1,,,,,スワジャリサイセキ,0
2053,9110001022008,登記記録の閉鎖等,0,2024-10-31,2024-10-25,株式会社青木楼,,株式会社,新潟県,長岡市,上田町３番地３,,15,202,9400074,,,2024-10-25,清算の結了等,,,2015-10-05,1,,,,,アオキロウ,0
2080,9130005007829,登記記録の閉鎖等,0,2024-10-31,2024-10-21,特定非営利活動法人京都伝統工芸活動支援会京都匠塾,,その他の設立登記法人,京都府,南丹市,園部町船岡長畑５２－３,,26,213,6220031,,,2024-10-21,清算の結了等,,,2015-10-05,1,,,,,キョウトデントウコウゲイカツドウシエンカイキョウトタクミジュク,0
2086,9160001021616,登記記録の閉鎖等,0,2024-10-31,2024-10-30,株式会社フェリシタシオン,,株式会社,滋賀県,東近江市,建部日吉町６２９番地１,,25,213,5270006,,,2024-10-30,清算の結了等,,,2019-04-25,1,,,,,フェリシタシオン,0
2089,9180001107165,登記記録の閉鎖等,0,2024-10-31,2024-10-17,株式会社安芽,,株式会社,愛知県,一宮市,浅井町尾関字小山８０番地,,23,203,4910101,,,2024-10-17,清算の結了等,,,2015-10-05,1,,,,,アンメ,0
2094,9180002036033,登記記録の閉鎖等,0,2024-10-31,2024-10-15,有限会社氣美和,,有限会社,愛知県,名古屋市千種区,春岡２丁目２７番２１号,,23,101,4640848,,,2024-10-15,清算の結了等,,,2015-10-05,1,,,,,キミワ,0
2105,9200001017056,登記記録の閉鎖等,0,2024-10-31,2024-10-28,株式会社アオイ,,株式会社,岐阜県,美濃加茂市,牧野２２９６番地,,21,211,5050016,,,2024-10-28,清算の結了等,,,2024-08-30,1,,,,,アオイ,0
2108,9200002021040,登記記録の閉鎖等,0,2024-10-31,2024-10-29,有限会社エクレール,,有限会社,岐阜県,土岐市,下石町８７０番地,,21,212,5095202,,,2024-10-29,清算の結了等,,,2015-10-05,1,,,,,エクレール,0
2117,9240005006951,登記記録の閉鎖等,0,2024-10-31,2024-10-28,木野川漁業協同組合,,その他の設立登記法人,広島県,廿日市市,津田１９６３番地の３,,34,213,7380222,,,2024-10-28,清算の結了等,,,2015-10-05,1,,,,,コノガワ,0
2130,9310001000232,登記記録の閉鎖等,0,2024-10-31,2024-10-25,株式会社エス・ヴイ・シー,,株式会社,長崎県,長崎市,曙町１０番１７号,,42,201,8528008,,,2024-10-25,清算の結了等,,,2015-10-05,1,,,,,エスヴイシー,0
2140,9350002013295,登記記録の閉鎖等,0,2024-10-31,2024-10-25,有限会社佐藤鉄工所,,有限会社,宮崎県,西臼杵郡高千穂町,大字三田井尾迫原８３番地,,45,441,8821101,,,2024-10-25,清算の結了等,,,2015-10-05,1,,,,,サトウテッコウショ,0
2143,9390001016345,登記記録の閉鎖等,0,2024-10-31,2024-10-21,株式会社Ｂ－ｒｏｏｍ,,株式会社,山形県,山形市,東原町２丁目２番２６号,,06,201,9900034,,,2024-10-21,清算の結了等,,,2021-02-08,1,,,,,ビールーム,0
2154,9460301002962,登記記録の閉鎖等,0,2024-10-31,2024-10-31,株式会社秋葉重機商会,,株式会社,北海道,北見市,美園４１７番地８,,01,208,0990879,,,2024-10-31,清算の結了等,,,2015-10-05,1,,,,,アキバジュウキショウカイ,0
2155,9470002015313,登記記録の閉鎖等,0,2024-10-31,2024-10-28,有限会社ファッショングローバル,,有限会社,香川県,坂出市,昭和町１丁目３番２４－５０１号,,37,203,7620004,,,2024-10-28,清算の結了等,,,2015-10-05,1,,,,,ファッショングローバル,0
