sequenceNumber,corporateNumber,process,correct,updateDate,changeDate,name,nameImageId,kind,prefectureName,cityName,streetNumber,addressImageId,prefectureCode,cityCode,postCode,addressOutside,addressOutsideImageId,closeDate,closeCause,successorCorporateNumber,changeCause,assignmentDate,latest,enName,enPrefectureName,enCityName,enAddressOutside,furigana,hihyoji
17,1010401000373,登記記録の閉鎖等,0,2023-03-20,2023-03-08,株式会社アイ・エム・アイ,,株式会社,東京都,港区,虎ノ門３丁目１８番１２号,,13,103,1050001,,,2023-03-08,清算の結了等,,,2015-10-05,1,,,,,アイエムアイ,0
20,1010401099852,登記記録の閉鎖等,0,2023-03-20,2022-12-28,株式会社価値創造マネジメント研究所,,株式会社,東京都,港区,南青山５丁目１２番２８号,,13,103,1070062,,,2022-12-28,清算の結了等,,,2015-10-05,1,,,,,カチソウゾウマネジメントケンキュウジョ,0
44,1010905003442,登記記録の閉鎖等,0,2023-03-20,2023-03-15,一般社団法人都留,,その他の設立登記法人,東京都,世田谷区,深沢７丁目１１番１３号,,13,112,1580081,,,2023-03-15,清算の結了等,,,2017-08-15,1,,,,,ツル,0
70,1012405004004,登記記録の閉鎖等,0,2023-03-20,2023-03-16,一般社団法人ディアーズ,,その他の設立登記法人,東京都,調布市,菊野台２丁目４番２号メイングリーン小川１０３,,13,208,1820007,,,2023-03-16,清算の結了等,,,2017-03-03,1,,,,,ディアーズ,0
72,1012801017831,登記記録の閉鎖等,0,2023-03-20,2023-03-13,株式会社長江実業グループ,,株式会社,東京都,昭島市,武蔵野３丁目７番９号,,13,207,1960021,,,2023-03-13,清算の結了等,,,2017-03-02,1,,,,,,0
75,1013201015376,登記記録の閉鎖等,0,2023-03-20,2023-03-13,株式会社ＰＳＣ,,株式会社,東京都,目黒区,目黒本町２丁目１３番１１－２０１号,,13,110,1520002,,,2023-03-13,清算の結了等,,,2015-10-05,1,,,,,ピーエスシー,0
83,1021001021387,登記記録の閉鎖等,0,2023-03-20,2023-03-15,株式会社ビーバートザン,,株式会社,神奈川県,厚木市,戸田２４番地１,,14,212,2430023,,,2023-03-15,合併による解散等,3120101003135,令和５年３月１日大阪府堺市西区鳳東町四丁４０１番地１コーナン商事株式会社（3120101003135）に合併し解散,2015-10-05,1,,,,,ビーバートザン,0
93,1030002078262,登記記録の閉鎖等,0,2023-03-20,2023-03-16,有限会社川越営繕サービス,,有限会社,埼玉県,川越市,岸町３丁目２５番地２５,,11,201,3501131,,,2023-03-16,清算の結了等,,,2015-10-05,1,,,,,カワゴエエイゼンサービス,0
101,1050001023952,登記記録の閉鎖等,0,2023-03-20,2023-03-15,株式会社橋本商事,,株式会社,茨城県,日立市,十王町伊師本郷３１番地の２,,08,202,3191302,,,2023-03-15,清算の結了等,,,2015-10-05,1,,,,,ハシモトショウジ,0
104,1070002020245,登記記録の閉鎖等,0,2023-03-20,2023-03-15,有限会社宮下製作所,,有限会社,群馬県,伊勢崎市,市場町２丁目６２４番地５,,10,204,3792211,,,2023-03-15,清算の結了等,,,2015-10-05,1,,,,,ミヤシタセイサクジョ,0
149,1180001027131,登記記録の閉鎖等,0,2023-03-20,2023-03-13,株式会社松原ピーナツ,,株式会社,愛知県,名古屋市西区,幅下２丁目２０番３号,,23,104,4510041,,,2023-03-13,清算の結了等,,,2015-10-05,1,,,,,マツバラピーナツ,0
153,1180301033688,登記記録の閉鎖等,0,2023-03-20,2023-03-08,株式会社ＣＯＰＡＴ,,株式会社,愛知県,豊田市,神田町１丁目６番地６,,23,211,4710868,,,2023-03-08,清算の結了等,,,2020-05-12,1,,,,,コパット,0
163,1230001002384,登記記録の閉鎖等,0,2023-03-20,2023-03-17,株式会社日電,,株式会社,富山県,富山市,千代田町１０番３３号,,16,201,9300811,,,2023-03-17,清算の結了等,,,2015-10-05,1,,,,,ニチデン,0
171,1260002022016,登記記録の閉鎖等,0,2023-03-20,2023-03-17,有限会社ヨシテック,,有限会社,岡山県,倉敷市,粒江２１７４番地の１８,,33,202,7100034,,,2023-03-17,清算の結了等,,,2015-10-05,1,,,,,ヨシテック,0
181,1290005017010,登記記録の閉鎖等,0,2023-03-20,2023-03-17,ＮＰＯ法人いきいき１００百道浜,,その他の設立登記法人,福岡県,福岡市早良区,百道浜４丁目２番１－２０９号,,40,137,8140001,,,2023-03-17,清算の結了等,,,2018-10-11,1,,,,,イキイキヒャクモモチハマ,0
195,1370002015586,登記記録の閉鎖等,0,2023-03-20,2023-03-16,有限会社ティエスインターナショナルホールディング,,有限会社,宮城県,仙台市青葉区,上杉６丁目９番３号マリア上杉２０６,,04,101,9800011,,,2023-03-16,清算の結了等,,,2015-10-05,1,,,,,ティエスインターナショナルホールディング,0
223,2010001199936,登記記録の閉鎖等,0,2023-03-20,2023-03-13,株式会社エナジーテック戦略研究所,,株式会社,東京都,中央区,日本橋兜町２０－７,,13,102,1030026,,,2023-03-13,清算の結了等,,,2019-04-09,1,,,,,エナジーテックセンリャクケンキュウジョ,0
224,2010001212104,登記記録の閉鎖等,0,2023-03-20,2023-03-08,株式会社Ｃ　Ｏｒｇａｎｉｃ,,株式会社,東京都,港区,赤坂８丁目５番６号ＩＰＩＡＳＡｏｙａｍａ３０５,,13,103,1070052,,,2023-03-08,清算の結了等,,,2020-09-08,1,,,,,シーオルガニック,0
267,2011802008715,登記記録の閉鎖等,0,2023-03-20,2023-03-15,朝日産業有限会社,,有限会社,東京都,足立区,千住大川町２４番１８号,,13,121,1200031,,,2023-03-15,清算の結了等,,,2015-10-05,1,,,,,アサヒサンギョウ,0
272,2012801003500,登記記録の閉鎖等,0,2023-03-20,2023-03-13,株式会社田口設備,,株式会社,東京都,武蔵村山市,大南２丁目１２７－１,,13,223,2080013,,,2023-03-13,清算の結了等,,,2015-10-05,1,,,,,タグチセツビ,0
276,2013301033054,登記記録の閉鎖等,0,2023-03-20,2023-03-15,株式会社Ａキャリア,,株式会社,東京都,豊島区,東池袋１丁目３４番５号いちご東池袋ビル６階,,13,116,1700013,,,2023-03-15,合併による解散等,1030001079740,令和５年３月１日埼玉県川口市朝日一丁目１６番４号株式会社インフォプラザ（1030001079740）に合併し解散,2015-10-05,1,,,,,,0
306,2030005003150,登記記録の閉鎖等,0,2023-03-20,2023-03-15,特定非営利活動法人戸田の川を考える会,,その他の設立登記法人,埼玉県,戸田市,南町３番２０号,,11,224,3350025,,,2023-03-15,清算の結了等,,,2015-10-05,1,,,,,トダノカワヲカンガエルカイ,0
307,2040001023184,登記記録の閉鎖等,0,2023-03-20,2023-03-14,株式会社ザ・プランニング,,株式会社,千葉県,船橋市,芝山１丁目５０番６号,,12,204,2740816,,,2023-03-14,清算の結了等,,,2015-10-05,1,,,,,ザプランニング,0
320,2070001035895,登記記録の閉鎖等,0,2023-03-20,2023-03-13,ＴＮＴ株式会社,,株式会社,群馬県,太田市,下浜田町２１９番地１３,,10,205,3730821,,,2023-03-13,合併による解散等,7060001029555,令和５年３月３日群馬県邑楽郡邑楽町大字赤堀３８３１番地２号株式会社ネオリード（7060001029555）に合併し解散,2019-07-09,1,,,,,ティーエヌティー,0
321,2080401004631,登記記録の閉鎖等,0,2023-03-20,2023-03-17,富士綿業株式会社,,株式会社,静岡県,浜松市中区,上浅田２丁目８番３８号,,22,131,4328042,,,2023-03-17,清算の結了等,,,2015-10-05,1,,,,,フジメンギョウ,0
326,2110001021593,登記記録の閉鎖等,0,2023-03-20,2023-03-16,株式会社三興商事,,株式会社,新潟県,糸魚川市,寺町１丁目３番１５号,,15,216,9410058,,,2023-03-16,清算の結了等,,,2015-10-05,1,,,,,サンコウショウジ,0
328,2110002010843,登記記録の閉鎖等,0,2023-03-20,2023-03-16,有限会社星野工業,,有限会社,新潟県,新潟市北区,上堀田３５９番地,,15,101,9503355,,,2023-03-16,清算の結了等,,,2015-10-05,1,,,,,ホシノコウギョウ,0
359,2130001005280,登記記録の閉鎖等,0,2023-03-20,2023-03-16,株式会社ハーヴェスト,,株式会社,京都府,京都市北区,小山板倉町５７番地の１,,26,101,6038125,,,2023-03-16,清算の結了等,,,2015-10-05,1,,,,,ハーヴェスト,0
366,2130002026375,登記記録の閉鎖等,0,2023-03-20,2023-03-14,有限会社ケイワイシステム,,有限会社,京都府,宇治市,折居台３丁目２番地の８７,,26,204,6110023,,,2023-03-14,清算の結了等,,,2015-10-05,1,,,,,ケイワイシステム,0
371,2140001125929,登記記録の閉鎖等,0,2023-03-20,2023-03-14,株式会社ＴＡＳＵＫＩ,,株式会社,兵庫県,神戸市中央区,御幸通８丁目１－６神戸国際会館２２階,,28,110,6510087,,,2023-03-14,清算の結了等,,,2022-05-09,1,,,,,タスキ,0
376,2140002024923,登記記録の閉鎖等,0,2023-03-20,2023-03-16,有限会社ジェーサービス,,有限会社,兵庫県,神戸市兵庫区,新開地４丁目３番７－８０２号,,28,105,6520811,,,2023-03-16,清算の結了等,,,2015-10-05,1,,,,,ジェーサービス,0
378,2140002041522,登記記録の閉鎖等,0,2023-03-20,2023-03-16,有限会社タイラ工業,,有限会社,兵庫県,尼崎市,神崎町２２番２１号,,28,202,6610964,,,2023-03-16,清算の結了等,,,2015-10-05,1,,,,,タイラコウギョウ,0
389,2180002045998,登記記録の閉鎖等,0,2023-03-20,2023-03-16,有限会社オフィスアンドユニバーシティー・イド,,有限会社,熊本県,天草市,大浜町１６番２１号,,43,215,8630015,,,2023-03-16,清算の結了等,,,2015-10-05,1,,,,,オフィスアンドユニバーシティイド,0
430,2360003011279,登記記録の閉鎖等,0,2023-03-20,2023-03-09,合同会社なんくる嶺,,合同会社,沖縄県,那覇市,字天久８０２番地,,47,201,9000005,,,2023-03-09,清算の結了等,,,2021-07-13,1,,,,,,0
436,2380002024206,登記記録の閉鎖等,0,2023-03-20,2023-03-15,親和電気工事有限会社,,有限会社,福島県,いわき市,桜ケ丘２丁目７番地,,07,204,9728324,,,2023-03-15,清算の結了等,,,2015-10-05,1,,,,,シンワデンキコウジ,0
457,3010001142432,登記記録の閉鎖等,0,2023-03-20,2023-03-01,ハイランド・ホールディングス株式会社,,株式会社,東京都,世田谷区,上祖師谷１丁目２番８号,,13,112,1570065,,,2023-03-01,合併による解散等,7010501015019,令和５年３月１日東京都世田谷区上祖師谷一丁目２番８号株式会社ロータス・マネジメント・サービス（7010501015019）に合併し解散,2015-10-05,1,,,,,ハイランドホールディングス,0
491,3011101073261,登記記録の閉鎖等,0,2023-03-20,2023-02-13,株式会社ラニアケア・サーチ,,株式会社,東京都,新宿区,新宿２丁目１２番１３号新宿アントレサロンビル,,13,104,1600022,,,2023-02-13,清算の結了等,,,2015-10-05,1,,,,,ラニアケアサーチ,0
495,3011202006509,登記記録の閉鎖等,0,2023-03-20,2023-03-17,有限会社わんなっぷ,,有限会社,東京都,中野区,新井１丁目２６番５号,,13,114,1650026,,,2023-03-17,清算の結了等,,,2015-10-05,1,,,,,ワンナップ,0
505,3012802003663,登記記録の閉鎖等,0,2023-03-20,2023-03-13,有限会社藤井建材,,有限会社,東京都,昭島市,緑町２丁目２６番２１号,,13,207,1960004,,,2023-03-13,清算の結了等,,,2015-10-05,1,,,,,フジイケンザイ,0
517,3021002063914,登記記録の閉鎖等,0,2023-03-20,2023-03-15,有限会社クマタ住設,,有限会社,神奈川県,横須賀市,野比３丁目１番４－２０１号,,14,201,2390841,,,2023-03-15,清算の結了等,,,2015-10-05,1,,,,,,0
546,3080402008259,登記記録の閉鎖等,0,2023-03-20,2023-03-17,有限会社綿業ビル,,有限会社,静岡県,浜松市中区,上浅田２丁目８番３８号,,22,131,4328042,,,2023-03-17,清算の結了等,,,2015-10-05,1,,,,,,0
550,3100002006098,登記記録の閉鎖等,0,2023-03-20,2023-03-15,有限会社三川屋,,有限会社,長野県,上水内郡小川村,大字瀬戸川９９０３番地,,20,588,3813304,,,2023-03-15,清算の結了等,,,2015-10-05,1,,,,,ミカワヤ,0
555,3110003003176,登記記録の閉鎖等,0,2023-03-20,2023-03-16,ビッセンインターナショナル合名会社,,合名会社,新潟県,上越市,下門前２２６３番地,,15,222,9420063,,,2023-03-16,清算の結了等,,,2015-10-05,1,,,,,ビッセンインターナショナル,0
567,3120903000395,登記記録の閉鎖等,0,2023-03-20,2023-03-16,合資会社オフィス柳原,,合資会社,大阪府,高槻市,富田丘町２番２－１４１２号,,27,207,5691145,,,2023-03-16,清算の結了等,,,2015-10-05,1,,,,,オフィスヤナギハラ,0
569,3130001060886,登記記録の閉鎖等,0,2023-03-20,2023-03-15,サンアロー株式会社,,株式会社,京都府,宇治市,大久保町上ノ山５３番地９,,26,204,6110033,,,2023-03-15,清算の結了等,,,2017-11-07,1,,,,,サンアロー,0
593,3200002026417,登記記録の閉鎖等,0,2023-03-20,2023-03-17,有限会社みのかも店,,有限会社,岐阜県,高山市,石浦町９丁目２０４番地,,21,203,5060825,,,2023-03-17,清算の結了等,,,2015-10-05,1,,,,,ミノカモテン,0
605,3260002019092,登記記録の閉鎖等,0,2023-03-20,2023-03-17,瀬戸内鋼業有限会社,,有限会社,岡山県,倉敷市,西阿知町西原６７３番地の８,,33,202,7100806,,,2023-03-17,清算の結了等,,,2015-10-05,1,,,,,セトウチコウギョウ,0
614,3290001020684,登記記録の閉鎖等,0,2023-03-20,2023-03-15,株式会社こうすけ爺さんの自然工房,,株式会社,福岡県,福岡市東区,美和台新町２５番１２号,,40,131,8110211,,,2023-03-15,清算の結了等,,,2015-10-05,1,,,,,コウスケジイサンノシゼンコウボウ,0
631,3320002002348,登記記録の閉鎖等,0,2023-03-20,2023-03-17,有限会社工藤会計事務所,,有限会社,大分県,大分市,大道町１丁目３番２１号,,44,201,8700822,,,2023-03-17,清算の結了等,,,2015-10-05,1,,,,,クドウカイケイジムショ,0
646,3400001009765,登記記録の閉鎖等,0,2023-03-20,2023-03-15,株式会社伊藤ボーリング,,株式会社,岩手県,北上市,成田２６地割４２番地１,,03,206,0240003,,,2023-03-15,清算の結了等,,,2015-10-05,1,,,,,イトウボーリング,0
655,3460001000388,登記記録の閉鎖等,0,2023-03-20,2023-03-16,株式会社釧路広域振興公社,,株式会社,北海道,釧路市,音別町中音別６３０番地１９７,,01,206,0880118,,,2023-03-16,清算の結了等,,,2015-10-05,1,,,,,クシロコウイキシンコウコウシャ,0
670,4010101000860,登記記録の閉鎖等,0,2023-03-20,2023-03-13,金子製罐設備株式会社,,株式会社,東京都,八王子市,小宮町９４８番地１,,13,201,1920031,,,2023-03-13,清算の結了等,,,2015-10-05,1,,,,,カネコセイカンセツビ,0
671,4010103001444,登記記録の閉鎖等,0,2023-03-20,2023-03-15,１０４合同会社,,合同会社,東京都,八王子市,元横山町１丁目２２番３号,,13,201,1920063,,,2023-03-15,清算の結了等,,,2019-09-05,1,,,,,イチマルヨン,0
681,4010701022354,登記記録の閉鎖等,0,2023-03-20,2023-03-13,株式会社ステージアップ,,株式会社,東京都,中央区,晴海３丁目１３番１号,,13,102,1040053,,,2023-03-13,清算の結了等,,,2015-10-05,1,,,,,ステージアップ,0
688,4011001147362,登記記録の閉鎖等,0,2023-03-20,2023-03-13,Ｎｅｔｋｉｌｌｅｒ　Ｊａｐａｎ株式会社,,株式会社,東京都,渋谷区,渋谷２丁目２４番１２号渋谷スクランブルスクエア３９階,,13,113,1500002,,,2023-03-13,清算の結了等,,,2022-05-11,1,,,,,ネットキラージャパン,0
710,4013301026345,登記記録の閉鎖等,0,2023-03-20,2023-03-13,株式会社金丸建築事務所,,株式会社,東京都,文京区,大塚４丁目４０番１号茗渓マンション３Ｆ,00119748,13,105,1120012,,,2023-03-13,清算の結了等,,,2015-10-05,1,,,,,カナマルケンチクジムショ,0
714,4020002011254,登記記録の閉鎖等,0,2023-03-20,2023-03-15,有限会社植田新聞店,,有限会社,神奈川県,横浜市戸塚区,平戸町３０７番地,,14,110,2440803,,,2023-03-15,清算の結了等,,,2015-10-05,1,,,,,ウエダシンブンテン,0
717,4020002097038,登記記録の閉鎖等,0,2023-03-20,2023-03-01,有限会社笹原装飾,,有限会社,神奈川県,川崎市川崎区,中瀬２丁目１４番１号,,14,131,2100818,,,2023-03-01,清算の結了等,,,2015-10-05,1,,,,,ササハラソウショク,0
724,4040001038692,登記記録の閉鎖等,0,2023-03-20,2023-03-08,昂設計株式会社,,株式会社,千葉県,松戸市,三矢小台３丁目１４番地の１,,12,207,2710087,,,2023-03-08,清算の結了等,,,2015-10-05,1,,,,,スバルセッケイ,0
727,4040001095404,登記記録の閉鎖等,0,2023-03-20,2023-03-13,株式会社ＯＦＦＩＣＥ－Ｔ,,株式会社,千葉県,船橋市,中野木１丁目４番２５－５０１号,,12,204,2740826,,,2023-03-13,清算の結了等,,,2016-05-24,1,,,,,オフイスティ,0
760,4120901033792,登記記録の閉鎖等,0,2023-03-20,2023-03-16,株式会社松栄サービス,,株式会社,大阪府,高槻市,松が丘４丁目３７番１４号,,27,207,5691031,,,2023-03-16,清算の結了等,,,2015-10-05,1,,,,,ショウエイサービス,0
782,4180001032863,登記記録の閉鎖等,0,2023-03-20,2023-03-15,三崎興産株式会社,,株式会社,愛知県,名古屋市中村区,長筬町１丁目７０番地,,23,105,4530839,,,2023-03-15,清算の結了等,,,2015-10-05,1,,,,,ミサキコウサン,0
802,4200002026382,登記記録の閉鎖等,0,2023-03-20,2023-03-17,有限会社揖斐大野,,有限会社,岐阜県,高山市,石浦町９丁目２０４番地,,21,203,5060825,,,2023-03-17,清算の結了等,,,2015-10-05,1,,,,,イビオオノ,0
828,4350005004908,登記記録の閉鎖等,0,2023-03-20,2023-03-16,一般社団法人都城発明協会,,その他の設立登記法人,宮崎県,都城市,姫城町６街区２１号,,45,202,8850073,,,2023-03-16,清算の結了等,,,2015-10-05,1,,,,,ミヤコノジョウハツメイキョウカイ,0
846,4440002002062,登記記録の閉鎖等,0,2023-03-20,2023-03-13,有限会社室内装飾ゴトウ,,有限会社,北海道,函館市,八幡町６番４号,,01,202,0400083,,,2023-03-13,清算の結了等,,,2015-10-05,1,,,,,シツナイソウショクゴトウ,0
849,4490002001778,登記記録の閉鎖等,0,2023-03-20,2023-03-17,有限会社こまつ・はかた共同企画,,有限会社,高知県,高知市,愛宕町３丁目１６番１１号,,39,201,7800051,,,2023-03-17,清算の結了等,,,2015-10-05,1,,,,,コマツハカタキョウドウキカク,0
854,5010001147248,登記記録の閉鎖等,0,2023-03-20,2023-03-13,株式会社ＭＳＰ,,株式会社,東京都,千代田区,六番町１５番地２,,13,101,1020085,,,2023-03-13,清算の結了等,,,2015-10-05,1,,,,,エムエスピー,0
881,5010703002147,登記記録の閉鎖等,0,2023-03-20,2023-03-14,合同会社夢リンクス,,合同会社,東京都,品川区,大崎３丁目１番１１号,,13,109,1410032,,,2023-03-14,合併による解散等,4010701016281,令和５年３月１３日東京都品川区大崎四丁目２番１３号株式会社スターライズジャパンホールディングスリミテッド（4010701016281）に合併し解散,2015-10-05,1,,,,,ユメリンクス,0
883,5010703003748,登記記録の閉鎖等,0,2023-03-20,2023-03-14,合同会社オクト,,合同会社,東京都,中央区,銀座１丁目２２番１１号銀座大竹ビジデンス２階,,13,102,1040061,,,2023-03-14,清算の結了等,,,2017-07-31,1,,,,,オクト,0
912,5011802003770,登記記録の閉鎖等,0,2023-03-20,2023-03-16,柴又縫製有限会社,,有限会社,東京都,葛飾区,柴又４丁目２６番１３号,,13,122,1250052,,,2023-03-16,清算の結了等,,,2015-10-05,1,,,,,シバマタホウセイ,0
917,5013102003063,登記記録の閉鎖等,0,2023-03-20,2023-03-17,有限会社春田工業,,有限会社,東京都,西多摩郡瑞穂町,大字二本木３８８番地４,,13,303,1901201,,,2023-03-17,清算の結了等,,,2015-10-05,1,,,,,ハルタコウギョウ,0
925,5030002050291,登記記録の閉鎖等,0,2023-03-20,2023-03-10,有限会社土佐萬,,有限会社,東京都,大田区,東矢口１丁目５番４号,,13,111,1460094,,,2023-03-10,清算の結了等,,,2015-10-05,1,,,,,トサマン,0
947,5070002032823,登記記録の閉鎖等,0,2023-03-20,2023-03-13,荒木電機有限会社,,有限会社,群馬県,太田市,由良町９０８番地２,,10,205,3730036,,,2023-03-13,清算の結了等,,,2015-10-05,1,,,,,アラキデンキ,0
949,5070005002567,登記記録の閉鎖等,0,2023-03-20,2023-03-16,社会福祉法人まこと会,,その他の設立登記法人,群馬県,高崎市,上室田町４１７８番地３,,10,202,3703346,,,2023-03-16,清算の結了等,,,2015-10-05,1,,,,,マコトカイ,0
998,5140005022070,登記記録の閉鎖等,0,2023-03-20,2023-01-30,特定非営利活動法人Ｇｌｏｂａｌ　Ｃｈｉｌｄｒｅｎ　Ｓｕｐｐｏｒｔ,,その他の設立登記法人,兵庫県,神戸市東灘区,魚崎北町１丁目５番４号,,28,101,6580082,,,2023-01-30,清算の結了等,,,2015-10-05,1,,,,,グローバルチルドレンサポート,0
1010,5190005009724,登記記録の閉鎖等,0,2023-03-20,2023-03-17,名張電気工事協同組合,,その他の設立登記法人,三重県,名張市,西原町２５９０番地の５０,,24,208,5180603,,,2023-03-17,清算の結了等,,,2015-10-05,1,,,,,ナバリデンキコウジ,0
1011,5220001000690,登記記録の閉鎖等,0,2023-03-20,2023-03-16,株式会社アキト・カンパニー,,株式会社,石川県,金沢市,本江町１０番１号,,17,201,9218012,,,2023-03-16,清算の結了等,,,2015-10-05,1,,,,,アキトカンパニー,0
1032,5290005016917,登記記録の閉鎖等,0,2023-03-20,2023-03-16,一般社団法人生活支援協会,,その他の設立登記法人,福岡県,飯塚市,大分１０２７番地４,,40,205,8200712,,,2023-03-16,清算の結了等,,,2018-07-19,1,,,,,セイカツシエンキョウカイ,0
1036,5290802021714,登記記録の閉鎖等,0,2023-03-20,2023-03-03,有限会社旭建設,,有限会社,福岡県,豊前市,大字八屋１６７６番地の３,,40,214,8280021,,,2023-03-03,合併による解散等,4290802021715,令和５年３月１日福岡県豊前市大字八屋１６７６番地の３株式会社旭実業（4290802021715）に合併し解散,2015-10-05,1,,,,,,0
1068,6010001207455,登記記録の閉鎖等,0,2023-03-20,2023-03-13,ミノージャパン株式会社,,株式会社,東京都,千代田区,丸の内１丁目１１番１号,,13,101,1000005,,,2023-03-13,清算の結了等,,,2020-02-13,1,,,,,ミノージャパン,0
1076,6010101004612,登記記録の閉鎖等,0,2023-03-20,2023-03-10,株式会社エヌ・エス設計,,株式会社,東京都,八王子市,片倉町１３３３番地の５７,,13,201,1920914,,,2023-03-10,清算の結了等,,,2015-10-05,1,,,,,,0
1105,6011001152674,登記記録の閉鎖等,0,2023-03-20,2023-03-14,ユニヴアーサル観光株式会社,,株式会社,東京都,渋谷区,千駄ヶ谷３丁目７番地秀和第二神宮レジデンス,,13,113,1510051,,,2023-03-14,清算の結了等,,,2023-02-21,1,,,,,,0
1127,6013102002031,登記記録の閉鎖等,0,2023-03-20,2023-03-14,有限会社翔栄学院,,有限会社,東京都,あきる野市,伊奈９４３番地６,,13,228,1900142,,,2023-03-14,合併による解散等,1010101008659,令和５年３月１日東京都八王子市七国一丁目９番地１株式会社翔栄学院（1010101008659）に合併し解散,2015-10-05,1,,,,,ショウエイガクイン,0
1163,6040003021273,登記記録の閉鎖等,0,2023-03-20,2023-03-09,グローバルヴィレッジ合同会社,,合同会社,千葉県,成田市,名古屋５９０,,12,211,2890116,,,2023-03-09,清算の結了等,,,2022-11-16,1,,,,,グローバルヴィレッジ,0
1170,6050002008683,登記記録の閉鎖等,0,2023-03-20,2023-03-15,有限会社電子印刷企画,,有限会社,茨城県,ひたちなか市,外野１丁目９番１５号,,08,221,3120053,,,2023-03-15,清算の結了等,,,2015-10-05,1,,,,,デンシインサツキカク,0
1172,6050002044844,登記記録の閉鎖等,0,2023-03-20,2023-03-14,有限会社ナガセ,,有限会社,茨城県,結城市,大字鹿窪９６９番地の４,,08,207,3070015,,,2023-03-14,清算の結了等,,,2015-10-05,1,,,,,,0
1177,6110001013587,登記記録の閉鎖等,0,2023-03-20,2023-03-16,株式会社ライフデザイン,,株式会社,新潟県,新発田市,大手町６丁目１番５号,,15,206,9570052,,,2023-03-16,清算の結了等,,,2015-10-05,1,,,,,ライフデザイン,0
1205,6130001051503,登記記録の閉鎖等,0,2023-03-20,2023-03-13,株式会社ＧＥＮＥＳＩＳ,,株式会社,京都府,京都市北区,大将軍坂田町７番地の１３,,26,101,6038335,,,2023-03-13,清算の結了等,,,2015-10-05,1,,,,,ジェネシス,0
1218,6140003015793,登記記録の閉鎖等,0,2023-03-20,2023-03-15,ＤｅＬｅｏｎ　Ｃｏｎｓｕｌｔｉｎｇ合同会社,,合同会社,兵庫県,神戸市東灘区,住吉本町３丁目１１番６－６０３号,,28,101,6580051,,,2023-03-15,清算の結了等,,,2021-01-08,1,,,,,デレオンコンサルティング,0
1237,6190001028768,登記記録の閉鎖等,0,2023-03-20,2023-03-14,株式会社中勢設備設計,,株式会社,三重県,松阪市,嬉野中川町５０８番地１,,24,204,5152321,,,2023-03-14,清算の結了等,,,2021-10-13,1,,,,,チュウセイセツビセッケイ,0
1240,6200002026380,登記記録の閉鎖等,0,2023-03-20,2023-03-17,有限会社新宮店,,有限会社,岐阜県,高山市,石浦町９丁目２０４番地,,21,203,5060825,,,2023-03-17,清算の結了等,,,2015-10-05,1,,,,,シングウテン,0
1256,6290005017311,登記記録の閉鎖等,0,2023-03-20,2023-03-16,特定非営利活動法人ｉ．ｙｕｍｅ教室,,その他の設立登記法人,福岡県,飯塚市,大分１０２７番地４,,40,205,8200712,,,2023-03-16,清算の結了等,,,2019-05-16,1,,,,,アイユメキョウシツ,0
1273,6370002015268,登記記録の閉鎖等,0,2023-03-20,2023-03-16,有限会社二十一マネージメントホールディング,,有限会社,宮城県,仙台市青葉区,立町５番５号,,04,101,9800822,,,2023-03-16,清算の結了等,,,2015-10-05,1,,,,,ニジュウイチマネージメントホールディング,0
1290,7010001108826,登記記録の閉鎖等,0,2023-03-20,2023-03-01,山弘住建株式会社,,株式会社,東京都,世田谷区,上祖師谷１丁目２番８号,,13,112,1570065,,,2023-03-01,合併による解散等,7010501015019,令和５年３月１日東京都世田谷区上祖師谷一丁目２番８号株式会社ロータス・マネジメント・サービス（7010501015019）に合併し解散,2015-10-05,1,,,,,サンコウジュウケン,0
1310,7010401119852,登記記録の閉鎖等,0,2023-03-20,2023-03-08,レッドホースプルート株式会社,,株式会社,東京都,港区,虎ノ門４丁目１番１７号,,13,103,1050001,,,2023-03-08,清算の結了等,,,2015-10-05,1,,,,,レッドホースプルート,0
1349,7011401018862,登記記録の閉鎖等,0,2023-03-20,2023-03-15,ＪＣＥＸエクスプレスジャパン株式会社,,株式会社,東京都,千代田区,神田神保町２丁目１４番朝日神保町プラザ４０６号,,13,101,1010051,,,2023-03-15,清算の結了等,,,2015-10-05,1,,,,,ジェーシーイーエックスエクスプレスジャパン,0
1358,7020002076022,登記記録の閉鎖等,0,2023-03-20,2023-03-14,有限会社工学教育研究所,,有限会社,神奈川県,横浜市中区,山手町９０番地の８,,14,104,2310862,,,2023-03-14,清算の結了等,,,2015-10-05,1,,,,,コウガクキョウイクケンキュウジョ,0
1395,7080102012978,登記記録の閉鎖等,0,2023-03-20,2023-03-15,有限会社ビジネスブレーン,,有限会社,静岡県,駿東郡長泉町,下土狩６番６号,,22,342,4110943,,,2023-03-15,清算の結了等,,,2015-10-05,1,,,,,ビジネスブレーン,0
1425,7140002031304,登記記録の閉鎖等,0,2023-03-20,2023-03-15,有限会社三好電機,,有限会社,兵庫県,明石市,大久保町江井島１６４７番地の１０,,28,203,6740064,,,2023-03-15,清算の結了等,,,2015-10-05,1,,,,,ミヨシデンキ,0
1428,7140003017830,登記記録の閉鎖等,0,2023-03-20,2023-03-15,合同会社ＫＩＰ,,合同会社,兵庫県,神戸市東灘区,西岡本２丁目７番２－１２２１号,,28,101,6580073,,,2023-03-15,清算の結了等,,,2022-06-24,1,,,,,ケーアイピー,0
1441,7180301026232,登記記録の閉鎖等,0,2023-03-20,2023-03-10,株式会社ピーク・ワンズ,,株式会社,愛知県,岡崎市,日名本町１６番地２,,23,202,4440916,,,2023-03-10,清算の結了等,,,2015-10-05,1,,,,,ピークワンズ,0
1442,7180301033823,登記記録の閉鎖等,0,2023-03-20,2023-03-10,株式会社カレイドスコープ,,株式会社,愛知県,豊田市,大林町１２丁目８番地１６グリーンマンションＡＴＡＧＯＢ－４号,,23,211,4730902,,,2023-03-10,清算の結了等,,,2020-06-23,1,,,,,カレイドスコープ,0
1447,7200002026371,登記記録の閉鎖等,0,2023-03-20,2023-03-17,有限会社岐阜南店,,有限会社,岐阜県,高山市,石浦町９丁目２０４番地,,21,203,5060825,,,2023-03-17,清算の結了等,,,2015-10-05,1,,,,,ギフミナミテン,0
1459,7290002007231,登記記録の閉鎖等,0,2023-03-20,2023-03-13,有限会社藤林模型,,有限会社,福岡県,福岡市城南区,片江１丁目４番１５号,,40,136,8140142,,,2023-03-13,清算の結了等,,,2015-10-05,1,,,,,フジバヤシモケイ,0
1466,7290005015933,登記記録の閉鎖等,0,2023-03-20,2023-03-02,特定非営利活動法人住むサポふくおか,,その他の設立登記法人,福岡県,福岡市博多区,博多駅東２丁目１０番１６号,,40,132,8120013,,,2023-03-02,清算の結了等,,,2016-05-18,1,,,,,スムサポフクオカ,0
1469,7290801010749,登記記録の閉鎖等,0,2023-03-20,2023-03-17,山地産業株式会社,,株式会社,福岡県,北九州市八幡西区,青山３丁目１８番３０号,,40,109,8060043,,,2023-03-17,清算の結了等,,,2015-10-05,1,,,,,ヤマジサンギョウ,0
1503,7460001001969,登記記録の閉鎖等,0,2023-03-20,2023-03-16,菱和石材株式会社,,株式会社,北海道,釧路市,大町１丁目１番１０号,,01,206,0850847,,,2023-03-16,清算の結了等,,,2015-10-05,1,,,,,リョウワセキザイ,0
1511,8010003003545,登記記録の閉鎖等,0,2023-03-20,2023-03-15,合資会社三共印刷所,,合資会社,東京都,千代田区,神田小川町３丁目２０番地,,13,101,1010052,,,2023-03-15,清算の結了等,,,2015-10-05,1,,,,,サンキョウインサツショ,0
1531,8010605003496,登記記録の閉鎖等,0,2023-03-20,2023-03-13,一般社団法人ホープ,,その他の設立登記法人,東京都,江東区,大島４丁目５番１１－２０１号,,13,108,1360072,,,2023-03-13,清算の結了等,,,2018-01-17,1,,,,,ホープ,0
1574,8020001054622,登記記録の閉鎖等,0,2023-03-20,2023-03-15,株式会社ＲＯＮＴＥＮ商社,,株式会社,神奈川県,横浜市中区,本牧原２３－１１,,14,104,2310821,,,2023-03-15,清算の結了等,,,2015-10-05,1,,,,,ロンテンショウシャ,0
1597,8070005005856,登記記録の閉鎖等,0,2023-03-20,2023-03-15,特定非営利活動法人土の会,,その他の設立登記法人,群馬県,太田市,飯塚町２０２９番地,,10,205,3730817,,,2023-03-15,清算の結了等,,,2015-10-05,1,,,,,ツチノカイ,0
1600,8080402006695,登記記録の閉鎖等,0,2023-03-20,2023-03-17,ＢＢＡ株式会社,,株式会社,静岡県,周智郡森町,飯田２８８番地,,22,461,4370222,,,2023-03-17,清算の結了等,,,2015-10-05,1,,,,,ビービーエー,0
1618,8120002023599,登記記録の閉鎖等,0,2023-03-20,2023-03-17,株式会社石原特殊鋼,,株式会社,大阪府,大阪市西淀川区,佃４丁目８番１７号,,27,113,5550001,,,2023-03-17,清算の結了等,,,2015-10-05,1,,,,,,0
1643,8130002034364,登記記録の閉鎖等,0,2023-03-20,2023-03-15,有限会社じゆん,,有限会社,京都府,舞鶴市,字市場１４番地,,26,202,6250025,,,2023-03-15,清算の結了等,,,2015-10-05,1,,,,,,0
1659,8180001111655,登記記録の閉鎖等,0,2023-03-20,2023-03-15,株式会社ロイズ,,株式会社,愛知県,名古屋市中区,錦１丁目８－４９カスタリア伏見１３０６,,23,106,4600003,,,2023-03-15,清算の結了等,,,2015-10-05,1,,,,,ロイズ,0
1669,8210002008005,登記記録の閉鎖等,0,2023-03-20,2023-03-16,有限会社ユーホサービス,,有限会社,福井県,坂井市,丸岡町山崎三ケ第１５号１４番地２,,18,210,9100321,,,2023-03-16,清算の結了等,,,2015-10-05,1,,,,,ユーホサービス,0
1692,8310001001850,登記記録の閉鎖等,0,2023-03-20,2023-03-17,株式会社フォルム,,株式会社,長崎県,長崎市,城山台１丁目３２番５号,,42,201,8528027,,,2023-03-17,清算の結了等,,,2015-10-05,1,,,,,フォルム,0
1699,8360001023270,登記記録の閉鎖等,0,2023-03-20,2023-03-13,株式会社ＧＩＧ’Ｓ宮古島,,株式会社,沖縄県,宮古島市,平良字下里７５６番地３,,47,214,9060013,,,2023-03-13,清算の結了等,,,2017-12-18,1,,,,,ギグズミヤコジマ,0
1709,8380002032434,登記記録の閉鎖等,0,2023-03-20,2023-03-15,有限会社千葉工芸,,有限会社,福島県,会津若松市,大戸町上三寄大豆田９０９番地,,07,202,9695123,,,2023-03-15,清算の結了等,,,2015-10-05,1,,,,,チバコウゲイ,0
1717,8410003002382,登記記録の閉鎖等,0,2023-03-20,2023-03-17,合資会社エコニコ農園,,合資会社,秋田県,仙北市,田沢湖卒田字早稲田３９０番地,,05,215,0141113,,,2023-03-17,清算の結了等,,,2015-10-05,1,,,,,,0
1726,8450001001192,登記記録の閉鎖等,0,2023-03-20,2023-03-17,齋藤塗装工業株式会社,,株式会社,北海道,旭川市,川端町四条７丁目４番２０号,,01,204,0700814,,,2023-03-17,清算の結了等,,,2015-10-05,1,,,,,サイトウトソウコウギョウ,0
1739,9010003035307,登記記録の閉鎖等,0,2023-03-20,2023-03-14,ＣＩＲＲＵＳ　ＩＮＴＥＲＮＡＴＩＯＮＡＬ　ＪＡＰＡＮ合同会社,,合同会社,東京都,千代田区,平河町１丁目２番１０号平河町第一生命ビルディング６Ｆ,,13,101,1020093,,,2023-03-14,清算の結了等,,,2021-07-19,1,,,,,サイラスインターナショナルジャパン,0
1741,9010101011762,登記記録の閉鎖等,0,2023-03-20,2023-03-10,株式会社ｆａａ,,株式会社,東京都,八王子市,新町７番１２号,,13,201,1920065,,,2023-03-10,清算の結了等,,,2015-10-05,1,,,,,ファー,0
1746,9010401149419,登記記録の閉鎖等,0,2023-03-20,2023-03-08,トラベロカ・ジャパン株式会社,,株式会社,東京都,港区,港南２丁目１５番１号品川インターシティＡ棟２８階,,13,103,1080075,,,2023-03-08,清算の結了等,,,2019-11-26,1,,,,,トラベロカジャパン,0
1784,9012302002532,登記記録の閉鎖等,0,2023-03-20,2023-03-14,有限会社スクエア,,有限会社,東京都,町田市,図師町２０３９番地,,13,209,1940203,,,2023-03-14,清算の結了等,,,2015-10-05,1,,,,,スクエア,0
1799,9021002051525,登記記録の閉鎖等,0,2023-03-20,2023-03-15,有限会社狩野冷熱機器設備,,有限会社,神奈川県,小田原市,蓮正寺８８１の２９番地,00013599,14,206,2500865,,,2023-03-15,清算の結了等,,,2015-10-05,1,,,,,カノレイネツキキセツビ,0
1803,9030001126007,登記記録の閉鎖等,0,2023-03-20,2023-03-16,株式会社アーツ,,株式会社,埼玉県,本庄市,東台５丁目６番８号,,11,211,3670021,,,2023-03-16,清算の結了等,,,2018-06-08,1,,,,,アーツ,0
1815,9040001074774,登記記録の閉鎖等,0,2023-03-20,2023-03-14,伸和総合設備株式会社,,株式会社,千葉県,南房総市,和田町真浦１４５番地１,,12,234,2992705,,,2023-03-14,清算の結了等,,,2015-10-05,1,,,,,シンワソウゴウセツビ,0
1862,9120901028160,登記記録の閉鎖等,0,2023-03-20,2023-03-15,大阪観光株式会社,,株式会社,大阪府,箕面市,温泉町１番１号,,27,220,5620006,,,2023-03-15,合併による解散等,4010001188219,令和５年３月１日東京都中央区銀座七丁目１６番２１号大江戸温泉物語ホテルズ＆リゾーツ株式会社（4010001188219）に合併し解散,2015-10-05,1,,,,,オオサカカンコウ,0
1864,9130001000457,登記記録の閉鎖等,0,2023-03-20,2023-03-17,株式会社桂テレビサービス,,株式会社,京都府,京都市右京区,太秦馬塚町１５番地,00047080,26,108,6168177,,,2023-03-17,清算の結了等,,,2015-10-05,1,,,,,カツラテレビサービス,0
1873,9180001035647,登記記録の閉鎖等,0,2023-03-20,2023-03-14,株式会社桑野,,株式会社,愛知県,名古屋市中区,千代田１丁目１６番６号,,23,106,4600012,,,2023-03-14,清算の結了等,,,2015-10-05,1,,,,,クワノ,0
1879,9180301016958,登記記録の閉鎖等,0,2023-03-20,2023-03-07,株式会社ロジ・ハル・サポート,,株式会社,愛知県,高浜市,芳川町１丁目５番地３０,,23,227,4441335,,,2023-03-07,清算の結了等,,,2015-10-05,1,,,,,ロジハルサポート,0
1896,9240002038460,登記記録の閉鎖等,0,2023-03-20,2023-03-16,有限会社コスモタック,,有限会社,広島県,福山市,水呑町２２２２番地,,34,207,7200832,,,2023-03-16,清算の結了等,,,2015-10-05,1,,,,,コスモタック,0
1905,9290002043308,登記記録の閉鎖等,0,2023-03-20,2023-03-17,Ｐｒｅｃｉｏｕｓ－Ｉｎｎｏｖａｔｉｏｎ有限会社,,有限会社,大阪府,大阪市北区,曾根崎新地１丁目１３番２２号,,27,127,5300002,,,2023-03-17,清算の結了等,,,2015-10-05,1,,,,,プレシャスハイフンイノベーション,0
1914,9290802016859,登記記録の閉鎖等,0,2023-03-20,2023-03-17,有限会社親栄ビル,,有限会社,福岡県,遠賀郡遠賀町,大字鬼津３３５３番地の１,,40,384,8114341,,,2023-03-17,清算の結了等,,,2015-10-05,1,,,,,シンエイビル,0
1915,9290802021909,登記記録の閉鎖等,0,2023-03-20,2023-03-03,有限会社益田建設,,有限会社,福岡県,豊前市,大字八屋１６７６番地の３,,40,214,8280021,,,2023-03-03,合併による解散等,4290802021715,令和５年３月１日福岡県豊前市大字八屋１６７６番地の３株式会社旭実業（4290802021715）に合併し解散,2015-10-05,1,,,,,マスダケンセツ,0
