sequenceNumber,corporateNumber,process,correct,updateDate,changeDate,name,nameImageId,kind,prefectureName,cityName,streetNumber,addressImageId,prefectureCode,cityCode,postCode,addressOutside,addressOutsideImageId,closeDate,closeCause,successorCorporateNumber,changeCause,assignmentDate,latest,enName,enPrefectureName,enCityName,enAddressOutside,furigana,hihyoji
1,1010001001342,登記記録の閉鎖等,0,2024-02-02,2024-01-25,株式会社エム・ティー・ディー,,株式会社,東京都,文京区,湯島３丁目１７番８号セレニティ湯島７０１号,,13,105,1130034,,,2024-01-25,清算の結了等,,,2015-10-05,1,,,,,エムティーディー,0
10,1010005022962,登記記録の閉鎖等,0,2024-02-02,2024-01-31,一般社団法人国東武蔵自然電力,,その他の設立登記法人,東京都,文京区,本郷５丁目３３番１０号,,13,105,1130033,,,2024-01-31,清算の結了等,,,2015-10-05,1,,,,,クニサキムサシシゼンデンリョク,0
59,1011103012228,登記記録の閉鎖等,0,2024-02-02,2024-01-29,合同会社ＩＲＳ１,,合同会社,東京都,新宿区,四谷２丁目９番地１５東京ユナイテッド綜合事務所内,,13,104,1600004,,,2024-01-29,清算の結了等,,,2022-10-05,1,,,,,アイアールエスワン,0
70,1013301003768,登記記録の閉鎖等,0,2024-02-02,2024-01-30,河野興業株式会社,,株式会社,東京都,豊島区,巣鴨３丁目２３番７号,,13,116,1700002,,,2024-01-30,清算の結了等,,,2015-10-05,1,,,,,コウノコウギョウ,0
76,1020001095986,登記記録の閉鎖等,0,2024-02-02,2024-01-30,鎌倉建築保全株式会社,,株式会社,神奈川県,川崎市宮前区,有馬４丁目１８番１６号,,14,136,2160003,,,2024-01-30,清算の結了等,,,2015-10-05,1,,,,,,0
79,1020002055114,登記記録の閉鎖等,0,2024-02-02,2024-01-30,有限会社アズテック,,有限会社,神奈川県,横浜市栄区,野七里１丁目２番３０－１０７号,,14,115,2470024,,,2024-01-30,清算の結了等,,,2015-10-05,1,,,,,アズテック,0
85,1021002006412,登記記録の閉鎖等,0,2024-02-02,2024-01-31,有限会社エー・コーポレーション,,有限会社,神奈川県,藤沢市,大庭５１２０番地の２,,14,205,2510861,,,2024-01-31,清算の結了等,,,2015-10-05,1,,,,,エーコーポレーション,0
98,1030002094945,登記記録の閉鎖等,0,2024-02-02,2024-01-29,有限会社高篠,,有限会社,埼玉県,鶴ヶ島市,大字中新田３８２番地,,11,241,3502226,,,2024-01-29,清算の結了等,,,2015-10-05,1,,,,,,0
99,1030002097601,登記記録の閉鎖等,0,2024-02-02,2024-01-30,有限会社悠悠トラベル,,有限会社,埼玉県,比企郡小川町,大字腰越６４１番地６,,11,343,3550327,,,2024-01-30,清算の結了等,,,2015-10-05,1,,,,,ユウユウトラベル,0
102,1040001018235,登記記録の閉鎖等,0,2024-02-02,2024-01-26,フジスポーツ株式会社,,株式会社,千葉県,船橋市,山手２丁目１０番２０号,,12,204,2730045,,,2024-01-26,清算の結了等,,,2015-10-05,1,,,,,フジスポーツ,0
154,1150001021896,登記記録の閉鎖等,0,2024-02-02,2024-02-01,株式会社ビジネスショップやまと,,株式会社,奈良県,奈良市,鳥見町１丁目１１番地の４,,29,201,6310065,,,2024-02-01,清算の結了等,,,2017-10-31,1,,,,,ビジネスショップヤマト,0
155,1160001022290,登記記録の閉鎖等,0,2024-02-02,2024-01-22,株式会社なつめ,,株式会社,東京都,港区,六本木３丁目４－２コープ野村六本木１－３０５号室,,13,103,1060032,,,2024-01-22,合併による解散等,8160001022318,令和６年１月２２日東京都港区六本木三丁目４－２コープ野村六本木１－３０５号室株式会社ブレイン（8160001022318）に合併し解散,2020-02-18,1,,,,,ナツメ,0
156,1160002006763,登記記録の閉鎖等,0,2024-02-02,2024-01-19,有限会社ドゥマン,,有限会社,滋賀県,長浜市,神照町７２７番地７,,25,203,5260015,,,2024-01-19,清算の結了等,,,2015-10-05,1,,,,,ドゥマン,0
157,1160002008108,登記記録の閉鎖等,0,2024-02-02,2024-01-31,有限会社クレ井産業,,有限会社,滋賀県,愛知郡愛荘町,松尾寺９９８番地の５,,25,425,5291202,,,2024-01-31,清算の結了等,,,2015-10-05,1,,,,,クレイサンギョウ,0
158,1160002011375,登記記録の閉鎖等,0,2024-02-02,2024-01-31,有限会社谷口総合保険,,有限会社,滋賀県,高島市,新旭町北畑１丁目４番地６,,25,212,5201521,,,2024-01-31,清算の結了等,,,2015-10-05,1,,,,,タニグチソウゴウホケン,0
183,1180301027285,登記記録の閉鎖等,0,2024-02-02,2024-01-29,篠田土地建物株式会社,,株式会社,愛知県,豊田市,篠原町一色屋敷６８番地,,23,211,4700352,,,2024-01-29,清算の結了等,,,2015-10-05,1,,,,,シノダトチタテモノ,0
192,1190001025811,登記記録の閉鎖等,0,2024-02-02,2024-01-31,株式会社スタジオ・ゴールド・スター,,株式会社,三重県,桑名市,大字江場４８１番地,,24,205,5110836,,,2024-01-31,合併による解散等,4190001012138,令和６年１月３１日三重県桑名市大字江場４８１番地株式会社金星堂（4190001012138）に合併し解散,2018-08-29,1,,,,,スタジオゴールドスター,0
195,1210001018259,登記記録の閉鎖等,0,2024-02-02,2024-01-31,株式会社ミヤモト,,株式会社,福井県,福井市,円山１丁目５１０番地,,18,201,9188207,,,2024-01-31,清算の結了等,,,2021-01-05,1,,,,,ミヤモト,0
225,1320002016424,登記記録の閉鎖等,0,2024-02-02,2024-01-31,有限会社小野ホンダ商会,,有限会社,大分県,佐伯市,大字上岡１５４３番地の５,,44,205,8760045,,,2024-01-31,清算の結了等,,,2015-10-05,1,,,,,,0
229,1340002013931,登記記録の閉鎖等,0,2024-02-02,2024-01-26,有限会社奈ほ美商事,,有限会社,鹿児島県,霧島市,国分中央３丁目１２番６号,,46,218,8994332,,,2024-01-26,清算の結了等,,,2015-10-05,1,,,,,ナホミショウジ,0
231,1350001011175,登記記録の閉鎖等,0,2024-02-02,2024-01-25,株式会社利巧ハウス,,株式会社,宮崎県,延岡市,日の出町２丁目１２番地７,,45,203,8820035,,,2024-01-25,清算の結了等,,,2015-10-05,1,,,,,リコウハウス,0
235,1380002027564,登記記録の閉鎖等,0,2024-02-02,2024-01-29,有限会社はじめ,,有限会社,福島県,いわき市,小名浜字鳥居北１３番地の２１,,07,204,9718101,,,2024-01-29,清算の結了等,,,2015-10-05,1,,,,,ハジメ,0
237,1410001007828,登記記録の閉鎖等,0,2024-02-02,2024-01-26,株式会社秋田ラグノオ,,株式会社,秋田県,秋田市,卸町５丁目１番６号,,05,201,0100061,,,2024-01-26,清算の結了等,,,2015-10-05,1,,,,,アキタラグノオ,0
238,1410001007844,登記記録の閉鎖等,0,2024-02-02,2024-01-30,秋田左官資材株式会社,,株式会社,秋田県,大仙市,花館柳町７番１９号,,05,212,0140005,,,2024-01-30,清算の結了等,,,2015-10-05,1,,,,,アキタサカンシザイ,0
243,1430005005198,登記記録の閉鎖等,0,2024-02-02,2024-01-30,特定非営利活動法人子育てさぽーとポコァポコ,,その他の設立登記法人,北海道,札幌市豊平区,豊平三条７丁目３番２０号,,01,105,0620903,,,2024-01-30,清算の結了等,,,2015-10-05,1,,,,,コソダテサポートポコァポコ,0
266,2010002020051,登記記録の閉鎖等,0,2024-02-02,2024-01-29,有限会社三恵水産,,有限会社,東京都,中央区,勝どき５丁目３番１－２４２８号,,13,102,1040054,,,2024-01-29,清算の結了等,,,2015-10-05,1,,,,,サンケイスイサン,0
304,2011001132110,登記記録の閉鎖等,0,2024-02-02,2024-01-26,株式会社拾旧,,株式会社,東京都,渋谷区,神宮前３丁目３１番１３号,,13,113,1500001,,,2024-01-26,清算の結了等,,,2020-01-30,1,,,,,ジュウキュウ,0
359,2030001132085,登記記録の閉鎖等,0,2024-02-02,2024-01-30,株式会社ＫＩＨＩＲＡ,,株式会社,埼玉県,川口市,緑町７番９号,,11,203,3320027,,,2024-01-30,清算の結了等,,,2019-07-19,1,,,,,キハラ,0
362,2030002030569,登記記録の閉鎖等,0,2024-02-02,2024-01-30,有限会社西関東自動車,,有限会社,埼玉県,所沢市,大字中富１７４５番地の９,,11,208,3590002,,,2024-01-30,清算の結了等,,,2015-10-05,1,,,,,,0
364,2030002097591,登記記録の閉鎖等,0,2024-02-02,2024-01-26,有限会社山田染工場,,有限会社,埼玉県,比企郡小川町,大字角山１４８番地,,11,343,3550316,,,2024-01-26,清算の結了等,,,2015-10-05,1,,,,,ヤマダセンコウジョウ,0
367,2040001054576,登記記録の閉鎖等,0,2024-02-02,2024-01-26,丸喜運輸株式会社,,株式会社,千葉県,市原市,青柳３丁目６番地１０,,12,219,2990102,,,2024-01-26,清算の結了等,,,2015-10-05,1,,,,,マルキウンユ,0
385,2080002009229,登記記録の閉鎖等,0,2024-02-02,2024-01-31,有限会社井出薬品,,有限会社,静岡県,静岡市清水区,入船町８番１６号,,22,103,4240942,,,2024-01-31,清算の結了等,,,2015-10-05,1,,,,,イデヤクヒン,0
394,2100001018814,登記記録の閉鎖等,0,2024-02-02,2024-01-31,株式会社スワベイ,,株式会社,長野県,岡谷市,長地柴宮２丁目２番２号,,20,204,3940083,,,2024-01-31,清算の結了等,,,2015-10-05,1,,,,,スワベイ,0
426,2150001024948,登記記録の閉鎖等,0,2024-02-02,2024-02-01,株式会社生駒賛香,,株式会社,奈良県,生駒市,俵口町６９４番地６,,29,209,6300243,,,2024-02-01,合併による解散等,2150001024675,令和６年２月１日奈良県生駒市谷田町８５１番地１株式会社大和賛菓（2150001024675）に合併し解散,2021-09-27,1,,,,,イコマサンカ,0
430,2180001043243,登記記録の閉鎖等,0,2024-02-02,2024-01-22,株式会社トネリ,,株式会社,愛知県,名古屋市東区,砂田橋２丁目１番Ｄ－１４０４号,,23,102,4610045,,,2024-01-22,清算の結了等,,,2015-10-05,1,,,,,トネリ,0
434,2180001102536,登記記録の閉鎖等,0,2024-02-02,2024-01-30,株式会社リプラスウィング,,株式会社,愛知県,名古屋市中村区,名駅２丁目３８番２号,,23,105,4500002,,,2024-01-30,清算の結了等,,,2015-10-05,1,,,,,リプラスウィング,0
458,2190002005638,登記記録の閉鎖等,0,2024-02-02,2024-01-31,有限会社井谷水産,,有限会社,三重県,北牟婁郡紀北町,海野４８４番地,,24,543,5193206,,,2024-01-31,清算の結了等,,,2015-10-05,1,,,,,イタニスイサン,0
465,2200002008829,登記記録の閉鎖等,0,2024-02-02,2024-01-26,有限会社坂井田住設,,有限会社,岐阜県,岐阜市,柳津町高桑３丁目１７８番地,,21,201,5016122,,,2024-01-26,清算の結了等,,,2015-10-05,1,,,,,サカイダジュウセツ,0
467,2220002009494,登記記録の閉鎖等,0,2024-02-02,2024-01-29,有限会社もんてえすと,,有限会社,石川県,白山市,徳丸町５８５番地２,,17,210,9240804,,,2024-01-29,清算の結了等,,,2015-10-05,1,,,,,モンテエスト,0
470,2230001000825,登記記録の閉鎖等,0,2024-02-02,2024-01-26,株式会社栗林園,,株式会社,富山県,富山市,池多１９６０番地,,16,201,9300158,,,2024-01-26,清算の結了等,,,2015-10-05,1,,,,,クリバヤシエン,0
483,2280005007069,登記記録の閉鎖等,0,2024-02-02,2024-01-31,特定非営利活動法人あしすと,,その他の設立登記法人,島根県,益田市,遠田町１３６１番１,,32,204,6993676,,,2024-01-31,清算の結了等,,,2015-10-05,1,,,,,アシスト,0
498,2310001004702,登記記録の閉鎖等,0,2024-02-02,2024-01-31,株式会社九経,,株式会社,長崎県,長崎市,小江原４丁目３８番５号,,42,201,8511132,,,2024-01-31,合併による解散等,9310001004258,令和６年１月３１日長崎市平野町２６番１６－２０１号株式会社神農（9310001004258）に合併し解散,2015-10-05,1,,,,,キュウケイ,0
520,2360005006203,登記記録の閉鎖等,0,2024-02-02,2024-01-31,一般社団法人Ｈｉｔｏｍｉ　Ｗｏｒｌｄ　Ｐｒｏｊｅｃｔ,,その他の設立登記法人,沖縄県,国頭郡大宜味村,字大保１番地３,,47,302,9051315,,,2024-01-31,清算の結了等,,,2020-04-10,1,,,,,ヒトミワールドプロジェクト,0
542,2450002002039,登記記録の閉鎖等,0,2024-02-02,2024-01-31,有限会社けいめい,,有限会社,北海道,旭川市,東光三条２丁目３番１５号,,01,204,0788343,,,2024-01-31,清算の結了等,,,2015-10-05,1,,,,,ケイメイ,0
573,3010401142890,登記記録の閉鎖等,0,2024-02-02,2024-01-29,株式会社ＳＫＲトライブ,,株式会社,東京都,港区,赤坂３丁目１５番４号赤坂バリビル,,13,103,1070052,,,2024-01-29,清算の結了等,,,2018-12-28,1,,,,,エスケイアールトライブ,0
597,3011101098093,登記記録の閉鎖等,0,2024-02-02,2024-01-30,株式会社グッドコムナビ,,株式会社,東京都,新宿区,西新宿７丁目２０番１号住友不動産西新宿ビル１７階,,13,104,1600023,,,2024-01-30,合併による解散等,4011101047223,令和６年１月２２日東京都新宿区西新宿七丁目２０番１号住友不動産西新宿ビル１７階株式会社グッドコム（4011101047223）に合併し解散,2022-03-09,1,,,,,グッドコムナビ,0
608,3011303001334,登記記録の閉鎖等,0,2024-02-02,2024-01-26,合資会社杉並区接骨師会居宅介護支援事業所,,合資会社,東京都,杉並区,井草１丁目１３番８号,,13,115,1670021,,,2024-01-26,清算の結了等,,,2015-10-05,1,,,,,,0
614,3011803005735,登記記録の閉鎖等,0,2024-02-02,2024-01-31,合同会社ＭＵＭＩＩ,,合同会社,東京都,足立区,梅島３丁目３６番１８―８０５号,,13,121,1210816,,,2024-01-31,清算の結了等,,,2023-07-13,1,,,,,ムーミー,0
620,3012801004423,登記記録の閉鎖等,0,2024-02-02,2024-01-30,株式会社アルファケア,,株式会社,東京都,武蔵村山市,本町４丁目１３番地の１,,13,223,2080004,,,2024-01-30,清算の結了等,,,2015-10-05,1,,,,,アルファケア,0
623,3013302013450,登記記録の閉鎖等,0,2024-02-02,2024-02-01,有限会社ハロービジネス,,有限会社,東京都,豊島区,東池袋５丁目５１番６号,,13,116,1700013,,,2024-02-01,清算の結了等,,,2015-10-05,1,,,,,ハロービジネス,0
635,3030001055566,登記記録の閉鎖等,0,2024-02-02,2024-01-30,株式会社ホネスト,,株式会社,埼玉県,川越市,脇田本町２２番地６,,11,201,3501123,,,2024-01-30,清算の結了等,,,2015-10-05,1,,,,,ホネスト,0
640,3030001124619,登記記録の閉鎖等,0,2024-02-02,2024-01-29,清水住設株式会社,,株式会社,埼玉県,越谷市,レイクタウン９丁目１番地２８ロイジェントパークスレイクタウンＢ－３０５,,11,222,3430828,,,2024-01-29,清算の結了等,,,2018-03-06,1,,,,,,0
644,3030002046622,登記記録の閉鎖等,0,2024-02-02,2024-01-30,有限会社エム・ケー・エンジニアリング,,有限会社,埼玉県,八潮市,大字柳之宮２４３番２,,11,234,3400832,,,2024-01-30,清算の結了等,,,2015-10-05,1,,,,,エムケーエンジニアリング,0
645,3030002114965,登記記録の閉鎖等,0,2024-02-02,2024-01-29,有限会社食彩工房筍亭,,有限会社,埼玉県,熊谷市,鎌倉町１３８番地,,11,202,3600046,,,2024-01-29,清算の結了等,,,2015-10-05,1,,,,,,0
654,3070001036471,登記記録の閉鎖等,0,2024-02-02,2024-02-01,株式会社山岸総業,,株式会社,群馬県,藤岡市,浄法寺１１１０番地１,,10,209,3701406,,,2024-02-01,清算の結了等,,,2020-01-14,1,,,,,ヤマギシソウギョウ,0
657,3080002001201,登記記録の閉鎖等,0,2024-02-02,2024-01-30,有限会社大谷商会,,有限会社,静岡県,静岡市駿河区,大谷３０００番地の３９,,22,102,4228017,,,2024-01-30,清算の結了等,,,2015-10-05,1,,,,,オオヤショウカイ,0
658,3080003002909,登記記録の閉鎖等,0,2024-02-02,2024-01-31,ＳＤＸ合同会社,,合同会社,静岡県,静岡市清水区,西久保１丁目１２－６,,22,103,4240038,,,2024-01-31,清算の結了等,,,2022-12-09,1,,,,,エスディーエックス,0
665,3100001023219,登記記録の閉鎖等,0,2024-02-02,2024-01-31,株式会社トリニティ,,株式会社,長野県,上伊那郡辰野町,大字伊那富７５０３－５,,20,382,3990428,,,2024-01-31,清算の結了等,,,2015-10-05,1,,,,,トリニティ,0
687,3122001017941,登記記録の閉鎖等,0,2024-02-02,2024-01-31,株式会社大槻梱包,,株式会社,大阪府,八尾市,小阪合町１丁目４番１０号,,27,212,5810012,,,2024-01-31,清算の結了等,,,2015-10-05,1,,,,,オオツキコンポウ,0
699,3140002040556,登記記録の閉鎖等,0,2024-02-02,2024-01-30,有限会社近通商事,,有限会社,兵庫県,尼崎市,西長洲町２丁目３４番３２号,,28,202,6600805,,,2024-01-30,清算の結了等,,,2015-10-05,1,,,,,,0
704,3160002000673,登記記録の閉鎖等,0,2024-02-02,2024-01-31,有限会社建築環境研究所,,有限会社,滋賀県,大津市,湖城が丘１０番４６号,,25,201,5200821,,,2024-01-31,清算の結了等,,,2015-10-05,1,,,,,ケンチクカンキョウケンキュウショ,0
708,3180001054396,登記記録の閉鎖等,0,2024-02-02,2024-02-01,株式会社アポロトラスト,,株式会社,愛知県,名古屋市東区,矢田１丁目７番３６号,,23,102,4610040,,,2024-02-01,合併による解散等,5180001017129,令和６年２月１日名古屋市東区矢田一丁目７番３６号総合商社山潤株式会社（5180001017129）に合併し解散,2015-10-05,1,,,,,アポロトラスト,0
710,3180001061599,登記記録の閉鎖等,0,2024-02-02,2024-01-31,株式会社だいち,,株式会社,愛知県,名古屋市中川区,上高畑２丁目１０９番地の３,,23,110,4540873,,,2024-01-31,清算の結了等,,,2015-10-05,1,,,,,ダイチ,0
732,3180002017765,登記記録の閉鎖等,0,2024-02-02,2024-01-31,有限会社カツミ企画,,有限会社,愛知県,名古屋市港区,東蟹田８０１番地の１,,23,111,4550886,,,2024-01-31,清算の結了等,,,2015-10-05,1,,,,,カツミキカク,0
737,3180002059080,登記記録の閉鎖等,0,2024-02-02,2024-01-29,有限会社不動産ユーアイ,,有限会社,愛知県,名古屋市北区,大曽根２丁目７番２３号サンハウス大曽根８Ｂ,,23,103,4620825,,,2024-01-29,清算の結了等,,,2015-10-05,1,,,,,フドウサンユーアイ,0
745,3180303004248,登記記録の閉鎖等,0,2024-02-02,2024-01-30,合同会社ＳＨＩＮ,,合同会社,愛知県,豊田市,前林町川田２番地,,23,211,4730934,,,2024-01-30,清算の結了等,,,2019-01-21,1,,,,,シン,0
756,3220003000220,登記記録の閉鎖等,0,2024-02-02,2024-01-31,合資会社沢井電機工業所,,合資会社,石川県,金沢市,不動寺町ロ６９番地１,,17,201,9200173,,,2024-01-31,清算の結了等,,,2015-10-05,1,,,,,サワイデンキコウギョウショ,0
763,3250002004789,登記記録の閉鎖等,0,2024-02-02,2024-01-31,有限会社サンエルザ,,有限会社,山口県,宇部市,大字小串１５４番地の１,,35,202,7550067,,,2024-01-31,清算の結了等,,,2015-10-05,1,,,,,サンエルザ,0
765,3260001016487,登記記録の閉鎖等,0,2024-02-02,2024-01-31,株式会社オフィス２００００,,株式会社,岡山県,倉敷市,美和１丁目１番４５号,,33,202,7100052,,,2024-01-31,清算の結了等,,,2015-10-05,1,,,,,オフィスニマン,0
785,3340001016784,登記記録の閉鎖等,0,2024-02-02,2024-01-31,株式会社東栄,,株式会社,鹿児島県,姶良市,西餅田１１－３ｃｕｂｅ９　１０６号,,46,225,8995431,,,2024-01-31,清算の結了等,,,2015-10-05,1,,,,,トウエイ,0
790,3350002000258,登記記録の閉鎖等,0,2024-02-02,2024-01-25,有限会社アニモ企画,,有限会社,宮崎県,宮崎市,下原町３３２番地６アルファステイツ青葉北７０２号,,45,201,8800843,,,2024-01-25,清算の結了等,,,2015-10-05,1,,,,,アニモキカク,0
811,3470002005955,登記記録の閉鎖等,0,2024-02-02,2024-02-01,有限会社ブツクス三条,,有限会社,香川県,高松市,太田下町２５１１番地１,,37,201,7618073,,,2024-02-01,清算の結了等,,,2015-10-05,1,,,,,ブツクスサンジョウ,0
817,3500002015298,登記記録の閉鎖等,0,2024-02-02,2024-01-31,有限会社安永建設,,有限会社,愛媛県,西条市,三芳１５８２番地の１,,38,206,7991301,,,2024-01-31,清算の結了等,,,2015-10-05,1,,,,,ヤスナガケンセツ,0
875,4011101022275,登記記録の閉鎖等,0,2024-02-02,2024-01-22,株式会社ラキラキ・ジャパン,,株式会社,東京都,新宿区,新宿１丁目２５番１１－４０３号,,13,104,1600022,,,2024-01-22,清算の結了等,,,2015-10-05,1,,,,,ラキラキジャパン,0
881,4011103007299,登記記録の閉鎖等,0,2024-02-02,2024-01-31,Ｒｅ．ｖｅｒｓｅ合同会社,,合同会社,東京都,新宿区,四谷４丁目１５番地,,13,104,1600004,,,2024-01-31,清算の結了等,,,2017-08-23,1,,,,,リバース,0
891,4011602002528,登記記録の閉鎖等,0,2024-02-02,2023-12-19,有限会社春日屋,,有限会社,東京都,練馬区,豊玉北６丁目７番３号,,13,120,1760012,,,2023-12-19,清算の結了等,,,2015-10-05,1,,,,,カスガヤ,0
894,4011801019422,登記記録の閉鎖等,0,2024-02-02,2024-02-01,株式会社プランニング・コム,,株式会社,東京都,葛飾区,小菅１丁目１２番１９号,,13,122,1240001,,,2024-02-01,清算の結了等,,,2015-10-05,1,,,,,プランニングコム,0
897,4011805000675,登記記録の閉鎖等,0,2024-02-02,2024-01-31,医療法人社団橋本整形外科クリニック,,その他の設立登記法人,東京都,足立区,本木２丁目１３番６号１階,,13,121,1230853,,,2024-01-31,清算の結了等,,,2015-10-05,1,,,,,ハシモトセイケイゲカクリニック,0
898,4013105001627,登記記録の閉鎖等,0,2024-02-02,2024-01-29,咲楽ＡＧＲＩ税理士法人,,その他の設立登記法人,東京都,羽村市,羽東１丁目７番１０号東光ビル３階,,13,227,2050014,,,2024-01-29,清算の結了等,,,2015-10-05,1,,,,,サクラアグリ,0
903,4013303003532,登記記録の閉鎖等,0,2024-02-02,2024-01-22,合同会社イモチャン,,合同会社,東京都,豊島区,南池袋１丁目２０番１１号,,13,116,1710022,,,2024-01-22,清算の結了等,,,2017-01-11,1,,,,,イモチャン,0
915,4020002012822,登記記録の閉鎖等,0,2024-02-02,2024-01-30,有限会社マイケル,,有限会社,神奈川県,横浜市戸塚区,戸塚町３９８１番地７,,14,110,2440003,,,2024-01-30,清算の結了等,,,2015-10-05,1,,,,,マイケル,0
917,4021001001964,登記記録の閉鎖等,0,2024-02-02,2024-01-31,株式会社フレンドオートサービス,,株式会社,神奈川県,藤沢市,用田１５４１番地１,,14,205,2520821,,,2024-01-31,清算の結了等,,,2015-10-05,1,,,,,フレンドオートサービス,0
919,4021002017836,登記記録の閉鎖等,0,2024-02-02,2024-01-31,有限会社石崎メディカル,,有限会社,神奈川県,相模原市緑区,西橋本４丁目１０番８号,,14,151,2520131,,,2024-01-31,清算の結了等,,,2015-10-05,1,,,,,イシザキメディカル,0
920,4021002029468,登記記録の閉鎖等,0,2024-02-02,2024-01-31,有限会社うちむら,,有限会社,神奈川県,相模原市緑区,小倉１０１０番地１,,14,151,2520115,,,2024-01-31,清算の結了等,,,2015-10-05,1,,,,,ウチムラ,0
926,4030001138378,登記記録の閉鎖等,0,2024-02-02,2024-01-29,株式会社大志建設,,株式会社,埼玉県,さいたま市大宮区,大成町１丁目４７５番地,,11,103,3300852,,,2024-01-29,清算の結了等,,,2020-09-25,1,,,,,タイシケンセツ,0
935,4040001025286,登記記録の閉鎖等,0,2024-02-02,2024-01-26,株式会社平穏社,,株式会社,千葉県,千葉市中央区,長洲１丁目３３番１１－１０１号,,12,101,2600854,,,2024-01-26,清算の結了等,,,2015-10-05,1,,,,,ヘイオンシャ,0
945,4040002055068,登記記録の閉鎖等,0,2024-02-02,2024-01-25,有限会社ケーエム,,有限会社,千葉県,成田市,飯田町１番地の７０,,12,211,2860041,,,2024-01-25,清算の結了等,,,2015-10-05,1,,,,,ケーエム,0
969,4080402021046,登記記録の閉鎖等,0,2024-02-02,2024-01-31,有限会社まちの不動産,,有限会社,静岡県,磐田市,見付３２６番地の７,,22,211,4380086,,,2024-01-31,清算の結了等,,,2015-10-05,1,,,,,マチノフドウサン,0
1006,4140005022047,登記記録の閉鎖等,0,2024-02-02,2024-02-01,一般社団法人神戸国際消化器内視鏡教育センター,,その他の設立登記法人,兵庫県,神戸市中央区,東川崎町１丁目３－３,,28,110,6500044,,,2024-02-01,清算の結了等,,,2015-10-05,1,,,,,コウベコクサイショウカキナイシキョウキョウイクセンター,0
1007,4160001012363,登記記録の閉鎖等,0,2024-02-02,2024-01-22,株式会社フォルテ,,株式会社,滋賀県,高島市,今津町今津２２５,,25,212,5201621,,,2024-01-22,清算の結了等,,,2015-10-05,1,,,,,フォルテ,0
1009,4180001058660,登記記録の閉鎖等,0,2024-02-02,2024-01-31,株式会社タナカ,,株式会社,愛知県,清須市,西堀江２２１５番地,,23,233,4520917,,,2024-01-31,清算の結了等,,,2015-10-05,1,,,,,タナカ,0
1020,4180002006536,登記記録の閉鎖等,0,2024-02-02,2024-01-31,大幸機械工業有限会社,,有限会社,愛知県,名古屋市港区,本宮町５丁目１番地,,23,111,4550064,,,2024-01-31,清算の結了等,,,2015-10-05,1,,,,,ダイコウキカイコウギョウ,0
1029,4180305008626,登記記録の閉鎖等,0,2024-02-02,2024-01-30,特定非営利活動法人竜美会,,その他の設立登記法人,愛知県,みよし市,三好町小坂２０番地１,,23,236,4700224,,,2024-01-30,清算の結了等,,,2017-03-21,1,,,,,タツミカイ,0
1043,4240001045157,登記記録の閉鎖等,0,2024-02-02,2024-01-30,株式会社トラットリア,,株式会社,広島県,広島市中区,幟町８番１９－１号,,34,101,7300016,,,2024-01-30,清算の結了等,,,2015-10-05,1,,,,,トラットリア,0
1046,4240002023954,登記記録の閉鎖等,0,2024-02-02,2024-01-30,有限会社エクソン,,有限会社,広島県,広島市西区,己斐本町１丁目１番２号,,34,104,7330812,,,2024-01-30,清算の結了等,,,2015-10-05,1,,,,,エクソン,0
1047,4240002047862,登記記録の閉鎖等,0,2024-02-02,2024-01-31,有限会社大津,,有限会社,広島県,安芸郡府中町,茂陰１丁目６番２０号,,34,302,7350029,,,2024-01-31,清算の結了等,,,2015-10-05,1,,,,,オオツ,0
1067,4290801003417,登記記録の閉鎖等,0,2024-02-02,2024-02-01,株式会社北設,,株式会社,福岡県,北九州市小倉南区,長行西４丁目１１番１２号,,40,107,8030272,,,2024-02-01,清算の結了等,,,2015-10-05,1,,,,,ホクセツ,0
1072,4310002008956,登記記録の閉鎖等,0,2024-02-02,2024-01-31,有限会社風月堂,,有限会社,長崎県,佐世保市,白南風町１番１６号,,42,202,8570862,,,2024-01-31,清算の結了等,,,2015-10-05,1,,,,,フウゲツドウ,0
1079,4340002017533,登記記録の閉鎖等,0,2024-02-02,2024-01-31,有限会社川口商会,,有限会社,鹿児島県,薩摩川内市,中郷４丁目２２４番地,,46,215,8950072,,,2024-01-31,清算の結了等,,,2015-10-05,1,,,,,カワグチショウカイ,0
1095,4390002005756,登記記録の閉鎖等,0,2024-02-02,2024-01-31,有限会社ジェイジェイコーポレーション,,有限会社,山形県,天童市,東長岡３丁目２番３３号,,06,210,9940063,,,2024-01-31,清算の結了等,,,2015-10-05,1,,,,,ジェイジェイコーポレーション,0
1102,4440005002729,登記記録の閉鎖等,0,2024-02-02,2024-01-25,一般社団法人ことば道場,,その他の設立登記法人,北海道,茅部郡森町,字森川町２７８番地５４,,01,345,0492313,,,2024-01-25,清算の結了等,,,2022-08-09,1,,,,,コトバドウジョウ,0
1105,4470001008875,登記記録の閉鎖等,0,2024-02-02,2024-01-25,株式会社大安屋,,株式会社,香川県,坂出市,富士見町２丁目４番９号,,37,203,7620046,,,2024-01-25,清算の結了等,,,2015-10-05,1,,,,,オオヤスヤ,0
1109,4500002011593,登記記録の閉鎖等,0,2024-02-02,2024-02-01,有限会社大洲メディカル・サービス,,有限会社,愛媛県,大洲市,新谷町甲１６番地,,38,207,7950073,,,2024-02-01,清算の結了等,,,2015-10-05,1,,,,,オオズメディカルサービス,0
1119,5010401018577,登記記録の閉鎖等,0,2024-02-02,2024-01-30,株式会社テクト・インターナショナル,,株式会社,東京都,千代田区,神田和泉町１番７－１７ＫＥＮタカオビル,,13,101,1010024,,,2024-01-30,清算の結了等,,,2015-10-05,1,,,,,テクトインターナショナル,0
1146,5010701026239,登記記録の閉鎖等,0,2024-02-02,2024-01-30,株式会社ハウス・ラトナー,,株式会社,東京都,品川区,東五反田１丁目１０番１０号,,13,109,1410022,,,2024-01-30,合併による解散等,1010701025962,令和６年１月３０日東京都品川区東五反田一丁目１０番１０号株式会社ラトナー（1010701025962）に合併し解散,2015-10-05,1,,,,,ハウスラトナー,0
1156,5011001070506,登記記録の閉鎖等,0,2024-02-02,2024-01-29,株式会社レクシーズ,,株式会社,東京都,港区,麻布十番１丁目１１番１０号,,13,103,1060045,,,2024-01-29,清算の結了等,,,2015-10-05,1,,,,,レクシーズ,0
1177,5011701013268,登記記録の閉鎖等,0,2024-02-02,2024-01-31,株式会社ＵＬＴＩＭＡＴＥ,,株式会社,東京都,足立区,西保木間４丁目１２－１竹の塚スカイタウン１００３,00125450,13,121,1210812,,,2024-01-31,清算の結了等,,,2015-10-05,1,,,,,アルティメット,0
1188,5020001042010,登記記録の閉鎖等,0,2024-02-02,2024-01-30,株式会社ライフデザインラボラトリーズ,,株式会社,神奈川県,横浜市青葉区,美しが丘５丁目３４番地２レ・ジェイド美しが丘５０９,,14,117,2250002,,,2024-01-30,清算の結了等,,,2015-10-05,1,,,,,ライフデザインラボラトリーズ,0
1210,5030001123858,登記記録の閉鎖等,0,2024-02-02,2024-01-29,マキシ設計株式会社,,株式会社,埼玉県,川口市,北原台２丁目２４番４号,,11,203,3330815,,,2024-01-29,清算の結了等,,,2018-01-16,1,,,,,マキシセッケイ,0
1218,5030002092144,登記記録の閉鎖等,0,2024-02-02,2024-01-29,有限会社宇田川管工,,有限会社,埼玉県,坂戸市,元町１８番７号,,11,239,3500228,,,2024-01-29,清算の結了等,,,2015-10-05,1,,,,,ウダガワカンコウ,0
1227,5050001037536,登記記録の閉鎖等,0,2024-02-02,2024-02-01,株式会社涸沼ハーブの里,,株式会社,茨城県,東茨城郡茨城町,大字下石崎２３５５番地,,08,302,3113125,,,2024-02-01,清算の結了等,,,2015-10-05,1,,,,,ヒヌマハーブノサト,0
1238,5060002034853,登記記録の閉鎖等,0,2024-02-02,2024-01-31,有限会社臼井総合建築,,有限会社,栃木県,栃木市,千塚町７１５番地１,,09,203,3280135,,,2024-01-31,清算の結了等,,,2015-10-05,1,,,,,ウスイソウゴウケンチク,0
1241,5070002019705,登記記録の閉鎖等,0,2024-02-02,2024-01-31,有限会社ヘアーサロンあきら,,有限会社,群馬県,伊勢崎市,連取町２３６５番地１,,10,204,3720812,,,2024-01-31,清算の結了等,,,2015-10-05,1,,,,,ヘアーサロンアキラ,0
1256,5120001172904,登記記録の閉鎖等,0,2024-02-02,2024-02-01,株式会社卍,,株式会社,大阪府,大阪狭山市,池尻中３丁目２２番１４号,,27,231,5890007,,,2024-02-01,清算の結了等,,,2015-10-05,1,,,,,マンジ,0
1257,5120001195120,登記記録の閉鎖等,0,2024-02-02,2024-01-29,株式会社こう月,,株式会社,大阪府,大阪市東成区,深江南２丁目２０番１１－７０６号,,27,115,5370002,,,2024-01-29,清算の結了等,,,2015-12-17,1,,,,,コウヅキ,0
1267,5120002028849,登記記録の閉鎖等,0,2024-02-02,2024-01-31,有限会社ワールドレンタル,,有限会社,大阪府,大阪市西区,西本町１丁目５番３号扶桑ビル,,27,106,5500005,,,2024-01-31,清算の結了等,,,2015-10-05,1,,,,,ワールドレンタル,0
1270,5120102005855,登記記録の閉鎖等,0,2024-02-02,2024-02-01,有限会社堺ベル商,,有限会社,大阪府,池田市,空港１丁目５番２１号,,27,204,5630034,,,2024-02-01,清算の結了等,,,2015-10-05,1,,,,,サカイベルショウ,0
1275,5122001022898,登記記録の閉鎖等,0,2024-02-02,2024-02-01,株式会社北野,,株式会社,大阪府,八尾市,亀井町４丁目３番１５号,,27,212,5810065,,,2024-02-01,清算の結了等,,,2015-10-05,1,,,,,キタノ,0
1278,5130001069661,登記記録の閉鎖等,0,2024-02-02,2024-01-29,株式会社ケイシン製菓,,株式会社,京都府,京都市山科区,小山中ノ川町５５番地１４,,26,110,6078112,,,2024-01-29,清算の結了等,,,2021-07-12,1,,,,,ケイシンセイカ,0
1283,5140001077663,登記記録の閉鎖等,0,2024-02-02,2024-01-30,株式会社ゆるる,,株式会社,兵庫県,神戸市中央区,中山手通２丁目２４番１－５１３号,,28,110,6500004,,,2024-01-30,清算の結了等,,,2015-10-05,1,,,,,ユルル,0
1285,5150002003147,登記記録の閉鎖等,0,2024-02-02,2024-01-31,有限会社クリーンＩ,,有限会社,奈良県,奈良市,三条大路２丁目１番７６－４０７号,,29,201,6308013,,,2024-01-31,清算の結了等,,,2015-10-05,1,,,,,クリーンアイ,0
1287,5180001001132,登記記録の閉鎖等,0,2024-02-02,2024-01-29,富士宣広株式会社,,株式会社,愛知県,名古屋市守山区,中新１０番８号シャンポール小幡４Ｂ号,,23,113,4630057,,,2024-01-29,清算の結了等,,,2015-10-05,1,,,,,フジセンコウ,0
1292,5180001064550,登記記録の閉鎖等,0,2024-02-02,2024-01-31,株式会社ジョイメディクス,,株式会社,愛知県,名古屋市中村区,名駅南２丁目１０番２２号,,23,105,4500003,,,2024-01-31,合併による解散等,6180001052868,令和６年１月３１日名古屋市中村区名駅南二丁目１０番２２号株式会社ジョイハンズ（6180001052868）に合併し解散,2015-10-05,1,,,,,ジョイメディクス,0
1293,5180001090712,登記記録の閉鎖等,0,2024-02-02,2024-01-30,株式会社ホットライフ,,株式会社,愛知県,名古屋市中村区,日比津町１丁目１７番３０号,,23,105,4530061,,,2024-01-30,清算の結了等,,,2015-10-05,1,,,,,ホットライフ,0
1302,5180002039007,登記記録の閉鎖等,0,2024-02-02,2024-01-31,有限会社トラスト,,有限会社,愛知県,名古屋市守山区,西城２丁目１６番６号,,23,113,4630084,,,2024-01-31,清算の結了等,,,2015-10-05,1,,,,,トラスト,0
1324,5240001023392,登記記録の閉鎖等,0,2024-02-02,2024-01-29,福田設備株式会社,,株式会社,広島県,東広島市,八本松西２丁目２４番４号,,34,212,7390147,,,2024-01-29,清算の結了等,,,2015-10-05,1,,,,,フクダセツビ,0
1326,5240005012945,登記記録の閉鎖等,0,2024-02-02,2024-01-24,医療法人大島内科循環器内科,,その他の設立登記法人,広島県,広島市西区,己斐本町１丁目１６番１１号,,34,104,7330812,,,2024-01-24,清算の結了等,,,2015-10-05,1,,,,,オオシマナイカジュンカンキナイカ,0
1330,5250001014977,登記記録の閉鎖等,0,2024-02-02,2024-01-30,株式会社総合保険サービスＭ,,株式会社,山口県,防府市,大字高井８８３番地の５,,35,206,7470064,,,2024-01-30,清算の結了等,,,2015-10-05,1,,,,,ソウゴウホケンサービスエム,0
1332,5260002019256,登記記録の閉鎖等,0,2024-02-02,2024-02-01,第一ホスピタルサービス有限会社,,有限会社,岡山県,倉敷市,玉島１３３４番地の１,,33,202,7138102,,,2024-02-01,合併による解散等,2260002020349,令和６年２月１日岡山県倉敷市玉島１３３４番地の１株式会社Ｆｍａ（2260002020349）に合併し解散,2015-10-05,1,,,,,ダイイチホスピタルサービス,0
1341,5290001102563,登記記録の閉鎖等,0,2024-02-02,2024-01-31,株式会社ＴＨＲＥＥ　Ｌ,,株式会社,福岡県,福岡市城南区,神松寺２丁目１３番３３－２０３号,,40,136,8140121,,,2024-01-31,清算の結了等,,,2023-08-09,1,,,,,スリーエル,0
1344,5290003008965,登記記録の閉鎖等,0,2024-02-02,2024-01-30,ｘｕｅカフェジャパン合同会社,,合同会社,福岡県,福岡市城南区,樋井川５丁目５番１５号,,40,136,8140153,,,2024-01-30,清算の結了等,,,2019-04-19,1,,,,,シューカフェジャパン,0
1356,5340002002559,登記記録の閉鎖等,0,2024-02-02,2024-01-31,有限会社カナン電工,,有限会社,鹿児島県,鹿児島市,本名町２２６３－４,,46,201,8911304,,,2024-01-31,清算の結了等,,,2015-10-05,1,,,,,カナンデンコウ,0
1362,5350002000058,登記記録の閉鎖等,0,2024-02-02,2024-01-26,株式会社アイアン,,株式会社,宮崎県,宮崎市,大塚町竹下５３２番地１２,,45,201,8800951,,,2024-01-26,清算の結了等,,,2015-10-05,1,,,,,アイアン,0
1363,5350002004513,登記記録の閉鎖等,0,2024-02-02,2024-01-26,有限会社美鷹商事,,有限会社,宮崎県,宮崎市,清水１丁目２番６号,,45,201,8800021,,,2024-01-26,清算の結了等,,,2015-10-05,1,,,,,ミタカショウジ,0
1370,5380001029161,登記記録の閉鎖等,0,2024-02-02,2024-01-31,株式会社エムケー技研,,株式会社,福島県,田村市,滝根町菅谷字下城８,,07,211,9633601,,,2024-01-31,清算の結了等,,,2018-05-31,1,,,,,エムケーギケン,0
1371,5380002028261,登記記録の閉鎖等,0,2024-02-02,2024-01-30,有限会社菊地薬局,,有限会社,福島県,相馬市,中村字田町１４番地,,07,209,9760042,,,2024-01-30,清算の結了等,,,2015-10-05,1,,,,,キクチヤッキョク,0
1373,5390001005962,登記記録の閉鎖等,0,2024-02-02,2024-02-01,株式会社ＮＡＰ,,株式会社,山形県,山形市,十日町４丁目３番２６－４０８号ヴェルビュ十日町通り,,06,201,9900031,,,2024-02-01,清算の結了等,,,2015-10-05,1,,,,,エヌエーピー,0
1400,6010005004816,登記記録の閉鎖等,0,2024-02-02,2024-01-30,医療法人社団麗会,,その他の設立登記法人,東京都,中央区,日本橋人形町１丁目６番９号大内ビル２階,,13,102,1030013,,,2024-01-30,清算の結了等,,,2015-10-05,1,,,,,ウララカイ,0
1433,6011105003303,登記記録の閉鎖等,0,2024-02-02,2024-02-01,特定非営利活動法人教育テスト研究センター,,その他の設立登記法人,東京都,新宿区,西新宿２丁目１番１号新宿三井ビルディング,,13,104,1600023,,,2024-02-01,清算の結了等,,,2015-10-05,1,,,,,キョウイクテストケンキュウセンター,0
1467,6020003020252,登記記録の閉鎖等,0,2024-02-02,2024-01-31,合同会社プラス,,合同会社,神奈川県,川崎市川崎区,東田町３番地２４コスモビル２階,,14,131,2100005,,,2024-01-31,清算の結了等,,,2021-07-29,1,,,,,プラス,0
1487,6030002108270,登記記録の閉鎖等,0,2024-02-02,2024-01-30,有限会社米正,,有限会社,埼玉県,川口市,大字赤井６２５番地の１２,,11,203,3340073,,,2024-01-30,清算の結了等,,,2015-10-05,1,,,,,ヨネショウ,0
1502,6040002030507,登記記録の閉鎖等,0,2024-02-02,2024-01-25,有限会社ユニコム,,有限会社,千葉県,八千代市,八千代台北１７丁目１６番１３号,,12,221,2760031,,,2024-01-25,清算の結了等,,,2015-10-05,1,,,,,ユニコム,0
1508,6070001001159,登記記録の閉鎖等,0,2024-02-02,2024-02-01,株式会社建築工房バウ,,株式会社,群馬県,前橋市,青柳町４７４番地４,,10,201,3710056,,,2024-02-01,清算の結了等,,,2015-10-05,1,,,,,ケンチクコウボウバウ,0
1512,6080101001859,登記記録の閉鎖等,0,2024-02-02,2024-02-01,水野住宅設備株式会社,,株式会社,静岡県,沼津市,上香貫鉛山２４４５番地の３２,,22,203,4100813,,,2024-02-01,清算の結了等,,,2015-10-05,1,,,,,ミズノジュウタクセツビ,0
1518,6080403004527,登記記録の閉鎖等,0,2024-02-02,2024-01-30,合同会社ＬＩＢＥＲＴＡＳ,,合同会社,静岡県,浜松市浜名区,都田町８１２８番地の４８,,22,139,4312102,,,2024-01-30,清算の結了等,,,2022-04-26,1,,,,,リーベタス,0
1529,6120001032066,登記記録の閉鎖等,0,2024-02-02,2024-01-31,株式会社アドバンス,,株式会社,大阪府,大阪市住吉区,帝塚山西４丁目１５番２号,,27,120,5580052,,,2024-01-31,清算の結了等,,,2015-10-05,1,,,,,アドバンス,0
1533,6120001181276,登記記録の閉鎖等,0,2024-02-02,2024-02-01,株式会社ガレーラカンパニーリミテッド,,株式会社,福井県,福井市,板垣５丁目１０１３番地,,18,201,9188104,,,2024-02-01,清算の結了等,,,2015-10-05,1,,,,,ガレーラカンパニーリミテッド,0
1555,6130002023955,登記記録の閉鎖等,0,2024-02-02,2024-01-31,有限会社マエダ,,有限会社,京都府,京都市東山区,本町１５丁目７８５番地５,,26,105,6050981,,,2024-01-31,清算の結了等,,,2015-10-05,1,,,,,マエダ,0
1556,6130005009332,登記記録の閉鎖等,0,2024-02-02,2024-01-29,ＮＰＯ法人山城スカイセンター,,その他の設立登記法人,京都府,城陽市,市辺南垣内２番地の４４,,26,207,6100114,,,2024-01-29,清算の結了等,,,2015-10-05,1,,,,,ヤマシロスカイセンター,0
1580,6180001123520,登記記録の閉鎖等,0,2024-02-02,2024-01-29,スイートイン株式会社,,株式会社,愛知県,名古屋市中川区,柳川町１８番４号ダイコンビル２０１号,,23,110,4540014,,,2024-01-29,合併による解散等,3180002018433,令和６年１月２８日名古屋市中川区柳川町１５番１２号株式会社ダイコン（3180002018433）に合併し解散,2016-05-31,1,,,,,スイートイン,0
1582,6180002001923,登記記録の閉鎖等,0,2024-02-02,2024-01-29,有限会社入江商会,,有限会社,愛知県,名古屋市名東区,新宿１丁目１９４番地の２,,23,115,4650063,,,2024-01-29,清算の結了等,,,2015-10-05,1,,,,,イリエショウカイ,0
1584,6180002037843,登記記録の閉鎖等,0,2024-02-02,2024-01-31,有限会社リスターメディカル,,有限会社,愛知県,名古屋市中川区,松葉町４丁目５６番地の１,,23,110,4540818,,,2024-01-31,清算の結了等,,,2015-10-05,1,,,,,リスターメディカル,0
1599,6240001017328,登記記録の閉鎖等,0,2024-02-02,2024-01-23,株式会社建築フレーム企画,,株式会社,広島県,広島市安佐南区,相田３丁目１６番９号,,34,105,7310141,,,2024-01-23,清算の結了等,,,2015-10-05,1,,,,,,0
1602,6250002010446,登記記録の閉鎖等,0,2024-02-02,2024-01-31,有限会社長谷川電機,,有限会社,山口県,下関市,熊野町２丁目１３番６号,,35,201,7510852,,,2024-01-31,清算の結了等,,,2015-10-05,1,,,,,ハセガワデンキ,0
1603,6260001021492,登記記録の閉鎖等,0,2024-02-02,2024-01-31,エス・トロック・アソシェーツ株式会社,,株式会社,岡山県,備前市,伊部片口２０３７番地,,33,211,7050001,,,2024-01-31,清算の結了等,,,2015-10-05,1,,,,,エストロックアソシェーツ,0
1610,6280002010971,登記記録の閉鎖等,0,2024-02-02,2024-02-01,有限会社日栄工業,,有限会社,島根県,隠岐郡隠岐の島町,岬町岬１８５３番地３８,,32,528,6850021,,,2024-02-01,清算の結了等,,,2015-10-05,1,,,,,ニチエイコウギョウ,0
1611,6290001000865,登記記録の閉鎖等,0,2024-02-02,2024-01-31,株式会社エイブル企画,,株式会社,福岡県,福岡市南区,野間１丁目５番２０号,,40,134,8150041,,,2024-01-31,清算の結了等,,,2015-10-05,1,,,,,,0
1623,6300005005834,登記記録の閉鎖等,0,2024-02-02,2024-02-01,特定非営利活動法人ひかり,,その他の設立登記法人,佐賀県,三養基郡みやき町,大字江口１４８８番地,,41,346,8490112,,,2024-02-01,清算の結了等,,,2015-10-05,1,,,,,ヒカリ,0
1631,6320002015470,登記記録の閉鎖等,0,2024-02-02,2024-01-31,有限会社三重野燃料,,有限会社,大分県,杵築市,大字猪尾７７９番地の４,,44,210,8730005,,,2024-01-31,清算の結了等,,,2015-10-05,1,,,,,,0
1645,6390002014879,登記記録の閉鎖等,0,2024-02-02,2024-01-31,有限会社ケイテック,,有限会社,山形県,長井市,横町１６番４４－１号,,06,209,9930087,,,2024-01-31,清算の結了等,,,2015-10-05,1,,,,,ケイテック,0
1654,6460301001042,登記記録の閉鎖等,0,2024-02-02,2024-02-01,丸高土建株式会社,,株式会社,北海道,北見市,柏木４番地２３,,01,208,0990877,,,2024-02-01,清算の結了等,,,2015-10-05,1,,,,,マルタカドケン,0
1658,6470003000622,登記記録の閉鎖等,0,2024-02-02,2024-01-31,合同会社四恩ファーム,,合同会社,香川県,高松市,中山町１５０１番地１５７,,37,201,7618004,,,2024-01-31,清算の結了等,,,2015-10-05,1,,,,,シオンファーム,0
1659,6480001002363,登記記録の閉鎖等,0,2024-02-02,2024-01-31,株式会社矢野工務店,,株式会社,徳島県,徳島市,応神町古川字東１９０番地,,36,201,7711151,,,2024-01-31,清算の結了等,,,2015-10-05,1,,,,,ヤノコウムテン,0
1662,6500002021905,登記記録の閉鎖等,0,2024-02-02,2024-01-31,有限会社南石材商,,有限会社,愛媛県,四国中央市,金田町金川３２２番地の４,,38,213,7990123,,,2024-01-31,清算の結了等,,,2015-10-05,1,,,,,ミナミセキザイショウ,0
1668,7010001204253,登記記録の閉鎖等,0,2024-02-02,2024-01-29,ミャンマー医療事業準備株式会社,,株式会社,群馬県,伊勢崎市,波志江町１１５２番地,,10,204,3720001,,,2024-01-29,清算の結了等,,,2019-09-30,1,,,,,ミャンマーイリョウジギョウジュンビ,0
1682,7010401155765,登記記録の閉鎖等,0,2024-02-02,2024-01-29,オリエンス株式会社,,株式会社,東京都,港区,赤坂３丁目１５番４号赤坂バリ島ビル３Ｆ,,13,103,1070052,,,2024-01-29,清算の結了等,,,2020-10-13,1,,,,,オリエンス,0
1687,7010401175714,登記記録の閉鎖等,0,2024-02-02,2024-01-24,株式会社アルマダカンパニー,,株式会社,東京都,港区,南青山２丁目２３番８号,,13,103,1070062,,,2024-01-24,合併による解散等,7010401171647,令和６年１月１５日東京都港区南青山二丁目２３番８号株式会社アルマダグループ（7010401171647）に合併し解散,2023-07-27,1,,,,,アルマダカンパニー,0
1699,7010501009623,登記記録の閉鎖等,0,2024-02-02,2024-01-30,株式会社中山眼鏡,,株式会社,東京都,台東区,台東４丁目１９番８号,,13,106,1100016,,,2024-01-30,清算の結了等,,,2015-10-05,1,,,,,ナカヤマガンキョウ,0
1704,7010603005826,登記記録の閉鎖等,0,2024-02-02,2024-01-29,株式会社スリーアイズ,,株式会社,東京都,中央区,日本橋室町１丁目１１番１２号日本橋水野ビル７階,,13,102,1030022,,,2024-01-29,清算の結了等,,,2015-10-05,1,,,,,スリーアイズ,0
1747,7020003023262,登記記録の閉鎖等,0,2024-02-02,2024-01-30,Ｇｌｏｂａｌ　ｃｉｔｉｚｅｎ合同会社,,合同会社,神奈川県,横浜市港北区,下田町３丁目１５番６－４号,,14,109,2230064,,,2024-01-30,清算の結了等,,,2023-02-08,1,,,,,グローバルシチズン,0
1760,7040001053292,登記記録の閉鎖等,0,2024-02-02,2024-01-30,株式会社プロスパー,,株式会社,東京都,中央区,日本橋本石町３丁目１番２号,,13,102,1030021,,,2024-01-30,清算の結了等,,,2015-10-05,1,,,,,プロスパー,0
1772,7040003017873,登記記録の閉鎖等,0,2024-02-02,2024-01-25,合同会社育児支援サービス,,合同会社,千葉県,松戸市,東松戸３丁目２番地の１－９１３,,12,207,2702225,,,2024-01-25,清算の結了等,,,2021-06-04,1,,,,,イクジシエンサービス,0
1777,7060002039025,登記記録の閉鎖等,0,2024-02-02,2024-01-30,有限会社佐野スプリング製作所,,有限会社,栃木県,佐野市,高橋町１７０６番地,,09,204,3270045,,,2024-01-30,清算の結了等,,,2015-10-05,1,,,,,サノスプリングセイサクジョ,0
1779,7070001034570,登記記録の閉鎖等,0,2024-02-02,2024-02-01,株式会社ＳＹＮＣ,,株式会社,群馬県,前橋市,堀越町１３６２番地１,,10,201,3710231,,,2024-02-01,清算の結了等,,,2018-04-11,1,,,,,,0
1784,7080402018130,登記記録の閉鎖等,0,2024-02-02,2024-01-31,有限会社あさや,,有限会社,静岡県,掛川市,大坂９３３番地の４,,22,213,4371421,,,2024-01-31,清算の結了等,,,2015-10-05,1,,,,,アサヤ,0
1787,7090001012450,登記記録の閉鎖等,0,2024-02-02,2024-02-01,株式会社周英,,株式会社,山梨県,西八代郡市川三郷町,上野２６７０番地５,,19,346,4093612,,,2024-02-01,清算の結了等,,,2015-10-05,1,,,,,シュウエイ,0
1804,7120901023394,登記記録の閉鎖等,0,2024-02-02,2024-01-31,株式会社北大阪建機,,株式会社,大阪府,豊中市,小曽根３丁目１８番７号,,27,203,5610813,,,2024-01-31,清算の結了等,,,2015-10-05,1,,,,,キタオオサカケンキ,0
1805,7120901033220,登記記録の閉鎖等,0,2024-02-02,2024-02-01,株式会社Ｖ＆Ｖ,,株式会社,大阪府,茨木市,駅前４丁目６番１１－１４０３号,,27,211,5670888,,,2024-02-01,清算の結了等,,,2015-10-05,1,,,,,,0
1817,7140002070038,登記記録の閉鎖等,0,2024-02-02,2024-01-31,有限会社Ｉ．Ｕ　Ｉｎｖｅｓｔｍｅｎｔｓ,,有限会社,兵庫県,南あわじ市,福良乙２８０番地,,28,224,6560502,,,2024-01-31,清算の結了等,,,2015-10-05,1,,,,,アイユーインベストメンツ,0
1833,7180002033800,登記記録の閉鎖等,0,2024-02-02,2024-01-31,有限会社堀田商事,,有限会社,愛知県,名古屋市熱田区,青池町３丁目５８番地,,23,109,4560075,,,2024-01-31,清算の結了等,,,2015-10-05,1,,,,,ホッタショウジ,0
1840,7180302007520,登記記録の閉鎖等,0,2024-02-02,2024-01-17,有限会社サクセス,,有限会社,愛知県,豊橋市,弥生町字松原６１番地の１,,23,201,4418106,,,2024-01-17,清算の結了等,,,2015-10-05,1,,,,,サクセス,0
1843,7190001000577,登記記録の閉鎖等,0,2024-02-02,2024-01-29,タイラオフィスサプライズ株式会社,,株式会社,三重県,津市,西丸之内２４番１９号,,24,201,5140035,,,2024-01-29,清算の結了等,,,2015-10-05,1,,,,,タイラオフィスサプライズ,0
1847,7200001016217,登記記録の閉鎖等,0,2024-02-02,2024-01-31,株式会社小林産業,,株式会社,岐阜県,揖斐郡池田町,片山１５６７番地,,21,404,5032428,,,2024-01-31,清算の結了等,,,2015-10-05,1,,,,,コバヤシサンギョウ,0
1849,7200002002694,登記記録の閉鎖等,0,2024-02-02,2024-01-30,大三電設有限会社,,有限会社,岐阜県,岐阜市,小西郷１丁目１４８番地３,,21,201,5011176,,,2024-01-30,清算の結了等,,,2015-10-05,1,,,,,ダイサンデンセツ,0
1863,7280002010905,登記記録の閉鎖等,0,2024-02-02,2024-02-01,有限会社ケアサービス隠岐,,有限会社,島根県,隠岐郡隠岐の島町,城北町５１番地,,32,528,6850016,,,2024-02-01,清算の結了等,,,2015-10-05,1,,,,,ケアサービスオキ,0
1865,7290001000781,登記記録の閉鎖等,0,2024-02-02,2024-01-26,株式会社あらまき,,株式会社,福岡県,福岡市南区,老司２丁目２８番２１号,,40,134,8111346,,,2024-01-26,清算の結了等,,,2015-10-05,1,,,,,アラマキ,0
1869,7290001052179,登記記録の閉鎖等,0,2024-02-02,2024-01-31,タケダ販売株式会社,,株式会社,福岡県,宗像市,池田１７４０番地,,40,220,8113515,,,2024-01-31,清算の結了等,,,2015-10-05,1,,,,,タケダハンバイ,0
1883,7310002015603,登記記録の閉鎖等,0,2024-02-02,2024-01-31,有限会社松幸産業,,有限会社,長崎県,諫早市,八天町２２番１４号,,42,204,8540011,,,2024-01-31,清算の結了等,,,2015-10-05,1,,,,,マツコウサンギョウ,0
1895,7340002004652,登記記録の閉鎖等,0,2024-02-02,2024-02-01,有限会社ジェム光司,,有限会社,鹿児島県,鹿児島市,堀江町８－１９,,46,201,8920824,,,2024-02-01,清算の結了等,,,2015-10-05,1,,,,,,0
1896,7350001000544,登記記録の閉鎖等,0,2024-02-02,2024-01-25,ケイティー・ユニバーサル株式会社,,株式会社,宮崎県,宮崎市,花山手東３丁目１８番地１,,45,201,8800930,,,2024-01-25,清算の結了等,,,2015-10-05,1,,,,,ケイティーユニバーサル,0
1901,7360002021720,登記記録の閉鎖等,0,2024-02-02,2024-01-30,有限会社コロンブス,,有限会社,沖縄県,石垣市,字桴海３３７番地２６１,,47,207,9070451,,,2024-01-30,清算の結了等,,,2015-10-05,1,,,,,コロンブス,0
1923,8010001204426,登記記録の閉鎖等,0,2024-02-02,2024-01-29,株式会社ベイクアケイク,,株式会社,東京都,中央区,銀座１丁目１５番４号銀座一丁目ビル７Ｆｆａｂｂｉｔ銀座,,13,102,1040061,,,2024-01-29,清算の結了等,,,2019-10-25,1,,,,,ベイクアケイク,0
1926,8010002023544,登記記録の閉鎖等,0,2024-02-02,2024-01-29,有限会社ケイワイビー,,有限会社,東京都,中央区,湊３丁目１８番１６号,,13,102,1040043,,,2024-01-29,清算の結了等,,,2015-10-05,1,,,,,ケイワイビー,0
1947,8010405015023,登記記録の閉鎖等,0,2024-02-02,2024-01-25,日本再生可能エネルギーインフラ投資法人,,その他の設立登記法人,東京都,港区,虎ノ門１丁目２番８号,,13,103,1050001,,,2024-01-25,清算の結了等,,,2016-08-05,1,,,,,ニホンサイセイカノウエネルギーインフラ,0
1961,8010902021341,登記記録の閉鎖等,0,2024-02-02,2024-01-29,有限会社文殊工学医学研究所,,有限会社,東京都,世田谷区,下馬３丁目２０番１０号,,13,112,1540002,,,2024-01-29,清算の結了等,,,2015-10-05,1,,,,,,0
1971,8011101071450,登記記録の閉鎖等,0,2024-02-02,2024-01-31,株式会社ＢＲＹＣＥ,,株式会社,東京都,新宿区,西新宿３丁目３番１３号,,13,104,1600023,,,2024-01-31,清算の結了等,,,2015-10-05,1,,,,,ブライス,0
1978,8011303004290,登記記録の閉鎖等,0,2024-02-02,2024-01-26,合同会社ＩＴＯ　ＦｉｎＴｅｃｈ,,合同会社,東京都,杉並区,天沼３丁目２５番１１号,,13,115,1670032,,,2024-01-26,清算の結了等,,,2022-01-27,1,,,,,アイティーオーファンティック,0
1990,8011802004196,登記記録の閉鎖等,0,2024-02-02,2024-02-01,有限会社鈴弥,,有限会社,東京都,葛飾区,奥戸６丁目２１番２０号,,13,122,1240022,,,2024-02-01,清算の結了等,,,2015-10-05,1,,,,,スズヤ,0
1996,8012802003130,登記記録の閉鎖等,0,2024-02-02,2024-01-30,有限会社櫻井鉄工所,,有限会社,東京都,昭島市,田中町２丁目１１番１５号,,13,207,1960014,,,2024-01-30,清算の結了等,,,2015-10-05,1,,,,,サクライテッコウショ,0
1997,8012803003146,登記記録の閉鎖等,0,2024-02-02,2024-01-26,合同会社令研究所,,合同会社,東京都,国分寺市,内藤２丁目２４番地１１,,13,214,1850033,,,2024-01-26,清算の結了等,,,2023-08-09,1,,,,,レイケンキュウジョ,0
1999,8013301004289,登記記録の閉鎖等,0,2024-02-02,2024-01-31,株式会社コミヤビリーフ,,株式会社,東京都,豊島区,上池袋２丁目４４番６号,,13,116,1700012,,,2024-01-31,清算の結了等,,,2015-10-05,1,,,,,コミヤビリーフ,0
2006,8020001150727,登記記録の閉鎖等,0,2024-02-02,2024-01-31,株式会社ヨーケル,,株式会社,神奈川県,横浜市神奈川区,六角橋６丁目２９番３－２０８号,,14,102,2210802,,,2024-01-31,清算の結了等,,,2023-03-22,1,,,,,ヨーケル,0
2007,8020002019806,登記記録の閉鎖等,0,2024-02-02,2024-01-30,有限会社古木吹付工業,,有限会社,神奈川県,横浜市港南区,東芹が谷２４番８号,,14,111,2330005,,,2024-01-30,清算の結了等,,,2015-10-05,1,,,,,フルキフキツケコウギョウ,0
2025,8021002024696,登記記録の閉鎖等,0,2024-02-02,2024-01-31,有限会社宮田新聞店,,有限会社,神奈川県,相模原市緑区,相原４丁目１５番６号,,14,151,2520141,,,2024-01-31,清算の結了等,,,2015-10-05,1,,,,,ミヤタシンブンテン,0
2028,8030001028245,登記記録の閉鎖等,0,2024-02-02,2024-01-30,株式会社スウィング,,株式会社,埼玉県,所沢市,北所沢町２０１１番地２－７０４号,,11,208,3590046,,,2024-01-30,清算の結了等,,,2015-10-05,1,,,,,スウィング,0
2042,8040002067415,登記記録の閉鎖等,0,2024-02-02,2024-01-25,有限会社ナガノ産業,,有限会社,千葉県,木更津市,潮見６丁目１８番地１,,12,206,2920834,,,2024-01-25,清算の結了等,,,2015-10-05,1,,,,,,0
2043,8040002098006,登記記録の閉鎖等,0,2024-02-02,2024-01-24,有限会社佐藤鋼材,,有限会社,千葉県,野田市,関宿台町２０１６番地,,12,208,2700202,,,2024-01-24,清算の結了等,,,2015-10-05,1,,,,,サトウコウザイ,0
2055,8070001028852,登記記録の閉鎖等,0,2024-02-02,2024-02-01,株式会社ライフ・コンシェルジュサービス,,株式会社,群馬県,佐波郡玉村町,大字福島４４番地３エイトビルＡ,,10,464,3701105,,,2024-02-01,清算の結了等,,,2015-10-05,1,,,,,ライフコンシェルジュサービス,0
2095,8122001007558,登記記録の閉鎖等,0,2024-02-02,2024-01-31,株式会社山口仏壇製作所,,株式会社,大阪府,東大阪市,加納４丁目１４番３０号,,27,227,5780901,,,2024-01-31,清算の結了等,,,2015-10-05,1,,,,,ヤマグチブツダンセイサクショ,0
2098,8130001004624,登記記録の閉鎖等,0,2024-02-02,2024-01-31,株式会社京ごふくふじもと,00035171,株式会社,京都府,京都市北区,小松原北町２２番地,,26,101,6038341,,,2024-01-31,清算の結了等,,,2015-10-05,1,,,,,キョウゴフクフジモト,0
2099,8130001041741,登記記録の閉鎖等,0,2024-02-02,2024-01-31,株式会社小室製作所,,株式会社,京都府,綾部市,新庄町広６４番地,,26,203,6230363,,,2024-01-31,清算の結了等,,,2015-10-05,1,,,,,コムロセイサクショ,0
2114,8160001005082,登記記録の閉鎖等,0,2024-02-02,2024-01-31,株式会社アザレ滋賀東本舗,,株式会社,滋賀県,甲賀市,水口町八光２番３８号,,25,209,5280021,,,2024-01-31,清算の結了等,,,2015-10-05,1,,,,,アザレシガヒガシホンポ,0
2141,8190005011504,登記記録の閉鎖等,0,2024-02-02,2024-01-30,一般社団法人エール,,その他の設立登記法人,三重県,四日市市,生桑町９１９番地１ＳＯＨＯビル２Ｆ,,24,202,5120911,,,2024-01-30,清算の結了等,,,2020-11-20,1,,,,,エール,0
2144,8200002016215,登記記録の閉鎖等,0,2024-02-02,2024-01-31,有限会社別館福美旅館,,有限会社,岐阜県,美濃加茂市,太田町１７８３番地の２,,21,211,5050041,,,2024-01-31,清算の結了等,,,2015-10-05,1,,,,,ベッカンフクミリョカン,0
2173,8300001005407,登記記録の閉鎖等,0,2024-02-02,2024-02-01,薬友会株式会社,,株式会社,佐賀県,佐賀市,神野西３丁目１１番１号,,41,201,8400805,,,2024-02-01,清算の結了等,,,2015-10-05,1,,,,,ヤクユウカイ,0
2182,8350002018403,登記記録の閉鎖等,0,2024-02-02,2024-01-25,有限会社タケダエンジニアリング,,有限会社,宮崎県,小林市,野尻町東麓１３９９番地２,,45,205,8860212,,,2024-01-25,清算の結了等,,,2015-10-05,1,,,,,,0
2183,8350003002471,登記記録の閉鎖等,0,2024-02-02,2024-01-26,合同会社アクノリッジ,,合同会社,宮崎県,宮崎市,下北方町常盤元１０１５番地４,,45,201,8800035,,,2024-01-26,清算の結了等,,,2015-10-05,1,,,,,アクノリッジ,0
2196,8410001006146,登記記録の閉鎖等,0,2024-02-02,2024-01-29,株式会社本庄家具,,株式会社,秋田県,大館市,小館花字萩野台６番地４４,,05,204,0170835,,,2024-01-29,清算の結了等,,,2015-10-05,1,,,,,,0
2197,8420001010312,登記記録の閉鎖等,0,2024-02-02,2024-01-31,株式会社ササヒロ,,株式会社,青森県,弘前市,大字松木平字富永５０番地３,,02,202,0368126,,,2024-01-31,清算の結了等,,,2015-10-05,1,,,,,,0
2208,8430005001769,登記記録の閉鎖等,0,2024-02-02,2024-01-26,医療法人社団斎藤医院,,その他の設立登記法人,北海道,札幌市中央区,北二条東８丁目８６番地,,01,101,0600032,,,2024-01-26,清算の結了等,,,2015-10-05,1,,,,,サイトウイイン,0
2214,8480002007624,登記記録の閉鎖等,0,2024-02-02,2024-01-31,有限会社海江田木工,,有限会社,徳島県,小松島市,和田島町字松田新田２５６番地の９５,,36,203,7730031,,,2024-01-31,清算の結了等,,,2015-10-05,1,,,,,カイエダモッコウ,0
2219,9010001024022,登記記録の閉鎖等,0,2024-02-02,2024-01-29,株式会社東亜総合開発,,株式会社,東京都,千代田区,麹町３丁目１番８号,00060404,13,101,1020083,,,2024-01-29,清算の結了等,,,2015-10-05,1,,,,,トウアソウゴウカイハツ,0
2235,9010401161860,登記記録の閉鎖等,0,2024-02-02,2024-01-22,株式会社ライフイズオニク,,株式会社,東京都,港区,六本木３丁目４－２コープ野村六本木１－３０５号室,,13,103,1060032,,,2024-01-22,合併による解散等,8160001022318,令和６年１月２２日東京都港区六本木三丁目４－２コープ野村六本木１－３０５号室株式会社ブレイン（8160001022318）に合併し解散,2021-08-04,1,,,,,ライフイズオニク,0
2252,9010901052205,登記記録の閉鎖等,0,2024-02-02,2024-01-31,株式会社Ｗワーク,,株式会社,東京都,世田谷区,下馬１丁目１番７－３０３号,,13,112,1540002,,,2024-01-31,清算の結了等,,,2022-12-22,1,,,,,ダブルワーク,0
2260,9011001134158,登記記録の閉鎖等,0,2024-02-02,2024-01-18,インパクトフィールド株式会社,,株式会社,東京都,渋谷区,渋谷２丁目１２番１９号,,13,113,1500002,,,2024-01-18,合併による解散等,9011001045116,令和６年１月４日東京都渋谷区渋谷二丁目１２番１９号インパクトホールディングス株式会社（9011001045116）に合併し解散,2020-06-10,1,,,,,インパクトフィールド,0
2271,9011103011214,登記記録の閉鎖等,0,2024-02-02,2024-02-01,合同会社マジカリ,,合同会社,東京都,新宿区,左門町１４番地６１フォルム四谷外苑東１３０８,,13,104,1600017,,,2024-02-01,清算の結了等,,,2021-11-26,1,,,,,マジカリ,0
2276,9011401004778,登記記録の閉鎖等,0,2024-02-02,2024-01-31,株式会社トラストコーポレーション,,株式会社,東京都,板橋区,大山町５２番２号,,13,119,1730023,,,2024-01-31,清算の結了等,,,2015-10-05,1,,,,,トラストコーポレーション,0
2279,9011501022663,登記記録の閉鎖等,0,2024-02-02,2024-01-19,株式会社ＳＫＡｋａｓａｋａ,,株式会社,東京都,北区,豊島７丁目８番１４号,,13,117,1140003,,,2024-01-19,清算の結了等,,,2017-05-19,1,,,,,エスケーアカサカ,0
2288,9012802007873,登記記録の閉鎖等,0,2024-02-02,2024-01-29,有限会社ミック回送,,有限会社,東京都,武蔵村山市,中原２丁目２４番地の１９,,13,223,2080035,,,2024-01-29,清算の結了等,,,2015-10-05,1,,,,,ミックカイソウ,0
2289,9012803003021,登記記録の閉鎖等,0,2024-02-02,2024-01-30,合同会社ＹＴＲ,,合同会社,東京都,昭島市,昭和町３丁目１０番２１号,,13,207,1960015,,,2024-01-30,清算の結了等,,,2023-03-06,1,,,,,ワイティーアール,0
2290,9013301023073,登記記録の閉鎖等,0,2024-02-02,2024-01-25,ＤＡＳジャパン株式会社,,株式会社,東京都,豊島区,東池袋３丁目２０－１６,,13,116,1700013,,,2024-01-25,清算の結了等,,,2015-10-05,1,,,,,ディーエーエスジャパン,0
2295,9013302005095,登記記録の閉鎖等,0,2024-02-02,2024-01-23,有限会社スエシゲ建設サービス,,有限会社,東京都,北区,浮間１丁目１番１４号リムジンビル３０４,,13,117,1150051,,,2024-01-23,清算の結了等,,,2015-10-05,1,,,,,スエシゲケンセツサービス,0
2298,9020001081566,登記記録の閉鎖等,0,2024-02-02,2024-01-30,株式会社ＪＩＮ　ＳＹＳＴＥＭ,,株式会社,神奈川県,川崎市川崎区,小田栄２丁目１番５号,,14,131,2100843,,,2024-01-30,清算の結了等,,,2015-10-05,1,,,,,ジンシステム,0
2315,9030001072424,登記記録の閉鎖等,0,2024-02-02,2024-01-29,株式会社アシストコミュニケーション,,株式会社,埼玉県,東松山市,大字上野本１０５番地６,,11,212,3550073,,,2024-01-29,清算の結了等,,,2015-10-05,1,,,,,アシストコミュニケーション,0
2322,9030002082950,登記記録の閉鎖等,0,2024-02-02,2024-01-22,松本ブロック工業有限会社,,有限会社,埼玉県,鴻巣市,下谷２５１番地,,11,217,3650025,,,2024-01-22,清算の結了等,,,2015-10-05,1,,,,,,0
2331,9040002002379,登記記録の閉鎖等,0,2024-02-02,2024-01-23,有限会社音楽工房キャップス,,有限会社,千葉県,千葉市中央区,市場町２番９号,,12,101,2600855,,,2024-01-23,清算の結了等,,,2015-10-05,1,,,,,オンガクコウボウキャップス,0
2343,9080003001723,登記記録の閉鎖等,0,2024-02-02,2024-02-01,合同会社緑富士静岡,,合同会社,静岡県,静岡市葵区,新伝馬１丁目１１番４８号,,22,101,4200944,,,2024-02-01,清算の結了等,,,2015-10-05,1,,,,,ミドリフジシズオカ,0
2351,9120001086811,登記記録の閉鎖等,0,2024-02-02,2024-01-31,日酪産業株式会社,,株式会社,大阪府,大阪市中央区,（大阪市南区南船場三丁目３番７号）,,27,128,5390000,,,2024-01-31,清算の結了等,,,2015-10-05,1,,,,,ニチラクサンギョウ,1
2373,9120103002039,登記記録の閉鎖等,0,2024-02-02,2024-01-31,合同会社りんだコーポレーション,,合同会社,大阪府,和泉市,光明台２丁目３０番１２号,,27,219,5941111,,,2024-01-31,清算の結了等,,,2015-10-05,1,,,,,リンダコーポレーション,0
2375,9120902001307,登記記録の閉鎖等,0,2024-02-02,2024-02-01,有限会社原田朗由設計室,,有限会社,大阪府,茨木市,中河原町７番６号,,27,211,5670063,,,2024-02-01,清算の結了等,,,2015-10-05,1,,,,,ハラダアキヨシセッケイシツ,0
2376,9120902019951,登記記録の閉鎖等,0,2024-02-02,2024-01-25,ミヤモト工業有限会社,,有限会社,大阪府,豊中市,北条町２丁目２番２４号,,27,203,5610812,,,2024-01-25,清算の結了等,,,2015-10-05,1,,,,,ミヤモトコウギョウ,0
2380,9130001049817,登記記録の閉鎖等,0,2024-02-02,2024-02-01,明石マネジメント株式会社,,株式会社,島根県,松江市,乃白町９９８番地８,,32,201,6900045,,,2024-02-01,合併による解散等,2280001009028,令和６年２月１日島根県松江市宍道町佐々布３０３番地７明石ホールディングス株式会社（2280001009028）に合併し解散,2015-10-05,1,,,,,アカシマネジメント,0
2393,9170001014916,登記記録の閉鎖等,0,2024-02-02,2024-02-01,株式会社Ｍ－ｏｖｅ,,株式会社,和歌山県,日高郡みなべ町,気佐藤５０４番地,,30,391,6450011,,,2024-02-01,清算の結了等,,,2017-09-22,1,,,,,エムーブ,0
2397,9180001009774,登記記録の閉鎖等,0,2024-02-02,2024-01-26,株式会社浅野鉄工所,,株式会社,愛知県,名古屋市瑞穂区,春敲町２丁目１番地,,23,108,4670867,,,2024-01-26,清算の結了等,,,2015-10-05,1,,,,,アサノテッコウジョ,0
2400,9180001078472,登記記録の閉鎖等,0,2024-02-02,2024-01-31,大東インターナショナル株式会社,,株式会社,愛知県,小牧市,大字北外山２１２８番地１,,23,219,4850023,,,2024-01-31,清算の結了等,,,2015-10-05,1,,,,,ダイトウインターナショナル,0
2408,9180001123591,登記記録の閉鎖等,0,2024-02-02,2024-01-31,株式会社スター・プラス,,株式会社,愛知県,知多郡東浦町,大字石浜字午池１２５番地の２,,23,442,4702103,,,2024-01-31,清算の結了等,,,2016-06-08,1,,,,,スタープラス,0
2419,9180002076104,登記記録の閉鎖等,0,2024-02-02,2024-01-29,有限会社紙政商店,,有限会社,愛知県,一宮市,奥町字大切前１９番地,,23,203,4910201,,,2024-01-29,清算の結了等,,,2015-10-05,1,,,,,カミマサショウテン,0
2421,9180002085451,登記記録の閉鎖等,0,2024-02-02,2024-01-30,有限会社中村精密工業所,,有限会社,愛知県,知多郡東浦町,大字生路字折戸４１番地,,23,442,4702104,,,2024-01-30,清算の結了等,,,2015-10-05,1,,,,,ナカムラセイミツコウギョウショ,0
2428,9190001029945,登記記録の閉鎖等,0,2024-02-02,2024-01-31,ほしあかり株式会社,,株式会社,三重県,四日市市,久保田２丁目３－１８プリンセスマンション１Ａ,,24,202,5100821,,,2024-01-31,清算の結了等,,,2022-11-22,1,,,,,ホシアカリ,0
2430,9190002005417,登記記録の閉鎖等,0,2024-02-02,2024-01-31,有限会社北村無線設備,,有限会社,三重県,尾鷲市,中井町１０番７号,,24,209,5193605,,,2024-01-31,清算の結了等,,,2015-10-05,1,,,,,キタムラムセンセツビ,0
2432,9190002024706,登記記録の閉鎖等,0,2024-02-02,2024-01-25,有限会社宮野組,,有限会社,三重県,鈴鹿市,長太旭町２丁目１２番３号,,24,207,5130042,,,2024-01-25,清算の結了等,,,2024-01-11,1,,,,,ミヤノグミ,0
2434,9220001002031,登記記録の閉鎖等,0,2024-02-02,2024-01-31,金沢交通株式会社,,株式会社,石川県,金沢市,松村５丁目６番地,,17,201,9200348,,,2024-01-31,清算の結了等,,,2015-10-05,1,,,,,カナザワコウツウ,0
2441,9260001015087,登記記録の閉鎖等,0,2024-02-02,2024-01-31,株式会社山本住建,,株式会社,岡山県,倉敷市,羽島１９１番地の８,,33,202,7100043,,,2024-01-31,清算の結了等,,,2015-10-05,1,,,,,ヤマモトジュウケン,0
2445,9280002006067,登記記録の閉鎖等,0,2024-02-02,2024-01-31,有限会社持田新聞店,,有限会社,島根県,出雲市,高松町１３４６番地２,,32,203,6930053,,,2024-01-31,清算の結了等,,,2015-10-05,1,,,,,モチダシンブンテン,0
2458,9320002006822,登記記録の閉鎖等,0,2024-02-02,2024-01-30,有限会社名物堂,,有限会社,大分県,大分市,末広町１丁目１番３１号,,44,201,8700027,,,2024-01-30,清算の結了等,,,2015-10-05,1,,,,,メイブツドウ,0
2460,9330001020022,登記記録の閉鎖等,0,2024-02-02,2024-01-30,株式会社いそ六,,株式会社,熊本県,八代市,塩屋町２番６号,,43,202,8660864,,,2024-01-30,清算の結了等,,,2015-10-05,1,,,,,イソロク,0
2478,9420001015343,登記記録の閉鎖等,0,2024-02-02,2024-01-31,株式会社サポート青森,,株式会社,青森県,青森市,虹ケ丘１丁目６番地６,,02,201,0300948,,,2024-01-31,清算の結了等,,,2016-07-28,1,,,,,サポートアオモリ,0
2480,9430002010144,登記記録の閉鎖等,0,2024-02-02,2024-01-30,有限会社新和建機,,有限会社,北海道,札幌市手稲区,手稲前田５７３番地,,01,109,0060829,,,2024-01-30,清算の結了等,,,2015-10-05,1,,,,,シンワケンキ,0
2486,9480005002282,登記記録の閉鎖等,0,2024-02-02,2024-01-30,医療法人佐々木クリニック,,その他の設立登記法人,徳島県,徳島市,一宮町東丁２０５番地,,36,201,7793132,,,2024-01-30,清算の結了等,,,2015-10-05,1,,,,,ササキクリニック,0
